sequenceNumber,corporateNumber,process,correct,updateDate,changeDate,name,nameImageId,kind,prefectureName,cityName,streetNumber,addressImageId,prefectureCode,cityCode,postCode,addressOutside,addressOutsideImageId,closeDate,closeCause,successorCorporateNumber,changeCause,assignmentDate,latest,enName,enPrefectureName,enCityName,enAddressOutside,furigana,hihyoji
1,1010001069108,登記記録の閉鎖等,0,2024-10-02,2024-09-24,株式会社イーブックイニシアティブジャパン,,株式会社,東京都,千代田区,麹町１丁目１２番地１,,13,101,1020083,,,2024-09-24,合併による解散等,4011101084679,令和６年９月１日東京都品川区西品川一丁目１番１号ＬＩＮＥ　Ｄｉｇｉｔａｌ　Ｆｒｏｎｔｉｅｒ株式会社（4011101084679）に合併し解散,2015-10-05,1,,,,,イーブックイニシアティブジャパン,0
33,1011101077875,登記記録の閉鎖等,0,2024-10-02,2024-09-05,株式会社ＩＭＬ,,株式会社,東京都,港区,虎ノ門１丁目１６番６号虎ノ門ＲＡＰＯ－ＴＯビルＵＣＦ７０３,,13,103,1050001,,,2024-09-05,清算の結了等,,,2016-08-09,1,,,,,アイエムエル,0
40,1011701018493,登記記録の閉鎖等,0,2024-10-02,2024-09-20,株式会社ＧＯ,,株式会社,東京都,江戸川区,南小岩７丁目２６番１６号リバティ小岩ビル２Ｆ,,13,123,1330056,,,2024-09-20,清算の結了等,,,2015-10-05,1,,,,,ゴー,0
41,1011801028830,登記記録の閉鎖等,0,2024-10-02,2024-09-26,株式会社ウィーズキャリＡＨ,,株式会社,神奈川県,横浜市港北区,新横浜２丁目５番１０号第二楓ビル５Ｆ・Ｂ室,,14,109,2220033,,,2024-09-26,合併による解散等,6030001066965,令和６年９月１日埼玉県北葛飾郡松伏町築比地７９５番地１株式会社ウィーズ（6030001066965）に合併し解散,2015-10-05,1,,,,,ウィーズキャリア,0
53,1013305003079,登記記録の閉鎖等,0,2024-10-02,2024-09-24,特定非営利活動法人ＮｕｒｓｅＨｏｕｓｅ,,その他の設立登記法人,東京都,豊島区,駒込１丁目１８番６号,,13,116,1700003,,,2024-09-24,清算の結了等,,,2020-04-21,1,,,,,ナースハウス,0
55,1020001108905,登記記録の閉鎖等,0,2024-10-02,2024-09-13,株式会社ビリーブ・アップ,,株式会社,神奈川県,川崎市川崎区,宮本町４番地１７エトワール・トキワ１０１,,14,131,2100004,,,2024-09-13,清算の結了等,,,2015-10-05,1,,,,,ビリーブアップ,0
67,1021001064477,登記記録の閉鎖等,0,2024-10-02,2024-09-30,株式会社アグリーワン,,株式会社,神奈川県,愛甲郡愛川町,春日台３丁目８番地の２５,,14,401,2430302,,,2024-09-30,清算の結了等,,,2018-04-05,1,,,,,アグリーワン,0
82,1030002101412,登記記録の閉鎖等,0,2024-10-02,2024-09-24,有限会社アベニール・クリエイト・システム,,有限会社,埼玉県,川口市,大字安行領根岸１１４９番地３,,11,203,3330834,,,2024-09-24,清算の結了等,,,2015-10-05,1,,,,,アベニールクリエイトシステム,0
83,1030002106080,登記記録の閉鎖等,0,2024-10-02,2024-09-25,有限会社パッケージセンター,,有限会社,埼玉県,川口市,大字安行吉蔵２３番地５３,,11,203,3340053,,,2024-09-25,清算の結了等,,,2015-10-05,1,,,,,パッケージセンター,0
98,1060002038932,登記記録の閉鎖等,0,2024-10-02,2024-09-25,有限会社グローアップ,,有限会社,栃木県,佐野市,犬伏新町２０３８番地１,,09,204,3270803,,,2024-09-25,清算の結了等,,,2015-10-05,1,,,,,グローアップ,0
107,1100002014532,登記記録の閉鎖等,0,2024-10-02,2024-09-26,株式会社ウィーズ東北Ｄ,,株式会社,山形県,米沢市,城西１丁目６番２０号,,06,202,9920054,,,2024-09-26,合併による解散等,6030001066965,令和６年９月１日埼玉県北葛飾郡松伏町築比地７９５番地１株式会社ウィーズ（6030001066965）に合併し解散,2015-10-05,1,,,,,ウィーズトウホクディー,0
109,1100005007161,登記記録の閉鎖等,0,2024-10-02,2024-09-24,特定非営利活動法人青い空,,その他の設立登記法人,長野県,松本市,大字笹賀６０６５番地９,,20,202,3990033,,,2024-09-24,清算の結了等,,,2015-10-05,1,,,,,アオイソラ,0
115,1120001030834,登記記録の閉鎖等,0,2024-10-02,2024-10-01,嶋田鋼業株式会社,,株式会社,大阪府,大阪市東成区,中本４丁目１番８号,,27,115,5370022,,,2024-10-01,清算の結了等,,,2015-10-05,1,,,,,シマダコウギョウ,0
119,1120001093220,登記記録の閉鎖等,0,2024-10-02,2024-09-13,日本サポート株式会社,,株式会社,大阪府,大阪市中央区,瓦町３丁目１番４号,,27,128,5410048,,,2024-09-13,清算の結了等,,,2015-10-05,1,,,,,ニホンサポート,0
135,1120101053371,登記記録の閉鎖等,0,2024-10-02,2024-09-26,株式会社ｌａｎｉ,,株式会社,大阪府,和泉市,府中町５丁目１４番２１号,,27,219,5940071,,,2024-09-26,清算の結了等,,,2015-10-05,1,,,,,ラニ,0
142,1130001043356,登記記録の閉鎖等,0,2024-10-02,2024-09-30,京都ハト商事株式会社,,株式会社,京都府,舞鶴市,字倉谷小字森安１０８０番地,,26,202,6240906,,,2024-09-30,清算の結了等,,,2015-10-05,1,,,,,キョウトハトショウジ,0
147,1130003007425,登記記録の閉鎖等,0,2024-10-02,2024-09-30,合同会社ウキヨ工業,,合同会社,京都府,京都市左京区,下鴨蓼倉町２１－８－１,,26,103,6060806,,,2024-09-30,清算の結了等,,,2021-08-19,1,,,,,ウキヨコウギョウ,0
164,1170001011326,登記記録の閉鎖等,0,2024-10-02,2024-09-30,株式会社マロン,,株式会社,和歌山県,和歌山市,松江北５丁目４番１１号,,30,201,6408425,,,2024-09-30,清算の結了等,,,2015-10-05,1,,,,,マロン,0
165,1170001015839,登記記録の閉鎖等,0,2024-10-02,2024-10-01,株式会社ＯＡＳＩＳ,,株式会社,和歌山県,和歌山市,堀止南ノ丁１番７号コレーオス堀止１Ｆ,,30,201,6410041,,,2024-10-01,清算の結了等,,,2019-11-26,1,,,,,オアシス,0
176,1180001153737,登記記録の閉鎖等,0,2024-10-02,2024-09-18,株式会社あいずステーション東海,,株式会社,愛知県,名古屋市緑区,桃山４丁目１２３番地,,23,114,4580002,,,2024-09-18,清算の結了等,,,2022-11-07,1,,,,,アイズステーショントウカイ,0
182,1180002092521,登記記録の閉鎖等,0,2024-10-02,2024-09-19,有限会社ケーユー総研,,有限会社,愛知県,あま市,二ツ寺揚山１９６番地１,,23,237,4901207,,,2024-09-19,清算の結了等,,,2015-10-05,1,,,,,ケーユーソウケン,0
202,1260002031636,登記記録の閉鎖等,0,2024-10-02,2024-09-18,有限会社岡山海産,,有限会社,岡山県,備前市,日生町寒河２４５８番地の３５,,33,211,7013202,,,2024-09-18,清算の結了等,,,2015-10-05,1,,,,,オカヤマカイサン,0
211,1290801005580,登記記録の閉鎖等,0,2024-10-02,2024-09-27,西日本試錐工業株式会社,,株式会社,福岡県,北九州市門司区,白野江３丁目２２番１号,,40,101,8010802,,,2024-09-27,清算の結了等,,,2015-10-05,1,,,,,ニシニホンシスイコウギョウ,0
225,1350002016256,登記記録の閉鎖等,0,2024-10-02,2024-09-26,有限会社アリナワ,,有限会社,宮崎県,都城市,平塚町２９８３番地３３,,45,202,8850085,,,2024-09-26,清算の結了等,,,2015-10-05,1,,,,,アリナワ,0
233,1370005010312,登記記録の閉鎖等,0,2024-10-02,2024-09-17,医療法人社団ハイライフ東北,,その他の設立登記法人,宮城県,仙台市青葉区,本町１丁目５番２８号カーニープレイス仙台駅前通６０３号室,,04,101,9800014,,,2024-09-17,清算の結了等,,,2021-07-09,1,,,,,ハイライフトウホク,0
239,1410002007356,登記記録の閉鎖等,0,2024-10-02,2024-09-27,有限会社ふじい,,有限会社,秋田県,にかほ市,象潟町字浜山１２６番地の１３５,,05,214,0180101,,,2024-09-27,清算の結了等,,,2015-10-05,1,,,,,フジイ,0
244,1420002014285,登記記録の閉鎖等,0,2024-10-02,2024-09-30,有限会社丸三商店,,有限会社,青森県,弘前市,大字駒越町７８番地,,02,202,0368366,,,2024-09-30,清算の結了等,,,2015-10-05,1,,,,,マルサンショウテン,0
253,1480002015022,登記記録の閉鎖等,0,2024-10-02,2024-09-25,有限会社ベーカーショップ・サトウ,,有限会社,徳島県,美馬市,脇町大字猪尻字東分１２１番地の２,,36,207,7793602,,,2024-09-25,清算の結了等,,,2015-10-05,1,,,,,ベーカーショップサトウ,0
254,1480003001780,登記記録の閉鎖等,0,2024-10-02,2024-09-30,合同会社ａｎｄ　Ｇｒｅｅｎ,,合同会社,徳島県,徳島市,川内町加賀須野４５４番地２,,36,201,7710130,,,2024-09-30,清算の結了等,,,2022-01-06,1,,,,,アンドグリーン,0
256,1500002001358,登記記録の閉鎖等,0,2024-10-02,2024-10-01,愛媛農商有限会社,00007722,有限会社,愛媛県,松山市,大手町２丁目３番地３,,38,201,7900067,,,2024-10-01,清算の結了等,,,2015-10-05,1,,,,,エヒメノウショウ,0
265,2010001215445,登記記録の閉鎖等,0,2024-10-02,2024-09-05,株式会社ＫＧＰ,,株式会社,東京都,千代田区,東神田１丁目１５番９号セントピア東神田ビル,,13,101,1010031,,,2024-09-05,清算の結了等,,,2021-01-28,1,,,,,ケージーピー,0
267,2010002006595,登記記録の閉鎖等,0,2024-10-02,2024-09-17,有限会社リースキン・ハサダ,,有限会社,東京都,文京区,西片１丁目２番４号,,13,105,1130024,,,2024-09-17,清算の結了等,,,2015-10-05,1,,,,,リースキンハサダ,0
271,2010005024644,登記記録の閉鎖等,0,2024-10-02,2024-09-26,一般社団法人Ａｔｏｓ　Ｆｕｎｄ,,その他の設立登記法人,埼玉県,加須市,琴寄１１５番地２,,11,210,3491133,,,2024-09-26,清算の結了等,,,2015-11-17,1,,,,,アトスファンド,0
288,2010601037173,登記記録の閉鎖等,0,2024-10-02,2024-09-26,株式会社ぐすく,,株式会社,東京都,世田谷区,上祖師谷１丁目４１番５号プリミエール烏山３０３,,13,112,1570065,,,2024-09-26,清算の結了等,,,2015-10-05,1,,,,,グスク,0
289,2010601057997,登記記録の閉鎖等,0,2024-10-02,2024-09-09,株式会社ＩＣＯＮ,,株式会社,東京都,千代田区,外神田６丁目１５－１４ストークビル３２０号室,,13,101,1010021,,,2024-09-09,清算の結了等,,,2020-09-16,1,,,,,アイコン,0
328,2013201010277,登記記録の閉鎖等,0,2024-10-02,2024-09-06,ヨシダック株式会社,,株式会社,東京都,目黒区,平町２丁目１３番５号,,13,110,1520032,,,2024-09-06,清算の結了等,,,2015-10-05,1,,,,,ヨシダック,0
331,2020001127920,登記記録の閉鎖等,0,2024-10-02,2024-09-13,株式会社ＨＦＫ,,株式会社,神奈川県,横浜市都筑区,すみれが丘２０番地１３,,14,118,2240013,,,2024-09-13,清算の結了等,,,2018-09-14,1,,,,,エイチエフケー,0
336,2020003022252,登記記録の閉鎖等,0,2024-10-02,2024-09-13,リセンス合同会社,,合同会社,神奈川県,横浜市西区,高島２丁目１１番２号スカイメナー横浜５１９,,14,103,2200011,,,2024-09-13,清算の結了等,,,2022-08-18,1,,,,,リセンス,0
347,2021003011699,登記記録の閉鎖等,0,2024-10-02,2024-09-27,合同会社晃明,,合同会社,神奈川県,茅ヶ崎市,浜須賀１番３２号,,14,207,2530035,,,2024-09-27,清算の結了等,,,2022-05-13,1,,,,,コウメイ,0
350,2030001038159,登記記録の閉鎖等,0,2024-10-02,2024-09-24,株式会社埼京マサル,,株式会社,埼玉県,三郷市,三郷１丁目１－１２セレノビル３０１,,11,237,3410024,,,2024-09-24,清算の結了等,,,2015-10-05,1,,,,,サイキョウマサル,0
355,2030003014273,登記記録の閉鎖等,0,2024-10-02,2024-09-25,ワンストップソリューション合同会社,,合同会社,埼玉県,ふじみ野市,大井中央３丁目３－１８,,11,245,3560058,,,2024-09-25,清算の結了等,,,2019-10-29,1,,,,,ワンストップソリューション,0
356,2030003017193,登記記録の閉鎖等,0,2024-10-02,2024-09-24,日本ＷＳＴ合同会社,,合同会社,埼玉県,入間市,大字二本木６２８－１,,11,225,3580015,,,2024-09-24,清算の結了等,,,2021-04-28,1,,,,,ニッポンダブルエスティ,0
365,2040003008720,登記記録の閉鎖等,0,2024-10-02,2024-09-26,ほのか合同会社,,合同会社,千葉県,浦安市,東野２丁目４番１４号,,12,227,2790042,,,2024-09-26,清算の結了等,,,2016-06-23,1,,,,,ホノカ,0
366,2040003014140,登記記録の閉鎖等,0,2024-10-02,2024-09-24,合同会社アグリネクスト,,合同会社,千葉県,千葉市中央区,富士見１丁目１４番１３号千葉大栄ビル８階,,12,101,2600015,,,2024-09-24,清算の結了等,,,2019-10-08,1,,,,,アグリネクスト,0
370,2050001035542,登記記録の閉鎖等,0,2024-10-02,2024-09-24,株式会社エル,,株式会社,茨城県,那珂市,菅谷１８７１番地７,,08,226,3110105,,,2024-09-24,清算の結了等,,,2015-10-05,1,,,,,エル,0
372,2050002006212,登記記録の閉鎖等,0,2024-10-02,2024-09-24,グローアップ茨城有限会社,,有限会社,茨城県,水戸市,堀町１１７７番地の２,,08,201,3100903,,,2024-09-24,清算の結了等,,,2015-10-05,1,,,,,グローアップイバラキ,0
375,2070002017793,登記記録の閉鎖等,0,2024-10-02,2024-09-27,有限会社丸栄銘木店,,有限会社,群馬県,藤岡市,神田１１４２番地の２,,10,209,3750032,,,2024-09-27,清算の結了等,,,2015-10-05,1,,,,,マルエイメイボクテン,0
376,2070005004681,登記記録の閉鎖等,0,2024-10-02,2024-09-25,特定非営利活動法人ねこのてハウス,,その他の設立登記法人,群馬県,伊勢崎市,波志江町１９１４番地１６,,10,204,3720001,,,2024-09-25,清算の結了等,,,2015-10-05,1,,,,,ネコノテハウス,0
378,2080102016629,登記記録の閉鎖等,0,2024-10-02,2024-09-19,有限会社京極タンス店,,有限会社,静岡県,富士宮市,中央町３番１８号,,22,207,4180065,,,2024-09-19,清算の結了等,,,2015-10-05,1,,,,,キョウゴクタンステン,0
381,2090002010739,登記記録の閉鎖等,0,2024-10-02,2024-09-25,有限会社ケーエムジー,,有限会社,山梨県,山梨市,鴨居寺４６２番地,,19,205,4050013,,,2024-09-25,清算の結了等,,,2015-10-05,1,,,,,ケーエムジー,0
410,2130001030782,登記記録の閉鎖等,0,2024-10-02,2024-09-30,株式会社ＧＯＯＤ　ＳＫＩＬＬ　ＣＬＵＢ,,株式会社,京都府,長岡京市,開田１丁目１５番１３号,,26,209,6170826,,,2024-09-30,清算の結了等,,,2015-10-05,1,,,,,グッドスキルクラブ,0
414,2140001005759,登記記録の閉鎖等,0,2024-10-02,2024-09-25,株式会社アイエスデー,,株式会社,兵庫県,神戸市中央区,磯上通２丁目２番２５－１２０５,,28,110,6510086,,,2024-09-25,清算の結了等,,,2015-10-05,1,,,,,アイエスデー,0
430,2160005004714,登記記録の閉鎖等,0,2024-10-02,2024-09-30,特定非営利活動法人いきいきおうみ,,その他の設立登記法人,滋賀県,米原市,顔戸１７２９番地１,,25,214,5210072,,,2024-09-30,清算の結了等,,,2015-10-05,1,,,,,イキイキオウミ,0
433,2180001072102,登記記録の閉鎖等,0,2024-10-02,2024-09-18,株式会社あすか保険事務所,,株式会社,愛知県,名古屋市天白区,保呂町１６０１番地,,23,116,4680041,,,2024-09-18,清算の結了等,,,2015-10-05,1,,,,,アスカホケンジムショ,0
434,2180001084221,登記記録の閉鎖等,0,2024-10-02,2024-09-19,近藤和纎維株式会社,,株式会社,愛知県,一宮市,東五城字大平裏２４番地の１,,23,203,4940008,,,2024-09-19,清算の結了等,,,2015-10-05,1,,,,,コンドウカズセンイ,0
451,2200005006409,登記記録の閉鎖等,0,2024-10-02,2024-10-01,特定非営利活動法人ＭＪバスケットボールクラブ,,その他の設立登記法人,岐阜県,大垣市,菅野２丁目９番地,,21,202,5032208,,,2024-10-01,清算の結了等,,,2015-10-05,1,,,,,エムジェイバスケットボールクラブ,0
460,2230002005402,登記記録の閉鎖等,0,2024-10-02,2024-09-30,有限会社サンサンサン,,有限会社,富山県,富山市,黒瀬北町２丁目１２番地２,,16,201,9398216,,,2024-09-30,清算の結了等,,,2015-10-05,1,,,,,サンサンサン,0
461,2240001045530,登記記録の閉鎖等,0,2024-10-02,2024-09-26,マスペロ株式会社,,株式会社,広島県,東広島市,志和町奥屋２０５３番地１,,34,212,7390266,,,2024-09-26,清算の結了等,,,2015-10-05,1,,,,,マスペロ,0
463,2240002053490,登記記録の閉鎖等,0,2024-10-02,2024-09-26,日東商事有限会社,,有限会社,広島県,三原市,本町１丁目３番３号,,34,204,7230062,,,2024-09-26,清算の結了等,,,2015-10-05,1,,,,,ニットウショウジ,0
467,2280001006735,登記記録の閉鎖等,0,2024-10-02,2024-10-01,株式会社ジェイ,,株式会社,島根県,松江市,竹矢町７７２番地６,,32,201,6900023,,,2024-10-01,合併による解散等,9280002003394,令和６年１０月１日島根県松江市西尾町２４番地５株式会社エヌ・アール・シー（9280002003394）に合併し解散,2015-10-05,1,,,,,ジェイ,0
478,2300003001574,登記記録の閉鎖等,0,2024-10-02,2024-09-26,合同会社Ａ＆Ｔ,,合同会社,佐賀県,伊万里市,伊万里町甲２３番地３,,41,205,8480047,,,2024-09-26,清算の結了等,,,2020-07-28,1,,,,,エーアンドテイー,0
509,2480002012761,登記記録の閉鎖等,0,2024-10-02,2024-10-01,有限会社オーエスエー建設,,有限会社,徳島県,阿南市,椿町蒲生田１５７番地,,36,204,7791750,,,2024-10-01,清算の結了等,,,2015-10-05,1,,,,,オーエスエーケンセツ,0
520,3010001138934,登記記録の閉鎖等,0,2024-10-02,2024-09-25,ＮＡＴＵＲＥＸ株式会社,,株式会社,東京都,品川区,大崎３丁目６番６号,,13,109,1410032,,,2024-09-25,清算の結了等,,,2015-10-05,1,,,,,ナチュレックス,0
544,3010405019656,登記記録の閉鎖等,0,2024-10-02,2024-09-04,一般社団法人ＳＡ京都マンションＰＪ,,その他の設立登記法人,東京都,港区,虎ノ門５丁目１番４号,,13,103,1050001,,,2024-09-04,清算の結了等,,,2021-03-30,1,,,,,エスエーキョウトマンションピージェイ,0
560,3011003007623,登記記録の閉鎖等,0,2024-10-02,2024-09-30,ＴＭ建物合同会社,,合同会社,東京都,渋谷区,千駄ヶ谷４丁目１７番２号,,13,113,1510051,,,2024-09-30,清算の結了等,,,2017-04-25,1,,,,,ティーエムタテモノ,0
573,3011701002355,登記記録の閉鎖等,0,2024-10-02,2024-09-20,株式会社木下工務店,,株式会社,東京都,江戸川区,江戸川５丁目２０番地４８,,13,123,1340013,,,2024-09-20,清算の結了等,,,2015-10-05,1,,,,,キノシタコウムテン,0
574,3011701008377,登記記録の閉鎖等,0,2024-10-02,2024-09-18,株式会社両毛シャーリングセンター,,株式会社,東京都,江戸川区,松島３丁目４６番１５号,,13,123,1320031,,,2024-09-18,清算の結了等,,,2015-10-05,1,,,,,リョウモウシャーリングセンター,0
589,3013205001486,登記記録の閉鎖等,0,2024-10-02,2024-09-05,特定非営利活動法人ｍｏｂｉｌｉｔｙ２１,,その他の設立登記法人,東京都,渋谷区,松濤２丁目７番１２号松濤ハウス６０１,,13,113,1500046,,,2024-09-05,清算の結了等,,,2015-10-05,1,,,,,モビリティーニジュウイチ,0
596,3020001052102,登記記録の閉鎖等,0,2024-10-02,2024-09-13,株式会社北登設備,,株式会社,神奈川県,横浜市都筑区,池辺町４８８７番地１ファミールプラザ２０３,,14,118,2240053,,,2024-09-13,清算の結了等,,,2015-10-05,1,,,,,ホクトセツビ,0
603,3020002012526,登記記録の閉鎖等,0,2024-10-02,2024-09-27,有限会社日穂圧送,,有限会社,神奈川県,大和市,西鶴間１丁目１０番１３－４１０号,,14,213,2420005,,,2024-09-27,清算の結了等,,,2015-10-05,1,,,,,ニッスイアッソウ,0
606,3020002086198,登記記録の閉鎖等,0,2024-10-02,2024-09-13,有限会社菊池電設,,有限会社,神奈川県,川崎市宮前区,野川本町２丁目２４番２５－２０２号アーバンコート東野川,,14,136,2160041,,,2024-09-13,清算の結了等,,,2015-10-05,1,,,,,キクチデンセツ,0
609,3021001043545,登記記録の閉鎖等,0,2024-10-02,2024-09-30,株式会社東新工,,株式会社,神奈川県,横須賀市,田浦港町無番地,,14,201,2370071,,,2024-09-30,清算の結了等,,,2015-10-05,1,,,,,トウシンコウ,0
617,3030001063544,登記記録の閉鎖等,0,2024-10-02,2024-09-24,株式会社イシムラ,,株式会社,埼玉県,越谷市,赤山町５丁目６番地５,,11,222,3430807,,,2024-09-24,清算の結了等,,,2015-10-05,1,,,,,イシムラ,0
626,3040001084085,登記記録の閉鎖等,0,2024-10-02,2024-09-25,株式会社長信,,株式会社,千葉県,鎌ケ谷市,南初富４丁目５番５６号,,12,224,2730123,,,2024-09-25,清算の結了等,,,2015-10-05,1,,,,,チョウシン,0
634,3040002038825,登記記録の閉鎖等,0,2024-10-02,2024-09-24,有限会社貝塚台,,有限会社,千葉県,市川市,堀之内４丁目２番１２号,,12,203,2720837,,,2024-09-24,清算の結了等,,,2015-10-05,1,,,,,カイヅカダイ,0
636,3050002002961,登記記録の閉鎖等,0,2024-10-02,2024-09-24,有限会社水戸入船堂,,有限会社,茨城県,水戸市,南町３丁目４番１６号,,08,201,3100021,,,2024-09-24,清算の結了等,,,2015-10-05,1,,,,,ミトイリフネドウ,0
637,3050005002843,登記記録の閉鎖等,0,2024-10-02,2024-09-26,特定非営利活動法人ひろがる和,,その他の設立登記法人,茨城県,那珂市,杉５５９番地１,,08,226,3110106,,,2024-09-26,清算の結了等,,,2015-10-05,1,,,,,ヒロガルワ,0
639,3060001034947,登記記録の閉鎖等,0,2024-10-02,2024-09-27,株式会社エーワン,,株式会社,栃木県,鹿沼市,口粟野６０８番地５,,09,205,3220305,,,2024-09-27,清算の結了等,,,2022-06-03,1,,,,,エーワン,0
650,3090001004906,登記記録の閉鎖等,0,2024-10-02,2024-09-26,株式会社塩澤建設,,株式会社,山梨県,南アルプス市,落合２０９４番地,,19,208,4000423,,,2024-09-26,清算の結了等,,,2015-10-05,1,,,,,シオザワケンセツ,0
657,3110001023837,登記記録の閉鎖等,0,2024-10-02,2024-09-24,モンド株式会社,,株式会社,新潟県,長岡市,三島新保６３３番地１,,15,202,9402311,,,2024-09-24,清算の結了等,,,2015-10-05,1,,,,,モンド,0
662,3120001048734,登記記録の閉鎖等,0,2024-10-02,2024-09-30,日本電機工業株式会社,,株式会社,大阪府,大阪市淀川区,西中島７丁目１番２６号,,27,123,5320011,,,2024-09-30,清算の結了等,,,2015-10-05,1,,,,,ニホンデンキコウギョウ,0
666,3120001253730,登記記録の閉鎖等,0,2024-10-02,2024-09-30,ウィルゴー株式会社,,株式会社,大阪府,大阪市北区,梅田１丁目２番２号大阪駅前第２ビル１２－１２,,27,127,5300001,,,2024-09-30,清算の結了等,,,2023-04-05,1,,,,,ウィルゴー,0
684,3130001055606,登記記録の閉鎖等,0,2024-10-02,2024-10-01,株式会社マキジュウ,,株式会社,京都府,京都市山科区,四ノ宮小金塚８番地４７６,,26,110,6078022,,,2024-10-01,清算の結了等,,,2015-10-05,1,,,,,マキジュウ,0
685,3140001091220,登記記録の閉鎖等,0,2024-10-02,2024-09-27,株式会社梵天,,株式会社,兵庫県,神戸市北区,道場町生野１１７２番地２７１,,28,109,6511503,,,2024-09-27,清算の結了等,,,2015-10-05,1,,,,,,0
694,3180001117236,登記記録の閉鎖等,0,2024-10-02,2024-09-20,株式会社ストレート,,株式会社,愛知県,名古屋市緑区,桃山１丁目１６５番地,,23,114,4580002,,,2024-09-20,清算の結了等,,,2015-10-05,1,,,,,ストレート,0
699,3180003012410,登記記録の閉鎖等,0,2024-10-02,2024-09-19,合資会社杁山製作所,,合資会社,愛知県,岩倉市,中本町中市場９番地の２,,23,228,4820042,,,2024-09-19,清算の結了等,,,2015-10-05,1,,,,,イリヤマセイサクジョ,0
717,3200002020436,登記記録の閉鎖等,0,2024-10-02,2024-09-30,有限会社ティーシーシー,,有限会社,岐阜県,多治見市,市之倉町１２丁目２２６番地,,21,204,5070814,,,2024-09-30,清算の結了等,,,2015-10-05,1,,,,,ティーシーシー,0
719,3210001007697,登記記録の閉鎖等,0,2024-10-02,2024-09-25,柳澤ウーベン・ラベル株式会社,,株式会社,福井県,坂井市,丸岡町荒町１６番地,,18,210,9100227,,,2024-09-25,清算の結了等,,,2015-10-05,1,,,,,ヤナギサワウーベンラベル,0
730,3260001007767,登記記録の閉鎖等,0,2024-10-02,2024-09-26,株式会社システムサポート,,株式会社,岡山県,岡山市南区,新保１１９５番地の４,,33,104,7000945,,,2024-09-26,清算の結了等,,,2015-10-05,1,,,,,システムサポート,0
736,3280005002234,登記記録の閉鎖等,0,2024-10-02,2024-09-27,安来エルピーガス事業協同組合,,その他の設立登記法人,島根県,安来市,黒井田町７３１番地,,32,206,6920023,,,2024-09-27,清算の結了等,,,2015-10-05,1,,,,,ヤスギエルピーガスジギョウ,0
743,3310002019203,登記記録の閉鎖等,0,2024-10-02,2024-09-20,有限会社市山石油,,有限会社,長崎県,壱岐市,芦辺町諸吉大石触４７２番地１０,00096230,42,210,8115316,,,2024-09-20,清算の結了等,,,2015-10-05,1,,,,,イチヤマセキユ,0
745,3320001000807,登記記録の閉鎖等,0,2024-10-02,2024-09-30,加藤工業株式会社,,株式会社,大分県,大分市,大字三佐２４３１番地の２,,44,201,8700108,,,2024-09-30,清算の結了等,,,2015-10-05,1,,,,,カトウコウギョウ,0
773,3480002001788,登記記録の閉鎖等,0,2024-10-02,2024-09-30,有限会社小延工業,,有限会社,徳島県,徳島市,住吉２丁目８番３６号,,36,201,7700861,,,2024-09-30,清算の結了等,,,2015-10-05,1,,,,,ショウエンコウギョウ,0
800,4010503006423,登記記録の閉鎖等,0,2024-10-02,2024-09-24,合同会社ＯＭＯＳＨＩＲＯ,,合同会社,東京都,台東区,小島２丁目１番１１号,,13,106,1110056,,,2024-09-24,清算の結了等,,,2021-11-08,1,,,,,オモシロ,0
829,4011702001330,登記記録の閉鎖等,0,2024-10-02,2024-09-17,有限会社岩崎建築事務所,,有限会社,東京都,江戸川区,松江３丁目５番２２号,,13,123,1320025,,,2024-09-17,清算の結了等,,,2015-10-05,1,,,,,,0
832,4011802017210,登記記録の閉鎖等,0,2024-10-02,2024-09-25,有限会社パーツシヨツプ小林,,有限会社,東京都,足立区,谷在家２丁目８番１０号,,13,121,1230863,,,2024-09-25,清算の結了等,,,2015-10-05,1,,,,,パーツショップコバヤシ,0
833,4012401009648,登記記録の閉鎖等,0,2024-10-02,2024-09-24,株式会社東建産業,,株式会社,東京都,立川市,富士見町７丁目１４番５号,,13,202,1900013,,,2024-09-24,清算の結了等,,,2015-10-05,1,,,,,トウケンサンギョウ,0
839,4013301035379,登記記録の閉鎖等,0,2024-10-02,2024-09-27,ＡＭ株式会社,,株式会社,東京都,世田谷区,玉川台２丁目１６番１６号,,13,112,1580096,,,2024-09-27,清算の結了等,,,2015-10-05,1,,,,,エーエム,0
847,4020002101765,登記記録の閉鎖等,0,2024-10-02,2024-09-13,有限会社モリ刃研工業,,有限会社,神奈川県,川崎市高津区,下野毛３丁目１４番１５号,,14,134,2130006,,,2024-09-13,清算の結了等,,,2015-10-05,1,,,,,,0
869,4030002125466,登記記録の閉鎖等,0,2024-10-02,2024-09-26,有限会社原口工務店,,有限会社,埼玉県,桶川市,北１丁目１７番１６号,,11,231,3630011,,,2024-09-26,清算の結了等,,,2024-04-30,1,,,,,ハラグチコウムテン,0
905,4120001004835,登記記録の閉鎖等,0,2024-10-02,2024-10-01,株式会社永智,,株式会社,大阪府,大阪市阿倍野区,天王寺町北２丁目３１番２６号,,27,119,5450001,,,2024-10-01,清算の結了等,,,2015-10-05,1,,,,,エイチ,0
906,4120001149465,登記記録の閉鎖等,0,2024-10-02,2024-09-30,株式会社クイーンズ,,株式会社,大阪府,大阪市中央区,南久宝寺町１丁目７番５号,,27,128,5410058,,,2024-09-30,清算の結了等,,,2015-10-05,1,,,,,クイーンズ,0
918,4120005015837,登記記録の閉鎖等,0,2024-10-02,2024-09-30,特定非営利活動法人緑・ふれあいの家,,その他の設立登記法人,大阪府,大阪市鶴見区,緑３丁目３番３号,,27,124,5380054,,,2024-09-30,清算の結了等,,,2015-10-05,1,,,,,ミドリフレアイノイエ,0
929,4122001032304,登記記録の閉鎖等,0,2024-10-02,2024-09-30,株式会社ｇｒｅｅｎ　ｐｒｏｄｕｃｅ,,株式会社,大阪府,八尾市,北本町２丁目２番１７号ペントモール八尾３番街,,27,212,5810802,,,2024-09-30,清算の結了等,,,2019-01-25,1,,,,,グリーンプロデュース,0
931,4122002004137,登記記録の閉鎖等,0,2024-10-02,2024-09-25,有限会社ニシハラ,,有限会社,大阪府,東大阪市,額田町５番３号,,27,227,5798021,,,2024-09-25,清算の結了等,,,2015-10-05,1,,,,,ニシハラ,0
945,4140003015481,登記記録の閉鎖等,0,2024-10-02,2024-09-26,合同会社ＰＵＥＮＴＥ１９２,,合同会社,兵庫県,神戸市中央区,山本通４丁目６番５号,,28,110,6500003,,,2024-09-26,清算の結了等,,,2020-10-08,1,,,,,プエンテイチキュウニ,0
957,4180001061342,登記記録の閉鎖等,0,2024-10-02,2024-09-19,株式会社ライズスタッフ,,株式会社,愛知県,名古屋市熱田区,桜田町４番１０号,,23,109,4560004,,,2024-09-19,清算の結了等,,,2015-10-05,1,,,,,ライズスタッフ,0
963,4180001125139,登記記録の閉鎖等,0,2024-10-02,2024-09-18,錦開発株式会社,,株式会社,愛知県,春日井市,高蔵寺町北３丁目１番地１２,,23,206,4870016,,,2024-09-18,清算の結了等,,,2016-10-13,1,,,,,ニシキカイハツ,0
967,4180002010843,登記記録の閉鎖等,0,2024-10-02,2024-09-18,越前縫製有限会社,,有限会社,愛知県,名古屋市北区,杉村１丁目１９番５号,,23,103,4620835,,,2024-09-18,清算の結了等,,,2015-10-05,1,,,,,エチゼンホウセイ,0
968,4180002017954,登記記録の閉鎖等,0,2024-10-02,2024-09-20,有限会社五興商事,,有限会社,愛知県,名古屋市瑞穂区,田辺通４丁目１７番地の１,,23,108,4670027,,,2024-09-20,清算の結了等,,,2015-10-05,1,,,,,ゴコウショウジ,0
971,4180003016501,登記記録の閉鎖等,0,2024-10-02,2024-09-20,合同会社鈴都,,合同会社,愛知県,名古屋市緑区,ほら貝２丁目３０６番地,,23,114,4580013,,,2024-09-20,清算の結了等,,,2015-10-05,1,,,,,スズト,0
972,4180003018935,登記記録の閉鎖等,0,2024-10-02,2024-09-19,幸建不動産合同会社,,合同会社,愛知県,春日井市,高座台１丁目８番地ヴィークコート高蔵寺３０８号,,23,206,4870017,,,2024-09-19,清算の結了等,,,2018-05-16,1,,,,,コウケンフドウサン,0
973,4180003026112,登記記録の閉鎖等,0,2024-10-02,2024-09-18,Ｈｏｐｅ合同会社,,合同会社,愛知県,名古屋市千種区,鹿子町２丁目１２番地の１,,23,101,4640033,,,2024-09-18,清算の結了等,,,2023-12-14,1,,,,,ホープ,0
978,4180302024312,登記記録の閉鎖等,0,2024-10-02,2024-09-25,有限会社三好化工,,有限会社,愛知県,みよし市,三好町西荒田４９番地の８,,23,236,4700224,,,2024-09-25,清算の結了等,,,2015-10-05,1,,,,,ミヨシカコウ,0
979,4190001006949,登記記録の閉鎖等,0,2024-10-02,2024-09-30,株式会社鴻原まるよし,,株式会社,三重県,度会郡玉城町,蚊野２３７１番２,,24,461,5190431,,,2024-09-30,清算の結了等,,,2015-10-05,1,,,,,ヒロハラマルヨシ,0
980,4190001019703,登記記録の閉鎖等,0,2024-10-02,2024-09-30,株式会社優羽,,株式会社,三重県,四日市市,新正４丁目１５番５号,,24,202,5100064,,,2024-09-30,清算の結了等,,,2015-10-05,1,,,,,,0
1023,4370002000701,登記記録の閉鎖等,0,2024-10-02,2024-09-19,有限会社恵泉工務店,,有限会社,宮城県,仙台市泉区,南中山４丁目９番地の１４,,04,105,9813213,,,2024-09-19,清算の結了等,,,2015-10-05,1,,,,,ケイセンコウムテン,0
1032,4410002002627,登記記録の閉鎖等,0,2024-10-02,2024-09-26,有限会社テクノ・グリーン,,有限会社,秋田県,秋田市,外旭川字小谷地１５３番地５,,05,201,0100802,,,2024-09-26,清算の結了等,,,2015-10-05,1,,,,,テクノグリーン,0
1038,4430002059401,登記記録の閉鎖等,0,2024-10-02,2024-09-25,有限会社苫小牧測量社,,有限会社,北海道,苫小牧市,新開町１丁目８番１号,,01,213,0530052,,,2024-09-25,清算の結了等,,,2015-10-05,1,,,,,トマコマイソクリョウシャ,0
1040,4470001000790,登記記録の閉鎖等,0,2024-10-02,2024-09-27,株式会社大熊,,株式会社,香川県,高松市,香西南町４１５番地６,,37,201,7618014,,,2024-09-27,清算の結了等,,,2015-10-05,1,,,,,オオクマ,0
1060,5010401063012,登記記録の閉鎖等,0,2024-10-02,2024-09-04,株式会社Ｍ‐ｓｉｔｅ,,株式会社,東京都,港区,南青山７丁目１３番２号,,13,103,1070062,,,2024-09-04,清算の結了等,,,2015-10-05,1,,,,,エムサイト,0
1062,5010405020521,登記記録の閉鎖等,0,2024-10-02,2024-09-06,柏一般社団法人,,その他の設立登記法人,東京都,港区,西新橋１丁目１番１号ＥＰコンサルティングサービス内,,13,103,1050003,,,2024-09-06,清算の結了等,,,2021-12-15,1,,,,,カシワ,0
1074,5011001109378,登記記録の閉鎖等,0,2024-10-02,2024-09-04,株式会社Ｗａｖｙ’ｓ,,株式会社,東京都,港区,六本木５丁目９番２０－８０１号,,13,103,1060032,,,2024-09-04,合併による解散等,1010401121764,令和６年８月３１日東京都港区六本木五丁目９番２０－８０１号株式会社Ｓｔａｙ　Ｐｌｕｓ（1010401121764）に合併し解散,2016-02-04,1,,,,,ウエイビーズ,0
1076,5011001145398,登記記録の閉鎖等,0,2024-10-02,2024-09-05,株式会社オフィス牧田,,株式会社,東京都,渋谷区,道玄坂１丁目１０番８号渋谷道玄坂東急ビル２Ｆ－Ｃ,,13,113,1500043,,,2024-09-05,清算の結了等,,,2022-02-01,1,,,,,オフィスマキタ,0
1112,5020001014678,登記記録の閉鎖等,0,2024-10-02,2024-09-17,株式会社クラウンプロデュース,,株式会社,神奈川県,横浜市西区,平沼１丁目３６番１６号,,14,103,2200023,,,2024-09-17,清算の結了等,,,2015-10-05,1,,,,,クラウンプロデュース,0
1118,5020002024734,登記記録の閉鎖等,0,2024-10-02,2024-09-13,プローブ有限会社,,有限会社,神奈川県,横浜市保土ケ谷区,法泉３丁目２４番１２号,,14,106,2400032,,,2024-09-13,清算の結了等,,,2015-10-05,1,,,,,プローブ,0
1121,5021001005080,登記記録の閉鎖等,0,2024-10-02,2024-10-01,トビ・ヨシ株式会社,,株式会社,神奈川県,藤沢市,石川５丁目２５番地の６,,14,205,2520815,,,2024-10-01,清算の結了等,,,2015-10-05,1,,,,,トビヨシ,0
1129,5030005006142,登記記録の閉鎖等,0,2024-10-02,2024-09-02,特定非営利活動法人お葬式相談センター,,その他の設立登記法人,埼玉県,八潮市,大字八條１６０９番地１,,11,234,3400801,,,2024-09-02,清算の結了等,,,2015-10-05,1,,,,,オソウシキソウダンセンター,0
1132,5040002026051,登記記録の閉鎖等,0,2024-10-02,2024-09-24,有限会社ヤマト,,有限会社,千葉県,船橋市,二和東４丁目１番７号,,12,204,2740805,,,2024-09-24,清算の結了等,,,2015-10-05,1,,,,,ヤマト,0
1161,5110002022794,登記記録の閉鎖等,0,2024-10-02,2024-09-25,有限会社上越総建,,有限会社,新潟県,上越市,寺町２丁目１０番３５号,,15,222,9430892,,,2024-09-25,清算の結了等,,,2015-10-05,1,,,,,ジョウエツソウケン,0
1183,5122001034670,登記記録の閉鎖等,0,2024-10-02,2024-09-26,株式会社西井商会,,株式会社,大阪府,八尾市,黒谷６丁目１８４番地,,27,212,5810873,,,2024-09-26,清算の結了等,,,2021-04-06,1,,,,,ニシイショウカイ,0
1189,5140001021547,登記記録の閉鎖等,0,2024-10-02,2024-09-30,株式会社　八鉱コンサルタント,,株式会社,兵庫県,神戸市須磨区,妙法寺字牛ノ子９９９番地の２８,,28,107,6540121,,,2024-09-30,清算の結了等,,,2015-10-05,1,,,,,ハッコウコンサルタント,0
1191,5140001040497,登記記録の閉鎖等,0,2024-10-02,2024-09-26,株式会社フジファーマシー,,株式会社,兵庫県,赤穂市,尾崎３１５８番地８１,,28,212,6780221,,,2024-09-26,合併による解散等,6030001066965,令和６年９月１日埼玉県北葛飾郡松伏町築比地７９５番地１株式会社ウィーズ（6030001066965）に合併し解散,2015-10-05,1,,,,,フジファーマシー,0
1193,5140001090591,登記記録の閉鎖等,0,2024-10-02,2024-09-24,株式会社Ｓａｖｅｕｒｓ　ｄｅ　ｌｉｎｓｔａｎｔ,,株式会社,兵庫県,川辺郡猪名川町,北田原字カイジリ２４１番地の１,,28,301,6660236,,,2024-09-24,清算の結了等,,,2015-10-05,1,,,,,サヴァードランスタン,0
1201,5140003016074,登記記録の閉鎖等,0,2024-10-02,2024-09-25,ＭＩＲＡＩＳＥ合同会社,,合同会社,兵庫県,丹波市,氷上町横田４５３の３番地,,28,223,6693465,,,2024-09-25,清算の結了等,,,2021-03-29,1,,,,,ミライズ,0
1225,5210002007694,登記記録の閉鎖等,0,2024-10-02,2024-09-30,有限会社イトウ,,有限会社,福井県,坂井市,丸岡町下久米田第８号１８番地,,18,210,9100332,,,2024-09-30,清算の結了等,,,2015-10-05,1,,,,,イトウ,0
1227,5220001006119,登記記録の閉鎖等,0,2024-10-02,2024-09-26,ほそ川ライテック株式会社,,株式会社,石川県,金沢市,元町１丁目１５番２１号,,17,201,9200842,,,2024-09-26,清算の結了等,,,2015-10-05,1,,,,,ホソカワライテック,0
1230,5230001000368,登記記録の閉鎖等,0,2024-10-02,2024-09-30,株式会社エアポート富山,,株式会社,富山県,富山市,秋ケ島３０番地,,16,201,9398252,,,2024-09-30,清算の結了等,,,2015-10-05,1,,,,,エアポートトヤマ,0
1237,5320002004862,登記記録の閉鎖等,0,2024-10-02,2024-09-30,鳥羽ビル有限会社,,有限会社,大分県,大分市,寿町１１番１４号,,44,201,8700036,,,2024-09-30,清算の結了等,,,2015-10-05,1,,,,,トバビル,0
1244,5350002016310,登記記録の閉鎖等,0,2024-10-02,2024-09-26,有限会社宗和工業,,有限会社,宮崎県,都城市,下長飯町１２７９番地６,,45,202,8850061,,,2024-09-26,清算の結了等,,,2015-10-05,1,,,,,ソウワコウギョウ,0
1248,5360001032720,登記記録の閉鎖等,0,2024-10-02,2024-09-27,株式会社ガイア,,株式会社,沖縄県,名護市,大北５丁目１番６号－１０２,,47,209,9050019,,,2024-09-27,清算の結了等,,,2023-10-20,1,,,,,ガイア,0
1253,5370205001875,登記記録の閉鎖等,0,2024-10-02,2024-09-18,特定非営利活動法人未来産業創造おおさき,,その他の設立登記法人,宮城県,大崎市,古川江合錦町１丁目４番１０号,,04,215,9896104,,,2024-09-18,清算の結了等,,,2015-10-05,1,,,,,,0
1270,5460301002446,登記記録の閉鎖等,0,2024-10-02,2024-09-30,株式会社丸オ小谷商店,,株式会社,北海道,紋別郡湧別町,曙町１１６番地,,01,559,0996402,,,2024-09-30,清算の結了等,,,2015-10-05,1,,,,,マルオオダニショウテン,0
1288,6010002016608,登記記録の閉鎖等,0,2024-10-02,2024-09-17,有限会社アルシュデュジャポン,,有限会社,宮城県,仙台市青葉区,赤坂２丁目２０番地の５,,04,101,9893211,,,2024-09-17,清算の結了等,,,2015-10-05,1,,,,,アルシュデュジャポン,0
1290,6010003025640,登記記録の閉鎖等,0,2024-10-02,2024-09-25,合同会社Ａｎｉｇｕａｇｅ,,合同会社,千葉県,千葉市美浜区,打瀬１丁目２番地２セントラルパーク・イーストＦ８０３,,12,106,2610013,,,2024-09-25,清算の結了等,,,2017-07-13,1,,,,,アニゲージ,0
1299,6010401157804,登記記録の閉鎖等,0,2024-10-02,2024-09-05,株式会社ＡＳＡＫＡＲＡ,,株式会社,東京都,港区,浜松町２丁目２番１５号浜松町ダイヤビル２Ｆ,,13,103,1050013,,,2024-09-05,清算の結了等,,,2021-01-25,1,,,,,アサカラ,0
1303,6010601004839,登記記録の閉鎖等,0,2024-10-02,2024-09-27,株式会社ティソックス・テイソウ,,株式会社,東京都,江東区,清澄１丁目５番１号,,13,108,1350024,,,2024-09-27,清算の結了等,,,2015-10-05,1,,,,,ティソックステイソウ,0
1306,6010603009415,登記記録の閉鎖等,0,2024-10-02,2024-10-01,合同会社バーツ,,合同会社,東京都,墨田区,錦糸１丁目２番１号アルカセントラル１４Ｆ,,13,107,1300013,,,2024-10-01,清算の結了等,,,2022-03-03,1,,,,,バーツ,0
1310,6010901007046,登記記録の閉鎖等,0,2024-10-02,2024-09-27,株式会社たきおか,,株式会社,東京都,世田谷区,成城５丁目１４番８号,,13,112,1570066,,,2024-09-27,清算の結了等,,,2015-10-05,1,,,,,タキオカ,0
1313,6010903004891,登記記録の閉鎖等,0,2024-10-02,2024-09-05,合同会社ＫＣメディカル,,合同会社,東京都,港区,南青山２丁目２番１５号,,13,103,1070062,,,2024-09-05,清算の結了等,,,2019-04-08,1,,,,,ケーシーメディカル,0
1316,6011001151949,登記記録の閉鎖等,0,2024-10-02,2024-10-01,株式会社ＫＥＥＤ,,株式会社,栃木県,宇都宮市,陽東７丁目１１－２３,,09,201,3210904,,,2024-10-01,清算の結了等,,,2023-01-19,1,,,,,キード,0
1327,6011101091772,登記記録の閉鎖等,0,2024-10-02,2024-09-30,Ｃ‐ｄｅｓｉｇｎ株式会社,,株式会社,東京都,新宿区,西新宿２丁目３番１号,,13,104,1600023,,,2024-09-30,合併による解散等,4011101082303,令和６年９月３０日東京都新宿区西新宿二丁目３番１号スターティア株式会社（4011101082303）に合併し解散,2020-07-07,1,,,,,シーデザイン,0
1336,6011601012872,登記記録の閉鎖等,0,2024-10-02,2024-09-25,株式会社ＢＡＣＣＨＵＳ,,株式会社,東京都,練馬区,関町北４丁目１番６－１０１号,,13,120,1770051,,,2024-09-25,清算の結了等,,,2015-10-05,1,,,,,バッカス,0
1342,6011802007597,登記記録の閉鎖等,0,2024-10-02,2024-09-27,有限会社三橋スプリング製作所,,有限会社,東京都,葛飾区,奥戸３丁目１９番１６号,,13,122,1240022,,,2024-09-27,清算の結了等,,,2015-10-05,1,,,,,ミツハシスプリングセイサクショ,0
1347,6013102001322,登記記録の閉鎖等,0,2024-10-02,2024-09-27,有限会社鳥市商店,,有限会社,東京都,羽村市,富士見平２丁目１４番地の８,,13,227,2050013,,,2024-09-27,清算の結了等,,,2015-10-05,1,,,,,,0
1351,6020001063212,登記記録の閉鎖等,0,2024-10-02,2024-09-13,株式会社ＭＡテクノサービス,,株式会社,神奈川県,横浜市港南区,港南台９丁目１２番１２－１０８号,,14,111,2340054,,,2024-09-13,清算の結了等,,,2015-10-05,1,,,,,エムエーテクノサービス,0
1352,6020001064912,登記記録の閉鎖等,0,2024-10-02,2024-09-13,雨宮家庭電器株式会社,,株式会社,神奈川県,川崎市麻生区,百合丘１丁目１６番地１３,,14,137,2150011,,,2024-09-13,清算の結了等,,,2015-10-05,1,,,,,アマミヤカテイデンキ,0
1372,6030002118088,登記記録の閉鎖等,0,2024-10-02,2024-09-24,有限会社橋本戦太郎商店,,有限会社,埼玉県,行田市,旭町６番３６号,,11,206,3610074,,,2024-09-24,清算の結了等,,,2015-10-05,1,,,,,ハシモトセンタロウショウテン,0
1375,6040001033808,登記記録の閉鎖等,0,2024-10-02,2024-09-26,寿鋼業株式会社,,株式会社,千葉県,市川市,鬼高３丁目２０番６号,,12,203,2720015,,,2024-09-26,清算の結了等,,,2015-10-05,1,,,,,コトブキコウギョウ,0
1383,6050002025786,登記記録の閉鎖等,0,2024-10-02,2024-09-24,有限会社ツインズ,,有限会社,茨城県,古河市,尾崎３９１５番地８７,,08,204,3060101,,,2024-09-24,清算の結了等,,,2015-10-05,1,,,,,ツインズ,0
1385,6060002016553,登記記録の閉鎖等,0,2024-10-02,2024-09-30,有限会社クニヤス建工,,有限会社,栃木県,塩谷郡塩谷町,大字船生１９７番地の２,,09,384,3292441,,,2024-09-30,清算の結了等,,,2015-10-05,1,,,,,クニヤスケンコウ,0
1387,6070002030529,登記記録の閉鎖等,0,2024-10-02,2024-09-27,有限会社橋本自動車商会,,有限会社,群馬県,太田市,新田小金井町１４３６番地２,,10,205,3700303,,,2024-09-27,清算の結了等,,,2015-10-05,1,,,,,ハシモトジドウシャショウカイ,0
1404,6120001140686,登記記録の閉鎖等,0,2024-10-02,2024-09-27,株式会社長安,,株式会社,大阪府,大阪市住吉区,我孫子２丁目４番３号,,27,120,5580014,,,2024-09-27,清算の結了等,,,2015-10-05,1,,,,,チョウアン,0
1418,6120003022445,登記記録の閉鎖等,0,2024-10-02,2024-09-24,合同会社ＩＦ,,合同会社,大阪府,吹田市,千里山西６丁目２９－４０９,,27,205,5650851,,,2024-09-24,清算の結了等,,,2022-09-13,1,,,,,アイエフ,0
1493,6290001095443,登記記録の閉鎖等,0,2024-10-02,2024-08-23,株式会社すさのお,,株式会社,福岡県,福岡市中央区,舞鶴３丁目８番１９－５０３号,,40,133,8100073,,,2024-08-23,清算の結了等,,,2021-11-18,1,,,,,スサノオ,0
1496,6290002007050,登記記録の閉鎖等,0,2024-10-02,2024-08-21,有限会社トラスト,,有限会社,福岡県,福岡市城南区,東油山１丁目９番３３号,,40,136,8140155,,,2024-08-21,清算の結了等,,,2015-10-05,1,,,,,トラスト,0
1506,6310005005420,登記記録の閉鎖等,0,2024-10-02,2024-09-25,医療法人有心会,,その他の設立登記法人,長崎県,南島原市,有家町山川３４７番地１,,42,214,8592202,,,2024-09-25,清算の結了等,,,2015-10-05,1,,,,,ユウシンカイ,0
1523,6370002017537,登記記録の閉鎖等,0,2024-10-02,2024-09-18,有限会社南光電設,,有限会社,宮城県,仙台市宮城野区,鶴ケ谷４丁目１５番地の４,,04,102,9830824,,,2024-09-18,清算の結了等,,,2015-10-05,1,,,,,ナンコウデンセツ,0
1533,6460302003426,登記記録の閉鎖等,0,2024-10-02,2024-10-01,有限会社松浦クリーニング商会,,有限会社,北海道,網走郡津別町,字大通１５番地の３,,01,544,0920231,,,2024-10-01,清算の結了等,,,2015-10-05,1,,,,,マツウラクリーニングショウカイ,0
1539,7010001160645,登記記録の閉鎖等,0,2024-10-02,2024-09-27,株式会社プリザントライブ,,株式会社,東京都,新宿区,新宿１丁目３６番２号新宿第七葉山ビル３階,,13,104,1600022,,,2024-09-27,合併による解散等,5011001110427,令和６年９月１日東京都渋谷区恵比寿一丁目１９番１９号株式会社つみネコ（5011001110427）に合併し解散,2015-10-05,1,,,,,プリザントライブ,0
1540,7010001164786,登記記録の閉鎖等,0,2024-10-02,2024-09-26,株式会社ティーズ,,株式会社,東京都,新宿区,西新宿６丁目２４番１号西新宿三井ビルディング１３Ｆ,,13,104,1600023,,,2024-09-26,合併による解散等,2290001088211,令和６年９月１日福岡市中央区薬院三丁目３番３３号グランドキャビン天神南５Ｆ株式会社シジン（2290001088211）に合併し解散,2015-10-05,1,,,,,ティーズ,0
1550,7010101000131,登記記録の閉鎖等,0,2024-10-02,2024-09-27,秋元光機株式会社,,株式会社,東京都,八王子市,元本郷町１丁目２０番３号,,13,201,1920051,,,2024-09-27,清算の結了等,,,2015-10-05,1,,,,,アキモトコウキ,0
1574,7011005005951,登記記録の閉鎖等,0,2024-10-02,2024-09-06,特定非営利活動法人国際文化支援協会,,その他の設立登記法人,東京都,渋谷区,東２丁目２７番１４－２１１号,,13,113,1500011,,,2024-09-06,清算の結了等,,,2015-10-05,1,,,,,コクサイブンカシエンキョウカイ,0
1575,7011101088231,登記記録の閉鎖等,0,2024-10-02,2024-09-20,株式会社シージェイ,,株式会社,東京都,新宿区,西新宿４丁目１５番７号,,13,104,1600023,,,2024-09-20,清算の結了等,,,2019-07-05,1,,,,,シージェイ,0
1590,7011401016577,登記記録の閉鎖等,0,2024-10-02,2024-09-20,ワイズコーポレーション株式会社,,株式会社,東京都,豊島区,池袋２丁目４２番３号,,13,116,1710014,,,2024-09-20,合併による解散等,8013301028370,令和６年９月１７日東京都豊島区池袋二丁目４２番３号パラウェイ株式会社（8013301028370）に合併し解散,2015-10-05,1,,,,,ワイズコーポレーション,0
1599,7012402011096,登記記録の閉鎖等,0,2024-10-02,2024-09-30,有限会社小松興産,,有限会社,東京都,調布市,国領町７丁目３１番１３号,,13,208,1820022,,,2024-09-30,清算の結了等,,,2015-10-05,1,,,,,コマツコウサン,0
1613,7020002104617,登記記録の閉鎖等,0,2024-10-02,2024-09-19,有限会社サードエージェンシー,,有限会社,東京都,中央区,八丁堀２丁目１５－８坪井ビル３Ｆ,,13,102,1040032,,,2024-09-19,清算の結了等,,,2015-10-05,1,,,,,サードエージェンシー,0
1636,7040002031537,登記記録の閉鎖等,0,2024-10-02,2024-09-26,有限会社イシイ商会,,有限会社,千葉県,八千代市,米本８１番地１,,12,221,2760015,,,2024-09-26,清算の結了等,,,2015-10-05,1,,,,,イシイショウカイ,0
1639,7040002088676,登記記録の閉鎖等,0,2024-10-02,2024-09-26,旭国際有限会社,,有限会社,千葉県,柏市,旭町６丁目２番２５号,,12,217,2770852,,,2024-09-26,清算の結了等,,,2015-10-05,1,,,,,アサヒコクサイ,0
1640,7040003002280,登記記録の閉鎖等,0,2024-10-02,2024-09-26,合資会社唐駒屋,,合資会社,千葉県,白井市,南山１丁目３番１１棟２０１号,,12,232,2701423,,,2024-09-26,清算の結了等,,,2015-10-05,1,,,,,カラコマヤ,0
1654,7100005012296,登記記録の閉鎖等,0,2024-10-02,2024-09-24,一般社団法人白梅教育会,,その他の設立登記法人,長野県,長野市,上松１丁目１１番１３号,,20,201,3800802,,,2024-09-24,清算の結了等,,,2018-10-03,1,,,,,ハクバイキョウイクカイ,0
1677,7120005014308,登記記録の閉鎖等,0,2024-10-02,2024-09-26,ＮＰＯ法人がん温熱・免疫療法,,その他の設立登記法人,大阪府,大阪市東成区,大今里南６丁目１６番９号,,27,115,5370013,,,2024-09-26,清算の結了等,,,2015-10-05,1,,,,,ガンオンネツメンエキリョウホウ,0
1686,7130001074791,登記記録の閉鎖等,0,2024-10-02,2024-09-30,株式会社ケーエスシー,,株式会社,京都府,京都市中京区,錦小路通高倉西入西魚屋町５９３番地,,26,104,6048142,,,2024-09-30,清算の結了等,,,2023-07-25,1,,,,,ケーエスシー,0
1688,7130002000292,登記記録の閉鎖等,0,2024-10-02,2024-09-30,有限会社エムエム企画,,有限会社,京都府,京都市下京区,下松屋町通花屋町下る突抜２丁目３６５の１,,26,106,6008364,,,2024-09-30,清算の結了等,,,2015-10-05,1,,,,,エムエムキカク,0
1690,7130002029588,登記記録の閉鎖等,0,2024-10-02,2024-09-30,有限会社エス・ディー・アイ,,有限会社,京都府,相楽郡精華町,精華台４丁目２番地２,,26,366,6190238,,,2024-09-30,清算の結了等,,,2015-10-05,1,,,,,エスディーアイ,0
1693,7140001021603,登記記録の閉鎖等,0,2024-10-02,2024-09-30,株式会社エムオービー,,株式会社,兵庫県,神戸市中央区,雲井通４丁目２番１１号,,28,110,6510096,,,2024-09-30,合併による解散等,6140001005920,令和６年９月３０日神戸市中央区雲井通四丁目２番１１号朝日興業株式会社（6140001005920）に合併し解散,2015-10-05,1,,,,,エムオービー,0
1702,7160001022509,登記記録の閉鎖等,0,2024-10-02,2024-09-30,株式会社Ｐｌａｙ　ｔａｇ,,株式会社,滋賀県,栗東市,綣５丁目２番２５号,,25,208,5203031,,,2024-09-30,清算の結了等,,,2020-05-22,1,,,,,プレイタッグ,0
1721,7200001039184,登記記録の閉鎖等,0,2024-10-02,2024-09-27,株式会社ＬＩＮＫＳ,,株式会社,岐阜県,各務原市,川島小網町２１４４番地５６,,21,213,5016023,,,2024-09-27,清算の結了等,,,2021-09-28,1,,,,,リンクス,0
1723,7200002008312,登記記録の閉鎖等,0,2024-10-02,2024-09-30,有限会社マイネル精工,,有限会社,岐阜県,各務原市,鵜沼羽場町７丁目１３９番地の１,,21,213,5090135,,,2024-09-30,清算の結了等,,,2015-10-05,1,,,,,マイネルセイコウ,0
1724,7220001024713,登記記録の閉鎖等,0,2024-10-02,2024-09-24,株式会社Ｔａｓｋ,,株式会社,石川県,白山市,相木町４５７番地１－２０５号,,17,210,9240022,,,2024-09-24,清算の結了等,,,2022-03-04,1,,,,,タスク,0
1738,7290002009905,登記記録の閉鎖等,0,2024-10-02,2024-09-27,有限会社エフエスケイ企画,,有限会社,佐賀県,三養基郡基山町,大字小倉２０８番地１,,41,341,8410201,,,2024-09-27,清算の結了等,,,2015-10-05,1,,,,,エフエスケイキカク,0
1739,7290002044233,登記記録の閉鎖等,0,2024-10-02,2024-08-26,有限会社ベン・システムサービス,,有限会社,福岡県,朝倉市,下渕８０９番地,,40,228,8380016,,,2024-08-26,清算の結了等,,,2015-10-05,1,,,,,ベンシステムサービス,0
1744,7290801008792,登記記録の閉鎖等,0,2024-10-02,2024-09-30,日本鋳鍛鋼株式会社,,株式会社,福岡県,北九州市戸畑区,中原新町２番１号,,40,105,8040003,,,2024-09-30,清算の結了等,,,2015-10-05,1,,,,,ニホンチュウタンコウ,0
1751,7320001016691,登記記録の閉鎖等,0,2024-10-02,2024-10-01,株式会社ニューウェーブ大分,,株式会社,大分県,大分市,南太平寺２丁目５番５５号,,44,201,8700885,,,2024-10-01,合併による解散等,3320003002826,令和６年１０月１日大分市南太平寺二丁目５番５５号合同会社まとゆみた（3320003002826）に合併し解散,2018-11-05,1,,,,,ニューウェーブオオイタ,0
1769,7370305000882,登記記録の閉鎖等,0,2024-10-02,2024-09-11,一般社団法人石巻元気復興センター,,その他の設立登記法人,宮城県,石巻市,あゆみ野３丁目２番地１８,,04,202,9860850,,,2024-09-11,清算の結了等,,,2015-10-05,1,,,,,イシノマキゲンキフッコウセンター,0
1770,7370605000657,登記記録の閉鎖等,0,2024-10-02,2024-09-20,医療法人雅仁会,,その他の設立登記法人,宮城県,塩竈市,尾島町６番８号,,04,203,9850021,,,2024-09-20,清算の結了等,,,2015-10-05,1,,,,,ガジンカイ,0
1772,7390001004533,登記記録の閉鎖等,0,2024-10-02,2024-09-20,株式会社野口,,株式会社,山形県,天童市,天童中１丁目３番１１号,,06,210,9940031,,,2024-09-20,清算の結了等,,,2015-10-05,1,,,,,ノグチ,0
1783,7420002014346,登記記録の閉鎖等,0,2024-10-02,2024-09-25,有限会社みつばドライ,,有限会社,青森県,弘前市,大字大原２丁目６番地４,,02,202,0368242,,,2024-09-25,清算の結了等,,,2015-10-05,1,,,,,ミツバドライ,0
1785,7430001040219,登記記録の閉鎖等,0,2024-10-02,2024-09-25,株式会社染めＱテクノロジィ北海道,,株式会社,北海道,札幌市南区,真駒内本町６丁目３番１５号,,01,106,0050021,,,2024-09-25,清算の結了等,,,2015-10-05,1,,,,,ソメキューテクノロジィホッカイドウ,0
1787,7440002003768,登記記録の閉鎖等,0,2024-10-02,2024-09-25,有限会社フォーライフ企画,,有限会社,北海道,函館市,北美原３丁目１４番２０号,,01,202,0410807,,,2024-09-25,清算の結了等,,,2015-10-05,1,,,,,フォーライフキカク,0
1806,8010401122252,登記記録の閉鎖等,0,2024-10-02,2024-09-05,ｓｔｏｏｏｃ株式会社,,株式会社,東京都,港区,六本木７丁目３番８号－９１４,,13,103,1060032,,,2024-09-05,清算の結了等,,,2015-12-22,1,,,,,ストゥーク,0
1823,8010901000288,登記記録の閉鎖等,0,2024-10-02,2024-09-27,株式会社アール・イー・エム,,株式会社,東京都,世田谷区,成城５丁目１４番８号,,13,112,1570066,,,2024-09-27,清算の結了等,,,2015-10-05,1,,,,,アールイーエム,0
1824,8010901004702,登記記録の閉鎖等,0,2024-10-02,2024-09-13,株式会社ＳＡＪ,,株式会社,神奈川県,横浜市港北区,新横浜１丁目１４番２０号光正第２ビル,,14,109,2220033,,,2024-09-13,清算の結了等,,,2015-10-05,1,,,,,エスエイジェイ,0
1837,8011101097611,登記記録の閉鎖等,0,2024-10-02,2024-09-19,株式会社プロタージュ,,株式会社,東京都,新宿区,西新宿３丁目９番７号フロンティア新宿タワー３５０,,13,104,1600023,,,2024-09-19,清算の結了等,,,2022-01-25,1,,,,,プロタージュ,0
1854,8012701010681,登記記録の閉鎖等,0,2024-10-02,2024-09-26,株式会社ペルルコスメティックス,,株式会社,東京都,西東京市,北町２丁目１２番２５号,,13,229,2020003,,,2024-09-26,清算の結了等,,,2015-10-05,1,,,,,ペルルコスメティックス,0
1877,8021002024077,登記記録の閉鎖等,0,2024-10-02,2024-09-30,有限会社ホームビル,,有限会社,神奈川県,相模原市中央区,相生１丁目３番１１号,,14,152,2520235,,,2024-09-30,清算の結了等,,,2015-10-05,1,,,,,ホームビル,0
1878,8021002059486,登記記録の閉鎖等,0,2024-10-02,2024-09-27,有限会社富士見モータース,,有限会社,神奈川県,平塚市,紅谷町１７番２号,,14,203,2540043,,,2024-09-27,清算の結了等,,,2015-10-05,1,,,,,フジミモータース,0
1883,8030001088719,登記記録の閉鎖等,0,2024-10-02,2024-09-24,株式会社アラカワリゾート,,株式会社,埼玉県,大里郡寄居町,大字寄居１６１１番地１,,11,408,3691203,,,2024-09-24,清算の結了等,,,2015-10-05,1,,,,,アラカワリゾート,0
1899,8040002007494,登記記録の閉鎖等,0,2024-10-02,2024-09-24,有限会社千葉金剛堂,,有限会社,千葉県,千葉市稲毛区,小仲台８丁目１７番１号千葉花壇ビル１Ｆ,,12,103,2630043,,,2024-09-24,清算の結了等,,,2015-10-05,1,,,,,チバコンゴウドウ,0
1907,8050002033639,登記記録の閉鎖等,0,2024-10-02,2024-09-25,有限会社大野工務店,,有限会社,茨城県,北相馬郡利根町,大字上曽根９１番地,,08,564,3001635,,,2024-09-25,清算の結了等,,,2015-10-05,1,,,,,オオノコウムテン,0
1918,8060002024447,登記記録の閉鎖等,0,2024-10-02,2024-09-27,有限会社ワイケイ観光,,有限会社,栃木県,那須塩原市,接骨木字藤荷田４４６番地１１０,,09,213,3292807,,,2024-09-27,清算の結了等,,,2015-10-05,1,,,,,ワイケイカンコウ,0
1920,8070001007798,登記記録の閉鎖等,0,2024-10-02,2024-09-27,東日包装資材株式会社,,株式会社,群馬県,高崎市,浜尻町１１２５番地１,,10,202,3700005,,,2024-09-27,清算の結了等,,,2015-10-05,1,,,,,トウニチホウソウシザイ,0
1923,8080005007496,登記記録の閉鎖等,0,2024-10-02,2024-09-25,一般社団法人静岡希少疾患ネットワーク,,その他の設立登記法人,静岡県,静岡市葵区,漆山８６０,,22,101,4200953,,,2024-09-25,清算の結了等,,,2022-11-18,1,,,,,シズオカキショウシッカンネットワーク,0
1924,8080102008042,登記記録の閉鎖等,0,2024-10-02,2024-09-26,有限会社一輝工業,,有限会社,静岡県,伊豆市,堀切６３８番地の１,,22,222,4102418,,,2024-09-26,清算の結了等,,,2015-10-05,1,,,,,イッキコウギョウ,0
1926,8090001002789,登記記録の閉鎖等,0,2024-10-02,2024-09-25,株式会社サンズ・プランニング,,株式会社,山梨県,甲斐市,中下条１４８８番地３,,19,210,4000124,,,2024-09-25,清算の結了等,,,2015-10-05,1,,,,,サンズプランニング,0
1932,8110001023205,登記記録の閉鎖等,0,2024-10-02,2024-09-24,株式会社摂田屋管財,,株式会社,新潟県,新潟市中央区,西堀通４番町２５９番５８号西堀青藍館６０２号,,15,103,9518061,,,2024-09-24,清算の結了等,,,2015-10-05,1,,,,,セッタヤカンザイ,0
1934,8110003002090,登記記録の閉鎖等,0,2024-10-02,2024-09-12,合同会社ケアプランセンターｋｏｋｏ,,合同会社,新潟県,見附市,本町１丁目２番３５号,,15,211,9540053,,,2024-09-12,清算の結了等,,,2015-10-05,1,,,,,ケアプランセンターココ,0
1988,8180002070124,登記記録の閉鎖等,0,2024-10-02,2024-09-20,有限会社山西スバル自動車,,有限会社,愛知県,小牧市,元町１丁目２５番地,,23,219,4850072,,,2024-09-20,清算の結了等,,,2015-10-05,1,,,,,ヤマニシスバルジドウシャ,0
2001,8240005014641,登記記録の閉鎖等,0,2024-10-02,2024-09-30,一般社団法人宇宙銀行アドバイザー協会,,その他の設立登記法人,広島県,東広島市,西条中央３丁目７番２２－７０５号,,34,212,7390025,,,2024-09-30,清算の結了等,,,2018-08-15,1,,,,,ウチュウギンコウアドバイザーキョウカイ,0
2006,8280001006688,登記記録の閉鎖等,0,2024-10-02,2024-10-01,栂電設株式会社,,株式会社,島根県,雲南市,加茂町宇治４４９番地２,,32,209,6991105,,,2024-10-01,清算の結了等,,,2015-10-05,1,,,,,トガデンセツ,0
2022,8320003001765,登記記録の閉鎖等,0,2024-10-02,2024-09-30,合同会社大分ロームシステム,,合同会社,大分県,杵築市,大字南杵築１９９９番地１,,44,210,8730002,,,2024-09-30,清算の結了等,,,2015-10-05,1,,,,,,0
2026,8340002025623,登記記録の閉鎖等,0,2024-10-02,2024-09-27,有限会社新留建設,,有限会社,鹿児島県,鹿屋市,永野田町４３８番地,,46,203,8930033,,,2024-09-27,清算の結了等,,,2015-10-05,1,,,,,シントメケンセツ,0
2027,8340005008518,登記記録の閉鎖等,0,2024-10-02,2024-09-30,一般社団法人ＫＯＭＥＫＯシンクタンク,,その他の設立登記法人,鹿児島県,薩摩川内市,隈之城町１４５５番地４,,46,215,8950041,,,2024-09-30,清算の結了等,,,2016-01-26,1,,,,,コメコシンクタンク,0
2038,8370602002498,登記記録の閉鎖等,0,2024-10-02,2024-09-18,有限会社ヒラキヤ,,有限会社,宮城県,多賀城市,東田中２丁目４０番３１－１５０４号,,04,209,9850863,,,2024-09-18,清算の結了等,,,2015-10-05,1,,,,,ヒラキヤ,0
2042,8390002007278,登記記録の閉鎖等,0,2024-10-02,2024-09-20,有限会社コマツ精工,,有限会社,山形県,酒田市,北沢字鍋倉５５１番地,,06,204,9980801,,,2024-09-20,清算の結了等,,,2015-10-05,1,,,,,コマツセイコウ,0
2045,8420005006645,登記記録の閉鎖等,0,2024-10-02,2024-09-26,特定非営利活動法人ぷらっと下北,,その他の設立登記法人,青森県,むつ市,大畑町本町８０番地大安寺内,,02,208,0394401,,,2024-09-26,清算の結了等,,,2015-10-05,1,,,,,プラットシモキタ,0
2060,9010001231766,登記記録の閉鎖等,0,2024-10-02,2024-09-26,株式会社グラスアワー,,株式会社,東京都,中央区,銀座２丁目１４番５号ＴＷＧ銀座イースト７階,,13,102,1040061,,,2024-09-26,清算の結了等,,,2022-12-23,1,,,,,グラスアワー,0
2082,9010702005642,登記記録の閉鎖等,0,2024-10-02,2024-09-27,有限会社東勝,,有限会社,東京都,品川区,東中延２丁目４番１号,,13,109,1420052,,,2024-09-27,清算の結了等,,,2015-10-05,1,,,,,トウショウ,0
2087,9011001053762,登記記録の閉鎖等,0,2024-10-02,2024-09-05,株式会社かわ井,,株式会社,東京都,渋谷区,千駄ヶ谷３丁目７番１６号,,13,113,1510051,,,2024-09-05,清算の結了等,,,2015-10-05,1,,,,,カワイ,0
2099,9011101087900,登記記録の閉鎖等,0,2024-10-02,2024-09-20,株式会社生活支援ドットコム,,株式会社,東京都,新宿区,新宿７丁目２６番７号ビクセル新宿１階,,13,104,1600022,,,2024-09-20,清算の結了等,,,2019-06-03,1,,,,,セイカツシエンドットコム,0
2102,9011105002376,登記記録の閉鎖等,0,2024-10-02,2024-09-24,特定非営利活動法人水路研究会,,その他の設立登記法人,東京都,新宿区,若宮町２７番地,,13,104,1620827,,,2024-09-24,清算の結了等,,,2015-10-05,1,,,,,スイロケンキュウカイ,0
2112,9012402013801,登記記録の閉鎖等,0,2024-10-02,2024-09-30,有限会社メイク,,有限会社,東京都,狛江市,中和泉１丁目３番１１号,,13,219,2010012,,,2024-09-30,清算の結了等,,,2015-10-05,1,,,,,メイク,0
2114,9020001073233,登記記録の閉鎖等,0,2024-10-02,2024-09-17,株式会社柴田保険事務所,,株式会社,神奈川県,川崎市川崎区,伊勢町１１番３号渡辺ハイツ１０１,,14,131,2100805,,,2024-09-17,清算の結了等,,,2015-10-05,1,,,,,シバタホケンジムショ,0
2117,9020003020142,登記記録の閉鎖等,0,2024-10-02,2024-09-13,合同会社みすみ草,,合同会社,神奈川県,横浜市都筑区,あゆみが丘３番５号プレールあざみ野３０１,,14,118,2240016,,,2024-09-13,清算の結了等,,,2021-07-09,1,,,,,ミスミソウ,0
2125,9021003005645,登記記録の閉鎖等,0,2024-10-02,2024-09-30,合同会社ＧＡＲＣＯＮ,,合同会社,神奈川県,平塚市,黒部丘７番１３号,,14,203,2540821,,,2024-09-30,清算の結了等,,,2015-11-30,1,,,,,ギャルソン,0
2126,9021003013128,登記記録の閉鎖等,0,2024-10-02,2024-09-27,合同会社あおはる,,合同会社,神奈川県,茅ヶ崎市,新栄町２番３０号茅ヶ崎ショッピングセンター１Ｆ１０２号,,14,207,2530044,,,2024-09-27,清算の結了等,,,2023-05-25,1,,,,,アオハル,0
2138,9030002003485,登記記録の閉鎖等,0,2024-10-02,2024-09-24,有限会社川田通信,,有限会社,埼玉県,さいたま市南区,辻８丁目６番５号５０４,00015924,11,108,3360026,,,2024-09-24,清算の結了等,,,2015-10-05,1,,,,,カワタツウシン,0
2151,9050001043951,登記記録の閉鎖等,0,2024-10-02,2024-09-24,株式会社ＢＩＧＩＮ,,株式会社,茨城県,水戸市,石川３丁目４１７６番地２,,08,201,3100905,,,2024-09-24,清算の結了等,,,2018-01-29,1,,,,,ビギン,0
2154,9050002006107,登記記録の閉鎖等,0,2024-10-02,2024-09-25,有限会社総合建築ヤマクラ,,有限会社,茨城県,水戸市,元石川町２４９８番地１０,,08,201,3100843,,,2024-09-25,清算の結了等,,,2015-10-05,1,,,,,ソウゴウケンチクヤマクラ,0
2161,9060001023928,登記記録の閉鎖等,0,2024-10-02,2024-09-25,オフィスさくら株式会社,,株式会社,東京都,練馬区,中村北４丁目３番１１号クラルテ中村橋５０１,,13,120,1760023,,,2024-09-25,清算の結了等,,,2015-10-05,1,,,,,オフィスサクラ,0
2163,9060002034494,登記記録の閉鎖等,0,2024-10-02,2024-09-26,有限会社中川工業,,有限会社,栃木県,下都賀郡壬生町,大字安塚４３３番地,,09,361,3210201,,,2024-09-26,清算の結了等,,,2015-10-05,1,,,,,ナカガワコウギョウ,0
2208,9130001069914,登記記録の閉鎖等,0,2024-10-02,2024-09-30,ティーケイシー株式会社,,株式会社,京都府,京都市上京区,三軒町６９－２２北野ヤングハウス２０２号,,26,102,6028341,,,2024-09-30,清算の結了等,,,2021-08-11,1,,,,,ティーケイシー,0
2217,9140003019346,登記記録の閉鎖等,0,2024-10-02,2024-09-26,光合同会社,,合同会社,兵庫県,尼崎市,東園田町１丁目１４７番地グローバル東園田３０３号,,28,202,6610953,,,2024-09-26,清算の結了等,,,2023-07-27,1,,,,,ヒカリ,0
2231,9180001128715,登記記録の閉鎖等,0,2024-10-02,2024-09-27,Ｏｂｒａｓ‐２株式会社,,株式会社,愛知県,名古屋市港区,砂美町１６５番地,,23,111,4550056,,,2024-09-27,合併による解散等,1010001224892,令和６年９月１日東京都中央区日本橋茅場町一丁目１３番１３号日本環境開発ホールディングス株式会社（1010001224892）に合併し解散,2017-07-25,1,,,,,オーブラスツー,0
2233,9180002089964,登記記録の閉鎖等,0,2024-10-02,2024-09-18,有限会社三沢工業,,有限会社,愛知県,海部郡蟹江町,宝２丁目４３２番地,,23,425,4970030,,,2024-09-18,清算の結了等,,,2015-10-05,1,,,,,ミサワコウギョウ,0
2234,9180002093009,登記記録の閉鎖等,0,2024-10-02,2024-09-19,有限会社みわ金型,,有限会社,愛知県,あま市,二ツ寺鬼田８８番地３,,23,237,4901207,,,2024-09-19,清算の結了等,,,2015-10-05,1,,,,,ミワカナガタ,0
2240,9180303004738,登記記録の閉鎖等,0,2024-10-02,2024-09-27,合同会社アイラス,,合同会社,愛知県,豊田市,元城町１丁目４４－６,,23,211,4710024,,,2024-09-27,合併による解散等,4010403019310,令和６年９月１日東京都港区芝五丁目２７番３号ＭＢＣ合同会社シバレジデンス（4010403019310）に合併し解散,2020-09-09,1,,,,,アイラス,0
2241,9180305002269,登記記録の閉鎖等,0,2024-10-02,2024-09-25,三河室内装飾協同組合,,その他の設立登記法人,愛知県,豊橋市,佐藤２丁目２４番地の６,,23,201,4400853,,,2024-09-25,清算の結了等,,,2015-10-05,1,,,,,ミカワシツナイソウショク,0
2247,9210002003046,登記記録の閉鎖等,0,2024-10-02,2024-09-30,有限会社福静産業,,有限会社,福井県,福井市,羽水１丁目６１５番地,,18,201,9188114,,,2024-09-30,清算の結了等,,,2015-10-05,1,,,,,フクシズサンギョウ,0
2248,9220001014266,登記記録の閉鎖等,0,2024-10-02,2024-09-25,株式会社アレクシード,,株式会社,石川県,金沢市,黒田１丁目１８５番地２,,17,201,9218051,,,2024-09-25,清算の結了等,,,2015-10-05,1,,,,,アレクシード,0
2250,9230003001880,登記記録の閉鎖等,0,2024-10-02,2024-09-18,合同会社Ｈｕｍｍｉｎｇｂｉｒｄ,,合同会社,富山県,射水市,七美７９１番地,,16,211,9330252,,,2024-09-18,清算の結了等,,,2022-07-05,1,,,,,ハミングバード,0
2251,9240001030344,登記記録の閉鎖等,0,2024-10-02,2024-09-25,北村建工株式会社,,株式会社,広島県,福山市,水呑町三新田１丁目７９番地,,34,207,7200830,,,2024-09-25,清算の結了等,,,2015-10-05,1,,,,,キタムラケンコウ,0
2252,9250002004370,登記記録の閉鎖等,0,2024-10-02,2024-09-30,有限会社王子化工,,有限会社,山口県,宇部市,大字西岐波２７０９番地の１０,,35,202,7550151,,,2024-09-30,清算の結了等,,,2015-10-05,1,,,,,オウジカコウ,0
2253,9250002012431,登記記録の閉鎖等,0,2024-10-02,2024-09-26,有限会社海星マリン,,有限会社,山口県,下関市,彦島江の浦町３丁目１２番２９－３０２号,,35,201,7500075,,,2024-09-26,清算の結了等,,,2015-10-05,1,,,,,カイセイマリン,0
2263,9290001031197,登記記録の閉鎖等,0,2024-10-02,2024-08-22,株式会社アミュ,,株式会社,福岡県,福岡市中央区,赤坂２丁目２番４５号,,40,133,8100042,,,2024-08-22,清算の結了等,,,2015-10-05,1,,,,,アミュ,0
2267,9290801020993,登記記録の閉鎖等,0,2024-10-02,2024-09-30,株式会社ららら,,株式会社,福岡県,北九州市八幡西区,則松東２丁目１番８号,,40,109,8070837,,,2024-09-30,清算の結了等,,,2015-10-05,1,,,,,ラララ,0
2272,9330001023512,登記記録の閉鎖等,0,2024-10-02,2024-09-25,株式会社ＨＥＰ,,株式会社,熊本県,下益城郡美里町,馬場４１４番地７,,43,348,8614406,,,2024-09-25,清算の結了等,,,2016-12-08,1,,,,,ヘップ,0
2279,9330003005203,登記記録の閉鎖等,0,2024-10-02,2024-09-24,パールクローズ合同会社,,合同会社,熊本県,熊本市中央区,出水７丁目９番１１号,,43,101,8620941,,,2024-09-24,清算の結了等,,,2015-10-05,1,,,,,パールクローズ,0
2286,9360001031438,登記記録の閉鎖等,0,2024-10-02,2024-09-27,株式会社渡技探,,株式会社,沖縄県,名護市,字安和１番地,,47,209,9050001,,,2024-09-27,清算の結了等,,,2023-01-18,1,,,,,ワタリギタン,0
2291,9360005004200,登記記録の閉鎖等,0,2024-10-02,2024-09-26,特定非営利活動法人くめじま,,その他の設立登記法人,沖縄県,島尻郡久米島町,字大田５３９番地,,47,361,9013123,,,2024-09-26,清算の結了等,,,2015-10-05,1,,,,,クメジマ,0
2297,9380001021651,登記記録の閉鎖等,0,2024-10-02,2024-09-27,株式会社ひなデジタル出版,,株式会社,栃木県,那須塩原市,阿波町１１７番地８１４,,09,213,3250073,,,2024-09-27,清算の結了等,,,2015-10-05,1,,,,,ヒナデジタルシュッパン,0
2298,9380002002270,登記記録の閉鎖等,0,2024-10-02,2024-09-09,有限会社土田会計事務所,,有限会社,福島県,福島市,丸子字富塚８番地の１０,,07,201,9600111,,,2024-09-09,清算の結了等,,,2015-10-05,1,,,,,ツチダカイケイジムショ,0
2299,9380002020586,登記記録の閉鎖等,0,2024-10-02,2024-09-13,有限会社三善製作所,,有限会社,福島県,岩瀬郡鏡石町,久来石１８２番地,,07,342,9690403,,,2024-09-13,清算の結了等,,,2015-10-05,1,,,,,ミヨシセイサクショ,0
2312,9500001014881,登記記録の閉鎖等,0,2024-10-02,2024-09-24,株式会社セイワ,,株式会社,愛媛県,四国中央市,土居町津根３５４４番地２,,38,213,7990704,,,2024-09-24,清算の結了等,,,2015-10-05,1,,,,,セイワ,0
