sequenceNumber,corporateNumber,process,correct,updateDate,changeDate,name,nameImageId,kind,prefectureName,cityName,streetNumber,addressImageId,prefectureCode,cityCode,postCode,addressOutside,addressOutsideImageId,closeDate,closeCause,successorCorporateNumber,changeCause,assignmentDate,latest,enName,enPrefectureName,enCityName,enAddressOutside,furigana,hihyoji
6,1010001242358,新規,0,2024-02-19,2024-02-19,株式会社四神明太,,株式会社,東京都,中央区,新川２丁目２１番１０号,,13,102,1040033,,,,,,,2024-02-19,1,,,,,シジンメンタイ,0
7,1010001242366,新規,0,2024-02-19,2024-02-19,株式会社オーバーサイパートナーズ,,株式会社,東京都,中央区,日本橋２丁目２－３ＲＩＳＨＥビルＵＣＦ４階,,13,102,1030027,,,,,,,2024-02-19,1,,,,,オーバーサイパートナーズ,0
8,1010001242390,新規,0,2024-02-19,2024-02-19,株式会社ＣＯＳＯ,,株式会社,東京都,中央区,銀座１丁目１２－４Ｎ＆ＥＢＬＤ．６Ｆ,,13,102,1040061,,,,,,,2024-02-19,1,,,,,コウソ,0
9,1010001242416,新規,0,2024-02-19,2024-02-19,株式会社Ｍａｒｅ　Ｂｌｕ,,株式会社,東京都,千代田区,神田猿楽町２丁目７番８号,,13,101,1010064,,,,,,,2024-02-19,1,,,,,マーレブル,0
11,1010003042954,新規,0,2024-02-19,2024-02-19,合同会社ミーシグデザイン,,合同会社,東京都,文京区,目白台２丁目４番２号,,13,105,1120015,,,,,,,2024-02-19,1,,,,,ミーシグデザイン,0
18,1010401180397,新規,0,2024-02-19,2024-02-19,株式会社Ｌ＆Ｐａｒｔｎｅｒ,,株式会社,東京都,港区,赤坂４丁目８番１９号赤坂フロントタウン３階,,13,103,1070052,,,,,,,2024-02-19,1,,,,,エルアンドパートナー,0
19,1010401180430,新規,0,2024-02-19,2024-02-19,Ｐａｄｄｙ＆Ｗａｔｅｒ株式会社,,株式会社,東京都,港区,南青山５丁目１７番２号,,13,103,1070062,,,,,,,2024-02-19,1,,,,,パディーアンドウォーター,0
20,1010401180447,新規,0,2024-02-19,2024-02-19,株式会社Ｌｉｍｉｔｅｄ,,株式会社,東京都,港区,北青山１丁目３番１号アールキューブ青山３階,,13,103,1070061,,,,,,,2024-02-19,1,,,,,リミテッド,0
21,1010401180463,新規,0,2024-02-19,2024-02-19,Ｔｏｋｙｏ　Ｓｕｎ　Ｌｉｆｅ　Ｈｏｌｄｉｎｇｓ株式会社,,株式会社,東京都,港区,三田３丁目２番１号弓和三田ビジデンス５１０号室,,13,103,1080073,,,,,,,2024-02-19,1,,,,,トウキョウサンライフホールディングス,0
22,1010403031796,新規,0,2024-02-19,2024-02-19,合同会社のざわな,,合同会社,東京都,港区,高輪４丁目２１番２９号アニュス・デイ高輪２０５,,13,103,1080074,,,,,,,2024-02-19,1,,,,,ノザワナ,0
23,1010501051804,新規,0,2024-02-19,2024-02-19,株式会社凱撒グループ,,株式会社,東京都,台東区,台東２丁目３１－１０－１１３室,,13,106,1100016,,,,,,,2024-02-19,1,,,,,シーザーグループ,0
25,1010601064664,新規,0,2024-02-19,2024-02-19,株式会社ＣＵＤＤＬＣＡ,,株式会社,東京都,江東区,亀戸６丁目５５番１３号ＳＹＦＯＲＭＥ亀戸,,13,108,1360071,,,,,,,2024-02-19,1,,,,,カドルカ,0
29,1010801034772,新規,0,2024-02-19,2024-02-19,株式会社ＴＩＣ,,株式会社,東京都,大田区,西蒲田１丁目１８番１１号カーサ東和Ｂ号,,13,111,1440051,,,,,,,2024-02-19,1,,,,,ティーアイシー,0
38,1011001160112,新規,0,2024-02-19,2024-02-19,株式会社ＥＶＥＲＰＬＡＮＳ,,株式会社,東京都,渋谷区,幡ヶ谷２丁目２１番４号,,13,113,1510072,,,,,,,2024-02-19,1,,,,,エバープランズ,0
41,1011101106188,新規,0,2024-02-19,2024-02-19,株式会社アンドリアライズ,,株式会社,東京都,新宿区,西新宿１丁目１８－２晴花ビル６階６０５号室,,13,104,1600023,,,,,,,2024-02-19,1,,,,,アンドリアライズ,0
56,1011501030351,新規,0,2024-02-19,2024-02-19,ラヴィ５株式会社,,株式会社,東京都,荒川区,西尾久１丁目１７番６号,,13,118,1160011,,,,,,,2024-02-19,1,,,,,ラヴィゴ,0
65,1011801043796,新規,0,2024-02-19,2024-02-19,株式会社ワイズ・カンパニー,,株式会社,東京都,葛飾区,東金町６丁目８番６号,,13,122,1250041,,,,,,,2024-02-19,1,,,,,ワイズカンパニー,0
66,1011801043805,新規,0,2024-02-19,2024-02-19,ＥＶＥＲＩＣＨ　ＪＰ株式会社,,株式会社,東京都,足立区,西新井３丁目３番１５号,,13,121,1230841,,,,,,,2024-02-19,1,,,,,エバーリッチジェーピー,0
67,1012301013785,新規,0,2024-02-19,2024-02-19,株式会社海月,,株式会社,東京都,町田市,原町田６丁目１９－１０立木ビル３Ｆ,,13,209,1940013,,,,,,,2024-02-19,1,,,,,クラゲ,0
68,1012401041538,新規,0,2024-02-19,2024-02-19,株式会社Ｙ＆Ｙ,,株式会社,東京都,府中市,白糸台３丁目１番地の１,,13,206,1830011,,,,,,,2024-02-19,1,,,,,ワイアンドワイ,0
74,1013305003574,新規,0,2024-02-19,2024-02-19,一般社団法人やすだ倶楽部,,その他の設立登記法人,東京都,豊島区,池袋１丁目２番６号ベルメゾン池袋７０４,,13,116,1700014,,,,,,,2024-02-19,1,,,,,ヤスダクラブ,0
78,1020001155848,新規,0,2024-02-19,2024-02-19,株式会社いずみ電設,,株式会社,神奈川県,横浜市瀬谷区,阿久和南２丁目２７番地５,,14,114,2460026,,,,,,,2024-02-19,1,,,,,イズミデンセツ,0
87,1021001081489,新規,0,2024-02-19,2024-02-19,真自信息科技株式会社,,株式会社,神奈川県,高座郡寒川町,一之宮１丁目１７番２７‐５号,,14,321,2530111,,,,,,,2024-02-19,1,,,,,シンジシンソクカギ,0
88,1021003014158,新規,0,2024-02-19,2024-02-19,栄商事合同会社,,合同会社,神奈川県,横須賀市,久里浜４丁目７番４号,,14,201,2390831,,,,,,,2024-02-19,1,,,,,サカエショウジ,0
92,1030001158718,新規,0,2024-02-19,2024-02-19,森華株式会社,,株式会社,埼玉県,川越市,上野田町５３番地１０－３０３号室,,11,201,3501112,,,,,,,2024-02-19,1,,,,,シンカ,0
93,1030001158734,新規,0,2024-02-19,2024-02-19,株式会社エーケーアイ,,株式会社,埼玉県,深谷市,上野台２６０番地１,,11,218,3660801,,,,,,,2024-02-19,1,,,,,エーケーアイ,0
94,1030001158750,新規,0,2024-02-19,2024-02-19,株式会社ジーエス大宮,,株式会社,埼玉県,さいたま市大宮区,桜木町２丁目３３７番地１,,11,103,3300854,,,,,,,2024-02-19,1,,,,,ジーエスオオミヤ,0
95,1030001158759,新規,0,2024-02-19,2024-02-19,ラ・メール訪問入浴株式会社,,株式会社,埼玉県,さいたま市北区,本郷町１１２番地白石ビル２階,,11,102,3310802,,,,,,,2024-02-19,1,,,,,ラメールホウモンニュウヨク,0
107,1040003024347,新規,0,2024-02-19,2024-02-19,ＮＯＯＲＴＲＡＤＩＮＧ合同会社,,合同会社,千葉県,富里市,十倉２４５０番地４６,,12,233,2860212,,,,,,,2024-02-19,1,,,,,ヌールトレーディング,0
110,1060001036838,新規,0,2024-02-19,2024-02-19,株式会社ニシスタッフ,,株式会社,栃木県,真岡市,長田１９１番地５,,09,209,3214364,,,,,,,2024-02-19,1,,,,,ニシスタッフ,0
111,1060001036846,新規,0,2024-02-19,2024-02-19,株式会社大輝,,株式会社,栃木県,日光市,今市１０９３番地１５パンフォーラム２０１,,09,206,3211261,,,,,,,2024-02-19,1,,,,,ダイキ,0
114,1060003004917,新規,0,2024-02-19,2024-02-19,合同会社ｎｏｖｅｌ,,合同会社,栃木県,下都賀郡壬生町,大字福和田８６４－２,,09,361,3210219,,,,,,,2024-02-19,1,,,,,ノベル,0
117,1070001041399,新規,0,2024-02-19,2024-02-19,空き家価値創造研究所株式会社,,株式会社,群馬県,渋川市,伊香保町水沢１２５番地１,,10,208,3770103,,,,,,,2024-02-19,1,,,,,アキヤカチソウゾウケンキュウショ,0
121,1080101024542,新規,0,2024-02-19,2024-02-19,株式会社山宮ベース,,株式会社,静岡県,富士宮市,山宮１３８０－５,,22,207,4180111,,,,,,,2024-02-19,1,,,,,ヤマミヤベース,0
122,1080103002983,新規,0,2024-02-19,2024-02-19,合同会社アセット富士,,合同会社,静岡県,富士市,今宮１２８番地の２０,,22,210,4170802,,,,,,,2024-02-19,1,,,,,アセットフジ,0
130,1100003007403,新規,0,2024-02-19,2024-02-19,頂信合同会社,,合同会社,長野県,松本市,大字和田２３５９番地１－Ｂ,,20,202,3901242,,,,,,,2024-02-19,1,,,,,テイシン,0
133,1110005017052,新規,0,2024-02-19,2024-02-19,ルネスシンフォニー管理組合法人,,その他の設立登記法人,新潟県,上越市,下門前１６７６ルネスシンフォニー管理室,,15,222,9420063,,,,,,,2024-02-19,1,,,,,ルネスシンフォニー,0
143,1120001262329,新規,0,2024-02-19,2024-02-19,株式会社バイオものづくり支援機構,,株式会社,大阪府,大阪市旭区,大宮５丁目１６番１号常翔学園大阪工業大学工学部生命工学科生物プロセス工学研究室内,,27,117,5350002,,,,,,,2024-02-19,1,,,,,バイオモノヅクリシエンキコウ,0
144,1120001262337,新規,0,2024-02-19,2024-02-19,株式会社Ｌｉｖｉｎｇ　Ｌａｒｇｅ,,株式会社,大阪府,大阪市西区,南堀江２丁目１番３号Ｓ－Ｒｅｓｉｄｅｎｃｅ南堀江８０９号,,27,106,5500015,,,,,,,2024-02-19,1,,,,,リビングラージ,0
145,1120001262353,新規,0,2024-02-19,2024-02-19,株式会社新設法人サポートセンター,,株式会社,大阪府,大阪市中央区,北久宝寺町１丁目２番１－６０４号,,27,128,5410057,,,,,,,2024-02-19,1,,,,,シンセツホウジンサポートセンター,0
146,1120001262361,新規,0,2024-02-19,2024-02-19,株式会社ＹＳ商事,,株式会社,大阪府,大阪市中央区,内久宝寺町４丁目４番３号日宝パールビル４０２号,,27,128,5400013,,,,,,,2024-02-19,1,,,,,ワイエスショウジ,0
147,1120001262403,新規,0,2024-02-19,2024-02-19,株式会社ＴＨＥ　ＣＬＵＢ　ＯＳＡＫＡ,,株式会社,大阪府,大阪市中央区,東心斎橋２丁目６番２３号岩伸Ｐビル１階,,27,128,5420083,,,,,,,2024-02-19,1,,,,,ザクラブオオサカ,0
152,1120003025964,新規,0,2024-02-19,2024-02-19,合同会社ＴＣ,,合同会社,大阪府,大阪市東住吉区,桑津２丁目１２番１４－４０２号,,27,121,5460041,,,,,,,2024-02-19,1,,,,,ティーシー,0
153,1120003025972,新規,0,2024-02-19,2024-02-19,合同会社希,,合同会社,大阪府,大阪市港区,港晴４丁目１３番１１号,,27,107,5520023,,,,,,,2024-02-19,1,,,,,ノゾミ,0
156,1120103005684,新規,0,2024-02-19,2024-02-19,ＫＩＫＹＯ　ＬＩＦＥ　ＩＮＮＯＶＡＴＩＯＮ合同会社,,合同会社,大阪府,堺市東区,高松７９番地８シャーメゾンベルクリケット１０１号,,27,143,5998121,,,,,,,2024-02-19,1,,,,,キキョウライフイノベーション,0
160,1120901048769,新規,0,2024-02-19,2024-02-19,株式会社Ｒｅ‐ＬＩＦＥ,,株式会社,大阪府,摂津市,南千里丘５番１３－１７０７号,,27,224,5660021,,,,,,,2024-02-19,1,,,,,リライフ,0
165,1130001076389,新規,0,2024-02-19,2024-02-19,Ｌｉｍ　Ｇｏｏｄ株式会社,,株式会社,京都府,京都市伏見区,中油掛町１０６番地７－２Ｆ,,26,109,6128056,,,,,,,2024-02-19,1,,,,,リムグッド,0
177,1160001025698,新規,0,2024-02-19,2024-02-19,株式会社アリスハウジング,,株式会社,滋賀県,大津市,見世２丁目１０番３２号アメニティ唐崎２０４号,,25,201,5200004,,,,,,,2024-02-19,1,,,,,アリスハウジング,0
190,1180001160147,新規,0,2024-02-19,2024-02-19,株式会社Ｄｅｍｅｔｅｒ,,株式会社,愛知県,名古屋市中区,新栄２丁目１４番１６号,,23,106,4600007,,,,,,,2024-02-19,1,,,,,デメテル,0
205,1260001038772,新規,0,2024-02-19,2024-02-19,株式会社アルレッキーノ,,株式会社,岡山県,浅口郡里庄町,大字里見７７０９番地２,,33,445,7190301,,,,,,,2024-02-19,1,,,,,アルレッキーノ,0
215,1290001104712,新規,0,2024-02-19,2024-02-19,株式会社秋篠電設,,株式会社,福岡県,古賀市,筵内１１４５番地４,,40,223,8113121,,,,,,,2024-02-19,1,,,,,アキシノデンセツ,0
216,1290001104729,新規,0,2024-02-19,2024-02-19,株式会社Ｓ＆Ｓ,,株式会社,福岡県,福岡市博多区,堅粕３丁目１６番１４号,,40,132,8120043,,,,,,,2024-02-19,1,,,,,エスアンドエス,0
217,1290001104745,新規,0,2024-02-19,2024-02-19,株式会社ＢＯＲＢＯＳＳ,,株式会社,福岡県,福岡市早良区,賀茂１丁目４１－５コーポ・ジャレル１Ｆ,,40,137,8140164,,,,,,,2024-02-19,1,,,,,ボルボス,0
220,1290003014975,新規,0,2024-02-19,2024-02-19,合同会社とらんぺっと・てーる,,合同会社,福岡県,福岡市中央区,天神４丁目６－２８天神ファーストビル７階,,40,133,8100001,,,,,,,2024-02-19,1,,,,,トランペットテール,0
221,1290003014983,新規,0,2024-02-19,2024-02-19,合同会社ＡＺ,,合同会社,福岡県,福岡市西区,今宿１丁目２２－３,,40,135,8190167,,,,,,,2024-02-19,1,,,,,エーゼット,0
227,1310001018868,新規,0,2024-02-19,2024-02-19,株式会社百万弗出版社,,株式会社,長崎県,佐世保市,大宮町３８番９号,,42,202,8570841,,,,,,,2024-02-19,1,,,,,ヒャクマンドルシュッパンシャ,0
228,1330001031753,新規,0,2024-02-19,2024-02-19,株式会社アジアリンク,,株式会社,熊本県,阿蘇郡西原村,大字小森７５１番地１西原マンション４０３号,,43,432,8612402,,,,,,,2024-02-19,1,,,,,アジアリンク,0
229,1330001031761,新規,0,2024-02-19,2024-02-19,株式会社ＶｉｌｌＡ,,株式会社,熊本県,熊本市中央区,下通２丁目１番２２号ＴＭ－１２ビルＢ１－Ｄ,,43,101,8600807,,,,,,,2024-02-19,1,,,,,ヴィラ,0
232,1330003010219,新規,0,2024-02-19,2024-02-19,合同会社Ｒａｓｉｃ,,合同会社,熊本県,宇城市,不知火町亀松１１１番地１３,,43,213,8690561,,,,,,,2024-02-19,1,,,,,ラシク,0
238,1360003013722,新規,0,2024-02-19,2024-02-19,合同会社オリーブの幹,,合同会社,沖縄県,うるま市,字栄野比７１３－８,,47,213,9042205,,,,,,,2024-02-19,1,,,,,オリーブノミキ,0
240,1370003006485,新規,0,2024-02-19,2024-02-19,合同会社大拓建設,,合同会社,宮城県,石巻市,田道町２丁目１番５号ピュアハウスＩＩＩＢ号,00133764,04,202,9860872,,,,,,,2024-02-19,1,,,,,ダイタクケンセツ,0
246,1380005012794,新規,0,2024-02-19,2024-02-19,一般社団法人職人育成塾ふくしま,,その他の設立登記法人,福島県,いわき市,内郷白水町川平７６番地の１２,,07,204,9738405,,,,,,,2024-02-19,1,,,,,ショクニンイクセイジュクフクシマ,0
262,1700150124031,新規,0,2024-02-19,2024-02-19,ＳＨＥＮＺＨＥＮＳＨＩＣＨＵＡＮＧＸＩＮＹＵＡＮＤＩＡＮＺＩ　ＹＯＵＸＩＡＮＧＯＮＧＳＩ,,外国会社等,,,,,,,,ＳｈｅｎＺｈｅｎＳｈｉＬｏｎｇＨｕａＱｕＦｕＣｈｅｎｇＪｉｅＤａｏＸｉＫｅｎｇＳｈｅＱｕＸｉＫｅｎｇＮａｎＬｕ１Ｈａｏ２Ｄｏｎｇ３０３,,,,,,2024-02-19,1,,,,,シンセンシツァンシンユェンデンシユウゲンコウシ,0
263,1700150124048,新規,0,2024-02-19,2024-02-19,ｓｈｅｎｚｈｅｎｆａｎｑｉｋｅｊｉｙｏｕｘｉａｎｇｏｎｇｓｉ,,外国会社等,,,,,,,,ｍｅｉｌｉｎｊｉｅｄａｏｓｈａｎｇｍｅｉｓｈｅｑｕｓｈａｎｇｍｅｉｌｉｎｘｉｎｃｕｎ１６０ｈａｏ１０２　ｓｈｅｎｚｈｅｎｓｈｉ　ｆｕｔｉａｎｑｕ　ｇｕａｎｇｄｏｎｇｓｈｅｎｇ　ＣＮ,,,,,,2024-02-19,1,,,,,シンセンファンチカギユウゲンコウシ,0
268,2010001242324,新規,0,2024-02-19,2024-02-19,株式会社オネストパートナーズ,,株式会社,東京都,千代田区,神田三崎町２丁目１４番５号ＷＯＲＫ＆ＨＯＵＳＥ水道橋２階Ａ,,13,101,1010061,,,,,,,2024-02-19,1,,,,,ネオストパートナーズ,0
269,2010001242349,新規,0,2024-02-19,2024-02-19,文香株式会社,,株式会社,東京都,千代田区,岩本町２丁目１３番６号,,13,101,1010032,,,,,,,2024-02-19,1,,,,,ブンカ,0
270,2010001242373,新規,0,2024-02-19,2024-02-19,株式会社中央総合産業医事務所,,株式会社,東京都,中央区,日本橋小舟町８番１３号天翔オフィス日本橋,,13,102,1030024,,,,,,,2024-02-19,1,,,,,チュウオウソウゴウサンギョウイジムショ,0
273,2010005037877,新規,0,2024-02-19,2024-02-19,一般社団法人子ども・学生ＶＲ自由研究大会組織委員会,,その他の設立登記法人,東京都,千代田区,二番町９番地３,,13,101,1020084,,,,,,,2024-02-19,1,,,,,コドモガクセイブイアールジユウケンキュウタイカイソシキイインカイ,0
278,2010401180388,新規,0,2024-02-19,2024-02-19,株式会社ｐｏｎ,,株式会社,東京都,港区,浜松町２丁目２番１５号浜松町ダイヤビル２Ｆ,,13,103,1050013,,,,,,,2024-02-19,1,,,,,ポン,0
279,2010401180454,新規,0,2024-02-19,2024-02-19,株式会社ＧＢ　ＡＤＶＡＮＣＥ,,株式会社,東京都,港区,新橋５丁目１２－１１－７０２,,13,103,1050004,,,,,,,2024-02-19,1,,,,,ジービーアドバンス,0
282,2010501051794,新規,0,2024-02-19,2024-02-19,富世株式会社,,株式会社,東京都,台東区,柳橋１丁目３番３号東宏ビル４０３,,13,106,1110052,,,,,,,2024-02-19,1,,,,,トミヨ,0
287,2010701045563,新規,0,2024-02-19,2024-02-19,株式会社メディリカ,,株式会社,東京都,品川区,上大崎３丁目１番１号,,13,109,1410021,,,,,,,2024-02-19,1,,,,,メディリカ,0
290,2010901054728,新規,0,2024-02-19,2024-02-19,株式会社カリー堂,,株式会社,東京都,世田谷区,代田５丁目３４番２１号ハイランド２０２号,,13,112,1550033,,,,,,,2024-02-19,1,,,,,カリードウ,0
301,2011003018514,新規,0,2024-02-19,2024-02-19,合同会社セブンウィルカンパニー,,合同会社,東京都,目黒区,目黒３丁目２１番１６号,,13,110,1530063,,,,,,,2024-02-19,1,,,,,セブンウィルカンパニー,0
302,2011003018522,新規,0,2024-02-19,2024-02-19,合同会社ピコピコ,,合同会社,東京都,渋谷区,道玄坂１丁目１０－８渋谷道玄坂東急ビル２Ｆ－Ｃ,,13,113,1500043,,,,,,,2024-02-19,1,,,,,ピコピコ,0
306,2011201025254,新規,0,2024-02-19,2024-02-19,株式会社ＩＺＯＯ,,株式会社,東京都,中野区,野方１丁目９番９号,,13,114,1650027,,,,,,,2024-02-19,1,,,,,イゾウ,0
309,2011403004279,新規,0,2024-02-19,2024-02-19,合同会社Ｔｉｍｂｒｅ,,合同会社,東京都,板橋区,東山町７番２号ＫｏｌｅｔＴｅｒｒａｃｅ板橋東山町０１,,13,119,1740073,,,,,,,2024-02-19,1,,,,,ティンバー,0
310,2011601027536,新規,0,2024-02-19,2024-02-19,株式会社今井,,株式会社,東京都,練馬区,大泉学園町２丁目２２番２３号アドニス大泉４０２,,13,120,1780061,,,,,,,2024-02-19,1,,,,,イマイ,0
315,2012301013784,新規,0,2024-02-19,2024-02-19,株式会社恵,,株式会社,東京都,町田市,相原町１７６３番地１ベルデディアス１０３,,13,209,1940211,,,,,,,2024-02-19,1,,,,,メグミ,0
317,2012405004944,新規,0,2024-02-19,2024-02-19,一般社団法人なないろＳｐｏｒｔｓ,,その他の設立登記法人,東京都,小金井市,桜町１丁目８番３号,,13,210,1840005,,,,,,,2024-02-19,1,,,,,ナナイロスポーツ,0
322,2013103001309,新規,0,2024-02-19,2024-02-19,合同会社Ｍｉｒａｉｉパートナーズ,,合同会社,東京都,青梅市,根ヶ布１丁目５２６番地,,13,205,1980004,,,,,,,2024-02-19,1,,,,,,0
331,2020001155839,新規,0,2024-02-19,2024-02-19,株式会社ベイサイドリビング横浜,,株式会社,神奈川県,横浜市中区,山下町４５番地２山下町石川ビル２０２号室,,14,104,2310023,,,,,,,2024-02-19,1,,,,,ベイサイドリビングヨコハマ,0
335,2020003025552,新規,0,2024-02-19,2024-02-19,東京キャピタルパートナーズ合同会社,,合同会社,神奈川県,横浜市青葉区,すすき野３丁目６番地２・６－３号棟４０２号室,,14,117,2250021,,,,,,,2024-02-19,1,,,,,トウキョウキャピタルパートナーズ,0
336,2020003025560,新規,0,2024-02-19,2024-02-19,合同会社久古建機,,合同会社,神奈川県,川崎市川崎区,塩浜１丁目１２番１７－２号,,14,131,2100826,,,,,,,2024-02-19,1,,,,,キュウコケンキ,0
337,2020003025569,新規,0,2024-02-19,2024-02-19,ＮＦＣＣＫｉｋａｋｕ合同会社,,合同会社,神奈川県,横浜市港北区,樽町３丁目７番１５－２３７号,,14,109,2220001,,,,,,,2024-02-19,1,,,,,エヌエフシーシーキカク,0
339,2020005016285,新規,0,2024-02-19,2024-02-19,一般社団法人ｉｌｌｕｍｉｎａｔｅ　ｗｉｔｈ,,その他の設立登記法人,神奈川県,横浜市西区,北幸２丁目１０番４８号むつみビル３階,,14,103,2200004,,,,,,,2024-02-19,1,,,,,イルミネイトウィズ,0
343,2021001081488,新規,0,2024-02-19,2024-02-19,Ａｓｉａ　Ｐｏｌｉｃｙ　Ｐａｒｔｎｅｒｓ株式会社,,株式会社,神奈川県,三浦郡葉山町,一色２１４１番地の１,,14,301,2400111,,,,,,,2024-02-19,1,,,,,アジアポリシーパートナーズ,0
349,2030001158758,新規,0,2024-02-19,2024-02-19,株式会社ｔｈｒｅｅ‐Ｓ,,株式会社,埼玉県,さいたま市中央区,新中里４丁目５番地２－１号,,11,105,3380011,,,,,,,2024-02-19,1,,,,,スリーエス,0
354,2030003023646,新規,0,2024-02-19,2024-02-19,合同会社ＡＳＳＩＳＴ,,合同会社,埼玉県,三郷市,番匠免１２８６番地１,,11,237,3410056,,,,,,,2024-02-19,1,,,,,アシスト,0
371,2080101024541,新規,0,2024-02-19,2024-02-19,株式会社庄田マリン,,株式会社,静岡県,下田市,二丁目６番２６号,,22,219,4150022,,,,,,,2024-02-19,1,,,,,ショウダマリン,0
374,2090001018551,新規,0,2024-02-19,2024-02-19,株式会社宝鉱山蒸溜所,,株式会社,山梨県,都留市,大幡５１０６番地,,19,204,4020045,,,,,,,2024-02-19,1,,,,,タカラコウザンジョウリュウショ,0
379,2100003007402,新規,0,2024-02-19,2024-02-19,旬合同会社,,合同会社,長野県,塩尻市,大字広丘高出１３５７番地８９,,20,215,3990703,,,,,,,2024-02-19,1,,,,,シュン,0
387,2120001262286,新規,0,2024-02-19,2024-02-19,慧創建築株式会社,,株式会社,大阪府,大阪市都島区,中野町４丁目３番６号Ｈ２Ｈ大阪桜之宮邸４Ｅ－４,,27,102,5340027,,,,,,,2024-02-19,1,,,,,エソウケンチク,0
388,2120001262336,新規,0,2024-02-19,2024-02-19,ルカインベストメント株式会社,,株式会社,大阪府,大阪市東成区,玉津３丁目６－２－２Ｆ,,27,115,5370023,,,,,,,2024-02-19,1,,,,,ルカインベストメント,0
389,2120001262385,新規,0,2024-02-19,2024-02-19,株式会社平田建設,,株式会社,大阪府,枚方市,津田東町１丁目２０番４５号,,27,210,5730122,,,,,,,2024-02-19,1,,,,,ヒラタケンセツ,0
390,2120001262393,新規,0,2024-02-19,2024-02-19,株式会社キュロスホーム,,株式会社,大阪府,大阪市鶴見区,鶴見６丁目２番１－１３０９号,,27,124,5380053,,,,,,,2024-02-19,1,,,,,キュロスホーム,0
391,2120001262468,新規,0,2024-02-19,2024-02-19,株式会社イムエステート,,株式会社,大阪府,大阪市中央区,北久宝寺町１丁目２番１号オーセンティック東船場３０２,,27,128,5410057,,,,,,,2024-02-19,1,,,,,イムエステート,0
394,2120101069053,新規,0,2024-02-19,2024-02-19,株式会社ＭＩＴ,,株式会社,大阪府,堺市西区,草部１４８９番地９,,27,144,5938312,,,,,,,2024-02-19,1,,,,,エムアイティー,0
395,2120101069078,新規,0,2024-02-19,2024-02-19,株式会社中富,,株式会社,大阪府,堺市堺区,戎島町２丁６２番地８（５１１号）,,27,141,5900985,,,,,,,2024-02-19,1,,,,,ナカトミ,0
399,2130001076371,新規,0,2024-02-19,2024-02-19,株式会社小谷屋,,株式会社,京都府,京都市伏見区,深草下川原町１０番地５,,26,109,6128401,,,,,,,2024-02-19,1,,,,,コタニヤ,0
400,2130001076388,新規,0,2024-02-19,2024-02-19,株式会社レンス,,株式会社,京都府,城陽市,市辺西川原１１番地の４,,26,207,6100114,,,,,,,2024-02-19,1,,,,,レンス,0
401,2130003009305,新規,0,2024-02-19,2024-02-19,合同会社ＫＡＷＡＴＴＯ,,合同会社,京都府,京丹後市,峰山町杉谷８４３,,26,212,6270012,,,,,,,2024-02-19,1,,,,,カワット,0
408,2140001133353,新規,0,2024-02-19,2024-02-19,株式会社ＶＥＲＴＥＸ　ＤＲＩＶＥ,,株式会社,兵庫県,姫路市,八代３９２番地２,,28,201,6700872,,,,,,,2024-02-19,1,,,,,バーテックスドライブ,0
418,2180001160220,新規,0,2024-02-19,2024-02-19,株式会社ＦＴＢ,,株式会社,愛知県,名古屋市昭和区,白金２丁目４番１０号,,23,107,4660058,,,,,,,2024-02-19,1,,,,,エフティービー,0
422,2180003026329,新規,0,2024-02-19,2024-02-19,合同会社麗音,,合同会社,愛知県,名古屋市緑区,黒沢台５丁目９０８番地の２カサベルテ黒沢台Ｂ棟２０１号,,23,114,4580003,,,,,,,2024-02-19,1,,,,,ライト,0
423,2180003026394,新規,0,2024-02-19,2024-02-19,合同会社物見遊山,,合同会社,愛知県,瀬戸市,西松山町２丁目７番地１野村新瀬戸ヒルズ１３０９,,23,204,4890912,,,,,,,2024-02-19,1,,,,,モノミユサン,0
425,2180301038331,新規,0,2024-02-19,2024-02-19,株式会社Ｈ＆Ｐ,,株式会社,愛知県,刈谷市,東境町飯島６１番地,,23,210,4480007,,,,,,,2024-02-19,1,,,,,エイチアンドピー,0
437,2210001019644,新規,0,2024-02-19,2024-02-19,株式会社ｔｏｒａ,,株式会社,福井県,鯖江市,三六町１丁目１０番２５号,,18,207,9160021,,,,,,,2024-02-19,1,,,,,トラ,0
438,2230001020212,新規,0,2024-02-19,2024-02-19,株式会社Ｏｎｅ’ｓ　Ｌｉｆｅ,,株式会社,富山県,富山市,下新町３３番１３号,,16,201,9300804,,,,,,,2024-02-19,1,,,,,ワンズライフ,0
439,2230001020220,新規,0,2024-02-19,2024-02-19,株式会社サムモータース,,株式会社,富山県,富山市,四方荒屋２１１４番地７,,16,201,9302243,,,,,,,2024-02-19,1,,,,,サムモータース,0
441,2260001038771,新規,0,2024-02-19,2024-02-19,株式会社０,,株式会社,岡山県,倉敷市,神田１丁目７－２１,,33,202,7128061,,,,,,,2024-02-19,1,,,,,ゼロ,0
449,2290001104711,新規,0,2024-02-19,2024-02-19,株式会社Ｌｕｃｋ　ｆｉｅｌｄ　Ｋｍ,,株式会社,福岡県,久留米市,善導寺町飯田４７７番地８,,40,203,8390824,,,,,,,2024-02-19,1,,,,,ラックフィールドケイエム,0
450,2290001104728,新規,0,2024-02-19,2024-02-19,林海国際株式会社,,株式会社,福岡県,福岡市博多区,祇園町８番１２－１１１７号,,40,132,8120038,,,,,,,2024-02-19,1,,,,,リンカイコクサイ,0
451,2290001104736,新規,0,2024-02-19,2024-02-19,株式会社ＮＫオペレーションズ,,株式会社,福岡県,福岡市東区,香椎照葉３丁目２－７－３００１,,40,131,8130017,,,,,,,2024-02-19,1,,,,,エヌケイオペレーションズ,0
453,2290003014982,新規,0,2024-02-19,2024-02-19,グレープジュース合同会社,,合同会社,福岡県,福岡市中央区,高砂１丁目２０番３号,,40,133,8100011,,,,,,,2024-02-19,1,,,,,グレープジュース,0
461,2320001020302,新規,0,2024-02-19,2024-02-19,株式会社ＳＴＥＭ,,株式会社,大分県,大分市,東津留１丁目３番５号フロイデ津留１０１,,44,201,8700934,,,,,,,2024-02-19,1,,,,,ステム,0
462,2320005010134,新規,0,2024-02-19,2024-02-19,一般社団法人別府権利サポート,,その他の設立登記法人,大分県,別府市,大字鶴見４０５番地平野コーポ２０２,,44,202,8740840,,,,,,,2024-02-19,1,,,,,ベップケンリサポート,0
466,2350003004572,新規,0,2024-02-19,2024-02-19,合同会社シンシャイン,,合同会社,宮崎県,西都市,右松２丁目３８番地,,45,208,8810003,,,,,,,2024-02-19,1,,,,,シンシャイン,0
472,2370001050955,新規,0,2024-02-19,2024-02-19,株式会社Ｂｉｚ　ａｃｅ,,株式会社,宮城県,仙台市宮城野区,榴ケ岡１０６－１６－１１０５,,04,102,9830851,,,,,,,2024-02-19,1,,,,,ビズエース,0
477,2380001034313,新規,0,2024-02-19,2024-02-19,株式会社ＡＤ総合計画,,株式会社,福島県,郡山市,土瓜１丁目１６１番地,,07,203,9630204,,,,,,,2024-02-19,1,,,,,エーディーソウゴウケイカク,0
480,2380003005683,新規,0,2024-02-19,2024-02-19,合同会社ビーエックスリピート,,合同会社,福島県,郡山市,田村町金屋字新家２６番地,,07,203,9630725,,,,,,,2024-02-19,1,,,,,ビーエックスリピート,0
492,2450005004395,新規,0,2024-02-19,2024-02-19,神樂村農業會,00133729,その他の設立登記法人,北海道,旭川市,西神楽南一条２丁目６３８番地,,01,204,0710171,,,,,,,2024-02-19,1,,,,,,0
500,2700150124030,新規,0,2024-02-19,2024-02-19,ｙｕｙａｏｓｈｉｈａｌｕｏｍａｏｙｉ　ｙｏｕｘｉａｎｇｏｎｇｓｉ,,外国会社等,,,,,,,,７－７０２　ｑｉｕｙｕｅｙｕａｎ　ＬｖｃｈｅｎｇＭｉｎｇｙｕａｎ，Ｙｕｙａｏ　ｚｈｅｊｉａｎｇ,,,,,,2024-02-19,1,,,,,ユヤオシハロウマオイユウゲンコウシ,0
501,2700150124039,新規,0,2024-02-19,2024-02-19,Ｓｈｅｎｚｈｅｎ　Ｚｈｏｎｇｘｉａｎｇ　Ｃｌｏｔｈｉｎｇ　Ｃｏ．，Ｌｔｄ,,外国会社等,,,,,,,,３０３－３０６３，３　Ｆｌｏｏｒ，Ｂｕｉｌｄｉｎｇ　５，Ｆｕｓｈｉｌｉ　Ｒｏａｄ　Ｎｏ　３，Ｓｉｌｉａｎ　Ｃｏｍｍｕｎｉｔｙ，Ｈｅｎｇｇａｎｇ　Ｓｔｒｅｅｔ，Ｌｏｎｇｇａｎｇ　Ｄｉｓｔｒｉｃｔ，Ｓｈｅｎｚｈｅｎ　Ｇｕａｎｇｄｏｎｇ,,,,,,2024-02-19,1,,,,,シンセンゾンシャンクロウジングカンパニーリミテッド,0
502,2700150124047,新規,0,2024-02-19,2024-02-19,ＧｕａｎｇＺｈｏｕＬｉｎｇＹｕＤｉａｎＺｉＳｈａｎｇＷｕＹｏｕＸｉａｎＧｏｎｇＳｉ,,外国会社等,,,,,,,,ＬｉＷａｎＱｕ　ＦｅｎｇＹｕａｎＬｕ１２８ｈａｏ　８０３ｈａｏ　ＺｉＢｉａｎ８０３－６ｆａｎｇ　ＧｕａｎｇＺｈｏｕ　ＧｕａｎｇＤｏｎｇ,,,,,,2024-02-19,1,,,,,コウシュウリンウデンシショウムユウゲンコウシ,0
511,3010001242050,新規,0,2024-02-19,2024-02-19,株式会社ＡＬＬ,,株式会社,東京都,中央区,東日本橋１丁目９番６号ＣＯＮＯＥ東日本橋６０１号室,,13,102,1030004,,,,,,,2024-02-19,1,,,,,オール,0
512,3010001242364,新規,0,2024-02-19,2024-02-19,株式会社いちおし,,株式会社,東京都,中央区,日本橋箱崎町３６番３－７０６号,,13,102,1030015,,,,,,,2024-02-19,1,,,,,イチオシ,0
513,3010001242447,新規,0,2024-02-19,2024-02-19,ＡＢ５Ａ２４０１株式会社,,株式会社,東京都,千代田区,丸の内２丁目４番１号,,13,101,1000005,,,,,,,2024-02-19,1,,,,,エービーゴエーニヨンゼロイチ,0
515,3010003042960,新規,0,2024-02-19,2024-02-19,合同会社蘭花堂,,合同会社,東京都,千代田区,神田神保町１丁目４６番地齋藤ビル,,13,101,1010051,,,,,,,2024-02-19,1,,,,,ランカドウ,0
517,3010005037918,新規,0,2024-02-19,2024-02-19,ＮＣＲＥＦ１一般社団法人,,その他の設立登記法人,東京都,千代田区,霞が関３丁目２番５号,,13,101,1000013,,,,,,,2024-02-19,1,,,,,エヌシーアールイーエフワン,0
519,3010401180429,新規,0,2024-02-19,2024-02-19,Ｓｔａｒ　Ｊａｐａｎ　Ｈｏｌｄｉｎｇｓ株式会社,,株式会社,東京都,港区,虎ノ門２丁目１０番４号オークラプレステージタワー,,13,103,1050001,,,,,,,2024-02-19,1,,,,,スタージャパンホールディングス,0
520,3010401180453,新規,0,2024-02-19,2024-02-19,株式会社Ｃａｖ,,株式会社,東京都,港区,東新橋２丁目１１番４号ＭａｙａｐａｄａＳｈｉｏｄｏｍｅＰｌａｚａ３Ｆ,,13,103,1050021,,,,,,,2024-02-19,1,,,,,キャブ,0
522,3010403031968,新規,0,2024-02-19,2024-02-19,合同会社ＧｏｏｄＷｉｎ,,合同会社,東京都,港区,西新橋１丁目２３番９号,,13,103,1050003,,,,,,,2024-02-19,1,,,,,,0
523,3010403032009,新規,0,2024-02-19,2024-02-19,親友合同会社,,合同会社,東京都,港区,西麻布２丁目９－４,,13,103,1060031,,,,,,,2024-02-19,1,,,,,シンユウ,0
529,3010603010623,新規,0,2024-02-19,2024-02-19,合同会社グリーンファクトリー,,合同会社,東京都,墨田区,文花１丁目１８－１３,,13,107,1310044,,,,,,,2024-02-19,1,,,,,グリーンファクトリー,0
531,3010701045579,新規,0,2024-02-19,2024-02-19,ｍａｍａｃｈａｒｍ株式会社,,株式会社,東京都,品川区,西五反田１丁目１８－９－５Ｆ,,13,109,1410031,,,,,,,2024-02-19,1,,,,,ママチャーム,0
533,3010901054735,新規,0,2024-02-19,2024-02-19,株式会社オーバーテイク,,株式会社,東京都,世田谷区,代沢２丁目３９番５号,,13,112,1550032,,,,,,,2024-02-19,1,,,,,オーバーテイク,0
535,3010903008838,新規,0,2024-02-19,2024-02-19,ＹＧコンサルティング合同会社,,合同会社,東京都,世田谷区,代沢４丁目４５番２号,,13,112,1550032,,,,,,,2024-02-19,1,,,,,ワイジーコンサルティング,0
539,3011001160077,新規,0,2024-02-19,2024-02-19,株式会社Ａｌｔ　Ｏｎｅ,,株式会社,東京都,渋谷区,渋谷２丁目１９番１５号宮益坂ビルディング６０９,,13,113,1500002,,,,,,,2024-02-19,1,,,,,オルトワン,0
540,3011001160093,新規,0,2024-02-19,2024-02-19,Ｊ‐Ｔ　Ｐａｒｔｎｅｒｓ株式会社,,株式会社,東京都,渋谷区,鶯谷町１４番２－６０６号,,13,113,1500032,,,,,,,2024-02-19,1,,,,,ジェイティパートナーズ,0
541,3011003018513,新規,0,2024-02-19,2024-02-19,合同会社ＱＥＤ　Ｓｏｌｕｔｉｏｎｓ,,合同会社,東京都,目黒区,碑文谷４丁目１３番１７号,,13,110,1520003,,,,,,,2024-02-19,1,,,,,キューイーディーソリューションズ,0
542,3011003018521,新規,0,2024-02-19,2024-02-19,合同会社ＭＯＯＮ,,合同会社,東京都,渋谷区,富ヶ谷１丁目３１番１－２０４号,,13,113,1510063,,,,,,,2024-02-19,1,,,,,ムーン,0
548,3011101106236,新規,0,2024-02-19,2024-02-19,Ｙａｏｋｅｅｓ株式会社,,株式会社,東京都,新宿区,高田馬場２丁目１７番３号東京三協信用金庫本店ビル７Ｆ,,13,104,1690075,,,,,,,2024-02-19,1,,,,,ヤオキース,0
549,3011203004305,新規,0,2024-02-19,2024-02-19,長生合同会社,,合同会社,東京都,中野区,中央３丁目３４番１号プラム鍋横１階Ｅ号室,,13,114,1640011,,,,,,,2024-02-19,1,,,,,チョウセイ,0
550,3011401025870,新規,0,2024-02-19,2024-02-19,東雲商事株式会社,,株式会社,東京都,板橋区,東山町５２番１９号セントリーオ東山３０６,,13,119,1740073,,,,,,,2024-02-19,1,,,,,トウウンショウジ,0
558,3012703002913,新規,0,2024-02-19,2024-02-19,合同会社サラームトレーデング,,合同会社,東京都,西東京市,中町１丁目１１番地１０号エステート山内２０１,,13,229,2020013,,,,,,,2024-02-19,1,,,,,サラームトレーデング,0
565,3020001155838,新規,0,2024-02-19,2024-02-19,忠実建設株式会社,,株式会社,神奈川県,川崎市川崎区,日進町２６番地１１,,14,131,2100024,,,,,,,2024-02-19,1,,,,,チュウジツケンセツ,0
566,3020001155862,新規,0,2024-02-19,2024-02-19,株式会社コネクト,,株式会社,神奈川県,横浜市磯子区,滝頭１丁目１０番１２号,,14,107,2350012,,,,,,,2024-02-19,1,,,,,コネクト,0
568,3020003025568,新規,0,2024-02-19,2024-02-19,機能安全システムズ合同会社,,合同会社,神奈川県,横浜市西区,浅間町１丁目４番３号ウィザードビル４０２,,14,103,2200072,,,,,,,2024-02-19,1,,,,,キノウアンゼンシステムズ,0
569,3020005016284,新規,0,2024-02-19,2024-02-19,行政書士法人いなほ横浜,,その他の設立登記法人,神奈川県,横浜市港北区,新吉田東６丁目１番３５号,,14,109,2230058,,,,,,,2024-02-19,1,,,,,イナホヨコハマ,0
571,3021001081479,新規,0,2024-02-19,2024-02-19,株式会社サンセール,,株式会社,神奈川県,鎌倉市,山ノ内１７９番地４,,14,204,2470062,,,,,,,2024-02-19,1,,,,,サンセール,0
572,3021001081487,新規,0,2024-02-19,2024-02-19,株式会社ユニオンリンク,,株式会社,神奈川県,小田原市,蓮正寺５４０番地の６７,00133761,14,206,2500865,,,,,,,2024-02-19,1,,,,,ユニオンリンク,0
573,3021001081495,新規,0,2024-02-19,2024-02-19,株式会社かみむら製菓,,株式会社,神奈川県,足柄下郡湯河原町,土肥２丁目１１番地の７,,14,384,2590303,,,,,,,2024-02-19,1,,,,,カミムラセイカ,0
578,3030003023653,新規,0,2024-02-19,2024-02-19,合同会社なちゅらふ,,合同会社,埼玉県,飯能市,大字久須美１６１番地３,,11,209,3570068,,,,,,,2024-02-19,1,,,,,ナチュラフ,0
579,3030003023661,新規,0,2024-02-19,2024-02-19,サインワークスあかり合同会社,,合同会社,埼玉県,川口市,大字新堀８００番地Ｂ棟,,11,203,3340061,,,,,,,2024-02-19,1,,,,,サインワークスアカリ,0
590,3040003024345,新規,0,2024-02-19,2024-02-19,合同会社風影堂,,合同会社,千葉県,君津市,上２２７,,12,225,2991107,,,,,,,2024-02-19,1,,,,,フウエイドウ,0
593,3050001054310,新規,0,2024-02-19,2024-02-19,株式会社Ｎ　Ｗｏｒｌｄ,,株式会社,茨城県,水戸市,笠原町１６０２番地の２,,08,201,3100852,,,,,,,2024-02-19,1,,,,,エヌワールド,0
597,3060003004915,新規,0,2024-02-19,2024-02-19,合同会社ＳＡＬＥＥＭ　ＴＲＡＤＩＮＧ,,合同会社,栃木県,小山市,大字横倉４８６－６,,09,208,3230813,,,,,,,2024-02-19,1,,,,,サリームトレーディング,0
601,3080101024540,新規,0,2024-02-19,2024-02-19,株式会社ＰＲＳ熱海,,株式会社,静岡県,熱海市,伊豆山１１７３番地の５３４,,22,205,4130002,,,,,,,2024-02-19,1,,,,,ピーアールエスアタミ,0
606,3100001037219,新規,0,2024-02-19,2024-02-19,Ｂｆｏｒｓ‐Ｏｎｅ株式会社,,株式会社,長野県,上伊那郡南箕輪村,６１１３番地７,,20,385,3994511,,,,,,,2024-02-19,1,,,,,ビフォースワン,0
607,3100003007401,新規,0,2024-02-19,2024-02-19,大月管業合同会社,,合同会社,長野県,松本市,渚２丁目８番３９号,,20,202,3900841,,,,,,,2024-02-19,1,,,,,オオツキカンギョウ,0
622,3120001262351,新規,0,2024-02-19,2024-02-19,株式会社ｍｉｋ　ｊａｐａｎ,,株式会社,大阪府,大阪市旭区,千林２丁目１１番２４号,,27,117,5350012,,,,,,,2024-02-19,1,,,,,ミックジャパン,0
623,3120001262392,新規,0,2024-02-19,2024-02-19,日本京泉華株式会社,,株式会社,大阪府,大阪市東淀川区,西淡路１丁目３番２６号,,27,114,5330031,,,,,,,2024-02-19,1,,,,,ニッポンキョウセンカ,0
624,3120001262418,新規,0,2024-02-19,2024-02-19,株式会社ほっとライフ,,株式会社,大阪府,大阪市中央区,南船場３丁目２番２２号おおきに南船場ビル２０５号,,27,128,5420081,,,,,,,2024-02-19,1,,,,,ホットライフ,0
625,3120001262434,新規,0,2024-02-19,2024-02-19,株式会社メイカーズ,,株式会社,大阪府,大阪市東淀川区,東中島１丁目３番１４号,,27,114,5330033,,,,,,,2024-02-19,1,,,,,メイカーズ,0
626,3120001262450,新規,0,2024-02-19,2024-02-19,株式会社Ｎパワー,,株式会社,大阪府,大阪市東成区,中道３丁目１７番９－６０４号,,27,115,5370025,,,,,,,2024-02-19,1,,,,,エヌパワー,0
630,3120003025954,新規,0,2024-02-19,2024-02-19,合同会社チーパピネス,,合同会社,大阪府,大阪市西淀川区,姫島１丁目９番２３号Ｃ－２０１,,27,113,5550033,,,,,,,2024-02-19,1,,,,,チーパピネス,0
631,3120003025962,新規,0,2024-02-19,2024-02-19,合同会社Ａｕｔｕｍｎ　Ｈｉｌｌｓ　Ｃｏｍｐａｎｙ,,合同会社,大阪府,門真市,野里町２０番２号,,27,223,5710079,,,,,,,2024-02-19,1,,,,,オータムヒルズカンパニー,0
636,3120101069077,新規,0,2024-02-19,2024-02-19,株式会社青木商事,,株式会社,大阪府,堺市西区,津久野町１丁１６－５－５０４,,27,144,5938322,,,,,,,2024-02-19,1,,,,,アオキショウジ,0
637,3120901048767,新規,0,2024-02-19,2024-02-19,株式会社Ｆｅｌｄ,,株式会社,大阪府,池田市,石橋１丁目５番１号,,27,204,5630032,,,,,,,2024-02-19,1,,,,,フェルド,0
638,3120903005048,新規,0,2024-02-19,2024-02-19,合同会社ＯＦＦＩＣＥ‐ＩＮＴＩ,,合同会社,大阪府,豊中市,中桜塚５丁目３番７－６０３号,,27,203,5610881,,,,,,,2024-02-19,1,,,,,オフィスインティ,0
645,3130001076404,新規,0,2024-02-19,2024-02-19,株式会社Ｏｒｔ,,株式会社,京都府,宇治市,宇治野神７９番地の７,,26,204,6110021,,,,,,,2024-02-19,1,,,,,オルト,0
649,3140001133352,新規,0,2024-02-19,2024-02-19,株式会社Ｔｉｇｅｒｓｉａ　Ｐａｒｔｎｅｒｓ,,株式会社,兵庫県,神戸市中央区,磯辺通１丁目１番１８号カサベラ国際プラザビル７０７,,28,110,6510084,,,,,,,2024-02-19,1,,,,,タイガジアパートナーズ,0
650,3140001133377,新規,0,2024-02-19,2024-02-19,株式会社藤本商店,,株式会社,兵庫県,たつの市,揖保川町養久９３番地３,,28,229,6711603,,,,,,,2024-02-19,1,,,,,フジモトショウテン,0
670,3180001160186,新規,0,2024-02-19,2024-02-19,株式会社ＩＳＭ,,株式会社,愛知県,江南市,布袋下山町北２９番地２７,,23,217,4838147,,,,,,,2024-02-19,1,,,,,アイエスエム,0
675,3180301038330,新規,0,2024-02-19,2024-02-19,株式会社ＮＡＲ’ｓ,,株式会社,愛知県,豊橋市,松葉町２丁目１１番地,,23,201,4400897,,,,,,,2024-02-19,1,,,,,ナーズ,0
683,3240001062797,新規,0,2024-02-19,2024-02-19,株式会社ＣＯＭＦＯＲＴ　ＮＯＶＡ,,株式会社,広島県,三原市,中之町７丁目１番１４号,,34,204,7230003,,,,,,,2024-02-19,1,,,,,コンフォートノヴァ,0
684,3240001062814,新規,0,2024-02-19,2024-02-19,株式会社ＦＬＥＸ,,株式会社,広島県,広島市西区,己斐上２丁目５１番１７号,,34,104,7330815,,,,,,,2024-02-19,1,,,,,フレックス,0
687,3240003006546,新規,0,2024-02-19,2024-02-19,合同会社中日興貿,,合同会社,広島県,広島市西区,楠木町１丁目９－１１－８０４,,34,104,7330002,,,,,,,2024-02-19,1,,,,,チュウニチコウボウ,0
690,3270005005576,新規,0,2024-02-19,2024-02-19,一般社団法人ヘルスケアみらい米子,,その他の設立登記法人,鳥取県,米子市,紺屋町３１番地５,,31,202,6830062,,,,,,,2024-02-19,1,,,,,ヘルスケアミライヨナゴ,0
699,3290001104719,新規,0,2024-02-19,2024-02-19,株式会社アーサ小林,,株式会社,福岡県,福岡市博多区,須崎町５番１０号,,40,132,8120028,,,,,,,2024-02-19,1,,,,,アーサコバヤシ,0
700,3290001104727,新規,0,2024-02-19,2024-02-19,株式会社エヌフーズ,,株式会社,福岡県,八女市,稲富１７５番地１,,40,210,8340047,,,,,,,2024-02-19,1,,,,,エヌフーズ,0
701,3290001104735,新規,0,2024-02-19,2024-02-19,株式会社ＯＲＡＲＥ,,株式会社,福岡県,福岡市中央区,草香江１丁目４番３４－４０１号,,40,133,8100045,,,,,,,2024-02-19,1,,,,,オラレ,0
702,3290001104743,新規,0,2024-02-19,2024-02-19,株式会社ＩＫＥＤＡ　ＧＬＯＢＡＬ　ＳＵＰＰＯＲＴ,,株式会社,福岡県,福岡市博多区,博多駅南３丁目５番３５－１０５号,,40,132,8120016,,,,,,,2024-02-19,1,,,,,イケダグローバルサポート,0
708,3290801018481,新規,0,2024-02-19,2024-02-19,みなと興産株式会社,,株式会社,福岡県,北九州市小倉北区,鍛冶町２丁目２番１８号,,40,106,8020004,,,,,,,2024-02-19,1,,,,,ミナトコウサン,0
709,3300003002076,新規,0,2024-02-19,2024-02-19,大和ロジスティクス合同会社,,合同会社,佐賀県,多久市,南多久町大字下多久４９８９番地２,,41,204,8460024,,,,,,,2024-02-19,1,,,,,ヤマトロジスティクス,0
712,3320001020301,新規,0,2024-02-19,2024-02-19,ＯＮＳＯＨ株式会社,,株式会社,大分県,別府市,大字鶴見１３５６番地の６,,44,202,8740840,,,,,,,2024-02-19,1,,,,,,0
714,3330003010217,新規,0,2024-02-19,2024-02-19,合同会社ＬＩＮＯ,,合同会社,熊本県,熊本市東区,新南部２丁目６番７６号,,43,102,8618028,,,,,,,2024-02-19,1,,,,,リノ,0
715,3340003004374,新規,0,2024-02-19,2024-02-19,合同会社キャリアデザインＯｆｆｉｃｅ　ＳｅｒｅｎｏＭ,,合同会社,鹿児島県,鹿児島市,易居町１－２鹿児島市役所みなと大通り別館６階３号,,46,201,8920815,,,,,,,2024-02-19,1,,,,,キャリアデザインオフィスセレーノエム,0
724,3380001034312,新規,0,2024-02-19,2024-02-19,株式会社エムケーキカク,,株式会社,福島県,郡山市,富田町字大堰７４番地,,07,203,9638041,,,,,,,2024-02-19,1,,,,,エムケーキカク,0
738,3450001014224,新規,0,2024-02-19,2024-02-19,株式会社輝ろろ,,株式会社,北海道,旭川市,二条通６丁目６８番地２,,01,204,0700032,,,,,,,2024-02-19,1,,,,,キロロ,0
744,3700150124038,新規,0,2024-02-19,2024-02-19,ＳｈｅｎＺｈｅｎ　ＡＫｅＳｉＷｅｉ　Ｔｅｃｈｎｏｌｏｇｙ　Ｃｏ．，Ｌｔｄ．,,外国会社等,,,,,,,,Ｌｏｎｇｇａｎｇｑｕ，Ｂａｎｔｉａｎｊｉｅｄａｏ，ＧａｎｇｔｏｕｓｈｅｑｕＴｉａｎａｎｙｕｎｇｕｃｈａｎｙｅｙｕａｎ，ｅｒｑｉ（０２－０７ｄｉｋｕａｉ），６ｄｏｎｇ，１７０１　ＳｈｅｎＺｈｅｎ　ＧｕａｎｇＤｏｎｇ　ＣＮ,,,,,,2024-02-19,1,,,,,シンセンアカシウイテクノロジーカンパニーリミテッド,0
745,3700150124046,新規,0,2024-02-19,2024-02-19,ＤＯＮＧＧＵＡＮ　ＣＨＵＡＮＧＹＩ　ＡＤＨＥＳＩＶＥ　ＰＲＯＤＵＣＴＳ　ＣＯ．，ＬＴＤ,,外国会社等,,,,,,,,ＡＲＥＡ　５Ａ，ＮＯ．２３２，ＱＩＮＧＦＥＮＧ　ＲＯＡＤ，ＸＩＡＮＩ　ＶＩＬＬＡＧＥ，ＱＩＮＧＸＩ　ＴＯＷＮ　ＤＯＮＧＧＵＡＮ　ＧＵＡＮＧＤＯＮＧ　ＣＮ,,,,,,2024-02-19,1,,,,,ドングゥアンツァンイアドゥヒーシブプロダクツカンパニーリミテッド,0
746,3700150124062,新規,0,2024-02-19,2024-02-19,在日ガスプロム代表部,,外国会社等,東京都,港区,港南２丁目１７－１京王品川ビル２Ｆ,,13,103,1080075,２／３　Ｌａｋｈｔｉｎｓｋｙ　Ａｖｅｎｕｅ，Ｂｌｄｇ．１，Ｓｔ．Ｐｅｔｅｒｓｂｕｒｇ，１９７２２９，Ｒｕｓｓｉａｎ　Ｆｅｄｅｒａｔｉｏｎ,,,,,,2024-02-19,1,,,,,ザイニチガスプロムダイヒヨウブ,0
752,4010001242306,新規,0,2024-02-19,2024-02-19,株式会社ニシエヒガシエ,,株式会社,東京都,中央区,銀座２丁目８－１８グランベル銀座６０２,,13,102,1040061,,,,,,,2024-02-19,1,,,,,ニシエヒガシエ,0
753,4010001242314,新規,0,2024-02-19,2024-02-19,株式会社ソメイ,,株式会社,東京都,千代田区,神田駿河台３丁目３番地１０,,13,101,1010062,,,,,,,2024-02-19,1,,,,,ソメイ,0
754,4010001242322,新規,0,2024-02-19,2024-02-19,西村商事株式会社,,株式会社,東京都,文京区,本郷５丁目３２番２号,,13,105,1130033,,,,,,,2024-02-19,1,,,,,ニシムラショウジ,0
755,4010001242355,新規,0,2024-02-19,2024-02-19,株式会社ＭＮサポート,,株式会社,東京都,千代田区,神田神保町１丁目５０浦野ビル７Ｆ,,13,101,1010051,,,,,,,2024-02-19,1,,,,,エムエヌサポート,0
756,4010001242363,新規,0,2024-02-19,2024-02-19,株式会社ＶＡ,,株式会社,東京都,千代田区,神田三崎町２丁目４番１号ＴＵＧ－Ｉビル税理士法人ベリーベスト内,,13,101,1010061,,,,,,,2024-02-19,1,,,,,ブイエー,0
757,4010001242413,新規,0,2024-02-19,2024-02-19,株式会社十五番,,株式会社,東京都,中央区,日本橋室町１丁目１１番１２号日本橋水野ビル７階,,13,102,1030022,,,,,,,2024-02-19,1,,,,,ジュウゴバン,0
758,4010003042935,新規,0,2024-02-19,2024-02-19,合同会社ＮＵ‐１０,,合同会社,東京都,中央区,八丁堀４丁目２番１０号ＡＯＪ税理士法人内,,13,102,1040032,,,,,,,2024-02-19,1,,,,,エヌユーテン,0
759,4010003042984,新規,0,2024-02-19,2024-02-19,合同会社ＣＡＤＬ,,合同会社,東京都,中央区,銀座７丁目３番地７ブランエスパ銀座１１階Ｆ区画,,13,102,1040061,,,,,,,2024-02-19,1,,,,,カドル,0
760,4010101016015,新規,0,2024-02-19,2024-02-19,オネスティワン株式会社,,株式会社,東京都,八王子市,元横山町１丁目１３番５号,,13,201,1920063,,,,,,,2024-02-19,1,,,,,オネスティワン,0
764,4010401180436,新規,0,2024-02-19,2024-02-19,ファンライト株式会社,,株式会社,東京都,港区,白金台３丁目１２番１０号,,13,103,1080071,,,,,,,2024-02-19,1,,,,,ファンライト,0
765,4010401180469,新規,0,2024-02-19,2024-02-19,ＬＳ‐ＳＨＩＰ第５６号株式会社,,株式会社,東京都,港区,六本木１丁目６番１号,,13,103,1060032,,,,,,,2024-02-19,1,,,,,エルエスシップダイゴジュウロクゴウ,0
767,4010403031975,新規,0,2024-02-19,2024-02-19,合同会社ＮＩ,,合同会社,東京都,港区,浜松町２丁目２番１５号浜松町ダイヤビル２Ｆ,,13,103,1050013,,,,,,,2024-02-19,1,,,,,エヌアイ,0
774,4010901054734,新規,0,2024-02-19,2024-02-19,株式会社ビカミング,,株式会社,東京都,世田谷区,喜多見８丁目１０－９ＰＩＡＲＯＹＡＬ３０６号,,13,112,1570067,,,,,,,2024-02-19,1,,,,,ビカミング,0
779,4011001160084,新規,0,2024-02-19,2024-02-19,株式会社ＴＦＯ,,株式会社,東京都,渋谷区,千駄ヶ谷３丁目１２番１号,,13,113,1510051,,,,,,,2024-02-19,1,,,,,ティーエフオー,0
780,4011005010368,新規,0,2024-02-19,2024-02-19,一般財団法人ｔｅｔｏｔｅ,,その他の設立登記法人,東京都,渋谷区,恵比寿西１丁目２１番３－９０１号,,13,113,1500021,,,,,,,2024-02-19,1,,,,,テトテ,0
786,4011101106235,新規,0,2024-02-19,2024-02-19,ＭＥＤＩｔａｂｉ株式会社,,株式会社,東京都,新宿区,早稲田鶴巻町５２３番地パレステュディオ早稲田５０１,,13,104,1620041,,,,,,,2024-02-19,1,,,,,メディタビ,0
787,4011103014106,新規,0,2024-02-19,2024-02-19,西早稲田不動産合同会社,,合同会社,東京都,新宿区,大久保３丁目１番３－１００１号,,13,104,1690072,,,,,,,2024-02-19,1,,,,,ニシワセダフドウサン,0
788,4011105010945,新規,0,2024-02-19,2024-02-19,沖縄糸満ホールディングス一般社団法人,,その他の設立登記法人,東京都,新宿区,四谷２丁目９番地１５東京ユナイテッド綜合事務所内,,13,104,1600004,,,,,,,2024-02-19,1,,,,,オキナワイトマンホールディングス,0
791,4011703003747,新規,0,2024-02-19,2024-02-19,エイシステムコンサルティング合同会社,,合同会社,東京都,江戸川区,上篠崎２丁目１６番１１号,,13,123,1330054,,,,,,,2024-02-19,1,,,,,エイシステムコンサルティング,0
792,4011801043810,新規,0,2024-02-19,2024-02-19,通辰株式会社,,株式会社,東京都,足立区,西保木間１丁目１９番１８－４０３号,,13,121,1210812,,,,,,,2024-02-19,1,,,,,ツウシン,0
793,4011801043819,新規,0,2024-02-19,2024-02-19,株式会社ＲＯＥＮ,,株式会社,東京都,足立区,舎人２丁目１２番１８－１０１号,,13,121,1210831,,,,,,,2024-02-19,1,,,,,ロエン,0
804,4020001155787,新規,0,2024-02-19,2024-02-19,カンパイホールディングス株式会社,,株式会社,神奈川県,横浜市神奈川区,三枚町２４８番地２７,,14,102,2210862,,,,,,,2024-02-19,1,,,,,カンパイホールディングス,0
805,4020001155804,新規,0,2024-02-19,2024-02-19,株式会社Ｍｉｃｏｒａｓ,,株式会社,神奈川県,横浜市港北区,新横浜３丁目２０番地５スリーワンビル８０１,,14,109,2220033,,,,,,,2024-02-19,1,,,,,ミコラス,0
806,4020001155820,新規,0,2024-02-19,2024-02-19,株式会社Ｏ．Ｎ．ＩＮＴＥＲＩＯＲ,,株式会社,神奈川県,横浜市中区,不老町３丁目１４番地４フェニックス横濱関内ＢａｙＭａｒｋｓ６０３,,14,104,2310032,,,,,,,2024-02-19,1,,,,,オーエヌインテリア,0
807,4020001155837,新規,0,2024-02-19,2024-02-19,株式会社Ｈ＆Ｓ,,株式会社,神奈川県,横浜市港北区,篠原町２８５９番地６ソフィア新横浜１０１,,14,109,2220026,,,,,,,2024-02-19,1,,,,,エイチアンドエス,0
808,4020001155861,新規,0,2024-02-19,2024-02-19,株式会社フレンドネクスト,,株式会社,神奈川県,横浜市磯子区,磯子３丁目１１番２０号,,14,107,2350016,,,,,,,2024-02-19,1,,,,,フレンドネクスト,0
809,4020001155894,新規,0,2024-02-19,2024-02-19,株式会社ＭＩＧＨＴＹ　ＳＥＣＵＲＩＴＹ,,株式会社,神奈川県,川崎市川崎区,下並木６２,,14,131,2100025,,,,,,,2024-02-19,1,,,,,マイティーセキュリティ,0
811,4020003025567,新規,0,2024-02-19,2024-02-19,ラークマン＆アソシエイツ合同会社,,合同会社,神奈川県,横浜市神奈川区,菅田町２６１４番地１３,,14,102,2210864,,,,,,,2024-02-19,1,,,,,ラークマンアンドアソシエイツ,0
821,4030001158756,新規,0,2024-02-19,2024-02-19,Ｌｏｏｒｉｃｈ株式会社,,株式会社,埼玉県,志木市,幸町４丁目１０－７１,,11,228,3530005,,,,,,,2024-02-19,1,,,,,ルーリッチ,0
822,4030001158764,新規,0,2024-02-19,2024-02-19,株式会社ますいいリフォーム,,株式会社,埼玉県,川口市,中青木３丁目２番５号,,11,203,3320032,,,,,,,2024-02-19,1,,,,,マスイイリフォーム,0
824,4030003023628,新規,0,2024-02-19,2024-02-19,合同会社ＳＥＫＩＴＯ,,合同会社,埼玉県,蕨市,中央２丁目１３番１４号第２プラトー２０１号,,11,223,3350004,,,,,,,2024-02-19,1,,,,,セキトー,0
825,4030003023652,新規,0,2024-02-19,2024-02-19,合同会社バックス,,合同会社,埼玉県,川口市,桜町３丁目２１番３３号,,11,203,3340001,,,,,,,2024-02-19,1,,,,,バックス,0
826,4030003023660,新規,0,2024-02-19,2024-02-19,クリムベル合同会社,,合同会社,埼玉県,さいたま市大宮区,上小町６２４番地１２,,11,103,3300855,,,,,,,2024-02-19,1,,,,,クリムベル,0
832,4040001132256,新規,0,2024-02-19,2024-02-19,株式会社オフィスＴＭＯ,,株式会社,千葉県,千葉市美浜区,中瀬１丁目３番地,,12,106,2610023,,,,,,,2024-02-19,1,,,,,オフィスティーモ,0
833,4040001132297,新規,0,2024-02-19,2024-02-19,株式会社はんな,,株式会社,千葉県,市原市,五井西７丁目６番地１０,,12,219,2900038,,,,,,,2024-02-19,1,,,,,ハンナ,0
836,4060001036843,新規,0,2024-02-19,2024-02-19,株式会社林商式,,株式会社,栃木県,小山市,大字千駄塚３６３番地１,00133768,09,208,3290202,,,,,,,2024-02-19,1,,,,,リンショウシキ,0
850,4120001262301,新規,0,2024-02-19,2024-02-19,長江文化株式会社,,株式会社,大阪府,大阪市東住吉区,今林２丁目１０番１４－２０１号,,27,121,5460001,,,,,,,2024-02-19,1,,,,,チョウコウブンカ,0
851,4120001262359,新規,0,2024-02-19,2024-02-19,ｃｌｏｕｄｍｏｔｉｖ株式会社,,株式会社,大阪府,大阪市浪速区,下寺２丁目４番１２号エスケイビル３０１号室,,27,111,5560001,,,,,,,2024-02-19,1,,,,,クラウドモーティブ,0
852,4120001262375,新規,0,2024-02-19,2024-02-19,愛丸ワークス株式会社,,株式会社,大阪府,大阪市西区,新町２丁目１７番２１号,,27,106,5500013,,,,,,,2024-02-19,1,,,,,アイマルワークス,0
853,4120001262409,新規,0,2024-02-19,2024-02-19,株式会社Ｄｏｉｓ,,株式会社,大阪府,大阪市北区,西天満４丁目５番２３号,,27,127,5300047,,,,,,,2024-02-19,1,,,,,ドイス,0
854,4120001262425,新規,0,2024-02-19,2024-02-19,株式会社Ｇ‐ＡＬＴ,,株式会社,大阪府,大阪市淀川区,宮原１丁目１番１号,,27,123,5320003,,,,,,,2024-02-19,1,,,,,ジーオルト,0
856,4120003025945,新規,0,2024-02-19,2024-02-19,合同会社ジャイロウェッジ,,合同会社,大阪府,大阪市北区,梅田１丁目１－３大阪駅前第３ビル２９階１－１－１号室,,27,127,5300001,,,,,,,2024-02-19,1,,,,,ジャイロウェッジ,0
857,4120003025953,新規,0,2024-02-19,2024-02-19,ＧＣ　ＧＲＯＵＰ合同会社,,合同会社,大阪府,大阪市此花区,西九条１丁目７番１８号,,27,104,5540012,,,,,,,2024-02-19,1,,,,,ジーシーグループ,0
858,4120101069076,新規,0,2024-02-19,2024-02-19,株式会社エヌフォロー,,株式会社,大阪府,岸和田市,土生町１３丁目１６番１７号,,27,202,5960825,,,,,,,2024-02-19,1,,,,,エヌフォロー,0
862,4122001037831,新規,0,2024-02-19,2024-02-19,株式会社加藤鉄工所,,株式会社,大阪府,東大阪市,御厨６丁目６番１８号,,27,227,5770032,,,,,,,2024-02-19,1,,,,,カトウテッコウショ,0
873,4140001133351,新規,0,2024-02-19,2024-02-19,正昊株式会社,,株式会社,兵庫県,神戸市中央区,磯上通８丁目１番２９号,,28,110,6510086,,,,,,,2024-02-19,1,,,,,セイコウ,0
888,4190003004587,新規,0,2024-02-19,2024-02-19,合同会社ｂａｓｅ三重,,合同会社,三重県,三重郡菰野町,大字福村２１番地３,,24,341,5101234,,,,,,,2024-02-19,1,,,,,ベースミエ,0
891,4210001019642,新規,0,2024-02-19,2024-02-19,株式会社オリナス,,株式会社,福井県,鯖江市,本町１丁目３番１９－３号１０１,,18,207,9160026,,,,,,,2024-02-19,1,,,,,オリナス,0
892,4220003003676,新規,0,2024-02-19,2024-02-19,Ｓｋｙ　ｍａｒｔ合同会社,,合同会社,石川県,小松市,蓑輪町ニ１番地７,,17,203,9230305,,,,,,,2024-02-19,1,,,,,スカイマート,0
896,4240001062813,新規,0,2024-02-19,2024-02-19,株式会社ＬＧ,,株式会社,広島県,広島市佐伯区,三筋３丁目６番９号,,34,108,7315144,,,,,,,2024-02-19,1,,,,,エルジー,0
905,4290001104726,新規,0,2024-02-19,2024-02-19,株式会社ＨＫホールディングス,,株式会社,福岡県,久留米市,長門石３丁目４番２１号,,40,203,8300027,,,,,,,2024-02-19,1,,,,,エイチケーホールディングス,0
906,4290001104742,新規,0,2024-02-19,2024-02-19,ＣＨＡＮＤＲＡ　ＳＵＲＹＡ株式会社,,株式会社,福岡県,福岡市中央区,那の川２丁目７番２－７０２号,,40,133,8100015,,,,,,,2024-02-19,1,,,,,チャンドラスルヤ,0
911,4290003014980,新規,0,2024-02-19,2024-02-19,合同会社ライフステージ２１,,合同会社,福岡県,福岡市博多区,博多駅前１丁目１５番２０号ＮＭＦ博多駅前ビル２階,,40,132,8120011,,,,,,,2024-02-19,1,,,,,ライフステージトゥエンティーワン,0
914,4290801018539,新規,0,2024-02-19,2024-02-19,東京商事株式会社,,株式会社,福岡県,北九州市小倉北区,古船場町７番８号,,40,106,8020082,,,,,,,2024-02-19,1,,,,,トウキョウショウジ,0
917,4320001020300,新規,0,2024-02-19,2024-02-19,株式会社ｂｒｉｄｇｅ　ｅｓｔａｔｅ,,株式会社,大分県,大分市,明野東２丁目３４番１０号,,44,201,8700161,,,,,,,2024-02-19,1,,,,,ブリッジエステート,0
919,4330001031767,新規,0,2024-02-19,2024-02-19,株式会社ＫＪバイオ,,株式会社,熊本県,天草市,五和町手野２丁目２１１１番地１,,43,215,8632424,,,,,,,2024-02-19,1,,,,,ケイジェイバイオ,0
922,4350003004570,新規,0,2024-02-19,2024-02-19,合同会社エネルギア宮崎南サービス,,合同会社,宮崎県,宮崎市,大字田吉１１５番地７号,,45,201,8800911,,,,,,,2024-02-19,1,,,,,エネルギアミヤザキミナミサービス,0
923,4360001033190,新規,0,2024-02-19,2024-02-19,株式会社沖縄特殊清掃遺品整理社,,株式会社,沖縄県,沖縄市,字登川２９９１番地１,,47,211,9042142,,,,,,,2024-02-19,1,,,,,オキナワトクシュセイソウイヒンセイリシャ,0
931,4400001016562,新規,0,2024-02-19,2024-02-19,株式会社Ｂｉｓ,,株式会社,岩手県,紫波郡矢巾町,大字白沢第３地割３５番地１４１,,03,322,0283616,,,,,,,2024-02-19,1,,,,,ビス,0
938,4440003001575,新規,0,2024-02-19,2024-02-19,合同会社Ｓｕｎｓ　ｕｐ,,合同会社,北海道,函館市,本通１丁目３１番６号,,01,202,0410851,,,,,,,2024-02-19,1,,,,,サンズアップ,0
943,4700150124029,新規,0,2024-02-19,2024-02-19,ｓｈｅｎｚｈｅｎｓｈｉｋｅｈｏｎｇｓｈｉｋｅｊｉ　ｙｏｕｘｉａｎｇｏｎｇｓｉ,,外国会社等,,,,,,,,ｓｈｅｎｚｈｅｎｓｈｉｂａｏａｎｑｕｓｈｉｙａｎｊｉｅｄａｏｔｉａｎｘｉｎｌｕｓｈａｎｇｗｕｋｅｎｇｗｅｉｙｕａｎｌｉｎｇｏｎｇｙｅｑｕｑｉａｏｔｏｎｇｇｏｎｇｙｅｙｕａｎｃｈａｎｇｆａｎｇＢｄｏｎｇ５ｌｏｕｘｉｍｉａｎ,,,,,,2024-02-19,1,,,,,シンセンシカホンシカギユウゲンコウシ,0
944,4700150124037,新規,0,2024-02-19,2024-02-19,ＬＵＯＹＡＮＧ　ＱＩＡＮＹＩ　ＭＡＯＹＩＹＯＵＸＩＡＮＧＯＮＧＳＩ,,外国会社等,,,,,,,,Ｈｅｎａｎｓｈｅｎｇ　ｌｕｏｙａｎｇｓｈｉ　ｌｕｏｌｏｎｇｑｕｙｉｎｇｃａｉｌｕｙｕｌｏｎｇｘｉｎｇｊｉｅｊｉａｏｃｈａｋｏｕｊｉａｎｙｅｇａｏｅｒｆｕｈｕａｙｕａｎ３１－１－２３０１ｓｈｉ,,,,,,2024-02-19,1,,,,,ロウヤンセンイボウエキユウゲンコウシ,0
945,4700150124045,新規,0,2024-02-19,2024-02-19,ｓｈｅｎ　ｚｈｅｎ　ｓｈｉ　ｐｉｎｇ　ｇｕｏ　ｆｅｎｇ　ｋｅ　ｊｉ　ｙｏｕ　ｘｉａｎ　ｇｏｎｇ　ｓｉ,,外国会社等,,,,,,,,５０１１，Ｃｈｕａｎｇ　Ｘｉｎｇ　Ｄａ　Ｂｕｓｉｎｅｓｓ　Ｃｅｎｔｅｒ，Ｎｏ．３８，Ｌｉｕｘｉａｎ　３ｒｄ　Ｒｏａｄ，Ｘｉｎｇｄｏｎｇ　Ｃｏｍｍｕｎｉｔｙ　Ｄｉｓｔｒｉｃｔ　７２，Ｘｉｎ’ａｎ　Ｓｔｒｅｅｔ，Ｂａｏ’ａｎ　Ｄｉｓｔｒｉｃｔ，Ｓｈｅｎｚｈｅｎ，Ｃｈｉｎａ．,,,,,,2024-02-19,1,,,,,シンセンシピンゴオフェンカギユウゲンコウシ,0
946,4700150124053,新規,0,2024-02-19,2024-02-19,ＤＲＥＡＭ　ＶＩＳＵＡＬＳ　ＰＶＴ　ＬＴＤ,,外国会社等,千葉県,東金市,二又３４４番地オフィス４,,12,213,2830004,スリランカ民主社会主義共和国、キャンディ、カトゥガストタ、ガラゲダラロード、１２４／２７／Ａ／２／１,,,,,,2024-02-19,1,,,,,ドリームビジユアルズプライベートリミテツド,0
947,4700150124061,新規,0,2024-02-19,2024-02-19,Ｂｅａｎｓｔａｌｋ　Ｉｎｖｅｓｔｍｅｎｔ　Ｃｏｎｓｕｌｔａｎｔｓ　Ｐｒｉｖａｔｅ　Ｌｉｍｉｔｅｄ,,外国会社等,,,,,,,,ＳＹ　Ｎｏ．３０５／Ｐ，３０６／Ｐ，Ｖ　４０，Ｋｅｅｒｔｈｉ　Ｗｅｓｔｗｉｎｄｓ，Ｍａｎｃｈｉｒｅｖｕｌａ，Ｎａｒｓｉｎｇｉ，Ｇａｎｄｉｐｅｔ，Ｈｙｄｅｒａｂａｄ，Ｔｅｌａｎｇａｎａ　５０００７５,,,,,,2024-02-19,1,,,,,ビーンスタークインベストメントコンサルタンツプライベートリミテツド,0
952,5010001242305,新規,0,2024-02-19,2024-02-19,株式会社アープ,,株式会社,東京都,文京区,白山１丁目２５番１５－１０２号,,13,105,1130001,,,,,,,2024-02-19,1,,,,,アーブ,0
953,5010001242354,新規,0,2024-02-19,2024-02-19,株式会社ＡＳＫサポート,,株式会社,東京都,千代田区,神田神保町１丁目５０浦野ビル７Ｆ,,13,101,1010051,,,,,,,2024-02-19,1,,,,,アスカサポート,0
954,5010001242420,新規,0,2024-02-19,2024-02-19,株式会社Ｇｍｉｙａ,,株式会社,東京都,千代田区,永田町２丁目１２番８号,,13,101,1000014,,,,,,,2024-02-19,1,,,,,ジーミヤ,0
959,5010003042959,新規,0,2024-02-19,2024-02-19,ＴＣ１２合同会社,,合同会社,東京都,中央区,八丁堀４丁目２番１０号ＡＯＪ税理士法人内,,13,102,1040032,,,,,,,2024-02-19,1,,,,,ティーシートゥエルブ,0
960,5010003042983,新規,0,2024-02-19,2024-02-19,合同会社ケーアンドケー,,合同会社,東京都,千代田区,神田和泉町１番地６－１６ヤマトビル４０５,,13,101,1010024,,,,,,,2024-02-19,1,,,,,ケーアンドケー,0
962,5010101016014,新規,0,2024-02-19,2024-02-19,株式会社ＩＮＯ,,株式会社,東京都,八王子市,犬目町１０７２番地８,,13,201,1930802,,,,,,,2024-02-19,1,,,,,イノ,0
968,5010401180419,新規,0,2024-02-19,2024-02-19,＿園不動産株式会社,00133766,株式会社,東京都,港区,芝浦３丁目２番１６号,,13,103,1080023,,,,,,,2024-02-19,1,,,,,テイエンフドウサン,0
969,5010401180427,新規,0,2024-02-19,2024-02-19,シスクラウドジャパン株式会社,,株式会社,東京都,港区,西新橋１丁目１番１号日比谷ＦＯＲＴＴＯＷＥＲ１０階,,13,103,1050003,,,,,,,2024-02-19,1,,,,,シスクラウドジャパン,0
970,5010401180435,新規,0,2024-02-19,2024-02-19,ＫＡＬＰＡ　ＪＡＰＡＮ株式会社,,株式会社,東京都,港区,南青山２丁目２番１５号ウィン青山９４２,,13,103,1070062,,,,,,,2024-02-19,1,,,,,カルパジャパン,0
971,5010401180451,新規,0,2024-02-19,2024-02-19,株式会社西尾商事,,株式会社,東京都,港区,海岸１丁目６－１－２７０５,,13,103,1050022,,,,,,,2024-02-19,1,,,,,ニシオショウジ,0
972,5010401180468,新規,0,2024-02-19,2024-02-19,ＬＳ‐ＳＨＩＰ第５７号株式会社,,株式会社,東京都,港区,六本木１丁目６番１号,,13,103,1060032,,,,,,,2024-02-19,1,,,,,エルエスシップダイゴジュウナナゴウ,0
973,5010403031958,新規,0,2024-02-19,2024-02-19,ＡＰ　Ｓｙｍｐｈｏｎｙ　Ｐｌｕｓ合同会社,,合同会社,東京都,港区,虎ノ門４丁目１番１７号神谷町プライムプレイス８階アリサ・パートナーズ・ジャパン株式会社内,,13,103,1050001,,,,,,,2024-02-19,1,,,,,エーピーシンフォニープラス,0
974,5010403031974,新規,0,2024-02-19,2024-02-19,Ｓｐｒｉｎｇｄｅｌ　Ｔｅｃｈｎｏｌｏｇｙ　Ｊａｐａｎ合同会社,,合同会社,東京都,港区,元麻布３丁目１番６号,,13,103,1060046,,,,,,,2024-02-19,1,,,,,スプリングデルテクノロジージャパン,0
975,5010403031982,新規,0,2024-02-19,2024-02-19,にぎやか合同会社,,合同会社,東京都,港区,北青山１丁目３番１号アールキューブ青山３階,,13,103,1070061,,,,,,,2024-02-19,1,,,,,ニギヤカ,0
976,5010403031990,新規,0,2024-02-19,2024-02-19,合同会社ＭＡＧ,,合同会社,東京都,港区,南麻布２丁目７－３０リバーサイド麻布４０１,,13,103,1060047,,,,,,,2024-02-19,1,,,,,エムエージー,0
977,5010403031999,新規,0,2024-02-19,2024-02-19,ＬＳ‐ＵＡＬ第１号合同会社,,合同会社,東京都,港区,六本木１丁目６番１号,,13,103,1060032,,,,,,,2024-02-19,1,,,,,エルエスユーエーエルダイイチゴウ,0
981,5010601064685,新規,0,2024-02-19,2024-02-19,金悦恵株式会社,,株式会社,東京都,江東区,豊洲５丁目１－１３－４３０１,,13,108,1350061,,,,,,,2024-02-19,1,,,,,キンエツエ,0
986,5010703007055,新規,0,2024-02-19,2024-02-19,ＡＨＤ合同会社,,合同会社,東京都,品川区,上大崎２丁目１１番７号,,13,109,1410021,,,,,,,2024-02-19,1,,,,,エーエイチディー,0
987,5010705003589,新規,0,2024-02-19,2024-02-19,特定非営利活動法人日本の文化と伝統を持続可能に守る会,,その他の設立登記法人,東京都,品川区,上大崎１丁目１１番１７号プラムアーク白金台３０３号室,,13,109,1410021,,,,,,,2024-02-19,1,,,,,ニホンノブンカトデントウヲジゾクカノウニマモルカイ,0
991,5010901054725,新規,0,2024-02-19,2024-02-19,ＥＨＬＥ株式会社,,株式会社,東京都,世田谷区,上馬４丁目７番７号,,13,112,1540011,,,,,,,2024-02-19,1,,,,,エール,0
996,5011001160067,新規,0,2024-02-19,2024-02-19,株式会社ＳＹＡＫＵＴＡ,,株式会社,東京都,渋谷区,西原３丁目２５番５号ファイン１０１,,13,113,1510066,,,,,,,2024-02-19,1,,,,,シャクタ,0
997,5011001160083,新規,0,2024-02-19,2024-02-19,株式会社ＴＡＲＹＭＡ,,株式会社,東京都,渋谷区,渋谷２丁目１９番１５号,,13,113,1500002,,,,,,,2024-02-19,1,,,,,タリーマ,0
998,5011001160109,新規,0,2024-02-19,2024-02-19,株式会社Ｋｎｏｗｓ,,株式会社,東京都,渋谷区,恵比寿西２丁目８番４,,13,113,1500021,,,,,,,2024-02-19,1,,,,,ノウズ,0
999,5011001160133,新規,0,2024-02-19,2024-02-19,株式会社ＶＩＲＴＨ,,株式会社,東京都,目黒区,下目黒１丁目８番１号,,13,110,1530064,,,,,,,2024-02-19,1,,,,,ヴァース,0
1008,5011101106242,新規,0,2024-02-19,2024-02-19,ＩＳＥＩＳＯＵ株式会社,,株式会社,東京都,新宿区,新宿２丁目１２番１３号新宿アントレサロンビル２階,,13,104,1600022,,,,,,,2024-02-19,1,,,,,アイセイソウ,0
1010,5011103014113,新規,0,2024-02-19,2024-02-19,ＩＲＥＳ　Ｅａｓｔ　Ｏｎｅ合同会社,,合同会社,東京都,新宿区,若宮町１７番地,,13,104,1620827,,,,,,,2024-02-19,1,,,,,アイリスイーストワン,0
1011,5011105010944,新規,0,2024-02-19,2024-02-19,沖縄糸満プロパティーズ特定目的会社,,その他の設立登記法人,東京都,新宿区,四谷２丁目９番地１５東京ユナイテッド綜合事務所内,,13,104,1600004,,,,,,,2024-02-19,1,,,,,オキナワイトマンプロパティーズ,0
1016,5011301029400,新規,0,2024-02-19,2024-02-19,通禹国際株式会社,,株式会社,東京都,杉並区,高円寺南３丁目３４－１４ＴＵ,,13,115,1660003,,,,,,,2024-02-19,1,,,,,トンウコクサイ,0
1017,5011301029417,新規,0,2024-02-19,2024-02-19,株式会社ＫＲＳ,,株式会社,東京都,杉並区,高円寺北２丁目２９－１５匯金・高円寺ビル６０３,,13,115,1660002,,,,,,,2024-02-19,1,,,,,ケーアールエス,0
1021,5011303005060,新規,0,2024-02-19,2024-02-19,合同会社ＡＭＡＮＥＣＥＲ,,合同会社,東京都,杉並区,阿佐谷北３丁目３１番２１号Ｔ＆Ｍライフサポート社宅１,,13,115,1660001,,,,,,,2024-02-19,1,,,,,アマネセール,0
1027,5011801043768,新規,0,2024-02-19,2024-02-19,幸運夢多株式会社,,株式会社,東京都,足立区,竹の塚１丁目１３－１３－２０５号室,,13,121,1210813,,,,,,,2024-02-19,1,,,,,コウウンムタ,0
1030,5012401041534,新規,0,2024-02-19,2024-02-19,株式会社Ｓｅｔｔｌｅｒｓ,,株式会社,東京都,調布市,調布ケ丘１丁目１４番地３３,,13,208,1820021,,,,,,,2024-02-19,1,,,,,セトラーズ,0
1031,5012401041542,新規,0,2024-02-19,2024-02-19,株式会社ＰＲＥＭＯ,,株式会社,東京都,狛江市,東和泉３丁目１４‐１パークハイム狛江１号棟１０７号,,13,219,2010014,,,,,,,2024-02-19,1,,,,,プレモ,0
1035,5013101009350,新規,0,2024-02-19,2024-02-19,株式会社ＫａｌｅｉｄｏｓｃｏｐＹ,,株式会社,東京都,羽村市,栄町２丁目７番地６シャトー秀栄２０１,,13,227,2050002,,,,,,,2024-02-19,1,,,,,,0
1037,5013301052035,新規,0,2024-02-19,2024-02-19,株式会社グルーヴ・ディレクション,,株式会社,東京都,豊島区,西池袋３丁目２３番３号ＲＭビル７Ｆ,,13,116,1710021,,,,,,,2024-02-19,1,,,,,グルーヴディレクション,0
1038,5013301052068,新規,0,2024-02-19,2024-02-19,日本拓馳株式会社,,株式会社,東京都,豊島区,南長崎３丁目２４番９号,,13,116,1710052,,,,,,,2024-02-19,1,,,,,ニホンタクチ,0
1039,5013301052084,新規,0,2024-02-19,2024-02-19,株式会社ＵＮＩＴＥＱＵＥ,,株式会社,東京都,豊島区,東池袋１丁目１７番１１号パークハイツ池袋１１０５号,,13,116,1700013,,,,,,,2024-02-19,1,,,,,ユナイテック,0
1049,5020001155811,新規,0,2024-02-19,2024-02-19,株式会社Ａｉｍｙ,,株式会社,神奈川県,川崎市中原区,小杉御殿町１丁目９７６吉田ハイム２Ｆ,,14,133,2110068,,,,,,,2024-02-19,1,,,,,エイミー,0
1050,5020001155836,新規,0,2024-02-19,2024-02-19,ネクスト・プロポジション株式会社,,株式会社,神奈川県,川崎市幸区,南幸町２丁目１５番地２－４０２,,14,132,2120016,,,,,,,2024-02-19,1,,,,,ネクストプロポジション,0
1051,5020001155844,新規,0,2024-02-19,2024-02-19,株式会社リオン,,株式会社,神奈川県,横浜市港南区,日限山１丁目４０番２０号,,14,111,2330015,,,,,,,2024-02-19,1,,,,,リオン,0
1052,5020001155860,新規,0,2024-02-19,2024-02-19,株式会社ＡＬＴＫＥＹ,,株式会社,神奈川県,横浜市南区,宮元町２丁目３７－３０１,,14,105,2320016,,,,,,,2024-02-19,1,,,,,オルトキー,0
1056,5020003025566,新規,0,2024-02-19,2024-02-19,合同会社ぱんだ,,合同会社,神奈川県,川崎市高津区,二子２丁目１７－２二子ビル４０３,,14,134,2130002,,,,,,,2024-02-19,1,,,,,パンダ,0
1063,5030001158656,新規,0,2024-02-19,2024-02-19,株式会社ＡＳＫ,,株式会社,埼玉県,さいたま市西区,三橋５丁目１５４５番地３,,11,101,3310052,,,,,,,2024-02-19,1,,,,,アスク,0
1064,5030001158747,新規,0,2024-02-19,2024-02-19,株式会社絆翔,,株式会社,埼玉県,春日部市,赤沼３５１番１,,11,214,3440015,,,,,,,2024-02-19,1,,,,,バンショウ,0
1068,5030003023643,新規,0,2024-02-19,2024-02-19,合同会社ＫＫ,,合同会社,埼玉県,戸田市,笹目５丁目６番地の９（雅２０３号室）,,11,224,3350034,,,,,,,2024-02-19,1,,,,,ケーケー,0
1069,5030003023651,新規,0,2024-02-19,2024-02-19,眞下物産合同会社,,合同会社,埼玉県,所沢市,中新井１丁目１３４番地の１９,,11,208,3590041,,,,,,,2024-02-19,1,,,,,マシモブッサン,0
1073,5040001132239,新規,0,2024-02-19,2024-02-19,株式会社木村美創,,株式会社,千葉県,佐倉市,城内町１番地２,,12,212,2850017,,,,,,,2024-02-19,1,,,,,キムラビソウ,0
1076,5050001054300,新規,0,2024-02-19,2024-02-19,株式会社常陸架設,,株式会社,茨城県,牛久市,南６丁目６番１０９号ＤＪ南１０１号,,08,219,3001222,,,,,,,2024-02-19,1,,,,,ヒタチカセツ,0
1077,5050001054309,新規,0,2024-02-19,2024-02-19,株式会社八仙測量,,株式会社,茨城県,取手市,ゆめみ野５丁目１１番地１３,,08,217,3020039,,,,,,,2024-02-19,1,,,,,ハッセンソクリョウ,0
1082,5070001041412,新規,0,2024-02-19,2024-02-19,株式会社Ｍｏｎｄｏ,,株式会社,群馬県,藤岡市,中島４３１番地１美郷ハイツ１０１,,10,209,3750001,,,,,,,2024-02-19,1,,,,,モンド,0
1087,5070005010231,新規,0,2024-02-19,2024-02-19,一般社団法人ＴＳＫ,,その他の設立登記法人,群馬県,前橋市,東善町１２０番地５０,,10,201,3792132,,,,,,,2024-02-19,1,,,,,ティーエスケー,0
1090,5080401027010,新規,0,2024-02-19,2024-02-19,株式会社Ｄ２,,株式会社,静岡県,浜松市中央区,高丘西３丁目８番１２号南棟２号室,,22,138,4338118,,,,,,,2024-02-19,1,,,,,デーツー,0
1092,5100001037217,新規,0,2024-02-19,2024-02-19,株式会社石坂,,株式会社,長野県,飯山市,大字飯山４９３－４１,,20,213,3892253,,,,,,,2024-02-19,1,,,,,イシザカ,0
1094,5110003005294,新規,0,2024-02-19,2024-02-19,泉谷ファイナンシャルアドバイザリー合同会社,,合同会社,新潟県,新潟市中央区,西堀前通８番町１５２５番地井坂ビル２０４号,,15,103,9518062,,,,,,,2024-02-19,1,,,,,イズミヤファイナンシャルアドバイザリー,0
1104,5120001262333,新規,0,2024-02-19,2024-02-19,株式会社セントラル,,株式会社,大阪府,寝屋川市,高倉２丁目９番４３号,,27,215,5720864,,,,,,,2024-02-19,1,,,,,セントラル,0
1105,5120001262341,新規,0,2024-02-19,2024-02-19,株式会社よしなにシステム,,株式会社,大阪府,大阪市淀川区,西宮原１丁目８番４１－６０２号,,27,123,5320004,,,,,,,2024-02-19,1,,,,,ヨシナニシステム,0
1106,5120001262358,新規,0,2024-02-19,2024-02-19,京辰株式会社,,株式会社,大阪府,大阪市中央区,博労町１丁目６－１３－４０１号室,,27,128,5410059,,,,,,,2024-02-19,1,,,,,キョウシン,0
1107,5120001262366,新規,0,2024-02-19,2024-02-19,株式会社ＦＲＥＥＴＡＮＣＥ,,株式会社,大阪府,大阪市淀川区,西中島３丁目２０番８－８０１号,,27,123,5320011,,,,,,,2024-02-19,1,,,,,フリータンス,0
1108,5120001262374,新規,0,2024-02-19,2024-02-19,株式会社イルマニーフィコ,,株式会社,大阪府,大阪市北区,豊崎２丁目９－１３セレニテ梅田北プレミアム２０１号,,27,127,5310072,,,,,,,2024-02-19,1,,,,,イルマニーフィコ,0
1109,5120001262424,新規,0,2024-02-19,2024-02-19,株式会社ＳＡＩ．,,株式会社,大阪府,大阪市淀川区,西中島３丁目９番１３号,,27,123,5320011,,,,,,,2024-02-19,1,,,,,サイ,0
1110,5120003025911,新規,0,2024-02-19,2024-02-19,合同会社メソン,,合同会社,大阪府,大阪市住之江区,浜口西２丁目３番１３号,,27,125,5590006,,,,,,,2024-02-19,1,,,,,メソン,0
1116,5120101069059,新規,0,2024-02-19,2024-02-19,丸晶株式会社,,株式会社,大阪府,大阪狭山市,大野台３丁目４番３号,,27,231,5890023,,,,,,,2024-02-19,1,,,,,マルショウ,0
1121,5120901048773,新規,0,2024-02-19,2024-02-19,株式会社ＦＪＴＡ興産,,株式会社,大阪府,豊中市,新千里北町２丁目１番１４号,,27,203,5600081,,,,,,,2024-02-19,1,,,,,エフジェーティーエーコウサン,0
1126,5130001076393,新規,0,2024-02-19,2024-02-19,株式会社ミュージックスケイプ,,株式会社,京都府,京都市中京区,町頭町１１２菊三ビル３０３,,26,104,6048206,,,,,,,2024-02-19,1,,,,,ミュージックスケイプ,0
1128,5130003009310,新規,0,2024-02-19,2024-02-19,合同会社ＣＲＯＷＮ,,合同会社,京都府,京都市上京区,東堀川通中立売下る一町目１７番地３,,26,102,6028064,,,,,,,2024-02-19,1,,,,,クラウン,0
1133,5140001133375,新規,0,2024-02-19,2024-02-19,株式会社ＴＳ運送,,株式会社,兵庫県,神戸市長田区,若松町１丁目３番３号１Ｆ,,28,106,6530038,,,,,,,2024-02-19,1,,,,,ティエスウンソウ,0
1135,5140003020167,新規,0,2024-02-19,2024-02-19,合同会社ＤＤＳ姫路,,合同会社,兵庫県,姫路市,青山西５丁目７番１２,,28,201,6712224,,,,,,,2024-02-19,1,,,,,ディーディーエスヒメジ,0
1136,5140003020175,新規,0,2024-02-19,2024-02-19,合同会社中野アンドカンパニー,,合同会社,兵庫県,神戸市東灘区,向洋町中３丁目１番地８号１番館１２０９号,,28,101,6580032,,,,,,,2024-02-19,1,,,,,ナカノアンドカンパニー,0
1137,5140005026947,新規,0,2024-02-19,2024-02-19,行政書士法人ダイアログ,,その他の設立登記法人,兵庫県,神戸市中央区,浜辺通４丁目１番２３号,,28,110,6510083,,,,,,,2024-02-19,1,,,,,ダイアログ,0
1150,5180001160226,新規,0,2024-02-19,2024-02-19,ＴＲＵＳＴＧＡＴＥ株式会社,,株式会社,愛知県,一宮市,泉３丁目１番２号,,23,203,4910861,,,,,,,2024-02-19,1,,,,,トラストゲート,0
1151,5180001160234,新規,0,2024-02-19,2024-02-19,株式会社ＮＢＳ,,株式会社,愛知県,名古屋市中区,正木４丁目１０番１６号,,23,106,4600024,,,,,,,2024-02-19,1,,,,,エヌビーエス,0
1154,5180003026375,新規,0,2024-02-19,2024-02-19,ＳＡＮＧＳＡＮＧ合同会社,,合同会社,愛知県,小牧市,中央６丁目２２５番地土屋店舗１－２階西号室,,23,219,4850029,,,,,,,2024-02-19,1,,,,,サンサン,0
1156,5180301038329,新規,0,2024-02-19,2024-02-19,株式会社Ｃ．Ｙ．Ｈ,,株式会社,愛知県,高浜市,沢渡町５丁目７番地１８,,23,227,4441333,,,,,,,2024-02-19,1,,,,,シイワイエイチ,0
1161,5200003006234,新規,0,2024-02-19,2024-02-19,博洋金属合同会社,,合同会社,岐阜県,岐阜市,水海道３丁目２２－１２,,21,201,5008223,,,,,,,2024-02-19,1,,,,,ハクヨウキンゾク,0
1166,5210001019641,新規,0,2024-02-19,2024-02-19,株式会社ｔｉｇｅｒ,,株式会社,福井県,鯖江市,三六町１丁目１０番２５号,,18,207,9160021,,,,,,,2024-02-19,1,,,,,タイガー,0
1169,5240001062812,新規,0,2024-02-19,2024-02-19,ｉｂ株式会社,,株式会社,広島県,広島市東区,牛田旭２丁目９－４２,,34,102,7320067,,,,,,,2024-02-19,1,,,,,アイビー,0
1171,5260003004579,新規,0,2024-02-19,2024-02-19,合同会社メリリー,,合同会社,岡山県,新見市,千屋１５９０番地の３,,33,210,7180101,,,,,,,2024-02-19,1,,,,,メリリー,0
1172,5280001009124,新規,0,2024-02-19,2024-02-19,株式会社日和,,株式会社,島根県,松江市,東津田町１９０３番地７,,32,201,6900011,,,,,,,2024-02-19,1,,,,,ニチワ,0
1178,5290001104709,新規,0,2024-02-19,2024-02-19,株式会社ユナイト,,株式会社,福岡県,福岡市中央区,天神４丁目７番１１クレアビル４Ｆ,,40,133,8100001,,,,,,,2024-02-19,1,,,,,ユナイト,0
1188,5330001031758,新規,0,2024-02-19,2024-02-19,株式会社Ｅｎｇｉｎｅ,,株式会社,熊本県,熊本市中央区,世安１丁目４番１号,,43,101,8600827,,,,,,,2024-02-19,1,,,,,エンジン,0
1189,5330003010223,新規,0,2024-02-19,2024-02-19,合同会社五常ラボ,,合同会社,熊本県,熊本市西区,小島３丁目１７番２３号,,43,103,8615287,,,,,,,2024-02-19,1,,,,,ゴジョウラボ,0
1192,5340003004372,新規,0,2024-02-19,2024-02-19,合同会社ＯＲＥＺ,,合同会社,鹿児島県,薩摩川内市,高城町４１６８番地３３,,46,215,8950211,,,,,,,2024-02-19,1,,,,,オレゾ,0
1201,5380003005689,新規,0,2024-02-19,2024-02-19,合同会社アンブル,,合同会社,福島県,福島市,太田町４番８号,,07,201,9608068,,,,,,,2024-02-19,1,,,,,アンブル,0
1213,5440003001574,新規,0,2024-02-19,2024-02-19,合同会社ワークサポートオフィス,,合同会社,北海道,函館市,石川町４７１番地１２,,01,202,0410802,,,,,,,2024-02-19,1,,,,,ワークサポートオフィス,0
1218,5700150124028,新規,0,2024-02-19,2024-02-19,Ｓｈｅｎｚｈｅｎｓｈｉ　Ｙｕｈｅｙｉ　ｍａｏｙｉｙｏｕｘｉａｎｇｏｎｇｓｉ,,外国会社等,,,,,,,,２５０８，Ｂｌｏｃｋ　Ｂ，Ｐａｒｋ　Ｒｏａｄ　Ｂｕｉｌｄｉｎｇ，Ｄｅｎｇｌｉａｎｇ　Ｒｏａｄ，Ｎａｎｓｈａｎ　Ｓｔｒｅｅｔ，Ｎａｎｓｈａｎ　Ｄｉｓｔｒｉｃｔ，Ｓｈｅｎｚｈｅｎ，Ｃｈｉｎａ,,,,,,2024-02-19,1,,,,,シンセンシユヘイマオイユウゲンコウシ,0
1219,5700150124036,新規,0,2024-02-19,2024-02-19,ｓｕｚｈｏｕｑｉａｎｙｕｄｉｅｘｉｎｘｉｋｅｊｉ　ｙｏｕｘｉａｎｇｏｎｇｓｉ,,外国会社等,,,,,,,,ＣＮ，Ｊｉａｎｇｓｕ，ｓｕｚｈｏｕ，ｇａｏｘｉｎｑｕ，ｊｉｎｙａｎｌｕ　８　ｈａｏ，ｙａｎｇｓｈａｎｋｅｊｉｇｏｎｇｙｅｙｕａｎ１４ｈａｏｃｈａｎｇｆａｎｇ１３２ｓｈｉ,,,,,,2024-02-19,1,,,,,スゾウセンウデェシンシカギユウゲンコウシ,0
1220,5700150124044,新規,0,2024-02-19,2024-02-19,ＦｏＳｈａｎ　ＪｉａＮａｎ　ＤｉａｎＺｉ　ＳｈａｎｇＷｕ　ＹｏｕＸｉａｎ　ＧｏｎｇＳｉ,,外国会社等,,,,,,,,Ｄａｌｉ　Ｔｏｗｎ，Ｎａｎｈａｉ　Ｄｉｓｔｒｉｃｔ，Ｆｏｓｈａｎ　Ｃｉｔｙ，Ｄａｌｉ　Ｔｏｗｎ，Ｈｕａｎｇｑｉ　Ｗｅｓｔ　Ｒｉｎｇ　Ｒｏａｄ，Ｎｏ．３，Ｈａｉｈａｏ　Ｂｕｓｉｎｅｓｓ　Ｂｕｉｌｄｉｎｇ，Ｂｕｓｉｎｅｓｓ　Ｂｕｉｌｄｉｎｇ，ｓｅｌｆ－ｐｒｏｇｒａｍｍｅｄ　Ａ８０７，ｏｎｅ　ｏｆ　ｔｈｅ　ｒｏｏｍ（ｒｅｓｉｄｅｎｃｅ　ｄｅｃｌａｒａｔｉｏｎ）,,,,,,2024-02-19,1,,,,,フォサンジャナンデンシショウムユウゲンコウシ,0
1221,5700150124052,新規,0,2024-02-19,2024-02-19,Ｓｈｅｎｚｈｅｎ　Ｓｈｉ　Ｍｏｌａｎｄｉ　Ｄｉａｎｚｉ　Ｓｈａｎｇｗｕ　Ｙｏｕｘｉａｎ　Ｇｏｎｇｓｉ,,外国会社等,,,,,,,,ＳｈｅｎｚｈｅｎＳｈｉ　ＬｏｎｇｇａｎｇＱｕ　ＬｏｎｇｇａｎｇＪｉｅｄａｏ　ＰｉｎｇｎａｎＳｈｅｑｕ　ＬｏｎｇｇａｎｇＤａｄａｏ　６０３８Ｈａｏ　Ｗｕｚｈｏｕｘｉｎｔｉａｎｄｉ　３ＤｏｎｇＡＱｕ３０１Ａ３０２３,,,,,,2024-02-19,1,,,,,シンセンシモランディデンシショウムユウゲンコウシ,0
1225,6010003042982,新規,0,2024-02-19,2024-02-19,合同会社３ＳＯＵＮＤＷＯＲＫＳ,,合同会社,東京都,千代田区,九段南１丁目５番６号りそな九段ビル５階ＫＳフロア,,13,101,1020074,,,,,,,2024-02-19,1,,,,,スリーサウンドワークス,0
1226,6010003042990,新規,0,2024-02-19,2024-02-19,Ａ４ＪＰ　Ｈｉｄａｋａ　Ｌｏｇｉｓｔｉｃｓ合同会社,,合同会社,東京都,中央区,日本橋３丁目９番１号日本橋三丁目スクエア１１階,,13,102,1030027,,,,,,,2024-02-19,1,,,,,エーフォージェイピーヒダカロジスティックス,0
1228,6010005037898,新規,0,2024-02-19,2024-02-19,一般社団法人日本美容健康エビデンス協会,,その他の設立登記法人,東京都,文京区,本郷２丁目３１番２号,,13,105,1130033,,,,,,,2024-02-19,1,,,,,ニホンビヨウケンコウエビデンスキョウカイ,0
1234,6010401180392,新規,0,2024-02-19,2024-02-19,株式会社プライムインフォ,,株式会社,東京都,港区,六本木７丁目１４－２３ラウンドクロス六本木４Ｆ,,13,103,1060032,,,,,,,2024-02-19,1,,,,,プライムインフォ,0
1235,6010401180442,新規,0,2024-02-19,2024-02-19,Ｓｅｎｓｅ　Ｃｒａｆｔ株式会社,,株式会社,東京都,港区,南青山２丁目２番１５号,,13,103,1070062,,,,,,,2024-02-19,1,,,,,センスクラフト,0
1236,6010401180459,新規,0,2024-02-19,2024-02-19,株式会社青山グラデーション,,株式会社,東京都,港区,南青山２丁目２－１５ウィン青山９４２,,13,103,1070062,,,,,,,2024-02-19,1,,,,,アオヤマグラデーション,0
1238,6010403031957,新規,0,2024-02-19,2024-02-19,ＡＰ　Ｓｙｍｐｈｏｎｙ合同会社,,合同会社,東京都,港区,虎ノ門４丁目１番１７号神谷町プライムプレイス８階アリサ・パートナーズ・ジャパン株式会社内,,13,103,1050001,,,,,,,2024-02-19,1,,,,,エーピーシンフォニー,0
1239,6010403031973,新規,0,2024-02-19,2024-02-19,Ｂｌｕｅ　Ｌａｓｅｒ　Ｆｕｓｉｏｎ合同会社,,合同会社,東京都,港区,芝公園１丁目８番２０号,,13,103,1050011,,,,,,,2024-02-19,1,,,,,ブルーレーザーフュージョン,0
1240,6010403031998,新規,0,2024-02-19,2024-02-19,ＬＳ‐ＵＡＬ第２号合同会社,,合同会社,東京都,港区,六本木１丁目６番１号,,13,103,1060032,,,,,,,2024-02-19,1,,,,,エルエスユーエーエルダイニゴウ,0
1242,6010405022970,新規,0,2024-02-19,2024-02-19,一般社団法人自動車・蓄電池トレーサビリティ推進センター,,その他の設立登記法人,東京都,港区,西新橋１丁目１番１号,,13,103,1050003,,,,,,,2024-02-19,1,,,,,ジドウシャチクデンチトレーサビリティスイシンセンター,0
1246,6010501051774,新規,0,2024-02-19,2024-02-19,ＣＡＲＰＥ　ＮＯＣＴＥＭ株式会社,,株式会社,東京都,台東区,上野３丁目１６－２上野末広町５０５－Ｅ号室,,13,106,1100005,,,,,,,2024-02-19,1,,,,,カルペノクテム,0
1247,6010501051790,新規,0,2024-02-19,2024-02-19,ＰＲＥＭＡ株式会社,,株式会社,東京都,台東区,東浅草１丁目６番７－５０１号,,13,106,1110025,,,,,,,2024-02-19,1,,,,,プレイマ,0
1257,6010701045576,新規,0,2024-02-19,2024-02-19,株式会社ＢＡＹＡＮ,,株式会社,東京都,品川区,西五反田１丁目４番８－５１０号,,13,109,1410031,,,,,,,2024-02-19,1,,,,,バヤン,0
1258,6010803004851,新規,0,2024-02-19,2024-02-19,合同会社エフワイ,,合同会社,東京都,大田区,田園調布１丁目１３番３１号,,13,111,1450071,,,,,,,2024-02-19,1,,,,,エフワイ,0
1260,6011001160074,新規,0,2024-02-19,2024-02-19,株式会社Ｎｅｗ　Ｂ,,株式会社,東京都,渋谷区,桜丘町２０番１号,,13,113,1500031,,,,,,,2024-02-19,1,,,,,ニュービー,0
1261,6011001160082,新規,0,2024-02-19,2024-02-19,タムラホールディングス株式会社,,株式会社,東京都,目黒区,平町２丁目１７番６号,,13,110,1520032,,,,,,,2024-02-19,1,,,,,タムラホールディングス,0
1262,6011001160099,新規,0,2024-02-19,2024-02-19,株式会社ツバキイノベーション,,株式会社,東京都,渋谷区,代々木１丁目３０番１４号,,13,113,1510053,,,,,,,2024-02-19,1,,,,,ツバキイノベーション,0
1263,6011001160116,新規,0,2024-02-19,2024-02-19,株式会社ｆｉｎｒａｄｅ,,株式会社,東京都,渋谷区,渋谷２丁目１９番１５－６０９号宮益坂ビルディング,,13,113,1500002,,,,,,,2024-02-19,1,,,,,フィンレイド,0
1264,6011003018510,新規,0,2024-02-19,2024-02-19,ニコニコデータ合同会社,,合同会社,東京都,渋谷区,恵比寿西２丁目８番４号ＥＸ恵比寿西ビル５階,,13,113,1500021,,,,,,,2024-02-19,1,,,,,ニコニコデータ,0
1265,6011003018519,新規,0,2024-02-19,2024-02-19,合同会社ＹＡＹ,,合同会社,東京都,渋谷区,道玄坂１丁目１０番８号渋谷道玄坂東急ビル２Ｆ－Ｃ,,13,113,1500043,,,,,,,2024-02-19,1,,,,,ワイエーワイ,0
1267,6011101106209,新規,0,2024-02-19,2024-02-19,株式会社ヘアソリューションラボ,,株式会社,東京都,新宿区,新宿１丁目１８番１０号カテリーナ柳通り７階,,13,104,1600022,,,,,,,2024-02-19,1,,,,,ヘアソリューションラボ,0
1268,6011101106217,新規,0,2024-02-19,2024-02-19,株式会社Ｙａｋｕｓｈｉ,,株式会社,東京都,新宿区,市谷田町３丁目８番地市ヶ谷科学技術イノベーションセンタービル２Ｆ,,13,104,1620843,,,,,,,2024-02-19,1,,,,,ヤクシ,0
1269,6011103014112,新規,0,2024-02-19,2024-02-19,ｌｅｓ　ＶＩＥｓ合同会社,,合同会社,東京都,新宿区,西新宿３丁目３番１３号西新宿水間ビル６階,,13,104,1600023,,,,,,,2024-02-19,1,,,,,レヴィ,0
1272,6011105010943,新規,0,2024-02-19,2024-02-19,浦安ホールディングス一般社団法人,,その他の設立登記法人,東京都,新宿区,四谷２丁目９番地１５東京ユナイテッド綜合事務所内,,13,104,1600004,,,,,,,2024-02-19,1,,,,,ウラヤスホールディングス,0
1273,6011203004302,新規,0,2024-02-19,2024-02-19,合同会社ＬＩＧＨＴ＆ＳＨＩＰコンサルティング,,合同会社,東京都,中野区,江古田３丁目１４番１３‐５２７号,,13,114,1650022,,,,,,,2024-02-19,1,,,,,ライトアンドシップコンサルティング,0
1279,6011603004249,新規,0,2024-02-19,2024-02-19,合同会社せろりの,,合同会社,東京都,練馬区,氷川台４丁目４４番１８－３０６号,,13,120,1790084,,,,,,,2024-02-19,1,,,,,セロリノ,0
1280,6011701027028,新規,0,2024-02-19,2024-02-19,株式会社植村,,株式会社,東京都,江戸川区,東葛西５丁目１２番６カワマンビル２階,,13,123,1340084,,,,,,,2024-02-19,1,,,,,ウエムラ,0
1283,6012403006419,新規,0,2024-02-19,2024-02-19,合同会社ブラッズ,,合同会社,東京都,三鷹市,牟礼２丁目３番１３号,,13,204,1810002,,,,,,,2024-02-19,1,,,,,ブラッズ,0
1284,6012703002910,新規,0,2024-02-19,2024-02-19,ＡＫＲ合同会社,,合同会社,東京都,東久留米市,柳窪２丁目１１番２３号,,13,222,2030044,,,,,,,2024-02-19,1,,,,,エイケイアール,0
1285,6012801022975,新規,0,2024-02-19,2024-02-19,株式会社ＰＨ,,株式会社,東京都,立川市,柴崎町３丁目５番１１号柴崎町ソシアルビル１階,,13,202,1900023,,,,,,,2024-02-19,1,,,,,ピーエイチ,0
1294,6020001155868,新規,0,2024-02-19,2024-02-19,株式会社フューチャーアテンド,,株式会社,神奈川県,川崎市高津区,子母口１１１番地１９,,14,134,2130023,,,,,,,2024-02-19,1,,,,,フューチャーアテンド,0
1297,6021001081501,新規,0,2024-02-19,2024-02-19,株式会社ビースペ,,株式会社,神奈川県,海老名市,国分北１丁目２１番２４－４０３号,,14,215,2430406,,,,,,,2024-02-19,1,,,,,ビースペ,0
1309,6030003023642,新規,0,2024-02-19,2024-02-19,合同会社ＳＴＲＥＡＭＬＩＮＥ,,合同会社,埼玉県,和光市,新倉１丁目１２－２７リノアネラ２０５,,11,229,3510115,,,,,,,2024-02-19,1,,,,,ストリームライン,0
1318,6050001054258,新規,0,2024-02-19,2024-02-19,株式会社想,,株式会社,茨城県,神栖市,太田４５１７番地,,08,232,3140254,,,,,,,2024-02-19,1,,,,,ソウ,0
1319,6050001054308,新規,0,2024-02-19,2024-02-19,株式会社ジオ,,株式会社,茨城県,つくば市,天久保３丁目３番４号１０６号室,,08,220,3050005,,,,,,,2024-02-19,1,,,,,ジオ,0
1320,6050003008146,新規,0,2024-02-19,2024-02-19,合同会社ＣＲＡＮＫ　ＡＵＴＯ,,合同会社,茨城県,東茨城郡茨城町,大字長岡３５３７番地１,,08,302,3113116,,,,,,,2024-02-19,1,,,,,クランクオート,0
1325,6060003004912,新規,0,2024-02-19,2024-02-19,合同会社かえで,,合同会社,栃木県,下野市,柴２５２番地４,,09,216,3290412,,,,,,,2024-02-19,1,,,,,カエデ,0
1327,6070001041386,新規,0,2024-02-19,2024-02-19,株式会社フアツシヨン企画アトリエスミ,,株式会社,群馬県,桐生市,堤町３丁目２番６号,,10,203,3760042,,,,,,,2024-02-19,1,,,,,,0
1328,6070001041403,新規,0,2024-02-19,2024-02-19,株式会社ＳＫワークス,,株式会社,群馬県,太田市,西新町８番地の２,,10,205,3730847,,,,,,,2024-02-19,1,,,,,エスケーワークス,0
1332,6080105006400,新規,0,2024-02-19,2024-02-19,一般社団法人クルラー富士おやま,,その他の設立登記法人,静岡県,駿東郡小山町,小山１２９番地の２７,,22,344,4101311,,,,,,,2024-02-19,1,,,,,クルラーフジオヤマ,0
1333,6090001018548,新規,0,2024-02-19,2024-02-19,株式会社Ａｋａｎｅ,,株式会社,山梨県,甲府市,朝気３丁目６番１３号,,19,201,4000862,,,,,,,2024-02-19,1,,,,,アカネ,0
1345,6120001262241,新規,0,2024-02-19,2024-02-19,友喜株式会社,,株式会社,大阪府,大阪市中央区,上町１丁目２５－２－３０１,,27,128,5400005,,,,,,,2024-02-19,1,,,,,トモヨシ,0
1346,6120001262308,新規,0,2024-02-19,2024-02-19,株式会社Ｉ　ＬＯＶＥ　ＹＯＵ,,株式会社,大阪府,大阪市中央区,淡路町１丁目５番１０－３０６号室,,27,128,5410047,,,,,,,2024-02-19,1,,,,,アイラブユー,0
1347,6120001262324,新規,0,2024-02-19,2024-02-19,エアリアルデュエル株式会社,,株式会社,大阪府,大阪市住吉区,苅田２丁目９番４４号１０１,,27,120,5580011,,,,,,,2024-02-19,1,,,,,エアリアルデュエル,0
1348,6120001262349,新規,0,2024-02-19,2024-02-19,株式会社ＫＲ　Ｇｒｏｏｐ,,株式会社,大阪府,大阪市北区,曾根崎新地１丁目１０番１６号永楽ビル６階,,27,127,5300002,,,,,,,2024-02-19,1,,,,,ケーアールグループ,0
1349,6120001262365,新規,0,2024-02-19,2024-02-19,株式会社福和商事,,株式会社,大阪府,大阪市平野区,加美正覚寺３丁目９番２－１３０２号,,27,126,5470006,,,,,,,2024-02-19,1,,,,,フクワショウジ,0
1350,6120001262381,新規,0,2024-02-19,2024-02-19,株式会社ＩＦＡＳ,,株式会社,大阪府,大阪市西区,立売堀１丁目６－１３,,27,106,5500012,,,,,,,2024-02-19,1,,,,,アイファズ,0
1351,6120001262398,新規,0,2024-02-19,2024-02-19,株式会社ＮＯ　ＬＩＭＩＴ　ＷＯＲＫＳ,,株式会社,大阪府,大阪市北区,中津１丁目２番２１号中津明大ビル１０階,,27,127,5310071,,,,,,,2024-02-19,1,,,,,ノーリミットワークス,0
1352,6120001262423,新規,0,2024-02-19,2024-02-19,株式会社ｅＮ,,株式会社,大阪府,枚方市,楠葉野田３丁目５２番３１号,,27,210,5731103,,,,,,,2024-02-19,1,,,,,エン,0
1353,6120001262431,新規,0,2024-02-19,2024-02-19,株式会社アームズコンサルティング,,株式会社,大阪府,大阪市中央区,南本町２丁目４番１５号７階,,27,128,5410054,,,,,,,2024-02-19,1,,,,,アームズコンサルティング,0
1354,6120001262448,新規,0,2024-02-19,2024-02-19,ＰｌｕｓーＡ株式会社,,株式会社,大阪府,大阪市中央区,南本町２丁目３番１２号,,27,128,5410054,,,,,,,2024-02-19,1,,,,,プラスエー,0
1355,6120001262464,新規,0,2024-02-19,2024-02-19,株式会社ララス,,株式会社,大阪府,大阪市中央区,南本町１丁目２番５号,,27,128,5410054,,,,,,,2024-02-19,1,,,,,ララス,0
1356,6120001262472,新規,0,2024-02-19,2024-02-19,株式会社原田整事務所,,株式会社,大阪府,枚方市,南中振１丁目５０番９号,,27,210,5730094,,,,,,,2024-02-19,1,,,,,ハラダヒトシジムショ,0
1359,6120003025951,新規,0,2024-02-19,2024-02-19,合同会社ＩＳＥＣＨＩ,,合同会社,大阪府,大阪市北区,梅田１丁目２番２号大阪駅前第２ビル１２－１２,,27,127,5300001,,,,,,,2024-02-19,1,,,,,イセチ,0
1363,6120101069074,新規,0,2024-02-19,2024-02-19,一嘉株式会社,,株式会社,大阪府,阪南市,貝掛６３番３号シーサイド貝掛Ｂ棟４０６室,,27,232,5990231,,,,,,,2024-02-19,1,,,,,イチガ,0
1365,6120901048772,新規,0,2024-02-19,2024-02-19,株式会社ｒｅｆａｃｔｉｏｎ,,株式会社,大阪府,高槻市,富田町１丁目６番１０,,27,207,5690814,,,,,,,2024-02-19,1,,,,,リファクション,0
1382,6170001018011,新規,0,2024-02-19,2024-02-19,ＳＨＩＭＩＺＵ株式会社,,株式会社,和歌山県,新宮市,佐野２丁目３番１４号,,30,207,6470071,,,,,,,2024-02-19,1,,,,,シミズ,0
1383,6170003001980,新規,0,2024-02-19,2024-02-19,合同会社真和福祉会,,合同会社,和歌山県,紀の川市,名手市場１２７５番地５,,30,208,6496631,,,,,,,2024-02-19,1,,,,,シンワフクシカイ,0
1392,6180001160150,新規,0,2024-02-19,2024-02-19,株式会社雅クリーンサービス,,株式会社,愛知県,名古屋市天白区,元植田１丁目１０４番地レインボーティアラ植田８０５号,,23,116,4680009,,,,,,,2024-02-19,1,,,,,ミヤビクリーンサービス,0
1398,6180301038328,新規,0,2024-02-19,2024-02-19,株式会社アンジュワン,,株式会社,愛知県,安城市,横山町寺田６０番地４７,,23,212,4460045,,,,,,,2024-02-19,1,,,,,アンジュワン,0
1404,6200001042180,新規,0,2024-02-19,2024-02-19,ペットベーシック株式会社,,株式会社,岐阜県,岐阜市,松ケ枝町３ｌｉｖｅ　ｃｏｕｒｔ　ｍｏｕｒｉ５０３,,21,201,5008016,,,,,,,2024-02-19,1,,,,,ペットベーシック,0
1407,6240001062803,新規,0,2024-02-19,2024-02-19,株式会社竹間,,株式会社,広島県,広島市中区,堀川町３番３号津田文ビル６０３号,,34,101,7300033,,,,,,,2024-02-19,1,,,,,タケマ,0
1409,6240005015724,新規,0,2024-02-19,2024-02-19,医療法人明志会,,その他の設立登記法人,広島県,広島市南区,仁保新町２丁目５番３２号グレイスコート仁保新町１Ｆ,,34,103,7340024,,,,,,,2024-02-19,1,,,,,メイシカイ,0
1415,6280001009123,新規,0,2024-02-19,2024-02-19,山菱商事株式会社,,株式会社,島根県,邑智郡邑南町,山田３４５番地,,32,449,6960313,,,,,,,2024-02-19,1,,,,,ヤマビシショウジ,0
1416,6280003001813,新規,0,2024-02-19,2024-02-19,インサイドアット合同会社,,合同会社,島根県,隠岐郡知夫村,２８７７番地,,32,527,6840100,,,,,,,2024-02-19,1,,,,,インサイドアット,0
1421,6290003014979,新規,0,2024-02-19,2024-02-19,ＴＷ合同会社,,合同会社,福岡県,福岡市南区,大池１丁目２３番８号インパレス野間大池２０５,,40,134,8150073,,,,,,,2024-02-19,1,,,,,ティーダブリュー,0
1430,6330001031765,新規,0,2024-02-19,2024-02-19,株式会社ＭＡＫＵＴＡ,,株式会社,熊本県,合志市,御代志１６９１番地５,,43,216,8611104,,,,,,,2024-02-19,1,,,,,マクタ,0
1436,6340003004363,新規,0,2024-02-19,2024-02-19,合同会社カケルドット,,合同会社,鹿児島県,曽於市,財部町南俣１１３４０番地１,,46,217,8994101,,,,,,,2024-02-19,1,,,,,カケルドット,0
1443,6380003005688,新規,0,2024-02-19,2024-02-19,合同会社ＳＭＩＬＥ,,合同会社,福島県,郡山市,大槻町字室ノ木北３４番地の２０,,07,203,9630201,,,,,,,2024-02-19,1,,,,,スマイル,0
1445,6390003002206,新規,0,2024-02-19,2024-02-19,合同会社グロウアップ,,合同会社,山形県,酒田市,光ケ丘２丁目１２番２５号,,06,204,9980061,,,,,,,2024-02-19,1,,,,,グロウアップ,0
1452,6440003001573,新規,0,2024-02-19,2024-02-19,合同会社思いやり,,合同会社,北海道,亀田郡七飯町,大川１丁目１番２６号,,01,337,0411122,,,,,,,2024-02-19,1,,,,,オモイヤリ,0
1456,6490001010704,新規,0,2024-02-19,2024-02-19,株式会社Ｒｅ,,株式会社,高知県,吾川郡いの町,枝川４番地１－３Ｆ,,39,386,7812120,,,,,,,2024-02-19,1,,,,,アールイー,0
1457,6700150124027,新規,0,2024-02-19,2024-02-19,Ｄｏｎｇｇｕａｎ　Ｙｉｍｉｄｉａｎｚｉｋｅｊｉｙｏｕｘｉａｎｇｏｎｇｓｉ,,外国会社等,,,,,,,,Ｒｏｏｍ　２０６，Ｆｌｏｏｒ　２，Ｂｕｉｌｄｉｎｇ　６，Ｃｏｍｐｒｅｈｅｎｓｉｖｅ　Ｔｅｓｔ　Ｂａｓｅ，Ｎｏ．１　Ｄｏｎｇｋｅ　Ｒｏａｄ，Ｄｏｎｇｃｈｅｎｇ　Ｓｃｉｅｎｃｅ　ａｎｄ　Ｔｅｃｈｎｏｌｏｇｙ　Ｉｎｄｕｓｔｒｉａｌ　Ｐａｒｋ，Ｔｏｎｇｓｈａ　Ｃｏｍｍｕｎｉｔｙ，Ｄｏｎｇｃｈｅｎｇ　Ｓｔｒｅｅｔ，Ｄｏｎｇｇｕａｎ　Ｃｉｔｙ，Ｇｕａｎｇｄｏｎｇ　Ｐｒｏｖｉｎｃｅ　Ｃｌｕｓｔｅｒ　０００９１,,,,,,2024-02-19,1,,,,,トウカンイミデンシカギユウゲンコウシ,0
1458,6700150124035,新規,0,2024-02-19,2024-02-19,ｓｈｅｎｚｈｅｎｓｈｉｘｉｎｌａｎｐｕｋｅｊｉ　ｙｏｕｘｉａｎｇｏｎｇｓｉ,,外国会社等,,,,,,,,ｓｈｅｎｚｈｅｎｓｈｉ　ｂａｏａｎｑｕ　ｓｈｉｙａｎｊｉｅｄａｏ　ｌａｎｇｘｉｎｓｈｅｑｕｓｈｉｘｉｎｓｈｅｑｕｚｈｏｕｓｈｉｌｕｊｕｎｘｉｎｇｌｏｎｇｇｏｎｇｙｅｑｕａｄｏｎｇｃｈａｎｇｆａｎｇｗｕｃｅｎｇ,,,,,,2024-02-19,1,,,,,シンセンシシンランプカギユウゲンコウシ,0
1459,6700150124043,新規,0,2024-02-19,2024-02-19,ｓｈｅｎｚｈｅｎｓｈｉｙａｈｕａｄｉａｎｚｉｓｈａｎｇｗｕ　ｙｏｕｘｉａｎｇｏｎｇｓｉ,,外国会社等,,,,,,,,Ｃｈｕａｎｇｘｉｎｇｄａ　Ｂｕｓｉｎｅｓｓ　Ｃｅｎｔｅｒ　５００８，Ｎｏ．３８　Ｌｉｕｘｉａｎ　３ｒｄ　Ｒｏａｄ，Ｘｉｎｇｄｏｎｇ　Ｃｏｍｍｕｎｉｔｙ，Ｄｉｓｔｒｉｃｔ　７２，Ｘｉｎ’ａｎ　Ｓｔｒｅｅｔ，Ｂａｏａｎ　Ｄｉｓｔｒｉｃｔ，Ｓｈｅｎｚｈｅｎ，Ｃｈｉｎａ,,,,,,2024-02-19,1,,,,,シンセンシヤホゥアデンシショウムユウゲンコウシ,0
1460,6700150124051,新規,0,2024-02-19,2024-02-19,ＳＨＥＮＺＨＥＮＳＨＩＤＩＡＮＤＵＤＥＳＨＩＹＥＹＯＵＸＩＡＮＧＯＮＧＳＩ,,外国会社等,,,,,,,,ＬＯＮＧＧＡＮＧＱＵＢＵＪＩＪＩＥＤＡＯＢＵＪＩＹＩＣＵＮＪＩＥＹＩＣＵＮＳＨＡＮＧＷＵＤＡＳＨＡ２０３　ＳＨＥＮＺＨＥＮ　ＧＵＡＮＧＤＯＮＧ　ＣＮ,,,,,,2024-02-19,1,,,,,シンセンシデンドウディジツギョウユウゲンコウシ,0
1467,7010001242360,新規,0,2024-02-19,2024-02-19,Ｈｉｇｈ‐Ｃｏｍｍｕｎｉｃａｔｉｏｎｓ株式会社,,株式会社,東京都,千代田区,神田松永町１３番地ＶＯＲＴ秋葉原ＩＩ,00133763,13,101,1010023,,,,,,,2024-02-19,1,,,,,ハイコミュニケーションズ,0
1468,7010001242402,新規,0,2024-02-19,2024-02-19,株式会社ＳｅｖｅｎＢｌｏｏｍｓ,,株式会社,東京都,中央区,銀座７丁目１３－２０銀座ＴＨビル９Ｆ,,13,102,1040061,,,,,,,2024-02-19,1,,,,,セブンブルームス,0
1469,7010001242410,新規,0,2024-02-19,2024-02-19,株式会社Ｈ＆Ｃ,,株式会社,東京都,中央区,銀座１丁目２２番１１号銀座大竹ビジデンス２Ｆ,,13,102,1040061,,,,,,,2024-02-19,1,,,,,エーチアンドシー,0
1470,7010003042866,新規,0,2024-02-19,2024-02-19,Ｔｗｏ　Ｍｉｌｅｓ　Ｊａｐａｎ合同会社,,合同会社,東京都,中央区,日本橋室町１丁目１１番１２号日本橋水野ビル７階,,13,102,1030022,,,,,,,2024-02-19,1,,,,,ツーマイルスジャパン,0
1471,7010003042949,新規,0,2024-02-19,2024-02-19,合同会社レイズＦＩＴソーラー１号,,合同会社,東京都,千代田区,丸の内２丁目２番１号,,13,101,1000005,,,,,,,2024-02-19,1,,,,,レイズフィットソーラーイチゴウ,0
1472,7010003042957,新規,0,2024-02-19,2024-02-19,緑が丘１丁目プロジェクト合同会社,,合同会社,東京都,千代田区,丸の内２丁目３番２号,,13,101,1000005,,,,,,,2024-02-19,1,,,,,ミドリガオカイッチョウメプロジェクト,0
1473,7010003042965,新規,0,2024-02-19,2024-02-19,合同会社ホテル金沢,,合同会社,東京都,中央区,日本橋１丁目４番１号,,13,102,1030027,,,,,,,2024-02-19,1,,,,,ホテルカナザワ,0
1481,7010401180474,新規,0,2024-02-19,2024-02-19,ＬＳ‐ＳＨＩＰ第６０号株式会社,,株式会社,東京都,港区,六本木１丁目６番１号,,13,103,1060032,,,,,,,2024-02-19,1,,,,,エルエスシップダイロクジュウゴウ,0
1486,7010501051798,新規,0,2024-02-19,2024-02-19,ＣａｒｂｏｎＬａｂ株式会社,,株式会社,東京都,台東区,鳥越１丁目９番４号ボハラビル,,13,106,1110054,,,,,,,2024-02-19,1,,,,,カーボンラボ,0
1487,7010601064667,新規,0,2024-02-19,2024-02-19,株式会社Ｙｅｌｌｏｗ,,株式会社,東京都,江東区,越中島１丁目３－１、２２９号室,,13,108,1350044,,,,,,,2024-02-19,1,,,,,イエロー,0
1488,7010605004289,新規,0,2024-02-19,2024-02-19,フューチャークリエイト協同組合,,その他の設立登記法人,東京都,江東区,豊洲３丁目２番２４号,,13,108,1350061,,,,,,,2024-02-19,1,,,,,フューチャークリエイト,0
1491,7010701045575,新規,0,2024-02-19,2024-02-19,Ｋ　ＦＡＣＴＯＲＹ株式会社,,株式会社,東京都,品川区,西品川１丁目１－１住友不動産大崎ガーデンタワー９階トンネル東京,,13,109,1410033,,,,,,,2024-02-19,1,,,,,ケイファクトリー,0
1493,7010901054731,新規,0,2024-02-19,2024-02-19,株式会社ココカラー,,株式会社,東京都,世田谷区,駒沢２丁目１１番３号１Ｆ,,13,112,1540012,,,,,,,2024-02-19,1,,,,,ココカラー,0
1502,7011001160040,新規,0,2024-02-19,2024-02-19,株式会社ＡｍＭｉｃｒｏ,,株式会社,東京都,目黒区,駒場４丁目７番１号,,13,110,1530041,,,,,,,2024-02-19,1,,,,,エイエムマイクロ,0
1503,7011001160115,新規,0,2024-02-19,2024-02-19,株式会社Ｎａｔｉｖｅ　ｄｅｓｉｇｎ,,株式会社,東京都,渋谷区,道玄坂１丁目１０番８号渋谷道玄坂東急ビル２Ｆ－Ｃ,,13,113,1500043,,,,,,,2024-02-19,1,,,,,ネイティブデザイン,0
1504,7011001160123,新規,0,2024-02-19,2024-02-19,株式会社ＢｅｔｔｅｒＤａｙｓ,,株式会社,東京都,渋谷区,道玄坂１丁目１０番８号渋谷道玄坂東急ビル２Ｆ－Ｃ,,13,113,1500043,,,,,,,2024-02-19,1,,,,,ベターデイズ,0
1505,7011101106216,新規,0,2024-02-19,2024-02-19,株式会社ＬＡＮＤｆａｖｅ,,株式会社,東京都,新宿区,百人町１丁目２２番１９号筒井ビル２－Ｂ１Ｆ,,13,104,1690073,,,,,,,2024-02-19,1,,,,,ランドフェイブ,0
1506,7011103014103,新規,0,2024-02-19,2024-02-19,りんく合同会社,,合同会社,東京都,新宿区,百人町２丁目１番４２－２１２号シーズクロノス新宿戸山,,13,104,1690073,,,,,,,2024-02-19,1,,,,,リンク,0
1507,7011105010942,新規,0,2024-02-19,2024-02-19,浦安プロパティーズ特定目的会社,,その他の設立登記法人,東京都,新宿区,四谷２丁目９番地１５東京ユナイテッド綜合事務所内,,13,104,1600004,,,,,,,2024-02-19,1,,,,,ウラヤスプロパティーズ,0
1512,7011303005059,新規,0,2024-02-19,2024-02-19,安安合同会社,,合同会社,東京都,杉並区,下高井戸３丁目２１－３１リック下高井戸４０２号,,13,115,1680073,,,,,,,2024-02-19,1,,,,,アンアン,0
1531,7020001155842,新規,0,2024-02-19,2024-02-19,株式会社Ｉｓファシリティ,,株式会社,神奈川県,横浜市磯子区,滝頭１丁目５番３５号,,14,107,2350012,,,,,,,2024-02-19,1,,,,,アイエスファシリティ,0
1534,7020003025564,新規,0,2024-02-19,2024-02-19,合同会社ＵＩエステート,,合同会社,神奈川県,横浜市戸塚区,戸塚町２５５６番地４４,,14,110,2440003,,,,,,,2024-02-19,1,,,,,ユウアイエステート,0
1536,7021001081483,新規,0,2024-02-19,2024-02-19,株式会社グローアップ,,株式会社,神奈川県,大和市,福田５６６９－８ＵＳＫシャンブル４１０,,14,213,2420024,,,,,,,2024-02-19,1,,,,,グローアップ,0
1537,7021001081500,新規,0,2024-02-19,2024-02-19,株式会社Ｐサポート,,株式会社,神奈川県,茅ヶ崎市,今宿１３８番地７,,14,207,2530072,,,,,,,2024-02-19,1,,,,,ピーサポート,0
1540,7021003014169,新規,0,2024-02-19,2024-02-19,合同会社ｖｉｓｉｏｎ,,合同会社,神奈川県,座間市,南栗原５丁目１４番４１号ヒルズコート南栗原Ｂ１０３号,,14,216,2520015,,,,,,,2024-02-19,1,,,,,ヴィジョン,0
1544,7030001158646,新規,0,2024-02-19,2024-02-19,株式会社Ｂ４Ｕ　ＭＯＴＯＲＳ,,株式会社,埼玉県,さいたま市岩槻区,大字表慈恩寺９７６番地４,,11,110,3390008,,,,,,,2024-02-19,1,,,,,ビーフォーユーモータース,0
1545,7030001158662,新規,0,2024-02-19,2024-02-19,株式会社エミンケバブ,,株式会社,埼玉県,加須市,不動岡３丁目３番地１０,,11,210,3470054,,,,,,,2024-02-19,1,,,,,エミンケバブ,0
1547,7030003023633,新規,0,2024-02-19,2024-02-19,サエラ企画合同会社,,合同会社,埼玉県,川口市,本町４丁目１０番１４号,,11,203,3320012,,,,,,,2024-02-19,1,,,,,サエラキカク,0
1561,7040003024341,新規,0,2024-02-19,2024-02-19,合同会社ふぉーすばんく,,合同会社,千葉県,市川市,新田２丁目２４番８号２０１,,12,203,2720035,,,,,,,2024-02-19,1,,,,,フォースバンク,0
1565,7060001036840,新規,0,2024-02-19,2024-02-19,株式会社わんずぐるーぷ,,株式会社,栃木県,足利市,福居町１２０３番地５,,09,202,3260338,,,,,,,2024-02-19,1,,,,,ワンズグループ,0
1571,7070001041402,新規,0,2024-02-19,2024-02-19,株式会社Ａｒｔ　Ｇａｌｌｅｒｙ　ＮＳ,,株式会社,群馬県,伊勢崎市,中町１０５番地３,,10,204,3720822,,,,,,,2024-02-19,1,,,,,アートギャラリーエヌエス,0
1575,7070003005272,新規,0,2024-02-19,2024-02-19,合同会社アルプヴィスタ,,合同会社,群馬県,高崎市,下豊岡町１１８５番地１１,,10,202,3700873,,,,,,,2024-02-19,1,,,,,アルプヴィスタ,0
1577,7080105006399,新規,0,2024-02-19,2024-02-19,一般社団法人四條司家,,その他の設立登記法人,静岡県,田方郡函南町,桑原８８０番地の１７,,22,325,4190101,,,,,,,2024-02-19,1,,,,,シジョウツカサケ,0
1581,7090001018547,新規,0,2024-02-19,2024-02-19,株式会社南アルプス農地開拓,,株式会社,山梨県,南アルプス市,清水４６４番地１,,19,208,4000417,,,,,,,2024-02-19,1,,,,,ミナミアルプスノウチカイタク,0
1584,7100003007406,新規,0,2024-02-19,2024-02-19,合同会社８７ｅｘｔｅｒｉｏｒ,,合同会社,長野県,塩尻市,大字片丘６５４１番地６,,20,215,3990711,,,,,,,2024-02-19,1,,,,,ハナエクステリア,0
1586,7110001038195,新規,0,2024-02-19,2024-02-19,株式会社見附都市開発,,株式会社,新潟県,見附市,今町７丁目１４１７番地４,,15,211,9540111,,,,,,,2024-02-19,1,,,,,ミツケトシカイハツ,0
1596,7120001262364,新規,0,2024-02-19,2024-02-19,ＯＥＭ　ＢＡＮＫ株式会社,,株式会社,大阪府,大阪市中央区,西心斎橋１丁目１３番１８号,,27,128,5420086,,,,,,,2024-02-19,1,,,,,オーイーエムバンク,0
1597,7120001262380,新規,0,2024-02-19,2024-02-19,株式会社Ｐａｒｆａｉｔ　Ｐｅａｋｓ,,株式会社,大阪府,大阪市西成区,旭１丁目４－２６,,27,122,5570032,,,,,,,2024-02-19,1,,,,,パフェピークス,0
1598,7120001262397,新規,0,2024-02-19,2024-02-19,＿盛宇株式会社,00133762,株式会社,大阪府,大阪市旭区,生江３丁目４－２０－２Ｅ,,27,117,5350004,,,,,,,2024-02-19,1,,,,,キンセイウ,0
1599,7120001262414,新規,0,2024-02-19,2024-02-19,丸矢ホールディングス株式会社,,株式会社,大阪府,大阪市福島区,海老江５丁目５番６号,,27,103,5530001,,,,,,,2024-02-19,1,,,,,マルヤホールディングス,0
1600,7120001262430,新規,0,2024-02-19,2024-02-19,関西アカウンティングサービス株式会社,,株式会社,大阪府,大阪市西区,江戸堀２丁目１－１江戸堀センタービルＢ１Ｆ,,27,106,5500002,,,,,,,2024-02-19,1,,,,,カンサイアカウンティングサービス,0
1601,7120001262447,新規,0,2024-02-19,2024-02-19,株式会社新日本ＥＡＴＵ,,株式会社,大阪府,大阪市浪速区,稲荷１丁目６番１６－８１１号,,27,111,5560023,,,,,,,2024-02-19,1,,,,,シンニホンイーツ,0
1602,7120003025959,新規,0,2024-02-19,2024-02-19,ＳＡＮＧ　ＳＡＮＧ合同会社,,合同会社,大阪府,寝屋川市,桜木町１０番１５号３Ｂ号室,,27,215,5720041,,,,,,,2024-02-19,1,,,,,サンサン,0
1603,7120003025967,新規,0,2024-02-19,2024-02-19,合同会社ＬｉＴ,,合同会社,大阪府,大阪市北区,扇町２丁目６番１７－１６０８号,,27,127,5300025,,,,,,,2024-02-19,1,,,,,エルアイティー,0
1604,7120005024166,新規,0,2024-02-19,2024-02-19,一般社団法人ビビディバビディ部,,その他の設立登記法人,大阪府,大阪市北区,末広町３番７号,,27,127,5300053,,,,,,,2024-02-19,1,,,,,ビビディバビディブ,0
1606,7120101069065,新規,0,2024-02-19,2024-02-19,株式会社ｔｈｒｅｅＤ,,株式会社,大阪府,堺市中区,深井中町１１５３番地２６,,27,142,5998272,,,,,,,2024-02-19,1,,,,,スリーディー,0
1611,7120901048771,新規,0,2024-02-19,2024-02-19,Ａ’ｚ株式会社,,株式会社,大阪府,高槻市,井尻２丁目３４番３号,,27,207,5690015,,,,,,,2024-02-19,1,,,,,アズ,0
1612,7120905006569,新規,0,2024-02-19,2024-02-19,一般社団法人アンビシャス,,その他の設立登記法人,大阪府,三島郡島本町,江川２丁目１１番１６号葵ビル１０１号室,,27,301,6180013,,,,,,,2024-02-19,1,,,,,アンビシャス,0
1621,7140001133373,新規,0,2024-02-19,2024-02-19,Ｌ　Ｄｉｎｉｎｇ株式会社,,株式会社,兵庫県,明石市,桜町１４－１９ＫＵＫＩビル１Ｆ,,28,203,6730885,,,,,,,2024-02-19,1,,,,,エルダイニング,0
1624,7140003020173,新規,0,2024-02-19,2024-02-19,合同会社よすが,,合同会社,兵庫県,高砂市,中筋４丁目７－３０エスターブレＡ２０３,,28,216,6760812,,,,,,,2024-02-19,1,,,,,ヨスガ,0
1633,7180001160141,新規,0,2024-02-19,2024-02-19,株式会社ユーリ,,株式会社,愛知県,名古屋市中区,栄１丁目１２番１３号タワー・ザ・ファースト名古屋伏見１１０２号,,23,106,4600008,,,,,,,2024-02-19,1,,,,,ユーリ,0
1642,7180301038335,新規,0,2024-02-19,2024-02-19,株式会社シーブリッジ企画,,株式会社,愛知県,豊橋市,大脇町字大脇１８番地６,,23,201,4413101,,,,,,,2024-02-19,1,,,,,シーブリッジキカク,0
1653,7290001104723,新規,0,2024-02-19,2024-02-19,株式会社ＮＥＸＴ,,株式会社,福岡県,太宰府市,御笠４丁目５番３号ＲｉｖｅｒＳｉｄｅＣａｓｔｌｅ弐番館１０８号,,40,221,8180110,,,,,,,2024-02-19,1,,,,,ネクスト,0
1654,7290001104764,新規,0,2024-02-19,2024-02-19,ひびきの電子株式会社,,株式会社,福岡県,福岡市博多区,上川端町９番３５号,,40,132,8120026,,,,,,,2024-02-19,1,,,,,ヒビキノデンシ,0
1657,7290003014961,新規,0,2024-02-19,2024-02-19,合同会社ＬＩＦＡＣＴ,,合同会社,福岡県,春日市,春日公園２丁目４９番地ＭＡＨ春日公園００４号室,,40,218,8160811,,,,,,,2024-02-19,1,,,,,リファクト,0
1658,7290003014986,新規,0,2024-02-19,2024-02-19,合同会社クラフトイット,,合同会社,福岡県,福岡市中央区,港１丁目９‐２６‐１１０２,,40,133,8100075,,,,,,,2024-02-19,1,,,,,クラフトイット,0
1664,7330001031764,新規,0,2024-02-19,2024-02-19,株式会社ミ・ウィル,,株式会社,熊本県,宇城市,松橋町西下郷３９９７番地４,,43,213,8690534,,,,,,,2024-02-19,1,,,,,ミウィル,0
1675,7370001050934,新規,0,2024-02-19,2024-02-19,株式会社くりあ,,株式会社,宮城県,栗原市,栗駒桜田高木９８番地,,04,213,9895322,,,,,,,2024-02-19,1,,,,,クリア,0
1682,7380003005687,新規,0,2024-02-19,2024-02-19,合同会社ＲｉｃｏＦｏｏｄｓ,,合同会社,福島県,いわき市,平字田町１２０番地ＬＡＴＯＶ６階いわき創業館シェアオフィス内,,07,204,9708026,,,,,,,2024-02-19,1,,,,,リコフーズ,0
1687,7440003001572,新規,0,2024-02-19,2024-02-19,ＥＺＯ　ＤＥＦ　ＬＯＤＧＥ合同会社,,合同会社,北海道,久遠郡せたな町,瀬棚区三本杉９４,,01,371,0494821,,,,,,,2024-02-19,1,,,,,エゾデフロッジ,0
1688,7450001014229,新規,0,2024-02-19,2024-02-19,株式会社Ｗｉｎｇ　Ｇａｔｅ,,株式会社,北海道,天塩郡幌延町,字幌延１５７番地１,,01,520,0983223,,,,,,,2024-02-19,1,,,,,ウイングゲート,0
1691,7470003002584,新規,0,2024-02-19,2024-02-19,Ｒ５０合同会社,,合同会社,香川県,丸亀市,飯野町東分２４２６番地５,,37,202,7630085,,,,,,,2024-02-19,1,,,,,アールゴジュウ,0
1693,7700150124034,新規,0,2024-02-19,2024-02-19,Ｇｕａｎｇｚｈｏｕ　Ｄｕｏｍｅｉｌｉ　Ｆｕｓｈｉ　Ｙｏｕｘｉａｎ　Ｇｏｎｇｓｉ,,外国会社等,,,,,,,,Ｔｉａｎｈｅ　Ｑｕ　Ｈｕａｊｉｎｇ　Ｌｕ１６９　Ｈａｏ　４０３　Ｆａｎｇ　Ｇｕａｎｇｚｈｏｕ　Ｇｕａｎｇｄｏｎｇ,,,,,,2024-02-19,1,,,,,コウシュウドウメイリフシユウゲンコウシ,0
1694,7700150124042,新規,0,2024-02-19,2024-02-19,ＹｉＷｕ　ＣｈａｎｇＭａｏ　ＤｉａｎＺｉ　ＳｈａｎｇＷｕ　ＹｏｕＸｉａｎ　ＧｏｎｇＳｉ,,外国会社等,,,,,,,,ＣｈｏｕＪｉａｎｇＪｉｅＤａｏ　ＬｏｕＸｉａＣｕｎ　ＳａｎＱｕ１０ｚｈｕａｎｇ　２ｄａｎＹｕａｎ　２０１ｓｈｉＹｉＷｕＺｈｅＪｉａｎｇ　ＣＮ,,,,,,2024-02-19,1,,,,,イウチャンマオデンシショウムユウゲンコウシ,0
1695,7700150124050,新規,0,2024-02-19,2024-02-19,ｓｈｅｎｚｈｅｎｓｈｉｍｉｎｇｒｕｉｃｈｕａｎｇｓｈａｎｇｍａｏｙｏｕｘｉａｎｇｏｎｇｓｉ,,外国会社等,,,,,,,,ＳｈｅｎＺｈｅｎＳｈｉ　ＬｏｎｇＨｕａＱｕ　ＬｏｎｇＨｕａＪｉｅＤａｏＨｕａＬｉａｎＳｈｅＱｕＨｅＢｅｉＳｈａｎｇＺｈｕＬｏｕ４ＨａｏＤａＬａｎｇＮａｎＬｕ２６８Ｈａｏ,,,,,,2024-02-19,1,,,,,シンセンシミンルイツゥアンシャンマオユウゲンコウシ,0
1703,8010001242401,新規,0,2024-02-19,2024-02-19,株式会社Ｙ＆Ｎ　Ｃｏｌｌｅｃｔｉｏｎ,,株式会社,東京都,千代田区,外神田２丁目１５番８－７０５号,,13,101,1010021,,,,,,,2024-02-19,1,,,,,ワイアンドエヌコレクション,0
1704,8010001242426,新規,0,2024-02-19,2024-02-19,ファッションフォトグラフィー映像株式会社,,株式会社,東京都,千代田区,神田駿河台２丁目１－１９アルベルゴお茶の水９０１号,,13,101,1010062,,,,,,,2024-02-19,1,,,,,ファッションフォトグラフィーエイゾウ,0
1705,8010003042964,新規,0,2024-02-19,2024-02-19,Ｊａｐａｎ　Ａｄｖｉｓｏｒｙ　Ｓｅｒｖｉｃｅｓ合同会社,,合同会社,東京都,中央区,日本橋本町２丁目２番２号日本橋本町ＹＳビル２階在日フランス商工会議所内,,13,102,1030023,,,,,,,2024-02-19,1,,,,,ジャパンアドバイザリーサービシーズ,0
1711,8010401180440,新規,0,2024-02-19,2024-02-19,Ｏｒｂｉｔ　Ｍａｎａｇｅｍｅｎｔ株式会社,,株式会社,東京都,港区,南青山２丁目２番１５号,,13,103,1070062,,,,,,,2024-02-19,1,,,,,オービットマネージメント,0
1712,8010401180473,新規,0,2024-02-19,2024-02-19,ＬＳ‐ＳＨＩＰ第５９号株式会社,,株式会社,東京都,港区,六本木１丁目６番１号,,13,103,1060032,,,,,,,2024-02-19,1,,,,,エルエスシップダイゴジュウキュウゴウ,0
1713,8010403031988,新規,0,2024-02-19,2024-02-19,合同会社ＪＯＥ,,合同会社,東京都,港区,北青山１丁目３番１号アールキューブ青山３階,,13,103,1070061,,,,,,,2024-02-19,1,,,,,ジェーオーイー,0
1714,8010405022977,新規,0,2024-02-19,2024-02-19,一般社団法人ＳＨ０７２,,その他の設立登記法人,東京都,港区,虎ノ門３丁目２２番１０－２０１号,,13,103,1050001,,,,,,,2024-02-19,1,,,,,エスエイチゼロセブンツー,0
1717,8010603010651,新規,0,2024-02-19,2024-02-19,合同会社未来力,,合同会社,東京都,江東区,有明３丁目７－２６有明フロンティアＢ棟９階,,13,108,1350063,,,,,,,2024-02-19,1,,,,,ミライパワー,0
1725,8011001160031,新規,0,2024-02-19,2024-02-19,株式会社ＳＥＧｕｉｌｄ,,株式会社,東京都,目黒区,上目黒１丁目１６番１２号,,13,110,1530051,,,,,,,2024-02-19,1,,,,,エスイーギルド,0
1726,8011001160089,新規,0,2024-02-19,2024-02-19,Ｂｕｓｉｎｅｓｓ　Ａｒｒｏｗ株式会社,,株式会社,東京都,渋谷区,恵比寿４丁目２０番３号恵比寿ガーデンプレイスタワー１８階,,13,113,1500013,,,,,,,2024-02-19,1,,,,,ビジネスアロー,0
1727,8011001160097,新規,0,2024-02-19,2024-02-19,株式会社ムロフィス,,株式会社,東京都,渋谷区,神宮前２丁目３１番７号ビラ・グロリア１００２号室,,13,113,1500001,,,,,,,2024-02-19,1,,,,,ムロフィス,0
1728,8011001160106,新規,0,2024-02-19,2024-02-19,株式会社ＭＵＭＭＥＲ,,株式会社,東京都,渋谷区,恵比寿西２丁目４番８号ウィンド恵比寿ビル８Ｆ,,13,113,1500021,,,,,,,2024-02-19,1,,,,,ママー,0
1729,8011001160122,新規,0,2024-02-19,2024-02-19,株式会社ウキヨネ,,株式会社,東京都,目黒区,祐天寺１丁目９番６号,,13,110,1530052,,,,,,,2024-02-19,1,,,,,ウキヨネ,0
1731,8011003018491,新規,0,2024-02-19,2024-02-19,合同会社ごりごり,,合同会社,東京都,目黒区,目黒本町４丁目３－１３,,13,110,1520002,,,,,,,2024-02-19,1,,,,,ゴリゴリ,0
1732,8011003018500,新規,0,2024-02-19,2024-02-19,合同会社Ｔｏｋｙｏ　ｉｎｎ,,合同会社,東京都,渋谷区,渋谷２丁目１９－１５宮益坂ビルディング６０９,,13,113,1500002,,,,,,,2024-02-19,1,,,,,トウキョウイン,0
1737,8011101106215,新規,0,2024-02-19,2024-02-19,ｄ．ｔｅａｍ株式会社,,株式会社,東京都,新宿区,西新宿３丁目３番１３号西新宿水間ビル６階,,13,104,1600023,,,,,,,2024-02-19,1,,,,,ディーチーム,0
1752,8012403006417,新規,0,2024-02-19,2024-02-19,合同会社ＴＥＡＭ　ＰＯＳＳＯ,,合同会社,東京都,府中市,若松町２丁目７番地の５２東府中パーク・ホームズ５０４,,13,206,1830005,,,,,,,2024-02-19,1,,,,,チームポッソ,0
1753,8012701018089,新規,0,2024-02-19,2024-02-19,株式会社勇希巧業,,株式会社,東京都,小平市,喜平町１丁目１３番２８号,,13,211,1870044,,,,,,,2024-02-19,1,,,,,ユウキコウギョウ,0
1755,8012805003251,新規,0,2024-02-19,2024-02-19,一般社団法人Ｔｏｋｙｏ　Ｔａｍａ　Ｓｐｏｒｔｓ　Ａｓｓｏｃｉａｔｉｏｎ,,その他の設立登記法人,東京都,日野市,新町５丁目１８番地の１,,13,212,1910002,,,,,,,2024-02-19,1,,,,,トーキョータマスポーツアソシエーション,0
1760,8020001155858,新規,0,2024-02-19,2024-02-19,株式会社ＩＮ　Ｃ,,株式会社,神奈川県,川崎市中原区,宮内２丁目１５番２０号,,14,133,2110051,,,,,,,2024-02-19,1,,,,,インシー,0
1763,8020003025555,新規,0,2024-02-19,2024-02-19,ＧＲＡＮＤ　ＬＡＮＫＡ合同会社,,合同会社,神奈川県,横浜市鶴見区,獅子ケ谷２丁目３７番１８号ユナイト大倉山デヴィトリー１１０号室,,14,101,2300073,,,,,,,2024-02-19,1,,,,,グランドランカ,0
1764,8020003025571,新規,0,2024-02-19,2024-02-19,合同会社ベルメディカル,,合同会社,神奈川県,横浜市青葉区,みすずが丘２４番地１５,,14,117,2250016,,,,,,,2024-02-19,1,,,,,ベルメディカル,0
1773,8030001158736,新規,0,2024-02-19,2024-02-19,グッドライフ株式会社,,株式会社,埼玉県,所沢市,三ケ島４丁目２４１２番地の１７,,11,208,3591164,,,,,,,2024-02-19,1,,,,,グッドライフ,0
1774,8030001158752,新規,0,2024-02-19,2024-02-19,ロジプラス株式会社,,株式会社,埼玉県,三郷市,駒形８６番地,,11,237,3410008,,,,,,,2024-02-19,1,,,,,ロジプラス,0
1780,8030003023649,新規,0,2024-02-19,2024-02-19,Ｈａｎｅｄａ　Ｆｕｕｆｕ合同会社,,合同会社,埼玉県,さいたま市西区,宮前町６３３－１３,,11,101,3310046,,,,,,,2024-02-19,1,,,,,ハネダフウフ,0
1787,8040003024340,新規,0,2024-02-19,2024-02-19,ＷＩＮＤ＆ＰＨＹＳＩＣＳ合同会社,,合同会社,千葉県,佐倉市,江原新田２２番３号,,12,212,2850823,,,,,,,2024-02-19,1,,,,,ウインドアンドフィジクス,0
1796,8060003004910,新規,0,2024-02-19,2024-02-19,合同会社Ｇ３,,合同会社,栃木県,小山市,駅東通り２丁目８番１号小山ステーションヒルズ２０６号,,09,208,3230022,,,,,,,2024-02-19,1,,,,,ジースリー,0
1800,8070005010229,新規,0,2024-02-19,2024-02-19,役原施業森林組合,,その他の設立登記法人,群馬県,吾妻郡高山村,大字尻高甲３０２５番地,,10,428,3770701,,,,,,,2024-02-19,1,,,,,,0
1811,8090003002498,新規,0,2024-02-19,2024-02-19,合同会社Ｔｅｒａｔｅｒａ,,合同会社,山梨県,韮崎市,旭町上條北割１９９１番地３７,,19,207,4070044,,,,,,,2024-02-19,1,,,,,テラテラ,0
1812,8100001037222,新規,0,2024-02-19,2024-02-19,株式会社日ノ本企画,,株式会社,長野県,松本市,井川城２丁目１６－２７－１,,20,202,3900831,,,,,,,2024-02-19,1,,,,,ヒノモトキカク,0
1814,8110001038194,新規,0,2024-02-19,2024-02-19,ｋｉｒｅｉ‐ｖｉｓｉｏｎ株式会社,,株式会社,新潟県,新潟市江南区,横越川根町３丁目１０番６号,,15,104,9500211,,,,,,,2024-02-19,1,,,,,キレイビジョン,0
1820,8120001262280,新規,0,2024-02-19,2024-02-19,創未来株式会社,,株式会社,大阪府,大阪市東住吉区,湯里４丁目７－１９－１０１,,27,121,5460013,,,,,,,2024-02-19,1,,,,,ソウミライ,0
1821,8120001262347,新規,0,2024-02-19,2024-02-19,株式会社ａｓｓｉｓｔ,,株式会社,大阪府,大阪市北区,本庄西２丁目１３番２２－２０１号,,27,127,5310073,,,,,,,2024-02-19,1,,,,,アシスト,0
1822,8120001262363,新規,0,2024-02-19,2024-02-19,ケアフルハーモニー株式会社,,株式会社,大阪府,大阪市西成区,花園北２丁目８番１３号,,27,122,5570016,,,,,,,2024-02-19,1,,,,,ケアフルハーモニー,0
1823,8120001262396,新規,0,2024-02-19,2024-02-19,帰言貿易株式会社,,株式会社,大阪府,大阪市旭区,生江３丁目４－２０－４Ｄ,,27,117,5350004,,,,,,,2024-02-19,1,,,,,キゲンボウエキ,0
1824,8120001262413,新規,0,2024-02-19,2024-02-19,株式会社克信,,株式会社,大阪府,大阪市浪速区,幸町２丁目３番４－８０１号,,27,111,5560021,,,,,,,2024-02-19,1,,,,,コクシン,0
1825,8120001262446,新規,0,2024-02-19,2024-02-19,株式会社ツガワ,,株式会社,大阪府,大阪市淀川区,木川東２丁目４番１０－１０２号,,27,123,5320012,,,,,,,2024-02-19,1,,,,,ツガワ,0
1828,8120003025933,新規,0,2024-02-19,2024-02-19,ＪＥＯＮ合同会社,,合同会社,大阪府,大阪市生野区,桃谷４丁目４番１１号,,27,116,5440034,,,,,,,2024-02-19,1,,,,,ジェオン,0
1829,8120003025958,新規,0,2024-02-19,2024-02-19,侍セレクト合同会社,,合同会社,大阪府,大阪市港区,南市岡１丁目１１番８－１０１号,,27,107,5520011,,,,,,,2024-02-19,1,,,,,サムライセレクト,0
1832,8120101069072,新規,0,2024-02-19,2024-02-19,ノーブル・メディケア・ジャパン株式会社,,株式会社,大阪府,堺市北区,百舌鳥赤畑町１丁６番地１－４１０号,,27,146,5918037,,,,,,,2024-02-19,1,,,,,ノーブルメディケアジャパン,0
1833,8120901048770,新規,0,2024-02-19,2024-02-19,株式会社ＶＯＬＴＭＩＮＤ,,株式会社,大阪府,豊中市,稲津町３丁目５番１０－３０１号,,27,203,5610854,,,,,,,2024-02-19,1,,,,,ボルトマインド,0
1839,8130001076399,新規,0,2024-02-19,2024-02-19,タラコクサイ株式会社,,株式会社,京都府,京都市南区,上鳥羽苗代町３６番地２号スウィングマンション４階４０３室,,26,107,6018111,,,,,,,2024-02-19,1,,,,,タラコクサイ,0
1842,8130005017003,新規,0,2024-02-19,2024-02-19,洛西上里チャペル,,その他の設立登記法人,京都府,京都市西京区,大原野上里北ノ町７６７番地,,26,111,6101121,,,,,,,2024-02-19,1,,,,,ラクサイカミサトチャペル,0
1849,8140001133372,新規,0,2024-02-19,2024-02-19,株式会社リハビリモンスター,,株式会社,兵庫県,芦屋市,業平町２番１０号,,28,206,6590068,,,,,,,2024-02-19,1,,,,,リハビリモンスター,0
1852,8150001027086,新規,0,2024-02-19,2024-02-19,株式会社藤谷保険事務所,,株式会社,奈良県,五條市,犬飼町６１番地,,29,207,6370072,,,,,,,2024-02-19,1,,,,,フジタニホケンジムショ,0
1858,8160003003118,新規,0,2024-02-19,2024-02-19,合同会社俳句てふてふ,,合同会社,滋賀県,大津市,本堅田２丁目１８番１２号,,25,201,5200242,,,,,,,2024-02-19,1,,,,,ハイクテフテフ,0
1863,8180001160198,新規,0,2024-02-19,2024-02-19,株式会社ＴＫＹ,,株式会社,愛知県,名古屋市中区,丸の内３丁目２１番２１号,,23,106,4600002,,,,,,,2024-02-19,1,,,,,ティーケーワイ,0
1870,8180301038334,新規,0,2024-02-19,2024-02-19,株式会社Ｒｉｃｅ,,株式会社,愛知県,岡崎市,保母町字立川１０番地５,,23,202,4440004,,,,,,,2024-02-19,1,,,,,ライス,0
1873,8190001031118,新規,0,2024-02-19,2024-02-19,ザ・クイーンオブオールバックズ株式会社,,株式会社,三重県,津市,藤方８３１番地,,24,201,5140815,,,,,,,2024-02-19,1,,,,,ザクイーンオブオールバックズ,0
1874,8200001042179,新規,0,2024-02-19,2024-02-19,株式会社ＹＳＲ５,,株式会社,岐阜県,瑞穂市,牛牧字五反田５０７番地１ブリギアンシー１０１,,21,216,5010234,,,,,,,2024-02-19,1,,,,,ワイエスアールファイブ,0
1879,8240003006541,新規,0,2024-02-19,2024-02-19,広島おてがる引越運送合同会社,,合同会社,広島県,広島市西区,草津南３丁目４番１０－３０１号,,34,104,7330863,,,,,,,2024-02-19,1,,,,,ヒロシマオテガルヒッコシウンソウ,0
1885,8290001104739,新規,0,2024-02-19,2024-02-19,株式会社Ｔ‐Ｎ‐Ｍ,,株式会社,福岡県,福岡市中央区,荒戸２丁目３番１７－１４０５号,,40,133,8100062,,,,,,,2024-02-19,1,,,,,ティエヌエム,0
1894,8290005019297,新規,0,2024-02-19,2024-02-19,特定非営利活動法人フリースクール学び舎福岡,,その他の設立登記法人,福岡県,柳川市,三橋町高畑２０４番地２,,40,207,8320826,,,,,,,2024-02-19,1,,,,,フリースクールマナビヤフクオカ,0
1898,8330001031763,新規,0,2024-02-19,2024-02-19,株式会社益崎,,株式会社,熊本県,菊池市,袈裟尾１０２１番地,,43,210,8611325,,,,,,,2024-02-19,1,,,,,マスザキ,0
1900,8330003010220,新規,0,2024-02-19,2024-02-19,合同会社ＣＯＣＯＩＲＯ,,合同会社,熊本県,菊池市,木柑子石原１７７５番地２,,43,210,8611315,,,,,,,2024-02-19,1,,,,,ココイロ,0
1901,8340001026291,新規,0,2024-02-19,2024-02-19,カレイドフォレスト株式会社,,株式会社,鹿児島県,熊毛郡屋久島町,尾之間５００番地１,,46,505,8914404,,,,,,,2024-02-19,1,,,,,カレイドフォレスト,0
1909,8370001050941,新規,0,2024-02-19,2024-02-19,株式会社マルワテック,,株式会社,宮城県,石巻市,中屋敷１丁目５番２８号サザンブリーズ２０１号,,04,202,9860849,,,,,,,2024-02-19,1,,,,,マルワテック,0
1925,8440003001571,新規,0,2024-02-19,2024-02-19,ロータスハウス合同会社,,合同会社,北海道,亀田郡七飯町,本町６丁目３番２８号,,01,337,0411111,,,,,,,2024-02-19,1,,,,,ロータスハウス,0
1931,8700150124033,新規,0,2024-02-19,2024-02-19,ｓｈｅｎｚｈｅｎｓｈｉｘｉｘｉｌｉｓｈａｎｇｍａｏｙｏｕｘｉａｎｇｏｎｇｓｉ,,外国会社等,,,,,,,,Ｒｏｏｍ２０２，Ｂｕｉｌｄｉｎｇ　Ｎｏ．１，Ｐｉｎｇｌｉ　Ｇａｒｄｅｎ，Ｎｏ．４１０６，Ｘｉｌｉｈｕ　Ｒｏａｄ，Ｌｉｈｕ　Ｃｏｍｍｕｎｉｔｙ，Ｘｉｌｉ　Ｓｔｒｅｅｔ，Ｎａｎｓｈａｎ　Ｄｉｓｔｒｉｃｔ，Ｓｈｅｎｚｈｅｎ，Ｇｕａｎｇｄｏｎｇ,,,,,,2024-02-19,1,,,,,シンセンシシシリシャンマオユウゲンコウシ,0
1932,8700150124041,新規,0,2024-02-19,2024-02-19,Ｇｕａｎｇｚｈｏｕ　Ｙｕｃｈａｎｇ　Ｄｉａｎｚｉ　Ｓｈａｎｇｗｕ　Ｙｏｕｘｉａｎ　Ｇｏｎｇｓｉ,,外国会社等,,,,,,,,Ｇｕａｎｇｚｈｏｕ　Ｔｉａｎｈｅ　Ｑｕ　Ｌｏｎｇｄｏｎｇｄｏｎｇ　Ｊｉｅ　Ｙｉｎｇｘｉａｎｇ　Ｌｉ　２５　Ｈａｏ　２０８　Ｆａｎｇ,,,,,,2024-02-19,1,,,,,コウシュウユチャンデンシショウムユウゲンコウシ,0
1938,9010001242284,新規,0,2024-02-19,2024-02-19,株式会社ノンティア,,株式会社,東京都,千代田区,神田北乗物町２番地神田乗物町ビル４０２号室,,13,101,1010036,,,,,,,2024-02-19,1,,,,,ノンティア,0
1939,9010001242359,新規,0,2024-02-19,2024-02-19,株式会社レイリー,,株式会社,東京都,中央区,勝どき６丁目３番１－２３１８号,,13,102,1040054,,,,,,,2024-02-19,1,,,,,レイリー,0
1941,9010003042971,新規,0,2024-02-19,2024-02-19,晴海商事合同会社,,合同会社,東京都,千代田区,神田和泉町１番地６－１６ヤマトビル４０５,,13,101,1010024,,,,,,,2024-02-19,1,,,,,ハルミショウジ,0
1944,9010401180398,新規,0,2024-02-19,2024-02-19,ＰｒｏｐＴｅｃｈ　Ｊａｐａｎ株式会社,,株式会社,東京都,港区,東麻布１丁目１２番５号ＡＣＮ東麻布ビル６階,,13,103,1060044,,,,,,,2024-02-19,1,,,,,プロップテックジャパン,0
1945,9010401180448,新規,0,2024-02-19,2024-02-19,ミライズ・キャピタル株式会社,,株式会社,東京都,港区,虎ノ門１丁目２番６号,,13,103,1050001,,,,,,,2024-02-19,1,,,,,ミライズキャピタル,0
1946,9010401180456,新規,0,2024-02-19,2024-02-19,株式会社ＣｏＤａＭａ,,株式会社,東京都,港区,愛宕２丁目５番１号愛宕グリーンヒルズＭＯＲＩタワー３４Ｆ,,13,103,1050002,,,,,,,2024-02-19,1,,,,,コダマ,0
1947,9010401180472,新規,0,2024-02-19,2024-02-19,ＬＳ‐ＳＨＩＰ第５８号株式会社,,株式会社,東京都,港区,六本木１丁目６番１号,,13,103,1060032,,,,,,,2024-02-19,1,,,,,エルエスシップダイゴジュウハチゴウ,0
1949,9010403031979,新規,0,2024-02-19,2024-02-19,合同会社カネスギ,,合同会社,東京都,港区,六本木５丁目１７番１４－３０１号,,13,103,1060032,,,,,,,2024-02-19,1,,,,,カネスギ,0
1950,9010405022968,新規,0,2024-02-19,2024-02-19,一般社団法人西川矯正審美会,,その他の設立登記法人,東京都,港区,浜松町２丁目２番１５号浜松町ダイヤビル２Ｆ,,13,103,1050013,,,,,,,2024-02-19,1,,,,,ニシカワキョウセイシンビカイ,0
1951,9010405022976,新規,0,2024-02-19,2024-02-19,一般社団法人ＳＨ０７１,,その他の設立登記法人,東京都,港区,虎ノ門３丁目２２番１０－２０１号,,13,103,1050001,,,,,,,2024-02-19,1,,,,,エスエイチゼロセブンワン,0
1956,9010701045573,新規,0,2024-02-19,2024-02-19,株式会社ＩＳＩ,,株式会社,東京都,品川区,西大井５丁目１５番２２号,,13,109,1400015,,,,,,,2024-02-19,1,,,,,アイエスアイ,0
1963,9010903008832,新規,0,2024-02-19,2024-02-19,合同会社ＳＫＹ　ＲＡＩＮＢＯＷ,,合同会社,東京都,世田谷区,上北沢５丁目２１番２２－１０７号,,13,112,1560057,,,,,,,2024-02-19,1,,,,,スカイレインボー,0
1964,9010903008840,新規,0,2024-02-19,2024-02-19,合同会社モーニング・グローリーＡＤ,,合同会社,東京都,世田谷区,船橋２丁目２１番２５号ハイツ杉山２０Ａ,,13,112,1560055,,,,,,,2024-02-19,1,,,,,モーニンググローリーエーディー,0
1969,9011001160096,新規,0,2024-02-19,2024-02-19,インキュベーション・ゼロ株式会社,,株式会社,東京都,渋谷区,代々木４丁目２７番２６号ベルテ西参道４１１,,13,113,1510053,,,,,,,2024-02-19,1,,,,,インキュベーションゼロ,0
1970,9011001160113,新規,0,2024-02-19,2024-02-19,ＡＮＱＩ国際株式会社,,株式会社,東京都,渋谷区,千駄ヶ谷３丁目５番１５号,,13,113,1510051,,,,,,,2024-02-19,1,,,,,アンキコクサイ,0
1975,9011103014101,新規,0,2024-02-19,2024-02-19,合同会社ＳＵＣＯＮＥ,,合同会社,東京都,新宿区,西新宿６丁目５番１号新宿アイランドタワー２階,,13,104,1600023,,,,,,,2024-02-19,1,,,,,スーコネ,0
1980,9011301029413,新規,0,2024-02-19,2024-02-19,株式会社プロジェクト・エース,,株式会社,東京都,杉並区,阿佐谷南１丁目３４番６号,,13,115,1660004,,,,,,,2024-02-19,1,,,,,プロジェクトエース,0
1982,9011601027538,新規,0,2024-02-19,2024-02-19,峯三株式会社,,株式会社,東京都,練馬区,早宮３丁目１２番１６号,,13,120,1790085,,,,,,,2024-02-19,1,,,,,ミネミツ,0
1985,9011801043806,新規,0,2024-02-19,2024-02-19,丸航株式会社,,株式会社,東京都,葛飾区,東新小岩６丁目１２－５－１Ｆ,,13,122,1240023,,,,,,,2024-02-19,1,,,,,マルコウ,0
1987,9012401041539,新規,0,2024-02-19,2024-02-19,株式会社ＴＨＲＥＥ　ＩＮ　ＴＨＥ　ＢＬＡＣＫ,,株式会社,東京都,府中市,四谷３丁目６４番地の１２１,,13,206,1830035,,,,,,,2024-02-19,1,,,,,スリーインザブラック,0
1990,9013103001310,新規,0,2024-02-19,2024-02-19,オルヴォワール合同会社,,合同会社,東京都,福生市,北田園１丁目１４番地９,,13,218,1970005,,,,,,,2024-02-19,1,,,,,オルヴォワール,0
1992,9013301052056,新規,0,2024-02-19,2024-02-19,株式会社Ｄｅｅｄ　Ｃｏｒｅ,,株式会社,東京都,豊島区,西池袋２丁目３９－８ローズベイ池袋１１０２,,13,116,1710021,,,,,,,2024-02-19,1,,,,,ディードコア,0
2006,9020001155849,新規,0,2024-02-19,2024-02-19,株式会社ＯＧＡ,,株式会社,神奈川県,川崎市中原区,西加瀬７－１２,,14,133,2110024,,,,,,,2024-02-19,1,,,,,オージーエー,0
2007,9020001155865,新規,0,2024-02-19,2024-02-19,株式会社ＩＢＥＲＩＳ,,株式会社,神奈川県,横浜市西区,浅間町１丁目４番３号ウィザードビル４０２,,14,103,2200072,,,,,,,2024-02-19,1,,,,,イベリス,0
2012,9020003025562,新規,0,2024-02-19,2024-02-19,ＪＣＣ　ｂｌｏｏｍ合同会社,,合同会社,神奈川県,横浜市保土ケ谷区,宮田町３丁目２９６番地１５,,14,106,2400002,,,,,,,2024-02-19,1,,,,,ジェーシーシーブルーム,0
2014,9021001081481,新規,0,2024-02-19,2024-02-19,株式会社フェイスリアルティ,,株式会社,神奈川県,藤沢市,藤沢９６６番地３－５Ｆ,,14,205,2510052,,,,,,,2024-02-19,1,,,,,フェイスリアルティ,0
2015,9021001081515,新規,0,2024-02-19,2024-02-19,株式会社イーリス,,株式会社,神奈川県,相模原市緑区,上九沢３３８番地１ビュー石宮２０２,,14,151,2520136,,,,,,,2024-02-19,1,,,,,イーリス,0
2024,9030001158702,新規,0,2024-02-19,2024-02-19,株式会社Ｎアセットマネジメント,,株式会社,埼玉県,さいたま市浦和区,東仲町１１番２０－１１０３号,,11,107,3300056,,,,,,,2024-02-19,1,,,,,エヌアセットマネジメント,0
2025,9030001158743,新規,0,2024-02-19,2024-02-19,株式会社Ｐｌａｎ　Ｔ,,株式会社,埼玉県,所沢市,松が丘２丁目３１番地の３,,11,208,3591132,,,,,,,2024-02-19,1,,,,,プランティー,0
2026,9030001158768,新規,0,2024-02-19,2024-02-19,株式会社ラムダ,,株式会社,埼玉県,熊谷市,見晴町１５０番地２０２号,,11,202,3600824,,,,,,,2024-02-19,1,,,,,ラムダ,0
2037,9030003023664,新規,0,2024-02-19,2024-02-19,合同会社ＣＲＵＸ,,合同会社,埼玉県,本庄市,本庄３丁目１２番９号サングリーンコーポ２０３,,11,211,3670051,,,,,,,2024-02-19,1,,,,,クラクス,0
2043,9040001132243,新規,0,2024-02-19,2024-02-19,株式会社協和建設稲毛,,株式会社,千葉県,千葉市稲毛区,小中台三丁目２－２ラバージュ稲毛１階,,12,103,2630000,,,,,,,2024-02-19,1,,,,,キョウワケンセツイナゲ,0
2045,9040003024348,新規,0,2024-02-19,2024-02-19,合同会社スプレッツ,,合同会社,千葉県,千葉市花見川区,柏井４丁目３５番１号ホイザー鷹の台１０１号,,12,102,2620048,,,,,,,2024-02-19,1,,,,,スプレッツ,0
2046,9050001054313,新規,0,2024-02-19,2024-02-19,株式会社ライノ,,株式会社,茨城県,水戸市,見和３丁目１５１５番地の３１,,08,201,3100911,,,,,,,2024-02-19,1,,,,,ライノ,0
2047,9050003008143,新規,0,2024-02-19,2024-02-19,合同会社ＯＨＡＮＡ,,合同会社,茨城県,筑西市,樋口１３００番地９１,,08,227,3080001,,,,,,,2024-02-19,1,,,,,オハナ,0
2049,9060001036839,新規,0,2024-02-19,2024-02-19,スマイリープラス株式会社,,株式会社,栃木県,宇都宮市,豊郷台３丁目３１番地１,,09,201,3200003,,,,,,,2024-02-19,1,,,,,スマイリープラス,0
2051,9060003004918,新規,0,2024-02-19,2024-02-19,合同会社ＳＰＥＲＡ,,合同会社,栃木県,栃木市,藤岡町藤岡１４６３－１,,09,203,3231104,,,,,,,2024-02-19,1,,,,,スペラ,0
2052,9060005010170,新規,0,2024-02-19,2024-02-19,一般社団法人Ｃｈｅｅｒ　Ｖｉｓｉｏｎ,,その他の設立登記法人,栃木県,宇都宮市,駒生町３３７１番地３０,,09,201,3200065,,,,,,,2024-02-19,1,,,,,チアビジョン,0
2056,9080103002984,新規,0,2024-02-19,2024-02-19,合同会社中川サービス,,合同会社,静岡県,伊豆市,月ケ瀬６１番地の２,,22,222,4103215,,,,,,,2024-02-19,1,,,,,ナカガワサービス,0
2060,9100001037221,新規,0,2024-02-19,2024-02-19,株式会社Ａｃｃｅｓｓ　Ｃｏｒｅ,,株式会社,長野県,上田市,中央４丁目６番１６号,,20,203,3860012,,,,,,,2024-02-19,1,,,,,アクセスコア,0
2068,9120001262305,新規,0,2024-02-19,2024-02-19,東京虎門株式会社,,株式会社,大阪府,大阪市西成区,岸里東１丁目２９－３フォレストゲート岸里東２０２号室,,27,122,5570042,,,,,,,2024-02-19,1,,,,,トウキョウトラモン,0
2069,9120001262346,新規,0,2024-02-19,2024-02-19,Ｆｉｆｔｙ　Ｆｉｖｅ株式会社,,株式会社,大阪府,大阪市中央区,東心斎橋２丁目１番５号ゴールデン第一プラザビル２階２０２号室,,27,128,5420083,,,,,,,2024-02-19,1,,,,,フィフティーファイブ,0
2070,9120001262420,新規,0,2024-02-19,2024-02-19,株式会社ｍｅｄｉｃａｌ　Ｋ＆Ｈ,,株式会社,大阪府,大阪市阿倍野区,松崎町３丁目１番１５号,,27,119,5450053,,,,,,,2024-02-19,1,,,,,メディカルケイアンドエイチ,0
2071,9120001262437,新規,0,2024-02-19,2024-02-19,株式会社ＡＬＩＴＯ,,株式会社,大阪府,大阪市中央区,安堂寺町２丁目６番３４号,,27,128,5420061,,,,,,,2024-02-19,1,,,,,アリト,0
2072,9120001262461,新規,0,2024-02-19,2024-02-19,株式会社Ｌｉｖｅ　Ｗｏｒｋ　Ｃｏｎｎｅｃｔ,,株式会社,大阪府,大阪市浪速区,難波中３丁目３番１０号ナンバ清水ビル４階２３号,,27,111,5560011,,,,,,,2024-02-19,1,,,,,リブワークコネクト,0
2073,9120003025949,新規,0,2024-02-19,2024-02-19,合同会社Ｐｅａｃｅ・なび,,合同会社,大阪府,大阪市中央区,南船場２丁目６番２９号,,27,128,5420081,,,,,,,2024-02-19,1,,,,,ピースナビ,0
2074,9120003025957,新規,0,2024-02-19,2024-02-19,ＢＩＮ　Ｇｒｏｕｐ合同会社,,合同会社,大阪府,大阪市浪速区,元町１丁目３番１８号難波ミツミコープ４０５号室,,27,111,5560016,,,,,,,2024-02-19,1,,,,,ビングループ,0
2076,9120101069055,新規,0,2024-02-19,2024-02-19,株式会社あけぼの商会,,株式会社,大阪府,堺市堺区,海山町１丁５番地１６,,27,141,5900982,,,,,,,2024-02-19,1,,,,,アケボノショウカイ,0
2077,9120101069063,新規,0,2024-02-19,2024-02-19,株式会社ＰＡＰＡＭＡＭＡＣＡＲＳ,,株式会社,大阪府,富田林市,喜志新家町１丁目４０４０－１,,27,214,5840003,,,,,,,2024-02-19,1,,,,,パパママカーズ,0
2093,9140001133363,新規,0,2024-02-19,2024-02-19,株式会社オネストワーク,,株式会社,兵庫県,神戸市中央区,海岸通５丁目２番２号２０７号室,,28,110,6500024,,,,,,,2024-02-19,1,,,,,オネストワーク,0
2097,9150003003183,新規,0,2024-02-19,2024-02-19,合同会社ＡＳＴＲＯ１,,合同会社,奈良県,橿原市,四条町２０番地の２５,,29,205,6340813,,,,,,,2024-02-19,1,,,,,アストロワン,0
2099,9180001022835,新規,0,2024-02-19,2024-02-19,株式会社丸熱,,株式会社,愛知県,名古屋市熱田区,川並町２番２２号,,23,109,4560072,,,,,,,2024-02-19,1,,,,,マルネツ,0
2108,9180003026347,新規,0,2024-02-19,2024-02-19,合同会社ピーチ＆セブン,,合同会社,愛知県,名古屋市南区,内田橋２丁目７番１７号,,23,112,4570862,,,,,,,2024-02-19,1,,,,,ピーチアンドセブン,0
2109,9180005020496,新規,0,2024-02-19,2024-02-19,一般社団法人シェアリングキッチン協会,,その他の設立登記法人,愛知県,名古屋市中区,栄３丁目３５－２１菱家ビル９０６,,23,106,4600008,,,,,,,2024-02-19,1,,,,,シェアリングキッチンキョウカイ,0
2110,9180301038333,新規,0,2024-02-19,2024-02-19,光匠電気株式会社,,株式会社,愛知県,碧南市,長田町２丁目３５番地３,,23,209,4470014,,,,,,,2024-02-19,1,,,,,コウショウデンキ,0
2112,9190001031117,新規,0,2024-02-19,2024-02-19,バルネミ株式会社,,株式会社,三重県,四日市市,尾上町１９番地６．２Ｆ,,24,202,5100059,,,,,,,2024-02-19,1,,,,,バルネミ,0
2116,9230002000644,新規,0,2024-02-19,2024-02-19,有限会社大久保木工所,,有限会社,富山県,富山市,三郷１４番地,,16,201,9390000,,,,,,,2024-02-19,1,,,,,オオクボモッコウショ,0
2121,9240001062809,新規,0,2024-02-19,2024-02-19,サティヤムベンチャージャパン株式会社,,株式会社,広島県,広島市中区,広瀬北町３番１１号,,34,101,7300803,,,,,,,2024-02-19,1,,,,,サティヤムベンチャージャパン,0
2124,9260001038773,新規,0,2024-02-19,2024-02-19,清原電技株式会社,,株式会社,岡山県,瀬戸内市,邑久町上山田１２７７番地,,33,212,7014215,,,,,,,2024-02-19,1,,,,,キヨハラデンギ,0
2135,9290001104738,新規,0,2024-02-19,2024-02-19,株式会社ＬａｕｇｈＴａｌｅ,,株式会社,福岡県,福岡市中央区,天神２丁目２番１２号Ｔ＆Ｊビルディング７Ｆ,,40,133,8100001,,,,,,,2024-02-19,1,,,,,ラフテル,0
2137,9290003014968,新規,0,2024-02-19,2024-02-19,合同会社ＦＡＤＴ,,合同会社,福岡県,福岡市西区,下山門３丁目１５番１０－８０７号,,40,135,8190052,,,,,,,2024-02-19,1,,,,,エフエーディティ,0
2138,9290003014976,新規,0,2024-02-19,2024-02-19,合同会社ＳＵＩ,,合同会社,福岡県,福岡市中央区,大名１丁目９番４５－５０７号,,40,133,8100041,,,,,,,2024-02-19,1,,,,,スイ,0
2139,9330001031754,新規,0,2024-02-19,2024-02-19,ＡＳＸＥＥＤ株式会社,,株式会社,熊本県,宇土市,本町５丁目４０,,43,211,8690431,,,,,,,2024-02-19,1,,,,,アスシード,0
2142,9340003004369,新規,0,2024-02-19,2024-02-19,合同会社Ａｌｌ　Ｍｙ　Ｈｏｍｉｅｓ,,合同会社,鹿児島県,曽於郡大崎町,神領２１４０番地２,,46,468,8997302,,,,,,,2024-02-19,1,,,,,オールマイホーミーズ,0
2145,9370001050949,新規,0,2024-02-19,2024-02-19,今西不動産株式会社,,株式会社,宮城県,仙台市青葉区,一番町１丁目１５番１９号,,04,101,9800811,,,,,,,2024-02-19,1,,,,,イマニシフドウサン,0
2151,9400001016558,新規,0,2024-02-19,2024-02-19,リージョンコーヒー株式会社,,株式会社,岩手県,盛岡市,津志田２６地割２７番地１６,,03,201,0200835,,,,,,,2024-02-19,1,,,,,リージョンコーヒー,0
2169,9700150124032,新規,0,2024-02-19,2024-02-19,Ｙｉｃｈｕｎｓｈｉ　ｆａｎｍｉｄｉａｎｚｉ　ｋｅｊｉｙｏｕｘｉａｎｇｏｎｇｓｉ,,外国会社等,,,,,,,,Ｊｉａｎｇｘｉｓｈｅｎｇ　ｙｉｃｈｕｎｓｈｉ　ｙｕａｎｚｈｏｕｑｕ　ｍｉｎｇｙｕｅｂｅｉｌｕ７７６ｈａｏ　ｆｕｌｉｈｕａｙｕａｎ５０１ｈａｏ,,,,,,2024-02-19,1,,,,,イチェンファンミデンシカギユウゲンコウシ,0
2170,9700150124040,新規,0,2024-02-19,2024-02-19,ｇｕａｎｇｚｈｏｕｓａｉｌｅｓｉｍａｏｙｉ　ｙｏｕｘｉａｎｇｏｎｇｓｉ,,外国会社等,,,,,,,,ｇｕａｎｇｚｈｏｕｓｈｉ　ｈａｉｚｈｕｑｕ　ｆｕｃｈａｎｇｌｕ５ｈａｏ１９１０ｆａｎｇ,,,,,,2024-02-19,1,,,,,コウシュウサイレシボウエキユウゲンコウシ,0
2171,9700150124049,新規,0,2024-02-19,2024-02-19,ｓｈｅｎｚｈｅｎｓｈｉｚｈａｏｄｉａｎｓｈｉｙｅｙｏｕｘｉａｎｇｏｎｇｓｉ,,外国会社等,,,,,,,,ｓｈｅｎｚｈｅｎｓｈｉ　ｌｏｎｇｇａｎｇｑｕ　ｈｅｎｇｇａｎｇｊｉｅｄａｏｙｉａｎｄｕｈｕｉｚｈｏｎｇｙａｎｇ３ｄｏｎｇＡｄａｎｙｕａｎ１９Ｂ,,,,,,2024-02-19,1,,,,,シンセンシザオデンジツギョウユウゲンコウシ,0
