sequenceNumber,corporateNumber,process,correct,updateDate,changeDate,name,nameImageId,kind,prefectureName,cityName,streetNumber,addressImageId,prefectureCode,cityCode,postCode,addressOutside,addressOutsideImageId,closeDate,closeCause,successorCorporateNumber,changeCause,assignmentDate,latest,enName,enPrefectureName,enCityName,enAddressOutside,furigana,hihyoji
9,1010001237928,新規,0,2023-08-29,2023-08-29,Ｆｒａｃｔａｌ　Ｊａｐａｎ株式会社,,株式会社,東京都,千代田区,平河町２丁目６番１号平河町ビル７階,,13,101,1020093,,,,,,,2023-08-29,1,,,,,フラクタルジャパン,0
10,1010001237944,新規,0,2023-08-29,2023-08-29,株式会社ＯＶＣ,,株式会社,東京都,千代田区,神田多町２丁目３番地７－１００１号室,,13,101,1010046,,,,,,,2023-08-29,1,,,,,オーブイシー,0
11,1010001237985,新規,0,2023-08-29,2023-08-29,千暁集団株式会社,,株式会社,東京都,千代田区,四番町４－９ＳＴＫ内,,13,101,1020081,,,,,,,2023-08-29,1,,,,,センショウシュウダン,0
12,1010001238042,新規,0,2023-08-29,2023-08-29,株式会社ｉｎｃｈ,,株式会社,東京都,文京区,本郷６丁目２４－９－１４０１,,13,105,1130033,,,,,,,2023-08-29,1,,,,,インチ,0
13,1010001238050,新規,0,2023-08-29,2023-08-29,株式会社アジェンダ,,株式会社,東京都,文京区,西片２丁目３番１７号,,13,105,1130024,,,,,,,2023-08-29,1,,,,,アジェンダ,0
22,1010401176809,新規,0,2023-08-29,2023-08-29,ザオーケア株式会社,,株式会社,東京都,港区,芝浦２丁目３番３５号田町グリーンハイツ６０４,,13,103,1080023,,,,,,,2023-08-29,1,,,,,ザオーケア,0
27,1010403030807,新規,0,2023-08-29,2023-08-29,合同会社ミライズ,,合同会社,東京都,港区,麻布十番２丁目７番１４号ａｚａｂｕ２７５,,13,103,1060045,,,,,,,2023-08-29,1,,,,,ミライズ,0
28,1010403030823,新規,0,2023-08-29,2023-08-29,ソーラーオイラー合同会社,,合同会社,東京都,港区,西新橋１丁目２番９号メンターキャピタル税理士法人内,,13,103,1050003,,,,,,,2023-08-29,1,,,,,ソーラーオイラー,0
31,1010501050954,新規,0,2023-08-29,2023-08-29,株式会社サイゼス,,株式会社,東京都,台東区,上野７丁目８番２０号,,13,106,1100005,,,,,,,2023-08-29,1,,,,,サイゼス,0
32,1010503007135,新規,0,2023-08-29,2023-08-29,Ｔ．Ｉ．Ｈ　ＪＡＰＡＮ合同会社,,合同会社,東京都,台東区,蔵前４丁目２２－２スギタビル５階,,13,106,1110051,,,,,,,2023-08-29,1,,,,,ティアイエイチジャパン,0
36,1010905004523,新規,0,2023-08-29,2023-08-29,一般社団法人杉山,,その他の設立登記法人,東京都,世田谷区,大原１丁目５３番１号,,13,112,1560041,,,,,,,2023-08-29,1,,,,,スギヤマ,0
42,1011001156548,新規,0,2023-08-29,2023-08-29,スケールアップソリューションズ株式会社,,株式会社,東京都,渋谷区,道玄坂１丁目１０番８号渋谷道玄坂東急ビル２Ｆ－Ｃ,,13,113,1500043,,,,,,,2023-08-29,1,,,,,スケールアップソリューションズ,0
43,1011001156639,新規,0,2023-08-29,2023-08-29,株式会社Ｌｏｒｄ,,株式会社,東京都,渋谷区,桜丘町１４番５号渋谷サニーヒル４０４,,13,113,1500031,,,,,,,2023-08-29,1,,,,,ロード,0
45,1011003017442,新規,0,2023-08-29,2023-08-29,東京キョクジョイ合同会社,,合同会社,東京都,渋谷区,神宮前６丁目２３－４桑野ビル２階,,13,113,1500001,,,,,,,2023-08-29,1,,,,,トウキョウキョクジョイ,0
46,1011003017450,新規,0,2023-08-29,2023-08-29,明徳合同会社,,合同会社,東京都,渋谷区,神泉町１０番１５号,,13,113,1500045,,,,,,,2023-08-29,1,,,,,メイトク,0
49,1011101104159,新規,0,2023-08-29,2023-08-29,フラタニティ株式会社,,株式会社,東京都,新宿区,西新宿３丁目３番１３号西新宿水間ビル６階,,13,104,1600023,,,,,,,2023-08-29,1,,,,,フラタニティ,0
51,1011103013424,新規,0,2023-08-29,2023-08-29,合同会社ＹＯＬＯ,,合同会社,東京都,新宿区,若松町６番５－３０３号,,13,104,1620056,,,,,,,2023-08-29,1,,,,,ヨロ,0
54,1011301028967,新規,0,2023-08-29,2023-08-29,株式会社マチノビ工房,,株式会社,東京都,杉並区,上井草４丁目１６番９号,,13,115,1670023,,,,,,,2023-08-29,1,,,,,マチノビコウボウ,0
59,1011801042955,新規,0,2023-08-29,2023-08-29,株式会社ａｏｋｆｔｓ,,株式会社,東京都,足立区,島根４丁目３１番５号,,13,121,1210815,,,,,,,2023-08-29,1,,,,,エーオーケーエフティーエス,0
60,1012401040928,新規,0,2023-08-29,2023-08-29,株式会社博翔,,株式会社,東京都,調布市,国領町８丁目１番地２３,,13,208,1820022,,,,,,,2023-08-29,1,,,,,ハクト,0
63,1012703002782,新規,0,2023-08-29,2023-08-29,合同会社ＣＡ,,合同会社,東京都,西東京市,ひばりが丘３丁目３－４－７０２,,13,229,2020001,,,,,,,2023-08-29,1,,,,,シーエー,0
65,1012801022591,新規,0,2023-08-29,2023-08-29,株式会社フェアレディゾーン,,株式会社,東京都,立川市,上砂町１丁目１３番地の１都営上砂町一丁目アパート１８棟２１８号,,13,202,1900032,,,,,,,2023-08-29,1,,,,,フェアレディゾーン,0
75,1020001153182,新規,0,2023-08-29,2023-08-29,株式会社直峰商事,,株式会社,神奈川県,川崎市幸区,南加瀬４丁目１番３号,,14,132,2120055,,,,,,,2023-08-29,1,,,,,ナオミネショウジ,0
76,1020001153190,新規,0,2023-08-29,2023-08-29,株式会社昇龍商事,,株式会社,神奈川県,横浜市鶴見区,鶴見中央１丁目６番１－１１０５号,,14,101,2300051,,,,,,,2023-08-29,1,,,,,ショウリュウショウジ,0
77,1020001153208,新規,0,2023-08-29,2023-08-29,株式会社信君,,株式会社,神奈川県,横浜市旭区,本宿町１２６番地２６,,14,112,2410023,,,,,,,2023-08-29,1,,,,,シンクン,0
78,1020001153224,新規,0,2023-08-29,2023-08-29,ＫＩＳＨＩ株式会社,,株式会社,神奈川県,横浜市緑区,森の台２７番２０号,,14,113,2260029,,,,,,,2023-08-29,1,,,,,キシ,0
81,1020003024480,新規,0,2023-08-29,2023-08-29,合同会社ＴＨＵＧ　ＬＩＦＥ,,合同会社,神奈川県,川崎市宮前区,神木本町５丁目４番１－６０６号,,14,136,2160031,,,,,,,2023-08-29,1,,,,,サグライフ,0
87,1030001155285,新規,0,2023-08-29,2023-08-29,株式会社ｅｉｇｈｔ,,株式会社,埼玉県,さいたま市見沼区,大字小深作６０２番地２１,,11,104,3370005,,,,,,,2023-08-29,1,,,,,エイト,0
88,1030001155376,新規,0,2023-08-29,2023-08-29,株式会社Ｊ‐クリエイト,,株式会社,埼玉県,川口市,南町２丁目７番２０号－１０４号室,,11,203,3320026,,,,,,,2023-08-29,1,,,,,ジェイクリエイト,0
89,1030001155434,新規,0,2023-08-29,2023-08-29,株式会社７ｍｍ,,株式会社,埼玉県,久喜市,東大輪１５３６番地２,,11,232,3400202,,,,,,,2023-08-29,1,,,,,ナナミリ,0
96,1040001129825,新規,0,2023-08-29,2023-08-29,克田デザイン株式会社,,株式会社,千葉県,佐倉市,西志津５丁目５番４０号,,12,212,2850845,,,,,,,2023-08-29,1,,,,,カツタデザイン,0
97,1040001129841,新規,0,2023-08-29,2023-08-29,株式会社Ｌｕｎａｔｉｃ　Ａｌｉｃｅ,,株式会社,千葉県,松戸市,新松戸３丁目２９０,,12,207,2700034,,,,,,,2023-08-29,1,,,,,ルナティックアリス,0
106,1080001025822,新規,0,2023-08-29,2023-08-29,株式会社サンライズ,,株式会社,静岡県,藤枝市,仮宿１５９８番地の１,,22,214,4260001,,,,,,,2023-08-29,1,,,,,サンライズ,0
108,1100003007155,新規,0,2023-08-29,2023-08-29,Ｇｒｏｕｐ８５０１合同会社,,合同会社,長野県,北安曇郡小谷村,大字中小谷丙３１８８,,20,486,3999421,,,,,,,2023-08-29,1,,,,,グループハチゴーゼロイチ,0
114,1120001257659,新規,0,2023-08-29,2023-08-29,ａｌｐｅｎｇｌｏｗ株式会社,,株式会社,大阪府,大阪市北区,鶴野町４－１１朝日プラザ梅田２Ｆ－３８,,27,127,5300014,,,,,,,2023-08-29,1,,,,,アルペングロー,0
118,1120101068114,新規,0,2023-08-29,2023-08-29,株式会社エンビューロ,,株式会社,大阪府,和泉市,はつが野１丁目３２番８号,,27,219,5941106,,,,,,,2023-08-29,1,,,,,エンビューロ,0
122,1120903004803,新規,0,2023-08-29,2023-08-29,ポラリスイールド合同会社,,合同会社,大阪府,茨木市,花園２丁目１２－１３,,27,211,5670017,,,,,,,2023-08-29,1,,,,,ポラリスイールド,0
129,1130003008927,新規,0,2023-08-29,2023-08-29,合同会社合歓,,合同会社,京都府,木津川市,州見台６丁目２番地２,,26,214,6190216,,,,,,,2023-08-29,1,,,,,ネム,0
135,1140001131390,新規,0,2023-08-29,2023-08-29,株式会社ジパング,,株式会社,兵庫県,神戸市中央区,磯辺通１丁目１番１８号カサベラ国際プラザビル７０７号,,28,110,6510084,,,,,,,2023-08-29,1,,,,,ジパング,0
140,1140003019477,新規,0,2023-08-29,2023-08-29,合同会社プロムネクスト,,合同会社,兵庫県,芦屋市,奥山１２番地３１９号,,28,206,6590002,,,,,,,2023-08-29,1,,,,,プロムネクスト,0
143,1160003002968,新規,0,2023-08-29,2023-08-29,ＤｅａｔｈＴｅｃｈ合同会社,,合同会社,滋賀県,大津市,中央３丁目１－１８－１３０４イーグルコート,,25,201,5200043,,,,,,,2023-08-29,1,,,,,デステック,0
149,1180001157770,新規,0,2023-08-29,2023-08-29,株式会社彩縁,,株式会社,愛知県,名古屋市南区,内田橋１丁目３番７号,,23,112,4570862,,,,,,,2023-08-29,1,,,,,サイエン,0
150,1180001157779,新規,0,2023-08-29,2023-08-29,ＫＭ名古屋ドール株式会社,,株式会社,愛知県,瀬戸市,北松山町１丁目１０番地,,23,204,4890911,,,,,,,2023-08-29,1,,,,,ケーエムナゴヤドール,0
151,1180001157787,新規,0,2023-08-29,2023-08-29,Ｌｅａｐ株式会社,,株式会社,愛知県,名古屋市中区,富士見町３番２６号エスポア富士見台２０４号室,,23,106,4600014,,,,,,,2023-08-29,1,,,,,リープ,0
152,1180001157795,新規,0,2023-08-29,2023-08-29,株式会社ｂｅｌｅｇｓ,,株式会社,愛知県,西春日井郡豊山町,大字豊場字伊勢山４０２－１,,23,342,4800202,,,,,,,2023-08-29,1,,,,,ビーレッグス,0
153,1190003004425,新規,0,2023-08-29,2023-08-29,シノビノモリ合同会社,,合同会社,三重県,伊賀市,平野中川原５４４番地２,,24,216,5180828,,,,,,,2023-08-29,1,,,,,シノビノモリ,0
155,1200001041633,新規,0,2023-08-29,2023-08-29,株式会社浦川機工,,株式会社,岐阜県,多治見市,京町２丁目１６１番地,,21,204,5070825,,,,,,,2023-08-29,1,,,,,ウラカワキコウ,0
172,1250003003338,新規,0,2023-08-29,2023-08-29,合同会社オフィス・エコー,,合同会社,山口県,下松市,大字末武中１３５７番地３８,,35,207,7440023,,,,,,,2023-08-29,1,,,,,オフィスエコー,0
178,1290001102807,新規,0,2023-08-29,2023-08-29,株式会社Ｈ＆Ｈ,,株式会社,福岡県,福岡市東区,香椎１丁目１２番２７号,,40,131,8130011,,,,,,,2023-08-29,1,,,,,エイチアンドエイチ,0
180,1290003014281,新規,0,2023-08-29,2023-08-29,合同会社ＫＵＳＨＡ　ＧＲＯＵＰ,,合同会社,福岡県,三井郡大刀洗町,大字山隈１９４４－１,,40,503,8301226,,,,,,,2023-08-29,1,,,,,クシャグループ,0
203,1360003013243,新規,0,2023-08-29,2023-08-29,合同会社フラワーショップ金城,,合同会社,沖縄県,名護市,城１丁目１番１７号,,47,209,9050013,,,,,,,2023-08-29,1,,,,,フラワーショップキンジョウ,0
211,1370003006262,新規,0,2023-08-29,2023-08-29,Ｒ．Ｓ合同会社,,合同会社,宮城県,仙台市太白区,柳生６丁目１３番地の９,,04,104,9811106,,,,,,,2023-08-29,1,,,,,アールエス,0
228,1430001089848,新規,0,2023-08-29,2023-08-29,株式会社ＵＮＩＵＶＥＲ,,株式会社,北海道,札幌市清田区,北野三条２丁目９番９号,,01,110,0040863,,,,,,,2023-08-29,1,,,,,ユニユバ,0
232,1430003015389,新規,0,2023-08-29,2023-08-29,ＲＡＫＵ　ＳＮＯＷ合同会社,,合同会社,北海道,虻田郡倶知安町,南三条東７丁目１－２１,,01,400,0440013,,,,,,,2023-08-29,1,,,,,ラクスノー,0
234,1490001010568,新規,0,2023-08-29,2023-08-29,株式会社テクノハウス,,株式会社,高知県,高知市,曙町１丁目２８番２号,,39,201,7808072,,,,,,,2023-08-29,1,,,,,テクノハウス,0
236,1700150119428,新規,0,2023-08-29,2023-08-29,ＫＡＷＡ　ＥＬＥＣＴＲＯＮＩＣＳ　ＣＯＭＰＡＮＹ　ＬＩＭＩＴＥＤ,,外国会社等,,,,,,,,ＦＬＡＴ　Ａ　２１／Ｆ　ＣＨＥＵＮＧ　ＬＥＥ　ＩＮＤ　ＢＬＤＧ　９　ＣＨＥＵＮＧ　ＬＥＥ　ＳＴ　ＣＨＡＩ　ＷＡＮ　ＨＯＮＧ　ＫＯＮＧ,,,,,,2023-08-29,1,,,,,カワエレクトロニクスカンパニーリミテッド,0
237,1700150119436,新規,0,2023-08-29,2023-08-29,Ｈｕｉｚｈｏｕ　Ｚｅｎａ　Ｔｅｃｈｎｏｌｏｇｙ　Ｃｏ．，Ｌｔｄ,,外国会社等,,,,,,,,Ｎｏ．０７，２１ｓｔ　Ｆｌｏｏｒ，Ｈｉｓｅｎｓｅ　Ｆｉｎａｎｃｉａｌ　Ｐｌａｚａ，２　Ｙａｎｄａ　Ａｖｅｎｕｅ，Ｈｕｉｚｈｏｕ，Ｈｕｉｃｈｅｎｇ　Ｄｉｓｔｒｉｃｔ，Ｇｕａｎｇｄｏｎｇ　ＣＮ,,,,,,2023-08-29,1,,,,,ケイシュウゼナテクノロジーカンパニーリミテッド,0
238,1700150119452,新規,0,2023-08-29,2023-08-29,Ｎｉｎｇｂｏ　Ｙａｎｆｅｎｇ　Ｌａｎｄｓｃａｐｅ　Ｔｅｃｈｎｏｌｏｇｙ　Ｃｏ．，ＬＴＤ,,外国会社等,,,,,,,,Ｎｏ．１０　Ｎａｎｓｈｅｎ，Ｘｉｎｎａｎｗａｎｇ　Ｖｉｌｌａｇｅ，Ｌａｎｇｘｉａ　Ｓｔｒｅｅｔ　Ｙｕｙａｏ　Ｃｉｔｙ　Ｚｈｅｊｉａｎｇ,,,,,,2023-08-29,1,,,,,ニンボイェンフェンランドスケイプテクノロジーカンパニーリミテッド,0
239,1700150119460,新規,0,2023-08-29,2023-08-29,Ｎｉｎｇｂｏ　Ｌｖｔｉｎｇ　Ｅ－ｃｏｍｍｅｒｃｅ　Ｃｏ．，Ｌｔｄ,,外国会社等,,,,,,,,６５　Ｈｕｉｑｉａｏ，　Ｘｉｃｕｎ，　Ｌａｎｇｘｉａ　Ｓｔｒｅｅｔ　Ｔｏｗｎ　Ｙｕｙａｏ　Ｃｉｔｙ　Ｚｈｅｊｉａｎｇ　Ｐｒｏｖｉｎｃｅ　ＣＮ,,,,,,2023-08-29,1,,,,,ニンボリョティンイーコマースカンパニーリミテッド,0
240,1700150119469,新規,0,2023-08-29,2023-08-29,Ｗｅｉｈａｉ　Ｌｉｘｕａｎ　Ｃｒｏｓｓ　ｂｏｒｄｅｒ　Ｅ－ｃｏｍｍｅｒｃｅ　Ｃｏ．，Ｌｔｄ,,外国会社等,,,,,,,,４－３０８　Ｌｉａｎｇｙｕａｎ　Ｍｉｎｇｊｕ，Ｓｔａｆｆ　Ｓｔｒｅｅｔ，Ｔｉａｎｆｕ　Ｓｕｂｄｉｓｔｒｉｃｔｓ　ｏｆ　Ｗｅｉｈａｉ，Ｗｅｎｄｅｎｇ　Ｓｈａｎｄｏｎｇ　Ｃｈｉｎａ,,,,,,2023-08-29,1,,,,,ウイハイリシェンクロスボーダーイーコマースカンパニーリミテッド,0
241,1700150119477,新規,0,2023-08-29,2023-08-29,Ｓｕｚｈｏｕ　Ｂａｏｌｉｊｉｅ　Ｉｎｔｅｌｌｉｇｅｎｔ　Ｅｌｅｃｔｒｉｃ　Ａｐｐｌｉａｎｃｅ　Ｃｏ．,,外国会社等,,,,,,,,Ｂｕｉｌｄｉｎｇ　６，Ｎｏ．３１　Ｘｉｎｇｄｏｎｇ　Ｒｏａｄ，Ｈａｏｚｈｏｎｇ　Ｅｃｏｎｏｍｉｃ　Ｄｅｖｅｌｏｐｍｅｎｔ　Ｚｏｎｅ，Ｓｕｚｈｏｕ,,,,,,2023-08-29,1,,,,,ソシュホウリケツチノウデンキユウゲンコウシ,0
242,1700150119527,新規,0,2023-08-29,2023-08-29,ｇａｎｚｈｏｕｎｉｎｇｓｕｐｅｉｄｉａｎｚｉｓｈａｎｇｗｕｙｏｕｘｉａｎｇｏｎｇｓｉ,,外国会社等,,,,,,,,ｚｈａｎｇｇｏｎｇｑｕｓｈｕｉｎａｎｌａｃｈａｎｇｃｕｎｒｕｉｘｉｎｊｉａｙｕａｎｆａｎｑｉａｎａｎｚｈｉｘｉａｏｑｕ１８ｄｏｎｇ２ｃｅｎｇｘｉｅｚｉｌｏｕ３ｈａｏｇａｎｚｈｏｕｓｈｉ　ｊｉａｎｇｘｉｓｈｅｎｇ,,,,,,2023-08-29,1,,,,,カンシュウネイソハイデンシショウムユウゲンコウシ,0
247,2010003041294,新規,0,2023-08-29,2023-08-29,Ｌｉｖｅ＆Ｌｅｔｌｉｖｅ合同会社,,合同会社,東京都,中央区,銀座１丁目２２番１１号銀座大竹ビジデンス２Ｆ,,13,102,1040061,,,,,,,2023-08-29,1,,,,,リブアンドレットリブ,0
249,2010101015794,新規,0,2023-08-29,2023-08-29,オーバーラップ株式会社,,株式会社,東京都,八王子市,打越町３４５－２,,13,201,1920911,,,,,,,2023-08-29,1,,,,,オーバーラップ,0
253,2010401176758,新規,0,2023-08-29,2023-08-29,株式会社リンクイノベーション,,株式会社,東京都,港区,海岸１丁目２番３号汐留芝離宮ビルディング２１階,,13,103,1050022,,,,,,,2023-08-29,1,,,,,リンクイノベーション,0
254,2010401176816,新規,0,2023-08-29,2023-08-29,ヤマワケアート株式会社,,株式会社,東京都,港区,西新橋１丁目１７番１６号ＡＲＩＳＴＯ虎ノ門３階,,13,103,1050003,,,,,,,2023-08-29,1,,,,,ヤマワケアート,0
255,2010401176824,新規,0,2023-08-29,2023-08-29,株式会社シンアセット,,株式会社,東京都,港区,虎ノ門１丁目１番１２号,,13,103,1050001,,,,,,,2023-08-29,1,,,,,シンアセット,0
261,2010403030814,新規,0,2023-08-29,2023-08-29,ＬＳ‐ＤＡＬ第１２号合同会社,,合同会社,東京都,港区,六本木１丁目６番１号,,13,103,1060032,,,,,,,2023-08-29,1,,,,,エルエスディーエーエルダイジュウニゴウ,0
262,2010403030822,新規,0,2023-08-29,2023-08-29,合同会社ＣＲＥＥＲ,,合同会社,東京都,港区,白金６丁目１６番２５－３０４号,,13,103,1080072,,,,,,,2023-08-29,1,,,,,クリエ,0
264,2010405022388,新規,0,2023-08-29,2023-08-29,一般社団法人ＴＯＲＡＮＯＭＯＮファンディング,,その他の設立登記法人,東京都,港区,西新橋１丁目１７番１６号ＡＲＩＳＴＯ虎ノ門３階,,13,103,1050003,,,,,,,2023-08-29,1,,,,,トラノモンファンディング,0
266,2010503007134,新規,0,2023-08-29,2023-08-29,合同会社Ｐｅｒｆｕｍｅ３６５,,合同会社,東京都,台東区,谷中３丁目１番９号,,13,106,1100001,,,,,,,2023-08-29,1,,,,,パフュームサンロクゴ,0
273,2010901053705,新規,0,2023-08-29,2023-08-29,株式会社Ｔｒｕｅ　ｕｐ,,株式会社,東京都,世田谷区,駒沢３丁目１６番３号中村ビル２Ｆ,,13,112,1540012,,,,,,,2023-08-29,1,,,,,トゥルーアップ,0
283,2011001156621,新規,0,2023-08-29,2023-08-29,株式会社ＹＵＷＡ　Ｖｅｔｓ,,株式会社,東京都,目黒区,緑が丘１丁目５番２２号,,13,110,1520034,,,,,,,2023-08-29,1,,,,,ユーワベッツ,0
284,2011001156638,新規,0,2023-08-29,2023-08-29,株式会社シーキー,,株式会社,東京都,渋谷区,神宮前１丁目１０－３４原宿コーポ別館６０２号室,,13,113,1500001,,,,,,,2023-08-29,1,,,,,シーキー,0
285,2011003017441,新規,0,2023-08-29,2023-08-29,アルセル・ト合同会社,,合同会社,東京都,渋谷区,代官山町１３番８号キャッスルマンション代官山５１３号,,13,113,1500034,,,,,,,2023-08-29,1,,,,,アルセルト,0
290,2011101104158,新規,0,2023-08-29,2023-08-29,株式会社ＢＬＡＣＫＳＰＡＣＥ,,株式会社,東京都,新宿区,高田馬場３丁目１４番２号佐成屋ビル３階,,13,104,1690075,,,,,,,2023-08-29,1,,,,,ブラックスペース,0
294,2011301028966,新規,0,2023-08-29,2023-08-29,株式会社ｐａｒｔｉｃｌｅ,,株式会社,東京都,杉並区,和泉１丁目１６番３－１０３号,,13,115,1680063,,,,,,,2023-08-29,1,,,,,パーティクル,0
295,2011303004890,新規,0,2023-08-29,2023-08-29,合同会社和平,,合同会社,東京都,杉並区,和泉３丁目２７番２０号,,13,115,1680063,,,,,,,2023-08-29,1,,,,,ワヘイ,0
298,2011501029698,新規,0,2023-08-29,2023-08-29,株式会社８２２,,株式会社,東京都,北区,田端５丁目２番６号,,13,117,1140014,,,,,,,2023-08-29,1,,,,,ハチニニ,0
306,2012401040927,新規,0,2023-08-29,2023-08-29,株式会社つかひろ,,株式会社,東京都,武蔵野市,吉祥寺本町４丁目３１番６号,,13,203,1800004,,,,,,,2023-08-29,1,,,,,ツカヒロ,0
308,2012403006141,新規,0,2023-08-29,2023-08-29,合同会社市屋敷,,合同会社,東京都,三鷹市,井の頭１丁目２１番１４号,,13,204,1810001,,,,,,,2023-08-29,1,,,,,イチヤシキ,0
310,2012701017815,新規,0,2023-08-29,2023-08-29,株式会社ＭＮＫ’Ｓ,,株式会社,東京都,清瀬市,中里６丁目９５番地１３－５０４号,,13,221,2040003,,,,,,,2023-08-29,1,,,,,エムエヌケイズ,0
319,2020001153207,新規,0,2023-08-29,2023-08-29,Ｓｐｒｉｎｇ　Ｓｕｎ株式会社,,株式会社,神奈川県,横浜市磯子区,磯子２丁目２番１６－２０６号,,14,107,2350016,,,,,,,2023-08-29,1,,,,,スプリングサン,0
320,2020001153223,新規,0,2023-08-29,2023-08-29,アーキスターズ株式会社,,株式会社,神奈川県,横浜市西区,平沼１丁目４０番１１ー６０７号,,14,103,2200023,,,,,,,2023-08-29,1,,,,,アーキスターズ,0
323,2021001080052,新規,0,2023-08-29,2023-08-29,株式会社エー・アンド・ディ,,株式会社,神奈川県,相模原市南区,上鶴間本町３丁目９番１０－１４０５号,,14,153,2520318,,,,,,,2023-08-29,1,,,,,エーアンドディ,0
332,2030001155318,新規,0,2023-08-29,2023-08-29,株式会社黒船,,株式会社,埼玉県,熊谷市,玉井１９７３番地３２４,,11,202,3600853,,,,,,,2023-08-29,1,,,,,クロフネ,0
333,2030001155474,新規,0,2023-08-29,2023-08-29,株式会社Ｋ　Ｃｒｅａｔｉｖｅ　Ｃｏｍｐａｎｙ,,株式会社,埼玉県,さいたま市緑区,東浦和２丁目６番地１,,11,109,3360926,,,,,,,2023-08-29,1,,,,,ケイクリエイティブカンパニー,0
338,2030003022367,新規,0,2023-08-29,2023-08-29,英洋オートサービス合同会社,,合同会社,埼玉県,深谷市,矢島９２６番地２,,11,218,3660839,,,,,,,2023-08-29,1,,,,,エイヨウオートサービス,0
339,2030003022383,新規,0,2023-08-29,2023-08-29,合同会社ＮＢＦＡ,,合同会社,埼玉県,越谷市,瓦曽根１丁目２０番５２号ベルメゾン越谷４０７,,11,222,3430821,,,,,,,2023-08-29,1,,,,,エヌビーエフエー,0
345,2040001129816,新規,0,2023-08-29,2023-08-29,日通土木開発株式会社,,株式会社,千葉県,柏市,旭町７丁目４番４４号,,12,217,2770852,,,,,,,2023-08-29,1,,,,,ニッツウドボクカイハツ,0
350,2050001053354,新規,0,2023-08-29,2023-08-29,ミヤザキ株式会社,,株式会社,茨城県,古河市,上辺見３０５８番地３,,08,204,3060234,,,,,,,2023-08-29,1,,,,,ミヤザキ,0
357,2080001025821,新規,0,2023-08-29,2023-08-29,株式会社Ｓ‐プレイス,,株式会社,静岡県,静岡市駿河区,中原３９７番地の２,,22,102,4228058,,,,,,,2023-08-29,1,,,,,エスプレイス,0
359,2080003003040,新規,0,2023-08-29,2023-08-29,ＳＹＭＢＯＬ．ＥＳＣ合同会社,,合同会社,静岡県,榛原郡吉田町,片岡１９６９－６,,22,424,4210303,,,,,,,2023-08-29,1,,,,,シンボルエスク,0
367,2100001036725,新規,0,2023-08-29,2023-08-29,株式会社丸信ＨＯＭＥ,,株式会社,長野県,上田市,材木町２丁目９－４ＹＣＣビル３階,,20,203,3860014,,,,,,,2023-08-29,1,,,,,マルシンホーム,0
372,2110001037805,新規,0,2023-08-29,2023-08-29,株式会社直井ホールディングス,,株式会社,新潟県,新潟市中央区,医学町通２番町１１番ＳＨＩＮＡＮＯビル６０３,,15,103,9518124,,,,,,,2023-08-29,1,,,,,ナオイホールディングス,0
385,2120001257666,新規,0,2023-08-29,2023-08-29,ＤｏＣＴＯＲ　ＩＴ　Ｓｏｌｕｔｉｏｎｓ株式会社,,株式会社,大阪府,大阪市中央区,大手通１丁目１番１３号,,27,128,5400021,,,,,,,2023-08-29,1,,,,,ドクターアイティーソリューションズ,0
386,2120001257690,新規,0,2023-08-29,2023-08-29,株式会社ベースロジスティックス,,株式会社,大阪府,大阪市住之江区,緑木１丁目４番３５号,,27,125,5590022,,,,,,,2023-08-29,1,,,,,ベースロジスティックス,0
387,2120003024791,新規,0,2023-08-29,2023-08-29,合同会社ＴＲＵＯＮＧ　ＴＨＯ　ＴＲＡＤＩＮＧ,,合同会社,大阪府,大阪市浪速区,恵美須西２丁目８番７号ビジタル恵美須２－３０１号,,27,111,5560003,,,,,,,2023-08-29,1,,,,,チュオントートレーディング,0
388,2120003024800,新規,0,2023-08-29,2023-08-29,合同会社ｗａｒｅ,,合同会社,大阪府,大阪市北区,梅田１丁目２番２号大阪駅前第２ビル１２－１２,,27,127,5300001,,,,,,,2023-08-29,1,,,,,ウェア,0
392,2120101068096,新規,0,2023-08-29,2023-08-29,西村霞子株式会社,,株式会社,大阪府,堺市堺区,宿院町西３丁２番１４号グランビルド宿院１００２号室,,27,141,5900958,,,,,,,2023-08-29,1,,,,,ニシムラカコ,0
398,2130001075027,新規,0,2023-08-29,2023-08-29,錦官城株式会社,,株式会社,京都府,京都市伏見区,菱屋町６５０デトムワン伏見５０６室,,26,109,6128303,,,,,,,2023-08-29,1,,,,,キンカンジョウ,0
405,2140003019484,新規,0,2023-08-29,2023-08-29,合同会社中村企画,,合同会社,兵庫県,加古郡稲美町,六分一９９７－１,,28,381,6751112,,,,,,,2023-08-29,1,,,,,ナカムラキカク,0
406,2140005026719,新規,0,2023-08-29,2023-08-29,一般財団法人パソナ専門職大学院設立準備財団,,その他の設立登記法人,兵庫県,淡路市,野島常盤１０４２,,28,226,6561726,,,,,,,2023-08-29,1,,,,,パソナセンモンショクダイガクインセツリツジュンビザイダン,0
413,2180001157778,新規,0,2023-08-29,2023-08-29,株式会社ステージアップ,,株式会社,愛知県,名古屋市中川区,富田町大字千音寺字西川岸塚１３４０番地の８,,23,110,4540971,,,,,,,2023-08-29,1,,,,,ステージアップ,0
422,2200001041632,新規,0,2023-08-29,2023-08-29,産業保健エンリッチ株式会社,,株式会社,岐阜県,各務原市,那加桐野町１丁目３９番地４,,21,213,5040008,,,,,,,2023-08-29,1,,,,,サンギョウホケンエンリッチ,0
426,2210003001690,新規,0,2023-08-29,2023-08-29,丸福合同会社,,合同会社,福井県,鯖江市,吉江町第１２号１３番地２,,18,207,9160001,,,,,,,2023-08-29,1,,,,,マルフク,0
430,2230001019980,新規,0,2023-08-29,2023-08-29,株式会社繋,,株式会社,富山県,南砺市,理休１６６２番地２,,16,210,9391811,,,,,,,2023-08-29,1,,,,,キズナ,0
440,2290001102806,新規,0,2023-08-29,2023-08-29,株式会社イマジン企画,,株式会社,福岡県,福岡市中央区,薬院２丁目５番２６－２０５号,,40,133,8100022,,,,,,,2023-08-29,1,,,,,イマジンキカク,0
442,2290003014289,新規,0,2023-08-29,2023-08-29,合同会社ずっとありがとう,,合同会社,福岡県,福岡市西区,姪浜駅南１丁目６番１３号藤井第一ビル６Ａ,,40,135,8190006,,,,,,,2023-08-29,1,,,,,ズットアリガトウ,0
450,2330001031199,新規,0,2023-08-29,2023-08-29,株式会社グリーンワークス高木,00131693,株式会社,熊本県,菊池郡菊陽町,大字原水３５３９番地１,,43,404,8691102,,,,,,,2023-08-29,1,,,,,グリーンワークスタカギ,0
460,2360001032467,新規,0,2023-08-29,2023-08-29,株式会社奥新,,株式会社,沖縄県,島尻郡与那原町,字東浜１１番地８、２０１,,47,348,9011304,,,,,,,2023-08-29,1,,,,,オクシン,0
465,2360005006896,新規,0,2023-08-29,2023-08-29,一般社団法人読谷ブルーゾーン研究協議会,,その他の設立登記法人,沖縄県,中頭郡読谷村,字渡慶次２５２番地１,,47,324,9040326,,,,,,,2023-08-29,1,,,,,ヨミタンブルーゾーンケンキュウキョウギカイ,0
478,2430001089847,新規,0,2023-08-29,2023-08-29,株式会社Ｌｉｆｔ　Ｕｐ,,株式会社,北海道,余市郡余市町,登町１０３０,,01,408,0460002,,,,,,,2023-08-29,1,,,,,リフトアップ,0
484,2500003003088,新規,0,2023-08-29,2023-08-29,合同会社ＡＬＯＨＡ　ＢＡＳＥ,,合同会社,愛媛県,松山市,余戸中４丁目４番２７号シャーメゾン森２０１号,,38,201,7900045,,,,,,,2023-08-29,1,,,,,アロハベース,0
485,2700150119435,新規,0,2023-08-29,2023-08-29,Ｗｕ　Ｈａｎ　Ｒｕｏ　Ｂｅｉ　Ｋｅ　Ｊｉ　Ｙｏｕ　Ｘｉａｎ　Ｇｏｎｇ　Ｓｉ,,外国会社等,,,,,,,,Ｄｏｎｇ　Ｈｕ　Ｘｉｎ　Ｊｉ　Ｓｈｕ　Ｋａｉ　Ｆａ　Ｑｕ　ＧｕａｎＮａｎＫｅＪｉＧｏｎｇＹｅＹｕａｎＸｉａｎＤａｉＧｕｏＪｉＳｈｅＪｉＣｈｅｎｇ　ＹｉＱｉ　Ｄｉ　３Ｚｈｕａｎｇ　１５Ｃｅｎｇ　４Ｈａｏ　Ｗｕ　Ｈａｎ　Ｓｈｉ　Ｈｕ　Ｂｅｉ　Ｓｈｅｎｇ　ＣＮ,,,,,,2023-08-29,1,,,,,ブカンロウベイカギユウゲンコウシ,0
486,2700150119443,新規,0,2023-08-29,2023-08-29,ｓｈｅｎｚｈｅｎｓｈｉ　ｈｅｉｄｏｎｇｌｉｌｕｎｍａｏｙｉ　ｙｏｕｘｉａｎｇｏｎｇｓｉ,,外国会社等,,,,,,,,ｌｏｎｇｃｈｅｎｇｊｉｅｄａｏｙｕｙｕａｎｓｈｅｑｕａｉｘｉｎｌｕ１２０ｈａｏｈｅｘｉｎｇｈｕａｙｕａｎｅｒｑｉ１ｈａｏｌｏｕａｉｘｉｎｌｕ６　ｓｈｅｎｚｈｉｓｈｉｇｕａｎｇｄｏｎｇｓｈｅｎｇ　ＣＮ,,,,,,2023-08-29,1,,,,,シンセンシヘイドンリルンマオイユウゲンコウシ,0
487,2700150119451,新規,0,2023-08-29,2023-08-29,ａｎｊｉ　ｍａｏｙｕａｎｄｉａｎｚｉｓｈａｎｇｗｕ　ｙｏｕｘｉａｎｇｏｎｇｓｉ,,外国会社等,,,,,,,,ａｎｊｉｘｉａｎ　ｌｉｎｇｆｅｎｇｊｉｅｄａｏ　ｆｕｙｕｎａｎｌｕ６１　ｈａｏ（ｊｉｎｒｏｎｇｄａｓｈａ）１ｚｈｕａｎｇ８０１ｈａｏ１ｓｈｉｈｕｚｈｏｕｓｈｉ　ｚｈｅｊｉａｎｇｓｈｅｎｇ,,,,,,2023-08-29,1,,,,,アンジマオユェンデンシシャオウユウゲンコウシ,0
488,2700150119468,新規,0,2023-08-29,2023-08-29,ｓｈｅｎｚｈｅｎｓｈｉ　ｂｅｉｌａｉｌｉｄｉａｎｑｉ　ｙｏｕｘｉａｎｇｏｎｇｓｉ,,外国会社等,,,,,,,,ｌｏｎｇｇａｎｇｑｕｂａｎｔｉａｎｊｉｅｄａｏｇａｎｇｔｏｕｓｈｅｑｕｔｉａｎａｎｙｕｎｇｕｃｈａｎｙｅｙｕａｎｙｉｑｉ３ｄｏｎｇＡＢＣＤｚｕｏＢ２９０３Ａ　ｓｈｅｎｚｈｅｎｓｈｉ　ｇｕａｎｇｄｏｎｇｓｈｅｎｇ　Ｃｈｉｎａ,,,,,,2023-08-29,1,,,,,シンセンシベイライリデンチユウゲンコウシ,0
489,2700150119476,新規,0,2023-08-29,2023-08-29,ｓｈｅｎｚｈｅｎｓｈｉ　ｈｅｎｇｈｏｎｇ　ｋｅｊｉ　Ｃｏ．，Ｌｔｄ．,,外国会社等,,,,,,,,ｇｕａｎｌａｎｈｕａｎｇｕａｎｚｈｏｎｇｈｕａｎ　ＮＯ．３７０　ｙｉｓｈｕｎｄａｄｉａｎｓｈａｎｇｗｕｌｉｕｙｕａｎＮｕｍｂｅｒ　３０３，３ｔｈ　Ｆｌｏｏｒ，１　ｓｈｅｎｚｈｅｎ　ｇｕａｎｇｄｏｎｇｓｈｅｎｇ,,,,,,2023-08-29,1,,,,,シンセンシコウコウカギユウゲンコウシ,0
490,2700150119484,新規,0,2023-08-29,2023-08-29,ＳＨＡＮＧＨＡＩ　ＲＩＨＡＯ　ＩＮＴＥＲＮＡＴＩＯＮＡＬ　ＴＲＡＤＩＮＧ　ＣＯ．，ＬＴＤ．,,外国会社等,,,,,,,,Ｒｏｏｍ６０７，Ｂｕｉｌｄｉｎｇ１，Ｎｏ．５５　ＨｏｎｏｒＲｏａｄ，ＰｉｌｏｔＦｒｅｅ　Ｔｒａｄｅ　Ｚｏｎｅ，　Ｃｈｉｎａ　（Ｓｈａｎｇｈａｉ）,,,,,,2023-08-29,1,,,,,シャンハイルイハオインターナショナルトレーデイングカンパニーリミテッド,0
491,2700150119526,新規,0,2023-08-29,2023-08-29,ｇａｎｚｈｏｕｆｅｎｇｈｕａｙｕａｎｐｕｃｈａｎｐｉｎｊｉａｎｃｅｙｏｕｘｉａｎｇｏｎｇｓｉ,,外国会社等,,,,,,,,ｊｉａｎｇｘｉｓｈｅｎｇｇａｎｚｈｏｕｓｈｉｇａｎｚｈｏｕｊｉｎｇｊｉｊｉｓｈｕｋａｉｆａｑｕｇｏｎｇｙｅｙｉｌｕｇａｎｚｈｏｕｊｉｎｃａｉｔｏｕｚｉｚｈｉｙｅｙｏｕｘｉａｎｇｏｎｇｓｉ１＃ｓｕｓｈｅ,,,,,,2023-08-29,1,,,,,カンシュウフウカゲンフサンヒンケンソクユウゲンコウシ,0
492,2700150119534,新規,0,2023-08-29,2023-08-29,ＳＨＥＮＺＨＥＮＳＨＩＨＵＩＸＩＮＫＥＣＨＵＡＮＧ　ＹＯＵＸＩＡＮＧＯＮＧＳＩ,,外国会社等,,,,,,,,ＬＯＮＧＧＡＮＧＱＵＢＡＮＴＩＡＮＪＩＥＤＡＯＢＡＮＴＩＡＮＳＨＥＱＵＢＡＮＸＩＮＧＪＩＥ２４ＨＡＯＤＤＯＮＧ２０１　ＳＨＥＮＺＨＥＮ　Ｃｈｉｎａ,,,,,,2023-08-29,1,,,,,シンセンシフイシンケチワンユウゲンコウシ,0
501,3010001238049,新規,0,2023-08-29,2023-08-29,日本家電Ｅ・Ｓ株式会社,,株式会社,東京都,千代田区,神田神保町２丁目４番地,,13,101,1010051,,,,,,,2023-08-29,1,,,,,ニホンカデンイーエス,0
505,3010003041525,新規,0,2023-08-29,2023-08-29,合同会社まめしば,,合同会社,東京都,千代田区,外神田３丁目１４番７号東雲堂ビル２階,,13,101,1010021,,,,,,,2023-08-29,1,,,,,マメシバ,0
507,3010005037026,新規,0,2023-08-29,2023-08-29,一般社団法人中小企業をサイバー攻撃から守る会,,その他の設立登記法人,東京都,千代田区,鍛冶町１丁目６番１７号,,13,101,1010044,,,,,,,2023-08-29,1,,,,,チュウショウキギョウヲサイバーコウゲキカラマモルカイ,0
508,3010005037174,新規,0,2023-08-29,2023-08-29,一般社団法人日本家系図制作士協会,,その他の設立登記法人,東京都,千代田区,神田錦町３丁目２１－１１０５,,13,101,1010054,,,,,,,2023-08-29,1,,,,,ニホンカケイズセイサクシキョウカイ,0
509,3010101015793,新規,0,2023-08-29,2023-08-29,株式会社日和,,株式会社,東京都,八王子市,八幡町１番１号エリートビル八幡町Ｂ１,,13,201,1920053,,,,,,,2023-08-29,1,,,,,ヒヨリ,0
514,3010401176765,新規,0,2023-08-29,2023-08-29,株式会社Ｌ　ＪＯＢ,,株式会社,東京都,港区,南青山３丁目１番３号ＳＰＬＩＮＥ青山東急ビル４・６Ｆ,,13,103,1070062,,,,,,,2023-08-29,1,,,,,エルジョブ,0
515,3010403030788,新規,0,2023-08-29,2023-08-29,ＹＭＭＤ合同会社,,合同会社,東京都,港区,南青山３丁目１番３６号青山丸竹ビル６Ｆ,,13,103,1070062,,,,,,,2023-08-29,1,,,,,ワイエムエムデイ,0
516,3010403030813,新規,0,2023-08-29,2023-08-29,ＬＳ‐ＤＡＬ第１１号合同会社,,合同会社,東京都,港区,六本木１丁目６番１号,,13,103,1060032,,,,,,,2023-08-29,1,,,,,エルエスディーエーエルダイジュウイチゴウ,0
524,3010901053712,新規,0,2023-08-29,2023-08-29,株式会社ｍ,,株式会社,東京都,世田谷区,祖師谷１丁目２６番３号藤和祖師谷ホームズ２０７号,,13,112,1570072,,,,,,,2023-08-29,1,,,,,エム,0
533,3011001156629,新規,0,2023-08-29,2023-08-29,株式会社ＤＡＩＫＩ　ＥＳＴＡＴＥ,,株式会社,東京都,渋谷区,渋谷２丁目６番８号,,13,113,1500002,,,,,,,2023-08-29,1,,,,,ダイキエステート,0
534,3011001156637,新規,0,2023-08-29,2023-08-29,株式会社ＷＯＲＬＤ　ｏｆ　ＨＩＲＯＫＩＹＡ,,株式会社,東京都,渋谷区,宇田川町３４番６号Ｍ＆Ｉビル１Ｆ,,13,113,1500042,,,,,,,2023-08-29,1,,,,,ワールドオブヒロキヤ,0
538,3011003017440,新規,0,2023-08-29,2023-08-29,ＲＣアセットマネジメント合同会社,,合同会社,東京都,目黒区,下目黒１丁目２番１８号横河ビルヂング２階,,13,110,1530064,,,,,,,2023-08-29,1,,,,,アールシーアセットマネジメント,0
539,3011003017449,新規,0,2023-08-29,2023-08-29,Ｃａｕｓｅｗａｙ合同会社,,合同会社,東京都,渋谷区,神泉町１０番１５号,,13,113,1500045,,,,,,,2023-08-29,1,,,,,コーズウェイ,0
545,3011301028965,新規,0,2023-08-29,2023-08-29,株式会社Ｓｅａ　ｈａｗｋ,,株式会社,東京都,杉並区,上荻３丁目２１番１５号,,13,115,1670043,,,,,,,2023-08-29,1,,,,,シーホーク,0
553,3012701017814,新規,0,2023-08-29,2023-08-29,株式会社ふぉれっく,,株式会社,東京都,小平市,小川東町１丁目２９番１５号,,13,211,1870031,,,,,,,2023-08-29,1,,,,,フォレック,0
554,3013103001258,新規,0,2023-08-29,2023-08-29,センサウェーブ合同会社,,合同会社,東京都,福生市,大字福生５１７番地４,,13,218,1970011,,,,,,,2023-08-29,1,,,,,,0
560,3013301051278,新規,0,2023-08-29,2023-08-29,ＵＭＩ　ＧＬＯＢＡＬ株式会社,,株式会社,東京都,豊島区,南大塚２丁目１８番２５号大丸荘２１１号,,13,116,1700005,,,,,,,2023-08-29,1,,,,,ウミグローバル,0
568,3020001153214,新規,0,2023-08-29,2023-08-29,株式会社ＣＯＦ,,株式会社,神奈川県,横浜市中区,本牧元町４８番２０号,,14,104,2310822,,,,,,,2023-08-29,1,,,,,シーオーエフ,0
574,3020003024330,新規,0,2023-08-29,2023-08-29,合同会社ＣＯＬＯＲＳ,,合同会社,神奈川県,横浜市鶴見区,馬場３丁目１番２６号,,14,101,2300076,,,,,,,2023-08-29,1,,,,,カラーズ,0
575,3020003024347,新規,0,2023-08-29,2023-08-29,合同会社Ｍａｒｋｅｔｉｎｇ　Ｌａｂ,,合同会社,神奈川県,横浜市都筑区,荏田東４丁目４０番１号クオリア１０１,,14,118,2240006,,,,,,,2023-08-29,1,,,,,マーケティングラボ,0
578,3021001080051,新規,0,2023-08-29,2023-08-29,株式会社Ｋ．Ｉｎｔｅｒｉｏｒ,,株式会社,神奈川県,相模原市南区,西大沼１丁目３０番１０号,,14,153,2520332,,,,,,,2023-08-29,1,,,,,ケーインテリオール,0
586,3030001155366,新規,0,2023-08-29,2023-08-29,ＪＴＷ産業株式会社,,株式会社,埼玉県,川口市,本蓮３丁目６番１１号,00131689,11,203,3340076,,,,,,,2023-08-29,1,,,,,ジェイティーダブリューサンギョウ,0
587,3030001155449,新規,0,2023-08-29,2023-08-29,ステージュア株式会社,,株式会社,埼玉県,越谷市,千間台西１丁目７番地８,,11,222,3430041,,,,,,,2023-08-29,1,,,,,ステージュア,0
588,3030001155457,新規,0,2023-08-29,2023-08-29,株式会社和,,株式会社,埼玉県,越谷市,蒲生２丁目１６番３３号,,11,222,3430838,,,,,,,2023-08-29,1,,,,,ヤマト,0
589,3030001155465,新規,0,2023-08-29,2023-08-29,株式会社ＯＷＬ,,株式会社,埼玉県,八潮市,中央２丁目１９番地２,,11,234,3400816,,,,,,,2023-08-29,1,,,,,アウル,0
594,3030003022358,新規,0,2023-08-29,2023-08-29,Ａｓｃｅｎｓｏ合同会社,,合同会社,埼玉県,さいたま市緑区,東浦和２丁目３５番地８,,11,109,3360926,,,,,,,2023-08-29,1,,,,,アセェンソン,0
595,3030005021366,新規,0,2023-08-29,2023-08-29,一般社団法人ＳＩＰＪ工法協会,,その他の設立登記法人,埼玉県,川口市,東領家４丁目１７番１１号,,11,203,3320003,,,,,,,2023-08-29,1,,,,,シップジェイコウホウキョウカイ,0
605,3040003023198,新規,0,2023-08-29,2023-08-29,合同会社パレス,,合同会社,千葉県,千葉市中央区,富士見２丁目２３番９号千葉中央プリマビル６階,,12,101,2600015,,,,,,,2023-08-29,1,,,,,パレス,0
606,3040005022108,新規,0,2023-08-29,2023-08-29,一般社団法人子供支援機構みらいラボ,,その他の設立登記法人,千葉県,船橋市,湊町２丁目１５番２２－１００３号,,12,204,2730011,,,,,,,2023-08-29,1,,,,,コドモシエンキコウミライラボ,0
608,3050003007753,新規,0,2023-08-29,2023-08-29,合同会社Ｉｍａｇｉｎｅ,,合同会社,茨城県,北相馬郡利根町,もえぎ野台４丁目７番１号,,08,564,3001606,,,,,,,2023-08-29,1,,,,,イマジン,0
620,3110001037804,新規,0,2023-08-29,2023-08-29,株式会社ＮＥＸＳＴＥＲ,,株式会社,新潟県,上越市,石橋１丁目５番１１号タウンコート駅南１１１号,,15,222,9420074,,,,,,,2023-08-29,1,,,,,ネクスター,0
631,3120001257608,新規,0,2023-08-29,2023-08-29,左佐木株式会社,,株式会社,大阪府,大阪市生野区,巽北１丁目１番１号３Ｆ－Ａ,,27,116,5440004,,,,,,,2023-08-29,1,,,,,ササキ,0
634,3120003024799,新規,0,2023-08-29,2023-08-29,合同会社ＡＫプロジェクト,,合同会社,大阪府,大阪市中央区,日本橋２丁目２０番３－５０２号,,27,128,5420073,,,,,,,2023-08-29,1,,,,,エーケープロジェクト,0
637,3120901047983,新規,0,2023-08-29,2023-08-29,株式会社橋本工務店,,株式会社,大阪府,豊中市,庄内栄町４丁目２３番８号,,27,203,5610834,,,,,,,2023-08-29,1,,,,,ハシモトコウムテン,0
646,3130001075018,新規,0,2023-08-29,2023-08-29,株式会社つなぐ,,株式会社,京都府,京都市右京区,太秦川所町７番地１１５,,26,108,6168143,,,,,,,2023-08-29,1,,,,,ツナグ,0
648,3130003008917,新規,0,2023-08-29,2023-08-29,ＳＨＥＥＰ＆ＳＨＩＰ合同会社,,合同会社,京都府,京都市左京区,吉田橘町３２番地,,26,103,6068303,,,,,,,2023-08-29,1,,,,,シープアンドシップ,0
649,3130003008925,新規,0,2023-08-29,2023-08-29,看護学校整備合同会社,,合同会社,京都府,宮津市,字鶴賀２０５４－１宮津商工会議所内,,26,205,6260041,,,,,,,2023-08-29,1,,,,,カンゴガッコウセイビ,0
654,3140001131380,新規,0,2023-08-29,2023-08-29,株式会社佐々木Ｃｏｎｓｔｒｕｃｔｉｏｎ,,株式会社,兵庫県,伊丹市,東野３丁目６３番２号,,28,207,6640004,,,,,,,2023-08-29,1,,,,,ササキコンストラクション,0
656,3150001026679,新規,0,2023-08-29,2023-08-29,株式会社ミネロワ,,株式会社,奈良県,北葛城郡王寺町,本町１丁目１９番５号,,29,425,6360012,,,,,,,2023-08-29,1,,,,,ミネロワ,0
659,3170001017750,新規,0,2023-08-29,2023-08-29,株式会社ＱＵＥＳＴＹ,,株式会社,和歌山県,東牟婁郡串本町,中湊９５番地５,,30,428,6494116,,,,,,,2023-08-29,1,,,,,クエスティ,0
694,3290001102788,新規,0,2023-08-29,2023-08-29,株式会社ＦＩＸＩＡ,,株式会社,福岡県,福岡市中央区,舞鶴３丁目１番１５号,,40,133,8100073,,,,,,,2023-08-29,1,,,,,フィクシア,0
705,3290801029818,新規,0,2023-08-29,2023-08-29,株式会社グリーンココ,,株式会社,福岡県,行橋市,泉中央８丁目１９番３５号,,40,213,8240034,,,,,,,2023-08-29,1,,,,,グリーンココ,0
715,3340005009644,新規,0,2023-08-29,2023-08-29,特定非営利活動法人ＣＤＰＣサポート,,その他の設立登記法人,鹿児島県,鹿児島市,鴨池１丁目４３番１８号アッサン川路７０２号,,46,201,8900063,,,,,,,2023-08-29,1,,,,,シィディピィシサポート,0
719,3360001032458,新規,0,2023-08-29,2023-08-29,株式会社ファーストワン,,株式会社,沖縄県,うるま市,字具志川３７５番地,,47,213,9042223,,,,,,,2023-08-29,1,,,,,ファーストワン,0
720,3360001032474,新規,0,2023-08-29,2023-08-29,株式会社ＬＭサポート,,株式会社,沖縄県,那覇市,与儀１丁目１４番１０号１－Ｂ,,47,201,9020076,,,,,,,2023-08-29,1,,,,,エルエムサポート,0
723,3380003005550,新規,0,2023-08-29,2023-08-29,合同会社セブンエース,,合同会社,福島県,いわき市,常磐湯本町山ノ神１５番地の１,,07,204,9728321,,,,,,,2023-08-29,1,,,,,セブンエース,0
733,3420003002782,新規,0,2023-08-29,2023-08-29,合同会社あるふぁ,,合同会社,青森県,南津軽郡田舎館村,大字畑中字上野１６０番地３,,02,367,0381121,,,,,,,2023-08-29,1,,,,,アルファ,0
735,3430001089862,新規,0,2023-08-29,2023-08-29,株式会社９．ｃｏｎｎｅｃｔ,,株式会社,北海道,勇払郡むかわ町,生田３７９番地１,,01,586,0540012,,,,,,,2023-08-29,1,,,,,キュウコネクト,0
737,3440001009308,新規,0,2023-08-29,2023-08-29,株式会社ｍｏｔｏｋｕｒａ,,株式会社,北海道,函館市,石川町１３４番地１５５,,01,202,0410802,,,,,,,2023-08-29,1,,,,,モトクラ,0
739,3480001012191,新規,0,2023-08-29,2023-08-29,株式会社盛洋,,株式会社,徳島県,鳴門市,撫養町黒崎字清水１００番地メゾンコンソラトゥールＢ２０２号,,36,202,7720001,,,,,,,2023-08-29,1,,,,,モリヨウ,0
741,3500001025158,新規,0,2023-08-29,2023-08-29,ＬＥＯＮ株式会社,,株式会社,愛媛県,松山市,中島大浦５７４,,38,201,7914501,,,,,,,2023-08-29,1,,,,,レオン,0
742,3500005008638,新規,0,2023-08-29,2023-08-29,農事組合法人楽農会,,その他の設立登記法人,愛媛県,西条市,新市６０４番地１,,38,206,7991325,,,,,,,2023-08-29,1,,,,,,0
743,3700150011616,新規,0,2023-08-29,2015-10-09,愛農普及会,,その他,東京都,武蔵野市,吉祥寺南町３丁目４６－１０,,13,203,1800003,,,,,,,2015-10-09,1,,,,,アイノウフキユウカイ,0
744,3700150116340,新規,0,2023-08-29,2023-08-29,ｓｈｅｎｚｈｅｎｙｉｔａｉｍａｏｙｉｙｏｕｘｉａｎｇｏｎｇｓｉ,,外国会社等,,,,,,,,２Ｂ０２，Ｂａｏｙｕｎｄａ　Ｒ＆Ｄ　Ｃｏｍｐｌｅｘ　Ｂｕｉｌｄｉｎｇ，Ｆｕｈｕａ　Ｃｏｍｍｕｎｉｔｙ，Ｘｉｘｉａｎｇ　Ｓｔｒｅｅｔ，Ｂａｏａｎ　Ｄｉｓｔｒｉｃｔ，Ｓｈｅｎｚｈｅｎ　Ｇｕａｎｇｄｏｎｇ,,,,,,2023-08-29,1,,,,,シンセンイチダイボウエキ,0
745,3700150119434,新規,0,2023-08-29,2023-08-29,ＳＨＥＮＺＨＥＮＳＨＩ　ＺＨＥＮＧＺＨＩＨＡＮＧ　ＦＡＺＨＡＮ　ＹＯＵＸＩＡＮ　ＧＯＮＧＳＩ,,外国会社等,,,,,,,,Ｊｉ　Ｈｕａ　Ｊｉｅ　Ｄａｏ　Ｈｕａ　Ｙｕ　Ａｎ　１　Ｄｏｎｇ　Ｃ　Ｚｕｏ　１９０１　Ｓｈｅｎ　Ｚｈｅｎ　Ｓｈｉ　Ｌｏｎｇ　Ｇａｎｇ　Ｑｕ　Ｇｕａｎｇ　Ｄｏｎｇ　Ｓｈｅｎｇ　ＣＮ,,,,,,2023-08-29,1,,,,,シンセンシゼンジハンファザンユウゲンコウシ,0
746,3700150119442,新規,0,2023-08-29,2023-08-29,Ｓｈｅｎｚｈｅｎ　Ｚｈｉｓｈａｎｇｓｈｉｘｕｎ　Ｔｅｃｈｎｏｌｏｇｙ　Ｃｏ．，Ｌｔｄ,,外国会社等,,,,,,,,２０１，Ｎｏ．１２，Ｒｏａｄ　１，Ｘｉａｗｅｉ　Ｉｎｄｕｓｔｒｉａｌ　Ｚｏｎｅ，Ｚｈａｎｋｅｎｇ　Ｔｒａｉｌ　Ｃｏｍｍｕｎｉｔｙ，Ｇｕａｎｇｈｕ　Ｓｔｒｅｅｔ，Ｌｏｎｇｈｕａ　Ｄｉｓｔｒｉｃｔ，Ｓｈｅｎｚｈｅｎ　Ｃｉｔｙ,,,,,,2023-08-29,1,,,,,シンセンジシャンシシュンテクノロジーカンパニーリミテッド,0
747,3700150119450,新規,0,2023-08-29,2023-08-29,Ｇｕａｎｇｚｈｏｕ　Ｙｉｊｉｌｉａｎｇ　ｘｉｎｘｉ　ｋｅｊｉ　ｙｏｕｘｉａｎ　ｇｏｎｇｓｉ,,外国会社等,,,,,,,,Ｔｉａｎｈｅｑｕ，Ｚｈｕｊｉｌｕ，５９ｈａｏｚｈｉｅｒ，Ｓｉｌｏｕ　Ａ４７４３　Ｇｕａｎｇｚｈｏｕ，Ｇｕａｎｇｄｏｎｇ,,,,,,2023-08-29,1,,,,,コウシュウイジリャンシンシカギユウゲンコウシ,0
748,3700150119459,新規,0,2023-08-29,2023-08-29,ＬａＲｏｏ　Ｐｅｔ　Ｓｕｐｐｌｉｅｓ　（Ｓｈｅｎｚｈｅｎ）　Ｃｏ．Ｌｔｄ,,外国会社等,,,,,,,,Ｂａｏａｎ　Ｘｉｎ’ａｎ　Ｊｉｅｄａｏ　Ｄａｌａｎｇ　Ｃｏｍｍｕｎｉｔｙ　Ｄｉｓｔｒｉｃｔ　２８　Ｘｉｎ’ａｎ　３ｒｄ　Ｒｏａｄ　Ｎｏ．２４　Ｌａｎｅ　１，Ｃｏｎｖｅｒｇｅ　Ｂａｏａｎ　Ｂａｙ　Ｓｍａｒｔ　Ｐａｒｋ　３ｒｄ　Ｆｌｏｏｒ，Ｂｕｉｌｄｉｎｇ　Ｂ，Ｂｕｉｌｄｉｎｇ　Ｃ　Ｓｈｅｎｚｈｅｎ　Ｇｕａｎｇｄｏｎｇ,,,,,,2023-08-29,1,,,,,ラローペットサプライズシンセンカンパニーリミテッド,0
749,3700150119467,新規,0,2023-08-29,2023-08-29,ｘｉａｎ　ｄａｑｉａｎｗａｎｇｌｕｏｋｅｊｉ　ｙｏｕｘｉａｎｇｏｎｇｓｉ,,外国会社等,,,,,,,,Ｎｏ．２３　Ｒｏｗ　１５　Ｓｏｕｔｈ　ｏｆ　Ｚｈｏｎｇｇｏｎｇ　Ｅｌｅｃｔｒｏｎｉｃｓ　Ｍａｒｋｅｔ，Ｎｏ．５２　Ｃｈａｎｇ’ａｎ　Ｎｏｒｔｈ　Ｒｏａｄ，Ｂｅｉｌｉｎ　Ｄｉｓｔｒｉｃｔ，Ｘｉ’ａｎ　Ｃｉｔｙ　Ｃｈｉｎａ,,,,,,2023-08-29,1,,,,,シアンダチェンワンロカギユウゲンコウシ,0
750,3700150119475,新規,0,2023-08-29,2023-08-29,ｈｕｂｅｉ　ｃｈｉｙｕａｎ　ｇｕａｎｌｉ　ｚｉｘｕｎ　ｙｏｕｘｉａｎ　ｇｏｎｇｓｉ,,外国会社等,,,,,,,,ｄｉｗｕｃｅｎｇ　５１９８ｓｈｉ　ｆａｎｃｈｅｎｇｑｕ　ｃｈａｎｇｈｏｎｇｌｕ　１４８ｈａｏ　ｌａｎｇｕａｎｇｓｈｉｙｅｇｏｎｇｓｉ　ｄａｌｏｕｆｕｌｏｕ　ｘｉａｎｇｙａｎｇｓｈｉ　ｈｕｂｅｉｓｈｅｎｇ,,,,,,2023-08-29,1,,,,,コホクショウチゲンカンリシジュンユウゲンコウシ,0
751,3700150119483,新規,0,2023-08-29,2023-08-29,ｓｈｅｎｚｈｅｎｓｈｉ　ｐｕｌａｄｅ　ｃｏ．，ｌｔｄ,,外国会社等,,,,,,,,５０１，Ｋａｎｇｌｅ　Ｂｕｓｉｎｅｓｓ　Ｂｕｉｌｄｉｎｇ，Ｐｅａｃｅ　Ｒｏａｄ，Ｌｏｎｇｈｕａ　Ｓｔｒｅｅｔ，Ｌｏｎｇｈｕａ　Ｎｅｗ　Ｄｉｓｔｒｉｃｔ，Ｓｈｅｎｚｈｅｎ　ｃｉｔｙ,,,,,,2023-08-29,1,,,,,シェンジェンシープーラーダーコージーヨウシエンゴンスー,0
752,3700150119525,新規,0,2023-08-29,2023-08-29,ｇａｎｚｈｏｕｙｏｕｙｏｕｄｉａｎｚｉｓｈａｎｇｗｕｙｏｕｘｉａｎｇｏｎｇｓｉ,,外国会社等,,,,,,,,ｓｈｕｉｎａｎｚｈｅｎｌａｃｈａｎｇｃｕｎｙｅｐｉｎｇｌｕｒｕｉｘｉｎｊｉａｙｕａｎ１８ｄｏｎｇ２ｃｅｎｇｘｉｅｚｉ　ｇａｎｚｈｏｕｓｈｉｚｈａｎｇｇｏｎｇｑｕ　ｊｉａｎｇｘｉｓｈｅｎｇ,,,,,,2023-08-29,1,,,,,カンシュウユウユウデンシショウムユウゲンコウシ,0
753,3700150119533,新規,0,2023-08-29,2023-08-29,ｓｈｅｎｚｈｅｎｓｈｉ　ｇｕａｎｇｙｕａｎｔｏｎｇｄａｄｉａｎｚｉｓｈａｎｇｗｕ　Ｃｏ．，Ｌｔｄ．,,外国会社等,,,,,,,,ｌｏｎｇｈｕａｑｕｍｉｎｚｈｉｊｉｅｄａｏｚｈａｎｇｋｅｎｇｓｈｅｑｕｑｉｎｇｃｈｕａｎｇｃｈｅｎｇＡｄｏｎｇ２－Ｂ２ｓｈｅｎｚｈｅｎｓｈｉ　Ｃｈｉｎａ,,,,,,2023-08-29,1,,,,,シンセンシグゥアンユェントンダデンシショウムカンパニーリミテッド,0
761,4010003041326,新規,0,2023-08-29,2023-08-29,ＣｏｃｏＢｒａｎｄ合同会社,,合同会社,東京都,中央区,日本橋室町１丁目１１番１２号日本橋水野ビル７階,,13,102,1030022,,,,,,,2023-08-29,1,,,,,ココブランド,0
762,4010005037181,新規,0,2023-08-29,2023-08-29,一般社団法人日本医療的ケア看護職員支援協会,,その他の設立登記法人,東京都,千代田区,有楽町２丁目７番１号有楽町イトシア１２Ｆ,,13,101,1000006,,,,,,,2023-08-29,1,,,,,ニホンイリョウテキケアカンゴショクインシエンキョウカイ,0
763,4010101015792,新規,0,2023-08-29,2023-08-29,株式会社メカジキ,,株式会社,東京都,八王子市,松が谷２７番地２－４０３,,13,201,1920354,,,,,,,2023-08-29,1,,,,,メカジキ,0
769,4010401176814,新規,0,2023-08-29,2023-08-29,ＭＳＳ　ＪＡＰＡＮ株式会社,,株式会社,東京都,港区,赤坂２丁目８番１４－４０７号,,13,103,1070052,,,,,,,2023-08-29,1,,,,,エムエスエスジャパン,0
774,4010403030812,新規,0,2023-08-29,2023-08-29,ＬＳ‐ＤＡＬ第１０号合同会社,,合同会社,東京都,港区,六本木１丁目６番１号,,13,103,1060032,,,,,,,2023-08-29,1,,,,,エルエスディーエーエルダイジュウゴウ,0
775,4010405022394,新規,0,2023-08-29,2023-08-29,弁理士法人桐生知財総合事務所,,その他の設立登記法人,東京都,港区,赤坂９丁目１番７号秀和赤坂レジデンシャルホテル７４１号室,,13,103,1070052,,,,,,,2023-08-29,1,,,,,キリュウチザイソウゴウジムショ,0
777,4010601063688,新規,0,2023-08-29,2023-08-29,株式会社Ｒａｉ　Ｒｕｎａ,,株式会社,東京都,墨田区,江東橋４丁目２７－１４楽天地ビル,,13,107,1300022,,,,,,,2023-08-29,1,,,,,ライルナ,0
788,4011003017448,新規,0,2023-08-29,2023-08-29,合同会社ＤＢＳＳ,,合同会社,東京都,渋谷区,神泉町１０番１５号,,13,113,1500045,,,,,,,2023-08-29,1,,,,,ディービーエスエス,0
789,4011005010194,新規,0,2023-08-29,2023-08-29,一般社団法人日本免震住宅普及協会,,その他の設立登記法人,東京都,渋谷区,笹塚１丁目２９番３号ＳＳＤ７０４号,,13,113,1510073,,,,,,,2023-08-29,1,,,,,ニホンメンシンジュウタクフキュウキョウカイ,0
790,4011101104164,新規,0,2023-08-29,2023-08-29,ＡＰＥＸ株式会社,,株式会社,東京都,新宿区,西新宿３丁目３番１３号西新宿水間ビル２Ｆ,,13,104,1600023,,,,,,,2023-08-29,1,,,,,エーペックス,0
792,4011103013421,新規,0,2023-08-29,2023-08-29,合同会社ＴＵ１７,,合同会社,東京都,新宿区,四谷２丁目９番地１５東京ユナイテッド綜合事務所内,,13,104,1600004,,,,,,,2023-08-29,1,,,,,ティーユージュウナナ,0
798,4011301028964,新規,0,2023-08-29,2023-08-29,株式会社碧電設,,株式会社,東京都,杉並区,高円寺南４丁目７番３－８０３号サンシャイン高円寺,,13,115,1660003,,,,,,,2023-08-29,1,,,,,ミドリデンセツ,0
806,4012801022589,新規,0,2023-08-29,2023-08-29,株式会社ケイアイ・サポート,,株式会社,東京都,日野市,高幡１００９番地７ＴＩＫビル４０２,,13,212,1910031,,,,,,,2023-08-29,1,,,,,ケイアイサポート,0
822,4021003013512,新規,0,2023-08-29,2023-08-29,合同会社ＭＡＹＤＡＹ　ＳＫＩＮＴＨＥＴＩＣＳ,,合同会社,神奈川県,横須賀市,小川町２１番地８エリカオリエントマンション２０４,,14,201,2380004,,,,,,,2023-08-29,1,,,,,メイデイスキンテティックス,0
832,4030001155464,新規,0,2023-08-29,2023-08-29,株式会社ゆう,,株式会社,埼玉県,さいたま市大宮区,桜木町２丁目３７０番地,,11,103,3300854,,,,,,,2023-08-29,1,,,,,ユウ,0
833,4030001155489,新規,0,2023-08-29,2023-08-29,日健道株式会社,,株式会社,埼玉県,蕨市,塚越７丁目２２番７号ＥＸＣＥＥＤ川口６０２,,11,223,3350002,,,,,,,2023-08-29,1,,,,,ニッケンドウ,0
834,4030001155646,新規,0,2023-08-29,2023-08-29,株式会社スーマイルリフォーム,,株式会社,埼玉県,戸田市,美女木２丁目２０番地の７わたらせハイツ１０２,,11,224,3350031,,,,,,,2023-08-29,1,,,,,スーマイルリフォーム,0
839,4030003022332,新規,0,2023-08-29,2023-08-29,合同会社フォトン,,合同会社,埼玉県,蕨市,南町２丁目９番５号,,11,223,3350003,,,,,,,2023-08-29,1,,,,,フォトン,0
844,4040001129590,新規,0,2023-08-29,2023-08-29,株式会社清田ホールディングス,,株式会社,千葉県,鎌ケ谷市,東初富６丁目９番３２号,,12,224,2730122,,,,,,,2023-08-29,1,,,,,キヨタホールディングス,0
847,4040003023197,新規,0,2023-08-29,2023-08-29,合同会社ｆｒａｎｋ,,合同会社,千葉県,市川市,市川南１丁目１番８号６１１室,,12,203,2720033,,,,,,,2023-08-29,1,,,,,フランク,0
854,4060003004699,新規,0,2023-08-29,2023-08-29,パルナス合同会社,,合同会社,栃木県,小山市,大字大本１７１５番地,,09,208,3230009,,,,,,,2023-08-29,1,,,,,パルナス,0
870,4110001037803,新規,0,2023-08-29,2023-08-29,日本建設部品株式会社,,株式会社,新潟県,南魚沼市,原２６４番地３,,15,226,9496755,,,,,,,2023-08-29,1,,,,,ニッポンケンセツブヒン,0
878,4120001256955,新規,0,2023-08-29,2023-08-29,一川株式会社,,株式会社,大阪府,大阪市西成区,松３丁目１２番２－２０５号,,27,122,5570034,,,,,,,2023-08-29,1,,,,,イチカワ,0
879,4120001257607,新規,0,2023-08-29,2023-08-29,株式会社Ｓｐｅｃｉａｌ　ｋｕｍａ,,株式会社,大阪府,大阪市東淀川区,下新庄２丁目８－１６セントラル淡路２０２,,27,114,5330021,,,,,,,2023-08-29,1,,,,,スペシャルクマ,0
880,4120001257656,新規,0,2023-08-29,2023-08-29,株式会社アスカ,,株式会社,大阪府,寝屋川市,松屋町１９番１－８１２号,,27,215,5720086,,,,,,,2023-08-29,1,,,,,アスカ,0
881,4120001257664,新規,0,2023-08-29,2023-08-29,株式会社ＣＲａｉｓｅ,,株式会社,大阪府,大阪市浪速区,難波中２丁目４番１２ティタカラナビル５０１,,27,111,5560011,,,,,,,2023-08-29,1,,,,,クレイズ,0
889,4120105009755,新規,0,2023-08-29,2023-08-29,特定非営利活動法人ピーチサッカースタジアム,,その他の設立登記法人,大阪府,堺市南区,美木多上２８８,,27,145,5900136,,,,,,,2023-08-29,1,,,,,ピーチサッカースタジアム,0
892,4120901047958,新規,0,2023-08-29,2023-08-29,ＲＮＨＯ　Ｐｈａｒｍａ　Ｔｅｃｈｎｏ株式会社,,株式会社,大阪府,池田市,神田１丁目２番２１号セントラルコートＶ号館４０２号室,00131687,27,204,5630043,,,,,,,2023-08-29,1,,,,,アールエヌエイチオーファーマテクノ,0
893,4120903004800,新規,0,2023-08-29,2023-08-29,合同会社Ｘｔｃ,,合同会社,大阪府,豊中市,庄内西町５丁目４番１号,,27,203,5610832,,,,,,,2023-08-29,1,,,,,エクストゥシー,0
903,4140001131388,新規,0,2023-08-29,2023-08-29,フォーシーズン株式会社,,株式会社,兵庫県,神戸市東灘区,御影３丁目２－１１－２２,,28,101,6580047,,,,,,,2023-08-29,1,,,,,フォーシーズン,0
904,4150001026678,新規,0,2023-08-29,2023-08-29,斑鳩情報開発株式会社,,株式会社,奈良県,生駒郡斑鳩町,興留７丁目７番３号,,29,344,6360123,,,,,,,2023-08-29,1,,,,,イカルガジョウホウカイハツ,0
912,4180001157768,新規,0,2023-08-29,2023-08-29,株式会社Ｉｎｄｉｇｏ,,株式会社,愛知県,名古屋市中区,丸の内２丁目２０番３２号,,23,106,4600002,,,,,,,2023-08-29,1,,,,,インディゴ,0
917,4230003002074,新規,0,2023-08-29,2023-08-29,ｍｉｍｏｓａ合同会社,,合同会社,富山県,射水市,三ケ２６７３番地２,,16,211,9390341,,,,,,,2023-08-29,1,,,,,ミモザ,0
919,4240003006272,新規,0,2023-08-29,2023-08-29,Ｌｉｔ　Ｃｏｎｓｕｌｔｉｎｇ合同会社,,合同会社,広島県,広島市西区,庚午中２丁目３番１４号－１号室,,34,104,7330822,,,,,,,2023-08-29,1,,,,,リットコンサルティング,0
920,4250001020258,新規,0,2023-08-29,2023-08-29,株式会社Ｆｌｏｗｅｒ　Ｆｏｒｅｓｔ,,株式会社,山口県,山口市,大内長野１００２９番地４,,35,203,7530211,,,,,,,2023-08-29,1,,,,,フラワーフォレスト,0
929,4290001102754,新規,0,2023-08-29,2023-08-29,株式会社ＤｅｊａＶｕ,,株式会社,福岡県,福岡市東区,多の津１丁目１０－１－４３２,,40,131,8130034,,,,,,,2023-08-29,1,,,,,デジャブ,0
930,4290001102795,新規,0,2023-08-29,2023-08-29,株式会社クラフトサービス,,株式会社,福岡県,福岡市城南区,堤１丁目２０番２０－２０３号,,40,136,8140151,,,,,,,2023-08-29,1,,,,,クラフトサービス,0
934,4290801029817,新規,0,2023-08-29,2023-08-29,株式会社エルカラット,,株式会社,福岡県,北九州市八幡東区,白川町７番４１号,,40,108,8050007,,,,,,,2023-08-29,1,,,,,エルカラット,0
942,4340005009643,新規,0,2023-08-29,2023-08-29,エル・フォルム指宿管理組合法人,,その他の設立登記法人,鹿児島県,指宿市,湯の浜５丁目２７－１４,,46,210,8910406,,,,,,,2023-08-29,1,,,,,エルフォルムイブスキ,0
946,4360005006894,新規,0,2023-08-29,2023-08-29,一般社団法人八重山アグリサポート,,その他の設立登記法人,沖縄県,石垣市,美崎町８番地１２,,47,207,9070012,,,,,,,2023-08-29,1,,,,,ヤエヤマアグリサポート,0
960,4420003002781,新規,0,2023-08-29,2023-08-29,合同会社魁永,,合同会社,青森県,北津軽郡鶴田町,大字菖蒲川字前田２４３番地,,02,384,0383521,,,,,,,2023-08-29,1,,,,,カイエイ,0
966,4440005002761,新規,0,2023-08-29,2023-08-29,一般社団法人慈愛星,,その他の設立登記法人,北海道,函館市,日吉町４丁目５番２０号,,01,202,0410841,,,,,,,2023-08-29,1,,,,,ジアイセイ,0
967,4460003000963,新規,0,2023-08-29,2023-08-29,合同会社Ｃａｍｂｉａ,,合同会社,北海道,釧路市,駒場町８番４号,,01,206,0850048,,,,,,,2023-08-29,1,,,,,キャンビア,0
969,4700150118996,新規,0,2023-08-29,2023-08-15,糟屋郡町村会,,その他,福岡県,糟屋郡粕屋町,大字上大隈５５－１糟屋郡自治会館　内,,40,349,8112301,,,,,,,2023-08-15,1,,,,,カスヤグンチヨウソンカイ,0
970,4700150119433,新規,0,2023-08-29,2023-08-29,ｎｉｎｇｄｅ　ｙｕａｎｌｉｍａｏｙｉ　ｙｏｕｘｉａｎｇｏｎｇｓｉ,,外国会社等,,,,,,,,Ｊｉａｏ　Ｃｈｅｎｇ　Ｎａｎ　Ｌｕ　Ｊｉｎ　Ｘｉｕ　Ｍｉｎｇ　Ｙｕａｎ　１－１７０５Ｊｉａｏ　Ｃｈｅｎｇｑｕ　Ｎｉｎｇｄｅｓｈｉ　Ｆｕｊｉａｎｓｈｅｎｇ　ＣＮ,,,,,,2023-08-29,1,,,,,ニンデイユェンリマオイユウゲンコウシ,0
971,4700150119441,新規,0,2023-08-29,2023-08-29,ｈａｎｇｚｈｏｕ　ｗｏｍｉｎｇｑｉｃｈｅｙｏｎｇｐｉｎ　ｙｏｕｘｉａｎｇｏｎｇｓｉ,,外国会社等,,,,,,,,ｃａｎｇｑｉａｎｊｉｅｄａｏｗｅｎｙｉｘｉｌｕ１２８８ｈａｏ３ｈａｏｌｏｕ４ｌｏｕ４１０ｓｈｉ（ｈａｎｇｚｈｏｕｗｅｉｌａｉｓｈａｎｇｗｕｍｉｓｈｕｑｉｙｅｔｕｏｇｕａｎ２０２３０４５ｈａｏ）ＨａｎｇＺｈｏｕ　ｙｕｈａｎｇｑｕ　ＺｈｅＪｉａｎｇＳｈｅｎｇ,,,,,,2023-08-29,1,,,,,コウシュウオミンチチェヨンピンユウゲンコウシ,0
972,4700150119458,新規,0,2023-08-29,2023-08-29,ｄａｌｉａｎ　ｗａｎｇｊｕｎ　ｋｅｊｉ　ｙｏｕｘｉａｎｇｏｎｇｓｉ,,外国会社等,,,,,,,,３ｄａｎｙｕａｎ７ｃｅｎｇ２ｈａｏ　ｇａｎｊｉｎｇｚｉｑｕ　ｙｉｎｇｋｅｌｕ１９ｈａｏ　ｄａｌｉａｎ　ｌｉａｏｎｉｎｇ　ｃｈｉｎａ,,,,,,2023-08-29,1,,,,,ダイレンワンジュンカギユウゲンコウシ,0
973,4700150119466,新規,0,2023-08-29,2023-08-29,Ｓｈｅｎｚｈｅｎ　ＺｉｈｕａＹｕｓｈｉ　Ｊｅｗｅｌｒｙ　Ｃｏ．，Ｌｔｄ,,外国会社等,,,,,,,,Ｎｏ．８９　Ｂｅｉｌｉ　Ｎｏｒｔｈ　Ｒｏａｄ，Ｃｕｉｊｉｎ　Ｃｏｍｍｕｎｉｔｙ，Ｃｕｉｚｈｕ　Ｓｔｒｅｅｔ　Ｂ１－Ｇ１９，Ｂ１／Ｆ，Ｓｈｕｉｂｅｉ　Ｊｉｎｚｕｏ　ＢｕｉｌｄｉｎｇＳｈｅｎｚｈｅｎ　Ｌｕｏｈｕ　Ｃｈｉｎａ,,,,,,2023-08-29,1,,,,,シンセンズフアユシジュエリーカンパニーリミテッド,0
974,4700150119474,新規,0,2023-08-29,2023-08-29,Ｑｕａｎｚｈｏｕ　Ｃｒａｆｔｓｍａｎ　Ｉｒｏｎ　Ｆｕｒｎｉｔｕｒｅ　Ｃｏ．，Ｌｔｄ．,,外国会社等,,,,,,,,Ｎｏ．３５，Ｃｕｉｚｅ　Ｓｔｒｅｅｔ，Ｊａｄｅ　Ｇａｒｄｅｎ，Ｎｏ．８３８，Ｄｏｎｇｈａｉ　Ｓｔｒｅｅｔ，Ｆｅｎｇｚｅ　Ｄｉｓｔｒｉｃｔ，Ｑｕａｎｚｈｏｕ　Ｃｉｔｙ，Ｆｕｊｉａｎ　Ｐｒｏｖｉｎｃｅ,,,,,,2023-08-29,1,,,,,チュエンジョウジアーンゥレンテイエイージアジュイヨウシエンゴーンスー,0
975,4700150119482,新規,0,2023-08-29,2023-08-29,ＳＨＥＮ　ＺＨＥＮ　ＳＨＩ　ＷＡＮ　ＳＨＥＮＧ　ＹＵ　ＤＩＡＮ　Ｚｌ　ＫＥ　Ｊｌ　ＹＯＵ　ＸＩＡＮ　ＧＯＮＧ　ＳＩ,,外国会社等,,,,,,,,２０１，Ｎｏ．１，Ｌｉａｎｘｉｎｇ　Ｗａｔｃｈ　Ｆａｃｔｏｒｙ，Ｈｅｂｅｉ　Ｉｎｄｕｓｔｒｉａｌ　Ｚｏｎｅ，Ｈｕａｌｉａｎ　Ｃｏｍｍｕｎｉｔｙ，Ｌｏｎｇｈｕａ　Ｓｔｒｅｅｔ，Ｌｏｎｇｈｕａ　Ｄｉｓｔｒｉｃｔ，Ｓｈｅｎｚｈｅｎ,,,,,,2023-08-29,1,,,,,シンセンシマンショウウデンシカギユウゲンコウシ,0
976,4700150119532,新規,0,2023-08-29,2023-08-29,ＳＩＮＧＡＰＯＲＥ　ＴＯＮＧ　ＴＥＩＫ（ＰＲＩＶＡＴＥ）　ＬＩＭＩＴＥＤ,,外国会社等,,,,,,,,７　ＴＥＭＡＳＥＫ　ＢＯＵＬＥＶＡＲＤ　＃２０－０２　ＳＵＮＴＥＣ　ＴＯＷＥＲ　ＯＮＥ　ＳＩＮＧＡＰＯＲＥ（０３８９８７）,,,,,,2023-08-29,1,,,,,シンガポールトンテイクプライベートリミテッド,0
979,5010001238047,新規,0,2023-08-29,2023-08-29,株式会社ＳｋｉｐＳｋｉｐ,,株式会社,東京都,中央区,銀座１丁目１２番４号Ｎ＆ＥＢＬＤ．６Ｆ,,13,102,1040061,,,,,,,2023-08-29,1,,,,,スキップスキップ,0
982,5010003041432,新規,0,2023-08-29,2023-08-29,ＮＪ＆Ｃｏｍｐａｎｙ合同会社,,合同会社,東京都,中央区,月島１丁目２２－１ミッドタワーグランド３１０２,,13,102,1040052,,,,,,,2023-08-29,1,,,,,エヌジェーアンドカンパニー,0
990,5010603010299,新規,0,2023-08-29,2023-08-29,ＫＭＹ合同会社,,合同会社,東京都,墨田区,江東橋１丁目９－６,,13,107,1300022,,,,,,,2023-08-29,1,,,,,ケーエムワイ,0
991,5010603010324,新規,0,2023-08-29,2023-08-29,合同会社イダテン,,合同会社,東京都,墨田区,石原２丁目８番１０－２０７号クレイシア両国カルミナ,,13,107,1300011,,,,,,,2023-08-29,1,,,,,イダテン,0
993,5010801034281,新規,0,2023-08-29,2023-08-29,株式会社アークテックエンジ,,株式会社,東京都,大田区,蒲田２丁目１番２４号ヴェルディールよしおか５０７,,13,111,1440052,,,,,,,2023-08-29,1,,,,,アークテックエンジ,0
994,5010901053719,新規,0,2023-08-29,2023-08-29,３ｍａｒｋｅｔｓ株式会社,,株式会社,東京都,世田谷区,代田４丁目１番１３－２０６号,,13,112,1550033,,,,,,,2023-08-29,1,,,,,スリーマーケッツ,0
999,5011001156635,新規,0,2023-08-29,2023-08-29,惟一投資株式会社,,株式会社,東京都,目黒区,自由が丘３丁目６番１５号,,13,110,1520035,,,,,,,2023-08-29,1,,,,,ユウイチトウシ,0
1001,5011003017447,新規,0,2023-08-29,2023-08-29,合同会社ＨＳＢＢ,,合同会社,東京都,渋谷区,神泉町１０番１５号,,13,113,1500045,,,,,,,2023-08-29,1,,,,,エイチエスビービー,0
1006,5011103013420,新規,0,2023-08-29,2023-08-29,合同会社ＴＵ１６,,合同会社,東京都,新宿区,四谷２丁目９番地１５東京ユナイテッド綜合事務所内,,13,104,1600004,,,,,,,2023-08-29,1,,,,,ティーユージュウロク,0
1010,5011403004094,新規,0,2023-08-29,2023-08-29,ＰＵＲＮＡＢＩＲ　ＸＬＴ合同会社,,合同会社,東京都,板橋区,双葉町１５－１３アシュレ双葉町２０８号,,13,119,1730011,,,,,,,2023-08-29,1,,,,,プルナビルエックスエルティ,0
1023,5020001153220,新規,0,2023-08-29,2023-08-29,株式会社エクシード,,株式会社,神奈川県,横浜市港南区,芹が谷４丁目１２番２３号,,14,111,2330006,,,,,,,2023-08-29,1,,,,,エクシード,0
1026,5020003024477,新規,0,2023-08-29,2023-08-29,合同会社コレオ,,合同会社,神奈川県,川崎市麻生区,岡上５７７番地１,,14,137,2150027,,,,,,,2023-08-29,1,,,,,コレオ,0
1028,5021001080041,新規,0,2023-08-29,2023-08-29,株式会社エムズ,,株式会社,神奈川県,相模原市南区,上鶴間本町３丁目１８番２７号,,14,153,2520318,,,,,,,2023-08-29,1,,,,,エムズ,0
1033,5030001155496,新規,0,2023-08-29,2023-08-29,株式会社ｖａｎａｆｎｕ,,株式会社,埼玉県,さいたま市浦和区,高砂３丁目８番１５号高砂ＳＳビル３０２号,,11,107,3300063,,,,,,,2023-08-29,1,,,,,ファナフヌ,0
1034,5030001155595,新規,0,2023-08-29,2023-08-29,株式会社フォーサイツトレード,,株式会社,埼玉県,さいたま市大宮区,下町３丁目６番３号,,11,103,3300844,,,,,,,2023-08-29,1,,,,,フォーサイツトレード,0
1035,5030001155678,新規,0,2023-08-29,2023-08-29,株式会社Ｕ’ｓ,,株式会社,埼玉県,坂戸市,大字中小坂９００番地３９,,11,239,3500206,,,,,,,2023-08-29,1,,,,,ウズ,0
1040,5030003022356,新規,0,2023-08-29,2023-08-29,合同会社大下急便,,合同会社,埼玉県,鴻巣市,小松３丁目４番６号,,11,217,3650041,,,,,,,2023-08-29,1,,,,,オオシタキュウビン,0
1041,5030003022430,新規,0,2023-08-29,2023-08-29,合同会社ビューサンリョウ,,合同会社,埼玉県,さいたま市岩槻区,大字村国５７８番地２,,11,110,3390041,,,,,,,2023-08-29,1,,,,,ビューサンリョウ,0
1052,5040005022106,新規,0,2023-08-29,2023-08-29,一般社団法人フィールズ・フィールズ,,その他の設立登記法人,千葉県,佐倉市,角来１７００番地１,,12,212,2850821,,,,,,,2023-08-29,1,,,,,フィールズフィールズ,0
1063,5070003005076,新規,0,2023-08-29,2023-08-29,やまと産業合同会社,,合同会社,群馬県,前橋市,本町１丁目１４番７号,,10,201,3710023,,,,,,,2023-08-29,1,,,,,,0
1084,5120001257548,新規,0,2023-08-29,2023-08-29,株式会社ｃｏｒｐ,,株式会社,大阪府,大阪市北区,堂山町１番２号,,27,127,5300027,,,,,,,2023-08-29,1,,,,,コープ,0
1085,5120001257580,新規,0,2023-08-29,2023-08-29,株式会社新井家具ホールディングス,,株式会社,大阪府,枚方市,長尾家具町２丁目２番３号,,27,210,5730102,,,,,,,2023-08-29,1,,,,,アライカグホールディングス,0
1086,5120001257630,新規,0,2023-08-29,2023-08-29,ＣＳＧ株式会社,,株式会社,大阪府,大阪市北区,中津１丁目１７番２６号,,27,127,5310071,,,,,,,2023-08-29,1,,,,,シーエスジー,0
1087,5120001257663,新規,0,2023-08-29,2023-08-29,株式会社ＩＪＫ,,株式会社,大阪府,大阪市生野区,新今里４丁目６番１号レバランス今里２０１,,27,116,5440001,,,,,,,2023-08-29,1,,,,,アイジェイケイ,0
1093,5120105009754,新規,0,2023-08-29,2023-08-29,一般社団法人ハッピーワン,,その他の設立登記法人,大阪府,南河内郡河南町,大字一須賀７６８－１,,27,382,5850002,,,,,,,2023-08-29,1,,,,,ハッピーワン,0
1102,5130003008923,新規,0,2023-08-29,2023-08-29,合同会社Ｋ＆Ｒ,,合同会社,京都府,京都市南区,東九条西山町１９番地ベル・クローチェ京都ｓｔａ．３０１号,,26,107,6018046,,,,,,,2023-08-29,1,,,,,ケイアンドアール,0
1108,5140001131379,新規,0,2023-08-29,2023-08-29,株式会社ＡＳＡＨＩ,,株式会社,兵庫県,神戸市東灘区,御影山手４丁目７番３号,,28,101,6580065,,,,,,,2023-08-29,1,,,,,アサヒ,0
1109,5140001131387,新規,0,2023-08-29,2023-08-29,株式会社紘和,,株式会社,兵庫県,姫路市,花田町高木字上ノ倉１８８番地の１,,28,201,6710256,,,,,,,2023-08-29,1,,,,,コウワ,0
1114,5150001026677,新規,0,2023-08-29,2023-08-29,株式会社おんおくり,,株式会社,奈良県,北葛城郡上牧町,松里園２丁目８番１０号,,29,424,6390216,,,,,,,2023-08-29,1,,,,,オンオクリ,0
1125,5180301037735,新規,0,2023-08-29,2023-08-29,ガレージＫＭ１株式会社,,株式会社,愛知県,豊川市,宿町白山１５９番地,,23,207,4410101,,,,,,,2023-08-29,1,,,,,ガレージケーエムワン,0
1130,5190001030691,新規,0,2023-08-29,2023-08-29,株式会社陸君,,株式会社,三重県,松阪市,内五曲町１３４番地６,,24,204,5150072,,,,,,,2023-08-29,1,,,,,リックン,0
1137,5230001019986,新規,0,2023-08-29,2023-08-29,株式会社８ＢＯＮＤ,,株式会社,富山県,砺波市,表町５番３２号エスポワール１５・１Ｆ,,16,208,9391366,,,,,,,2023-08-29,1,,,,,エイトボンド,0
1147,5300001013437,新規,0,2023-08-29,2023-08-29,株式会社夜未央,,株式会社,佐賀県,佐賀市,水ヶ江４丁目１－４９,,41,201,8400054,,,,,,,2023-08-29,1,,,,,ヨミオ,0
1148,5300003002017,新規,0,2023-08-29,2023-08-29,合同会社フクタ,,合同会社,佐賀県,佐賀市,天祐２丁目７－５８,,41,201,8400851,,,,,,,2023-08-29,1,,,,,フクタ,0
1154,5390003002132,新規,0,2023-08-29,2023-08-29,合同会社庄内フォレスト,,合同会社,山形県,鶴岡市,小岩川字出口６番地９,,06,203,9997122,,,,,,,2023-08-29,1,,,,,,0
1156,5400001016355,新規,0,2023-08-29,2023-08-29,ミナミ石油岩手株式会社,,株式会社,岩手県,盛岡市,新庄町４番２２号,,03,201,0200806,,,,,,,2023-08-29,1,,,,,ミナミセキユイワテ,0
1161,5420001018382,新規,0,2023-08-29,2023-08-29,株式会社ＥＸＰＥＲＩＥＮＣＥ,,株式会社,青森県,十和田市,大字深持字下中平３０番地１,,02,206,0340106,,,,,,,2023-08-29,1,,,,,エクスペリエンス,0
1166,5430001089852,新規,0,2023-08-29,2023-08-29,株式会社根木設備,,株式会社,北海道,札幌市手稲区,前田十条２０丁目８番７号,,01,109,0060820,,,,,,,2023-08-29,1,,,,,ネキセツビ,0
1169,5430003015369,新規,0,2023-08-29,2023-08-29,ＣＯＳ　Ｓｐｏｒｔｓ合同会社,,合同会社,北海道,虻田郡倶知安町,字八幡７０７番地５,,01,400,0440072,,,,,,,2023-08-29,1,,,,,シーオーエススポーツ,0
1170,5430003015385,新規,0,2023-08-29,2023-08-29,ノースサプライ合同会社,,合同会社,北海道,札幌市豊平区,月寒東二条６丁目８番２２号,,01,105,0620052,,,,,,,2023-08-29,1,,,,,ノースサプライ,0
1173,5500001025156,新規,0,2023-08-29,2023-08-29,株式会社谷建,,株式会社,愛媛県,宇和島市,高串１番耕地１３９５番地４,,38,203,7980020,,,,,,,2023-08-29,1,,,,,タニケン,0
1174,5700150116339,新規,0,2023-08-29,2023-08-29,ＧｕａｎｇｚｈｏｕＫｕａｊｉｎｇＤｉａｎｚｉｓｈａｎｇｗｕＹｏｕｘｉａｎｇｏｎｇｓｉ,,外国会社等,,,,,,,,Ｃｈｉｎａ，Ｒｏｏｍ　１０４，Ｗａｒｅｈｏｕｓｅ　Ｃ２，Ｎｏ．６２　Ｄａｌａｎｇ　Ｎｏｒｔｈ　Ｒｏａｄ，Ｂａｉｙｕｎ　Ｌａｋｅ　Ｓｔｒｅｅｔ，Ｂａｉｙｕｎ　Ｄｉｓｔｒｉｃｔ，Ｇｕａｎｇｚｈｏｕ,,,,,,2023-08-29,1,,,,,コウシュウクワジンデンシショウムユウゲンカイシャ,0
1175,5700150116347,新規,0,2023-08-29,2023-08-29,ｂｅｉｊｉｎｇｙｏｎｇｚｈｉｈｅｎｇｊｉａｎｚｈｕｇｏｎｇｃｈｅｎｇｙｏｕｘｉａｎｇｏｎｇｓｉ,,外国会社等,,,,,,,,Ｎｏ．５，Ｓｅｃｔｉｏｎ　１，Ｙｕａｎｙａｎｇｓｈｕｉ　Ｖｉｌｌａｇｅ，Ｓｈｉｊｉａｙｉｎｇ　Ｔｏｗｎｓｈｉｐ，Ｆａｎｇｓｈａｎ　Ｄｉｓｔｒｉｃｔ，Ｂｅｉｊｉｎｇ，Ｃｈｉｎａ,,,,,,2023-08-29,1,,,,,ベキンエイシコウケンチクコウテイユウゲンカイシャ,0
1176,5700150116495,新規,0,2023-08-29,2023-08-29,ｓｈｅｎｚｈｅｎｓｈｉｙｕｅｑｉａｎｋｅｊｉｙｏｕｘｉａｎｇｏｎｇｓｉ,,外国会社等,,,,,,,,２Ａ１０，Ｂａｏｙｕｎｄａ　Ｒ＆Ｄ　Ｃｏｍｐｌｅｘ　Ｂｕｉｌｄｉｎｇ，Ｆｕｈｕａ　Ｃｏｍｍｕｎｉｔｙ，Ｘｉｘｉａｎｇ　Ｓｔｒｅｅｔ，Ｂａｏａｎ　Ｄｉｓｔｒｉｃｔ，Ｓｈｅｎｚｈｅｎ　Ｇｕａｎｇｄｏｎｇ,,,,,,2023-08-29,1,,,,,シンセンシヤクゼンテクノロジー,0
1177,5700150119432,新規,0,2023-08-29,2023-08-29,ｓｈｅｎｚｈｅｎｓｈｉ　ｍｉｍｉｔｕｋｅｊｉ　ｙｏｕｘｉａｎｇｏｎｇｓｉ,,外国会社等,,,,,,,,Ｓｈｅｎｚｈｅｎｓｈｉｆｕｔｉａｎｑｕｈｕａｑｉａｎｇｂｅｉｊｉｅｄａｏｆｕｑｉａｎｇｓｈｅｑｕｓｈｅｎｎａｎｚｈｏｎｇｌｕ２０７０ｈａｏｄｉａｎｚｉｋｅｊｉｄａｓｈａＣｚｕｏ２８Ｃ１,,,,,,2023-08-29,1,,,,,シンセンシミミツカギユウゲンコウシ,0
1178,5700150119440,新規,0,2023-08-29,2023-08-29,ｓｈｅｎｚｈｅｎｓｈｉ　ｈｕａｊｉａｎｍａｏｙｉ　ｙｏｕｘｉａｎｇｏｎｇｓｉ,,外国会社等,,,,,,,,ｌｏｎｇｊｉｎｇｘｉａｏｑｕ６ｈａｏｌｉｕｗｅｉｓａｈｎｇｗｕｚｈｏｎｇｘｉｎＣｚｕｏｗｕｃｅｎｇ５０５ｓｈｅｎｚｈｅｎｓｈｉ　ｇｕａｎｇｄｏｎｇｓｈｅｎｇ　ＣＮ,,,,,,2023-08-29,1,,,,,シンセンシホゥアジェンマオイユウゲンコウシ,0
1179,5700150119449,新規,0,2023-08-29,2023-08-29,ｄｏｎｇｇｕａｎｓｈｉ　ｙｏｕｌａｉｔｅ　ｄｉａｎｚｉｋｅｊｉ　ｙｏｕｘｉａｎｇｏｎｇｓｉ,,外国会社等,,,,,,,,Ｎｏ．６，Ｙｉｎｋｅｎｇ　Ｒｏａｄ，Ｓｈａｎｇｙｕａｎ　Ｖｉｌｌａｇｅ，Ｄｏｎｇｇｕａｎ，Ｑｉｎｇｘｉ　Ｔｏｗｎ，Ｇｕａｎｇｄｏｎｇ，ＣＮ,,,,,,2023-08-29,1,,,,,トンガンシヨライテデンシカギユウゲンコウシ,0
1180,5700150119457,新規,0,2023-08-29,2023-08-29,ｓｈｅｎｚｈｅｎｓｈｉ　ｓｉｙｅｃａｏｓｈｉｙｅ　ｙｏｕｘｉａｎｇｏｎｇｓｉ,,外国会社等,,,,,,,,ｌｏｎｇｇａｎｇｑｕｂｕｊｉｊｉｅｄａｏｊｉｎｌｏｎｇｌｕ　ｗａｎｋｅｈｏｎｇｓｉｑｉ４ｄｏｎｇ７０４ｆａｎｇ　Ｓｈｅｎｚｈｅｎ　Ｇｕａｎｇｄｏｎｇ　ＣＮ,,,,,,2023-08-29,1,,,,,シンセンシシイェチャオシイェユウゲンコウシ,0
1181,5700150119465,新規,0,2023-08-29,2023-08-29,ｓｈｅｎｚｈｅｎｓｈｉ　ｌｅｈａｉｇｏｕｄｉａｎｚｉｋｅｊｉ　ｙｏｕｘｉａｎｇｏｎｇｓｉ　　　　,,外国会社等,,,,,,,,ｓｈｅｎｚｈｅｎｓｈｉｌｕｏｈｕｑｕｎａｎｈｕｊｉｅｄａｏｊｉａｂｅｉｓｈｅｑｕｙｉｎｇｃｈｕｎｌｕ１２ｈａｏｈａｉｗａｉｌｉａｎｙｉｄａｓｈａ１３１３－４６２　Ｃｈｉｎａ,,,,,,2023-08-29,1,,,,,シンセンシレハイゴデンシカギユウゲンコウシ,0
1182,5700150119473,新規,0,2023-08-29,2023-08-29,ｓｈｅｎｚｈｅｎ　ｘｉｎｎｉｕｄｉａｎｚｉｓｈａｎｇｗｕ　ｙｏｕｘｉａｎｇｏｎｇｓｉ,,外国会社等,,,,,,,,Ｎｏ．８　Ｈｅｑｉａｎｇ　Ｒｏａｄ　Ｌｉｕｈｅ　Ｃｏｍｍｕｎｉｔｙ　Ｐｉｎｇｓｈａｎ　Ｓｔｒｅｅｔ　１Ｅ－１８Ｄ　Ｕｎｉｔ　Ｅ　Ｂｕｉｌｄｉｎｇ　１　Ｆｏｒｔｕｎｅ　Ｃｉｔｙ　Ｐｈａｓｅ　Ｉ　Ｐｉｎｇｓｈａｎ　Ｄｉｓｔｒｉｃｔ，Ｓｈｅｎｚｈｅｎ　Ｃｉｔｙ　Ｃｈｉｎａ,,,,,,2023-08-29,1,,,,,シンセンシンニュデンシショウムユウゲンコウシ,0
1183,5700150119481,新規,0,2023-08-29,2023-08-29,ｓｈｅｎｚｈｅｎｓｈｉ　ｗａｎｄｉ　ｚｈｉｎｅｎｇ　ｋｅｊｉ　ｙｏｕｘｉａｎｇｏｎｇｓｉ,,外国会社等,,,,,,,,２１３Ａ－３Ａ，Ｂｌｏｃｋ　ＣＤ，Ｂｕｉｌｄｉｎｇ　７，Ｘｉｎｇｈｕａ　Ｉｎｄｕｓｔｒｉａｌ　Ｂｕｉｌｄｉｎｇ，Ｎｏ．４　Ｇｏｎｇｙｅ　６ｔｈ　Ｒｏａｄ，Ｈｕａｇｕｏｓｈａｎ　Ｃｏｍｍｕｎｉｔｙ，Ｚｈａｏｓｈａｎｇ　Ｓｔｒ．，Ｎａｎｓｈａｎ　Ｓｈｅｎｚｈｅｎ,,,,,,2023-08-29,1,,,,,シンセンシマンテキチノウカギユウゲンコウシ,0
1184,5700150119507,新規,0,2023-08-29,2023-08-29,三河島駅前北地区市街地再開発組合,,その他,東京都,荒川区,西日暮里１丁目４番７号,,13,118,1160013,,,,,,,2023-08-29,1,,,,,ミカワシマエキマエキタチクシガイチサイカイハツクミアイ,0
1185,5700150119523,新規,0,2023-08-29,2023-08-29,ＳＨＥＮ　ＺＨＥＮ　ＳＨＩ　ＨＯＮＧ　ＨＵＡ　ＸＩＮ　ＫＥ　Ｊｌ　ＹＯＵ　ＸＩＡＮ　ＧＯＮＧ　ＳＩ,,外国会社等,,,,,,,,３１７，Ｂｕｉｌｄｉｎｇ　Ａ，Ａｎｔｅ　Ｗｏｒｋｓｈｏｐ，Ｎｏ．３　Ｐｉｎｓｈｕｎ　Ｒｏａｄ，Ｇｕｉｘｉａｎｇ　Ｃｏｍｍｕｎｉｔｙ，Ｇｕａｎｌａｎ　Ｓｔｒｅｅｔ，Ｌｏｎｇｈｕａ　Ｄｉｓｔｒｉｃｔ，Ｓｈｅｎｚｈｅｎ,,,,,,2023-08-29,1,,,,,シンセンシコウカシンカギユウゲンコウシ,0
1192,6010001238021,新規,0,2023-08-29,2023-08-29,エンデバー・ユナイテッド・パートナーズ・３２株式会社,,株式会社,東京都,千代田区,丸の内２丁目５番１号丸の内二丁目ビル６階,,13,101,1000005,,,,,,,2023-08-29,1,,,,,エンデバーユナイテッドパートナーズサーティーツー,0
1193,6010001238038,新規,0,2023-08-29,2023-08-29,ルーナ・ジャパン株式会社,,株式会社,東京都,千代田区,神田淡路町２丁目１０１ワテラスタワー９階,,13,101,1010063,,,,,,,2023-08-29,1,,,,,ルーナジャパン,0
1194,6010001238062,新規,0,2023-08-29,2023-08-29,東京カカダ株式会社,,株式会社,東京都,中央区,築地１丁目４番７号,,13,102,1040045,,,,,,,2023-08-29,1,,,,,トウキョウカカダ,0
1197,6010003041522,新規,0,2023-08-29,2023-08-29,悠仁合同会社,,合同会社,東京都,千代田区,神田三崎町２丁目１０番１１号Ｐｅｇビル５Ｂ－３号室,,13,101,1010061,,,,,,,2023-08-29,1,,,,,ユウジン,0
1198,6010005037015,新規,0,2023-08-29,2023-08-29,ＮＰＯ法人わがままプラネット,,その他の設立登記法人,東京都,中央区,銀座１丁目２２番１１号銀座大竹ビジデンス２階,,13,102,1040061,,,,,,,2023-08-29,1,,,,,ワガママプラネット,0
1217,6010801034280,新規,0,2023-08-29,2023-08-29,トップチェッカー株式会社,,株式会社,東京都,大田区,鵜の木２丁目２６番２０号,,13,111,1460091,,,,,,,2023-08-29,1,,,,,トップチェッカー,0
1221,6010901053718,新規,0,2023-08-29,2023-08-29,株式会社葉山ビーンズ,,株式会社,東京都,世田谷区,松原２丁目２６番１３号,,13,112,1560043,,,,,,,2023-08-29,1,,,,,ハヤマビーンズ,0
1228,6011001156535,新規,0,2023-08-29,2023-08-29,株式会社ＵＬＡＬＡ,,株式会社,東京都,渋谷区,上原１丁目３２番３号ＣＡＢＯＵＥＨＡＲＡ２０４,,13,113,1510064,,,,,,,2023-08-29,1,,,,,ウララ,0
1239,6011801042868,新規,0,2023-08-29,2023-08-29,株式会社未来創建,,株式会社,東京都,足立区,佐野１丁目１８番１０号,,13,121,1210053,,,,,,,2023-08-29,1,,,,,ミライソウケン,0
1241,6012401040923,新規,0,2023-08-29,2023-08-29,株式会社ＭＫ,,株式会社,東京都,調布市,飛田給１丁目１５番地２２,,13,208,1820036,,,,,,,2023-08-29,1,,,,,エムケー,0
1243,6013105001831,新規,0,2023-08-29,2023-08-29,一般財団法人共同連帯,,その他の設立登記法人,東京都,あきる野市,菅生８２０番地４,,13,228,1970801,,,,,,,2023-08-29,1,,,,,キョウドウレンタイ,0
1244,6013301051184,新規,0,2023-08-29,2023-08-29,Ｐｒｏｆｉｌｍ　Ａｄｖａｎｃｅｄ　Ｍａｔｅｒｉａｌｓ　Ｊａｐａｎ株式会社,,株式会社,東京都,豊島区,東池袋１丁目３６番５号第二成沢ビル９Ｆ,,13,116,1700013,,,,,,,2023-08-29,1,,,,,プロフィルムアドバンスドマテリアルズジャパン,0
1245,6013301051242,新規,0,2023-08-29,2023-08-29,東京光丸ホールディングス株式会社,,株式会社,東京都,豊島区,巣鴨５丁目４番１０号２階,,13,116,1700002,,,,,,,2023-08-29,1,,,,,トウキョウミツマルホールディングス,0
1249,6020001153228,新規,0,2023-08-29,2023-08-29,株式会社Ｃｏｌｏｒ＆Ｓｔｙｌｅｓ,,株式会社,神奈川県,横浜市鶴見区,駒岡４丁目３２番１－５２８号,,14,101,2300071,,,,,,,2023-08-29,1,,,,,カラーアンドスタイルズ,0
1250,6020001153244,新規,0,2023-08-29,2023-08-29,Ｊ　Ｔｏｔａｌ　Ｓｅｒｖｉｃｅ株式会社,,株式会社,神奈川県,横浜市中区,本牧三之谷２４番１６号,,14,104,2310824,,,,,,,2023-08-29,1,,,,,ジェイトータルサービス,0
1262,6030001155454,新規,0,2023-08-29,2023-08-29,株式会社ＨｏｔＳｐｒｉｎｇ,,株式会社,埼玉県,ふじみ野市,西原１丁目３番地２１,,11,245,3560028,,,,,,,2023-08-29,1,,,,,ホットスプリング,0
1263,6030001155487,新規,0,2023-08-29,2023-08-29,大進工業株式会社,,株式会社,埼玉県,久喜市,菖蒲町小林２６７７番地１,,11,232,3460115,,,,,,,2023-08-29,1,,,,,ダイシンコウギョウ,0
1264,6030001155529,新規,0,2023-08-29,2023-08-29,株式会社ＭＯＲＥＳＵＮ,,株式会社,埼玉県,蕨市,南町１丁目２５番２号ロイヤルパレス５番館２０５号,,11,223,3350003,,,,,,,2023-08-29,1,,,,,モレサン,0
1265,6030001155553,新規,0,2023-08-29,2023-08-29,フラットアーキ株式会社,,株式会社,埼玉県,さいたま市大宮区,桜木町４丁目５１１番地ＭＯＭＯ５．１０２号,,11,103,3300854,,,,,,,2023-08-29,1,,,,,フラットアーキ,0
1266,6030001155586,新規,0,2023-08-29,2023-08-29,株式会社Ｋ’ｓ　ＢＥＬＬ,,株式会社,埼玉県,戸田市,早瀬２丁目２７番１８号,,11,224,3350036,,,,,,,2023-08-29,1,,,,,ケーズベル,0
1276,6030005021371,新規,0,2023-08-29,2023-08-29,一般社団法人スポーツ未来創造,,その他の設立登記法人,埼玉県,草加市,草加４丁目３－７セントエルモ松原４０６,,11,221,3400043,,,,,,,2023-08-29,1,,,,,スポーツミライソウゾウ,0
1285,6040001129829,新規,0,2023-08-29,2023-08-29,株式会社ｃｈａｒｍｎｅｌ,,株式会社,千葉県,松戸市,本町１７番１１号芹澤ビル６Ｆ,,12,207,2710091,,,,,,,2023-08-29,1,,,,,チャームネル,0
1291,6060003004697,新規,0,2023-08-29,2023-08-29,合同会社Ｊｕｎ　Ｓｈｉｎ,,合同会社,栃木県,宇都宮市,西一の沢町１６番１７号山久ハイツ３０１,,09,201,3200046,,,,,,,2023-08-29,1,,,,,ジュンシン,0
1294,6090003002368,新規,0,2023-08-29,2023-08-29,合同会社Ｎ．Ｃ．Ｓ,,合同会社,山梨県,中巨摩郡昭和町,西条１８３６－２,,19,384,4093866,,,,,,,2023-08-29,1,,,,,エヌシーエス,0
1304,6120001257679,新規,0,2023-08-29,2023-08-29,ユミテク株式会社,,株式会社,大阪府,大阪市淀川区,塚本５丁目３番１１号エステハイツ塚本５０３号室,,27,123,5320026,,,,,,,2023-08-29,1,,,,,ユミテク,0
1305,6120001257704,新規,0,2023-08-29,2023-08-29,株式会社ＴＡＫＡＮＯＢＵ,,株式会社,大阪府,守口市,寿町１番５号,,27,209,5700077,,,,,,,2023-08-29,1,,,,,タカノブ,0
1309,6120901047989,新規,0,2023-08-29,2023-08-29,エンゼルホールディングス株式会社,,株式会社,大阪府,豊中市,緑丘４丁目２５番３号,,27,203,5600002,,,,,,,2023-08-29,1,,,,,エンゼルホールディングス,0
1316,6130001075015,新規,0,2023-08-29,2023-08-29,株式会社ａｎｄ　Ｓｍｉｌｅ,,株式会社,京都府,八幡市,橋本栗ケ谷６５番地の１３,,26,210,6148327,,,,,,,2023-08-29,1,,,,,アンドスマイル,0
1317,6130001075023,新規,0,2023-08-29,2023-08-29,株式会社イコマ,,株式会社,京都府,京都市中京区,堺町通竹屋町上る橘町８１ヴァンベール御苑前２０５号室,,26,104,6040802,,,,,,,2023-08-29,1,,,,,イコマ,0
1318,6130003008914,新規,0,2023-08-29,2023-08-29,合同会社エバーグリーン,,合同会社,京都府,宇治市,槇島町大幡２５番地の６,,26,204,6110041,,,,,,,2023-08-29,1,,,,,エバーグリーン,0
1322,6150001026676,新規,0,2023-08-29,2023-08-29,株式会社笹岡左官店,,株式会社,奈良県,宇陀市,大宇陀和田２０８番地,,29,212,6332131,,,,,,,2023-08-29,1,,,,,ササオカサカンテン,0
1330,6180001157774,新規,0,2023-08-29,2023-08-29,株式会社Ｍｕｓｅｄｉｃ,,株式会社,愛知県,名古屋市名東区,社台２丁目１７８番地,,23,115,4650092,,,,,,,2023-08-29,1,,,,,ミューズディック,0
1331,6180001157782,新規,0,2023-08-29,2023-08-29,株式会社好蘭,,株式会社,愛知県,名古屋市中区,栄５丁目１番２１号ＭＬアシスト栄ビル２Ａ,,23,106,4600008,,,,,,,2023-08-29,1,,,,,コウラン,0
1333,6180003025657,新規,0,2023-08-29,2023-08-29,合同会社ブラウンタビー,,合同会社,愛知県,一宮市,新生１丁目８－２０ローレルコート一宮駅前１３０２,,23,203,4910912,,,,,,,2023-08-29,1,,,,,ブラウンタビー,0
1335,6190001030690,新規,0,2023-08-29,2023-08-29,株式会社岡田商事,,株式会社,三重県,三重郡川越町,大字当新田５５１番地,,24,344,5108111,,,,,,,2023-08-29,1,,,,,オカダショウジ,0
1354,6280003001763,新規,0,2023-08-29,2023-08-29,Ｍｉｓｆｉｔｓ　Ｊａｐａｎ合同会社,,合同会社,島根県,雲南市,木次町木次２５番地８,,32,209,6991332,,,,,,,2023-08-29,1,,,,,,0
1357,6290001102793,新規,0,2023-08-29,2023-08-29,株式会社ＴＭエステート,,株式会社,福岡県,柳川市,三橋町垂見１２４１番地１,,40,207,8320814,,,,,,,2023-08-29,1,,,,,ティーエムエステート,0
1358,6290001102802,新規,0,2023-08-29,2023-08-29,株式会社ＭＯＮＯ,,株式会社,福岡県,福岡市博多区,中洲２丁目６－７中洲エレガンスビル３Ｆ,,40,132,8100801,,,,,,,2023-08-29,1,,,,,モノ,0
1359,6290003014269,新規,0,2023-08-29,2023-08-29,合同会社Ｄｅｎｉｍ,,合同会社,福岡県,福岡市南区,平和１丁目７番１号ツインハイツ平和２０３,,40,134,8150071,,,,,,,2023-08-29,1,,,,,デニム,0
1366,6300003002016,新規,0,2023-08-29,2023-08-29,西多久テラス合同会社,,合同会社,佐賀県,多久市,西多久町大字板屋９９７４,,41,204,8460041,,,,,,,2023-08-29,1,,,,,ニシタクテラス,0
1379,6340001025849,新規,0,2023-08-29,2023-08-29,ＳＵＭ　ＦＩＥＬＤ株式会社,,株式会社,鹿児島県,姶良市,加治木町木田２５３３番地７,,46,225,8995241,,,,,,,2023-08-29,1,,,,,サムフィールド,0
1380,6360001032471,新規,0,2023-08-29,2023-08-29,株式会社松吉,,株式会社,沖縄県,浦添市,字沢岻１４２８番地１ヴァンヴェール沢岻ヒルズ３０３,,47,208,9012112,,,,,,,2023-08-29,1,,,,,マツキチ,0
1383,6360003013239,新規,0,2023-08-29,2023-08-29,Ｃａｎｄｅｅ　Ｌｉｆｅ合同会社,,合同会社,沖縄県,うるま市,勝連南風原１５０４番地１,,47,213,9042311,,,,,,,2023-08-29,1,,,,,キャンディーライフ,0
1409,6700150119431,新規,0,2023-08-29,2023-08-29,Ｓｈｅｎｚｈｅｎ　Ｘｉｎｇｈｏｎｇ　Ｉｎｔｅｒｎａｔｉｏｎａｌ　Ｔｒａｄｅ　Ｃｏ．，Ｌｔｄ,,外国会社等,,,,,,,,ｂａｏａｎｑｕｘｉｎ’ａｎｊｉｅｄａｏａｎｌｅｓｈｅｑｕ４０ｑｕａｎｌｅｇｏｎｇｙｅｙｕａｎ２ｈａｏｃｈａｎｇｆａｎｇＢ５１６－１　ｓｈｅｎｚｈｅｎ　ｇｕａｎｇｄｏｎｇ　ＣＮ,,,,,,2023-08-29,1,,,,,シンセンシンホンインターナショナルトレードカンパニーリミテッド,0
1410,6700150119448,新規,0,2023-08-29,2023-08-29,ｓｈｅｎｚｈｅｎ　ｔｉａｎｑｉａｎｋｅｊｉ　ｙｏｕｘｉａｎｇｏｎｇｓｉ,,外国会社等,,,,,,,,ｓｈｅｎｚｈｅｎｓｈｉｌｏｎｇｇａｎｇｑｕｙｕａｎｓｈａｎｊｉｅｄａｏｈｅａｏｓｈｅｑｕｃｈａｎｇｊｉａｎｇｐｕｌｕ７８ｈａｏｊｉｎｓｅｓｈｅｎｇｈｕｉｈｕａｔｉｎｇ（ｓｈａｎｇｂａｉｊｉａｎ）６ｄａｎｙｕａｎ８１１,,,,,,2023-08-29,1,,,,,シンセンテェンチェンカギユウゲンコウシ,0
1411,6700150119456,新規,0,2023-08-29,2023-08-29,ＳＨＥＮ　ＺＨＥＮ　ＳＨＩ　ＤＡ　ＯＵ　ＫＥ　Ｊｌ　ＹＯＵ　ＸＩＡＮ　ＧＯＮＧＳＩ,,外国会社等,,,,,,,,ＬＯＮＧ　ＨＵＡ　ＪＩＥ　ＤＡＯ　ＱＩＮＧ　ＨＵ　ＳＨＥ　ＱＵ　ＱＩＮＧ　ＨＵ　ＣＵＮ　ＢＡＯ　ＮＥＮＧ　ＫＥ　Ｊｌ　ＹＵＡＮ　９　ＤＯＮＧ　１３　ＣＥＮＧ　Ｂ　ＺＵＯ　Ｋ　ＤＡＮ　ＷＥＩ　ＳＨＥＮ　ＺＨＥＮ　ＳＨＩ　ＬＯＮＧ　ＨＵＡ　ＱＵ,,,,,,2023-08-29,1,,,,,シンセンシダオウカギユウゲンコウシ,0
1412,6700150119464,新規,0,2023-08-29,2023-08-29,ｓｈｅｎ　ｚｈｅｎ　ｍａｏ　ｈｅ　ｔｉａｏ　ｓｈｉ　ｙｅ　ｙｏｕ　ｘｉａｎ　ｇｏｎｇ　ｓｉ,,外国会社等,,,,,,,,２Ｆ－Ａ２２０ｓｈｉ，Ｃ５ｄｏｎｇ，１９８３ｃｈｕａｎｇｙｉｘｉａｏｚｈｅｎ，１５ｈａｏ，Ｎａｎｘｉｎｌｕ，Ｎａｎｌｉｎｇｃｕｎｓｈｅｑｕ，Ｎａｎｗａｎｊｉｅｄａｏ　Ｌｏｎｇｇａｎｇｑｕ，Ｓｈｅｎｚｈｅｎｓｈｉ，Ｇｕａｎｇｄｏｎｇｓｈｅｎｇ,,,,,,2023-08-29,1,,,,,シンセンボウワジョウジツギョウユウゲンコウシ,0
1413,6700150119472,新規,0,2023-08-29,2023-08-29,Ｎｉｎｇｂｏ　Ｙｏｕｄｉａｎ　Ｅｌｅｃｔｒｏｎｉｃ　Ｔｅｃｈｎｏｌｏｇｙ　Ｃｏ．，Ｌｔｄ．,,外国会社等,,,,,,,,Ｍｅｉｓｈａｎ　Ｓａｌｔ　Ｆｉｅｌｄ，Ｂｅｉｌｕｎ　Ｄｉｓｔｒｉｃｔ，Ｒｏｏｍ　６８０，Ｎｏ．１０，Ｏｆｆｉｃｅ　Ｂｕｉｌｄｉｎｇ　１　Ｃｈｉｎａ,,,,,,2023-08-29,1,,,,,ネイハヨデンエレクトロニックテクノロジーカンパニーリミテッド,0
1414,6700150119480,新規,0,2023-08-29,2023-08-29,ｓｈｅｎｚｈｅｎｓｈｉｋａｉｓｉｌｉｅｔｅｋｅｊｉｙｏｕｘｉａｎｇｏｎｇｓｉ,,外国会社等,,,,,,,,ｘｉｎｇｈｅｗｏｒｌｄ　ｅｒｑｉ　Ｃ　ｄｏｎｇ　８０５Ｆ　ｓｈｅｎｚｈｅｎｓｈｉ　ｌｏｎｇｈｕａｑｕ　ｍｉｎｇｚｈｉｊｉｅｄａｏ　ｍｉｎｇｌｅｓｈｅｑｕ,,,,,,2023-08-29,1,,,,,シンセンシカイシレトカギユウゲンコウシ,0
1415,6700150119514,新規,0,2023-08-29,2023-08-29,Ｓａｈａｒａ　Ｍｏｔｏｒｓ,,外国会社等,千葉県,千葉市緑区,東山科町１４番地７０,,12,105,2660001,スリランカ民主社会主義共和国、ナワラピティヤ、コスマレロード、５１,,,,,,2023-08-29,1,,,,,サハラモータース,0
1416,6700150119530,新規,0,2023-08-29,2023-08-29,ＳＨＩＪＩＡＺＨＵＡＮＧ　ＣＨＡＮＣＳ　ＭＥＣＨＡＴＲＯＮＩＣＳ　ＴＥＣＨ　ＣＯ．ＬＴＤ．,,外国会社等,,,,,,,,Ｎｏ．２６０　Ｈｕａｉ’ａｎ　Ｗｅｓｔ　Ｒｏａｄ，Ｑｉａｏｘｉ　Ｄｉｓｔｒｉｃｔ　３－１４１４，Ｌｅｃｈｅｎｇ　Ｂｕｓｉｎｅｓｓ　Ｐｌａｚａ　Ｓｈｉｊｉａｚｈｕａｎｇ　Ｈｅｂｅｉ,,,,,,2023-08-29,1,,,,,セッカソウショウジキデンカギユウゲンコウシ,0
1425,7010001237922,新規,0,2023-08-29,2023-08-29,株式会社イナミ・インターナショナル,,株式会社,東京都,文京区,本郷３丁目２４番２号,,13,105,1130033,,,,,,,2023-08-29,1,,,,,イナミインターナショナル,0
1426,7010001238020,新規,0,2023-08-29,2023-08-29,株式会社ＳＲホールディングス,,株式会社,東京都,千代田区,丸の内１丁目６番１号,,13,101,1000005,,,,,,,2023-08-29,1,,,,,エスアールホールディングス,0
1442,7010401176704,新規,0,2023-08-29,2023-08-29,株式会社ＮｅｗＴｅａｍ,,株式会社,東京都,港区,赤坂４丁目１４番１４ー７１１号,,13,103,1070052,,,,,,,2023-08-29,1,,,,,ニューチーム,0
1443,7010403030826,新規,0,2023-08-29,2023-08-29,ソーラーマクスウェル合同会社,,合同会社,東京都,港区,西新橋１丁目２番９号メンターキャピタル税理士法人内,,13,103,1050003,,,,,,,2023-08-29,1,,,,,ソーラーマクスウェル,0
1470,7011003017437,新規,0,2023-08-29,2023-08-29,合同会社ＥａｒｌｙＷｏｌｆ,,合同会社,東京都,渋谷区,神宮前６丁目２３番４号桑野ビル２階,,13,113,1500001,,,,,,,2023-08-29,1,,,,,アーリーウルフ,0
1483,7011301028961,新規,0,2023-08-29,2023-08-29,株式会社ＢＨＵＳＡＬ　ＥＮＴＥＲＰＲＩＳＥＳ,,株式会社,東京都,杉並区,和田３丁目２－８シャラナム東高円寺２０４,,13,115,1660012,,,,,,,2023-08-29,1,,,,,ブサルエンタープライゼズ,0
1495,7020001153210,新規,0,2023-08-29,2023-08-29,株式会社太田興業,,株式会社,神奈川県,川崎市幸区,南加瀬３丁目３１番１２－２０２号,,14,132,2120055,,,,,,,2023-08-29,1,,,,,,0
1497,7021001080031,新規,0,2023-08-29,2023-08-29,スタジオブッチ株式会社,,株式会社,神奈川県,大和市,中央林間１丁目１番１１－８０８号,,14,213,2420007,,,,,,,2023-08-29,1,,,,,スタジオブッチ,0
1505,7030001155404,新規,0,2023-08-29,2023-08-29,株式会社ＬｉｆｅＤｅｆｅｎｄｅｒｓ,,株式会社,埼玉県,戸田市,大字新曽２３７０番地,,11,224,3350021,,,,,,,2023-08-29,1,,,,,ライフディフェンダーズ,0
1506,7030001155420,新規,0,2023-08-29,2023-08-29,株式会社ＴＲｉｐ,,株式会社,埼玉県,さいたま市見沼区,大字中川７７０番地４,,11,104,3370043,,,,,,,2023-08-29,1,,,,,トリップ,0
1507,7030001155478,新規,0,2023-08-29,2023-08-29,株式会社Ｖ‐ｉａｍｏｎｄ,,株式会社,埼玉県,所沢市,小手指町４丁目４－５出浦第五ビル１０２,,11,208,3591141,,,,,,,2023-08-29,1,,,,,ヴィアモンド,0
1508,7030001155486,新規,0,2023-08-29,2023-08-29,芝ホーム株式会社,,株式会社,埼玉県,川口市,安行出羽５丁目１３番１号アーバンスクエア１０５号,,11,203,3340052,,,,,,,2023-08-29,1,,,,,シバホーム,0
1509,7030001155494,新規,0,2023-08-29,2023-08-29,株式会社Ｚ・Ａ　ＡＵＴＯ,,株式会社,埼玉県,北足立郡伊奈町,大字小室８８０８番地１,,11,301,3620806,,,,,,,2023-08-29,1,,,,,ゼットエーオート,0
1514,7030005021370,新規,0,2023-08-29,2023-08-29,一般社団法人日本獣医病理学専門家協会,,その他の設立登記法人,埼玉県,新座市,野火止７丁目８番３１号,,11,230,3520011,,,,,,,2023-08-29,1,,,,,ニホンジュウイビョウリガクセンモンカキョウカイ,0
1517,7040001129836,新規,0,2023-08-29,2023-08-29,株式会社ＲＥＣ,,株式会社,千葉県,山武郡芝山町,香山新田４９番地３－１０１倉庫,,12,409,2891601,,,,,,,2023-08-29,1,,,,,アールイーシー,0
1518,7040001129844,新規,0,2023-08-29,2023-08-29,株式会社ＧＲＡＣＥ,,株式会社,千葉県,市原市,島野４７８番地７,,12,219,2900034,,,,,,,2023-08-29,1,,,,,グレイス,0
1528,7050001053341,新規,0,2023-08-29,2023-08-29,株式会社サロングレース,,株式会社,茨城県,つくば市,高野台２丁目４番地１９,,08,220,3050074,,,,,,,2023-08-29,1,,,,,サロングレース,0
1534,7080003003044,新規,0,2023-08-29,2023-08-29,合同会社ライブラ,,合同会社,静岡県,静岡市駿河区,下川原６丁目３０番１,,22,102,4210113,,,,,,,2023-08-29,1,,,,,ライブラ,0
1537,7080405007568,新規,0,2023-08-29,2023-08-29,よらっせＹＵＴＯ事業協同組合,,その他の設立登記法人,静岡県,浜松市西区,雄踏町宇布見９９８１番地の１,,22,133,4310102,,,,,,,2023-08-29,1,,,,,ヨラッセユウトウ,0
1549,7120001257694,新規,0,2023-08-29,2023-08-29,株式会社ＡＮＣＯ,,株式会社,大阪府,大阪市中央区,谷町６丁目１０番２０－１３０１号,,27,128,5420012,,,,,,,2023-08-29,1,,,,,アンコ,0
1550,7120005023829,新規,0,2023-08-29,2023-08-29,特定非営利活動法人ａｍｏ,,その他の設立登記法人,大阪府,枚方市,山之上北町１４番２２号,,27,210,5730049,,,,,,,2023-08-29,1,,,,,アモ,0
1554,7120901047988,新規,0,2023-08-29,2023-08-29,株式会社ＢＢＣＳ,,株式会社,大阪府,豊中市,浜２丁目６－１６,,27,203,5610817,,,,,,,2023-08-29,1,,,,,ビービーシーエス,0
1555,7120903004789,新規,0,2023-08-29,2023-08-29,合同会社修徳,,合同会社,大阪府,豊中市,上野坂２丁目１１番１号,,27,203,5600012,,,,,,,2023-08-29,1,,,,,シュウトク,0
1560,7130001074998,新規,0,2023-08-29,2023-08-29,沐恩株式会社,,株式会社,京都府,京都市山科区,日ノ岡石塚町３３－３,00131686,26,110,6078498,,,,,,,2023-08-29,1,,,,,モクオン,0
1568,7140001131385,新規,0,2023-08-29,2023-08-29,株式会社Ｏｎｅ　Ｔｅｃｈ,,株式会社,兵庫県,高砂市,伊保崎南３番１１号,,28,216,6760075,,,,,,,2023-08-29,1,,,,,ワンテック,0
1573,7150001026667,新規,0,2023-08-29,2023-08-29,インテルクルース株式会社,,株式会社,奈良県,大和高田市,大字有井７６－１０－２０１,,29,202,6350072,,,,,,,2023-08-29,1,,,,,インテルクルース,0
1574,7150001026675,新規,0,2023-08-29,2023-08-29,株式会社ＭＭＦ,,株式会社,奈良県,天理市,東井戸堂町４１５番地１０,,29,204,6320074,,,,,,,2023-08-29,1,,,,,エムエムエフ,0
1580,7180001157773,新規,0,2023-08-29,2023-08-29,株式会社エステートはなみずき,,株式会社,愛知県,長久手市,打越２０１番地１,,23,238,4801152,,,,,,,2023-08-29,1,,,,,エステートハナミズキ,0
1582,7180003025672,新規,0,2023-08-29,2023-08-29,合同会社Ｆａｋｉｅ　Ｓｔｙｌｅ　Ｆ＆Ｇ,,合同会社,愛知県,名古屋市中区,栄５丁目２６－３９ＧＳ栄ビル３Ｆ,,23,106,4600008,,,,,,,2023-08-29,1,,,,,フェイキースタイルエフアンドジー,0
1584,7180303005812,新規,0,2023-08-29,2023-08-29,ＴＲＥＳＴ合同会社,,合同会社,愛知県,豊橋市,西幸町字浜池３３３－９豊橋サイエンスコア１０９,,23,201,4418113,,,,,,,2023-08-29,1,,,,,トレスト,0
1598,7290001102801,新規,0,2023-08-29,2023-08-29,株式会社ＡＮＲ,,株式会社,福岡県,久留米市,国分町１１４９番地７,,40,203,8390863,,,,,,,2023-08-29,1,,,,,エーエヌアール,0
1600,7290803004492,新規,0,2023-08-29,2023-08-29,合同会社ＭＪｆｉｅｌｄ,,合同会社,福岡県,北九州市八幡西区,下上津役３丁目１７番３７号,,40,109,8070075,,,,,,,2023-08-29,1,,,,,エムジェーフィールド,0
1601,7300001013435,新規,0,2023-08-29,2023-08-29,株式会社アカデミッククラフトイノベーションズ,,株式会社,佐賀県,三養基郡基山町,大字宮浦６８３番地,,41,341,8410204,,,,,,,2023-08-29,1,,,,,アカデミッククラフトイノベーションズ,0
1608,7340001025848,新規,0,2023-08-29,2023-08-29,株式会社ＣＨＥＥＲＦＵＬＬ,,株式会社,鹿児島県,鹿児島市,宮之浦町４３７番地,,46,201,8911305,,,,,,,2023-08-29,1,,,,,チアフル,0
1625,7410003003836,新規,0,2023-08-29,2023-08-29,合同会社さのまる,,合同会社,秋田県,山本郡藤里町,大沢字蕨台１２１,,05,346,0183203,,,,,,,2023-08-29,1,,,,,サノマル,0
1628,7420003002779,新規,0,2023-08-29,2023-08-29,合同会社Ａ‐ＳＹＳＴＥＭ,,合同会社,青森県,弘前市,大字青女子字桜苅３１７番地,,02,202,0383615,,,,,,,2023-08-29,1,,,,,アーシステム,0
1632,7430001089850,新規,0,2023-08-29,2023-08-29,和不動産株式会社,,株式会社,北海道,札幌市白石区,本通１３丁目北１番１３号,,01,104,0030027,,,,,,,2023-08-29,1,,,,,カズフドウサン,0
1633,7430001089859,新規,0,2023-08-29,2023-08-29,株式会社ＬＩＮＯ,,株式会社,北海道,札幌市中央区,南十一条西９丁目１番２５－３０１号,,01,101,0640811,,,,,,,2023-08-29,1,,,,,リノ,0
1637,7460101007429,新規,0,2023-08-29,2023-08-29,株式会社しほろ加納ファーム,,株式会社,北海道,河東郡士幌町,字上音更西２線２１６番地４,,01,632,0801249,,,,,,,2023-08-29,1,,,,,シホロカノウファーム,0
1645,7700150116337,新規,0,2023-08-29,2023-08-29,ｈａｉｎａｎｙｏｎｇｈｅｎｇｈｕｉｓｈｉｙｅｙｏｕｘｉａｎｇｏｎｇｓｉ,,外国会社等,,,,,,,,Ｒｏｏｍ　９０５，Ｍａｉｎ　Ｂｕｉｌｄｉｎｇ，Ｑｉａｏｃｈｅｎｇ　Ｇａｒｄｅｎ，Ｎｏ．１３　Ｊｉａｈｕａ　Ｒｏａｄ，Ｍｅｉｌａｎ　Ｄｉｓｔｒｉｃｔ，Ｈａｉｋｏｕ　Ｃｉｔｙ，Ｈａｉｎａｎ　Ｐｒｏｖｉｎｃｅ,,,,,,2023-08-29,1,,,,,カイナンエイコウキジツギョウユウゲンカイシャ,0
1646,7700150119430,新規,0,2023-08-29,2023-08-29,ｇｕａｎｇｚｈｏｕｓｈｉ　ｌａｎｊｉｍａｏｙｉ　ｙｏｕｘｉａｎｇｏｎｇｓｉ,,外国会社等,,,,,,,,ｂａｉｙｕｎｑｕ　ｒｅｎｈｅｚｈｅｎ　ｈｕａｒｏｎｇｂｅｉｊｉｅ　５２ｈａｏ　ｇｕａｎｇｚｈｏｕ　ｇｕａｎｇｄｏｎｇ,,,,,,2023-08-29,1,,,,,コウシュウシランジマオイユウゲンコウシ,0
1647,7700150119439,新規,0,2023-08-29,2023-08-29,ｓｈｅｎｚｈｅｎ　ｄｉｅｒｙｕｋｅｊｉ　ｙｏｕｘｉａｎｇｏｎｇｓｉ,,外国会社等,,,,,,,,３２２　Ｈｕａｃｈｕａｎｇｄａ　Ｙｉｈｕｉ　Ｂｕｉｌｄｉｎｇ，４７　Ｄｉｓｔｒｉｃｔ，Ｃｈｉｎａ　Ｎａｔｉｏｎａｌ　Ｈｉｇｈｗａｙ　１０７，Ｂａｏ’ａｎ　Ｄｉｓｔｒｉｃｔ，Ｆａｎｓｈｅｎ　Ｃｏｍｍｕｎｉｔｙ，Ｘｉｎ’ａｎ　Ｓｔｒｅｅｔ，Ｂａｏ’ａｎ　Ｄｉｓｔｒｉｃｔ，Ｓｈｅｎｚｈｅｎ,,,,,,2023-08-29,1,,,,,シンセンデイエユカギユウゲンコウシ,0
1648,7700150119447,新規,0,2023-08-29,2023-08-29,ｆｕｚｈｏｕｓｈｉ　ｍｉｎｕｏ　ｗａｎｇｌｕｏｋｅｊｉ　ｙｏｕｘｉａｎｇｏｎｇｓｉ,,外国会社等,,,,,,,,Ｒｏｏｍ　２２２５，Ｂ３＃，Ｚｏｎｅ　Ｂ，Ｒ＆Ｆ　Ｃｅｎｔｒｅ，Ｓｏｕｔｈ　ｏｆ　Ｓｈａｎｇｐｕ　Ｒｏａｄ，Ｎｉｎｇｈｕａ　Ｓｔｒｅｅｔ　Ｆｕｚｈｏｕ　Ｔａｉｊｉａｎｇ　Ｄｉｓｔｒｉｃｔ，Ｆｕｊｉａｎ　Ｐｒｏｖｉｎｃｅ,,,,,,2023-08-29,1,,,,,フクシュウシミヌオワンルオカギユウゲンコウシ,0
1649,7700150119455,新規,0,2023-08-29,2023-08-29,Ｚｈｏｎｇｓｈａｎ　Ｏｕｓｉｋｅ　Ｌｉｇｈｔ　Ｃｏ．，Ｌｔｄ,,外国会社等,,,,,,,,Ｎｏ．６０１，Ｂｕｉｌｄｉｎｇ　３，Ｎｏ．２０，Ｘｉｎｔｅｎｇ　ＲｏａｄＧｕｚｈｅｎ　Ｔｏｗｎ，Ｚｈｏｎｇｓｈａｎ　ＣｉｔｙＧｕａｎｇｄｏｎｇ　Ｐｒｏｖｉｎｃｅ,,,,,,2023-08-29,1,,,,,チュウザンオウシケライトカンパニーリミテツド,0
1650,7700150119463,新規,0,2023-08-29,2023-08-29,ｈｕｉｚｈｏｕｓｈｉｈｕｉｄｏｎｇｘｉａｎｈａｏｄａｎｋｅｊｉｙｏｕｘｉａｎｇｏｎｇｓｉ,,外国会社等,,,,,,,,ｌｉｎｇｓｈｉ，ＨｕａｄａＮａｎｊｉｅ，Ｙｕａｎｃｈｅｎｇｑｕ，Ｈｅｙｕａｎ，Ｇｕａｎｇｄｏｎｇ,,,,,,2023-08-29,1,,,,,ケイシュウイチエヒガシケンゴウニカギユウゲンコウシ,0
1651,7700150119471,新規,0,2023-08-29,2023-08-29,Ｓｕｚｈｏｕ　Ｘｉｎｔｕｎａｍｉｋｅｊｉ　Ｌｔｄ．,,外国会社等,,,,,,,,Ａ５　ｄｏｎｇ，Ｎｏ．２　Ｙｏｕｓｈｅｎｇ　Ｒｏａｄ，Ｂｅｉｑｉａｏ　Ｓｔｒｅｅｔ，Ｘｉａｎｇｃｈｅｎｇ　ｄｉｓｔｒｉｃｔ，Ｓｕｚｈｏｕ　Ｃｉｔｙ　Ｃｈｉｎａ,,,,,,2023-08-29,1,,,,,スゾォウシンツナミカギリミテッド,0
1652,7700150119513,新規,0,2023-08-29,2023-08-29,株式会社アールシーイ,,外国会社等,東京都,渋谷区,初台１丁目５１番１－８１０号,,13,113,1510061,大韓民国慶尚北道慶山市珍良邑大邱大路２０１、創業保育センター１号館１１０８号,,,,,,2023-08-29,1,,,,,カブシキガイシヤアールシーイ,0
1658,8010001237921,新規,0,2023-08-29,2023-08-29,株式会社イナミ・メンテナンス・アンド・サービス,,株式会社,東京都,文京区,本郷３丁目２４番２号,,13,105,1130033,,,,,,,2023-08-29,1,,,,,イナミメンテナンスアンドサービス,0
1659,8010001238003,新規,0,2023-08-29,2023-08-29,ｐｌｕｍｅ株式会社,,株式会社,東京都,千代田区,三番町７番地５－７０６号,,13,101,1020075,,,,,,,2023-08-29,1,,,,,プリュム,0
1667,8010401176752,新規,0,2023-08-29,2023-08-29,ｍｆｎｔｏｋｙｏ株式会社,,株式会社,東京都,港区,赤坂７丁目６番４５－５０２号,,13,103,1070052,,,,,,,2023-08-29,1,,,,,エムエフエヌトウキョウ,0
1668,8010401176802,新規,0,2023-08-29,2023-08-29,ＫＭＤ株式会社,,株式会社,東京都,港区,北青山１丁目３番１号アールキューブ青山３階,,13,103,1070061,,,,,,,2023-08-29,1,,,,,ケイエムディー,0
1669,8010401176827,新規,0,2023-08-29,2023-08-29,ウエストアイランド株式会社,,株式会社,東京都,港区,赤坂４丁目１４－１４パークコート赤坂ザ・タワー２３０４,,13,103,1070052,,,,,,,2023-08-29,1,,,,,ウエストアイランド,0
1673,8010403030825,新規,0,2023-08-29,2023-08-29,ソーラーファラデー合同会社,,合同会社,東京都,港区,西新橋１丁目２番９号メンターキャピタル税理士法人内,,13,103,1050003,,,,,,,2023-08-29,1,,,,,ソーラーファラデー,0
1686,8010805003049,新規,0,2023-08-29,2023-08-29,マンション雪ヶ谷管理組合法人,,その他の設立登記法人,東京都,大田区,東雪谷２丁目４番１号,,13,111,1450065,,,,,,,2023-08-29,1,,,,,マンションユキガヤ,0
1687,8010901053690,新規,0,2023-08-29,2023-08-29,株式会社ＰＮＴ,,株式会社,東京都,世田谷区,奥沢６丁目３３番１４号もみの木ビル,,13,112,1580083,,,,,,,2023-08-29,1,,,,,ピーエヌティー,0
1690,8011001156608,新規,0,2023-08-29,2023-08-29,株式会社Ｇｌｏｂａｌ　Ｂｅａｕｔｙ　Ｓｕｐｐｏｒｔ,,株式会社,東京都,渋谷区,道玄坂１丁目２１－１ＳＨＩＢＵＹＡＳＯＬＡＳＴＡ３Ｆ,,13,113,1500043,,,,,,,2023-08-29,1,,,,,グローバルビューティーサポート,0
1691,8011001156624,新規,0,2023-08-29,2023-08-29,株式会社Ｒｏｘｉ,,株式会社,東京都,目黒区,下目黒２丁目２０番５号ＢＯＴ７３３－Ｙ３,,13,110,1530064,,,,,,,2023-08-29,1,,,,,ロクシー,0
1694,8011003017411,新規,0,2023-08-29,2023-08-29,Ｏｐｔｉｍｉｓｔａ合同会社,,合同会社,東京都,目黒区,柿の木坂１丁目２８番４号ザ・サンメゾン目黒柿の木坂エルド２０３,,13,110,1520022,,,,,,,2023-08-29,1,,,,,オプティミスタ,0
1695,8011003017444,新規,0,2023-08-29,2023-08-29,合同会社エイト,,合同会社,東京都,渋谷区,道玄坂１丁目１２番１号渋谷マークシティＷ２２階,,13,113,1500043,,,,,,,2023-08-29,1,,,,,エイト,0
1701,8011301028960,新規,0,2023-08-29,2023-08-29,株式会社ＤａｎＤｅｌｉｏｎ,,株式会社,東京都,杉並区,和泉４丁目１番６号,,13,115,1680063,,,,,,,2023-08-29,1,,,,,ダンデライオン,0
1702,8011301028969,新規,0,2023-08-29,2023-08-29,株式会社Ｙ,,株式会社,東京都,杉並区,西荻北３丁目７－９,,13,115,1670042,,,,,,,2023-08-29,1,,,,,ワイ,0
1707,8012401040921,新規,0,2023-08-29,2023-08-29,株式会社ＧＧＤ,,株式会社,東京都,三鷹市,下連雀５丁目３番１－８１１号,,13,204,1810013,,,,,,,2023-08-29,1,,,,,ジージーディ,0
1710,8012803003170,新規,0,2023-08-29,2023-08-29,合同会社ああぼｉｄｓｈｅｎ,,合同会社,東京都,国分寺市,西町４丁目３０－１・１０４,,13,214,1850035,,,,,,,2023-08-29,1,,,,,アアボイドゥシェン,0
1713,8020001153226,新規,0,2023-08-29,2023-08-29,株式会社ｃｈｕｆｆｅｄ,,株式会社,神奈川県,横浜市青葉区,荏田町２３１番地１ファミールあざみ野スカーレットヒルズ６１３,,14,117,2250013,,,,,,,2023-08-29,1,,,,,チャフド,0
1720,8030001155428,新規,0,2023-08-29,2023-08-29,株式会社Ａ　ｌｏｔ　ｎｉｎｅ,,株式会社,埼玉県,さいたま市西区,西大宮４丁目１１番地２６,,11,101,3310078,,,,,,,2023-08-29,1,,,,,ロットナイン,0
1721,8030001155469,新規,0,2023-08-29,2023-08-29,株式会社Ｍａｓｈｓｏｆｔ,,株式会社,埼玉県,所沢市,小手指町４丁目１３－１０煉瓦館小手指２・１０５号室,,11,208,3591141,,,,,,,2023-08-29,1,,,,,マッシュソフト,0
1722,8030001155485,新規,0,2023-08-29,2023-08-29,株式会社ｆｇコンサルティング,,株式会社,埼玉県,蕨市,中央３丁目１８－５－１００４,,11,223,3350004,,,,,,,2023-08-29,1,,,,,エフジーコンサルティング,0
1723,8030001155502,新規,0,2023-08-29,2023-08-29,株式会社ＳＴ,,株式会社,埼玉県,越谷市,大字南荻島２４１５番地１５,,11,222,3430804,,,,,,,2023-08-29,1,,,,,エスティー,0
1724,8030001155510,新規,0,2023-08-29,2023-08-29,株式会社モガミ商会,,株式会社,埼玉県,三郷市,高州３丁目４６０番地２,,11,237,3410037,,,,,,,2023-08-29,1,,,,,モガミショウカイ,0
1725,8030001155543,新規,0,2023-08-29,2023-08-29,株式会社宮原シーリング,,株式会社,埼玉県,志木市,幸町３丁目５番２４号,,11,228,3530005,,,,,,,2023-08-29,1,,,,,ミヤハラシーリング,0
1726,8030001155691,新規,0,2023-08-29,2023-08-29,株式会社フォーライフ,,株式会社,埼玉県,越谷市,谷中町１丁目５０番地１アペレイト赤山ＩＩ－１０８,00131690,11,222,3430856,,,,,,,2023-08-29,1,,,,,フォーライフ,0
1736,8040001129827,新規,0,2023-08-29,2023-08-29,あい株式会社,,株式会社,千葉県,松戸市,新松戸６丁目２４１番地,,12,207,2700034,,,,,,,2023-08-29,1,,,,,アイ,0
1748,8100005013062,新規,0,2023-08-29,2023-08-29,特定非営利活動法人ナカラ,,その他の設立登記法人,長野県,伊那市,高遠町西高遠横町８３５番地１,,20,209,3960211,,,,,,,2023-08-29,1,,,,,ナカラ,0
1756,8110003005143,新規,0,2023-08-29,2023-08-29,合同会社Ｍｏｕ,,合同会社,新潟県,新潟市北区,美里１丁目３番地１０,,15,101,9503342,,,,,,,2023-08-29,1,,,,,ムー,0
1763,8120001257628,新規,0,2023-08-29,2023-08-29,株式会社リテラスハウジング,,株式会社,大阪府,寝屋川市,大利町２０番５号,,27,215,5720048,,,,,,,2023-08-29,1,,,,,リテラスハウジング,0
1764,8120001257636,新規,0,2023-08-29,2023-08-29,ＲＩＤＥＷＡＶＥ株式会社,,株式会社,大阪府,大阪市福島区,野田２丁目２番１号,,27,103,5530005,,,,,,,2023-08-29,1,,,,,ライドウェイブ,0
1765,8120001257702,新規,0,2023-08-29,2023-08-29,コーケン株式会社,,株式会社,大阪府,大阪市東成区,東小橋３丁目１４番２６号鶴橋ビルＭ８０１号室,,27,115,5370024,,,,,,,2023-08-29,1,,,,,コーケン,0
1775,8120003024803,新規,0,2023-08-29,2023-08-29,合同会社エコー,,合同会社,大阪府,大阪市鶴見区,焼野１丁目南４番８‐８０６号,,27,124,5380037,,,,,,,2023-08-29,1,,,,,エコー,0
1778,8120903004788,新規,0,2023-08-29,2023-08-29,合同会社神舞,,合同会社,大阪府,茨木市,三島丘２丁目１２－２７,,27,211,5670021,,,,,,,2023-08-29,1,,,,,カンマイ,0
1790,8140001131384,新規,0,2023-08-29,2023-08-29,伯盛国際貿易株式会社,,株式会社,兵庫県,神戸市長田区,大谷町３丁目２３番３８号,,28,106,6530838,,,,,,,2023-08-29,1,,,,,ハクセイコクサイボウエキ,0
1793,8140003019479,新規,0,2023-08-29,2023-08-29,リネクトプラス合同会社,,合同会社,兵庫県,川西市,小花１丁目９番１号,,28,217,6660015,,,,,,,2023-08-29,1,,,,,リネクトプラス,0
1808,8180001157764,新規,0,2023-08-29,2023-08-29,嘉作設計株式会社,,株式会社,愛知県,名古屋市西区,樋の口町１番１５号２０号室,,23,104,4510034,,,,,,,2023-08-29,1,,,,,カサクセッケイ,0
1809,8180001157772,新規,0,2023-08-29,2023-08-29,株式会社シンワミール,,株式会社,愛知県,春日井市,勝川新町２丁目７番地,,23,206,4860941,,,,,,,2023-08-29,1,,,,,シンワミール,0
1811,8180003025663,新規,0,2023-08-29,2023-08-29,合同会社げんき,,合同会社,愛知県,名古屋市北区,安井４丁目１４番６８号宝マンション城北５１５号,,23,103,4620023,,,,,,,2023-08-29,1,,,,,ゲンキ,0
1818,8240001062041,新規,0,2023-08-29,2023-08-29,ＶＩＤ株式会社,,株式会社,広島県,福山市,沖野上町４丁目８番２３号,,34,207,7200825,,,,,,,2023-08-29,1,,,,,ブイアイディー,0
1819,8240003006228,新規,0,2023-08-29,2023-08-29,ポーラスター合同会社,,合同会社,広島県,三原市,沼田東町末広３１２番地９４,,34,204,7230144,,,,,,,2023-08-29,1,,,,,ポーラスター,0
1835,8340001025847,新規,0,2023-08-29,2023-08-29,上尚株式会社,,株式会社,鹿児島県,鹿児島市,新屋敷町１５－１７,,46,201,8920838,,,,,,,2023-08-29,1,,,,,カミタカ,0
1836,8340003004221,新規,0,2023-08-29,2023-08-29,合同会社Ｓｈｉｍａ　Ｈｏｔｅｌ,,合同会社,鹿児島県,大島郡与論町,大字那間２５２３－１,,46,535,8919308,,,,,,,2023-08-29,1,,,,,シマホテル,0
1840,8360005006899,新規,0,2023-08-29,2023-08-29,一般社団法人ＡＬＭＳ,,その他の設立登記法人,沖縄県,うるま市,みどり町５丁目１１番１３号,,47,213,9042215,,,,,,,2023-08-29,1,,,,,アームス,0
1851,8430001089841,新規,0,2023-08-29,2023-08-29,Ｅｎｉｓｈｉコネクト株式会社,,株式会社,北海道,札幌市清田区,平岡四条３丁目４番８号ガーデンテラス２Ｆ,,01,110,0040874,,,,,,,2023-08-29,1,,,,,エニシコネクト,0
1854,8430003015382,新規,0,2023-08-29,2023-08-29,合同会社ＫＯＭＵＧＩ,,合同会社,北海道,札幌市中央区,南一条西１１丁目３２７番地一条ビル２階,,01,101,0600061,,,,,,,2023-08-29,1,,,,,コムギ,0
1860,8700150119438,新規,0,2023-08-29,2023-08-29,Ｓｈｅｎｚｈｅｎｓｈｉ　Ｑｉｅｘｉａｎｇ　Ｋｅｊｉ　Ｙｏｕｘｉａｎ　Ｇｏｎｇｓｉ,,外国会社等,,,,,,,,ＰｉｎｇｈｕＪｉｅｄａｏ　ＨｅｈｕａＳｈｅｑｕ　ＨｕａｎａｎＤａｄａｏ　ＹｉｈａｏＨｕａｎａｎＧｕｏｊｉＰｉｇｅＰｉｊｕ　ＹｕａｎｆｕｌｉａｏＷｕｌｉｕｑｕＥｒｑｉ　４Ｆ－００４　Ｓｈｅｎｚｈｅｎ　Ｌｏｎｇｇａｎｇ　Ｑｕ　Ｇｕａｎｇｄｏｎｇ　ＣＮ,,,,,,2023-08-29,1,,,,,シンセンシチェシャンカギユウゲンコウシ,0
1861,8700150119446,新規,0,2023-08-29,2023-08-29,Ｔｉａｎｔａｉ　Ｈｕａｑｉ　Ｅ－ｃｏｍｍｅｒｃｅ　Ｃｏ．，Ｌｔｄ．,,外国会社等,,,,,,,,Ｎｏ．２７，Ｔａｎｇｘｉａｄｉｎｇ　Ｖｉｌｌａｇｅ，Ｓｈｉｆｅｎｇ　Ｓｔｒｅｅｔ，Ｔｉａｎｔａｉ　Ｃｏｕｎｔｙ　Ｔａｉｚｈｏｕ　Ｚｈｅｊｉａｎｇ　ＣＮ,,,,,,2023-08-29,1,,,,,テンタイホゥアチイーコマースカンパニーリミテッド,0
1862,8700150119454,新規,0,2023-08-29,2023-08-29,ｓｈｅｎｚｈｅｎｓｈｉ　ｈｏｎｇｄａｆｕｋｅｊｉ　ｙｏｕｘｉａｎｇｏｎｇｓｉ,,外国会社等,,,,,,,,ｊｉｎｘｉｕｊｉａｎｇｎａｎｙｉｑｉＢ１ｄｏｎｇ４０１，ｍｉｎｚｈｉｊｉｅｄａｏｘｉｎｎｉｕｓｈｅｑｕ，ｌｏｎｇｈｕａ，ｓｈｅｎｚｈｅｎ，Ｇｕａｎｇｄｏｎｇ　ＣＮ,,,,,,2023-08-29,1,,,,,シンセンシホンダフカギユウゲンコウシ,0
1863,8700150119462,新規,0,2023-08-29,2023-08-29,Ｎａｎｊｉｎｇｘｉａｏｍａｏｇｅｎｇｕｏｊｉｍａｏｙｉｙｏｕｘｉａｎｇｏｎｇｓｉ,,外国会社等,,,,,,,,Ｒｏｏｍ　１２－１４０９，Ａｒｅａ　Ａ，Ｓｅｒｖｉｃｅ　Ｔｒａｄｅ　Ｚｏｎｅ，Ｎｏ．２６８，Ｌｉｄａｏ　Ｒｏａｄ，Ｂａｇｕａｚｈｏｕ　Ｓｔｒｅｅｔ，Ｑｉｘｉａ　Ｄｉｓｔｒｉｃｔ，Ｎａｎｊｉｎｇ,,,,,,2023-08-29,1,,,,,ナンキンコモネコクサイボウエキユウゲンコウシ,0
1864,8700150119470,新規,0,2023-08-29,2023-08-29,ｎｉｎｇｂｏ　ｙｕｇｕａｎｇｗａｎｇｌｕｏｋｅｊｉ　ｙｏｕｘｉａｎｇｏｎｇｓｉ,,外国会社等,,,,,,,,ｈａｎｇｚｈｏｕｗａｎｘｉｎｑｕｓｈｉｊｉｃｈｅｎｇｍｅｎｇｘｉａｎｇｇｏｎｇｙｕ８ｈａｏｌｏｕ３１１４ｓｈｉ（ｈａｎｇｓｕｓｈａｎｇｗｕｍｉｓｈｕｔｕｏｇｕａｎ２２）ｎｉｎｇｂｏ　ｚｈｅｊｉａｎｇｓｈｅｎｇ　Ｃｈｉｎａ,,,,,,2023-08-29,1,,,,,ネイハユガンワンルオカギユウゲンコウシ,0
1865,8700150119479,新規,0,2023-08-29,2023-08-29,Ｓｈｅｎｚｈｅｎ　Ｈｕａｚｈａｎ　Ｔｅｃｈ　Ｃｏ　Ｌｔｄ,,外国会社等,,,,,,,,Ｂ６Ｍ　Ｙａｎｇｇｕａｎｇ　Ｈａｉｊｉｎｇ　ＢｕｉｌｄｉｎｇＨｉ－ｔｅｃｈ　Ｐａｒｋ，ＮａｎｓｈａｎＳｈｅｎｚｈｅｎＧｕａｎｇｄｏｎｇ,,,,,,2023-08-29,1,,,,,シンセンシカテンカギユウゲンセキニンコウシ,0
1866,8700150119529,新規,0,2023-08-29,2023-08-29,Ｄｏｎｇｇｕａｎ　Ｙｉｙｕａｎ　Ｅｌｅｃｔｒｏｎｉｃ　Ｔｅｃｈｎｏｌｏｇｙ　Ｃｏ．，Ｌｔｄ,,外国会社等,,,,,,,,Ｂｅｉｚｈａ　Ｎｏ．３　Ｘｉｓｈａ　１ｓｔ　Ｒｏａｄ　ＮＯ．１０１　Ｈｕｍｅｎ　Ｔｏｗｎ　Ｄｏｎｇｇｕａｎ　Ｇｕａｎｇｄｏｎｇ　Ｐｒｏｖｉｎｃｅ,,,,,,2023-08-29,1,,,,,トウカンシヨクゲンデンシカギユウゲンコウシ,0
1871,9010001237805,新規,0,2023-08-29,2023-08-29,エグゼリンクス株式会社,,株式会社,東京都,千代田区,神田小川町１丁目８番地３小川町北ビル７Ｆ,,13,101,1010052,,,,,,,2023-08-29,1,,,,,エグゼリンクス,0
1872,9010001237929,新規,0,2023-08-29,2023-08-29,宅東株式会社,,株式会社,東京都,千代田区,紀尾井町３番１２号紀尾井町ビル１５０１,,13,101,1020094,,,,,,,2023-08-29,1,,,,,タクトウ,0
1875,9010003041404,新規,0,2023-08-29,2023-08-29,合同会社Ａｄｔｕｎｉｔｙ,,合同会社,東京都,中央区,日本橋室町１丁目１１番１２号日本橋水野ビル７階,,13,102,1030022,,,,,,,2023-08-29,1,,,,,アドチュニティ,0
1877,9010005037177,新規,0,2023-08-29,2023-08-29,一般社団法人ＪＡＰＡＮ　ＨＡＩＲ　ＣＯＬＬＥＣＴＩＯＮ事務局,,その他の設立登記法人,東京都,中央区,銀座６丁目３－２ギャラリーセンタービル３階,,13,102,1040061,,,,,,,2023-08-29,1,,,,,ジャパンヘアコレクションジムキョク,0
1885,9010401176826,新規,0,2023-08-29,2023-08-29,株式会社マスターピースプロダクツ,,株式会社,東京都,港区,新橋４丁目２１－３新橋東急ビル３Ｆ,,13,103,1050004,,,,,,,2023-08-29,1,,,,,マスターピースプロダクツ,0
1886,9010401176834,新規,0,2023-08-29,2023-08-29,株式会社ｅｅｌ,,株式会社,東京都,港区,南青山６丁目７番１５号ラヴォーグ南青山７０３号室,,13,103,1070062,,,,,,,2023-08-29,1,,,,,イール,0
1887,9010403030816,新規,0,2023-08-29,2023-08-29,合同会社ｓｈｏｖｅｌ,,合同会社,東京都,港区,赤坂２丁目１７番６４－１２０１号,,13,103,1070052,,,,,,,2023-08-29,1,,,,,ショベル,0
1888,9010403030824,新規,0,2023-08-29,2023-08-29,ソーラーガウス合同会社,,合同会社,東京都,港区,西新橋１丁目２番９号メンターキャピタル税理士法人内,,13,103,1050003,,,,,,,2023-08-29,1,,,,,ソーラーガウス,0
1892,9010703006838,新規,0,2023-08-29,2023-08-29,中和産業ホールディングス合同会社,,合同会社,東京都,品川区,上大崎３丁目１番１号目黒セントラルスクエア１５階,,13,109,1410021,,,,,,,2023-08-29,1,,,,,チュウワサンギョウホールディングス,0
1902,9011001156573,新規,0,2023-08-29,2023-08-29,株式会社ＡｘｃｅｌｌＷｏｒｋｓ,,株式会社,東京都,渋谷区,渋谷２丁目１９－１５宮益坂ビルディング６０９,,13,113,1500002,,,,,,,2023-08-29,1,,,,,アクセルワークス,0
1904,9011003017427,新規,0,2023-08-29,2023-08-29,合同会社ＴＲＩＬＬＩＯＮ,,合同会社,東京都,渋谷区,代々木４丁目８番４０号フォーレスト代々木Ｂ４０３,,13,113,1510053,,,,,,,2023-08-29,1,,,,,トリリオン,0
1905,9011003017443,新規,0,2023-08-29,2023-08-29,ＭＡＧＯＮＯＴＥ合同会社,,合同会社,東京都,渋谷区,渋谷２丁目１９－１５宮益坂ビルディング６０９,,13,113,1500002,,,,,,,2023-08-29,1,,,,,マゴノテ,0
1917,9011705001793,新規,0,2023-08-29,2023-08-29,一般社団法人リンクインターナショナル,,その他の設立登記法人,東京都,江戸川区,松島１丁目３４番１－６０２号グリーンコーポ親水公園,,13,123,1320031,,,,,,,2023-08-29,1,,,,,リンクインターナショナル,0
1922,9012401040920,新規,0,2023-08-29,2023-08-29,株式会社サーファーム,,株式会社,東京都,調布市,東つつじケ丘２丁目３４番地２,,13,208,1820005,,,,,,,2023-08-29,1,,,,,サーファーム,0
1945,9020001153175,新規,0,2023-08-29,2023-08-29,峰潤株式会社,,株式会社,神奈川県,横浜市神奈川区,子安台２丁目４番３５号,,14,102,2210012,,,,,,,2023-08-29,1,,,,,,0
1946,9020001153225,新規,0,2023-08-29,2023-08-29,株式会社ＹＫ,,株式会社,神奈川県,横浜市緑区,台村町４３５番地,,14,113,2260014,,,,,,,2023-08-29,1,,,,,ワイケー,0
1952,9021001080038,新規,0,2023-08-29,2023-08-29,マコム株式会社,,株式会社,神奈川県,藤沢市,下土棚２０４５番５号,,14,205,2520807,,,,,,,2023-08-29,1,,,,,マコム,0
1956,9030001155492,新規,0,2023-08-29,2023-08-29,株式会社Ｎｊ,,株式会社,埼玉県,川越市,喜多町１番地３,,11,201,3500061,,,,,,,2023-08-29,1,,,,,エヌジェイ,0
1957,9030001155501,新規,0,2023-08-29,2023-08-29,株式会社ヒプノアイズ,,株式会社,埼玉県,さいたま市北区,日進町２丁目９３２－１,,11,102,3310823,,,,,,,2023-08-29,1,,,,,ヒプノアイズ,0
1958,9030001155682,新規,0,2023-08-29,2023-08-29,株式会社永和,,株式会社,埼玉県,久喜市,桜田３丁目３番５－５０３,,11,232,3400203,,,,,,,2023-08-29,1,,,,,エイワ,0
1959,9030001155757,新規,0,2023-08-29,2023-08-29,鈴木ホールディングス株式会社,,株式会社,埼玉県,八潮市,八潮１丁目２１番地３,,11,234,3400815,,,,,,,2023-08-29,1,,,,,スズキホールディングス,0
1961,9030003022369,新規,0,2023-08-29,2023-08-29,合同会社Ｆｏｒｗａｒｄ　Ｌｉｆｅ,,合同会社,埼玉県,富士見市,ふじみ野東１丁目２１－１ラ・ガールふじみ野４０３,,11,235,3540036,,,,,,,2023-08-29,1,,,,,フォワードライフ,0
1972,9050001053356,新規,0,2023-08-29,2023-08-29,株式会社Ｍ・Ｂ・Ｓ　ＴＲＡＤＩＮＧ,,株式会社,茨城県,常総市,福二町乙４０番地２,,08,211,3002501,,,,,,,2023-08-29,1,,,,,エムビーエストレーディング,0
1975,9080103002877,新規,0,2023-08-29,2023-08-29,合同会社ＴＭＧ　ＰＬＵＳ,,合同会社,静岡県,裾野市,千福が丘２丁目７番地１,,22,220,4101115,,,,,,,2023-08-29,1,,,,,ティーエムジープラス,0
1986,9120001257635,新規,0,2023-08-29,2023-08-29,高通技術株式会社,,株式会社,大阪府,大阪市中央区,安堂寺町２丁目６－１４－８Ｆ－１４,,27,128,5420061,,,,,,,2023-08-29,1,,,,,コウツウギジュツ,0
1987,9120003024785,新規,0,2023-08-29,2023-08-29,Ｑ＆Ｔ合同会社,,合同会社,大阪府,大阪市西成区,北津守４丁目４番７５号,,27,122,5570061,,,,,,,2023-08-29,1,,,,,キューアンドティー,0
1988,9120003024793,新規,0,2023-08-29,2023-08-29,合同会社クロス,,合同会社,大阪府,大阪市北区,扇町２丁目６番１７－１３０６号,,27,127,5300025,,,,,,,2023-08-29,1,,,,,クロス,0
1989,9120005023843,新規,0,2023-08-29,2023-08-29,税理士法人ベイカ・ワン,,その他の設立登記法人,大阪府,大阪市北区,梅田１丁目１番３号大阪駅前第３ビル２Ｆ,,27,127,5300001,,,,,,,2023-08-29,1,,,,,ベイカワン,0
1995,9120103005388,新規,0,2023-08-29,2023-08-29,合同会社改良メダカＭＳＲ,,合同会社,大阪府,泉南市,新家６０００番地の１０,,27,228,5900503,,,,,,,2023-08-29,1,,,,,カイリョウメダカエムエスアール,0
1996,9120901047986,新規,0,2023-08-29,2023-08-29,東啓アセット・マネジメント株式会社,,株式会社,大阪府,豊中市,寺内１丁目１０－７－３０５号,,27,203,5610872,,,,,,,2023-08-29,1,,,,,トケイアセットマネジメント,0
2003,9140001131383,新規,0,2023-08-29,2023-08-29,株式会社グローバルプロジェクト,,株式会社,兵庫県,淡路市,南鵜崎１９９７番地８,,28,226,6562307,,,,,,,2023-08-29,1,,,,,グローバルプロジェクト,0
2008,9170001017753,新規,0,2023-08-29,2023-08-29,株式会社ｋａｎｏｎ　ｈｅａｒｉｎｇ　ａｓｓｉｓｔ,,株式会社,和歌山県,和歌山市,中島５６４番地１２,,30,201,6410006,,,,,,,2023-08-29,1,,,,,カノンヒアリングアシスト,0
2022,9250001020261,新規,0,2023-08-29,2023-08-29,株式会社ＰＺＲ,,株式会社,山口県,宇部市,野中５丁目３番２６－３号,,35,202,7550025,,,,,,,2023-08-29,1,,,,,ピーゼットアール,0
2028,9290001102799,新規,0,2023-08-29,2023-08-29,恒昇株式会社,,株式会社,福岡県,福岡市中央区,六本松４丁目８番１２号,,40,133,8100044,,,,,,,2023-08-29,1,,,,,コウショウ,0
2037,9340003004229,新規,0,2023-08-29,2023-08-29,合同会社コーコック,,合同会社,鹿児島県,鹿児島市,郡元３丁目１８番２５号,,46,201,8900065,,,,,,,2023-08-29,1,,,,,コーコック,0
2039,9360003013236,新規,0,2023-08-29,2023-08-29,合同会社猫の手,,合同会社,沖縄県,石垣市,字大浜１１７２番地５３,,47,207,9070001,,,,,,,2023-08-29,1,,,,,ネコノテ,0
2050,9430001089849,新規,0,2023-08-29,2023-08-29,３Ｍｏｎｊｕ株式会社,,株式会社,北海道,札幌市中央区,南二条西１２丁目３２３番９号クリスタルパレス９５　４０１号,,01,101,0600062,,,,,,,2023-08-29,1,,,,,サンモンジュ,0
2051,9430001089857,新規,0,2023-08-29,2023-08-29,株式会社中の島ワークス,,株式会社,北海道,札幌市豊平区,平岸一条１３丁目５番１３号シャトレー平岸ＩＩ－３号,00131694,01,105,0620931,,,,,,,2023-08-29,1,,,,,ナカノシマワークス,0
2054,9430003015381,新規,0,2023-08-29,2023-08-29,合同会社武田重機工業,,合同会社,北海道,札幌市清田区,北野五条４丁目１番５－３０３号,,01,110,0040865,,,,,,,2023-08-29,1,,,,,タケダジュウキコウギョウ,0
2063,9700150119429,新規,0,2023-08-29,2023-08-29,Ｓｈｉｊｉａｚｈｕａｎｇ　Ｊｉａｎｇｋｕｉ　Ｍａｏｙｉ　Ｙｏｕｘｉａｎ　Ｇｏｎｇｓｉ,,外国会社等,,,,,,,,Ｎｏ．７，Ｍｉｎ’ａｎ　Ｅａｓｔ　Ｒｏａｄ，Ｎａｎｑｉｅｍａ　Ｖｉｌｌａｇｅ，Ｑｉｅｍａ　Ｔｏｗｎ　Ｈｉｇｈ　Ｔｅｃｈ　Ｚｏｎｅ，Ｓｈｉｊｉａｚｈｕａｎｇ　Ｃｉｔｙ，Ｈｅｂｅｉ　Ｐｒｏｖｉｎｃｅ,,,,,,2023-08-29,1,,,,,セキカソウジャンクイマオイユウゲンコウシ,0
2064,9700150119437,新規,0,2023-08-29,2023-08-29,ｇｕａｎｇｚｈｏｕｓｈｉ　ｄｏｎｇｃｈｅｎｇｗａｎｇｌｕｏｋｅｊｉｙｏｕｘｉａｎｇｏｎｇｓｉ,,外国会社等,,,,,,,,ｇｕａｎｇｚｈｏｕｓｈｉ　ｂａｉｙｕｎｑｕ　ｊｕｎｈｅｊｉｅ　ｓｈｉｍａｘｉａｈｕａｙｉｌｕ　５９７ｈａｏ　ｓａｎｌｏｕ３０１ｚｈｉ１１３ｆａｎｇｈａｏ,,,,,,2023-08-29,1,,,,,コウシュウシドンチェンワンロカギユウゲンコウシ,0
2065,9700150119445,新規,0,2023-08-29,2023-08-29,Ｓｈｅｎｚｈｅｎ　Ｘｉｎ　Ａｎ　Ｓｈｕｎ　Ｋｅ　Ｊｉ　Ｙｏｕ　Ｘｉａｎ　Ｇｏｎｇ　Ｓｉ,,外国会社等,,,,,,,,ＢａｏＡｎ　Ｆｕｙｏｎｇ　Ｊｉｅｄａｏ　Ｆｕｈａｉ　Ｋｅｊｉｙｕａｎ　４　Ｈａｏ　Ｃｈｅｎｇｊｉａ　Ｓｈａｎｇｗｕ　Ｄａｓｈａ　５　Ｌｏｕ　５０９　Ｓｈｅｎｚｈｅｎ　Ｇｕａｎｇｄｏｎｇ,,,,,,2023-08-29,1,,,,,シンセンシンアンシュンカギユウゲンコウシ,0
2066,9700150119453,新規,0,2023-08-29,2023-08-29,ＨＵＩＺＨＯＵＳＨＩＴＩＡＮＪＩＥＫＥＪＩＹＯＵＸＩＡＮＧＯＮＧＳＩ,,外国会社等,,,,,,,,Ｒｏｏｍ　１－６１５，Ｎａｎｓｈａｎ　Ｉｎｔｅｒｎａｔｉｏｎａｌ　Ｂｕｉｌｄｉｎｇ，Ｎｏ．１０３，Ｚｈｏｎｇｘｉｎｇ　５ｔｈ　Ｒｏａｄ，Ａｏｔｏｕ，Ｄａｙａ　Ｂａｙ，Ｈｕｉｚｈｏｕ（ｏｆｆｉｃｅ　ｏｎｌｙ）,,,,,,2023-08-29,1,,,,,ケイシュウシテンジエカギユウゲンコウシ,0
2067,9700150119461,新規,0,2023-08-29,2023-08-29,ｓｈｅｎｚｈｅｎｓｈｉ　ｙｉｚｈｕｏｄｉａｎｚｉ　ｙｏｕｘｉａｎｇｏｎｇｓｉ,,外国会社等,,,,,,,,ｌｏｎｇｇａｎｇｑｕｂｕｊｉｊｉｅｄａｏｌｕｏｇａｎｇｓｈｅｑｕ，ｊｉｎｇｎａｎｌｕ１０３ｈａｏｘｉｎｙｅｄａｓｈａ５２１，ｓｈｅｎｚｈｅｎ，ｇｕａｎｇｄｏｎｇ，ＣＮ,,,,,,2023-08-29,1,,,,,シンセンシイゾォウデンシユウゲンコウシ,0
2068,9700150119478,新規,0,2023-08-29,2023-08-29,ｓｈｅｎｚｈｅｎｃｈｕａｎｇｊｉｅｄｉａｎｚｉｓｈａｎｇｗｕｙｏｕｘｉａｎｇｏｎｇｓｉ,,外国会社等,,,,,,,,ｓｈｅｎｚｈｅｎｓｈｉｌｏｎｇｈｕａｑｕｍｉｎｚｈｉｊｉｅｄａｏｘｉｎｎｉｕｓｈｅｑｕｇａｎｇｓｈｅｎｇｕｏｊｉｚｈｏｎｇｘｉｎＢ１１－４７,,,,,,2023-08-29,1,,,,,シンセンソウショウデンシショウムユウゲンコウシ,0
2069,9700150119494,新規,0,2023-08-29,2023-08-29,ＰＲＡＤＥＥＰ　ＭＯＴＯＲＳ,,外国会社等,茨城県,筑西市,小川１３１０－２メゾン川島２０１,,08,227,3080857,スリランカ民主社会主義共和国クルネーガラ、ウィルゴダ・ワッタ１２９／２,,,,,,2023-08-29,1,,,,,プラデイプモータース,0
2070,9700150119511,新規,0,2023-08-29,2023-08-29,追浜駅前第２街区市街地再開発組合,,その他,神奈川県,横須賀市,追浜町３丁目１６－１０２,,14,201,2370064,,,,,,,2023-08-29,1,,,,,オツパマエキマエダイニガイクシガイチサイカイハツクミアイ,0
2071,9700150119528,新規,0,2023-08-29,2023-08-29,ｇａｎｚｈｏｕｂａｉｂｅｉｋｅｗａｎｇｌｕｏｋｅｊｉｙｏｕｘｉａｎｇｏｎｇｓｉ,,外国会社等,,,,,,,,ｚｈａｎｇｇｏｎｇｑｕｗｕｚｈｉｆｅｎｇｌｕｗｅｎｈｕｉｙｕａｎ４ｄｏｎｇ７０３ｓｈｉ　ｇａｎｚｈｏｕｓｈｉ　ｊｉａｎｇｘｉｓｈｅｎｇ,,,,,,2023-08-29,1,,,,,カンシュウバイカイガラネットワークカギユウゲンコウシ,0
