sequenceNumber,corporateNumber,process,correct,updateDate,changeDate,name,nameImageId,kind,prefectureName,cityName,streetNumber,addressImageId,prefectureCode,cityCode,postCode,addressOutside,addressOutsideImageId,closeDate,closeCause,successorCorporateNumber,changeCause,assignmentDate,latest,enName,enPrefectureName,enCityName,enAddressOutside,furigana,hihyoji
9,1010001261820,新規,0,2026-01-09,2026-01-09,サカタインクス分割準備株式会社,,株式会社,東京都,文京区,後楽１丁目４番２５号,,13,105,1120004,,,,,,,2026-01-09,1,,,,,サカタインクスブンカツジュンビ,0
12,1010003049941,新規,0,2026-01-09,2026-01-09,合同会社鬼灯書房,,合同会社,東京都,文京区,根津２丁目２３番８号野澤貸家中央棟,,13,105,1130031,,,,,,,2026-01-09,1,,,,,ホオズキショボウ,0
13,1010003049999,新規,0,2026-01-09,2026-01-09,合同会社スプリング６,,合同会社,東京都,千代田区,丸の内１丁目４番１号東京共同会計事務所内,,13,101,1000005,,,,,,,2026-01-09,1,,,,,スプリングシックス,0
14,1010005041178,新規,0,2026-01-09,2026-01-09,一般社団法人日本精密板金ＤＸ工業会,,その他の設立登記法人,東京都,中央区,日本橋本町４丁目１－１３,,13,102,1030023,,,,,,,2026-01-09,1,,,,,ニホンセイミツバンキンディーエックスコウギョウカイ,0
15,1010005041194,新規,0,2026-01-09,2026-01-09,一般財団法人未来花財団,,その他の設立登記法人,東京都,中央区,八丁堀１丁目１１番３号,,13,102,1040032,,,,,,,2026-01-09,1,,,,,ミライカザイダン,0
16,1010101017024,新規,0,2026-01-09,2026-01-09,株式会社ＴＷＩＮ,,株式会社,東京都,八王子市,明神町４丁目１０番１５号,,13,201,1920046,,,,,,,2026-01-09,1,,,,,トゥイン,0
27,1010401195511,新規,0,2026-01-09,2026-01-09,株式会社Ａｏｙａｍａ６１,,株式会社,東京都,港区,六本木１丁目６番１号,,13,103,1060032,,,,,,,2026-01-09,1,,,,,アオヤマロクイチ,0
28,1010401195602,新規,0,2026-01-09,2026-01-09,ライバーコマースジャパン株式会社,,株式会社,東京都,港区,芝浦４丁目１２番３３号芝浦新本ビル６階,,13,103,1080023,,,,,,,2026-01-09,1,,,,,ライバーコマースジャパン,0
29,1010401195651,新規,0,2026-01-09,2026-01-09,フェルマット・キャピタル・ジャパン株式会社,,株式会社,東京都,港区,元麻布３丁目１番６号,,13,103,1060046,,,,,,,2026-01-09,1,,,,,フェルマットキャピタルジャパン,0
34,1010403036969,新規,0,2026-01-09,2026-01-09,合同会社スタジオフーズ,,合同会社,東京都,港区,南青山４丁目５－２０,,13,103,1070062,,,,,,,2026-01-09,1,,,,,スタジオフーズ,0
35,1010403036977,新規,0,2026-01-09,2026-01-09,Ｓｕｇｉ合同会社,,合同会社,東京都,港区,六本木１丁目９番１０号アークヒルズ仙石山森タワー４０階,,13,103,1060032,,,,,,,2026-01-09,1,,,,,スギ,0
36,1010403037001,新規,0,2026-01-09,2026-01-09,ＡＮＲＩ‐６合同会社,,合同会社,東京都,港区,六本木６丁目１０－１六本木ヒルズ森タワー１５Ｆ,,13,103,1060032,,,,,,,2026-01-09,1,,,,,アンリシックス,0
37,1010403037026,新規,0,2026-01-09,2026-01-09,Ｂｒｕｃｅ＆Ｃｏ．合同会社,,合同会社,東京都,港区,白金１丁目２－２－Ｗ１６１３,,13,103,1080072,,,,,,,2026-01-09,1,,,,,ブルースアンドコー,0
38,1010405025227,新規,0,2026-01-09,2026-01-09,一般社団法人ＭＲＦ２号,,その他の設立登記法人,東京都,港区,虎ノ門５丁目１番４号,,13,103,1050001,,,,,,,2026-01-09,1,,,,,エムアールエフニゴウ,0
41,1010501055243,新規,0,2026-01-09,2026-01-09,Ｐｉｓｃｅｓ　Ｙａ株式会社,,株式会社,東京都,台東区,東上野３丁目２番２－１１０１号室,,13,106,1100015,,,,,,,2026-01-09,1,,,,,パイスィーズヤ,0
43,1010601068509,新規,0,2026-01-09,2026-01-09,ベルーガ株式会社,,株式会社,東京都,墨田区,太平１丁目１５番４－３０１号,,13,107,1300012,,,,,,,2026-01-09,1,,,,,ベルーガ,0
44,1010601068517,新規,0,2026-01-09,2026-01-09,株式会社ａｍｓ　ｓｔｕｄｉｏ,,株式会社,東京都,江東区,東陽３丁目２３番２２号,,13,108,1350016,,,,,,,2026-01-09,1,,,,,エーエムエススタジオ,0
45,1010601068533,新規,0,2026-01-09,2026-01-09,株式会社タンポポ,,株式会社,東京都,墨田区,墨田５丁目３６番６－２０１号,,13,107,1310031,,,,,,,2026-01-09,1,,,,,タンポポ,0
46,1010601068541,新規,0,2026-01-09,2026-01-09,株式会社ウィルホールディングス,,株式会社,東京都,江東区,亀戸２丁目３４番４号,,13,108,1360071,,,,,,,2026-01-09,1,,,,,ウィルホールディングス,0
48,1010603012002,新規,0,2026-01-09,2026-01-09,ＰＥＡＲ　ＷＡＶＥ　ＰＲＯＰＥＲＴＹ合同会社,,合同会社,東京都,江東区,豊洲３丁目６番５－３９０８号,,13,108,1350061,,,,,,,2026-01-09,1,,,,,ペアウェイブプロパティ,0
50,1010701048856,新規,0,2026-01-09,2026-01-09,ＣＯＺＹダイニング株式会社,,株式会社,東京都,品川区,戸越１丁目１３番６号,,13,109,1420041,,,,,,,2026-01-09,1,,,,,コージーダイニング,0
56,1010901058754,新規,0,2026-01-09,2026-01-09,株式会社コホロ,,株式会社,東京都,世田谷区,玉川３丁目１２番１１号,,13,112,1580094,,,,,,,2026-01-09,1,,,,,コホロ,0
57,1010901058770,新規,0,2026-01-09,2026-01-09,株式会社ブルーオーシャンエンジニアリング,,株式会社,東京都,世田谷区,上祖師谷４丁目２番１－５２４号,,13,112,1570065,,,,,,,2026-01-09,1,,,,,ブルーオーシャンエンジニアリング,0
73,1011001174723,新規,0,2026-01-09,2026-01-09,株式会社ＣａｓｔｌｉｎＱ,,株式会社,東京都,渋谷区,道玄坂１丁目１０番地８号渋谷道玄坂東急ビル２Ｆ－Ｃ,,13,113,1500043,,,,,,,2026-01-09,1,,,,,キャストリンク,0
74,1011001174764,新規,0,2026-01-09,2026-01-09,株式会社Ｅｃｒｕ,,株式会社,東京都,目黒区,上目黒５丁目１６番１６－１０２号エターナルエステート,,13,110,1530051,,,,,,,2026-01-09,1,,,,,エクリュ,0
76,1011003023325,新規,0,2026-01-09,2026-01-09,合同会社春名企画事務所,,合同会社,東京都,目黒区,東山１丁目２０番６―３０７号　ファミールヒルズ目黒東山,,13,110,1530043,,,,,,,2026-01-09,1,,,,,ハルナキカクジムショ,0
78,1011103016848,新規,0,2026-01-09,2026-01-09,合同会社ＳｈａｋｅＨａｎｄｓ,,合同会社,東京都,新宿区,西新宿３丁目３番１３号西新宿水間ビル２Ｆ,,13,104,1600023,,,,,,,2026-01-09,1,,,,,シェイクハンズ,0
81,1011401027712,新規,0,2026-01-09,2026-01-09,株式会社ａｂｓｏｌａｎｃ,,株式会社,東京都,板橋区,加賀２丁目５番６号,,13,119,1730003,,,,,,,2026-01-09,1,,,,,アブソランク,0
85,1011503006820,新規,0,2026-01-09,2026-01-09,イーホウ・ビジネスサポート合同会社,,合同会社,東京都,北区,志茂３丁目２９－１１,,13,117,1150042,,,,,,,2026-01-09,1,,,,,イーホウビジネスサポート,0
86,1011503006829,新規,0,2026-01-09,2026-01-09,合同会社空,,合同会社,東京都,北区,赤羽南１丁目２４番３号,,13,117,1150044,,,,,,,2026-01-09,1,,,,,ソラ,0
88,1011701029078,新規,0,2026-01-09,2026-01-09,株式会社Ｗａｋｕｂｙ,,株式会社,東京都,江戸川区,西瑞江３丁目１７番地１４ウエスト・コート・パイン１０１,,13,123,1320015,,,,,,,2026-01-09,1,,,,,ワクビー,0
92,1011801047260,新規,0,2026-01-09,2026-01-09,株式会社Ｔａｖｉａ,,株式会社,東京都,葛飾区,新小岩１丁目７番４号,,13,122,1240024,,,,,,,2026-01-09,1,,,,,タヴィア,0
94,1011803007262,新規,0,2026-01-09,2026-01-09,Ｓｍｉｌｅ　Ｃｉｒｃｌｅ合同会社,,合同会社,東京都,葛飾区,亀有３丁目３２番５号Ｌｉｇｈｔｈｏｕｓｅ１階１－Ａ号室,,13,122,1250061,,,,,,,2026-01-09,1,,,,,スマイルサークル,0
95,1011805003508,新規,0,2026-01-09,2026-01-09,一般社団法人こども職人協会,,その他の設立登記法人,東京都,足立区,西新井本町２丁目３１番４号,,13,121,1230845,,,,,,,2026-01-09,1,,,,,コドモショクニンキョウカイ,0
99,1012401043996,新規,0,2026-01-09,2026-01-09,株式会社龍建,,株式会社,東京都,三鷹市,北野４丁目８番２９号,,13,204,1810003,,,,,,,2026-01-09,1,,,,,リュウケン,0
103,1012403007553,新規,0,2026-01-09,2026-01-09,合同会社ｓｕｐｅ,,合同会社,東京都,武蔵野市,吉祥寺北町４丁目１１番２８号吉祥寺パールハイツ２０１,,13,203,1800001,,,,,,,2026-01-09,1,,,,,スープ,0
106,1012701019259,新規,0,2026-01-09,2026-01-09,株式会社アディーソトラスト,,株式会社,東京都,小平市,美園町１丁目１２番１－７０１号,,13,211,1870041,,,,,,,2026-01-09,1,,,,,アディーソトラスト,0
116,1020001166564,新規,0,2026-01-09,2026-01-09,株式会社クリタカ,,株式会社,神奈川県,川崎市多摩区,中野島５丁目３番３０号第１栗原マンション１Ｆ,,14,135,2140012,,,,,,,2026-01-09,1,,,,,クリタカ,0
119,1020003030082,新規,0,2026-01-09,2026-01-09,Ｅｅｌ合同会社,,合同会社,神奈川県,川崎市中原区,宮内４丁目２２番１２号,,14,133,2110051,,,,,,,2026-01-09,1,,,,,イール,0
120,1021001087156,新規,0,2026-01-09,2026-01-09,株式会社Ｍｏａｎａ　Ｅｓｔａｔｅｓ,,株式会社,神奈川県,相模原市中央区,宮下本町１丁目１８番６号,,14,152,2520211,,,,,,,2026-01-09,1,,,,,モアナエステイツ,0
121,1021001087189,新規,0,2026-01-09,2026-01-09,ＮＥＸＴ株式会社,,株式会社,神奈川県,藤沢市,村岡東１丁目１１番地の２３,,14,205,2510012,,,,,,,2026-01-09,1,,,,,ネクスト,0
125,1030001170458,新規,0,2026-01-09,2026-01-09,ＭＩＳＨＯ株式会社,,株式会社,埼玉県,入間市,大字下藤沢１７２番地４５,,11,225,3580011,,,,,,,2026-01-09,1,,,,,ミショウ,0
127,1030003028398,新規,0,2026-01-09,2026-01-09,合同会社ＦＳＣＳ,,合同会社,埼玉県,川口市,大字里１４８２番地の７ガーデンハウス２０７号,,11,203,3340005,,,,,,,2026-01-09,1,,,,,エフエスシーエス,0
128,1030003028415,新規,0,2026-01-09,2026-01-09,ネオコンパス合同会社,,合同会社,埼玉県,三郷市,中央１丁目３番地２三郷中央センターマークス３０４号室,,11,237,3410038,,,,,,,2026-01-09,1,,,,,ネオコンパス,0
133,1040001142019,新規,0,2026-01-09,2026-01-09,株式会社ＴＬＢ,,株式会社,千葉県,船橋市,本町３丁目９番２５号ＧＵＳＴＯ１Ｆ,,12,204,2730005,,,,,,,2026-01-09,1,,,,,ティーエルビー,0
139,1060001038909,新規,0,2026-01-09,2026-01-09,株式会社栃木環境サービス,,株式会社,栃木県,芳賀郡益子町,大字七井２１９３番地,,09,342,3214106,,,,,,,2026-01-09,1,,,,,トチギカンキョウサービス,0
142,1070001043692,新規,0,2026-01-09,2026-01-09,株式会社Ｈｕｇｈｅｓ　Ｉｎｔｅｒｎａｔｉｏｎａｌ,,株式会社,群馬県,桐生市,新里町高泉４６０番地１１４,,10,203,3760135,,,,,,,2026-01-09,1,,,,,ヒューズインターナショナル,0
147,1080401028375,新規,0,2026-01-09,2026-01-09,株式会社Ｃｌｏｖｅｒ　Ｐｌｕｍｂｉｎｇ,,株式会社,静岡県,磐田市,豊田５６７番地２,,22,211,4380808,,,,,,,2026-01-09,1,,,,,クローバープラミング,0
149,1090001019674,新規,0,2026-01-09,2026-01-09,ホンダビジネスソリューションズ株式会社,,株式会社,山梨県,富士吉田市,上吉田東６丁目２番８号,,19,202,4030032,,,,,,,2026-01-09,1,,,,,ホンダビジネスソリューションズ,0
153,1110001039835,新規,0,2026-01-09,2026-01-09,株式会社元井農場,,株式会社,新潟県,刈羽郡刈羽村,大字下高町１５１２番地１,,15,504,9450316,,,,,,,2026-01-09,1,,,,,モトイノウジョウ,0
168,1120001283275,新規,0,2026-01-09,2026-01-09,株式会社Ｏｓａｎｐｏ,,株式会社,大阪府,大阪市北区,梅田１丁目２番２号大阪駅前第２ビル１２－１２,,27,127,5300001,,,,,,,2026-01-09,1,,,,,オサンポ,0
169,1120001283291,新規,0,2026-01-09,2026-01-09,株式会社ＢｌｏｏｍＬａｂ,,株式会社,大阪府,大阪市城東区,野江１丁目７番２４－７０８号,,27,118,5360006,,,,,,,2026-01-09,1,,,,,ブルームラボ,0
170,1120001283317,新規,0,2026-01-09,2026-01-09,株式会社オーケーティー,,株式会社,大阪府,大阪市中央区,高津２丁目４－１３レックスインなんばＢ１,,27,128,5420072,,,,,,,2026-01-09,1,,,,,オーケーティー,0
174,1120003031616,新規,0,2026-01-09,2026-01-09,合同会社十枡,,合同会社,大阪府,大阪市阿倍野区,阿倍野筋２丁目４番４８号,,27,119,5450052,,,,,,,2026-01-09,1,,,,,トーマス,0
179,1120103006922,新規,0,2026-01-09,2026-01-09,合同会社セレンディピティ,,合同会社,大阪府,岸和田市,額原町１２０９番地,,27,202,5960822,,,,,,,2026-01-09,1,,,,,セレンディピティ,0
180,1120105010096,新規,0,2026-01-09,2026-01-09,ＯＨＡＮＡ協同組合,,その他の設立登記法人,大阪府,大阪狭山市,山本南２５８番地の２,,27,231,5890033,,,,,,,2026-01-09,1,,,,,オハナ,0
182,1120901052052,新規,0,2026-01-09,2026-01-09,木杉株式会社,,株式会社,大阪府,箕面市,粟生間谷東５丁目２９番２５－１０１号,,27,220,5620022,,,,,,,2026-01-09,1,,,,,キスギ,0
183,1122001040045,新規,0,2026-01-09,2026-01-09,株式会社ニューステージ,,株式会社,大阪府,東大阪市,西堤本通西２丁目６番１９号,,27,227,5770046,,,,,,,2026-01-09,1,,,,,ニューステージ,0
187,1130001081356,新規,0,2026-01-09,2026-01-09,株式会社ｔｅｚｏｍｅｙａ,,株式会社,京都府,京都市中京区,姉小路通岩上西入樽屋町４５１,,26,104,6048322,,,,,,,2026-01-09,1,,,,,テゾメヤ,0
191,1140001141381,新規,0,2026-01-09,2026-01-09,エフプラス株式会社,,株式会社,兵庫県,尼崎市,築地４丁目２番１８号,,28,202,6600858,,,,,,,2026-01-09,1,,,,,エフプラス,0
199,1140003022992,新規,0,2026-01-09,2026-01-09,合同会社ＣＪレディアンス,,合同会社,兵庫県,宝塚市,平井５丁目８－１５,,28,214,6650816,,,,,,,2026-01-09,1,,,,,シージェーレディアンス,0
200,1140005027750,新規,0,2026-01-09,2026-01-09,特定非営利活動法人ＲＯＨプロジェクト,,その他の設立登記法人,兵庫県,神戸市長田区,宮丘町２丁目３番２２号,,28,106,6530863,,,,,,,2026-01-09,1,,,,,アールオーエイチプロジェクト,0
201,1140005027759,新規,0,2026-01-09,2026-01-09,そば処淡竹労働者協同組合,,その他の設立登記法人,兵庫県,神戸市北区,淡河町淡河字弘法垣６４３－１,,28,109,6511603,,,,,,,2026-01-09,1,,,,,ソバドコロアワタケ,0
202,1150001028628,新規,0,2026-01-09,2026-01-09,株式会社吉井商事,,株式会社,奈良県,吉野郡下市町,大字阿知賀２７１８番地,,29,443,6380001,,,,,,,2026-01-09,1,,,,,ヨシイショウジ,0
218,1180001170204,新規,0,2026-01-09,2026-01-09,オートエーミング株式会社,,株式会社,愛知県,稲沢市,平和町下起北６７番地９,,23,220,4901323,,,,,,,2026-01-09,1,,,,,オートエーミング,0
219,1180001170212,新規,0,2026-01-09,2026-01-09,ＲＫホールディングス株式会社,,株式会社,愛知県,名古屋市名東区,代万町３丁目１２番地の２,,23,115,4650086,,,,,,,2026-01-09,1,,,,,アールケーホールディングス,0
223,1180003029621,新規,0,2026-01-09,2026-01-09,合同会社加藤こども医療研究所,,合同会社,愛知県,名古屋市昭和区,滝子町２４番１８号,,23,107,4660053,,,,,,,2026-01-09,1,,,,,カトウコドモイリョウケンキュウショ,0
225,1180005021378,新規,0,2026-01-09,2026-01-09,弁護士法人纐纈・吉野法律事務所,,その他の設立登記法人,愛知県,名古屋市中区,丸の内３丁目２０番６号豊友ビル７階,,23,106,4600002,,,,,,,2026-01-09,1,,,,,コウケツヨシノホウリツジムショ,0
226,1180301040577,新規,0,2026-01-09,2026-01-09,株式会社庭屋縁,,株式会社,愛知県,豊橋市,西羽田町１１１番地４,,23,201,4418081,,,,,,,2026-01-09,1,,,,,ニワヤエン,0
227,1190001032799,新規,0,2026-01-09,2026-01-09,村上工業株式会社,,株式会社,三重県,津市,河芸町上野１１５７番地１,,24,201,5100304,,,,,,,2026-01-09,1,,,,,ムラカミコウギョウ,0
228,1190001032808,新規,0,2026-01-09,2026-01-09,株式会社Ｍｏｒｉ設備設計,,株式会社,三重県,津市,垂水１０４５番地,,24,201,5140821,,,,,,,2026-01-09,1,,,,,モリセツビセッケイ,0
229,1190001032824,新規,0,2026-01-09,2026-01-09,アドロバ株式会社,,株式会社,三重県,四日市市,東日野町７８０番地６,,24,202,5100942,,,,,,,2026-01-09,1,,,,,アドロバ,0
239,1240001066016,新規,0,2026-01-09,2026-01-09,株式会社エルビス,,株式会社,広島県,尾道市,高須町１０８６番地２７,,34,205,7290141,,,,,,,2026-01-09,1,,,,,エルビス,0
244,1260001040885,新規,0,2026-01-09,2026-01-09,福原設備工業株式会社,,株式会社,岡山県,備前市,日生町寒河３９５４－１,,33,211,7013202,,,,,,,2026-01-09,1,,,,,フクハラセツビコウギョウ,0
249,1270001009368,新規,0,2026-01-09,2026-01-09,株式会社ＦＫ　Ｗｏｒｋｓ,,株式会社,鳥取県,東伯郡湯梨浜町,大字田後３９１番地４,,31,370,6820721,,,,,,,2026-01-09,1,,,,,エフケーワークス,0
255,1290003017904,新規,0,2026-01-09,2026-01-09,合同会社Ｈａｐｐｙ　Ｌａｄｙｂｕｇ,,合同会社,福岡県,嘉麻市,漆生１３９２－５,,40,227,8200201,,,,,,,2026-01-09,1,,,,,ハッピーレディーバグ,0
256,1290005019964,新規,0,2026-01-09,2026-01-09,医療法人みやび,,その他の設立登記法人,福岡県,春日市,惣利２丁目７０番地１－２階,,40,218,8160813,,,,,,,2026-01-09,1,,,,,ミヤビ,0
261,1300001014471,新規,0,2026-01-09,2026-01-09,株式会社ＤＤＴ,,株式会社,佐賀県,佐賀市,南佐賀２丁目２番６－１０３号,,41,201,8400016,,,,,,,2026-01-09,1,,,,,ディーディーティー,0
262,1300003002400,新規,0,2026-01-09,2026-01-09,ＫＩＮＯＵＥ合同会社,,合同会社,佐賀県,佐賀市,神野東３丁目１２番３８号タケダビルＩＩ８０７号,00142105,41,201,8400804,,,,,,,2026-01-09,1,,,,,キノウエ,0
269,1320001021532,新規,0,2026-01-09,2026-01-09,株式会社ＫＯＫＯＬＯ,,株式会社,大分県,別府市,青山町１０番１２号,,44,202,8740902,,,,,,,2026-01-09,1,,,,,ココロ,0
270,1320003004873,新規,0,2026-01-09,2026-01-09,合同会社かみふうせん,,合同会社,大分県,日田市,前津江町赤石１２８６番地,,44,204,8770211,,,,,,,2026-01-09,1,,,,,カミフウセン,0
271,1330001033898,新規,0,2026-01-09,2026-01-09,株式会社ＹＭＧ,,株式会社,熊本県,山鹿市,山鹿７５４－１,,43,208,8610501,,,,,,,2026-01-09,1,,,,,ワイエムジー,0
272,1330001033907,新規,0,2026-01-09,2026-01-09,株式会社親林業,,株式会社,熊本県,球磨郡球磨村,大字神瀬丙８８２番地,,43,513,8696404,,,,,,,2026-01-09,1,,,,,チカリンギョウ,0
273,1330001033915,新規,0,2026-01-09,2026-01-09,株式会社Ｍｉｒａｉｅ,,株式会社,熊本県,熊本市西区,横手５丁目１２番１１号,,43,103,8600046,,,,,,,2026-01-09,1,,,,,ミライエ,0
282,1360001036238,新規,0,2026-01-09,2026-01-09,株式会社ＭＯＳＴ,,株式会社,沖縄県,浦添市,屋富祖３丁目３４－１７ＥＡＣビル３Ｆ３０３,,47,208,9012127,,,,,,,2026-01-09,1,,,,,モスト,0
285,1370001053356,新規,0,2026-01-09,2026-01-09,株式会社Ａｘｅｓ,,株式会社,宮城県,仙台市青葉区,みやぎ台３丁目２２番３号,,04,101,9893214,,,,,,,2026-01-09,1,,,,,アクシス,0
291,1380001035782,新規,0,2026-01-09,2026-01-09,ＢａｒｏｑｕｅＲ　Ｌｔｄ．株式会社,,株式会社,福島県,福島市,置賜町５番１０号第２清水ビル４Ｆ,,07,201,9608034,,,,,,,2026-01-09,1,,,,,バロッカー,0
292,1380001035790,新規,0,2026-01-09,2026-01-09,株式会社トータルパック,,株式会社,福島県,いわき市,平字愛谷町一丁目８番地の９,,07,204,9708026,,,,,,,2026-01-09,1,,,,,トータルパック,0
294,1400001017282,新規,0,2026-01-09,2026-01-09,株式会社エムワンワークス,,株式会社,岩手県,盛岡市,大通２丁目７番１９号,,03,201,0200022,,,,,,,2026-01-09,1,,,,,エムワンワークス,0
297,1410003004195,新規,0,2026-01-09,2026-01-09,合同会社伊藤農園,,合同会社,秋田県,潟上市,飯田川下虻川字街道上一本木１７番地３,,05,211,0181502,,,,,,,2026-01-09,1,,,,,イトウノウエン,0
299,1430001095978,新規,0,2026-01-09,2026-01-09,ＲｅＬｉｆｅ　ｐｌｕｓ株式会社,,株式会社,北海道,札幌市清田区,真栄６４８番地２,,01,110,0040839,,,,,,,2026-01-09,1,,,,,リライフプラス,0
300,1430001096027,新規,0,2026-01-09,2026-01-09,株式会社ブルークラウン,,株式会社,北海道,札幌市北区,あいの里三条９丁目４番２５号,,01,102,0028073,,,,,,,2026-01-09,1,,,,,ブルークラウン,0
301,1430001096043,新規,0,2026-01-09,2026-01-09,株式会社アールモーション,,株式会社,北海道,江別市,元江別８４９番地の５,,01,217,0670032,,,,,,,2026-01-09,1,,,,,アールモーション,0
303,1430003018474,新規,0,2026-01-09,2026-01-09,Ｇｏｌｄｉｏｎ合同会社,,合同会社,北海道,札幌市中央区,北五条西８丁目１番地１ラ・トゥール札幌伊藤ガーデン２２０２,,01,101,0600005,,,,,,,2026-01-09,1,,,,,ゴルディオン,0
304,1450001014829,新規,0,2026-01-09,2026-01-09,川上農産株式会社,,株式会社,北海道,旭川市,東鷹栖九線十五号５１２６番地１,,01,204,0718159,,,,,,,2026-01-09,1,,,,,カワカミノウサン,0
308,1470003003051,新規,0,2026-01-09,2026-01-09,合同会社アクアコンサルティング,,合同会社,香川県,丸亀市,郡家町３４８４ダイワレイクＣ棟１０１号,,37,202,7630093,,,,,,,2026-01-09,1,,,,,,0
312,1700150020651,新規,0,2026-01-09,2015-10-09,ちよだスポーツクラブ,,その他,群馬県,邑楽郡千代田町,大字上五箇６００,,10,523,3700726,,,,,,,2015-10-09,1,,,,,チヨダスポーツクラブ,0
313,1700150133882,新規,0,2026-01-09,2026-01-09,シナネン健康保険組合,,その他,東京都,品川区,東品川１丁目３９番２０号,,13,109,1400002,,,,,,,2026-01-09,1,,,,,シナネンケンコウホケンクミアイ,0
319,2010001261745,新規,0,2026-01-09,2026-01-09,マルチパワー株式会社,,株式会社,東京都,中央区,京橋１丁目１番５号セントラルビル２階,,13,102,1040031,,,,,,,2026-01-09,1,,,,,マルチパワー,0
320,2010001261753,新規,0,2026-01-09,2026-01-09,株式会社ＣＶ　ｅｎｔｅｒｔａｉｎｍｅｎｔ,,株式会社,東京都,中央区,銀座１丁目１２番４号Ｎ＆ＥＢＬＤ．６Ｆ,,13,102,1040061,,,,,,,2026-01-09,1,,,,,シーブイエンターテイメント,0
323,2010003049940,新規,0,2026-01-09,2026-01-09,合同会社ＡｎｄＢｅｒｒｙ,,合同会社,東京都,中央区,銀座１丁目１２番４号Ｎ＆ＥＢＬＤ．６Ｆ,,13,102,1040061,,,,,,,2026-01-09,1,,,,,アンドベリー,0
325,2010005041202,新規,0,2026-01-09,2026-01-09,弁護士法人レガシィ,,その他の設立登記法人,東京都,中央区,京橋１丁目１番１号八重洲ダイビル３階,,13,102,1040031,,,,,,,2026-01-09,1,,,,,レガシィ,0
327,2010103002733,新規,0,2026-01-09,2026-01-09,合同会社ＳＰＯＴＴＥＲ,,合同会社,東京都,八王子市,北野台２丁目１７－３,,13,201,1920913,,,,,,,2026-01-09,1,,,,,スポッター,0
333,2010401195510,新規,0,2026-01-09,2026-01-09,ＢａｎｄＧ株式会社,,株式会社,東京都,港区,赤坂４丁目９番１７号,,13,103,1070052,,,,,,,2026-01-09,1,,,,,ビーアンジー,0
334,2010401195584,新規,0,2026-01-09,2026-01-09,株式会社ＥＮＭＡＲＫ,,株式会社,東京都,港区,北青山１丁目３－３三橋ビル３階,,13,103,1070061,,,,,,,2026-01-09,1,,,,,エンマーク,0
335,2010401195618,新規,0,2026-01-09,2026-01-09,Ｇｏｏｄｈａｒｂｏｒ　Ｃａｐｉｔａｌ株式会社,,株式会社,東京都,港区,三田３丁目５番１９号住友不動産東京三田ガーデンタワー２７階,,13,103,1080073,,,,,,,2026-01-09,1,,,,,グットハーバーキャピタル,0
336,2010401195634,新規,0,2026-01-09,2026-01-09,ＭＩＰ株式会社,,株式会社,東京都,港区,芝浦３丁目１４番５号テクス芝浦ビル２階,,13,103,1080023,,,,,,,2026-01-09,1,,,,,エムアイピー,0
337,2010401195659,新規,0,2026-01-09,2026-01-09,株式会社ｄｒｅａｍ,,株式会社,東京都,港区,芝浦４丁目１１番１６－４０９号,,13,103,1080023,,,,,,,2026-01-09,1,,,,,ドリーム,0
338,2010401195700,新規,0,2026-01-09,2026-01-09,株式会社Ｋｏｒｏｒｉｎ,,株式会社,東京都,港区,北青山１丁目３－３三橋ビル３階,,13,103,1070061,,,,,,,2026-01-09,1,,,,,コロリン,0
339,2010401195709,新規,0,2026-01-09,2026-01-09,株式会社ＦＰ＆Ａ　ＪＡＰＡＮ,,株式会社,東京都,港区,高輪４丁目２０番１９－１０２号,,13,103,1080074,,,,,,,2026-01-09,1,,,,,エフピーアンドエイジャパン,0
340,2010401195741,新規,0,2026-01-09,2026-01-09,ＨＹＤＲＯＬＯＧＹ株式会社,,株式会社,東京都,港区,赤坂３丁目２１番６号楽ビル４階,,13,103,1070052,,,,,,,2026-01-09,1,,,,,ハイドロロジー,0
344,2010403036968,新規,0,2026-01-09,2026-01-09,合同会社ストレージ滋賀安曇川蓄電所,,合同会社,東京都,港区,東新橋２丁目１６番４号,,13,103,1050021,,,,,,,2026-01-09,1,,,,,ストレージアドガワチクデンショ,0
351,2010601068532,新規,0,2026-01-09,2026-01-09,株式会社ｂｌｅｕ,,株式会社,東京都,墨田区,押上２丁目３４番１号,,13,107,1310045,,,,,,,2026-01-09,1,,,,,ブル,0
352,2010601068540,新規,0,2026-01-09,2026-01-09,株式会社ＰＡＣ,,株式会社,東京都,墨田区,菊川１丁目９番７－３０５号,,13,107,1300024,,,,,,,2026-01-09,1,,,,,ピーエーシー,0
353,2010601068549,新規,0,2026-01-09,2026-01-09,株式会社ＭＡＴＡＨＡＲＩ,,株式会社,東京都,墨田区,横川４丁目１番２０号１Ｆ－Ｃ,,13,107,1300003,,,,,,,2026-01-09,1,,,,,マタハリ,0
355,2010603012001,新規,0,2026-01-09,2026-01-09,合同会社ＳＡＮＫＳ,,合同会社,東京都,江東区,亀戸４丁目１４番２号,,13,108,1360071,,,,,,,2026-01-09,1,,,,,サンクス,0
357,2010701048847,新規,0,2026-01-09,2026-01-09,株式会社ＣａｒｅＭｅｌ,,株式会社,東京都,品川区,西五反田２丁目１９番１２号,,13,109,1410031,,,,,,,2026-01-09,1,,,,,ケアメル,0
358,2010703008072,新規,0,2026-01-09,2026-01-09,Ａｔｈｌｅｔｅ　Ｌａｂｏ合同会社,,合同会社,東京都,品川区,勝島１丁目６番４０－７０７号,,13,109,1400012,,,,,,,2026-01-09,1,,,,,アスリートラボ,0
364,2011001174722,新規,0,2026-01-09,2026-01-09,株式会社ギンザラ,,株式会社,東京都,目黒区,東山３丁目６番１５号エビヤビル４０１,,13,110,1530043,,,,,,,2026-01-09,1,,,,,ギンザラ,0
365,2011001174747,新規,0,2026-01-09,2026-01-09,株式会社リベルテクス,,株式会社,東京都,目黒区,自由が丘３丁目１－８,,13,110,1520035,,,,,,,2026-01-09,1,,,,,リベルテクス,0
366,2011001174763,新規,0,2026-01-09,2026-01-09,株式会社リヴィアクス,,株式会社,東京都,渋谷区,道玄坂１丁目１０番８号渋谷道玄坂東急ビル２Ｆ－Ｃ,,13,113,1500043,,,,,,,2026-01-09,1,,,,,リヴィアクス,0
367,2011001174904,新規,0,2026-01-09,2026-01-09,株式会社ＭＩＮＥＲＶＡ,,株式会社,東京都,渋谷区,恵比寿西２丁目４番８号ウィンド恵比寿ビル８Ｆ,,13,113,1500021,,,,,,,2026-01-09,1,,,,,ミネルバ,0
370,2011003023274,新規,0,2026-01-09,2026-01-09,ＫＬＥＡＲ合同会社,,合同会社,東京都,目黒区,三田２丁目１０番４０号小田急目黒三田マンション１０２,,13,110,1530062,,,,,,,2026-01-09,1,,,,,クリア,0
372,2011101114314,新規,0,2026-01-09,2026-01-09,株式会社ＮＭＬ　ＩＮＴＥＲＮＡＴＩＯＮＡＬ,,株式会社,東京都,新宿区,矢来町２８番地,,13,104,1620805,,,,,,,2026-01-09,1,,,,,エヌエムエルインターナショナル,0
374,2011203004925,新規,0,2026-01-09,2026-01-09,合同会社ＹＳＯ,,合同会社,東京都,中野区,中野４丁目１０番２号２Ｆ,,13,114,1640001,,,,,,,2026-01-09,1,,,,,ワイエスオー,0
375,2011301031169,新規,0,2026-01-09,2026-01-09,株式会社ｖｅｒｔ　Ｒｏｍｍｙ,,株式会社,東京都,杉並区,荻窪５丁目１８番７号,,13,115,1670051,,,,,,,2026-01-09,1,,,,,ヴェールロミー,0
376,2011301031177,新規,0,2026-01-09,2026-01-09,株式会社横鍋ＪＡＰＡＮ,,株式会社,東京都,杉並区,阿佐谷南３丁目３７番１１号,,13,115,1660004,,,,,,,2026-01-09,1,,,,,ヨコナベジャパン,0
386,2011701029077,新規,0,2026-01-09,2026-01-09,株式会社Ｒｏｌｌｉｎ　ｈａｒｄｅｒ,,株式会社,東京都,江戸川区,東小岩５丁目１５番１０号,,13,123,1330052,,,,,,,2026-01-09,1,,,,,ローリンハーダー,0
387,2011801047243,新規,0,2026-01-09,2026-01-09,株式会社ＬＯＳ　ＴＲＡＮＱＵＩＬＯＳ　ｄｅ　ＪＡＰＯＮ,,株式会社,東京都,足立区,西新井本町２丁目４－７ＰＡＣＩＦＩＣＢＥＬＬ１０１,,13,121,1230845,,,,,,,2026-01-09,1,,,,,ロストランキーロスデハポン,0
388,2011801047268,新規,0,2026-01-09,2026-01-09,住まいＭＡＤＥ株式会社,,株式会社,東京都,足立区,千住４丁目９番２号,,13,121,1200034,,,,,,,2026-01-09,1,,,,,スマイメイド,0
389,2011801047276,新規,0,2026-01-09,2026-01-09,株式会社ＡＩｎｏｔｅ,,株式会社,東京都,足立区,新田１丁目８番２３－２１１号,,13,121,1230865,,,,,,,2026-01-09,1,,,,,アイノテ,0
394,2012401043995,新規,0,2026-01-09,2026-01-09,株式会社ＢｒｉｎｇＡＩ,,株式会社,東京都,小金井市,中町１丁目１０番２０号,,13,210,1840012,,,,,,,2026-01-09,1,,,,,ブリングエーアイ,0
395,2012405005208,新規,0,2026-01-09,2026-01-09,一般社団法人地球温暖化防止活動普及会,,その他の設立登記法人,東京都,三鷹市,下連雀８丁目２番１１－２０７号,,13,204,1810013,,,,,,,2026-01-09,1,,,,,チキュウオンダンカボウシカツドウフキュウカイ,0
396,2012703003441,新規,0,2026-01-09,2026-01-09,合同会社ハウスクリーニングＧＯ,,合同会社,東京都,東村山市,廻田町３丁目１４－４７,,13,213,1890025,,,,,,,2026-01-09,1,,,,,ハウスクリーニングゴー,0
404,2020001166563,新規,0,2026-01-09,2026-01-09,株式会社ＬＩＦＹ,,株式会社,神奈川県,横浜市西区,岡野１丁目１３番５号,,14,103,2200073,,,,,,,2026-01-09,1,,,,,ライフィー,0
405,2020001166588,新規,0,2026-01-09,2026-01-09,株式会社ＳＤ　ＪＡＰＡＮ,,株式会社,神奈川県,横浜市鶴見区,平安町１丁目４５番地１９,,14,101,2300031,,,,,,,2026-01-09,1,,,,,エスディージャパン,0
408,2020003029999,新規,0,2026-01-09,2026-01-09,合同会社Ｃｏｎｅｃｔｒａ,,合同会社,神奈川県,川崎市宮前区,神木本町５丁目２０番８号,,14,136,2160031,,,,,,,2026-01-09,1,,,,,コネクトラ,0
411,2021001087155,新規,0,2026-01-09,2026-01-09,株式会社なぎ,,株式会社,神奈川県,海老名市,中央３丁目３番２０号海老名ビル２０１,,14,215,2430432,,,,,,,2026-01-09,1,,,,,ナギ,0
412,2021001087188,新規,0,2026-01-09,2026-01-09,株式会社Ｅｉｇｈｔｅｅｎ,,株式会社,神奈川県,厚木市,旭町５丁目３８番３０号,,14,212,2430014,,,,,,,2026-01-09,1,,,,,エイティテーン,0
415,2030001170449,新規,0,2026-01-09,2026-01-09,株式会社ライフリペア,,株式会社,埼玉県,三郷市,彦倉１丁目８３番地４,,11,237,3410053,,,,,,,2026-01-09,1,,,,,ライフリペア,0
416,2030001170481,新規,0,2026-01-09,2026-01-09,株式会社とちのうえ,,株式会社,埼玉県,さいたま市浦和区,高砂４丁目３番１１－３号,,11,107,3300063,,,,,,,2026-01-09,1,,,,,トチノウエ,0
418,2030003028397,新規,0,2026-01-09,2026-01-09,合同会社リバーウィン,,合同会社,埼玉県,草加市,谷塚上町４５８番地５１,,11,221,3400024,,,,,,,2026-01-09,1,,,,,リバーウィン,0
419,2030003028406,新規,0,2026-01-09,2026-01-09,合同会社ＰＥＣラビットフット,,合同会社,埼玉県,川口市,榛松３丁目３３番２８号,,11,203,3340062,,,,,,,2026-01-09,1,,,,,ペックラビットフット,0
421,2040001142091,新規,0,2026-01-09,2026-01-09,株式会社柚咲,,株式会社,千葉県,千葉市美浜区,若葉３丁目１番地１幕張ベイパークスカイグランドタワー４８１３号,,12,106,2610014,,,,,,,2026-01-09,1,,,,,ユサ,0
422,2050001057826,新規,0,2026-01-09,2026-01-09,株式会社Ｒ・ＴＲＵＳＴ,,株式会社,茨城県,取手市,戸頭２８１番地４,,08,217,3020034,,,,,,,2026-01-09,1,,,,,アールトラスト,0
423,2050001057834,新規,0,2026-01-09,2026-01-09,株式会社ＷＩＮ　ＷＩＮ,,株式会社,茨城県,取手市,稲７８０番地１,,08,217,3020026,,,,,,,2026-01-09,1,,,,,ウィンウィン,0
425,2050005013742,新規,0,2026-01-09,2026-01-09,一般社団法人睦八幡神社氏子会,,その他の設立登記法人,茨城県,つくば市,大角豆２０１２番地３６,,08,220,3050043,,,,,,,2026-01-09,1,,,,,ムツミハチマンジンジャウジコカイ,0
427,2060001038890,新規,0,2026-01-09,2026-01-09,株式会社ＹＯＵＮＩＳ　ＴＲＡＤＩＮＧ,,株式会社,栃木県,栃木市,大平町富田１０４２－１－１０１,,09,203,3294404,,,,,,,2026-01-09,1,,,,,ヨウニストレーディング,0
428,2060001038916,新規,0,2026-01-09,2026-01-09,ＣｒｏｓｓＴｅｃｈ　Ｃｏｎｓｕｌｔｉｎｇ株式会社,,株式会社,栃木県,宇都宮市,豊郷台３丁目２４番地８,,09,201,3200003,,,,,,,2026-01-09,1,,,,,クロステックコンサルティング,0
434,2080003003627,新規,0,2026-01-09,2026-01-09,合同会社Ｆｕ・Ｌｉｇａｒｅ,,合同会社,静岡県,藤枝市,谷稲葉１３７番地の１,,22,214,4260083,,,,,,,2026-01-09,1,,,,,エフユーリガーレ,0
443,2110001039834,新規,0,2026-01-09,2026-01-09,株式会社Ｓｕｐｅｒ　Ｌｉｅｎ,,株式会社,新潟県,新潟市江南区,丸山ノ内善之丞組６９番地４,,15,104,9500117,,,,,,,2026-01-09,1,,,,,スーパーリアン,0
444,2110001039842,新規,0,2026-01-09,2026-01-09,株式会社にいがた横丁,,株式会社,新潟県,新潟市中央区,本町通７番町１０９８番１ＷｏｒｋＷｉｔｈ本町２Ｆ,,15,103,9518067,,,,,,,2026-01-09,1,,,,,ニイガタヨコチョウ,0
446,2110003006031,新規,0,2026-01-09,2026-01-09,合同会社ＬＨＧ,,合同会社,新潟県,新潟市中央区,長潟１丁目８番３号,,15,103,9500932,,,,,,,2026-01-09,1,,,,,エルエイチジー,0
454,2120001283159,新規,0,2026-01-09,2026-01-09,株式会社令和地所,,株式会社,大阪府,大阪市淀川区,東三国１丁目３２番１号,,27,123,5320002,,,,,,,2026-01-09,1,,,,,レイワジショ,0
455,2120001283183,新規,0,2026-01-09,2026-01-09,株式会社レーザーテック,,株式会社,大阪府,大阪市淀川区,新北野２丁目１番１０号,,27,123,5320025,,,,,,,2026-01-09,1,,,,,レーザーテック,0
464,2120003031615,新規,0,2026-01-09,2026-01-09,合同会社Ｙ＆Ｍ,,合同会社,大阪府,大阪市東成区,大今里１丁目１番１４号,,27,115,5370012,,,,,,,2026-01-09,1,,,,,ワイアンドエム,0
465,2120003031631,新規,0,2026-01-09,2026-01-09,合同会社アイダブルティ,,合同会社,大阪府,大阪市北区,天満１丁目１８番１０－５０３号,,27,127,5300043,,,,,,,2026-01-09,1,,,,,アイダブルティ,0
467,2120101073022,新規,0,2026-01-09,2026-01-09,株式会社ｏｒａ,,株式会社,大阪府,堺市中区,深井沢町３３３３澤埜ビル１階,,27,142,5998236,,,,,,,2026-01-09,1,,,,,オーラ,0
469,2120901052068,新規,0,2026-01-09,2026-01-09,株式会社ｋｏｄｉｋａｓ,,株式会社,大阪府,箕面市,半町２丁目３番１８号,,27,220,5620044,,,,,,,2026-01-09,1,,,,,コディカス,0
470,2120903006030,新規,0,2026-01-09,2026-01-09,サクセスベース合同会社,,合同会社,大阪府,茨木市,東太田４丁目８番４号の６,,27,211,5670012,,,,,,,2026-01-09,1,,,,,サクセスベース,0
471,2120905006821,新規,0,2026-01-09,2026-01-09,一般社団法人高橋,00142098,その他の設立登記法人,大阪府,豊中市,石橋麻田町１番２０号,,27,203,5600042,,,,,,,2026-01-09,1,,,,,タカハシ,0
473,2130001081363,新規,0,2026-01-09,2026-01-09,栄弥株式会社,,株式会社,京都府,京都市下京区,朱雀宝蔵町４４番地協栄ビル２階京都朱雀スタジオＹ－２０２,,26,106,6008846,,,,,,,2026-01-09,1,,,,,エイヤ,0
480,2140001141249,新規,0,2026-01-09,2026-01-09,株式会社Ｔａｘｉｓ,,株式会社,兵庫県,姫路市,栗山町１１８番地ＴＨＥＭＵＳＥＫＵＲＩＹＡＭＡ２０６,,28,201,6700954,,,,,,,2026-01-09,1,,,,,タクシス,0
481,2140001141298,新規,0,2026-01-09,2026-01-09,株式会社ＡＫＲ,,株式会社,兵庫県,西宮市,上大市１丁目９番８号,,28,204,6638003,,,,,,,2026-01-09,1,,,,,エーケーアール,0
482,2140001141307,新規,0,2026-01-09,2026-01-09,株式会社たかはま,,株式会社,兵庫県,神戸市中央区,下山手通２丁目１２番２０号セゾンコート１階,,28,110,6500011,,,,,,,2026-01-09,1,,,,,タカハマ,0
487,2150003003801,新規,0,2026-01-09,2026-01-09,合同会社ＴＯＵＫＡ,,合同会社,奈良県,奈良市,法蓮町４１９－１,,29,201,6308113,,,,,,,2026-01-09,1,,,,,トウカ,0
498,2180001170145,新規,0,2026-01-09,2026-01-09,株式会社トレードオン,,株式会社,愛知県,名古屋市守山区,茶臼前５番３号,,23,113,4630012,,,,,,,2026-01-09,1,,,,,トレードオン,0
504,2180301040568,新規,0,2026-01-09,2026-01-09,株式会社ＧＯＴＯソフトウェアシステムズ,,株式会社,愛知県,刈谷市,小山町４丁目１番地１０,,23,210,4480043,,,,,,,2026-01-09,1,,,,,ゴトウソフトウェアシステムズ,0
505,2180301040576,新規,0,2026-01-09,2026-01-09,株式会社不動産のさしただ,,株式会社,愛知県,碧南市,宮後町３丁目５１番地,,23,209,4470856,,,,,,,2026-01-09,1,,,,,フドウサンノサシタダ,0
510,2190001032807,新規,0,2026-01-09,2026-01-09,株式会社ＳＫグループ,,株式会社,三重県,鈴鹿市,磯山２丁目１４番７号ファミーユすずかＢ１０３,,24,207,5100256,,,,,,,2026-01-09,1,,,,,エスケーグループ,0
521,2240001065982,新規,0,2026-01-09,2026-01-09,株式会社ホースライス,,株式会社,広島県,神石郡神石高原町,近田甲１４４０番地１,,34,545,7201622,,,,,,,2026-01-09,1,,,,,ホースライス,0
522,2240001066007,新規,0,2026-01-09,2026-01-09,木匠株式会社,,株式会社,広島県,福山市,春日町２丁目８番３－１０３号,,34,207,7210907,,,,,,,2026-01-09,1,,,,,モクショウ,0
523,2240001066023,新規,0,2026-01-09,2026-01-09,ｍｅｔａｎｉｃａｌ株式会社,,株式会社,広島県,廿日市市,城内３丁目１７番１号,,34,213,7380007,,,,,,,2026-01-09,1,,,,,メタニカル,0
524,2240003007545,新規,0,2026-01-09,2026-01-09,合同会社プレジール,,合同会社,広島県,福山市,駅家町大字江良１７１番地８,,34,207,7201141,,,,,,,2026-01-09,1,,,,,プレジール,0
525,2240003007553,新規,0,2026-01-09,2026-01-09,ＥＭＩＴＡＳ合同会社,,合同会社,広島県,広島市佐伯区,楽々園２丁目１番３８号,,34,108,7315136,,,,,,,2026-01-09,1,,,,,エミタス,0
527,2260001040884,新規,0,2026-01-09,2026-01-09,株式会社ｕｐｈｏｒｉａ,,株式会社,岡山県,井原市,西江原町４４５１番地１８,,33,207,7150006,,,,,,,2026-01-09,1,,,,,ユーフォリア,0
528,2260001040892,新規,0,2026-01-09,2026-01-09,トリゴエ土木株式会社,,株式会社,岡山県,小田郡矢掛町,小林１４番地１,,33,461,7141202,,,,,,,2026-01-09,1,,,,,トリゴエドボク,0
538,2290801032145,新規,0,2026-01-09,2026-01-09,清水物産九州丸恩株式会社,,株式会社,福岡県,北九州市若松区,大字安瀬１７番地１,,40,103,8080022,,,,,,,2026-01-09,1,,,,,シミズブッサンキュウシュウマルオン,0
539,2290801032161,新規,0,2026-01-09,2026-01-09,株式会社Ｅｎａ,,株式会社,福岡県,北九州市小倉南区,津田新町１丁目３番２号,,40,107,8000227,,,,,,,2026-01-09,1,,,,,イーナ,0
541,2300003002399,新規,0,2026-01-09,2026-01-09,合同会社Ｋ’Ｓ,,合同会社,佐賀県,佐賀市,大和町大字尼寺２５８０－７,,41,201,8400201,,,,,,,2026-01-09,1,,,,,ケイズ,0
545,2320003004872,新規,0,2026-01-09,2026-01-09,合同会社山村電装,,合同会社,大分県,大分市,大在浜２丁目３番１４－３０２号,,44,201,8700252,,,,,,,2026-01-09,1,,,,,ヤマムラデンソウ,0
548,2350003005109,新規,0,2026-01-09,2026-01-09,合同会社ｓｈｉｅｌｄ,,合同会社,宮崎県,都城市,若葉町２１街区１１号Ａ,,45,202,8850054,,,,,,,2026-01-09,1,,,,,シールド,0
551,2360001036204,新規,0,2026-01-09,2026-01-09,株式会社すいにしき,,株式会社,沖縄県,中頭郡北中城村,字渡口４５６番地１,,47,327,9012302,,,,,,,2026-01-09,1,,,,,スイニシキ,0
552,2360001036220,新規,0,2026-01-09,2026-01-09,株式会社新進防災設備,,株式会社,沖縄県,浦添市,沢岻２丁目９－３寿荘１０５,,47,208,9012112,,,,,,,2026-01-09,1,,,,,シンシンボウサイセツビ,0
553,2360001036229,新規,0,2026-01-09,2026-01-09,株式会社Ｗｈｉｔｅ＆Ｇｏｌｄ,,株式会社,沖縄県,沖縄市,美原４丁目１４番２１号２階,,47,211,9042155,,,,,,,2026-01-09,1,,,,,ホワイトアンドゴールド,0
555,2370001053371,新規,0,2026-01-09,2026-01-09,株式会社プラミングライン,,株式会社,宮城県,黒川郡大和町,もみじケ丘２丁目６番地の９,,04,421,9813622,,,,,,,2026-01-09,1,,,,,プラミングライン,0
557,2390001018216,新規,0,2026-01-09,2026-01-09,株式会社Ｐｌｕｍｂｅｒ,,株式会社,山形県,山形市,江南２丁目３番１１号,,06,201,9900863,,,,,,,2026-01-09,1,,,,,プラマー,0
559,2400001017281,新規,0,2026-01-09,2026-01-09,Ｎｅｘｔ・Ｇ・Ｐａｉｎｔ株式会社,,株式会社,岩手県,盛岡市,西松園２丁目７番５号,,03,201,0200103,,,,,,,2026-01-09,1,,,,,ネクストジーペイント,0
567,2430001095993,新規,0,2026-01-09,2026-01-09,株式会社リクチョク,,株式会社,北海道,札幌市東区,北十二条東２丁目２番１アルファスクエア北１２東２－４０３号,,01,103,0650012,,,,,,,2026-01-09,1,,,,,リクチョク,0
568,2430001096001,新規,0,2026-01-09,2026-01-09,株式会社キタノア,,株式会社,北海道,札幌市中央区,北五条西１１丁目１５－４,,01,101,0600005,,,,,,,2026-01-09,1,,,,,キタノア,0
569,2430001096026,新規,0,2026-01-09,2026-01-09,株式会社ビートダウン,,株式会社,北海道,札幌市北区,あいの里三条９丁目４番２５号,,01,102,0028073,,,,,,,2026-01-09,1,,,,,ビートダウン,0
574,2450003002764,新規,0,2026-01-09,2026-01-09,ＭＯＵＭＯＵ・ヘルスサポート合同会社,,合同会社,北海道,富良野市,東雲町２番２０号プリムローズＢ,,01,229,0760050,,,,,,,2026-01-09,1,,,,,モウモウヘルスサポート,0
576,2500001026719,新規,0,2026-01-09,2026-01-09,株式会社照天水産,,株式会社,愛媛県,今治市,吉海町仁江２１７０番地,,38,202,7942104,,,,,,,2026-01-09,1,,,,,ショウテンスイサン,0
588,3010001261703,新規,0,2026-01-09,2026-01-09,株式会社アシスト,,株式会社,東京都,千代田区,神田錦町２丁目２番地１１田口ビル３Ｆ,,13,101,1010054,,,,,,,2026-01-09,1,,,,,アシスト,0
589,3010001261819,新規,0,2026-01-09,2026-01-09,株式会社カイゼン,,株式会社,東京都,文京区,本郷５丁目１‐１１ＫＩＩＨＯＵＳＥ２０２,,13,105,1130033,,,,,,,2026-01-09,1,,,,,カイゼン,0
594,3010003049816,新規,0,2026-01-09,2026-01-09,合同会社ＳＡＭ,,合同会社,東京都,千代田区,神田神保町１丁目１４番地３,,13,101,1010051,,,,,,,2026-01-09,1,,,,,サム,0
595,3010005041176,新規,0,2026-01-09,2026-01-09,デジタル大阪７特定目的会社,,その他の設立登記法人,東京都,中央区,新富１丁目１５番３号ジパングアウトソーシングサービス株式会社内,,13,102,1040041,,,,,,,2026-01-09,1,,,,,デジタルオオサカセブン,0
602,3010401195690,新規,0,2026-01-09,2026-01-09,ＳＵＭＡＡＩ株式会社,,株式会社,東京都,港区,南麻布３丁目２０番１号Ｄａｉｗａ麻布テラス５Ｆ,,13,103,1060047,,,,,,,2026-01-09,1,,,,,スマアイ,0
603,3010401195732,新規,0,2026-01-09,2026-01-09,株式会社海原,,株式会社,東京都,港区,芝２丁目２２番２３号冨味ビル１階,,13,103,1050014,,,,,,,2026-01-09,1,,,,,カイバラ,0
604,3010403036950,新規,0,2026-01-09,2026-01-09,合同会社ＲｅＳＴＡ,,合同会社,東京都,港区,元麻布３丁目１２番４７号ＳＡ麻布レジデンス２０１,,13,103,1060046,,,,,,,2026-01-09,1,,,,,リスタ,0
605,3010403037008,新規,0,2026-01-09,2026-01-09,合同会社１７,,合同会社,東京都,港区,北青山１丁目３－１アールキューブ青山３階,,13,103,1070061,,,,,,,2026-01-09,1,,,,,イチナナ,0
606,3010405025142,新規,0,2026-01-09,2026-01-09,一般社団法人ナノ,,その他の設立登記法人,東京都,港区,六本木４丁目３番１１－３１９号,,13,103,1060032,,,,,,,2026-01-09,1,,,,,,0
609,3010603012000,新規,0,2026-01-09,2026-01-09,合同会社ＳＴＡＮＤ　ＲＩＶＥＲ,,合同会社,東京都,墨田区,東向島２丁目２番１１－２０２号,,13,107,1310032,,,,,,,2026-01-09,1,,,,,スタンドリバー,0
635,3011001174688,新規,0,2026-01-09,2026-01-09,ｐＨ株式会社,,株式会社,東京都,目黒区,中目黒１丁目１－７２ダイアパレス代官山５０４,,13,110,1530061,,,,,,,2026-01-09,1,,,,,ピーエイチ,0
636,3011001174762,新規,0,2026-01-09,2026-01-09,Ｃｙｐｈｅｒ　Ｏｎｅ株式会社,,株式会社,東京都,渋谷区,渋谷２丁目２４－１２渋谷スクランブルスクエア３９Ｆ,,13,113,1500002,,,,,,,2026-01-09,1,,,,,サイファーワン,0
639,3011003023257,新規,0,2026-01-09,2026-01-09,合同会社ＲＧ,,合同会社,東京都,目黒区,中町２丁目４８番９－３１４号クオリア目黒祐天寺,,13,110,1530065,,,,,,,2026-01-09,1,,,,,アールジー,0
640,3011003023281,新規,0,2026-01-09,2026-01-09,合同会社シンホクキャピタルマネジメント,,合同会社,東京都,渋谷区,神泉町１０番１５号アネックス神泉３０１,,13,113,1500045,,,,,,,2026-01-09,1,,,,,シンホクキャピタルマネジメント,0
641,3011003023307,新規,0,2026-01-09,2026-01-09,合同会社ＨＥＳ,,合同会社,東京都,渋谷区,道玄坂１丁目１０番８号渋谷道玄坂東急ビル２Ｆ―Ｃ,,13,113,1500043,,,,,,,2026-01-09,1,,,,,エイチイーエス,0
644,3011101114503,新規,0,2026-01-09,2026-01-09,株式会社Ｖｅｌｖｅｔｓ　ａｎｄ　ｃｏ．,,株式会社,東京都,新宿区,西新宿３丁目３番１３号西新宿水間ビル６階,,13,104,1600023,,,,,,,2026-01-09,1,,,,,ヴェルヴェッツアンドコー,0
645,3011103016929,新規,0,2026-01-09,2026-01-09,インフィニットスカイ合同会社,,合同会社,東京都,新宿区,納戸町３８番地３,,13,104,1620837,,,,,,,2026-01-09,1,,,,,インフィニットスカイ,0
647,3011301031168,新規,0,2026-01-09,2026-01-09,株式会社ＣＲＡＮＥ,,株式会社,東京都,杉並区,高井戸東３丁目１６番２１号,,13,115,1680072,,,,,,,2026-01-09,1,,,,,クレイン,0
648,3011305003089,新規,0,2026-01-09,2026-01-09,社会保険労務士法人アンシア,,その他の設立登記法人,東京都,杉並区,阿佐谷北１丁目３番８号,,13,115,1660001,,,,,,,2026-01-09,1,,,,,アンシア,0
649,3011401027719,新規,0,2026-01-09,2026-01-09,株式会社琉都,,株式会社,東京都,板橋区,赤塚４丁目３２番２１号プリズムパークＡ１０１,,13,119,1750092,,,,,,,2026-01-09,1,,,,,リュウト,0
656,3011801047283,新規,0,2026-01-09,2026-01-09,株式会社ウチダ食品,,株式会社,東京都,足立区,関原３丁目２４番１３号,,13,121,1230852,,,,,,,2026-01-09,1,,,,,ウチダショクヒン,0
659,3012301014666,新規,0,2026-01-09,2026-01-09,オー・エス・オー株式会社,,株式会社,東京都,町田市,大蔵町３０６１番地ビラージュオオクラ１０５号室,,13,209,1950062,,,,,,,2026-01-09,1,,,,,オーエスオー,0
661,3012403007551,新規,0,2026-01-09,2026-01-09,合同会社エスワイ,,合同会社,東京都,小金井市,本町５丁目１７－１８ブラディア武蔵小金井１０１,,13,210,1840004,,,,,,,2026-01-09,1,,,,,エスワイ,0
663,3012801024454,新規,0,2026-01-09,2026-01-09,株式会社ｒｅＬｏｏ‐Ｆ,,株式会社,東京都,国分寺市,本町２丁目２番１４号７階,,13,214,1850012,,,,,,,2026-01-09,1,,,,,リルーフ,0
677,3020001166538,新規,0,2026-01-09,2026-01-09,株式会社内倉園芸,,株式会社,神奈川県,横浜市港南区,野庭町８９番地,,14,111,2340056,,,,,,,2026-01-09,1,,,,,ウチクラエンゲイ,0
678,3020001166587,新規,0,2026-01-09,2026-01-09,株式会社和久杜,,株式会社,神奈川県,横浜市港北区,大倉山５丁目３５番２０号,,14,109,2220037,,,,,,,2026-01-09,1,,,,,ワクト,0
679,3020001166595,新規,0,2026-01-09,2026-01-09,株式会社那琉,,株式会社,神奈川県,川崎市川崎区,大島２丁目７番１３号,,14,131,2100834,,,,,,,2026-01-09,1,,,,,ナル,0
680,3020003030080,新規,0,2026-01-09,2026-01-09,ナチュラリカ合同会社,,合同会社,神奈川県,横浜市青葉区,市ケ尾町１０５０番３５号,,14,117,2250024,,,,,,,2026-01-09,1,,,,,ナチュラリカ,0
684,3021001087179,新規,0,2026-01-09,2026-01-09,株式会社一番電工,,株式会社,神奈川県,大和市,西鶴間２丁目１８番７－３０８号,,14,213,2420005,,,,,,,2026-01-09,1,,,,,イチバンデンコウ,0
685,3021003016945,新規,0,2026-01-09,2026-01-09,キルシュセブン合同会社,,合同会社,神奈川県,鎌倉市,七里ガ浜東５丁目８番２０号,,14,204,2480025,,,,,,,2026-01-09,1,,,,,キルシュセブン,0
688,3030001170448,新規,0,2026-01-09,2026-01-09,株式会社コレイル,,株式会社,埼玉県,さいたま市大宮区,桜木町２丁目３番地大宮マルイ７階,,11,103,3300854,,,,,,,2026-01-09,1,,,,,コレイル,0
689,3030001170456,新規,0,2026-01-09,2026-01-09,株式会社Ｇｏｏｄ　Ｃｒａｆｔ,,株式会社,埼玉県,川口市,東川口６丁目１２番２９号,,11,203,3330801,,,,,,,2026-01-09,1,,,,,グッドクラフト,0
690,3030003028405,新規,0,2026-01-09,2026-01-09,合同会社ＨＡＬ,,合同会社,埼玉県,鶴ヶ島市,大字藤金４８９番地２,,11,241,3502206,,,,,,,2026-01-09,1,,,,,ハル,0
695,3050001057833,新規,0,2026-01-09,2026-01-09,株式会社宮コーポレーション,,株式会社,茨城県,龍ケ崎市,平台４丁目１９番地１３,,08,208,3010003,,,,,,,2026-01-09,1,,,,,ミヤコーポレーション,0
697,3060001038915,新規,0,2026-01-09,2026-01-09,株式会社ＴＧＦＣ,,株式会社,栃木県,塩谷郡塩谷町,大字船生４３８２番地,,09,384,3292441,,,,,,,2026-01-09,1,,,,,ティージーエフシー,0
698,3060001038923,新規,0,2026-01-09,2026-01-09,株式会社相馬フェンス工業,,株式会社,栃木県,那須塩原市,洞島２３０番地４,,09,213,3250106,,,,,,,2026-01-09,1,,,,,ソウマフェンスコウギョウ,0
700,3060003005913,新規,0,2026-01-09,2026-01-09,合同会社Ｓｈｉｒａｍｏｎ,,合同会社,栃木県,足利市,田中町９５６番地４,,09,202,3260822,,,,,,,2026-01-09,1,,,,,シラモン,0
703,3070005010456,新規,0,2026-01-09,2026-01-09,一般社団法人ウエルビーイングアドバイザー協会,,その他の設立登記法人,群馬県,高崎市,筑縄町６２番地１,,10,202,3700075,,,,,,,2026-01-09,1,,,,,ウエルビーイングアドバイザーキョウカイ,0
707,3080101026000,新規,0,2026-01-09,2026-01-09,株式会社ＹＳ　ＭＵＳＩＣ,,株式会社,静岡県,富士市,宮島３８９番地の４,,22,210,4160945,,,,,,,2026-01-09,1,,,,,ワイエスミュージック,0
708,3080101026009,新規,0,2026-01-09,2026-01-09,株式会社青水,,株式会社,静岡県,伊東市,新井２丁目２０番１９号,,22,208,4140043,,,,,,,2026-01-09,1,,,,,セイスイ,0
709,3080401028381,新規,0,2026-01-09,2026-01-09,株式会社ｓｋｙ,,株式会社,静岡県,浜松市中央区,三方原町２４１０番地の１,,22,138,4338105,,,,,,,2026-01-09,1,,,,,スカイ,0
711,3090001019680,新規,0,2026-01-09,2026-01-09,株式会社坂本ホールディング,,株式会社,山梨県,大月市,富浜町宮谷１４０９番地２,,19,206,4090501,,,,,,,2026-01-09,1,,,,,サカモトホールディング,0
716,3110001039825,新規,0,2026-01-09,2026-01-09,株式会社大京,,株式会社,新潟県,新潟市東区,下木戸２丁目２３番３号,,15,102,9500885,,,,,,,2026-01-09,1,,,,,ダイキョウ,0
717,3110001039833,新規,0,2026-01-09,2026-01-09,株式会社Ｄ,,株式会社,新潟県,新潟市中央区,花園２丁目１番２５号カナン花園７０４号,,15,103,9500086,,,,,,,2026-01-09,1,,,,,ディー,0
718,3110003006030,新規,0,2026-01-09,2026-01-09,合同会社マリリン,,合同会社,新潟県,新潟市中央区,花園１丁目２番２号,,15,103,9500086,,,,,,,2026-01-09,1,,,,,マリリン,0
732,3120001283166,新規,0,2026-01-09,2026-01-09,株式会社ゼロ,,株式会社,大阪府,寝屋川市,三井南町１９番４号,,27,215,5720019,,,,,,,2026-01-09,1,,,,,ゼロ,0
733,3120001283208,新規,0,2026-01-09,2026-01-09,恒星株式会社,,株式会社,大阪府,大阪市北区,本庄東２丁目５－１６メゾン・ド・セレーネ５１２室,,27,127,5310074,,,,,,,2026-01-09,1,,,,,コウセイ,0
734,3120001283232,新規,0,2026-01-09,2026-01-09,ＫＵＳＡ１株式会社,,株式会社,大阪府,大阪市中央区,大手通１丁目３－１１－１９０４,,27,128,5400021,,,,,,,2026-01-09,1,,,,,クサワン,0
735,3120001283240,新規,0,2026-01-09,2026-01-09,株式会社エバンティア,,株式会社,大阪府,大阪市中央区,淡路町１丁目４番９号ＴＰＲ北浜ビル６０１,,27,128,5410047,,,,,,,2026-01-09,1,,,,,エバンティア,0
736,3120001283307,新規,0,2026-01-09,2026-01-09,株式会社可能性アカデミー大阪堺,,株式会社,大阪府,大阪市中央区,上本町西２丁目６番２号,,27,128,5420062,,,,,,,2026-01-09,1,,,,,カノウセイアカデミーオオサカサカイ,0
740,3120003031597,新規,0,2026-01-09,2026-01-09,あかりみらいジャパン合同会社,,合同会社,大阪府,大阪市中央区,心斎橋筋１丁目４番４号,,27,128,5420085,,,,,,,2026-01-09,1,,,,,アカリミライジャパン,0
741,3120003031622,新規,0,2026-01-09,2026-01-09,ろかいずみ合同会社,,合同会社,大阪府,大阪市淀川区,西中島６丁目１０番１号ストークマンション西中島５階,,27,123,5320011,,,,,,,2026-01-09,1,,,,,ロカイズミ,0
742,3120003031630,新規,0,2026-01-09,2026-01-09,紬キャピタル合同会社,,合同会社,大阪府,枚方市,長尾東町３丁目３１番２３号,,27,210,5730105,,,,,,,2026-01-09,1,,,,,ツムギキャピタル,0
743,3120003031639,新規,0,2026-01-09,2026-01-09,合同会社ママトリマス,,合同会社,大阪府,大阪市東淀川区,西淡路６丁目３－２－３０４,,27,114,5330031,,,,,,,2026-01-09,1,,,,,ママトリマス,0
744,3120003031647,新規,0,2026-01-09,2026-01-09,Ｎｉｐｐｏｎ　Ｓｈｏｕｋａｉ合同会社,,合同会社,大阪府,寝屋川市,香里新町２３番１３号,,27,215,5720085,,,,,,,2026-01-09,1,,,,,ニッポンショウカイ,0
745,3120005025325,新規,0,2026-01-09,2026-01-09,一般社団法人夏祭り保存委員会,,その他の設立登記法人,大阪府,大阪市此花区,伝法２丁目５番１０号,,27,104,5540002,,,,,,,2026-01-09,1,,,,,ナツマツリホゾンイインカイ,0
746,3120101073021,新規,0,2026-01-09,2026-01-09,株式会社結び,,株式会社,大阪府,阪南市,尾崎町２丁目１１番８号,,27,232,5990201,,,,,,,2026-01-09,1,,,,,ムスビ,0
747,3120101073046,新規,0,2026-01-09,2026-01-09,株式会社暖ｄａｎ,,株式会社,大阪府,和泉市,池上町２５７番地の３３,,27,219,5940083,,,,,,,2026-01-09,1,,,,,ダンダン,0
753,3140001141256,新規,0,2026-01-09,2026-01-09,株式会社ＫＹＳＴ,,株式会社,兵庫県,姫路市,飾磨区構３丁目５１４番地,,28,201,6728071,,,,,,,2026-01-09,1,,,,,ケイワイエスティ,0
754,3140001141297,新規,0,2026-01-09,2026-01-09,株式会社ウェイクフッド,,株式会社,兵庫県,丹波篠山市,今田町釜屋２１番地４５,,28,221,6692143,,,,,,,2026-01-09,1,,,,,ウェイクフッド,0
755,3140001141306,新規,0,2026-01-09,2026-01-09,株式会社アンビエンス,,株式会社,兵庫県,姫路市,上手野１７３番地１Ｃ号室,,28,201,6700065,,,,,,,2026-01-09,1,,,,,アンビエンス,0
756,3140001141314,新規,0,2026-01-09,2026-01-09,株式会社ＳＹＡＧ,,株式会社,兵庫県,加古郡稲美町,六分一１１７８番４５４－２,,28,381,6751112,,,,,,,2026-01-09,1,,,,,エスワイエージー,0
758,3140003023080,新規,0,2026-01-09,2026-01-09,合同会社ガレヌスラボ,,合同会社,兵庫県,神戸市灘区,桜ケ丘町６番１４号,,28,102,6570021,,,,,,,2026-01-09,1,,,,,ガレヌスラボ,0
760,3140005027765,新規,0,2026-01-09,2026-01-09,医療法人社団ラッフモア,,その他の設立登記法人,兵庫県,芦屋市,楠町１５番２－１０１号,,28,206,6590015,,,,,,,2026-01-09,1,,,,,ラッフルモア,0
764,3160001027338,新規,0,2026-01-09,2026-01-09,株式会社フジモトオート,,株式会社,滋賀県,甲賀市,土山町北土山２３１０番地１,,25,209,5280211,,,,,,,2026-01-09,1,,,,,フジモトオート,0
765,3160003003700,新規,0,2026-01-09,2026-01-09,合同会社ｂｏｎ　ｃｌａｒｔｅ,,合同会社,滋賀県,大津市,一里山７丁目２番８号,,25,201,5202153,,,,,,,2026-01-09,1,,,,,ボンクラルテ,0
777,3180001170111,新規,0,2026-01-09,2026-01-09,株式会社プレスティージ,,株式会社,愛知県,名古屋市中川区,打出本町７丁目２０番地,,23,110,4540923,,,,,,,2026-01-09,1,,,,,プレスティージ,0
778,3180001170136,新規,0,2026-01-09,2026-01-09,株式会社ＹＮサポート,,株式会社,愛知県,春日井市,大留町９丁目１７番地１２,,23,206,4870024,,,,,,,2026-01-09,1,,,,,ワイエヌサポート,0
779,3180001170193,新規,0,2026-01-09,2026-01-09,株式会社ワンジョイ,,株式会社,愛知県,大府市,江端町３丁目６０番地の２,,23,223,4740035,,,,,,,2026-01-09,1,,,,,ワンジョイ,0
783,3180301040575,新規,0,2026-01-09,2026-01-09,株式会社ワンテクノ,,株式会社,愛知県,西尾市,上矢田町寺西６番地１０,,23,213,4440313,,,,,,,2026-01-09,1,,,,,ワンテクノ,0
784,3180303006863,新規,0,2026-01-09,2026-01-09,リオマジック合同会社,,合同会社,愛知県,西尾市,丁田町流４６番地ホワイトフロー２０３号室,,23,213,4450062,,,,,,,2026-01-09,1,,,,,リオマジック,0
791,3220001027117,新規,0,2026-01-09,2026-01-09,株式会社藤五郎,,株式会社,石川県,金沢市,橋場町５番１０号,,17,201,9200911,,,,,,,2026-01-09,1,,,,,トウゴロウ,0
793,3220003004205,新規,0,2026-01-09,2026-01-09,合同会社Ｌｏｖｉ,,合同会社,石川県,金沢市,泉野出町４丁目１４番２３号ボナール１Ｆ,,17,201,9218116,,,,,,,2026-01-09,1,,,,,ロヴィ,0
798,3240003007552,新規,0,2026-01-09,2026-01-09,合同会社ＬＯＶＥ＆ＢＥＥＴＳ,,合同会社,広島県,東広島市,志和町志和西１９６９,,34,212,7390268,,,,,,,2026-01-09,1,,,,,ラブアンドビーツ,0
802,3260001040883,新規,0,2026-01-09,2026-01-09,株式会社古家野ファーム,,株式会社,岡山県,岡山市南区,宗津８０番地,,33,104,7091216,,,,,,,2026-01-09,1,,,,,コヤノファーム,0
808,3290801032160,新規,0,2026-01-09,2026-01-09,松浦ファーム株式会社,,株式会社,福岡県,北九州市若松区,大字有毛１５１２番地,,40,103,8080123,,,,,,,2026-01-09,1,,,,,マツウラファーム,0
809,3290801032169,新規,0,2026-01-09,2026-01-09,株式会社水野設備工業,,株式会社,福岡県,北九州市小倉南区,朽網東４丁目２２番１１号,,40,107,8000232,,,,,,,2026-01-09,1,,,,,ミズノセツビコウギョウ,0
811,3310001019914,新規,0,2026-01-09,2026-01-09,株式会社川添建装,,株式会社,長崎県,長崎市,磯道町５３３番地５０,,42,201,8500971,,,,,,,2026-01-09,1,,,,,カワゾエケンソウ,0
812,3330001033896,新規,0,2026-01-09,2026-01-09,株式会社Ｆｏｒｅｓｔ　Ｓｅｖｉｃｅ　ＴＳＵＮＡＧＵ,,株式会社,熊本県,熊本市北区,打越町３７番４７号,,43,105,8600086,,,,,,,2026-01-09,1,,,,,フォレストサービスツナグ,0
813,3330001033905,新規,0,2026-01-09,2026-01-09,株式会社カーディール,,株式会社,熊本県,熊本市東区,佐土原２丁目４０２番地１,,43,102,8620916,,,,,,,2026-01-09,1,,,,,カーディール,0
817,3350001019877,新規,0,2026-01-09,2026-01-09,サニーＧＲＯＵＰ株式会社,,株式会社,宮崎県,都城市,山之口町富吉８０５番地１,,45,202,8891801,,,,,,,2026-01-09,1,,,,,サニーグループ,0
818,3350001019885,新規,0,2026-01-09,2026-01-09,株式会社よろず,,株式会社,宮崎県,西臼杵郡五ヶ瀬町,大字三ヶ所２２０１番地,,45,443,8821203,,,,,,,2026-01-09,1,,,,,ヨロズ,0
825,3380001035789,新規,0,2026-01-09,2026-01-09,株式会社アイユーケー,,株式会社,福島県,いわき市,泉町３丁目１番地の１５,,07,204,9718185,,,,,,,2026-01-09,1,,,,,アイユーケー,0
826,3400001017280,新規,0,2026-01-09,2026-01-09,株式会社大沢会計＆Ｎｅｘｔ,,株式会社,岩手県,盛岡市,天昌寺町７番２５号,,03,201,0200137,,,,,,,2026-01-09,1,,,,,オオサワカイケイアンドネクスト,0
832,3420001019382,新規,0,2026-01-09,2026-01-09,株式会社リンクケア,,株式会社,青森県,青森市,長島３丁目３番１号,,02,201,0300861,,,,,,,2026-01-09,1,,,,,リンクケア,0
833,3420001019390,新規,0,2026-01-09,2026-01-09,株式会社成田自動車商会,,株式会社,青森県,つがる市,稲垣町沼崎泉水２５番地１,,02,209,0370106,,,,,,,2026-01-09,1,,,,,ナリタジドウシャショウカイ,0
834,3430001095968,新規,0,2026-01-09,2026-01-09,株式会社渡辺造園,,株式会社,北海道,札幌市豊平区,豊平四条７丁目１番８号,,01,105,0620904,,,,,,,2026-01-09,1,,,,,ワタナベゾウエン,0
835,3430001095992,新規,0,2026-01-09,2026-01-09,株式会社進道,,株式会社,北海道,石狩市,花川東１番２２,,01,235,0613248,,,,,,,2026-01-09,1,,,,,シンドウ,0
836,3430001096000,新規,0,2026-01-09,2026-01-09,基建設株式会社,,株式会社,北海道,伊達市,南稀府町５６番地１２２,,01,233,0590273,,,,,,,2026-01-09,1,,,,,モトイケンセツ,0
837,3430001096041,新規,0,2026-01-09,2026-01-09,株式会社九彩塗装,,株式会社,北海道,札幌市白石区,菊水九条２丁目１番１０－４０２号,,01,104,0030809,,,,,,,2026-01-09,1,,,,,キュウサイトソウ,0
839,3430003018464,新規,0,2026-01-09,2026-01-09,合同会社ＩＷＹＣ,,合同会社,北海道,岩見沢市,五条東１０丁目６番地,,01,210,0680005,,,,,,,2026-01-09,1,,,,,アイダブリューワイシー,0
843,3460301005335,新規,0,2026-01-09,2026-01-09,株式会社ヤマネ,,株式会社,北海道,常呂郡置戸町,字置戸１０番地１,,01,550,0991100,,,,,,,2026-01-09,1,,,,,ヤマネ,0
863,4010005041200,新規,0,2026-01-09,2026-01-09,一般社団法人Ｃａｐｉｔａｌ２,,その他の設立登記法人,東京都,千代田区,丸の内１丁目４番１号東京共同会計事務所内,,13,101,1000005,,,,,,,2026-01-09,1,,,,,キャピタルツー,0
865,4010101016989,新規,0,2026-01-09,2026-01-09,トリアッテ・ラボ株式会社,,株式会社,東京都,八王子市,寺町４３－９中銀八王子マンシオン２０２号室,,13,201,1920073,,,,,,,2026-01-09,1,,,,,トリアッテラボ,0
868,4010103002731,新規,0,2026-01-09,2026-01-09,合同会社Ｒｅｖａｌｕｅ,,合同会社,東京都,八王子市,みつい台２丁目２７番３号,,13,201,1920014,,,,,,,2026-01-09,1,,,,,リバリュー,0
876,4010401195500,新規,0,2026-01-09,2026-01-09,株式会社ＫＡＮＪＩ　ＪＡＰＡＮ,,株式会社,東京都,港区,赤坂１丁目３番１５号第２中田ビル１Ｆ,,13,103,1070052,,,,,,,2026-01-09,1,,,,,カンジジャパン,0
877,4010401195541,新規,0,2026-01-09,2026-01-09,株式会社プラデュア,,株式会社,東京都,港区,赤坂４丁目２番８号カランドリエビル４Ｆ,,13,103,1070052,,,,,,,2026-01-09,1,,,,,プラデュア,0
878,4010401195566,新規,0,2026-01-09,2026-01-09,株式会社伊藤機工商会,,株式会社,東京都,港区,東麻布３丁目６番１１号４Ｆ,,13,103,1060044,,,,,,,2026-01-09,1,,,,,イトウキコウショウカイ,0
879,4010401195608,新規,0,2026-01-09,2026-01-09,イクス株式会社,,株式会社,東京都,港区,北青山１丁目３番１号アールキューブ青山３階,,13,103,1070061,,,,,,,2026-01-09,1,,,,,イクス,0
880,4010401195649,新規,0,2026-01-09,2026-01-09,株式会社ＬＵＭＩＮＡ,,株式会社,東京都,港区,芝浦２丁目３番２６－５０５号,,13,103,1080023,,,,,,,2026-01-09,1,,,,,ルミナ,0
881,4010401195673,新規,0,2026-01-09,2026-01-09,株式会社ＧＴＧＰ４,,株式会社,東京都,港区,南青山４丁目２２番１号王子ホームズ青山２０７,,13,103,1070062,,,,,,,2026-01-09,1,,,,,ジーティージーピーフォー,0
882,4010401195731,新規,0,2026-01-09,2026-01-09,竹芝準備８号株式会社,,株式会社,東京都,港区,海岸１丁目７番１号,,13,103,1050022,,,,,,,2026-01-09,1,,,,,タケシバジュンビハチゴウ,0
887,4010403036974,新規,0,2026-01-09,2026-01-09,Ｋｉｒｏｃａ合同会社,,合同会社,東京都,港区,元赤坂１丁目５－１ミヤナガビル２０１,,13,103,1070051,,,,,,,2026-01-09,1,,,,,キロカ,0
888,4010403036990,新規,0,2026-01-09,2026-01-09,Ａｔｍｏｓｐｈｅｒｉｃ　Ｇ２合同会社,,合同会社,東京都,港区,港南２丁目１６番１号品川イーストワンタワー４階,,13,103,1080075,,,,,,,2026-01-09,1,,,,,アトモスフェリックジーツー,0
889,4010403037007,新規,0,2026-01-09,2026-01-09,合同会社ヴァルハラ００７,,合同会社,東京都,港区,元赤坂１丁目１番７号,,13,103,1070051,,,,,,,2026-01-09,1,,,,,ヴァルハラゼロゼロセブン,0
890,4010501055265,新規,0,2026-01-09,2026-01-09,日進冷熱株式会社,,株式会社,東京都,台東区,根岸３丁目１８番２４号池田マンション３０２,,13,106,1100003,,,,,,,2026-01-09,1,,,,,ニッシンレイネツ,0
892,4010601068514,新規,0,2026-01-09,2026-01-09,株式会社ａｍｓ　ｎｅｘｔ,,株式会社,東京都,墨田区,錦糸３丁目２番１号,,13,107,1300013,,,,,,,2026-01-09,1,,,,,エーエムエスネクスト,0
893,4010601068530,新規,0,2026-01-09,2026-01-09,株式会社Ｋ‐ＰＥＣ,,株式会社,東京都,墨田区,江東橋５丁目１２－３ヤマキリーディングビル１階,,13,107,1300022,,,,,,,2026-01-09,1,,,,,ケーペック,0
894,4010601068547,新規,0,2026-01-09,2026-01-09,レンシア株式会社,,株式会社,東京都,江東区,豊洲５丁目５－３６－１０５,,13,108,1350061,,,,,,,2026-01-09,1,,,,,レンシア,0
896,4010705003846,新規,0,2026-01-09,2026-01-09,一般社団法人アジア・オセアニアタックスコンサルタント協会,,その他の設立登記法人,東京都,品川区,大崎１丁目１１番８号日本税理士会連合会内,,13,109,1410032,,,,,,,2026-01-09,1,,,,,アジアオセアニアタックスコンサルタントキョウカイ,0
911,4011001174712,新規,0,2026-01-09,2026-01-09,株式会社Ｄｅｐｅａｒ,,株式会社,東京都,渋谷区,千駄ヶ谷５丁目１２番１６号益本ビル３階,,13,113,1510051,,,,,,,2026-01-09,1,,,,,デピア,0
912,4011001174852,新規,0,2026-01-09,2026-01-09,株式会社Ｔｏｐ　Ｈｏｒｓｅ,,株式会社,東京都,渋谷区,広尾４丁目１番４－４０６号,,13,113,1500012,,,,,,,2026-01-09,1,,,,,トップホース,0
913,4011003023207,新規,0,2026-01-09,2026-01-09,Ｋｒａｆｔ　Ｍｏｄｅ合同会社,,合同会社,東京都,渋谷区,道玄坂１丁目１０番８号渋谷道玄坂東急ビル２Ｆ－Ｃ,,13,113,1500043,,,,,,,2026-01-09,1,,,,,クラフトモード,0
929,4011701029075,新規,0,2026-01-09,2026-01-09,株式会社Ｇ４,,株式会社,東京都,江戸川区,南小岩４丁目９番７号エスポワール高木６０２号室,,13,123,1330056,,,,,,,2026-01-09,1,,,,,ジーフォー,0
934,4011801047266,新規,0,2026-01-09,2026-01-09,株式会社ＭＩＵＲＡ,,株式会社,東京都,葛飾区,金町６丁目５番１号ベルトーレ金町１１０,,13,122,1250042,,,,,,,2026-01-09,1,,,,,ミウラ,0
935,4011801047274,新規,0,2026-01-09,2026-01-09,新井電気株式会社,,株式会社,東京都,足立区,花畑４丁目８番１０号,,13,121,1210061,,,,,,,2026-01-09,1,,,,,アライデンキ,0
936,4011801047282,新規,0,2026-01-09,2026-01-09,株式会社ブウちゃん,,株式会社,東京都,葛飾区,東金町５丁目３２番９号,,13,122,1250041,,,,,,,2026-01-09,1,,,,,ブウチャン,0
939,4012301014649,新規,0,2026-01-09,2026-01-09,株式会社Ｍ３,,株式会社,東京都,町田市,南町田４丁目２０番１３号,,13,209,1940005,,,,,,,2026-01-09,1,,,,,エムスリー,0
941,4012401043993,新規,0,2026-01-09,2026-01-09,株式会社スタジオねねね,,株式会社,東京都,武蔵野市,吉祥寺東町１丁目１２番１５号,,13,203,1800002,,,,,,,2026-01-09,1,,,,,スタジオネネネ,0
942,4012405005206,新規,0,2026-01-09,2026-01-09,医療法人社団吉祥寺巨樹の会,,その他の設立登記法人,東京都,武蔵野市,吉祥寺南町３丁目１４番４号,,13,203,1800003,,,,,,,2026-01-09,1,,,,,キチジョウジキョジュノカイ,0
943,4012701019256,新規,0,2026-01-09,2026-01-09,株式会社Ｈ　Ｆｉｅｌｄ,,株式会社,東京都,東村山市,美住町１丁目４番地２４Ｓ－８０７,,13,213,1890023,,,,,,,2026-01-09,1,,,,,エイチフィールド,0
945,4012803003959,新規,0,2026-01-09,2026-01-09,ａｎｃｈｏｒ合同会社,,合同会社,東京都,国立市,富士見台４丁目３９番５－１３１３号,,13,215,1860003,,,,,,,2026-01-09,1,,,,,アンカー,0
948,4013301055567,新規,0,2026-01-09,2026-01-09,株式会社ヴァンダービルト,,株式会社,東京都,豊島区,北大塚１丁目１９番１２号コルティス大塚５Ｆ－２５,,13,116,1700004,,,,,,,2026-01-09,1,,,,,ヴァンダービルト,0
950,4013303008036,新規,0,2026-01-09,2026-01-09,２ＣＥ　Ｂｅａｕｔｙ合同会社,,合同会社,東京都,豊島区,東池袋３丁目７－１１東カングランドマンション池袋キャッスル３０１号室,,13,116,1700013,,,,,,,2026-01-09,1,,,,,ツーシーイービューティー,0
951,4013303008044,新規,0,2026-01-09,2026-01-09,合同会社ＣＨＡＳＥ,,合同会社,東京都,豊島区,南長崎３丁目７－２秀和ビル２０１,,13,116,1710052,,,,,,,2026-01-09,1,,,,,チェイス,0
956,4020001166537,新規,0,2026-01-09,2026-01-09,株式会社エヌワイエー,,株式会社,神奈川県,横浜市都筑区,荏田東４丁目４２番５号,,14,118,2240006,,,,,,,2026-01-09,1,,,,,エヌワイエー,0
957,4020001166561,新規,0,2026-01-09,2026-01-09,株式会社アルガディール,,株式会社,神奈川県,横浜市神奈川区,栄町６番地１,,14,102,2210052,,,,,,,2026-01-09,1,,,,,アルガディール,0
958,4020001166586,新規,0,2026-01-09,2026-01-09,株式会社Ｄ・Ｇｏｌｄ,,株式会社,神奈川県,横浜市旭区,中希望が丘１０４番地５,,14,112,2410825,,,,,,,2026-01-09,1,,,,,ディーゴールド,0
960,4020005017109,新規,0,2026-01-09,2026-01-09,一般社団法人社会人クラブ活動振興会,,その他の設立登記法人,神奈川県,横浜市西区,北幸２丁目１０番４８号むつみビル３階,,14,103,2200004,,,,,,,2026-01-09,1,,,,,シャカイジンクラブカツドウシンコウカイ,0
965,4021003016977,新規,0,2026-01-09,2026-01-09,合同会社ミムラ,,合同会社,神奈川県,厚木市,温水１０６１番地４,,14,212,2430033,,,,,,,2026-01-09,1,,,,,ミムラ,0
968,4030001170439,新規,0,2026-01-09,2026-01-09,株式会社エムテック,,株式会社,埼玉県,吉川市,大字川藤５２４番地,,11,243,3420005,,,,,,,2026-01-09,1,,,,,エムテック,0
969,4030001170447,新規,0,2026-01-09,2026-01-09,株式会社はしまる,,株式会社,埼玉県,越谷市,花田１丁目１１番地３４,,11,222,3430015,,,,,,,2026-01-09,1,,,,,ハシマル,0
970,4030001170463,新規,0,2026-01-09,2026-01-09,株式会社８８,,株式会社,埼玉県,比企郡川島町,大字安塚２７番地２,,11,346,3500154,,,,,,,2026-01-09,1,,,,,エイティーエイト,0
973,4030003028271,新規,0,2026-01-09,2026-01-09,合同会社エクスリーフ,,合同会社,埼玉県,和光市,下新倉２丁目１１番地１１号アンボヌール１０２号室,,11,229,3510111,,,,,,,2026-01-09,1,,,,,エクスリーフ,0
974,4030003028404,新規,0,2026-01-09,2026-01-09,合同会社豊建,,合同会社,埼玉県,春日部市,増富６４番地７,,11,214,3440041,,,,,,,2026-01-09,1,,,,,トヨケン,0
992,4050003009856,新規,0,2026-01-09,2026-01-09,合同会社なぎさ,,合同会社,茨城県,ひたちなか市,南神敷台１５番地２８,,08,221,3111244,,,,,,,2026-01-09,1,,,,,ナギサ,0
994,4060001038922,新規,0,2026-01-09,2026-01-09,ＳＵＰＥＲＩＯＲＩＴＹ株式会社,,株式会社,栃木県,真岡市,上高間木１丁目１９番地２中川住宅Ａ棟,,09,209,3214337,,,,,,,2026-01-09,1,,,,,スペリオリティ,0
996,4070001043715,新規,0,2026-01-09,2026-01-09,株式会社Ｒｅｆｉｎｅｄ,,株式会社,群馬県,桐生市,広沢町５丁目１３８２番地の１,,10,203,3760013,,,,,,,2026-01-09,1,,,,,リファインド,0
997,4070001043731,新規,0,2026-01-09,2026-01-09,株式会社らむちょっぷ,,株式会社,群馬県,太田市,新島町８７６,,10,205,3730819,,,,,,,2026-01-09,1,,,,,ラムチョップ,0
1001,4090001019671,新規,0,2026-01-09,2026-01-09,株式会社アマテラスリゾート,,株式会社,山梨県,富士吉田市,上吉田６丁目１０番６号,,19,202,4030005,,,,,,,2026-01-09,1,,,,,アマテラスリゾート,0
1015,4120001283157,新規,0,2026-01-09,2026-01-09,株式会社ＳＴテック,,株式会社,大阪府,大阪市此花区,春日出北２丁目９番１５号,,27,104,5540021,,,,,,,2026-01-09,1,,,,,エスティーテック,0
1016,4120001283165,新規,0,2026-01-09,2026-01-09,Ｅ２アセット株式会社,,株式会社,大阪府,大阪市生野区,勝山南２丁目２番２２号,,27,116,5440021,,,,,,,2026-01-09,1,,,,,イーツーアセット,0
1017,4120001283272,新規,0,2026-01-09,2026-01-09,株式会社アジャスト,,株式会社,大阪府,大阪市北区,曾根崎１丁目３番６号３０２号,,27,127,5300057,,,,,,,2026-01-09,1,,,,,アジャスト,0
1018,4120001283280,新規,0,2026-01-09,2026-01-09,株式会社コレクトワン,,株式会社,大阪府,大阪市中央区,南船場３丁目２番２２号,,27,128,5420081,,,,,,,2026-01-09,1,,,,,コレクトワン,0
1019,4120001283289,新規,0,2026-01-09,2026-01-09,株式会社ＣＯＮＮＥＣＴ,,株式会社,大阪府,大阪市東住吉区,照ケ丘矢田４丁目１４番１３号,,27,121,5460021,,,,,,,2026-01-09,1,,,,,コネクト,0
1020,4120001283297,新規,0,2026-01-09,2026-01-09,耀天国際株式会社,,株式会社,大阪府,大阪市中央区,備後町１丁目６番１号甲賀ビル,,27,128,5410051,,,,,,,2026-01-09,1,,,,,ヨウテンコクサイ,0
1029,4120101073020,新規,0,2026-01-09,2026-01-09,株式会社Ｆｉｖｅ　Ｇｉｖｅ　Ｖｉｂｅｓ,,株式会社,大阪府,堺市堺区,中三国ヶ丘町６丁５番２３号,,27,141,5900022,,,,,,,2026-01-09,1,,,,,ファイブギブバイブス,0
1030,4120101073029,新規,0,2026-01-09,2026-01-09,株式会社アトリエＯＮＥ,,株式会社,大阪府,堺市中区,土塔町１１５番地１,,27,142,5998234,,,,,,,2026-01-09,1,,,,,アトリエワン,0
1031,4120101073037,新規,0,2026-01-09,2026-01-09,株式会社Ｍｉｌｌｅ,,株式会社,大阪府,泉大津市,旭町１８番１－１８０５号,,27,206,5950025,,,,,,,2026-01-09,1,,,,,ミレ,0
1032,4120101073045,新規,0,2026-01-09,2026-01-09,株式会社ｍｅｔａｓｈｏｅｓ,,株式会社,大阪府,堺市堺区,出島町２丁６番２－４０６号,,27,141,5900834,,,,,,,2026-01-09,1,,,,,メタシューズ,0
1033,4120103006928,新規,0,2026-01-09,2026-01-09,合同会社リンクハウス,,合同会社,大阪府,和泉市,黒鳥町２丁目１５番２２号（ベルソレイユ１０２）,,27,219,5940022,,,,,,,2026-01-09,1,,,,,リンクハウス,0
1037,4120901052066,新規,0,2026-01-09,2026-01-09,株式会社ｈｉｔｏｔｓｕ．,,株式会社,大阪府,高槻市,津之江町２丁目１番２２－２０２号,,27,207,5690822,,,,,,,2026-01-09,1,,,,,ヒトツ,0
1043,4130001081353,新規,0,2026-01-09,2026-01-09,牛田機工株式会社,,株式会社,京都府,与謝郡与謝野町,字算所５２８番地,,26,465,6292402,,,,,,,2026-01-09,1,,,,,ウシダキコウ,0
1045,4130003011052,新規,0,2026-01-09,2026-01-09,Ｃｈａｌｄｅａ合同会社,,合同会社,京都府,京都市下京区,仏光寺通烏丸東入上柳町３４３,,26,106,6008099,,,,,,,2026-01-09,1,,,,,カルデア,0
1051,4140001141271,新規,0,2026-01-09,2026-01-09,株式会社杏樹,,株式会社,兵庫県,伊丹市,車塚１丁目７番地１エルミナール２０５号,,28,207,6640872,,,,,,,2026-01-09,1,,,,,アンジュ,0
1052,4140001141321,新規,0,2026-01-09,2026-01-09,株式会社ＴＯＫＵＮＡＧＡ　ＳＴＹＬＥ,,株式会社,兵庫県,三木市,吉川町鍛治屋３０４番地の１,,28,215,6731119,,,,,,,2026-01-09,1,,,,,トクナガスタイル,0
1055,4140005027756,新規,0,2026-01-09,2026-01-09,一般財団法人神戸サンスクリット奨学会,,その他の設立登記法人,兵庫県,神戸市中央区,御幸通３丁目１番３号,,28,110,6510087,,,,,,,2026-01-09,1,,,,,コウベサンスクリットショウガクカイ,0
1056,4160001027337,新規,0,2026-01-09,2026-01-09,株式会社ディーロジリンクス,,株式会社,滋賀県,野洲市,三上１２４４１番地,,25,210,5202323,,,,,,,2026-01-09,1,,,,,ディーロジリンクス,0
1057,4160003003699,新規,0,2026-01-09,2026-01-09,ＦｉｎｅＶａｌｌｅｙ合同会社,,合同会社,滋賀県,長浜市,十里町１０３番地７,,25,203,5260016,,,,,,,2026-01-09,1,,,,,ファインバレイ,0
1058,4170003002361,新規,0,2026-01-09,2026-01-09,合同会社つむぐ,,合同会社,和歌山県,伊都郡かつらぎ町,大字丁ノ町８０１番地の７,,30,341,6497121,,,,,,,2026-01-09,1,,,,,ツムグ,0
1063,4180001170168,新規,0,2026-01-09,2026-01-09,株式会社ＭＹ　ＧａｒａｇＥ,,株式会社,愛知県,清須市,阿原八幡１０２番地６,,23,233,4520901,,,,,,,2026-01-09,1,,,,,エムワイガレージ,0
1064,4180001170184,新規,0,2026-01-09,2026-01-09,株式会社ＭＩＫＱＵＡｘ,,株式会社,愛知県,稲沢市,桜木１丁目１番３０－２号,,23,220,4928272,,,,,,,2026-01-09,1,,,,,ミキュア,0
1065,4180001170201,新規,0,2026-01-09,2026-01-09,株式会社フューチャー,,株式会社,愛知県,東海市,名和町石塚１２番地の１,,23,222,4760002,,,,,,,2026-01-09,1,,,,,フューチャー,0
1073,4180301040582,新規,0,2026-01-09,2026-01-09,株式会社ＫＴテクノ,,株式会社,愛知県,刈谷市,高倉町４丁目５１５番地２,,23,210,4480037,,,,,,,2026-01-09,1,,,,,ケイティーテクノ,0
1075,4190001032788,新規,0,2026-01-09,2026-01-09,ＳＵＮ‐ＦＩＴ株式会社,,株式会社,三重県,四日市市,川島町４６２９番地１１,,24,202,5120934,,,,,,,2026-01-09,1,,,,,サンフィット,0
1077,4190003005313,新規,0,2026-01-09,2026-01-09,合同会社さんぽ,,合同会社,三重県,員弁郡東員町,大字穴太２９４６番地１１,,24,324,5110243,,,,,,,2026-01-09,1,,,,,サンポ,0
1079,4210001020451,新規,0,2026-01-09,2026-01-09,株式会社スタジオｐｕｐｕｌａ,,株式会社,福井県,福井市,渕４丁目１２１５番地クレストチモリ１０１号室,,18,201,9188026,,,,,,,2026-01-09,1,,,,,スタジオププラ,0
1080,4210003001994,新規,0,2026-01-09,2026-01-09,合同会社寿兆,,合同会社,福井県,敦賀市,本町１丁目１３番３号シープビル１Ｆ,,18,202,9140051,,,,,,,2026-01-09,1,,,,,ジュッチョウ,0
1082,4220001027108,新規,0,2026-01-09,2026-01-09,ＢＯＮＤ株式会社,,株式会社,石川県,白山市,中柏野町７番地８,,17,210,9240036,,,,,,,2026-01-09,1,,,,,ボンド,0
1083,4220001027116,新規,0,2026-01-09,2026-01-09,ＥＡＭ株式会社,,株式会社,石川県,金沢市,南森本町ヲ４９番地１,,17,201,9203116,,,,,,,2026-01-09,1,,,,,イーエーエム,0
1084,4230001021225,新規,0,2026-01-09,2026-01-09,株式会社ＭＳコマース,,株式会社,富山県,射水市,松木１７３１番地１２,,16,211,9340052,,,,,,,2026-01-09,1,,,,,エムエスコマース,0
1087,4240001066038,新規,0,2026-01-09,2026-01-09,株式会社オルヴィアコンサルタント,,株式会社,広島県,広島市南区,猿猴橋町５番１３号,,34,103,7320823,,,,,,,2026-01-09,1,,,,,オルヴィアコンサルタント,0
1093,4270001009365,新規,0,2026-01-09,2026-01-09,株式会社レスク,,株式会社,鳥取県,米子市,西福原６丁目３番３２号,,31,202,6830805,,,,,,,2026-01-09,1,,,,,レスク,0
1095,4270003001832,新規,0,2026-01-09,2026-01-09,合同会社ＡＸＩＡ,,合同会社,鳥取県,米子市,新開２丁目１８番５２号ラフェスタ３０６号,,31,202,6830801,,,,,,,2026-01-09,1,,,,,アクシア,0
1101,4290001112679,新規,0,2026-01-09,2026-01-09,株式会社ａｍａｎａｇｉ,,株式会社,福岡県,福岡市博多区,博多駅前１丁目２３番２号ＰａｒｋＦｒｏｎｔ博多駅前１丁目５Ｆ－Ｂ,,40,132,8120011,,,,,,,2026-01-09,1,,,,,アマナギ,0
1110,4290801032151,新規,0,2026-01-09,2026-01-09,株式会社Ｙ．Ｆ．Ｋ．ホールディングス,,株式会社,福岡県,北九州市小倉北区,西港町９４番９号,,40,106,8030801,,,,,,,2026-01-09,1,,,,,ワイエフケーホールディングス,0
1112,4300001014469,新規,0,2026-01-09,2026-01-09,株式会社ハンズアイランド,,株式会社,佐賀県,鳥栖市,蔵上４丁目３２８番地,,41,203,8410056,,,,,,,2026-01-09,1,,,,,ハンズアイランド,0
1117,4330001033904,新規,0,2026-01-09,2026-01-09,株式会社肥後総建,,株式会社,熊本県,熊本市南区,御幸笛田７丁目８番３１号,,43,104,8614172,,,,,,,2026-01-09,1,,,,,ヒゴソウケン,0
1118,4330005011014,新規,0,2026-01-09,2026-01-09,一般社団法人熊本交流会,,その他の設立登記法人,熊本県,熊本市西区,花園１丁目６番３５号ＨＡＮＡＺＯＮＯ４階,,43,103,8600072,,,,,,,2026-01-09,1,,,,,クマモトコウリュウカイ,0
1119,4350001019876,新規,0,2026-01-09,2026-01-09,株式会社ｅｃｌａｉｒｅｒ,,株式会社,宮崎県,宮崎市,和知川原２丁目９３番地１,,45,201,8800023,,,,,,,2026-01-09,1,,,,,エクレレ,0
1120,4350001019884,新規,0,2026-01-09,2026-01-09,１０１１株式会社,,株式会社,宮崎県,宮崎市,田野町乙９６３４番地７,,45,201,8891702,,,,,,,2026-01-09,1,,,,,イチゼロイチイチ,0
1122,4360001036202,新規,0,2026-01-09,2026-01-09,株式会社ＴｓｕｇｉｙａＲｙｕｋｙｕ,,株式会社,沖縄県,那覇市,泊１丁目４番地５－８０１,,47,201,9000012,,,,,,,2026-01-09,1,,,,,ツギヤリュウキュウ,0
1123,4360001036235,新規,0,2026-01-09,2026-01-09,株式会社Ｂｏｎｄ,,株式会社,沖縄県,沖縄市,山内２丁目５番２９号,,47,211,9040034,,,,,,,2026-01-09,1,,,,,ボンド,0
1128,4380001035788,新規,0,2026-01-09,2026-01-09,株式会社レモンバーム‐ＭＫ,,株式会社,福島県,いわき市,平字二町目４３番地の１平ニューカースル８０１,,07,204,9708026,,,,,,,2026-01-09,1,,,,,レモンバームエムケー,0
1129,4390001018214,新規,0,2026-01-09,2026-01-09,株式会社Ｆ企画,,株式会社,山形県,酒田市,浜田１丁目７番２９号,,06,204,9980031,,,,,,,2026-01-09,1,,,,,エフキカク,0
1133,4420003003227,新規,0,2026-01-09,2026-01-09,合同会社吉川設備設計事務所,,合同会社,青森県,弘前市,大字城東４丁目７番地１,,02,202,0368095,,,,,,,2026-01-09,1,,,,,ヨシカワセツビセッケイジムショ,0
1134,4420005007993,新規,0,2026-01-09,2026-01-09,特定非営利活動法人Ｍ’ｓバスケットボールアソシエーション,,その他の設立登記法人,青森県,弘前市,大字一町田字村元７４４番地５０,,02,202,0361325,,,,,,,2026-01-09,1,,,,,エムズバスケットボールアソシエーション,0
1139,4430001095918,新規,0,2026-01-09,2026-01-09,株式会社いまい建物,,株式会社,北海道,千歳市,みどり台北２丁目５番１５号,,01,224,0660083,,,,,,,2026-01-09,1,,,,,イマイタテモノ,0
1140,4430001095942,新規,0,2026-01-09,2026-01-09,ＹｕＬＡ株式会社,,株式会社,北海道,札幌市清田区,北野五条４丁目１４番３０号,,01,110,0040865,,,,,,,2026-01-09,1,,,,,ユーラ,0
1141,4430001095975,新規,0,2026-01-09,2026-01-09,株式会社サンムーンパートナーズ,,株式会社,北海道,札幌市中央区,宮の森二条６丁目１－３３オルセー宮の森３０１号,,01,101,0640952,,,,,,,2026-01-09,1,,,,,サンムーンパートナーズ,0
1142,4430001095983,新規,0,2026-01-09,2026-01-09,株式会社テクノスタナカ,,株式会社,北海道,石狩市,花川東一条３丁目３３番地,,01,235,0613261,,,,,,,2026-01-09,1,,,,,テクノスタナカ,0
1143,4430003018471,新規,0,2026-01-09,2026-01-09,Ｎｏｍａｄｒｉｘ合同会社,,合同会社,北海道,札幌市東区,北四十条東７丁目５番２９－２０２号,,01,103,0070840,,,,,,,2026-01-09,1,,,,,ノマドリックス,0
1144,4470001021044,新規,0,2026-01-09,2026-01-09,株式会社Ｙｏｔｕｂａ　Ｃｒｅａｔｅ,,株式会社,香川県,綾歌郡綾川町,陶５０６番地７,,37,387,7612103,,,,,,,2026-01-09,1,,,,,ヨツバクリエイト,0
1145,4470003003049,新規,0,2026-01-09,2026-01-09,香川メンテナンス合同会社,,合同会社,香川県,高松市,牟礼町大町１４１５－１９８さくらハイツ１０２号,,37,201,7610122,,,,,,,2026-01-09,1,,,,,,0
1148,4500001026717,新規,0,2026-01-09,2026-01-09,株式会社寿崎真珠,,株式会社,愛媛県,宇和島市,遊子４８２９番地３,,38,203,7980103,,,,,,,2026-01-09,1,,,,,スザキシンジュ,0
1149,4500003003656,新規,0,2026-01-09,2026-01-09,合同会社ＥＴＫ,,合同会社,愛媛県,今治市,東村甲３７５番地３,,38,202,7991505,,,,,,,2026-01-09,1,,,,,イーティーケー,0
1157,5010001261809,新規,0,2026-01-09,2026-01-09,ＭＫＢ株式会社,,株式会社,東京都,中央区,八丁堀１丁目２番８号八重洲通フィルテラス,,13,102,1040032,,,,,,,2026-01-09,1,,,,,エムケイビー,0
1161,5010005041199,新規,0,2026-01-09,2026-01-09,一般社団法人Ｃａｐｉｔａｌ１,,その他の設立登記法人,東京都,千代田区,丸の内１丁目４番１号東京共同会計事務所内,,13,101,1000005,,,,,,,2026-01-09,1,,,,,キャピタルワン,0
1162,5010101017037,新規,0,2026-01-09,2026-01-09,Ｊ．ＷＯＲＫＳ株式会社,,株式会社,東京都,八王子市,谷野町４６１番地１,,13,201,1920016,,,,,,,2026-01-09,1,,,,,ジェイワークス,0
1166,5010401195474,新規,0,2026-01-09,2026-01-09,株式会社Ｐｉｃｔｕｒｅ　Ｐｏｗｅｒｓ,,株式会社,東京都,港区,南青山３丁目３番１０号南青山３ハウス１０２号室,,13,103,1070062,,,,,,,2026-01-09,1,,,,,ピクチャーパワーズ,0
1167,5010401195598,新規,0,2026-01-09,2026-01-09,Ａｅｘｌｕｎ株式会社,,株式会社,東京都,港区,港南２丁目１６－１品川ＥａｓｔＯｎｅＴｏｗｅｒ８Ｆ,,13,103,1080075,,,,,,,2026-01-09,1,,,,,エクスルン,0
1168,5010401195631,新規,0,2026-01-09,2026-01-09,株式会社ゼンショー日本ダイニングホールディングス,,株式会社,東京都,港区,港南２丁目１８番１号,,13,103,1080075,,,,,,,2026-01-09,1,,,,,ゼンショーニホンダイニングホールディングス,0
1169,5010401195714,新規,0,2026-01-09,2026-01-09,株式会社ＧｅＮＥＥ　Ｇａｍｅ,,株式会社,東京都,港区,六本木１丁目４－５森ビルアークヒルズサウスタワー,,13,103,1060032,,,,,,,2026-01-09,1,,,,,ジーンゲーム,0
1177,5010403036949,新規,0,2026-01-09,2026-01-09,アーユル・クォンタム合同会社,,合同会社,東京都,港区,北青山１丁目３番１号,,13,103,1070061,,,,,,,2026-01-09,1,,,,,アーユルクォンタム,0
1178,5010403036965,新規,0,2026-01-09,2026-01-09,助右衛門合同会社,,合同会社,東京都,港区,南青山３丁目１－３６青山丸竹ビル６Ｆ,,13,103,1070062,,,,,,,2026-01-09,1,,,,,スケエモン,0
1179,5010403036973,新規,0,2026-01-09,2026-01-09,合同会社ＬＩＭＵ,,合同会社,東京都,港区,西新橋１丁目２－９日比谷セントラルビル１４階,,13,103,1050003,,,,,,,2026-01-09,1,,,,,リム,0
1180,5010403037030,新規,0,2026-01-09,2026-01-09,Ｓｉｌｖｅｒｔｒａｉｌ　Ｐａｒｔｎｅｒｓ合同会社,,合同会社,東京都,港区,白金台１丁目１番１３－４０１号,,13,103,1080071,,,,,,,2026-01-09,1,,,,,シルバートレイルパートナーズ,0
1185,5010501055264,新規,0,2026-01-09,2026-01-09,株式会社Ｂｌｏｏｍｒｉｓｅ,,株式会社,東京都,台東区,今戸１丁目１０－３－７０３アーバンパーク浅草ＩＩ,00142103,13,106,1110024,,,,,,,2026-01-09,1,,,,,ブルームライズ,0
1187,5010601068521,新規,0,2026-01-09,2026-01-09,Ｒｉｃｏｔｔ株式会社,,株式会社,東京都,墨田区,江東橋１丁目１６番１－５０２号,,13,107,1300022,,,,,,,2026-01-09,1,,,,,リコット,0
1188,5010601068546,新規,0,2026-01-09,2026-01-09,株式会社ＮＵＫＵＭＯＲＩ,,株式会社,東京都,江東区,富岡１丁目６番６号ＴＴＲビル３Ｆ,,13,108,1350047,,,,,,,2026-01-09,1,,,,,ヌクモリ,0
1189,5010601068554,新規,0,2026-01-09,2026-01-09,株式会社ＬＡＭ　Ｅｓｔａｔｅ,,株式会社,東京都,江東区,東砂５丁目１３番１６号４０１,,13,108,1360074,,,,,,,2026-01-09,1,,,,,ラムエステート,0
1190,5010601068562,新規,0,2026-01-09,2026-01-09,株式会社ＨＡＲＵ,,株式会社,東京都,江東区,豊洲３丁目４番２－４５０９号,,13,108,1350061,,,,,,,2026-01-09,1,,,,,ハル,0
1192,5010603012007,新規,0,2026-01-09,2026-01-09,合同会社ＫＭＲＳＣ,,合同会社,東京都,江東区,東雲１丁目９番４－３１０５号,,13,108,1350062,,,,,,,2026-01-09,1,,,,,ケーエムアールエスシー,0
1194,5010701048860,新規,0,2026-01-09,2026-01-09,Ｚ‐ＮＥＸＴグループホールディングス株式会社,,株式会社,東京都,品川区,西大井１丁目１番２号Ｊタワー西大井イースト２０７号,,13,109,1400015,,,,,,,2026-01-09,1,,,,,ジーネクストグループホールディングス,0
1205,5011001174736,新規,0,2026-01-09,2026-01-09,株式会社Ｗｅｌｓｕｐ,,株式会社,東京都,渋谷区,円山町５番３号ＭＩＥＵＸ渋谷ビル８階,,13,113,1500044,,,,,,,2026-01-09,1,,,,,ウェルサポ,0
1206,5011001174777,新規,0,2026-01-09,2026-01-09,株式会社ファセット,,株式会社,東京都,渋谷区,神南１丁目２３番１４号リージャス渋谷公園通り,,13,113,1500041,,,,,,,2026-01-09,1,,,,,ファセット,0
1207,5011001174884,新規,0,2026-01-09,2026-01-09,株式会社うれしえ,,株式会社,東京都,渋谷区,神泉町１０番１５号アネックス神泉３０１,,13,113,1500045,,,,,,,2026-01-09,1,,,,,ウレシエ,0
1214,5011203004930,新規,0,2026-01-09,2026-01-09,合同会社稲城ＤＣ　ＯＮＥ,,合同会社,東京都,中野区,中央１丁目１３番８号大橋セントラルビルディング４階,,13,114,1640011,,,,,,,2026-01-09,1,,,,,イナギディーシーワン,0
1217,5011405002419,新規,0,2026-01-09,2026-01-09,一般社団法人ＭＥＤＩＣＡＬ　ＫＮＯＴ,,その他の設立登記法人,東京都,板橋区,中丸町４７番１１－２０４号シティハイツ大山,,13,119,1730026,,,,,,,2026-01-09,1,,,,,メディカルノット,0
1218,5011503006825,新規,0,2026-01-09,2026-01-09,エステリア合同会社,,合同会社,東京都,荒川区,南千住３丁目４０番１０－９０１号,,13,118,1160003,,,,,,,2026-01-09,1,,,,,エステリア,0
1223,5011603004968,新規,0,2026-01-09,2026-01-09,合同会社然仁,,合同会社,東京都,練馬区,石神井町４丁目１０－６,,13,120,1770041,,,,,,,2026-01-09,1,,,,,ゼンジン,0
1226,5011703004496,新規,0,2026-01-09,2026-01-09,ＤＡＵＤ合同会社,,合同会社,東京都,江戸川区,西葛西１丁目９番２４号,,13,123,1340088,,,,,,,2026-01-09,1,,,,,ダウド,0
1228,5011801047240,新規,0,2026-01-09,2026-01-09,株式会社金ノ柱,,株式会社,東京都,足立区,谷在家２丁目４－１０ワザック西新井大師西７０６,,13,121,1230863,,,,,,,2026-01-09,1,,,,,キンノハシラ,0
1229,5011803007250,新規,0,2026-01-09,2026-01-09,ｏｎｅ‐ｎｅｘｔ合同会社,,合同会社,東京都,足立区,大谷田２丁目１９番１３号,,13,121,1200001,,,,,,,2026-01-09,1,,,,,ワンネクスト,0
1230,5011803007259,新規,0,2026-01-09,2026-01-09,合同会社リコリダー,,合同会社,東京都,足立区,南花畑４丁目５番１２号,,13,121,1210062,,,,,,,2026-01-09,1,,,,,リコリダー,0
1233,5012401043992,新規,0,2026-01-09,2026-01-09,株式会社アイズ,,株式会社,東京都,武蔵野市,吉祥寺東町１丁目１２番１５号,,13,203,1800002,,,,,,,2026-01-09,1,,,,,アイズ,0
1234,5012405005205,新規,0,2026-01-09,2026-01-09,一般社団法人ＭＯＪＩＳＵＢＡ,,その他の設立登記法人,東京都,調布市,染地１丁目２０番３６号,,13,208,1820023,,,,,,,2026-01-09,1,,,,,モジスバ,0
1235,5012701019247,新規,0,2026-01-09,2026-01-09,ＦＯＲＷＨＩＴＥ株式会社,,株式会社,東京都,西東京市,向台町３丁目４番１０号,,13,229,1880013,,,,,,,2026-01-09,1,,,,,ホワイト,0
1236,5013301055582,新規,0,2026-01-09,2026-01-09,株式会社フツレ,,株式会社,東京都,豊島区,南池袋２丁目１３番８号タカセ南池ビル２階,,13,116,1710022,,,,,,,2026-01-09,1,,,,,フツレ,0
1239,5020001166544,新規,0,2026-01-09,2026-01-09,Ａｍｉｅｌ株式会社,,株式会社,神奈川県,横浜市磯子区,氷取沢町６０番地２３グランドメゾン氷取沢３０３号,,14,107,2350043,,,,,,,2026-01-09,1,,,,,アミエル,0
1240,5020001166627,新規,0,2026-01-09,2026-01-09,株式会社Ａｒｋ　Ｃｒｅａｔｉｖｅ,,株式会社,神奈川県,横浜市南区,唐沢１０番地,,14,105,2320034,,,,,,,2026-01-09,1,,,,,アーククリエイティブ,0
1241,5020003030145,新規,0,2026-01-09,2026-01-09,合同会社Ａｔｔｅｍｐｔ,,合同会社,神奈川県,川崎市宮前区,土橋１丁目１９番地５,,14,136,2160005,,,,,,,2026-01-09,1,,,,,アテンプト,0
1244,5021001087169,新規,0,2026-01-09,2026-01-09,株式会社Ｎｏｎ,,株式会社,神奈川県,秦野市,曽屋６８７番地の８７,,14,211,2570031,,,,,,,2026-01-09,1,,,,,ノン,0
1245,5021001087177,新規,0,2026-01-09,2026-01-09,株式会社ＳＨ　ＭＡＲＫＥＴＩＮＧ　ＳＴＵＤＩＯ,,株式会社,神奈川県,大和市,下鶴間６００８番地１９,,14,213,2420001,,,,,,,2026-01-09,1,,,,,エスエイチマーケティングスタジオ,0
1246,5021001087202,新規,0,2026-01-09,2026-01-09,ＨＫホールディングス株式会社,,株式会社,神奈川県,綾瀬市,小園１３２８番地１,,14,218,2521121,,,,,,,2026-01-09,1,,,,,エイチケーホールディングス,0
1251,5030001170446,新規,0,2026-01-09,2026-01-09,株式会社にわとこ,,株式会社,埼玉県,熊谷市,中央２丁目１５９,,11,202,3600018,,,,,,,2026-01-09,1,,,,,ニワトコ,0
1252,5030001170454,新規,0,2026-01-09,2026-01-09,株式会社カネフクグレインズ,,株式会社,埼玉県,加須市,志多見３４４番地,,11,210,3470042,,,,,,,2026-01-09,1,,,,,カネフクグレインズ,0
1253,5030001170462,新規,0,2026-01-09,2026-01-09,Ｓａｎａｅ　Ｇａｒｄｅｎ株式会社,,株式会社,埼玉県,狭山市,鵜ノ木１７番４号,,11,215,3501323,,,,,,,2026-01-09,1,,,,,,0
1254,5030001170470,新規,0,2026-01-09,2026-01-09,株式会社メディエール,,株式会社,埼玉県,さいたま市大宮区,大門町２丁目１０９番地大越ビル６階６１５号室,,11,103,3300846,,,,,,,2026-01-09,1,,,,,メディエール,0
1255,5030001170495,新規,0,2026-01-09,2026-01-09,ポリティカデザイン株式会社,,株式会社,埼玉県,和光市,南１丁目１７番２９号,,11,229,3510104,,,,,,,2026-01-09,1,,,,,ポリティカデザイン,0
1256,5030001170529,新規,0,2026-01-09,2026-01-09,株式会社ＴＫＳ,,株式会社,埼玉県,さいたま市中央区,上落合３丁目１０番１－３０９号,,11,105,3380001,,,,,,,2026-01-09,1,,,,,ティーケイエス,0
1260,5030003028403,新規,0,2026-01-09,2026-01-09,合同会社あゆみ．ＴＮ,,合同会社,埼玉県,さいたま市緑区,東浦和１丁目１６番地９,,11,109,3360926,,,,,,,2026-01-09,1,,,,,アユミドットティーエヌ,0
1266,5040001142130,新規,0,2026-01-09,2026-01-09,田中建機サービス株式会社,,株式会社,千葉県,茂原市,南吉田１０８５番地２,,12,210,2994104,,,,,,,2026-01-09,1,,,,,タナカケンキサービス,0
1268,5040003029251,新規,0,2026-01-09,2026-01-09,合同会社大木自動車サービス,,合同会社,千葉県,市川市,北方町４丁目１９４８番地７２,,12,203,2720811,,,,,,,2026-01-09,1,,,,,オオキジドウシャサービス,0
1269,5050001057848,新規,0,2026-01-09,2026-01-09,株式会社ＥＩＧＨＴ　ＢＡＳＥ,,株式会社,茨城県,石岡市,東成井２００８番地５,,08,205,3150122,,,,,,,2026-01-09,1,,,,,エイトベース,0
1272,5060001038913,新規,0,2026-01-09,2026-01-09,アセットウォッシュ株式会社,,株式会社,栃木県,鹿沼市,栄町１丁目１５番地３,,09,205,3220028,,,,,,,2026-01-09,1,,,,,アセットウォッシュ,0
1277,5070001043714,新規,0,2026-01-09,2026-01-09,Ｐｏｕｌａｉｎ　ｄ’Ｏｒ株式会社,,株式会社,群馬県,高崎市,中泉町６２１番地１Ｍｏｎｏｃｈｒｏｍｅ・ｎａｉｌ＆ｅｙｅｌａｓｈ中泉町店,,10,202,3703524,,,,,,,2026-01-09,1,,,,,プランドール,0
1283,5080401028371,新規,0,2026-01-09,2026-01-09,株式会社こみる,,株式会社,静岡県,袋井市,久能１６７２番地の６,,22,216,4370061,,,,,,,2026-01-09,1,,,,,コミル,0
1285,5090001019679,新規,0,2026-01-09,2026-01-09,ＤｒｅｉＫｒｅｉｓ株式会社,,株式会社,山梨県,甲府市,北口１丁目２番１９号－１４０３,,19,201,4000024,,,,,,,2026-01-09,1,,,,,ドライクライス,0
1288,5100001039238,新規,0,2026-01-09,2026-01-09,株式会社ＬＵＭＢＥＲＪＡＣＫ,,株式会社,長野県,下伊那郡下條村,陽皐３９番地２８,,20,411,3992102,,,,,,,2026-01-09,1,,,,,ランバージャック,0
1299,5120001282926,新規,0,2026-01-09,2026-01-09,てんま産業サービス株式会社,,株式会社,大阪府,大阪市福島区,福島３丁目３番３号９０１号,,27,103,5530003,,,,,,,2026-01-09,1,,,,,テンマサンギョウサービス,0
1300,5120001283156,新規,0,2026-01-09,2026-01-09,タヤマ金属株式会社,,株式会社,大阪府,大阪市平野区,加美鞍作１丁目１番６１号,,27,126,5470004,,,,,,,2026-01-09,1,,,,,タヤマキンゾク,0
1301,5120001283230,新規,0,2026-01-09,2026-01-09,株式会社スカイバウンド,,株式会社,大阪府,大阪市北区,梅田１丁目２番２号大阪駅前第２ビル１２－１２,,27,127,5300001,,,,,,,2026-01-09,1,,,,,スカイバウンド,0
1302,5120001283288,新規,0,2026-01-09,2026-01-09,株式会社Ｅｍｏｔｉｏｎ,,株式会社,大阪府,大阪市東淀川区,東中島２丁目１０番１６号西田ビル４階,,27,114,5330033,,,,,,,2026-01-09,1,,,,,エモーション,0
1303,5120001283296,新規,0,2026-01-09,2026-01-09,株式会社たなか工務店,,株式会社,大阪府,寝屋川市,萱島東２丁目２２番４号,,27,215,5720824,,,,,,,2026-01-09,1,,,,,タナカコウムテン,0
1306,5120003031604,新規,0,2026-01-09,2026-01-09,合同会社ＴＮＫ,,合同会社,大阪府,大阪市生野区,巽中２丁目４番２１－１０２号,00142099,27,116,5440013,,,,,,,2026-01-09,1,,,,,ティーエヌケー,0
1307,5120101073028,新規,0,2026-01-09,2026-01-09,株式会社ウルニハ,,株式会社,大阪府,泉南郡岬町,淡輪５７９０番地の８,,27,366,5990301,,,,,,,2026-01-09,1,,,,,ウルニハ,0
1308,5120101073036,新規,0,2026-01-09,2026-01-09,株式会社高山熊,,株式会社,大阪府,岸和田市,田治米町５６１番地５,,27,202,5960805,,,,,,,2026-01-09,1,,,,,タカヤマグマ,0
1309,5120101073044,新規,0,2026-01-09,2026-01-09,株式会社ＡＮＤａｓ　Ｅｓｔａｔｅ,,株式会社,大阪府,堺市堺区,香ヶ丘町１丁５番４号,,27,141,5900011,,,,,,,2026-01-09,1,,,,,アンダーズエステート,0
1310,5120101073052,新規,0,2026-01-09,2026-01-09,株式会社アスリム,,株式会社,大阪府,堺市南区,高倉台２丁２番１－７０４号,,27,145,5900117,,,,,,,2026-01-09,1,,,,,アスリム,0
1311,5120103006927,新規,0,2026-01-09,2026-01-09,合同会社ＨＩＫＡＲＵ,,合同会社,大阪府,泉大津市,板原町３丁目６番１号,,27,206,5950033,,,,,,,2026-01-09,1,,,,,ヒカル,0
1313,5120901052065,新規,0,2026-01-09,2026-01-09,株式会社沖サービス,,株式会社,大阪府,摂津市,新在家２丁目３２番１３号,,27,224,5660055,,,,,,,2026-01-09,1,,,,,オキサービス,0
1320,5130003011051,新規,0,2026-01-09,2026-01-09,Ａｖａｌｏｎ合同会社,,合同会社,京都府,京都市下京区,仏光寺通烏丸東入上柳町３４３,,26,106,6008099,,,,,,,2026-01-09,1,,,,,アヴァロン,0
1324,5140005027763,新規,0,2026-01-09,2026-01-09,一般社団法人国境なきチェリストたち,,その他の設立登記法人,兵庫県,神戸市須磨区,須磨浦通３丁目２番１８号,,28,107,6540055,,,,,,,2026-01-09,1,,,,,コッキョウナキチェリストタチ,0
1326,5150001028640,新規,0,2026-01-09,2026-01-09,とみお整骨院株式会社,,株式会社,奈良県,奈良市,富雄元町２丁目６番３６号平井ビル,,29,201,6310078,,,,,,,2026-01-09,1,,,,,トミオセイコツイン,0
1328,5160001027336,新規,0,2026-01-09,2026-01-09,株式会社フィールドビレッジ,,株式会社,滋賀県,大津市,藤尾奥町５番１０号,,25,201,5200067,,,,,,,2026-01-09,1,,,,,フィールドビレッジ,0
1330,5160003003698,新規,0,2026-01-09,2026-01-09,Ｉｔｉｃｅ合同会社,,合同会社,滋賀県,長浜市,八幡中山町８８番地１１,,25,203,5260021,,,,,,,2026-01-09,1,,,,,アイティス,0
1331,5170001018945,新規,0,2026-01-09,2026-01-09,株式会社ネバーエンド,,株式会社,和歌山県,和歌山市,加納２０３番地５サンライズ三崎１０１,,30,201,6408391,,,,,,,2026-01-09,1,,,,,ネバーエンド,0
1337,5180001170118,新規,0,2026-01-09,2026-01-09,株式会社ＭＣｏｒｅ,,株式会社,愛知県,名古屋市中村区,名駅４丁目２４番５号第２森ビル４０１,,23,105,4500002,,,,,,,2026-01-09,1,,,,,エムコア,0
1338,5180001170191,新規,0,2026-01-09,2026-01-09,ブラッシュアップクリエイト株式会社,,株式会社,愛知県,名古屋市瑞穂区,洲山町２丁目３０番地あらたまクインビル１階,,23,108,4670066,,,,,,,2026-01-09,1,,,,,ブラッシュアップクリエイト,0
1346,5180301040573,新規,0,2026-01-09,2026-01-09,株式会社佐藤測建,,株式会社,愛知県,西尾市,一色町一色古新田６３番地６,,23,213,4440423,,,,,,,2026-01-09,1,,,,,サトウソッケン,0
1348,5180303006861,新規,0,2026-01-09,2026-01-09,合同会社Ｕｐｐｓａｌａ,,合同会社,愛知県,新城市,字宮ノ後３５番地２,,23,221,4411378,,,,,,,2026-01-09,1,,,,,ウプサラ,0
1349,5190001032795,新規,0,2026-01-09,2026-01-09,株式会社タマファーム,,株式会社,三重県,伊賀市,土橋４９２番地２,,24,216,5180015,,,,,,,2026-01-09,1,,,,,タマファーム,0
1352,5200001044582,新規,0,2026-01-09,2026-01-09,株式会社骨継,,株式会社,岐阜県,可児市,広見６７８番地５,,21,214,5090214,,,,,,,2026-01-09,1,,,,,ホネツグ,0
1353,5200001044608,新規,0,2026-01-09,2026-01-09,株式会社ＥｘＬｅａｄ,,株式会社,岐阜県,岐阜市,城田寺１９０１番地,,21,201,5020859,,,,,,,2026-01-09,1,,,,,エクスリード,0
1354,5200001044616,新規,0,2026-01-09,2026-01-09,株式会社幸生運輸,,株式会社,岐阜県,岐阜市,島新町２番１９号,,21,201,5020907,,,,,,,2026-01-09,1,,,,,コウセイウンユ,0
1360,5240001066029,新規,0,2026-01-09,2026-01-09,株式会社アルミル,,株式会社,広島県,呉市,和庄２丁目４番１５号１０２号室,,34,202,7370041,,,,,,,2026-01-09,1,,,,,アルミル,0
1361,5240003007542,新規,0,2026-01-09,2026-01-09,合同会社オートノミーアソシエーション,,合同会社,広島県,廿日市市,地御前５丁目１５－１０,,34,213,7380042,,,,,,,2026-01-09,1,,,,,オートノミーアソシエーション,0
1362,5240003007550,新規,0,2026-01-09,2026-01-09,合同会社佐々木農園,,合同会社,広島県,山県郡北広島町,阿坂１８９３番地２,,34,369,7311222,,,,,,,2026-01-09,1,,,,,ササキノウエン,0
1385,5300001014468,新規,0,2026-01-09,2026-01-09,株式会社ＢＫサービス,,株式会社,佐賀県,唐津市,大石町２４５７番地,,41,202,8470066,,,,,,,2026-01-09,1,,,,,ビーケーサービス,0
1389,5320001021529,新規,0,2026-01-09,2026-01-09,株式会社ＥＩＴＯ,,株式会社,大分県,大分市,坂ノ市南４丁目１０番１５号,,44,201,8700308,,,,,,,2026-01-09,1,,,,,エイト,0
1393,5330001033894,新規,0,2026-01-09,2026-01-09,株式会社上村技工,,株式会社,熊本県,宇土市,境目町５４８番地,,43,211,8690417,,,,,,,2026-01-09,1,,,,,ウエムラギコウ,0
1394,5330003011386,新規,0,2026-01-09,2026-01-09,合同会社平井,,合同会社,熊本県,球磨郡水上村,大字岩野２６４４番地１,,43,507,8680701,,,,,,,2026-01-09,1,,,,,ヒライ,0
1396,5340001027887,新規,0,2026-01-09,2026-01-09,株式会社らいでん,,株式会社,鹿児島県,大島郡瀬戸内町,大字古仁屋字松江４－４,,46,525,8941505,,,,,,,2026-01-09,1,,,,,ライデン,0
1399,5350001019883,新規,0,2026-01-09,2026-01-09,株式会社Ｒｏｏｔｓ,,株式会社,宮崎県,都城市,山之口町花木２１９４番地２２,,45,202,8891802,,,,,,,2026-01-09,1,,,,,ルーツ,0
1401,5350003005106,新規,0,2026-01-09,2026-01-09,合同会社ＲＥＶＥ　ＦＩＸ,,合同会社,宮崎県,都城市,広原町２１―２―１０アクティハウス２―３０１,,45,202,8850036,,,,,,,2026-01-09,1,,,,,レーヴフィックス,0
1406,5370001053385,新規,0,2026-01-09,2026-01-09,株式会社ＷＡＫＡＭＥ,,株式会社,宮城県,石巻市,美園３丁目２番地２,,04,202,9860033,,,,,,,2026-01-09,1,,,,,ワカメ,0
1407,5370003007439,新規,0,2026-01-09,2026-01-09,合同会社ＭＡＨＡＲＡＪＡ,,合同会社,宮城県,遠田郡涌谷町,字蔵人沖名３１５番地,,04,501,9870132,,,,,,,2026-01-09,1,,,,,マハラジャ,0
1408,5380003006225,新規,0,2026-01-09,2026-01-09,合同会社武道具麟,,合同会社,福島県,南相馬市,鹿島区寺内字八幡林３６番地の１０,,07,212,9792333,,,,,,,2026-01-09,1,,,,,ブドウグリン,0
1411,5400001017287,新規,0,2026-01-09,2026-01-09,株式会社ライテック,,株式会社,岩手県,滝沢市,湯舟沢８３番地９,,03,216,0200617,,,,,,,2026-01-09,1,,,,,ライテック,0
1417,5430001095933,新規,0,2026-01-09,2026-01-09,株式会社ＧＮＫ３０,,株式会社,北海道,札幌市中央区,南二条西５丁目３１番地１ＲＭＢｌｄ．７０１,,01,101,0600062,,,,,,,2026-01-09,1,,,,,ガンコサンマル,0
1418,5430001096031,新規,0,2026-01-09,2026-01-09,株式会社Ｒｅｅ　Ｎｅｘｔ　Ｊａｐａｎ,,株式会社,北海道,札幌市白石区,川下２０６９番地,,01,104,0030869,,,,,,,2026-01-09,1,,,,,リーネクストジャパン,0
1422,5430003018446,新規,0,2026-01-09,2026-01-09,合同会社Ｗｅａｖｅ,,合同会社,北海道,江別市,元江別本町３１番地の６,,01,217,0670041,,,,,,,2026-01-09,1,,,,,ウィーブ,0
1424,5450001014825,新規,0,2026-01-09,2026-01-09,株式会社オホーツク教育研究所,,株式会社,北海道,紋別市,緑町５丁目４番２５号,,01,219,0940014,,,,,,,2026-01-09,1,,,,,オホーツクキョウイクケンキュウジョ,0
1425,5490001011249,新規,0,2026-01-09,2026-01-09,株式会社川本工芸,,株式会社,高知県,高知市,介良乙３２７２番地１,,39,201,7815106,,,,,,,2026-01-09,1,,,,,カワモトコウゲイ,0
1427,5490005007020,新規,0,2026-01-09,2026-01-09,一般社団法人まちコネクト,,その他の設立登記法人,高知県,長岡郡本山町,本山４０６番地,,39,341,7813601,,,,,,,2026-01-09,1,,,,,マチコネクト,0
1429,5500001026708,新規,0,2026-01-09,2026-01-09,株式会社シンハイム,,株式会社,愛媛県,新居浜市,坂井町２丁目２番２７号,,38,205,7920812,,,,,,,2026-01-09,1,,,,,シンハイム,0
1430,5500001026716,新規,0,2026-01-09,2026-01-09,株式会社ＳＯＫＡＢＥ,,株式会社,愛媛県,伊予郡松前町,大字浜５８４番地,,38,401,7913110,,,,,,,2026-01-09,1,,,,,ソカベ,0
1434,5700150132930,新規,0,2026-01-09,2026-01-09,Ｆｏｒｅｓｔ　Ｇａｒｄｅｎ　Ｌｉｍｉｔｅｄ,,外国会社等,,,,,,,,Ｆｌａｔ／ＲＭ７０６７／Ｆ，Ｔｅｓｂｕｒｙ　Ｃｅｎｔｒｅ，２８　Ｑｕｅｅｎｓ　Ｒｏａｄ　Ｅａｓｔ　Ｗａｎｃｈａｉ，Ｈｏｎｇ　Ｋｏｎｇ,,,,,,2026-01-09,1,,,,,フオーレストガーデンリミテツド,0
1435,5700150133887,新規,0,2026-01-09,2026-01-09,ＬａｙｌａＥｌｅｃｔｒｉｃ，Ｉｎｃ．,,外国会社等,,,,,,,,７３０　Ａｒｉｚｏｎａ　Ａｖｅ，Ｓａｎｔａ　Ｍｏｎｉｃａ，ＣＡ　９０４０１　ＵＳＡ　９０４０１,,,,,,2026-01-09,1,,,,,レイラエレクトリック,0
1441,6010001261725,新規,0,2026-01-09,2026-01-09,株式会社ＬＥＧＥＲＩＡ,,株式会社,東京都,中央区,銀座７丁目１７番１８号,,13,102,1040061,,,,,,,2026-01-09,1,,,,,レジェリア,0
1442,6010001261790,新規,0,2026-01-09,2026-01-09,株式会社ＤｅｎＨａｒｔｏｇｈ日新,,株式会社,東京都,千代田区,麹町１丁目６番地,,13,101,1020083,,,,,,,2026-01-09,1,,,,,デンハートフニッシン,0
1446,6010003049945,新規,0,2026-01-09,2026-01-09,合同会社ＯＳＡＣＡＮＡ,,合同会社,東京都,中央区,日本橋兜町１７番２号兜町第６葉山ビル４階,,13,102,1030026,,,,,,,2026-01-09,1,,,,,オサカナ,0
1454,6010401195572,新規,0,2026-01-09,2026-01-09,オリーヘルス株式会社,,株式会社,東京都,港区,南青山７丁目４－１９－６０２,,13,103,1070062,,,,,,,2026-01-09,1,,,,,オリーヘルス,0
1455,6010401195597,新規,0,2026-01-09,2026-01-09,株式会社リセル,,株式会社,東京都,港区,新橋２丁目１６番１号,,13,103,1050004,,,,,,,2026-01-09,1,,,,,リセル,0
1456,6010401195606,新規,0,2026-01-09,2026-01-09,株式会社Ｊプロパティ,,株式会社,東京都,港区,高輪１丁目２３番２３号シティタワー高輪２４０７,,13,103,1080074,,,,,,,2026-01-09,1,,,,,ジェイプロパティ,0
1457,6010401195614,新規,0,2026-01-09,2026-01-09,株式会社ｎａｔｍａ,,株式会社,東京都,港区,南青山２丁目２番１５号ウィン青山９４２,,13,103,1070062,,,,,,,2026-01-09,1,,,,,ナトマ,0
1458,6010401195630,新規,0,2026-01-09,2026-01-09,株式会社Ｊｉｇｅｅ　Ｃｕｒｌｓ,,株式会社,東京都,港区,北青山１丁目３番１号アールキューブ青山３階,,13,103,1070061,,,,,,,2026-01-09,1,,,,,ジギーカールズ,0
1459,6010401195688,新規,0,2026-01-09,2026-01-09,株式会社ＳｉｄｅＭｉｒｒｏｒ,,株式会社,東京都,港区,海岸１丁目２番２０号汐留ビルディング３階,,13,103,1050022,,,,,,,2026-01-09,1,,,,,サイドミラー,0
1460,6010403036972,新規,0,2026-01-09,2026-01-09,合同会社ＣＲコンサルティング,,合同会社,東京都,港区,芝浦２丁目９－１－１００９,,13,103,1080023,,,,,,,2026-01-09,1,,,,,シーアールコンサルティング,0
1461,6010405025123,新規,0,2026-01-09,2026-01-09,一般社団法人ＲＯＬＥ　ＦＯＲ　ＡＬＬ,,その他の設立登記法人,東京都,港区,赤坂３丁目２１番１７号ＡＳＫ赤坂ビル７階,,13,103,1070052,,,,,,,2026-01-09,1,,,,,ロールフォーオール,0
1463,6010601068520,新規,0,2026-01-09,2026-01-09,ＧＥ　ｔｈｅｒａｎｏｓｔｉｃｓ株式会社,,株式会社,東京都,墨田区,錦糸３丁目２番１号アルカイースト９階,,13,107,1300013,,,,,,,2026-01-09,1,,,,,ジーイーセラノスティクス,0
1464,6010601068529,新規,0,2026-01-09,2026-01-09,ＩＭＧ株式会社,,株式会社,東京都,墨田区,太平１丁目２３番１７－３０１号ミワハイム,,13,107,1300012,,,,,,,2026-01-09,1,,,,,アイエムジー,0
1468,6010705003844,新規,0,2026-01-09,2026-01-09,税理士法人インフォランス,,その他の設立登記法人,東京都,品川区,東品川４丁目１２番６号品川シーサイドフォレストオーバルガーデン２階,,13,109,1400002,,,,,,,2026-01-09,1,,,,,インフォランス,0
1483,6011103016876,新規,0,2026-01-09,2026-01-09,合同会社ＣＬＡＶＩＸ,,合同会社,東京都,新宿区,西新宿１丁目２０番３号西新宿高木ビル８Ｆ,,13,104,1600023,,,,,,,2026-01-09,1,,,,,クラヴィックス,0
1484,6011201026884,新規,0,2026-01-09,2026-01-09,株式会社ＴＵＣ,,株式会社,東京都,中野区,中野５丁目６７番７号プラザ中野,,13,114,1640001,,,,,,,2026-01-09,1,,,,,ティーユーシー,0
1489,6011301031149,新規,0,2026-01-09,2026-01-09,ネクサスキャピタル株式会社,,株式会社,東京都,杉並区,清水３丁目２９番２１号,,13,115,1670033,,,,,,,2026-01-09,1,,,,,ネクサスキャピタル,0
1490,6011301031165,新規,0,2026-01-09,2026-01-09,ほうざわ労働衛生コンサルティング株式会社,,株式会社,東京都,杉並区,浜田山４丁目１６番４号,,13,115,1680065,,,,,,,2026-01-09,1,,,,,ホウザワロウドウエイセイコンサルティング,0
1493,6011401027708,新規,0,2026-01-09,2026-01-09,株式会社花菱加工,,株式会社,東京都,板橋区,板橋４丁目３０番８－４０５号,,13,119,1730004,,,,,,,2026-01-09,1,,,,,ハナビシカコウ,0
1494,6011401027716,新規,0,2026-01-09,2026-01-09,株式会社アンブレ・アーキテクツ,,株式会社,東京都,板橋区,板橋４丁目４７番７号ＩＦＬＡＴ１ａ,,13,119,1730004,,,,,,,2026-01-09,1,,,,,アンブレアーキテクツ,0
1496,6011501032995,新規,0,2026-01-09,2026-01-09,株式会社ポポロン,,株式会社,東京都,北区,滝野川５丁目２９番１号,,13,117,1140023,,,,,,,2026-01-09,1,,,,,ポポロン,0
1502,6011703004495,新規,0,2026-01-09,2026-01-09,江戸川ＯＡサービス合同会社,,合同会社,東京都,江戸川区,春江町３丁目１９番１号,,13,123,1320003,,,,,,,2026-01-09,1,,,,,エドガワオーエーサービス,0
1504,6011801047272,新規,0,2026-01-09,2026-01-09,株式会社サンウェル・プラス,,株式会社,東京都,足立区,伊興４丁目１１番６－２０９号,,13,121,1210823,,,,,,,2026-01-09,1,,,,,サンウェルプラス,0
1505,6011803007258,新規,0,2026-01-09,2026-01-09,合同会社ＨＯＰＥ,,合同会社,東京都,足立区,本木北町１６－２ｃｉｓｅ２０５,,13,121,1230857,,,,,,,2026-01-09,1,,,,,ホープ,0
1511,6012401043983,新規,0,2026-01-09,2026-01-09,株式会社ＣＺＳ,,株式会社,東京都,調布市,小島町２丁目５１番地２寿ビル２階,,13,208,1820026,,,,,,,2026-01-09,1,,,,,シーゼットエス,0
1515,6012703003438,新規,0,2026-01-09,2026-01-09,合同会社ＵＮＩＸ,,合同会社,東京都,小平市,花小金井５丁目１９番８－２号,,13,211,1870002,,,,,,,2026-01-09,1,,,,,ユニックス,0
1516,6012801024451,新規,0,2026-01-09,2026-01-09,株式会社金子工務店,,株式会社,東京都,昭島市,中神町２丁目３番１８号,,13,207,1960022,,,,,,,2026-01-09,1,,,,,カネココウムテン,0
1517,6012805003385,新規,0,2026-01-09,2026-01-09,一般社団法人日本シニアの為のダルクローズリトミック研究会,,その他の設立登記法人,東京都,立川市,柏町５丁目５番地の１国立音楽大学リトミック研究室内,,13,202,1900004,,,,,,,2026-01-09,1,,,,,ニホンシニアノタメノダルクローズリトミックケンキュウカイ,0
1521,6013301055549,新規,0,2026-01-09,2026-01-09,株式会社Ｈｏｍｉｅｙ　Ｃｏｍｐａｎｙ,,株式会社,東京都,豊島区,東池袋３丁目１－１サンシャインシティ６０－４５階,,13,116,1700013,,,,,,,2026-01-09,1,,,,,ホーミーカンパニー,0
1522,6013301055581,新規,0,2026-01-09,2026-01-09,タスリンク株式会社,,株式会社,東京都,豊島区,南大塚３丁目１０番１０号,,13,116,1700005,,,,,,,2026-01-09,1,,,,,タスリンク,0
1526,6020003030103,新規,0,2026-01-09,2026-01-09,合同会社リヒサミ,,合同会社,神奈川県,川崎市麻生区,栗木２８３番地１,,14,137,2150033,,,,,,,2026-01-09,1,,,,,リヒサミ,0
1527,6020003030111,新規,0,2026-01-09,2026-01-09,ルジャルダン合同会社,,合同会社,神奈川県,横浜市栄区,飯島町８１２番地９,,14,115,2440842,,,,,,,2026-01-09,1,,,,,ルジャルダン,0
1528,6021001087184,新規,0,2026-01-09,2026-01-09,古川ホールディングス株式会社,,株式会社,神奈川県,小田原市,寿町１丁目２番３２号,,14,206,2500002,,,,,,,2026-01-09,1,,,,,フルカワホールディングス,0
1529,6021003016975,新規,0,2026-01-09,2026-01-09,ＫＴ６合同会社,,合同会社,神奈川県,相模原市南区,上鶴間本町３丁目９番１０－２０６号,,14,153,2520318,,,,,,,2026-01-09,1,,,,,ケイティシックス,0
1532,6030001170420,新規,0,2026-01-09,2026-01-09,株式会社リリーフメンテナンス,,株式会社,埼玉県,所沢市,日吉町２７番１号,,11,208,3591123,,,,,,,2026-01-09,1,,,,,リリーフメンテナンス,0
1533,6030001170445,新規,0,2026-01-09,2026-01-09,株式会社エスプライズ,,株式会社,埼玉県,川口市,大字榛松５９１－３,,11,203,3340062,,,,,,,2026-01-09,1,,,,,エスプライズ,0
1534,6030001170453,新規,0,2026-01-09,2026-01-09,ＴｅｃｈＬａｎｄ株式会社,,株式会社,埼玉県,戸田市,新曽南３丁目６番２５－３０９号,,11,224,3350026,,,,,,,2026-01-09,1,,,,,テックランド,0
1535,6030001170461,新規,0,2026-01-09,2026-01-09,株式会社Ａｅｔｈｅｒａ,,株式会社,埼玉県,さいたま市浦和区,岸町６丁目６番２号,,11,107,3300064,,,,,,,2026-01-09,1,,,,,エセラ,0
1537,6030005022386,新規,0,2026-01-09,2026-01-09,特定非営利活動法人Ｔｅａｍにゃんず,,その他の設立登記法人,埼玉県,八潮市,中央３丁目２４番地９,,11,234,3400816,,,,,,,2026-01-09,1,,,,,チームニャンズ,0
1547,6050005013747,新規,0,2026-01-09,2026-01-09,一般社団法人ＫｙｏＬｉｎｋ,,その他の設立登記法人,茨城県,つくば市,千現２丁目１番地６,,08,220,3050047,,,,,,,2026-01-09,1,,,,,キョーリンク,0
1548,6060003005910,新規,0,2026-01-09,2026-01-09,ｈｏｍｅｌｉｎｋ合同会社,,合同会社,栃木県,大田原市,薄葉１７７６番地２,,09,210,3240035,,,,,,,2026-01-09,1,,,,,ホームリンク,0
1551,6070003006239,新規,0,2026-01-09,2026-01-09,合同会社サニーシェア,,合同会社,群馬県,高崎市,八幡町６７番１４,,10,202,3700884,,,,,,,2026-01-09,1,,,,,サニーシェア,0
1555,6080101026006,新規,0,2026-01-09,2026-01-09,株式会社ＡｔａｍｉＳｕｐ,,株式会社,静岡県,熱海市,田原本町１番１２号ゼファー熱海シーヒルズ２０１,,22,205,4130011,,,,,,,2026-01-09,1,,,,,アタミサップ,0
1558,6080401028370,新規,0,2026-01-09,2026-01-09,株式会社ファイナンシャルキャリアパートナーズ,,株式会社,静岡県,浜松市中央区,鍛冶町１００番地の１ザザシティ浜松中央館Ｂ１Ｆ,,22,138,4300933,,,,,,,2026-01-09,1,,,,,ファイナンシャルキャリアパートナーズ,0
1560,6100003008545,新規,0,2026-01-09,2026-01-09,合同会社ＬＩＦＥ,,合同会社,長野県,塩尻市,大門桔梗町１５番地１４,,20,215,3990745,,,,,,,2026-01-09,1,,,,,ライフ,0
1564,6110001039830,新規,0,2026-01-09,2026-01-09,株式会社第一食堂,,株式会社,新潟県,新潟市北区,早通南１丁目４番７号,,15,101,9503375,,,,,,,2026-01-09,1,,,,,ダイイチショクドウ,0
1565,6110001039839,新規,0,2026-01-09,2026-01-09,Ｋ‐Ｔａｐｓ株式会社,,株式会社,新潟県,新潟市北区,太田甲２２３６番地２,,15,101,9503313,,,,,,,2026-01-09,1,,,,,ケータップス,0
1576,6120001283221,新規,0,2026-01-09,2026-01-09,株式会社ＣｏＡＭｏ,,株式会社,大阪府,大阪市西区,新町４丁目１番１４号,,27,106,5500013,,,,,,,2026-01-09,1,,,,,コアモ,0
1577,6120001283238,新規,0,2026-01-09,2026-01-09,株式会社犬猫,,株式会社,大阪府,大阪市東淀川区,淡路５丁目１９番４号,,27,114,5330032,,,,,,,2026-01-09,1,,,,,イヌネコ,0
1578,6120001283270,新規,0,2026-01-09,2026-01-09,１０１０株式会社,,株式会社,大阪府,大阪市生野区,巽中１丁目８番３号ヤマシタビル２０３,,27,116,5440013,,,,,,,2026-01-09,1,,,,,テンテン,0
1579,6120001283279,新規,0,2026-01-09,2026-01-09,株式会社Ｈ．Ｍ．Ｋ,,株式会社,大阪府,大阪市都島区,東野田町３丁目２番１５号,,27,102,5340024,,,,,,,2026-01-09,1,,,,,エイチエムケー,0
1580,6120001283337,新規,0,2026-01-09,2026-01-09,株式会社ｓＸａｒｓ,,株式会社,大阪府,大阪市北区,大深町６番３８号グラングリーン大阪北館ＪＡＭＢＡＳＥ４階ＪＡＭ－ＳＴＵＤＩＯ４０８号室,,27,127,5300011,,,,,,,2026-01-09,1,,,,,シクサーズ,0
1583,6120003031628,新規,0,2026-01-09,2026-01-09,クヴァレ合同会社,,合同会社,大阪府,大阪市西区,南堀江１丁目１４番１２号６０１,,27,106,5500015,,,,,,,2026-01-09,1,,,,,クヴァレ,0
1584,6120003031636,新規,0,2026-01-09,2026-01-09,ケイシス合同会社,,合同会社,大阪府,門真市,幸福町２６番６号,,27,223,5710066,,,,,,,2026-01-09,1,,,,,ケイシス,0
1586,6120005025330,新規,0,2026-01-09,2026-01-09,一般社団法人日本スタジアムＤＪ協会,,その他の設立登記法人,大阪府,大阪市中央区,南船場１丁目４－２８スコ－レ２１南船場１Ｆ,,27,128,5420081,,,,,,,2026-01-09,1,,,,,ニホンスタジアムディージェイキョウカイ,0
1587,6120005025339,新規,0,2026-01-09,2026-01-09,特定非営利活動法人Ｃａｓａ,,その他の設立登記法人,大阪府,大阪市西区,南堀江２丁目９番２８号川喜金物株式会社ビル１Ｆ,,27,106,5500015,,,,,,,2026-01-09,1,,,,,カーサ,0
1588,6120101073027,新規,0,2026-01-09,2026-01-09,株式会社ＩｃｈｉＲｙｏ,,株式会社,大阪府,南河内郡河南町,大字東山６６９番地の２,,27,382,5850001,,,,,,,2026-01-09,1,,,,,イチリョウ,0
1589,6120101073035,新規,0,2026-01-09,2026-01-09,株式会社Ｋｅｙｓ,,株式会社,大阪府,堺市西区,鳳西町１丁７３番地９,,27,144,5938326,,,,,,,2026-01-09,1,,,,,キーズ,0
1590,6120101073043,新規,0,2026-01-09,2026-01-09,株式会社ふうみどう,,株式会社,大阪府,松原市,立部１丁目４番２８号,,27,217,5800012,,,,,,,2026-01-09,1,,,,,フウミドウ,0
1591,6120103006926,新規,0,2026-01-09,2026-01-09,合同会社３０３,,合同会社,大阪府,河内長野市,喜多町５４番地の３,,27,216,5860033,,,,,,,2026-01-09,1,,,,,サンマルサン,0
1594,6120901052072,新規,0,2026-01-09,2026-01-09,株式会社ルクス,,株式会社,大阪府,豊中市,新千里西町２丁目３－４リラフォート千里中央３１１号,,27,203,5600083,,,,,,,2026-01-09,1,,,,,ルクス,0
1599,6130001081327,新規,0,2026-01-09,2026-01-09,Ａ　ＺＥＲＯ株式会社,,株式会社,京都府,八幡市,上奈良宮ノ東２番地８,,26,210,6148161,,,,,,,2026-01-09,1,,,,,エーゼロ,0
1607,6140001141278,新規,0,2026-01-09,2026-01-09,株式会社白谷林業,,株式会社,兵庫県,宍粟市,山崎町上ノ１００４番地１,,28,227,6712501,,,,,,,2026-01-09,1,,,,,シラタニリンギョウ,0
1608,6140001141303,新規,0,2026-01-09,2026-01-09,株式会社ナグラーザ,,株式会社,兵庫県,丹波市,柏原町柏原２６７５－１,,28,223,6693309,,,,,,,2026-01-09,1,,,,,ナグラーザ,0
1609,6140001141328,新規,0,2026-01-09,2026-01-09,株式会社ＤＥＮ　ＤＥＳＩＧＮ,,株式会社,兵庫県,姫路市,香寺町土師西狭間１１８７,,28,201,6792163,,,,,,,2026-01-09,1,,,,,デンデザイン,0
1611,6140003023020,新規,0,2026-01-09,2026-01-09,明石マリンサービス合同会社,,合同会社,兵庫県,明石市,魚住町西岡２３１１－１チェリーウェル１０２,,28,203,6740084,,,,,,,2026-01-09,1,,,,,アカシマリンサービス,0
1612,6140003023053,新規,0,2026-01-09,2026-01-09,合同会社ネクスタ,,合同会社,兵庫県,神戸市西区,狩場台１丁目３０番地の４７,,28,111,6512272,,,,,,,2026-01-09,1,,,,,ネクスタ,0
1614,6150001028623,新規,0,2026-01-09,2026-01-09,株式会社レッツテニス,,株式会社,奈良県,奈良市,東登美ヶ丘４丁目２３番４号,,29,201,6310002,,,,,,,2026-01-09,1,,,,,レッツテニス,0
1615,6150001028631,新規,0,2026-01-09,2026-01-09,株式会社グランディール,,株式会社,奈良県,大和高田市,大字市場３８４番地１,,29,202,6350074,,,,,,,2026-01-09,1,,,,,グランディール,0
1616,6150003003797,新規,0,2026-01-09,2026-01-09,サングリエ合同会社,,合同会社,奈良県,奈良市,丸山１丁目１０７９番地の２２５,,29,201,6310056,,,,,,,2026-01-09,1,,,,,サングリエ,0
1618,6160001027335,新規,0,2026-01-09,2026-01-09,株式会社ベゼル,,株式会社,滋賀県,長浜市,西上坂町２９３番地１,,25,203,5260803,,,,,,,2026-01-09,1,,,,,ベゼル,0
1620,6170003002368,新規,0,2026-01-09,2026-01-09,合同会社和州,,合同会社,和歌山県,和歌山市,森小手穂６１９番地９,,30,201,6408312,,,,,,,2026-01-09,1,,,,,ワシュウ,0
1625,6180001170158,新規,0,2026-01-09,2026-01-09,株式会社ＣＯＲＥＸ,,株式会社,愛知県,名古屋市守山区,新守山１８０９番地,,23,113,4630070,,,,,,,2026-01-09,1,,,,,コアエックス,0
1626,6180001170174,新規,0,2026-01-09,2026-01-09,株式会社蕎麦島,,株式会社,愛知県,名古屋市中区,栄３丁目９番２２号,,23,106,4600008,,,,,,,2026-01-09,1,,,,,ソバジマ,0
1627,6180001170190,新規,0,2026-01-09,2026-01-09,株式会社ｄｒｅｓｓ　ｕｐ,,株式会社,愛知県,名古屋市守山区,元郷１丁目９０７番地－Ｂ,,23,113,4630025,,,,,,,2026-01-09,1,,,,,ドレスアップ,0
1628,6180001170208,新規,0,2026-01-09,2026-01-09,ＮＢＩ株式会社,,株式会社,愛知県,常滑市,住吉町１丁目１２３番地,,23,216,4790864,,,,,,,2026-01-09,1,,,,,エヌビーアイ,0
1629,6180005021381,新規,0,2026-01-09,2026-01-09,一般社団法人Ｄｅｌｉｇｈｔ,,その他の設立登記法人,愛知県,春日井市,惣中町２丁目７４番地１,,23,206,4860949,,,,,,,2026-01-09,1,,,,,ディライト,0
1631,6180301040548,新規,0,2026-01-09,2026-01-09,株式会社Ｏ’ｓ,,株式会社,愛知県,豊田市,大島町豊９０番地１,,23,211,4730935,,,,,,,2026-01-09,1,,,,,オズ,0
1632,6180301040572,新規,0,2026-01-09,2026-01-09,株式会社こうどう,,株式会社,愛知県,額田郡幸田町,大字大草字北川後２１番地３,,23,501,4440103,,,,,,,2026-01-09,1,,,,,コウドウ,0
1633,6180301040580,新規,0,2026-01-09,2026-01-09,株式会社光重水産,,株式会社,愛知県,安城市,朝日町２５番１６号,,23,212,4460031,,,,,,,2026-01-09,1,,,,,ミツシゲスイサン,0
1635,6190001032811,新規,0,2026-01-09,2026-01-09,Ｓｍｇ株式会社,,株式会社,三重県,四日市市,広永町９１４番地２２２,,24,202,5128061,,,,,,,2026-01-09,1,,,,,エスエムジー,0
1638,6200001044607,新規,0,2026-01-09,2026-01-09,株式会社アシナオート,,株式会社,岐阜県,羽島市,上中町沖１９４４番地１,,21,209,5016318,,,,,,,2026-01-09,1,,,,,アシナオート,0
1654,6240001065995,新規,0,2026-01-09,2026-01-09,株式会社スリジエ,,株式会社,広島県,福山市,新涯町４丁目２５番２１号,,34,207,7210955,,,,,,,2026-01-09,1,,,,,スリジエ,0
1655,6240001066028,新規,0,2026-01-09,2026-01-09,株式会社ＷＯＮＤＥＲＷＡＬＬ,,株式会社,広島県,安芸郡熊野町,呉地１丁目７番１８号,,34,307,7314222,,,,,,,2026-01-09,1,,,,,ワンダーウォール,0
1656,6240001066036,新規,0,2026-01-09,2026-01-09,株式会社ＥＮｖｉｓｉｏｎ,,株式会社,広島県,広島市中区,銀山町３番１号ひろしまハイビル２１・１６Ｆ,,34,101,7300022,,,,,,,2026-01-09,1,,,,,エンビジョン,0
1659,6240005016029,新規,0,2026-01-09,2026-01-09,一般社団法人中国クラブユースサッカー連盟,,その他の設立登記法人,広島県,広島市安芸区,矢野南４丁目１６番３号,,34,107,7360086,,,,,,,2026-01-09,1,,,,,チュウゴククラブユースサッカーレンメイ,0
1664,6260001040864,新規,0,2026-01-09,2026-01-09,株式会社吉本建築,,株式会社,岡山県,倉敷市,片島町５４６番地,,33,202,7100805,,,,,,,2026-01-09,1,,,,,ヨシモトケンチク,0
1665,6260001040889,新規,0,2026-01-09,2026-01-09,参拾舎株式会社,,株式会社,岡山県,倉敷市,藤戸町天城１８１５番地２,,33,202,7100132,,,,,,,2026-01-09,1,,,,,サントーシャ,0
1682,6290801032174,新規,0,2026-01-09,2026-01-09,株式会社オールブルー,,株式会社,福岡県,田川市,大字夏吉１９６番地３３,,40,206,8250004,,,,,,,2026-01-09,1,,,,,オールブルー,0
1684,6300001014467,新規,0,2026-01-09,2026-01-09,株式会社ＦＤｏｎｅ,,株式会社,佐賀県,神埼市,千代田町下板２１１番地８,,41,210,8420068,,,,,,,2026-01-09,1,,,,,エフディーワン,0
1685,6310005008885,新規,0,2026-01-09,2026-01-09,一般社団法人南島原市地域クラブサポートセンター,,その他の設立登記法人,長崎県,南島原市,南有馬町乙１０２３番地,,42,214,8592412,,,,,,,2026-01-09,1,,,,,ミナミシマバラシチイキクラブサポートセンター,0
1687,6330001033902,新規,0,2026-01-09,2026-01-09,麺ゃ白鈴株式会社,,株式会社,熊本県,菊池郡菊陽町,大字原水１１５９番地５菊陽町役場西テナント１０１,,43,404,8691102,,,,,,,2026-01-09,1,,,,,メンヤハクリン,0
1688,6330003011393,新規,0,2026-01-09,2026-01-09,合同会社かおりカンパニー,,合同会社,熊本県,熊本市中央区,下通２丁目５番１０号,,43,101,8600807,,,,,,,2026-01-09,1,,,,,カオリカンパニー,0
1691,6350003005113,新規,0,2026-01-09,2026-01-09,合同会社ＢＩＡＮＣＡ,,合同会社,宮崎県,宮崎市,小松台南町１３－２,,45,201,8800956,,,,,,,2026-01-09,1,,,,,ビアンカ,0
1692,6360001036233,新規,0,2026-01-09,2026-01-09,株式会社Ｒｏｏｔｓ　Ｒｉｓｅ,,株式会社,沖縄県,那覇市,おもろまち４丁目７番８号,,47,201,9000006,,,,,,,2026-01-09,1,,,,,ルーツライズ,0
1694,6360005007346,新規,0,2026-01-09,2026-01-09,一般社団法人Ｆｒｅｓｈ　Ｉｘｉａ,,その他の設立登記法人,沖縄県,うるま市,勝連南風原１５１番地,,47,213,9042311,,,,,,,2026-01-09,1,,,,,フレッシュイクシャ,0
1696,6370001053376,新規,0,2026-01-09,2026-01-09,株式会社妻ノ神,,株式会社,宮城県,登米市,迫町新田字飯島９番地,,04,212,9894601,,,,,,,2026-01-09,1,,,,,サイノカミ,0
1697,6370001053384,新規,0,2026-01-09,2026-01-09,株式会社総栄,,株式会社,宮城県,大崎市,古川福沼２丁目３番２号,,04,215,9896105,,,,,,,2026-01-09,1,,,,,ソウエイ,0
1701,6380001035794,新規,0,2026-01-09,2026-01-09,株式会社ＭＡＲＵＣＨＯ　ＦＡＲＭ,,株式会社,福島県,伊達市,月舘町御代田字飯森５４番地,,07,213,9600906,,,,,,,2026-01-09,1,,,,,マルチョウファーム,0
1702,6390001018212,新規,0,2026-01-09,2026-01-09,株式会社上林板金,,株式会社,山形県,東田川郡庄内町,狩川字大釜８６番地２,,06,428,9996601,,,,,,,2026-01-09,1,,,,,カンバヤシバンキン,0
1705,6410001014365,新規,0,2026-01-09,2026-01-09,株式会社山本工務店,,株式会社,秋田県,鹿角市,花輪字荒屋布５７番地１,,05,209,0185201,,,,,,,2026-01-09,1,,,,,ヤマモトコウムテン,0
1706,6410003004199,新規,0,2026-01-09,2026-01-09,合同会社サイトウアグリファーム,,合同会社,秋田県,横手市,十文字町睦合字館前４４番地,,05,203,0190514,,,,,,,2026-01-09,1,,,,,サイトウアグリファーム,0
1707,6420001019388,新規,0,2026-01-09,2026-01-09,株式会社芽生住設,,株式会社,青森県,上北郡おいらせ町,下明堂４７番地３６,,02,412,0392224,,,,,,,2026-01-09,1,,,,,メグミジュウセツ,0
1710,6430001095916,新規,0,2026-01-09,2026-01-09,株式会社いまい不動産,,株式会社,北海道,千歳市,みどり台北２丁目５番１５号,,01,224,0660083,,,,,,,2026-01-09,1,,,,,イマイフドウサン,0
1711,6430001095998,新規,0,2026-01-09,2026-01-09,株式会社Ｕ　ＬＩＦＥ　Ｌａｂｓ,,株式会社,北海道,札幌市中央区,北四条西２３丁目１番５号,,01,101,0640824,,,,,,,2026-01-09,1,,,,,ユーライフラボ,0
1715,6460001006060,新規,0,2026-01-09,2026-01-09,株式会社Ｈａｐｐｉｎｅｓｓ　Ｄｒｅａｍｓ,,株式会社,北海道,釧路市,若草町６番１０号,,01,206,0850042,,,,,,,2026-01-09,1,,,,,ハッピネスドリームズ,0
1717,6470001021042,新規,0,2026-01-09,2026-01-09,株式会社ＣＯＲＥ,,株式会社,香川県,善通寺市,金蔵寺町１８０番地,,37,204,7650031,,,,,,,2026-01-09,1,,,,,コア,0
1724,6500001026715,新規,0,2026-01-09,2026-01-09,株式会社澪つくしひめ,,株式会社,愛媛県,大洲市,新谷甲１９９０番地,,38,207,7950072,,,,,,,2026-01-09,1,,,,,ミオツクシヒメ,0
1725,6700150133886,新規,0,2026-01-09,2026-01-09,ｓｈｅｎｚｈｅｎｍｉｓｉｍｉｋｅｊｉｙｏｕｘｉａｎｇｏｎｇｓｉ,,外国会社等,,,,,,,,ｓｈｅｎｚｈｅｎｓｈｉ　ｂａｏａｎｑｕ　ｘｉｘｉａｎｇｊｉｅｄａｏ　ｇｏｎｇｌｅｓｈｅｑｕ　ｆｅｎｇｈｅｙｕａｎ４０６,,,,,,2026-01-09,1,,,,,シンセンミシミカギユウゲンコウシ,0
1729,7010001261740,新規,0,2026-01-09,2026-01-09,株式会社ＲＯＵ,,株式会社,東京都,中央区,明石町１番３１号,,13,102,1040044,,,,,,,2026-01-09,1,,,,,ロウ,0
1740,7010005041156,新規,0,2026-01-09,2026-01-09,一般社団法人不動産有料引取業協議会,,その他の設立登記法人,東京都,千代田区,九段北４丁目３番２６号Ｎ－ｃｒｏｓｓＫＵＤＡＮ６階,,13,101,1020073,,,,,,,2026-01-09,1,,,,,フドウサンユウリョウヒキトリギョウキョウギカイ,0
1741,7010005041180,新規,0,2026-01-09,2026-01-09,一般社団法人日本オフィス学会,,その他の設立登記法人,東京都,中央区,日本橋人形町１丁目１２番１１号リガーレ日本橋人形町２Ｆ,,13,102,1030013,,,,,,,2026-01-09,1,,,,,ニホンオフィスガッカイ,0
1742,7010005041214,新規,0,2026-01-09,2026-01-09,一般社団法人サポートホールディングス４９号,,その他の設立登記法人,東京都,千代田区,丸の内１丁目４番１号東京共同会計事務所内,,13,101,1000005,,,,,,,2026-01-09,1,,,,,サポートホールディングスヨンジュウキュウゴウ,0
1751,7010401195489,新規,0,2026-01-09,2026-01-09,株式会社Ｌｅｔｉｅｒ,,株式会社,東京都,港区,南青山４丁目１８番３－１０６号,,13,103,1070062,,,,,,,2026-01-09,1,,,,,リティア,0
1752,7010401195555,新規,0,2026-01-09,2026-01-09,株式会社Ｗｉｉｉｎｚ,,株式会社,東京都,港区,北青山１丁目３番１号アールキューブ青山３階,,13,103,1070061,,,,,,,2026-01-09,1,,,,,,0
1753,7010401195571,新規,0,2026-01-09,2026-01-09,株式会社スマレジュ,,株式会社,東京都,港区,南青山３丁目１番３６号青山丸竹ビル６Ｆ,,13,103,1070062,,,,,,,2026-01-09,1,,,,,スマレジュ,0
1754,7010401195596,新規,0,2026-01-09,2026-01-09,株式会社アドラフ,,株式会社,東京都,港区,北青山１丁目３－３三橋ビル３階,,13,103,1070061,,,,,,,2026-01-09,1,,,,,アドラフ,0
1755,7010401195605,新規,0,2026-01-09,2026-01-09,株式会社サンダーズ＆マーヴェラス,,株式会社,東京都,港区,虎ノ門４丁目１番１号,,13,103,1050001,,,,,,,2026-01-09,1,,,,,サンダーズアンドマーヴェラス,0
1756,7010401195621,新規,0,2026-01-09,2026-01-09,株式会社Ｃｉｒｃｌｅ９,,株式会社,東京都,港区,赤坂５丁目２番２０号,,13,103,1070052,,,,,,,2026-01-09,1,,,,,サークルナイン,0
1757,7010401195662,新規,0,2026-01-09,2026-01-09,株式会社ＫＨＱ,,株式会社,東京都,港区,麻布十番１丁目７番１０号,,13,103,1060045,,,,,,,2026-01-09,1,,,,,ケーエイチキュー,0
1759,7010403036947,新規,0,2026-01-09,2026-01-09,合同会社オフィスエム,,合同会社,東京都,港区,六本木５丁目１３番１９号１１０,,13,103,1060032,,,,,,,2026-01-09,1,,,,,オフィスエム,0
1760,7010403037012,新規,0,2026-01-09,2026-01-09,合同会社トウキョウ・ステーション・サウス,,合同会社,東京都,港区,虎ノ門３丁目２２番１０－２０１号,,13,103,1050001,,,,,,,2026-01-09,1,,,,,トウキョウステーションサウス,0
1761,7010403037020,新規,0,2026-01-09,2026-01-09,合同会社ＭＲＦ２号,,合同会社,東京都,港区,虎ノ門５丁目１番４号,,13,103,1050001,,,,,,,2026-01-09,1,,,,,エムアールエフニゴウ,0
1764,7010405025213,新規,0,2026-01-09,2026-01-09,一般社団法人日本教育工学協会,,その他の設立登記法人,東京都,港区,虎ノ門２丁目１０番１号虎ノ門ツインビルディング,,13,103,1050001,,,,,,,2026-01-09,1,,,,,ニホンキョウイクコウガクキョウカイ,0
1767,7010601068528,新規,0,2026-01-09,2026-01-09,株式会社Ｓｕｎｓｅｔ,,株式会社,東京都,江東区,亀戸１丁目１６番８－１００３号亀戸パークハイツ,,13,108,1360071,,,,,,,2026-01-09,1,,,,,サンセット,0
1769,7010603012005,新規,0,2026-01-09,2026-01-09,合同会社にっこ,,合同会社,東京都,江東区,清澄３丁目４番２０ＦＲＡＭＥ１０２,,13,108,1350024,,,,,,,2026-01-09,1,,,,,ニッコ,0
1777,7010703008076,新規,0,2026-01-09,2026-01-09,合同会社ルナ・セラピューティクス,,合同会社,東京都,品川区,東五反田５丁目２２番３３号２階,,13,109,1410022,,,,,,,2026-01-09,1,,,,,ルナセラピューティクス,0
1793,7011001174759,新規,0,2026-01-09,2026-01-09,株式会社ＺＵＵＹ,,株式会社,東京都,目黒区,八雲３丁目１７番２０号,,13,110,1520023,,,,,,,2026-01-09,1,,,,,ズーイ,0
1794,7011001174882,新規,0,2026-01-09,2026-01-09,株式会社モリモリエージェンシー,,株式会社,東京都,目黒区,東山２丁目１３－５オープンレジデンシア目黒東山４０４号,,13,110,1530043,,,,,,,2026-01-09,1,,,,,モリモリエージェンシー,0
1811,7011101114326,新規,0,2026-01-09,2026-01-09,株式会社スターテニスホールディングス,,株式会社,東京都,新宿区,上落合３丁目１２番２号,,13,104,1610034,,,,,,,2026-01-09,1,,,,,スターテニスホールディングス,0
1812,7011101114342,新規,0,2026-01-09,2026-01-09,株式会社シャルムリラ,,株式会社,東京都,新宿区,西新宿３丁目３番１３号西新宿水間ビル６階,,13,104,1600023,,,,,,,2026-01-09,1,,,,,シャルムリラ,0
1813,7011101114359,新規,0,2026-01-09,2026-01-09,株式会社ｙｕｊａｋｕ,,株式会社,東京都,新宿区,西新宿３丁目３番１３号西新宿水間ビル６階,,13,104,1600023,,,,,,,2026-01-09,1,,,,,ユウジャク,0
1814,7011201026883,新規,0,2026-01-09,2026-01-09,株式会社がむしゃら,,株式会社,東京都,中野区,本町４丁目３１番１号,,13,114,1640012,,,,,,,2026-01-09,1,,,,,ガムシャラ,0
1816,7011301031164,新規,0,2026-01-09,2026-01-09,株式会社Ｓ．Ｄ．コーポレーション,,株式会社,東京都,杉並区,高円寺北２丁目２０番４号,,13,115,1660002,,,,,,,2026-01-09,1,,,,,エスディコーポレーション,0
1819,7011303005819,新規,0,2026-01-09,2026-01-09,合同会社ＫＭＳメディカルサポート,,合同会社,東京都,杉並区,荻窪３丁目１９番７号,,13,115,1670051,,,,,,,2026-01-09,1,,,,,ケーエムエスメディカルサポート,0
1820,7011501032986,新規,0,2026-01-09,2026-01-09,株式会社ＬＴＮ,,株式会社,東京都,荒川区,町屋５丁目７番２号コーポラスホワイト１階,,13,118,1160001,,,,,,,2026-01-09,1,,,,,エルティーエヌ,0
1825,7011603004974,新規,0,2026-01-09,2026-01-09,合同会社ｉｍｍｅｒｓａ,,合同会社,東京都,練馬区,関町北２丁目３２－２スピードスターハウスＩＩ３０１号室,00142106,13,120,1770051,,,,,,,2026-01-09,1,,,,,イマーサ,0
1826,7011701029072,新規,0,2026-01-09,2026-01-09,Ｎｅｗ　Ａｘｉｓ　Ｏｒｔｈｏ株式会社,,株式会社,東京都,江戸川区,南葛西６丁目６番１５号,,13,123,1340085,,,,,,,2026-01-09,1,,,,,ニューアクシスオーソ,0
1827,7011703004494,新規,0,2026-01-09,2026-01-09,合同会社ＨＡＲＵ,,合同会社,東京都,江戸川区,江戸川４丁目４番９号４０３号室,,13,123,1340013,,,,,,,2026-01-09,1,,,,,ハル,0
1829,7012303002269,新規,0,2026-01-09,2026-01-09,合同会社Ｋ‐ＦＯＲＣＥ,,合同会社,東京都,町田市,小山町１１３９番地コンフォール１０２,,13,209,1940212,,,,,,,2026-01-09,1,,,,,ケーホース,0
1838,7013303008041,新規,0,2026-01-09,2026-01-09,合同会社ポリトンワークス,,合同会社,東京都,豊島区,西池袋３丁目１５番３－１０５号,,13,116,1710021,,,,,,,2026-01-09,1,,,,,ポリトンワークス,0
1844,7020001166550,新規,0,2026-01-09,2026-01-09,株式会社サンアシスト,,株式会社,神奈川県,横浜市金沢区,富岡東６丁目３３番１－３０１号,,14,108,2360051,,,,,,,2026-01-09,1,,,,,サンアシスト,0
1845,7020001166559,新規,0,2026-01-09,2026-01-09,株式会社ディライトフィールド,,株式会社,神奈川県,横浜市都筑区,川和町２３１９番地１２ドルチェカーサ川和町Ｂ―１０２,,14,118,2240057,,,,,,,2026-01-09,1,,,,,ディライトフィールド,0
1850,7020003030102,新規,0,2026-01-09,2026-01-09,Ｄｉｇｉｔａｌ　ＭＡＴＳＵＭＯＴＯ　ｌａｂ合同会社,,合同会社,神奈川県,横浜市南区,大岡１丁目１７―２４ウォーターリリー３０１,,14,105,2320061,,,,,,,2026-01-09,1,,,,,デジタルマツモトラボ,0
1853,7021001087175,新規,0,2026-01-09,2026-01-09,株式会社Ｙｏｕ＆Ｗｅ,,株式会社,神奈川県,厚木市,愛甲３丁目３番１９号,,14,212,2430035,,,,,,,2026-01-09,1,,,,,ユーアンドウィー,0
1854,7021001087183,新規,0,2026-01-09,2026-01-09,株式会社トミーオ,,株式会社,神奈川県,南足柄市,塚原３３５４番地２ザ・リバーサイドハイツ２０３,,14,217,2500117,,,,,,,2026-01-09,1,,,,,トミーオ,0
1855,7021001087274,新規,0,2026-01-09,2026-01-09,株式会社ＮＥＶＥＲＩＮ,,株式会社,神奈川県,藤沢市,鵠沼松が岡１丁目２０―２,,14,205,2510038,,,,,,,2026-01-09,1,,,,,ネバーイン,0
1859,7021003016974,新規,0,2026-01-09,2026-01-09,ＮＯＲＩ　Ｌａｂｏ合同会社,,合同会社,神奈川県,鎌倉市,坂ノ下２７－１２ラヴァンス鎌倉４１３号室,,14,204,2480021,,,,,,,2026-01-09,1,,,,,ノリラボ,0
1860,7021003017007,新規,0,2026-01-09,2026-01-09,Ｐａｒｄａｌｏｓ　Ｌａｂ．合同会社,,合同会社,神奈川県,伊勢原市,板戸１４７番地の７,,14,214,2591145,,,,,,,2026-01-09,1,,,,,パダロスラボ,0
1864,7030001170378,新規,0,2026-01-09,2026-01-09,株式会社大誠建拓,,株式会社,埼玉県,さいたま市見沼区,染谷１丁目２５８番地,,11,104,3370026,,,,,,,2026-01-09,1,,,,,,0
1865,7030001170460,新規,0,2026-01-09,2026-01-09,株式会社Ｂｒｅｅｚｅ,,株式会社,埼玉県,さいたま市浦和区,岸町６丁目６番２号,,11,107,3300064,,,,,,,2026-01-09,1,,,,,ブリーズ,0
1866,7030001170469,新規,0,2026-01-09,2026-01-09,株式会社澤姫,,株式会社,埼玉県,日高市,大字高萩３８番地１１,,11,242,3501213,,,,,,,2026-01-09,1,,,,,サワキ,0
1867,7030001170477,新規,0,2026-01-09,2026-01-09,アトゥーンサーモ株式会社,,株式会社,埼玉県,さいたま市見沼区,大字南中野３９５番地１－Ａ３０３,,11,104,3370042,,,,,,,2026-01-09,1,,,,,アトゥーンサーモ,0
1869,7030003028401,新規,0,2026-01-09,2026-01-09,合同会社コスモスクエア,,合同会社,埼玉県,川口市,大字安行領家２７０番地,,11,203,3340058,,,,,,,2026-01-09,1,,,,,コスモスクエア,0
1870,7030005022385,新規,0,2026-01-09,2026-01-09,一般社団法人いきいきライフ協会浦和原山,,その他の設立登記法人,埼玉県,さいたま市緑区,原山４丁目１３番３号コスモ浦和原山センターウイング３０２,,11,109,3360931,,,,,,,2026-01-09,1,,,,,イキイキライフキョウカイウラワハラヤマ,0
1883,7050003009829,新規,0,2026-01-09,2026-01-09,合同会社十色,,合同会社,茨城県,鉾田市,大竹１９１７番地４７,,08,234,3111513,,,,,,,2026-01-09,1,,,,,トイロ,0
1891,7070001043712,新規,0,2026-01-09,2026-01-09,株式会社にゃんこカンパニー,,株式会社,群馬県,前橋市,千代田町２丁目１０番２号,,10,201,3710022,,,,,,,2026-01-09,1,,,,,ニャンコカンパニー,0
1893,7080101026005,新規,0,2026-01-09,2026-01-09,株式会社フジウォールデコレーション,,株式会社,静岡県,富士市,原田１３００番地の１,,22,210,4170852,,,,,,,2026-01-09,1,,,,,フジウォールデコレーション,0
1900,7100003008552,新規,0,2026-01-09,2026-01-09,合同会社ラブちゃん,,合同会社,長野県,北佐久郡御代田町,大字御代田２６５９番地１,,20,323,3890206,,,,,,,2026-01-09,1,,,,,ラブチャン,0
1901,7100003008560,新規,0,2026-01-09,2026-01-09,合同会社りはすたぁと,,合同会社,長野県,松本市,大字里山辺４２６３番地６,,20,202,3900221,,,,,,,2026-01-09,1,,,,,リハスタァト,0
1904,7110003006010,新規,0,2026-01-09,2026-01-09,合同会社ＳＡＭエージェント,,合同会社,新潟県,新潟市西蒲区,漆山４８０１番地,,15,108,9530054,,,,,,,2026-01-09,1,,,,,サムエージェント,0
1921,7120001283220,新規,0,2026-01-09,2026-01-09,華洋株式会社,,株式会社,大阪府,寝屋川市,早子町１９番２号,,27,215,5720837,,,,,,,2026-01-09,1,,,,,カヨウ,0
1924,7120003031635,新規,0,2026-01-09,2026-01-09,Ｐｏｃｈｅ合同会社,,合同会社,大阪府,大阪市淀川区,西中島３丁目３番９号ＡＸＩＳ新大阪ビル２・７階,,27,123,5320011,,,,,,,2026-01-09,1,,,,,ポッシュ,0
1926,7120101073034,新規,0,2026-01-09,2026-01-09,ノジリ硝子株式会社,,株式会社,大阪府,堺市堺区,桜之町西３丁３番１号,,27,141,5900927,,,,,,,2026-01-09,1,,,,,ノジリガラス,0
1927,7120101073042,新規,0,2026-01-09,2026-01-09,株式会社市原工務店,,株式会社,大阪府,和泉市,弥生町２丁目１２番２９号,,27,219,5940061,,,,,,,2026-01-09,1,,,,,イチハラコウムテン,0
1928,7120103006925,新規,0,2026-01-09,2026-01-09,合同会社希香,,合同会社,大阪府,岸和田市,春木若松町１９番１２号,,27,202,5960006,,,,,,,2026-01-09,1,,,,,キキョウ,0
1929,7120105010099,新規,0,2026-01-09,2026-01-09,一般社団法人ＫＩＸクリエイターズＵＮＩＴ,,その他の設立登記法人,大阪府,岸和田市,野田町２丁目５番１１号,,27,202,5960076,,,,,,,2026-01-09,1,,,,,キックスクリエイターズユニット,0
1932,7120901052055,新規,0,2026-01-09,2026-01-09,株式会社ＭＡＫＳ７,,株式会社,大阪府,摂津市,正雀３丁目１９番９号,,27,224,5660023,,,,,,,2026-01-09,1,,,,,マークスセブン,0
1937,7130001081342,新規,0,2026-01-09,2026-01-09,株式会社電脳産霊,,株式会社,京都府,京都市左京区,高野東開町８番地５ヴェルエール松屋１０１,,26,103,6068107,,,,,,,2026-01-09,1,,,,,デンノウムスヒ,0
1938,7130001081359,新規,0,2026-01-09,2026-01-09,株式会社山口刺しゅう,,株式会社,京都府,京都市右京区,太秦多藪町４５番地１,,26,108,6168167,,,,,,,2026-01-09,1,,,,,ヤマグチシシュウ,0
1939,7130001081367,新規,0,2026-01-09,2026-01-09,ライトメデイカル株式会社,,株式会社,京都府,京都市東山区,問屋町通五条下る３丁目西橘町４７５番地の３,,26,105,6050907,,,,,,,2026-01-09,1,,,,,ライトメデイカル,0
1940,7130001081375,新規,0,2026-01-09,2026-01-09,株式会社ｂａｓｉｃｍａｔｈ,,株式会社,京都府,京都市下京区,釘隠町２５５小川京都ビル２階,,26,106,6008423,,,,,,,2026-01-09,1,,,,,ベーシックマス,0
1941,7130001081383,新規,0,2026-01-09,2026-01-09,株式会社ＧＯＯＤＹ　ＳＴＵＤＩＯ,,株式会社,京都府,京都市下京区,中堂寺坊城町６５番地パークスクェアー７０７,,26,106,6008811,,,,,,,2026-01-09,1,,,,,グッディスタジオ,0
1945,7140001141293,新規,0,2026-01-09,2026-01-09,株式会社北山電気,,株式会社,兵庫県,加東市,福吉２４２番地１１,,28,228,6731443,,,,,,,2026-01-09,1,,,,,キタヤマデンキ,0
1946,7140001141327,新規,0,2026-01-09,2026-01-09,エモベーレ株式会社,,株式会社,兵庫県,尼崎市,尾浜町１丁目１３番２２号,,28,202,6610022,,,,,,,2026-01-09,1,,,,,エモベーレ,0
1949,7140005027761,新規,0,2026-01-09,2026-01-09,社会保険労務士法人アピロ,,その他の設立登記法人,兵庫県,芦屋市,上宮川町２番８－３０１号,,28,206,6590061,,,,,,,2026-01-09,1,,,,,アピロ,0
1951,7160001027334,新規,0,2026-01-09,2026-01-09,ＵｐＨｏｌｄ株式会社,,株式会社,滋賀県,長浜市,十里町１０３番地７,,25,203,5260016,,,,,,,2026-01-09,1,,,,,アップホールド,0
1952,7170001018943,新規,0,2026-01-09,2026-01-09,株式会社こころね,,株式会社,和歌山県,和歌山市,内原９１８番地５,,30,201,6410013,,,,,,,2026-01-09,1,,,,,ココロネ,0
1956,7180001170157,新規,0,2026-01-09,2026-01-09,株式会社春日井西部学校給食サポート,,株式会社,愛知県,春日井市,松河戸町１４６３番地,,23,206,4860932,,,,,,,2026-01-09,1,,,,,カスガイセイブガッコウキュウショクサポート,0
1959,7180005021372,新規,0,2026-01-09,2026-01-09,弁護士法人村上・加藤・野口法律事務所,,その他の設立登記法人,愛知県,名古屋市中区,丸の内２丁目２番７号丸の内弁護士ビル８０２号,,23,106,4600002,,,,,,,2026-01-09,1,,,,,ムラカミカトウノグチホウリツジムショ,0
1964,7180301040563,新規,0,2026-01-09,2026-01-09,株式会社ひとれーん,,株式会社,愛知県,豊田市,喜多町４丁目６６番地１,,23,211,4710027,,,,,,,2026-01-09,1,,,,,ヒトレーン,0
1965,7180301040571,新規,0,2026-01-09,2026-01-09,株式会社ＤＡＩＭＡＲＵ　ＳＴＵＤＩＯ,,株式会社,愛知県,北設楽郡東栄町,大字振草字小林下日向２番地１,,23,562,4490213,,,,,,,2026-01-09,1,,,,,ダイマルスタジオ,0
1966,7190001032810,新規,0,2026-01-09,2026-01-09,株式会社トランクベース,,株式会社,三重県,桑名市,多度町小山１９３０番地,,24,205,5110105,,,,,,,2026-01-09,1,,,,,トランクベース,0
1970,7200001044589,新規,0,2026-01-09,2026-01-09,株式会社ソシアルリンク,,株式会社,岐阜県,関市,板取３９６番地,,21,205,5012901,,,,,,,2026-01-09,1,,,,,ソシアルリンク,0
1974,7220001027121,新規,0,2026-01-09,2026-01-09,株式会社Ｎ’ｇｒｏｗ,,株式会社,石川県,金沢市,藤江北２丁目９５番地,,17,201,9200345,,,,,,,2026-01-09,1,,,,,エヌグロウ,0
1978,7240001065986,新規,0,2026-01-09,2026-01-09,株式会社Ｍ’ｓ　Ｈａｎｄ,,株式会社,広島県,広島市南区,京橋町２番２４号,,34,103,7320828,,,,,,,2026-01-09,1,,,,,エムズハンド,0
1979,7240001066019,新規,0,2026-01-09,2026-01-09,株式会社ＳＵＺＵ,,株式会社,広島県,広島市南区,松原町５番２－４７０６号,,34,103,7320822,,,,,,,2026-01-09,1,,,,,スズ,0
1980,7240001066035,新規,0,2026-01-09,2026-01-09,しまなみシステムサービス株式会社,,株式会社,広島県,尾道市,向島町甲８８番地３,,34,205,7220073,,,,,,,2026-01-09,1,,,,,シマナミシステムサービス,0
1985,7260001040888,新規,0,2026-01-09,2026-01-09,株式会社ハレミナト,,株式会社,岡山県,岡山市南区,大福３１４番地家系ラーメンしゃかりき家,,33,104,7010204,,,,,,,2026-01-09,1,,,,,ハレミナト,0
1989,7280001009568,新規,0,2026-01-09,2026-01-09,恒松設備株式会社,,株式会社,島根県,大田市,長久町長久ハ８０番地,,32,205,6940041,,,,,,,2026-01-09,1,,,,,ツネマツセツビ,0
1994,7290801032157,新規,0,2026-01-09,2026-01-09,株式会社ｙｔｒ,,株式会社,福岡県,北九州市小倉北区,平松町４番１５号,,40,106,8030832,,,,,,,2026-01-09,1,,,,,ユトリ,0
2007,7320001021527,新規,0,2026-01-09,2026-01-09,株式会社はるの里,,株式会社,大分県,由布市,挾間町下市２８５番地１,,44,213,8795504,,,,,,,2026-01-09,1,,,,,ハルノサト,0
2016,7330005011011,新規,0,2026-01-09,2026-01-09,一般社団法人九州ワインテーブル,,その他の設立登記法人,熊本県,熊本市中央区,本山町１８９番地,,43,101,8600822,,,,,,,2026-01-09,1,,,,,キュウシュウワインテーブル,0
2018,7350001019881,新規,0,2026-01-09,2026-01-09,株式会社みんと,,株式会社,宮崎県,延岡市,古川町１３１０,,45,203,8820063,,,,,,,2026-01-09,1,,,,,ミント,0
2020,7350003005112,新規,0,2026-01-09,2026-01-09,合同会社たかちほ食堂,,合同会社,宮崎県,西臼杵郡高千穂町,大字三田井１３９８番地４,,45,441,8821101,,,,,,,2026-01-09,1,,,,,タカチホショクドウ,0
2023,7360001036208,新規,0,2026-01-09,2026-01-09,株式会社ＬＯＣＫ,,株式会社,沖縄県,石垣市,字石垣１番地１中村店店舗２階東,,47,207,9070023,,,,,,,2026-01-09,1,,,,,ロック,0
2024,7360001036216,新規,0,2026-01-09,2026-01-09,株式会社護工業,,株式会社,沖縄県,うるま市,石川東恩納１６８１番地７９,,47,213,9041111,,,,,,,2026-01-09,1,,,,,マモルコウギョウ,0
2025,7360001036224,新規,0,2026-01-09,2026-01-09,株式会社ミネマツ,,株式会社,沖縄県,島尻郡八重瀬町,字長毛３６２番地６,,47,362,9010501,,,,,,,2026-01-09,1,,,,,ミネマツ,0
2026,7360001036232,新規,0,2026-01-09,2026-01-09,レインテック株式会社,,株式会社,沖縄県,浦添市,字経塚６０８番地１ＥＳＴＣＯＭＰＬＥＸ２ｎｄＢＬＤ５－Ａ,,47,208,9012111,,,,,,,2026-01-09,1,,,,,,0
2033,7370001053391,新規,0,2026-01-09,2026-01-09,舘ｐｌｕｓ株式会社,,株式会社,宮城県,仙台市太白区,富沢南１丁目６番地の１０,,04,104,9820036,,,,,,,2026-01-09,1,,,,,タテプラス,0
2034,7370005011057,新規,0,2026-01-09,2026-01-09,一般財団法人イーハトーブ,,その他の設立登記法人,宮城県,仙台市青葉区,堤町１丁目１番１－６０６号,,04,101,9810912,,,,,,,2026-01-09,1,,,,,イーハトーブ,0
2038,7390001018203,新規,0,2026-01-09,2026-01-09,株式会社大門,,株式会社,山形県,長井市,九野本２０７８番地,,06,209,9930041,,,,,,,2026-01-09,1,,,,,ダイモン,0
2039,7390005009149,新規,0,2026-01-09,2026-01-09,一般社団法人Ｂｒｉｄｇｅｗａｙ,,その他の設立登記法人,山形県,山形市,鉄砲町３丁目１番５２号,,06,201,9902492,,,,,,,2026-01-09,1,,,,,ブリッジウェイ,0
2040,7400001017285,新規,0,2026-01-09,2026-01-09,株式会社エムワンケア,,株式会社,岩手県,盛岡市,大通２丁目７番１９号,,03,201,0200022,,,,,,,2026-01-09,1,,,,,エムワンケア,0
2041,7400005008537,新規,0,2026-01-09,2026-01-09,社会福祉法人幸福会,,その他の設立登記法人,岩手県,奥州市,江刺稲瀬字柏原４４６番地１,,03,215,0231132,,,,,,,2026-01-09,1,,,,,,0
2044,7410003004198,新規,0,2026-01-09,2026-01-09,合同会社ファーム魁,,合同会社,秋田県,大仙市,豊川字小滝川南４５番地,,05,212,0140711,,,,,,,2026-01-09,1,,,,,ファームサキガケ,0
2045,7420003003224,新規,0,2026-01-09,2026-01-09,スマイル塗装合同会社,,合同会社,青森県,八戸市,江陽４丁目２番９号アンジェニュ１０１号室,,02,203,0310801,,,,,,,2026-01-09,1,,,,,スマイルトソウ,0
2050,7430001095980,新規,0,2026-01-09,2026-01-09,株式会社みんなのおかげ,,株式会社,北海道,札幌市中央区,南七条西３丁目２番地４セブンビル１階,,01,101,0640807,,,,,,,2026-01-09,1,,,,,ミンナノオカゲ,0
2051,7430001095989,新規,0,2026-01-09,2026-01-09,株式会社エスイービー,,株式会社,北海道,札幌市中央区,南三条西１丁目８番地１０－４Ｆ,,01,101,0600063,,,,,,,2026-01-09,1,,,,,エスイービー,0
2053,7430003018469,新規,0,2026-01-09,2026-01-09,合同会社ｎｏＡｒｋ,,合同会社,北海道,札幌市豊平区,西岡二条１１丁目１２－２,,01,105,0620032,,,,,,,2026-01-09,1,,,,,ノアーク,0
2061,7500001026722,新規,0,2026-01-09,2026-01-09,株式会社ファベル,,株式会社,愛媛県,伊予郡砥部町,高尾田６３６番地５,,38,402,7912101,,,,,,,2026-01-09,1,,,,,ファベル,0
2062,7700150133885,新規,0,2026-01-09,2026-01-09,ｚｈｏｎｇ　ｓｈａｎ　ｓｈｉ　ｌａｎｇ　ｐｕ　ｈａｏ　ｙｉｎｇ　ｗｕ　ｊｉｎ　ｚｈｉ　ｐｉｎ　ｙｏｕ　ｘｉａｎ　ｇｏｎｇ　ｓｉ,,外国会社等,,,,,,,,ｚｈｏｎｇｓｈａｎｓｈｉ　ｘｉａｏｌａｎｚｈｅｎ　ｊｉｄｏｎｇｙｉｓｈｅｑｕ　ｇｏｎｇｙｅｄａｄａｏｂｅｉ１６ｈａｏ　ｚｈｅｎｇｇａｏｚｈｉｈｕｉｃｈｅｎｇ　５ｄｏｎｇｃｈａｎｇｆａｎｇ　ｄｉｓａｎ，ｓｉｃｅｎｇ,,,,,,2026-01-09,1,,,,,ゾンサンシランプハオインウジンジピンユウゲンコウシ,0
2073,8010001261764,新規,0,2026-01-09,2026-01-09,百代スタジオ株式会社,,株式会社,東京都,中央区,銀座１丁目１２番４号Ｎ＆ＥＢＬＤ．６Ｆ,,13,102,1040061,,,,,,,2026-01-09,1,,,,,ハクタイスタジオ,0
2074,8010001261806,新規,0,2026-01-09,2026-01-09,株式会社梟の目,,株式会社,東京都,中央区,銀座１丁目１２－４Ｎ＆ＥＢＬＤ．７階,,13,102,1040061,,,,,,,2026-01-09,1,,,,,フクロウノメ,0
2081,8010005041171,新規,0,2026-01-09,2026-01-09,弁護士法人丸の内中央法律事務所,,その他の設立登記法人,東京都,千代田区,丸の内３丁目４番１号新国際ビル８１７区,,13,101,1000005,,,,,,,2026-01-09,1,,,,,マルノウチチュウオウホウリツジムショ,0
2085,8010401195513,新規,0,2026-01-09,2026-01-09,コンセプティエ・リアルティ株式会社,,株式会社,東京都,港区,南青山２丁目７番８号,,13,103,1070062,,,,,,,2026-01-09,1,,,,,コンセプティエリアルティ,0
2086,8010401195694,新規,0,2026-01-09,2026-01-09,勢華精密株式会社,,株式会社,東京都,港区,赤坂２丁目８番１４－５０４号,,13,103,1070052,,,,,,,2026-01-09,1,,,,,セイカセイミツ,0
2088,8010403037003,新規,0,2026-01-09,2026-01-09,ヘルツエー合同会社,,合同会社,東京都,港区,北青山１丁目３番１号アールキューブ青山３階,,13,103,1070061,,,,,,,2026-01-09,1,,,,,ヘルツエー,0
2089,8010405025195,新規,0,2026-01-09,2026-01-09,京阪奈ＤＣＰ　ＭＬ一般社団法人,,その他の設立登記法人,東京都,港区,虎ノ門３丁目２２番１０－２０１号,,13,103,1050001,,,,,,,2026-01-09,1,,,,,ケイハンナディーシーピーエムエル,0
2090,8010405025229,新規,0,2026-01-09,2026-01-09,有明特定目的会社,,その他の設立登記法人,東京都,港区,元赤坂１丁目１番７－１２０９号株式会社赤坂国際会計内,,13,103,1070051,,,,,,,2026-01-09,1,,,,,アリアケ,0
2094,8010601068535,新規,0,2026-01-09,2026-01-09,Ｎａｖｉｔｅｃ　Ｓｙｓｔｅｍｓ　Ｊａｐａｎ株式会社,,株式会社,東京都,江東区,豊洲６丁目２番３１－１９１７号,,13,108,1350061,,,,,,,2026-01-09,1,,,,,ナビテックシステムズジャパン,0
2095,8010601068551,新規,0,2026-01-09,2026-01-09,株式会社ブルーム・ヴィラージュ,,株式会社,東京都,江東区,三好１丁目８番３号越前屋ビル２Ｆ,,13,108,1350022,,,,,,,2026-01-09,1,,,,,ブルームヴィラージュ,0
2099,8010603012004,新規,0,2026-01-09,2026-01-09,合同会社ｔａｋｅｓａｋｕ,,合同会社,東京都,墨田区,文花２丁目１９番２－２２３号,,13,107,1310044,,,,,,,2026-01-09,1,,,,,タケサク,0
2100,8010701048858,新規,0,2026-01-09,2026-01-09,株式会社Ｖａｌｕｅ　Ｃｏｍｐａｓｓ,,株式会社,東京都,品川区,大井１丁目３１番１－１７０７号,,13,109,1400014,,,,,,,2026-01-09,1,,,,,バリューコンパス,0
2101,8010705003842,新規,0,2026-01-09,2026-01-09,一般財団法人大野雄二音楽振興財団,,その他の設立登記法人,東京都,品川区,東五反田５丁目４番１３号,,13,109,1410022,,,,,,,2026-01-09,1,,,,,オオノユウジオンガクシンコウザイダン,0
2103,8010901058748,新規,0,2026-01-09,2026-01-09,冨澤令子アドバイザリーパートナーズ株式会社,,株式会社,東京都,世田谷区,深沢２丁目１８番１１号－１,,13,112,1580081,,,,,,,2026-01-09,1,,,,,トミザワレイコアドバイザリーパートナーズ,0
2104,8010901058780,新規,0,2026-01-09,2026-01-09,株式会社成城投資研究所,,株式会社,東京都,世田谷区,成城９丁目２９番１３－１０２号,,13,112,1570066,,,,,,,2026-01-09,1,,,,,セイジョウトウシケンキュウジョ,0
2110,8011001174725,新規,0,2026-01-09,2026-01-09,株式会社グロースアド,,株式会社,東京都,渋谷区,神南１丁目１１番４号ＦＰＧリンクス神南５階,,13,113,1500041,,,,,,,2026-01-09,1,,,,,グロースアド,0
2111,8011001174741,新規,0,2026-01-09,2026-01-09,株式会社ＣＥＣＩＬＥ,,株式会社,東京都,渋谷区,神宮前４丁目３番２号,,13,113,1500001,,,,,,,2026-01-09,1,,,,,セシル,0
2112,8011001174758,新規,0,2026-01-09,2026-01-09,株式会社ＹＵＵＭ,,株式会社,東京都,目黒区,八雲３丁目１７番２０号,,13,110,1520023,,,,,,,2026-01-09,1,,,,,ユーム,0
2113,8011001174766,新規,0,2026-01-09,2026-01-09,ＫＫマルエ株式会社,,株式会社,東京都,渋谷区,松濤１丁目２９番２１号サンビューハイツ松濤２０３,,13,113,1500046,,,,,,,2026-01-09,1,,,,,ケイケイマルエ,0
2114,8011001174857,新規,0,2026-01-09,2026-01-09,株式会社ラングトン,,株式会社,東京都,渋谷区,円山町５番３号ＭＩＥＵＸ渋谷ビル８階,,13,113,1500044,,,,,,,2026-01-09,1,,,,,ラングトン,0
2116,8011003023211,新規,0,2026-01-09,2026-01-09,合同会社黒猫商事,,合同会社,東京都,渋谷区,広尾１丁目２番地１号ヒカリビル４階,,13,113,1500012,,,,,,,2026-01-09,1,,,,,クロネコショウジ,0
2117,8011003023293,新規,0,2026-01-09,2026-01-09,合同会社ＲＥＶＥ　ＡＤＶＡＮＣＥ,,合同会社,東京都,渋谷区,恵比寿西２丁目８番４号ＥＸ恵比寿西ビル５階,,13,113,1500021,,,,,,,2026-01-09,1,,,,,レーヴェアドバンス,0
2118,8011003023343,新規,0,2026-01-09,2026-01-09,ＮｅＷｉｎｄ合同会社,,合同会社,東京都,渋谷区,神宮前６丁目２３－４桑野ビル２階,,13,113,1500001,,,,,,,2026-01-09,1,,,,,ニューウィンド,0
2120,8011101114399,新規,0,2026-01-09,2026-01-09,株式会社サクラギルド,,株式会社,東京都,新宿区,西新宿３丁目３番１３号西新宿水間ビル６階,,13,104,1600023,,,,,,,2026-01-09,1,,,,,サクラギルド,0
2121,8011103016882,新規,0,2026-01-09,2026-01-09,合同会社四谷デジタルイノベーターズ,,合同会社,東京都,新宿区,四谷三栄町１番１号,,13,104,1600008,,,,,,,2026-01-09,1,,,,,ヨツヤデジタルイノベーターズ,0
2122,8011303005818,新規,0,2026-01-09,2026-01-09,合同会社しもむら,,合同会社,東京都,杉並区,西荻南３丁目７番６号,,13,115,1670053,,,,,,,2026-01-09,1,,,,,シモムラ,0
2125,8011501032977,新規,0,2026-01-09,2026-01-09,Ａｄ‐Ｎｅｔ　Ｄｉｇｉｔａｌ株式会社,,株式会社,東京都,荒川区,南千住３丁目２７－２浅草ビル,,13,118,1160003,,,,,,,2026-01-09,1,,,,,アドネットデジタル,0
2126,8011503006830,新規,0,2026-01-09,2026-01-09,合同会社コウキサトウスタジオ,,合同会社,東京都,荒川区,南千住８丁目８番１－１７１６号,,13,118,1160003,,,,,,,2026-01-09,1,,,,,コウキサトウスタジオ,0
2127,8011505002720,新規,0,2026-01-09,2026-01-09,税理士法人菊池高木事務所,,その他の設立登記法人,東京都,荒川区,東日暮里５丁目１７番１０号,,13,118,1160014,,,,,,,2026-01-09,1,,,,,キクチタカギジムショ,0
2148,8012701019260,新規,0,2026-01-09,2026-01-09,株式会社エムジー,,株式会社,東京都,東久留米市,南沢２丁目１２番２２号,,13,222,2030023,,,,,,,2026-01-09,1,,,,,エムジー,0
2149,8012801024458,新規,0,2026-01-09,2026-01-09,株式会社ＰＣＡＥ,,株式会社,東京都,日野市,三沢３丁目３番地の１５,,13,212,1910032,,,,,,,2026-01-09,1,,,,,ピーシーエーイー,0
2158,8020001166525,新規,0,2026-01-09,2026-01-09,株式会社ＮＥＯＮＴＥＴＲＡ,,株式会社,神奈川県,横浜市磯子区,栗木１丁目１５番１５号,,14,107,2350041,,,,,,,2026-01-09,1,,,,,ネオンテトラ,0
2159,8020001166533,新規,0,2026-01-09,2026-01-09,株式会社絆内装,,株式会社,神奈川県,横浜市港北区,綱島東５丁目６番２３－５０２号,,14,109,2230052,,,,,,,2026-01-09,1,,,,,キズナナイソウ,0
2160,8020001166541,新規,0,2026-01-09,2026-01-09,株式会社ツユキホールディングス,,株式会社,神奈川県,川崎市川崎区,旭町２丁目１８番１３号コートハイム旭町３０１,,14,131,2100808,,,,,,,2026-01-09,1,,,,,ツユキホールディングス,0
2161,8020001166566,新規,0,2026-01-09,2026-01-09,株式会社Ｃｒｅａｔｅｕｒ,,株式会社,神奈川県,横浜市青葉区,桂台２丁目２１番地６センチュリーハイム桂台２０１,,14,117,2270034,,,,,,,2026-01-09,1,,,,,クレアチュール,0
2162,8020001166574,新規,0,2026-01-09,2026-01-09,株式会社ＧＬＩＦＥ,,株式会社,神奈川県,横浜市都筑区,池辺町３４５３番地,,14,118,2240053,,,,,,,2026-01-09,1,,,,,グライフ,0
2163,8020001166665,新規,0,2026-01-09,2026-01-09,リンクホールディングス株式会社,,株式会社,神奈川県,横浜市保土ケ谷区,岩井町２８６―１,,14,106,2400023,,,,,,,2026-01-09,1,,,,,リンクホールディングス,0
2168,8020003030092,新規,0,2026-01-09,2026-01-09,合同会社玉目商事,,合同会社,神奈川県,横浜市港北区,岸根町４２０番地山王ビル１０３,,14,109,2220034,,,,,,,2026-01-09,1,,,,,タマメショウジ,0
2169,8020005017113,新規,0,2026-01-09,2026-01-09,税理士法人たまきはる,,その他の設立登記法人,神奈川県,横浜市中区,太田町２丁目２３番地横浜メディア・ビジネスセンター６階,,14,104,2310011,,,,,,,2026-01-09,1,,,,,タマキハル,0
2170,8021001087166,新規,0,2026-01-09,2026-01-09,ＡＧ株式会社,,株式会社,神奈川県,横須賀市,長井６丁目２９番１号,,14,201,2380316,,,,,,,2026-01-09,1,,,,,エージー,0
2171,8021001087190,新規,0,2026-01-09,2026-01-09,ｕｐｓｗｉｎｇ株式会社,,株式会社,神奈川県,藤沢市,鵠沼神明５丁目１番１－５号,,14,205,2510021,,,,,,,2026-01-09,1,,,,,アップスウィング,0
2172,8021003016965,新規,0,2026-01-09,2026-01-09,Ｏｆｆｉｃｅ春日合同会社,,合同会社,神奈川県,逗子市,小坪１丁目３２番２４号,,14,208,2490008,,,,,,,2026-01-09,1,,,,,オフィスカスガ,0
2173,8021003016981,新規,0,2026-01-09,2026-01-09,合同会社メンターシステム,,合同会社,神奈川県,秦野市,本町３丁目２番２号,,14,211,2570035,,,,,,,2026-01-09,1,,,,,メンターシステム,0
2174,8030001170385,新規,0,2026-01-09,2026-01-09,彩たま彫金くらぶ株式会社,,株式会社,埼玉県,越谷市,赤山本町１７番地４１,,11,222,3430808,,,,,,,2026-01-09,1,,,,,サイタマチョウキンクラブ,0
2175,8030001170559,新規,0,2026-01-09,2026-01-09,株式会社篠崎,00142100,株式会社,埼玉県,深谷市,榛沢新田２７１番地,,11,218,3690221,,,,,,,2026-01-09,1,,,,,シノザキ,0
2177,8030003028367,新規,0,2026-01-09,2026-01-09,合同会社華希,,合同会社,埼玉県,深谷市,蓮沼８６４番地,,11,218,3660015,,,,,,,2026-01-09,1,,,,,ハナキ,0
2178,8030003028433,新規,0,2026-01-09,2026-01-09,合同会社Ｐｅｒｆｅｃｔ　Ｔｈｉｎｇｓ,,合同会社,埼玉県,狭山市,大字水野４４２―４２,,11,215,3501317,,,,,,,2026-01-09,1,,,,,パーフェクトシングス,0
2185,8040001142020,新規,0,2026-01-09,2026-01-09,株式会社Ｇ・Ｉ,,株式会社,千葉県,柏市,南柏中央１番地４君塚ビル２Ｆ,,12,217,2770075,,,,,,,2026-01-09,1,,,,,ジーアイ,0
2193,8060001038919,新規,0,2026-01-09,2026-01-09,ＹＴＫ株式会社,,株式会社,栃木県,さくら市,櫻野１３１７番地４,,09,214,3291312,,,,,,,2026-01-09,1,,,,,ワイティーケー,0
2196,8070001043728,新規,0,2026-01-09,2026-01-09,株式会社ＫＲ,,株式会社,群馬県,前橋市,天川大島町１１００番地２,,10,201,3792154,,,,,,,2026-01-09,1,,,,,ケーアール,0
2203,8080101025996,新規,0,2026-01-09,2026-01-09,株式会社ビッグラブ,,株式会社,静岡県,熱海市,伊豆山４１０番地,,22,205,4130002,,,,,,,2026-01-09,1,,,,,ビッグラブ,0
2204,8080101026012,新規,0,2026-01-09,2026-01-09,株式会社ＮＧＭ,,株式会社,静岡県,御殿場市,東田中１９０６番地の１,,22,215,4120026,,,,,,,2026-01-09,1,,,,,エヌジーエム,0
2205,8080101026020,新規,0,2026-01-09,2026-01-09,Ｋ’ｓプランニング株式会社,,株式会社,静岡県,富士市,伝法３１６２番地の１,,22,210,4170061,,,,,,,2026-01-09,1,,,,,ケーズプランニング,0
2207,8080401028377,新規,0,2026-01-09,2026-01-09,松下園芸株式会社,,株式会社,静岡県,浜松市中央区,神ケ谷町６２２８番地,,22,138,4328005,,,,,,,2026-01-09,1,,,,,マツシタエンゲイ,0
2211,8100005013434,新規,0,2026-01-09,2026-01-09,一般社団法人パストーン,,その他の設立登記法人,長野県,松本市,大手３丁目３番９号,,20,202,3900874,,,,,,,2026-01-09,1,,,,,パストーン,0
2212,8110001039820,新規,0,2026-01-09,2026-01-09,株式会社伊藤ファーム,,株式会社,新潟県,長岡市,芹川町１３１７番地１,,15,202,9402473,,,,,,,2026-01-09,1,,,,,イトウファーム,0
2213,8110001039829,新規,0,2026-01-09,2026-01-09,やまき農場株式会社,,株式会社,新潟県,新潟市西蒲区,中島１８４番地,,15,108,9590437,,,,,,,2026-01-09,1,,,,,ヤマキノウジョウ,0
2226,8120001283211,新規,0,2026-01-09,2026-01-09,株式会社ＴＢＣ,,株式会社,大阪府,大阪市平野区,長吉川辺３丁目３番１号,,27,126,5470014,,,,,,,2026-01-09,1,,,,,ティービーシー,0
2227,8120001283228,新規,0,2026-01-09,2026-01-09,株式会社ＳａｌｅｓＢｒｅａｋｅｒ,,株式会社,大阪府,大阪市北区,梅田１丁目２番２号大阪駅前第２ビル１２－１２,,27,127,5300001,,,,,,,2026-01-09,1,,,,,セールスブレイカー,0
2228,8120001283236,新規,0,2026-01-09,2026-01-09,株式会社ワタカン,,株式会社,大阪府,大阪市淀川区,新高４丁目１５番３－１３２４号,,27,123,5320033,,,,,,,2026-01-09,1,,,,,ワタカン,0
2229,8120001283252,新規,0,2026-01-09,2026-01-09,株式会社ＴｏＰｏ,,株式会社,大阪府,大阪市此花区,春日出中２丁目４番２７号,,27,104,5540022,,,,,,,2026-01-09,1,,,,,トポ,0
2230,8120001283327,新規,0,2026-01-09,2026-01-09,九龍株式会社,,株式会社,大阪府,大阪市生野区,巽東３丁目１３番２８－４０４号,00142107,27,116,5440014,,,,,,,2026-01-09,1,,,,,クリュウ,0
2236,8120101073041,新規,0,2026-01-09,2026-01-09,株式会社ワイヤード,,株式会社,大阪府,堺市堺区,南向陽町１丁２番２３号,,27,141,5900073,,,,,,,2026-01-09,1,,,,,ワイヤード,0
2237,8120903006025,新規,0,2026-01-09,2026-01-09,合同会社Ｉｃｈｉｂａｎ　Ｗｉｎｅ＆Ｃｏｎｓｕｌｔｉｎｇ,,合同会社,大阪府,箕面市,船場西３丁目７番３９－５０８号,,27,220,5620036,,,,,,,2026-01-09,1,,,,,イチバンワインアンドコンサルティング,0
2242,8130001081382,新規,0,2026-01-09,2026-01-09,株式会社関西車輪,,株式会社,京都府,亀岡市,余部町大塚２４番地８,,26,206,6210806,,,,,,,2026-01-09,1,,,,,カンサイシャリン,0
2248,8140001141301,新規,0,2026-01-09,2026-01-09,株式会社ＳＳＣ,,株式会社,兵庫県,三田市,大川瀬３３４番地１,,28,219,6691349,,,,,,,2026-01-09,1,,,,,エスエスシー,0
2249,8140001141318,新規,0,2026-01-09,2026-01-09,株式会社リス,,株式会社,兵庫県,神戸市中央区,元町通４丁目４番８号,,28,110,6500022,,,,,,,2026-01-09,1,,,,,リス,0
2254,8150001028638,新規,0,2026-01-09,2026-01-09,株式会社広陵クラフトファーム,,株式会社,奈良県,北葛城郡広陵町,大字百済２０６８番２号,,29,426,6350813,,,,,,,2026-01-09,1,,,,,コウリョウクラフトファーム,0
2255,8150003003795,新規,0,2026-01-09,2026-01-09,タッグ合同会社,,合同会社,奈良県,奈良市,橋本町３－１,,29,201,6308217,,,,,,,2026-01-09,1,,,,,タッグ,0
2258,8160001027333,新規,0,2026-01-09,2026-01-09,Ａｓａｍｉｙａ　Ｍａｔｃｈａ株式会社,,株式会社,滋賀県,甲賀市,信楽町上朝宮６１５番地１,,25,209,5291841,,,,,,,2026-01-09,1,,,,,アサミヤマッチャ,0
2259,8160001027341,新規,0,2026-01-09,2026-01-09,ＡＧＬプレイングカード製造株式会社,,株式会社,滋賀県,東近江市,青野町４６００番地,,25,213,5270232,,,,,,,2026-01-09,1,,,,,エージーエルプレイングカードセイゾウ,0
2261,8170003002366,新規,0,2026-01-09,2026-01-09,合同会社Ｓｏｕｔｈ　Ｂｌｕｅ,,合同会社,和歌山県,田辺市,湊４１番３１号,,30,206,6460031,,,,,,,2026-01-09,1,,,,,サウスブルー,0
2267,8180001170131,新規,0,2026-01-09,2026-01-09,株式会社ＧＯＥＮ,,株式会社,愛知県,名古屋市西区,花の木２丁目１３番１６号パテオはなの木４０５号,,23,104,4510062,,,,,,,2026-01-09,1,,,,,ゴエン,0
2268,8180001170156,新規,0,2026-01-09,2026-01-09,株式会社ＵＨＭ高藤,00142104,株式会社,愛知県,名古屋市中川区,西伏屋２丁目１１１５番地,,23,110,4540982,,,,,,,2026-01-09,1,,,,,ユウエイチエムタカフジ,0
2275,8180301040570,新規,0,2026-01-09,2026-01-09,株式会社福建,,株式会社,愛知県,西尾市,吉良町下横須賀須西３５番地２,,23,213,4440522,,,,,,,2026-01-09,1,,,,,フクケン,0
2276,8180301040579,新規,0,2026-01-09,2026-01-09,株式会社ＴＲＵＮＫ　ＨＯＬＤＩＮＧＳ,,株式会社,愛知県,豊田市,勘八町長根４６番地１５,,23,211,4700328,,,,,,,2026-01-09,1,,,,,トランクホールディングス,0
2279,8180303006859,新規,0,2026-01-09,2026-01-09,合同会社愛和ＧＬＯＢＡＬ　ＬＩＮＥ,,合同会社,愛知県,豊橋市,東脇４丁目１９番地３,,23,201,4418083,,,,,,,2026-01-09,1,,,,,アイワグローバルライン,0
2280,8190001032801,新規,0,2026-01-09,2026-01-09,山本工業株式会社,,株式会社,三重県,伊勢市,小俣町湯田１５６６番地１０,,24,203,5190506,,,,,,,2026-01-09,1,,,,,ヤマモトコウギョウ,0
2281,8200001044613,新規,0,2026-01-09,2026-01-09,株式会社アウラキャリア,,株式会社,岐阜県,瑞穂市,十九条７６５番地２,,21,216,5010235,,,,,,,2026-01-09,1,,,,,アウラキャリア,0
2284,8210003001999,新規,0,2026-01-09,2026-01-09,合同会社Ｔ‐ｈｏｍｅ,,合同会社,福井県,丹生郡越前町,江波第４６号５番地１,,18,423,9160255,,,,,,,2026-01-09,1,,,,,ティーホーム,0
2285,8220001027120,新規,0,2026-01-09,2026-01-09,株式会社Ｉ’ｌａｓ,,株式会社,石川県,小松市,矢田野町ヌ５６番地１,,17,203,9230342,,,,,,,2026-01-09,1,,,,,アイラス,0
2287,8240003007556,新規,0,2026-01-09,2026-01-09,合同会社ＴＯＸＩＬ,,合同会社,広島県,広島市西区,古江東町２－１－１,,34,104,7330872,,,,,,,2026-01-09,1,,,,,トキシル,0
2289,8240005016027,新規,0,2026-01-09,2026-01-09,一般社団法人大成龍神社,,その他の設立登記法人,広島県,世羅郡世羅町,大字川尻８８３番地９,,34,462,7293302,,,,,,,2026-01-09,1,,,,,ダイジュウリュウジンジャ,0
2292,8260001040895,新規,0,2026-01-09,2026-01-09,下津井未来共創株式会社,,株式会社,岡山県,倉敷市,下津井１丁目７番２８号,,33,202,7110927,,,,,,,2026-01-09,1,,,,,シモツイミライキョウソウ,0
2296,8280001009567,新規,0,2026-01-09,2026-01-09,株式会社芦村塗建,00142102,株式会社,島根県,安来市,安来町６３２番地３,,32,206,6920011,,,,,,,2026-01-09,1,,,,,アシムラトケン,0
2302,8290001112659,新規,0,2026-01-09,2026-01-09,プレゼンス２０４０ホールディングス株式会社,,株式会社,福岡県,福岡市博多区,博多駅前１丁目２３番２号ＰａｒｋＦｒｏｎｔ博多駅前一丁目５Ｆ－Ｂ,,40,132,8120011,,,,,,,2026-01-09,1,,,,,プレゼンスニゼロヨンゼロホールディングス,0
2303,8290001112675,新規,0,2026-01-09,2026-01-09,株式会社ＭＵＧＥＮ,,株式会社,福岡県,福岡市城南区,別府５丁目１０番２３－１号,,40,136,8140104,,,,,,,2026-01-09,1,,,,,ムゲン,0
2304,8290001112683,新規,0,2026-01-09,2026-01-09,株式会社瑞葉建設,,株式会社,福岡県,春日市,下白水北１丁目１３５番地１０１号,,40,218,8160854,,,,,,,2026-01-09,1,,,,,ミズハケンセツ,0
2309,8290803005250,新規,0,2026-01-09,2026-01-09,合同会社大翔工業,,合同会社,福岡県,北九州市小倉北区,下到津４丁目８番２１－４０３号,,40,106,8030846,,,,,,,2026-01-09,1,,,,,タイショウコウギョウ,0
2316,8330003011391,新規,0,2026-01-09,2026-01-09,合同会社バウラインスクーバ,,合同会社,熊本県,熊本市南区,近見８丁目６番１０１号,,43,104,8614101,,,,,,,2026-01-09,1,,,,,バウラインスクーバ,0
2317,8340001027892,新規,0,2026-01-09,2026-01-09,株式会社マル竹園製茶,,株式会社,鹿児島県,霧島市,隼人町西光寺２３２４番地７,,46,218,8995114,,,,,,,2026-01-09,1,,,,,マルタケエンセイチャ,0
2321,8350001019889,新規,0,2026-01-09,2026-01-09,株式会社くぼてサービス,,株式会社,宮崎県,西臼杵郡高千穂町,大字三田井６４５１番地３,,45,441,8821101,,,,,,,2026-01-09,1,,,,,クボテサービス,0
2322,8350003005111,新規,0,2026-01-09,2026-01-09,合同会社ＭＩＮＯＲＩ,,合同会社,宮崎県,児湯郡高鍋町,大字北高鍋９６２番地,,45,401,8840002,,,,,,,2026-01-09,1,,,,,ミノリ,0
2324,8360001036215,新規,0,2026-01-09,2026-01-09,株式会社琉球総合研究所,,株式会社,沖縄県,那覇市,松山２丁目１０番１３号,,47,201,9000032,,,,,,,2026-01-09,1,,,,,リュウキュウソウゴウケンキュウショ,0
2325,8360001036223,新規,0,2026-01-09,2026-01-09,コア・マネジメント株式会社,,株式会社,沖縄県,那覇市,古波蔵１丁目３番２１号,,47,201,9000024,,,,,,,2026-01-09,1,,,,,コアマネジメント,0
2329,8370001053366,新規,0,2026-01-09,2026-01-09,株式会社ＴＲＹＥＮ,,株式会社,宮城県,宮城郡利府町,しらかし台２丁目１９番地７,,04,406,9810134,,,,,,,2026-01-09,1,,,,,トライエン,0
2330,8370001053382,新規,0,2026-01-09,2026-01-09,株式会社航進,,株式会社,宮城県,登米市,迫町北方字高見５０番地７,,04,212,9870513,,,,,,,2026-01-09,1,,,,,コウシン,0
2331,8370001053390,新規,0,2026-01-09,2026-01-09,株式会社ＳｉＧＮ　ＮＯＴＥ,,株式会社,宮城県,仙台市宮城野区,出花２丁目８１番地の１チサンマンシヨン第２中野栄２０２,,04,102,9830012,,,,,,,2026-01-09,1,,,,,サインノート,0
2335,8380005013051,新規,0,2026-01-09,2026-01-09,一般社団法人ブルハウス,,その他の設立登記法人,福島県,郡山市,安積町日出山字一本松３０９番地,,07,203,9630101,,,,,,,2026-01-09,1,,,,,ブルハウス,0
2338,8390005009148,新規,0,2026-01-09,2026-01-09,ＮＰＯ法人しばはし地域づくり委員会,,その他の設立登記法人,山形県,寒河江市,大字柴橋１９８８番地の６,,06,206,9910063,,,,,,,2026-01-09,1,,,,,シバハシチイキヅクリイインカイ,0
2339,8400001017284,新規,0,2026-01-09,2026-01-09,株式会社エムワンジュニア,,株式会社,岩手県,盛岡市,大通２丁目７番１９号,,03,201,0200022,,,,,,,2026-01-09,1,,,,,エムワンジュニア,0
2340,8420001019386,新規,0,2026-01-09,2026-01-09,株式会社ＯＮＥ　ＤＯＯＲ,,株式会社,青森県,弘前市,大字南大町１丁目８番地４,,02,202,0368006,,,,,,,2026-01-09,1,,,,,ワンドア,0
2343,8430001095939,新規,0,2026-01-09,2026-01-09,ＥＮＤＨＡＶＩＮＧ株式会社,,株式会社,北海道,札幌市西区,福井８丁目１１番２１号,,01,107,0630012,,,,,,,2026-01-09,1,,,,,エンドハビング,0
2344,8430001096029,新規,0,2026-01-09,2026-01-09,株式会社Ｇｒｏｗ,,株式会社,北海道,札幌市中央区,南一条東２丁目１３番地３越中ビル,,01,101,0600051,,,,,,,2026-01-09,1,,,,,グロウ,0
2348,8430003018492,新規,0,2026-01-09,2026-01-09,合同会社ＩＮＰ,,合同会社,北海道,苫小牧市,青雲町２丁目１番５号,,01,213,0591263,,,,,,,2026-01-09,1,,,,,アイエヌピー,0
2350,8460101007799,新規,0,2026-01-09,2026-01-09,アグリビット株式会社,,株式会社,北海道,河西郡更別村,字更別北二線１０７番地２,,01,639,0891542,,,,,,,2026-01-09,1,,,,,アグリビット,0
2351,8470001021049,新規,0,2026-01-09,2026-01-09,株式会社岡建設工業,,株式会社,香川県,高松市,西春日町１５５２番地２,,37,201,7618051,,,,,,,2026-01-09,1,,,,,オカケンセツコウギョウ,0
2352,8480003002368,新規,0,2026-01-09,2026-01-09,合同会社庭園,,合同会社,徳島県,小松島市,小松島町字新港４３番地の８,,36,203,7730001,,,,,,,2026-01-09,1,,,,,テイエン,0
2353,8480005007118,新規,0,2026-01-09,2026-01-09,一般社団法人ＡＷＡ‐ｓａｉｌ,,その他の設立登記法人,徳島県,徳島市,伊月町１丁目２６番地,,36,201,7700935,,,,,,,2026-01-09,1,,,,,,0
2358,8700150011479,新規,0,2026-01-09,2015-10-09,自治労国分寺市職員労働組合,,その他,東京都,国分寺市,泉町２丁目３－８　いずみプラザ３Ｆ,,13,214,1850024,,,,,,,2015-10-09,1,,,,,ジチロウコクブンジシシヨクインロウドウクミアイ,0
2359,8700150133884,新規,0,2026-01-09,2026-01-09,Ｇｕａｎｇｚｈｏｕ　Ａｏｈｅ　Ｔｅｃｈｎｏｌｏｇｙ　Ｃｏ．，Ｌｔｄ,,外国会社等,,,,,,,,Ｂａｉｙｕｎ　Ｄｉｓｔｒｉｃｔ，Ｈｅｂｉａｎ　Ｈｅｌｏｎｇｙｉｈｅｎｇｌｕ　２　Ｈａｏ，Ａ　Ｄｏｎｇ　４１１　Ｓｈｉ　ＧｕａｎｇＺｈｏｕ,,,,,,2026-01-09,1,,,,,グアンヂョウアオホーテクノロジーカンパニーリミテッド,0
2368,9010001261763,新規,0,2026-01-09,2026-01-09,株式会社パブリック,,株式会社,東京都,中央区,日本橋久松町２番１２号ザ・パークハビオ人形町レジデンス３０９,,13,102,1030005,,,,,,,2026-01-09,1,,,,,パブリック,0
2372,9010003050000,新規,0,2026-01-09,2026-01-09,インフィニティーキャピタルズ合同会社,,合同会社,東京都,千代田区,六番町１５番２号,,13,101,1020085,,,,,,,2026-01-09,1,,,,,インフィニティーキャピタルズ,0
2373,9010005041138,新規,0,2026-01-09,2026-01-09,一般社団法人ブレークモア企業価値研究所,,その他の設立登記法人,東京都,千代田区,霞が関１丁目４番１号日土地ビル４階ブレークモア法律事務所内,,13,101,1000013,,,,,,,2026-01-09,1,,,,,ブレークモアキギョウカチケンキュウジョ,0
2381,9010401195512,新規,0,2026-01-09,2026-01-09,株式会社Ｓｔｅｅｌ６１,,株式会社,東京都,港区,六本木１丁目６番１号,,13,103,1060032,,,,,,,2026-01-09,1,,,,,スティールロクイチ,0
2382,9010401195545,新規,0,2026-01-09,2026-01-09,株式会社ＷＡＢＩＣＡ,,株式会社,東京都,港区,白金６丁目１６－３４グランメゾン白金の杜ザ・タワー２００２,,13,103,1080072,,,,,,,2026-01-09,1,,,,,ワビカ,0
2383,9010401195611,新規,0,2026-01-09,2026-01-09,株式会社ＳＡＴ　ＳＵＰＰＯＲＴ,,株式会社,東京都,港区,浜松町２丁目２番１５号浜松町ダイヤビル２Ｆ,,13,103,1050013,,,,,,,2026-01-09,1,,,,,サットサポート,0
2384,9010401195628,新規,0,2026-01-09,2026-01-09,ケイスター株式会社,,株式会社,東京都,港区,芝３丁目１２番１３号－５０３,,13,103,1050014,,,,,,,2026-01-09,1,,,,,ケイスター,0
2385,9010401195644,新規,0,2026-01-09,2026-01-09,株式会社ＮＷ　Ｍａｎａｇｅｍｅｎｔ,,株式会社,東京都,港区,南青山３丁目１番３６号青山丸竹ビル６Ｆ,,13,103,1070062,,,,,,,2026-01-09,1,,,,,エヌダブルマネージメント,0
2386,9010401195652,新規,0,2026-01-09,2026-01-09,Ｔｅｌｅｎｏｒ　ＩｏＴ　Ｊａｐａｎ株式会社,,株式会社,東京都,港区,六本木１丁目１０番３号,,13,103,1060032,,,,,,,2026-01-09,1,,,,,テレノールアイオーティージャパン,0
2388,9010403036978,新規,0,2026-01-09,2026-01-09,Ｓａｋｕｒａ合同会社,,合同会社,東京都,港区,六本木１丁目９番１０号アークヒルズ仙石山森タワー４０階,,13,103,1060032,,,,,,,2026-01-09,1,,,,,サクラ,0
2389,9010403036986,新規,0,2026-01-09,2026-01-09,ＮＯＲＴＨ　ＲＩＤＧＥ合同会社,,合同会社,東京都,港区,南青山３丁目１番３６号青山丸竹ビル６Ｆ,,13,103,1070062,,,,,,,2026-01-09,1,,,,,ノースリッジ,0
2390,9010403037010,新規,0,2026-01-09,2026-01-09,合同会社ＡＴＫ,,合同会社,東京都,港区,新橋５丁目３５番６号第二水野ビル７Ｆ,,13,103,1050004,,,,,,,2026-01-09,1,,,,,エーティーケー,0
2391,9010403037019,新規,0,2026-01-09,2026-01-09,合同会社ラティスオフィス,,合同会社,東京都,港区,南青山３丁目１番３６号青山丸竹ビル６階,,13,103,1070062,,,,,,,2026-01-09,1,,,,,ラティスオフィス,0
2401,9010601068534,新規,0,2026-01-09,2026-01-09,株式会社ＹＳＣ,,株式会社,東京都,江東区,大島３丁目２６番１－５０８号,,13,108,1360072,,,,,,,2026-01-09,1,,,,,ワイエスシー,0
2402,9010601068542,新規,0,2026-01-09,2026-01-09,Ｐｅｒｆｏｒｍａｎｃｅ　Ｌａｂ　Ｔｏｋｙｏ株式会社,,株式会社,東京都,江東区,東陽６丁目２番８－４１０号,,13,108,1350016,,,,,,,2026-01-09,1,,,,,パフォーマンスラボトウキョウ,0
2407,9010603012011,新規,0,2026-01-09,2026-01-09,Ｓｐｌｕｃ合同会社,,合同会社,東京都,墨田区,江東橋４丁目２７番１４号楽天地ビル３Ｆ,,13,107,1300022,,,,,,,2026-01-09,1,,,,,スプラック,0
2410,9010701048857,新規,0,2026-01-09,2026-01-09,住環境ラボ株式会社,,株式会社,東京都,品川区,東品川４丁目１２－６品川シーサイドキャナルタワー４Ｆ－３５,,13,109,1400002,,,,,,,2026-01-09,1,,,,,ジュウカンキョウラボ,0
2412,9010705003841,新規,0,2026-01-09,2026-01-09,一般社団法人莉莉会,,その他の設立登記法人,東京都,品川区,東品川２丁目６番４号寺田倉庫Ｇ１ビル２階,,13,109,1400002,,,,,,,2026-01-09,1,,,,,リリカイ,0
2416,9010803005673,新規,0,2026-01-09,2026-01-09,合同会社ｐｉａｃｅｒｅ,,合同会社,東京都,大田区,上池台１丁目３２－５,,13,111,1450064,,,,,,,2026-01-09,1,,,,,ピアチェーレ,0
2425,9011001174831,新規,0,2026-01-09,2026-01-09,エリントン株式会社,,株式会社,東京都,渋谷区,西原３丁目６番５号,,13,113,1510066,,,,,,,2026-01-09,1,,,,,エリントン,0
2429,9011101114340,新規,0,2026-01-09,2026-01-09,株式会社ＧＯサービス,,株式会社,東京都,新宿区,西新宿３丁目３番１３号西新宿水間ビル６階,,13,104,1600023,,,,,,,2026-01-09,1,,,,,ゴーサービス,0
2433,9011303005817,新規,0,2026-01-09,2026-01-09,大島屋合同会社,,合同会社,東京都,杉並区,上井草２丁目１７番１９号上井草グリーンハイツ１１３,,13,115,1670023,,,,,,,2026-01-09,1,,,,,オオシマヤ,0
2439,9012301014669,新規,0,2026-01-09,2026-01-09,ココリッチドライバーズ株式会社,,株式会社,東京都,町田市,下小山田町２５９２番地４,,13,209,1940202,,,,,,,2026-01-09,1,,,,,ココリッチドライバーズ,0
2442,9012401043972,新規,0,2026-01-09,2026-01-09,株式会社ＫＣＰ,,株式会社,東京都,多摩市,馬引沢２丁目１２番地の３シャトルブラウンＡ３１２,,13,224,2060023,,,,,,,2026-01-09,1,,,,,ケーシーピー,0
2443,9012401043997,新規,0,2026-01-09,2026-01-09,株式会社ｌａｔｏｒｉ,,株式会社,東京都,狛江市,元和泉１丁目１番２号エコルマ２‐２０１号,,13,219,2010013,,,,,,,2026-01-09,1,,,,,ラトリ,0
2453,9020001166607,新規,0,2026-01-09,2026-01-09,株式会社Ｚｉｎ　ｉｎｔｅｒｎａｔｉｏｎａｌ,,株式会社,神奈川県,横浜市戸塚区,下倉田町１８番地１ブロードスクエア戸塚１０２６号,,14,110,2440815,,,,,,,2026-01-09,1,,,,,ジンインターナショナル,0
2455,9020003030083,新規,0,2026-01-09,2026-01-09,合同会社スカリバ,,合同会社,神奈川県,横浜市瀬谷区,二ツ橋町４６番地１５,,14,114,2460021,,,,,,,2026-01-09,1,,,,,スカリバ,0
2456,9020005017112,新規,0,2026-01-09,2026-01-09,一般社団法人ＷｉＳＥ機構,,その他の設立登記法人,神奈川県,横浜市青葉区,市ケ尾町１１７５番地９,,14,117,2250024,,,,,,,2026-01-09,1,,,,,ワイズキコウ,0
2458,9021001087173,新規,0,2026-01-09,2026-01-09,Ｖｉｖａｗｅｌｌ株式会社,,株式会社,神奈川県,海老名市,河原口１丁目２６番１－１００２号,,14,215,2430433,,,,,,,2026-01-09,1,,,,,ヴィヴァウェル,0
2459,9021001087181,新規,0,2026-01-09,2026-01-09,株式会社ＹＯＫＯ　ＤＲＩＶＥ,,株式会社,神奈川県,三浦郡葉山町,木古庭４３３,,14,301,2400114,,,,,,,2026-01-09,1,,,,,ヨコドライブ,0
2460,9021003016964,新規,0,2026-01-09,2026-01-09,ハーツエヌ合同会社,,合同会社,神奈川県,伊勢原市,高森７丁目７番地の１８,,14,214,2591114,,,,,,,2026-01-09,1,,,,,ハーツエヌ,0
2463,9030001170376,新規,0,2026-01-09,2026-01-09,株式会社ＳＵＧＩＴＯ,,株式会社,埼玉県,比企郡川島町,八幡１丁目９番地１５,,11,346,3500151,,,,,,,2026-01-09,1,,,,,スギト,0
2464,9030001170450,新規,0,2026-01-09,2026-01-09,株式会社ＨＯＵＳＥ・ＫＡＩＴＡＩ,,株式会社,埼玉県,富士見市,大字下南畑３７０８－３,,11,235,3540004,,,,,,,2026-01-09,1,,,,,ハウスカイタイ,0
2465,9030001170459,新規,0,2026-01-09,2026-01-09,株式会社ｚｅｎｒｙｏｋｕ　ｔｅａｍ,,株式会社,埼玉県,さいたま市岩槻区,本町３丁目３番２号,,11,110,3390057,,,,,,,2026-01-09,1,,,,,ゼンリョクチーム,0
2466,9030001170483,新規,0,2026-01-09,2026-01-09,株式会社ＴＡＫＡ設備工業,,株式会社,埼玉県,新座市,あたご３丁目１０番３号,,11,230,3520021,,,,,,,2026-01-09,1,,,,,タカセツビコウギョウ,0
2474,9050001057828,新規,0,2026-01-09,2026-01-09,株式会社ＰＥＳＣＡ,,株式会社,茨城県,龍ケ崎市,佐貫１丁目１７番地１１,,08,208,3010032,,,,,,,2026-01-09,1,,,,,ペスカ,0
2479,9070001043685,新規,0,2026-01-09,2026-01-09,株式会社ＥＣトラスト,,株式会社,群馬県,みどり市,笠懸町久宮５３２－８パステークガーデンＡ１０１,,10,212,3792312,,,,,,,2026-01-09,1,,,,,イーシートラスト,0
2480,9070001043693,新規,0,2026-01-09,2026-01-09,株式会社ＡＬＬＩＡＮＣＥ　ＥＸＰＲＥＳＳ,,株式会社,群馬県,邑楽郡大泉町,大字古海６２４番地１,,10,524,3700524,,,,,,,2026-01-09,1,,,,,アリアンスエクスプレス,0
2482,9070003006252,新規,0,2026-01-09,2026-01-09,合同会社ＧＡＴＥ　ＪＡＰＡＮ,,合同会社,群馬県,高崎市,中里見町２３９番地２,,10,202,3703344,,,,,,,2026-01-09,1,,,,,ゲートジャパン,0
2489,9080405007789,新規,0,2026-01-09,2026-01-09,特定非営利活動法人浜松にぎわい創出協会,,その他の設立登記法人,静岡県,浜松市中央区,伊左地町２４６６番地の１,,22,138,4311111,,,,,,,2026-01-09,1,,,,,ハママツニギワイソウシュツキョウカイ,0
2490,9090001019683,新規,0,2026-01-09,2026-01-09,株式会社ｍｉｔａｓｕ,,株式会社,山梨県,甲斐市,篠原２４５１－１シャーメゾンラブールＢ１０２,,19,210,4000115,,,,,,,2026-01-09,1,,,,,ミタス,0
2492,9110001039828,新規,0,2026-01-09,2026-01-09,株式会社ココナッツグローヴ,,株式会社,新潟県,新潟市中央区,西堀前通９番町１５２８番地第１ソシアルビル３Ｆ,,15,103,9518062,,,,,,,2026-01-09,1,,,,,ココナッツグローヴ,0
2503,9120001283152,新規,0,2026-01-09,2026-01-09,株式会社ｎｉｋａｒａ,,株式会社,大阪府,大阪市西区,新町２丁目１４番７号,,27,106,5500013,,,,,,,2026-01-09,1,,,,,ニカラ,0
2504,9120001283210,新規,0,2026-01-09,2026-01-09,株式会社Ｌｅｇａｌ　Ｊ　ｏｆｆｉｃｅ,,株式会社,大阪府,大阪市福島区,福島７丁目２０－１８－４２０３号,,27,103,5530003,,,,,,,2026-01-09,1,,,,,リーガルジェイオフィス,0
2505,9120001283235,新規,0,2026-01-09,2026-01-09,株式会社旭陽企画,,株式会社,大阪府,大阪市淀川区,宮原３丁目３番３－２２４号,,27,123,5320003,,,,,,,2026-01-09,1,,,,,アサヒキカク,0
2506,9120001283251,新規,0,2026-01-09,2026-01-09,Ｐｉｎｓｉａ株式会社,,株式会社,大阪府,大阪市西区,北堀江１丁目１７番１１号リバーライズ北堀江３０３,,27,106,5500014,,,,,,,2026-01-09,1,,,,,ピンシア,0
2507,9120001283276,新規,0,2026-01-09,2026-01-09,株式会社ＧＲＡＮＴＩＡ,,株式会社,大阪府,大阪市福島区,鷺洲５丁目１番４－１１０２号,,27,103,5530002,,,,,,,2026-01-09,1,,,,,グランティア,0
2508,9120001283284,新規,0,2026-01-09,2026-01-09,株式会社Ｒｏｓｅｖｉｅ．,,株式会社,大阪府,大阪市福島区,玉川４丁目２番１１－１００８号,,27,103,5530004,,,,,,,2026-01-09,1,,,,,ロゼヴィ,0
2511,9120003031625,新規,0,2026-01-09,2026-01-09,合同会社オフィス２坪,,合同会社,大阪府,交野市,東倉治３丁目２番２０号,,27,230,5760061,,,,,,,2026-01-09,1,,,,,オフィスフタツボ,0
2512,9120003031633,新規,0,2026-01-09,2026-01-09,合同会社グローブワン,,合同会社,大阪府,交野市,妙見東３丁目１２番２３号,,27,230,5760012,,,,,,,2026-01-09,1,,,,,グローブワン,0
2516,9120101073024,新規,0,2026-01-09,2026-01-09,株式会社ＣＬＥＡＮ　ＡＬＴＯ,,株式会社,大阪府,堺市南区,新檜尾台３丁３番２－２０９号,,27,145,5900143,,,,,,,2026-01-09,1,,,,,クリーンアルト,0
2517,9120103006923,新規,0,2026-01-09,2026-01-09,木次合同会社,,合同会社,大阪府,貝塚市,北町１３番１５号,,27,208,5970011,,,,,,,2026-01-09,1,,,,,キスキ,0
2518,9120105010097,新規,0,2026-01-09,2026-01-09,一般社団法人ＫＢアセットマネジメント,,その他の設立登記法人,大阪府,堺市堺区,市之町東１丁１番１０号,,27,141,5900952,,,,,,,2026-01-09,1,,,,,ケイビーアセットマネジメント,0
2520,9120903006016,新規,0,2026-01-09,2026-01-09,Ｈｕｍａｎｉｓｔａ　Ｌｉｎｋ合同会社,,合同会社,大阪府,吹田市,泉町２丁目３６番３６号,,27,205,5640041,,,,,,,2026-01-09,1,,,,,ヒューマニスタリンク,0
2522,9130001081357,新規,0,2026-01-09,2026-01-09,株式会社明秀館,,株式会社,京都府,城陽市,富野西垣内３１番地,,26,207,6100111,,,,,,,2026-01-09,1,,,,,メイシュウカン,0
2531,9140005027751,新規,0,2026-01-09,2026-01-09,一般社団法人女性ゴルフインストラクター協会,,その他の設立登記法人,兵庫県,神戸市中央区,元町通５丁目２－３,,28,110,6500022,,,,,,,2026-01-09,1,,,,,ジョセイゴルフインストラクターキョウカイ,0
2533,9150001028637,新規,0,2026-01-09,2026-01-09,株式会社ＵＮＤＥＦＩＮＥＤ,,株式会社,奈良県,大和高田市,北本町６番４－２号,,29,202,6350097,,,,,,,2026-01-09,1,,,,,アンディファインド,0
2535,9160001027324,新規,0,2026-01-09,2026-01-09,株式会社Ｌｏｃｏｐｉｌｉｎａ,,株式会社,滋賀県,大津市,小野３０６－９４,,25,201,5200525,,,,,,,2026-01-09,1,,,,,ロコピリナ,0
2536,9160001027340,新規,0,2026-01-09,2026-01-09,株式会社ＴＲ工業,,株式会社,滋賀県,高島市,安曇川町田中１１４－３,,25,212,5201217,,,,,,,2026-01-09,1,,,,,ティーアールコウギョウ,0
2537,9160001027349,新規,0,2026-01-09,2026-01-09,株式会社ＳＵＮＮＹ‐Ｋ,,株式会社,滋賀県,高島市,今津町酒波７０,,25,212,5201651,,,,,,,2026-01-09,1,,,,,サニーケイ,0
2539,9170001018941,新規,0,2026-01-09,2026-01-09,株式会社ＧＡＤ　ＳＰＯＲＴＳ　ＪＡＰＡＮ,,株式会社,和歌山県,海草郡紀美野町,国木原５５１－１４,,30,304,6401251,,,,,,,2026-01-09,1,,,,,ジーエドスポーツジャパン,0
2544,9180001170130,新規,0,2026-01-09,2026-01-09,株式会社ＥＮＤＬＥＳＳ　ＦＡＭＩＬＹ,,株式会社,愛知県,名古屋市西区,上名古屋３丁目２２番２０号‐１,,23,104,4510025,,,,,,,2026-01-09,1,,,,,エンドレスファミリー,0
2545,9180001170188,新規,0,2026-01-09,2026-01-09,株式会社ＬＩＬＵＡ,,株式会社,愛知県,名古屋市中川区,江松３丁目８０６番地,,23,110,4540954,,,,,,,2026-01-09,1,,,,,リルア,0
2550,9180301040553,新規,0,2026-01-09,2026-01-09,株式会社共栄建設,,株式会社,愛知県,西尾市,楠村町北荒子９番地１２,,23,213,4440325,,,,,,,2026-01-09,1,,,,,キョウエイケンセツ,0
2551,9180301040578,新規,0,2026-01-09,2026-01-09,株式会社ｓｏｍｅｄａｙ,,株式会社,愛知県,豊川市,諏訪３丁目８７番地杉浦ビル２Ｆ,,23,207,4420068,,,,,,,2026-01-09,1,,,,,サムデイ,0
2552,9180303006866,新規,0,2026-01-09,2026-01-09,合同会社ＹＳＴ,,合同会社,愛知県,豊田市,若草町３丁目３１番地６,,23,211,4710061,,,,,,,2026-01-09,1,,,,,ワイエスティー,0
2554,9190001032800,新規,0,2026-01-09,2026-01-09,株式会社ＨＭ　ＡＲＴ,,株式会社,三重県,鈴鹿市,木田町１３８１－１,,24,207,5130015,,,,,,,2026-01-09,1,,,,,エイチエムアート,0
2561,9220005009031,新規,0,2026-01-09,2026-01-09,行政書士法人土屋事務所,,その他の設立登記法人,石川県,金沢市,新神田４丁目４番１３号,,17,201,9218013,,,,,,,2026-01-09,1,,,,,ツチヤジムショ,0
2565,9240001065992,新規,0,2026-01-09,2026-01-09,株式会社ＲＥＨＡＮＯＷＡ,,株式会社,広島県,福山市,西町１丁目１番１号エフピコＲｉＭ１階コワーキングスペースｔｏｖｉｏ,,34,207,7200067,,,,,,,2026-01-09,1,,,,,リハノワ,0
2566,9240001066009,新規,0,2026-01-09,2026-01-09,イーストプロパティーズ株式会社,,株式会社,広島県,福山市,草戸町４丁目３１番２号,,34,207,7200831,,,,,,,2026-01-09,1,,,,,イーストプロパティーズ,0
2567,9240001066033,新規,0,2026-01-09,2026-01-09,株式会社Ｐｅｇａｓｏｓ,,株式会社,広島県,広島市西区,己斐上２丁目１２番６－１０３号,,34,104,7330815,,,,,,,2026-01-09,1,,,,,ペガサス,0
2570,9260001040886,新規,0,2026-01-09,2026-01-09,藤永＿工所株式会社,00142113,株式会社,岡山県,小田郡矢掛町,東川面４９５番地１,,33,461,7141223,,,,,,,2026-01-09,1,,,,,フジナガテッコウショ,0
2575,9290001112716,新規,0,2026-01-09,2026-01-09,株式会社ＲＥＡＲＫ,,株式会社,福岡県,福岡市南区,塩原１丁目２９－２０第二地緑ビル５０２号室,,40,134,8150032,,,,,,,2026-01-09,1,,,,,リアーク,0
2576,9290001112740,新規,0,2026-01-09,2026-01-09,ブライトフォーム株式会社,,株式会社,福岡県,福岡市中央区,警固１丁目６－２６,,40,133,8100023,,,,,,,2026-01-09,1,,,,,ブライトフォーム,0
2578,9290003017905,新規,0,2026-01-09,2026-01-09,合同会社創縁,,合同会社,福岡県,福岡市南区,若久６丁目５番１４号,,40,134,8150042,,,,,,,2026-01-09,1,,,,,,0
2579,9290005019949,新規,0,2026-01-09,2026-01-09,税理士法人ユース会計社福岡,,その他の設立登記法人,福岡県,福岡市博多区,店屋町１番３１号博多アーバンスクエア９階,,40,132,8120025,,,,,,,2026-01-09,1,,,,,ユースカイケイシャフクオカ,0
2585,9290801032155,新規,0,2026-01-09,2026-01-09,株式会社ワークヒューミリティー,,株式会社,福岡県,北九州市小倉北区,黒原３丁目１４－１サンライフ黒原６０１,,40,106,8020051,,,,,,,2026-01-09,1,,,,,ワークヒューミリティー,0
2587,9300001014472,新規,0,2026-01-09,2026-01-09,株式会社ＲＹＵＳＥＩ　ｃｏｒｐｏｒａｔｉｏｎ,,株式会社,佐賀県,武雄市,北方町大字大崎１２０６番地２,,41,206,8492204,,,,,,,2026-01-09,1,,,,,リュウセイコーポレーション,0
2595,9340001027875,新規,0,2026-01-09,2026-01-09,株式会社ｉ　Ｗｅｓｔ,,株式会社,鹿児島県,伊佐市,菱刈川北２５６６番地３４,,46,224,8952708,,,,,,,2026-01-09,1,,,,,アイウェスト,0
2596,9340001027891,新規,0,2026-01-09,2026-01-09,株式会社ファームＫＥＮ,,株式会社,鹿児島県,日置市,吹上町小野７７３番地２,,46,216,8993306,,,,,,,2026-01-09,1,,,,,ファームケン,0
2598,9350001019888,新規,0,2026-01-09,2026-01-09,株式会社ヨシタカ,,株式会社,宮崎県,延岡市,北方町南久保山子３２９６番地１,,45,203,8820128,,,,,,,2026-01-09,1,,,,,ヨシタカ,0
2606,9370001053373,新規,0,2026-01-09,2026-01-09,笹沢不動産管理株式会社,,株式会社,宮城県,仙台市太白区,大野田５丁目２２―３デュオヒルズ仙台富沢６０９,,04,104,9820014,,,,,,,2026-01-09,1,,,,,ササザワフドウサンカンリ,0
2608,9380005013050,新規,0,2026-01-09,2026-01-09,一般社団法人ｃｏｃｏｒｏ‐庭,,その他の設立登記法人,福島県,大沼郡会津美里町,字高田甲２７３５番地４,,07,447,9696264,,,,,,,2026-01-09,1,,,,,ココロバ,0
2610,9390001018218,新規,0,2026-01-09,2026-01-09,株式会社トランスフォーエム,,株式会社,山形県,山形市,小白川町４丁目２９番２５号,,06,201,9900021,,,,,,,2026-01-09,1,,,,,トランスフォーエム,0
2611,9400001017283,新規,0,2026-01-09,2026-01-09,株式会社エムワンテラス,,株式会社,岩手県,盛岡市,大通２丁目７番１９号,,03,201,0200022,,,,,,,2026-01-09,1,,,,,エムワンテラス,0
2613,9410001014362,新規,0,2026-01-09,2026-01-09,株式会社はなびや,,株式会社,秋田県,横手市,柳田字持田１８５番地,,05,203,0130054,,,,,,,2026-01-09,1,,,,,ハナビヤ,0
2614,9410003004196,新規,0,2026-01-09,2026-01-09,深井電工合同会社,,合同会社,秋田県,秋田市,雄和田草川字沖村２３４番地,,05,201,0101201,,,,,,,2026-01-09,1,,,,,フカイデンコウ,0
2626,9470001021048,新規,0,2026-01-09,2026-01-09,株式会社濱田水産,00142112,株式会社,香川県,小豆郡小豆島町,西村甲２３６１番地１,,37,324,7614434,,,,,,,2026-01-09,1,,,,,ハマダスイサン,0
2627,9470003003052,新規,0,2026-01-09,2026-01-09,ＳＥＴＯウェルス合同会社,,合同会社,香川県,丸亀市,北平山町２丁目９番８号エルヴィータ２０２,,37,202,7630015,,,,,,,2026-01-09,1,,,,,,0
2628,9480001013052,新規,0,2026-01-09,2026-01-09,株式会社Ｔｏ　ｗｏｒｋｓ,,株式会社,徳島県,板野郡北島町,江尻字松堂２３番地１７,,36,402,7710205,,,,,,,2026-01-09,1,,,,,トゥーワークス,0
2633,9700150065565,新規,0,2026-01-09,2015-10-09,西諸地域酪農ヘルパ－利用組合,,その他,宮崎県,小林市,細野１５１１,,45,205,8860004,,,,,,,2015-10-09,1,,,,,ニシモロチイキラクノウヘルパーリヨウクミアイ,0
