sequenceNumber,corporateNumber,process,correct,updateDate,changeDate,name,nameImageId,kind,prefectureName,cityName,streetNumber,addressImageId,prefectureCode,cityCode,postCode,addressOutside,addressOutsideImageId,closeDate,closeCause,successorCorporateNumber,changeCause,assignmentDate,latest,enName,enPrefectureName,enCityName,enAddressOutside,furigana,hihyoji
7,1010001171945,登記記録の閉鎖等,0,2022-12-09,2022-12-05,株式会社ＢＩＴＡＳ,,株式会社,東京都,文京区,本郷１丁目２８番１７号,,13,105,1130033,,,2022-12-05,清算の結了等,,,2015-11-27,1,,,,,バイタス,0
12,1010003024481,登記記録の閉鎖等,0,2022-12-09,2022-12-05,合同会社フィールドウエスト,,合同会社,東京都,千代田区,丸の内２丁目２番３号丸の内仲通りビル７階税理士法人二重橋総合会計事務所内,,13,101,1000005,,,2022-12-05,清算の結了等,,,2016-12-05,1,,,,,フィールドウエスト,0
40,1010701040978,登記記録の閉鎖等,0,2022-12-09,2022-12-07,株式会社ＧＡ,,株式会社,東京都,品川区,南大井２丁目８－６－８０７,,13,109,1400013,,,2022-12-07,清算の結了等,,,2021-05-24,1,,,,,ジーエー,0
62,1011102003310,登記記録の閉鎖等,0,2022-12-09,2022-12-06,有限会社ＴＨパートナーズ,,有限会社,東京都,新宿区,西新宿６丁目１２－７ストーク新宿１Ｆ,,13,104,1600023,,,2022-12-06,清算の結了等,,,2015-10-05,1,,,,,ティーエイチパートナーズ,0
63,1011102015495,登記記録の閉鎖等,0,2022-12-09,2022-12-06,有限会社松木アートオフィス,,有限会社,東京都,新宿区,西新宿３丁目２０番２号東京オペラシティ３階,,13,104,1600023,,,2022-12-06,清算の結了等,,,2015-10-05,1,,,,,マツキアートオフィス,0
81,1012701012081,登記記録の閉鎖等,0,2022-12-09,2022-12-07,株式会社ＹＵエンタープライズ,,株式会社,東京都,小平市,花小金井南町１丁目１５番１２号,,13,211,1870003,,,2022-12-07,清算の結了等,,,2015-10-05,1,,,,,ワイユウエンタープライズ,0
88,1013402003394,登記記録の閉鎖等,0,2022-12-09,2022-12-06,有限会社川正治商店,,有限会社,東京都,稲城市,大丸５１５番地,,13,225,2060801,,,2022-12-06,清算の結了等,,,2015-10-05,1,,,,,,0
114,1040001025297,登記記録の閉鎖等,0,2022-12-09,2022-12-01,株式会社Ｙ・Ｍ・Ｇ,,株式会社,千葉県,船橋市,高根台４丁目９番３３５棟２号,,12,204,2740065,,,2022-12-01,合併による解散等,7040001060396,令和４年１２月１日千葉県茂原市緑ケ丘三丁目１６番１１号株式会社Ｓ．ファースト（7040001060396）に合併し解散,2015-10-05,1,,,,,ワイエムジー,0
130,1070001037934,登記記録の閉鎖等,0,2022-12-09,2022-12-01,Ｇｕｒｉｎ　Ｂａｎｋ　Ｆｕｔｕｒｅ株式会社,,株式会社,群馬県,沼田市,下之町８８８番地テラス沼田６階６－Ｂ,,10,206,3780044,,,2022-12-01,清算の結了等,,,2021-04-20,1,,,,,グリンバンクフューチャー,0
132,1070002027166,登記記録の閉鎖等,0,2022-12-09,2022-12-05,有限会社阿部建築,,有限会社,群馬県,渋川市,金井５８５番地４,,10,208,3770027,,,2022-12-05,清算の結了等,,,2015-10-05,1,,,,,,0
143,1100002034010,登記記録の閉鎖等,0,2022-12-09,2022-12-01,有限会社くまがい,,有限会社,東京都,渋谷区,本町５丁目２６番２－２０１号,,13,113,1510071,,,2022-12-01,合併による解散等,6011001072963,令和４年１２月１日東京都渋谷区本町五丁目２６番２－２０１号レゾー株式会社（6011001072963）に合併し解散,2015-10-05,1,,,,,クマガイ,0
149,1120001154996,登記記録の閉鎖等,0,2022-12-09,2022-12-06,ＭＩ環境保全株式会社,,株式会社,滋賀県,米原市,坂口１２３番地１,,25,214,5210232,,,2022-12-06,合併による解散等,1210001010562,令和４年１１月１日大阪市北区西天満五丁目６番１０号三和不動産株式会社（1210001010562）に合併し解散,2015-10-05,1,,,,,エムアイカンキョウホゼン,0
180,1140001111847,登記記録の閉鎖等,0,2022-12-09,2022-12-07,ＭａＣ株式会社,,株式会社,大阪府,堺市堺区,西湊町１丁６番１３号,,27,141,5900835,,,2022-12-07,清算の結了等,,,2018-11-08,1,,,,,エムエーシー,0
185,1180001012190,登記記録の閉鎖等,0,2022-12-09,2022-12-06,酒井電子株式会社,,株式会社,愛知県,名古屋市北区,西志賀町５丁目３番地,,23,103,4620058,,,2022-12-06,清算の結了等,,,2015-10-05,1,,,,,サカイデンシ,0
196,1180002007000,登記記録の閉鎖等,0,2022-12-09,2022-12-06,有限会社福田印刷,,有限会社,愛知県,名古屋市港区,福田２丁目１１１番地,,23,111,4550887,,,2022-12-06,清算の結了等,,,2015-10-05,1,,,,,フクタインサツ,0
197,1180002091878,登記記録の閉鎖等,0,2022-12-09,2022-12-05,有限会社禄紫苑,,有限会社,愛知県,あま市,中萱津燈明先１番地,,23,237,4901113,,,2022-12-05,清算の結了等,,,2015-10-05,1,,,,,ロクシエン,0
204,1200002011338,登記記録の閉鎖等,0,2022-12-09,2022-12-07,有限会社矢野社寺建築,,有限会社,岐阜県,羽島市,福寿町平方９丁目５４番地,,21,209,5016257,,,2022-12-07,清算の結了等,,,2015-10-05,1,,,,,ヤノシャジケンチク,0
210,1220001022409,登記記録の閉鎖等,0,2022-12-09,2022-12-06,株式会社アプストリーム,,株式会社,石川県,金沢市,長町１丁目３番５４号ライオンズマンション・２０７号,,17,201,9200865,,,2022-12-06,清算の結了等,,,2018-07-13,1,,,,,アプストリーム,0
213,1240002033089,登記記録の閉鎖等,0,2022-12-09,2022-12-07,有限会社周,,有限会社,広島県,呉市,中通３丁目２番４号,,34,202,7370046,,,2022-12-07,清算の結了等,,,2015-10-05,1,,,,,アマネ,0
223,1290002042473,登記記録の閉鎖等,0,2022-12-09,2022-12-06,有限会社現代ヒューマンスキルセンター,,有限会社,福岡県,筑紫野市,光が丘３丁目２５番地の１,,40,217,8180036,,,2022-12-06,清算の結了等,,,2015-10-05,1,,,,,,0
233,1330002027627,登記記録の閉鎖等,0,2022-12-09,2022-12-07,有限会社湧泉閣,,有限会社,熊本県,葦北郡芦北町,大字吉尾４２番地,,43,482,8696212,,,2022-12-07,清算の結了等,,,2015-10-05,1,,,,,ユウセンカク,0
248,1410005001232,登記記録の閉鎖等,0,2022-12-09,2022-12-06,税理士法人福士合同会計事務所,,その他の設立登記法人,秋田県,秋田市,高陽幸町８番４号,,05,201,0100967,,,2022-12-06,清算の結了等,,,2015-10-05,1,,,,,フクシゴウドウカイケイジムショ,0
249,1420003002413,登記記録の閉鎖等,0,2022-12-09,2022-12-07,合同会社華心,,合同会社,青森県,青森市,松原２丁目１２番１号,,02,201,0300813,,,2022-12-07,清算の結了等,,,2021-11-24,1,,,,,カシン,0
251,1430001086102,登記記録の閉鎖等,0,2022-12-09,2022-12-05,フジアシスト株式会社,,株式会社,北海道,夕張郡栗山町,字中里６１番地４９,,01,429,0691522,,,2022-12-05,清算の結了等,,,2022-03-03,1,,,,,フジアシスト,0
253,1430002019408,登記記録の閉鎖等,0,2022-12-09,2022-12-07,有限会社三冨久商会,,有限会社,北海道,札幌市北区,屯田五条７丁目３番２１号,,01,102,0020855,,,2022-12-07,清算の結了等,,,2015-10-05,1,,,,,サンプクショウカイ,0
254,1430002019952,登記記録の閉鎖等,0,2022-12-09,2022-12-05,有限会社メディカルスズキ,,有限会社,北海道,札幌市豊平区,平岸一条１６丁目５番２４号,,01,105,0620931,,,2022-12-05,清算の結了等,,,2015-10-05,1,,,,,メディカルスズキ,0
259,1460305000078,登記記録の閉鎖等,0,2022-12-09,2022-12-01,株式会社日専連北見,,株式会社,北海道,北見市,北二条西３丁目６番地,,01,208,0900042,,,2022-12-01,合併による解散等,7460301000786,令和４年１２月１日北海道北見市北二条西一丁目１６番地の１株式会社日専連ニックコーポレーション（7460301000786）に合併し解散,2015-10-05,1,,,,,ニッセンレンキタミ,0
265,1700150003136,登記記録の閉鎖等,0,2022-12-09,2021-11-15,屋外広告ディスプレイ厚生年金基金,,その他,東京都,千代田区,内神田１丁目１５－１１千代田西井ビル２階,,13,101,1010047,,,2021-11-15,その他の清算の結了等,,,2015-10-09,1,,,,,オクガイコウコクデイスプレイコウセイネンキンキキン,0
266,1700150007244,登記記録の閉鎖等,0,2022-12-09,2017-10-01,日本鉄リサイクル工業厚生年金基金,,その他,東京都,台東区,蔵前１丁目７－７アイランドビル８Ｆ,,13,106,1110051,,,2017-10-01,その他の清算の結了等,,,2015-10-09,1,,,,,ニホンテツリサイクルコウギヨウコウセイネンキンキキン,0
267,1700150027969,登記記録の閉鎖等,0,2022-12-09,2022-03-31,みなと銀行企業年金基金,,その他,兵庫県,神戸市中央区,多聞通２丁目１－２,,28,110,6500015,,,2022-03-31,その他の清算の結了等,,,2015-10-09,1,,,,,ミナトギンコウキギヨウネンキンキキン,0
268,1700150038173,登記記録の閉鎖等,0,2022-12-09,2022-03-23,遠野土地改良区,,その他,福島県,いわき市,遠野町根岸字白幡４０－１,,07,204,9720163,,,2022-03-23,その他の清算の結了等,,,2015-10-09,1,,,,,トオノトチカイリヨウク,0
269,1700150039733,登記記録の閉鎖等,0,2022-12-09,2019-03-31,大沢田地区環境保全活動組織,,その他,青森県,十和田市,大字大沢田字李平１４－１,,02,206,0340102,,,2019-03-31,その他の清算の結了等,,,2015-10-09,1,,,,,オオサワダチクカンキヨウホゼンカツドウソシキ,0
270,1700150052117,登記記録の閉鎖等,0,2022-12-09,2022-06-23,東広島市消防局共済会,,その他,広島県,東広島市,西条町助実１１７３－１,,34,212,7390021,,,2022-06-23,その他の清算の結了等,,,2015-10-09,1,,,,,ヒガシヒロシマシシヨウボウキヨクキヨウサイカイ,0
271,1700150061365,登記記録の閉鎖等,0,2022-12-09,2022-05-31,しま共通地域通貨発行委員会,,その他,長崎県,長崎市,栄町４－９,,42,201,8500875,,,2022-05-31,その他の清算の結了等,,,2015-10-09,1,,,,,シマキヨウツウチイキツウカハツコウイインカイ,0
272,1700150068542,登記記録の閉鎖等,0,2022-12-09,2021-12-21,藤沢住宅マンション建替組合,,その他,神奈川県,藤沢市,藤が岡１丁目１３－１９－２０２,,14,205,2510004,,,2021-12-21,その他の清算の結了等,,,2015-12-17,1,,,,,フジサワジユウタクマンシヨンタテカエクミアイ,0
273,1700150103828,登記記録の閉鎖等,0,2022-12-09,2021-12-20,覚王山音楽家協会,,その他,愛知県,名古屋市千種区,田代町字四観音道西１３－１四観音住宅３０７,,23,101,4640052,,,2021-12-20,その他の清算の結了等,,,2021-06-23,1,,,,,カクオウザンオンガクカキヨウカイ,0
300,2010501025369,登記記録の閉鎖等,0,2022-12-09,2022-12-06,第一商事株式会社,,株式会社,東京都,台東区,根岸４丁目１８番１０号,,13,106,1100003,,,2022-12-06,清算の結了等,,,2015-10-05,1,,,,,ダイイチショウジ,0
319,2011101072074,登記記録の閉鎖等,0,2022-12-09,2022-12-06,株式会社４０－４０,,株式会社,東京都,渋谷区,恵比寿南１丁目７番８号ニューライフ恵比寿,,13,113,1500022,,,2022-12-06,清算の結了等,,,2015-10-05,1,,,,,フォーティーフォーティー,0
357,2021001033076,登記記録の閉鎖等,0,2022-12-09,2022-12-05,株式会社フカワコーポレーション,,株式会社,神奈川県,小田原市,久野７５２番地の２,,14,206,2500055,,,2022-12-05,清算の結了等,,,2015-10-05,1,,,,,フカワコーポレーション,0
358,2021001068270,登記記録の閉鎖等,0,2022-12-09,2022-12-06,株式会社アドバンス海天,,株式会社,神奈川県,藤沢市,石川４丁目４番地の３,,14,205,2520815,,,2022-12-06,清算の結了等,,,2019-10-17,1,,,,,アドバンスカイテン,0
367,2030001035833,登記記録の閉鎖等,0,2022-12-09,2022-12-02,株式会社岩佐製作所,,株式会社,埼玉県,八潮市,大字二丁目１０１３番地１,,11,234,3400811,,,2022-12-02,清算の結了等,,,2015-10-05,1,,,,,イワサセイサクジョ,0
373,2040001048702,登記記録の閉鎖等,0,2022-12-09,2022-12-05,株式会社サンチェリー,,株式会社,千葉県,佐倉市,六崎１１１９番地,,12,212,2850812,,,2022-12-05,清算の結了等,,,2015-10-05,1,,,,,サンチェリー,0
381,2040002089415,登記記録の閉鎖等,0,2022-12-09,2022-12-05,有限会社カシワ工機,,有限会社,千葉県,柏市,東中新宿３丁目３番７号,,12,217,2770061,,,2022-12-05,清算の結了等,,,2015-10-05,1,,,,,カシワコウキ,0
382,2040002102904,登記記録の閉鎖等,0,2022-12-09,2022-12-01,有限会社グリップ,,有限会社,千葉県,いすみ市,日在１４３７番地１１,,12,238,2980002,,,2022-12-01,清算の結了等,,,2015-10-05,1,,,,,グリップ,0
390,2080402016205,登記記録の閉鎖等,0,2022-12-09,2022-12-08,有限会社長坂,,有限会社,静岡県,浜松市北区,三ヶ日町福長１０４０番地,,22,135,4311411,,,2022-12-08,清算の結了等,,,2015-10-05,1,,,,,ナガサカ,0
393,2100001001547,登記記録の閉鎖等,0,2022-12-09,2022-12-06,株式会社新和綜業,,株式会社,長野県,長野市,川中島町御厨８２０番地１,,20,201,3812221,,,2022-12-06,清算の結了等,,,2015-10-05,1,,,,,シンワソウギョウ,0
395,2100002006371,登記記録の閉鎖等,0,2022-12-09,2022-12-06,有限会社下平建設,,有限会社,長野県,長野市,信州新町日原東１４２６番地,,20,201,3812422,,,2022-12-06,清算の結了等,,,2015-10-05,1,,,,,シモダイラケンセツ,0
397,2110001009548,登記記録の閉鎖等,0,2022-12-09,2022-12-08,株式会社カネ三,,株式会社,新潟県,新潟市東区,材木町１番６３号,,15,102,9500811,,,2022-12-08,清算の結了等,,,2022-10-05,1,,,,,カネサン,0
398,2110001031592,登記記録の閉鎖等,0,2022-12-09,2022-12-01,株式会社ディー・グラント,,株式会社,新潟県,新潟市南区,大通南４丁目１９４番地,,15,106,9501202,,,2022-12-01,清算の結了等,,,2016-06-14,1,,,,,ディーグラント,0
440,2180001067399,登記記録の閉鎖等,0,2022-12-09,2022-12-05,株式会社宗信電機,,株式会社,愛知県,愛知郡東郷町,大字春木字白土１番地の１３５８,,23,302,4700162,,,2022-12-05,清算の結了等,,,2015-10-05,1,,,,,ソウシンデンキ,0
444,2180003023581,登記記録の閉鎖等,0,2022-12-09,2022-12-06,合同会社翔陽,,合同会社,愛知県,一宮市,浅野字大曲り１１番地７,,23,203,4910871,,,2022-12-06,清算の結了等,,,2022-03-07,1,,,,,ショウヨウ,0
453,2240001034351,登記記録の閉鎖等,0,2022-12-09,2022-12-01,株式会社ニチマンラバーテック,,株式会社,広島県,府中市,父石町３６１番地の１,,34,208,7260035,,,2022-12-01,合併による解散等,4240001034985,令和４年１２月１日広島県府中市府中町７４番地の１株式会社スピングルカンパニー（4240001034985）に合併し解散,2015-10-05,1,,,,,ニチマンラバーテック,0
460,2260003003856,登記記録の閉鎖等,0,2022-12-09,2022-12-02,合同会社牛窓帆港,,合同会社,岡山県,瀬戸内市,牛窓町牛窓５４１４－７,,33,212,7014302,,,2022-12-02,清算の結了等,,,2022-03-28,1,,,,,ウシマドホコウ,0
462,2270002010200,登記記録の閉鎖等,0,2022-12-09,2022-12-02,有限会社マツモト,,有限会社,鳥取県,倉吉市,新町２丁目２４０９番地,,31,203,6820861,,,2022-12-02,清算の結了等,,,2015-10-05,1,,,,,マツモト,0
466,2290001066076,登記記録の閉鎖等,0,2022-12-09,2022-12-06,いちご不動産サービス福岡株式会社,,株式会社,福岡県,福岡市中央区,大名１丁目１４番１３号,,40,133,8100041,,,2022-12-06,合併による解散等,1010001125620,令和４年１２月１日東京都千代田区内幸町一丁目１番１号いちご地所株式会社（1010001125620）に合併し解散,2015-10-05,1,,,,,イチゴフドウサンサービスフクオカ,0
470,2300001008720,登記記録の閉鎖等,0,2022-12-09,2022-12-05,株式会社モイスティーヌ武雄サロン,,株式会社,佐賀県,武雄市,武雄町大字昭和１７番地９,,41,206,8430023,,,2022-12-05,清算の結了等,,,2015-10-05,1,,,,,モイスティーヌタケオサロン,0
471,2310001007250,登記記録の閉鎖等,0,2022-12-09,2022-12-07,株式会社エムテック,,株式会社,長崎県,佐世保市,大塔町５７４番地１,,42,202,8571161,,,2022-12-07,清算の結了等,,,2015-10-05,1,,,,,エムテック,0
482,2360002011916,登記記録の閉鎖等,0,2022-12-09,2022-12-02,有限会社第二島袋農林,,有限会社,沖縄県,沖縄市,知花２丁目４番１４号,,47,211,9042143,,,2022-12-02,清算の結了等,,,2015-10-05,1,,,,,ダイニシマブクロノウリン,0
514,2700150004422,登記記録の閉鎖等,0,2022-12-09,2022-06-25,東京駅八重洲大地下街商店会,,その他,東京都,中央区,八重洲２丁目１番　八重洲地下街北１号,,13,102,1040028,,,2022-06-25,その他の清算の結了等,,,2015-10-09,1,,,,,トウキヨウエキヤエスダイチカガイシヨウテンカイ,0
515,2700150065480,登記記録の閉鎖等,0,2022-12-09,2022-06-30,南九州畜産敷料生産組合,,その他,宮崎県,北諸県郡三股町,大字長田１２２５－２,,45,341,8891911,,,2022-06-30,その他の清算の結了等,,,2015-10-09,1,,,,,ミナミキユウシユウチクサンシキリヨウセイサンクミアイ,0
517,2700150083887,登記記録の閉鎖等,0,2022-12-09,2021-03-31,どれみふぁ♪ぱれーど,,その他,兵庫県,赤穂市,さつき町３３－２,,28,212,6780226,,,2021-03-31,その他の清算の結了等,,,2017-06-13,1,,,,,ドレミフアパレード,0
541,3010401063419,登記記録の閉鎖等,0,2022-12-09,2022-12-01,株式会社ヴィップウェルネス,,株式会社,東京都,港区,赤坂３丁目１５番７号,,13,103,1070052,,,2022-12-01,清算の結了等,,,2015-10-05,1,,,,,,0
552,3010602007109,登記記録の閉鎖等,0,2022-12-09,2022-12-05,有限会社後藤塗装店,,有限会社,東京都,江東区,北砂３丁目３１番６号,,13,108,1360073,,,2022-12-05,清算の結了等,,,2015-10-05,1,,,,,ゴトウトソウテン,0
555,3010602031496,登記記録の閉鎖等,0,2022-12-09,2022-12-06,有限会社ハセガワ,,有限会社,東京都,葛飾区,東立石１丁目１６番２５号,,13,122,1240013,,,2022-12-06,清算の結了等,,,2015-10-05,1,,,,,ハセガワ,0
576,3011102024585,登記記録の閉鎖等,0,2022-12-09,2022-12-01,ケーズメソッドジャパン有限会社,,有限会社,東京都,港区,赤坂８丁目４番１４号,,13,103,1070052,,,2022-12-01,清算の結了等,,,2015-10-05,1,,,,,ケーズメソッドジャパン,0
585,3011501023808,登記記録の閉鎖等,0,2022-12-09,2022-12-05,株式会社ＮＪネクスト,,株式会社,東京都,荒川区,東日暮里５丁目５０番１８号,,13,118,1160014,,,2022-12-05,清算の結了等,,,2018-06-15,1,,,,,エヌジェイネクスト,0
593,3012301001598,登記記録の閉鎖等,0,2022-12-09,2022-12-06,株式会社鶴間製菓,,株式会社,東京都,町田市,南町田２丁目１６番１２号,,13,209,1940005,,,2022-12-06,清算の結了等,,,2015-10-05,1,,,,,ツルマセイカ,0
606,3020002043810,登記記録の閉鎖等,0,2022-12-09,2022-12-06,張氏兄弟有限会社,,有限会社,神奈川県,横浜市中区,山下町１０３番地,,14,104,2310023,,,2022-12-06,清算の結了等,,,2015-10-05,1,,,,,チョウシキョウダイ,0
613,3021001047661,登記記録の閉鎖等,0,2022-12-09,2022-12-05,株式会社ｓｃａｎ,,株式会社,神奈川県,横浜市都筑区,牛久保１丁目１番２４号,,14,118,2240012,,,2022-12-05,清算の結了等,,,2015-10-05,1,,,,,スキャン,0
615,3021002003746,登記記録の閉鎖等,0,2022-12-09,2022-12-05,有限会社ナルセ電器商会,,有限会社,神奈川県,藤沢市,片瀬５丁目６番５号,,14,205,2510032,,,2022-12-05,清算の結了等,,,2015-10-05,1,,,,,ナルセデンキショウカイ,0
628,3040001059211,登記記録の閉鎖等,0,2022-12-09,2022-11-28,篠崎不動産株式会社,,株式会社,千葉県,茂原市,高師町３丁目１２番地の６,,12,210,2970021,,,2022-11-28,清算の結了等,,,2016-10-25,1,,,,,シノザキフドウサン,0
638,3050002022381,登記記録の閉鎖等,0,2022-12-09,2022-12-06,有限会社つくば紹介所,,有限会社,茨城県,つくば市,大井１５３５番地１１,,08,220,3001243,,,2022-12-06,清算の結了等,,,2015-10-05,1,,,,,ツクバショウカイジョ,0
648,3070002020350,登記記録の閉鎖等,0,2022-12-09,2022-12-05,有限会社カーモードノムラ,,有限会社,群馬県,伊勢崎市,境伊与久２７５７番地の３,,10,204,3700105,,,2022-12-05,清算の結了等,,,2015-10-05,1,,,,,カーモードノムラ,0
655,3090001014946,登記記録の閉鎖等,0,2022-12-09,2022-11-29,石田工業株式会社,,株式会社,山梨県,笛吹市,境川町石橋２１８９番地５,,19,211,4060842,,,2022-11-29,清算の結了等,,,2017-01-23,1,,,,,イシダコウギョウ,0
656,3090001015580,登記記録の閉鎖等,0,2022-12-09,2022-12-05,山梨アドバンスセキュリティー株式会社,,株式会社,山梨県,甲府市,住吉５丁目１６番２８号ラルゴ住吉２０４号室,,19,201,4000851,,,2022-12-05,清算の結了等,,,2018-05-25,1,,,,,ヤマナシアドバンスセキュリティ,0
679,3120002080315,登記記録の閉鎖等,0,2022-12-09,2022-12-06,有限会社三代製作所,,有限会社,大阪府,門真市,上島町１番２３号,,27,223,5710071,,,2022-12-06,清算の結了等,,,2015-10-05,1,,,,,ミシロセイサクショ,0
695,3140002031836,登記記録の閉鎖等,0,2022-12-09,2022-12-06,有限会社栄光電気工業所,,有限会社,兵庫県,たつの市,龍野町片山１２７番地の１,,28,229,6794123,,,2022-12-06,清算の結了等,,,2015-10-05,1,,,,,エイコウデンキコウギョウショ,0
706,3180001056228,登記記録の閉鎖等,0,2022-12-09,2022-12-01,株式会社ＧＲＡＮ,,株式会社,愛知県,名古屋市中区,上前津２丁目７番２４号上前津グランドハイツ９０４,,23,106,4600013,,,2022-12-01,合併による解散等,9180002032214,令和４年１２月１日名古屋市中区上前津二丁目７番２４号上前津グランドハイツ９０４株式会社灘文（9180002032214）に合併し解散,2015-10-05,1,,,,,グラン,0
716,3180002041435,登記記録の閉鎖等,0,2022-12-09,2022-12-05,有限会社ふくシーリング,,有限会社,愛知県,名古屋市港区,福田１丁目１４１６番地,,23,111,4550887,,,2022-12-05,清算の結了等,,,2015-10-05,1,,,,,フクシーリング,0
725,3190001016560,登記記録の閉鎖等,0,2022-12-09,2022-12-07,株式会社メイビ,,株式会社,三重県,四日市市,羽津町１１番１７号,,24,202,5100017,,,2022-12-07,清算の結了等,,,2015-10-05,1,,,,,メイビ,0
737,3230001003281,登記記録の閉鎖等,0,2022-12-09,2022-12-07,株式会社マサト開発,,株式会社,富山県,富山市,西荒屋５４６番地スカイビル１０２号,,16,201,9398251,,,2022-12-07,清算の結了等,,,2015-10-05,1,,,,,マサトカイハツ,0
742,3240002013873,登記記録の閉鎖等,0,2022-12-09,2022-12-07,有限会社平岡建設工業,,有限会社,広島県,広島市西区,草津梅が台９番４号,,34,104,7330864,,,2022-12-07,清算の結了等,,,2015-10-05,1,,,,,ヒラオカケンセツコウギョウ,0
778,3400005001025,登記記録の閉鎖等,0,2022-12-09,2022-12-05,特定非営利活動法人いわて障害者雇用支援ネットワーク,,その他の設立登記法人,岩手県,盛岡市,南大通２丁目１０番３８号,,03,201,0200874,,,2022-12-05,清算の結了等,,,2015-10-05,1,,,,,イワテショウガイシャコヨウシエンネットワーク,0
781,3420002019910,登記記録の閉鎖等,0,2022-12-09,2022-12-06,有限会社リング,,有限会社,青森県,むつ市,宇田町１８番４４号,,02,208,0350092,,,2022-12-06,清算の結了等,,,2015-10-05,1,,,,,リング,0
784,3430002003608,登記記録の閉鎖等,0,2022-12-09,2022-12-05,有限会社大内インタープロジエクト,,有限会社,北海道,札幌市豊平区,月寒東一条７丁目６番１号,,01,105,0620051,,,2022-12-05,清算の結了等,,,2015-10-05,1,,,,,オオウチインタープロジエクト,0
791,3490001005302,登記記録の閉鎖等,0,2022-12-09,2022-12-05,株式会社まちづくり宿毛,,株式会社,高知県,宿毛市,中央２丁目２番１８号,,39,208,7880001,,,2022-12-05,清算の結了等,,,2015-10-05,1,,,,,マチヅクリスクモ,0
796,3700150025426,登記記録の閉鎖等,0,2022-12-09,2022-03-31,大阪府立大学後援会,,その他,大阪府,堺市中区,学園町１番１号大阪府立大学内,,27,142,5998231,,,2022-03-31,その他の清算の結了等,,,2015-10-09,1,,,,,オオサカフリツダイガクコウエンカイ,0
797,3700150027991,登記記録の閉鎖等,0,2022-12-09,2022-03-31,こころ豊かな美しい兵庫推進会議,,その他,兵庫県,神戸市中央区,下山手通５丁目１０－１県庁内,,28,110,6500011,,,2022-03-31,その他の清算の結了等,,,2015-10-09,1,,,,,ココロユタカナウツクシイヒヨウゴスイシンカイギ,0
805,4010001113738,登記記録の閉鎖等,0,2022-12-09,2022-12-05,株式会社シューマン愁満,,株式会社,東京都,千代田区,外神田４丁目６番１号,,13,101,1010021,,,2022-12-05,清算の結了等,,,2015-10-05,1,,,,,シューマンシューマン,0
812,4010001219130,登記記録の閉鎖等,0,2022-12-09,2022-12-05,Ｇｌｏｂａｌ　Ｈｉｌｌｓ株式会社,,株式会社,東京都,千代田区,岩本町２丁目１７番４号,,13,101,1010032,,,2022-12-05,清算の結了等,,,2021-06-23,1,,,,,グローバルヒルズ,0
832,4010601054051,登記記録の閉鎖等,0,2022-12-09,2022-12-05,株式会社スペシャリスト,,株式会社,東京都,墨田区,江東橋３丁目９番１号,,13,107,1300022,,,2022-12-05,清算の結了等,,,2018-10-09,1,,,,,スペシャリスト,0
835,4010602022263,登記記録の閉鎖等,0,2022-12-09,2022-11-30,有限会社ビッグフェンス,,有限会社,東京都,墨田区,押上１丁目２２番６号,,13,107,1310045,,,2022-11-30,清算の結了等,,,2015-10-05,1,,,,,ビッグフェンス,0
840,4010802007601,登記記録の閉鎖等,0,2022-12-09,2022-12-02,有限会社鈴一,,有限会社,東京都,大田区,羽田３丁目７番１７号,,13,111,1440043,,,2022-12-02,清算の結了等,,,2015-10-05,1,,,,,スズイチ,0
842,4010901007056,登記記録の閉鎖等,0,2022-12-09,2022-12-06,武居工務店株式会社,,株式会社,東京都,世田谷区,成城１丁目３４番１４号,,13,112,1570066,,,2022-12-06,清算の結了等,,,2015-10-05,1,,,,,タケイコウムテン,0
853,4011101085883,登記記録の閉鎖等,0,2022-12-09,2022-12-08,棗商事株式会社,,株式会社,東京都,新宿区,西新宿６丁目１６番１３号,,13,104,1600023,,,2022-12-08,清算の結了等,,,2018-11-06,1,,,,,ナツメショウジ,0
860,4011202007803,登記記録の閉鎖等,0,2022-12-09,2022-12-06,株式会社ファーマシィホールディングス,,株式会社,広島県,福山市,沖野上町４丁目１３番２７号,,34,207,7200825,,,2022-12-06,合併による解散等,9240001031854,令和４年１２月１日広島県福山市沖野上町四丁目１３番２７号株式会社ファーマシィ（9240001031854）に合併し解散,2015-10-05,1,,,,,ファーマシィホールディングス,0
866,4011402017230,登記記録の閉鎖等,0,2022-12-09,2022-12-07,有限会社サポートテック,,有限会社,東京都,世田谷区,羽根木２丁目３５番３５号,,13,112,1560042,,,2022-12-07,合併による解散等,8010001191524,令和４年１２月１日東京都中央区八重洲二丁目５番１２号株式会社フィールドファーマシー（8010001191524）に合併し解散,2015-10-05,1,,,,,サポートテック,0
874,4012405002913,登記記録の閉鎖等,0,2022-12-09,2022-12-06,特定非営利活動法人こどもファーマーズ協会,,その他の設立登記法人,東京都,府中市,栄町２丁目４番２６号,,13,206,1830051,,,2022-12-06,清算の結了等,,,2015-10-05,1,,,,,コドモファーマーズキョウカイ,0
882,4013405000378,登記記録の閉鎖等,0,2022-12-09,2022-12-05,一般財団法人社会スポーツセンター,,その他の設立登記法人,東京都,多摩市,東寺方６４７番地,,13,224,2060003,,,2022-12-05,清算の結了等,,,2015-10-05,1,,,,,シャカイスポーツセンター,0
886,4020001040015,登記記録の閉鎖等,0,2022-12-09,2022-12-05,株式会社ビジョン,,株式会社,東京都,文京区,本郷２丁目１２番１３号,,13,105,1130033,,,2022-12-05,清算の結了等,,,2015-10-05,1,,,,,ビジョン,0
887,4020001057199,登記記録の閉鎖等,0,2022-12-09,2022-12-06,株式会社アルペックス,,株式会社,神奈川県,横浜市港北区,新横浜３丁目８番地８,,14,109,2220033,,,2022-12-06,清算の結了等,,,2015-10-05,1,,,,,アルペックス,0
888,4020001101618,登記記録の閉鎖等,0,2022-12-09,2022-12-06,株式会社羽衣,,株式会社,神奈川県,横浜市神奈川区,台町９番地１３,,14,102,2210834,,,2022-12-06,清算の結了等,,,2015-10-05,1,,,,,ハゴロモ,0
891,4020001119429,登記記録の閉鎖等,0,2022-12-09,2022-12-01,株式会社生活文化研究所,,株式会社,神奈川県,横浜市保土ケ谷区,東川島町９番地の１－６０２号,,14,106,2400041,,,2022-12-01,清算の結了等,,,2017-01-11,1,,,,,セイカツブンカケンキュウジョ,0
897,4020003014966,登記記録の閉鎖等,0,2022-12-09,2022-12-06,合同会社パティオ,,合同会社,神奈川県,川崎市川崎区,堀之内町１２番地１１アムス堀ノ内Ａ棟Ｂ１Ｆ,,14,131,2100003,,,2022-12-06,清算の結了等,,,2018-10-03,1,,,,,パティオ,0
906,4021002052973,登記記録の閉鎖等,0,2022-12-09,2022-12-05,有限会社富士プラスチツク工業,,有限会社,神奈川県,小田原市,酒匂２丁目３７番１９号,,14,206,2560816,,,2022-12-05,清算の結了等,,,2015-10-05,1,,,,,フジプラスチックコウギョウ,0
918,4030001084548,登記記録の閉鎖等,0,2022-12-09,2022-12-02,関東小野田ブロック株式会社,,株式会社,埼玉県,熊谷市,見晴町２３３番地２,,11,202,3600824,,,2022-12-02,合併による解散等,3030001036624,令和４年１２月１日埼玉県三郷市三郷一丁目１４番地１３共栄建材工業株式会社（3030001036624）に合併し解散,2015-10-05,1,,,,,カントウオノダブロック,0
923,4030002059929,登記記録の閉鎖等,0,2022-12-09,2022-12-05,有限会社太田工務店,,有限会社,埼玉県,志木市,幸町４丁目１４番１７号,,11,228,3530005,,,2022-12-05,清算の結了等,,,2015-10-05,1,,,,,オオタコウムテン,0
940,4040001065662,登記記録の閉鎖等,0,2022-12-09,2022-12-05,株式会社サンテック,,株式会社,千葉県,松戸市,中金杉３丁目２５８番地,,12,207,2700007,,,2022-12-05,清算の結了等,,,2015-10-05,1,,,,,サンテック,0
945,4040001113792,登記記録の閉鎖等,0,2022-12-09,2022-12-01,株式会社Ｄｅｌｉｇｈｔ,,株式会社,千葉県,市川市,塩焼２丁目２番７１号,,12,203,2720114,,,2022-12-01,合併による解散等,8040001085599,令和４年１２月１日千葉県船橋市藤原一丁目２１番６号株式会社Ａｓｔａｒｔ（8040001085599）に合併し解散,2020-06-02,1,,,,,ディライト,0
952,4050003006036,登記記録の閉鎖等,0,2022-12-09,2022-12-07,合同会社ＬＩＦＩＸ,,合同会社,茨城県,水戸市,笠原町２００番地３芙蓉第３ビル３階,,08,201,3100852,,,2022-12-07,清算の結了等,,,2021-08-24,1,,,,,リフィックス,0
958,4080101008229,登記記録の閉鎖等,0,2022-12-09,2022-12-07,遠藤工業株式会社,,株式会社,静岡県,富士市,松岡３０４番地の５,,22,210,4160909,,,2022-12-07,清算の結了等,,,2015-10-05,1,,,,,エンドウコウギョウ,0
963,4090003000373,登記記録の閉鎖等,0,2022-12-09,2022-12-02,合同会社ブリリアン・プレゼンス,,合同会社,山梨県,笛吹市,石和町四日市場１４０１番地７,,19,211,4060032,,,2022-12-02,清算の結了等,,,2015-10-05,1,,,,,ブリリアンプレゼンス,0
964,4090005007516,登記記録の閉鎖等,0,2022-12-09,2022-11-28,西野村農業会,,その他の設立登記法人,山梨県,南アルプス市,西野２２４８番地,,19,208,4000213,,,2022-11-28,清算の結了等,,,2022-10-11,1,,,,,ニシノムラノウギョウカイ,0
973,4110002010676,登記記録の閉鎖等,0,2022-12-09,2022-12-07,有限会社サン・パルックス,,有限会社,新潟県,新潟市北区,早通南４丁目５番１２号,,15,101,9503375,,,2022-12-07,清算の結了等,,,2015-10-05,1,,,,,サンパルックス,0
992,4120901032423,登記記録の閉鎖等,0,2022-12-09,2022-12-06,株式会社メディカルアオキ,,株式会社,大阪府,豊中市,緑丘１丁目１４番３号,,27,203,5600002,,,2022-12-06,清算の結了等,,,2015-10-05,1,,,,,メディカルアオキ,0
1038,4200002023900,登記記録の閉鎖等,0,2022-12-09,2022-12-07,有限会社ナガヤ,,有限会社,岐阜県,恵那市,長島町正家２丁目１番地５,,21,210,5097203,,,2022-12-07,清算の結了等,,,2015-10-05,1,,,,,ナガヤ,0
1043,4230002013840,登記記録の閉鎖等,0,2022-12-09,2022-12-02,有限会社松川呉服店,,有限会社,富山県,射水市,立町２番２４号,,16,211,9340013,,,2022-12-02,清算の結了等,,,2015-10-05,1,,,,,マツカワゴフクテン,0
1076,4370001040335,登記記録の閉鎖等,0,2022-12-09,2022-12-02,ラクサスコミュニケーションズ株式会社,,株式会社,宮城県,仙台市宮城野区,榴岡４丁目６番２３号今野ビル２階,,04,102,9830852,,,2022-12-02,合併による解散等,1370001015117,令和４年１２月１日仙台市宮城野区中野五丁目６番地の２３株式会社Ｈ＆Ｓ　ＣＯ．，ＬＴＤ．（1370001015117）に合併し解散,2016-10-12,1,,,,,ラクサスコミュニケーションズ,0
1091,4430002036615,登記記録の閉鎖等,0,2022-12-09,2022-12-05,有限会社エンパワーメントインターナショナル,,有限会社,北海道,札幌市白石区,栄通９丁目６番２４－１０２号,,01,104,0030021,,,2022-12-05,清算の結了等,,,2015-10-05,1,,,,,エンパワーメントインターナショナル,0
1100,4450001009041,登記記録の閉鎖等,0,2022-12-09,2022-12-07,留萌興行株式会社,,株式会社,北海道,留萌市,錦町１丁目４番２３号,,01,212,0770044,,,2022-12-07,清算の結了等,,,2015-10-05,1,,,,,ルモイコウギョウ,0
1102,4470002014939,登記記録の閉鎖等,0,2022-12-09,2022-12-06,有限会社讃光海運,,有限会社,香川県,坂出市,王越町木沢６３３番地１,,37,203,7620014,,,2022-12-06,清算の結了等,,,2015-10-05,1,,,,,サンコウカイウン,0
1105,4700150006796,登記記録の閉鎖等,0,2022-12-09,2022-03-31,衛星測位システム協議会,,その他,東京都,文京区,本郷１丁目２１－７－６０１,,13,105,1130033,,,2022-03-31,その他の清算の結了等,,,2015-10-09,1,,,,,エイセイソクイシステムキヨウギカイ,0
1107,4700150050241,登記記録の閉鎖等,0,2022-12-09,2022-03-31,十郷用水土地改良区,,その他,福井県,坂井市,坂井町長畑７－１－３,,18,210,9190511,,,2022-03-31,その他の清算の結了等,,,2015-10-09,1,,,,,ジユウゴウヨウスイトチカイリヨウク,0
1108,4700150051883,登記記録の閉鎖等,0,2022-12-09,2022-04-30,呉市プロ野球公式戦開催実行委員会,,その他,広島県,呉市,本通４丁目７－１－５Ｆ,,34,202,7370045,,,2022-04-30,その他の清算の結了等,,,2015-10-09,1,,,,,クレシプロヤキユウコウシキセンカイサイジツコウイインカイ,0
1109,4700150059150,登記記録の閉鎖等,0,2022-12-09,2022-03-31,福岡税務相談所,,その他,福岡県,福岡市博多区,博多駅前２丁目９－２８福岡商工会議所ビル９Ｆ,,40,132,8120011,,,2022-03-31,その他の清算の結了等,,,2015-10-09,1,,,,,フクオカゼイムソウダンシヨ,0
1138,5010005024154,登記記録の閉鎖等,0,2022-12-09,2022-12-07,特定非営利活動法人空き家危険家屋問題解決プロジェクト,,その他の設立登記法人,東京都,文京区,湯島１丁目９番１０－４０５号,,13,105,1130034,,,2022-12-07,清算の結了等,,,2015-10-05,1,,,,,アキヤキケンカオクモンダイカイケツプロジェクト,0
1146,5010403014995,登記記録の閉鎖等,0,2022-12-09,2022-12-01,合同会社アスカ,,合同会社,東京都,港区,六本木３丁目１８番２号,,13,103,1060032,,,2022-12-01,合併による解散等,6010403015844,令和４年１２月１日東京都港区西麻布二丁目６番２－４０４号合同会社ムサシ（6010403015844）に合併し解散,2016-06-27,1,,,,,アスカ,0
1151,5010601033054,登記記録の閉鎖等,0,2022-12-09,2022-12-02,株式会社Ｉ．Ｎ．Ｏ．,,株式会社,東京都,江東区,大島９丁目４番２－１２１１号,,13,108,1360072,,,2022-12-02,清算の結了等,,,2015-10-05,1,,,,,アイエヌオー,0
1152,5010601047475,登記記録の閉鎖等,0,2022-12-09,2022-12-05,株式会社タカケン,,株式会社,東京都,墨田区,立花４丁目８番１０－６０２号,,13,107,1310043,,,2022-12-05,清算の結了等,,,2015-10-05,1,,,,,,0
1153,5010701002446,登記記録の閉鎖等,0,2022-12-09,2022-12-07,鎌田商事株式会社,,株式会社,東京都,品川区,北品川１丁目３番４号,,13,109,1400001,,,2022-12-07,清算の結了等,,,2015-10-05,1,,,,,カマタショウジ,0
1164,5011101013570,登記記録の閉鎖等,0,2022-12-09,2022-12-06,株式会社テイハナ,,株式会社,東京都,渋谷区,千駄ヶ谷１丁目１１番１４号ビジデンス千駄ヶ谷,,13,113,1510051,,,2022-12-06,清算の結了等,,,2015-10-05,1,,,,,テイハナ,0
1208,5021001074357,登記記録の閉鎖等,0,2022-12-09,2022-12-05,株式会社オアシス貿易,,株式会社,神奈川県,相模原市南区,西大沼１丁目９番２６号,,14,153,2520332,,,2022-12-05,清算の結了等,,,2021-10-29,1,,,,,オアシスボウエキ,0
1213,5021002034525,登記記録の閉鎖等,0,2022-12-09,2022-11-30,安全自動車有限会社,,有限会社,神奈川県,伊勢原市,白根１２５番地の１パークサイド伊勢原４０３号,,14,214,2591147,,,2022-11-30,清算の結了等,,,2015-10-05,1,,,,,アンゼンジドウシャ,0
1223,5030002117974,登記記録の閉鎖等,0,2022-12-09,2022-12-02,有限会社チャレンジサービス,,有限会社,埼玉県,深谷市,荒川９０９番地,,11,218,3691245,,,2022-12-02,合併による解散等,9013201010394,令和４年１２月１日埼玉県深谷市荒川９０９番地株式会社シー・ジー・エス（9013201010394）に合併し解散,2015-10-05,1,,,,,チャレンジサービス,0
1242,5040002006540,登記記録の閉鎖等,0,2022-12-09,2022-12-01,有限会社測葉,,有限会社,千葉県,千葉市中央区,登戸１丁目２３番１６号,,12,101,2600032,,,2022-12-01,清算の結了等,,,2015-10-05,1,,,,,ソクヨウ,0
1244,5040002050794,登記記録の閉鎖等,0,2022-12-09,2022-12-02,有限会社下谷技研システムズ,,有限会社,千葉県,松戸市,高塚新田２２１番地の３,,12,207,2702222,,,2022-12-02,清算の結了等,,,2015-10-05,1,,,,,シモヤギケンシステムズ,0
1250,5070002012957,登記記録の閉鎖等,0,2022-12-09,2022-12-07,有限会社モイズ,,有限会社,群馬県,高崎市,箕郷町西明屋９９１番地６,,10,202,3703105,,,2022-12-07,清算の結了等,,,2015-10-05,1,,,,,モイズ,0
1254,5100003002219,登記記録の閉鎖等,0,2022-12-09,2022-12-05,合同会社宮下ファーム,,合同会社,長野県,中野市,大字江部２９７番地６,,20,211,3830045,,,2022-12-05,合併による解散等,3350001010828,令和４年１２月１日宮崎県小林市真方７６０番地株式会社なな葉宮下ファーム（3350001010828）に合併し解散,2015-10-05,1,,,,,ミヤシタファーム,0
1255,5100005003347,登記記録の閉鎖等,0,2022-12-09,2022-12-05,医療法人潤和会,,その他の設立登記法人,長野県,佐久市,本新町字ヤツクラ田２９４番地１,,20,217,3850044,,,2022-12-05,清算の結了等,,,2015-10-05,1,,,,,ジュンワカイ,0
1278,5130001004016,登記記録の閉鎖等,0,2022-12-09,2022-12-05,株式会社やまくま,,株式会社,京都府,京都市北区,紫竹下長目町２５番地,,26,101,6038106,,,2022-12-05,清算の結了等,,,2015-10-05,1,,,,,ヤマクマ,0
1284,5140001083934,登記記録の閉鎖等,0,2022-12-09,2022-12-06,株式会社クローバークラブ,,株式会社,兵庫県,宝塚市,中山桜台４丁目１１番１号,,28,214,6650877,,,2022-12-06,清算の結了等,,,2015-10-05,1,,,,,クローバークラブ,0
1298,5180001065573,登記記録の閉鎖等,0,2022-12-09,2022-12-06,株式会社ＫＳＥ,,株式会社,愛知県,名古屋市守山区,小幡宮ノ腰５番３６号,,23,113,4630052,,,2022-12-06,清算の結了等,,,2015-10-05,1,,,,,ケーエスイー,0
1313,5220001018171,登記記録の閉鎖等,0,2022-12-09,2022-12-05,株式会社ＨＥＡＤＳ,,株式会社,石川県,金沢市,上堤町１番３３号アパ金沢ビル２Ｄ,,17,201,9200869,,,2022-12-05,合併による解散等,5120001185518,令和４年１２月１日大阪市中央区安土町二丁目５番５号株式会社ＪＯＵＪＯＵジャパン（5120001185518）に合併し解散,2015-10-05,1,,,,,ヘッズ,0
1316,5240001054859,登記記録の閉鎖等,0,2022-12-09,2022-12-06,駿騰株式会社,,株式会社,広島県,庄原市,七塚町１６０９番地４,,34,210,7270023,,,2022-12-06,清算の結了等,,,2019-08-30,1,,,,,シュントウ,0
1324,5290001057551,登記記録の閉鎖等,0,2022-12-09,2022-12-06,株式会社６２３,,株式会社,福岡県,筑紫野市,二日市中央４丁目１１番１３号,,40,217,8180072,,,2022-12-06,清算の結了等,,,2015-10-05,1,,,,,ロクニサン,0
1331,5320002016263,登記記録の閉鎖等,0,2022-12-09,2022-12-07,大和工業有限会社,,有限会社,大分県,速見郡日出町,大字川崎３３８５番地３,,44,341,8791505,,,2022-12-07,清算の結了等,,,2015-10-05,1,,,,,ヤマトコウギョウ,0
1335,5340001008276,登記記録の閉鎖等,0,2022-12-09,2022-12-06,神殿株式会社,,株式会社,鹿児島県,南九州市,川辺町神殿１３９４番地,,46,223,8970201,,,2022-12-06,合併による解散等,4010001151523,令和４年１１月３０日東京都千代田区麹町五丁目３番地都市綜研インベストバンク株式会社（4010001151523）に合併し解散,2015-10-05,1,,,,,コウドン,0
1350,5400002003187,登記記録の閉鎖等,0,2022-12-09,2022-12-06,有限会社ミタケ電機,,有限会社,岩手県,盛岡市,東緑が丘４番３８号,,03,201,0200112,,,2022-12-06,清算の結了等,,,2015-10-05,1,,,,,ミタケデンキ,0
1351,5400501000420,登記記録の閉鎖等,0,2022-12-09,2022-12-05,医研メディエンス株式会社,,株式会社,岩手県,一関市,新大町１１４番地,,03,209,0210883,,,2022-12-05,清算の結了等,,,2015-10-05,1,,,,,イケンメディエンス,0
1361,5430002045284,登記記録の閉鎖等,0,2022-12-09,2022-12-01,有限会社アスカ印刷,,有限会社,北海道,江別市,中央町２９番地３３,,01,217,0690801,,,2022-12-01,清算の結了等,,,2015-10-05,1,,,,,アスカインサツ,0
1376,5480005003037,登記記録の閉鎖等,0,2022-12-09,2022-12-07,医療法人吉川医院,00006222,その他の設立登記法人,徳島県,阿波市,吉野町柿原字原２６１番地の１,,36,206,7711401,,,2022-12-07,清算の結了等,,,2015-10-05,1,,,,,ヨシカワイイン,0
1377,5700150006787,登記記録の閉鎖等,0,2022-12-09,2016-09-01,ホンダ販売厚生年金基金,,その他,東京都,文京区,大塚２丁目１－９,,13,105,1120012,,,2016-09-01,その他の清算の結了等,,,2015-10-09,1,,,,,ホンダハンバイコウセイネンキンキキン,0
1378,5700150023642,登記記録の閉鎖等,0,2022-12-09,2022-03-31,遠赤外線応用研究会,,その他,大阪府,大阪市中央区,南船場４丁目９－１１順横ビル,,27,128,5420081,,,2022-03-31,その他の清算の結了等,,,2015-10-09,1,,,,,エンセキガイセンオウヨウケンキユウカイ,0
1379,5700150034441,登記記録の閉鎖等,0,2022-12-09,2022-06-30,新ひだか観光協会,,その他,北海道,日高郡新ひだか町,静内本町５丁目１－２１観光情報センター内,,01,610,0560016,,,2022-06-30,その他の清算の結了等,,,2015-10-09,1,,,,,シンヒダカカンコウキヨウカイ,0
1394,6010401052930,登記記録の閉鎖等,0,2022-12-09,2022-12-01,株式会社ラインプロ,,株式会社,東京都,港区,虎ノ門５丁目８番１３号,,13,103,1050001,,,2022-12-01,合併による解散等,2010401017540,令和４年１２月１日東京都港区虎ノ門五丁目８番１３号株式会社第一製版（2010401017540）に合併し解散,2015-10-05,1,,,,,ラインプロ,0
1395,6010401073051,登記記録の閉鎖等,0,2022-12-09,2022-12-01,ＯＳＳサービス株式会社,,株式会社,東京都,港区,港南２丁目１５番２号,,13,103,1080075,,,2022-12-01,清算の結了等,,,2015-10-05,1,,,,,オーエスエスサービス,0
1397,6010401081483,登記記録の閉鎖等,0,2022-12-09,2022-12-01,株式会社ダイイチ・タイガー,,株式会社,東京都,港区,虎ノ門５丁目８番１３号,,13,103,1050001,,,2022-12-01,合併による解散等,2010401017540,令和４年１２月１日東京都港区虎ノ門五丁目８番１３号株式会社第一製版（2010401017540）に合併し解散,2015-10-05,1,,,,,ダイイチタイガー,0
1412,6010403014706,登記記録の閉鎖等,0,2022-12-09,2022-12-01,合同会社ヤマトアセット,,合同会社,東京都,港区,六本木３丁目１８番２号,,13,103,1060032,,,2022-12-01,合併による解散等,6010403015844,令和４年１２月１日東京都港区西麻布二丁目６番２－４０４号合同会社ムサシ（6010403015844）に合併し解散,2016-04-20,1,,,,,ヤマトアセット,0
1414,6010403017353,登記記録の閉鎖等,0,2022-12-09,2022-12-01,シルクロードパートナーズ合同会社,,合同会社,東京都,港区,新橋５丁目７番５号,,13,103,1050004,,,2022-12-01,清算の結了等,,,2017-10-13,1,,,,,シルクロードパートナーズ,0
1426,6010702004531,登記記録の閉鎖等,0,2022-12-09,2022-12-06,関根浴場有限会社,,有限会社,東京都,品川区,大井１丁目４２番４号,,13,109,1400014,,,2022-12-06,清算の結了等,,,2015-10-05,1,,,,,セキネヨクジョウ,0
1430,6010801028407,登記記録の閉鎖等,0,2022-12-09,2022-12-07,株式会社ファルマステップ,,株式会社,東京都,大田区,上池台１丁目１１番７号,,13,111,1450064,,,2022-12-07,合併による解散等,8010001191524,令和４年１２月１日東京都中央区八重洲二丁目５番１２号株式会社フィールドファーマシー（8010001191524）に合併し解散,2017-12-19,1,,,,,ファルマステップ,0
1431,6010801029504,登記記録の閉鎖等,0,2022-12-09,2022-12-02,株式会社プラムヴィーズ,,株式会社,東京都,大田区,多摩川２丁目５番４号プラムレブリス６０３,,13,111,1460095,,,2022-12-02,清算の結了等,,,2019-01-16,1,,,,,プラムヴィーズ,0
1457,6011101082854,登記記録の閉鎖等,0,2022-12-09,2022-12-08,株式会社ＬａｋＤ,,株式会社,東京都,新宿区,西新宿１丁目１２番９号田畑ビル４階,,13,104,1600023,,,2022-12-08,清算の結了等,,,2018-01-18,1,,,,,,0
1480,6020001098290,登記記録の閉鎖等,0,2022-12-09,2022-12-06,株式会社ファースト,,株式会社,神奈川県,横浜市中区,吉浜町１番地２パークスクエア横浜２０１６号室,,14,104,2310024,,,2022-12-06,合併による解散等,1020001139165,令和４年１２月６日神奈川県横浜市中区吉浜町１番地２パークスクエア横浜２０１６号室株式会社ワイズ（1020001139165）に合併し解散,2015-10-05,1,,,,,ファースト,0
1486,6020003017793,登記記録の閉鎖等,0,2022-12-09,2022-12-06,サンキャピタル合同会社,,合同会社,神奈川県,川崎市高津区,北見方１丁目２７－１７,,14,134,2130005,,,2022-12-06,清算の結了等,,,2020-04-27,1,,,,,サンキャピタル,0
1495,6030001005106,登記記録の閉鎖等,0,2022-12-09,2022-12-05,株式会社高野木工所,00014463,株式会社,埼玉県,さいたま市中央区,本町西２丁目１５番１４号,,11,105,3380004,,,2022-12-05,清算の結了等,,,2015-10-05,1,,,,,コウノモッコウジョ,0
1496,6030001018487,登記記録の閉鎖等,0,2022-12-09,2022-12-05,株式会社ハセガワ,,株式会社,埼玉県,蓮田市,東４丁目１番１号,,11,238,3490111,,,2022-12-05,清算の結了等,,,2015-10-05,1,,,,,ハセガワ,0
1503,6030005017452,登記記録の閉鎖等,0,2022-12-09,2022-12-05,ＮＰＯ法人久喜囲碁まつり,,その他の設立登記法人,埼玉県,久喜市,南３丁目３番２９号,,11,232,3460004,,,2022-12-05,清算の結了等,,,2015-10-05,1,,,,,クキイゴマツリ,0
1510,6040001036125,登記記録の閉鎖等,0,2022-12-09,2022-12-01,株式会社パワー,,株式会社,千葉県,松戸市,小金きよしケ丘３丁目３番地の３,,12,207,2700013,,,2022-12-01,合併による解散等,3040001084556,令和４年１２月１日千葉県松戸市新松戸四丁目１８２番地株式会社マツモト（3040001084556）に合併し解散,2015-10-05,1,,,,,パワー,0
1520,6040002055776,登記記録の閉鎖等,0,2022-12-09,2022-12-01,有限会社マルミ成田店,,有限会社,千葉県,成田市,飯仲字柿作４５番地,,12,211,2860046,,,2022-12-01,清算の結了等,,,2015-10-05,1,,,,,マルミナリタテン,0
1528,6070005009512,登記記録の閉鎖等,0,2022-12-09,2022-12-05,北軽井沢ちえのわ協同組合,,その他の設立登記法人,群馬県,吾妻郡長野原町,大字北軽井沢１３５３番地２８９７,,10,424,3771412,,,2022-12-05,清算の結了等,,,2018-09-06,1,,,,,キタカルイザワチエノワ,0
1530,6080002001099,登記記録の閉鎖等,0,2022-12-09,2022-12-08,有限会社大石メンテナンス,,有限会社,静岡県,静岡市葵区,紺屋町３番地の４,,22,101,4200852,,,2022-12-08,清算の結了等,,,2015-10-05,1,,,,,オオイシメンテナンス,0
1544,6120001152203,登記記録の閉鎖等,0,2022-12-09,2022-12-06,山本産業株式会社,,株式会社,大阪府,枚方市,招提大谷２丁目１６番３２号,,27,210,5731153,,,2022-12-06,合併による解散等,5120001150083,令和４年１２月１日大阪府枚方市招提大谷二丁目１６番３０号大平金属工業株式会社（5120001150083）に合併し解散,2015-10-05,1,,,,,ヤマモトサンギョウ,0
1557,6120101022669,登記記録の閉鎖等,0,2022-12-09,2022-12-06,株式会社三幸,,株式会社,大阪府,堺市西区,菱木３丁２００３番地の１,,27,144,5938315,,,2022-12-06,清算の結了等,,,2015-10-05,1,,,,,サンコウ,0
1574,6140001096877,登記記録の閉鎖等,0,2022-12-09,2022-12-06,株式会社プライムパーツ,,株式会社,兵庫県,淡路市,大磯２４番地１,,28,226,6562302,,,2022-12-06,合併による解散等,6122001000341,令和４年１２月１日大阪府東大阪市長田西六丁目１番３２号株式会社アルカットワン（6122001000341）に合併し解散,2015-10-05,1,,,,,プライムパーツ,0
1592,6180001091429,登記記録の閉鎖等,0,2022-12-09,2022-12-05,株式会社クリエイト,,株式会社,愛知県,東海市,名和町蓮池１番地の１,,23,222,4760002,,,2022-12-05,清算の結了等,,,2015-10-05,1,,,,,クリエイト,0
1593,6180001093383,登記記録の閉鎖等,0,2022-12-09,2022-12-01,トルクシステム株式会社,,株式会社,愛知県,大府市,追分町５丁目２２５番地,,23,223,4740027,,,2022-12-01,合併による解散等,6010401158356,令和４年１２月１日愛知県大府市追分町五丁目２２５番地トルクシステム株式会社（6010401158356）に合併し解散,2015-10-05,1,,,,,トルクシステム,0
1606,6190001008134,登記記録の閉鎖等,0,2022-12-09,2022-12-02,太陽ホーム株式会社,,株式会社,三重県,志摩市,阿児町鵜方２９８０番地２７,,24,215,5170501,,,2022-12-02,合併による解散等,1190001006737,令和４年１２月１日三重県伊勢市下野町６００番地の１３株式会社西邦建設（1190001006737）に合併し解散,2015-10-05,1,,,,,タイヨウホーム,0
1610,6190002024048,登記記録の閉鎖等,0,2022-12-09,2022-12-05,有限会社ムーン,,有限会社,三重県,三重郡菰野町,大字菰野１６３９番地の３,,24,341,5101233,,,2022-12-05,清算の結了等,,,2015-10-05,1,,,,,ムーン,0
1627,6260002026755,登記記録の閉鎖等,0,2022-12-09,2022-12-01,有限会社小林日進堂,,有限会社,岡山県,高梁市,南町３２番地,,33,209,7160033,,,2022-12-01,清算の結了等,,,2015-10-05,1,,,,,コバヤシニッシンドウ,0
1637,6290005013789,登記記録の閉鎖等,0,2022-12-09,2022-12-08,特定非営利活動法人ストップ・ざ・がんの会,,その他の設立登記法人,福岡県,福岡市中央区,天神２丁目１３番７号福岡平和ビル３階,,40,133,8100001,,,2022-12-08,清算の結了等,,,2015-10-05,1,,,,,ストップザガンノカイ,0
1641,6300001005953,登記記録の閉鎖等,0,2022-12-09,2022-12-05,ＰＦＩ伊万里市学校給食サービス株式会社,,株式会社,佐賀県,伊万里市,松島町１００番地１,,41,205,8480045,,,2022-12-05,清算の結了等,,,2015-10-05,1,,,,,ピーエフアイイマリシガッコウキュウショクサービス,0
1648,6330005005996,登記記録の閉鎖等,0,2022-12-09,2022-12-07,医療法人社団皆幸会,,その他の設立登記法人,熊本県,八代市,日置町字京塚１６０番地３,,43,202,8660896,,,2022-12-07,清算の結了等,,,2015-10-05,1,,,,,,0
1667,6430005001944,登記記録の閉鎖等,0,2022-12-09,2022-12-06,医療法人社団中里内科胃腸科クリニック,,その他の設立登記法人,北海道,札幌市豊平区,中の島二条５丁目９番１号,,01,105,0620922,,,2022-12-06,清算の結了等,,,2015-10-05,1,,,,,ナカサトナイカイチョウカクリニック,0
1672,6700150004617,登記記録の閉鎖等,0,2022-12-09,2022-03-31,外食産業ジェフ厚生年金基金,,その他,東京都,港区,浜松町１丁目２９－６浜松町セントラルビル９階,,13,103,1050013,,,2022-03-31,その他の清算の結了等,,,2015-10-09,1,,,,,ガイシヨクサンギヨウジエフコウセイネンキンキキン,0
1674,6700150016042,登記記録の閉鎖等,0,2022-12-09,2020-05-28,亀山地区アグリ・リゾート推進協議会,,その他,千葉県,君津市,笹１７６６－３,,12,225,2920526,,,2020-05-28,その他の清算の結了等,,,2015-10-09,1,,,,,カメヤマチクアグリリゾートスイシンキヨウギカイ,0
1675,6700150022412,登記記録の閉鎖等,0,2022-12-09,2022-06-30,ロッジホワイト,,その他,新潟県,東蒲原郡阿賀町,川口２０３７,,15,385,9594618,,,2022-06-30,その他の清算の結了等,,,2015-10-09,1,,,,,ロツジホワイト,0
1676,6700150054026,登記記録の閉鎖等,0,2022-12-09,2022-03-31,けやきっ子クラブ運営委員会,,その他,岡山県,岡山市東区,金岡西町４３５－１西大寺南小学校内,,33,103,7048193,,,2022-03-31,その他の清算の結了等,,,2015-10-09,1,,,,,ケヤキツコクラブウンエイイインカイ,0
1687,7010001189957,登記記録の閉鎖等,0,2022-12-09,2022-12-06,株式会社わいんばーぎんざ,,株式会社,東京都,中央区,銀座５丁目１番１６号西山興業西銀座ビル４Ｆ,,13,102,1040061,,,2022-12-06,清算の結了等,,,2018-02-28,1,,,,,ワインバーギンザ,0
1704,7010401078388,登記記録の閉鎖等,0,2022-12-09,2022-12-01,中興メンブレイン株式会社,,株式会社,東京都,港区,赤坂２丁目１１番７号,,13,103,1070052,,,2022-12-01,合併による解散等,8010401017733,令和４年１２月１日東京都港区赤坂二丁目１１番７号中興化成工業株式会社（8010401017733）に合併し解散,2015-10-05,1,,,,,チュウコウメンブレイン,0
1734,7011001113840,登記記録の閉鎖等,0,2022-12-09,2022-12-06,株式会社ＤＯＧＧＹ　ＢＲＯ,,株式会社,東京都,渋谷区,神宮前４丁目２６番３１号,,13,113,1500001,,,2022-12-06,清算の結了等,,,2016-12-01,1,,,,,,0
1740,7011101011424,登記記録の閉鎖等,0,2022-12-09,2022-12-08,株式会社双興通信社,,株式会社,東京都,新宿区,新宿１丁目５番１３号溝呂木第一ビル,,13,104,1600022,,,2022-12-08,清算の結了等,,,2015-10-05,1,,,,,,0
1746,7011201012462,登記記録の閉鎖等,0,2022-12-09,2022-12-06,株式会社ケイ・コンサルタント,,株式会社,東京都,新宿区,西新宿６丁目２５番８－１７０８号,,13,104,1600023,,,2022-12-06,清算の結了等,,,2015-10-05,1,,,,,ケイコンサルタント,0
1747,7011201019714,登記記録の閉鎖等,0,2022-12-09,2022-12-06,株式会社プロージット,,株式会社,東京都,中野区,中央４丁目４０番３号,,13,114,1640011,,,2022-12-06,清算の結了等,,,2017-02-27,1,,,,,プロージット,0
1750,7011502006997,登記記録の閉鎖等,0,2022-12-09,2022-12-02,有限会社石川正利商店,,有限会社,東京都,荒川区,東日暮里３丁目８番２５号,,13,118,1160014,,,2022-12-02,清算の結了等,,,2015-10-05,1,,,,,イシカワマサトシショウテン,0
1752,7011702008728,登記記録の閉鎖等,0,2022-12-09,2022-12-06,有限会社日本経営研究所,,有限会社,東京都,江戸川区,船堀３丁目１４番１８号,,13,123,1340091,,,2022-12-06,清算の結了等,,,2015-10-05,1,,,,,ニホンケイエイケンキュウジョ,0
1762,7012402021979,登記記録の閉鎖等,0,2022-12-09,2022-12-06,有限会社拓信技建,,有限会社,東京都,武蔵野市,中町２丁目２１番１４号ウエストコート（２０３）,,13,203,1800006,,,2022-12-06,清算の結了等,,,2015-10-05,1,,,,,,0
1766,7013102001759,登記記録の閉鎖等,0,2022-12-09,2022-12-08,有限会社エムエムイー,,有限会社,東京都,あきる野市,山田５０３番地の４,,13,228,1900144,,,2022-12-08,清算の結了等,,,2015-10-05,1,,,,,エムエムイー,0
1768,7013301028743,登記記録の閉鎖等,0,2022-12-09,2022-12-02,サンヨー・コム株式会社,,株式会社,東京都,豊島区,巣鴨２丁目１２番３号,,13,116,1700002,,,2022-12-02,清算の結了等,,,2015-10-05,1,,,,,サンヨーコム,0
1770,7013402001319,登記記録の閉鎖等,0,2022-12-09,2022-12-08,有限会社富士美産業,,有限会社,東京都,日野市,大字日野３０４９番地,,13,212,1910012,,,2022-12-08,清算の結了等,,,2015-10-05,1,,,,,フジミサンギョウ,0
1771,7020001000809,登記記録の閉鎖等,0,2022-12-09,2022-12-05,株式会社千田電機工業,,株式会社,神奈川県,横浜市泉区,中田西３丁目５番２号,,14,116,2450015,,,2022-12-05,清算の結了等,,,2015-10-05,1,,,,,チダデンキコウギョウ,0
1776,7020001106399,登記記録の閉鎖等,0,2022-12-09,2022-12-06,株式会社スクラム,,株式会社,神奈川県,横浜市旭区,中希望が丘１３０番地３６,,14,112,2410825,,,2022-12-06,清算の結了等,,,2015-10-05,1,,,,,スクラム,0
1782,7021001021159,登記記録の閉鎖等,0,2022-12-09,2022-11-10,ＴＢ清算準備株式会社,,株式会社,神奈川県,伊勢原市,田中８０３番地１,,14,214,2591142,,,2022-11-10,清算の結了等,,,2015-10-05,1,,,,,ティービーセイサンジュンビ,0
1794,7030002091508,登記記録の閉鎖等,0,2022-12-09,2022-12-05,有限会社ＡＩＺＡＫＩ　ＤＥＳＩＧＮ,,有限会社,埼玉県,越谷市,大字上間久里１４８１番地５,,11,222,3430043,,,2022-12-05,清算の結了等,,,2015-10-05,1,,,,,アイザキデザイン,0
1803,7040002033467,登記記録の閉鎖等,0,2022-12-09,2022-12-05,有限会社川原工業,,有限会社,千葉県,市川市,福栄３丁目１番２－６２３号,,12,203,2720137,,,2022-12-05,清算の結了等,,,2015-10-05,1,,,,,カワハラコウギョウ,0
1810,7070002009002,登記記録の閉鎖等,0,2022-12-09,2022-12-06,有限会社エヌコム,,有限会社,群馬県,高崎市,片岡町３丁目２１６７番地,,10,202,3700862,,,2022-12-06,清算の結了等,,,2015-10-05,1,,,,,エヌコム,0
1845,7120003017015,登記記録の閉鎖等,0,2022-12-09,2022-12-05,合同会社カロール,,合同会社,大阪府,大阪市城東区,鴫野西４丁目８番４号,,27,118,5360014,,,2022-12-05,清算の結了等,,,2020-02-26,1,,,,,カロール,0
1848,7120101032205,登記記録の閉鎖等,0,2022-12-09,2022-12-06,株式会社谷共栄工業所,,株式会社,大阪府,羽曳野市,駒ケ谷５番地５０,,27,222,5830841,,,2022-12-06,清算の結了等,,,2015-10-05,1,,,,,タニキョウエイコウギョウショ,0
1852,7120901018007,登記記録の閉鎖等,0,2022-12-09,2022-12-07,株式会社シグナル,,株式会社,大阪府,茨木市,大同町５番５号,,27,211,5670844,,,2022-12-07,清算の結了等,,,2015-10-05,1,,,,,シグナル,0
1859,7140001006265,登記記録の閉鎖等,0,2022-12-09,2022-12-02,株式会社ウエシマコーヒーフーズ,,株式会社,東京都,港区,新橋６丁目１番１１号,,13,103,1050004,,,2022-12-02,清算の結了等,,,2015-10-05,1,,,,,ウエシマコーヒーフーズ,0
1866,7140002043778,登記記録の閉鎖等,0,2022-12-09,2022-12-07,有限会社トータルプリント,,有限会社,兵庫県,尼崎市,瓦宮１丁目１３番３２号,,28,202,6610971,,,2022-12-07,清算の結了等,,,2015-10-05,1,,,,,トータルプリント,0
1872,7170001009620,登記記録の閉鎖等,0,2022-12-09,2022-12-07,フィールドセンサーズ株式会社,,株式会社,和歌山県,西牟婁郡白浜町,１１６５番地の１,,30,401,6492211,,,2022-12-07,清算の結了等,,,2015-10-05,1,,,,,,0
1898,7230002012889,登記記録の閉鎖等,0,2022-12-09,2022-12-07,有限会社さくら設計室,,有限会社,富山県,氷見市,北大町１９番１３号,,16,205,9350004,,,2022-12-07,清算の結了等,,,2015-10-05,1,,,,,サクラセッケイシツ,0
1899,7240001002205,登記記録の閉鎖等,0,2022-12-09,2022-12-07,梶原工業株式会社,,株式会社,広島県,広島市東区,牛田新町３丁目２番４号,,34,102,7320068,,,2022-12-07,清算の結了等,,,2015-10-05,1,,,,,カジハラコウギョウ,0
1901,7240001010513,登記記録の閉鎖等,0,2022-12-09,2022-12-08,株式会社プラウドコーポレーション,,株式会社,広島県,広島市安佐南区,西原２丁目２５番３４－１号,,34,105,7310113,,,2022-12-08,清算の結了等,,,2015-10-05,1,,,,,プラウドコーポレーション,0
1908,7240002039023,登記記録の閉鎖等,0,2022-12-09,2022-12-07,有限会社アイワ設計,,有限会社,広島県,福山市,東村町１６４７番地の４,,34,207,7290251,,,2022-12-07,清算の結了等,,,2015-10-05,1,,,,,,0
1921,7290002009681,登記記録の閉鎖等,0,2022-12-09,2022-12-07,有限会社岩本建工社,,有限会社,福岡県,福岡市中央区,平尾５丁目１１番２号,,40,133,8100014,,,2022-12-07,清算の結了等,,,2015-10-05,1,,,,,イワモトケンコウシャ,0
1926,7320002011155,登記記録の閉鎖等,0,2022-12-09,2022-12-07,有限会社鉄輪寿司,,有限会社,大分県,別府市,大字鉄輪２４０番地の４,,44,202,8740000,,,2022-12-07,清算の結了等,,,2015-10-05,1,,,,,カンナワズシ,0
1961,7420002019139,登記記録の閉鎖等,0,2022-12-09,2022-12-06,有限会社アシスト,,有限会社,青森県,上北郡おいらせ町,神明前１４３番地１２３,,02,412,0392164,,,2022-12-06,清算の結了等,,,2015-10-05,1,,,,,アシスト,0
1977,7480001009795,登記記録の閉鎖等,0,2022-12-09,2022-12-06,株式会社アメグミ,,株式会社,東京都,千代田区,平河町１丁目６－１５ＵＳビル８階,,13,101,1020093,,,2022-12-06,清算の結了等,,,2016-10-26,1,,,,,アメグミ,0
1978,7480002014893,登記記録の閉鎖等,0,2022-12-09,2022-12-07,有限会社徳島新聞穴吹専売所,,有限会社,徳島県,美馬市,穴吹町穴吹字岡４５番地１,,36,207,7770005,,,2022-12-07,清算の結了等,,,2015-10-05,1,,,,,トクシマシンブンアナブキセンバイショ,0
1984,7500002019741,登記記録の閉鎖等,0,2022-12-09,2022-12-06,有限会社ルミエール・オチ,,有限会社,愛媛県,今治市,本町３丁目２番地２６,,38,202,7940018,,,2022-12-06,清算の結了等,,,2015-10-05,1,,,,,ルミエールオチ,0
1986,7700150007214,登記記録の閉鎖等,0,2022-12-09,2018-07-01,日本ケーブルテレビ厚生年金基金,,その他,東京都,台東区,浅草橋３丁目１－１ＴＪビル６階,,13,106,1110053,,,2018-07-01,その他の清算の結了等,,,2015-10-09,1,,,,,ニホンケーブルテレビコウセイネンキンキキン,0
1993,8010001132247,登記記録の閉鎖等,0,2022-12-09,2022-12-02,アルスター株式会社,,株式会社,東京都,中央区,築地４丁目１番２０号,,13,102,1040045,,,2022-12-02,清算の結了等,,,2015-10-05,1,,,,,アルスター,0
1996,8010001178711,登記記録の閉鎖等,0,2022-12-09,2022-12-02,フリーストリームメディア株式会社,,株式会社,東京都,中央区,日本橋中洲４番１３－１２０３号,,13,102,1030008,,,2022-12-02,清算の結了等,,,2016-10-06,1,,,,,フリーストリームメディア,0
2006,8010101007274,登記記録の閉鎖等,0,2022-12-09,2022-12-06,株式会社だいけい,,株式会社,東京都,八王子市,台町４丁目２４番１号,,13,201,1930931,,,2022-12-06,清算の結了等,,,2015-10-05,1,,,,,ダイケイ,0
2016,8010501044859,登記記録の閉鎖等,0,2022-12-09,2022-12-07,株式会社青和商事,,株式会社,東京都,台東区,台東３丁目３４番８号佐々木ビル１Ｆ,,13,106,1100016,,,2022-12-07,清算の結了等,,,2019-11-07,1,,,,,セイワショウジ,0
2029,8010802003811,登記記録の閉鎖等,0,2022-12-09,2022-12-02,有限会社釜屋金物店,,有限会社,東京都,大田区,大森東２丁目２番９号,,13,111,1430012,,,2022-12-02,清算の結了等,,,2015-10-05,1,,,,,カマヤカナモノテン,0
2048,8011101088874,登記記録の閉鎖等,0,2022-12-09,2022-12-06,ＨＯＰ株式会社,,株式会社,東京都,新宿区,四谷１丁目６番１号,,13,104,1600004,,,2022-12-06,清算の結了等,,,2019-09-06,1,,,,,ホップ,0
2056,8011502011591,登記記録の閉鎖等,0,2022-12-09,2022-12-02,有限会社矢矧喜光製作所,,有限会社,東京都,荒川区,東日暮里３丁目４４番１２号,,13,118,1160014,,,2022-12-02,清算の結了等,,,2015-10-05,1,,,,,ヤハギキコウセイサクジョ,0
2061,8011702004321,登記記録の閉鎖等,0,2022-12-09,2022-12-06,有限会社小高製作所,,有限会社,東京都,江戸川区,西小松川町８番１６号,,13,123,1320032,,,2022-12-06,清算の結了等,,,2015-10-05,1,,,,,コタカセイサクショ,0
2064,8011801011235,登記記録の閉鎖等,0,2022-12-09,2022-12-07,株式会社花畑スイミングセンター,,株式会社,東京都,足立区,花畑４丁目３３番４号,,13,121,1210061,,,2022-12-07,合併による解散等,3030001067545,令和４年１２月１日埼玉県越谷市流通団地三丁目２番１号マルセンフーズ株式会社（3030001067545）に合併し解散,2015-10-05,1,,,,,ハナバタケスイミングセンター,0
2076,8012703002314,登記記録の閉鎖等,0,2022-12-09,2022-12-08,ＬＩＭＥ　Ｉｎｖｅｓｔｍｅｎｔ合同会社,,合同会社,東京都,小平市,鈴木町２丁目２３８番地の２１,,13,211,1870011,,,2022-12-08,清算の結了等,,,2021-09-17,1,,,,,ライムインベストメント,0
2079,8013301029294,登記記録の閉鎖等,0,2022-12-09,2022-12-05,株式会社永和,,株式会社,東京都,豊島区,西池袋３丁目１９番５号,,13,116,1710021,,,2022-12-05,清算の結了等,,,2015-10-05,1,,,,,,0
2081,8020001038815,登記記録の閉鎖等,0,2022-12-09,2022-12-01,株式会社菅原建鉄工業,,株式会社,神奈川県,横浜市港北区,新羽町２８３６番地,,14,109,2230057,,,2022-12-01,清算の結了等,,,2015-10-05,1,,,,,スガワラケンテツコウギョウ,0
2097,8021002029836,登記記録の閉鎖等,0,2022-12-09,2022-12-05,有限会社相模建設,,有限会社,神奈川県,相模原市緑区,小渕１５４２番地,,14,151,2520184,,,2022-12-05,清算の結了等,,,2015-10-05,1,,,,,サガミケンセツ,0
2127,8040003001587,登記記録の閉鎖等,0,2022-12-09,2022-12-01,ＡＭＲＯＳ合同会社,,合同会社,千葉県,浦安市,日の出１丁目４番Ｃ－１４０２号,,12,227,2790013,,,2022-12-01,清算の結了等,,,2015-10-05,1,,,,,アムロス,0
2139,8050002023243,登記記録の閉鎖等,0,2022-12-09,2022-12-07,有限会社あんしんラボ,,有限会社,茨城県,つくば市,高崎１５０１番地,,08,220,3001245,,,2022-12-07,清算の結了等,,,2015-10-05,1,,,,,アンシンラボ,0
2140,8060001003708,登記記録の閉鎖等,0,2022-12-09,2022-12-05,株式会社パワートラックス,,株式会社,栃木県,宇都宮市,上戸祭町６３６番地１２,,09,201,3200051,,,2022-12-05,清算の結了等,,,2015-10-05,1,,,,,パワートラックス,0
2149,8080001017268,登記記録の閉鎖等,0,2022-12-09,2022-12-07,テクノコートレーザー株式会社,,株式会社,静岡県,藤枝市,仮宿１４５８番地の３,,22,214,4260001,,,2022-12-07,清算の結了等,,,2015-10-05,1,,,,,テクノコートレーザー,0
2157,8110005000497,登記記録の閉鎖等,0,2022-12-09,2022-12-06,新潟県菓子卸商業組合,,その他の設立登記法人,新潟県,新潟市東区,卸新町２丁目９１６番地,,15,102,9500863,,,2022-12-06,清算の結了等,,,2015-10-05,1,,,,,ニイガタケンカシオロシ,0
2159,8120001043227,登記記録の閉鎖等,0,2022-12-09,2022-12-06,株式会社弘和,,株式会社,大阪府,大阪市西区,西本町１丁目１３番３６号,,27,106,5500005,,,2022-12-06,合併による解散等,5011101087342,令和４年１２月１日東京都千代田区丸の内三丁目１番１号ディシディア・ワイム株式会社（5011101087342）に合併し解散,2015-10-05,1,,,,,,0
2160,8120001119621,登記記録の閉鎖等,0,2022-12-09,2022-12-07,ネクサス株式会社,,株式会社,大阪府,大阪市中央区,北久宝寺一丁目５番６号,,27,128,5390000,,,2022-12-07,清算の結了等,,,2022-11-17,1,,,,,ネクサス,0
2177,8120101057548,登記記録の閉鎖等,0,2022-12-09,2022-12-08,株式会社ＳＡＮＮ,,株式会社,大阪府,堺市東区,大美野１３４番地１１９,,27,143,5998126,,,2022-12-08,清算の結了等,,,2017-12-21,1,,,,,サン,0
2198,8180001148111,登記記録の閉鎖等,0,2022-12-09,2022-12-06,株式会社ＬＡＢＯ・１,,株式会社,愛知県,瀬戸市,新郷町１８９番地２テクノアローズ株式会社内,,23,204,4890873,,,2022-12-06,清算の結了等,,,2021-10-05,1,,,,,ラボイチ,0
2205,8180301034325,登記記録の閉鎖等,0,2022-12-09,2022-12-05,ｅキッチン株式会社,,株式会社,愛知県,豊田市,若宮町７丁目１番地１１,,23,211,4710026,,,2022-12-05,清算の結了等,,,2020-11-19,1,,,,,イーキッチン,0
2208,8190001014493,登記記録の閉鎖等,0,2022-12-09,2022-12-06,太田商事株式会社,,株式会社,三重県,四日市市,八田３丁目６番３５号,,24,202,5100001,,,2022-12-06,合併による解散等,1180001045546,令和４年１２月１日愛知県清須市西須ケ口９３番地株式会社宮崎（1180001045546）に合併し解散,2015-10-05,1,,,,,オオタショウジ,0
2212,8190001026860,登記記録の閉鎖等,0,2022-12-09,2022-12-07,株式会社ＥＪＣ,,株式会社,三重県,津市,河辺町３０８９番地６,,24,201,5140065,,,2022-12-07,清算の結了等,,,2019-11-05,1,,,,,イージェイシー,0
2226,8230002000637,登記記録の閉鎖等,0,2022-12-09,2022-12-08,有限会社大井種苗店,,有限会社,富山県,富山市,岩瀬御藏町１７番地,,16,201,9390000,,,2022-12-08,清算の結了等,,,2015-10-05,1,,,,,オオイシュビョウテン,0
2268,8410005002546,登記記録の閉鎖等,0,2022-12-09,2022-12-05,泉沢生産森林組合,,その他の設立登記法人,秋田県,雄勝郡羽後町,中仙道字堀内５２番地,,05,463,0121352,,,2022-12-05,清算の結了等,,,2015-10-05,1,,,,,イズミサワ,0
2270,8430001047519,登記記録の閉鎖等,0,2022-12-09,2022-12-05,株式会社長沼中央ハイヤー,,株式会社,北海道,夕張郡長沼町,銀座南１丁目１番１０号,,01,428,0691331,,,2022-12-05,清算の結了等,,,2015-10-05,1,,,,,ナガヌマチュウオウハイヤー,0
2275,8430002015144,登記記録の閉鎖等,0,2022-12-09,2022-12-02,有限会社日発空調,,有限会社,北海道,札幌市白石区,菊水九条４丁目４番３０－８２８号,,01,104,0030809,,,2022-12-02,清算の結了等,,,2015-10-05,1,,,,,ニチハツクウチョウ,0
2279,8450002008781,登記記録の閉鎖等,0,2022-12-09,2022-12-01,有限会社グッドカンパニー,,有限会社,北海道,旭川市,常盤通２丁目１９７０番地８６,,01,204,0700043,,,2022-12-01,清算の結了等,,,2016-03-18,1,,,,,グッドカンパニー,0
2282,8700150007080,登記記録の閉鎖等,0,2022-12-09,2018-07-01,日本機械土工厚生年金基金,,その他,東京都,台東区,東上野５丁目１－８上野富士ビル９階,,13,106,1100015,,,2018-07-01,その他の清算の結了等,,,2015-10-09,1,,,,,ニホンキカイドコウコウセイネンキンキキン,0
2283,8700150008351,登記記録の閉鎖等,0,2022-12-09,2022-07-01,全国学校給食会連合会,,その他,東京都,新宿区,神楽坂１丁目２番地研究社英語センタービル３階,,13,104,1620825,,,2022-07-01,その他の清算の結了等,,,2015-10-09,1,,,,,ゼンコクガツコウキユウシヨクカイレンゴウカイ,0
2284,8700150046780,登記記録の閉鎖等,0,2022-12-09,2022-06-10,桑名市多度力尾土地区画整理組合,,その他,三重県,桑名市,多度町力尾２６８１－１,,24,205,5110125,,,2022-06-10,その他の清算の結了等,,,2015-10-09,1,,,,,クワナシタドチカラオトチクカクセイリクミアイ,0
2285,8700150104555,登記記録の閉鎖等,0,2022-12-09,2022-03-31,全国農薬業企業年金基金,,その他,埼玉県,さいたま市浦和区,高砂１丁目１－１,,11,107,3300063,,,2022-03-31,その他の清算の結了等,,,2021-08-31,1,,,,,ゼンコクノウヤクギヨウキギヨウネンキンキキン,0
2303,9010003036437,登記記録の閉鎖等,0,2022-12-09,2022-12-05,熊本大津ソーラーパーク準備合同会社,,合同会社,東京都,千代田区,丸の内３丁目１番１号東京共同会計事務所内,,13,101,1000005,,,2022-12-05,清算の結了等,,,2021-12-01,1,,,,,クマモトオオツソーラーパークジュンビ,0
2312,9010401091934,登記記録の閉鎖等,0,2022-12-09,2022-12-01,株式会社ミーク,,株式会社,東京都,港区,六本木４丁目３番１１－４０５号,,13,103,1060032,,,2022-12-01,清算の結了等,,,2015-10-05,1,,,,,,0
2317,9010601055689,登記記録の閉鎖等,0,2022-12-09,2022-12-07,株式会社東集,,株式会社,東京都,江東区,辰巳３丁目１５番１０号,,13,108,1350053,,,2022-12-07,合併による解散等,9010401147273,令和４年１２月１日東京都港区赤坂八丁目１０番２２号ニュー新坂ビル４ＦＬＭＩグループ株式会社（9010401147273）に合併し解散,2019-06-20,1,,,,,トウシュウ,0
2332,9011001107816,登記記録の閉鎖等,0,2022-12-09,2022-12-06,株式会社ヒャクエ,,株式会社,東京都,目黒区,三田１丁目１１番１号,,13,110,1530062,,,2022-12-06,清算の結了等,,,2015-10-21,1,,,,,ヒャクエ,0
2347,9011103007600,登記記録の閉鎖等,0,2022-12-09,2022-12-05,みどり合同会社,,合同会社,東京都,千代田区,岩本町３丁目４番９－６０５号,,13,101,1010032,,,2022-12-05,清算の結了等,,,2018-01-19,1,,,,,ミドリ,0
2354,9012403001029,登記記録の閉鎖等,0,2022-12-09,2022-12-07,合同会社スプーンフル,,合同会社,東京都,渋谷区,渋谷２丁目５番７号第１本間ビル３０１号,,13,113,1500002,,,2022-12-07,清算の結了等,,,2015-10-05,1,,,,,スプーンフル,0
2365,9020001126445,登記記録の閉鎖等,0,2022-12-09,2022-12-06,株式会社ＰＭＵ　Ｍｅｄｉｃａｌ　Ｌａｂｏ,,株式会社,神奈川県,横浜市中区,元町４丁目１７９番地３階,,14,104,2310861,,,2022-12-06,清算の結了等,,,2018-06-26,1,,,,,ピーエムユーメディカルラボ,0
2370,9020002030902,登記記録の閉鎖等,0,2022-12-09,2022-12-05,有限会社中島商店,,有限会社,神奈川県,横浜市南区,通町３丁目７１番地,,14,105,2320056,,,2022-12-05,清算の結了等,,,2015-10-05,1,,,,,ナカジマショウテン,0
2371,9020002042889,登記記録の閉鎖等,0,2022-12-09,2022-12-05,有限会社ジエツプジヤパン,,有限会社,神奈川県,横浜市西区,みなとみらい４丁目１０番２－Ｓ２５０９号,,14,103,2200012,,,2022-12-05,清算の結了等,,,2015-10-05,1,,,,,ジエツプジヤパン,0
2373,9020003008591,登記記録の閉鎖等,0,2022-12-09,2022-12-06,合同会社ＳＯＵＰＬＥＳＳＥ,,合同会社,神奈川県,横浜市青葉区,つつじが丘３番地３パークフォリア青葉台つつじが丘レジデンス２１０,,14,117,2270055,,,2022-12-06,清算の結了等,,,2015-10-05,1,,,,,スープレス,0
2378,9021001047474,登記記録の閉鎖等,0,2022-12-09,2022-12-05,株式会社コンプリート,,株式会社,神奈川県,横須賀市,秋谷１丁目７番１６号,,14,201,2400105,,,2022-12-05,清算の結了等,,,2015-10-05,1,,,,,コンプリート,0
2390,9030002093907,登記記録の閉鎖等,0,2022-12-09,2022-12-02,有限会社星商事,,有限会社,埼玉県,入間郡越生町,大字上谷２６５番地５,,11,327,3500407,,,2022-12-02,清算の結了等,,,2015-10-05,1,,,,,ホシショウジ,0
2394,9040001006991,登記記録の閉鎖等,0,2022-12-09,2022-12-01,株式会社マインド,,株式会社,千葉県,千葉市中央区,問屋町１番３５号千葉ポートサイドタワー１５階,,12,101,2600025,,,2022-12-01,合併による解散等,7040001002984,令和４年１２月１日千葉市中央区問屋町１番３５号千葉ポートサイドタワー１５階株式会社シーエムエヌ（7040001002984）に合併し解散,2015-10-05,1,,,,,マインド,0
2406,9040002074303,登記記録の閉鎖等,0,2022-12-09,2022-11-28,有限会社ティー・エム・シー・デザイン,,有限会社,千葉県,市原市,更級１丁目４番地９,,12,219,2900050,,,2022-11-28,清算の結了等,,,2015-10-05,1,,,,,ティーエムシーデザイン,0
2413,9080001021517,登記記録の閉鎖等,0,2022-12-09,2022-12-07,ピース電設株式会社,,株式会社,静岡県,焼津市,三ケ名１４８６番地の３,,22,212,4250071,,,2022-12-07,清算の結了等,,,2017-04-12,1,,,,,ピースデンセツ,0
2429,9120001152646,登記記録の閉鎖等,0,2022-12-09,2022-12-07,株式会社ハマナメンテナンス,,株式会社,大阪府,寝屋川市,日新町１番４号,,27,215,5720028,,,2022-12-07,清算の結了等,,,2015-10-05,1,,,,,ハマナメンテナンス,0
2443,9120101031683,登記記録の閉鎖等,0,2022-12-09,2022-12-07,株式会社仲庭,,株式会社,大阪府,南河内郡河南町,大宝１丁目２８番１８号,,27,382,5850005,,,2022-12-07,清算の結了等,,,2015-10-05,1,,,,,ナカニワ,0
2447,9120101056879,登記記録の閉鎖等,0,2022-12-09,2022-12-08,株式会社ショーダイ,,株式会社,大阪府,堺市北区,南長尾町３丁４番１－１１０７号,,27,146,5918045,,,2022-12-08,清算の結了等,,,2017-07-27,1,,,,,ショーダイ,0
2452,9130001037441,登記記録の閉鎖等,0,2022-12-09,2022-11-30,株式会社京都建築都市研究所,,株式会社,京都府,京都市左京区,下鴨北園町７２番地,,26,103,6060831,,,2022-11-30,清算の結了等,,,2015-10-05,1,,,,,キョウトケンチクトシケンキュウショ,0
2456,9140002010074,登記記録の閉鎖等,0,2022-12-09,2022-12-06,有限会社ズウ企画,,有限会社,兵庫県,神戸市灘区,岩屋中町５丁目１番６－１１０３号,,28,102,6570845,,,2022-12-06,清算の結了等,,,2015-10-05,1,,,,,ズウキカク,0
2470,9180002052798,登記記録の閉鎖等,0,2022-12-09,2022-12-06,有限会社Ｓｔｕｄｉｏ　ＣＯＭＯ,,有限会社,愛知県,名古屋市東区,泉１丁目１番１７号,,23,102,4610001,,,2022-12-06,清算の結了等,,,2015-10-05,1,,,,,スタジオコモ,0
2473,9180003011902,登記記録の閉鎖等,0,2022-12-09,2022-12-06,伊林織物合名会社,,合名会社,愛知県,一宮市,三条字古川１８７３番地,,23,203,4940003,,,2022-12-06,清算の結了等,,,2015-10-05,1,,,,,イバヤシオリモノ,0
2483,9240002025954,登記記録の閉鎖等,0,2022-12-09,2022-12-07,有限会社大城,,有限会社,広島県,広島市西区,横川町２丁目９番１号,,34,104,7330011,,,2022-12-07,清算の結了等,,,2015-10-05,1,,,,,,0
2502,9330005004814,登記記録の閉鎖等,0,2022-12-09,2022-12-07,柿野山田牧野農業協同組合,,その他の設立登記法人,熊本県,阿蘇郡南阿蘇村,大字河陰４３６４番地,,43,433,8691411,,,2022-12-07,清算の結了等,,,2015-10-05,1,,,,,カキノヤマダボクヤ,0
2511,9370001015472,登記記録の閉鎖等,0,2022-12-09,2022-12-07,株式会社ビーテック,,株式会社,宮城県,仙台市若林区,大和町３丁目５－１０,,04,103,9840042,,,2022-12-07,清算の結了等,,,2015-10-05,1,,,,,ビーテック,0
2513,9370001041725,登記記録の閉鎖等,0,2022-12-09,2022-12-06,株式会社ＣＯＬＯＲ,,株式会社,宮城県,仙台市宮城野区,苦竹１丁目７－２５ウエストパレスマンション１Ｆ,,04,102,9830036,,,2022-12-06,清算の結了等,,,2017-07-10,1,,,,,カラー,0
2516,9370002015653,登記記録の閉鎖等,0,2022-12-09,2022-12-07,有限会社アイ・エス・テイ,,有限会社,宮城県,仙台市泉区,館１丁目１５番地の１８,,04,105,9813214,,,2022-12-07,清算の結了等,,,2015-10-05,1,,,,,アイエステイ,0
2533,9430001013156,登記記録の閉鎖等,0,2022-12-09,2022-12-05,能登水産株式会社,,株式会社,北海道,札幌市厚別区,厚別西五条１丁目１番２５号,,01,108,0040065,,,2022-12-05,清算の結了等,,,2015-10-05,1,,,,,ノトスイサン,0
2534,9430001051775,登記記録の閉鎖等,0,2022-12-09,2022-12-01,高橋建設株式会社,,株式会社,北海道,磯谷郡蘭越町,昆布町１３４番地,,01,394,0481302,,,2022-12-01,清算の結了等,,,2015-10-05,1,,,,,タカハシケンセツ,0
2539,9430002062012,登記記録の閉鎖等,0,2022-12-09,2022-12-02,有限会社パッケージ日端,,有限会社,北海道,日高郡新ひだか町,静内緑町５丁目４番４号,,01,610,0560004,,,2022-12-02,清算の結了等,,,2015-10-05,1,,,,,パッケージヒバタ,0
2546,9460101005364,登記記録の閉鎖等,0,2022-12-09,2022-12-06,株式会社ＯＧメンテナンス,,株式会社,北海道,河東郡音更町,緑陽台北区２２番地,,01,631,0800316,,,2022-12-06,清算の結了等,,,2015-10-05,1,,,,,オージーメンテナンス,0
2557,9700150001289,登記記録の閉鎖等,0,2022-12-09,2022-03-31,東京三田倶楽部,,その他,東京都,千代田区,内幸町１丁目１－１帝国ホテル本館地下１階,,13,101,1000011,,,2022-03-31,その他の清算の結了等,,,2015-10-09,1,,,,,トウキヨウミタクラブ,0
2559,9700150023936,登記記録の閉鎖等,0,2022-12-09,2022-02-28,北野連合振興町会,,その他,大阪府,大阪市北区,兎我野町５番６号,,27,127,5300056,,,2022-02-28,その他の清算の結了等,,,2015-10-09,1,,,,,キタノレンゴウシンコウチヨウカイ,0
2560,9700150037936,登記記録の閉鎖等,0,2022-12-09,2022-07-31,猪苗代スキー学校,,その他,福島県,耶麻郡猪苗代町,字葉山７１０５,,07,408,9693102,,,2022-07-31,その他の清算の結了等,,,2015-10-09,1,,,,,イナワシロスキーガツコウ,0
2561,9700150065061,登記記録の閉鎖等,0,2022-12-09,2020-04-11,奄美産業活性化協議会,,その他,鹿児島県,奄美市,名瀬小俣町２０－１,,46,222,8940012,,,2020-04-11,その他の清算の結了等,,,2015-10-09,1,,,,,アマミサンギヨウカツセイカキヨウギカイ,0
