sequenceNumber,corporateNumber,process,correct,updateDate,changeDate,name,nameImageId,kind,prefectureName,cityName,streetNumber,addressImageId,prefectureCode,cityCode,postCode,addressOutside,addressOutsideImageId,closeDate,closeCause,successorCorporateNumber,changeCause,assignmentDate,latest,enName,enPrefectureName,enCityName,enAddressOutside,furigana,hihyoji
9,1010001241839,新規,0,2024-01-30,2024-01-30,株式会社エテルナ,,株式会社,東京都,中央区,日本橋小伝馬町２番５号,,13,102,1030001,,,,,,,2024-01-30,1,,,,,エテルナ,0
21,1010401179860,新規,0,2024-01-30,2024-01-30,株式会社Ａｏｎｉｓｔ,,株式会社,東京都,港区,赤坂８丁目４番１４号青山タワープレイス８階,,13,103,1070052,,,,,,,2024-01-30,1,,,,,アオニスト,0
22,1010401180018,新規,0,2024-01-30,2024-01-30,豊友商事株式会社,,株式会社,東京都,港区,赤坂４丁目７番６号赤坂ビジネスコート３０６Ａ,,13,103,1070052,,,,,,,2024-01-30,1,,,,,トヨトモショウジ,0
28,1010501051696,新規,0,2024-01-30,2024-01-30,日新株式会社,,株式会社,東京都,台東区,松が谷２丁目９番１－４０２号,,13,106,1110036,,,,,,,2024-01-30,1,,,,,ニッシン,0
29,1010601064549,新規,0,2024-01-30,2024-01-30,株式会社Ｍ‐Ｄｒｉｖｅ,,株式会社,東京都,江東区,森下２丁目８番３号,,13,108,1350004,,,,,,,2024-01-30,1,,,,,エムドライブ,0
30,1010601064565,新規,0,2024-01-30,2024-01-30,誠和環境株式会社,,株式会社,東京都,墨田区,押上２丁目３１番１４号,,13,107,1310045,,,,,,,2024-01-30,1,,,,,セイワカンキョウ,0
32,1010603010617,新規,0,2024-01-30,2024-01-30,合同会社Ｈｅｌｌｏ　Ｈｅｌｌｏ,,合同会社,東京都,江東区,亀戸２丁目３２－５ＳＡＫＵＲＡＭＥＮＳＨＩＮ２０３,,13,108,1360071,,,,,,,2024-01-30,1,,,,,ハローハロー,0
35,1010701045481,新規,0,2024-01-30,2024-01-30,リベロント株式会社,,株式会社,東京都,品川区,西品川１丁目１－１住友不動産大崎ガーデンタワー９階,,13,109,1410033,,,,,,,2024-01-30,1,,,,,リベロント,0
36,1010703006993,新規,0,2024-01-30,2024-01-30,合同会社Ｐｈｅｎｏｍｅｎｏｎ,,合同会社,東京都,品川区,小山１丁目１番１号アスペンヒルズ１０７,,13,109,1420062,,,,,,,2024-01-30,1,,,,,フェノメノン,0
37,1010803004831,新規,0,2024-01-30,2024-01-30,スター・ゲート合同会社,,合同会社,東京都,大田区,中央６丁目１２番１０号,,13,111,1430024,,,,,,,2024-01-30,1,,,,,スターゲート,0
41,1010903008781,新規,0,2024-01-30,2024-01-30,合同会社ＲＥＡＬ　ＤＥＡＬ　ＴＥＡＬ,,合同会社,東京都,世田谷区,奥沢１丁目２５－８,,13,112,1580083,,,,,,,2024-01-30,1,,,,,リアルディールティール,0
47,1011003018390,新規,0,2024-01-30,2024-01-30,合同会社ヤマケン,,合同会社,東京都,目黒区,中根１丁目６番３－２０１号,,13,110,1520031,,,,,,,2024-01-30,1,,,,,ヤマケン,0
50,1011101105958,新規,0,2024-01-30,2024-01-30,ぞらん株式会社,,株式会社,東京都,新宿区,榎町３４番地３榎町ビル５階２室,,13,104,1620806,,,,,,,2024-01-30,1,,,,,ゾラン,0
52,1011201025214,新規,0,2024-01-30,2024-01-30,ノトトリ株式会社,,株式会社,東京都,中野区,東中野５丁目２７－１０,,13,114,1640003,,,,,,,2024-01-30,1,,,,,ノトトリ,0
57,1011403004255,新規,0,2024-01-30,2024-01-30,合同会社咲,,合同会社,東京都,板橋区,成増３丁目４１番１５号メゾンイセフ１Ｆ,,13,119,1750094,,,,,,,2024-01-30,1,,,,,エミ,0
61,1011701026967,新規,0,2024-01-30,2024-01-30,Ｇｉｔａｎａ　Ｗｉｎｅｒｙ１９５３Ａｓｉａ株式会社,,株式会社,東京都,江戸川区,中葛西５丁目２０番９号ＳＵＮＧＩＯＩＡＮｏｒｔｈ１０１,,13,123,1340083,,,,,,,2024-01-30,1,,,,,ジターナワイナリーイチキュウゴウサンアジア,0
62,1011701026975,新規,0,2024-01-30,2024-01-30,株式会社Ａハウス,,株式会社,東京都,江戸川区,南葛西６丁目８番１８号,,13,123,1340085,,,,,,,2024-01-30,1,,,,,エーハウス,0
69,1011801043714,新規,0,2024-01-30,2024-01-30,株式会社ＳＨＩＢＵＹＡ　ＧＣ,,株式会社,東京都,足立区,千住緑町３丁目１７－２６ＴＯＰ千住大橋ＮＯ１－１０５,,13,121,1200044,,,,,,,2024-01-30,1,,,,,シブヤジーシー,0
71,1011803006066,新規,0,2024-01-30,2024-01-30,合同会社ＭＡＸ,,合同会社,東京都,葛飾区,東堀切１丁目１４番１－３０２号,,13,122,1240004,,,,,,,2024-01-30,1,,,,,マックス,0
83,1013301051949,新規,0,2024-01-30,2024-01-30,日本蘭心慧質国際株式会社,,株式会社,東京都,豊島区,東池袋１丁目３１番１３号ライオンズマンション東池袋第３－６０５号室,,13,116,1700013,,,,,,,2024-01-30,1,,,,,ニホンランシンケイシツコクサイ,0
91,1020001155559,新規,0,2024-01-30,2024-01-30,ＯＮＩＧＩＲＩ株式会社,,株式会社,神奈川県,横浜市西区,南浅間町２６番地１２ハウス西横浜,,14,103,2200074,,,,,,,2024-01-30,1,,,,,オニギリ,0
92,1020001155567,新規,0,2024-01-30,2024-01-30,株式会社里山,,株式会社,神奈川県,横浜市戸塚区,名瀬町２０２６番地,,14,110,2450051,,,,,,,2024-01-30,1,,,,,サトヤマ,0
95,1021001081332,新規,0,2024-01-30,2024-01-30,株式会社もみの木,,株式会社,神奈川県,南足柄市,雨坪３１８番地１,,14,217,2500134,,,,,,,2024-01-30,1,,,,,モミノキ,0
96,1021003014091,新規,0,2024-01-30,2024-01-30,合同会社ＧＯＤ,,合同会社,神奈川県,厚木市,中町２丁目１番８号プリムローズ本厚木館２階,,14,212,2430018,,,,,,,2024-01-30,1,,,,,ゴッド,0
107,1030001158346,新規,0,2024-01-30,2024-01-30,株式会社ａｎｄ　ＬＵＸＥ,,株式会社,埼玉県,八潮市,大字木曽根１１０６番地１－２０１,,11,234,3400813,,,,,,,2024-01-30,1,,,,,アンドリュクス,0
108,1030001158420,新規,0,2024-01-30,2024-01-30,株式会社Ｌｉｓｔ,,株式会社,埼玉県,加須市,細間１３１３番地１,,11,210,3491156,,,,,,,2024-01-30,1,,,,,リスト,0
115,1030005021541,新規,0,2024-01-30,2024-01-30,一般社団法人ＭＣＭＧ,,その他の設立登記法人,埼玉県,さいたま市大宮区,宮町１丁目６７番地,,11,103,3300802,,,,,,,2024-01-30,1,,,,,エムシーエムジー,0
117,1040001131970,新規,0,2024-01-30,2024-01-30,ＣＡＭＢＡＲＥ株式会社,,株式会社,千葉県,市川市,行徳駅前１丁目７番７－３０２号,,12,203,2720133,,,,,,,2024-01-30,1,,,,,カンバレ,0
121,1040003024207,新規,0,2024-01-30,2024-01-30,ＮＩＰＰＯＮ　ＬＡＮＫＡ　ＶＥＨＩＣＬＥ　ＰＡＲＴＳ合同会社,,合同会社,千葉県,香取市,大戸川１７７番地１,,12,236,2870054,,,,,,,2024-01-30,1,,,,,ニッポンランカベヒクルパーツ,0
122,1040003024215,新規,0,2024-01-30,2024-01-30,合同会社Ｔ．Ｓ．舶用推進機技術サポート事務所,,合同会社,千葉県,千葉市中央区,中央２丁目５番１号千葉中央ツインビル２号館７階,,12,101,2600013,,,,,,,2024-01-30,1,,,,,ティーエスハンヨウスイシンキギジュツサポートジムショ,0
151,1120001261743,新規,0,2024-01-30,2024-01-30,イカネ株式会社,,株式会社,大阪府,大阪市生野区,巽西２丁目５番５号２階,00133548,27,116,5440012,,,,,,,2024-01-30,1,,,,,イカネ,0
152,1120001261751,新規,0,2024-01-30,2024-01-30,東勝利株式会社,,株式会社,大阪府,大阪市東住吉区,東田辺３丁目１－１－１Ｆ－Ｂ,,27,121,5460032,,,,,,,2024-01-30,1,,,,,ヒガシショウリ,0
154,1120003025799,新規,0,2024-01-30,2024-01-30,合同会社ＭＡＲＵＴＩ,,合同会社,大阪府,大阪市生野区,巽南３丁目１５番３号,00133560,27,116,5440015,,,,,,,2024-01-30,1,,,,,マルチ,0
155,1120005024139,新規,0,2024-01-30,2024-01-30,医療法人恵緑会,,その他の設立登記法人,大阪府,大阪市淀川区,西宮原２丁目５番１号グランドマスト新大阪１階,,27,123,5320004,,,,,,,2024-01-30,1,,,,,ケイリョクカイ,0
156,1120103005651,新規,0,2024-01-30,2024-01-30,合同会社トレアモ,,合同会社,大阪府,堺市西区,草部５４６番地４７,,27,144,5938312,,,,,,,2024-01-30,1,,,,,トレアモ,0
159,1120903005025,新規,0,2024-01-30,2024-01-30,合同会社佐々木建設,,合同会社,大阪府,池田市,空港１丁目１１番２５号エレガンスエアポート１０１号,,27,204,5630034,,,,,,,2024-01-30,1,,,,,ササキケンセツ,0
181,1150003003174,新規,0,2024-01-30,2024-01-30,アイ．エム．アール合同会社,,合同会社,奈良県,北葛城郡河合町,中山台２丁目１３番地６,,29,427,6360072,,,,,,,2024-01-30,1,,,,,アイエムアール,0
182,1160001025657,新規,0,2024-01-30,2024-01-30,株式会社司住宅,,株式会社,滋賀県,大津市,神領２丁目１４番１２号,,25,201,5202132,,,,,,,2024-01-30,1,,,,,ツカサジュウタク,0
189,1180001159981,新規,0,2024-01-30,2024-01-30,株式会社イーサイト,,株式会社,愛知県,名古屋市中川区,松葉町１丁目１８番地１,,23,110,4540818,,,,,,,2024-01-30,1,,,,,イーサイト,0
207,1230001020196,新規,0,2024-01-30,2024-01-30,株式会社ＡＧＭ,,株式会社,富山県,富山市,森２丁目１４番３８号,,16,201,9318332,,,,,,,2024-01-30,1,,,,,エージーエム,0
229,1290001104530,新規,0,2024-01-30,2024-01-30,ＯＵＲ　ＣＥＬＬＡＲ株式会社,,株式会社,福岡県,福岡市博多区,美野島１丁目３番５－１０４号ＯＡＫＶＩＬＬＡＨＡＫＡＴＡ１５ｔｈ,,40,132,8120017,,,,,,,2024-01-30,1,,,,,アワーセラー,0
230,1290001104539,新規,0,2024-01-30,2024-01-30,株式会社ＭＩＺＵＴＡ,,株式会社,福岡県,久留米市,城島町城島１８９番地１０,,40,203,8300207,,,,,,,2024-01-30,1,,,,,ミズタ,0
231,1290001104547,新規,0,2024-01-30,2024-01-30,株式会社Ｒｅ．ｐｌａｃｅ,,株式会社,福岡県,福岡市早良区,田村２丁目１１番３０－３０７号,,40,137,8140175,,,,,,,2024-01-30,1,,,,,リプレイス,0
243,1340001026249,新規,0,2024-01-30,2024-01-30,株式会社一兆インターナショナル,,株式会社,鹿児島県,奄美市,名瀬鳩浜町５８番地,,46,222,8940004,,,,,,,2024-01-30,1,,,,,イッチョウインターナショナル,0
251,1380001034272,新規,0,2024-01-30,2024-01-30,株式会社松川農機,,株式会社,福島県,須賀川市,前田川字柳作３２番地１,,07,207,9620814,,,,,,,2024-01-30,1,,,,,マツカワノウキ,0
279,2010003042722,新規,0,2024-01-30,2024-01-30,合同会社アストラガルス,,合同会社,東京都,中央区,日本橋室町１丁目１１番１２号日本橋水野ビル７階,,13,102,1030022,,,,,,,2024-01-30,1,,,,,アストラガルス,0
280,2010003042821,新規,0,2024-01-30,2024-01-30,Ｍｕｓｅ　Ｒｅｉｎａ　ｅｎｔｅｒｔａｉｎｍｅｎｔ合同会社,,合同会社,東京都,中央区,銀座１丁目２２番１１号銀座大竹ビジデンス２Ｆ,,13,102,1040061,,,,,,,2024-01-30,1,,,,,ミューズレイナエンターテインメント,0
283,2010101015984,新規,0,2024-01-30,2024-01-30,株式会社ＣＯＬＯＲ,,株式会社,東京都,八王子市,大楽寺町５３６番地３－１Ｆ,,13,201,1930816,,,,,,,2024-01-30,1,,,,,,0
289,2010401180000,新規,0,2024-01-30,2024-01-30,株式会社コスモウエーヴ,,株式会社,東京都,港区,港南４丁目６番５－４００１号,,13,103,1080075,,,,,,,2024-01-30,1,,,,,,0
290,2010401180009,新規,0,2024-01-30,2024-01-30,株式会社Ｍａｒ２,,株式会社,東京都,港区,西麻布１丁目２番３号アクティブ六本木５０７,,13,103,1060031,,,,,,,2024-01-30,1,,,,,マルツー,0
291,2010401180017,新規,0,2024-01-30,2024-01-30,株式会社ａ‐ｏｎｅ,,株式会社,東京都,港区,高輪１丁目２１－５,,13,103,1080074,,,,,,,2024-01-30,1,,,,,エーワン,0
292,2010401180033,新規,0,2024-01-30,2024-01-30,株式会社企業経営支援機構,,株式会社,東京都,港区,六本木３丁目７番１－１４１９号,,13,103,1060032,,,,,,,2024-01-30,1,,,,,キギョウケイエイシエンキコウ,0
293,2010401180090,新規,0,2024-01-30,2024-01-30,ＮＥＸＳＴ株式会社,,株式会社,東京都,港区,南青山１丁目１７番１４号１階,,13,103,1070062,,,,,,,2024-01-30,1,,,,,ネクスト,0
295,2010403031812,新規,0,2024-01-30,2024-01-30,合同会社メディア,,合同会社,東京都,港区,白金台４丁目３－８－２０６,,13,103,1080071,,,,,,,2024-01-30,1,,,,,メディア,0
296,2010403031837,新規,0,2024-01-30,2024-01-30,フレスノホールディングスジャパン合同会社,,合同会社,東京都,港区,芝１丁目２－１クレストプライムタワー芝２７０９号,,13,103,1050014,,,,,,,2024-01-30,1,,,,,フレスノホールディングスジャパン,0
304,2010501051704,新規,0,2024-01-30,2024-01-30,株式会社清水ケース製作所,,株式会社,東京都,台東区,蔵前４丁目３３－１プライメリー清水３０１,,13,106,1110051,,,,,,,2024-01-30,1,,,,,シミズケースセイサクジョ,0
311,2010701045472,新規,0,2024-01-30,2024-01-30,株式会社ＯＮＥ,,株式会社,東京都,品川区,東品川１丁目３９番２号ニューライフ品川１１０号室,,13,109,1400002,,,,,,,2024-01-30,1,,,,,ワン,0
312,2010701045480,新規,0,2024-01-30,2024-01-30,株式会社エヌエスグローバル,,株式会社,東京都,品川区,東品川３丁目２３番２２－４０３号,,13,109,1400002,,,,,,,2024-01-30,1,,,,,エヌエスグローバル,0
327,2011001159657,新規,0,2024-01-30,2024-01-30,株式会社Ｃｅｕｍｏ,,株式会社,東京都,目黒区,自由が丘２丁目１６－１２ＬＣ１Ｆ,,13,110,1520035,,,,,,,2024-01-30,1,,,,,セウモ,0
328,2011001159723,新規,0,2024-01-30,2024-01-30,株式会社写真,,株式会社,東京都,目黒区,東山１丁目４―１３ＡＳＡ東山ビル３Ｆ・Ｂ号室,,13,110,1530043,,,,,,,2024-01-30,1,,,,,シャシン,0
330,2011003018407,新規,0,2024-01-30,2024-01-30,合同会社Ａｎａｓａ,,合同会社,東京都,渋谷区,道玄坂１丁目１０番８号渋谷道玄坂東急ビル２Ｆ－Ｃ,,13,113,1500043,,,,,,,2024-01-30,1,,,,,アナーサ,0
333,2011101105924,新規,0,2024-01-30,2024-01-30,ファイブビット株式会社,,株式会社,東京都,新宿区,百人町３丁目８番１３号,,13,104,1690073,,,,,,,2024-01-30,1,,,,,ファイブビット,0
335,2011103014041,新規,0,2024-01-30,2024-01-30,合同会社ソナタ,,合同会社,東京都,新宿区,市谷田町２丁目３８番３号シティ市ヶ谷８０１,,13,104,1620843,,,,,,,2024-01-30,1,,,,,ソナタ,0
341,2011401025822,新規,0,2024-01-30,2024-01-30,株式会社ＬＩＦＩＸ,,株式会社,東京都,板橋区,舟渡２丁目３１－１－２１０,,13,119,1740041,,,,,,,2024-01-30,1,,,,,リフィックス,0
343,2011403004254,新規,0,2024-01-30,2024-01-30,ＩＫＥ合同会社,,合同会社,東京都,板橋区,成増３丁目２３番５号長太郎第６ビル３階池ノ上和宏税理士事務所内,,13,119,1750094,,,,,,,2024-01-30,1,,,,,イケ,0
348,2011701026958,新規,0,2024-01-30,2024-01-30,株式会社ＦｌｅｘＷｅｌｌ,,株式会社,東京都,江戸川区,中葛西４丁目１５－６プラザエノモトＩＩＩ３０１,00133546,13,123,1340083,,,,,,,2024-01-30,1,,,,,フレックスウェル,0
355,2011803006065,新規,0,2024-01-30,2024-01-30,合同会社清水オフィス,,合同会社,東京都,足立区,足立３丁目３番４号ベルダ・ビレッジオＩ１０５,00133559,13,121,1200015,,,,,,,2024-01-30,1,,,,,シミズオフィス,0
358,2012801022938,新規,0,2024-01-30,2024-01-30,株式会社スタイルコンダクター,,株式会社,東京都,立川市,柴崎町３丁目８番５号立川ＮＸビル５Ｆ,,13,202,1900023,,,,,,,2024-01-30,1,,,,,スタイルコンダクター,0
359,2012803003300,新規,0,2024-01-30,2024-01-30,合同会社アルファ,,合同会社,東京都,武蔵村山市,大南３丁目２９番地の１Ｓｔａｇｅｏｎｅ玉川上水２０５号,,13,223,2080013,,,,,,,2024-01-30,1,,,,,アルファ,0
364,2013301051980,新規,0,2024-01-30,2024-01-30,株式会社ＭＯＵ,,株式会社,東京都,豊島区,西池袋１丁目３３番地１０号,,13,116,1710021,,,,,,,2024-01-30,1,,,,,エムオーユ,0
366,2020001155475,新規,0,2024-01-30,2024-01-30,株式会社ナガサカ京都,,株式会社,神奈川県,横浜市西区,岡野２丁目１５番３２号,,14,103,2200073,,,,,,,2024-01-30,1,,,,,ナガサカキョウト,0
367,2020001155574,新規,0,2024-01-30,2024-01-30,Ｆｉｘａｃｅ株式会社,,株式会社,神奈川県,横浜市緑区,中山３丁目２８番１２号,,14,113,2260019,,,,,,,2024-01-30,1,,,,,フィックスエース,0
369,2020003025453,新規,0,2024-01-30,2024-01-30,Ｋ’ｓＬｏｇｉＣｏｏｄｅ合同会社,,合同会社,神奈川県,横浜市港北区,綱島東６丁目１１番３０－７０４号,,14,109,2230052,,,,,,,2024-01-30,1,,,,,ケーズロジコーデ,0
370,2020003025461,新規,0,2024-01-30,2024-01-30,ＳＯＬＩＳ合同会社,,合同会社,神奈川県,横浜市港南区,大久保３丁目３６番２８号,,14,111,2330007,,,,,,,2024-01-30,1,,,,,ソリス,0
374,2021003014090,新規,0,2024-01-30,2024-01-30,合同会社ノースマウンテン,,合同会社,神奈川県,藤沢市,辻堂５丁目１８－３１,,14,205,2510047,,,,,,,2024-01-30,1,,,,,ノースマウンテン,0
378,2030001158254,新規,0,2024-01-30,2024-01-30,三金株式会社,,株式会社,埼玉県,川口市,元郷１丁目１番３０－９０８号,,11,203,3320011,,,,,,,2024-01-30,1,,,,,サンキン,0
379,2030001158403,新規,0,2024-01-30,2024-01-30,株式会社Ｂ’ｓ　ＷＯＲＫＳ,,株式会社,埼玉県,深谷市,人見８４０番地３,,11,218,3660811,,,,,,,2024-01-30,1,,,,,ビーズワークス,0
386,2030003023530,新規,0,2024-01-30,2024-01-30,エーオーアイ合同会社,,合同会社,埼玉県,さいたま市中央区,本町西２丁目１５番１６号,,11,105,3380004,,,,,,,2024-01-30,1,,,,,エーオーアイ,0
387,2030005021540,新規,0,2024-01-30,2024-01-30,一般社団法人韓日学生交流協会,,その他の設立登記法人,埼玉県,草加市,吉町４丁目１番５号,,11,221,3400017,,,,,,,2024-01-30,1,,,,,カンニチガクセイコウリュウキョウカイ,0
390,2040001131953,新規,0,2024-01-30,2024-01-30,ワンステップ株式会社,,株式会社,千葉県,君津市,南子安５丁目７番８号,,12,225,2991162,,,,,,,2024-01-30,1,,,,,ワンステップ,0
391,2040001131961,新規,0,2024-01-30,2024-01-30,株式会社ひかり,,株式会社,千葉県,市川市,宮久保２丁目１６番１８号,,12,203,2720822,,,,,,,2024-01-30,1,,,,,ヒカリ,0
392,2040001131978,新規,0,2024-01-30,2024-01-30,エス塗工建株式会社,,株式会社,千葉県,八千代市,萱田１０２９番地４,,12,221,2760043,,,,,,,2024-01-30,1,,,,,エストコウケン,0
393,2040003024206,新規,0,2024-01-30,2024-01-30,Ｌｉｌｙ合同会社,,合同会社,千葉県,浦安市,日の出６丁目９番１４号,,12,227,2790013,,,,,,,2024-01-30,1,,,,,リリー,0
394,2050001054195,新規,0,2024-01-30,2024-01-30,株式会社Ｒｅｃｏｖｅｒｙ　Ｃｏｎｎｅｃｔ,,株式会社,茨城県,取手市,戸頭４丁目７－１６,,08,217,3020034,,,,,,,2024-01-30,1,,,,,リカバリーコネクト,0
402,2070001041340,新規,0,2024-01-30,2024-01-30,株式会社新井工業,,株式会社,群馬県,高崎市,金古町９４４番地１,,10,202,3703511,,,,,,,2024-01-30,1,,,,,アライコウギョウ,0
407,2090001018519,新規,0,2024-01-30,2024-01-30,株式会社バリアブルキャリア,,株式会社,山梨県,甲府市,武田３丁目３番２９号,,19,201,4000016,,,,,,,2024-01-30,1,,,,,バリアブルキャリア,0
424,2120003025823,新規,0,2024-01-30,2024-01-30,合同会社ＢｏａＳｏｒｔｅ,,合同会社,大阪府,大阪市北区,西天満４丁目１５－１８プラザ梅新６１２号室,,27,127,5300047,,,,,,,2024-01-30,1,,,,,ボアソルチ,0
426,2120103005650,新規,0,2024-01-30,2024-01-30,合同会社Ｗａｆｆｌｙ,,合同会社,大阪府,松原市,天美東８丁目４番３３号,,27,217,5800032,,,,,,,2024-01-30,1,,,,,ワフリー,0
430,2120903005008,新規,0,2024-01-30,2024-01-30,Ｆｕｍｂｌｅ合同会社,,合同会社,大阪府,茨木市,庄２丁目１７－２３,,27,211,5670806,,,,,,,2024-01-30,1,,,,,ファンブル,0
431,2120903005024,新規,0,2024-01-30,2024-01-30,合同会社リライフ,,合同会社,大阪府,池田市,宇保町５番２２号,,27,204,5630042,,,,,,,2024-01-30,1,,,,,リライフ,0
433,2122001037750,新規,0,2024-01-30,2024-01-30,株式会社ＡＮＨＭＹ,,株式会社,大阪府,東大阪市,中石切町１丁目７番２８号,,27,227,5798014,,,,,,,2024-01-30,1,,,,,アンミイ,0
436,2130001076248,新規,0,2024-01-30,2024-01-30,株式会社友信産業,,株式会社,京都府,八幡市,戸津蜻蛉尻１０番１,,26,210,6148204,,,,,,,2024-01-30,1,,,,,ユウシンサンギョウ,0
437,2130003009263,新規,0,2024-01-30,2024-01-30,合同会社Ｗｏｒｋ,,合同会社,京都府,京都市下京区,七条通油小路東入大黒町２２７番地第２キョートビル４０２,,26,106,6008223,,,,,,,2024-01-30,1,,,,,ワーク,0
440,2140001133130,新規,0,2024-01-30,2024-01-30,株式会社ＮＩＣＯ　ＤＥＳＩＧＮ　ＷＯＲＫＳ,,株式会社,兵庫県,神戸市中央区,磯辺通１丁目１番１８号カサベラ国際プラザビル７０７号室,,28,110,6510084,,,,,,,2024-01-30,1,,,,,ニコデザインワークス,0
442,2140003020112,新規,0,2024-01-30,2024-01-30,合同会社ボトルメール,,合同会社,兵庫県,神戸市中央区,磯辺通１丁目１番１８号カサベラ国際プラザビル７０７号室,,28,110,6510084,,,,,,,2024-01-30,1,,,,,ボトルメール,0
443,2150003003173,新規,0,2024-01-30,2024-01-30,合同会社ＤＳｃ,,合同会社,奈良県,生駒郡斑鳩町,法隆寺東２丁目１番１８－３０１号,,29,344,6360112,,,,,,,2024-01-30,1,,,,,ディーエスシー,0
444,2160001025664,新規,0,2024-01-30,2024-01-30,株式会社Ｙｏｕｔｈｆｕｌ,,株式会社,滋賀県,栗東市,霊仙寺５丁目５－４１,,25,208,5203035,,,,,,,2024-01-30,1,,,,,ユースフル,0
453,2180001159956,新規,0,2024-01-30,2024-01-30,株式会社伊藤キャピタル,,株式会社,愛知県,名古屋市東区,葵２丁目３番１５号ふぁみーゆ葵ビル８０１,,23,102,4610004,,,,,,,2024-01-30,1,,,,,イトウキャピタル,0
454,2180001159972,新規,0,2024-01-30,2024-01-30,株式会社リブライトホームズ,,株式会社,愛知県,名古屋市北区,大曽根２丁目９－６２ＥＸＴＬＵＸ　ＯＺＯＮＥ　５０２号室,,23,103,4620825,,,,,,,2024-01-30,1,,,,,リブライトホームズ,0
462,2190003004564,新規,0,2024-01-30,2024-01-30,合同会社ｍａｒｙａ　ｂｉｏｆｌｏｗｅｒ,,合同会社,三重県,津市,美杉町八知４５１５番地１,,24,201,5153421,,,,,,,2024-01-30,1,,,,,マーヤビオフラワー,0
470,2230001020195,新規,0,2024-01-30,2024-01-30,株式会社ぼんど,,株式会社,富山県,南砺市,福光７３０１番地１,,16,210,9391610,,,,,,,2024-01-30,1,,,,,ボンド,0
489,2290001104496,新規,0,2024-01-30,2024-01-30,株式会社Ｇｅｎ‐Ｆａｃｔｏｒｙ,,株式会社,福岡県,福岡市博多区,博多駅前１丁目２３番２号ＰａｒｋＦｒｏｎｔ博多駅前一丁目５Ｆ－Ｂ,,40,132,8120011,,,,,,,2024-01-30,1,,,,,ゲンファクトリー,0
491,2290003014917,新規,0,2024-01-30,2024-01-30,日々気合同会社,,合同会社,福岡県,福岡市東区,香椎駅東３丁目２４番１９－１００１号,,40,131,8130012,,,,,,,2024-01-30,1,,,,,ヒビキ,0
500,2300001013605,新規,0,2024-01-30,2024-01-30,株式会社Ｍ’ｓ　Ｆａｃｔｏｒｙ,,株式会社,佐賀県,神埼市,千代田町崎村１３２－１,,41,210,8420065,,,,,,,2024-01-30,1,,,,,エムズファクトリー,0
505,2330001031711,新規,0,2024-01-30,2024-01-30,朝日鑑定株式会社,,株式会社,熊本県,熊本市東区,長嶺西１丁目７番７号,,43,102,8618037,,,,,,,2024-01-30,1,,,,,アサヒカンテイ,0
506,2330003010192,新規,0,2024-01-30,2024-01-30,合同会社ＴＭＣ,,合同会社,熊本県,下益城郡美里町,栗崎８６番地の１,,43,348,8614731,,,,,,,2024-01-30,1,,,,,ティーエムシー,0
513,2410001013718,新規,0,2024-01-30,2024-01-30,株式会社切文字や,,株式会社,秋田県,秋田市,横森５丁目１９番２４号サンパレス長谷川１号,,05,201,0100044,,,,,,,2024-01-30,1,,,,,キリモジヤ,0
515,2410003003881,新規,0,2024-01-30,2024-01-30,合同会社ＪＯＢＩＲＵＮ,,合同会社,秋田県,秋田市,保戸野金砂町四丁目３１番,,05,201,0100902,,,,,,,2024-01-30,1,,,,,ジョビラン,0
523,2430001090953,新規,0,2024-01-30,2024-01-30,株式会社大阪屋ホールディングス,,株式会社,北海道,札幌市中央区,北一条西３丁目３番地８,,01,101,0600001,,,,,,,2024-01-30,1,,,,,オオサカヤホールディングス,0
527,2450003002434,新規,0,2024-01-30,2024-01-30,合同会社森ｓａｌｏｎ,,合同会社,北海道,雨竜郡幌加内町,字朱鞠内６４１４番１６,,01,472,0740742,,,,,,,2024-01-30,1,,,,,モリサロン,0
537,2700150123701,新規,0,2024-01-30,2024-01-30,ＩＢＥＬＩＥＶＥ　ＴＥＣＨＮＯＬＯＧＹ．，ＬＩＭＩＴＥＤ,,外国会社等,,,,,,,,ＵＮＩＴ　８１１，ＢＥＶＥＲＬＥＹ　ＣＯＭＭＥＲＣＩＡＬ　ＣＥＮＴＲＥ，８７－１０５　ＣＨＡＴＨＡＭ　ＲＯＡＤ　ＳＯＵＴＨ，ＴＳＩＭ　ＳＨＡ　ＴＳＵＩ　ＫＬ，Ｈｏｎｇ　Ｋｏｎｇ,,,,,,2024-01-30,1,,,,,アイベイリーコージーヨウシエンゴンスー,0
552,3010001241837,新規,0,2024-01-30,2024-01-30,株式会社ピクセルハウス,,株式会社,東京都,千代田区,神田佐久間町２丁目１８－１秋葉原ＳＴＮフロント１０Ｆ,,13,101,1010025,,,,,,,2024-01-30,1,,,,,ピクセルハウス,0
553,3010001241853,新規,0,2024-01-30,2024-01-30,ＴＡＫＥｓ株式会社,,株式会社,東京都,千代田区,九段南１丁目５番６号りそな九段ビル５階ＫＳフロア,,13,101,1020074,,,,,,,2024-01-30,1,,,,,テイクス,0
555,3010003042787,新規,0,2024-01-30,2024-01-30,合同会社パピヨン,,合同会社,東京都,中央区,銀座１丁目１９番１０号ＴＮＢビル２Ｆ,,13,102,1040061,,,,,,,2024-01-30,1,,,,,パピヨン,0
565,3010401179990,新規,0,2024-01-30,2024-01-30,株式会社ＢＡＭＩＲＩ,,株式会社,東京都,港区,六本木５丁目１６番５２号,,13,103,1060032,,,,,,,2024-01-30,1,,,,,バミリ,0
568,3010403031811,新規,0,2024-01-30,2024-01-30,合同会社ＢＵＦＦ,,合同会社,東京都,港区,北青山１丁目３番１号,,13,103,1070061,,,,,,,2024-01-30,1,,,,,バフ,0
569,3010405022890,新規,0,2024-01-30,2024-01-30,一般社団法人日本スリランカ交流協会,,その他の設立登記法人,東京都,港区,赤坂２丁目８番１６号－２階,,13,103,1070052,,,,,,,2024-01-30,1,,,,,ニッポンスリランカコウリュウキョウカイ,0
570,3010501051694,新規,0,2024-01-30,2024-01-30,株式会社術,,株式会社,東京都,台東区,浅草橋２丁目４番３号,,13,106,1110053,,,,,,,2024-01-30,1,,,,,ジュツ,0
571,3010601064563,新規,0,2024-01-30,2024-01-30,株式会社デジタルウィン,,株式会社,東京都,江東区,門前仲町１丁目７番１１－３０１号,,13,108,1350048,,,,,,,2024-01-30,1,,,,,デジタルウィン,0
572,3010603010615,新規,0,2024-01-30,2024-01-30,Ｑｕｅｓｔ合同会社,,合同会社,東京都,江東区,大島６丁目１番４－２０９号,,13,108,1360072,,,,,,,2024-01-30,1,,,,,クエスト,0
587,3011001159581,新規,0,2024-01-30,2024-01-30,株式会社シノ＆ラチェット,,株式会社,東京都,渋谷区,道玄坂１丁目１０番８号,,13,113,1500043,,,,,,,2024-01-30,1,,,,,シノアンドラチェット,0
588,3011001159664,新規,0,2024-01-30,2024-01-30,株式会社Ｃｉｔｒｉｎｅ,,株式会社,東京都,渋谷区,富ヶ谷１丁目３２番２５号－３０５,,13,113,1510063,,,,,,,2024-01-30,1,,,,,シトリン,0
589,3011001159672,新規,0,2024-01-30,2024-01-30,株式会社メディライフ,,株式会社,東京都,渋谷区,渋谷１丁目２２番１号グラフィオ渋谷１０２,,13,113,1500002,,,,,,,2024-01-30,1,,,,,メディライフ,0
590,3011001159689,新規,0,2024-01-30,2024-01-30,株式会社Ｌｏｏｆｕ,,株式会社,東京都,渋谷区,恵比寿西２丁目８番４号ＥＸ恵比寿西ビル,,13,113,1500021,,,,,,,2024-01-30,1,,,,,ルーフ,0
591,3011003018380,新規,0,2024-01-30,2024-01-30,合同会社ＷｏｎｄｅｒＰｌａｃｅ,,合同会社,東京都,目黒区,下目黒３丁目１番２４－３１２号フェニックス目黒弐番館,,13,110,1530064,,,,,,,2024-01-30,1,,,,,ワンダープレイス,0
592,3011003018406,新規,0,2024-01-30,2024-01-30,ＣｉＣｌｅ合同会社,,合同会社,東京都,渋谷区,道玄坂１丁目１０－８渋谷道玄坂東急ビル２Ｆ－Ｃ,,13,113,1500043,,,,,,,2024-01-30,1,,,,,サイクル,0
600,3011401025821,新規,0,2024-01-30,2024-01-30,株式会社Ｍａｈａｌｏｈａ,,株式会社,東京都,板橋区,大山東町２番３号,,13,119,1730014,,,,,,,2024-01-30,1,,,,,マハロハ,0
601,3011603004227,新規,0,2024-01-30,2024-01-30,合同会社ａｅｏｎｉｕｍ,,合同会社,東京都,練馬区,石神井台５丁目３番２号サン・グレース１０１号室,,13,120,1770045,,,,,,,2024-01-30,1,,,,,アエオニウム,0
606,3011701026973,新規,0,2024-01-30,2024-01-30,株式会社ＫＬＡＭＰ,,株式会社,東京都,江戸川区,本一色３丁目４１番３号,,13,123,1330044,,,,,,,2024-01-30,1,,,,,クランプ,0
616,3011801043712,新規,0,2024-01-30,2024-01-30,株式会社日展,,株式会社,東京都,葛飾区,新小岩３丁目２８番２０号,,13,122,1240024,,,,,,,2024-01-30,1,,,,,ニッテン,0
618,3011803006064,新規,0,2024-01-30,2024-01-30,合同会社Ｂｏｔｔｅｇａ,,合同会社,東京都,足立区,小台２丁目１０番６号,,13,121,1200046,,,,,,,2024-01-30,1,,,,,ボッテーガ,0
620,3012301013759,新規,0,2024-01-30,2024-01-30,株式会社ＯＴＰＪ,,株式会社,東京都,町田市,中町３丁目１９番４０号,,13,209,1940021,,,,,,,2024-01-30,1,,,,,オーティピージェー,0
625,3013301051988,新規,0,2024-01-30,2024-01-30,株式会社ナレデザイン,,株式会社,東京都,豊島区,上池袋２丁目１０番４号グランドールハイツ１１１号,,13,116,1700012,,,,,,,2024-01-30,1,,,,,ナレデザイン,0
643,3021001081330,新規,0,2024-01-30,2024-01-30,株式会社町田総合企画,,株式会社,神奈川県,藤沢市,石川１２７番地の８アンナミーナ１３０ヒルズ４０１,,14,205,2520815,,,,,,,2024-01-30,1,,,,,マチダソウゴウキカク,0
648,3030001158303,新規,0,2024-01-30,2024-01-30,ＧＬＯＢＡＬ　ＳＵＰＰＯＲＴ株式会社,,株式会社,埼玉県,本庄市,児玉町児玉１４１９番地１２,,11,211,3670212,,,,,,,2024-01-30,1,,,,,グローバルサポート,0
649,3030001158336,新規,0,2024-01-30,2024-01-30,ＩＮＦＩＮＩＴＹ株式会社,,株式会社,埼玉県,入間市,狭山台４丁目１９番地９,,11,225,3580033,,,,,,,2024-01-30,1,,,,,インフィニティ,0
650,3030001158393,新規,0,2024-01-30,2024-01-30,株式会社Ｍｉｒａｉｓｔａｒ,,株式会社,埼玉県,越谷市,大沢３丁目３番６号,,11,222,3430025,,,,,,,2024-01-30,1,,,,,ミライスター,0
651,3030001158402,新規,0,2024-01-30,2024-01-30,株式会社希績,,株式会社,埼玉県,川口市,大字安行慈林１８５番地の９,,11,203,3340071,,,,,,,2024-01-30,1,,,,,キセキ,0
656,3030003023496,新規,0,2024-01-30,2024-01-30,合同会社がじゅ丸,,合同会社,埼玉県,富士見市,ふじみ野西１丁目２１番地４,,11,235,3540035,,,,,,,2024-01-30,1,,,,,ガジュマル,0
657,3030003023521,新規,0,2024-01-30,2024-01-30,光合同会社,,合同会社,埼玉県,川口市,芝２丁目２０番１３号,,11,203,3330866,,,,,,,2024-01-30,1,,,,,ヒカリ,0
665,3040001131969,新規,0,2024-01-30,2024-01-30,Ｆｕ‐ｕ株式会社,,株式会社,千葉県,千葉市中央区,蘇我５丁目２５番１号,,12,101,2600822,,,,,,,2024-01-30,1,,,,,フゥ,0
666,3040001131977,新規,0,2024-01-30,2024-01-30,株式会社いずちょう,,株式会社,千葉県,千葉市美浜区,高浜５丁目１２番４号,,12,106,2610003,,,,,,,2024-01-30,1,,,,,イズチョウ,0
668,3040003024196,新規,0,2024-01-30,2024-01-30,合同会社トクジツ,,合同会社,千葉県,船橋市,北本町２丁目６９－１０ライオンズガーデン４０９,,12,204,2730864,,,,,,,2024-01-30,1,,,,,トクジツ,0
669,3040003024205,新規,0,2024-01-30,2024-01-30,ＴＣ　ＧＲＯＵＰ合同会社,,合同会社,千葉県,柏市,泉９５７番地１,,12,217,2701456,,,,,,,2024-01-30,1,,,,,ティシーグループ,0
670,3040003024213,新規,0,2024-01-30,2024-01-30,Ｅ‐ＮＥＴ合同会社,,合同会社,千葉県,市川市,相之川１丁目２５－１１,,12,203,2720143,,,,,,,2024-01-30,1,,,,,イーネット,0
672,3050001054194,新規,0,2024-01-30,2024-01-30,総合建材ヤネケン株式会社,,株式会社,茨城県,桜川市,真壁町長岡７２１番地３,,08,231,3004403,,,,,,,2024-01-30,1,,,,,ソウゴウケンザイヤネケン,0
673,3050003008108,新規,0,2024-01-30,2024-01-30,エスワークス合同会社,,合同会社,茨城県,那珂郡東海村,村松北２丁目１２番５９号,,08,341,3191108,,,,,,,2024-01-30,1,,,,,エスワークス,0
689,3120001261634,新規,0,2024-01-30,2024-01-30,日本国際貿易株式会社,,株式会社,大阪府,大阪市中央区,島之内１丁目２０－１１－６０３号,,27,128,5420082,,,,,,,2024-01-30,1,,,,,ニホンコクサイボウエキ,0
690,3120001261758,新規,0,2024-01-30,2024-01-30,お花畑株式会社,,株式会社,大阪府,大阪市西区,北堀江２丁目２番２４号ＰａｒｋＬａｎｅＨｏｒｉｅＢｌｄ８２２号,,27,106,5500014,,,,,,,2024-01-30,1,,,,,オハナバタケ,0
691,3120001261774,新規,0,2024-01-30,2024-01-30,高豊サポート株式会社,,株式会社,大阪府,大阪市西区,京町堀２丁目２－５ＯＰＵＳ－１－３０３号室,,27,106,5500003,,,,,,,2024-01-30,1,,,,,タカトヨサポート,0
692,3120001261816,新規,0,2024-01-30,2024-01-30,３Ａオート株式会社,,株式会社,大阪府,大阪市東住吉区,今川２丁目１２番６号,,27,121,5460003,,,,,,,2024-01-30,1,,,,,スリーエーオート,0
695,3120005024137,新規,0,2024-01-30,2024-01-30,医療法人ピギーマッスルポラリス会,,その他の設立登記法人,大阪府,枚方市,長尾荒阪１丁目２８８９番地の１,,27,210,5730103,,,,,,,2024-01-30,1,,,,,ピギーマッスルポラリスカイ,0
700,3122001037774,新規,0,2024-01-30,2024-01-30,株式会社ＯＺ　Ｃｏｍｐａｎｙ,,株式会社,大阪府,八尾市,竹渕５丁目６５番地の５,,27,212,5810052,,,,,,,2024-01-30,1,,,,,オズカンパニー,0
708,3130001076239,新規,0,2024-01-30,2024-01-30,株式会社ＰＩＯＮＯＶＡＴＥＲ,,株式会社,京都府,京都市下京区,小稲荷町８５番地８,,26,106,6008208,,,,,,,2024-01-30,1,,,,,パイオノベーター,0
709,3130001076247,新規,0,2024-01-30,2024-01-30,株式会社ＹＵＩＥＮＩＳＨＩ,,株式会社,京都府,京都市南区,西九条東島町３１－１６,,26,107,6018432,,,,,,,2024-01-30,1,,,,,ユイエニシ,0
710,3130001076255,新規,0,2024-01-30,2024-01-30,株式会社小澤重機,,株式会社,京都府,京都市西京区,嵐山朝月町７番地の２１,,26,111,6160022,,,,,,,2024-01-30,1,,,,,オザワジュウキ,0
711,3130003009270,新規,0,2024-01-30,2024-01-30,ＳＯＭＯＳＯＭＯ合同会社,,合同会社,京都府,京都市中京区,新町通錦小路上る百足屋町３８８番地２コーペラティーフ新町錦１０１,,26,104,6048214,,,,,,,2024-01-30,1,,,,,ソモソモ,0
713,3130005016991,新規,0,2024-01-30,2024-01-30,一般社団法人東方花学研究会,,その他の設立登記法人,京都府,京都市上京区,六軒町通今出川上る佐竹町１２５番地,,26,102,6028314,,,,,,,2024-01-30,1,,,,,トウホウカガクケンキュウカイ,0
724,3170003001975,新規,0,2024-01-30,2024-01-30,合同会社ｍ＆ｍ,,合同会社,和歌山県,和歌山市,吉礼８３－１,,30,201,6400351,,,,,,,2024-01-30,1,,,,,エムアンドエム,0
730,3180001159939,新規,0,2024-01-30,2024-01-30,日本国際人材センター株式会社,,株式会社,愛知県,名古屋市千種区,大島町３丁目６２番地,,23,101,4640833,,,,,,,2024-01-30,1,,,,,ニホンコクサイジンザイセンター,0
734,3190001031064,新規,0,2024-01-30,2024-01-30,株式会社桃豊エステート,,株式会社,三重県,桑名市,大字下深谷部８０７番地１,,24,205,5110808,,,,,,,2024-01-30,1,,,,,トウホウエステート,0
748,3230001020194,新規,0,2024-01-30,2024-01-30,株式会社Ｂｒｏｗｎｉｅ,,株式会社,富山県,高岡市,立野２９０７番地,,16,202,9330325,,,,,,,2024-01-30,1,,,,,ブラウニー,0
754,3250001020498,新規,0,2024-01-30,2024-01-30,株式会社ジェミニ,,株式会社,山口県,岩国市,周東町下久原２４７９番地１,,35,208,7420417,,,,,,,2024-01-30,1,,,,,ジェミニ,0
760,3290001104520,新規,0,2024-01-30,2024-01-30,サカイコーポレーション株式会社,,株式会社,福岡県,春日市,若葉台東２丁目８８番地１,,40,218,8160821,,,,,,,2024-01-30,1,,,,,サカイコーポレーション,0
761,3290001104545,新規,0,2024-01-30,2024-01-30,株式会社ＡＭＡＴＥＲＡＳＵ　Ｆｉｌｍ,,株式会社,福岡県,福岡市中央区,警固１丁目６番５６号,,40,133,8100023,,,,,,,2024-01-30,1,,,,,アマテラスフィルム,0
762,3290001104553,新規,0,2024-01-30,2024-01-30,スマイル株式会社,,株式会社,福岡県,福岡市南区,野間４丁目１０番１３号,,40,134,8150041,,,,,,,2024-01-30,1,,,,,スマイル,0
765,3290003014908,新規,0,2024-01-30,2024-01-30,合同会社夕凪,,合同会社,福岡県,福岡市東区,多の津５丁目１番２４－３０５号レフティヒルズ多の津３０５号,,40,131,8130034,,,,,,,2024-01-30,1,,,,,ユウナギ,0
766,3290801030255,新規,0,2024-01-30,2024-01-30,株式会社クリーンピィース,,株式会社,福岡県,田川市,大字奈良４１１番地３,,40,206,8260043,,,,,,,2024-01-30,1,,,,,クリーンピィース,0
767,3290803004604,新規,0,2024-01-30,2024-01-30,合同会社ＧＲＡＣＥ,,合同会社,福岡県,北九州市八幡西区,紅梅２丁目１０番８－３０４号,,40,109,8060011,,,,,,,2024-01-30,1,,,,,グレース,0
772,3330001031710,新規,0,2024-01-30,2024-01-30,株式会社Ｒｉｓｅ　Ｌｅａｄ,,株式会社,熊本県,熊本市東区,長嶺西３丁目２番８６号,,43,102,8618037,,,,,,,2024-01-30,1,,,,,ライズリード,0
773,3340003004358,新規,0,2024-01-30,2024-01-30,合同会社ＣＯＣＯＪＡＰＡＮ,,合同会社,鹿児島県,出水市,汐見町３番地３,,46,208,8990136,,,,,,,2024-01-30,1,,,,,ココジャパン,0
778,3360001033126,新規,0,2024-01-30,2024-01-30,株式会社ロータリーぐすく,,株式会社,沖縄県,中頭郡嘉手納町,字屋良１０５９番地１７,,47,325,9040202,,,,,,,2024-01-30,1,,,,,ロータリーグスク,0
779,3360005006978,新規,0,2024-01-30,2024-01-30,一般社団法人Ｓｕｐｐｏｒｔｅｒｓ’Ｓｕｐｐｏｒｔｅｒ,,その他の設立登記法人,沖縄県,那覇市,泊２丁目２２番地９,,47,201,9000012,,,,,,,2024-01-30,1,,,,,サポーターズサポーター,0
797,3470001020006,新規,0,2024-01-30,2024-01-30,株式会社ネイチャーワークス,,株式会社,香川県,高松市,多肥下町３３２番地１,,37,201,7618075,,,,,,,2024-01-30,1,,,,,ネイチャーワークス,0
800,3700150123700,新規,0,2024-01-30,2024-01-30,Ｓｈｅｎｚｈｅｎ　Ｌｉｎｇｗｅｉｑｉ　Ｔｅｃｈｎｏｌｏｇｙ　Ｃｏ．，Ｌｔｄ．,,外国会社等,,,,,,,,ｐｉｎｇｓｈａｎｊｉｅｄａｏｌｉｕｌｉａｎｓｈｅｑｕｚｈｕｙａｎｇｋｅｎｇｘｉａｎｇ２９ｈａｏ２０１　ｓｈｅｎｚｈｅｎ　ｐｉｎｇｓｈａｎ　ｇｕａｎｇｄｏｎｇ　５１８１１８　ＣＮ,,,,,,2024-01-30,1,,,,,シェンジェンシーリンウェイチーコージーヨウシエンゴンスー,0
811,4010003042786,新規,0,2024-01-30,2024-01-30,合同会社ＹＫ,,合同会社,東京都,中央区,銀座１丁目１９番１０号ＴＮＢビル２Ｆ,,13,102,1040061,,,,,,,2024-01-30,1,,,,,ワイケイ,0
812,4010003042811,新規,0,2024-01-30,2024-01-30,合同会社むさしの業務開発,,合同会社,東京都,中央区,日本橋室町１丁目１１番１２号日本橋水野ビル７階,,13,102,1030022,,,,,,,2024-01-30,1,,,,,ムサシノギョウムカイハツ,0
814,4010005037801,新規,0,2024-01-30,2024-01-30,一般社団法人共生プロジェクト,,その他の設立登記法人,東京都,中央区,銀座１丁目２２‐１１銀座大竹ビジデンス２階,,13,102,1040061,,,,,,,2024-01-30,1,,,,,キョウセイプロジェクト,0
833,4010401179973,新規,0,2024-01-30,2024-01-30,株式会社スゴイサウナ,,株式会社,東京都,港区,東麻布３丁目６－１１ＴＨＥＣＩＴＹ麻布十番ＥＡＳＴ２階,,13,103,1060044,,,,,,,2024-01-30,1,,,,,,0
834,4010401180007,新規,0,2024-01-30,2024-01-30,東京三田ビジネス交流会株式会社,,株式会社,東京都,港区,三田３丁目１番１１号,,13,103,1080073,,,,,,,2024-01-30,1,,,,,トウキョウミタビジネスコウリュウカイ,0
839,4010405022881,新規,0,2024-01-30,2024-01-30,ＡＳＰＡＳＩＯ税理士法人,,その他の設立登記法人,東京都,港区,虎ノ門４丁目３番１号城山トラストタワー,,13,103,1050001,,,,,,,2024-01-30,1,,,,,アスパシオ,0
841,4010601064538,新規,0,2024-01-30,2024-01-30,関中美食株式会社,,株式会社,東京都,墨田区,石原１丁目２９番１７号リバーサイド石原１０２,,13,107,1300011,,,,,,,2024-01-30,1,,,,,セキチュウビショク,0
842,4010603010614,新規,0,2024-01-30,2024-01-30,栄豊商事合同会社,,合同会社,東京都,江東区,猿江１丁目８番１５号３０１,,13,108,1350003,,,,,,,2024-01-30,1,,,,,エイトヨショウジ,0
844,4010701045479,新規,0,2024-01-30,2024-01-30,利陽株式会社,,株式会社,東京都,品川区,南大井３丁目８番１３号,,13,109,1400013,,,,,,,2024-01-30,1,,,,,リヨウ,0
847,4010901054503,新規,0,2024-01-30,2024-01-30,Ｋｌｉｋｉｔ株式会社,,株式会社,東京都,世田谷区,三軒茶屋１丁目２番１９号メゾン三幸１０４,,13,112,1540024,,,,,,,2024-01-30,1,,,,,クリキット,0
848,4010901054627,新規,0,2024-01-30,2024-01-30,株式会社ボーイ,,株式会社,東京都,世田谷区,北沢２丁目２６－１９ヒルズＩＩ４０１,00133544,13,112,1550031,,,,,,,2024-01-30,1,,,,,ボーイ,0
865,4011003018330,新規,0,2024-01-30,2024-01-30,合同会社Ｃｅｎｔｅｒ　Ｄｉｆｆ,,合同会社,東京都,渋谷区,神宮前４丁目２６番２８号２階,,13,113,1500001,,,,,,,2024-01-30,1,,,,,センターデフ,0
868,4011101106012,新規,0,2024-01-30,2024-01-30,株式会社Ｂｌｕｅ　Ａｎｇｅｌ,,株式会社,東京都,新宿区,上落合１丁目７番１３－１０３,,13,104,1610034,,,,,,,2024-01-30,1,,,,,ブルーエンジェル,0
871,4011203004295,新規,0,2024-01-30,2024-01-30,合同会社ＲＩＭ,,合同会社,東京都,中野区,中野５丁目２６番８－５０３号,,13,114,1640001,,,,,,,2024-01-30,1,,,,,アールアイエム,0
872,4011301029368,新規,0,2024-01-30,2024-01-30,株式会社ＢＲＥ,,株式会社,東京都,杉並区,清水３丁目２番１６号,,13,115,1670033,,,,,,,2024-01-30,1,,,,,ビーアールイー,0
883,4011701026964,新規,0,2024-01-30,2024-01-30,株式会社ＫＡＴＳＵＫＩ,,株式会社,東京都,江戸川区,中央２丁目３４番１５号ＦＬＯＲＡ内山ＩＩ２０１,00133558,13,123,1320021,,,,,,,2024-01-30,1,,,,,カツキ,0
890,4012301013758,新規,0,2024-01-30,2024-01-30,株式会社Ｒｏｏｔｓ,,株式会社,東京都,町田市,相原町１３８番地２０,,13,209,1940211,,,,,,,2024-01-30,1,,,,,ルーツ,0
891,4012303001934,新規,0,2024-01-30,2024-01-30,合同会社千隼,,合同会社,東京都,町田市,能ヶ谷４丁目３７番３号ソレアードＩＩ１０１,00133542,13,209,1950053,,,,,,,2024-01-30,1,,,,,チハヤ,0
895,4012801022936,新規,0,2024-01-30,2024-01-30,日海株式会社,,株式会社,東京都,国分寺市,北町４丁目１６番３４号,,13,214,1850001,,,,,,,2024-01-30,1,,,,,ニチカイ,0
899,4013303006980,新規,0,2024-01-30,2024-01-30,合同会社エイチエスジー,,合同会社,東京都,豊島区,東池袋５丁目７番３号アゼリア東池袋４０１,,13,116,1700013,,,,,,,2024-01-30,1,,,,,エイチエスジー,0
903,4020001155432,新規,0,2024-01-30,2024-01-30,株式会社齋藤企業,,株式会社,神奈川県,横浜市鶴見区,駒岡２丁目６番４０－７０２号,,14,101,2300071,,,,,,,2024-01-30,1,,,,,サイトウキギョウ,0
904,4020001155556,新規,0,2024-01-30,2024-01-30,株式会社ＩＰＯ準備組,,株式会社,神奈川県,横浜市西区,高島１丁目２番５号横濱ゲートタワー３Ｆ,,14,103,2200011,,,,,,,2024-01-30,1,,,,,アイピーオージュンビグミ,0
909,4021001081338,新規,0,2024-01-30,2024-01-30,株式会社Ａｔｔｒａｐｅ‐Ｒｅｖｅ,,株式会社,神奈川県,相模原市南区,鵜野森１丁目３８番１号ボナール町田Ａ１０１,,14,153,2520301,,,,,,,2024-01-30,1,,,,,アトラップレーヴ,0
911,4021003014089,新規,0,2024-01-30,2024-01-30,合同会社ＭＲＬホールディングス,,合同会社,神奈川県,鎌倉市,岩瀬１丁目１－３－４０２,,14,204,2470051,,,,,,,2024-01-30,1,,,,,エマールホールディングス,0
913,4030001158376,新規,0,2024-01-30,2024-01-30,株式会社Ｄ‐Ｉ,,株式会社,埼玉県,さいたま市見沼区,大和田町２丁目１５６８番地２パインランドシティ２０２,,11,104,3370053,,,,,,,2024-01-30,1,,,,,ディーアイ,0
918,4030003023339,新規,0,2024-01-30,2024-01-30,３９合同会社,,合同会社,埼玉県,さいたま市大宮区,寿能町１丁目１５９番地７号,,11,103,3300805,,,,,,,2024-01-30,1,,,,,サク,0
927,4040001131968,新規,0,2024-01-30,2024-01-30,アゼストオート株式会社,,株式会社,千葉県,四街道市,小名木１２１番地３７,,12,228,2840042,,,,,,,2024-01-30,1,,,,,アゼストオート,0
933,4040003024212,新規,0,2024-01-30,2024-01-30,合同会社マッサ,,合同会社,千葉県,佐倉市,先崎１５３９番４５,,12,212,2850851,,,,,,,2024-01-30,1,,,,,マッサ,0
934,4040003024220,新規,0,2024-01-30,2024-01-30,合同会社ハレルヤ,,合同会社,千葉県,千葉市緑区,おゆみ野南５丁目２４番地１おゆみ野ハイムＣ－４０２号,,12,105,2660033,,,,,,,2024-01-30,1,,,,,ハレルヤ,0
935,4040005022255,新規,0,2024-01-30,2024-01-30,行政書士法人田野重徳法務事務所,,その他の設立登記法人,千葉県,茂原市,大芝１０９番地,,12,210,2970033,,,,,,,2024-01-30,1,,,,,タノシゲノリホウムジムショ,0
937,4070001041339,新規,0,2024-01-30,2024-01-30,株式会社ＹＳＣ,,株式会社,群馬県,桐生市,錦町２丁目１番２５号,,10,203,3760023,,,,,,,2024-01-30,1,,,,,ワイエスシー,0
941,4070003005242,新規,0,2024-01-30,2024-01-30,合同会社実咲,,合同会社,群馬県,館林市,上三林町１３５５番地の７,,10,207,3740046,,,,,,,2024-01-30,1,,,,,ミサキ,0
945,4090001018500,新規,0,2024-01-30,2024-01-30,東葉国際株式会社,,株式会社,山梨県,甲府市,伊勢３丁目３番６号,,19,201,4000856,,,,,,,2024-01-30,1,,,,,,0
948,4100001037168,新規,0,2024-01-30,2024-01-30,株式会社カドワキモーター,,株式会社,長野県,長野市,信州新町竹房字川田２４７番地３,,20,201,3812411,,,,,,,2024-01-30,1,,,,,カドワキモーター,0
962,4120001261575,新規,0,2024-01-30,2024-01-30,株式会社トライデント,,株式会社,大阪府,大阪市東淀川区,西淡路１丁目１番９－７１５号,,27,114,5330031,,,,,,,2024-01-30,1,,,,,トライデント,0
963,4120001261740,新規,0,2024-01-30,2024-01-30,株式会社ａｍａ,,株式会社,大阪府,大阪市中央区,高津１丁目３番８－９０７号,,27,128,5420072,,,,,,,2024-01-30,1,,,,,アマ,0
964,4120001261765,新規,0,2024-01-30,2024-01-30,株式会社ザ・ハウス,,株式会社,大阪府,大阪市福島区,福島３丁目１４番２９号,,27,103,5530003,,,,,,,2024-01-30,1,,,,,ザハウス,0
965,4120001261781,新規,0,2024-01-30,2024-01-30,株式会社愛龍,,株式会社,大阪府,大阪市生野区,新今里２丁目７番２２号,,27,116,5440001,,,,,,,2024-01-30,1,,,,,アイリョウ,0
967,4120003025805,新規,0,2024-01-30,2024-01-30,合同会社Ｋｅｅｐ　Ｆａｉｔｈ,,合同会社,大阪府,守口市,金田町１丁目２２－１,,27,209,5700011,,,,,,,2024-01-30,1,,,,,キープフェイス,0
979,4140001133120,新規,0,2024-01-30,2024-01-30,グリーンパーク三田株式会社,,株式会社,兵庫県,三田市,三輪２丁目４番３号,,28,219,6691513,,,,,,,2024-01-30,1,,,,,グリーンパークサンダ,0
980,4140001133129,新規,0,2024-01-30,2024-01-30,株式会社ストライプ,,株式会社,兵庫県,西宮市,老松町４番２３号,,28,204,6620085,,,,,,,2024-01-30,1,,,,,ストライプ,0
984,4150003003163,新規,0,2024-01-30,2024-01-30,合同会社Ｔｈｏｕｓａｎｄｅｄｇｅ,,合同会社,奈良県,生駒市,壱分町８３－７４,,29,209,6300222,,,,,,,2024-01-30,1,,,,,サウザンデッジ,0
995,4180001159979,新規,0,2024-01-30,2024-01-30,株式会社岡田工務店,,株式会社,愛知県,名古屋市熱田区,新尾頭１丁目１０番６号ヴィラ・フローラ２０３,,23,109,4560018,,,,,,,2024-01-30,1,,,,,オカダコウムテン,0
1001,4180301038271,新規,0,2024-01-30,2024-01-30,株式会社山本不動産,,株式会社,愛知県,豊川市,久保町棒田１２番地７,,23,207,4420856,,,,,,,2024-01-30,1,,,,,ヤマモトフドウサン,0
1004,4200001042117,新規,0,2024-01-30,2024-01-30,株式会社シバティ,,株式会社,岐阜県,加茂郡坂祝町,黒岩１１１７番地１,,21,501,5050071,,,,,,,2024-01-30,1,,,,,シバティ,0
1005,4210001019618,新規,0,2024-01-30,2024-01-30,ｔｅｔｏｔｅ株式会社,,株式会社,福井県,福井市,高柳２丁目１３０４番地,,18,201,9100837,,,,,,,2024-01-30,1,,,,,テトテ,0
1009,4230001020185,新規,0,2024-01-30,2024-01-30,株式会社立山ホテルマネジメント,,株式会社,富山県,中新川郡立山町,芦峅寺字ブナ坂外１１国有林無番地,,16,323,9301406,,,,,,,2024-01-30,1,,,,,タテヤマホテルマネジメント,0
1015,4240001062730,新規,0,2024-01-30,2024-01-30,ＮＡＫＡＩ　Ｙビル株式会社,,株式会社,広島県,広島市佐伯区,吉見園１７番１３号,,34,108,7315132,,,,,,,2024-01-30,1,,,,,ナカイワイビル,0
1019,4250001020497,新規,0,2024-01-30,2024-01-30,ココアカンパニー株式会社,,株式会社,山口県,下関市,垢田町５丁目１５番１２号,,35,201,7510841,,,,,,,2024-01-30,1,,,,,ココアカンパニー,0
1022,4260001038695,新規,0,2024-01-30,2024-01-30,株式会社ＶＥＬＬＴＹ,,株式会社,岡山県,岡山市中区,原尾島１丁目１番１５号１０１号室,,33,102,7038235,,,,,,,2024-01-30,1,,,,,ヴェルティ,0
1028,4290001104528,新規,0,2024-01-30,2024-01-30,ＭｕｇｅＡＩ株式会社,,株式会社,福岡県,福岡市中央区,天神２丁目１１－１福岡ＰＡＲＣＯ新館５ＦＴｈｅＣｏｍｐａｎｙ福岡ＰＡＲＣＯ,,40,133,8100001,,,,,,,2024-01-30,1,,,,,ムゲエーアイ,0
1029,4290001104552,新規,0,2024-01-30,2024-01-30,興和商事株式会社,,株式会社,福岡県,福岡市東区,原田４丁目３０－１２アンピール箱崎東２－８１２号,,40,131,8120063,,,,,,,2024-01-30,1,,,,,コウワショウジ,0
1031,4290003014915,新規,0,2024-01-30,2024-01-30,合同会社ＮｅｘａｒＱ,,合同会社,福岡県,筑紫野市,針摺東１丁目４番５号,00133550,40,217,8180081,,,,,,,2024-01-30,1,,,,,ネクサーク,0
1036,4290005019284,新規,0,2024-01-30,2024-01-30,医療法人植田医院,,その他の設立登記法人,福岡県,みやま市,山川町尾野２０４０番地,,40,229,8350102,,,,,,,2024-01-30,1,,,,,ウエダイイン,0
1038,4290803004603,新規,0,2024-01-30,2024-01-30,スパイラル合同会社,,合同会社,福岡県,北九州市小倉北区,下富野４丁目６番１９号,,40,106,8020023,,,,,,,2024-01-30,1,,,,,スパイラル,0
1039,4290805009708,新規,0,2024-01-30,2024-01-30,医療法人ＣＵＲＥ,,その他の設立登記法人,福岡県,北九州市小倉北区,清水２丁目１１－１５,,40,106,8030841,,,,,,,2024-01-30,1,,,,,キュア,0
1048,4360001033133,新規,0,2024-01-30,2024-01-30,ヴィーファン株式会社,,株式会社,沖縄県,那覇市,樋川１丁目２９－３０－３－Ｂ,,47,201,9000022,,,,,,,2024-01-30,1,,,,,ヴィーファン,0
1049,4360003013653,新規,0,2024-01-30,2024-01-30,合同会社美泊,,合同会社,沖縄県,八重山郡与那国町,字与那国１５１番地１,,47,382,9071801,,,,,,,2024-01-30,1,,,,,ビパク,0
1064,4470001020005,新規,0,2024-01-30,2024-01-30,株式会社Ｋ,,株式会社,香川県,小豆郡小豆島町,橘甲５０９番地２,,37,324,7614405,,,,,,,2024-01-30,1,,,,,ケイ,0
1072,5010001241851,新規,0,2024-01-30,2024-01-30,株式会社スカーレット,,株式会社,東京都,中央区,銀座８丁目７番１０号,,13,102,1040061,,,,,,,2024-01-30,1,,,,,スカーレット,0
1073,5010001241876,新規,0,2024-01-30,2024-01-30,株式会社ハウディ・テラコム,,株式会社,東京都,中央区,日本橋堀留町１丁目４番２号,,13,102,1030012,,,,,,,2024-01-30,1,,,,,ハウディテラコム,0
1079,5010101015981,新規,0,2024-01-30,2024-01-30,株式会社Ｈ．Ｂクリエイティング,,株式会社,東京都,八王子市,中野上町４丁目４０番１９号,,13,201,1920041,,,,,,,2024-01-30,1,,,,,エイチビークリエイティング,0
1085,5010401180071,新規,0,2024-01-30,2024-01-30,しあわせナース株式会社,,株式会社,東京都,港区,芝浦３丁目１７番７－５０５号,,13,103,1080023,,,,,,,2024-01-30,1,,,,,シアワセナース,0
1086,5010403031818,新規,0,2024-01-30,2024-01-30,合同会社ＬＢ宮崎延岡発電所,,合同会社,東京都,港区,元赤坂１丁目１番８号株式会社赤坂国際会計内,,13,103,1070051,,,,,,,2024-01-30,1,,,,,エルビーミヤザキノベオカハツデンショ,0
1088,5010501051701,新規,0,2024-01-30,2024-01-30,マッチングサポート株式会社,,株式会社,東京都,台東区,東上野３丁目１８番１号ＴＨＥ・ＢＬＯＯＭ・ＵＥＮＯ２１３号室,,13,106,1100015,,,,,,,2024-01-30,1,,,,,マッチングサポート,0
1090,5010603010596,新規,0,2024-01-30,2024-01-30,ＭＬＥ合同会社,,合同会社,東京都,江東区,豊洲６丁目２番２９－１６１７号,,13,108,1350061,,,,,,,2024-01-30,1,,,,,エムエルイー,0
1100,5011001159662,新規,0,2024-01-30,2024-01-30,株式会社プロダクトマネージメント,,株式会社,東京都,渋谷区,渋谷２丁目１９－１５宮益坂ビルディング６０９,,13,113,1500002,,,,,,,2024-01-30,1,,,,,プロダクトマネージメント,0
1101,5011001159687,新規,0,2024-01-30,2024-01-30,株式会社ゴルフツーリズムジャパン,,株式会社,東京都,渋谷区,渋谷４丁目３番２７－６０４号,,13,113,1500002,,,,,,,2024-01-30,1,,,,,ゴルフツーリズムジャパン,0
1102,5011001159704,新規,0,2024-01-30,2024-01-30,ペブルビーチキッチン株式会社,,株式会社,東京都,渋谷区,広尾５丁目１３番６号,,13,113,1500012,,,,,,,2024-01-30,1,,,,,ペブルビーチキッチン,0
1108,5011101105970,新規,0,2024-01-30,2024-01-30,株式会社ＭＹＶ,,株式会社,東京都,新宿区,西新宿４丁目１１－１８,,13,104,1600023,,,,,,,2024-01-30,1,,,,,マイブ,0
1109,5011101105979,新規,0,2024-01-30,2024-01-30,株式会社Ｃ＆Ｃ,,株式会社,東京都,新宿区,歌舞伎町２丁目２２番１３号ＡＤビル６階Ｄ室,,13,104,1600021,,,,,,,2024-01-30,1,,,,,シーアンドシー,0
1110,5011101106011,新規,0,2024-01-30,2024-01-30,株式会社エステル,,株式会社,東京都,新宿区,西新宿６丁目２０番７号,,13,104,1600023,,,,,,,2024-01-30,1,,,,,エステル,0
1115,5011203004294,新規,0,2024-01-30,2024-01-30,ソシオエア合同会社,,合同会社,東京都,中野区,鷺宮３丁目４５番７号,,13,114,1650032,,,,,,,2024-01-30,1,,,,,ソシオエア,0
1117,5011403004251,新規,0,2024-01-30,2024-01-30,合同会社ＥＲＭＮＣｏｎｔｅｎｔ,,合同会社,東京都,板橋区,小豆沢３丁目７番３０－４１４号,,13,119,1740051,,,,,,,2024-01-30,1,,,,,イーアールエムエヌコンテンツ,0
1119,5011603004217,新規,0,2024-01-30,2024-01-30,レイ・コンサルティング合同会社,,合同会社,東京都,練馬区,石神井町１丁目５番７号,,13,120,1770041,,,,,,,2024-01-30,1,,,,,レイコンサルティング,0
1122,5011701026963,新規,0,2024-01-30,2024-01-30,株式会社イファン,,株式会社,東京都,江戸川区,小松川３丁目１１番１８－１１０５号,,13,123,1320034,,,,,,,2024-01-30,1,,,,,イファン,0
1131,5011801043719,新規,0,2024-01-30,2024-01-30,ＬＳＬ株式会社,,株式会社,東京都,葛飾区,小菅３丁目７番９号鈴木ハイツ２０８,,13,122,1240001,,,,,,,2024-01-30,1,,,,,エルエスエル,0
1133,5011803006062,新規,0,2024-01-30,2024-01-30,ＲＥＳＩＢＡ合同会社,,合同会社,東京都,足立区,綾瀬１丁目２７－１０,,13,121,1200005,,,,,,,2024-01-30,1,,,,,レジバ,0
1136,5012801022943,新規,0,2024-01-30,2024-01-30,株式会社８８,,株式会社,東京都,日野市,栄町１丁目４３－５レガーロ日野２０１,,13,212,1910001,,,,,,,2024-01-30,1,,,,,ハチヤ,0
1137,5012803003297,新規,0,2024-01-30,2024-01-30,ＫＭＲＥ不動産合同会社,,合同会社,東京都,国分寺市,本多３丁目１９番９号,,13,214,1850011,,,,,,,2024-01-30,1,,,,,ケーエムアールイーフドウサン,0
1142,5020001155571,新規,0,2024-01-30,2024-01-30,ＶｉｖｉａｎＬ‐Ｋ株式会社,,株式会社,神奈川県,川崎市川崎区,中瀬３丁目２０－１５－１２０４,,14,131,2100818,,,,,,,2024-01-30,1,,,,,ヴィヴィアンエルケー,0
1145,5020003025459,新規,0,2024-01-30,2024-01-30,合同会社Ｏｆｆｉｃｅ　ＫＡＧＡＭＩ,,合同会社,神奈川県,川崎市宮前区,鷺沼１丁目１８番地１９－１０５号,,14,136,2160004,,,,,,,2024-01-30,1,,,,,オフィスカガミ,0
1150,5021001081329,新規,0,2024-01-30,2024-01-30,株式会社ｌｉｅｎ,,株式会社,神奈川県,伊勢原市,岡崎６７２６番地１０,,14,214,2591135,,,,,,,2024-01-30,1,,,,,リアン,0
1153,5021003014088,新規,0,2024-01-30,2024-01-30,合同会社ハイアガル,,合同会社,神奈川県,大和市,中央林間３丁目６－１－１０６,,14,213,2420007,,,,,,,2024-01-30,1,,,,,ハイアガル,0
1154,5021003014096,新規,0,2024-01-30,2024-01-30,ＰＲＥＳＴＩＧＥ　ＡＵＴＯＭＯＴＩＶＥ合同会社,,合同会社,神奈川県,茅ヶ崎市,芹沢２０８６番地,,14,207,2530008,,,,,,,2024-01-30,1,,,,,プレステージオートモティブ,0
1169,5030003023511,新規,0,2024-01-30,2024-01-30,合同会社日野屋,,合同会社,埼玉県,所沢市,元町１５番１６号,,11,208,3591121,,,,,,,2024-01-30,1,,,,,,0
1174,5040001131975,新規,0,2024-01-30,2024-01-30,エスケイ未来株式会社,,株式会社,千葉県,成田市,野毛平２３１番３－１号,,12,211,2860824,,,,,,,2024-01-30,1,,,,,エスケイミライ,0
1182,5070001041338,新規,0,2024-01-30,2024-01-30,株式会社ＲＳＤＧ赤城,,株式会社,群馬県,前橋市,鼻毛石町２５３６番地,,10,201,3710244,,,,,,,2024-01-30,1,,,,,アールエスディージーアカギ,0
1188,5080401026978,新規,0,2024-01-30,2024-01-30,株式会社ｃｇｌｓ,,株式会社,静岡県,浜松市中央区,十軒町７０２番地の２,,22,138,4350055,,,,,,,2024-01-30,1,,,,,シグラス,0
1190,5100001037175,新規,0,2024-01-30,2024-01-30,株式会社ＧＯＡＴ,,株式会社,長野県,松本市,野溝西２丁目１１番５０号,,20,202,3990006,,,,,,,2024-01-30,1,,,,,ゴート,0
1196,5100003007374,新規,0,2024-01-30,2024-01-30,合同会社Ｊｏｙ　Ｗｏｒｋｓ,,合同会社,長野県,松本市,大字寿豊丘９９５番地５,,20,202,3990021,,,,,,,2024-01-30,1,,,,,ジョイワークス,0
1200,5120001261731,新規,0,2024-01-30,2024-01-30,株式会社Ｃａｒ　Ａｕｔｏ　Ｆｒｅｅ,,株式会社,大阪府,大阪市平野区,加美北９丁目１番２７号,,27,126,5470001,,,,,,,2024-01-30,1,,,,,カーオートフリー,0
1201,5120001261822,新規,0,2024-01-30,2024-01-30,盛裕貿易株式会社,,株式会社,大阪府,大阪市淀川区,西中島１丁目１－６エスリード新大阪第６－８０２,,27,123,5320011,,,,,,,2024-01-30,1,,,,,セイユウボウエキ,0
1202,5120001261830,新規,0,2024-01-30,2024-01-30,株式会社ライコムプランニング,,株式会社,大阪府,大阪市住之江区,新北島３丁目８－２５－７０２,,27,125,5590024,,,,,,,2024-01-30,1,,,,,ライコムプランニング,0
1203,5120001261855,新規,0,2024-01-30,2024-01-30,株式会社ビフォーインシュアランス,,株式会社,大阪府,大阪市住吉区,東粉浜２丁目１１番１６号,,27,120,5580051,,,,,,,2024-01-30,1,,,,,ビフォーインシュアランス,0
1207,5120003025820,新規,0,2024-01-30,2024-01-30,ジルコヴァパートナーズ合同会社,,合同会社,大阪府,大阪市北区,梅田１丁目１番３号大阪駅前第３ビル２９階１－１－１号室,,27,127,5300001,,,,,,,2024-01-30,1,,,,,ジルコヴァパートナーズ,0
1216,5120901048708,新規,0,2024-01-30,2024-01-30,株式会社北川建築設計室,,株式会社,大阪府,茨木市,沢良宜西１丁目５番Ｂ－８０４号,,27,211,5670868,,,,,,,2024-01-30,1,,,,,キタガワケンチクセッケイシツ,0
1217,5122001037780,新規,0,2024-01-30,2024-01-30,株式会社Ｋｅｉ,,株式会社,大阪府,東大阪市,長堂１丁目５番６号布施駅前セントラルビル１階,,27,227,5770056,,,,,,,2024-01-30,1,,,,,ケイ,0
1222,5130001076237,新規,0,2024-01-30,2024-01-30,株式会社瑞,,株式会社,京都府,相楽郡笠置町,大字有市小字附竹２０番地７,,26,364,6191301,,,,,,,2024-01-30,1,,,,,ズイ,0
1223,5130001076245,新規,0,2024-01-30,2024-01-30,株式会社ももぷらす,,株式会社,京都府,京都市右京区,嵯峨鳥居本北代町１４番地１セジュール嵯峨鳥居本２０１号,,26,108,6168432,,,,,,,2024-01-30,1,,,,,モモプラス,0
1224,5130001076253,新規,0,2024-01-30,2024-01-30,株式会社オーブス,,株式会社,京都府,京都市南区,吉祥院内河原町３－２Ｓｕｃｃｅｅｄ吉祥院５０８,,26,107,6018392,,,,,,,2024-01-30,1,,,,,オーブス,0
1231,5140001133136,新規,0,2024-01-30,2024-01-30,株式会社埜禾,,株式会社,兵庫県,西宮市,門前町１３番１３号,,28,204,6638013,,,,,,,2024-01-30,1,,,,,ノノ,0
1232,5140001133152,新規,0,2024-01-30,2024-01-30,株式会社ＲＢＣ,,株式会社,兵庫県,西宮市,樋之池町２４番４号,,28,204,6620084,,,,,,,2024-01-30,1,,,,,アールビーシー,0
1234,5140003020101,新規,0,2024-01-30,2024-01-30,あきトレード合同会社,,合同会社,兵庫県,加古川市,尾上町口里３８番地の３シャーメゾン浜の宮Ａ－２０１号,,28,210,6750022,,,,,,,2024-01-30,1,,,,,アキトレード,0
1235,5160003003104,新規,0,2024-01-30,2024-01-30,ビーチェ・ジャパン合同会社,,合同会社,滋賀県,東近江市,市辺町８５７番地１,,25,213,5270074,,,,,,,2024-01-30,1,,,,,ビーチェジャパン,0
1241,5180001159895,新規,0,2024-01-30,2024-01-30,株式会社Ｏｎｅ‐Ｓｔｅｐ　Ｈｏｌｄｉｎｇｓ,,株式会社,愛知県,一宮市,小信中島字西九反４７番地１,,23,203,4940007,,,,,,,2024-01-30,1,,,,,ワンステップホールディングス,0
1244,5180003026276,新規,0,2024-01-30,2024-01-30,合同会社あんぱんふぁくとりー,,合同会社,愛知県,清須市,土器野２番地４,,23,233,4520914,,,,,,,2024-01-30,1,,,,,アンパンファクトリー,0
1248,5190001031062,新規,0,2024-01-30,2024-01-30,株式会社ＳＴＡＦＦ　ＬＥＶＯ,,株式会社,三重県,四日市市,日永西１丁目６番８号,,24,202,5100891,,,,,,,2024-01-30,1,,,,,スタッフレボ,0
1250,5200001042116,新規,0,2024-01-30,2024-01-30,川西ホールディングス株式会社,,株式会社,岐阜県,大垣市,曽根町２丁目１９５番地,,21,202,5030011,,,,,,,2024-01-30,1,,,,,カワニシホールディングス,0
1252,5210001019617,新規,0,2024-01-30,2024-01-30,株式会社Ｒｅｎｏｗ,,株式会社,福井県,福井市,中央３丁目５番１２号２階,,18,201,9100006,,,,,,,2024-01-30,1,,,,,リナウ,0
1257,5220001025795,新規,0,2024-01-30,2024-01-30,株式会社のん乃,,株式会社,石川県,羽咋市,一ノ宮町伊１番地２,,17,207,9250004,,,,,,,2024-01-30,1,,,,,ノンノ,0
1273,5290001104527,新規,0,2024-01-30,2024-01-30,株式会社みやじま,,株式会社,福岡県,久留米市,東櫛原町４７７番地１セジュール東櫛原１１１号,,40,203,8300003,,,,,,,2024-01-30,1,,,,,ミヤジマ,0
1274,5290001104543,新規,0,2024-01-30,2024-01-30,株式会社ＲＩＧＨＴ,,株式会社,福岡県,福岡市博多区,中洲４丁目７番７号中州リッチビル４階,,40,132,8100801,,,,,,,2024-01-30,1,,,,,ライト,0
1275,5290001104551,新規,0,2024-01-30,2024-01-30,株式会社スパイラルミュージック・ウエスト,,株式会社,福岡県,福岡市中央区,舞鶴１丁目６－６－８０３,,40,133,8100073,,,,,,,2024-01-30,1,,,,,スパイラルミュージックウエスト,0
1278,5290003014914,新規,0,2024-01-30,2024-01-30,合同会社ＫＦｏｕｒ,,合同会社,福岡県,福岡市城南区,堤２丁目２２番８－５０３号Ｌｉｂｅｒｔｕｒ,,40,136,8140151,,,,,,,2024-01-30,1,,,,,ケーフォー,0
1281,5290801030261,新規,0,2024-01-30,2024-01-30,ＪＳ産業株式会社,,株式会社,福岡県,北九州市小倉南区,大字高津尾字郷原６１９番３,,40,107,8030268,,,,,,,2024-01-30,1,,,,,ジェイエスサンギョウ,0
1282,5290803004602,新規,0,2024-01-30,2024-01-30,合同会社なのはな,,合同会社,福岡県,直方市,大字山部７５１番地,,40,204,8220034,,,,,,,2024-01-30,1,,,,,ナノハナ,0
1285,5310001018798,新規,0,2024-01-30,2024-01-30,株式会社ｔｏ　Ａ,,株式会社,長崎県,佐世保市,塩浜町８番５０－１２０１号,,42,202,8570876,,,,,,,2024-01-30,1,,,,,トゥーエー,0
1289,5320003004283,新規,0,2024-01-30,2024-01-30,合同会社瑛心,,合同会社,大分県,別府市,石垣東２丁目６番９－５０２号,,44,202,8740919,,,,,,,2024-01-30,1,,,,,エイシン,0
1291,5360001033124,新規,0,2024-01-30,2024-01-30,株式会社じいちゃん,,株式会社,沖縄県,宮古島市,平良字西里３２９番地２Ｆ,,47,214,9060012,,,,,,,2024-01-30,1,,,,,ジイチャン,0
1292,5360001033132,新規,0,2024-01-30,2024-01-30,株式会社わだち,,株式会社,沖縄県,国頭郡大宜味村,字喜如嘉２０８３,,47,302,9051303,,,,,,,2024-01-30,1,,,,,ワダチ,0
1298,5370003006465,新規,0,2024-01-30,2024-01-30,合同会社Ｇｏｎｇ,,合同会社,宮城県,仙台市宮城野区,新田東５丁目１２番地の２,,04,102,9830039,,,,,,,2024-01-30,1,,,,,ゴング,0
1318,5450001014214,新規,0,2024-01-30,2024-01-30,株式会社遊馬,,株式会社,北海道,富良野市,字中御料,,01,229,0760016,,,,,,,2024-01-30,1,,,,,ユウマ,0
1322,5470001020004,新規,0,2024-01-30,2024-01-30,サンセイ工業株式会社,,株式会社,香川県,高松市,林町７８０番地２０,,37,201,7610301,,,,,,,2024-01-30,1,,,,,サンセイコウギョウ,0
1330,5500005008669,新規,0,2024-01-30,2024-01-30,一般社団法人ハッピースマイルプロジェクト,,その他の設立登記法人,愛媛県,松山市,和泉南６丁目２番６号,,38,201,7900941,,,,,,,2024-01-30,1,,,,,ハッピースマイルプロジェクト,0
1340,6010005037816,新規,0,2024-01-30,2024-01-30,一般社団法人ヒラフ開発,,その他の設立登記法人,東京都,千代田区,霞が関３丁目２番５号,,13,101,1000013,,,,,,,2024-01-30,1,,,,,ヒラフカイハツ,0
1349,6010401179988,新規,0,2024-01-30,2024-01-30,株式会社Ａｎｃｈｏｒ,,株式会社,東京都,港区,南麻布５丁目１－１０,,13,103,1060047,,,,,,,2024-01-30,1,,,,,アンカー,0
1350,6010401180070,新規,0,2024-01-30,2024-01-30,株式会社ＮＥＴＩＳ申請代理センター,,株式会社,東京都,港区,三田１丁目７番１－１４１４号,,13,103,1080073,,,,,,,2024-01-30,1,,,,,ネティスシンセイダイリセンター,0
1357,6010403031791,新規,0,2024-01-30,2024-01-30,ＯＮＥ　ＳＮＯＷ合同会社,,合同会社,東京都,港区,白金台１丁目２番１０－６０２号,,13,103,1080071,,,,,,,2024-01-30,1,,,,,ワンスノウ,0
1358,6010403031825,新規,0,2024-01-30,2024-01-30,合同会社フロムポート,,合同会社,東京都,港区,白金１丁目２番２－Ｗ６０６号,,13,103,1080072,,,,,,,2024-01-30,1,,,,,フロムポート,0
1365,6010903008777,新規,0,2024-01-30,2024-01-30,蒼合同会社,,合同会社,東京都,世田谷区,砧４丁目１０番１８号スペラール砧３０８,,13,112,1570073,,,,,,,2024-01-30,1,,,,,アオイ,0
1373,6011001159587,新規,0,2024-01-30,2024-01-30,株式会社想実,,株式会社,東京都,渋谷区,神山町１７番３－１０３号ネイバーズ渋谷神山町,,13,113,1500047,,,,,,,2024-01-30,1,,,,,ソウジツ,0
1375,6011003018262,新規,0,2024-01-30,2024-01-30,合同会社ワイルドウッド,,合同会社,東京都,渋谷区,代々木２丁目３１番２号,,13,113,1510053,,,,,,,2024-01-30,1,,,,,ワイルドウッド,0
1382,6011303005043,新規,0,2024-01-30,2024-01-30,潮合トレーディング合同会社,,合同会社,東京都,杉並区,上井草２丁目３５－９プチメゾンコハ１階,,13,115,1670023,,,,,,,2024-01-30,1,,,,,チョウゴウトレーディング,0
1388,6011701026970,新規,0,2024-01-30,2024-01-30,株式会社ケリー・ソン,,株式会社,東京都,江戸川区,南葛西４丁目１３番１３号プラムハイランズ３０２,,13,123,1340085,,,,,,,2024-01-30,1,,,,,ケリーソン,0
1392,6011703003720,新規,0,2024-01-30,2024-01-30,夢追工房合同会社,,合同会社,東京都,江戸川区,瑞江２丁目６番１号パールスカイビル１階,,13,123,1320011,,,,,,,2024-01-30,1,,,,,ユメオイコウボウ,0
1394,6011801043718,新規,0,2024-01-30,2024-01-30,ＬｅｇｅｎｄＣｉｔｙ株式会社,,株式会社,東京都,葛飾区,新小岩１丁目５０番９号２階,,13,122,1240024,,,,,,,2024-01-30,1,,,,,レジェンドシティ,0
1398,6012401041450,新規,0,2024-01-30,2024-01-30,株式会社ｕｎｉ,,株式会社,東京都,武蔵野市,吉祥寺南町２丁目２番地５号アスコーナミエビル６階,,13,203,1800003,,,,,,,2024-01-30,1,,,,,ウニ,0
1400,6012701018058,新規,0,2024-01-30,2024-01-30,株式会社Ｐｒｏｄｕｃｔｉｏｎ　ＡＯＩ,,株式会社,東京都,西東京市,栄町２丁目１０－２Ｂｌｉｇｈｔｏｎｅひばりが丘３１１,,13,229,2020006,,,,,,,2024-01-30,1,,,,,プロダクションアオイ,0
1401,6012801022942,新規,0,2024-01-30,2024-01-30,ジョリーイノベーション株式会社,,株式会社,東京都,立川市,高松町１丁目３１－２２パークホームズ立川８０１,,13,202,1900011,,,,,,,2024-01-30,1,,,,,ジョリーイノベーション,0
1402,6013301051977,新規,0,2024-01-30,2024-01-30,ＥＡＳＴ　ＵＰ株式会社,,株式会社,東京都,豊島区,池袋１丁目５－３ＲＵＴｉＬＥＩＫＥＢＵＫＵＲＯ１０１号室,,13,116,1700014,,,,,,,2024-01-30,1,,,,,イーストアップ,0
1403,6013303006946,新規,0,2024-01-30,2024-01-30,合同会社スタイル,,合同会社,東京都,豊島区,南長崎５丁目３３番３－４０３号,,13,116,1710052,,,,,,,2024-01-30,1,,,,,スタイル,0
1404,6013303006979,新規,0,2024-01-30,2024-01-30,ＮＩＴＥＭＯ合同会社,,合同会社,東京都,豊島区,北大塚１丁目１９－１２コルティス大塚６Ｆ,,13,116,1700004,,,,,,,2024-01-30,1,,,,,ニテモ,0
1408,6020001155562,新規,0,2024-01-30,2024-01-30,株式会社Ｍｙ　Ｌｉｔｔｌｅ　Ｆａｒｍ,,株式会社,神奈川県,横浜市西区,浅間町１丁目４番地３ウィザードビル４０２,,14,103,2200072,,,,,,,2024-01-30,1,,,,,マイリトルファーム,0
1409,6020001155570,新規,0,2024-01-30,2024-01-30,株式会社ハルモテック,,株式会社,神奈川県,横浜市西区,北幸２丁目１０番４８号むつみビル３階,,14,103,2200004,,,,,,,2024-01-30,1,,,,,ハルモテック,0
1415,6020003025458,新規,0,2024-01-30,2024-01-30,合同会社マツノシキコウ,,合同会社,神奈川県,横浜市神奈川区,松ケ丘３６番地８－２０２号,,14,102,2210843,,,,,,,2024-01-30,1,,,,,マツノシキコウ,0
1416,6020003025466,新規,0,2024-01-30,2024-01-30,Ｑｕａｒｑｕｅ合同会社,,合同会社,神奈川県,川崎市宮前区,宮崎４丁目１番地３５６,,14,136,2160033,,,,,,,2024-01-30,1,,,,,クウォーク,0
1417,6021001081336,新規,0,2024-01-30,2024-01-30,株式会社和田建商,,株式会社,神奈川県,座間市,相模が丘４丁目４７番２号,,14,216,2520001,,,,,,,2024-01-30,1,,,,,ワダケンショウ,0
1419,6021003014087,新規,0,2024-01-30,2024-01-30,合同会社トキワシタン,,合同会社,神奈川県,伊勢原市,伊勢原２丁目９番２７号サンパティオ伊勢原４０４号,,14,214,2591131,,,,,,,2024-01-30,1,,,,,トキワシタン,0
1426,6030001158291,新規,0,2024-01-30,2024-01-30,興栄株式会社,,株式会社,埼玉県,川口市,前川４丁目２６－１２,,11,203,3330842,,,,,,,2024-01-30,1,,,,,キョウエイ,0
1427,6030001158382,新規,0,2024-01-30,2024-01-30,株式会社ＡーＳＥＥＤ,,株式会社,埼玉県,川口市,上青木６丁目７番３号華ハイツ３０１,,11,203,3330844,,,,,,,2024-01-30,1,,,,,エーシード,0
1428,6030001158408,新規,0,2024-01-30,2024-01-30,株式会社エクシア,,株式会社,埼玉県,川越市,神明町２８番地２７,,11,201,3500823,,,,,,,2024-01-30,1,,,,,エクシア,0
1429,6030001158416,新規,0,2024-01-30,2024-01-30,株式会社塚本建設,,株式会社,埼玉県,日高市,大字田波目４７４番地４,,11,242,3501201,,,,,,,2024-01-30,1,,,,,ツカモトケンセツ,0
1430,6030001158424,新規,0,2024-01-30,2024-01-30,株式会社ＳＥＩＳＨＩＮ,,株式会社,埼玉県,三郷市,新和５丁目１４７,,11,237,3410034,,,,,,,2024-01-30,1,,,,,セイシン,0
1431,6030003023477,新規,0,2024-01-30,2024-01-30,ＭＥＨＡＲ　ＴＲＡＤＩＮＧＳ合同会社,,合同会社,埼玉県,狭山市,大字堀兼２４９６－５,,11,215,3501312,,,,,,,2024-01-30,1,,,,,メハールトレーディングス,0
1436,6040001131958,新規,0,2024-01-30,2024-01-30,株式会社加藤事務所,,株式会社,千葉県,浦安市,明海５丁目２番Ｄ－３０６号パークシティ新浦安,,12,227,2790014,,,,,,,2024-01-30,1,,,,,カトウジムショ,0
1437,6040001131974,新規,0,2024-01-30,2024-01-30,株式会社ＣＯＮＴＡＣＴ,,株式会社,千葉県,千葉市美浜区,中瀬１丁目３番地幕張テクノガーデンＣＢ棟３階,,12,106,2610023,,,,,,,2024-01-30,1,,,,,コンタクト,0
1440,6040003024210,新規,0,2024-01-30,2024-01-30,ＬｉｎｋＤｉＡ合同会社,,合同会社,千葉県,佐倉市,ユーカリが丘１丁目３２－２３,,12,212,2850858,,,,,,,2024-01-30,1,,,,,リンクディア,0
1441,6040003024219,新規,0,2024-01-30,2024-01-30,合同会社ジェイスタイル,,合同会社,千葉県,木更津市,太田２丁目１４番１９号パークタワー木更津６Ｆ,,12,206,2920044,,,,,,,2024-01-30,1,,,,,ジェイスタイル,0
1458,6110001038139,新規,0,2024-01-30,2024-01-30,株式会社東横,,株式会社,新潟県,新潟市中央区,紫竹山１丁目８番２０号,,15,103,9500914,,,,,,,2024-01-30,1,,,,,トウヨコ,0
1466,6120001261680,新規,0,2024-01-30,2024-01-30,ワンコイン道具市場株式会社,,株式会社,大阪府,大阪市住吉区,東粉浜１丁目４－２７,,27,120,5580051,,,,,,,2024-01-30,1,,,,,ワンコインドウグイチバ,0
1467,6120001261714,新規,0,2024-01-30,2024-01-30,Ｄ　ｄａｙ１株式会社,,株式会社,大阪府,大阪市中央区,難波中１－１６－１１,,27,128,5390000,,,,,,,2024-01-30,1,,,,,ディーデーワン,0
1468,6120001261722,新規,0,2024-01-30,2024-01-30,株式会社アサックス,,株式会社,大阪府,大阪市住吉区,我孫子東３丁目１番１３号,,27,120,5580013,,,,,,,2024-01-30,1,,,,,アサックス,0
1469,6120001261805,新規,0,2024-01-30,2024-01-30,株式会社エスギケン,,株式会社,大阪府,大阪市平野区,瓜破２丁目１番６５－５１２号,,27,126,5470024,,,,,,,2024-01-30,1,,,,,エスギケン,0
1471,6120003025786,新規,0,2024-01-30,2024-01-30,怡和合同会社,,合同会社,大阪府,大阪市西成区,山王３丁目１９番２２－４０３号,,27,122,5570001,,,,,,,2024-01-30,1,,,,,イワ,0
1473,6120101068976,新規,0,2024-01-30,2024-01-30,株式会社逸拓,,株式会社,大阪府,藤井寺市,野中５丁目９番１７－２０１号,,27,226,5830014,,,,,,,2024-01-30,1,,,,,イツタク,0
1474,6120101068984,新規,0,2024-01-30,2024-01-30,株式会社しくみラボ,,株式会社,大阪府,堺市北区,中百舌鳥町２丁６０番地アナベル・リー３０３号,,27,146,5918023,,,,,,,2024-01-30,1,,,,,シクミラボ,0
1485,6130001076252,新規,0,2024-01-30,2024-01-30,株式会社シーエス,,株式会社,京都府,亀岡市,河原町１１８番地４０１号,,26,206,6210803,,,,,,,2024-01-30,1,,,,,シーエス,0
1487,6130003009268,新規,0,2024-01-30,2024-01-30,ＥＭコンサルティング合同会社,,合同会社,京都府,長岡京市,神足大張２０番地１（Ｂ－１０１５）メイツブラン長岡京,,26,209,6170833,,,,,,,2024-01-30,1,,,,,イーエムコンサルティング,0
1496,6140001133143,新規,0,2024-01-30,2024-01-30,聚＿商事株式会社,00133545,株式会社,兵庫県,佐用郡佐用町,下徳久１２３４番地１,,28,501,6795211,,,,,,,2024-01-30,1,,,,,シュウキンショウジ,0
1502,6170001017987,新規,0,2024-01-30,2024-01-30,株式会社キシウラ,,株式会社,和歌山県,海南市,木津２７４番地１,,30,202,6401174,,,,,,,2024-01-30,1,,,,,キシウラ,0
1521,6240001062729,新規,0,2024-01-30,2024-01-30,株式会社ＰｉｌｉｎａＯｎｅ,,株式会社,広島県,福山市,三吉町３丁目１０－８,,34,207,7200031,,,,,,,2024-01-30,1,,,,,ピリナワン,0
1527,6270005005573,新規,0,2024-01-30,2024-01-30,ＮＰＯ法人はなとたね,,その他の設立登記法人,鳥取県,鳥取市,中砂見９３６番地,,31,201,6801155,,,,,,,2024-01-30,1,,,,,ハナトタネ,0
1534,6290001104518,新規,0,2024-01-30,2024-01-30,株式会社サームス経営,,株式会社,福岡県,筑後市,大字長浜７６３番地３,,40,211,8330005,,,,,,,2024-01-30,1,,,,,サームスケイエイ,0
1535,6290001104526,新規,0,2024-01-30,2024-01-30,株式会社タダツネ,,株式会社,福岡県,糟屋郡宇美町,ゆりが丘１丁目１２番１１号,,40,341,8112108,,,,,,,2024-01-30,1,,,,,タダツネ,0
1536,6290001104550,新規,0,2024-01-30,2024-01-30,株式会社中村家,,株式会社,福岡県,宗像市,光岡６９０番地,,40,220,8113414,,,,,,,2024-01-30,1,,,,,ナカムラヤ,0
1540,6290005019282,新規,0,2024-01-30,2024-01-30,特定非営利活動法人生きものと食べものの未来,,その他の設立登記法人,福岡県,福岡市中央区,港２丁目１番９－２０１号エバーライフすの子小前,,40,133,8100075,,,,,,,2024-01-30,1,,,,,イキモノトタベモノノミライ,0
1551,6330001031708,新規,0,2024-01-30,2024-01-30,株式会社ピンクピンク,,株式会社,熊本県,熊本市中央区,上通町５番２０号,,43,101,8600845,,,,,,,2024-01-30,1,,,,,ピンクピンク,0
1555,6370001050877,新規,0,2024-01-30,2024-01-30,株式会社Ｆｕｎ　Ｓｐａｃｅ,,株式会社,宮城県,仙台市太白区,八本松２丁目２番１２－９０５号,,04,104,9820001,,,,,,,2024-01-30,1,,,,,ファンスペース,0
1556,6370001050885,新規,0,2024-01-30,2024-01-30,株式会社佐織工業,,株式会社,宮城県,仙台市青葉区,折立４丁目１１番１２号,,04,101,9820261,,,,,,,2024-01-30,1,,,,,サオリコウギョウ,0
1562,6400005008389,新規,0,2024-01-30,2024-01-30,一般社団法人プラタナス,,その他の設立登記法人,岩手県,盛岡市,高松２丁目４番２５号,,03,201,0200114,,,,,,,2024-01-30,1,,,,,プラタナス,0
1579,6700150121239,新規,0,2024-01-30,2023-10-16,兵庫県食肉卸組合連合会,,その他,兵庫県,神戸市長田区,苅藻通７丁目１番２０号,,28,106,6530032,,,,,,,2023-10-16,1,,,,,ヒヨウゴケンシヨクニクオロシクミアイレンゴウカイ,0
1586,7010001241841,新規,0,2024-01-30,2024-01-30,ＲＩＫＥＮ　ＨＯＬＤＩＮＧＳ株式会社,,株式会社,東京都,千代田区,一番町１０番２号,,13,101,1020082,,,,,,,2024-01-30,1,,,,,リケンホールディングス,0
1587,7010001241858,新規,0,2024-01-30,2024-01-30,株式会社同心,,株式会社,東京都,千代田区,神田佐久間町２丁目１８番地１秋葉原ＳＴＮフロント１０階,,13,101,1010025,,,,,,,2024-01-30,1,,,,,ドウシン,0
1588,7010001241874,新規,0,2024-01-30,2024-01-30,株式会社トレマー,,株式会社,東京都,中央区,銀座１丁目２２番１１号銀座大竹ビジデンス２Ｆ,,13,102,1040061,,,,,,,2024-01-30,1,,,,,トレマー,0
1589,7010001241882,新規,0,2024-01-30,2024-01-30,Ｌｉｆｅ株式会社,,株式会社,東京都,千代田区,大手町１丁目６番１号,,13,101,1000004,,,,,,,2024-01-30,1,,,,,ライフ,0
1590,7010003042800,新規,0,2024-01-30,2024-01-30,ペリカン３合同会社,,合同会社,東京都,千代田区,丸の内３丁目１番１号東京共同会計事務所内,,13,101,1000005,,,,,,,2024-01-30,1,,,,,ペリカンスリー,0
1603,7010401179995,新規,0,2024-01-30,2024-01-30,株式会社ＨＯＴＡＳＳＥＴ,,株式会社,東京都,港区,南青山２丁目２番５号ウィン青山９４２,,13,103,1070062,,,,,,,2024-01-30,1,,,,,ホットアセット,0
1604,7010401180029,新規,0,2024-01-30,2024-01-30,Ａプレシャス株式会社,,株式会社,東京都,港区,六本木５丁目１５番２１－１０１号,,13,103,1060032,,,,,,,2024-01-30,1,,,,,エープレシャス,0
1606,7010503007328,新規,0,2024-01-30,2024-01-30,合同会社ＩＣＨＩＳＨＩＮ,,合同会社,東京都,台東区,台東１丁目１７番７－１２０４号ウィルローズ秋葉原,,13,106,1100016,,,,,,,2024-01-30,1,,,,,イチシン,0
1611,7010801034742,新規,0,2024-01-30,2024-01-30,株式会社鎌倉山米店,,株式会社,東京都,大田区,萩中２丁目６－１４,,13,111,1440047,,,,,,,2024-01-30,1,,,,,カマクラヤマコメテン,0
1617,7010901054624,新規,0,2024-01-30,2024-01-30,緑株式会社,,株式会社,東京都,世田谷区,玉川台１丁目５番８－４０７号,,13,112,1580096,,,,,,,2024-01-30,1,,,,,ミドリ,0
1618,7010903008776,新規,0,2024-01-30,2024-01-30,合同会社エンター,,合同会社,東京都,世田谷区,桜新町１丁目１８番１４号エクセル桜新町３０４号,,13,112,1540015,,,,,,,2024-01-30,1,,,,,エンター,0
1626,7011001159644,新規,0,2024-01-30,2024-01-30,株式会社ＶＩＧＥＯＮ　ＡＩ,,株式会社,東京都,渋谷区,神宮前６丁目２３番４号桑野ビル２階,,13,113,1500001,,,,,,,2024-01-30,1,,,,,ビジョンエーアイ,0
1627,7011001159660,新規,0,2024-01-30,2024-01-30,株式会社Ｂｌｉｐ,,株式会社,東京都,渋谷区,恵比寿西２丁目８番４号ＥＸ恵比寿西ビル５階,,13,113,1500021,,,,,,,2024-01-30,1,,,,,ブリップ,0
1628,7011001159669,新規,0,2024-01-30,2024-01-30,株式会社プルーラルスタジオ,,株式会社,東京都,渋谷区,神宮前６丁目２３番４号桑野ビル２階,,13,113,1500001,,,,,,,2024-01-30,1,,,,,プルーラルスタジオ,0
1633,7011101106034,新規,0,2024-01-30,2024-01-30,株式会社ウルティマメディカルバンク,,株式会社,東京都,新宿区,西新宿３丁目１５番５号,,13,104,1600023,,,,,,,2024-01-30,1,,,,,ウルティマメディカルバンク,0
1634,7011103014029,新規,0,2024-01-30,2024-01-30,合同会社ＳＡＶＩＯＲ,,合同会社,東京都,新宿区,西新宿５丁目５番１－３７０２号,,13,104,1600023,,,,,,,2024-01-30,1,,,,,セイビア,0
1635,7011203004292,新規,0,2024-01-30,2024-01-30,合同会社山下ワークサポート企画,,合同会社,東京都,中野区,沼袋３丁目１２番２０号メモリーハウス２０２,,13,114,1650025,,,,,,,2024-01-30,1,,,,,ヤマシタワークサポートキカク,0
1641,7011603004223,新規,0,2024-01-30,2024-01-30,合同会社Ｄ＆Ｈ,,合同会社,東京都,練馬区,春日町３丁目３５－７－２０６,,13,120,1790074,,,,,,,2024-01-30,1,,,,,ディーアンドエイチ,0
1652,7012801022941,新規,0,2024-01-30,2024-01-30,株式会社Ｏｌｉｖｉａ,,株式会社,東京都,立川市,錦町６丁目２４番１号ライオンズマンション西国立第２－３１１号,,13,202,1900022,,,,,,,2024-01-30,1,,,,,オリビア,0
1653,7013101009332,新規,0,2024-01-30,2024-01-30,株式会社クレスト,,株式会社,東京都,福生市,加美平３丁目１８番３号,,13,218,1970012,,,,,,,2024-01-30,1,,,,,,0
1665,7020001155578,新規,0,2024-01-30,2024-01-30,株式会社ＭＯＬＴＯＮ,,株式会社,神奈川県,横浜市南区,六ツ川２丁目１３１番地６,,14,105,2320066,,,,,,,2024-01-30,1,,,,,モルトン,0
1666,7020003025449,新規,0,2024-01-30,2024-01-30,天日栄合同会社,,合同会社,神奈川県,横浜市西区,高島２丁目１１番２号スカイメナー横浜５１９,,14,103,2200011,,,,,,,2024-01-30,1,,,,,アマビエ,0
1667,7020003025457,新規,0,2024-01-30,2024-01-30,合同会社タイトウサービス,,合同会社,神奈川県,横浜市神奈川区,松ケ丘３６番地８－２０２号,,14,102,2210843,,,,,,,2024-01-30,1,,,,,タイトウサービス,0
1683,7030001158381,新規,0,2024-01-30,2024-01-30,双華商事株式会社,,株式会社,埼玉県,川口市,幸町１丁目７番１－２２０１号川口パークタワー,,11,203,3320016,,,,,,,2024-01-30,1,,,,,ソウカショウジ,0
1684,7030001158398,新規,0,2024-01-30,2024-01-30,青空株式会社,,株式会社,埼玉県,川口市,北園町１４番２９号,,11,203,3330862,,,,,,,2024-01-30,1,,,,,アオゾラ,0
1687,7030003023484,新規,0,2024-01-30,2024-01-30,日中国際合同会社,,合同会社,埼玉県,川口市,本町４丁目５番２６－５０２号,,11,203,3320012,,,,,,,2024-01-30,1,,,,,ニッチュウコクサイ,0
1688,7030003023526,新規,0,2024-01-30,2024-01-30,合同会社Ｄ．Ｉ．Ｍ,,合同会社,埼玉県,深谷市,西大沼８８－１,,11,218,3660829,,,,,,,2024-01-30,1,,,,,ディアイエム,0
1689,7030005021536,新規,0,2024-01-30,2024-01-30,ＮＰＯ法人外国人共生お助け隊,,その他の設立登記法人,埼玉県,比企郡吉見町,大字長谷１６４３番地２３９,,11,347,3550156,,,,,,,2024-01-30,1,,,,,ガイコクジンキョウセイオタスケタイ,0
1693,7040001131866,新規,0,2024-01-30,2024-01-30,ＲＡＮＩＡ　ＴＲＡＤＩＮＧ株式会社,,株式会社,千葉県,野田市,柳沢新田６４－５６,,12,208,2780006,,,,,,,2024-01-30,1,,,,,ラニアトレーディング,0
1694,7040001131899,新規,0,2024-01-30,2024-01-30,ザムス株式会社,,株式会社,千葉県,木更津市,羽鳥野５丁目４番地７ローマアリエスＢ１０１,,12,206,2920819,,,,,,,2024-01-30,1,,,,,ザムス,0
1695,7040001131965,新規,0,2024-01-30,2024-01-30,株式会社サニーカラー,,株式会社,千葉県,柏市,豊四季台３丁目１番１８－３２３号,,12,217,2770845,,,,,,,2024-01-30,1,,,,,サニーカラー,0
1697,7040003024234,新規,0,2024-01-30,2024-01-30,合同会社おゆみ野介護サービス,,合同会社,千葉県,千葉市緑区,おゆみ野６丁目１５‐９,,12,105,2660031,,,,,,,2024-01-30,1,,,,,オユミノカイゴサービス,0
1698,7040003024250,新規,0,2024-01-30,2024-01-30,合同会社はるかぜコンサルティング,,合同会社,千葉県,柏市,松ケ崎１３１－１９,,12,217,2770835,,,,,,,2024-01-30,1,,,,,ハルカゼコンサルティング,0
1711,7070003005256,新規,0,2024-01-30,2024-01-30,サクラオートサービス合同会社,,合同会社,群馬県,藤岡市,中栗須８４番地２１,,10,209,3750015,,,,,,,2024-01-30,1,,,,,サクラオートサービス,0
1712,7080001026105,新規,0,2024-01-30,2024-01-30,株式会社ＥＩＧＨＴＳＴＡＲ．ｉｎｃ,,株式会社,静岡県,静岡市清水区,蒲原４丁目２０番２０号,,22,103,4213203,,,,,,,2024-01-30,1,,,,,エイトスターインク,0
1718,7090005007604,新規,0,2024-01-30,2024-01-30,特定非営利活動法人まちづくり法人山梨タンク,,その他の設立登記法人,山梨県,甲府市,里吉４丁目１番１号,,19,201,4000822,,,,,,,2024-01-30,1,,,,,マチヅクリホウジンヤマナシタンク,0
1720,7100001037173,新規,0,2024-01-30,2024-01-30,エルドミース株式会社,,株式会社,長野県,松本市,村井町南４丁目１２－２６－１Ｆ,,20,202,3990036,,,,,,,2024-01-30,1,,,,,エルドミース,0
1725,7110003005276,新規,0,2024-01-30,2024-01-30,合同会社和楽美,,合同会社,新潟県,新潟市秋葉区,新金沢町１番１号,,15,105,9560815,,,,,,,2024-01-30,1,,,,,ワラビ,0
1732,7120001261754,新規,0,2024-01-30,2024-01-30,宝盛青果株式会社,,株式会社,大阪府,大阪市西成区,天下茶屋北１丁目１－７・２０２室,,27,122,5570003,,,,,,,2024-01-30,1,,,,,タカラモリセイカ,0
1733,7120001261779,新規,0,2024-01-30,2024-01-30,Ａｕｓｔａｂｉｌｉｔｙ株式会社,,株式会社,大阪府,大阪市北区,梅田１丁目２番２－２００号,,27,127,5300001,,,,,,,2024-01-30,1,,,,,オースタビリティー,0
1734,7120001261837,新規,0,2024-01-30,2024-01-30,株式会社フロンティア・Ｆ,,株式会社,大阪府,大阪市浪速区,日本橋５丁目７番１０号山田ビル,,27,111,5560005,,,,,,,2024-01-30,1,,,,,フロンティアエフ,0
1735,7120001261861,新規,0,2024-01-30,2024-01-30,博遠株式会社,,株式会社,大阪府,大阪市生野区,林寺２丁目８番２号Ａ２０２号,,27,116,5440023,,,,,,,2024-01-30,1,,,,,ハクエン,0
1738,7120003025785,新規,0,2024-01-30,2024-01-30,合同会社むさし丸,,合同会社,大阪府,大阪市住吉区,我孫子東２丁目９番７号マンションブルースカイ２０２号,,27,120,5580013,,,,,,,2024-01-30,1,,,,,ムサシマル,0
1740,7120101068884,新規,0,2024-01-30,2024-01-30,東方商業株式会社,,株式会社,大阪府,堺市堺区,三条通６－１７－２０２,,27,141,5900046,,,,,,,2024-01-30,1,,,,,トウホウショウギョウ,0
1743,7122001037787,新規,0,2024-01-30,2024-01-30,ＳＨＵＲＩＫＥＮ７６株式会社,,株式会社,大阪府,柏原市,旭ケ丘２丁目４番１１号,,27,221,5820026,,,,,,,2024-01-30,1,,,,,シュリケンナナロク,0
1749,7130001076243,新規,0,2024-01-30,2024-01-30,株式会社Ｋｏｓｅ,,株式会社,京都府,京都市北区,大宮西小野堀町４７番地２,,26,101,6038405,,,,,,,2024-01-30,1,,,,,コーセ,0
1750,7130003009267,新規,0,2024-01-30,2024-01-30,合同会社ＢＵＳＨ,,合同会社,京都府,舞鶴市,字長浜５４７番地１,,26,202,6250086,,,,,,,2024-01-30,1,,,,,ブッシュ,0
1756,7140001133167,新規,0,2024-01-30,2024-01-30,株式会社スケアクロウ,,株式会社,兵庫県,西宮市,今津巽町７－１－１０７,,28,204,6638223,,,,,,,2024-01-30,1,,,,,スケアクロウ,0
1759,7140005026929,新規,0,2024-01-30,2024-01-30,一般財団法人オークラ育英財団,,その他の設立登記法人,兵庫県,加古川市,野口町古大内９００番地,,28,210,6750014,,,,,,,2024-01-30,1,,,,,オークライクエイザイダン,0
1760,7150001027046,新規,0,2024-01-30,2024-01-30,株式会社伴ＴＯＭＯ,,株式会社,奈良県,大和郡山市,田中町５４０番地２１,,29,203,6391028,,,,,,,2024-01-30,1,,,,,トモ,0
1771,7180005020498,新規,0,2024-01-30,2024-01-30,一般社団法人日本嫌気性菌感染症学会,,その他の設立登記法人,愛知県,長久手市,岩作雁又１番地１愛知医科大学感染症科内,,23,238,4801103,,,,,,,2024-01-30,1,,,,,ニホンケンキセイキンカンセンショウガッカイ,0
1775,7180303005977,新規,0,2024-01-30,2024-01-30,ＣｅｙｌｏｎＫｉｎｄｓ合同会社,,合同会社,愛知県,岡崎市,上里３丁目１５番地１プレステージ２７・４０５,,23,202,4442136,,,,,,,2024-01-30,1,,,,,セイロンカインズ,0
1776,7180303005985,新規,0,2024-01-30,2024-01-30,合同会社ＭＡＥＮＩ,,合同会社,愛知県,碧南市,上町３丁目５８番地１,,23,209,4470074,,,,,,,2024-01-30,1,,,,,マエニイ,0
1782,7220001025802,新規,0,2024-01-30,2024-01-30,ＲＰＱ株式会社,,株式会社,石川県,金沢市,兼六元町１１番１２号,,17,201,9200931,,,,,,,2024-01-30,1,,,,,アールピーキュウ,0
1790,7260001038718,新規,0,2024-01-30,2024-01-30,株式会社ユアブレーン,,株式会社,岡山県,倉敷市,大内１２１２エルグランディールＩＩ２０１,00133557,33,202,7100817,,,,,,,2024-01-30,1,,,,,ユアブレーン,0
1795,7290001104509,新規,0,2024-01-30,2024-01-30,株式会社真先人鳥,,株式会社,福岡県,筑紫野市,二日市北４丁目２３番２０号,,40,217,8180056,,,,,,,2024-01-30,1,,,,,マッサキジンチョウ,0
1796,7290001104517,新規,0,2024-01-30,2024-01-30,これくとでんき株式会社,,株式会社,福岡県,筑紫野市,美しが丘南５丁目５番３５号,,40,217,8180034,,,,,,,2024-01-30,1,,,,,コレクトデンキ,0
1804,7320001020264,新規,0,2024-01-30,2024-01-30,豊後鋳造株式会社,,株式会社,大分県,豊後高田市,香々地１０５６番地１,,44,209,8721202,,,,,,,2024-01-30,1,,,,,ブンゴチュウゾウ,0
1805,7320003004281,新規,0,2024-01-30,2024-01-30,ＫＩＮＣＯ合同会社,,合同会社,大分県,竹田市,直入町大字上田北５７５９番地３,,44,208,8780403,,,,,,,2024-01-30,1,,,,,キンコ,0
1819,7400001016535,新規,0,2024-01-30,2024-01-30,Ｓａｃｃｏｒａ　Ｓｈａｒｅ　Ｇｌｏｂａｌ株式会社,,株式会社,岩手県,滝沢市,砂込９１１－４,,03,216,0200605,,,,,,,2024-01-30,1,,,,,サッコラシェアグローバル,0
1820,7410001013713,新規,0,2024-01-30,2024-01-30,株式会社はしもと家,,株式会社,秋田県,潟上市,昭和大久保字堤の上４５番地１３,,05,211,0181401,,,,,,,2024-01-30,1,,,,,ハシモトヤ,0
1828,7440001009378,新規,0,2024-01-30,2024-01-30,株式会社Ａｓｓｉｓｔ,,株式会社,北海道,函館市,日吉町４丁目３番８号,,01,202,0410841,,,,,,,2024-01-30,1,,,,,アシスト,0
1832,7470001020002,新規,0,2024-01-30,2024-01-30,株式会社バンビーズ,,株式会社,香川県,三豊市,高瀬町上高瀬１７００番地１,,37,208,7670001,,,,,,,2024-01-30,1,,,,,バンビーズ,0
1833,7470003002568,新規,0,2024-01-30,2024-01-30,合同会社タダミツ,,合同会社,香川県,高松市,松福町２丁目１７－１４,,37,201,7600067,,,,,,,2024-01-30,1,,,,,タダミツ,0
1841,8010001241881,新規,0,2024-01-30,2024-01-30,Ｌｉｆｅホールディングス株式会社,,株式会社,東京都,千代田区,大手町１丁目６番１号,,13,101,1000004,,,,,,,2024-01-30,1,,,,,ライフホールディングス,0
1843,8010005037822,新規,0,2024-01-30,2024-01-30,一般社団法人Ｔｒｅａｓｕｒｅ１,,その他の設立登記法人,東京都,千代田区,一ツ橋２丁目６番３号アクシスインベストメントアドバイザーズ株式会社内,,13,101,1010003,,,,,,,2024-01-30,1,,,,,トレジャーワン,0
1853,8010401179986,新規,0,2024-01-30,2024-01-30,株式会社青山トラストＢｉｚサポート,,株式会社,東京都,港区,南青山１丁目１番１号,,13,103,1070062,,,,,,,2024-01-30,1,,,,,アオヤマトラストビズサポート,0
1854,8010401180011,新規,0,2024-01-30,2024-01-30,株式会社ＦＵＫＵ・ＭＡＲＵ,,株式会社,東京都,港区,南青山５丁目１－１０－１０１１,,13,103,1070062,,,,,,,2024-01-30,1,,,,,フクマル,0
1860,8010501051698,新規,0,2024-01-30,2024-01-30,株式会社山田国際サービス,,株式会社,東京都,台東区,根岸２丁目１６－１１倉澤ビル２０１号室,,13,106,1100003,,,,,,,2024-01-30,1,,,,,ヤマダコクサイサービス,0
1863,8010603010610,新規,0,2024-01-30,2024-01-30,合同会社ＤＪ　Ｒｏｂｏｔｉｃｓ,,合同会社,東京都,墨田区,立花５丁目９‐５協同組合テクネットすみだビル２０２‐５,,13,107,1310043,,,,,,,2024-01-30,1,,,,,ディージェイロボティクス,0
1872,8010801034741,新規,0,2024-01-30,2024-01-30,株式会社リニューブルエナジー,,株式会社,東京都,大田区,東六郷３丁目１番１,,13,111,1440046,,,,,,,2024-01-30,1,,,,,リニューブルエナジー,0
1874,8010901054615,新規,0,2024-01-30,2024-01-30,株式会社喜六,,株式会社,東京都,世田谷区,上野毛４丁目２２番２号,,13,112,1580093,,,,,,,2024-01-30,1,,,,,キロク,0
1876,8010903008775,新規,0,2024-01-30,2024-01-30,合同会社とも,,合同会社,東京都,世田谷区,下馬１丁目４４－１０－４１１,,13,112,1540002,,,,,,,2024-01-30,1,,,,,トモ,0
1885,8011001159593,新規,0,2024-01-30,2024-01-30,株式会社ＡＲＴＯＲＩＡ,,株式会社,東京都,渋谷区,渋谷２丁目１９番１５号宮益坂ビルディング６０９,,13,113,1500002,,,,,,,2024-01-30,1,,,,,アルトリア,0
1886,8011001159643,新規,0,2024-01-30,2024-01-30,株式会社Ｅｘｃｉｔｅ,,株式会社,東京都,渋谷区,恵比寿西２丁目８番４号恵比寿西ビル５階,,13,113,1500021,,,,,,,2024-01-30,1,,,,,エキサイト,0
1888,8011003018392,新規,0,2024-01-30,2024-01-30,ＡＧ１合同会社,,合同会社,東京都,目黒区,中目黒１丁目９－１６レジオン中目黒１Ｆ,,13,110,1530061,,,,,,,2024-01-30,1,,,,,,0
1891,8011101106000,新規,0,2024-01-30,2024-01-30,リズム株式会社,,株式会社,東京都,新宿区,新宿１丁目２５番１２号１０１号室,,13,104,1600022,,,,,,,2024-01-30,1,,,,,リズム,0
1892,8011101106017,新規,0,2024-01-30,2024-01-30,ローンチパッド・ジャパン株式会社,,株式会社,東京都,新宿区,払方町９番地,,13,104,1620841,,,,,,,2024-01-30,1,,,,,ローンチパッドジャパン,0
1902,8012403006367,新規,0,2024-01-30,2024-01-30,ＮＨ　ＣＯＮＳＵＬＴ合同会社,,合同会社,東京都,狛江市,東野川１丁目５－１２,,13,219,2010002,,,,,,,2024-01-30,1,,,,,エヌエイチコンサルト,0
1905,8013103001303,新規,0,2024-01-30,2024-01-30,ＥＤＥＮ合同会社,,合同会社,東京都,青梅市,裏宿町７３４－１９,,13,205,1980088,,,,,,,2024-01-30,1,,,,,,0
1907,8013301051991,新規,0,2024-01-30,2024-01-30,株式会社第二,,株式会社,東京都,豊島区,東池袋１丁目１７番１１－１１０５号パークハイツ池袋,,13,116,1700013,,,,,,,2024-01-30,1,,,,,ダイニ,0
1919,8020003025456,新規,0,2024-01-30,2024-01-30,合同会社夕照,,合同会社,神奈川県,横浜市金沢区,乙舳町１３番２７号,,14,108,2360024,,,,,,,2024-01-30,1,,,,,ユウショウ,0
1921,8021003014085,新規,0,2024-01-30,2024-01-30,合同会社サンクリーン,,合同会社,神奈川県,座間市,栗原中央５丁目７番１７号,,14,216,2520014,,,,,,,2024-01-30,1,,,,,サンクリーン,0
1922,8021003014093,新規,0,2024-01-30,2024-01-30,合同会社ＵＰ,,合同会社,神奈川県,平塚市,宮松町８番１４号,,14,203,2540036,,,,,,,2024-01-30,1,,,,,アップ,0
1930,8030003023483,新規,0,2024-01-30,2024-01-30,合同会社ロジフィルム,,合同会社,埼玉県,所沢市,和ケ原１丁目３０８７－１８,,11,208,3591162,,,,,,,2024-01-30,1,,,,,ロジフィルム,0
1931,8030005021535,新規,0,2024-01-30,2024-01-30,ＮＰＯ法人ＣＣＮ,,その他の設立登記法人,埼玉県,東松山市,松葉町１丁目４番地６号Ｂ１,,11,212,3550017,,,,,,,2024-01-30,1,,,,,シーシーエヌ,0
1932,8030005021543,新規,0,2024-01-30,2024-01-30,一般社団法人こどもにやさしいまちづくりの会,,その他の設立登記法人,埼玉県,さいたま市西区,大字指扇１１２５番地１３,,11,101,3310047,,,,,,,2024-01-30,1,,,,,コドモニヤサシイマチヅクリノカイ,0
1939,8040001131972,新規,0,2024-01-30,2024-01-30,株式会社２８Ｂｒｉｎｇ,,株式会社,千葉県,柏市,南増尾４丁目１２番１４－７号,,12,217,2770054,,,,,,,2024-01-30,1,,,,,トゥーエイトブリング,0
1941,8040003024209,新規,0,2024-01-30,2024-01-30,合同会社りく,,合同会社,千葉県,柏市,若柴１７８－４柏の葉キャンパス１４８街区１Ｅ－７０１,,12,217,2770871,,,,,,,2024-01-30,1,,,,,リク,0
1942,8040003024217,新規,0,2024-01-30,2024-01-30,アシスト・サービス合同会社,,合同会社,千葉県,成田市,新町８６９番地１,,12,211,2860031,,,,,,,2024-01-30,1,,,,,アシストサービス,0
1943,8040003024225,新規,0,2024-01-30,2024-01-30,合同会社音茶,,合同会社,千葉県,成田市,新妻１３９番地１,,12,211,2860837,,,,,,,2024-01-30,1,,,,,オンサ,0
1945,8050001054198,新規,0,2024-01-30,2024-01-30,株式会社Ｋ‐ｐｌｕｓサービス,,株式会社,茨城県,つくば市,松野木９９番地３８,,08,220,3050056,,,,,,,2024-01-30,1,,,,,ケープラスサービス,0
1955,8080401026975,新規,0,2024-01-30,2024-01-30,株式会社朱雀文化交流センター,,株式会社,静岡県,浜松市中央区,上西町３３番地の３０,,22,138,4350048,,,,,,,2024-01-30,1,,,,,スザクブンカコウリュウセンター,0
1956,8080405007609,新規,0,2024-01-30,2024-01-30,一般社団法人餃子屋連盟會,,その他の設立登記法人,静岡県,浜松市中央区,有玉西町２４１７番地の９,,22,138,4313123,,,,,,,2024-01-30,1,,,,,ギョウザヤレンメイカイ,0
1957,8090003002481,新規,0,2024-01-30,2024-01-30,合同会社ｃｏｎｎｅｃｔ,,合同会社,山梨県,北杜市,高根町清里３５４５番地３４４０,,19,209,4070301,,,,,,,2024-01-30,1,,,,,コンネクト,0
1966,8120001261621,新規,0,2024-01-30,2024-01-30,株式会社Ｃｕｌｔｉｖａｔｅ　Ｃａｐｉｔａｌ,,株式会社,大阪府,大阪市福島区,野田２丁目１４－５,,27,103,5530005,,,,,,,2024-01-30,1,,,,,カルティベイトキャピタル,0
1967,8120001261638,新規,0,2024-01-30,2024-01-30,和盛株式会社,,株式会社,大阪府,大阪市東成区,大今里１丁目３１－１２－３０５号,,27,115,5370012,,,,,,,2024-01-30,1,,,,,ワセイ,0
1968,8120001261753,新規,0,2024-01-30,2024-01-30,能達株式会社,,株式会社,大阪府,大阪市港区,市岡２丁目２－４－１０１,,27,107,5520012,,,,,,,2024-01-30,1,,,,,ノウタツ,0
1969,8120001261778,新規,0,2024-01-30,2024-01-30,株式会社てそん,,株式会社,大阪府,大阪市東淀川区,豊新５丁目１６番１１号,,27,114,5330014,,,,,,,2024-01-30,1,,,,,テソン,0
1970,8120001261786,新規,0,2024-01-30,2024-01-30,潤本建設株式会社,,株式会社,大阪府,大阪市北区,本庄西３丁目６番８－２０２室,,27,127,5310073,,,,,,,2024-01-30,1,,,,,ウルウモトケンセツ,0
1971,8120001261836,新規,0,2024-01-30,2024-01-30,株式会社Ａｒｇｏｎ,,株式会社,大阪府,大阪市北区,梅田１丁目１－３大阪駅前第３ビル２９階１－１－１号室,,27,127,5300001,,,,,,,2024-01-30,1,,,,,アルゴン,0
1972,8120001261852,新規,0,2024-01-30,2024-01-30,株式会社ＦｉｒｓｔＣｏｕｒａｇｅ,,株式会社,大阪府,大阪市中央区,谷町９丁目２－１２－３０２,,27,128,5420012,,,,,,,2024-01-30,1,,,,,ファーストカレッジ,0
1974,8120003025792,新規,0,2024-01-30,2024-01-30,合同会社ＣｏｃｏｔｔｅＳｐａｃｅ,,合同会社,大阪府,大阪市北区,曾根崎２丁目５－２７ルフージュ梅田ビル８階,,27,127,5300057,,,,,,,2024-01-30,1,,,,,ココッテスペース,0
1975,8120003025801,新規,0,2024-01-30,2024-01-30,ｍｌｉｌｙｍ合同会社,,合同会社,大阪府,大阪市北区,西天満３丁目４－５－７０２号室,,27,127,5300047,,,,,,,2024-01-30,1,,,,,エリリーム,0
1981,8122001037761,新規,0,2024-01-30,2024-01-30,株式会社ととのい,,株式会社,大阪府,東大阪市,吉田本町３丁目４番４３号,,27,227,5780982,,,,,,,2024-01-30,1,,,,,トトノイ,0
1982,8122001037778,新規,0,2024-01-30,2024-01-30,森拓商事株式会社,,株式会社,大阪府,大東市,深野５丁目１０－２７,,27,218,5740072,,,,,,,2024-01-30,1,,,,,モリタクショウジ,0
1996,8140001133125,新規,0,2024-01-30,2024-01-30,株式会社アールケイ,,株式会社,兵庫県,神戸市西区,南別府２丁目１５番地の６グランディアルネッサンス西神戸２０３号,,28,111,6512116,,,,,,,2024-01-30,1,,,,,アールケイ,0
1998,8140003020098,新規,0,2024-01-30,2024-01-30,合同会社Ｓｐａｒｋｌｅ,,合同会社,兵庫県,尼崎市,七松町３丁目１６番１１号,,28,202,6600052,,,,,,,2024-01-30,1,,,,,スパークル,0
1999,8160001025659,新規,0,2024-01-30,2024-01-30,株式会社ｃｒｅｖｕｓ　ｄｅｓｉｇｎ,,株式会社,滋賀県,長浜市,大宮町５－７,,25,203,5260054,,,,,,,2024-01-30,1,,,,,クレバスデザイン,0
2010,8180001159983,新規,0,2024-01-30,2024-01-30,株式会社アトリト,,株式会社,愛知県,一宮市,小信中島字新田前５１番地２,,23,203,4940007,,,,,,,2024-01-30,1,,,,,アトリト,0
2011,8180001160000,新規,0,2024-01-30,2024-01-30,株式会社ＴＴ,,株式会社,愛知県,名古屋市守山区,白山４丁目１２０３番地,,23,113,4630032,,,,,,,2024-01-30,1,,,,,ティーティー,0
2021,8190003004567,新規,0,2024-01-30,2024-01-30,合同会社Ｏｆｆｉｃｅ　Ｓａｋｉｍｏｔｏ,,合同会社,三重県,亀山市,みずほ台１１１９番地６４,,24,210,5190105,,,,,,,2024-01-30,1,,,,,オフィスサキモト,0
2026,8230001020198,新規,0,2024-01-30,2024-01-30,株式会社住環境研究所,,株式会社,富山県,富山市,二口町４丁目７番地の１４,,16,201,9398211,,,,,,,2024-01-30,1,,,,,ジュウカンキョウケンキュウショ,0
2027,8240001062727,新規,0,2024-01-30,2024-01-30,株式会社チロル,,株式会社,広島県,広島市安佐南区,西原４丁目１１番１２号,,34,105,7310113,,,,,,,2024-01-30,1,,,,,チロル,0
2035,8290001104516,新規,0,2024-01-30,2024-01-30,株式会社ＨＭ３,,株式会社,福岡県,福岡市博多区,板付６丁目１３番１５号,,40,132,8120888,,,,,,,2024-01-30,1,,,,,エイチエムスリー,0
2041,8290803004599,新規,0,2024-01-30,2024-01-30,合同会社ＥＣＬＡＳ,,合同会社,福岡県,北九州市門司区,大里本町３丁目７番７－１３０４号,,40,101,8000063,,,,,,,2024-01-30,1,,,,,エクラス,0
2043,8320001020263,新規,0,2024-01-30,2024-01-30,株式会社Ｓｐｒｏｕｔ,,株式会社,大分県,大分市,大在北１丁目８番４２号グローリア・Ｈ１０１,,44,201,8700245,,,,,,,2024-01-30,1,,,,,スプラウト,0
2044,8320005010129,新規,0,2024-01-30,2024-01-30,一般社団法人全国寝具衛生士協会,,その他の設立登記法人,大分県,大分市,生石港町１丁目１９番１号,,44,201,8700001,,,,,,,2024-01-30,1,,,,,ゼンコクシングエイセイシキョウカイ,0
2045,8330001031706,新規,0,2024-01-30,2024-01-30,株式会社グローバル,,株式会社,熊本県,宇土市,花園台町４３３番地１７７,,43,211,8690410,,,,,,,2024-01-30,1,,,,,グローバル,0
2047,8340001026250,新規,0,2024-01-30,2024-01-30,株式会社ＡＲＴＩＳＡＮＡＬ,,株式会社,鹿児島県,鹿児島市,永吉１丁目２６番９号,,46,201,8900023,,,,,,,2024-01-30,1,,,,,アーティザナル,0
2058,8370001050875,新規,0,2024-01-30,2024-01-30,株式会社フジヒロＢＣＰ,,株式会社,宮城県,仙台市青葉区,みやぎ台４丁目１８番１３号,,04,101,9893214,,,,,,,2024-01-30,1,,,,,フジヒロビーシーピー,0
2062,8400001016534,新規,0,2024-01-30,2024-01-30,株式会社ＳＡＫＵＲＡ,,株式会社,岩手県,盛岡市,南仙北２丁目１７番３５号,,03,201,0200863,,,,,,,2024-01-30,1,,,,,サクラ,0
2064,8410001013704,新規,0,2024-01-30,2024-01-30,こんべえファーム株式会社,,株式会社,秋田県,由利本荘市,鳥海町下川内字大久保６５番地,,05,210,0150502,,,,,,,2024-01-30,1,,,,,,0
2070,8450001014211,新規,0,2024-01-30,2024-01-30,株式会社コミット,,株式会社,北海道,旭川市,永山十条１４丁目５番２７号,,01,204,0798420,,,,,,,2024-01-30,1,,,,,コミット,0
2071,8450003002437,新規,0,2024-01-30,2024-01-30,合同会社ＡＬＩ,,合同会社,北海道,旭川市,三条通１７丁目３３８番地の３,,01,204,0700033,,,,,,,2024-01-30,1,,,,,エーエルアイ,0
2092,9010005037805,新規,0,2024-01-30,2024-01-30,オーク・ロジ川越特定目的会社,,その他の設立登記法人,東京都,千代田区,内神田１丁目３番７号４０１あすな会計事務所内,,13,101,1010047,,,,,,,2024-01-30,1,,,,,オークロジカワゴエ,0
2093,9010005037813,新規,0,2024-01-30,2024-01-30,一般社団法人柏ロジインベストメント,,その他の設立登記法人,東京都,千代田区,丸の内３丁目１番１号東京共同会計事務所内,,13,101,1000005,,,,,,,2024-01-30,1,,,,,カシワロジインベストメント,0
2109,9010401179969,新規,0,2024-01-30,2024-01-30,株式会社Ｆｌｅｕｒ　Ｂｅａｕｔｅ,,株式会社,東京都,港区,東麻布１丁目７番５－９０８,,13,103,1060044,,,,,,,2024-01-30,1,,,,,フルールボーテ,0
2110,9010401180027,新規,0,2024-01-30,2024-01-30,株式会社グローバルＰａｔ,,株式会社,東京都,港区,浜松町２丁目２番１５号浜松町ダイヤビル２Ｆ,,13,103,1050013,,,,,,,2024-01-30,1,,,,,グローバルパット,0
2111,9010401180043,新規,0,2024-01-30,2024-01-30,株式会社Ｔｅｒｍｉｎａｌ７,,株式会社,東京都,港区,麻布十番２丁目１１番５－６０３号,,13,103,1060045,,,,,,,2024-01-30,1,,,,,ターミナルセブン,0
2114,9010403031806,新規,0,2024-01-30,2024-01-30,合同会社ロマヴィーノ,,合同会社,東京都,港区,南青山２丁目２番１５号,,13,103,1070062,,,,,,,2024-01-30,1,,,,,ロマヴィーノ,0
2115,9010403031822,新規,0,2024-01-30,2024-01-30,ＣＥＲＡ　ＳＴＯＲＥ合同会社,,合同会社,東京都,港区,浜松町２丁目２番１５号浜松町ダイヤビル２Ｆ,,13,103,1050013,,,,,,,2024-01-30,1,,,,,セラストア,0
2117,9010405022893,新規,0,2024-01-30,2024-01-30,一般社団法人チームキノウ,,その他の設立登記法人,東京都,港区,赤坂８丁目５－４１イースタン青山ビル５Ｆ,,13,103,1070052,,,,,,,2024-01-30,1,,,,,チームキノウ,0
2137,9011001159667,新規,0,2024-01-30,2024-01-30,ＹＹソリューションズ株式会社,,株式会社,東京都,目黒区,八雲２丁目２２－１９,,13,110,1520023,,,,,,,2024-01-30,1,,,,,ワイワイソリューションズ,0
2138,9011003018383,新規,0,2024-01-30,2024-01-30,ｓｏａｍ　ｄｅｓｉｇｎ合同会社,,合同会社,東京都,渋谷区,恵比寿西２丁目８番４号ＥＸ恵比寿西ビル５階,,13,113,1500021,,,,,,,2024-01-30,1,,,,,ソームデザイン,0
2139,9011003018400,新規,0,2024-01-30,2024-01-30,合同会社ＮＯＬＡＨ,,合同会社,東京都,目黒区,祐天寺１丁目１４番３－１０６号イソラ中目黒,,13,110,1530052,,,,,,,2024-01-30,1,,,,,ノラ,0
2160,9011801043707,新規,0,2024-01-30,2024-01-30,永利文旅株式会社,,株式会社,東京都,葛飾区,東金町３丁目１７番１０号ＫＢＳ・Ａ－７号,,13,122,1250041,,,,,,,2024-01-30,1,,,,,エイリブンリョ,0
2164,9012403006390,新規,0,2024-01-30,2024-01-30,合同会社ＫＪ,,合同会社,東京都,武蔵野市,吉祥寺本町１丁目２４番５号吉祥寺ライトビルＢ１－Ｂ室,,13,203,1800004,,,,,,,2024-01-30,1,,,,,ケージェイ,0
2165,9012405004938,新規,0,2024-01-30,2024-01-30,一般社団法人ギフテッド,,その他の設立登記法人,東京都,調布市,染地３丁目１－９２多摩川住宅ト－１１－４０４,,13,208,1820023,,,,,,,2024-01-30,1,,,,,ギフテッド,0
2166,9013103001302,新規,0,2024-01-30,2024-01-30,合同会社ＩＮＮＯＶＩＳ,,合同会社,東京都,青梅市,今井２丁目７６１番地の２２,,13,205,1980023,,,,,,,2024-01-30,1,,,,,,0
2170,9013303006976,新規,0,2024-01-30,2024-01-30,ＴＭＲ合同会社,,合同会社,東京都,豊島区,池袋本町４丁目１番１号,,13,116,1700011,,,,,,,2024-01-30,1,,,,,ティーエムアール,0
2171,9013305003567,新規,0,2024-01-30,2024-01-30,一般社団法人Ｉｒｏｄｏｒｉ,,その他の設立登記法人,東京都,豊島区,池袋３丁目３０番２１号マルモビル１階,,13,116,1710014,,,,,,,2024-01-30,1,,,,,イロドリ,0
2178,9020001155519,新規,0,2024-01-30,2024-01-30,株式会社藤雅,,株式会社,神奈川県,横浜市戸塚区,東俣野町１０３９番地３、１０２号,,14,110,2450065,,,,,,,2024-01-30,1,,,,,フジマサ,0
2179,9020001155584,新規,0,2024-01-30,2024-01-30,株式会社ＢＵＤＡＬＡ,,株式会社,神奈川県,川崎市川崎区,小川町１２番地４エスティメゾン川崎ＩＩ８０３,00133547,14,131,2100023,,,,,,,2024-01-30,1,,,,,ブダラ,0
2184,9020003025455,新規,0,2024-01-30,2024-01-30,合同会社エスペランサ,,合同会社,神奈川県,川崎市高津区,下作延７丁目１番２０－１０５号コンフェリーチェ,,14,134,2130033,,,,,,,2024-01-30,1,,,,,エスペランサ,0
2188,9021001081317,新規,0,2024-01-30,2024-01-30,株式会社リファインウェーブ科学技術研究所,,株式会社,神奈川県,大和市,鶴間２丁目１２番２４号,,14,213,2420004,,,,,,,2024-01-30,1,,,,,リファインウェーブカガクギジュツケンキュウショ,0
2195,9030001158256,新規,0,2024-01-30,2024-01-30,株式会社佐々木舗設,,株式会社,埼玉県,久喜市,南栗原五丁目１７番地１０,,11,232,3460000,,,,,,,2024-01-30,1,,,,,ササキホセツ,0
2196,9030001158405,新規,0,2024-01-30,2024-01-30,株式会社ハピネスフーズ,,株式会社,埼玉県,草加市,遊馬町５０９－１,,11,221,3400032,,,,,,,2024-01-30,1,,,,,ハピネスフーズ,0
2201,9030003023516,新規,0,2024-01-30,2024-01-30,合同会社ＫＥＮＷＩＺ,,合同会社,埼玉県,富士見市,鶴瀬西３丁目８番２２号,,11,235,3540026,,,,,,,2024-01-30,1,,,,,ケンウィズ,0
2202,9030003023524,新規,0,2024-01-30,2024-01-30,合同会社ＴＨＥ修繕,,合同会社,埼玉県,ふじみ野市,大井武蔵野１３４６番地５３,,11,245,3560054,,,,,,,2024-01-30,1,,,,,ザシュウゼン,0
2205,9040001131963,新規,0,2024-01-30,2024-01-30,株式会社ＧＲＡＳＩＯＮ,,株式会社,千葉県,野田市,目吹３６番地４,,12,208,2780001,,,,,,,2024-01-30,1,,,,,グラシオン,0
2206,9040001131971,新規,0,2024-01-30,2024-01-30,株式会社Ｅｄｕｃｈｅ,,株式会社,千葉県,市原市,平蔵１９４１,,12,219,2900524,,,,,,,2024-01-30,1,,,,,エデュケ,0
2209,9040003024216,新規,0,2024-01-30,2024-01-30,スポーツコミュニティ合同会社,,合同会社,千葉県,柏市,花野井３２５番地２,,12,217,2770812,,,,,,,2024-01-30,1,,,,,スポーツコミュニティ,0
2213,9050003008085,新規,0,2024-01-30,2024-01-30,合同会社Ｇパワー,,合同会社,茨城県,つくば市,天久保２丁目１７番５号,,08,220,3050005,,,,,,,2024-01-30,1,,,,,ジーパワー,0
2216,9060001036780,新規,0,2024-01-30,2024-01-30,株式会社ＡＬＬ　ＢＬＵＥ,,株式会社,栃木県,宇都宮市,陽東３丁目１,,09,201,3210904,,,,,,,2024-01-30,1,,,,,オールブルー,0
2225,9090003002480,新規,0,2024-01-30,2024-01-30,合同会社プラムツリー,,合同会社,山梨県,富士吉田市,下吉田７丁目２７番１４号,,19,202,4030004,,,,,,,2024-01-30,1,,,,,プラムツリー,0
2235,9120001261637,新規,0,2024-01-30,2024-01-30,遠山株式会社,,株式会社,大阪府,大阪市住吉区,万代東１丁目３－２２メゾン東和１０３号室,,27,120,5580056,,,,,,,2024-01-30,1,,,,,トオヤマ,0
2236,9120001261752,新規,0,2024-01-30,2024-01-30,三泰株式会社,,株式会社,大阪府,大阪市東住吉区,鷹合４丁目２１番１６号３Ｆ－Ｂ,,27,121,5460014,,,,,,,2024-01-30,1,,,,,サンタイ,0
2237,9120001261777,新規,0,2024-01-30,2024-01-30,株式会社Ｔワークス,,株式会社,大阪府,大阪市西淀川区,竹島２丁目４－４１－１０４,,27,113,5550011,,,,,,,2024-01-30,1,,,,,ティーワークス,0
2238,9120001261851,新規,0,2024-01-30,2024-01-30,株式会社椿,,株式会社,大阪府,大阪市平野区,平野東１丁目７番２５号４１４号,,27,126,5470043,,,,,,,2024-01-30,1,,,,,ツバキ,0
2241,9120003025783,新規,0,2024-01-30,2024-01-30,合同会社アロアロ,,合同会社,大阪府,大阪市西区,靱本町１丁目１４番１１号,,27,106,5500004,,,,,,,2024-01-30,1,,,,,アロアロ,0
2242,9120003025791,新規,0,2024-01-30,2024-01-30,モズインターナショナル合同会社,,合同会社,大阪府,大阪市北区,大深町３番４０－６０１号,,27,127,5300011,,,,,,,2024-01-30,1,,,,,モズインターナショナル,0
2243,9120003025800,新規,0,2024-01-30,2024-01-30,Ｐｌａｙ　Ａ　Ｌｉｆｅ合同会社,,合同会社,大阪府,大阪市東住吉区,湯里６丁目１４番２９号,,27,121,5460013,,,,,,,2024-01-30,1,,,,,プレイアライフ,0
2246,9120101068973,新規,0,2024-01-30,2024-01-30,株式会社Ｅ・Ｆ・Ｕ　Ｇｒｏｕｐ,,株式会社,大阪府,羽曳野市,向野１丁目５番３号,,27,222,5830883,,,,,,,2024-01-30,1,,,,,イーエフユーグループ,0
2247,9120103005644,新規,0,2024-01-30,2024-01-30,合同会社勝輝リサイクル,,合同会社,大阪府,堺市美原区,菅生１５９１,,27,147,5870041,,,,,,,2024-01-30,1,,,,,ショウキリサイクル,0
2252,9122001037785,新規,0,2024-01-30,2024-01-30,株式会社ＤＯＭＥ,,株式会社,大阪府,四條畷市,岡山３丁目８－３,,27,229,5750002,,,,,,,2024-01-30,1,,,,,ドーム,0
2258,9130001076241,新規,0,2024-01-30,2024-01-30,株式会社富設,,株式会社,京都府,船井郡京丹波町,下乙見尾崎２６番地,,26,407,6291103,,,,,,,2024-01-30,1,,,,,トミセツ,0
2267,9140001133132,新規,0,2024-01-30,2024-01-30,株式会社アルモニ・クリスタリン,,株式会社,兵庫県,神戸市垂水区,塩屋町１丁目３番１６－３０３号,,28,108,6550872,,,,,,,2024-01-30,1,,,,,アルモニクリスタリン,0
2269,9140005026927,新規,0,2024-01-30,2024-01-30,一般社団法人Ｂ‐ＫＯＢＥ,,その他の設立登記法人,兵庫県,神戸市垂水区,陸ノ町１番１２号,,28,108,6550026,,,,,,,2024-01-30,1,,,,,ビーコウベ,0
2285,9180003026272,新規,0,2024-01-30,2024-01-30,シトリンスセム合同会社,,合同会社,愛知県,名古屋市千種区,桜が丘１１９番地,,23,101,4640025,,,,,,,2024-01-30,1,,,,,シトリンスセム,0
2287,9190001031067,新規,0,2024-01-30,2024-01-30,株式会社オノレ,,株式会社,三重県,四日市市,新正４丁目４番３号サンルミエール５０６,,24,202,5100064,,,,,,,2024-01-30,1,,,,,オノレ,0
2288,9190003004566,新規,0,2024-01-30,2024-01-30,ＢＡＢＥＬ　ＷＯＲＫＳ合同会社,,合同会社,三重県,鈴鹿市,国府町２２００－７３,,24,207,5130836,,,,,,,2024-01-30,1,,,,,バベルワークス,0
2293,9200003006222,新規,0,2024-01-30,2024-01-30,マルユウコーポレーション合同会社,,合同会社,岐阜県,瑞穂市,古橋１４４８－１５,,21,216,5010322,,,,,,,2024-01-30,1,,,,,マルユウコーポレーション,0
2303,9240001062734,新規,0,2024-01-30,2024-01-30,株式会社ＮＩＳＨＩＯＫＡ,,株式会社,広島県,広島市中区,幟町５番９号,,34,101,7300016,,,,,,,2024-01-30,1,,,,,ニシオカ,0
2308,9260001038690,新規,0,2024-01-30,2024-01-30,株式会社仁絆倶ハウス,00133556,株式会社,岡山県,浅口市,鴨方町小坂東１５５３番地３,,33,216,7190241,,,,,,,2024-01-30,1,,,,,ジパングハウス,0
2312,9290001104507,新規,0,2024-01-30,2024-01-30,株式会社ＬＩＮＫＬＩＧＨＴ,,株式会社,福岡県,福岡市東区,奈多１丁目２番１９－３０３号グランピアリゾート和白ＩＩ,00133549,40,131,8110204,,,,,,,2024-01-30,1,,,,,リンクライト,0
2313,9290001104515,新規,0,2024-01-30,2024-01-30,株式会社Ｕ‐ＤＡＫＥ,,株式会社,福岡県,福岡市早良区,原６丁目３０番３号,,40,137,8140022,,,,,,,2024-01-30,1,,,,,ユーダケ,0
2314,9290001104548,新規,0,2024-01-30,2024-01-30,虎龍株式会社,,株式会社,福岡県,久留米市,通東町６番地１３,,40,203,8300016,,,,,,,2024-01-30,1,,,,,コタツ,0
2319,9320001020262,新規,0,2024-01-30,2024-01-30,株式会社ひまわり,,株式会社,大分県,豊後高田市,高田８３２番地２Ｆ,,44,209,8790617,,,,,,,2024-01-30,1,,,,,ヒマワリ,0
2322,9340005009696,新規,0,2024-01-30,2024-01-30,山下土地家屋調査士法人,,その他の設立登記法人,鹿児島県,鹿児島市,荒田２丁目５番１３号,,46,201,8900054,,,,,,,2024-01-30,1,,,,,ヤマシタ,0
2323,9360003013657,新規,0,2024-01-30,2024-01-30,合同会社Ｍ＆Ｚ商事,,合同会社,沖縄県,中頭郡読谷村,字宇座１８６１,,47,324,9040328,,,,,,,2024-01-30,1,,,,,エムアンドゼットショウジ,0
2327,9370001050874,新規,0,2024-01-30,2024-01-30,株式会社ＫＣＣ東精システム,,株式会社,宮城県,仙台市青葉区,下愛子字二本松２５番地１３,,04,101,9893125,,,,,,,2024-01-30,1,,,,,ケーシーシートウセイシステム,0
2328,9370001050882,新規,0,2024-01-30,2024-01-30,株式会社オイカワ設備,,株式会社,宮城県,仙台市宮城野区,燕沢東３丁目１６番１５号,,04,102,9830822,,,,,,,2024-01-30,1,,,,,オイカワセツビ,0
2330,9410005006562,新規,0,2024-01-30,2024-01-30,イオン東北労働組合,,その他の設立登記法人,秋田県,秋田市,土崎港北１丁目６－２５,,05,201,0110941,,,,,,,2024-01-30,1,,,,,イオントウホク,0
2345,9420005007881,新規,0,2024-01-30,2024-01-30,一般社団法人青い森学館,,その他の設立登記法人,青森県,上北郡東北町,字内蛯沢道ノ上９０番地２２,,02,408,0392655,,,,,,,2024-01-30,1,,,,,アオイモリガッカン,0
2348,9440001009376,新規,0,2024-01-30,2024-01-30,株式会社ＡＦホールディングス,,株式会社,北海道,函館市,西桔梗町８１８番地の１７,,01,202,0410824,,,,,,,2024-01-30,1,,,,,エーエフホールディングス,0
2349,9440003001570,新規,0,2024-01-30,2024-01-30,くらｃｒａ合同会社,,合同会社,北海道,函館市,入舟町１番１２号,,01,202,0400057,,,,,,,2024-01-30,1,,,,,クラクラ,0
