sequenceNumber,corporateNumber,process,correct,updateDate,changeDate,name,nameImageId,kind,prefectureName,cityName,streetNumber,addressImageId,prefectureCode,cityCode,postCode,addressOutside,addressOutsideImageId,closeDate,closeCause,successorCorporateNumber,changeCause,assignmentDate,latest,enName,enPrefectureName,enCityName,enAddressOutside,furigana,hihyoji
5,1010001221246,新規,0,2021-10-01,2021-10-01,ＴＣＳアライアンス株式会社,,株式会社,東京都,中央区,日本橋本町４丁目８番１４号,,13,102,1030023,,,,,,,2021-10-01,1,,,,,ティーシーエスアライアンス,0
6,1010001221436,新規,0,2021-10-01,2021-10-01,ＪＵＮＡ株式会社,,株式会社,東京都,中央区,銀座６丁目２番３号,,13,102,1040061,,,,,,,2021-10-01,1,,,,,ジュナ,0
7,1010001221460,新規,0,2021-10-01,2021-10-01,株式会社ＪＡＧ,,株式会社,東京都,千代田区,丸の内３丁目４番１号新国際ビル８階,,13,101,1000005,,,,,,,2021-10-01,1,,,,,ジェイエイジー,0
8,1010001221469,新規,0,2021-10-01,2021-10-01,デュオンズ音楽出版株式会社,,株式会社,東京都,千代田区,平河町１丁目６番１５号ＵＳビル８Ｆ,,13,101,1020093,,,,,,,2021-10-01,1,,,,,デュオンズオンガクシュッパン,0
9,1010001221477,新規,0,2021-10-01,2021-10-01,株式会社はっつぼ,,株式会社,東京都,中央区,銀座８丁目２番８号,,13,102,1040061,,,,,,,2021-10-01,1,,,,,ハッツボ,0
14,1010003035925,新規,0,2021-10-01,2021-10-01,合同会社ＧＥパワープラント１号,,合同会社,東京都,千代田区,一ツ橋２丁目６番３号アクシスインベストメントアドバイザーズ株式会社内,,13,101,1010003,,,,,,,2021-10-01,1,,,,,ジーイーパワープラントイチゴウ,0
20,1010103001777,新規,0,2021-10-01,2021-10-01,合同会社トップアウト,,合同会社,東京都,八王子市,大楽寺町６０１番地４,,13,201,1930816,,,,,,,2021-10-01,1,,,,,トップアウト,0
22,1010401162924,新規,0,2021-10-01,2021-10-01,株式会社ｋｕｕＡｒｔ,,株式会社,東京都,港区,芝１丁目１３番２１－８０１号,,13,103,1050014,,,,,,,2021-10-01,1,,,,,クーアート,0
23,1010401162932,新規,0,2021-10-01,2021-10-01,株式会社ＣＢＳ,,株式会社,東京都,港区,南青山５丁目４番６号,,13,103,1070062,,,,,,,2021-10-01,1,,,,,シービーエス,0
24,1010401162949,新規,0,2021-10-01,2021-10-01,株式会社みけだま,,株式会社,東京都,港区,虎ノ門１丁目８番１１号５８２５第一ビル５階,,13,103,1050001,,,,,,,2021-10-01,1,,,,,ミケダマ,0
33,1010601059994,新規,0,2021-10-01,2021-10-01,株式会社宮建,,株式会社,東京都,江東区,北砂３丁目３５番９号－２０１,,13,108,1360073,,,,,,,2021-10-01,1,,,,,ミヤケン,0
34,1010601060003,新規,0,2021-10-01,2021-10-01,株式会社ブレッドファーム,,株式会社,東京都,墨田区,千歳１丁目５番１号,,13,107,1300025,,,,,,,2021-10-01,1,,,,,ブレッドファーム,0
36,1010805002882,新規,0,2021-10-01,2021-10-01,一般社団法人英会話同好会ｆｒｏｍ　ＯＴＡ,,その他の設立登記法人,東京都,大田区,西蒲田５丁目１４番１３号チコハウス１０１号,,13,111,1440051,,,,,,,2021-10-01,1,,,,,エイカイワドウコウカイフロームオオタ,0
40,1010903006835,新規,0,2021-10-01,2021-10-01,合同会社タロアゲ,,合同会社,東京都,世田谷区,野沢２丁目３４番３号,,13,112,1540003,,,,,,,2021-10-01,1,,,,,タロアゲ,0
51,1011001142985,新規,0,2021-10-01,2021-10-01,株式会社アドビオ,,株式会社,東京都,渋谷区,神宮前６丁目２３－４桑野ビル２階,,13,113,1500001,,,,,,,2021-10-01,1,,,,,アドビオ,0
65,1011401023703,新規,0,2021-10-01,2021-10-01,株式会社ベルゼル,,株式会社,東京都,板橋区,南常盤台２丁目３番６号,,13,119,1740072,,,,,,,2021-10-01,1,,,,,ベルゼル,0
67,1011601025425,新規,0,2021-10-01,2021-10-01,株式会社ａｌ,,株式会社,東京都,練馬区,大泉学園町２丁目５番１６号,,13,120,1780061,,,,,,,2021-10-01,1,,,,,アル,0
71,1012403005045,新規,0,2021-10-01,2021-10-01,ルリネット合同会社,,合同会社,東京都,小金井市,梶野町２丁目６番１３号,,13,210,1840002,,,,,,,2021-10-01,1,,,,,ルリネット,0
78,1013301048078,新規,0,2021-10-01,2021-10-01,株式会社ＢＣＤコーポレーション,,株式会社,東京都,豊島区,南池袋１丁目２６番９号,,13,116,1710022,,,,,,,2021-10-01,1,,,,,ビーシーディーコーポレーション,0
79,1013303005837,新規,0,2021-10-01,2021-10-01,合同会社ＫＳＲ,,合同会社,東京都,豊島区,北大塚２丁目２７番９号ＯＲＩＴＯＳ．Ｓ１０２,,13,116,1700004,,,,,,,2021-10-01,1,,,,,ケイエスアール,0
85,1020001143217,新規,0,2021-10-01,2021-10-01,株式会社倉,,株式会社,神奈川県,横浜市都筑区,茅ケ崎東２丁目２３番２号,,14,118,2240033,,,,,,,2021-10-01,1,,,,,クラ,0
86,1020001143225,新規,0,2021-10-01,2021-10-01,株式会社ロジックスジャパン,,株式会社,神奈川県,横浜市泉区,和泉中央北２丁目４２番１３号,,14,116,2450024,,,,,,,2021-10-01,1,,,,,ロジックスジャパン,0
88,1020003020562,新規,0,2021-10-01,2021-10-01,合同会社オネスト,,合同会社,神奈川県,川崎市宮前区,宮崎１５８番地１リリー宮崎台１０６,,14,136,2160033,,,,,,,2021-10-01,1,,,,,オネスト,0
95,1021001074071,新規,0,2021-10-01,2021-10-01,株式会社美建興業,,株式会社,神奈川県,厚木市,妻田南１丁目１８番２１－１０３号,,14,212,2430814,,,,,,,2021-10-01,1,,,,,ビケンコウギョウ,0
101,1021003010735,新規,0,2021-10-01,2021-10-01,合同会社ｈｉｋｅａｎｄｓｅｅｋ,,合同会社,神奈川県,藤沢市,羽鳥１丁目６－３２パークコート１０１,,14,205,2510056,,,,,,,2021-10-01,1,,,,,ハイクアンドシーク,0
108,1030001144552,新規,0,2021-10-01,2021-10-01,株式会社輝,,株式会社,埼玉県,北足立郡伊奈町,大字小室１３９２番地２,,11,301,3620806,,,,,,,2021-10-01,1,,,,,カガヤキ,0
109,1030001144560,新規,0,2021-10-01,2021-10-01,株式会社シリウス,,株式会社,埼玉県,志木市,本町６丁目２６番２１号,,11,228,3530004,,,,,,,2021-10-01,1,,,,,シリウス,0
110,1030001144577,新規,0,2021-10-01,2021-10-01,あらい左官工業株式会社,,株式会社,埼玉県,志木市,下宗岡４丁目２２番２４号,,11,228,3530003,,,,,,,2021-10-01,1,,,,,アライサカンコウギョウ,0
111,1030001144593,新規,0,2021-10-01,2021-10-01,清水商事株式会社,,株式会社,埼玉県,三郷市,さつき平２丁目４番１－２１０１号,,11,237,3410021,,,,,,,2021-10-01,1,,,,,シミズショウジ,0
113,1030005020535,新規,0,2021-10-01,2021-10-01,一般社団法人日本車いすボクシング連盟,,その他の設立登記法人,埼玉県,草加市,住吉１丁目５番２４号,,11,221,3400014,,,,,,,2021-10-01,1,,,,,ニホンクルマイスボクシングレンメイ,0
116,1040001120354,新規,0,2021-10-01,2021-10-01,株式会社ぱぴぶＲｕ,,株式会社,千葉県,東金市,上谷２６５７－２,,12,213,2830046,,,,,,,2021-10-01,1,,,,,パピブル,0
118,1040003018646,新規,0,2021-10-01,2021-10-01,ＲＲ　ＭＯＴＯＲＳ合同会社,,合同会社,千葉県,山武郡芝山町,高田１１７６番地４－Ａ－１,,12,409,2891623,,,,,,,2021-10-01,1,,,,,アールアールモータース,0
119,1040005021350,新規,0,2021-10-01,2021-10-01,特定非営利活動法人ｅａｒｔｈ　ｓｔｕｄｉｏ,,その他の設立登記法人,千葉県,千葉市花見川区,検見川町３丁目３２１番地１５クロチェヴィーア１０３号,,12,102,2620023,,,,,,,2021-10-01,1,,,,,アーススタジオ,0
120,1040005021359,新規,0,2021-10-01,2021-10-01,特定非営利活動法人白井イスラーム文化協会,,その他の設立登記法人,千葉県,白井市,河原子２３２の２,,12,232,2701403,,,,,,,2021-10-01,1,,,,,シロイイスラームブンカキョウカイ,0
124,1050001049898,新規,0,2021-10-01,2021-10-01,株式会社つくば紹介所,,株式会社,茨城県,つくば市,二の宮２丁目４番地３グランドパレスＮＳ－２、２１２号,,08,220,3050051,,,,,,,2021-10-01,1,,,,,ツクバショウカイジョ,0
128,1060001034131,新規,0,2021-10-01,2021-10-01,株式会社丸高興業,,株式会社,栃木県,佐野市,戸室町２０７番地１,,09,204,3270306,,,,,,,2021-10-01,1,,,,,マルタカコウギョウ,0
132,1080101022793,新規,0,2021-10-01,2021-10-01,株式会社遠藤住宅設計,,株式会社,静岡県,富士市,中央町１丁目９番１－９号,,22,210,4170052,,,,,,,2021-10-01,1,,,,,エンドウジュウタクセッケイ,0
138,1090001017208,新規,0,2021-10-01,2021-10-01,一優グローバル株式会社,,株式会社,山梨県,笛吹市,石和町小石和３０７番地２,,19,211,4060033,,,,,,,2021-10-01,1,,,,,イチユウグローバル,0
139,1090002015730,新規,0,2021-10-01,2021-10-01,有限会社大國屋,,有限会社,山梨県,大月市,大月１丁目６番２７号,,19,206,4010013,,,,,,,2021-10-01,1,,,,,,0
140,1090003001960,新規,0,2021-10-01,2021-10-01,合同会社イートライフ,,合同会社,山梨県,北杜市,長坂町大井ヶ森９８４番地６,,19,209,4080032,,,,,,,2021-10-01,1,,,,,イートライフ,0
141,1100003006248,新規,0,2021-10-01,2021-10-01,ＳＵＷＡＲＡＪ合同会社,,合同会社,長野県,茅野市,豊平１３３３番地１、カーサなかしもⅠ,00124396,20,214,3910213,,,,,,,2021-10-01,1,,,,,スワラジ,0
143,1110001036048,新規,0,2021-10-01,2021-10-01,日本敷物新潟株式会社,,株式会社,新潟県,西蒲原郡巻町,大字伏部字前山５９７番地１,,15,345,9530026,,,,,,,2021-10-01,1,,,,,,0
152,1120001240763,新規,0,2021-10-01,2021-10-01,株式会社Ｇ＆Ｍ,,株式会社,大阪府,大阪市西区,西本町３丁目１番地４６奥内第５ビル１０１号,,27,106,5500005,,,,,,,2021-10-01,1,,,,,ジーアンドエム,0
153,1120001240788,新規,0,2021-10-01,2021-10-01,株式会社スターダスト,,株式会社,大阪府,大阪市中央区,西心斎橋２丁目１３番１３号,,27,128,5420086,,,,,,,2021-10-01,1,,,,,スターダスト,0
159,1120101064352,新規,0,2021-10-01,2021-10-01,株式会社ｋａｇａｙａｋｉ,,株式会社,大阪府,堺市東区,引野町２丁１０２番地４,,27,143,5998104,,,,,,,2021-10-01,1,,,,,カガヤキ,0
160,1120101064369,新規,0,2021-10-01,2021-10-01,株式会社ＨＫｓｙｓｔｅｍ,,株式会社,大阪府,藤井寺市,道明寺４丁目１２番４号,,27,226,5830012,,,,,,,2021-10-01,1,,,,,エイチケイシステム,0
161,1120101064377,新規,0,2021-10-01,2021-10-01,株式会社栄技研,,株式会社,大阪府,和泉市,はつが野６丁目１５番１３号,,27,219,5941106,,,,,,,2021-10-01,1,,,,,サカエギケン,0
168,1120903003846,新規,0,2021-10-01,2021-10-01,合同会社ＷＭ,,合同会社,大阪府,高槻市,富田町６丁目１１－５,,27,207,5690814,,,,,,,2021-10-01,1,,,,,ダブリューエム,0
173,1130001070185,新規,0,2021-10-01,2021-10-01,空き家バンク京都株式会社,,株式会社,京都府,京都市南区,西九条寺ノ前町３番地,,26,107,6018407,,,,,,,2021-10-01,1,,,,,アキヤバンクキョウト,0
174,1130001070193,新規,0,2021-10-01,2021-10-01,株式会社アールマネジメント,,株式会社,京都府,京都市中京区,高倉通夷川上る福屋町７１８番地,,26,104,6040882,,,,,,,2021-10-01,1,,,,,アールマネジメント,0
175,1130003007516,新規,0,2021-10-01,2021-10-01,合同会社Ｂｌａｚｅ　Ｅｄｇｅ．,,合同会社,京都府,京都市東山区,五条通大橋東入東橋詰町１３番地,,26,105,6050847,,,,,,,2021-10-01,1,,,,,ブレイズエッジ,0
181,1140001123207,新規,0,2021-10-01,2021-10-01,株式会社クリエイティブダイニング,,株式会社,兵庫県,神戸市中央区,中山手通１丁目９番１６号,,28,110,6500004,,,,,,,2021-10-01,1,,,,,クリエイティブダイニング,0
182,1140001123256,新規,0,2021-10-01,2021-10-01,株式会社トライ,,株式会社,兵庫県,神戸市中央区,琴ノ緒町４丁目３番３号Ｇ．Ｈ三宮駅前ビル６０１号室,,28,110,6510094,,,,,,,2021-10-01,1,,,,,トライ,0
186,1150001024957,新規,0,2021-10-01,2021-10-01,株式会社水源,,株式会社,奈良県,奈良市,朱雀１丁目４番地の３,,29,201,6310806,,,,,,,2021-10-01,1,,,,,ミズゲン,0
191,1170003001639,新規,0,2021-10-01,2021-10-01,合同会社愛,,合同会社,和歌山県,和歌山市,吉里３５３番地２３,,30,201,6400363,,,,,,,2021-10-01,1,,,,,アイ,0
194,1180001148010,新規,0,2021-10-01,2021-10-01,株式会社デフクラフト,,株式会社,愛知県,小牧市,大字岩崎字郷前７１１番地,,23,219,4850011,,,,,,,2021-10-01,1,,,,,デフクラフト,0
195,1180001148019,新規,0,2021-10-01,2021-10-01,株式会社濵西業務,00124397,株式会社,愛知県,小牧市,篠岡２丁目１番地１,,23,219,4850815,,,,,,,2021-10-01,1,,,,,ハマニシギョウム,0
196,1180005019455,新規,0,2021-10-01,2021-10-01,一般社団法人日本蟻植物協会,,その他の設立登記法人,愛知県,北名古屋市,西之保三町地４１番地,,23,234,4810033,,,,,,,2021-10-01,1,,,,,ニホンアリショクブツキョウカイ,0
201,1190001028715,新規,0,2021-10-01,2021-10-01,株式会社Ｆｏｕｒ　Ｓｏｍｅｏｎｅ’ｓ,,株式会社,三重県,津市,下弁財町津興７５３－１,,24,201,5140805,,,,,,,2021-10-01,1,,,,,フォーサムワンズ,0
204,1200001039207,新規,0,2021-10-01,2021-10-01,株式会社Ｎ’ｓＭＥＴＡＬ,,株式会社,岐阜県,岐阜市,長良雄総９９番地１１,,21,201,5020017,,,,,,,2021-10-01,1,,,,,エヌズメタル,0
208,1220001024446,新規,0,2021-10-01,2021-10-01,株式会社彩士館,,株式会社,石川県,金沢市,桜田町１丁目１４番地１０２,,17,201,9200057,,,,,,,2021-10-01,1,,,,,サイシカン,0
214,1250001019154,新規,0,2021-10-01,2021-10-01,ギャップ・フィリング株式会社,,株式会社,山口県,周南市,大字鹿野下１００６番地３,,35,215,7450304,,,,,,,2021-10-01,1,,,,,ギャップフィリング,0
217,1260001036000,新規,0,2021-10-01,2021-10-01,株式会社テラエンタテイメント,,株式会社,岡山県,岡山市北区,田町１丁目３番３３号蓮昌寺ビル２０１,,33,101,7000825,,,,,,,2021-10-01,1,,,,,テラエンタテイメント,0
218,1260001036009,新規,0,2021-10-01,2021-10-01,ＣＲＡＦＴＣＯＭ株式会社,,株式会社,岡山県,岡山市南区,新保１１５２番地１１,,33,104,7000945,,,,,,,2021-10-01,1,,,,,クラフトコム,0
220,1290001094796,新規,0,2021-10-01,2021-10-01,株式会社ＰＡＲＴＹ５,,株式会社,福岡県,宗像市,自由ヶ丘１丁目１番地５,,40,220,8114163,,,,,,,2021-10-01,1,,,,,パーティーファイブ,0
222,1290003011650,新規,0,2021-10-01,2021-10-01,トート合同会社,,合同会社,福岡県,飯塚市,高田２６０番地,,40,205,8200079,,,,,,,2021-10-01,1,,,,,トート,0
223,1290003011667,新規,0,2021-10-01,2021-10-01,合同会社ｃｏｒｅ,,合同会社,福岡県,久留米市,山川町９３４番地,,40,203,8390817,,,,,,,2021-10-01,1,,,,,コア,0
236,1310003004172,新規,0,2021-10-01,2021-10-01,合同会社Ｙ，ｓ,,合同会社,長崎県,長崎市,千歳町２番３号,,42,201,8528135,,,,,,,2021-10-01,1,,,,,ワイズ,0
246,1340001024129,新規,0,2021-10-01,2021-10-01,まっきーはうす株式会社,,株式会社,鹿児島県,鹿児島市,谷山中央４丁目４９０３番地２,,46,201,8910141,,,,,,,2021-10-01,1,,,,,,0
248,1340003003576,新規,0,2021-10-01,2021-10-01,合同会社Ｓｐｔｅｌ　Ｔｉｍｅ,,合同会社,鹿児島県,鹿児島市,下福元町１１３９番地,,46,201,8910144,,,,,,,2021-10-01,1,,,,,スピテルタイム,0
249,1360001029431,新規,0,2021-10-01,2021-10-01,株式会社Ｓａｐｅｒｅ,,株式会社,沖縄県,那覇市,首里平良町１丁目２９番地ライオンズ首里マークスフォート２０１,,47,201,9030803,,,,,,,2021-10-01,1,,,,,サペレ,0
251,1360003011478,新規,0,2021-10-01,2021-10-01,松田コンサルティング合同会社,,合同会社,沖縄県,中頭郡読谷村,字大湾３６８番地,,47,324,9040313,,,,,,,2021-10-01,1,,,,,マツダコンサルティング,0
254,1370001047639,新規,0,2021-10-01,2021-10-01,粋株式会社,,株式会社,宮城県,仙台市太白区,山田本町２－５１、１０１号室,,04,104,9820816,,,,,,,2021-10-01,1,,,,,イナセ,0
257,1380001032227,新規,0,2021-10-01,2021-10-01,大熊るるるん電力株式会社,,株式会社,福島県,双葉郡大熊町,大字下野上字大野６６９番地の３,,07,545,9791308,,,,,,,2021-10-01,1,,,,,オオクマルルルンデンリョク,0
263,1400001015617,新規,0,2021-10-01,2021-10-01,株式会社ｄｉｖａｎ,,株式会社,岩手県,盛岡市,清水町１番２号,,03,201,0200875,,,,,,,2021-10-01,1,,,,,ディヴァン,0
274,1430003013203,新規,0,2021-10-01,2021-10-01,合同会社きんせい堂,,合同会社,北海道,札幌市中央区,南十一条西７丁目１番１２号,,01,101,0640811,,,,,,,2021-10-01,1,,,,,キンセイドウ,0
276,1490001009998,新規,0,2021-10-01,2021-10-01,株式会社タクト,,株式会社,高知県,高知市,福井町１１９２番地１,,39,201,7800965,,,,,,,2021-10-01,1,,,,,タクト,0
286,2010001221369,新規,0,2021-10-01,2021-10-01,株式会社ＥＹＬ,,株式会社,東京都,文京区,本駒込２丁目８番３号白山コーポビアネーズ１０５,,13,105,1130021,,,,,,,2021-10-01,1,,,,,エイル,0
287,2010001221435,新規,0,2021-10-01,2021-10-01,株式会社ｕｌｔ　Ａｄａｍ,,株式会社,東京都,中央区,銀座７丁目１３番６号サガミビル２階,,13,102,1040061,,,,,,,2021-10-01,1,,,,,ユーエルティーアダム,0
288,2010001221443,新規,0,2021-10-01,2021-10-01,株式会社ペプチリード,,株式会社,東京都,千代田区,丸の内１丁目１１番１号,,13,101,1000005,,,,,,,2021-10-01,1,,,,,ペプチリード,0
289,2010001221451,新規,0,2021-10-01,2021-10-01,千仞管財株式会社,,株式会社,東京都,文京区,湯島１丁目１２番６号,,13,105,1130034,,,,,,,2021-10-01,1,,,,,センジンカンザイ,0
290,2010001221468,新規,0,2021-10-01,2021-10-01,株式会社マングローブ,,株式会社,東京都,中央区,日本橋蛎殻町１丁目２８番４号,,13,102,1030014,,,,,,,2021-10-01,1,,,,,マングローブ,0
291,2010001221476,新規,0,2021-10-01,2021-10-01,Ｃｒｏｓｓ　Ｂｏｒｄｅｒ　Ｓｏｌｕｔｉｏｎｓ株式会社,,株式会社,東京都,千代田区,内幸町２丁目２番２号富国生命ビルヤンセン外国法事務弁護士事務所内,,13,101,1000011,,,,,,,2021-10-01,1,,,,,クロスボーダーソリューションズ,0
292,2010001221484,新規,0,2021-10-01,2021-10-01,株式会社ｎｅｕｒｏｎ　ｐｏｒｔ,,株式会社,東京都,中央区,日本橋兜町１７番２号兜町第６葉山ビル４階,,13,102,1030026,,,,,,,2021-10-01,1,,,,,ニューロンポート,0
293,2010001221492,新規,0,2021-10-01,2021-10-01,株式会社ラムス,,株式会社,東京都,千代田区,神田佐久間町３丁目２１番地６,,13,101,1010025,,,,,,,2021-10-01,1,,,,,ラムス,0
296,2010005034032,新規,0,2021-10-01,2021-10-01,一般社団法人シカゴ,,その他の設立登記法人,東京都,中央区,日本橋１丁目４番１号,,13,102,1030027,,,,,,,2021-10-01,1,,,,,シカゴ,0
297,2010103001768,新規,0,2021-10-01,2021-10-01,吉祥合同会社,,合同会社,東京都,八王子市,散田町４丁目１４－５,,13,201,1930832,,,,,,,2021-10-01,1,,,,,キチジョウ,0
302,2010401162923,新規,0,2021-10-01,2021-10-01,株式会社セジョンティ,,株式会社,東京都,港区,南青山２丁目１５番５号ＦＡＲＯ青山１階,,13,103,1070062,,,,,,,2021-10-01,1,,,,,セジョンティ,0
303,2010401162931,新規,0,2021-10-01,2021-10-01,株式会社リンク近未来研究所,,株式会社,東京都,港区,北青山２丁目１４番４号,,13,103,1070061,,,,,,,2021-10-01,1,,,,,リンクキンミライケンキュウジョ,0
308,2010501047883,新規,0,2021-10-01,2021-10-01,株式会社坂本税理士事務所,,株式会社,東京都,台東区,松が谷３丁目９番６号,,13,106,1110036,,,,,,,2021-10-01,1,,,,,サカモトゼイリシジムショ,0
315,2010703005961,新規,0,2021-10-01,2021-10-01,ＭＣＯＩＮＳ合同会社,,合同会社,東京都,品川区,荏原３丁目８番７号,,13,109,1420063,,,,,,,2021-10-01,1,,,,,エムコインズ,0
317,2010905004209,新規,0,2021-10-01,2021-10-01,一般社団法人Ｎｕｒｓｅ　ｆｏｒ　Ｎｕｒｓｅ,,その他の設立登記法人,東京都,世田谷区,野沢３丁目２８番１５号,,13,112,1540003,,,,,,,2021-10-01,1,,,,,ナースフォーナース,0
321,2011001143000,新規,0,2021-10-01,2021-10-01,株式会社マナティ,,株式会社,東京都,渋谷区,神宮前６丁目２３番４号桑野ビル２階,,13,113,1500001,,,,,,,2021-10-01,1,,,,,マナティ,0
322,2011001143108,新規,0,2021-10-01,2021-10-01,株式会社ＣＯＮＮＥＣＴ,,株式会社,東京都,渋谷区,南平台町１６番２８号Ｄａｉｗａ渋谷スクエア６階,,13,113,1500036,,,,,,,2021-10-01,1,,,,,コネクト,0
323,2011001143124,新規,0,2021-10-01,2021-10-01,株式会社ザイムワークス,,株式会社,東京都,渋谷区,広尾１丁目１番３５－４１２号,,13,113,1500012,,,,,,,2021-10-01,1,,,,,ザイムワークス,0
326,2011101096437,新規,0,2021-10-01,2021-10-01,株式会社ＰＯＰＣｈａｔ,,株式会社,東京都,新宿区,西新宿３丁目２番９号新宿ワシントンホテルビル本館２Ｆ,,13,104,1600023,,,,,,,2021-10-01,1,,,,,ポプシャ,0
327,2011201023282,新規,0,2021-10-01,2021-10-01,株式会社ディフェイ,,株式会社,東京都,中野区,中野２丁目４番７号,,13,114,1640001,,,,,,,2021-10-01,1,,,,,ディフェイ,0
331,2011203003646,新規,0,2021-10-01,2021-10-01,合同会社モトヨシ,,合同会社,東京都,中野区,弥生町１丁目５４－３オルバス西新宿４０１,,13,114,1640013,,,,,,,2021-10-01,1,,,,,モトヨシ,0
332,2011401023702,新規,0,2021-10-01,2021-10-01,株式会社ＫＵＲＵＭ,,株式会社,東京都,板橋区,西台４丁目４番３１－５０４号西台セントラルマンション,,13,119,1750045,,,,,,,2021-10-01,1,,,,,クルム,0
335,2011403003454,新規,0,2021-10-01,2021-10-01,ＳＫＹ合同会社,,合同会社,東京都,板橋区,成増２丁目２９番３－３０２号コーポトヨシマ,,13,119,1750094,,,,,,,2021-10-01,1,,,,,スカイ,0
337,2011501027347,新規,0,2021-10-01,2021-10-01,ＣｌｏｖｅｒＴｅｃｈ株式会社,,株式会社,東京都,荒川区,東日暮里６丁目５０番８－６０６号,,13,118,1160014,,,,,,,2021-10-01,1,,,,,クローバーテック,0
344,2011801039744,新規,0,2021-10-01,2021-10-01,株式会社ティー・エヌ,,株式会社,東京都,葛飾区,東立石４丁目４０番８号Ｂ３０６,,13,122,1240013,,,,,,,2021-10-01,1,,,,,,0
345,2012401038343,新規,0,2021-10-01,2021-10-01,ｍｉｔｔｅ株式会社,,株式会社,東京都,武蔵野市,八幡町３丁目２番２９号１０,,13,203,1800011,,,,,,,2021-10-01,1,,,,,ミッテ,0
346,2012403005028,新規,0,2021-10-01,2021-10-01,ＦＩＮＱＳ合同会社,,合同会社,東京都,武蔵野市,西久保２丁目５番１１号ブランイエブランアルファ２０２,,13,203,1800013,,,,,,,2021-10-01,1,,,,,フィンクス,0
350,2013303005836,新規,0,2021-10-01,2021-10-01,合同会社ネクストジャパン,,合同会社,東京都,豊島区,高田２丁目８番１６－４０４号,,13,116,1710033,,,,,,,2021-10-01,1,,,,,ネクストジャパン,0
358,2020003020561,新規,0,2021-10-01,2021-10-01,合同会社サンステアーズ,,合同会社,神奈川県,横浜市戸塚区,名瀬町７８２番地７２,,14,110,2450051,,,,,,,2021-10-01,1,,,,,サンステアーズ,0
363,2021001074070,新規,0,2021-10-01,2021-10-01,株式会社ｌｉｖｅ　ｈｏｎｅｓｔｙ,,株式会社,神奈川県,大和市,南林間２丁目１番２２号－１Ｆ,,14,213,2420006,,,,,,,2021-10-01,1,,,,,ライブオネスティ,0
377,2030001144535,新規,0,2021-10-01,2021-10-01,中野産業株式会社,,株式会社,埼玉県,川口市,江戸１丁目９番３１号,,11,203,3340074,,,,,,,2021-10-01,1,,,,,ナカノサンギョウ,0
378,2030001144551,新規,0,2021-10-01,2021-10-01,株式会社グリーンアース,,株式会社,埼玉県,北足立郡伊奈町,大字小室１３９２番地２,,11,301,3620806,,,,,,,2021-10-01,1,,,,,グリーンアース,0
383,2030003018051,新規,0,2021-10-01,2021-10-01,合同会社西原信之事務所,,合同会社,埼玉県,東松山市,日吉町１６番５号,,11,212,3550012,,,,,,,2021-10-01,1,,,,,ニシハラノブユキジムショ,0
391,2040001120295,新規,0,2021-10-01,2021-10-01,株式会社Ｍａｉｎｔｅｃｈ,,株式会社,千葉県,市川市,原木１丁目１番２９－１０１号ライオンズガーデン下総中山,,12,203,2720004,,,,,,,2021-10-01,1,,,,,メンテック,0
392,2040001120353,新規,0,2021-10-01,2021-10-01,株式会社流通物産,,株式会社,千葉県,松戸市,西馬橋３丁目３８番地の１０,,12,207,2710044,,,,,,,2021-10-01,1,,,,,リュウツウブッサン,0
397,2040003018645,新規,0,2021-10-01,2021-10-01,ＤＸＪ合同会社,,合同会社,千葉県,旭市,ハの２０番地３,,12,215,2892521,,,,,,,2021-10-01,1,,,,,ディーエックスジェイ,0
416,2090001017207,新規,0,2021-10-01,2021-10-01,株式会社いずみ薬局,,株式会社,山梨県,北杜市,大泉町谷戸２９７０番地６,,19,209,4091502,,,,,,,2021-10-01,1,,,,,イズミヤッキョク,0
420,2110001036071,新規,0,2021-10-01,2021-10-01,株式会社ａｎｄ．３,,株式会社,新潟県,長岡市,喜多町２９８３番地,,15,202,9402121,,,,,,,2021-10-01,1,,,,,アンドスリー,0
436,2120001240449,新規,0,2021-10-01,2021-10-01,ＮｏｎＦｕｎｇｉｂｌｅ株式会社,,株式会社,大阪府,大阪市北区,堂島１丁目５番２号フェザービル４階,,27,127,5300003,,,,,,,2021-10-01,1,,,,,ノンファンジブル,0
437,2120001240705,新規,0,2021-10-01,2021-10-01,株式会社ＲＥＰＡＩＲＬＩＴＹ,,株式会社,大阪府,大阪市中央区,西心斎橋２丁目１１番９号ＲＥ－０１１．４０３号室,,27,128,5420086,,,,,,,2021-10-01,1,,,,,リペアリティ,0
438,2120001240738,新規,0,2021-10-01,2021-10-01,株式会社栄信商事,,株式会社,大阪府,大阪市天王寺区,東高津町１０番４号ラナップスクエア上本町４０５号,,27,109,5430021,,,,,,,2021-10-01,1,,,,,エイシンショウジ,0
439,2120001240795,新規,0,2021-10-01,2021-10-01,株式会社イージス,,株式会社,大阪府,大阪市中央区,農人橋２丁目１番３５号,,27,128,5400011,,,,,,,2021-10-01,1,,,,,イージス,0
442,2120003020304,新規,0,2021-10-01,2021-10-01,合資会社ＫＳ－Ｏ２,,合資会社,大阪府,枚方市,大垣内町１丁目６番１１号,,27,210,5730027,,,,,,,2021-10-01,1,,,,,ケイエスオーツー,0
445,2120101064351,新規,0,2021-10-01,2021-10-01,株式会社クレールポート,,株式会社,大阪府,堺市北区,百舌鳥梅北町５丁２７０番地５メイオブホーム１０２号,,27,146,5918031,,,,,,,2021-10-01,1,,,,,クレールポート,0
446,2120101064376,新規,0,2021-10-01,2021-10-01,ＡＢＳ．Ｉｎｔｅｒｎａｔｉｏｎａｌ株式会社,,株式会社,大阪府,堺市堺区,新在家町東１丁１番２８号セントラルフォート堺ビル３０１,,27,141,5900964,,,,,,,2021-10-01,1,,,,,エビスインターナショナル,0
463,2140001123206,新規,0,2021-10-01,2021-10-01,株式会社大和,,株式会社,兵庫県,姫路市,安富町長野３８８番地９アピアやすとみ３１９,,28,201,6712421,,,,,,,2021-10-01,1,,,,,ヤマト,0
468,2150001024964,新規,0,2021-10-01,2021-10-01,株式会社ＣＯＭＡＲＵ,,株式会社,奈良県,天理市,二階堂上ノ庄町１７番地４,,29,204,6320081,,,,,,,2021-10-01,1,,,,,コマル,0
471,2170003001638,新規,0,2021-10-01,2021-10-01,合同会社なごみ,,合同会社,和歌山県,岩出市,中黒４３７番地２Ｆ,,30,209,6496248,,,,,,,2021-10-01,1,,,,,ナゴミ,0
487,2180001147993,新規,0,2021-10-01,2021-10-01,武志株式会社,,株式会社,愛知県,清須市,春日落合６９７番地,,23,233,4520961,,,,,,,2021-10-01,1,,,,,ブシ,0
498,2200001039197,新規,0,2021-10-01,2021-10-01,株式会社良友工務店,,株式会社,岐阜県,大垣市,加賀野５丁目３４番地１１,,21,202,5030006,,,,,,,2021-10-01,1,,,,,リョウユウコウムテン,0
502,2200005013256,新規,0,2021-10-01,2021-10-01,一般社団法人わかおホールディングス,,その他の設立登記法人,岐阜県,美濃加茂市,あじさいヶ丘１丁目７番地,,21,211,5050029,,,,,,,2021-10-01,1,,,,,ワカオホールディングス,0
503,2220003003125,新規,0,2021-10-01,2021-10-01,農業法人フラッグシップファーム合同会社,,合同会社,石川県,七尾市,中島町中島７部９２番地,,17,202,9292222,,,,,,,2021-10-01,1,,,,,ノウギョウホウジンフラッグシップファーム,0
505,2230001019007,新規,0,2021-10-01,2021-10-01,ＬＡＢＴＥＣＨＳ株式会社,,株式会社,富山県,富山市,西荒屋２１８番地Ｄ－ｒｏｏｍ西荒屋Ａ２０３号,,16,201,9398251,,,,,,,2021-10-01,1,,,,,ラボテクス,0
509,2240001058656,新規,0,2021-10-01,2021-10-01,ＲＩＳＩＮＧ株式会社,,株式会社,広島県,広島市安芸区,中野４丁目１７番１２－４号,,34,107,7390321,,,,,,,2021-10-01,1,,,,,ライジング,0
513,2250001019153,新規,0,2021-10-01,2021-10-01,株式会社尚輝堂,,株式会社,山口県,下関市,伊倉新町３丁目６番４１号,,35,201,7510869,,,,,,,2021-10-01,1,,,,,ショウキドウ,0
515,2250003002909,新規,0,2021-10-01,2021-10-01,合同会社エムケーエフ,,合同会社,山口県,宇部市,大字東須恵２９４６番地の７,,35,202,7590206,,,,,,,2021-10-01,1,,,,,エムケーエフ,0
516,2260001036016,新規,0,2021-10-01,2021-10-01,株式会社Ｌｏｃａｌｓ　Ｍａｒｋｅｔ,,株式会社,岡山県,岡山市北区,出石町１丁目７番７号,,33,101,7000812,,,,,,,2021-10-01,1,,,,,ローカルズマーケット,0
529,2290001094795,新規,0,2021-10-01,2021-10-01,株式会社Ｗｉｓｄｏｍ,,株式会社,福岡県,太宰府市,水城４丁目３０番１４号,,40,221,8180131,,,,,,,2021-10-01,1,,,,,ウィズダム,0
532,2290005018354,新規,0,2021-10-01,2021-10-01,淨樂寺,,その他の設立登記法人,福岡県,久留米市,野中町１７番１３号,,40,203,8390862,,,,,,,2021-10-01,1,,,,,ジョウラクジ,0
542,2340001024128,新規,0,2021-10-01,2021-10-01,株式会社ＳＡＲＡ,,株式会社,鹿児島県,鹿屋市,笠之原町１４６２番地１,,46,203,8930023,,,,,,,2021-10-01,1,,,,,サラ,0
544,2340005009331,新規,0,2021-10-01,2021-10-01,一般社団法人マナ美腸活協会,,その他の設立登記法人,鹿児島県,鹿児島市,紫原５丁目１番１号,,46,201,8900082,,,,,,,2021-10-01,1,,,,,マナビチョウカツキョウカイ,0
554,2360003011436,新規,0,2021-10-01,2021-10-01,合同会社コモンズやんばる,,合同会社,沖縄県,国頭郡東村,字高江８５番地９５,,47,303,9051201,,,,,,,2021-10-01,1,,,,,コモンズヤンバル,0
568,2400001015616,新規,0,2021-10-01,2021-10-01,株式会社佐々木モーターサービス,,株式会社,岩手県,盛岡市,北松園１丁目１５番１２号,,03,201,0200105,,,,,,,2021-10-01,1,,,,,ササキモーターサービス,0
573,2430001085053,新規,0,2021-10-01,2021-10-01,株式会社ＭＯＮＯ,,株式会社,北海道,室蘭市,日の出町２丁目３番１号,,01,205,0500081,,,,,,,2021-10-01,1,,,,,モノ,0
574,2430001085061,新規,0,2021-10-01,2021-10-01,株式会社山田設備,,株式会社,北海道,札幌市豊平区,平岸三条９丁目７番１３号,,01,105,0620933,,,,,,,2021-10-01,1,,,,,ヤマダセツビ,0
578,2430003013193,新規,0,2021-10-01,2021-10-01,合同会社グリアーツクリエイト,,合同会社,北海道,岩見沢市,春日町４丁目３番７号,,01,210,0680827,,,,,,,2021-10-01,1,,,,,グリアーツクリエイト,0
584,2462503000197,新規,0,2021-10-01,2021-10-01,合同会社まおぽぽ,,合同会社,北海道,標津郡標津町,北六条西１丁目１番２３号,,01,693,0861636,,,,,,,2021-10-01,1,,,,,マオポポ,0
585,2470003002044,新規,0,2021-10-01,2021-10-01,合同会社ＭＭ企画,,合同会社,香川県,高松市,松島町２丁目１３番３１号,,37,201,7600068,,,,,,,2021-10-01,1,,,,,エムエムキカク,0
597,3010001221450,新規,0,2021-10-01,2021-10-01,アイボウ株式会社,,株式会社,東京都,中央区,銀座１丁目２２番１１号銀座大竹ビジデンス２階,,13,102,1040061,,,,,,,2021-10-01,1,,,,,アイボウ,0
598,3010001221467,新規,0,2021-10-01,2021-10-01,株式会社ＫＴＣ,,株式会社,東京都,中央区,勝どき１丁目１番１－１４２１号,,13,102,1040054,,,,,,,2021-10-01,1,,,,,ケイティーシー,0
599,3010001221475,新規,0,2021-10-01,2021-10-01,株式会社レイズラボ,,株式会社,東京都,千代田区,神田錦町２丁目２番１号,,13,101,1010054,,,,,,,2021-10-01,1,,,,,レイズラボ,0
600,3010001221483,新規,0,2021-10-01,2021-10-01,東方晶源株式会社,,株式会社,東京都,文京区,小石川４丁目３番１－４０１号,,13,105,1120002,,,,,,,2021-10-01,1,,,,,トウホウショウゲン,0
603,3010003035931,新規,0,2021-10-01,2021-10-01,オブトンジャパン合同会社,,合同会社,東京都,千代田区,内神田２丁目２番６号５階あすな会計事務所内,,13,101,1010047,,,,,,,2021-10-01,1,,,,,オブトンジャパン,0
604,3010003035948,新規,0,2021-10-01,2021-10-01,合同会社ＦＩＶＥ,,合同会社,東京都,中央区,京橋２丁目８－２１仁大ビル,,13,102,1040031,,,,,,,2021-10-01,1,,,,,ファイブ,0
605,3010005034023,新規,0,2021-10-01,2021-10-01,大和ハウス寒川開発特定目的会社,,その他の設立登記法人,東京都,千代田区,飯田橋４丁目７番１号結和税理士法人内,,13,101,1020072,,,,,,,2021-10-01,1,,,,,ダイワハウスサムカワカイハツ,0
609,3010401162914,新規,0,2021-10-01,2021-10-01,株式会社六本木管理二号,,株式会社,東京都,港区,六本木３丁目２番１号,,13,103,1060032,,,,,,,2021-10-01,1,,,,,ロッポンギカンリニゴウ,0
610,3010401162930,新規,0,2021-10-01,2021-10-01,Ｎｅｖｉｇａｔｅ　Ｇｌｏｂａｌ　Ｎｅｔｗｏｒｋ　Ｊａｐａｎ株式会社,,株式会社,東京都,港区,元麻布３丁目１番６号,,13,103,1060046,,,,,,,2021-10-01,1,,,,,ネヴィゲートグローバルネットワークジャパン,0
611,3010401162988,新規,0,2021-10-01,2021-10-01,Ｐｉｏｎｙ株式会社,,株式会社,東京都,港区,麻布台３丁目４－１２,,13,103,1060041,,,,,,,2021-10-01,1,,,,,ピオニー,0
618,3010403026217,新規,0,2021-10-01,2021-10-01,合同会社Ｍ・Ｉ・Ｃ,,合同会社,東京都,港区,芝４丁目７番６号,,13,103,1080014,,,,,,,2021-10-01,1,,,,,エムアイシー,0
619,3010403026225,新規,0,2021-10-01,2021-10-01,合同会社Ａｉｒ２,,合同会社,東京都,港区,南青山２丁目２番１５号,,13,103,1070062,,,,,,,2021-10-01,1,,,,,エアーツー,0
629,3010801032361,新規,0,2021-10-01,2021-10-01,株式会社Ｊｏｌｉｙｅｎ,,株式会社,東京都,大田区,西糀谷３丁目１１番２２号,,13,111,1440034,,,,,,,2021-10-01,1,,,,,ジョリエン,0
636,3011001142884,新規,0,2021-10-01,2021-10-01,株式会社エッグスクール,,株式会社,東京都,渋谷区,富ヶ谷１丁目１４－１４スタンフォードアネックスビル３Ｆ,,13,113,1510063,,,,,,,2021-10-01,1,,,,,エッグスクール,0
637,3011001143016,新規,0,2021-10-01,2021-10-01,株式会社ＡＩＭ,,株式会社,東京都,渋谷区,神宮前６丁目２３番４号桑野ビル２階,,13,113,1500001,,,,,,,2021-10-01,1,,,,,エイム,0
638,3011001143123,新規,0,2021-10-01,2021-10-01,株式会社キシタデザイン,,株式会社,東京都,目黒区,東山２丁目７番５号,,13,110,1530043,,,,,,,2021-10-01,1,,,,,キシタデザイン,0
639,3011001143172,新規,0,2021-10-01,2021-10-01,ＮＥＸＴライフデザイン株式会社,,株式会社,東京都,渋谷区,神宮前６丁目２８番９号東武ビル６階,,13,113,1500001,,,,,,,2021-10-01,1,,,,,ネクストライフデザイン,0
646,3011201023281,新規,0,2021-10-01,2021-10-01,株式会社ヴァリアス,,株式会社,東京都,中野区,南台５丁目５番１１号,,13,114,1640014,,,,,,,2021-10-01,1,,,,,ヴァリアス,0
650,3011501027346,新規,0,2021-10-01,2021-10-01,株式会社隅内塗工所,,株式会社,東京都,荒川区,西日暮里６丁目６４番１号,,13,118,1160013,,,,,,,2021-10-01,1,,,,,スミウチトコウジョ,0
657,3011801039751,新規,0,2021-10-01,2021-10-01,株式会社ＫＡＲＶＡＮ,,株式会社,東京都,足立区,新田３丁目３７番１１－５１７号,,13,121,1230865,,,,,,,2021-10-01,1,,,,,カルワン,0
667,3012703002319,新規,0,2021-10-01,2021-10-01,Ｗｅｓｔ　Ｔｏｋｙｏ　Ｂｒｅｗｉｎｇ合同会社,,合同会社,東京都,西東京市,谷戸町１丁目２３番７号,,13,229,1880001,,,,,,,2021-10-01,1,,,,,ウエストトウキョウブリューイング,0
669,3012803002615,新規,0,2021-10-01,2021-10-01,合同会社Ｉ－ＦＵＮＤ,,合同会社,東京都,昭島市,昭和町２丁目２番１５号タウンベルハイツ３０４号室,,13,207,1960015,,,,,,,2021-10-01,1,,,,,アイファンド,0
678,3020001143207,新規,0,2021-10-01,2021-10-01,株式会社鉄班,,株式会社,神奈川県,川崎市多摩区,登戸１８３１番地１,,14,135,2140014,,,,,,,2021-10-01,1,,,,,テッパン,0
686,3020003020560,新規,0,2021-10-01,2021-10-01,合同会社Ｋ２Ｏシステム,,合同会社,神奈川県,横浜市泉区,中田南３丁目２０番３号,,14,116,2450014,,,,,,,2021-10-01,1,,,,,ケイツーオーシステム,0
691,3021001074061,新規,0,2021-10-01,2021-10-01,株式会社グッドライン,,株式会社,神奈川県,厚木市,松枝１丁目４番４号,,14,212,2430005,,,,,,,2021-10-01,1,,,,,グッドライン,0
705,3030001144542,新規,0,2021-10-01,2021-10-01,株式会社グレイスホーム,,株式会社,埼玉県,さいたま市大宮区,宮町２丁目７１番地１,,11,103,3300802,,,,,,,2021-10-01,1,,,,,グレイスホーム,0
706,3030001144550,新規,0,2021-10-01,2021-10-01,株式会社ＧＮオートプロジェクト,,株式会社,埼玉県,上尾市,西宮下３丁目１０６番地,,11,219,3620043,,,,,,,2021-10-01,1,,,,,ジーエヌオートプロジェクト,0
707,3030001144559,新規,0,2021-10-01,2021-10-01,株式会社ネクストニューメリック,,株式会社,埼玉県,さいたま市西区,三橋６丁目４４４番地６,,11,101,3310052,,,,,,,2021-10-01,1,,,,,ネクストニューメリック,0
708,3030001144567,新規,0,2021-10-01,2021-10-01,株式会社ご縁,,株式会社,埼玉県,富士見市,水谷２丁目１番地１,,11,235,3540014,,,,,,,2021-10-01,1,,,,,ゴエン,0
709,3030001144575,新規,0,2021-10-01,2021-10-01,株式会社オートリフト,,株式会社,埼玉県,川口市,西青木５丁目１番２４号,,11,203,3320035,,,,,,,2021-10-01,1,,,,,オートリフト,0
714,3030003018042,新規,0,2021-10-01,2021-10-01,ＴＭＳイーツ合同会社,,合同会社,埼玉県,北足立郡伊奈町,寿２丁目２９８番地,,11,301,3620807,,,,,,,2021-10-01,1,,,,,ティーエムエスイーツ,0
715,3030003018050,新規,0,2021-10-01,2021-10-01,合同会社ＫＩＮＤ,,合同会社,埼玉県,桶川市,下日出谷東１丁目５番地の１グランディールボワⅡ－３０６号,00124406,11,231,3630029,,,,,,,2021-10-01,1,,,,,カインド,0
736,3080401025362,新規,0,2021-10-01,2021-10-01,株式会社Ａｇｏｇ,,株式会社,静岡県,菊川市,本所１４４０番地の１６,,22,224,4390018,,,,,,,2021-10-01,1,,,,,アゴッグ,0
737,3080403004372,新規,0,2021-10-01,2021-10-01,柴田建設合同会社,,合同会社,静岡県,袋井市,山科３５００番地の１,,22,216,4370066,,,,,,,2021-10-01,1,,,,,シバタケンセツ,0
739,3090005007434,新規,0,2021-10-01,2021-10-01,一般社団法人地元愛発電所,,その他の設立登記法人,山梨県,富士吉田市,下吉田３丁目３５番１８号,,19,202,4030004,,,,,,,2021-10-01,1,,,,,ジモトアイハツデンショ,0
742,3100005012770,新規,0,2021-10-01,2021-10-01,一般社団法人木の芽,,その他の設立登記法人,長野県,下伊那郡売木村,１３０９番地,,20,412,3991601,,,,,,,2021-10-01,1,,,,,キノメ,0
762,3120001240712,新規,0,2021-10-01,2021-10-01,株式会社ＤＥＲＩＶＥ,,株式会社,大阪府,大阪市港区,夕凪２丁目１７番５－２０５,,27,107,5520004,,,,,,,2021-10-01,1,,,,,ディライブ,0
768,3120003020303,新規,0,2021-10-01,2021-10-01,合同会社春南,,合同会社,大阪府,大阪市西成区,鶴見橋２丁目８番４号,,27,122,5570031,,,,,,,2021-10-01,1,,,,,ハルナ,0
773,3120101064375,新規,0,2021-10-01,2021-10-01,株式会社ライタスクリエイト,,株式会社,大阪府,和泉市,府中町１丁目２３番１号ニシノビル２０１,,27,219,5940071,,,,,,,2021-10-01,1,,,,,ライタスクリエイト,0
774,3120101064383,新規,0,2021-10-01,2021-10-01,株式会社Ｔ’ｓランドリー,,株式会社,大阪府,泉佐野市,鶴原２０３番地,,27,213,5980071,,,,,,,2021-10-01,1,,,,,ティーズランドリー,0
780,3130001070183,新規,0,2021-10-01,2021-10-01,ナイスライフ株式会社,,株式会社,京都府,長岡京市,うぐいす台１６３番地５,,26,209,6170815,,,,,,,2021-10-01,1,,,,,ナイスライフ,0
782,3130003007514,新規,0,2021-10-01,2021-10-01,合同会社サクシア,,合同会社,京都府,相楽郡精華町,光台４丁目３１番地１,,26,366,6190237,,,,,,,2021-10-01,1,,,,,サクシア,0
786,3140001123196,新規,0,2021-10-01,2021-10-01,株式会社Ｇｌｏｗ　Ｕｐ　Ｓｔａｇｅ,,株式会社,兵庫県,尼崎市,南城内３番地の８,,28,202,6600825,,,,,,,2021-10-01,1,,,,,グローアップステージ,0
791,3140003016794,新規,0,2021-10-01,2021-10-01,アインズグロウ合同会社,,合同会社,兵庫県,神戸市兵庫区,新開地１丁目１－８,,28,105,6520811,,,,,,,2021-10-01,1,,,,,アインズグロウ,0
792,3140003016811,新規,0,2021-10-01,2021-10-01,Ｐｌｕｓ　ｃｏｃｏ合同会社,,合同会社,兵庫県,神戸市灘区,篠原北町２丁目２番９号５０１,,28,102,6570068,,,,,,,2021-10-01,1,,,,,プラスココ,0
794,3140005025835,新規,0,2021-10-01,2021-10-01,特定非営利活動法人兵庫ＨＵＮＴＩＮＧ　ＭＡＳＴＥＲ倶楽部,,その他の設立登記法人,兵庫県,神戸市西区,上新地１丁目３番地の１３,,28,111,6512411,,,,,,,2021-10-01,1,,,,,ヒョウゴハンティングマスタークラブ,0
805,3180001148000,新規,0,2021-10-01,2021-10-01,株式会社エスワイニード,,株式会社,愛知県,名古屋市中川区,江松４丁目１３０２番地の９,,23,110,4540954,,,,,,,2021-10-01,1,,,,,エスワイニード,0
806,3180001148009,新規,0,2021-10-01,2021-10-01,株式会社はるひメディカルサービス,,株式会社,愛知県,北名古屋市,熊之庄古井７１番地２,,23,234,4810006,,,,,,,2021-10-01,1,,,,,ハルヒメディカルサービス,0
819,3210005009987,新規,0,2021-10-01,2021-10-01,社会保険労務士法人ｓａｉ．,,その他の設立登記法人,福井県,坂井市,三国町楽円５３号１２番地１８,,18,210,9130021,,,,,,,2021-10-01,1,,,,,サイ,0
820,3220001024444,新規,0,2021-10-01,2021-10-01,北彰工業株式会社,,株式会社,石川県,金沢市,割出町７６番地,,17,201,9200062,,,,,,,2021-10-01,1,,,,,ホクショウコウギョウ,0
823,3230001019006,新規,0,2021-10-01,2021-10-01,宇多鉄工株式会社,,株式会社,富山県,富山市,町袋８０６番地,,16,201,9318423,,,,,,,2021-10-01,1,,,,,ウダテッコウ,0
825,3240001058655,新規,0,2021-10-01,2021-10-01,株式会社Ｙ－ｐｒｏｍｏｔｉｏｎ,,株式会社,広島県,広島市中区,江波南３丁目１２番２０号,,34,101,7300835,,,,,,,2021-10-01,1,,,,,ワイプロモーション,0
829,3250005008688,新規,0,2021-10-01,2021-10-01,一般社団法人山口県地域リハビリテーション支援団体,,その他の設立登記法人,山口県,宇部市,今村北２丁目５番１２号,,35,202,7550155,,,,,,,2021-10-01,1,,,,,ヤマグチケンチイキリハビリテーションシエンダンタイ,0
834,3270001008368,新規,0,2021-10-01,2021-10-01,株式会社ＬＡ　ＦＩＴＡ,,株式会社,鳥取県,八頭郡八頭町,見槻中１５４番地２,,31,329,6800404,,,,,,,2021-10-01,1,,,,,ラフィータ,0
835,3280001008516,新規,0,2021-10-01,2021-10-01,株式会社Ｋｏｔｏｒｉｅ,,株式会社,島根県,益田市,あけぼの本町１１番地１,,32,204,6980026,,,,,,,2021-10-01,1,,,,,コトリエ,0
842,3290003011673,新規,0,2021-10-01,2021-10-01,ＭＫＪ合同会社,,合同会社,福岡県,福岡市中央区,天神２丁目３番３６号ｉｂｂ　ｆｕｋｕｏｋａ５Ｆ,,40,133,8100001,,,,,,,2021-10-01,1,,,,,エムケイジェイ,0
847,3300001012639,新規,0,2021-10-01,2021-10-01,有明資材株式会社,,株式会社,佐賀県,杵島郡白石町,大字牛屋１６９７番地１,,41,425,8491201,,,,,,,2021-10-01,1,,,,,アリアケシザイ,0
854,3330003009060,新規,0,2021-10-01,2021-10-01,合同会社ばんさい,,合同会社,熊本県,熊本市東区,錦ケ丘９番１８－２０２号,,43,102,8620912,,,,,,,2021-10-01,1,,,,,バンサイ,0
859,3360001029446,新規,0,2021-10-01,2021-10-01,株式会社ＴＲＡＹＤ　ＩＮＮＯＶＡＴＩＯＮ,,株式会社,沖縄県,沖縄市,高原１丁目７番４０号,,47,211,9042171,,,,,,,2021-10-01,1,,,,,トライドイノベーション,0
862,3370001047637,新規,0,2021-10-01,2021-10-01,株式会社Ｇｒｉｐ－ＣＰ,,株式会社,宮城県,仙台市宮城野区,榴岡４丁目１３－１５桜ヒルズ仙台榴岡７０６,,04,102,9830852,,,,,,,2021-10-01,1,,,,,グリップシーピー,0
885,3410005006428,新規,0,2021-10-01,2021-10-01,農事組合法人いでかわ中央,,その他の設立登記法人,秋田県,仙北郡美郷町,金沢字中野際１８０番地,,05,434,0191302,,,,,,,2021-10-01,1,,,,,イデカワチュウオウ,0
890,3430001085060,新規,0,2021-10-01,2021-10-01,株式会社グラフィックアカデミー,,株式会社,北海道,札幌市中央区,南三条西５丁目１番地１,,01,101,0600063,,,,,,,2021-10-01,1,,,,,グラフィックアカデミー,0
896,3460105002223,新規,0,2021-10-01,2021-10-01,一般社団法人帯広サドベリーの風,,その他の設立登記法人,北海道,帯広市,大正町４４１番地１３,,01,207,0891242,,,,,,,2021-10-01,1,,,,,オビヒロサドベリーノカゼ,0
897,3470001018735,新規,0,2021-10-01,2021-10-01,株式会社ＩＯＬコネクト,,株式会社,香川県,高松市,高松町１２８６番地７,,37,201,7610104,,,,,,,2021-10-01,1,,,,,アイオーエルコネクト,0
900,3490001009996,新規,0,2021-10-01,2021-10-01,株式会社ＫＣ,,株式会社,高知県,高知市,春野町南ケ丘６丁目８番地７,,39,201,7810314,,,,,,,2021-10-01,1,,,,,ケーシー,0
901,3490001010005,新規,0,2021-10-01,2021-10-01,株式会社鯛の鯛,,株式会社,高知県,高知市,はりまや町３丁目１３番１３号広瀬ビル１Ｆ,,39,201,7800822,,,,,,,2021-10-01,1,,,,,タイノタイ,0
903,3490005006800,新規,0,2021-10-01,2021-10-01,一般社団法人高知県スポーツコミッション,,その他の設立登記法人,高知県,高知市,春野町東諸木３５２４番地,,39,201,7810315,,,,,,,2021-10-01,1,,,,,コウチケンスポーツコミッション,0
912,3700150104270,新規,0,2021-10-01,2021-08-04,眼鏡技術者国家資格推進機構,,その他,東京都,中央区,日本橋３丁目１３－１１,,13,102,1030027,,,,,,,2021-08-04,1,,,,,ガンキヨウギジユツシヤコツカシカクスイシンキコウ,0
921,4010001221441,新規,0,2021-10-01,2021-10-01,株式会社レインカネイト,,株式会社,東京都,中央区,銀座５丁目１５－１南海東京ビルディングＢ１,,13,102,1040061,,,,,,,2021-10-01,1,,,,,レインカネイト,0
922,4010001221466,新規,0,2021-10-01,2021-10-01,Ｍ３ｃ株式会社,,株式会社,東京都,中央区,日本橋茅場町２丁目１７番６号,,13,102,1030025,,,,,,,2021-10-01,1,,,,,エムスリーシー,0
923,4010001221474,新規,0,2021-10-01,2021-10-01,５Ｐ　ＷＯＲＬＤ　ＨＶ株式会社,,株式会社,東京都,中央区,築地４丁目１番１２－２０７号,,13,102,1040045,,,,,,,2021-10-01,1,,,,,ファイブピーワールドエイチブイ,0
924,4010001221482,新規,0,2021-10-01,2021-10-01,株式会社Ｈ＆Ｆ,,株式会社,東京都,中央区,晴海３丁目１３番１－３００９号,,13,102,1040053,,,,,,,2021-10-01,1,,,,,エイチアンドエフ,0
927,4010005034022,新規,0,2021-10-01,2021-10-01,ＤＰＬ開発２特定目的会社,,その他の設立登記法人,東京都,千代田区,飯田橋４丁目７番１号結和税理士法人内,,13,101,1020072,,,,,,,2021-10-01,1,,,,,ディーピーエルカイハツツー,0
935,4010401162946,新規,0,2021-10-01,2021-10-01,株式会社ファースト・ポジション,,株式会社,東京都,港区,新橋３丁目１８番７号２階,,13,103,1050004,,,,,,,2021-10-01,1,,,,,ファーストポジション,0
938,4010403026216,新規,0,2021-10-01,2021-10-01,合同会社赤坂檜町建物,,合同会社,東京都,港区,赤坂９丁目１番２号,,13,103,1070052,,,,,,,2021-10-01,1,,,,,アカサカヒノキチョウタテモノ,0
939,4010403026232,新規,0,2021-10-01,2021-10-01,Ｇｒｅｅｎｌａｐ合同会社,,合同会社,東京都,港区,浜松町２丁目２－１５,,13,103,1050013,,,,,,,2021-10-01,1,,,,,グリーンラップ,0
941,4010601060009,新規,0,2021-10-01,2021-10-01,株式会社ＰＬＡＹＥＲＳ　ＯＮ　ＤＥＣＫ,,株式会社,東京都,江東区,豊洲３丁目５番２１号,,13,108,1350061,,,,,,,2021-10-01,1,,,,,プレイヤーズオンデック,0
942,4010603009177,新規,0,2021-10-01,2021-10-01,合同会社キートスタックジャパン,,合同会社,東京都,江東区,豊洲２丁目５番１－４３１２号,,13,108,1350061,,,,,,,2021-10-01,1,,,,,キートスタックジャパン,0
946,4010701041585,新規,0,2021-10-01,2021-10-01,株式会社ＴＫＴ,,株式会社,東京都,品川区,東五反田１丁目１６番１１号５階,,13,109,1410022,,,,,,,2021-10-01,1,,,,,ティーケーティー,0
948,4010801032360,新規,0,2021-10-01,2021-10-01,株式会社Ｍ‐Ｐｒｏｓ,,株式会社,東京都,大田区,池上６丁目４１番７号,,13,111,1460082,,,,,,,2021-10-01,1,,,,,エムプロス,0
951,4010903006840,新規,0,2021-10-01,2021-10-01,合同会社プラットフォーム,,合同会社,東京都,世田谷区,北烏山６丁目５－３,,13,112,1570061,,,,,,,2021-10-01,1,,,,,プラットフォーム,0
958,4011001142999,新規,0,2021-10-01,2021-10-01,株式会社エコグリ,,株式会社,東京都,渋谷区,神宮前６丁目２３番４号桑野ビル２階,,13,113,1500001,,,,,,,2021-10-01,1,,,,,エコグリ,0
960,4011101096435,新規,0,2021-10-01,2021-10-01,株式会社Ｅｍｍａ,,株式会社,東京都,新宿区,市谷仲之町４－８ＡＲＫＨＯＵＳＥ市谷仲之町２０２,,13,104,1620064,,,,,,,2021-10-01,1,,,,,エマ,0
962,4011103011045,新規,0,2021-10-01,2021-10-01,飛鳥合同会社,,合同会社,東京都,新宿区,百人町２丁目１０番９号－４０３号室,,13,104,1690073,,,,,,,2021-10-01,1,,,,,アスカ,0
964,4011205002454,新規,0,2021-10-01,2021-10-01,一般社団法人ポーカーマトリックスジャパン,,その他の設立登記法人,東京都,中野区,中央２丁目２番３５号３階,,13,114,1640011,,,,,,,2021-10-01,1,,,,,ポーカーマトリックスジャパン,0
970,4011501027345,新規,0,2021-10-01,2021-10-01,株式会社川又,,株式会社,東京都,荒川区,東日暮里５丁目２２番６号,,13,118,1160014,,,,,,,2021-10-01,1,,,,,カワマタ,0
972,4011503004912,新規,0,2021-10-01,2021-10-01,合同会社Ｕｈｒ,,合同会社,東京都,荒川区,東日暮里５丁目４５－１０能美ビル６０２,,13,118,1160014,,,,,,,2021-10-01,1,,,,,ウーア,0
974,4011703002947,新規,0,2021-10-01,2021-10-01,合同会社スリースターズ,,合同会社,東京都,江戸川区,篠崎町１丁目２８の３,,13,123,1330061,,,,,,,2021-10-01,1,,,,,スリースターズ,0
975,4012402012460,新規,0,2021-10-01,2021-10-01,有限会社本間商店,,有限会社,東京都,調布市,富士見町２丁目１０番地３２,,13,208,1820033,,,,,,,2021-10-01,1,,,,,ホンマショウテン,0
990,4020001143230,新規,0,2021-10-01,2021-10-01,イノベーションエッジ株式会社,,株式会社,神奈川県,横浜市神奈川区,新浦島町２丁目２番１号,,14,102,2210031,,,,,,,2021-10-01,1,,,,,イノベーションエッジ,0
991,4020001143247,新規,0,2021-10-01,2021-10-01,株式会社ホームスト,,株式会社,神奈川県,横浜市戸塚区,東俣野町９６８番地１４,,14,110,2450065,,,,,,,2021-10-01,1,,,,,ホームスト,0
1003,4021003010939,新規,0,2021-10-01,2021-10-01,ＷＡＴ－ＳＯＮ合同会社,,合同会社,神奈川県,鎌倉市,小町１丁目１５番２号,,14,204,2480006,,,,,,,2021-10-01,1,,,,,ワトソン,0
1008,4030001144541,新規,0,2021-10-01,2021-10-01,株式会社ＨａｍａＫｅｎ,,株式会社,埼玉県,所沢市,大字山口２５４６番地の１２,,11,208,3591145,,,,,,,2021-10-01,1,,,,,ハマケン,0
1009,4030001144590,新規,0,2021-10-01,2021-10-01,株式会社エルフィールド,,株式会社,埼玉県,富士見市,ふじみ野東２丁目９－１ルーチェ１０６,,11,235,3540036,,,,,,,2021-10-01,1,,,,,エルフィールド,0
1024,4040001120351,新規,0,2021-10-01,2021-10-01,株式会社グラニット,,株式会社,千葉県,木更津市,太田２丁目１１番２０号,,12,206,2920044,,,,,,,2021-10-01,1,,,,,グラニット,0
1029,4040003018635,新規,0,2021-10-01,2021-10-01,テムズ合同会社,,合同会社,千葉県,浦安市,日の出６丁目２０番４号,,12,227,2790013,,,,,,,2021-10-01,1,,,,,テムズ,0
1031,4050001049895,新規,0,2021-10-01,2021-10-01,株式会社ＪｕｓｔｉｃｅＪａｃｋｓｏｎ,,株式会社,茨城県,つくば市,学園の森３丁目２０番地１ＭｅｅＴｏｃｏＮ１階Ｅ号室,,08,220,3050816,,,,,,,2021-10-01,1,,,,,ジャスティスジャクソン,0
1037,4070001038467,新規,0,2021-10-01,2021-10-01,株式会社Ｒｉｓｅ,,株式会社,群馬県,太田市,八幡町４０番１６号,,10,205,3730056,,,,,,,2021-10-01,1,,,,,ライズ,0
1040,4080101022766,新規,0,2021-10-01,2021-10-01,株式会社富士土建,,株式会社,静岡県,伊東市,松原本町１０番１２号,,22,208,4140021,,,,,,,2021-10-01,1,,,,,フジドケン,0
1041,4080101022790,新規,0,2021-10-01,2021-10-01,株式会社ネクストニュートンズ,,株式会社,静岡県,沼津市,原６５５番地の４４,,22,203,4100312,,,,,,,2021-10-01,1,,,,,ネクストニュートンズ,0
1048,4110001036061,新規,0,2021-10-01,2021-10-01,株式会社新潟デザイン＆キャピタル,,株式会社,新潟県,新潟市中央区,天神１丁目１番地,,15,103,9500917,,,,,,,2021-10-01,1,,,,,ニイガタデザインアンドキャピタル,0
1067,4120001240810,新規,0,2021-10-01,2021-10-01,株式会社ウリケアセンター,,株式会社,大阪府,大阪市生野区,新今里３丁目８番１４号,,27,116,5440001,,,,,,,2021-10-01,1,,,,,ウリケアセンター,0
1074,4120101064374,新規,0,2021-10-01,2021-10-01,株式会社人生謳歌塾,,株式会社,大阪府,堺市南区,三原台２丁６番３号,,27,145,5900111,,,,,,,2021-10-01,1,,,,,ジンセイオウカジュク,0
1075,4120101064382,新規,0,2021-10-01,2021-10-01,株式会社ｍｏｃｏｌａ,,株式会社,大阪府,堺市中区,東山４７９番地４牛根ビル２０１号,,27,142,5998247,,,,,,,2021-10-01,1,,,,,モコラ,0
1084,4122001035216,新規,0,2021-10-01,2021-10-01,株式会社山本テクノス,,株式会社,大阪府,東大阪市,高井田西３丁目５番４号,,27,227,5770067,,,,,,,2021-10-01,1,,,,,ヤマモトテクノス,0
1088,4130001070182,新規,0,2021-10-01,2021-10-01,ソシオジャパン株式会社,,株式会社,京都府,京都市伏見区,新町３丁目４９２－１－４０３,,26,109,6128081,,,,,,,2021-10-01,1,,,,,ソシオジャパン,0
1089,4130001070199,新規,0,2021-10-01,2021-10-01,株式会社光悦エンジニアリング,,株式会社,京都府,京都市北区,鷹峯光悦町１番地１,,26,101,6038466,,,,,,,2021-10-01,1,,,,,コウエツエンジニアリング,0
1095,4150001024962,新規,0,2021-10-01,2021-10-01,株式会社７ＬＩＮＥ,,株式会社,奈良県,奈良市,角振町９－１パステルビル４Ｆ,,29,201,6308224,,,,,,,2021-10-01,1,,,,,セブンライン,0
1098,4160005010990,新規,0,2021-10-01,2021-10-01,医療法人あおぞう会,,その他の設立登記法人,滋賀県,彦根市,西今町９４８番地５,,25,202,5220054,,,,,,,2021-10-01,1,,,,,アオゾウカイ,0
1110,4180001147975,新規,0,2021-10-01,2021-10-01,ＭＩＬＡＩ株式会社,,株式会社,愛知県,名古屋市千種区,不老町１番地国立大学法人東海国立大学機構名古屋大学インキュベーション施設１０８北室,,23,101,4640814,,,,,,,2021-10-01,1,,,,,ミライ,0
1111,4180001147991,新規,0,2021-10-01,2021-10-01,株式会社ＫＯＭＡキッズ桑名,,株式会社,愛知県,名古屋市守山区,四軒家２丁目７２２番地,,23,113,4630034,,,,,,,2021-10-01,1,,,,,コマキッズクワナ,0
1123,4180303005121,新規,0,2021-10-01,2021-10-01,ＭＫプロパティ合同会社,,合同会社,愛知県,岡崎市,大平町字杉本２３番地２,,23,202,4440007,,,,,,,2021-10-01,1,,,,,エムケイプロパティ,0
1124,4180305009244,新規,0,2021-10-01,2021-10-01,特定非営利活動法人Ｙｅｌｌ　Ｔａｌｋ,,その他の設立登記法人,愛知県,蒲郡市,三谷町東４丁目１０番地,,23,214,4430021,,,,,,,2021-10-01,1,,,,,エールトーク,0
1127,4230001019005,新規,0,2021-10-01,2021-10-01,株式会社ソシオラボ,,株式会社,富山県,高岡市,泉が丘３３００番地７４,,16,202,9330827,,,,,,,2021-10-01,1,,,,,ソシオラボ,0
1132,4240001058638,新規,0,2021-10-01,2021-10-01,株式会社遊の会,,株式会社,広島県,福山市,久松台２丁目５番８号,,34,207,7200083,,,,,,,2021-10-01,1,,,,,,0
1133,4250001019151,新規,0,2021-10-01,2021-10-01,株式会社ＣＴＣ,,株式会社,山口県,周南市,桜木１丁目１番２７号,,35,215,7450806,,,,,,,2021-10-01,1,,,,,シーティーシー,0
1135,4260001035998,新規,0,2021-10-01,2021-10-01,株式会社Ｇｏｏｏｄ　Ｌｕｃｋ,,株式会社,岡山県,岡山市東区,下阿知１１９９番地,,33,103,7048141,,,,,,,2021-10-01,1,,,,,グッドラック,0
1139,4280001008515,新規,0,2021-10-01,2021-10-01,株式会社サトウさん,,株式会社,島根県,出雲市,今市町７９４番地１,,32,203,6930001,,,,,,,2021-10-01,1,,,,,サトウサン,0
1143,4290003011664,新規,0,2021-10-01,2021-10-01,合同会社ＣＬＩＮＥ,,合同会社,福岡県,福岡市南区,高木２丁目１１－１０,,40,134,8150004,,,,,,,2021-10-01,1,,,,,クライン,0
1153,4360001029437,新規,0,2021-10-01,2021-10-01,かみや株式会社,,株式会社,沖縄県,島尻郡八重瀬町,字志多伯１７４番地,,47,362,9010413,,,,,,,2021-10-01,1,,,,,カミヤ,0
1154,4360001029445,新規,0,2021-10-01,2021-10-01,株式会社当原ファーム,,株式会社,沖縄県,宮古島市,上野字新里６６番地７,,47,214,9060202,,,,,,,2021-10-01,1,,,,,トウバルファーム,0
1156,4360003011467,新規,0,2021-10-01,2021-10-01,ワタヤ合同会社,,合同会社,沖縄県,沖縄市,南桃原２丁目１番１号崎原アパート３０５号,,47,211,9040035,,,,,,,2021-10-01,1,,,,,ワタヤ,0
1157,4370001047636,新規,0,2021-10-01,2021-10-01,株式会社八鍬工務店,,株式会社,宮城県,仙台市青葉区,北根１丁目１３番１－１６１１号,,04,101,9810902,,,,,,,2021-10-01,1,,,,,ヤクワコウムテン,0
1158,4370001047644,新規,0,2021-10-01,2021-10-01,株式会社菅原食品・豆ノ華,,株式会社,宮城県,気仙沼市,本吉町菖蒲沢１６８,,04,205,9880269,,,,,,,2021-10-01,1,,,,,スガワラシヨクヒンマメノハナ,0
1159,4370003005410,新規,0,2021-10-01,2021-10-01,合同会社ケン,,合同会社,宮城県,仙台市泉区,虹の丘３丁目５番地の２１,,04,105,9818007,,,,,,,2021-10-01,1,,,,,ケン,0
1166,4390001016606,新規,0,2021-10-01,2021-10-01,シールド株式会社,,株式会社,山形県,酒田市,山楯字清水田２７番地,,06,204,9996724,,,,,,,2021-10-01,1,,,,,シールド,0
1172,4460103001399,新規,0,2021-10-01,2021-10-01,合同会社メムアースホテルアンドリゾート,,合同会社,北海道,広尾郡大樹町,字芽武１５８－１,,01,641,0892113,,,,,,,2021-10-01,1,,,,,メムアースホテルアンドリゾート,0
1176,4470001018734,新規,0,2021-10-01,2021-10-01,株式会社ＬＩＢＥＲ,,株式会社,香川県,高松市,飯田町９３４番地５アルモニーベル１０１号,,37,201,7618033,,,,,,,2021-10-01,1,,,,,リベル,0
1181,4500001023706,新規,0,2021-10-01,2021-10-01,Ｇ．ｒａｉｎ株式会社,,株式会社,愛媛県,新居浜市,宇高町３丁目５番１７号,,38,205,7920866,,,,,,,2021-10-01,1,,,,,ジーレイン,0
1182,4500003002699,新規,0,2021-10-01,2021-10-01,合同会社ハナロクショウ,,合同会社,愛媛県,今治市,馬越町１丁目１番２０号ヴィラ・クラマス５０５,,38,202,7940062,,,,,,,2021-10-01,1,,,,,ハナロクショウ,0
1187,5010001221416,新規,0,2021-10-01,2021-10-01,株式会社いろはエンジニアリング,,株式会社,東京都,文京区,大塚５丁目３０番７－２０４号,00124405,13,105,1120012,,,,,,,2021-10-01,1,,,,,イロハエンジニアリング,0
1188,5010001221440,新規,0,2021-10-01,2021-10-01,シートライブ株式会社,,株式会社,東京都,中央区,日本橋人形町２丁目３２番９－３０３号,,13,102,1030013,,,,,,,2021-10-01,1,,,,,シートライブ,0
1189,5010001221473,新規,0,2021-10-01,2021-10-01,株式会社Ｆｅｌｉｃｏ,,株式会社,東京都,中央区,日本橋人形町１丁目１番１０号,,13,102,1030013,,,,,,,2021-10-01,1,,,,,フェリコ,0
1190,5010001221515,新規,0,2021-10-01,2021-10-01,株式会社Ｔｒｉｎｉｔｙ,,株式会社,東京都,中央区,銀座１丁目２２番１１号銀座大竹ビジデンス２階,,13,102,1040061,,,,,,,2021-10-01,1,,,,,トリニティ,0
1194,5010005034021,新規,0,2021-10-01,2021-10-01,ディエイチ・ディベロップメント・スリー特定目的会社,,その他の設立登記法人,東京都,千代田区,飯田橋４丁目７番１号結和税理士法人内,,13,101,1020072,,,,,,,2021-10-01,1,,,,,ディエイチディベロップメントスリー,0
1202,5010401162920,新規,0,2021-10-01,2021-10-01,株式会社ＢＡＣＫＳＴＡＧＥ　ＰＲＯＤＵＣＴＳ,,株式会社,東京都,港区,南青山４丁目１－５セントラル第一青山７０３号,,13,103,1070062,,,,,,,2021-10-01,1,,,,,バックステージプロダクツ,0
1203,5010401162929,新規,0,2021-10-01,2021-10-01,ＣＲＡＳエステート株式会社,,株式会社,東京都,港区,新橋１丁目７番２号,,13,103,1050004,,,,,,,2021-10-01,1,,,,,クラスエステート,0
1209,5010403026215,新規,0,2021-10-01,2021-10-01,合同会社Ｓｃｅｎｅｒｙ　Ａｓｓｅｔ,,合同会社,東京都,港区,白金台３丁目１６番１０ー５０２号,,13,103,1080071,,,,,,,2021-10-01,1,,,,,シーナリーアセット,0
1210,5010403026223,新規,0,2021-10-01,2021-10-01,合同会社ｅｎｃｈａｉｎｅｍｅｎｔ,,合同会社,東京都,港区,南青山２丁目２番１５号,,13,103,1070062,,,,,,,2021-10-01,1,,,,,アンシェヌマン,0
1212,5010601060016,新規,0,2021-10-01,2021-10-01,株式会社ダンラヴィ,,株式会社,東京都,墨田区,押上２丁目７番２号,,13,107,1310045,,,,,,,2021-10-01,1,,,,,ダンラヴィ,0
1216,5010701041584,新規,0,2021-10-01,2021-10-01,株式会社ＣＬＥＡＲ,,株式会社,東京都,品川区,東五反田１丁目１６番１１号５階,,13,109,1410022,,,,,,,2021-10-01,1,,,,,クリア,0
1220,5010803003895,新規,0,2021-10-01,2021-10-01,合同会社パックスビレッジ,,合同会社,東京都,大田区,山王２丁目５番６号ＳＡＮＮＯＢＲＩＤＧＥ,,13,111,1430023,,,,,,,2021-10-01,1,,,,,パックスビレッジ,0
1238,5011203003651,新規,0,2021-10-01,2021-10-01,合同会社ｍｉｂｅｅ,,合同会社,東京都,中野区,大和町１丁目４６番１２号,,13,114,1650034,,,,,,,2021-10-01,1,,,,,マイビイー,0
1242,5011503004911,新規,0,2021-10-01,2021-10-01,ｏｏ　ｍａｒｋｅｔ合同会社,,合同会社,東京都,荒川区,町屋３丁目２番１号Ｂ１Ｆ,,13,118,1160001,,,,,,,2021-10-01,1,,,,,オーオーマーケット,0
1244,5011601025421,新規,0,2021-10-01,2021-10-01,株式会社ｃｏｍｅ－ｔｅ,,株式会社,東京都,練馬区,上石神井南町６番４号－２,,13,120,1770043,,,,,,,2021-10-01,1,,,,,コメテ,0
1249,5012401038349,新規,0,2021-10-01,2021-10-01,株式会社アスタ,,株式会社,東京都,武蔵野市,御殿山１丁目５番５号沢田ビル３０２,,13,203,1800005,,,,,,,2021-10-01,1,,,,,アスタ,0
1260,5013301048074,新規,0,2021-10-01,2021-10-01,株式会社ｄａＶｉｎｃｉ　Ｔｅｃｈｎｏｌｏｇｉｅｓ,,株式会社,東京都,豊島区,南大塚１丁目６０－２０天翔大塚駅前ビルＳ３０６号室,,13,116,1700005,,,,,,,2021-10-01,1,,,,,ダヴィンチテクノロジーズ,0
1263,5020001143221,新規,0,2021-10-01,2021-10-01,株式会社ジーエム,,株式会社,神奈川県,横浜市戸塚区,汲沢３丁目１５番１３－３号,,14,110,2450061,,,,,,,2021-10-01,1,,,,,ジーエム,0
1268,5020003020575,新規,0,2021-10-01,2021-10-01,合同会社ｐｒｏｖｉｔａｓ,,合同会社,神奈川県,川崎市中原区,小杉町３丁目４３０番小杉駅前ビルＢ１,,14,133,2110063,,,,,,,2021-10-01,1,,,,,プロヴィタス,0
1280,5021003010938,新規,0,2021-10-01,2021-10-01,リメイクハウス合同会社,,合同会社,神奈川県,横須賀市,長沢４丁目３番２号,,14,201,2390842,,,,,,,2021-10-01,1,,,,,リメイクハウス,0
1285,5030001144540,新規,0,2021-10-01,2021-10-01,株式会社ケイホールディングス,,株式会社,埼玉県,熊谷市,広瀬４３５番地１,,11,202,3600833,,,,,,,2021-10-01,1,,,,,ケイホールディングス,0
1286,5030001144549,新規,0,2021-10-01,2021-10-01,株式会社オルパ,,株式会社,埼玉県,三郷市,戸ケ崎２９２２番地２,,11,237,3410044,,,,,,,2021-10-01,1,,,,,オルパ,0
1287,5030001144565,新規,0,2021-10-01,2021-10-01,株式会社アーチ,,株式会社,埼玉県,越谷市,レイクタウン８丁目６番地１－３２３号,,11,222,3430828,,,,,,,2021-10-01,1,,,,,アーチ,0
1291,5030003018024,新規,0,2021-10-01,2021-10-01,合同会社ＳＨコネクトサービス,,合同会社,埼玉県,鴻巣市,箕田３４６７番地９,,11,217,3650062,,,,,,,2021-10-01,1,,,,,エスエイチコネクトサービス,0
1292,5030003018049,新規,0,2021-10-01,2021-10-01,鴻宇合同会社,,合同会社,埼玉県,羽生市,南５丁目２３番地４ハイツＢ＆Ｌ１０１,,11,216,3480053,,,,,,,2021-10-01,1,,,,,コウウ,0
1308,5080105006178,新規,0,2021-10-01,2021-10-01,ザ・クレストタワー熱海管理組合法人,,その他の設立登記法人,静岡県,熱海市,春日町９番１号,,22,205,4130005,,,,,,,2021-10-01,1,,,,,ザクレストタワーアタミ,0
1309,5080401025360,新規,0,2021-10-01,2021-10-01,株式会社Ｎｏ　Ｂｏｒｄｅｒ,,株式会社,静岡県,浜松市東区,原島町５０番地の９,,22,132,4350047,,,,,,,2021-10-01,1,,,,,ノーボーダー,0
1313,5090001017212,新規,0,2021-10-01,2021-10-01,株式会社アッセンブル,,株式会社,山梨県,韮崎市,本町２丁目１０番９号,,19,207,4070024,,,,,,,2021-10-01,1,,,,,アッセンブル,0
1314,5090003001949,新規,0,2021-10-01,2021-10-01,ｖｉｒｔｕｏｕｓ合同会社,,合同会社,山梨県,北杜市,大泉町谷戸字並木上８６３０番５,,19,209,4091502,,,,,,,2021-10-01,1,,,,,ヴァーチュアス,0
1321,5110001036044,新規,0,2021-10-01,2021-10-01,株式会社石沢呉服店,,株式会社,新潟県,見附市,本町１丁目１番３２号,,15,211,9540053,,,,,,,2021-10-01,1,,,,,,0
1333,5120001240719,新規,0,2021-10-01,2021-10-01,株式会社ワンジェネ,,株式会社,大阪府,大阪市中央区,千日前１丁目７番１１号上方ビル１階,,27,128,5420074,,,,,,,2021-10-01,1,,,,,ワンジェネ,0
1334,5120001240743,新規,0,2021-10-01,2021-10-01,関西住宅管理株式会社,,株式会社,大阪府,大阪市阿倍野区,阪南町２丁目１０－２４,,27,119,5450021,,,,,,,2021-10-01,1,,,,,カンサイジュウタクカンリ,0
1335,5120001240776,新規,0,2021-10-01,2021-10-01,サンクチュアリ株式会社,,株式会社,大阪府,大阪市北区,梅田２丁目２－２ヒルトンプラザウエスト１９階,,27,127,5300001,,,,,,,2021-10-01,1,,,,,サンクチュアリ,0
1336,5120003020326,新規,0,2021-10-01,2021-10-01,合同会社リカエル,,合同会社,大阪府,大阪市中央区,高津３丁目５番１－６０３号,,27,128,5420072,,,,,,,2021-10-01,1,,,,,リカエル,0
1337,5120101064349,新規,0,2021-10-01,2021-10-01,大廣ＨＣ株式会社,,株式会社,大阪府,堺市北区,大豆塚町１丁２３番地２０,,27,146,5918042,,,,,,,2021-10-01,1,,,,,オオヒロホールディングス,0
1343,5130001070198,新規,0,2021-10-01,2021-10-01,株式会社ｆｌａｇｓ　ｋｙｏｔｏ．,,株式会社,京都府,京都市東山区,本町１６丁目３０５番地１,,26,105,6050981,,,,,,,2021-10-01,1,,,,,フラッグス,0
1349,5140001123153,新規,0,2021-10-01,2021-10-01,株式会社ライト,,株式会社,兵庫県,養父市,大屋町由良７７,,28,222,6670304,,,,,,,2021-10-01,1,,,,,ライト,0
1350,5140001123203,新規,0,2021-10-01,2021-10-01,株式会社アダプト,,株式会社,兵庫県,姫路市,神子岡前４丁目３番２４号,,28,201,6700055,,,,,,,2021-10-01,1,,,,,アダプト,0
1351,5140001123211,新規,0,2021-10-01,2021-10-01,豊恩株式会社,,株式会社,兵庫県,神戸市中央区,下山手通２丁目１３番１８号,,28,110,6500011,,,,,,,2021-10-01,1,,,,,ホウオン,0
1356,5170001016791,新規,0,2021-10-01,2021-10-01,株式会社プラスデンコー,,株式会社,和歌山県,和歌山市,和佐関戸１７４,,30,201,6496322,,,,,,,2021-10-01,1,,,,,プラスデンコー,0
1367,5180001147990,新規,0,2021-10-01,2021-10-01,株式会社ＫＯＭＡキッズ鈴鹿,,株式会社,愛知県,名古屋市守山区,四軒家２丁目７２２番地,,23,113,4630034,,,,,,,2021-10-01,1,,,,,コマキッズスズカ,0
1368,5180001148007,新規,0,2021-10-01,2021-10-01,株式会社Ａ・Ｆａｃｔｏｒｙ,,株式会社,愛知県,名古屋市東区,白壁４丁目１９番地,,23,102,4610011,,,,,,,2021-10-01,1,,,,,エーファクトリー,0
1375,5180003023026,新規,0,2021-10-01,2021-10-01,合同会社カシワギ,,合同会社,愛知県,名古屋市中区,大須４丁目１１番３９号川本ビル２Ｆ,,23,106,4600011,,,,,,,2021-10-01,1,,,,,カシワギ,0
1392,5230001019004,新規,0,2021-10-01,2021-10-01,株式会社Ｔｈｅ　Ｍａｋｅｒ,,株式会社,富山県,富山市,高屋敷１６０番地６,,16,201,9398036,,,,,,,2021-10-01,1,,,,,ザメーカー,0
1395,5240003005298,新規,0,2021-10-01,2021-10-01,合同会社忠孝,,合同会社,広島県,竹原市,本町３丁目５番１３号,,34,203,7250022,,,,,,,2021-10-01,1,,,,,チュウコウ,0
1415,5290001094826,新規,0,2021-10-01,2021-10-01,株式会社津田製本,,株式会社,福岡県,福岡市中央区,平尾１丁目２番７号,,40,133,8100014,,,,,,,2021-10-01,1,,,,,ツダセイホン,0
1419,5290803003942,新規,0,2021-10-01,2021-10-01,合同会社五建商会,,合同会社,福岡県,北九州市門司区,藤松１丁目２番２０号アメニティ藤松６０３号室,,40,101,8000047,,,,,,,2021-10-01,1,,,,,ゴケンショウカイ,0
1422,5320001018640,新規,0,2021-10-01,2021-10-01,株式会社翔建,,株式会社,大分県,大分市,大字寒田１１１２番地の１トゥルースＡ２０２,,44,201,8701123,,,,,,,2021-10-01,1,,,,,ショウケン,0
1430,5330003009059,新規,0,2021-10-01,2021-10-01,合同会社コンサルティングファーム天草,,合同会社,熊本県,天草市,城下町６－１４,,43,215,8630016,,,,,,,2021-10-01,1,,,,,コンサルティングファームアマクサ,0
1432,5350005006028,新規,0,2021-10-01,2021-10-01,一般社団法人まちづくり西都ＫＯＫＯＫＡＲＡ,,その他の設立登記法人,宮崎県,西都市,大字妻１５３８番地１,,45,208,8810033,,,,,,,2021-10-01,1,,,,,マチヅクリサイトココカラ,0
1434,5360003011466,新規,0,2021-10-01,2021-10-01,合資会社仲村商会,,合資会社,沖縄県,宜野湾市,大謝名５丁目１６番１０号,,47,205,9012225,,,,,,,2021-10-01,1,,,,,,0
1435,5360003011482,新規,0,2021-10-01,2021-10-01,合同会社ＢＡＳＥ－Ｐ,,合同会社,沖縄県,石垣市,字真栄里１８６番地１３ブルーオーシャン２０４,,47,207,9070002,,,,,,,2021-10-01,1,,,,,ベースピー,0
1438,5370001047635,新規,0,2021-10-01,2021-10-01,抗体検査センター株式会社,,株式会社,宮城県,塩竈市,松陽台１丁目３番５号,,04,203,9850071,,,,,,,2021-10-01,1,,,,,コウタイケンサセンター,0
1440,5370003005418,新規,0,2021-10-01,2021-10-01,合同会社ムクバ,,合同会社,宮城県,仙台市青葉区,本町１丁目１３番８号シャンティー大谷１０７,,04,101,9800014,,,,,,,2021-10-01,1,,,,,ムクバ,0
1461,5430001085059,新規,0,2021-10-01,2021-10-01,ニセコ未来企画株式会社,,株式会社,北海道,虻田郡倶知安町,字山田７２番地１－２Ｆ,,01,400,0440081,,,,,,,2021-10-01,1,,,,,ニセコミライキカク,0
1465,5430003013199,新規,0,2021-10-01,2021-10-01,合同会社Ｔｅｎｋｏ　Ｓｋｉｓ,,合同会社,北海道,虻田郡倶知安町,字樺山１１６番地９,,01,400,0440078,,,,,,,2021-10-01,1,,,,,テンコウスキー,0
1478,5500001023713,新規,0,2021-10-01,2021-10-01,株式会社Ｔｈｏｍａｓ,,株式会社,愛媛県,伊予郡砥部町,拾町３６２番地１,,38,402,7912113,,,,,,,2021-10-01,1,,,,,トーマス,0
1491,6010401162928,新規,0,2021-10-01,2021-10-01,株式会社ｍａｕｅ,,株式会社,東京都,港区,六本木１丁目３番３９号アークタワーイースト１００２,,13,103,1060032,,,,,,,2021-10-01,1,,,,,マウエ,0
1492,6010403026230,新規,0,2021-10-01,2021-10-01,スエルテ合同会社,,合同会社,東京都,港区,芝１丁目１３－１０プレミアムキューブ三田３０４,,13,103,1050014,,,,,,,2021-10-01,1,,,,,スエルテ,0
1495,6010501047847,新規,0,2021-10-01,2021-10-01,ＢＯＩＪ株式会社,,株式会社,東京都,台東区,上野３丁目１１番５号,,13,106,1100005,,,,,,,2021-10-01,1,,,,,ボイジュ,0
1496,6010501047871,新規,0,2021-10-01,2021-10-01,東京Ｊ＆Ｗ株式会社,,株式会社,東京都,台東区,雷門２丁目１９番１７号浅草雷一ビルハローオフィス浅草６１５号,,13,106,1110034,,,,,,,2021-10-01,1,,,,,トウキョウジェイアンドダブル,0
1500,6010601059998,新規,0,2021-10-01,2021-10-01,ＭＫＢ防災株式会社,,株式会社,東京都,江東区,扇橋３丁目９番１４－９０５号,,13,108,1350011,,,,,,,2021-10-01,1,,,,,エムケービーボウサイ,0
1503,6010703005958,新規,0,2021-10-01,2021-10-01,合同会社むしぱん,,合同会社,東京都,品川区,東五反田４丁目１０番２２号パークアクシス池田山３１９,,13,109,1410022,,,,,,,2021-10-01,1,,,,,ムシパン,0
1504,6010801032359,新規,0,2021-10-01,2021-10-01,クルートランストーキョー株式会社,,株式会社,東京都,大田区,羽田５丁目３番１号スカイプラザレジデンス１４０９,,13,111,1440043,,,,,,,2021-10-01,1,,,,,クルートランストーキョー,0
1509,6010903006830,新規,0,2021-10-01,2021-10-01,合同会社ＣｏｓｍｏＲｉｄｅ,,合同会社,東京都,世田谷区,南烏山６丁目２５番１１号セラグリオ烏山５０８,,13,112,1570062,,,,,,,2021-10-01,1,,,,,コスモライド,0
1515,6011003013296,新規,0,2021-10-01,2021-10-01,合同会社Ｗｏｒｌｄ　Ｐｅｎｓｉｏｎ　Ｏｒｇａｎｉｚａｔｉｏｎ　ＬＬＣ,,合同会社,東京都,渋谷区,神宮前５丁目５３－７０国連大学本部ビル国際連合広報センター内,,13,113,1500001,,,,,,,2021-10-01,1,,,,,ワールドペンションオーガナイゼイションエルエルシー,0
1517,6011201023262,新規,0,2021-10-01,2021-10-01,ＯＧＳ株式会社,,株式会社,東京都,中野区,本町３丁目１４番４－５０１号,,13,114,1640012,,,,,,,2021-10-01,1,,,,,オージーエス,0
1518,6011201023279,新規,0,2021-10-01,2021-10-01,株式会社Ｑｕａｎｔｕｍ　Ｌｅａｐ,,株式会社,東京都,中野区,東中野５丁目６－１０－２０６,,13,114,1640003,,,,,,,2021-10-01,1,,,,,クァンタムリープ,0
1519,6011203003650,新規,0,2021-10-01,2021-10-01,合同会社ＳｕｃｃｅｅＤ,,合同会社,東京都,中野区,中央１丁目９－２コーポアサヒ２０３,,13,114,1640011,,,,,,,2021-10-01,1,,,,,サクシード,0
1526,6011501027343,新規,0,2021-10-01,2021-10-01,株式会社エムワース,,株式会社,東京都,荒川区,南千住５丁目３７番５－５０１号ケイ・クレール,,13,118,1160003,,,,,,,2021-10-01,1,,,,,エムワース,0
1533,6011701024743,新規,0,2021-10-01,2021-10-01,株式会社メセット,,株式会社,東京都,江戸川区,東葛西５丁目１２番６号カワマンビル,,13,123,1340084,,,,,,,2021-10-01,1,,,,,メセット,0
1535,6011801039740,新規,0,2021-10-01,2021-10-01,株式会社内田工業,,株式会社,東京都,葛飾区,西亀有３丁目６番１０号,,13,122,1250002,,,,,,,2021-10-01,1,,,,,ウチダコウギョウ,0
1538,6012701016689,新規,0,2021-10-01,2021-10-01,ＧＲＥＥＮ　ＥＤＩＴＩＯＮ株式会社,,株式会社,東京都,東久留米市,滝山４丁目１０－１７,,13,222,2030033,,,,,,,2021-10-01,1,,,,,グリーンエディション,0
1542,6013301048073,新規,0,2021-10-01,2021-10-01,ＭＩＬＥＳＴＯＮＥ株式会社,,株式会社,東京都,豊島区,北大塚１丁目１９番１２号,,13,116,1700004,,,,,,,2021-10-01,1,,,,,マイルストーン,0
1554,6020001143220,新規,0,2021-10-01,2021-10-01,株式会社ＭＩＺＵＳＡＱＩ,,株式会社,神奈川県,横浜市中区,花咲町１丁目４８番３号ロゼ桜木町４０６号,,14,104,2310063,,,,,,,2021-10-01,1,,,,,ミズサキ,0
1555,6020001143245,新規,0,2021-10-01,2021-10-01,株式会社バイオ薬化学研究所,,株式会社,神奈川県,横浜市中区,桜木町１丁目１０１番地１クロスゲート７階,,14,104,2310062,,,,,,,2021-10-01,1,,,,,バイオヤクカガクケンキュウショ,0
1563,6021001074059,新規,0,2021-10-01,2021-10-01,株式会社仁,,株式会社,神奈川県,小田原市,栄町３丁目４番２１号,,14,206,2500011,,,,,,,2021-10-01,1,,,,,ジン,0
1564,6021001074067,新規,0,2021-10-01,2021-10-01,株式会社Ｍｏｖｅｍｅｎｔｓ,,株式会社,神奈川県,高座郡寒川町,宮山５００番地５９,,14,321,2530106,,,,,,,2021-10-01,1,,,,,ムーブメンツ,0
1565,6021001074075,新規,0,2021-10-01,2021-10-01,株式会社寛誠,,株式会社,神奈川県,厚木市,三田南２丁目３番９号,,14,212,2430217,,,,,,,2021-10-01,1,,,,,カンセイ,0
1575,6030001144548,新規,0,2021-10-01,2021-10-01,株式会社ＪＵＧ東日本,,株式会社,埼玉県,さいたま市大宮区,天沼町１丁目８３番地,,11,103,3300834,,,,,,,2021-10-01,1,,,,,ジェイユージーヒガシニホン,0
1576,6030001144589,新規,0,2021-10-01,2021-10-01,株式会社トー,,株式会社,埼玉県,さいたま市緑区,大字三室１２０９－８マツオカビル２Ｆ,,11,109,3360911,,,,,,,2021-10-01,1,,,,,トー,0
1578,6030003018048,新規,0,2021-10-01,2021-10-01,合同会社ドリームライフ,,合同会社,埼玉県,さいたま市見沼区,大字東宮下６５４番地４５,,11,104,3370012,,,,,,,2021-10-01,1,,,,,ドリームライフ,0
1590,6040001120382,新規,0,2021-10-01,2021-10-01,株式会社トータルクリーンＫ,,株式会社,千葉県,松戸市,大橋７０４番地の４,,12,207,2702224,,,,,,,2021-10-01,1,,,,,トータルクリーンケイ,0
1592,6040003018633,新規,0,2021-10-01,2021-10-01,合同会社ケイエスリアル,,合同会社,千葉県,東金市,丹尾１１３番地１,,12,213,2830824,,,,,,,2021-10-01,1,,,,,ケイエスリアル,0
1600,6060003003823,新規,0,2021-10-01,2021-10-01,合同会社ＫＩＺＵＮＡ・絆,,合同会社,栃木県,宇都宮市,西川田町１０５７番地,,09,201,3210151,,,,,,,2021-10-01,1,,,,,キズナ,0
1606,6080101022797,新規,0,2021-10-01,2021-10-01,株式会社イーリス,,株式会社,静岡県,富士市,松岡１１９９番地の５,,22,210,4160909,,,,,,,2021-10-01,1,,,,,イーリス,0
1608,6080401025368,新規,0,2021-10-01,2021-10-01,株式会社Ａ＆Ａ　ＪＡＰＡＮ,,株式会社,静岡県,磐田市,豊岡５０７１番地アクセスⅣ－１０３,00124393,22,211,4380231,,,,,,,2021-10-01,1,,,,,エーアンドエージャパン,0
1635,6120001240577,新規,0,2021-10-01,2021-10-01,株式会社Ｐｅｒｆｅｃｔ　Ｌｉｆｅ,,株式会社,大阪府,大阪市住吉区,苅田１０丁目８番１２－２３号,,27,120,5580011,,,,,,,2021-10-01,1,,,,,パーフェクトライフ,0
1636,6120001240684,新規,0,2021-10-01,2021-10-01,奈和株式会社,,株式会社,大阪府,大阪市生野区,巽北１丁目１番１号２Ｆ－Ｂ,,27,116,5440004,,,,,,,2021-10-01,1,,,,,ナワ,0
1637,6120001240750,新規,0,2021-10-01,2021-10-01,株式会社ＬＩＮＣＡＨ,,株式会社,大阪府,大阪市北区,兎我野町９番２３号,,27,127,5300056,,,,,,,2021-10-01,1,,,,,リンチャー,0
1638,6120001240759,新規,0,2021-10-01,2021-10-01,株式会社紬舎,,株式会社,大阪府,枚方市,大垣内町３丁目３番７号－２０２号室,,27,210,5730027,,,,,,,2021-10-01,1,,,,,ツムギシャ,0
1639,6120001240767,新規,0,2021-10-01,2021-10-01,株式会社ＬａｄｙＲ,,株式会社,大阪府,大阪市中央区,平野町１丁目８番１５号９階,,27,128,5410046,,,,,,,2021-10-01,1,,,,,レディール,0
1640,6120001240783,新規,0,2021-10-01,2021-10-01,株式会社アップヒル,,株式会社,大阪府,大阪市北区,西天満４丁目２番１２－４０５号,,27,127,5300047,,,,,,,2021-10-01,1,,,,,アップヒル,0
1641,6120001240800,新規,0,2021-10-01,2021-10-01,株式会社ＭＡＮＨＨＡ,,株式会社,大阪府,大阪市港区,夕凪１丁目１６番２１号第４三先ハウス２０２号,,27,107,5520004,,,,,,,2021-10-01,1,,,,,マンハ,0
1646,6120003020317,新規,0,2021-10-01,2021-10-01,合同会社流成,,合同会社,大阪府,大阪市東淀川区,西淡路４丁目２番１７号,,27,114,5330031,,,,,,,2021-10-01,1,,,,,リュウセイ,0
1647,6120005022526,新規,0,2021-10-01,2021-10-01,一般社団法人若者スポーツ支援協会,,その他の設立登記法人,大阪府,大阪市中央区,久太郎町２丁目５番３１号本町寺田ビル７階,,27,128,5410056,,,,,,,2021-10-01,1,,,,,ワカモノスポーツシエンキョウカイ,0
1649,6120101064372,新規,0,2021-10-01,2021-10-01,株式会社ｏｈａｎａ,,株式会社,大阪府,大阪狭山市,西山台５丁目１番１－２０６号,,27,231,5890022,,,,,,,2021-10-01,1,,,,,オハナ,0
1654,6122001035214,新規,0,2021-10-01,2021-10-01,ジャパンベア貿易株式会社,,株式会社,大阪府,東大阪市,柏田西２丁目６番１１号,,27,227,5770835,,,,,,,2021-10-01,1,,,,,ジャパンベアボウエキ,0
1658,6130001070189,新規,0,2021-10-01,2021-10-01,株式会社ＴＡＳＫ,,株式会社,京都府,亀岡市,千代川町北ノ庄荒牧２７番地７,,26,206,6210046,,,,,,,2021-10-01,1,,,,,タスク,0
1659,6130001070197,新規,0,2021-10-01,2021-10-01,ダイナル株式会社,,株式会社,京都府,京都市山科区,大塚野溝町２０番地１,00124392,26,110,6078135,,,,,,,2021-10-01,1,,,,,ダイナル,0
1665,6140001123094,新規,0,2021-10-01,2021-10-01,株式会社ＮａＬｉＳｕ,,株式会社,兵庫県,西宮市,笠屋町１３番３０号,,28,204,6638136,,,,,,,2021-10-01,1,,,,,ナリス,0
1666,6140001123202,新規,0,2021-10-01,2021-10-01,株式会社ＪＵＳＴ,,株式会社,兵庫県,神戸市西区,伊川谷町有瀬１６３１－９－１０３号,,28,111,6512113,,,,,,,2021-10-01,1,,,,,ジャスト,0
1670,6140003016775,新規,0,2021-10-01,2021-10-01,合同会社Ｅｘｍｏ,,合同会社,兵庫県,神戸市須磨区,北落合５丁目２番２６号,,28,107,6540151,,,,,,,2021-10-01,1,,,,,エクスモ,0
1671,6150001024960,新規,0,2021-10-01,2021-10-01,株式会社ＮｅｏＦａｃｔ,,株式会社,奈良県,奈良市,押熊町２１１－２０,,29,201,6310011,,,,,,,2021-10-01,1,,,,,ネオファクト,0
1676,6170001016799,新規,0,2021-10-01,2021-10-01,株式会社ウェアラバウツ,,株式会社,和歌山県,和歌山市,延時１４７番地の１９宝寿ビル１Ｆ１０２号,,30,201,6408443,,,,,,,2021-10-01,1,,,,,ウェアラバウツ,0
1683,6180001147998,新規,0,2021-10-01,2021-10-01,株式会社ＣＡＫＥ．,,株式会社,愛知県,名古屋市千種区,山門町２丁目５７番地４,,23,101,4640064,,,,,,,2021-10-01,1,,,,,ケイク,0
1690,6180301035416,新規,0,2021-10-01,2021-10-01,株式会社コンフォネス,,株式会社,愛知県,岡崎市,蓑川新町２丁目１‐９グランケレス１０２号,,23,202,4443526,,,,,,,2021-10-01,1,,,,,コンフォネス,0
1692,6190001028719,新規,0,2021-10-01,2021-10-01,マルダイ建築株式会社,,株式会社,三重県,松阪市,駅部田町４０１番地１,,24,204,5150045,,,,,,,2021-10-01,1,,,,,マルダイケンチク,0
1698,6210001018626,新規,0,2021-10-01,2021-10-01,株式会社エールコーポレーション,,株式会社,福井県,福井市,照手１丁目６番１３号,,18,201,9100024,,,,,,,2021-10-01,1,,,,,エールコーポレーション,0
1714,6260001036004,新規,0,2021-10-01,2021-10-01,スパンロック株式会社,,株式会社,岡山県,岡山市中区,下４４３番地６,,33,102,7038222,,,,,,,2021-10-01,1,,,,,スパンロック,0
1715,6260001036012,新規,0,2021-10-01,2021-10-01,株式会社マグメイト,,株式会社,岡山県,和気郡和気町,佐伯５２６番地の３,,33,346,7090514,,,,,,,2021-10-01,1,,,,,マグメイト,0
1717,6270001008365,新規,0,2021-10-01,2021-10-01,株式会社ＣｏＣｏＬｏ・ＧＡＲＤＥＮ,,株式会社,鳥取県,東伯郡北栄町,妻波１０７４番地１,,31,372,6892224,,,,,,,2021-10-01,1,,,,,ココロガーデン,0
1727,6290001094791,新規,0,2021-10-01,2021-10-01,株式会社Ｒ＆Ｋデザイン,,株式会社,福岡県,福岡市博多区,吉塚７丁目６番１２－１０１号,,40,132,8120041,,,,,,,2021-10-01,1,,,,,アールアンドケイデザイン,0
1728,6290001094800,新規,0,2021-10-01,2021-10-01,株式会社Ｇｒｏｗｉｎｇ　ｔｈ,,株式会社,福岡県,福岡市博多区,住吉５丁目１８番７号,,40,132,8120018,,,,,,,2021-10-01,1,,,,,グロウィングティーエイチ,0
1729,6290001094817,新規,0,2021-10-01,2021-10-01,Ｌｉｆｅ　Ｆａｃｔｏｒｙ株式会社,,株式会社,福岡県,福岡市早良区,野芥６丁目２３番２０号,,40,137,8140171,,,,,,,2021-10-01,1,,,,,ライフファクトリー,0
1730,6290003011654,新規,0,2021-10-01,2021-10-01,合同会社ライト・フルライフ,,合同会社,福岡県,久留米市,大橋町合楽１２４番地,,40,203,8390832,,,,,,,2021-10-01,1,,,,,ライトフルライフ,0
1733,6300001012628,新規,0,2021-10-01,2021-10-01,ＬＩＮＫ‐ＵＰマネジメント株式会社,,株式会社,佐賀県,伊万里市,二里町大里甲１４１８－１,,41,205,8480032,,,,,,,2021-10-01,1,,,,,リンクアップマネジメント,0
1735,6310001017493,新規,0,2021-10-01,2021-10-01,トミー・エンジニアリング株式会社,,株式会社,長崎県,平戸市,川内町１０３９番地,,42,207,8595132,,,,,,,2021-10-01,1,,,,,トミーエンジニアリング,0
1737,6320001018631,新規,0,2021-10-01,2021-10-01,株式会社アドカム,,株式会社,大分県,大分市,法勝台３丁目７番３号,,44,201,8700171,,,,,,,2021-10-01,1,,,,,アドカム,0
1741,6330003009058,新規,0,2021-10-01,2021-10-01,３ｒｄ　Ｓｔａｇｅ合同会社,,合同会社,熊本県,熊本市東区,新南部３丁目１０番７１号,,43,102,8618028,,,,,,,2021-10-01,1,,,,,サードステージ,0
1744,6340001024124,新規,0,2021-10-01,2021-10-01,株式会社モトキ,,株式会社,鹿児島県,西之表市,西之表１４３４２番地３,,46,213,8913101,,,,,,,2021-10-01,1,,,,,モトキ,0
1750,6350005006027,新規,0,2021-10-01,2021-10-01,医療法人宮崎中央ふかお透析内科クリニック,,その他の設立登記法人,宮崎県,宮崎市,大工１丁目１０番２８号ひむかワールドビル３階,,45,201,8800015,,,,,,,2021-10-01,1,,,,,ミヤザキチュウオウフカオトウセキナイカクリニック,0
1757,6360001029443,新規,0,2021-10-01,2021-10-01,琉球高圧株式会社,,株式会社,沖縄県,国頭郡恩納村,字瀬良垣２４９５番地,,47,311,9040404,,,,,,,2021-10-01,1,,,,,リュウキュウコウアツ,0
1758,6360003011465,新規,0,2021-10-01,2021-10-01,ＣＯＮＧＵＲＵＥＮＣＥ合同会社,,合同会社,沖縄県,宜野湾市,真栄原１丁目２１－１０テラスかふう２０５,,47,205,9012215,,,,,,,2021-10-01,1,,,,,コングルエンス,0
1802,7010001221397,新規,0,2021-10-01,2021-10-01,丸の内ファーム株式会社,,株式会社,東京都,千代田区,丸の内２丁目５番２号,,13,101,1000005,,,,,,,2021-10-01,1,,,,,マルノウチファーム,0
1803,7010001221455,新規,0,2021-10-01,2021-10-01,ＬＣＩ株式会社,,株式会社,東京都,中央区,銀座３丁目１３番１７号辰中ビル２０２,,13,102,1040061,,,,,,,2021-10-01,1,,,,,エルシーアイ,0
1804,7010001221463,新規,0,2021-10-01,2021-10-01,株式会社ＬＥＡＭ　Ｊａｐａｎ,,株式会社,東京都,中央区,銀座１丁目２２番１１号銀座大竹ビジデンス２階,,13,102,1040061,,,,,,,2021-10-01,1,,,,,リームジャパン,0
1805,7010001221496,新規,0,2021-10-01,2021-10-01,日本ハクツウ実業株式会社,,株式会社,東京都,中央区,東日本橋２丁目２８番５号５０８,,13,102,1030004,,,,,,,2021-10-01,1,,,,,ニホンハクツウジツギョウ,0
1809,7010003035928,新規,0,2021-10-01,2021-10-01,ＫＹコーポレーション合同会社,,合同会社,東京都,中央区,勝どき６丁目３番１－５６０９号,,13,102,1040054,,,,,,,2021-10-01,1,,,,,ケーワイコーポレーション,0
1810,7010003035936,新規,0,2021-10-01,2021-10-01,合同会社ＸＩＶ,,合同会社,東京都,中央区,銀座１丁目１２－４Ｎ＆Ｅ－ＢＬＤ．７階,,13,102,1040061,,,,,,,2021-10-01,1,,,,,エクシブ,0
1821,7010401162919,新規,0,2021-10-01,2021-10-01,株式会社ｏｎｅ　ｆｌｏｗ,,株式会社,東京都,港区,南青山３丁目１０番４１号ジュエル青山ビル２０２号,,13,103,1070062,,,,,,,2021-10-01,1,,,,,ワンフロー,0
1823,7010601059997,新規,0,2021-10-01,2021-10-01,環境エネルギー千葉株式会社,,株式会社,東京都,江東区,新木場３丁目６番７号,,13,108,1360082,,,,,,,2021-10-01,1,,,,,カンキョウエネルギーチバ,0
1825,7010703005957,新規,0,2021-10-01,2021-10-01,合同会社ＳＫメディカル,,合同会社,東京都,品川区,東品川３丁目１１番５－１２０１号,,13,109,1400002,,,,,,,2021-10-01,1,,,,,エスケイメディカル,0
1827,7010805002885,新規,0,2021-10-01,2021-10-01,一般社団法人アストリート,,その他の設立登記法人,東京都,大田区,久が原１丁目３２番１６号,,13,111,1460085,,,,,,,2021-10-01,1,,,,,アストリート,0
1833,7011001142872,新規,0,2021-10-01,2021-10-01,株式会社イマムラ・エンターテインメント,,株式会社,東京都,目黒区,上目黒２丁目４３番地６号キャトルセゾン４０１号,,13,110,1530051,,,,,,,2021-10-01,1,,,,,イマムラエンターテインメント,0
1834,7011001143128,新規,0,2021-10-01,2021-10-01,株式会社Ｌｕｋａ　Ｍａｇｉｃ,,株式会社,東京都,渋谷区,渋谷２丁目１９番１５－６０９号宮益坂ビルディング,,13,113,1500002,,,,,,,2021-10-01,1,,,,,ルカマジック,0
1839,7011103011042,新規,0,2021-10-01,2021-10-01,ゴウズ合同会社,,合同会社,東京都,新宿区,北新宿２丁目１９番２－５１６号,,13,104,1690074,,,,,,,2021-10-01,1,,,,,ゴウズ,0
1841,7011401023706,新規,0,2021-10-01,2021-10-01,株式会社東京土地商事,,株式会社,東京都,板橋区,小豆沢２丁目１５番３号志村ＳＹマンション１０３,,13,119,1740051,,,,,,,2021-10-01,1,,,,,トウキョウトチショウジ,0
1845,7011601025428,新規,0,2021-10-01,2021-10-01,株式会社Ｆｏｒ　ｍｙｓｅｌｆ,,株式会社,東京都,練馬区,大泉学園町３丁目７番２５ボーアタルデこぐれ１１１,,13,120,1780061,,,,,,,2021-10-01,1,,,,,フォーマイセルフ,0
1846,7011603003398,新規,0,2021-10-01,2021-10-01,合同会社オープンインフラテクノロジーズ,,合同会社,東京都,練馬区,豊玉南３丁目２９－１６－１０２,,13,120,1760014,,,,,,,2021-10-01,1,,,,,オープンインフラテクノロジーズ,0
1848,7011705001696,新規,0,2021-10-01,2021-10-01,特定非営利活動法人Ａｎｇｅｌ　Ｋⅰｄｓ,00124395,その他の設立登記法人,東京都,江戸川区,南葛西２丁目１１番２号,,13,123,1340085,,,,,,,2021-10-01,1,,,,,エンジェルキッズ,0
1852,7012701016688,新規,0,2021-10-01,2021-10-01,ジェイケイエス株式会社,,株式会社,東京都,西東京市,下保谷５丁目１２番４号,,13,229,2020004,,,,,,,2021-10-01,1,,,,,ジェイケイエス,0
1856,7013101008739,新規,0,2021-10-01,2021-10-01,株式会社Ａｍｂｉｃｉｏｎ,,株式会社,東京都,青梅市,新町８丁目２０番地の１グリーンハイツＹＭ１０２,,13,205,1980024,,,,,,,2021-10-01,1,,,,,アンビション,0
1863,7020001143211,新規,0,2021-10-01,2021-10-01,株式会社鴨志田工務店,,株式会社,神奈川県,横浜市青葉区,鴨志田町５６９番地１－２３棟１０６号,,14,117,2270033,,,,,,,2021-10-01,1,,,,,カモシダコウムテン,0
1867,7020003020565,新規,0,2021-10-01,2021-10-01,合同会社輝星,,合同会社,神奈川県,横浜市神奈川区,富家町１番地１３スカイハイツトーカイ９０３号室,,14,102,2210821,,,,,,,2021-10-01,1,,,,,コウセイ,0
1868,7020005015217,新規,0,2021-10-01,2021-10-01,一般社団法人Ｔｈｉｎｋｉｎｇ　Ｔｒｅｅ,,その他の設立登記法人,神奈川県,川崎市麻生区,千代ケ丘２丁目５番地１３,,14,137,2150005,,,,,,,2021-10-01,1,,,,,シンキングツリー,0
1873,7021001074058,新規,0,2021-10-01,2021-10-01,株式会社Ｓｈｉｎｅ　Ｓｅｒｖｉｃｅ,,株式会社,神奈川県,小田原市,飯泉１３１６番地の９,,14,206,2500863,,,,,,,2021-10-01,1,,,,,シャインサービス,0
1874,7021001074066,新規,0,2021-10-01,2021-10-01,株式会社山内カンパニー,,株式会社,神奈川県,逗子市,桜山５丁目３０番２５号,,14,208,2490005,,,,,,,2021-10-01,1,,,,,ヤマウチカンパニー,0
1875,7021001074074,新規,0,2021-10-01,2021-10-01,株式会社エンブリッヂ,,株式会社,神奈川県,大和市,福田５５２０番地茜ビル１Ｆ２,,14,213,2420024,,,,,,,2021-10-01,1,,,,,エンブリッヂ,0
1877,7021003010936,新規,0,2021-10-01,2021-10-01,合同会社オズ,,合同会社,神奈川県,小田原市,本町３丁目１１番２２号コンフォートステージ本町２０２号室,,14,206,2500012,,,,,,,2021-10-01,1,,,,,オズ,0
1878,7021003010944,新規,0,2021-10-01,2021-10-01,合同会社アブラハム・チルドレン,,合同会社,神奈川県,相模原市中央区,高根２丁目１１番６号,,14,152,2520221,,,,,,,2021-10-01,1,,,,,アブラハムチルドレン,0
1884,7030001144539,新規,0,2021-10-01,2021-10-01,株式会社ルピナスＫＣコンサルティング,,株式会社,埼玉県,比企郡滑川町,大字福田９１２番地１,,11,341,3550803,,,,,,,2021-10-01,1,,,,,,0
1885,7030001144555,新規,0,2021-10-01,2021-10-01,Ｍ．Ｓ．ファンタジスタ株式会社,,株式会社,埼玉県,幸手市,北３丁目４番１５号,,11,240,3400111,,,,,,,2021-10-01,1,,,,,エムエスファンタジスタ,0
1886,7030001144571,新規,0,2021-10-01,2021-10-01,株式会社ｂｒｉｎＧｒｉｎ,,株式会社,埼玉県,川口市,並木２丁目４３番１４号,,11,203,3320034,,,,,,,2021-10-01,1,,,,,ブリングリン,0
1890,7030003018047,新規,0,2021-10-01,2021-10-01,合同会社アクセス,,合同会社,埼玉県,越谷市,宮本町１丁目２７番１号コーポアスター１０１,,11,222,3430806,,,,,,,2021-10-01,1,,,,,アクセス,0
1896,7040001120381,新規,0,2021-10-01,2021-10-01,株式会社ＤＡＣ,,株式会社,千葉県,野田市,上花輪１３４６番地５,,12,208,2780033,,,,,,,2021-10-01,1,,,,,ディーエーシー,0
1902,7040003018632,新規,0,2021-10-01,2021-10-01,合同会社Ｌｉｇｈｔｎｉｎｇ,,合同会社,千葉県,船橋市,習志野台４丁目２８番１２号,,12,204,2740063,,,,,,,2021-10-01,1,,,,,ライトニング,0
1903,7040003018649,新規,0,2021-10-01,2021-10-01,合同会社ＧｅｎＳｅｔｈ,,合同会社,千葉県,山武郡芝山町,小池２７２９番地８,,12,409,2891624,,,,,,,2021-10-01,1,,,,,ゲンセッツ,0
1905,7040005021361,新規,0,2021-10-01,2021-10-01,一般社団法人あおば成年後見センター,,その他の設立登記法人,千葉県,柏市,光ケ丘２丁目２３番１９号,,12,217,2770065,,,,,,,2021-10-01,1,,,,,アオバセイネンコウケンセンター,0
1909,7060001034126,新規,0,2021-10-01,2021-10-01,株式会社雅商事,,株式会社,栃木県,栃木市,箱森町２４番２３－５号,,09,203,3280075,,,,,,,2021-10-01,1,,,,,ミヤビショウジ,0
1910,7060001034134,新規,0,2021-10-01,2021-10-01,令和環境株式会社,,株式会社,栃木県,真岡市,東光寺３丁目１７番地５,,09,209,3214309,,,,,,,2021-10-01,1,,,,,レイワカンキョウ,0
1914,7070001038472,新規,0,2021-10-01,2021-10-01,ＳＯＡＲ株式会社,,株式会社,群馬県,太田市,浜町６８番２号,,10,205,3730853,,,,,,,2021-10-01,1,,,,,ソアー,0
1920,7090001017210,新規,0,2021-10-01,2021-10-01,株式会社みとみむら,,株式会社,山梨県,山梨市,三富下荻原３８７番地,,19,205,4040203,,,,,,,2021-10-01,1,,,,,ミトミムラ,0
1922,7090003001955,新規,0,2021-10-01,2021-10-01,合同会社アポロ,,合同会社,山梨県,甲州市,勝沼町菱山４９９９－１グランステージ３０３号,,19,213,4091302,,,,,,,2021-10-01,1,,,,,アポロ,0
1927,7110005016718,新規,0,2021-10-01,2021-10-01,特定非営利活動法人Ｔｅｃｈｎｏｌｏｇｙ　Ｉｎｈｅｒｉｔａｎｃｅ　Ａｓｓｏｃｉａｔｉｏｎ,,その他の設立登記法人,新潟県,新潟市北区,高森新田１０２番地,,15,101,9503362,,,,,,,2021-10-01,1,,,,,テクノロジーインヘリテンスアソシエーション,0
1935,7120001240733,新規,0,2021-10-01,2021-10-01,株式会社Ｔｅｎａｃｅ,,株式会社,大阪府,大阪市北区,梅田２丁目５番１３号桜橋第一ビル３０４号,,27,127,5300001,,,,,,,2021-10-01,1,,,,,トゥナス,0
1943,7120901044969,新規,0,2021-10-01,2021-10-01,株式会社西日本プロダクト,,株式会社,大阪府,高槻市,下田部町２丁目７－１,,27,207,5690062,,,,,,,2021-10-01,1,,,,,ニシニホンプロダクト,0
1944,7120905006230,新規,0,2021-10-01,2021-10-01,一般社団法人日本カーボンニュートラルウェブ協会,,その他の設立登記法人,大阪府,吹田市,広芝町１９番１０号,,27,205,5640052,,,,,,,2021-10-01,1,,,,,ニホンカーボンニュートラルウェブキョウカイ,0
1945,7122001035205,新規,0,2021-10-01,2021-10-01,佳乃坊不動産販売株式会社,,株式会社,大阪府,東大阪市,永和１丁目２６番２１号,,27,227,5770809,,,,,,,2021-10-01,1,,,,,ヨシノボウフドウサンハンバイ,0
1946,7122001035213,新規,0,2021-10-01,2021-10-01,株式会社ケイ・フロアー工業,,株式会社,大阪府,柏原市,大正２丁目１番１０号,,27,221,5820009,,,,,,,2021-10-01,1,,,,,ケイフロアーコウギョウ,0
1947,7122001035221,新規,0,2021-10-01,2021-10-01,ＬＯＤ株式会社,,株式会社,大阪府,東大阪市,今米１丁目２－４８松栄ビル９０２,,27,227,5780903,,,,,,,2021-10-01,1,,,,,エルオーディー,0
1948,7122003002186,新規,0,2021-10-01,2021-10-01,Ｎ　ｃｏｎｎｅｃｔ合同会社,,合同会社,大阪府,東大阪市,西岩田３丁目５番６５－５１２号,,27,227,5780947,,,,,,,2021-10-01,1,,,,,エヌコネクト,0
1950,7130001070139,新規,0,2021-10-01,2021-10-01,ｙａｓｕ株式会社,,株式会社,京都府,京都市北区,紫竹西高縄町１７番地,,26,101,6038205,,,,,,,2021-10-01,1,,,,,ヤス,0
1951,7130001070188,新規,0,2021-10-01,2021-10-01,株式会社象工舎,,株式会社,京都府,京都市北区,大宮上ノ岸町２番地５,,26,101,6038401,,,,,,,2021-10-01,1,,,,,ショウコウシャ,0
1952,7130001070196,新規,0,2021-10-01,2021-10-01,株式会社吉澤テクニカル,,株式会社,京都府,京都市伏見区,淀木津町６０９番地３３,,26,109,6130911,,,,,,,2021-10-01,1,,,,,ヨシザワテクニカル,0
1954,7130003007510,新規,0,2021-10-01,2021-10-01,リート京都合同会社,,合同会社,京都府,八幡市,橋本栗ケ谷７９番地の２４,,26,210,6148327,,,,,,,2021-10-01,1,,,,,リートキョウト,0
1957,7140001123201,新規,0,2021-10-01,2021-10-01,株式会社煌晟,,株式会社,兵庫県,たつの市,新宮町段之上３４７番地３,,28,229,6794321,,,,,,,2021-10-01,1,,,,,オウセイ,0
1960,7140003016790,新規,0,2021-10-01,2021-10-01,合同会社ＨＡＴＴＯＲＩ,,合同会社,兵庫県,神戸市灘区,鶴甲５丁目１番１５号,,28,102,6570011,,,,,,,2021-10-01,1,,,,,ハットリ,0
1968,7180001147915,新規,0,2021-10-01,2021-10-01,モリタジャパンホールディングス株式会社,,株式会社,愛知県,名古屋市中区,上前津１丁目５番１１号,,23,106,4600013,,,,,,,2021-10-01,1,,,,,モリタジャパンホールディングス,0
1969,7180001147997,新規,0,2021-10-01,2021-10-01,株式会社ティーズ・フロア,,株式会社,愛知県,名古屋市緑区,相川２丁目９２番地の２,,23,114,4580011,,,,,,,2021-10-01,1,,,,,ティーズフロア,0
1970,7180001148021,新規,0,2021-10-01,2021-10-01,邦淑ウェルフェア株式会社,,株式会社,愛知県,津島市,兼平町１丁目１５番地,,23,208,4960812,,,,,,,2021-10-01,1,,,,,ホウシュクウェルフェア,0
1997,7260001036011,新規,0,2021-10-01,2021-10-01,株式会社ｍａｕｔｉｏｎ,,株式会社,岡山県,倉敷市,茶屋町１５９０番地３,,33,202,7101101,,,,,,,2021-10-01,1,,,,,モーション,0
2007,7290001094766,新規,0,2021-10-01,2021-10-01,株式会社０ｔｏ１,,株式会社,福岡県,福津市,津屋崎３丁目２５番３号,,40,224,8113304,,,,,,,2021-10-01,1,,,,,ゼロトイチ,0
2008,7290001094799,新規,0,2021-10-01,2021-10-01,株式会社朋馬総業,,株式会社,福岡県,福岡市城南区,南片江２丁目１番１１－１０２号,,40,136,8140143,,,,,,,2021-10-01,1,,,,,ホウマソウギョウ,0
2009,7290001094824,新規,0,2021-10-01,2021-10-01,株式会社ＫＩ－ＰＯＮ,,株式会社,福岡県,福岡市博多区,博多駅前１丁目１８番７号博多電気ビル６階,,40,132,8120011,,,,,,,2021-10-01,1,,,,,キープオン,0
2014,7290801027850,新規,0,2021-10-01,2021-10-01,株式会社Ｆｉｓｔ　ｂｕｍｐ,,株式会社,福岡県,遠賀郡岡垣町,東高倉２丁目２１番１１号高倉住宅Ｂ棟,00124403,40,383,8114237,,,,,,,2021-10-01,1,,,,,フィストバンプ,0
2019,7300003001727,新規,0,2021-10-01,2021-10-01,合同会社Ｒ．Ｇ．Ｃ,,合同会社,佐賀県,佐賀市,東佐賀町９番２０号東佐賀マンション１０２号,,41,201,8400821,,,,,,,2021-10-01,1,,,,,アールジーシー,0
2022,7320005009923,新規,0,2021-10-01,2021-10-01,一般社団法人全幸会,,その他の設立登記法人,大分県,由布市,挾間町挾間６５７番地,,44,213,8795506,,,,,,,2021-10-01,1,,,,,ゼンコウカイ,0
2028,7360001029418,新規,0,2021-10-01,2021-10-01,株式会社Ｗｉｔｈ,,株式会社,沖縄県,沖縄市,与儀１丁目３０番２０号ザ・プレースライカムプラチナムテラス３０９,,47,211,9042174,,,,,,,2021-10-01,1,,,,,ウィズ,0
2029,7360001029434,新規,0,2021-10-01,2021-10-01,株式会社メディアプレス,,株式会社,沖縄県,那覇市,字上間５９８番地１上間マンション１０７,,47,201,9020073,,,,,,,2021-10-01,1,,,,,,0
2031,7360003011480,新規,0,2021-10-01,2021-10-01,合同会社進貢船,,合同会社,沖縄県,那覇市,泊３丁目１番８号ＪＥＩＳ沖縄ビル１階,,47,201,9000012,,,,,,,2021-10-01,1,,,,,シンコウセン,0
2042,7420003002390,新規,0,2021-10-01,2021-10-01,合同会社アヴァロン,,合同会社,青森県,弘前市,大字取上５丁目１６番地４号,,02,202,0368171,,,,,,,2021-10-01,1,,,,,アヴァロン,0
2046,7430001085049,新規,0,2021-10-01,2021-10-01,株式会社５９３,,株式会社,北海道,札幌市厚別区,厚別西四条５丁目５番２０号,,01,108,0040064,,,,,,,2021-10-01,1,,,,,ゴクミ,0
2050,7430003013189,新規,0,2021-10-01,2021-10-01,ぺちぺちゲームス合同会社,,合同会社,北海道,札幌市手稲区,曙三条３丁目９番１８号,00124398,01,109,0060833,,,,,,,2021-10-01,1,,,,,ペチペチゲームス,0
2058,7490001010001,新規,0,2021-10-01,2021-10-01,Ｐｌａｓ　Ｂｕｉｌｄ株式会社,,株式会社,高知県,宿毛市,二ノ宮１２３０番地,,39,208,7880038,,,,,,,2021-10-01,1,,,,,プラスビルド,0
2061,7500001023703,新規,0,2021-10-01,2021-10-01,株式会社Ｍ．Ｂ．Ｃ．,,株式会社,愛媛県,今治市,常盤町３丁目１番地の２,,38,202,7940015,,,,,,,2021-10-01,1,,,,,エムビーシー,0
2073,8010001221446,新規,0,2021-10-01,2021-10-01,株式会社Ｂｌｕｅ　Ｔｏｋａｉ　Ｃｏｆｆｅｅ　Ｊａｐａｎ,,株式会社,東京都,中央区,銀座１丁目２２番１１号銀座大竹ビジデンス２階,,13,102,1040061,,,,,,,2021-10-01,1,,,,,ブルートーカイコーヒージャパン,0
2074,8010001221454,新規,0,2021-10-01,2021-10-01,ＬＣＤ株式会社,,株式会社,東京都,中央区,銀座３丁目１３番１７号辰中ビル２０２,,13,102,1040061,,,,,,,2021-10-01,1,,,,,エルシーディー,0
2075,8010001221462,新規,0,2021-10-01,2021-10-01,株式会社ＰＥＣＨＥＳ,,株式会社,東京都,文京区,本郷４丁目２７番８－５０７号,,13,105,1130033,,,,,,,2021-10-01,1,,,,,ペーシュ,0
2076,8010001221487,新規,0,2021-10-01,2021-10-01,株式会社ＡＲＴＳ,,株式会社,東京都,中央区,銀座１丁目１２番４号,,13,102,1040061,,,,,,,2021-10-01,1,,,,,アーツ,0
2077,8010001221495,新規,0,2021-10-01,2021-10-01,株式会社ｌｅｇａｃｙ,,株式会社,東京都,千代田区,神田佐久間町３丁目１番地１－５Ｆ,,13,101,1010025,,,,,,,2021-10-01,1,,,,,レガシー,0
2079,8010003035935,新規,0,2021-10-01,2021-10-01,合同会社トリニティイリノイ,,合同会社,東京都,中央区,日本橋１丁目４番１号,,13,102,1030027,,,,,,,2021-10-01,1,,,,,トリニティイリノイ,0
2080,8010003035951,新規,0,2021-10-01,2021-10-01,豊田藤岡合同会社,,合同会社,東京都,千代田区,平河町１丁目６番１５号シルスフィア会計事務所内,,13,101,1020093,,,,,,,2021-10-01,1,,,,,トヨタフジオカ,0
2093,8010401162918,新規,0,2021-10-01,2021-10-01,株式会社ＮｕｌＢｉｒｔｈ,,株式会社,東京都,港区,浜松町２丁目２－１５浜松町ダイヤビル２Ｆ,,13,103,1050013,,,,,,,2021-10-01,1,,,,,ナルバス,0
2094,8010401162934,新規,0,2021-10-01,2021-10-01,ＲＩＣ株式会社,,株式会社,東京都,港区,新橋４丁目２６番８号,,13,103,1050004,,,,,,,2021-10-01,1,,,,,アールアイシー,0
2099,8010501047861,新規,0,2021-10-01,2021-10-01,株式会社Ｔーｐｌｕｍｂｅｒ,,株式会社,東京都,台東区,上野６丁目８番１９号,,13,106,1100005,,,,,,,2021-10-01,1,,,,,,0
2100,8010601059996,新規,0,2021-10-01,2021-10-01,Ｓｍａｒｔｅｒ　Ｆａｓｔｅｒ株式会社,,株式会社,東京都,墨田区,江東橋４丁目２２番１０号,,13,107,1300022,,,,,,,2021-10-01,1,,,,,スマーターファスター,0
2102,8010801032365,新規,0,2021-10-01,2021-10-01,株式会社オキモト,,株式会社,東京都,大田区,東馬込１丁目２番２号真原第二ビル３０３,,13,111,1430022,,,,,,,2021-10-01,1,,,,,オキモト,0
2103,8010903006837,新規,0,2021-10-01,2021-10-01,東京グルマン合同会社,,合同会社,東京都,世田谷区,砧２丁目１８番６号,,13,112,1570073,,,,,,,2021-10-01,1,,,,,トウキョウグルマン,0
2114,8011001143003,新規,0,2021-10-01,2021-10-01,ＪＩＧＯＲＯ’Ｓ株式会社,,株式会社,東京都,渋谷区,神泉町２０－２２神泉ハイツ６０１,,13,113,1500045,,,,,,,2021-10-01,1,,,,,ジゴロズ,0
2121,8011003013492,新規,0,2021-10-01,2021-10-01,ＧＴＭ合同会社,,合同会社,東京都,渋谷区,神宮前６丁目２３番４号桑野ビル２階,,13,113,1500001,,,,,,,2021-10-01,1,,,,,ジーティーエム,0
2123,8011201023277,新規,0,2021-10-01,2021-10-01,株式会社東都,,株式会社,東京都,中野区,鷺宮１丁目２７－７第７１協栄ビル４０３,,13,114,1650032,,,,,,,2021-10-01,1,,,,,トウト,0
2124,8011203003649,新規,0,2021-10-01,2021-10-01,合同会社ラストワンマイルサポート,,合同会社,東京都,中野区,本町４丁目２３番１５号,,13,114,1640012,,,,,,,2021-10-01,1,,,,,ラストワンマイルサポート,0
2126,8011303004183,新規,0,2021-10-01,2021-10-01,合同会社ｂｒａｎｄｃｏ,,合同会社,東京都,杉並区,成田東４丁目３番２－４０６号,,13,115,1660015,,,,,,,2021-10-01,1,,,,,ブランコ,0
2130,8011501027341,新規,0,2021-10-01,2021-10-01,株式会社フェニーチェ,,株式会社,東京都,荒川区,南千住６丁目５９番５－７０４号,,13,118,1160003,,,,,,,2021-10-01,1,,,,,フェニーチェ,0
2135,8011701024741,新規,0,2021-10-01,2021-10-01,株式会社ピース,,株式会社,東京都,江戸川区,西小岩５丁目１４番１４－２０２号,,13,123,1330057,,,,,,,2021-10-01,1,,,,,ピース,0
2138,8011801039755,新規,0,2021-10-01,2021-10-01,敏金商事株式会社,,株式会社,東京都,足立区,江北２丁目１０番４号,,13,121,1230872,,,,,,,2021-10-01,1,,,,,ミンキンショウジ,0
2143,8012401038346,新規,0,2021-10-01,2021-10-01,株式会社Ｎｏｄａｇａｍｅｓ,,株式会社,東京都,武蔵野市,吉祥寺本町１丁目３５番４号ブランシュネイジュ吉祥寺３０６,,13,203,1800004,,,,,,,2021-10-01,1,,,,,ノダゲームス,0
2145,8013101008738,新規,0,2021-10-01,2021-10-01,株式会社ＣＯＬＯＲ,,株式会社,東京都,羽村市,小作台３丁目１０番地２,,13,227,2050001,,,,,,,2021-10-01,1,,,,,カラー,0
2148,8013301048071,新規,0,2021-10-01,2021-10-01,株式会社佳程,,株式会社,東京都,豊島区,巣鴨３丁目２５番２号巣鴨ノートビル４Ｆ,,13,116,1700002,,,,,,,2021-10-01,1,,,,,カテイ,0
2157,8020001143210,新規,0,2021-10-01,2021-10-01,株式会社ＬＩＧ　ＭＡＲＵＫＯ,,株式会社,神奈川県,横浜市緑区,いぶき野３３番地４,,14,113,2260028,,,,,,,2021-10-01,1,,,,,エルアイジーマルコ,0
2158,8020001143227,新規,0,2021-10-01,2021-10-01,株式会社タブナジア,,株式会社,神奈川県,横浜市旭区,若葉台２丁目２５番１００６号,,14,112,2410801,,,,,,,2021-10-01,1,,,,,タブナジア,0
2161,8021003010943,新規,0,2021-10-01,2021-10-01,ＳＥＹ合同会社,,合同会社,神奈川県,小田原市,栄町２丁目１３番４２－２号,,14,206,2500011,,,,,,,2021-10-01,1,,,,,エスイーワイ,0
2179,8040001120380,新規,0,2021-10-01,2021-10-01,株式会社Ｘｖａｌｕｅ,,株式会社,千葉県,佐倉市,井野１３７７番地９０,,12,212,2850855,,,,,,,2021-10-01,1,,,,,クロスバリュー,0
2185,8050001049891,新規,0,2021-10-01,2021-10-01,三上商事株式会社,,株式会社,茨城県,日立市,日高町４丁目９番４号,,08,202,3191414,,,,,,,2021-10-01,1,,,,,ミカミショウジ,0
2187,8050003006107,新規,0,2021-10-01,2021-10-01,合同会社ＭＡＸＩＳ,,合同会社,茨城県,つくば市,桜３丁目１－２,,08,220,3050003,,,,,,,2021-10-01,1,,,,,マクシス,0
2192,8060001034125,新規,0,2021-10-01,2021-10-01,株式会社島工,,株式会社,栃木県,小山市,大字喜沢１４１９番地４,,09,208,3230014,,,,,,,2021-10-01,1,,,,,シマコウ,0
2197,8080101022795,新規,0,2021-10-01,2021-10-01,ＰＪ－ｎｅｘｔ株式会社,,株式会社,静岡県,富士市,加島町１０番６号,,22,210,4160912,,,,,,,2021-10-01,1,,,,,ピージェイネクスト,0
2203,8100001034649,新規,0,2021-10-01,2021-10-01,株式会社フクロウワークス,,株式会社,長野県,松本市,征矢野１丁目３番２号,,20,202,3900842,,,,,,,2021-10-01,1,,,,,フクロウワークス,0
2228,8120001240749,新規,0,2021-10-01,2021-10-01,株式会社ＣＳ,,株式会社,大阪府,大阪市西区,新町３丁目５番１０－６０５号,,27,106,5500013,,,,,,,2021-10-01,1,,,,,シーエス,0
2232,8120101064370,新規,0,2021-10-01,2021-10-01,株式会社アレカシ,,株式会社,大阪府,泉北郡忠岡町,忠岡北２丁目７番１２号,,27,341,5950811,,,,,,,2021-10-01,1,,,,,アレカシ,0
2233,8120103004366,新規,0,2021-10-01,2021-10-01,合同会社歩,,合同会社,大阪府,河内長野市,西之山町２２－２５,,27,216,5860024,,,,,,,2021-10-01,1,,,,,アユム,0
2243,8122001035212,新規,0,2021-10-01,2021-10-01,株式会社つくも建装,,株式会社,大阪府,東大阪市,玉串町西１丁目３番４号,,27,227,5780934,,,,,,,2021-10-01,1,,,,,ツクモケンソウ,0
2244,8130003007518,新規,0,2021-10-01,2021-10-01,合同会社樹楽音塾,,合同会社,京都府,京田辺市,大住三野３番地,,26,211,6100343,,,,,,,2021-10-01,1,,,,,キラクネジュク,0
2251,8140001123191,新規,0,2021-10-01,2021-10-01,株式会社ＬＵＳＥＮＳＥ,,株式会社,兵庫県,尼崎市,立花町３丁目３５番１２号,,28,202,6610025,,,,,,,2021-10-01,1,,,,,ルーセンス,0
2252,8140001123200,新規,0,2021-10-01,2021-10-01,株式会社マプレカ,,株式会社,兵庫県,伊丹市,柏木町２丁目３４番地８,,28,207,6640863,,,,,,,2021-10-01,1,,,,,マプレカ,0
2255,8140003016773,新規,0,2021-10-01,2021-10-01,合同会社Ａ．Ｋトラスト,,合同会社,兵庫県,神崎郡市川町,上牛尾８６２番地の２,,28,442,6792301,,,,,,,2021-10-01,1,,,,,エーケートラスト,0
2256,8140003016798,新規,0,2021-10-01,2021-10-01,合同会社麺飯食堂,,合同会社,兵庫県,川西市,緑台２丁目２番地の１２１,,28,217,6660129,,,,,,,2021-10-01,1,,,,,メンハンショクドウ,0
2263,8170003001640,新規,0,2021-10-01,2021-10-01,合同会社鉄砲百合,,合同会社,和歌山県,和歌山市,福島９００番地,,30,201,6408401,,,,,,,2021-10-01,1,,,,,テッポウユリ,0
2268,8180001148012,新規,0,2021-10-01,2021-10-01,株式会社櫻華建設,,株式会社,愛知県,春日井市,出川町８丁目１８番地１,,23,206,4870025,,,,,,,2021-10-01,1,,,,,オウカケンセツ,0
2279,8180301035414,新規,0,2021-10-01,2021-10-01,株式会社ねことたんぽぽ,,株式会社,愛知県,岡崎市,六供町字清水５２番地,,23,202,4440072,,,,,,,2021-10-01,1,,,,,ネコトタンポポ,0
2285,8210001018624,新規,0,2021-10-01,2021-10-01,株式会社ＣＯＣＯＫＡＲＡ,,株式会社,福井県,福井市,新田塚２丁目３２番１３号,,18,201,9100067,,,,,,,2021-10-01,1,,,,,ココカラ,0
2289,8230003001733,新規,0,2021-10-01,2021-10-01,大海食品合同会社,,合同会社,富山県,富山市,日之出町５番１５号大協ビル３階,,16,201,9300025,,,,,,,2021-10-01,1,,,,,,0
2292,8240001058675,新規,0,2021-10-01,2021-10-01,株式会社Ｋ．Ｂ．Ｂ,,株式会社,広島県,広島市西区,井口３丁目１４番１０号,,34,104,7330842,,,,,,,2021-10-01,1,,,,,ケービービー,0
2299,8260001036002,新規,0,2021-10-01,2021-10-01,株式会社昂成,,株式会社,岡山県,津山市,総社１３１８番地４,,33,203,7080007,,,,,,,2021-10-01,1,,,,,コウセイ,0
2300,8260001036010,新規,0,2021-10-01,2021-10-01,株式会社ｓｈｉｋｉｓａｉｋａｎｋａｋｕ,,株式会社,岡山県,岡山市北区,神田町１丁目８番１６号フローリッシュ神田Ⅰ棟２０７,00124404,33,101,7000935,,,,,,,2021-10-01,1,,,,,シキサイカンカク,0
2305,8290003011660,新規,0,2021-10-01,2021-10-01,Ｖｅｒｙ　Ｂｒａｎｄ合同会社,,合同会社,福岡県,福岡市城南区,東油山１丁目１４－１,,40,136,8140155,,,,,,,2021-10-01,1,,,,,ベリーブランド,0
2318,8360001029433,新規,0,2021-10-01,2021-10-01,株式会社エイチ・エス,,株式会社,沖縄県,名護市,宇茂佐の森１丁目１３番地１シティーハウス浜龍６０１号,,47,209,9050009,,,,,,,2021-10-01,1,,,,,エイチエス,0
2323,8370001047640,新規,0,2021-10-01,2021-10-01,北新株式会社,,株式会社,宮城県,石巻市,浜松町４番５号,,04,202,9862131,,,,,,,2021-10-01,1,,,,,ホクシン,0
2328,8380001032229,新規,0,2021-10-01,2021-10-01,株式会社福島福祉カレッジ福島校,,株式会社,福島県,福島市,飯坂町湯野字銚子口４番地の１１,,07,201,9600211,,,,,,,2021-10-01,1,,,,,,0
2334,8430001085056,新規,0,2021-10-01,2021-10-01,山下地所株式会社,,株式会社,北海道,札幌市中央区,北一条西１７丁目１番地４７,,01,101,0600001,,,,,,,2021-10-01,1,,,,,ヤマシタジショ,0
2335,8430001085064,新規,0,2021-10-01,2021-10-01,株式会社ＬＯＬ　ＬＡＢＯ,,株式会社,北海道,千歳市,幸町３丁目１５番地エレガンスビル４階,,01,224,0660063,,,,,,,2021-10-01,1,,,,,エルオーエルラボ,0
2336,8430001085072,新規,0,2021-10-01,2021-10-01,株式会社海花水産,,株式会社,北海道,石狩市,花川南一条４丁目２８６番地,,01,235,0613201,,,,,,,2021-10-01,1,,,,,カイカスイサン,0
2338,8430005014291,新規,0,2021-10-01,2021-10-01,特定非営利活動法人北海道自伐型林業推進協議会,,その他の設立登記法人,北海道,白老郡白老町,栄町２丁目１番７号,,01,578,0590914,,,,,,,2021-10-01,1,,,,,ホッカイドウジバツガタリンギョウスイシンキョウギカイ,0
2345,8490001010000,新規,0,2021-10-01,2021-10-01,株式会社くろしお,,株式会社,高知県,高知市,葛島３丁目７番１６号,,39,201,7818121,,,,,,,2021-10-01,1,,,,,クロシオ,0
2349,8500005008419,新規,0,2021-10-01,2021-10-01,農事組合法人黒川,,その他の設立登記法人,愛媛県,宇和島市,三間町黒川７２番地,,38,203,7981143,,,,,,,2021-10-01,1,,,,,クロカワ,0
2350,8700150104282,新規,0,2021-10-01,2021-08-04,ひろしま国際平和文化祭実行委員会,,その他,広島県,広島市中区,加古町４番１７号,,34,101,7300812,,,,,,,2021-08-04,1,,,,,ヒロシマコクサイヘイワブンカサイジツコウイインカイ,0
2355,9010001221379,新規,0,2021-10-01,2021-10-01,Ｋｒａｔｏｓ　Ｃｏｍｍｕｎｉｃａｔｉｏｎｓ　Ｊａｐａｎ株式会社,,株式会社,東京都,千代田区,丸の内１丁目８番３号丸の内トラストタワー本館２０階,,13,101,1000005,,,,,,,2021-10-01,1,,,,,クレトスコミュニケーションズジャパン,0
2356,9010001221437,新規,0,2021-10-01,2021-10-01,Ｓｐａｃｅ　Ｔｒａｎｓｉｔ株式会社,,株式会社,東京都,千代田区,六番町１５番２号,,13,101,1020085,,,,,,,2021-10-01,1,,,,,スペーストランジット,0
2357,9010001221445,新規,0,2021-10-01,2021-10-01,株式会社ｓｅｓｓｉｏｎ,,株式会社,東京都,文京区,湯島２丁目２－４－２０１,,13,105,1130034,,,,,,,2021-10-01,1,,,,,セッション,0
2358,9010001221453,新規,0,2021-10-01,2021-10-01,株式会社商流ファクトリー,,株式会社,東京都,中央区,銀座１丁目２２番１１号,,13,102,1040061,,,,,,,2021-10-01,1,,,,,ショウリュウファクトリー,0
2359,9010001221461,新規,0,2021-10-01,2021-10-01,ＤＥＮＧＹＯ　Ｔｅｃｈｎｏｌｏｇｙ株式会社,,株式会社,東京都,千代田区,神田神保町１丁目１４番地１,,13,101,1010051,,,,,,,2021-10-01,1,,,,,デンギョウテクノロジー,0
2361,9010003035934,新規,0,2021-10-01,2021-10-01,合同会社Ｃａｓｈ,,合同会社,東京都,中央区,日本橋小網町２番１－１００６号,,13,102,1030016,,,,,,,2021-10-01,1,,,,,キャッシュ,0
2371,9010401162925,新規,0,2021-10-01,2021-10-01,株式会社オーバーシーズ,,株式会社,東京都,港区,南青山６丁目１番１３号,,13,103,1070062,,,,,,,2021-10-01,1,,,,,オーバーシーズ,0
2372,9010401162941,新規,0,2021-10-01,2021-10-01,株式会社ＴＭビジネスパートナーズ,,株式会社,東京都,港区,西新橋１丁目１９番６号,,13,103,1050003,,,,,,,2021-10-01,1,,,,,ティーエムビジネスパートナーズ,0
2373,9010401162958,新規,0,2021-10-01,2021-10-01,ｉＡｕｃ　Ｊａｐａｎ株式会社,,株式会社,東京都,港区,虎ノ門５丁目１３番１号虎ノ門４０ＭＴビル７階,,13,103,1050001,,,,,,,2021-10-01,1,,,,,アイオークジャパン,0
2374,9010402038645,新規,0,2021-10-01,2021-10-01,有限会社上田鉄工所,,有限会社,東京都,港区,南麻布１丁目１４番８号,,13,103,1060047,,,,,,,2021-10-01,1,,,,,,0
2377,9010403026211,新規,0,2021-10-01,2021-10-01,Ｂｒｉｄｇｅ　Ｃａｐｉｔａｌ合同会社,,合同会社,東京都,港区,南青山２丁目２番６号７０２号室,,13,103,1070062,,,,,,,2021-10-01,1,,,,,ブリッジキャピタル,0
2389,9010501047885,新規,0,2021-10-01,2021-10-01,ＢＡＮＡＮＡ　ＤＥＳＩＧＮ　ＯＦＦＩＣＥ株式会社,,株式会社,東京都,台東区,浅草橋２丁目１２番８号,,13,106,1110053,,,,,,,2021-10-01,1,,,,,バナナデザインオフィス,0
2392,9010601059995,新規,0,2021-10-01,2021-10-01,アサヒグループジャパン株式会社,,株式会社,東京都,墨田区,吾妻橋１丁目２３番１号,,13,107,1300001,,,,,,,2021-10-01,1,,,,,アサヒグループジャパン,0
2393,9010601060004,新規,0,2021-10-01,2021-10-01,株式会社ｆａｃｉｌ,,株式会社,東京都,江東区,豊洲６丁目２番３１－４０２５号,,13,108,1350061,,,,,,,2021-10-01,1,,,,,ファシル,0
2396,9010701041572,新規,0,2021-10-01,2021-10-01,株式会社林総業,,株式会社,東京都,品川区,旗の台６丁目２９番７号（株）日研測量３Ｆ,,13,109,1420064,,,,,,,2021-10-01,1,,,,,ハヤシソウギョウ,0
2397,9010701041589,新規,0,2021-10-01,2021-10-01,株式会社ｂｕｉｌｄｅｅ,,株式会社,東京都,品川区,西五反田５丁目５－６,,13,109,1410031,,,,,,,2021-10-01,1,,,,,ビルディー,0
2407,9011001143142,新規,0,2021-10-01,2021-10-01,株式会社Ｓｍａｒｔｇｉｖｅ,,株式会社,東京都,渋谷区,渋谷３丁目２６番１６号,,13,113,1500002,,,,,,,2021-10-01,1,,,,,スマートギブ,0
2409,9011101096422,新規,0,2021-10-01,2021-10-01,株式会社テクノワン,,株式会社,東京都,新宿区,北新宿３丁目１９番６号フェリスセイル２０１,,13,104,1690074,,,,,,,2021-10-01,1,,,,,テクノワン,0
2413,9011201023284,新規,0,2021-10-01,2021-10-01,株式会社リットドット,,株式会社,東京都,中野区,東中野４丁目４番１７－７０１号,,13,114,1640003,,,,,,,2021-10-01,1,,,,,リットドット,0
2414,9011203003648,新規,0,2021-10-01,2021-10-01,合同会社ＮＶ　ＴＳＵＢＡＳＡ,,合同会社,東京都,中野区,弥生町１丁目３２番６森崎アパート１０１号,,13,114,1640013,,,,,,,2021-10-01,1,,,,,エヌブイツバサ,0
2417,9011401023712,新規,0,2021-10-01,2021-10-01,Ｒｅｌａｙ　ｐｏｉｎｔ株式会社,,株式会社,東京都,板橋区,板橋２丁目６４番１３－４０３号,,13,119,1730004,,,,,,,2021-10-01,1,,,,,リレーポイント,0
2421,9011601025426,新規,0,2021-10-01,2021-10-01,株式会社ＴＳリース,,株式会社,東京都,練馬区,桜台１丁目１番１０－５０２号,,13,120,1760002,,,,,,,2021-10-01,1,,,,,ティーエスリース,0
2422,9011701024740,新規,0,2021-10-01,2021-10-01,株式会社Ｋ－ＴＥＣ,,株式会社,東京都,江戸川区,北葛西３丁目５番１２－２０２号,,13,123,1340081,,,,,,,2021-10-01,1,,,,,ケーテック,0
2424,9011801039754,新規,0,2021-10-01,2021-10-01,株式会社ドゥ・アイ・コンサルティング,,株式会社,東京都,足立区,梅田５丁目２５番９－５１８号,,13,121,1230851,,,,,,,2021-10-01,1,,,,,ドゥアイコンサルティング,0
2425,9011803004797,新規,0,2021-10-01,2021-10-01,合同会社ユニークス,,合同会社,東京都,足立区,谷中３丁目１９番５－３０３号,,13,121,1200006,,,,,,,2021-10-01,1,,,,,ユニークス,0
2430,9013301048079,新規,0,2021-10-01,2021-10-01,株式会社ビューティバレット,,株式会社,東京都,豊島区,巣鴨１丁目２４番１０号,,13,116,1700002,,,,,,,2021-10-01,1,,,,,ビューティバレット,0
2432,9013303005838,新規,0,2021-10-01,2021-10-01,合同会社エイチエルエムオートスジャパン,,合同会社,東京都,豊島区,駒込３丁目１番３号ＥｃｏＰｌａｃｅ駒込Ｂ－２０３,,13,116,1700003,,,,,,,2021-10-01,1,,,,,エイチエルエムオートスジャパン,0
2442,9020001143226,新規,0,2021-10-01,2021-10-01,株式会社Ｌｉｂｌｅ,,株式会社,神奈川県,横浜市中区,桜木町１丁目１番地７ヒューリックみなとみらい１０階,,14,104,2310062,,,,,,,2021-10-01,1,,,,,リーブル,0
2443,9020001143242,新規,0,2021-10-01,2021-10-01,株式会社スター・ユニオン,,株式会社,神奈川県,横浜市中区,山下町１６０番地,,14,104,2310023,,,,,,,2021-10-01,1,,,,,スターユニオン,0
2453,9021001074072,新規,0,2021-10-01,2021-10-01,株式会社ファインランド,,株式会社,神奈川県,相模原市南区,東林間１丁目２５番１０－３０８号,,14,153,2520311,,,,,,,2021-10-01,1,,,,,ファインランド,0
2466,9030001144545,新規,0,2021-10-01,2021-10-01,ルーシー株式会社,,株式会社,埼玉県,吉川市,美南４丁目１４番地５,,11,243,3420038,,,,,,,2021-10-01,1,,,,,ルーシー,0
2470,9030003018029,新規,0,2021-10-01,2021-10-01,合同会社マスコ,,合同会社,埼玉県,本庄市,西富田９５０番地,,11,211,3670035,,,,,,,2021-10-01,1,,,,,マスコ,0
2471,9030003018045,新規,0,2021-10-01,2021-10-01,合同会社うみそら訪問看護ステーション,,合同会社,埼玉県,さいたま市緑区,宮本２丁目１８番地３８,,11,109,3360916,,,,,,,2021-10-01,1,,,,,ウミソラホウモンカンゴステーション,0
2477,9040001120388,新規,0,2021-10-01,2021-10-01,株式会社ひととして,,株式会社,千葉県,成田市,公津の杜４丁目６番地２（Ｂ棟１５０５号室）,,12,211,2860048,,,,,,,2021-10-01,1,,,,,ヒトトシテ,0
2480,9040003018630,新規,0,2021-10-01,2021-10-01,合同会社Ｙ＆Ａ,,合同会社,千葉県,船橋市,咲が丘４丁目３２番８号,,12,204,2740807,,,,,,,2021-10-01,1,,,,,ワイアンドエー,0
2481,9040003018655,新規,0,2021-10-01,2021-10-01,合同会社ｎｏｒｉｍａ２３,,合同会社,千葉県,佐倉市,生谷１６０８番地４５,,12,212,2850836,,,,,,,2021-10-01,1,,,,,ノリマツースリー,0
2487,9060001034132,新規,0,2021-10-01,2021-10-01,株式会社ＭＵＧＨＡＬ　ＴＲＡＤＩＮＧ,,株式会社,栃木県,下都賀郡野木町,大字南赤塚８３０番地１２,,09,364,3290112,,,,,,,2021-10-01,1,,,,,ムガルトレーディング,0
2499,9100001034656,新規,0,2021-10-01,2021-10-01,Ｙ’ｓエステート株式会社,,株式会社,長野県,諏訪郡下諏訪町,高浜６１８３番地４パッションビル１０１,,20,361,3930034,,,,,,,2021-10-01,1,,,,,ワイズエステート,0
2508,9120001240772,新規,0,2021-10-01,2021-10-01,開成株式会社,,株式会社,大阪府,大阪市西成区,梅南２丁目２番２６号１０２室,,27,122,5570033,,,,,,,2021-10-01,1,,,,,カイセイ,0
2513,9120901044950,新規,0,2021-10-01,2021-10-01,株式会社桐島総業,,株式会社,大阪府,茨木市,五十鈴町１７番３２号の８,,27,211,5670842,,,,,,,2021-10-01,1,,,,,キリシマソウギョウ,0
2517,9122001035211,新規,0,2021-10-01,2021-10-01,株式会社ライトワークデザイン,,株式会社,大阪府,東大阪市,長堂１丁目８番３７号ヴェル・ノール布施３階ＲｅｑｒｅｅＶｅｌｌｅｎｏｒｄ,,27,227,5770056,,,,,,,2021-10-01,1,,,,,ライトワークデザイン,0
2518,9130001070186,新規,0,2021-10-01,2021-10-01,株式会社田中組,,株式会社,京都府,京都市伏見区,深草西浦町８丁目１２８,,26,109,6120029,,,,,,,2021-10-01,1,,,,,タナカグミ,0
2519,9130001070203,新規,0,2021-10-01,2021-10-01,株式会社ムトーヨータドー,,株式会社,京都府,京都市北区,紫野宮東町１－７３シャトー紫明３０１,,26,101,6038157,,,,,,,2021-10-01,1,,,,,ムトーヨータドー,0
2528,9140001123199,新規,0,2021-10-01,2021-10-01,株式会社Ｍｉｋｕ　Ｓｔｏｒｙ,,株式会社,兵庫県,神戸市須磨区,寺田町２丁目１番２４号,,28,107,6540025,,,,,,,2021-10-01,1,,,,,ミクストーリー,0
2533,9140003016789,新規,0,2021-10-01,2021-10-01,合同会社ＰＬＡＮＥＴ,,合同会社,兵庫県,神戸市灘区,鶴甲５丁目１番１５号,,28,102,6570011,,,,,,,2021-10-01,1,,,,,プラネット,0
2552,9180001148003,新規,0,2021-10-01,2021-10-01,株式会社大観建設,,株式会社,愛知県,海部郡蟹江町,大字蟹江新田字佐屋川西２１番地,,23,425,4970044,,,,,,,2021-10-01,1,,,,,ダイカンケンセツ,0
2553,9180001148011,新規,0,2021-10-01,2021-10-01,株式会社ＨＩＪノレンコミュニティ,,株式会社,愛知県,江南市,古知野町朝日５０番地青山ビル３Ｆ,,23,217,4838213,,,,,,,2021-10-01,1,,,,,エイチアイジェイノレンコミュニティ,0
2554,9180001148036,新規,0,2021-10-01,2021-10-01,ＬＳ－ＴＥＣＨ株式会社,,株式会社,愛知県,江南市,後飛保町新開７１番地３,,23,217,4838387,,,,,,,2021-10-01,1,,,,,エルエステック,0
2557,9180301035421,新規,0,2021-10-01,2021-10-01,株式会社インテリアＡＩ,,株式会社,愛知県,豊川市,御油町一本木１４番地の１,,23,207,4410211,,,,,,,2021-10-01,1,,,,,インテリアアイ,0
2560,9190001028716,新規,0,2021-10-01,2021-10-01,世古美装店ＴＯＫＹＯ株式会社,,株式会社,三重県,松阪市,京町１３番２,,24,204,5150017,,,,,,,2021-10-01,1,,,,,セコビソウテントーキョー,0
2572,9280001008519,新規,0,2021-10-01,2021-10-01,株式会社緑屋,,株式会社,島根県,松江市,田和山町１２５番地,,32,201,6900058,,,,,,,2021-10-01,1,,,,,ミドリヤ,0
2577,9290001094814,新規,0,2021-10-01,2021-10-01,株式会社ライトハンド,,株式会社,福岡県,筑紫野市,二日市北８丁目１０番２０号,,40,217,8180056,,,,,,,2021-10-01,1,,,,,ライトハンド,0
2585,9320001018629,新規,0,2021-10-01,2021-10-01,株式会社ｓｙｎｅｒｇｉｅｚ,,株式会社,大分県,別府市,野口元町４番２９号甲斐ビル１階,,44,202,8740933,,,,,,,2021-10-01,1,,,,,シナジーズ,0
2594,9340003003577,新規,0,2021-10-01,2021-10-01,合同会社たばりき,,合同会社,鹿児島県,鹿児島市,山之口町７番３４号Ｄｕｐｌｅｘ３０２号,,46,201,8920844,,,,,,,2021-10-01,1,,,,,タバリキ,0
2596,9360001029432,新規,0,2021-10-01,2021-10-01,株式会社サイア,,株式会社,沖縄県,名護市,字宇茂佐１６４４番地２,,47,209,9050006,,,,,,,2021-10-01,1,,,,,サイア,0
2597,9360001029449,新規,0,2021-10-01,2021-10-01,株式会社ビーシーワークス,,株式会社,沖縄県,那覇市,久茂地２丁目２４番５号燕２０１,,47,201,9000015,,,,,,,2021-10-01,1,,,,,ビーシーワークス,0
2599,9360003011479,新規,0,2021-10-01,2021-10-01,合同会社オクミネ電設,,合同会社,沖縄県,中頭郡西原町,字幸地４１５番地３,,47,329,9030116,,,,,,,2021-10-01,1,,,,,オクミネデンセツ,0
2628,9430003013204,新規,0,2021-10-01,2021-10-01,合同会社ままとビレッジ,,合同会社,北海道,石狩郡当別町,スウェーデンヒルズ２２７０－１６,,01,303,0613777,,,,,,,2021-10-01,1,,,,,ママトビレッジ,0
2631,9440003001414,新規,0,2021-10-01,2021-10-01,合同会社斗真電工,,合同会社,北海道,函館市,富岡町１丁目５３番１３号,,01,202,0410811,,,,,,,2021-10-01,1,,,,,トシンデンコウ,0
2637,9460101007063,新規,0,2021-10-01,2021-10-01,株式会社アサヒ・アグリ・アクション,,株式会社,北海道,十勝郡浦幌町,字朝日９４番地１,,01,649,0895546,,,,,,,2021-10-01,1,,,,,アサヒアグリアクション,0
