sequenceNumber,corporateNumber,process,correct,updateDate,changeDate,name,nameImageId,kind,prefectureName,cityName,streetNumber,addressImageId,prefectureCode,cityCode,postCode,addressOutside,addressOutsideImageId,closeDate,closeCause,successorCorporateNumber,changeCause,assignmentDate,latest,enName,enPrefectureName,enCityName,enAddressOutside,furigana,hihyoji
5,1010001043070,登記記録の閉鎖等,0,2022-08-01,2022-07-15,国分グローサーズチェーン株式会社,,株式会社,東京都,中央区,日本橋１丁目１番１号,,13,102,1030027,,,2022-07-15,清算の結了等,,,2015-10-05,1,,,,,コクブグローサーズチェーン,0
24,1010401165407,登記記録の閉鎖等,0,2022-08-01,2022-07-08,株式会社ＤＸ　ＢＡＮＫ,,株式会社,東京都,港区,南青山２丁目２番３号,,13,103,1070062,,,2022-07-08,清算の結了等,,,2022-02-03,1,,,,,ディーエックスバンク,0
26,1010502013530,登記記録の閉鎖等,0,2022-08-01,2022-07-28,有限会社ライオン,,有限会社,東京都,台東区,千束３丁目１６番８号,,13,106,1110031,,,2022-07-28,清算の結了等,,,2015-10-05,1,,,,,ライオン,0
27,1010502016624,登記記録の閉鎖等,0,2022-08-01,2022-07-28,有限会社フェリックス,,有限会社,東京都,台東区,元浅草１丁目２０番３号,,13,106,1110041,,,2022-07-28,清算の結了等,,,2015-10-05,1,,,,,フェリックス,0
34,1010702008520,登記記録の閉鎖等,0,2022-08-01,2022-07-28,有限会社山口電気,,有限会社,東京都,品川区,西品川１丁目１４番２号,,13,109,1410033,,,2022-07-28,清算の結了等,,,2015-10-05,1,,,,,ヤマグチデンキ,0
62,1011702008460,登記記録の閉鎖等,0,2022-08-01,2022-07-28,有限会社中里電気,,有限会社,東京都,江戸川区,東小松川１丁目９番２０号,,13,123,1320033,,,2022-07-28,清算の結了等,,,2015-10-05,1,,,,,ナカザトデンキ,0
71,1012405002420,登記記録の閉鎖等,0,2022-08-01,2022-07-26,特定非営利活動法人めざしの会,,その他の設立登記法人,東京都,国分寺市,富士本１丁目２５番地３１,,13,214,1850031,,,2022-07-26,清算の結了等,,,2015-10-05,1,,,,,メザシノカイ,0
119,1040005004909,登記記録の閉鎖等,0,2022-08-01,2022-07-22,特定非営利活動法人フューチャー・フォーラム,,その他の設立登記法人,千葉県,浦安市,日の出１丁目４番Ｈ－２０５号ベイシティ浦安,,12,227,2790013,,,2022-07-22,清算の結了等,,,2015-10-05,1,,,,,フューチャーフォーラム,0
120,1050001009241,登記記録の閉鎖等,0,2022-08-01,2022-07-22,株式会社ゼネラル・プラン,,株式会社,茨城県,土浦市,神立中央２丁目１７番１号,,08,203,3000011,,,2022-07-22,清算の結了等,,,2015-10-05,1,,,,,ゼネラルプラン,0
121,1050001028191,登記記録の閉鎖等,0,2022-08-01,2022-07-21,株式会社山本不動産鑑定事務所,,株式会社,茨城県,牛久市,田宮町３９１番地の１０１,,08,219,3001236,,,2022-07-21,清算の結了等,,,2015-10-05,1,,,,,ヤマモトフドウサンカンテイジムショ,0
138,1070002006533,登記記録の閉鎖等,0,2022-08-01,2022-07-15,有限会社関東アールシー,,有限会社,群馬県,前橋市,富士見町原之郷６２３番地１,,10,201,3710116,,,2022-07-15,清算の結了等,,,2015-10-05,1,,,,,カントウアールシー,0
150,1110002000829,登記記録の閉鎖等,0,2022-08-01,2022-07-27,有限会社伊藤新聞店,,有限会社,新潟県,新潟市西区,内野町５５９番地,,15,107,9502112,,,2022-07-27,清算の結了等,,,2015-10-05,1,,,,,イトウシンブンテン,0
159,1120001206038,登記記録の閉鎖等,0,2022-08-01,2022-07-25,ＡＪ　ＴＲＡＤＩＮＧ株式会社,,株式会社,大阪府,大阪市中央区,南船場２丁目７番１６号,,27,128,5420081,,,2022-07-25,清算の結了等,,,2017-06-01,1,,,,,,0
161,1120001225839,登記記録の閉鎖等,0,2022-08-01,2022-07-27,株式会社プラスワン,,株式会社,大阪府,大阪市西区,京町堀１丁目１１番７号京旺ビル４階Ｂ号室,,27,106,5500003,,,2022-07-27,清算の結了等,,,2019-12-17,1,,,,,プラスワン,0
176,1120901038324,登記記録の閉鎖等,0,2022-08-01,2022-07-27,株式会社キャリアフォーム,,株式会社,大阪府,吹田市,上山田７番Ｄ－１１０６号,,27,205,5650872,,,2022-07-27,清算の結了等,,,2017-04-20,1,,,,,キャリアフォーム,0
194,1140002032877,登記記録の閉鎖等,0,2022-08-01,2022-07-27,有限会社森田電機製作所,,有限会社,兵庫県,宍粟市,一宮町嶋田１０４番地,,28,227,6714136,,,2022-07-27,清算の結了等,,,2015-10-05,1,,,,,モリタデンキセイサクショ,0
205,1180001057434,登記記録の閉鎖等,0,2022-08-01,2022-07-27,株式会社辻テック,00072185,株式会社,愛知県,名古屋市天白区,八事山１１７番地,,23,116,4680077,,,2022-07-27,清算の結了等,,,2015-10-05,1,,,,,ツジテック,0
206,1180001131775,登記記録の閉鎖等,0,2022-08-01,2022-07-04,ＭＶソリューション株式会社,,株式会社,愛知県,名古屋市中区,栄１丁目２９番２９号,,23,106,4600008,,,2022-07-04,合併による解散等,1180002058357,令和４年７月１日名古屋市中区栄一丁目２９番２９号株式会社メルヴェイユ（1180002058357）に合併し解散,2018-04-05,1,,,,,エムブイソリューション,0
211,1180302016469,登記記録の閉鎖等,0,2022-08-01,2022-07-28,有限会社オカダヤ書店,,有限会社,愛知県,安城市,昭和町７番８号,,23,212,4460063,,,2022-07-28,清算の結了等,,,2015-10-05,1,,,,,オカダヤショテン,0
216,1200001017773,登記記録の閉鎖等,0,2022-08-01,2022-07-15,名鉄木材防腐株式会社,,株式会社,岐阜県,可児市,土田字井ノ鼻４１７番地の１,,21,214,5090206,,,2022-07-15,合併による解散等,5180001015677,令和４年７月１日名古屋市南区前浜通七丁目２８番地名鉄産業株式会社（5180001015677）に合併し解散,2015-10-05,1,,,,,,0
220,1210002010446,登記記録の閉鎖等,0,2022-08-01,2022-07-22,有限会社ドヒ,,有限会社,福井県,敦賀市,本町１丁目１０番１０号,,18,202,9140051,,,2022-07-22,清算の結了等,,,2015-10-05,1,,,,,ドヒ,0
221,1240001020988,登記記録の閉鎖等,0,2022-08-01,2022-07-25,株式会社ブレインズ,,株式会社,広島県,広島市西区,南観音１丁目８番２０号,,34,104,7330035,,,2022-07-25,清算の結了等,,,2015-10-05,1,,,,,ブレインズ,0
226,1240002042379,登記記録の閉鎖等,0,2022-08-01,2022-07-28,有限会社林工務店,,有限会社,広島県,福山市,大門町３丁目１４番２５号,,34,207,7210926,,,2022-07-28,清算の結了等,,,2015-10-05,1,,,,,ハヤシコウムテン,0
250,1330005010101,登記記録の閉鎖等,0,2022-08-01,2022-07-19,ＮＰＯ法人くまもと食育ひろば,,その他の設立登記法人,熊本県,熊本市中央区,出水５丁目１１番２５－１７号,,43,101,8620941,,,2022-07-19,清算の結了等,,,2019-11-05,1,,,,,クマモトショクイクヒロバ,0
265,1370302001914,登記記録の閉鎖等,0,2022-08-01,2022-07-11,有限会社日和不動産,,有限会社,宮城県,石巻市,門脇字上野町５５番地の８,,04,202,9860853,,,2022-07-11,清算の結了等,,,2016-08-24,1,,,,,,0
266,1370401000957,登記記録の閉鎖等,0,2022-08-01,2022-07-15,株式会社ヒューマンネットくさか,,株式会社,宮城県,登米市,中田町宝江黒沼字大海崎２番地,,04,212,9870621,,,2022-07-15,清算の結了等,,,2015-10-05,1,,,,,ヒューマンネットクサカ,0
279,1450001007064,登記記録の閉鎖等,0,2022-08-01,2022-07-29,株式会社サンワマテリアル,,株式会社,北海道,旭川市,宮前一条２丁目１番１０－８０１号,,01,204,0788391,,,2022-07-29,清算の結了等,,,2015-10-05,1,,,,,サンワマテリアル,0
286,2010001085038,登記記録の閉鎖等,0,2022-08-01,2022-07-08,株式会社ウィン・コム・リンク,,株式会社,東京都,港区,赤坂６丁目６番４－５０２号,,13,103,1070052,,,2022-07-08,清算の結了等,,,2015-10-05,1,,,,,,0
287,2010001105522,登記記録の閉鎖等,0,2022-08-01,2022-07-08,株式会社ケーソフトエンタープライズ,,株式会社,東京都,千代田区,大手町１丁目７番２号東京サンケイビル２７階,,13,101,1000004,,,2022-07-08,合併による解散等,5010903003647,令和４年７月１日東京都世田谷区池尻三丁目１８番３３号ガーデンテラス３０１合同会社ケー（5010903003647）に合併し解散,2015-10-05,1,,,,,,0
293,2010001192998,登記記録の閉鎖等,0,2022-08-01,2022-07-19,株式会社ＯＲＤＥＲ,,株式会社,東京都,千代田区,平河町２丁目１６番９号,,13,101,1020093,,,2022-07-19,清算の結了等,,,2018-07-05,1,,,,,オーダー,0
299,2010003034463,登記記録の閉鎖等,0,2022-08-01,2022-07-15,合同会社ＡＲＴＥＭＩＳ,,合同会社,東京都,中央区,日本橋２丁目１－３アーバンネット日本橋二丁目ビル１０Ｆ,,13,102,1030027,,,2022-07-15,合併による解散等,3011101072305,令和４年７月１５日東京都中央区日本橋二丁目１－３アーバンネット日本橋二丁目ビル１０Ｆ株式会社ＨＡＴＡＳＥ　ＨＯＬＤＩＮＧＳ（3011101072305）に合併し解散,2021-03-25,1,,,,,アルテミス,0
308,2010401093425,登記記録の閉鎖等,0,2022-08-01,2022-07-08,フォーバイフォーデジタル株式会社,,株式会社,東京都,港区,元赤坂１丁目５番２０－６０２号,,13,103,1070051,,,2022-07-08,清算の結了等,,,2015-10-05,1,,,,,フォーバイフォーデジタル,0
314,2010401158896,登記記録の閉鎖等,0,2022-08-01,2022-07-11,株式会社しろまる,,株式会社,東京都,港区,北青山３丁目５番１４号６階,,13,103,1070061,,,2022-07-11,清算の結了等,,,2021-03-17,1,,,,,シロマル,0
315,2010401162089,登記記録の閉鎖等,0,2022-08-01,2022-07-13,ＢＯＹＯＮＤ株式会社,,株式会社,東京都,新宿区,四谷三栄町３－７森山ビル東館２Ｆ,,13,104,1600008,,,2022-07-13,合併による解散等,3010401162088,令和４年７月１日東京都新宿区四谷三栄町３－７森山ビル東館２Ｆイリスマ株式会社（3010401162088）に合併し解散,2021-08-13,1,,,,,ボヨンド,0
316,2010403024428,登記記録の閉鎖等,0,2022-08-01,2022-07-11,合同会社ＭＥＬＬ　ＡＧＥＮＣＹ,,合同会社,東京都,港区,北青山２丁目７番１９号,,13,103,1070061,,,2022-07-11,清算の結了等,,,2021-01-13,1,,,,,メルエージェンシー,0
337,2011001111345,登記記録の閉鎖等,0,2022-08-01,2022-07-13,株式会社ＷｈｉｔｅＢｏｘ,,株式会社,東京都,渋谷区,東３丁目９－１９,,13,113,1500011,,,2022-07-13,合併による解散等,2011001059411,令和４年７月１日東京都渋谷区東三丁目９番１９号株式会社情報戦略テクノロジー（2011001059411）に合併し解散,2016-06-09,1,,,,,ホワイトボックス,0
355,2011505000250,登記記録の閉鎖等,0,2022-08-01,2022-07-14,天理教順城分教会,,その他の設立登記法人,東京都,北区,西が丘２丁目１７番１８号,,13,117,1150056,,,2022-07-14,合併による解散等,2021005005716,令和４年７月１日神奈川県小田原市扇町五丁目１番２号天理教足柄分教会（2021005005716）に合併し解散,2015-10-05,1,,,,,,0
363,2012402020721,登記記録の閉鎖等,0,2022-08-01,2022-07-28,有限会社メンテナンス・エクスプレス・ユー,,有限会社,東京都,武蔵野市,関前４丁目１７番１０号,,13,203,1800014,,,2022-07-28,清算の結了等,,,2015-10-05,1,,,,,,0
364,2013102000278,登記記録の閉鎖等,0,2022-08-01,2022-07-29,有限会社小林畳店,,有限会社,東京都,福生市,大字熊川５０５番地,,13,218,1970003,,,2022-07-29,清算の結了等,,,2015-10-05,1,,,,,コバヤシタタミテン,0
375,2021002016278,登記記録の閉鎖等,0,2022-08-01,2022-07-27,有限会社湘南ロジテス,,有限会社,神奈川県,鎌倉市,御成町６番１４号,,14,204,2480012,,,2022-07-27,清算の結了等,,,2015-10-05,1,,,,,ショウナンロジテス,0
398,2040005019253,登記記録の閉鎖等,0,2022-08-01,2022-07-22,特定非営利活動法人海のこえ,,その他の設立登記法人,千葉県,長生郡一宮町,一宮１００１１番地ｍｏｅ－ｌｉｋｏ０３,,12,421,2994301,,,2022-07-22,清算の結了等,,,2016-10-07,1,,,,,ウミノコエ,0
404,2060002009998,登記記録の閉鎖等,0,2022-08-01,2022-07-25,有限会社テイライフテクノ,,有限会社,栃木県,宇都宮市,陽東５丁目３１番地２,,09,201,3210904,,,2022-07-25,清算の結了等,,,2015-10-05,1,,,,,テイライフテクノ,0
405,2060002012787,登記記録の閉鎖等,0,2022-08-01,2022-07-22,有限会社ナカツガワ縫製,,有限会社,栃木県,さくら市,喜連川７３３番地１,,09,214,3291412,,,2022-07-22,清算の結了等,,,2015-10-05,1,,,,,ナカツガワホウセイ,0
414,2090002010466,登記記録の閉鎖等,0,2022-08-01,2022-07-25,有限会社ふじ福祉サービス,,有限会社,山梨県,都留市,井倉みとふし２９８番８,,19,204,4020011,,,2022-07-25,清算の結了等,,,2015-10-05,1,,,,,,0
461,2140001112654,登記記録の閉鎖等,0,2022-08-01,2022-07-27,株式会社緑電気工業,,株式会社,兵庫県,加古川市,平岡町中野井堀６２２番地の１,,28,210,6750113,,,2022-07-27,清算の結了等,,,2019-02-06,1,,,,,ミドリデンキコウギョウ,0
497,2200003001312,登記記録の閉鎖等,0,2022-08-01,2022-07-29,合同会社日和,,合同会社,岐阜県,岐阜市,加納南陽町２丁目３９番地,,21,201,5008276,,,2022-07-29,清算の結了等,,,2015-10-05,1,,,,,ヒヨリ,0
508,2240001059209,登記記録の閉鎖等,0,2022-08-01,2022-07-27,株式会社宅味實商店,,株式会社,広島県,府中市,府中町６９３番地,,34,208,7260005,,,2022-07-27,清算の結了等,,,2022-01-20,1,,,,,タクミミノルショウテン,0
520,2320005001249,登記記録の閉鎖等,0,2022-08-01,2022-07-29,大分東工業団地協同組合,,その他の設立登記法人,大分県,大分市,大字下郡３１５３番地の３,,44,201,8700951,,,2022-07-29,清算の結了等,,,2015-10-05,1,,,,,オオイタヒガシコウギョウダンチキョウドウクミアイ,0
539,2420001000772,登記記録の閉鎖等,0,2022-08-01,2022-07-26,株式会社技衡,,株式会社,青森県,青森市,自由ケ丘１丁目１６番地１,,02,201,0300941,,,2022-07-26,清算の結了等,,,2015-10-05,1,,,,,ギコウ,0
576,3010401043569,登記記録の閉鎖等,0,2022-08-01,2022-07-08,株式会社ＨＯＮＺエンタープライズ,,株式会社,東京都,港区,南青山５丁目３番１０号,,13,103,1070062,,,2022-07-08,合併による解散等,7010401040918,令和４年６月３０日東京都港区南青山五丁目３番１０号株式会社インスパイア（7010401040918）に合併し解散,2015-10-05,1,,,,,ホンズエンタープライズ,0
611,3011303002027,登記記録の閉鎖等,0,2022-08-01,2022-07-26,合同会社メディオ,,合同会社,東京都,世田谷区,野毛１丁目１７番１１号,,13,112,1580092,,,2022-07-26,清算の結了等,,,2015-10-05,1,,,,,メディオ,0
614,3011505000811,登記記録の閉鎖等,0,2022-08-01,2022-07-28,荒川区商店街振興組合連合会,,その他の設立登記法人,東京都,荒川区,荒川２丁目２番３号荒川区役所６階産業振興課内,,13,118,1160002,,,2022-07-28,清算の結了等,,,2015-10-05,1,,,,,アラカワク,0
637,3030001032466,登記記録の閉鎖等,0,2022-08-01,2022-07-20,株式会社えはら,,株式会社,埼玉県,加須市,本町７番１９号,,11,210,3470066,,,2022-07-20,清算の結了等,,,2015-10-05,1,,,,,エハラ,0
643,3030002038933,登記記録の閉鎖等,0,2022-08-01,2022-07-20,有限会社坂口設備,,有限会社,埼玉県,久喜市,菖蒲町台２４８６番地１,,11,232,3460103,,,2022-07-20,清算の結了等,,,2015-10-05,1,,,,,,0
645,3030002057710,登記記録の閉鎖等,0,2022-08-01,2022-07-15,有限会社新立電設,,有限会社,埼玉県,上尾市,大字原市５７番地１７,,11,219,3620021,,,2022-07-15,清算の結了等,,,2015-10-05,1,,,,,シンリツデンセツ,0
646,3030003012012,登記記録の閉鎖等,0,2022-08-01,2022-07-19,合同会社Ｆａｕｓｔｏ,,合同会社,埼玉県,さいたま市南区,別所１丁目２７番８号,,11,108,3360021,,,2022-07-19,清算の結了等,,,2018-06-11,1,,,,,ファウスト,0
651,3040001052281,登記記録の閉鎖等,0,2022-08-01,2022-07-15,株式会社森工舎,,株式会社,千葉県,君津市,戸崎１３４６番地,,12,225,2920441,,,2022-07-15,清算の結了等,,,2015-10-05,1,,,,,,0
655,3040005001945,登記記録の閉鎖等,0,2022-08-01,2022-07-21,特定非営利活動法人国際教育支援交流協会,,その他の設立登記法人,千葉県,千葉市稲毛区,小仲台８丁目２２番９棟２０６号,,12,103,2630043,,,2022-07-21,清算の結了等,,,2015-10-05,1,,,,,コクサイキョウイクシエンコウリュウキコウ,0
656,3050001021500,登記記録の閉鎖等,0,2022-08-01,2022-07-21,成和電設株式会社,,株式会社,茨城県,潮来市,大塚野１丁目８番地の１６,,08,223,3112426,,,2022-07-21,清算の結了等,,,2015-10-05,1,,,,,セイワデンセツ,0
667,3080001014170,登記記録の閉鎖等,0,2022-08-01,2022-07-28,株式会社こめや,,株式会社,静岡県,牧之原市,波津３丁目２番地,,22,226,4210523,,,2022-07-28,清算の結了等,,,2015-10-05,1,,,,,コメヤ,0
671,3080401015388,登記記録の閉鎖等,0,2022-08-01,2022-07-26,株式会社アクト,,株式会社,静岡県,御前崎市,池新田２４６８番地の１,,22,223,4371612,,,2022-07-26,清算の結了等,,,2015-10-05,1,,,,,アクト,0
672,3090002013600,登記記録の閉鎖等,0,2022-08-01,2022-07-27,有限会社ケイズファーム,,有限会社,山梨県,韮崎市,下祖母石２３０１番地,,19,207,4070006,,,2022-07-27,清算の結了等,,,2015-10-05,1,,,,,ケイズファーム,0
682,3120001022516,登記記録の閉鎖等,0,2022-08-01,2022-07-25,エヌビーケイ・インターナショナル株式会社,,株式会社,大阪府,大阪市天王寺区,生玉前町１番１８号,,27,109,5430072,,,2022-07-25,清算の結了等,,,2015-10-05,1,,,,,,0
683,3120001026962,登記記録の閉鎖等,0,2022-08-01,2022-07-25,リトルフィールド株式会社,,株式会社,大阪府,大阪市此花区,梅香３丁目１３番４号,,27,104,5540013,,,2022-07-25,清算の結了等,,,2015-10-05,1,,,,,,0
686,3120001106145,登記記録の閉鎖等,0,2022-08-01,2022-07-25,株式会社成栄プランニング,,株式会社,大阪府,大阪市北区,中崎西４丁目３番４－５１２号,,27,127,5300015,,,2022-07-25,清算の結了等,,,2015-10-05,1,,,,,,0
695,3120001200666,登記記録の閉鎖等,0,2022-08-01,2022-07-25,株式会社ＭＩＹＡＢＩ,,株式会社,大阪府,枚方市,長尾元町１丁目２１番８－５０３号,,27,210,5730163,,,2022-07-25,清算の結了等,,,2016-09-13,1,,,,,,0
699,3120002056942,登記記録の閉鎖等,0,2022-08-01,2022-07-22,有限会社友愛運送,,有限会社,大阪府,大阪市西淀川区,歌島３丁目６番２－２０７号,,27,113,5550021,,,2022-07-22,清算の結了等,,,2015-10-05,1,,,,,ユウアイウンソウ,0
708,3122001001994,登記記録の閉鎖等,0,2022-08-01,2022-07-25,株式会社エクセル,,株式会社,大阪府,東大阪市,七軒家９番９号,,27,227,5770005,,,2022-07-25,清算の結了等,,,2015-10-05,1,,,,,,0
720,3140001060927,登記記録の閉鎖等,0,2022-08-01,2022-07-26,姫路グリーンクラブ株式会社,,株式会社,兵庫県,姫路市,北条１丁目７８番地,,28,201,6700947,,,2022-07-26,清算の結了等,,,2015-10-05,1,,,,,ヒメジグリーンクラブ,0
721,3140001080768,登記記録の閉鎖等,0,2022-08-01,2022-07-26,株式会社アイル,,株式会社,兵庫県,川辺郡猪名川町,伏見台３丁目３番地７７,,28,301,6660262,,,2022-07-26,清算の結了等,,,2015-10-05,1,,,,,アイル,0
730,3160002002281,登記記録の閉鎖等,0,2022-08-01,2022-07-28,有限会社サンロツク,,有限会社,滋賀県,大津市,水明１丁目２１番地１,,25,201,5200531,,,2022-07-28,清算の結了等,,,2015-10-05,1,,,,,サンロツク,0
737,3180002066358,登記記録の閉鎖等,0,2022-08-01,2022-07-27,有限会社鈴屋,,有限会社,愛知県,春日井市,味美白山町１丁目７番地の５,,23,206,4860969,,,2022-07-27,清算の結了等,,,2015-10-05,1,,,,,スズヤ,0
747,3200002017622,登記記録の閉鎖等,0,2022-08-01,2022-07-28,有限会社ミックシステム,,有限会社,岐阜県,美濃加茂市,古井町下古井１６４番地,,21,211,5050034,,,2022-07-28,清算の結了等,,,2015-10-05,1,,,,,ミックシステム,0
760,3260001017717,登記記録の閉鎖等,0,2022-08-01,2022-08-01,クロサキ株式会社,,株式会社,岡山県,笠岡市,笠岡５９０９番地１,,33,205,7140081,,,2022-08-01,清算の結了等,,,2015-10-05,1,,,,,クロサキ,0
762,3260001027831,登記記録の閉鎖等,0,2022-08-01,2022-07-28,株式会社石田商店,,株式会社,岡山県,笠岡市,小平井１７５６番地６,,33,205,7140012,,,2022-07-28,清算の結了等,,,2015-10-05,1,,,,,イシダショウテン,0
807,4010001140030,登記記録の閉鎖等,0,2022-08-01,2022-07-15,株式会社ライトスタッフシステム,,株式会社,東京都,中央区,湊１丁目７番１号,,13,102,1040043,,,2022-07-15,清算の結了等,,,2015-10-05,1,,,,,ライトスタッフシステム,0
824,4010401123675,登記記録の閉鎖等,0,2022-08-01,2022-07-15,ワンダートランク株式会社,,株式会社,東京都,中央区,勝どき１丁目１３番６－４２０７号,,13,102,1040054,,,2022-07-15,清算の結了等,,,2016-03-10,1,,,,,ワンダートランク,0
843,4011001038413,登記記録の閉鎖等,0,2022-08-01,2022-07-13,株式会社じゃのすけ,,株式会社,東京都,渋谷区,千駄ヶ谷３丁目３番２０号（パルス原宿ビル）,,13,113,1510051,,,2022-07-13,清算の結了等,,,2015-10-05,1,,,,,ジャノスケ,0
845,4011005006044,登記記録の閉鎖等,0,2022-08-01,2022-07-15,特定非営利活動法人かけっこ未来塾,,その他の設立登記法人,東京都,渋谷区,恵比寿西１丁目１６番４号,,13,113,1500021,,,2022-07-15,清算の結了等,,,2015-10-05,1,,,,,カケッコミライジュク,0
851,4011105000871,登記記録の閉鎖等,0,2022-08-01,2022-07-27,医療法人社団りょう医院,,その他の設立登記法人,東京都,新宿区,下落合４丁目２２番１号,,13,104,1610033,,,2022-07-27,清算の結了等,,,2015-10-05,1,,,,,リョウイイン,0
873,4013101000797,登記記録の閉鎖等,0,2022-08-01,2022-07-29,森田木材工業株式会社,,株式会社,東京都,羽村市,羽東３丁目２０番３号,,13,227,2050014,,,2022-07-29,清算の結了等,,,2015-10-05,1,,,,,モリタモクザイコウギョウ,0
880,4020003019692,登記記録の閉鎖等,0,2022-08-01,2022-07-21,合同会社ｙｏｋｉａ,,合同会社,神奈川県,横浜市港北区,新横浜１丁目１３番１号ヴィラージュ新横浜６０５,,14,109,2220033,,,2022-07-21,清算の結了等,,,2021-04-27,1,,,,,ヨキア,0
889,4030002021608,登記記録の閉鎖等,0,2022-08-01,2022-07-19,有限会社浜中興業,,有限会社,埼玉県,さいたま市岩槻区,大字長宮１８４番地５,,11,110,3390011,,,2022-07-19,清算の結了等,,,2015-10-05,1,,,,,ハマナカコウギョウ,0
894,4030005014055,登記記録の閉鎖等,0,2022-08-01,2022-07-20,寄居ニコニコ商店会協同組合,,その他の設立登記法人,埼玉県,大里郡寄居町,大字寄居１２６７番地２,,11,408,3691203,,,2022-07-20,清算の結了等,,,2015-10-05,1,,,,,ヨリイニコニコショウテンカイ,0
905,4050002041496,登記記録の閉鎖等,0,2022-08-01,2022-07-21,有限会社輝水住設,,有限会社,茨城県,常総市,舘方７７番地,,08,211,3002704,,,2022-07-21,清算の結了等,,,2015-10-05,1,,,,,キスイジュウセツ,0
914,4070002029754,登記記録の閉鎖等,0,2022-08-01,2022-07-15,有限会社関商,,有限会社,群馬県,邑楽郡大泉町,住吉１３番２号,,10,524,3700521,,,2022-07-15,清算の結了等,,,2015-10-05,1,,,,,セキショウ,0
920,4090001016173,登記記録の閉鎖等,0,2022-08-01,2022-07-22,株式会社ＥｎＳｈａ,,株式会社,山梨県,甲府市,中央２丁目１１番２９号,,19,201,4000032,,,2022-07-22,清算の結了等,,,2019-08-28,1,,,,,エンシャ,0
923,4100001033984,登記記録の閉鎖等,0,2022-08-01,2022-07-25,Ｔｏｔａｌ　Ｆａｓｈｉｏｎ　Ｃｏｍｍｕｎｉｃａｔｉｏｎ株式会社,,株式会社,長野県,茅野市,ちの１７６８番地,,20,214,3910001,,,2022-07-25,清算の結了等,,,2021-02-25,1,,,,,トータルファッションコミュニケーション,0
930,4110002028074,登記記録の閉鎖等,0,2022-08-01,2022-07-27,有限会社ぜんべい産業,,有限会社,新潟県,長岡市,宮内６丁目６番１８号,,15,202,9401106,,,2022-07-27,清算の結了等,,,2015-10-05,1,,,,,ゼンベイサンギョウ,0
933,4120001020221,登記記録の閉鎖等,0,2022-08-01,2022-07-21,株式会社坂田金属製作所,,株式会社,大阪府,大阪市平野区,西脇１丁目５番３号,,27,126,5470035,,,2022-07-21,清算の結了等,,,2015-10-05,1,,,,,サカタキンゾクセイサクショ,0
934,4120001048989,登記記録の閉鎖等,0,2022-08-01,2022-07-27,株式会社ミライト・テクノロジーズ,,株式会社,大阪府,大阪市西区,江戸堀３丁目３番１５号,,27,106,5500002,,,2022-07-27,合併による解散等,6010601040090,令和４年７月１日東京都江東区豊洲五丁目６番３６号株式会社ミライト・ワン（6010601040090）に合併し解散,2015-10-05,1,,,,,ミライトテクノロジーズ,0
937,4120001155331,登記記録の閉鎖等,0,2022-08-01,2022-07-25,永大紙業株式会社,,株式会社,大阪府,守口市,寺方錦通３丁目４番１３号,,27,209,5700042,,,2022-07-25,清算の結了等,,,2015-10-05,1,,,,,,0
941,4120001218435,登記記録の閉鎖等,0,2022-08-01,2022-07-25,株式会社ＧｒｏｗＬｉｅｎ,,株式会社,大阪府,大阪市西区,江戸堀２丁目１番１号江戸堀センタービルＢ１－５,,27,106,5500002,,,2022-07-25,清算の結了等,,,2019-01-21,1,,,,,,0
997,4200001038123,登記記録の閉鎖等,0,2022-08-01,2022-07-28,株式会社リハプランシェ,,株式会社,岐阜県,大垣市,世安町２丁目１０９番地１,,21,202,5030858,,,2022-07-28,清算の結了等,,,2020-12-18,1,,,,,リハプランシェ,0
1012,4290002046091,登記記録の閉鎖等,0,2022-08-01,2022-07-21,有限会社ユーユカワラ,,有限会社,福岡県,飯塚市,花瀬５０番地,,40,205,8200045,,,2022-07-21,清算の結了等,,,2015-10-05,1,,,,,ユーユカワラ,0
1013,4290003003703,登記記録の閉鎖等,0,2022-08-01,2022-07-20,合同会社舞給,,合同会社,福岡県,福岡市博多区,諸岡１丁目２２番１７号,,40,132,8120894,,,2022-07-20,清算の結了等,,,2015-10-05,1,,,,,マイキュウ,0
1021,4330001011694,登記記録の閉鎖等,0,2022-08-01,2022-07-20,株式会社有明共栄,,株式会社,熊本県,玉名郡長洲町,大字長洲２１６８番地６５,,43,368,8690123,,,2022-07-20,清算の結了等,,,2015-10-05,1,,,,,アリアケキョウエイ,0
1032,4360003009395,登記記録の閉鎖等,0,2022-08-01,2022-06-27,ＳＩＧＨ合同会社,,合同会社,沖縄県,那覇市,首里末吉町２丁目１４４番地１号,,47,201,9030801,,,2022-06-27,清算の結了等,,,2019-03-05,1,,,,,サイ,0
1033,4370001001502,登記記録の閉鎖等,0,2022-08-01,2022-07-19,伊藤総業株式会社,,株式会社,宮城県,仙台市太白区,山田北前町６番１０号,,04,104,9820813,,,2022-07-19,清算の結了等,,,2015-10-05,1,,,,,,0
1035,4370001012557,登記記録の閉鎖等,0,2022-08-01,2022-07-15,株式会社デイライン,,株式会社,宮城県,仙台市若林区,河原町２丁目４番３０号,,04,103,9840816,,,2022-07-15,清算の結了等,,,2015-10-05,1,,,,,デイライン,0
1040,4380001016978,登記記録の閉鎖等,0,2022-08-01,2022-07-22,株式会社鈴屋商店,,株式会社,福島県,双葉郡双葉町,大字長塚字町２０番地,,07,546,9791471,,,2022-07-22,清算の結了等,,,2015-10-05,1,,,,,スズヤショウテン,0
1064,5010003029205,登記記録の閉鎖等,0,2022-08-01,2022-07-15,合同会社ＨＥＬＩＯＳ,,合同会社,東京都,中央区,日本橋２丁目１－３アーバンネット日本橋二丁目ビル１０Ｆ,,13,102,1030027,,,2022-07-15,合併による解散等,3011101072305,令和４年７月１５日東京都中央区日本橋二丁目１－３アーバンネット日本橋二丁目ビル１０Ｆ株式会社ＨＡＴＡＳＥ　ＨＯＬＤＩＮＧＳ（3011101072305）に合併し解散,2019-02-05,1,,,,,ヘリオス,0
1077,5010403021389,登記記録の閉鎖等,0,2022-08-01,2022-07-08,交通事故慰謝料合同会社,,合同会社,東京都,港区,麻布十番２丁目１８番５－９０３号,,13,103,1060045,,,2022-07-08,清算の結了等,,,2019-09-06,1,,,,,コウツウジコイシャリョウ,0
1099,5011005000707,登記記録の閉鎖等,0,2022-08-01,2022-07-08,全東京個人タクシー協同組合,,その他の設立登記法人,東京都,渋谷区,初台２丁目２７－５－３０５号,,13,113,1510061,,,2022-07-08,清算の結了等,,,2015-10-05,1,,,,,ゼントウキョウコジンタクシー,0
1112,5011401001829,登記記録の閉鎖等,0,2022-08-01,2022-07-27,株式会社グリーン・ライフ,,株式会社,東京都,板橋区,小茂根５丁目３番１１号,,13,119,1730037,,,2022-07-27,清算の結了等,,,2015-10-05,1,,,,,グリーンライフ,0
1146,5030001042496,登記記録の閉鎖等,0,2022-08-01,2022-07-19,株式会社南野建築環境研究所,,株式会社,埼玉県,北足立郡伊奈町,栄４丁目３４番地,,11,301,3620805,,,2022-07-19,清算の結了等,,,2015-10-05,1,,,,,ミナミノケンチクカンキョウケンキュウショ,0
1155,5030005000368,登記記録の閉鎖等,0,2022-08-01,2022-07-12,天理教東堀東分教会,,その他の設立登記法人,埼玉県,さいたま市北区,植竹町１丁目７９２番地,,11,102,3310813,,,2022-07-12,合併による解散等,6011505000271,令和４年７月６日東京都北区東田端一丁目１１番５号天理教堀東分教会（6011505000271）に合併し解散,2015-10-05,1,,,,,,0
1159,5040005006026,登記記録の閉鎖等,0,2022-08-01,2022-07-21,特定非営利活動法人ナントンゴ・プロジェクト,,その他の設立登記法人,千葉県,八千代市,八千代台北３丁目１２番１１号グランデージＣ棟１０１号,,12,221,2760031,,,2022-07-21,清算の結了等,,,2015-10-05,1,,,,,ナントンゴプロジェクト,0
1160,5040005008278,登記記録の閉鎖等,0,2022-08-01,2022-07-14,天理教上總神總分教会,00021496,その他の設立登記法人,千葉県,袖ケ浦市,横田２９３３番地,,12,229,2990236,,,2022-07-14,合併による解散等,4011605000157,令和４年７月１１日東京都練馬区早宮一丁目５番１２号天理教神田川分教会（4011605000157）に合併し解散,2015-10-05,1,,,,,,0
1166,5060001023782,登記記録の閉鎖等,0,2022-08-01,2022-07-25,株式会社ＲＳＣ,,株式会社,栃木県,那須塩原市,井口４１０番地４２,,09,213,3292763,,,2022-07-25,清算の結了等,,,2015-10-05,1,,,,,アールエスシー,0
1168,5070001004443,登記記録の閉鎖等,0,2022-08-01,2022-07-19,株式会社セキヨシ,,株式会社,群馬県,前橋市,西片貝町３丁目２１９番地の２,,10,201,3710013,,,2022-07-19,清算の結了等,,,2015-10-05,1,,,,,セキヨシ,0
1171,5070005003235,登記記録の閉鎖等,0,2022-08-01,2022-07-19,特定非営利活動法人陶翠会,,その他の設立登記法人,群馬県,高崎市,吉井町片山３０２番地１,,10,202,3702135,,,2022-07-19,清算の結了等,,,2015-10-05,1,,,,,トウスイカイ,0
1176,5100001007401,登記記録の閉鎖等,0,2022-08-01,2022-07-15,株式会社信光建設,,株式会社,長野県,佐久市,協和２８０７の１番地,,20,217,3842204,,,2022-07-15,清算の結了等,,,2015-10-05,1,,,,,,0
1179,5100002021748,登記記録の閉鎖等,0,2022-08-01,2022-07-25,有限会社ミッシエル,,有限会社,長野県,松本市,庄内１丁目３番１０号,,20,202,3900828,,,2022-07-25,清算の結了等,,,2015-10-05,1,,,,,ミッシエル,0
1186,5120001142122,登記記録の閉鎖等,0,2022-08-01,2022-07-26,株式会社エス，ケイ,,株式会社,大阪府,大阪市住之江区,柴谷２丁目８番９１号,,27,125,5590021,,,2022-07-26,清算の結了等,,,2015-10-05,1,,,,,,0
1191,5120001170957,登記記録の閉鎖等,0,2022-08-01,2022-07-26,株式会社スリーエフ,,株式会社,大阪府,大阪市城東区,今福南４丁目７番１２号,,27,118,5360003,,,2022-07-26,清算の結了等,,,2015-10-05,1,,,,,,0
1193,5120001202248,登記記録の閉鎖等,0,2022-08-01,2022-07-21,株式会社大地,,株式会社,大阪府,大阪市中央区,上町１丁目８番３号さざなみ上町ビル,,27,128,5400005,,,2022-07-21,清算の結了等,,,2016-12-06,1,,,,,,0
1205,5120005021677,登記記録の閉鎖等,0,2022-08-01,2022-07-29,弁護士法人山根法律事務所,,その他の設立登記法人,大阪府,大阪市北区,西天満２丁目３番９号オーク西天満ビル１階,,27,127,5300047,,,2022-07-29,清算の結了等,,,2020-07-07,1,,,,,ヤマネホウリツジムショ,0
1216,5130001068003,登記記録の閉鎖等,0,2022-08-01,2022-07-22,株式会社ミライバ,,株式会社,京都府,京都市下京区,東塩小路町６０７番地辰巳ビル１階,,26,106,6008216,,,2022-07-22,清算の結了等,,,2020-11-18,1,,,,,ミライバ,0
1222,5130005011231,登記記録の閉鎖等,0,2022-08-01,2022-06-13,圓照寺,,その他の設立登記法人,京都府,京丹後市,久美浜町１４５９番地,,26,212,6293410,,,2022-06-13,合併による解散等,1130005011350,令和４年６月１３日京都府京丹後市久美浜町１８４５番地如意寺（1130005011350）に合併し解散,2015-10-05,1,,,,,エンショウジ,0
1225,5140001080394,登記記録の閉鎖等,0,2022-08-01,2022-07-07,ＯＫＫテクノ株式会社,,株式会社,兵庫県,川西市,久代６丁目１番１号,,28,217,6660024,,,2022-07-07,合併による解散等,7140001080310,令和４年６月３０日兵庫県伊丹市北伊丹八丁目１０番地１ＯＫＫ株式会社（7140001080310）に合併し解散,2015-10-05,1,,,,,オーケーケーテクノ,0
1236,5170001000399,登記記録の閉鎖等,0,2022-08-01,2022-07-29,株式会社エービーシー,,株式会社,和歌山県,和歌山市,冬野１４０１番地１,,30,201,6400332,,,2022-07-29,清算の結了等,,,2015-10-05,1,,,,,エービーシー,0
1242,5180001033514,登記記録の閉鎖等,0,2022-08-01,2022-07-28,愛知信協株式会社,,株式会社,愛知県,名古屋市名東区,社口２丁目３０１番地,,23,115,4650013,,,2022-07-28,清算の結了等,,,2015-10-05,1,,,,,アイチシンキョウ,0
1243,5180001084251,登記記録の閉鎖等,0,2022-08-01,2022-07-28,柴田合成株式会社,,株式会社,愛知県,一宮市,開明字杁東郭８番地の１,,23,203,4940001,,,2022-07-28,清算の結了等,,,2015-10-05,1,,,,,シバタゴウセイ,0
1255,5180301008422,登記記録の閉鎖等,0,2022-08-01,2022-07-25,デルコーポレーション株式会社,,株式会社,愛知県,豊橋市,東田町１５１番地１,,23,201,4400066,,,2022-07-25,合併による解散等,9180301006315,令和４年７月２５日愛知県豊橋市東田町１５１番地１株式会社デライト（9180301006315）に合併し解散,2015-10-05,1,,,,,デルコーポレーション,0
1263,5190001029338,登記記録の閉鎖等,0,2022-08-01,2022-07-27,天照株式会社,,株式会社,三重県,四日市市,八千代台２丁目１番地５,,24,202,5128047,,,2022-07-27,清算の結了等,,,2022-04-22,1,,,,,アマテラス,0
1270,5240002026056,登記記録の閉鎖等,0,2022-08-01,2022-07-28,有限会社フォービック,,有限会社,広島県,広島市安佐南区,相田４丁目８－３２－７,,34,105,7310141,,,2022-07-28,清算の結了等,,,2015-10-05,1,,,,,フォービック,0
1271,5250001004086,登記記録の閉鎖等,0,2022-08-01,2022-07-26,宇部興産開発株式会社,,株式会社,山口県,宇部市,大字小串１９７８番地の９６,,35,202,7550067,,,2022-07-26,清算の結了等,,,2015-10-05,1,,,,,ウベコウサンカイハツ,0
1296,5360003009725,登記記録の閉鎖等,0,2022-08-01,2022-07-14,合同会社ＥＮＣＡ,,合同会社,沖縄県,うるま市,みどり町１丁目１－９スペース２２・２０１号室,,47,213,9042215,,,2022-07-14,清算の結了等,,,2019-09-03,1,,,,,イーエヌシーエー,0
1297,5370001003068,登記記録の閉鎖等,0,2022-08-01,2022-07-14,三共トラック株式会社,,株式会社,宮城県,名取市,手倉田字八幡２８７番地の１,,04,207,9811231,,,2022-07-14,清算の結了等,,,2015-10-05,1,,,,,サンキョウトラック,0
1300,5380001026638,登記記録の閉鎖等,0,2022-08-01,2022-07-22,ＡＬｉＡＴＥ株式会社,,株式会社,福島県,いわき市,錦町江栗１丁目１１７番地,,07,204,9748232,,,2022-07-22,清算の結了等,,,2016-03-24,1,,,,,,0
1302,5400502000816,登記記録の閉鎖等,0,2022-08-01,2022-07-28,有限会社アウルメディカルサービス,,有限会社,岩手県,一関市,花泉町花泉字袋１０番地,,03,209,0293101,,,2022-07-28,清算の結了等,,,2015-10-05,1,,,,,アウルメディカルサービス,0
1312,5450002005377,登記記録の閉鎖等,0,2022-08-01,2022-07-29,有限会社丸幸つうざき商店,,有限会社,北海道,旭川市,豊岡十一条５丁目４番２９号,,01,204,0788241,,,2022-07-29,清算の結了等,,,2015-10-05,1,,,,,マルコウツウザキショウテン,0
1315,5480002015670,登記記録の閉鎖等,0,2022-08-01,2022-07-28,有限会社ツツミ美容室,,有限会社,徳島県,三好市,池田町サラダ１８０１番地１,,36,208,7780003,,,2022-07-28,清算の結了等,,,2015-10-05,1,,,,,,0
1319,5500001008210,登記記録の閉鎖等,0,2022-08-01,2022-07-28,株式会社フォースコーポレーション,,株式会社,愛媛県,喜多郡内子町,内子７１６番地,,38,422,7913301,,,2022-07-28,清算の結了等,,,2015-10-05,1,,,,,フォースコーポレーション,0
1324,6010001040740,登記記録の閉鎖等,0,2022-08-01,2022-07-11,株式会社紙商共済サービス,,株式会社,東京都,中央区,日本橋浜町２丁目４２番１０号,,13,102,1030007,,,2022-07-11,清算の結了等,,,2015-10-05,1,,,,,カミショウキョウサイサービス,0
1332,6010001215268,登記記録の閉鎖等,0,2022-08-01,2022-07-15,ジーシーエル・シンファ半導体株式会社,,株式会社,東京都,千代田区,大手町１丁目９番２号フィナンシャルシティグランキューブ１８階,,13,101,1000004,,,2022-07-15,清算の結了等,,,2021-01-21,1,,,,,ジーシーエルシンファハンドウタイ,0
1342,6010401119317,登記記録の閉鎖等,0,2022-08-01,2022-07-27,アトイ株式会社,,株式会社,東京都,新宿区,西新宿８丁目１７番２号,,13,104,1600023,,,2022-07-27,清算の結了等,,,2015-10-05,1,,,,,,0
1344,6010401136287,登記記録の閉鎖等,0,2022-08-01,2022-07-11,株式会社フィンテックイノベーション,,株式会社,東京都,港区,芝４丁目１８番９号,,13,103,1080014,,,2022-07-11,清算の結了等,,,2018-01-31,1,,,,,フィンテックイノベーション,0
1370,6011001049301,登記記録の閉鎖等,0,2022-08-01,2022-07-13,株式会社インサイト,,株式会社,東京都,渋谷区,恵比寿１丁目１５番４号,,13,113,1500013,,,2022-07-13,清算の結了等,,,2015-10-05,1,,,,,インサイト,0
1372,6011001139135,登記記録の閉鎖等,0,2022-08-01,2022-07-13,坂野株式会社,,株式会社,東京都,渋谷区,渋谷１丁目８番３号ＴＯＣ第一ビル６階,,13,113,1500002,,,2022-07-13,清算の結了等,,,2021-03-16,1,,,,,,0
1415,6021001047510,登記記録の閉鎖等,0,2022-08-01,2022-07-27,株式会社ＧＣＳＡＭ,,株式会社,神奈川県,南足柄市,塚原４６３８番地２４,,14,217,2500117,,,2022-07-27,清算の結了等,,,2015-10-05,1,,,,,ジーシーエスエーエム,0
1416,6021002063127,登記記録の閉鎖等,0,2022-08-01,2022-07-26,エス・テイー・ジーエンジニアリング有限会社,,有限会社,神奈川県,横須賀市,内川１丁目８番３７号,,14,201,2390836,,,2022-07-26,清算の結了等,,,2015-10-05,1,,,,,エスティージーエンジニアリング,0
1427,6040001097340,登記記録の閉鎖等,0,2022-08-01,2022-07-21,株式会社カムテック,,株式会社,千葉県,船橋市,七林町１１７番地６７,,12,204,2740821,,,2022-07-21,清算の結了等,,,2016-10-19,1,,,,,カムテック,0
1438,6060002018426,登記記録の閉鎖等,0,2022-08-01,2022-07-25,有限会社高久商店,,有限会社,栃木県,芳賀郡茂木町,大字茂木１６４６番地,,09,343,3213531,,,2022-07-25,清算の結了等,,,2015-10-05,1,,,,,,0
1445,6070005004967,登記記録の閉鎖等,0,2022-08-01,2022-07-14,共栄精機協同組合,,その他の設立登記法人,群馬県,桐生市,相生町２丁目６７８番地,,10,203,3760011,,,2022-07-14,清算の結了等,,,2015-10-05,1,,,,,キョウエイセイキ,0
1447,6080101007154,登記記録の閉鎖等,0,2022-08-01,2022-07-29,株式会社江藤舗装,,株式会社,静岡県,沼津市,岡宮７０５番地ウィーン水上１０３,,22,203,4100011,,,2022-07-29,清算の結了等,,,2015-10-05,1,,,,,エトウホソウ,0
1448,6080105000568,登記記録の閉鎖等,0,2022-08-01,2022-07-29,一般財団法人裾野市振興公社,,その他の設立登記法人,静岡県,裾野市,須山３４０８番地,,22,220,4101231,,,2022-07-29,清算の結了等,,,2015-10-05,1,,,,,スソノシシンコウコウシャ,0
1503,6130005003137,登記記録の閉鎖等,0,2022-08-01,2022-07-25,京染卸商業協同組合,,その他の設立登記法人,京都府,京都市中京区,東洞院通押小路上る瓦之町３９４番地,,26,104,6040837,,,2022-07-25,清算の結了等,,,2015-10-05,1,,,,,キョウゾメオロシショウギョウ,0
1512,6150001009318,登記記録の閉鎖等,0,2022-08-01,2022-07-28,桜井都市開発株式会社,,株式会社,奈良県,桜井市,大字桜井１２５９番地,,29,206,6330091,,,2022-07-28,清算の結了等,,,2015-10-05,1,,,,,サクライトシカイハツ,0
1519,6180002005032,登記記録の閉鎖等,0,2022-08-01,2022-07-28,有限会社パロール,,有限会社,愛知県,尾張旭市,城前町１丁目２番地１０,,23,226,4880867,,,2022-07-28,清算の結了等,,,2015-10-05,1,,,,,パロール,0
1520,6180002007078,登記記録の閉鎖等,0,2022-08-01,2022-07-12,有限会社前川,,有限会社,愛知県,名古屋市港区,宝神町字敷地７６２番地の１６３,,23,111,4550833,,,2022-07-12,清算の結了等,,,2015-10-05,1,,,,,マエカワ,0
1525,6180301028584,登記記録の閉鎖等,0,2022-08-01,2022-07-29,株式会社Ｗｉｔｈ　ｙｏｕ,,株式会社,愛知県,岡崎市,箱柳町字川北２６番地２,,23,202,4440001,,,2022-07-29,清算の結了等,,,2015-11-10,1,,,,,,0
1528,6180302009848,登記記録の閉鎖等,0,2022-08-01,2022-07-25,マルイ商事株式会社,,株式会社,愛知県,豊橋市,牛川薬師町４４番地１,,23,201,4400015,,,2022-07-25,合併による解散等,9180301006315,令和４年７月２５日愛知県豊橋市東田町１５１番地１株式会社デライト（9180301006315）に合併し解散,2015-10-05,1,,,,,マルイショウジ,0
1531,6190001013019,登記記録の閉鎖等,0,2022-08-01,2022-07-25,高柳工業株式会社,,株式会社,三重県,いなべ市,大安町高柳９１８番地,,24,214,5110272,,,2022-07-25,清算の結了等,,,2015-10-05,1,,,,,タカヤナギコウギョウ,0
1533,6190002014726,登記記録の閉鎖等,0,2022-08-01,2022-07-27,有限会社セーリョー,,有限会社,三重県,松阪市,嬉野中川町２６４番地の３４,,24,204,5152321,,,2022-07-27,清算の結了等,,,2015-10-05,1,,,,,セーリョー,0
1540,6240001031709,登記記録の閉鎖等,0,2022-08-01,2022-07-28,浜井製作株式会社,,株式会社,広島県,福山市,東村町１９１１番地の１,,34,207,7290251,,,2022-07-28,清算の結了等,,,2015-10-05,1,,,,,ハマイセイサク,0
1544,6260005007315,登記記録の閉鎖等,0,2022-08-01,2022-07-27,ペイヴメント岡山事業協同組合,,その他の設立登記法人,岡山県,美作市,立石９８番地１,,33,215,7070433,,,2022-07-27,清算の結了等,,,2015-10-05,1,,,,,ペイヴメントオカヤマ,0
1550,6290001078266,登記記録の閉鎖等,0,2022-08-01,2022-07-21,株式会社Ｋ．ｓテクニカル,,株式会社,福岡県,福岡市西区,野方５丁目５９番９号,,40,135,8190043,,,2022-07-21,清算の結了等,,,2017-06-22,1,,,,,テクニカル,0
1567,6350001010858,登記記録の閉鎖等,0,2022-08-01,2022-07-26,株式会社みらい保険コンサルタント,,株式会社,宮崎県,東臼杵郡門川町,大字門川尾末８０８４番地,,45,421,8890611,,,2022-07-26,清算の結了等,,,2015-10-05,1,,,,,ミライホケンコンサルタント,0
1576,6370003001738,登記記録の閉鎖等,0,2022-08-01,2022-07-15,合同会社大伴家持神社,,合同会社,宮城県,仙台市若林区,日辺字沖田３５番地,,04,103,9840837,,,2022-07-15,清算の結了等,,,2015-10-05,1,,,,,オオトモノヤカモチジンジャ,0
1585,6420001006048,登記記録の閉鎖等,0,2022-08-01,2022-07-27,株式会社第一冷凍,,株式会社,青森県,八戸市,大字大久保字上面９番地１０３,,02,203,0310833,,,2022-07-27,清算の結了等,,,2015-10-05,1,,,,,ダイイチレイトウ,0
1604,7010001025229,登記記録の閉鎖等,0,2022-08-01,2022-07-07,ＮＮＹ株式会社,,株式会社,東京都,千代田区,大手町１丁目７番２号東京サンケイビル１５階,,13,101,1000004,,,2022-07-07,合併による解散等,4010601013131,令和４年７月１日東京都墨田区緑一丁目４番１９号リバー株式会社（4010601013131）に合併し解散,2015-10-05,1,,,,,エヌエヌワイ,0
1610,7010001156800,登記記録の閉鎖等,0,2022-08-01,2022-07-21,株式会社ＯＮＥ　ＴＯ　ＯＮＥ,,株式会社,東京都,江東区,亀戸８丁目２５番５号,,13,108,1360071,,,2022-07-21,清算の結了等,,,2015-10-05,1,,,,,,0
1611,7010001180734,登記記録の閉鎖等,0,2022-08-01,2022-07-25,ＤＩＧＩＴＡＬ　ＰＲＯＤＵＣＴ　ＳＩＭＵＬＡＴＩＯＮ株式会社,,株式会社,東京都,千代田区,紀尾井町３番１６号紀尾井町金田ビル６階,,13,101,1020094,,,2022-07-25,清算の結了等,,,2017-01-13,1,,,,,デジタルプロダクトシミュレーション,0
1623,7010401046097,登記記録の閉鎖等,0,2022-08-01,2022-07-11,ドコモ・システムズ株式会社,,株式会社,東京都,港区,港南１丁目９番１号ＮＴＴ品川ＴＷＩＮＳアネックスビル,,13,103,1080075,,,2022-07-11,合併による解散等,4010401032249,令和４年７月１日東京都港区港南一丁目９番１号エヌ・ティ・ティ・コムウェア株式会社（4010401032249）に合併し解散,2015-10-05,1,,,,,ドコモシステムズ,0
1630,7010403021577,登記記録の閉鎖等,0,2022-08-01,2022-07-08,ＧＥＮＲＩＳＥ合同会社,,合同会社,東京都,港区,高輪３丁目１２番４号ベローチェ高輪１０１,,13,103,1080074,,,2022-07-08,清算の結了等,,,2019-10-08,1,,,,,ジェンライズ,0
1678,7021003007874,登記記録の閉鎖等,0,2022-08-01,2022-07-28,合同会社ＴＤＮ,,合同会社,神奈川県,平塚市,めぐみが丘１丁目１８番７号,,14,203,2591220,,,2022-07-28,清算の結了等,,,2018-10-26,1,,,,,ティーディーエヌ,0
1691,7040001064967,登記記録の閉鎖等,0,2022-08-01,2022-07-21,株式会社ＥＮＡ,,株式会社,千葉県,市川市,田尻３丁目１１番１３号,,12,203,2720014,,,2022-07-21,清算の結了等,,,2015-10-05,1,,,,,イーエヌエー,0
1695,7040002015960,登記記録の閉鎖等,0,2022-08-01,2022-07-22,有限会社コウエツ,,有限会社,千葉県,千葉市若葉区,みつわ台５丁目３６番１８号,,12,104,2640032,,,2022-07-22,清算の結了等,,,2015-10-05,1,,,,,コウエツ,0
1704,7060001002289,登記記録の閉鎖等,0,2022-08-01,2022-07-25,昭和プラント工業株式会社,,株式会社,栃木県,宇都宮市,鶴田町３６２１番地１９,,09,201,3200851,,,2022-07-25,清算の結了等,,,2015-10-05,1,,,,,ショウワプラントコウギョウ,0
1712,7070002020181,登記記録の閉鎖等,0,2022-08-01,2022-07-20,有限会社副田製作所,,有限会社,群馬県,伊勢崎市,赤堀今井町２丁目１３４６番地の１０,,10,204,3792215,,,2022-07-20,清算の結了等,,,2015-10-05,1,,,,,ソエダセイサクジョ,0
1713,7080002005826,登記記録の閉鎖等,0,2022-08-01,2022-07-29,有限会社明正家具,,有限会社,静岡県,静岡市葵区,大鋸町６番地の５,,22,101,4200026,,,2022-07-29,清算の結了等,,,2015-10-05,1,,,,,メイセイカグ,0
1719,7120001010855,登記記録の閉鎖等,0,2022-08-01,2022-07-26,株式会社福田屋,,株式会社,大阪府,大阪市東住吉区,今林１丁目２番６８号大阪市中央卸売市場東部市場内,,27,121,5460001,,,2022-07-26,清算の結了等,,,2015-10-05,1,,,,,,0
1720,7120001025804,登記記録の閉鎖等,0,2022-08-01,2022-07-25,株式会社エルケーエル,,株式会社,大阪府,大阪市天王寺区,生玉前町１番１８号,,27,109,5430072,,,2022-07-25,清算の結了等,,,2015-10-05,1,,,,,,0
1726,7120001135553,登記記録の閉鎖等,0,2022-08-01,2022-07-25,株式会社アイ・システム,,株式会社,大阪府,大阪市淀川区,西中島４丁目２－２６,,27,123,5320011,,,2022-07-25,清算の結了等,,,2015-10-05,1,,,,,アイシステム,0
1735,7120001228274,登記記録の閉鎖等,0,2022-08-01,2022-07-25,株式会社Ｍ．Ｕ．Ａ,,株式会社,大阪府,大阪市西淀川区,福町１丁目１２番３４－９１２号,,27,113,5550034,,,2022-07-25,清算の結了等,,,2020-04-06,1,,,,,,0
1739,7120101008130,登記記録の閉鎖等,0,2022-08-01,2022-07-28,伊勢建設株式会社,,株式会社,大阪府,高石市,高師浜４丁目１番２７号,,27,225,5920004,,,2022-07-28,合併による解散等,2120101029412,令和４年７月２８日大阪府高石市高師浜四丁目１番２７号伊勢住宅株式会社（2120101029412）に合併し解散,2015-10-05,1,,,,,イセケンセツ,0
1740,7120101039910,登記記録の閉鎖等,0,2022-08-01,2022-07-22,タバタ鈑金塗装株式会社,,株式会社,大阪府,泉佐野市,高松西２丁目２４９８番地,,27,213,5980016,,,2022-07-22,清算の結了等,,,2015-10-05,1,,,,,タバタバンキントソウ,0
1747,7130005009851,登記記録の閉鎖等,0,2022-08-01,2022-07-22,特定非営利活動法人あまのはしだて座,,その他の設立登記法人,京都府,与謝郡与謝野町,字幾地１５８８番地,,26,465,6292311,,,2022-07-22,清算の結了等,,,2015-10-05,1,,,,,アマノハシダテザ,0
1762,7180002063062,登記記録の閉鎖等,0,2022-08-01,2022-07-15,有限会社翔建,,有限会社,愛知県,日進市,岩崎台３丁目２０２６番地,,23,230,4700135,,,2022-07-15,清算の結了等,,,2015-10-05,1,,,,,ショウケン,0
1765,7180003017091,登記記録の閉鎖等,0,2022-08-01,2022-07-26,合同会社ＹＡＳトレード,,合同会社,愛知県,一宮市,今伊勢町馬寄字宮北４１－１,,23,203,4910051,,,2022-07-26,清算の結了等,,,2016-05-13,1,,,,,ヤストレード,0
1776,7240001053108,登記記録の閉鎖等,0,2022-08-01,2022-07-25,株式会社千将,,株式会社,広島県,廿日市市,廿日市２丁目９番１４号,,34,213,7380013,,,2022-07-25,清算の結了等,,,2018-07-24,1,,,,,センショウ,0
1779,7260002006079,登記記録の閉鎖等,0,2022-08-01,2022-07-29,武田洋服有限会社,,有限会社,岡山県,岡山市北区,天神町２番２２号,,33,101,7000814,,,2022-07-29,清算の結了等,,,2015-10-05,1,,,,,タケダヨウフク,0
1783,7280002009146,登記記録の閉鎖等,0,2022-08-01,2022-07-29,江の川観光有限会社,,有限会社,島根県,江津市,浅利町１２５６番地,,32,207,6950002,,,2022-07-29,清算の結了等,,,2015-10-05,1,,,,,ゴウノガワカンコウ,0
1798,7320002002773,登記記録の閉鎖等,0,2022-08-01,2022-07-29,有限会社小橋工務店,,有限会社,大分県,大分市,大字東明野１６８１番地の５１０,,44,201,8700151,,,2022-07-29,清算の結了等,,,2015-10-05,1,,,,,コハシコウムテン,0
1825,7430002010484,登記記録の閉鎖等,0,2022-08-01,2022-07-15,すすきの商事有限会社,,有限会社,北海道,札幌市中央区,南六条西４丁目５番地,,01,101,0640806,,,2022-07-15,清算の結了等,,,2015-10-05,1,,,,,ススキノショウジ,0
1835,7470002012155,登記記録の閉鎖等,0,2022-08-01,2022-07-27,有限会社舟橋石材店,,有限会社,香川県,丸亀市,広島町釜の越２９１８番地,,37,202,7630103,,,2022-07-27,清算の結了等,,,2015-10-05,1,,,,,フナハシセキザイテン,0
1845,8010001084876,登記記録の閉鎖等,0,2022-08-01,2022-07-15,株式会社ベンチ,,株式会社,東京都,千代田区,九段南１丁目５番６号,,13,101,1020074,,,2022-07-15,合併による解散等,3010001027435,令和４年７月１日東京都千代田区九段南一丁目５番６号株式会社ビー・ブレーブ（3010001027435）に合併し解散,2015-10-05,1,,,,,ベンチ,0
1850,8010001151858,登記記録の閉鎖等,0,2022-08-01,2022-07-12,株式会社ソケット,,株式会社,東京都,千代田区,岩本町２丁目１番１８号,,13,101,1010032,,,2022-07-12,清算の結了等,,,2015-10-05,1,,,,,ソケット,0
1851,8010001164133,登記記録の閉鎖等,0,2022-08-01,2022-07-15,株式会社らんらん,,株式会社,東京都,中央区,八重洲１丁目７番７号,,13,102,1030028,,,2022-07-15,清算の結了等,,,2015-10-05,1,,,,,ランラン,0
1860,8010003027874,登記記録の閉鎖等,0,2022-08-01,2022-07-12,ＥＣＢ　ＭＬ合同会社,,合同会社,東京都,千代田区,丸の内３丁目１番１号東京共同会計事務所内,,13,101,1000005,,,2022-07-12,清算の結了等,,,2018-07-17,1,,,,,イーシービーエムエル,0
1871,8010401147621,登記記録の閉鎖等,0,2022-08-01,2022-07-13,デュアルキャリア株式会社,,株式会社,東京都,渋谷区,広尾５丁目１９番４号ＳＲ広尾６階,,13,113,1500012,,,2022-07-13,清算の結了等,,,2019-08-29,1,,,,,デュアルキャリア,0
1872,8010401151482,登記記録の閉鎖等,0,2022-08-01,2022-07-15,株式会社Ｍｉｒａｃｌｅ,,株式会社,東京都,千代田区,九段南１丁目５番６号りそな九段ビル４Ｆ,,13,101,1020074,,,2022-07-15,合併による解散等,3010001027435,令和４年７月１日東京都千代田区九段南一丁目５番６号株式会社ビー・ブレーブ（3010001027435）に合併し解散,2020-03-09,1,,,,,ミラクル,0
1897,8011101083512,登記記録の閉鎖等,0,2022-08-01,2022-07-27,株式会社Ｌｕｘｅｌ　Ｗｏｒｋｓ,,株式会社,東京都,新宿区,新宿１丁目３０番１６号ルネ新宿御苑タワー１３０２号,,13,104,1600022,,,2022-07-27,清算の結了等,,,2018-03-16,1,,,,,ラクセルワークス,0
1906,8011302007204,登記記録の閉鎖等,0,2022-08-01,2022-07-28,有限会社バードランド貿易,,有限会社,東京都,杉並区,荻窪３丁目６番１５号,,13,115,1670051,,,2022-07-28,清算の結了等,,,2015-10-05,1,,,,,バードランドボウエキ,0
1919,8020001022612,登記記録の閉鎖等,0,2022-08-01,2022-07-12,株式会社オー・ケー・イー・サービス,,株式会社,神奈川県,横浜市神奈川区,反町２丁目１４番４号,,14,102,2210825,,,2022-07-12,合併による解散等,5030001041556,令和４年７月１日東京都足立区東和五丁目１３番４号日生技研株式会社（5030001041556）に合併し解散,2015-10-05,1,,,,,オーケーイーサービス,0
1921,8020001084198,登記記録の閉鎖等,0,2022-08-01,2022-07-21,株式会社岡庭昇事務所,,株式会社,神奈川県,川崎市麻生区,万福寺６丁目１番１－６０１号,,14,137,2150004,,,2022-07-21,清算の結了等,,,2015-10-05,1,,,,,オカニワノボルジムショ,0
1922,8020001095732,登記記録の閉鎖等,0,2022-08-01,2022-07-22,株式会社Ｒサービス,,株式会社,神奈川県,横浜市中区,本町３丁目２４番地１本町中央ビル,,14,104,2310005,,,2022-07-22,清算の結了等,,,2015-10-05,1,,,,,アールサービス,0
1927,8021002021124,登記記録の閉鎖等,0,2022-08-01,2022-07-27,有限会社嶋崎設備,00013163,有限会社,神奈川県,相模原市中央区,田名４３９８番地の７,,14,152,2520244,,,2022-07-27,清算の結了等,,,2015-10-05,1,,,,,シマザキセツビ,0
1930,8030001024211,登記記録の閉鎖等,0,2022-08-01,2022-07-19,株式会社ザ・ムーバー,,株式会社,埼玉県,所沢市,大字南永井４６８番地９,,11,208,3590011,,,2022-07-19,清算の結了等,,,2015-10-05,1,,,,,ザムーバー,0
1934,8030001137021,登記記録の閉鎖等,0,2022-08-01,2022-07-13,株式会社Ｂａｆａｎｇ　Ｊａｐａｎ,,株式会社,埼玉県,川口市,朝日１丁目１６番７号,,11,203,3320001,,,2022-07-13,清算の結了等,,,2020-06-24,1,,,,,バーファンジャパン,0
1937,8030002041750,登記記録の閉鎖等,0,2022-08-01,2022-07-19,有限会社シーシーエム埼玉,,有限会社,埼玉県,羽生市,小松台２丁目７０５番地２２,,11,216,3480038,,,2022-07-19,清算の結了等,,,2015-10-05,1,,,,,シーシーエムサイタマ,0
1945,8050001000227,登記記録の閉鎖等,0,2022-08-01,2022-07-22,茨城スカイテック株式会社,00021794,株式会社,茨城県,水戸市,赤塚１丁目１９９７番地の５９,,08,201,3114141,,,2022-07-22,清算の結了等,,,2015-10-05,1,,,,,イバラキスカイテック,0
1953,8060001026543,登記記録の閉鎖等,0,2022-08-01,2022-07-25,株式会社カドヤ,,株式会社,栃木県,足利市,宮北町１９番地１５,,09,202,3260027,,,2022-07-25,清算の結了等,,,2015-10-05,1,,,,,カドヤ,0
1954,8060001031196,登記記録の閉鎖等,0,2022-08-01,2022-07-25,株式会社北電,,株式会社,栃木県,栃木市,箱森町４９番２９号神山アパートＩ棟,,09,203,3280075,,,2022-07-25,清算の結了等,,,2018-12-21,1,,,,,ホクデン,0
1958,8080002003110,登記記録の閉鎖等,0,2022-08-01,2022-07-28,有限会社静岡コンタクトレンズセンター,,有限会社,静岡県,静岡市葵区,東鷹匠町５番３１号,,22,101,4200833,,,2022-07-28,清算の結了等,,,2015-10-05,1,,,,,シズオカコンタクトレンズセンター,0
1972,8120001204828,登記記録の閉鎖等,0,2022-08-01,2022-07-26,株式会社岩切工務店,,株式会社,大阪府,大阪市旭区,清水４丁目１１番１０号,,27,117,5350021,,,2022-07-26,清算の結了等,,,2017-04-07,1,,,,,,0
1974,8120001215008,登記記録の閉鎖等,0,2022-08-01,2022-07-28,株式会社とたみ,,株式会社,大阪府,大阪市旭区,生江２丁目１番２号,,27,117,5350004,,,2022-07-28,清算の結了等,,,2018-08-01,1,,,,,トタミ,0
1984,8120003013723,登記記録の閉鎖等,0,2022-08-01,2022-07-25,新潟柳都合同会社,,合同会社,大阪府,大阪市都島区,都島南通２丁目６番１６－４０７号,,27,102,5340023,,,2022-07-25,清算の結了等,,,2017-12-22,1,,,,,,0
1992,8130001061368,登記記録の閉鎖等,0,2022-08-01,2022-07-22,株式会社ＴＲＩＰ　ＩＮＮ,,株式会社,京都府,京都市山科区,北花山中道町３５番地７５,,26,110,6078481,,,2022-07-22,清算の結了等,,,2018-01-24,1,,,,,トリップイン,0
2001,8140001117680,登記記録の閉鎖等,0,2022-08-01,2022-07-28,株式会社渡辺建匠,,株式会社,兵庫県,神戸市長田区,大日丘町１丁目１３番１６号,,28,106,6530872,,,2022-07-28,清算の結了等,,,2020-06-12,1,,,,,ワタナベケンショウ,0
2009,8150001012138,登記記録の閉鎖等,0,2022-08-01,2022-07-27,株式会社ＫＰラボ,,株式会社,奈良県,橿原市,醍醐町３８４番１,,29,205,6340072,,,2022-07-27,合併による解散等,9120001029919,令和４年７月２２日大阪市港区市岡元町一丁目１番２４号株式会社ＫＰワークス（9120001029919）に合併し解散,2015-10-05,1,,,,,ケイピーラボ,0
2020,8180001139465,登記記録の閉鎖等,0,2022-08-01,2022-07-27,株式会社ニューロスター,,株式会社,愛知県,名古屋市昭和区,妙見町１０６番地の３クオリテ山手通２０２号,,23,107,4660814,,,2022-07-27,清算の結了等,,,2020-01-09,1,,,,,ニューロスター,0
2032,8180301032072,登記記録の閉鎖等,0,2022-08-01,2022-07-22,株式会社アルファ工業,,株式会社,愛知県,みよし市,莇生町曽和２５１番地４,,23,236,4700206,,,2022-07-22,清算の結了等,,,2018-11-28,1,,,,,アルファコウギョウ,0
2034,8180305008671,登記記録の閉鎖等,0,2022-08-01,2022-07-22,一般社団法人角文,,その他の設立登記法人,愛知県,刈谷市,泉田町古和井１番地,,23,210,4480004,,,2022-07-22,清算の結了等,,,2017-07-25,1,,,,,カクブン,0
2038,8190002016885,登記記録の閉鎖等,0,2022-08-01,2022-07-25,有限会社東方工業所,,有限会社,三重県,桑名市,大字東方２１８番地の２,,24,205,5110811,,,2022-07-25,清算の結了等,,,2015-10-05,1,,,,,ヒガシカタコウギョウショ,0
2039,8200001004947,登記記録の閉鎖等,0,2022-08-01,2022-07-28,丸金繊維株式会社,,株式会社,岐阜県,岐阜市,蔵前３丁目９番１０号,,21,201,5008233,,,2022-07-28,清算の結了等,,,2015-10-05,1,,,,,マルキンセンイ,0
2040,8200001017718,登記記録の閉鎖等,0,2022-08-01,2022-07-28,株式会社ファステム,,株式会社,岐阜県,可児市,土田２４７７番地の２,,21,214,5090206,,,2022-07-28,清算の結了等,,,2015-10-05,1,,,,,ファステム,0
2049,8230001015710,登記記録の閉鎖等,0,2022-08-01,2022-07-22,水口工業株式会社,,株式会社,富山県,南砺市,竹林６７８番地,,16,210,9391734,,,2022-07-22,清算の結了等,,,2015-10-05,1,,,,,,0
2053,8240001006816,登記記録の閉鎖等,0,2022-08-01,2022-07-21,株式会社ホテルグランヴィア広島サービス,,株式会社,広島県,広島市南区,松原町１番５号,,34,103,7320822,,,2022-07-21,合併による解散等,9240001010833,令和４年７月１日広島市南区松原町１番５号株式会社ホテルグランヴィア広島（9240001010833）に合併し解散,2015-10-05,1,,,,,ホテルグランヴィアヒロシマサービス,0
2063,8270002005657,登記記録の閉鎖等,0,2022-08-01,2022-07-27,有限会社勝田商事,,有限会社,鳥取県,米子市,明治町２０３番地,,31,202,6830053,,,2022-07-27,清算の結了等,,,2015-10-05,1,,,,,カッタショウジ,0
2069,8290001011836,登記記録の閉鎖等,0,2022-08-01,2022-07-21,株式会社エス・アンド・ピー,,株式会社,福岡県,福岡市博多区,吉塚７丁目７番１４号,,40,132,8120041,,,2022-07-21,清算の結了等,,,2015-10-05,1,,,,,,0
2106,8380002028110,登記記録の閉鎖等,0,2022-08-01,2022-07-22,株式会社相栄,,株式会社,福島県,南相馬市,原町区栄町３丁目１７６番地,,07,212,9750003,,,2022-07-22,清算の結了等,,,2015-10-05,1,,,,,ソウエイ,0
2122,8500002008149,登記記録の閉鎖等,0,2022-08-01,2022-07-29,有限会社嵯峨野屋,,有限会社,愛媛県,松山市,柳原１１０番地,,38,201,7992434,,,2022-07-29,清算の結了等,,,2015-10-05,1,,,,,サガノヤ,0
2124,9010001007456,登記記録の閉鎖等,0,2022-08-01,2022-07-25,プリンス貿易株式会社,,株式会社,東京都,立川市,柴崎町３丁目１４番７号,,13,202,1900023,,,2022-07-25,清算の結了等,,,2015-10-05,1,,,,,プリンスボウエキ,0
2127,9010001028130,登記記録の閉鎖等,0,2022-08-01,2022-07-07,フェニックスメタル株式会社,,株式会社,東京都,千代田区,大手町１丁目７番２号東京サンケイビル１５階,,13,101,1000004,,,2022-07-07,合併による解散等,4010601013131,令和４年７月１日東京都墨田区緑一丁目４番１９号リバー株式会社（4010601013131）に合併し解散,2015-10-05,1,,,,,フェニックスメタル,0
2163,9011002035891,登記記録の閉鎖等,0,2022-08-01,2022-07-12,有限会社フェリーモ,,有限会社,東京都,中央区,東日本橋２丁目２８番４号日本橋ＣＥＴビル２階,,13,102,1030004,,,2022-07-12,清算の結了等,,,2015-10-05,1,,,,,フェリーモ,0
2187,9013401005905,登記記録の閉鎖等,0,2022-08-01,2022-07-22,大翔国際株式会社,,株式会社,東京都,立川市,羽衣町１丁目６番１０号２Ｆ,,13,202,1900021,,,2022-07-22,清算の結了等,,,2015-10-05,1,,,,,ダイショウコクサイ,0
2202,9021001062853,登記記録の閉鎖等,0,2022-08-01,2022-07-19,株式会社グローイングスタッフ,,株式会社,東京都,港区,虎ノ門３丁目１２番１号ＭＴレジデンス１４０１号,,13,103,1050001,,,2022-07-19,清算の結了等,,,2017-08-18,1,,,,,グローイングスタッフ,0
2215,9030002036691,登記記録の閉鎖等,0,2022-08-01,2022-07-19,有限会社シュンテック,,有限会社,埼玉県,入間市,扇台４丁目４番８号,,11,225,3580023,,,2022-07-19,清算の結了等,,,2015-10-05,1,,,,,シュンテック,0
2217,9030002104993,登記記録の閉鎖等,0,2022-08-01,2022-07-20,有限会社津々野タイル工業所,,有限会社,埼玉県,川口市,芝下３丁目１５番４８号,,11,203,3330848,,,2022-07-20,清算の結了等,,,2015-10-05,1,,,,,ツヅノタイルコウギョウショ,0
2218,9030002120545,登記記録の閉鎖等,0,2022-08-01,2022-07-19,ワイケーソフト有限会社,,有限会社,埼玉県,入間市,大字新光３０６番地２２,,11,225,3580055,,,2022-07-19,清算の結了等,,,2015-10-05,1,,,,,ワイケーソフト,0
2247,9100001033947,登記記録の閉鎖等,0,2022-08-01,2022-07-25,株式会社ひまわりきっず,,株式会社,長野県,諏訪市,南町１３番地２,,20,206,3920014,,,2022-07-25,清算の結了等,,,2021-02-12,1,,,,,ヒマワリキッズ,0
2261,9120001223257,登記記録の閉鎖等,0,2022-08-01,2022-07-20,株式会社ＢＬＡＣＫＣＯＭＰＡＮＹ,,株式会社,大阪府,大阪市浪速区,桜川２丁目３番３４－１３０１号,,27,111,5560022,,,2022-07-20,清算の結了等,,,2019-08-22,1,,,,,ブラックカンパニー,0
2285,9120905005338,登記記録の閉鎖等,0,2022-08-01,2022-07-28,税理士法人溝口・古田会計事務所,,その他の設立登記法人,大阪府,豊中市,庄内西町４丁目１番１号,,27,203,5610832,,,2022-07-28,清算の結了等,,,2016-01-08,1,,,,,ミゾグチフルタカイケイジムショ,0
2303,9160002014305,登記記録の閉鎖等,0,2022-08-01,2022-07-28,有限会社豊倉エンジニアリング,,有限会社,滋賀県,野洲市,小南４９９番地５２,,25,210,5202301,,,2022-07-28,清算の結了等,,,2015-10-05,1,,,,,,0
2318,9180002022090,登記記録の閉鎖等,0,2022-08-01,2022-07-26,有限会社平針電気工事店,,有限会社,愛知県,名古屋市天白区,原３丁目４０５番地,,23,116,4680015,,,2022-07-26,清算の結了等,,,2015-10-05,1,,,,,ヒラバリデンキコウジテン,0
2321,9180002082498,登記記録の閉鎖等,0,2022-08-01,2022-07-27,有限会社丹羽設備管理,,有限会社,愛知県,岩倉市,東町掛目１９８番地の１,,23,228,4820041,,,2022-07-27,清算の結了等,,,2015-10-05,1,,,,,ニワセツビカンリ,0
2339,9240002029716,登記記録の閉鎖等,0,2022-08-01,2022-07-29,有限会社エムワールド,,有限会社,広島県,山県郡北広島町,移原６８０番地の１,,34,369,7312206,,,2022-07-29,清算の結了等,,,2015-10-05,1,,,,,エムワールド,0
2349,9280001003370,登記記録の閉鎖等,0,2022-08-01,2022-07-29,斐川礦業株式会社,,株式会社,島根県,出雲市,上島町２２６０番地,,32,203,6930101,,,2022-07-29,清算の結了等,,,2015-10-05,1,,,,,ヒカワコウギョウ,0
2355,9320002010031,登記記録の閉鎖等,0,2022-08-01,2022-07-29,有限会社麻生設備,,有限会社,大分県,由布市,湯布院町川上２０７５番地の８,,44,213,8795102,,,2022-07-29,清算の結了等,,,2015-10-05,1,,,,,アソウセツビ,0
2357,9330001014354,登記記録の閉鎖等,0,2022-08-01,2022-07-15,鶴亀建設株式会社,,株式会社,熊本県,水俣市,袋９１５番地,,43,205,8670034,,,2022-07-15,清算の結了等,,,2015-10-05,1,,,,,,0
2358,9330001016078,登記記録の閉鎖等,0,2022-08-01,2022-07-20,スカイキャリージャパン株式会社,,株式会社,熊本県,人吉市,西間下町３２０番地,,43,203,8680072,,,2022-07-20,清算の結了等,,,2015-10-05,1,,,,,スカイキャリージャパン,0
2377,9380002030726,登記記録の閉鎖等,0,2022-08-01,2022-07-22,有限会社なみえライフサポート,,有限会社,福島県,双葉郡浪江町,大字川添字葉山５５番地１,,07,547,9791531,,,2022-07-22,清算の結了等,,,2015-10-05,1,,,,,ナミエライフサポート,0
2382,9420002003462,登記記録の閉鎖等,0,2022-08-01,2022-07-27,有限会社ふく福,,有限会社,青森県,青森市,けやき１丁目１７番８号,,02,201,0300918,,,2022-07-27,清算の結了等,,,2015-10-05,1,,,,,フクフク,0
2384,9430001048755,登記記録の閉鎖等,0,2022-08-01,2022-07-19,宮志工業株式会社,,株式会社,北海道,赤平市,宮下町３丁目１番地２,,01,218,0791151,,,2022-07-19,清算の結了等,,,2015-10-05,1,,,,,ミヤシコウギョウ,0
2385,9430001076590,登記記録の閉鎖等,0,2022-08-01,2022-07-19,株式会社ＳＹプランニング,,株式会社,北海道,札幌市豊平区,月寒西四条６丁目４番２１号,,01,105,0620024,,,2022-07-19,清算の結了等,,,2018-05-14,1,,,,,エスワイプランニング,0
2390,9470002016526,登記記録の閉鎖等,0,2022-08-01,2022-07-28,有限会社パノックス四国,,有限会社,香川県,三豊市,高瀬町下勝間１４４３番地１,,37,208,7670011,,,2022-07-28,清算の結了等,,,2015-10-05,1,,,,,パノックスシコク,0
