sequenceNumber,corporateNumber,process,correct,updateDate,changeDate,name,nameImageId,kind,prefectureName,cityName,streetNumber,addressImageId,prefectureCode,cityCode,postCode,addressOutside,addressOutsideImageId,closeDate,closeCause,successorCorporateNumber,changeCause,assignmentDate,latest,enName,enPrefectureName,enCityName,enAddressOutside,furigana,hihyoji
10,1010003025141,登記記録の閉鎖等,0,2025-11-04,2025-10-03,合同会社大宮仲町開発,,合同会社,東京都,港区,六本木１丁目９番１０号アークヒルズ仙石山森タワー４０階,,13,103,1060032,,,2025-10-03,清算の結了等,,,2017-04-13,1,,,,,オオミヤナカチョウカイハツ,0
13,1010005024991,登記記録の閉鎖等,0,2025-11-04,2025-10-30,桜島一丁目開発一般社団法人,,その他の設立登記法人,東京都,千代田区,霞が関３丁目２番５号,,13,101,1000013,,,2025-10-30,清算の結了等,,,2016-02-23,1,,,,,サクラジマイッチョウメカイハツ,0
28,1010405020681,登記記録の閉鎖等,0,2025-11-04,2025-10-03,サイガワインフラホールディングス一般社団法人,,その他の設立登記法人,東京都,港区,虎ノ門３丁目２２番１０－２０１号,,13,103,1050001,,,2025-10-03,清算の結了等,,,2022-02-14,1,,,,,サイガワインフラホールディングス,0
35,1011001071739,登記記録の閉鎖等,0,2025-11-04,2025-10-03,ＣＨＯＴＴＯ株式会社,,株式会社,千葉県,我孫子市,中峠台３５－１２,,12,222,2701128,,,2025-10-03,清算の結了等,,,2015-10-05,1,,,,,チョット,0
57,1011501012333,登記記録の閉鎖等,0,2025-11-04,2025-10-21,株式会社やすらぎ葬祭,,株式会社,東京都,墨田区,立花３丁目８番６号,,13,107,1310043,,,2025-10-21,清算の結了等,,,2015-10-05,1,,,,,ヤスラギソウサイ,0
61,1012302001723,登記記録の閉鎖等,0,2025-11-04,2025-10-30,有限会社京浜フロアー,,有限会社,東京都,町田市,鶴川５丁目７番地２３,,13,209,1950061,,,2025-10-30,清算の結了等,,,2015-10-05,1,,,,,ケイヒンフロアー,0
69,1020001092380,登記記録の閉鎖等,0,2025-11-04,2025-10-20,株式会社トライフルエンターテインメント,,株式会社,東京都,千代田区,岩本町３丁目６番５号木所ビル４階,00116347,13,101,1010032,,,2025-10-20,清算の結了等,,,2015-10-05,1,,,,,トライフルエンターテインメント,0
71,1020001124167,登記記録の閉鎖等,0,2025-11-04,2025-10-17,株式会社ウイングル,,株式会社,神奈川県,横浜市旭区,川井本町８８番地６,,14,112,2410803,,,2025-10-17,清算の結了等,,,2017-12-11,1,,,,,ウイングル,0
86,1030001038960,登記記録の閉鎖等,0,2025-11-04,2025-10-24,ハマセツ＆リベンプラザ株式会社,,株式会社,埼玉県,三郷市,彦江１丁目２７８番地,,11,237,3410058,,,2025-10-24,清算の結了等,,,2015-10-05,1,,,,,ハマセツアンドリベンプラザ,0
94,1040001050246,登記記録の閉鎖等,0,2025-11-04,2025-10-07,グローバル・マーコム株式会社,,株式会社,千葉県,千葉市中央区,都町７丁目１９番１号,,12,101,2600001,,,2025-10-07,清算の結了等,,,2015-10-05,1,,,,,グローバルマーコム,0
96,1040001092585,登記記録の閉鎖等,0,2025-11-04,2025-10-02,株式会社わさび,,株式会社,千葉県,習志野市,谷津１丁目１７番８号ＳＡＫビルＡ３０１,,12,216,2750026,,,2025-10-02,清算の結了等,,,2015-11-04,1,,,,,ワサビ,0
102,1040002038521,登記記録の閉鎖等,0,2025-11-04,2025-09-22,有限会社三河庵,,有限会社,千葉県,鎌ケ谷市,初富８００番地６２４,,12,224,2730121,,,2025-09-22,清算の結了等,,,2015-10-05,1,,,,,ミカワアン,0
113,1060002027737,登記記録の閉鎖等,0,2025-11-04,2025-10-29,有限会社旭荘アパート,,有限会社,栃木県,小山市,大字立木１３５０番地１１,,09,208,3230062,,,2025-10-29,清算の結了等,,,2015-10-05,1,,,,,アサヒソウアパート,0
124,1090002009939,登記記録の閉鎖等,0,2025-11-04,2025-10-29,有限会社エコ・ハーモニー,,有限会社,山梨県,大月市,猿橋町藤崎１６３１番地,,19,206,4090612,,,2025-10-29,清算の結了等,,,2015-10-05,1,,,,,エコハーモニー,0
126,1100001017321,登記記録の閉鎖等,0,2025-11-04,2025-10-28,中信エンジニヤリング株式会社,,株式会社,長野県,北安曇郡白馬村,大字北城８３０番地２１,,20,485,3999301,,,2025-10-28,清算の結了等,,,2015-10-05,1,,,,,チュウシンエンジニヤリング,0
136,1120001196997,登記記録の閉鎖等,0,2025-11-04,2025-10-29,株式会社住宅工房篝,,株式会社,大阪府,大阪市鶴見区,横堤２丁目２１番２号,,27,124,5380052,,,2025-10-29,清算の結了等,,,2016-03-22,1,,,,,ジュウタクコウボウカガリ,0
145,1120002070739,登記記録の閉鎖等,0,2025-11-04,2025-10-30,有限会社エイテック,,有限会社,大阪府,寝屋川市,葛原１丁目４番２９号,,27,215,5720075,,,2025-10-30,清算の結了等,,,2015-10-05,1,,,,,エイテック,0
146,1120003008077,登記記録の閉鎖等,0,2025-11-04,2025-10-29,ＳＩＲゴルフマネージメント株式会社,,株式会社,大阪府,大阪市中央区,鎗屋町１丁目１番３号,,27,128,5400027,,,2025-10-29,合併による解散等,2010001143191,令和７年１０月１日東京都千代田区三番町２番地４札幌インターナショナルリゾート株式会社（2010001143191）に合併し解散,2015-10-05,1,,,,,エスアイアールゴルフマネージメント,0
149,1120003024702,登記記録の閉鎖等,0,2025-11-04,2025-10-24,合同会社ふぇぶらりーＷＯＲＫＳ,,合同会社,大阪府,大阪市北区,梅田１丁目２番２号大阪駅前第２ビル１２‐１２,,27,127,5300001,,,2025-10-24,清算の結了等,,,2023-08-08,1,,,,,フェブラリーワークス,0
163,1140001112845,登記記録の閉鎖等,0,2025-11-04,2025-10-28,株式会社だるま堂,,株式会社,兵庫県,神戸市西区,北別府５丁目１７番地の３澤山ビル１０２号,,28,111,6512117,,,2025-10-28,清算の結了等,,,2019-02-27,1,,,,,ダルマドウ,0
166,1140002031821,登記記録の閉鎖等,0,2025-11-04,2025-10-28,有限会社イケダめがね,,有限会社,兵庫県,たつの市,龍野町富永１６４番地の９,,28,229,6794167,,,2025-10-28,清算の結了等,,,2015-10-05,1,,,,,,0
175,1180001010203,登記記録の閉鎖等,0,2025-11-04,2025-10-21,小林装飾株式会社,,株式会社,愛知県,名古屋市瑞穂区,宝田町１丁目４番地,,23,108,4670866,,,2025-10-21,清算の結了等,,,2015-10-05,1,,,,,コバヤシソウショク,0
184,1180001158538,登記記録の閉鎖等,0,2025-11-04,2025-10-27,株式会社岡部エクステリア,,株式会社,愛知県,一宮市,向山町１丁目３６番地２フォレスタ一宮２０６号室,,23,203,4910869,,,2025-10-27,清算の結了等,,,2023-10-20,1,,,,,オカベエクステリア,0
187,1180002013411,登記記録の閉鎖等,0,2025-11-04,2025-10-27,有限会社小田切南不動産,,有限会社,愛知県,名古屋市南区,大磯通４丁目２０番地の６,,23,112,4570048,,,2025-10-27,清算の結了等,,,2015-10-05,1,,,,,オダギミナミミフドウサン,0
188,1180002018220,登記記録の閉鎖等,0,2025-11-04,2025-10-27,有限会社新興,,有限会社,愛知県,名古屋市中川区,大塩町２丁目５２番地,,23,110,4540863,,,2025-10-27,清算の結了等,,,2015-10-05,1,,,,,シンコウ,0
189,1180003027501,登記記録の閉鎖等,0,2025-11-04,2025-10-24,Ｙ．Ｍ．Ｏｒｃｈｅｓｔｒａ合同会社,,合同会社,愛知県,名古屋市昭和区,紅梅町３丁目２番地の１,,23,107,4660031,,,2025-10-24,清算の結了等,,,2024-10-22,1,,,,,ワイエムオーケストラ,0
201,1200002013367,登記記録の閉鎖等,0,2025-11-04,2025-10-28,有限会社安八物流,,有限会社,岐阜県,安八郡安八町,森部１１６番地,,21,383,5030114,,,2025-10-28,清算の結了等,,,2015-10-05,1,,,,,アンパチブツリュウ,0
212,1260002007628,登記記録の閉鎖等,0,2025-11-04,2025-10-30,有限会社ノーザンエンタープライズ,,有限会社,岡山県,岡山市中区,円山６７番地,,33,102,7038271,,,2025-10-30,清算の結了等,,,2015-10-05,1,,,,,ノーザンエンタープライズ,0
217,1290001094318,登記記録の閉鎖等,0,2025-11-04,2025-10-02,株式会社ファーストステップ,,株式会社,福岡県,福岡市城南区,荒江１丁目６番１１号,,40,136,8140101,,,2025-10-02,合併による解散等,3290001008523,令和７年１０月１日福岡市城南区荒江一丁目６番１１号大洋ガステック株式会社（3290001008523）に合併し解散,2021-08-26,1,,,,,ファーストステップ,0
240,1390002010734,登記記録の閉鎖等,0,2025-11-04,2025-10-29,有限会社アイシーエフ,,有限会社,山形県,新庄市,沖の町２番１５号,,06,205,9960023,,,2025-10-29,清算の結了等,,,2015-10-05,1,,,,,アイシーエフ,0
241,1390002010791,登記記録の閉鎖等,0,2025-11-04,2025-10-30,有限会社井上商店,,有限会社,山形県,新庄市,万場町７番５３号,,06,205,9960028,,,2025-10-30,清算の結了等,,,2015-10-05,1,,,,,イノウエショウテン,0
244,1400601000480,登記記録の閉鎖等,0,2025-11-04,2025-10-21,株式会社齊藤建設,,株式会社,岩手県,胆沢郡金ケ崎町,西根高谷野原１５番地,,03,381,0294503,,,2025-10-21,清算の結了等,,,2015-10-05,1,,,,,サイトウケンセツ,0
252,1450005004090,登記記録の閉鎖等,0,2025-11-04,2025-10-29,特定非営利活動法人癒しの森づくり,,その他の設立登記法人,北海道,旭川市,末広八条８丁目５２９４番２,,01,204,0718138,,,2025-10-29,清算の結了等,,,2017-02-23,1,,,,,イヤシノモリヅクリ,0
253,1470001018092,登記記録の閉鎖等,0,2025-11-04,2025-10-30,株式会社平井菜園,,株式会社,香川県,仲多度郡まんのう町,吉野６８７－２,,37,406,7660023,,,2025-10-30,清算の結了等,,,2020-06-26,1,,,,,ヒライサイエン,0
263,2010001088065,登記記録の閉鎖等,0,2025-11-04,2025-10-20,株式会社アドビック,,株式会社,東京都,千代田区,神田佐久間町１丁目８番地４,,13,101,1010025,,,2025-10-20,清算の結了等,,,2015-10-05,1,,,,,アドビック,0
265,2010001131502,登記記録の閉鎖等,0,2025-11-04,2025-10-23,株式会社スリーアローズ,,株式会社,埼玉県,狭山市,大字下奥富５９１番地の９ＰＵＣＫ－Ｂ号室,,11,215,3501332,,,2025-10-23,清算の結了等,,,2015-10-05,1,,,,,スリーアローズ,0
267,2010001181695,登記記録の閉鎖等,0,2025-11-04,2025-10-03,ヘイゼル株式会社,,株式会社,東京都,港区,新橋４丁目３０番６号京急中はらビル５階,,13,103,1050004,,,2025-10-03,清算の結了等,,,2017-02-24,1,,,,,ヘイゼル,0
271,2010001237720,登記記録の閉鎖等,0,2025-11-04,2025-10-20,株式会社ＧＬＡＭＳＡ,,株式会社,東京都,中央区,佃３丁目８番１１号,,13,102,1040051,,,2025-10-20,清算の結了等,,,2023-08-16,1,,,,,グランサ,0
285,2010401067081,登記記録の閉鎖等,0,2025-11-04,2025-10-03,株式会社日本記録士協会,,株式会社,東京都,港区,虎ノ門１丁目１番２１号,,13,103,1050001,,,2025-10-03,清算の結了等,,,2015-10-05,1,,,,,ニホンキロクシキョウカイ,0
286,2010401140813,登記記録の閉鎖等,0,2025-11-04,2025-10-15,株式会社Ｗｏｏｚ研究会,,株式会社,神奈川県,大和市,中央林間９丁目３番３２号,,14,213,2420007,,,2025-10-15,清算の結了等,,,2018-09-19,1,,,,,ウーズケンキュウカイ,0
293,2010403031523,登記記録の閉鎖等,0,2025-11-04,2025-10-06,Ｏｆｆｉｃｅ　ｙｕｋａ合同会社,,合同会社,東京都,港区,北青山１丁目３－１アールキューブ青山３階,,13,103,1070061,,,2025-10-06,清算の結了等,,,2023-12-11,1,,,,,オフィスユカ,0
297,2010405020111,登記記録の閉鎖等,0,2025-11-04,2025-10-31,千葉北ロジスティック特定目的会社,,その他の設立登記法人,東京都,中央区,八重洲２丁目２番１号,,13,102,1040028,,,2025-10-31,清算の結了等,,,2021-08-12,1,,,,,チバキタロジスティック,0
304,2010601048914,登記記録の閉鎖等,0,2025-11-04,2025-10-23,Ｋ・プロパティーズ株式会社,,株式会社,東京都,中央区,日本橋兜町１７番２号兜町第６葉山ビル４階,,13,102,1030026,,,2025-10-23,清算の結了等,,,2015-12-18,1,,,,,ケイプロパティーズ,0
324,2011101104257,登記記録の閉鎖等,0,2025-11-04,2025-10-01,ＬｉｇｈｔＮｅｔ株式会社,,株式会社,東京都,新宿区,新宿３丁目１２番４号新宿永谷タウンプラザ３０１,,13,104,1600022,,,2025-10-01,清算の結了等,,,2023-09-07,1,,,,,ライトネット,0
329,2011201004167,登記記録の閉鎖等,0,2025-11-04,2025-10-29,日本メカトロニクス株式会社,,株式会社,東京都,板橋区,中丸町９番１号,,13,119,1730026,,,2025-10-29,清算の結了等,,,2015-10-05,1,,,,,ニホンメカトロニクス,0
349,2020002036807,登記記録の閉鎖等,0,2025-11-04,2025-10-20,有限会社安藤薬局,,有限会社,神奈川県,横浜市鶴見区,潮田町４丁目１５４番地の１,,14,101,2300041,,,2025-10-20,清算の結了等,,,2015-10-05,1,,,,,アンドウヤッキョク,0
356,2021003007301,登記記録の閉鎖等,0,2025-11-04,2025-10-14,ジクロス合同会社,,合同会社,神奈川県,茅ヶ崎市,十間坂１丁目５番１－５０１号コーラル湘南,,14,207,2530045,,,2025-10-14,清算の結了等,,,2018-02-21,1,,,,,,0
360,2030001078097,登記記録の閉鎖等,0,2025-11-04,2025-10-24,株式会社日照堂,,株式会社,埼玉県,川口市,青木３丁目１１番２５号,,11,203,3320031,,,2025-10-24,清算の結了等,,,2015-10-05,1,,,,,ニッショウドウ,0
374,2030005021094,登記記録の閉鎖等,0,2025-11-04,2025-10-10,一般社団法人在日カンボジア支援協会,,その他の設立登記法人,埼玉県,さいたま市大宮区,仲町２丁目７１番地ソシオ大宮６Ｆ－６０８,,11,103,3300845,,,2025-10-10,清算の結了等,,,2022-12-16,1,,,,,カンボジアシエンキョウカイ,0
375,2040001032251,登記記録の閉鎖等,0,2025-11-04,2025-10-03,株式会社マングース,,株式会社,千葉県,市川市,須和田２丁目１５番８号,,12,203,2720825,,,2025-10-03,清算の結了等,,,2015-10-05,1,,,,,マングース,0
377,2040001061201,登記記録の閉鎖等,0,2025-11-04,2025-10-07,株式会社ユニオン,,株式会社,千葉県,匝瑳市,金原９４４番地１８,,12,235,2892177,,,2025-10-07,清算の結了等,,,2015-10-05,1,,,,,ユニオン,0
397,2060001008118,登記記録の閉鎖等,0,2025-11-04,2025-10-28,中山産業株式会社,,株式会社,栃木県,那須烏山市,田野倉８１７番地,,09,215,3210526,,,2025-10-28,清算の結了等,,,2021-09-28,1,,,,,ナカヤマサンギョウ,0
398,2060001013836,登記記録の閉鎖等,0,2025-11-04,2025-10-30,株式会社アーバンクラフト,,株式会社,栃木県,宇都宮市,峰町３１４番地１２,,09,201,3210943,,,2025-10-30,清算の結了等,,,2015-10-05,1,,,,,アーバンクラフト,0
409,2090002007537,登記記録の閉鎖等,0,2025-11-04,2025-10-28,有限会社富士タクシー,,有限会社,山梨県,甲府市,上曽根町１８５５番地,,19,201,4001501,,,2025-10-28,清算の結了等,,,2015-10-05,1,,,,,フジタクシー,0
427,2130001026847,登記記録の閉鎖等,0,2025-11-04,2025-10-29,株式会社京都ぱど,,株式会社,京都府,京都市南区,東九条南石田町１番地,,26,107,6018033,,,2025-10-29,清算の結了等,,,2015-10-05,1,,,,,キュウトパド,0
431,2130001064921,登記記録の閉鎖等,0,2025-11-04,2025-10-30,令和管理株式会社,,株式会社,京都府,京都市西京区,桂池尻町４５番地５,,26,111,6158081,,,2025-10-30,清算の結了等,,,2019-07-23,1,,,,,レイワカンリ,0
443,2150001000362,登記記録の閉鎖等,0,2025-11-04,2025-10-06,栄光産業株式会社,,株式会社,東京都,港区,芝２丁目１０－６－５階,,13,103,1050014,,,2025-10-06,清算の結了等,,,2015-10-05,1,,,,,エイコウサンギョウ,0
444,2150001018586,登記記録の閉鎖等,0,2025-11-04,2025-10-30,ＶＰ環境株式会社,,株式会社,奈良県,生駒郡斑鳩町,法隆寺東１丁目５番２３号,00048910,29,344,6360112,,,2025-10-30,清算の結了等,,,2015-10-05,1,,,,,ブイピーカンキョウ,0
447,2170005005307,登記記録の閉鎖等,0,2025-11-04,2025-10-31,新宮丸紀協同組合,,その他の設立登記法人,和歌山県,新宮市,徐福２丁目１番２７号,,30,207,6470020,,,2025-10-31,清算の結了等,,,2015-10-05,1,,,,,シングウマルキ,0
450,2180001154148,登記記録の閉鎖等,0,2025-11-04,2025-10-22,株式会社クロススクエア,,株式会社,愛知県,名古屋市中村区,野上町８９番地の１,,23,105,4530859,,,2025-10-22,清算の結了等,,,2022-12-12,1,,,,,クロススクエア,0
454,2180002063224,登記記録の閉鎖等,0,2025-11-04,2025-10-29,有限会社ジュン,,有限会社,愛知県,日進市,岩崎町神明１５８番地の１１,,23,230,4700131,,,2025-10-29,清算の結了等,,,2015-10-05,1,,,,,ジュン,0
456,2180002076184,登記記録の閉鎖等,0,2025-11-04,2025-10-28,有限会社木全質店,,有限会社,愛知県,一宮市,本町４丁目２番１号,,23,203,4910859,,,2025-10-28,清算の結了等,,,2015-10-05,1,,,,,キマタシチテン,0
462,2180003009779,登記記録の閉鎖等,0,2025-11-04,2025-10-27,合同会社いとう新聞店,,合同会社,愛知県,名古屋市西区,浄心本通３丁目４３番地の５サンハウス浄心４Ｄ号,,23,104,4510073,,,2025-10-27,清算の結了等,,,2015-10-05,1,,,,,イトウシンブンテン,0
467,2180301039115,登記記録の閉鎖等,0,2025-11-04,2025-10-27,株式会社ケーシーアップ,,株式会社,愛知県,安城市,福釜町蓬野６５番地２,00136525,23,212,4460052,,,2025-10-27,清算の結了等,,,2024-10-04,1,,,,,ケーシーアップ,0
470,2180302015222,登記記録の閉鎖等,0,2025-11-04,2025-10-28,有限会社尾崎工作所,,有限会社,愛知県,蒲郡市,水竹町上り島５９番地,,23,214,4430005,,,2025-10-28,清算の結了等,,,2015-10-05,1,,,,,オザキコウサクショ,0
477,2190002004945,登記記録の閉鎖等,0,2025-11-04,2025-10-28,有限会社里羅,,有限会社,三重県,亀山市,本町２丁目１番４号,,24,210,5190116,,,2025-10-28,清算の結了等,,,2015-10-05,1,,,,,リラ,0
482,2200001019488,登記記録の閉鎖等,0,2025-11-04,2025-10-20,株式会社パコラ,,株式会社,岐阜県,関市,小瀬８７４番地の３,,21,205,5013265,,,2025-10-20,清算の結了等,,,2015-10-05,1,,,,,パコラ,0
496,2240002043194,登記記録の閉鎖等,0,2025-11-04,2025-10-28,有限会社マルウ,,有限会社,広島県,福山市,鞆町後地字白茅２６番地の２３４,00001464,34,207,7200202,,,2025-10-28,清算の結了等,,,2015-10-05,1,,,,,,0
502,2290001007022,登記記録の閉鎖等,0,2025-11-04,2025-10-20,九州ベンデイングサプライ株式会社,,株式会社,福岡県,福岡市西区,愛宕浜２丁目１番６号,,40,135,8190013,,,2025-10-20,清算の結了等,,,2015-10-05,1,,,,,キュウシュウベンデイングサプライ,0
511,2290003004182,登記記録の閉鎖等,0,2025-11-04,2025-10-03,合同会社多田建装,,合同会社,福岡県,福岡市南区,柏原６丁目３５番２９号,,40,134,8111353,,,2025-10-03,清算の結了等,,,2015-10-05,1,,,,,タダケンソウ,0
522,2360003007228,登記記録の閉鎖等,0,2025-11-04,2025-10-30,合同会社ＴＳプランニング,,合同会社,沖縄県,那覇市,松島１丁目１９番１５号,,47,201,9020069,,,2025-10-30,清算の結了等,,,2015-10-05,1,,,,,ティーエスプランニング,0
523,2370001010240,登記記録の閉鎖等,0,2025-11-04,2025-10-21,株式会社芳珍,,株式会社,宮城県,仙台市宮城野区,鶴ケ谷３丁目５番地の１１,,04,102,9830824,,,2025-10-21,清算の結了等,,,2015-10-05,1,,,,,ホウチン,0
546,2430002006438,登記記録の閉鎖等,0,2025-11-04,2025-10-31,有限会社工藤商事,,有限会社,北海道,札幌市南区,北ノ沢４丁目１番４０－３０７号,,01,106,0050832,,,2025-10-31,清算の結了等,,,2015-10-05,1,,,,,クドウショウジ,0
571,3010001070988,登記記録の閉鎖等,0,2025-11-04,2025-10-20,株式会社オッジコーポレーション,,株式会社,東京都,文京区,弥生２丁目１５番１２号－６０２ファミールグラン本郷弥生坂,,13,105,1130032,,,2025-10-20,清算の結了等,,,2015-10-05,1,,,,,,0
585,3010003023523,登記記録の閉鎖等,0,2025-11-04,2025-10-30,合同会社ひろ,,合同会社,東京都,中央区,銀座６丁目１３番１６号銀座ＷａｌｌビルＵＣＦ５階,,13,102,1040061,,,2025-10-30,合併による解散等,9010403017565,令和７年１０月１日東京都港区虎ノ門一丁目１６番６号虎ノ門ＲＡＰＯ－ＴＯビルＵＣＦ７０３合同会社だいき（9010403017565）に合併し解散,2016-05-16,1,,,,,,0
587,3010003039701,登記記録の閉鎖等,0,2025-11-04,2025-10-17,Ｂｌｕｅ　Ｍａｐ合同会社,,合同会社,東京都,千代田区,霞が関３丁目２番５号,,13,101,1000013,,,2025-10-17,清算の結了等,,,2023-01-31,1,,,,,ブルーマップ,0
603,3010402036019,登記記録の閉鎖等,0,2025-11-04,2025-10-03,有限会社サムスタッフ,,有限会社,東京都,港区,南青山２丁目８番２－２０５号,,13,103,1070062,,,2025-10-03,清算の結了等,,,2015-10-05,1,,,,,サムスタッフ,0
604,3010403022265,登記記録の閉鎖等,0,2025-11-04,2025-10-03,合同会社Ｓｎｏｗｂｉｒｄ,,合同会社,東京都,港区,虎ノ門５丁目１番４号,,13,103,1050001,,,2025-10-03,清算の結了等,,,2020-01-31,1,,,,,スノーバード,0
605,3010403031605,登記記録の閉鎖等,0,2025-11-04,2025-10-06,ｃｈｉｔｏｓｅ．Ｋ合同会社,,合同会社,東京都,港区,南青山３丁目１番３６号青山丸竹ビル６Ｆ,,13,103,1070062,,,2025-10-06,清算の結了等,,,2023-12-20,1,,,,,チトセケイ,0
611,3010603006695,登記記録の閉鎖等,0,2025-11-04,2025-10-21,合同会社ＺＥＮＫＯ,,合同会社,東京都,墨田区,緑４丁目１１番８号,,13,107,1300021,,,2025-10-21,清算の結了等,,,2017-03-24,1,,,,,ゼンコー,0
641,3011602006141,登記記録の閉鎖等,0,2025-11-04,2025-10-27,有限会社東京資材,,有限会社,東京都,練馬区,豊玉南１丁目１８番７号,,13,120,1760014,,,2025-10-27,清算の結了等,,,2015-10-05,1,,,,,トウキョウシザイ,0
671,3021002030369,登記記録の閉鎖等,0,2025-11-04,2025-10-21,有限会社コモード,,有限会社,神奈川県,鎌倉市,山ノ内１６８番地４,,14,204,2470062,,,2025-10-21,清算の結了等,,,2015-10-05,1,,,,,コモード,0
674,3030001033497,登記記録の閉鎖等,0,2025-11-04,2025-10-09,株式会社フロウ,,株式会社,埼玉県,羽生市,大字北袋６１６番地,,11,216,3480028,,,2025-10-09,清算の結了等,,,2015-10-05,1,,,,,フロウ,0
680,3030003020320,登記記録の閉鎖等,0,2025-11-04,2025-10-20,ＹＯＵ＆ｉＡＮＤ合同会社,,合同会社,埼玉県,比企郡小川町,東小川５丁目１３番地１,,11,343,3550322,,,2025-10-20,清算の結了等,,,2022-10-05,1,,,,,ユーアンドアイアンド,0
688,3040001108331,登記記録の閉鎖等,0,2025-11-04,2025-10-29,株式会社行徳ファーマシー,,株式会社,埼玉県,さいたま市大宮区,大門町１丁目９３番１階Ｂ,,11,103,3300846,,,2025-10-29,合併による解散等,5010401134779,令和７年１０月１日東京都港区虎ノ門四丁目３番１号城山トラストタワー３７階クオール株式会社（5010401134779）に合併し解散,2019-03-13,1,,,,,ギョウトクファーマシー,0
690,3040001115121,登記記録の閉鎖等,0,2025-11-04,2025-10-02,同天国際株式会社,,株式会社,千葉県,千葉市緑区,あすみが丘６丁目７番地４,,12,105,2670066,,,2025-10-02,清算の結了等,,,2020-09-16,1,,,,,ドウテンコクサイ,0
695,3040002043775,登記記録の閉鎖等,0,2025-11-04,2025-09-19,有限会社ＢＳＫコーポレーション,,有限会社,千葉県,市川市,南八幡５丁目１１番６号,,12,203,2720023,,,2025-09-19,清算の結了等,,,2015-10-05,1,,,,,ビーエスケイコーポレーション,0
697,3040002067931,登記記録の閉鎖等,0,2025-11-04,2025-10-07,有限会社山孝食堂,,有限会社,千葉県,木更津市,中央１丁目３番３１号,,12,206,2920067,,,2025-10-07,清算の結了等,,,2015-10-05,1,,,,,ヤマコウショクドウ,0
701,3050001004562,登記記録の閉鎖等,0,2025-11-04,2025-10-27,株式会社アンファン,,株式会社,茨城県,那珂市,竹ノ内２丁目２番地１,,08,226,3110110,,,2025-10-27,清算の結了等,,,2015-10-05,1,,,,,アンファン,0
706,3060001014065,登記記録の閉鎖等,0,2025-11-04,2025-10-20,株式会社セリン,,株式会社,東京都,千代田区,丸の内３丁目４番１号新国際ビル４階,,13,101,1000005,,,2025-10-20,清算の結了等,,,2015-10-05,1,,,,,セリン,0
707,3060001022869,登記記録の閉鎖等,0,2025-11-04,2025-10-29,株式会社ＣＬＯＶＥＲ,,株式会社,栃木県,足利市,西砂原後町１２０５番地４アネックス２１西砂原後Ａ－１０２,,09,202,3260065,,,2025-10-29,清算の結了等,,,2015-10-05,1,,,,,クローバー,0
709,3060001037280,登記記録の閉鎖等,0,2025-11-04,2025-10-28,株式会社ＭＡＫＥ　ＩＴ,,株式会社,栃木県,栃木市,大平町土与２２３番地２,,09,203,3294402,,,2025-10-28,清算の結了等,,,2024-07-08,1,,,,,メイクイット,0
710,3060002039788,登記記録の閉鎖等,0,2025-11-04,2025-10-30,有限会社亀山工務店,,有限会社,栃木県,佐野市,白岩町４８１番地,,09,204,3270302,,,2025-10-30,清算の結了等,,,2015-10-05,1,,,,,カメヤマコウムテン,0
714,3080401017888,登記記録の閉鎖等,0,2025-11-04,2025-10-30,株式会社ドラジェ,,株式会社,埼玉県,さいたま市桜区,町谷２丁目２３番１７号,,11,106,3380836,,,2025-10-30,合併による解散等,8010401031338,令和７年１０月１日東京都港区南青山七丁目１番５号リードオフジャパン株式会社（8010401031338）に合併し解散,2015-10-05,1,,,,,ドラジェ,0
718,3090001003098,登記記録の閉鎖等,0,2025-11-04,2025-10-27,株式会社サンナッツ,,株式会社,山梨県,中巨摩郡昭和町,西条２０２４番地の１０,,19,384,4093866,,,2025-10-27,清算の結了等,,,2015-10-05,1,,,,,サンナッツ,0
725,3120001056076,登記記録の閉鎖等,0,2025-11-04,2025-10-29,新大阪電子工業株式会社,,株式会社,奈良県,生駒市,辻町７５４番地７,00043137,29,209,6300212,,,2025-10-29,清算の結了等,,,2015-10-05,1,,,,,シンオオサカデンシコウギョウ,0
736,3120003019799,登記記録の閉鎖等,0,2025-11-04,2025-10-15,合同会社ＹＴレンタル,,合同会社,大阪府,大阪市阿倍野区,王子町１丁目６番２４号,,27,119,5450023,,,2025-10-15,清算の結了等,,,2021-07-07,1,,,,,ワイティーレンタル,0
750,3140001032728,登記記録の閉鎖等,0,2025-11-04,2025-10-29,コンフィット株式会社,,株式会社,兵庫県,宝塚市,小林５丁目５－４７,,28,214,6650034,,,2025-10-29,清算の結了等,,,2015-10-05,1,,,,,コンフィット,0
760,3140002050159,登記記録の閉鎖等,0,2025-11-04,2025-10-27,有限会社播州塗料商会,,有限会社,兵庫県,姫路市,西夢前台３丁目７７番地の２,,28,201,6712214,,,2025-10-27,清算の結了等,,,2015-10-05,1,,,,,バンシュウトリョウショウカイ,0
766,3180001001076,登記記録の閉鎖等,0,2025-11-04,2025-10-24,坂野不動産株式会社,,株式会社,愛知県,名古屋市守山区,瀬古東１丁目１５４５番地,,23,113,4630090,,,2025-10-24,清算の結了等,,,2015-10-05,1,,,,,サカノフドウサン,0
768,3180001065468,登記記録の閉鎖等,0,2025-11-04,2025-10-23,大和熱処理株式会社,,株式会社,愛知県,清須市,土器野７０７番地,,23,233,4520914,,,2025-10-23,清算の結了等,,,2015-10-05,1,,,,,ダイワネツショリ,0
772,3180001146994,登記記録の閉鎖等,0,2025-11-04,2025-10-20,Ｐ．Ｆアドバンス株式会社,,株式会社,愛知県,名古屋市中川区,打出２丁目１７５番地ＢＡＹ１０３,,23,110,4540926,,,2025-10-20,合併による解散等,5180001153304,令和７年１０月１日名古屋市中川区野田一丁目５０９番地株式会社ＨＩＫＥＮ（5180001153304）に合併し解散,2021-07-14,1,,,,,ピーエフアドバンス,0
791,3240002022560,登記記録の閉鎖等,0,2025-11-04,2025-10-29,有限会社セーフティーウッド,,有限会社,広島県,広島市佐伯区,美の里１丁目１８番１７号,,34,108,7315137,,,2025-10-29,清算の結了等,,,2015-10-05,1,,,,,セーフティーウッド,0
794,3260001002578,登記記録の閉鎖等,0,2025-11-04,2025-10-27,株式会社アウルトラスト,,株式会社,岡山県,岡山市中区,海吉２１２７番地１,,33,102,7038261,,,2025-10-27,清算の結了等,,,2015-10-05,1,,,,,アウルトラスト,0
799,3290001060177,登記記録の閉鎖等,0,2025-11-04,2025-10-01,株式会社サンライ,,株式会社,福岡県,福岡市中央区,小笹１丁目１０番１７号,,40,133,8100033,,,2025-10-01,清算の結了等,,,2015-10-05,1,,,,,サンライ,0
808,3330001015952,登記記録の閉鎖等,0,2025-11-04,2025-10-24,農林興業株式会社,,株式会社,熊本県,球磨郡五木村,甲６６３８番地の１,,43,511,8680201,,,2025-10-24,清算の結了等,,,2015-10-05,1,,,,,ノウリンコウギョウ,0
811,3330003006289,登記記録の閉鎖等,0,2025-11-04,2025-10-24,合同会社山鹿ＣＬ,,合同会社,熊本県,山鹿市,方保田３４７３番地３,,43,208,8610382,,,2025-10-24,清算の結了等,,,2015-10-05,1,,,,,ヤマガシイエル,0
814,3350001017526,登記記録の閉鎖等,0,2025-11-04,2025-10-28,株式会社Ｎｉｃｏｌａｕｇｈ,,株式会社,宮崎県,延岡市,安賀多町４丁目２番地７,,45,203,8820845,,,2025-10-28,清算の結了等,,,2022-01-14,1,,,,,ニコラフ,0
817,3360002004480,登記記録の閉鎖等,0,2025-11-04,2025-10-31,有限会社安山,,有限会社,沖縄県,那覇市,泉崎２丁目１８番地２,,47,201,9000021,,,2025-10-31,清算の結了等,,,2015-10-05,1,,,,,ヤスヤマ,0
822,3390001013736,登記記録の閉鎖等,0,2025-11-04,2025-10-30,共和産業農機株式会社,,株式会社,山形県,寒河江市,大字寒河江字三条１４６番地,,06,206,9910041,,,2025-10-30,清算の結了等,,,2015-10-05,1,,,,,キョウワサンギョウノウキ,0
823,3390002008776,登記記録の閉鎖等,0,2025-11-04,2025-10-29,有限会社こども未来舎,,有限会社,山形県,酒田市,あきほ町６６１番地の９,,06,204,9980828,,,2025-10-29,清算の結了等,,,2015-10-05,1,,,,,コドモミライシャ,0
835,4010001054544,登記記録の閉鎖等,0,2025-11-04,2025-10-20,株式会社パックプラン小西,,株式会社,東京都,中央区,日本橋小伝馬町１４番５号,,13,102,1030001,,,2025-10-20,清算の結了等,,,2015-10-05,1,,,,,パックプランコニシ,0
842,4010001237058,登記記録の閉鎖等,0,2025-11-04,2025-10-17,株式会社マーケットインサイト,,株式会社,東京都,中央区,銀座１丁目２２番１１号銀座大竹ビジデンス２Ｆ,,13,102,1040061,,,2025-10-17,清算の結了等,,,2023-07-21,1,,,,,マーケットインサイト,0
851,4010401172994,登記記録の閉鎖等,0,2025-11-04,2025-10-06,株式会社ｃａｒｕｎａ,,株式会社,東京都,港区,東麻布１丁目６番８－４０１号,,13,103,1060044,,,2025-10-06,清算の結了等,,,2023-03-10,1,,,,,カルナ,0
857,4010405017782,登記記録の閉鎖等,0,2025-11-04,2025-10-31,平塚ツインシティ２特定目的会社,,その他の設立登記法人,東京都,中央区,八重洲２丁目２番１号,,13,102,1040028,,,2025-10-31,清算の結了等,,,2019-06-19,1,,,,,ヒラツカツインシティツー,0
859,4010501038633,登記記録の閉鎖等,0,2025-11-04,2025-10-20,株式会社ｍｙｓｅｌｆ,,株式会社,東京都,文京区,本郷３丁目４番３号,,13,105,1130033,,,2025-10-20,清算の結了等,,,2015-10-05,1,,,,,マイセルフ,0
862,4010601042329,登記記録の閉鎖等,0,2025-11-04,2025-10-22,株式会社メイグー,,株式会社,東京都,江東区,有明３丁目７番２６号,,13,108,1350063,,,2025-10-22,清算の結了等,,,2015-10-05,1,,,,,メイグー,0
865,4010602002835,登記記録の閉鎖等,0,2025-11-04,2025-10-21,有限会社コモリエンジニアリング,,有限会社,東京都,江東区,亀戸５丁目４３番１３号,,13,108,1360071,,,2025-10-21,清算の結了等,,,2015-10-05,1,,,,,コモリエンジニアリング,0
903,4020002040716,登記記録の閉鎖等,0,2025-11-04,2025-10-16,有限会社横山精密プレス工業,,有限会社,神奈川県,川崎市中原区,上丸子山王町１丁目１３９８番地,,14,133,2110002,,,2025-10-16,清算の結了等,,,2015-10-05,1,,,,,ヨコヤマセイミツプレスコウギョウ,0
913,4021001056505,登記記録の閉鎖等,0,2025-11-04,2025-10-14,新栄電気通信株式会社,,株式会社,神奈川県,相模原市南区,大野台６丁目４番６－１１５号,,14,153,2520331,,,2025-10-14,清算の結了等,,,2015-10-05,1,,,,,,0
917,4030001072081,登記記録の閉鎖等,0,2025-11-04,2025-10-23,西村運送株式会社,,株式会社,埼玉県,東松山市,大字上野本２８５番地,,11,212,3550073,,,2025-10-23,清算の結了等,,,2015-10-05,1,,,,,ニシムラウンソウ,0
918,4030001099538,登記記録の閉鎖等,0,2025-11-04,2025-10-24,株式会社エヌブリッジ,,株式会社,埼玉県,新座市,道場２丁目１８番１４号,,11,230,3520024,,,2025-10-24,清算の結了等,,,2015-10-05,1,,,,,エヌブリッジ,0
922,4030001164804,登記記録の閉鎖等,0,2025-11-04,2025-10-23,ＣＥＬＬＦＬＥＸ　ＪＰ株式会社,,株式会社,埼玉県,春日部市,中央１丁目５４番地４タケヤビル２階,,11,214,3440067,,,2025-10-23,清算の結了等,,,2025-02-10,1,,,,,セルフレックスジェイピー,0
928,4030005003925,登記記録の閉鎖等,0,2025-11-04,2025-10-24,シチズン労働組合埼玉支部,,その他の設立登記法人,埼玉県,狭山市,富士見２丁目１５番１号,,11,215,3501306,,,2025-10-24,清算の結了等,,,2015-10-05,1,,,,,シチズンサイタマシブ,0
930,4040001060770,登記記録の閉鎖等,0,2025-11-04,2025-10-02,株式会社ミノリダイプランニング,,株式会社,千葉県,松戸市,松戸新田３８２番地の７,,12,207,2702241,,,2025-10-02,清算の結了等,,,2015-10-05,1,,,,,ミノリダイプランニング,0
932,4040001099603,登記記録の閉鎖等,0,2025-11-04,2025-10-02,株式会社やちよリーダーファーマーズ,,株式会社,千葉県,八千代市,桑橋４０３番地,,12,221,2760007,,,2025-10-02,清算の結了等,,,2017-04-10,1,,,,,ヤチヨリーダーファーマーズ,0
951,4070001016646,登記記録の閉鎖等,0,2025-11-04,2025-10-30,株式会社実慶,,株式会社,群馬県,みどり市,笠懸町阿左美２４７番地の１,,10,212,3792311,,,2025-10-30,清算の結了等,,,2015-10-05,1,,,,,,0
957,4070001040679,登記記録の閉鎖等,0,2025-11-04,2025-10-30,株式会社Ｍ３,,株式会社,群馬県,高崎市,北原町４２４番地２,,10,202,3703513,,,2025-10-30,清算の結了等,,,2023-07-31,1,,,,,エムスリー,0
958,4070002033095,登記記録の閉鎖等,0,2025-11-04,2025-10-29,有限会社魚常,,有限会社,群馬県,館林市,本町３丁目１番１１号,,10,207,3740024,,,2025-10-29,清算の結了等,,,2015-10-05,1,,,,,ウオツネ,0
960,4080401024900,登記記録の閉鎖等,0,2025-11-04,2025-10-22,日中商事株式会社,,株式会社,静岡県,浜松市中央区,高林５丁目６番９号,,22,138,4300907,,,2025-10-22,清算の結了等,,,2021-03-15,1,,,,,ニッチュウショウジ,0
963,4100001029272,登記記録の閉鎖等,0,2025-11-04,2025-10-20,株式会社ＤＡ,,株式会社,東京都,千代田区,麹町４丁目３番２９号ＶＯＲＴ紀尾井坂６階,,13,101,1020083,,,2025-10-20,清算の結了等,,,2016-04-13,1,,,,,ディーエー,0
964,4100005002119,登記記録の閉鎖等,0,2025-11-04,2025-10-30,特定非営利活動法人夢のデザイン塾,,その他の設立登記法人,長野県,長野市,大字鶴賀田町２１１９番地玉木ビル２階,,20,201,3800815,,,2025-10-30,清算の結了等,,,2015-10-05,1,,,,,ユメノデザインジュク,0
968,4120001005346,登記記録の閉鎖等,0,2025-11-04,2025-10-30,ザ・ワールドジユウリージヤパン株式会社,,株式会社,奈良県,大和郡山市,稗田町２６１番地６,,29,203,6391108,,,2025-10-30,清算の結了等,,,2015-10-05,1,,,,,ザワールドジユウリージヤパン,0
974,4120001137949,登記記録の閉鎖等,0,2025-11-04,2025-10-31,株式会社ホートク,,株式会社,大阪府,大阪市住吉区,東粉浜１丁目４番１３号,,27,120,5580051,,,2025-10-31,清算の結了等,,,2015-10-05,1,,,,,ホートク,0
1010,4140001053797,登記記録の閉鎖等,0,2025-11-04,2025-10-30,株式会社クレオコーポレーション,,株式会社,大阪府,大阪市北区,浪花町１０番１４－４０５号,,27,127,5300022,,,2025-10-30,清算の結了等,,,2015-10-05,1,,,,,クレオコーポレーション,0
1017,4160001011010,登記記録の閉鎖等,0,2025-11-04,2025-10-31,みやび建設株式会社,,株式会社,滋賀県,近江八幡市,鷹飼町北４丁目１番地１６,,25,204,5230896,,,2025-10-31,清算の結了等,,,2015-10-05,1,,,,,ミヤビケンセツ,0
1019,4160003002230,登記記録の閉鎖等,0,2025-11-04,2025-10-28,ブルーシリコン合同会社,,合同会社,北海道,上川郡比布町,西町４丁目２番１１号,,01,455,0780342,,,2025-10-28,清算の結了等,,,2021-02-25,1,Blue Silicon LLC,,,,ブルーシリコン,0
1028,4180001130386,登記記録の閉鎖等,0,2025-11-04,2025-10-27,株式会社ｆａｂｒｉｃ　ｄｇ,,株式会社,愛知県,半田市,庚申町１丁目３１番地,,23,205,4750086,,,2025-10-27,清算の結了等,,,2017-12-08,1,,,,,,0
1038,4180002066365,登記記録の閉鎖等,0,2025-11-04,2025-10-28,ステップ有限会社,,有限会社,愛知県,春日井市,牛山町字中道６１６番地の１,,23,206,4860901,,,2025-10-28,清算の結了等,,,2015-10-05,1,,,,,ステップ,0
1042,4180301001023,登記記録の閉鎖等,0,2025-11-04,2025-10-31,株式会社サダコウ,,株式会社,愛知県,岡崎市,定国町字下川原１２番地,,23,202,4440216,,,2025-10-31,清算の結了等,,,2015-10-05,1,,,,,サダコウ,0
1058,4220001016721,登記記録の閉鎖等,0,2025-11-04,2025-10-27,株式会社ハウジングもりや,,株式会社,石川県,輪島市,門前町本市１５の６９番地,,17,204,9272171,,,2025-10-27,合併による解散等,5220001016729,令和７年６月１日石川県輪島市門前町本市５の１０番地株式会社森谷建材（5220001016729）に合併し解散,2015-10-05,1,,,,,ハウジングモリヤ,0
1062,4230002003172,登記記録の閉鎖等,0,2025-11-04,2025-10-29,有限会社北信冷熱メンテナンス,,有限会社,富山県,富山市,野口１３１２番地１,,16,201,9300173,,,2025-10-29,清算の結了等,,,2015-10-05,1,,,,,ホクシンレイネツメンテナンス,0
1070,4260002034578,登記記録の閉鎖等,0,2025-11-04,2025-10-27,有限会社シンコー特殊防水塗装,,有限会社,岡山県,真庭市,上市瀬５番地の１３,,33,214,7193141,,,2025-10-27,清算の結了等,,,2025-09-11,1,,,,,シンコートクシュボウスイトソウ,0
1080,4290005001861,登記記録の閉鎖等,0,2025-11-04,2025-10-03,医療法人藤見内科医院,,その他の設立登記法人,福岡県,福岡市南区,長丘１丁目１７番２２号,,40,134,8150075,,,2025-10-03,清算の結了等,,,2015-10-05,1,,,,,フジミナイカイイン,0
1084,4310001003917,登記記録の閉鎖等,0,2025-11-04,2025-10-30,株式会社ヒラモト広告制作所,,株式会社,長崎県,長崎市,桜馬場１丁目１番２５号,,42,201,8500015,,,2025-10-30,清算の結了等,,,2015-10-05,1,,,,,ヒラモトコウコクセイサクショ,0
1093,4350003002558,登記記録の閉鎖等,0,2025-11-04,2025-10-29,合同会社都コーポレーション,,合同会社,宮崎県,宮崎市,神宮１丁目２６２番地,,45,201,8800053,,,2025-10-29,清算の結了等,,,2015-10-05,1,,,,,ミヤココーポレーション,0
1099,4380002013784,登記記録の閉鎖等,0,2025-11-04,2025-10-23,有限会社はなまる,,有限会社,福島県,郡山市,富久山町八山田字牛ケ池１番地の７１,,07,203,9638051,,,2025-10-23,清算の結了等,,,2015-10-05,1,,,,,ハナマル,0
1106,4410002009127,登記記録の閉鎖等,0,2025-11-04,2025-10-30,有限会社エステート賢,,有限会社,秋田県,大館市,有浦３丁目１番２５号,,05,204,0170043,,,2025-10-30,清算の結了等,,,2015-10-05,1,,,,,エステートケン,0
1109,4430001024232,登記記録の閉鎖等,0,2025-11-04,2025-10-27,株式会社あさひ製作所,,株式会社,北海道,札幌市豊平区,旭町５丁目２番７号,,01,105,0620911,,,2025-10-27,清算の結了等,,,2015-10-05,1,,,,,アサヒセイサクショ,0
1110,4430001054717,登記記録の閉鎖等,0,2025-11-04,2025-10-24,日本共同サービス株式会社,,株式会社,北海道,千歳市,清流２丁目６番４号,,01,224,0660081,,,2025-10-24,合併による解散等,6430001001576,令和７年１０月１日札幌市中央区南八条西六丁目１０３６番地株式会社いちたかガスワン（6430001001576）に合併し解散,2015-10-05,1,,,,,ニホンキョウドウサービス,0
1114,4430002034255,登記記録の閉鎖等,0,2025-11-04,2025-10-27,有限会社丸小小林組,,有限会社,東京都,江戸川区,平井２丁目２５番９号,,13,123,1320035,,,2025-10-27,清算の結了等,,,2015-10-05,1,,,,,マルショウコバヤシグミ,0
1125,5010001030370,登記記録の閉鎖等,0,2025-11-04,2025-10-14,未来情報開発株式会社,,株式会社,東京都,千代田区,神田須田町１丁目１０番地,,13,101,1010041,,,2025-10-14,清算の結了等,,,2015-10-05,1,,,,,ミライジョウホウカイハツ,0
1143,5010401020327,登記記録の閉鎖等,0,2025-11-04,2025-10-20,東洋産業株式会社,,株式会社,神奈川県,川崎市宮前区,有馬６丁目１４番１２号,,14,136,2160003,,,2025-10-20,清算の結了等,,,2015-10-05,1,,,,,トウヨウサンギョウ,0
1147,5010401114483,登記記録の閉鎖等,0,2025-11-04,2025-10-01,株式会社パック・エックス,,株式会社,東京都,港区,東新橋２丁目４番１号,,13,103,1050021,,,2025-10-01,合併による解散等,9010401024175,令和７年１０月１日東京都港区東新橋二丁目４番１号株式会社パック・エックス（9010401024175）に合併し解散,2015-10-05,1,,,,,パックエックス,0
1155,5010403028293,登記記録の閉鎖等,0,2025-11-04,2025-10-03,ジャパンインフラ２４号合同会社,,合同会社,東京都,港区,元赤坂１丁目１番７号,,13,103,1070051,,,2025-10-03,清算の結了等,,,2022-08-17,1,,,,,ジャパンインフラニジュウヨンゴウ,0
1159,5010405020546,登記記録の閉鎖等,0,2025-11-04,2025-10-03,マーキュリーインフラホールディングス一般社団法人,,その他の設立登記法人,東京都,港区,元赤坂１丁目１番７号,,13,103,1070051,,,2025-10-03,清算の結了等,,,2022-01-04,1,,,,,マーキュリーインフラホールディングス,0
1174,5011001054797,登記記録の閉鎖等,0,2025-11-04,2025-10-06,株式会社インタービーツ,,株式会社,東京都,港区,西麻布１丁目１４番５号,,13,103,1060031,,,2025-10-06,清算の結了等,,,2015-10-05,1,,,,,インタービーツ,0
1181,5011002012382,登記記録の閉鎖等,0,2025-11-04,2025-10-02,有限会社日本鑢製作所,,有限会社,東京都,渋谷区,幡ヶ谷３丁目６９番２号,,13,113,1510072,,,2025-10-02,清算の結了等,,,2015-10-05,1,,,,,ニホンヤスリセイサクジョ,0
1199,5011402007362,登記記録の閉鎖等,0,2025-11-04,2025-10-03,有限会社ビー・クライム,,有限会社,東京都,板橋区,大山東町２６番１号,,13,119,1730014,,,2025-10-03,清算の結了等,,,2015-10-05,1,,,,,ビークライム,0
1203,5011801018778,登記記録の閉鎖等,0,2025-11-04,2025-10-29,株式会社すまいる本舗,,株式会社,東京都,足立区,千住橋戸町２２番地,,13,121,1200038,,,2025-10-29,清算の結了等,,,2015-10-05,1,,,,,スマイルホンポ,0
1208,5013402004570,登記記録の閉鎖等,0,2025-11-04,2025-10-30,有限会社トミー初夢,,有限会社,東京都,多摩市,東寺方１丁目８番地の３９,,13,224,2060003,,,2025-10-30,清算の結了等,,,2015-10-05,1,,,,,トミーハツユメ,0
1220,5020003017316,登記記録の閉鎖等,0,2025-11-04,2025-10-28,合同会社タイムファスト,,合同会社,神奈川県,横浜市神奈川区,白楽２６－１白楽荘２－１号室,,14,102,2210065,,,2025-10-28,合併による解散等,9122003001764,令和７年１０月３日大阪府東大阪市長栄寺２－１２ＴｓｕｎａｇａｒｕＢＬＤＧ５Ｆ合同会社キンキプロパティ（9122003001764）に合併し解散,2020-02-03,1,,,,,タイムファスト,0
1228,5021001069308,登記記録の閉鎖等,0,2025-11-04,2025-10-14,株式会社大雅,,株式会社,神奈川県,小田原市,浜町４丁目１番１２号湘南ビル３Ｆ,,14,206,2500004,,,2025-10-14,清算の結了等,,,2020-02-17,1,,,,,タイガ,0
1229,5021001079348,登記記録の閉鎖等,0,2025-11-04,2025-10-14,株式会社美彩,,株式会社,神奈川県,高座郡寒川町,宮山１２３２番地６,,14,321,2530106,,,2025-10-14,清算の結了等,,,2023-06-19,1,,,,,ビサイ,0
1231,5021003008123,登記記録の閉鎖等,0,2025-11-04,2025-10-14,合同会社池田興業,,合同会社,神奈川県,鎌倉市,小袋谷２丁目２２番２号ハッピネスＩＩ２０２,00115705,14,204,2470055,,,2025-10-14,清算の結了等,,,2019-02-06,1,,,,,,0
1236,5030001159290,登記記録の閉鎖等,0,2025-11-04,2025-10-24,株式会社蒼の月,,株式会社,埼玉県,さいたま市中央区,八王子３丁目１１番１４号,,11,105,3380006,,,2025-10-24,清算の結了等,,,2024-03-22,1,,,,,アオノツキ,0
1248,5050001021762,登記記録の閉鎖等,0,2025-11-04,2025-10-23,株式会社フジタ,,株式会社,茨城県,鹿嶋市,大字宮津台２３４２番地１,,08,222,3140006,,,2025-10-23,清算の結了等,,,2015-10-05,1,,,,,フジタ,0
1250,5050001055199,登記記録の閉鎖等,0,2025-11-04,2025-10-21,株式会社東誠,,株式会社,茨城県,守谷市,御所ケ丘２丁目１１－１７,,08,224,3020119,,,2025-10-21,清算の結了等,,,2024-08-05,1,,,,,トウセイ,0
1255,5070002003312,登記記録の閉鎖等,0,2025-11-04,2025-10-29,武内保温工事有限会社,,有限会社,群馬県,前橋市,上泉町１２８３番地の１,,10,201,3710007,,,2025-10-29,清算の結了等,,,2015-10-05,1,,,,,タケウチホオンコウジ,0
1276,5120002005195,登記記録の閉鎖等,0,2025-11-04,2025-10-23,有限会社ウサギヤ・アンド・サンズ,,有限会社,大阪府,大阪市阿倍野区,阿倍野筋３丁目５番１７－１１０４号,,27,119,5450052,,,2025-10-23,清算の結了等,,,2015-10-05,1,,,,,ウサギヤアンドサンズ,0
1285,5120901048360,登記記録の閉鎖等,0,2025-11-04,2025-10-16,株式会社Ａｌｃｅｄｏ,,株式会社,大阪府,高槻市,上田辺町６番２３－２０３号,,27,207,5690805,,,2025-10-16,清算の結了等,,,2023-11-16,1,,,,,アルケド,0
1288,5130001042858,登記記録の閉鎖等,0,2025-11-04,2025-10-30,株式会社奥井工務店,,株式会社,京都府,京丹後市,網野町網野２７１１番地の２,,26,212,6293101,,,2025-10-30,清算の結了等,,,2015-10-05,1,,,,,オクイコウムテン,0
1304,5170001006628,登記記録の閉鎖等,0,2025-11-04,2025-10-31,株式会社ＡＲＵ,,株式会社,和歌山県,和歌山市,新中島６７ー１１,,30,201,6410002,,,2025-10-31,清算の結了等,,,2015-10-05,1,,,,,エーアールユー,0
1310,5180001087832,登記記録の閉鎖等,0,2025-11-04,2025-10-27,株式会社渡部,,株式会社,愛知県,岩倉市,下本町燈明庵１６２番地の２,,23,228,4820005,,,2025-10-27,清算の結了等,,,2015-10-05,1,,,,,ワタベ,0
1341,5240001051204,登記記録の閉鎖等,0,2025-11-04,2025-10-29,株式会社ミュークプロデュース,,株式会社,広島県,広島市南区,京橋町１番７号アスティ広島京橋ビルディング１階,,34,103,7320828,,,2025-10-29,清算の結了等,,,2017-06-06,1,,,,,ミュークプロデュース,0
1346,5250005000759,登記記録の閉鎖等,0,2025-11-04,2025-10-27,協同組合阿東ショッピングセンター,,その他の設立登記法人,山口県,山口市,阿東徳佐中３０６１番地１,,35,203,7591512,,,2025-10-27,清算の結了等,,,2015-10-05,1,,,,,アトウショッピングセンター,0
1348,5260002030510,登記記録の閉鎖等,0,2025-11-04,2025-10-28,真光サービス有限会社,,有限会社,岡山県,美作市,眞加部８４番地３,,33,215,7070000,,,2025-10-28,清算の結了等,,,2015-10-05,1,,,,,シンコウサービス,0
1381,5340002026698,登記記録の閉鎖等,0,2025-11-04,2025-10-27,有限会社友紀丸水産,,有限会社,鹿児島県,鹿屋市,古江町５８５番地８,,46,203,8912321,,,2025-10-27,清算の結了等,,,2015-10-05,1,,,,,ユキマルスイサン,0
1402,5460402000209,登記記録の閉鎖等,0,2025-11-04,2025-10-31,有限会社高橋測量事務所,00091413,有限会社,北海道,根室市,西浜町３丁目８２番地,,01,223,0870025,,,2025-10-31,清算の結了等,,,2015-10-05,1,,,,,タカハシソクリョウジムショ,0
1421,6010003026738,登記記録の閉鎖等,0,2025-11-04,2025-10-20,合同会社ＭＨＰ,,合同会社,東京都,中央区,新川２丁目１１番１－９０５号,,13,102,1040033,,,2025-10-20,清算の結了等,,,2018-01-12,1,,,,,,0
1428,6010401107528,登記記録の閉鎖等,0,2025-11-04,2025-10-03,健康増進事業株式会社,,株式会社,東京都,港区,赤坂８丁目６番９－４１７号,,13,103,1070052,,,2025-10-03,清算の結了等,,,2015-10-05,1,,,,,ケンコウゾウシンジギョウ,0
1434,6010405021295,登記記録の閉鎖等,0,2025-11-04,2025-10-03,ジャパンインフラホールディングス２４号一般社団法人,,その他の設立登記法人,東京都,港区,元赤坂１丁目１番７号,,13,103,1070051,,,2025-10-03,清算の結了等,,,2022-08-17,1,,,,,ジャパンインフラホールディングスニジュウヨンゴウ,0
1435,6010501003429,登記記録の閉鎖等,0,2025-11-04,2025-10-22,株式会社北村商店,,株式会社,東京都,台東区,寿２丁目９番９号,,13,106,1110042,,,2025-10-22,清算の結了等,,,2015-10-05,1,,,,,キタムラショウテン,0
1445,6010602013293,登記記録の閉鎖等,0,2025-11-04,2025-10-22,有限会社新村製作所,,有限会社,東京都,墨田区,東向島６丁目１６番５号,,13,107,1310032,,,2025-10-22,清算の結了等,,,2015-10-05,1,,,,,,0
1476,6011105010943,登記記録の閉鎖等,0,2025-11-04,2025-10-01,浦安ホールディングス一般社団法人,,その他の設立登記法人,東京都,新宿区,四谷２丁目９番地１５東京ユナイテッド綜合事務所内,,13,104,1600004,,,2025-10-01,清算の結了等,,,2024-02-19,1,,,,,ウラヤスホールディングス,0
1498,6020001070010,登記記録の閉鎖等,0,2025-11-04,2025-10-20,株式会社パンオーシャン,,株式会社,神奈川県,川崎市中原区,木月１丁目３５番１号,,14,133,2110025,,,2025-10-20,清算の結了等,,,2015-10-05,1,,,,,パンオーシャン,0
1510,6021001014618,登記記録の閉鎖等,0,2025-11-04,2025-10-15,株式会社ジョブリアース,,株式会社,神奈川県,相模原市緑区,長竹３００８番地１,,14,151,2520154,,,2025-10-15,清算の結了等,,,2015-10-05,1,,,,,ジョブリアース,0
1512,6021001077037,登記記録の閉鎖等,0,2025-11-04,2025-10-14,株式会社メディケアフォレスト,,株式会社,神奈川県,伊勢原市,伊勢原１丁目１８－５細野ビル２Ｆ,,14,214,2591131,,,2025-10-14,清算の結了等,,,2022-09-21,1,,,,,メディケアフォレスト,0
1516,6021002027172,登記記録の閉鎖等,0,2025-11-04,2025-10-20,有限会社ブレア・アンド・カンパニー,,有限会社,神奈川県,相模原市中央区,鹿沼台１丁目８番１７号グランドメゾン淵野辺２０６,,14,152,2520233,,,2025-10-20,清算の結了等,,,2015-10-05,1,,,,,ブレアアンドカンパニー,0
1522,6030001149183,登記記録の閉鎖等,0,2025-11-04,2025-10-24,株式会社トゥーコムスト,,株式会社,埼玉県,越谷市,大字西方２９７５－１－８３７,,11,222,3430822,,,2025-10-24,清算の結了等,,,2022-07-13,1,,,,,トゥーコムスト,0
1526,6030002025879,登記記録の閉鎖等,0,2025-11-04,2025-10-24,有限会社ササキデンキ,,有限会社,埼玉県,戸田市,喜沢１丁目１３番地の２０,,11,224,3350013,,,2025-10-24,清算の結了等,,,2015-10-05,1,,,,,ササキデンキ,0
1529,6030003018015,登記記録の閉鎖等,0,2025-11-04,2025-10-30,合同会社Ｄａｎ＆Ｆａｍｉｌｙ　Ｗｏｒｋｓ,,合同会社,埼玉県,和光市,新倉２丁目７番５７号,,11,229,3510115,,,2025-10-30,清算の結了等,,,2021-09-29,1,,,,,ダンアンドファミリーワークス,0
1531,6030005014409,登記記録の閉鎖等,0,2025-11-04,2025-10-23,特定非営利活動法人年金を考えるグローバルサポートセンター,,その他の設立登記法人,埼玉県,熊谷市,弥生２丁目３８番地１,,11,202,3600044,,,2025-10-23,清算の結了等,,,2015-10-05,1,,,,,ネンキンヲカンガエルグローバルサポートセンター,0
1535,6030005019374,登記記録の閉鎖等,0,2025-11-04,2025-10-24,特定非営利活動法人縁・ＹＵＫＡＲＩ,,その他の設立登記法人,埼玉県,戸田市,上戸田３丁目２３番１４号ニューハウス梅田１０１号,,11,224,3350022,,,2025-10-24,清算の結了等,,,2019-03-22,1,,,,,エンユカリ,0
1540,6040001071072,登記記録の閉鎖等,0,2025-11-04,2025-10-03,イング株式会社,,株式会社,千葉県,野田市,清水４０８番地,,12,208,2780043,,,2025-10-03,清算の結了等,,,2015-10-05,1,,,,,イング,0
1546,6040002059067,登記記録の閉鎖等,0,2025-11-04,2025-10-03,有限会社福嶌,,有限会社,千葉県,成田市,加良部１丁目１６番地,,12,211,2860036,,,2025-10-03,清算の結了等,,,2015-10-05,1,,,,,フクシマ,0
1556,6050005011866,登記記録の閉鎖等,0,2025-11-04,2025-10-23,ＮＰＯ法人みらいの会,,その他の設立登記法人,茨城県,つくば市,天久保２丁目６番地４ハイツ平砂２０４号,,08,220,3050005,,,2025-10-23,清算の結了等,,,2016-04-15,1,,,,,ミライノカイ,0
1558,6060001031859,登記記録の閉鎖等,0,2025-11-04,2025-10-30,株式会社加藤精機,,株式会社,栃木県,下都賀郡野木町,大字野渡１３６５番地１,,09,364,3290115,,,2025-10-30,清算の結了等,,,2019-08-27,1,,,,,カトウセイキ,0
1559,6070001031065,登記記録の閉鎖等,0,2025-11-04,2025-10-29,株式会社オールウィン,,株式会社,群馬県,邑楽郡千代田町,大字上中森１０５０番地,,10,523,3700725,,,2025-10-29,清算の結了等,,,2015-10-05,1,,,,,オールウィン,0
1561,6080101019595,登記記録の閉鎖等,0,2025-11-04,2025-10-30,株式会社吉田工業,00109142,株式会社,静岡県,三島市,谷田４５６番地,,22,206,4110801,,,2025-10-30,清算の結了等,,,2017-02-03,1,,,,,,0
1564,6110005016306,登記記録の閉鎖等,0,2025-11-04,2025-10-24,一般財団法人良寛会,,その他の設立登記法人,新潟県,新潟市西区,真砂２丁目２０番１４号,,15,107,9502074,,,2025-10-24,清算の結了等,,,2018-10-12,1,,,,,リョウカンカイ,0
1578,6120002042502,登記記録の閉鎖等,0,2025-11-04,2025-10-30,マユミインベストメント有限会社,,有限会社,大阪府,大阪市中央区,備後町１丁目５番１５号ケイビービルディング,,27,128,5410051,,,2025-10-30,清算の結了等,,,2015-10-05,1,,,,,マユミインベストメント,0
1596,6130002022081,登記記録の閉鎖等,0,2025-11-04,2025-10-30,有限会社ヤナセ製作所,,有限会社,京都府,京都市伏見区,横大路西海道６番地の７,,26,109,6128261,,,2025-10-30,清算の結了等,,,2015-10-05,1,,,,,ヤナセセイサクショ,0
1613,6180002007202,登記記録の閉鎖等,0,2025-11-04,2025-10-27,有限会社港キリン,,有限会社,愛知県,名古屋市港区,浜２丁目２番８号,,23,111,4550036,,,2025-10-27,清算の結了等,,,2015-10-05,1,,,,,ミナトキリン,0
1617,6180002094091,登記記録の閉鎖等,0,2025-11-04,2025-10-24,有限会社桜井商店,,有限会社,愛知県,江南市,慈光堂町北２１４番,,23,217,4838401,,,2025-10-24,清算の結了等,,,2025-09-12,1,,,,,サクライショウテン,0
1618,6180003025748,登記記録の閉鎖等,0,2025-11-04,2025-10-21,合同会社ＡＣＭ,,合同会社,愛知県,名古屋市守山区,桜坂５丁目６２６番地,,23,113,4630018,,,2025-10-21,清算の結了等,,,2023-09-19,1,,,,,エーシーエム,0
1625,6190001023777,登記記録の閉鎖等,0,2025-11-04,2025-10-28,ＵＩコミュニケーション株式会社,,株式会社,三重県,津市,末広町１０番８号,,24,201,5140012,,,2025-10-28,清算の結了等,,,2016-06-23,1,,,,,ユーアイコミュニケーション,0
1627,6200001041678,登記記録の閉鎖等,0,2025-11-04,2025-10-29,株式会社東海ベルテックス,,株式会社,岐阜県,大垣市,中曽根町６８４番地１,,21,202,5030986,,,2025-10-29,清算の結了等,,,2023-09-04,1,,,,,トウカイベルテックス,0
1629,6200003006893,登記記録の閉鎖等,0,2025-11-04,2025-10-29,合同会社シティ,,合同会社,岐阜県,可児市,徳野南２丁目８５番地,,21,214,5090205,,,2025-10-29,清算の結了等,,,2025-06-24,1,,,,,シティ,0
1630,6210001004709,登記記録の閉鎖等,0,2025-11-04,2025-10-30,ジューシィテック株式会社,,株式会社,福井県,福井市,佐野町第１２号７６番地,,18,201,9103121,,,2025-10-30,清算の結了等,,,2015-10-05,1,,,,,ジューシィテック,0
1641,6270001000099,登記記録の閉鎖等,0,2025-11-04,2025-10-31,株式会社エイチシーケイ,,株式会社,鳥取県,鳥取市,南町４３０番地,,31,201,6800814,,,2025-10-31,清算の結了等,,,2015-10-05,1,,,,,エイチシーケイ,0
1666,6320005002499,登記記録の閉鎖等,0,2025-11-04,2025-10-27,特定非営利活動法人市民後見ささえあい,,その他の設立登記法人,大分県,豊後大野市,犬飼町下津尾３７８９番地,,44,212,8797306,,,2025-10-27,清算の結了等,,,2015-10-05,1,,,,,シミンコウケンササエアイ,0
1673,6380001012001,登記記録の閉鎖等,0,2025-11-04,2025-10-24,株式会社ＧＡＪＡ,,株式会社,福島県,須賀川市,向陽町５３７番地,,07,207,9620401,,,2025-10-24,清算の結了等,,,2015-10-05,1,,,,,,0
1677,6380002005136,登記記録の閉鎖等,0,2025-11-04,2025-10-22,有限会社八島測量設計,,有限会社,福島県,伊達市,宮前５番地の７,,07,213,9600413,,,2025-10-22,清算の結了等,,,2015-10-05,1,,,,,ヤシマソクリョウセッケイ,0
1690,6430003013264,登記記録の閉鎖等,0,2025-11-04,2025-10-29,札幌国際通商合同会社,,合同会社,北海道,札幌市中央区,南六条西９丁目１０１９番地１２札幌第一パークハイツ８０７号,,01,101,0640806,,,2025-10-29,清算の結了等,,,2021-10-19,1,,,,,サッポロコクサイツウショウ,0
1704,7010001024305,登記記録の閉鎖等,0,2025-11-04,2025-10-20,株式会社東都設計,,株式会社,東京都,千代田区,飯田橋１丁目９番６号,,13,101,1020072,,,2025-10-20,清算の結了等,,,2015-10-05,1,,,,,トウトセッケイ,0
1705,7010001032225,登記記録の閉鎖等,0,2025-11-04,2025-10-07,株式会社燎原,,株式会社,東京都,千代田区,神田神保町３丁目２番９号,,13,101,1010051,,,2025-10-07,清算の結了等,,,2015-10-05,1,,,,,リョウゲン,0
1707,7010001059722,登記記録の閉鎖等,0,2025-11-04,2025-10-20,株式会社ユージー・メディアーク,,株式会社,東京都,中央区,銀座６丁目１３番７号,,13,102,1040061,,,2025-10-20,清算の結了等,,,2015-10-05,1,,,,,ユージーメディアーク,0
1711,7010001180263,登記記録の閉鎖等,0,2025-11-04,2025-10-03,アイコン株式会社,,株式会社,東京都,港区,新橋４丁目３０番６号京急中はらビル５階,,13,103,1050004,,,2025-10-03,清算の結了等,,,2016-12-16,1,,,,,アイコン,0
1712,7010001194164,登記記録の閉鎖等,0,2025-11-04,2025-10-20,株式会社魚がし山はら,,株式会社,東京都,中央区,築地６丁目２１番２号,,13,102,1040045,,,2025-10-20,清算の結了等,,,2018-08-15,1,,,,,ウオガシヤマハラ,0
1713,7010001249422,登記記録の閉鎖等,0,2025-11-04,2025-10-22,株式会社朝日出版社ＨＤ,,株式会社,東京都,千代田区,西神田３丁目３番５号,,13,101,1010065,,,2025-10-22,清算の結了等,,,2024-10-29,1,,,,,アサヒシュッパンシャホールディングス,0
1719,7010003043253,登記記録の閉鎖等,0,2025-11-04,2025-10-17,合同会社ＡＳＴＲＯ　ＴＩＰＳ,,合同会社,東京都,中央区,築地３丁目７番１号ＴＳＵＫＩＪＩＧＲＡＮＤＥ２Ｆ,,13,102,1040045,,,2025-10-17,清算の結了等,,,2024-03-26,1,,,,,アストロチップス,0
1726,7010401089996,登記記録の閉鎖等,0,2025-11-04,2025-10-03,衣浦工業ガス株式会社,,株式会社,東京都,港区,芝浦３丁目４番１号グランパークタワー,,13,103,1080023,,,2025-10-03,合併による解散等,1010401089977,令和７年１０月１日東京都港区芝浦三丁目４番１号グランパークタワー日本エア・リキード合同会社（1010401089977）に合併し解散,2015-10-05,1,,,,,キヌウラコウギョウガス,0
1729,7010401135882,登記記録の閉鎖等,0,2025-11-04,2025-10-06,株式会社ＫＯＰ,,株式会社,東京都,港区,南青山２丁目２番１５号ウィン青山１３０２,,13,103,1070062,,,2025-10-06,清算の結了等,,,2018-01-11,1,,,,,,0
1731,7010401145155,登記記録の閉鎖等,0,2025-11-04,2025-10-06,株式会社スタジオ・ディーノ,,株式会社,東京都,港区,南青山２丁目２番１５号,,13,103,1070062,,,2025-10-06,清算の結了等,,,2019-04-25,1,,,,,スタジオディーノ,0
1735,7010403026799,登記記録の閉鎖等,0,2025-11-04,2025-10-03,マーキュリーインフラファンド合同会社,,合同会社,東京都,港区,元赤坂１丁目１番７号,,13,103,1070051,,,2025-10-03,清算の結了等,,,2022-01-04,1,,,,,マーキュリーインフラファンド,0
1736,7010405018794,登記記録の閉鎖等,0,2025-11-04,2025-10-31,ＧＬＰ小郡ロジスティック特定目的会社,,その他の設立登記法人,東京都,中央区,八重洲２丁目２番１号,,13,102,1040028,,,2025-10-31,清算の結了等,,,2020-06-03,1,,,,,ジーエルピーオゴオリロジスティック,0
1737,7010405019157,登記記録の閉鎖等,0,2025-11-04,2025-10-31,狭山日高３ロジスティック特定目的会社,,その他の設立登記法人,東京都,中央区,八重洲２丁目２番１号,,13,102,1040028,,,2025-10-31,清算の結了等,,,2020-10-05,1,,,,,サヤマヒダカスリーロジスティック,0
1738,7010405019280,登記記録の閉鎖等,0,2025-11-04,2025-10-31,広島２ロジスティック特定目的会社,,その他の設立登記法人,東京都,中央区,八重洲２丁目２番１号,,13,102,1040028,,,2025-10-31,清算の結了等,,,2020-11-25,1,,,,,ヒロシマツーロジスティック,0
1745,7010501033111,登記記録の閉鎖等,0,2025-11-04,2025-10-23,株式会社エイムス,,株式会社,東京都,台東区,浅草橋５丁目３番１号,,13,106,1110053,,,2025-10-23,清算の結了等,,,2015-10-05,1,,,,,エイムス,0
1749,7010701044296,登記記録の閉鎖等,0,2025-11-04,2025-10-31,ウィーメックスヘルスケアシステムズ株式会社,,株式会社,東京都,品川区,上大崎２丁目１３番３０号,,13,109,1410021,,,2025-10-31,合併による解散等,5011001151479,令和７年１０月１日東京都渋谷区渋谷三丁目２５番１８号ウィーメックス株式会社（5011001151479）に合併し解散,2023-05-25,1,,,,,ウィーメックスヘルスケアシステムズ,0
1753,7011001169437,登記記録の閉鎖等,0,2025-11-04,2025-10-03,極ＡＩ株式会社,,株式会社,東京都,渋谷区,道玄坂１丁目１６－６,,13,113,1500043,,,2025-10-03,清算の結了等,,,2025-05-20,1,,,,,キワミエーアイ,0
1763,7011103013740,登記記録の閉鎖等,0,2025-11-04,2025-09-29,合同会社ミヤケ商事,,合同会社,東京都,新宿区,北新宿１丁目２７番１５号Ａｒｔｅ柏木２０２,,13,104,1690074,,,2025-09-29,清算の結了等,,,2023-11-16,1,,,,,ミヤケショウジ,0
1770,7012401023596,登記記録の閉鎖等,0,2025-11-04,2025-10-23,山岸株式会社,,株式会社,東京都,国分寺市,西町１丁目３０番地２６,,13,214,1850035,,,2025-10-23,清算の結了等,,,2015-10-05,1,,,,,ヤマギシ,0
1785,7020003017388,登記記録の閉鎖等,0,2025-11-04,2025-10-23,合同会社鹿島,,合同会社,神奈川県,横浜市泉区,中田南３丁目７番２号スカイコート１階,,14,116,2450014,,,2025-10-23,清算の結了等,,,2020-02-14,1,,,,,カシマ,0
1793,7021003002719,登記記録の閉鎖等,0,2025-11-04,2025-10-20,合同会社シュワルツ,,合同会社,神奈川県,平塚市,松風町１２番１５－３０８号ＥＬＳＡ湘南松風,,14,203,2540812,,,2025-10-20,清算の結了等,,,2015-10-05,1,,,,,シュワルツ,0
1806,7040001060082,登記記録の閉鎖等,0,2025-11-04,2025-10-07,ユウメイ・アドックス株式会社,,株式会社,千葉県,長生郡睦沢町,川島１４番地の２２,,12,422,2994402,,,2025-10-07,清算の結了等,,,2015-10-05,1,,,,,,0
1807,7040001070362,登記記録の閉鎖等,0,2025-11-04,2025-10-07,株式会社ナチュレチリ,,株式会社,千葉県,我孫子市,中里２２７番地３,,12,222,2701122,,,2025-10-07,清算の結了等,,,2015-10-05,1,,,,,ナチュレチリ,0
1813,7040002089344,登記記録の閉鎖等,0,2025-11-04,2025-10-01,有限会社勝山,,有限会社,千葉県,柏市,十余二１５５番地,,12,217,2770872,,,2025-10-01,清算の結了等,,,2015-10-05,1,,,,,カツヤマ,0
1814,7040002100060,登記記録の閉鎖等,0,2025-11-04,2025-10-01,有限会社本間ガーデン,,有限会社,千葉県,南房総市,富浦町宮本４５２番地,,12,234,2992413,,,2025-10-01,清算の結了等,,,2015-10-05,1,,,,,ホンマガーデン,0
1827,7080101004225,登記記録の閉鎖等,0,2025-11-04,2025-10-30,株式会社平川金太郎商店,,株式会社,静岡県,御殿場市,御殿場３４番地,,22,215,4120028,,,2025-10-30,清算の結了等,,,2015-10-05,1,,,,,ヒラカワキンタロウショウテン,0
1849,7120001224216,登記記録の閉鎖等,0,2025-11-04,2025-10-30,株式会社旅行綜研西日本,,株式会社,大阪府,大阪市中央区,瓦町４丁目５番９号,,27,128,5410048,,,2025-10-30,合併による解散等,9010401031683,令和７年１０月１日東京都港区虎ノ門一丁目１３番３号株式会社旅行綜研（9010401031683）に合併し解散,2019-10-07,1,,,,,リョコウソウケンニシニホン,0
1866,7130002000607,登記記録の閉鎖等,0,2025-11-04,2025-10-24,有限会社高翔建設,,有限会社,京都府,京都市右京区,太秦野元町４番地の８,,26,108,6168113,,,2025-10-24,清算の結了等,,,2016-02-15,1,,,,,,0
1867,7140001024283,登記記録の閉鎖等,0,2025-11-04,2025-10-27,株式会社メディカルフーズはぁもにぃ,,株式会社,兵庫県,神戸市中央区,港島南町５丁目３番地の７,,28,110,6500047,,,2025-10-27,清算の結了等,,,2015-10-05,1,,,,,メディカルフーズハァモニィ,0
1872,7140002010175,登記記録の閉鎖等,0,2025-11-04,2025-10-29,有限会社タナベゴルフ企画,,有限会社,兵庫県,神戸市北区,泉台５丁目１９番地の３１,,28,109,6511141,,,2025-10-29,清算の結了等,,,2015-10-05,1,,,,,タナベゴルフキカク,0
1874,7140002049271,登記記録の閉鎖等,0,2025-11-04,2025-10-28,有限会社綜合経営,,有限会社,兵庫県,姫路市,田寺東３丁目９番１６号,,28,201,6700081,,,2025-10-28,清算の結了等,,,2015-10-05,1,,,,,ソウゴウケイエイ,0
1908,7180301032420,登記記録の閉鎖等,0,2025-11-04,2025-10-31,株式会社蹄,,株式会社,愛知県,岡崎市,緑丘１丁目４番地１,,23,202,4440806,,,2025-10-31,清算の結了等,,,2019-04-02,1,,,,,ヒヅメ,0
1909,7180302028244,登記記録の閉鎖等,0,2025-11-04,2025-10-27,有限会社けとるパッケージ,,有限会社,愛知県,岡崎市,本宿町字下トコサフ１番６８,,23,202,4443505,,,2025-10-27,清算の結了等,,,2015-10-05,1,,,,,ケトルパッケージ,0
1927,7260001006591,登記記録の閉鎖等,0,2025-11-04,2025-10-28,株式会社ＭＦ,,株式会社,岡山県,岡山市南区,藤田１０２９番地３,,33,104,7010221,,,2025-10-28,清算の結了等,,,2015-10-05,1,,,,,エムエフ,0
1931,7260002031151,登記記録の閉鎖等,0,2025-11-04,2025-10-28,有限会社堀本工務店,,有限会社,岡山県,和気郡和気町,塩田７３４番地,,33,346,7090506,,,2025-10-28,清算の結了等,,,2015-10-05,1,,,,,ホリモトコウムテン,0
1951,7340002012779,登記記録の閉鎖等,0,2025-11-04,2025-10-23,有限会社藤盛電子,,有限会社,鹿児島県,鹿児島市,宇宿１丁目１９番８号小村ビル１階,,46,201,8900073,,,2025-10-23,清算の結了等,,,2015-10-05,1,,,,,フジモリデンシ,0
1959,7380001019425,登記記録の閉鎖等,0,2025-11-04,2025-10-23,株式会社常磐企画,,株式会社,福島県,いわき市,平谷川瀬１丁目１０番地の２,,07,204,9708036,,,2025-10-23,清算の結了等,,,2015-10-05,1,,,,,ジョウバンキカク,0
1960,7380002011298,登記記録の閉鎖等,0,2025-11-04,2025-10-24,有限会社西川産業,,有限会社,福島県,郡山市,駅前２丁目１４番５号,,07,203,9638002,,,2025-10-24,清算の結了等,,,2015-10-05,1,,,,,,0
1963,7390001001349,登記記録の閉鎖等,0,2025-11-04,2025-10-30,株式会社富田造園デザイン,,株式会社,山形県,山形市,大字岩波２９０番１,,06,201,9902403,,,2025-10-30,清算の結了等,,,2015-10-05,1,,,,,トミタゾウエン,0
1966,7410001004209,登記記録の閉鎖等,0,2025-11-04,2025-10-31,株式会社トレジャードリーム,,株式会社,秋田県,秋田市,旭南３丁目１番３２号,,05,201,0100925,,,2025-10-31,清算の結了等,,,2015-10-05,1,,,,,トレジャードリーム,0
1969,7420002019527,登記記録の閉鎖等,0,2025-11-04,2025-10-29,有限会社エムシステムサービス,,有限会社,青森県,むつ市,大字田名部字斗南岡３２番地９７,,02,208,0350021,,,2025-10-29,清算の結了等,,,2015-10-05,1,,,,,エムシステムサービス,0
1975,7430001079579,登記記録の閉鎖等,0,2025-11-04,2025-10-29,株式会社フォーサ,,株式会社,北海道,札幌市白石区,南郷通１２丁目南６番２０号,,01,104,0030022,,,2025-10-29,合併による解散等,4010001213843,令和７年１０月１日東京都文京区本駒込二丁目２８番８号ジオテクノロジーズ株式会社（4010001213843）に合併し解散,2019-08-07,1,,,,,フォーサ,0
1994,8010001225793,登記記録の閉鎖等,0,2025-11-04,2025-10-20,株式会社愛＆美,,株式会社,東京都,中央区,銀座５丁目１０－６御幸ビル３階,,13,102,1040061,,,2025-10-20,清算の結了等,,,2022-04-19,1,,,,,アイアンドビー,0
2014,8010401021504,登記記録の閉鎖等,0,2025-11-04,2025-10-06,株式会社Ｎｉｃｈｉｅｉ,,株式会社,東京都,港区,新橋４丁目２５番６号,,13,103,1050004,,,2025-10-06,清算の結了等,,,2015-10-05,1,,,,,ニチエイ,0
2027,8010502008235,登記記録の閉鎖等,0,2025-11-04,2025-10-21,有限会社中島製作所,,有限会社,東京都,台東区,駒形２丁目１番２８号,,13,106,1110043,,,2025-10-21,清算の結了等,,,2015-10-05,1,,,,,ナカジマセイサクショ,0
2033,8011001031042,登記記録の閉鎖等,0,2025-11-04,2025-10-03,株式会社ケイズ空,,株式会社,東京都,港区,六本木２丁目３番７号,,13,103,1060032,,,2025-10-03,清算の結了等,,,2015-10-05,1,,,,,ケイズクウ,0
2044,8011101105035,登記記録の閉鎖等,0,2025-11-04,2025-09-29,日新商事株式会社,,株式会社,東京都,新宿区,市谷田町３丁目８市ヶ谷科学技術イノベーションセンタービル５階,,13,104,1620843,,,2025-09-29,清算の結了等,,,2023-11-06,1,,,,,ニッシンショウジ,0
2056,8011703003231,登記記録の閉鎖等,0,2025-11-04,2025-10-24,合同会社Ｍ‐ライフ・コンサルティング,,合同会社,東京都,江戸川区,北小岩６丁目１３番４号コスモビル３階,,13,123,1330051,,,2025-10-24,清算の結了等,,,2022-08-17,1,,,,,エムライフコンサルティング,0
2062,8013201016871,登記記録の閉鎖等,0,2025-11-04,2025-10-30,株式会社Ｐａｙｓａｎｎｅ,,株式会社,東京都,目黒区,目黒４丁目２０番５号,,13,110,1530063,,,2025-10-30,合併による解散等,7010401144867,令和７年１０月１日東京都港区白金６－２１－４－４０３株式会社Ｃｏｎｓｔｒｕｃｔ（7010401144867）に合併し解散,2015-10-05,1,,,,,,0
2066,8020001074018,登記記録の閉鎖等,0,2025-11-04,2025-10-23,日通川崎運輸株式会社,,株式会社,神奈川県,川崎市高津区,下野毛２丁目１４番１号,,14,134,2130006,,,2025-10-23,清算の結了等,,,2015-10-05,1,,,,,ニッツウカワサキウンユ,0
2076,8020002047484,登記記録の閉鎖等,0,2025-11-04,2025-10-20,有限会社横浜オオワダ,,有限会社,神奈川県,茅ヶ崎市,柳島１丁目２番３３号,,14,207,2530064,,,2025-10-20,清算の結了等,,,2015-10-05,1,,,,,ヨコハマオオワダ,0
2082,8030001004790,登記記録の閉鎖等,0,2025-11-04,2025-10-24,株式会社総合技研,,株式会社,埼玉県,さいたま市見沼区,大和田町２丁目１０７４番地,,11,104,3370053,,,2025-10-24,清算の結了等,,,2015-10-05,1,,,,,ソウゴウギケン,0
2090,8030002024887,登記記録の閉鎖等,0,2025-11-04,2025-10-27,有限会社中島工務店,,有限会社,埼玉県,戸田市,笹目４丁目３番地の７,,11,224,3350034,,,2025-10-27,清算の結了等,,,2015-10-05,1,,,,,ナカジマコウムテン,0
2095,8040001004187,登記記録の閉鎖等,0,2025-11-04,2025-10-01,株式会社大洋モータース,,株式会社,千葉県,千葉市中央区,神明町３番地１２,,12,101,2600022,,,2025-10-01,清算の結了等,,,2015-10-05,1,,,,,タイヨウモータース,0
2097,8040001074809,登記記録の閉鎖等,0,2025-11-04,2025-09-11,株式会社南房総オープンロケセットスタジオ,,株式会社,千葉県,館山市,洲崎９０８番地の２２,,12,205,2940316,,,2025-09-11,清算の結了等,,,2015-10-05,1,,,,,ミナミボウソウオープンロケセットスタジオ,0
2107,8040002046856,登記記録の閉鎖等,0,2025-11-04,2025-10-02,有限会社タイガ,,有限会社,千葉県,松戸市,松戸新田２４番地京葉流通センター５棟２１号,,12,207,2702241,,,2025-10-02,清算の結了等,,,2015-10-05,1,,,,,タイガ,0
2108,8040002049974,登記記録の閉鎖等,0,2025-11-04,2025-10-07,有限会社トータルプロバイダー,,有限会社,千葉県,松戸市,新松戸南１丁目３２６番地,,12,207,2700035,,,2025-10-07,清算の結了等,,,2015-10-05,1,,,,,トータルプロバイダー,0
2110,8040002086316,登記記録の閉鎖等,0,2025-11-04,2025-09-25,有限会社アゼガミ,,有限会社,千葉県,山武郡横芝光町,遠山２４３番地の５,,12,410,2891757,,,2025-09-25,清算の結了等,,,2015-10-05,1,,,,,アゼガミ,0
2116,8060001002024,登記記録の閉鎖等,0,2025-11-04,2025-10-31,佐野音産業株式会社,,株式会社,栃木県,宇都宮市,今泉４丁目７番１３号,,09,201,3210966,,,2025-10-31,清算の結了等,,,2015-10-05,1,,,,,サノオトサンギョウ,0
2123,8060003004646,登記記録の閉鎖等,0,2025-11-04,2025-10-30,合同会社よろずや福ちゃん,,合同会社,栃木県,宇都宮市,下荒針町３４５３番地５,,09,201,3210346,,,2025-10-30,清算の結了等,,,2023-07-11,1,,,,,ヨロズヤフクチャン,0
2126,8080101017325,登記記録の閉鎖等,0,2025-11-04,2025-10-30,株式会社ｅｎ,,株式会社,静岡県,裾野市,須山字藤原２２５５番５０９０,,22,220,4101231,,,2025-10-30,清算の結了等,,,2015-10-05,1,,,,,エン,0
2138,8120001276867,登記記録の閉鎖等,0,2025-11-04,2025-10-22,丸中本店株式会社,,株式会社,大阪府,寝屋川市,大字太秦９４９番地の１,,27,215,5720807,,,2025-10-22,清算の結了等,,,2025-06-17,1,,,,,マルナカホンテン,0
2158,8170001014826,登記記録の閉鎖等,0,2025-11-04,2025-10-31,株式会社ＲＵＮＯＲＴ,,株式会社,和歌山県,和歌山市,久保丁１丁目５番地,,30,201,6408225,,,2025-10-31,清算の結了等,,,2017-07-05,1,,,,,ルノート,0
2165,8180005006752,登記記録の閉鎖等,0,2025-11-04,2025-10-31,特定非営利活動法人病診連携フォーラム・東海,,その他の設立登記法人,愛知県,名古屋市西区,康生通２丁目２６番地,,23,104,4510075,,,2025-10-31,清算の結了等,,,2015-10-05,1,,,,,ビョウシンレンケイフォーラムトウカイ,0
2178,8250005007256,登記記録の閉鎖等,0,2025-11-04,2025-10-28,農事組合法人やまぐち自然薯生産組合,00003020,その他の設立登記法人,山口県,柳井市,柳井４３７５番地５,,35,212,7420021,,,2025-10-28,清算の結了等,,,2015-10-05,1,,,,,ヤマグチジネンジョセイサンクミアイ,0
2201,8350001013982,登記記録の閉鎖等,0,2025-11-04,2025-10-30,株式会社りょう,,株式会社,宮崎県,宮崎市,広島２丁目５番２２号,,45,201,8800806,,,2025-10-30,清算の結了等,,,2016-04-18,1,,,,,リョウ,0
2211,8430005004045,登記記録の閉鎖等,0,2025-11-04,2025-10-31,特定非営利活動法人トライ夢,,その他の設立登記法人,北海道,札幌市北区,北四十条西６丁目３番３６－１０３号,,01,102,0010040,,,2025-10-31,清算の結了等,,,2015-10-05,1,,,,,トライム,0
2229,9010001163258,登記記録の閉鎖等,0,2025-11-04,2025-10-17,フクダニューロテック株式会社,,株式会社,東京都,文京区,本郷３丁目３９番４号,,13,105,1130033,,,2025-10-17,清算の結了等,,,2015-10-05,1,,,,,フクダニューロテック,0
2248,9010401027905,登記記録の閉鎖等,0,2025-11-04,2025-10-06,マクホード株式会社,,株式会社,東京都,港区,赤坂７丁目１０番８号,,13,103,1070052,,,2025-10-06,清算の結了等,,,2015-10-05,1,,,,,マクホード,0
2251,9010401096149,登記記録の閉鎖等,0,2025-11-04,2025-04-08,テラスエナジー株式会社,,株式会社,東京都,千代田区,大手町１丁目５番１号,,13,101,1000004,,,2025-04-08,合併による解散等,4010401049350,令和７年４月１日東京都港区虎ノ門四丁目３番１３号株式会社ユーラスエナジーホールディングス（4010401049350）に合併し解散,2015-10-05,1,,,,,テラスエナジー,0
2258,9010402002741,登記記録の閉鎖等,0,2025-11-04,2025-10-06,有限会社オーム,,有限会社,東京都,港区,赤坂２丁目１４番３１号,,13,103,1070052,,,2025-10-06,清算の結了等,,,2015-10-05,1,,,,,オーム,0
2268,9010601030477,登記記録の閉鎖等,0,2025-11-04,2025-10-21,株式会社サポート・オブ・フューネラル,,株式会社,東京都,江東区,亀戸５丁目２３番８号,,13,108,1360071,,,2025-10-21,清算の結了等,,,2015-10-05,1,,,,,サポートオブフューネラル,0
2280,9011001146087,登記記録の閉鎖等,0,2025-11-04,2025-10-03,株式会社シロクラボ,,株式会社,東京都,渋谷区,宇田川町４０番１号,,13,113,1500042,,,2025-10-03,清算の結了等,,,2022-03-04,1,,,,,シロクラボ,0
2288,9011503003001,登記記録の閉鎖等,0,2025-11-04,2025-10-09,東金８発電所合同会社,,合同会社,東京都,千代田区,神田小川町３丁目７番５号,,13,101,1010052,,,2025-10-09,清算の結了等,,,2016-07-12,1,,,,,トウガネエイトハツデンショ,0
2291,9011703001829,登記記録の閉鎖等,0,2025-11-04,2025-10-21,Ｉ’ｓ　Ｆａｃｔｏｒｙ合同会社,,合同会社,宮城県,亘理郡亘理町,逢隈中泉字東１３２番地９,00119668,04,361,9892301,,,2025-10-21,清算の結了等,,,2017-08-14,1,,,,,アイズファクトリー,0
2301,9012802002321,登記記録の閉鎖等,0,2025-11-04,2025-09-17,有限会社メイワエステート,,有限会社,東京都,立川市,上砂町５丁目７９番地の１１,,13,202,1900032,,,2025-09-17,清算の結了等,,,2015-10-05,1,,,,,メイワエステート,0
2303,9013202004255,登記記録の閉鎖等,0,2025-11-04,2025-10-03,有限会社ディー・セクション,,有限会社,東京都,目黒区,鷹番３丁目１４番１５号,,13,110,1520004,,,2025-10-03,清算の結了等,,,2015-10-05,1,,,,,ディーセクション,0
2318,9021001006240,登記記録の閉鎖等,0,2025-11-04,2025-10-09,株式会社和泉観光,,株式会社,神奈川県,高座郡寒川町,一之宮９丁目２番１３号,,14,321,2530111,,,2025-10-09,清算の結了等,,,2015-10-05,1,,,,,イズミカンコウ,0
2325,9021005006864,登記記録の閉鎖等,0,2025-11-04,2025-10-14,特定非営利活動法人ワーカーズ・コレクティブ笑顔,,その他の設立登記法人,神奈川県,平塚市,南原１丁目１２番１６号ウインディ笹尾ＩＩ１０２,00014282,14,203,2540065,,,2025-10-14,清算の結了等,,,2015-10-05,1,,,,,ワーカーズコレクティブエガオ,0
2336,9040001097379,登記記録の閉鎖等,0,2025-11-04,2025-10-01,株式会社作栄丸,,株式会社,千葉県,安房郡鋸南町,勝山３９２番地２,,12,463,2992117,,,2025-10-01,清算の結了等,,,2016-10-21,1,,,,,サクエイマル,0
2348,9050002017277,登記記録の閉鎖等,0,2025-11-04,2025-10-17,有限会社板子工業,,有限会社,茨城県,結城郡八千代町,大字佐野８５３番地,,08,521,3003505,,,2025-10-17,清算の結了等,,,2015-10-05,1,,,,,イタココウギョウ,0
2349,9050002045088,登記記録の閉鎖等,0,2025-11-04,2025-10-24,有限会社ユーテック,,有限会社,茨城県,結城市,大字結城２２６６番地,,08,207,3070001,,,2025-10-24,清算の結了等,,,2015-10-05,1,,,,,ユーテック,0
2350,9050005005353,登記記録の閉鎖等,0,2025-11-04,2025-10-23,特定非営利活動法人ライフ・パートナーつくば,,その他の設立登記法人,茨城県,つくば市,上ノ室８４５番地２,,08,220,3050023,,,2025-10-23,清算の結了等,,,2015-10-05,1,,,,,ライフパートナーツクバ,0
2352,9070001034775,登記記録の閉鎖等,0,2025-11-04,2025-10-29,株式会社アロールーム,,株式会社,群馬県,安中市,嶺６４９番地２,,10,211,3790136,,,2025-10-29,清算の結了等,,,2018-06-05,1,,,,,アロールーム,0
2353,9070001038504,登記記録の閉鎖等,0,2025-11-04,2025-10-29,株式会社ステップアップサポート,,株式会社,群馬県,邑楽郡千代田町,大字上中森１０５０番地,,10,523,3700725,,,2025-10-29,清算の結了等,,,2021-10-05,1,,,,,ステップアップサポート,0
2361,9090002009997,登記記録の閉鎖等,0,2025-11-04,2025-10-28,東亜タクシー有限会社,,有限会社,山梨県,上野原市,上野原６７６番地３,,19,212,4090112,,,2025-10-28,清算の結了等,,,2015-10-05,1,,,,,トウアタクシー,0
2373,9120001222135,登記記録の閉鎖等,0,2025-11-04,2025-10-30,涼咲不動産株式会社,,株式会社,大阪府,大阪市淀川区,三国本町１丁目９番３号,,27,123,5320005,,,2025-10-30,清算の結了等,,,2019-07-04,1,,,,,スズサキフドウサン,0
2374,9120001270126,登記記録の閉鎖等,0,2025-11-04,2025-10-17,株式会社アクセル,,株式会社,大阪府,大阪市北区,梅田２丁目５番１３号桜橋第一ビル３０４号,,27,127,5300001,,,2025-10-17,清算の結了等,,,2024-11-11,1,,,,,アクセル,0
2411,9140001131078,登記記録の閉鎖等,0,2025-11-04,2025-10-27,ＲＥＤ　ＨＯＴ　ＦＡＣＴＯＲＹ株式会社,,株式会社,兵庫県,姫路市,下手野１丁目８番１－１号,,28,201,6700063,,,2025-10-27,清算の結了等,,,2023-08-07,1,,,,,レッドホットファクトリー,0
2413,9140002067560,登記記録の閉鎖等,0,2025-11-04,2025-10-28,有限会社ヨロズ,,有限会社,兵庫県,宝塚市,福井町２９番２号,,28,214,6650046,,,2025-10-28,清算の結了等,,,2015-10-05,1,,,,,ヨロズ,0
2427,9180001074125,登記記録の閉鎖等,0,2025-11-04,2025-10-28,サンケイ株式会社,,株式会社,愛知県,春日井市,気噴町北２丁目４２番地,,23,206,4870015,,,2025-10-28,清算の結了等,,,2015-10-05,1,,,,,サンケイ,0
2429,9180001108056,登記記録の閉鎖等,0,2025-11-04,2025-10-27,株式会社モアハピネス,,株式会社,愛知県,名古屋市西区,大野木５丁目２２０番地の２,,23,104,4520803,,,2025-10-27,清算の結了等,,,2015-10-05,1,,,,,モアハピネス,0
2435,9180002001482,登記記録の閉鎖等,0,2025-11-04,2025-10-27,丸宣建工有限会社,,有限会社,愛知県,名古屋市守山区,幸心４丁目２０１番地,,23,113,4630079,,,2025-10-27,清算の結了等,,,2015-10-05,1,,,,,マルヨシケンコウ,0
2445,9180302000432,登記記録の閉鎖等,0,2025-11-04,2025-10-28,有限会社エコル,,有限会社,愛知県,額田郡幸田町,大字芦谷字東山１７番地２,,23,501,4440116,,,2025-10-28,清算の結了等,,,2015-10-05,1,,,,,エコル,0
2448,9180302014770,登記記録の閉鎖等,0,2025-11-04,2025-10-21,有限会社ＴＲＹ,,有限会社,愛知県,豊川市,伊奈町並松２０番地４,,23,207,4410105,,,2025-10-21,清算の結了等,,,2015-10-05,1,,,,,トライ,0
2449,9180303003335,登記記録の閉鎖等,0,2025-11-04,2025-10-22,合同会社石田ファブリック,,合同会社,愛知県,蒲郡市,府相町２丁目２１５番地,,23,214,4430054,,,2025-10-22,清算の結了等,,,2015-10-05,1,,,,,イシダファブリック,0
2462,9270002011043,登記記録の閉鎖等,0,2025-11-04,2025-10-24,有限会社アシード,,有限会社,鳥取県,倉吉市,福庭町１丁目３６番地,,31,203,6820018,,,2025-10-24,清算の結了等,,,2015-10-05,1,,,,,アシード,0
2464,9280002010630,登記記録の閉鎖等,0,2025-11-04,2025-10-29,有限会社佐伯家具店,,有限会社,島根県,鹿足郡吉賀町,七日市６０４番地１,,32,505,6995522,,,2025-10-29,清算の結了等,,,2015-10-05,1,,,,,サエキカグテン,0
2478,9310003001682,登記記録の閉鎖等,0,2025-11-04,2025-10-30,合資会社松岡商店,,合資会社,長崎県,雲仙市,南串山町甲２５９５番地,,42,213,8540701,,,2025-10-30,清算の結了等,,,2015-10-05,1,,,,,マツオカショウテン,0
2498,9380003004753,登記記録の閉鎖等,0,2025-11-04,2025-10-22,合同会社ＫＣｏ．,,合同会社,福島県,西白河郡西郷村,大字真船字小塚前３８番地１,,07,461,9618071,,,2025-10-22,清算の結了等,,,2020-09-18,1,,,,,ケーカンパニー,0
2500,9400001005156,登記記録の閉鎖等,0,2025-11-04,2025-10-20,株式会社ウチダ,,株式会社,岩手県,盛岡市,下ノ橋町６番４号,,03,201,0200877,,,2025-10-20,清算の結了等,,,2015-10-05,1,,,,,ウチダ,0
2507,9430005012311,登記記録の閉鎖等,0,2025-11-04,2025-10-28,特定非営利活動法人はれぞら,,その他の設立登記法人,北海道,札幌市西区,琴似二条６丁目１番３０－１００２号,,01,107,0630812,,,2025-10-28,清算の結了等,,,2015-10-05,1,,,,,ハレゾラ,0
2510,9450005004281,登記記録の閉鎖等,0,2025-11-04,2025-10-28,特定非営利活動法人道北クリティカルケア,,その他の設立登記法人,北海道,名寄市,西七条南８丁目１番地,,01,221,0960017,,,2025-10-28,清算の結了等,,,2020-12-25,1,,,,,ドウホククリティカルケア,0
