sequenceNumber,corporateNumber,process,correct,updateDate,changeDate,name,nameImageId,kind,prefectureName,cityName,streetNumber,addressImageId,prefectureCode,cityCode,postCode,addressOutside,addressOutsideImageId,closeDate,closeCause,successorCorporateNumber,changeCause,assignmentDate,latest,enName,enPrefectureName,enCityName,enAddressOutside,furigana,hihyoji
8,1010001234636,新規,0,2023-04-19,2023-04-19,株式会社チームエル・テクノ,,株式会社,東京都,中央区,日本橋本石町３丁目３番１０号ダイワビル９Ｆ,,13,102,1030021,,,,,,,2023-04-19,1,,,,,チームエルテクノ,0
16,1010003040347,新規,0,2023-04-19,2023-04-19,淡路企画合同会社,,合同会社,東京都,文京区,根津２丁目１４番５号,,13,105,1130031,,,,,,,2023-04-19,1,,,,,アワジシマキカク,0
17,1010003040388,新規,0,2023-04-19,2023-04-19,ＲＢソーラーオーロラ合同会社,,合同会社,東京都,中央区,八丁堀４丁目２番１０号ＡＯＪ税理士法人内,,13,102,1040032,,,,,,,2023-04-19,1,,,,,アールビーソーラーオーロラ,0
22,1010401173780,新規,0,2023-04-19,2023-04-19,株式会社Ｆｕｎ＆ｈｏｌｉｃ,,株式会社,東京都,港区,浜松町２丁目２番１５号浜松町ダイヤビル２Ｆ,,13,103,1050013,,,,,,,2023-04-19,1,,,,,ファンホリック,0
25,1010403029931,新規,0,2023-04-19,2023-04-19,徳島洋上風力発電合同会社,,合同会社,東京都,港区,六本木３丁目２番１号六本木グランドタワー,,13,103,1060032,,,,,,,2023-04-19,1,,,,,トクシマヨウジョウフウリョクハツデン,0
26,1010403029956,新規,0,2023-04-19,2023-04-19,Ｒ．Ｄ．Ａ．Ｍ合同会社,,合同会社,東京都,港区,南青山６丁目１０番９,,13,103,1070062,,,,,,,2023-04-19,1,,,,,アールディーエーエム,0
28,1010601062949,新規,0,2023-04-19,2023-04-19,虹メディカル株式会社,,株式会社,東京都,江東区,有明１丁目３番１４号オリゾンマーレ２００３号,,13,108,1350063,,,,,,,2023-04-19,1,,,,,ニジメディカル,0
29,1010601062965,新規,0,2023-04-19,2023-04-19,株式会社講志社,,株式会社,東京都,江東区,東砂１丁目１番１－６０５号,,13,108,1360074,,,,,,,2023-04-19,1,,,,,コウシシャ,0
38,1010901052889,新規,0,2023-04-19,2023-04-19,株式会社充,,株式会社,東京都,世田谷区,野沢３丁目１－１,,13,112,1540003,,,,,,,2023-04-19,1,,,,,,0
45,1011001153859,新規,0,2023-04-19,2023-04-19,メディック・ストローク・サポート株式会社,,株式会社,東京都,渋谷区,恵比寿１丁目１５番９号,,13,113,1500013,,,,,,,2023-04-19,1,,,,,メディックストロークサポート,0
46,1011001153891,新規,0,2023-04-19,2023-04-19,万福株式会社,,株式会社,東京都,渋谷区,道玄坂１丁目１０番８号渋谷道玄坂東急ビル２Ｆ－Ｃ,,13,113,1500043,,,,,,,2023-04-19,1,,,,,マンプク,0
47,1011001153909,新規,0,2023-04-19,2023-04-19,株式会社おウチトラスト,,株式会社,東京都,渋谷区,神南１丁目１２番１４号,,13,113,1500041,,,,,,,2023-04-19,1,,,,,オウチトラスト,0
48,1011001153925,新規,0,2023-04-19,2023-04-19,株式会社Ｒ‐ｅｙｅｓ,,株式会社,東京都,渋谷区,神泉町２０番２１号クロスシー渋谷神泉ビルＭＩＤＰＯＩＮＴ渋谷神泉,,13,113,1500045,,,,,,,2023-04-19,1,,,,,アールアイズ,0
51,1011101102591,新規,0,2023-04-19,2023-04-19,Ｕ　Ｌｕｘ株式会社,,株式会社,東京都,新宿区,西新宿５丁目７番１０号,,13,104,1600023,,,,,,,2023-04-19,1,,,,,ユーラックス,0
53,1011105010634,新規,0,2023-04-19,2023-04-19,特定非営利活動法人新宿オペラ,,その他の設立登記法人,東京都,新宿区,下落合４丁目４番１２号,,13,104,1610033,,,,,,,2023-04-19,1,,,,,シンジュクオペラ,0
54,1011205002548,新規,0,2023-04-19,2023-04-19,一般社団法人ＴＯＵＲＩ　ＡＳＳＯＣＩＡＴＩＯＮ,,その他の設立登記法人,東京都,中野区,上高田１丁目３５番４号第二昭和ビル２２,,13,114,1640002,,,,,,,2023-04-19,1,,,,,トウリアソシエーション,0
58,1011603003899,新規,0,2023-04-19,2023-04-19,合同会社クロック,,合同会社,東京都,練馬区,春日町４丁目１番３０号クレスト練馬春日町１０１号,,13,120,1790074,,,,,,,2023-04-19,1,,,,,クロック,0
61,1011701026166,新規,0,2023-04-19,2023-04-19,株式会社レアリスタ,,株式会社,東京都,江戸川区,西葛西３丁目１６番１０号,,13,123,1340088,,,,,,,2023-04-19,1,,,,,レアリスタ,0
64,1011803005613,新規,0,2023-04-19,2023-04-19,誠迅グローバルオペレーション合同会社,,合同会社,東京都,葛飾区,西新小岩４丁目８－６アーバンヒルズ新小岩１１２号室,,13,122,1240025,,,,,,,2023-04-19,1,,,,,セイジングローバルオペレーション,0
66,1012401040449,新規,0,2023-04-19,2023-04-19,株式会社ＡＴＧ,,株式会社,東京都,調布市,入間町１丁目２０－１８ヘーベルセレーネイリマ１０１,,13,208,1820004,,,,,,,2023-04-19,1,,,,,エーティージー,0
68,1012403005945,新規,0,2023-04-19,2023-04-19,丸徳合同会社,,合同会社,東京都,調布市,布田５丁目５５番地６４,,13,208,1820024,,,,,,,2023-04-19,1,,,,,マルトク,0
72,1012805003191,新規,0,2023-04-19,2023-04-19,一般社団法人ＧＩＦＴ協会,,その他の設立登記法人,東京都,国分寺市,南町３丁目２３番２号ＭＤ８ビル３Ｆ,,13,214,1850021,,,,,,,2023-04-19,1,,,,,ギフトキョウカイ,0
76,1013301050612,新規,0,2023-04-19,2023-04-19,株式会社ＡＤＤ　ＴＯＵＣＨ,,株式会社,東京都,豊島区,巣鴨１丁目７－６東邦アネックス２Ｆ,,13,116,1700002,,,,,,,2023-04-19,1,,,,,アドタッチ,0
85,1020003023730,新規,0,2023-04-19,2023-04-19,合同会社エスマインド,,合同会社,神奈川県,川崎市川崎区,駅前本町１１番地２川崎フロンティアビル４階,,14,131,2100007,,,,,,,2023-04-19,1,,,,,エスマインド,0
86,1020003023747,新規,0,2023-04-19,2023-04-19,合同会社日子河,,合同会社,神奈川県,横浜市磯子区,氷取沢町３９番地１,,14,107,2350043,,,,,,,2023-04-19,1,,,,,ヒシカワ,0
87,1020003023771,新規,0,2023-04-19,2023-04-19,合同会社ＢＣＳｐａｃｅ,,合同会社,神奈川県,横浜市港北区,篠原町１１５８―１１５,,14,109,2220026,,,,,,,2023-04-19,1,,,,,ビーシースペース,0
92,1021001078717,新規,0,2023-04-19,2023-04-19,株式会社ＴＷＲＳ,,株式会社,神奈川県,藤沢市,辻堂元町５丁目１６－１０レグルス湘南１０５,,14,205,2510043,,,,,,,2023-04-19,1,,,,,ティーダブリューアールエス,0
93,1021001078766,新規,0,2023-04-19,2023-04-19,株式会社ロクニー,,株式会社,神奈川県,逗子市,久木４丁目１７８３番地,,14,208,2490001,,,,,,,2023-04-19,1,,,,,ロクニー,0
94,1021001078774,新規,0,2023-04-19,2023-04-19,株式会社ＣＲＥＡＥＲＡ,,株式会社,神奈川県,藤沢市,片瀬海岸２丁目２０－１２ＯＨＡＮＡｔｅｒｒａｃｅ（オハナテラス）２Ｆ,,14,205,2510035,,,,,,,2023-04-19,1,,,,,クリエラ,0
96,1021003013003,新規,0,2023-04-19,2023-04-19,合同会社Ｗａｈａｈａ　Ｆａｃｔｏｒｙ,,合同会社,神奈川県,藤沢市,鵠沼石上１丁目７番８号ビッグライズビル５Ｆ,,14,205,2510025,,,,,,,2023-04-19,1,,,,,ワハハファクトリー,0
101,1030001153446,新規,0,2023-04-19,2023-04-19,ＮＫＪ株式会社,,株式会社,埼玉県,越谷市,千間台東４丁目４番地２,,11,222,3430042,,,,,,,2023-04-19,1,,,,,エヌケイジェイ,0
102,1030001153479,新規,0,2023-04-19,2023-04-19,株式会社リモデル企画,,株式会社,埼玉県,さいたま市西区,大字指扇２７１番地２０エクセルヒル１０５号,,11,101,3310047,,,,,,,2023-04-19,1,,,,,リモデルキカク,0
103,1030001153495,新規,0,2023-04-19,2023-04-19,株式会社桂川工務店,,株式会社,埼玉県,越谷市,御殿町４－５３メゾンドミキ１０５,,11,222,3430811,,,,,,,2023-04-19,1,,,,,カツラガワコウムテン,0
104,1030001153504,新規,0,2023-04-19,2023-04-19,株式会社ＬＯＣＣｏ,,株式会社,埼玉県,さいたま市大宮区,大門町１丁目６３番地栗橋ビル７Ｆ－Ａ,,11,103,3300846,,,,,,,2023-04-19,1,,,,,ロッコ,0
105,1030003021601,新規,0,2023-04-19,2023-04-19,梅の花合同会社,,合同会社,埼玉県,川口市,西川口３丁目９－１２－２Ｅ号室,,11,203,3320021,,,,,,,2023-04-19,1,,,,,ウメノハナ,0
110,1040001128042,新規,0,2023-04-19,2023-04-19,株式会社一生,,株式会社,千葉県,市原市,五井中央西１丁目１７－２８パークサイド２０１,,12,219,2900081,,,,,,,2023-04-19,1,,,,,イッショウ,0
112,1040003022417,新規,0,2023-04-19,2023-04-19,合同会社ｈａｒｕａｉｋａ,,合同会社,千葉県,千葉市中央区,富士見２丁目７番９号富士見ビル６０９号,,12,101,2600015,,,,,,,2023-04-19,1,,,,,ハルアイカ,0
113,1040003022433,新規,0,2023-04-19,2023-04-19,合同会社カノア,,合同会社,千葉県,千葉市中央区,生実町１４３０番地６,,12,101,2600813,,,,,,,2023-04-19,1,,,,,カノア,0
121,1050001052712,新規,0,2023-04-19,2023-04-19,株式会社ＭＪプランニング,,株式会社,茨城県,取手市,取手２丁目１７番３１－５０３号,,08,217,3020004,,,,,,,2023-04-19,1,,,,,エムジェイプランニング,0
127,1060003004520,新規,0,2023-04-19,2023-04-19,群馬沼田利根合同会社,,合同会社,栃木県,小山市,大字生良３８７番地,,09,208,3290221,,,,,,,2023-04-19,1,,,,,グンマヌマタトネ,0
130,1070001040351,新規,0,2023-04-19,2023-04-19,株式会社Ｌｅｍｕｒｉａｎ　Ｆｏｏｄ,,株式会社,群馬県,高崎市,上小塙町１１０８番地４,,10,202,3700077,,,,,,,2023-04-19,1,,,,,,0
133,1090001018081,新規,0,2023-04-19,2023-04-19,Ｒ．Ｄｅｓｉｇｎ株式会社,,株式会社,山梨県,中巨摩郡昭和町,河東中島１７４２番地４,,19,384,4093863,,,,,,,2023-04-19,1,,,,,アールデザイン,0
137,1100001036338,新規,0,2023-04-19,2023-04-19,株式会社ＭＦＰ,,株式会社,長野県,松本市,中央１丁目１４番２０号レインボータウンビル２０２,,20,202,3900811,,,,,,,2023-04-19,1,,,,,エムエフピー,0
139,1100003006982,新規,0,2023-04-19,2023-04-19,３Ｄラウンドハウス合同会社,,合同会社,長野県,北佐久郡軽井沢町,大字長倉字蕨尾２１５７－３３７,,20,321,3890111,,,,,,,2023-04-19,1,,,,,スリーディーラウンドハウス,0
140,1100005012995,新規,0,2023-04-19,2023-04-19,ＮＰＯ法人犬の命を守る会・わんわんライフ,,その他の設立登記法人,長野県,上田市,中央１丁目８番８号,,20,203,3860012,,,,,,,2023-04-19,1,,,,,イヌノイノチヲマモルカイワンワンライフ,0
152,1120001253996,新規,0,2023-04-19,2023-04-19,株式会社ＫＤＫ,,株式会社,大阪府,守口市,八雲北町１丁目３７番１－５０１号,,27,209,5700008,,,,,,,2023-04-19,1,,,,,ケーディーケー,0
153,1120001254037,新規,0,2023-04-19,2023-04-19,ワールド分子株式会社,,株式会社,大阪府,大阪市淀川区,田川北２丁目５－３４・Ｄ棟１０１号室,,27,123,5320021,,,,,,,2023-04-19,1,,,,,ワールドブンシ,0
154,1120001254078,新規,0,2023-04-19,2023-04-19,株式会社Ｈａｓｐｉｃ,,株式会社,大阪府,大阪市東住吉区,矢田１丁目４－１１－Ａ,,27,121,5460023,,,,,,,2023-04-19,1,,,,,ハスピック,0
155,1120001254103,新規,0,2023-04-19,2023-04-19,株式会社ネクレボ,,株式会社,大阪府,大阪市西区,北堀江１丁目３番２０号ＡＮＮＥＸＧＩＺＡビル４０３,,27,106,5500014,,,,,,,2023-04-19,1,,,,,ネクレボ,0
156,1120001254111,新規,0,2023-04-19,2023-04-19,株式会社ラジカ,,株式会社,大阪府,大阪市福島区,福島１丁目１番４８号ザ・タワー大阪１７０４,,27,103,5530003,,,,,,,2023-04-19,1,,,,,ラジカ,0
157,1120001254128,新規,0,2023-04-19,2023-04-19,ｉｉｎｅ．ｊｐ株式会社,,株式会社,大阪府,大阪市中央区,難波２丁目２番３号御堂筋グランドビル,,27,128,5420076,,,,,,,2023-04-19,1,,,,,イイネジェーピー,0
158,1120001254152,新規,0,2023-04-19,2023-04-19,株式会社ｋ２ｃｒｅａｔｅ,,株式会社,大阪府,門真市,桑才町２０番４１号,,27,223,5710035,,,,,,,2023-04-19,1,,,,,ケーツークリエイト,0
159,1120001254177,新規,0,2023-04-19,2023-04-19,サーキュラーテクノロジー株式会社,,株式会社,大阪府,大阪市淀川区,西中島５丁目６番３号チサンマンション第２新大阪４０３,,27,123,5320011,,,,,,,2023-04-19,1,,,,,サーキュラーテクノロジー,0
160,1120003023852,新規,0,2023-04-19,2023-04-19,合同会社アテネ,,合同会社,大阪府,大阪市都島区,内代町２丁目１２番１５号,,27,102,5340013,,,,,,,2023-04-19,1,,,,,アテネ,0
165,1120903004596,新規,0,2023-04-19,2023-04-19,ＬｉｎＧｌｏｂａ合同会社,,合同会社,大阪府,箕面市,桜井１丁目２４番９号,,27,220,5620043,,,,,,,2023-04-19,1,,,,,リングローバ,0
168,1130001074112,新規,0,2023-04-19,2023-04-19,株式会社バランステック京都,,株式会社,京都府,京都市伏見区,新町４丁目４６５番地５マース・リヴィエール１Ｆ,,26,109,6128081,,,,,,,2023-04-19,1,,,,,バランステックキョウト,0
173,1140001129765,新規,0,2023-04-19,2023-04-19,株式会社リトルスターＫＯＢＥ,,株式会社,兵庫県,神戸市垂水区,王居殿２丁目１１－９,,28,108,6550883,,,,,,,2023-04-19,1,,,,,リトルスターコーベ,0
174,1140001129807,新規,0,2023-04-19,2023-04-19,株式会社ＨＩＳＥＮＳＥ,,株式会社,兵庫県,姫路市,亀井町３３番地,,28,201,6700925,,,,,,,2023-04-19,1,,,,,ハイセンス,0
175,1140001129880,新規,0,2023-04-19,2023-04-19,旭ネクシス株式会社,,株式会社,兵庫県,姫路市,東駅前町６３番地,,28,201,6700926,,,,,,,2023-04-19,1,,,,,アサヒネクシス,0
187,1160003002852,新規,0,2023-04-19,2023-04-19,ＮＥＩＬＯＮＡ合同会社,,合同会社,滋賀県,近江八幡市,八幡町１５２番地,,25,204,5230857,,,,,,,2023-04-19,1,,,,,ネイロナ,0
200,1180301037318,新規,0,2023-04-19,2023-04-19,株式会社ＫＡＴＯ,,株式会社,愛知県,蒲郡市,形原町出口５６番地１,,23,214,4430104,,,,,,,2023-04-19,1,,,,,カトウ,0
205,1180303005685,新規,0,2023-04-19,2023-04-19,合同会社ＴＵＯＮＧ　ＡＮ　ＭＯＢＩＬＥＳ,,合同会社,愛知県,西尾市,緑町４丁目６２番地,,23,213,4450804,,,,,,,2023-04-19,1,,,,,トゥオンアンモバイル,0
207,1190003004301,新規,0,2023-04-19,2023-04-19,パールランド合同会社,,合同会社,三重県,度会郡南伊勢町,木谷４３８番地５３,,24,472,5160106,,,,,,,2023-04-19,1,,,,,パールランド,0
209,1200001041220,新規,0,2023-04-19,2023-04-19,株式会社ＴＯＲＥＩＮ,,株式会社,岐阜県,岐阜市,薮田南１丁目７番２２号,,21,201,5008384,,,,,,,2023-04-19,1,,,,,トレイン,0
212,1200003005933,新規,0,2023-04-19,2023-04-19,合同会社Ｒｅｇａｌｏ,,合同会社,岐阜県,多治見市,笠原町２１０３－２,,21,204,5070901,,,,,,,2023-04-19,1,,,,,レガロ,0
221,1240001061388,新規,0,2023-04-19,2023-04-19,株式会社トップラボ,,株式会社,広島県,広島市南区,松原町３番２－４３０５号,,34,103,7320822,,,,,,,2023-04-19,1,,,,,トップラボ,0
222,1250001020054,新規,0,2023-04-19,2023-04-19,株式会社Ｃｏｍｔｅｒｎａｌ,,株式会社,山口県,防府市,車塚町１番１３号車塚ビル６階,,35,206,7470811,,,,,,,2023-04-19,1,,,,,コンターナル,0
224,1260001037881,新規,0,2023-04-19,2023-04-19,株式会社サインポスト,,株式会社,岡山県,備前市,吉永町吉永中７８５番地４,,33,211,7090224,,,,,,,2023-04-19,1,,,,,サインポスト,0
227,1260003004285,新規,0,2023-04-19,2023-04-19,合同会社とと禄,,合同会社,岡山県,倉敷市,茶屋町６３０,,33,202,7101101,,,,,,,2023-04-19,1,,,,,トトロク,0
228,1270003001513,新規,0,2023-04-19,2023-04-19,合同会社ＨＥＡ,,合同会社,鳥取県,米子市,夜見町３０２２番地６,,31,202,6830851,,,,,,,2023-04-19,1,,,,,エイチイーエー,0
231,1280005007549,新規,0,2023-04-19,2023-04-19,有限責任振興住宅組合,,その他の設立登記法人,島根県,松江市,東本町４丁目１３番地,,32,201,6900842,,,,,,,2023-04-19,1,,,,,,0
236,1290001101197,新規,0,2023-04-19,2023-04-19,株式会社ビーダッシュ,,株式会社,福岡県,八女郡広川町,大字新代１３５０番地,,40,544,8340115,,,,,,,2023-04-19,1,,,,,ビーダッシュ,0
237,1290001101222,新規,0,2023-04-19,2023-04-19,株式会社おもい,,株式会社,福岡県,久留米市,小森野５丁目１７番２１号,,40,203,8300001,,,,,,,2023-04-19,1,,,,,オモイ,0
238,1290001101247,新規,0,2023-04-19,2023-04-19,メディテクノ株式会社,,株式会社,福岡県,福津市,中央２丁目１８番１号,,40,224,8113217,,,,,,,2023-04-19,1,,,,,メディテクノ,0
239,1290001101255,新規,0,2023-04-19,2023-04-19,株式会社ＡＧＴＷＯＲＫＳ,,株式会社,福岡県,福岡市西区,大字飯氏９５８番地３,,40,135,8190371,,,,,,,2023-04-19,1,,,,,エージーティーワークス,0
241,1290005019023,新規,0,2023-04-19,2023-04-19,医療法人喜恵会,,その他の設立登記法人,福岡県,福岡市早良区,飯倉６丁目３４番２６号,,40,137,8140161,,,,,,,2023-04-19,1,,,,,キケイカイ,0
243,1290801029480,新規,0,2023-04-19,2023-04-19,タクトファイナンシャルアドバイザリー株式会社,,株式会社,福岡県,北九州市小倉北区,若富士町２番１号朝日興産ビル４階,,40,106,8020063,,,,,,,2023-04-19,1,,,,,タクトファイナンシャルアドバイザリー,0
244,1290803004399,新規,0,2023-04-19,2023-04-19,合同会社リヒトアインス,,合同会社,福岡県,北九州市小倉北区,米町１丁目５番１８号第１５エルザビル,,40,106,8020003,,,,,,,2023-04-19,1,,,,,リヒトアインス,0
257,1400003003066,新規,0,2023-04-19,2023-04-19,合同会社南天,,合同会社,岩手県,盛岡市,中太田法丁２２番地,,03,201,0200052,,,,,,,2023-04-19,1,,,,,ナンテン,0
268,1430001088817,新規,0,2023-04-19,2023-04-19,株式会社ラグセル,,株式会社,北海道,札幌市中央区,北五条西２８丁目３番３－１３００号,,01,101,0640825,,,,,,,2023-04-19,1,,,,,ラグセル,0
269,1430001088882,新規,0,2023-04-19,2023-04-19,株式会社ＴＳ．ｆａｍ,,株式会社,北海道,札幌市中央区,南六条西３丁目６番地１８おふく会館Ｂ１,,01,101,0640806,,,,,,,2023-04-19,1,,,,,ティーエスファム,0
271,1430003014928,新規,0,2023-04-19,2023-04-19,合同会社自由学藝,,合同会社,北海道,石狩郡当別町,字弁華別５０番地２,,01,303,0610208,,,,,,,2023-04-19,1,,,,,ジユウガクゲイ,0
276,1490001010460,新規,0,2023-04-19,2023-04-19,株式会社レザレクト,,株式会社,高知県,香南市,野市町西野１８８８番地４,,39,211,7815232,,,,,,,2023-04-19,1,,,,,レザレクト,0
278,1700150115583,新規,0,2023-04-19,2023-04-19,ｇｕａｎｇｚｈｏｕ　ｌｉａｎｇｆａｎｑｉｎｇ　ｄｉａｎｚｉ　ｙｏｕｘｉａｎ　ｇｏｎｇｓｉ,,外国会社等,,,,,,,,１０１ｐｕ　１５２ｈａｏ　Ｘｉｎｃｈｅｎｇｄａｄａｏ　Ｌｉｈｕｊｉｅｄａｏ，Ｚｅｎｇｃｈｅｎｇｑｕ，Ｇｕａｎｇｚｈｏｕｓｈｉ，Ｃｈｉｎａ,,,,,,2023-04-19,1,,,,,ゴンジョウリアンファンキンデンシユウゲンコウシ,0
290,2010001234560,新規,0,2023-04-19,2023-04-19,株式会社Ｍｉｙａｋｏｍｉｃｈｉ,,株式会社,東京都,中央区,日本橋室町１丁目１１番１２号日本橋水野ビル７階,,13,102,1030022,,,,,,,2023-04-19,1,,,,,ミヤコミチ,0
291,2010001234643,新規,0,2023-04-19,2023-04-19,日本工営エナジーソリューションズ株式会社,,株式会社,東京都,千代田区,麹町５丁目４番地,,13,101,1020083,,,,,,,2023-04-19,1,,,,,ニホンコウエイエナジーソリューションズ,0
292,2010001234651,新規,0,2023-04-19,2023-04-19,ワダツミキャピタルＴｗｏ株式会社,,株式会社,東京都,千代田区,大手町２丁目６番４号常盤橋タワー２５階,,13,101,1000004,,,,,,,2023-04-19,1,,,,,ワダツミキャピタルツー,0
296,2010003040362,新規,0,2023-04-19,2023-04-19,Ｗ＆Ｂ合同会社,,合同会社,東京都,中央区,銀座１丁目１２番４号Ｎ＆ＥＢＬＤ．６Ｆ,,13,102,1040061,,,,,,,2023-04-19,1,,,,,ダブリューアンドビー,0
297,2010003040387,新規,0,2023-04-19,2023-04-19,ＲＢソーラーオーシャン合同会社,,合同会社,東京都,中央区,八丁堀４丁目２番１０号ＡＯＪ税理士法人内,,13,102,1040032,,,,,,,2023-04-19,1,,,,,アールビーソーラーオーシャン,0
306,2010401173788,新規,0,2023-04-19,2023-04-19,株式会社ＮＩＳＴＡＴＥＳ,,株式会社,東京都,港区,南青山３丁目１番３６号青山丸竹ビル６Ｆ,,13,103,1070062,,,,,,,2023-04-19,1,,,,,ナイステーツ,0
307,2010401173879,新規,0,2023-04-19,2023-04-19,株式会社ドライブトレイン,,株式会社,東京都,港区,浜松町２丁目２番１５号浜松町ダイヤビル２Ｆ,,13,103,1050013,,,,,,,2023-04-19,1,,,,,ドライブトレイン,0
309,2010403029930,新規,0,2023-04-19,2023-04-19,合同会社ｔｍｐ,,合同会社,東京都,港区,浜松町２丁目２番１５号浜松町ダイヤビル２Ｆ,,13,103,1050013,,,,,,,2023-04-19,1,,,,,ティーエムピー,0
314,2010501050284,新規,0,2023-04-19,2023-04-19,ビーコンアセットマネジメント株式会社,,株式会社,東京都,台東区,北上野２丁目２番５号,,13,106,1100014,,,,,,,2023-04-19,1,,,,,ビーコンアセットマネジメント,0
316,2010601062923,新規,0,2023-04-19,2023-04-19,株式会社丸芝,,株式会社,東京都,墨田区,菊川２丁目５番１４号１号室,,13,107,1300024,,,,,,,2023-04-19,1,,,,,マルシバ,0
317,2010601062972,新規,0,2023-04-19,2023-04-19,株式会社栄昇,,株式会社,東京都,江東区,亀戸７丁目６０－１０,,13,108,1360071,,,,,,,2023-04-19,1,,,,,エイショウ,0
320,2010701044128,新規,0,2023-04-19,2023-04-19,アントレプレナー株式会社,,株式会社,東京都,品川区,西五反田５丁目２３番３号ＢＬＯＣＫＳ目黒不動前,,13,109,1410031,,,,,,,2023-04-19,1,,,,,アントレプレナー,0
321,2010701044136,新規,0,2023-04-19,2023-04-19,ネイルパートナー北海道株式会社,,株式会社,東京都,品川区,大井１丁目２３番７号,,13,109,1400014,,,,,,,2023-04-19,1,,,,,ネイルパートナーホッカイドウ,0
322,2010703006662,新規,0,2023-04-19,2023-04-19,ＹＡＹＫＡ合同会社,,合同会社,東京都,品川区,大崎２丁目９番２－１４０６号,,13,109,1410032,,,,,,,2023-04-19,1,,,,,ヤイカ,0
323,2010705003501,新規,0,2023-04-19,2023-04-19,医療法人社団戸越パーククリニック,,その他の設立登記法人,東京都,品川区,豊町６丁目１０番４号西豊ビル１階,,13,109,1420042,,,,,,,2023-04-19,1,,,,,トゴシパーククリニック,0
328,2010803004509,新規,0,2023-04-19,2023-04-19,合同会社林,,合同会社,東京都,大田区,蒲田５丁目２１番１３－６１３号,,13,111,1440052,,,,,,,2023-04-19,1,,,,,ハヤシ,0
331,2010901052888,新規,0,2023-04-19,2023-04-19,株式会社ＳＨＡＭＥ,,株式会社,東京都,世田谷区,弦巻２丁目２４番３号オ－プンレジデンス世田谷弦巻１０６,,13,112,1540016,,,,,,,2023-04-19,1,,,,,,0
332,2010901052905,新規,0,2023-04-19,2023-04-19,ｕ＆ｍ株式会社,,株式会社,東京都,世田谷区,上馬５丁目１４番２３号,,13,112,1540011,,,,,,,2023-04-19,1,,,,,ユーアンドエム,0
336,2011001153817,新規,0,2023-04-19,2023-04-19,株式会社ベーシックシネマ,,株式会社,東京都,目黒区,目黒本町３丁目１７番１１－１２０９号ドルフ目黒,,13,110,1520002,,,,,,,2023-04-19,1,,,,,ベーシックシネマ,0
337,2011001153866,新規,0,2023-04-19,2023-04-19,株式会社ａｙａｍｅ,,株式会社,東京都,目黒区,青葉台３丁目２１－９エコロジー目黒青葉台プロセンチュリー９０２,,13,110,1530042,,,,,,,2023-04-19,1,,,,,アヤメ,0
338,2011001153890,新規,0,2023-04-19,2023-04-19,株式会社ＣＡＭＥＴＥＣＨ,,株式会社,東京都,目黒区,上目黒１丁目３番７号ＶＯＲＴ代官山２階,,13,110,1530051,,,,,,,2023-04-19,1,,,,,カメテック,0
339,2011001153924,新規,0,2023-04-19,2023-04-19,株式会社ｓｅｒｉｎｙａ,,株式会社,東京都,渋谷区,神宮前６丁目２３番４号桑野ビル２階,,13,113,1500001,,,,,,,2023-04-19,1,,,,,セリニャ,0
340,2011003016682,新規,0,2023-04-19,2023-04-19,合同会社全国ポートサービス,,合同会社,東京都,目黒区,下目黒３丁目１０番２９号,,13,110,1530064,,,,,,,2023-04-19,1,,,,,ゼンコクポートサービス,0
343,2011101102533,新規,0,2023-04-19,2023-04-19,プロペル株式会社,,株式会社,東京都,新宿区,新宿２丁目１２番１３号新宿アントレサロンビル２階,,13,104,1600022,,,,,,,2023-04-19,1,,,,,プロペル,0
344,2011103012961,新規,0,2023-04-19,2023-04-19,合同会社ストックストーン,,合同会社,東京都,新宿区,西新宿３丁目３番１３号西新宿水間ビル６階,,13,104,1600023,,,,,,,2023-04-19,1,,,,,ストックストーン,0
348,2011601026752,新規,0,2023-04-19,2023-04-19,株式会社ＴｏｏＭ,,株式会社,東京都,練馬区,豊玉北４丁目３０－１０－６０７号,,13,120,1760012,,,,,,,2023-04-19,1,,,,,トゥーム,0
349,2011605002510,新規,0,2023-04-19,2023-04-19,一般社団法人ＰＩＴ,,その他の設立登記法人,東京都,練馬区,富士見台１丁目１番３号,,13,120,1770034,,,,,,,2023-04-19,1,,,,,,0
351,2011701026157,新規,0,2023-04-19,2023-04-19,城栄工業株式会社,,株式会社,東京都,江戸川区,中葛西４丁目９番２０号,,13,123,1340083,,,,,,,2023-04-19,1,,,,,ジョウエイコウギョウ,0
356,2011801042252,新規,0,2023-04-19,2023-04-19,株式会社Ｔｗｉｎｋｌｅ,,株式会社,東京都,足立区,栗原３丁目２８番１－４０３号,,13,121,1230842,,,,,,,2023-04-19,1,,,,,トゥインクル,0
358,2012303001812,新規,0,2023-04-19,2023-04-19,合同会社フェイズシフト,,合同会社,東京都,町田市,忠生１丁目９番地２３,,13,209,1940035,,,,,,,2023-04-19,1,,,,,フェイズシフト,0
366,2020001151136,新規,0,2023-04-19,2023-04-19,シグマ株式会社,,株式会社,神奈川県,川崎市幸区,南幸町３丁目１２６番地１,,14,132,2120016,,,,,,,2023-04-19,1,,,,,シグマ,0
367,2020001151193,新規,0,2023-04-19,2023-04-19,株式会社ファインドホープ,,株式会社,神奈川県,川崎市麻生区,岡上１丁目８番１０号,,14,137,2150027,,,,,,,2023-04-19,1,,,,,ファインドホープ,0
368,2020001151227,新規,0,2023-04-19,2023-04-19,株式会社さいら,,株式会社,神奈川県,横浜市港北区,新横浜１丁目２５番地６グランスイート新横浜Ｉ－４０３,00130169,14,109,2220033,,,,,,,2023-04-19,1,,,,,サイラ,0
373,2021001078740,新規,0,2023-04-19,2023-04-19,ＰＵＡＬＡＮＩａｎｄＴＨＩＮＧＳ株式会社,,株式会社,神奈川県,平塚市,田村５丁目８番４８号２階,,14,203,2540013,,,,,,,2023-04-19,1,,,,,プアラニアンドシングス,0
374,2021001078757,新規,0,2023-04-19,2023-04-19,株式会社Ｋｉｎｅｃｔｉｏｎ,,株式会社,神奈川県,相模原市中央区,陽光台４丁目１６番３２－２号,,14,152,2520226,,,,,,,2023-04-19,1,,,,,キネクション,0
375,2021001078765,新規,0,2023-04-19,2023-04-19,ＭＡＴＲＩＸ　Ｊａｐａｎ株式会社,,株式会社,神奈川県,横須賀市,池上４丁目１番６－２０１号,,14,201,2380035,,,,,,,2023-04-19,1,,,,,マトリックスジャパン,0
378,2021003012994,新規,0,2023-04-19,2023-04-19,リアライズ合同会社,,合同会社,神奈川県,相模原市中央区,上溝４１１５番２１,,14,152,2520243,,,,,,,2023-04-19,1,,,,,リアライズ,0
379,2021003013002,新規,0,2023-04-19,2023-04-19,オオガワークス合同会社,,合同会社,神奈川県,厚木市,みはる野１丁目６番５号,,14,212,2430208,,,,,,,2023-04-19,1,,,,,オオガワークス,0
380,2021005012794,新規,0,2023-04-19,2023-04-19,一般社団法人日本モンテッソーリコーチング協会,,その他の設立登記法人,神奈川県,藤沢市,鵠沼橘１丁目１番１２号ＭｉｌｋｅｙＷａｙ鵠沼,,14,205,2510024,,,,,,,2023-04-19,1,,,,,ニホンモンテッソーリコーチングキョウカイ,0
390,2030001153065,新規,0,2023-04-19,2023-04-19,マカバスマンパワー株式会社,,株式会社,埼玉県,久喜市,高柳２１４７番地２,,11,232,3491125,,,,,,,2023-04-19,1,,,,,マカバスマンパワー,0
391,2030001153420,新規,0,2023-04-19,2023-04-19,ＴＵＫＵＲＵ屋株式会社,,株式会社,埼玉県,川越市,四都野台６番地７,,11,201,3501163,,,,,,,2023-04-19,1,,,,,ツクルヤ,0
392,2030001153429,新規,0,2023-04-19,2023-04-19,株式会社ＩＭＧホールディングス,,株式会社,埼玉県,川口市,戸塚２丁目２１番３４号アルトピアーノ２Ｆ,,11,203,3330811,,,,,,,2023-04-19,1,,,,,アイエムジーホールディングス,0
393,2030003021609,新規,0,2023-04-19,2023-04-19,フォーシーズンジャパン合同会社,,合同会社,埼玉県,春日部市,梅田本町１丁目１０番１９号,,11,214,3440053,,,,,,,2023-04-19,1,,,,,フォーシーズンジャパン,0
394,2030005021193,新規,0,2023-04-19,2023-04-19,ＮＰＯ法人そらいろ,,その他の設立登記法人,埼玉県,志木市,館１丁目６番１２－２０４号,,11,228,3530006,,,,,,,2023-04-19,1,,,,,ソライロ,0
396,2040001127935,新規,0,2023-04-19,2023-04-19,ＢＫトレーディング株式会社,,株式会社,千葉県,白井市,中２９８番地の１８,,12,232,2701406,,,,,,,2023-04-19,1,,,,,ビーケイトレーディング,0
397,2040001127976,新規,0,2023-04-19,2023-04-19,株式会社丸商,,株式会社,千葉県,松戸市,河原塚３４２番地,,12,207,2702254,,,,,,,2023-04-19,1,,,,,マルショウ,0
398,2040001128017,新規,0,2023-04-19,2023-04-19,株式会社育成会,,株式会社,千葉県,市川市,南行徳１丁目２２番７－２０１号,,12,203,2720138,,,,,,,2023-04-19,1,,,,,イクセイカイ,0
399,2040001128033,新規,0,2023-04-19,2023-04-19,トウエイ株式会社,,株式会社,千葉県,浦安市,舞浜２丁目９－８,,12,227,2790031,,,,,,,2023-04-19,1,,,,,トウエイ,0
401,2040003022432,新規,0,2023-04-19,2023-04-19,合同会社ａｂｒａｓ,,合同会社,千葉県,野田市,つつみ野１丁目７番地の７,,12,208,2780038,,,,,,,2023-04-19,1,,,,,アブラス,0
404,2050003007424,新規,0,2023-04-19,2023-04-19,合同会社ケアオフィス霞ヶ浦,,合同会社,茨城県,かすみがうら市,稲吉４丁目８番９号,,08,230,3150054,,,,,,,2023-04-19,1,,,,,ケアオフィスカスミガウラ,0
423,2090001018089,新規,0,2023-04-19,2023-04-19,株式会社スタンドＵＰ,,株式会社,山梨県,韮崎市,大草町若尾１３９６番１ボンソレイユＢ１０２号室,,19,207,4070037,,,,,,,2023-04-19,1,,,,,スタンドアップ,0
431,2100003006973,新規,0,2023-04-19,2023-04-19,チヤントテーブルフアーム合同会社,,合同会社,長野県,松本市,梓川倭４５４番地５,,20,202,3901701,,,,,,,2023-04-19,1,,,,,チヤントテーブルフアーム,0
432,2100003006981,新規,0,2023-04-19,2023-04-19,革生活合同会社,,合同会社,長野県,茅野市,中大塩１０番地７０,,20,214,3910215,,,,,,,2023-04-19,1,,,,,カワセイカツ,0
435,2110005016929,新規,0,2023-04-19,2023-04-19,医療法人社団スーパースマイル新潟,,その他の設立登記法人,新潟県,新潟市東区,藤見町２丁目４番１４号,,15,102,9500025,,,,,,,2023-04-19,1,,,,,スーパースマイルニイガタ,0
441,2120001254077,新規,0,2023-04-19,2023-04-19,株式会社改星,,株式会社,大阪府,大阪市西成区,南津守３丁目７番１６号,,27,122,5570063,,,,,,,2023-04-19,1,,,,,カイセイ,0
442,2120001254085,新規,0,2023-04-19,2023-04-19,株式会社ＷｉｎＴｒｕｓｔ,,株式会社,大阪府,大阪市中央区,農人橋２丁目１番３１号第六松屋ビル,,27,128,5400011,,,,,,,2023-04-19,1,,,,,ウィントラスト,0
443,2120001254093,新規,0,2023-04-19,2023-04-19,松尾ホールディングス株式会社,,株式会社,大阪府,大阪市中央区,本町３丁目５番７号御堂筋本町ビル５階,,27,128,5410053,,,,,,,2023-04-19,1,,,,,マツオホールディングス,0
444,2120001254102,新規,0,2023-04-19,2023-04-19,株式会社ＯＨＴＡ,,株式会社,大阪府,寝屋川市,中神田町１２番２－１０１号,,27,215,5720053,,,,,,,2023-04-19,1,,,,,オオタ,0
445,2120001254119,新規,0,2023-04-19,2023-04-19,株式会社＿円,00130165,株式会社,大阪府,門真市,四宮２丁目６番２２号,,27,223,5710017,,,,,,,2023-04-19,1,,,,,テツマル,0
446,2120001254143,新規,0,2023-04-19,2023-04-19,株式会社笑福,00130164,株式会社,大阪府,大阪市城東区,諏訪４丁目２０番１０号,,27,118,5360021,,,,,,,2023-04-19,1,,,,,ショウフク,0
447,2120001254151,新規,0,2023-04-19,2023-04-19,株式会社フロンティア,,株式会社,大阪府,大阪市港区,波除４丁目２番１８号,,27,107,5520001,,,,,,,2023-04-19,1,,,,,フロンティア,0
448,2120001254168,新規,0,2023-04-19,2023-04-19,株式会社ｂ‐ｌｉｎｋ,,株式会社,大阪府,大阪市北区,梅田１丁目２番２号大阪駅前第２ビル１２－１２,,27,127,5300001,,,,,,,2023-04-19,1,,,,,ブリンク,0
451,2120003023868,新規,0,2023-04-19,2023-04-19,合同会社ＥｎＴｒｙ,,合同会社,大阪府,大阪市浪速区,恵美須西２丁目７番４号,,27,111,5560003,,,,,,,2023-04-19,1,,,,,エントリー,0
460,2130001074078,新規,0,2023-04-19,2023-04-19,ｚｅｒｏｓｔｅｐ株式会社,,株式会社,京都府,京都市左京区,北白川久保田町３１番地メゾン白水ＩＩ２０２号室,00130176,26,103,6068266,,,,,,,2023-04-19,1,,,,,ゼロステップ,0
470,2140001129806,新規,0,2023-04-19,2023-04-19,株式会社ビューティーファクトリー,,株式会社,兵庫県,川西市,加茂１丁目２１番１３号,,28,217,6660025,,,,,,,2023-04-19,1,,,,,ビューティーファクトリー,0
471,2140001129839,新規,0,2023-04-19,2023-04-19,株式会社あ’Ｓ　ＣＬＥＡＮ　ＳＥＲＶＩＣＥ,,株式会社,兵庫県,神戸市北区,有野町有野１６９０－１－１Ｆ,,28,109,6511312,,,,,,,2023-04-19,1,,,,,アズクリーンサービス,0
480,2160001024988,新規,0,2023-04-19,2023-04-19,アールコネクト株式会社,,株式会社,滋賀県,近江八幡市,安土町常楽寺６０番地,,25,204,5211351,,,,,,,2023-04-19,1,,,,,アールコネクト,0
482,2160003002851,新規,0,2023-04-19,2023-04-19,合同会社エンスージアスト,,合同会社,滋賀県,彦根市,城町２丁目６番６号シャトル城町３１２号,,25,202,5220068,,,,,,,2023-04-19,1,,,,,エンスージアスト,0
492,2180001155757,新規,0,2023-04-19,2023-04-19,株式会社エムエスビー,,株式会社,愛知県,名古屋市中区,千代田４丁目４－７フェリシタージ４０１,,23,106,4600012,,,,,,,2023-04-19,1,,,,,エムエスビー,0
493,2180001155914,新規,0,2023-04-19,2023-04-19,株式会社イエローフォース,,株式会社,愛知県,名古屋市中区,栄５丁目２６番３９号ＧＳ栄ビル３階,,23,106,4600008,,,,,,,2023-04-19,1,,,,,イエローフォース,0
499,2180003025140,新規,0,2023-04-19,2023-04-19,Ｔｗｉｌｉｇｈｔ合同会社,,合同会社,愛知県,春日井市,中央台７丁目２－１９,,23,206,4870011,,,,,,,2023-04-19,1,,,,,トゥワイライト,0
505,2190005011815,新規,0,2023-04-19,2023-04-19,大紀まちづくり協同組合,,その他の設立登記法人,三重県,度会郡大紀町,錦８７８番地１,,24,471,5192911,,,,,,,2023-04-19,1,,,,,タイキマチヅクリ,0
506,2200001041211,新規,0,2023-04-19,2023-04-19,株式会社ｔｅａｔｅ,,株式会社,岐阜県,岐阜市,栄新町２丁目７２番地２コーポ吉祥Ａ１,,21,201,5020849,,,,,,,2023-04-19,1,,,,,テアテ,0
508,2200005013470,新規,0,2023-04-19,2023-04-19,医療法人Ｅｉｒ,,その他の設立登記法人,岐阜県,本巣郡北方町,若宮１丁目７番地,,21,421,5010428,,,,,,,2023-04-19,1,,,,,エイル,0
511,2220001025369,新規,0,2023-04-19,2023-04-19,株式会社滝建,,株式会社,石川県,金沢市,木曳野４丁目２５４番地,,17,201,9200339,,,,,,,2023-04-19,1,,,,,タキケン,0
529,2260003004284,新規,0,2023-04-19,2023-04-19,久喜合名会社,,合名会社,岡山県,岡山市中区,湊８８０番地９２,,33,102,7038266,,,,,,,2023-04-19,1,,,,,クキ,0
534,2290001101238,新規,0,2023-04-19,2023-04-19,株式会社ＵＦ,,株式会社,福岡県,柳川市,筑紫町３２８番地,,40,207,8320077,,,,,,,2023-04-19,1,,,,,ユーエフ,0
537,2290005019006,新規,0,2023-04-19,2023-04-19,大川市漁業協同組合,,その他の設立登記法人,福岡県,大川市,大字小保１０１３番地１,,40,212,8310041,,,,,,福岡県大川市大字小保１０１３番地１大川漁業協同組合（8290005011262）と福岡県大川市大字大野島２８６４番地の１大野島漁業協同組合（6290005011264）と福岡県大川市大字新田１０９６番地の１１上新田漁業協同組合（4290005011266）の合併により設立,2023-04-19,1,,,,,オオカワシ,0
538,2290005019022,新規,0,2023-04-19,2023-04-19,一般社団法人子ども基地局,,その他の設立登記法人,福岡県,糟屋郡粕屋町,花ヶ浦１丁目２番１－１００３号パティオ福岡東Ｅ棟,,40,349,8112310,,,,,,,2023-04-19,1,,,,,コドモキチキョク,0
540,2290801029471,新規,0,2023-04-19,2023-04-19,北九プラント株式会社,,株式会社,福岡県,北九州市戸畑区,千防３丁目１２番２３号,,40,105,8040081,,,,,,,2023-04-19,1,,,,,キタキュウプラント,0
542,2300001013274,新規,0,2023-04-19,2023-04-19,株式会社ふれあいの里たちばな,,株式会社,佐賀県,武雄市,橘町大字片白４２５番地１,,41,206,8430012,,,,,,,2023-04-19,1,,,,,フレアイノサトタチバナ,0
546,2310005008674,新規,0,2023-04-19,2023-04-19,農事組合法人あづま,,その他の設立登記法人,長崎県,雲仙市,吾妻町阿母名１００８番地１,,42,213,8591116,,,,,,,2023-04-19,1,,,,,アヅマ,0
550,2350001018302,新規,0,2023-04-19,2023-04-19,霧島食品株式会社,,株式会社,宮崎県,都城市,安久町４７４１番地１,,45,202,8850044,,,,,,,2023-04-19,1,,,,,キリシマショクヒン,0
551,2350001018310,新規,0,2023-04-19,2023-04-19,アストロン製薬株式会社,,株式会社,宮崎県,宮崎市,千草町１番９号２９ビル２階,,45,201,8800006,,,,,,,2023-04-19,1,,,,,アストロンセイヤク,0
557,2370001049849,新規,0,2023-04-19,2023-04-19,石材施工パートナーズ株式会社,,株式会社,宮城県,本吉郡南三陸町,志津川字上の山２０２番地３,,04,606,9860751,,,,,,,2023-04-19,1,,,,,セキザイセコウパートナーズ,0
558,2370003006096,新規,0,2023-04-19,2023-04-19,合同会社ＧＡＴＥ,,合同会社,宮城県,亘理郡亘理町,逢隈字郡６０番地,00130170,04,361,9892385,,,,,,,2023-04-19,1,,,,,ゲート,0
560,2380001033629,新規,0,2023-04-19,2023-04-19,株式会社柳原建設,,株式会社,福島県,郡山市,田村町東山２丁目１番地の６,,07,203,9631156,,,,,,,2023-04-19,1,,,,,ヤギハラケンセツ,0
563,2390001017226,新規,0,2023-04-19,2023-04-19,株式会社ｒｕｎ　ｒｕｎ,,株式会社,山形県,鶴岡市,小中島字赤沼６７番地２,,06,203,9997632,,,,,,,2023-04-19,1,,,,,ランラン,0
564,2390001017234,新規,0,2023-04-19,2023-04-19,未来イエ株式会社,,株式会社,山形県,山形市,円応寺町８番６号,,06,201,9900052,,,,,,,2023-04-19,1,,,,,ミライエ,0
568,2400003003065,新規,0,2023-04-19,2023-04-19,龍韻合同会社,,合同会社,岩手県,花巻市,里川口町８番２号,,03,205,0250081,,,,,,,2023-04-19,1,,,,,リュウイン,0
570,2410005006511,新規,0,2023-04-19,2023-04-19,男鹿南秋田森林組合,,その他の設立登記法人,秋田県,南秋田郡五城目町,字杉ケ崎１０番地,,05,361,0181702,,,,,,秋田県男鹿市船川港船川字新浜町５０番地男鹿森林組合（9410005001596）と秋田県南秋田郡五城目町字杉ケ崎１０番地五城目森林組合（7410005001350）と秋田県潟上市飯田川下虻川字八ツ口７０番地湖東森林組合（1410005001356）の合併により設立,2023-04-19,1,,,,,オガミナミアキタ,0
577,2470001019585,新規,0,2023-04-19,2023-04-19,株式会社ｓｕｕｎｏ,,株式会社,香川県,綾歌郡綾川町,千疋５４２番地３,,37,387,7612102,,,,,,,2023-04-19,1,,,,,スーノ,0
583,2500003003022,新規,0,2023-04-19,2023-04-19,合同会社エーエヌディ,,合同会社,愛媛県,新居浜市,郷５丁目８番３０号,,38,205,7920886,,,,,,,2023-04-19,1,,,,,エーエヌディ,0
584,2700150115582,新規,0,2023-04-19,2023-04-19,ＹｕｎＹｉＦａｎ（ＳｈｅｎＺｈｅｎ）ＷａｎｇＬｕｏＫｅＪｉ　ＹｏｕＸｉａｎＧｏｎｇＳｉ,,外国会社等,,,,,,,,Ｌｏｎｇ　Ｇａｎｇ　Ｑｕ　Ｂａｎ　Ｔｉａｎ　Ｊｉｅ　Ｄａｏ　Ｄａ　Ｆａ　Ｐｕ　Ｓｈｅ　Ｑｕ　Ｂａｉ　Ｌｉ　Ｌｕ　６　Ｈａｏ　Ｘｉｎ　Ｙｉ　Ｙｕ　Ｌｏｎｇ　Ｈａｏ　Ｙｕａｎ　６　Ｄｏｎｇ　３０６　Ｓｈｅｎ　Ｚｈｅｎ　Ｇｕａｎｇ　Ｄｏｎｇ　Ｃｈｉｎａ,,,,,,2023-04-19,1,,,,,ユンイファンシンセンワンルオケジユウゲンコウシ,0
589,3010001234642,新規,0,2023-04-19,2023-04-19,日本工営ビジネスパートナーズ株式会社,,株式会社,東京都,千代田区,麹町５丁目４番地,,13,101,1020083,,,,,,,2023-04-19,1,,,,,ニホンコウエイビジネスパートナーズ,0
591,3010002056763,新規,0,2023-04-19,2023-04-19,有限会社蔦屋,,有限会社,東京都,千代田区,神田三崎町２丁目１１番１０号,,13,101,1010061,,,,,,,2023-04-19,1,,,,,ツタヤ,0
594,3010003040361,新規,0,2023-04-19,2023-04-19,合同会社Ｉｎｉｔｉａｔｅ　Ｇｌｏｂａｌ　Ｓｔｒａｔｅｇｉｅｓ,,合同会社,東京都,中央区,日本橋室町１丁目１１番１２号日本橋水野ビル７階,,13,102,1030022,,,,,,,2023-04-19,1,,,,,イニシエイトグローバルストラテジーズ,0
600,3010401173779,新規,0,2023-04-19,2023-04-19,株式会社Ｃａｐｉｔａｌ　Ｚ,,株式会社,東京都,港区,芝４丁目１６番２－Ｅ２２０６号,,13,103,1080014,,,,,,,2023-04-19,1,,,,,キャピタルゼット,0
601,3010401173829,新規,0,2023-04-19,2023-04-19,株式会社ウェルクス,,株式会社,東京都,港区,北青山３丁目６番地７号青山パラシオタワー１１階,,13,103,1070061,,,,,,,2023-04-19,1,,,,,ウェルクス,0
602,3010401173878,新規,0,2023-04-19,2023-04-19,ブライツパートナーズ株式会社,,株式会社,東京都,港区,南青山３丁目１番３６号青山丸竹ビル６階,,13,103,1070062,,,,,,,2023-04-19,1,,,,,ブライツパートナーズ,0
605,3010405021991,新規,0,2023-04-19,2023-04-19,ＡＰＬ　Ｈａｋｕｂａ　Ｓａｋｋａ　Ｄｅｖｅｌｏｐｍｅｎｔ特定目的会社,,その他の設立登記法人,東京都,港区,赤坂２丁目１０番５号税理士法人赤坂国際会計事務所内,,13,103,1070052,,,,,,,2023-04-19,1,,,,,エーピーエルハクバサッカディベロップメント,0
616,3010703006661,新規,0,2023-04-19,2023-04-19,合同会社ＴａｘＦｏｒｃｅ,,合同会社,東京都,品川区,西五反田２丁目１８番３号,,13,109,1410031,,,,,,,2023-04-19,1,,,,,タックスフォース,0
617,3010801033863,新規,0,2023-04-19,2023-04-19,株式会社ＸＭＩＲＡＣＬＥＳ,,株式会社,東京都,大田区,南六郷２丁目３２番８号,,13,111,1440045,,,,,,,2023-04-19,1,,,,,エックスミラクルズ,0
618,3010901052912,新規,0,2023-04-19,2023-04-19,株式会社ｓａｎｔａｌ,,株式会社,東京都,世田谷区,北烏山６丁目１１番３－２４０８号,,13,112,1570061,,,,,,,2023-04-19,1,,,,,サンタル,0
619,3010901052920,新規,0,2023-04-19,2023-04-19,株式会社進化,,株式会社,東京都,世田谷区,上馬２丁目３４番１０－４０７号,,13,112,1540011,,,,,,,2023-04-19,1,,,,,,0
622,3010905004471,新規,0,2023-04-19,2023-04-19,特定非営利活動法人ヴェーダビージャム,,その他の設立登記法人,東京都,世田谷区,松原４丁目１８番９号２０１,,13,112,1560043,,,,,,,2023-04-19,1,,,,,,0
628,3011001153675,新規,0,2023-04-19,2023-04-19,株式会社Ｓｐｕｒｅｓｔｏ,,株式会社,東京都,渋谷区,渋谷１丁目２３番２１－１３１０号渋谷キャスト,,13,113,1500002,,,,,,,2023-04-19,1,,,,,スプレスト,0
629,3011001153808,新規,0,2023-04-19,2023-04-19,株式会社Ｍｉｌｌｅ‐ｆｅｕｉｌｌｅ,,株式会社,東京都,渋谷区,神宮前６丁目２３番４号,,13,113,1500001,,,,,,,2023-04-19,1,,,,,ミルフィーユ,0
630,3011001153865,新規,0,2023-04-19,2023-04-19,株式会社Ｙｕｔｏ　Ｏｎｏ‐ＡＲＴ　ｏｆｆｉｃｅ,,株式会社,東京都,渋谷区,代々木４丁目２８番８－５０５号,,13,113,1510053,,,,,,,2023-04-19,1,,,,,ユウトオノアートオフィス,0
631,3011003016616,新規,0,2023-04-19,2023-04-19,合同会社緑,,合同会社,東京都,渋谷区,道玄坂１丁目１０番８号渋谷道玄坂東急ビル２Ｆ－Ｃ,,13,113,1500043,,,,,,,2023-04-19,1,,,,,,0
632,3011003016681,新規,0,2023-04-19,2023-04-19,ブリーザーズ合同会社,,合同会社,東京都,渋谷区,渋谷３丁目１番９号Ｙａｚａｗａビル４階,,13,113,1500002,,,,,,,2023-04-19,1,,,,,ブリーザーズ,0
637,3011103012969,新規,0,2023-04-19,2023-04-19,合同会社めい総合研究所,,合同会社,東京都,新宿区,早稲田鶴巻町５０６番地エスパス・ドウ３０１,,13,104,1620041,,,,,,,2023-04-19,1,,,,,メイソウゴウケンキュウショ,0
647,3011801042235,新規,0,2023-04-19,2023-04-19,ラヤマカンパニーホールディングス株式会社,,株式会社,東京都,葛飾区,東立石１丁目７番５号,,13,122,1240013,,,,,,,2023-04-19,1,,,,,ラヤマカンパニーホールディングス,0
652,3012401040447,新規,0,2023-04-19,2023-04-19,株式会社テンピース,,株式会社,東京都,三鷹市,下連雀６丁目１７－３４メゾン三鷹２０３,,13,204,1810013,,,,,,,2023-04-19,1,,,,,テンピース,0
653,3012701017616,新規,0,2023-04-19,2023-04-19,株式会社リラクション,,株式会社,東京都,東村山市,恩多町２丁目３番地２７,,13,213,1890011,,,,,,,2023-04-19,1,,,,,リラクション,0
655,3012801022292,新規,0,2023-04-19,2023-04-19,株式会社Ｈｅａｒｔｆｕｌ　Ｄａｙｓ,,株式会社,東京都,昭島市,東町４丁目１１番１２号ハーフムーン１Ｆ,,13,207,1960033,,,,,,,2023-04-19,1,,,,,ハートフルデイズ,0
667,3020001151226,新規,0,2023-04-19,2023-04-19,株式会社Ｎ‐ｂｅｌｌｅ,,株式会社,神奈川県,横浜市泉区,和泉町３２６０番地１コスモＡｏｉガレージハウス横浜ゆめが丘４号棟Ｃ号室,,14,116,2450016,,,,,,,2023-04-19,1,,,,,エヌベル,0
668,3020001151250,新規,0,2023-04-19,2023-04-19,株式会社百花商事,,株式会社,神奈川県,横浜市磯子区,磯子台２７番Ｈ－６０２号,,14,107,2350019,,,,,,,2023-04-19,1,,,,,モモカショウジ,0
679,3021001078756,新規,0,2023-04-19,2023-04-19,ＴＯＹＯＴＡＫＡ．ＷＯＲＫＳ株式会社,,株式会社,神奈川県,平塚市,大神２６１９番地の１７,,14,203,2540012,,,,,,,2023-04-19,1,,,,,トヨタカワークス,0
680,3021001078764,新規,0,2023-04-19,2023-04-19,株式会社アイビールーフ,,株式会社,神奈川県,茅ヶ崎市,下寺尾１５７２番地７,,14,207,2530081,,,,,,,2023-04-19,1,,,,,アイビールーフ,0
685,3021003012977,新規,0,2023-04-19,2023-04-19,ティエムキット合同会社,,合同会社,神奈川県,厚木市,緑ケ丘５丁目９番９号,,14,212,2430041,,,,,,,2023-04-19,1,,,,,ティエムキット,0
691,3030001153403,新規,0,2023-04-19,2023-04-19,嘉川株式会社,,株式会社,埼玉県,蕨市,塚越５丁目５０番１６号,,11,223,3350002,,,,,,,2023-04-19,1,,,,,ヨシカワ,0
692,3030001153428,新規,0,2023-04-19,2023-04-19,株式会社タクテック,,株式会社,埼玉県,熊谷市,妻沼５７３番地１０,,11,202,3600201,,,,,,,2023-04-19,1,,,,,タクテック,0
693,3030001153436,新規,0,2023-04-19,2023-04-19,株式会社ｓｐｅｅｄ,,株式会社,埼玉県,吉川市,大字八子新田８９２番地,,11,243,3420003,,,,,,,2023-04-19,1,,,,,スピード,0
694,3030001153460,新規,0,2023-04-19,2023-04-19,株式会社グッドラック,,株式会社,埼玉県,春日部市,永沼１３０５番地１,,11,214,3440123,,,,,,,2023-04-19,1,,,,,グッドラック,0
695,3030001153485,新規,0,2023-04-19,2023-04-19,ＴＭＵ株式会社,,株式会社,埼玉県,戸田市,川岸１丁目４番８号ファインレジデンス戸田公園６１３,,11,224,3350015,,,,,,,2023-04-19,1,,,,,ティーエムユー,0
696,3030001153493,新規,0,2023-04-19,2023-04-19,大福株式会社,,株式会社,埼玉県,川口市,上青木西３丁目２番１１号,,11,203,3330845,,,,,,,2023-04-19,1,,,,,ダイフク,0
698,3030003021574,新規,0,2023-04-19,2023-04-19,合同会社ｆｕｔｕｒｏ,,合同会社,埼玉県,入間市,下藤沢３丁目３９－１７ゴールドコーストスウィート１０８号室,,11,225,3580011,,,,,,,2023-04-19,1,,,,,フトゥーロ,0
699,3030003021582,新規,0,2023-04-19,2023-04-19,合同会社一翔工業,,合同会社,埼玉県,狭山市,大字堀兼２４３６番地の１９,,11,215,3501312,,,,,,,2023-04-19,1,,,,,カズトコウギョウ,0
700,3030003021608,新規,0,2023-04-19,2023-04-19,合同会社Ｂｌｕｅ　ｉｎｎｏｖａｔｉｏｎ,,合同会社,埼玉県,越谷市,蒲生寿町５番２８号キャステル蒲生壱番館２０１,,11,222,3430836,,,,,,,2023-04-19,1,,,,,ブルーイノベーション,0
708,3040001128032,新規,0,2023-04-19,2023-04-19,株式会社トラミ・ベイ,,株式会社,千葉県,長生郡一宮町,東浪見２６７－１,,12,421,2994303,,,,,,,2023-04-19,1,,,,,トラミベイ,0
713,3040003022423,新規,0,2023-04-19,2023-04-19,ケイグロース合同会社,,合同会社,千葉県,松戸市,五香南３丁目１５番地の１７,,12,207,2702212,,,,,,,2023-04-19,1,,,,,ケイグロース,0
714,3050001052719,新規,0,2023-04-19,2023-04-19,株式会社アリクイ消毒,,株式会社,茨城県,石岡市,行里川６番１３号,,08,205,3150022,,,,,,,2023-04-19,1,,,,,アリクイショウドク,0
727,3080401026443,新規,0,2023-04-19,2023-04-19,株式会社浜松近未来マネジメント,,株式会社,静岡県,浜松市中区,神田町３９５番地の１,,22,131,4328047,,,,,,,2023-04-19,1,,,,,ハママツキンミライマネジメント,0
731,3090001018088,新規,0,2023-04-19,2023-04-19,株式会社ＡＬＵＣＡＺ,,株式会社,山梨県,笛吹市,石和町市部８２２番地,,19,211,4060031,,,,,,,2023-04-19,1,,,,,アルカス,0
746,3120001253994,新規,0,2023-04-19,2023-04-19,株式会社ＳＵＮＳＨＩＮＥ,,株式会社,大阪府,大阪市西淀川区,千舟２丁目１２番６号,,27,113,5550013,,,,,,,2023-04-19,1,,,,,サンシャイン,0
747,3120001254084,新規,0,2023-04-19,2023-04-19,株式会社ＨＲ＆Ｂ,,株式会社,大阪府,大阪市北区,梅田２丁目２番２号ヒルトンプラザウエスト１９階,,27,127,5300001,,,,,,,2023-04-19,1,,,,,エッチアールアンドビー,0
748,3120001254092,新規,0,2023-04-19,2023-04-19,株式会社ＤＳＳ,,株式会社,大阪府,大阪市中央区,瓦町３丁目３番１６号ＯＷＬ瓦町ビル４Ｆ,,27,128,5410048,,,,,,,2023-04-19,1,,,,,ディーエスエス,0
749,3120001254126,新規,0,2023-04-19,2023-04-19,株式会社Ａｆｔｅｒ　Ｊｉｍｉｎａ,,株式会社,大阪府,大阪市西区,北堀江１丁目２３番１１－７０４号,,27,106,5500014,,,,,,,2023-04-19,1,,,,,アフタージミナ,0
750,3120001254142,新規,0,2023-04-19,2023-04-19,太翔株式会社,,株式会社,大阪府,大阪市西成区,萩之茶屋２丁目５番２５－３０６号,,27,122,5570004,,,,,,,2023-04-19,1,,,,,タイショウ,0
751,3120001254167,新規,0,2023-04-19,2023-04-19,株式会社ＪＤ‐ＴＥＣＨ,,株式会社,大阪府,門真市,大池町２３番２３－３号,,27,223,5710076,,,,,,,2023-04-19,1,,,,,ジェーディーテック,0
752,3120001254183,新規,0,2023-04-19,2023-04-19,株式会社ＥＸｓｔａｔｅ,,株式会社,大阪府,大阪市中央区,淡路町３丁目１番８号,,27,128,5410047,,,,,,,2023-04-19,1,,,,,エクステート,0
754,3120003023842,新規,0,2023-04-19,2023-04-19,合同会社Ｂ＆Ｂ　Ｃｏｒｐ．,,合同会社,大阪府,守口市,本町１丁目２番５号,,27,209,5700028,,,,,,,2023-04-19,1,,,,,ビーアンドビーコーポレーション,0
755,3120003023875,新規,0,2023-04-19,2023-04-19,合同会社Ｖｉｇｏ,,合同会社,大阪府,大阪市阿倍野区,松崎町２丁目９番２１－２０５号,,27,119,5450053,,,,,,,2023-04-19,1,,,,,ビーゴ,0
756,3120101067394,新規,0,2023-04-19,2023-04-19,エレクワークス株式会社,,株式会社,大阪府,南河内郡河南町,大宝２丁目１１番１３号,,27,382,5850005,,,,,,,2023-04-19,1,,,,,エレクワークス,0
758,3120901047439,新規,0,2023-04-19,2023-04-19,株式会社ＴＥ設計,,株式会社,大阪府,高槻市,芥川町１丁目１０－２４,,27,207,5691123,,,,,,,2023-04-19,1,,,,,ティーイーセッケイ,0
761,3130001074093,新規,0,2023-04-19,2023-04-19,株式会社導工業,,株式会社,京都府,京都市右京区,梅津尻溝町６８番地２,00130175,26,108,6150924,,,,,,,2023-04-19,1,,,,,ミチビクコウギョウ,0
762,3130001074119,新規,0,2023-04-19,2023-04-19,株式会社Ｊｙｏｓｈｏ,,株式会社,京都府,京都市山科区,竹鼻立原町５番地５藤和ライブタウン山科２１３号,,26,110,6078084,,,,,,,2023-04-19,1,,,,,ジョウショウ,0
763,3130001074127,新規,0,2023-04-19,2023-04-19,株式会社Ｘ‐ＯＮＥ,,株式会社,京都府,久世郡久御山町,島田古堤防中村３４－１,,26,322,6130043,,,,,,,2023-04-19,1,,,,,クロスワン,0
764,3130001074135,新規,0,2023-04-19,2023-04-19,株式会社ＬＵＤＩＣＲＯＵＳ,,株式会社,京都府,京都市下京区,七条通油小路東入大黒町２２７番地第２キョートビル４０２,,26,106,6008223,,,,,,,2023-04-19,1,,,,,ルディキュラス,0
767,3130003008669,新規,0,2023-04-19,2023-04-19,Ｌｅｖｉａｔｈａｎ合同会社,,合同会社,京都府,京都市山科区,安朱東海道町６５番地２７,,26,110,6078008,,,,,,,2023-04-19,1,,,,,レヴィアタン,0
768,3130003008677,新規,0,2023-04-19,2023-04-19,合同会社いろは,,合同会社,京都府,京都市右京区,常盤馬塚町１２,,26,108,6168225,,,,,,,2023-04-19,1,,,,,イロハ,0
773,3140001129805,新規,0,2023-04-19,2023-04-19,株式会社ＣＯＭＥ　ＴＲＵＥ,,株式会社,兵庫県,淡路市,大磯８番地７,,28,226,6562302,,,,,,,2023-04-19,1,,,,,カムトゥルー,0
785,3160001024979,新規,0,2023-04-19,2023-04-19,株式会社テイクオフン,,株式会社,滋賀県,守山市,金森町５１２番地３,,25,207,5240045,,,,,,,2023-04-19,1,,,,,テイクオフン,0
787,3160003002850,新規,0,2023-04-19,2023-04-19,合同会社庫平,,合同会社,滋賀県,長浜市,末広町６番１８号,,25,203,5260063,,,,,,,2023-04-19,1,,,,,コヘイ,0
792,3180001155905,新規,0,2023-04-19,2023-04-19,ａｎｄＵ株式会社,,株式会社,愛知県,一宮市,伊勢町馬寄字下町屋９番地３,,23,203,4910000,,,,,,,2023-04-19,1,,,,,アンドユー,0
793,3180001155954,新規,0,2023-04-19,2023-04-19,Ａ‐Ｗｅｌｌｂｅ株式会社,,株式会社,愛知県,春日井市,上条町３丁目５７番地１,,23,206,4860833,,,,,,,2023-04-19,1,,,,,エーウェルビー,0
794,3180003025148,新規,0,2023-04-19,2023-04-19,ＨＳＫ合同会社,,合同会社,愛知県,春日井市,坂下町２丁目９３６番地１２,,23,206,4800305,,,,,,,2023-04-19,1,,,,,エイチエスケー,0
796,3180301037332,新規,0,2023-04-19,2023-04-19,株式会社おこめいと,,株式会社,愛知県,岡崎市,大和町字鳥ケ城５３番地１,,23,202,4440931,,,,,,,2023-04-19,1,,,,,オコメイト,0
799,3190001030347,新規,0,2023-04-19,2023-04-19,ぴーす株式会社,,株式会社,三重県,津市,南が丘３丁目１７番８号,,24,201,5140822,,,,,,,2023-04-19,1,,,,,,0
801,3220001025368,新規,0,2023-04-19,2023-04-19,株式会社トーシンフロント,,株式会社,石川県,小松市,北浅井町と１７番,,17,203,9230851,,,,,,,2023-04-19,1,,,,,トーシンフロント,0
804,3240001061378,新規,0,2023-04-19,2023-04-19,株式会社Ｓ．Ｇｒｏｕｐ,,株式会社,広島県,廿日市市,宮内３４９１番地,,34,213,7380034,,,,,,,2023-04-19,1,,,,,エスグループ,0
811,3260003004283,新規,0,2023-04-19,2023-04-19,合同会社ＹＫラボ,,合同会社,岡山県,岡山市南区,豊成３丁目２０‐６‐１クレオールＣ棟,,33,104,7000942,,,,,,,2023-04-19,1,,,,,ワイケーラボ,0
815,3290001101212,新規,0,2023-04-19,2023-04-19,株式会社ＬＩＮＫ　ＵＰパートナーズ,,株式会社,福岡県,福岡市西区,今宿３丁目３９番１５号,,40,135,8190167,,,,,,,2023-04-19,1,,,,,リンクアップパートナーズ,0
818,3290003013793,新規,0,2023-04-19,2023-04-19,合同会社農家Ｋ‐ＦＡＲＭ,,合同会社,福岡県,みやま市,山川町甲田１００８番地２,,40,229,8350114,,,,,,,2023-04-19,1,,,,,ノウカケーファーム,0
819,3290801029479,新規,0,2023-04-19,2023-04-19,馬場工務店株式会社,,株式会社,福岡県,田川郡香春町,大字鏡山４５３番地５,,40,601,8221402,,,,,,,2023-04-19,1,,,,,ババコウムテン,0
820,3290805009650,新規,0,2023-04-19,2023-04-19,社会福祉法人政芳会,,その他の設立登記法人,福岡県,田川郡福智町,伊方４１３８,,40,610,8221211,,,,,,,2023-04-19,1,,,,,セイホウカイ,0
823,3310001018370,新規,0,2023-04-19,2023-04-19,株式会社リビオオミサキ,,株式会社,長崎県,長崎市,飽の浦町１６番２５号片岡アパート２０１,,42,201,8500063,,,,,,,2023-04-19,1,,,,,リビオオミサキ,0
834,3350001018301,新規,0,2023-04-19,2023-04-19,株式会社ＲＥＸＥＲ,,株式会社,宮崎県,都城市,牟田町１９街区１１号ギンザハウスビル１階５号室,,45,202,8850079,,,,,,,2023-04-19,1,,,,,レクシア,0
841,3360003012879,新規,0,2023-04-19,2023-04-19,合同会社志茂,,合同会社,沖縄県,糸満市,西崎２丁目３５番３－３０２号,,47,210,9010305,,,,,,,2023-04-19,1,,,,,,0
842,3360003012887,新規,0,2023-04-19,2023-04-19,合同会社琉光建設,,合同会社,沖縄県,沖縄市,比屋根１丁目１６番９号セゾンナカマツ５０１号室,,47,211,9042173,,,,,,,2023-04-19,1,,,,,リュウコウケンセツ,0
846,3370003006095,新規,0,2023-04-19,2023-04-19,合同会社ラポールローゼス,,合同会社,宮城県,仙台市太白区,長町７丁目１９－２３ＴＫ７ビル２Ｆ,,04,104,9820011,,,,,,,2023-04-19,1,,,,,ラポールローゼス,0
851,3380001033628,新規,0,2023-04-19,2023-04-19,株式会社ＰＣ‐ＴＥＣＨ,,株式会社,福島県,福島市,西中央４丁目８１番４号,,07,201,9608074,,,,,,,2023-04-19,1,,,,,ピーシーテック,0
854,3380003005443,新規,0,2023-04-19,2023-04-19,合同会社不動産直売所,,合同会社,福島県,福島市,大波字戸石８７番地の１,,07,201,9600811,,,,,,,2023-04-19,1,,,,,フドウサンチョクバイジョ,0
859,3390001017233,新規,0,2023-04-19,2023-04-19,久四郎アドバンス株式会社,,株式会社,山形県,米沢市,成島町１丁目６番５２号,,06,202,9920057,,,,,,,2023-04-19,1,,,,,キュウシロウアドバンス,0
864,3430001088864,新規,0,2023-04-19,2023-04-19,株式会社Ｖｅｒｓａｉｌｌｅｓ,,株式会社,北海道,沙流郡日高町,字庫富７４６番地の４,,01,601,0592124,,,,,,,2023-04-19,1,,,,,ヴェルサイユ,0
865,3430001088889,新規,0,2023-04-19,2023-04-19,株式会社ＹＳ不動産,,株式会社,北海道,札幌市白石区,本郷通２丁目北５番１５号,,01,104,0030025,,,,,,,2023-04-19,1,,,,,ワイエスフドウサン,0
866,3430003014959,新規,0,2023-04-19,2023-04-19,合同会社Ｋ＆Ｍコーポレーション,,合同会社,北海道,札幌市北区,北二十一条西７丁目２番３２号デベックス２１７－４０５号,,01,102,0010021,,,,,,,2023-04-19,1,,,,,ケーアンドエムコーポレーション,0
873,3500003003021,新規,0,2023-04-19,2023-04-19,合同会社ｃｌａｓｓｉｃｏ,,合同会社,愛媛県,松山市,湊町３丁目８番地１６,,38,201,7900012,,,,,,,2023-04-19,1,,,,,クラシコ,0
899,4010401173662,新規,0,2023-04-19,2023-04-19,ＨＯＰＥ株式会社,,株式会社,東京都,港区,新橋４丁目２２番４号,,13,103,1050004,,,,,,,2023-04-19,1,,,,,ホープ,0
900,4010401173778,新規,0,2023-04-19,2023-04-19,株式会社ＵＮＩＴ　ＺＥＲＯ,,株式会社,東京都,港区,浜松町２丁目２－１５浜松町ダイヤビル２Ｆ,,13,103,1050013,,,,,,,2023-04-19,1,,,,,ユニットゼロ,0
901,4010401173828,新規,0,2023-04-19,2023-04-19,株式会社パースペクティブ・エンターテイメント,,株式会社,東京都,港区,虎ノ門１丁目１７番１号虎ノ門ヒルズビジネスタワー１５階,,13,103,1050001,,,,,,,2023-04-19,1,,,,,パースペクティブエンターテイメント,0
902,4010403029870,新規,0,2023-04-19,2023-04-19,合同会社ＷＥＷＡＷＯＯ　ＰＴＥ,,合同会社,東京都,港区,赤坂６丁目１９番５０号レジディア六本木檜町公園１０５号,,13,103,1070052,,,,,,,2023-04-19,1,,,,,ウィウァウピティイ,0
903,4010403029937,新規,0,2023-04-19,2023-04-19,合同会社ｌｉｎｋ,,合同会社,東京都,港区,新橋２丁目１５番１２号,,13,103,1050004,,,,,,,2023-04-19,1,,,,,リンク,0
904,4010403029945,新規,0,2023-04-19,2023-04-19,Ｒ＆Ｒシーシャ合同会社,,合同会社,東京都,港区,南青山３丁目５－２南青山第一韮沢ビル３Ｆ,,13,103,1070062,,,,,,,2023-04-19,1,,,,,アールアンドアールシーシャ,0
905,4010403029953,新規,0,2023-04-19,2023-04-19,合同会社Ｒｍ,,合同会社,東京都,港区,南青山３丁目１番３６号青山丸竹ビル６Ｆ,,13,103,1070062,,,,,,,2023-04-19,1,,,,,アールエム,0
912,4010601062962,新規,0,2023-04-19,2023-04-19,株式会社ＮｏｎａＣａｎｖａｓ,,株式会社,東京都,江東区,清澄３丁目６－１５オープンレジデンシア清澄白河６０３,,13,108,1350024,,,,,,,2023-04-19,1,,,,,ノナキャンバス,0
914,4010901052894,新規,0,2023-04-19,2023-04-19,株式会社ラインサン,,株式会社,東京都,世田谷区,奥沢２丁目８番１０号,,13,112,1580083,,,,,,,2023-04-19,1,,,,,ラインサン,0
916,4010903008102,新規,0,2023-04-19,2023-04-19,合同会社ＳＦＣ,,合同会社,東京都,世田谷区,成城４丁目２３番１２号,,13,112,1570066,,,,,,,2023-04-19,1,,,,,エスエフシー,0
921,4011001153831,新規,0,2023-04-19,2023-04-19,株式会社サイフォース,,株式会社,東京都,渋谷区,神宮前６丁目２３番４号,,13,113,1500001,,,,,,,2023-04-19,1,,,,,サイフォース,0
922,4011001153848,新規,0,2023-04-19,2023-04-19,ＦＧ　Ｅｎｔｅｒｔａｉｎｍｅｎｔ株式会社,,株式会社,東京都,渋谷区,元代々木町２７番１４号,,13,113,1510062,,,,,,,2023-04-19,1,,,,,エフジーエンターテイメント,0
923,4011001153864,新規,0,2023-04-19,2023-04-19,Ｔ．Ｋ．Ｄホールディングス株式会社,,株式会社,東京都,渋谷区,東１丁目２６番２０号,,13,113,1500011,,,,,,,2023-04-19,1,,,,,ティーケーディーホールディングス,0
924,4011001153889,新規,0,2023-04-19,2023-04-19,株式会社４象限,,株式会社,東京都,渋谷区,渋谷３丁目６番２号エクラート渋谷５Ｆ,,13,113,1500002,,,,,,,2023-04-19,1,,,,,ヨンショウゲン,0
925,4011001153906,新規,0,2023-04-19,2023-04-19,株式会社側,,株式会社,東京都,渋谷区,宇田川町１９番５号,,13,113,1500042,,,,,,,2023-04-19,1,,,,,ガワ,0
926,4011001153914,新規,0,2023-04-19,2023-04-19,ＥＶＡＳＳ株式会社,,株式会社,東京都,目黒区,東が丘１丁目１６番１７号泰山館３０２,,13,110,1520021,,,,,,,2023-04-19,1,,,,,エヴァス,0
930,4011101102556,新規,0,2023-04-19,2023-04-19,株式会社アークホーム,,株式会社,東京都,新宿区,西新宿７丁目５－５プラザ西新宿３０９,,13,104,1600023,,,,,,,2023-04-19,1,,,,,,0
938,4011401025060,新規,0,2023-04-19,2023-04-19,株式会社ぼくの船,,株式会社,東京都,板橋区,徳丸１丁目５２－１１,,13,119,1750083,,,,,,,2023-04-19,1,,,,,ボクノフネ,0
941,4011605002509,新規,0,2023-04-19,2023-04-19,一般社団法人たねまき,,その他の設立登記法人,東京都,練馬区,石神井町２丁目１４番１－１６０３号,,13,120,1770041,,,,,,,2023-04-19,1,,,,,タネマキ,0
942,4011701026155,新規,0,2023-04-19,2023-04-19,株式会社睦ミ,,株式会社,東京都,江戸川区,南葛西４丁目１８－１９センチュリー葛西グリーンフィールド７０７,,13,123,1340085,,,,,,,2023-04-19,1,,,,,ムツミ,0
948,4012305002047,新規,0,2023-04-19,2023-04-19,一般社団法人スローフラワー協会,,その他の設立登記法人,東京都,町田市,能ヶ谷７丁目４６－３,,13,209,1950053,,,,,,,2023-04-19,1,,,,,スローフラワーキョウカイ,0
962,4020001151191,新規,0,2023-04-19,2023-04-19,株式会社ＴＥＬＬＩＮＧ,,株式会社,神奈川県,横浜市神奈川区,上反町２丁目２０番地１,,14,102,2210831,,,,,,,2023-04-19,1,,,,,テリング,0
966,4020003023711,新規,0,2023-04-19,2023-04-19,合同会社ｙｏｕｒ　ｃａｒｅｅｒ,,合同会社,神奈川県,川崎市宮前区,馬絹４丁目４４－３０,,14,136,2160035,,,,,,,2023-04-19,1,,,,,ユアキャリア,0
967,4020005015962,新規,0,2023-04-19,2023-04-19,行政書士法人エムコミュー,,その他の設立登記法人,神奈川県,川崎市高津区,久本２丁目６番８号,,14,134,2130011,,,,,,,2023-04-19,1,,,,,エムコミュー,0
972,4021001078755,新規,0,2023-04-19,2023-04-19,株式会社山崎,,株式会社,神奈川県,横須賀市,大矢部１丁目１０番３号,,14,201,2380024,,,,,,,2023-04-19,1,,,,,ヤマザキ,0
973,4021001078763,新規,0,2023-04-19,2023-04-19,株式会社ＭＩＡＮ　ＩＮＴＥＲＮＡＴＩＯＮＡＬ,,株式会社,神奈川県,厚木市,山際５７６番地２－２０３,,14,212,2430803,,,,,,,2023-04-19,1,,,,,ミアンインターナショナル,0
974,4021003013000,新規,0,2023-04-19,2023-04-19,ＳＨＡＨＡＤ　ＴＲＡＤＩＮＧ合同会社,,合同会社,神奈川県,相模原市南区,大野台４丁目２５番２号ジュネス相模原ＩＩ２０２,00130166,14,153,2520331,,,,,,,2023-04-19,1,,,,,シャハドトレーディング,0
975,4021005012792,新規,0,2023-04-19,2023-04-19,一般社団法人半原宮大工集団,,その他の設立登記法人,神奈川県,愛甲郡愛川町,半原２８２４番地,,14,401,2430307,,,,,,,2023-04-19,1,,,,,ハンバラミヤダイクシュウダン,0
979,4030001153468,新規,0,2023-04-19,2023-04-19,株式会社ＭＡＮ,,株式会社,埼玉県,越谷市,千間台西２丁目４番地２１グランドゥール越谷３０３,,11,222,3430041,,,,,,,2023-04-19,1,,,,,エムエーエヌ,0
980,4030001153484,新規,0,2023-04-19,2023-04-19,Ｗ．Ｙ＿葉株式会社,00130174,株式会社,埼玉県,川口市,西川口１丁目６番１号小野田ビル８０１号,,11,203,3320021,,,,,,,2023-04-19,1,,,,,ダブリュウワイキンヨウ,0
981,4030001153492,新規,0,2023-04-19,2023-04-19,心愛美建株式会社,,株式会社,埼玉県,所沢市,大字山口７４５番地の７,,11,208,3591145,,,,,,,2023-04-19,1,,,,,シンアイビケン,0
982,4030001153501,新規,0,2023-04-19,2023-04-19,ＴＨ株式会社,,株式会社,埼玉県,草加市,谷塚上町２１６番地,,11,221,3400024,,,,,,,2023-04-19,1,,,,,ティーエイチ,0
985,4030003021581,新規,0,2023-04-19,2023-04-19,合同会社茶の間,,合同会社,埼玉県,鴻巣市,松原１丁目１番３５号,,11,217,3650042,,,,,,,2023-04-19,1,,,,,チャノマ,0
986,4030003021598,新規,0,2023-04-19,2023-04-19,合同会社平松美装,,合同会社,埼玉県,川口市,東本郷２丁目１９番２１号コーポタカノ１０号,,11,203,3340063,,,,,,,2023-04-19,1,,,,,ヒラマツビソウ,0
992,4040001128023,新規,0,2023-04-19,2023-04-19,なかの雲株式会社,,株式会社,千葉県,市川市,八幡１丁目１２番１号コスモメンテナンスビル１Ｆ,,12,203,2720021,,,,,,,2023-04-19,1,,,,,ナカノクモ,0
993,4040001128031,新規,0,2023-04-19,2023-04-19,Ｔｏｋｙｏ　ｔｒａｄｉｎｇ株式会社,,株式会社,千葉県,野田市,関宿台町２８８３番地１,,12,208,2700202,,,,,,,2023-04-19,1,,,,,トウキョウトレーディング,0
995,4040003022414,新規,0,2023-04-19,2023-04-19,合同会社Ｇｒａｚｉｅ,,合同会社,千葉県,浦安市,弁天４丁目１９番１６号,,12,227,2790026,,,,,,,2023-04-19,1,,,,,グラッツィエ,0
996,4040003022422,新規,0,2023-04-19,2023-04-19,アライアンス合同会社,,合同会社,千葉県,鎌ケ谷市,新鎌ケ谷４丁目４番２５号,,12,224,2730107,,,,,,,2023-04-19,1,,,,,アライアンス,0
997,4040003022430,新規,0,2023-04-19,2023-04-19,合同会社イート,,合同会社,千葉県,千葉市花見川区,幕張本郷６丁目２０番２４号,,12,102,2620033,,,,,,,2023-04-19,1,,,,,イート,0
1000,4050001052701,新規,0,2023-04-19,2023-04-19,株式会社椿輝,,株式会社,茨城県,稲敷郡阿見町,大字阿見４９６０番地,,08,443,3000331,,,,,,,2023-04-19,1,,,,,ツバキ,0
1003,4050003007430,新規,0,2023-04-19,2023-04-19,合同会社和,,合同会社,茨城県,かすみがうら市,上佐谷５９７番地４,,08,230,3150065,,,,,,,2023-04-19,1,,,,,ナゴミ,0
1016,4080101023921,新規,0,2023-04-19,2023-04-19,株式会社一準,,株式会社,静岡県,裾野市,富沢５６番地の１,,22,220,4101125,,,,,,,2023-04-19,1,,,,,イチジュン,0
1021,4100001036343,新規,0,2023-04-19,2023-04-19,株式会社ｅｆｆｏｒｔ,,株式会社,長野県,松本市,大字島内４４６番地５,,20,202,3900851,,,,,,,2023-04-19,1,,,,,エフォート,0
1047,4120001254100,新規,0,2023-04-19,2023-04-19,美佳株式会社,,株式会社,大阪府,大阪市住吉区,東粉浜１丁目４－２２,,27,120,5580051,,,,,,,2023-04-19,1,,,,,ミヨシ,0
1048,4120001254109,新規,0,2023-04-19,2023-04-19,株式会社浜口建設,,株式会社,大阪府,大阪市東住吉区,田辺４丁目１番２３－５０５号,,27,121,5460031,,,,,,,2023-04-19,1,,,,,ハマグチケンセツ,0
1049,4120001254117,新規,0,2023-04-19,2023-04-19,株式会社インターデザイン・オキ,,株式会社,大阪府,大阪市都島区,高倉町１丁目９番２８－７０２号,,27,102,5340011,,,,,,,2023-04-19,1,,,,,インターデザインオキ,0
1050,4120001254125,新規,0,2023-04-19,2023-04-19,株式会社Ｍａｒｃｏ,,株式会社,大阪府,大阪市北区,中之島６丁目１番３８－１７１９号,,27,127,5300005,,,,,,,2023-04-19,1,,,,,マルコ,0
1051,4120001254133,新規,0,2023-04-19,2023-04-19,株式会社ＲａｎｄＴ,,株式会社,大阪府,大阪市東成区,東小橋１丁目１１番２号１階,,27,115,5370024,,,,,,,2023-04-19,1,,,,,アールアンドティ,0
1052,4120001254141,新規,0,2023-04-19,2023-04-19,株式会社Ａｍｐｅｒｓａｎｄ　Ｊａｐａｎ,,株式会社,大阪府,大阪市中央区,難波２丁目３番１１号,,27,128,5420076,,,,,,,2023-04-19,1,,,,,アンパサンドジャパン,0
1053,4120001254158,新規,0,2023-04-19,2023-04-19,ＫＦＹ永恒株式会社,,株式会社,大阪府,大阪市浪速区,大国１丁目７－２１華菱ビル２０２,,27,111,5560014,,,,,,,2023-04-19,1,,,,,ケイエフワイエイツウ,0
1054,4120001254166,新規,0,2023-04-19,2023-04-19,株式会社ＯＮＥ　ＦＯＲ　ＡＬＬ,,株式会社,大阪府,大阪市北区,中崎西１丁目９番６号,,27,127,5300015,,,,,,,2023-04-19,1,,,,,ワンフォーオール,0
1055,4120001254208,新規,0,2023-04-19,2023-04-19,日本グローバルサービス株式会社,,株式会社,大阪府,大阪市淀川区,西中島３丁目１８番９号新大阪日大ビル４階４１５Ａ号室,,27,123,5320011,,,,,,,2023-04-19,1,,,,,ニホングローバルサービス,0
1058,4120003023833,新規,0,2023-04-19,2023-04-19,合同会社Ｌｉｆｅ　ｉｓ　Ｍｉｎｅ,,合同会社,大阪府,大阪市港区,八幡屋３丁目１２番２３号,,27,107,5520014,,,,,,,2023-04-19,1,,,,,ライフイズマイン,0
1059,4120003023858,新規,0,2023-04-19,2023-04-19,ＥＬＥＣＥＡＳＥ合同会社,,合同会社,大阪府,大阪市生野区,新今里２丁目９－１－３Ｂ,,27,116,5440001,,,,,,,2023-04-19,1,,,,,エレシース,0
1060,4120003023866,新規,0,2023-04-19,2023-04-19,Ｖｉｌｌａｉｎｓ　Ｄｅａｌ合同会社,,合同会社,大阪府,大阪市住之江区,粉浜２丁目１１番２０号,,27,125,5590001,,,,,,,2023-04-19,1,,,,,ヴィランスディール,0
1061,4120003023874,新規,0,2023-04-19,2023-04-19,合同会社モーニングスター,,合同会社,大阪府,大阪市淀川区,西中島３丁目１５番１１号,,27,123,5320011,,,,,,,2023-04-19,1,,,,,モーニングスター,0
1073,4130001074150,新規,0,2023-04-19,2023-04-19,株式会社タナカホーム,,株式会社,京都府,京都市西京区,大原野北春日町５８７番地,,26,111,6101152,,,,,,,2023-04-19,1,,,,,タナカホーム,0
1087,4140001129804,新規,0,2023-04-19,2023-04-19,株式会社ＣＯＮＮＥＸＴ,,株式会社,兵庫県,神戸市中央区,加納町２丁目７番１４－１００５号,,28,110,6500001,,,,,,,2023-04-19,1,,,,,コネクス,0
1088,4140001129812,新規,0,2023-04-19,2023-04-19,ウェルスみらい株式会社,,株式会社,兵庫県,加古川市,野口町野口１６０番地の７,,28,210,6750012,,,,,,,2023-04-19,1,,,,,ウェルスミライ,0
1089,4140001129829,新規,0,2023-04-19,2023-04-19,株式会社ＡＰＳ,,株式会社,兵庫県,神戸市垂水区,青山台８丁目１番２－５０２号,,28,108,6550873,,,,,,,2023-04-19,1,,,,,エーピーエス,0
1090,4140001129878,新規,0,2023-04-19,2023-04-19,株式会社かんの不動産,,株式会社,兵庫県,加古川市,神野町西条１１３９番地の３,,28,210,6750009,,,,,,,2023-04-19,1,,,,,カンノフドウサン,0
1091,4140001129886,新規,0,2023-04-19,2023-04-19,株式会社カンベ,,株式会社,兵庫県,尼崎市,御園町２４番地尼崎第一ビル４０２号,,28,202,6600861,,,,,,,2023-04-19,1,,,,,カンベ,0
1096,4140005026584,新規,0,2023-04-19,2023-04-19,一般社団法人ウィンウィン,,その他の設立登記法人,兵庫県,神戸市東灘区,岡本２丁目２番２２－３０６号,,28,101,6580072,,,,,,,2023-04-19,1,,,,,ウィンウィン,0
1097,4150001026323,新規,0,2023-04-19,2023-04-19,株式会社アールテクト,,株式会社,奈良県,香芝市,すみれ野１丁目１２番地４サングランパ２０１,,29,210,6390237,,,,,,,2023-04-19,1,,,,,アールテクト,0
1125,4180305009467,新規,0,2023-04-19,2023-04-19,一般社団法人かのこ,,その他の設立登記法人,愛知県,豊田市,九久平町簗場６４番地,,23,211,4442216,,,,,,,2023-04-19,1,,,,,カノコ,0
1132,4200005013469,新規,0,2023-04-19,2023-04-19,医療法人早稲田クリニック,,その他の設立登記法人,岐阜県,可児市,広見１丁目１７番地大晃ビル３階,,21,214,5090214,,,,,,,2023-04-19,1,,,,,ワセダクリニック,0
1158,4290001101252,新規,0,2023-04-19,2023-04-19,株式会社マルハ建築工房,,株式会社,福岡県,久留米市,田主丸町豊城９１番地７,,40,203,8391234,,,,,,,2023-04-19,1,,,,,マルハケンチクコウボウ,0
1168,4300001013272,新規,0,2023-04-19,2023-04-19,アエル株式会社,,株式会社,佐賀県,武雄市,山内町大字三間坂１５９２８番地,,41,206,8492303,,,,,,,2023-04-19,1,,,,,アエル,0
1170,4300003001952,新規,0,2023-04-19,2023-04-19,合同会社５いつつ,,合同会社,佐賀県,佐賀市,八戸三丁目８番１５号,,41,201,8490000,,,,,,,2023-04-19,1,,,,,イツツ,0
1172,4320001019689,新規,0,2023-04-19,2023-04-19,株式会社梵天堂,,株式会社,大分県,別府市,亀川浜田町１１番１５号コーポ第二タカオ２０９号,,44,202,8740014,,,,,,,2023-04-19,1,,,,,ボンテンドウ,0
1175,4340001025520,新規,0,2023-04-19,2023-04-19,株式会社Ｂａｒｒｅｌ,,株式会社,鹿児島県,南さつま市,加世田小湊９０３５番地９,,46,220,8971122,,,,,,,2023-04-19,1,,,,,バレル,0
1178,4350001018300,新規,0,2023-04-19,2023-04-19,株式会社Ｓｕｐｐｏｒｔ　Ｂａｓｅ,,株式会社,宮崎県,都城市,立野町３号５番地２,,45,202,8850035,,,,,,,2023-04-19,1,,,,,サポートベース,0
1180,4360001031913,新規,0,2023-04-19,2023-04-19,株式会社センケン,,株式会社,沖縄県,中頭郡北中城村,字安谷屋１８７番地,,47,327,9012316,,,,,,,2023-04-19,1,,,,,センケン,0
1183,4370001049863,新規,0,2023-04-19,2023-04-19,株式会社ティ・アンド・ケー,,株式会社,宮城県,仙台市泉区,みずほ台１０番地の８ロイヤルパークみずほ台６０８,,04,105,9813125,,,,,,,2023-04-19,1,,,,,ティアンドケー,0
1184,4370003006094,新規,0,2023-04-19,2023-04-19,阿部カンパニー合同会社,,合同会社,宮城県,石巻市,塩富町１丁目６番５号,,04,202,9862114,,,,,,,2023-04-19,1,,,,,アベカンパニー,0
1185,4370005010623,新規,0,2023-04-19,2023-04-19,一般社団法人あしすと,,その他の設立登記法人,宮城県,登米市,迫町佐沼字大網２１８番地１,,04,212,9870511,,,,,,,2023-04-19,1,,,,,アシスト,0
1189,4380003005442,新規,0,2023-04-19,2023-04-19,ｔｓｕｇｕｔｏ合同会社,,合同会社,福島県,大沼郡昭和村,大字野尻字元町４４８８番地,,07,446,9680102,,,,,,,2023-04-19,1,,,,,ツグト,0
1194,4390005009003,新規,0,2023-04-19,2023-04-19,特定非営利活動法人にじいろｂａｓｅ,,その他の設立登記法人,山形県,鶴岡市,切添町２１番１４号,,06,203,9970022,,,,,,,2023-04-19,1,,,,,ニジイロベース,0
1195,4400001016216,新規,0,2023-04-19,2023-04-19,管理会計システム株式会社,,株式会社,岩手県,盛岡市,みたけ３丁目３８－２０,,03,201,0200122,,,,,,,2023-04-19,1,,,,,カンリカイケイシステム,0
1208,4430001088855,新規,0,2023-04-19,2023-04-19,株式会社メリアホーム,,株式会社,北海道,苫小牧市,青雲町２丁目２５番５号,,01,213,0591263,,,,,,,2023-04-19,1,,,,,メリアホーム,0
1209,4430001088921,新規,0,2023-04-19,2023-04-19,Ｋ・ＣＵＯＲＥ株式会社,,株式会社,北海道,札幌市西区,山の手一条８丁目３番１８号,,01,107,0630001,,,,,,,2023-04-19,1,,,,,ケークオーレ,0
1213,4470005006504,新規,0,2023-04-19,2023-04-19,特定非営利活動法人くれよんきっず,,その他の設立登記法人,香川県,仲多度郡琴平町,７０２,,37,403,7660001,,,,,,,2023-04-19,1,,,,,クレヨンキッズ,0
1215,4480001012075,新規,0,2023-04-19,2023-04-19,株式会社ＴＯＭＯＳ,,株式会社,徳島県,板野郡藍住町,勝瑞字成長２２番地７,,36,403,7711272,,,,,,,2023-04-19,1,,,,,トモス,0
1225,5010001234500,新規,0,2023-04-19,2023-04-19,株式会社ＦｒｅｅＤジャパンホールディングス,,株式会社,東京都,千代田区,紀尾井町４番１号ニューオータニビジネスコート２９１８号室,,13,101,1020094,,,,,,,2023-04-19,1,,,,,フリーディージャパンホールディングス,0
1226,5010001234574,新規,0,2023-04-19,2023-04-19,株式会社ＥＬＩＳＴＡ,,株式会社,東京都,中央区,八丁堀４丁目８番１号,,13,102,1040032,,,,,,,2023-04-19,1,,,,,エリスタ,0
1227,5010001234649,新規,0,2023-04-19,2023-04-19,友雪青木株式会社,,株式会社,東京都,千代田区,三番町２－１・１３０１号室,,13,101,1020075,,,,,,,2023-04-19,1,,,,,トモユキアオキ,0
1232,5010003040426,新規,0,2023-04-19,2023-04-19,合同会社ティーエルシー,,合同会社,東京都,中央区,銀座１丁目１２番４号Ｎ＆ＥＢＬＤ．６Ｆ,,13,102,1040061,,,,,,,2023-04-19,1,,,,,ティーエルシー,0
1234,5010005036546,新規,0,2023-04-19,2023-04-19,一般社団法人国際鶏卵産業協議会,,その他の設立登記法人,東京都,文京区,湯島３丁目２０番９号,,13,105,1130034,,,,,,,2023-04-19,1,,,,,コクサイケイランサンギョウキョウギカイ,0
1238,5010401173752,新規,0,2023-04-19,2023-04-19,ネクスコン・テクノロジー株式会社,,株式会社,東京都,港区,芝４丁目３番６号,,13,103,1080014,,,,,,,2023-04-19,1,,,,,ネクスコンテクノロジー,0
1241,5010403029928,新規,0,2023-04-19,2023-04-19,合同会社Ｉ　ｃｏｒｐｏｒａｔｉｏｎ,,合同会社,東京都,港区,台場２丁目２番２－２９０４号,,13,103,1350091,,,,,,,2023-04-19,1,,,,,アイコーポレーション,0
1242,5010403029960,新規,0,2023-04-19,2023-04-19,どんだけＡＩ合同会社,,合同会社,東京都,港区,三田５丁目４－１２,,13,103,1080073,,,,,,,2023-04-19,1,,,,,ドンダケエーアイ,0
1244,5010405022063,新規,0,2023-04-19,2023-04-19,Ｍａｒｔａ一般社団法人,,その他の設立登記法人,東京都,港区,西新橋１丁目１番１号ＥＰコンサルティングサービス内,,13,103,1050003,,,,,,,2023-04-19,1,,,,,マルタ,0
1248,5010601062953,新規,0,2023-04-19,2023-04-19,株式会社ＲＫビューティー,,株式会社,東京都,江東区,森下１丁目１３番５号,,13,108,1350004,,,,,,,2023-04-19,1,,,,,アールケービューティー,0
1252,5010701044133,新規,0,2023-04-19,2023-04-19,株式会社ＤＯＯＲ‐ＤＯＯＲ,,株式会社,東京都,品川区,東大井１丁目２－２０－２階,,13,109,1400011,,,,,,,2023-04-19,1,,,,,ドアドア,0
1262,5010903008101,新規,0,2023-04-19,2023-04-19,ＪＥクリエイト合同会社,,合同会社,東京都,世田谷区,喜多見６丁目２５番５号,,13,112,1570067,,,,,,,2023-04-19,1,,,,,ジェイイークリエイト,0
1266,5011001153764,新規,0,2023-04-19,2023-04-19,株式会社町工場,,株式会社,東京都,渋谷区,神宮前６丁目３５－３コープオリンピア３１５,,13,113,1500001,,,,,,,2023-04-19,1,,,,,マチコウバ,0
1267,5011001153847,新規,0,2023-04-19,2023-04-19,ペガサス・エターナルグリーン株式会社,,株式会社,東京都,渋谷区,神宮前１丁目１１番１１号６０１,,13,113,1500001,,,,,,,2023-04-19,1,,,,,ペガサスエターナルグリーン,0
1268,5011001153855,新規,0,2023-04-19,2023-04-19,株式会社ＡｓｓｅＴｒｕｓｔ,,株式会社,東京都,渋谷区,恵比寿１丁目２１番１０号,,13,113,1500013,,,,,,,2023-04-19,1,,,,,アセットラスト,0
1269,5011001153863,新規,0,2023-04-19,2023-04-19,株式会社ＪＪ,,株式会社,東京都,渋谷区,道玄坂２丁目１４番１８－１階,,13,113,1500043,,,,,,,2023-04-19,1,,,,,ジェイジェイ,0
1270,5011001153905,新規,0,2023-04-19,2023-04-19,ＩＤＲＥＡＭ株式会社,,株式会社,東京都,渋谷区,道玄坂１丁目１０番８号渋谷道玄坂東急ビル２Ｆ－Ｃ,,13,113,1500043,,,,,,,2023-04-19,1,,,,,アイドリーム,0
1271,5011001153921,新規,0,2023-04-19,2023-04-19,株式会社ＳＴＩＣＫ,,株式会社,東京都,渋谷区,上原１丁目３－９,,13,113,1510064,,,,,,,2023-04-19,1,,,,,スティック,0
1272,5011003016589,新規,0,2023-04-19,2023-04-19,Ｚ合同会社,,合同会社,東京都,渋谷区,渋谷３丁目２－４,,13,113,1500002,,,,,,,2023-04-19,1,,,,,ゼット,0
1273,5011005010029,新規,0,2023-04-19,2023-04-19,特定非営利活動法人フェンシングサポート,,その他の設立登記法人,東京都,目黒区,下目黒５丁目１６番２０号,,13,110,1530064,,,,,,,2023-04-19,1,,,,,フェンシングサポート,0
1277,5011101102547,新規,0,2023-04-19,2023-04-19,株式会社イズモ企画,,株式会社,東京都,新宿区,新宿１丁目３６－２新宿第七葉山ビル３階,,13,104,1600022,,,,,,,2023-04-19,1,,,,,イズモキカク,0
1278,5011101102555,新規,0,2023-04-19,2023-04-19,ＲｅＡｌｉｃｅ株式会社,,株式会社,東京都,新宿区,戸山３丁目１１－７,,13,104,1620052,,,,,,,2023-04-19,1,,,,,リアリス,0
1279,5011203004055,新規,0,2023-04-19,2023-04-19,古民家ＳＴＡＹ合同会社,,合同会社,東京都,中野区,野方２丁目２４番９号,,13,114,1650027,,,,,,,2023-04-19,1,,,,,コミンカステイ,0
1295,5011801042241,新規,0,2023-04-19,2023-04-19,株式会社寺島電設,,株式会社,東京都,足立区,花畑３丁目３１番５号,,13,121,1210061,,,,,,,2023-04-19,1,,,,,テラジマデンセツ,0
1296,5011801042258,新規,0,2023-04-19,2023-04-19,株式会社ＲＥＦＩＬＬ,,株式会社,東京都,葛飾区,東新小岩２丁目２３番１４号,,13,122,1240023,,,,,,,2023-04-19,1,,,,,リフィル,0
1301,5012401040429,新規,0,2023-04-19,2023-04-19,株式会社ＨＩＧＨ　ＲＯＬＬＥＲ　ＭＵＳＩＣ,,株式会社,東京都,武蔵野市,西久保２丁目８番６号,,13,203,1800013,,,,,,,2023-04-19,1,,,,,ハイローラーミュージック,0
1309,5013305003463,新規,0,2023-04-19,2023-04-19,一般社団法人全国流通商適正化協会,,その他の設立登記法人,東京都,豊島区,池袋２丁目７１番６号,,13,116,1710014,,,,,,,2023-04-19,1,,,,,ゼンコクリュウツウショウテキセイカキョウカイ,0
1315,5020001151174,新規,0,2023-04-19,2023-04-19,株式会社ｉｓ　ｎａｔｕｒａｌ,,株式会社,神奈川県,横浜市港北区,日吉５丁目１４番１８－２号,,14,109,2230061,,,,,,,2023-04-19,1,,,,,イズナチュラル,0
1316,5020001151190,新規,0,2023-04-19,2023-04-19,株式会社インサイト,,株式会社,神奈川県,川崎市川崎区,砂子１丁目５番地１４第二川米ビル２階,,14,131,2100006,,,,,,,2023-04-19,1,,,,,インサイト,0
1320,5020003023751,新規,0,2023-04-19,2023-04-19,合同会社Ｍ＆Ａ,,合同会社,神奈川県,横浜市中区,南仲通１丁目１３番地アールケープラザ横浜関内ポートサイドビュー６１１,,14,104,2310006,,,,,,,2023-04-19,1,,,,,エムアンドエー,0
1322,5020005015961,新規,0,2023-04-19,2023-04-19,司法書士法人エムコミュー,,その他の設立登記法人,神奈川県,川崎市高津区,久本２丁目６番８号,,14,134,2130011,,,,,,,2023-04-19,1,,,,,エムコミュー,0
1323,5021001078754,新規,0,2023-04-19,2023-04-19,株式会社井上建設,,株式会社,神奈川県,相模原市緑区,二本松１丁目２番１５号,,14,151,2520137,,,,,,,2023-04-19,1,,,,,イノウエケンセツ,0
1324,5021001078762,新規,0,2023-04-19,2023-04-19,株式会社ハクナマタタ,,株式会社,神奈川県,相模原市中央区,淵野辺本町３丁目４番１９－５号,,14,152,2520202,,,,,,,2023-04-19,1,,,,,ハクナマタタ,0
1325,5021003012991,新規,0,2023-04-19,2023-04-19,合同会社ＴＡＰＥＴＵＭ,,合同会社,神奈川県,逗子市,小坪２丁目７番７号,,14,208,2490008,,,,,,,2023-04-19,1,,,,,タペタム,0
1326,5021005012791,新規,0,2023-04-19,2023-04-19,医療法人博心会,,その他の設立登記法人,神奈川県,相模原市南区,相模大野３丁目１５番２２号ＬＯＣ’Ｓ　ＳＡＧＡＭＩ－ＯＮＯ　Ｂ棟２階,,14,153,2520303,,,,,,,2023-04-19,1,,,,,ハクシンカイ,0
1332,5030001153426,新規,0,2023-04-19,2023-04-19,株式会社ハードエクスプレス,,株式会社,埼玉県,川口市,領家１丁目２番２３号リッチフィールドマンション３０２号,,11,203,3320004,,,,,,,2023-04-19,1,,,,,ハードエクスプレス,0
1333,5030001153442,新規,0,2023-04-19,2023-04-19,株式会社ＮＩＳＨＩＹＡＭＡ　ＮＥＸＴ,,株式会社,埼玉県,三郷市,泉１丁目１４番地７,,11,237,3410054,,,,,,,2023-04-19,1,,,,,ニシヤマネクスト,0
1334,5030001153483,新規,0,2023-04-19,2023-04-19,サイキョー株式会社,,株式会社,埼玉県,ふじみ野市,新田１丁目５番１１－２０４号,,11,245,3560033,,,,,,,2023-04-19,1,,,,,サイキョー,0
1337,5030003021580,新規,0,2023-04-19,2023-04-19,合同会社Ｌｕｘｉａ,,合同会社,埼玉県,川口市,上青木２丁目１４番９号,,11,203,3330844,,,,,,,2023-04-19,1,,,,,ルクシア,0
1342,5040001128039,新規,0,2023-04-19,2023-04-19,アライ照明株式会社,,株式会社,千葉県,市川市,鬼高１丁目１４番１３号,,12,203,2720015,,,,,,,2023-04-19,1,,,,,アライショウメイ,0
1345,5040003022413,新規,0,2023-04-19,2023-04-19,ＴＥＲＲＡｃｏＹＡ合同会社,,合同会社,千葉県,我孫子市,青山３１９番地の１７,,12,222,2701173,,,,,,,2023-04-19,1,,,,,テラコヤ,0
1360,5090001018086,新規,0,2023-04-19,2023-04-19,シャマー株式会社,,株式会社,山梨県,甲府市,川田町９３３番地５４号,,19,201,4000811,,,,,,,2023-04-19,1,,,,,シャマー,0
1361,5090003002303,新規,0,2023-04-19,2023-04-19,合同会社ｎｏｆｏｏｔｂａｌｌ,,合同会社,山梨県,北杜市,小淵沢町上笹尾３３３２番地１５５５,,19,209,4080041,,,,,,,2023-04-19,1,,,,,ノーフットボール,0
1367,5100003006979,新規,0,2023-04-19,2023-04-19,合同会社オレイユ・ド・シャ,,合同会社,長野県,茅野市,米沢４０１０番地５,,20,214,3910216,,,,,,,2023-04-19,1,,,,,オレイユドシャ,0
1371,5110001037463,新規,0,2023-04-19,2023-04-19,コロンブ株式会社,,株式会社,新潟県,長岡市,北山３丁目１番地５,,15,202,9402114,,,,,,,2023-04-19,1,,,,,コロンブ,0
1383,5120001254033,新規,0,2023-04-19,2023-04-19,株式会社ＨＯＮＵ,,株式会社,大阪府,大阪市住之江区,南港北２丁目１番１０号,,27,125,5590034,,,,,,,2023-04-19,1,,,,,ホヌ,0
1384,5120001254074,新規,0,2023-04-19,2023-04-19,バイオスワンプ株式会社,,株式会社,大阪府,大阪市住之江区,南港北２丁目１－１０ＡＴＣビル,,27,125,5590034,,,,,,,2023-04-19,1,,,,,バイオスワンプ,0
1385,5120001254082,新規,0,2023-04-19,2023-04-19,株式会社オルウェイ,,株式会社,大阪府,大阪市港区,弁天４丁目１０番１７号,,27,107,5520007,,,,,,,2023-04-19,1,,,,,オルウェイ,0
1386,5120001254099,新規,0,2023-04-19,2023-04-19,出雲吉塗株式会社,,株式会社,大阪府,大阪市西成区,南津守７丁目１７番１４号,,27,122,5570063,,,,,,,2023-04-19,1,,,,,イズモヨシト,0
1387,5120001254108,新規,0,2023-04-19,2023-04-19,株式会社カミエダ,,株式会社,大阪府,大阪市浪速区,日本橋西１丁目２番２－１１０５号,,27,111,5560004,,,,,,,2023-04-19,1,,,,,カミエダ,0
1388,5120001254116,新規,0,2023-04-19,2023-04-19,株式会社ＦＦＲ　Ｇｌｏｂａｌ,,株式会社,大阪府,大阪市中央区,淡路町３丁目５番１３号創建御堂筋ビル２階２１９室,,27,128,5410047,,,,,,,2023-04-19,1,,,,,エフエフアールグローバル,0
1389,5120001254132,新規,0,2023-04-19,2023-04-19,株式会社ＴＯＧＯ,,株式会社,大阪府,大阪市東住吉区,桑津１丁目１８番２号,,27,121,5460041,,,,,,,2023-04-19,1,,,,,トーゴー,0
1392,5120003023849,新規,0,2023-04-19,2023-04-19,合同会社ｃｉｔＲｉｎｅ,,合同会社,大阪府,大阪市中央区,東心斎橋１丁目１３－２０カネコマビル３階,,27,128,5420083,,,,,,,2023-04-19,1,,,,,シトリン,0
1393,5120003023857,新規,0,2023-04-19,2023-04-19,合同会社Ｇｏ‐ｅｎ,,合同会社,大阪府,大阪市阿倍野区,松崎町２丁目１番２８号,,27,119,5450053,,,,,,,2023-04-19,1,,,,,ゴエン,0
1395,5120101067351,新規,0,2023-04-19,2023-04-19,株式会社ロッコウレーシング,,株式会社,大阪府,堺市南区,高倉台１丁９番４号,,27,145,5900117,,,,,,,2023-04-19,1,,,,,ロッコウレーシング,0
1397,5120105009713,新規,0,2023-04-19,2023-04-19,一般社団法人福祉のやさしい日本語協会,,その他の設立登記法人,大阪府,和泉市,池上町２丁目５番１６号,,27,219,5940083,,,,,,,2023-04-19,1,,,,,フクシノヤサシイニホンゴキョウカイ,0
1399,5120901047437,新規,0,2023-04-19,2023-04-19,株式会社ＢＲＡＣＫＥＴＳ,,株式会社,大阪府,吹田市,千里山西４丁目９番２２号,,27,205,5650851,,,,,,,2023-04-19,1,,,,,ブラケッツ,0
1400,5120903004576,新規,0,2023-04-19,2023-04-19,合同会社パラクティベス,,合同会社,大阪府,豊中市,服部寿町２丁目１４番１２号,,27,203,5610857,,,,,,,2023-04-19,1,,,,,パラクティベス,0
1404,5130001074091,新規,0,2023-04-19,2023-04-19,株式会社Ｌａ　ｖｉｄａ,,株式会社,京都府,宇治市,小倉町南浦９番地の１８,,26,204,6110042,,,,,,,2023-04-19,1,,,,,ラヴィーダ,0
1405,5130001074117,新規,0,2023-04-19,2023-04-19,株式会社ＴＨＥ　ＷＥＬＬ,,株式会社,京都府,相楽郡和束町,大字原山小字東手４番地,,26,365,6191202,,,,,,,2023-04-19,1,,,,,ザウェル,0
1406,5130001074133,新規,0,2023-04-19,2023-04-19,株式会社孝正,,株式会社,京都府,京都市山科区,西野野色町６１番地９,,26,110,6078353,,,,,,,2023-04-19,1,,,,,コウセイ,0
1407,5130003008667,新規,0,2023-04-19,2023-04-19,ＱＣ　Ｈｅｒｏ　ＡＩ開発研究所合同会社,,合同会社,京都府,京都市山科区,北花山山田町７９番１号,,26,110,6078472,,,,,,,2023-04-19,1,,,,,キューシーヒーローエーアイカイハツケンキュウショ,0
1409,5140001129877,新規,0,2023-04-19,2023-04-19,株式会社フューズラージ,,株式会社,兵庫県,神戸市中央区,中島通３丁目１番８号,,28,110,6510052,,,,,,,2023-04-19,1,,,,,フューズラージ,0
1410,5140001129885,新規,0,2023-04-19,2023-04-19,株式会社スプリングホーム,,株式会社,兵庫県,神戸市中央区,熊内町１丁目５番１号,,28,110,6510056,,,,,,,2023-04-19,1,,,,,スプリングホーム,0
1411,5140001129919,新規,0,2023-04-19,2023-04-19,株式会社トラスト,,株式会社,兵庫県,神戸市中央区,磯上通４丁目３－１０－８,,28,110,6510086,,,,,,,2023-04-19,1,,,,,トラスト,0
1414,5150005009471,新規,0,2023-04-19,2023-04-19,一般社団法人奈良トライ人,,その他の設立登記法人,奈良県,橿原市,上品寺町３４６－６パリシェドビル２Ｆ－Ｂ,,29,205,6340803,,,,,,,2023-04-19,1,,,,,ナラトライジン,0
1421,5160003002849,新規,0,2023-04-19,2023-04-19,ＫＯＭＯ合同会社,,合同会社,滋賀県,大津市,本堅田３丁目１４番３号エステート堅田３０５号,,25,201,5200242,,,,,,,2023-04-19,1,,,,,コモ,0
1430,5180001155936,新規,0,2023-04-19,2023-04-19,ＩＣＴ授業方法コンサルティング株式会社,,株式会社,愛知県,長久手市,蟹原１９０１番地プレシアスシティ　ザ・シーズンズＣ棟３０１,,23,238,4801142,,,,,,,2023-04-19,1,,,,,アイシーティジュギョウホウホウコンサルティング,0
1434,5180003025113,新規,0,2023-04-19,2023-04-19,合同会社ａｖｉｅｎｎｅ,,合同会社,愛知県,名古屋市中村区,名駅４丁目２４番５号第２森ビル４０１,,23,105,4500002,,,,,,,2023-04-19,1,,,,,アヴィエンヌ,0
1446,5220005008747,新規,0,2023-04-19,2023-04-19,一般社団法人結,,その他の設立登記法人,石川県,野々市市,住吉町１２番２７号,,17,212,9218813,,,,,,,2023-04-19,1,,,,,ムスビ,0
1447,5230001019805,新規,0,2023-04-19,2023-04-19,株式会社創進,,株式会社,富山県,南砺市,荒木１２４５番地１４,,16,210,9391732,,,,,,,2023-04-19,1,,,,,ソウシン,0
1452,5240001061384,新規,0,2023-04-19,2023-04-19,株式会社西日本解斫,,株式会社,広島県,東広島市,西条町郷曽３６３番３１号,,34,212,7390035,,,,,,,2023-04-19,1,,,,,ニシニホンカイハツ,0
1453,5240001061392,新規,0,2023-04-19,2023-04-19,株式会社優陽工業,,株式会社,広島県,東広島市,三永２丁目１５番３０号ラシーヌ２０２号,,34,212,7390026,,,,,,,2023-04-19,1,,,,,ユウヒコウギョウ,0
1463,5290801029485,新規,0,2023-04-19,2023-04-19,株式会社クリーンＵＰ北九州,,株式会社,福岡県,北九州市八幡西区,力丸町２３番２０号,,40,109,8070802,,,,,,,2023-04-19,1,,,,,クリーンアップキタキュウシュウ,0
1467,5300001013271,新規,0,2023-04-19,2023-04-19,株式会社ＥＴＥＲＮＡＬ,,株式会社,佐賀県,唐津市,和多田天満町１丁目４１２３番地１,,41,202,8470082,,,,,,,2023-04-19,1,,,,,エターナル,0
1468,5300005007138,新規,0,2023-04-19,2023-04-19,一般社団法人マミリア,,その他の設立登記法人,佐賀県,三養基郡基山町,大字宮浦字宿１６０番地９,,41,341,8410204,,,,,,,2023-04-19,1,,,,,マミリア,0
1483,5350001018290,新規,0,2023-04-19,2023-04-19,株式会社日向製作所,,株式会社,宮崎県,日向市,大字日知屋２２５４番地４,,45,206,8830062,,,,,,,2023-04-19,1,,,,,ヒュウガセイサクショ,0
1491,5370001049854,新規,0,2023-04-19,2023-04-19,株式会社久遠,,株式会社,宮城県,塩竈市,袖野田町２０番４４号,,04,203,9850043,,,,,,,2023-04-19,1,,,,,クオン,0
1500,5400001016215,新規,0,2023-04-19,2023-04-19,株式会社ほしな,,株式会社,岩手県,奥州市,前沢字狐石４５番地７,,03,215,0294206,,,,,,,2023-04-19,1,,,,,ホシナ,0
1505,5410003003788,新規,0,2023-04-19,2023-04-19,合同会社スタジオＶＫ,,合同会社,秋田県,秋田市,中通２丁目２－３２－山二ビル６階,,05,201,0100001,,,,,,,2023-04-19,1,,,,,スタジオブイケー,0
1513,5430001088813,新規,0,2023-04-19,2023-04-19,株式会社谷口農園,,株式会社,北海道,勇払郡安平町,追分豊栄４２６番地３,,01,585,0591987,,,,,,,2023-04-19,1,,,,,タニグチノウエン,0
1516,5430003014940,新規,0,2023-04-19,2023-04-19,合同会社晶翔物流,,合同会社,北海道,北広島市,大曲柏葉５丁目１６番地１２,,01,234,0611273,,,,,,,2023-04-19,1,,,,,アキトブツリュウ,0
1537,6010001234631,新規,0,2023-04-19,2023-04-19,ＳＶ　Ｆａｃｔｏｒｙ　Ｊａｐａｎ株式会社,,株式会社,東京都,文京区,本郷７丁目２番５号平清ビル２階,,13,105,1130033,,,,,,,2023-04-19,1,,,,,エスブイファクトリージャパン,0
1543,6010005036529,新規,0,2023-04-19,2023-04-19,一般社団法人夢未来・デジタル起業支援ラボ,,その他の設立登記法人,東京都,中央区,日本橋２丁目２番３号ＲＩＳＨＥビルＵＣＦ４階,,13,102,1030027,,,,,,,2023-04-19,1,,,,,ユメミライデジタルキギョウシエンラボ,0
1554,6010401173776,新規,0,2023-04-19,2023-04-19,株式会社Ｍ＆Ｍ,,株式会社,東京都,港区,北青山３丁目６番７号青山パラシオタワー１１階,,13,103,1070061,,,,,,,2023-04-19,1,,,,,エムアンドエム,0
1555,6010405021989,新規,0,2023-04-19,2023-04-19,一般社団法人日本受精着床学会,,その他の設立登記法人,東京都,港区,麻布台１丁目１１番９号株式会社コンベックス内,,13,103,1060041,,,,,,,2023-04-19,1,,,,,ニホンジュセイチャクショウガッカイ,0
1558,6010601062944,新規,0,2023-04-19,2023-04-19,株式会社バリサン,,株式会社,東京都,墨田区,東駒形１丁目１５番２－４０２号ｇｌａｎｚＳｕｅｈｉｒｏ,,13,107,1300005,,,,,,,2023-04-19,1,,,,,バリサン,0
1559,6010601062969,新規,0,2023-04-19,2023-04-19,佳和株式会社,,株式会社,東京都,江東区,亀戸５丁目２１番６－１０１号,,13,108,1360071,,,,,,,2023-04-19,1,,,,,ケイワ,0
1560,6010701044132,新規,0,2023-04-19,2023-04-19,株式会社ＦＵＪＩＯ,,株式会社,東京都,品川区,荏原３丁目８番１５－２０２号,,13,109,1420063,,,,,,,2023-04-19,1,,,,,フジオ,0
1563,6010801033869,新規,0,2023-04-19,2023-04-19,ＡＤＭ’ｓパートナーズ株式会社,,株式会社,東京都,大田区,東六郷３丁目８番４－４２１号,,13,111,1440046,,,,,,,2023-04-19,1,,,,,アダムスパートナーズ,0
1568,6010901052901,新規,0,2023-04-19,2023-04-19,プレイブック株式会社,,株式会社,東京都,世田谷区,豪徳寺２丁目６番２４号,,13,112,1540021,,,,,,,2023-04-19,1,,,,,プレイブック,0
1570,6010903008100,新規,0,2023-04-19,2023-04-19,合同会社ＦＤＨ,,合同会社,東京都,世田谷区,岡本３丁目２２－１４,,13,112,1570076,,,,,,,2023-04-19,1,,,,,エフディーエイチ,0
1574,6011001153516,新規,0,2023-04-19,2023-04-19,株式会社アニマルバンク,,株式会社,東京都,渋谷区,初台１丁目９番３号,,13,113,1510061,,,,,,,2023-04-19,1,,,,,アニマルバンク,0
1575,6011001153813,新規,0,2023-04-19,2023-04-19,ＣＴＬパートナーズ株式会社,,株式会社,東京都,渋谷区,本町１丁目３５番６号,,13,113,1510071,,,,,,,2023-04-19,1,,,,,シーティエルパートナーズ,0
1576,6011001153912,新規,0,2023-04-19,2023-04-19,株式会社Ｅｍｏｓｙ,,株式会社,東京都,渋谷区,渋谷２丁目１９－１５宮益坂ビルディング６０９,,13,113,1500002,,,,,,,2023-04-19,1,,,,,エモシー,0
1578,6011003016670,新規,0,2023-04-19,2023-04-19,合同会社エーオーアイ,,合同会社,東京都,目黒区,目黒本町２丁目２番９号,,13,110,1520002,,,,,,,2023-04-19,1,,,,,,0
1603,6012703002687,新規,0,2023-04-19,2023-04-19,ジプソフィラ合同会社,,合同会社,東京都,小平市,学園西町３丁目２２番１９号第３コーポ松崎２０１号,00130168,13,211,1870045,,,,,,,2023-04-19,1,,,,,ジプソフィラ,0
1607,6013301050624,新規,0,2023-04-19,2023-04-19,住総建設ジャパン株式会社,,株式会社,東京都,豊島区,池袋２丁目７２番１号池袋Ｓビル１０１号室,,13,116,1710014,,,,,,,2023-04-19,1,,,,,ジュウソウケンセツジャパン,0
1610,6013303006582,新規,0,2023-04-19,2023-04-19,合同会社ＢａｓｅＰｒｏ,,合同会社,東京都,豊島区,南大塚１丁目１４番７号,,13,116,1700005,,,,,,,2023-04-19,1,,,,,ベースプロ,0
1622,6020003023750,新規,0,2023-04-19,2023-04-19,ＹＡＳＨＩ合同会社,,合同会社,神奈川県,横浜市保土ケ谷区,川辺町２番地５パークタワー横濱星川１２１０号,,14,106,2400001,,,,,,,2023-04-19,1,,,,,ヤシ,0
1623,6020003023775,新規,0,2023-04-19,2023-04-19,合同会社ＴＹＢ,,合同会社,神奈川県,横浜市保土ケ谷区,仏向西３３－１０,,14,106,2400046,,,,,,,2023-04-19,1,,,,,ティーワイビー,0
1628,6021001078761,新規,0,2023-04-19,2023-04-19,ＭａＲｉｏ株式会社,,株式会社,神奈川県,座間市,東原４丁目１１番１５号,,14,216,2520004,,,,,,,2023-04-19,1,,,,,マリオ,0
1633,6021003012999,新規,0,2023-04-19,2023-04-19,合同会社ＭＫメディカル,,合同会社,神奈川県,大和市,深見西２丁目４番３６号,,14,213,2420018,,,,,,,2023-04-19,1,,,,,エムケーメディカル,0
1634,6021003013007,新規,0,2023-04-19,2023-04-19,Ｄｅｍｏｌｉｓｈ合同会社,,合同会社,神奈川県,相模原市南区,東林間３丁目１番１６号けやきハウス１０２,,14,153,2520311,,,,,,,2023-04-19,1,,,,,デモリッシュ,0
1639,6030001153400,新規,0,2023-04-19,2023-04-19,ライブアセスメント株式会社,,株式会社,埼玉県,東松山市,大字下青鳥８０５番地３,,11,212,3550075,,,,,,,2023-04-19,1,,,,,ライブアセスメント,0
1640,6030001153425,新規,0,2023-04-19,2023-04-19,株式会社慶Ｍａｎａｇｅｍｅｎｔ,,株式会社,埼玉県,川口市,西川口１丁目３６番１０号サンシティ５・５０１,,11,203,3320021,,,,,,,2023-04-19,1,,,,,ケイマネイジメント,0
1644,6030003021605,新規,0,2023-04-19,2023-04-19,合同会社廣島,,合同会社,埼玉県,さいたま市南区,沼影２丁目１２番３号４－４０２,,11,108,3360027,,,,,,,2023-04-19,1,,,,,ヒロシマ,0
1645,6030005021231,新規,0,2023-04-19,2023-04-19,日高まちづくりＮＰＯ法人どんぐりの木,,その他の設立登記法人,埼玉県,日高市,大字鹿山２２３番地４,,11,242,3501231,,,,,,,2023-04-19,1,,,,,ヒダカマチヅクリドングリノキ,0
1657,6040001127980,新規,0,2023-04-19,2023-04-19,株式会社桑原工業,,株式会社,千葉県,船橋市,松が丘５丁目１番１９号,,12,204,2740064,,,,,,,2023-04-19,1,,,,,クワハラコウギョウ,0
1658,6040001127997,新規,0,2023-04-19,2023-04-19,株式会社Ｆｕｎ　Ｃｒｅａｔｉｏｎ,,株式会社,千葉県,銚子市,台町１７９５,,12,202,2880813,,,,,,,2023-04-19,1,,,,,ファンクリエイション,0
1659,6040001128013,新規,0,2023-04-19,2023-04-19,株式会社Ｓｉｇｎａｔｕｒｅ　ｇｏｌｆ　Ｊａｐａｎ,,株式会社,千葉県,市原市,米原１６３９番地１,,12,219,2900525,,,,,,,2023-04-19,1,,,,,シグニチャーゴルフジャパン,0
1662,6040003022437,新規,0,2023-04-19,2023-04-19,ＨＡＡＤＩ　ＴＲＡＤＥＲＳ合同会社,,合同会社,千葉県,野田市,吉春２６２－１,,12,208,2780042,,,,,,,2023-04-19,1,,,,,ハーディトレーダーズ,0
1669,6050005013251,新規,0,2023-04-19,2023-04-19,無限責任山田村高野負債整理組合,,その他の設立登記法人,茨城県,常陸太田市,棚谷町１８番屋敷,,08,212,3130225,,,,,,,2023-04-19,1,,,,,ムゲンセキニンヤマダムラタカノフサイセイリクミアイ,0
1677,6080001025578,新規,0,2023-04-19,2023-04-19,株式会社フジシマ,,株式会社,静岡県,静岡市葵区,緑町１番２号,,22,101,4200844,,,,,,,2023-04-19,1,,,,,フジシマ,0
1683,6090001018085,新規,0,2023-04-19,2023-04-19,株式会社おしるこ,,株式会社,山梨県,南都留郡富士河口湖町,船津１４２５番地７,,19,430,4010301,,,,,,,2023-04-19,1,,,,,オシルコ,0
1689,6100001036341,新規,0,2023-04-19,2023-04-19,株式会社１４ＣＲＡＳ,,株式会社,長野県,長野市,若穂綿内８７００番地１,,20,201,3810101,,,,,,,2023-04-19,1,,,,,ワンフォークラス,0
1690,6100003006986,新規,0,2023-04-19,2023-04-19,一條商店合同会社,,合同会社,長野県,松本市,大手３丁目６番１７号,,20,202,3900874,,,,,,,2023-04-19,1,,,,,イチジョウショウテン,0
1691,6100005012999,新規,0,2023-04-19,2023-04-19,特定非営利活動法人千曲ねこの会,,その他の設立登記法人,長野県,千曲市,大字戸倉１５２４番地４,,20,218,3890804,,,,,,,2023-04-19,1,,,,,チクマネコノカイ,0
1696,6120001253876,新規,0,2023-04-19,2023-04-19,株式会社知識革新,,株式会社,大阪府,大阪市東淀川区,相川２丁目２３－１７メゾン・ド・スラン２０６号室,,27,114,5330007,,,,,,,2023-04-19,1,,,,,チシキカクシン,0
1697,6120001254065,新規,0,2023-04-19,2023-04-19,株式会社レオラ,,株式会社,大阪府,大阪市東成区,東小橋１丁目３番４号,,27,115,5370024,,,,,,,2023-04-19,1,,,,,レオラ,0
1698,6120001254098,新規,0,2023-04-19,2023-04-19,セラフィム株式会社,,株式会社,大阪府,大阪市東成区,大今里南１丁目１番２３－８０７号,,27,115,5370013,,,,,,,2023-04-19,1,,,,,セラフィム,0
1699,6120001254107,新規,0,2023-04-19,2023-04-19,株式会社山崎建装,,株式会社,大阪府,大阪市鶴見区,諸口２丁目８番９号,,27,124,5380051,,,,,,,2023-04-19,1,,,,,ヤマザキケンソウ,0
1700,6120001254164,新規,0,2023-04-19,2023-04-19,株式会社ネクストイノジェント,,株式会社,大阪府,大阪市北区,天神橋２丁目５番２５若杉グランドビル本館１１０８号室,,27,127,5300041,,,,,,,2023-04-19,1,,,,,ネクストイノジェント,0
1701,6120001254172,新規,0,2023-04-19,2023-04-19,株式会社クラ星防災,,株式会社,大阪府,守口市,梶町２丁目１５番２号,,27,209,5700015,,,,,,,2023-04-19,1,,,,,クラボシボウサイ,0
1703,6120003023848,新規,0,2023-04-19,2023-04-19,合同会社ＰＲＩＮＴＩＮＧ　ＢＥＥ,,合同会社,大阪府,大阪市都島区,友渕町１丁目５番３－９０９号,,27,102,5340016,,,,,,,2023-04-19,1,,,,,プリンティングビー,0
1704,6120003023864,新規,0,2023-04-19,2023-04-19,合同会社ＦＯＲＴＵＮＡ,,合同会社,大阪府,大阪市北区,天神橋３丁目４番５－６０５号,,27,127,5300041,,,,,,,2023-04-19,1,,,,,フォルトゥナ,0
1705,6120003023872,新規,0,2023-04-19,2023-04-19,合同会社ベアハッグ,,合同会社,大阪府,大阪市西区,南堀江４丁目２７番１９号２階,,27,106,5500015,,,,,,,2023-04-19,1,,,,,ベアハッグ,0
1710,6120901047428,新規,0,2023-04-19,2023-04-19,株式会社ロックウエスト,,株式会社,大阪府,茨木市,豊川４丁目２６番１２号,,27,211,5670057,,,,,,,2023-04-19,1,,,,,ロックウエスト,0
1715,6130001074124,新規,0,2023-04-19,2023-04-19,株式会社ＹＫＴ,,株式会社,京都府,宇治市,木幡南山８０番地の５５３,,26,204,6110002,,,,,,,2023-04-19,1,,,,,ワイケーティー,0
1716,6130001074132,新規,0,2023-04-19,2023-04-19,石永堂ホールディングス株式会社,,株式会社,京都府,京都市右京区,西院月双町５１番地,,26,108,6150054,,,,,,,2023-04-19,1,,,,,セキエイドウホールディングス,0
1717,6130003008674,新規,0,2023-04-19,2023-04-19,Ｓａｎｃｔｕｍ合同会社,,合同会社,京都府,京都市下京区,早尾町３１４番地,,26,106,6008114,,,,,,,2023-04-19,1,,,,,サンクタム,0
1720,6140001129918,新規,0,2023-04-19,2023-04-19,株式会社デジカリ,,株式会社,兵庫県,洲本市,上物部２丁目６番３０号,,28,205,6560053,,,,,,,2023-04-19,1,,,,,デジカリ,0
1731,6160003002848,新規,0,2023-04-19,2023-04-19,Ｏｈａｎａ合同会社,,合同会社,滋賀県,米原市,能登瀬２１４番地３,,25,214,5210082,,,,,,,2023-04-19,1,,,,,オハナ,0
1751,6190003004305,新規,0,2023-04-19,2023-04-19,合同会社福,,合同会社,三重県,松阪市,小片野町１９２４番地,,24,204,5151204,,,,,,,2023-04-19,1,,,,,フク,0
1754,6200001041190,新規,0,2023-04-19,2023-04-19,株式会社ＧＲＯＷ,,株式会社,岐阜県,加茂郡川辺町,下川辺５１３番地３,,21,503,5090306,,,,,,,2023-04-19,1,,,,,グロウ,0
1755,6200001041216,新規,0,2023-04-19,2023-04-19,センシア株式会社,,株式会社,岐阜県,大垣市,今宿６丁目５２番地１６,,21,202,5030807,,,,,,,2023-04-19,1,,,,,センシア,0
1758,6220001025373,新規,0,2023-04-19,2023-04-19,株式会社日本料金保証,,株式会社,石川県,金沢市,小将町３番８号,,17,201,9200932,,,,,,,2023-04-19,1,,,,,ニホンリョウキンホショウ,0
1760,6220005008746,新規,0,2023-04-19,2023-04-19,特定非営利活動法人医療を未来につなげる会,,その他の設立登記法人,石川県,金沢市,近岡町２９４番地７,,17,201,9208217,,,,,,,2023-04-19,1,,,,,イリョウヲミライニツナゲルカイ,0
1765,6240003006114,新規,0,2023-04-19,2023-04-19,ＦＬＩＰ合同会社,,合同会社,広島県,広島市南区,的場町２丁目１番１２－２０１号,,34,103,7320824,,,,,,,2023-04-19,1,,,,,フリップ,0
1769,6270001008761,新規,0,2023-04-19,2023-04-19,株式会社Ｌｉｔｅｒａｌ,,株式会社,鳥取県,東伯郡湯梨浜町,大字橋津３６９番地,,31,370,6820702,,,,,,,2023-04-19,1,,,,,リテラル,0
1774,6290003013816,新規,0,2023-04-19,2023-04-19,Ｔ＆Ｔ合同会社,,合同会社,福岡県,福岡市中央区,高砂２丁目６－２１徳安ビル４０１号,,40,133,8100011,,,,,,,2023-04-19,1,,,,,ティーアンドティー,0
1777,6290801029484,新規,0,2023-04-19,2023-04-19,株式会社ＡＮＥＭＯＮＥ,,株式会社,福岡県,北九州市八幡西区,藤田４丁目２番１８号３Ｆ,,40,109,8060022,,,,,,,2023-04-19,1,,,,,アネモネ,0
1780,6290805009648,新規,0,2023-04-19,2023-04-19,医療法人メディカルポート,,その他の設立登記法人,福岡県,北九州市小倉北区,香春口１丁目２番１９号,,40,106,8020084,,,,,,,2023-04-19,1,,,,,メディカルポート,0
1781,6300001013270,新規,0,2023-04-19,2023-04-19,光有株式会社,,株式会社,佐賀県,武雄市,山内町大字鳥海１８５３１番地１,,41,206,8492302,,,,,,,2023-04-19,1,,,,,コウユウ,0
1783,6320001019687,新規,0,2023-04-19,2023-04-19,株式会社四建工業,,株式会社,大分県,国東市,武蔵町狭間４４番地,,44,214,8730407,,,,,,,2023-04-19,1,,,,,ヨンケンコウギョウ,0
1786,6350001018298,新規,0,2023-04-19,2023-04-19,株式会社ＳＹＵ‐ＴＥＣ,,株式会社,宮崎県,宮崎市,清武町大字船引４３０９番地１,,45,201,8800000,,,,,,,2023-04-19,1,,,,,シュウテック,0
1790,6360001031903,新規,0,2023-04-19,2023-04-19,株式会社ベルコーポレーション,,株式会社,沖縄県,豊見城市,字翁長８６４番地８Ｎ’ｓビル３階,,47,212,9010223,,,,,,,2023-04-19,1,,,,,ベルコーポレーション,0
1796,6370001049853,新規,0,2023-04-19,2023-04-19,ｂｌｕｅｐｒｉｎｔ株式会社,,株式会社,宮城県,仙台市太白区,茂ケ崎３丁目６番３４号,,04,104,9820843,,,,,,,2023-04-19,1,,,,,ブループリント,0
1797,6370001049861,新規,0,2023-04-19,2023-04-19,株式会社橘,,株式会社,宮城県,仙台市宮城野区,幸町１丁目１８番２６号,,04,102,9830836,,,,,,,2023-04-19,1,,,,,タチバナ,0
1809,6430001088812,新規,0,2023-04-19,2023-04-19,株式会社長谷川建設,,株式会社,北海道,岩内郡共和町,梨野舞納１８５番地１,,01,401,0450031,,,,,,,2023-04-19,1,,,,,ハセガワケンセツ,0
1810,6430001088886,新規,0,2023-04-19,2023-04-19,株式会社七福えびす,,株式会社,北海道,札幌市南区,川沿一条５丁目１番２２号,,01,106,0050801,,,,,,,2023-04-19,1,,,,,シチフクエビス,0
1811,6430001088894,新規,0,2023-04-19,2023-04-19,株式会社ドリームビューティー,,株式会社,北海道,札幌市中央区,南四条西１０丁目１００４番地１ユニハウス４０７,,01,101,0640804,,,,,,,2023-04-19,1,,,,,ドリームビューティー,0
1817,6480001012073,新規,0,2023-04-19,2023-04-19,株式会社前建工業,,株式会社,徳島県,吉野川市,鴨島町森藤７５４番地,,36,205,7760035,,,,,,,2023-04-19,1,,,,,マエケンコウギョウ,0
1819,6500001024883,新規,0,2023-04-19,2023-04-19,株式会社若本林業,,株式会社,愛媛県,上浮穴郡久万高原町,菅生２番耕地７９４番地３,,38,386,7911205,,,,,,,2023-04-19,1,,,,,ワカモトリンギョウ,0
1828,7010001234572,新規,0,2023-04-19,2023-04-19,株式会社Ｈｙｐｅｒｉｏｎ　Ｔｏｋｙｏ　Ａｇｅｎｔ,,株式会社,東京都,千代田区,丸の内２丁目２番１号,,13,101,1000005,,,,,,,2023-04-19,1,,,,,ハイペリオントウキョウエージェント,0
1829,7010001234589,新規,0,2023-04-19,2023-04-19,テラウェーブジャパン株式会社,,株式会社,東京都,中央区,勝どき１丁目７番２,,13,102,1040054,,,,,,,2023-04-19,1,,,,,テラウェーブジャパン,0
1830,7010001234597,新規,0,2023-04-19,2023-04-19,株式会社ＯＮＥ　ＬＯＶＥ,,株式会社,東京都,千代田区,東神田１丁目１４番４号松野ビル３Ｆ,,13,101,1010031,,,,,,,2023-04-19,1,,,,,ワンラブ,0
1831,7010001234696,新規,0,2023-04-19,2023-04-19,Ｔｏｋｙｏ‐１ＧＰ株式会社,,株式会社,東京都,千代田区,丸の内１丁目９番２号,,13,101,1000005,,,,,,,2023-04-19,1,,,,,トーキョーワンジーピー,0
1834,7010003040382,新規,0,2023-04-19,2023-04-19,合同会社ラジカル,,合同会社,東京都,中央区,日本橋兜町５番１号兜町第１平和ビル３Ｆ,,13,102,1030026,,,,,,,2023-04-19,1,,,,,ラジカル,0
1835,7010003040390,新規,0,2023-04-19,2023-04-19,ＲＢソーラーミスト合同会社,,合同会社,東京都,中央区,八丁堀４丁目２番１０号ＡＯＪ税理士法人内,,13,102,1040032,,,,,,,2023-04-19,1,,,,,アールビーソーラーミスト,0
1836,7010005036528,新規,0,2023-04-19,2023-04-19,エム・アール・イー一般社団法人,,その他の設立登記法人,東京都,千代田区,丸の内３丁目１番１号東京共同会計事務所内,,13,101,1000005,,,,,,,2023-04-19,1,,,,,エムアールイー,0
1846,7010401173841,新規,0,2023-04-19,2023-04-19,株式会社Ｌｉｍｇａｔｅ,,株式会社,東京都,港区,南青山２丁目２番１５号,,13,103,1070062,,,,,,,2023-04-19,1,,,,,リムゲート,0
1849,7010403029819,新規,0,2023-04-19,2023-04-19,合同会社ｏｚａｗａ,,合同会社,東京都,港区,南青山２丁目２番１５号ウィン青山９４２,,13,103,1070062,,,,,,,2023-04-19,1,,,,,オザワ,0
1850,7010403029926,新規,0,2023-04-19,2023-04-19,合同会社ｗｅｌｉｎａ,,合同会社,東京都,港区,新橋６丁目１１番１３－１１０３号,,13,103,1050004,,,,,,,2023-04-19,1,,,,,ウェリナ,0
1856,7010601062951,新規,0,2023-04-19,2023-04-19,株式会社トライフ,,株式会社,東京都,江東区,石島１２番１６号,,13,108,1350014,,,,,,,2023-04-19,1,,,,,トライフ,0
1858,7010801033868,新規,0,2023-04-19,2023-04-19,大福株式会社,,株式会社,東京都,大田区,大森北１丁目１３番１１号,,13,111,1430016,,,,,,,2023-04-19,1,,,,,ダイフク,0
1861,7010901052818,新規,0,2023-04-19,2023-04-19,株式会社介塾,,株式会社,東京都,世田谷区,赤堤２丁目３２番１３号デュフレベース赤堤００７,,13,112,1560044,,,,,,,2023-04-19,1,,,,,スケジュク,0
1862,7010901052883,新規,0,2023-04-19,2023-04-19,株式会社ＤＡＤＡ,,株式会社,東京都,世田谷区,等々力８丁目１６番７号－３１０号,,13,112,1580082,,,,,,,2023-04-19,1,,,,,ダダ,0
1863,7010901052891,新規,0,2023-04-19,2023-04-19,株式会社ＡＬＶＡＲＥＺ,,株式会社,東京都,世田谷区,経堂３丁目３６番１７号ヴィラビアンカ２０２,,13,112,1560052,,,,,,,2023-04-19,1,,,,,アルヴァレス,0
1869,7011001153812,新規,0,2023-04-19,2023-04-19,株式会社ＷｉｔｈＷｈｏ,,株式会社,東京都,渋谷区,道玄坂１丁目１０番８号渋谷道玄坂東急ビル２Ｆ－Ｃ,,13,113,1500043,,,,,,,2023-04-19,1,,,,,ウィズフー,0
1870,7011001153861,新規,0,2023-04-19,2023-04-19,Ｓ．Ｍ．ＪＡＰＡＮ株式会社,,株式会社,東京都,渋谷区,渋谷３丁目２７番１１号祐真ビル１２階,,13,113,1500002,,,,,,,2023-04-19,1,,,,,エスエムジャパン,0
1872,7011003016661,新規,0,2023-04-19,2023-04-19,アセット合同会社,,合同会社,東京都,渋谷区,宇田川町１番１２,,13,113,1500042,,,,,,,2023-04-19,1,,,,,アセット,0
1877,7011101102512,新規,0,2023-04-19,2023-04-19,株式会社ＬＩＴ．Ｉ,,株式会社,東京都,新宿区,西新宿３丁目３番１３号西新宿水間ビル６階,,13,104,1600023,,,,,,,2023-04-19,1,,,,,リットアイ,0
1879,7011103012957,新規,0,2023-04-19,2023-04-19,合同会社中山商事,,合同会社,東京都,新宿区,歌舞伎町２丁目２－６ライオンズマンション歌舞伎町第２－１００１室,,13,104,1600021,,,,,,,2023-04-19,1,,,,,ナカヤマショウジ,0
1880,7011203004053,新規,0,2023-04-19,2023-04-19,ＡＹＡＴＡＫＥ合同会社,,合同会社,東京都,中野区,中野１丁目３３番１－２０３号,,13,114,1640001,,,,,,,2023-04-19,1,,,,,アヤタケ,0
1886,7011701026160,新規,0,2023-04-19,2023-04-19,株式会社三友社,,株式会社,東京都,江戸川区,東瑞江２丁目２４番８号,,13,123,1320014,,,,,,,2023-04-19,1,,,,,サンユウシャ,0
1887,7011701026169,新規,0,2023-04-19,2023-04-19,増井鉄筋株式会社,,株式会社,東京都,江戸川区,北小岩６丁目９番１２号メゾン・ド・ボヌール５０５,,13,123,1330051,,,,,,,2023-04-19,1,,,,,マスイテッキン,0
1888,7011801042207,新規,0,2023-04-19,2023-04-19,株式会社成友商事,,株式会社,東京都,葛飾区,新宿６丁目２番１８－１４０５シティテラス金町,,13,122,1250051,,,,,,,2023-04-19,1,,,,,ナリトモショウジ,0
1893,7012403005948,新規,0,2023-04-19,2023-04-19,合同会社ラビット,,合同会社,東京都,府中市,是政５丁目４－３４,,13,206,1830014,,,,,,,2023-04-19,1,,,,,ラビット,0
1895,7012803003064,新規,0,2023-04-19,2023-04-19,合同会社ＹＯ‐ＴＯ,,合同会社,東京都,立川市,錦町２丁目１番３３号３階,,13,202,1900022,,,,,,,2023-04-19,1,,,,,ワイオーティーオー,0
1896,7013301050607,新規,0,2023-04-19,2023-04-19,ケンイチ株式会社,,株式会社,東京都,豊島区,上池袋３丁目４１番８－１０２号,,13,116,1700012,,,,,,,2023-04-19,1,,,,,ケンイチ,0
1905,7020001151189,新規,0,2023-04-19,2023-04-19,株式会社シンエツ電工,,株式会社,神奈川県,横浜市保土ケ谷区,上菅田町７５８番地２１,,14,106,2400051,,,,,,,2023-04-19,1,,,,,シンエツデンコウ,0
1906,7020001151197,新規,0,2023-04-19,2023-04-19,株式会社Ｍ．Ｉ．Ｔ．Ｔ．,,株式会社,神奈川県,横浜市泉区,緑園４丁目３番地１サンステージ緑園都市東の街壱番館４０２号,,14,116,2450002,,,,,,,2023-04-19,1,,,,,ミット,0
1907,7020001151206,新規,0,2023-04-19,2023-04-19,株式会社Ｋ’ｓ　ＥＳＴＡＴＥ,,株式会社,神奈川県,横浜市旭区,西川島町５９番地８,,14,112,2410012,,,,,,,2023-04-19,1,,,,,ケーズエステート,0
1909,7020003023758,新規,0,2023-04-19,2023-04-19,ＰＬＡＮ　Ｂ合同会社,,合同会社,神奈川県,横浜市西区,東久保町４１番２０号,,14,103,2200062,,,,,,,2023-04-19,1,,,,,プランビー,0
1910,7021001078744,新規,0,2023-04-19,2023-04-19,ＣＡＳＴ株式会社,,株式会社,神奈川県,相模原市中央区,千代田１丁目６番８号オアシス相模原４０１,,14,152,2520237,,,,,,,2023-04-19,1,,,,,キャスト,0
1911,7021001078760,新規,0,2023-04-19,2023-04-19,株式会社ＳＨＵＭＩ,,株式会社,神奈川県,横須賀市,富士見町２丁目３番地３,,14,201,2380021,,,,,,,2023-04-19,1,,,,,シュミ,0
1912,7021001078769,新規,0,2023-04-19,2023-04-19,株式会社トリトン,,株式会社,神奈川県,大和市,上草柳３丁目５番１８号エスポワール雅１０３,,14,213,2420029,,,,,,,2023-04-19,1,,,,,トリトン,0
1914,7021003012998,新規,0,2023-04-19,2023-04-19,ＴＴＹブルーオーシャン合同会社,,合同会社,神奈川県,三浦市,初声町入江２０７番地３,,14,210,2380113,,,,,,,2023-04-19,1,,,,,ティーティーワイブルーオーシャン,0
1920,7030001153399,新規,0,2023-04-19,2023-04-19,株式会社Ｌｅａｄ,,株式会社,埼玉県,川口市,大字里９９１番地の２－９０７号,,11,203,3340005,,,,,,,2023-04-19,1,,,,,リード,0
1921,7030001153473,新規,0,2023-04-19,2023-04-19,株式会社凛,,株式会社,埼玉県,さいたま市中央区,本町西３丁目４番６－１号,,11,105,3380004,,,,,,,2023-04-19,1,,,,,リン,0
1922,7030001153481,新規,0,2023-04-19,2023-04-19,株式会社ＭＫフルーツ,,株式会社,埼玉県,桶川市,大字加納８７６－２,,11,231,3630001,,,,,,,2023-04-19,1,,,,,エムケーフルーツ,0
1923,7030001153498,新規,0,2023-04-19,2023-04-19,株式会社Ｇｒａｔｉａ,,株式会社,埼玉県,川口市,朝日５丁目９番２２号,,11,203,3320001,,,,,,,2023-04-19,1,,,,,グラティア,0
1924,7030001153507,新規,0,2023-04-19,2023-04-19,Ｍ．Ｓ　ＩＮＴＥＲＮＡＴＩＯＮＡＬ株式会社,,株式会社,埼玉県,行田市,門井町１丁目２０番３号タチマンション門井町２０２,,11,206,3610044,,,,,,,2023-04-19,1,,,,,エムエスインターナショナル,0
1925,7030003021579,新規,0,2023-04-19,2023-04-19,ＳＬＧ企画合同会社,,合同会社,埼玉県,所沢市,東所沢１丁目１８番地の６ジュアリー１０６,,11,208,3590021,,,,,,,2023-04-19,1,,,,,エスエルジーキカク,0
1926,7030003021604,新規,0,2023-04-19,2023-04-19,合同会社訪問看護ステーションふーが,,合同会社,埼玉県,所沢市,寿町１３番５号,,11,208,3591122,,,,,,,2023-04-19,1,,,,,ホウモンカンゴステーションフーガ,0
1928,7030005021230,新規,0,2023-04-19,2023-04-19,行政書士法人アンフィニ,,その他の設立登記法人,埼玉県,所沢市,西所沢１丁目１０番１１号ビルズ吉祥西所沢駅前２０１号,,11,208,3591144,,,,,,,2023-04-19,1,,,,,アンフィニ,0
1932,7040001128037,新規,0,2023-04-19,2023-04-19,株式会社アイシーメンテ,,株式会社,千葉県,松戸市,西馬橋蔵元町８２番地プロミネント馬橋３０２号,,12,207,2710046,,,,,,,2023-04-19,1,,,,,アイシーメンテ,0
1933,7040001128045,新規,0,2023-04-19,2023-04-19,株式会社ＳＡＫＵＭＡ,,株式会社,千葉県,船橋市,本中山２丁目１４番１１号リエール下総１階,,12,204,2730035,,,,,,,2023-04-19,1,,,,,サクマ,0
1937,7040003022403,新規,0,2023-04-19,2023-04-19,ＰＴＬ合同会社,,合同会社,千葉県,野田市,野田８１５番地豊進ビル４０１号室,,12,208,2780037,,,,,,,2023-04-19,1,,,,,ピーティーエル,0
1969,7090001018084,新規,0,2023-04-19,2023-04-19,小淵沢不動産株式会社,,株式会社,山梨県,北杜市,小淵沢町１１３７番地,,19,209,4080044,,,,,,,2023-04-19,1,,,,,コブチサワフドウサン,0
1971,7100001036332,新規,0,2023-04-19,2023-04-19,株式会社ツリートップ,,株式会社,長野県,飯田市,下殿岡９１番地５,,20,205,3950154,,,,,,,2023-04-19,1,,,,,ツリートップ,0
1972,7100001036340,新規,0,2023-04-19,2023-04-19,株式会社昇龍興業,,株式会社,長野県,上田市,中之条３６７番地１４,,20,203,3860034,,,,,,,2023-04-19,1,,,,,ショウリュウコウギョウ,0
1993,7120001254080,新規,0,2023-04-19,2023-04-19,株式会社３９,,株式会社,大阪府,大阪市中央区,東心斎橋２丁目７番１１号ＮＥＸＡＳビル２階,,27,128,5420083,,,,,,,2023-04-19,1,,,,,サンキュー,0
1994,7120001254089,新規,0,2023-04-19,2023-04-19,ＴＰＯ株式会社,,株式会社,大阪府,大阪市北区,芝田２丁目８番１１号,,27,127,5300012,,,,,,,2023-04-19,1,,,,,ティーピーオー,0
1995,7120001254097,新規,0,2023-04-19,2023-04-19,Ｔｅｓｏｒｏ株式会社,,株式会社,大阪府,大阪市中央区,久太郎町１丁目６番１３－４０６号,,27,128,5410056,,,,,,,2023-04-19,1,,,,,テソロ,0
1996,7120001254106,新規,0,2023-04-19,2023-04-19,隆ホールディングス株式会社,,株式会社,大阪府,大阪市阿倍野区,阿倍野筋１丁目１－４３あべのハルカス３１階,,27,119,5450052,,,,,,,2023-04-19,1,,,,,リュウホールディングス,0
1997,7120001254130,新規,0,2023-04-19,2023-04-19,株式会社Ｓｍｉｌｅｙ　Ｌｉｆｅ,,株式会社,大阪府,大阪市阿倍野区,王子町４丁目３番５号,,27,119,5450023,,,,,,,2023-04-19,1,,,,,スマイリーライフ,0
1998,7120001254147,新規,0,2023-04-19,2023-04-19,株式会社ｚｉｎｖａ,,株式会社,大阪府,大阪市東住吉区,鷹合２丁目１番地２,,27,121,5460014,,,,,,,2023-04-19,1,,,,,ジンバ,0
1999,7120001254155,新規,0,2023-04-19,2023-04-19,株式会社ＡＲＭＳ,,株式会社,大阪府,大阪市東淀川区,東中島２丁目１番３号レバンガＡＰ新大阪イースト５０６号,,27,114,5330033,,,,,,,2023-04-19,1,,,,,アームズ,0
2000,7120001254188,新規,0,2023-04-19,2023-04-19,ＳＰＡクリーン株式会社,,株式会社,大阪府,門真市,朝日町２１番２号,,27,223,5710061,,,,,,,2023-04-19,1,,,,,スパクリーン,0
2001,7120001254221,新規,0,2023-04-19,2023-04-19,株式会社ピカソ,,株式会社,大阪府,大阪市中央区,安土町２丁目５番５号本町明大ビル３階,,27,128,5410052,,,,,,,2023-04-19,1,,,,,ピカソ,0
2004,7120003023830,新規,0,2023-04-19,2023-04-19,合同会社ａｔｔｒａｃｔｉｖｅ,,合同会社,大阪府,大阪市北区,鶴野町４番Ａ－５０５号,,27,127,5300014,,,,,,,2023-04-19,1,,,,,アトラクティブ,0
2005,7120003023839,新規,0,2023-04-19,2023-04-19,合同会社ｗｉｔｈ　Ｙｏｕ,,合同会社,大阪府,大阪市北区,堂島２丁目１番２７号桜橋千代田ビル１０Ｆ,,27,127,5300003,,,,,,,2023-04-19,1,,,,,ウィズユー,0
2006,7120003023847,新規,0,2023-04-19,2023-04-19,合同会社プロセスファイン,,合同会社,大阪府,大阪市北区,大淀南２丁目２番９－３００５号,,27,127,5310075,,,,,,,2023-04-19,1,,,,,プロセスファイン,0
2024,7120905006453,新規,0,2023-04-19,2023-04-19,一般社団法人山田くらぶ,,その他の設立登記法人,大阪府,摂津市,南千里丘５－１３－３２０４,,27,224,5660021,,,,,,,2023-04-19,1,,,,,ヤマダクラブ,0
2036,7130001074131,新規,0,2023-04-19,2023-04-19,株式会社Ｈ＆Ｅ,,株式会社,京都府,京都市下京区,河原町通松原上る清水町２８０番地１,,26,106,6008025,,,,,,,2023-04-19,1,,,,,エイチアンドイー,0
2040,7130003008649,新規,0,2023-04-19,2023-04-19,合同会社Ｄ‐ｔａｉｌ,,合同会社,京都府,京都市伏見区,桃山町真斉１－８ファミール伏見桃山町ネクスタージュ６１３号,,26,109,6120086,,,,,,,2023-04-19,1,,,,,ディテイル,0
2041,7130003008673,新規,0,2023-04-19,2023-04-19,合同会社Ｓ．Ａｚａｌｅａ,,合同会社,京都府,京都市伏見区,深草西伊達町８７－９２,,26,109,6120876,,,,,,,2023-04-19,1,,,,,エスアザレア,0
2046,7140001129834,新規,0,2023-04-19,2023-04-19,株式会社ＬｉｇｈｔＨｏｕｓｅ,,株式会社,兵庫県,神戸市中央区,中山手通１丁目２２－２３－２０３,,28,110,6500004,,,,,,,2023-04-19,1,,,,,ライトハウス,0
2047,7140001129850,新規,0,2023-04-19,2023-04-19,ティヨル株式会社,,株式会社,兵庫県,南あわじ市,八木大久保４４８,,28,224,6560444,,,,,,,2023-04-19,1,,,,,ティヨル,0
2048,7140001129883,新規,0,2023-04-19,2023-04-19,株式会社トータルムーヴ,,株式会社,兵庫県,姫路市,飾磨区堀川町９０番地５,,28,201,6728025,,,,,,,2023-04-19,1,,,,,トータルムーヴ,0
2061,7180001155637,新規,0,2023-04-19,2023-04-19,株式会社パイオニア・サービス東海＆北信越,,株式会社,愛知県,名古屋市西区,牛島町６番１号名古屋ルーセントタワー４０階,,23,104,4510046,,,,,,,2023-04-19,1,,,,,パイオニアサービストウカイアンドホクシンエツ,0
2062,7180001155950,新規,0,2023-04-19,2023-04-19,株式会社ＲｅＳｔａ,,株式会社,愛知県,名古屋市中区,大須２丁目３０番１４号大須櫻井ビル１Ｆ,,23,106,4600011,,,,,,,2023-04-19,1,,,,,リスタ,0
2069,7190001030327,新規,0,2023-04-19,2023-04-19,株式会社ＢＰレンタカー,,株式会社,三重県,伊賀市,才良２８９番地の１,,24,216,5180108,,,,,,,2023-04-19,1,,,,,ビーピーレンタカー,0
2070,7190003004304,新規,0,2023-04-19,2023-04-19,あまてらす合同会社,,合同会社,三重県,度会郡玉城町,上田辺２６０５番地１７,,24,461,5190417,,,,,,,2023-04-19,1,,,,,アマテラス,0
2077,7240001061382,新規,0,2023-04-19,2023-04-19,株式会社バードシッピングエージェンシー,,株式会社,広島県,広島市南区,段原３丁目１２番４号,,34,103,7320811,,,,,,,2023-04-19,1,,,,,バードシッピングエージェンシー,0
2079,7260001037876,新規,0,2023-04-19,2023-04-19,株式会社ＴＲＩエンジニア,,株式会社,岡山県,岡山市東区,東平島１５５９‐１７,,33,103,7090631,,,,,,,2023-04-19,1,,,,,ティーアールアイエンジニア,0
2085,7290001101217,新規,0,2023-04-19,2023-04-19,株式会社ＫＳアドバイザリー,,株式会社,福岡県,福岡市博多区,博多駅東２丁目５番２８号博多偕成ビル９階,,40,132,8120013,,,,,,,2023-04-19,1,,,,,ケイエスアドバイザリー,0
2098,7310003004547,新規,0,2023-04-19,2023-04-19,合同会社ｏｎｉｇｉｒｉ　ｐｌｕｓ　ｓｔｕｄｉｏ,,合同会社,長崎県,長崎市,現川町１９９６番地４,,42,201,8510135,,,,,,,2023-04-19,1,,,,,オニギリプラススタジオ,0
2099,7320001019686,新規,0,2023-04-19,2023-04-19,優成建設株式会社,,株式会社,大分県,由布市,庄内町大字渕２３２８番地,,44,213,8795400,,,,,,,2023-04-19,1,,,,,ユウセイケンセツ,0
2102,7340003004107,新規,0,2023-04-19,2023-04-19,合同会社ラフテルエンタープライズ,,合同会社,鹿児島県,大島郡宇検村,大字須古１番地１美長良住宅２号棟１０２号,,46,524,8943304,,,,,,,2023-04-19,1,,,,,ラフテルエンタープライズ,0
2105,7360003012859,新規,0,2023-04-19,2023-04-19,合同会社Ｓａｋｉ,,合同会社,沖縄県,那覇市,牧志２丁目１７―２７―４０１,,47,201,9000013,,,,,,,2023-04-19,1,,,,,サキ,0
2106,7360003012900,新規,0,2023-04-19,2023-04-19,ＶＥＮＡＮＣＩＯ　ＣＯＲＰＯＲＡＴＩＯＮ合同会社,,合同会社,沖縄県,名護市,字辺野古１６８－１２,,47,209,9052171,,,,,,,2023-04-19,1,,,,,ベナンシオコーポレーション,0
2107,7370001049852,新規,0,2023-04-19,2023-04-19,株式会社Ｔ・Ｉサービス,,株式会社,宮城県,仙台市太白区,西多賀２丁目２番４７号ｃｌａｉｒｐｅｔｉｔｂｏｉｓＡ－１,,04,104,9820034,,,,,,,2023-04-19,1,,,,,ティーアイサービス,0
2108,7370003006091,新規,0,2023-04-19,2023-04-19,合同会社Ｌｉｅｎ,,合同会社,宮城県,宮城郡七ヶ浜町,代ヶ崎浜字土浜３４番地の１,,04,404,9850801,,,,,,,2023-04-19,1,,,,,リアン,0
2115,7380001033632,新規,0,2023-04-19,2023-04-19,株式会社南相馬質店,,株式会社,福島県,南相馬市,原町区大木戸字金場７７番地南相馬ジャスモール,,07,212,9750061,,,,,,,2023-04-19,1,,,,,ミナミソウマシチテン,0
2119,7410001013465,新規,0,2023-04-19,2023-04-19,株式会社ミライ計画,,株式会社,秋田県,大仙市,高関上郷字杉本３２５番地１,,05,212,0140103,,,,,,,2023-04-19,1,,,,,ミライケイカク,0
2122,7410005006515,新規,0,2023-04-19,2023-04-19,一般社団法人秋田ひきこもりラボ,,その他の設立登記法人,秋田県,秋田市,山王６丁目１番１３号山王プレスビル８階,,05,201,0100951,,,,,,,2023-04-19,1,,,,,アキタヒキコモリラボ,0
2129,7430001088869,新規,0,2023-04-19,2023-04-19,株式会社恵和,,株式会社,北海道,千歳市,富士２丁目１３番５号,,01,224,0660039,,,,,,,2023-04-19,1,,,,,ケイワ,0
2130,7430003014939,新規,0,2023-04-19,2023-04-19,合同会社リハケア,,合同会社,北海道,恵庭市,駒場町１丁目１－３,,01,231,0611417,,,,,,,2023-04-19,1,,,,,リハケア,0
2135,7470003002403,新規,0,2023-04-19,2023-04-19,合同会社シマミライ研究室,,合同会社,香川県,小豆郡土庄町,大部甲１６８３番地,,37,322,7614145,,,,,,,2023-04-19,1,,,,,シマミライケンキュウシツ,0
2136,7480002016262,新規,0,2023-04-19,2023-04-19,有限会社三宅,,有限会社,徳島県,徳島市,住吉４丁目１０番５７号,,36,201,7700861,,,,,,,2023-04-19,1,,,,,ミヤケ,0
2145,8010001234497,新規,0,2023-04-19,2023-04-19,株式会社道至商事,,株式会社,東京都,千代田区,鍛冶町２丁目８－１２－１２０２,,13,101,1010044,,,,,,,2023-04-19,1,,,,,ドウシショウジ,0
2146,8010001234605,新規,0,2023-04-19,2023-04-19,ＤＢＧＰ株式会社,,株式会社,東京都,千代田区,神田和泉町１番地６－１６ヤマトビル４０５,,13,101,1010024,,,,,,,2023-04-19,1,,,,,デジタルビジネスグロースプラットフォーム,0
2147,8010001234662,新規,0,2023-04-19,2023-04-19,株式会社Ｇｒｉｔ,,株式会社,東京都,千代田区,神田猿楽町２丁目８－１１ＶＯＲＴ水道橋ＩＩＩ,00130167,13,101,1010064,,,,,,,2023-04-19,1,,,,,グリット,0
2151,8010005036535,新規,0,2023-04-19,2023-04-19,一般社団法人日本陸上養殖協会,,その他の設立登記法人,東京都,中央区,日本橋３丁目２番１４号新槇町ビル別館第一,,13,102,1030027,,,,,,,2023-04-19,1,,,,,ニッポンリクジョウヨウショクキョウカイ,0
2161,8010401173790,新規,0,2023-04-19,2023-04-19,ＴＳＭコンサルティング株式会社,,株式会社,東京都,港区,新橋４丁目２１－３新橋東急ビル２Ｆ,,13,103,1050004,,,,,,,2023-04-19,1,,,,,ティーエスエムコンサルティング,0
2162,8010403029941,新規,0,2023-04-19,2023-04-19,合同会社遺品・生前片付け総合センター,,合同会社,東京都,港区,南青山３丁目１番３６号青山丸竹ビル６Ｆ,,13,103,1070062,,,,,,,2023-04-19,1,,,,,イヒンセイゼンカタヅケソウゴウセンター,0
2165,8010601062950,新規,0,2023-04-19,2023-04-19,ＳＢハウジング株式会社,,株式会社,東京都,墨田区,石原４丁目２５番１１号,,13,107,1300011,,,,,,,2023-04-19,1,,,,,エスビーハウジング,0
2166,8010601062959,新規,0,2023-04-19,2023-04-19,株式会社ＡＲＴ,,株式会社,東京都,江東区,東雲１丁目９番４１号,,13,108,1350062,,,,,,,2023-04-19,1,,,,,アート,0
2167,8010601062967,新規,0,2023-04-19,2023-04-19,株式会社Ａｎｇｅｌｓ　Ｌａｄｄｅｒ,,株式会社,東京都,江東区,東陽４丁目３番３号,,13,108,1350016,,,,,,,2023-04-19,1,,,,,エンジェルラダー,0
2170,8010603010107,新規,0,2023-04-19,2023-04-19,合同会社Ｎ　ｆｆａｍ,,合同会社,東京都,江東区,豊洲４丁目１１－２５ブリリアントヨス１２０３,,13,108,1350061,,,,,,,2023-04-19,1,,,,,エヌファム,0
2173,8010701044147,新規,0,2023-04-19,2023-04-19,株式会社リバティライフ,,株式会社,東京都,品川区,小山６丁目６番１０号ダイヤモンドタワー西小山１２０５号室,,13,109,1420062,,,,,,,2023-04-19,1,,,,,リバティライフ,0
2174,8010901052882,新規,0,2023-04-19,2023-04-19,株式会社ライト,,株式会社,東京都,世田谷区,野沢２丁目９番９号,,13,112,1540003,,,,,,,2023-04-19,1,,,,,ライト,0
2178,8011001153860,新規,0,2023-04-19,2023-04-19,株式会社ｍａｇｉｅｂｏｎｎｅ,,株式会社,東京都,渋谷区,道玄坂１丁目１０番８号,,13,113,1500043,,,,,,,2023-04-19,1,,,,,マジボンヌ,0
2179,8011001153885,新規,0,2023-04-19,2023-04-19,株式会社Ｓｕｕ,,株式会社,東京都,渋谷区,道玄坂１丁目１０番８号渋谷道玄坂東急ビル２Ｆ－Ｃ,,13,113,1500043,,,,,,,2023-04-19,1,,,,,スウ,0
2182,8011003016652,新規,0,2023-04-19,2023-04-19,合同会社アクアシス,,合同会社,東京都,目黒区,青葉台３丁目１１番３号,,13,110,1530042,,,,,,,2023-04-19,1,,,,,アクアシス,0
2183,8011003016677,新規,0,2023-04-19,2023-04-19,合同会社ＹＭ,,合同会社,東京都,渋谷区,東３丁目２４番３号福田ビル３０２号,,13,113,1500011,,,,,,,2023-04-19,1,,,,,ワイエム,0
2186,8011101102577,新規,0,2023-04-19,2023-04-19,ＤＧＱ株式会社,,株式会社,東京都,新宿区,榎町３４－３榎町ビル７階－０７室,,13,104,1620806,,,,,,,2023-04-19,1,,,,,ディジィキュー,0
2187,8011101102593,新規,0,2023-04-19,2023-04-19,株式会社ＤａｗｎＴｅｃｈｎｏｌｏｇｙ,,株式会社,東京都,新宿区,新宿２丁目１２番１３号新宿アントレサロンビル２階,,13,104,1600022,,,,,,,2023-04-19,1,,,,,ドーンテクノロジー,0
2189,8011103012964,新規,0,2023-04-19,2023-04-19,俊成合同会社,,合同会社,東京都,新宿区,上落合３丁目１４番１７号,,13,104,1610034,,,,,,,2023-04-19,1,,,,,シュンセイ,0
2190,8011201024580,新規,0,2023-04-19,2023-04-19,株式会社ｋｅｙｓｊａｐａｎ,,株式会社,東京都,中野区,弥生町６丁目２－２－６０７,,13,114,1640013,,,,,,,2023-04-19,1,,,,,キーズジャパン,0
2201,8011601026747,新規,0,2023-04-19,2023-04-19,株式会社Ｂｒａｖｏ　Ｚｕｌｕ,,株式会社,東京都,練馬区,北町２丁目４０番７号,,13,120,1790081,,,,,,,2023-04-19,1,,,,,ブラボーズールー,0
2202,8011601026755,新規,0,2023-04-19,2023-04-19,株式会社ピッケル,,株式会社,東京都,練馬区,大泉学園町１丁目３１番８－４０２号,,13,120,1780061,,,,,,,2023-04-19,1,,,,,ピッケル,0
2204,8011701026168,新規,0,2023-04-19,2023-04-19,株式会社海拓商事,,株式会社,東京都,江戸川区,南小岩８丁目２６番２１－１０２号,,13,123,1330056,,,,,,,2023-04-19,1,,,,,カイタクショウジ,0
2205,8012301013408,新規,0,2023-04-19,2023-04-19,株式会社ソフィア,,株式会社,東京都,町田市,原町田６丁目２３番４号,,13,209,1940013,,,,,,,2023-04-19,1,,,,,ソフィア,0
2207,8012405004856,新規,0,2023-04-19,2023-04-19,一般社団法人産後ケアラボ協会,,その他の設立登記法人,東京都,多摩市,関戸２丁目６９番地３,,13,224,2060011,,,,,,,2023-04-19,1,,,,,サンゴケアラボキョウカイ,0
2211,8012805003193,新規,0,2023-04-19,2023-04-19,税理士法人小塩会計事務所,,その他の設立登記法人,東京都,国分寺市,本町２丁目２３番５－８０３号,,13,214,1850012,,,,,,,2023-04-19,1,,,,,オジオカイケイジムショ,0
2226,8020001151213,新規,0,2023-04-19,2023-04-19,エスエイチア株式会社,,株式会社,神奈川県,横浜市青葉区,つつじが丘１０番地２１－２０２,,14,117,2270055,,,,,,,2023-04-19,1,,,,,エスエイチア,0
2237,8020005015942,新規,0,2023-04-19,2023-04-19,一般社団法人匠,,その他の設立登記法人,神奈川県,川崎市麻生区,王禅寺東５丁目２－１２・１Ｆ,,14,137,2150018,,,,,,,2023-04-19,1,,,,,ショウ,0
2239,8021001078743,新規,0,2023-04-19,2023-04-19,株式会社芦川機工,,株式会社,神奈川県,秦野市,尾尻３５３番地,,14,211,2570011,,,,,,,2023-04-19,1,,,,,アシカワキコウ,0
2240,8021001078751,新規,0,2023-04-19,2023-04-19,株式会社つなぐ,,株式会社,神奈川県,相模原市中央区,上溝１８６３－４,,14,152,2520243,,,,,,,2023-04-19,1,,,,,ツナグ,0
2241,8021001078768,新規,0,2023-04-19,2023-04-19,株式会社ピーエムティージャパン,,株式会社,神奈川県,相模原市緑区,元橋本町４番１３－５号,,14,151,2520142,,,,,,,2023-04-19,1,,,,,ピーエムティージャパン,0
2243,8021003012997,新規,0,2023-04-19,2023-04-19,合同会社夢桜,,合同会社,神奈川県,平塚市,真田４丁目３２番４６号,,14,203,2591206,,,,,,,2023-04-19,1,,,,,ユメザクラ,0
2253,8030001153415,新規,0,2023-04-19,2023-04-19,株式会社ＮＳＲ,,株式会社,埼玉県,八潮市,大字鶴ケ曽根８１９番地１１浅美荘２０１,,11,234,3400802,,,,,,,2023-04-19,1,,,,,エヌエスアール,0
2254,8030001153480,新規,0,2023-04-19,2023-04-19,株式会社小平,,株式会社,埼玉県,蓮田市,本町４番１１号２Ｆ,,11,238,3490123,,,,,,,2023-04-19,1,,,,,オダイラ,0
2256,8030003021603,新規,0,2023-04-19,2023-04-19,ハヴェルカ合同会社,,合同会社,埼玉県,川口市,飯塚３丁目１０－４９－１１０１,,11,203,3320023,,,,,,,2023-04-19,1,,,,,ハヴェルカ,0
2257,8030005021221,新規,0,2023-04-19,2023-04-19,医療法人春優会,,その他の設立登記法人,埼玉県,所沢市,上新井１丁目２６番地の１,,11,208,3591142,,,,,,,2023-04-19,1,,,,,シュンユウカイ,0
2262,8040001128028,新規,0,2023-04-19,2023-04-19,ベル・テンポ株式会社,,株式会社,千葉県,佐倉市,王子台４丁目１７番地３,,12,212,2850837,,,,,,,2023-04-19,1,,,,,ベルテンポ,0
2263,8040001128044,新規,0,2023-04-19,2023-04-19,株式会社ＲＡＴＡＢＩ,,株式会社,千葉県,柏市,旭町１丁目１番１号,,12,217,2770852,,,,,,,2023-04-19,1,,,,,ラタビ,0
2268,8050003007427,新規,0,2023-04-19,2023-04-19,合同会社ＴＲＥグリーン,,合同会社,茨城県,つくば市,梅園２丁目１番地１５スプリングテックつくばビル４０１,,08,220,3050045,,,,,,,2023-04-19,1,,,,,ティーアールイーグリーン,0
2274,8070001040345,新規,0,2023-04-19,2023-04-19,株式会社ＹＡＮＳＩ,,株式会社,群馬県,桐生市,天神町３丁目１５番３３号,,10,203,3760052,,,,,,,2023-04-19,1,,,,,ヤンシ,0
2275,8070001040353,新規,0,2023-04-19,2023-04-19,ｓｃｅｎｔ　ｌｅｔｔｅｒ株式会社,,株式会社,群馬県,利根郡みなかみ町,相俣１９６－５,,10,449,3791404,,,,,,,2023-04-19,1,,,,,,0
2276,8080001025584,新規,0,2023-04-19,2023-04-19,ボンズ株式会社,,株式会社,静岡県,静岡市葵区,柳町１５７番地の１,,22,101,4200007,,,,,,,2023-04-19,1,,,,,ボンズ,0
2284,8090001018083,新規,0,2023-04-19,2023-04-19,株式会社エフラ,,株式会社,山梨県,中巨摩郡昭和町,西条２３２－１２、２０３号,,19,384,4093866,,,,,,,2023-04-19,1,,,,,エフラ,0
2295,8120001254047,新規,0,2023-04-19,2023-04-19,Ｈｏｗ‐Ｔｏ‐Ｌｉｆｅ株式会社,,株式会社,大阪府,大阪市淀川区,三津屋中３丁目３番３９号グリーンヴィレッジＢ１０１号,,27,123,5320036,,,,,,,2023-04-19,1,,,,,ハウトゥライフ,0
2296,8120001254063,新規,0,2023-04-19,2023-04-19,山河株式会社,,株式会社,大阪府,大阪市東住吉区,照ケ丘矢田２丁目７番２号淘金ビルＢ号室,,27,121,5460021,,,,,,,2023-04-19,1,,,,,サンカ,0
2297,8120001254105,新規,0,2023-04-19,2023-04-19,株式会社ＬＩＴＭＡ,,株式会社,大阪府,大阪市東住吉区,公園南矢田３丁目１番１９号,,27,121,5460024,,,,,,,2023-04-19,1,,,,,リトマ,0
2298,8120001254121,新規,0,2023-04-19,2023-04-19,株式会社ブラット,,株式会社,大阪府,大阪市住吉区,我孫子３丁目１１番２６ー２０５号,,27,120,5580014,,,,,,,2023-04-19,1,,,,,ブラット,0
2299,8120001254154,新規,0,2023-04-19,2023-04-19,株式会社ＭＯＯＮＳＨＩＮＥ,,株式会社,大阪府,大阪市中央区,瓦屋町１丁目８番１３号ウェルネスコート瓦屋町１０１号,,27,128,5420066,,,,,,,2023-04-19,1,,,,,ムーンシャイン,0
2300,8120001254162,新規,0,2023-04-19,2023-04-19,株式会社ＯＣＴＡＧＯＮ,,株式会社,大阪府,大阪市西区,京町堀１丁目７番２３号１００１,,27,106,5500003,,,,,,,2023-04-19,1,,,,,オクタゴン,0
2301,8120001254170,新規,0,2023-04-19,2023-04-19,株式会社センパイ,,株式会社,大阪府,大阪市中央区,淡路町３丁目５番１３号創建御堂筋ビル２階,,27,128,5410047,,,,,,,2023-04-19,1,,,,,センパイ,0
2302,8120001254286,新規,0,2023-04-19,2023-04-19,株式会社Ｏｔｉｍｏ,,株式会社,大阪府,大阪市東住吉区,桑津３丁目１５番３６号,,27,121,5460041,,,,,,,2023-04-19,1,,,,,オッチモ,0
2305,8120003023854,新規,0,2023-04-19,2023-04-19,合同会社ＨａｌｅＲｕ,,合同会社,大阪府,大阪市中央区,徳井町１丁目３番１２号,,27,128,5400025,,,,,,,2023-04-19,1,,,,,ハレル,0
2306,8120003023862,新規,0,2023-04-19,2023-04-19,ＡｉＦｉｔ合同会社,,合同会社,大阪府,大阪市西区,立売堀４丁目３番２０号,,27,106,5500012,,,,,,,2023-04-19,1,,,,,アイフィット,0
2310,8120101067398,新規,0,2023-04-19,2023-04-19,株式会社Ｐａｒｋｓ,,株式会社,大阪府,堺市堺区,南丸保園１番２９号カーサ丸保園２０２,,27,141,5900036,,,,,,,2023-04-19,1,,,,,パークス,0
2311,8120103005182,新規,0,2023-04-19,2023-04-19,合同会社月面秘密基地,,合同会社,大阪府,富田林市,若松町東２丁目３番３３号１０３号,,27,214,5840023,,,,,,,2023-04-19,1,,,,,ゲツメンヒミツキチ,0
2323,8130001074089,新規,0,2023-04-19,2023-04-19,株式会社安谷ホールディングス,,株式会社,京都府,船井郡京丹波町,和田寺谷７番地１,,26,407,6220311,,,,,,,2023-04-19,1,,,,,ヤスタニホールディングス,0
2332,8140001129817,新規,0,2023-04-19,2023-04-19,株式会社Ｇｌｏｂａｌ　ｃａｒｅ,,株式会社,兵庫県,姫路市,夢前町塩田２１４－１,,28,201,6712112,,,,,,,2023-04-19,1,,,,,グローバルケア,0
2333,8140001129858,新規,0,2023-04-19,2023-04-19,株式会社寿,,株式会社,兵庫県,尼崎市,東難波町４丁目１８番３２,,28,202,6600892,,,,,,,2023-04-19,1,,,,,コトブキ,0
2334,8140001129874,新規,0,2023-04-19,2023-04-19,成聖株式会社,,株式会社,兵庫県,川西市,大和東５丁目１８－１,,28,217,6660111,,,,,,,2023-04-19,1,,,,,セイショウ,0
2338,8140003018976,新規,0,2023-04-19,2023-04-19,合同会社ｇｅｍ,,合同会社,兵庫県,姫路市,飾磨区下野田２丁目４５７番地１,,28,201,6728044,,,,,,,2023-04-19,1,,,,,ジェム,0
2339,8140003019000,新規,0,2023-04-19,2023-04-19,Ｌｕｍｉｎｅｕｘ合同会社,,合同会社,兵庫県,伊丹市,桑津２丁目４－３９,,28,207,6640839,,,,,,,2023-04-19,1,,,,,リュミヌー,0
2342,8160001024982,新規,0,2023-04-19,2023-04-19,株式会社Ｕ・Ｉコンサルティング,,株式会社,滋賀県,甲賀市,信楽町長野４９１番２,,25,209,5291851,,,,,,,2023-04-19,1,,,,,ユーアイコンサルティング,0
2353,8180301037336,新規,0,2023-04-19,2023-04-19,株式会社エステイト市川,,株式会社,愛知県,岡崎市,法性寺町字上屋敷７３番地,,23,202,4440206,,,,,,,2023-04-19,1,,,,,エステイトイチカワ,0
2354,8190001030350,新規,0,2023-04-19,2023-04-19,株式会社ｔｏ．Ａ,,株式会社,三重県,鈴鹿市,道伯町２１４７番地７２,,24,207,5130824,,,,,,,2023-04-19,1,,,,,トゥーエー,0
2355,8190003004303,新規,0,2023-04-19,2023-04-19,アンニー合同会社,,合同会社,三重県,伊賀市,上野丸之内４２番６,,24,216,5180873,,,,,,,2023-04-19,1,,,,,,0
2358,8220001025371,新規,0,2023-04-19,2023-04-19,株式会社やほん,,株式会社,石川県,金沢市,乙丸町丙５４番地３,,17,201,9200807,,,,,,,2023-04-19,1,,,,,ヤホン,0
2359,8220003003499,新規,0,2023-04-19,2023-04-19,合同会社アシタノタメニ,,合同会社,石川県,金沢市,緑が丘３番２７号‐４０４,,17,201,9218117,,,,,,,2023-04-19,1,,,,,アシタノタメニ,0
2362,8240001061381,新規,0,2023-04-19,2023-04-19,株式会社あおい,,株式会社,広島県,東広島市,八本松東３丁目７番２号谷口ビル１０１号室,,34,212,7390142,,,,,,,2023-04-19,1,,,,,アオイ,0
2363,8240001061407,新規,0,2023-04-19,2023-04-19,ヒロリクホールディングス株式会社,,株式会社,広島県,広島市南区,宇品神田５丁目２６番７号,,34,103,7340004,,,,,,,2023-04-19,1,,,,,ヒロリクホールディングス,0
2368,8260001037867,新規,0,2023-04-19,2023-04-19,アースエネルギー株式会社生新,,株式会社,岡山県,倉敷市,連島町西之浦４１２番地４,,33,202,7128001,,,,,,,2023-04-19,1,,,,,アースエネルギーセイシン,0
2369,8270003001515,新規,0,2023-04-19,2023-04-19,合同会社森羅,,合同会社,鳥取県,米子市,淀江町西尾原３５－９,,31,202,6893414,,,,,,,2023-04-19,1,,,,,シンラ,0
2379,8290001101232,新規,0,2023-04-19,2023-04-19,スタジオロジック株式会社,,株式会社,福岡県,久留米市,野中町６６０－１８,,40,203,8390862,,,,,,,2023-04-19,1,,,,,スタジオロジック,0
2380,8290001101257,新規,0,2023-04-19,2023-04-19,株式会社ＬＡＶＥ,,株式会社,福岡県,福岡市西区,愛宕浜４丁目２５番１０号,,40,135,8190013,,,,,,,2023-04-19,1,,,,,レイヴ,0
2381,8290003013797,新規,0,2023-04-19,2023-04-19,合同会社太宰府ロケット研究所,,合同会社,福岡県,太宰府市,宰府６丁目８－１,,40,221,8180117,,,,,,,2023-04-19,1,,,,,ダザイフロケットケンキュウショ,0
2382,8290003013814,新規,0,2023-04-19,2023-04-19,合同会社メディカルサポートパルフェ,,合同会社,福岡県,久留米市,中央町１４番地１－１８０２号,,40,203,8300023,,,,,,,2023-04-19,1,,,,,メディカルサポートパルフェ,0
2385,8290803004401,新規,0,2023-04-19,2023-04-19,合同会社福岡創生,,合同会社,福岡県,北九州市門司区,稲積２丁目１１番２２号,,40,101,8000048,,,,,,,2023-04-19,1,,,,,フクオカソウセイ,0
2391,8320001019710,新規,0,2023-04-19,2023-04-19,リンクス大分管理株式会社,,株式会社,大分県,大分市,金池町３丁目１番３号,,44,201,8700026,,,,,,,2023-04-19,1,,,,,リンクスオオイタカンリ,0
2394,8330003009816,新規,0,2023-04-19,2023-04-19,合同会社ＤＡＮＨＯ,,合同会社,熊本県,熊本市中央区,出水７丁目９４番２号,,43,101,8620941,,,,,,,2023-04-19,1,,,,,ダンホ,0
2396,8350001018296,新規,0,2023-04-19,2023-04-19,株式会社ｌｅｉ　ｂｅｌｌｅ,,株式会社,宮崎県,東諸県郡国富町,大字三名３６８３番地１,,45,382,8801114,,,,,,,2023-04-19,1,,,,,レイベル,0
2397,8350001018305,新規,0,2023-04-19,2023-04-19,株式会社ＦＡＤＣＯＭ．,,株式会社,宮崎県,宮崎市,老松１丁目４番３５号サーパス中央公園６０９号,,45,201,8800801,,,,,,,2023-04-19,1,,,,,ファドコム,0
2403,8370001049851,新規,0,2023-04-19,2023-04-19,株式会社ＢＲＡＮＤ,,株式会社,宮城県,仙台市青葉区,一番町１丁目９番１号仙台トラストタワー１０階,,04,101,9800811,,,,,,,2023-04-19,1,,,,,ブランド,0
2404,8370001049868,新規,0,2023-04-19,2023-04-19,アシストワークプラン株式会社,,株式会社,宮城県,仙台市宮城野区,出花２丁目７番地の５,,04,102,9830012,,,,,,,2023-04-19,1,,,,,アシストワークプラン,0
2410,8380001033623,新規,0,2023-04-19,2023-04-19,オリエント株式会社,,株式会社,福島県,会津若松市,天神町３１－１デバイスレジデンス天神１０１,,07,202,9650832,,,,,,,2023-04-19,1,,,,,オリエント,0
2411,8380001033631,新規,0,2023-04-19,2023-04-19,株式会社ファームブリッジ,,株式会社,福島県,会津若松市,真宮新町北２丁目７９番地１,,07,202,9650102,,,,,,,2023-04-19,1,,,,,ファームブリッジ,0
2412,8380003005439,新規,0,2023-04-19,2023-04-19,合同会社ワイズコレクション,,合同会社,福島県,福島市,飯坂町字大門３４,,07,201,9600201,,,,,,,2023-04-19,1,,,,,ワイズコレクション,0
2414,8400001016212,新規,0,2023-04-19,2023-04-19,ＲＯＹＡＬ　ＰＡＩＮＴ株式会社,,株式会社,岩手県,盛岡市,向中野字道明１３０番地７,,03,201,0200851,,,,,,,2023-04-19,1,,,,,ロイヤルペイント,0
2420,8430001088793,新規,0,2023-04-19,2023-04-19,株式会社ＩＳＣ,,株式会社,北海道,岩内郡共和町,梨野舞納５４番地８６,,01,401,0450031,,,,,,,2023-04-19,1,,,,,アイエスシー,0
2426,8480003001972,新規,0,2023-04-19,2023-04-19,合同会社おてんとカンパニー,,合同会社,徳島県,徳島市,国府町芝原字野神９１番地の１,,36,201,7793112,,,,,,,2023-04-19,1,,,,,オテントカンパニー,0
2430,8700150115585,新規,0,2023-04-19,2023-04-19,ＡＴＡＧＯ　ＬＩＭＩＴＥＤ,,外国会社等,東京都,港区,愛宕１丁目１－１－２７０４,,13,103,1050002,Ｈｏｕｓｅ　１４，Ｆｉｆｔｈ　Ｓｔｒｅｅｔ，Ｈｏｎｇ　Ｌｏｋ　Ｙｕｅｎ，Ｔａｉ　Ｐｏ，Ｎｅｗ　Ｔｅｒｒｉｔｏｒｉｅｓ，Ｈｏｎｇ　Ｋｏｎｇ,,,,,,2023-04-19,1,,,,,アタゴリミテツド,0
2449,9010003040356,新規,0,2023-04-19,2023-04-19,合同会社ＲＩＳＥＧＹ,,合同会社,東京都,文京区,本郷４丁目１６－６天翔オフィス後楽園ビル４０７,,13,105,1130033,,,,,,,2023-04-19,1,,,,,ライジー,0
2450,9010003040389,新規,0,2023-04-19,2023-04-19,ＲＢソーラーフレイム合同会社,,合同会社,東京都,中央区,八丁堀４丁目２番１０号ＡＯＪ税理士法人内,,13,102,1040032,,,,,,,2023-04-19,1,,,,,アールビーソーラーフレイム,0
2455,9010401173575,新規,0,2023-04-19,2023-04-19,ラザロ株式会社,,株式会社,東京都,港区,南青山３丁目１番３６号青山丸竹ビル６Ｆ,,13,103,1070062,,,,,,,2023-04-19,1,,,,,ラザロ,0
2456,9010401173765,新規,0,2023-04-19,2023-04-19,株式会社ＴＰＩ,,株式会社,東京都,港区,台場２丁目２－２－２２０４,,13,103,1350091,,,,,,,2023-04-19,1,,,,,テーピーアー,0
2457,9010401173815,新規,0,2023-04-19,2023-04-19,株式会社ＤＩＶＡ　Ｄｉａｍｏｎｄ,,株式会社,東京都,港区,六本木５丁目１６番２３－１０１号,,13,103,1060032,,,,,,,2023-04-19,1,,,,,ディーヴァダイヤモンド,0
2458,9010401173880,新規,0,2023-04-19,2023-04-19,アクアトロ株式会社,,株式会社,東京都,港区,南青山２丁目２番１５号ＷｉｎＡｏｙａｍａビルＵＣＦ６階,,13,103,1070062,,,,,,,2023-04-19,1,,,,,アクアトロ,0
2459,9010403029973,新規,0,2023-04-19,2023-04-19,メゾンタカハシ合同会社,,合同会社,東京都,港区,南麻布２丁目９‐９‐３０１,,13,103,1060047,,,,,,,2023-04-19,1,,,,,メゾンタカハシ,0
2463,9010501050328,新規,0,2023-04-19,2023-04-19,オウルウイング株式会社,,株式会社,東京都,台東区,雷門２丁目１９番１７号浅草雷一ビル５０１号室,,13,106,1110034,,,,,,,2023-04-19,1,,,,,オウルウイング,0
2467,9010601062917,新規,0,2023-04-19,2023-04-19,株式会社匯田国際,,株式会社,東京都,江東区,有明２丁目１－２シティタワーズ東京ベイセントラルタワー２３１３号,,13,108,1350063,,,,,,,2023-04-19,1,,,,,エダコクサイ,0
2468,9010601062941,新規,0,2023-04-19,2023-04-19,株式会社Ｒｅｌａｘ＆Ｒｅｓｏｒｔ,,株式会社,東京都,江東区,森下５丁目１８番３号,,13,108,1350004,,,,,,,2023-04-19,1,,,,,リラックスアンドリゾート,0
2469,9010601062966,新規,0,2023-04-19,2023-04-19,株式会社Ｌｅｆｔｙ,,株式会社,東京都,墨田区,亀沢４丁目７番７号,,13,107,1300014,,,,,,,2023-04-19,1,,,,,レフティ,0
2470,9010603010106,新規,0,2023-04-19,2023-04-19,合同会社ｅ．ｆｏｘ,,合同会社,東京都,江東区,牡丹１丁目８番６号,,13,108,1350046,,,,,,,2023-04-19,1,,,,,イーフォックス,0
2473,9010703006664,新規,0,2023-04-19,2023-04-19,ＳＹＰＯ合同会社,,合同会社,東京都,品川区,東五反田５丁目１５番地１１号２Ｆ,,13,109,1410022,,,,,,,2023-04-19,1,,,,,ワイエスピーオフィス,0
2478,9010903008114,新規,0,2023-04-19,2023-04-19,ＬＹＮＸ．合同会社,,合同会社,東京都,世田谷区,松原４丁目９―１７ＫＴビルＢ１,,13,112,1560043,,,,,,,2023-04-19,1,,,,,リンクス,0
2480,9011001153843,新規,0,2023-04-19,2023-04-19,株式会社ＦＬＡＰ　ｅｎｔｅｒｔａｉｎｍｅｎｔ,,株式会社,東京都,渋谷区,西原２丁目３４－９,,13,113,1510066,,,,,,,2023-04-19,1,,,,,フラップエンターテインメント,0
2481,9011001153892,新規,0,2023-04-19,2023-04-19,株式会社Ｓ＆Ｌ,,株式会社,東京都,渋谷区,千駄ヶ谷２丁目２８番３号ＺＯＯＭ神宮前８０３,,13,113,1510051,,,,,,,2023-04-19,1,,,,,エスアンドエル,0
2484,9011003016676,新規,0,2023-04-19,2023-04-19,合同会社Ｃｈａｉｎ　Ｒｅａｃｔｉｏｎ,,合同会社,東京都,渋谷区,神宮前６丁目２３番４号桑野ビル２階,,13,113,1500001,,,,,,,2023-04-19,1,,,,,チェーンリアクション,0
2485,9011003016684,新規,0,2023-04-19,2023-04-19,合同会社バックランジ,,合同会社,東京都,渋谷区,道玄坂１丁目１０番８号渋谷道玄坂東急ビル２Ｆ－Ｃ,,13,113,1500043,,,,,,,2023-04-19,1,,,,,バックランジ,0
2486,9011005010033,新規,0,2023-04-19,2023-04-19,一般社団法人日本動物看護学会,,その他の設立登記法人,東京都,渋谷区,神宮前６丁目２３－４桑野ビル２階,,13,113,1500001,,,,,,,2023-04-19,1,,,,,ニホンドウブツカンゴガッカイ,0
2488,9011101102576,新規,0,2023-04-19,2023-04-19,ＧａＲａＫｕＴａ．Ｌａｂ株式会社,,株式会社,東京都,新宿区,歌舞伎町１丁目２番３号レオ新宿ビル４階１２号,,13,104,1600021,,,,,,,2023-04-19,1,,,,,ガラクタラボ,0
2489,9011101102592,新規,0,2023-04-19,2023-04-19,渋谷ブレンドグリーンエナジー株式会社,,株式会社,東京都,新宿区,百人町１丁目１０－１５ＪＲ新大久保駅ビル４Ｆ,,13,104,1690073,,,,,,,2023-04-19,1,,,,,シブヤブレンドグリーンエナジー,0
2492,9011103012963,新規,0,2023-04-19,2023-04-19,西貝合同会社,,合同会社,東京都,新宿区,上落合３丁目１４番１８号,,13,104,1610034,,,,,,,2023-04-19,1,,,,,ニシカイ,0
2494,9011401025056,新規,0,2023-04-19,2023-04-19,Ｃｌｅｍｉｋｏ株式会社,,株式会社,東京都,板橋区,仲宿３－８地上１階１１２号室,,13,119,1730005,,,,,,,2023-04-19,1,,,,,クレミコ,0
2495,9011501029188,新規,0,2023-04-19,2023-04-19,ＨＥＤＧＥＨＯＧ　ＣＯＮＣＥＰＴ株式会社,,株式会社,東京都,荒川区,東日暮里３丁目３９番１３号,,13,118,1160014,,,,,,,2023-04-19,1,,,,,ヘッジホグコンセプト,0
2500,9011801042254,新規,0,2023-04-19,2023-04-19,株式会社トラストジャパン,,株式会社,東京都,足立区,千住緑町１丁目２４番１－１０１,,13,121,1200044,,,,,,,2023-04-19,1,,,,,トラストジャパン,0
2503,9011805003260,新規,0,2023-04-19,2023-04-19,一般社団法人和文化継承委員会まほろば,,その他の設立登記法人,東京都,足立区,関原３丁目２番３号,,13,121,1230852,,,,,,,2023-04-19,1,,,,,ワブンカケイショウイインカイマホロバ,0
2504,9012301013407,新規,0,2023-04-19,2023-04-19,株式会社アシスト,,株式会社,東京都,町田市,原町田６丁目２３番４号,,13,209,1940013,,,,,,,2023-04-19,1,,,,,アシスト,0
2507,9013301050613,新規,0,2023-04-19,2023-04-19,和敬株式会社,,株式会社,東京都,豊島区,東池袋３丁目８番５号,,13,116,1700013,,,,,,,2023-04-19,1,,,,,ワケイ,0
2517,9020001151245,新規,0,2023-04-19,2023-04-19,株式会社ソフトテラス,,株式会社,神奈川県,横浜市中区,元町５丁目２０２番１号,,14,104,2310861,,,,,,,2023-04-19,1,,,,,ソフトテラス,0
2522,9021001078668,新規,0,2023-04-19,2023-04-19,株式会社ＮＩＮＯＫＵＮＩ,,株式会社,神奈川県,相模原市中央区,清新７丁目４－１３,,14,152,2520216,,,,,,,2023-04-19,1,,,,,ニノクニ,0
2523,9021001078726,新規,0,2023-04-19,2023-04-19,株式会社Ｓｅｌｌｓ　ｕｐ,,株式会社,神奈川県,中郡二宮町,中里２丁目３６番１４号,,14,342,2590131,,,,,,,2023-04-19,1,,,,,セルスアップ,0
2524,9021001078742,新規,0,2023-04-19,2023-04-19,株式会社木心,,株式会社,神奈川県,小田原市,十字４丁目１０８８番１２,,14,206,2500046,,,,,,,2023-04-19,1,,,,,キゴコロ,0
2525,9021001078759,新規,0,2023-04-19,2023-04-19,株式会社Ｒ＆Ｓ,,株式会社,神奈川県,海老名市,国分南２丁目３９番１０号,,14,215,2430405,,,,,,,2023-04-19,1,,,,,アールアンドエス,0
2528,9021005012788,新規,0,2023-04-19,2023-04-19,特定非営利活動法人和,,その他の設立登記法人,神奈川県,相模原市南区,上鶴間本町９丁目３２番２０号,,14,153,2520318,,,,,,,2023-04-19,1,,,,,ナゴミ,0
2535,9030001153447,新規,0,2023-04-19,2023-04-19,株式会社アイヲン,,株式会社,埼玉県,さいたま市見沼区,春岡１丁目２３番地４－２０１,,11,104,3370008,,,,,,,2023-04-19,1,,,,,アイヲン,0
2536,9030001153455,新規,0,2023-04-19,2023-04-19,彩の国株式会社,,株式会社,埼玉県,さいたま市見沼区,大字笹丸１６７番地１,,11,104,3370031,,,,,,,2023-04-19,1,,,,,サイノクニ,0
2537,9030001153505,新規,0,2023-04-19,2023-04-19,株式会社ひかり,,株式会社,埼玉県,八潮市,大瀬６丁目９番地７号Ｉ．Ｋビル４０２号室,,11,234,3400822,,,,,,,2023-04-19,1,,,,,ヒカリ,0
2540,9030005021220,新規,0,2023-04-19,2023-04-19,医療法人社団一翼会,,その他の設立登記法人,埼玉県,入間郡三芳町,大字藤久保８４９番地２１,,11,324,3540041,,,,,,,2023-04-19,1,,,,,イチヨクカイ,0
2546,9040003022418,新規,0,2023-04-19,2023-04-19,ＳａＨａ商事合同会社,,合同会社,千葉県,佐倉市,城内町８７番地１２リバードシー１０１号室,,12,212,2850017,,,,,,,2023-04-19,1,,,,,サハショウジ,0
2550,9050003007426,新規,0,2023-04-19,2023-04-19,合同会社ＭＴ,,合同会社,茨城県,神栖市,堀割３丁目７番３９号,,08,232,3140135,,,,,,,2023-04-19,1,,,,,エムティ,0
2554,9060003004521,新規,0,2023-04-19,2023-04-19,ｆｉｒｓｔ　ｓｔｅｐ合同会社,,合同会社,栃木県,塩谷郡高根沢町,大字宝積寺１２１４番地１１,,09,386,3291233,,,,,,,2023-04-19,1,,,,,ファーストステップ,0
2567,9100001036339,新規,0,2023-04-19,2023-04-19,株式会社もかば,,株式会社,長野県,松本市,梓川梓１７９５－３,,20,202,3901702,,,,,,,2023-04-19,1,,,,,モカバ,0
2571,9100003006967,新規,0,2023-04-19,2023-04-19,合同会社ＤＩＷ,,合同会社,長野県,上田市,富士山２７１５番地４,,20,203,3861212,,,,,,,2023-04-19,1,,,,,デュー,0
2573,9110003005027,新規,0,2023-04-19,2023-04-19,たまごろう合同会社,,合同会社,新潟県,南魚沼市,茗荷沢５９２番地２,,15,226,9497231,,,,,,,2023-04-19,1,,,,,タマゴロウ,0
2575,9110005016930,新規,0,2023-04-19,2023-04-19,一般社団法人長岡スポーツ＆フットボールクラブ,,その他の設立登記法人,新潟県,長岡市,与板町与板２３０番地,,15,202,9402402,,,,,,,2023-04-19,1,,,,,ナガオカスポーツアンドフットボールクラブ,0
2591,9120001254079,新規,0,2023-04-19,2023-04-19,株式会社ＵＬＵＨＡＮＡ,,株式会社,大阪府,大阪市北区,天神橋２丁目１番２２号押野ビル２階,,27,127,5300041,,,,,,,2023-04-19,1,,,,,ウルハナ,0
2592,9120001254087,新規,0,2023-04-19,2023-04-19,ＳＷハウス株式会社,,株式会社,大阪府,大阪市中央区,千日前２丁目３番３号ＳＷビル４階,,27,128,5420074,,,,,,,2023-04-19,1,,,,,エスダブリューハウス,0
2593,9120001254104,新規,0,2023-04-19,2023-04-19,株式会社ｑｌｏ,,株式会社,大阪府,大阪市城東区,中浜１丁目９番２号,,27,118,5360024,,,,,,,2023-04-19,1,,,,,クロ,0
2594,9120001254112,新規,0,2023-04-19,2023-04-19,株式会社Ｊコネクト,,株式会社,大阪府,大阪市天王寺区,上汐３丁目１番６号,,27,109,5430002,,,,,,,2023-04-19,1,,,,,ジェイコネクト,0
2595,9120001254129,新規,0,2023-04-19,2023-04-19,株式会社ＮＩＳ,,株式会社,大阪府,大阪市中央区,安土町２丁目３番１３号大阪国際ビルディング３０階,,27,128,5410052,,,,,,,2023-04-19,1,,,,,エヌアイエス,0
2596,9120001254137,新規,0,2023-04-19,2023-04-19,沃隆株式会社,,株式会社,大阪府,大阪市港区,港晴４丁目１４番５号３Ｆ,,27,107,5520023,,,,,,,2023-04-19,1,,,,,ヨクリュウ,0
2597,9120001254161,新規,0,2023-04-19,2023-04-19,株式会社Ｌｕｌｕｌｉｐ,,株式会社,大阪府,大阪市東成区,大今里１丁目３０－１７,,27,115,5370012,,,,,,,2023-04-19,1,,,,,ルルリップ,0
2598,9120001254178,新規,0,2023-04-19,2023-04-19,株式会社Ｎ　Ｓｔｕｄｉｏ,,株式会社,大阪府,大阪市中央区,内本町１丁目２番１５号谷四スクエアビル５Ｆ－１３,,27,128,5400026,,,,,,,2023-04-19,1,,,,,エヌスタジオ,0
2601,9120005023579,新規,0,2023-04-19,2023-04-19,一般社団法人ＫＣＡ,,その他の設立登記法人,大阪府,大阪市淀川区,西中島５丁目２番１２号,,27,123,5320011,,,,,,,2023-04-19,1,,,,,ケーシーエー,0
2622,9140001129626,新規,0,2023-04-19,2023-04-19,株式会社Ｍｙ　Ｍｏｔｈｅｒｂｏａｒｄｓ　Ｉｎｃ,,株式会社,兵庫県,神戸市中央区,山本通３丁目２１番１５－１０１号,,28,110,6500003,,,,,,,2023-04-19,1,,,,,マイマザーボードインク,0
2639,9180001155940,新規,0,2023-04-19,2023-04-19,株式会社ＴＡＴＳＵＹＡ,,株式会社,愛知県,名古屋市名東区,小池町１３番地２（１Ｆ）,,23,115,4650047,,,,,,,2023-04-19,1,,,,,タツヤ,0
2640,9180001155949,新規,0,2023-04-19,2023-04-19,株式会社ウルブライト,,株式会社,愛知県,名古屋市天白区,塩釜口２丁目１１０１番地の２（ネオコート塩釜４Ｂ）,,23,116,4680073,,,,,,,2023-04-19,1,,,,,ウルブライト,0
2653,9180301037335,新規,0,2023-04-19,2023-04-19,株式会社サンヨウ・エルテック,,株式会社,愛知県,豊田市,小坂町１０丁目１番地,,23,211,4710035,,,,,,,2023-04-19,1,,,,,サンヨウエルテック,0
2655,9180303005686,新規,0,2023-04-19,2023-04-19,合同会社ＭＥＧＵＭＩ,,合同会社,愛知県,田原市,赤羽根町西山２１１番地,,23,231,4413502,,,,,,,2023-04-19,1,,,,,メグミ,0
2661,9200003005934,新規,0,2023-04-19,2023-04-19,合同会社３９,,合同会社,岐阜県,岐阜市,加野１丁目４７番地８号,,21,201,5013107,,,,,,,2023-04-19,1,,,,,サンジュウキュウ,0
2662,9200005013472,新規,0,2023-04-19,2023-04-19,一般社団法人ＭＥＤＡＲ,,その他の設立登記法人,岐阜県,岐阜市,鏡島精華３丁目３番５０号,,21,201,5010112,,,,,,,2023-04-19,1,,,,,メダル,0
2675,9240001061389,新規,0,2023-04-19,2023-04-19,株式会社ＩＮ,,株式会社,広島県,広島市中区,大手町５丁目７番２７号,,34,101,7300051,,,,,,,2023-04-19,1,,,,,イン,0
2680,9240005015564,新規,0,2023-04-19,2023-04-19,一般社団法人西日本ポーカー連盟,,その他の設立登記法人,広島県,広島市佐伯区,五日市町大字石内６２２２番地７,,34,108,7315102,,,,,,,2023-04-19,1,,,,,ニシニホンポーカーレンメイ,0
2684,9270003001514,新規,0,2023-04-19,2023-04-19,合同会社Ｆｉｒｓｔ．Ｐｅｎｇｕｉｎ,,合同会社,鳥取県,鳥取市,相生町２丁目５０３番地,,31,201,6800805,,,,,,,2023-04-19,1,,,,,ファーストドットペンギン,0
2691,9290001101140,新規,0,2023-04-19,2023-04-19,株式会社またよし製作所,,株式会社,福岡県,筑紫野市,紫６丁目１７番３号,,40,217,8180061,,,,,,,2023-04-19,1,,,,,マタヨシセイサクショ,0
2692,9290001101215,新規,0,2023-04-19,2023-04-19,株式会社アーキペクター設計,,株式会社,福岡県,福岡市中央区,渡辺通２丁目６番１２号,,40,133,8100004,,,,,,,2023-04-19,1,,,,,アーキペクターセッケイ,0
2694,9290003013796,新規,0,2023-04-19,2023-04-19,エスエスエム合同会社,,合同会社,福岡県,筑紫野市,紫５丁目１２番２２号,,40,217,8180061,,,,,,,2023-04-19,1,,,,,エスエスエム,0
2699,9290801029481,新規,0,2023-04-19,2023-04-19,株式会社ウィンクレスト,,株式会社,福岡県,北九州市小倉北区,緑ケ丘２丁目３番５号,,40,106,8030827,,,,,,,2023-04-19,1,,,,,ウィンクレスト,0
2715,9350001018295,新規,0,2023-04-19,2023-04-19,株式会社ＭＡＴＳＵＧＵＭＩ,,株式会社,宮崎県,延岡市,土々呂町２丁目６３６番地１,,45,203,8890513,,,,,,,2023-04-19,1,,,,,マツグミ,0
2716,9350003004343,新規,0,2023-04-19,2023-04-19,たかちほ薬局合同会社,,合同会社,宮崎県,西臼杵郡高千穂町,大字三田井４３７番地１,,45,441,8821101,,,,,,,2023-04-19,1,,,,,タカチホヤッキョク,0
2722,9370001049859,新規,0,2023-04-19,2023-04-19,株式会社竹谷建築,,株式会社,宮城県,宮城郡松島町,高城字町５１番地の１,,04,401,9810215,,,,,,,2023-04-19,1,,,,,タケヤケンチク,0
2741,9400002017563,新規,0,2023-04-19,2023-04-19,有限会社愛和産業,,有限会社,岩手県,盛岡市,三ツ割１丁目１番１号,,03,201,0200011,,,,,,,2023-04-19,1,,,,,,0
2742,9400003003067,新規,0,2023-04-19,2023-04-19,岩泉おが粉生産合同会社,,合同会社,岩手県,下閉伊郡岩泉町,門字町６３番地３,,03,483,0285641,,,,,,,2023-04-19,1,,,,,イワイズミオガコセイサン,0
2749,9430001088867,新規,0,2023-04-19,2023-04-19,株式会社加藤板金工業,,株式会社,北海道,室蘭市,祝津町３丁目２番１７号,,01,205,0510036,,,,,,,2023-04-19,1,,,,,カトウバンキンコウギョウ,0
2750,9430001088941,新規,0,2023-04-19,2023-04-19,株式会社サウジャナ,,株式会社,北海道,札幌市東区,北四十三条東８丁目１番５号,,01,103,0070843,,,,,,,2023-04-19,1,,,,,サウジャナ,0
2752,9430003014904,新規,0,2023-04-19,2023-04-19,合同会社早貸調理師紹介所,,合同会社,北海道,札幌市中央区,南四条西６丁目８番地３晴ばれビル５階,,01,101,0640804,,,,,,,2023-04-19,1,,,,,ハヤカシチョウリシショウカイジョ,0
2757,9490001010461,新規,0,2023-04-19,2023-04-19,ＴＥＰＰＥＮ株式会社,,株式会社,高知県,高知市,前里２０番地１,,39,201,7800024,,,,,,,2023-04-19,1,,,,,テッペン,0
2758,9700150115584,新規,0,2023-04-19,2023-04-19,美星町観光協会,,その他,岡山県,井原市,美星町三山１０５５番地,,33,207,7141406,,,,,,,2023-04-19,1,,,,,ビセイチョウカンコウキョウカイ,0
