sequenceNumber,corporateNumber,process,correct,updateDate,changeDate,name,nameImageId,kind,prefectureName,cityName,streetNumber,addressImageId,prefectureCode,cityCode,postCode,addressOutside,addressOutsideImageId,closeDate,closeCause,successorCorporateNumber,changeCause,assignmentDate,latest,enName,enPrefectureName,enCityName,enAddressOutside,furigana,hihyoji
7,1010001247480,新規,0,2024-08-20,2024-08-20,株式会社Ａ＆Ｓコンサルティング,,株式会社,東京都,文京区,春日２丁目１９番１２号小石川ウォールズ３０２,,13,105,1120003,,,,,,,2024-08-20,1,,,,,エーアンドエスコンサルティング,0
8,1010001247555,新規,0,2024-08-20,2024-08-20,株式会社ＳＴＯＣＫ１６０,,株式会社,東京都,千代田区,永田町２丁目１２番４号,,13,101,1000014,,,,,,,2024-08-20,1,,,,,ストックヒャクロクジュウ,0
9,1010001247563,新規,0,2024-08-20,2024-08-20,株式会社ＳＴＯＣＫ１６８,,株式会社,東京都,千代田区,永田町２丁目１２番４号,,13,101,1000014,,,,,,,2024-08-20,1,,,,,ストックヒャクロクジュウハチ,0
10,1010001247596,新規,0,2024-08-20,2024-08-20,高松バイオ製薬株式会社,,株式会社,東京都,中央区,日本橋３丁目２番１４号新槇町ビル別館第一２階,,13,102,1030027,,,,,,,2024-08-20,1,,,,,タカマツバイオセイヤク,0
14,1010003044629,新規,0,2024-08-20,2024-08-20,Ｄａｒｂｙ　Ｉｎｄｕｓｔｒｉａｌ合同会社,,合同会社,東京都,中央区,日本橋３丁目９番１号日本橋三丁目スクエア１１階,,13,102,1030027,,,,,,,2024-08-20,1,,,,,ダービーインダストリアル,0
15,1010003044661,新規,0,2024-08-20,2024-08-20,合同会社アストレアプロパティーズ,,合同会社,東京都,文京区,千石１丁目１９番９－３０８号,,13,105,1120011,,,,,,,2024-08-20,1,,,,,アストレアプロパティーズ,0
17,1010005038678,新規,0,2024-08-20,2024-08-20,岩沼開発一般社団法人,,その他の設立登記法人,東京都,千代田区,丸の内１丁目４番１号東京共同会計事務所内,,13,101,1000005,,,,,,,2024-08-20,1,,,,,イワヌマカイハツ,0
18,1010005038686,新規,0,2024-08-20,2024-08-20,ＭＭ６０・６１特定目的会社,,その他の設立登記法人,東京都,千代田区,内神田１丁目３番７号４０１あすな会計事務所内,,13,101,1010047,,,,,,,2024-08-20,1,,,,,エムエムロクゼロロクイチ,0
20,1010103002404,新規,0,2024-08-20,2024-08-20,合同会社ＥＩＳＨＯ,,合同会社,東京都,八王子市,元横山町３丁目２４番３３号,,13,201,1920063,,,,,,,2024-08-20,1,,,,,エイショウ,0
25,1010401184563,新規,0,2024-08-20,2024-08-20,株式会社Ｓｋｙ　Ｈｉｒｅ,,株式会社,東京都,港区,赤坂９丁目４番１号１４０１,,13,103,1070052,,,,,,,2024-08-20,1,,,,,スカイハイヤー,0
26,1010401184571,新規,0,2024-08-20,2024-08-20,株式会社ＧＯＯＤ　ＭＥＤＩＣＩＮＥ,,株式会社,東京都,港区,赤坂２丁目１３番６号,,13,103,1070052,,,,,,,2024-08-20,1,,,,,グッドメディスン,0
31,1010503007531,新規,0,2024-08-20,2024-08-20,Ｕｐｗｏｒｋｓ合同会社,,合同会社,東京都,台東区,雷門２丁目１９－１７,,13,106,1110034,,,,,,,2024-08-20,1,,,,,アップワークス,0
32,1010601065778,新規,0,2024-08-20,2024-08-20,株式会社ＳｅｌｌＹｏｕ,,株式会社,東京都,墨田区,文花１丁目１８―１３,,13,107,1310044,,,,,,,2024-08-20,1,,,,,セルユー,0
37,1010901055818,新規,0,2024-08-20,2024-08-20,株式会社スイザ,,株式会社,東京都,世田谷区,池尻２丁目２６番２号－１０３,,13,112,1540001,,,,,,,2024-08-20,1,,,,,スイザ,0
38,1010903009301,新規,0,2024-08-20,2024-08-20,合同会社ＣＳＲグループ,,合同会社,東京都,世田谷区,喜多見５丁目１４番２５－１０７号,,13,112,1570067,,,,,,,2024-08-20,1,,,,,シーエスアールグループ,0
44,1011003019793,新規,0,2024-08-20,2024-08-20,合同会社ＡＹＡＭＥ　ＭＩＣＨＩＲＵ,,合同会社,東京都,渋谷区,大山町１５番７号シティハウス大山町３０１,,13,113,1510065,,,,,,,2024-08-20,1,,,,,アヤメミチル,0
48,1011101108523,新規,0,2024-08-20,2024-08-20,Ａｕｔｏ‐Ｘ株式会社,,株式会社,東京都,新宿区,西新宿３丁目３番１３号西新宿水間ビル２Ｆ,,13,104,1600023,,,,,,,2024-08-20,1,,,,,オートエクス,0
49,1011501031060,新規,0,2024-08-20,2024-08-20,株式会社ｄｏｕ,,株式会社,東京都,荒川区,町屋２丁目１７番２－２０２号,,13,118,1160001,,,,,,,2024-08-20,1,,,,,ドウ,0
55,1020001158495,新規,0,2024-08-20,2024-08-20,株式会社スマートベース,,株式会社,神奈川県,川崎市宮前区,宮崎８１番地７,,14,136,2160033,,,,,,,2024-08-20,1,,,,,スマートベース,0
56,1020001158512,新規,0,2024-08-20,2024-08-20,株式会社Ｈｕｍａｎ　Ｂｅｉｎｇｓ,,株式会社,神奈川県,横浜市港北区,綱島東４丁目７番１１－４０７号,,14,109,2230052,,,,,,,2024-08-20,1,,,,,ヒューマンビーイングス,0
57,1020001158520,新規,0,2024-08-20,2024-08-20,株式会社クリニカルサクセスジャパン,,株式会社,神奈川県,横浜市西区,北幸１丁目１１番１号,,14,103,2200004,,,,,,,2024-08-20,1,,,,,クリニカルサクセスジャパン,0
65,1021003014851,新規,0,2024-08-20,2024-08-20,合同会社ｖｅｒｂｉｎｄｅｎ,,合同会社,神奈川県,藤沢市,遠藤５２３２－１ｂ－４０２４,,14,205,2520816,,,,,,,2024-08-20,1,,,,,フェアビンデン,0
69,1030001161944,新規,0,2024-08-20,2024-08-20,株式会社ライズテック,,株式会社,埼玉県,日高市,大字鹿山３５６番地４,,11,242,3501231,,,,,,,2024-08-20,1,,,,,ライズテック,0
70,1040001134973,新規,0,2024-08-20,2024-08-20,山崎架設株式会社,00136001,株式会社,千葉県,八千代市,上高野６１８番地３,,12,221,2760022,,,,,,,2024-08-20,1,,,,,ヤマザキカセツ,0
71,1040001135006,新規,0,2024-08-20,2024-08-20,株式会社ハーモニー,,株式会社,千葉県,習志野市,谷津７丁目５番１０号,,12,216,2750026,,,,,,,2024-08-20,1,,,,,ハーモニー,0
77,1050003008613,新規,0,2024-08-20,2024-08-20,ＺＩＬＬＹ　Ｅｎｔｅｒｐｒｉｓｅ合同会社,,合同会社,茨城県,古河市,諸川１５９４番地,,08,204,3060126,,,,,,,2024-08-20,1,,,,,ジリーエンタープライズ,0
81,1080001026449,新規,0,2024-08-20,2024-08-20,株式会社ｍｏｍｅｎｔ,,株式会社,静岡県,静岡市清水区,三保松原町３６－１４,,22,103,4240908,,,,,,,2024-08-20,1,,,,,モーメント,0
89,1100001037773,新規,0,2024-08-20,2024-08-20,株式会社エース,,株式会社,長野県,上伊那郡箕輪町,大字中箕輪３３３７番地２,,20,383,3994601,,,,,,,2024-08-20,1,,,,,エース,0
104,1120001267914,新規,0,2024-08-20,2024-08-20,ＧＯＯＤＷＡＹＳ株式会社,,株式会社,大阪府,大阪市中央区,瓦町３丁目４番３号瓦町公洋ビル５Ｆ,,27,128,5410048,,,,,,,2024-08-20,1,,,,,グッドウェイズ,0
105,1120001267922,新規,0,2024-08-20,2024-08-20,株式会社ダイヤモンド商事,,株式会社,大阪府,大阪市東住吉区,中野３丁目２－１２－１５０１号,,27,121,5460012,,,,,,,2024-08-20,1,,,,,ダイヤモンドショウジ,0
106,1120001267930,新規,0,2024-08-20,2024-08-20,昭源商事株式会社,,株式会社,大阪府,大阪市生野区,新今里６丁目３番１０号エクラ新今里３０２号室,,27,116,5440001,,,,,,,2024-08-20,1,,,,,ショウゲンショウジ,0
107,1120003027341,新規,0,2024-08-20,2024-08-20,合同会社ａｔｌ,,合同会社,大阪府,大阪市北区,梅田１丁目２番２号大阪駅前第２ビル１２‐１２,,27,127,5300001,,,,,,,2024-08-20,1,,,,,アトル,0
111,1120103006014,新規,0,2024-08-20,2024-08-20,木田合同会社,,合同会社,大阪府,南河内郡太子町,大字春日９８‐４１,,27,381,5830991,,,,,,,2024-08-20,1,,,,,キダ,0
114,1120901049651,新規,0,2024-08-20,2024-08-20,株式会社ＤＳマネージメント,,株式会社,大阪府,高槻市,氷室町２丁目８番１２号,,27,207,5691141,,,,,,,2024-08-20,1,,,,,ディーエスマネージメント,0
126,1140001135557,新規,0,2024-08-20,2024-08-20,株式会社ねこにゃん,,株式会社,兵庫県,神戸市東灘区,田中町２丁目１８番３号,,28,101,6580081,,,,,,,2024-08-20,1,,,,,ネコニャン,0
127,1140001135565,新規,0,2024-08-20,2024-08-20,株式会社ｆｉｓｈ　ａｎｄ　ｄｏｌｃｅ,,株式会社,兵庫県,西宮市,甲陽園目神山町２５番６０号,,28,204,6620011,,,,,,,2024-08-20,1,,,,,フィッシュアンドドルチェ,0
128,1140001135573,新規,0,2024-08-20,2024-08-20,株式会社大和,,株式会社,兵庫県,神戸市長田区,若松町３丁目２番４－５０３号,,28,106,6530038,,,,,,,2024-08-20,1,,,,,ヤマト,0
130,1140003020988,新規,0,2024-08-20,2024-08-20,合同会社西田製麺,,合同会社,兵庫県,宍粟市,一宮町安積９７３番地,,28,227,6714131,,,,,,,2024-08-20,1,,,,,ニシダセイメン,0
141,1180001162944,新規,0,2024-08-20,2024-08-20,株式会社ＫＩＣ,,株式会社,愛知県,名古屋市西区,栄生１丁目２８番９号,,23,104,4510052,,,,,,,2024-08-20,1,,,,,キック,0
147,1180003027253,新規,0,2024-08-20,2024-08-20,合同会社ＪＭ,,合同会社,愛知県,名古屋市中区,栄５丁目２０番１９号フローラル栄１階,,23,106,4600008,,,,,,,2024-08-20,1,,,,,ジェイエム,0
150,1180301038976,新規,0,2024-08-20,2024-08-20,マイプレジャー株式会社,,株式会社,愛知県,高浜市,本郷町５丁目２番地１６,,23,227,4441311,,,,,,,2024-08-20,1,,,,,マイプレジャー,0
156,1210001019884,新規,0,2024-08-20,2024-08-20,株式会社ＫＹＮシステム,,株式会社,福井県,福井市,二の宮１丁目３番２９号,,18,201,9100015,,,,,,,2024-08-20,1,,,,,ケーワイエヌシステム,0
157,1210003001832,新規,0,2024-08-20,2024-08-20,合同会社データサポート,,合同会社,福井県,坂井市,春江町随応寺第１６号１１番地アル・プラザアミ,,18,210,9190413,,,,,,,2024-08-20,1,,,,,データサポート,0
160,1250001020780,新規,0,2024-08-20,2024-08-20,株式会社ルクステック,,株式会社,山口県,山陽小野田市,千代町２丁目３番２６号,,35,216,7560814,,,,,,,2024-08-20,1,,,,,ルクステック,0
171,1290001106576,新規,0,2024-08-20,2024-08-20,ＡｉｒＣｏｚｙ株式会社,,株式会社,福岡県,飯塚市,楽市６６４番地６,,40,205,8200074,,,,,,,2024-08-20,1,,,,,エアーコージー,0
172,1290001106709,新規,0,2024-08-20,2024-08-20,株式会社セレスト,,株式会社,福岡県,福津市,中央２丁目２０番１０－１０２号,,40,224,8113217,,,,,,,2024-08-20,1,,,,,セレスト,0
173,1290001106717,新規,0,2024-08-20,2024-08-20,株式会社ＬＯＯＰ,,株式会社,福岡県,福岡市中央区,大名１丁目８番４２号２Ｆ,,40,133,8100041,,,,,,,2024-08-20,1,,,,,ループ,0
174,1290001106766,新規,0,2024-08-20,2024-08-20,株式会社ＳＥＬＥＣＴＩＯＮＳ,,株式会社,福岡県,久留米市,東合川１丁目９番５７－３号室,,40,203,8390809,,,,,,,2024-08-20,1,,,,,セレクションズ,0
175,1290001106824,新規,0,2024-08-20,2024-08-20,株式会社ＮＡＧＯＭＩ,,株式会社,福岡県,八女市,鵜池１５７番地６,,40,210,8340055,,,,,,,2024-08-20,1,,,,,ナゴミ,0
176,1290001106840,新規,0,2024-08-20,2024-08-20,株式会社ＹＭｆｉｔ　Ｓｐｏｒｔｓ＆Ｍｅｄｉｃａｌ,,株式会社,福岡県,福岡市早良区,荒江３丁目１１番１５－１１０２号,,40,137,8140021,,,,,,,2024-08-20,1,,,,,ワイエムフィットスポーツアンドメディカル,0
177,1290001107013,新規,0,2024-08-20,2024-08-20,株式会社ＧＲ８キャリア,,株式会社,福岡県,福岡市中央区,渡辺通５丁目１４番１２号南天神ビル３Ｆ,,40,133,8100004,,,,,,,2024-08-20,1,,,,,グレイトキャリア,0
181,1310005008790,新規,0,2024-08-20,2024-08-20,特定非営利活動法人ルートヴィレッジコンソーシアム,,その他の設立登記法人,長崎県,長崎市,長浦町１８３４番地,,42,201,8513212,,,,,,,2024-08-20,1,,,,,ルートヴィレッジコンソーシアム,0
186,1340001026736,新規,0,2024-08-20,2024-08-20,株式会社Ｇ．Ｃ．Ｓ,,株式会社,鹿児島県,霧島市,国分府中町１２番１９号ベルビューＫＫＲ１０３号室,,46,218,8994346,,,,,,,2024-08-20,1,,,,,ジーシーエス,0
187,1340001026744,新規,0,2024-08-20,2024-08-20,株式会社ＮＡＫＡＮＯ,,株式会社,鹿児島県,鹿児島市,新町１番２４号グリーンプラザ８０１,,46,201,8920832,,,,,,,2024-08-20,1,,,,,ナカノ,0
192,1360001034101,新規,0,2024-08-20,2024-08-20,ＢＢ株式会社,,株式会社,沖縄県,豊見城市,字名嘉地２７８番地,,47,212,9010235,,,,,,,2024-08-20,1,,,,,ビービー,0
193,1370003006733,新規,0,2024-08-20,2024-08-20,合同会社アルカディア,,合同会社,宮城県,仙台市泉区,泉ケ丘１丁目１８番２５号,,04,105,9813201,,,,,,,2024-08-20,1,,,,,アルカディア,0
197,1380001034727,新規,0,2024-08-20,2024-08-20,株式会社オフィス大塚,,株式会社,福島県,会津若松市,門田町大字御山字村中３２８番地の１,,07,202,9650826,,,,,,,2024-08-20,1,,,,,オフィスオオツカ,0
198,1380001034735,新規,0,2024-08-20,2024-08-20,株式会社藤陽工業,,株式会社,福島県,会津若松市,一箕町大字亀賀字郷之原４８０番地の１,,07,202,9650005,,,,,,,2024-08-20,1,,,,,トウヨウコウギョウ,0
200,1400005008435,新規,0,2024-08-20,2024-08-20,医療法人北整会,,その他の設立登記法人,岩手県,岩手郡岩手町,大字江刈内第７地割１０番１号,,03,303,0284303,,,,,,,2024-08-20,1,,,,,ホクセイカイ,0
202,1430001092513,新規,0,2024-08-20,2024-08-20,株式会社Ｌ・Ａ・Ｎ・Ｚホールディングス,,株式会社,北海道,札幌市東区,北四十五条東１７丁目３－１２,,01,103,0070845,,,,,,,2024-08-20,1,,,,,ランズホールディングス,0
208,1700150033785,新規,0,2024-08-20,2015-10-09,旭川市職員福利厚生会,,その他,北海道,旭川市,七条通９丁目４８番地旭川市役所内,,01,204,0700037,,,,,,,2015-10-09,1,,,,,アサヒカワシシヨクインフクリコウセイカイ,0
209,1700150125632,新規,0,2024-08-20,2024-05-28,藤本えつし後援会,,その他,広島県,安芸高田市,吉田町吉田１９０１－１,,34,214,7310501,,,,,,,2024-05-28,1,,,,,フジモトエツシコウエンカイ,0
210,1700150126721,新規,0,2024-08-20,2024-08-09,ＨｉＮＡＤＯＲＩ　ｌａｂ．,,その他,鳥取県,倉吉市,住吉町７７番地１,,31,203,6820817,,,,,,,2024-08-09,1,,,,,ヒナドリラボ,0
211,1700150126787,新規,0,2024-08-20,2024-08-20,Ｔｈｒｅｅ　Ｆｉｖｅ　Ｉｎｖｅｓｔｍｅｎｔ　Ｌｉｍｉｔｅｄ,,外国会社等,,,,,,,,Ｖｉｓｔａ　Ｃｏｒｐｏｒａｔｅ　Ｓｅｒｖｉｃｅｓ　Ｃｅｎｔｒｅ，Ｗｉｃｋｈａｍｓ　Ｃａｙ　ＩＩ，Ｒｏａｄ　Ｔｏｗｎ，Ｔｏｒｔｏｌａ，ＶＧ１１１０，Ｂｒｉｔｉｓｈ　Ｖｉｒｇｉｎ　Ｉｓｌａｎｄｓ,00135821,,,,,2024-08-20,1,,,,,スリーフアイブインベストメントリミテツド,0
212,1700150126795,新規,0,2024-08-20,2024-08-20,株式会社ジャパンネットワークブレイン,,外国会社等,東京都,豊島区,東池袋５丁目７番３号アゼリア東池袋４０１,,13,116,1700013,大韓民国ソウル特別市陽川区木洞東路２９３，１７０３号（木洞，現代４１タワー）,,,,,,2024-08-20,1,,,,,カブシキガイシヤジヤパンネツトワークブレイン,0
222,2010001247331,新規,0,2024-08-20,2024-08-20,株式会社ＲＯＺＥＮＯＶＡ,,株式会社,東京都,千代田区,霞が関３丁目６－１５霞が関ＭＨタワーズ６階,,13,101,1000013,,,,,,,2024-08-20,1,,,,,ロゼノヴァ,0
223,2010001247430,新規,0,2024-08-20,2024-08-20,株式会社弥栄,,株式会社,東京都,千代田区,九段南１丁目５番６号りそな九段ビル５Ｆ－ＫＳフロア,,13,101,1020074,,,,,,,2024-08-20,1,,,,,イヤサカ,0
224,2010001247554,新規,0,2024-08-20,2024-08-20,株式会社ＳＴＯＣＫ１５９,,株式会社,東京都,千代田区,永田町２丁目１２番４号,,13,101,1000014,,,,,,,2024-08-20,1,,,,,ストックヒャクゴジュウキュウ,0
225,2010001247562,新規,0,2024-08-20,2024-08-20,株式会社ＳＴＯＣＫ１６７,,株式会社,東京都,千代田区,永田町２丁目１２番４号,,13,101,1000014,,,,,,,2024-08-20,1,,,,,ストックヒャクロクジュウナナ,0
226,2010001247579,新規,0,2024-08-20,2024-08-20,株式会社グリプラス,,株式会社,東京都,中央区,日本橋本町２丁目２番２号日本橋本町ＹＳビル７階株式会社ニトロプラス方,,13,102,1030023,,,,,,,2024-08-20,1,,,,,グリプラス,0
227,2010001247595,新規,0,2024-08-20,2024-08-20,ケイアンドジージャパン株式会社,,株式会社,東京都,中央区,新川２丁目１０番１－１２０９,,13,102,1040033,,,,,,,2024-08-20,1,,,,,ケイアンドジージャパン,0
228,2010001247604,新規,0,2024-08-20,2024-08-20,桂緯商貿株式会社,,株式会社,東京都,千代田区,神田岩本町４番７号＋ｓｈｉｆｔＫａｎｄａ１１Ｆ,,13,101,1010033,,,,,,,2024-08-20,1,,,,,ケイイショウボウ,0
229,2010001247620,新規,0,2024-08-20,2024-08-20,株式会社ジャパンセキュアテクノロジーズ,,株式会社,東京都,中央区,銀座２丁目１５－２ＫＲＧｉｎｚａＩＩ４Ｆ,00136012,13,102,1040061,,,,,,,2024-08-20,1,,,,,ジャパンセキュアテクノロジーズ,0
230,2010001247629,新規,0,2024-08-20,2024-08-20,株式会社ＨＫ　Ｗｏｒｌｄ　Ｈｏｌｏｇｒａｍ,,株式会社,東京都,中央区,銀座６丁目６番１号,,13,102,1040061,,,,,,,2024-08-20,1,,,,,エイチケーワールドホログラム,0
235,2010005038710,新規,0,2024-08-20,2024-08-20,カフカ一般社団法人,,その他の設立登記法人,東京都,千代田区,永田町２丁目１７番５号,,13,101,1000014,,,,,,,2024-08-20,1,,,,,カフカ,0
242,2010601065736,新規,0,2024-08-20,2024-08-20,株式会社ＭＧ,,株式会社,東京都,墨田区,緑３丁目１９番地５号ヴェルドミール緑町２０１,,13,107,1300021,,,,,,,2024-08-20,1,,,,,エムジー,0
243,2010601065752,新規,0,2024-08-20,2024-08-20,株式会社ＫＪトラストコーポレーション,,株式会社,東京都,江東区,塩浜１丁目１番１３－１３１６号,,13,108,1350043,,,,,,,2024-08-20,1,,,,,ケイジェイトラストコーポレーション,0
244,2010601065785,新規,0,2024-08-20,2024-08-20,株式会社Ａｌｗｉｄａ,,株式会社,東京都,墨田区,江東橋２丁目１２－８ＣＡＳＳＩＡ錦糸町９０６号室,,13,107,1300022,,,,,,,2024-08-20,1,,,,,アルビダ,0
246,2010901055825,新規,0,2024-08-20,2024-08-20,株式会社ＴＡＢＥＬ,,株式会社,東京都,世田谷区,喜多見１丁目２番５号,,13,112,1570067,,,,,,,2024-08-20,1,,,,,タベル,0
258,2011101108514,新規,0,2024-08-20,2024-08-20,株式会社ＳＯＰＨＩ,,株式会社,東京都,新宿区,四谷４丁目３番地１０エクシーナ四谷５０１,,13,104,1600004,,,,,,,2024-08-20,1,,,,,ソフィ,0
262,2011501031043,新規,0,2024-08-20,2024-08-20,ウルマン芸術空間株式会社,,株式会社,東京都,荒川区,町屋３丁目２４番２号面川ビル２１８号室,,13,118,1160001,,,,,,,2024-08-20,1,,,,,ウルマンゲイジュツクウカン,0
263,2011503006191,新規,0,2024-08-20,2024-08-20,合同会社クレアーレ,,合同会社,東京都,北区,西が丘２丁目２８番１４号ビラアベＣ－１０１号,,13,117,1150056,,,,,,,2024-08-20,1,,,,,クレアーレ,0
264,2011701027535,新規,0,2024-08-20,2024-08-20,Ａｍａｚｉｎｇ　Ｌｉｆｅ株式会社,,株式会社,東京都,江戸川区,西葛西２丁目２２番４５－１１０１号,,13,123,1340088,,,,,,,2024-08-20,1,,,,,アメイジングライフ,0
269,2012703003078,新規,0,2024-08-20,2024-08-20,合同会社サイバーシックス,,合同会社,東京都,西東京市,向台町４丁目２０番１３号,,13,229,1880013,,,,,,,2024-08-20,1,,,,,サイバーシックス,0
270,2013101009493,新規,0,2024-08-20,2024-08-20,株式会社イイノ,,株式会社,東京都,福生市,北田園１丁目５５番地２９,,13,218,1970005,,,,,,,2024-08-20,1,,,,,,0
273,2013303007254,新規,0,2024-08-20,2024-08-20,合同会社ＬＩＰＬＵＳＩＡ,,合同会社,東京都,豊島区,東池袋１丁目１７番１１号パークハイツ１１０５,,13,116,1700013,,,,,,,2024-08-20,1,,,,,リプラシア,0
283,2021003014917,新規,0,2024-08-20,2024-08-20,ＴＭＩ合同会社,,合同会社,神奈川県,茅ヶ崎市,高田１丁目４－３６,,14,207,2530002,,,,,,,2024-08-20,1,,,,,ティーエムアイ,0
293,2030003024867,新規,0,2024-08-20,2024-08-20,ＳＭＡＲＴ　ＩＮＮＯＶＡＴＩＯＮＳ合同会社,,合同会社,埼玉県,草加市,旭町２丁目５－３サンハイツ松原２０５,,11,221,3400053,,,,,,,2024-08-20,1,,,,,スマートイノベーションズ,0
294,2030003024966,新規,0,2024-08-20,2024-08-20,ＡＨＭＡＤ　ＴＲＡＤＩＮＧ合同会社,,合同会社,埼玉県,ふじみ野市,亀久保１６３５－７,,11,245,3560051,,,,,,,2024-08-20,1,,,,,アハマドトレーディング,0
303,2040003025617,新規,0,2024-08-20,2024-08-20,合同会社フェニックス,,合同会社,千葉県,山武郡九十九里町,片貝４２２７番地,,12,403,2830104,,,,,,,2024-08-20,1,,,,,フェニックス,0
304,2040003025633,新規,0,2024-08-20,2024-08-20,Ｋ‐ＰＯＷＥＲ合同会社,,合同会社,千葉県,習志野市,秋津２丁目１－３－５０８,,12,216,2750025,,,,,,,2024-08-20,1,,,,,ケイパワー,0
309,2050001055284,新規,0,2024-08-20,2024-08-20,ザ・ハウス株式会社,,株式会社,茨城県,つくば市,学園の森１丁目１３番地１０,,08,220,3050816,,,,,,,2024-08-20,1,,,,,ザハウス,0
314,2060003005204,新規,0,2024-08-20,2024-08-20,合同会社ＳＲＡＢｗｏｒｋｄｅｓｉｇｎ,,合同会社,栃木県,宇都宮市,簗瀬町１８６５番地１,,09,201,3210933,,,,,,,2024-08-20,1,,,,,スラブワークデザイン,0
316,2070005010309,新規,0,2024-08-20,2024-08-20,一般社団法人吉祥,,その他の設立登記法人,群馬県,桐生市,広沢町２丁目３０７６番地の１,,10,203,3760013,,,,,,,2024-08-20,1,,,,,キッショウ,0
321,2100001037707,新規,0,2024-08-20,2024-08-20,株式会社クリエイトカンパニー,,株式会社,長野県,飯田市,東新町２丁目２２番地,,20,205,3950017,,,,,,,2024-08-20,1,,,,,クリエイトカンパニー,0
322,2100001037764,新規,0,2024-08-20,2024-08-20,Ｌａｃｔ株式会社,,株式会社,長野県,松本市,寿北５丁目２８番１１号ＹＫビル２０２,,20,202,3990011,,,,,,,2024-08-20,1,,,,,ラクト,0
325,2100003007724,新規,0,2024-08-20,2024-08-20,サブスククリエイト合同会社,,合同会社,長野県,東御市,和４５９８－１,,20,219,3890505,,,,,,,2024-08-20,1,,,,,サブスククリエイト,0
337,2120001267888,新規,0,2024-08-20,2024-08-20,サクラトラベル株式会社,,株式会社,大阪府,大阪市西淀川区,中島１丁目３５番７１－１４号,,27,113,5550041,,,,,,,2024-08-20,1,,,,,サクラトラベル,0
338,2120001267913,新規,0,2024-08-20,2024-08-20,中輝株式会社,,株式会社,大阪府,大阪市西成区,太子２丁目２番２０号２０２号室,,27,122,5570002,,,,,,,2024-08-20,1,,,,,チュウキ,0
339,2120001267921,新規,0,2024-08-20,2024-08-20,ビズメディカル株式会社,,株式会社,大阪府,大阪市中央区,北浜３丁目２－２５京阪淀屋橋ビル８階,,27,128,5410041,,,,,,,2024-08-20,1,,,,,ビズメディカル,0
340,2120003027266,新規,0,2024-08-20,2024-08-20,いちはやラボ合同会社,,合同会社,大阪府,大阪市北区,梅田１丁目１‐３大阪駅前第３ビル２９階１‐１‐１号室,,27,127,5300001,,,,,,,2024-08-20,1,,,,,イチハヤラボ,0
341,2120003027340,新規,0,2024-08-20,2024-08-20,合同会社ＪＵＰＩＴＥＲ,,合同会社,大阪府,大阪市浪速区,立葉１丁目４番２－８０３号,,27,111,5560020,,,,,,,2024-08-20,1,,,,,ジュピター,0
345,2120101070176,新規,0,2024-08-20,2024-08-20,株式会社Ｇａｌａｘｙ　Ｏｎｅ,,株式会社,大阪府,富田林市,富田林町１５番１６号,,27,214,5840033,,,,,,,2024-08-20,1,,,,,ギャラクシーワン,0
354,2140001135564,新規,0,2024-08-20,2024-08-20,ちゃいるど・ぎふと株式会社,,株式会社,兵庫県,西宮市,瓦林町２番１０号,,28,204,6638107,,,,,,,2024-08-20,1,,,,,チャイルドギフト,0
360,2180001162844,新規,0,2024-08-20,2024-08-20,ｋａｗａｙｏホールディングス株式会社,,株式会社,愛知県,弥富市,鯏浦町西前新田１９番地,,23,235,4980026,,,,,,,2024-08-20,1,,,,,カワヨーホールディングス,0
361,2180001162852,新規,0,2024-08-20,2024-08-20,株式会社Ｂｏｏｋｍａｒｋ,,株式会社,愛知県,名古屋市熱田区,横田１丁目１番５２号,,23,109,4560022,,,,,,,2024-08-20,1,,,,,ブックマーク,0
362,2180001162919,新規,0,2024-08-20,2024-08-20,株式会社小川商事,,株式会社,愛知県,春日井市,大手町１１１５番地,,23,206,4860807,,,,,,,2024-08-20,1,,,,,オガワショウジ,0
363,2180001162943,新規,0,2024-08-20,2024-08-20,ＥＭＥＲＡＬＤ　ＪＡＰＡＮ株式会社,,株式会社,愛知県,名古屋市港区,津金１丁目５番１号,,23,111,4550004,,,,,,,2024-08-20,1,,,,,エメラルドジャパン,0
371,2200003006468,新規,0,2024-08-20,2024-08-20,合同会社サンフラワー,,合同会社,岐阜県,本巣市,温井１７９番地１０,,21,218,5010473,,,,,,,2024-08-20,1,,,,,サンフラワー,0
385,2290001106716,新規,0,2024-08-20,2024-08-20,株式会社ｎｉｋｏ,,株式会社,福岡県,那珂川市,松木４丁目８番７号,,40,231,8111251,,,,,,,2024-08-20,1,,,,,ニコ,0
386,2290001106749,新規,0,2024-08-20,2024-08-20,ＪＣＦ株式会社,,株式会社,福岡県,福岡市中央区,天神２丁目２番１２号Ｔ＆Ｊビルディング７Ｆ,,40,133,8100001,,,,,,,2024-08-20,1,,,,,ジェーシーエフ,0
387,2290001106773,新規,0,2024-08-20,2024-08-20,東亜コンピュータ株式会社,,株式会社,福岡県,福岡市博多区,博多駅前１丁目２３番２号,,40,132,8120011,,,,,,,2024-08-20,1,,,,,トウアコンピュータ,0
388,2290001106807,新規,0,2024-08-20,2024-08-20,株式会社耀林産業,,株式会社,福岡県,福津市,本木２４１８番地２,,40,224,8113203,,,,,,,2024-08-20,1,,,,,ヨウリンサンギョウ,0
389,2290001106831,新規,0,2024-08-20,2024-08-20,株式会社ｆｉｎｄｎｅｘｔ,,株式会社,福岡県,福岡市博多区,博多駅前２丁目１７－１博多プレステージ本館２階,,40,132,8120011,,,,,,,2024-08-20,1,,,,,ファインドネクスト,0
390,2290001106848,新規,0,2024-08-20,2024-08-20,株式会社Ｐｕｚｚ,,株式会社,福岡県,福岡市中央区,天神４丁目３－８ミーナ天神８階,,40,133,8100001,,,,,,,2024-08-20,1,,,,,パズ,0
391,2290001106856,新規,0,2024-08-20,2024-08-20,株式会社ＤＵＣＥ　ｐｒｅｕ,,株式会社,福岡県,福岡市博多区,空港前１丁目１１番１０－６０６号エアポート博多ワード,,40,132,8120002,,,,,,,2024-08-20,1,,,,,,0
392,2290003015642,新規,0,2024-08-20,2024-08-20,合同会社ｃｏｌｏｒｓｔａｆｆ,,合同会社,福岡県,大野城市,つつじケ丘３丁目１番５号,,40,219,8160962,,,,,,,2024-08-20,1,,,,,カラースタッフ,0
393,2290003015650,新規,0,2024-08-20,2024-08-20,合同会社ひより,,合同会社,福岡県,福岡市東区,香椎駅前１丁目１１－１えきマチ１丁目香椎１Ｆ,,40,131,8130013,,,,,,,2024-08-20,1,,,,,ヒヨリ,0
394,2290003015659,新規,0,2024-08-20,2024-08-20,合同会社ＭＡＮＩＴＹ,,合同会社,福岡県,福岡市城南区,鳥飼７丁目６番１６号,,40,136,8140103,,,,,,,2024-08-20,1,,,,,マニティー,0
395,2290003015667,新規,0,2024-08-20,2024-08-20,合同会社像,,合同会社,福岡県,福岡市西区,今宿１丁目４－５アソシア今宿・６０５号,,40,135,8190167,,,,,,,2024-08-20,1,,,,,カタチ,0
403,2330003010531,新規,0,2024-08-20,2024-08-20,合同会社ＭＤ　ＴＲＡＤＩＮＧ,,合同会社,熊本県,宇城市,松橋町両仲間２６９番地３グランド・ソレーユ１０１号,,43,213,8690533,,,,,,,2024-08-20,1,,,,,エムディートレーディング,0
405,2360003014240,新規,0,2024-08-20,2024-08-20,にぬふぁ星合同会社,,合同会社,沖縄県,宮古島市,平良字西里１４７２番地３５４ＯＡｃｉｔｙタートル１０１,,47,214,9060012,,,,,,,2024-08-20,1,,,,,ニヌファボシ,0
411,2370001051664,新規,0,2024-08-20,2024-08-20,アステラス電工株式会社,,株式会社,宮城県,仙台市宮城野区,福室３丁目１１番４３号結城ハイツＡ－１０３,,04,102,9830005,,,,,,,2024-08-20,1,,,,,アステラスデンコウ,0
412,2370003006732,新規,0,2024-08-20,2024-08-20,合同会社ＭＩＸ　ＭＡＲＫＥＴ,,合同会社,宮城県,仙台市太白区,西中田１丁目８番１６号,,04,104,9811105,,,,,,,2024-08-20,1,,,,,ミックスマーケット,0
431,2700150063022,新規,0,2024-08-20,2015-10-09,八代市役所職員組合,,その他,熊本県,八代市,松江城町１－２５,,43,202,8660862,,,,,,,2015-10-09,1,,,,,ヤツシロシヤクシヨシヨクインクミアイ,0
432,2700150126786,新規,0,2024-08-20,2024-08-20,承鴻光電股斌有限公司,00135889,外国会社等,東京都,千代田区,霞が関３丁目２－５,,13,101,1000013,台南市善化區東關里１鄰建國路４０７號８Ｆ－１,,,,,,2024-08-20,1,,,,,シヨウコウコウデンコフンユウゲンコウシ,0
433,2700150126794,新規,0,2024-08-20,2024-08-20,ジャクシスディストリビューションエルエルシー,,外国会社等,兵庫県,神戸市灘区,高尾通４丁目２－２４マウントビュービル,,28,102,6570813,アメリカ合衆国デラウェア州ニューアーク市バークスデイル・プロフェッショナル・センター１１３番,,,,,,2024-08-20,1,,,,,ジヤクシスデイストリビユーシヨンエルエルシー,0
447,3010001247438,新規,0,2024-08-20,2024-08-20,株式会社Ｙｏｕ　ｔｏ　Ｙｕｔｏ,,株式会社,東京都,千代田区,内幸町２丁目１－４－４階,,13,101,1000011,,,,,,,2024-08-20,1,,,,,ユートゥーユウト,0
448,3010001247470,新規,0,2024-08-20,2024-08-20,Ｄ２Ｌ株式会社,,株式会社,東京都,中央区,明石町２番１６号メゾンドールニュー明石４０１,,13,102,1040044,,,,,,,2024-08-20,1,,,,,ディーツーエル,0
449,3010001247545,新規,0,2024-08-20,2024-08-20,安踏体育用品日本株式会社,,株式会社,東京都,千代田区,霞が関３丁目２番６号東京倶楽部ビルディング１１階,,13,101,1000013,,,,,,,2024-08-20,1,,,,,アンタタイイクヨウヒンニホン,0
450,3010001247553,新規,0,2024-08-20,2024-08-20,株式会社ＳＴＯＣＫ１５８,,株式会社,東京都,千代田区,永田町２丁目１２番４号,,13,101,1000014,,,,,,,2024-08-20,1,,,,,ストックヒャクゴジュウハチ,0
451,3010001247561,新規,0,2024-08-20,2024-08-20,株式会社ＳＴＯＣＫ１６６,,株式会社,東京都,千代田区,永田町２丁目１２番４号,,13,101,1000014,,,,,,,2024-08-20,1,,,,,ストックヒャクロクジュウロク,0
452,3010001247603,新規,0,2024-08-20,2024-08-20,株式会社モーニングサイド,,株式会社,東京都,中央区,銀座１丁目１２－４Ｎ＆ＥＢＬＤ．７階,,13,102,1040061,,,,,,,2024-08-20,1,,,,,モーニングサイド,0
472,3010503007546,新規,0,2024-08-20,2024-08-20,蟹福合同会社,,合同会社,東京都,台東区,台東２丁目５番９－９０４号,,13,106,1100016,,,,,,,2024-08-20,1,,,,,カニフク,0
473,3010601065784,新規,0,2024-08-20,2024-08-20,株式会社ＫＵＤＯ６,,株式会社,東京都,江東区,三好４丁目７番１０－３０７号,,13,108,1350022,,,,,,,2024-08-20,1,,,,,クドウシックス,0
479,3010803005068,新規,0,2024-08-20,2024-08-20,デポフセ合同会社,,合同会社,東京都,大田区,蒲田４丁目１０番１４－８１６号,,13,111,1440052,,,,,,,2024-08-20,1,,,,,デポフセ,0
481,3010901055799,新規,0,2024-08-20,2024-08-20,株式会社Ｇｉｇｉ,,株式会社,東京都,世田谷区,玉川２丁目２４番２４号セゾン玉川３階「ＳＯＬＡ」Ｂ号室,,13,112,1580094,,,,,,,2024-08-20,1,,,,,ジジ,0
484,3011003019767,新規,0,2024-08-20,2024-08-20,合同会社大城商店,,合同会社,東京都,渋谷区,神宮前６丁目２３番４号桑野ビル２階,,13,113,1500001,,,,,,,2024-08-20,1,,,,,オオシロショウテン,0
485,3011003019783,新規,0,2024-08-20,2024-08-20,合同会社ＮＡＲＡＹＡ,,合同会社,東京都,渋谷区,恵比寿西２丁目４番８号ウィンド恵比寿ビル８Ｆ,,13,113,1500021,,,,,,,2024-08-20,1,,,,,ナラヤ,0
486,3011003019791,新規,0,2024-08-20,2024-08-20,合同会社トータルライフカンパニー,,合同会社,東京都,渋谷区,恵比寿西２丁目８番４号ＥＸ恵比寿西ビル５階,,13,113,1500021,,,,,,,2024-08-20,1,,,,,トータルライフカンパニー,0
489,3011101108447,新規,0,2024-08-20,2024-08-20,株式会社即決営業ホールディングス,,株式会社,東京都,新宿区,西新宿７丁目７番３３号新銘ビル３Ｆ,,13,104,1600023,,,,,,,2024-08-20,1,,,,,ソッケツエイギョウホールディングス,0
491,3011401026365,新規,0,2024-08-20,2024-08-20,株式会社ＭＫ　ＳＴＡＲ,,株式会社,東京都,板橋区,中台１丁目１８－６－２０２,,13,119,1740064,,,,,,,2024-08-20,1,,,,,エムケイスター,0
492,3011501031059,新規,0,2024-08-20,2024-08-20,清野株式会社,,株式会社,東京都,荒川区,荒川３丁目５９番２号平和荘２０３,,13,118,1160002,,,,,,,2024-08-20,1,,,,,セイノ,0
495,3011803006403,新規,0,2024-08-20,2024-08-20,Ｄｒｅａｍ．Ｔ＆Ｔ合同会社,,合同会社,東京都,葛飾区,西新小岩４丁目９番２４号佐久間第１ビル４０２,,13,122,1240025,,,,,,,2024-08-20,1,,,,,ドリームティーアンドティー,0
497,3012401042204,新規,0,2024-08-20,2024-08-20,株式会社ツーエス,,株式会社,東京都,稲城市,東長沼２４１６番地フローラ稲城Ｂ１０５,,13,225,2060802,,,,,,,2024-08-20,1,,,,,ツーエス,0
506,3020001158493,新規,0,2024-08-20,2024-08-20,株式会社ＷＦＳ,,株式会社,神奈川県,川崎市幸区,下平間１１１－２２プリーズビル２階,,14,132,2120053,,,,,,,2024-08-20,1,,,,,ダブリューエフエス,0
507,3020001158502,新規,0,2024-08-20,2024-08-20,ＣｏＣｏ株式会社,,株式会社,神奈川県,横浜市神奈川区,東神奈川２丁目５０番地６,,14,102,2210044,,,,,,,2024-08-20,1,,,,,ココ,0
512,3021003014890,新規,0,2024-08-20,2024-08-20,ＩＳＬＡＮＤｉｓＬＡＮＤ合同会社,,合同会社,神奈川県,茅ヶ崎市,富士見町１０番２２号,,14,207,2530031,,,,,,,2024-08-20,1,,,,,アイランドイズランド,0
521,3030003024882,新規,0,2024-08-20,2024-08-20,ＨＩＲＡ合同会社,,合同会社,埼玉県,さいたま市岩槻区,本町３丁目１１番６号,,11,110,3390057,,,,,,,2024-08-20,1,,,,,ヒラ,0
522,3030003024965,新規,0,2024-08-20,2024-08-20,合同会社ｃｌｅａｒ　Ｋ,,合同会社,埼玉県,新座市,新堀３丁目５－３コーポレート清瀬駅南３号棟３０３号,,11,230,3520032,,,,,,,2024-08-20,1,,,,,クリアーク,0
524,3040001135037,新規,0,2024-08-20,2024-08-20,株式会社太郎,,株式会社,千葉県,千葉市花見川区,幕張町４丁目６７８番地６,,12,102,2620032,,,,,,,2024-08-20,1,,,,,タロウ,0
526,3040003025616,新規,0,2024-08-20,2024-08-20,合同会社ＮｅｏＡｒｋ,,合同会社,千葉県,白井市,桜台４丁目６番２２号,,12,232,2701412,,,,,,,2024-08-20,1,,,,,ネオアーク,0
527,3040003025632,新規,0,2024-08-20,2024-08-20,合同会社ハリマオ,,合同会社,千葉県,船橋市,本町６丁目１８番１９号第３山中ビル４０１号室,,12,204,2730005,,,,,,,2024-08-20,1,,,,,ハリマオ,0
530,3060001037413,新規,0,2024-08-20,2024-08-20,ＵＮＩＲＯ　ＨＯＬＤＩＮＧＳ株式会社,,株式会社,栃木県,小山市,大字網戸７７５番地２,,09,208,3290215,,,,,,,2024-08-20,1,,,,,ユニロホールディングス,0
540,3100001037763,新規,0,2024-08-20,2024-08-20,株式会社ＳＵＥ,,株式会社,長野県,長野市,青木島町大塚１０２３番地７,,20,201,3812205,,,,,,,2024-08-20,1,,,,,スー,0
541,3100001037788,新規,0,2024-08-20,2024-08-20,信越管財株式会社,,株式会社,長野県,長野市,大字栗田２１２５番地長栄長野東口ビル,,20,201,3800921,,,,,,,2024-08-20,1,,,,,シンエツカンザイ,0
546,3110003005494,新規,0,2024-08-20,2024-08-20,アスニコネクト合同会社,,合同会社,新潟県,新潟市江南区,木津４丁目２番５号,,15,104,9500206,,,,,,,2024-08-20,1,,,,,アスニコネクト,0
557,3120001267862,新規,0,2024-08-20,2024-08-20,富澤株式会社,,株式会社,大阪府,大阪市東淀川区,東中島１丁目１４－３０－６０２,,27,114,5330033,,,,,,,2024-08-20,1,,,,,トミザワ,0
558,3120001267904,新規,0,2024-08-20,2024-08-20,清芸国際株式会社,,株式会社,大阪府,大阪市大正区,平尾４丁目１１番７号共栄ビル１０１号室,,27,108,5510012,,,,,,,2024-08-20,1,,,,,セイキコクサイ,0
559,3120001267920,新規,0,2024-08-20,2024-08-20,株式会社Ｔ２ｉ,,株式会社,大阪府,大阪市淀川区,西宮原２丁目６番地５,,27,123,5320004,,,,,,,2024-08-20,1,,,,,ティーツーアイ,0
562,3120003027273,新規,0,2024-08-20,2024-08-20,合同会社ＵＳ　ＧＲＯＵＰ,,合同会社,大阪府,枚方市,出口１丁目２－９１,,27,210,5730065,,,,,,,2024-08-20,1,,,,,ユーエスグループ,0
563,3120101070175,新規,0,2024-08-20,2024-08-20,翠華株式会社,,株式会社,大阪府,堺市堺区,南丸保園２－２６－１,,27,141,5900036,,,,,,,2024-08-20,1,,,,,スイカ,0
565,3120103006012,新規,0,2024-08-20,2024-08-20,合同会社宗川,,合同会社,大阪府,羽曳野市,白鳥２丁目１１番１５号,,27,222,5830856,,,,,,,2024-08-20,1,,,,,ムネカワ,0
570,3120901049641,新規,0,2024-08-20,2024-08-20,株式会社Ｋｉ,,株式会社,大阪府,茨木市,天王２丁目５－Ｊ－９０６,,27,211,5670876,,,,,,,2024-08-20,1,,,,,キ,0
576,3130001077757,新規,0,2024-08-20,2024-08-20,株式会社青陽,,株式会社,京都府,京都市中京区,壬生相合町３１－２ラフォンテ壬生２階西,,26,104,6048812,,,,,,,2024-08-20,1,,,,,セイヨウ,0
580,3130003009782,新規,0,2024-08-20,2024-08-20,合同会社Ｅ・Ｇ・Ｏ,,合同会社,京都府,京都市中京区,御池通東洞院東入笹屋町４３６番地永和御池ビル６Ｆ,,26,104,6048187,,,,,,,2024-08-20,1,,,,,イージーオー,0
590,3140001135539,新規,0,2024-08-20,2024-08-20,株式会社ｍｉｎａｔｏ,,株式会社,兵庫県,神戸市中央区,磯上通８丁目１番２９号カサベラビルＣ＆Ｍ４０３号室,,28,110,6510086,,,,,,,2024-08-20,1,,,,,ミナト,0
591,3140001135571,新規,0,2024-08-20,2024-08-20,株式会社ＩＣ,,株式会社,兵庫県,姫路市,白銀町５４番地ステラ白銀３０１,,28,201,6700902,,,,,,,2024-08-20,1,,,,,アイシー,0
607,3180001162901,新規,0,2024-08-20,2024-08-20,株式会社Ｒｉ　Ｂｅｒｔａ,,株式会社,愛知県,春日井市,神屋町１８０９番地,,23,206,4800304,,,,,,,2024-08-20,1,,,,,リベルタ,0
608,3180001162959,新規,0,2024-08-20,2024-08-20,カナンエステート株式会社,,株式会社,愛知県,名古屋市東区,泉１丁目２２番３５号,,23,102,4610001,,,,,,,2024-08-20,1,,,,,カナンエステート,0
622,3240001063713,新規,0,2024-08-20,2024-08-20,神龍味噌株式会社,00136011,株式会社,広島県,神石郡神石高原町,油木甲３２８２－２,,34,545,7201812,,,,,,,2024-08-20,1,,,,,シンリュウミソ,0
623,3240003006819,新規,0,2024-08-20,2024-08-20,リーランス合同会社,,合同会社,広島県,呉市,西中央１丁目６－２７,,34,202,7370811,,,,,,,2024-08-20,1,,,,,リーランス,0
630,3290001106748,新規,0,2024-08-20,2024-08-20,ＥＵＶフォトン株式会社,,株式会社,福岡県,福岡市西区,九大新町４－１,,40,135,8190388,,,,,,,2024-08-20,1,,,,,イーユーブイフォトン,0
631,3290001106764,新規,0,2024-08-20,2024-08-20,株式会社大和保険事務所,,株式会社,福岡県,柳川市,大和町徳益５５１番地,,40,207,8390241,,,,,,,2024-08-20,1,,,,,ヤマトホケンジムショ,0
632,3290001106772,新規,0,2024-08-20,2024-08-20,株式会社富井企画,,株式会社,福岡県,福岡市東区,箱崎３丁目１３－１５平井ビル２０３,,40,131,8120053,,,,,,,2024-08-20,1,,,,,トミイキカク,0
633,3290001106780,新規,0,2024-08-20,2024-08-20,株式会社ＣＯＬＯＵＲ,,株式会社,福岡県,福岡市中央区,平尾２丁目５番１６－２０４号,,40,133,8100014,,,,,,,2024-08-20,1,,,,,カラー,0
634,3290001106822,新規,0,2024-08-20,2024-08-20,株式会社永留工業,,株式会社,福岡県,福岡市南区,大平寺１丁目２番８号,,40,134,8111354,,,,,,,2024-08-20,1,,,,,ナガドメコウギョウ,0
635,3290001106855,新規,0,2024-08-20,2024-08-20,株式会社ＣＯＭＯＶＥａ‐Ｇ,,株式会社,福岡県,福岡市博多区,博多駅東１丁目２番５号日之出ビル博多駅前５０３号,,40,132,8120013,,,,,,,2024-08-20,1,,,,,コモービアジー,0
636,3290001106863,新規,0,2024-08-20,2024-08-20,ＦＵＫＵＤＡ株式会社,,株式会社,福岡県,糟屋郡志免町,向ヶ丘２丁目２３番２１号,,40,343,8112247,,,,,,,2024-08-20,1,,,,,フクダ,0
641,3290003015666,新規,0,2024-08-20,2024-08-20,合同会社Ｓｉｎｃｅｒｅｓｔ,,合同会社,福岡県,福岡市博多区,東比恵２丁目２０番２５号,,40,132,8120007,,,,,,,2024-08-20,1,,,,,シンシアレスト,0
642,3290005019491,新規,0,2024-08-20,2024-08-20,一般社団法人みんなの水泳協会,,その他の設立登記法人,福岡県,福岡市南区,大楠１丁目２９番３３－１０１号,,40,134,8150082,,,,,,,2024-08-20,1,,,,,ミンナノスイエイキョウカイ,0
644,3300003002159,新規,0,2024-08-20,2024-08-20,ＢｏｏｓｔＧａｔｅ合同会社,,合同会社,佐賀県,佐賀市,大和町久池井１８３９－１５,,41,201,8490000,,,,,,,2024-08-20,1,,,,,ブーストゲート,0
661,3350001019150,新規,0,2024-08-20,2024-08-20,株式会社ＭＡＲＩＡ,,株式会社,宮崎県,児湯郡高鍋町,大字上江７６７５番地,,45,401,8840006,,,,,,,2024-08-20,1,,,,,マリア,0
666,3370001051663,新規,0,2024-08-20,2024-08-20,ｉＣＡＲＥＬＡＢ株式会社,,株式会社,宮城県,仙台市青葉区,本町１丁目５番２８号カーニープレイス仙台駅前通,,04,101,9800014,,,,,,,2024-08-20,1,,,,,アイケアラボ,0
671,3380001034725,新規,0,2024-08-20,2024-08-20,トーモク白河ホールディングス株式会社,,株式会社,福島県,白河市,池下向山１番地の３,,07,205,9610825,,,,,,,2024-08-20,1,,,,,トーモクシラカワホールディングス,0
674,3400005008433,新規,0,2024-08-20,2024-08-20,一般社団法人花巻共立会,,その他の設立登記法人,岩手県,花巻市,御田屋町４番５６号,,03,205,0250082,,,,,,,2024-08-20,1,,,,,ハナマキキョウリツカイ,0
679,3430003016699,新規,0,2024-08-20,2024-08-20,合同会社深生ソフト,,合同会社,北海道,虻田郡倶知安町,南四条東５丁目１番地３３,,01,400,0440014,,,,,,,2024-08-20,1,,,,,シンセイソフト,0
682,3450003002532,新規,0,2024-08-20,2024-08-20,合同会社記帳代行社,,合同会社,北海道,旭川市,東七条３丁目２番１１号,,01,204,0700027,,,,,,,2024-08-20,1,,,,,キチョウダイコウシャ,0
692,3700150126785,新規,0,2024-08-20,2024-08-20,Ｙａｎｃｏａｌ　Ａｕｓｔｒａｌｉａ　ＰＴＹ　Ｌｔｄ　日本駐在員事務所,,外国会社等,東京都,千代田区,有楽町１丁目１３－２第一生命日比谷ファースト１２階,,13,101,1000006,Ｌｅｖｅｌ　１８，Ｔｏｗｅｒ　２，２０１　ｓｕｓｓｅｘ　Ｓｔ　Ｓｙｄｎｅｙ　ＮＳＷ　２０００　Ａｕｓｔｒａｌｉａ,,,,,,2024-08-20,1,,,,,ヤンコールオーストラリアピーテイーワイエルテイデイーニホンチユウザイインジムシヨ,0
693,3700150126793,新規,0,2024-08-20,2024-08-20,ＶＯＺＥＸ　ＡＵＴＯ　ＬＡＮＫＡ,,外国会社等,千葉県,山武市,成東２８８８番地７－２号,,12,237,2891326,スリランカ民主社会主義共和国、キャンディ、カトゥガストタロード、Ｎｏ．４３６／Ａ／１,,,,,,2024-08-20,1,,,,,ボゼツクスオートランカ,0
702,4010001247536,新規,0,2024-08-20,2024-08-20,株式会社Ｔｒｉｉｋｕ,,株式会社,東京都,中央区,晴海３丁目１６－１－１５１１,,13,102,1040053,,,,,,,2024-08-20,1,,,,,トリイク,0
703,4010001247544,新規,0,2024-08-20,2024-08-20,株式会社ＢＣＪ‐８１,,株式会社,東京都,千代田区,丸の内１丁目１番１号パレスビル５階,,13,101,1000005,,,,,,,2024-08-20,1,,,,,ビーシージェイエイティーワン,0
704,4010001247552,新規,0,2024-08-20,2024-08-20,株式会社ＳＴＯＣＫ１５７,,株式会社,東京都,千代田区,永田町２丁目１２番４号,,13,101,1000014,,,,,,,2024-08-20,1,,,,,ストックヒャクゴジュウナナ,0
705,4010001247560,新規,0,2024-08-20,2024-08-20,株式会社ＳＴＯＣＫ１６５,,株式会社,東京都,千代田区,永田町２丁目１２番４号,,13,101,1000014,,,,,,,2024-08-20,1,,,,,ストックヒャクロクジュウゴ,0
721,4010603011026,新規,0,2024-08-20,2024-08-20,岡王合同会社,,合同会社,東京都,江東区,門前仲町１丁目６－６プライムメゾン３０１,,13,108,1350048,,,,,,,2024-08-20,1,,,,,オカオウ,0
736,4011003019725,新規,0,2024-08-20,2024-08-20,合同会社Ａｐｐｒｏｖａｌ,,合同会社,東京都,渋谷区,道玄坂１丁目１０番８号渋谷道玄坂東急ビル２Ｆ－Ｃ,,13,113,1500043,,,,,,,2024-08-20,1,,,,,アプルーバル,0
737,4011003019782,新規,0,2024-08-20,2024-08-20,合同会社広尾プロパティーズ,,合同会社,東京都,渋谷区,広尾４丁目１－５広尾ガーデンヒルズＢ棟８０８,,13,113,1500012,,,,,,,2024-08-20,1,,,,,ヒロオプロパティーズ,0
742,4011101108520,新規,0,2024-08-20,2024-08-20,株式会社ＴＯＣ,,株式会社,東京都,新宿区,高田馬場２丁目８番４号ＡＵビル４階,,13,104,1690075,,,,,,,2024-08-20,1,,,,,ティーオーシー,0
743,4011403004483,新規,0,2024-08-20,2024-08-20,ＧＭＴ合同会社,,合同会社,東京都,板橋区,蓮沼町２１－３リヴェール蓮沼１０２,,13,119,1740052,,,,,,,2024-08-20,1,,,,,ジーエムティー,0
750,4012805003288,新規,0,2024-08-20,2024-08-20,土地家屋調査士法人ヴェルライン,,その他の設立登記法人,東京都,日野市,石田１丁目１２番６号,,13,212,1910021,,,,,,,2024-08-20,1,,,,,ヴェルライン,0
756,4021001083045,新規,0,2024-08-20,2024-08-20,株式会社フラット・ホーム,,株式会社,神奈川県,高座郡寒川町,一之宮１丁目６番４１号,,14,321,2530111,,,,,,,2024-08-20,1,,,,,フラットホーム,0
762,4040001134946,新規,0,2024-08-20,2024-08-20,有明興業マテリアルズ株式会社,,株式会社,千葉県,市原市,玉前西２丁目９番１号,,12,219,2900044,,,,,,,2024-08-20,1,,,,,アリアケコウギョウマテリアルズ,0
763,4040001135085,新規,0,2024-08-20,2024-08-20,株式会社ＡＴ,,株式会社,千葉県,柏市,若柴１７８－４，１４８街区２ショップ＆オフィス棟６階,,12,217,2770871,,,,,,,2024-08-20,1,,,,,エーティー,0
764,4050001055274,新規,0,2024-08-20,2024-08-20,株式会社時間旅行公社,,株式会社,茨城県,水戸市,千波町２８７４番地の２０,,08,201,3100851,,,,,,,2024-08-20,1,,,,,ジカンリョコウコウシャ,0
768,4060001037412,新規,0,2024-08-20,2024-08-20,株式会社ＡＤＩＬ　ＩＮＴＥＲＮＡＴＩＯＮＡＬ,,株式会社,栃木県,小山市,西城南７丁目１１番地１１,,09,208,3230820,,,,,,,2024-08-20,1,,,,,アディルインターナショナル,0
780,4080105006451,新規,0,2024-08-20,2024-08-20,特定非営利活動法人伊東リトルシニア野球協会,,その他の設立登記法人,静岡県,伊東市,川奈１３０４番地の５コーポアキヤマ２０１号,,22,208,4140044,,,,,,,2024-08-20,1,,,,,イトウリトルシニアヤキュウキョウカイ,0
781,4100001037779,新規,0,2024-08-20,2024-08-20,世界武道家連盟株式会社,,株式会社,長野県,飯田市,上郷黒田５５３０,,20,205,3950004,,,,,,,2024-08-20,1,,,,,セカイブドウカレンメイ,0
782,4100003007739,新規,0,2024-08-20,2024-08-20,合同会社タイム,,合同会社,長野県,北佐久郡御代田町,大字面替７５７番２００,,20,323,3890205,,,,,,,2024-08-20,1,,,,,タイム,0
791,4120001267911,新規,0,2024-08-20,2024-08-20,Ｍａｔｒｉｘｇａｔｅ株式会社,,株式会社,大阪府,大阪市住吉区,南住吉２丁目６番２１号ホワイトコーポ南住吉５０２号室,,27,120,5580041,,,,,,,2024-08-20,1,,,,,マトリックスゲート,0
796,4120005024490,新規,0,2024-08-20,2024-08-20,一般社団法人大阪相続相談センター,,その他の設立登記法人,大阪府,大阪市中央区,難波５丁目１番６０号なんばスカイオ２７階,,27,128,5420076,,,,,,,2024-08-20,1,,,,,オオサカソウゾクソウダンセンター,0
797,4120005024499,新規,0,2024-08-20,2024-08-20,一般社団法人あまくさＬＩＮＫ‐ＵＰ,,その他の設立登記法人,大阪府,枚方市,藤阪東町２丁目２番５号,,27,210,5730153,,,,,,,2024-08-20,1,,,,,アマクサリンクアップ,0
804,4140001135562,新規,0,2024-08-20,2024-08-20,株式会社ＡＲＡＴＡ,,株式会社,兵庫県,宝塚市,御殿山３丁目１２番２０号,,28,214,6650841,,,,,,,2024-08-20,1,,,,,アラタ,0
805,4140001135570,新規,0,2024-08-20,2024-08-20,シンヤアセットマネジメント株式会社,,株式会社,兵庫県,たつの市,揖保町門前３６９番地１,,28,229,6794153,,,,,,,2024-08-20,1,,,,,シンヤアセットマネジメント,0
809,4140003020977,新規,0,2024-08-20,2024-08-20,合同会社ａｔｅｇｉｓ,,合同会社,兵庫県,宝塚市,長尾台２丁目１５番１４号,,28,214,6650807,,,,,,,2024-08-20,1,,,,,アテジス,0
820,4180001162883,新規,0,2024-08-20,2024-08-20,株式会社ｔｓｕｍｕｇｉ,,株式会社,愛知県,長久手市,作田１丁目１２０１番地,,23,238,4801153,,,,,,,2024-08-20,1,,,,,ツムギ,0
826,4180005020740,新規,0,2024-08-20,2024-08-20,一般社団法人オアシス在宅療養支援センター,,その他の設立登記法人,愛知県,名古屋市瑞穂区,竹田町３丁目１１番,,23,108,4670873,,,,,,,2024-08-20,1,,,,,オアシスザイタクリョウヨウシエンセンター,0
836,4240001063704,新規,0,2024-08-20,2024-08-20,株式会社Ｋ‐ＲＩＳＥ,,株式会社,広島県,広島市安佐南区,山本新町３丁目２０番３０号,,34,105,7310139,,,,,,,2024-08-20,1,,,,,ケイライズ,0
847,4290001106714,新規,0,2024-08-20,2024-08-20,株式会社ＦＵＫレンタカー,,株式会社,福岡県,福岡市西区,福重３丁目２１番３号西南ビル２Ｆ,,40,135,8190022,,,,,,,2024-08-20,1,,,,,フクレンタカー,0
848,4290001106739,新規,0,2024-08-20,2024-08-20,株式会社アンドメイク,,株式会社,福岡県,福岡市中央区,警固１丁目１番１３号警固レトロビル３０３,,40,133,8100023,,,,,,,2024-08-20,1,,,,,アンドメイク,0
849,4290001106771,新規,0,2024-08-20,2024-08-20,三恵商事株式会社,,株式会社,福岡県,福岡市南区,横手３丁目４番２９号１０１室,,40,134,8111311,,,,,,,2024-08-20,1,,,,,サンケイショウジ,0
850,4290001106805,新規,0,2024-08-20,2024-08-20,株式会社イールファクトリー,,株式会社,福岡県,八女郡広川町,大字日吉７５２－１,,40,544,8340111,,,,,,,2024-08-20,1,,,,,イールファクトリー,0
851,4290001106813,新規,0,2024-08-20,2024-08-20,株式会社川端デリバリーサービス,,株式会社,福岡県,福岡市博多区,祇園町２番１３号,,40,132,8120038,,,,,,,2024-08-20,1,,,,,カワバタデリバリーサービス,0
852,4290003015657,新規,0,2024-08-20,2024-08-20,合同会社ストライク,,合同会社,福岡県,福岡市東区,香椎照葉１丁目１番２４号,,40,131,8130017,,,,,,,2024-08-20,1,,,,,ストライク,0
853,4290003015673,新規,0,2024-08-20,2024-08-20,合同会社ＩＴロータム,,合同会社,福岡県,福岡市中央区,警固２丁目９番３８号シティハイムＢＯＯＭ１０１号,,40,133,8100023,,,,,,,2024-08-20,1,,,,,アイティロータム,0
874,4380001034724,新規,0,2024-08-20,2024-08-20,株式会社藤ホールディングス,,株式会社,福島県,福島市,栄町１２番１０号ひかりビル,,07,201,9608031,,,,,,,2024-08-20,1,,,,,フジホールディングス,0
875,4380001034740,新規,0,2024-08-20,2024-08-20,株式会社バインド,,株式会社,福島県,喜多方市,岩月町入田付字西原４９４１番地,,07,208,9660001,,,,,,,2024-08-20,1,,,,,バインド,0
878,4410003003970,新規,0,2024-08-20,2024-08-20,合同会社ＡＴＴ,,合同会社,秋田県,秋田市,大町３丁目２番２２号,,05,201,0100921,,,,,,,2024-08-20,1,,,,,エーティティ,0
884,4700150126792,新規,0,2024-08-20,2024-08-20,ＥＣＬＩＰＳ　ＥＮＴＥＲＰＲＩＳＥＳ,,外国会社等,長野県,東御市,御牧原９９－２,,20,219,3890403,スリランカ民主社会主義共和国、デヒワラ、オフ、クアリ、ワナラタナ、プレス、１０番,,,,,,2024-08-20,1,,,,,エクリプスエンタープライセス,0
893,5010001247543,新規,0,2024-08-20,2024-08-20,株式会社ＢＣＪ‐８２‐２,,株式会社,東京都,千代田区,丸の内１丁目１番１号パレスビル５階,,13,101,1000005,,,,,,,2024-08-20,1,,,,,ビーシージェイエイティートゥートゥー,0
894,5010001247551,新規,0,2024-08-20,2024-08-20,株式会社ＳＴＯＣＫ１５６,,株式会社,東京都,千代田区,永田町２丁目１２番４号,,13,101,1000014,,,,,,,2024-08-20,1,,,,,ストックヒャクゴジュウロク,0
898,5010003044633,新規,0,2024-08-20,2024-08-20,Ｆｏｒｔｒｅｓｓ　Ｃａｐｉｔａｌ合同会社,,合同会社,東京都,中央区,銀座１丁目１２－４Ｎ＆ＥＢＬＤ．７階,,13,102,1040061,,,,,,,2024-08-20,1,,,,,フォートレスキャピタル,0
899,5010003044666,新規,0,2024-08-20,2024-08-20,合同会社Ｄｉｓｃｏｖｅｒｙ,,合同会社,東京都,中央区,八丁堀３丁目１１番１３－７０４号,,13,102,1040032,,,,,,,2024-08-20,1,,,,,ディスカバリー,0
900,5010005038658,新規,0,2024-08-20,2024-08-20,弁護士法人アキバ法律事務所,,その他の設立登記法人,東京都,千代田区,神田佐久間町２丁目１奥田ビル６階,,13,101,1010025,,,,,,,2024-08-20,1,,,,,アキバホウリツジムショ,0
901,5010101016286,新規,0,2024-08-20,2024-08-20,株式会社ｃｏｃｏｓｔａ,,株式会社,東京都,八王子市,三崎町９－６アクセス５ビル１Ｆ,,13,201,1920084,,,,,,,2024-08-20,1,,,,,ココスタ,0
903,5010401184221,新規,0,2024-08-20,2024-08-20,株式会社ＩＰ　Ｒｅｎｏｖａｔｉｏｎ,,株式会社,東京都,港区,虎ノ門５丁目２番７号土井ビル５階,,13,103,1050001,,,,,,,2024-08-20,1,,,,,アイピーリノベーション,0
912,5010901055797,新規,0,2024-08-20,2024-08-20,株式会社Ｓｋｒｅｗ　Ｐｒｏｄｕｃｔｉｏｎ,,株式会社,東京都,世田谷区,深沢４丁目３６番１９号深沢パークコート２０３,,13,112,1580081,,,,,,,2024-08-20,1,,,,,スクリュープロダクション,0
913,5010901055814,新規,0,2024-08-20,2024-08-20,株式会社Ｉａｍ,,株式会社,東京都,世田谷区,梅丘１丁目２６－７浅野ビル２Ｆ,,13,112,1540022,,,,,,,2024-08-20,1,,,,,アイアム,0
915,5010903009297,新規,0,2024-08-20,2024-08-20,フォトンムービーラボ合同会社,,合同会社,東京都,世田谷区,上北沢３丁目１８番７号幸作ビルＢ１,,13,112,1560057,,,,,,,2024-08-20,1,,,,,フォトンムービーラボ,0
921,5011001164076,新規,0,2024-08-20,2024-08-20,プロプラス株式会社,,株式会社,東京都,渋谷区,道玄坂１丁目１０番８号渋谷道玄坂東急ビル２Ｆ－Ｃ,,13,113,1500043,,,,,,,2024-08-20,1,,,,,プロプラス,0
927,5011701027549,新規,0,2024-08-20,2024-08-20,株式会社アップデート,,株式会社,東京都,江戸川区,中葛西５丁目４番１６号ＲｅａｌＷｉｔｈ１０１,,13,123,1340083,,,,,,,2024-08-20,1,,,,,アップデート,0
941,5020001158509,新規,0,2024-08-20,2024-08-20,株式会社芹丸かごや工房,,株式会社,神奈川県,横浜市戸塚区,上矢部町２６４６番地３,,14,110,2450053,,,,,,,2024-08-20,1,,,,,セリマルカゴヤコウボウ,0
942,5020001158517,新規,0,2024-08-20,2024-08-20,株式会社キース商会,,株式会社,神奈川県,横浜市保土ケ谷区,初音ケ丘７番３１－４号,,14,106,2400016,,,,,,,2024-08-20,1,,,,,キースショウカイ,0
943,5020001158756,新規,0,2024-08-20,2024-08-20,株式会社縁しき,,株式会社,神奈川県,川崎市多摩区,枡形１丁目７番１２号,,14,135,2140032,,,,,,,2024-08-20,1,,,,,エニシキ,0
945,5021001083044,新規,0,2024-08-20,2024-08-20,株式会社丸本,,株式会社,神奈川県,藤沢市,獺郷１５４３番地の１,,14,205,2520825,,,,,,,2024-08-20,1,,,,,マルホン,0
946,5021003014922,新規,0,2024-08-20,2024-08-20,ａｕｄｉｏｂｏｏｋｓ．ｃｏ．ｊｐ合同会社,,合同会社,神奈川県,横須賀市,秋谷１丁目１３－１－８０７,,14,201,2400105,,,,,,,2024-08-20,1,,,,,オーディオブックスシーオージェーピー,0
960,5040003025630,新規,0,2024-08-20,2024-08-20,合同会社ＳＧＪ,,合同会社,千葉県,山武郡芝山町,菱田３２４番地,,12,409,2891602,,,,,,,2024-08-20,1,,,,,エスジージェイ,0
964,5060003005201,新規,0,2024-08-20,2024-08-20,佐野市公共施設ＬＥＤ推進合同会社,,合同会社,栃木県,佐野市,伊勢山町１４番地１３,,09,204,3270817,,,,,,,2024-08-20,1,,,,,サノシコウキョウシセツエルイーディスイシン,0
968,5070001042096,新規,0,2024-08-20,2024-08-20,株式会社中林,,株式会社,群馬県,前橋市,上新田町１０３５番地２,,10,201,3710821,,,,,,,2024-08-20,1,,,,,ナカバヤシ,0
973,5090001018870,新規,0,2024-08-20,2024-08-20,株式会社ＣＲＯＳ‐Ｔｅｃｈ,,株式会社,山梨県,甲府市,貢川２丁目２番１１号,,19,201,4000065,,,,,,,2024-08-20,1,,,,,クロステック,0
975,5100001037761,新規,0,2024-08-20,2024-08-20,ＲＹＯＺＯ　ＶＩＳＩＯＮ株式会社,,株式会社,長野県,松本市,城東２丁目７－３,,20,202,3900807,,,,,,,2024-08-20,1,,,,,リョウゾウヴィジョン,0
976,5100001037778,新規,0,2024-08-20,2024-08-20,カカポ株式会社,,株式会社,長野県,安曇野市,三郷明盛４６８番地５,,20,220,3998101,,,,,,,2024-08-20,1,,,,,カカポ,0
987,5120001267729,新規,0,2024-08-20,2024-08-20,株式会社人と未来,,株式会社,大阪府,大阪市中央区,瓦町１丁目６番１－４６０１号,,27,128,5410048,,,,,,,2024-08-20,1,,,,,ヒトトミライ,0
988,5120001267893,新規,0,2024-08-20,2024-08-20,株式会社ビエンソル,,株式会社,大阪府,枚方市,南中振１丁目１番２８号アサヒビル２０１号室,,27,210,5730094,,,,,,,2024-08-20,1,,,,,ビエンソル,0
989,5120001267902,新規,0,2024-08-20,2024-08-20,株式会社シンク,,株式会社,大阪府,大阪市北区,梅田１丁目１１番４号大阪駅前第４ビル９階９２３－１７１３号,,27,127,5300001,,,,,,,2024-08-20,1,,,,,シンク,0
990,5120001267919,新規,0,2024-08-20,2024-08-20,神王商事株式会社,,株式会社,大阪府,大阪市住之江区,粉浜１丁目３－２５－４０３室,,27,125,5590001,,,,,,,2024-08-20,1,,,,,カミオウショウジ,0
996,5120903005302,新規,0,2024-08-20,2024-08-20,合同会社ＥＴＨ,,合同会社,大阪府,豊中市,長興寺南４丁目７番３６号,,27,203,5610874,,,,,,,2024-08-20,1,,,,,イティエイチ,0
1002,5140001135561,新規,0,2024-08-20,2024-08-20,ロックフィッシュジャパン株式会社,,株式会社,兵庫県,神戸市北区,八多町西畑６８３番地の２,,28,109,6511345,,,,,,,2024-08-20,1,,,,,ロックフィッシュジャパン,0
1017,5180303006234,新規,0,2024-08-20,2024-08-20,合同会社アクアウェーブ,,合同会社,愛知県,碧南市,西山町６丁目１番地,,23,209,4470064,,,,,,,2024-08-20,1,,,,,アクアウェーブ,0
1019,5200001042842,新規,0,2024-08-20,2024-08-20,株式会社山下建材店,,株式会社,岐阜県,多治見市,金岡町３丁目１０５番地,,21,204,5070016,,,,,,,2024-08-20,1,,,,,ヤマシタケンザイテン,0
1020,5200003006473,新規,0,2024-08-20,2024-08-20,合同会社Ｓｉｎｔｅｒｋｌａａｓ,,合同会社,岐阜県,大垣市,住吉町５丁目６,,21,202,5030822,,,,,,,2024-08-20,1,,,,,シンタクラース,0
1023,5220001026166,新規,0,2024-08-20,2024-08-20,株式会社イマルワークス,,株式会社,石川県,金沢市,三口新町４丁目１番５号１Ｆ,,17,201,9200944,,,,,,,2024-08-20,1,,,,,イマルワークス,0
1024,5230005009406,新規,0,2024-08-20,2024-08-20,一般社団法人富山県ライフセービング協会,,その他の設立登記法人,富山県,富山市,堀川町２６番地２１,,16,201,9398072,,,,,,,2024-08-20,1,,,,,トヤマケンライフセービングキョウカイ,0
1029,5260003004868,新規,0,2024-08-20,2024-08-20,合同会社オルビア,,合同会社,岡山県,瀬戸内市,邑久町本庄２２４３番地３,,33,212,7014214,,,,,,,2024-08-20,1,,,,,オルビア,0
1031,5260005011391,新規,0,2024-08-20,2024-08-20,医療法人社団りんどう会,,その他の設立登記法人,岡山県,倉敷市,松島１１００番地１,,33,202,7010114,,,,,,,2024-08-20,1,,,,,シャダンリンドウカイ,0
1032,5280003001871,新規,0,2024-08-20,2024-08-20,合同会社撫子,,合同会社,島根県,松江市,玉湯町湯町８８１,,32,201,6990202,,,,,,,2024-08-20,1,,,,,ナデシコ,0
1038,5290001106713,新規,0,2024-08-20,2024-08-20,株式会社ＬＯＯＰ,,株式会社,福岡県,柳川市,西浜武６９４番地５,,40,207,8320081,,,,,,,2024-08-20,1,,,,,ループ,0
1039,5290001106746,新規,0,2024-08-20,2024-08-20,株式会社Ｌｉｎｏ’ａ,,株式会社,福岡県,福岡市博多区,博多駅前１丁目２３番２号ＰａｒｋＦｒｏｎｔ博多駅前１丁目５Ｆ－Ｂ,,40,132,8120011,,,,,,,2024-08-20,1,,,,,リノア,0
1040,5290001106754,新規,0,2024-08-20,2024-08-20,株式会社インクリース,,株式会社,福岡県,福岡市早良区,室見５丁目８番７－７０１号,,40,137,8140015,,,,,,,2024-08-20,1,,,,,インクリース,0
1041,5290001106762,新規,0,2024-08-20,2024-08-20,株式会社オープンティー,,株式会社,福岡県,福岡市早良区,百道浜３丁目９番３３号,,40,137,8140001,,,,,,,2024-08-20,1,,,,,オープンティー,0
1042,5290001106770,新規,0,2024-08-20,2024-08-20,株式会社ｍｉｓｓｉｏｎｓ,,株式会社,福岡県,太宰府市,朱雀１丁目２番１６号グランシャリオＡ１０２号室,,40,221,8180103,,,,,,,2024-08-20,1,,,,,ミッションズ,0
1043,5290001106787,新規,0,2024-08-20,2024-08-20,株式会社クレアスマイル,,株式会社,福岡県,福岡市南区,的場２丁目４番６号,,40,134,8111314,,,,,,,2024-08-20,1,,,,,クレアスマイル,0
1044,5290001106795,新規,0,2024-08-20,2024-08-20,株式会社ダブルエスワールド,,株式会社,福岡県,福岡市早良区,百道浜３丁目３番２－４０２号,,40,137,8140001,,,,,,,2024-08-20,1,,,,,ダブルエスワールド,0
1045,5290001106804,新規,0,2024-08-20,2024-08-20,ＫＦＳアライアンス株式会社,,株式会社,福岡県,久留米市,日ノ出町１番地１ベスタ櫛原７０１号,00136013,40,203,8300012,,,,,,,2024-08-20,1,,,,,ケイエフエスアライアンス,0
1046,5290001106829,新規,0,2024-08-20,2024-08-20,株式会社ＲＡＩＪＩＮ,,株式会社,福岡県,福岡市城南区,長尾３丁目１５番３６－４０１号,,40,136,8140123,,,,,,,2024-08-20,1,,,,,ライジン,0
1047,5290001106861,新規,0,2024-08-20,2024-08-20,株式会社ＨＩＲＡＩ建築．,,株式会社,福岡県,八女郡広川町,大字広川１１０６番地７,,40,544,8340121,,,,,,,2024-08-20,1,,,,,ヒライケンチク,0
1049,5290003015648,新規,0,2024-08-20,2024-08-20,ハイファイクルー合同会社,,合同会社,福岡県,太宰府市,吉松１丁目１０番２５号,,40,221,8180138,,,,,,,2024-08-20,1,,,,,,0
1050,5290003015664,新規,0,2024-08-20,2024-08-20,合同会社デアトゥーケア,,合同会社,福岡県,福岡市博多区,相生三丁目２－３５－５号相生ビル,,40,132,8120000,,,,,,,2024-08-20,1,,,,,デアトゥーケア,0
1062,5330001032384,新規,0,2024-08-20,2024-08-20,株式会社フォレスト,,株式会社,熊本県,熊本市東区,湖東３丁目８番２５号,,43,102,8620909,,,,,,,2024-08-20,1,,,,,フォレスト,0
1069,5360001034097,新規,0,2024-08-20,2024-08-20,株式会社ちゅらｗｅｂ,,株式会社,沖縄県,豊見城市,字与根２４８－２,,47,212,9010224,,,,,,,2024-08-20,1,,,,,チュラウェブ,0
1074,5390001017719,新規,0,2024-08-20,2024-08-20,株式会社佐藤幸寿商店,,株式会社,山形県,最上郡真室川町,大字川ノ内２０２１番地１２,,06,364,9995301,,,,,,,2024-08-20,1,,,,,サトウコウジュショウテン,0
1077,5410005006599,新規,0,2024-08-20,2024-08-20,一般社団法人ＣＯＣＯＲＯ,,その他の設立登記法人,秋田県,能代市,河戸川字下大須賀６８番地,,05,202,0160171,,,,,,,2024-08-20,1,,,,,ココロ,0
1078,5430001092518,新規,0,2024-08-20,2024-08-20,禾頌株式会社,,株式会社,北海道,小樽市,赤岩１丁目８番１３号,,01,203,0470046,,,,,,,2024-08-20,1,,,,,カショウ,0
1081,5430003016672,新規,0,2024-08-20,2024-08-20,合同会社ｎａｓｓｙ　ｅｎｇｉｎｅｅｒ,,合同会社,北海道,札幌市北区,屯田六条２丁目７番８号,,01,102,0020856,,,,,,,2024-08-20,1,,,,,ナッシーエンジニア,0
1090,5500001025833,新規,0,2024-08-20,2024-08-20,福泉ホールディングス株式会社,,株式会社,愛媛県,松山市,雄郡１丁目１番３２号,,38,201,7900031,,,,,,,2024-08-20,1,,,,,フクセンホールディングス,0
1091,5500003003309,新規,0,2024-08-20,2024-08-20,合同会社ｓｅｅｄｓ,,合同会社,愛媛県,四国中央市,中之庄町７４７－１１,,38,213,7990422,,,,,,,2024-08-20,1,,,,,シーズ,0
1092,5700150126791,新規,0,2024-08-20,2024-08-20,ＲＡＺ　ＴＲＡＤＩＮＧ　ＰＶＴ　ＬＴＤ,,外国会社等,北海道,札幌市南区,澄川六条１０丁目１０番１号クリスタル５１０－２０１,,01,106,0050006,スリランカ民主社会主義共和国、アクラナ　ウダウェリクティヤ７３,,,,,,2024-08-20,1,,,,,ラズトレーデイングプライベートリミテツド,0
1098,6010001247261,新規,0,2024-08-20,2024-08-20,三安不動産株式会社,,株式会社,東京都,中央区,入船２丁目２番７号ドルチェ銀座東弐番館５０４号室,,13,102,1040042,,,,,,,2024-08-20,1,,,,,サンアンフドウサン,0
1099,6010001247542,新規,0,2024-08-20,2024-08-20,株式会社ＢＣＪ‐８２‐１,,株式会社,東京都,千代田区,丸の内１丁目１番１号パレスビル５階,,13,101,1000005,,,,,,,2024-08-20,1,,,,,ビーシージェイエイティートゥーワン,0
1100,6010001247559,新規,0,2024-08-20,2024-08-20,株式会社ＳＴＯＣＫ１６４,,株式会社,東京都,千代田区,永田町２丁目１２番４号,,13,101,1000014,,,,,,,2024-08-20,1,,,,,ストックヒャクロクジュウヨン,0
1104,6010003044657,新規,0,2024-08-20,2024-08-20,Ａ　Ｓｅｅｄ合同会社,,合同会社,東京都,千代田区,神田紺屋町２８,,13,101,1010035,,,,,,,2024-08-20,1,,,,,アシード,0
1106,6010005038681,新規,0,2024-08-20,2024-08-20,柏開発特定目的会社,,その他の設立登記法人,東京都,千代田区,丸の内１丁目４番１号東京共同会計事務所内,,13,101,1000005,,,,,,,2024-08-20,1,,,,,カシワカイハツ,0
1107,6010005038698,新規,0,2024-08-20,2024-08-20,千歳ヤマセミ特定目的会社,,その他の設立登記法人,東京都,千代田区,平河町１丁目６番１５号シルスフィア会計事務所内,,13,101,1020093,,,,,,,2024-08-20,1,,,,,チトセヤマセミ,0
1113,6010401184492,新規,0,2024-08-20,2024-08-20,ＤＡＲＩＮＧＡＴＥ株式会社,,株式会社,東京都,港区,港南２丁目１６番３号品川グランドセントラルタワー,,13,103,1080075,,,,,,,2024-08-20,1,,,,,デアリングゲート,0
1120,6010901055821,新規,0,2024-08-20,2024-08-20,株式会社カーサ,,株式会社,東京都,世田谷区,大蔵６丁目６番１３号,,13,112,1570074,,,,,,,2024-08-20,1,,,,,カーサ,0
1125,6011001163936,新規,0,2024-08-20,2024-08-20,ＳＫＹマーケティング株式会社,,株式会社,東京都,目黒区,下目黒６丁目１２－２４－１０８,,13,110,1530064,,,,,,,2024-08-20,1,,,,,スカイマーケティング,0
1128,6011005010630,新規,0,2024-08-20,2024-08-20,一般社団法人Ｉｐｐｉｎ　Ｄｅｎｔａｌ,,その他の設立登記法人,東京都,渋谷区,渋谷２丁目３番４号青山ＴＮビル１階,,13,113,1500002,,,,,,,2024-08-20,1,,,,,イッピンデンタル,0
1131,6011101108444,新規,0,2024-08-20,2024-08-20,茗荷株式会社,,株式会社,東京都,新宿区,新宿２丁目７－３ヴィラハイツ新宿御苑９０５号室,,13,104,1600022,,,,,,,2024-08-20,1,,,,,ミュウガ,0
1135,6011403004481,新規,0,2024-08-20,2024-08-20,合同会社ＴＲＡＵＭ,,合同会社,東京都,板橋区,赤塚新町１丁目２１番１０号,,13,119,1750093,,,,,,,2024-08-20,1,,,,,トラオム,0
1140,6011801044716,新規,0,2024-08-20,2024-08-20,株式会社上乃家,,株式会社,東京都,葛飾区,水元３丁目１１番９号,,13,122,1250032,,,,,,,2024-08-20,1,,,,,ジョウノウチ,0
1143,6011803006409,新規,0,2024-08-20,2024-08-20,合同会社オダガキ,,合同会社,東京都,足立区,東綾瀬３丁目２番４－８０４号,,13,121,1200004,,,,,,,2024-08-20,1,,,,,オダガキ,0
1150,6013303007259,新規,0,2024-08-20,2024-08-20,合同会社Ｍ３,,合同会社,東京都,豊島区,西巣鴨１丁目９－１－４０１,,13,116,1700001,,,,,,,2024-08-20,1,,,,,エムスリー,0
1154,6020001158508,新規,0,2024-08-20,2024-08-20,セル・テクノロジー株式会社,,株式会社,神奈川県,横浜市青葉区,市ケ尾町４７１－２クリオ市ケ尾弐番館２２７号,,14,117,2250024,,,,,,,2024-08-20,1,,,,,セルテクノロジー,0
1155,6020001158540,新規,0,2024-08-20,2024-08-20,株式会社ＣＨＲＯＭＥ　ＰＬＡＮＮＩＮＧ,,株式会社,神奈川県,横浜市西区,北幸２丁目１０番４８号むつみビル３階,,14,103,2200004,,,,,,,2024-08-20,1,,,,,クロームプランニング,0
1170,6040001134952,新規,0,2024-08-20,2024-08-20,株式会社ＴＪＰ,,株式会社,千葉県,千葉市美浜区,若葉３丁目１‐１８幕張ベイパーククロスレジデンスＳ２‐１,,12,106,2610014,,,,,,,2024-08-20,1,,,,,ティージェーピー,0
1171,6040001135034,新規,0,2024-08-20,2024-08-20,キナソフト株式会社,,株式会社,千葉県,流山市,おおたかの森東２丁目８－６０,,12,220,2700138,,,,,,,2024-08-20,1,,,,,キナソフト,0
1175,6050003008617,新規,0,2024-08-20,2024-08-20,カスミサポート合同会社,,合同会社,茨城県,行方市,手賀４４７８番地１１,,08,233,3113513,,,,,,,2024-08-20,1,,,,,カスミサポート,0
1177,6060003000597,新規,0,2024-08-20,2024-08-20,合資会社吉成大正堂,00136010,合資会社,栃木県,那須塩原市,大原間５４５番地,,09,213,3293153,,,,,,,2024-08-20,1,,,,,ヨシナリタイショウドウ,0
1178,6060003005200,新規,0,2024-08-20,2024-08-20,合同会社ＲＡＪＡＰＡＫＳＨＡ　ＥＮＴＥＲＰＲＩＳＥ,,合同会社,栃木県,佐野市,茂呂山町１９番地６,,09,204,3270826,,,,,,,2024-08-20,1,,,,,ラージャパクシャエンタープライズ,0
1181,6080103003127,新規,0,2024-08-20,2024-08-20,Ｓ’ｗｅｌｌ合同会社,,合同会社,静岡県,下田市,二丁目２－３１－あたらよＣＯ１,,22,219,4150022,,,,,,,2024-08-20,1,,,,,スウェル,0
1186,6080401027389,新規,0,2024-08-20,2024-08-20,株式会社Ａｂｅｄｉｍａ　Ｉｎｔｅｒｎａｔｉｏｎａｌ,,株式会社,静岡県,袋井市,浅羽２１７番地,,22,216,4371101,,,,,,,2024-08-20,1,,,,,アベディマインターナショナル,0
1189,6100001037760,新規,0,2024-08-20,2024-08-20,白馬王子株式会社,,株式会社,長野県,北安曇郡白馬村,大字北城２２１２－１－１階Ａ室,,20,485,3999301,,,,,,,2024-08-20,1,,,,,ハクバオウジ,0
1190,6100001037785,新規,0,2024-08-20,2024-08-20,株式会社千誠,,株式会社,長野県,北佐久郡軽井沢町,大字長倉５９３３番地２８,,20,321,3890111,,,,,,,2024-08-20,1,,,,,チセイ,0
1207,6120001267752,新規,0,2024-08-20,2024-08-20,株式会社ＶｉＶｉ,,株式会社,大阪府,大阪市旭区,高殿７丁目２０番１０号,,27,117,5350031,,,,,,,2024-08-20,1,,,,,ビビ,0
1208,6120001267901,新規,0,2024-08-20,2024-08-20,天麟株式会社,,株式会社,大阪府,大阪市阿倍野区,王子町１丁目８番６号,,27,119,5450023,,,,,,,2024-08-20,1,,,,,テンリン,0
1209,6120001267918,新規,0,2024-08-20,2024-08-20,株式会社玖文スタジオ,,株式会社,大阪府,大阪市中央区,本町橋２番２２号第２６松屋ビル９Ｆ,,27,128,5400029,,,,,,,2024-08-20,1,,,,,クモンスタジオ,0
1217,6122003002971,新規,0,2024-08-20,2024-08-20,Ｓａｋｕｒａ　ｇｒｏｕｐ合同会社,,合同会社,大阪府,東大阪市,岩田町３丁目１４番４２号,,27,227,5780941,,,,,,,2024-08-20,1,,,,,サクラグループ,0
1219,6130001077754,新規,0,2024-08-20,2024-08-20,夜天堂株式会社,,株式会社,京都府,京都市北区,小山下総町５３番地９,,26,101,6038151,,,,,,,2024-08-20,1,,,,,ヤテンドウ,0
1225,6140001135560,新規,0,2024-08-20,2024-08-20,株式会社エイチアンドエープランニング,,株式会社,兵庫県,西宮市,田代町１番４０－５０３号,,28,204,6638201,,,,,,,2024-08-20,1,,,,,エイチアンドエープランニング,0
1235,6180001162956,新規,0,2024-08-20,2024-08-20,株式会社ＶＣ,,株式会社,愛知県,名古屋市中区,錦２丁目７番７号,,23,106,4600003,,,,,,,2024-08-20,1,,,,,ヴイシー,0
1237,6180003027257,新規,0,2024-08-20,2024-08-20,合同会社東銘,,合同会社,愛知県,名古屋市中村区,中村本町３丁目６４－２,,23,105,4530828,,,,,,,2024-08-20,1,,,,,トウメイ,0
1238,6180005020739,新規,0,2024-08-20,2024-08-20,特定非営利活動法人まごころ,,その他の設立登記法人,愛知県,名古屋市中区,丸の内３丁目１９番１号ライオンビル４階,,23,106,4600002,,,,,,,2024-08-20,1,,,,,マゴコロ,0
1242,6190003004775,新規,0,2024-08-20,2024-08-20,合同会社ＣＲＥＲＡ,,合同会社,三重県,鈴鹿市,東旭が丘５丁目２番１３号,,24,207,5100211,,,,,,,2024-08-20,1,,,,,クレラ,0
1243,6200003006472,新規,0,2024-08-20,2024-08-20,合同会社ＡＹＡＮＯ,,合同会社,岐阜県,瑞穂市,穂積９４３番地１,,21,216,5010223,,,,,,,2024-08-20,1,,,,,アヤノ,0
1244,6200005013657,新規,0,2024-08-20,2024-08-20,一般社団法人岐阜県トライアスロン連合,,その他の設立登記法人,岐阜県,各務原市,大野町３丁目２７６番地,,21,213,5040934,,,,,,,2024-08-20,1,,,,,ギフケントライアスロンレンゴウ,0
1252,6260003004867,新規,0,2024-08-20,2024-08-20,合同会社辻本空調研究所,00135999,合同会社,岡山県,岡山市北区,津高３５番地,,33,101,7011152,,,,,,,2024-08-20,1,,,,,,0
1260,6290001106720,新規,0,2024-08-20,2024-08-20,株式会社ＤＥＮＫＵ,,株式会社,福岡県,春日市,上白水５丁目１１・１Ｆ,,40,218,8160844,,,,,,,2024-08-20,1,,,,,デンクウ,0
1261,6290001106737,新規,0,2024-08-20,2024-08-20,株式会社ほすまに,,株式会社,福岡県,福岡市城南区,樋井川４丁目３－１９－Ｂ１０１,,40,136,8140153,,,,,,,2024-08-20,1,,,,,ホスマニ,0
1262,6290001106753,新規,0,2024-08-20,2024-08-20,株式会社ｉｄｓＦｏｏｄｓ,,株式会社,福岡県,福岡市東区,名島３丁目４番１６号井口ビル１階,,40,131,8130043,,,,,,,2024-08-20,1,,,,,アイディーエスフーズ,0
1263,6290001106761,新規,0,2024-08-20,2024-08-20,株式会社ＣＡＲＲＹ,,株式会社,福岡県,福岡市早良区,飯倉６丁目３０番１４号,,40,137,8140161,,,,,,,2024-08-20,1,,,,,キャリー,0
1264,6290001106778,新規,0,2024-08-20,2024-08-20,株式会社ＰＡＬＥＴＴＥ,,株式会社,福岡県,糸島市,波多江駅北３丁目１－１，５０１,,40,230,8191107,,,,,,,2024-08-20,1,,,,,パレット,0
1265,6290001106786,新規,0,2024-08-20,2024-08-20,株式会社ＧＥＢＲＡ,,株式会社,福岡県,福岡市博多区,博多駅前４丁目４番２０号,,40,132,8120011,,,,,,,2024-08-20,1,,,,,ジブラ,0
1266,6290001106794,新規,0,2024-08-20,2024-08-20,豊悠建設株式会社,,株式会社,福岡県,大牟田市,上白川町１丁目８５番地,,40,202,8370926,,,,,,,2024-08-20,1,,,,,ホウユウケンセツ,0
1267,6290001106811,新規,0,2024-08-20,2024-08-20,福岡恒産株式会社,,株式会社,福岡県,福岡市博多区,博多駅東２丁目１７番５号,,40,132,8120013,,,,,,,2024-08-20,1,,,,,フクオカコウサン,0
1268,6290001106844,新規,0,2024-08-20,2024-08-20,株式会社プロラクチン,,株式会社,福岡県,福岡市中央区,大名２丁目１１番１７号ロングアベニュー大名７０５号,,40,133,8100041,,,,,,,2024-08-20,1,,,,,プロラクチン,0
1269,6290001106852,新規,0,2024-08-20,2024-08-20,株式会社陽向,,株式会社,福岡県,福岡市中央区,六本松２丁目９番１６－６１０号,,40,133,8100044,,,,,,,2024-08-20,1,,,,,ヒナタ,0
1273,6290003015663,新規,0,2024-08-20,2024-08-20,ＫＡＥＤＥ　ＢＬＵＥ　ＳＫＹ合同会社,,合同会社,福岡県,福岡市中央区,六本松２丁目１２番８－６０６号,,40,133,8100044,,,,,,,2024-08-20,1,,,,,カエデブルースカイ,0
1276,6300001013873,新規,0,2024-08-20,2024-08-20,株式会社ＣａｓａＣｏｎｃｉｅｒｇｅ,,株式会社,佐賀県,鳥栖市,弥生が丘１丁目３６番地３１,,41,203,8410005,,,,,,,2024-08-20,1,,,,,カーサコンセルジュ,0
1282,6340001026748,新規,0,2024-08-20,2024-08-20,株式会社オサック,,株式会社,鹿児島県,鹿児島市,中山２丁目４７－６,,46,201,8910108,,,,,,,2024-08-20,1,,,,,オサック,0
1295,6370003006729,新規,0,2024-08-20,2024-08-20,合同会社マルケア,,合同会社,宮城県,仙台市若林区,清水小路８番地,,04,103,9840075,,,,,,,2024-08-20,1,,,,,マルケア,0
1296,6390001017718,新規,0,2024-08-20,2024-08-20,株式会社Ｌ３Ｆ,,株式会社,山形県,山形市,やよい１丁目４番２５号,,06,201,9900835,,,,,,,2024-08-20,1,,,,,エルスリーエフ,0
1299,6410005006598,新規,0,2024-08-20,2024-08-20,一般社団法人はこぶね,,その他の設立登記法人,秋田県,大仙市,角間川町字道東２２番地,,05,212,0141413,,,,,,,2024-08-20,1,,,,,ハコブネ,0
1310,6500001025832,新規,0,2024-08-20,2024-08-20,安芸資源株式会社,,株式会社,愛媛県,松山市,桑原１丁目６番１８－２号,,38,201,7900911,,,,,,,2024-08-20,1,,,,,アキシゲン,0
1311,6500005008726,新規,0,2024-08-20,2024-08-20,いよ・ぽけっと労働者協同組合,,その他の設立登記法人,愛媛県,伊予市,湊町２０６,,38,210,7993115,,,,,,,2024-08-20,1,,,,,イヨポケット,0
1312,6700150126790,新規,0,2024-08-20,2024-08-20,ＯＹＡＭＡ　ＭＯＴＯＲＳ,,外国会社等,千葉県,山武市,雨坪１０７番地１－Ｈ,,12,237,2891213,スリランカ民主社会主義共和国、キャンディ、アクラナ、マタレロード、Ｎｏ．２０８／３,,,,,,2024-08-20,1,,,,,オヤマモータース,0
1315,7010001247558,新規,0,2024-08-20,2024-08-20,株式会社ＳＴＯＣＫ１６３,,株式会社,東京都,千代田区,永田町２丁目１２番４号,,13,101,1000014,,,,,,,2024-08-20,1,,,,,ストックヒャクロクジュウサン,0
1316,7010001247640,新規,0,2024-08-20,2024-08-20,有賀化学貿易株式会社,,株式会社,東京都,中央区,日本橋茅場町２丁目１７－６いづみハイツニュー茅場町６０３,,13,102,1030025,,,,,,,2024-08-20,1,,,,,ユウガカガクボウエキ,0
1324,7010003044581,新規,0,2024-08-20,2024-08-20,合同会社アムール,,合同会社,東京都,中央区,銀座１丁目１２番４号Ｎ＆ＥＢＬＤ．６Ｆ,,13,102,1040061,,,,,,,2024-08-20,1,,,,,アムール,0
1326,7010005038680,新規,0,2024-08-20,2024-08-20,岩沼開発特定目的会社,,その他の設立登記法人,東京都,千代田区,丸の内１丁目４番１号東京共同会計事務所内,,13,101,1000005,,,,,,,2024-08-20,1,,,,,イワヌマカイハツ,0
1327,7010005038689,新規,0,2024-08-20,2024-08-20,一般社団法人ＧＬ　ＪＲＥ　Ｅ２,,その他の設立登記法人,東京都,千代田区,永田町２丁目１７番５号,,13,101,1000014,,,,,,,2024-08-20,1,,,,,ジーエルジェーアールイーイーツー,0
1340,7010601065780,新規,0,2024-08-20,2024-08-20,清嘉株式会社,,株式会社,東京都,墨田区,亀沢１丁目２３番１１－２０２号,,13,107,1300014,,,,,,,2024-08-20,1,,,,,セイカ,0
1348,7010901055820,新規,0,2024-08-20,2024-08-20,株式会社オフィス福島,,株式会社,東京都,世田谷区,大蔵１丁目９番１１号,,13,112,1570074,,,,,,,2024-08-20,1,,,,,オフィスフクシマ,0
1355,7011001163902,新規,0,2024-08-20,2024-08-20,株式会社Ｂｒａｖａ,,株式会社,東京都,渋谷区,恵比寿西２丁目８番４号ＥＸ恵比寿西ビル５階,,13,113,1500021,,,,,,,2024-08-20,1,,,,,ブラーバ,0
1356,7011003019763,新規,0,2024-08-20,2024-08-20,ナックエイド合同会社,,合同会社,東京都,目黒区,中根２丁目４番３－２０３号都立大グリーンパーク,,13,110,1520031,,,,,,,2024-08-20,1,,,,,,0
1359,7011101108526,新規,0,2024-08-20,2024-08-20,株式会社ｐｒｅｃｉｓｉｏｎ,,株式会社,東京都,新宿区,神楽坂３丁目６番地５３とぎやレジデンス２Ｆ,,13,104,1620825,,,,,,,2024-08-20,1,,,,,プレシジョン,0
1363,7011703003942,新規,0,2024-08-20,2024-08-20,合同会社ユニバース,,合同会社,東京都,江戸川区,西葛西５丁目５－１６ツボイビル１Ｆ,,13,123,1340088,,,,,,,2024-08-20,1,,,,,ユニバース,0
1365,7011801044707,新規,0,2024-08-20,2024-08-20,みのり里株式会社,,株式会社,東京都,足立区,梅島２丁目１０番５号,,13,121,1210816,,,,,,,2024-08-20,1,,,,,ミノリサト,0
1366,7011803006408,新規,0,2024-08-20,2024-08-20,エベレスト・富士合同会社,,合同会社,東京都,足立区,皿沼２丁目１４番７号,,13,121,1230862,,,,,,,2024-08-20,1,,,,,エベレストフジ,0
1367,7012301014051,新規,0,2024-08-20,2024-08-20,株式会社ｉｓＬａｎｄ　Ｍｅｄｉａ,,株式会社,東京都,町田市,金井ヶ丘２丁目３７番１４号,,13,209,1950076,,,,,,,2024-08-20,1,,,,,アイランドメディア,0
1369,7012303002038,新規,0,2024-08-20,2024-08-20,合同会社ＳＨＡＭ,,合同会社,東京都,町田市,森野３丁目１８番１号パステルもりのＡ号,,13,209,1940022,,,,,,,2024-08-20,1,,,,,シャム,0
1373,7012401042209,新規,0,2024-08-20,2024-08-20,株式会社フォトクレスト,,株式会社,東京都,武蔵野市,関前３丁目４１番１３号,,13,203,1800014,,,,,,,2024-08-20,1,,,,,フォトクレスト,0
1374,7012701018412,新規,0,2024-08-20,2024-08-20,株式会社プルアップ,,株式会社,東京都,西東京市,富士町３丁目４番１５号クレスト１０１号,,13,229,2020014,,,,,,,2024-08-20,1,,,,,プルアップ,0
1384,7021003014920,新規,0,2024-08-20,2024-08-20,合同会社藤進会,,合同会社,神奈川県,藤沢市,石川１丁目３２－１シャンベール湘南１Ｆ,,14,205,2520815,,,,,,,2024-08-20,1,,,,,トウシンカイ,0
1388,7030001161996,新規,0,2024-08-20,2024-08-20,株式会社ＳｐａｒｋｓＷａｙ,,株式会社,埼玉県,春日部市,西金野井５２１番地５,,11,214,3440112,,,,,,,2024-08-20,1,,,,,スパークスウェイ,0
1389,7030001162061,新規,0,2024-08-20,2024-08-20,大月電設株式会社,,株式会社,埼玉県,川口市,大字木曽呂６９０番地の１４,,11,203,3330831,,,,,,,2024-08-20,1,,,,,オオツキデンセツ,0
1397,7040001134968,新規,0,2024-08-20,2024-08-20,株式会社ＧＲＥＡＴ　ＳＰＯＴ,,株式会社,千葉県,柏市,東上町七丁目１３番地２Ｆ,,12,217,2770011,,,,,,,2024-08-20,1,,,,,グレートスポット,0
1398,7040001134992,新規,0,2024-08-20,2024-08-20,株式会社トウシン測量設計,,株式会社,千葉県,匝瑳市,椿１２６９番地１１,,12,235,2892102,,,,,,,2024-08-20,1,,,,,トウシンソクリョウセッケイ,0
1399,7040001135017,新規,0,2024-08-20,2024-08-20,株式会社立合,,株式会社,千葉県,富里市,七栄６４６番地１１８６,,12,233,2860221,,,,,,,2024-08-20,1,,,,,リツゴウ,0
1401,7040003025595,新規,0,2024-08-20,2024-08-20,駒井野商事合同会社,,合同会社,千葉県,佐倉市,井野１５３２番地,,12,212,2850855,,,,,,,2024-08-20,1,,,,,コマイノショウジ,0
1402,7040003025629,新規,0,2024-08-20,2024-08-20,合同会社ＮＲＴ　ｃａｐｉｔａｌ,,合同会社,千葉県,山武郡芝山町,岩山１２６４番地１,,12,409,2891608,,,,,,,2024-08-20,1,,,,,エヌアールティキャピタル,0
1404,7040005022467,新規,0,2024-08-20,2024-08-20,農事組合法人Ａ農園,,その他の設立登記法人,千葉県,旭市,米込１３０５番地３,,12,215,2890516,,,,,,,2024-08-20,1,,,,,,0
1406,7060005010239,新規,0,2024-08-20,2024-08-20,中央社会保険労務士法人,,その他の設立登記法人,栃木県,栃木市,大宮町２１３６番地９,,09,203,3280011,,,,,,,2024-08-20,1,,,,,チュウオウ,0
1408,7070003005553,新規,0,2024-08-20,2024-08-20,合同会社ＰｌｕｍＲｉｖｅｒ,,合同会社,群馬県,邑楽郡大泉町,大字寄木戸１３４８番地の１０,,10,524,3700535,,,,,,,2024-08-20,1,,,,,プラムリバー,0
1421,7090001018869,新規,0,2024-08-20,2024-08-20,株式会社テンケイ,,株式会社,山梨県,大月市,笹子町白野８４３－１,,19,206,4010023,,,,,,,2024-08-20,1,,,,,テンケイ,0
1431,7120001267792,新規,0,2024-08-20,2024-08-20,株式会社スカイプロパティ,,株式会社,大阪府,大阪市都島区,高倉町１丁目１４番２７－１０２号,,27,102,5340011,,,,,,,2024-08-20,1,,,,,スカイプロパティ,0
1432,7120001267900,新規,0,2024-08-20,2024-08-20,太陽株式会社,,株式会社,大阪府,大阪市東淀川区,下新庄２丁目８番１６－４０４号,,27,114,5330021,,,,,,,2024-08-20,1,,,,,タイヨウ,0
1433,7120001267909,新規,0,2024-08-20,2024-08-20,富達株式会社,,株式会社,大阪府,大阪市中央区,北久宝寺町１丁目５番６号堺筋アーバンライフ７１２号室,,27,128,5410057,,,,,,,2024-08-20,1,,,,,フウタツ,0
1434,7120001267917,新規,0,2024-08-20,2024-08-20,株式会社ｇｒｅｇｉｓ,,株式会社,大阪府,大阪市中央区,南船場４丁目１０番２１号,,27,128,5420081,,,,,,,2024-08-20,1,,,,,グリージス,0
1439,7122001038380,新規,0,2024-08-20,2024-08-20,ＥＮＷＡ株式会社,,株式会社,大阪府,八尾市,清水町２丁目１番２４号,,27,212,5810006,,,,,,,2024-08-20,1,,,,,エンワ,0
1440,7130001077745,新規,0,2024-08-20,2024-08-20,トライウインド株式会社,,株式会社,京都府,京都市中京区,一蓮社町３００パームビル３階,,26,104,6048146,,,,,,,2024-08-20,1,,,,,トライウインド,0
1441,7130001077761,新規,0,2024-08-20,2024-08-20,株式会社ウエダマッハソリューション,,株式会社,京都府,長岡京市,奥海印寺新郷２－１,,26,209,6170853,,,,,,,2024-08-20,1,,,,,ウエダマッハソリューション,0
1443,7130003009795,新規,0,2024-08-20,2024-08-20,合同会社ＹＯＮＧ　ＨＵＴ,,合同会社,京都府,京都市左京区,浄土寺下南田町９,,26,103,6068404,,,,,,,2024-08-20,1,,,,,ヨンハト,0
1456,7180001162930,新規,0,2024-08-20,2024-08-20,株式会社リフィックス,,株式会社,愛知県,名古屋市東区,芳野３丁目２番２６号ヴィークタワー東白壁４０５号,,23,102,4610027,,,,,,,2024-08-20,1,,,,,リフィックス,0
1460,7180005020738,新規,0,2024-08-20,2024-08-20,一般社団法人Ｈｏｐｅ２Ｕ,,その他の設立登記法人,愛知県,知多市,八幡字新道５９番地の５０２（クレール巽Ｂ－１０２）,,23,224,4780001,,,,,,,2024-08-20,1,,,,,ホープトゥーユー,0
1461,7180301038970,新規,0,2024-08-20,2024-08-20,株式会社あはと,,株式会社,愛知県,岡崎市,竜美台２丁目５番地６,,23,202,4440873,,,,,,,2024-08-20,1,,,,,アハト,0
1462,7180301038979,新規,0,2024-08-20,2024-08-20,株式会社きずなホールディングス,,株式会社,愛知県,岡崎市,洞町字東前田２４番地,,23,202,4440008,,,,,,,2024-08-20,1,,,,,キズナホールディングス,0
1467,7200003006471,新規,0,2024-08-20,2024-08-20,合同会社ジル＆ラル,,合同会社,岐阜県,各務原市,那加北洞町２丁目８７番地,,21,213,5040011,,,,,,,2024-08-20,1,,,,,ジルアンドラル,0
1469,7210001019887,新規,0,2024-08-20,2024-08-20,Ｇｏｏｄ　ｂｒｅｗ株式会社,,株式会社,福井県,福井市,光陽１丁目１１－７ソラーナ光陽２０９号室,,18,201,9100026,,,,,,,2024-08-20,1,,,,,グッドブリュー,0
1489,7290001106736,新規,0,2024-08-20,2024-08-20,株式会社クリーンライフサポート,,株式会社,福岡県,糟屋郡粕屋町,戸原東１丁目８番１－４１０号,,40,349,8112318,,,,,,,2024-08-20,1,,,,,,0
1490,7290001106793,新規,0,2024-08-20,2024-08-20,株式会社Ａｔｏｍｉｃ　Ｈｅａｒｔ,,株式会社,福岡県,福岡市東区,香椎駅前１丁目１３番７号,,40,131,8130013,,,,,,,2024-08-20,1,,,,,アトミックハート,0
1491,7290001106802,新規,0,2024-08-20,2024-08-20,株式会社ＮＥＸＴモビィ,,株式会社,福岡県,糟屋郡新宮町,美咲１丁目５番２号,,40,345,8110121,,,,,,,2024-08-20,1,,,,,ネクストモビィ,0
1492,7290001106819,新規,0,2024-08-20,2024-08-20,株式会社ＤＳホールディングス,,株式会社,福岡県,福岡市中央区,警固２丁目１８番５号,,40,133,8100023,,,,,,,2024-08-20,1,,,,,ディエスホールディングス,0
1493,7290001106827,新規,0,2024-08-20,2024-08-20,株式会社アステリア,,株式会社,福岡県,福岡市南区,屋形原４丁目１８番２８－１０１号,,40,134,8111351,,,,,,,2024-08-20,1,,,,,アステリア,0
1494,7290003015654,新規,0,2024-08-20,2024-08-20,谷茘文化合同会社,00136000,合同会社,福岡県,福岡市中央区,警固１丁目４番１１号,,40,133,8100023,,,,,,,2024-08-20,1,,,,,コクリブンカ,0
1495,7290003015662,新規,0,2024-08-20,2024-08-20,ジー・スピリット合同会社,,合同会社,福岡県,那珂川市,中原２丁目７那珂川レジデンス６０４号,,40,231,8111213,,,,,,,2024-08-20,1,,,,,ジースピリット,0
1496,7290003015670,新規,0,2024-08-20,2024-08-20,合同会社ＡＬＴＵＭ,,合同会社,福岡県,福岡市中央区,春吉２丁目９番２５－１２０３号ラ・レジダンス・ド・レーヌ,,40,133,8100003,,,,,,,2024-08-20,1,,,,,アルトゥム,0
1498,7300001013880,新規,0,2024-08-20,2024-08-20,株式会社４１７,,株式会社,佐賀県,唐津市,栄町２５８５番地１,,41,202,8470011,,,,,,,2024-08-20,1,,,,,シイナ,0
1503,7350001019147,新規,0,2024-08-20,2024-08-20,株式会社わがや,,株式会社,宮崎県,宮崎市,佐土原町下那珂７９１番地５,,45,201,8800212,,,,,,,2024-08-20,1,,,,,ワガヤ,0
1515,7380001034738,新規,0,2024-08-20,2024-08-20,しのぶ山テラス株式会社,,株式会社,福島県,福島市,森合字西向山１０番地の３,,07,201,9608003,,,,,,,2024-08-20,1,,,,,シノブヤマテラス,0
1518,7390001017717,新規,0,2024-08-20,2024-08-20,株式会社ＭＩＵ,,株式会社,山形県,山形市,円応寺町１６番６号,,06,201,9900052,,,,,,,2024-08-20,1,,,,,ミウ,0
1535,7700150126740,新規,0,2024-08-20,2024-08-15,宇都宮市グリーン農業推進協議会,,その他,栃木県,宇都宮市,旭１丁目１－５農業企画課内,,09,201,3200818,,,,,,,2024-08-15,1,,,,,ウツノミヤシグリーンノウギヨウスイシンキヨウギカイ,0
1536,7700150126798,新規,0,2024-08-20,2024-08-20,亡比嘉信保相続財産法人,,その他,沖縄県,沖縄市,安慶田４丁目１０番３号新垣病院,,47,211,9040012,,,,,,,2024-08-20,1,,,,,ボウヒガシンポウソウゾクザイサンホウジン,0
1544,8010001247367,新規,0,2024-08-20,2024-08-20,株式会社ブルーラボラトリー,,株式会社,東京都,千代田区,神田小川町２丁目４－１４,,13,101,1010052,,,,,,,2024-08-20,1,,,,,ブルーラボラトリー,0
1545,8010001247557,新規,0,2024-08-20,2024-08-20,株式会社ＳＴＯＣＫ１６２,,株式会社,東京都,千代田区,永田町２丁目１２番４号,,13,101,1000014,,,,,,,2024-08-20,1,,,,,ストックヒャクロクジュウニ,0
1546,8010001247565,新規,0,2024-08-20,2024-08-20,株式会社ＳＴＯＣＫ１７０,,株式会社,東京都,千代田区,永田町２丁目１２番４号,,13,101,1000014,,,,,,,2024-08-20,1,,,,,ストックヒャクナナジュウ,0
1551,8010003044498,新規,0,2024-08-20,2024-08-20,ウェルネスソリューションズ合同会社,,合同会社,東京都,中央区,日本橋人形町２丁目３２番５－８０２号,,13,102,1030013,,,,,,,2024-08-20,1,,,,,ウェルネスソリューションズ,0
1552,8010003044614,新規,0,2024-08-20,2024-08-20,合同会社ウェルネス・ヴィンテージ,,合同会社,東京都,中央区,銀座１丁目１２番４号Ｎ＆ＥＢＬＤ．６Ｆ,,13,102,1040061,,,,,,,2024-08-20,1,,,,,ウェルネスヴィンテージ,0
1553,8010003044639,新規,0,2024-08-20,2024-08-20,ＥｄｇｅＣｏｎｎｅＸ　Ｊａｐａｎ３合同会社,,合同会社,東京都,千代田区,霞が関３丁目２番６号東京倶楽部ビルディング１１階,,13,101,1000013,,,,,,,2024-08-20,1,,,,,エッジコネックスジャパンスリー,0
1554,8010003044663,新規,0,2024-08-20,2024-08-20,合同会社山吹信用サービス,,合同会社,東京都,千代田区,丸の内１丁目４番１号東京共同会計事務所内,,13,101,1000005,,,,,,,2024-08-20,1,,,,,ヤマブキシンヨウサービス,0
1558,8010005038688,新規,0,2024-08-20,2024-08-20,一般社団法人ＧＬ　ＪＲＥ　Ｅ,,その他の設立登記法人,東京都,千代田区,永田町２丁目１７番５号,,13,101,1000014,,,,,,,2024-08-20,1,,,,,ジーエルジェーアールイーイー,0
1560,8010405023463,新規,0,2024-08-20,2024-08-20,一般社団法人日本ドローンショー協会,,その他の設立登記法人,東京都,港区,虎ノ門５丁目９番１号麻布台ヒルズガーデンプラザＢ,,13,103,1050001,,,,,,,2024-08-20,1,,,,,ニホンドローンショーキョウカイ,0
1563,8010603011039,新規,0,2024-08-20,2024-08-20,月出コンサルティング合同会社,,合同会社,東京都,墨田区,東向島１丁目１５番１１号,,13,107,1310032,,,,,,,2024-08-20,1,,,,,ツキデコンサルティング,0
1565,8010703007300,新規,0,2024-08-20,2024-08-20,合同会社ＭＳ・Ｋ,,合同会社,東京都,品川区,東大井５丁目２５番９－６０１号,,13,109,1400011,,,,,,,2024-08-20,1,,,,,エムエスケイ,0
1567,8010801035335,新規,0,2024-08-20,2024-08-20,株式会社センターピン,,株式会社,東京都,大田区,北千束３丁目３４－２－５０２,,13,111,1450062,,,,,,,2024-08-20,1,,,,,センターピン,0
1571,8010905004657,新規,0,2024-08-20,2024-08-20,一般社団法人Ｆｏｒｔｈ,,その他の設立登記法人,東京都,世田谷区,上祖師谷６丁目１０番１７－１０２号,,13,112,1570065,,,,,,,2024-08-20,1,,,,,フォース,0
1577,8011003019787,新規,0,2024-08-20,2024-08-20,ＢｙＩＴホールディングス合同会社,,合同会社,東京都,渋谷区,道玄坂１丁目１０番８号渋谷道玄坂東急ビル２Ｆ－Ｃ,,13,113,1500043,,,,,,,2024-08-20,1,,,,,バイトホールディングス,0
1578,8011003019812,新規,0,2024-08-20,2024-08-20,合同会社ライズ,,合同会社,東京都,渋谷区,恵比寿３丁目３７－７ウィンベル広尾２０２号室,,13,113,1500013,,,,,,,2024-08-20,1,,,,,ライズ,0
1587,8011303005264,新規,0,2024-08-20,2024-08-20,合同会社ヒューマンリソース,,合同会社,東京都,杉並区,阿佐谷北１丁目１１番９号エリカハイム２０１,,13,115,1660001,,,,,,,2024-08-20,1,,,,,,0
1596,8012701018411,新規,0,2024-08-20,2024-08-20,ＹＳＲ株式会社,,株式会社,東京都,小平市,天神町２丁目２７番５号,,13,211,1870004,,,,,,,2024-08-20,1,,,,,ワイエスアール,0
1599,8013301052981,新規,0,2024-08-20,2024-08-20,株式会社草下エンタープライズ,,株式会社,東京都,豊島区,東池袋１丁目１８番１号ＨａｒｅｚａＴｏｗｅｒ２０Ｆ,,13,116,1700013,,,,,,,2024-08-20,1,,,,,クサカエンタープライズ,0
1605,8020001158497,新規,0,2024-08-20,2024-08-20,株式会社ウィズらぼ,,株式会社,神奈川県,横浜市青葉区,美しが丘西３丁目２番地１８,,14,117,2250001,,,,,,,2024-08-20,1,,,,,ウィズラボ,0
1608,8021003014878,新規,0,2024-08-20,2024-08-20,合同会社ＢＡＬＯＣＨ　ＴＲＡＤＩＮＧ,,合同会社,神奈川県,座間市,座間１丁目３１８７番地の３宝アパート３号,,14,216,2520027,,,,,,,2024-08-20,1,,,,,バローチトレーディング,0
1620,8040001134967,新規,0,2024-08-20,2024-08-20,Ｍティース株式会社,,株式会社,千葉県,旭市,ニの３２７２番地１,,12,215,2892504,,,,,,,2024-08-20,1,,,,,エムティース,0
1621,8040001134991,新規,0,2024-08-20,2024-08-20,株式会社Ｌ＆Ｆ,,株式会社,千葉県,船橋市,習志野台３丁目１８－６－１０１,,12,204,2740063,,,,,,,2024-08-20,1,,,,,ラフ,0
1623,8040003025611,新規,0,2024-08-20,2024-08-20,合同会社コネクト,,合同会社,千葉県,鎌ケ谷市,道野辺中央３丁目４番４６号,,12,224,2730113,,,,,,,2024-08-20,1,,,,,コネクト,0
1624,8040003025628,新規,0,2024-08-20,2024-08-20,合同会社ｒｈｙｔｈｍａｐ,,合同会社,千葉県,柏市,西原５丁目３番１９号,,12,217,2770885,,,,,,,2024-08-20,1,,,,,リズマップ,0
1625,8040003025636,新規,0,2024-08-20,2024-08-20,合同会社心,,合同会社,千葉県,市川市,二俣１丁目１番１２－２０２号（サンプラザ市川第２）,,12,203,2720001,,,,,,,2024-08-20,1,,,,,シン,0
1626,8050001055254,新規,0,2024-08-20,2024-08-20,株式会社イサカファーム,,株式会社,茨城県,小美玉市,柴高５８４番地,,08,236,3190103,,,,,,,2024-08-20,1,,,,,イサカファーム,0
1627,8050001055262,新規,0,2024-08-20,2024-08-20,株式会社イールーム,,株式会社,茨城県,土浦市,桜ケ丘町１３番５号,,08,203,3000832,,,,,,,2024-08-20,1,,,,,イールーム,0
1631,8080103003125,新規,0,2024-08-20,2024-08-20,琴棋書画合同会社,,合同会社,静岡県,沼津市,下香貫馬場４９６番地の１,,22,203,4100822,,,,,,,2024-08-20,1,,,,,キンキショガ,0
1632,8080401027370,新規,0,2024-08-20,2024-08-20,リボンド株式会社,,株式会社,静岡県,浜松市浜名区,三ヶ日町大崎６７１番地の１,,22,139,4311403,,,,,,,2024-08-20,1,,,,,リボンド,0
1638,8090003002622,新規,0,2024-08-20,2024-08-20,合同会社小島堂,,合同会社,山梨県,甲府市,北口１丁目２番１４号甲府北口プラザビル地下１階,,19,201,4000024,,,,,,,2024-08-20,1,,,,,コジマドウ,0
1642,8100001037759,新規,0,2024-08-20,2024-08-20,丹眼映像株式会社,,株式会社,長野県,大町市,常盤４３５９番３,,20,212,3980004,,,,,,,2024-08-20,1,,,,,タンガンエイゾウ,0
1644,8100005013211,新規,0,2024-08-20,2024-08-20,一般社団法人ひつぐまる,,その他の設立登記法人,長野県,伊那市,西箕輪７２００番地２７産学官連携拠点施設ｉｎａｄａｎｉ　ｓｅｅｓシェアオフィス,,20,209,3994501,,,,,,,2024-08-20,1,,,,,ヒツグマル,0
1645,8110001038657,新規,0,2024-08-20,2024-08-20,株式会社エムアセットマネージメント,,株式会社,新潟県,三条市,元町９－３４,,15,204,9550072,,,,,,,2024-08-20,1,,,,,エムアセットマネージメント,0
1655,8120001267899,新規,0,2024-08-20,2024-08-20,株式会社カラーズキャリア,,株式会社,大阪府,大阪市城東区,野江３丁目２５番３号,,27,118,5360006,,,,,,,2024-08-20,1,,,,,カラーズキャリア,0
1656,8120001267908,新規,0,2024-08-20,2024-08-20,秀吉ＨＲソリューションズ株式会社,,株式会社,大阪府,大阪市中央区,南船場３丁目２番２２号おおきに南船場ビル２０５,,27,128,5420081,,,,,,,2024-08-20,1,,,,,ヒデヨシエイチアールソリューションズ,0
1657,8120001267916,新規,0,2024-08-20,2024-08-20,ラニカイ・アネラ株式会社,,株式会社,大阪府,寝屋川市,石津南町８番３９号,,27,215,5720024,,,,,,,2024-08-20,1,,,,,ラニカイアネラ,0
1658,8120001267932,新規,0,2024-08-20,2024-08-20,シンプルライフ株式会社,,株式会社,大阪府,大阪市西淀川区,野里１丁目３１番７号ダイアパレス塚本２番館５０８号室,,27,113,5550024,,,,,,,2024-08-20,1,,,,,シンプルライフ,0
1659,8120003027335,新規,0,2024-08-20,2024-08-20,合同会社Ａ‐Ｎｅｘｔ,,合同会社,大阪府,大阪市北区,梅田１丁目２番２号大阪駅前第２ビル１２－１２,,27,127,5300001,,,,,,,2024-08-20,1,,,,,エーネクスト,0
1660,8120003027343,新規,0,2024-08-20,2024-08-20,良美合同会社,,合同会社,大阪府,大阪市東住吉区,中野４丁目１番１６号リベラルオリエンテ中野２０２,,27,121,5460012,,,,,,,2024-08-20,1,,,,,リョウビ,0
1663,8120005024504,新規,0,2024-08-20,2024-08-20,税理士法人Ｃｌｏｓｅｒ,,その他の設立登記法人,大阪府,大阪市鶴見区,鶴見４丁目１－２ソーレブリアンテ今福鶴見２０７,,27,124,5380053,,,,,,,2024-08-20,1,,,,,クローサー,0
1671,8140001135567,新規,0,2024-08-20,2024-08-20,株式会社ＬＩＢＥＲＯ　ＣＯＲＰＯＲＡＴＩＯＮ,,株式会社,兵庫県,神戸市須磨区,南町３丁目３番２号１Ｆ,,28,107,6540036,,,,,,,2024-08-20,1,,,,,リベロコーポレーション,0
1674,8140003020973,新規,0,2024-08-20,2024-08-20,ＯＫＵ不動産合同会社,,合同会社,兵庫県,洲本市,桑間３６３－１０サンハイツ２０１,,28,205,6560014,,,,,,,2024-08-20,1,,,,,オクフドウサン,0
1679,8160005011333,新規,0,2024-08-20,2024-08-20,特定非営利活動法人ことりの,,その他の設立登記法人,滋賀県,湖南市,石部南６丁目１番２５号,,25,211,5203108,,,,,,,2024-08-20,1,,,,,,0
1699,8190003004773,新規,0,2024-08-20,2024-08-20,合同会社Ｓｅｅｋ,,合同会社,三重県,亀山市,川合町１６番地１３,,24,210,5190103,,,,,,,2024-08-20,1,,,,,シーク,0
1702,8230001020495,新規,0,2024-08-20,2024-08-20,株式会社ｉＲｏｈａ,,株式会社,富山県,富山市,山室荒屋新町１０５番地,,16,201,9398026,,,,,,,2024-08-20,1,,,,,イロハ,0
1709,8250001020782,新規,0,2024-08-20,2024-08-20,株式会社ヒューマンライフマネジメント,,株式会社,山口県,熊毛郡田布施町,大字下田布施６８３番地４,,35,343,7421511,,,,,,,2024-08-20,1,,,,,ヒューマンライフマネジメント,0
1713,8260005011389,新規,0,2024-08-20,2024-08-20,一般社団法人日本医療維新コンサルタント協会,,その他の設立登記法人,岡山県,岡山市北区,学南町３丁目８番１３号,,33,101,7000011,,,,,,,2024-08-20,1,,,,,ニホンイリョウイシンコンサルタントキョウカイ,0
1714,8280001009237,新規,0,2024-08-20,2024-08-20,株式会社藤アルゴ,,株式会社,島根県,出雲市,斐川町黒目１４９１番地５,,32,203,6990553,,,,,,,2024-08-20,1,,,,,フジアルゴ,0
1719,8290001106719,新規,0,2024-08-20,2024-08-20,株式会社サンライズカンパニー,,株式会社,福岡県,久留米市,上津町２２２８番地９７６,,40,203,8300052,,,,,,,2024-08-20,1,,,,,サンライズカンパニー,0
1720,8290001106735,新規,0,2024-08-20,2024-08-20,株式会社ＬＧＨ,,株式会社,福岡県,福岡市中央区,白金２丁目１番１６号ハーベスト白金５階,,40,133,8100012,,,,,,,2024-08-20,1,,,,,エルジーエイチ,0
1721,8290001106743,新規,0,2024-08-20,2024-08-20,株式会社カピリナ,,株式会社,福岡県,太宰府市,都府楼南２丁目１６番４１－１０７号,,40,221,8180105,,,,,,,2024-08-20,1,,,,,カピリナ,0
1722,8290001106776,新規,0,2024-08-20,2024-08-20,株式会社ＩＭＯ‐Ｘ,,株式会社,福岡県,福岡市中央区,白金１丁目１１番７号,,40,133,8100012,,,,,,,2024-08-20,1,,,,,イモエックス,0
1723,8290001106792,新規,0,2024-08-20,2024-08-20,株式会社西部技術ホールディングス,,株式会社,福岡県,福岡市博多区,博多駅南４丁目１８番１２号,,40,132,8120016,,,,,,,2024-08-20,1,,,,,セイブギジュツホールディングス,0
1724,8290001106842,新規,0,2024-08-20,2024-08-20,株式会社黒田ホールディングス,,株式会社,福岡県,糟屋郡須惠町,大字植木２０４７番地の７３,,40,344,8112112,,,,,,,2024-08-20,1,,,,,クロダホールディングス,0
1725,8290003015645,新規,0,2024-08-20,2024-08-20,ボルナット合同会社,,合同会社,福岡県,大川市,大字小保６９１番地１,,40,212,8310041,,,,,,,2024-08-20,1,,,,,ボルナット,0
1726,8290003015653,新規,0,2024-08-20,2024-08-20,合同会社おにく,,合同会社,福岡県,筑紫野市,上古賀１丁目９番２号（ＲｕｉｓＦＡＶｅＬａ１０７号）,,40,217,8180041,,,,,,,2024-08-20,1,,,,,オニク,0
1727,8290005019454,新規,0,2024-08-20,2024-08-20,一般社団法人九州シニアサポートラボ,,その他の設立登記法人,福岡県,福岡市中央区,春吉３丁目１４番７号,,40,133,8100003,,,,,,,2024-08-20,1,,,,,キュウシュウシニアサポートラボ,0
1742,8360003014243,新規,0,2024-08-20,2024-08-20,テトラ合同会社,,合同会社,沖縄県,浦添市,当山２丁目３１番１７号,,47,208,9012104,,,,,,,2024-08-20,1,,,,,テトラ,0
1744,8370003006727,新規,0,2024-08-20,2024-08-20,フロムイーストジャパン合同会社,,合同会社,宮城県,仙台市青葉区,旭ケ丘１丁目２８－１,,04,101,9810904,,,,,,,2024-08-20,1,,,,,フロムイーストジャパン,0
1756,8430005015050,新規,0,2024-08-20,2024-08-20,一般社団法人バラカ,,その他の設立登記法人,北海道,札幌市東区,中沼西三条２丁目６番７号,,01,103,0070893,,,,,,,2024-08-20,1,,,,,バラカ,0
1765,8700150126789,新規,0,2024-08-20,2024-08-20,ＭＡＡＬＩＫ　ＬＡＮＫＡ　ＭＯＴＯＲＳ　ＰＲＩＶＡＴＥ　ＬＩＭＩＴＥＤ,,外国会社等,神奈川県,藤沢市,葛原１４０－１９,,14,205,2520822,スリランカ民主社会主義共和国、アナマヅワ、アンヂガマ、マダワクラマ、メインスチート、ＮＯ．１００／Ａ,,,,,,2024-08-20,1,,,,,マアリクランカモータースプライベツトリミテツド,0
1766,8700150126797,新規,0,2024-08-20,2024-08-20,ｓｈｅｎｚｈｅｎｚｈｅｎｈｕｏｋｅｊｉｙｏｕｘｉａｎｇｏｎｇｓｉ,,外国会社等,,,,,,,,ｌｏｎｇｈｕａｑｕｄａｌａｎｇｊｉｅｄａｏｔａｏｙｕａｎｓｈｅｑｕ　ｎａｎｋｅｃｈｕａｎｇｙｕａｎｇｕ　２ｄｏｎｇ　２０４　ｓｈｅｎｚｈｅｎ　ＣＮ,,,,,,2024-08-20,1,,,,,シンセンゼンホウカギユウゲンコウシ,0
1781,9010001247556,新規,0,2024-08-20,2024-08-20,株式会社ＳＴＯＣＫ１６１,,株式会社,東京都,千代田区,永田町２丁目１２番４号,,13,101,1000014,,,,,,,2024-08-20,1,,,,,ストックヒャクロクジュウイチ,0
1782,9010001247564,新規,0,2024-08-20,2024-08-20,株式会社ＳＴＯＣＫ１６９,,株式会社,東京都,千代田区,永田町２丁目１２番４号,,13,101,1000014,,,,,,,2024-08-20,1,,,,,ストックヒャクロクジュウキュウ,0
1783,9010001247622,新規,0,2024-08-20,2024-08-20,株式会社りんりん堂,,株式会社,東京都,中央区,銀座６丁目３番１５号長谷第二ビル,,13,102,1040061,,,,,,,2024-08-20,1,,,,,リンリンドウ,0
1785,9010005038679,新規,0,2024-08-20,2024-08-20,柏開発一般社団法人,,その他の設立登記法人,東京都,千代田区,丸の内１丁目４番１号東京共同会計事務所内,,13,101,1000005,,,,,,,2024-08-20,1,,,,,カシワカイハツ,0
1792,9010401184564,新規,0,2024-08-20,2024-08-20,ビッグフォレスト株式会社,,株式会社,東京都,港区,愛宕１丁目１番１－３３０８号,,13,103,1050002,,,,,,,2024-08-20,1,,,,,ビッグフォレスト,0
1793,9010403033125,新規,0,2024-08-20,2024-08-20,合同会社ＡＹＡＮＡ,,合同会社,東京都,港区,南青山２丁目２番１５号,,13,103,1070062,,,,,,,2024-08-20,1,,,,,アヤナ,0
1798,9010405023462,新規,0,2024-08-20,2024-08-20,一般社団法人ＤＩＧＩＴＡＬ　ＢＡＳＥ,,その他の設立登記法人,東京都,港区,南青山１丁目１－１新青山ビル東館１５階,,13,103,1070062,,,,,,,2024-08-20,1,,,,,デジタルベース,0
1801,9010601065779,新規,0,2024-08-20,2024-08-20,ＴＡＫＥ　Ａ株式会社,,株式会社,東京都,墨田区,錦糸１丁目２―１アルカセントラル１４Ｆ,,13,107,1300013,,,,,,,2024-08-20,1,,,,,テイクエー,0
1803,9010701046431,新規,0,2024-08-20,2024-08-20,株式会社ニューゲート,,株式会社,東京都,品川区,西五反田２丁目１４番１１号Ｚｅｋｏレジデンス１階,,13,109,1410031,,,,,,,2024-08-20,1,,,,,ニューゲート,0
1804,9010901055777,新規,0,2024-08-20,2024-08-20,株式会社イシマルフーズ,,株式会社,東京都,世田谷区,太子堂５丁目１５番２号メゾンサカエ１０１,,13,112,1540004,,,,,,,2024-08-20,1,,,,,イシマルフーズ,0
1805,9010901055819,新規,0,2024-08-20,2024-08-20,株式会社ＦＴＯ,,株式会社,東京都,世田谷区,三軒茶屋２丁目４３番１０号,,13,112,1540024,,,,,,,2024-08-20,1,,,,,エフティーオー,0
1824,9011101108417,新規,0,2024-08-20,2024-08-20,株式会社ＣｅｇｌａＴｅｃｈ,,株式会社,東京都,新宿区,西新宿３丁目３番１３号西新宿水間ビル６階,,13,104,1600023,,,,,,,2024-08-20,1,,,,,セグラテック,0
1825,9011101108524,新規,0,2024-08-20,2024-08-20,株式会社クリアアップカンパニー,,株式会社,東京都,新宿区,西新宿６丁目５番１号新宿アイランドタワー２階,,13,104,1600023,,,,,,,2024-08-20,1,,,,,クリアアップカンパニー,0
1827,9011303005263,新規,0,2024-08-20,2024-08-20,合同会社ＪＩＪＯ,,合同会社,東京都,杉並区,成田東４丁目３０番４号,,13,115,1660015,,,,,,,2024-08-20,1,,,,,ジジョ,0
1829,9011401026368,新規,0,2024-08-20,2024-08-20,Ｌｕｍｉｎｏｕｓ　Ａｒｔ株式会社,,株式会社,東京都,板橋区,板橋２丁目６３－４グローリア初穂板橋５０１ＥａｓｙＯｆｆｉｃｅ,,13,119,1730004,,,,,,,2024-08-20,1,,,,,ルミナスアート,0
1831,9011501031029,新規,0,2024-08-20,2024-08-20,麦吉恩株式会社,,株式会社,東京都,荒川区,町屋３丁目１８番１２号ＮＤビル２２０,,13,118,1160001,,,,,,,2024-08-20,1,,,,,バクキチオン,0
1832,9011803006397,新規,0,2024-08-20,2024-08-20,雲辰匯合同会社,,合同会社,東京都,葛飾区,亀有３丁目２７番２０－１０１Ａ,,13,122,1250061,,,,,,,2024-08-20,1,,,,,ウンシンワイ,0
1835,9012401042198,新規,0,2024-08-20,2024-08-20,株式会社リビラ,,株式会社,東京都,調布市,緑ケ丘１丁目３６番地５９,,13,208,1820001,,,,,,,2024-08-20,1,,,,,リビラ,0
1838,9012701018410,新規,0,2024-08-20,2024-08-20,株式会社クラール,,株式会社,東京都,小平市,天神町２丁目２７番５号,,13,211,1870004,,,,,,,2024-08-20,1,,,,,クラール,0
1844,9020001158422,新規,0,2024-08-20,2024-08-20,株式会社ｆｒｏｍ　Ｃｒｅａｔｉｏｎ,,株式会社,神奈川県,川崎市高津区,溝口１丁目２２－２６,,14,134,2130001,,,,,,,2024-08-20,1,,,,,フロムクリエイション,0
1845,9020001158505,新規,0,2024-08-20,2024-08-20,株式会社ＩＧＵＲＡ,,株式会社,神奈川県,横浜市青葉区,鴨志田町１６３－２,,14,117,2270033,,,,,,,2024-08-20,1,,,,,イグラ,0
1846,9020001158538,新規,0,2024-08-20,2024-08-20,株式会社クリエイティブエンパワーメント,,株式会社,神奈川県,横浜市青葉区,新石川１丁目８番地,,14,117,2250003,,,,,,,2024-08-20,1,,,,,クリエイティブエンパワーメント,0
1849,9021003014919,新規,0,2024-08-20,2024-08-20,Ｍｕｋｕ　Ｃａｐｉｔａｌ合同会社,,合同会社,神奈川県,鎌倉市,二階堂９８番地１１,,14,204,2480002,,,,,,,2024-08-20,1,,,,,ムクキャピタル,0
1854,9030001162043,新規,0,2024-08-20,2024-08-20,株式会社川又総業,,株式会社,埼玉県,さいたま市浦和区,北浦和４丁目１番８－５Ｆ,,11,107,3300074,,,,,,,2024-08-20,1,,,,,カワマタソウギョウ,0
1855,9030001162068,新規,0,2024-08-20,2024-08-20,株式会社Ｃｌｏｖｅｒ　ｍａｒＫ,,株式会社,埼玉県,さいたま市岩槻区,城南４丁目３番５８－３号,,11,110,3390043,,,,,,,2024-08-20,1,,,,,クローバーマーク,0
1860,9040001134990,新規,0,2024-08-20,2024-08-20,株式会社和史,,株式会社,千葉県,市川市,南大野２丁目２８番４号,,12,203,2720804,,,,,,,2024-08-20,1,,,,,ワシ,0
1861,9040001135007,新規,0,2024-08-20,2024-08-20,シフトウィル株式会社,,株式会社,千葉県,千葉市中央区,中央２丁目５番１号千葉中央ツインビル２号館７階,,12,101,2600013,,,,,,,2024-08-20,1,,,,,シフトウィル,0
1862,9040001135031,新規,0,2024-08-20,2024-08-20,株式会社友恒建設,,株式会社,千葉県,白井市,中３４５－１０,,12,232,2701406,,,,,,,2024-08-20,1,,,,,ユウコウケンセツ,0
1866,9040003025635,新規,0,2024-08-20,2024-08-20,０１プラン合同会社,,合同会社,千葉県,浦安市,高洲４丁目３番１－１７２７号プラウド新浦安,,12,227,2790023,,,,,,,2024-08-20,1,,,,,ゼロイチプラン,0
1875,9080003003281,新規,0,2024-08-20,2024-08-20,シンシエイト合同会社,,合同会社,静岡県,焼津市,焼津５丁目３番２０号,,22,212,4250026,,,,,,,2024-08-20,1,,,,,シンシエイト,0
1879,9090001018850,新規,0,2024-08-20,2024-08-20,株式会社遠藤工業,,株式会社,山梨県,南アルプス市,有野４４４２番地１,,19,208,4000226,,,,,,,2024-08-20,1,,,,,エンドウコウギョウ,0
1882,9100001037758,新規,0,2024-08-20,2024-08-20,株式会社みらい,,株式会社,長野県,茅野市,塚原１丁目３番１号豊ビル１Ｆ,,20,214,3910002,,,,,,,2024-08-20,1,,,,,ミライ,0
1883,9100001037766,新規,0,2024-08-20,2024-08-20,株式会社豊色,,株式会社,長野県,佐久市,岩村田８８０番地１,,20,217,3850022,,,,,,,2024-08-20,1,,,,,トヨイロ,0
1884,9100003007676,新規,0,2024-08-20,2024-08-20,合同会社システム藍,,合同会社,長野県,北佐久郡立科町,大字芦田５１９,,20,324,3842305,,,,,,,2024-08-20,1,,,,,システムアイ,0
1891,9120001267675,新規,0,2024-08-20,2024-08-20,ＯＣＭ　ＣＡＰＩＴＡＬ株式会社,,株式会社,大阪府,大阪市北区,豊崎５丁目７番１２号,,27,127,5310072,,,,,,,2024-08-20,1,,,,,オーシーエムキャピタル,0
1892,9120001267898,新規,0,2024-08-20,2024-08-20,菱邦株式会社,,株式会社,大阪府,大阪市北区,天神橋７丁目１５番１３－４０７号,,27,127,5310041,,,,,,,2024-08-20,1,,,,,リョウホウ,0
1893,9120001267923,新規,0,2024-08-20,2024-08-20,株式会社Ｍｏｎｏｃｈｒｏ　Ａｇｅｎｔ,,株式会社,大阪府,大阪市中央区,今橋１丁目７番１９号北浜ビルディング４Ｆ,,27,128,5410042,,,,,,,2024-08-20,1,,,,,モノクロエージェント,0
1894,9120001267931,新規,0,2024-08-20,2024-08-20,エコーフロンティア株式会社,,株式会社,大阪府,大阪市住吉区,万代東１丁目３番２２号メゾン東和２０１号室,,27,120,5580056,,,,,,,2024-08-20,1,,,,,エコーフロンティア,0
1896,9120003027152,新規,0,2024-08-20,2024-08-20,合同会社鍼処ＨＩＫＡＲＩＥ,,合同会社,大阪府,大阪市淀川区,宮原１丁目１０番１１‐１２０２号,,27,123,5320003,,,,,,,2024-08-20,1,,,,,ハリドコロヒカリエ,0
1897,9120003027301,新規,0,2024-08-20,2024-08-20,大昭ディーアンドエム合同会社,,合同会社,大阪府,大阪市北区,梅田１丁目２番２号大阪駅前第２ビル１２－１２,,27,127,5300001,,,,,,,2024-08-20,1,,,,,ダイショウディーアンドエム,0
1898,9120003027342,新規,0,2024-08-20,2024-08-20,合同会社Ａｕｒａｌｉｎｋ,,合同会社,大阪府,大阪市北区,梅田１丁目１－３大阪駅前第３ビル２９階１－１－１号室,,27,127,5300001,,,,,,,2024-08-20,1,,,,,オーラリンク,0
1899,9120901049652,新規,0,2024-08-20,2024-08-20,株式会社アルバ,,株式会社,大阪府,豊中市,岡町８番１１－５０８号,,27,203,5610885,,,,,,,2024-08-20,1,,,,,アルバ,0
1902,9122003002969,新規,0,2024-08-20,2024-08-20,合同会社Ｊｅｗｅｌ,,合同会社,大阪府,東大阪市,足代北２丁目１３番８号ナバマンション２０３号室,,27,227,5770058,,,,,,,2024-08-20,1,,,,,ジュエル,0
1904,9130001077768,新規,0,2024-08-20,2024-08-20,株式会社ＭＳＣ,,株式会社,京都府,京都市西京区,松室庄田町６－６２,,26,111,6158293,,,,,,,2024-08-20,1,,,,,エムエスシー,0
1909,9140001135558,新規,0,2024-08-20,2024-08-20,株式会社ｍｉｎａ,,株式会社,兵庫県,神戸市須磨区,妙法寺字ぬめり石１番１－２０２,,28,107,6540121,,,,,,,2024-08-20,1,,,,,ミーナ,0
1912,9140003020948,新規,0,2024-08-20,2024-08-20,合同会社ブリッジング,,合同会社,兵庫県,神戸市東灘区,西岡本６丁目５番２９－４０２号,,28,101,6580073,,,,,,,2024-08-20,1,,,,,ブリッジング,0
1913,9140003020997,新規,0,2024-08-20,2024-08-20,合同会社ＹＡＣＨＴＺＯＯ,,合同会社,兵庫県,神戸市中央区,磯辺通１丁目１番１８号カサベラ国際プラザビル７０７号室,,28,110,6510084,,,,,,,2024-08-20,1,,,,,ヨットズー,0
1914,9150001027507,新規,0,2024-08-20,2024-08-20,株式会社Ｈａｎａｍｉｚｕｋｉ,,株式会社,奈良県,大和郡山市,九条町７３９番地５,,29,203,6391001,,,,,,,2024-08-20,1,,,,,ハナミズキ,0
1918,9170003002092,新規,0,2024-08-20,2024-08-20,合同会社ＬｉｆｅＣａｒｅ,,合同会社,和歌山県,紀の川市,貴志川町尼寺８１７番地６,,30,208,6400403,,,,,,,2024-08-20,1,,,,,ライフケア,0
1920,9180001162838,新規,0,2024-08-20,2024-08-20,株式会社Ｏｆｆｉｃｅ　ＯＨＡＮＡ,,株式会社,愛知県,名古屋市中村区,森田町１丁目１番１６号,,23,105,4530036,,,,,,,2024-08-20,1,,,,,オフィスオハナ,0
1921,9180001162929,新規,0,2024-08-20,2024-08-20,株式会社ＴＷＳ,,株式会社,愛知県,春日井市,如意申町８丁目１番地２５,,23,206,4860918,,,,,,,2024-08-20,1,,,,,ティーダブルエス,0
1922,9180001162953,新規,0,2024-08-20,2024-08-20,株式会社ＭＩＹＡＢＩ,,株式会社,愛知県,名古屋市守山区,西新１７番３１号－１,,23,113,4630055,,,,,,,2024-08-20,1,,,,,ミヤビ,0
1923,9180001162961,新規,0,2024-08-20,2024-08-20,株式会社ＡｖａｎｔＬＢ,,株式会社,愛知県,清須市,土田３丁目６－２６,,23,233,4520945,,,,,,,2024-08-20,1,,,,,アバントエルビー,0
1929,9180003027238,新規,0,2024-08-20,2024-08-20,合同会社白昼夢,,合同会社,愛知県,名古屋市中区,栄５丁目３番６号,,23,106,4600008,,,,,,,2024-08-20,1,,,,,ハクチュウム,0
1932,9200001042847,新規,0,2024-08-20,2024-08-20,株式会社ＴＯＫＯＭＡＳＡ,,株式会社,岐阜県,揖斐郡池田町,上田１１５６番地の３メゾン・ダンデライオンＥ１０１,,21,404,5032415,,,,,,,2024-08-20,1,,,,,トコマサ,0
1933,9220001026170,新規,0,2024-08-20,2024-08-20,株式会社ＫＴ８,,株式会社,石川県,金沢市,里見町１番地,,17,201,9200998,,,,,,,2024-08-20,1,,,,,ケーティーエイト,0
1955,9290001106734,新規,0,2024-08-20,2024-08-20,株式会社ぼくらワークス,,株式会社,福岡県,福岡市中央区,草香江２丁目１８番１３号,,40,133,8100045,,,,,,,2024-08-20,1,,,,,ボクラワークス,0
1956,9290001106759,新規,0,2024-08-20,2024-08-20,ｎｅｃｏｃｏ株式会社,,株式会社,福岡県,福岡市西区,愛宕浜２丁目２番５－３０４号ウエーブコースト５番館,,40,135,8190013,,,,,,,2024-08-20,1,,,,,ネココ,0
1957,9290001106775,新規,0,2024-08-20,2024-08-20,宇＆源株式会社,,株式会社,福岡県,太宰府市,御笠１丁目１３番５号,,40,221,8180110,,,,,,,2024-08-20,1,,,,,ウアンドゲン,0
1958,9290001106800,新規,0,2024-08-20,2024-08-20,株式会社Ｓｎｏｗ＆Ｍｏｏｎ,,株式会社,福岡県,福岡市東区,和白丘２丁目９番１１号,,40,131,8110213,,,,,,,2024-08-20,1,,,,,スノーアンドムーン,0
1959,9290001106809,新規,0,2024-08-20,2024-08-20,ベジモン福岡株式会社,,株式会社,福岡県,八女市,立花町下辺春２１５６番地,,40,210,8340073,,,,,,,2024-08-20,1,,,,,ベジモンフクオカ,0
1960,9290001106817,新規,0,2024-08-20,2024-08-20,株式会社蒼天舎,,株式会社,福岡県,福岡市南区,野多目３丁目２番８－５０４号,,40,134,8111347,,,,,,,2024-08-20,1,,,,,ソウテンシャ,0
1963,9290003015644,新規,0,2024-08-20,2024-08-20,合同会社くう,,合同会社,福岡県,福岡市早良区,早良６丁目２０番１０号,,40,137,8111122,,,,,,,2024-08-20,1,,,,,クウ,0
1965,9290801030803,新規,0,2024-08-20,2024-08-20,株式会社アステル,,株式会社,福岡県,北九州市小倉南区,舞ケ丘２丁目２３番２号,,40,107,8020823,,,,,,,2024-08-20,1,,,,,アステル,0
1966,9290801030811,新規,0,2024-08-20,2024-08-20,溝口プランニング株式会社,,株式会社,福岡県,行橋市,西泉６丁目２番３４号,,40,213,8240038,,,,,,,2024-08-20,1,,,,,ミゾグチプランニング,0
1968,9290803004821,新規,0,2024-08-20,2024-08-20,ＤＯＵＢＬＥ合同会社,,合同会社,福岡県,北九州市八幡西区,陣原２丁目１５番６－２０８号,,40,109,8070821,,,,,,,2024-08-20,1,,,,,ダブル,0
1975,9330001032389,新規,0,2024-08-20,2024-08-20,株式会社ブリランテオラサポート,,株式会社,熊本県,熊本市南区,平田１丁目６番１９号,,43,104,8600826,,,,,,,2024-08-20,1,,,,,ブリランテオラサポート,0
1987,9370001051666,新規,0,2024-08-20,2024-08-20,株式会社アルビス,,株式会社,宮城県,仙台市泉区,泉ケ丘４丁目５番２０号,,04,105,9813201,,,,,,,2024-08-20,1,,,,,アルビス,0
1991,9380001034736,新規,0,2024-08-20,2024-08-20,グリーンサイクルパワーいわき株式会社,,株式会社,福島県,いわき市,小名浜大原字芳際１番地,,07,204,9718111,,,,,,,2024-08-20,1,,,,,グリーンサイクルパワーイワキ,0
2008,9700150126788,新規,0,2024-08-20,2024-08-20,Ｆｒｏｍｅ　Ｉｎｖｅｓｔｍｅｎｔｓ　Ｌｔｄ．,,外国会社等,,,,,,,,Ｖｉｓｔｒａ　Ｃｏｒｐｏｒａｔｅ　Ｓｅｒｖｉｃｅｓ　Ｃｅｎｔｒｅ，Ｗｉｃｋｈａｍｓ　Ｃａｙ　ＩＩ，Ｒｏａｄ　Ｔｏｗｎ，Ｔｏｒｔｏｌａ，ＶＧ１１１０，Ｂｒｉｔｉｓｈ　Ｖｉｒｇｉｎ　Ｉｓｌａｎｄｓ,00135822,,,,,2024-08-20,1,,,,,フロームインベストメンツリミテツド,0
2009,9700150126796,新規,0,2024-08-20,2024-08-20,ｎｉｎｇ　ｂｏ　ｍｉｎｇ　ｗｏ　ｊｉｎ　ｃｈｕ　ｋｏｕ　ｙｏｕ　ｘｉａｎ　ｇｏｎｇ　ｓｉ,,外国会社等,,,,,,,,Ｒｏｏｍ　８－１１－１，Ｎｏ．４０２　Ｙｉｙｕａｎ　Ｒｏａｄ，Ｐａｎｈｕｏ　Ｓｔｒｅｅｔ，Ｙｉｎｚｈｏｕ　Ｄｉｓｔｒｉｃｔ，Ｎｉｎｇｂｏ　Ｃｉｔｙ，Ｚｈｅｊｉａｎｇ　Ｐｒｏｖｉｎｃｅ　ＣＮ,,,,,,2024-08-20,1,,,,,ニンボーミンヲジンツウコウユウゲンコウシ,0
