sequenceNumber,corporateNumber,process,correct,updateDate,changeDate,name,nameImageId,kind,prefectureName,cityName,streetNumber,addressImageId,prefectureCode,cityCode,postCode,addressOutside,addressOutsideImageId,closeDate,closeCause,successorCorporateNumber,changeCause,assignmentDate,latest,enName,enPrefectureName,enCityName,enAddressOutside,furigana,hihyoji
5,1010001231534,新規,0,2022-12-15,2022-12-15,リーチ株式会社,,株式会社,東京都,中央区,新川２丁目１８番１－１５０５号,,13,102,1040033,,,,,,,2022-12-15,1,,,,,リーチ,0
6,1010001231542,新規,0,2022-12-15,2022-12-15,株式会社ＪＴＲＥＳ,,株式会社,東京都,中央区,銀座６丁目６番１号,,13,102,1040061,,,,,,,2022-12-15,1,,,,,ジェイトレス,0
7,1010001231567,新規,0,2022-12-15,2022-12-15,株式会社エミーラ,,株式会社,東京都,中央区,日本橋人形町２丁目２３番７号水野ビル２階,,13,102,1030013,,,,,,,2022-12-15,1,,,,,エミーラ,0
8,1010001231591,新規,0,2022-12-15,2022-12-15,株式会社矢井,,株式会社,東京都,中央区,日本橋小伝馬町１７番１５号ＬＳＴビル,,13,102,1030001,,,,,,,2022-12-15,1,,,,,ヤイ,0
9,1010001231600,新規,0,2022-12-15,2022-12-15,薬剤師ｗｏｒｋｓ株式会社,,株式会社,東京都,中央区,日本橋２丁目１６番１３－１１０３号,,13,102,1030027,,,,,,,2022-12-15,1,,,,,ヤクザイシワークス,0
10,1010001231609,新規,0,2022-12-15,2022-12-15,株式会社ＥｒｆａｈｒｕｎｇＴｅｉｌｅｎ,,株式会社,東京都,中央区,佃２丁目１番２－１１１３号,,13,102,1040051,,,,,,,2022-12-15,1,,,,,エアファールングタイレン,0
11,1010001231641,新規,0,2022-12-15,2022-12-15,株式会社Ｗｉｔｈ　Ｇｏａｌ,,株式会社,東京都,中央区,銀座１丁目２２番１１号銀座大竹ビジデンス２階,,13,102,1040061,,,,,,,2022-12-15,1,,,,,ウィズゴール,0
13,1010003039307,新規,0,2022-12-15,2022-12-15,合同会社ＣＣＦ２号,,合同会社,東京都,中央区,八丁堀４丁目２番１０号ＡＯＪ税理士法人内,,13,102,1040032,,,,,,,2022-12-15,1,,,,,シーシーエフニゴウ,0
17,1010401020487,新規,0,2022-12-15,2022-12-15,株式会社東京経理研究所,,株式会社,東京都,港区,西麻布１丁目５番１４号,,13,103,1060031,,,,,,,2022-12-15,1,,,,,,0
22,1010401171339,新規,0,2022-12-15,2022-12-15,Ｉｎｓｐｉｒｅ　Ｖｉｓｉｏｎ株式会社,,株式会社,東京都,港区,南青山２丁目２番１５号ウィン青山９４２,,13,103,1070062,,,,,,,2022-12-15,1,,,,,インスパイアビジョン,0
26,1010501049740,新規,0,2022-12-15,2022-12-15,株式会社インフィニティ,,株式会社,東京都,台東区,台東４丁目８番２号両角ビル６階,,13,106,1100016,,,,,,,2022-12-15,1,,,,,インフィニティ,0
27,1010603009907,新規,0,2022-12-15,2022-12-15,クリムドテクマキ合同会社,,合同会社,東京都,江東区,森下２丁目３１番１０号ＫＭ２３１１０－１０２,,13,108,1350004,,,,,,,2022-12-15,1,,,,,クリムドテクマキ,0
29,1010901052146,新規,0,2022-12-15,2022-12-15,株式会社ソーシャルサポート,,株式会社,東京都,世田谷区,北沢２丁目３８－５ウッズ下北沢１０１,,13,112,1550031,,,,,,,2022-12-15,1,,,,,ソーシャルサポート,0
30,1010901052154,新規,0,2022-12-15,2022-12-15,ｂｅａｒ　ｃｕｂ株式会社,,株式会社,東京都,世田谷区,弦巻３丁目９番２－１０４号,,13,112,1540016,,,,,,,2022-12-15,1,,,,,ベアカブ,0
31,1010901052162,新規,0,2022-12-15,2022-12-15,アワシマ小林建設株式会社,,株式会社,東京都,世田谷区,池尻４丁目３９－５,,13,112,1540001,,,,,,,2022-12-15,1,,,,,アワシマコバヤシケンセツ,0
41,1011001151466,新規,0,2022-12-15,2022-12-15,株式会社ｃｏｃｏｌｏ,,株式会社,東京都,目黒区,平町１丁目２６番１８号第一ベルハウス５０６号室,,13,110,1520032,,,,,,,2022-12-15,1,,,,,ココロ,0
42,1011001151490,新規,0,2022-12-15,2022-12-15,株式会社Ｂｅｔｈｎａｌ,,株式会社,東京都,渋谷区,渋谷１丁目１７番１４号ＡＣＮ渋谷ビル２Ｆ,,13,113,1500002,,,,,,,2022-12-15,1,,,,,ベスナル,0
46,1011101101172,新規,0,2022-12-15,2022-12-15,株式会社ＺＥＲＯＮＩＸＳ,,株式会社,東京都,新宿区,四谷３丁目１３－２０四谷ＹＳビル１階,,13,104,1600004,,,,,,,2022-12-15,1,,,,,ゼロニクス,0
47,1011103012500,新規,0,2022-12-15,2022-12-15,白沢合同会社,,合同会社,東京都,新宿区,新宿５丁目１４番１２号天翔新宿三丁目ビル４０７,,13,104,1600022,,,,,,,2022-12-15,1,,,,,ハクタク,0
49,1011401024775,新規,0,2022-12-15,2022-12-15,株式会社ｍｏｒｅＤｅｅｐ,,株式会社,東京都,板橋区,大山東町６０番１５号,,13,119,1730014,,,,,,,2022-12-15,1,,,,,モアディープ,0
51,1011503005401,新規,0,2022-12-15,2022-12-15,合同会社あいもんど,,合同会社,東京都,北区,浮間２丁目１６番１７号ラフィーネ２０１号,,13,117,1150051,,,,,,,2022-12-15,1,,,,,アイモンド,0
54,1011701025861,新規,0,2022-12-15,2022-12-15,ミライネクサス株式会社,,株式会社,東京都,江戸川区,西葛西７丁目５番５号パークサイド３０１,,13,123,1340088,,,,,,,2022-12-15,1,,,,,ミライネクサス,0
56,1011801041684,新規,0,2022-12-15,2022-12-15,株式会社秋吉亮,,株式会社,東京都,足立区,扇２丁目４２番１５－５０１号,,13,121,1230873,,,,,,,2022-12-15,1,,,,,アキヨシリョウ,0
57,1011801041692,新規,0,2022-12-15,2022-12-15,株式会社ＲＨＭ,,株式会社,東京都,足立区,足立３丁目３３番３号第２ビル３Ｆ,,13,121,1200015,,,,,,,2022-12-15,1,,,,,アールエイチエム,0
58,1011803005431,新規,0,2022-12-15,2022-12-15,合同会社Ｔａｋａｂｏｗ,,合同会社,東京都,葛飾区,西新小岩５丁目１６番４号,,13,122,1240025,,,,,,,2022-12-15,1,,,,,タカボウ,0
59,1012301013249,新規,0,2022-12-15,2022-12-15,株式会社エムラボ,,株式会社,東京都,町田市,金井８丁目１９番１４号,,13,209,1950072,,,,,,,2022-12-15,1,,,,,エムラボ,0
66,1012701017386,新規,0,2022-12-15,2022-12-15,Ｎｅｘｕｓ　Ｄｅｓｉｇｎ　Ｏｆｆｉｃｅ株式会社,,株式会社,東京都,西東京市,ひばりが丘３丁目５番２２－２０６号,,13,229,2020001,,,,,,,2022-12-15,1,,,,,ネクサスデザインオフィス,0
67,1012701017394,新規,0,2022-12-15,2022-12-15,株式会社カムソレイユ,,株式会社,東京都,西東京市,保谷町１丁目６番９号,,13,229,2020015,,,,,,,2022-12-15,1,,,,,カムソレイユ,0
72,1013301050067,新規,0,2022-12-15,2022-12-15,株式会社Ａ，ｓ　Ｏｆｆｉｃｅ,,株式会社,東京都,豊島区,南池袋３丁目１６番１０号,,13,116,1710022,,,,,,,2022-12-15,1,,,,,エーズオフィス,0
73,1013301050075,新規,0,2022-12-15,2022-12-15,株式会社ｔｏｔ,,株式会社,東京都,豊島区,巣鴨１丁目２５番６号１階,,13,116,1700002,,,,,,,2022-12-15,1,,,,,トット,0
76,1020001149404,新規,0,2022-12-15,2022-12-15,有和商会株式会社,,株式会社,神奈川県,横浜市港北区,新羽町２０９５番地,,14,109,2230057,,,,,,,2022-12-15,1,,,,,ユウワショウカイ,0
77,1020001149412,新規,0,2022-12-15,2022-12-15,株式会社ルフレ,,株式会社,神奈川県,横浜市栄区,小菅ケ谷３丁目２５番地３１号,,14,115,2470007,,,,,,,2022-12-15,1,,,,,ルフレ,0
78,1020001149420,新規,0,2022-12-15,2022-12-15,株式会社武藤設備工業,,株式会社,神奈川県,横浜市鶴見区,鶴見中央３丁目１－６ダイアパレス鶴見第２－１０２,,14,101,2300051,,,,,,,2022-12-15,1,,,,,ブトウセツビコウギョウ,0
79,1020001149437,新規,0,2022-12-15,2022-12-15,一浩株式会社,,株式会社,神奈川県,川崎市多摩区,登戸１９４４番地,,14,135,2140014,,,,,,,2022-12-15,1,,,,,カズヒロ,0
80,1020001149445,新規,0,2022-12-15,2022-12-15,株式会社Ｇｅｒｂｅｒａ,,株式会社,神奈川県,横浜市保土ケ谷区,東川島町６４番地２０,,14,106,2400041,,,,,,,2022-12-15,1,,,,,ガーベラ,0
81,1020001149453,新規,0,2022-12-15,2022-12-15,株式会社ＭＩＫＩ,,株式会社,神奈川県,横浜市西区,中央１丁目１０番３号,,14,103,2200051,,,,,,,2022-12-15,1,,,,,ミキ,0
85,1020003022897,新規,0,2022-12-15,2022-12-15,合同会社ラ・メール,,合同会社,神奈川県,横浜市南区,六ツ川１丁目４６０番地２,,14,105,2320066,,,,,,,2022-12-15,1,,,,,ラメール,0
86,1020003022906,新規,0,2022-12-15,2022-12-15,合同会社興和,,合同会社,神奈川県,横浜市青葉区,あざみ野１丁目３２番地７ヒラノマンション３０２号,,14,117,2250011,,,,,,,2022-12-15,1,,,,,コウワ,0
92,1021001077710,新規,0,2022-12-15,2022-12-15,株式会社アラカワ,,株式会社,神奈川県,藤沢市,本藤沢１丁目９番１６号,,14,205,2510875,,,,,,,2022-12-15,1,,,,,アラカワ,0
94,1021003012500,新規,0,2022-12-15,2022-12-15,合同会社ｃｕｕケアプラン笑,,合同会社,神奈川県,中郡大磯町,西小磯２８７番地２００,,14,341,2550005,,,,,,,2022-12-15,1,,,,,クウケアプランニコ,0
95,1021003012509,新規,0,2022-12-15,2022-12-15,ＮＥＷＴＲＡＬ合同会社,,合同会社,神奈川県,逗子市,逗子４丁目１番３４号１階,,14,208,2490006,,,,,,,2022-12-15,1,,,,,ニュートラル,0
100,1030001151433,新規,0,2022-12-15,2022-12-15,株式会社ＣＯ‐ＯＤ,,株式会社,埼玉県,川口市,前川２丁目３番２１号,,11,203,3330842,,,,,,,2022-12-15,1,,,,,コード,0
101,1030001151466,新規,0,2022-12-15,2022-12-15,株式会社松下建設,,株式会社,埼玉県,上尾市,大字地頭方６１８番地４,,11,219,3620051,,,,,,,2022-12-15,1,,,,,マツシタケンセツ,0
102,1030001151499,新規,0,2022-12-15,2022-12-15,政吉株式会社,,株式会社,埼玉県,越谷市,南町１丁目２０番３号１０３,,11,222,3430832,,,,,,,2022-12-15,1,,,,,マサヨシ,0
107,1030003020735,新規,0,2022-12-15,2022-12-15,合同会社フロイデ,,合同会社,埼玉県,越谷市,南越谷４丁目２２－１０,,11,222,3430845,,,,,,,2022-12-15,1,,,,,フロイデ,0
109,1040001126252,新規,0,2022-12-15,2022-12-15,株式会社近藤工務店,,株式会社,千葉県,千葉市花見川区,天戸町１４６４番地３八千代台ハイツ２１２号,,12,102,2620043,,,,,,,2022-12-15,1,,,,,コンドウコウムテン,0
112,1040003021468,新規,0,2022-12-15,2022-12-15,合同会社ＲＯＹＡＬＲＡＲＥ,,合同会社,千葉県,千葉市中央区,登戸５丁目１－６スカイハイツ１０３号室,,12,101,2600032,,,,,,,2022-12-15,1,,,,,ロイヤルレア,0
113,1040003021484,新規,0,2022-12-15,2022-12-15,合同会社Ｓｐａｒｋｌｅ　Ｚｅｒｏ,,合同会社,千葉県,千葉市美浜区,中瀬１丁目６エム・ベイポイント幕張１６階（１６０２－７）,,12,106,2610023,,,,,,,2022-12-15,1,,,,,スパークルゼロ,0
140,1120001251001,新規,0,2022-12-15,2022-12-15,昭明株式会社,,株式会社,大阪府,大阪市中央区,松屋町９番２０号ローレルステート松屋町１２０１Ｃ,,27,128,5420067,,,,,,,2022-12-15,1,,,,,ショウメイ,0
141,1120001251018,新規,0,2022-12-15,2022-12-15,株式会社ＭＡＹＡ商事,,株式会社,大阪府,大阪市中央区,東心斎橋２丁目４番６号４階Ｅ号室,,27,128,5420083,,,,,,,2022-12-15,1,,,,,マヤショウジ,0
142,1120001251042,新規,0,2022-12-15,2022-12-15,株式会社タッチ＆ゴー,,株式会社,大阪府,大阪市住吉区,長居東３丁目１１番６号,,27,120,5580004,,,,,,,2022-12-15,1,,,,,タッチアンドゴー,0
143,1120001251075,新規,0,2022-12-15,2022-12-15,株式会社ＢＩＭＴＹ,,株式会社,大阪府,大阪市北区,梅田１丁目１－３大阪駅前第３ビル２９階１－１－１号室,,27,127,5300001,,,,,,,2022-12-15,1,,,,,ビムティ,0
144,1120001251083,新規,0,2022-12-15,2022-12-15,株式会社ＳＯｕＬＥ,,株式会社,大阪府,大阪市中央区,博労町４丁目７番５号,,27,128,5410059,,,,,,,2022-12-15,1,,,,,ソーレ,0
145,1120001251100,新規,0,2022-12-15,2022-12-15,株式会社神谷商店,,株式会社,大阪府,大阪市中央区,南本町１丁目３番１５号,,27,128,5410054,,,,,,,2022-12-15,1,,,,,カミタニショウテン,0
148,1120003023019,新規,0,2022-12-15,2022-12-15,合同会社ｈ２,,合同会社,大阪府,大阪市東成区,深江北１丁目７番１６号コープ野村深江橋９０５,,27,115,5370001,,,,,,,2022-12-15,1,,,,,エイチツー,0
149,1120003023076,新規,0,2022-12-15,2022-12-15,合同会社シーハウス,,合同会社,大阪府,大阪市都島区,友渕町３丁目６番１８－１０８号,,27,102,5340016,,,,,,,2022-12-15,1,,,,,シーハウス,0
154,1120101066654,新規,0,2022-12-15,2022-12-15,株式会社燕,,株式会社,大阪府,羽曳野市,駒ケ谷１４４２番地の１,,27,222,5830841,,,,,,,2022-12-15,1,,,,,ツバメ,0
155,1120101066662,新規,0,2022-12-15,2022-12-15,ＳＪＮロジソリューションズ株式会社,,株式会社,大阪府,堺市堺区,匠町１番地,,27,141,5900908,,,,,,,2022-12-15,1,,,,,エスジェイエヌロジソリューションズ,0
156,1120101066670,新規,0,2022-12-15,2022-12-15,株式会社クラフト,,株式会社,大阪府,堺市中区,深井東町３７４番地１２,,27,142,5998235,,,,,,,2022-12-15,1,,,,,クラフト,0
161,1120903004423,新規,0,2022-12-15,2022-12-15,合同会社ｔｅｄｉｔ,,合同会社,大阪府,吹田市,江坂町２丁目８－１２池上第一ビル３０１,,27,205,5640063,,,,,,,2022-12-15,1,,,,,テディット,0
163,1122001036497,新規,0,2022-12-15,2022-12-15,太陽工業株式会社,,株式会社,大阪府,八尾市,宮町５丁目６番６４号,,27,212,5810815,,,,,,,2022-12-15,1,,,,,タイヨウコウギョウ,0
168,1130001073287,新規,0,2022-12-15,2022-12-15,株式会社ＨＩＣ,,株式会社,京都府,京都市北区,上賀茂荒草町６１番地１,,26,101,6038061,,,,,,,2022-12-15,1,,,,,エイチアイシー,0
176,1140001128370,新規,0,2022-12-15,2022-12-15,株式会社淡家,,株式会社,兵庫県,淡路市,中田５５１番地１,,28,226,6562163,,,,,,,2022-12-15,1,,,,,アワヤ,0
177,1140001128395,新規,0,2022-12-15,2022-12-15,株式会社ＵＵＵＲＡ工務店,,株式会社,兵庫県,尼崎市,御園町３５番地４Ｃ,,28,202,6600861,,,,,,,2022-12-15,1,,,,,ウーラコウムテン,0
178,1140001128437,新規,0,2022-12-15,2022-12-15,株式会社湯村温泉緑屋,,株式会社,兵庫県,美方郡新温泉町,湯１３２６,,28,586,6696821,,,,,,,2022-12-15,1,,,,,ユムラオンセンミドリヤ,0
185,1140003018462,新規,0,2022-12-15,2022-12-15,合同会社わらしべ企画,,合同会社,兵庫県,淡路市,志筑１０９番地２,,28,226,6562131,,,,,,,2022-12-15,1,,,,,ワラシベキカク,0
186,1140003018470,新規,0,2022-12-15,2022-12-15,合同会社ＬＡＮＥ,,合同会社,兵庫県,明石市,西明石北町３丁目１－１９,,28,203,6730018,,,,,,,2022-12-15,1,,,,,レーン,0
187,1140003018479,新規,0,2022-12-15,2022-12-15,非作合同会社,,合同会社,兵庫県,神戸市東灘区,向洋町中１丁目１７アジアワンセンター２７Ｆ－１号室,,28,101,6580032,,,,,,,2022-12-15,1,,,,,ヒサク,0
190,1170001017414,新規,0,2022-12-15,2022-12-15,株式会社Ｓｔａｒｔ　Ｌｉｎｅ,,株式会社,和歌山県,和歌山市,加太１２１２番地７,,30,201,6400103,,,,,,,2022-12-15,1,,,,,スタートライン,0
200,1180001154124,新規,0,2022-12-15,2022-12-15,株式会社ムカユ,,株式会社,愛知県,名古屋市中区,千代田３丁目１１－１２三浦ビル,,23,106,4600012,,,,,,,2022-12-15,1,,,,,ムカユ,0
201,1180001154215,新規,0,2022-12-15,2022-12-15,株式会社Ｎ．Ｓ．Ｗｏｒｋｓ,,株式会社,愛知県,知多郡阿久比町,大字白沢字東石根１番地２８,,23,441,4702201,,,,,,,2022-12-15,1,,,,,エヌエスワークス,0
203,1180003024481,新規,0,2022-12-15,2022-12-15,合同会社リハイヤ,,合同会社,愛知県,名古屋市中区,栄１丁目１６番１０号プライムアーバン栄３０３号室,,23,106,4600008,,,,,,,2022-12-15,1,,,,,リハイヤ,0
204,1180003024597,新規,0,2022-12-15,2022-12-15,合同会社ＴＳ　Ｊａｐａｎ,,合同会社,愛知県,小牧市,小牧５丁目６１３番地,,23,219,4850041,,,,,,,2022-12-15,1,,,,,ティーエスジャパン,0
205,1180003024606,新規,0,2022-12-15,2022-12-15,ＲＢ合同会社,,合同会社,愛知県,名古屋市中区,栄３丁目２－３名古屋日興証券ビル４階,,23,106,4600008,,,,,,,2022-12-15,1,,,,,アールビー,0
209,1190001030019,新規,0,2022-12-15,2022-12-15,株式会社マーシャルリンクス,,株式会社,三重県,四日市市,笹川１丁目１１６番地,,24,202,5100944,,,,,,,2022-12-15,1,,,,,マーシャルリンクス,0
213,1200001040750,新規,0,2022-12-15,2022-12-15,プライチ株式会社,,株式会社,岐阜県,海津市,南濃町駒野１０６８番地,,21,221,5030411,,,,,,,2022-12-15,1,,,,,プライチ,0
217,1230001019635,新規,0,2022-12-15,2022-12-15,株式会社Ｋふぁーむ,,株式会社,富山県,中新川郡立山町,上金剛寺５４５番地,,16,323,9300233,,,,,,,2022-12-15,1,,,,,ケーファーム,0
218,1240001060803,新規,0,2022-12-15,2022-12-15,株式会社もみじｅ‐ｗｏｒｋｓ,,株式会社,広島県,広島市安佐北区,上深川町２９７番地１,,34,106,7391752,,,,,,,2022-12-15,1,,,,,モミジイーワークス,0
219,1240001060811,新規,0,2022-12-15,2022-12-15,株式会社びゃくえ,,株式会社,広島県,安芸郡府中町,石井城２丁目１５番２８号,,34,302,7350007,,,,,,,2022-12-15,1,,,,,ビャクエ,0
221,1260001037502,新規,0,2022-12-15,2022-12-15,株式会社ロボミン,,株式会社,岡山県,笠岡市,笠岡２８３１番地１,,33,205,7140081,,,,,,,2022-12-15,1,,,,,ロボミン,0
227,1290001099886,新規,0,2022-12-15,2022-12-15,株式会社ＮＹＣ,,株式会社,福岡県,福岡市博多区,博多駅南４丁目１７番６号,,40,132,8120016,,,,,,,2022-12-15,1,,,,,エヌワイシー,0
231,1290801029126,新規,0,2022-12-15,2022-12-15,ヨシミホールディングス株式会社,,株式会社,福岡県,北九州市戸畑区,天神１丁目１３番５号,,40,105,8040094,,,,,,,2022-12-15,1,,,,,ヨシミホールディングス,0
232,1310001018158,新規,0,2022-12-15,2022-12-15,株式会社Ｒｅｓｏｒｔ　Ｄｅｓｉｇｎ,,株式会社,長崎県,佐世保市,天神４丁目８－４２,,42,202,8571174,,,,,,,2022-12-15,1,,,,,リゾートデザイン,0
237,1310003004494,新規,0,2022-12-15,2022-12-15,合同会社ａｍｂｒｅ　ｊａｐａｎ,,合同会社,長崎県,佐世保市,田の浦町１０６番地１６８,,42,202,8593205,,,,,,,2022-12-15,1,,,,,アンバージャパン,0
243,1330003009632,新規,0,2022-12-15,2022-12-15,合同会社芳功,,合同会社,熊本県,合志市,福原６９６番地,,43,216,8611116,,,,,,,2022-12-15,1,,,,,ヨシコウ,0
248,1360003012567,新規,0,2022-12-15,2022-12-15,神栄貿易合同会社,,合同会社,沖縄県,那覇市,久米２丁目３３番２８号,,47,201,9000033,,,,,,,2022-12-15,1,,,,,シンエイボウエキ,0
252,1370003005917,新規,0,2022-12-15,2022-12-15,カタチドットコム合同会社,,合同会社,宮城県,仙台市青葉区,昭和町４番１３－６０３号,,04,101,9810913,,,,,,,2022-12-15,1,,,,,カタチドットコム,0
253,1380001033332,新規,0,2022-12-15,2022-12-15,株式会社ハイブリッジ,,株式会社,福島県,白河市,表郷中野字滝沢１０４,,07,205,9610401,,,,,,,2022-12-15,1,,,,,ハイブリッジ,0
254,1380001033340,新規,0,2022-12-15,2022-12-15,しののめＬｉｆｅ株式会社,,株式会社,福島県,いわき市,常磐関船町屋津１０番地の７３,,07,204,9728318,,,,,,,2022-12-15,1,,,,,シノノメライフ,0
262,1410003003726,新規,0,2022-12-15,2022-12-15,合同会社ＣＡＲ‐ｂｅｅ,,合同会社,秋田県,秋田市,仁井田福島１丁目１番２１号ファミリー２０１号,,05,201,0101432,,,,,,,2022-12-15,1,,,,,カービィー,0
268,1430003014515,新規,0,2022-12-15,2022-12-15,合同会社サウロ,,合同会社,北海道,札幌市中央区,北七条西１２丁目１３番地９トーワ北７条９０２号,,01,101,0600007,,,,,,,2022-12-15,1,,,,,サウロ,0
269,1430005014612,新規,0,2022-12-15,2022-12-15,特定非営利活動法人北海道ジュニアテニス振興会,,その他の設立登記法人,北海道,札幌市北区,北十八条西４丁目２番１７－２０１号,,01,102,0010018,,,,,,,2022-12-15,1,,,,,ホッカイドウジュニアテニスシンコウカイ,0
274,1500003002933,新規,0,2022-12-15,2022-12-15,合同会社ｎｉｃｏ,,合同会社,愛媛県,松山市,保免西１丁目２番２９－１号,,38,201,7900043,,,,,,,2022-12-15,1,,,,,ニコ,0
287,2010001231517,新規,0,2022-12-15,2022-12-15,株式会社日本就職アカデミー,,株式会社,東京都,中央区,新川１丁目２２番１２号,,13,102,1040033,,,,,,,2022-12-15,1,,,,,ニホンシュウショクアカデミー,0
288,2010001231541,新規,0,2022-12-15,2022-12-15,株式会社Ｂｌｕｅｄｏｏｒ,,株式会社,東京都,中央区,銀座１丁目２２番１１号銀座大竹ビジデンス２階,,13,102,1040061,,,,,,,2022-12-15,1,,,,,ブルードア,0
289,2010001231566,新規,0,2022-12-15,2022-12-15,株式会社日新,,株式会社,東京都,中央区,日本橋小伝馬町１４番５号メローナ日本橋４０１号室,,13,102,1030001,,,,,,,2022-12-15,1,,,,,ニッシン,0
290,2010001231582,新規,0,2022-12-15,2022-12-15,株式会社家電良販店,,株式会社,東京都,文京区,湯島３丁目１２－１３－５０３,,13,105,1130034,,,,,,,2022-12-15,1,,,,,カデンリョウハンテン,0
291,2010001231608,新規,0,2022-12-15,2022-12-15,株式会社ＢＣサポート,,株式会社,東京都,中央区,八重洲１丁目４番１６号東京建物八重洲ビル３階,,13,102,1030028,,,,,,,2022-12-15,1,,,,,,0
293,2010003039289,新規,0,2022-12-15,2022-12-15,ＬＥＶＥＣＨＹファンド１号合同会社,,合同会社,東京都,千代田区,紀尾井町３－８第２紀尾井町ビル９０１アクシス綜合会計事務所内,,13,101,1020094,,,,,,,2022-12-15,1,,,,,レベチーファンドイチゴウ,0
294,2010003039297,新規,0,2022-12-15,2022-12-15,合同会社島根水明,,合同会社,東京都,千代田区,平河町１丁目３番１３号平河町フロントビル７階株式会社シリウス・アドバイザリー内,,13,101,1020093,,,,,,,2022-12-15,1,,,,,シマネスイメイ,0
295,2010003039322,新規,0,2022-12-15,2022-12-15,合同会社ｃｉｔｙ,,合同会社,東京都,文京区,西片２丁目２１－１２西片マンション１階,,13,105,1130024,,,,,,,2022-12-15,1,,,,,シティ,0
297,2010005035906,新規,0,2022-12-15,2022-12-15,一般財団法人ＹＯＫＡ,,その他の設立登記法人,東京都,千代田区,神田須田町１丁目２４番地６ＡＣＮ神田須田町ビル１１Ｆ,,13,101,1010041,,,,,,,2022-12-15,1,,,,,ヨカ,0
298,2010005035914,新規,0,2022-12-15,2022-12-15,一般社団法人クリスティーナクリニック,,その他の設立登記法人,東京都,中央区,銀座４丁目８－４三原ｂｌｄｇ３階,,13,102,1040061,,,,,,,2022-12-15,1,,,,,クリスティーナクリニック,0
306,2010401171362,新規,0,2022-12-15,2022-12-15,Ｊｏｈｎ　Ｌｏｃｋｅ株式会社,,株式会社,東京都,港区,六本木７丁目３番１６号六本木インターナショナルアネックスビル３Ｆ,,13,103,1060032,,,,,,,2022-12-15,1,,,,,ジョンロック,0
307,2010403029138,新規,0,2022-12-15,2022-12-15,ＵＴＫ合同会社,,合同会社,東京都,港区,白金５丁目６－７エスセナーリオ１Ｆ,,13,103,1080072,,,,,,,2022-12-15,1,,,,,ユーティーケー,0
308,2010403029146,新規,0,2022-12-15,2022-12-15,合同会社ワンツー,,合同会社,東京都,港区,高輪２丁目１４番７－５０５号,,13,103,1080074,,,,,,,2022-12-15,1,,,,,ワンツー,0
318,2010601062304,新規,0,2022-12-15,2022-12-15,株式会社優心,,株式会社,東京都,江東区,北砂３丁目４番３２号,,13,108,1360073,,,,,,,2022-12-15,1,,,,,ユウシン,0
320,2010701043609,新規,0,2022-12-15,2022-12-15,株式会社ＳＫ　Ａｄｄｉｔｉｖｅ　Ｉｎｎｏｖａｔｉｏｎ,,株式会社,東京都,品川区,上大崎３丁目１番２号－３０１０,,13,109,1410021,,,,,,,2022-12-15,1,,,,,エスケーアディティブイノベーション,0
321,2010703006506,新規,0,2022-12-15,2022-12-15,ＩＴＣ合同会社,,合同会社,東京都,品川区,南品川２丁目１２番５号ＢＩＥＮＡ３０４,,13,109,1400004,,,,,,,2022-12-15,1,,,,,アイティーシー,0
325,2010801033518,新規,0,2022-12-15,2022-12-15,株式会社ＬＥＡ　ＰＯＰＯ,,株式会社,東京都,大田区,南六郷２丁目７－１９森ビル３０２,,13,111,1440045,,,,,,,2022-12-15,1,,,,,レアポポ,0
337,2011001151507,新規,0,2022-12-15,2022-12-15,株式会社テクノカット,,株式会社,東京都,渋谷区,千駄ヶ谷３丁目１５番６号ビルトップ４階,,13,113,1510051,,,,,,,2022-12-15,1,,,,,テクノカット,0
346,2011501028758,新規,0,2022-12-15,2022-12-15,株式会社成為,,株式会社,東京都,荒川区,荒川４丁目３７番１号ランドーレジデンス東京スイーツ７０２,,13,118,1160002,,,,,,,2022-12-15,1,,,,,セイイ,0
348,2011701025860,新規,0,2022-12-15,2022-12-15,サンベース株式会社,,株式会社,東京都,江戸川区,篠崎町５丁目３番１４号,,13,123,1330061,,,,,,,2022-12-15,1,,,,,サンベース,0
350,2011703003328,新規,0,2022-12-15,2022-12-15,合同会社ＩＫＩＧＡＩ,,合同会社,東京都,江戸川区,南小岩８丁目１４番５号アズマソシアルビル４Ｆ,,13,123,1330056,,,,,,,2022-12-15,1,,,,,イキガイ,0
353,2011801041683,新規,0,2022-12-15,2022-12-15,株式会社ＣＡＳＥ　ＩＴ,,株式会社,東京都,足立区,西新井６丁目３番３号ライフワンビル西新井４Ｆ,,13,121,1230841,,,,,,,2022-12-15,1,,,,,ケースイット,0
354,2011801041691,新規,0,2022-12-15,2022-12-15,株式会社松介,,株式会社,東京都,足立区,梅田１丁目１５－７,,13,121,1230851,,,,,,,2022-12-15,1,,,,,マツスケ,0
356,2011803005430,新規,0,2022-12-15,2022-12-15,海新合同会社,,合同会社,東京都,葛飾区,立石１丁目１－２立石Ｎフラット２０２号室,,13,122,1240012,,,,,,,2022-12-15,1,,,,,カイシン,0
357,2011805003234,新規,0,2022-12-15,2022-12-15,一般社団法人葛飾区ボッチャ協会,,その他の設立登記法人,東京都,葛飾区,小菅２丁目２番１２号,,13,122,1240001,,,,,,,2022-12-15,1,,,,,カツシカクボッチャキョウカイ,0
370,2020001149428,新規,0,2022-12-15,2022-12-15,世海通商株式会社,,株式会社,神奈川県,横浜市鶴見区,尻手３丁目５番２４－１号,,14,101,2300003,,,,,,,2022-12-15,1,,,,,セカイツウショウ,0
371,2020001149436,新規,0,2022-12-15,2022-12-15,Ｍｉｋａｂｏｓｈｉ株式会社,,株式会社,神奈川県,横浜市青葉区,あざみ野南３丁目１０－３６,,14,117,2250012,,,,,,,2022-12-15,1,,,,,ミカボシ,0
372,2020001149444,新規,0,2022-12-15,2022-12-15,株式会社Ｆｉｒｓｔ,,株式会社,神奈川県,横浜市栄区,桂台東２４番７号,,14,115,2470032,,,,,,,2022-12-15,1,,,,,ファースト,0
375,2020003022896,新規,0,2022-12-15,2022-12-15,スタイルアップテティス合同会社,,合同会社,神奈川県,横浜市旭区,西川島町１７番地の１３,,14,112,2410012,,,,,,,2022-12-15,1,,,,,スタイルアップテティス,0
377,2021001077692,新規,0,2022-12-15,2022-12-15,株式会社光,,株式会社,神奈川県,大和市,鶴間２丁目１２－１０,,14,213,2420004,,,,,,,2022-12-15,1,,,,,コウ,0
378,2021001077701,新規,0,2022-12-15,2022-12-15,株式会社グリーンクライムホームカンパニー,,株式会社,神奈川県,秦野市,戸川１１５５番地の１,,14,211,2591306,,,,,,,2022-12-15,1,,,,,グリーンクライムホームカンパニー,0
379,2021003012508,新規,0,2022-12-15,2022-12-15,ＡＲＣＯ合同会社,,合同会社,神奈川県,逗子市,久木８丁目１９番５号,,14,208,2490001,,,,,,,2022-12-15,1,,,,,アルコ,0
383,2030001151440,新規,0,2022-12-15,2022-12-15,株式会社ほむら,,株式会社,埼玉県,さいたま市緑区,大字中尾９１３番地,,11,109,3360932,,,,,,,2022-12-15,1,,,,,ホムラ,0
384,2030001151449,新規,0,2022-12-15,2022-12-15,株式会社Ｄｅｓｔｉｎｏ,,株式会社,埼玉県,さいたま市緑区,道祖土４丁目２１番１号５０６,,11,109,3360907,,,,,,,2022-12-15,1,,,,,デスティーノ,0
385,2030001151473,新規,0,2022-12-15,2022-12-15,株式会社ベーシックスタンダード,,株式会社,埼玉県,新座市,西堀１丁目１２番６号,,11,230,3520031,,,,,,,2022-12-15,1,,,,,ベーシックスタンダード,0
392,2030003020718,新規,0,2022-12-15,2022-12-15,ＳＨＡＺ　ＴＲＡＤＩＮＧ合同会社,,合同会社,埼玉県,草加市,稲荷４丁目３７番１４号イナリワン２０２号,,11,221,3400003,,,,,,,2022-12-15,1,,,,,シャズトレーディング,0
393,2030003020750,新規,0,2022-12-15,2022-12-15,合同会社ＳＵＮＮＹ,,合同会社,埼玉県,和光市,白子２丁目２６番２号５０８号室,,11,229,3510101,,,,,,,2022-12-15,1,,,,,サニー,0
398,2040003021459,新規,0,2022-12-15,2022-12-15,ＬＩＰＡＮ合同会社,,合同会社,千葉県,大網白里市,北飯塚６１番地１,,12,239,2993218,,,,,,,2022-12-15,1,,,,,リパン,0
399,2040003021491,新規,0,2022-12-15,2022-12-15,合同会社ｍａｇｒａｌ,,合同会社,千葉県,鎌ケ谷市,新鎌ケ谷３丁目１５番３６－６０２号,,12,224,2730107,,,,,,,2022-12-15,1,,,,,マグラル,0
400,2040003021509,新規,0,2022-12-15,2022-12-15,東関東貿易合同会社,,合同会社,千葉県,千葉市若葉区,小倉町１２７３番地１,,12,104,2640007,,,,,,,2022-12-15,1,,,,,ヒガシカントウボウエキ,0
408,2080103002710,新規,0,2022-12-15,2022-12-15,朝霧バイオパワー合同会社,,合同会社,静岡県,富士宮市,根原字宝山２７,,22,207,4180101,,,,,,,2022-12-15,1,,,,,アサキリバイオパワー,0
412,2100001035966,新規,0,2022-12-15,2022-12-15,株式会社ＳＨＩＴＡＬ,,株式会社,長野県,駒ヶ根市,東伊那５２０４番地,,20,210,3994321,,,,,,,2022-12-15,1,,,,,シタル,0
413,2100001035974,新規,0,2022-12-15,2022-12-15,株式会社ユアヘルス,,株式会社,長野県,安曇野市,豊科４５９４番地３,,20,220,3998205,,,,,,,2022-12-15,1,,,,,ユアヘルス,0
424,2120001251017,新規,0,2022-12-15,2022-12-15,株式会社ジオシティ,,株式会社,大阪府,大阪市中央区,日本橋１丁目２２番２１号,,27,128,5420073,,,,,,,2022-12-15,1,,,,,ジオシティ,0
425,2120001251025,新規,0,2022-12-15,2022-12-15,株式会社ｋｓｄｉ,,株式会社,大阪府,大阪市東淀川区,東淡路４丁目１７番１５号,,27,114,5330023,,,,,,,2022-12-15,1,,,,,ケイエスディーアイ,0
426,2120001251066,新規,0,2022-12-15,2022-12-15,株式会社Ｅｄｕ　Ｃｒｅａｔｏｒ,,株式会社,大阪府,大阪市中央区,南船場３丁目２番２８号ＮＩＰＰＯタイヨービル５１１号,,27,128,5420081,,,,,,,2022-12-15,1,,,,,エデュクリエイター,0
427,2120001251074,新規,0,2022-12-15,2022-12-15,株式会社ＡＲホールディングス,,株式会社,大阪府,大阪市天王寺区,東高津町１２番７－１７０２号,,27,109,5430021,,,,,,,2022-12-15,1,,,,,エーアールホールディングス,0
434,2120103004974,新規,0,2022-12-15,2022-12-15,合同会社Ｍ’ｓ　ＭＥＤＩＣＡＬ,,合同会社,大阪府,堺市北区,東上野芝町２丁２００番地,,27,146,5918035,,,,,,,2022-12-15,1,,,,,エムズメディカル,0
435,2120901046862,新規,0,2022-12-15,2022-12-15,株式会社ＪＢＹ,,株式会社,大阪府,吹田市,桃山台５丁目３番８ー４１１号,,27,205,5650854,,,,,,,2022-12-15,1,,,,,ジェービー,0
436,2120903004422,新規,0,2022-12-15,2022-12-15,合同会社ＡＳＨ,,合同会社,大阪府,豊中市,寺内１丁目５番１－４０３号,,27,203,5610872,,,,,,,2022-12-15,1,,,,,アッシュ,0
439,2122001036505,新規,0,2022-12-15,2022-12-15,株式会社Ｃｒａｓｉａｓ,,株式会社,大阪府,東大阪市,長田東４丁目２－３２－５０３号,,27,227,5770012,,,,,,,2022-12-15,1,,,,,クラシアス,0
442,2130003008380,新規,0,2022-12-15,2022-12-15,合同会社Ｃａｔ　Ｌｏｕｎｇｅ,,合同会社,京都府,京都市伏見区,横大路鍬ノ本１番地８,,26,109,6128295,,,,,,,2022-12-15,1,,,,,キャットラウンジ,0
447,2140001128353,新規,0,2022-12-15,2022-12-15,株式会社ゴルフスタジオ２４,,株式会社,兵庫県,姫路市,五軒邸３丁目４５番地,,28,201,6700854,,,,,,,2022-12-15,1,,,,,ゴルフスタジオニジュウヨン,0
448,2140001128386,新規,0,2022-12-15,2022-12-15,エスシーエー株式会社,,株式会社,兵庫県,三田市,富士が丘３丁目１１番地７,,28,219,6691547,,,,,,,2022-12-15,1,,,,,エスシーエー,0
453,2140003018486,新規,0,2022-12-15,2022-12-15,合同会社Ａ‐ｌｉｆｅｄｅｓｉｇｎ,,合同会社,兵庫県,神戸市中央区,磯上通４丁目１－１４三宮スカイビル７Ｆ,,28,110,6510086,,,,,,,2022-12-15,1,,,,,エーライフデザイン,0
461,2170001017405,新規,0,2022-12-15,2022-12-15,株式会社すばるコンサルティング,,株式会社,和歌山県,橋本市,さつき台１丁目６番地の１,,30,203,6480075,,,,,,,2022-12-15,1,,,,,スバルコンサルティング,0
466,2180001154131,新規,0,2022-12-15,2022-12-15,ＣＮＧＲ日本新能源テクノロジー株式会社,,株式会社,愛知県,名古屋市中村区,平池町４丁目６０番地の１２グローバルゲート１１階,,23,105,4530872,,,,,,,2022-12-15,1,,,,,シーエヌジーアールニホンシンノウゲンテクノロジー,0
467,2180001154172,新規,0,2022-12-15,2022-12-15,株式会社ＣＰホールディングス,,株式会社,愛知県,名古屋市中村区,名駅１丁目１番１号ＪＰタワー名古屋,,23,105,4500002,,,,,,,2022-12-15,1,,,,,シーピーホールディングス,0
468,2180001154180,新規,0,2022-12-15,2022-12-15,株式会社小高,,株式会社,愛知県,名古屋市北区,大曽根２丁目８番２６号エステイト大曽根７階,,23,103,4620825,,,,,,,2022-12-15,1,,,,,コダカ,0
469,2180001154189,新規,0,2022-12-15,2022-12-15,株式会社エピック,,株式会社,愛知県,名古屋市天白区,植田本町２丁目８０５番地の２,,23,116,4680007,,,,,,,2022-12-15,1,,,,,エピック,0
470,2180001154222,新規,0,2022-12-15,2022-12-15,株式会社Ｓｉｎ,,株式会社,愛知県,半田市,君ケ橋町１丁目８１番地の３,,23,205,4750938,,,,,,,2022-12-15,1,,,,,シン,0
479,2180301036905,新規,0,2022-12-15,2022-12-15,株式会社マルカワ園芸,,株式会社,愛知県,豊橋市,中原町字上ノ谷１２番地,,23,201,4413106,,,,,,,2022-12-15,1,,,,,マルカワエンゲイ,0
481,2180303005536,新規,0,2022-12-15,2022-12-15,合同会社ＦＯＯＤ　ＤＯＰＥ,,合同会社,愛知県,岡崎市,梅園町字１丁目１番地２１,,23,202,4440031,,,,,,,2022-12-15,1,,,,,フードドープ,0
482,2190001030018,新規,0,2022-12-15,2022-12-15,株式会社月,,株式会社,三重県,伊賀市,西明寺１９５３番地の４,,24,216,5180809,,,,,,,2022-12-15,1,,,,,ツキ,0
483,2190003004168,新規,0,2022-12-15,2022-12-15,合同会社さくら四日市,,合同会社,三重県,四日市市,智積町７４８番地２,,24,202,5121212,,,,,,,2022-12-15,1,,,,,サクラヨッカイチ,0
485,2200001040774,新規,0,2022-12-15,2022-12-15,株式会社白木屋,,株式会社,岐阜県,岐阜市,末広町２６番地,,21,201,5008042,,,,,,,2022-12-15,1,,,,,シロキヤ,0
487,2230003001945,新規,0,2022-12-15,2022-12-15,合同会社Ｍ１,,合同会社,富山県,富山市,黒瀬５９番地１,,16,201,9398213,,,,,,,2022-12-15,1,,,,,エムワン,0
489,2240001060785,新規,0,2022-12-15,2022-12-15,ヤマト不動産株式会社,,株式会社,広島県,広島市西区,井口鈴が台３丁目１６番９－１０２号,,34,104,7330843,,,,,,,2022-12-15,1,,,,,ヤマトフドウサン,0
492,2240005015496,新規,0,2022-12-15,2022-12-15,税理士法人Ｃｏｌｏｒｓ,,その他の設立登記法人,広島県,府中市,府川町１００番地５,,34,208,7260004,,,,,,,2022-12-15,1,,,,,カラーズ,0
496,2260001037501,新規,0,2022-12-15,2022-12-15,株式会社Ｔｏ　Ｂｅ　Ｐｒｏｄｕｃｅ,,株式会社,岡山県,真庭市,西河内８５５番地１,,33,214,7193145,,,,,,,2022-12-15,1,,,,,トゥービープロデュース,0
497,2270001008690,新規,0,2022-12-15,2022-12-15,株式会社心栄電工,,株式会社,鳥取県,境港市,夕日ヶ丘１丁目１２６番地,,31,204,6840076,,,,,,,2022-12-15,1,,,,,シンエイデンコウ,0
498,2270003001470,新規,0,2022-12-15,2022-12-15,ハマヤコネクト合同会社,,合同会社,鳥取県,東伯郡湯梨浜町,大字門田１２７１番地４０,,31,370,6890736,,,,,,,2022-12-15,1,,,,,ハマヤコネクト,0
500,2280003001676,新規,0,2022-12-15,2022-12-15,合同会社隠岐ゆらぎ,,合同会社,島根県,隠岐郡隠岐の島町,中町目貫の四９の６,,32,528,6850013,,,,,,,2022-12-15,1,,,,,オキユラギ,0
504,2290001099885,新規,0,2022-12-15,2022-12-15,株式会社Ｌ．Ｓ．Ｅ,,株式会社,福岡県,福岡市中央区,天神４丁目６－２８天神ファーストビル７階,,40,133,8100001,,,,,,,2022-12-15,1,,,,,エルエスイー,0
507,2290003013316,新規,0,2022-12-15,2022-12-15,合同会社ＬａＬａ,,合同会社,福岡県,久留米市,津福本町５０５番地,,40,203,8300047,,,,,,,2022-12-15,1,,,,,ララ,0
508,2290005018874,新規,0,2022-12-15,2022-12-15,特定非営利活動法人くれよん,,その他の設立登記法人,福岡県,久留米市,三潴町田川２２１７－１－２,,40,203,8300102,,,,,,,2022-12-15,1,,,,,クレヨン,0
509,2290801029125,新規,0,2022-12-15,2022-12-15,株式会社Ｂｉａｎｃｏ,,株式会社,福岡県,北九州市小倉南区,高野２丁目５番２１‐１号,,40,107,8030275,,,,,,,2022-12-15,1,,,,,ビアンコ,0
513,2320001019468,新規,0,2022-12-15,2022-12-15,株式会社Ｌｅｉ　Ｃｏｒｐｏｒａｔｉｏｎ,,株式会社,大分県,別府市,大字南石垣１５１８番地の５８７,,44,202,8740000,,,,,,,2022-12-15,1,,,,,レイコーポレーション,0
515,2330003009631,新規,0,2022-12-15,2022-12-15,合同会社ＡＲＫ　ＴＲＡＤＥ,,合同会社,熊本県,熊本市中央区,帯山８丁目５番２９号,,43,101,8620924,,,,,,,2022-12-15,1,,,,,アークトレード,0
517,2360001031320,新規,0,2022-12-15,2022-12-15,わくわく株式会社,,株式会社,沖縄県,うるま市,みどり町５丁目１０番８号,,47,213,9042215,,,,,,,2022-12-15,1,,,,,ワクワク,0
518,2360003012558,新規,0,2022-12-15,2022-12-15,合同会社ＫＵＫＵＮＡ,,合同会社,沖縄県,沖縄市,古謝津嘉山町３９番８号Ｄテラス１０３,,47,211,9042166,,,,,,,2022-12-15,1,,,,,ククナ,0
525,2370001049378,新規,0,2022-12-15,2022-12-15,株式会社吉田運送,,株式会社,宮城県,本吉郡南三陸町,歌津字吉野沢１０５番地５４,,04,606,9880455,,,,,,,2022-12-15,1,,,,,ヨシダウンソウ,0
528,2380003005345,新規,0,2022-12-15,2022-12-15,ＦＬＵＲ合同会社,,合同会社,福島県,白河市,中町６５楽蔵２階,,07,205,9610951,,,,,,,2022-12-15,1,,,,,フラー,0
530,2400001016085,新規,0,2022-12-15,2022-12-15,株式会社Ｌｅｅｆ,,株式会社,岩手県,滝沢市,鵜飼笹森１７１番地,,03,216,0200664,,,,,,,2022-12-15,1,,,,,リーフ,0
531,2420001018096,新規,0,2022-12-15,2022-12-15,株式会社五番街,,株式会社,青森県,青森市,東大野１丁目２１番地９,,02,201,0300847,,,,,,,2022-12-15,1,,,,,ゴバンガイ,0
540,2480001011946,新規,0,2022-12-15,2022-12-15,株式会社ワークホース,,株式会社,徳島県,徳島市,南佐古七番町８番３０号第二辻マンション２０３号室,,36,201,7700037,,,,,,,2022-12-15,1,,,,,ワークホース,0
542,2700150066487,新規,0,2022-12-15,2015-10-09,読谷村シルバー人材センター,,その他,沖縄県,中頭郡読谷村,字楚辺２１８７,,47,324,9040304,,,,,,,2015-10-09,1,,,,,ヨミタンソンシルバージンザイセンター,0
553,3010001231549,新規,0,2022-12-15,2022-12-15,株式会社リベルラ,,株式会社,東京都,中央区,銀座８丁目２番１０号銀座誠和シルバービル１０Ｆ－Ｂ,,13,102,1040061,,,,,,,2022-12-15,1,,,,,リベルラ,0
554,3010001231573,新規,0,2022-12-15,2022-12-15,株式会社ＭＯＡ,,株式会社,東京都,千代田区,丸の内１丁目１１番１号,,13,101,1000005,,,,,,,2022-12-15,1,,,,,エムオーエー,0
555,3010001231581,新規,0,2022-12-15,2022-12-15,株式会社請負ワークス,,株式会社,東京都,千代田区,外神田６丁目１５番４号２階・Ａｉｒ－Ｅｒａ,,13,101,1010021,,,,,,,2022-12-15,1,,,,,ウケオイワークス,0
556,3010001231607,新規,0,2022-12-15,2022-12-15,株式会社ワークスマイル,,株式会社,東京都,千代田区,神田神保町１丁目５６番地１神保町ＹＴビル４Ｆ,,13,101,1010051,,,,,,,2022-12-15,1,,,,,ワークスマイル,0
559,3010003039321,新規,0,2022-12-15,2022-12-15,合同会社ｃｏｋｏ,,合同会社,東京都,千代田区,神田猿楽町２丁目５番２号小山ビル２０２号室,,13,101,1010064,,,,,,,2022-12-15,1,,,,,ココ,0
560,3010003039346,新規,0,2022-12-15,2022-12-15,ＫＡＮＩ合同会社,,合同会社,東京都,中央区,京橋１丁目１４－６ガーデニアビル,,13,102,1040031,,,,,,,2022-12-15,1,,,,,カニ,0
565,3010401171304,新規,0,2022-12-15,2022-12-15,株式会社Ｄｉｓｃｏｖｅｒ,,株式会社,東京都,港区,芝２丁目１６－７ＫＴＴビル３階,,13,103,1050014,,,,,,,2022-12-15,1,,,,,ディスカバー,0
572,3010403029137,新規,0,2022-12-15,2022-12-15,Ｄ＆Ｄ合同会社,,合同会社,東京都,港区,北青山３丁目６番７青山パラシオタワー１１階,,13,103,1070061,,,,,,,2022-12-15,1,,,,,ディーアンドディー,0
573,3010403029145,新規,0,2022-12-15,2022-12-15,合同会社Ａｓａｌｌｙｓ,,合同会社,東京都,港区,南青山３丁目１番３６号青山丸竹ビル６Ｆ,,13,103,1070062,,,,,,,2022-12-15,1,,,,,アサリーズ,0
579,3010501049739,新規,0,2022-12-15,2022-12-15,新代建設株式会社,,株式会社,東京都,台東区,橋場１丁目７番３－４０３号レスポワールエフ,,13,106,1110023,,,,,,,2022-12-15,1,,,,,シンダイケンセツ,0
583,3010601062303,新規,0,2022-12-15,2022-12-15,株式会社一颯,,株式会社,東京都,江東区,亀戸７丁目５８－２,,13,108,1360071,,,,,,,2022-12-15,1,,,,,イブキ,0
586,3010603009905,新規,0,2022-12-15,2022-12-15,ＹＦＳ合同会社,,合同会社,東京都,江東区,東陽５丁目２３－６－３１８号,,13,108,1350016,,,,,,,2022-12-15,1,,,,,ワイエフエス,0
588,3010703006505,新規,0,2022-12-15,2022-12-15,２ｅ１合同会社,,合同会社,東京都,品川区,上大崎３丁目１３番２１号－２０１,,13,109,1410021,,,,,,,2022-12-15,1,,,,,ツーイーワン,0
590,3010801033517,新規,0,2022-12-15,2022-12-15,リブレ株式会社,,株式会社,東京都,大田区,上池台５丁目３０番１２号,,13,111,1450064,,,,,,,2022-12-15,1,,,,,リブレ,0
591,3010903007815,新規,0,2022-12-15,2022-12-15,うひょくそ合同会社,,合同会社,東京都,世田谷区,大原１丁目４７―６,,13,112,1560041,,,,,,,2022-12-15,1,,,,,ウヒョクソ,0
592,3010903007848,新規,0,2022-12-15,2022-12-15,エステイトマネジメント合同会社,,合同会社,東京都,世田谷区,岡本１丁目３０－１８,,13,112,1570076,,,,,,,2022-12-15,1,,,,,エステイトマネジメント,0
599,3011001151489,新規,0,2022-12-15,2022-12-15,株式会社ＳＯＭＥＷＨＥＲＥ,,株式会社,東京都,渋谷区,神山町８番２号,,13,113,1500047,,,,,,,2022-12-15,1,,,,,サムウェア,0
600,3011001151530,新規,0,2022-12-15,2022-12-15,ＴＨＩＳ　ＩＳ　ＭＹ株式会社,,株式会社,東京都,渋谷区,渋谷３丁目１３番５号１００７,,13,113,1500002,,,,,,,2022-12-15,1,,,,,ディスイズマイ,0
601,3011003015915,新規,0,2022-12-15,2022-12-15,合同会社ＭＩＵ,,合同会社,東京都,渋谷区,代官山町１３番８号キャッスルマンション代官山５１３号,,13,113,1500034,,,,,,,2022-12-15,1,,,,,ミュウ,0
602,3011003015923,新規,0,2022-12-15,2022-12-15,アットウィルワーク合同会社,,合同会社,東京都,渋谷区,神宮前６丁目２３番４号桑野ビル２階,,13,113,1500001,,,,,,,2022-12-15,1,,,,,アットウィルワーク,0
603,3011101101162,新規,0,2022-12-15,2022-12-15,東京在宅薬局株式会社,,株式会社,東京都,新宿区,下落合４丁目２３番１８号ロングストン落合ビル１階,,13,104,1610033,,,,,,,2022-12-15,1,,,,,トウキョウザイタクヤッキョク,0
606,3011103012498,新規,0,2022-12-15,2022-12-15,合同会社おーくる,,合同会社,東京都,新宿区,西新宿５丁目２５番１３－２０８号,,13,104,1600023,,,,,,,2022-12-15,1,,,,,オークル,0
610,3011401024773,新規,0,2022-12-15,2022-12-15,株式会社ブライトアップ想心,,株式会社,東京都,板橋区,前野町２丁目３３番１８号,,13,119,1740063,,,,,,,2022-12-15,1,,,,,ブライトアップソウシン,0
613,3011601026438,新規,0,2022-12-15,2022-12-15,株式会社ＳＷＯＯＮ,,株式会社,東京都,練馬区,東大泉２丁目１１－１９ウィズダム大泉学園２０１号,,13,120,1780063,,,,,,,2022-12-15,1,,,,,スウーン,0
614,3011603003773,新規,0,2022-12-15,2022-12-15,星引合同会社,,合同会社,東京都,練馬区,関町北５丁目６番７号関町マンション４０１Ｄ,,13,120,1770051,,,,,,,2022-12-15,1,,,,,セイイン,0
615,3011701025868,新規,0,2022-12-15,2022-12-15,株式会社イーゲンテン,,株式会社,東京都,江戸川区,西葛西２丁目２２番２６－４０３号,,13,123,1340088,,,,,,,2022-12-15,1,,,,,イーゲンテン,0
616,3011703003327,新規,0,2022-12-15,2022-12-15,内装オガサワラ合同会社,,合同会社,東京都,江戸川区,中葛西３丁目１１番１３－１０７号中葛西ハイツ,,13,123,1340083,,,,,,,2022-12-15,1,,,,,ナイソウオガサワラ,0
618,3011801041682,新規,0,2022-12-15,2022-12-15,株式会社Ｙ’ｓＭ,,株式会社,東京都,葛飾区,西亀有３丁目２３番４－１０３号,,13,122,1250002,,,,,,,2022-12-15,1,,,,,ワイズモビリティ,0
621,3012801022029,新規,0,2022-12-15,2022-12-15,デジリーチ株式会社,,株式会社,東京都,日野市,旭が丘６丁目１２番地１０,,13,212,1910065,,,,,,,2022-12-15,1,,,,,デジリーチ,0
622,3012803002953,新規,0,2022-12-15,2022-12-15,合同会社ＭＣＲ,,合同会社,東京都,東大和市,上北台２丁目１番地の１９ダイエー上北台ビル４０７,,13,220,2070023,,,,,,,2022-12-15,1,,,,,エムシーアール,0
631,3020001149402,新規,0,2022-12-15,2022-12-15,ＳＴＲＩＶＥＳ株式会社,,株式会社,神奈川県,横浜市泉区,岡津町９１番地１０,,14,116,2450003,,,,,,,2022-12-15,1,,,,,ストライブス,0
632,3020001149427,新規,0,2022-12-15,2022-12-15,ＫＴマーケティング株式会社,,株式会社,神奈川県,横浜市西区,北幸１丁目１１番１号水信ビル７階,,14,103,2200004,,,,,,,2022-12-15,1,,,,,ケーティーマーケティング,0
633,3020001149443,新規,0,2022-12-15,2022-12-15,株式会社新和工業,,株式会社,神奈川県,川崎市多摩区,堰３丁目１７番３－３１３号,,14,135,2140022,,,,,,,2022-12-15,1,,,,,シンワコウギョウ,0
634,3020001149451,新規,0,2022-12-15,2022-12-15,株式会社エイチアール,,株式会社,神奈川県,川崎市麻生区,上麻生５丁目２６番３５号,,14,137,2150021,,,,,,,2022-12-15,1,,,,,エイチアール,0
636,3020003022887,新規,0,2022-12-15,2022-12-15,合同会社ポラリス,,合同会社,神奈川県,川崎市高津区,久本２丁目９番１３－２０２号プライム・コア溝の口,,14,134,2130011,,,,,,,2022-12-15,1,,,,,ポラリス,0
637,3020003022895,新規,0,2022-12-15,2022-12-15,ｗａｙｓ合同会社,,合同会社,神奈川県,川崎市川崎区,観音２丁目６番６号,,14,131,2100831,,,,,,,2022-12-15,1,,,,,ウェイズ,0
638,3020003022904,新規,0,2022-12-15,2022-12-15,合同会社エムテック,,合同会社,神奈川県,川崎市高津区,溝口２丁目１３番２９号アドバンス１０３,,14,134,2130001,,,,,,,2022-12-15,1,,,,,エムテック,0
639,3020003022912,新規,0,2022-12-15,2022-12-15,ＤＡＮ合同会社,,合同会社,神奈川県,川崎市宮前区,宮崎３丁目７－６９アゼリア宮崎台１０２,,14,136,2160033,,,,,,,2022-12-15,1,,,,,タン,0
643,3021001077691,新規,0,2022-12-15,2022-12-15,株式会社ワトナリ,,株式会社,神奈川県,大和市,代官１丁目１－２８大橋ビル３号室,,14,213,2420025,,,,,,,2022-12-15,1,,,,,ワトナリ,0
644,3021001077709,新規,0,2022-12-15,2022-12-15,株式会社藤建,,株式会社,神奈川県,横須賀市,二葉２丁目１０番１４号,,14,201,2390814,,,,,,,2022-12-15,1,,,,,フジケン,0
648,3021003012498,新規,0,2022-12-15,2022-12-15,ＳＨＩＷＡＫＥＹＡ合同会社,,合同会社,神奈川県,横須賀市,桜が丘１丁目５２番地８号,,14,201,2390803,,,,,,,2022-12-15,1,,,,,シワケヤ,0
653,3030001151448,新規,0,2022-12-15,2022-12-15,株式会社ＡＲＡＹＡＳＨＩＫＩ,,株式会社,埼玉県,さいたま市中央区,上落合６丁目７番１－１０６号,,11,105,3380001,,,,,,,2022-12-15,1,,,,,アラヤシキ,0
654,3030001151464,新規,0,2022-12-15,2022-12-15,株式会社ＡＸＩＳ,,株式会社,埼玉県,川口市,並木１丁目５－４,,11,203,3320034,,,,,,,2022-12-15,1,,,,,アクシス,0
655,3030001151472,新規,0,2022-12-15,2022-12-15,株式会社アルバ・コリス,,株式会社,埼玉県,白岡市,新白岡３丁目４１番地ルネ・グランガーデン９１４,,11,246,3490212,,,,,,,2022-12-15,1,,,,,アルバコリス,0
656,3030001151489,新規,0,2022-12-15,2022-12-15,ＭＮＧ人材開発株式会社,,株式会社,埼玉県,川越市,大字砂９２２番地１８青嶋ハイツ２０１号,,11,201,3501133,,,,,,,2022-12-15,1,,,,,エムエヌジージンザイカイハツ,0
657,3030001151497,新規,0,2022-12-15,2022-12-15,カイト工業株式会社,,株式会社,埼玉県,幸手市,北２丁目１９番２８号,,11,240,3400111,,,,,,,2022-12-15,1,,,,,カイトコウギョウ,0
661,3030003020741,新規,0,2022-12-15,2022-12-15,合同会社庄司商事,,合同会社,埼玉県,新座市,野火止６丁目４番２６－１００１号,,11,230,3520011,,,,,,,2022-12-15,1,,,,,ショウジショウジ,0
664,3040001126184,新規,0,2022-12-15,2022-12-15,株式会社Ａｎｏｔｈｅｒ　Ｒｏｕｔｅ,,株式会社,千葉県,千葉市稲毛区,園生町１２２３番地１稲毛パークハウスＡ棟１１１号,,12,103,2630051,,,,,,,2022-12-15,1,,,,,アナザールート,0
665,3040001126218,新規,0,2022-12-15,2022-12-15,七福株式会社,,株式会社,千葉県,成田市,吾妻１丁目２３番地１（ビレッジハウス成田吾妻タワー２１４号）,,12,211,2860018,,,,,,,2022-12-15,1,,,,,シチフク,0
666,3040003021458,新規,0,2022-12-15,2022-12-15,マクハリノハマアート合同会社,,合同会社,千葉県,千葉市美浜区,中瀬１丁目３番地幕張テクノガーデンＣＢ棟３階ＭＢＰ,,12,106,2610023,,,,,,,2022-12-15,1,,,,,マクハリノハマアート,0
667,3040003021482,新規,0,2022-12-15,2022-12-15,合同会社ふくじゅ,,合同会社,千葉県,木更津市,矢那２５０２番地２,,12,206,2920812,,,,,,,2022-12-15,1,,,,,フクジュ,0
670,3050001052108,新規,0,2022-12-15,2022-12-15,ミツハ測量設計株式会社,,株式会社,茨城県,猿島郡境町,２１７６番地３７,,08,546,3060433,,,,,,,2022-12-15,1,,,,,ミツハソクリョウセケイ,0
677,3060003004345,新規,0,2022-12-15,2022-12-15,合同会社若木や,,合同会社,栃木県,真岡市,高田１８３０－２,,09,209,3214511,,,,,,,2022-12-15,1,,,,,ワカキヤ,0
679,3070001039920,新規,0,2022-12-15,2022-12-15,藤金研磨株式会社,,株式会社,群馬県,伊勢崎市,東小保方町３８３７番地６,,10,204,3792234,,,,,,,2022-12-15,1,,,,,フジキンケンマ,0
681,3080101023690,新規,0,2022-12-15,2022-12-15,株式会社ココドラ,,株式会社,静岡県,富士市,中丸８４６番地の１,,22,210,4160933,,,,,,,2022-12-15,1,,,,,ココドラ,0
685,3100001035965,新規,0,2022-12-15,2022-12-15,株式会社ＢＥＬＬＤｅｎｔａｌＬａｂ．,,株式会社,長野県,塩尻市,大字大門９４番地７,,20,215,3990744,,,,,,,2022-12-15,1,,,,,ベルデンタルラボ,0
696,3120001251008,新規,0,2022-12-15,2022-12-15,株式会社ナビコードジャパン,,株式会社,大阪府,大阪市北区,松ケ枝町６番３号,,27,127,5300037,,,,,,,2022-12-15,1,,,,,ナビコードジャパン,0
697,3120001251049,新規,0,2022-12-15,2022-12-15,株式会社Ｄサプライ,,株式会社,大阪府,大阪市西区,南堀江３丁目１７－１３,,27,106,5500015,,,,,,,2022-12-15,1,,,,,ディーサプライ,0
698,3120001251073,新規,0,2022-12-15,2022-12-15,３Ｔｒｅｅｓ株式会社,,株式会社,大阪府,大阪市北区,梅田１丁目１－３大阪駅前第３ビル２９階１－１－１号室,,27,127,5300001,,,,,,,2022-12-15,1,,,,,スリーツリーズ,0
699,3120001251107,新規,0,2022-12-15,2022-12-15,ＳＥＮＷＡ　ＬＯＧＩＳＴＩＣＳ株式会社,,株式会社,大阪府,大阪市中央区,南久宝寺町２丁目３番６号,,27,128,5410058,,,,,,,2022-12-15,1,,,,,センワロジスティクス,0
700,3120001251123,新規,0,2022-12-15,2022-12-15,株式会社Ｃｏｌｏｒ　ｃｒｅａｔｅ,,株式会社,大阪府,大阪市天王寺区,東高津町６－９－６０２,,27,109,5430021,,,,,,,2022-12-15,1,,,,,カラークリエイト,0
703,3120901046861,新規,0,2022-12-15,2022-12-15,エージーエス株式会社,,株式会社,大阪府,高槻市,天王町３０番５号,,27,207,5690088,,,,,,,2022-12-15,1,,,,,エージーエス,0
704,3122001036504,新規,0,2022-12-15,2022-12-15,株式会社新光機材ＭＣ,,株式会社,大阪府,東大阪市,高井田西６丁目１番９号ウインズコート高井田２００号,,27,227,5770067,,,,,,,2022-12-15,1,,,,,シンコウキザイエムシー,0
706,3130001073293,新規,0,2022-12-15,2022-12-15,株式会社翔陽,,株式会社,京都府,南丹市,園部町木崎町中川端１０番地１０,,26,213,6220015,,,,,,,2022-12-15,1,,,,,ショウヨウ,0
714,3140001128311,新規,0,2022-12-15,2022-12-15,株式会社ｔｏｐｐｉ　ｃｏｒｐｏｒａｔｉｏｎ,,株式会社,兵庫県,神戸市兵庫区,上沢通６丁目５番２号,,28,105,6520046,,,,,,,2022-12-15,1,,,,,トッピコーポレーション,0
715,3140001128352,新規,0,2022-12-15,2022-12-15,株式会社ビービーシープ,,株式会社,兵庫県,神戸市東灘区,御影２丁目２番１３号,,28,101,6580047,,,,,,,2022-12-15,1,,,,,ビービーシープ,0
716,3140001128393,新規,0,2022-12-15,2022-12-15,株式会社神戸コンサルティング,,株式会社,兵庫県,神戸市中央区,江戸町１００番地５０２号,,28,110,6500033,,,,,,,2022-12-15,1,,,,,コウベコンサルティング,0
717,3140001128427,新規,0,2022-12-15,2022-12-15,株式会社ミャンマー日本ビジネス協会,,株式会社,兵庫県,神戸市中央区,加納町２丁目８番１０－３０６号,,28,110,6500001,,,,,,,2022-12-15,1,,,,,ミャンマーニホンビジネスキョウカイ,0
718,3140003018436,新規,0,2022-12-15,2022-12-15,藤原農園合同会社,,合同会社,兵庫県,姫路市,香寺町中仁野１１９番地,,28,201,6792143,,,,,,,2022-12-15,1,,,,,フジワラノウエン,0
719,3140003018469,新規,0,2022-12-15,2022-12-15,白鷺インティグレイト合同会社,,合同会社,兵庫県,相生市,若狭野町雨内７３１番地,,28,208,6780081,,,,,,,2022-12-15,1,,,,,シラサギインティグレイト,0
722,3150001026019,新規,0,2022-12-15,2022-12-15,センコートラスト株式会社,,株式会社,奈良県,香芝市,穴虫３２５４番地５,,29,210,6390252,,,,,,,2022-12-15,1,,,,,センコートラスト,0
732,3180001154155,新規,0,2022-12-15,2022-12-15,株式会社Ｔ＆Ｒ,,株式会社,愛知県,清須市,西枇杷島町古城２丁目１８番地２,,23,233,4520001,,,,,,,2022-12-15,1,,,,,ティーアンドアール,0
733,3180001154188,新規,0,2022-12-15,2022-12-15,株式会社ＭＡＩＣＥ,,株式会社,愛知県,名古屋市中村区,名駅３丁目４番１０号アルティメイト名駅１ｓｔ２階,,23,105,4500002,,,,,,,2022-12-15,1,,,,,メイス,0
734,3180001154196,新規,0,2022-12-15,2022-12-15,３１０８０株式会社,,株式会社,愛知県,江南市,北山町西１２２番地２,,23,217,4838157,,,,,,,2022-12-15,1,,,,,サトヤマ,0
736,3180301036904,新規,0,2022-12-15,2022-12-15,株式会社ＬＩＮＫ,,株式会社,愛知県,岡崎市,緑丘１丁目２８番地８,,23,202,4440806,,,,,,,2022-12-15,1,,,,,リンク,0
737,3180305009419,新規,0,2022-12-15,2022-12-15,ＮＰＯ法人ケア＆シンビオシス,,その他の設立登記法人,愛知県,額田郡幸田町,大字坂崎字京ケ峯南１００番地１５０,,23,501,4440104,,,,,,,2022-12-15,1,,,,,ケアアンドシンビオシス,0
739,3190001030025,新規,0,2022-12-15,2022-12-15,株式会社リセナ,,株式会社,三重県,津市,一身田平野１７５番地１,,24,201,5140111,,,,,,,2022-12-15,1,,,,,リセナ,0
742,3200001040773,新規,0,2022-12-15,2022-12-15,アストンデンキ株式会社,,株式会社,岐阜県,岐阜市,東中島２丁目１番９号,,21,201,5008235,,,,,,,2022-12-15,1,,,,,アストンデンキ,0
744,3210003001590,新規,0,2022-12-15,2022-12-15,合同会社ＦＵＴＡＴＡＢＩ,,合同会社,福井県,敦賀市,神楽町１丁目２番２号,,18,202,9140063,,,,,,,2022-12-15,1,,,,,フタタビ,0
747,3220003003413,新規,0,2022-12-15,2022-12-15,合同会社ａｔ‐ｍａｒｋ,,合同会社,石川県,金沢市,畝田東１丁目２３番地３,,17,201,9200344,,,,,,,2022-12-15,1,,,,,アットマーク,0
750,3240001060792,新規,0,2022-12-15,2022-12-15,株式会社プロタゴニストラボラトリー,,株式会社,広島県,広島市佐伯区,石内北２丁目１８番１５号,,34,108,7315109,,,,,,,2022-12-15,1,,,,,プロタゴニストラボラトリー,0
751,3240003005903,新規,0,2022-12-15,2022-12-15,合同会社ｔｒｅｅｅ　ｏｎｅ．,,合同会社,広島県,福山市,赤坂町赤坂２９８番地５,,34,207,7210000,,,,,,,2022-12-15,1,,,,,トゥリーワン,0
752,3240005015495,新規,0,2022-12-15,2022-12-15,東広島市特定地域づくり事業協同組合,,その他の設立登記法人,広島県,東広島市,河内町上河内１４５番地１,,34,212,7392203,,,,,,,2022-12-15,1,,,,,ヒガシヒロシマシトクテイチイキヅクリ,0
762,3290001099876,新規,0,2022-12-15,2022-12-15,株式会社メイドインオホーツク福岡,,株式会社,福岡県,古賀市,花見東６丁目３番１２－２０６号,,40,223,8113112,,,,,,,2022-12-15,1,,,,,メイドインオホーツクフクオカ,0
765,3290801029116,新規,0,2022-12-15,2022-12-15,株式会社トコト,,株式会社,福岡県,北九州市八幡西区,藤田１丁目１番２２号,,40,109,8060022,,,,,,,2022-12-15,1,,,,,トコト,0
766,3290801029124,新規,0,2022-12-15,2022-12-15,西日本リフト・サービス株式会社,,株式会社,福岡県,鞍手郡鞍手町,大字中山１３６番地１,,40,402,8071312,,,,,,,2022-12-15,1,,,,,ニシニホンリフトサービス,0
768,3300001013166,新規,0,2022-12-15,2022-12-15,豊工業株式会社,,株式会社,佐賀県,佐賀市,水ヶ江６丁目１２番３６号,,41,201,8400054,,,,,,,2022-12-15,1,,,,,トヨコウギョウ,0
769,3310001018164,新規,0,2022-12-15,2022-12-15,エレマネクス株式会社,,株式会社,長崎県,長崎市,宝町１２番２号,,42,201,8500045,,,,,,,2022-12-15,1,,,,,エレマネクス,0
771,3310003004492,新規,0,2022-12-15,2022-12-15,合同会社クリスタル・Ｉ,,合同会社,長崎県,長崎市,田中町１３９７番地,,42,201,8510134,,,,,,,2022-12-15,1,,,,,クリスタルアイ,0
777,3330001030407,新規,0,2022-12-15,2022-12-15,株式会社Ｍｍ,,株式会社,熊本県,八代市,古閑上町１５７番地１０聖神館１階,,43,202,8660897,,,,,,,2022-12-15,1,,,,,ミリ,0
779,3330005010594,新規,0,2022-12-15,2022-12-15,ＮＰＯ法人Ｃｏｆｆｅｅ　ａｉｄ２０２１,,その他の設立登記法人,熊本県,熊本市北区,植木町岩野８０２番地３,,43,105,8610136,,,,,,,2022-12-15,1,,,,,コーヒーエイドニーゼロニーイチ,0
787,3370001049377,新規,0,2022-12-15,2022-12-15,株式会社柊建,,株式会社,宮城県,多賀城市,八幡４丁目６番９－２号ネイビーパークＥ,,04,209,9850874,,,,,,,2022-12-15,1,,,,,トウケン,0
790,3370003005915,新規,0,2022-12-15,2022-12-15,合同会社Ｔエステート,,合同会社,宮城県,栗原市,瀬峰下藤沢２２番地５,,04,213,9894512,,,,,,,2022-12-15,1,,,,,ティーエステート,0
791,3370003005923,新規,0,2022-12-15,2022-12-15,合同会社タカヒラ,,合同会社,宮城県,名取市,ゆりが丘２丁目１２番地の５,,04,207,9811245,,,,,,,2022-12-15,1,,,,,タカヒラ,0
795,3380001033330,新規,0,2022-12-15,2022-12-15,株式会社銀河不動産,,株式会社,福島県,福島市,栄町１１番２５号,,07,201,9608031,,,,,,,2022-12-15,1,,,,,ギンガフドウサン,0
798,3390001017101,新規,0,2022-12-15,2022-12-15,設備屋アチーブ株式会社,,株式会社,山形県,鶴岡市,大西町８番３３号,,06,203,9970831,,,,,,,2022-12-15,1,,,,,セツビヤアチーブ,0
799,3400001016084,新規,0,2022-12-15,2022-12-15,株式会社のまど企画,,株式会社,岩手県,一関市,山目町３丁目１０番２０号,,03,209,0210011,,,,,,,2022-12-15,1,,,,,ノマドキカク,0
807,3470001019378,新規,0,2022-12-15,2022-12-15,株式会社石蓮,,株式会社,香川県,高松市,牟礼町牟礼２７６９,,37,201,7610121,,,,,,,2022-12-15,1,,,,,イシレン,0
822,3700150112868,新規,0,2022-12-15,2022-11-14,ラビデンス荒子川公園ＩＩＩ番館管理組合,00128445,その他,愛知県,名古屋市港区,品川町１丁目６３番地の３ラビデンス荒子川公園ＩＩＩ番館,00128446,23,111,4550055,,,,,,,2022-11-14,1,,,,,ラビデンスアラコガワコウエンサンバンカンカンリクミアイ,0
835,4010001231531,新規,0,2022-12-15,2022-12-15,株式会社酪酸エキス販売,,株式会社,東京都,千代田区,神田小川町２丁目２番地,,13,101,1010052,,,,,,,2022-12-15,1,,,,,ラクサンエキスハンバイ,0
836,4010001231556,新規,0,2022-12-15,2022-12-15,株式会社ｓｏｏｎ,,株式会社,東京都,文京区,後楽２丁目３番１３－８０４号,,13,105,1120004,,,,,,,2022-12-15,1,,,,,スーン,0
837,4010001231580,新規,0,2022-12-15,2022-12-15,株式会社ポロロッカ,,株式会社,東京都,文京区,本駒込６丁目１５番９号六義園マンション１階,,13,105,1130021,,,,,,,2022-12-15,1,,,,,ポロロッカ,0
838,4010001231597,新規,0,2022-12-15,2022-12-15,株式会社リヨンソー,,株式会社,東京都,中央区,銀座１丁目１２番４号Ｎ＆ＥＢＬＤ．７階,,13,102,1040061,,,,,,,2022-12-15,1,,,,,リヨンソー,0
839,4010001231647,新規,0,2022-12-15,2022-12-15,日本喜多製薬集団株式会社,,株式会社,東京都,中央区,銀座１丁目２７番８号セントラルビル５Ｆ,,13,102,1040061,,,,,,,2022-12-15,1,,,,,ニホンキタセイヤクシュウダン,0
843,4010003039312,新規,0,2022-12-15,2022-12-15,合同会社Ｌ・Ｏ・Ｃ,,合同会社,東京都,千代田区,霞が関３丁目２番５号,,13,101,1000013,,,,,,,2022-12-15,1,,,,,エルオーシー,0
844,4010003039329,新規,0,2022-12-15,2022-12-15,合同会社ＨＡＧＵＲＵＭＡ,,合同会社,東京都,中央区,銀座１丁目１２番４号,,13,102,1040061,,,,,,,2022-12-15,1,,,,,ハグルマ,0
845,4010101015454,新規,0,2022-12-15,2022-12-15,響屋ＡＵＤＩＯ　ＶＩＳＵＡＬ　ＤＥＳＩＧＮ　ＷＯＲＫＳ株式会社,,株式会社,東京都,八王子市,新町２番５号コスモリード八王子１階,,13,201,1920065,,,,,,,2022-12-15,1,,,,,キョウヤオーディオビジュアルデザインワークス,0
851,4010401171245,新規,0,2022-12-15,2022-12-15,ＣｏａｃｈＨｕｂ株式会社,,株式会社,東京都,港区,虎ノ門１－１０－５ＫＤＸ虎ノ門一丁目ビル１１Ｆ,,13,103,1050000,,,,,,,2022-12-15,1,,,,,コーチハブ,0
860,4010601062310,新規,0,2022-12-15,2022-12-15,株式会社ＮＡＯＬＬＹ,,株式会社,東京都,墨田区,八広２丁目５６番９号アクア２０１号室,,13,107,1310041,,,,,,,2022-12-15,1,,,,,ナオリー,0
865,4010701043607,新規,0,2022-12-15,2022-12-15,株式会社オーケーラインサービス,,株式会社,東京都,品川区,西大井３丁目７番１６号,,13,109,1400015,,,,,,,2022-12-15,1,,,,,オーケーラインサービス,0
877,4010901052143,新規,0,2022-12-15,2022-12-15,はやと３３株式会社,,株式会社,東京都,世田谷区,船橋２丁目１０番７号,,13,112,1560055,,,,,,,2022-12-15,1,,,,,ハヤトサーティスリー,0
878,4010901052168,新規,0,2022-12-15,2022-12-15,株式会社ＣＯＣＯ　ＡＬＴ,,株式会社,東京都,世田谷区,大蔵６丁目５番２７号パルモ大蔵１０１,,13,112,1570074,,,,,,,2022-12-15,1,,,,,ココアルト,0
887,4011001151463,新規,0,2022-12-15,2022-12-15,株式会社渡邉明弘建築設計事務所,,株式会社,東京都,渋谷区,東１丁目２４番１号渋谷イーストレジデンス２０３,,13,113,1500011,,,,,,,2022-12-15,1,,,,,ワタナベアキヒロケンチクセッケイジムショ,0
888,4011001151505,新規,0,2022-12-15,2022-12-15,株式会社Ｔａｎｚａｎｉｔｅ,,株式会社,東京都,目黒区,下目黒１丁目４番７号グリーンハイツ行人坂３０１,,13,110,1530064,,,,,,,2022-12-15,1,,,,,タンザナイト,0
889,4011001151513,新規,0,2022-12-15,2022-12-15,株式会社ＢＵＧ,,株式会社,東京都,渋谷区,神宮前２丁目１３番７号本州ビル３Ａ,,13,113,1500001,,,,,,,2022-12-15,1,,,,,バグ,0
890,4011003015930,新規,0,2022-12-15,2022-12-15,合同会社ＴＩＧＥＲ　Ｃａｐｉｔａｌ　Ｐａｒｔｎｅｒｓ,,合同会社,東京都,目黒区,中目黒１丁目１１番１２号手塚ビル５－Ａ,,13,110,1530061,,,,,,,2022-12-15,1,,,,,タイガーキャピタルパートナーズ,0
895,4011101101186,新規,0,2022-12-15,2022-12-15,株式会社オアソビ,,株式会社,東京都,新宿区,西新宿３丁目３番１３号西新宿水間ビル２階,,13,104,1600023,,,,,,,2022-12-15,1,,,,,オアソビ,0
898,4011103012497,新規,0,2022-12-15,2022-12-15,合同会社ｒｏｎｍｕｕ,,合同会社,東京都,新宿区,大久保１丁目９番１７号寿ビル３Ｆ,,13,104,1690072,,,,,,,2022-12-15,1,,,,,ロンムー,0
901,4011401024772,新規,0,2022-12-15,2022-12-15,Ｇ．Ｈｏｐｅ株式会社,,株式会社,東京都,板橋区,上板橋２丁目５５－４,,13,119,1740076,,,,,,,2022-12-15,1,,,,,ジーホープ,0
903,4011501028756,新規,0,2022-12-15,2022-12-15,舟渡株式会社,,株式会社,東京都,荒川区,東尾久２丁目２番９－２０４号,,13,118,1160012,,,,,,,2022-12-15,1,,,,,フナド,0
904,4011503005398,新規,0,2022-12-15,2022-12-15,ＭＡＲＩＡＭＩＬＩＥ合同会社,,合同会社,東京都,荒川区,東日暮里５丁目４０番２号,,13,118,1160014,,,,,,,2022-12-15,1,,,,,マリアミリー,0
906,4011701025867,新規,0,2022-12-15,2022-12-15,ミルクリア株式会社,,株式会社,東京都,江戸川区,篠崎町６丁目２３番２３号,,13,123,1330061,,,,,,,2022-12-15,1,,,,,ミルクリア,0
907,4011701025875,新規,0,2022-12-15,2022-12-15,株式会社エスエス,,株式会社,東京都,江戸川区,南小岩５丁目８－２４,,13,123,1330056,,,,,,,2022-12-15,1,,,,,エスエス,0
908,4011703003326,新規,0,2022-12-15,2022-12-15,合同会社Ｒプロパティ,,合同会社,東京都,江戸川区,松島３丁目２０番３号,,13,123,1320031,,,,,,,2022-12-15,1,,,,,アールプロパティ,0
910,4011801041681,新規,0,2022-12-15,2022-12-15,株式会社Ｓ＆Ｌトータルケア,,株式会社,東京都,葛飾区,西新小岩１丁目９番７号福島ビル３階,,13,122,1240025,,,,,,,2022-12-15,1,,,,,エスアンドエルトータルケア,0
911,4012701017391,新規,0,2022-12-15,2022-12-15,株式会社ＹＡＳＣＡＬ,,株式会社,東京都,小平市,上水南町３丁目１０番２１号,,13,211,1870021,,,,,,,2022-12-15,1,,,,,ヤスカル,0
936,4020001149418,新規,0,2022-12-15,2022-12-15,アミカルマリン株式会社,,株式会社,神奈川県,横浜市港北区,新吉田東５丁目７６番１５号,,14,109,2230058,,,,,,,2022-12-15,1,,,,,アミカルマリン,0
937,4020001149426,新規,0,2022-12-15,2022-12-15,株式会社ＵＰＬＡＵＳＥ,,株式会社,神奈川県,横浜市中区,桜木町１丁目１０１番地１クロスゲート７階,,14,104,2310062,,,,,,,2022-12-15,1,,,,,アップローズ,0
938,4020001149442,新規,0,2022-12-15,2022-12-15,株式会社ＭＹ産業,,株式会社,神奈川県,横浜市保土ケ谷区,峰沢町２８０番地,,14,106,2400061,,,,,,,2022-12-15,1,,,,,エムワイサンギョウ,0
939,4020001149450,新規,0,2022-12-15,2022-12-15,エムイーＰＬＵＳ横浜株式会社,,株式会社,神奈川県,横浜市瀬谷区,三ツ境１番地９ブルーヘンビル２階,,14,114,2460022,,,,,,,2022-12-15,1,,,,,エムイープラスヨコハマ,0
943,4020003022911,新規,0,2022-12-15,2022-12-15,合同会社ＫＯＤＯＫＵ,,合同会社,神奈川県,横浜市南区,南吉田町２丁目１７番地３５ライオンズマンション吉野町第１１・４０３号室,,14,105,2320012,,,,,,,2022-12-15,1,,,,,コドク,0
948,4021001077699,新規,0,2022-12-15,2022-12-15,株式会社ルーフプロ,,株式会社,神奈川県,藤沢市,湘南台６丁目４１番地１２,,14,205,2520804,,,,,,,2022-12-15,1,,,,,ルーフプロ,0
949,4021001077708,新規,0,2022-12-15,2022-12-15,株式会社ＢＬＯＣＫ　ＰＡＲＴＹ,,株式会社,神奈川県,海老名市,柏ケ谷３９３番地の２０,,14,215,2430402,,,,,,,2022-12-15,1,,,,,ブロックパーティ,0
953,4021003012514,新規,0,2022-12-15,2022-12-15,オフィス遠山合同会社,,合同会社,神奈川県,相模原市南区,相模大野７丁目１１番７エステ・スクエア相模大野駅前１１０４号,,14,153,2520303,,,,,,,2022-12-15,1,,,,,オフィストオヤマ,0
958,4030001151447,新規,0,2022-12-15,2022-12-15,株式会社Ｉ’ｓ,,株式会社,埼玉県,川口市,朝日１丁目４番８－３０７号,,11,203,3320001,,,,,,,2022-12-15,1,,,,,アイヅ,0
959,4030001151455,新規,0,2022-12-15,2022-12-15,株式会社ＭＯＴＯＭＵＲＡ,,株式会社,埼玉県,さいたま市見沼区,大字大谷１３９３番地３,,11,104,3370014,,,,,,,2022-12-15,1,,,,,,0
960,4030001151471,新規,0,2022-12-15,2022-12-15,株式会社ＡＩＺ,,株式会社,埼玉県,行田市,谷郷１丁目１６－２７,,11,206,3610062,,,,,,,2022-12-15,1,,,,,アイズ,0
964,4030003020765,新規,0,2022-12-15,2022-12-15,合同会社キューブルコム,,合同会社,埼玉県,坂戸市,南町２番３号開運ビル５Ｆ,,11,239,3500233,,,,,,,2022-12-15,1,,,,,キューブルコム,0
968,4040001126233,新規,0,2022-12-15,2022-12-15,株式会社ＳａｉＷａｉ,,株式会社,千葉県,市川市,鬼高２丁目９番１３号Ｔａｌｅ　Ｃｏｕｒｔ下総中山１Ｆ,,12,203,2720015,,,,,,,2022-12-15,1,,,,,サイワイ,0
969,4040001126258,新規,0,2022-12-15,2022-12-15,株式会社ＣＨＡＩＮＥ,,株式会社,千葉県,八千代市,勝田台１丁目２９番地,,12,221,2760023,,,,,,,2022-12-15,1,,,,,シェーヌ,0
975,4040003021457,新規,0,2022-12-15,2022-12-15,マイメープル合同会社,,合同会社,千葉県,船橋市,浜町２丁目３－３４－１９０２,,12,204,2730012,,,,,,,2022-12-15,1,,,,,マイメープル,0
976,4040003021481,新規,0,2022-12-15,2022-12-15,合同会社Ｓｈｅａｔｈ,,合同会社,千葉県,市川市,欠真間１丁目１８－２,,12,203,2720142,,,,,,,2022-12-15,1,,,,,シース,0
977,4040003021498,新規,0,2022-12-15,2022-12-15,ＲＥＡＬ　ＭＯＴＯＲＳ　ＪＡＰＡＮ合同会社,,合同会社,千葉県,富里市,十倉８６８番地４６,,12,233,2860212,,,,,,,2022-12-15,1,,,,,リアルモータースジャパン,0
980,4050001052081,新規,0,2022-12-15,2022-12-15,ＤＡＶＯＮＡ株式会社,,株式会社,茨城県,常総市,小保川１６３番地,,08,211,3002703,,,,,,,2022-12-15,1,,,,,ダボナ,0
981,4050001052098,新規,0,2022-12-15,2022-12-15,株式会社ＣＯＬＬＥＣＴ,,株式会社,茨城県,常総市,水海道橋本町３６００番地２,,08,211,3030003,,,,,,,2022-12-15,1,,,,,コレクト,0
982,4050001052107,新規,0,2022-12-15,2022-12-15,株式会社Ｒ・Ｓ・Ｋ,,株式会社,茨城県,守谷市,中央４丁目１２番地１０アルカザールＡ１Ｆ,,08,224,3020115,,,,,,,2022-12-15,1,,,,,アールエスケー,0
984,4050003007091,新規,0,2022-12-15,2022-12-15,合同会社Ｂｕｎｎｙ,,合同会社,茨城県,古河市,茶屋新田４０９番地３０,,08,204,3060051,,,,,,,2022-12-15,1,,,,,バニー,0
986,4070001039928,新規,0,2022-12-15,2022-12-15,株式会社ＣＡＲＲＹＪＡＰＡＮ,,株式会社,群馬県,前橋市,小島田町７１１‐１,,10,201,3792162,,,,,,,2022-12-15,1,,,,,キャリージャパン,0
987,4070003004756,新規,0,2022-12-15,2022-12-15,Ｆａｍｉｔｏｍｍｙ合同会社,,合同会社,群馬県,太田市,粕川町２７２‐１,,10,205,3700421,,,,,,,2022-12-15,1,,,,,ファミトミー,0
990,4080103002709,新規,0,2022-12-15,2022-12-15,朝霧バイオガス合同会社,,合同会社,静岡県,富士宮市,根原字宝山２７,,22,207,4180101,,,,,,,2022-12-15,1,,,,,アサキリバイオガス,0
996,4110005016877,新規,0,2022-12-15,2022-12-15,特定非営利活動法人はだしプロジェクト推進協会,,その他の設立登記法人,新潟県,柏崎市,希望が丘２番７－３０５,,15,205,9450815,,,,,,,2022-12-15,1,,,,,ハダシプロジェクトスイシンキョウカイ,0
1003,4120001251023,新規,0,2022-12-15,2022-12-15,株式会社１０ＳＱＵＡＲＥ,,株式会社,大阪府,大阪市中央区,安土町２丁目３番１３号大阪国際ビルディング３１階,,27,128,5410052,,,,,,,2022-12-15,1,,,,,テンスクエア,0
1004,4120001251031,新規,0,2022-12-15,2022-12-15,株式会社ソエル,,株式会社,大阪府,大阪市中央区,南本町２丁目３番１２号ＥＤＧＥ本町,,27,128,5410054,,,,,,,2022-12-15,1,,,,,ソエル,0
1005,4120001251048,新規,0,2022-12-15,2022-12-15,株式会社Ｌ‐ＢＬＡＳＴ,,株式会社,大阪府,守口市,大日町３丁目６番２２－１０３号,,27,209,5700003,,,,,,,2022-12-15,1,,,,,エルブラスト,0
1006,4120001251056,新規,0,2022-12-15,2022-12-15,株式会社Ｒｉｃｏｅｕｒ,,株式会社,大阪府,大阪市住吉区,苅田３丁目６番３－４０１号,,27,120,5580011,,,,,,,2022-12-15,1,,,,,リクール,0
1007,4120001251080,新規,0,2022-12-15,2022-12-15,孚惠元吉株式会社,,株式会社,大阪府,大阪市生野区,中川４丁目２番４－２０１号,,27,116,5440005,,,,,,,2022-12-15,1,,,,,フエゲンキ,0
1008,4120001251097,新規,0,2022-12-15,2022-12-15,株式会社ヘッドウェイ,,株式会社,大阪府,大阪市西淀川区,姫島６丁目４－２５,,27,113,5550033,,,,,,,2022-12-15,1,,,,,ヘッドウェイ,0
1012,4120101066651,新規,0,2022-12-15,2022-12-15,株式会社ＦＵＫＵ　ＷＡＬＬ,,株式会社,大阪府,和泉市,富秋町２丁目１２番２７号,,27,219,5940082,,,,,,,2022-12-15,1,,,,,フクウォール,0
1017,4120901046877,新規,0,2022-12-15,2022-12-15,株式会社アイシステム,,株式会社,大阪府,高槻市,栄町２丁目５番８号,,27,207,5690825,,,,,,,2022-12-15,1,,,,,アイシステム,0
1019,4120905006398,新規,0,2022-12-15,2022-12-15,一般社団法人複素幾何学とＬｉｅ群・数学研究助成会,,その他の設立登記法人,大阪府,吹田市,青山台２丁目４番１号レーベン千里青山台ＧＲＡＮＨＩＧＨ８０６,,27,205,5650875,,,,,,,2022-12-15,1,,,,,フクソキカガクトリーグンスウガクケンキュウジョセイカイ,0
1026,4130001073284,新規,0,2022-12-15,2022-12-15,ｗａｔａｓｈｉ株式会社,,株式会社,京都府,京都市山科区,西野山中鳥井町１３２番地４１号,,26,110,6078306,,,,,,,2022-12-15,1,,,,,ワタシ,0
1027,4130001073292,新規,0,2022-12-15,2022-12-15,川見設備株式会社,,株式会社,京都府,南丹市,八木町氷所河原２番地,,26,213,6290121,,,,,,,2022-12-15,1,,,,,カワミセツビ,0
1030,4140001128368,新規,0,2022-12-15,2022-12-15,株式会社結架職,,株式会社,兵庫県,尼崎市,塚口本町３丁目３２番２０号ロイヤルハイツつかしん５０７号室,,28,202,6610001,,,,,,,2022-12-15,1,,,,,ユカシ,0
1031,4140001128384,新規,0,2022-12-15,2022-12-15,株式会社ゼイリーシャーリー,,株式会社,兵庫県,神戸市中央区,加納町２丁目１１番６号,,28,110,6500001,,,,,,,2022-12-15,1,,,,,ゼイリーシャーリー,0
1032,4140001128434,新規,0,2022-12-15,2022-12-15,株式会社７１７,,株式会社,兵庫県,西宮市,松籟荘４番３号,,28,204,6620822,,,,,,,2022-12-15,1,,,,,ナナイチナナ,0
1033,4140001128442,新規,0,2022-12-15,2022-12-15,株式会社ＬＩＭ,,株式会社,兵庫県,神戸市中央区,多聞通２丁目１－１０－６０４,,28,110,6500015,,,,,,,2022-12-15,1,,,,,リム,0
1034,4140001128459,新規,0,2022-12-15,2022-12-15,株式会社オールスタート,,株式会社,兵庫県,加古川市,平岡町高畑１５１番地の５,,28,210,6750103,,,,,,,2022-12-15,1,,,,,オールスタート,0
1037,4140003018484,新規,0,2022-12-15,2022-12-15,合同会社てらす,,合同会社,兵庫県,宝塚市,安倉中５丁目２番３３号,,28,214,6650822,,,,,,,2022-12-15,1,,,,,テラス,0
1040,4150001026018,新規,0,2022-12-15,2022-12-15,株式会社Ｔｒｅｅ．ｎｏｔｅ,,株式会社,奈良県,大和高田市,南今里町９番６号,,29,202,6350033,,,,,,,2022-12-15,1,,,,,ツリーノート,0
1050,4180001154170,新規,0,2022-12-15,2022-12-15,中村家総本家株式会社,,株式会社,愛知県,名古屋市南区,内田橋１丁目２６番１１号,,23,112,4570862,,,,,,,2022-12-15,1,,,,,ナカムラヤソウホンケ,0
1051,4180001154179,新規,0,2022-12-15,2022-12-15,株式会社ＲａｉｎｂｏｗＴＩＶＥ,,株式会社,愛知県,名古屋市緑区,桶狭間神明６０１番地の４,,23,114,4580919,,,,,,,2022-12-15,1,,,,,レインボーティブ,0
1052,4180001154195,新規,0,2022-12-15,2022-12-15,株式会社国際サービス,,株式会社,愛知県,名古屋市緑区,大高町字南大高畑６０番地の１,,23,114,4598001,,,,,,,2022-12-15,1,,,,,コクサイサービス,0
1053,4180001154245,新規,0,2022-12-15,2022-12-15,株式会社テクノトラスト,,株式会社,愛知県,名古屋市天白区,中平１丁目４０３番地アルバックス原ブライトレジデンス２０３号,,23,116,4680014,,,,,,,2022-12-15,1,,,,,テクノトラスト,0
1055,4180301036903,新規,0,2022-12-15,2022-12-15,株式会社池田銘鈑製作社,,株式会社,愛知県,西尾市,上道目記町上市場１８番地,,23,213,4450882,,,,,,,2022-12-15,1,,,,,イケダメイバンセイサクシャ,0
1057,4190001030024,新規,0,2022-12-15,2022-12-15,株式会社Ａｔｅｌｉｅｒ　ＫＵ,,株式会社,三重県,三重郡川越町,大字北福崎７４番地１１,,24,344,5108125,,,,,,,2022-12-15,1,,,,,アトリエクウ,0
1058,4190001030032,新規,0,2022-12-15,2022-12-15,株式会社神亜,00128816,株式会社,三重県,亀山市,布気町１４４番地１３,,24,210,5190166,,,,,,,2022-12-15,1,,,,,コウア,0
1070,4240001060809,新規,0,2022-12-15,2022-12-15,株式会社ａｎｄ．Ｗ,,株式会社,広島県,福山市,霞町１丁目９番７号,,34,207,7200812,,,,,,,2022-12-15,1,,,,,アンドダブル,0
1074,4250001019886,新規,0,2022-12-15,2022-12-15,ＯＫＩＭＯＴＯ株式会社,,株式会社,山口県,山口市,小郡令和１丁目１番１号,,35,203,7540041,,,,,,,2022-12-15,1,,,,,オキモト,0
1077,4260005011178,新規,0,2022-12-15,2022-12-15,医療法人社団Ｍ３,,その他の設立登記法人,岡山県,玉野市,玉原２丁目６番８号,,33,204,7060014,,,,,,,2022-12-15,1,,,,,エムスリー,0
1087,4290003013280,新規,0,2022-12-15,2022-12-15,合同会社Ｇｏｈ,,合同会社,福岡県,福岡市博多区,住吉１丁目４番１７号,,40,132,8120018,,,,,,,2022-12-15,1,,,,,ゴウ,0
1088,4290003013314,新規,0,2022-12-15,2022-12-15,合同会社Ｌａｇｏｍ．８,,合同会社,福岡県,春日市,春日原北町２丁目２０番地１７サンリヤン春日原北町５０２号,,40,218,8160802,,,,,,,2022-12-15,1,,,,,ラゴムオッタ,0
1091,4290005018872,新規,0,2022-12-15,2022-12-15,一般社団法人ＧＧＢＣ,,その他の設立登記法人,福岡県,福岡市博多区,上川端町１１番８号４Ｆ,,40,132,8120026,,,,,,,2022-12-15,1,,,,,ジージービーシー,0
1093,4290801029123,新規,0,2022-12-15,2022-12-15,株式会社セリノＶｉｓｉｏｎ,,株式会社,福岡県,北九州市小倉北区,足立３丁目１番４６‐１４０１号,,40,106,8020042,,,,,,,2022-12-15,1,,,,,セリノヴィジョン,0
1096,4330001030406,新規,0,2022-12-15,2022-12-15,株式会社未来開発,,株式会社,熊本県,宇城市,小川町南小川１２６３番地２,,43,213,8690614,,,,,,,2022-12-15,1,,,,,ミライカイハツ,0
1102,4360003012531,新規,0,2022-12-15,2022-12-15,合同会社大電工,,合同会社,沖縄県,宜野湾市,真志喜２丁目２番１９－５０１号,,47,205,9012224,,,,,,,2022-12-15,1,,,,,ダイデンコウ,0
1103,4360003012548,新規,0,2022-12-15,2022-12-15,合同会社ＦＩＲＥ,,合同会社,沖縄県,南城市,知念字知念３２７―２,,47,215,9011513,,,,,,,2022-12-15,1,,,,,ファイヤー,0
1104,4360003012564,新規,0,2022-12-15,2022-12-15,合同会社ＴＳＺ,,合同会社,沖縄県,島尻郡南風原町,字新川９７番地６ＤＳパティオ１０２号,,47,350,9011105,,,,,,,2022-12-15,1,,,,,ティエスゼット,0
1110,4380001033338,新規,0,2022-12-15,2022-12-15,株式会社Ｋｏｋａｇｅ,,株式会社,福島県,田村市,都路町古道字芹ヶ沢６８番地２５,,07,211,9634701,,,,,,,2022-12-15,1,,,,,コカゲ,0
1119,4400001016083,新規,0,2022-12-15,2022-12-15,株式会社蓮海工業,,株式会社,岩手県,奥州市,水沢字川端２３番地１グリーンハイツたかはし５号棟,,03,215,0230863,,,,,,,2022-12-15,1,,,,,ハスミコウギョウ,0
1122,4410001013344,新規,0,2022-12-15,2022-12-15,株式会社グリンピース,,株式会社,秋田県,仙北郡美郷町,畑屋字前田９３番地１,,05,434,0191531,,,,,,,2022-12-15,1,,,,,グリンピース,0
1125,4430001088038,新規,0,2022-12-15,2022-12-15,株式会社ＷＨＹアセットマネジメント,,株式会社,北海道,札幌市北区,北十八条西４丁目１－１４　１８ＨＴビル４Ｆ,,01,102,0010018,,,,,,,2022-12-15,1,,,,,ホワイアセットマネジメント,0
1127,4430003014545,新規,0,2022-12-15,2022-12-15,合同会社ユカワオフィス,,合同会社,北海道,札幌市中央区,南十七条西９丁目２‐２３‐２０６,,01,101,0640917,,,,,,,2022-12-15,1,,,,,ユカワオフィス,0
1128,4430003014553,新規,0,2022-12-15,2022-12-15,合同会社ｖｅｃ,,合同会社,北海道,札幌市豊平区,平岸二条１丁目７番３６－１０５号,,01,105,0620932,,,,,,,2022-12-15,1,,,,,ベック,0
1131,4470001019377,新規,0,2022-12-15,2022-12-15,株式会社まるさぽ,,株式会社,香川県,丸亀市,飯山町東小川１１７５番地１,,37,202,7620085,,,,,,,2022-12-15,1,,,,,マルサポ,0
1135,4700150037998,新規,0,2022-12-15,2015-10-09,鮫川村農産物加工・直売所運営協議会,,その他,福島県,東白川郡鮫川村,大字赤坂中野字巡ヶ作１１６,,07,484,9638401,,,,,,,2015-10-09,1,,,,,サメガワムラノウサンブツカコウチヨクバイジヨウンエイキヨウギカイ,0
1136,4700150112925,新規,0,2022-12-15,2022-11-15,ライフステージメンタル音楽家協会,,その他,東京都,三鷹市,中原２丁目１８－３,,13,204,1810005,,,,,,,2022-11-15,1,,,,,ライフステージメンタルオンガクカキヨウカイ,0
1138,5010001231539,新規,0,2022-12-15,2022-12-15,インプログレス株式会社,,株式会社,東京都,中央区,銀座１丁目１２番４号Ｎ＆ＥＢＬＤ．６Ｆ,,13,102,1040061,,,,,,,2022-12-15,1,,,,,インプログレス,0
1139,5010001231555,新規,0,2022-12-15,2022-12-15,株式会社Ｂｒｉｌｌｉａｎｔ　Ａｒｒｏｗ,,株式会社,東京都,中央区,銀座７丁目１５番８号タウンハイツ銀座４０６,,13,102,1040061,,,,,,,2022-12-15,1,,,,,ブリリアントアロウ,0
1140,5010001231563,新規,0,2022-12-15,2022-12-15,株式会社ＫＥＮ,,株式会社,東京都,千代田区,神田猿楽町２丁目５番８号,,13,101,1010064,,,,,,,2022-12-15,1,,,,,ケン,0
1141,5010001231571,新規,0,2022-12-15,2022-12-15,株式会社ＦｒｅｅＤホールディングス,,株式会社,東京都,千代田区,平河町１丁目３番６号ＢＩＺＭＡＲＫＳ麹町３Ｆ,,13,101,1020093,,,,,,,2022-12-15,1,,,,,フリードホールディングス,0
1142,5010001231588,新規,0,2022-12-15,2022-12-15,ＭＩＥＬＵ‐ＣＡ株式会社,,株式会社,東京都,中央区,銀座１丁目３番３号Ｇ１ビル７階,,13,102,1040061,,,,,,,2022-12-15,1,,,,,ミエルカ,0
1145,5010003039303,新規,0,2022-12-15,2022-12-15,合同会社ＲＦコンサルティング,,合同会社,東京都,中央区,湊２丁目１１－１シティタワー銀座東ＳＯＨＯ４２１,,13,102,1040043,,,,,,,2022-12-15,1,,,,,アールエフコンサルティング,0
1146,5010003039311,新規,0,2022-12-15,2022-12-15,デベロップ１合同会社,,合同会社,東京都,中央区,日本橋兜町１９番５号,,13,102,1030026,,,,,,,2022-12-15,1,,,,,デベロップワン,0
1147,5010003039336,新規,0,2022-12-15,2022-12-15,Ａｓｕｋａ＆Ｃｏ．合同会社,,合同会社,東京都,中央区,湊２丁目１１番１－１９０５号,,13,102,1040043,,,,,,,2022-12-15,1,,,,,アスカアンドコー,0
1159,5010501049753,新規,0,2022-12-15,2022-12-15,株式会社トライアングル,,株式会社,東京都,台東区,東上野１丁目８－１,,13,106,1100015,,,,,,,2022-12-15,1,,,,,トライアングル,0
1162,5010505003368,新規,0,2022-12-15,2022-12-15,一般社団法人中小企業サイバーセキュリティ支援協会,,その他の設立登記法人,東京都,台東区,上野３丁目１３番９号珠和ビル２階２０１号,,13,106,1100005,,,,,,,2022-12-15,1,,,,,チュウショウキギョウサイバーセキュリティシエンキョウカイ,0
1167,5010701043606,新規,0,2022-12-15,2022-12-15,エム・アイ総研株式会社,,株式会社,東京都,品川区,大井７丁目２番１号,,13,109,1400014,,,,,,,2022-12-15,1,,,,,エムアイソウケン,0
1168,5010801033523,新規,0,2022-12-15,2022-12-15,株式会社Ｐａｎｄａ　ｆａｃｔｏｒｙ,,株式会社,東京都,大田区,田園調布２丁目２０番１２号,,13,111,1450071,,,,,,,2022-12-15,1,,,,,パンダファクトリー,0
1177,5011001151479,新規,0,2022-12-15,2022-12-15,株式会社メディコム事業統合準備会社,,株式会社,東京都,渋谷区,渋谷３丁目２５番１８号,,13,113,1500002,,,,,,,2022-12-15,1,,,,,メディコムジギョウトウゴウジュンビガイシャ,0
1180,5011101101169,新規,0,2022-12-15,2022-12-15,株式会社Ｒｅｔｒａｔｅｇｙ　ｃｏｎｓｕｌｔｉｎｇ＆ｓｔａｃｋｓ,,株式会社,東京都,新宿区,新宿７丁目２０番６号大久保マンション１Ｆ,,13,104,1600022,,,,,,,2022-12-15,1,,,,,リトラテジーコンサルティングアンドスタックス,0
1181,5011101101177,新規,0,2022-12-15,2022-12-15,株式会社トレンド,,株式会社,東京都,新宿区,富久町１６番８号新宿ユニオンビル４０１,,13,104,1620067,,,,,,,2022-12-15,1,,,,,トレンド,0
1182,5011101101185,新規,0,2022-12-15,2022-12-15,Ｇｌｏｂａｌ　Ｖａｓｃｕｌａｒ株式会社,,株式会社,東京都,新宿区,市谷田町３丁目８番市ヶ谷科学技術イノベーションセンタービル２Ｆ,,13,104,1620843,,,,,,,2022-12-15,1,,,,,グローバルバスキュラー,0
1183,5011103012496,新規,0,2022-12-15,2022-12-15,合同会社ＬＩＮＧＵＡＲＥ,,合同会社,東京都,新宿区,下落合２丁目１８番６号,,13,104,1610033,,,,,,,2022-12-15,1,,,,,リングアーレ,0
1184,5011105010473,新規,0,2022-12-15,2022-12-15,一般社団法人ゼロイチ,,その他の設立登記法人,東京都,新宿区,西新宿３丁目３番１３号西新宿水間ビル２Ｆ,,13,104,1600023,,,,,,,2022-12-15,1,,,,,ゼロイチ,0
1187,5011501028755,新規,0,2022-12-15,2022-12-15,株式会社ＣＲＯＷＮ,,株式会社,東京都,北区,赤羽１丁目５番４号新丸久ビル４階,,13,117,1150045,,,,,,,2022-12-15,1,,,,,クラウン,0
1188,5011501028763,新規,0,2022-12-15,2022-12-15,往来株式会社,,株式会社,東京都,荒川区,町屋３丁目２７番１２号大一ビル,,13,118,1160001,,,,,,,2022-12-15,1,,,,,オウライ,0
1189,5011503005397,新規,0,2022-12-15,2022-12-15,合同会社Ｅ２Ｋ,,合同会社,東京都,荒川区,東尾久２丁目１３番５号,,13,118,1160012,,,,,,,2022-12-15,1,,,,,イーツーケー,0
1190,5011601026436,新規,0,2022-12-15,2022-12-15,株式会社リアート,,株式会社,東京都,練馬区,貫井１丁目２２－４,,13,120,1760021,,,,,,,2022-12-15,1,,,,,リアート,0
1193,5011701025866,新規,0,2022-12-15,2022-12-15,株式会社ｉｔｏｅｔｉｍｏ,,株式会社,東京都,江戸川区,船堀２丁目１６番１７号,,13,123,1340091,,,,,,,2022-12-15,1,,,,,イトエイモ,0
1195,5011703003325,新規,0,2022-12-15,2022-12-15,合同会社フィオーレ,,合同会社,東京都,江戸川区,平井４丁目６番２号,,13,123,1320035,,,,,,,2022-12-15,1,,,,,フィオーレ,0
1204,5012801022019,新規,0,2022-12-15,2022-12-15,株式会社ＭＢＳ,,株式会社,東京都,国立市,西１丁目８番地の３４メゾンハギワラ２０１,,13,215,1860005,,,,,,,2022-12-15,1,,,,,エムビーエス,0
1208,5013301050071,新規,0,2022-12-15,2022-12-15,株式会社Ｈｅｘａ,,株式会社,東京都,豊島区,池袋本町３丁目７番３１号アメトリンイケブクロ２０３号,,13,116,1700011,,,,,,,2022-12-15,1,,,,,ヘキサ,0
1215,5020001149391,新規,0,2022-12-15,2022-12-15,株式会社ＣＯＣＯＮ,,株式会社,神奈川県,川崎市中原区,下小田中６丁目８番１４号,,14,133,2110041,,,,,,,2022-12-15,1,,,,,ココン,0
1216,5020001149400,新規,0,2022-12-15,2022-12-15,株式会社ｆｅｌｉｃｅ,,株式会社,神奈川県,横浜市港北区,綱島西２丁目９番５－８０４号,,14,109,2230053,,,,,,,2022-12-15,1,,,,,フェリーチェ,0
1217,5020001149409,新規,0,2022-12-15,2022-12-15,株式会社Ｎｅｕｔｒａｌ　Ａｒｋ,,株式会社,神奈川県,横浜市青葉区,荏田町１５１番地４,,14,117,2250013,,,,,,,2022-12-15,1,,,,,ニュートラルアーク,0
1218,5020001149417,新規,0,2022-12-15,2022-12-15,オクト株式会社,,株式会社,神奈川県,横浜市西区,高島２丁目６番３２号,,14,103,2200011,,,,,,,2022-12-15,1,,,,,オクト,0
1219,5020001149433,新規,0,2022-12-15,2022-12-15,株式会社ＴＥＭＣＯ,,株式会社,神奈川県,横浜市都筑区,池辺町３８４３番地,,14,118,2240053,,,,,,,2022-12-15,1,,,,,テムコ,0
1220,5020003022902,新規,0,2022-12-15,2022-12-15,合同会社エナジー,,合同会社,神奈川県,横浜市港北区,篠原東２丁目１８番９号パークヒルズ篠原１Ｆ,,14,109,2220022,,,,,,,2022-12-15,1,,,,,エナジー,0
1223,5021001077723,新規,0,2022-12-15,2022-12-15,株式会社ＴＲＹ,,株式会社,神奈川県,座間市,立野台２丁目１２番３－１号,,14,216,2520023,,,,,,,2022-12-15,1,,,,,トライ,0
1225,5021005012692,新規,0,2022-12-15,2022-12-15,医療法人社団爽心会,,その他の設立登記法人,神奈川県,藤沢市,亀井野２丁目７番地の１,,14,205,2520813,,,,,,,2022-12-15,1,,,,,ソウシンカイ,0
1237,5030001151438,新規,0,2022-12-15,2022-12-15,株式会社コスメトゥモロー,,株式会社,埼玉県,さいたま市大宮区,桜木町２丁目５４４番地,,11,103,3300854,,,,,,,2022-12-15,1,,,,,コスメトゥモロー,0
1238,5030001151454,新規,0,2022-12-15,2022-12-15,株式会社ツヅリズム,,株式会社,埼玉県,所沢市,松葉町１番２号青柳ビル３階,,11,208,3590044,,,,,,,2022-12-15,1,,,,,ツヅリズム,0
1239,5030001151470,新規,0,2022-12-15,2022-12-15,株式会社ＭＡＣセキュリティー,,株式会社,埼玉県,春日部市,梅田本町２丁目１７－１清水ビル４階,,11,214,3440053,,,,,,,2022-12-15,1,,,,,マックセキュリティー,0
1240,5030001151479,新規,0,2022-12-15,2022-12-15,株式会社ｌｏｎ．,,株式会社,埼玉県,さいたま市大宮区,吉敷町１丁目９９番地５ウェリス大宮１２０３号室,,11,103,3300843,,,,,,,2022-12-15,1,,,,,ロン,0
1241,5030001151495,新規,0,2022-12-15,2022-12-15,株式会社フィットチャージ,,株式会社,埼玉県,北本市,東間３丁目４１番地,,11,233,3640007,,,,,,,2022-12-15,1,,,,,フィットチャージ,0
1245,5030003020748,新規,0,2022-12-15,2022-12-15,合同会社Ｌ．Ｉ．Ａ,,合同会社,埼玉県,上尾市,大字上４５２番地７,,11,219,3620001,,,,,,,2022-12-15,1,,,,,ライア,0
1251,5040001126190,新規,0,2022-12-15,2022-12-15,株式会社Ｐａｎｄｏｒａ’ｓ　ｂｏｘ,,株式会社,千葉県,柏市,柏６丁目４番２４号,,12,217,2770005,,,,,,,2022-12-15,1,,,,,パンドラボックス,0
1252,5040001126232,新規,0,2022-12-15,2022-12-15,株式会社Ｓ‐Ｓｔｙｌｅ,,株式会社,千葉県,船橋市,習志野台４丁目７５番１８－５０２号,,12,204,2740063,,,,,,,2022-12-15,1,,,,,エススタイル,0
1253,5040001126240,新規,0,2022-12-15,2022-12-15,株式会社ＬＩＭ,,株式会社,千葉県,松戸市,古ケ崎８８水神ビル１０６,,12,207,2710068,,,,,,,2022-12-15,1,,,,,エルアイエム,0
1254,5040001126249,新規,0,2022-12-15,2022-12-15,株式会社野田プランニング,,株式会社,千葉県,野田市,尾崎１５番地の２０,,12,208,2700235,,,,,,,2022-12-15,1,,,,,ノダプランニング,0
1255,5040001126257,新規,0,2022-12-15,2022-12-15,株式会社濱田農場,00128806,株式会社,千葉県,鎌ケ谷市,初富１５６番地,,12,224,2730121,,,,,,,2022-12-15,1,,,,,ハマダノウジョウ,0
1260,5040003021480,新規,0,2022-12-15,2022-12-15,合同会社ＫＹＳ,,合同会社,千葉県,船橋市,坪井西１丁目３番１７号,,12,204,2740069,,,,,,,2022-12-15,1,,,,,ケーワイエス,0
1261,5040003021489,新規,0,2022-12-15,2022-12-15,合同会社ホワイトビーチ,,合同会社,千葉県,八街市,八街い２５１番地８,,12,230,2891143,,,,,,,2022-12-15,1,,,,,ホワイトビーチ,0
1262,5040003021506,新規,0,2022-12-15,2022-12-15,合同会社イエローカード,,合同会社,千葉県,千葉市花見川区,幕張町５丁目４１７番地１６,,12,102,2620032,,,,,,,2022-12-15,1,,,,,イエローカード,0
1269,5050001052114,新規,0,2022-12-15,2022-12-15,株式会社長島電気サービス,,株式会社,茨城県,石岡市,下林２４４８番地６２８,,08,205,3150131,,,,,,,2022-12-15,1,,,,,ナガシマデンキサービス,0
1272,5070001039910,新規,0,2022-12-15,2022-12-15,株式会社ＷＯＯＤＢＡＳＥ,,株式会社,群馬県,太田市,泉町１５０６番地２,,10,205,3730845,,,,,,,2022-12-15,1,,,,,ウッドベース,0
1273,5070001039927,新規,0,2022-12-15,2022-12-15,株式会社タイムレスポイント,,株式会社,群馬県,高崎市,石原町１７５３番地１８,,10,202,3700864,,,,,,,2022-12-15,1,,,,,タイムレスポイント,0
1274,5070003004755,新規,0,2022-12-15,2022-12-15,アールセージ合同会社,,合同会社,群馬県,伊勢崎市,宮古町３３３番地１,,10,204,3720803,,,,,,,2022-12-15,1,,,,,アールセージ,0
1275,5080005007499,新規,0,2022-12-15,2022-12-15,特定非営利活動法人ＨＥＬＰＳ,,その他の設立登記法人,静岡県,藤枝市,下藪田３９５番地の１０,,22,214,4260201,,,,,,,2022-12-15,1,,,,,ヘルプス,0
1276,5080101023689,新規,0,2022-12-15,2022-12-15,福楽株式会社,,株式会社,静岡県,田方郡函南町,大土肥１８９番地の１,,22,325,4190113,,,,,,,2022-12-15,1,,,,,フクラク,0
1281,5100001035963,新規,0,2022-12-15,2022-12-15,株式会社ｆｅｗｔ,,株式会社,長野県,諏訪郡富士見町,富士見３７８５番地３富士見森のオフィス,,20,362,3990211,,,,,,,2022-12-15,1,,,,,フュート,0
1292,5120001250998,新規,0,2022-12-15,2022-12-15,莫馬株式会社,,株式会社,大阪府,大阪市中央区,松屋町９番２０号ローレルステート松屋町１４０５Ａ,,27,128,5420067,,,,,,,2022-12-15,1,,,,,バクバ,0
1293,5120001251006,新規,0,2022-12-15,2022-12-15,ＡＴＯＭ株式会社,,株式会社,大阪府,大阪市東住吉区,今川６丁目２番８号,,27,121,5460003,,,,,,,2022-12-15,1,,,,,アトム,0
1294,5120001251047,新規,0,2022-12-15,2022-12-15,Ｇｌｏｂａｌ　Ｓｅｒｖｉｃｅ　Ｃｏｎｓｕｌｔｉｎｇ株式会社,,株式会社,大阪府,大阪市中央区,平野町３丁目３番７－６０９号,,27,128,5410046,,,,,,,2022-12-15,1,,,,,グローバルサービスコンサルティング,0
1295,5120001251063,新規,0,2022-12-15,2022-12-15,株式会社ｄｅｌ　ｓｕｎ　ｃｏｍｐａｎｙ,,株式会社,大阪府,大阪市淀川区,宮原２丁目１２－１４－５１４,,27,123,5320003,,,,,,,2022-12-15,1,,,,,デルサンカンパニー,0
1296,5120001251071,新規,0,2022-12-15,2022-12-15,大阪ＰＲ協会株式会社,,株式会社,大阪府,大阪市中央区,備後町１丁目５番１０号藤井ビル５階,,27,128,5410051,,,,,,,2022-12-15,1,,,,,オオサカピーアールキョウカイ,0
1297,5120001251088,新規,0,2022-12-15,2022-12-15,株式会社ＯＵＩ,,株式会社,大阪府,大阪市東住吉区,杭全３丁目４番３０号,,27,121,5460002,,,,,,,2022-12-15,1,,,,,ウィ,0
1298,5120001251113,新規,0,2022-12-15,2022-12-15,株式会社テラソン,,株式会社,大阪府,大阪市中央区,心斎橋筋１丁目５－１９ヤマゲンビル,,27,128,5420085,,,,,,,2022-12-15,1,,,,,テラソン,0
1303,5120005023351,新規,0,2022-12-15,2022-12-15,ＮＰＯ法人Ｅｑｕａｌ　Ｒｉｇｈｔｓ,,その他の設立登記法人,大阪府,大阪市東成区,大今里２丁目１１－８－４０２,,27,115,5370012,,,,,,,2022-12-15,1,,,,,イコールライツ,0
1305,5120101066659,新規,0,2022-12-15,2022-12-15,株式会社武輪電気,,株式会社,大阪府,泉南市,樽井２丁目１４番１２号,,27,228,5900521,,,,,,,2022-12-15,1,,,,,タケワデンキ,0
1306,5120101066675,新規,0,2022-12-15,2022-12-15,正樹株式会社,,株式会社,大阪府,堺市堺区,緑町１丁４５番地１,,27,141,5900907,,,,,,,2022-12-15,1,,,,,マサキ,0
1307,5120101066683,新規,0,2022-12-15,2022-12-15,株式会社エーケーテック,,株式会社,大阪府,和泉市,富秋町２丁目３番１２号,,27,219,5940082,,,,,,,2022-12-15,1,,,,,エーケーテック,0
1315,5130001073283,新規,0,2022-12-15,2022-12-15,株式会社ＮＯＨ’ｓ,,株式会社,京都府,京都市東山区,末吉町９５番地８－２階Ａ号,,26,105,6050085,,,,,,,2022-12-15,1,,,,,ノース,0
1317,5130003008378,新規,0,2022-12-15,2022-12-15,合同会社スピカ設計,,合同会社,京都府,京都市中京区,西ノ京月光町１番地１５,,26,104,6040000,,,,,,,2022-12-15,1,,,,,スピカセッケイ,0
1321,5140001128326,新規,0,2022-12-15,2022-12-15,株式会社Ｄａｔａ　Ｔｅｍｐｌａｔｅ　Ｉｎｆｏｔｅｃｈ,,株式会社,兵庫県,神戸市北区,日の峰３丁目２３－２０,,28,109,6511233,,,,,,,2022-12-15,1,,,,,データテンプレートインフォテック,0
1322,5140001128375,新規,0,2022-12-15,2022-12-15,株式会社アプリシェード,,株式会社,兵庫県,丹波篠山市,杉３１番地１Ｃａｓａ美輪Ｉ２０１号室,00128815,28,221,6692204,,,,,,,2022-12-15,1,,,,,アプリシェード,0
1323,5140001128409,新規,0,2022-12-15,2022-12-15,株式会社志筑紙工,,株式会社,兵庫県,西脇市,野村町１７９０番地の４４３,,28,213,6770054,,,,,,,2022-12-15,1,,,,,シヅキシコウ,0
1326,5150001026017,新規,0,2022-12-15,2022-12-15,株式会社イヌイ自動車,,株式会社,奈良県,葛城市,中戸３２７番地１,,29,211,6392146,,,,,,,2022-12-15,1,,,,,イヌイジドウシャ,0
1327,5150001026025,新規,0,2022-12-15,2022-12-15,近畿小水力発電株式会社,,株式会社,奈良県,吉野郡下市町,大字新住１１１８番地,,29,443,6380045,,,,,,,2022-12-15,1,,,,,キンキショウスイリョクハツデン,0
1329,5160001024705,新規,0,2022-12-15,2022-12-15,株式会社タイヤサービス野洲,,株式会社,滋賀県,野洲市,小篠原３７６番地１,,25,210,5202331,,,,,,,2022-12-15,1,,,,,タイヤサービスヤス,0
1330,5170001017402,新規,0,2022-12-15,2022-12-15,カンサイファイナンス株式会社,,株式会社,和歌山県,和歌山市,吉田３６０番地,,30,201,6408343,,,,,,,2022-12-15,1,,,,,カンサイファイナンス,0
1332,5180001154178,新規,0,2022-12-15,2022-12-15,株式会社ＴａｉｕｐＬｉｆｅ,,株式会社,愛知県,名古屋市中村区,名駅南３丁目７番２号,,23,105,4500003,,,,,,,2022-12-15,1,,,,,タイアップライフ,0
1333,5180001154194,新規,0,2022-12-15,2022-12-15,ミライテック株式会社,,株式会社,愛知県,名古屋市守山区,幸心３丁目９２３番地の２,,23,113,4630079,,,,,,,2022-12-15,1,,,,,ミライテック,0
1334,5180001154203,新規,0,2022-12-15,2022-12-15,株式会社Ｔｒｕｍｐ　Ａｉｃｈｉ,,株式会社,愛知県,あま市,上萱津森７４番地１,,23,237,4901112,,,,,,,2022-12-15,1,,,,,トランプアイチ,0
1335,5180001154211,新規,0,2022-12-15,2022-12-15,株式会社ＴＳＫ,,株式会社,愛知県,名古屋市中川区,荒子町字大門東７６番地,,23,110,4540861,,,,,,,2022-12-15,1,,,,,ティーエスケイ,0
1341,5180003024593,新規,0,2022-12-15,2022-12-15,合同会社モーション５４,,合同会社,愛知県,名古屋市中区,丸の内３丁目１９番２３号ＦＰＳビル９階,,23,106,4600002,,,,,,,2022-12-15,1,,,,,モーションゴジュウヨン,0
1342,5180003024602,新規,0,2022-12-15,2022-12-15,ニコニココミュニケーションズ合同会社,,合同会社,愛知県,名古屋市東区,筒井３丁目７番１９号－３,,23,102,4610003,,,,,,,2022-12-15,1,,,,,ニコニココミュニケーションズ,0
1344,5180301036902,新規,0,2022-12-15,2022-12-15,トラスティ株式会社,,株式会社,愛知県,豊橋市,大橋通３丁目５３番地,,23,201,4400076,,,,,,,2022-12-15,1,,,,,トラスティ,0
1346,5180303005541,新規,0,2022-12-15,2022-12-15,合同会社ＳＴＬＧ,,合同会社,愛知県,豊橋市,花田町字城海津５５番地４（１０１）,,23,201,4418019,,,,,,,2022-12-15,1,,,,,エスティーエルジー,0
1348,5190001030023,新規,0,2022-12-15,2022-12-15,株式会社ｍｅｇａｌｏｍａｎｉａ,,株式会社,三重県,津市,高茶屋小森町３９６番地１,,24,201,5140817,,,,,,,2022-12-15,1,,,,,メガロマニア,0
1351,5190003004173,新規,0,2022-12-15,2022-12-15,合同会社千里光,,合同会社,三重県,多気郡大台町,粟生９４番地１,,24,443,5192428,,,,,,,2022-12-15,1,,,,,センリコウ,0
1353,5200001040755,新規,0,2022-12-15,2022-12-15,株式会社ＦＯＳＴＥＲ,,株式会社,岐阜県,各務原市,須衛町５丁目２５１番地,,21,213,5090108,,,,,,,2022-12-15,1,,,,,フォスター,0
1356,5220001025176,新規,0,2022-12-15,2022-12-15,株式会社飯利建設,,株式会社,石川県,野々市市,本町６丁目１４番１６号パルパレス３０３号,,17,212,9218815,,,,,,,2022-12-15,1,,,,,イイリケンセツ,0
1360,5240001060782,新規,0,2022-12-15,2022-12-15,株式会社文化財総合構造設計,,株式会社,広島県,廿日市市,佐方本町５番７号,,34,213,7380003,,,,,,,2022-12-15,1,,,,,ブンカザイソウゴウコウゾウセッケイ,0
1361,5240001060808,新規,0,2022-12-15,2022-12-15,株式会社ウスイ鋼業,,株式会社,広島県,福山市,駅家町江良２９３番地４,,34,207,7210000,,,,,,,2022-12-15,1,,,,,ウスイコウギョウ,0
1366,5270001008688,新規,0,2022-12-15,2022-12-15,オープンカンパニー株式会社,,株式会社,鳥取県,米子市,糀町２丁目５０番地４,,31,202,6830054,,,,,,,2022-12-15,1,,,,,オープンカンパニー,0
1376,5290001099874,新規,0,2022-12-15,2022-12-15,株式会社七龍,,株式会社,福岡県,福津市,西福間５丁目７番５号,,40,224,8113219,,,,,,,2022-12-15,1,,,,,セブンドラゴン,0
1377,5290001099882,新規,0,2022-12-15,2022-12-15,株式会社花の舎,,株式会社,福岡県,福岡市南区,屋形原５丁目７番１９号,,40,134,8111351,,,,,,,2022-12-15,1,,,,,ハナノヤ,0
1380,5290801029130,新規,0,2022-12-15,2022-12-15,株式会社ＤＲエステート,,株式会社,福岡県,北九州市八幡西区,丸尾町２番４２号,,40,109,8070826,,,,,,,2022-12-15,1,,,,,ディーアールエステート,0
1383,5290803004288,新規,0,2022-12-15,2022-12-15,合同会社ＯＥ,,合同会社,福岡県,北九州市小倉南区,田原新町３丁目１０番１５号２Ｆ,,40,107,8000226,,,,,,,2022-12-15,1,,,,,オーイー,0
1386,5310001018162,新規,0,2022-12-15,2022-12-15,株式会社ＧＥＡＲＳ,,株式会社,長崎県,雲仙市,小浜町北野４９２番地１,,42,213,8540515,,,,,,,2022-12-15,1,,,,,ギアーズ,0
1388,5320003003970,新規,0,2022-12-15,2022-12-15,合同会社たんぽぽのわたげ,,合同会社,大分県,大分市,敷戸北町１番１４号,,44,201,8701101,,,,,,,2022-12-15,1,,,,,タンポポノワタゲ,0
1395,5370001049375,新規,0,2022-12-15,2022-12-15,株式会社Ｓ・Ｓ建装,,株式会社,宮城県,岩沼市,下野郷字舘外２９７番地の１,,04,211,9892421,,,,,,,2022-12-15,1,,,,,エスエスケンソウ,0
1396,5370001049383,新規,0,2022-12-15,2022-12-15,株式会社ＣＲＥＳＴ,,株式会社,宮城県,仙台市宮城野区,原町６丁目２番２６号ロイヤルコートハウス１０５,,04,102,9830841,,,,,,,2022-12-15,1,,,,,クレスト,0
1401,5380001033329,新規,0,2022-12-15,2022-12-15,ワイアール・トータルカインド株式会社,,株式会社,福島県,福島市,南沢又字中琵琶渕３０番地,,07,201,9608254,,,,,,,2022-12-15,1,,,,,ワイアールトータルカインド,0
1402,5380001033337,新規,0,2022-12-15,2022-12-15,株式会社スリーライフ,,株式会社,福島県,郡山市,西田町鬼生田字菅野沢２９４番地の１,,07,203,9630921,,,,,,,2022-12-15,1,,,,,スリーライフ,0
1405,5380003005342,新規,0,2022-12-15,2022-12-15,合同会社ＴＮＫ,,合同会社,福島県,いわき市,好間町下好間字向山５７番地の１３,,07,204,9701151,,,,,,,2022-12-15,1,,,,,ティーエヌケー,0
1410,5400003003005,新規,0,2022-12-15,2022-12-15,Ｏｆｆｉｃｅ　ＳＵＧＯＲＯＫＵ合同会社,,合同会社,岩手県,盛岡市,上太田中屋敷７７番地２,,03,201,0200053,,,,,,,2022-12-15,1,,,,,オフィススゴロク,0
1412,5410001013343,新規,0,2022-12-15,2022-12-15,株式会社からだバランス整体仁,,株式会社,秋田県,能代市,栄町９番２６号,,05,202,0160846,,,,,,,2022-12-15,1,,,,,カラダバランスセイタイジン,0
1415,5430001088045,新規,0,2022-12-15,2022-12-15,株式会社中山工業,,株式会社,北海道,札幌市西区,発寒十五条１丁目８番１９号,,01,107,0630835,,,,,,,2022-12-15,1,,,,,ナカヤマコウギョウ,0
1423,5500001024661,新規,0,2022-12-15,2022-12-15,株式会社Ｆ．Ｃ．Ｓ,,株式会社,愛媛県,松山市,北斎院町３２番地５０,,38,201,7918031,,,,,,,2022-12-15,1,,,,,エフシーエス,0
1424,5700150065585,新規,0,2022-12-15,2015-10-09,高原町シルバ－人材センタ－,,その他,宮崎県,西諸県郡高原町,大字西麓３６０－１,,45,361,8894412,,,,,,,2015-10-09,1,,,,,タカハルチヨウシルバージンザイセンター,0
1425,5700150112577,新規,0,2022-12-15,2022-11-04,民家ライブハウス楽龍時,,その他,埼玉県,吉川市,大字上内川７５８－３,,11,243,3420001,,,,,,,2022-11-04,1,,,,,ミンカライブハウスラクリユウジ,0
1426,5700150112701,新規,0,2022-12-15,2022-11-10,とりふね舞踏舎,,その他,神奈川県,中郡大磯町,大磯６１１番地２０,,14,341,2550003,,,,,,,2022-11-10,1,,,,,トリフネブトウシヤ,0
1427,5700150113204,新規,0,2022-12-15,2022-12-01,名古屋駅貸切バス乗車システム運営協議会,,その他,愛知県,名古屋市昭和区,滝子町３０番１６号愛知県自動車会館３階,,23,107,4660053,,,,,,,2022-12-01,1,,,,,ナゴヤエキカシキリバスジヨウシヤシステムウンエイキヨウギカイ,0
1441,6010001231513,新規,0,2022-12-15,2022-12-15,株式会社Ｏｃｔａｇｏｎ　Ｃｏｎｓｕｌｔｉｎｇ,,株式会社,東京都,中央区,銀座１丁目１２番４号Ｎ＆Ｅ・ＢＬＤ．６Ｆ,,13,102,1040061,,,,,,,2022-12-15,1,,,,,オクタゴンコンサルティング,0
1442,6010001231546,新規,0,2022-12-15,2022-12-15,株式会社Ｆｏｏｄｉｅｓ　Ｐｒｉｍｅ,,株式会社,東京都,千代田区,神田和泉町一丁目６番１６号ヤマトビル４０５,,13,101,1010024,,,,,,,2022-12-15,1,,,,,フーディーズプライム,0
1443,6010001231595,新規,0,2022-12-15,2022-12-15,梧桐実業株式会社,,株式会社,東京都,千代田区,神田西福田町２番地聖徳ビル３－Ｂ,,13,101,1010037,,,,,,,2022-12-15,1,,,,,ゴトウジツギョウ,0
1444,6010001231604,新規,0,2022-12-15,2022-12-15,東京インベストメント株式会社,,株式会社,東京都,中央区,入船３丁目１番４号,,13,102,1040042,,,,,,,2022-12-15,1,,,,,,0
1447,6010003039310,新規,0,2022-12-15,2022-12-15,宋庄画家村画廊合同会社,,合同会社,東京都,千代田区,神田佐久間町３丁目３８第５東ビル５Ｆ,,13,101,1010025,,,,,,,2022-12-15,1,,,,,ソウショウガカムラガロウ,0
1448,6010003039335,新規,0,2022-12-15,2022-12-15,合同会社ＳＳＣ,,合同会社,東京都,中央区,銀座１丁目２２番１１号銀座大竹ビジデンス２階,,13,102,1040061,,,,,,,2022-12-15,1,,,,,エスエスシー,0
1454,6010401171350,新規,0,2022-12-15,2022-12-15,株式会社ＲＥＲＡＹ,,株式会社,東京都,港区,南青山２丁目２番１５号ＷｉｎＡｏｙａｍａビルＵＣＦ６階,,13,103,1070062,,,,,,,2022-12-15,1,,,,,リレイ,0
1461,6010501049752,新規,0,2022-12-15,2022-12-15,株式会社ＦＵＳＩＯＮ　ＦＡＣＴＯＲＹ,,株式会社,東京都,台東区,今戸２丁目１６番１１号２Ｆ,,13,106,1110024,,,,,,,2022-12-15,1,,,,,フュージョンファクトリー,0
1466,6010601062309,新規,0,2022-12-15,2022-12-15,株式会社ＧＲＡＮ　ＡＲＫ,,株式会社,東京都,墨田区,立川３丁目６番１２－５０６号,,13,107,1300023,,,,,,,2022-12-15,1,,,,,グランアーク,0
1467,6010603009902,新規,0,2022-12-15,2022-12-15,ピーカンラボ合同会社,,合同会社,東京都,江東区,塩浜１丁目４番３３,,13,108,1350043,,,,,,,2022-12-15,1,,,,,ピーカンラボ,0
1470,6010701043613,新規,0,2022-12-15,2022-12-15,株式会社クイーンズリッジ,,株式会社,東京都,品川区,小山４丁目２番３号,,13,109,1420062,,,,,,,2022-12-15,1,,,,,クイーンズリッジ,0
1474,6010901052141,新規,0,2022-12-15,2022-12-15,株式会社あおいろ,,株式会社,東京都,世田谷区,桜丘５丁目２２番１５－３１４号,,13,112,1560054,,,,,,,2022-12-15,1,,,,,アオイロ,0
1475,6010901052158,新規,0,2022-12-15,2022-12-15,株式会社ローカス,,株式会社,東京都,世田谷区,野毛２丁目７－６ＧｒａｃｅＧａｒｄｅｎＢ,,13,112,1580092,,,,,,,2022-12-15,1,,,,,,0
1476,6010903007837,新規,0,2022-12-15,2022-12-15,ＲｅＭＥＣＴＩＯＮ合同会社,,合同会社,東京都,世田谷区,若林３丁目１６－１フジビル２０４,,13,112,1540023,,,,,,,2022-12-15,1,,,,,リミクション,0
1477,6010903007845,新規,0,2022-12-15,2022-12-15,合同会社Ｓｔｉｌｌ　Ｗａｔｅｒｓ,,合同会社,東京都,世田谷区,奥沢５丁目７番１４－４０１号,,13,112,1580083,,,,,,,2022-12-15,1,,,,,スティルウォーターズ,0
1482,6011001151429,新規,0,2022-12-15,2022-12-15,株式会社Ｒｕｆｆ　Ｐｌｕｓ,,株式会社,東京都,目黒区,緑が丘２丁目２１番５号,,13,110,1520034,,,,,,,2022-12-15,1,,,,,ルフプラス,0
1483,6011001151461,新規,0,2022-12-15,2022-12-15,株式会社きゅん,,株式会社,東京都,渋谷区,円山町５番６号キングビル９階,,13,113,1500044,,,,,,,2022-12-15,1,,,,,キュン,0
1484,6011001151478,新規,0,2022-12-15,2022-12-15,株式会社ｒ．ａ．ｃ．,,株式会社,東京都,渋谷区,神宮前６丁目２３番４号桑野ビル２階,,13,113,1500001,,,,,,,2022-12-15,1,,,,,ラック,0
1485,6011001151486,新規,0,2022-12-15,2022-12-15,株式会社ブランニューミール,,株式会社,東京都,渋谷区,千駄ヶ谷３丁目２０番１０号２階,,13,113,1510051,,,,,,,2022-12-15,1,,,,,ブランニューミール,0
1491,6011101101119,新規,0,2022-12-15,2022-12-15,新海株式会社,,株式会社,東京都,新宿区,赤城下町４５番地ＫＢＣ－Ｄ－２,,13,104,1620803,,,,,,,2022-12-15,1,,,,,シンカイ,0
1493,6011201024293,新規,0,2022-12-15,2022-12-15,株式会社ｅ．Ｌ．,,株式会社,東京都,中野区,本町１丁目２番２号イーストングレイス１０８,,13,114,1640012,,,,,,,2022-12-15,1,,,,,エル,0
1498,6011501028754,新規,0,2022-12-15,2022-12-15,株式会社ＫＡＩＳＨＩＮ,,株式会社,東京都,北区,滝野川２丁目２－１６,,13,117,1140023,,,,,,,2022-12-15,1,,,,,カイシン,0
1499,6011701025865,新規,0,2022-12-15,2022-12-15,株式会社ｍｏｒｅｌｉｎｋ,,株式会社,東京都,江戸川区,西一之江４丁目１番１８号,,13,123,1320023,,,,,,,2022-12-15,1,,,,,モアリンク,0
1510,6012701017398,新規,0,2022-12-15,2022-12-15,サトー株式会社,,株式会社,東京都,東久留米市,中央町６丁目７番１３号高丸コーポ１０６号,,13,222,2030054,,,,,,,2022-12-15,1,,,,,サトー,0
1512,6012801022026,新規,0,2022-12-15,2022-12-15,株式会社ＳＣＳ,,株式会社,東京都,昭島市,中神町１２５７番地２２,,13,207,1960022,,,,,,,2022-12-15,1,,,,,エスシーエス,0
1517,6013301050070,新規,0,2022-12-15,2022-12-15,Ｂｏｔａｎｄｏ株式会社,,株式会社,東京都,豊島区,高松２丁目１３番２号,,13,116,1710042,,,,,,,2022-12-15,1,,,,,ボタンドー,0
1524,6020001149408,新規,0,2022-12-15,2022-12-15,株式会社ネクストサービス,,株式会社,神奈川県,川崎市宮前区,宮前平３丁目１０番地５１ベルパージュ宮前平１０１,,14,136,2160006,,,,,,,2022-12-15,1,,,,,ネクストサービス,0
1525,6020001149416,新規,0,2022-12-15,2022-12-15,ｕｎｉｔｅｄ　ｖｅｈｉｃｌｅ株式会社,,株式会社,神奈川県,横浜市旭区,白根８丁目２９番４号,,14,112,2410005,,,,,,,2022-12-15,1,,,,,ユナイテッドビークル,0
1526,6020001149432,新規,0,2022-12-15,2022-12-15,株式会社うえのファーマシー,,株式会社,神奈川県,川崎市高津区,久地４丁目１３－１,,14,134,2130032,,,,,,,2022-12-15,1,,,,,ウエノファーマシー,0
1527,6020001149440,新規,0,2022-12-15,2022-12-15,株式会社ウダカンパニー,,株式会社,神奈川県,川崎市高津区,子母口４８９－５０４,,14,134,2130023,,,,,,,2022-12-15,1,,,,,ウダカンパニー,0
1529,6020003022901,新規,0,2022-12-15,2022-12-15,合同会社ＢＬＡＮＣ,,合同会社,神奈川県,川崎市中原区,北谷町２３番地２,,14,133,2110015,,,,,,,2022-12-15,1,,,,,ブラン,0
1537,6021001077689,新規,0,2022-12-15,2022-12-15,株式会社ビヴォーネ,,株式会社,神奈川県,平塚市,幸町２６番６号,,14,203,2540804,,,,,,,2022-12-15,1,,,,,ビヴォーネ,0
1538,6021001077697,新規,0,2022-12-15,2022-12-15,株式会社ＮＥＸＴ　ＳＴＡＧＥ,,株式会社,神奈川県,大和市,中央７丁目１４－５－１,,14,213,2420021,,,,,,,2022-12-15,1,,,,,ネクストステージ,0
1539,6021001077706,新規,0,2022-12-15,2022-12-15,株式会社ＳＡＫＩＵ,,株式会社,神奈川県,大和市,渋谷６丁目１２番地２－４０４号,,14,213,2420023,,,,,,,2022-12-15,1,,,,,サキウ,0
1540,6021001077714,新規,0,2022-12-15,2022-12-15,株式会社ＫＩＡＭ,,株式会社,神奈川県,藤沢市,湘南台６丁目９番地の７,,14,205,2520804,,,,,,,2022-12-15,1,,,,,キアム,0
1541,6021001077722,新規,0,2022-12-15,2022-12-15,株式会社Ｍ’ｓ８,,株式会社,神奈川県,藤沢市,石川４丁目３５番地３９プリマベーラ２０１号室,,14,205,2520815,,,,,,,2022-12-15,1,,,,,エムズエイト,0
1546,6021003012512,新規,0,2022-12-15,2022-12-15,合同会社ベリー農産,,合同会社,神奈川県,平塚市,万田２丁目７番２１,,14,203,2540913,,,,,,,2022-12-15,1,,,,,ベリーノウサン,0
1548,6021005012691,新規,0,2022-12-15,2022-12-15,医療法人社団ＭＡＲＩＰＯＳＡ,,その他の設立登記法人,神奈川県,海老名市,扇町１２番２８号エースフォレストビル１階テナント２,,14,215,2430436,,,,,,,2022-12-15,1,,,,,マリポサ,0
1558,6030001151437,新規,0,2022-12-15,2022-12-15,株式会社ｓａｓａｅｌ,,株式会社,埼玉県,さいたま市南区,別所２丁目２３番１４号,,11,108,3360021,,,,,,,2022-12-15,1,,,,,ササエル,0
1559,6030001151445,新規,0,2022-12-15,2022-12-15,株式会社エムズメイク,,株式会社,埼玉県,越谷市,大字袋山１５５８番地５,,11,222,3430032,,,,,,,2022-12-15,1,,,,,エムズメイク,0
1560,6030001151461,新規,0,2022-12-15,2022-12-15,株式会社根岸設備,,株式会社,埼玉県,久喜市,青毛７９３番地１,,11,232,3460011,,,,,,,2022-12-15,1,,,,,ネギシセツビ,0
1561,6030001151478,新規,0,2022-12-15,2022-12-15,株式会社エー・ケー・企画,,株式会社,埼玉県,東松山市,大字上野本１８００番地１,,11,212,3550073,,,,,,,2022-12-15,1,,,,,エーケーキカク,0
1562,6030001151503,新規,0,2022-12-15,2022-12-15,株式会社亀月,,株式会社,埼玉県,入間市,扇町屋４丁目３番１号,,11,225,3580022,,,,,,,2022-12-15,1,,,,,キヅキ,0
1565,6030003020739,新規,0,2022-12-15,2022-12-15,合同会社プレジール,,合同会社,埼玉県,さいたま市中央区,下落合２丁目２１番１２号,,11,105,3380002,,,,,,,2022-12-15,1,,,,,プレジール,0
1566,6030003020747,新規,0,2022-12-15,2022-12-15,合同会社オーエヌクラフト,,合同会社,埼玉県,新座市,野火止８丁目１３番７号,,11,230,3520011,,,,,,,2022-12-15,1,,,,,オーエヌクラフト,0
1567,6030003020755,新規,0,2022-12-15,2022-12-15,ひかり合同会社,,合同会社,埼玉県,深谷市,東方町２丁目２０番地７,,11,218,3660042,,,,,,,2022-12-15,1,,,,,ヒカリ,0
1571,6040001126198,新規,0,2022-12-15,2022-12-15,ＪＫブリーズ株式会社,,株式会社,千葉県,松戸市,松戸１３０７－１松戸ビル１３階１３０２,,12,207,2710092,,,,,,,2022-12-15,1,,,,,ジェイケイブリーズ,0
1572,6040001126231,新規,0,2022-12-15,2022-12-15,株式会社千葉サンド,,株式会社,千葉県,袖ケ浦市,坂戸市場１４７７番地１,,12,229,2990262,,,,,,,2022-12-15,1,,,,,チバサンド,0
1573,6040001126248,新規,0,2022-12-15,2022-12-15,株式会社アニマルビューティーエンターテイメント,,株式会社,千葉県,市川市,宝２丁目２番１号,,12,203,2720122,,,,,,,2022-12-15,1,,,,,アニマルビューティーエンターテイメント,0
1574,6040001126256,新規,0,2022-12-15,2022-12-15,株式会社Ｍ．Ｊ　Ｓｏｌｕｔｉｏｎｓ,,株式会社,千葉県,柏市,南高柳一丁目１番地,,12,217,2770944,,,,,,,2022-12-15,1,,,,,エムジェイソリューションズ,0
1575,6040003021488,新規,0,2022-12-15,2022-12-15,合同会社ＦＥＪ企画,,合同会社,千葉県,千葉市花見川区,朝日ケ丘１丁目１番２４号メゾンドふきのとう１０６号,,12,102,2620019,,,,,,,2022-12-15,1,,,,,エフイージェイキカク,0
1576,6040003021496,新規,0,2022-12-15,2022-12-15,合同会社ＰＡＮＴＨＥＲＡ,,合同会社,千葉県,船橋市,南三咲３丁目１番２５号,,12,204,2740813,,,,,,,2022-12-15,1,,,,,パンテーラ,0
1577,6040003021513,新規,0,2022-12-15,2022-12-15,合同会社ＡＣＴ,,合同会社,千葉県,船橋市,本町６丁目１８－１９第３山中ビル４０１号室,,12,204,2730005,,,,,,,2022-12-15,1,,,,,アクト,0
1579,6050001052105,新規,0,2022-12-15,2022-12-15,株式会社ｆｏｘ,,株式会社,茨城県,水戸市,栄町２丁目３－１１,,08,201,3100064,,,,,,,2022-12-15,1,,,,,フォックス,0
1582,6060003004334,新規,0,2022-12-15,2022-12-15,ＴＲＡＮＳＰＯ合同会社,,合同会社,栃木県,小山市,城北６丁目２７番地１キャッスル小山１０１号室,,09,208,3230029,,,,,,,2022-12-15,1,,,,,トランスポ,0
1583,6060003004350,新規,0,2022-12-15,2022-12-15,合同会社ｎｏｎ,,合同会社,栃木県,栃木市,薗部町４丁目５－２６,,09,203,3280074,,,,,,,2022-12-15,1,,,,,ノン,0
1586,6070001039926,新規,0,2022-12-15,2022-12-15,株式会社ＡＣＴ．１,,株式会社,群馬県,伊勢崎市,下触町１６６‐７,,10,204,3792214,,,,,,,2022-12-15,1,,,,,アクトワン,0
1589,6080001025347,新規,0,2022-12-15,2022-12-15,株式会社ＳＫＹ,,株式会社,静岡県,焼津市,栄町６丁目９番２０号,,22,212,4250027,,,,,,,2022-12-15,1,,,,,スカイ,0
1590,6090001017888,新規,0,2022-12-15,2022-12-15,株式会社リアンエージー,,株式会社,山梨県,笛吹市,御坂町成田７２７番地７,,19,211,4060801,,,,,,,2022-12-15,1,,,,,リアンエージー,0
1594,6100001035962,新規,0,2022-12-15,2022-12-15,株式会社ひまわり,,株式会社,長野県,佐久市,御馬寄５７５番地２１,,20,217,3842103,,,,,,,2022-12-15,1,,,,,ヒマワリ,0
1606,6120001250997,新規,0,2022-12-15,2022-12-15,舶来島株式会社,,株式会社,大阪府,大阪市生野区,小路東６丁目８番１７号昭和エクセルビュー東大阪１０３－Ｇ０８,,27,116,5440003,,,,,,,2022-12-15,1,,,,,ハクライトウ,0
1607,6120001251046,新規,0,2022-12-15,2022-12-15,株式会社ｎ‐ｏｎｅ,,株式会社,大阪府,大阪市北区,天満４丁目８番３号第３ユニオンビル１階,,27,127,5300043,,,,,,,2022-12-15,1,,,,,エヌワン,0
1608,6120001251087,新規,0,2022-12-15,2022-12-15,株式会社ＨＡＲＥ,,株式会社,大阪府,大阪市西区,南堀江３丁目１２番１９－７０２号,,27,106,5500015,,,,,,,2022-12-15,1,,,,,ハレ,0
1609,6120001251112,新規,0,2022-12-15,2022-12-15,ＫＯＬリビング株式会社,,株式会社,大阪府,大阪市東淀川区,上新庄３丁目１－３－５０９号室,,27,114,5330006,,,,,,,2022-12-15,1,,,,,ケーオーエルリビング,0
1612,6120101066658,新規,0,2022-12-15,2022-12-15,株式会社ｅｈ,,株式会社,大阪府,堺市北区,船堂町２丁１番７号,,27,146,5918003,,,,,,,2022-12-15,1,,,,,エフ,0
1613,6120101066666,新規,0,2022-12-15,2022-12-15,株式会社ｃｈｏｉｃｅ　ｇｒｏｕｐ,,株式会社,大阪府,富田林市,楠町４番６－６１０号,,27,214,5840041,,,,,,,2022-12-15,1,,,,,チョイスグループ,0
1615,6120103004979,新規,0,2022-12-15,2022-12-15,合同会社結真,,合同会社,大阪府,大阪狭山市,大野台３丁目２４番２５号,,27,231,5890023,,,,,,,2022-12-15,1,,,,,ユイマ,0
1616,6120901046867,新規,0,2022-12-15,2022-12-15,株式会社唯成,,株式会社,大阪府,箕面市,牧落５丁目５番５号,,27,220,5620004,,,,,,,2022-12-15,1,,,,,ユイセイ,0
1617,6120901046875,新規,0,2022-12-15,2022-12-15,株式会社ＡＫＴ,,株式会社,大阪府,吹田市,江坂町１丁目３番３号,,27,205,5640063,,,,,,,2022-12-15,1,,,,,エーケーティー,0
1620,6122001036492,新規,0,2022-12-15,2022-12-15,株式会社夢丸,,株式会社,大阪府,四條畷市,中野本町３番２４号,,27,229,5750051,,,,,,,2022-12-15,1,,,,,ユメマル,0
1625,6130001073282,新規,0,2022-12-15,2022-12-15,株式会社パイルアップ,,株式会社,京都府,京都市左京区,高野東開町１番地２３・１８－１０１,,26,103,6068107,,,,,,,2022-12-15,1,,,,,パイルアップ,0
1626,6130001073290,新規,0,2022-12-15,2022-12-15,スマートケア株式会社,,株式会社,京都府,京都市北区,紫野下築山町６１番地,,26,101,6038222,,,,,,,2022-12-15,1,,,,,スマートケア,0
1627,6130001073299,新規,0,2022-12-15,2022-12-15,株式会社桐治,,株式会社,京都府,京都市伏見区,深草直違橋９丁目２０２番地,,26,109,6120889,,,,,,,2022-12-15,1,,,,,キリジ,0
1636,6140001128366,新規,0,2022-12-15,2022-12-15,株式会社コッコラーレ,,株式会社,兵庫県,加古川市,加古川町溝之口１２４番地の１０,,28,210,6750064,,,,,,,2022-12-15,1,,,,,コッコラーレ,0
1637,6140001128374,新規,0,2022-12-15,2022-12-15,株式会社ＴＭＤ,,株式会社,兵庫県,姫路市,田寺１丁目７番５号,,28,201,6700086,,,,,,,2022-12-15,1,,,,,ティーエムディー,0
1638,6140001128390,新規,0,2022-12-15,2022-12-15,株式会社コウベハク,,株式会社,兵庫県,神戸市東灘区,住吉本町２丁目１７番９号ＭＯＡ甲南３０１,,28,101,6580051,,,,,,,2022-12-15,1,,,,,コウベハク,0
1639,6140001128432,新規,0,2022-12-15,2022-12-15,ｉｒｉｓｅ　ｃｏｓｍｅｔｉｃｓ株式会社,,株式会社,兵庫県,神戸市東灘区,向洋町中２丁目１番地２１４号棟１０１７号室,,28,101,6580032,,,,,,,2022-12-15,1,,,,,イリゼコスメティクス,0
1640,6140003018466,新規,0,2022-12-15,2022-12-15,合同会社ＹＮｏｔ,,合同会社,兵庫県,姫路市,名古山町１１－３１アネモスヒルズ姫路２・２０５号,,28,201,6700051,,,,,,,2022-12-15,1,,,,,ワイノット,0
1641,6140003018482,新規,0,2022-12-15,2022-12-15,合同会社ＴＡＮＡＫＡ,,合同会社,兵庫県,神戸市兵庫区,馬場町５番７号,,28,105,6520016,,,,,,,2022-12-15,1,,,,,タナカ,0
1643,6150001026024,新規,0,2022-12-15,2022-12-15,株式会社立栄防災,,株式会社,奈良県,葛城市,加守５６３番地１,,29,211,6390271,,,,,,,2022-12-15,1,,,,,リツエイボウサイ,0
1644,6160001024695,新規,0,2022-12-15,2022-12-15,株式会社ビッグブレス,,株式会社,滋賀県,米原市,大野木１７７７番地,,25,214,5210244,,,,,,,2022-12-15,1,,,,,ビッグブレス,0
1646,6170003001808,新規,0,2022-12-15,2022-12-15,フェリス合同会社,,合同会社,和歌山県,紀の川市,尾崎３１２番地３,,30,208,6496423,,,,,,,2022-12-15,1,,,,,フェリス,0
1647,6170005006986,新規,0,2022-12-15,2022-12-15,特定非営利活動法人プール・ボランティア和歌山,,その他の設立登記法人,和歌山県,和歌山市,十二番丁９リヴァージュ十二番丁２０１,,30,201,6408158,,,,,,,2022-12-15,1,,,,,プールボランティアワカヤマ,0
1655,6180001154103,新規,0,2022-12-15,2022-12-15,株式会社クリーン＆グリーン,,株式会社,愛知県,稲沢市,天池東町２３２番地１,,23,220,4928282,,,,,,,2022-12-15,1,,,,,クリーンアンドグリーン,0
1656,6180001154177,新規,0,2022-12-15,2022-12-15,株式会社東海特殊,,株式会社,愛知県,名古屋市緑区,大高町字丸ノ内７５番地１,,23,114,4598001,,,,,,,2022-12-15,1,,,,,トウカイトクシュ,0
1657,6180001154193,新規,0,2022-12-15,2022-12-15,ジョイナス株式会社,,株式会社,愛知県,名古屋市東区,芳野３丁目６－４ダイヤパレス東白壁Ｃ５０１,,23,102,4610027,,,,,,,2022-12-15,1,,,,,ジョイナス,0
1659,6180301036901,新規,0,2022-12-15,2022-12-15,株式会社ｅｌ．ｂｅａｕｔｅ,,株式会社,愛知県,みよし市,福谷町花立１６番地１,,23,236,4700207,,,,,,,2022-12-15,1,,,,,エルボーテ,0
1662,6190001030014,新規,0,2022-12-15,2022-12-15,株式会社アクル,,株式会社,三重県,四日市市,笹川１丁目１８２番地１,,24,202,5100944,,,,,,,2022-12-15,1,,,,,アクル,0
1663,6190001030022,新規,0,2022-12-15,2022-12-15,株式会社ＴＨＭ　ＡＲＣＨＩＴＥＣＴ,,株式会社,三重県,伊勢市,村松町１３８０番地１１,,24,203,5150507,,,,,,,2022-12-15,1,,,,,ティーエイチエムアーキテクト,0
1664,6190003004172,新規,0,2022-12-15,2022-12-15,合同会社匠建築工房,,合同会社,三重県,四日市市,北町８番２４号,,24,202,5100081,,,,,,,2022-12-15,1,,,,,タクミケンチクコウボウ,0
1674,6220005008721,新規,0,2022-12-15,2022-12-15,特定非営利活動法人スマイル,,その他の設立登記法人,石川県,金沢市,小立野２丁目２７番地１６,,17,201,9200942,,,,,,,2022-12-15,1,,,,,スマイル,0
1676,6230005009272,新規,0,2022-12-15,2022-12-15,一般財団法人山崎財団,00128803,その他の設立登記法人,富山県,高岡市,大野２８３番地３,,16,202,9330016,,,,,,,2022-12-15,1,,,,,ヤマザキザイダン,0
1678,6240001060798,新規,0,2022-12-15,2022-12-15,株式会社Ｚａｒｔｈｅｉｔ．ＮＵＫＵＭＯＲＩ,,株式会社,広島県,広島市中区,大手町１丁目７－２１－３０１,,34,101,7300051,,,,,,,2022-12-15,1,,,,,ツァールトハイトヌクモリ,0
1679,6240001060807,新規,0,2022-12-15,2022-12-15,株式会社ｇｌｏｉｒｅ,,株式会社,広島県,広島市安佐北区,亀山南５丁目４７番４０号,,34,106,7310232,,,,,,,2022-12-15,1,,,,,グロワール,0
1694,6290001099857,新規,0,2022-12-15,2022-12-15,Ｎ．ｆｌｏｗ株式会社,,株式会社,福岡県,福岡市博多区,冷泉町９番９－７０１号,,40,132,8120039,,,,,,,2022-12-15,1,,,,,エヌフロー,0
1695,6290001099873,新規,0,2022-12-15,2022-12-15,Ｌｅ　Ｂｏｏｒｎ株式会社,,株式会社,福岡県,大川市,大字本木室６８番地,,40,212,8310015,,,,,,,2022-12-15,1,,,,,リボーン,0
1696,6290001099881,新規,0,2022-12-15,2022-12-15,株式会社篠栗珈琲焙煎所,,株式会社,福岡県,糟屋郡篠栗町,彩り台３４６番１３,,40,342,8112418,,,,,,,2022-12-15,1,,,,,ササグリコーヒーバイセンジョ,0
1697,6290001099898,新規,0,2022-12-15,2022-12-15,株式会社ＦＲＡＮＣＥＹＡ,,株式会社,福岡県,宗像市,江口８００,,40,220,8113502,,,,,,,2022-12-15,1,,,,,フランスヤ,0
1701,6290801029121,新規,0,2022-12-15,2022-12-15,株式会社みら家,,株式会社,福岡県,行橋市,大字下検地１０９７番地４,,40,213,8240051,,,,,,,2022-12-15,1,,,,,ミライエ,0
1706,6320001019472,新規,0,2022-12-15,2022-12-15,株式会社荘園小町,,株式会社,大分県,別府市,大字鶴見４５４６番地の８４,,44,202,8740840,,,,,,,2022-12-15,1,,,,,ソウエンコマチ,0
1708,6330001030395,新規,0,2022-12-15,2022-12-15,株式会社ＰＯＷＥＲ　ＯＦ　ＥＤＵＣＡＴＩＯＮ,,株式会社,熊本県,熊本市東区,佐土原１丁目１０番７０号,,43,102,8620916,,,,,,,2022-12-15,1,,,,,パワーオブエデュケーション,0
1710,6330003009628,新規,0,2022-12-15,2022-12-15,合同会社ＵＮＤＥＦＡＴＥＤ,,合同会社,熊本県,荒尾市,菰屋７７番地１－２０１号,,43,204,8640161,,,,,,,2022-12-15,1,,,,,アンディフィーテッド,0
1711,6340001025246,新規,0,2022-12-15,2022-12-15,株式会社西日本不動産,,株式会社,鹿児島県,薩摩郡さつま町,轟町２４番地４,,46,392,8951813,,,,,,,2022-12-15,1,,,,,ニシニホンフドウサン,0
1716,6370001049374,新規,0,2022-12-15,2022-12-15,株式会社鹿野,,株式会社,宮城県,大崎市,古川新堀字旭町１番地,,04,215,9896214,,,,,,,2022-12-15,1,,,,,カノ,0
1717,6370003005920,新規,0,2022-12-15,2022-12-15,合同会社Ｌｉｂｅｒｔｙ＆Ｇｒａｖｉｔｙ,,合同会社,宮城県,仙台市泉区,黒松２丁目２４番１１号ＶｅｎｔＶｅｒｔ黒松１０２,,04,105,9818006,,,,,,,2022-12-15,1,,,,,リバティアンドグラビティ,0
1720,6380003005341,新規,0,2022-12-15,2022-12-15,ハレノヒ合同会社,,合同会社,福島県,本宮市,本宮字万世１３８番地１,,07,214,9691149,,,,,,,2022-12-15,1,,,,,ハレノヒ,0
1723,6390001017098,新規,0,2022-12-15,2022-12-15,株式会社アトフィア,,株式会社,山形県,東置賜郡高畠町,大字一本柳２５１９番地３,,06,381,9920334,,,,,,,2022-12-15,1,,,,,アトフィア,0
1730,6430001088044,新規,0,2022-12-15,2022-12-15,株式会社エスポアール,,株式会社,北海道,札幌市豊平区,旭町２丁目１－１５グランヒル学園前１００３号,,01,105,0620911,,,,,,,2022-12-15,1,,,,,エスポアール,0
1731,6430003014543,新規,0,2022-12-15,2022-12-15,合同会社ＳＮＯＷ,,合同会社,北海道,札幌市白石区,平和通８丁目北１番１０号,,01,104,0030029,,,,,,,2022-12-15,1,,,,,スノウ,0
1733,6450001013859,新規,0,2022-12-15,2022-12-15,株式会社早崎牧場,00128814,株式会社,北海道,稚内市,大字声問村字上声問原野４８３９番地２,,01,214,0986562,,,,,,,2022-12-15,1,,,,,ハヤサキボクジョウ,0
1735,6500005008544,新規,0,2022-12-15,2022-12-15,医療法人くりの木歯科医院,,その他の設立登記法人,愛媛県,松山市,宮西１丁目５番１２号グランディア宮西１階,,38,201,7900065,,,,,,,2022-12-15,1,,,,,クリノキシカイイン,0
1740,7010001231529,新規,0,2022-12-15,2022-12-15,株式会社フェロー,,株式会社,東京都,千代田区,神田須田町１丁目１４番地１ヒューリック神田須田町ビル３Ｆ,,13,101,1010041,,,,,,,2022-12-15,1,,,,,フェロー,0
1741,7010001231561,新規,0,2022-12-15,2022-12-15,株式会社アイスタッフ,,株式会社,東京都,千代田区,神田和泉町一丁目６番１６号ヤマトビル４０５,,13,101,1010024,,,,,,,2022-12-15,1,,,,,アイスタッフ,0
1742,7010001231586,新規,0,2022-12-15,2022-12-15,株式会社Ｊａｂｅｒ　Ｔｉｍｅｓ,,株式会社,東京都,千代田区,富士見２丁目３番８号ＮＫビル５Ｆ,,13,101,1020071,,,,,,,2022-12-15,1,,,,,ジャベルタイムズ,0
1750,7010401171366,新規,0,2022-12-15,2022-12-15,ａｉｔｅｒｒａｓ株式会社,,株式会社,東京都,港区,浜松町２丁目２－１５浜松町ダイヤビル２Ｆ,,13,103,1050013,,,,,,,2022-12-15,1,,,,,アイテラス,0
1756,7010501049743,新規,0,2022-12-15,2022-12-15,Ｈｅｎｇｉｓｓａ株式会社,,株式会社,東京都,台東区,千束３丁目２１－１２－１０１号,,13,106,1110031,,,,,,,2022-12-15,1,,,,,ヘンニサ,0
1759,7010601062308,新規,0,2022-12-15,2022-12-15,エス・ケー株式会社,,株式会社,東京都,墨田区,立花６丁目５番５号,,13,107,1310043,,,,,,,2022-12-15,1,,,,,エスケー,0
1760,7010701043612,新規,0,2022-12-15,2022-12-15,Ｌａｓｉｉｎａ株式会社,,株式会社,東京都,品川区,北品川３丁目６番４３－３０５号,,13,109,1400001,,,,,,,2022-12-15,1,,,,,ラシイナ,0
1761,7010801033521,新規,0,2022-12-15,2022-12-15,株式会社技伸製作所,,株式会社,東京都,大田区,大森南３丁目３２番１号,,13,111,1430013,,,,,,,2022-12-15,1,,,,,ギシンセイサクショ,0
1763,7010901052157,新規,0,2022-12-15,2022-12-15,優真商事株式会社,,株式会社,東京都,世田谷区,松原１丁目３８－１２－３Ｆ,,13,112,1560043,,,,,,,2022-12-15,1,,,,,ユウマショウジ,0
1767,7011001151477,新規,0,2022-12-15,2022-12-15,株式会社ｅｘｃｕｒｓｉｏｎ,,株式会社,東京都,渋谷区,神宮前６丁目２３番４号桑野ビル２階,,13,113,1500001,,,,,,,2022-12-15,1,,,,,エクスカージョン,0
1768,7011001151502,新規,0,2022-12-15,2022-12-15,株式会社アマレット,,株式会社,東京都,渋谷区,恵比寿南１丁目１３番１１号ヴェール５０１,,13,113,1500022,,,,,,,2022-12-15,1,,,,,アマレット,0
1769,7011001151510,新規,0,2022-12-15,2022-12-15,株式会社ＩＫＥ,,株式会社,東京都,目黒区,自由が丘３丁目１番１９号,,13,110,1520035,,,,,,,2022-12-15,1,,,,,アイケイイー,0
1770,7011001151535,新規,0,2022-12-15,2022-12-15,株式会社プラス・ピボット,,株式会社,東京都,渋谷区,代々木２丁目７番１号昇立ビル７Ｆ,,13,113,1510053,,,,,,,2022-12-15,1,,,,,プラスピボット,0
1771,7011003015911,新規,0,2022-12-15,2022-12-15,Ｋｎｏｃｋ　ｋｎｏｃｋ．合同会社,,合同会社,東京都,渋谷区,代官山町１０番１０号代官山トゥエルヴ２Ｂ,,13,113,1500034,,,,,,,2022-12-15,1,,,,,ノックノック,0
1772,7011003015928,新規,0,2022-12-15,2022-12-15,合同会社Ｅ＆Ｂｙ,,合同会社,東京都,目黒区,東が丘２丁目１５番３３号,,13,110,1520021,,,,,,,2022-12-15,1,,,,,イーアンバイ,0
1786,7012701017397,新規,0,2022-12-15,2022-12-15,株式会社フタバペイント,,株式会社,東京都,東村山市,恩多町４丁目３４番地５,,13,213,1890011,,,,,,,2022-12-15,1,,,,,フタバペイント,0
1787,7012801022025,新規,0,2022-12-15,2022-12-15,Ｈｅａｄ　Ｃａｒｅｅｒ株式会社,,株式会社,東京都,立川市,砂川町２丁目７番地の１７,,13,202,1900031,,,,,,,2022-12-15,1,,,,,ヘッドキャリア,0
1789,7013101009076,新規,0,2022-12-15,2022-12-15,株式会社スマートプラン,,株式会社,東京都,あきる野市,上代継３１４番地４,,13,228,1970832,,,,,,,2022-12-15,1,,,,,スマートプラン,0
1793,7020001149407,新規,0,2022-12-15,2022-12-15,株式会社環,,株式会社,神奈川県,川崎市麻生区,東百合丘２丁目４番１０号,,14,137,2150012,,,,,,,2022-12-15,1,,,,,ワ,0
1794,7020001149423,新規,0,2022-12-15,2022-12-15,株式会社ウィンターエステート,,株式会社,神奈川県,川崎市川崎区,富士見２丁目５番１２号三洛ビル２Ｆ,,14,131,2100011,,,,,,,2022-12-15,1,,,,,ウィンターエステート,0
1795,7020001149431,新規,0,2022-12-15,2022-12-15,金剛株式会社,,株式会社,神奈川県,横浜市中区,千歳町１－１１－８０３,,14,104,2310035,,,,,,,2022-12-15,1,,,,,コンゴウ,0
1798,7020003022891,新規,0,2022-12-15,2022-12-15,合同会社Ｅｘｃｉｔｅｃｈ,,合同会社,神奈川県,横浜市緑区,三保町２４３６－１６,,14,113,2260015,,,,,,,2022-12-15,1,,,,,エキサイテック,0
1799,7020003022900,新規,0,2022-12-15,2022-12-15,Ｈｅｌｉｏｓ　Ｄｅｓｉｇｎ合同会社,,合同会社,神奈川県,横浜市港北区,新吉田東１丁目２５番１５号,,14,109,2230058,,,,,,,2022-12-15,1,,,,,ヘリオスデザイン,0
1800,7020003022909,新規,0,2022-12-15,2022-12-15,合同会社リバティ,,合同会社,神奈川県,川崎市幸区,南加瀬２丁目３３番８号,,14,132,2120055,,,,,,,2022-12-15,1,,,,,リバティ,0
1803,7021005012690,新規,0,2022-12-15,2022-12-15,医療法人社団ＢＢスマイル,,その他の設立登記法人,神奈川県,相模原市南区,鵜野森１丁目２９番８号,,14,153,2520301,,,,,,,2022-12-15,1,,,,,ビービースマイル,0
1809,7030001151436,新規,0,2022-12-15,2022-12-15,株式会社エステーション,,株式会社,埼玉県,さいたま市見沼区,東大宮４丁目６１番地３５,,11,104,3370051,,,,,,,2022-12-15,1,,,,,エステーション,0
1810,7030001151444,新規,0,2022-12-15,2022-12-15,株式会社フォーライフ,,株式会社,埼玉県,熊谷市,善ヶ島１７７番地,,11,202,3600211,,,,,,,2022-12-15,1,,,,,フォーライフ,0
1811,7030001151452,新規,0,2022-12-15,2022-12-15,株式会社ｓｕｎｎｙ,,株式会社,埼玉県,さいたま市南区,根岸２丁目３番１１号,,11,108,3360024,,,,,,,2022-12-15,1,,,,,サニー,0
1812,7030001151477,新規,0,2022-12-15,2022-12-15,ＷＥＬＬＶＹ株式会社,,株式会社,埼玉県,さいたま市北区,土呂町１丁目１８番地１０,,11,102,3310804,,,,,,,2022-12-15,1,,,,,ウェルビー,0
1813,7030001151485,新規,0,2022-12-15,2022-12-15,株式会社カーリラックスジャパン,,株式会社,埼玉県,越谷市,大字平方２７７６番地８,,11,222,3430002,,,,,,,2022-12-15,1,,,,,カーリラックスジャパン,0
1815,7030003020738,新規,0,2022-12-15,2022-12-15,合同会社千手国際,,合同会社,埼玉県,川口市,西青木１丁目１１番４号,,11,203,3320035,,,,,,,2022-12-15,1,,,,,センジュコクサイ,0
1828,7040003021479,新規,0,2022-12-15,2022-12-15,シップフローフィールド合同会社,,合同会社,千葉県,流山市,西初石２丁目９２２番地の８,,12,220,2700121,,,,,,,2022-12-15,1,,,,,シップフローフィールド,0
1829,7040003021504,新規,0,2022-12-15,2022-12-15,ＪＲ　ＡＵＴＯ　ＴＲＡＤＩＮＧ合同会社,,合同会社,千葉県,八街市,東吉田７２５番地東吉田オフィスＡ,,12,230,2891114,,,,,,,2022-12-15,1,,,,,ジェイアールオートトレーディング,0
1839,7070001039925,新規,0,2022-12-15,2022-12-15,株式会社Ｍ’ｓ　Ｔｒｕｓｔ,,株式会社,群馬県,高崎市,上豊岡町９３４番地１グランノーブル上豊岡Ｅ,,10,202,3700871,,,,,,,2022-12-15,1,,,,,エムズトラスト,0
1855,7120001250872,新規,0,2022-12-15,2022-12-15,ＡＯＩ株式会社,,株式会社,大阪府,大阪市中央区,松屋町９番２０号ローレルステート松屋町４０２Ａ,,27,128,5420067,,,,,,,2022-12-15,1,,,,,アオイ,0
1856,7120001251045,新規,0,2022-12-15,2022-12-15,Ｌｉｅｂｅ株式会社,,株式会社,大阪府,大阪市東住吉区,鷹合１丁目７番８号,,27,121,5460014,,,,,,,2022-12-15,1,,,,,リーベ,0
1857,7120001251078,新規,0,2022-12-15,2022-12-15,株式会社アピアランス美容ケア,,株式会社,大阪府,大阪市北区,天神橋１丁目２０番７－８０２号,,27,127,5300041,,,,,,,2022-12-15,1,,,,,アピアランスビヨウケア,0
1859,7120003023079,新規,0,2022-12-15,2022-12-15,合同会社ＩＲＯＨＡ,,合同会社,大阪府,大阪市北区,梅田１丁目１１番４－１０００号,,27,127,5300001,,,,,,,2022-12-15,1,,,,,イロハ,0
1860,7120101066657,新規,0,2022-12-15,2022-12-15,株式会社エスケーユー,,株式会社,大阪府,泉大津市,東助松町３丁目２番４６号,,27,206,5950006,,,,,,,2022-12-15,1,,,,,エスケーユー,0
1864,7120901046874,新規,0,2022-12-15,2022-12-15,株式会社ＤＨｂｌｏｓｓｏｍ,,株式会社,大阪府,吹田市,青山台１丁目１番１―８１６号,,27,205,5650875,,,,,,,2022-12-15,1,,,,,ディーエイチブロッサム,0
1867,7130001073273,新規,0,2022-12-15,2022-12-15,株式会社ｋｉｙｏｒａｋａ,,株式会社,京都府,京都市右京区,梅津北浦町１９番地２８，１０１号室,,26,108,6150934,,,,,,,2022-12-15,1,,,,,キヨラカ,0
1868,7130001073315,新規,0,2022-12-15,2022-12-15,株式会社ＣｏｓｍｏＳｋｅｔｃｈ,,株式会社,京都府,京都市下京区,朱雀宝蔵町４４番地協栄ビル２階京都朱雀スタジオ,,26,106,6008846,,,,,,,2022-12-15,1,,,,,コスモスケッチ,0
1874,7140001128365,新規,0,2022-12-15,2022-12-15,株式会社ラルゴ,,株式会社,兵庫県,加古川市,加古川町溝之口１２４番地の１０,,28,210,6750064,,,,,,,2022-12-15,1,,,,,ラルゴ,0
1875,7140001128381,新規,0,2022-12-15,2022-12-15,株式会社Ｔａｋｉｏ,,株式会社,兵庫県,川西市,一庫２丁目１１番２号,,28,217,6660153,,,,,,,2022-12-15,1,,,,,タキオ,0
1877,7140003018465,新規,0,2022-12-15,2022-12-15,Ａｏｌａｎｉ合同会社,,合同会社,兵庫県,神戸市灘区,青谷町３丁目１番１８号サンクレストマヤ１Ｆ,,28,102,6570805,,,,,,,2022-12-15,1,,,,,アアラニ,0
1880,7150001026023,新規,0,2022-12-15,2022-12-15,Ｂｒｉｇｈｔｌｙ　Ａｄｖａｎｃｅ株式会社,,株式会社,奈良県,桜井市,大字竜谷３９５番地,,29,206,6330016,,,,,,,2022-12-15,1,,,,,ブライトリーアドバンス,0
1883,7160001024694,新規,0,2022-12-15,2022-12-15,株式会社Ｄ‐ＰＲＯＪＥＣＴ,,株式会社,滋賀県,栗東市,辻５１３－１－１,00128805,25,208,5203042,,,,,,,2022-12-15,1,,,,,ディープロジェクト,0
1888,7180001154168,新規,0,2022-12-15,2022-12-15,株式会社ＮＥＸＲＯ,,株式会社,愛知県,名古屋市中川区,石場町２丁目１６番地５,,23,110,4540023,,,,,,,2022-12-15,1,,,,,ネクスロ,0
1889,7180001154176,新規,0,2022-12-15,2022-12-15,株式会社Ｈホールディングス,,株式会社,愛知県,名古屋市昭和区,滝川町１１２番地の１,,23,107,4660826,,,,,,,2022-12-15,1,,,,,エイチホールディングス,0
1890,7180001154184,新規,0,2022-12-15,2022-12-15,株式会社Ｎｅｘｕｓ,,株式会社,愛知県,名古屋市港区,港明２丁目４番１号（２１２号）,,23,111,4550018,,,,,,,2022-12-15,1,,,,,ネクサス,0
1891,7180001154192,新規,0,2022-12-15,2022-12-15,株式会社フラップゴルフ,,株式会社,愛知県,名古屋市中川区,富田町大字千音寺字郷東４３２５番地の５,,23,110,4540971,,,,,,,2022-12-15,1,,,,,フラップゴルフ,0
1892,7180001154226,新規,0,2022-12-15,2022-12-15,株式会社ＶＩＬＥＡＰ,,株式会社,愛知県,小牧市,光ケ丘１丁目７１番地２メゾン光ケ丘２号棟１０２号,,23,219,4850811,,,,,,,2022-12-15,1,,,,,ヴィリープ,0
1893,7180001154234,新規,0,2022-12-15,2022-12-15,株式会社ＢＵＰ,,株式会社,愛知県,長久手市,岩作三ケ峯２番地７５８,,23,238,4801103,,,,,,,2022-12-15,1,,,,,ビーユーピー,0
1896,7180003024591,新規,0,2022-12-15,2022-12-15,合同会社酒井電気,,合同会社,愛知県,名古屋市北区,天道町１丁目３０番地の１・メイツ黒川４０３号,,23,103,4620034,,,,,,,2022-12-15,1,,,,,サカイデンキ,0
1900,7180301036900,新規,0,2022-12-15,2022-12-15,地域商社みかわ株式会社,,株式会社,愛知県,豊川市,末広通３丁目３４番地１,,23,207,4420029,,,,,,,2022-12-15,1,,,,,チイキショウシャミカワ,0
1901,7180301036909,新規,0,2022-12-15,2022-12-15,ＧＬＡＤ株式会社,,株式会社,愛知県,豊川市,蔵子７丁目１２番地３４,,23,207,4420842,,,,,,,2022-12-15,1,,,,,グラッド,0
1906,7190001030021,新規,0,2022-12-15,2022-12-15,株式会社ウッドベル,,株式会社,三重県,鈴鹿市,末広北３丁目５番８号,,24,207,5130854,,,,,,,2022-12-15,1,,,,,ウッドベル,0
1907,7190003004171,新規,0,2022-12-15,2022-12-15,ＬＩＮＫＴＨ合同会社,,合同会社,三重県,尾鷲市,倉ノ谷町１４番４７号,,24,209,5193658,,,,,,,2022-12-15,1,,,,,リンクス,0
1911,7220005008720,新規,0,2022-12-15,2022-12-15,一般社団法人ヤッテミヨウ,,その他の設立登記法人,石川県,金沢市,大野町３丁目１５番,,17,201,9200331,,,,,,,2022-12-15,1,,,,,ヤッテミヨウ,0
1915,7240001060797,新規,0,2022-12-15,2022-12-15,ＫＩ　ＪＡＰＡＮ株式会社,,株式会社,広島県,福山市,東深津町４丁目９－１８,,34,207,7210974,,,,,,,2022-12-15,1,,,,,ケイアイジャパン,0
1916,7240001060806,新規,0,2022-12-15,2022-12-15,株式会社協心技建,,株式会社,広島県,福山市,曙町３丁目１３番１７－５号,,34,207,7210952,,,,,,,2022-12-15,1,,,,,キョウシンギケン,0
1919,7260003004123,新規,0,2022-12-15,2022-12-15,合同会社シー・コネクト,,合同会社,岡山県,岡山市南区,藤田２３６－１９,,33,104,7010221,,,,,,,2022-12-15,1,,,,,シーコネクト,0
1920,7270001008686,新規,0,2022-12-15,2022-12-15,株式会社竜塗,,株式会社,鳥取県,東伯郡琴浦町,大字下大江４１９番地１,,31,371,6892314,,,,,,,2022-12-15,1,,,,,リュウト,0
1926,7290001099930,新規,0,2022-12-15,2022-12-15,株式会社太神技工,,株式会社,福岡県,みやま市,瀬高町太神１８５７番地,,40,229,8350013,,,,,,,2022-12-15,1,,,,,オオガギコウ,0
1927,7290003013278,新規,0,2022-12-15,2022-12-15,ＤＯＶＥＲ合同会社,,合同会社,福岡県,飯塚市,上三緒１番７２号,,40,205,8200013,,,,,,,2022-12-15,1,,,,,ドーバー,0
1928,7290801029120,新規,0,2022-12-15,2022-12-15,株式会社京築伐採,,株式会社,福岡県,京都郡苅田町,大字与原９６８－１,,40,621,8000323,,,,,,,2022-12-15,1,,,,,ケイチクバッサイ,0
1929,7290801029129,新規,0,2022-12-15,2022-12-15,株式会社ＤＡＩＳＩＮ,,株式会社,福岡県,田川郡赤村,大字赤４６８４番地１３,,40,609,8240431,,,,,,,2022-12-15,1,,,,,ダイシン,0
1939,7340001025245,新規,0,2022-12-15,2022-12-15,株式会社ＳＯＮＩＣ・ＩＮＴＥＲＮＡＴＩＯＮＡＬ・ＪＡＰＡＮ,,株式会社,鹿児島県,鹿児島市,和田１丁目４０番１０号,,46,201,8910143,,,,,,,2022-12-15,1,,,,,ソニックインターナショナルジャパン,0
1942,7350003004238,新規,0,2022-12-15,2022-12-15,合同会社Ｌｏｖｅ＆Ｐｅａｃｅ,,合同会社,宮崎県,都城市,金田町１９６０番地１グランディールリロ２０１,,45,202,8850001,,,,,,,2022-12-15,1,,,,,ラブアンドピース,0
1946,7370001049373,新規,0,2022-12-15,2022-12-15,株式会社ｉｉｃｏｔ,,株式会社,宮城県,仙台市太白区,富沢３丁目２６番１号３０６,,04,104,9820032,,,,,,,2022-12-15,1,,,,,イイコット,0
1955,7380001033327,新規,0,2022-12-15,2022-12-15,株式会社櫻,,株式会社,福島県,郡山市,小原田２丁目２１番７号タウンコート１号,,07,203,9638835,,,,,,,2022-12-15,1,,,,,,0
1956,7380001033335,新規,0,2022-12-15,2022-12-15,株式会社エディア,,株式会社,福島県,会津若松市,中央１丁目５番１号,,07,202,9650037,,,,,,,2022-12-15,1,,,,,エディア,0
1970,7430003014559,新規,0,2022-12-15,2022-12-15,合同会社ＳＧＴ,,合同会社,北海道,札幌市南区,簾舞三条５丁目１０番２号,,01,106,0612263,,,,,,,2022-12-15,1,,,,,エスジーティー,0
1975,7450001013858,新規,0,2022-12-15,2022-12-15,株式会社松田ファーム,,株式会社,北海道,深川市,一已町字一已７２８２番地,,01,228,0740028,,,,,,,2022-12-15,1,,,,,マツダファーム,0
1976,7470001019382,新規,0,2022-12-15,2022-12-15,株式会社森と山,,株式会社,香川県,仲多度郡琴平町,９５９番地４,,37,403,7660001,,,,,,,2022-12-15,1,,,,,モリトヤマ,0
1979,7470003002312,新規,0,2022-12-15,2022-12-15,合同会社ＣＬＯＡＫ,,合同会社,香川県,高松市,塩上町２丁目１２番３－２０４号アルファライフ瓦町駅東,,37,201,7600062,,,,,,,2022-12-15,1,,,,,クローク,0
1982,7700150059370,新規,0,2022-12-15,2015-10-09,ふれあい広場ふくま利用組合,,その他,福岡県,福津市,上西郷５３９番地の１,,40,224,8113207,,,,,,,2015-10-09,1,,,,,フレアイヒロバフクマリヨウクミアイ,0
1983,7700150112666,新規,0,2022-12-15,2022-11-08,秋田米新品種ブランド化戦略本部,,その他,秋田県,秋田市,山王４丁目１番１号,,05,201,0100951,,,,,,,2022-11-08,1,,,,,アキタマイシンヒンシユブランドカセンリヤクホンブ,0
1984,7700150113152,新規,0,2022-12-15,2022-11-30,南津守コーポ管理組合,,その他,大阪府,大阪市西成区,南津守７丁目９番２２号,,27,122,5570063,,,,,,,2022-11-30,1,,,,,ミナミツモリコーポカンリクミアイ,0
1985,7700150113400,新規,0,2022-12-15,2022-12-15,印田食品有限会社,,外国会社等,東京都,江東区,亀戸２丁目２４－３,,13,108,1360071,澳門高美士街１４號景秀花園２楼Ｄ座,,,,,,2022-12-15,1,,,,,インダシヨクヒンユウゲンガイシヤ,0
1991,8010001231494,新規,0,2022-12-15,2022-12-15,株式会社富士見ホールディングス,,株式会社,東京都,千代田区,内神田１丁目４番２号,,13,101,1010047,,,,,,,2022-12-15,1,,,,,フジミホールディングス,0
1992,8010001231577,新規,0,2022-12-15,2022-12-15,株式会社ワインドリーム,,株式会社,東京都,中央区,八丁堀２丁目１３番２号Ｆｒｉｓｃｈ八重洲２０１号,,13,102,1040032,,,,,,,2022-12-15,1,,,,,ワインドリーム,0
1993,8010001231585,新規,0,2022-12-15,2022-12-15,ｚｅｎｉｔｈ　ｇｌｏｂａｌｓ株式会社,,株式会社,東京都,中央区,銀座１丁目１２番４号Ｎ＆Ｅ・ＢＬＤ．７階,,13,102,1040061,,,,,,,2022-12-15,1,,,,,ゼニスグローバルズ,0
1994,8010001231593,新規,0,2022-12-15,2022-12-15,株式会社ＭＥＤＩｌｅａｒｎｅｒ,,株式会社,東京都,中央区,銀座６丁目７番７号第３岩月ビル２階２０１号,,13,102,1040061,,,,,,,2022-12-15,1,,,,,メディラーナー,0
1995,8010001231602,新規,0,2022-12-15,2022-12-15,株式会社ｖｖｌａｎｄ,,株式会社,東京都,文京区,後楽２丁目２番１０号,,13,105,1120004,,,,,,,2022-12-15,1,,,,,ブイブイランド,0
1999,8010003039333,新規,0,2022-12-15,2022-12-15,Ｉｓｏｌａｔｉｏｎ合同会社,,合同会社,東京都,中央区,銀座１丁目１２番４号Ｎ＆ＥＢＬＤ．６Ｆ,,13,102,1040061,,,,,,,2022-12-15,1,,,,,アイソレーション,0
2017,8010401171365,新規,0,2022-12-15,2022-12-15,株式会社コハククリエイション,,株式会社,東京都,港区,南青山２丁目２番１５号,,13,103,1070062,,,,,,,2022-12-15,1,,,,,コハククリエイション,0
2022,8010701043603,新規,0,2022-12-15,2022-12-15,株式会社トスイットアップ,,株式会社,東京都,品川区,西中延１丁目８番７号,,13,109,1420054,,,,,,,2022-12-15,1,,,,,トスイットアップ,0
2031,8010901052156,新規,0,2022-12-15,2022-12-15,株式会社ＭＧＳ,,株式会社,東京都,世田谷区,成城３丁目５－２０,,13,112,1570066,,,,,,,2022-12-15,1,,,,,マスターゲームズスタジオ,0
2032,8010901052172,新規,0,2022-12-15,2022-12-15,株式会社ｖｉｃｔｏｒｙ８,,株式会社,東京都,世田谷区,野毛２丁目２０番２３－３１２号,,13,112,1580092,,,,,,,2022-12-15,1,,,,,ビクトリーエイト,0
2036,8010903007835,新規,0,2022-12-15,2022-12-15,合同会社フェメル,,合同会社,東京都,世田谷区,奥沢６丁目２２番１２号自由ヶ丘コート１０３,,13,112,1580083,,,,,,,2022-12-15,1,,,,,フェメル,0
2047,8011001151484,新規,0,2022-12-15,2022-12-15,株式会社ＮＯＲＯＳＨＩ,,株式会社,東京都,渋谷区,神宮前６丁目２３番４号桑野ビル２階,,13,113,1500001,,,,,,,2022-12-15,1,,,,,ノロシ,0
2048,8011001151518,新規,0,2022-12-15,2022-12-15,ＡＶＡＮＣＲＥＡ株式会社,,株式会社,東京都,渋谷区,神宮前６丁目２３番４号２階,,13,113,1500001,,,,,,,2022-12-15,1,,,,,アバンクレア,0
2051,8011003015919,新規,0,2022-12-15,2022-12-15,合同会社ｒｅｅｄｏｍ,,合同会社,東京都,渋谷区,道玄坂１丁目１０番８号渋谷道玄坂東急ビル２Ｆ－Ｃ,,13,113,1500043,,,,,,,2022-12-15,1,,,,,リーダム,0
2052,8011003015927,新規,0,2022-12-15,2022-12-15,Ｇｉｅｎ合同会社,,合同会社,東京都,目黒区,中目黒１丁目３番１１号,,13,110,1530061,,,,,,,2022-12-15,1,,,,,ジアン,0
2053,8011101101174,新規,0,2022-12-15,2022-12-15,株式会社ファーストビューティーエンターテイメント,,株式会社,東京都,新宿区,北新宿３丁目５番６号,,13,104,1690074,,,,,,,2022-12-15,1,,,,,ファーストビューティーエンターテイメント,0
2060,8011303004605,新規,0,2022-12-15,2022-12-15,Ｍｏｏｎｌｉｇｈｔ　ｓｈａｄｏｗ合同会社,,合同会社,東京都,杉並区,西荻北５丁目１９番１０号,,13,115,1670042,,,,,,,2022-12-15,1,,,,,,0
2062,8011401024769,新規,0,2022-12-15,2022-12-15,株式会社ＹＳＤジャパン,,株式会社,東京都,板橋区,舟渡１丁目１８番８－３１４号,,13,119,1740041,,,,,,,2022-12-15,1,,,,,ワイエスディージャパン,0
2064,8011501028760,新規,0,2022-12-15,2022-12-15,株式会社わに,,株式会社,東京都,北区,神谷１丁目５番５号,,13,117,1150043,,,,,,,2022-12-15,1,,,,,ワニ,0
2066,8011701025863,新規,0,2022-12-15,2022-12-15,株式会社ＳＲＣ,,株式会社,東京都,江戸川区,松江３丁目８番５号メゾン・ド・セドレ４０５号室,,13,123,1320025,,,,,,,2022-12-15,1,,,,,エスアールシー,0
2071,8012301013250,新規,0,2022-12-15,2022-12-15,株式会社ＭＭＶ,,株式会社,東京都,町田市,小川３丁目２番８４号,,13,209,1940003,,,,,,,2022-12-15,1,,,,,エムエムブイ,0
2072,8012303001757,新規,0,2022-12-15,2022-12-15,ＮＯＲＤ合同会社,,合同会社,東京都,町田市,つくし野２丁目３１番地５２,,13,209,1940001,,,,,,,2022-12-15,1,,,,,ノール,0
2076,8012701017396,新規,0,2022-12-15,2022-12-15,株式会社ＡＳＡホーム,,株式会社,東京都,東久留米市,柳窪４丁目７番３０号,,13,222,2030044,,,,,,,2022-12-15,1,,,,,アサホーム,0
2077,8012801022016,新規,0,2022-12-15,2022-12-15,株式会社ＦＬＣ,,株式会社,東京都,立川市,錦町１丁目４番２０号ＴＳＣビル６階,,13,202,1900022,,,,,,,2022-12-15,1,,,,,エフエルシー,0
2078,8012801022024,新規,0,2022-12-15,2022-12-15,株式会社あすなろ動物病院,,株式会社,東京都,東大和市,中央２丁目１１０１番地の２１,,13,220,2070015,,,,,,,2022-12-15,1,,,,,アスナロドウブツビョウイン,0
2082,8013301050069,新規,0,2022-12-15,2022-12-15,株式会社ＴｏＺ,,株式会社,東京都,豊島区,長崎１丁目２番１０号,,13,116,1710051,,,,,,,2022-12-15,1,,,,,ティーオーゼット,0
2084,8020001149397,新規,0,2022-12-15,2022-12-15,ＹＫエンジニアリング株式会社,,株式会社,神奈川県,川崎市川崎区,大島５丁目６番６－１０４号,,14,131,2100834,,,,,,,2022-12-15,1,,,,,ワイケーエンジニアリング,0
2085,8020001149406,新規,0,2022-12-15,2022-12-15,一寿会株式会社,,株式会社,神奈川県,横浜市中区,扇町２丁目３番地１エスト・グランディール横濱関内８１１号室,,14,104,2310027,,,,,,,2022-12-15,1,,,,,イチジュカイ,0
2086,8020001149422,新規,0,2022-12-15,2022-12-15,ほほえみすまい株式会社,,株式会社,神奈川県,横浜市中区,長者町４丁目１０－２－１００３,,14,104,2310033,,,,,,,2022-12-15,1,,,,,ホホエミスマイ,0
2087,8020001149430,新規,0,2022-12-15,2022-12-15,株式会社たつみ,,株式会社,神奈川県,横浜市西区,南浅間町４番地９グッドウィル１０２号室,,14,103,2200074,,,,,,,2022-12-15,1,,,,,タツミ,0
2088,8020003022899,新規,0,2022-12-15,2022-12-15,吉美装合同会社,,合同会社,神奈川県,横浜市中区,石川町３丁目１０４番地４,,14,104,2310868,,,,,,,2022-12-15,1,,,,,ヨシビソウ,0
2089,8020003022908,新規,0,2022-12-15,2022-12-15,合同会社人和企画,,合同会社,神奈川県,横浜市神奈川区,金港町１－１１－３８０４号,,14,102,2210056,,,,,,,2022-12-15,1,,,,,トワキカク,0
2090,8020003022916,新規,0,2022-12-15,2022-12-15,合同会社えほうまき,,合同会社,神奈川県,川崎市中原区,木月伊勢町九丁目３０番２０２,,14,133,2110032,,,,,,,2022-12-15,1,,,,,エホウマキ,0
2097,8030001151443,新規,0,2022-12-15,2022-12-15,株式会社ｖｉｓｃｏ＆Ｃｏ,,株式会社,埼玉県,坂戸市,にっさい花みず木３丁目２６番地２,,11,239,3500269,,,,,,,2022-12-15,1,,,,,ヴィスコアンドコー,0
2098,8030001151468,新規,0,2022-12-15,2022-12-15,株式会社Ｍｏｎｎａ,,株式会社,埼玉県,さいたま市浦和区,東仲町１６番２２号,,11,107,3300056,,,,,,,2022-12-15,1,,,,,モナ,0
2099,8030001151476,新規,0,2022-12-15,2022-12-15,株式会社にじまるＬＩＦＥ,,株式会社,埼玉県,さいたま市南区,大字広ヶ谷戸１６５番地１５,,11,108,3360041,,,,,,,2022-12-15,1,,,,,ニジマルライフ,0
2104,8030003020753,新規,0,2022-12-15,2022-12-15,合同会社エヌシー,,合同会社,埼玉県,川口市,西川口１丁目１２番１８号,,11,203,3320021,,,,,,,2022-12-15,1,,,,,エヌシー,0
2106,8040001126205,新規,0,2022-12-15,2022-12-15,株式会社ＧＯ　ＴＯ　Ｂ,,株式会社,千葉県,成田市,大清水１０６番地２,,12,211,2860122,,,,,,,2022-12-15,1,,,,,ゴートゥビー,0
2107,8040001126213,新規,0,2022-12-15,2022-12-15,クローザーリンク株式会社,,株式会社,千葉県,船橋市,海神１丁目２２番２１号,,12,204,2730021,,,,,,,2022-12-15,1,,,,,クローザーリンク,0
2108,8040001126221,新規,0,2022-12-15,2022-12-15,株式会社ＭＯＡＮＡ,,株式会社,千葉県,船橋市,飯山満町１丁目６２９－１３,,12,204,2740822,,,,,,,2022-12-15,1,,,,,モアナ,0
2109,8040001126238,新規,0,2022-12-15,2022-12-15,Ｊ．Ｔ．Ｍ株式会社,,株式会社,千葉県,我孫子市,布佐３２６５－５９,,12,222,2701101,,,,,,,2022-12-15,1,,,,,ジェイティーエム,0
2110,8040001126246,新規,0,2022-12-15,2022-12-15,株式会社エンデパーチャー,,株式会社,千葉県,松戸市,新松戸北２丁目１１番地の１,,12,207,2700032,,,,,,,2022-12-15,1,,,,,,0
2111,8040001126254,新規,0,2022-12-15,2022-12-15,クリエート株式会社,,株式会社,千葉県,松戸市,古ケ崎３丁目３３５１番地の１３,,12,207,2710068,,,,,,,2022-12-15,1,,,,,クリエート,0
2114,8040003021486,新規,0,2022-12-15,2022-12-15,合同会社まこと電工,,合同会社,千葉県,船橋市,湊町１丁目１８番２７号,,12,204,2730011,,,,,,,2022-12-15,1,,,,,マコトデンコウ,0
2115,8040003021494,新規,0,2022-12-15,2022-12-15,合同会社思いやり,,合同会社,千葉県,柏市,南増尾４丁目１２番１４－６号,,12,217,2770054,,,,,,,2022-12-15,1,,,,,オモイヤリ,0
2122,8050003007088,新規,0,2022-12-15,2022-12-15,合同会社東雲堂,,合同会社,茨城県,ひたちなか市,大字田彦５６１番地,,08,221,3120063,,,,,,,2022-12-15,1,,,,,シノノメドウ,0
2125,8070001039924,新規,0,2022-12-15,2022-12-15,株式会社ＬＧプラント,,株式会社,群馬県,桐生市,新里町新川５８１番地,,10,203,3760121,,,,,,,2022-12-15,1,,,,,エルジープラント,0
2128,8080001025353,新規,0,2022-12-15,2022-12-15,株式会社ｆｅｅｌ,,株式会社,静岡県,静岡市清水区,高橋４丁目９番１４号,,22,103,4240041,,,,,,,2022-12-15,1,,,,,フィール,0
2134,8100001035960,新規,0,2022-12-15,2022-12-15,株式会社元氣応援団,,株式会社,長野県,佐久市,中込２３３６番地１,,20,217,3850051,,,,,,,2022-12-15,1,,,,,ゲンキオウエンダン,0
2147,8120001250987,新規,0,2022-12-15,2022-12-15,株式会社ソラエナ,,株式会社,大阪府,大阪市北区,東天満２丁目２番７－３０２号,,27,127,5300044,,,,,,,2022-12-15,1,,,,,ソラエナ,0
2148,8120001251011,新規,0,2022-12-15,2022-12-15,株式会社アルファプラス,,株式会社,大阪府,大阪市阿倍野区,松崎町４丁目４番２２－４０２号,,27,119,5450053,,,,,,,2022-12-15,1,,,,,アルファプラス,0
2149,8120001251036,新規,0,2022-12-15,2022-12-15,株式会社ゴールデンブル,,株式会社,大阪府,大阪市浪速区,難波中２丁目７番７号７Ｆ,,27,111,5560011,,,,,,,2022-12-15,1,,,,,ゴールデンブル,0
2150,8120001251044,新規,0,2022-12-15,2022-12-15,株式会社フィーク,,株式会社,大阪府,大阪市東淀川区,豊里２丁目１２番２３号,,27,114,5330013,,,,,,,2022-12-15,1,,,,,フィーク,0
2151,8120001251052,新規,0,2022-12-15,2022-12-15,ＡＢＣＳＴＯＲＥＳ　ＰＬＵＳ株式会社,,株式会社,大阪府,大阪市東淀川区,淡路４丁目７番９号,,27,114,5330032,,,,,,,2022-12-15,1,,,,,エービーシーストアズプラス,0
2152,8120001251102,新規,0,2022-12-15,2022-12-15,株式会社Ｔｒｅｖｅ,,株式会社,大阪府,大阪市北区,曾根崎新地１丁目６番１０号,,27,127,5300002,,,,,,,2022-12-15,1,,,,,トレヴ,0
2153,8120001251110,新規,0,2022-12-15,2022-12-15,晨之屋株式会社,,株式会社,大阪府,大阪市北区,天満２丁目１－１２天満橋ＳＥビル４階,,27,127,5300043,,,,,,,2022-12-15,1,,,,,シンノヤ,0
2157,8120003023086,新規,0,2022-12-15,2022-12-15,合同会社ふぇありー,,合同会社,大阪府,門真市,本町４４番１４号,,27,223,5710046,,,,,,,2022-12-15,1,,,,,フェアリー,0
2162,8120101066656,新規,0,2022-12-15,2022-12-15,株式会社七福堂,,株式会社,大阪府,富田林市,中野町３丁目２番５６号,,27,214,5840021,,,,,,,2022-12-15,1,,,,,シチフクドウ,0
2163,8120101066672,新規,0,2022-12-15,2022-12-15,株式会社西紀,,株式会社,大阪府,藤井寺市,小山９丁目２番２０号（３０３）,,27,226,5830033,,,,,,,2022-12-15,1,,,,,ニシキ,0
2164,8120103004969,新規,0,2022-12-15,2022-12-15,春日合同会社,,合同会社,大阪府,南河内郡太子町,大字春日１１８６－１９,,27,381,5830991,,,,,,,2022-12-15,1,,,,,カスガ,0
2165,8120103004977,新規,0,2022-12-15,2022-12-15,合同会社Ｂ‐ＬｉＮＫ,,合同会社,大阪府,大阪狭山市,今熊７丁目１８９－１－Ｄ－６０５,,27,231,5890021,,,,,,,2022-12-15,1,,,,,ビーリンク,0
2166,8120901046857,新規,0,2022-12-15,2022-12-15,Ｎｉｗａｓｈｉｎ株式会社,,株式会社,大阪府,茨木市,平田台９番１９‐２０２号,,27,211,5670849,,,,,,,2022-12-15,1,,,,,ニワシン,0
2167,8120901046865,新規,0,2022-12-15,2022-12-15,株式会社Ｋｏｚｅｎ,,株式会社,大阪府,豊中市,服部本町１丁目１０番１６の３号,,27,203,5610852,,,,,,,2022-12-15,1,,,,,コウゼン,0
2171,8122001036499,新規,0,2022-12-15,2022-12-15,株式会社アクティブワン,,株式会社,大阪府,東大阪市,花園東町１丁目１３番４号,,27,227,5780931,,,,,,,2022-12-15,1,,,,,アクティブワン,0
2175,8130001073297,新規,0,2022-12-15,2022-12-15,株式会社ＬａＲｕｅ,,株式会社,京都府,向日市,鶏冠井町沢ノ西２番地８０,,26,208,6170004,,,,,,,2022-12-15,1,,,,,ラルー,0
2185,8140001128364,新規,0,2022-12-15,2022-12-15,株式会社ヴィーヴォ,,株式会社,兵庫県,加古川市,加古川町溝之口１２４番地の１０,,28,210,6750064,,,,,,,2022-12-15,1,,,,,ヴィーヴォ,0
2186,8140001128389,新規,0,2022-12-15,2022-12-15,株式会社橋本工務店,,株式会社,兵庫県,洲本市,由良町内田６６１番地,,28,205,6562542,,,,,,,2022-12-15,1,,,,,ハシモトコウムテン,0
2187,8140001128439,新規,0,2022-12-15,2022-12-15,株式会社ＮＥＣＯｎｏＴＥ,,株式会社,兵庫県,西宮市,馬場町５番２３－７０６号,,28,204,6620915,,,,,,,2022-12-15,1,,,,,ネコノテ,0
2188,8140003018456,新規,0,2022-12-15,2022-12-15,合同会社ＧＬＯＢＡＬ,,合同会社,兵庫県,西宮市,学文殿町１丁目１０番１０号,,28,204,6638182,,,,,,,2022-12-15,1,,,,,グローバル,0
2189,8140003018480,新規,0,2022-12-15,2022-12-15,合同会社ＫＩＫＩ＆ＡＬＡＮ,,合同会社,兵庫県,加古川市,平荘町小畑１１５９番地の３,,28,210,6751235,,,,,,,2022-12-15,1,,,,,キキアンドアラン,0
2190,8140005026408,新規,0,2022-12-15,2022-12-15,一般社団法人神戸芸術振興協会,,その他の設立登記法人,兵庫県,神戸市東灘区,田中町１丁目１３番２２－１０２号,,28,101,6580081,,,,,,,2022-12-15,1,,,,,コウベゲイジュツシンコウキョウカイ,0
2191,8150001026022,新規,0,2022-12-15,2022-12-15,株式会社ＬｉｎＸｍｉｌｅ,,株式会社,奈良県,生駒郡三郷町,勢野西４丁目２－１３,,29,343,6360812,,,,,,,2022-12-15,1,,,,,リンクスマイル,0
2195,8170003001806,新規,0,2022-12-15,2022-12-15,合同会社あゆむ,,合同会社,和歌山県,西牟婁郡上富田町,南紀の台５番４０号,,30,404,6492106,,,,,,,2022-12-15,1,,,,,アユム,0
2199,8180001154191,新規,0,2022-12-15,2022-12-15,Ｌｉｆｅ’ｓ　Ｓｍｉｌｅ株式会社,,株式会社,愛知県,名古屋市守山区,小幡南２丁目１８番１２号,,23,113,4630048,,,,,,,2022-12-15,1,,,,,ライフズスマイル,0
2200,8180001154217,新規,0,2022-12-15,2022-12-15,Ｌｕｘｉａ株式会社,,株式会社,愛知県,名古屋市中村区,竹橋町３７番１８号,,23,105,4530016,,,,,,,2022-12-15,1,,,,,ルクシア,0
2201,8180001154225,新規,0,2022-12-15,2022-12-15,株式会社渡辺,,株式会社,愛知県,名古屋市北区,成願寺２丁目９番４３号,,23,103,4620021,,,,,,,2022-12-15,1,,,,,ワタナベ,0
2202,8180001154241,新規,0,2022-12-15,2022-12-15,株式会社メディカル・ウェル・ナビゲーション,,株式会社,愛知県,東海市,加木屋町２丁目２２４番地２,,23,222,4770032,,,,,,,2022-12-15,1,,,,,メディカルウェルナビゲーション,0
2208,8180003024608,新規,0,2022-12-15,2022-12-15,合同会社ＳＴＭ,,合同会社,愛知県,名古屋市中村区,八社２丁目１９番地の３,,23,105,4530863,,,,,,,2022-12-15,1,,,,,エスティーエム,0
2210,8180301036899,新規,0,2022-12-15,2022-12-15,東昇インターナショナル株式会社,,株式会社,愛知県,豊橋市,南栄町字蟹原２１番地９１,,23,201,4418107,,,,,,,2022-12-15,1,,,,,トウショウインターナショナル,0
2211,8180301036908,新規,0,2022-12-15,2022-12-15,豊川営業支援サービス株式会社,,株式会社,愛知県,豊川市,平井町東野地４２番地Ｂ棟,,23,207,4410104,,,,,,,2022-12-15,1,,,,,トヨカワエイギョウシエンサービス,0
2215,8200001040760,新規,0,2022-12-15,2022-12-15,株式会社山義,,株式会社,岐阜県,揖斐郡大野町,大字西方１０４６番地６,,21,403,5010514,,,,,,,2022-12-15,1,,,,,ヤマヨシ,0
2216,8200001040777,新規,0,2022-12-15,2022-12-15,株式会社Ｂａｎｅｓｔｏ,,株式会社,岐阜県,山県市,佐賀７４０番地２,,21,215,5012114,,,,,,,2022-12-15,1,,,,,バネスト,0
2218,8230001019637,新規,0,2022-12-15,2022-12-15,株式会社Ａ＆Ｐホールディングス,,株式会社,富山県,高岡市,金屋町８番１２号,,16,202,9330841,,,,,,,2022-12-15,1,,,,,エーアンドピーホールディングス,0
2220,8240001060788,新規,0,2022-12-15,2022-12-15,株式会社ＴＥＤ５７,,株式会社,広島県,広島市南区,東本浦町１０－６,,34,103,7340025,,,,,,,2022-12-15,1,,,,,テッドフィフティーセブン,0
2221,8240001060813,新規,0,2022-12-15,2022-12-15,株式会社亀山社中,,株式会社,広島県,福山市,赤坂町赤坂２６２－３－２Ｆ,,34,207,7210000,,,,,,,2022-12-15,1,,,,,カメヤマシャチュウ,0
2224,8240003005931,新規,0,2022-12-15,2022-12-15,Ｓａｎｋａｋｕ　Ｓｅｒｖｉｃｅｓ合同会社,,合同会社,広島県,広島市中区,加古町１番２４－１３０３号,,34,101,7300812,,,,,,,2022-12-15,1,,,,,サンカクサービシズ,0
2227,8250001019882,新規,0,2022-12-15,2022-12-15,株式会社ｒｅｌｉｅ　ｇｒｏｕｐ,,株式会社,山口県,下関市,豊前田町２丁目７番２６号第二富士ビル４階,,35,201,7500018,,,,,,,2022-12-15,1,,,,,レリーグループ,0
2228,8260001037504,新規,0,2022-12-15,2022-12-15,株式会社イデアプランニング,,株式会社,岡山県,岡山市南区,藤田２０５２番地１,,33,104,7010221,,,,,,,2022-12-15,1,,,,,イデアプランニング,0
2230,8280001008841,新規,0,2022-12-15,2022-12-15,ＣＲＡＦＴ株式会社,,株式会社,島根県,出雲市,小山町１９２番地２,,32,203,6930051,,,,,,,2022-12-15,1,,,,,クラフト,0
2235,8290001099888,新規,0,2022-12-15,2022-12-15,株式会社Ｈｅｌｉｃａｌ,,株式会社,福岡県,福岡市西区,周船寺３丁目１５番１４－３０５号,,40,135,8190373,,,,,,,2022-12-15,1,,,,,ヘリカル,0
2238,8290801029128,新規,0,2022-12-15,2022-12-15,株式会社ロジック,,株式会社,福岡県,北九州市小倉南区,企救丘６丁目７番５号,,40,107,8020981,,,,,,,2022-12-15,1,,,,,ロジック,0
2243,8320001019470,新規,0,2022-12-15,2022-12-15,よつば電工株式会社,,株式会社,大分県,大分市,法勝台１丁目１－３番地明友モール２０３号,,44,201,8700171,,,,,,,2022-12-15,1,,,,,ヨツバデンコウ,0
2245,8330001030402,新規,0,2022-12-15,2022-12-15,株式会社吉田工務店,,株式会社,熊本県,熊本市北区,清水新地２丁目１番１５８号,,43,105,8618075,,,,,,,2022-12-15,1,,,,,ヨシダコウムテン,0
2248,8330003009626,新規,0,2022-12-15,2022-12-15,合同会社ＮＡＴＩＯＮＡＬ　ＦＡＲＭ,,合同会社,熊本県,熊本市中央区,水前寺３丁目１５番１８号北島ビル２階,,43,101,8620950,,,,,,,2022-12-15,1,,,,,ナショナルファーム,0
2250,8340001025244,新規,0,2022-12-15,2022-12-15,株式会社五反田工務店,,株式会社,鹿児島県,鹿児島市,平川町５４１９番地２７,,46,201,8910133,,,,,,,2022-12-15,1,,,,,ゴタンダコウムテン,0
2260,8380001033334,新規,0,2022-12-15,2022-12-15,株式会社三英建装,,株式会社,福島県,いわき市,葉山２丁目９番地の６,,07,204,9718187,,,,,,,2022-12-15,1,,,,,サンエイケンソウ,0
2265,8380005012656,新規,0,2022-12-15,2022-12-15,一般社団法人浪江町地域文化フォーラム,,その他の設立登記法人,福島県,双葉郡浪江町,大字権現堂字新町５４番地,,07,547,9791521,,,,,,,2022-12-15,1,,,,,ナミエマチチイキブンカフォーラム,0
2266,8390005008983,新規,0,2022-12-15,2022-12-15,医療法人社団あんどうクリニック,,その他の設立登記法人,山形県,寒河江市,大字中郷１０４２－２,,06,206,9910065,,,,,,,2022-12-15,1,,,,,アンドウクリニック,0
2270,8430001088034,新規,0,2022-12-15,2022-12-15,シオリグラフィック株式会社,,株式会社,北海道,札幌市中央区,北四条西１４丁目１番地３５かねそビル２Ｆ,,01,101,0600004,,,,,,,2022-12-15,1,,,,,シオリグラフィック,0
2271,8430001088042,新規,0,2022-12-15,2022-12-15,株式会社ノルドシンフォニア,,株式会社,北海道,岩見沢市,五条東２丁目２番地１７,,01,210,0680005,,,,,,,2022-12-15,1,,,,,ノルドシンフォニア,0
2276,8450001013857,新規,0,2022-12-15,2022-12-15,株式会社流氷物語,,株式会社,北海道,紋別市,南が丘町８丁目１０番地８南が丘カメリア館１０３号,,01,219,0940013,,,,,,,2022-12-15,1,,,,,リュウヒョウモノガタリ,0
2279,8460001005754,新規,0,2022-12-15,2022-12-15,株式会社やまびこ,,株式会社,北海道,釧路市,文苑１丁目４０番７号,,01,206,0850063,,,,,,,2022-12-15,1,,,,,ヤマビコ,0
2281,8470003002311,新規,0,2022-12-15,2022-12-15,合同会社Ａｏ,,合同会社,香川県,高松市,鬼無町佐藤６５番地１,,37,201,7618023,,,,,,,2022-12-15,1,,,,,アオ,0
2288,8700150112442,新規,0,2022-12-15,2022-11-01,音楽は鳴り止まない実行委員会,,その他,神奈川県,横浜市青葉区,奈良町２８６４－３モアクレスト玉川学園三番館２１１号室,,14,117,2270036,,,,,,,2022-11-01,1,,,,,オンガクハナリヤマナイジツコウイインカイ,0
2292,9010001231527,新規,0,2022-12-15,2022-12-15,株式会社９,,株式会社,東京都,千代田区,平河町１丁目６番８号,,13,101,1020093,,,,,,,2022-12-15,1,,,,,キュウ,0
2293,9010001231535,新規,0,2022-12-15,2022-12-15,株式会社７８スタイル＆カンパニー,,株式会社,東京都,千代田区,平河町１丁目８番８号,,13,101,1020093,,,,,,,2022-12-15,1,,,,,ナナハチスタイルアンドカンパニー,0
2294,9010001231543,新規,0,2022-12-15,2022-12-15,ヘルスドア株式会社,,株式会社,東京都,千代田区,麹町２丁目１４番地１第一茜ビル６階,,13,101,1020083,,,,,,,2022-12-15,1,,,,,ヘルスドア,0
2295,9010001231551,新規,0,2022-12-15,2022-12-15,株式会社関東ＩＢＩＳ,,株式会社,東京都,千代田区,外神田６丁目９－８,,13,101,1010021,,,,,,,2022-12-15,1,,,,,カントウアイビス,0
2296,9010001231576,新規,0,2022-12-15,2022-12-15,アイフォース株式会社,,株式会社,東京都,千代田区,九段南１丁目５番６号りそな九段ビル５階ＫＳフロア,,13,101,1020074,,,,,,,2022-12-15,1,,,,,アイフォース,0
2297,9010001231584,新規,0,2022-12-15,2022-12-15,株式会社Ｉｎｄｉｖ,,株式会社,東京都,千代田区,九段南１丁目５番６号りそな九段ビル５Ｆ－ＫＳフロア,,13,101,1020074,,,,,,,2022-12-15,1,,,,,インディヴ,0
2298,9010001231601,新規,0,2022-12-15,2022-12-15,株式会社タビグラ,,株式会社,東京都,千代田区,神田多町２丁目１１－６,,13,101,1010046,,,,,,,2022-12-15,1,,,,,タビグラ,0
2301,9010003039308,新規,0,2022-12-15,2022-12-15,ギャラクシーソーラー合同会社,,合同会社,東京都,中央区,八丁堀４丁目２番１０号ＡＯＪ税理士法人内,,13,102,1040032,,,,,,,2022-12-15,1,,,,,ギャラクシーソーラー,0
2302,9010003039324,新規,0,2022-12-15,2022-12-15,合同会社オフノオト,,合同会社,東京都,千代田区,神田和泉町一丁目６番１６号ヤマトビル４０５,,13,101,1010024,,,,,,,2022-12-15,1,,,,,オフノオト,0
2303,9010003039357,新規,0,2022-12-15,2022-12-15,ＨＲＳアドバイザリー合同会社,,合同会社,東京都,中央区,日本橋２丁目２番３号ＲＩＳＨビルＵＣＦ４階,,13,102,1030027,,,,,,,2022-12-15,1,,,,,エイチアールエスアドバイザリー,0
2306,9010005035916,新規,0,2022-12-15,2022-12-15,一般社団法人サポートホールディングス４５号,,その他の設立登記法人,東京都,千代田区,丸の内３丁目１番１号東京共同会計事務所内,,13,101,1000005,,,,,,,2022-12-15,1,,,,,サポートホールディングスヨンジュウゴゴウ,0
2321,9010601062297,新規,0,2022-12-15,2022-12-15,株式会社エンスリー,,株式会社,東京都,墨田区,両国２丁目１０番１１－１２０５号両国シティコア,,13,107,1300026,,,,,,,2022-12-15,1,,,,,エンスリー,0
2322,9010601062314,新規,0,2022-12-15,2022-12-15,株式会社エスワイメディカル,,株式会社,東京都,江東区,越中島１丁目３－１－８３７,,13,108,1350044,,,,,,,2022-12-15,1,,,,,エスワイメディカル,0
2325,9010701043610,新規,0,2022-12-15,2022-12-15,ＳａｌｅｓＧｕｉｄｅ株式会社,,株式会社,東京都,品川区,西五反田１丁目２６番２号五反田サンハイツビル２階,,13,109,1410031,,,,,,,2022-12-15,1,,,,,セールスガイド,0
2328,9010801033528,新規,0,2022-12-15,2022-12-15,株式会社百楽堂,,株式会社,東京都,大田区,西蒲田７丁目４番５号小山第一ビル１階,,13,111,1440051,,,,,,,2022-12-15,1,,,,,ヒャクラクドウ,0
2330,9010901052155,新規,0,2022-12-15,2022-12-15,株式会社有栖川出版,,株式会社,東京都,世田谷区,三軒茶屋１丁目３９番７号,,13,112,1540024,,,,,,,2022-12-15,1,,,,,アリスガワシュッパン,0
2338,9011001151459,新規,0,2022-12-15,2022-12-15,株式会社アムダブル,,株式会社,東京都,渋谷区,神宮前３丁目３０番８号,,13,113,1500001,,,,,,,2022-12-15,1,,,,,アムダブル,0
2339,9011001151491,新規,0,2022-12-15,2022-12-15,株式会社ＣＯＨＨ　ＣＯＭＰＡＮＹ,,株式会社,東京都,渋谷区,神南１丁目１２番１４号渋谷宮田ビル６階,,13,113,1500041,,,,,,,2022-12-15,1,,,,,コウカンパニー,0
2341,9011003015918,新規,0,2022-12-15,2022-12-15,合同会社インテグラルボイス,,合同会社,東京都,渋谷区,道玄坂１丁目１０番８号渋谷道玄坂東急ビル２Ｆ－Ｃ,,13,113,1500043,,,,,,,2022-12-15,1,,,,,インテグラルボイス,0
2350,9011101101157,新規,0,2022-12-15,2022-12-15,株式会社祥平館プラス,,株式会社,東京都,新宿区,四谷１丁目７番地９,,13,104,1600004,,,,,,,2022-12-15,1,,,,,ショウヘイカンプラス,0
2351,9011101101173,新規,0,2022-12-15,2022-12-15,株式会社ＬＩＭＥ,,株式会社,東京都,新宿区,大久保１丁目７番２４号,,13,104,1690072,,,,,,,2022-12-15,1,,,,,ライム,0
2355,9011503005402,新規,0,2022-12-15,2022-12-15,合同会社ＪＨＧｃｏｍｐａｎｙ,,合同会社,東京都,荒川区,荒川２丁目７番６号,,13,118,1160002,,,,,,,2022-12-15,1,,,,,ジェイエイチジーカンパニー,0
2359,9011801041685,新規,0,2022-12-15,2022-12-15,株式会社アソウ技建,,株式会社,東京都,足立区,入谷１丁目２６番１０－７０３号,,13,121,1210836,,,,,,,2022-12-15,1,,,,,アソウギケン,0
2361,9012701017395,新規,0,2022-12-15,2022-12-15,株式会社Ｎａｂｅｋａｎ,,株式会社,東京都,小平市,小川東町５丁目６番１０－１０３号,,13,211,1870031,,,,,,,2022-12-15,1,,,,,ナベカン,0
2364,9012801022023,新規,0,2022-12-15,2022-12-15,株式会社ＶｅｇｅＬｏｏｐ,,株式会社,東京都,立川市,栄町３丁目２０番地の１０,,13,202,1900003,,,,,,,2022-12-15,1,,,,,ベジループ,0
2365,9013301050076,新規,0,2022-12-15,2022-12-15,株式会社よりみち,,株式会社,東京都,豊島区,東池袋１丁目３４番５号,,13,116,1700013,,,,,,,2022-12-15,1,,,,,ヨリミチ,0
2370,9020001149446,新規,0,2022-12-15,2022-12-15,株式会社ＬＵＦＦ,,株式会社,神奈川県,川崎市高津区,久本１丁目６番８号,,14,134,2130011,,,,,,,2022-12-15,1,,,,,ラフ,0
2373,9020003022898,新規,0,2022-12-15,2022-12-15,合同会社プラネット,,合同会社,神奈川県,川崎市高津区,下作延３丁目３番１０－３０４号スルバリエ梶ヶ谷,,14,134,2130033,,,,,,,2022-12-15,1,,,,,プラネット,0
2374,9020003022907,新規,0,2022-12-15,2022-12-15,合同会社ＥｔｈｉｃａｌＨｏｓｔ,,合同会社,神奈川県,横浜市中区,桜木町１丁目１０１番地１クロスゲート７階,,14,104,2310062,,,,,,,2022-12-15,1,,,,,エシカルホスト,0
2375,9020003022915,新規,0,2022-12-15,2022-12-15,合同会社ＳＴ,,合同会社,神奈川県,横浜市旭区,上川井町２０４番地１,,14,112,2410802,,,,,,,2022-12-15,1,,,,,エスティー,0
2380,9021001077711,新規,0,2022-12-15,2022-12-15,株式会社アオノスゲタ,,株式会社,神奈川県,綾瀬市,深谷上８丁目１８番２２号２階,,14,218,2521108,,,,,,,2022-12-15,1,,,,,アオノスゲタ,0
2393,9030001151434,新規,0,2022-12-15,2022-12-15,ｉＰｒｏｔｅｃｔｉｏｎ少額短期設立準備株式会社,,株式会社,埼玉県,所沢市,御幸町６番２号ＫＦビル７階,,11,208,3591115,,,,,,,2022-12-15,1,,,,,アイプロテクションショウガクタンキセツリツジュンビ,0
2394,9030001151450,新規,0,2022-12-15,2022-12-15,株式会社Ｔａｉｙｏ　Ｐｒｏｊｅｃｔ,,株式会社,埼玉県,三郷市,中央１丁目２１番地３,,11,237,3410038,,,,,,,2022-12-15,1,,,,,タイヨウプロジェクト,0
2395,9030001151459,新規,0,2022-12-15,2022-12-15,株式会社エルシーサービス,,株式会社,埼玉県,鴻巣市,広田２４０９番地１５,,11,217,3650005,,,,,,,2022-12-15,1,,,,,エルシーサービス,0
2396,9030001151467,新規,0,2022-12-15,2022-12-15,株式会社萩原商事,,株式会社,埼玉県,春日部市,梅田２丁目１２番４号,,11,214,3440052,,,,,,,2022-12-15,1,,,,,ハギワラショウジ,0
2397,9030001151475,新規,0,2022-12-15,2022-12-15,株式会社ファミリー葬祭,,株式会社,埼玉県,さいたま市桜区,大字下大久保８３８番地７,,11,106,3380825,,,,,,,2022-12-15,1,,,,,ファミリーソウサイ,0
2398,9030001151491,新規,0,2022-12-15,2022-12-15,株式会社ＨＥＲＯ　Ｉｎｃ．,,株式会社,埼玉県,坂戸市,南町９番９号,,11,239,3500233,,,,,,,2022-12-15,1,,,,,ヒーローインク,0
2399,9030001151517,新規,0,2022-12-15,2022-12-15,日本コネクト株式会社,,株式会社,埼玉県,川口市,大字芝６２２４－１－２Ｆ,,11,203,3330866,,,,,,,2022-12-15,1,,,,,ニホンコネクト,0
2401,9030003020752,新規,0,2022-12-15,2022-12-15,合同会社みちしるべ,,合同会社,埼玉県,戸田市,美女木北３丁目２番地の１レーベンハイム戸田ソラリエ４０３号室,,11,224,3350038,,,,,,,2022-12-15,1,,,,,ミチシルベ,0
2403,9040001126220,新規,0,2022-12-15,2022-12-15,賢興業株式会社,,株式会社,千葉県,八千代市,高津１１６３番地１ヒルトップＩＩ１号室,00128817,12,221,2760036,,,,,,,2022-12-15,1,,,,,サトルコウギョウ,0
2404,9040001126237,新規,0,2022-12-15,2022-12-15,ホンマホールディングス株式会社,,株式会社,千葉県,千葉市花見川区,犢橋町６６番１,,12,102,2620013,,,,,,,2022-12-15,1,,,,,ホンマホールディングス,0
2405,9040001126253,新規,0,2022-12-15,2022-12-15,株式会社ジークカンパニー,,株式会社,千葉県,千葉市美浜区,磯辺７丁目９番９－１号,,12,106,2610012,,,,,,,2022-12-15,1,,,,,ジークカンパニー,0
2412,9040003021477,新規,0,2022-12-15,2022-12-15,合同会社Ｐｈｏｔｏｇｒａｐｈｉｃ　ｏｆｆｉｃｅ　Ｉｃｈｉ‐Ｎｅｎ,,合同会社,千葉県,木更津市,中央３丁目２番１６－５０１号,,12,206,2920067,,,,,,,2022-12-15,1,,,,,フォトグラフィックオフィスイチネン,0
2413,9040003021493,新規,0,2022-12-15,2022-12-15,佐野設備工業合同会社,,合同会社,千葉県,南房総市,千倉町牧田１８８番地,,12,234,2950005,,,,,,,2022-12-15,1,,,,,サノセツビコウギョウ,0
2414,9040003021502,新規,0,2022-12-15,2022-12-15,ＴＯＳＨＩ合同会社,,合同会社,千葉県,柏市,柏３丁目３番８号,,12,217,2770005,,,,,,,2022-12-15,1,,,,,トシ,0
2415,9040003021519,新規,0,2022-12-15,2022-12-15,ＴＥＭ　ｉｎｖｅｓｔｍｅｎｔ合同会社,,合同会社,千葉県,船橋市,海神３丁目５番６－１号,,12,204,2730021,,,,,,,2022-12-15,1,,,,,ティーイーエムインベストメント,0
2416,9040005021839,新規,0,2022-12-15,2022-12-15,社会福祉法人みらいキッズ,,その他の設立登記法人,千葉県,松戸市,本町７番地の１７,,12,207,2710091,,,,,,,2022-12-15,1,,,,,ミライキッズ,0
2418,9050001052110,新規,0,2022-12-15,2022-12-15,株式会社セブンスエステート,,株式会社,茨城県,つくば市,要４４３番地１０,,08,220,3002622,,,,,,,2022-12-15,1,,,,,セブンスエステート,0
2420,9050003007087,新規,0,2022-12-15,2022-12-15,合同会社Ｒａｉｎ　Ｐｏｃｋｅｔ,,合同会社,茨城県,土浦市,荒川沖１６１番地２０,,08,203,3000873,,,,,,,2022-12-15,1,,,,,レインポケット,0
2423,9070001039907,新規,0,2022-12-15,2022-12-15,株式会社スリーマスケティアーズ,,株式会社,群馬県,前橋市,南町２丁目５０番１,,10,201,3710805,,,,,,,2022-12-15,1,,,,,スリーマスケティアーズ,0
2424,9070001039923,新規,0,2022-12-15,2022-12-15,株式会社ウインド・リブ,,株式会社,群馬県,高崎市,上小鳥町５６９番地１ラフィーネササザワ５０６,,10,202,3700078,,,,,,,2022-12-15,1,,,,,,0
2436,9100001035976,新規,0,2022-12-15,2022-12-15,株式会社ＵＭＳ,,株式会社,長野県,上田市,常田２丁目２７番１７号藤本２Ｆ、ＨａｎａＬａｂ．Ｔｏｋｉｄａ．,,20,203,3860018,,,,,,,2022-12-15,1,,,,,ユーエムエス,0
2446,9120001250978,新規,0,2022-12-15,2022-12-15,株式会社ワイズステージ,,株式会社,大阪府,大阪市都島区,善源寺町１丁目１２番２２号,,27,102,5340015,,,,,,,2022-12-15,1,,,,,ワイズステージ,0
2447,9120001251043,新規,0,2022-12-15,2022-12-15,株式会社斑鳩,,株式会社,大阪府,大阪市此花区,西九条１丁目７番２２号,,27,104,5540012,,,,,,,2022-12-15,1,,,,,イカルガ,0
2448,9120001251051,新規,0,2022-12-15,2022-12-15,株式会社ミスティー,,株式会社,大阪府,大阪市北区,中崎西１丁目８－２４アインズビル梅田６Ｆ,,27,127,5300015,,,,,,,2022-12-15,1,,,,,ミスティー,0
2449,9120003023093,新規,0,2022-12-15,2022-12-15,合同会社Ｐｌａｎｎｉｎｇ　ＭＹ　Ｎｅｘｔ,,合同会社,大阪府,大阪市中央区,瓦町１丁目６番１号シティタワー大阪４４０１,,27,128,5410048,,,,,,,2022-12-15,1,,,,,プランニングマイネクスト,0
2453,9120101066655,新規,0,2022-12-15,2022-12-15,株式会社菊乃家,,株式会社,大阪府,岸和田市,下松町９１１番地の９,,27,202,5960823,,,,,,,2022-12-15,1,,,,,キクノヤ,0
2454,9120101066663,新規,0,2022-12-15,2022-12-15,ＤｒｉｖｅＬａｂｏ株式会社,,株式会社,大阪府,岸和田市,小松里町２１８８番地４０２号,,27,202,5960821,,,,,,,2022-12-15,1,,,,,ドライブラボ,0
2457,9120103004976,新規,0,2022-12-15,2022-12-15,ＶａｌｕｅＣｒｅａｔｉｏｎ合同会社,,合同会社,大阪府,堺市北区,長曽根町１３０－４２Ｓ－Ｃｕｂｅ３０１,,27,146,5918025,,,,,,,2022-12-15,1,,,,,バリュークリエーション,0
2458,9120105009651,新規,0,2022-12-15,2022-12-15,八木谷社会保険労務士法人,,その他の設立登記法人,大阪府,堺市南区,栂３７１番地泉陽ビル２階,,27,145,5900131,,,,,,,2022-12-15,1,,,,,ヤギタニ,0
2460,9122001036507,新規,0,2022-12-15,2022-12-15,株式会社Ｐｏｗｅｒ　Ｓｌｉｄｅ,,株式会社,大阪府,東大阪市,加納３丁目９番１６－２０１号,,27,227,5780901,,,,,,,2022-12-15,1,,,,,パワースライド,0
2472,9140001128363,新規,0,2022-12-15,2022-12-15,株式会社プリモテゾーロ,,株式会社,兵庫県,加古川市,加古川町溝之口１２４番地の１０,,28,210,6750064,,,,,,,2022-12-15,1,,,,,プリモテゾーロ,0
2473,9140001128371,新規,0,2022-12-15,2022-12-15,橋本機工株式会社,,株式会社,兵庫県,加古郡稲美町,印南２３０６番地の１６,,28,381,6751111,,,,,,,2022-12-15,1,,,,,ハシモトキコウ,0
2474,9140001128388,新規,0,2022-12-15,2022-12-15,株式会社ｃｈａｎｇｅ,,株式会社,兵庫県,明石市,魚住町錦が丘４丁目７番地の８田口ビル２階,,28,203,6740081,,,,,,,2022-12-15,1,,,,,チェンジ,0
2475,9140001128396,新規,0,2022-12-15,2022-12-15,株式会社ＩＢＩＳ,,株式会社,兵庫県,加古郡稲美町,野谷５５２番地の５,,28,381,6751103,,,,,,,2022-12-15,1,,,,,アイビス,0
2476,9140001128413,新規,0,2022-12-15,2022-12-15,株式会社オールマイティ,,株式会社,兵庫県,姫路市,花田町高木２９０番地,,28,201,6710256,,,,,,,2022-12-15,1,,,,,オールマイティ,0
2477,9140001128438,新規,0,2022-12-15,2022-12-15,株式会社Ｄｅｃｏ,,株式会社,兵庫県,高砂市,伊保町中筋１２９１番地の１,,28,216,6760081,,,,,,,2022-12-15,1,,,,,デコ,0
2481,9150001026021,新規,0,2022-12-15,2022-12-15,株式会社カラーワークス,,株式会社,奈良県,宇陀市,榛原天満台西２丁目１８番の２,,29,212,6330206,,,,,,,2022-12-15,1,,,,,カラーワークス,0
2482,9150003002838,新規,0,2022-12-15,2022-12-15,合同会社オリジン,,合同会社,奈良県,奈良市,東登美ヶ丘６丁目１６番４号,,29,201,6310002,,,,,,,2022-12-15,1,,,,,オリジン,0
2493,9180001154026,新規,0,2022-12-15,2022-12-15,株式会社山徳,,株式会社,愛知県,名古屋市中川区,富田町大字千音寺字市場上屋敷４５１２番地７スカイハイツＩＩ２０１,00128804,23,110,4540971,,,,,,,2022-12-15,1,,,,,ヤマトク,0
2494,9180001154190,新規,0,2022-12-15,2022-12-15,株式会社アクロス,,株式会社,愛知県,名古屋市守山区,新守町６８番地グロウヒルズ新守５０２,,23,113,4630071,,,,,,,2022-12-15,1,,,,,アクロス,0
2495,9180001154199,新規,0,2022-12-15,2022-12-15,松田企画株式会社,,株式会社,愛知県,小牧市,多気南町１４８番地,,23,219,4850053,,,,,,,2022-12-15,1,,,,,マツダキカク,0
2496,9180001154224,新規,0,2022-12-15,2022-12-15,株式会社ＳＨＡＰＥ,,株式会社,愛知県,名古屋市港区,港楽３丁目８番１６号明興産業ビル２階,,23,111,4550014,,,,,,,2022-12-15,1,,,,,シェイプ,0
2497,9180001154232,新規,0,2022-12-15,2022-12-15,株式会社パイロットフィッシュ,,株式会社,愛知県,名古屋市西区,牛島町６番１号名古屋ルーセントタワー４０Ｆ,,23,104,4510046,,,,,,,2022-12-15,1,,,,,パイロットフィッシュ,0
2503,9180003024581,新規,0,2022-12-15,2022-12-15,合同会社システムエイト,,合同会社,愛知県,春日井市,出川町４丁目９番地３,,23,206,4870025,,,,,,,2022-12-15,1,,,,,システムエイト,0
2504,9180003024598,新規,0,2022-12-15,2022-12-15,合同会社ＲＨ,,合同会社,愛知県,長久手市,片平１丁目４１６番地プラッサムコート長湫１０１号室,,23,238,4801146,,,,,,,2022-12-15,1,,,,,アールエイチ,0
2505,9180003024607,新規,0,2022-12-15,2022-12-15,合同会社ＤＡＤＡ,,合同会社,愛知県,名古屋市守山区,永森町６,,23,113,4630086,,,,,,,2022-12-15,1,,,,,ダダ,0
2507,9180301036907,新規,0,2022-12-15,2022-12-15,株式会社マネジメントクリエイターズ,,株式会社,愛知県,豊橋市,西幸町字浜池３３３番地９,,23,201,4418113,,,,,,,2022-12-15,1,,,,,マネジメントクリエイターズ,0
2513,9210003001593,新規,0,2022-12-15,2022-12-15,合同会社マエカワ,,合同会社,福井県,福井市,丸山２丁目６１０番地３,,18,201,9100834,,,,,,,2022-12-15,1,,,,,マエカワ,0
2515,9220001025180,新規,0,2022-12-15,2022-12-15,株式会社ＶＡＲＩＯＵＳ,,株式会社,石川県,金沢市,大河端町東１２８番地２,,17,201,9200213,,,,,,,2022-12-15,1,,,,,ヴァリアス,0
2518,9230001019636,新規,0,2022-12-15,2022-12-15,株式会社塚原商会,,株式会社,富山県,射水市,宮袋２９０番地,,16,211,9340051,,,,,,,2022-12-15,1,,,,,ツカハラショウカイ,0
2522,9240001060804,新規,0,2022-12-15,2022-12-15,ＴＭＲ株式会社,,株式会社,広島県,広島市安佐北区,可部２丁目３３番２号,,34,106,7310221,,,,,,,2022-12-15,1,,,,,ティーエムアール,0
2533,9290001099895,新規,0,2022-12-15,2022-12-15,ＧＲＥＥＴＥＣ株式会社,,株式会社,福岡県,久留米市,津福今町４８９番地４,,40,203,8300061,,,,,,,2022-12-15,1,,,,,グリーテック,0
2534,9290001099912,新規,0,2022-12-15,2022-12-15,株式会社旺龍,,株式会社,福岡県,福岡市博多区,美野島３丁目８－１－２０２,,40,132,8120017,,,,,,,2022-12-15,1,,,,,オウリュウ,0
2535,9290001099929,新規,0,2022-12-15,2022-12-15,株式会社ＲＩＺ,,株式会社,福岡県,大野城市,つつじケ丘２丁目２７番１１号,,40,219,8160962,,,,,,,2022-12-15,1,,,,,リズ,0
2539,9290003013268,新規,0,2022-12-15,2022-12-15,合同会社どらねこ,,合同会社,福岡県,福岡市中央区,天神４丁目６－２８天神ファーストビル７Ｆ,,40,133,8100001,,,,,,,2022-12-15,1,,,,,ドラネコ,0
2540,9290801029119,新規,0,2022-12-15,2022-12-15,株式会社ＷＩＴＨ　ＧＲＡＶＩＴＹ,,株式会社,福岡県,田川市,上本町２番３１号,,40,206,8260023,,,,,,,2022-12-15,1,,,,,ウィズグラビティ,0
2544,9340001025243,新規,0,2022-12-15,2022-12-15,株式会社ほし家,,株式会社,鹿児島県,鹿児島市,唐湊１丁目１９番２７号,,46,201,8900081,,,,,,,2022-12-15,1,,,,,ホシヤ,0
2548,9370003005918,新規,0,2022-12-15,2022-12-15,合同会社スマイル,,合同会社,宮城県,黒川郡大郷町,羽生字堤下２４番地の４０,,04,422,9813515,,,,,,,2022-12-15,1,,,,,スマイル,0
2554,9380001033341,新規,0,2022-12-15,2022-12-15,Ｃｏｎｃｅｐｔ　Ｓｃｈｏｏｌ株式会社,,株式会社,福島県,郡山市,駅前２丁目３番７号エリート３０ビル２Ｆ,,07,203,9638002,,,,,,,2022-12-15,1,,,,,コンセプトスクール,0
2559,9400005008287,新規,0,2022-12-15,2022-12-15,一般社団法人カスミソウ,,その他の設立登記法人,岩手県,花巻市,高松第１１地割１２１番地６,,03,205,0250014,,,,,,,2022-12-15,1,,,,,カスミソウ,0
2561,9420003002637,新規,0,2022-12-15,2022-12-15,ＳＯＮＯＬＩＮ合同会社,,合同会社,青森県,五所川原市,字布屋町４１番地２０,,02,205,0370053,,,,,,,2022-12-15,1,,,,,ソノリン,0
2567,9430003014549,新規,0,2022-12-15,2022-12-15,合同会社フレード,,合同会社,北海道,札幌市北区,新琴似十二条１丁目２番４８号,,01,102,0010912,,,,,,,2022-12-15,1,,,,,フレード,0
2568,9430005014613,新規,0,2022-12-15,2022-12-15,一般社団法人Ｒｕｇａｒｔ　Ｓｐｏｒｔｓ　Ａｃａｄｅｍｙ,,その他の設立登記法人,北海道,札幌市東区,東雁来九条１丁目１番３号,,01,103,0070829,,,,,,,2022-12-15,1,,,,,ルガートスポーツアカデミー,0
2578,9500003002934,新規,0,2022-12-15,2022-12-15,合同会社リライブ,,合同会社,愛媛県,松山市,中村３丁目４番３号,,38,201,7900964,,,,,,,2022-12-15,1,,,,,,0
