sequenceNumber,corporateNumber,process,correct,updateDate,changeDate,name,nameImageId,kind,prefectureName,cityName,streetNumber,addressImageId,prefectureCode,cityCode,postCode,addressOutside,addressOutsideImageId,closeDate,closeCause,successorCorporateNumber,changeCause,assignmentDate,latest,enName,enPrefectureName,enCityName,enAddressOutside,furigana,hihyoji
13,1010003042186,登記記録の閉鎖等,0,2025-05-15,2025-04-23,ＪＤ２合同会社,,合同会社,東京都,千代田区,丸の内１丁目４番１号東京共同会計事務所内,,13,101,1000005,,,2025-04-23,清算の結了等,,,2023-11-10,1,,,,,ジェイディーツー,0
21,1010403014850,登記記録の閉鎖等,0,2025-05-15,2025-04-22,グリーンメガソーラー合同会社,,合同会社,東京都,千代田区,丸の内１丁目８番２号,,13,101,1000005,,,2025-04-22,清算の結了等,,,2016-05-27,1,,,,,グリーンメガソーラー,0
51,1011101017699,登記記録の閉鎖等,0,2025-05-15,2025-04-16,株式会社パルメッセ,,株式会社,東京都,品川区,東品川４丁目１２番６号,,13,109,1400002,,,2025-04-16,清算の結了等,,,2015-10-05,1,,,,,パルメッセ,0
54,1011101099548,登記記録の閉鎖等,0,2025-05-15,2025-05-14,株式会社ＭＩＹＡ,,株式会社,東京都,新宿区,西新宿６丁目２０番７号コンシェリア西新宿タワーズウエスト１２１３,,13,104,1600023,,,2025-05-14,清算の結了等,,,2022-07-14,1,,,,,ミヤ,0
75,1012801000977,登記記録の閉鎖等,0,2025-05-15,2025-05-02,株式会社高橋建設工業,,株式会社,東京都,立川市,柴崎町５丁目７番１３号,,13,202,1900023,,,2025-05-02,清算の結了等,,,2015-10-05,1,,,,,タカハシケンセツコウギョウ,0
78,1013201011053,登記記録の閉鎖等,0,2025-05-15,2025-04-11,株式会社シンコミュニケーションズ,,株式会社,東京都,目黒区,三田２丁目１２番１号ドミール目黒２０１,,13,110,1530062,,,2025-04-11,清算の結了等,,,2015-10-05,1,,,,,シンコミュニケーションズ,0
97,1021002033893,登記記録の閉鎖等,0,2025-05-15,2025-05-09,有限会社王神工務店,,有限会社,神奈川県,愛甲郡愛川町,半原３８３６番地,,14,401,2430307,,,2025-05-09,清算の結了等,,,2015-10-05,1,,,,,オオガミコウムテン,0
105,1030002060055,登記記録の閉鎖等,0,2025-05-15,2025-05-12,有限会社総合土木,,有限会社,埼玉県,志木市,柏町５丁目１４番９号,,11,228,3530007,,,2025-05-12,清算の結了等,,,2015-10-05,1,,,,,ソウゴウドボク,0
111,1040001065483,登記記録の閉鎖等,0,2025-05-15,2025-04-25,共和工芸株式会社,,株式会社,千葉県,柏市,豊四季９４５番４２０,,12,217,2770863,,,2025-04-25,清算の結了等,,,2015-10-05,1,,,,,キョウワコウゲイ,0
129,1100001011927,登記記録の閉鎖等,0,2025-05-15,2025-05-13,木島平木材工業株式会社,,株式会社,長野県,下高井郡木島平村,大字上木島１８９０番地,,20,562,3892303,,,2025-05-13,清算の結了等,,,2015-10-05,1,,,,,キジマダイラモクザイコウギョウ,0
155,1120002029669,登記記録の閉鎖等,0,2025-05-15,2025-05-01,有限会社エムユー,,有限会社,大阪府,大阪市北区,西天満４丁目９番２号西天満ビル５１２号,,27,127,5300047,,,2025-05-01,清算の結了等,,,2015-10-05,1,,,,,,0
190,1180001074355,登記記録の閉鎖等,0,2025-05-15,2025-05-12,第一金剛株式会社,,株式会社,愛知県,春日井市,気噴町１丁目２１番地２,,23,206,4870014,,,2025-05-12,清算の結了等,,,2015-10-05,1,,,,,ダイイチコンゴウ,0
198,1180002038978,登記記録の閉鎖等,0,2025-05-15,2025-05-12,有限会社丸十,,有限会社,愛知県,名古屋市中村区,則武本通２丁目８０番地,,23,105,4530017,,,2025-05-12,清算の結了等,,,2015-10-05,1,,,,,マルジュウ,0
200,1180002074899,登記記録の閉鎖等,0,2025-05-15,2025-05-09,有限会社木村商店,,有限会社,愛知県,丹羽郡扶桑町,大字小淵字宮東ノ切５９番地,,23,362,4800106,,,2025-05-09,清算の結了等,,,2015-10-05,1,,,,,キムラショウテン,0
205,1180003017304,登記記録の閉鎖等,0,2025-05-15,2025-05-02,合同会社ａｌｃｈｉｂａ,,合同会社,愛知県,名古屋市中川区,富川町５丁目１番地６,,23,110,4540037,,,2025-05-02,清算の結了等,,,2016-08-10,1,,,,,アルキバ,0
208,1180301035503,登記記録の閉鎖等,0,2025-05-15,2025-05-08,株式会社クーリア,,株式会社,愛知県,岡崎市,橋目町字御小屋西１８９番地３,,23,202,4440909,,,2025-05-08,清算の結了等,,,2021-10-12,1,,,,,クーリア,0
209,1180301037383,登記記録の閉鎖等,0,2025-05-15,2025-05-13,株式会社プラスワンＲｅテラス,,株式会社,大阪府,大阪市北区,天神橋１丁目１９番８号ＭＦ南森町３ビル４階Ｂ号室,,27,127,5300041,,,2025-05-13,合併による解散等,1160001024353,令和７年５月１日滋賀県大津市坂本三丁目１６番４０号プラスワンＨＤビル２階株式会社プラスワンホールディングス（1160001024353）に合併し解散,2023-05-15,1,,,,,プラスワンリテラス,0
210,1180302018424,登記記録の閉鎖等,0,2025-05-15,2025-05-07,有限会社シーモッシュ,,有限会社,愛知県,刈谷市,山池町５丁目１０１番地,,23,210,4480036,,,2025-05-07,清算の結了等,,,2015-10-05,1,,,,,シーモッシュ,0
265,1370002007716,登記記録の閉鎖等,0,2025-05-15,2025-04-30,有限会社庄司板金,,有限会社,宮城県,仙台市宮城野区,燕沢１丁目２１番１８号,,04,102,9830823,,,2025-04-30,清算の結了等,,,2015-10-05,1,,,,,ショウジバンキン,0
266,1370002007897,登記記録の閉鎖等,0,2025-05-15,2025-04-30,有限会社仙美塗装,,有限会社,宮城県,仙台市宮城野区,岩切字鴻巣北１番地の７,,04,102,9830821,,,2025-04-30,清算の結了等,,,2015-10-05,1,,,,,センビトソウ,0
272,1390002003110,登記記録の閉鎖等,0,2025-05-15,2025-05-01,有限会社渡辺運輸,,有限会社,山形県,山形市,下条町２丁目２２番７号,,06,201,9900823,,,2025-05-01,清算の結了等,,,2015-10-05,1,,,,,ワタナベウンユ,0
286,1470001014819,登記記録の閉鎖等,0,2025-05-15,2025-05-12,株式会社光高,,株式会社,香川県,高松市,浜ノ町７３番９－１５０１号,,37,201,7600011,,,2025-05-12,清算の結了等,,,2015-10-05,1,,,,,ミツタカ,0
302,2010003035899,登記記録の閉鎖等,0,2025-05-15,2025-04-22,レーベンソーラー１号合同会社,,合同会社,東京都,千代田区,丸の内１丁目８番２号,,13,101,1000005,,,2025-04-22,清算の結了等,,,2021-09-30,1,,,,,レーベンソーラーイチゴウ,0
303,2010003039487,登記記録の閉鎖等,0,2025-05-15,2025-04-22,リードテック合同会社,,合同会社,東京都,中央区,銀座１丁目１２番４号Ｎ＆ＥＢＬＤ．６Ｆ,,13,102,1040061,,,2025-04-22,清算の結了等,,,2023-01-12,1,,,,,リードテック,0
327,2011001123828,登記記録の閉鎖等,0,2025-05-15,2025-05-12,株式会社Ｂ級グルメ研究所ホールディングス,,株式会社,東京都,渋谷区,道玄坂２丁目６番２号,,13,113,1500043,,,2025-05-12,合併による解散等,2012401039374,令和７年４月１日東京都武蔵野市吉祥寺本町二丁目５番１０号株式会社牛かつもと村（2012401039374）に合併し解散,2018-08-22,1,,,,,ビーキュウグルメケンキュウジョホールディングス,0
329,2011001137885,登記記録の閉鎖等,0,2025-05-15,2025-04-11,株式会社Ｒｅｉｇｎｉｔｅ　Ｅｎｔｅｒｔａｉｎｍｅｎｔ,,株式会社,東京都,目黒区,青葉台３丁目６番２８号,,13,110,1530042,,,2025-04-11,合併による解散等,1011001059528,令和７年４月１日東京都目黒区青葉台三丁目６番２８号株式会社コアテック（1011001059528）に合併し解散,2021-01-13,1,,,,,リーグナイトエンターテインメント,0
393,2030002034074,登記記録の閉鎖等,0,2025-05-15,2025-05-12,有限会社ティー・エス・シー,,有限会社,埼玉県,狭山市,入間川１４６７番地の４３,,11,215,3501305,,,2025-05-12,清算の結了等,,,2015-10-05,1,,,,,ティーエスシー,0
395,2030002118918,登記記録の閉鎖等,0,2025-05-15,2025-05-02,有限会社大国工業,,有限会社,埼玉県,熊谷市,上之３７６９番地,,11,202,3600012,,,2025-05-02,清算の結了等,,,2015-10-05,1,,,,,ダイコクコウギョウ,0
411,2070001019007,登記記録の閉鎖等,0,2025-05-15,2025-05-08,株式会社カナデン,,株式会社,群馬県,邑楽郡大泉町,城之内２丁目８番１号,,10,524,3700518,,,2025-05-08,清算の結了等,,,2015-10-05,1,,,,,カナデン,0
424,2120001147818,登記記録の閉鎖等,0,2025-05-15,2025-04-30,株式会社コンドウ,,株式会社,大阪府,寝屋川市,春日町２２番１２号,,27,215,5720063,,,2025-04-30,清算の結了等,,,2015-10-05,1,,,,,コンドウ,0
452,2130003006319,登記記録の閉鎖等,0,2025-05-15,2025-05-07,合同会社Ｒ指定,,合同会社,京都府,京都市中京区,御幸町通四条上る大日町４１４－１,,26,104,6048044,,,2025-05-07,清算の結了等,,,2019-12-06,1,,,,,アールシテイ,0
464,2140005015787,登記記録の閉鎖等,0,2025-05-15,2025-05-12,準学校法人江川美育研究所,,その他の設立登記法人,兵庫県,西宮市,仁川町３丁目１３番１６号,,28,204,6620811,,,2025-05-12,清算の結了等,,,2015-10-05,1,,,,,エガワビイクケンキュウショ,0
480,2180002032419,登記記録の閉鎖等,0,2025-05-15,2025-05-09,有限会社ハットリカメラ,,有限会社,愛知県,名古屋市中区,錦１丁目１０番１２号,,23,106,4600003,,,2025-05-09,清算の結了等,,,2015-10-05,1,,,,,ハットリカメラ,0
490,2180302021162,登記記録の閉鎖等,0,2025-05-15,2025-05-09,アイエム設計有限会社,,有限会社,愛知県,豊田市,田中町１丁目１１９番地１７,,23,211,4710845,,,2025-05-09,清算の結了等,,,2015-10-05,1,,,,,アイエムセッケイ,0
492,2200001004226,登記記録の閉鎖等,0,2025-05-15,2025-05-12,パントラベルサービス株式会社,,株式会社,岐阜県,岐阜市,中西郷３丁目１３７番地,,21,201,5011177,,,2025-05-12,清算の結了等,,,2015-10-05,1,,,,,パントラベルサービス,0
498,2220002004009,登記記録の閉鎖等,0,2025-05-15,2025-05-13,有限会社出戸板金,,有限会社,石川県,金沢市,春日町４番２号,,17,201,9200817,,,2025-05-13,清算の結了等,,,2015-10-05,1,,,,,デトバッキン,0
504,2230002012142,登記記録の閉鎖等,0,2025-05-15,2025-05-12,有限会社みやざき,,有限会社,富山県,高岡市,滝５１番地,,16,202,9391255,,,2025-05-12,清算の結了等,,,2015-10-05,1,,,,,ミヤザキ,0
516,2290001016254,登記記録の閉鎖等,0,2025-05-15,2025-04-30,株式会社福電センター,,株式会社,福岡県,福岡市博多区,千代２丁目１８番１２号,,40,132,8120044,,,2025-04-30,清算の結了等,,,2015-10-05,1,,,,,フクデンセンター,0
530,2310001011203,登記記録の閉鎖等,0,2025-05-15,2025-05-13,フクシマ窯業株式会社,,株式会社,長崎県,東彼杵郡波佐見町,宿郷１４８６番地,,42,323,8593715,,,2025-05-13,清算の結了等,,,2015-10-05,1,,,,,フクシマヨウギョウ,0
546,2430003014836,登記記録の閉鎖等,0,2025-05-15,2025-05-09,合同会社ＫＷＴ,,合同会社,北海道,札幌市南区,石山二条９丁目３番１１号,,01,106,0050842,,,2025-05-09,清算の結了等,,,2023-03-17,1,,,,,ケーダブリュティー,0
552,2500001000995,登記記録の閉鎖等,0,2025-05-15,2025-05-13,株式会社エフコ,,株式会社,愛媛県,松山市,枝松３丁目６番１４号,,38,201,7900962,,,2025-05-13,清算の結了等,,,2015-10-05,1,,,,,エフコ,0
554,3010001212730,登記記録の閉鎖等,0,2025-05-15,2025-05-01,株式会社ＡＴフードサービス,,株式会社,東京都,大田区,蒲田３丁目２３番８号蒲田ビル１１階,,13,111,1440052,,,2025-05-01,合併による解散等,2010801018832,令和７年５月１日東京都大田区蒲田三丁目２３番８号蒲田ビル１１階株式会社アルス（2010801018832）に合併し解散,2020-10-05,1,,,,,エイティーフードサービス,0
562,3010101007130,登記記録の閉鎖等,0,2025-05-15,2025-05-07,株式会社ワインレッドケミカル,,株式会社,東京都,八王子市,犬目町２４６番地の４,,13,201,1930802,,,2025-05-07,清算の結了等,,,2015-10-05,1,,,,,ワインレッドケミカル,0
563,3010101009795,登記記録の閉鎖等,0,2025-05-15,2025-05-12,株式会社東城建販,,株式会社,東京都,八王子市,狭間町１７２２番地７,,13,201,1930941,,,2025-05-12,清算の結了等,,,2015-10-05,1,,,,,,0
565,3010401034551,登記記録の閉鎖等,0,2025-05-15,2025-05-02,株式会社大栄,,株式会社,神奈川県,川崎市川崎区,大島１丁目１８番１１号アビタシオンＫ１０８号室,,14,131,2100834,,,2025-05-02,清算の結了等,,,2015-10-05,1,,,,,ダイエイ,0
572,3010501027257,登記記録の閉鎖等,0,2025-05-15,2025-04-09,トキワイーエーエム株式会社,,株式会社,東京都,台東区,元浅草１丁目６番１２号松下ビル,,13,106,1110041,,,2025-04-09,合併による解散等,1180002078529,令和７年４月１日愛知県一宮市木曽川町黒田字北宿三の切８６番地の１株式会社オリジナルあい（1180002078529）に合併し解散,2015-10-05,1,,,,,トキワイーエーエム,0
620,3020002098029,登記記録の閉鎖等,0,2025-05-15,2025-05-09,有限会社中央金型製作所,,有限会社,神奈川県,川崎市川崎区,鋼管通３丁目１４番２号,,14,131,2100852,,,2025-05-09,清算の結了等,,,2015-10-05,1,,,,,チュウオウカナガタセイサクジョ,0
624,3021001007839,登記記録の閉鎖等,0,2025-05-15,2025-05-08,株式会社ティーピー,,株式会社,神奈川県,茅ヶ崎市,本宿町３番３４号,,14,207,2530014,,,2025-05-08,清算の結了等,,,2015-10-05,1,,,,,ティーピー,0
628,3021001068988,登記記録の閉鎖等,0,2025-05-15,2025-03-31,五右衛門ホールディングス株式会社,,株式会社,神奈川県,藤沢市,桐原町３番地,,14,205,2520811,,,2025-03-31,合併による解散等,3021001058782,令和７年３月１日神奈川県藤沢市桐原町３番地五右衛門株式会社（3021001058782）に合併し解散,2020-01-15,1,,,,,ゴエモンホールディングス,0
651,3060001032364,登記記録の閉鎖等,0,2025-05-15,2025-05-07,株式会社ＺＥＲＯＸ,,株式会社,栃木県,宇都宮市,平松本町１２１９番地７,,09,201,3210932,,,2025-05-07,清算の結了等,,,2020-03-09,1,,,,,ゼロックス,0
654,3060002029236,登記記録の閉鎖等,0,2025-05-15,2025-05-07,有限会社ファッションハウスローズ,,有限会社,栃木県,小山市,駅東通り１丁目３１番２５号,,09,208,3230022,,,2025-05-07,清算の結了等,,,2015-10-05,1,,,,,ファッションハウスローズ,0
655,3060002037759,登記記録の閉鎖等,0,2025-05-15,2025-05-02,有限会社渡辺工務店,,有限会社,栃木県,足利市,鹿島町７７番地の１,,09,202,3260844,,,2025-05-02,清算の結了等,,,2015-10-05,1,,,,,ワタナベコウムテン,0
668,3110002011568,登記記録の閉鎖等,0,2025-05-15,2025-04-30,青柳石油有限会社,,有限会社,新潟県,新潟市西蒲区,巻甲２５５１番地７,,15,108,9530041,,,2025-04-30,清算の結了等,,,2015-10-05,1,,,,,アオヤギセキユ,0
674,3120001033190,登記記録の閉鎖等,0,2025-05-15,2025-05-02,株式会社津村総合研究所,,株式会社,福井県,福井市,二の宮５丁目１４番３号ローズヴィラ二の宮４０１,,18,201,9100015,,,2025-05-02,清算の結了等,,,2015-10-05,1,,,,,ツムラソウゴウケンキュウジョ,0
679,3120001226703,登記記録の閉鎖等,0,2025-05-15,2025-04-16,株式会社Ｓｃｈｏｌｅ,,株式会社,大阪府,大阪市北区,梅田１丁目１１番４－９２３号大阪駅前第４ビル９階,,27,127,5300001,,,2025-04-16,清算の結了等,,,2020-01-24,1,,,,,スコレー,0
696,3130001000124,登記記録の閉鎖等,0,2025-05-15,2025-05-13,アトレ・コーポレーション株式会社,,株式会社,京都府,京都市下京区,五条通堀川上ル小泉町１０１番地ＡＭ＆Ｔビル,,26,106,6000000,,,2025-05-13,清算の結了等,,,2015-10-05,1,,,,,アトレコーポレーション,0
698,3130002022084,登記記録の閉鎖等,0,2025-05-15,2025-05-09,有限会社五六七繁緑,,有限会社,京都府,京都市下京区,烏丸通松原上る因幡堂町６８２番地,,26,106,6008415,,,2025-05-09,合併による解散等,9160002004363,令和７年５月１日滋賀県大津市浜大津一丁目１番１３号株式会社ハン六キャピタル（9160002004363）に合併し解散,2015-10-05,1,,,,,ゴロナハンロク,0
728,3180301008944,登記記録の閉鎖等,0,2025-05-15,2025-05-08,株式会社アルファート,,株式会社,愛知県,豊橋市,西松山町９１番地２,,23,201,4400876,,,2025-05-08,清算の結了等,,,2015-10-05,1,,,,,アルファート,0
729,3180302001758,登記記録の閉鎖等,0,2025-05-15,2025-05-09,有限会社タイヤセレクト岡崎,,有限会社,愛知県,岡崎市,六名本町２番地２２,,23,202,4440854,,,2025-05-09,清算の結了等,,,2015-10-05,1,,,,,タイヤセレクトオカザキ,0
740,3220002001715,登記記録の閉鎖等,0,2025-05-15,2025-05-12,オトガイ設計有限会社,,有限会社,石川県,金沢市,横川３丁目１番地,,17,201,9218163,,,2025-05-12,清算の結了等,,,2015-10-05,1,,,,,オトガイセッケイ,0
748,3260001016438,登記記録の閉鎖等,0,2025-05-15,2025-04-30,株式会社マイス,,株式会社,岡山県,倉敷市,二日市２９８番地１０,,33,202,7100042,,,2025-04-30,清算の結了等,,,2015-10-05,1,,,,,マイス,0
753,3290001058411,登記記録の閉鎖等,0,2025-05-15,2025-04-30,バリューネット株式会社,,株式会社,福岡県,福岡市中央区,舞鶴２丁目７番１－１１０２号,,40,133,8100073,,,2025-04-30,清算の結了等,,,2015-10-05,1,,,,,バリューネット,0
770,3340003003764,登記記録の閉鎖等,0,2025-05-15,2025-05-07,合同会社ヘンペラー,,合同会社,鹿児島県,鹿児島市,常盤１丁目２６番５号１０３号室,,46,201,8900047,,,2025-05-07,清算の結了等,,,2022-04-25,1,,,,,ヘンペラー,0
776,3370501000764,登記記録の閉鎖等,0,2025-05-15,2025-05-12,株式会社恵佑,,株式会社,宮城県,本吉郡南三陸町,志津川字大久保１６８番地１,,04,606,9860764,,,2025-05-12,清算の結了等,,,2015-10-05,1,,,,,ケイユウ,0
779,3420001016628,登記記録の閉鎖等,0,2025-05-15,2025-04-30,株式会社ライフサポート安心社,,株式会社,青森県,八戸市,石堂２丁目１３番５号,,02,203,0391165,,,2025-04-30,清算の結了等,,,2019-06-07,1,,,,,ライフサポートアンシンシャ,0
780,3420001018979,登記記録の閉鎖等,0,2025-05-15,2025-05-02,株式会社スマートゲート,,株式会社,青森県,弘前市,大字向外瀬３丁目１４番地９,,02,202,0368066,,,2025-05-02,清算の結了等,,,2025-01-17,1,,,,,スマートゲート,0
796,3490002004955,登記記録の閉鎖等,0,2025-05-15,2025-05-13,有限会社三城設備工業,,有限会社,高知県,高知市,薊野北町１丁目６番８－４号,,39,201,7810011,,,2025-05-13,清算の結了等,,,2015-10-05,1,,,,,ミキセツビコウギョウ,0
800,4010001175794,登記記録の閉鎖等,0,2025-05-15,2025-04-23,株式会社いろは社,,株式会社,東京都,中央区,日本橋兜町１７番２号兜町第６葉山ビル４階,,13,102,1030026,,,2025-04-23,清算の結了等,,,2016-05-23,1,,,,,イロハシャ,0
813,4010003044989,登記記録の閉鎖等,0,2025-05-15,2025-05-12,パール合同会社,,合同会社,東京都,千代田区,丸の内１丁目８番３号丸の内トラストタワー本館２０階,,13,101,1000005,,,2025-05-12,清算の結了等,,,2024-10-03,1,,,,,パール,0
838,4010801026081,登記記録の閉鎖等,0,2025-05-15,2025-05-01,株式会社ビジネスサプライ,,株式会社,東京都,大田区,西蒲田７丁目４８番１０号ＳＡＮＫＯＵ電機ビル６Ｆ,,13,111,1440051,,,2025-05-01,清算の結了等,,,2015-10-13,1,,,,,ビジネスサプライ,0
843,4011001054468,登記記録の閉鎖等,0,2025-05-15,2025-05-12,プラス・ビー株式会社,,株式会社,東京都,渋谷区,恵比寿西１丁目８番３号,,13,113,1500021,,,2025-05-12,合併による解散等,8120001092554,令和７年３月３１日東京都港区虎ノ門三丁目１８番１２号株式会社ワイズ・コーポレーション（8120001092554）に合併し解散,2015-10-05,1,,,,,プラスビー,0
851,4011102001063,登記記録の閉鎖等,0,2025-05-15,2025-05-12,有限会社いし乃,,有限会社,東京都,新宿区,大久保１丁目３番２２号,,13,104,1690072,,,2025-05-12,清算の結了等,,,2015-10-05,1,,,,,イシノ,0
864,4012401007247,登記記録の閉鎖等,0,2025-05-15,2025-05-07,株式会社アベ・サプライ,,株式会社,東京都,稲城市,若葉台１丁目１２番地の７,,13,225,2060824,,,2025-05-07,清算の結了等,,,2015-10-05,1,,,,,アベサプライ,0
877,4020001033118,登記記録の閉鎖等,0,2025-05-15,2025-04-28,オフイスクリエイト株式会社,,株式会社,神奈川県,横浜市神奈川区,鶴屋町３丁目２８番６号,,14,102,2210835,,,2025-04-28,清算の結了等,,,2015-10-05,1,,,,,オフイスクリエイト,0
927,4070001021084,登記記録の閉鎖等,0,2025-05-15,2025-05-09,株式会社太田ファーム,,株式会社,群馬県,太田市,新野町３２０番１,,10,205,3730032,,,2025-05-09,清算の結了等,,,2015-10-05,1,,,,,オオタファーム,0
964,4120901011278,登記記録の閉鎖等,0,2025-05-15,2025-05-01,太陽実業株式会社,,株式会社,大阪府,高槻市,寿町１丁目２番１１号,,27,207,5690826,,,2025-05-01,清算の結了等,,,2015-10-05,1,,,,,,0
970,4130001029939,登記記録の閉鎖等,0,2025-05-15,2025-05-12,株式会社太田スクリーン,,株式会社,京都府,長岡京市,馬場見場走り２５番地１０,,26,209,6170828,,,2025-05-12,清算の結了等,,,2015-10-05,1,,,,,オオタスクリーン,0
980,4140001118071,登記記録の閉鎖等,0,2025-05-15,2025-05-12,日鉄ビジネスサービス瀬戸内株式会社,,株式会社,兵庫県,姫路市,広畑区正門通４丁目９番地の６,,28,201,6711116,,,2025-05-12,合併による解散等,8040001052104,令和７年４月１日千葉県木更津市築地１番１日鉄ビジネスサービス株式会社（8040001052104）に合併し解散,2020-07-21,1,,,,,ニッテツビジネスサービスセトウチ,0
985,4140002032684,登記記録の閉鎖等,0,2025-05-15,2025-05-08,高橋商店有限会社,,有限会社,兵庫県,宍粟市,山崎町与位１５２７番地,,28,227,6712512,,,2025-05-08,清算の結了等,,,2015-10-05,1,,,,,タカハシショウテン,0
1009,4180002087980,登記記録の閉鎖等,0,2025-05-15,2025-05-12,有限会社藤井鉄工,,有限会社,愛知県,東海市,荒尾町大城１４２番地,,23,222,4760003,,,2025-05-12,清算の結了等,,,2015-10-05,1,,,,,フジイテッコウ,0
1017,4210002013933,登記記録の閉鎖等,0,2025-05-15,2025-05-08,未来保険サービス有限会社,,有限会社,福井県,小浜市,加斗第１７号２７番地,,18,204,9170045,,,2025-05-08,清算の結了等,,,2015-10-05,1,,,,,ミライホケンサービス,0
1028,4240002014697,登記記録の閉鎖等,0,2025-05-15,2025-05-07,有限会社フライトシンタニ,,有限会社,広島県,広島市西区,南観音５丁目７番２０号,,34,104,7330035,,,2025-05-07,清算の結了等,,,2015-10-05,1,,,,,フライトシンタニ,0
1036,4290002048609,登記記録の閉鎖等,0,2025-05-15,2025-04-30,有限会社岡村電気工事,,有限会社,福岡県,久留米市,安武町武島３１４０番地の５,,40,203,8300071,,,2025-04-30,清算の結了等,,,2015-10-05,1,,,,,オカムラデンキコウジ,0
1040,4320003000845,登記記録の閉鎖等,0,2025-05-15,2025-05-02,合資会社アウセ,,合資会社,大分県,大分市,大字小池原１００５番地の１,,44,201,8700147,,,2025-05-02,清算の結了等,,,2015-10-05,1,,,,,,0
1063,4380002029392,登記記録の閉鎖等,0,2025-05-15,2025-05-02,有限会社猪狩組,,有限会社,福島県,相馬郡新地町,大字福田字大町３番地の１,,07,561,9792708,,,2025-05-02,清算の結了等,,,2015-10-05,1,,,,,イガリグミ,0
1071,4430001050105,登記記録の閉鎖等,0,2025-05-15,2025-05-09,株式会社住の江市場,,株式会社,北海道,小樽市,築港１２番９２３号ベイシティガーデン小樽サイドＤ,,01,203,0470008,,,2025-05-09,清算の結了等,,,2015-10-05,1,,,,,スミノエイチバ,0
1078,4450005000681,登記記録の閉鎖等,0,2025-05-15,2025-05-14,上川地区学校生活協同組合,,その他の設立登記法人,北海道,旭川市,三条通１１丁目右２号,,01,204,0700033,,,2025-05-14,清算の結了等,,,2015-10-05,1,,,,,カミカワチクガッコウ,0
1090,5010002024173,登記記録の閉鎖等,0,2025-05-15,2025-05-08,有限会社ビー・シー,,有限会社,東京都,江東区,大島６丁目１４番２－６０３号室,,13,108,1360072,,,2025-05-08,清算の結了等,,,2015-10-05,1,,,,,ユウゲンガウシャビーシー,0
1159,5012705001820,登記記録の閉鎖等,0,2025-05-15,2025-05-09,特定非営利活動法人ホームホスピス武蔵野,,その他の設立登記法人,東京都,小平市,学園西町２丁目１２番１９号,,13,211,1870045,,,2025-05-09,清算の結了等,,,2015-10-05,1,,,,,ホームホスピスムサシノ,0
1193,5040001066676,登記記録の閉鎖等,0,2025-05-15,2025-04-24,株式会社福士不動産綜合事務所,,株式会社,千葉県,柏市,松ケ崎７４８番地２,,12,217,2770835,,,2025-04-24,清算の結了等,,,2015-10-05,1,,,,,フクシフドウサンソウゴウジムショ,0
1221,5120001218401,登記記録の閉鎖等,0,2025-05-15,2025-04-30,ポイントマーケット株式会社,,株式会社,大阪府,大阪市中央区,淡路町４丁目３番５号,,27,128,5410047,,,2025-04-30,清算の結了等,,,2019-01-21,1,,,,,,0
1228,5120003019021,登記記録の閉鎖等,0,2025-05-15,2025-04-18,合同会社興正,,合同会社,大阪府,大阪市港区,夕凪２丁目１４番５号,,27,107,5520004,,,2025-04-18,清算の結了等,,,2021-03-08,1,,,,,コウショウ,0
1231,5120101032561,登記記録の閉鎖等,0,2025-05-15,2025-05-08,株式会社山路製作所,,株式会社,大阪府,羽曳野市,島泉８丁目１０番８号,,27,222,5830881,,,2025-05-08,清算の結了等,,,2015-10-05,1,,,,,ヤマジセイサクショ,0
1238,5130001013149,登記記録の閉鎖等,0,2025-05-15,2025-05-12,株式会社日電工,,株式会社,京都府,京都市山科区,勧修寺閑林寺町６１番地３９,,26,110,6078217,,,2025-05-12,清算の結了等,,,2015-10-05,1,,,,,ニチデンコウ,0
1281,5180003020683,登記記録の閉鎖等,0,2025-05-15,2025-05-08,合同会社近岡,,合同会社,愛知県,名古屋市瑞穂区,太田町３丁目１９番地の１５,,23,108,4670874,,,2025-05-08,清算の結了等,,,2019-12-25,1,,,,,チカオカ,0
1298,5210001000320,登記記録の閉鎖等,0,2025-05-15,2025-05-09,株式会社アドプランプロジェクト,,株式会社,福井県,福井市,和田東１丁目１６０４番地,,18,201,9188237,,,2025-05-09,清算の結了等,,,2015-10-05,1,,,,,アドプランプロジェクト,0
1313,5270005002860,登記記録の閉鎖等,0,2025-05-15,2025-05-13,医療法人社団菅村内科医院,,その他の設立登記法人,鳥取県,米子市,東福原１丁目４番６０号,,31,202,6830802,,,2025-05-13,清算の結了等,,,2015-10-05,1,,,,,スガムラナイカイイン,0
1320,5290801030278,登記記録の閉鎖等,0,2025-05-15,2025-05-12,株式会社Ｂｌｕｅ　Ｓｋｙ　Ｓｅｃｕｒｉｔｙ,,株式会社,福岡県,直方市,須崎町３番３７号竹田ビル６階２５号室,,40,204,8220024,,,2025-05-12,清算の結了等,,,2024-02-05,1,,,,,ブルースカイセキュリティー,0
1331,5380002035489,登記記録の閉鎖等,0,2025-05-15,2025-05-02,有限会社シェやまのべ,,有限会社,福島県,南会津郡下郷町,大字湯野上字舘本乙１３１６番地,,07,362,9695206,,,2025-05-02,清算の結了等,,,2015-10-05,1,,,,,シェヤマノベ,0
1334,5420001018457,登記記録の閉鎖等,0,2025-05-15,2025-04-10,株式会社ポルトリンク,,株式会社,東京都,目黒区,自由が丘２丁目１６番１２号ＲＪ３,,13,110,1520035,,,2025-04-10,清算の結了等,,,2023-10-19,1,,,,,ポルトリンク,0
1340,5470003002149,登記記録の閉鎖等,0,2025-05-15,2025-05-12,合同会社Ｂｒｅｉｎ配送サービス,,合同会社,香川県,高松市,三谷町７１１－１２,,37,201,7610450,,,2025-05-12,清算の結了等,,,2022-03-10,1,,,,,ブレインハイソウサービス,0
1342,5500002003540,登記記録の閉鎖等,0,2025-05-15,2025-05-13,有限会社旬鮮亭,,有限会社,愛媛県,松山市,枝松３丁目６番１４号,,38,201,7900962,,,2025-05-13,清算の結了等,,,2015-10-05,1,,,,,シュンセンテイ,0
1347,6010001172690,登記記録の閉鎖等,0,2025-05-15,2025-04-22,レーベンソーラー広島三原合同会社,,合同会社,東京都,千代田区,丸の内１丁目８番２号鉄鋼ビルディング１６階,,13,101,1000005,,,2025-04-22,清算の結了等,,,2016-01-07,1,,,,,レーベンソーラーヒロシマミハラ,0
1359,6010401171994,登記記録の閉鎖等,0,2025-05-15,2025-04-10,ＳＯＯＧ株式会社,,株式会社,東京都,港区,北青山３丁目５番１４号青山鈴木硝子ビル７階,,13,103,1070061,,,2025-04-10,清算の結了等,,,2023-01-20,1,,,,,ソーグ,0
1362,6010403020563,登記記録の閉鎖等,0,2025-05-15,2025-04-10,合同会社Ｍｅｄｉａｔｅ,,合同会社,東京都,港区,北青山３丁目５番１４号７階,,13,103,1070061,,,2025-04-10,清算の結了等,,,2019-04-18,1,,,,,メディエイト,0
1365,6010501013873,登記記録の閉鎖等,0,2025-05-15,2025-04-25,株式会社路商事,,株式会社,神奈川県,横浜市港北区,綱島西５丁目４番３５号エステージ綱島Ｉ－２０２,00119595,14,109,2230053,,,2025-04-25,清算の結了等,,,2015-10-05,1,,,,,ミチショウジ,0
1385,6011001123700,登記記録の閉鎖等,0,2025-05-15,2025-04-18,株式会社昼ｊｏｂ,,株式会社,東京都,新宿区,新宿５丁目８－１４新宿オービル３Ｆ,,13,104,1600022,,,2025-04-18,清算の結了等,,,2018-08-15,1,,,,,ヒルジョブ,0
1386,6011001124302,登記記録の閉鎖等,0,2025-05-15,2025-04-09,株式会社Ｕｎｉｓｅ,,株式会社,東京都,渋谷区,渋谷１丁目１７番１号ＴＯＣ第二ビル１００６号室,,13,113,1500002,,,2025-04-09,清算の結了等,,,2018-09-19,1,,,,,ユニス,0
1394,6011101021671,登記記録の閉鎖等,0,2025-05-15,2025-04-17,株式会社ユーホ,,株式会社,東京都,新宿区,若葉１丁目５番地,,13,104,1600011,,,2025-04-17,清算の結了等,,,2015-10-05,1,,,,,ユーホ,0
1417,6020001005635,登記記録の閉鎖等,0,2025-05-15,2025-05-08,株式会社幹建設,,株式会社,神奈川県,横浜市旭区,南希望が丘１番地１４,,14,112,2410824,,,2025-05-08,清算の結了等,,,2015-10-05,1,,,,,ミキケンセツ,0
1433,6021002043087,登記記録の閉鎖等,0,2025-05-15,2025-04-28,秋葉産業有限会社,,有限会社,神奈川県,座間市,東原１丁目５番２２号,,14,216,2520004,,,2025-04-28,清算の結了等,,,2015-10-05,1,,,,,アキバサンギョウ,0
1439,6030002021820,登記記録の閉鎖等,0,2025-05-15,2025-05-13,有限会社都石油,,有限会社,埼玉県,さいたま市岩槻区,西町４丁目３番５号,,11,110,3390067,,,2025-05-13,清算の結了等,,,2015-10-05,1,,,,,ミヤコセキユ,0
1442,6030003012554,登記記録の閉鎖等,0,2025-05-15,2025-05-12,サンクチュアリプロダクション合同会社,,合同会社,埼玉県,川越市,脇田新町１５番地２８メゾンリュミエール１０２号室,,11,201,3501121,,,2025-05-12,清算の結了等,,,2018-10-15,1,,,,,サンクチュアリプロダクション,0
1443,6030005017097,登記記録の閉鎖等,0,2025-05-15,2025-04-24,一般社団法人ファミリー三雄会,,その他の設立登記法人,埼玉県,和光市,下新倉１丁目６番６号,,11,229,3510111,,,2025-04-24,清算の結了等,,,2015-10-05,1,,,,,ファミリーサンユウカイ,0
1446,6040001126116,登記記録の閉鎖等,0,2025-05-15,2025-04-25,仁和貿易株式会社,,株式会社,千葉県,市原市,潤井戸２２７９番地１０３,,12,219,2900171,,,2025-04-25,清算の結了等,,,2022-12-06,1,,,,,ジンワボウエキ,0
1472,6100001006261,登記記録の閉鎖等,0,2025-05-15,2025-05-13,森川開発株式会社,,株式会社,長野県,千曲市,大字寂蒔１００２番地,,20,218,3870016,,,2025-05-13,清算の結了等,,,2015-10-05,1,,,,,モリカワカイハツ,0
1480,6110002014080,登記記録の閉鎖等,0,2025-05-15,2025-05-01,有限会社羽田電器,,有限会社,新潟県,五泉市,村松甲２２２９番地,,15,218,9591704,,,2025-05-01,清算の結了等,,,2015-10-05,1,,,,,,0
1482,6120001095501,登記記録の閉鎖等,0,2025-05-15,2025-04-28,株式会社エムツーフォト,,株式会社,大阪府,大阪市北区,本庄西２丁目１７番１１号,,27,127,5310073,,,2025-04-28,清算の結了等,,,2015-10-05,1,,,,,エムツーフォト,0
1502,6120005003848,登記記録の閉鎖等,0,2025-05-15,2025-05-13,一般財団法人ユニチカ修斉会,,その他の設立登記法人,大阪府,大阪市中央区,久太郎町４丁目１番３号,,27,128,5410056,,,2025-05-13,清算の結了等,,,2015-10-05,1,,,,,ユニチカシュウサイカイ,0
1520,6140002021371,登記記録の閉鎖等,0,2025-05-15,2025-05-09,有限会社日本医学英語研究所,,有限会社,兵庫県,神戸市西区,竹の台３丁目１１番地の３,,28,111,6512274,,,2025-05-09,清算の結了等,,,2015-10-05,1,,,,,ニホンイガクエイゴケンキュウショ,0
1521,6140002051625,登記記録の閉鎖等,0,2025-05-15,2025-05-07,株式会社リアルハウジング,,株式会社,兵庫県,宍粟市,山崎町上ノ１６２３番地,,28,227,6712501,,,2025-05-07,清算の結了等,,,2015-10-05,1,,,,,リアルハウジング,0
1529,6160001016775,登記記録の閉鎖等,0,2025-05-15,2025-05-13,株式会社ｔｏ,,株式会社,滋賀県,栗東市,川辺６５７番地,,25,208,5203014,,,2025-05-13,清算の結了等,,,2015-10-05,1,,,,,トゥ,0
1530,6170001001727,登記記録の閉鎖等,0,2025-05-15,2025-05-12,日鉄ビジネスサービス関西株式会社,,株式会社,和歌山県,和歌山市,湊１８５０番地,,30,201,6408404,,,2025-05-12,合併による解散等,8040001052104,令和７年４月１日千葉県木更津市築地１番１日鉄ビジネスサービス株式会社（8040001052104）に合併し解散,2015-10-05,1,,,,,ニッテツビジネスサービスカンサイ,0
1534,6180001023596,登記記録の閉鎖等,0,2025-05-15,2025-05-09,サカエ電子工業株式会社,,株式会社,愛知県,名古屋市天白区,植田西２丁目１００６番地,,23,116,4680058,,,2025-05-09,清算の結了等,,,2015-10-05,1,,,,,サカエデンシコウギョウ,0
1540,6180001121862,登記記録の閉鎖等,0,2025-05-15,2025-05-09,株式会社ダイコウ電機,,株式会社,愛知県,江南市,力長町大当寺１０５番地,,23,217,4838104,,,2025-05-09,清算の結了等,,,2016-01-25,1,,,,,ダイコウデンキ,0
1566,6240002009803,登記記録の閉鎖等,0,2025-05-15,2025-05-12,有限会社たかや寿し,,有限会社,広島県,広島市中区,舟入南３丁目１９番９号,,34,101,7300847,,,2025-05-12,清算の結了等,,,2015-10-05,1,,,,,タカヤズシ,0
1569,6260001036714,登記記録の閉鎖等,0,2025-05-15,2025-05-01,Ｒｅｍｉｘ株式会社,,株式会社,岡山県,岡山市中区,平井５丁目５番２８－１号,,33,102,7038282,,,2025-05-01,清算の結了等,,,2022-04-04,1,,,,,リミックス,0
1574,6270001004397,登記記録の閉鎖等,0,2025-05-15,2025-05-14,株式会社ハウスイン,,株式会社,鳥取県,米子市,古豊千５５０番地１,,31,202,6893537,,,2025-05-14,清算の結了等,,,2015-10-05,1,,,,,ハウスイン,0
1585,6290801013661,登記記録の閉鎖等,0,2025-05-15,2025-05-14,秀島保険コンサルティング株式会社,,株式会社,福岡県,北九州市八幡東区,石坪町１４番１５号,,40,108,8050021,,,2025-05-14,清算の結了等,,,2015-10-05,1,,,,,ヒデシマホケンコンサルティング,0
1591,6330001029207,登記記録の閉鎖等,0,2025-05-15,2025-05-07,ネクストライド株式会社,,株式会社,熊本県,熊本市中央区,新市街３番６号いしはらビル３階,,43,101,8600803,,,2025-05-07,清算の結了等,,,2021-11-18,1,,,,,ネクストライド,0
1599,6360001029294,登記記録の閉鎖等,0,2025-05-15,2025-05-02,樹建材株式会社,,株式会社,沖縄県,宜野湾市,宇地泊１丁目１５番１０号,,47,205,9012227,,,2025-05-02,清算の結了等,,,2021-08-30,1,,,,,イツキケンザイ,0
1611,6410002007384,登記記録の閉鎖等,0,2025-05-15,2025-05-12,有限会社サイトウ,,有限会社,秋田県,にかほ市,金浦字南金浦４２番地,,05,214,0180311,,,2025-05-12,清算の結了等,,,2015-10-05,1,,,,,,0
1615,6430001077724,登記記録の閉鎖等,0,2025-05-15,2025-05-07,花邑近藤宅建株式会社,,株式会社,北海道,石狩市,花川北六条４丁目２０番地,,01,235,0613216,,,2025-05-07,清算の結了等,,,2018-11-08,1,,,,,ハナムラコンドウタッケン,0
1643,7010401166069,登記記録の閉鎖等,0,2025-05-15,2025-05-12,ＧＣＪＧ２４株式会社,,株式会社,東京都,港区,元赤坂１丁目１番８号株式会社赤坂国際会計内,,13,103,1070051,,,2025-05-12,合併による解散等,4110001039023,令和７年５月１日新潟県長岡市希望が丘南五丁目１１－１１フォレージュ内山６号室株式会社目崎ホールディングス（4110001039023）に合併し解散,2022-03-09,1,,,,,ジーシージェイジートゥエンティフォー,0
1673,7011402009737,登記記録の閉鎖等,0,2025-05-15,2025-05-13,有限会社リーガルサービス,,有限会社,東京都,板橋区,東山町５２番１７－４０３号,,13,119,1740073,,,2025-05-13,清算の結了等,,,2015-10-05,1,,,,,リーガルサービス,0
1674,7011403003656,登記記録の閉鎖等,0,2025-05-15,2025-05-12,合同会社東京消防設備点検研究所,,合同会社,東京都,板橋区,高島平９丁目２－２０－１４０５,,13,119,1750082,,,2025-05-12,清算の結了等,,,2022-05-10,1,,,,,トウキョウショウボウセツビテンケンケンキュウショ,0
1709,7021002070642,登記記録の閉鎖等,0,2025-05-15,2025-05-07,ＫＩＴ有限会社,,有限会社,神奈川県,横須賀市,上町４丁目４９番地イエローハウス,,14,201,2380017,,,2025-05-07,清算の結了等,,,2015-10-05,1,,,,,ケーアイティー,0
1712,7030001051132,登記記録の閉鎖等,0,2025-05-15,2025-05-12,株式会社ステンレス加工センター,,株式会社,埼玉県,春日部市,増戸８２０番地,,11,214,3440042,,,2025-05-12,合併による解散等,1011101002081,令和７年４月１日東京都新宿区左門町３番地１井上金属株式会社（1011101002081）に合併し解散,2015-10-05,1,,,,,ステンレスカコウセンター,0
1741,7050005001610,登記記録の閉鎖等,0,2025-05-15,2025-05-08,特定非営利活動法人ぽかぽかくらぶ,,その他の設立登記法人,茨城県,水戸市,吉沢町１０番地の７,,08,201,3100845,,,2025-05-08,清算の結了等,,,2015-10-05,1,,,,,ポカポカクラブ,0
1747,7060002011553,登記記録の閉鎖等,0,2025-05-15,2025-05-07,有限会社ケーオー・ビジネスサプライ,,有限会社,栃木県,宇都宮市,平松町４２０番地４９,,09,201,3210931,,,2025-05-07,清算の結了等,,,2015-10-05,1,,,,,ケーオービジネスサプライ,0
1757,7080401020822,登記記録の閉鎖等,0,2025-05-15,2025-05-08,株式会社浜名湾,,株式会社,静岡県,湖西市,太田１０２番地,,22,221,4310404,,,2025-05-08,清算の結了等,,,2015-10-05,1,,,,,ハマナワン,0
1759,7080402000641,登記記録の閉鎖等,0,2025-05-15,2025-05-09,有限会社井口石材,,有限会社,静岡県,浜松市中央区,元浜町２７７番地の５,,22,138,4300942,,,2025-05-09,清算の結了等,,,2015-10-05,1,,,,,イグチセキザイ,0
1763,7100002024880,登記記録の閉鎖等,0,2025-05-15,2025-05-12,有限会社篠島自動車修理工場,,有限会社,長野県,塩尻市,大字広丘野村９６３番地６,,20,215,3990702,,,2025-05-12,清算の結了等,,,2015-10-05,1,,,,,シノシマジドウシャシュウリコウジョウ,0
1781,7120005020198,登記記録の閉鎖等,0,2025-05-15,2025-05-13,一般社団法人不妊治療の会,,その他の設立登記法人,大阪府,大阪市中央区,南船場２丁目８番９号,,27,128,5420081,,,2025-05-13,清算の結了等,,,2018-05-21,1,,,,,フニンチリョウノカイ,0
1795,7122001036558,登記記録の閉鎖等,0,2025-05-15,2025-05-14,株式会社ワンナックフーズ,,株式会社,大阪府,東大阪市,足代新町１７番１０号第二新町ビル４０１号,,27,227,5770057,,,2025-05-14,清算の結了等,,,2023-01-12,1,,,,,ワンナックフーズ,0
1816,7180001017969,登記記録の閉鎖等,0,2025-05-15,2025-05-08,橋本インキ株式会社,,株式会社,愛知県,名古屋市千種区,猫洞通３丁目２番地の７,,23,101,4640032,,,2025-05-08,清算の結了等,,,2015-10-05,1,,,,,ハシモトインキ,0
1817,7180001054070,登記記録の閉鎖等,0,2025-05-15,2025-05-08,アジオン株式会社,,株式会社,愛知県,名古屋市中村区,牛田通２丁目５番地,,23,105,4530853,,,2025-05-08,清算の結了等,,,2015-10-05,1,,,,,アジオン,0
1821,7180001118478,登記記録の閉鎖等,0,2025-05-15,2025-05-09,ジャパンエネ株式会社,,株式会社,愛知県,名古屋市港区,須成町３丁目３１番地,,23,111,4550072,,,2025-05-09,清算の結了等,,,2015-10-05,1,,,,,ジャパンエネ,0
1823,7180001138419,登記記録の閉鎖等,0,2025-05-15,2025-05-09,株式会社スマイルランドリー,,株式会社,愛知県,東海市,加木屋町倉池１７１番地の１,,23,222,4770032,,,2025-05-09,合併による解散等,7180001093192,令和７年５月１日愛知県知多郡阿久比町大字草木字上外六３番地の１株式会社エネチタ（7180001093192）に合併し解散,2019-10-08,1,,,,,スマイルランドリー,0
1827,7180002061108,登記記録の閉鎖等,0,2025-05-15,2025-05-08,有限会社サ・ン・エ・ス,,有限会社,愛知県,名古屋市守山区,向台１丁目２０４番地,,23,113,4630036,,,2025-05-08,清算の結了等,,,2015-10-05,1,,,,,サンエス,0
1829,7180002065174,登記記録の閉鎖等,0,2025-05-15,2025-05-08,有限会社イナガキ事務機,,有限会社,愛知県,春日井市,高蔵寺町６丁目６番地の５,,23,206,4870013,,,2025-05-08,清算の結了等,,,2015-10-05,1,,,,,イナガキジムキ,0
1831,7180002073598,登記記録の閉鎖等,0,2025-05-15,2025-05-08,有限会社スカイ通信,,有限会社,愛知県,尾張旭市,北原山町大久保見２０１５番地５,,23,226,4880065,,,2025-05-08,清算の結了等,,,2015-10-05,1,,,,,スカイツウシン,0
1836,7180302023526,登記記録の閉鎖等,0,2025-05-15,2025-05-08,有限会社マネジメント・ヨコイ,,有限会社,愛知県,豊田市,高岡本町南２１番地６,,23,211,4730922,,,2025-05-08,清算の結了等,,,2015-10-05,1,,,,,マネジメントヨコイ,0
1839,7190001022472,登記記録の閉鎖等,0,2025-05-15,2025-05-07,株式会社ルナピエナ,,株式会社,三重県,津市,島崎町３１５番地１ルーチェハイツ,,24,201,5140002,,,2025-05-07,合併による解散等,5012401010423,令和７年５月１日東京都調布市多摩川三丁目３４番地４エクセル恒洋１０１株式会社トシエンジニアリング（5012401010423）に合併し解散,2015-10-05,1,,,,,ルナピエナ,0
1856,7260001024445,登記記録の閉鎖等,0,2025-05-15,2025-05-01,ＥＩＦ西日本株式会社,,株式会社,岡山県,津山市,神戸８８番地,,33,203,7080015,,,2025-05-01,清算の結了等,,,2015-10-05,1,,,,,イーアイエフニシニホン,0
1869,7290005001933,登記記録の閉鎖等,0,2025-05-15,2025-05-08,医療法人溝口眼科医院,,その他の設立登記法人,福岡県,那珂川市,道善２丁目７１番地２,,40,231,8111254,,,2025-05-08,清算の結了等,,,2015-10-05,1,,,,,ミゾグチガンカイイン,0
1877,7330003009429,登記記録の閉鎖等,0,2025-05-15,2025-05-07,さかた不動産合同会社,,合同会社,熊本県,八代市,植柳上町８５８番地１２,,43,202,8660081,,,2025-05-07,清算の結了等,,,2022-06-23,1,,,,,サカタフドウサン,0
1883,7350002014964,登記記録の閉鎖等,0,2025-05-15,2025-05-07,有限会社三坂,,有限会社,宮崎県,都城市,若葉町５５号２番地,,45,202,8850054,,,2025-05-07,清算の結了等,,,2015-10-05,1,,,,,ミサカ,0
1890,7400001014935,登記記録の閉鎖等,0,2025-05-15,2025-03-31,株式会社Ｍ．Ｃ．Ｓ,,株式会社,岩手県,北上市,大通り４丁目５番３２号,,03,206,0240061,,,2025-03-31,清算の結了等,,,2020-02-17,1,,,,,エムシーエス,0
1891,7430001021904,登記記録の閉鎖等,0,2025-05-15,2025-05-07,株式会社北海道カラーサッポロ,,株式会社,北海道,札幌市白石区,北郷八条８丁目８番６号,,01,104,0030838,,,2025-05-07,清算の結了等,,,2015-10-05,1,,,,,ホッカイドウカラーサッポロ,0
1897,7430002013743,登記記録の閉鎖等,0,2025-05-15,2025-05-09,道南物産有限会社,,有限会社,北海道,札幌市東区,北十三条東１５丁目２番６号,,01,103,0650013,,,2025-05-09,清算の結了等,,,2015-10-05,1,,,,,ドウナンブッサン,0
1903,7450002006332,登記記録の閉鎖等,0,2025-05-15,2025-05-12,有限会社シャロ,,有限会社,北海道,旭川市,永山三条９丁目１番２７号,,01,204,0798413,,,2025-05-12,清算の結了等,,,2015-10-05,1,,,,,シャロ,0
1910,8010001191648,登記記録の閉鎖等,0,2025-05-15,2025-04-09,株式会社ＣＲファンドマネジメント,,株式会社,東京都,渋谷区,恵比寿１丁目２０番１８号,,13,113,1500013,,,2025-04-09,清算の結了等,,,2018-05-11,1,,,,,シーアールファンドマネジメント,0
1911,8010001240719,登記記録の閉鎖等,0,2025-05-15,2025-04-22,株式会社健和メディカル,,株式会社,東京都,中央区,銀座１丁目１２番４号Ｎ＆Ｅ－ＢＬＤ．６Ｆ,,13,102,1040061,,,2025-04-22,清算の結了等,,,2023-12-18,1,,,,,ケンワメディカル,0
1917,8010005029043,登記記録の閉鎖等,0,2025-05-15,2025-05-12,一般社団法人リラ,,その他の設立登記法人,東京都,千代田区,神田神保町１丁目１１番地さくら綜合事務所内,,13,101,1010051,,,2025-05-12,清算の結了等,,,2018-09-07,1,,,,,リラ,0
1935,8010801024940,登記記録の閉鎖等,0,2025-05-15,2025-05-02,株式会社ＷＨＩ,,株式会社,神奈川県,相模原市中央区,田名１８８４番地１５,,14,152,2520244,,,2025-05-02,清算の結了等,,,2015-10-05,1,,,,,ダブルエイチアイ,0
1961,8011702003785,登記記録の閉鎖等,0,2025-05-15,2025-05-07,ケイ・エイインターナショナル有限会社,,有限会社,東京都,江戸川区,西小岩３丁目３３番５号,,13,123,1330057,,,2025-05-07,清算の結了等,,,2015-10-05,1,,,,,ケイエイインターナショナル,0
1971,8020001005625,登記記録の閉鎖等,0,2025-05-15,2025-05-12,ミスズサービス株式会社,,株式会社,神奈川県,横浜市旭区,本宿町９６番地,,14,112,2410023,,,2025-05-12,清算の結了等,,,2015-10-05,1,,,,,ミスズサービス,0
1976,8020001125324,登記記録の閉鎖等,0,2025-05-15,2025-05-08,株式会社Ｙａｎａｉ　Ｐｒｏｄｕｃｔ　Ｄｅｓｉｇｎ,,株式会社,神奈川県,横浜市青葉区,榎が丘１４番地５,,14,117,2270063,,,2025-05-08,清算の結了等,,,2018-03-06,1,,,,,ヤナイプロダクトデザイン,0
1991,8021001031644,登記記録の閉鎖等,0,2025-05-15,2025-04-23,ビー・ドライブ株式会社,,株式会社,東京都,千代田区,神田鍛冶町３丁目７番地２１天翔神田駅前ビル９０５号室,,13,101,1010045,,,2025-04-23,清算の結了等,,,2015-10-05,1,,,,,ビードライブ,0
1994,8021003006900,登記記録の閉鎖等,0,2025-05-15,2025-05-07,吉岡総研合同会社,,合同会社,神奈川県,茅ヶ崎市,松浪２丁目８番５号,,14,207,2530022,,,2025-05-07,清算の結了等,,,2017-08-23,1,,,,,ヨシオカソウケン,0
2006,8030002085335,登記記録の閉鎖等,0,2025-05-15,2025-05-12,有限会社大槻貞吉工務店,00017243,有限会社,埼玉県,越谷市,川柳町１丁目１４３番地１,,11,222,3430827,,,2025-05-12,清算の結了等,,,2015-10-05,1,,,,,オオツキテイキチコウムテン,0
2023,8050002014713,登記記録の閉鎖等,0,2025-05-15,2025-05-07,有限会社アイルコーポレーション,,有限会社,茨城県,石岡市,東石岡３丁目１０番２号,,08,205,3150037,,,2025-05-07,清算の結了等,,,2015-10-05,1,,,,,アイルコーポレーション,0
2035,8080003003118,登記記録の閉鎖等,0,2025-05-15,2025-05-12,合同会社ＡＶＡＮＣＥ,,合同会社,静岡県,静岡市駿河区,泉町１－１３－２０１,,22,102,4228066,,,2025-05-12,清算の結了等,,,2024-01-22,1,,,,,アバンス,0
2105,8140002062835,登記記録の閉鎖等,0,2025-05-15,2025-05-08,有限会社竹内組,,有限会社,兵庫県,小野市,神明町４１７番地の８,,28,218,6751331,,,2025-05-08,清算の結了等,,,2015-10-05,1,,,,,タケウチグミ,0
2106,8140002066349,登記記録の閉鎖等,0,2025-05-15,2025-05-09,治正興産有限会社,,有限会社,兵庫県,川西市,南野坂２丁目３１番１号,,28,217,6660136,,,2025-05-09,清算の結了等,,,2015-10-05,1,,,,,チセイコウサン,0
2107,8140002069839,登記記録の閉鎖等,0,2025-05-15,2025-05-08,有限会社中島商店,,有限会社,兵庫県,南あわじ市,賀集立川瀬４８番地の２,,28,224,6560512,,,2025-05-08,清算の結了等,,,2015-10-05,1,,,,,ナカシマショウテン,0
2129,8180305009356,登記記録の閉鎖等,0,2025-05-15,2025-04-07,一般社団法人中日本セラピストアカデミー,,その他の設立登記法人,愛知県,岡崎市,稲熊町字３丁目８１番地,,23,202,4440071,,,2025-04-07,清算の結了等,,,2022-06-27,1,,,,,ナカニホンセラピストアカデミー,0
2139,8230001009852,登記記録の閉鎖等,0,2025-05-15,2025-05-12,株式会社片山製作所,,株式会社,富山県,高岡市,内島１６０番地,,16,202,9330328,,,2025-05-12,清算の結了等,,,2015-10-05,1,,,,,カタヤマセイサクショ,0
2142,8240001024859,登記記録の閉鎖等,0,2025-05-15,2025-05-01,株式会社Ｒｅｌａｘ,,株式会社,広島県,三次市,十日市東４丁目１番１号,,34,209,7280013,,,2025-05-01,合併による解散等,9240001031854,令和７年５月１日広島県福山市沖野上町四丁目１３番２７号株式会社ファーマシィ（9240001031854）に合併し解散,2015-10-05,1,,,,,リラックス,0
2150,8260001027323,登記記録の閉鎖等,0,2025-05-15,2025-05-01,株式会社かわせみ,,株式会社,岡山県,岡山市北区,高松３１９番地１,,33,101,7011335,,,2025-05-01,清算の結了等,,,2015-10-05,1,,,,,カワセミ,0
2155,8290002051897,登記記録の閉鎖等,0,2025-05-15,2025-04-30,メインレンタルサービス有限会社,,有限会社,福岡県,小郡市,三沢５４０１番地の５,,40,216,8380106,,,2025-04-30,清算の結了等,,,2015-10-05,1,,,,,メインレンタルサービス,0
2169,8350001004701,登記記録の閉鎖等,0,2025-05-15,2025-05-07,株式会社エイチ企画,,株式会社,宮崎県,宮崎市,大塚台東２丁目１１番地１５,,45,201,8800952,,,2025-05-07,清算の結了等,,,2015-10-05,1,,,,,エイチキカク,0
2170,8350002003165,登記記録の閉鎖等,0,2025-05-15,2025-05-09,有限会社徳丸建設,,有限会社,宮崎県,宮崎市,大工２丁目８２番地２,,45,201,8800015,,,2025-05-09,清算の結了等,,,2015-10-05,1,,,,,トクマルケンセツ,0
2172,8360003007255,登記記録の閉鎖等,0,2025-05-15,2025-05-01,合同会社糸丸,,合同会社,沖縄県,中頭郡西原町,字小波津５０７番地の８,,47,329,9030118,,,2025-05-01,清算の結了等,,,2015-10-05,1,,,,,イトマル,0
2177,8380002009597,登記記録の閉鎖等,0,2025-05-15,2025-05-02,有限会社作間商店,,有限会社,福島県,郡山市,田村町田母神字松ノ木３３番地,,07,203,9631243,,,2025-05-02,清算の結了等,,,2015-10-05,1,,,,,サクマショウテン,0
2249,9020003026271,登記記録の閉鎖等,0,2025-05-15,2025-04-28,合同会社ＳＯＭＡ,,合同会社,神奈川県,横浜市神奈川区,斎藤分町３５番８号サンヒルズ横浜ＩＩ２０１号,00135041,14,102,2210811,,,2025-04-28,清算の結了等,,,2024-06-06,1,,,,,ソーマ,0
2252,9020005015124,登記記録の閉鎖等,0,2025-05-15,2025-05-13,税理士法人菊原会計事務所,,その他の設立登記法人,神奈川県,横浜市神奈川区,平川町１番地２３,,14,102,2210812,,,2025-05-13,清算の結了等,,,2021-07-07,1,,,,,キクハラカイケイジムショ,0
2255,9021002005670,登記記録の閉鎖等,0,2025-05-15,2025-04-25,有限会社エムティーサービス,,有限会社,神奈川県,横浜市西区,みなとみらい４丁目１０番２－Ｓ１９１０号,,14,103,2200012,,,2025-04-25,清算の結了等,,,2015-10-05,1,,,,,エムティーサービス,0
2268,9030003012923,登記記録の閉鎖等,0,2025-05-15,2025-05-14,武蔵野設計合同会社,,合同会社,埼玉県,川口市,戸塚南４丁目１６番１６号,,11,203,3330817,,,2025-05-14,清算の結了等,,,2019-01-16,1,,,,,ムサシノセッケイ,0
2273,9040002027946,登記記録の閉鎖等,0,2025-05-15,2025-04-22,有限会社有馬,,有限会社,千葉県,船橋市,西船４丁目１８番１４－５０１号,,12,204,2730031,,,2025-04-22,清算の結了等,,,2015-10-05,1,,,,,アリマ,0
2289,9080101025005,登記記録の閉鎖等,0,2025-05-15,2025-05-14,株式会社ｓｙｓｔｅｍＲ,,株式会社,静岡県,沼津市,大岡５４５番地の１９,,22,203,4100022,,,2025-05-14,清算の結了等,,,2024-09-13,1,,,,,システムアール,0
2293,9090002013082,登記記録の閉鎖等,0,2025-05-15,2025-05-12,有限会社エレック,,有限会社,山梨県,南都留郡富士河口湖町,船津１７４４番地の１,,19,430,4010301,,,2025-05-12,清算の結了等,,,2015-10-05,1,,,,,エレック,0
2304,9110002023764,登記記録の閉鎖等,0,2025-05-15,2025-04-30,有限会社オフィス・オービー,,有限会社,新潟県,上越市,頸城区西福島１０１５番地１０,,15,222,9420147,,,2025-04-30,清算の結了等,,,2015-10-05,1,,,,,オフィスオービー,0
2307,9120001068215,登記記録の閉鎖等,0,2025-05-15,2025-05-08,株式会社中川米穀店,,株式会社,大阪府,大阪市北区,池田町１７番１２号,,27,127,5300033,,,2025-05-08,清算の結了等,,,2015-10-05,1,,,,,ナカガワベイコクテン,0
2330,9120905004975,登記記録の閉鎖等,0,2025-05-15,2025-05-02,特定非営利活動法人Ｂｏｄａｉｊｙｕ,,その他の設立登記法人,大阪府,池田市,石橋４丁目２０番９－１０２号,,27,204,5630032,,,2025-05-02,清算の結了等,,,2015-10-05,1,,,,,ボダイジュ,0
2337,9140001050427,登記記録の閉鎖等,0,2025-05-15,2025-05-07,中村エンジニアリング株式会社,,株式会社,兵庫県,尼崎市,末広町１丁目１番地の１,,28,202,6600094,,,2025-05-07,合併による解散等,8140001050428,令和７年５月５日兵庫県尼崎市末広町一丁目１番地の１ナカムラコウキ株式会社（8140001050428）に合併し解散,2015-10-05,1,,,,,ナカムラエンジニアリング,0
2338,9140001089564,登記記録の閉鎖等,0,2025-05-15,2025-05-08,株式会社ミスト,,株式会社,兵庫県,尼崎市,東園田町９丁目１７番の１２,,28,202,6610953,,,2025-05-08,清算の結了等,,,2015-10-05,1,,,,,ミスト,0
2366,9180005013888,登記記録の閉鎖等,0,2025-05-15,2025-05-07,特定非営利活動法人ＮＰＯバハール,,その他の設立登記法人,愛知県,あま市,七宝町伊福河原１４２,,23,237,4970005,,,2025-05-07,清算の結了等,,,2015-10-05,1,,,,,エヌピーオーバハール,0
2374,9220002015899,登記記録の閉鎖等,0,2025-05-15,2025-05-12,有限会社シグマ設計,,有限会社,石川県,鳳珠郡能登町,字宇出津ヲ字４０番地３,,17,463,9270433,,,2025-05-12,清算の結了等,,,2015-10-05,1,,,,,シグマセッケイ,0
2389,9260005009432,登記記録の閉鎖等,0,2025-05-15,2025-04-28,特定非営利活動法人すごい婚活塾,,その他の設立登記法人,岡山県,岡山市北区,駅元町１５番１号リットシティビル１階,,33,101,7000024,,,2025-04-28,清算の結了等,,,2015-10-05,1,,,,,スゴイコンカツジュク,0
2390,9290001014243,登記記録の閉鎖等,0,2025-05-15,2025-05-01,株式会社創美,,株式会社,福岡県,大野城市,御笠川４丁目２番１０号,,40,219,8160912,,,2025-05-01,合併による解散等,5290001049615,令和７年５月１日福岡県久留米市山川市ノ上町７番２０号株式会社丸信（5290001049615）に合併し解散,2015-10-05,1,,,,,ソウビ,0
2396,9290801008956,登記記録の閉鎖等,0,2025-05-15,2025-05-12,日鉄ビジネスサービス九州株式会社,,株式会社,福岡県,北九州市戸畑区,飛幡町１番１号,,40,105,8040001,,,2025-05-12,合併による解散等,8040001052104,令和７年４月１日千葉県木更津市築地１番１日鉄ビジネスサービス株式会社（8040001052104）に合併し解散,2015-10-05,1,,,,,ニッテツビジネスサービスキュウシュウ,0
2400,9300003001064,登記記録の閉鎖等,0,2025-05-15,2025-05-13,合同会社エバグリーン,,合同会社,佐賀県,伊万里市,東山代町東大久保１７６１番地１,,41,205,8494283,,,2025-05-13,清算の結了等,,,2015-10-05,1,,,,,エバグリーン,0
2402,9330001018685,登記記録の閉鎖等,0,2025-05-15,2025-05-02,株式会社結,,株式会社,熊本県,熊本市中央区,国府３丁目２７番２０号,,43,101,8620949,,,2025-05-02,合併による解散等,8330002003613,令和７年５月１日熊本市中央区国府三丁目２７番２０号株式会社結（8330002003613）に合併し解散,2015-10-05,1,,,,,ユイ,0
2408,9350001008932,登記記録の閉鎖等,0,2025-05-15,2025-05-08,株式会社正応寺ごんだ農産,,株式会社,宮崎県,都城市,安久町１２７９番地の１,,45,202,8850044,,,2025-05-08,清算の結了等,,,2015-10-05,1,,,,,ショウオウジゴンダノウサン,0
2413,9370302002054,登記記録の閉鎖等,0,2025-05-15,2025-04-30,有限会社ヘルシープラザ東洋館,,有限会社,宮城県,石巻市,あけぼの３丁目１５番地１０,,04,202,9860862,,,2025-04-30,清算の結了等,,,2015-10-05,1,,,,,ヘルシープラザトウヨウカン,0
2427,9430001022009,登記記録の閉鎖等,0,2025-05-15,2025-05-08,株式会社北海道サカイ,,株式会社,北海道,札幌市中央区,南十一条西１丁目５番１６号,,01,101,0640811,,,2025-05-08,清算の結了等,,,2015-10-05,1,,,,,ホッカイドウサカイ,0
2433,9470001019100,登記記録の閉鎖等,0,2025-05-15,2025-04-30,株式会社そよかぜ,,株式会社,香川県,高松市,東山崎町１３２番地４,,37,201,7610312,,,2025-04-30,清算の結了等,,,2022-06-01,1,,,,,ソヨカゼ,0
