sequenceNumber,corporateNumber,process,correct,updateDate,changeDate,name,nameImageId,kind,prefectureName,cityName,streetNumber,addressImageId,prefectureCode,cityCode,postCode,addressOutside,addressOutsideImageId,closeDate,closeCause,successorCorporateNumber,changeCause,assignmentDate,latest,enName,enPrefectureName,enCityName,enAddressOutside,furigana,hihyoji
17,1010001243785,新規,0,2024-04-15,2024-04-15,ＯＫＣ株式会社,,株式会社,東京都,中央区,銀座１丁目１２番４号Ｎ＆Ｅビル７階,,13,102,1040061,,,,,,,2024-04-15,1,,,,,オーケーシー,0
18,1010001243851,新規,0,2024-04-15,2024-04-15,株式会社ＤＡＩＺＥＮ,,株式会社,東京都,中央区,銀座１丁目２２番１１号銀座大竹ビジデンス２階,,13,102,1040061,,,,,,,2024-04-15,1,,,,,ダイゼン,0
19,1010001243876,新規,0,2024-04-15,2024-04-15,株式会社ヒューラ,,株式会社,東京都,千代田区,麹町５丁目５－２－３Ｆ,,13,101,1020083,,,,,,,2024-04-15,1,,,,,ヒューラ,0
20,1010001243892,新規,0,2024-04-15,2024-04-15,Ｐｉｏｔｅｃｈ　Ｔｏｋｙｏ株式会社,,株式会社,東京都,千代田区,丸の内１丁目８－２鉄鋼ビルディング４Ｆ,,13,101,1000005,,,,,,,2024-04-15,1,,,,,パイオテックトウキョウ,0
21,1010001243934,新規,0,2024-04-15,2024-04-15,株式会社ＭＯＲＩＢＩＴＯ,,株式会社,東京都,千代田区,丸の内１丁目１１－１パシフィックセンチュリープレイス丸の内１３Ｆ,,13,101,1000005,,,,,,,2024-04-15,1,,,,,モリビト,0
22,1010001243967,新規,0,2024-04-15,2024-04-15,株式会社ＫＦＩＶＥ,,株式会社,東京都,中央区,銀座６丁目１３番１６号銀座ＷａｌｌビルＵＣＦ５０１,,13,102,1040061,,,,,,,2024-04-15,1,,,,,,0
30,1010005038199,新規,0,2024-04-15,2024-04-15,一般社団法人精華,,その他の設立登記法人,東京都,中央区,八丁堀２丁目２５番１０号三信八丁堀ビル７階,,13,102,1040032,,,,,,,2024-04-15,1,,,,,セイカ,0
31,1010101016091,新規,0,2024-04-15,2024-04-15,株式会社アルス,,株式会社,東京都,八王子市,中町３番１０号第三今泉ビル２Ｆ,,13,201,1920085,,,,,,,2024-04-15,1,,,,,アルス,0
37,1010401181552,新規,0,2024-04-15,2024-04-15,ＡＢＣホールディングス株式会社,,株式会社,東京都,港区,芝１丁目１１番１６号,,13,103,1050014,,,,,,,2024-04-15,1,,,,,エービーシーホールディングス,0
38,1010401181610,新規,0,2024-04-15,2024-04-15,ＧＯＯＧ株式会社,,株式会社,東京都,港区,六本木６丁目１６番１１－１２０３,,13,103,1060032,,,,,,,2024-04-15,1,,,,,グゲ,0
39,1010401181825,新規,0,2024-04-15,2024-04-15,株式会社ラリサジャパン,,株式会社,東京都,港区,赤坂３丁目２１番１７号ＡＳＫ赤坂ビル７Ｆ,,13,103,1070052,,,,,,,2024-04-15,1,,,,,ラリサジャパン,0
45,1010601065010,新規,0,2024-04-15,2024-04-15,Ｓｐｉｎｎｉｎｇｂｉｒｄ株式会社,,株式会社,東京都,江東区,東陽２丁目３番４号,,13,108,1350016,,,,,,,2024-04-15,1,,,,,スピニングバード,0
50,1010801034962,新規,0,2024-04-15,2024-04-15,株式会社ｍｉａ　ｍｉｎｎｅ,,株式会社,東京都,大田区,北馬込２丁目３３番１号,,13,111,1430021,,,,,,,2024-04-15,1,,,,,ミアマイン,0
53,1010901055074,新規,0,2024-04-15,2024-04-15,株式会社ＮＩＫＯＬＡ,,株式会社,東京都,世田谷区,代田５丁目１１番１８号フィオーレ代田２０１,,13,112,1550033,,,,,,,2024-04-15,1,,,,,ニコラ,0
67,1011101106915,新規,0,2024-04-15,2024-04-15,株式会社あしたもよろしく,,株式会社,東京都,新宿区,西新宿７丁目２番６号西新宿Ｋ－１ビル３階,,13,104,1600023,,,,,,,2024-04-15,1,,,,,アシタモヨロシク,0
70,1011305002976,新規,0,2024-04-15,2024-04-15,医療法人社団ごきげんクリニック,,その他の設立登記法人,東京都,杉並区,浜田山３丁目３３番１０号セントルーク浜田山１階,,13,115,1680065,,,,,,,2024-04-15,1,,,,,ゴキゲンクリニック,0
71,1011401026004,新規,0,2024-04-15,2024-04-15,空き家再生プロジェクト株式会社,,株式会社,東京都,板橋区,本町１５番１６号ＩＬＭＥＺＺＯＤＩＴＯＫＹＯ，ＵＮＯ６０３,,13,119,1730001,,,,,,,2024-04-15,1,,,,,アキヤサイセイプロジェクト,0
72,1011401026020,新規,0,2024-04-15,2024-04-15,株式会社将来,,株式会社,東京都,板橋区,高島平９丁目１－５－５０１,,13,119,1750082,,,,,,,2024-04-15,1,,,,,ショウライ,0
79,1011603004303,新規,0,2024-04-15,2024-04-15,合同会社Ｖｉａｌｅ,,合同会社,東京都,練馬区,東大泉３丁目１６番９号,,13,120,1780063,,,,,,,2024-04-15,1,,,,,ヴィアーレ,0
83,1011803006165,新規,0,2024-04-15,2024-04-15,テックシステムデザイン合同会社,,合同会社,東京都,足立区,中央本町３丁目２－２,,13,121,1210011,,,,,,,2024-04-15,1,,,,,テックシステムデザイン,0
89,1012801023111,新規,0,2024-04-15,2024-04-15,グラーツ株式会社,,株式会社,東京都,日野市,神明３丁目１番地の１２プライムホームズ日野４０４,,13,212,1910016,,,,,,,2024-04-15,1,,,,,グラーツ,0
101,1020001156648,新規,0,2024-04-15,2024-04-15,株式会社エモチカ,,株式会社,神奈川県,横浜市西区,みなとみらい４丁目４－２横浜ブルーアベニュー１２階,,14,103,2200012,,,,,,,2024-04-15,1,,,,,エモチカ,0
102,1020001156672,新規,0,2024-04-15,2024-04-15,株式会社Ａｎｅｍｏｎｅ,,株式会社,神奈川県,横浜市南区,南太田１丁目２９番２－２Ａ号,,14,105,2320006,,,,,,,2024-04-15,1,,,,,アネモネ,0
103,1020001156697,新規,0,2024-04-15,2024-04-15,株式会社ワズアップ,,株式会社,神奈川県,川崎市麻生区,栗平２丁目１１番１３－３０７号,,14,137,2150031,,,,,,,2024-04-15,1,,,,,ワズアップ,0
104,1020001156739,新規,0,2024-04-15,2024-04-15,ＴＲＵＮＫ株式会社,,株式会社,神奈川県,横浜市保土ケ谷区,釜台町１３番１８号,,14,106,2400066,,,,,,,2024-04-15,1,,,,,トランク,0
105,1020003025925,新規,0,2024-04-15,2024-04-15,合同会社６４８３ｗｏｒｋｓ,,合同会社,神奈川県,川崎市多摩区,登戸１９１９エムアンドアールビル３階,,14,135,2140014,,,,,,,2024-04-15,1,,,,,,0
106,1020003025933,新規,0,2024-04-15,2024-04-15,イングリヤ合同会社,,合同会社,神奈川県,横浜市中区,池袋５８－３レーベン横浜山手９２９号,,14,104,2310834,,,,,,,2024-04-15,1,,,,,イングリヤ,0
111,1021001081943,新規,0,2024-04-15,2024-04-15,株式会社ＢＲＩＡ　ＷＩＳＴＥＲＩＡ,,株式会社,神奈川県,藤沢市,鵠沼松が岡３丁目２－３８,,14,205,2510038,,,,,,,2024-04-15,1,,,,,ブリアウィステリア,0
118,1021003014380,新規,0,2024-04-15,2024-04-15,ＦＩＲＥ　ＷＯＲＫＳ合同会社,,合同会社,神奈川県,厚木市,元町８番１６号２Ｆ,,14,212,2430002,,,,,,,2024-04-15,1,,,,,ファイヤーワークス,0
121,1021005013075,新規,0,2024-04-15,2024-04-15,特定非営利活動法人この子キャリア応援団,,その他の設立登記法人,神奈川県,鎌倉市,大船５丁目８番１０号２０１,,14,204,2470056,,,,,,,2024-04-15,1,,,,,コノコキャリアオウエンダン,0
126,1030001159807,新規,0,2024-04-15,2024-04-15,株式会社ブレスファーム,,株式会社,埼玉県,さいたま市中央区,上落合３丁目５番１１号,,11,105,3380001,,,,,,,2024-04-15,1,,,,,ブレスファーム,0
133,1030003024067,新規,0,2024-04-15,2024-04-15,合同会社ボンクール,,合同会社,埼玉県,草加市,吉町１丁目５－３１,,11,221,3400017,,,,,,,2024-04-15,1,,,,,ボンクール,0
143,1040001133109,新規,0,2024-04-15,2024-04-15,輝源株式会社,,株式会社,千葉県,柏市,大井１８４８番地１１,,12,217,2770902,,,,,,,2024-04-15,1,,,,,キゲン,0
144,1040001133117,新規,0,2024-04-15,2024-04-15,株式会社共創マネジメントサポート,,株式会社,千葉県,松戸市,小金原７丁目６－２０,,12,207,2700021,,,,,,,2024-04-15,1,,,,,キョウソウマネジメントサポート,0
145,1040001133133,新規,0,2024-04-15,2024-04-15,株式会社ＭＣＭ,,株式会社,千葉県,市川市,福栄２丁目２１－８ベルエキップ４０７号,,12,203,2720137,,,,,,,2024-04-15,1,,,,,エムシーエム,0
146,1040001133158,新規,0,2024-04-15,2024-04-15,京葉ＭｏｂｉｌｉｔｙＳｅｒｖｉｃｅ株式会社,,株式会社,千葉県,佐倉市,西志津３丁目１５番２１号,,12,212,2850845,,,,,,,2024-04-15,1,,,,,ケイヨウモビリティサービス,0
155,1040003024776,新規,0,2024-04-15,2024-04-15,合同会社じみぃさん,,合同会社,千葉県,千葉市美浜区,真砂３丁目２１番１３号,,12,106,2610011,,,,,,,2024-04-15,1,,,,,ジミィサン,0
156,1040005022349,新規,0,2024-04-15,2024-04-15,医療法人社団ＴＲＩＮＩＴＹ,,その他の設立登記法人,千葉県,市川市,相之川４丁目５番８号南行徳メディカルスクエア３階,,12,203,2720143,,,,,,,2024-04-15,1,,,,,トリニティ,0
158,1050001054626,新規,0,2024-04-15,2024-04-15,アスカ物流株式会社,,株式会社,茨城県,神栖市,高浜字大山１３４６番地１,,08,232,3140125,,,,,,,2024-04-15,1,,,,,,0
159,1050001054634,新規,0,2024-04-15,2024-04-15,株式会社柳田建装,,株式会社,茨城県,結城郡八千代町,大字若１３００番地２,,08,521,3003544,,,,,,,2024-04-15,1,,,,,ヤナギダケンソウ,0
160,1050003008290,新規,0,2024-04-15,2024-04-15,Ｍｙｋｓａｌ　Ｃａｒｓ合同会社,,合同会社,茨城県,古河市,茶屋新田１４２番地１城南ハイツＢ棟２階２０２号室,,08,204,3060051,,,,,,,2024-04-15,1,,,,,ムクサルカーズ,0
183,1080103003040,新規,0,2024-04-15,2024-04-15,ＮＡＩＦ　ＴＲＡＤＩＮＧ合同会社,,合同会社,静岡県,富士市,大渕４０８４番地の１７,,22,210,4170000,,,,,,,2024-04-15,1,,,,,ナイフトレーディング,0
217,1120001264028,新規,0,2024-04-15,2024-04-15,長悦株式会社,,株式会社,大阪府,大阪市西成区,花園南１丁目９番１５号１０２号室,,27,122,5570015,,,,,,,2024-04-15,1,,,,,チョウエツ,0
218,1120001264044,新規,0,2024-04-15,2024-04-15,株式会社大西設備,,株式会社,大阪府,大阪市鶴見区,諸口５丁目２番地４７号,,27,124,5380051,,,,,,,2024-04-15,1,,,,,オオニシセツビ,0
228,1120103005783,新規,0,2024-04-15,2024-04-15,合同会社プロラボ,,合同会社,大阪府,堺市南区,御池台３丁４６番１０号,,27,145,5900134,,,,,,,2024-04-15,1,,,,,プロラボ,0
231,1120905006590,新規,0,2024-04-15,2024-04-15,一般社団法人健英会,,その他の設立登記法人,大阪府,吹田市,江の木町２－１クロッシング江坂４階,,27,205,5640053,,,,,,,2024-04-15,1,,,,,ケンエイカイ,0
235,1122003002860,新規,0,2024-04-15,2024-04-15,合同会社しまかぜ,,合同会社,大阪府,東大阪市,友井３丁目４番２号,,27,227,5770816,,,,,,,2024-04-15,1,,,,,シマカゼ,0
238,1130001076802,新規,0,2024-04-15,2024-04-15,株式会社ＣＫマネジメント,,株式会社,京都府,京都市中京区,一之船入町３７６番地クロトビル５０９号,,26,104,6040924,,,,,,,2024-04-15,1,,,,,シーケーマネジメント,0
239,1130001076810,新規,0,2024-04-15,2024-04-15,株式会社ＡＢＳＴＲＡＣＴ,,株式会社,京都府,京都市左京区,上高野仲町４リソシエ宝ヶ池１０６,,26,103,6060044,,,,,,,2024-04-15,1,,,,,アブストラクト,0
240,1130001076819,新規,0,2024-04-15,2024-04-15,株式会社ＮＥＷ　ＰＲＯＪＥＣＴ,,株式会社,京都府,京都市北区,小山下総町５３番地９コルネリオビル２階,,26,101,6038151,,,,,,,2024-04-15,1,,,,,ニュープロジェクト,0
248,1140001134039,新規,0,2024-04-15,2024-04-15,株式会社ＭＥＤＩＡ０,,株式会社,兵庫県,神戸市中央区,新港町１７番５号,,28,110,6500041,,,,,,,2024-04-15,1,,,,,メディアゼロ,0
249,1140001134047,新規,0,2024-04-15,2024-04-15,株式会社芦屋リムジンサービス,,株式会社,兵庫県,芦屋市,陽光町６番６－１２０４号,,28,206,6590034,,,,,,,2024-04-15,1,,,,,アシヤリムジンサービス,0
250,1140001134055,新規,0,2024-04-15,2024-04-15,株式会社ヘルパーステーションラン,,株式会社,兵庫県,神戸市垂水区,神陵台３丁目２－１,,28,108,6550041,,,,,,,2024-04-15,1,,,,,ヘルパーステーションラン,0
251,1140001134063,新規,0,2024-04-15,2024-04-15,株式会社Ｋｚアーキデザイン,,株式会社,兵庫県,加古川市,米田町平津２７番地の２,,28,210,6750054,,,,,,,2024-04-15,1,,,,,ケーズアーキデザイン,0
256,1140003020410,新規,0,2024-04-15,2024-04-15,合同会社ＣＯＡＲＳ,,合同会社,兵庫県,豊岡市,竹野町竹野５０番地の３,,28,209,6696201,,,,,,,2024-04-15,1,,,,,コアーズ,0
257,1150001027217,新規,0,2024-04-15,2024-04-15,Ｍｋｓｔ株式会社,,株式会社,奈良県,桜井市,大字粟殿１０６番地の２ＩＩ－２１４,00134397,29,206,6330062,,,,,,,2024-04-15,1,,,,,エムケーエスティー,0
287,1200001042400,新規,0,2024-04-15,2024-04-15,株式会社スマートエスケープ,,株式会社,岐阜県,岐阜市,茶屋新田４丁目８番地２,,21,201,5016135,,,,,,,2024-04-15,1,,,,,スマートエスケープ,0
291,1220003003729,新規,0,2024-04-15,2024-04-15,合同会社ＥＤＥＬ,,合同会社,石川県,金沢市,若松町３丁目８６番地,,17,201,9201165,,,,,,,2024-04-15,1,,,,,エーデル,0
295,1240001063087,新規,0,2024-04-15,2024-04-15,Ｓｕｎｆｌｏｗｅｒ株式会社,,株式会社,広島県,広島市西区,新庄町１３番１６－２０１号,,34,104,7330801,,,,,,,2024-04-15,1,,,,,サンフラワー,0
296,1250001020608,新規,0,2024-04-15,2024-04-15,株式会社Ｌｏｎｇ　ｓｔａｔｅ,,株式会社,山口県,萩市,大字椿東４４８７番地１,,35,204,7580011,,,,,,,2024-04-15,1,,,,,ロングステイト,0
306,1290001105462,新規,0,2024-04-15,2024-04-15,株式会社桓騎,,株式会社,福岡県,福岡市博多区,博多駅前３丁目１９番１４号,,40,132,8120011,,,,,,,2024-04-15,1,,,,,カンキ,0
309,1290003015156,新規,0,2024-04-15,2024-04-15,心緑システムズ合同会社,,合同会社,福岡県,大川市,大字下牟田口９４５番地１,,40,212,8310023,,,,,,,2024-04-15,1,,,,,,0
310,1290003015164,新規,0,2024-04-15,2024-04-15,合同会社きぼう計画,,合同会社,福岡県,福岡市東区,美和台３丁目２０番１０号,,40,131,8110212,,,,,,,2024-04-15,1,,,,,キボウケイカク,0
322,1340003004434,新規,0,2024-04-15,2024-04-15,Ｔｒｅｅ　Ｓｐｉｒｉｔｓ　Ａｒｔ合同会社,,合同会社,鹿児島県,姶良郡湧水町,木場５５４－２,,46,452,8996201,,,,,,,2024-04-15,1,,,,,ツリースピリッツアート,0
323,1350001018922,新規,0,2024-04-15,2024-04-15,株式会社ＲＫＳ,,株式会社,宮崎県,北諸県郡三股町,稗田１７番地８,,45,341,8891903,,,,,,,2024-04-15,1,,,,,アールケイエス,0
324,1360001033482,新規,0,2024-04-15,2024-04-15,株式会社ＯＳＰ,,株式会社,沖縄県,沖縄市,諸見里１丁目２－２３ロイヤルパレスビル４０５,,47,211,9040032,,,,,,,2024-04-15,1,,,,,オーエスピー,0
325,1360001033524,新規,0,2024-04-15,2024-04-15,株式会社ＨＯＰＥ　ＦＩＥＬＤ,,株式会社,沖縄県,うるま市,字田場９６８番地２Ｅｓｔａｔｅ・ＭｉｋｉＩＩＩ＃Ｃ－１,00134402,47,213,9042213,,,,,,,2024-04-15,1,,,,,ホープフィールド,0
329,1370001051178,新規,0,2024-04-15,2024-04-15,株式会社Ｋ‐ｓｔｙｌｅ,,株式会社,宮城県,仙台市太白区,柳生６丁目１１番地の３－４０７,,04,104,9811106,,,,,,,2024-04-15,1,,,,,ケイスタイル,0
345,1430001091523,新規,0,2024-04-15,2024-04-15,株式会社Ｒｅ,,株式会社,北海道,札幌市中央区,南六条西３丁目第二桂和ビル２階,,01,101,0640806,,,,,,,2024-04-15,1,,,,,アールイー,0
346,1430001091580,新規,0,2024-04-15,2024-04-15,株式会社晴,,株式会社,北海道,札幌市清田区,美しが丘四条６丁目３番３号,,01,110,0040814,,,,,,,2024-04-15,1,,,,,ハル,0
347,1430001091597,新規,0,2024-04-15,2024-04-15,株式会社ＯｐｅｎＨＲ,,株式会社,北海道,札幌市東区,北十五条東７丁目１番２０号,,01,103,0650015,,,,,,,2024-04-15,1,,,,,オープンエイチアール,0
350,1450005004405,新規,0,2024-04-15,2024-04-15,医療法人森山歯科医院,,その他の設立登記法人,北海道,旭川市,旭町一条５丁目８４１番地の３１,,01,204,0700831,,,,,,,2024-04-15,1,,,,,モリヤマシカイイン,0
353,1460103001609,新規,0,2024-04-15,2024-04-15,合同会社ｓｏｉｌ,,合同会社,北海道,河東郡上士幌町,字上士幌東２線２３８番地７２ソレイユ１０,,01,633,0801408,,,,,,,2024-04-15,1,,,,,ソイル,0
358,1470001020148,新規,0,2024-04-15,2024-04-15,株式会社Ｒ３,,株式会社,香川県,高松市,上林町７８９番地１,,37,201,7610302,,,,,,,2024-04-15,1,,,,,アールスリー,0
359,1470003002623,新規,0,2024-04-15,2024-04-15,Ｒｉｏｎ合同会社,,合同会社,香川県,高松市,新田町甲２８３番地１アーバンビュー屋島１０３,,37,201,7610102,,,,,,,2024-04-15,1,,,,,リオン,0
365,1500003003221,新規,0,2024-04-15,2024-04-15,合同会社エイト,,合同会社,愛媛県,松山市,東垣生町３０５番地７,,38,201,7918043,,,,,,,2024-04-15,1,,,,,エイト,0
366,1500005008697,新規,0,2024-04-15,2024-04-15,行政書士法人ＩＳＪ,,その他の設立登記法人,愛媛県,松山市,紅葉町７番９号,,38,201,7900861,,,,,,,2024-04-15,1,,,,,アイエスジェイ,0
368,1700150124857,新規,0,2024-04-15,2024-04-15,若松二丁目住宅マンション建替組合,,その他,東京都,港区,南青山１丁目１０番３号,,13,103,1070062,,,,,,,2024-04-15,1,,,,,ワカマツニチヨウメジユウタクマンシヨンタテカエクミアイ,0
380,2010001243512,新規,0,2024-04-15,2024-04-15,顧客起点株式会社,,株式会社,東京都,中央区,日本橋浜町２丁目４１番５－６０４号,,13,102,1030007,,,,,,,2024-04-15,1,,,,,コキャクキテン,0
381,2010001243603,新規,0,2024-04-15,2024-04-15,株式会社オーランドジャパン,,株式会社,東京都,千代田区,西神田３丁目５番３－２０１０号,,13,101,1010065,,,,,,,2024-04-15,1,,,,,オーランドジャパン,0
382,2010001243941,新規,0,2024-04-15,2024-04-15,伊藤商事株式会社,,株式会社,東京都,中央区,銀座１丁目１２－４Ｎ＆Ｅ、ＢＬＤ．７階,,13,102,1040061,,,,,,,2024-04-15,1,,,,,イトウショウジ,0
383,2010001243982,新規,0,2024-04-15,2024-04-15,株式会社島京,,株式会社,東京都,大島町,波浮港６番地,,13,361,1000212,,,,,,,2024-04-15,1,,,,,トウキョウ,0
384,2010001244023,新規,0,2024-04-15,2024-04-15,株式会社ハイロー,,株式会社,東京都,千代田区,九段北４丁目３番２２号,,13,101,1020073,,,,,,,2024-04-15,1,,,,,ハイロー,0
395,2010005038149,新規,0,2024-04-15,2024-04-15,一般社団法人日本ファミリーオフィス推進協議会,,その他の設立登記法人,東京都,千代田区,九段南１丁目６番５号九段会館テラス,,13,101,1020074,,,,,,,2024-04-15,1,,,,,ニホンファミリーオフィススイシンキョウギカイ,0
396,2010005038157,新規,0,2024-04-15,2024-04-15,三福田特定目的会社,,その他の設立登記法人,東京都,中央区,日本橋１丁目４番１号,,13,102,1030027,,,,,,,2024-04-15,1,,,,,サンフクデン,0
397,2010005038165,新規,0,2024-04-15,2024-04-15,一般社団法人地球温暖化防止協会,,その他の設立登記法人,東京都,千代田区,丸の内２丁目２番１号岸本ビル１０階,,13,101,1000005,,,,,,,2024-04-15,1,,,,,チキュウオンダンカボウシキョウカイ,0
398,2010005038173,新規,0,2024-04-15,2024-04-15,特定非営利活動法人つきじ江戸文字と歴史伝承の会,,その他の設立登記法人,東京都,中央区,築地６丁目５番５号,,13,102,1040045,,,,,,,2024-04-15,1,,,,,ツキジエドモジトレキシデンショウノカイ,0
399,2010101016090,新規,0,2024-04-15,2024-04-15,ＳｅｃｒｅｔＣｏｍｐａｎｙ株式会社,,株式会社,東京都,八王子市,大和田町６丁目１５番１号,,13,201,1920045,,,,,,,2024-04-15,1,,,,,シークレットカンパニー,0
407,2010401181733,新規,0,2024-04-15,2024-04-15,Ａｇａｔｈｏｎ株式会社,,株式会社,東京都,港区,港南１丁目８－１５Ｗビル２Ｆ,,13,103,1080075,,,,,,,2024-04-15,1,,,,,アガトン,0
408,2010401181824,新規,0,2024-04-15,2024-04-15,ＬＩＮＫＳ株式会社,,株式会社,東京都,港区,六本木４丁目４番４号メゾン六本木２０１号室,,13,103,1060032,,,,,,,2024-04-15,1,,,,,リンクス,0
409,2010403032389,新規,0,2024-04-15,2024-04-15,Ｆｉｔ　ｉｎ　Ｔｏｋｙｏ合同会社,,合同会社,東京都,港区,東麻布３丁目７番３号,,13,103,1060044,,,,,,,2024-04-15,1,,,,,フィットイントウキョウ,0
417,2010701045778,新規,0,2024-04-15,2024-04-15,株式会社日本総研ホールディングス,,株式会社,東京都,品川区,東五反田２丁目１８番１号,,13,109,1410022,,,,,,,2024-04-15,1,,,,,ニホンソウケンホールディングス,0
418,2010701045828,新規,0,2024-04-15,2024-04-15,株式会社ＭＭＧ,,株式会社,東京都,品川区,西五反田１丁目２４番４－８０７号,,13,109,1410031,,,,,,,2024-04-15,1,,,,,エムエムジー,0
419,2010801034953,新規,0,2024-04-15,2024-04-15,ＵＮＩＶＥＲＳＡＬ　ＤＩＮＥＲ株式会社,,株式会社,東京都,大田区,北千束１丁目５２番１３号,,13,111,1450062,,,,,,,2024-04-15,1,,,,,ユニバーサルダイナー,0
425,2011001161357,新規,0,2024-04-15,2024-04-15,株式会社ＳＰＯＲＴＩＣ,,株式会社,東京都,渋谷区,神宮前６丁目２３番４号桑野ビル２階,,13,113,1500001,,,,,,,2024-04-15,1,,,,,スポーティック,0
437,2011101106955,新規,0,2024-04-15,2024-04-15,ＧＣＳ　Ｓｅｒｖｉｃｅｓ　Ｊａｐａｎ株式会社,,株式会社,東京都,新宿区,高田馬場３丁目１４番２号佐成屋ビル３階,,13,104,1690075,,,,,,,2024-04-15,1,,,,,ジーシーエスサービスジャパン,0
438,2011101106963,新規,0,2024-04-15,2024-04-15,株式会社ＯＵＴＢＬＯＯＭ,,株式会社,東京都,新宿区,市谷田町３丁目８番市ヶ谷科学技術イノベーションセンタービル,,13,104,1620843,,,,,,,2024-04-15,1,,,,,アウトブルーム,0
439,2011101106971,新規,0,2024-04-15,2024-04-15,株式会社ｐｏｐＸ,,株式会社,東京都,新宿区,新宿１丁目２４番１２号ＴＨＥＧＡＴＥ新宿御苑４Ｆ,,13,104,1600022,,,,,,,2024-04-15,1,,,,,ポップ,0
443,2011403004337,新規,0,2024-04-15,2024-04-15,リベルテ合同会社,,合同会社,東京都,板橋区,前野町１丁目３１－７リベルテときわ台３０１,,13,119,1740063,,,,,,,2024-04-15,1,,,,,リベルテ,0
447,2011601027643,新規,0,2024-04-15,2024-04-15,株式会社ＴＯＰＰＡ　ＪＡＰＡＮ,,株式会社,東京都,練馬区,上石神井２丁目１８－２０－５０１,,13,120,1770044,,,,,,,2024-04-15,1,,,,,トッパジャパン,0
452,2011803006172,新規,0,2024-04-15,2024-04-15,合同会社アリカノ,,合同会社,東京都,足立区,綾瀬５丁目２４ー１ー２０３,,13,121,1200005,,,,,,,2024-04-15,1,,,,,アリカノ,0
453,2012403006513,新規,0,2024-04-15,2024-04-15,合同会社スタジオコイル,,合同会社,東京都,三鷹市,大沢５丁目９番２７号ドミール２０２,,13,204,1810015,,,,,,,2024-04-15,1,,,,,スタジオコイル,0
469,2020001156655,新規,0,2024-04-15,2024-04-15,ｂａａｅ株式会社,,株式会社,神奈川県,横浜市中区,黄金町２丁目８番地６ＹＡＲＤビル６階,,14,104,2310054,,,,,,,2024-04-15,1,,,,,バアイ,0
470,2020001156688,新規,0,2024-04-15,2024-04-15,株式会社ＨＯＯＫ　ＵＰ,,株式会社,神奈川県,横浜市西区,浅間町１丁目４番３号ウィザードビル４０２,,14,103,2200072,,,,,,,2024-04-15,1,,,,,フックアップ,0
471,2020001156721,新規,0,2024-04-15,2024-04-15,株式会社Ｌｏｎｔａｎｏ,,株式会社,神奈川県,横浜市港北区,新横浜２丁目５番地１４ＷＩＳＥＮＥＸＴ新横浜３階,,14,109,2220033,,,,,,,2024-04-15,1,,,,,ロンタノ,0
472,2020001156738,新規,0,2024-04-15,2024-04-15,株式会社ＹＰＲＯＪＥＣＴ,,株式会社,神奈川県,横浜市西区,北幸１丁目１１番５号相鉄ＫＳビル６Ｆ・９Ｆ,,14,103,2200004,,,,,,,2024-04-15,1,,,,,ワイプロジェクト,0
475,2020003025949,新規,0,2024-04-15,2024-04-15,Ｖ＆Ｂ合同会社,,合同会社,神奈川県,横浜市都筑区,中川中央１丁目３０番１号,,14,118,2240003,,,,,,,2024-04-15,1,,,,,ヴィーアンドビー,0
476,2020005016376,新規,0,2024-04-15,2024-04-15,行政書士法人Ｒｉｃｈｍｏｎｄ　Ｃｏｎｓｕｌｔｉｎｇ,,その他の設立登記法人,神奈川県,横浜市旭区,中希望が丘１６９番３４,,14,112,2410825,,,,,,,2024-04-15,1,,,,,リッチモンドコンサルティング,0
480,2021001081950,新規,0,2024-04-15,2024-04-15,株式会社ジップス,,株式会社,神奈川県,藤沢市,鵠沼海岸５丁目３番１０号ライツ鵠沼海岸４０４号,,14,205,2510037,,,,,,,2024-04-15,1,,,,,ジップス,0
481,2021001081959,新規,0,2024-04-15,2024-04-15,株式会社ミール,,株式会社,神奈川県,藤沢市,川名１８１番地の１８,,14,205,2510015,,,,,,,2024-04-15,1,,,,,ミール,0
500,2030001159780,新規,0,2024-04-15,2024-04-15,株式会社トーサイ,,株式会社,埼玉県,春日部市,小渕１６２１番地,,11,214,3440007,,,,,,,2024-04-15,1,,,,,トーサイ,0
501,2030001159814,新規,0,2024-04-15,2024-04-15,ジャパンメディカルサービスホールディングス株式会社,,株式会社,埼玉県,さいたま市大宮区,天沼町２丁目７５９番地さいたまメディカルタウン２階,,11,103,3300834,,,,,,,2024-04-15,1,,,,,ジャパンメディカルサービスホールディングス,0
510,2030003023984,新規,0,2024-04-15,2024-04-15,ＢＯＯＭＳＥＬＬＩＮＧ合同会社,,合同会社,埼玉県,戸田市,下前１丁目９－１６,,11,224,3350016,,,,,,,2024-04-15,1,,,,,ブームセリング,0
523,2040001133074,新規,0,2024-04-15,2024-04-15,株式会社若葉会,,株式会社,千葉県,柏市,富里３丁目２番５－２－１００９号,,12,217,2770081,,,,,,,2024-04-15,1,,,,,ワカバカイ,0
524,2040001133132,新規,0,2024-04-15,2024-04-15,ＭＡＨＤＩ株式会社,,株式会社,千葉県,佐倉市,表町１丁目８－１０第３長沢コーポ２－Ｄ,,12,212,2850811,,,,,,,2024-04-15,1,,,,,マディ,0
531,2040003024767,新規,0,2024-04-15,2024-04-15,合同会社メディカル＆タックス,,合同会社,千葉県,我孫子市,根戸６６２番地の１３,,12,222,2701168,,,,,,,2024-04-15,1,,,,,メディカルアンドタックス,0
532,2040003024783,新規,0,2024-04-15,2024-04-15,合同会社ＴＫＧコンサルティング,,合同会社,千葉県,我孫子市,寿１丁目２１－１２,,12,222,2701152,,,,,,,2024-04-15,1,,,,,ティーケージーコンサルティング,0
533,2040005022348,新規,0,2024-04-15,2024-04-15,一般社団法人日ノ出會,,その他の設立登記法人,千葉県,香取市,竜谷２５４番地４,,12,236,2870000,,,,,,,2024-04-15,1,,,,,ヒノデカイ,0
538,2050001054625,新規,0,2024-04-15,2024-04-15,株式会社アシスト,,株式会社,茨城県,龍ケ崎市,大徳町１８９２番１,,08,208,3010816,,,,,,,2024-04-15,1,,,,,,0
541,2050003008298,新規,0,2024-04-15,2024-04-15,ＩＪクリエーション合同会社,,合同会社,茨城県,神栖市,平泉２４８８,,08,232,3140146,,,,,,,2024-04-15,1,,,,,,0
556,2090003002545,新規,0,2024-04-15,2024-04-15,合同会社あずさ,,合同会社,山梨県,南アルプス市,上今井３８１,,19,208,4000303,,,,,,,2024-04-15,1,,,,,アズサ,0
561,2100001037368,新規,0,2024-04-15,2024-04-15,メゾンド５５１５軽井沢株式会社,,株式会社,長野県,北佐久郡御代田町,大字馬瀬口１６７０番地１８,,20,323,3890207,,,,,,,2024-04-15,1,,,,,メゾンドゴーゴーイチゴーカルイザワ,0
585,2120001264142,新規,0,2024-04-15,2024-04-15,Ｒｉｃｈｅ　ｄｅｍａｉｎ株式会社,,株式会社,大阪府,大阪市中央区,玉造１丁目６－１３、３Ａ,,27,128,5400004,,,,,,,2024-04-15,1,,,,,リッシュデマン,0
593,2120003026359,新規,0,2024-04-15,2024-04-15,ＦＬＯＷＥＲ　ＰＬＡＮＴ合同会社,,合同会社,大阪府,大阪市城東区,今福西３丁目１３番１号,,27,118,5360004,,,,,,,2024-04-15,1,,,,,フラワープラント,0
594,2120003026367,新規,0,2024-04-15,2024-04-15,フォレストステージ合同会社,,合同会社,大阪府,大阪市西区,靱本町１丁目７－２アイクラフト８０１号室,,27,106,5500004,,,,,,,2024-04-15,1,,,,,フォレストステージ,0
599,2120101069425,新規,0,2024-04-15,2024-04-15,株式会社ＲＩＺ,,株式会社,大阪府,泉南郡岬町,深日６３６－１,,27,366,5990303,,,,,,,2024-04-15,1,,,,,リズ,0
603,2120901048966,新規,0,2024-04-15,2024-04-15,ＬｉＵｓ株式会社,,株式会社,大阪府,吹田市,古江台２丁目１番１２－１号,,27,205,5650874,,,,,,,2024-04-15,1,,,,,リュウス,0
607,2130003009453,新規,0,2024-04-15,2024-04-15,ＢｉＢｉ合同会社,,合同会社,京都府,京都市山科区,大宅中小路町６０番地,,26,110,6078176,,,,,,,2024-04-15,1,,,,,ビビ,0
612,2140001133972,新規,0,2024-04-15,2024-04-15,株式会社プラスゲート,,株式会社,兵庫県,姫路市,阿保甲３７１番地１,,28,201,6700944,,,,,,,2024-04-15,1,,,,,プラスゲート,0
613,2140001134087,新規,0,2024-04-15,2024-04-15,株式会社建美清,,株式会社,兵庫県,神戸市長田区,明泉寺町３丁目３番９号南棟１１,,28,106,6530884,,,,,,,2024-04-15,1,,,,,ケンビセイ,0
614,2140001134104,新規,0,2024-04-15,2024-04-15,株式会社大樹不動産,,株式会社,兵庫県,神戸市中央区,琴ノ緒町１丁目６番８号,,28,110,6510094,,,,,,,2024-04-15,1,,,,,ダイジュフドウサン,0
621,2140003020418,新規,0,2024-04-15,2024-04-15,合同会社光,,合同会社,兵庫県,西宮市,下大市東町７番１１号ＭＣツリー２０１号,,28,204,6638004,,,,,,,2024-04-15,1,,,,,ヒカル,0
622,2140003020426,新規,0,2024-04-15,2024-04-15,ＳＯＦＭ合同会社,,合同会社,兵庫県,西宮市,今津曙町７－４ダイワビル１階,,28,204,6638214,,,,,,,2024-04-15,1,,,,,ソフエム,0
624,2150001027224,新規,0,2024-04-15,2024-04-15,株式会社Ｓｋｙ‐ｊｅｔ,,株式会社,奈良県,香芝市,旭ケ丘５丁目２２番地２,,29,210,6390266,,,,,,,2024-04-15,1,,,,,スカイジェット,0
628,2170003002025,新規,0,2024-04-15,2024-04-15,合同会社ｎｏｍａｄｓ,,合同会社,和歌山県,和歌山市,相坂３００番地１２,,30,201,6400341,,,,,,,2024-04-15,1,,,,,ノーマッズ,0
634,2180003026626,新規,0,2024-04-15,2024-04-15,合同会社じょいなす,,合同会社,愛知県,半田市,板山町９丁目５０番地,,23,205,4750936,,,,,,,2024-04-15,1,,,,,ジョイナス,0
638,2200001042399,新規,0,2024-04-15,2024-04-15,丸博建築株式会社,,株式会社,岐阜県,中津川市,付知町１０２７番地３,,21,206,5080351,,,,,,,2024-04-15,1,,,,,マルヒロケンチク,0
639,2210001019719,新規,0,2024-04-15,2024-04-15,株式会社トラストミール,,株式会社,福井県,丹生郡越前町,高佐第１９号７０番地,,18,423,9160425,,,,,,,2024-04-15,1,,,,,トラストミール,0
643,2230003002183,新規,0,2024-04-15,2024-04-15,ケーエムホーム合同会社,,合同会社,富山県,高岡市,片原町５３,,16,202,9330026,,,,,,,2024-04-15,1,,,,,ケーエムホーム,0
644,2230005009383,新規,0,2024-04-15,2024-04-15,一般社団法人上和田緑地キャンプ場,,その他の設立登記法人,富山県,砺波市,宮森新１５９番地,,16,208,9391404,,,,,,,2024-04-15,1,,,,,カミワダリョウチキャンプジョウ,0
649,2250001020607,新規,0,2024-04-15,2024-04-15,ヤマトワークス株式会社,,株式会社,山口県,光市,大字三輪９６２番地,,35,210,7430102,,,,,,,2024-04-15,1,,,,,ヤマトワークス,0
651,2250005008912,新規,0,2024-04-15,2024-04-15,一般社団法人はぴスポ,,その他の設立登記法人,山口県,周南市,本町２丁目１４番２階,,35,215,7450036,,,,,,,2024-04-15,1,,,,,ハピスポ,0
657,2280003001833,新規,0,2024-04-15,2024-04-15,オートリペア合同会社,,合同会社,島根県,大田市,仁摩町仁万６８２番地１,,32,205,6992301,,,,,,,2024-04-15,1,,,,,オートリペア,0
663,2290001105288,新規,0,2024-04-15,2024-04-15,株式会社２２３,,株式会社,福岡県,八女郡広川町,大字日吉７１２番地２,,40,544,8340111,,,,,,,2024-04-15,1,,,,,ニーニーサン,0
664,2290001105313,新規,0,2024-04-15,2024-04-15,株式会社ＦＷＳ,,株式会社,福岡県,福岡市博多区,博多駅前１丁目４番１号,,40,132,8120011,,,,,,,2024-04-15,1,,,,,エフダブリューエス,0
665,2290001105354,新規,0,2024-04-15,2024-04-15,株式会社Ｋｙｕｔｅｃｈ　ＡＲＩＳＥ,,株式会社,福岡県,飯塚市,川津６８０番地４,,40,205,8200067,,,,,,,2024-04-15,1,,,,,キューテックアライズ,0
666,2290001105453,新規,0,2024-04-15,2024-04-15,株式会社陸豊商事,,株式会社,福岡県,古賀市,花鶴丘３丁目１０番３,,40,223,8113104,,,,,,,2024-04-15,1,,,,,リクホウショウジ,0
668,2290003015163,新規,0,2024-04-15,2024-04-15,九州安住合同会社,,合同会社,福岡県,福岡市博多区,西月隈１丁目２番１８－５０３号エメラルドマンション西月隈,,40,132,8120857,,,,,,,2024-04-15,1,,,,,キュウシュウアンジュウ,0
669,2290005019352,新規,0,2024-04-15,2024-04-15,一般社団法人ダイナミックフードＪＡＰＡＮ,,その他の設立登記法人,福岡県,福岡市中央区,天神１丁目１－１,,40,133,8100001,,,,,,,2024-04-15,1,,,,,ダイナミックフードジャパン,0
673,2290803004687,新規,0,2024-04-15,2024-04-15,ブロッサム合同会社,,合同会社,福岡県,直方市,大字感田３５４番地５阿部アパート６号,,40,204,8220001,,,,,,,2024-04-15,1,,,,,ブロッサム,0
683,2330005010785,新規,0,2024-04-15,2024-04-15,医療法人Ｙ’ｓ歯科,,その他の設立登記法人,熊本県,菊池郡大津町,大字室字門出２１０番地５,,43,403,8691235,,,,,,,2024-04-15,1,,,,,,0
686,2350001018921,新規,0,2024-04-15,2024-04-15,株式会社ヒロテックメンテサービス,,株式会社,宮崎県,延岡市,日の出町１丁目４番４号サンルートビル１０２,,45,203,8820035,,,,,,,2024-04-15,1,,,,,ヒロテックメンテサービス,0
690,2360001033507,新規,0,2024-04-15,2024-04-15,株式会社クリスタレスアメリカ・ジャパン,,株式会社,沖縄県,那覇市,久茂地１丁目１番１号９Ｆ,,47,201,9000015,,,,,,,2024-04-15,1,,,,,クリスタレスアメリカジャパン,0
691,2360001033523,新規,0,2024-04-15,2024-04-15,株式会社国総建,,株式会社,沖縄県,うるま市,石川３４０９番地６４,,47,213,9041106,,,,,,,2024-04-15,1,,,,,クニソウケン,0
695,2370001051185,新規,0,2024-04-15,2024-04-15,株式会社ＳｉＧＥＮ,,株式会社,宮城県,仙台市若林区,卸町２丁目１１番地３,,04,103,9840015,,,,,,,2024-04-15,1,,,,,シゲン,0
696,2370003006559,新規,0,2024-04-15,2024-04-15,合同会社フォレスト,,合同会社,宮城県,仙台市太白区,大野田４丁目３１番地の７,,04,104,9820014,,,,,,,2024-04-15,1,,,,,フォレスト,0
704,2390003002234,新規,0,2024-04-15,2024-04-15,米沢バイオエナジー合同会社,,合同会社,山形県,米沢市,大字三沢２６１００番地,,06,202,9921202,,,,,,,2024-04-15,1,,,,,ヨネザワバイオエナジー,0
711,2430001091596,新規,0,2024-04-15,2024-04-15,西門吹株式会社,,株式会社,北海道,札幌市中央区,北十八条西１５丁目３番７号アークコート北大西ＩＩＩ３０２号室,00134414,01,101,0600018,,,,,,,2024-04-15,1,,,,,サイモンスイ,0
712,2430003016196,新規,0,2024-04-15,2024-04-15,不遠山房合同会社,,合同会社,北海道,札幌市豊平区,中の島一条３丁目４番５号１０２,,01,105,0620921,,,,,,,2024-04-15,1,,,,,フエンサンボウ,0
713,2430003016221,新規,0,2024-04-15,2024-04-15,合同会社萬屋悠照,,合同会社,北海道,札幌市中央区,南十四条西８丁目５番２０号,,01,101,0640914,,,,,,,2024-04-15,1,,,,,ヨロズヤユウショウ,0
727,2700150124492,新規,0,2024-04-15,2024-03-15,讃岐広島・小手島・手島活性化協議会,,その他,香川県,丸亀市,広島町江の浦３７３番地３,,37,202,7630102,,,,,,,2024-03-15,1,,,,,サヌキヒロシマオテシマテシマカツセイカキヨウギカイ,0
741,3010001243701,新規,0,2024-04-15,2024-04-15,ＣＳ２株式会社,,株式会社,東京都,千代田区,丸の内３丁目３番１号,,13,101,1000005,,,,,,,2024-04-15,1,,,,,シーエスツー,0
742,3010001243809,新規,0,2024-04-15,2024-04-15,ＨＲＴＩ株式会社,,株式会社,東京都,千代田区,神田須田町２丁目１番地４フォレシティ神田須田町３０１号,,13,101,1010041,,,,,,,2024-04-15,1,,,,,エイチアールティーアイ,0
743,3010001243874,新規,0,2024-04-15,2024-04-15,東京オーシャン貿易株式会社,,株式会社,東京都,千代田区,神田平河町１番地第３東ビル６ＦイーオフィスＡＫＩＢＡ３番館４３号室,,13,101,1010027,,,,,,,2024-04-15,1,,,,,トウキョウオーシャンボウエキ,0
744,3010001243882,新規,0,2024-04-15,2024-04-15,ネイキッド株式会社,,株式会社,東京都,千代田区,神田和泉町１－３－１６,,13,101,1010024,,,,,,,2024-04-15,1,,,,,ネイキッド,0
745,3010001243924,新規,0,2024-04-15,2024-04-15,ｋｉｃｋＳｐｅｈｅｒｅ．株式会社,,株式会社,東京都,文京区,本郷１丁目２８番３２－４０４号,,13,105,1130033,,,,,,,2024-04-15,1,,,,,キックスフィア,0
746,3010001243981,新規,0,2024-04-15,2024-04-15,ＣＹＥ株式会社,,株式会社,東京都,中央区,日本橋２丁目２番３号ＲＩＳＨＥビルＵＣＦ４階,,13,102,1030027,,,,,,,2024-04-15,1,,,,,シーワイイー,0
747,3010001243998,新規,0,2024-04-15,2024-04-15,サファイアラウンジ株式会社,,株式会社,東京都,中央区,築地６丁目２５番１０号築地センタービル４階,,13,102,1040045,,,,,,,2024-04-15,1,,,,,サファイアラウンジ,0
748,3010001244014,新規,0,2024-04-15,2024-04-15,ノノガミ株式会社,,株式会社,東京都,千代田区,神田和泉町１番地６－１６ヤマトビル４０５,,13,101,1010024,,,,,,,2024-04-15,1,,,,,ノノガミ,0
749,3010001244022,新規,0,2024-04-15,2024-04-15,株式会社クリスピー,,株式会社,東京都,千代田区,丸の内１丁目５番１号,,13,101,1000005,,,,,,,2024-04-15,1,,,,,クリスピー,0
752,3010005038123,新規,0,2024-04-15,2024-04-15,一般社団法人日本生命倫理学会,,その他の設立登記法人,東京都,文京区,大塚５丁目７番１１号パレ・ドール文京メトロプラザＩ－６１２号室,00134409,13,105,1120012,,,,,,,2024-04-15,1,,,,,ニホンセイメイリンリガッカイ,0
753,3010005038172,新規,0,2024-04-15,2024-04-15,一般社団法人聖愛和会,,その他の設立登記法人,東京都,中央区,銀座５丁目１０番２号ＧＩＮＺＡＭＩＳＳＰＡＲＩＳ１０Ｆ,,13,102,1040061,,,,,,,2024-04-15,1,,,,,セイアイワカイ,0
754,3010103002336,新規,0,2024-04-15,2024-04-15,ＳＵＮＮＹ合同会社,,合同会社,東京都,八王子市,西片倉３丁目３－９,,13,201,1920917,,,,,,,2024-04-15,1,,,,,,0
767,3010401181815,新規,0,2024-04-15,2024-04-15,ＳＵＮ森株式会社,,株式会社,東京都,港区,三田３丁目２番１号弓和三田ビジデンス５１０号室,,13,103,1080073,,,,,,,2024-04-15,1,,,,,サンモリ,0
768,3010401181864,新規,0,2024-04-15,2024-04-15,株式会社リンクエイト,,株式会社,東京都,港区,赤坂３丁目１４番７号,,13,103,1070052,,,,,,,2024-04-15,1,,,,,リンクエイト,0
772,3010403032396,新規,0,2024-04-15,2024-04-15,ＫＡＴＯ　ＨＯＵＳＩＮＧ合同会社,,合同会社,東京都,港区,赤坂７丁目６番５２－１０６号,,13,103,1070052,,,,,,,2024-04-15,1,,,,,カトウハウジング,0
782,3010701045819,新規,0,2024-04-15,2024-04-15,株式会社エイム・インスペクション・オブ・ジャパン,,株式会社,東京都,品川区,東品川４丁目１２番９－１４０４号,,13,109,1400002,,,,,,,2024-04-15,1,,,,,エイムインスペクションオブジャパン,0
787,3010801034936,新規,0,2024-04-15,2024-04-15,株式会社ユヅキ,,株式会社,東京都,大田区,池上７丁目２９番２１号,,13,111,1460082,,,,,,,2024-04-15,1,,,,,ユヅキ,0
788,3010801034944,新規,0,2024-04-15,2024-04-15,株式会社アイランドイン,,株式会社,東京都,大田区,西六郷４丁目７番１－１００２号,,13,111,1440056,,,,,,,2024-04-15,1,,,,,アイランドイン,0
789,3010801034952,新規,0,2024-04-15,2024-04-15,株式会社オンリーワン,,株式会社,東京都,大田区,羽田空港１丁目１－４ＨＩＣｉｔｙＺｏｎｅＫ２０１,,13,111,1440041,,,,,,,2024-04-15,1,,,,,オンリーワン,0
790,3010803004912,新規,0,2024-04-15,2024-04-15,合同会社エムエヌ,,合同会社,東京都,大田区,千鳥２丁目２３－４,,13,111,1460083,,,,,,,2024-04-15,1,,,,,エムエヌ,0
794,3010901055064,新規,0,2024-04-15,2024-04-15,株式会社ＥＨ,,株式会社,東京都,世田谷区,下馬３丁目３０番４号,,13,112,1540002,,,,,,,2024-04-15,1,,,,,イーエイチ,0
802,3011003018901,新規,0,2024-04-15,2024-04-15,ＳＧ＆Ａ合同会社,,合同会社,東京都,渋谷区,恵比寿西２丁目４番８号ウィンド恵比寿ビル８Ｆ,,13,113,1500021,,,,,,,2024-04-15,1,,,,,エスジイアンドエイ,0
808,3011101106938,新規,0,2024-04-15,2024-04-15,清連株式会社,,株式会社,東京都,新宿区,東五軒町１番９号ＳＢＳ・Ｃ－３,,13,104,1620813,,,,,,,2024-04-15,1,,,,,セイレン,0
809,3011101106962,新規,0,2024-04-15,2024-04-15,株式会社早稲田大学ＴＬＯ,,株式会社,東京都,新宿区,早稲田鶴巻町５１３番地,,13,104,1620041,,,,,,,2024-04-15,1,,,,,ワセダダイガクティーエルオー,0
815,3011201025402,新規,0,2024-04-15,2024-04-15,株式会社つくしんぼ,,株式会社,東京都,中野区,中野３丁目１９番５号増田ビル１０５,,13,114,1640001,,,,,,,2024-04-15,1,,,,,ツクシンボ,0
826,3011801044066,新規,0,2024-04-15,2024-04-15,株式会社ＨＡＮＡ,,株式会社,東京都,足立区,中川４丁目２４番７号亀有ＭＳビル２階,,13,121,1200002,,,,,,,2024-04-15,1,,,,,ハナ,0
827,3011801044082,新規,0,2024-04-15,2024-04-15,正元株式会社,,株式会社,東京都,葛飾区,東水元２丁目１０番８号,,13,122,1250033,,,,,,,2024-04-15,1,,,,,ショウゲン,0
828,3012401041742,新規,0,2024-04-15,2024-04-15,株式会社ハートフルペットケア,,株式会社,東京都,調布市,菊野台１丁目４４番地１１,,13,208,1820007,,,,,,,2024-04-15,1,,,,,ハートフルペットケア,0
841,3020001156687,新規,0,2024-04-15,2024-04-15,Ｒ＆Ｅ株式会社,,株式会社,神奈川県,横浜市神奈川区,松ケ丘８２番地２１,,14,102,2210843,,,,,,,2024-04-15,1,,,,,アールアンドイー,0
842,3020001156695,新規,0,2024-04-15,2024-04-15,若水株式会社,,株式会社,神奈川県,横浜市鶴見区,鶴見中央５丁目２４－１１セザール鶴見３０３,,14,101,2300051,,,,,,,2024-04-15,1,,,,,ワカミズ,0
843,3020001156720,新規,0,2024-04-15,2024-04-15,株式会社アメックスＤｅｓｉｇｎ,,株式会社,神奈川県,横浜市中区,太田町４丁目４８番地川島ビル２０３,,14,104,2310011,,,,,,,2024-04-15,1,,,,,アメックスデザイン,0
846,3020003025931,新規,0,2024-04-15,2024-04-15,合同会社Ａｌｍｏｓｔ,,合同会社,神奈川県,横浜市鶴見区,上の宮１丁目１４番７号バイオレットヒルズ西館１０７号室,,14,101,2300075,,,,,,,2024-04-15,1,,,,,オルモスト,0
847,3020005016375,新規,0,2024-04-15,2024-04-15,医療法人社団紀仁会,,その他の設立登記法人,神奈川県,川崎市多摩区,登戸２５６５番地１イル・マーレ２階,,14,135,2140014,,,,,,,2024-04-15,1,,,,,キニンカイ,0
854,3021003014370,新規,0,2024-04-15,2024-04-15,合同会社ｉ‐ｇｎｉｔｅ　Ｌａｂｏ,,合同会社,神奈川県,鎌倉市,長谷５丁目９番４号,,14,204,2480016,,,,,,,2024-04-15,1,,,,,イグナイトラボ,0
860,3030001159813,新規,0,2024-04-15,2024-04-15,株式会社ＭＯＪＩ　Ｐｒｏｄｕｃｔ,,株式会社,埼玉県,秩父市,熊木町１５番２号ＫＭＧビル１階１０１号,,11,207,3680032,,,,,,,2024-04-15,1,,,,,モジプロダクト,0
866,3030005021655,新規,0,2024-04-15,2024-04-15,医療法人彩の国元気会,,その他の設立登記法人,埼玉県,所沢市,上新井１丁目２５番地の１０,,11,208,3591142,,,,,,,2024-04-15,1,,,,,サイノクニゲンキカイ,0
877,3040001133098,新規,0,2024-04-15,2024-04-15,株式会社ＵＰ　ＳＴＡＲＴ,,株式会社,千葉県,千葉市花見川区,横戸台５番地１０,,12,102,2620006,,,,,,,2024-04-15,1,,,,,アップスタート,0
878,3040001133131,新規,0,2024-04-15,2024-04-15,株式会社ＫＡＭＩＧＡＫＡＲＩ,,株式会社,千葉県,千葉市若葉区,小倉台７丁目１番５号,,12,104,2640006,,,,,,,2024-04-15,1,,,,,カミガカリ,0
886,3040003024758,新規,0,2024-04-15,2024-04-15,Ｎｉｖａ　ｅｘｔｅｎｓｉｖｅ　ｃｏｎｎｅｃｔｉｏｎ合同会社,,合同会社,千葉県,船橋市,大穴南５丁目２２－８,,12,204,2740067,,,,,,,2024-04-15,1,,,,,ニヴァエクステンシブコネクション,0
887,3040003024766,新規,0,2024-04-15,2024-04-15,合同会社アイケイズ,,合同会社,千葉県,いすみ市,深堀１６０４番地２,,12,238,2980003,,,,,,,2024-04-15,1,,,,,アイケイズ,0
888,3040003024782,新規,0,2024-04-15,2024-04-15,合同会社Ｇｕｉｌｄ,,合同会社,千葉県,船橋市,二和東２丁目１１－１,,12,204,2740805,,,,,,,2024-04-15,1,,,,,ギルド,0
889,3040005022347,新規,0,2024-04-15,2024-04-15,医療法人社団仁花会,,その他の設立登記法人,千葉県,四街道市,鹿渡２００３番地２５高宮ビル２階・３階,,12,228,2840003,,,,,,,2024-04-15,1,,,,,ジンカカイ,0
894,3050001054624,新規,0,2024-04-15,2024-04-15,株式会社ヴィラトレーディング,,株式会社,茨城県,筑西市,乙２１４番地８グリーンマンション１０３,,08,227,3080041,,,,,,,2024-04-15,1,,,,,ヴィラトレーディング,0
895,3050001054632,新規,0,2024-04-15,2024-04-15,株式会社ＶＮＳ　ＪＡＰＡＮ,,株式会社,茨城県,つくば市,花島新田４番地６,,08,220,3050875,,,,,,,2024-04-15,1,,,,,ブイエヌエスジャパン,0
896,3050001054649,新規,0,2024-04-15,2024-04-15,株式会社勝建,,株式会社,茨城県,土浦市,右籾２４５３番地２,,08,203,3000837,,,,,,,2024-04-15,1,,,,,ショウケン,0
900,3070001041629,新規,0,2024-04-15,2024-04-15,株式会社スマック関東,,株式会社,群馬県,高崎市,東貝沢町１丁目１７番８,,10,202,3700041,,,,,,,2024-04-15,1,,,,,スマックカントウ,0
904,3080101024672,新規,0,2024-04-15,2024-04-15,Ｍ’ｓガレージ株式会社,,株式会社,静岡県,下田市,吉佐美２２４８番地の２,,22,219,4150028,,,,,,,2024-04-15,1,,,,,エムズガレージ,0
905,3080101024680,新規,0,2024-04-15,2024-04-15,株式会社アキテックス,,株式会社,静岡県,駿東郡長泉町,上土狩１９３番地の６,,22,342,4110941,,,,,,,2024-04-15,1,,,,,アキテックス,0
908,3090003002544,新規,0,2024-04-15,2024-04-15,合同会社ピープル,,合同会社,山梨県,甲府市,武田４丁目２番１２号,,19,201,4000016,,,,,,,2024-04-15,1,,,,,,0
919,3110005017075,新規,0,2024-04-15,2024-04-15,つばめ商工会,,その他の設立登記法人,新潟県,燕市,吉田東栄町１４番１２号燕市吉田産業会館内,,15,213,9590232,,,,,,新潟県燕市吉田東栄町１４番１２号燕市吉田産業会館内吉田商工会（1110005006294）と新潟県燕市上諏訪９番６号分水商工会（6110005006224）の合併により設立,2024-04-15,1,,,,,ツバメ,0
925,3120001264026,新規,0,2024-04-15,2024-04-15,株式会社ジャパンヨーク防災,,株式会社,大阪府,大阪市中央区,谷町３丁目２番１４号谷町ヨークビル４０７号,,27,128,5400012,,,,,,,2024-04-15,1,,,,,ジャパンヨークボウサイ,0
926,3120001264050,新規,0,2024-04-15,2024-04-15,株式会社多田建設工業,,株式会社,大阪府,大阪市北区,長柄西２丁目１番５－２０３号,,27,127,5310061,,,,,,,2024-04-15,1,,,,,タダケンセツコウギョウ,0
927,3120001264059,新規,0,2024-04-15,2024-04-15,株式会社ＢＲＩＳＡ,,株式会社,大阪府,枚方市,岡本町７番１号,,27,210,5730031,,,,,,,2024-04-15,1,,,,,ブリッサ,0
928,3120001264166,新規,0,2024-04-15,2024-04-15,明光運輸株式会社,,株式会社,大阪府,大阪市浪速区,湊町１丁目４番１号,,27,111,5560017,,,,,,,2024-04-15,1,,,,,メイコウウンユ,0
929,3120001264174,新規,0,2024-04-15,2024-04-15,株式会社レペリア,,株式会社,大阪府,大阪市鶴見区,茨田大宮３丁目１７番１４号,,27,124,5380031,,,,,,,2024-04-15,1,,,,,レペリア,0
935,3120101069408,新規,0,2024-04-15,2024-04-15,株式会社山田タイル,,株式会社,大阪府,堺市中区,深阪５丁７番１３号,,27,142,5998253,,,,,,,2024-04-15,1,,,,,ヤマダタイル,0
936,3120101069416,新規,0,2024-04-15,2024-04-15,株式会社Ｏｎｅ　Ｐｌｕｓ,,株式会社,大阪府,堺市西区,鳳南町３丁１９９番地１ライトウイング３０３号,,27,144,5938325,,,,,,,2024-04-15,1,,,,,ワンプラス,0
945,3122001038013,新規,0,2024-04-15,2024-04-15,さくら不動産販売株式会社,,株式会社,大阪府,東大阪市,御厨南３丁目１番２１号,,27,227,5770034,,,,,,,2024-04-15,1,,,,,サクラフドウサンハンバイ,0
948,3130001076809,新規,0,2024-04-15,2024-04-15,清川株式会社,,株式会社,京都府,京都市伏見区,深草藪之内町４５番地４,,26,109,6120882,,,,,,,2024-04-15,1,,,,,キヨカワ,0
961,3140001134037,新規,0,2024-04-15,2024-04-15,公義貿易株式会社,,株式会社,兵庫県,神戸市灘区,城の下通２丁目７番７号トリニティ青谷２Ｆ,,28,102,6570804,,,,,,,2024-04-15,1,,,,,コウギボウエキ,0
962,3140001134061,新規,0,2024-04-15,2024-04-15,株式会社Ｈｏｇｕｓｕｎ,,株式会社,兵庫県,三木市,緑が丘町東１丁目１の３９,,28,215,6730533,,,,,,,2024-04-15,1,,,,,ホグスン,0
971,3160001025837,新規,0,2024-04-15,2024-04-15,株式会社三雄,,株式会社,滋賀県,大津市,勧学１丁目５番８号,,25,201,5200013,,,,,,,2024-04-15,1,,,,,サンユウ,0
975,3180001160979,新規,0,2024-04-15,2024-04-15,株式会社ＢｏｎｄＢｌｏｏｍ,,株式会社,愛知県,名古屋市緑区,ほら貝２丁目２３７番地の１,,23,114,4580013,,,,,,,2024-04-15,1,,,,,ボンドブルーム,0
976,3180001161044,新規,0,2024-04-15,2024-04-15,Ｓａｌｔｅｃｈ　Ｉｎｎｏｖａｔｉｏｎ株式会社,,株式会社,愛知県,名古屋市中村区,名駅４丁目２４番５号第２森ビル４０１,,23,105,4500002,,,,,,,2024-04-15,1,,,,,ソルテックイノベーション,0
986,3190001031279,新規,0,2024-04-15,2024-04-15,伊勢物産株式会社,,株式会社,三重県,津市,観音寺町６０４番地５４,,24,201,5140062,,,,,,,2024-04-15,1,,,,,イセブッサン,0
989,3200001042398,新規,0,2024-04-15,2024-04-15,株式会社レイズ,,株式会社,岐阜県,羽島郡笠松町,米野７２３番地の１,,21,303,5016031,,,,,,,2024-04-15,1,,,,,レイズ,0
990,3200001042407,新規,0,2024-04-15,2024-04-15,株式会社Ｅｎｔｒｕｓｔ,,株式会社,岐阜県,各務原市,蘇原菊園町３丁目１０番地４,,21,213,5040823,,,,,,,2024-04-15,1,,,,,エントラスト,0
999,3240001063085,新規,0,2024-04-15,2024-04-15,株式会社藤澤組,,株式会社,広島県,広島市安佐南区,緑井７丁目２９番２０号,,34,105,7310103,,,,,,,2024-04-15,1,,,,,フジサワグミ,0
1002,3250001020606,新規,0,2024-04-15,2024-04-15,株式会社アシスト山口,,株式会社,山口県,山口市,三和町１７番４２－５２０号,,35,203,7530052,,,,,,,2024-04-15,1,,,,,アシストヤマグチ,0
1006,3260001038969,新規,0,2024-04-15,2024-04-15,株式会社きやまヘルパーステーション,,株式会社,岡山県,笠岡市,山口２９０５番地,,33,205,7140007,,,,,,,2024-04-15,1,,,,,キヤマヘルパーステーション,0
1007,3260005011336,新規,0,2024-04-15,2024-04-15,一般社団法人津山市上下水道協会,,その他の設立登記法人,岡山県,津山市,山北７６０番地５,,33,203,7080004,,,,,,,2024-04-15,1,,,,,ツヤマシジョウゲスイドウキョウカイ,0
1009,3280003001832,新規,0,2024-04-15,2024-04-15,合同会社魁,,合同会社,島根県,益田市,東町３１番１０２号,,32,204,6980004,,,,,,,2024-04-15,1,,,,,サキガケ,0
1014,3290001105304,新規,0,2024-04-15,2024-04-15,ｌｕｍｂｅｒｊａｃｋ　ｔｅｃｈｎｏｌｏｇｙ株式会社,,株式会社,福岡県,福岡市中央区,天神１丁目１番１号,,40,133,8100001,,,,,,,2024-04-15,1,,,,,ランバージャックテクノロジー,0
1015,3290001105329,新規,0,2024-04-15,2024-04-15,新日本プロテクティブ株式会社,,株式会社,福岡県,那珂川市,片縄５丁目２２９番地３,,40,231,8111201,,,,,,,2024-04-15,1,,,,,シンニホンプロテクティブ,0
1016,3290003015162,新規,0,2024-04-15,2024-04-15,エキゾチカ合同会社,,合同会社,福岡県,糟屋郡宇美町,光正寺３丁目１０－７,,40,341,8112123,,,,,,,2024-04-15,1,,,,,エキゾチカ,0
1023,3290005019368,新規,0,2024-04-15,2024-04-15,一般社団法人アクシズコーチング協会,,その他の設立登記法人,福岡県,福岡市東区,下原１丁目１２番２７－４０２号,,40,131,8130002,,,,,,,2024-04-15,1,,,,,アクシズコーチングキョウカイ,0
1030,3290801030494,新規,0,2024-04-15,2024-04-15,株式会社ＨＡＴＳＵ,,株式会社,福岡県,京都郡みやこ町,上坂４１２番地,,40,625,8240111,,,,,,,2024-04-15,1,,,,,ハツ,0
1031,3290801030503,新規,0,2024-04-15,2024-04-15,株式会社エイト,,株式会社,福岡県,行橋市,北泉５丁目１５番１１号,,40,213,8240033,,,,,,,2024-04-15,1,,,,,エイト,0
1035,3290803004686,新規,0,2024-04-15,2024-04-15,合同会社タクニカル,,合同会社,福岡県,北九州市八幡東区,高見３丁目１－１－６１３,,40,108,8050016,,,,,,,2024-04-15,1,,,,,タクニカル,0
1043,3340003004432,新規,0,2024-04-15,2024-04-15,合同会社ＷＡＯ,,合同会社,鹿児島県,指宿市,東方１２１２６番１２号,,46,210,8910404,,,,,,,2024-04-15,1,,,,,ワオ,0
1045,3350001018920,新規,0,2024-04-15,2024-04-15,株式会社ヨーゼ・イーゼ,,株式会社,宮崎県,宮崎市,西高松町４番２１号,,45,201,8800016,,,,,,,2024-04-15,1,,,,,ヨーゼイーゼ,0
1052,3370001051184,新規,0,2024-04-15,2024-04-15,株式会社プロフェシーコネクト,,株式会社,宮城県,多賀城市,浮島字西沢４１番地の４,,04,209,9850861,,,,,,,2024-04-15,1,,,,,プロフェシーコネクト,0
1066,3430001091538,新規,0,2024-04-15,2024-04-15,株式会社ＧＯＥＭＯＮ八,,株式会社,北海道,札幌市北区,篠路二条５丁目５番２８号,,01,102,0028022,,,,,,,2024-04-15,1,,,,,ゴエモンヤ,0
1072,3430003016195,新規,0,2024-04-15,2024-04-15,Ｓ・Ｙ・Ｌ合同会社,,合同会社,北海道,札幌市豊平区,豊平三条４丁目１番１７－２０６号,,01,105,0620903,,,,,,,2024-04-15,1,,,,,エスワイエル,0
1075,3450003002466,新規,0,2024-04-15,2024-04-15,合同会社ＲＤ,,合同会社,北海道,旭川市,東旭川町下兵村３７３番地２,,01,204,0788208,,,,,,,2024-04-15,1,,,,,アールディー,0
1076,3470001020138,新規,0,2024-04-15,2024-04-15,株式会社ＱＵＯＮ,,株式会社,香川県,高松市,三条町２２２－１フィネス三条２０４,,37,201,7618072,,,,,,,2024-04-15,1,,,,,クオン,0
1091,4010001243601,新規,0,2024-04-15,2024-04-15,株式会社あいことば,,株式会社,東京都,中央区,銀座１丁目１２－４Ｎ＆ＥＢＬＤ．７階,,13,102,1040061,,,,,,,2024-04-15,1,,,,,アイコトバ,0
1092,4010001243923,新規,0,2024-04-15,2024-04-15,株式会社ＦＡＢトラスト,,株式会社,東京都,千代田区,神田錦町１丁目２１－３－６０１,,13,101,1010054,,,,,,,2024-04-15,1,,,,,エフエービートラスト,0
1093,4010001243980,新規,0,2024-04-15,2024-04-15,エンデバー・ユナイテッド・パートナーズ・３３株式会社,,株式会社,東京都,千代田区,丸の内２丁目５番１号丸の内二丁目ビル６階,,13,101,1000005,,,,,,,2024-04-15,1,,,,,エンデバーユナイテッドパートナーズサーティースリー,0
1094,4010001244005,新規,0,2024-04-15,2024-04-15,イノバテスト・ジャパン株式会社,,株式会社,東京都,中央区,日本橋本町３丁目３番６号ワカ末ビル７階,,13,102,1030023,,,,,,,2024-04-15,1,,,,,イノバテストジャパン,0
1095,4010001244087,新規,0,2024-04-15,2024-04-15,入船ＨＤ株式会社,,株式会社,東京都,中央区,八丁堀３丁目１１番１２号,,13,102,1040032,,,,,,,2024-04-15,1,,,,,イリフネホールディングス,0
1102,4010003043470,新規,0,2024-04-15,2024-04-15,合同会社フルオール,,合同会社,東京都,千代田区,神田和泉町１番地６－１６ヤマトビル４０５,,13,101,1010024,,,,,,,2024-04-15,1,,,,,フルオール,0
1103,4010003043479,新規,0,2024-04-15,2024-04-15,合同会社ｗａｌｋｅｒ,,合同会社,東京都,中央区,銀座１丁目１２番４号Ｎ＆Ｅ、ＢＬＤ．６Ｆ,,13,102,1040061,,,,,,,2024-04-15,1,,,,,ウォーカー,0
1109,4010005038155,新規,0,2024-04-15,2024-04-15,一般社団法人メタシアター,,その他の設立登記法人,東京都,中央区,銀座１丁目１２－４Ｎ＆ＥＢＬＤ．７階,,13,102,1040061,,,,,,,2024-04-15,1,,,,,メタシアター,0
1110,4010005038171,新規,0,2024-04-15,2024-04-15,ＲＦストレージホールディングス一般社団法人,,その他の設立登記法人,東京都,千代田区,九段南３丁目７番７号成和綜合会計事務所内,,13,101,1020074,,,,,,,2024-04-15,1,,,,,アールエフストレージホールディングス,0
1112,4010103002335,新規,0,2024-04-15,2024-04-15,福原の家合同会社,,合同会社,東京都,八王子市,東町１０番３号１階,,13,201,1920082,,,,,,,2024-04-15,1,,,,,,0
1120,4010401181731,新規,0,2024-04-15,2024-04-15,ＳＡＨ　Ｉｎｔｅｒｎａｔｉｏｎａｌ株式会社,,株式会社,東京都,港区,南青山２丁目２番１５号ウィン青山１２１４号,,13,103,1070062,,,,,,,2024-04-15,1,,,,,エスエイエイチインターナショナル,0
1121,4010401181764,新規,0,2024-04-15,2024-04-15,ドスチコス株式会社,,株式会社,東京都,港区,浜松町２丁目２番１５号浜松町ダイヤビル２Ｆ,,13,103,1050013,,,,,,,2024-04-15,1,,,,,ドスチコス,0
1123,4010501052097,新規,0,2024-04-15,2024-04-15,株式会社ＷＩＴＨ　ＡＲＴ,,株式会社,東京都,台東区,駒形１丁目１番１－９０６号,,13,106,1110043,,,,,,,2024-04-15,1,,,,,ウィズアート,0
1124,4010601065008,新規,0,2024-04-15,2024-04-15,ＲｈｙｔｈｍｉｃＢｒａｎｄ株式会社,,株式会社,東京都,江東区,豊洲６丁目２－２９－２３０９,,13,108,1350061,,,,,,,2024-04-15,1,,,,,リズミックブランド,0
1127,4010801034943,新規,0,2024-04-15,2024-04-15,株式会社ｃａＢ,,株式会社,東京都,大田区,羽田６丁目９番４号２階,,13,111,1440043,,,,,,,2024-04-15,1,,,,,グラーヴ,0
1128,4010803004911,新規,0,2024-04-15,2024-04-15,合同会社輝陽,,合同会社,東京都,大田区,北千束３丁目２３番５号,,13,111,1450062,,,,,,,2024-04-15,1,,,,,キヨウ,0
1133,4010903008969,新規,0,2024-04-15,2024-04-15,合同会社ＺＥＮＤ,,合同会社,東京都,世田谷区,代沢５丁目３３番３号ボート代沢Ａ１,,13,112,1550032,,,,,,,2024-04-15,1,,,,,ゼンド,0
1146,4011101106953,新規,0,2024-04-15,2024-04-15,福山株式会社,,株式会社,東京都,新宿区,百人町１丁目２１番４－５０２号,,13,104,1690073,,,,,,,2024-04-15,1,,,,,フクヤマ,0
1147,4011101106961,新規,0,2024-04-15,2024-04-15,株式会社Ｌｕｃｋｙ　Ｐａｒｔｎｅｒｓ,,株式会社,東京都,新宿区,高田馬場４丁目４番１０号コーポラス徳光,,13,104,1690075,,,,,,,2024-04-15,1,,,,,ラッキーパートナーズ,0
1148,4011101106994,新規,0,2024-04-15,2024-04-15,株式会社Ｔ．Ｓ．ｅｖｏｋｅ,,株式会社,東京都,新宿区,西新宿３丁目３番１３号西新宿水間ビル２Ｆ,,13,104,1600023,,,,,,,2024-04-15,1,,,,,ティエスエヴォーク,0
1152,4011201025401,新規,0,2024-04-15,2024-04-15,ウィスペックス株式会社,,株式会社,東京都,中野区,本町３丁目２８番１６号ＯＭＳビル２階,,13,114,1640012,,,,,,,2024-04-15,1,,,,,ウィスペックス,0
1155,4011501030547,新規,0,2024-04-15,2024-04-15,株式会社Ｏｂｓｅｓｓｅｄ,,株式会社,東京都,荒川区,荒川３丁目７８番４号グレイス宮地６０１,,13,118,1160002,,,,,,,2024-04-15,1,,,,,オブセスト,0
1163,4012801023109,新規,0,2024-04-15,2024-04-15,株式会社Ｋｏｔｏｔｏｉ,,株式会社,東京都,立川市,高松町１丁目３１番２２号パークホームズ立川１０５号室,,13,202,1900011,,,,,,,2024-04-15,1,,,,,コトトイ,0
1175,4020001156711,新規,0,2024-04-15,2024-04-15,ミライ技建株式会社,,株式会社,神奈川県,横浜市鶴見区,仲通３丁目７６番地７,,14,101,2300042,,,,,,,2024-04-15,1,,,,,ミライギケン,0
1176,4020001156760,新規,0,2024-04-15,2024-04-15,株式会社かえで,,株式会社,神奈川県,横浜市中区,海岸通５丁目２５番地２,,14,104,2310002,,,,,,,2024-04-15,1,,,,,カエデ,0
1180,4020003025906,新規,0,2024-04-15,2024-04-15,ａｉｒＬｉｖｅ合同会社,,合同会社,神奈川県,川崎市麻生区,岡上２丁目２３－３６,,14,137,2150027,,,,,,,2024-04-15,1,,,,,エアライブ,0
1181,4020003025914,新規,0,2024-04-15,2024-04-15,リブラウェイ合同会社,,合同会社,神奈川県,横浜市港北区,師岡町２６５番地７,,14,109,2220002,,,,,,,2024-04-15,1,,,,,リブラウェイ,0
1182,4020003025930,新規,0,2024-04-15,2024-04-15,合同会社Ｆｕｎ　ｗｏｒｋ,,合同会社,神奈川県,横浜市戸塚区,上倉田町４１７番地東海ビル２０２号,,14,110,2440816,,,,,,,2024-04-15,1,,,,,ファンワーク,0
1183,4020005016374,新規,0,2024-04-15,2024-04-15,横浜国際交流協同組合,,その他の設立登記法人,神奈川県,横浜市南区,前里町３丁目６１番地３Ｆ,,14,105,2320004,,,,,,,2024-04-15,1,,,,,コヨハマコクサイコウリュウ,0
1190,4021003014353,新規,0,2024-04-15,2024-04-15,合同会社Ｇｅｃｋｏ,,合同会社,神奈川県,逗子市,逗子７丁目１０番３２号,,14,208,2490006,,,,,,,2024-04-15,1,,,,,ゲッコー,0
1197,4030001159779,新規,0,2024-04-15,2024-04-15,株式会社スマイルホーム,,株式会社,埼玉県,久喜市,桜田３丁目１－３東鷲宮駅前ビル３Ｆ,,11,232,3400203,,,,,,,2024-04-15,1,,,,,スマイルホーム,0
1208,4030003023966,新規,0,2024-04-15,2024-04-15,ＴＧＥ水上ソーラー１号合同会社,,合同会社,埼玉県,比企郡嵐山町,大字大蔵３８８番地,,11,342,3550222,,,,,,,2024-04-15,1,,,,,ティージーイースイジョウソーラーイチゴウ,0
1209,4030005021638,新規,0,2024-04-15,2024-04-15,司法書士法人アソシエ,,その他の設立登記法人,埼玉県,熊谷市,箱田７丁目９番２９号アソシエビル１Ｆ,,11,202,3600014,,,,,,,2024-04-15,1,,,,,アソシエ,0
1220,4040001133080,新規,0,2024-04-15,2024-04-15,Ｚ　ＰＬＵＳ株式会社,,株式会社,千葉県,佐倉市,宮前３丁目２２番地４ＧＡＲＤＥＮＥＬＥＧＡＮＴ２２２号室,,12,212,2850005,,,,,,,2024-04-15,1,,,,,ゼットプラス,0
1221,4040001133097,新規,0,2024-04-15,2024-04-15,株式会社ＲｅＷａｒｍ,,株式会社,千葉県,成田市,飯田町字西向野１３３番地２２ビラデルセクレ１階,,12,211,2860041,,,,,,,2024-04-15,1,,,,,リワーム,0
1222,4040001133106,新規,0,2024-04-15,2024-04-15,株式会社大和,,株式会社,千葉県,浦安市,明海６丁目１番１２－４２１号,,12,227,2790014,,,,,,,2024-04-15,1,,,,,ヤマト,0
1223,4040001133114,新規,0,2024-04-15,2024-04-15,株式会社トムズプランニング,,株式会社,千葉県,習志野市,花咲１丁目１番３３号,,12,216,2750013,,,,,,,2024-04-15,1,,,,,トムズプランニング,0
1224,4040001133122,新規,0,2024-04-15,2024-04-15,株式会社三和,,株式会社,千葉県,松戸市,栄町西１丁目７９９番地の１２,,12,207,2710061,,,,,,,2024-04-15,1,,,,,サンワ,0
1232,4040003024757,新規,0,2024-04-15,2024-04-15,ＮＫ合同会社,,合同会社,千葉県,千葉市中央区,栄町２２－７,,12,101,2600016,,,,,,,2024-04-15,1,,,,,エヌケイ,0
1233,4040003024773,新規,0,2024-04-15,2024-04-15,合同会社ＯＡＣＩＳ,,合同会社,千葉県,船橋市,田喜野井４丁目２９番１０棟３０２号,,12,204,2740073,,,,,,,2024-04-15,1,,,,,オアシス,0
1238,4050001054631,新規,0,2024-04-15,2024-04-15,ＵＲ　ＨＡＮ　ＭＯＴＯＲＳ株式会社,,株式会社,茨城県,常総市,内守谷町きぬの里２丁目１４番２３号,,08,211,3030046,,,,,,,2024-04-15,1,,,,,ウルハンモータース,0
1240,4060003005037,新規,0,2024-04-15,2024-04-15,合同会社ＧＩＲＯ,,合同会社,栃木県,宇都宮市,西川田本町１丁目１２番３５号,,09,201,3210158,,,,,,,2024-04-15,1,,,,,ギロ,0
1249,4080403004990,新規,0,2024-04-15,2024-04-15,合同会社ビジョンブレイズ,,合同会社,静岡県,浜松市中央区,小沢渡町２９２番地の１グラース１０１号室,,22,138,4328063,,,,,,,2024-04-15,1,,,,,ビジョンブレイズ,0
1253,4100001037317,新規,0,2024-04-15,2024-04-15,株式会社大星の里,,株式会社,長野県,北佐久郡御代田町,大字面替５３８番地,,20,323,3890205,,,,,,,2024-04-15,1,,,,,オオボシノサト,0
1282,4120001264033,新規,0,2024-04-15,2024-04-15,株式会社ＷＥＳＴ,,株式会社,大阪府,大阪市生野区,巽東２丁目１０番２号,00134413,27,116,5440014,,,,,,,2024-04-15,1,,,,,ウエスト,0
1283,4120001264041,新規,0,2024-04-15,2024-04-15,株式会社ＴＵＯＵＫ,,株式会社,大阪府,大阪市淀川区,塚本４丁目４番７－３０１号,,27,123,5320026,,,,,,,2024-04-15,1,,,,,トゥーク,0
1284,4120001264132,新規,0,2024-04-15,2024-04-15,株式会社ＧＥＮＥ　ＭＯＴＩＶＡＴＩＯＮ,,株式会社,大阪府,大阪市中央区,平野町４丁目６番１１号２階,,27,128,5410046,,,,,,,2024-04-15,1,,,,,ジーンモチベーション,0
1293,4120101069415,新規,0,2024-04-15,2024-04-15,株式会社イエローワン,,株式会社,大阪府,堺市中区,深井東町２５４９－１－２Ｆ,,27,142,5998235,,,,,,,2024-04-15,1,,,,,イエローワン,0
1296,4120901049038,新規,0,2024-04-15,2024-04-15,ＴＢＡＳＥ株式会社,,株式会社,大阪府,高槻市,栄町２丁目２０番１号,,27,207,5690825,,,,,,,2024-04-15,1,,,,,ティーベース,0
1297,4120903005121,新規,0,2024-04-15,2024-04-15,合同会社はなおとわ,,合同会社,大阪府,豊中市,新千里南町２丁目２番４５号,,27,203,5600084,,,,,,,2024-04-15,1,,,,,ハナオトワ,0
1298,4130001076808,新規,0,2024-04-15,2024-04-15,逸清株式会社,,株式会社,京都府,京都市中京区,西ノ京船塚町１６－４－２０１,,26,104,6048426,,,,,,,2024-04-15,1,,,,,イツセイ,0
1311,4140001134052,新規,0,2024-04-15,2024-04-15,ＳＰＩＣＥ‐ＯＮ株式会社,,株式会社,兵庫県,伊丹市,西台３丁目９番２２号西台駅前ビル２０８－１,,28,207,6640858,,,,,,,2024-04-15,1,,,,,スパイスオン,0
1312,4140001134060,新規,0,2024-04-15,2024-04-15,株式会社ピッチクラス,,株式会社,兵庫県,西宮市,鳴尾町２丁目２６番３号ジョイフル鳴尾１０４号室,,28,204,6638184,,,,,,,2024-04-15,1,,,,,ピッチクラス,0
1313,4140001134110,新規,0,2024-04-15,2024-04-15,株式会社Ｖｉｖｉｄ,,株式会社,兵庫県,美方郡香美町,小代区新屋１４３２番地の１０,,28,585,6671532,,,,,,,2024-04-15,1,,,,,ビビッド,0
1318,4150001027230,新規,0,2024-04-15,2024-04-15,ユーグリット株式会社,,株式会社,奈良県,橿原市,八木町３丁目２番２７号アプリーレ畝傍１１１号室,,29,205,6340078,,,,,,,2024-04-15,1,,,,,ユーグリット,0
1319,4160001025844,新規,0,2024-04-15,2024-04-15,株式会社ＨｏＭａ,,株式会社,滋賀県,草津市,笠山４丁目１２番４３－３０１号,,25,206,5250072,,,,,,,2024-04-15,1,,,,,ホーマ,0
1343,4230001020292,新規,0,2024-04-15,2024-04-15,イーストプリンシパル自動車株式会社,,株式会社,富山県,富山市,町村３６番地２,,16,201,9300952,,,,,,,2024-04-15,1,,,,,イーストプリンシパルジドウシャ,0
1349,4250001020605,新規,0,2024-04-15,2024-04-15,株式会社光ファクトリー,,株式会社,山口県,柳井市,柳井４７７１番地１６,,35,212,7420021,,,,,,,2024-04-15,1,,,,,ヒカルファクトリー,0
1354,4250005008910,新規,0,2024-04-15,2024-04-15,一般社団法人下関市セーリング連盟,,その他の設立登記法人,山口県,下関市,吉見古宿町３番２４号,,35,201,7596521,,,,,,,2024-04-15,1,,,,,シモノセキシセーリングレンメイ,0
1356,4280001009158,新規,0,2024-04-15,2024-04-15,株式会社唐鐘タクシー,,株式会社,島根県,浜田市,国分町１９８１番地７２,,32,202,6970003,,,,,,,2024-04-15,1,,,,,トウガネタクシー,0
1359,4290001105294,新規,0,2024-04-15,2024-04-15,株式会社マルヨシグループ,,株式会社,福岡県,福岡市博多区,半道橋１丁目６番１５号,,40,132,8120897,,,,,,,2024-04-15,1,,,,,マルヨシグループ,0
1363,4290005019350,新規,0,2024-04-15,2024-04-15,一般社団法人九州豊の会,,その他の設立登記法人,福岡県,福岡市博多区,博多駅前３丁目２２番６号,,40,132,8120011,,,,,,,2024-04-15,1,,,,,キュウシュウユタカノカイ,0
1364,4290005019367,新規,0,2024-04-15,2024-04-15,医療法人Ｏｌｉｖｅ,,その他の設立登記法人,福岡県,福岡市中央区,那の川２丁目９番３２号,,40,133,8100015,,,,,,,2024-04-15,1,,,,,オリーブ,0
1366,4290801030493,新規,0,2024-04-15,2024-04-15,株式会社マルハチ企画,,株式会社,福岡県,鞍手郡小竹町,大字新多１５１９番地１,,40,401,8201104,,,,,,,2024-04-15,1,,,,,マルハチキカク,0
1369,4300001013693,新規,0,2024-04-15,2024-04-15,株式会社九州ドローンテック,,株式会社,佐賀県,佐賀市,愛敬町１２番１５号,,41,201,8400812,,,,,,,2024-04-15,1,,,,,キュウシュウドローンテック,0
1370,4310001018956,新規,0,2024-04-15,2024-04-15,株式会社アグレスト,,株式会社,長崎県,長崎市,草住町５番地佐藤ビル２階,,42,201,8500981,,,,,,,2024-04-15,1,,,,,アグレスト,0
1374,4360001033513,新規,0,2024-04-15,2024-04-15,株式会社樽,,株式会社,沖縄県,浦添市,西洲２丁目４番地６,,47,208,9012123,,,,,,,2024-04-15,1,,,,,タル,0
1376,4360003013892,新規,0,2024-04-15,2024-04-15,合同会社ＺＯＭＴＥＣＨ,,合同会社,沖縄県,沖縄市,美原１丁目１１－５具志堅機工ビル１Ｆ,,47,211,9042155,,,,,,,2024-04-15,1,,,,,,0
1377,4360003013901,新規,0,2024-04-15,2024-04-15,ＴＫＡ合同会社,,合同会社,沖縄県,豊見城市,字高安５４９番地１３嶺マンション２０１,,47,212,9010242,,,,,,,2024-04-15,1,,,,,ティーケイエイ,0
1383,4390003002232,新規,0,2024-04-15,2024-04-15,鴻運浄水合同会社,,合同会社,山形県,鶴岡市,稲生１丁目２０番３９号,,06,203,9970834,,,,,,,2024-04-15,1,,,,,コウウンジョウスイ,0
1390,4430001091545,新規,0,2024-04-15,2024-04-15,愛進建設株式会社,,株式会社,北海道,札幌市白石区,北郷八条８丁目１０番６号,,01,104,0030838,,,,,,,2024-04-15,1,,,,,アイシンケンセツ,0
1391,4430001091553,新規,0,2024-04-15,2024-04-15,高建クレーン株式会社,,株式会社,北海道,石狩市,花川北三条５丁目１６６番地,,01,235,0613213,,,,,,,2024-04-15,1,,,,,コウケンクレーン,0
1392,4430001091561,新規,0,2024-04-15,2024-04-15,株式会社スマック北海道,,株式会社,北海道,札幌市東区,北八条東３丁目１番１号,,01,103,0600908,,,,,,,2024-04-15,1,,,,,スマックホッカイドウ,0
1393,4430001091578,新規,0,2024-04-15,2024-04-15,Ｆａｒｍ．Ｄ株式会社,,株式会社,北海道,札幌市南区,豊滝１３０番地,,01,106,0612273,,,,,,,2024-04-15,1,,,,,ファームディー,0
1396,4430003016194,新規,0,2024-04-15,2024-04-15,合同会社ＳＯＫＡＧＥ,,合同会社,北海道,札幌市清田区,平岡一条１丁目５－１,,01,110,0040871,,,,,,,2024-04-15,1,,,,,ソカゲ,0
1397,4430003016211,新規,0,2024-04-15,2024-04-15,合同会社ＶＥＲＴＥＸ,,合同会社,北海道,岩内郡岩内町,字万代４５番地１０,,01,402,0450003,,,,,,,2024-04-15,1,,,,,ヴェルテクス,0
1400,4450003002465,新規,0,2024-04-15,2024-04-15,合同会社Ｅ．Ｆ．Ｋ．,,合同会社,北海道,旭川市,大町一条３丁目９番地の５０スカイハイツ大町Ａ１０１号室,,01,204,0700841,,,,,,,2024-04-15,1,,,,,イーエフケイ,0
1427,5010001243617,新規,0,2024-04-15,2024-04-15,株式会社Ｇｏｏｄ　Ｓｉｄｅ　Ｓｔｏｒｙｓ,,株式会社,東京都,中央区,勝どき２丁目３－１０ＣａｎａｌＫａｃｈｉｄｏｋｉ１０１,,13,102,1040054,,,,,,,2024-04-15,1,,,,,グッドサイドストーリーズ,0
1428,5010001243906,新規,0,2024-04-15,2024-04-15,ｈａｎａｍｏｒｉ株式会社,,株式会社,東京都,中央区,銀座１丁目１２－４Ｎ＆ＥＢＬＤ．７階,,13,102,1040061,,,,,,,2024-04-15,1,,,,,ハナモリ,0
1429,5010001243955,新規,0,2024-04-15,2024-04-15,Ｐｌｕｓｋｅｙ株式会社,,株式会社,東京都,中央区,銀座１丁目１２－４Ｎ＆Ｅ、ＢＬＤ．７階,,13,102,1040061,,,,,,,2024-04-15,1,,,,,プラスケイ,0
1430,5010001244004,新規,0,2024-04-15,2024-04-15,株式会社ＮｅｏＢｙｔｅ,,株式会社,東京都,中央区,銀座１丁目２２番１１号銀座大竹ビジデンス,,13,102,1040061,,,,,,,2024-04-15,1,,,,,ネオバイト,0
1431,5010001244029,新規,0,2024-04-15,2024-04-15,グランプリ株式会社,,株式会社,東京都,中央区,明石町７番２０－１００３号,,13,102,1040044,,,,,,,2024-04-15,1,,,,,グランプリ,0
1432,5010001244111,新規,0,2024-04-15,2024-04-15,株式会社Ａｒｔｉｓａｎｓ,,株式会社,東京都,中央区,銀座１丁目１２番４号Ｎ＆ＥＢＬＤ．６Ｆ,,13,102,1040061,,,,,,,2024-04-15,1,,,,,アーティザンズ,0
1434,5010003043395,新規,0,2024-04-15,2024-04-15,合同会社ＧｌｏｂａｌＳｙｍｐｈｏｎｙ,,合同会社,東京都,中央区,日本橋兜町１７番１号日本橋ロイヤルプラザ７０６,,13,102,1030026,,,,,,,2024-04-15,1,,,,,グローバルシンフォニー,0
1435,5010003043445,新規,0,2024-04-15,2024-04-15,合同会社ダブルキャスト,,合同会社,東京都,中央区,日本橋室町１丁目１１番１２号日本橋水野ビル７階,,13,102,1030022,,,,,,,2024-04-15,1,,,,,ダブルキャスト,0
1446,5010401181598,新規,0,2024-04-15,2024-04-15,株式会社パーソナル簿記,,株式会社,東京都,港区,赤坂４丁目８番１９号,,13,103,1070052,,,,,,,2024-04-15,1,,,,,パーソナルボキ,0
1449,5010501052096,新規,0,2024-04-15,2024-04-15,イデアルライフ株式会社,,株式会社,東京都,台東区,台東４丁目３１番１号ＡＬビル１０２号室,,13,106,1100016,,,,,,,2024-04-15,1,,,,,イデアルライフ,0
1450,5010601065023,新規,0,2024-04-15,2024-04-15,株式会社立橋,,株式会社,東京都,江東区,豊洲１丁目３番１８－９０６号,,13,108,1350061,,,,,,,2024-04-15,1,,,,,リッキョウ,0
1460,5010803004910,新規,0,2024-04-15,2024-04-15,インタスリー合同会社,,合同会社,東京都,大田区,西馬込２丁目１－１８サンライズ西馬込１１１,,13,111,1430026,,,,,,,2024-04-15,1,,,,,インタスリー,0
1461,5010901055062,新規,0,2024-04-15,2024-04-15,株式会社Ｒａｖａｒｔ　Ｆｌａｒｅ,,株式会社,東京都,世田谷区,駒沢２丁目３４番１０号グレイシャスＫ駒沢３０３,,13,112,1540012,,,,,,,2024-04-15,1,,,,,ラバートフレア,0
1464,5011001161395,新規,0,2024-04-15,2024-04-15,株式会社Ｇｏｔｈｉｃ　ａｎｄ　Ｌｏｌｉｔａ　Ｍａｒｋｅｔ,,株式会社,東京都,目黒区,五本木１丁目８番１６号,,13,110,1530053,,,,,,,2024-04-15,1,,,,,ゴシックアンドロリータマーケット,0
1470,5011101106853,新規,0,2024-04-15,2024-04-15,株式会社紳士優先,,株式会社,東京都,新宿区,新宿１丁目３６－２新宿第七葉山ビル３Ｆ,,13,104,1600022,,,,,,,2024-04-15,1,,,,,シンシユウセン,0
1478,5011203004360,新規,0,2024-04-15,2024-04-15,合同会社ファースト,,合同会社,東京都,中野区,沼袋３丁目５－１０グレースペースＡ棟２０３,,13,114,1650025,,,,,,,2024-04-15,1,,,,,ファースト,0
1479,5011403004342,新規,0,2024-04-15,2024-04-15,弐月之旅合同会社,,合同会社,東京都,板橋区,前野町１丁目１番２－２０２号,,13,119,1740063,,,,,,,2024-04-15,1,,,,,ニガツノタビ,0
1488,5011801044056,新規,0,2024-04-15,2024-04-15,株式会社寿興業,,株式会社,東京都,足立区,綾瀬２丁目３３番１－１２０１号,,13,121,1200005,,,,,,,2024-04-15,1,,,,,コトブキコウギョウ,0
1489,5011801044064,新規,0,2024-04-15,2024-04-15,株式会社Ｒｉｓｕｓ,,株式会社,東京都,足立区,西新井７丁目１８番２号,,13,121,1230841,,,,,,,2024-04-15,1,,,,,リーゾス,0
1496,5013103001330,新規,0,2024-04-15,2024-04-15,合同会社パートナー梅村,,合同会社,東京都,福生市,本町９６番地２セレクト福生３０３号室,,13,218,1970022,,,,,,,2024-04-15,1,,,,,パートナーウメムラ,0
1506,5013301052332,新規,0,2024-04-15,2024-04-15,株式会社ＳＵＮＮＹ　ＧＬＯＲＹ,,株式会社,東京都,豊島区,池袋２丁目３２番６号東興マンション２０１号室,,13,116,1710014,,,,,,,2024-04-15,1,,,,,サニーグローリ,0
1517,5020001156677,新規,0,2024-04-15,2024-04-15,株式会社ふたばリビング＆ケア,,株式会社,神奈川県,横浜市中区,翁町２丁目７－１０関内フレックスビル８０７号,,14,104,2310028,,,,,,,2024-04-15,1,,,,,フタバリビングアンドケア,0
1518,5020001156693,新規,0,2024-04-15,2024-04-15,株式会社Ｔｈｒｅｅａｍｓ,,株式会社,神奈川県,川崎市中原区,下小田中３丁目３４－３－３０１,,14,133,2110041,,,,,,,2024-04-15,1,,,,,スリームス,0
1519,5020001156710,新規,0,2024-04-15,2024-04-15,株式会社マイル,,株式会社,神奈川県,横浜市金沢区,六浦３丁目１６番４号,,14,108,2360031,,,,,,,2024-04-15,1,,,,,マイル,0
1521,5020003025938,新規,0,2024-04-15,2024-04-15,合同会社ＪＩＫＥ　ＳＴＵＤＩＯ　ＦＡＲＭ,,合同会社,神奈川県,横浜市青葉区,寺家町４３５番地１,,14,117,2270031,,,,,,,2024-04-15,1,,,,,ジケスタジオファーム,0
1523,5020005016373,新規,0,2024-04-15,2024-04-15,医療法人縁,,その他の設立登記法人,神奈川県,横浜市西区,高島２丁目１０番１３号横浜東口ビル５０８,,14,103,2200011,,,,,,,2024-04-15,1,,,,,エニシ,0
1530,5021001081972,新規,0,2024-04-15,2024-04-15,株式会社Ｋ．ＢＩＫＥＮ,,株式会社,神奈川県,厚木市,下川入５０番地１３,,14,212,2430206,,,,,,,2024-04-15,1,,,,,ケービケン,0
1534,5021003014369,新規,0,2024-04-15,2024-04-15,合同会社瑞雪,,合同会社,神奈川県,小田原市,南町３丁目１３―２１,,14,206,2500013,,,,,,,2024-04-15,1,,,,,ズイセツ,0
1542,5030001159745,新規,0,2024-04-15,2024-04-15,株式会社Ｆｉｖｅ　Ｓｔａｒ　Ｐａｒｔｎｅｒｓ,,株式会社,埼玉県,さいたま市緑区,大字大門１６１４－１２,,11,109,3360963,,,,,,,2024-04-15,1,,,,,ファイブスターパートナーズ,0
1543,5030001159811,新規,0,2024-04-15,2024-04-15,株式会社澤田工務店,,株式会社,埼玉県,深谷市,上柴町西３丁目２番地３,,11,218,3660052,,,,,,,2024-04-15,1,,,,,サワダコウムテン,0
1544,5030001159844,新規,0,2024-04-15,2024-04-15,正合国際物流株式会社,,株式会社,埼玉県,草加市,瀬崎６丁目９番３８号,,11,221,3400022,,,,,,,2024-04-15,1,,,,,セイゴウコクサイ,0
1552,5030003024071,新規,0,2024-04-15,2024-04-15,合同会社ＦＯＲＥＳＴ,,合同会社,埼玉県,戸田市,大字新曽７５５－１,,11,224,3350021,,,,,,,2024-04-15,1,,,,,フォレスト,0
1553,5030003024088,新規,0,2024-04-15,2024-04-15,Ｓｅｖｅｎｔｈ‐Ｈｅａｖｅｎ合同会社,,合同会社,埼玉県,川口市,青木３丁目６番１２号,,11,203,3320031,,,,,,,2024-04-15,1,,,,,セブンスヘブン,0
1554,5030005021637,新規,0,2024-04-15,2024-04-15,医療法人和恒会,,その他の設立登記法人,埼玉県,さいたま市岩槻区,本町１丁目３番１１号原田ビル１階,,11,110,3390057,,,,,,,2024-04-15,1,,,,,ワコウカイ,0
1555,5030005021653,新規,0,2024-04-15,2024-04-15,一般社団法人新みらい建設機構,,その他の設立登記法人,埼玉県,さいたま市見沼区,大和田町１丁目１３４９番地８,,11,104,3370053,,,,,,,2024-04-15,1,,,,,シンミライケンセツキコウ,0
1569,5040001133113,新規,0,2024-04-15,2024-04-15,株式会社日本プライマリ・ケア研究所,,株式会社,千葉県,館山市,高井１５２６番地の７,,12,205,2940041,,,,,,,2024-04-15,1,,,,,ニホンプライマリケアケンキュウジョ,0
1570,5040001133146,新規,0,2024-04-15,2024-04-15,ダイヤエンジニアリング株式会社,,株式会社,千葉県,市原市,五井西４丁目２番地１テンナインハイム１０３,,12,219,2900038,,,,,,,2024-04-15,1,,,,,ダイヤエンジニアリング,0
1571,5040001133162,新規,0,2024-04-15,2024-04-15,ハートリスクマネージメント株式会社,,株式会社,千葉県,市原市,五井中央西２丁目２４番地４・４０８号室,,12,219,2900081,,,,,,,2024-04-15,1,,,,,ハートリスクマネージメント,0
1580,5040003024715,新規,0,2024-04-15,2024-04-15,広美合同会社,,合同会社,千葉県,船橋市,丸山５丁目３０番１号ＯＴＴビル３Ｆ,,12,204,2730048,,,,,,,2024-04-15,1,,,,,ヒロミ,0
1581,5040003024780,新規,0,2024-04-15,2024-04-15,合同会社ＶＶＶ,,合同会社,千葉県,柏市,富里２丁目１番４９号ジュネパレス柏第６－１０３号,,12,217,2770081,,,,,,,2024-04-15,1,,,,,ブイブイブイ,0
1587,5060001036999,新規,0,2024-04-15,2024-04-15,ゴエモン株式会社,,株式会社,栃木県,さくら市,馬場１３２６番地１,,09,214,3291321,,,,,,,2024-04-15,1,,,,,ゴエモン,0
1596,5080101024679,新規,0,2024-04-15,2024-04-15,株式会社エフ・エッチ・エル,,株式会社,静岡県,三島市,南二日町１番２号エンブルスクエア三島３０５,,22,206,4110832,,,,,,,2024-04-15,1,,,,,エフエッチエル,0
1597,5080401027126,新規,0,2024-04-15,2024-04-15,株式会社ジャフー,,株式会社,静岡県,浜松市中央区,飯田町４番地の３,,22,138,4350028,,,,,,,2024-04-15,1,,,,,ジャフー,0
1598,5090001018648,新規,0,2024-04-15,2024-04-15,株式会社ベテル,,株式会社,山梨県,甲府市,里吉４丁目２番１７号ローランド富士２０３号,,19,201,4000822,,,,,,,2024-04-15,1,,,,,ベテル,0
1604,5110001038338,新規,0,2024-04-15,2024-04-15,舟戸土地区画整理株式会社,,株式会社,新潟県,新潟市西区,内野戸中才１５４２番地１０,,15,107,9502142,,,,,,,2024-04-15,1,,,,,フナトトチクカクセイリ,0
1626,5120001263843,新規,0,2024-04-15,2024-04-15,庫恩株式会社,,株式会社,大阪府,大阪市西成区,梅南２丁目２番２６号２０４,,27,122,5570033,,,,,,,2024-04-15,1,,,,,コオン,0
1627,5120001264016,新規,0,2024-04-15,2024-04-15,ゴーバー株式会社,,株式会社,大阪府,大阪市生野区,林寺４丁目１８番１７号,,27,116,5440023,,,,,,,2024-04-15,1,,,,,ゴーバー,0
1633,5120003026265,新規,0,2024-04-15,2024-04-15,合同会社パトリス,,合同会社,大阪府,大阪市中央区,博労町３丁目１番７－７０１号,,27,128,5410059,,,,,,,2024-04-15,1,,,,,パトリス,0
1634,5120003026356,新規,0,2024-04-15,2024-04-15,合同会社智,,合同会社,大阪府,大阪市東住吉区,山坂１丁目５番６号,,27,121,5460035,,,,,,,2024-04-15,1,,,,,サトシ,0
1635,5120003026364,新規,0,2024-04-15,2024-04-15,ＳＧ合同会社,,合同会社,大阪府,大阪市旭区,赤川２丁目４番１４号２Ｆ,,27,117,5350005,,,,,,,2024-04-15,1,,,,,エスジー,0
1637,5120005024283,新規,0,2024-04-15,2024-04-15,一般社団法人扇谷みらい研究所,,その他の設立登記法人,大阪府,大阪市西区,土佐堀１丁目３番７号,,27,106,5500001,,,,,,,2024-04-15,1,,,,,オオギタニミライケンキュウショ,0
1641,5120101069397,新規,0,2024-04-15,2024-04-15,盛源株式会社,,株式会社,大阪府,松原市,岡７丁目２３８番地Ｅ－２０,,27,217,5800014,,,,,,,2024-04-15,1,,,,,セイゲン,0
1642,5120101069422,新規,0,2024-04-15,2024-04-15,株式会社ライズ,,株式会社,大阪府,大阪狭山市,西山台２丁目７番１１号,,27,231,5890022,,,,,,,2024-04-15,1,,,,,ライズ,0
1654,5130003009450,新規,0,2024-04-15,2024-04-15,合同会社エスケイプランニング,,合同会社,京都府,八幡市,八幡舞台３１番地の２・１階,,26,210,6148034,,,,,,,2024-04-15,1,,,,,エスケイプランニング,0
1665,5140001134035,新規,0,2024-04-15,2024-04-15,株式会社金葉,,株式会社,兵庫県,神戸市中央区,山本通３丁目７－１４,,28,110,6500003,,,,,,,2024-04-15,1,,,,,キンバ,0
1674,5140003020431,新規,0,2024-04-15,2024-04-15,合同会社創光エージェンシー,,合同会社,兵庫県,芦屋市,山手町２番３３号Ｂ,,28,206,6590096,,,,,,,2024-04-15,1,,,,,ソウコウエージェンシー,0
1680,5150001027221,新規,0,2024-04-15,2024-04-15,株式会社トミモト,,株式会社,奈良県,奈良市,三松２丁目１３－８－３０９,,29,201,6310074,,,,,,,2024-04-15,1,,,,,トミモト,0
1693,5180001160969,新規,0,2024-04-15,2024-04-15,株式会社三星パッケージ,,株式会社,愛知県,清須市,朝日貝塚２２９番地,,23,233,4520932,,,,,,,2024-04-15,1,,,,,サンセイパッケージ,0
1695,5180003026656,新規,0,2024-04-15,2024-04-15,ＡＡＨＩＬ　ＴＲＡＤＩＮＧ合同会社,,合同会社,愛知県,知多郡東浦町,大字藤江字大坪４８番地の１５,,23,442,4702105,,,,,,,2024-04-15,1,,,,,アーヒルトレーディング,0
1701,5200001042405,新規,0,2024-04-15,2024-04-15,ちいきのあかり株式会社,,株式会社,岐阜県,岐阜市,西荘４丁目１番８号サンロイヤル２０５号,,21,201,5008362,,,,,,,2024-04-15,1,,,,,チイキノアカリ,0
1705,5220001025936,新規,0,2024-04-15,2024-04-15,株式会社金沢メイメイ,,株式会社,石川県,金沢市,片町１丁目１１番１４号夢館ＩＩ７０２,00134412,17,201,9200981,,,,,,,2024-04-15,1,,,,,カナザワメイメイ,0
1706,5220001025944,新規,0,2024-04-15,2024-04-15,株式会社ソルマーレ,,株式会社,石川県,金沢市,旭町３丁目１０番１２号,,17,201,9200941,,,,,,,2024-04-15,1,,,,,ソルマーレ,0
1716,5240005015758,新規,0,2024-04-15,2024-04-15,一般社団法人安芸高田市スポーツ協会,,その他の設立登記法人,広島県,安芸高田市,甲田町高田原１００２番地２,,34,214,7391101,,,,,,,2024-04-15,1,,,,,アキタカタシスポーツキョウカイ,0
1722,5260001038967,新規,0,2024-04-15,2024-04-15,丸全株式会社,,株式会社,岡山県,岡山市北区,下伊福西町７番３２号いわいサンコーポ６２４室,,33,101,7000054,,,,,,,2024-04-15,1,,,,,マルゼン,0
1723,5260001038975,新規,0,2024-04-15,2024-04-15,株式会社ＡＫＩＴＡ,,株式会社,岡山県,赤磐市,桜が丘東６丁目６番地１５７,,33,213,7090721,,,,,,,2024-04-15,1,,,,,アキタ,0
1727,5280001009157,新規,0,2024-04-15,2024-04-15,株式会社Ｓｐｏｒｔｓ　Ｌｉｆｅ　Ｄｅｓｉｇｎ,,株式会社,島根県,出雲市,多久谷町６５３番地,,32,203,6910062,,,,,,,2024-04-15,1,,,,,スポーツライフデザイン,0
1729,5290001105319,新規,0,2024-04-15,2024-04-15,株式会社ＴＨＲＥＥ　ＮＩＮＥ,,株式会社,福岡県,福岡市西区,拾六町５丁目９番１８号,,40,135,8190041,,,,,,,2024-04-15,1,,,,,スリーナイン,0
1730,5290001105327,新規,0,2024-04-15,2024-04-15,株式会社Ｍｏｄｅｎａ,,株式会社,福岡県,福岡市中央区,地行１丁目１４番２０号,,40,133,8100064,,,,,,,2024-04-15,1,,,,,モデナ,0
1731,5290001105351,新規,0,2024-04-15,2024-04-15,株式会社リル,,株式会社,福岡県,福津市,福間駅東１丁目１－１アーサー福間ステーション２０８,,40,224,8113208,,,,,,,2024-04-15,1,,,,,リル,0
1732,5290001105384,新規,0,2024-04-15,2024-04-15,ａｕｒｏ株式会社,,株式会社,福岡県,福岡市中央区,春吉２丁目１１番１号ファロディハルヨシ１Ｆ－Ｄ,,40,133,8100003,,,,,,,2024-04-15,1,,,,,アウロ,0
1733,5290001105517,新規,0,2024-04-15,2024-04-15,日本興和バイオ株式会社,,株式会社,福岡県,福岡市博多区,博多駅南２丁目１４番２８－１１０９号アミティエ博多駅南,,40,132,8120016,,,,,,,2024-04-15,1,,,,,ニホンコウワバイオ,0
1737,5290003015152,新規,0,2024-04-15,2024-04-15,合同会社ブルーサンズ,,合同会社,福岡県,福岡市中央区,薬院２丁目４番５－３０１号,,40,133,8100022,,,,,,,2024-04-15,1,,,,,ブルーサンズ,0
1738,5290003015160,新規,0,2024-04-15,2024-04-15,Ｏｐｅｒａｔｉｏｎ　Ｄｅｓｉｇｎ　Ｐｌｕｓ合同会社,,合同会社,福岡県,福岡市中央区,草香江２丁目１３番２０－３０４号,,40,133,8100045,,,,,,,2024-04-15,1,,,,,オペレーションデザインプラス,0
1741,5290801030492,新規,0,2024-04-15,2024-04-15,株式会社俊建工,,株式会社,福岡県,北九州市八幡西区,上上津役５丁目５番２２号,,40,109,8070072,,,,,,,2024-04-15,1,,,,,トシケンコウ,0
1742,5290801030501,新規,0,2024-04-15,2024-04-15,株式会社昇宝,,株式会社,福岡県,北九州市八幡西区,金剛１丁目７番４５号,,40,109,8071263,,,,,,,2024-04-15,1,,,,,ショウホウ,0
1751,5330001031972,新規,0,2024-04-15,2024-04-15,株式会社Ｃｏａｔｏｌｉｅ,,株式会社,熊本県,熊本市中央区,新大江１丁目１７番１０号,,43,101,8620972,,,,,,,2024-04-15,1,,,,,コアトリエ,0
1758,5350003004611,新規,0,2024-04-15,2024-04-15,ケイ・シー・アール合同会社,,合同会社,宮崎県,児湯郡木城町,大字椎木１３３２番地５,,45,404,8840102,,,,,,,2024-04-15,1,,,,,ケイシーアール,0
1762,5360003013900,新規,0,2024-04-15,2024-04-15,合同会社安山,,合同会社,沖縄県,那覇市,松尾２丁目１２番３０－５０６号丸真産業ビル,,47,201,9000014,,,,,,,2024-04-15,1,,,,,ヤスヤマ,0
1764,5370001051182,新規,0,2024-04-15,2024-04-15,仙栄総合株式会社,,株式会社,宮城県,仙台市青葉区,宮町４丁目５の４５番地山十ビル４０２,,04,101,9800004,,,,,,,2024-04-15,1,,,,,センエイソウゴウ,0
1774,5430001091544,新規,0,2024-04-15,2024-04-15,株式会社成都工業,,株式会社,北海道,札幌市清田区,里塚緑ケ丘７丁目２番３号,,01,110,0040805,,,,,,,2024-04-15,1,,,,,ナルトコウギョウ,0
1775,5430001091552,新規,0,2024-04-15,2024-04-15,株式会社ＮＯＲＤＹ,,株式会社,北海道,札幌市中央区,円山西町３丁目５番２８号,,01,101,0640944,,,,,,,2024-04-15,1,,,,,ノルディー,0
1776,5440001009421,新規,0,2024-04-15,2024-04-15,株式会社ＲＩＦＡ函館,,株式会社,北海道,函館市,元町３０番１号,,01,202,0400054,,,,,,,2024-04-15,1,,,,,リファハコダテ,0
1779,5470001020144,新規,0,2024-04-15,2024-04-15,株式会社コンセント,,株式会社,香川県,高松市,前田東町５６３番地１４,,37,201,7610322,,,,,,,2024-04-15,1,,,,,コンセント,0
1782,5470003002628,新規,0,2024-04-15,2024-04-15,Ｎｅｗ　Ｓｉｎｇａｐｏｒｅ合同会社,,合同会社,香川県,三豊市,豊中町本山乙１１６番地,,37,208,7691505,,,,,,,2024-04-15,1,,,,,ニューシンガポール,0
1789,5700150124663,新規,0,2024-04-15,2024-04-01,ＳＡＣミュージカルカンパニー,,その他,東京都,練馬区,春日町３丁目４－９－３０３　渡部様方,,13,120,1790074,,,,,,,2024-04-01,1,,,,,エスエイシーミユージカルカンパニー,0
1816,6010001243665,新規,0,2024-04-15,2024-04-15,株式会社海外不動産投資,,株式会社,東京都,中央区,銀座１丁目２２番１１号銀座大竹ビジデンス２Ｆ,,13,102,1040061,,,,,,,2024-04-15,1,,,,,カイガイフドウサントウシ,0
1817,6010001244003,新規,0,2024-04-15,2024-04-15,株式会社仙台商事,,株式会社,東京都,千代田区,丸の内３丁目１番１号,,13,101,1000005,,,,,,,2024-04-15,1,,,,,センダイショウジ,0
1840,6010401181829,新規,0,2024-04-15,2024-04-15,株式会社Ｍｅｌａｎｇｅｒ,,株式会社,東京都,港区,北青山１丁目３番１号アールキューブ青山３階,,13,103,1070061,,,,,,,2024-04-15,1,,,,,メランジェ,0
1850,6010701045816,新規,0,2024-04-15,2024-04-15,株式会社ＶＩＵＭ,,株式会社,東京都,品川区,東大井５丁目１４番地１６,,13,109,1400011,,,,,,,2024-04-15,1,,,,,ヴィウム,0
1857,6010801034958,新規,0,2024-04-15,2024-04-15,株式会社Ｔｈｒｅｅ　Ｃｏｍｍａｓ　Ｇｒｏｕｐ,,株式会社,東京都,大田区,上池台５丁目３７－２,,13,111,1450064,,,,,,,2024-04-15,1,,,,,スリーコンマズグループ,0
1871,6011001161023,新規,0,2024-04-15,2024-04-15,東京宅建株式会社,,株式会社,東京都,渋谷区,神宮通一丁目１５番地,,13,113,1500000,,,,,,,2024-04-15,1,,,,,,0
1872,6011001161353,新規,0,2024-04-15,2024-04-15,株式会社Ｐｉｌｉｎａ,,株式会社,東京都,渋谷区,渋谷２丁目１９―１５宮益坂ビルディング６０９,,13,113,1500002,,,,,,,2024-04-15,1,,,,,ピリナ,0
1878,6011101106968,新規,0,2024-04-15,2024-04-15,株式会社あいむすび,,株式会社,東京都,新宿区,高田馬場２丁目２番６号,,13,104,1690075,,,,,,,2024-04-15,1,,,,,アイムスビ,0
1889,6012403006518,新規,0,2024-04-15,2024-04-15,合同会社ｐｉｎｅ,,合同会社,東京都,武蔵野市,吉祥寺北町３丁目６番２５号,,13,203,1800001,,,,,,,2024-04-15,1,,,,,パイン,0
1900,6020001156676,新規,0,2024-04-15,2024-04-15,カイセイサービス株式会社,,株式会社,神奈川県,横浜市緑区,寺山町９１７番地４６,,14,113,2260013,,,,,,,2024-04-15,1,,,,,カイセイサービス,0
1901,6020001156726,新規,0,2024-04-15,2024-04-15,株式会社水と古民家,,株式会社,神奈川県,横浜市西区,北幸２丁目１０番４８号むつみビル３階,,14,103,2200004,,,,,,,2024-04-15,1,,,,,ミズトコミンカ,0
1902,6020001156759,新規,0,2024-04-15,2024-04-15,株式会社とねりこ,,株式会社,神奈川県,横浜市中区,海岸通５丁目２５番地２シャレール海岸通４０２号室,,14,104,2310002,,,,,,,2024-04-15,1,,,,,トネリコ,0
1905,6020003025937,新規,0,2024-04-15,2024-04-15,合同会社アルファホーム,,合同会社,神奈川県,横浜市西区,浅間町１丁目４番３号ウィザードビル４０２,,14,103,2200072,,,,,,,2024-04-15,1,,,,,アルファホーム,0
1910,6021001081947,新規,0,2024-04-15,2024-04-15,株式会社エコナカノ,,株式会社,神奈川県,相模原市南区,相武台団地１丁目６番１２－２１号,,14,153,2520323,,,,,,,2024-04-15,1,,,,,エコナカノ,0
1914,6021003014368,新規,0,2024-04-15,2024-04-15,合同会社ＴＭグループ,,合同会社,神奈川県,秦野市,北矢名１３０１番地の２ラマージュ１０１号,,14,211,2570006,,,,,,,2024-04-15,1,,,,,テイエムグループ,0
1924,6030003024087,新規,0,2024-04-15,2024-04-15,空と緑合同会社,,合同会社,埼玉県,熊谷市,新堀３４６番地３,,11,202,3600841,,,,,,,2024-04-15,1,,,,,ソラトミドリ,0
1925,6030005021660,新規,0,2024-04-15,2024-04-15,一般社団法人人生塾・笑亭,,その他の設立登記法人,埼玉県,深谷市,上野台１９９１番地４,,11,218,3660801,,,,,,,2024-04-15,1,,,,,ジンセイジュクショウテイ,0
1937,6040001133079,新規,0,2024-04-15,2024-04-15,ＬＨＣ株式会社,,株式会社,千葉県,佐倉市,宮前３丁目２２番地４ＧＡＲＤＥＮＥＬＥＧＡＮＴ３１９号室,,12,212,2850005,,,,,,,2024-04-15,1,,,,,エルエイチシー,0
1938,6040001133129,新規,0,2024-04-15,2024-04-15,ビックスクラム株式会社,,株式会社,千葉県,千葉市美浜区,打瀬１丁目２番地３Ｃ－４０４,,12,106,2610013,,,,,,,2024-04-15,1,,,,,ビックスクラム,0
1946,6040003024697,新規,0,2024-04-15,2024-04-15,ｔｅａｍ　ｅｎ合同会社,,合同会社,千葉県,夷隅郡大多喜町,部田２０２－２フォレストハイムＢ号室,,12,441,2980226,,,,,,,2024-04-15,1,,,,,チームエン,0
1947,6040003024755,新規,0,2024-04-15,2024-04-15,ＡＫＩＴＡ　ＭＯＴＯＲＳ合同会社,,合同会社,千葉県,山武市,津辺４６５番地１２、２階２０３号室,,12,237,2891345,,,,,,,2024-04-15,1,,,,,アキタモータース,0
1948,6040003024771,新規,0,2024-04-15,2024-04-15,合同会社ＳＩＲＩＵＳ,,合同会社,千葉県,千葉市花見川区,幕張町５丁目２４２番地６グレーシャルマン２０３号,,12,102,2620032,,,,,,,2024-04-15,1,,,,,シリウス,0
1949,6040003024796,新規,0,2024-04-15,2024-04-15,合同会社トレヴ,,合同会社,千葉県,船橋市,浜町２丁目２番１－１００７号,,12,204,2730012,,,,,,,2024-04-15,1,,,,,トレヴ,0
1952,6040005022352,新規,0,2024-04-15,2024-04-15,医療法人社団西尾会,,その他の設立登記法人,千葉県,千葉市中央区,鵜の森町三番１号うのもりモール２階クリニック区画,,12,101,2600816,,,,,,,2024-04-15,1,,,,,シャダンニシオカイ,0
1956,6050003008286,新規,0,2024-04-15,2024-04-15,合同会社Ｇｌｏｒｉｏｕｓ,,合同会社,茨城県,筑西市,下高田４９８番地,,08,227,3080011,,,,,,,2024-04-15,1,,,,,グロリアス,0
1960,6060001036998,新規,0,2024-04-15,2024-04-15,株式会社ＦＩＦＴＹ　ＢＡＳＥ,,株式会社,栃木県,鹿沼市,貝島町５３５番地５,,09,205,3220027,,,,,,,2024-04-15,1,,,,,フィフティベイス,0
1961,6070003005364,新規,0,2024-04-15,2024-04-15,橘屋合同会社,,合同会社,群馬県,前橋市,南町３丁目３８番地３前橋ユーアイビル５０７号,,10,201,3710805,,,,,,,2024-04-15,1,,,,,タチバナヤ,0
1964,6080103003036,新規,0,2024-04-15,2024-04-15,合同会社かの整体院,,合同会社,静岡県,田方郡函南町,仁田８２番地の１エクセラン梅原ＩＩＩ１０３,00134411,22,325,4190114,,,,,,,2024-04-15,1,,,,,カノセイタイイン,0
1966,6080401027117,新規,0,2024-04-15,2024-04-15,ＮＳ　ＴＲＡＤＩＮＧ株式会社,,株式会社,静岡県,袋井市,浅羽２９１０番地の１サンライズ１０５,,22,216,4371101,,,,,,,2024-04-15,1,,,,,エヌエストレーディング,0
1967,6080401027125,新規,0,2024-04-15,2024-04-15,株式会社龍音舎,,株式会社,静岡県,袋井市,村松７４４番地の５,,22,216,4370011,,,,,,,2024-04-15,1,,,,,リュウオンシャ,0
1972,6090001018663,新規,0,2024-04-15,2024-04-15,株式会社山梨けもの研究所,,株式会社,山梨県,大月市,初狩町中初狩２８６１―１,,19,206,4010022,,,,,,,2024-04-15,1,,,,,ヤマナシケモノケンキュウジョ,0
1977,6100001037372,新規,0,2024-04-15,2024-04-15,テンポート株式会社,,株式会社,長野県,長野市,大字南長野妻科２３９番地３,,20,201,3800872,,,,,,,2024-04-15,1,,,,,テンポート,0
1999,6120001264048,新規,0,2024-04-15,2024-04-15,株式会社Ｃｏｒｅ　Ｐｒｏｇｒｅｓｓ,,株式会社,大阪府,大阪市北区,曾根崎１丁目３番６－１８０３号,,27,127,5300057,,,,,,,2024-04-15,1,,,,,コアプログレス,0
2000,6120001264056,新規,0,2024-04-15,2024-04-15,株式会社ル・フェニックス,,株式会社,大阪府,大阪市中央区,玉造２丁目１５番７－１３０４号,,27,128,5400004,,,,,,,2024-04-15,1,,,,,ルフェニックス,0
2007,6120003026363,新規,0,2024-04-15,2024-04-15,合同会社Ｌｅａｄｆｉｖｅ,,合同会社,大阪府,大阪市北区,梅田１丁目１３－１大阪梅田ツインタワーズ・サウス１５Ｆ,,27,127,5300001,,,,,,,2024-04-15,1,,,,,リードファイブ,0
2008,6120005024282,新規,0,2024-04-15,2024-04-15,土地家屋調査士法人Ｋパートナーズ,,その他の設立登記法人,大阪府,大阪市北区,西天満２丁目１０番９号,,27,127,5300047,,,,,,,2024-04-15,1,,,,,ケイパートナーズ,0
2012,6120903005128,新規,0,2024-04-15,2024-04-15,合同会社眞希哉舎,,合同会社,大阪府,高槻市,天神町２丁目４番８号,,27,207,5691117,,,,,,,2024-04-15,1,,,,,マキナリシャ,0
2019,6130001076780,新規,0,2024-04-15,2024-04-15,三京株式会社,,株式会社,京都府,京都市東山区,末吉町９７番地２祇園末吉ビル４階,,26,105,6050085,,,,,,,2024-04-15,1,,,,,サンキョウ,0
2029,6140001134050,新規,0,2024-04-15,2024-04-15,ユニゾンライフ株式会社,,株式会社,兵庫県,神戸市長田区,大谷町３丁目１４番４８号,,28,106,6530838,,,,,,,2024-04-15,1,,,,,ユニゾンライフ,0
2034,6140003020414,新規,0,2024-04-15,2024-04-15,合同会社玖家,,合同会社,兵庫県,明石市,松江字東出口５０４番地４、５０４番地３,,28,203,6730036,,,,,,,2024-04-15,1,,,,,ヒサヤ,0
2035,6140003020422,新規,0,2024-04-15,2024-04-15,合同会社たつの電報センタ,,合同会社,兵庫県,揖保郡太子町,鵤５３６,,28,464,6711561,,,,,,,2024-04-15,1,,,,,タツノデンポウセンタ,0
2043,6170001018093,新規,0,2024-04-15,2024-04-15,株式会社ＧＭファシリティーズ,,株式会社,和歌山県,和歌山市,粟３６４番地１５,,30,201,6408462,,,,,,,2024-04-15,1,,,,,ジーエムファシリティーズ,0
2056,6180301038542,新規,0,2024-04-15,2024-04-15,株式会社ＡＬＴＯ,,株式会社,愛知県,蒲郡市,三谷町築地１８番地１１,,23,214,4430021,,,,,,,2024-04-15,1,,,,,アルト,0
2062,6210001019723,新規,0,2024-04-15,2024-04-15,株式会社ＧＲＯＷ　ＣＬＥＡＲＬＹ,,株式会社,福井県,鯖江市,下野田町第３１号７番地,,18,207,9160073,,,,,,,2024-04-15,1,,,,,グロークリアリー,0
2064,6210003001778,新規,0,2024-04-15,2024-04-15,合同会社武田会計,,合同会社,福井県,福井市,文京３丁目１番１号,,18,201,9100017,,,,,,,2024-04-15,1,,,,,タケダカイケイ,0
2069,6220005008829,新規,0,2024-04-15,2024-04-15,特定非営利活動法人みんなで子育てこもれびひろば,,その他の設立登記法人,石川県,金沢市,堀川新町５番１号アリマビル３Ｆ,,17,201,9200849,,,,,,,2024-04-15,1,,,,,ミンナデコソダテコモレビヒロバ,0
2074,6240001063082,新規,0,2024-04-15,2024-04-15,株式会社Ｇ・ＭＡＸ,,株式会社,広島県,広島市安芸区,阿戸町２６５１番地１,,34,107,7314231,,,,,,,2024-04-15,1,,,,,ジーマックス,0
2075,6240001063090,新規,0,2024-04-15,2024-04-15,株式会社亀鶴,,株式会社,広島県,広島市西区,井口２丁目６番１７－３０４号,,34,104,7330842,,,,,,,2024-04-15,1,,,,,キカク,0
2081,6260001038974,新規,0,2024-04-15,2024-04-15,株式会社身体障がい者ケア恵生会,,株式会社,岡山県,岡山市北区,中仙道１丁目１番４３号,,33,101,7000964,,,,,,,2024-04-15,1,,,,,シンタイショウガイシャケアケイセイカイ,0
2092,6290001105342,新規,0,2024-04-15,2024-04-15,株式会社アクトフィット,,株式会社,福岡県,福岡市中央区,薬院４丁目３番７号,,40,133,8100022,,,,,,,2024-04-15,1,,,,,アクトフィット,0
2093,6290001105466,新規,0,2024-04-15,2024-04-15,Ｌｉｎｘ株式会社,,株式会社,福岡県,福岡市博多区,博多駅前４丁目１８番２５号,,40,132,8120011,,,,,,,2024-04-15,1,,,,,,0
2094,6290003015168,新規,0,2024-04-15,2024-04-15,合同会社ムサシ,,合同会社,福岡県,那珂川市,片縄北２丁目３番１７号（ベローナＢ２０１号）,,40,231,8111203,,,,,,,2024-04-15,1,,,,,ムサシ,0
2097,6300001013691,新規,0,2024-04-15,2024-04-15,株式会社ソライフ,,株式会社,佐賀県,佐賀市,巨勢町高尾２２９－３０,,41,201,8490000,,,,,,,2024-04-15,1,,,,,ソライフ,0
2102,6330001031947,新規,0,2024-04-15,2024-04-15,株式会社ＡＵＳ　Ｆａｒｍ,,株式会社,熊本県,阿蘇郡産山村,大字片俣７７２番地,,43,425,8692701,,,,,,,2024-04-15,1,,,,,オースファーム,0
2117,6350001018918,新規,0,2024-04-15,2024-04-15,裕林実業株式会社,,株式会社,宮崎県,串間市,大字西方５８９６番地２,,45,207,8880001,,,,,,,2024-04-15,1,,,,,ユウリンジツギョウ,0
2120,6350003004619,新規,0,2024-04-15,2024-04-15,合同会社ＬＡＹＬＡ,,合同会社,宮崎県,宮崎市,高松町３番２７号,,45,201,8800003,,,,,,,2024-04-15,1,,,,,レイラ,0
2134,6430001091535,新規,0,2024-04-15,2024-04-15,ＥｄｕｃａｔｉｏｎＦｏｒｗａｒｄ２４株式会社,,株式会社,北海道,札幌市東区,北八条東４丁目１－２０,,01,103,0600908,,,,,,,2024-04-15,1,,,,,エデュケーションフォワードニジュウヨン,0
2140,6430003016201,新規,0,2024-04-15,2024-04-15,合同会社ＣＲＯＷＮ,,合同会社,北海道,札幌市中央区,大通西１５丁目３－５－１００７,,01,101,0600042,,,,,,,2024-04-15,1,,,,,クラウン,0
2141,6430003016226,新規,0,2024-04-15,2024-04-15,合同会社梢,,合同会社,北海道,札幌市東区,東苗穂十五条３丁目１０番５号,,01,103,0070815,,,,,,,2024-04-15,1,,,,,コズエ,0
2144,6470001020143,新規,0,2024-04-15,2024-04-15,エーゼット株式会社,,株式会社,香川県,高松市,岡本町９７番地,,37,201,7618047,,,,,,,2024-04-15,1,,,,,,0
2148,6500001025568,新規,0,2024-04-15,2024-04-15,株式会社Ｔａｙｌｏｒ＆Ｃｏ．,,株式会社,愛媛県,松山市,土居田町５０２番地４,,38,201,7900056,,,,,,,2024-04-15,1,,,,,テイラーアンドカンパニー,0
2167,7010001243895,新規,0,2024-04-15,2024-04-15,清水商貿株式会社,,株式会社,東京都,文京区,本郷２丁目３２－１,,13,105,1130033,,,,,,,2024-04-15,1,,,,,シミズショウボウ,0
2168,7010001243904,新規,0,2024-04-15,2024-04-15,羽紹程株式会社,,株式会社,東京都,千代田区,丸の内３丁目４番１号,,13,101,1000005,,,,,,,2024-04-15,1,,,,,ウショウテイ,0
2169,7010001244002,新規,0,2024-04-15,2024-04-15,株式会社アイファシオ,,株式会社,東京都,千代田区,二番町１２番地１２,,13,101,1020084,,,,,,,2024-04-15,1,,,,,アイファシオ,0
2180,7010003043451,新規,0,2024-04-15,2024-04-15,合同会社富士エステート,,合同会社,東京都,千代田区,平河町１丁目６番４号Ｈ＿Ｏ平河町８０３号室,00134410,13,101,1020093,,,,,,,2024-04-15,1,,,,,フジエステート,0
2181,7010003043468,新規,0,2024-04-15,2024-04-15,合同会社ストライブ,,合同会社,東京都,中央区,月島３丁目２０番８－６０３号,,13,102,1040052,,,,,,,2024-04-15,1,,,,,ストライブ,0
2184,7010005038160,新規,0,2024-04-15,2024-04-15,一般社団法人アールアンドディセキュリティ,,その他の設立登記法人,東京都,千代田区,三番町１番地１７,,13,101,1020075,,,,,,,2024-04-15,1,,,,,アールアンドディセキュリティ,0
2185,7010005038177,新規,0,2024-04-15,2024-04-15,一般社団法人Ｔｏｋｙｏ　Ｄｅｎｔａｌ　ａｎｄ　Ｍｅｄｉｃａｌ　ｃｏｍｍｕｎｉｔｉｅｓ,,その他の設立登記法人,東京都,中央区,日本橋３丁目２番１４号新槇町ビル別館第一２階,,13,102,1030027,,,,,,,2024-04-15,1,,,,,トウキョウデンタルアンドメディカルコミュニティーズ,0
2186,7010005038185,新規,0,2024-04-15,2024-04-15,一般社団法人ＳＨソラシード,,その他の設立登記法人,東京都,中央区,日本橋１丁目４番１号,,13,102,1030027,,,,,,,2024-04-15,1,,,,,エスエイチソラシード,0
2198,7010401181737,新規,0,2024-04-15,2024-04-15,豐盛生活日本株式会社,,株式会社,東京都,港区,南青山３丁目１番３６号青山丸竹ビル６Ｆ,,13,103,1070062,,,,,,,2024-04-15,1,,,,,ホウセイセイカツニホン,0
2199,7010401181745,新規,0,2024-04-15,2024-04-15,株式会社ＭＹラボ,,株式会社,東京都,港区,六本木７丁目７番７号トライセブンロッポンギ８階,,13,103,1060032,,,,,,,2024-04-15,1,,,,,マイラボ,0
2208,7010701045823,新規,0,2024-04-15,2024-04-15,株式会社ＳＥＡ,,株式会社,東京都,品川区,東五反田３丁目２１－６ＡＲＴＥＳＳＩＭＯＰＩＴＯＲＥ３０３,,13,109,1410022,,,,,,,2024-04-15,1,,,,,シー,0
2211,7010901055069,新規,0,2024-04-15,2024-04-15,株式会社ホールハートスタッフ,,株式会社,東京都,世田谷区,太子堂１丁目４番２４号萩藤ビル４階,,13,112,1540004,,,,,,,2024-04-15,1,,,,,ホールハートスタッフ,0
2232,7011101106959,新規,0,2024-04-15,2024-04-15,株式会社フォレスト,,株式会社,東京都,新宿区,百人町１丁目１８番８－５０３号室,,13,104,1690073,,,,,,,2024-04-15,1,,,,,フォレスト,0
2233,7011101106967,新規,0,2024-04-15,2024-04-15,株式会社ＰＭＧホールディングス,,株式会社,東京都,新宿区,西新宿２丁目４番１号新宿ＮＳビル２５Ｆ,,13,104,1600023,,,,,,,2024-04-15,1,,,,,ピーエムジーホールディングス,0
2237,7011203004359,新規,0,2024-04-15,2024-04-15,Ｎｕｕ　Ｃｒｅａｔｏｒ合同会社,,合同会社,東京都,中野区,新井１丁目１６番１４号ＣＩＣＡＤＡＮＡＫＡＮＯ２０３,,13,114,1650026,,,,,,,2024-04-15,1,,,,,ヌウクリエイター,0
2253,7012403006509,新規,0,2024-04-15,2024-04-15,Ｄｉｇｉｔ合同会社,,合同会社,東京都,武蔵野市,吉祥寺南町３丁目１６－１６,,13,203,1800003,,,,,,,2024-04-15,1,,,,,ディジット,0
2261,7020001156683,新規,0,2024-04-15,2024-04-15,株式会社Ｍｉｌｌｅｎｎｉｕｍ,,株式会社,神奈川県,横浜市南区,南吉田町４丁目３７番地,,14,105,2320012,,,,,,,2024-04-15,1,,,,,ミレニアム,0
2262,7020001156758,新規,0,2024-04-15,2024-04-15,株式会社Ｈｅｌｌｏ　Ｊａｐａｎ,,株式会社,神奈川県,川崎市多摩区,枡形３丁目９番７号,,14,135,2140032,,,,,,,2024-04-15,1,,,,,ハロジャパン,0
2268,7020003025936,新規,0,2024-04-15,2024-04-15,合同会社トゥースアップ,,合同会社,神奈川県,横浜市旭区,万騎が原１０８－２,,14,112,2410836,,,,,,,2024-04-15,1,,,,,トゥースアップ,0
2284,7030001159776,新規,0,2024-04-15,2024-04-15,株式会社ＷＩＴＨ,,株式会社,埼玉県,入間郡越生町,大字黒山１４３６番地,,11,327,3500424,,,,,,,2024-04-15,1,,,,,ウィズ,0
2289,7030003024086,新規,0,2024-04-15,2024-04-15,ＪＵＮＯＬＩＡ合同会社,,合同会社,埼玉県,川越市,大字寺山７７番地１,,11,201,3500827,,,,,,,2024-04-15,1,,,,,ジュノリア,0
2298,7040001133078,新規,0,2024-04-15,2024-04-15,友鄰都喜株式会社,,株式会社,千葉県,佐倉市,宮前３丁目２２番地４ＧＡＲＤＥＮＥＬＥＧＡＮＴ１０１号室,,12,212,2850005,,,,,,,2024-04-15,1,,,,,ユウリントキ,0
2299,7040001133136,新規,0,2024-04-15,2024-04-15,株式会社桜木商事,,株式会社,千葉県,千葉市若葉区,桜木３丁目３番８号ミヤ桜木Ａ－１号,,12,104,2640028,,,,,,,2024-04-15,1,,,,,サクラギショウジ,0
2300,7040001133160,新規,0,2024-04-15,2024-04-15,株式会社ポッシブル,,株式会社,千葉県,市川市,北方町４丁目１９４８番地８８,,12,203,2720811,,,,,,,2024-04-15,1,,,,,ポッシブル,0
2301,7040001133177,新規,0,2024-04-15,2024-04-15,株式会社ルクシーノ,,株式会社,千葉県,柏市,篠籠田１３７３番地３４,,12,217,2770862,,,,,,,2024-04-15,1,,,,,ルクシーノ,0
2311,7040003024770,新規,0,2024-04-15,2024-04-15,Ｔ＆Ｈ合同会社,,合同会社,千葉県,船橋市,本町４丁目４－１２グラシア船橋本町１０１,,12,204,2730005,,,,,,,2024-04-15,1,,,,,ティーアンドエッチ,0
2312,7040003024779,新規,0,2024-04-15,2024-04-15,合同会社ＪＨＳ,,合同会社,千葉県,佐倉市,上志津１８２０番地７,,12,212,2850846,,,,,,,2024-04-15,1,,,,,ジェイエイチエス,0
2320,7070001041633,新規,0,2024-04-15,2024-04-15,株式会社Ａｉｌｅ,,株式会社,群馬県,高崎市,萩原町１番地２,,10,202,3700013,,,,,,,2024-04-15,1,,,,,エール,0
2325,7080101024677,新規,0,2024-04-15,2024-04-15,株式会社伊吹,,株式会社,静岡県,沼津市,上香貫獅子路１６８８番地の８,,22,203,4100813,,,,,,,2024-04-15,1,,,,,イブキ,0
2328,7090001018662,新規,0,2024-04-15,2024-04-15,小林電気防災株式会社,,株式会社,山梨県,笛吹市,石和町小石和１３８番地８,,19,211,4060033,,,,,,,2024-04-15,1,,,,,コバヤシデンキボウサイ,0
2331,7090003002549,新規,0,2024-04-15,2024-04-15,合同会社ｅｎ企画,,合同会社,山梨県,山梨市,小原西６６番地８,,19,205,4050006,,,,,,,2024-04-15,1,,,,,,0
2335,7100001037371,新規,0,2024-04-15,2024-04-15,ベル・アルブル株式会社,,株式会社,長野県,駒ヶ根市,赤穂１２６番地２,,20,210,3994117,,,,,,,2024-04-15,1,,,,,ベルアルブル,0
2342,7110005017071,新規,0,2024-04-15,2024-04-15,佐渡国仲商工会,,その他の設立登記法人,新潟県,佐渡市,畑野甲５５９番地７,,15,224,9520206,,,,,,新潟県佐渡市千種５０番地５金井商工会（7110005014011）と新潟県佐渡市新穂瓜生屋９９番地２新穂商工会（8110005014010）と新潟県佐渡市畑野甲５５９番地７畑野商工会（6110005014012）と新潟県佐渡市真野新町１３２番地３１真野商工会（5110005014013）の合併により設立,2024-04-15,1,,,,,サドクニナカ,0
2358,7120001264022,新規,0,2024-04-15,2024-04-15,株式会社彩技建,,株式会社,大阪府,大阪市生野区,中川４丁目１番８号,,27,116,5440005,,,,,,,2024-04-15,1,,,,,サイギケン,0
2359,7120001264047,新規,0,2024-04-15,2024-04-15,三宝企画株式会社,,株式会社,大阪府,大阪市淀川区,東三国３丁目９番２１号ソシエ北大阪１４１３号室,,27,123,5320002,,,,,,,2024-04-15,1,,,,,サンポウキカク,0
2372,7122001038001,新規,0,2024-04-15,2024-04-15,マンスマンシ株式会社,,株式会社,大阪府,東大阪市,森河内西１丁目１番４号ｈａｎａｂｕｉｌｄｉｎｇ１階,,27,227,5770061,,,,,,,2024-04-15,1,,,,,マンスマンシ,0
2391,7140003020421,新規,0,2024-04-15,2024-04-15,エイチツーケーワークス合同会社,,合同会社,兵庫県,西宮市,甲東園１丁目１０－４－３,,28,204,6620812,,,,,,,2024-04-15,1,,,,,エイチツーケーワークス,0
2393,7150003003227,新規,0,2024-04-15,2024-04-15,合同会社ＹＯＲＯＺＵ,,合同会社,奈良県,奈良市,芝辻町４丁目１１番地の４森本マンション４０３号,00134400,29,201,6308114,,,,,,,2024-04-15,1,,,,,ヨロズ,0
2400,7180001160777,新規,0,2024-04-15,2024-04-15,株式会社ＭＧホールディングス,,株式会社,愛知県,春日井市,小野町２丁目１４番地,,23,206,4860926,,,,,,,2024-04-15,1,,,,,エムジーホールディングス,0
2401,7180001161098,新規,0,2024-04-15,2024-04-15,Ｆｉｔ‐Ｌｉｆｅ株式会社,,株式会社,愛知県,名古屋市中川区,太平通１丁目２７番地ベールまつば３０３号,,23,110,4540838,,,,,,,2024-04-15,1,,,,,フィットライフ,0
2402,7180001161123,新規,0,2024-04-15,2024-04-15,ビジネスアップデート株式会社,,株式会社,愛知県,名古屋市中区,栄５丁目８番６号大黒マンション４０１号,,23,106,4600008,,,,,,,2024-04-15,1,,,,,ビジネスアップデート,0
2408,7190001031267,新規,0,2024-04-15,2024-04-15,マツザワマシナリー株式会社,,株式会社,三重県,津市,高茶屋６丁目８番地１９号,,24,201,5140819,,,,,,,2024-04-15,1,,,,,マツザワマシナリー,0
2411,7210001019722,新規,0,2024-04-15,2024-04-15,株式会社人事のミカタ,,株式会社,福井県,福井市,城東４丁目２６番３４号廣田第一ビル２階北,,18,201,9100853,,,,,,,2024-04-15,1,,,,,ジンジノミカタ,0
2412,7210003001777,新規,0,2024-04-15,2024-04-15,ＣＬＡＲＡ‐ＣＯＮＥＣＴ合同会社,,合同会社,福井県,三方上中郡若狭町,三宅第４８号２２番地の１,,18,501,9191536,,,,,,,2024-04-15,1,,,,,クララコネクト,0
2413,7220001025934,新規,0,2024-04-15,2024-04-15,株式会社犀龍,,株式会社,石川県,金沢市,駅西本町２丁目５‐７,,17,201,9200025,,,,,,,2024-04-15,1,,,,,サイセイ,0
2414,7220001025942,新規,0,2024-04-15,2024-04-15,株式会社ＷＩＮＰＡＬＤ,,株式会社,石川県,金沢市,西泉６丁目１９２番地５,,17,201,9218043,,,,,,,2024-04-15,1,,,,,ウインパルド,0
2428,7270003001615,新規,0,2024-04-15,2024-04-15,Ｂｒａｄｏ合同会社,,合同会社,鳥取県,米子市,兼久１２２番地,,31,202,6830251,,,,,,,2024-04-15,1,,,,,ブラード,0
2431,7290001105341,新規,0,2024-04-15,2024-04-15,九大ＯＩＰ株式会社,,株式会社,福岡県,福岡市西区,九大新町５番５研究開発棟１１１号室,,40,135,8190388,,,,,,,2024-04-15,1,,,,,キュウダイオーアイピー,0
2434,7290005019348,新規,0,2024-04-15,2024-04-15,行政書士法人ロックフィールド法務事務所,,その他の設立登記法人,福岡県,糟屋郡粕屋町,花ヶ浦２丁目１３番１７号,,40,349,8112310,,,,,,,2024-04-15,1,,,,,ロックフィールドホウムジムショ,0
2437,7290803004690,新規,0,2024-04-15,2024-04-15,合同会社えにし,,合同会社,福岡県,北九州市小倉北区,上富野１丁目４番６号１０１号,,40,106,8020022,,,,,,,2024-04-15,1,,,,,エニシ,0
2450,7340003004437,新規,0,2024-04-15,2024-04-15,ティーダフィールド合同会社,,合同会社,鹿児島県,熊毛郡屋久島町,湯泊２１１－５２,,46,505,8914407,,,,,,,2024-04-15,1,,,,,ティーダフィールド,0
2457,7360001033519,新規,0,2024-04-15,2024-04-15,株式会社豊三戎エナジー,,株式会社,沖縄県,豊見城市,字豊崎１番地１２７,,47,212,9010225,,,,,,,2024-04-15,1,,,,,トミエビスエナジー,0
2459,7360005007023,新規,0,2024-04-15,2024-04-15,医療法人べすま,,その他の設立登記法人,沖縄県,那覇市,真嘉比１丁目７番１号２Ｆ・３Ｆ,,47,201,9020068,,,,,,,2024-04-15,1,,,,,ベスマ,0
2460,7370001051172,新規,0,2024-04-15,2024-04-15,株式会社ＧＡＩＮ,,株式会社,宮城県,多賀城市,大代１丁目１１番９号,,04,209,9850832,,,,,,,2024-04-15,1,,,,,ゲイン,0
2462,7370003006570,新規,0,2024-04-15,2024-04-15,合同会社大虎,,合同会社,宮城県,仙台市宮城野区,榴岡５丁目１０番５号,,04,102,9830852,,,,,,,2024-04-15,1,,,,,オオトラ,0
2469,7430001091518,新規,0,2024-04-15,2024-04-15,株式会社ａｏ．ｉｎｃ,,株式会社,北海道,札幌市中央区,大通西６丁目６番９クリーンビル２２３号,,01,101,0600042,,,,,,,2024-04-15,1,,,,,アオインク,0
2470,7430001091542,新規,0,2024-04-15,2024-04-15,株式会社シツライ,,株式会社,北海道,札幌市北区,北七条西４丁目１番地１トーカン札幌第一キャステール６０７,,01,102,0600807,,,,,,,2024-04-15,1,,,,,シツライ,0
2471,7430001091559,新規,0,2024-04-15,2024-04-15,株式会社今野工業,,株式会社,北海道,苫小牧市,清水町２丁目２番２０一５０７号,,01,213,0530034,,,,,,,2024-04-15,1,,,,,コンノコウギョウ,0
2473,7430005014961,新規,0,2024-04-15,2024-04-15,特定非営利活動法人南風,,その他の設立登記法人,北海道,札幌市中央区,南十一条西１５丁目３番１７号株式会社日本衛生研究社内,,01,101,0640811,,,,,,,2024-04-15,1,,,,,ミナミカゼ,0
2491,8010001243663,新規,0,2024-04-15,2024-04-15,ＳＢＩレオスひふみ株式会社,,株式会社,東京都,千代田区,丸の内１丁目１１番１号,,13,101,1000005,,,,,,,2024-04-15,1,,,,,エスビーアイレオスヒフミ,0
2492,8010001243886,新規,0,2024-04-15,2024-04-15,株式会社ＫＫ　Ｇｒｏｕｐ,,株式会社,東京都,千代田区,神田平河町１番地第３東ビル５ＦイーオフィスＡＫＩＢＡ２番館２８号室,,13,101,1010027,,,,,,,2024-04-15,1,,,,,ケイケイグループ,0
2493,8010001243911,新規,0,2024-04-15,2024-04-15,株式会社Ａｎｖｅｅ,,株式会社,東京都,中央区,勝どき５丁目１０番１０－１４０９号,,13,102,1040054,,,,,,,2024-04-15,1,,,,,アンビー,0
2494,8010001243936,新規,0,2024-04-15,2024-04-15,株式会社五木総合商事,,株式会社,東京都,千代田区,紀尾井町３番１０号紀尾井町ガーデンタワー２５０４号（Ｃ／Ｏｓｈｉｍａｄａ－ｏｆｆｉｃｅ）,,13,101,1020094,,,,,,,2024-04-15,1,,,,,イツキソウゴウショウジ,0
2495,8010001243944,新規,0,2024-04-15,2024-04-15,株式会社ＭＩＴ,,株式会社,東京都,中央区,日本橋横山町３－１横山町ダイカンプラザ８０１,,13,102,1030003,,,,,,,2024-04-15,1,,,,,エムアイティー,0
2496,8010001243977,新規,0,2024-04-15,2024-04-15,株式会社ロージア,,株式会社,東京都,中央区,日本橋室町１丁目１１番１２号日本橋水野ビル７階,,13,102,1030022,,,,,,,2024-04-15,1,,,,,ロージア,0
2497,8010001244001,新規,0,2024-04-15,2024-04-15,株式会社重津,,株式会社,東京都,中央区,明石町６番１３－２０３号,,13,102,1040044,,,,,,,2024-04-15,1,,,,,シゲツ,0
2498,8010001244059,新規,0,2024-04-15,2024-04-15,株式会社熊谷建設,,株式会社,東京都,千代田区,永田町２丁目４番１１号フレンドビル３Ｆ,,13,101,1000014,,,,,,,2024-04-15,1,,,,,クマガイケンセツ,0
2499,8010001244109,新規,0,2024-04-15,2024-04-15,株式会社７３ｓｙｓｔｅｍｓ,,株式会社,東京都,中央区,日本橋室町１丁目１１番１２号日本橋水野ビル７階,,13,102,1030022,,,,,,,2024-04-15,1,,,,,ナナサンシステムズ,0
2509,8010003043442,新規,0,2024-04-15,2024-04-15,エリクシール・メディカル合同会社,,合同会社,東京都,千代田区,大手町１丁目１番１号大手町パークビルディング、アンダーソン・毛利・友常法律事務所外国法共同事業内,,13,101,1000004,,,,,,,2024-04-15,1,,,,,エリクシールメディカル,0
2510,8010003043450,新規,0,2024-04-15,2024-04-15,合同会社ユエンリーチ,,合同会社,東京都,中央区,築地６丁目７番１１－４０１号,,13,102,1040045,,,,,,,2024-04-15,1,,,,,ユエンリーチ,0
2511,8010003043459,新規,0,2024-04-15,2024-04-15,合同会社エアインテーク,,合同会社,東京都,中央区,勝どき４丁目６－２パークタワー勝どきミッド２２０３号,,13,102,1040054,,,,,,,2024-04-15,1,,,,,エアインテーク,0
2513,8010005038168,新規,0,2024-04-15,2024-04-15,石狩地域エネルギー一般社団法人,,その他の設立登記法人,東京都,中央区,八丁堀４丁目２番１０号ＡＯＪ税理士法人内,,13,102,1040032,,,,,,,2024-04-15,1,,,,,イシカリチイキエネルギー,0
2514,8010101016093,新規,0,2024-04-15,2024-04-15,株式会社ＯＮＥ‐Ｋ,,株式会社,東京都,八王子市,中野山王２丁目２９番９号,,13,201,1920042,,,,,,,2024-04-15,1,,,,,ワンケイ,0
2527,8010601065020,新規,0,2024-04-15,2024-04-15,株式会社インテリア有馬,,株式会社,東京都,江東区,有明１丁目３番１４－１４１５号,,13,108,1350063,,,,,,,2024-04-15,1,,,,,インテリアアリマ,0
2543,8011001161351,新規,0,2024-04-15,2024-04-15,Ｈｅａｒｔｅｎ株式会社,,株式会社,東京都,渋谷区,道玄坂１丁目１０番８号渋谷道玄坂東急ビル２Ｆ―Ｃ,,13,113,1500043,,,,,,,2024-04-15,1,,,,,ハーテン,0
2553,8011101106966,新規,0,2024-04-15,2024-04-15,株式会社ＯＺ,,株式会社,東京都,新宿区,新宿３丁目５番６号,,13,104,1600022,,,,,,,2024-04-15,1,,,,,オズ,0
2562,8011401026006,新規,0,2024-04-15,2024-04-15,株式会社東京オリシン,,株式会社,東京都,板橋区,前野町６丁目２１番１１号,,13,119,1740063,,,,,,,2024-04-15,1,,,,,トウキョウオリシン,0
2567,8011501030568,新規,0,2024-04-15,2024-04-15,株式会社トゥルンティ,,株式会社,東京都,荒川区,荒川５丁目２０－４サンハイツージン２０２,,13,118,1160002,,,,,,,2024-04-15,1,,,,,トゥルンティ,0
2568,8011503006021,新規,0,2024-04-15,2024-04-15,松山商事合同会社,,合同会社,東京都,荒川区,東日暮里６丁目２２番１６－４０５号,,13,118,1160014,,,,,,,2024-04-15,1,,,,,マツヤマショウジ,0
2571,8011801044061,新規,0,2024-04-15,2024-04-15,株式会社クエタソリューション,,株式会社,東京都,葛飾区,水元３丁目３番１３－４０７号,,13,122,1250032,,,,,,,2024-04-15,1,,,,,クエタソリューション,0
2583,8013303007083,新規,0,2024-04-15,2024-04-15,合同会社ｃｈａｎｃｅ　ｍａｋｅｒ,,合同会社,東京都,豊島区,東池袋４丁目２１－１－１００２,,13,116,1700013,,,,,,,2024-04-15,1,,,,,チャンスメーカー,0
2587,8020001156682,新規,0,2024-04-15,2024-04-15,誠人空調設備株式会社,,株式会社,神奈川県,横浜市港南区,野庭町５８１番地１０,,14,111,2340056,,,,,,,2024-04-15,1,,,,,マコトクウチョウセツビ,0
2588,8020001156699,新規,0,2024-04-15,2024-04-15,株式会社ｋａｎｏｕｓｅｉ,,株式会社,神奈川県,横浜市都筑区,茅ケ崎中央４２番１２号ウィルローズセンター南ブリサ６０１,,14,118,2240032,,,,,,,2024-04-15,1,,,,,カノウセイ,0
2589,8020001156749,新規,0,2024-04-15,2024-04-15,株式会社優想,,株式会社,神奈川県,横浜市中区,本牧大里町１１番１８号－２０１号,,14,104,2310823,,,,,,,2024-04-15,1,,,,,ユウソウ,0
2592,8020003025919,新規,0,2024-04-15,2024-04-15,合同会社吉澄商事,,合同会社,神奈川県,川崎市川崎区,渡田向町１８番５号ピアフローラー４０３,,14,131,2100841,,,,,,,2024-04-15,1,,,,,ヨシズミショウジ,0
2607,8030001159825,新規,0,2024-04-15,2024-04-15,株式会社ＳＥＬＬＭＡＴＥ　ＪＡＰＡＮ,,株式会社,埼玉県,さいたま市大宮区,三橋２丁目６５０番地３,,11,103,3300856,,,,,,,2024-04-15,1,,,,,セルメイトジャパン,0
2614,8030003024077,新規,0,2024-04-15,2024-04-15,合同会社バズライ堂,,合同会社,埼玉県,さいたま市大宮区,桜木町２丁目３番地大宮マルイ７階,,11,103,3300854,,,,,,,2024-04-15,1,,,,,バズライドウ,0
2615,8030003024085,新規,0,2024-04-15,2024-04-15,合同会社ＭＵＤＡＩ,,合同会社,埼玉県,さいたま市浦和区,仲町１丁目９番１０－１００５号,,11,107,3300062,,,,,,,2024-04-15,1,,,,,ムダイ,0
2624,8040001133093,新規,0,2024-04-15,2024-04-15,株式会社レイトテック・エンタテインメント,,株式会社,千葉県,長生郡一宮町,船頭給２４番地１２,,12,421,2994313,,,,,,,2024-04-15,1,,,,,レイトテックエンタテインメント,0
2625,8040001133110,新規,0,2024-04-15,2024-04-15,株式会社田嶋工業,,株式会社,千葉県,市川市,北国分１丁目２５番５号,,12,203,2720836,,,,,,,2024-04-15,1,,,,,タジマコウギョウ,0
2626,8040001133127,新規,0,2024-04-15,2024-04-15,株式会社ＯｒｉｅｎＳ,,株式会社,千葉県,千葉市中央区,栄町１０番２号九重ビル３Ｆ,,12,101,2600016,,,,,,,2024-04-15,1,,,,,オリエンス,0
2627,8040001133135,新規,0,2024-04-15,2024-04-15,シメイ株式会社,,株式会社,千葉県,市川市,欠真間２丁目１番１０号,,12,203,2720142,,,,,,,2024-04-15,1,,,,,シメイ,0
2628,8040001133143,新規,0,2024-04-15,2024-04-15,和合総合システム株式会社,,株式会社,千葉県,千葉市中央区,弁天１丁目５番１号,,12,101,2600045,,,,,,,2024-04-15,1,,,,,ワゴウソウゴウシステム,0
2631,8040003024753,新規,0,2024-04-15,2024-04-15,ｓｏｕｋｉ合同会社,,合同会社,千葉県,松戸市,北松戸３丁目７番地の４,,12,207,2710063,,,,,,,2024-04-15,1,,,,,,0
2632,8040003024786,新規,0,2024-04-15,2024-04-15,合同会社Ｌｕｘｕｒｙ　ｄｒｉｖｅｒｓ　ｊａｐａｎ,,合同会社,千葉県,野田市,上花輪７０６番地,,12,208,2780033,,,,,,,2024-04-15,1,,,,,ラグジュアリードライバーズジャパン,0
2634,8050003008284,新規,0,2024-04-15,2024-04-15,合同会社倉持設計事務所,,合同会社,茨城県,つくば市,牧園７番地７,,08,220,3001241,,,,,,,2024-04-15,1,,,,,クラモチセッケイジムショ,0
2641,8060005010196,新規,0,2024-04-15,2024-04-15,一般社団法人ＵＡＶインフラ点検技術研究会,,その他の設立登記法人,栃木県,宇都宮市,中岡本町３０２３番地１６,,09,201,3291105,,,,,,,2024-04-15,1,,,,,ユーエーブイインフラテンケンギジュツケンキュウカイ,0
2654,8080101024676,新規,0,2024-04-15,2024-04-15,優新建設株式会社,,株式会社,静岡県,富士宮市,北山２４４番地の４,,22,207,4180112,,,,,,,2024-04-15,1,,,,,ユウシンケンセツ,0
2655,8080103003034,新規,0,2024-04-15,2024-04-15,スルガクラフト合同会社,,合同会社,静岡県,沼津市,西椎路８２７－７,,22,203,4100303,,,,,,,2024-04-15,1,,,,,スルガクラフト,0
2656,8090001018653,新規,0,2024-04-15,2024-04-15,ＹＡＯＲＯＫＵ＆ＣＯＭＰＡＮＹ株式会社,,株式会社,山梨県,甲府市,丸の内２丁目３２番１９号１００２,,19,201,4000031,,,,,,,2024-04-15,1,,,,,ヤオロクアンドカンパニー,0
2682,8120001263857,新規,0,2024-04-15,2024-04-15,株式会社ＮＥＯ　ＳＣＯＰＥ,,株式会社,大阪府,大阪市中央区,南船場３丁目３番２１号,,27,128,5420081,,,,,,,2024-04-15,1,,,,,ネオスコープ,0
2689,8120101069411,新規,0,2024-04-15,2024-04-15,株式会社ネクストワン,,株式会社,大阪府,堺市堺区,住吉橋町１丁１番１２－２０４,,27,141,5900973,,,,,,,2024-04-15,1,,,,,ネクストワン,0
2710,8130003009456,新規,0,2024-04-15,2024-04-15,合同会社ＧＥＮＥＳＩＳ,,合同会社,京都府,京都市下京区,梅小路本町７０番地梅小路スカイハイツＢ棟１０１号室,,26,106,6008856,,,,,,,2024-04-15,1,,,,,ジェネシス,0
2711,8130003009472,新規,0,2024-04-15,2024-04-15,合同会社リコラボ,,合同会社,京都府,京都市南区,東九条下殿田町５０アサダ観光ビル６０２,,26,107,6018047,,,,,,,2024-04-15,1,,,,,リコラボ,0
2730,8140003020429,新規,0,2024-04-15,2024-04-15,カルテンド合同会社,,合同会社,兵庫県,宝塚市,仁川北２丁目１２番２９号,,28,214,6650061,,,,,,,2024-04-15,1,,,,,カルテンド,0
2734,8150001027227,新規,0,2024-04-15,2024-04-15,株式会社サティス,,株式会社,奈良県,大和郡山市,筒井町９４３－１グランシャリオ１０２,,29,203,6391123,,,,,,,2024-04-15,1,,,,,サティス,0
2741,8180001160834,新規,0,2024-04-15,2024-04-15,株式会社エムファーレン,,株式会社,愛知県,名古屋市中区,丸の内３丁目９番２９号,,23,106,4600002,,,,,,,2024-04-15,1,,,,,エムファーレン,0
2742,8180001161056,新規,0,2024-04-15,2024-04-15,未来株式会社,,株式会社,愛知県,東海市,名和町平戸口５３エスポワール１０６,,23,222,4760002,,,,,,,2024-04-15,1,,,,,ミライ,0
2752,8190005011933,新規,0,2024-04-15,2024-04-15,特定非営利活動法人ふる・すまいる,,その他の設立登記法人,三重県,伊勢市,竹ケ鼻町３７３番地,,24,203,5160005,,,,,,,2024-04-15,1,,,,,フルスマイル,0
2759,8220003003730,新規,0,2024-04-15,2024-04-15,ｄａｗｎ合同会社,,合同会社,石川県,金沢市,長田２丁目２７番４号,,17,201,9200043,,,,,,,2024-04-15,1,,,,,ドーン,0
2774,8270001008958,新規,0,2024-04-15,2024-04-15,株式会社バトン,,株式会社,鳥取県,鳥取市,吉成７７１番地１－１０７,,31,201,6800864,,,,,,,2024-04-15,1,,,,,バトン,0
2779,8290001105324,新規,0,2024-04-15,2024-04-15,株式会社たすける,,株式会社,福岡県,福岡市博多区,祇園町８番１３号第一プリンスビル１Ｆ,,40,132,8120038,,,,,,,2024-04-15,1,,,,,タスケル,0
2780,8290001105357,新規,0,2024-04-15,2024-04-15,株式会社ＨＡＫＵＳＨＩＮ,,株式会社,福岡県,久留米市,西町１４７２番地３天神アコールマンション９０１号,,40,203,8300038,,,,,,,2024-04-15,1,,,,,ハクシン,0
2781,8290001105381,新規,0,2024-04-15,2024-04-15,株式会社ゼロワン,,株式会社,福岡県,福岡市中央区,春吉２丁目９－２５ラ・レジダンス・ド・レーヌ３０６号室,,40,133,8100003,,,,,,,2024-04-15,1,,,,,ゼロワン,0
2783,8290003015158,新規,0,2024-04-15,2024-04-15,澄貿易合同会社,,合同会社,福岡県,福岡市中央区,春吉１丁目７番１７－４０２号,,40,133,8100003,,,,,,,2024-04-15,1,,,,,スミボウエキ,0
2787,8310001018952,新規,0,2024-04-15,2024-04-15,株式会社ＡＳＴＲＬＡＳ　ＡＩ　ＧＲＯＷＴＨ,,株式会社,長崎県,長崎市,深堀町１丁目１１－４７,,42,201,8510301,,,,,,,2024-04-15,1,,,,,アストラルエーアイグロース,0
2788,8310001018960,新規,0,2024-04-15,2024-04-15,ＮＫ　Ｗｅａｌｔｈ　Ｍａｎａｇｅｍｅｎｔ株式会社,,株式会社,長崎県,長崎市,みなと坂１丁目１２番１０号,,42,201,8500079,,,,,,,2024-04-15,1,,,,,エヌケイウェルスマネジメント,0
2813,8370003006561,新規,0,2024-04-15,2024-04-15,よりそう合同会社,,合同会社,宮城県,石巻市,西山町８番５０号,,04,202,9860876,,,,,,,2024-04-15,1,,,,,ヨリソウ,0
2830,8430001091541,新規,0,2024-04-15,2024-04-15,株式会社丸成,,株式会社,北海道,岩見沢市,日の出南３丁目５番９号,,01,210,0680823,,,,,,,2024-04-15,1,,,,,マルセイ,0
2831,8430001091566,新規,0,2024-04-15,2024-04-15,株式会社アグリ・ドゥ,,株式会社,北海道,札幌市北区,篠路町上篠路３４３番５４号,,01,102,0028052,,,,,,,2024-04-15,1,,,,,アグリドゥ,0
2833,8430003016199,新規,0,2024-04-15,2024-04-15,合同会社ＣａｌｍＣｌｕｔＣｈ,,合同会社,北海道,札幌市白石区,北郷九条８丁目４番１０号,,01,104,0030839,,,,,,,2024-04-15,1,,,,,カームクラッチ,0
2856,9010001243646,新規,0,2024-04-15,2024-04-15,株式会社Ｓ‐Ｑｕａｔｒｅ,,株式会社,東京都,中央区,新川１丁目２番１２号,,13,102,1040033,,,,,,,2024-04-15,1,,,,,エスカトル,0
2857,9010001243935,新規,0,2024-04-15,2024-04-15,株式会社Ａｒｋ　Ａｕｒａ,,株式会社,東京都,中央区,銀座１丁目１２－４Ｎ＆Ｅ、ＢＬＤ．７階,,13,102,1040061,,,,,,,2024-04-15,1,,,,,アークオーラ,0
2858,9010001243943,新規,0,2024-04-15,2024-04-15,株式会社ＮＥＸＴ,,株式会社,東京都,中央区,銀座１丁目１２－４Ｎ＆Ｅ－ＢＬＤ．７階,,13,102,1040061,,,,,,,2024-04-15,1,,,,,ネクスト,0
2859,9010001244000,新規,0,2024-04-15,2024-04-15,株式会社Ｖａｎｔａｇｅ,,株式会社,東京都,中央区,月島３丁目２６－８レジデンスシャルマン月島４２１,,13,102,1040052,,,,,,,2024-04-15,1,,,,,,0
2863,9010003043490,新規,0,2024-04-15,2024-04-15,Ｐａｓｔｅｌ合同会社,,合同会社,東京都,中央区,銀座１丁目２２番１１号銀座大竹ビジデンス２Ｆ,,13,102,1040061,,,,,,,2024-04-15,1,,,,,パステル,0
2865,9010005038126,新規,0,2024-04-15,2024-04-15,ａｎｄＡ税理士法人,,その他の設立登記法人,東京都,千代田区,東神田３丁目２番４号東神田サマリヤマンション４０６,,13,101,1010031,,,,,,,2024-04-15,1,,,,,アンドエー,0
2866,9010005038167,新規,0,2024-04-15,2024-04-15,一般社団法人ＹＦ　ＪＲＥ　Ｂ,,その他の設立登記法人,東京都,千代田区,霞が関３丁目２番５号,,13,101,1000013,,,,,,,2024-04-15,1,,,,,ワイエフジェーアールイービー,0
2867,9010005038200,新規,0,2024-04-15,2024-04-15,ミルトン一般社団法人,,その他の設立登記法人,東京都,千代田区,永田町２丁目１７番５号,,13,101,1000014,,,,,,,2024-04-15,1,,,,,ミルトン,0
2879,9010401181719,新規,0,2024-04-15,2024-04-15,株式会社プラチナパートナーズ,,株式会社,東京都,港区,高輪１丁目２３番２３－８１２号,,13,103,1080074,,,,,,,2024-04-15,1,,,,,プラチナパートナーズ,0
2882,9010403032390,新規,0,2024-04-15,2024-04-15,Ｍｍ合同会社,,合同会社,東京都,港区,青山五丁目１７番２号,,13,103,1050000,,,,,,,2024-04-15,1,,,,,ママ,0
2888,9010603010766,新規,0,2024-04-15,2024-04-15,合同会社ＧＩＶＥ,,合同会社,東京都,墨田区,東向島５丁目１６－９,,13,107,1310032,,,,,,,2024-04-15,1,,,,,ギブ,0
2894,9010801034963,新規,0,2024-04-15,2024-04-15,株式会社ａｉｌｅｆｅｅ,,株式会社,東京都,大田区,北馬込２丁目３３番１号,,13,111,1430021,,,,,,,2024-04-15,1,,,,,エルフィー,0
2905,9011101106932,新規,0,2024-04-15,2024-04-15,星惠マスメディア株式会社,,株式会社,東京都,新宿区,新宿５丁目１８－２０－６０１号室,,13,104,1600022,,,,,,,2024-04-15,1,,,,,ホシエマスメディア,0
2906,9011101106949,新規,0,2024-04-15,2024-04-15,エフアイティ株式会社,,株式会社,東京都,新宿区,西新宿３丁目３番１３号西新宿水間ビル２Ｆ,,13,104,1600023,,,,,,,2024-04-15,1,,,,,エフアイティ,0
2907,9011101107006,新規,0,2024-04-15,2024-04-15,株式会社Ｅｕｐａｌｉｎｏｓ,,株式会社,東京都,新宿区,西新宿３丁目５番３号西新宿ダイヤモンドパレス１３０１,,13,104,1600023,,,,,,,2024-04-15,1,,,,,エウパリノス,0
2913,9011103014308,新規,0,2024-04-15,2024-04-15,合同会社神楽堂,,合同会社,東京都,新宿区,神楽坂３丁目６－８４,,13,104,1620825,,,,,,,2024-04-15,1,,,,,カグラドウ,0
2914,9011103014316,新規,0,2024-04-15,2024-04-15,ヘルテック合同会社,,合同会社,東京都,新宿区,若松町３５番１４－４０４号,,13,104,1620056,,,,,,,2024-04-15,1,,,,,ヘルテック,0
2916,9011203004357,新規,0,2024-04-15,2024-04-15,合同会社ＨＵＥ,,合同会社,東京都,中野区,中央３丁目３１番１４号,,13,114,1640011,,,,,,,2024-04-15,1,,,,,ヒュー,0
2919,9011601027686,新規,0,2024-04-15,2024-04-15,ＬＵＭＩＤＥＡ株式会社,,株式会社,東京都,練馬区,南大泉５丁目８番２７号－２０６号室,,13,120,1780064,,,,,,,2024-04-15,1,,,,,ルミディア,0
2923,9011703003809,新規,0,2024-04-15,2024-04-15,Ｓｉｌｖｅｒｆｌａｍｅ合同会社,,合同会社,東京都,江戸川区,小松川１丁目４番２－１１１２号,,13,123,1320034,,,,,,,2024-04-15,1,,,,,シルバーフレイム,0
2924,9011801044060,新規,0,2024-04-15,2024-04-15,株式会社ミュージックグライド,,株式会社,東京都,足立区,柳原１丁目２２－２６,,13,121,1200022,,,,,,,2024-04-15,1,,,,,ミュージックグライド,0
2926,9012401041745,新規,0,2024-04-15,2024-04-15,株式会社エムファーマシーミナハル薬局,,株式会社,東京都,府中市,晴見町３丁目１１番地の１９メゾン晴見１Ｆ,,13,206,1830057,,,,,,,2024-04-15,1,,,,,エムファーマシーミナハルヤッキョク,0
2932,9012801023112,新規,0,2024-04-15,2024-04-15,京和商事株式会社,,株式会社,東京都,日野市,多摩平７丁目１３番３号メゾンヴェール１０１号室,,13,212,1910062,,,,,,,2024-04-15,1,,,,,キョウワショウジ,0
2943,9013305003591,新規,0,2024-04-15,2024-04-15,一般社団法人核兵器をなくす日本キャンペーン,,その他の設立登記法人,東京都,豊島区,東池袋１丁目１７番１１号パークハイツ池袋１１０５号,,13,116,1700013,,,,,,,2024-04-15,1,,,,,カクヘイキヲナクスニホンキャンペーン,0
2948,9020001156665,新規,0,2024-04-15,2024-04-15,株式会社ＧＯＴＯＵ,,株式会社,神奈川県,横浜市瀬谷区,阿久和西２丁目６０番地４パルクアイ・ユー２０１,,14,114,2460025,,,,,,,2024-04-15,1,,,,,ゴトウ,0
2949,9020001156681,新規,0,2024-04-15,2024-04-15,株式会社成建ロードサービス,,株式会社,神奈川県,川崎市幸区,小倉３丁目１１番１２号,,14,132,2120054,,,,,,,2024-04-15,1,,,,,セイケンロードサービス,0
2950,9020001156698,新規,0,2024-04-15,2024-04-15,株式会社Ｂｕｄｄｙ　Ｃｒｅｗ,,株式会社,神奈川県,横浜市都筑区,中川中央１丁目５番１８号,,14,118,2240003,,,,,,,2024-04-15,1,,,,,バディクル,0
2951,9020001156748,新規,0,2024-04-15,2024-04-15,株式会社インターコミュニケート,,株式会社,神奈川県,横浜市南区,日枝町１丁目１３番地１５メゾンドヴェルディ６０２,,14,105,2320011,,,,,,,2024-04-15,1,,,,,インターコミュニケート,0
2959,9020003025926,新規,0,2024-04-15,2024-04-15,ワンダフォージャパン合同会社,,合同会社,神奈川県,横浜市西区,浅間町１丁目４番３号ウィザードビル４０２,,14,103,2200072,,,,,,,2024-04-15,1,,,,,ワンダフォージャパン,0
2960,9020003025934,新規,0,2024-04-15,2024-04-15,五光フードビジネス合同会社,,合同会社,神奈川県,横浜市西区,浅間町１丁目４番３号ウィザードビル４０２,,14,103,2200072,,,,,,,2024-04-15,1,,,,,ゴコウフードビジネス,0
2961,9020003025950,新規,0,2024-04-15,2024-04-15,合同会社ＳＴＯＡＫ,,合同会社,神奈川県,横浜市瀬谷区,下瀬谷２丁目４４－１,,14,114,2460035,,,,,,,2024-04-15,1,,,,,ストウク,0
2979,9030001159824,新規,0,2024-04-15,2024-04-15,小林株式会社,,株式会社,埼玉県,越谷市,東越谷８丁目１８番地７,,11,222,3430023,,,,,,,2024-04-15,1,,,,,コバヤシ,0
2980,9030001159849,新規,0,2024-04-15,2024-04-15,Ｗｏｍｂａｔ株式会社,,株式会社,埼玉県,さいたま市浦和区,岸町４丁目６番１１号,,11,107,3300064,,,,,,,2024-04-15,1,,,,,ウォンバット,0
2985,9030003024076,新規,0,2024-04-15,2024-04-15,合同会社ＬＡ．ＣＬＡＩＲＥ,,合同会社,埼玉県,さいたま市桜区,田島３丁目２３番３号５０３号室,,11,106,3380837,,,,,,,2024-04-15,1,,,,,ラクレア,0
2986,9030003024101,新規,0,2024-04-15,2024-04-15,合同会社Ｓｐａｃｅ‐Ｊ,,合同会社,埼玉県,春日部市,中央１丁目８番１５号春日部セントラルＢＩＺｃｏｍｆｏｒｔ春日部２階１号室,,11,214,3440067,,,,,,,2024-04-15,1,,,,,スペースジェー,0
2995,9040001133084,新規,0,2024-04-15,2024-04-15,株式会社ＨＩＲＯＴＯ,,株式会社,千葉県,流山市,江戸川台東３丁目１５９２番地の３８,,12,220,2700111,,,,,,,2024-04-15,1,,,,,ヒロト,0
2996,9040001133134,新規,0,2024-04-15,2024-04-15,株式会社ＬＧＳラボ,,株式会社,千葉県,市川市,塩焼５丁目３－２０パルハウス妙典１０３,,12,203,2720114,,,,,,,2024-04-15,1,,,,,エルジーエスラボ,0
3002,9040003024760,新規,0,2024-04-15,2024-04-15,Ｋｚａｎａ合同会社,,合同会社,千葉県,八千代市,高津３３６番地４３,,12,221,2760036,,,,,,,2024-04-15,1,,,,,カザナ,0
3003,9040003024769,新規,0,2024-04-15,2024-04-15,合同会社ＵＰｔｏＹＯＵ,,合同会社,千葉県,千葉市稲毛区,作草部２丁目１１番５号グランドハイツモトキ１０１,,12,103,2630015,,,,,,,2024-04-15,1,,,,,アップトゥーユー,0
3004,9040003024777,新規,0,2024-04-15,2024-04-15,合同会社Ｂａｃｈ,,合同会社,千葉県,千葉市稲毛区,作草部２丁目１１番５号グランドハイツモトキ１０１,,12,103,2630015,,,,,,,2024-04-15,1,,,,,バッハ,0
3005,9040003024785,新規,0,2024-04-15,2024-04-15,合同会社ｄａｚｅ,,合同会社,千葉県,印西市,平賀学園台２丁目７番７号,,12,231,2701606,,,,,,,2024-04-15,1,,,,,デーズ,0
3008,9050003008300,新規,0,2024-04-15,2024-04-15,合同会社ケイアイクラフト,,合同会社,茨城県,かすみがうら市,中志筑１２７８,,08,230,3150075,,,,,,,2024-04-15,1,,,,,,0
3010,9060001037003,新規,0,2024-04-15,2024-04-15,株式会社光陽,,株式会社,栃木県,大田原市,蛭田１９０３番地５,,09,210,3240412,,,,,,,2024-04-15,1,,,,,コウヨウ,0
3019,9080005007603,新規,0,2024-04-15,2024-04-15,マイルストーン協同組合,,その他の設立登記法人,静岡県,静岡市清水区,押切１６２０番地,,22,103,4240008,,,,,,,2024-04-15,1,,,,,マイルストーン,0
3020,9080103003025,新規,0,2024-04-15,2024-04-15,イーストアジャパン合同会社,,合同会社,静岡県,富士市,さんどまき３７０,,22,210,4170856,,,,,,,2024-04-15,1,,,,,,0
3021,9080401027122,新規,0,2024-04-15,2024-04-15,ＣｏｒｅＶａｌｕｅ株式会社,,株式会社,静岡県,掛川市,葛川３０５番地の１スカイロイヤル１２、３Ｃ,,22,213,4360074,,,,,,,2024-04-15,1,,,,,コアバリュー,0
3027,9090001018652,新規,0,2024-04-15,2024-04-15,羽村林産株式会社,,株式会社,山梨県,甲州市,塩山上於曽１０７８番地,,19,213,4040042,,,,,,,2024-04-15,1,,,,,ハムラリンサン,0
3033,9110001038334,新規,0,2024-04-15,2024-04-15,株式会社ナル,,株式会社,新潟県,新潟市中央区,米山５番６号,,15,103,9500916,,,,,,,2024-04-15,1,,,,,ナル,0
3045,9120001264020,新規,0,2024-04-15,2024-04-15,株式会社薮田設備,,株式会社,大阪府,枚方市,招提大谷３丁目３６番１号,,27,210,5731153,,,,,,,2024-04-15,1,,,,,ヤブタセツビ,0
3046,9120001264029,新規,0,2024-04-15,2024-04-15,元吉株式会社,,株式会社,大阪府,大阪市西成区,花園北２丁目７番１１－３０１号,,27,122,5570016,,,,,,,2024-04-15,1,,,,,モトヨシ,0
3047,9120001264053,新規,0,2024-04-15,2024-04-15,桜人材株式会社,,株式会社,大阪府,大阪市平野区,西脇１丁目２０番４号,,27,126,5470035,,,,,,,2024-04-15,1,,,,,サクラジンザイ,0
3049,9120003026360,新規,0,2024-04-15,2024-04-15,新井ケア合同会社,,合同会社,大阪府,大阪市生野区,新今里２丁目３番１号,,27,116,5440001,,,,,,,2024-04-15,1,,,,,アライケア,0
3053,9120103005784,新規,0,2024-04-15,2024-04-15,合同会社ルルクール,,合同会社,大阪府,堺市美原区,今井２３４－２,,27,147,5870061,,,,,,,2024-04-15,1,,,,,ルルクール,0
3055,9120901049033,新規,0,2024-04-15,2024-04-15,株式会社えびすツール,,株式会社,大阪府,茨木市,中津町１－７,,27,211,5670824,,,,,,,2024-04-15,1,,,,,エビスツール,0
3058,9122003002861,新規,0,2024-04-15,2024-04-15,合同会社みつや,,合同会社,大阪府,八尾市,垣内１丁目５６番地,,27,212,5810881,,,,,,,2024-04-15,1,,,,,ミツヤ,0
3060,9130003009455,新規,0,2024-04-15,2024-04-15,合同会社ソユース,,合同会社,京都府,京都市下京区,櫛笥通丹波口下る裏片町１８７番地１７,,26,106,6008822,,,,,,,2024-04-15,1,,,,,ソユース,0
3069,9140001134080,新規,0,2024-04-15,2024-04-15,大西電機株式会社,,株式会社,兵庫県,明石市,大久保町西島８８８番地の９,,28,203,6740065,,,,,,,2024-04-15,1,,,,,オオニシデンキ,0
3077,9140003020428,新規,0,2024-04-15,2024-04-15,合同会社キノコノコ,,合同会社,兵庫県,神戸市灘区,桜ヶ丘町１６番３５号,,28,102,6570021,,,,,,,2024-04-15,1,,,,,キノコノコ,0
3080,9150001027218,新規,0,2024-04-15,2024-04-15,遠大商事株式会社,,株式会社,奈良県,生駒市,辻町７８－６シティパレス２１東生駒Ｐ－ＩＩＩＤ棟５０２号,00134398,29,209,6300212,,,,,,,2024-04-15,1,,,,,エンダイショウジ,0
3084,9170001018090,新規,0,2024-04-15,2024-04-15,株式会社テルグリットマーケティング,,株式会社,和歌山県,橋本市,高野口町応其２０８番地の３,,30,203,6497201,,,,,,,2024-04-15,1,,,,,テルグリットマーケティング,0
3092,9180001160924,新規,0,2024-04-15,2024-04-15,株式会社ＴＷＯ　ＳＴＥＰ,,株式会社,愛知県,名古屋市中村区,名駅４丁目２４番５号第２森ビル４０１,,23,105,4500002,,,,,,,2024-04-15,1,,,,,ツーステップ,0
3096,9180003026628,新規,0,2024-04-15,2024-04-15,合同会社飛鳥,,合同会社,愛知県,名古屋市港区,大西２丁目１１５番地の１（Ｄ－ｒｏｏｍ杏１０２号）,,23,111,4550861,,,,,,,2024-04-15,1,,,,,アスカ,0
3109,9200003006313,新規,0,2024-04-15,2024-04-15,合同会社あさひ,,合同会社,岐阜県,岐阜市,鹿島町８丁目７番地１,,21,201,5008323,,,,,,,2024-04-15,1,,,,,アサヒ,0
3125,9250001020609,新規,0,2024-04-15,2024-04-15,株式会社ａｌｐｈａＬｉｇｈｔｒｕｃｔｉｏｎ,,株式会社,山口県,宇部市,中央町２丁目３－３シャローム宇部中央１Ｆ,,35,202,7550045,,,,,,,2024-04-15,1,,,,,アルファライトラクション,0
3128,9260005011339,新規,0,2024-04-15,2024-04-15,一般社団法人いきいきライフ協会岡山総社,,その他の設立登記法人,岡山県,総社市,上林１７５０番地２,,33,208,7191123,,,,,,,2024-04-15,1,,,,,イキイキライフキョウカイオカヤマソウジャ,0
3130,9290001105364,新規,0,2024-04-15,2024-04-15,株式会社ＬＵＳＨＥＲＡ,,株式会社,福岡県,福岡市南区,市崎１丁目２番８号,,40,134,8150084,,,,,,,2024-04-15,1,,,,,ルシェラ,0
3135,9290801030497,新規,0,2024-04-15,2024-04-15,株式会社Ｍ‐ＰＲＩＤＥ,,株式会社,福岡県,行橋市,大字草野７６番地３１,,40,213,8240061,,,,,,,2024-04-15,1,,,,,エムプライド,0
3138,9290803004689,新規,0,2024-04-15,2024-04-15,アトモスプラス合同会社,,合同会社,福岡県,北九州市門司区,原町別院１３‐１２‐２０３,,40,101,8000037,,,,,,,2024-04-15,1,,,,,アトモスプラス,0
3146,9360001033509,新規,0,2024-04-15,2024-04-15,株式会社ミレニアムステージ沖縄,,株式会社,沖縄県,那覇市,樋川２丁目９番１号,00134403,47,201,9000022,,,,,,,2024-04-15,1,,,,,ミレニアムステージオキナワ,0
3155,9380005012812,新規,0,2024-04-15,2024-04-15,一般社団法人ネイバーフッドラボたむら,,その他の設立登記法人,福島県,田村市,船引町船引字五升車１４６番地２,,07,211,9634312,,,,,,,2024-04-15,1,,,,,,0
3157,9390001017582,新規,0,2024-04-15,2024-04-15,株式会社メーカー,,株式会社,山形県,最上郡金山町,大字下野明１６９６番地１,,06,361,9995404,,,,,,,2024-04-15,1,,,,,メーカー,0
3158,9400003003249,新規,0,2024-04-15,2024-04-15,合同会社ＮＥＲＤＯＮ,,合同会社,岩手県,花巻市,石鳥谷町新堀第２２地割１８８番地３,,03,205,0283111,,,,,,,2024-04-15,1,,,,,ナードオン,0
3166,9430003016181,新規,0,2024-04-15,2024-04-15,合同会社ＴＯ　ＧＯ　ＣＯＭＰＡＮＹ,,合同会社,北海道,小樽市,春香町２番地７,,01,203,0470265,,,,,,,2024-04-15,1,,,,,トゥーゴーカンパニー,0
