sequenceNumber,corporateNumber,process,correct,updateDate,changeDate,name,nameImageId,kind,prefectureName,cityName,streetNumber,addressImageId,prefectureCode,cityCode,postCode,addressOutside,addressOutsideImageId,closeDate,closeCause,successorCorporateNumber,changeCause,assignmentDate,latest,enName,enPrefectureName,enCityName,enAddressOutside,furigana,hihyoji
15,1010001238959,新規,0,2023-10-06,2023-10-06,株式会社ＭＥＤＭＡＴＥ,,株式会社,東京都,中央区,銀座１丁目１２番４号Ｎ＆ＥＢＬＤ．６Ｆ,,13,102,1040061,,,,,,,2023-10-06,1,,,,,メッドメイト,0
16,1010001238975,新規,0,2023-10-06,2023-10-06,株式会社アマネテクノ,,株式会社,東京都,中央区,銀座１丁目１２番４号Ｎ＆ＥＢＬＤ．６Ｆ,,13,102,1040061,,,,,,,2023-10-06,1,,,,,アマネテクノ,0
17,1010001238991,新規,0,2023-10-06,2023-10-06,百誠株式会社,,株式会社,東京都,千代田区,内幸町２丁目２番２号富国生命ビルＡ＆Ｓフィナンシャルアドバイザリー株式会社内,,13,101,1000011,,,,,,,2023-10-06,1,,,,,バイチェン,0
18,1010001239016,新規,0,2023-10-06,2023-10-06,Ｆａｎｔｉａ株式会社,,株式会社,東京都,千代田区,外神田３丁目５番１２号,,13,101,1010021,,,,,,,2023-10-06,1,,,,,ファンティア,0
19,1010001239024,新規,0,2023-10-06,2023-10-06,株式会社ＯＳＩＧＯＴＯ商事,,株式会社,東京都,中央区,日本橋室町１丁目１１番１２号日本橋水野ビル７階,,13,102,1030022,,,,,,,2023-10-06,1,,,,,オシゴトショウジ,0
20,1010001239032,新規,0,2023-10-06,2023-10-06,フルワンダー株式会社,,株式会社,東京都,千代田区,麹町２丁目６－７ＳｔａｒＢｕｉｌｄｉｎｇ５階,,13,101,1020083,,,,,,,2023-10-06,1,,,,,フルワンダー,0
21,1010003041832,新規,0,2023-10-06,2023-10-06,合同会社Ｖｅｅｒ,,合同会社,東京都,千代田区,東神田３丁目４－１２,,13,101,1010031,,,,,,,2023-10-06,1,,,,,ヴィア,0
22,1010003041849,新規,0,2023-10-06,2023-10-06,Ｔｅａｍｓｈａｒｅｓ合同会社,,合同会社,東京都,千代田区,大手町１丁目７番２号東京サンケイビル２７階,,13,101,1000004,,,,,,,2023-10-06,1,,,,,チームシェアーズ,0
37,1010401177575,新規,0,2023-10-06,2023-10-06,ＶＩＴＡ株式会社,,株式会社,東京都,港区,新橋６丁目１４－７ル・グランシエルレゼール御成門２０２号室,,13,103,1050004,,,,,,,2023-10-06,1,,,,,ヴィータ,0
38,1010401177600,新規,0,2023-10-06,2023-10-06,株式会社ホワイトハット,,株式会社,東京都,港区,高輪１丁目２番１６号６－Ａ,,13,103,1080074,,,,,,,2023-10-06,1,,,,,ホワイトハット,0
47,1010601063897,新規,0,2023-10-06,2023-10-06,株式会社ＰＯＳＨ,,株式会社,東京都,江東区,常盤１丁目３番７号ラフィーヴィル清澄白河ＥＡＳＴ１Ｆ,,13,108,1350006,,,,,,,2023-10-06,1,,,,,ポッシュ,0
51,1010603010410,新規,0,2023-10-06,2023-10-06,合同会社ＨＩＮＡＣＯ,,合同会社,東京都,江東区,豊洲３丁目７番５号芝浦工業大学ＢＯｉＣＥインキュベーションスクエア,,13,108,1350061,,,,,,,2023-10-06,1,,,,,ヒナコ,0
58,1010801034401,新規,0,2023-10-06,2023-10-06,株式会社ハピネスユニ,,株式会社,東京都,大田区,大森西３丁目１７番１２号,,13,111,1430015,,,,,,,2023-10-06,1,,,,,ハピネスユニ,0
59,1010901053961,新規,0,2023-10-06,2023-10-06,株式会社ＫＳファンド,,株式会社,東京都,世田谷区,奥沢３丁目１７番６－１０６号,,13,112,1580083,,,,,,,2023-10-06,1,,,,,ケイエスファンド,0
60,1010903008501,新規,0,2023-10-06,2023-10-06,合同会社月香,,合同会社,東京都,世田谷区,深沢１丁目２７－３,,13,112,1580081,,,,,,,2023-10-06,1,,,,,ゲッコウ,0
63,1011001157307,新規,0,2023-10-06,2023-10-06,株式会社ｒｅａｌｉｓｔｉｃｓ,,株式会社,東京都,渋谷区,渋谷３丁目１番８号オーベル渋谷５０２,,13,113,1500002,,,,,,,2023-10-06,1,,,,,リアリスティックス,0
64,1011001157372,新規,0,2023-10-06,2023-10-06,エムクルーズマネジメント株式会社,,株式会社,東京都,渋谷区,神宮前２丁目２番２２号,,13,113,1500001,,,,,,,2023-10-06,1,,,,,エムクルーズマネジメント,0
65,1011003017681,新規,0,2023-10-06,2023-10-06,Ｂｌａｃｋ　Ｃｌｏｖｅｒ　Ａｓｉａ合同会社,,合同会社,東京都,目黒区,青葉台４丁目２番２４－５０４号,,13,110,1530042,,,,,,,2023-10-06,1,,,,,ブラッククローバーアジア,0
71,1011101104613,新規,0,2023-10-06,2023-10-06,ｆ．ｏ．ｐ株式会社,,株式会社,東京都,新宿区,新宿７丁目２６番７号,,13,104,1600022,,,,,,,2023-10-06,1,,,,,エフオーピー,0
79,1011401025501,新規,0,2023-10-06,2023-10-06,株式会社日和,,株式会社,東京都,板橋区,幸町１番４号,,13,119,1730034,,,,,,,2023-10-06,1,,,,,ヒヨリ,0
81,1011501029831,新規,0,2023-10-06,2023-10-06,株式会社ＨＡＩＫ,,株式会社,東京都,北区,志茂１丁目３５番２３－１００１号ミオカステーロ赤羽志茂,,13,117,1150042,,,,,,,2023-10-06,1,,,,,ハイク,0
82,1011501029848,新規,0,2023-10-06,2023-10-06,京橋松崎煎餅株式会社,,株式会社,東京都,荒川区,南千住１丁目２７－８,,13,118,1160003,,,,,,,2023-10-06,1,,,,,キョウバシマツザキセンベイ,0
99,1012401041059,新規,0,2023-10-06,2023-10-06,株式会社美光,,株式会社,東京都,多摩市,鶴牧５丁目２１番地の７,,13,224,2060034,,,,,,,2023-10-06,1,,,,,ビコウ,0
101,1012703002816,新規,0,2023-10-06,2023-10-06,ＰＬＥＮＴＹ．Ｆ合同会社,,合同会社,東京都,西東京市,東町４丁目６番１４号,,13,229,2020012,,,,,,,2023-10-06,1,,,,,プレンティエフ,0
102,1012801022674,新規,0,2023-10-06,2023-10-06,エンジニアード不動産株式会社,,株式会社,東京都,立川市,富士見町２丁目１３番２号,,13,202,1900013,,,,,,,2023-10-06,1,,,,,エンジニアードフドウサン,0
104,1013301051445,新規,0,2023-10-06,2023-10-06,フリーコーヒー株式会社,,株式会社,東京都,豊島区,南大塚２丁目２５番１５号,,13,116,1700005,,,,,,,2023-10-06,1,,,,,フリーコーヒー,0
112,1020001153843,新規,0,2023-10-06,2023-10-06,株式会社東武総合建設,,株式会社,神奈川県,横浜市南区,宿町２丁目４９番地,,14,105,2320017,,,,,,,2023-10-06,1,,,,,トウブソウゴウケンセツ,0
114,1020003024720,新規,0,2023-10-06,2023-10-06,合同会社Ｅｌｍｏｎａ,,合同会社,神奈川県,横浜市神奈川区,二ツ谷町３番地３レガーレ・クロノス１０２,,14,102,2210823,,,,,,,2023-10-06,1,,,,,エルモナ,0
115,1020003024737,新規,0,2023-10-06,2023-10-06,合同会社ＳＡＭＵＥＬ,,合同会社,神奈川県,横浜市栄区,笠間５丁目２－９ｓａｍｕｅｌｃｏｏｋｉｅｓ,,14,115,2470006,,,,,,,2023-10-06,1,,,,,サミュエル,0
121,1021001080342,新規,0,2023-10-06,2023-10-06,株式会社古賀電気,,株式会社,神奈川県,秦野市,戸川８３７番地の２,,14,211,2591306,,,,,,,2023-10-06,1,,,,,コガデンキ,0
122,1021003013465,新規,0,2023-10-06,2023-10-06,合同会社改善コンシェルジュ,,合同会社,神奈川県,小田原市,小台６１シティーハイムロイヤル２０５,,14,206,2500858,,,,,,,2023-10-06,1,,,,,カイゼンコンシェルジュ,0
123,1021003013655,新規,0,2023-10-06,2023-10-06,スターテック合同会社,,合同会社,神奈川県,綾瀬市,上土棚南６丁目１６６９番１,,14,218,2521114,,,,,,,2023-10-06,1,,,,,スターテック,0
133,1030001156382,新規,0,2023-10-06,2023-10-06,株式会社岡島建創,,株式会社,埼玉県,草加市,新栄１丁目９番地３６,,11,221,3400056,,,,,,,2023-10-06,1,,,,,オカジマケンソウ,0
134,1030001156390,新規,0,2023-10-06,2023-10-06,株式会社タカトリ,,株式会社,埼玉県,久喜市,栗橋東１丁目１２番５０号,,11,232,3491103,,,,,,,2023-10-06,1,,,,,タカトリ,0
135,1030001156432,新規,0,2023-10-06,2023-10-06,Ｋ流通株式会社,,株式会社,埼玉県,日高市,大字高萩５８６番地１,,11,242,3501213,,,,,,,2023-10-06,1,,,,,ケーリュウツウ,0
140,1030003022665,新規,0,2023-10-06,2023-10-06,Ｊｕｃｃｉ合同会社,,合同会社,埼玉県,さいたま市北区,吉野町１丁目３５６番１０－１０８号,,11,102,3310811,,,,,,,2023-10-06,1,,,,,ジュッチ,0
141,1030003022698,新規,0,2023-10-06,2023-10-06,合同会社ＡＹ,,合同会社,埼玉県,川口市,西川口３丁目２番－６－２の１０１室,,11,203,3320021,,,,,,,2023-10-06,1,,,,,エーワイ,0
142,1030003022715,新規,0,2023-10-06,2023-10-06,合同会社カアプニ,,合同会社,埼玉県,川口市,大字西立野５５５番地の５、５０１号,,11,203,3330813,,,,,,,2023-10-06,1,,,,,カアプニ,0
143,1040001130345,新規,0,2023-10-06,2023-10-06,松雅匠石株式会社,,株式会社,千葉県,野田市,次木１５３番地１アルドール１０３,,12,208,2700228,,,,,,,2023-10-06,1,,,,,マツガショウセキ,0
144,1040001130361,新規,0,2023-10-06,2023-10-06,株式会社ＴＩＴＡＮＳ,,株式会社,千葉県,白井市,冨士２６３番２４,,12,232,2701432,,,,,,,2023-10-06,1,,,,,タイタンズ,0
145,1040001130394,新規,0,2023-10-06,2023-10-06,株式会社笹谷製作所,,株式会社,千葉県,館山市,那古７８７番地,,12,205,2940055,,,,,,,2023-10-06,1,,,,,ササヤセイサクショ,0
147,1040003023464,新規,0,2023-10-06,2023-10-06,シルバーニット合同会社,,合同会社,千葉県,柏市,かやの町２番１３号,,12,217,2770846,,,,,,,2023-10-06,1,,,,,シルバーニット,0
148,1040003023472,新規,0,2023-10-06,2023-10-06,合同会社Ｍ‐ＯＮＥ,,合同会社,千葉県,千葉市中央区,生実町９６０番地２６,,12,101,2600813,,,,,,,2023-10-06,1,,,,,エムワン,0
149,1040003023480,新規,0,2023-10-06,2023-10-06,合同会社ＯｆｆｉｃｅＲｉｎｋｏ,,合同会社,千葉県,浦安市,猫実１丁目９番１１－３０４号,,12,227,2790004,,,,,,,2023-10-06,1,,,,,オフィスリンコ,0
156,1050001053578,新規,0,2023-10-06,2023-10-06,株式会社結び芽,,株式会社,茨城県,鹿嶋市,大字鉢形４０５番地２３,,08,222,3140034,,,,,,,2023-10-06,1,,,,,ムスビメ,0
157,1050001053586,新規,0,2023-10-06,2023-10-06,株式会社ユーサ,,株式会社,茨城県,つくば市,大曽根２８６８番地１,,08,220,3003253,,,,,,,2023-10-06,1,,,,,ユーサ,0
158,1050001053603,新規,0,2023-10-06,2023-10-06,株式会社アーク,,株式会社,茨城県,神栖市,知手３４８９番地９９,,08,232,3140115,,,,,,,2023-10-06,1,,,,,アーク,0
160,1060001036391,新規,0,2023-10-06,2023-10-06,ＧＯＬＤＥＮ　ＢＲＩＤＧＥ　ＴＲＡＤＩＮＧ株式会社,,株式会社,栃木県,栃木市,大平町北武井１１０９番地２,,09,203,3294412,,,,,,,2023-10-06,1,,,,,ゴールデンブリッジトレーディング,0
163,1070001040938,新規,0,2023-10-06,2023-10-06,株式会社ＡＳＡＨＩ,,株式会社,群馬県,前橋市,朝日町４丁目１８番１８号,,10,201,3710014,,,,,,,2023-10-06,1,,,,,,0
170,1080401026775,新規,0,2023-10-06,2023-10-06,株式会社みどりの丘,,株式会社,静岡県,浜松市北区,細江町中川５０５８番地の１５,,22,135,4311304,,,,,,,2023-10-06,1,,,,,ミドリノオカ,0
173,1080403004886,新規,0,2023-10-06,2023-10-06,合同会社ａｎｄｊｕ,,合同会社,静岡県,浜松市天竜区,緑恵台５５６番地の１８,,22,137,4313424,,,,,,,2023-10-06,1,,,,,アンジュ,0
174,1100001036833,新規,0,2023-10-06,2023-10-06,安曇野キャビア株式会社,,株式会社,長野県,安曇野市,穂高６６７０番地,,20,220,3998303,,,,,,,2023-10-06,1,,,,,アズミノキャビア,0
191,1120001258450,新規,0,2023-10-06,2023-10-06,元康株式会社,,株式会社,大阪府,大阪市阿倍野区,松崎町２丁目６番１１号,,27,119,5450053,,,,,,,2023-10-06,1,,,,,ゲンコウ,0
192,1120001258657,新規,0,2023-10-06,2023-10-06,株式会社Ｈｉｇｈ　ｆｉｖｅ,,株式会社,大阪府,大阪市北区,長柄東２丁目１番２１－４０６号,,27,127,5310063,,,,,,,2023-10-06,1,,,,,ハイファイブ,0
193,1120001258681,新規,0,2023-10-06,2023-10-06,エナソー株式会社,,株式会社,大阪府,大阪市北区,天神橋１丁目１１番１４号,,27,127,5300041,,,,,,,2023-10-06,1,,,,,エナソー,0
198,1120003025048,新規,0,2023-10-06,2023-10-06,合同会社エコパワー７,,合同会社,大阪府,大阪市北区,梅田１丁目１番３号大阪駅前第３ビル３０階,,27,127,5300001,,,,,,,2023-10-06,1,,,,,エコパワーセブン,0
200,1120101068337,新規,0,2023-10-06,2023-10-06,株式会社泉州ブラスト塗装,,株式会社,大阪府,堺市堺区,南清水町１丁２番２６－１０３号,,27,141,5900005,,,,,,,2023-10-06,1,,,,,センシュウブラストトソウ,0
201,1120101068345,新規,0,2023-10-06,2023-10-06,株式会社関西シンヨーテック,,株式会社,大阪府,堺市美原区,多治井３０６番地６,,27,147,5870012,,,,,,,2023-10-06,1,,,,,,0
206,1120903004852,新規,0,2023-10-06,2023-10-06,合同会社テキオ,,合同会社,大阪府,摂津市,千里丘東２丁目９番９号タカセンビル１Ｆ１０２号室,,27,224,5660011,,,,,,,2023-10-06,1,,,,,テキオ,0
207,1120903004860,新規,0,2023-10-06,2023-10-06,合同会社ジテリ,,合同会社,大阪府,茨木市,庄１丁目２８番４０－９１５号,,27,211,5670806,,,,,,,2023-10-06,1,,,,,ジテリ,0
208,1122001037438,新規,0,2023-10-06,2023-10-06,株式会社Ｐ‐Ｓｅｔ,,株式会社,大阪府,八尾市,高美町７丁目１番３１号,,27,212,5810017,,,,,,,2023-10-06,1,,,,,ピーセット,0
214,1130003009025,新規,0,2023-10-06,2023-10-06,合同会社クイーン,,合同会社,京都府,宇治市,宇治矢落２２番地の１ユニライフ宇治六番館４１８号,,26,204,6110021,,,,,,,2023-10-06,1,,,,,クイーン,0
222,1140001131878,新規,0,2023-10-06,2023-10-06,株式会社ＷＥＬＬ,,株式会社,兵庫県,美方郡香美町,香住区七日市１７６番地の８,,28,585,6696546,,,,,,,2023-10-06,1,,,,,ウエル,0
225,1140003019634,新規,0,2023-10-06,2023-10-06,合同会社ハーバーライン,,合同会社,兵庫県,神戸市須磨区,大黒町２丁目３－１４サイプレス板宿５０１,,28,107,6540022,,,,,,,2023-10-06,1,,,,,ハーバーライン,0
239,1180003025827,新規,0,2023-10-06,2023-10-06,ＭＴＫコンサルティング合同会社,,合同会社,愛知県,名古屋市中村区,名駅３丁目４番１０号アルティメイト名駅１ｓｔ２階,,23,105,4500002,,,,,,,2023-10-06,1,,,,,エムティーケイコンサルティング,0
240,1180301037887,新規,0,2023-10-06,2023-10-06,株式会社旭ロック,,株式会社,愛知県,豊川市,東曙町２７３番地,00132153,23,207,4420011,,,,,,,2023-10-06,1,,,,,アサヒロック,0
241,1180303005859,新規,0,2023-10-06,2023-10-06,合同会社エイチオーアール,,合同会社,愛知県,みよし市,三好町上１４６番地８,,23,236,4700224,,,,,,,2023-10-06,1,,,,,エイチオーアール,0
243,1190001030761,新規,0,2023-10-06,2023-10-06,株式会社ＬＡＢＬＥＳＳＩＡ,,株式会社,三重県,伊賀市,陽光台２０１６番地の１１,,24,216,5180840,,,,,,,2023-10-06,1,,,,,ラブレッシア,0
244,1190001030786,新規,0,2023-10-06,2023-10-06,株式会社中仲ＡＣＳ,,株式会社,三重県,津市,藤方２１５５番地１４,,24,201,5140815,,,,,,,2023-10-06,1,,,,,ナカナカエーシーエス,0
246,1190003004466,新規,0,2023-10-06,2023-10-06,スタケラボ合同会社,,合同会社,三重県,四日市市,久保田２丁目３－１８プリンセスマンション１Ａ,,24,202,5100821,,,,,,,2023-10-06,1,,,,,スタケラボ,0
252,1210001019496,新規,0,2023-10-06,2023-10-06,株式会社たかしま建築,,株式会社,福井県,福井市,片粕町第６４号１５番地,,18,201,9103603,,,,,,,2023-10-06,1,,,,,タカシマケンチク,0
253,1210003001709,新規,0,2023-10-06,2023-10-06,合同会社十八,,合同会社,福井県,福井市,順化２丁目２０番２号,,18,201,9100023,,,,,,,2023-10-06,1,,,,,ジュウハチ,0
260,1240001062196,新規,0,2023-10-06,2023-10-06,株式会社ケーツーホールディングス,,株式会社,広島県,東広島市,高屋町造賀３５６４番地１６,,34,212,7392101,,,,,,,2023-10-06,1,,,,,ケーツーホールディングス,0
261,1240001062238,新規,0,2023-10-06,2023-10-06,アソウ株式会社,,株式会社,広島県,広島市南区,比治山町３番３－１００２号,,34,103,7320817,,,,,,,2023-10-06,1,,,,,アソウ,0
263,1240003006358,新規,0,2023-10-06,2023-10-06,合同会社プレイス,,合同会社,広島県,広島市西区,草津南４丁目１番３－３０９号,,34,104,7330863,,,,,,,2023-10-06,1,,,,,プレイス,0
270,1260003004459,新規,0,2023-10-06,2023-10-06,合同会社Ｍ３．Ｙ７,,合同会社,岡山県,浅口市,金光町占見新田６２８,,33,216,7190104,,,,,,,2023-10-06,1,,,,,エムスリーワイセブン,0
277,1290001103202,新規,0,2023-10-06,2023-10-06,株式会社ｓｉｎｃｅｒｉｔｙ　Ｇ,,株式会社,福岡県,福岡市中央区,天神２丁目３番１０号天神パインクレスト７１９号室,,40,133,8100001,,,,,,,2023-10-06,1,,,,,シンセリティジー,0
278,1290001103219,新規,0,2023-10-06,2023-10-06,株式会社ＴＭＹ,,株式会社,福岡県,那珂川市,道善３丁目５３－３０２,,40,231,8111254,,,,,,,2023-10-06,1,,,,,ティーエムワイ,0
279,1290001103227,新規,0,2023-10-06,2023-10-06,株式会社丸八圧送,,株式会社,福岡県,久留米市,山本町耳納１８８６番地１,,40,203,8390826,,,,,,,2023-10-06,1,,,,,マルハチアッソウ,0
280,1290001103243,新規,0,2023-10-06,2023-10-06,株式会社Ｋサイン,,株式会社,福岡県,福岡市早良区,原４丁目２５番１４－６０５号,,40,137,8140022,,,,,,,2023-10-06,1,,,,,ケイサイン,0
281,1290001103284,新規,0,2023-10-06,2023-10-06,株式会社ｉｔｏ,,株式会社,福岡県,福岡市西区,太郎丸１丁目５番１４号,,40,135,8190384,,,,,,,2023-10-06,1,,,,,イト,0
282,1290001103292,新規,0,2023-10-06,2023-10-06,株式会社Ｔｏｐａｚｉｏｎ,,株式会社,福岡県,福岡市中央区,舞鶴３丁目２－１３ウルフ赤坂２０１号室,,40,133,8100073,,,,,,,2023-10-06,1,,,,,トパージオン,0
289,1290003014447,新規,0,2023-10-06,2023-10-06,合同会社ＧＡＲＤＥＮ,,合同会社,福岡県,福岡市博多区,博多駅南２丁目７番１０号浜田ビル１０２号,,40,132,8120016,,,,,,,2023-10-06,1,,,,,ガーデン,0
293,1300003002029,新規,0,2023-10-06,2023-10-06,合同会社りょうゆう設計,,合同会社,佐賀県,伊万里市,二里町八谷搦１２０４番地１ネオス伊万里ザ・スクエア８０１号,,41,205,8480031,,,,,,,2023-10-06,1,,,,,リョウユウセッケイ,0
296,1310003004651,新規,0,2023-10-06,2023-10-06,合同会社ｄｒｅａｍ　ｓｈａｒｅ,,合同会社,長崎県,大村市,武部町７６４―１,,42,205,8560035,,,,,,,2023-10-06,1,,,,,ドリームシェア,0
299,1330001031340,新規,0,2023-10-06,2023-10-06,株式会社ホワイトシンジケート,,株式会社,熊本県,菊池市,七城町林原９番地株式会社熊本畜産流通センター内,,43,210,8611343,,,,,,,2023-10-06,1,,,,,ホワイトシンジケート,0
305,1330003010004,新規,0,2023-10-06,2023-10-06,合同会社ＩＳＣ,,合同会社,熊本県,宇土市,城之浦町２３３番地,,43,211,8690442,,,,,,,2023-10-06,1,,,,,アイエスシー,0
309,1340003004269,新規,0,2023-10-06,2023-10-06,合同会社ライト,,合同会社,鹿児島県,出水市,美原町１００９番地,,46,208,8990124,,,,,,,2023-10-06,1,,,,,ライト,0
313,1370003006312,新規,0,2023-10-06,2023-10-06,合同会社結城工業,,合同会社,宮城県,仙台市宮城野区,岡田字上岡田５２番地,,04,102,9830003,,,,,,,2023-10-06,1,,,,,ユウキコウギョウ,0
330,1430001090120,新規,0,2023-10-06,2023-10-06,株式会社多田商会,,株式会社,北海道,小樽市,銭函３丁目３２７番,,01,203,0470261,,,,,,,2023-10-06,1,,,,,タダショウカイ,0
331,1430001090129,新規,0,2023-10-06,2023-10-06,オフィスアミダス株式会社,,株式会社,北海道,札幌市中央区,南四条西２５丁目２番２０－３０２号,,01,101,0640804,,,,,,,2023-10-06,1,,,,,オフィスアミダス,0
335,1470001019834,新規,0,2023-10-06,2023-10-06,株式会社ＨＯＰＥ,,株式会社,香川県,高松市,東植田町１３６１,,37,201,7610446,,,,,,,2023-10-06,1,,,,,ホープ,0
339,1700150113166,新規,0,2023-10-06,2022-12-01,きものサローネ　実行委員会,,その他,愛知県,名古屋市中区,大須３丁目３１－２２Ｃ　ＦｏｒｅｓｔＩＩ　４Ｆ,00128257,23,106,4600011,,,,,,,2022-12-01,1,,,,,キモノサローネジツコウイインカイ,0
340,1700150121094,新規,0,2023-10-06,2023-10-06,ＪＩＡＮＧＳＵ　ＥＡＳＴ　ＭＵＳＩＣＡＬ　ＩＮＳＴＲＵＭＥＮＴ　ＣＯ．，ＬＴＤ,,外国会社等,,,,,,,,ＣＨＥＮＧＪＩ　ＴＯＷＮ　ＬＩＡＮＳＨＵＩ　ＣＯＵＮＴＹ,,,,,,2023-10-06,1,,,,,ジャンスードンファンラーチーヨウシエンゴンスー,0
341,1700150121103,新規,0,2023-10-06,2023-10-06,Ｓｈｅｎｚｈｅｎ　Ｊｕｊｉａ　Ｔｅｃｈｎｏｌｏｇｙ　Ｃｏ．，Ｌｔｄ．,,外国会社等,,,,,,,,Ｒｏｏｍ２０７　Ｂｕｉｌｄｉｎｇ１６　Ｍｅｉｌｏｎｇｙｕａｎ　ＬｏｎｇｈｕａＳｔｒｅｅｔ　ＬｏｎｇｈｕａＮｅｗＤｉｓｔｒｉｃｔ　Ｓｈｅｎｚｈｅｎ　Ｃｈｉｎａ,,,,,,2023-10-06,1,,,,,シンセンジュジャテクノロジーカンパニーリミテッド,0
342,1700150121111,新規,0,2023-10-06,2023-10-06,ｓｈｅｎｚｈｅｎｓｈｉ　ｌｕｌｕｔｏｎｇｋｅｊｉ　ｙｏｕｘｉａｎｇｏｎｇｓｉ,,外国会社等,,,,,,,,０２３ｓｈｉ　３ｌｏｕ　ｔｉａｎｘｉａ　ｃｈａｎｙｅｙｕａｎ（ｙｕａｎ２７－２９ｄｏｎｇ）ｍａｊｉａｌｏｎｇ　ｙｉｙｕａｎｌｕ　ｎａｎｓｈａｎｑｕ　ｓｈｅｎｚｈｅｎｓｈｉ　Ｃｈｉｎａ,,,,,,2023-10-06,1,,,,,シンセンシルルトンカギユウゲンコウシ,0
351,2010001238652,新規,0,2023-10-06,2023-10-06,ｅｇ株式会社,,株式会社,東京都,中央区,銀座１丁目１２－４Ｎ＆ＥＢＬＤ．７階,,13,102,1040061,,,,,,,2023-10-06,1,,,,,イージー,0
352,2010001238883,新規,0,2023-10-06,2023-10-06,株式会社ＣＯＬＯＲ,,株式会社,東京都,文京区,湯島３丁目４５番５号ギャラン湯島３階,,13,105,1130034,,,,,,,2023-10-06,1,,,,,カラー,0
353,2010001238925,新規,0,2023-10-06,2023-10-06,株式会社ＳＩＰ,,株式会社,東京都,中央区,八丁堀４丁目１１番２－３０１号,,13,102,1040032,,,,,,,2023-10-06,1,,,,,エスアイピー,0
354,2010001238966,新規,0,2023-10-06,2023-10-06,エマジャパンホールディングス株式会社,,株式会社,東京都,文京区,湯島３丁目２６番５号,,13,105,1130034,,,,,,,2023-10-06,1,,,,,エマジャパンホールディングス,0
355,2010001238974,新規,0,2023-10-06,2023-10-06,株式会社ＶＥＬＶＡ,,株式会社,東京都,中央区,日本橋２丁目５番１号日本橋高島屋ビルディング,00132154,13,102,1030027,,,,,,,2023-10-06,1,,,,,ヴェルヴァ,0
356,2010001239031,新規,0,2023-10-06,2023-10-06,フェローテックテクノロジーデベロップメントジャパン株式会社,,株式会社,東京都,中央区,日本橋２丁目３番４号,,13,102,1030027,,,,,,,2023-10-06,1,,,,,フェローテックテクノロジーデベロップメントジャパン,0
358,2010003041807,新規,0,2023-10-06,2023-10-06,合同会社きまぐれ,,合同会社,東京都,中央区,銀座１丁目１２番４号Ｎ＆ＥＢＬＤ．６Ｆ,,13,102,1040061,,,,,,,2023-10-06,1,,,,,キマグレ,0
359,2010003041831,新規,0,2023-10-06,2023-10-06,合同会社インタークリエイティブネットワーク,,合同会社,東京都,中央区,築地４丁目３番１２－９０３号,,13,102,1040045,,,,,,,2023-10-06,1,,,,,インタークリエイティブネットワーク,0
369,2010005037349,新規,0,2023-10-06,2023-10-06,一般社団法人すずらん,,その他の設立登記法人,東京都,中央区,八丁堀４丁目２番１０号ＡＯＪ税理士法人内,,13,102,1040032,,,,,,,2023-10-06,1,,,,,スズラン,0
378,2010401177509,新規,0,2023-10-06,2023-10-06,株式会社ＪＮカンパニー,,株式会社,東京都,港区,南青山２丁目２番１５号ウィン青山９４２,,13,103,1070062,,,,,,,2023-10-06,1,,,,,ジェイエヌカンパニー,0
379,2010401177566,新規,0,2023-10-06,2023-10-06,株式会社Ｋａｋｕｔｏ,,株式会社,東京都,港区,南青山２丁目２番１５号ＷｉｎＡｏｙａｍａビルＵＣＦ６３５,,13,103,1070062,,,,,,,2023-10-06,1,,,,,カクト,0
380,2010401177590,新規,0,2023-10-06,2023-10-06,株式会社クラスプロモート,,株式会社,東京都,港区,北青山１丁目３番１号アールキューブ青山３階,,13,103,1070061,,,,,,,2023-10-06,1,,,,,クラスプロモート,0
381,2010401177599,新規,0,2023-10-06,2023-10-06,Ｌｉｍ株式会社,,株式会社,東京都,港区,南青山２丁目２番１５号,,13,103,1070062,,,,,,,2023-10-06,1,,,,,リム,0
382,2010401177616,新規,0,2023-10-06,2023-10-06,パブリックタレントモビリティ株式会社,,株式会社,東京都,港区,赤坂２丁目２０番５号,,13,103,1070052,,,,,,,2023-10-06,1,,,,,パブリックタレントモビリティ,0
385,2010403031052,新規,0,2023-10-06,2023-10-06,合同会社健康長寿研究所,,合同会社,東京都,港区,芝５丁目１３番１１号,,13,103,1080014,,,,,,,2023-10-06,1,,,,,ケンコウチョウジュケンキュウショ,0
386,2010403031069,新規,0,2023-10-06,2023-10-06,合同会社ＨＡＧＩＹＡ,,合同会社,東京都,港区,芝２丁目３０番３号,,13,103,1050014,,,,,,,2023-10-06,1,,,,,ハギヤ,0
387,2010403031077,新規,0,2023-10-06,2023-10-06,合同会社Ｌ＆Ｃｏｎｓｕｌｔｉｎｇ,,合同会社,東京都,港区,南青山２丁目２番１５号ＷＩＮ青山５３１,,13,103,1070062,,,,,,,2023-10-06,1,,,,,エルアンドコンサルティング,0
394,2010601063896,新規,0,2023-10-06,2023-10-06,株式会社トラストリンク,,株式会社,東京都,江東区,東陽２丁目３番１－６１９号,,13,108,1350016,,,,,,,2023-10-06,1,,,,,トラストリンク,0
395,2010601063905,新規,0,2023-10-06,2023-10-06,株式会社カラリエ,,株式会社,東京都,墨田区,立川３丁目１番２号モリムラビル４階,,13,107,1300023,,,,,,,2023-10-06,1,,,,,カラリエ,0
396,2010601063913,新規,0,2023-10-06,2023-10-06,株式会社ＭＩＤＧＡＲＤ,,株式会社,東京都,墨田区,立川３丁目９番８－１１０４号,,13,107,1300023,,,,,,,2023-10-06,1,,,,,ミッドガルド,0
400,2010901053944,新規,0,2023-10-06,2023-10-06,株式会社Ｓ＆Ｔコンサルティング,,株式会社,東京都,世田谷区,等々力３丁目２９番１８号,,13,112,1580082,,,,,,,2023-10-06,1,,,,,エスアンドティーコンサルティング,0
401,2010901053952,新規,0,2023-10-06,2023-10-06,株式会社まるせん,,株式会社,東京都,世田谷区,等々力７丁目２１番１１号,,13,112,1580082,,,,,,,2023-10-06,1,,,,,マルセン,0
402,2010901053960,新規,0,2023-10-06,2023-10-06,株式会社アスハＰＰ,,株式会社,東京都,世田谷区,松原３丁目２５番２０号,,13,112,1560043,,,,,,,2023-10-06,1,,,,,アスハピーピー,0
406,2011001157339,新規,0,2023-10-06,2023-10-06,ｆｒｏｍＴＯＫＹＯ株式会社,,株式会社,東京都,渋谷区,恵比寿西２丁目１９番９号フランセスビル２Ｆ,,13,113,1500021,,,,,,,2023-10-06,1,,,,,フロムトウキョウ,0
407,2011001157347,新規,0,2023-10-06,2023-10-06,株式会社Ｓｕｎ＆Ｓｏｕｎｄ　Ｃｏｎｓｕｌｔｉｎｇ,,株式会社,東京都,渋谷区,南平台町１６－２８Ｄａｉｗａ渋谷スクエア６階,,13,113,1500036,,,,,,,2023-10-06,1,,,,,サンアンドサウンドコンサルティング,0
408,2011001157413,新規,0,2023-10-06,2023-10-06,株式会社ＫＡＳＫ　ＰＬＡＮＮＩＮＧ,,株式会社,東京都,渋谷区,鉢山町９番１８号,,13,113,1500035,,,,,,,2023-10-06,1,,,,,キャスクプランニング,0
409,2011001157446,新規,0,2023-10-06,2023-10-06,ＲｅＢＯＲＮＧＲＯＵＰ株式会社,,株式会社,東京都,渋谷区,神宮前６丁目２３番４号桑野ビル２階,,13,113,1500001,,,,,,,2023-10-06,1,,,,,リボーングループ,0
413,2011003017656,新規,0,2023-10-06,2023-10-06,合同会社匠進,,合同会社,東京都,目黒区,青葉台１丁目２５番１０号バウ青葉台１階,,13,110,1530042,,,,,,,2023-10-06,1,,,,,ショウジン,0
425,2011401025509,新規,0,2023-10-06,2023-10-06,株式会社五工,,株式会社,東京都,板橋区,西台１丁目５０番１３－３０１号,,13,119,1740045,,,,,,,2023-10-06,1,,,,,ゴコウ,0
434,2012401041058,新規,0,2023-10-06,2023-10-06,株式会社フロンツ,,株式会社,東京都,調布市,国領町６丁目３１番地６－１０１,,13,208,1820022,,,,,,,2023-10-06,1,,,,,フロンツ,0
435,2012701017872,新規,0,2023-10-06,2023-10-06,株式会社いのり,,株式会社,東京都,小平市,花小金井４丁目３３－３ウィングヒルズ花小金井１０１,,13,211,1870002,,,,,,,2023-10-06,1,,,,,イノリ,0
437,2012803003201,新規,0,2023-10-06,2023-10-06,ビーサンカンパニー合同会社,,合同会社,東京都,立川市,富士見町１丁目３５―１３―１２１３,,13,202,1900013,,,,,,,2023-10-06,1,,,,,ビーサンカンパニー,0
438,2012805003232,新規,0,2023-10-06,2023-10-06,一般社団法人Ｓｅｅｄｓ,,その他の設立登記法人,東京都,国分寺市,本町３丁目７－２３第３小柳コーポ３１５,,13,214,1850012,,,,,,,2023-10-06,1,,,,,シーズ,0
439,2013103001267,新規,0,2023-10-06,2023-10-06,ＧＦＰ合同会社,,合同会社,東京都,福生市,武蔵野台１丁目２２番地７３,,13,218,1970013,,,,,,,2023-10-06,1,,,,,ジーエフピー,0
440,2013301051444,新規,0,2023-10-06,2023-10-06,エコアラホールディングス株式会社,,株式会社,東京都,豊島区,南大塚２丁目２５番１５号,,13,116,1700005,,,,,,,2023-10-06,1,,,,,エコアラホールディングス,0
446,2020001153768,新規,0,2023-10-06,2023-10-06,株式会社Ｈ＆Ｓ,,株式会社,神奈川県,横浜市青葉区,美しが丘１丁目１１番地１１－１０２,,14,117,2250002,,,,,,,2023-10-06,1,,,,,エイチアンドエス,0
447,2020001153826,新規,0,2023-10-06,2023-10-06,株式会社ケーズガーデン,,株式会社,神奈川県,横浜市青葉区,榎が丘４４番地１７,,14,117,2270063,,,,,,,2023-10-06,1,,,,,ケーズガーデン,0
448,2020001153850,新規,0,2023-10-06,2023-10-06,株式会社Ａ‐Ｒｅｖｉｖｅ,,株式会社,神奈川県,横浜市青葉区,梅が丘２０番地２８,,14,117,2270052,,,,,,,2023-10-06,1,,,,,エースリバイブ,0
454,2020003024711,新規,0,2023-10-06,2023-10-06,合同会社ＯＫＫＩ,,合同会社,神奈川県,横浜市戸塚区,小雀町２７６,,14,110,2440004,,,,,,,2023-10-06,1,,,,,オーケイケイアイ,0
457,2021001080341,新規,0,2023-10-06,2023-10-06,株式会社Ａｒｔ　ｆｏｒ　ｉｎｑｕｉｒｙ,,株式会社,神奈川県,小田原市,酒匂５丁目１８番８号,,14,206,2560816,,,,,,,2023-10-06,1,,,,,アートフォーインクワイリー,0
460,2021003013638,新規,0,2023-10-06,2023-10-06,Ｃｏｒｒｅｔｔｏ合同会社,,合同会社,神奈川県,相模原市南区,若松１丁目２０－１０,,14,153,2520334,,,,,,,2023-10-06,1,,,,,コレット,0
470,2030001156349,新規,0,2023-10-06,2023-10-06,株式会社有原機工,,株式会社,埼玉県,志木市,下宗岡３丁目１番１１号アンベリール１棟２０１,,11,228,3530003,,,,,,,2023-10-06,1,,,,,アリハラキコウ,0
471,2030001156365,新規,0,2023-10-06,2023-10-06,ドレミングサービス株式会社,,株式会社,埼玉県,さいたま市見沼区,大字南中野３０２９－３,,11,104,3370042,,,,,,,2023-10-06,1,,,,,ドレミングサービス,0
472,2030001156497,新規,0,2023-10-06,2023-10-06,株式会社ＳＭＣ,,株式会社,埼玉県,さいたま市北区,東大成町１丁目２５６番地１,,11,102,3310814,,,,,,,2023-10-06,1,,,,,エスエムシー,0
473,2030001156522,新規,0,2023-10-06,2023-10-06,株式会社ソライエ,,株式会社,埼玉県,さいたま市西区,大字指扇１７１７番地ＰＲＥＭＩＵＭ１０３,,11,101,3310047,,,,,,,2023-10-06,1,,,,,ソライエ,0
475,2040001130328,新規,0,2023-10-06,2023-10-06,株式会社おそうじスミー,,株式会社,千葉県,柏市,中央町５番１６号穂高第２ブラザーズ柏２０３号室,,12,217,2770021,,,,,,,2023-10-06,1,,,,,オソウジスミー,0
476,2040001130344,新規,0,2023-10-06,2023-10-06,株式会社建正,,株式会社,千葉県,野田市,桜の里３丁目３３番地の１９,,12,208,2780048,,,,,,,2023-10-06,1,,,,,ケンショウ,0
477,2040001130369,新規,0,2023-10-06,2023-10-06,ＷＯＲＫ　ＯＮ株式会社,,株式会社,千葉県,八千代市,八千代台東３丁目２２番２－１０１号,,12,221,2760032,,,,,,,2023-10-06,1,,,,,ワークオン,0
480,2040003023463,新規,0,2023-10-06,2023-10-06,合同会社タイヨウ設備,,合同会社,千葉県,流山市,大字東深井４５１番地の２０９,,12,220,2700101,,,,,,,2023-10-06,1,,,,,タイヨウセツビ,0
481,2050001053577,新規,0,2023-10-06,2023-10-06,ソウケン株式会社,,株式会社,茨城県,土浦市,西並木町２８９３番地８,,08,203,3000068,,,,,,,2023-10-06,1,,,,,ソウケン,0
482,2050001053585,新規,0,2023-10-06,2023-10-06,株式会社荒川工業,,株式会社,茨城県,下妻市,下妻戊８３番地１,,08,210,3040062,,,,,,,2023-10-06,1,,,,,アラカワコウギョウ,0
485,2050003007812,新規,0,2023-10-06,2023-10-06,イントラストホーム合同会社,,合同会社,茨城県,神栖市,石神１４３０－３,,08,232,3140124,,,,,,,2023-10-06,1,,,,,イントラストホーム,0
486,2050003007837,新規,0,2023-10-06,2023-10-06,合同会社Ｆｅｅｌ,,合同会社,茨城県,古河市,釈迦１８７８番地１－Ｂ,,08,204,3060222,,,,,,,2023-10-06,1,,,,,フィール,0
487,2060001036408,新規,0,2023-10-06,2023-10-06,株式会社中川,,株式会社,栃木県,鹿沼市,西茂呂４丁目１３番地１,,09,205,3220029,,,,,,,2023-10-06,1,,,,,ナカガワ,0
490,2070001040937,新規,0,2023-10-06,2023-10-06,株式会社イロハ建設,,株式会社,群馬県,渋川市,石原１２７９番地１,,10,208,3770007,,,,,,,2023-10-06,1,,,,,イロハケンセツ,0
494,2090001018345,新規,0,2023-10-06,2023-10-06,ａｎｉｍｏ株式会社,,株式会社,山梨県,北杜市,小淵沢町字篠原３３３２番１２３９,,19,209,4080044,,,,,,,2023-10-06,1,,,,,アニモ,0
495,2090001018353,新規,0,2023-10-06,2023-10-06,株式会社ＫＭＲ,,株式会社,山梨県,甲府市,住吉２丁目６番１７号,,19,201,4000851,,,,,,,2023-10-06,1,,,,,ケーエムアール,0
497,2100001036832,新規,0,2023-10-06,2023-10-06,登玉加工株式会社,,株式会社,長野県,木曽郡大桑村,大字須原９８２番地６４,,20,430,3995502,,,,,,,2023-10-06,1,,,,,ノボリタマカコウ,0
498,2100001036857,新規,0,2023-10-06,2023-10-06,株式会社ＯＮＥ　ｓｔｙｌｅ,,株式会社,長野県,諏訪市,大字中洲２８７６番地１３,,20,206,3920015,,,,,,,2023-10-06,1,,,,,ワンスタイル,0
499,2100003007212,新規,0,2023-10-06,2023-10-06,合同会社つなぐやＴＮＤ,,合同会社,長野県,下伊那郡豊丘村,大字河野８２１３番地１,,20,416,3993201,,,,,,,2023-10-06,1,,,,,ツナグヤティエヌディ,0
500,2110001037887,新規,0,2023-10-06,2023-10-06,株式会社デントエックス,,株式会社,新潟県,新潟市西区,五十嵐２の町８０５０番地,,15,107,9502102,,,,,,,2023-10-06,1,,,,,デントエックス,0
504,2110005017002,新規,0,2023-10-06,2023-10-06,特定非営利活動法人おうちフリースクールＷＡＫＡＭＥ新潟,,その他の設立登記法人,新潟県,新潟市西区,内野町１１０８カナルハウスＩＩ２０２,00132158,15,107,9502112,,,,,,,2023-10-06,1,,,,,オウチフリースクールワカメニイガタ,0
512,2120001258565,新規,0,2023-10-06,2023-10-06,永安商業株式会社,,株式会社,大阪府,大阪市中央区,西心斎橋２丁目１２番２２－６１９号室,,27,128,5420086,,,,,,,2023-10-06,1,,,,,エイアンショウギョウ,0
513,2120001258573,新規,0,2023-10-06,2023-10-06,碧贏株式会社,,株式会社,大阪府,大阪市東成区,深江北３丁目４番２１号エクラ深江橋７１２Ｂ,,27,115,5370001,,,,,,,2023-10-06,1,,,,,ビエイ,0
514,2120001258581,新規,0,2023-10-06,2023-10-06,株式会社Ａｃｏｃｏ．,,株式会社,大阪府,大阪市中央区,船越町２丁目２番６号,,27,128,5400036,,,,,,,2023-10-06,1,,,,,アココ,0
515,2120001258631,新規,0,2023-10-06,2023-10-06,株式会社山之,,株式会社,大阪府,大阪市中央区,南船場１丁目１４番３号ＴＫプラザ７階,,27,128,5420081,,,,,,,2023-10-06,1,,,,,ヤマユキ,0
516,2120001258706,新規,0,2023-10-06,2023-10-06,Ｂｒｉｇｈｔ　ＴＭＲ株式会社,,株式会社,大阪府,大阪市西区,京町堀３丁目１番３－６０５号,,27,106,5500003,,,,,,,2023-10-06,1,,,,,ブライトトゥモロー,0
532,2120901048124,新規,0,2023-10-06,2023-10-06,株式会社メイクイースト,,株式会社,大阪府,池田市,天神２丁目８－１６,,27,204,5630031,,,,,,,2023-10-06,1,,,,,メイクイースト,0
536,2122001037445,新規,0,2023-10-06,2023-10-06,株式会社Ｌｉｐｒｏ,,株式会社,大阪府,東大阪市,新家西町９番９号,,27,227,5770028,,,,,,,2023-10-06,1,,,,,リプロ,0
542,2130001075373,新規,0,2023-10-06,2023-10-06,株式会社Ｉ．Ｌ．Ｕ,,株式会社,京都府,京都市伏見区,横大路朱雀５－４６－１,,26,109,6128292,,,,,,,2023-10-06,1,,,,,アイエルユー,0
547,2140001131902,新規,0,2023-10-06,2023-10-06,Ｍａｃｍｉｎｏｌ株式会社,,株式会社,兵庫県,明石市,大久保町ゆりのき通２丁目３番地の５、１－７０３号,,28,203,6740068,,,,,,,2023-10-06,1,,,,,マクミノル,0
548,2140001131910,新規,0,2023-10-06,2023-10-06,株式会社ともに,,株式会社,兵庫県,尼崎市,大西町３丁目５番２１号,,28,202,6610023,,,,,,,2023-10-06,1,,,,,トモニ,0
550,2140003019617,新規,0,2023-10-06,2023-10-06,合同会社井口屋,,合同会社,兵庫県,赤穂郡上郡町,山野里２１６２－３,,28,481,6781241,,,,,,,2023-10-06,1,,,,,イグチヤ,0
551,2140003019633,新規,0,2023-10-06,2023-10-06,合同会社青雲,,合同会社,兵庫県,神戸市灘区,城内通２丁目１番６－２０８号,,28,102,6570836,,,,,,,2023-10-06,1,,,,,,0
553,2150001026779,新規,0,2023-10-06,2023-10-06,株式会社ＹＡＹアセット,,株式会社,奈良県,生駒市,有里町４３番地１,,29,209,6300233,,,,,,,2023-10-06,1,,,,,ワイエーワイアセット,0
561,2180001158264,新規,0,2023-10-06,2023-10-06,株式会社エレアス,,株式会社,愛知県,小牧市,大字小牧原新田１２０７番地１,,23,219,4850012,,,,,,,2023-10-06,1,,,,,エレアス,0
562,2180001158347,新規,0,2023-10-06,2023-10-06,株式会社Ｇキャスト,,株式会社,愛知県,名古屋市中区,栄４丁目１５番１４号栄ハイム８０１,,23,106,4600008,,,,,,,2023-10-06,1,,,,,ジー,0
571,2180005020379,新規,0,2023-10-06,2023-10-06,一般社団法人日本乾癬学会,,その他の設立登記法人,愛知県,名古屋市瑞穂区,瑞穂町字川澄１番地,,23,108,4670001,,,,,,,2023-10-06,1,,,,,ニホンカンセンガッカイ,0
572,2180301037886,新規,0,2023-10-06,2023-10-06,株式会社三遠特殊自動車,,株式会社,愛知県,豊橋市,野田町字野田１０番地２プランドール野田２０６,,23,201,4418001,,,,,,,2023-10-06,1,,,,,サンエントクシュジドウシャ,0
573,2180303005858,新規,0,2023-10-06,2023-10-06,合同会社ひかり,,合同会社,愛知県,豊橋市,大井町５６番地,,23,201,4400826,,,,,,,2023-10-06,1,,,,,ヒカリ,0
581,2200001041764,新規,0,2023-10-06,2023-10-06,さくら株式会社,,株式会社,岐阜県,岐阜市,大洞柏台１丁目３番地１７,,21,201,5013123,,,,,,,2023-10-06,1,,,,,サクラ,0
584,2210003001708,新規,0,2023-10-06,2023-10-06,合同会社ＳＰＹＧＬＡＳＳ,,合同会社,福井県,坂井市,春江町高江第２８号１９番地１,,18,210,9190479,,,,,,,2023-10-06,1,,,,,スパイグラス,0
587,2230005009342,新規,0,2023-10-06,2023-10-06,行政書士法人アスク事務所,,その他の設立登記法人,富山県,富山市,新庄町９７番地３,,16,201,9300992,,,,,,,2023-10-06,1,,,,,アスクジムショ,0
588,2240001062229,新規,0,2023-10-06,2023-10-06,株式会社龍伸,,株式会社,広島県,安芸郡熊野町,萩原２丁目１６番１７号,,34,307,7314213,,,,,,,2023-10-06,1,,,,,リュウシン,0
589,2240001062237,新規,0,2023-10-06,2023-10-06,ドリーム＆Ｄｒｅａｍ株式会社,,株式会社,広島県,広島市中区,十日市町１丁目１番１８－８０３号,,34,101,7300805,,,,,,,2023-10-06,1,,,,,ドリームアンドドリーム,0
599,2280003001775,新規,0,2023-10-06,2023-10-06,合同会社河原自動車,,合同会社,島根県,出雲市,園町９３０番地,,32,203,6910076,,,,,,,2023-10-06,1,,,,,ゴウバラジドウシャ,0
604,2290001103218,新規,0,2023-10-06,2023-10-06,株式会社ミートスマイル,,株式会社,福岡県,福岡市博多区,千代３丁目１９番１－１５９号,,40,132,8120044,,,,,,,2023-10-06,1,,,,,ミートスマイル,0
605,2290001103242,新規,0,2023-10-06,2023-10-06,株式会社泰栄工業,,株式会社,福岡県,福岡市早良区,田隈３丁目１７番１４号,,40,137,8140174,,,,,,,2023-10-06,1,,,,,タイエイコウギョウ,0
606,2290001103275,新規,0,2023-10-06,2023-10-06,株式会社Ｙ’ｓ建匠,,株式会社,福岡県,久留米市,安武町安武本５１４番５,,40,203,8300072,,,,,,,2023-10-06,1,,,,,ワイズケンショウ,0
607,2290001103283,新規,0,2023-10-06,2023-10-06,株式会社ゆたラボ,,株式会社,福岡県,筑紫野市,針摺中央２丁目１２－６,,40,217,8180083,,,,,,,2023-10-06,1,,,,,ユタラボ,0
609,2290005019170,新規,0,2023-10-06,2023-10-06,一般社団法人はるグループ,,その他の設立登記法人,福岡県,八女市,柳島３３１番地１,,40,210,8340022,,,,,,,2023-10-06,1,,,,,ハルグループ,0
622,2360003013358,新規,0,2023-10-06,2023-10-06,合同会社ＭＯＪ,,合同会社,沖縄県,石垣市,字野底１０８６番地１４,,47,207,9070333,,,,,,,2023-10-06,1,,,,,エムオージェイ,0
627,2400003003156,新規,0,2023-10-06,2023-10-06,合同会社ＡｐｅｒｏＬＡＢＯ,,合同会社,岩手県,盛岡市,前九年２丁目５番３号,,03,201,0200127,,,,,,,2023-10-06,1,,,,,アペロラボ,0
630,2430001090094,新規,0,2023-10-06,2023-10-06,株式会社ＴＯＷＮ　ＣＯＮＳＴＲＵＣＴＩＯＮ,,株式会社,北海道,札幌市白石区,北郷九条７丁目１番２０号,,01,104,0030839,,,,,,,2023-10-06,1,,,,,タウンコンストラクション,0
631,2430001090103,新規,0,2023-10-06,2023-10-06,株式会社エイチエス,,株式会社,北海道,札幌市東区,北四十六条東７丁目５番２３－３０２号,,01,103,0070846,,,,,,,2023-10-06,1,,,,,エイチエス,0
632,2430001090128,新規,0,2023-10-06,2023-10-06,株式会社ＳＷＥＥＴＳ,,株式会社,北海道,札幌市中央区,南一条西１６丁目１番地３２３春野ビル３Ｆ,,01,101,0600061,,,,,,,2023-10-06,1,,,,,スウィーツ,0
637,2430003015495,新規,0,2023-10-06,2023-10-06,合同会社クズノハ,,合同会社,北海道,札幌市白石区,栄通２丁目４番５－４０２号,,01,104,0030021,,,,,,,2023-10-06,1,,,,,クズノハ,0
644,2470003002498,新規,0,2023-10-06,2023-10-06,合同会社２７ＰＲＯ,,合同会社,香川県,善通寺市,吉原町５５４番地５,,37,204,7650061,,,,,,,2023-10-06,1,,,,,ニジュウナナプロ,0
653,2700150120450,新規,0,2023-10-06,2023-09-15,石西地域家畜処理運営協議会,,その他,島根県,益田市,乙吉町イ５９８－１,,32,204,6980003,,,,,,,2023-09-15,1,,,,,セキセイチイキカチクシヨリウンエイキヨウギカイ,0
654,2700150121093,新規,0,2023-10-06,2023-10-06,Ｍｉａｎｙａｎｇ　Ｙｉ　Ｈａｎｇ　Ｗａｎｇ　Ｌｕｏ　Ｋｅ　Ｊｉ　Ｙｏｕ　Ｘｉａｎ　Ｇｏｎｇ　Ｓｉ,,外国会社等,,,,,,,,ＳＩＣＨＵＡＮ　ＭＩＡＮＹＡＮＧ　ＪＩＮＧＫＡＩ　ＱＵ　ＪＩＡＪＩＡＤＩＡＮ　ＪＩＥ　８９　ＨＡＯ,,,,,,2023-10-06,1,,,,,ミエンヤンイーハンワンルオコージーヨウシエンゴンスー,0
655,2700150121102,新規,0,2023-10-06,2023-10-06,Ｘｉａｍｅｎ　Ｖｏｄｅｒ　Ｔｒａｄｅ　Ｃｏｍｐａｎｙ,,外国会社等,,,,,,,,７６　Ｓｏｕｔｈ　Ｈｕｂｉｎ　Ｒｏａｄ，Ｂｕｙｎｏｗ　Ｔｅｃｈｎｏｌｏｇｙ　Ｂｕｉｌｄｉｎｇ　Ｒｏｏｍ　１９０３，Ｓｉｍｉｎｇ　Ｄｉｓｔｒｉｃｔ，ＸｌＡＭＥＮ,,,,,,2023-10-06,1,,,,,シャーメンウオダーフォンマオイーヨウシエンゴンスー,0
656,2700150121110,新規,0,2023-10-06,2023-10-06,ＷＡＬＬＡＲＭ，ＩＮＣ．,,外国会社等,東京都,渋谷区,道玄坂１丁目１０番８号渋谷道玄坂東急ビル２Ｆ－Ｃ,,13,113,1500043,アメリカ合衆国デラウェア州ウィルミントン、ノース・マーケット・ストリート９１９、スイート９５０,,,,,,2023-10-06,1,,,,,ウォールアームインコーポレーテッド,0
672,3010001238924,新規,0,2023-10-06,2023-10-06,桀碩デジタル健康株式会社,,株式会社,東京都,千代田区,丸の内３丁目２番２号丸の内二重橋ビル２階,,13,101,1000005,,,,,,,2023-10-06,1,,,,,ケツセキデジタルケンコウ,0
673,3010001238998,新規,0,2023-10-06,2023-10-06,株式会社ロング・グッド,,株式会社,東京都,千代田区,神田三崎町２丁目１７番９号ＳＮＴ水道橋ビル,,13,101,1010061,,,,,,,2023-10-06,1,,,,,ロンググッド,0
674,3010001239014,新規,0,2023-10-06,2023-10-06,株式会社アンビックスコンサルタンツ,,株式会社,東京都,千代田区,丸の内１丁目１１番１号パシフィックセンチュリープレイス８階,,13,101,1000005,,,,,,,2023-10-06,1,,,,,アンビックスコンサルタンツ,0
675,3010001239047,新規,0,2023-10-06,2023-10-06,株式会社ＨｉＲＡＫＵ,,株式会社,東京都,文京区,向丘２丁目３番１０号,,13,105,1130023,,,,,,,2023-10-06,1,,,,,ヒラク,0
678,3010003041847,新規,0,2023-10-06,2023-10-06,ａｌｂａ合同会社,,合同会社,東京都,中央区,銀座１丁目２１番２号ギンザヨシダビルＩＩ３階,00132162,13,102,1040061,,,,,,,2023-10-06,1,,,,,アルバ,0
679,3010003041855,新規,0,2023-10-06,2023-10-06,ＭＵＧＥＮ　ＬＩＮＫＳ合同会社,,合同会社,東京都,中央区,銀座１丁目１２番４号Ｎ＆ＥＢＬＤ．７階,,13,102,1040061,,,,,,,2023-10-06,1,,,,,ムゲンリンクス,0
689,3010401177549,新規,0,2023-10-06,2023-10-06,株式会社アースプレイズ,,株式会社,東京都,港区,芝浦１丁目１５番７号２０４,,13,103,1050023,,,,,,,2023-10-06,1,,,,,アースプレイズ,0
690,3010401177557,新規,0,2023-10-06,2023-10-06,ｌｉｂｅｒｔｙ株式会社,,株式会社,東京都,港区,新橋３丁目１１－８オーイズミ新橋第２ビル５０５,,13,103,1050004,,,,,,,2023-10-06,1,,,,,リバティ,0
691,3010401177565,新規,0,2023-10-06,2023-10-06,株式会社グッドライフラボ,,株式会社,東京都,港区,六本木７丁目７－７ＴＲＩ－ＳＥＶＥＮＲＯＰＰＯＮＧＩ８Ｆ,,13,103,1060032,,,,,,,2023-10-06,1,,,,,グッドライフラボ,0
693,3010403031076,新規,0,2023-10-06,2023-10-06,二刀流コンサルティング合同会社,,合同会社,東京都,港区,北青山１丁目３番１号アールキューブ青山３階,,13,103,1070061,,,,,,,2023-10-06,1,,,,,ニトウリュウコンサルティング,0
696,3010601063870,新規,0,2023-10-06,2023-10-06,株式会社Ｓ‐Ｃｕｂｅ,,株式会社,東京都,墨田区,文花２丁目３－２,,13,107,1310044,,,,,,,2023-10-06,1,,,,,エスキューブ,0
697,3010601063904,新規,0,2023-10-06,2023-10-06,Ｌａｓｅｒ　Ｄｉｇｉｔａｌ　Ｊａｐａｎ株式会社,,株式会社,東京都,江東区,豊洲２丁目２番１号豊洲ベイサイドクロスタワー,,13,108,1350061,,,,,,,2023-10-06,1,,,,,レーザーデジタルジャパン,0
698,3010603010400,新規,0,2023-10-06,2023-10-06,合同会社Ａｉ＆Ｙｕ,,合同会社,東京都,江東区,豊洲４丁目９番１３－１２５号,,13,108,1350061,,,,,,,2023-10-06,1,,,,,アイアンドユー,0
699,3010603010409,新規,0,2023-10-06,2023-10-06,合同会社トルチェ,,合同会社,東京都,江東区,亀戸６丁目６０－４,,13,108,1360071,,,,,,,2023-10-06,1,,,,,トルチェ,0
703,3010701044928,新規,0,2023-10-06,2023-10-06,株式会社百榮,,株式会社,東京都,品川区,中延６丁目６番２号,,13,109,1420053,,,,,,,2023-10-06,1,,,,,ヒャクエイ,0
708,3011001157420,新規,0,2023-10-06,2023-10-06,株式会社Ｎｕｌｌｅｉｎｓ,,株式会社,東京都,渋谷区,東２丁目９番６－３０３号,,13,113,1500011,,,,,,,2023-10-06,1,,,,,ヌルアインツ,0
715,3011101104628,新規,0,2023-10-06,2023-10-06,株式会社ａｒ,,株式会社,東京都,新宿区,新宿３丁目３２番５号日原ビル２Ｆ,,13,104,1600022,,,,,,,2023-10-06,1,,,,,アール,0
720,3011303004923,新規,0,2023-10-06,2023-10-06,ａｍａｎａ合同会社,,合同会社,東京都,杉並区,成田東５丁目１７番１５号コート・イシハラ７０２,,13,115,1660015,,,,,,,2023-10-06,1,,,,,アマナ,0
725,3011401025499,新規,0,2023-10-06,2023-10-06,株式会社北林製作所,,株式会社,東京都,板橋区,常盤台３丁目１５番１３号,,13,119,1740071,,,,,,,2023-10-06,1,,,,,キタバヤシセイサクショ,0
726,3011401025508,新規,0,2023-10-06,2023-10-06,株式会社ＡＯＩ,,株式会社,東京都,板橋区,中台１丁目２１番３－１０６号,,13,119,1740064,,,,,,,2023-10-06,1,,,,,アオイ,0
729,3011601027171,新規,0,2023-10-06,2023-10-06,株式会社リンクマン,,株式会社,東京都,練馬区,大泉町３丁目３８番１９号,,13,120,1780062,,,,,,,2023-10-06,1,,,,,リンクマン,0
731,3011801043142,新規,0,2023-10-06,2023-10-06,株式会社ＴＫ　ｆａｃｔｏｒｙ,,株式会社,東京都,足立区,保木間４丁目８番７号１０５,,13,121,1210064,,,,,,,2023-10-06,1,,,,,ティーケーファクトリー,0
736,3012401041057,新規,0,2023-10-06,2023-10-06,株式会社竜の史美,,株式会社,東京都,狛江市,岩戸南２丁目２２番５号,,13,219,2010005,,,,,,,2023-10-06,1,,,,,リュウノヒトミ,0
737,3012401041073,新規,0,2023-10-06,2023-10-06,株式会社ｇｒｅｅｎ　ｍｏｌｅ,,株式会社,東京都,稲城市,若葉台３丁目１番地の１若葉台ワルツの杜Ｂ棟１４０９号室,,13,225,2060824,,,,,,,2023-10-06,1,,,,,グリーンモール,0
741,3012801022672,新規,0,2023-10-06,2023-10-06,東京西シャッター住建工業株式会社,,株式会社,東京都,立川市,一番町１丁目６番地の１,,13,202,1900033,,,,,,,2023-10-06,1,,,,,トウキョウニシシャッタージュウケンコウギョウ,0
742,3012801022680,新規,0,2023-10-06,2023-10-06,セツビカンリ株式会社,,株式会社,東京都,立川市,砂川町６丁目２５番地の３３,,13,202,1900031,,,,,,,2023-10-06,1,,,,,セツビカンリ,0
749,3013301051435,新規,0,2023-10-06,2023-10-06,株式会社オフィスカズ,,株式会社,東京都,豊島区,要町３丁目８番４号,,13,116,1710043,,,,,,,2023-10-06,1,,,,,オフィスカズ,0
750,3020001153767,新規,0,2023-10-06,2023-10-06,株式会社こぺお,,株式会社,神奈川県,横浜市港北区,師岡町４２３番地,,14,109,2220002,,,,,,,2023-10-06,1,,,,,コペオ,0
763,3030001156249,新規,0,2023-10-06,2023-10-06,株式会社ＳＫハウス,,株式会社,埼玉県,川口市,坂下町３丁目５番１２号１Ｆ,,11,203,3340003,,,,,,,2023-10-06,1,,,,,エスケイハウス,0
764,3030001156521,新規,0,2023-10-06,2023-10-06,株式会社Ｖａｒｉｏｕｓ,,株式会社,埼玉県,入間郡三芳町,大字北永井８９３番地１５,,11,324,3540044,,,,,,,2023-10-06,1,,,,,ヴァリアス,0
770,3030003022688,新規,0,2023-10-06,2023-10-06,Ｉｎ　Ｔｈｅ　Ｆｌｏｗ合同会社,,合同会社,埼玉県,川口市,桜町２丁目９－８,,11,203,3340001,,,,,,,2023-10-06,1,,,,,インザフロウ,0
771,3030005021424,新規,0,2023-10-06,2023-10-06,医療法人社団ライヴィス,,その他の設立登記法人,埼玉県,ふじみ野市,上福岡１丁目７番５号,,11,245,3560004,,,,,,,2023-10-06,1,,,,,ライヴィス,0
777,3040001130343,新規,0,2023-10-06,2023-10-06,株式会社ＫＭＳ,,株式会社,千葉県,松戸市,上本郷９０４番地の１ウィング北松戸２０１号,,12,207,2710064,,,,,,,2023-10-06,1,,,,,ケイエムエス,0
778,3040001130351,新規,0,2023-10-06,2023-10-06,清水物産富士酒家株式会社,,株式会社,千葉県,香取市,扇島１２２３番地８,,12,236,2870801,,,,,,,2023-10-06,1,,,,,シミズブッサンフジシュカ,0
779,3040001130368,新規,0,2023-10-06,2023-10-06,株式会社カナデン,,株式会社,千葉県,野田市,みずき１丁目１４番地の８３,,12,208,2780027,,,,,,,2023-10-06,1,,,,,カナデン,0
780,3040003023479,新規,0,2023-10-06,2023-10-06,合同会社ウォルト,,合同会社,千葉県,柏市,酒井根６丁目１０番１３号,,12,217,2770053,,,,,,,2023-10-06,1,,,,,ウォルト,0
788,3070001040928,新規,0,2023-10-06,2023-10-06,株式会社ＷｏＬ　Ｒｅｎｏｖａｔｉｏｎ,,株式会社,群馬県,伊勢崎市,宮子町３６０２番地１,,10,204,3720801,,,,,,,2023-10-06,1,,,,,ウォルリノベーション,0
789,3070001040936,新規,0,2023-10-06,2023-10-06,ＫＢＳ株式会社,,株式会社,群馬県,安中市,磯部３丁目４－１６,,10,211,3790127,,,,,,,2023-10-06,1,,,,,,0
791,3080001025878,新規,0,2023-10-06,2023-10-06,ＡＳＬＥＡＰ株式会社,,株式会社,静岡県,静岡市葵区,両替町２丁目４番地の２０玄南ビル３Ｆ,,22,101,4200032,,,,,,,2023-10-06,1,,,,,アスリープ,0
794,3080005007575,新規,0,2023-10-06,2023-10-06,医療法人社団メディカルトード,,その他の設立登記法人,静岡県,静岡市駿河区,八幡４丁目７番２１号,,22,102,4228076,,,,,,,2023-10-06,1,,,,,メディカルトード,0
798,3080401026773,新規,0,2023-10-06,2023-10-06,株式会社ＰＲＯＳＰＥＥＤ,,株式会社,静岡県,浜松市中区,高丘西１丁目１番８号,,22,131,4338118,,,,,,,2023-10-06,1,,,,,プロスピード,0
801,3100001036831,新規,0,2023-10-06,2023-10-06,株式会社ＬＥＧＡＬＩＡ,,株式会社,長野県,岡谷市,長地御所１丁目８番３６－１号,,20,204,3940082,,,,,,,2023-10-06,1,,,,,レガリア,0
802,3100001036848,新規,0,2023-10-06,2023-10-06,株式会社貴建設,,株式会社,長野県,小諸市,大字御影新田２４２９番地５,,20,208,3840808,,,,,,,2023-10-06,1,,,,,タカケンセツ,0
808,3110003005172,新規,0,2023-10-06,2023-10-06,合同会社コントレイル,,合同会社,新潟県,長岡市,学校町３丁目５番１１号,,15,202,9400041,,,,,,,2023-10-06,1,,,,,コントレイル,0
817,3120001258531,新規,0,2023-10-06,2023-10-06,株式会社Ａｄ．Ｐｌａｃｅ,,株式会社,大阪府,大阪市平野区,長吉川辺１丁目北２番３４号,,27,126,5470014,,,,,,,2023-10-06,1,,,,,アドプレイス,0
818,3120001258564,新規,0,2023-10-06,2023-10-06,株式会社ｐｏｎ,,株式会社,大阪府,大阪市中央区,材木町２番３－１４０７号,,27,128,5400010,,,,,,,2023-10-06,1,,,,,ポン,0
819,3120001258671,新規,0,2023-10-06,2023-10-06,株式会社ＭＹＳ,,株式会社,大阪府,大阪市東成区,大今里西２丁目１番２９号ＭＡＳＴ長堀通ＩＩ２０１号,00132172,27,115,5370014,,,,,,,2023-10-06,1,,,,,マイス,0
823,3120003025046,新規,0,2023-10-06,2023-10-06,合同会社エコパワー５,,合同会社,大阪府,大阪市北区,梅田１丁目１番３号大阪駅前第３ビル３０階,,27,127,5300001,,,,,,,2023-10-06,1,,,,,エコパワーファイブ,0
824,3120003025087,新規,0,2023-10-06,2023-10-06,合同会社紀州工業,,合同会社,大阪府,大阪市淀川区,東三国５丁目７番２３号大城コーポ１０３号,,27,123,5320002,,,,,,,2023-10-06,1,,,,,キシュウコウギョウ,0
835,3120101068310,新規,0,2023-10-06,2023-10-06,潤記物産株式会社,,株式会社,大阪府,泉佐野市,鶴原１６０９番地,,27,213,5980071,,,,,,,2023-10-06,1,,,,,ジュンキブッサン,0
836,3120101068335,新規,0,2023-10-06,2023-10-06,ＦＲＥＥ　ＬＩＦＥ株式会社,,株式会社,大阪府,松原市,柴垣２丁目４番３０号Ａ１０１,,27,217,5800017,,,,,,,2023-10-06,1,,,,,フリーライフ,0
837,3120901048081,新規,0,2023-10-06,2023-10-06,株式会社ＢＡＲＲＥＬ,,株式会社,大阪府,高槻市,紫町３番１ジェイグラン高槻８０７号,,27,207,5691125,,,,,,,2023-10-06,1,,,,,バレル,0
838,3120901048115,新規,0,2023-10-06,2023-10-06,株式会社コネクト,,株式会社,大阪府,豊中市,刀根山元町３番３号,,27,203,5600044,,,,,,,2023-10-06,1,,,,,コネクト,0
841,3122001037444,新規,0,2023-10-06,2023-10-06,ティーレックス株式会社,,株式会社,大阪府,東大阪市,横小路町２丁目１番１７号,,27,227,5798063,,,,,,,2023-10-06,1,,,,,ティーレックス,0
846,3130001075372,新規,0,2023-10-06,2023-10-06,株式会社東日,,株式会社,京都府,長岡京市,久貝３丁目１番５号１０２,,26,209,6170837,,,,,,,2023-10-06,1,,,,,トウニチ,0
847,3130001075397,新規,0,2023-10-06,2023-10-06,株式会社京都フィナンシャルグループ,,株式会社,京都府,京都市下京区,烏丸通松原上る薬師前町７００番地,,26,106,6008416,,,,,,,2023-10-06,1,,,,,キョウトフィナンシャルグループ,0
848,3130001075406,新規,0,2023-10-06,2023-10-06,ＶＯＩＤ不動産株式会社,,株式会社,京都府,京都市左京区,新丸太町通仁王門下る新丸太町７０番地７,,26,103,6068386,,,,,,,2023-10-06,1,,,,,ヴォイドフドウサン,0
849,3130003009023,新規,0,2023-10-06,2023-10-06,合同会社メンタルヘルス西村企画,,合同会社,京都府,長岡京市,馬場見場走り１５番地１,,26,209,6170828,,,,,,,2023-10-06,1,,,,,メンタルヘルスニシムラキカク,0
853,3140001131892,新規,0,2023-10-06,2023-10-06,株式会社Ｐｉｘｅｌ,,株式会社,兵庫県,神戸市東灘区,御影中町１丁目３－１３,,28,101,6580054,,,,,,,2023-10-06,1,,,,,ピクセル,0
854,3140003019616,新規,0,2023-10-06,2023-10-06,Ｌｏｎ　Ｂｌａｃｋ合同会社,,合同会社,兵庫県,丹波篠山市,今田町下立杭３番地１５,,28,221,6692141,,,,,,,2023-10-06,1,,,,,ロンブラック,0
855,3140003019640,新規,0,2023-10-06,2023-10-06,合同会社クレール,,合同会社,兵庫県,神戸市垂水区,舞子台８丁目８番２号,,28,108,6550046,,,,,,,2023-10-06,1,,,,,クレール,0
870,3180001158288,新規,0,2023-10-06,2023-10-06,株式会社得力,,株式会社,愛知県,春日井市,鳥居松町４丁目６８番地シティ春日井ビル４階ＡＢ号室,,23,206,4860844,,,,,,,2023-10-06,1,,,,,トクリキ,0
871,3180001158354,新規,0,2023-10-06,2023-10-06,Ｒｕｍｂｌｅ株式会社,,株式会社,愛知県,名古屋市中区,栄３丁目８番１２０号杉本ビル６Ｆ,,23,106,4600008,,,,,,,2023-10-06,1,,,,,ランブル,0
877,3180303005857,新規,0,2023-10-06,2023-10-06,合同会社ステイル,,合同会社,愛知県,豊橋市,三本木町字新三本木５番地の１,,23,201,4418152,,,,,,,2023-10-06,1,,,,,ステイル,0
879,3190001030776,新規,0,2023-10-06,2023-10-06,株式会社ＭＫＮＹ,,株式会社,三重県,津市,羽所町３２９番地４,,24,201,5140009,,,,,,,2023-10-06,1,,,,,エムケイエヌワイ,0
880,3190001030784,新規,0,2023-10-06,2023-10-06,株式会社ＲＥＬＡＣＥ,,株式会社,三重県,四日市市,日永西３丁目４番１８号シュロス豊明１０１,,24,202,5100891,,,,,,,2023-10-06,1,,,,,リレイス,0
882,3190003004464,新規,0,2023-10-06,2023-10-06,合同会社Ｏ．Ｅ．Ｓ,,合同会社,三重県,松阪市,大津町１０４１番地５,,24,204,5150031,,,,,,,2023-10-06,1,,,,,オーイーエス,0
883,3190003004472,新規,0,2023-10-06,2023-10-06,Ｓｐｒｏｕｔｓ合同会社,,合同会社,三重県,桑名市,多度町下野代３１５０,,24,205,5110117,,,,,,,2023-10-06,1,,,,,スプラウツ,0
891,3210001019486,新規,0,2023-10-06,2023-10-06,株式会社ＡＲＴ　ＡＧＥホールディングス,,株式会社,福井県,坂井市,坂井町下新庄第１６号８番地,,18,210,9190521,,,,,,,2023-10-06,1,,,,,アートエイジホールディングス,0
892,3210003001707,新規,0,2023-10-06,2023-10-06,合同会社ＤＥＬＴＡ,,合同会社,福井県,福井市,和田東２丁目１５１３番地１０５号室,,18,201,9188237,,,,,,,2023-10-06,1,,,,,デルタ,0
898,3240001062194,新規,0,2023-10-06,2023-10-06,Ｘｌｉｂｅｒｕｍ株式会社,,株式会社,広島県,福山市,南本庄４丁目５番８－２０２号,,34,207,7200077,,,,,,,2023-10-06,1,,,,,エクスリベラム,0
913,3280003001774,新規,0,2023-10-06,2023-10-06,合同会社マイセルフ２１,,合同会社,島根県,出雲市,小山町７６７番地,,32,203,6930051,,,,,,,2023-10-06,1,,,,,マイセルフニジュウイチ,0
916,3290001103225,新規,0,2023-10-06,2023-10-06,株式会社Ｍｏｎｔ　Ｐｉｇｎｏｎ,,株式会社,福岡県,福岡市中央区,西中洲３番１号デルタウエスト２Ｆ－Ｂ,,40,133,8100002,,,,,,,2023-10-06,1,,,,,モンピニョン,0
917,3290001103258,新規,0,2023-10-06,2023-10-06,株式会社ｅサービス,,株式会社,福岡県,福岡市東区,筥松４丁目８番２２－４０７号,,40,131,8120061,,,,,,,2023-10-06,1,,,,,イーサービス,0
918,3290001103274,新規,0,2023-10-06,2023-10-06,株式会社フクラ,,株式会社,福岡県,糟屋郡志免町,志免中央２丁目２番３７号１Ｆ,,40,343,8112244,,,,,,,2023-10-06,1,,,,,フクラ,0
919,3290001103290,新規,0,2023-10-06,2023-10-06,株式会社ＥＭＩＦＵＬＬ,,株式会社,福岡県,福岡市城南区,田島１丁目４番４０号,,40,136,8140113,,,,,,,2023-10-06,1,,,,,エミフル,0
920,3290001103299,新規,0,2023-10-06,2023-10-06,株式会社ＭＥＶＩＡＳ,,株式会社,福岡県,糟屋郡宇美町,宇美東２丁目１５－５ミルキーウェイＡ棟３０３,,40,341,8112125,,,,,,,2023-10-06,1,,,,,メビアス,0
923,3300001013488,新規,0,2023-10-06,2023-10-06,株式会社ｔｏｐ,,株式会社,佐賀県,武雄市,武雄町大字武雄２０３２番地１,,41,206,8430022,,,,,,,2023-10-06,1,,,,,トップ,0
930,3330001031339,新規,0,2023-10-06,2023-10-06,ありがとうございます株式会社,,株式会社,熊本県,熊本市中央区,水前寺５丁目１２番１号,,43,101,8620950,,,,,,,2023-10-06,1,,,,,アリガトウゴザイマス,0
945,3370001050491,新規,0,2023-10-06,2023-10-06,木花株式会社,,株式会社,宮城県,仙台市泉区,実沢字二ノ関屋敷５,,04,105,9813217,,,,,,,2023-10-06,1,,,,,コノハナ,0
949,3380001034031,新規,0,2023-10-06,2023-10-06,ＩＺＵＭＩＳＵＮ・ＨＤ株式会社,,株式会社,福島県,いわき市,泉町５丁目１０番地の６,,07,204,9718185,,,,,,,2023-10-06,1,,,,,イズミサンホールディングス,0
956,3400003003155,新規,0,2023-10-06,2023-10-06,觸澤林業合同会社,,合同会社,岩手県,岩手郡葛巻町,田部字正路３８番地２,,03,302,0285401,,,,,,,2023-10-06,1,,,,,フレサワリンギョウ,0
962,3430001090135,新規,0,2023-10-06,2023-10-06,株式会社千田商事,,株式会社,北海道,白老郡白老町,高砂町２丁目１２番９号,,01,578,0590916,,,,,,,2023-10-06,1,,,,,チダショウジ,0
963,3430003015494,新規,0,2023-10-06,2023-10-06,合同会社介護サービスぷろけあ,,合同会社,北海道,勇払郡厚真町,字上厚真１９４番地の５,,01,581,0591741,,,,,,,2023-10-06,1,,,,,カイゴサービスプロケア,0
965,3450001014109,新規,0,2023-10-06,2023-10-06,株式会社ＮＡＣ,,株式会社,北海道,旭川市,神楽四条１３丁目８番９号,,01,204,0708004,,,,,,,2023-10-06,1,,,,,エヌエーシー,0
970,3480001012225,新規,0,2023-10-06,2023-10-06,Ｋｕｒｕｍｉ　Ｇｒｏｕｐ株式会社,,株式会社,徳島県,阿南市,横見町上木戸７番地１,,36,204,7740042,,,,,,,2023-10-06,1,,,,,クルミグループ,0
975,3700150121092,新規,0,2023-10-06,2023-10-06,ＳＨＡＮＧＨＡＩＴＡＯＨＥＭＡＯＹＩＹＯＵＸＩＡＮＧＯＮＧＳＩ,,外国会社等,,,,,,,,８１８８－８，Ｄａｙｅｇｏｎｇ　Ｒｄ，Ｆｅｎｇｘｉａｎ　Ｄｉｓｔｒｉｃｔ，Ｓｈａｎｇｈａｉ,,,,,,2023-10-06,1,,,,,シャーンハイタオホーァマオイーヨウシエンゴーンスー,0
976,3700150121101,新規,0,2023-10-06,2023-10-06,Ｓｉｄｅｒ　Ｔｒａｄｅ　Ｃｏ．，Ｌｉｍｉｔｅｄ,,外国会社等,,,,,,,,ｎｉｔ　１５０７Ｃ，１５／Ｆ．，Ｅａｓｔｃｏｒｅ，３９８　Ｋｗｕｎ　Ｔｏｎｇ　Ｒｏａｄ，Ｋｗｕｎ　Ｔｏｎｇ，Ｋｏｗｌｏｏｎ，Ｈｏｎｇ　Ｋｏｎｇ,,,,,,2023-10-06,1,,,,,サイダーシャンマオヨウシエンゴンスー,0
985,4010001238980,新規,0,2023-10-06,2023-10-06,株式会社ＣＯＤＡＴＵＭ,,株式会社,東京都,中央区,銀座６丁目１０番１号ＧＩＮＺＡＳＩＸ１０階,,13,102,1040061,,,,,,,2023-10-06,1,,,,,コダタム,0
986,4010001238989,新規,0,2023-10-06,2023-10-06,株式会社アシスト,,株式会社,東京都,中央区,日本橋箱崎町２７番９－５０６号,,13,102,1030015,,,,,,,2023-10-06,1,,,,,アシスト,0
987,4010001239054,新規,0,2023-10-06,2023-10-06,株式会社ＳＣＩＮＴＩＬＬＡＮＴ,,株式会社,東京都,千代田区,神田猿楽町２丁目５番２－２階,,13,101,1010064,,,,,,,2023-10-06,1,,,,,シンティヤン,0
989,4010003041838,新規,0,2023-10-06,2023-10-06,エスティファンドセブン合同会社,,合同会社,東京都,千代田区,丸の内３丁目１番１号東京共同会計事務所内,,13,101,1000005,,,,,,,2023-10-06,1,,,,,エスティファンドセブン,0
1000,4010401177498,新規,0,2023-10-06,2023-10-06,デジタルマーケティング探偵事務所株式会社,,株式会社,東京都,港区,浜松町２丁目２番１５号浜松町ダイヤビル２Ｆ,,13,103,1050013,,,,,,,2023-10-06,1,,,,,デジタルマーケティングタンテイジムショ,0
1001,4010401177507,新規,0,2023-10-06,2023-10-06,株式会社ＯＬＩ,,株式会社,東京都,港区,白金１丁目２－１－Ｅ３５０７,,13,103,1080072,,,,,,,2023-10-06,1,,,,,オリ,0
1002,4010401177564,新規,0,2023-10-06,2023-10-06,株式会社トゥーティーズ,,株式会社,東京都,港区,芝５丁目２０－７－４０６（寺島生郎会計事務所）,,13,103,1080014,,,,,,,2023-10-06,1,,,,,トゥーティーズ,0
1003,4010401177572,新規,0,2023-10-06,2023-10-06,株式会社ＴＨＥ　ＳＴＡＲ　Ｅ＆Ｍ,,株式会社,東京都,港区,虎ノ門２丁目２番５号共同通信会館,,13,103,1050001,,,,,,,2023-10-06,1,,,,,ザスターイーアンドエム,0
1004,4010401177630,新規,0,2023-10-06,2023-10-06,株式会社デーメテール,,株式会社,東京都,港区,六本木４丁目３番１１号六本木ユニハウス２２３号,,13,103,1060032,,,,,,,2023-10-06,1,,,,,デーメテール,0
1009,4010403031083,新規,0,2023-10-06,2023-10-06,電通ネクスト合同会社,,合同会社,東京都,港区,芝浦４丁目２０－２ブルームタワー３２１８,,13,103,1080023,,,,,,,2023-10-06,1,,,,,デンツウネクスト,0
1020,4010601063903,新規,0,2023-10-06,2023-10-06,株式会社クリアウィン,,株式会社,東京都,江東区,亀戸３丁目１７番１１－６０２号,,13,108,1360071,,,,,,,2023-10-06,1,,,,,クリアウィン,0
1021,4010601063911,新規,0,2023-10-06,2023-10-06,株式会社Ｃｉｇｏｏ,,株式会社,東京都,江東区,門前仲町２丁目２番４号共栄ビル１Ｆ,,13,108,1350048,,,,,,,2023-10-06,1,,,,,シーゴー,0
1023,4010603010399,新規,0,2023-10-06,2023-10-06,ｅ‐ｑｕａｌｉｔｙ合同会社,,合同会社,東京都,江東区,亀戸９丁目１０番１－１３２６号,,13,108,1360071,,,,,,,2023-10-06,1,,,,,イクオリティ,0
1027,4010803004705,新規,0,2023-10-06,2023-10-06,Ｋ＆Ａアカウンティング合同会社,,合同会社,東京都,大田区,北千束１丁目３７番２２号プルミエール大岡山３０２,,13,111,1450062,,,,,,,2023-10-06,1,,,,,ケーアンドエーアカウンティング,0
1029,4010901053959,新規,0,2023-10-06,2023-10-06,株式会社トップアーチ,,株式会社,東京都,世田谷区,北烏山３丁目１６番３８号,,13,112,1570061,,,,,,,2023-10-06,1,,,,,トップアーチ,0
1043,4011101104610,新規,0,2023-10-06,2023-10-06,パーソル＆サーバーワークス株式会社,,株式会社,東京都,新宿区,西新宿２丁目１番１号,,13,104,1600023,,,,,,,2023-10-06,1,,,,,パーソルアンドサーバーワークス,0
1044,4011101104619,新規,0,2023-10-06,2023-10-06,株式会社ｗｉｓｔｅｒｉａ,,株式会社,東京都,新宿区,南元町２０番地３－４１０,,13,104,1600012,,,,,,,2023-10-06,1,,,,,ウィステリア,0
1047,4011301029054,新規,0,2023-10-06,2023-10-06,株式会社Ｓｕｇｕｒｕ,,株式会社,東京都,杉並区,高円寺北２丁目２０番７号三貴丸ビル３Ｆ,,13,115,1660002,,,,,,,2023-10-06,1,,,,,スグル,0
1048,4011401025498,新規,0,2023-10-06,2023-10-06,株式会社ＧＥＲＲＹ,,株式会社,東京都,板橋区,赤塚新町１丁目１５番１１号１０２,,13,119,1750093,,,,,,,2023-10-06,1,,,,,ジェリー,0
1051,4011501029845,新規,0,2023-10-06,2023-10-06,Ｒｅｄ　Ｂｅａｃｈ株式会社,,株式会社,東京都,荒川区,荒川４丁目３５番９－５０３号,,13,118,1160002,,,,,,,2023-10-06,1,,,,,レッドビーチ,0
1053,4011503005794,新規,0,2023-10-06,2023-10-06,合同会社東西健康医学研究所,,合同会社,東京都,北区,十条仲原１丁目２５番１７号,,13,117,1140031,,,,,,,2023-10-06,1,,,,,トウザイケンコウイガクケンキュウジョ,0
1055,4011601027162,新規,0,2023-10-06,2023-10-06,株式会社ステラ,,株式会社,東京都,練馬区,関町北２丁目２９番１７－２０２号,,13,120,1770051,,,,,,,2023-10-06,1,,,,,ステラ,0
1056,4011703003607,新規,0,2023-10-06,2023-10-06,合同会社Ｎｅｘｔ　Ｗ,,合同会社,東京都,江戸川区,中葛西１丁目４６番３号,,13,123,1340083,,,,,,,2023-10-06,1,,,,,ネクストダブリュー,0
1058,4011801043125,新規,0,2023-10-06,2023-10-06,大友株式会社,,株式会社,東京都,足立区,大谷田３丁目３番３－７１１号,,13,121,1200001,,,,,,,2023-10-06,1,,,,,ダイユウ,0
1059,4011801043133,新規,0,2023-10-06,2023-10-06,株式会社ＵＮ‐ＢＥ,,株式会社,東京都,足立区,弘道１丁目２８番１号,,13,121,1200013,,,,,,,2023-10-06,1,,,,,アンビ,0
1061,4012401041064,新規,0,2023-10-06,2023-10-06,株式会社泉緑園,,株式会社,東京都,狛江市,東野川３丁目１５番４－２１１号,,13,219,2010002,,,,,,,2023-10-06,1,,,,,センリョクエン,0
1062,4012401041072,新規,0,2023-10-06,2023-10-06,株式会社ＳＮＡＫＥ,,株式会社,東京都,稲城市,東長沼５１６番地の２,,13,225,2060802,,,,,,,2023-10-06,1,,,,,スネーク,0
1063,4012403006214,新規,0,2023-10-06,2023-10-06,Ｂｅｒｋｅｌｅｙ　Ｃｏｎｓｕｌｔｉｎｇ合同会社,,合同会社,東京都,三鷹市,大沢３丁目１０番４号,,13,204,1810015,,,,,,,2023-10-06,1,,,,,バークレーコンサルティング,0
1065,4012701017870,新規,0,2023-10-06,2023-10-06,株式会社エターナル,,株式会社,東京都,東村山市,本町２丁目２１番地３－３０５,,13,213,1890014,,,,,,,2023-10-06,1,,,,,エターナル,0
1066,4012703002813,新規,0,2023-10-06,2023-10-06,ラピスマネジメント合同会社,,合同会社,東京都,東村山市,栄町２丁目３３番地１,,13,213,1890013,,,,,,,2023-10-06,1,,,,,ラピスマネジメント,0
1067,4013301051442,新規,0,2023-10-06,2023-10-06,株式会社シナノグラフィックス,,株式会社,東京都,豊島区,池袋４丁目３２番８号,,13,116,1710014,,,,,,,2023-10-06,1,,,,,シナノグラフィックス,0
1069,4013305003522,新規,0,2023-10-06,2023-10-06,一般社団法人日本医療健康管理協会,,その他の設立登記法人,東京都,豊島区,池袋本町４丁目２６番１号テラス池袋本町３階,,13,116,1700011,,,,,,,2023-10-06,1,,,,,ニホンイリョウケンコウカンリキョウカイ,0
1072,4020001153766,新規,0,2023-10-06,2023-10-06,株式会社Ａｘｅｌａ,,株式会社,神奈川県,横浜市港北区,新横浜１丁目２９番地１０－１１０２,,14,109,2220033,,,,,,,2023-10-06,1,,,,,アクセラ,0
1073,4020001153782,新規,0,2023-10-06,2023-10-06,株式会社上一,,株式会社,神奈川県,川崎市高津区,久地２丁目１５番３－３０２号ベルメゾン,,14,134,2130032,,,,,,,2023-10-06,1,,,,,カミイチ,0
1074,4020001153840,新規,0,2023-10-06,2023-10-06,伊清株式会社,,株式会社,神奈川県,川崎市高津区,久末４７４－１ヒルサイド久末３－５０４,,14,134,2130026,,,,,,,2023-10-06,1,,,,,イセイ,0
1075,4020001153849,新規,0,2023-10-06,2023-10-06,株式会社イニティウムス,,株式会社,神奈川県,川崎市中原区,市ノ坪５１１－６９,,14,133,2110016,,,,,,,2023-10-06,1,,,,,イニティウムス,0
1083,4020003024718,新規,0,2023-10-06,2023-10-06,合同会社イースニッド,,合同会社,神奈川県,横浜市青葉区,あざみ野４丁目１２番地２９,,14,117,2250011,,,,,,,2023-10-06,1,,,,,イースニッド,0
1087,4021001080356,新規,0,2023-10-06,2023-10-06,アカギブロズ株式会社,,株式会社,神奈川県,茅ヶ崎市,萩園１２７０－４３０,,14,207,2530071,,,,,,,2023-10-06,1,,,,,アカギブロズ,0
1088,4021001080406,新規,0,2023-10-06,2023-10-06,株式会社ジシャク,,株式会社,神奈川県,藤沢市,鵠沼海岸２丁目２番１０～３０２号,,14,205,2510037,,,,,,,2023-10-06,1,,,,,ジシャク,0
1090,4030001156363,新規,0,2023-10-06,2023-10-06,株式会社ＶｉＲＥＣ,,株式会社,埼玉県,越谷市,大沢１５８２番地６,,11,222,3430025,,,,,,,2023-10-06,1,,,,,ヴィレック,0
1091,4030001156438,新規,0,2023-10-06,2023-10-06,株式会社ＭＯＧＵＴＥＣ,,株式会社,埼玉県,和光市,下新倉３丁目２１番１６号,,11,229,3510111,,,,,,,2023-10-06,1,,,,,モグテック,0
1092,4030001156512,新規,0,2023-10-06,2023-10-06,株式会社ペタスト,,株式会社,埼玉県,川口市,末広１丁目１６番７号,,11,203,3320006,,,,,,,2023-10-06,1,,,,,ペタスト,0
1093,4030001156520,新規,0,2023-10-06,2023-10-06,株式会社ＤＯＰＥＮＥＳＳ,,株式会社,埼玉県,鶴ヶ島市,富士見１丁目７番１２－１０２号,,11,241,3502201,,,,,,,2023-10-06,1,,,,,ドープネス,0
1098,4040001130342,新規,0,2023-10-06,2023-10-06,株式会社家守商会,,株式会社,千葉県,八街市,富山自１３１４至１３４３番地合併１６０８,,12,230,2891141,,,,,,,2023-10-06,1,,,,,ヤモリショウカイ,0
1099,4040001130359,新規,0,2023-10-06,2023-10-06,株式会社ＣＡＮＡＥＲＵ　ＪＡＰＡＮ,,株式会社,千葉県,山武市,白幡２２２５番地１,,12,237,2891306,,,,,,,2023-10-06,1,,,,,カナエルジャパン,0
1100,4040001130367,新規,0,2023-10-06,2023-10-06,株式会社アライズ,,株式会社,千葉県,千葉市緑区,おゆみ野中央１丁目１２番地１３１,,12,105,2660032,,,,,,,2023-10-06,1,,,,,アライズ,0
1101,4040001130375,新規,0,2023-10-06,2023-10-06,株式会社玉城建設,,株式会社,千葉県,市原市,玉前１６１番地２スティブルレジオン２０２,,12,219,2900041,,,,,,,2023-10-06,1,,,,,タマキケンセツ,0
1103,4040003023478,新規,0,2023-10-06,2023-10-06,アラケン合同会社,,合同会社,千葉県,柏市,逆井２丁目３２番４０号,,12,217,2770042,,,,,,,2023-10-06,1,,,,,アラケン,0
1104,4040003023486,新規,0,2023-10-06,2023-10-06,合同会社健組,,合同会社,千葉県,船橋市,習志野台４丁目２９番２６号,,12,204,2740063,,,,,,,2023-10-06,1,,,,,ケングミ,0
1106,4050001053583,新規,0,2023-10-06,2023-10-06,株式会社ヤマヒロ商事,,株式会社,茨城県,龍ケ崎市,馴馬町１２７４番地,,08,208,3010004,,,,,,,2023-10-06,1,,,,,ヤマヒロショウジ,0
1108,4050003007835,新規,0,2023-10-06,2023-10-06,合同会社いたこＢＭＥ健康促進会,,合同会社,茨城県,神栖市,大野原１丁目１１番１５号清伸ビル内,,08,232,3140144,,,,,,,2023-10-06,1,,,,,イタコビーエムイーケンコウソクシンカイ,0
1109,4050003007843,新規,0,2023-10-06,2023-10-06,合同会社Ａｃｍｅ,,合同会社,茨城県,土浦市,桜町２丁目４番６号,,08,203,3000037,,,,,,,2023-10-06,1,,,,,アクミイ,0
1110,4050005013336,新規,0,2023-10-06,2023-10-06,一般社団法人テラス,,その他の設立登記法人,茨城県,日立市,東多賀町２丁目９番３号,,08,202,3160004,,,,,,,2023-10-06,1,,,,,テラス,0
1112,4060001036406,新規,0,2023-10-06,2023-10-06,株式会社孝平商事,,株式会社,栃木県,佐野市,岩崎町４９３－３,,09,204,3270307,,,,,,,2023-10-06,1,,,,,コウヘイショウジ,0
1122,4070001040927,新規,0,2023-10-06,2023-10-06,株式会社ポーラースター,,株式会社,群馬県,伊勢崎市,北千木町１６００番地８,,10,204,3720032,,,,,,,2023-10-06,1,,,,,ポーラースター,0
1123,4070001040943,新規,0,2023-10-06,2023-10-06,株式会社シュシュ,,株式会社,群馬県,高崎市,旭町３７番地８,,10,202,3700052,,,,,,,2023-10-06,1,,,,,シュシュ,0
1126,4080001025893,新規,0,2023-10-06,2023-10-06,株式会社ＭＨＢＥ,,株式会社,静岡県,焼津市,石津８１番地,,22,212,4250041,,,,,,,2023-10-06,1,,,,,エムエイチビーイー,0
1135,4080405007579,新規,0,2023-10-06,2023-10-06,医療法人社団Ｄｉｖｅｒａｄ,,その他の設立登記法人,静岡県,浜松市東区,天王町１６９６番地,,22,132,4350052,,,,,,,2023-10-06,1,,,,,ダイバード,0
1147,4110005017000,新規,0,2023-10-06,2023-10-06,一般財団法人崇徳田宮記念財団,,その他の設立登記法人,新潟県,長岡市,深沢町２２７６番地２,,15,202,9402135,,,,,,,2023-10-06,1,,,,,ストクタミヤキネンザイダン,0
1157,4120001258530,新規,0,2023-10-06,2023-10-06,株式会社Ｅ・ＡＤＶＡＮＣＥ,,株式会社,大阪府,大阪市淀川区,十三元今里３丁目２番２号,,27,123,5320028,,,,,,,2023-10-06,1,,,,,イーアドバンス,0
1158,4120001258613,新規,0,2023-10-06,2023-10-06,至邦国際株式会社,,株式会社,大阪府,大阪市中央区,南船場１丁目３－９,,27,128,5420081,,,,,,,2023-10-06,1,,,,,シホウコクサイ,0
1159,4120001258670,新規,0,2023-10-06,2023-10-06,株式会社Ｓｐｉｃａ,,株式会社,大阪府,大阪市北区,梅田１丁目２番２号大阪駅前第２ビル１２－１２,,27,127,5300001,,,,,,,2023-10-06,1,,,,,スピカ,0
1164,4120003025029,新規,0,2023-10-06,2023-10-06,合同会社静音,,合同会社,大阪府,交野市,妙見坂１丁目３番１７号,,27,230,5760021,,,,,,,2023-10-06,1,,,,,シズネ,0
1170,4120101068342,新規,0,2023-10-06,2023-10-06,エルピスサポート株式会社,,株式会社,大阪府,堺市西区,鳳西町１丁８２番地３５,,27,144,5938326,,,,,,,2023-10-06,1,,,,,エルピスサポート,0
1174,4120105009771,新規,0,2023-10-06,2023-10-06,特定非営利活動法人Ｗｅｌｌｖｙ,,その他の設立登記法人,大阪府,堺市美原区,今井２３４番地,,27,147,5870061,,,,,,,2023-10-06,1,,,,,ウェルビー,0
1176,4120901048130,新規,0,2023-10-06,2023-10-06,株式会社ワイフォーエイト,,株式会社,大阪府,豊中市,立花町１丁目３番２３－１０２号,,27,203,5600025,,,,,,,2023-10-06,1,,,,,ワイフォーエイト,0
1178,4122001037435,新規,0,2023-10-06,2023-10-06,株式会社砂川開発,,株式会社,大阪府,東大阪市,南鴻池町２丁目１１番８号２階,,27,227,5780961,,,,,,,2023-10-06,1,,,,,スナガワカイハツ,0
1179,4122001037451,新規,0,2023-10-06,2023-10-06,株式会社シミズ,,株式会社,大阪府,四條畷市,岡山東３丁目７番８号,,27,229,5750003,,,,,,,2023-10-06,1,,,,,シミズ,0
1183,4130001075363,新規,0,2023-10-06,2023-10-06,株式会社ｆｒｅｅｉｓｍ,,株式会社,京都府,京都市右京区,西院西貝川町７９－４０７,,26,108,6150056,,,,,,,2023-10-06,1,,,,,フリズム,0
1184,4130001075405,新規,0,2023-10-06,2023-10-06,株式会社ライトオペレーション,,株式会社,京都府,京都市東山区,夷町１６７番地,,26,105,6050033,,,,,,,2023-10-06,1,,,,,ライトオペレーション,0
1185,4130003009014,新規,0,2023-10-06,2023-10-06,合同会社オクユキ,,合同会社,京都府,京都市下京区,朱雀宝蔵町４４番地協栄ビル２階京都朱雀スタジオ,,26,106,6008846,,,,,,,2023-10-06,1,,,,,オクユキ,0
1186,4130003009030,新規,0,2023-10-06,2023-10-06,いのちアカデミー合同会社,,合同会社,京都府,京都市右京区,嵯峨天龍寺若宮町１７番地１,,26,108,6168371,,,,,,,2023-10-06,1,,,,,イノチアカデミー,0
1197,4140001131900,新規,0,2023-10-06,2023-10-06,株式会社Ａ,,株式会社,兵庫県,姫路市,飾東町夕陽ケ丘４１番地,,28,201,6710215,,,,,,,2023-10-06,1,,,,,エース,0
1201,4140003019615,新規,0,2023-10-06,2023-10-06,ＭＫＡＤｍｕｓｉｃ合同会社,,合同会社,兵庫県,揖保郡太子町,王子２２番地２,,28,464,6711572,,,,,,,2023-10-06,1,,,,,ムカッドミュージック,0
1207,4160003003006,新規,0,2023-10-06,2023-10-06,合同会社Ｐ,,合同会社,滋賀県,大津市,大萱６丁目１０番２０号,,25,201,5202144,,,,,,,2023-10-06,1,,,,,ピー,0
1210,4170001017816,新規,0,2023-10-06,2023-10-06,株式会社ＦＬＯＷＭＩＮＥ,,株式会社,和歌山県,和歌山市,北島４５３番地コンプラベルデ２,,30,201,6408403,,,,,,,2023-10-06,1,,,,,フローマイン,0
1215,4180001158287,新規,0,2023-10-06,2023-10-06,株式会社ＯＴＡ構造設計,,株式会社,愛知県,名古屋市名東区,延珠町１００７番地の２,,23,115,4650003,,,,,,,2023-10-06,1,,,,,オオタコウゾウセッケイ,0
1216,4180001158295,新規,0,2023-10-06,2023-10-06,株式会社ＬＴＡＭ,,株式会社,愛知県,名古屋市中区,栄２丁目７番１３号ヴィア白川３０８号,,23,106,4600008,,,,,,,2023-10-06,1,,,,,エルティーエーエム,0
1217,4180001158304,新規,0,2023-10-06,2023-10-06,株式会社四壱防災,,株式会社,愛知県,知多郡東浦町,大字石浜字前浜６０番地,,23,442,4702103,,,,,,,2023-10-06,1,,,,,ヨンイチボウサイ,0
1218,4180001158320,新規,0,2023-10-06,2023-10-06,株式会社ＢｒｏｗｎＢｕｎｎｙ,,株式会社,愛知県,常滑市,青海町１丁目３１番地,,23,216,4790004,,,,,,,2023-10-06,1,,,,,ブラウンバニー,0
1219,4180001158337,新規,0,2023-10-06,2023-10-06,株式会社ＮＢＳ,,株式会社,愛知県,小牧市,中央１丁目１８６番地ＡＭＥＮＩＴＹＧＯＬＤ２Ａ,,23,219,4850029,,,,,,,2023-10-06,1,,,,,エヌビーエス,0
1221,4180005020377,新規,0,2023-10-06,2023-10-06,税理士法人タックス・ラボ,,その他の設立登記法人,愛知県,名古屋市緑区,鳴海町字山下４番地の１,,23,114,4580801,,,,,,,2023-10-06,1,,,,,タックスラボ,0
1224,4180301037884,新規,0,2023-10-06,2023-10-06,呼間川漁業株式会社,,株式会社,愛知県,北設楽郡設楽町,田内字呼間１８番地,,23,561,4412222,,,,,,,2023-10-06,1,,,,,ヨンマガワギョギョウ,0
1230,4200001041787,新規,0,2023-10-06,2023-10-06,矢山鳥株式会社,,株式会社,岐阜県,下呂市,萩原町上村１４６４番地２,,21,220,5092516,,,,,,,2023-10-06,1,,,,,ヤヤマトリ,0
1235,4200005013527,新規,0,2023-10-06,2023-10-06,一般社団法人日本和栗協会,,その他の設立登記法人,岐阜県,恵那市,大井町２６３２番地の１０５,,21,210,5097201,,,,,,,2023-10-06,1,,,,,ニホンワグリキョウカイ,0
1236,4210001019485,新規,0,2023-10-06,2023-10-06,株式会社フォーエム,,株式会社,福井県,丹生郡越前町,小樟第３号８１番地,,18,423,9160315,,,,,,,2023-10-06,1,,,,,フォーエム,0
1239,4210003001706,新規,0,2023-10-06,2023-10-06,合同会社ＤＵＡＬ,,合同会社,福井県,福井市,加茂緑苑町７１０番１０３号室,,18,201,9188058,,,,,,,2023-10-06,1,,,,,デュアル,0
1244,4220001025623,新規,0,2023-10-06,2023-10-06,株式会社ＲｉＭＥ,,株式会社,石川県,野々市市,横宮町１８‐１‐１０３,,17,212,9218817,,,,,,,2023-10-06,1,,,,,リム,0
1246,4220003003602,新規,0,2023-10-06,2023-10-06,合同会社森,,合同会社,石川県,金沢市,堀川新町８番１号（ヴァンデュール金沢駅前・１２０５号）,,17,201,9200849,,,,,,,2023-10-06,1,,,,,モリ,0
1254,4240001062193,新規,0,2023-10-06,2023-10-06,ナインマーク株式会社,,株式会社,広島県,広島市南区,段原日出１丁目１２番１８－３０２号,,34,103,7320818,,,,,,,2023-10-06,1,,,,,ナインマーク,0
1255,4240001062202,新規,0,2023-10-06,2023-10-06,海洋商事株式会社,,株式会社,広島県,三次市,粟屋町３０６４番地１,,34,209,7280025,,,,,,,2023-10-06,1,,,,,カイヨウショウジ,0
1256,4240001062235,新規,0,2023-10-06,2023-10-06,土井建築株式会社,,株式会社,広島県,福山市,南手城町１丁目２２番８号,,34,207,7210963,,,,,,,2023-10-06,1,,,,,ドイケンチク,0
1261,4240003006355,新規,0,2023-10-06,2023-10-06,合同会社匠輝,,合同会社,広島県,安芸郡熊野町,川角２丁目２番２７－３号,,34,307,7314223,,,,,,,2023-10-06,1,,,,,ナルキ,0
1274,4290001103265,新規,0,2023-10-06,2023-10-06,株式会社Ｓｍｉｌｅ,,株式会社,福岡県,久留米市,宮ノ陣４丁目２９番１１号久留米ビジネスプラザ３０６－３,,40,203,8390801,,,,,,,2023-10-06,1,,,,,スマイル,0
1275,4290001103281,新規,0,2023-10-06,2023-10-06,株式会社ドローンメイト,,株式会社,福岡県,福岡市博多区,博多駅前１丁目２３番２号ＰａｒｋＦｒｏｎｔ博多駅前１丁目５Ｆ－Ｂ,,40,132,8120011,,,,,,,2023-10-06,1,,,,,ドローンメイト,0
1280,4290801029932,新規,0,2023-10-06,2023-10-06,株式会社アイエス,,株式会社,福岡県,北九州市小倉南区,上葛原２丁目４番８号,,40,107,8000255,,,,,,,2023-10-06,1,,,,,アイエス,0
1288,4340001025941,新規,0,2023-10-06,2023-10-06,株式会社ノムラ工業,,株式会社,鹿児島県,阿久根市,波留２１９０番地,,46,206,8991625,,,,,,,2023-10-06,1,,,,,ノムラコウギョウ,0
1307,4350001018597,新規,0,2023-10-06,2023-10-06,株式会社ＴＫテクニカル,,株式会社,宮崎県,都城市,一万城町８６号１１番地２ユア・ドミール２０６,,45,202,8850041,,,,,,,2023-10-06,1,,,,,,0
1310,4370001050466,新規,0,2023-10-06,2023-10-06,株式会社ＣＡＴＡＳＵ‐ＣＡＲＥ,,株式会社,宮城県,亘理郡亘理町,逢隈牛袋字西河原３６番地８,00132161,04,361,9892302,,,,,,,2023-10-06,1,,,,,カタスケア,0
1315,4380001034030,新規,0,2023-10-06,2023-10-06,株式会社あいた製作所,,株式会社,福島県,いわき市,薄磯２丁目１１番地の３,,07,204,9700229,,,,,,,2023-10-06,1,,,,,アイタセイサクショ,0
1316,4380003005582,新規,0,2023-10-06,2023-10-06,合同会社ワカバ,,合同会社,福島県,田村市,滝根町神俣字梵天川１２番地２,,07,211,9633602,,,,,,,2023-10-06,1,,,,,ワカバ,0
1322,4430001090159,新規,0,2023-10-06,2023-10-06,株式会社花川工業,,株式会社,北海道,札幌市東区,中沼西二条１丁目１０番５号,,01,103,0070892,,,,,,,2023-10-06,1,,,,,ハナカワコウギョウ,0
1326,4430003015493,新規,0,2023-10-06,2023-10-06,Ｖｉｓｉｏｎａｒｙ　Ｌｉｆｅ合同会社,,合同会社,北海道,札幌市清田区,真栄一条２丁目１番２８号,,01,110,0040831,,,,,,,2023-10-06,1,,,,,ビジョナリーライフ,0
1330,4700150120507,新規,0,2023-10-06,2023-09-20,昭和山第２コーポ管理組合,,その他,大阪府,大阪市大正区,北村３丁目７,,27,108,5510032,,,,,,,2023-09-20,1,,,,,シヨウワザンダイニコーポカンリクミアイ,0
1331,4700150121100,新規,0,2023-10-06,2023-10-06,Ｑｕａｎｚｈｏｕ　Ｑｉｙｕｎ　Ｅ－ｃｏｍｍｅｒｃｅ　Ｃｏ．，Ｌｔｄ,,外国会社等,,,,,,,,３１１９，３ｒｄ　Ｆｌｏｏｒ，Ｎｏ．１１２９－１　Ｓｏｕｔｈ　Ｒｉｎｇ　Ｒｏａｄ，Ｌｉｃｈｅｎｇ　Ｄｉｓｔｒｉｃｔ，Ｑｕａｎｚｈｏｕ　Ｃｉｔｙ，Ｆｕｊｉａｎ　Ｐｒｏｖｉｎｃｅ,,,,,,2023-10-06,1,,,,,チュエンジョウシーチーインディエンズーシャンウーヨウシエンゴンスー,0
1332,4700150121109,新規,0,2023-10-06,2023-10-06,ｆｏｓｈａｎｙｏｎｇｌｉｗｅｉｊｉｎｇｍｉｋｅｊｉｙｏｕｘｉａｎｇｏｎｇｓｉ,,外国会社等,,,,,,,,１１　ｈａｏ　ｅｒ　ｌｏｕ　ｌｕｏｇｅ　ｍａｄｏｕ　ｇｏｎｇｙｅｑｕ，ｎａｎｚｈｕａｎｇ，ｃｈａｎｃｈｅｎｇ，ｆｏｓｈａｎ，ｇｕａｎｇｄｏｎｇ，ｃｈｉｎａ,,,,,,2023-10-06,1,,,,,フォーシャンヨンリウェイセイミツテクノロジーユウゲンカイシャ,0
1340,5010001238889,新規,0,2023-10-06,2023-10-06,株式会社ＨＹＳＯＮＩＣ　ＰＡＲＴＮＥＲＳ,,株式会社,東京都,千代田区,内神田１丁目３番８号,,13,101,1010047,,,,,,,2023-10-06,1,,,,,ハイソニックパートナーズ,0
1341,5010001239012,新規,0,2023-10-06,2023-10-06,株式会社Ｓ＆Ｋ,,株式会社,東京都,中央区,勝どき３丁目９番１２－５０９号,,13,102,1040054,,,,,,,2023-10-06,1,,,,,エスアンドケー,0
1343,5010003041845,新規,0,2023-10-06,2023-10-06,合同会社ＣＩ＆ＣＡマネジメント,,合同会社,東京都,千代田区,神田和泉町１番地６－１６ヤマトビル４０５,,13,101,1010024,,,,,,,2023-10-06,1,,,,,シーアイシーエーマネジメント,0
1349,5010005037338,新規,0,2023-10-06,2023-10-06,一般社団法人計測健康啓発協会,,その他の設立登記法人,東京都,中央区,日本橋３丁目２番１４号新槇町ビル別館第一１階,,13,102,1030027,,,,,,,2023-10-06,1,,,,,ケイソクケンコウケイハツキョウカイ,0
1355,5010401177596,新規,0,2023-10-06,2023-10-06,リチュアルズ・ジャパン株式会社,,株式会社,東京都,港区,南青山２丁目２番３号,,13,103,1070062,,,,,,,2023-10-06,1,,,,,リチュアルズジャパン,0
1356,5010401177613,新規,0,2023-10-06,2023-10-06,株式会社江戸前鮨英,,株式会社,東京都,港区,赤坂９丁目１番７号赤坂レジデンシャルホテル１０２号室,,13,103,1070052,,,,,,,2023-10-06,1,,,,,エドマエスシハナブサ,0
1357,5010401177621,新規,0,2023-10-06,2023-10-06,半蔵門アドバイザリーオフィス株式会社,,株式会社,東京都,港区,東新橋１丁目１０番１－９０４号,,13,103,1050021,,,,,,,2023-10-06,1,,,,,ハンゾウモンアドバイザリーオフィス,0
1358,5010401177638,新規,0,2023-10-06,2023-10-06,株式会社Ｂｌｏｃｑ，Ｉｎｃ．,,株式会社,東京都,港区,虎ノ門１丁目１７番１号虎ノ門ヒルズビジネスタワー１５階,,13,103,1050001,,,,,,,2023-10-06,1,,,,,ブロックインク,0
1359,5010405022534,新規,0,2023-10-06,2023-10-06,一般社団法人北條和子事務所,,その他の設立登記法人,東京都,港区,赤坂８丁目１１番７号ノギヒルズ２０１,,13,103,1070052,,,,,,,2023-10-06,1,,,,,ホウジョウヨリコジムショ,0
1365,5010603010398,新規,0,2023-10-06,2023-10-06,合同会社ゴールドパス,,合同会社,東京都,江東区,扇橋２丁目１０番３－１２０６号,,13,108,1350011,,,,,,,2023-10-06,1,,,,,ゴールドパス,0
1370,5010801034406,新規,0,2023-10-06,2023-10-06,株式会社ＭＦＣ,,株式会社,東京都,大田区,西六郷１丁目２番１４－５１１号,,13,111,1440056,,,,,,,2023-10-06,1,,,,,エムエフシー,0
1373,5010803004712,新規,0,2023-10-06,2023-10-06,合同会社ＳＴＥＬＬＡ　ＣＯＴＴＡＧＥ,,合同会社,東京都,大田区,蒲田本町２丁目７番３号２Ｆ,,13,111,1440053,,,,,,,2023-10-06,1,,,,,ステラコテージ,0
1375,5010901053966,新規,0,2023-10-06,2023-10-06,株式会社ＦｒｉｅｎＤｏｇｇｙ,,株式会社,東京都,世田谷区,上馬３丁目２－２３カハラ駒沢２０２,,13,112,1540011,,,,,,,2023-10-06,1,,,,,フレンドギー,0
1376,5010905004536,新規,0,2023-10-06,2023-10-06,特定非営利活動法人協力アカデミー,,その他の設立登記法人,東京都,世田谷区,若林４丁目２５番１４号コーナー松陰２Ｆ,,13,112,1540023,,,,,,,2023-10-06,1,,,,,キョウリョクアカデミー,0
1390,5011101104618,新規,0,2023-10-06,2023-10-06,株式会社えもん,,株式会社,東京都,新宿区,北新宿１丁目２０番４－１３０２号,,13,104,1690074,,,,,,,2023-10-06,1,,,,,エモン,0
1391,5011101104675,新規,0,2023-10-06,2023-10-06,ＲＫ株式会社,,株式会社,東京都,新宿区,百人町１丁目４－１１プリオール新宿２０３,,13,104,1690073,,,,,,,2023-10-06,1,,,,,アールケー,0
1396,5011301029053,新規,0,2023-10-06,2023-10-06,Ｗｅｌｌ　Ｖａｌｌｅｙ株式会社,,株式会社,東京都,杉並区,本天沼３丁目３７番６号,,13,115,1670031,,,,,,,2023-10-06,1,,,,,ウェルバレー,0
1397,5011401025506,新規,0,2023-10-06,2023-10-06,地元タイムズ株式会社,,株式会社,東京都,板橋区,南常盤台１丁目１１番６号レフア南常盤台１０１号室,,13,119,1740072,,,,,,,2023-10-06,1,,,,,ジモトタイムズ,0
1398,5011401025514,新規,0,2023-10-06,2023-10-06,株式会社Ｌｏｂ　Ｅｎｔｅｒｔａｉｎｍｅｎｔ,,株式会社,東京都,板橋区,徳丸１丁目２０番２０号,,13,119,1750083,,,,,,,2023-10-06,1,,,,,ロブエンターテイメント,0
1403,5011501029844,新規,0,2023-10-06,2023-10-06,イエスコーポレーション株式会社,,株式会社,東京都,北区,浮間２丁目５番３－１０５号アトレ浮間舟渡ローレルコート,,13,117,1150051,,,,,,,2023-10-06,1,,,,,イエスコーポレーション,0
1404,5011503005793,新規,0,2023-10-06,2023-10-06,合同会社オリーブ,,合同会社,東京都,北区,赤羽１丁目５１番２－２０１号,,13,117,1150045,,,,,,,2023-10-06,1,,,,,オリーブ,0
1410,5011801043124,新規,0,2023-10-06,2023-10-06,株式会社Ｎｅｘｔ　ｃｌｅａｒ,,株式会社,東京都,足立区,南花畑１丁目２番１５号１階,,13,121,1210062,,,,,,,2023-10-06,1,,,,,ネクストクリア,0
1411,5011801043132,新規,0,2023-10-06,2023-10-06,株式会社ｒｉｎｇ,,株式会社,東京都,足立区,綾瀬３丁目２８番１４号,,13,121,1200005,,,,,,,2023-10-06,1,,,,,リング,0
1413,5011803005865,新規,0,2023-10-06,2023-10-06,合同会社ＢＵＩＬＤ　ＳＴＲＥＡＭ,,合同会社,東京都,足立区,千住橋戸町１－４－９０６,,13,121,1200038,,,,,,,2023-10-06,1,,,,,ビルドストリーム,0
1414,5011803005873,新規,0,2023-10-06,2023-10-06,合同会社東越ハウス,,合同会社,東京都,葛飾区,堀切１丁目９番２４号,,13,122,1240006,,,,,,,2023-10-06,1,,,,,トウエツハウス,0
1415,5012403006213,新規,0,2023-10-06,2023-10-06,合同会社Ａｉｄ　Ｗｏｒｋｓ,,合同会社,東京都,狛江市,中和泉４丁目１９番１２号,,13,219,2010012,,,,,,,2023-10-06,1,,,,,エイドワークス,0
1417,5012801022679,新規,0,2023-10-06,2023-10-06,Ｌａｐｒｏ建築株式会社,,株式会社,東京都,立川市,富士見町４丁目７番地の３３,,13,202,1900013,,,,,,,2023-10-06,1,,,,,ラプロケンチク,0
1420,5013303006823,新規,0,2023-10-06,2023-10-06,合同会社星玉屋,,合同会社,東京都,豊島区,高田１丁目２４番５号,,13,116,1710033,,,,,,,2023-10-06,1,,,,,ホシダマヤ,0
1426,5020001153765,新規,0,2023-10-06,2023-10-06,株式会社樹工業,,株式会社,神奈川県,横浜市栄区,公田町１３１７番地６,,14,115,2470014,,,,,,,2023-10-06,1,,,,,イツキコウギョウ,0
1430,5020005016142,新規,0,2023-10-06,2023-10-06,一般社団法人承恩会,,その他の設立登記法人,神奈川県,横浜市中区,山手町８８－８,,14,104,2310862,,,,,,,2023-10-06,1,,,,,ショウオンカイ,0
1433,5021001080355,新規,0,2023-10-06,2023-10-06,株式会社カネキ興業,,株式会社,神奈川県,小田原市,北ノ窪８１番地,,14,206,2500051,,,,,,,2023-10-06,1,,,,,カネキコウギョウ,0
1442,5030001156354,新規,0,2023-10-06,2023-10-06,ＭＡＱＳ　ＴＲＡＤＩＮＧ　Ｃｏ．株式会社,,株式会社,埼玉県,朝霞市,泉水２丁目１番１４－２０１号,,11,227,3510024,,,,,,,2023-10-06,1,,,,,マクストレーディングカンパニー,0
1450,5030005021422,新規,0,2023-10-06,2023-10-06,医療法人社団晴翔会,,その他の設立登記法人,埼玉県,さいたま市見沼区,島町３９３番地ハレノテラスＣ棟２階,,11,104,3370006,,,,,,,2023-10-06,1,,,,,セイショウカイ,0
1451,5030005021430,新規,0,2023-10-06,2023-10-06,医療法人珀美会,,その他の設立登記法人,埼玉県,さいたま市浦和区,仲町１丁目４番１２号Ｃｒｏｂｉｓ浦和５Ｆ,,11,107,3300062,,,,,,,2023-10-06,1,,,,,ハクビカイ,0
1453,5040001130382,新規,0,2023-10-06,2023-10-06,株式会社ＦＬＵＳＳ,,株式会社,千葉県,市川市,曽谷４丁目３３番４号,,12,203,2720832,,,,,,,2023-10-06,1,,,,,フルス,0
1454,5040001130390,新規,0,2023-10-06,2023-10-06,株式会社アンサンブルリード,,株式会社,千葉県,野田市,中野台鹿島町７番地の１１,,12,208,2780036,,,,,,,2023-10-06,1,,,,,アンサンブルリード,0
1455,5040003023460,新規,0,2023-10-06,2023-10-06,ｎｏｖｅｌ　ｂｒｉｇｈｔ合同会社,,合同会社,千葉県,千葉市若葉区,高品町１５８６番地５エール高品３０３号,,12,104,2640024,,,,,,,2023-10-06,1,,,,,ノーベルブライト,0
1456,5050001053582,新規,0,2023-10-06,2023-10-06,株式会社ＲＥＳＯＮＩＸ,,株式会社,茨城県,つくば市,吾妻１丁目５－７ダイワロイネットホテルつくばビル,,08,220,3050031,,,,,,,2023-10-06,1,,,,,レゾニクス,0
1457,5050001053599,新規,0,2023-10-06,2023-10-06,株式会社酔心,,株式会社,茨城県,水戸市,中央２丁目１０番１０号,,08,201,3100805,,,,,,,2023-10-06,1,,,,,スイシン,0
1460,5060001036405,新規,0,2023-10-06,2023-10-06,株式会社ｔｅｎｔｏ．,,株式会社,栃木県,下野市,仁良川１５４２番地１・３５街区１５,,09,216,3290432,,,,,,,2023-10-06,1,,,,,テント,0
1464,5070001040926,新規,0,2023-10-06,2023-10-06,ぐんま大手町企画株式会社,,株式会社,群馬県,前橋市,大手町２丁目５番１３号,,10,201,3710026,,,,,,,2023-10-06,1,,,,,グンマオオテマチキカク,0
1465,5070001040934,新規,0,2023-10-06,2023-10-06,小林商事株式会社,,株式会社,群馬県,みどり市,笠懸町鹿４６１５番地８,,10,212,3792313,,,,,,,2023-10-06,1,,,,,コバヤシショウジ,0
1467,5080001025901,新規,0,2023-10-06,2023-10-06,株式会社スターク,,株式会社,静岡県,静岡市葵区,吉野町４－７,,22,101,4200046,,,,,,,2023-10-06,1,,,,,スターク,0
1479,5090001018350,新規,0,2023-10-06,2023-10-06,株式会社Ｔｈｒｅｅ．Ｒ,,株式会社,山梨県,笛吹市,石和町川中島５０４番地１,,19,211,4060024,,,,,,,2023-10-06,1,,,,,スリーアール,0
1497,5120001258587,新規,0,2023-10-06,2023-10-06,株式会社メイクエンズミート,,株式会社,大阪府,大阪市福島区,吉野２丁目１１番２０－３６７号,,27,103,5530006,,,,,,,2023-10-06,1,,,,,メイクエンズミート,0
1498,5120001258629,新規,0,2023-10-06,2023-10-06,株式会社秋空,,株式会社,大阪府,大阪市中央区,伏見町２丁目４番１０号,,27,128,5410044,,,,,,,2023-10-06,1,,,,,アキゾラ,0
1499,5120001258703,新規,0,2023-10-06,2023-10-06,株式会社オフィス・エイチツー,,株式会社,大阪府,大阪市中央区,久太郎町４丁目１－３大阪センタービル６Ｆ－２６４,,27,128,5410056,,,,,,,2023-10-06,1,,,,,オフィスエイチツー,0
1503,5120003025044,新規,0,2023-10-06,2023-10-06,合同会社エコパワー３,,合同会社,大阪府,大阪市北区,梅田１丁目１番３号大阪駅前第３ビル３０階,,27,127,5300001,,,,,,,2023-10-06,1,,,,,エコパワースリー,0
1511,5122001037450,新規,0,2023-10-06,2023-10-06,株式会社志月,,株式会社,大阪府,東大阪市,大蓮北４丁目５番１５号,,27,227,5770826,,,,,,,2023-10-06,1,,,,,シヅキ,0
1514,5130001075362,新規,0,2023-10-06,2023-10-06,株式会社ひろ,,株式会社,京都府,宇治市,五ケ庄折坂５番地１１８,,26,204,6110011,,,,,,,2023-10-06,1,,,,,ヒロ,0
1515,5130001075370,新規,0,2023-10-06,2023-10-06,株式会社ＹｓＹＹ,,株式会社,京都府,京都市中京区,薬師町６５２番１１号ヴィラ夷川１階,,26,104,6040062,,,,,,,2023-10-06,1,,,,,ワイエスワイワイ,0
1517,5130003009046,新規,0,2023-10-06,2023-10-06,京ＹＡＭＡ企画合同会社,,合同会社,京都府,長岡京市,長岡２丁目３番１０―８号,,26,209,6170823,,,,,,,2023-10-06,1,,,,,キョウヤマキカク,0
1524,5140001131841,新規,0,2023-10-06,2023-10-06,株式会社ＷＥＳＴ　ＢＲＡＩＮ,,株式会社,兵庫県,神戸市中央区,小野柄通７丁目１番１号日本生命三宮駅前ビル９階,,28,110,6510088,,,,,,,2023-10-06,1,,,,,ウエストブレイン,0
1525,5140001131908,新規,0,2023-10-06,2023-10-06,ｓｅｕｍｉｅ株式会社,,株式会社,兵庫県,姫路市,広畑区西夢前台４丁目７２番地,,28,201,6711103,,,,,,,2023-10-06,1,,,,,スーミー,0
1530,5160001025380,新規,0,2023-10-06,2023-10-06,株式会社ＡＬＬ　Ｃｌｅａｎ　Ａｇｅｎｔ,,株式会社,滋賀県,甲賀市,水口町城東３－３,,25,209,5280028,,,,,,,2023-10-06,1,,,,,オールクリーンエージェント,0
1531,5160001025397,新規,0,2023-10-06,2023-10-06,株式会社アルカサル,,株式会社,滋賀県,大津市,南小松１２９番地,,25,201,5200502,,,,,,,2023-10-06,1,,,,,アルカサル,0
1545,5180301037834,新規,0,2023-10-06,2023-10-06,Ｒ’ｓＷＯＲＫ株式会社,,株式会社,愛知県,岡崎市,大西町字仁田２９番地１Ｆｏｒｔｅｒｅｓｓｅ１０１,,23,202,4440811,,,,,,,2023-10-06,1,,,,,アールズワーク,0
1546,5180301037883,新規,0,2023-10-06,2023-10-06,株式会社尚電ＮＥＷＳ,,株式会社,愛知県,安城市,花ノ木町１５番２号,,23,212,4460039,,,,,,,2023-10-06,1,,,,,ショウデンニュース,0
1549,5190001030782,新規,0,2023-10-06,2023-10-06,株式会社エンケル,,株式会社,三重県,伊賀市,服部町１８２５番地の４,,24,216,5180007,,,,,,,2023-10-06,1,,,,,エンケル,0
1560,5240001062201,新規,0,2023-10-06,2023-10-06,ＨＧホールディングス株式会社,,株式会社,広島県,福山市,箕沖町１２７番地２０,,34,207,7210956,,,,,,,2023-10-06,1,,,,,エイチジーホールディングス,0
1561,5240001062226,新規,0,2023-10-06,2023-10-06,株式会社フットケアパートナーズ,,株式会社,広島県,広島市安佐南区,中筋１丁目１９番７－３０４号,,34,105,7310122,,,,,,,2023-10-06,1,,,,,フットケアパートナーズ,0
1562,5240001062234,新規,0,2023-10-06,2023-10-06,株式会社Ｒｅｌｅａｐ,,株式会社,広島県,広島市安佐南区,緑井８丁目２６番１９号１プリーマハイム２０２,,34,105,7310103,,,,,,,2023-10-06,1,,,,,リリープ,0
1565,5240005015659,新規,0,2023-10-06,2023-10-06,一般社団法人カミハチキテル,,その他の設立登記法人,広島県,広島市中区,大手町３丁目８番２４号,,34,101,7300051,,,,,,,2023-10-06,1,,,,,カミハチキテル,0
1569,5250001020323,新規,0,2023-10-06,2023-10-06,株式会社エナジーファーム富士鷹,,株式会社,山口県,宇部市,大字東岐波２７２４番地７,,35,202,7550241,,,,,,,2023-10-06,1,,,,,エナジーファームフジタカ,0
1570,5250001020331,新規,0,2023-10-06,2023-10-06,株式会社ＭＯＲＥ,,株式会社,山口県,宇部市,大字小串１９２０番地２４,,35,202,7550067,,,,,,,2023-10-06,1,,,,,モア,0
1573,5260001038356,新規,0,2023-10-06,2023-10-06,株式会社ロジボックス,,株式会社,岡山県,岡山市東区,西大寺浜７０９番地１,,33,103,7048126,,,,,,,2023-10-06,1,,,,,ロジボックス,0
1574,5270001008853,新規,0,2023-10-06,2023-10-06,成木エンジニアリング株式会社,,株式会社,鳥取県,米子市,両三柳１６９４番地１,,31,202,6830853,,,,,,,2023-10-06,1,,,,,ナルキエンジニアリング,0
1578,5290001103207,新規,0,2023-10-06,2023-10-06,ＵＲＢＡＮＩＸ株式会社,,株式会社,福岡県,福岡市中央区,天神２丁目３番１０号天神パインクレスト７１９号,,40,133,8100001,,,,,,,2023-10-06,1,,,,,アーバニクス,0
1579,5290001103215,新規,0,2023-10-06,2023-10-06,株式会社福岡ＳＡＫＵＲＡＩ,,株式会社,福岡県,春日市,春日１丁目１２３番地,,40,218,8160814,,,,,,,2023-10-06,1,,,,,フクオカサクライ,0
1580,5290001103297,新規,0,2023-10-06,2023-10-06,株式会社アンカー,,株式会社,福岡県,福岡市中央区,天神１丁目１－１アクロス福岡,,40,133,8100001,,,,,,,2023-10-06,1,,,,,アンカー,0
1582,5290003014435,新規,0,2023-10-06,2023-10-06,合同会社川島鉄筋工業,,合同会社,福岡県,飯塚市,南尾１番地３４２,,40,205,8200072,,,,,,,2023-10-06,1,,,,,カワシマテッキンコウギョウ,0
1583,5290005019168,新規,0,2023-10-06,2023-10-06,特定非営利活動法人糸島体験隊,,その他の設立登記法人,福岡県,糸島市,神在西３丁目１１番２５号,,40,230,8191148,,,,,,,2023-10-06,1,,,,,イトシマタイケンタイ,0
1586,5290801029931,新規,0,2023-10-06,2023-10-06,株式会社結声,,株式会社,福岡県,豊前市,大字四郎丸７０４番地１,,40,214,8280011,,,,,,,2023-10-06,1,,,,,ユウセイ,0
1591,5360003013355,新規,0,2023-10-06,2023-10-06,合同会社ＫＲ　ＨＯＭＥ　ＡＰＰＬＩＡＮＣＥ,,合同会社,沖縄県,沖縄市,諸見里３丁目１８番２１号ハッピーハイムもろみ３０１,,47,211,9040032,,,,,,,2023-10-06,1,,,,,ケイアールホームアプライアンス,0
1595,5380003005581,新規,0,2023-10-06,2023-10-06,合同会社東山商事,,合同会社,福島県,東白川郡矢祭町,大字大＿字東山２３番地,00132170,07,482,9635100,,,,,,,2023-10-06,1,,,,,ヒガシヤマショウジ,0
1596,5400001016405,新規,0,2023-10-06,2023-10-06,株式会社ＪＨＫ不動産鑑定,,株式会社,岩手県,盛岡市,南大通１丁目８番７号,,03,201,0200874,,,,,,,2023-10-06,1,,,,,ジェイエイチケーフドウサンカンテイ,0
1597,5400001016413,新規,0,2023-10-06,2023-10-06,株式会社Ｒｏｏｔｓ,,株式会社,岩手県,盛岡市,大沢川原２丁目６番１５－１１０２号,,03,201,0200025,,,,,,,2023-10-06,1,,,,,ルーツ,0
1609,5480001012248,新規,0,2023-10-06,2023-10-06,株式会社進栄,,株式会社,徳島県,名西郡石井町,高川原字桜間２２７番地１,,36,341,7793225,,,,,,,2023-10-06,1,,,,,シンエイ,0
1612,5700150121099,新規,0,2023-10-06,2023-10-06,Ｑｉｎｇｄａｏ　Ｙｕｎｓｈａｎｇｊｉｎ　Ｔｒａｄｅ　Ｃｏ．Ｌｔｄ．,,外国会社等,,,,,,,,３０２，ｕｎｉｔ　２，ｂｕｉｌｄｉｎｇ　５１，Ｘｉｎｙｕａｎ　ｃｏｍｍｕｎｉｔｙ，１０５７ＪｉｎｓｈｕｉＲｏａｄ，Ｌｉｃａｎｇ　Ｄｉｓｔｒｉｃｔ，Ｑｉｎｇｄａｏ，Ｓｈａｎｄｏｎｇ,,,,,,2023-10-06,1,,,,,チンダオインシャンジンマオイーヨウシエンゴンスー,0
1613,5700150121108,新規,0,2023-10-06,2023-10-06,ｓｈｅｎｚｈｅｎｓｈｉｆｕｔｏｎｇｗｅｉｋｅｊｉｙｏｕｘｉａｎｇｏｎｇｓｉ,,外国会社等,,,,,,,,ｌｏｎｇｈｕａｑｕｍｉｎｚｈｉｊｉｅｄａｏｂａｉｓｈｉｌｏｎｇｓｈｅｑｕ，ｂａｉｓｈｉｌｏｎｇｅｒｑｕｈｕａｎｇｊｉａｓｈａｎｇｗｕｚｈｏｎｇｘｉｎＡ９０５，ｓｈｅｎｚｈｅｎｓｈｉ,,,,,,2023-10-06,1,,,,,シンセンシフクツウビカギユウゲンコウシ,0
1620,6010001238855,新規,0,2023-10-06,2023-10-06,株式会社ＯｎｅＬｉｎｋ,,株式会社,東京都,中央区,勝どき４丁目９番４号アルシュ勝どき６０３,,13,102,1040054,,,,,,,2023-10-06,1,,,,,ワンリンク,0
1621,6010001239044,新規,0,2023-10-06,2023-10-06,ｄｏｏｒｓ株式会社,,株式会社,東京都,中央区,銀座８丁目１０－５ＤＥＮＳＡＮビルＧ－６９５５２,,13,102,1040061,,,,,,,2023-10-06,1,,,,,ドアーズ,0
1623,6010003041860,新規,0,2023-10-06,2023-10-06,合同会社Ｆｕｎｎｅｌ,,合同会社,東京都,千代田区,神田佐久間町１丁目１４,,13,101,1010025,,,,,,,2023-10-06,1,,,,,ファンネル,0
1633,6010401177570,新規,0,2023-10-06,2023-10-06,ＴＷＣ株式会社,,株式会社,東京都,港区,虎ノ門１丁目３番１号東京虎ノ門グローバルスクエア５階　軽井沢蒸留酒製造株式会社内,,13,103,1050001,,,,,,,2023-10-06,1,,,,,ティダブリュシー,0
1634,6010401177595,新規,0,2023-10-06,2023-10-06,Ｏｒｉｇｉｎ株式会社,,株式会社,東京都,港区,北青山２丁目７番１３号プラセオ青山ビル３階,,13,103,1070061,,,,,,,2023-10-06,1,,,,,オリジン,0
1635,6010401177612,新規,0,2023-10-06,2023-10-06,株式会社プディングイノベーション,,株式会社,東京都,港区,高輪１丁目２－１６フラットウェル高輪３Ｆａｂ,,13,103,1080074,,,,,,,2023-10-06,1,,,,,プディングイノベーション,0
1636,6010401177620,新規,0,2023-10-06,2023-10-06,Ｌｉｎｋ　ｉｎ　Ｊａｐａｎ株式会社,,株式会社,東京都,港区,南青山２丁目２番１５号ＷｉｎＡｏｙａｍａビルＵＣＦ６３５,,13,103,1070062,,,,,,,2023-10-06,1,,,,,リンクインジャパン,0
1638,6010403031081,新規,0,2023-10-06,2023-10-06,合同会社プラソニッシ,,合同会社,東京都,港区,北青山１丁目３番１号アールキューブ青山３階,,13,103,1070061,,,,,,,2023-10-06,1,,,,,プラソニッシ,0
1642,6010405022574,新規,0,2023-10-06,2023-10-06,一般社団法人ＪＡＨ　Ｏｎｅ,,その他の設立登記法人,東京都,港区,元赤坂１丁目１番８号赤坂コミュニティビル４階,,13,103,1070051,,,,,,,2023-10-06,1,,,,,ジェイエイエイチワン,0
1649,6010601063901,新規,0,2023-10-06,2023-10-06,Ｙ株式会社,,株式会社,東京都,江東区,有明１丁目５番２－２２２０号,,13,108,1350063,,,,,,,2023-10-06,1,,,,,ワイ,0
1650,6010603010406,新規,0,2023-10-06,2023-10-06,ＳＯＮＡ　ＥＮＴＥＲＰＲＩＳＥ合同会社,,合同会社,東京都,江東区,大島３丁目２６番７号,,13,108,1360072,,,,,,,2023-10-06,1,,,,,ソナエンタープライズ,0
1656,6010801034405,新規,0,2023-10-06,2023-10-06,株式会社アトリエファーム,,株式会社,東京都,大田区,南馬込５丁目３０番１２号,,13,111,1430025,,,,,,,2023-10-06,1,,,,,アトリエファーム,0
1657,6010803004711,新規,0,2023-10-06,2023-10-06,Ｍｏｎｏｌｉｔｈ合同会社,,合同会社,東京都,大田区,大森南３丁目２３番８－８０２号,,13,111,1430013,,,,,,,2023-10-06,1,,,,,モノリス,0
1673,6011001157228,新規,0,2023-10-06,2023-10-06,プロマーケ株式会社,,株式会社,東京都,渋谷区,神宮前６丁目２３－４桑野ビル２Ｆ,,13,113,1500001,,,,,,,2023-10-06,1,,,,,プロマーケ,0
1674,6011001157310,新規,0,2023-10-06,2023-10-06,株式会社Ｐｅｒｆｅｃｔ　Ｆｉｔ,,株式会社,東京都,渋谷区,神宮前６丁目２３番４号桑野ビル２階,,13,113,1500001,,,,,,,2023-10-06,1,,,,,パーフェクトフィット,0
1675,6011001157426,新規,0,2023-10-06,2023-10-06,アルファクエスト株式会社,,株式会社,東京都,渋谷区,道玄坂１丁目１０番８号渋谷道玄坂東急ビル２Ｆ－Ｃ,,13,113,1500043,,,,,,,2023-10-06,1,,,,,アルファクエスト,0
1676,6011001157434,新規,0,2023-10-06,2023-10-06,株式会社Ｂ．ＳＰＯＫＥ,,株式会社,東京都,渋谷区,松濤２丁目２番９－８０１号ドゥアージュコラッド松濤,,13,113,1500046,,,,,,,2023-10-06,1,,,,,ビースポウク,0
1686,6011301029060,新規,0,2023-10-06,2023-10-06,株式会社スパーク,,株式会社,東京都,杉並区,高円寺南１丁目２番５号,,13,115,1660003,,,,,,,2023-10-06,1,,,,,スパーク,0
1687,6011401025505,新規,0,2023-10-06,2023-10-06,ＵＮＩＳ株式会社,,株式会社,東京都,板橋区,徳丸１丁目１８番１－９０８号,,13,119,1750083,,,,,,,2023-10-06,1,,,,,ユニ,0
1688,6011401025513,新規,0,2023-10-06,2023-10-06,ＤＣＭ株式会社,,株式会社,東京都,板橋区,南常盤台１丁目１５番１０号,,13,119,1740072,,,,,,,2023-10-06,1,,,,,ディーシーエム,0
1690,6011501029843,新規,0,2023-10-06,2023-10-06,栄える株式会社,,株式会社,東京都,荒川区,西日暮里６丁目３７番１号,,13,118,1160013,,,,,,,2023-10-06,1,,,,,サカエル,0
1691,6011503005792,新規,0,2023-10-06,2023-10-06,合同会社澤色,,合同会社,東京都,荒川区,西尾久２丁目３１－２,,13,118,1160011,,,,,,,2023-10-06,1,,,,,サワイロ,0
1701,6012701017869,新規,0,2023-10-06,2023-10-06,株式会社ＣＯＺＹｌａｂ,,株式会社,東京都,清瀬市,野塩２丁目５７６－６,,13,221,2040004,,,,,,,2023-10-06,1,,,,,コジーラボ,0
1702,6012703002811,新規,0,2023-10-06,2023-10-06,合同会社Ｌ‐Ｒ,,合同会社,東京都,小平市,小川東町５丁目３番８－４号,,13,211,1870031,,,,,,,2023-10-06,1,,,,,リール,0
1709,6020001153789,新規,0,2023-10-06,2023-10-06,株式会社ＨＬＡＤＤＥＲ,,株式会社,神奈川県,横浜市西区,北幸１丁目１番８号エキニア横浜５階横浜セントラルオフィスＨａｍａＰｏｒｔ内,,14,103,2200004,,,,,,,2023-10-06,1,,,,,ラダー,0
1710,6020001153806,新規,0,2023-10-06,2023-10-06,株式会社Ｓａｍｉｅｌ,,株式会社,神奈川県,川崎市麻生区,上麻生５丁目２５番２８号,,14,137,2150021,,,,,,,2023-10-06,1,,,,,サミエル,0
1711,6020001153822,新規,0,2023-10-06,2023-10-06,コンビリフトプロジェクトロジスティクスジャパン株式会社,,株式会社,神奈川県,横浜市西区,みなとみらい２丁目２－１ランドマークプラザ５階,,14,103,2200012,,,,,,,2023-10-06,1,,,,,コンビリフトプロジェクトロジスティクスジャパン,0
1712,6020001153839,新規,0,2023-10-06,2023-10-06,株式会社なないろのたね,,株式会社,神奈川県,横浜市磯子区,丸山２丁目２３番１３号,,14,107,2350011,,,,,,,2023-10-06,1,,,,,ナナイロノタネ,0
1713,6020001153847,新規,0,2023-10-06,2023-10-06,株式会社アンルート,,株式会社,神奈川県,横浜市神奈川区,金港町１番地１１－２８０５号,,14,102,2210056,,,,,,,2023-10-06,1,,,,,アンルート,0
1716,6020003024690,新規,0,2023-10-06,2023-10-06,合同会社アイボウ,,合同会社,神奈川県,川崎市中原区,小杉町３丁目６００番地Ｋ３Ａザ・レジデンス６０４,,14,133,2110063,,,,,,,2023-10-06,1,,,,,アイボウ,0
1717,6020003024699,新規,0,2023-10-06,2023-10-06,合同会社３Ｗｉｌｌｓマネージメント,,合同会社,神奈川県,横浜市港北区,大倉山２丁目１７番２３－３号,,14,109,2220037,,,,,,,2023-10-06,1,,,,,サンウィルスマネージメント,0
1718,6020003024716,新規,0,2023-10-06,2023-10-06,合同会社日米ＳＴＵＤＩＯ,,合同会社,神奈川県,川崎市中原区,上小田中２丁目２２－２５番２０１号,,14,133,2110053,,,,,,,2023-10-06,1,,,,,,0
1719,6020005016141,新規,0,2023-10-06,2023-10-06,一般社団法人Ｗａｌｋ　ｗｉｔｈ　ｙｏｕ,,その他の設立登記法人,神奈川県,横浜市港北区,綱島西６丁目４番１４－２１１号,,14,109,2230053,,,,,,,2023-10-06,1,,,,,ウォークウィズユー,0
1720,6021001080346,新規,0,2023-10-06,2023-10-06,株式会社一誠,,株式会社,神奈川県,相模原市南区,相模大野６丁目２０番４－４０１号,,14,153,2520303,,,,,,,2023-10-06,1,,,,,イッセイ,0
1721,6021001080354,新規,0,2023-10-06,2023-10-06,株式会社ＬＩＦＩＸ,,株式会社,神奈川県,海老名市,柏ケ谷１０４０番地の１プライムステイツかしわ台２０４号,,14,215,2430402,,,,,,,2023-10-06,1,,,,,リフィックス,0
1722,6021001080395,新規,0,2023-10-06,2023-10-06,株式会社Ｊａｐａｎ　Ｂｕｉｌｄ　Ｌｉｎｅ,,株式会社,神奈川県,鎌倉市,常盤９３７番地２６,,14,204,2480022,,,,,,,2023-10-06,1,,,,,ジャパンビルドライン,0
1723,6021003013659,新規,0,2023-10-06,2023-10-06,合同会社萬樹,,合同会社,神奈川県,逗子市,小坪６丁目１１番２０号,,14,208,2490008,,,,,,,2023-10-06,1,,,,,マンジュ,0
1727,6030001156361,新規,0,2023-10-06,2023-10-06,株式会社たまはな,,株式会社,埼玉県,春日部市,小渕１６３４番地,,11,214,3440007,,,,,,,2023-10-06,1,,,,,タマハナ,0
1728,6030001156428,新規,0,2023-10-06,2023-10-06,株式会社ＡＩ,,株式会社,埼玉県,所沢市,けやき台１丁目２１番地の５ライフプレイスシーマ２－３０５,,11,208,3591118,,,,,,,2023-10-06,1,,,,,エイアイ,0
1729,6030001156452,新規,0,2023-10-06,2023-10-06,株式会社裕,,株式会社,埼玉県,川越市,東田町４番地２０９,,11,201,3501114,,,,,,,2023-10-06,1,,,,,ユタカ,0
1730,6030001156460,新規,0,2023-10-06,2023-10-06,株式会社大和土木興業,,株式会社,埼玉県,所沢市,宮本町１丁目８番１４号,,11,208,3591143,,,,,,,2023-10-06,1,,,,,ヤマトドボクコウギョウ,0
1736,6040001130340,新規,0,2023-10-06,2023-10-06,株式会社ＭＯＢ,,株式会社,千葉県,千葉市若葉区,御殿町７番地４,,12,104,2650074,,,,,,,2023-10-06,1,,,,,エムオービー,0
1737,6040001130349,新規,0,2023-10-06,2023-10-06,株式会社ウイング,,株式会社,千葉県,柏市,大室２６８番地４,,12,217,2770813,,,,,,,2023-10-06,1,,,,,ウイング,0
1738,6040001130357,新規,0,2023-10-06,2023-10-06,株式会社こうの設備,,株式会社,千葉県,流山市,松ケ丘５丁目７１５番地の５,,12,220,2700141,,,,,,,2023-10-06,1,,,,,コウノセツビ,0
1739,6040001130365,新規,0,2023-10-06,2023-10-06,株式会社プラム,,株式会社,千葉県,船橋市,本町５丁目２番１２－１４０１号,,12,204,2730005,,,,,,,2023-10-06,1,,,,,プラム,0
1741,6040003023476,新規,0,2023-10-06,2023-10-06,合同会社ＹＳ,,合同会社,千葉県,柏市,篠籠田１３２番地１９,,12,217,2770862,,,,,,,2023-10-06,1,,,,,ワイエス,0
1745,6050001053581,新規,0,2023-10-06,2023-10-06,株式会社オカノペットカンパニー,,株式会社,茨城県,神栖市,横瀬１３６３番地９１,,08,232,3140113,,,,,,,2023-10-06,1,,,,,オカノペットカンパニー,0
1746,6050001053598,新規,0,2023-10-06,2023-10-06,株式会社ｍｏｍｍｙ　ｆａｒｍ,,株式会社,茨城県,常陸大宮市,辰ノ口２６３５番地,,08,225,3192201,,,,,,,2023-10-06,1,,,,,マミーファーム,0
1752,6070001040925,新規,0,2023-10-06,2023-10-06,株式会社染谷設備,,株式会社,群馬県,沼田市,横塚町７６６番地３,,10,206,3780002,,,,,,,2023-10-06,1,,,,,ソメヤセツビ,0
1753,6070001040941,新規,0,2023-10-06,2023-10-06,株式会社ストロベリーみなみ,,株式会社,群馬県,北群馬郡榛東村,大字広馬場２４８３番地,,10,344,3703504,,,,,,,2023-10-06,1,,,,,,0
1755,6070003005117,新規,0,2023-10-06,2023-10-06,合同会社ＹＧ　ＳＥＲＶＩＣＥ,,合同会社,群馬県,伊勢崎市,東町２７１１番地８,,10,204,3792231,,,,,,,2023-10-06,1,,,,,ワイジーサービス,0
1757,6080001025900,新規,0,2023-10-06,2023-10-06,株式会社ヤギ工業,,株式会社,静岡県,牧之原市,細江２４８番地,,22,226,4210421,,,,,,,2023-10-06,1,,,,,ヤギコウギョウ,0
1759,6080101024249,新規,0,2023-10-06,2023-10-06,株式会社ビッグバン,,株式会社,静岡県,御殿場市,上小林１１８１番地の６,,22,215,4120002,,,,,,,2023-10-06,1,,,,,ビッグバン,0
1760,6080103002896,新規,0,2023-10-06,2023-10-06,合同会社ｌｏｃａｌ　ｉｓ　ｂｅａｔ,,合同会社,静岡県,下田市,西本郷２丁目５―３０ｗｉｔｈａｔｒｅｅ,,22,219,4150036,,,,,,,2023-10-06,1,,,,,ローカルイズビート,0
1770,6110001037900,新規,0,2023-10-06,2023-10-06,株式会社Ａｃｏｚ,,株式会社,新潟県,新潟市中央区,堀之内南１丁目１８番１０号ジョアンガーデン３０１号,,15,103,9500982,,,,,,,2023-10-06,1,,,,,アコーズ,0
1782,6120001258677,新規,0,2023-10-06,2023-10-06,株式会社ｗｏ‐ｌｉｎｋ,,株式会社,大阪府,大阪市北区,紅梅町２番１７号,,27,127,5300038,,,,,,,2023-10-06,1,,,,,ウーリンク,0
1788,6120003025043,新規,0,2023-10-06,2023-10-06,にしライフ合同会社,,合同会社,大阪府,大阪市北区,梅田１丁目２番２号大阪駅前第２ビル１２－１２,,27,127,5300001,,,,,,,2023-10-06,1,,,,,ニシライフ,0
1789,6120003025068,新規,0,2023-10-06,2023-10-06,合同会社魔法企画,,合同会社,大阪府,大阪市中央区,南船場１丁目５‐４ラクラス長堀橋９０４,,27,128,5420081,,,,,,,2023-10-06,1,,,,,マホウキカク,0
1797,6120101068332,新規,0,2023-10-06,2023-10-06,株式会社ＨＡＬ　ＴＩＬＥ,,株式会社,大阪府,松原市,阿保３丁目６番２－５０２号,,27,217,5800043,,,,,,,2023-10-06,1,,,,,ハルタイル,0
1798,6120901048129,新規,0,2023-10-06,2023-10-06,株式会社濱崎設備,00132151,株式会社,大阪府,豊中市,原田元町１丁目１５番１９号,,27,203,5610808,,,,,,,2023-10-06,1,,,,,ハマサキセツビ,0
1805,6130001075312,新規,0,2023-10-06,2023-10-06,Ｉｖａｎ株式会社,,株式会社,京都府,京都市中京区,西洞院通丸太町下る田中町１３４番３,,26,104,6040081,,,,,,,2023-10-06,1,,,,,アイバン,0
1806,6130001075361,新規,0,2023-10-06,2023-10-06,ＦＡＮＵＣＩ日本株式会社,,株式会社,京都府,京都市南区,吉祥院池田町８,,26,107,6018349,,,,,,,2023-10-06,1,,,,,ファヌチニホン,0
1808,6130003009029,新規,0,2023-10-06,2023-10-06,合同会社オリオン,,合同会社,京都府,京都市西京区,桂巽町５３番地１ルルアベル桂１０３,00132171,26,111,6158075,,,,,,,2023-10-06,1,,,,,オリオン,0
1813,6140001131824,新規,0,2023-10-06,2023-10-06,ＴＫシステムソリューション株式会社,,株式会社,兵庫県,西宮市,羽衣町７番３０号夙川グリーンタウン３階,,28,204,6620051,,,,,,,2023-10-06,1,,,,,ティーケーシステムソリューション,0
1814,6140001131840,新規,0,2023-10-06,2023-10-06,株式会社オフィスアールズ,,株式会社,兵庫県,神戸市中央区,生田町１丁目４－１ショダリ２１西館２Ｆ,,28,110,6510092,,,,,,,2023-10-06,1,,,,,オフィスアールズ,0
1815,6140001131857,新規,0,2023-10-06,2023-10-06,株式会社オクダ,,株式会社,兵庫県,三木市,志染町青山５丁目１番地の７,,28,215,6730521,,,,,,,2023-10-06,1,,,,,オクダ,0
1816,6140001131907,新規,0,2023-10-06,2023-10-06,株式会社Ｃ‐ｃｈｅｒｉｓｈ,,株式会社,兵庫県,神戸市西区,伊川谷町有瀬１５１２番地の１０,,28,111,6512113,,,,,,,2023-10-06,1,,,,,シチェリッシュ,0
1818,6140003019621,新規,0,2023-10-06,2023-10-06,ハル合同会社,,合同会社,兵庫県,神戸市北区,道場町日下部９３９番地の１８,,28,109,6511505,,,,,,,2023-10-06,1,,,,,ハル,0
1819,6140003019638,新規,0,2023-10-06,2023-10-06,合同会社南淡鮮魚,,合同会社,兵庫県,南あわじ市,灘土生１番地１,,28,224,6560551,,,,,,,2023-10-06,1,,,,,ナンダンセンギョ,0
1820,6150001026775,新規,0,2023-10-06,2023-10-06,萬三商事株式会社,,株式会社,奈良県,桜井市,大字吉備５６６－１,,29,206,6330065,,,,,,,2023-10-06,1,,,,,マンサンショウジ,0
1821,6150003003087,新規,0,2023-10-06,2023-10-06,ＫＩｔｏＫＡ合同会社,,合同会社,奈良県,生駒郡斑鳩町,小吉田１丁目４番８号,00132159,29,344,6360142,,,,,,,2023-10-06,1,,,,,キトカ,0
1824,6170001017822,新規,0,2023-10-06,2023-10-06,サンクステック株式会社,,株式会社,和歌山県,和歌山市,粟２４８番地キューブＮ１１５号,,30,201,6408462,,,,,,,2023-10-06,1,,,,,サンクステック,0
1832,6180001158269,新規,0,2023-10-06,2023-10-06,株式会社心創,,株式会社,愛知県,弥富市,前ケ平３丁目１０９番地,,23,235,4980003,,,,,,,2023-10-06,1,,,,,シンソウ,0
1833,6180001158285,新規,0,2023-10-06,2023-10-06,株式会社ＬＩＧ,,株式会社,愛知県,名古屋市名東区,猪子石１丁目２８０９番地の２,,23,115,4650021,,,,,,,2023-10-06,1,,,,,リィグ,0
1834,6180001158351,新規,0,2023-10-06,2023-10-06,株式会社ｄａｙｓ　ｏｎｅ,,株式会社,愛知県,名古屋市港区,十一屋２丁目２８４番地の１サニープレイス十一屋Ｇ棟１０６号,,23,111,4550831,,,,,,,2023-10-06,1,,,,,デイズワン,0
1843,6190001030765,新規,0,2023-10-06,2023-10-06,株式会社ワクリード,,株式会社,三重県,多気郡多気町,弟国２５３番地１,,24,441,5192152,,,,,,,2023-10-06,1,,,,,ワクリード,0
1858,6210001019500,新規,0,2023-10-06,2023-10-06,株式会社ｗａｖｅ,,株式会社,福井県,坂井市,春江町江留下屋敷２６１番地２,,18,210,9190414,,,,,,,2023-10-06,1,,,,,ウェーブ,0
1859,6220001025621,新規,0,2023-10-06,2023-10-06,株式会社加州美術,,株式会社,石川県,金沢市,三社町３番１８号グリーンマンション１０１号,,17,201,9200861,,,,,,,2023-10-06,1,,,,,カシュウビジュツ,0
1864,6240001062217,新規,0,2023-10-06,2023-10-06,株式会社ＴＮＦ,,株式会社,広島県,広島市安佐南区,上安１丁目１番８号１Ｆ,,34,105,7310154,,,,,,,2023-10-06,1,,,,,ティーエヌエフ,0
1865,6240001062225,新規,0,2023-10-06,2023-10-06,株式会社Ｔｅｒｒａ工房,,株式会社,広島県,広島市西区,井口５丁目１番１４号,,34,104,7330842,,,,,,,2023-10-06,1,,,,,テラコウボウ,0
1866,6240001062233,新規,0,2023-10-06,2023-10-06,株式会社オーナーズサポート,,株式会社,広島県,広島市安佐南区,長束３丁目１２番９号,,34,105,7310135,,,,,,,2023-10-06,1,,,,,オーナーズサポート,0
1867,6240003006345,新規,0,2023-10-06,2023-10-06,ＧＡＩＲＥ合同会社,,合同会社,広島県,広島市中区,小町８－２１エスケーハイム７０４,,34,101,7300041,,,,,,,2023-10-06,1,,,,,,0
1868,6250001020322,新規,0,2023-10-06,2023-10-06,Ｒ＆ＮＥＸＵＳ株式会社,,株式会社,山口県,下関市,秋根本町２丁目１０番１０－５０７号,,35,201,7510875,,,,,,,2023-10-06,1,,,,,アールアンドネクサス,0
1877,6270003001566,新規,0,2023-10-06,2023-10-06,合同会社ハウステック,,合同会社,鳥取県,境港市,竹内町１１８０番地５,,31,204,6840043,,,,,,,2023-10-06,1,,,,,ハウステック,0
1879,6290001103206,新規,0,2023-10-06,2023-10-06,株式会社Ｂｅ’ｒｏｏｔ,,株式会社,福岡県,福岡市中央区,舞鶴１丁目４番２９号,,40,133,8100073,,,,,,,2023-10-06,1,,,,,ビールート,0
1880,6290001103247,新規,0,2023-10-06,2023-10-06,テクノス株式会社,,株式会社,福岡県,久留米市,三潴町西牟田６５３２番地１,,40,203,8300111,,,,,,,2023-10-06,1,,,,,テクノス,0
1881,6290001103255,新規,0,2023-10-06,2023-10-06,ＳＥＮＫＡ株式会社,,株式会社,福岡県,宗像市,東郷２丁目４番１６号,,40,220,8113436,,,,,,,2023-10-06,1,,,,,センカ,0
1883,6290005019167,新規,0,2023-10-06,2023-10-06,一般社団法人ヒューマネタリアンサポート協会,,その他の設立登記法人,福岡県,福岡市博多区,吉塚２丁目２０番４８－１２０６号エイルマンション吉塚アルファス,,40,132,8120041,,,,,,,2023-10-06,1,,,,,ヒューマネタリアンサポートキョウカイ,0
1884,6300001013493,新規,0,2023-10-06,2023-10-06,株式会社フクロウ,,株式会社,佐賀県,佐賀市,兵庫町大字若宮１２１０番地１,,41,201,8490911,,,,,,,2023-10-06,1,,,,,フクロウ,0
1885,6310001018649,新規,0,2023-10-06,2023-10-06,株式会社本屋,,株式会社,長崎県,北松浦郡小値賀町,笛吹郷１４５８番地,,42,383,8574701,,,,,,,2023-10-06,1,,,,,ホンヤ,0
1892,6330001031303,新規,0,2023-10-06,2023-10-06,新應材日本株式会社,,株式会社,熊本県,熊本市中央区,下通１丁目３番８号下通ＮＳビル６階,,43,101,8600807,,,,,,,2023-10-06,1,,,,,シンオウザイニホン,0
1893,6330001031336,新規,0,2023-10-06,2023-10-06,株式会社ＫＳプランニング,,株式会社,熊本県,熊本市東区,保田窪５丁目８番１２－Ｄ号,,43,102,8620926,,,,,,,2023-10-06,1,,,,,ケイエスプランニング,0
1897,6350001018595,新規,0,2023-10-06,2023-10-06,株式会社魚人,,株式会社,宮崎県,延岡市,稲葉崎町２丁目１３３番地,,45,203,8820003,,,,,,,2023-10-06,1,,,,,ウオジン,0
1900,6360001032653,新規,0,2023-10-06,2023-10-06,株式会社ＭＩＹＡＧＩ,,株式会社,沖縄県,名護市,字宇茂佐１７０１番地１,,47,209,9050006,,,,,,,2023-10-06,1,,,,,ミヤギ,0
1901,6360003013362,新規,0,2023-10-06,2023-10-06,合同会社リリーフ,,合同会社,沖縄県,うるま市,石川東恩納９７１番地３９,,47,213,9041111,,,,,,,2023-10-06,1,,,,,リリーフ,0
1921,6430001090074,新規,0,2023-10-06,2023-10-06,株式会社ＦｌｙＷｏｒｋｓ,,株式会社,北海道,札幌市中央区,南二条西１０丁目１０００－２４ＴＡＫＥＴＯビル,,01,101,0600062,,,,,,,2023-10-06,1,,,,,フライワークス,0
1922,6430001090099,新規,0,2023-10-06,2023-10-06,Ｗ．株式会社,,株式会社,北海道,札幌市白石区,北郷一条１丁目５番１７号,,01,104,0030831,,,,,,,2023-10-06,1,,,,,ダブリュードット,0
1923,6430001090108,新規,0,2023-10-06,2023-10-06,株式会社オチアイ,,株式会社,北海道,札幌市北区,北二十七条西５丁目２－６－１０３,,01,102,0010027,,,,,,,2023-10-06,1,,,,,オチアイ,0
1935,6700150116338,新規,0,2023-10-06,2023-10-06,Ｇｕａｎｇｚｈｏｕ　Ｙｕｎｐｒｏｇｒａｍ　Ａｕｔｏ　Ｐａｒｔｓ　Ｃｏ．，Ｌｔｄ．,,外国会社等,,,,,,,,Ｒｏｏｍ　１０１，Ｎｏ．５５，Ｆｅｎｇｈｕａｎｇ　Ｎｏｒｔｈ　Ｒｏａｄ，Ｈｕａｄｕ　Ｄｉｓｔｒｉｃｔ，（Ｌｏｃａｔｉｏｎ：Ｒｏｏｍ　３１１）Ｇｕａｎｇｚｈｏｕ　Ｃｉｔｙ，Ｇｕａｎｇｄｏｎｇ　Ｐｒｏｖｉｎｃｅ，Ｃｈｉｎａ,,,,,,2023-10-06,1,,,,,コウシュウウンテイシキキハイユウゲンカイシャ,0
1936,6700150121098,新規,0,2023-10-06,2023-10-06,Ｈｅｆｅｉ　Ｐｌｕｓ　Ｅ－Ｃｏｍｍｅｒｃｅ　Ｃｏ．，Ｌｔｄ．,,外国会社等,,,,,,,,５Ｄ３３０３，ＤａｆｕＸｉｎＬｉｎｇＤｉ，Ｘｉｎｚｈａｎ　Ｄｉｓｔｒｉｃｔ　Ｈｅｆｅｉ　Ｃｉｔｙ　Ａｎｈｕｉ　Ｐｒｏｖｉｎｃｅ,,,,,,2023-10-06,1,,,,,ホーフェイシープーラースーディエンズーシャンウーヨウシエンゴンスー,0
1937,6700150121107,新規,0,2023-10-06,2023-10-06,ＳｈｅｎＺｈｅｎ　ＷｅｉＰａｎ　Ｅｌｅｃｔｒｏｎｉｃ　Ｔｅｃｈｎｏｌｏｇｙ　Ｃｏ．，Ｌｔｄ,,外国会社等,,,,,,,,Ｒｏｏｍ　９０６，ｂｕｉｌｄｉｎｇ　Ａ，Ｎａｎｘｉａｎ　Ｃｏｍｍｅｒｃｉａｌ　Ｐｌａｚａ，Ｍｅｉｌｏｎｇ　Ｒｏａｄ，Ｎｅｗ　Ｌｏｎｇｈｕａ　Ｄｉｓｔｒｉｃｔ，Ｓｈｅｎｚｈｅｎ，Ｇｕａｎｇｄｏｎｇ,,,,,,2023-10-06,1,,,,,シンセンシビバンデンシカギユウゲンコウシ,0
1944,7010001238961,新規,0,2023-10-06,2023-10-06,ブレインアワネス株式会社,,株式会社,東京都,千代田区,神田三崎町２丁目４－１３,,13,101,1010061,,,,,,,2023-10-06,1,,,,,ブレインアワネス,0
1945,7010001239027,新規,0,2023-10-06,2023-10-06,株式会社グローリーアジアグループ,,株式会社,東京都,千代田区,永田町２丁目１１－１山王パークタワー３階,,13,101,1000014,,,,,,,2023-10-06,1,,,,,グローリーアジアグループ,0
1946,7010003041843,新規,0,2023-10-06,2023-10-06,合同会社ユニフィード,,合同会社,東京都,文京区,白山２丁目２番７号,,13,105,1120001,,,,,,,2023-10-06,1,,,,,ユニフィード,0
1955,7010401177512,新規,0,2023-10-06,2023-10-06,株式会社日本餃子協会,,株式会社,東京都,港区,南青山２丁目２番１５号ＷｉｎＡｏｙａｍａビルＵＣＦ６３５,,13,103,1070062,,,,,,,2023-10-06,1,,,,,ニホンギョウザキョウカイ,0
1956,7010401177537,新規,0,2023-10-06,2023-10-06,株式会社ＰＩＸＥＬ　ＣＯＮＮＥＣＴ,,株式会社,東京都,港区,北青山１丁目３番１号アールキューブ青山３階,,13,103,1070061,,,,,,,2023-10-06,1,,,,,ピクセルコネクト,0
1957,7010401177594,新規,0,2023-10-06,2023-10-06,株式会社ソリューション・ファクトリー・イシバシ,,株式会社,東京都,港区,北青山１丁目３番１号アールキューブ青山３階,,13,103,1070061,,,,,,,2023-10-06,1,,,,,ソリューションファクトリーイシバシ,0
1958,7010403031056,新規,0,2023-10-06,2023-10-06,Ｌ．Ｍ．ＮＥＤ合同会社,,合同会社,東京都,港区,麻布十番１丁目２番７号ラフィネ麻布十番７０１号室,,13,103,1060045,,,,,,,2023-10-06,1,,,,,エルエムネッド,0
1959,7010403031064,新規,0,2023-10-06,2023-10-06,ニッシーインダストリアル合同会社,,合同会社,東京都,港区,芝浦３丁目１７－１１,,13,103,1080023,,,,,,,2023-10-06,1,,,,,ニッシーインダストリアル,0
1962,7010601063900,新規,0,2023-10-06,2023-10-06,株式会社ＳＯＲＡＫＵＡ,,株式会社,東京都,江東区,塩浜１丁目５番３０－７０１号,,13,108,1350043,,,,,,,2023-10-06,1,,,,,ソラクア,0
1963,7010601063909,新規,0,2023-10-06,2023-10-06,株式会社たちいち,,株式会社,東京都,江東区,森下３丁目１９番６号１階,,13,108,1350004,,,,,,,2023-10-06,1,,,,,タチイチ,0
1964,7010601063917,新規,0,2023-10-06,2023-10-06,株式会社ｓｈｏｒｔｃｕｔ,,株式会社,東京都,江東区,木場３丁目１８番２－１２０７号,,13,108,1350042,,,,,,,2023-10-06,1,,,,,ショートカット,0
1965,7010605004248,新規,0,2023-10-06,2023-10-06,一般社団法人ライフスタイルサポート,,その他の設立登記法人,東京都,江東区,深川１丁目１番２号,,13,108,1350033,,,,,,,2023-10-06,1,,,,,ライフスタイルサポート,0
1968,7010805003066,新規,0,2023-10-06,2023-10-06,一般社団法人どうぶつ疾病研究支援協会,,その他の設立登記法人,東京都,大田区,田園調布２丁目１番２号,,13,111,1450071,,,,,,,2023-10-06,1,,,,,ドウブツシッペイケンキュウシエンキョウカイ,0
1971,7011001157391,新規,0,2023-10-06,2023-10-06,株式会社上目黒毛髪研究所,,株式会社,東京都,目黒区,上目黒３丁目４２番２９号,,13,110,1530051,,,,,,,2023-10-06,1,,,,,カミメグロモウハツケンキュウショ,0
1972,7011001157425,新規,0,2023-10-06,2023-10-06,株式会社Ａｖａｎｔｉ,,株式会社,東京都,渋谷区,神宮前４丁目１９番８号アロープラザ原宿１０４,,13,113,1500001,,,,,,,2023-10-06,1,,,,,アヴァンティ,0
1975,7011101104632,新規,0,2023-10-06,2023-10-06,株式会社エヌイチ,,株式会社,東京都,新宿区,新宿１丁目３６番２号新宿第七葉山ビル３階,,13,104,1600022,,,,,,,2023-10-06,1,,,,,エヌイチ,0
1976,7011101104649,新規,0,2023-10-06,2023-10-06,楽和通商株式会社,,株式会社,東京都,新宿区,新宿１丁目２４番７号ルネ御苑プラザ７１６号室,,13,104,1600022,,,,,,,2023-10-06,1,,,,,ラクワツウショウ,0
1977,7011101104673,新規,0,2023-10-06,2023-10-06,株式会社犬コアラ,,株式会社,東京都,新宿区,大京町２６番地５１アズミュージック新宿御苑Ｂ１Ｆ,,13,104,1600015,,,,,,,2023-10-06,1,,,,,イヌコアラ,0
1978,7011103013559,新規,0,2023-10-06,2023-10-06,合同会社スプリングアカウンティング,,合同会社,東京都,新宿区,左門町６番地７鯉江ビル４０２号,,13,104,1600017,,,,,,,2023-10-06,1,,,,,スプリングアカウンティング,0
1984,7011303004928,新規,0,2023-10-06,2023-10-06,合同会社Ｐ＆Ｃ,,合同会社,東京都,杉並区,和泉３丁目３０番８号,,13,115,1680063,,,,,,,2023-10-06,1,,,,,ピーアンドシー,0
1987,7011401025512,新規,0,2023-10-06,2023-10-06,株式会社ＲＰスタイル,,株式会社,東京都,板橋区,板橋２丁目４６番１０号,,13,119,1730004,,,,,,,2023-10-06,1,,,,,アールピースタイル,0
1989,7011501029834,新規,0,2023-10-06,2023-10-06,株式会社Ｔｒｌｎｎｏｖａｔｅ,,株式会社,東京都,北区,赤羽１丁目２６番１１,,13,117,1150045,,,,,,,2023-10-06,1,,,,,トリノベート,0
1993,7011801043139,新規,0,2023-10-06,2023-10-06,株式会社ケーユー興業,,株式会社,東京都,足立区,竹の塚３丁目１０番１５－４０３号,,13,121,1210813,,,,,,,2023-10-06,1,,,,,ケーユーコウギョウ,0
1999,7012801022677,新規,0,2023-10-06,2023-10-06,株式会社丸室内,,株式会社,東京都,立川市,錦町４丁目７番２７号,,13,202,1900022,,,,,,,2023-10-06,1,,,,,マルシツナイ,0
2001,7012803003205,新規,0,2023-10-06,2023-10-06,合同会社ＳＢＧｓ,,合同会社,東京都,昭島市,昭和町１丁目３番３３号,,13,207,1960015,,,,,,,2023-10-06,1,,,,,エスビージーズ,0
2003,7013101009258,新規,0,2023-10-06,2023-10-06,ＦＬＹ株式会社,,株式会社,東京都,福生市,大字熊川１６３０番地１９,,13,218,1970003,,,,,,,2023-10-06,1,,,,,フライ,0
2012,7020001153788,新規,0,2023-10-06,2023-10-06,株式会社アンダーマウント,,株式会社,神奈川県,川崎市多摩区,中野島３丁目８番１０－４０９号,,14,135,2140012,,,,,,,2023-10-06,1,,,,,アンダーマウント,0
2013,7020001153821,新規,0,2023-10-06,2023-10-06,株式会社キラエンジニア,,株式会社,神奈川県,横浜市中区,曙町１丁目１０番地７シーフォルム関内５０１,,14,104,2310057,,,,,,,2023-10-06,1,,,,,キラエンジニア,0
2019,7020003024707,新規,0,2023-10-06,2023-10-06,合同会社ＣＯＳＵＣＯ,,合同会社,神奈川県,川崎市中原区,下小田中５丁目６番７号,,14,133,2110041,,,,,,,2023-10-06,1,,,,,コスコ,0
2023,7021001080353,新規,0,2023-10-06,2023-10-06,株式会社ｓｅｅ,,株式会社,神奈川県,藤沢市,鵠沼橘１丁目１７番５号,,14,205,2510024,,,,,,,2023-10-06,1,,,,,シー,0
2035,7030001155858,新規,0,2023-10-06,2023-10-06,株式会社ＦＲＡＭＥ,,株式会社,埼玉県,川口市,末広３丁目４番３２－３号,,11,203,3320006,,,,,,,2023-10-06,1,,,,,フレーム,0
2036,7030001156328,新規,0,2023-10-06,2023-10-06,野田不動産鑑定株式会社,,株式会社,埼玉県,富士見市,鶴瀬東１丁目５番１２号３０２,,11,235,3540024,,,,,,,2023-10-06,1,,,,,ノダフドウサンカンテイ,0
2037,7030001156360,新規,0,2023-10-06,2023-10-06,株式会社ＡＨＡＧＯＮ,,株式会社,埼玉県,入間市,高倉２丁目３番４０号ハウスヨシザワ１０５,,11,225,3580021,,,,,,,2023-10-06,1,,,,,アハゴン,0
2038,7030001156377,新規,0,2023-10-06,2023-10-06,株式会社イザナキ会計,,株式会社,埼玉県,比企郡鳩山町,大字赤沼２３５５番地１,,11,348,3500321,,,,,,,2023-10-06,1,,,,,イザナキカイケイ,0
2039,7030001156393,新規,0,2023-10-06,2023-10-06,株式会社バディット,,株式会社,埼玉県,さいたま市大宮区,桜木町２丁目３番地大宮マルイ７階,,11,103,3300854,,,,,,,2023-10-06,1,,,,,バディット,0
2040,7030001156501,新規,0,2023-10-06,2023-10-06,株式会社竜和,,株式会社,埼玉県,戸田市,喜沢２丁目２７番地の１－１０３,,11,224,3350013,,,,,,,2023-10-06,1,,,,,リュウワ,0
2046,7030003022668,新規,0,2023-10-06,2023-10-06,ＡＫＷＧ合同会社,,合同会社,埼玉県,川口市,幸町１丁目５番２１号,,11,203,3320016,,,,,,,2023-10-06,1,,,,,アーカーヴェーゲー,0
2047,7030003022701,新規,0,2023-10-06,2023-10-06,合同会社Ｐｏｎｏ,,合同会社,埼玉県,和光市,丸山台２丁目１４－５プレミール和光５０５,,11,229,3510112,,,,,,,2023-10-06,1,,,,,ポノ,0
2048,7030005021420,新規,0,2023-10-06,2023-10-06,インフィニート税理士法人,,その他の設立登記法人,埼玉県,新座市,東北２丁目２６番２－１０２号,,11,230,3520001,,,,,,,2023-10-06,1,,,,,インフィニート,0
2051,7040001130348,新規,0,2023-10-06,2023-10-06,Ｔｏｙ　Ｓｐｏｒｔｓ　Ｊａｐａｎ株式会社,,株式会社,千葉県,船橋市,本郷町６６６番地３－４０３号,,12,204,2730033,,,,,,,2023-10-06,1,,,,,トイスポーツジャパン,0
2052,7040001130364,新規,0,2023-10-06,2023-10-06,株式会社Ｇ‐ＴＥＣＨ,,株式会社,千葉県,木更津市,港南台２丁目１番地２６,,12,206,2920827,,,,,,,2023-10-06,1,,,,,ジーテック,0
2053,7040001130372,新規,0,2023-10-06,2023-10-06,株式会社布良農園,,株式会社,千葉県,八街市,上砂４２番地９,,12,230,2891125,,,,,,,2023-10-06,1,,,,,フラノウエン,0
2054,7040003023459,新規,0,2023-10-06,2023-10-06,合同会社ＳＲＣ,,合同会社,千葉県,松戸市,本町１５番地の１－２０３号,,12,207,2710091,,,,,,,2023-10-06,1,,,,,エスアールシー,0
2055,7040003023467,新規,0,2023-10-06,2023-10-06,合同会社ｍａｔｃｈ,,合同会社,千葉県,木更津市,請西８３５番地１４津賀レジデンスＢ棟１０２,,12,206,2920801,,,,,,,2023-10-06,1,,,,,マッチ,0
2056,7040003023475,新規,0,2023-10-06,2023-10-06,合同会社ＳＡＩＯＯ,,合同会社,千葉県,我孫子市,中里１９４番地の５,,12,222,2701122,,,,,,,2023-10-06,1,,,,,サイオー,0
2057,7040003023483,新規,0,2023-10-06,2023-10-06,合同会社ＹＳＳコーポレーション,,合同会社,千葉県,八街市,八街い１６５番地３７マツモトアパート１号,,12,230,2891143,,,,,,,2023-10-06,1,,,,,ワイエスエスコーポレーション,0
2061,7050001053580,新規,0,2023-10-06,2023-10-06,小林工業株式会社,,株式会社,茨城県,古河市,大堤１２２７番地１７,,08,204,3060236,,,,,,,2023-10-06,1,,,,,コバヤシコウギョウ,0
2065,7050003007832,新規,0,2023-10-06,2023-10-06,合同会社Ｓパワー,,合同会社,茨城県,筑西市,犬塚５６番地６,,08,227,3080117,,,,,,,2023-10-06,1,,,,,エスパワー,0
2070,7060003004746,新規,0,2023-10-06,2023-10-06,合同会社池田住宅設備,,合同会社,栃木県,日光市,板橋９８８－１９０,,09,206,3211102,,,,,,,2023-10-06,1,,,,,イケダジュウタクセツビ,0
2073,7070001040924,新規,0,2023-10-06,2023-10-06,株式会社ゆりの,,株式会社,群馬県,高崎市,山名町３７０番地２７,,10,202,3701213,,,,,,,2023-10-06,1,,,,,ユリノ,0
2074,7070001040932,新規,0,2023-10-06,2023-10-06,株式会社リンジン,,株式会社,群馬県,館林市,大島町２３５０番地,,10,207,3740001,,,,,,,2023-10-06,1,,,,,リンジン,0
2075,7070001040940,新規,0,2023-10-06,2023-10-06,株式会社剛扇,,株式会社,群馬県,前橋市,天川大島町２丁目２０番地２６,,10,201,3792154,,,,,,,2023-10-06,1,,,,,ゴウセン,0
2078,7070003005116,新規,0,2023-10-06,2023-10-06,合同会社スメラ,,合同会社,群馬県,高崎市,棟高町１８０２番地３６,,10,202,3703521,,,,,,,2023-10-06,1,,,,,スメラ,0
2079,7080001025899,新規,0,2023-10-06,2023-10-06,堀電株式会社,,株式会社,静岡県,静岡市清水区,押切２０２２番地,,22,103,4240008,,,,,,,2023-10-06,1,,,,,ホリデン,0
2090,7110003005177,新規,0,2023-10-06,2023-10-06,ハピネス合同会社,,合同会社,新潟県,新潟市中央区,女池上山３丁目１１番３１号,,15,103,9500945,,,,,,,2023-10-06,1,,,,,ハピネス,0
2101,7120001258619,新規,0,2023-10-06,2023-10-06,株式会社周藤,,株式会社,大阪府,大阪市中央区,南船場３丁目１番１６号,,27,128,5420081,,,,,,,2023-10-06,1,,,,,スドウ,0
2102,7120001258701,新規,0,2023-10-06,2023-10-06,株式会社リバイブコア,,株式会社,大阪府,大阪市西区,江之子島１丁目１番９－２２３号,,27,106,5500006,,,,,,,2023-10-06,1,,,,,リバイブコア,0
2106,7120003025034,新規,0,2023-10-06,2023-10-06,合同会社ジーセブンス,,合同会社,大阪府,守口市,金田町１丁目２２番３号,,27,209,5700011,,,,,,,2023-10-06,1,,,,,ジーセブンス,0
2107,7120003025042,新規,0,2023-10-06,2023-10-06,ＭＨＲ．ｗｈｏｌｅｓａｌｅ合同会社,,合同会社,大阪府,大阪市鶴見区,鶴見１丁目３－１４,,27,124,5380053,,,,,,,2023-10-06,1,,,,,エムエイチアールホールセール,0
2108,7120003025059,新規,0,2023-10-06,2023-10-06,合同会社Ｃｕｌｉｎａｒｙ１ｇ,,合同会社,大阪府,大阪市中央区,心斎橋筋１丁目７番１号大丸心斎橋本館Ｂ２－１５,,27,128,5420085,,,,,,,2023-10-06,1,,,,,カリナリーイチグラム,0
2109,7120005023928,新規,0,2023-10-06,2023-10-06,税理士法人ベルーフ,,その他の設立登記法人,大阪府,大阪市中央区,南船場３丁目４番２６号,,27,128,5420081,,,,,,,2023-10-06,1,,,,,ベルーフ,0
2114,7120105009769,新規,0,2023-10-06,2023-10-06,行政書士法人あすか法務事務所,,その他の設立登記法人,大阪府,泉佐野市,下瓦屋２丁目２番７７号,,27,213,5980062,,,,,,,2023-10-06,1,,,,,アスカホウムジムショ,0
2118,7120901048128,新規,0,2023-10-06,2023-10-06,インテリアたけうち株式会社,,株式会社,大阪府,茨木市,三島丘２丁目９番３４号,,27,211,5670021,,,,,,,2023-10-06,1,,,,,インテリアタケウチ,0
2121,7122001037440,新規,0,2023-10-06,2023-10-06,株式会社ＤＢＩ,,株式会社,大阪府,東大阪市,若草町５番２５号,,27,227,5798056,,,,,,,2023-10-06,1,,,,,ディービーアイ,0
2122,7122001037449,新規,0,2023-10-06,2023-10-06,相生建築株式会社,,株式会社,大阪府,東大阪市,吉田１丁目７番１９号,,27,227,5780924,,,,,,,2023-10-06,1,,,,,アイオイケンチク,0
2126,7130001075369,新規,0,2023-10-06,2023-10-06,株式会社Ｄａｉｍｕ,,株式会社,京都府,宇治市,伊勢田町遊田１２番地２８３,,26,204,6110043,,,,,,,2023-10-06,1,,,,,ダイム,0
2127,7130001075435,新規,0,2023-10-06,2023-10-06,株式会社フォレスト,,株式会社,京都府,京都市伏見区,深草フチ町１０－２４,,26,109,6128438,,,,,,,2023-10-06,1,,,,,フォレスト,0
2130,7130003009036,新規,0,2023-10-06,2023-10-06,合同会社ＨＫＲＫ,,合同会社,京都府,長岡京市,今里樋ノ尻１９番地１７,00132160,26,209,6170814,,,,,,,2023-10-06,1,,,,,エイチケーアールケー,0
2138,7140003019637,新規,0,2023-10-06,2023-10-06,ベリーファクトリーｍｏｉ合同会社,,合同会社,兵庫県,神戸市垂水区,多聞台２丁目４番１６号,,28,108,6550007,,,,,,,2023-10-06,1,,,,,ベリーファクトリーモイ,0
2149,7180001158334,新規,0,2023-10-06,2023-10-06,株式会社金松,,株式会社,愛知県,春日井市,気噴町北１丁目１２０番地気噴ノースハイツ２－２,,23,206,4870015,,,,,,,2023-10-06,1,,,,,カネマツ,0
2150,7180001158350,新規,0,2023-10-06,2023-10-06,株式会社山誠社,,株式会社,愛知県,名古屋市中区,千代田５丁目１１番１６号ファステート鶴舞駅前２０２号,,23,106,4600012,,,,,,,2023-10-06,1,,,,,サンセイシャ,0
2154,7180003025821,新規,0,2023-10-06,2023-10-06,合同会社Ｂｅｙｏｎｄ　Ａｃｃｏｕｎｔｉｎｇ,,合同会社,愛知県,春日井市,高蔵寺町北４丁目１番地８エスポア高蔵寺２０６号,,23,206,4870016,,,,,,,2023-10-06,1,,,,,ビヨンドアカウンティング,0
2155,7180005020382,新規,0,2023-10-06,2023-10-06,一般社団法人愛知県山岳・スポーツクライミング連盟,,その他の設立登記法人,愛知県,名古屋市中村区,名駅４丁目２４番５号第２森ビル４０１,,23,105,4500002,,,,,,,2023-10-06,1,,,,,アイチケンサンガクスポーツクライミングレンメイ,0
2158,7180303005853,新規,0,2023-10-06,2023-10-06,ａｎｄ　ＦＵＮ合同会社,,合同会社,愛知県,豊田市,高岡町流川３６番地７,,23,211,4730933,,,,,,,2023-10-06,1,,,,,アンドファン,0
2160,7190001030789,新規,0,2023-10-06,2023-10-06,株式会社ツカサカ,,株式会社,三重県,鈴鹿市,鈴鹿ハイツ４３番３０号３０６,,24,207,5100208,,,,,,,2023-10-06,1,,,,,ツカサカ,0
2162,7190005011868,新規,0,2023-10-06,2023-10-06,一般社団法人三重県シラス鰻採捕組合,,その他の設立登記法人,三重県,桑名市,長島町駒江１３１番地,,24,205,5111144,,,,,,,2023-10-06,1,,,,,ミエケンシラスウナギサイホクミアイ,0
2172,7220003003599,新規,0,2023-10-06,2023-10-06,合同会社ｑｕｅ,,合同会社,石川県,野々市市,御経塚１丁目６３番地,,17,212,9218801,,,,,,,2023-10-06,1,,,,,キュー,0
2177,7240001062216,新規,0,2023-10-06,2023-10-06,寅卯ファクトリー株式会社,,株式会社,広島県,広島市中区,堺町２丁目６番２０号１Ｆ,,34,101,7300853,,,,,,,2023-10-06,1,,,,,トラウファクトリー,0
2178,7240003006360,新規,0,2023-10-06,2023-10-06,合同会社ハピネスシェア,,合同会社,広島県,広島市中区,銀山町３番１号ひろしまハイビル２１・１６階,,34,101,7300022,,,,,,,2023-10-06,1,,,,,ハピネスシェア,0
2180,7260001038379,新規,0,2023-10-06,2023-10-06,株式会社Ｎｕｔｓ,,株式会社,岡山県,岡山市東区,金岡西町１１７８番地６,,33,103,7048193,,,,,,,2023-10-06,1,,,,,ナッツ,0
2187,7290001103254,新規,0,2023-10-06,2023-10-06,株式会社商売繁盛研究所,,株式会社,福岡県,大牟田市,有明町１丁目１番地２２,,40,202,8360842,,,,,,,2023-10-06,1,,,,,ショウバイハンジョウケンキュウショ,0
2188,7290001103270,新規,0,2023-10-06,2023-10-06,株式会社Ｕｉｎｔａ　Ｐａｒｔｎｅｒｓ,,株式会社,福岡県,糸島市,前原中央２丁目１３－３,,40,230,8191116,,,,,,,2023-10-06,1,,,,,ユインタパートナーズ,0
2189,7290001103279,新規,0,2023-10-06,2023-10-06,株式会社ＨＭＴＥＮ　ＣＯＭＰＡＮＹ,,株式会社,福岡県,福岡市博多区,博多駅前３丁目１３－２５エステムコート博多駅前アヴェール３０７,,40,132,8120011,,,,,,,2023-10-06,1,,,,,エイチエムテンカンパニー,0
2190,7290001103295,新規,0,2023-10-06,2023-10-06,株式会社ｐｉｎｅ　ｐｒｏｇｒｅｓｓ,,株式会社,福岡県,福岡市東区,和白２丁目５番２８－５０１号,,40,131,8110202,,,,,,,2023-10-06,1,,,,,パインプログレス,0
2196,7310001018648,新規,0,2023-10-06,2023-10-06,株式会社リルハ,,株式会社,長崎県,諫早市,川床町３７４番地１,,42,204,8540052,,,,,,,2023-10-06,1,,,,,リルハ,0
2198,7310003004654,新規,0,2023-10-06,2023-10-06,ｏｆｆｉｃｅ　ｉｄｅ合同会社,,合同会社,長崎県,佐世保市,須田尾町１６番１５号,,42,202,8570831,,,,,,,2023-10-06,1,,,,,オフィスイデ,0
2219,7430001090123,新規,0,2023-10-06,2023-10-06,株式会社長崎組,00132155,株式会社,北海道,札幌市北区,屯田三条６丁目１番３６－２号,,01,102,0020853,,,,,,,2023-10-06,1,,,,,ナガサキグミ,0
2220,7430001090131,新規,0,2023-10-06,2023-10-06,株式会社ＦＵＬＬ　ＢＩＴＴ,,株式会社,北海道,札幌市中央区,南六条西９丁目１０２３番地３アルファコスモ南６条４０６号,,01,101,0640806,,,,,,,2023-10-06,1,,,,,フルビット,0
2221,7430001090172,新規,0,2023-10-06,2023-10-06,株式会社ＬｉｆｅＩｎｎｏｖａｔｉｏｎ,,株式会社,北海道,札幌市中央区,北二条西１３丁目１－１０札幌第一会計ビル,,01,101,0600002,,,,,,,2023-10-06,1,,,,,ライフイノベーション,0
2234,7470003002502,新規,0,2023-10-06,2023-10-06,リープリング合同会社,,合同会社,香川県,丸亀市,土器町東９丁目２８４番地ＣＬＯＶＥＲＫＹＯＴＯ１棟２－Ａ,,37,202,7630082,,,,,,,2023-10-06,1,,,,,リープリング,0
2239,7500003003117,新規,0,2023-10-06,2023-10-06,合同会社ｋｉｊｉｔｏｒａ,,合同会社,愛媛県,松山市,三津３丁目４番２５号,,38,201,7918061,,,,,,,2023-10-06,1,,,,,キジトラ,0
2240,7500005008642,新規,0,2023-10-06,2023-10-06,一般社団法人ｉ　ｓｈｉｋｏｋｕ　ｈｏｌｄｉｎｇｓ,,その他の設立登記法人,愛媛県,四国中央市,上分町７１６番地１,,38,213,7990121,,,,,,,2023-10-06,1,,,,,アイシコクホールディングス,0
2241,7700150121089,新規,0,2023-10-06,2023-10-06,Ｇｕａｎｇｚｈｏｕ　Ｒｏｎｇｚｈｉ　Ｄｉａｎｚｉｓｈａｎｇｗｕ　Ｙｏｕｘｉａｎｇｏｎｇｓｉ,,外国会社等,,,,,,,,Ｒｏｏｍ　２４０２Ｂ，Ｎｏ．１５７，Ｌｉｎｈｅｘｉ　Ｒｏａｄ，Ｔｉａｎｈｅｑｕ　Ｇｕａｎｇｚｈｏｕ　Ｇｕａｎｇｄｏｎｇ　５１００００　ＣＮ,,,,,,2023-10-06,1,,,,,グワンジヨウロンジーデイエンズーシヤンウーヨウシエンゴンスー,0
2242,7700150121097,新規,0,2023-10-06,2023-10-06,Ｇｕａｎｇｚｈｏｕｓｈｉｌｉｎｇｈｅｍａｏｙｉｙｏｕｘｉａｎｇｏｎｇｓｉ,,外国会社等,,,,,,,,Ｇｕａｎｇｚｈｏｕｓｈｉ　ｈｕａｄｕｑｕｓｈｉｌｉｎｇｚｈｅｎ　ｈｅｃｈｅｎｇｈｅｎｇｓａｎｘｉｎｑｕｅｒｓｈｉｘｉａｎｇ４ｈａｏｙｉｌｏｕ,,,,,,2023-10-06,1,,,,,グワンジョウシーリンホーマオイーヨウシエンゴンスー,0
2243,7700150121106,新規,0,2023-10-06,2023-10-06,ｚｈｏｎｇｓｈａｎｓｈｉｗａｎｙｉｚｈａｏｍｉｎｇ　ｔｅｃｈｎｏｌｏｇｙ　Ｃｏ．，ｌｔｄ,,外国会社等,,,,,,,,Ｎｏ．３　６ｔｈＦｌｏｏｒ　ＮｏｒｔｈＢｌｏｃｋ　Ｎｏ．１２　Ｌａｎｅ５　ＦｕｄｉｎｇＳｔｒｅｅｔ　ＡｄｊａｃｅｎｔＶｉｌｌａｇｅ　ＨｅｎｇｌａｎＴｏｗｎ　ＺｈｏｎｇｓｈａｎＣｉｔｙ　Ｃｈｉｎａ,,,,,,2023-10-06,1,,,,,ゾンサンシワンイザオミンテクノロジーカンパニーリミテッド,0
2259,8010001239018,新規,0,2023-10-06,2023-10-06,フューチャーシンクシステムズ株式会社,,株式会社,東京都,千代田区,鍛冶町２丁目７番４号ヨウコービル５Ｆ,,13,101,1010044,,,,,,,2023-10-06,1,,,,,フューチャーシンクシステムズ,0
2260,8010001239050,新規,0,2023-10-06,2023-10-06,株式会社ｕｎ　ｔｒｏｉｓ,,株式会社,東京都,中央区,銀座１丁目１２－４Ｎ＆ＥＢＬＤ．６Ｆ,,13,102,1040061,,,,,,,2023-10-06,1,,,,,アントロワ,0
2263,8010003041859,新規,0,2023-10-06,2023-10-06,合同会社ウェルネス,,合同会社,東京都,中央区,日本橋室町１丁目１１番１２号日本橋水野ビル７階,,13,102,1030022,,,,,,,2023-10-06,1,,,,,ウェルネス,0
2267,8010005037343,新規,0,2023-10-06,2023-10-06,一般社団法人小豆島安田プロジェクト,,その他の設立登記法人,東京都,中央区,日本橋１丁目４番１号,,13,102,1030027,,,,,,,2023-10-06,1,,,,,ショウドシマヤスダプロジェクト,0
2272,8010401177585,新規,0,2023-10-06,2023-10-06,Ａｔｒａｃｔ．Ｎａｈｏ株式会社,,株式会社,東京都,港区,南青山２丁目２番１５号ウィン青山９４２,,13,103,1070062,,,,,,,2023-10-06,1,,,,,アトラクトナホ,0
2277,8010601063908,新規,0,2023-10-06,2023-10-06,株式会社Ｔａｉｓｅｉ,,株式会社,東京都,墨田区,八広２丁目５１番３号,,13,107,1310041,,,,,,,2023-10-06,1,,,,,タイセイ,0
2278,8010601063916,新規,0,2023-10-06,2023-10-06,株式会社ｍｕｓｈｒｏｏｍ,,株式会社,東京都,江東区,木場３丁目１８－２－１２０７,,13,108,1350042,,,,,,,2023-10-06,1,,,,,マッシュルーム,0
2279,8010603010404,新規,0,2023-10-06,2023-10-06,合同会社Ｆｕｔｕｒｅ　Ｃｒｅａｔｉｏｎ,,合同会社,東京都,江東区,永代２丁目１０番１０号,,13,108,1350034,,,,,,,2023-10-06,1,,,,,フューチャークリエイション,0
2281,8010705003545,新規,0,2023-10-06,2023-10-06,一般社団法人ニューサウス,,その他の設立登記法人,東京都,品川区,上大崎３丁目１番１号目黒セントラルスクエア１５階,,13,109,1410021,,,,,,,2023-10-06,1,,,,,ニューサウス,0
2284,8010803004701,新規,0,2023-10-06,2023-10-06,ＳＭ合同会社,,合同会社,東京都,大田区,中央８丁目２２－２１セントラルコート２０２,,13,111,1430024,,,,,,,2023-10-06,1,,,,,エスエム,0
2286,8010901053947,新規,0,2023-10-06,2023-10-06,株式会社ＨｅａｌｔｈＷｏｒｘ,,株式会社,東京都,世田谷区,船橋３丁目１７番１２－３１３号,,13,112,1560055,,,,,,,2023-10-06,1,,,,,ヘルスワークス,0
2287,8010901053963,新規,0,2023-10-06,2023-10-06,株式会社セタスポ,,株式会社,東京都,世田谷区,太子堂４丁目７番４号セラピュアビル６Ｆ,,13,112,1540004,,,,,,,2023-10-06,1,,,,,セタスポ,0
2288,8010903008494,新規,0,2023-10-06,2023-10-06,金子加工所合同会社,,合同会社,東京都,世田谷区,船橋３丁目４番１３－１０６号,,13,112,1560055,,,,,,,2023-10-06,1,,,,,カネコカコウジョ,0
2295,8011001157275,新規,0,2023-10-06,2023-10-06,株式会社ＴＥＴＳＵＤＡＵ,,株式会社,東京都,渋谷区,渋谷２丁目１９番１５号宮益坂ビルディング６０９,,13,113,1500002,,,,,,,2023-10-06,1,,,,,テツダウ,0
2296,8011001157416,新規,0,2023-10-06,2023-10-06,株式会社エス・アイ,,株式会社,東京都,渋谷区,恵比寿１丁目８番６号共同ビルディング６階,,13,113,1500013,,,,,,,2023-10-06,1,,,,,エスアイ,0
2297,8011001157432,新規,0,2023-10-06,2023-10-06,株式会社ＢｅＲｅＶｅ,,株式会社,東京都,渋谷区,円山町５番５号Ｎａｖｉ渋谷Ｖ３階,,13,113,1500044,,,,,,,2023-10-06,1,,,,,ビレイブ,0
2299,8011003017675,新規,0,2023-10-06,2023-10-06,Ａ２Ａ　Ｃｒｅａｔｉｏｎｓ合同会社,,合同会社,東京都,渋谷区,神宮前６丁目２３番４号桑野ビル２階,,13,113,1500001,,,,,,,2023-10-06,1,,,,,エーツーエークリエーションズ,0
2316,8011401025511,新規,0,2023-10-06,2023-10-06,株式会社ラインネット,,株式会社,東京都,板橋区,板橋２丁目４６番１０号,,13,119,1730004,,,,,,,2023-10-06,1,,,,,,0
2319,8011601027167,新規,0,2023-10-06,2023-10-06,株式会社ムラカミトラック,,株式会社,東京都,練馬区,上石神井南町４番３４－２０５号,,13,120,1770043,,,,,,,2023-10-06,1,,,,,ムラカミトラック,0
2329,8012301013622,新規,0,2023-10-06,2023-10-06,ＴＭＧＯＬＦ株式会社,,株式会社,東京都,町田市,森野１丁目３２番１２号森谷ビル２Ｆ,,13,209,1940022,,,,,,,2023-10-06,1,,,,,ティーエムゴルフ,0
2330,8012403006219,新規,0,2023-10-06,2023-10-06,合同会社シニア元気サポート・ひまわり,,合同会社,東京都,多摩市,連光寺３丁目２番地の９,,13,224,2060021,,,,,,,2023-10-06,1,,,,,シニアゲンキサポートヒマワリ,0
2333,8012701017867,新規,0,2023-10-06,2023-10-06,株式会社リック,,株式会社,東京都,小平市,花小金井４丁目１０番１－３０１号,,13,211,1870002,,,,,,,2023-10-06,1,,,,,リック,0
2334,8012701017875,新規,0,2023-10-06,2023-10-06,株式会社ｆｉｌｍ,,株式会社,東京都,小平市,花小金井１丁目１番６号ビレッジリバービル１Ｆ,,13,211,1870002,,,,,,,2023-10-06,1,,,,,フィルム,0
2335,8012801022676,新規,0,2023-10-06,2023-10-06,株式会社ミリオン,,株式会社,東京都,国分寺市,東元町１丁目２３番２９号,,13,214,1850022,,,,,,,2023-10-06,1,,,,,ミリオン,0
2340,8013301051439,新規,0,2023-10-06,2023-10-06,大正製薬エフ・エム株式会社,,株式会社,東京都,豊島区,高田３丁目２５番１号,,13,116,1710033,,,,,,,2023-10-06,1,,,,,タイショウセイヤクエフエム,0
2345,8020001153779,新規,0,2023-10-06,2023-10-06,ユーキシン株式会社,,株式会社,神奈川県,川崎市高津区,久末１１４番地１１,,14,134,2130026,,,,,,,2023-10-06,1,,,,,ユーキシン,0
2350,8020003024714,新規,0,2023-10-06,2023-10-06,Ｓｎｏｗｓｈｉｐ合同会社,,合同会社,神奈川県,横浜市青葉区,あかね台１丁目３０番地３５,,14,117,2270066,,,,,,,2023-10-06,1,,,,,スノーシップ,0
2355,8021001080360,新規,0,2023-10-06,2023-10-06,カナウ株式会社,,株式会社,神奈川県,大和市,林間２丁目２０番２６号サンヴィレッジ南林間１Ｆ,,14,213,2420003,,,,,,,2023-10-06,1,,,,,カナウ,0
2362,8030001156285,新規,0,2023-10-06,2023-10-06,趣園株式会社,,株式会社,埼玉県,深谷市,見晴町２１－５,,11,218,3660819,,,,,,,2023-10-06,1,,,,,シュエン,0
2363,8030001156426,新規,0,2023-10-06,2023-10-06,株式会社アバレント,,株式会社,埼玉県,さいたま市中央区,八王子３丁目５番９－５号,,11,105,3380006,,,,,,,2023-10-06,1,,,,,アバレント,0
2367,8030003022551,新規,0,2023-10-06,2023-10-06,合同会社ＹＳ,,合同会社,埼玉県,八潮市,伊草１丁目２８６,,11,234,3400806,,,,,,,2023-10-06,1,,,,,ワイエス,0
2370,8040001130339,新規,0,2023-10-06,2023-10-06,株式会社シンシアトレード,,株式会社,千葉県,千葉市中央区,本千葉町１５番１号,,12,101,2600014,,,,,,,2023-10-06,1,,,,,シンシアトレード,0
2371,8040001130347,新規,0,2023-10-06,2023-10-06,エル・プラットフォーム株式会社,,株式会社,千葉県,松戸市,上本郷字押堀６５番地１,,12,207,2710064,,,,,,,2023-10-06,1,,,,,エルプラットフォーム,0
2372,8040001130355,新規,0,2023-10-06,2023-10-06,株式会社ＲＥ，ＢＯＯＴ,,株式会社,千葉県,八街市,八街ほ９７３番地４２,,12,230,2891115,,,,,,,2023-10-06,1,,,,,リブート,0
2373,8040001130371,新規,0,2023-10-06,2023-10-06,合連株式会社,,株式会社,千葉県,佐倉市,坂戸１４２２番地６,,12,212,2850078,,,,,,,2023-10-06,1,,,,,ゴウレン,0
2374,8040001130388,新規,0,2023-10-06,2023-10-06,株式会社ＺＩＭＭＥＲ　ＤＥＳＩＧＮ,,株式会社,千葉県,浦安市,高洲６丁目２番４－１１２号ザ・パークハウス新浦安マリンヴィラ,,12,227,2790023,,,,,,,2023-10-06,1,,,,,ジマーデザイン,0
2375,8040003023474,新規,0,2023-10-06,2023-10-06,メヴィ合同会社,,合同会社,千葉県,船橋市,本町６丁目１８番１９号第３山中ビル４０１号室,,12,204,2730005,,,,,,,2023-10-06,1,,,,,メヴィ,0
2376,8040003023482,新規,0,2023-10-06,2023-10-06,合同会社ＮｅｘｔＦｏｏｄｓ,,合同会社,千葉県,船橋市,緑台２丁目６番１棟１００１号,,12,204,2740818,,,,,,,2023-10-06,1,,,,,,0
2377,8040005022136,新規,0,2023-10-06,2023-10-06,一般社団法人インクルーシブ教育協会,,その他の設立登記法人,千葉県,千葉市中央区,春日２丁目２２－１３－３０１,,12,101,2600033,,,,,,,2023-10-06,1,,,,,インクルーシブキョウイクキョイカイ,0
2383,8070001040915,新規,0,2023-10-06,2023-10-06,株式会社ダンタム,,株式会社,群馬県,邑楽郡明和町,梅原９９４番地８,,10,522,3700714,,,,,,,2023-10-06,1,,,,,ダンタム,0
2384,8070001040923,新規,0,2023-10-06,2023-10-06,株式会社サンネクサス,,株式会社,群馬県,佐波郡玉村町,大字板井１４５６番地１,,10,464,3701135,,,,,,,2023-10-06,1,,,,,サンネクサス,0
2385,8070003005115,新規,0,2023-10-06,2023-10-06,合同会社プレッジ,,合同会社,群馬県,高崎市,弓町２３番地１,,10,202,3700051,,,,,,,2023-10-06,1,,,,,,0
2386,8070003005123,新規,0,2023-10-06,2023-10-06,合同会社テンエイト,,合同会社,群馬県,前橋市,稲荷新田町２２０番地９,,10,201,3710824,,,,,,,2023-10-06,1,,,,,テンエイト,0
2387,8070005010179,新規,0,2023-10-06,2023-10-06,一般社団法人在日ビルマロヒンギャ協会,,その他の設立登記法人,群馬県,館林市,苗木町１７５１番地の７,,10,207,3740043,,,,,,,2023-10-06,1,,,,,ザイニチビルマロヒンギャ,0
2392,8080105006365,新規,0,2023-10-06,2023-10-06,一般社団法人かぞくＤＸ産業振興会,,その他の設立登記法人,静岡県,沼津市,松長１０７番地の９,,22,203,4100874,,,,,,,2023-10-06,1,,,,,カゾクディーエックスサンギョウシンコウカイ,0
2394,8080403004888,新規,0,2023-10-06,2023-10-06,合同会社Ｌａｍｐｒａｎｔｈｕｓ,,合同会社,静岡県,浜松市中区,神田町４７３番地１サフィール２０１,,22,131,4328047,,,,,,,2023-10-06,1,,,,,ランプランサス,0
2395,8080405007575,新規,0,2023-10-06,2023-10-06,一般社団法人浜岡シラスうなぎ,,その他の設立登記法人,静岡県,御前崎市,塩原新田９４番地の３,,22,223,4371614,,,,,,,2023-10-06,1,,,,,ハマオカシラスウナギ,0
2397,8100001036835,新規,0,2023-10-06,2023-10-06,株式会社ＤＡＩＹＵ,,株式会社,長野県,上田市,富士山２８２８番地１２,,20,203,3861212,,,,,,,2023-10-06,1,,,,,ダイユー,0
2400,8110001037898,新規,0,2023-10-06,2023-10-06,株式会社ＭＡＲＫ,,株式会社,新潟県,新潟市西区,新通１２６５番地８,,15,107,9502035,,,,,,,2023-10-06,1,,,,,マーク,0
2403,8110003005176,新規,0,2023-10-06,2023-10-06,合同会社左京,,合同会社,新潟県,柏崎市,西山町二田６５５番地,,15,205,9494134,,,,,,,2023-10-06,1,,,,,サキョウ,0
2417,8120001258543,新規,0,2023-10-06,2023-10-06,株式会社さくらＤ８,,株式会社,大阪府,寝屋川市,河北東町６番１２号,,27,215,5720815,,,,,,,2023-10-06,1,,,,,サクラディーエイト,0
2418,8120001258592,新規,0,2023-10-06,2023-10-06,株式会社Ｍｅｄｉ＆Ａエンジン,,株式会社,大阪府,大阪市淀川区,西中島３丁目２３番１６号,,27,123,5320011,,,,,,,2023-10-06,1,,,,,メディアンドエーエンジン,0
2419,8120001258700,新規,0,2023-10-06,2023-10-06,ＪＳサービス株式会社,,株式会社,大阪府,大阪市中央区,南船場２丁目２番４号８Ｆ,,27,128,5420081,,,,,,,2023-10-06,1,,,,,ジェイエスサービス,0
2423,8120003025033,新規,0,2023-10-06,2023-10-06,合同会社ＷＡＮ,,合同会社,大阪府,大阪市西区,南堀江１丁目２６番２７－２０６号,,27,106,5500015,,,,,,,2023-10-06,1,,,,,ワン,0
2424,8120003025041,新規,0,2023-10-06,2023-10-06,ブリッジブックコンサルティング合同会社,,合同会社,大阪府,大阪市東淀川区,井高野１丁目２８番５８－１５号,,27,114,5330001,,,,,,,2023-10-06,1,,,,,ブリッジブックコンサルティング,0
2426,8120005023919,新規,0,2023-10-06,2023-10-06,弁護士法人万和,,その他の設立登記法人,大阪府,大阪市中央区,今橋３丁目２番２０号洪庵日生ビル２階,,27,128,5410042,,,,,,,2023-10-06,1,,,,,バンナ,0
2427,8120005023927,新規,0,2023-10-06,2023-10-06,一般社団法人アットパル,,その他の設立登記法人,大阪府,大阪市中央区,船場中央１丁目３番２－１３０号船場センタービル２号館,,27,128,5410055,,,,,,,2023-10-06,1,,,,,アットパル,0
2435,8122003002689,新規,0,2023-10-06,2023-10-06,合同会社サンコウ,,合同会社,大阪府,東大阪市,上石切町１丁目１１番１４号ファミール上石切アルテサージュ１３０２号,,27,227,5798012,,,,,,,2023-10-06,1,,,,,サンコウ,0
2439,8130001075368,新規,0,2023-10-06,2023-10-06,桂川株式会社,,株式会社,京都府,京都市右京区,嵯峨釈迦堂門前南中院町２２－２,,26,108,6168424,,,,,,,2023-10-06,1,,,,,カツラガワ,0
2446,8140001131839,新規,0,2023-10-06,2023-10-06,株式会社Ｔｉｍ,,株式会社,兵庫県,伊丹市,荒牧４丁目８番６－３０１号,,28,207,6640001,,,,,,,2023-10-06,1,,,,,ティム,0
2447,8140001131905,新規,0,2023-10-06,2023-10-06,株式会社あんじゅ,,株式会社,兵庫県,尼崎市,杭瀬南新町１丁目１番１号,,28,202,6600822,,,,,,,2023-10-06,1,,,,,アンジュ,0
2451,8140003019611,新規,0,2023-10-06,2023-10-06,農業法人合同会社ノウカナガイ,,合同会社,兵庫県,丹波篠山市,西野々４４２番地,,28,221,6692504,,,,,,,2023-10-06,1,,,,,ノウギョウホウジンノウカナガイ,0
2452,8140003019636,新規,0,2023-10-06,2023-10-06,ＡＰＩ合同会社,,合同会社,兵庫県,神戸市東灘区,本山北町３丁目２番２０号,,28,101,6580003,,,,,,,2023-10-06,1,,,,,エイピーアイ,0
2462,8180001158374,新規,0,2023-10-06,2023-10-06,株式会社リード,,株式会社,愛知県,名古屋市中区,丸の内３丁目１番３３プレサンス丸の内リラティ１１０３号室,,23,106,4600002,,,,,,,2023-10-06,1,,,,,リード,0
2475,8200001041783,新規,0,2023-10-06,2023-10-06,株式会社Ｌｕｆｔ,,株式会社,岐阜県,美濃市,生櫛１２３２番地２,00132156,21,207,5013756,,,,,,,2023-10-06,1,,,,,ルフト,0
2482,8230003002087,新規,0,2023-10-06,2023-10-06,合同会社Ｄｒ．ｓｔｙｌｅ,,合同会社,富山県,富山市,桜町１丁目１番１号,,16,201,9300003,,,,,,,2023-10-06,1,,,,,ドクタースタイル,0
2488,8240001062215,新規,0,2023-10-06,2023-10-06,株式会社福山ＶＰセンター,,株式会社,広島県,福山市,新市町大字戸手１０５番地２,,34,207,7293101,,,,,,,2023-10-06,1,,,,,フクヤマブイピーセンター,0
2491,8240003006343,新規,0,2023-10-06,2023-10-06,Ｕ＆Ｉ合同会社,,合同会社,広島県,福山市,千田町２丁目３２番１４－２号,,34,207,7200017,,,,,,,2023-10-06,1,,,,,ユーアンドアイ,0
2498,8260003004460,新規,0,2023-10-06,2023-10-06,合同会社ＧＥＯＲＧＥ,,合同会社,岡山県,岡山市北区,国体町４－７１－７０５,,33,101,7000021,,,,,,,2023-10-06,1,,,,,ジョルジュ,0
2505,8290001103204,新規,0,2023-10-06,2023-10-06,株式会社ＲｅＧｅａｒ,,株式会社,福岡県,福岡市早良区,西新２丁目２４番３０号,,40,137,8140002,,,,,,,2023-10-06,1,,,,,リギア,0
2506,8290001103220,新規,0,2023-10-06,2023-10-06,株式会社ＡＹ粕屋,,株式会社,福岡県,糟屋郡粕屋町,駕与丁２丁目１番８号,,40,349,8112309,,,,,,,2023-10-06,1,,,,,エースワイカスヤ,0
2507,8290001103237,新規,0,2023-10-06,2023-10-06,株式会社アイデザイン,,株式会社,福岡県,福岡市城南区,梅林２丁目４番１８号４０２,,40,136,8140144,,,,,,,2023-10-06,1,,,,,アイデザイン,0
2508,8290003014449,新規,0,2023-10-06,2023-10-06,合同会社ＳＨＩＰＬＩＮ,,合同会社,福岡県,福岡市東区,香椎駅前２丁目２１番８号,,40,131,8130013,,,,,,,2023-10-06,1,,,,,シップリン,0
2512,8300001013483,新規,0,2023-10-06,2023-10-06,株式会社サクラサク,,株式会社,佐賀県,唐津市,浜玉町横田下９４４番地１－２０５号,,41,202,8495122,,,,,,,2023-10-06,1,,,,,サクラサク,0
2513,8310001018647,新規,0,2023-10-06,2023-10-06,株式会社マルショウ,,株式会社,長崎県,諫早市,目代町４６２番地１,,42,204,8540007,,,,,,,2023-10-06,1,,,,,マルショウ,0
2520,8330001031318,新規,0,2023-10-06,2023-10-06,株式会社熊本ぱんだ不動産,,株式会社,熊本県,熊本市中央区,新町４丁目１番３８－１号,,43,101,8600004,,,,,,,2023-10-06,1,,,,,クマモトパンダフドウサン,0
2521,8330001031326,新規,0,2023-10-06,2023-10-06,株式会社Ｉｎｆｉｎｉｔｙ　Ｗａｒｄ,,株式会社,熊本県,熊本市中央区,新市街１－２フジモトビル４Ｆ,,43,101,8600803,,,,,,,2023-10-06,1,,,,,インフィニティウォード,0
2522,8330003010014,新規,0,2023-10-06,2023-10-06,合同会社Ｇｏｏｄ　Ｗａｙ,,合同会社,熊本県,宇土市,網引町７５２,,43,211,8690465,,,,,,,2023-10-06,1,,,,,グッドウェイ,0
2527,8340001025913,新規,0,2023-10-06,2023-10-06,株式会社サンジキ,,株式会社,鹿児島県,大島郡知名町,大字屋者１５番地,,46,534,8919202,,,,,,,2023-10-06,1,,,,,サンジキ,0
2528,8350003004451,新規,0,2023-10-06,2023-10-06,合同会社ＣｏＴ,,合同会社,宮崎県,宮崎市,和知川原１丁目６１番地１楓壱番館１Ｆ,,45,201,8800023,,,,,,,2023-10-06,1,,,,,シーオーティー,0
2529,8360001032643,新規,0,2023-10-06,2023-10-06,株式会社神村珈琲農園,,株式会社,沖縄県,那覇市,繁多川５丁目５番１３号２０２,,47,201,9020071,,,,,,,2023-10-06,1,,,,,カミムラコーヒーノウエン,0
2531,8360003013360,新規,0,2023-10-06,2023-10-06,合同会社Ｖ’ｓ　ｆａｃｔｏｒｙ,,合同会社,沖縄県,那覇市,松山１丁目６番１４号エンブレム松山５Ｆ,,47,201,9000032,,,,,,,2023-10-06,1,,,,,ブイズファクトリー,0
2537,8380001034035,新規,0,2023-10-06,2023-10-06,株式会社トレンディー,,株式会社,福島県,いわき市,小名浜字辰巳町４３－１いわき・ら・ら・ミュウ１階,,07,204,9718101,,,,,,,2023-10-06,1,,,,,トレンディー,0
2539,8380003005579,新規,0,2023-10-06,2023-10-06,ＴＷＩＮ　ＳＴＡＲＳ合同会社,,合同会社,福島県,郡山市,富久山町久保田字大久保２３－１,,07,203,9638071,,,,,,,2023-10-06,1,,,,,ツインスターズ,0
2540,8380005012755,新規,0,2023-10-06,2023-10-06,司法書士法人あすなろ司法事務所,,その他の設立登記法人,福島県,いわき市,平字菱川町２番地の１１,,07,204,9708026,,,,,,,2023-10-06,1,,,,,アスナロシホウジムショ,0
2549,8430001090106,新規,0,2023-10-06,2023-10-06,株式会社人と夢,,株式会社,北海道,苫小牧市,拓勇東町５丁目１４番７号,,01,213,0591303,,,,,,,2023-10-06,1,,,,,ヒトトユメ,0
2550,8430001090114,新規,0,2023-10-06,2023-10-06,株式会社ＵＬＵＣＵＳ　ＰＡＲＫ,,株式会社,北海道,札幌市中央区,南二条西１０丁目１０００－２４ＴＡＫＥＴＯビル,,01,101,0600062,,,,,,,2023-10-06,1,,,,,ウルクスパーク,0
2555,8470003002501,新規,0,2023-10-06,2023-10-06,岩田実業合同会社,,合同会社,香川県,綾歌郡宇多津町,３５６７番地３,,37,386,7690210,,,,,,,2023-10-06,1,,,,,イワタジツギョウ,0
2558,8480001012245,新規,0,2023-10-06,2023-10-06,株式会社鳴門海月,,株式会社,徳島県,鳴門市,鳴門町土佐泊浦字大毛８２番地８８,,36,202,7720053,,,,,,,2023-10-06,1,,,,,ナルトカイゲツ,0
2561,8500003003116,新規,0,2023-10-06,2023-10-06,合同会社Ｙ．Ｃ．Ｆｉｎａｎｃｉａｌ,,合同会社,愛媛県,今治市,上徳甲６７１－２,,38,202,7991511,,,,,,,2023-10-06,1,,,,,ワイシーファイナンシャル,0
2564,8700150121096,新規,0,2023-10-06,2023-10-06,Ｇｕａｎｇｚｈｏｕｓｈｉ　Ｗｅｉｇａｏｍａｏｙｉ　Ｙｏｕｘｉａｎｇｏｎｇｓｉ,,外国会社等,,,,,,,,１１７，Ｓｈｕｉｙｉｎ　Ｒｏａｄ，Ｙｕｅｘｉｕ　Ｄｉｓｔｒｉｃｔ　Ｎｏ．Ｎ９２０，３ｒｄ　Ｆｌｏｏｒ，Ｘｉｎｇｇｕａｎｇ　ｙｉｎｇｊｉｎｇ　Ｇｕａｎｇｚｈｏｕ　Ｇｕａｎｇｄｏｎｇ,,,,,,2023-10-06,1,,,,,グワンジョウシーウェイガオマオイーヨウシエンゴンスー,0
2565,8700150121105,新規,0,2023-10-06,2023-10-06,ＳＨＥＮＺＨＥＮＳＨＩＹＩＬＩＮＹＩＤＩＡＮＺＩ　ＹＯＵＸＩＡＮＧＯＮＧＳＩ,,外国会社等,,,,,,,,Ｒｏｏｍ７１２　ＤｏｎｇｌｉａｎＢｕｓｉｎｅｓｓＢｕｉｌｄｉｎｇ　ＤｏｎｇｌｉａｎＩｎｄｕｓｔｒｉａｌＺｏｎｅ　２３ａｒｅａｏｆＸｉｎＡｎＳｔｒｅｅｔ　ＳｈｅｎＺｈｅｎ　ＢａｏＡｎＤｉｓｔｒｉｃｔ　Ｃｈｉｎａ,,,,,,2023-10-06,1,,,,,シンセンシイリンイデンシユウゲンコウシ,0
2575,9010001238869,新規,0,2023-10-06,2023-10-06,Ｓｕｎｒｉｓｅ　Ｓｐｉｒｉｔｓ株式会社,,株式会社,東京都,中央区,銀座１丁目１２番４号Ｎ＆ＥＢＬＤ．７階,,13,102,1040061,,,,,,,2023-10-06,1,,,,,サンライズスピリッツ,0
2576,9010001239017,新規,0,2023-10-06,2023-10-06,ビューチャー株式会社,,株式会社,東京都,千代田区,鍛冶町２丁目７番４号ヨウコービル５Ｆ,,13,101,1010044,,,,,,,2023-10-06,1,,,,,ビューチャー,0
2583,9010005037342,新規,0,2023-10-06,2023-10-06,一般社団法人日本保育防災協会,,その他の設立登記法人,東京都,千代田区,紀尾井町３番３２号紀尾井町ＷＩＴＨ３階,,13,101,1020094,,,,,,,2023-10-06,1,,,,,ニホンホイクボウサイキョウカイ,0
2584,9010005037350,新規,0,2023-10-06,2023-10-06,ＳＨＪ３一般社団法人,,その他の設立登記法人,東京都,中央区,銀座１丁目６番１１号土志田ビルディング３Ｆ,,13,102,1040061,,,,,,,2023-10-06,1,,,,,エスエイチジェイスリー,0
2595,9010401177535,新規,0,2023-10-06,2023-10-06,ＡＰＳ　ｐａｒｔｎｅｒｓ株式会社,,株式会社,東京都,港区,高輪４丁目２４－５５－８０９,,13,103,1080074,,,,,,,2023-10-06,1,,,,,エーピーエスパートナーズ,0
2596,9010401177584,新規,0,2023-10-06,2023-10-06,株式会社ＬＩＮＥＣＴ,,株式会社,東京都,港区,三田３丁目１４番１０号,,13,103,1080073,,,,,,,2023-10-06,1,,,,,リネクト,0
2597,9010401177667,新規,0,2023-10-06,2023-10-06,株式会社Ａｃｔｉｖｅ　Ｐｅｒｍｉｓｓｉｏｎ,,株式会社,東京都,港区,赤坂７丁目６番４３号プラネット赤坂３０５,,13,103,1070052,,,,,,,2023-10-06,1,,,,,,0
2598,9010403031046,新規,0,2023-10-06,2023-10-06,合同会社ＭＫＧ　Ｊａｐａｎ,,合同会社,東京都,港区,六本木３丁目７－１Ｔｈｅｒｏｐｐｏｎｇｉｔｏｋｙｏｃｌｕｂｒｅｓｉｄｅｎｃｅ２３０１号,,13,103,1060032,,,,,,,2023-10-06,1,,,,,エムケージージャパン,0
2601,9010405022571,新規,0,2023-10-06,2023-10-06,ＰＪＭＦ　Ｓｔｅｌｌａｒ特定目的会社,,その他の設立登記法人,東京都,港区,元赤坂１丁目１番７－８０７号,,13,103,1070051,,,,,,,2023-10-06,1,,,,,ピージェイエムエフステラ,0
2604,9010601063907,新規,0,2023-10-06,2023-10-06,株式会社Ｌｉｎｏ　Ｌａｖｉａ,,株式会社,東京都,江東区,豊洲５丁目１番１３,,13,108,1350061,,,,,,,2023-10-06,1,,,,,リノラヴィア,0
2605,9010603010394,新規,0,2023-10-06,2023-10-06,合同会社ｃｏｎ‐ｓｔｅｌｌａｔｉｏｎ,,合同会社,東京都,江東区,豊洲４丁目９番１３－１４３６,,13,108,1350061,,,,,,,2023-10-06,1,,,,,コンステレーション,0
2609,9010701044914,新規,0,2023-10-06,2023-10-06,株式会社Ｍｉｒａｃｌｅ　Ｉｎｖｅｓｔｍｅｎｔ,,株式会社,東京都,品川区,西品川１丁目１番１号住友不動産大崎ガーデンタワー９階,,13,109,1410033,,,,,,,2023-10-06,1,,,,,ミラクルインベストメント,0
2613,9010801034402,新規,0,2023-10-06,2023-10-06,株式会社ＫＯ建設,,株式会社,東京都,大田区,仲六郷１丁目２２番３号グリーンハイツＴ１０２,,13,111,1440055,,,,,,,2023-10-06,1,,,,,ケーオーケンセツ,0
2616,9010901053954,新規,0,2023-10-06,2023-10-06,株式会社Ｌｉｎｋｅｒ,,株式会社,東京都,世田谷区,松原２丁目３９番９－９０１号,,13,112,1560043,,,,,,,2023-10-06,1,,,,,リンカー,0
2617,9010901053962,新規,0,2023-10-06,2023-10-06,株式会社タトル,,株式会社,東京都,世田谷区,松原２丁目４２番５号,,13,112,1560043,,,,,,,2023-10-06,1,,,,,タトル,0
2626,9011001157316,新規,0,2023-10-06,2023-10-06,Ａｉｒｅｒａ株式会社,,株式会社,東京都,目黒区,駒場３丁目２－１３－３０７,,13,110,1530041,,,,,,,2023-10-06,1,,,,,エアエラ,0
2627,9011001157349,新規,0,2023-10-06,2023-10-06,株式会社ＴＳＵＲＵリアルエステート,,株式会社,東京都,渋谷区,道玄坂１丁目２１番１号３階,,13,113,1500043,,,,,,,2023-10-06,1,,,,,ツルリアルエステート,0
2628,9011001157407,新規,0,2023-10-06,2023-10-06,ＫＯＲＡＴ　Ｄｅｓｉｇｎ株式会社,,株式会社,東京都,渋谷区,神宮前６丁目３１番１０号,,13,113,1500001,,,,,,,2023-10-06,1,,,,,コラットデザイン,0
2631,9011003017682,新規,0,2023-10-06,2023-10-06,合同会社ドゥ,,合同会社,東京都,渋谷区,恵比寿４丁目１２番１４号,,13,113,1500013,,,,,,,2023-10-06,1,,,,,ドゥ,0
2634,9011101104671,新規,0,2023-10-06,2023-10-06,さくら建創株式会社,,株式会社,東京都,新宿区,新宿５丁目９番２３号ＤＳビルディング５階,,13,104,1600022,,,,,,,2023-10-06,1,,,,,サクラケンソウ,0
2635,9011103013532,新規,0,2023-10-06,2023-10-06,合同会社ＯｎｅＰｌｕｓ,,合同会社,東京都,新宿区,早稲田鶴巻町１０９,,13,104,1620041,,,,,,,2023-10-06,1,,,,,ワンプラス,0
2636,9011103013581,新規,0,2023-10-06,2023-10-06,合同会社ｅｅｋ,,合同会社,東京都,新宿区,西新宿３丁目３番１３号西新宿水間ビル２Ｆ,,13,104,1600023,,,,,,,2023-10-06,1,,,,,イーク,0
2639,9011303004918,新規,0,2023-10-06,2023-10-06,合同会社ＡＲ,,合同会社,東京都,杉並区,高円寺南３丁目４７番８－３０３号高円寺ニューナショナルコート,,13,115,1660003,,,,,,,2023-10-06,1,,,,,エーアール,0
2640,9011303004926,新規,0,2023-10-06,2023-10-06,合同会社あのてこのて,,合同会社,東京都,杉並区,成田西３丁目５－７,,13,115,1660016,,,,,,,2023-10-06,1,,,,,アノテコノテ,0
2641,9011303004934,新規,0,2023-10-06,2023-10-06,合同会社飛鳥舎人,,合同会社,東京都,杉並区,下井草１丁目７番１１号,,13,115,1670022,,,,,,,2023-10-06,1,,,,,アスカシャジン,0
2643,9011401025510,新規,0,2023-10-06,2023-10-06,株式会社ラインコミュニケーション,,株式会社,東京都,板橋区,板橋２丁目４６番１０号,,13,119,1730004,,,,,,,2023-10-06,1,,,,,ラインコミュニケーション,0
2649,9011801043137,新規,0,2023-10-06,2023-10-06,けんこう株式会社,,株式会社,東京都,葛飾区,東金町３丁目１６番４号ハラタケビル２階,,13,122,1250041,,,,,,,2023-10-06,1,,,,,ケンコウ,0
2654,9012401041076,新規,0,2023-10-06,2023-10-06,株式会社ＬｏｚＣｒｅａｔｉｏｎ,,株式会社,東京都,多摩市,落合１丁目１０－１京王多摩センターＳＣ２階ＫＥＩＯＢＩＺＰＬＡＺＡ多摩センター内１６番,,13,224,2060033,,,,,,,2023-10-06,1,,,,,ロズクリエイション,0
2655,9012403006218,新規,0,2023-10-06,2023-10-06,ＩＮＳＩＬ合同会社,,合同会社,東京都,小金井市,中町２丁目１７番１４号,,13,210,1840012,,,,,,,2023-10-06,1,,,,,インシル,0
2657,9012701017874,新規,0,2023-10-06,2023-10-06,株式会社こすなり,,株式会社,東京都,清瀬市,松山２丁目１番４号３階,,13,221,2040022,,,,,,,2023-10-06,1,,,,,コスナリ,0
2660,9012803003203,新規,0,2023-10-06,2023-10-06,ＡｌｉｖｅＵＡＶ合同会社,,合同会社,東京都,日野市,旭が丘３丁目１番地の２５デュオセーヌ豊田８１６,,13,212,1910065,,,,,,,2023-10-06,1,,,,,アライブユーエーブイ,0
2662,9013301051446,新規,0,2023-10-06,2023-10-06,株式会社アムールサービス,,株式会社,東京都,豊島区,南池袋２丁目１６番８号,,13,116,1710022,,,,,,,2023-10-06,1,,,,,アムールサービス,0
2670,9020001153828,新規,0,2023-10-06,2023-10-06,株式会社よつばベーカリー,,株式会社,神奈川県,横浜市中区,石川町２丁目６８番地４,,14,104,2310868,,,,,,,2023-10-06,1,,,,,ヨツバベーカリー,0
2671,9020001153844,新規,0,2023-10-06,2023-10-06,株式会社ＣＡＲＤＳ,,株式会社,神奈川県,川崎市多摩区,長沢２丁目９番６６号,,14,135,2140035,,,,,,,2023-10-06,1,,,,,カーズ,0
2676,9021001080343,新規,0,2023-10-06,2023-10-06,株式会社ＣｌａｎＦａｖｅｕｒ,,株式会社,神奈川県,相模原市緑区,大島２５８１番地１７,,14,151,2520135,,,,,,,2023-10-06,1,,,,,クランファグール,0
2677,9021001080418,新規,0,2023-10-06,2023-10-06,株式会社ＡＲＫＬＥＡＧＵＥ,,株式会社,神奈川県,高座郡寒川町,倉見１３８５番地,,14,321,2530101,,,,,,,2023-10-06,1,,,,,アークリーグ,0
2678,9021003013648,新規,0,2023-10-06,2023-10-06,合同会社Ｈｅａｒｔ　ａｓｓｅｔ,,合同会社,神奈川県,相模原市緑区,橋本６丁目２０番１―２４０４号,,14,151,2520143,,,,,,,2023-10-06,1,,,,,ハートアセット,0
2684,9030001156359,新規,0,2023-10-06,2023-10-06,株式会社エスワンプランニング,,株式会社,埼玉県,深谷市,東大沼１２４番地１ロータスセピアＡ棟,,11,218,3660828,,,,,,,2023-10-06,1,,,,,エスワンプランニング,0
2685,9030001156425,新規,0,2023-10-06,2023-10-06,株式会社千笑,,株式会社,埼玉県,深谷市,上柴町西２丁目２２番１２号,,11,218,3660052,,,,,,,2023-10-06,1,,,,,チエミ,0
2686,9030001156474,新規,0,2023-10-06,2023-10-06,株式会社ＫＡＮＥＭＯＴＯ,,株式会社,埼玉県,越谷市,大字大林１２番地２,,11,222,3430021,,,,,,,2023-10-06,1,,,,,カネモト,0
2687,9030001156490,新規,0,2023-10-06,2023-10-06,株式会社今野商会,,株式会社,埼玉県,熊谷市,上之３１２番地２,,11,202,3600012,,,,,,,2023-10-06,1,,,,,コンノショウカイ,0
2688,9030001156549,新規,0,2023-10-06,2023-10-06,株式会社エールｌａｂ．,,株式会社,埼玉県,北本市,中央２丁目８５番地新成産業ビル３Ｆ,,11,233,3640031,,,,,,,2023-10-06,1,,,,,エールラボ,0
2693,9030003022716,新規,0,2023-10-06,2023-10-06,合同会社エムズホーム,,合同会社,埼玉県,桶川市,若宮１丁目６番４１号,,11,231,3630022,,,,,,,2023-10-06,1,,,,,エムズホーム,0
2694,9030003022740,新規,0,2023-10-06,2023-10-06,ｍｏｆｆ合同会社,,合同会社,埼玉県,川越市,大字大袋新田７７７―４２,,11,201,3501167,,,,,,,2023-10-06,1,,,,,モフ,0
2696,9040001130338,新規,0,2023-10-06,2023-10-06,株式会社Ｆｌａｐｊａｃｋ,,株式会社,千葉県,船橋市,古和釜町５９３番地２－１０３号,,12,204,2740061,,,,,,,2023-10-06,1,,,,,フラップジャック,0
2697,9040001130346,新規,0,2023-10-06,2023-10-06,株式会社Ｌｉｎｏａ,,株式会社,千葉県,船橋市,本町４丁目３７番１９号津賀マンション１０１,,12,204,2730005,,,,,,,2023-10-06,1,,,,,リノア,0
2698,9040001130354,新規,0,2023-10-06,2023-10-06,株式会社ＦＯＲＭＳ,,株式会社,千葉県,船橋市,習志野台２丁目３０番１１号,,12,204,2740063,,,,,,,2023-10-06,1,,,,,フォームス,0
2699,9040001130387,新規,0,2023-10-06,2023-10-06,株式会社大政,,株式会社,千葉県,香取郡多古町,十余三３６４番地１,,12,347,2892306,,,,,,,2023-10-06,1,,,,,オオマサ,0
2700,9040003023473,新規,0,2023-10-06,2023-10-06,Ｇｏｄ　Ｋｅｉ合同会社,,合同会社,千葉県,成田市,川栗３０７番地,,12,211,2860125,,,,,,,2023-10-06,1,,,,,ゴッドケイ,0
2701,9040003023481,新規,0,2023-10-06,2023-10-06,小宋建装合同会社,,合同会社,千葉県,松戸市,栗ケ沢８２９番地の１７,,12,207,2700022,,,,,,,2023-10-06,1,,,,,ショウソウケンソウ,0
2703,9040005022151,新規,0,2023-10-06,2023-10-06,医療法人社団泰公会,,その他の設立登記法人,千葉県,柏市,明原２丁目１番９号２階,,12,217,2770843,,,,,,,2023-10-06,1,,,,,タイコウカイ,0
2704,9050001053579,新規,0,2023-10-06,2023-10-06,株式会社桜朋,,株式会社,茨城県,神栖市,溝口５５５４番地１,00132157,08,232,3140121,,,,,,,2023-10-06,1,,,,,オウトモ,0
2705,9050003007839,新規,0,2023-10-06,2023-10-06,東京北空港交通合同会社,,合同会社,茨城県,鉾田市,鉾田７３６番地７,,08,234,3111517,,,,,,,2023-10-06,1,,,,,トウキョウキタクウコウコウツウ,0
2710,9070001040930,新規,0,2023-10-06,2023-10-06,株式会社ｏｎｅ　ｓｔａｒサービス,,株式会社,群馬県,太田市,大原町１２１３番地５３,,10,205,3792304,,,,,,,2023-10-06,1,,,,,ワンスターサービス,0
2711,9070001040939,新規,0,2023-10-06,2023-10-06,未来商事株式会社,,株式会社,群馬県,沼田市,上川田町２６４２番地１関上上川田アパート６号,,10,206,3780026,,,,,,,2023-10-06,1,,,,,ミライショウジ,0
2714,9080101024246,新規,0,2023-10-06,2023-10-06,株式会社感動経済社,,株式会社,静岡県,沼津市,松長１０７番地の９,,22,203,4100874,,,,,,,2023-10-06,1,,,,,カンドウケイザイシャ,0
2722,9100001036834,新規,0,2023-10-06,2023-10-06,株式会社Ｍｉｌｌｅｆｅ,,株式会社,長野県,大町市,平２２５５９番地３,,20,212,3980001,,,,,,,2023-10-06,1,,,,,ミルフィー,0
2734,9120003024918,新規,0,2023-10-06,2023-10-06,スタートライン合同会社,,合同会社,大阪府,大阪市都島区,都島本通３丁目５番１０－１１０４号,,27,102,5340021,,,,,,,2023-10-06,1,,,,,スタートライン,0
2735,9120003025065,新規,0,2023-10-06,2023-10-06,合同会社Ｌａ　ａｌｏｈｉ,,合同会社,大阪府,門真市,速見町９番地１号ツインコートヒラタ５０３号室,,27,223,5710039,,,,,,,2023-10-06,1,,,,,ラアロヒ,0
2743,9120101068338,新規,0,2023-10-06,2023-10-06,株式会社スカイホーム,,株式会社,大阪府,羽曳野市,高鷲８丁目２９番１８号,,27,222,5830882,,,,,,,2023-10-06,1,,,,,スカイホーム,0
2744,9120901048126,新規,0,2023-10-06,2023-10-06,株式会社空と海,,株式会社,大阪府,豊中市,千成町１丁目６番２３号,,27,203,5610829,,,,,,,2023-10-06,1,,,,,ソラトウミ,0
2745,9120901048142,新規,0,2023-10-06,2023-10-06,株式会社ぐっとクルー,,株式会社,大阪府,豊中市,長興寺北３丁目２番３号,,27,203,5610875,,,,,,,2023-10-06,1,,,,,グットクルー,0
2748,9122001037439,新規,0,2023-10-06,2023-10-06,株式会社安泰工業,,株式会社,大阪府,大東市,中垣内２丁目８番１１号,,27,218,5740013,,,,,,,2023-10-06,1,,,,,アンタイコウギョウ,0
2752,9122003002688,新規,0,2023-10-06,2023-10-06,合同会社あんしん住まい相談センター,,合同会社,大阪府,八尾市,山城町１丁目２番８号八尾セントラルハイツ３０６号,,27,212,5810801,,,,,,,2023-10-06,1,,,,,アンシンスマイソウダンセンター,0
2754,9130001075367,新規,0,2023-10-06,2023-10-06,アプラス・プロパティ・アドバイザーズ株式会社,,株式会社,京都府,京都市中京区,六角通柳馬場東入大黒町７１番地イーグルコート京都六角雅心庵２１０号室,,26,104,6048073,,,,,,,2023-10-06,1,,,,,アプラスプロパティアドバイザーズ,0
2755,9130001075375,新規,0,2023-10-06,2023-10-06,株式会社日本プロパティ開発,,株式会社,京都府,京都市中京区,御池通高倉西入ル高宮町２１９番地サニーフォレストビル４階,,26,104,6040000,,,,,,,2023-10-06,1,,,,,ニホンプロパティカイハツ,0
2756,9130003009026,新規,0,2023-10-06,2023-10-06,合同会社ノエル,,合同会社,京都府,京都市下京区,河原町通五条上る西橋詰町７６１番地コスモハイツ５０２号,,26,106,6008029,,,,,,,2023-10-06,1,,,,,ノエル,0
2765,9140003019619,新規,0,2023-10-06,2023-10-06,愛本合同会社,,合同会社,兵庫県,加西市,北条町北条１０００番地,,28,220,6752312,,,,,,,2023-10-06,1,,,,,アイホン,0
2767,9150001026780,新規,0,2023-10-06,2023-10-06,株式会社ＳＥＥＤ,,株式会社,奈良県,大和郡山市,小泉町７２８番地３,,29,203,6391042,,,,,,,2023-10-06,1,,,,,シード,0
2770,9160001025393,新規,0,2023-10-06,2023-10-06,伊庭住建株式会社,,株式会社,滋賀県,東近江市,伊庭町２０２４番地,,25,213,5211235,,,,,,,2023-10-06,1,,,,,イバジュウケン,0
2778,9180001158308,新規,0,2023-10-06,2023-10-06,株式会社メイホク,,株式会社,愛知県,稲沢市,国府宮２丁目８番１３号,,23,220,4928137,,,,,,,2023-10-06,1,,,,,メイホク,0
2779,9180001158332,新規,0,2023-10-06,2023-10-06,株式会社ハピ農園,,株式会社,愛知県,愛知郡東郷町,大字和合字牛廻間６２番地１６,,23,302,4700153,,,,,,,2023-10-06,1,,,,,ハピノウエン,0
2780,9180001158340,新規,0,2023-10-06,2023-10-06,株式会社ＫＣＣ,,株式会社,愛知県,名古屋市西区,花原町１８７番地,,23,104,4520809,,,,,,,2023-10-06,1,,,,,ケーシーシー,0
2783,9180005020380,新規,0,2023-10-06,2023-10-06,特定非営利活動法人Ｄａｒｓｈａｎ,,その他の設立登記法人,愛知県,日進市,赤池町箕ノ手２番地１５２１,,23,230,4700126,,,,,,,2023-10-06,1,,,,,ダルシャン,0
2785,9190001030779,新規,0,2023-10-06,2023-10-06,株式会社もふもふ家族代行サービス,,株式会社,三重県,亀山市,住山町３６４番地２,,24,210,5190162,,,,,,,2023-10-06,1,,,,,モフモフカゾクダイコウサービス,0
2786,9190001030787,新規,0,2023-10-06,2023-10-06,株式会社ＳＨＩＮＳＥＩ,,株式会社,三重県,四日市市,尾平町３７６８番地３９,,24,202,5120921,,,,,,,2023-10-06,1,,,,,シンセイ,0
2787,9190003004467,新規,0,2023-10-06,2023-10-06,ＲＯＹＡＬ　ＥＮＴＥＲＰＲＩＳＥＳ合同会社,,合同会社,三重県,津市,江戸橋２丁目９０番地４イルマーレ江戸橋１０８号室,,24,201,5140001,,,,,,,2023-10-06,1,,,,,ロイヤルエンタープライズ,0
2789,9210001019497,新規,0,2023-10-06,2023-10-06,株式会社竹内,,株式会社,福井県,坂井市,坂井町下兵庫第２９９号１０番地１,,18,210,9190527,,,,,,,2023-10-06,1,,,,,タケウチ,0
2791,9210005010114,新規,0,2023-10-06,2023-10-06,医療法人はつせがわ歯科医院,,その他の設立登記法人,福井県,坂井市,春江町江留上中央１番地３３,,18,210,9190453,,,,,,,2023-10-06,1,,,,,ハツセガワシカイイン,0
2794,9240001062197,新規,0,2023-10-06,2023-10-06,株式会社キッスン・エンジェル社,,株式会社,広島県,廿日市市,宮島町１１６８番１－２０１号,,34,213,7390588,,,,,,,2023-10-06,1,,,,,キッスンエンジェルシャ,0
2795,9240001062214,新規,0,2023-10-06,2023-10-06,ＤＩＧＩＴＡＬＣＡＳＴ株式会社,,株式会社,広島県,福山市,御幸町大字中津原１８０８番地１,,34,207,7200004,,,,,,,2023-10-06,1,,,,,デジタルキャスト,0
2796,9240001062239,新規,0,2023-10-06,2023-10-06,アイナス株式会社,,株式会社,広島県,広島市西区,南観音５丁目１６番７号,,34,104,7330035,,,,,,,2023-10-06,1,,,,,アイナス,0
2802,9260001038377,新規,0,2023-10-06,2023-10-06,ＹＵＴＯＲＩ株式会社,,株式会社,岡山県,岡山市北区,白石５４４－１３ラウレア白石３０５,,33,101,7010143,,,,,,,2023-10-06,1,,,,,ユトリ,0
2811,9290001103211,新規,0,2023-10-06,2023-10-06,株式会社ＦＴＳ,,株式会社,福岡県,福岡市城南区,神松寺３丁目１９－６,,40,136,8140121,,,,,,,2023-10-06,1,,,,,エフティーエス,0
2812,9290001103244,新規,0,2023-10-06,2023-10-06,佐藤工業株式会社,,株式会社,福岡県,大牟田市,大字四ケ１５６３番地１,,40,202,8370901,,,,,,,2023-10-06,1,,,,,サトウコウギョウ,0
2813,9290001103260,新規,0,2023-10-06,2023-10-06,株式会社ｂｌｉｎｋ,,株式会社,福岡県,福岡市中央区,天神２丁目２番１２号Ｔ＆Ｊビルディング７Ｆ,,40,133,8100001,,,,,,,2023-10-06,1,,,,,ブリンク,0
2814,9290001103269,新規,0,2023-10-06,2023-10-06,株式会社グットジャスティス,,株式会社,福岡県,福岡市西区,拾六町３丁目３番３号,,40,135,8190041,,,,,,,2023-10-06,1,,,,,グットジャスティス,0
2815,9290001103302,新規,0,2023-10-06,2023-10-06,株式会社ファイン,,株式会社,福岡県,福岡市博多区,博多駅中央街８番１号ＪＲＪＰ博多ビル３階,,40,132,8120012,,,,,,,2023-10-06,1,,,,,ファイン,0
2823,9300001013490,新規,0,2023-10-06,2023-10-06,株式会社アシスト,,株式会社,佐賀県,三養基郡基山町,けやき台４丁目３７番地１０,,41,341,8410205,,,,,,,2023-10-06,1,,,,,アシスト,0
2825,9320003004197,新規,0,2023-10-06,2023-10-06,合同会社ＬＯＯＱ,,合同会社,大分県,竹田市,大字竹田町４６０番地,,44,208,8780012,,,,,,,2023-10-06,1,,,,,ルーク,0
2829,9330001031317,新規,0,2023-10-06,2023-10-06,株式会社ハタナカ,,株式会社,熊本県,宇土市,松山町１５８８番地,,43,211,8690416,,,,,,,2023-10-06,1,,,,,ハタナカ,0
2833,9340001025937,新規,0,2023-10-06,2023-10-06,株式会社ＴＯＰ　ＯＮＥ,,株式会社,鹿児島県,鹿屋市,西祓川町５６９番地１,,46,203,8930025,,,,,,,2023-10-06,1,,,,,トップワン,0
2835,9350001018601,新規,0,2023-10-06,2023-10-06,株式会社加賀山設備,,株式会社,宮崎県,宮崎市,大坪東３丁目４番８号,,45,201,8800934,,,,,,,2023-10-06,1,,,,,カガヤマセツビ,0
2841,9370003006313,新規,0,2023-10-06,2023-10-06,合同会社Ａｄｅｐｔ,,合同会社,宮城県,仙台市太白区,門前町７番１２号,,04,104,9820845,,,,,,,2023-10-06,1,,,,,アデプト,0
2843,9390003002145,新規,0,2023-10-06,2023-10-06,合同会社アスタライズ,,合同会社,山形県,天童市,中里７丁目４番１号,,06,210,9940064,,,,,,,2023-10-06,1,,,,,アスタライズ,0
2846,9410003003850,新規,0,2023-10-06,2023-10-06,ユニットロード合同会社,,合同会社,秋田県,潟上市,昭和大久保字北野細谷道添７３番地２９３,,05,211,0181401,,,,,,,2023-10-06,1,,,,,ユニットロード,0
2852,9430001090088,新規,0,2023-10-06,2023-10-06,東日本テクノＨＤ株式会社,,株式会社,北海道,札幌市中央区,大通西９丁目３番地３３,,01,101,0600042,,,,,,,2023-10-06,1,,,,,ヒガシニホンテクノエイチディー,0
2853,9430001090096,新規,0,2023-10-06,2023-10-06,株式会社Ｕ‐Ｔｉｍｅ,,株式会社,北海道,札幌市北区,北七条西４丁目１番１号トーカン札幌第一キャステール６０７,,01,102,0600807,,,,,,,2023-10-06,1,,,,,ユータイム,0
2855,9430003015497,新規,0,2023-10-06,2023-10-06,合同会社ＹＨＣ,,合同会社,北海道,札幌市厚別区,厚別中央二条２丁目３－１０Ｌａｙ：ＬＡ　０８Ｒ,,01,108,0040052,,,,,,,2023-10-06,1,,,,,ワイエイチシー,0
2873,9700150082081,新規,0,2023-10-06,2017-03-29,ＸＧＰフォーラム,,その他,東京都,千代田区,霞が関１丁目４番１号日土地ビル,,13,101,1000013,,,,,,,2017-03-29,1,,,,,エツクスジーピーフオーラム,0
2875,9700150121095,新規,0,2023-10-06,2023-10-06,ＦＯＳＨＡＮＤＩＳＩＫＥＮＭＡＯＹＩＹＯＵＸＩＡＮＧＯＮＧＳＩ,,外国会社等,,,,,,,,Ｎｏ．４６，Ｂａｏｌｉｙｕａｎ，Ｙａｎｂｕ，Ｄａｌｉ　Ｔｏｗｎ，Ｎａｎｈａｉ　Ｄｉｓｔｒｉｃｔ　Ｒｏｏｍ　２０１，Ｆｌｏｏｒ　２　Ｆｏｓｈａｎ　Ｇｕａｎｇｄｏｎｇ　５２８０００　ＣＮ,,,,,,2023-10-06,1,,,,,フォーシャンディースーケンマオイーヨウシエンゴンスー,0
2876,9700150121104,新規,0,2023-10-06,2023-10-06,Ｇｕａｎｇｚｈｏｕｊｉｅｈｅｎｇｄｉａｎｚｉ　ｙｏｕｘｉａｎｇｏｎｇｓｉ,,外国会社等,,,,,,,,ｗａｎｇｇａｎｇｄｅｘｉｎｇｌｕ　１０１ｈａｏ　４０６ｓｈｉ　ｇｕａｎｇｚｈｏｕｓｈｉ　ｂａｉｙｕｎｑｕｊｉａｈｅｊｉｅ　Ｃｈｉｎａ,,,,,,2023-10-06,1,,,,,コウシュウジエヘンデンシユウゲンコウシ,0
