sequenceNumber,corporateNumber,process,correct,updateDate,changeDate,name,nameImageId,kind,prefectureName,cityName,streetNumber,addressImageId,prefectureCode,cityCode,postCode,addressOutside,addressOutsideImageId,closeDate,closeCause,successorCorporateNumber,changeCause,assignmentDate,latest,enName,enPrefectureName,enCityName,enAddressOutside,furigana,hihyoji
3,1010001083975,登記記録の閉鎖等,0,2024-04-05,2024-04-01,ビタミンＣ６０バイオリサーチ株式会社,,株式会社,東京都,千代田区,丸の内２丁目３－１,,13,101,1000005,,,2024-04-01,合併による解散等,9010001052007,令和６年４月１日東京都千代田区有楽町一丁目１番３号三菱商事ライフサイエンス株式会社（9010001052007）に合併し解散,2015-10-05,1,,,,,ビタミンシーシックスティバイオリサーチ,0
23,1010701001303,登記記録の閉鎖等,0,2024-04-05,2024-04-01,栄伸工業株式会社,,株式会社,神奈川県,横浜市南区,大岡３丁目３９番５号,,14,105,2320061,,,2024-04-01,清算の結了等,,,2015-10-05,1,,,,,エイシンコウギョウ,0
24,1010701030194,登記記録の閉鎖等,0,2024-04-05,2024-04-01,株式会社らいふホールディングス,,株式会社,東京都,品川区,東品川２丁目２－２４,,13,109,1400002,,,2024-04-01,合併による解散等,7010701010199,令和６年４月１日東京都品川区東品川２－２－２４株式会社らいふ（7010701010199）に合併し解散,2015-10-05,1,,,,,ライフホールディングス,0
57,1011201004515,登記記録の閉鎖等,0,2024-04-05,2024-04-02,株式会社ハリマ,,株式会社,東京都,中野区,新井４丁目１５番５－１０６号,,13,114,1650026,,,2024-04-02,清算の結了等,,,2015-10-05,1,,,,,ハリマ,0
83,1012801020604,登記記録の閉鎖等,0,2024-04-05,2024-03-29,株式会社エムアンドパートナーズ,,株式会社,東京都,渋谷区,富ヶ谷２丁目１８番５号藤和駒場コープＩＩ４０１,00126863,13,113,1510063,,,2024-03-29,清算の結了等,,,2021-01-25,1,,,,,エムアンドパートナーズ,0
114,1040001101263,登記記録の閉鎖等,0,2024-04-05,2024-04-01,株式会社櫻井工業,,株式会社,千葉県,市原市,八幡海岸通２０番地２第１２キャッスルコーポ八幡宿１０２,,12,219,2900067,,,2024-04-01,清算の結了等,,,2017-08-03,1,,,,,サクライコウギョウ,0
122,1050002039725,登記記録の閉鎖等,0,2024-04-05,2024-04-02,有限会社沢畑養豚センター,,有限会社,茨城県,常総市,坂手町南境木７７９０番地,,08,211,3030042,,,2024-04-02,清算の結了等,,,2015-10-05,1,,,,,サワハタヨウトンセンター,0
144,1120001027260,登記記録の閉鎖等,0,2024-04-05,2024-03-28,梶原米穀株式会社,00027961,株式会社,大阪府,大阪市大正区,三軒家西２丁目２０番７号,,27,108,5510001,,,2024-03-28,清算の結了等,,,2015-10-05,1,,,,,カジハラベイコク,0
173,1140001122340,登記記録の閉鎖等,0,2024-04-05,2024-03-25,ＫＡＲＮＡ株式会社,,株式会社,大阪府,大阪市中央区,久太郎町３丁目１番６号伊藤佑ビル大阪本町６階６－Ｈ,,27,128,5410056,,,2024-03-25,合併による解散等,2011001142836,令和６年３月２５日大阪市中央区久太郎町三丁目１番６号伊藤佑ビル大阪本町８Ｆ株式会社ＬＩＦ（2011001142836）に合併し解散,2021-07-19,1,,,,,カルナ,0
194,1180001138572,登記記録の閉鎖等,0,2024-04-05,2024-03-28,株式会社ゆうきん,,株式会社,愛知県,一宮市,丹羽字大塚１４番地２,,23,203,4910083,,,2024-03-28,清算の結了等,,,2019-10-28,1,,,,,ユウキン,0
210,1210002003516,登記記録の閉鎖等,0,2024-04-05,2024-04-02,有限会社松田重建,,有限会社,福井県,福井市,経田１丁目６０８番地,,18,201,9100011,,,2024-04-02,清算の結了等,,,2015-10-05,1,,,,,マツダジュウケン,0
211,1210002010339,登記記録の閉鎖等,0,2024-04-05,2024-04-02,有限会社若越電機,,有限会社,福井県,敦賀市,新松島町５番１１号,,18,202,9140803,,,2024-04-02,清算の結了等,,,2015-10-05,1,,,,,ジャクエツデンキ,0
219,1250005003955,登記記録の閉鎖等,0,2024-04-05,2024-04-02,豊田土木事業協同組合,,その他の設立登記法人,山口県,下関市,豊田町大字矢田４２８番地,,35,201,7500424,,,2024-04-02,清算の結了等,,,2015-10-05,1,,,,,トヨタドボク,0
221,1260001032908,登記記録の閉鎖等,0,2024-04-05,2024-04-01,テック祐和株式会社,,株式会社,岡山県,岡山市南区,泉田２丁目５番６号泉田工場１０１,,33,104,7000944,,,2024-04-01,清算の結了等,,,2019-03-05,1,,,,,テックユウワ,0
223,1260002004344,登記記録の閉鎖等,0,2024-04-05,2024-04-01,有限会社三協機器,,有限会社,岡山県,岡山市北区,新屋敷町３丁目４番１号,,33,101,7000986,,,2024-04-01,清算の結了等,,,2015-10-05,1,,,,,サンキョウキキ,0
247,1340001012612,登記記録の閉鎖等,0,2024-04-05,2024-04-01,薩摩商事株式会社,00098800,株式会社,鹿児島県,鹿児島市,下伊敷２丁目２５番２０－４０６号,,46,201,8900005,,,2024-04-01,清算の結了等,,,2015-10-05,1,,,,,,0
266,1390001006592,登記記録の閉鎖等,0,2024-04-05,2024-03-29,株式会社マルイチ商会,,株式会社,山形県,酒田市,幸町２丁目９番５４号,,06,204,9980023,,,2024-03-29,清算の結了等,,,2015-10-05,1,,,,,マルイチショウカイ,0
275,1430001016240,登記記録の閉鎖等,0,2024-04-05,2024-04-01,松本自動車工業株式会社,,株式会社,北海道,札幌市豊平区,美園三条６丁目３番１０号,,01,105,0620003,,,2024-04-01,合併による解散等,7430001020195,令和６年４月１日札幌市豊平区月寒東一条十四丁目１番１号札幌トヨペット株式会社（7430001020195）に合併し解散,2015-10-05,1,,,,,マツモトジドウシャコウギョウ,0
282,1430003001645,登記記録の閉鎖等,0,2024-04-05,2024-04-01,合同会社ｉｍａｉでんき,,合同会社,北海道,札幌市厚別区,上野幌三条５丁目１番１－５０３号,,01,108,0040033,,,2024-04-01,清算の結了等,,,2015-10-05,1,,,,,イマイデンキ,0
285,1430003008384,登記記録の閉鎖等,0,2024-04-05,2024-03-19,合同会社オフィスＬｉｅｎ,,合同会社,北海道,滝川市,朝日町東２丁目１５番１０号,,01,225,0730015,,,2024-03-19,清算の結了等,,,2017-04-26,1,,,,,オフィスリアン,0
298,2010001056352,登記記録の閉鎖等,0,2024-04-05,2024-04-01,アサヒフレッシュロジ株式会社,,株式会社,埼玉県,さいたま市大宮区,桜木町１丁目１０番１７号シーノ大宮サウスウィング,,11,103,3300854,,,2024-04-01,合併による解散等,8030001071930,令和６年４月１日埼玉県さいたま市大宮区桜木町一丁目１０番１７号シーノ大宮サウスウィング１６階アサヒフレッシュロジ株式会社（8030001071930）に合併し解散,2015-10-05,1,,,,,アサヒフレッシュロジ,0
332,2011001123794,登記記録の閉鎖等,0,2024-04-05,2024-03-28,Ｋｉｋｉｎｚｏｋｕ　Ｔｒａｄｉｎｇ株式会社,,株式会社,東京都,渋谷区,神南１丁目２３番１４－２０１号,,13,113,1500041,,,2024-03-28,清算の結了等,,,2018-08-16,1,,,,,キキンゾクトレーディング,0
374,2011805001469,登記記録の閉鎖等,0,2024-04-05,2024-04-01,特定非営利活動法人国際教育情報交流協会,,その他の設立登記法人,東京都,葛飾区,東新小岩１丁目１５番５－６０２号,,13,122,1240023,,,2024-04-01,清算の結了等,,,2015-10-05,1,,,,,コクサイキョウイクジョウホウコウリュウキョウカイ,0
395,2021001048306,登記記録の閉鎖等,0,2024-04-05,2024-04-02,光陽リビング株式会社,,株式会社,神奈川県,相模原市中央区,上溝１３２４番地１１,,14,152,2520243,,,2024-04-02,清算の結了等,,,2015-10-05,1,,,,,コウヨウリビング,0
405,2040001083088,登記記録の閉鎖等,0,2024-04-05,2024-04-01,コヤストータルテクノ株式会社,,株式会社,千葉県,船橋市,山手１丁目１番３－１２１９号,,12,204,2730045,,,2024-04-01,清算の結了等,,,2015-10-05,1,,,,,コヤストータルテクノ,0
483,2180001018872,登記記録の閉鎖等,0,2024-04-05,2024-03-22,石田商事株式会社,,株式会社,愛知県,名古屋市中川区,月島町１１番８号,,23,110,4540804,,,2024-03-22,清算の結了等,,,2024-01-25,1,,,,,イシダショウジ,0
488,2180002049743,登記記録の閉鎖等,0,2024-04-05,2024-03-28,有限会社真生工業,,有限会社,愛知県,名古屋市港区,明正２丁目１３９番地,,23,111,4550806,,,2024-03-28,清算の結了等,,,2015-10-05,1,,,,,シンセイコウギョウ,0
506,2240001035432,登記記録の閉鎖等,0,2024-04-05,2024-03-29,株式会社宝菜,,株式会社,広島県,府中市,諸毛町２５６２番地,,34,208,7220431,,,2024-03-29,清算の結了等,,,2015-10-05,1,,,,,ホウサイ,0
507,2240002030812,登記記録の閉鎖等,0,2024-04-05,2024-04-01,有限会社土の会,,有限会社,広島県,三次市,三和町羽出庭２２１０番地の１,,34,209,7296614,,,2024-04-01,清算の結了等,,,2015-10-05,1,,,,,ツチノカイ,0
514,2270001000648,登記記録の閉鎖等,0,2024-04-05,2024-04-01,株式会社日ノ丸観光トラベル,,株式会社,鳥取県,鳥取市,古海６２０番地,,31,201,6800921,,,2024-04-01,合併による解散等,7270001000651,令和６年４月１日鳥取市古海６２０番地日ノ丸自動車株式会社（7270001000651）に合併し解散,2015-10-05,1,,,,,ヒノマルカンコウトラベル,0
530,2330002023633,登記記録の閉鎖等,0,2024-04-05,2024-04-01,有限会社インテリアすが,,有限会社,熊本県,阿蘇市,三久保４２８番地,,43,214,8692302,,,2024-04-01,清算の結了等,,,2015-10-05,1,,,,,,0
532,2340002014441,登記記録の閉鎖等,0,2024-04-05,2024-03-29,有限会社新橋総合住建,,有限会社,鹿児島県,霧島市,国分敷根１３８０番地３,,46,218,8994462,,,2024-03-29,清算の結了等,,,2015-10-05,1,,,,,シンバシソウゴウジュウケン,0
552,2390002009759,登記記録の閉鎖等,0,2024-04-05,2024-03-29,マルカメ有限会社,,有限会社,山形県,鶴岡市,福田甲２７番地,,06,203,9970006,,,2024-03-29,清算の結了等,,,2015-10-05,1,,,,,マルカメ,0
553,2400001003645,登記記録の閉鎖等,0,2024-04-05,2024-03-28,株式会社アートヒルズ,,株式会社,岩手県,岩手郡雫石町,長山網張１番地１１,,03,301,0200585,,,2024-03-28,清算の結了等,,,2015-10-05,1,,,,,アートヒルズ,0
585,3010403028675,登記記録の閉鎖等,0,2024-04-05,2024-03-29,Ｂｏｋｅｎ　Ｏｕｔｆｉｔｔｅｒｓ合同会社,,合同会社,東京都,港区,元麻布３丁目１番６号,,13,103,1060046,,,2024-03-29,清算の結了等,,,2022-10-12,1,,,,,ボーケンアウトフィッターズ,0
590,3010501040508,登記記録の閉鎖等,0,2024-04-05,2024-04-01,株式会社サン,,株式会社,東京都,台東区,上野６丁目８番１９号,,13,106,1100005,,,2024-04-01,清算の結了等,,,2017-01-16,1,,,,,サン,0
599,3011001098664,登記記録の閉鎖等,0,2024-04-05,2024-03-28,株式会社タカラコーポレーション,,株式会社,東京都,渋谷区,渋谷１丁目１番３号,,13,113,1500002,,,2024-03-28,清算の結了等,,,2015-10-05,1,,,,,タカラコーポレーション,0
600,3011001116137,登記記録の閉鎖等,0,2024-04-05,2024-03-29,株式会社トランスコスモス技術研究所,,株式会社,東京都,豊島区,東池袋３丁目１番１号,,13,116,1700013,,,2024-03-29,清算の結了等,,,2017-05-02,1,,,,,トランスコスモスギジュツケンキュウジョ,0
607,3011003014438,登記記録の閉鎖等,0,2024-04-05,2024-03-28,ＮＡＳＡＶＥ合同会社,,合同会社,東京都,渋谷区,道玄坂１丁目１０番８号渋谷道玄坂東急ビル２Ｆ－Ｃ,,13,113,1500043,,,2024-03-28,清算の結了等,,,2022-03-31,1,,,,,エヌエーセーブ,0
624,3011701014045,登記記録の閉鎖等,0,2024-04-05,2024-04-02,株式会社アドバンス・ティスリーシー,,株式会社,東京都,江戸川区,南葛西５丁目１８番１－４１８,,13,123,1340085,,,2024-04-02,清算の結了等,,,2015-10-05,1,,,,,アドバンスティスリーシー,0
629,3012401009021,登記記録の閉鎖等,0,2024-04-05,2024-03-28,株式会社ケープイーグル,,株式会社,東京都,狛江市,岩戸北１丁目７番９－１０２号,,13,219,2010004,,,2024-03-28,清算の結了等,,,2015-10-05,1,,,,,,0
641,3013305000289,登記記録の閉鎖等,0,2024-04-05,2024-03-19,天理教南錦分教会,,その他の設立登記法人,東京都,豊島区,池袋３丁目１番１７号,,13,116,1710014,,,2024-03-19,合併による解散等,8170005003726,令和６年３月１９日和歌山県西牟婁郡すさみ町江住１２４９番地の１天理教江住分教会（8170005003726）に合併し解散,2015-10-05,1,,,,,テンリキョウミナミニシキブンキョウカイ,0
663,3030001053958,登記記録の閉鎖等,0,2024-04-05,2024-04-01,イー・シー・サービス株式会社,,株式会社,東京都,文京区,湯島３丁目３７番２号,,13,105,1130034,,,2024-04-01,清算の結了等,,,2015-10-05,1,,,,,イーシーサービス,0
671,3040001077444,登記記録の閉鎖等,0,2024-04-05,2024-04-01,株式会社みふく,,株式会社,千葉県,市原市,加茂２丁目７番地２０,,12,219,2900025,,,2024-04-01,清算の結了等,,,2015-10-05,1,,,,,ミフク,0
672,3040001087501,登記記録の閉鎖等,0,2024-04-05,2024-04-01,株式会社ヒバリ,,株式会社,千葉県,東金市,福俵４８５番地２,,12,213,2830812,,,2024-04-01,清算の結了等,,,2015-10-05,1,,,,,ヒバリ,0
676,3040003010345,登記記録の閉鎖等,0,2024-04-05,2024-04-01,合同会社Ｍｉｚ－ｈａ,,合同会社,千葉県,成田市,加良部２丁目２番地の１（４棟４０６）,,12,211,2860036,,,2024-04-01,清算の結了等,,,2017-07-19,1,,,,,,0
686,3050002003209,登記記録の閉鎖等,0,2024-04-05,2024-04-03,有限会社マコトアーバンビル,,有限会社,茨城県,水戸市,泉町２丁目２番１１号,,08,201,3100026,,,2024-04-03,清算の結了等,,,2015-10-05,1,,,,,マコトアーバンビル,0
688,3050002037149,登記記録の閉鎖等,0,2024-04-05,2024-04-03,有限会社ホームクリエイト,,有限会社,茨城県,守谷市,百合ケ丘１丁目２３５４番地の２０２,,08,224,3020110,,,2024-04-03,清算の結了等,,,2015-10-05,1,,,,,ホームクリエイト,0
702,3080403004380,登記記録の閉鎖等,0,2024-04-05,2024-04-01,合同会社ＶＡＳＴ,,合同会社,静岡県,浜松市中央区,下石田町１５６６番地,,22,138,4350006,,,2024-04-01,合併による解散等,4080401025782,令和６年３月３１日浜松市中央区下石田町１５６６番地中部ホームメンテナンス株式会社（4080401025782）に合併し解散,2021-10-04,1,,,,,バスト,0
729,3130001021062,登記記録の閉鎖等,0,2024-04-05,2024-04-01,株式会社島津アドコム,,株式会社,京都府,京都市中京区,西ノ京徳大寺町１番地,,26,104,6048445,,,2024-04-01,合併による解散等,2130001021071,令和６年４月１日京都市中京区西ノ京徳大寺町１番地株式会社島津総合サービス（2130001021071）に合併し解散,2015-10-05,1,,,,,シマヅアドコム,0
746,3180001007156,登記記録の閉鎖等,0,2024-04-05,2024-03-28,株式会社ＹＣＨ１２,,株式会社,東京都,港区,南青山２丁目２番１５－８２５号,,13,103,1070062,,,2024-03-28,清算の結了等,,,2015-10-05,1,,,,,ワイシーエイチトゥエルブ,0
759,3210002012192,登記記録の閉鎖等,0,2024-04-05,2024-04-01,興正鉱業有限会社,,有限会社,福井県,南条郡南越前町,鯖波３５号１２番地の２,,18,404,9190212,,,2024-04-01,清算の結了等,,,2015-10-05,1,,,,,コウセイコウギョウ,0
782,3290801009729,登記記録の閉鎖等,0,2024-04-05,2024-03-29,小野田電気工事株式会社,,株式会社,福岡県,北九州市戸畑区,高峰１丁目７番２号,,40,105,8040051,,,2024-03-29,清算の結了等,,,2015-10-05,1,,,,,オノダデンキコウジ,0
784,3300003001532,登記記録の閉鎖等,0,2024-04-05,2024-04-01,合同会社ＳＨＩＰＳ,,合同会社,佐賀県,佐賀市,川副町大字早津江津２３番地７,,41,201,8402202,,,2024-04-01,合併による解散等,8300003001552,令和６年４月１日佐賀市川副町大字早津江津２３番地７合同会社ＺＥＮ（8300003001552）に合併し解散,2020-03-23,1,,,,,シップス,0
814,3400005004762,登記記録の閉鎖等,0,2024-04-05,2024-03-11,特定非営利活動法人カシオペア連邦地域づくりサポーターズ,,その他の設立登記法人,岩手県,二戸郡一戸町,高善寺字野田５８番地４,,03,524,0285311,,,2024-03-11,清算の結了等,,,2015-10-05,1,,,,,カシオペアレンポウチイキヅクリサポーターズ,0
830,3460301003487,登記記録の閉鎖等,0,2024-04-05,2024-04-01,株式会社高田メンテナンス,,株式会社,北海道,網走市,字呼人４１８番地,,01,211,0992421,,,2024-04-01,合併による解散等,9460301003630,令和６年４月１日北海道網走市字呼人４１８番地株式会社リスの森（9460301003630）に合併し解散,2015-10-05,1,,,,,タカダメンテナンス,0
833,3490002002579,登記記録の閉鎖等,0,2024-04-05,2024-04-01,有限会社スタジオ山下,,有限会社,高知県,高知市,神田１４６番地６０,,39,201,7808040,,,2024-04-01,清算の結了等,,,2015-10-05,1,,,,,スタジオヤマシタ,0
838,4010001231630,登記記録の閉鎖等,0,2024-04-05,2024-03-28,株式会社ＭＥＴＡＶＩＳＩＯＮ,,株式会社,東京都,渋谷区,神宮前１丁目５番８号神宮前タワービルディング１２階,,13,113,1500001,,,2024-03-28,清算の結了等,,,2022-12-19,1,,,,,メタビジョン,0
843,4010401007721,登記記録の閉鎖等,0,2024-04-05,2024-03-28,北里薬品産業株式会社,,株式会社,東京都,港区,三田５丁目４番３号,,13,103,1080073,,,2024-03-28,清算の結了等,,,2015-10-05,1,,,,,キタサトヤクヒンサンギョウ,0
851,4010403025713,登記記録の閉鎖等,0,2024-04-05,2024-03-29,合同会社スイッチバック,,合同会社,東京都,港区,芝浦４丁目１９番１,,13,103,1080023,,,2024-03-29,清算の結了等,,,2021-07-14,1,,,,,スイッチバック,0
858,4010705001362,登記記録の閉鎖等,0,2024-04-05,2024-03-28,税理士法人市川会計,,その他の設立登記法人,東京都,渋谷区,恵比寿１丁目２４番４号,,13,113,1500013,,,2024-03-28,清算の結了等,,,2015-10-05,1,,,,,イチカワカイケイ,0
918,4021002020352,登記記録の閉鎖等,0,2024-04-05,2024-04-01,有限会社サガミ彫刻,,有限会社,神奈川県,相模原市緑区,大島７０７番地の１,,14,151,2520135,,,2024-04-01,清算の結了等,,,2015-10-05,1,,,,,サガミチョウコク,0
920,4030001155076,登記記録の閉鎖等,0,2024-04-05,2024-03-29,半田工機株式会社,,株式会社,埼玉県,草加市,八幡町６６８番地２,,11,221,3400006,,,2024-03-29,清算の結了等,,,2023-07-31,1,,,,,ハンダコウキ,0
929,4040001021715,登記記録の閉鎖等,0,2024-04-05,2024-04-01,ホーシン産業株式会社,,株式会社,千葉県,船橋市,三山５丁目３２番３号,,12,204,2740072,,,2024-04-01,清算の結了等,,,2015-10-05,1,,,,,ホーシンサンギョウ,0
940,4050001026283,登記記録の閉鎖等,0,2024-04-05,2024-04-01,ジョイフルトラベルジャパン株式会社,,株式会社,茨城県,龍ケ崎市,久保台４丁目１番地５ライフヒルズ星の郷西２番館５０２,,08,208,3010001,,,2024-04-01,清算の結了等,,,2015-10-05,1,,,,,ジョイフルトラベルジャパン,0
957,4090001006050,登記記録の閉鎖等,0,2024-04-05,2024-03-29,新都市住宅株式会社,,株式会社,山梨県,笛吹市,一宮町北都塚３４０番地,,19,211,4050071,,,2024-03-29,清算の結了等,,,2015-10-05,1,,,,,シントシジュウタク,0
960,4100001008128,登記記録の閉鎖等,0,2024-04-05,2024-03-28,株式会社エステート・コンサルティング,,株式会社,長野県,長野市,大字高田５６６番地１０,,20,201,3810034,,,2024-03-28,清算の結了等,,,2015-10-05,1,,,,,エステートコンサルティング,0
989,4120101058847,登記記録の閉鎖等,0,2024-04-05,2024-03-29,株式会社ＲＡＹ,,株式会社,大阪府,堺市美原区,太井２４８番地４,,27,147,5870062,,,2024-03-29,清算の結了等,,,2018-10-03,1,,,,,レイ,0
994,4120902015212,登記記録の閉鎖等,0,2024-04-05,2024-04-01,有限会社共栄,,有限会社,大阪府,箕面市,桜井１丁目１２番１１号,,27,220,5620043,,,2024-04-01,清算の結了等,,,2015-10-05,1,,,,,キョウエイ,0
1025,4190001001231,登記記録の閉鎖等,0,2024-04-05,2024-04-01,株式会社和田建設工業,,株式会社,三重県,津市,城山２丁目１７番５号,,24,201,5140818,,,2024-04-01,清算の結了等,,,2015-10-05,1,,,,,ワダケンセツコウギョウ,0
1031,4200001008415,登記記録の閉鎖等,0,2024-04-05,2024-03-29,株式会社かさ井,,株式会社,岐阜県,郡上市,白鳥町六ノ里５４６－３,,21,219,5015112,,,2024-03-29,清算の結了等,,,2015-10-05,1,,,,,カサイ,0
1042,4240001049026,登記記録の閉鎖等,0,2024-04-05,2024-04-01,株式会社三久,,株式会社,広島県,広島市佐伯区,五日市中央５丁目２１番７号,,34,108,7315128,,,2024-04-01,合併による解散等,7240002002484,令和６年４月１日広島市佐伯区利松一丁目１３番２７号株式会社えびの瓦商店（7240002002484）に合併し解散,2016-03-15,1,,,,,サンキュウ,0
1068,4330003007765,登記記録の閉鎖等,0,2024-04-05,2024-04-01,合同会社Ｄアクト,,合同会社,熊本県,熊本市北区,麻生田３丁目３番２７号,,43,105,8618081,,,2024-04-01,清算の結了等,,,2019-01-16,1,,,,,ディーアクト,0
1097,4430001044684,登記記録の閉鎖等,0,2024-04-05,2024-03-28,イーロケーション株式会社,,株式会社,北海道,札幌市北区,北十八条西３丁目２番２８－１００２号,,01,102,0010018,,,2024-03-28,清算の結了等,,,2015-10-05,1,,,,,イーロケーション,0
1110,4490001003643,登記記録の閉鎖等,0,2024-04-05,2024-04-01,株式会社アレンド,,株式会社,高知県,高知市,葛島２丁目３番７５号,,39,201,7818121,,,2024-04-01,合併による解散等,2490001001533,令和６年４月１日高知市葛島二丁目３番７５号土佐ガス株式会社（2490001001533）に合併し解散,2015-10-05,1,,,,,アレンド,0
1114,5010001029578,登記記録の閉鎖等,0,2024-04-05,2024-04-01,株式会社丸ノ内ホテル,,株式会社,東京都,千代田区,丸の内１丁目６番３号,,13,101,1000005,,,2024-04-01,合併による解散等,2010001008774,令和６年４月１日東京都千代田区大手町一丁目１番１号三菱地所株式会社（2010001008774）に合併し解散,2015-10-05,1,,,,,マルノウチホテル,0
1116,5010001062463,登記記録の閉鎖等,0,2024-04-05,2024-04-01,日本プスネス株式会社,,株式会社,山口県,下関市,武久町２丁目１８番６号,,35,201,7510833,,,2024-04-01,合併による解散等,4250001005770,令和６年４月１日山口県下関市武久町二丁目１８番６号株式会社瀬戸崎鉄工所（4250001005770）に合併し解散,2015-10-05,1,,,,,ニホンプスネス,0
1118,5010001096668,登記記録の閉鎖等,0,2024-04-05,2024-04-01,テクノ・フュージョン株式会社,,株式会社,東京都,千代田区,丸の内２丁目７番２号,,13,101,1000005,,,2024-04-01,合併による解散等,7040001028749,令和６年４月１日東京都千代田区丸の内二丁目７番２号株式会社ＳＮＴ（7040001028749）に合併し解散,2015-10-05,1,,,,,テクノフュージョン,0
1127,5010001200907,登記記録の閉鎖等,0,2024-04-05,2024-03-28,株式会社ＳＹＴ,,株式会社,東京都,港区,元赤坂１丁目５番１１号,,13,103,1070051,,,2024-03-28,清算の結了等,,,2019-05-22,1,,,,,エスワイティー,0
1140,5010401116843,登記記録の閉鎖等,0,2024-04-05,2024-04-02,株式会社細胞環境デザイン学研究所,,株式会社,京都府,京都市中京区,釜座通三条上る突抜町８０９番地,,26,104,6048272,,,2024-04-02,清算の結了等,,,2015-10-05,1,,,,,サイボウカンキョウデザインガクケンキュウジョ,0
1148,5010501015061,登記記録の閉鎖等,0,2024-04-05,2024-04-01,株式会社リサ工房,,株式会社,東京都,台東区,台東１丁目５番２１号,,13,106,1100016,,,2024-04-01,清算の結了等,,,2015-10-05,1,,,,,リサコウボウ,0
1203,5012701009454,登記記録の閉鎖等,0,2024-04-05,2024-04-02,株式会社サニイ,,株式会社,東京都,小平市,上水新町３丁目８番１４号,,13,211,1870023,,,2024-04-02,清算の結了等,,,2015-10-05,1,,,,,サニイ,0
1241,5030005006431,登記記録の閉鎖等,0,2024-04-05,2024-03-22,天理教北鹿角分教会,00018484,その他の設立登記法人,埼玉県,桶川市,大字上日出谷７１８番地の５,,11,231,3630026,,,2024-03-22,合併による解散等,7150005002821,令和６年３月１９日奈良県大和郡山市天理町１番５号天理教郡山大教会（7150005002821）に合併し解散,2015-10-05,1,,,,,,0
1244,5040001050300,登記記録の閉鎖等,0,2024-04-05,2024-03-29,株式会社北国分,,株式会社,千葉県,市川市,堀之内３丁目１９番１９号,,12,203,2720837,,,2024-03-29,清算の結了等,,,2015-10-05,1,,,,,キタコクブ,0
1252,5060002037204,登記記録の閉鎖等,0,2024-04-05,2024-04-01,有限会社福山楼,,有限会社,栃木県,足利市,久松町１３４番地１,,09,202,3260034,,,2024-04-01,清算の結了等,,,2015-10-05,1,,,,,フクサンロウ,0
1261,5070002021479,登記記録の閉鎖等,0,2024-04-05,2024-04-02,サン・オフィス有限会社,,有限会社,群馬県,伊勢崎市,下植木町１１４８番地１４,,10,204,3720024,,,2024-04-02,清算の結了等,,,2015-10-05,1,,,,,サンオフィス,0
1275,5110005005284,登記記録の閉鎖等,0,2024-04-05,2024-03-21,天理教北八幡分教会,,その他の設立登記法人,新潟県,胎内市,八幡４４５番地,,15,227,9592606,,,2024-03-21,合併による解散等,4110005005285,令和６年３月２１日新潟県胎内市築地３７０１番地天理教北築地分教会（4110005005285）に合併し解散,2015-10-05,1,,,,,テンリキョウキタハチマンブンキョウカイ,0
1277,5120001039806,登記記録の閉鎖等,0,2024-04-05,2024-04-01,フモト産業株式会社,,株式会社,大阪府,大阪市浪速区,敷津東１丁目２番４７号,,27,111,5560012,,,2024-04-01,清算の結了等,,,2015-10-05,1,,,,,フモトサンギョウ,0
1278,5120001072757,登記記録の閉鎖等,0,2024-04-05,2024-03-29,日本クルーズ客船株式会社,,株式会社,大阪府,大阪市北区,梅田２丁目５番２５号,,27,127,5300001,,,2024-03-29,清算の結了等,,,2015-10-05,1,,,,,ニホンクルーズキャクセン,0
1287,5120001257291,登記記録の閉鎖等,0,2024-04-05,2024-04-01,株式会社ファーマシーオフィス・ソリューションズ,,株式会社,大阪府,大阪市中央区,本町２丁目３番４号,,27,128,5410053,,,2024-04-01,清算の結了等,,,2023-08-09,1,,,,,ファーマシーオフィスソリューションズ,0
1334,5180005013132,登記記録の閉鎖等,0,2024-04-05,2024-03-21,天理教本心里分教会,,その他の設立登記法人,愛知県,海部郡蟹江町,今西１丁目６９番地１,,23,425,4970037,,,2024-03-21,合併による解散等,7180005000649,令和６年３月２１日名古屋市中川区小本一丁目７番５号天理教本心分教会（7180005000649）に合併し解散,2015-10-05,1,,,,,テンリキョウホンシンリブンキョウカイ,0
1341,5190002013258,登記記録の閉鎖等,0,2024-04-05,2024-04-01,有限会社丸和商会,,有限会社,三重県,名張市,つつじが丘北５番町１０３番地,,24,208,5180435,,,2024-04-01,清算の結了等,,,2015-10-05,1,,,,,マルワショウカイ,0
1359,5240001051897,登記記録の閉鎖等,0,2024-04-05,2024-04-01,ＥＰＯ株式会社,,株式会社,広島県,広島市中区,舟入南２丁目８番１０号,,34,101,7300847,,,2024-04-01,合併による解散等,5240001043234,令和６年３月３１日広島市中区舟入南二丁目８番１０号株式会社エポッククリーン（5240001043234）に合併し解散,2017-11-02,1,,,,,エポ,0
1363,5260001022467,登記記録の閉鎖等,0,2024-04-05,2024-04-01,マルカ食品岡山株式会社,,株式会社,岡山県,玉野市,玉１丁目１番４号,,33,204,7060012,,,2024-04-01,清算の結了等,,,2015-10-05,1,,,,,マルカショクヒンオカヤマ,0
1394,5380005008748,登記記録の閉鎖等,0,2024-04-05,2024-04-01,特定非営利活動法人会津先人顕彰会,,その他の設立登記法人,福島県,会津若松市,日新町１４番２９号,,07,202,9650861,,,2024-04-01,清算の結了等,,,2015-10-05,1,,,,,アイヅセンジンケンショウカイ,0
1400,5420001006453,登記記録の閉鎖等,0,2024-04-05,2024-04-01,八戸鉄工建設株式会社,,株式会社,青森県,八戸市,大字市川町字下揚４５番地１０,,02,203,0392241,,,2024-04-01,清算の結了等,,,2015-10-05,1,,,,,ハチノヘテッコウケンセツ,0
1412,5440005000599,登記記録の閉鎖等,0,2024-04-05,2024-03-19,天理教本北喜分教会,,その他の設立登記法人,北海道,函館市,白鳥町２１番１０号,,01,202,0400082,,,2024-03-19,合併による解散等,4440005000609,令和６年３月１９日北海道函館市北浜町４番２号天理教本北浜分教会（4440005000609）に合併し解散,2015-10-05,1,,,,,テンリキョウホンキタヨシブンキョウカイ,0
1426,6010101002319,登記記録の閉鎖等,0,2024-04-05,2024-03-29,株式会社匠建設,,株式会社,東京都,八王子市,裏高尾町３９７番地１７,,13,201,1930841,,,2024-03-29,清算の結了等,,,2015-10-05,1,,,,,タクミケンセツ,0
1429,6010401011812,登記記録の閉鎖等,0,2024-04-05,2024-03-28,サンリオ自動車リース株式会社,,株式会社,東京都,港区,芝大門２丁目５番１号アルテビル芝大門,,13,103,1050012,,,2024-03-28,清算の結了等,,,2015-10-05,1,,,,,サンリオジドウシャリース,0
1447,6010902007284,登記記録の閉鎖等,0,2024-04-05,2024-04-01,有限会社ジグデザイン,,有限会社,東京都,世田谷区,上野毛１丁目３番１５号,,13,112,1580093,,,2024-04-01,清算の結了等,,,2015-10-05,1,,,,,ジグデザイン,0
1450,6011001061784,登記記録の閉鎖等,0,2024-04-05,2024-04-01,株式会社ジロープランニングサービス,,株式会社,東京都,渋谷区,笹塚２丁目１番６号,,13,113,1510073,,,2024-04-01,合併による解散等,8011001046387,令和６年４月１日東京都渋谷区笹塚二丁目１番６号ジローレストランシステム株式会社（8011001046387）に合併し解散,2015-10-05,1,,,,,ジロープランニングサービス,0
1470,6011801020485,登記記録の閉鎖等,0,2024-04-05,2024-03-28,株式会社らいとはうす,,株式会社,千葉県,市川市,中国分２丁目６－４,,12,203,2720835,,,2024-03-28,清算の結了等,,,2015-10-05,1,,,,,ライトハウス,0
1481,6020001070720,登記記録の閉鎖等,0,2024-04-05,2024-04-01,金子設備株式会社,,株式会社,神奈川県,川崎市川崎区,渡田向町１６番３号,,14,131,2100841,,,2024-04-01,清算の結了等,,,2015-10-05,1,,,,,カネコセツビ,0
1483,6020001093416,登記記録の閉鎖等,0,2024-04-05,2024-04-01,株式会社ＭＫ通信,,株式会社,神奈川県,横浜市保土ケ谷区,今井町８３５番地１号,,14,106,2400035,,,2024-04-01,清算の結了等,,,2015-10-05,1,,,,,エムケイツウシン,0
1484,6020001126514,登記記録の閉鎖等,0,2024-04-05,2024-03-28,Ｐｅｒｌｉｇｈｔ　Ｓｏｌａｒ　Ｊａｐａｎ株式会社,,株式会社,神奈川県,横浜市泉区,和泉中央北２丁目２３－２,,14,116,2450024,,,2024-03-28,清算の結了等,,,2018-05-30,1,,,,,パーライトソラージャパン,0
1494,6021001036703,登記記録の閉鎖等,0,2024-04-05,2024-04-01,湘南流通運輸株式会社,,株式会社,神奈川県,平塚市,黒部丘１番１２号,,14,203,2540821,,,2024-04-01,合併による解散等,1021001036658,令和６年４月１日神奈川県平塚市黒部丘１番１９号湘南倉庫運送株式会社（1021001036658）に合併し解散,2015-10-05,1,,,,,ショウナンリュウツウウンユ,0
1501,6021002069603,登記記録の閉鎖等,0,2024-04-05,2024-04-03,有限会社コンパス・ルーム,,有限会社,神奈川県,横須賀市,久里浜７丁目２番１－１１４号,,14,201,2390831,,,2024-04-03,清算の結了等,,,2015-10-05,1,,,,,コンパスルーム,0
1544,6060002036634,登記記録の閉鎖等,0,2024-04-05,2024-04-01,有限会社たこ七,,有限会社,栃木県,足利市,助戸１丁目７５番地２,,09,202,3260044,,,2024-04-01,清算の結了等,,,2015-10-05,1,,,,,タコシチ,0
1559,6110002000485,登記記録の閉鎖等,0,2024-04-05,2024-04-01,有限会社あさひ,,有限会社,新潟県,新潟市中央区,旭町通１番町７８番地４,,15,103,9518122,,,2024-04-01,清算の結了等,,,2015-10-05,1,,,,,アサヒ,0
1564,6120001022983,登記記録の閉鎖等,0,2024-04-05,2024-04-01,関西電設工業株式会社,,株式会社,大阪府,大阪市天王寺区,上本町５丁目１番５号,,27,109,5430001,,,2024-04-01,合併による解散等,5120001025707,令和６年４月１日大阪市天王寺区上本町五丁目１番５号雄健建設株式会社（5120001025707）に合併し解散,2015-10-05,1,,,,,カンサイデンセツコウギョウ,0
1565,6120001068969,登記記録の閉鎖等,0,2024-04-05,2024-03-29,株式会社ハチハチ観光,,株式会社,大阪府,大阪市北区,西天満１丁目３番２４号北浜ウィング２０１号室,,27,127,5300047,,,2024-03-29,清算の結了等,,,2015-10-05,1,,,,,ハチハチカンコウ,0
1573,6120001260955,登記記録の閉鎖等,0,2024-04-05,2024-03-29,株式会社コマクサ建装,,株式会社,大阪府,大阪市中央区,上汐２丁目４番６号,,27,128,5420064,,,2024-03-29,合併による解散等,7120001240782,令和６年３月２９日大阪市中央区上汐二丁目３番５号株式会社フレスカ（7120001240782）に合併し解散,2024-01-04,1,,,,,コマクサケンソウ,0
1580,6120101005327,登記記録の閉鎖等,0,2024-04-05,2024-04-02,ＳＣ有機化学株式会社,,株式会社,大阪府,堺市西区,築港新町３丁２７番１６号,,27,144,5928331,,,2024-04-02,合併による解散等,4120101002532,令和６年４月１日大阪府堺市堺区戎島町五丁２番地堺化学工業株式会社（4120101002532）に合併し解散,2015-10-05,1,,,,,エスシーユウキカガク,0
1587,6130001015904,登記記録の閉鎖等,0,2024-04-05,2024-04-02,株式会社ヤナコ機器開発研究所,,株式会社,京都府,京都市伏見区,下鳥羽平塚町１４５番地,,26,109,6128387,,,2024-04-02,清算の結了等,,,2015-10-05,1,,,,,ヤナコキキカイハツケンキュウショ,0
1590,6130001042758,登記記録の閉鎖等,0,2024-04-05,2024-04-01,株式会社大宮日進,,株式会社,京都府,京丹後市,大宮町谷内１９５番地,,26,212,6292532,,,2024-04-01,合併による解散等,6130001042683,令和６年４月１日京都府京丹後市峰山町菅１２３番地の１株式会社日進ＰＲＥＶＯ（6130001042683）に合併し解散,2015-10-05,1,,,,,オオミヤニッシン,0
1591,6130001046742,登記記録の閉鎖等,0,2024-04-05,2024-04-01,株式会社大龍鳳,,株式会社,京都府,京都市伏見区,深草正覚町２１番地４,,26,109,6120801,,,2024-04-01,清算の結了等,,,2015-10-05,1,,,,,ビックロンファン,0
1625,6220001017131,登記記録の閉鎖等,0,2024-04-05,2024-04-01,エコバンク株式会社,,株式会社,石川県,野々市市,押野３丁目１２番地５,,17,212,9218802,,,2024-04-01,清算の結了等,,,2015-10-05,1,,,,,エコバンク,0
1634,6240001023796,登記記録の閉鎖等,0,2024-04-05,2024-04-02,マツモト印刷株式会社,,株式会社,広島県,東広島市,豊栄町別府鳥打３５－１６,,34,212,7392312,,,2024-04-02,清算の結了等,,,2015-10-05,1,,,,,マツモトインサツ,0
1638,6240005007911,登記記録の閉鎖等,0,2024-04-05,2024-03-26,社会福祉法人福聚福祉会,,その他の設立登記法人,広島県,福山市,能島２丁目２３番１２号,,34,207,7210906,,,2024-03-26,清算の結了等,,,2015-10-05,1,,,,,フクジュフクシカイ,0
1643,6260003002391,登記記録の閉鎖等,0,2024-04-05,2024-04-01,合同会社ＲＯＣＡ,,合同会社,岡山県,津山市,東一宮２１番地１４,,33,203,7080814,,,2024-04-01,清算の結了等,,,2017-11-09,1,,,,,,0
1653,6310001006967,登記記録の閉鎖等,0,2024-04-05,2024-04-01,大裕建設株式会社,,株式会社,長崎県,佐世保市,江迎町長坂１６８番地の１３,,42,202,8596101,,,2024-04-01,清算の結了等,,,2016-03-11,1,,,,,ダイユウケンセツ,0
1656,6320001012931,登記記録の閉鎖等,0,2024-04-05,2024-03-29,株式会社吉冨農事,,株式会社,大分県,中津市,大字高瀬１１１５番地３,,44,203,8710026,,,2024-03-29,清算の結了等,,,2015-10-05,1,,,,,ヨシトミノウジ,0
1668,6370002017875,登記記録の閉鎖等,0,2024-04-05,2024-03-29,有限会社サダック,,有限会社,宮城県,仙台市青葉区,吉成３丁目１４番２５号,,04,101,9893205,,,2024-03-29,清算の結了等,,,2015-10-05,1,,,,,サダック,0
1671,6380002011555,登記記録の閉鎖等,0,2024-04-05,2024-04-01,有限会社プロパック,,有限会社,福島県,郡山市,大槻町字三ツ坦１２番地の１３,,07,203,9630201,,,2024-04-01,清算の結了等,,,2015-10-05,1,,,,,プロパック,0
1678,6430001013902,登記記録の閉鎖等,0,2024-04-05,2024-04-01,ヒシエム森産業株式会社,00088302,株式会社,北海道,札幌市中央区,北十二条西２３丁目２番７号,,01,101,0600012,,,2024-04-01,清算の結了等,,,2015-10-05,1,,,,,,0
1679,6430001030047,登記記録の閉鎖等,0,2024-04-05,2024-04-01,株式会社ダイヤモンド・デンタル・ラボ,,株式会社,北海道,札幌市中央区,南一条西１４丁目１番５号第２エスエービル３階,,01,101,0600061,,,2024-04-01,清算の結了等,,,2015-10-05,1,,,,,ダイヤモンドデンタルラボ,0
1680,6430001046919,登記記録の閉鎖等,0,2024-04-05,2024-04-01,株式会社山本ポンプ水道工業所,,株式会社,北海道,美唄市,大通西一条南５丁目１番８号,,01,215,0720023,,,2024-04-01,清算の結了等,,,2015-10-05,1,,,,,ヤマモトポンプスイドウコウギョウショ,0
1691,6490002011098,登記記録の閉鎖等,0,2024-04-05,2024-04-01,有限会社橋田電機,,有限会社,高知県,須崎市,上分甲１５９１番地,,39,206,7850026,,,2024-04-01,清算の結了等,,,2015-10-05,1,,,,,ハシダデンキ,0
1712,7010405009802,登記記録の閉鎖等,0,2024-04-05,2024-04-01,一般社団法人アジアン・ハンドセラピー協会,,その他の設立登記法人,兵庫県,神戸市東灘区,住吉東町３丁目２－１７,,28,101,6580052,,,2024-04-01,清算の結了等,,,2015-10-05,1,,,,,アジアンハンドセラピー,0
1724,7010801016303,登記記録の閉鎖等,0,2024-04-05,2024-03-27,エムアンドエイチ株式会社,,株式会社,東京都,大田区,仲池上１丁目２３番７号,,13,111,1460081,,,2024-03-27,清算の結了等,,,2015-10-05,1,,,,,エムアンドエイチ,0
1728,7010905002455,登記記録の閉鎖等,0,2024-04-05,2024-03-29,特定非営利活動法人ＳＴｅＬＡ　Ｊａｐａｎ,,その他の設立登記法人,東京都,中央区,銀座１丁目２２－１１銀座大竹ビジデンス２Ｆ,,13,102,1040061,,,2024-03-29,清算の結了等,,,2015-10-05,1,,,,,トウキョウトシャコウインショクギョウ,0
1734,7011001145685,登記記録の閉鎖等,0,2024-04-05,2024-03-28,株式会社ネクストプレジャーズ,,株式会社,東京都,渋谷区,神宮前６丁目２３番４号桑野ビル２階,,13,113,1500001,,,2024-03-28,清算の結了等,,,2022-02-21,1,,,,,ネクストプレジャーズ,0
1752,7011402006032,登記記録の閉鎖等,0,2024-04-05,2024-03-28,有限会社ティー・エム・エスワールド,,有限会社,東京都,板橋区,加賀２丁目５番２１号,,13,119,1730003,,,2024-03-28,清算の結了等,,,2015-10-05,1,,,,,ティーエムエスワールド,0
1757,7011702008810,登記記録の閉鎖等,0,2024-04-05,2024-04-01,有限会社西島牛乳店,,有限会社,東京都,江戸川区,船堀２丁目１３番１１号,,13,123,1340091,,,2024-04-01,清算の結了等,,,2015-10-05,1,,,,,ニシジマギュウニュウテン,0
1768,7012801021852,登記記録の閉鎖等,0,2024-04-05,2024-04-01,株式会社ＲＮ,,株式会社,東京都,立川市,錦町１丁目４番４号サニービル２階ＣｓＴＡＣＨＩＫＡＷＡＣＳ－１７８,,13,202,1900022,,,2024-04-01,清算の結了等,,,2022-09-15,1,,,,,アールエヌ,0
1802,7040001072796,登記記録の閉鎖等,0,2024-04-05,2024-03-29,株式会社平島電気工事,,株式会社,千葉県,印西市,中央北２丁目１番地３－４１８号,,12,231,2701350,,,2024-03-29,清算の結了等,,,2015-10-05,1,,,,,ヒラシマデンキコウジ,0
1824,7070002036070,登記記録の閉鎖等,0,2024-04-05,2024-04-01,有限会社グリーンネット,,有限会社,群馬県,利根郡昭和村,大字糸井７４２２番地１,,10,448,3791203,,,2024-04-01,清算の結了等,,,2015-10-05,1,,,,,グリーンネット,0
1836,7110001007539,登記記録の閉鎖等,0,2024-04-05,2024-04-01,株式会社新潟三商,,株式会社,新潟県,新潟市南区,白根ノ内七軒７６２番地８,,15,106,9501216,,,2024-04-01,清算の結了等,,,2015-10-05,1,,,,,ニイガタサンショウ,0
1847,7120003015035,登記記録の閉鎖等,0,2024-04-05,2024-03-27,合同会社イデアプレックス,,合同会社,大阪府,大阪市港区,築港４丁目１１－１３光信ビル２０３号室,,27,107,5520021,,,2024-03-27,清算の結了等,,,2018-12-05,1,,,,,イデアプレックス,0
1857,7120902015639,登記記録の閉鎖等,0,2024-04-05,2024-04-01,株式会社蒼樹,,株式会社,大阪府,大阪市北区,天満１丁目７番１２号,,27,127,5300043,,,2024-04-01,清算の結了等,,,2015-10-05,1,,,,,ソウジュ,0
1872,7140005010478,登記記録の閉鎖等,0,2024-04-05,2024-04-02,南但小売酒販組合,,その他の設立登記法人,兵庫県,朝来市,和田山町和田山２８４番地５,,28,225,6695201,,,2024-04-02,清算の結了等,,,2015-10-05,1,,,,,ナンタンコウリ,0
1882,7170005002035,登記記録の閉鎖等,0,2024-04-05,2024-03-25,安養寺,,その他の設立登記法人,和歌山県,海南市,沖野々２５２番地,,30,202,6401175,,,2024-03-25,合併による解散等,2170005001917,令和６年３月２５日和歌山県海南市沖野々５５３番地法然寺（2170005001917）に合併し解散,2015-10-05,1,,,,,アンヨウジ,0
1897,7190001014362,登記記録の閉鎖等,0,2024-04-05,2024-04-01,今谷商事株式会社,,株式会社,三重県,四日市市,羽津山町２２番６号,,24,202,5100016,,,2024-04-01,清算の結了等,,,2015-10-05,1,,,,,イマタニショウジ,0
1902,7200001010871,登記記録の閉鎖等,0,2024-04-05,2024-03-29,株式会社ガゼール,,株式会社,岐阜県,羽島郡岐南町,伏屋５丁目１番地,,21,302,5016006,,,2024-03-29,清算の結了等,,,2015-10-05,1,,,,,ガゼール,0
1915,7230002000828,登記記録の閉鎖等,0,2024-04-05,2024-04-01,有限会社カナダデンキ,,有限会社,富山県,富山市,宮尾３１８８番地の３,,16,201,9302211,,,2024-04-01,清算の結了等,,,2015-10-05,1,,,,,カナダデンキ,0
1923,7240002053791,登記記録の閉鎖等,0,2024-04-05,2024-04-02,安田商事有限会社,,有限会社,広島県,三原市,本町１丁目３番３号,,34,204,7230062,,,2024-04-02,清算の結了等,,,2015-10-05,1,,,,,ヤスダショウジ,0
1927,7260001007771,登記記録の閉鎖等,0,2024-04-05,2024-04-01,株式会社ラーンズ,,株式会社,岡山県,岡山市北区,南方３丁目７番１７号,,33,101,7000807,,,2024-04-01,合併による解散等,1260001011820,令和６年４月１日岡山市北区南方三丁目７番１７号株式会社ベネッセコーポレーション（1260001011820）に合併し解散,2015-10-05,1,,,,,ラーンズ,0
1949,7360002012216,登記記録の閉鎖等,0,2024-04-05,2024-04-01,有限会社ハイタク経理保険事務センター,,有限会社,沖縄県,沖縄市,松本６丁目８番２０号,,47,211,9042151,,,2024-04-01,清算の結了等,,,2015-10-05,1,,,,,ハイタクケイリホケンジムセンター,0
1976,7500001023298,登記記録の閉鎖等,0,2024-04-05,2024-04-01,株式会社セブンスクリエイト,,株式会社,愛媛県,松山市,余戸東１丁目２番地２７モンテ・グリシーヌＩ２０２号,,38,201,7900044,,,2024-04-01,清算の結了等,,,2021-03-30,1,,,,,セブンスクリエイト,0
1988,8010401065922,登記記録の閉鎖等,0,2024-04-05,2024-03-29,株式会社スリージェイ,,株式会社,東京都,港区,麻布十番３丁目１０番１２号シティ麻布５０１,,13,103,1060045,,,2024-03-29,清算の結了等,,,2015-10-05,1,,,,,スリージェイ,0
2005,8010801025071,登記記録の閉鎖等,0,2024-04-05,2024-03-29,株式会社サンロクマル,,株式会社,東京都,大田区,田園調布本町４６番２４号,,13,111,1450072,,,2024-03-29,清算の結了等,,,2015-10-05,1,,,,,サンロクマル,0
2012,8011001126115,登記記録の閉鎖等,0,2024-04-05,2024-04-01,ＡＸＩＳ株式会社,,株式会社,神奈川県,横浜市保土ケ谷区,新井町７９－６,,14,106,2400053,,,2024-04-01,清算の結了等,,,2019-01-16,1,,,,,アクシス,0
2024,8011302001272,登記記録の閉鎖等,0,2024-04-05,2024-04-01,有限会社宇賀神工務店,,有限会社,東京都,杉並区,松庵３丁目４番５号,,13,115,1670054,,,2024-04-01,清算の結了等,,,2015-10-05,1,,,,,ウガジンコウムテン,0
2048,8020001104501,登記記録の閉鎖等,0,2024-04-05,2024-04-01,シーナ株式会社,,株式会社,神奈川県,横浜市鶴見区,矢向６丁目１０番１－４０２号,,14,101,2300001,,,2024-04-01,清算の結了等,,,2015-10-05,1,,,,,シーナ,0
2070,8021002031544,登記記録の閉鎖等,0,2024-04-05,2024-04-03,有限会社光輝技研,,有限会社,神奈川県,厚木市,三田２７０２番地の３,,14,212,2430211,,,2024-04-03,清算の結了等,,,2015-10-05,1,,,,,コウキギケン,0
2072,8021005009983,登記記録の閉鎖等,0,2024-04-05,2024-04-03,特定非営利活動法人未来へつなぐまちづくりの会,,その他の設立登記法人,神奈川県,南足柄市,塚原字平和１５３３番地３,,14,217,2500117,,,2024-04-03,清算の結了等,,,2015-10-05,1,,,,,ミライヘツナグマチヅクリノカイ,0
2094,8050001015266,登記記録の閉鎖等,0,2024-04-05,2024-04-02,株式会社エアフォルク,,株式会社,茨城県,水戸市,大工町１丁目５番１号４階,,08,201,3100031,,,2024-04-02,清算の結了等,,,2015-10-05,1,,,,,エアフォルク,0
2103,8070001033010,登記記録の閉鎖等,0,2024-04-05,2024-04-01,株式会社うない屋ほんぽ,,株式会社,群馬県,伊勢崎市,境平塚３番地１,,10,204,3700132,,,2024-04-01,清算の結了等,,,2017-01-11,1,,,,,ウナイヤホンポ,0
2107,8080001023233,登記記録の閉鎖等,0,2024-04-05,2024-04-01,西東アカウントサービス株式会社,,株式会社,静岡県,島田市,金谷東１丁目１２３８番地,,22,209,4280013,,,2024-04-01,合併による解散等,7080001025544,令和６年４月１日静岡県島田市金谷東一丁目１２３５番地の１西東ホールディングス株式会社（7080001025544）に合併し解散,2019-12-04,1,,,,,サイトウアカウントサービス,0
2127,8120001226822,登記記録の閉鎖等,0,2024-04-05,2024-04-01,株式会社フォーチュンアイランド,,株式会社,大阪府,大阪市福島区,福島５丁目１７番３２号,,27,103,5530003,,,2024-04-01,清算の結了等,,,2020-01-28,1,,,,,フォーチュンアイランド,0
2135,8120002070872,登記記録の閉鎖等,0,2024-04-05,2024-04-02,有限会社オオミヤ,,有限会社,京都府,相楽郡精華町,大字山田小字下川原１－３－１０１,,26,366,6190231,,,2024-04-02,清算の結了等,,,2015-10-05,1,,,,,オオミヤ,0
2140,8120103003426,登記記録の閉鎖等,0,2024-04-05,2024-04-02,ライフサポート関西合同会社,,合同会社,大阪府,堺市堺区,三国ヶ丘御幸通１番３号角尾ビル２Ｆ,,27,141,5900028,,,2024-04-02,清算の結了等,,,2019-08-09,1,,,,,ライフサポートカンサイ,0
2180,8190001025994,登記記録の閉鎖等,0,2024-04-05,2024-04-01,株式会社１８ｂａｎｃｈｉ,,株式会社,三重県,桑名市,太一丸１８番地,,24,205,5110005,,,2024-04-01,合併による解散等,3190001029307,令和６年４月１日三重県桑名市太一丸１８番地諸戸コーポレーション株式会社（3190001029307）に合併し解散,2018-11-06,1,,,,,ジュウハチバンチ,0
2185,8210001000680,登記記録の閉鎖等,0,2024-04-05,2024-04-01,岡田造園建設株式会社,,株式会社,福井県,福井市,飯塚町第２９号１１１番地,,18,201,9188067,,,2024-04-01,合併による解散等,4210001009263,令和６年４月１日福井市飯塚町第２９号１１１番地株式会社藤田（4210001009263）に合併し解散,2015-10-05,1,,,,,オカダゾウエンケンセツ,0
2240,8390001001884,登記記録の閉鎖等,0,2024-04-05,2024-03-21,株式会社メドテック,,株式会社,山形県,山形市,若宮１丁目１番３６号,,06,201,9902453,,,2024-03-21,合併による解散等,2380001010231,令和６年３月１日福島県白河市双石横峯１２番地白河日東工器株式会社（2380001010231）に合併し解散,2015-10-05,1,,,,,メドテック,0
2241,8390001007857,登記記録の閉鎖等,0,2024-04-05,2024-03-29,山一建設株式会社,,株式会社,山形県,鶴岡市,みどり町３２番５５号,,06,203,9970046,,,2024-03-29,清算の結了等,,,2015-10-05,1,,,,,ヤマイチケンセツ,0
2248,8420002008248,登記記録の閉鎖等,0,2024-04-05,2024-04-01,有限会社八戸家政婦紹介所,,有限会社,青森県,八戸市,内丸３丁目５番３１号,,02,203,0310075,,,2024-04-01,清算の結了等,,,2015-10-05,1,,,,,ハチノヘカセイフショウカイジョ,0
2278,9010103001761,登記記録の閉鎖等,0,2024-04-05,2024-03-27,合同会社靖道,00124060,合同会社,東京都,八王子市,下恩方町６７６番地６,,13,201,1920154,,,2024-03-27,清算の結了等,,,2021-08-31,1,,,,,ヤスミチ,0
2291,9010701036630,登記記録の閉鎖等,0,2024-04-05,2024-03-25,ＫＲＨホールディングス株式会社,,株式会社,東京都,品川区,西五反田５丁目２番４号,,13,109,1410031,,,2024-03-25,合併による解散等,8010701044700,令和６年３月１日東京都品川区西五反田五丁目２番４号ＫＲＨホールディングス株式会社（8010701044700）に合併し解散,2018-10-29,1,,,,,ケーアールエイチホールディングス,0
2305,9011001062524,登記記録の閉鎖等,0,2024-04-05,2024-04-01,株式会社Ｊホーム,,株式会社,東京都,新宿区,西新宿６丁目３番１号新宿アイランドウイング２階,,13,104,1600023,,,2024-04-01,合併による解散等,7011101060140,令和６年４月１日東京都新宿区西新宿七丁目２１番１号新宿ロイヤルビル９階自由住宅株式会社（7011101060140）に合併し解散,2015-10-05,1,,,,,ジェイホーム,0
2346,9013202002928,登記記録の閉鎖等,0,2024-04-05,2024-03-28,有限会社サンタマルタ,,有限会社,東京都,目黒区,中目黒４丁目５番１８号カーサフナコシ３０３,,13,110,1530061,,,2024-03-28,清算の結了等,,,2015-10-05,1,,,,,サンタマルタ,0
2350,9020001110572,登記記録の閉鎖等,0,2024-04-05,2024-04-01,株式会社ＮＯＮＯ,,株式会社,神奈川県,茅ヶ崎市,浜竹４丁目１番３０号,,14,207,2530021,,,2024-04-01,清算の結了等,,,2015-10-05,1,,,,,ノノ,0
2357,9021001075203,登記記録の閉鎖等,0,2024-04-05,2024-04-02,株式会社ペッティ,,株式会社,神奈川県,足柄下郡湯河原町,鍛冶屋８３９番地の３,,14,384,2590313,,,2024-04-02,清算の結了等,,,2022-02-25,1,,,,,ペッティ,0
2362,9030001015738,登記記録の閉鎖等,0,2024-04-05,2024-04-01,株式会社ファイブスター・トラストインベストメント,,株式会社,埼玉県,さいたま市中央区,下落合７丁目３番６号,,11,105,3380002,,,2024-04-01,合併による解散等,8030001006878,令和６年４月１日埼玉県さいたま市中央区下落合七丁目３番６号八生建設株式会社（8030001006878）に合併し解散,2015-10-05,1,,,,,ファイブスタートラストインベストメント,0
2399,9090001012837,登記記録の閉鎖等,0,2024-04-05,2024-03-26,Ｒ‐ＣＡＳＴ株式会社,,株式会社,山梨県,中央市,東花輪２１７１番地,,19,214,4093842,,,2024-03-26,合併による解散等,2010601034872,令和６年３月１５日東京都江東区亀戸六丁目５８番１０号株式会社ルミナス（2010601034872）に合併し解散,2015-10-05,1,,,,,,0
2404,9110001010540,登記記録の閉鎖等,0,2024-04-05,2024-04-01,株式会社ＩＳＩハートピースコーポレーション,,株式会社,新潟県,新潟市南区,親和町４番１１号,,15,106,9501209,,,2024-04-01,清算の結了等,,,2015-10-05,1,,,,,アイエスアイハートピースコーポレーション,0
2405,9110001016323,登記記録の閉鎖等,0,2024-04-05,2024-04-01,株式会社本間鍍金工場,,株式会社,新潟県,燕市,小関７１６番地１１,,15,213,9591286,,,2024-04-01,清算の結了等,,,2015-10-05,1,,,,,ホンマメッキコウジョウ,0
2409,9120001051253,登記記録の閉鎖等,0,2024-04-05,2024-03-25,株式会社ＵＹＥＫＩ,,株式会社,大阪府,大阪市淀川区,西中島６丁目１番１号,,27,123,5320011,,,2024-03-25,合併による解散等,9140001040254,令和６年３月２５日大阪市淀川区西中島六丁目１番１号株式会社ＵＹＥＫＩ（9140001040254）に合併し解散,2015-10-05,1,,,,,ウエキ,0
2426,9130002030131,登記記録の閉鎖等,0,2024-04-05,2024-04-02,有限会社明笑,,有限会社,京都府,木津川市,木津奈良道１０５－１,,26,214,6190214,,,2024-04-02,清算の結了等,,,2015-10-05,1,,,,,メイショウ,0
2444,9140005010468,登記記録の閉鎖等,0,2024-04-05,2024-04-02,南但酒販協同組合,,その他の設立登記法人,兵庫県,朝来市,和田山町和田山２８４番地５,,28,225,6695201,,,2024-04-02,清算の結了等,,,2015-10-05,1,,,,,ナンタンシュハン,0
2450,9180001128491,登記記録の閉鎖等,0,2024-04-05,2024-03-28,ＦＩＴ　Ｊａｐａｎ株式会社,,株式会社,愛知県,名古屋市西区,牛島町６番１号名古屋ルーセントタワー４０階,,23,104,4510046,,,2024-03-28,清算の結了等,,,2017-07-14,1,,,,,フィットジャパン,0
2453,9180002087869,登記記録の閉鎖等,0,2024-04-05,2024-03-28,東海エポキシエンジニアリング有限会社,,有限会社,愛知県,東海市,名和町岡前５５番地,,23,222,4760002,,,2024-03-28,清算の結了等,,,2015-10-05,1,,,,,トウカイエポキシエンジニアリング,0
2458,9190001008049,登記記録の閉鎖等,0,2024-04-05,2024-04-01,株式会社出口真珠,,株式会社,三重県,志摩市,阿児町神明５４７番地,,24,215,5170502,,,2024-04-01,清算の結了等,,,2015-10-05,1,,,,,デグチシンジュ,0
2495,9300001012138,登記記録の閉鎖等,0,2024-04-05,2024-04-01,株式会社エフピコ鳥栖,,株式会社,佐賀県,鳥栖市,藤木町字若桜９番地４,,41,203,8410048,,,2024-04-01,合併による解散等,6300001006522,令和６年４月１日佐賀県神埼郡吉野ヶ里町石動１８００番地１株式会社エフピコ九州（6300001006522）に合併し解散,2020-07-30,1,,,,,エフピコトス,0
2525,9430001010533,登記記録の閉鎖等,0,2024-04-05,2024-04-01,株式会社チャップマンコーポレーション,,株式会社,北海道,札幌市西区,西野三条９丁目５番８号,,01,107,0630033,,,2024-04-01,清算の結了等,,,2015-10-05,1,,,,,チャップマンコーポレーション,0
2528,9430001065073,登記記録の閉鎖等,0,2024-04-05,2024-04-01,株式会社ライジング,,株式会社,北海道,札幌市北区,北三十四条西７丁目１番１７号,,01,102,0010034,,,2024-04-01,清算の結了等,,,2015-10-05,1,,,,,ライジング,0
2529,9430001076005,登記記録の閉鎖等,0,2024-04-05,2024-04-01,株式会社プルチーノ,,株式会社,北海道,札幌市清田区,平岡四条３丁目２３番地１５号,,01,110,0040874,,,2024-04-01,合併による解散等,2430001071375,令和６年４月１日札幌市清田区平岡四条三丁目２３番１５号株式会社ドミニオン（2430001071375）に合併し解散,2018-03-02,1,,,,,プルチーノ,0
