sequenceNumber,corporateNumber,process,correct,updateDate,changeDate,name,nameImageId,kind,prefectureName,cityName,streetNumber,addressImageId,prefectureCode,cityCode,postCode,addressOutside,addressOutsideImageId,closeDate,closeCause,successorCorporateNumber,changeCause,assignmentDate,latest,enName,enPrefectureName,enCityName,enAddressOutside,furigana,hihyoji
10,1010001232301,新規,0,2023-01-19,2023-01-19,株式会社松尾興業,,株式会社,東京都,中央区,東日本橋１丁目５番２号ヴェルト日本橋８０１号室,,13,102,1030004,,,,,,,2023-01-19,1,,,,,マツオコウギョウ,0
11,1010001232367,新規,0,2023-01-19,2023-01-19,株式会社ＪＣペイロール,,株式会社,東京都,千代田区,永田町２丁目１１番１号山王パークタワー４階,,13,101,1000014,,,,,,,2023-01-19,1,,,,,ジェイシーペイロール,0
12,1010001232417,新規,0,2023-01-19,2023-01-19,星帯陸株式会社,,株式会社,東京都,中央区,日本橋茅場町３丁目７番１１号,,13,102,1030025,,,,,,,2023-01-19,1,,,,,セイタイロ,0
17,1010003039538,新規,0,2023-01-19,2023-01-19,ａｕｒａ合同会社,,合同会社,東京都,中央区,日本橋３丁目２番１４号新槇町ビル別館第一２階,,13,102,1030027,,,,,,,2023-01-19,1,,,,,オーラ,0
18,1010003039620,新規,0,2023-01-19,2023-01-19,Ｓｔｒａｔｅｇｉｃ　ＤＸ合同会社,,合同会社,東京都,中央区,日本橋２丁目２番３号ＲＩＳＨＥビルＵＣＦ４０２,,13,102,1030027,,,,,,,2023-01-19,1,,,,,ストラテジックディーエックス,0
23,1010005036120,新規,0,2023-01-19,2023-01-19,一般社団法人日本情報発信協会,,その他の設立登記法人,東京都,中央区,銀座１丁目２２番１１号銀座大竹ビジデンス２階,,13,102,1040061,,,,,,,2023-01-19,1,,,,,ニホンジョウホウハッシンキョウカイ,0
24,1010101015498,新規,0,2023-01-19,2023-01-19,Ｓｏｗａｙ株式会社,,株式会社,東京都,八王子市,新町２－５コスモリード１Ｆ,,13,201,1920065,,,,,,,2023-01-19,1,,,,,ソウウェイ,0
29,1010401171974,新規,0,2023-01-19,2023-01-19,株式会社健高ホールディングス,,株式会社,東京都,港区,港南４丁目６番３－３７０３号,,13,103,1080075,,,,,,,2023-01-19,1,,,,,ケンコウホールディングス,0
30,1010401171990,新規,0,2023-01-19,2023-01-19,Ｖｏｙａｇｅｕｒｓ　ｄｕ　Ｍｏｎｄｅ株式会社,,株式会社,東京都,港区,赤坂８丁目４番１４号青山タワープレイス８Ｆ,,13,103,1070052,,,,,,,2023-01-19,1,,,,,ヴォワヤジュールドゥモンド,0
38,1010503006847,新規,0,2023-01-19,2023-01-19,合同会社パラドックス,,合同会社,東京都,台東区,上野３丁目１４－２－５０６,,13,106,1100005,,,,,,,2023-01-19,1,,,,,パラドックス,0
52,1011001151879,新規,0,2023-01-19,2023-01-19,株式会社さぐじ,,株式会社,東京都,渋谷区,道玄坂１丁目１０番８号渋谷道玄坂東急ビル２Ｆ－Ｃ,,13,113,1500043,,,,,,,2023-01-19,1,,,,,サグジ,0
53,1011001151978,新規,0,2023-01-19,2023-01-19,ステーブルギルド株式会社,,株式会社,東京都,渋谷区,道玄坂２丁目１９番６号スクエア渋谷４０７,,13,113,1500043,,,,,,,2023-01-19,1,,,,,ステーブルギルド,0
55,1011003016130,新規,0,2023-01-19,2023-01-19,ＭＳＤ合同会社,,合同会社,東京都,渋谷区,猿楽町７番１号ＫＤＸ代官山レジデンス３１９号,,13,113,1500033,,,,,,,2023-01-19,1,,,,,エムエスディ,0
63,1011101101552,新規,0,2023-01-19,2023-01-19,株式会社Ｇｒｏｕｐ　Ｌｉｖｅ,,株式会社,東京都,新宿区,西早稲田３丁目２０番１２号ＴＳＫビル２Ｆ,,13,104,1690051,,,,,,,2023-01-19,1,,,,,グループライブ,0
64,1011103012608,新規,0,2023-01-19,2023-01-19,六丸堂合同会社,,合同会社,東京都,新宿区,矢来町５１,,13,104,1620805,,,,,,,2023-01-19,1,,,,,ロクマルドウ,0
65,1011201024356,新規,0,2023-01-19,2023-01-19,株式会社ネイビーランド,,株式会社,東京都,中野区,野方２丁目４番３４－３０２号,,13,114,1650027,,,,,,,2023-01-19,1,,,,,ネイビーランド,0
66,1011203003985,新規,0,2023-01-19,2023-01-19,合同会社ＲＴＮパートナー,,合同会社,東京都,中野区,中野５丁目６番６号,,13,114,1640001,,,,,,,2023-01-19,1,,,,,アールティーエヌパートナー,0
70,1011501028874,新規,0,2023-01-19,2023-01-19,宏臣株式会社,,株式会社,東京都,北区,赤羽１丁目３７番１３－３０１号,,13,117,1150045,,,,,,,2023-01-19,1,,,,,コウジン,0
83,1021001077999,新規,0,2023-01-19,2023-01-19,株式会社ｙｕｋｉＴａ,,株式会社,神奈川県,藤沢市,辻堂東海岸１丁目１４番２号,,14,205,2510045,,,,,,,2023-01-19,1,,,,,ユキタ,0
85,1021005012713,新規,0,2023-01-19,2023-01-19,一般社団法人地球環境再生協会,,その他の設立登記法人,神奈川県,相模原市緑区,橋本３丁目９番１７号,,14,151,2520143,,,,,,,2023-01-19,1,,,,,チキュウカンキョウサイセイキョウカイ,0
92,1030001152002,新規,0,2023-01-19,2023-01-19,株式会社エーエス販売,,株式会社,埼玉県,日高市,高萩東１丁目２８番１号,,11,242,3501215,,,,,,,2023-01-19,1,,,,,エーエスハンバイ,0
93,1030001152010,新規,0,2023-01-19,2023-01-19,株式会社ａｒｋ,,株式会社,埼玉県,坂戸市,関間４丁目１５番１８号,,11,239,3500215,,,,,,,2023-01-19,1,,,,,アーク,0
103,1040001126665,新規,0,2023-01-19,2023-01-19,株式会社Ｌｕａｎａ,,株式会社,千葉県,松戸市,新松戸３丁目１番地の１パークハウス新松戸３１１－１００３,,12,207,2700034,,,,,,,2023-01-19,1,,,,,ルアーナ,0
104,1040001126673,新規,0,2023-01-19,2023-01-19,株式会社一建設,,株式会社,千葉県,我孫子市,青山台４丁目１２番５号（２０１号）チェルトンハウス,,12,222,2701175,,,,,,,2023-01-19,1,,,,,ハジメケンセツ,0
105,1040001126715,新規,0,2023-01-19,2023-01-19,株式会社Ｍ,,株式会社,千葉県,習志野市,谷津６丁目６番５号,,12,216,2750026,,,,,,,2023-01-19,1,,,,,エム,0
109,1040003021716,新規,0,2023-01-19,2023-01-19,ＧＡＶＥＥ　ＥＮＴＥＲＰＲＩＳＥＳ合同会社,,合同会社,千葉県,山武市,埴谷字細町２６４３番Ｄ棟,,12,237,2891223,,,,,,,2023-01-19,1,,,,,ガヴィーエンタープライゼス,0
110,1040003021732,新規,0,2023-01-19,2023-01-19,合同会社ネクサス建設工業,,合同会社,千葉県,千葉市稲毛区,山王町３４０番地９,,12,103,2630002,,,,,,,2023-01-19,1,,,,,ネクサスケンセツコウギョウ,0
116,1050001052274,新規,0,2023-01-19,2023-01-19,株式会社アケノシステム,,株式会社,茨城県,筑西市,松原１３６番地,,08,227,3004541,,,,,,,2023-01-19,1,,,,,アケノシステム,0
118,1060001035633,新規,0,2023-01-19,2023-01-19,株式会社小山商事,,株式会社,栃木県,小山市,大字神鳥谷１８６６番地１８,,09,208,3230827,,,,,,,2023-01-19,1,,,,,オヤマショウジ,0
127,1080101023750,新規,0,2023-01-19,2023-01-19,株式会社ＢＡＭＢＯＯ,,株式会社,静岡県,駿東郡清水町,久米田７１番地の１,,22,341,4110911,,,,,,,2023-01-19,1,,,,,バンブー,0
132,1100001036065,新規,0,2023-01-19,2023-01-19,ＤＫプランナー株式会社,,株式会社,長野県,松本市,井川城３丁目７番４２－２号,,20,202,3900831,,,,,,,2023-01-19,1,,,,,ディーケープランナー,0
150,1120001251868,新規,0,2023-01-19,2023-01-19,株式会社ＹＮ,,株式会社,大阪府,大阪市北区,曾根崎新地１丁目１番３１号伊藤ビル３階Ａ号室,,27,127,5300002,,,,,,,2023-01-19,1,,,,,ワイエヌ,0
151,1120001251876,新規,0,2023-01-19,2023-01-19,ジャパンピラティス協会株式会社,,株式会社,大阪府,大阪市中央区,東心斎橋１丁目１３番１１号クイント心斎橋ビル３階,,27,128,5420083,,,,,,,2023-01-19,1,,,,,ジャパンピラティスキョウカイ,0
152,1120001251884,新規,0,2023-01-19,2023-01-19,株式会社ｏｆｆｉｃｅ．Ｎ,,株式会社,大阪府,大阪市平野区,背戸口１丁目２２番１６－３０６号,,27,126,5470034,,,,,,,2023-01-19,1,,,,,オフィスエヌ,0
153,1120001251892,新規,0,2023-01-19,2023-01-19,株式会社ＱＵＡＴＴＲＯ,,株式会社,大阪府,大阪市西区,南堀江３丁目１０番８－１００１号,,27,106,5500015,,,,,,,2023-01-19,1,,,,,クアトロ,0
158,1120003023290,新規,0,2023-01-19,2023-01-19,合同会社ぱんじー,,合同会社,大阪府,大阪市平野区,長吉長原１丁目１番３３号,,27,126,5470016,,,,,,,2023-01-19,1,,,,,パンジー,0
159,1120005023405,新規,0,2023-01-19,2023-01-19,医療法人英愛会,,その他の設立登記法人,大阪府,大阪市中央区,西心斎橋１丁目９番２号心斎橋ＯＰＡきれい館２Ｆ,,27,128,5420086,,,,,,,2023-01-19,1,,,,,エイアイカイ,0
161,1120105009667,新規,0,2023-01-19,2023-01-19,医療法人つながる,,その他の設立登記法人,大阪府,泉南郡熊取町,希望が丘３丁目７番１４号,,27,361,5900422,,,,,,,2023-01-19,1,,,,,ツナガル,0
162,1120903004456,新規,0,2023-01-19,2023-01-19,モナ動物病院合同会社,,合同会社,大阪府,豊中市,庄本町３丁目１番１号,,27,203,5610835,,,,,,,2023-01-19,1,,,,,モナドウブツビョウイン,0
163,1120903004464,新規,0,2023-01-19,2023-01-19,合同会社エゴワークス,,合同会社,大阪府,豊中市,服部元町２丁目７番２５－１０１号,,27,203,5610851,,,,,,,2023-01-19,1,,,,,エゴワークス,0
172,1130001073510,新規,0,2023-01-19,2023-01-19,株式会社ｂｒｉｇｈｔ,,株式会社,京都府,京都市伏見区,竹田七瀬川町６０番地３,,26,109,6128422,,,,,,,2023-01-19,1,,,,,ブライト,0
174,1130003008431,新規,0,2023-01-19,2023-01-19,合同会社ＭＩＯ　ＹＡＭＡＴＯ　ＳＴＵＤＩＯ,,合同会社,京都府,京都市北区,紫野上柏野町１０番地１,,26,101,6038311,,,,,,,2023-01-19,1,,,,,ミオヤマトスタジオ,0
175,1130003008456,新規,0,2023-01-19,2023-01-19,ＶＮ　ＭＡＲＫＥＴ合同会社,,合同会社,京都府,久世郡久御山町,林北畑９２番地１クレス久御山ビル２０３号,,26,322,6130033,,,,,,,2023-01-19,1,,,,,ヴィエンマーケット,0
176,1130003008464,新規,0,2023-01-19,2023-01-19,合同会社ベター世間,,合同会社,京都府,京都市伏見区,石田内里町７１番地１５,,26,109,6011432,,,,,,,2023-01-19,1,,,,,ベターセケン,0
183,1140003018611,新規,0,2023-01-19,2023-01-19,合同会社ＪＥＩＲＩ　ＣＲＥＡＴＩＯＮ,,合同会社,兵庫県,姫路市,神屋町６丁目３５番地エグレット姫路ＩＩＩ３０１号,00129141,28,201,6700836,,,,,,,2023-01-19,1,,,,,ジェリークリエーション,0
202,1190003004202,新規,0,2023-01-19,2023-01-19,合同会社おわせ訪問看護センター,,合同会社,三重県,尾鷲市,大字大曽根浦１４２－３５,,24,209,5193623,,,,,,,2023-01-19,1,,,,,オワセホウモンカンゴセンター,0
203,1200001040882,新規,0,2023-01-19,2023-01-19,株式会社あおぞら,,株式会社,岐阜県,岐阜市,西鶉１丁目２９番地１,,21,201,5008286,,,,,,,2023-01-19,1,,,,,アオゾラ,0
210,1240001060976,新規,0,2023-01-19,2023-01-19,株式会社イッシン,,株式会社,広島県,安芸郡熊野町,呉地３丁目２１番１６号,,34,307,7314222,,,,,,,2023-01-19,1,,,,,イッシン,0
213,1240003005921,新規,0,2023-01-19,2023-01-19,合同会社Ａｗａｋｅｓ,,合同会社,広島県,広島市安佐南区,祇園３丁目４９－１６道正寺住宅２０４号室,,34,105,7310138,,,,,,,2023-01-19,1,,,,,アウェイクス,0
214,1250001019930,新規,0,2023-01-19,2023-01-19,株式会社Ｉｖｏｒｉｓｈ,,株式会社,山口県,下関市,伊倉町１丁目２番３号,,35,201,7510864,,,,,,,2023-01-19,1,,,,,アイボリッシュ,0
216,1270005005537,新規,0,2023-01-19,2023-01-19,一般社団法人リース・アレンジメント,,その他の設立登記法人,鳥取県,米子市,加茂町２丁目１８０番地国際ファミリープラザ７１０号,,31,202,6830823,,,,,,,2023-01-19,1,,,,,リースアレンジメント,0
224,1290003013440,新規,0,2023-01-19,2023-01-19,合同会社ＥＥ　Ｃｏｒｐｏｒａｔｉｏｎ　Ｈｏｌｄｉｎｇｓ,,合同会社,福岡県,福岡市東区,香椎照葉３丁目２番４－１３１５号,,40,131,8130017,,,,,,,2023-01-19,1,,,,,イイコーポレーションホールディングス,0
228,1320001019527,新規,0,2023-01-19,2023-01-19,ＳＭＡＬＬ　ＷＯＲＬＤ　ＣＯＭＰＡＮＹ株式会社,,株式会社,大分県,大分市,田中町１丁目１２番２０号,,44,201,8700852,,,,,,,2023-01-19,1,,,,,スモールワールドカンパニー,0
230,1330003009681,新規,0,2023-01-19,2023-01-19,合同会社宝屋,,合同会社,熊本県,熊本市中央区,大江１丁目２０番１０号,,43,101,8620971,,,,,,,2023-01-19,1,,,,,タカラヤ,0
234,1340003004021,新規,0,2023-01-19,2023-01-19,合同会社ＦｏｒＴｈｅＦｕｔｕｒｅ,,合同会社,鹿児島県,鹿児島市,松原町１０－１２－８０２,,46,201,8920833,,,,,,,2023-01-19,1,,,,,フォーザフューチャー,0
237,1370001049511,新規,0,2023-01-19,2023-01-19,高速興産Ｃ号株式会社,,株式会社,宮城県,仙台市青葉区,立町２３番１１号,,04,101,9800822,,,,,,,2023-01-19,1,,,,,コウソクコウサンシーゴウ,0
253,1430003014671,新規,0,2023-01-19,2023-01-19,合同会社コンパス,,合同会社,北海道,札幌市中央区,大通西１４丁目３番４２ブランシェ西１４　５０２号,,01,101,0600042,,,,,,,2023-01-19,1,,,,,コンパス,0
254,1430005014629,新規,0,2023-01-19,2023-01-19,一般社団法人若者キャリアアドバイス，朝顔,,その他の設立登記法人,北海道,札幌市中央区,宮の森二条１０丁目７番３０号コープ野村宮の森グランデ２０３号,,01,101,0640952,,,,,,,2023-01-19,1,,,,,ワカモノキャリアアドバイスアサガオ,0
267,1500001024723,新規,0,2023-01-19,2023-01-19,株式会社屋根プラス,,株式会社,愛媛県,松山市,和気町２丁目９２３番地,,38,201,7992656,,,,,,,2023-01-19,1,,,,,ヤネプラス,0
278,1700150113827,新規,0,2023-01-19,2023-01-19,千葉曳船協会,,その他,千葉県,千葉市中央区,中央港２丁目４－３,,12,101,2600024,,,,,,,2023-01-19,1,,,,,チバエイセンキョウカイ,0
289,2010003039628,新規,0,2023-01-19,2023-01-19,合同会社ＲＥＮＯＳＹファンド１号,,合同会社,東京都,千代田区,霞が関３丁目２番５号,,13,101,1000013,,,,,,,2023-01-19,1,,,,,リノシーファンドイチゴウ,0
296,2010401171890,新規,0,2023-01-19,2023-01-19,株式会社ＹＯＮＥ　ＭＡＲＩＮ,,株式会社,東京都,港区,六本木４丁目６番３ー３０１号,,13,103,1060032,,,,,,,2023-01-19,1,,,,,ヨネマリン,0
297,2010401171949,新規,0,2023-01-19,2023-01-19,ＧＣＪＧ２９株式会社,,株式会社,東京都,港区,元赤坂１丁目１番８号株式会社赤坂国際会計内,,13,103,1070051,,,,,,,2023-01-19,1,,,,,ジーシージェイジートゥエンティーナイン,0
303,2010601062452,新規,0,2023-01-19,2023-01-19,ポノテク株式会社,,株式会社,東京都,墨田区,本所４丁目１番１１－２０１号,,13,107,1300004,,,,,,,2023-01-19,1,,,,,ポノテク,0
304,2010601062460,新規,0,2023-01-19,2023-01-19,株式会社ＢＬＡＣＫＮＯＶＡ,,株式会社,東京都,江東区,有明１丁目４－１１－６３１,,13,108,1350063,,,,,,,2023-01-19,1,,,,,ブラックノヴァ,0
315,2011001151886,新規,0,2023-01-19,2023-01-19,ｉＴｏｋｙｏ株式会社,,株式会社,東京都,渋谷区,渋谷２丁目１９番１５号宮益坂ビルディング６０９,,13,113,1500002,,,,,,,2023-01-19,1,,,,,アイトウキョウ,0
316,2011001151911,新規,0,2023-01-19,2023-01-19,株式会社ファリ,,株式会社,東京都,渋谷区,松濤１丁目２８番２号,,13,113,1500046,,,,,,,2023-01-19,1,,,,,ファリ,0
317,2011001151944,新規,0,2023-01-19,2023-01-19,株式会社ＮｏＢｅｌｏｎｇｓ,,株式会社,東京都,渋谷区,神宮前６丁目２３番４号桑野ビル２階,,13,113,1500001,,,,,,,2023-01-19,1,,,,,ノービロングス,0
318,2011001152075,新規,0,2023-01-19,2023-01-19,黒石株式会社,,株式会社,東京都,渋谷区,神宮前４丁目１７番１５号大塚マンション３０１,,13,113,1500001,,,,,,,2023-01-19,1,,,,,クロイシ,0
323,2011101101535,新規,0,2023-01-19,2023-01-19,重記株式会社,,株式会社,東京都,新宿区,西早稲田１丁目６番地３号１０１号室,,13,104,1690051,,,,,,,2023-01-19,1,,,,,ジュウキ,0
325,2011301028396,新規,0,2023-01-19,2023-01-19,株式会社メドウズ,,株式会社,東京都,杉並区,阿佐谷南１丁目３２番１４号,,13,115,1660004,,,,,,,2023-01-19,1,,,,,メドウズ,0
327,2011601026513,新規,0,2023-01-19,2023-01-19,誠意株式会社,,株式会社,東京都,練馬区,豊玉北４丁目２２－３－３０１室,,13,120,1760012,,,,,,,2023-01-19,1,,,,,セイイ,0
335,2012703002625,新規,0,2023-01-19,2023-01-19,ラーマ合同会社,,合同会社,東京都,西東京市,保谷町３丁目９番７号柳沢コーポ１０１,,13,229,2020015,,,,,,,2023-01-19,1,,,,,ラーマ,0
348,2020003023102,新規,0,2023-01-19,2023-01-19,合同会社エルエスエスランジェルシステムズ,,合同会社,神奈川県,横浜市鶴見区,元宮２丁目８－７－１０７号,,14,101,2300004,,,,,,,2023-01-19,1,,,,,エルエスエスランジェルシステムズ,0
349,2020003023143,新規,0,2023-01-19,2023-01-19,合同会社ＥＳＴ,,合同会社,神奈川県,横浜市保土ケ谷区,新井町２６０－３,,14,106,2400053,,,,,,,2023-01-19,1,,,,,エスト,0
365,2040001126714,新規,0,2023-01-19,2023-01-19,柏の葉株式会社,,株式会社,千葉県,柏市,若柴１１２番地１グランディヴィラ柏の葉キャンパス２０８号,,12,217,2770871,,,,,,,2023-01-19,1,,,,,カシワノハ,0
370,2040003021715,新規,0,2023-01-19,2023-01-19,合同会社ＳＨＯ,,合同会社,千葉県,千葉市若葉区,殿台町２１８番地シャインヒルズ殿台町ＩＩ１０２号,00129131,12,104,2640036,,,,,,,2023-01-19,1,,,,,ショウ,0
371,2040003021731,新規,0,2023-01-19,2023-01-19,Ｆｒｅｄｄｙ　Ｃａｒｓ　Ｖｅｎｔｕｒｅｓ合同会社,,合同会社,千葉県,野田市,中根２１８番地エステートピアＶみなみ２０３,,12,208,2780031,,,,,,,2023-01-19,1,,,,,フレディーカーズベンチャーズ,0
373,2050001052273,新規,0,2023-01-19,2023-01-19,株式会社ヨシカワ,,株式会社,茨城県,結城郡八千代町,大字松本４６０番地１,,08,521,3003565,,,,,,,2023-01-19,1,,,,,ヨシカワ,0
384,2080103002727,新規,0,2023-01-19,2023-01-19,合同会社オーシャン,,合同会社,静岡県,熱海市,春日町１５番１３号４０３,,22,205,4130005,,,,,,,2023-01-19,1,,,,,オーシャン,0
392,2100003006841,新規,0,2023-01-19,2023-01-19,合同会社リリシス,,合同会社,長野県,諏訪市,高島２丁目１２０１番地６１,,20,206,3920022,,,,,,,2023-01-19,1,,,,,リリシス,0
394,2110001037251,新規,0,2023-01-19,2023-01-19,株式会社ＰＳプロジェクト,,株式会社,新潟県,上越市,大字富岡６５３番地１,,15,222,9430173,,,,,,,2023-01-19,1,,,,,ピーエスプロジェクト,0
404,2120001251867,新規,0,2023-01-19,2023-01-19,株式会社長六,,株式会社,大阪府,大阪市中央区,西心斎橋２丁目４番１３号,,27,128,5420086,,,,,,,2023-01-19,1,,,,,チョウロク,0
405,2120001251875,新規,0,2023-01-19,2023-01-19,Ｃｉｎｅｍａｔｉｃ株式会社,,株式会社,大阪府,枚方市,南中振１丁目１番２８号,,27,210,5730094,,,,,,,2023-01-19,1,,,,,シネマティック,0
406,2120001251883,新規,0,2023-01-19,2023-01-19,株式会社ＨＤ,,株式会社,大阪府,大阪市北区,梅田１丁目１－３大阪駅前第３ビル２９階１－１－１号室,,27,127,5300001,,,,,,,2023-01-19,1,,,,,エイチディー,0
424,2130003008463,新規,0,2023-01-19,2023-01-19,合同会社よつ葉,,合同会社,京都府,城陽市,市辺中垣内１０番地の３,,26,207,6100114,,,,,,,2023-01-19,1,,,,,ヨツバ,0
425,2130003008471,新規,0,2023-01-19,2023-01-19,合同会社リトルトースト,,合同会社,京都府,京都市下京区,朱雀宝蔵町４４番地協栄ビル２階京都朱雀スタジオ,,26,106,6008846,,,,,,,2023-01-19,1,,,,,リトルトースト,0
430,2140001128808,新規,0,2023-01-19,2023-01-19,株式会社エコファシリティ西宮,,株式会社,兵庫県,西宮市,苦楽園一番町７番２１－３０１号,,28,204,6620083,,,,,,,2023-01-19,1,,,,,エコファシリティニシノミヤ,0
433,2140003018610,新規,0,2023-01-19,2023-01-19,合同会社ｓｍａｒｉｏ,,合同会社,兵庫県,三木市,緑が丘町西２丁目７番地の１７,,28,215,6730531,,,,,,,2023-01-19,1,,,,,エスマリオ,0
436,2150001026119,新規,0,2023-01-19,2023-01-19,株式会社奈良段ボール,,株式会社,奈良県,五條市,今井町五丁目１４８４番地１,,29,207,6370004,,,,,,,2023-01-19,1,,,,,ナラダンボール,0
438,2160001024781,新規,0,2023-01-19,2023-01-19,株式会社桐島総建,,株式会社,滋賀県,長浜市,木之本町廣瀬２８８番地２０,,25,203,5290424,,,,,,,2023-01-19,1,,,,,キリシマソウケン,0
446,2180001154420,新規,0,2023-01-19,2023-01-19,株式会社Ｎｏ．Ａ,,株式会社,愛知県,名古屋市東区,東桜１丁目１－１アーバンネット名古屋ネクスタビル２Ｆ、ＬＩＦＯＲＫ、Ｒ０９,,23,102,4610005,,,,,,,2023-01-19,1,,,,,ナンバーエー,0
447,2180001154643,新規,0,2023-01-19,2023-01-19,Ｓ．Ｊ株式会社,,株式会社,愛知県,名古屋市中区,丸の内１丁目９番２７号ＣＯＵＬＥＵＲＳＶＩＬＬＥ５階Ｄ号室,,23,106,4600002,,,,,,,2023-01-19,1,,,,,エスドットジェー,0
454,2180003024737,新規,0,2023-01-19,2023-01-19,合同会社プレシオッソ,,合同会社,愛知県,東海市,加木屋町南鹿持１２番地の１リビオ加木屋南公園（２０１）,,23,222,4770032,,,,,,,2023-01-19,1,,,,,プレシオッソ,0
473,2250001019938,新規,0,2023-01-19,2023-01-19,株式会社京原事務所,,株式会社,山口県,下関市,長府中浜町８－２０,,35,201,7520975,,,,,,,2023-01-19,1,,,,,キョウハラジムショ,0
484,2290803004308,新規,0,2023-01-19,2023-01-19,合同会社大和企画,,合同会社,福岡県,北九州市小倉北区,船頭町３番３号,,40,106,8020008,,,,,,,2023-01-19,1,,,,,ヤマトキカク,0
491,2330001030515,新規,0,2023-01-19,2023-01-19,株式会社森田興業,,株式会社,熊本県,上益城郡御船町,大字木倉７２９５番地,,43,441,8613204,,,,,,,2023-01-19,1,,,,,モリタコウギョウ,0
495,2360001031460,新規,0,2023-01-19,2023-01-19,株式会社Ｔｕｍｕｇｕ,,株式会社,沖縄県,中頭郡北谷町,字桑江３５０番地２１,,47,326,9040103,,,,,,,2023-01-19,1,,,,,ツムグ,0
505,2370001049510,新規,0,2023-01-19,2023-01-19,高速興産Ｂ号株式会社,,株式会社,宮城県,仙台市青葉区,立町２３番１１号,,04,101,9800822,,,,,,,2023-01-19,1,,,,,コウソクコウサンビーゴウ,0
506,2370001049519,新規,0,2023-01-19,2023-01-19,株式会社Ｆｍａｒｋｅｔ,,株式会社,宮城県,仙台市太白区,四郎丸字落合５５番地の１１,,04,104,9811101,,,,,,,2023-01-19,1,,,,,エフマーケット,0
515,2390001017143,新規,0,2023-01-19,2023-01-19,株式会社増子総合塗装,,株式会社,山形県,山形市,大字下東山１０１４番地,,06,201,9902232,,,,,,,2023-01-19,1,,,,,マスコソウゴウトソウ,0
532,2430001088221,新規,0,2023-01-19,2023-01-19,むじゃきな株式会社,,株式会社,北海道,札幌市中央区,南二条西７丁目１番５　２・７ビル２階,,01,101,0600062,,,,,,,2023-01-19,1,,,,,ムジャキナ,0
533,2430003014654,新規,0,2023-01-19,2023-01-19,ＷＯＲＴＨ　ＥＭＰＡＴＨＹ合同会社,,合同会社,北海道,札幌市東区,東苗穂六条１丁目１５番７号,,01,103,0070806,,,,,,,2023-01-19,1,,,,,ワースエンパシー,0
534,2430003014662,新規,0,2023-01-19,2023-01-19,合同会社日野,,合同会社,北海道,札幌市東区,北十条東４丁目１番１２号,,01,103,0650010,,,,,,,2023-01-19,1,,,,,ヒノ,0
542,2470001019429,新規,0,2023-01-19,2023-01-19,株式会社ＨＯＰＥ,,株式会社,香川県,丸亀市,郡家町３５２７番地１ラフレシールＡ１０１号室,,37,202,7630093,,,,,,,2023-01-19,1,,,,,ホープ,0
574,3010001232357,新規,0,2023-01-19,2023-01-19,株式会社ヤマップネイチャランス,,株式会社,東京都,中央区,京橋２丁目５－１,,13,102,1040031,,,,,,,2023-01-19,1,,,,,ヤマップネイチャランス,0
575,3010001232381,新規,0,2023-01-19,2023-01-19,株式会社Ｇｏｏｄ　Ｔｅｃｈｎｏｌｏｇｙ　Ｃｏｍｐａｎｙ,,株式会社,東京都,千代田区,外神田３丁目３番地３秋葉原槇町ビル８Ｆ,,13,101,1010021,,,,,,,2023-01-19,1,,,,,グッドテクノロジーカンパニー,0
578,3010101015496,新規,0,2023-01-19,2023-01-19,株式会社スコープインテグラ,,株式会社,東京都,八王子市,明神町４丁目１番２号２０３号室,,13,201,1920046,,,,,,,2023-01-19,1,,,,,スコープインテグラ,0
594,3010403029293,新規,0,2023-01-19,2023-01-19,プロアカウンティング合同会社,,合同会社,東京都,港区,南青山３丁目１番３６号青山丸竹ビル６Ｆ,,13,103,1070062,,,,,,,2023-01-19,1,,,,,プロアカウンティング,0
604,3011001151885,新規,0,2023-01-19,2023-01-19,ひとつと株式会社,,株式会社,東京都,渋谷区,道玄坂１丁目１０番８号渋谷道玄坂東急ビル２Ｆ－Ｃ,,13,113,1500043,,,,,,,2023-01-19,1,,,,,ヒトツト,0
611,3011101101526,新規,0,2023-01-19,2023-01-19,株式会社ＳＨＯＷＴＩＭＥ,,株式会社,東京都,新宿区,西新宿３丁目３番１３号西新宿水間ビル６階,,13,104,1600023,,,,,,,2023-01-19,1,,,,,ショータイム,0
612,3011101101550,新規,0,2023-01-19,2023-01-19,株式会社ＹＧＤ　ＨＤ,,株式会社,東京都,新宿区,新宿６丁目２７番４５号６階,,13,104,1600022,,,,,,,2023-01-19,1,,,,,ワイジーディーエイチディー,0
613,3011105010525,新規,0,2023-01-19,2023-01-19,一般社団法人森とこころの研究所,,その他の設立登記法人,東京都,新宿区,新宿２丁目４番２号５０１号室,,13,104,1600022,,,,,,,2023-01-19,1,,,,,モリトココロノケンキュウジョ,0
614,3011201024362,新規,0,2023-01-19,2023-01-19,株式会社エスアイオー,,株式会社,東京都,中野区,上鷺宮２丁目２２番１２号,,13,114,1650031,,,,,,,2023-01-19,1,,,,,エスアイオー,0
617,3011501028880,新規,0,2023-01-19,2023-01-19,布瑞吉株式会社,,株式会社,東京都,荒川区,町屋３丁目２４番２号面川ビル２０８号室,,13,118,1160001,,,,,,,2023-01-19,1,,,,,フバキチ,0
618,3011601026512,新規,0,2023-01-19,2023-01-19,Ｄｅｃｏｎｔｒａｃｔｓ株式会社,,株式会社,東京都,練馬区,桜台１丁目７番７号創業館・桜台北口オフィス４階１１号室,,13,120,1760002,,,,,,,2023-01-19,1,,,,,ディコントラクツ,0
625,3012801022094,新規,0,2023-01-19,2023-01-19,株式会社真羅メディカルカンパニー,,株式会社,東京都,国分寺市,日吉町２丁目３３番地２サンソラーレ２０１,,13,214,1850032,,,,,,,2023-01-19,1,,,,,シンラメディカルカンパニー,0
638,3020001149889,新規,0,2023-01-19,2023-01-19,プライム不動産株式会社,,株式会社,神奈川県,川崎市川崎区,堀之内町１番地１６－１階,,14,131,2100003,,,,,,,2023-01-19,1,,,,,プライムフドウサン,0
639,3020001149897,新規,0,2023-01-19,2023-01-19,株式会社多摩川,,株式会社,神奈川県,川崎市麻生区,王禅寺西２丁目４番１号,,14,137,2150017,,,,,,,2023-01-19,1,,,,,,0
661,3040001126688,新規,0,2023-01-19,2023-01-19,ケイヨーロジ株式会社,,株式会社,千葉県,流山市,向小金２丁目５６０番地の１リカスコート１０５,,12,220,2700143,,,,,,,2023-01-19,1,,,,,ケイヨーロジ,0
668,3040003021722,新規,0,2023-01-19,2023-01-19,Ｓｋｙ　ｌｉｎｋ　ｔｒａｄｉｎｇ合同会社,,合同会社,千葉県,山武市,松尾町金尾１２２９番地１１,,12,237,2891505,,,,,,,2023-01-19,1,,,,,スカイリンクトレーディング,0
674,3070001040044,新規,0,2023-01-19,2023-01-19,株式会社ＶＡＭＯＳ,,株式会社,群馬県,高崎市,足門町８２２番地２コーポＨＩＲＯ２０３号,,10,202,3703531,,,,,,,2023-01-19,1,,,,,バモス,0
682,3090001017940,新規,0,2023-01-19,2023-01-19,株式会社ダイキトレーディング,,株式会社,山梨県,甲州市,勝沼町山１７８０番地２,,19,213,4091306,,,,,,,2023-01-19,1,,,,,,0
684,3100001036071,新規,0,2023-01-19,2023-01-19,株式会社ｌｉｖｅｌｙ,,株式会社,長野県,長野市,篠ノ井御幣川８４２番地３,,20,201,3888006,,,,,,,2023-01-19,1,,,,,ライヴリー,0
695,3120001251841,新規,0,2023-01-19,2023-01-19,株式会社Ｄｉｌｌ　Ｃｏｎｓｕｌｔｉｎｇ,,株式会社,大阪府,大阪市浪速区,敷津西２丁目１４番１２号,,27,111,5560015,,,,,,,2023-01-19,1,,,,,ディルコンサルティング,0
696,3120001251858,新規,0,2023-01-19,2023-01-19,Ｍｉｎａｍｉ株式会社,,株式会社,大阪府,大阪市東住吉区,中野４丁目１番１６号中野グリーンハイツ２２棟４１２号室,,27,121,5460012,,,,,,,2023-01-19,1,,,,,ミナミ,0
698,3120003023289,新規,0,2023-01-19,2023-01-19,合同会社ＢＦ・Ｌａｂｏ,,合同会社,大阪府,大阪市東淀川区,西淡路１丁目１－９ビジネス新大阪２階,,27,114,5330031,,,,,,,2023-01-19,1,,,,,ビーエフラボ,0
707,3120103005039,新規,0,2023-01-19,2023-01-19,合同会社アクトワン,,合同会社,大阪府,和泉市,いぶき野４丁目３－３－６０４号室,,27,219,5940041,,,,,,,2023-01-19,1,,,,,アクトワン,0
713,3122001036603,新規,0,2023-01-19,2023-01-19,Ｇｒｏｗｉｎｇ株式会社,,株式会社,大阪府,東大阪市,森河内東１丁目１５番３号,,27,227,5770062,,,,,,,2023-01-19,1,,,,,グローイング,0
717,3130001073483,新規,0,2023-01-19,2023-01-19,株式会社アスレイ,,株式会社,京都府,京都市伏見区,下鳥羽南柳長町７５番地,,26,109,6128490,,,,,,,2023-01-19,1,,,,,アスレイ,0
731,3140005026461,新規,0,2023-01-19,2023-01-19,医療法人ヒカルノ歯科,,その他の設立登記法人,兵庫県,伊丹市,昆陽６丁目１１７番地８,,28,207,6640881,,,,,,,2023-01-19,1,,,,,ヒカルノシカ,0
761,3200005013437,新規,0,2023-01-19,2023-01-19,一般社団法人岐阜医療共済会,,その他の設立登記法人,岐阜県,岐阜市,薮田南３丁目５番１１号,,21,201,5008384,,,,,,,2023-01-19,1,,,,,ギフイリョウキョウサイカイ,0
764,3220001025236,新規,0,2023-01-19,2023-01-19,株式会社橋本,,株式会社,石川県,能美市,大成町ロ３８番地,,17,211,9290113,,,,,,,2023-01-19,1,,,,,ハシモト,0
771,3240001060974,新規,0,2023-01-19,2023-01-19,株式会社ＩＬＩＦＥ,,株式会社,広島県,広島市西区,観音本町１丁目２１番２９号,,34,104,7330033,,,,,,,2023-01-19,1,,,,,アイライフ,0
773,3240005015504,新規,0,2023-01-19,2023-01-19,一般社団法人日本防球ネット施設業協会,,その他の設立登記法人,広島県,広島市中区,舟入南４丁目１番７号,,34,101,7300847,,,,,,,2023-01-19,1,,,,,ニホンボウキュウネットシセツギョウキョウカイ,0
780,3290001100288,新規,0,2023-01-19,2023-01-19,世技トレーディング株式会社,,株式会社,福岡県,福岡市西区,小戸３丁目９－７,,40,135,8190001,,,,,,,2023-01-19,1,,,,,セイギトレーディング,0
781,3290003013439,新規,0,2023-01-19,2023-01-19,レウレカアセット合同会社,,合同会社,福岡県,福岡市博多区,博多駅前１－２３－１ＰａｒｋＦｒｏｎｔ博多駅前一丁目５Ｆ－Ｂ,,40,132,8120000,,,,,,,2023-01-19,1,,,,,レウレカアセット,0
797,3340001025307,新規,0,2023-01-19,2023-01-19,株式会社ＡＸＩＳＳ,,株式会社,鹿児島県,鹿児島市,大黒町３－９チェリーズいづろ２０１,,46,201,8920825,,,,,,,2023-01-19,1,,,,,アクシス,0
805,3390001017142,新規,0,2023-01-19,2023-01-19,鈴木・ファーム株式会社,,株式会社,山形県,長井市,泉４７５番地,,06,209,9930031,,,,,,,2023-01-19,1,,,,,スズキファーム,0
807,3410001013378,新規,0,2023-01-19,2023-01-19,株式会社プライムエステート,,株式会社,秋田県,大仙市,大曲船場町１丁目２番２１号,,05,212,0140057,,,,,,,2023-01-19,1,,,,,プライムエステート,0
810,3430001088253,新規,0,2023-01-19,2023-01-19,株式会社ａｕｓｐｉｃｉｏｕｓ,,株式会社,北海道,札幌市中央区,南一条西１１丁目３２７番２０号５Ｆ,,01,101,0600061,,,,,,,2023-01-19,1,,,,,オースピシャス,0
811,3430001088261,新規,0,2023-01-19,2023-01-19,株式会社石川塗研,,株式会社,北海道,札幌市東区,東苗穂十一条３丁目１番１２号,,01,103,0070811,,,,,,,2023-01-19,1,,,,,イシカワトケン,0
824,3480001011986,新規,0,2023-01-19,2023-01-19,株式会社蔵,,株式会社,徳島県,小松島市,櫛渕町字中田１３１番地,,36,203,7730018,,,,,,,2023-01-19,1,,,,,クラ,0
826,3490001010384,新規,0,2023-01-19,2023-01-19,株式会社ＤＥＲ　ＳＣＨＩＬＤ,,株式会社,高知県,高知市,春野町森山１０９４番地２,,39,201,7810325,,,,,,,2023-01-19,1,,,,,デアシルト,0
845,3500003002956,新規,0,2023-01-19,2023-01-19,合同会社古岩屋,,合同会社,愛媛県,上浮穴郡久万高原町,若山２１番耕地１５８１番地,,38,386,7911710,,,,,,,2023-01-19,1,,,,,フルイワヤ,0
850,3700150113825,新規,0,2023-01-19,2023-01-19,与布土区自治会,,その他,兵庫県,朝来市,山東町与布土８０３番地１,,28,225,6695136,,,,,,,2023-01-19,1,,,,,ヨフドクジチカイ,0
855,4010001232307,新規,0,2023-01-19,2023-01-19,タッチザジャパン株式会社,,株式会社,東京都,千代田区,内幸町１丁目１番１号帝国ホテルタワー１５階,,13,101,1000011,,,,,,,2023-01-19,1,,,,,タッチザジャパン,0
857,4010003039626,新規,0,2023-01-19,2023-01-19,ＩＧＭ合同会社,,合同会社,東京都,文京区,本駒込６丁目２１－２カスタリア本駒込４１０,,13,105,1130021,,,,,,,2023-01-19,1,,,,,アイジーエム,0
858,4010003039634,新規,0,2023-01-19,2023-01-19,ａｃｔｌｉｘ合同会社,,合同会社,東京都,中央区,銀座１丁目１２番４号Ｎ＆ＥＢＬＤ．６Ｆ,,13,102,1040061,,,,,,,2023-01-19,1,,,,,アクトリックス,0
859,4010101015495,新規,0,2023-01-19,2023-01-19,株式会社Ｖラボ‐ミュージカル,,株式会社,東京都,八王子市,四谷町５５９番地５,,13,201,1930813,,,,,,,2023-01-19,1,,,,,ブイラボミュージカル,0
860,4010401005691,新規,0,2023-01-19,2023-01-19,株式会社オーガスト・トウエンテイ,,株式会社,東京都,港区,赤坂６丁目１３番１９号オリエント赤坂３０４,,13,103,1070052,,,,,,,2023-01-19,1,,,,,オーガストトウエンテイ,0
871,4010503006852,新規,0,2023-01-19,2023-01-19,合同会社みや吉,,合同会社,東京都,台東区,北上野２丁目５番３－４０２号,,13,106,1100014,,,,,,,2023-01-19,1,,,,,ミヤキチ,0
872,4010601062450,新規,0,2023-01-19,2023-01-19,株式会社富士創建,,株式会社,東京都,江東区,東砂２丁目１０番１４号,,13,108,1360074,,,,,,,2023-01-19,1,,,,,フジソウケン,0
886,4011001152123,新規,0,2023-01-19,2023-01-19,株式会社Ａｋａｈｉｇｅ　Ｉｎｔｅｒｎａｔｉｏｎａｌ,,株式会社,東京都,渋谷区,道玄坂１丁目１０番５号渋谷プレイス９階,,13,113,1500043,,,,,,,2023-01-19,1,,,,,アカヒゲインターナショナル,0
888,4011101101558,新規,0,2023-01-19,2023-01-19,ＭＢＡ　ａｎｄ　Ｃｏｍｐａｎｙ株式会社,,株式会社,東京都,新宿区,西新宿３丁目３番１３号西新宿水間ビル６階,,13,104,1600023,,,,,,,2023-01-19,1,,,,,エムビーエーアンドカンパニー,0
890,4011103012613,新規,0,2023-01-19,2023-01-19,合同会社ＭＡＺＥ,,合同会社,東京都,新宿区,高田馬場２丁目９番１号天野ビル,,13,104,1690075,,,,,,,2023-01-19,1,,,,,メイズ,0
893,4011201024353,新規,0,2023-01-19,2023-01-19,株式会社オーユー,,株式会社,東京都,中野区,東中野１丁目３０番１１号,,13,114,1640003,,,,,,,2023-01-19,1,,,,,オーユー,0
900,4011601026503,新規,0,2023-01-19,2023-01-19,月読株式会社,,株式会社,東京都,練馬区,練馬１丁目２０番８号日建練馬ビル２Ｆ,,13,120,1760001,,,,,,,2023-01-19,1,,,,,ツクヨミ,0
903,4011703003367,新規,0,2023-01-19,2023-01-19,Ｓｐｅｎｄ　Ｌａｕｇｈｉｎｇ合同会社,,合同会社,東京都,江戸川区,篠崎町２丁目２５番７号ロイヤルメゾン３０３,,13,123,1330061,,,,,,,2023-01-19,1,,,,,スペンドラフィング,0
906,4012303001769,新規,0,2023-01-19,2023-01-19,ＯＮＬＩＩ合同会社,,合同会社,東京都,町田市,広袴２丁目１３番地１０,,13,209,1950056,,,,,,,2023-01-19,1,,,,,オンリー,0
910,4012701017441,新規,0,2023-01-19,2023-01-19,株式会社Ｒｅｌａｔｉｏｎ　Ｓｈｉｐ　Ｍａｎａｇｅｍｅｎｔ,,株式会社,東京都,小平市,上水本町５丁目２１番１－２０６号,,13,211,1870022,,,,,,,2023-01-19,1,,,,,リレーションシップマネージメント,0
914,4013303006460,新規,0,2023-01-19,2023-01-19,合同会社Ｅｑｕａｌ　Ｎｉｎｅ,,合同会社,東京都,豊島区,東池袋１丁目７番７号鳥駒総本店ビル８階,,13,116,1700013,,,,,,,2023-01-19,1,,,,,イコールナイン,0
915,4013303006469,新規,0,2023-01-19,2023-01-19,ＫＴＩ合同会社,,合同会社,東京都,豊島区,東池袋４丁目３０－３－１０１,,13,116,1700013,,,,,,,2023-01-19,1,,,,,ケーティーアイ,0
942,4030003021004,新規,0,2023-01-19,2023-01-19,つききゃんぷレンタル合同会社,,合同会社,埼玉県,春日部市,八丁目１０７番地,,11,214,3440006,,,,,,,2023-01-19,1,,,,,ツキキャンプレンタル,0
952,4040001126712,新規,0,2023-01-19,2023-01-19,株式会社三商,,株式会社,千葉県,八千代市,米本１２２０番地,,12,221,2760015,,,,,,,2023-01-19,1,,,,,サンショウ,0
953,4040001126737,新規,0,2023-01-19,2023-01-19,天台商事株式会社,,株式会社,千葉県,千葉市稲毛区,園生町１０１５番地３３,,12,103,2630051,,,,,,,2023-01-19,1,,,,,テンダイショウジ,0
958,4040003021713,新規,0,2023-01-19,2023-01-19,合同会社久場建材工業,,合同会社,千葉県,君津市,大和田２丁目５番地１,,12,225,2991146,,,,,,,2023-01-19,1,,,,,クバケンザイコウギョウ,0
959,4040003021721,新規,0,2023-01-19,2023-01-19,合同会社Ｒｅａｌｉｓｅｒ,,合同会社,千葉県,我孫子市,東我孫子２丁目７番７号,,12,222,2701144,,,,,,,2023-01-19,1,,,,,レアリゼ,0
970,4060001035614,新規,0,2023-01-19,2023-01-19,高興商事株式会社,,株式会社,栃木県,下野市,柴字向谷９４２番１,,09,216,3290412,,,,,,,2023-01-19,1,,,,,コウコウショウジ,0
975,4070001040043,新規,0,2023-01-19,2023-01-19,株式会社ロン・エンジニアリング,,株式会社,群馬県,太田市,古戸町１１８１番３レジデンスワイズエフＢー１０３,,10,205,3730826,,,,,,,2023-01-19,1,,,,,ロンエンジニアリング,0
980,4080001025415,新規,0,2023-01-19,2023-01-19,株式会社油井工業,,株式会社,静岡県,焼津市,大住９２７番地の６,,22,212,4250072,,,,,,,2023-01-19,1,,,,,ユイコウギョウ,0
985,4080403004702,新規,0,2023-01-19,2023-01-19,ＭＡＫ’Ｓ合同会社,,合同会社,静岡県,浜松市中区,富塚町２２１－１０ソシア向平１０１,,22,131,4328002,,,,,,,2023-01-19,1,,,,,マークス,0
994,4120001251849,新規,0,2023-01-19,2023-01-19,株式会社ＩＸＥＥＤ,,株式会社,大阪府,大阪市東成区,大今里西１丁目２０番２号,,27,115,5370014,,,,,,,2023-01-19,1,,,,,イクシード,0
995,4120001251857,新規,0,2023-01-19,2023-01-19,Ｍｉｒａｍａｒ株式会社,,株式会社,大阪府,大阪市東住吉区,中野４丁目１番１６号中野グリーンハイツ２２棟４０５号室,,27,121,5460012,,,,,,,2023-01-19,1,,,,,ミラマー,0
996,4120001251881,新規,0,2023-01-19,2023-01-19,毅力株式会社,,株式会社,大阪府,大阪市淀川区,西宮原２丁目６番１６号新大阪コーポビアネーズ８１４号,,27,123,5320004,,,,,,,2023-01-19,1,,,,,キリョク,0
1000,4120003023247,新規,0,2023-01-19,2023-01-19,合同会社Ｃｈａｒｍ　Ｌｉｌｙ,,合同会社,大阪府,大阪市浪速区,大国２丁目６番１９号＠ＲＬｉＳ＿ｈｏｕｓｅ大国町９０１号,,27,111,5560014,,,,,,,2023-01-19,1,,,,,シャルムリリー,0
1001,4120003023296,新規,0,2023-01-19,2023-01-19,合同会社和空三井寺,,合同会社,大阪府,大阪市北区,東天満１丁目１１番１３号,,27,127,5300044,,,,,,,2023-01-19,1,,,,,ワクウミイデラ,0
1002,4120005023402,新規,0,2023-01-19,2023-01-19,医療法人徹啓会,,その他の設立登記法人,大阪府,大阪市鶴見区,浜４丁目１２番６号ウッディハウスウエコー１階,,27,124,5380035,,,,,,,2023-01-19,1,,,,,テッケイカイ,0
1004,4120101066858,新規,0,2023-01-19,2023-01-19,長和工業株式会社,,株式会社,大阪府,阪南市,石田１０１８－２,,27,232,5990221,,,,,,,2023-01-19,1,,,,,チョウワコウギョウ,0
1007,4122001036602,新規,0,2023-01-19,2023-01-19,株式会社ＺＩＭ,,株式会社,大阪府,大東市,幸町２３－３６,,27,218,5740028,,,,,,,2023-01-19,1,,,,,ジム,0
1008,4122003002494,新規,0,2023-01-19,2023-01-19,合同会社Ｄｏｌｃｅｒｉａ,,合同会社,大阪府,柏原市,本郷４丁目３番１９号,,27,221,5820001,,,,,,,2023-01-19,1,,,,,ドルチェリア,0
1009,4130001001088,新規,0,2023-01-19,2023-01-19,株式会社誠和ハウジング,,株式会社,京都府,京都市右京区,西京極畑田町８番地の２,,26,108,6150824,,,,,,,2023-01-19,1,,,,,セイワハウジング,0
1026,4140001128806,新規,0,2023-01-19,2023-01-19,株式会社Ｋａｌｅｉｄｏｓｃｏｐｅ,,株式会社,兵庫県,神戸市中央区,伊藤町１１０－２,,28,110,6500032,,,,,,,2023-01-19,1,,,,,カレイドスコープ,0
1028,4140003018567,新規,0,2023-01-19,2023-01-19,合同会社レーザーベネフィット,,合同会社,兵庫県,芦屋市,松ノ内町８ー６,,28,206,6590094,,,,,,,2023-01-19,1,,,,,レーザーベネフィット,0
1029,4140003018609,新規,0,2023-01-19,2023-01-19,合同会社あみてぃ,,合同会社,兵庫県,明石市,大久保町西島１１９３番地の９,,28,203,6740065,,,,,,,2023-01-19,1,,,,,アミティ,0
1031,4150001026075,新規,0,2023-01-19,2023-01-19,株式会社パーキーパット・デザインズ,,株式会社,奈良県,奈良市,小川町１４番地の１,,29,201,6308233,,,,,,,2023-01-19,1,,,,,パーキーパットデザインズ,0
1046,4180001154617,新規,0,2023-01-19,2023-01-19,ＮＯＭＡＤＩＣ株式会社,,株式会社,愛知県,名古屋市港区,船頭場５丁目８２２番地の８,,23,111,4550881,,,,,,,2023-01-19,1,,,,,ノウマディク,0
1052,4180003024735,新規,0,2023-01-19,2023-01-19,Ｉｔｏ　Ｏｆｆｉｃｅ合同会社,,合同会社,愛知県,名古屋市東区,葵１丁目１３番６号Ｃｏｎｄｅ葵一丁目６０３号室,,23,102,4610004,,,,,,,2023-01-19,1,,,,,イトウオフィス,0
1068,4230001019681,新規,0,2023-01-19,2023-01-19,株式会社フカヤマ,,株式会社,富山県,富山市,月岡町２丁目１７６番地,,16,201,9398132,,,,,,,2023-01-19,1,,,,,フカヤマ,0
1072,4240001060973,新規,0,2023-01-19,2023-01-19,ＶＩＣ株式会社,,株式会社,広島県,福山市,沖野上町４丁目８番２３号,,34,207,7200825,,,,,,,2023-01-19,1,,,,,ブイアイシー,0
1075,4240003005984,新規,0,2023-01-19,2023-01-19,宝島合同会社,,合同会社,広島県,東広島市,西条中央６丁目２２番３２号,,34,212,7390025,,,,,,,2023-01-19,1,,,,,タカラジマ,0
1080,4290001100238,新規,0,2023-01-19,2023-01-19,株式会社Ｍｐｌｕｓ,,株式会社,福岡県,福岡市博多区,博多駅前２丁目１９番１７号トーカン博多第５ビル３１２号室,,40,132,8120011,,,,,,,2023-01-19,1,,,,,エムプラス,0
1081,4290001100262,新規,0,2023-01-19,2023-01-19,株式会社Ｍｉｎａｍｉｎ,,株式会社,福岡県,福岡市西区,田尻東１丁目４番１２－２０３号エクレール２０３号,,40,135,8190380,,,,,,,2023-01-19,1,,,,,ミナミン,0
1084,4290003013438,新規,0,2023-01-19,2023-01-19,合同会社Ｉ．ＮＥＴ,,合同会社,福岡県,糸島市,波多江駅北１丁目３番１号,,40,230,8191107,,,,,,,2023-01-19,1,,,,,アイネット,0
1088,4330005010610,新規,0,2023-01-19,2023-01-19,天草市特定地域づくり事業協同組合,,その他の設立登記法人,熊本県,天草市,天草町下田北１３２７番地,,43,215,8632803,,,,,,,2023-01-19,1,,,,,アマクサシトクテイチイキヅクリ,0
1095,4370001049509,新規,0,2023-01-19,2023-01-19,高速興産Ａ号株式会社,,株式会社,宮城県,仙台市青葉区,立町２３番１１号,,04,101,9800822,,,,,,,2023-01-19,1,,,,,コウソクコウサンエーゴウ,0
1102,4430001088260,新規,0,2023-01-19,2023-01-19,株式会社Ｔ‐Ｆｒｉｅｎｄｓ,,株式会社,北海道,札幌市手稲区,前田十条１０丁目６番１４号,,01,109,0060820,,,,,,,2023-01-19,1,,,,,ティーフレンズ,0
1104,4430003014652,新規,0,2023-01-19,2023-01-19,ＣＹＲ　ＭＵＳＩＣ合同会社,,合同会社,北海道,登別市,柏木町２丁目８番地７,,01,230,0590017,,,,,,,2023-01-19,1,,,,,シアミュージック,0
1108,4460105002255,新規,0,2023-01-19,2023-01-19,一般社団法人たいきまちづくりラボ,,その他の設立登記法人,北海道,広尾郡大樹町,二条通１０番地,,01,641,0892142,,,,,,,2023-01-19,1,,,,,タイキマチヅクリラボ,0
1110,4470001019435,新規,0,2023-01-19,2023-01-19,株式会社ファミリーライフカンパニー,,株式会社,香川県,三豊市,高瀬町下勝間８７番地３,,37,208,7670011,,,,,,,2023-01-19,1,,,,,ファミリーライフカンパニー,0
1111,4480003001919,新規,0,2023-01-19,2023-01-19,合同会社エターナルケンネル,,合同会社,徳島県,阿波市,吉野町柿原字原２６１－１,,36,206,7711401,,,,,,,2023-01-19,1,,,,,エターナルケンネル,0
1112,4480005006940,新規,0,2023-01-19,2023-01-19,一般社団法人円卓,,その他の設立登記法人,徳島県,美馬市,脇町字拝原８６０番地１,,36,207,7793601,,,,,,,2023-01-19,1,,,,,エンタク,0
1113,4490003001728,新規,0,2023-01-19,2023-01-19,合同会社なかや設備設計,,合同会社,高知県,高知市,弥生町１０番４１号,,39,201,7810803,,,,,,,2023-01-19,1,,,,,ナカヤセツビセッケイ,0
1122,4500001024729,新規,0,2023-01-19,2023-01-19,株式会社オスカーソリューション,,株式会社,愛媛県,今治市,郷六ヶ内町１丁目３番１５号,,38,202,7940825,,,,,,,2023-01-19,1,,,,,オスカーソリューション,0
1144,5010003039617,新規,0,2023-01-19,2023-01-19,合同会社グレンベルク,,合同会社,東京都,中央区,月島３丁目２０－８－５０７,,13,102,1040052,,,,,,,2023-01-19,1,,,,,グレンベルク,0
1145,5010003039641,新規,0,2023-01-19,2023-01-19,エイチ＆ケー合同会社,,合同会社,東京都,中央区,東日本橋１丁目１－３－６０１,,13,102,1030004,,,,,,,2023-01-19,1,,,,,エイチアンドケー,0
1151,5010401171979,新規,0,2023-01-19,2023-01-19,Ｃｌｅａｎ　Ｔｅｃｈ　Ｊａｐａｎ株式会社,,株式会社,東京都,港区,六本木７丁目７－７，８Ｆ,,13,103,1060032,,,,,,,2023-01-19,1,,,,,クリーンテックジャパン,0
1153,5010403029325,新規,0,2023-01-19,2023-01-19,Ｉｄｅａｌｏｇｉｃａｌ　Ｊａｐａｎ合同会社,,合同会社,東京都,港区,赤坂２丁目５番８号ヒューリックＪＰ赤坂ビル３階,,13,103,1070052,,,,,,,2023-01-19,1,,,,,アイデアロジカルジャパン,0
1154,5010403029333,新規,0,2023-01-19,2023-01-19,合同会社リアライズインベストメントアルファ,,合同会社,東京都,港区,六本木６丁目１０番１号六本木ヒルズ森タワー３４階,,13,103,1060032,,,,,,,2023-01-19,1,,,,,リアライズインベストメントアルファ,0
1165,5010901052365,新規,0,2023-01-19,2023-01-19,株式会社Ｊｅｌｐｅｒ　Ｃｌｕｂ,,株式会社,東京都,世田谷区,桜新町１丁目３９番２２号,,13,112,1540015,,,,,,,2023-01-19,1,,,,,ジェルパークラブ,0
1178,5011001151883,新規,0,2023-01-19,2023-01-19,株式会社Ｌｉｎｋｓ　Ｊａｐａｎ,,株式会社,東京都,目黒区,三田２丁目１番１５号ラコント恵比寿４０１号室,,13,110,1530062,,,,,,,2023-01-19,1,,,,,リンクスジャパン,0
1179,5011001152080,新規,0,2023-01-19,2023-01-19,株式会社Ｒｅｌａｔｅ,,株式会社,東京都,渋谷区,道玄坂１丁目１０番８号渋谷道玄坂東急ビル２Ｆ－Ｃ,,13,113,1500043,,,,,,,2023-01-19,1,,,,,リレイト,0
1180,5011003016093,新規,0,2023-01-19,2023-01-19,合同会社ｎｅｍｎ‐ｄ,,合同会社,東京都,渋谷区,神宮前６丁目２３番４号桑野ビル２階,,13,113,1500001,,,,,,,2023-01-19,1,,,,,ネムンディー,0
1181,5011005009913,新規,0,2023-01-19,2023-01-19,宗教法人東京渋谷福音教会,,その他の設立登記法人,東京都,渋谷区,南平台町６番１７号,,13,113,1500036,,,,,,,2023-01-19,1,,,,,トウキョウシブヤフクインキョウカイ,0
1187,5011101101532,新規,0,2023-01-19,2023-01-19,株式会社未来,,株式会社,東京都,新宿区,百人町１丁目７番１６号,,13,104,1690073,,,,,,,2023-01-19,1,,,,,ミライ,0
1188,5011101101540,新規,0,2023-01-19,2023-01-19,ＴＹＫソリューションズ株式会社,,株式会社,東京都,新宿区,西新宿３丁目３番１３号西新宿水間ビル６階,,13,104,1600023,,,,,,,2023-01-19,1,,,,,ティワイケイソリューションズ,0
1189,5011101101549,新規,0,2023-01-19,2023-01-19,株式会社木次谷都市開発,,株式会社,東京都,新宿区,下宮比町２番２８号飯田橋ハイタウン１１２４,,13,104,1620822,,,,,,,2023-01-19,1,,,,,キジヤトシカイハツ,0
1195,5011501028862,新規,0,2023-01-19,2023-01-19,九九株式会社,,株式会社,東京都,北区,東十条５丁目１６－２０美和ハウス２０１号,,13,117,1140001,,,,,,,2023-01-19,1,,,,,キュウキュウ,0
1196,5011501028879,新規,0,2023-01-19,2023-01-19,年年万物株式会社,,株式会社,東京都,荒川区,東日暮里５丁目１１番３－２０２号船田ビル,,13,118,1160014,,,,,,,2023-01-19,1,,,,,ネンネンマンブツ,0
1197,5011503005439,新規,0,2023-01-19,2023-01-19,ＶＩＮＡ‐グループ合同会社,,合同会社,東京都,荒川区,東日暮里４丁目１９番４号Ｐｉｃｈｅ日暮里４０２,,13,118,1160014,,,,,,,2023-01-19,1,,,,,ヴィナグループ,0
1199,5011703003366,新規,0,2023-01-19,2023-01-19,合同会社ＣｒａｆｔＰｏｗｅｒＡｐｒｉｃｏ,,合同会社,東京都,江戸川区,西瑞江４丁目２７番３６号カーサエム,,13,123,1340015,,,,,,,2023-01-19,1,,,,,クラフトパワーアプリコ,0
1212,5013301050204,新規,0,2023-01-19,2023-01-19,資産承継コンサルティング株式会社,,株式会社,東京都,豊島区,西池袋４丁目２３番５号ネクストワン西池３０７号,,13,116,1710021,,,,,,,2023-01-19,1,,,,,シサンショウケイコンサルティング,0
1232,5020005015821,新規,0,2023-01-19,2023-01-19,一般社団法人ＦＭアカデミー,,その他の設立登記法人,神奈川県,横浜市青葉区,あざみ野２丁目８番地１９,,14,117,2250011,,,,,,,2023-01-19,1,,,,,エフエム,0
1246,5030001152023,新規,0,2023-01-19,2023-01-19,株式会社モビティー,,株式会社,埼玉県,川口市,領家２丁目２番１３号,,11,203,3320004,,,,,,,2023-01-19,1,,,,,モビティー,0
1250,5030003020979,新規,0,2023-01-19,2023-01-19,合同会社レンサポート,,合同会社,埼玉県,草加市,栄町３丁目１２番１５号,,11,221,3400011,,,,,,,2023-01-19,1,,,,,レンサポート,0
1257,5040001126629,新規,0,2023-01-19,2023-01-19,天馬国際株式会社,,株式会社,千葉県,四街道市,もねの里３丁目２４番１４８号,,12,228,2840016,,,,,,,2023-01-19,1,,,,,テンマコクサイ,0
1258,5040001126711,新規,0,2023-01-19,2023-01-19,株式会社Ｙ．Ｎ,,株式会社,千葉県,浦安市,当代島１丁目３番３０号ビックウエストビル２０１,,12,227,2790001,,,,,,,2023-01-19,1,,,,,ワイエヌ,0
1261,5040003021720,新規,0,2023-01-19,2023-01-19,ヨシノモータースジャパン合同会社,,合同会社,千葉県,成田市,磯部５５６番地,,12,211,2860811,,,,,,,2023-01-19,1,,,,,ヨシノモータースジャパン,0
1262,5040003021729,新規,0,2023-01-19,2023-01-19,キキ工務店合同会社,,合同会社,千葉県,柏市,十余二２３０－１６,,12,217,2770872,,,,,,,2023-01-19,1,,,,,キキコウムテン,0
1263,5040005021875,新規,0,2023-01-19,2023-01-19,一般社団法人日本ウェイク検定協会,,その他の設立登記法人,千葉県,市川市,八幡２丁目６番１８－９０１号,,12,203,2720021,,,,,,,2023-01-19,1,,,,,ニホンウェイクケンテイキョウカイ,0
1275,5080101023755,新規,0,2023-01-19,2023-01-19,株式会社盛源,,株式会社,静岡県,御殿場市,新橋６６０番地の５,,22,215,4120043,,,,,,,2023-01-19,1,,,,,モリゲン,0
1280,5100001036061,新規,0,2023-01-19,2023-01-19,株式会社Ｔ．Ｉ．Ｊ,,株式会社,長野県,北佐久郡軽井沢町,大字長倉１５４番地９,,20,321,3890111,,,,,,,2023-01-19,1,,,,,ティーアイジェイ,0
1283,5110003004965,新規,0,2023-01-19,2023-01-19,レーヴ合同会社,,合同会社,新潟県,長岡市,福山町１０２３番地,,15,202,9402122,,,,,,,2023-01-19,1,,,,,レーヴ,0
1291,5120001251856,新規,0,2023-01-19,2023-01-19,西尼日本株式会社,,株式会社,大阪府,大阪市北区,西天満５丁目１５番９号アバンセ西天満ビル３０１号室,,27,127,5300047,,,,,,,2023-01-19,1,,,,,シーニーニホン,0
1292,5120001251872,新規,0,2023-01-19,2023-01-19,株式会社燦愛,,株式会社,大阪府,大阪市天王寺区,四天王寺１丁目１４番２５－３０３号,,27,109,5430051,,,,,,,2023-01-19,1,,,,,サンアイ,0
1298,5120901047024,新規,0,2023-01-19,2023-01-19,株式会社オフィスＵＫ,,株式会社,大阪府,吹田市,春日２丁目１４番４号,,27,205,5650853,,,,,,,2023-01-19,1,,,,,オフィスユーケイ,0
1300,5120905006406,新規,0,2023-01-19,2023-01-19,医療法人片岡歯科紺屋町診療所,,その他の設立登記法人,大阪府,高槻市,紺屋町６番１９号片岡ビル３階,,27,207,5690804,,,,,,,2023-01-19,1,,,,,カタオカシカコンヤマチシンリョウショ,0
1303,5130001073473,新規,0,2023-01-19,2023-01-19,株式会社ｅｍｍａ　ｃｏｎｓｕｌｔｉｎｇ,,株式会社,京都府,向日市,寺戸町中垣内１９番地１,,26,208,6170002,,,,,,,2023-01-19,1,,,,,エマコンサルティング,0
1304,5130001073498,新規,0,2023-01-19,2023-01-19,雲楽株式会社,,株式会社,京都府,京都市右京区,嵯峨釈迦堂門前裏柳町１５番地２１,,26,108,6168423,,,,,,,2023-01-19,1,,,,,ウンラク,0
1305,5130001073515,新規,0,2023-01-19,2023-01-19,株式会社なりはひ,,株式会社,京都府,南丹市,八木町青戸黒塚１２７,,26,213,6290122,,,,,,,2023-01-19,1,,,,,ナリワイ,0
1320,5160005011154,新規,0,2023-01-19,2023-01-19,一般社団法人近江鉄道線管理機構,,その他の設立登記法人,滋賀県,彦根市,古沢町１８７番地２,,25,202,5220007,,,,,,,2023-01-19,1,,,,,オウミテツドウセンカンリキコウ,0
1335,5200001040879,新規,0,2023-01-19,2023-01-19,株式会社タイヤサービス共栄,,株式会社,岐阜県,美濃加茂市,深田町３丁目３８番地３,,21,211,5050043,,,,,,,2023-01-19,1,,,,,タイヤサービスキョウエイ,0
1353,5240001060972,新規,0,2023-01-19,2023-01-19,株式会社Ｋｕｗａｎａ,,株式会社,広島県,安芸高田市,高宮町川根２５,,34,214,7391801,,,,,,,2023-01-19,1,,,,,クワナ,0
1355,5240003005983,新規,0,2023-01-19,2023-01-19,吉光合同会社,,合同会社,広島県,広島市安佐南区,祇園６丁目１８番２５号,,34,105,7310138,,,,,,,2023-01-19,1,,,,,ヨシミツ,0
1357,5250001019935,新規,0,2023-01-19,2023-01-19,株式会社すぷらうと,,株式会社,山口県,下関市,大字豊浦町宇賀６１５９番地,,35,201,,,,,,,,2023-01-19,1,,,,,スプラウト,0
1367,5270001008713,新規,0,2023-01-19,2023-01-19,株式会社天神,,株式会社,鳥取県,鳥取市,商栄町１１０番地４テナント千代水Ｃ号室,,31,201,6800912,,,,,,,2023-01-19,1,,,,,テンジン,0
1369,5290001100286,新規,0,2023-01-19,2023-01-19,株式会社フォレストツリー,,株式会社,福岡県,福岡市東区,舞松原６丁目４番７号,,40,131,8130042,,,,,,,2023-01-19,1,,,,,フォレストツリー,0
1372,5290003013437,新規,0,2023-01-19,2023-01-19,合同会社結び,,合同会社,福岡県,小郡市,希みが丘５丁目１番地２０,,40,216,8380107,,,,,,,2023-01-19,1,,,,,ムスビ,0
1376,5320003003995,新規,0,2023-01-19,2023-01-19,合同会社ＲＥＮＡＣＩＤＯ,,合同会社,大分県,佐伯市,鶴見大字有明浦１３８４番地,,44,205,8761204,,,,,,,2023-01-19,1,,,,,レナシード,0
1377,5330001030512,新規,0,2023-01-19,2023-01-19,株式会社パワーバンクネクスト,,株式会社,熊本県,熊本市北区,植木町亀甲２１９番地１,,43,105,8610127,,,,,,,2023-01-19,1,,,,,パワーバンクネクスト,0
1381,5340001025305,新規,0,2023-01-19,2023-01-19,ニース＆Ｆ株式会社,,株式会社,鹿児島県,鹿児島市,紫原５丁目１４番１６号,,46,201,8900082,,,,,,,2023-01-19,1,,,,,ニースアンドエフ,0
1390,5370003005954,新規,0,2023-01-19,2023-01-19,合同会社Ｌｉｍｉｔ　Ｊａｐａｎ,,合同会社,宮城県,仙台市若林区,日辺字畑田１７６－１,,04,103,9840837,,,,,,,2023-01-19,1,,,,,リミットジャパン,0
1391,5370005010589,新規,0,2023-01-19,2023-01-19,ＥＳＧ経営サポート社会保険労務士法人,,その他の設立登記法人,宮城県,仙台市太白区,向山４丁目１４番１８号,,04,104,9820841,,,,,,,2023-01-19,1,,,,,イーエスジーケイエイサポート,0
1395,5390001017140,新規,0,2023-01-19,2023-01-19,しんとみカーレンタル株式会社,,株式会社,山形県,米沢市,窪田町窪田１８１５番地,,06,202,9920003,,,,,,,2023-01-19,1,,,,,シントミカーレンタル,0
1397,5420005007836,新規,0,2023-01-19,2023-01-19,医療法人内科種市病院,,その他の設立登記法人,青森県,八戸市,大字是川字土間沢１番地,,02,203,0310023,,,,,,,2023-01-19,1,,,,,ナイカタネイチビョウイン,0
1404,5430001088251,新規,0,2023-01-19,2023-01-19,リクロジャパン株式会社,,株式会社,北海道,札幌市手稲区,手稲本町二条５丁目１１番２２‐１号,,01,109,0060022,,,,,,,2023-01-19,1,,,,,リクロジャパン,0
1408,5430003014668,新規,0,2023-01-19,2023-01-19,アップロード合同会社,,合同会社,北海道,札幌市北区,あいの里三条８丁目１－１６,,01,102,0028073,,,,,,,2023-01-19,1,,,,,アップロード,0
1412,5460001005765,新規,0,2023-01-19,2023-01-19,株式会社弟子屈ホテルマネジメント,,株式会社,北海道,川上郡弟子屈町,川湯温泉２丁目７番１号,,01,665,0883465,,,,,,,2023-01-19,1,,,,,テシカガホテルマネジメント,0
1415,5470001019434,新規,0,2023-01-19,2023-01-19,株式会社永旭,,株式会社,香川県,観音寺市,有明町１０番２２号,,37,205,7680062,,,,,,,2023-01-19,1,,,,,エイコウ,0
1425,5500001024728,新規,0,2023-01-19,2023-01-19,株式会社ＫＲ,,株式会社,愛媛県,松山市,梅田町１番２０号,,38,201,7918051,,,,,,,2023-01-19,1,,,,,ケイアール,0
1433,5700150113831,新規,0,2023-01-19,2023-01-19,愛媛県異業種交流研究会,,その他,愛媛県,今治市,富田新港１丁目３番地日本食研ホールディングス（株）内,,38,202,7991503,,,,,,,2023-01-19,1,,,,,エヒメケンイギョウシュコウリュウケンキュウカイ,0
1449,6010001232354,新規,0,2023-01-19,2023-01-19,株式会社テクノダ,,株式会社,東京都,文京区,後楽２丁目３番８号第六松屋ビル２０２号室,,13,105,1120004,,,,,,,2023-01-19,1,,,,,,0
1451,6010003039624,新規,0,2023-01-19,2023-01-19,合同会社サポート４６号,,合同会社,東京都,千代田区,丸の内３丁目１番１号東京共同会計事務所内,,13,101,1000005,,,,,,,2023-01-19,1,,,,,サポートヨンジュウロクゴウ,0
1452,6010003039632,新規,0,2023-01-19,2023-01-19,ＥｎｋＳ合同会社,,合同会社,東京都,千代田区,神田和泉町一丁目６番１６号ヤマトビル４０５,,13,101,1010024,,,,,,,2023-01-19,1,,,,,エンクス,0
1453,6010005036140,新規,0,2023-01-19,2023-01-19,一般社団法人ＶＥＲＥＤａ,,その他の設立登記法人,東京都,中央区,八丁堀４丁目２番１０号ＡＯＪ税理士法人内,,13,102,1040032,,,,,,,2023-01-19,1,,,,,ヴェレッドエー,0
1461,6010401171961,新規,0,2023-01-19,2023-01-19,株式会社ＲＰＧプランニング,,株式会社,東京都,港区,赤坂６丁目６番１９号メゾンドヴィレ赤坂６０４,,13,103,1070052,,,,,,,2023-01-19,1,,,,,アールピージープランニング,0
1463,6010405021717,新規,0,2023-01-19,2023-01-19,浜松町ホールディング２一般社団法人,,その他の設立登記法人,東京都,港区,虎ノ門３丁目２２番１０－２０１号,,13,103,1050001,,,,,,,2023-01-19,1,,,,,ハママツチョウホールディングツー,0
1467,6010501049884,新規,0,2023-01-19,2023-01-19,ドーン株式会社,,株式会社,東京都,台東区,寿４丁目１６番７号,,13,106,1110042,,,,,,,2023-01-19,1,,,,,ドーン,0
1469,6010601062440,新規,0,2023-01-19,2023-01-19,株式会社スタディ,,株式会社,東京都,墨田区,石原４丁目２５番１５号,,13,107,1300011,,,,,,,2023-01-19,1,,,,,スタディ,0
1470,6010601062457,新規,0,2023-01-19,2023-01-19,株式会社キョーセント,,株式会社,東京都,江東区,東砂４丁目１８－７,,13,108,1360074,,,,,,,2023-01-19,1,,,,,キョーセント,0
1471,6010603009951,新規,0,2023-01-19,2023-01-19,ＳｉｎｃｅｒｅＣｏｎｓｕｌｔｉｎｇ合同会社,,合同会社,東京都,江東区,大島８丁目９番５号メイト大島ＩＩ－３０１,00129132,13,108,1360072,,,,,,,2023-01-19,1,,,,,シンシアコンサルティング,0
1475,6010701043745,新規,0,2023-01-19,2023-01-19,株式会社ヴェリタスラボ,,株式会社,東京都,品川区,大井１丁目３１番１－２４１６号,,13,109,1400014,,,,,,,2023-01-19,1,,,,,ヴェリタスラボ,0
1479,6010803004430,新規,0,2023-01-19,2023-01-19,合同会社平生,,合同会社,東京都,大田区,千鳥３丁目１６番７－５１２号,,13,111,1460083,,,,,,,2023-01-19,1,,,,,ヘイゼイ,0
1483,6010901052298,新規,0,2023-01-19,2023-01-19,株式会社ｓｈｉｋａｋｅｒｕ,,株式会社,東京都,世田谷区,成城６丁目１３‐１成城ハウス３０２,,13,112,1570066,,,,,,,2023-01-19,1,,,,,,0
1484,6010903007911,新規,0,2023-01-19,2023-01-19,合同会社べごま,,合同会社,東京都,世田谷区,新町３丁目１３－４,,13,112,1540014,,,,,,,2023-01-19,1,,,,,ベゴマ,0
1493,6011001151833,新規,0,2023-01-19,2023-01-19,ＣｉｎＣｉｎ　Ｂｒｅｗｅｒｙ株式会社,,株式会社,東京都,渋谷区,代々木５丁目３８番６号ガーリックビル代々木公園,,13,113,1510053,,,,,,,2023-01-19,1,,,,,チンチンブルワリー,0
1494,6011001151949,新規,0,2023-01-19,2023-01-19,株式会社ＫＥＥＤ,,株式会社,東京都,目黒区,東が丘２丁目１－１１ＧｒａｎＤｕｏ駒沢１０－１０６,,13,110,1520021,,,,,,,2023-01-19,1,,,,,キード,0
1495,6011001151981,新規,0,2023-01-19,2023-01-19,株式会社Ｍｉｃｈｅｌｅ,,株式会社,東京都,渋谷区,広尾３丁目１－２インペリアル常盤松１０１号,,13,113,1500012,,,,,,,2023-01-19,1,,,,,ミケーレ,0
1496,6011003016068,新規,0,2023-01-19,2023-01-19,合同会社ｍｅｒｇｒｉｓ,,合同会社,東京都,渋谷区,渋谷２丁目１９－１５宮益坂ビルディング６０９,,13,113,1500002,,,,,,,2023-01-19,1,,,,,メルグリ,0
1501,6011101101548,新規,0,2023-01-19,2023-01-19,株式会社Ｇｉｆｔｓ,,株式会社,東京都,新宿区,若松町８番８－３０６号,,13,104,1620056,,,,,,,2023-01-19,1,,,,,ギフツ,0
1502,6011101101556,新規,0,2023-01-19,2023-01-19,ＦｒｅｅＲｏｏｍ株式会社,,株式会社,東京都,新宿区,新宿５丁目１８番２０号ルックハイツ新宿８０３号,,13,104,1600022,,,,,,,2023-01-19,1,,,,,フリールーム,0
1503,6011103012611,新規,0,2023-01-19,2023-01-19,ＡＭＲ３号合同会社,,合同会社,東京都,新宿区,四谷４丁目３２番８号ＹＫＢサニービル６階,,13,104,1600004,,,,,,,2023-01-19,1,,,,,エーエムアールサンゴウ,0
1506,6011203003989,新規,0,2023-01-19,2023-01-19,豚善富恵合同会社,,合同会社,東京都,中野区,江古田４丁目１７－９スペーシア江古田１０２,,13,114,1650022,,,,,,,2023-01-19,1,,,,,トヨトミ,0
1511,6011501028878,新規,0,2023-01-19,2023-01-19,七彩農園株式会社,,株式会社,東京都,北区,浮間１丁目１番１４号リムジンビル２１０,,13,117,1150051,,,,,,,2023-01-19,1,,,,,シチサイノウエン,0
1515,6011801041820,新規,0,2023-01-19,2023-01-19,株式会社水元園芸管理,,株式会社,東京都,葛飾区,南水元２丁目７番１６号,,13,122,1250035,,,,,,,2023-01-19,1,,,,,ミズモトエンゲイカンリ,0
1517,6012303001775,新規,0,2023-01-19,2023-01-19,恵森合同会社,,合同会社,東京都,町田市,根岸２丁目３１番地９アイリス木曽１０２,,13,209,1940038,,,,,,,2023-01-19,1,,,,,ケイリン,0
1520,6012703002621,新規,0,2023-01-19,2023-01-19,一村合同会社,,合同会社,東京都,小平市,学園西町２丁目１２番１３号フリーダム一橋学園１０５号室,,13,211,1870045,,,,,,,2023-01-19,1,,,,,イチムラ,0
1521,6012801022083,新規,0,2023-01-19,2023-01-19,からんこえ株式会社,,株式会社,東京都,東大和市,蔵敷２丁目３５３番地の１０,,13,220,2070032,,,,,,,2023-01-19,1,,,,,カランコエ,0
1522,6012801022091,新規,0,2023-01-19,2023-01-19,株式会社ＥＮ,,株式会社,東京都,立川市,柏町４丁目６３番２号遠山柏町ビル２階,,13,202,1900004,,,,,,,2023-01-19,1,,,,,エン,0
1541,6020003023040,新規,0,2023-01-19,2023-01-19,ＴＹＣ合同会社,,合同会社,神奈川県,横浜市中区,山手町２２５番地１２－３０６,,14,104,2310862,,,,,,,2023-01-19,1,,,,,ティーワイシー,0
1547,6021003012636,新規,0,2023-01-19,2023-01-19,合同会社プロジェクトＫ,,合同会社,神奈川県,鎌倉市,西鎌倉３丁目３番１２号,,14,204,2480035,,,,,,,2023-01-19,1,,,,,プロジェクトケイ,0
1559,6040001126702,新規,0,2023-01-19,2023-01-19,株式会社ネクシード,,株式会社,千葉県,柏市,若柴２７６－１中央１７９街区１リビオ柏の葉キャンパス３０８,,12,217,2770871,,,,,,,2023-01-19,1,,,,,ネクシード,0
1560,6040001126710,新規,0,2023-01-19,2023-01-19,株式会社７８,,株式会社,千葉県,松戸市,大橋３２２－２,,12,207,2702224,,,,,,,2023-01-19,1,,,,,ナナハチ,0
1561,6040001126727,新規,0,2023-01-19,2023-01-19,株式会社ＡＭ,,株式会社,千葉県,山武市,白幡２２９５番地７２,,12,237,2891306,,,,,,,2023-01-19,1,,,,,アム,0
1566,6040003021711,新規,0,2023-01-19,2023-01-19,合同会社エフピーシー,,合同会社,千葉県,松戸市,日暮５丁目１８９ジュネパレス松戸第２２－２０１号室,,12,207,2702253,,,,,,,2023-01-19,1,,,,,エフピーシー,0
1567,6040003021736,新規,0,2023-01-19,2023-01-19,合同会社Ｂａｌｌｏｎ,,合同会社,千葉県,市川市,妙典５丁目１３番３３号Ａ＆Ｙビル３Ｆ,,12,203,2720111,,,,,,,2023-01-19,1,,,,,バロン,0
1572,6050001052212,新規,0,2023-01-19,2023-01-19,株式会社レクシー,,株式会社,茨城県,取手市,小堀３９５５番地９,,08,217,3020003,,,,,,,2023-01-19,1,,,,,レクシー,0
1578,6070001040041,新規,0,2023-01-19,2023-01-19,株式会社正心投資,,株式会社,群馬県,高崎市,高砂町１３７－１,,10,202,3700047,,,,,,,2023-01-19,1,,,,,セイシントウシ,0
1588,6100001036069,新規,0,2023-01-19,2023-01-19,株式会社ジェースリー,,株式会社,長野県,松本市,出川１丁目２番８号,,20,202,3900827,,,,,,,2023-01-19,1,,,,,ジェースリー,0
1596,6110003004964,新規,0,2023-01-19,2023-01-19,合同会社エクラシオ,,合同会社,新潟県,新潟市東区,海老ケ瀬新町３番２７号,,15,102,9500808,,,,,,,2023-01-19,1,,,,,エクラシオ,0
1605,6120001251855,新規,0,2023-01-19,2023-01-19,ＫＩＫＯ静宸株式会社,,株式会社,大阪府,大阪市中央区,島之内１丁目１６番３－７０３号,,27,128,5420082,,,,,,,2023-01-19,1,,,,,キコセイシン,0
1606,6120001251888,新規,0,2023-01-19,2023-01-19,ＡＬＴＵＲＡ　Ｘ株式会社,,株式会社,大阪府,大阪市福島区,福島７丁目２０－１ＫＭ西梅田ビル２Ｆ,,27,103,5530003,,,,,,,2023-01-19,1,,,,,アルトゥーラクロス,0
1612,6120003023286,新規,0,2023-01-19,2023-01-19,合同会社トータルリンク,,合同会社,大阪府,大阪市北区,西天満３丁目６番２２号日宝北大阪屋ビル４Ｆ１号,,27,127,5300047,,,,,,,2023-01-19,1,,,,,トータルリンク,0
1613,6120003023294,新規,0,2023-01-19,2023-01-19,ステイプル合同会社,,合同会社,大阪府,大阪市旭区,新森７丁目１６番２３号,,27,117,5350022,,,,,,,2023-01-19,1,,,,,ステイプル,0
1619,6120901046990,新規,0,2023-01-19,2023-01-19,株式会社今村仙樹園,,株式会社,大阪府,豊能郡能勢町,山辺５７８番地の７,,27,322,5630372,,,,,,,2023-01-19,1,,,,,イマムラセンジュエン,0
1621,6122001036609,新規,0,2023-01-19,2023-01-19,株式会社アイテック,,株式会社,大阪府,東大阪市,衣摺５丁目４番２３号,,27,227,5770827,,,,,,,2023-01-19,1,,,,,アイテック,0
1630,6130003008468,新規,0,2023-01-19,2023-01-19,ＹＤＩ合同会社,,合同会社,京都府,京都市右京区,嵯峨新宮町２番地３９第３４長栄ヴィラ大成さが３０２号室,,26,108,6168355,,,,,,,2023-01-19,1,,,,,ワイディーアイ,0
1643,6140001128795,新規,0,2023-01-19,2023-01-19,博陽貿易株式会社,,株式会社,兵庫県,神戸市中央区,宮本通２丁目１－３０宮本マンション５０１,,28,110,6510063,,,,,,,2023-01-19,1,,,,,ハクヨウボウエキ,0
1646,6150001026098,新規,0,2023-01-19,2023-01-19,株式会社Ｔｒｉａｎｇｕｌｏ,,株式会社,奈良県,北葛城郡広陵町,大字笠２７４番地５,,29,426,6350821,,,,,,,2023-01-19,1,,,,,トライアングロ,0
1648,6160001024786,新規,0,2023-01-19,2023-01-19,新東メンテック株式会社,,株式会社,滋賀県,栗東市,川辺２０５番地５,,25,208,5203014,,,,,,,2023-01-19,1,,,,,シントウメンテック,0
1666,6200001040886,新規,0,2023-01-19,2023-01-19,株式会社ライフ,,株式会社,岐阜県,岐阜市,蔵前６丁目１０番１２－２号,,21,201,5008233,,,,,,,2023-01-19,1,,,,,ライフ,0
1678,6270003001475,新規,0,2023-01-19,2023-01-19,合同会社福祥,,合同会社,鳥取県,西伯郡大山町,下甲１０２８番地７,,31,386,6893112,,,,,,,2023-01-19,1,,,,,フクショウ,0
1683,6290001100178,新規,0,2023-01-19,2023-01-19,株式会社三太,,株式会社,福岡県,福岡市中央区,渡辺通２丁目３番３４号,,40,133,8100004,,,,,,,2023-01-19,1,,,,,サンタ,0
1684,6290001100211,新規,0,2023-01-19,2023-01-19,株式会社Ｎ．Ｄ．Ｍ．設計室,,株式会社,福岡県,糸島市,南風台５丁目１番５号,,40,230,8191137,,,,,,,2023-01-19,1,,,,,エヌディエムセッケイシツ,0
1685,6290001100285,新規,0,2023-01-19,2023-01-19,コムクラウド株式会社,,株式会社,福岡県,福岡市中央区,天神２丁目３番１０号天神パインクレスト７１９号,,40,133,8100001,,,,,,,2023-01-19,1,,,,,コムクラウド,0
1688,6320001019530,新規,0,2023-01-19,2023-01-19,ユニグリーン株式会社,,株式会社,大分県,由布市,庄内町渕１１４１番地,,44,213,8795425,,,,,,,2023-01-19,1,,,,,ユニグリーン,0
1693,6350003004271,新規,0,2023-01-19,2023-01-19,ＦＩＶＥ‐Ｏ合同会社,,合同会社,宮崎県,宮崎市,大字郡司分甲１６２２番地１,,45,201,8800924,,,,,,,2023-01-19,1,,,,,ファイブオー,0
1707,6420005007835,新規,0,2023-01-19,2023-01-19,弘前醸造農事組合法人,,その他の設立登記法人,青森県,弘前市,大字外崎５丁目１１番地５,,02,202,0368094,,,,,,,2023-01-19,1,,,,,ヒロサキジョウゾウ,0
1712,6430003014667,新規,0,2023-01-19,2023-01-19,金太郎ＳｕｎＰｏｗｅｒ合同会社,,合同会社,北海道,小樽市,忍路１丁目４０６番地,,01,203,0482561,,,,,,,2023-01-19,1,,,,,キンタロウサンパワー,0
1722,6470005006485,新規,0,2023-01-19,2023-01-19,一般社団法人ジオカレッジ,,その他の設立登記法人,香川県,東かがわ市,西山４５４番地１,,37,207,7692712,,,,,,,2023-01-19,1,,,,,ジオカレッジ,0
1729,6500001024727,新規,0,2023-01-19,2023-01-19,株式会社ＡＺＵ,,株式会社,愛媛県,松山市,紅葉町４番１７号紅葉町二宮ビル１階,,38,201,7900861,,,,,,,2023-01-19,1,,,,,エーゼットユー,0
1748,6700150113376,新規,0,2023-01-19,2023-01-19,広州市星河長明科技有限公司,,外国会社等,,,,,,,,中国広州市南砂区豊澤東路１０６号（自編１号楼）Ｘ１３０１－Ｇ０２５６０３,,,,,,2023-01-19,1,,,,,コウシュウシセイカチョウメイカギユウゲンコウシ,0
1749,6700150113830,新規,0,2023-01-19,2023-01-19,愛媛県食品産業協議会,,その他,愛媛県,今治市,富田新港１丁目３番地日本食研ホールディングス（株）内,,38,202,7991503,,,,,,,2023-01-19,1,,,,,エヒメケンショクヒンサンギョウキョウギカイ,0
1752,7010001232262,新規,0,2023-01-19,2023-01-19,株式会社和信堂,,株式会社,東京都,千代田区,内神田１丁目１８番１１－７１５号,,13,101,1010047,,,,,,,2023-01-19,1,,,,,ワシンドウ,0
1753,7010001232345,新規,0,2023-01-19,2023-01-19,株式会社エターナルプランニング,,株式会社,東京都,中央区,日本橋兜町五丁目１番地兜町第一平和ビル３階,,13,102,1030026,,,,,,,2023-01-19,1,,,,,エターナルプランニング,0
1754,7010003039615,新規,0,2023-01-19,2023-01-19,ＶＥＲＥＤａ合同会社,,合同会社,東京都,中央区,八丁堀４丁目２番１０号ＡＯＪ税理士法人内,,13,102,1040032,,,,,,,2023-01-19,1,,,,,ヴェレッドエー,0
1762,7010401171969,新規,0,2023-01-19,2023-01-19,株式会社ＭＡＧＳＵＳ,,株式会社,東京都,港区,西麻布４丁目７－１０麻布笄町Ａハウス２Ｆ,,13,103,1060031,,,,,,,2023-01-19,1,,,,,マグサス,0
1765,7010403029315,新規,0,2023-01-19,2023-01-19,イベントスタッフＪＡＤＥ合同会社,,合同会社,東京都,港区,南青山２丁目２－１５ｗｉｎ青山ビル,,13,103,1070062,,,,,,,2023-01-19,1,,,,,イベントスタッフジェイド,0
1769,7010603009950,新規,0,2023-01-19,2023-01-19,合同会社二三,,合同会社,東京都,墨田区,横川５丁目２－１２ＣＨＥＲＲＹＰＡＬＡＣＥ１０１,,13,107,1300003,,,,,,,2023-01-19,1,,,,,ニーサン,0
1785,7011001151915,新規,0,2023-01-19,2023-01-19,株式会社トゥエンティトゥ,,株式会社,東京都,渋谷区,道玄坂１丁目１０番８号渋谷道玄坂東急ビル２Ｆ－Ｃ,,13,113,1500043,,,,,,,2023-01-19,1,,,,,トゥエンティトゥ,0
1786,7011001152070,新規,0,2023-01-19,2023-01-19,株式会社一六八架設,,株式会社,東京都,渋谷区,元代々木町８番５号,,13,113,1510062,,,,,,,2023-01-19,1,,,,,イロハカセツ,0
1787,7011001152079,新規,0,2023-01-19,2023-01-19,株式会社ＲｅＶ,,株式会社,東京都,目黒区,目黒２丁目９番３号メグロフラッツ１０１,,13,110,1530063,,,,,,,2023-01-19,1,,,,,リブイ,0
1790,7011003016083,新規,0,2023-01-19,2023-01-19,合同会社工東フラット,,合同会社,東京都,渋谷区,笹塚３丁目３５番１１号工東フラット３０１,,13,113,1510073,,,,,,,2023-01-19,1,,,,,クドウフラット,0
1791,7011003016141,新規,0,2023-01-19,2023-01-19,プラスアルファ合同会社,,合同会社,東京都,渋谷区,渋谷２丁目１９番１５号宮益坂ビルディング６０９,,13,113,1500002,,,,,,,2023-01-19,1,,,,,プラスアルファ,0
1793,7011101101539,新規,0,2023-01-19,2023-01-19,株式会社ＫＢＪ　ＪＡＰＡＮ,,株式会社,東京都,新宿区,大久保１丁目１４番２６号,,13,104,1690072,,,,,,,2023-01-19,1,,,,,ケービージェイジャパン,0
1794,7011103012577,新規,0,2023-01-19,2023-01-19,合同会社ＰｌａｎｎｉｎｇＦｏｒｔｅ,,合同会社,東京都,新宿区,新宿７丁目１２番１号新宿平和ビル１階,,13,104,1600022,,,,,,,2023-01-19,1,,,,,プランニングフォルテ,0
1798,7011301028359,新規,0,2023-01-19,2023-01-19,ＡＲＮＯ株式会社,,株式会社,東京都,杉並区,下高井戸２丁目２９番１２号２０１／２０２,,13,115,1680073,,,,,,,2023-01-19,1,,,,,アルノ,0
1799,7011303004639,新規,0,2023-01-19,2023-01-19,ハッピーライフ合同会社,,合同会社,東京都,杉並区,上井草１丁目１３番４号,,13,115,1670023,,,,,,,2023-01-19,1,,,,,ハッピーライフ,0
1802,7011501028869,新規,0,2023-01-19,2023-01-19,株式会社ＬａｐｉｓＬａ,,株式会社,東京都,荒川区,西尾久３丁目２１－１４,,13,118,1160011,,,,,,,2023-01-19,1,,,,,ラピスラ,0
1803,7011501028877,新規,0,2023-01-19,2023-01-19,株式会社菊池コンサルタント事務所,,株式会社,東京都,北区,赤羽北２丁目７番１,,13,117,1150052,,,,,,,2023-01-19,1,,,,,キクチコンサルタントジムショ,0
1806,7011603003803,新規,0,2023-01-19,2023-01-19,Ｔ．Ｆファンド２号合同会社,,合同会社,東京都,練馬区,氷川台４丁目４７番１８号,,13,120,1790084,,,,,,,2023-01-19,1,,,,,ティーエスファンドニゴウ,0
1808,7011801041811,新規,0,2023-01-19,2023-01-19,株式会社ヨウヘイコーポレーション,,株式会社,東京都,足立区,保木間５丁目２５番３－５０２号,,13,121,1210064,,,,,,,2023-01-19,1,,,,,ヨウヘイコーポレーション,0
1811,7012403005782,新規,0,2023-01-19,2023-01-19,合同会社Ｒｅａｃｈ,,合同会社,東京都,小金井市,前原町２丁目２２―６,,13,210,1840013,,,,,,,2023-01-19,1,,,,,リーチ,0
1819,7012803002982,新規,0,2023-01-19,2023-01-19,合同会社究創院,,合同会社,東京都,国分寺市,東恋ヶ窪６丁目６番地３６アトリエ９１－１Ｆ,,13,214,1850014,,,,,,,2023-01-19,1,,,,,キュウソウイン,0
1823,7013303006458,新規,0,2023-01-19,2023-01-19,ＳＤ合同会社,,合同会社,東京都,豊島区,目白５丁目１７番９号今井方１０２号,,13,116,1710031,,,,,,,2023-01-19,1,,,,,エスディー,0
1833,7020001149885,新規,0,2023-01-19,2023-01-19,株式会社ＥＳＰＬＩＺＡ,,株式会社,神奈川県,横浜市西区,北幸２丁目１番２２号ナガオカビル２階,,14,103,2200004,,,,,,,2023-01-19,1,,,,,エスプライザ,0
1860,7040003021719,新規,0,2023-01-19,2023-01-19,合同会社ＴＳＹアセット,,合同会社,千葉県,流山市,おおたかの森西４丁目２５番地の１８,,12,220,2700128,,,,,,,2023-01-19,1,,,,,ティーエスワイアセット,0
1869,7080101023753,新規,0,2023-01-19,2023-01-19,株式会社介護屋さんもも,,株式会社,静岡県,下田市,横川３１９番地の３,,22,219,4130712,,,,,,,2023-01-19,1,,,,,カイゴヤサンモモ,0
1872,7100003006853,新規,0,2023-01-19,2023-01-19,合同会社ＰＬＵＳ,,合同会社,長野県,安曇野市,三郷明盛４１１８番地６ハーモニー１０１,,20,220,3998101,,,,,,,2023-01-19,1,,,,,プラス,0
1884,7120001251838,新規,0,2023-01-19,2023-01-19,株式会社常勝スチール,,株式会社,大阪府,大阪市港区,港晴１丁目１番３号,,27,107,5520023,,,,,,,2023-01-19,1,,,,,ジョウショウスチール,0
1885,7120001251862,新規,0,2023-01-19,2023-01-19,株式会社ｆｌｏｒ,,株式会社,大阪府,枚方市,渚南町４５番１４号,,27,210,5731183,,,,,,,2023-01-19,1,,,,,フロール,0
1886,7120001251870,新規,0,2023-01-19,2023-01-19,株式会社グランモンド,,株式会社,大阪府,大阪市北区,曾根崎新地１丁目５番１７号,,27,127,5300002,,,,,,,2023-01-19,1,,,,,グランモンド,0
1887,7120001251887,新規,0,2023-01-19,2023-01-19,Ｊｉｕ　Ｇｕａｎｇ　ＡＩ　Ｉｎｔｅｌｌｉｇｅｎｔ　Ｔｅｃｈｎｏｌｏｇｙ株式会社,,株式会社,大阪府,大阪市港区,市岡元町２丁目６番１１－１０１号,,27,107,5520002,,,,,,,2023-01-19,1,,,,,ジウガンエーアイインテリジェントテクノロジー,0
1888,7120001251895,新規,0,2023-01-19,2023-01-19,きらりん株式会社,,株式会社,大阪府,大阪市阿倍野区,阪南町１丁目２５番４－２０１号,,27,119,5450021,,,,,,,2023-01-19,1,,,,,キラリン,0
1891,7120003023293,新規,0,2023-01-19,2023-01-19,Ｗａｔｅｒｇｒｅｅｎ合同会社,,合同会社,大阪府,大阪市北区,梅田１丁目２番２号大阪駅前第２ビル１２－１２,,27,127,5300001,,,,,,,2023-01-19,1,,,,,ウォーターグリーン,0
1895,7120101066855,新規,0,2023-01-19,2023-01-19,株式会社長女,,株式会社,大阪府,岸和田市,下松町３丁目２番１号Ｂ棟１０５号,,27,202,5960823,,,,,,,2023-01-19,1,,,,,チョウジョ,0
1902,7122001036599,新規,0,2023-01-19,2023-01-19,株式会社Ｋ‐Ｓｔｙｌｅ,,株式会社,大阪府,八尾市,山本町南１丁目２番２９－６０８号,,27,212,5810013,,,,,,,2023-01-19,1,,,,,ケースタイル,0
1920,7140005026391,新規,0,2023-01-19,2023-01-19,一般社団法人ａｔ　ｈｏｍｅ　ｃｏｍｐａｎｙ,,その他の設立登記法人,兵庫県,丹波市,氷上町香良３２３番地,,28,223,6693642,,,,,,,2023-01-19,1,,,,,アットホームカンパニー,0
1923,7150001026114,新規,0,2023-01-19,2023-01-19,株式会社フローラ・リエ・ｓ,,株式会社,奈良県,橿原市,内膳町１丁目１－１９セレーノビル３Ｆ,,29,205,6340804,,,,,,,2023-01-19,1,,,,,フローラリエエス,0
1927,7170003001823,新規,0,2023-01-19,2023-01-19,合同会社Ｆｕｋｕ福,,合同会社,和歌山県,和歌山市,北町１２－２メゾン葵一番館２０３号室,,30,201,6408038,,,,,,,2023-01-19,1,,,,,フクフク,0
1937,7180001154606,新規,0,2023-01-19,2023-01-19,相源システム株式会社,,株式会社,愛知県,名古屋市緑区,大高町字己新田３０番地,,23,114,4598001,,,,,,,2023-01-19,1,,,,,ソウゲンシステム,0
1959,7230001019679,新規,0,2023-01-19,2023-01-19,株式会社ＲｅＳｔａｒｔｉｎｇ,,株式会社,富山県,富山市,大町７５番地６,,16,201,9398073,,,,,,,2023-01-19,1,,,,,リスターティング,0
1962,7240001060979,新規,0,2023-01-19,2023-01-19,株式会社シンケン,,株式会社,広島県,呉市,音戸町南隠渡２丁目５番４号,,34,202,7371205,,,,,,,2023-01-19,1,,,,,シンケン,0
1964,7260001037595,新規,0,2023-01-19,2023-01-19,株式会社Ｙ・Ｋファーム,,株式会社,岡山県,総社市,上林２２０番地,,33,208,7191123,,,,,,,2023-01-19,1,,,,,ワイケイファーム,0
1975,7290001100193,新規,0,2023-01-19,2023-01-19,株式会社ＯＮＥ,,株式会社,福岡県,筑後市,大字蔵数５７８番地８（２０５号）,,40,211,8330054,,,,,,,2023-01-19,1,,,,,ワン,0
1976,7290001100235,新規,0,2023-01-19,2023-01-19,株式会社龍宝,,株式会社,福岡県,みやま市,瀬高町大江７１１－１,,40,229,8350019,,,,,,,2023-01-19,1,,,,,リュウホウ,0
1977,7290001100276,新規,0,2023-01-19,2023-01-19,ＢＺ株式会社,,株式会社,福岡県,福岡市早良区,城西１丁目９番２１－８０５号,,40,137,8140003,,,,,,,2023-01-19,1,,,,,ビジ,0
1978,7290001100284,新規,0,2023-01-19,2023-01-19,ＪＣＨ株式会社,,株式会社,福岡県,福岡市南区,中尾３丁目３６－２,,40,134,8111364,,,,,,,2023-01-19,1,,,,,ジェーシーエイチ,0
1981,7290003013435,新規,0,2023-01-19,2023-01-19,ｓｋｍ合同会社,,合同会社,福岡県,大野城市,白木原１丁目１２番３８－１２０３号,,40,219,8160943,,,,,,,2023-01-19,1,,,,,エスケーエム,0
1984,7290801029186,新規,0,2023-01-19,2023-01-19,株式会社ＭＩＣＣＨＩ,,株式会社,福岡県,遠賀郡遠賀町,大字若松４４５番地１,,40,384,8114304,,,,,,,2023-01-19,1,,,,,ミッチ,0
1985,7290801029228,新規,0,2023-01-19,2023-01-19,株式会社ＧＬＡＵＸ,,株式会社,福岡県,北九州市門司区,栄町２番１７号,,40,101,8010863,,,,,,,2023-01-19,1,,,,,グラウクス,0
1987,7320005010047,新規,0,2023-01-19,2023-01-19,協同組合吉四六さん村グリーンツーリズム,,その他の設立登記法人,大分県,臼杵市,野津町大字野津市９４９番地,,44,206,8750201,,,,,,,2023-01-19,1,,,,,キッチョムサンムラグリーンツーリズム,0
1993,7370001049514,新規,0,2023-01-19,2023-01-19,豊建設工業株式会社,,株式会社,宮城県,白石市,郡山字平成１５２番地１,,04,206,9890203,,,,,,,2023-01-19,1,,,,,ユタカケンセツコウギョウ,0
1994,7370001049522,新規,0,2023-01-19,2023-01-19,株式会社メイセン,,株式会社,宮城県,仙台市泉区,福岡字下鎖１９番地,,04,105,9813225,,,,,,,2023-01-19,1,,,,,メイセン,0
2004,7410003003745,新規,0,2023-01-19,2023-01-19,ＡＲｈｏｍｅ合同会社,,合同会社,秋田県,能代市,落合字下大野１番地２８,,05,202,0160014,,,,,,,2023-01-19,1,,,,,エーアールホーム,0
2023,7470001019432,新規,0,2023-01-19,2023-01-19,株式会社エミ,,株式会社,香川県,丸亀市,西本町１丁目３番３４号,,37,202,7630047,,,,,,,2023-01-19,1,,,,,エミ,0
2047,8010001232006,新規,0,2023-01-19,2023-01-19,株式会社Ｎｕｍｂｅｒ．５,,株式会社,東京都,中央区,新富１丁目１５－１４－２０３号,,13,102,1040041,,,,,,,2023-01-19,1,,,,,ナンバーファイブ,0
2048,8010001232360,新規,0,2023-01-19,2023-01-19,Ｗａｌｎｕｔ準備株式会社,,株式会社,東京都,千代田区,丸の内３丁目３番１号新東京ビル,,13,101,1000005,,,,,,,2023-01-19,1,,,,,ウォルナットジュンビ,0
2052,8010103002067,新規,0,2023-01-19,2023-01-19,ＥｘＰｈｏｔｏｎｓ合同会社,,合同会社,東京都,八王子市,南大沢５丁目４番地南大沢レジデンス１１０５号,,13,201,1920364,,,,,,,2023-01-19,1,,,,,イーエックスフォトンズ,0
2057,8010401171811,新規,0,2023-01-19,2023-01-19,株式会社Ｓｔｅｌｌａ,,株式会社,東京都,港区,赤坂４丁目１５番１号赤坂ガーデンシティ１６階,,13,103,1070052,,,,,,,2023-01-19,1,,,,,ステラ,0
2058,8010401171860,新規,0,2023-01-19,2023-01-19,ｓｔｒｅａｍｅｒｓ株式会社,,株式会社,東京都,港区,赤坂１丁目１１番４４号,,13,103,1070052,,,,,,,2023-01-19,1,,,,,ストリーマーズ,0
2059,8010401171984,新規,0,2023-01-19,2023-01-19,百識電子テクノロジー株式会社,,株式会社,東京都,港区,東麻布１丁目９－１１ＧＲＯＴＨ・ＢＹ・ＩＯＱ２０３号室,,13,103,1060044,,,,,,,2023-01-19,1,,,,,ヒャクシキデンシテクノロジー,0
2060,8010401171992,新規,0,2023-01-19,2023-01-19,ＩＲＥ株式会社,,株式会社,東京都,港区,新橋６丁目１７番２１号住友不動産御成門駅前ビル１０階,,13,103,1050004,,,,,,,2023-01-19,1,,,,,アイアールイー,0
2067,8010501049800,新規,0,2023-01-19,2023-01-19,天府李株式会社,,株式会社,東京都,台東区,上野４丁目４番６号,,13,106,1100005,,,,,,,2023-01-19,1,,,,,テンフリー,0
2068,8010601062406,新規,0,2023-01-19,2023-01-19,株式会社サポートＡｔｏＺ,,株式会社,東京都,墨田区,向島１丁目１６番４号,,13,107,1310033,,,,,,,2023-01-19,1,,,,,サポートエイトゥジー,0
2070,8010803004429,新規,0,2023-01-19,2023-01-19,合同会社ミナトオヤマ,,合同会社,東京都,大田区,東糀谷４丁目４番１０－１０４号,,13,111,1440033,,,,,,,2023-01-19,1,,,,,ミナトオヤマ,0
2077,8011001151947,新規,0,2023-01-19,2023-01-19,株式会社ＭＡＫＯＴＯＯＫＵＤＯＭＩ,,株式会社,東京都,渋谷区,本町６丁目３９－７本沢マンション１Ｆ,,13,113,1510071,,,,,,,2023-01-19,1,,,,,マコトオクドミ,0
2087,8011203003979,新規,0,2023-01-19,2023-01-19,合同会社Ａｋａｌａ,,合同会社,東京都,中野区,中野３丁目３４番８号藤和シティ－コープ中野３０２,,13,114,1640001,,,,,,,2023-01-19,1,,,,,アカラ,0
2088,8011203003987,新規,0,2023-01-19,2023-01-19,合同会社ＳＧＭＡＲＴ,,合同会社,東京都,中野区,本町４丁目４７番１０－３０３号,,13,114,1640012,,,,,,,2023-01-19,1,,,,,エスジーマート,0
2093,8011501028827,新規,0,2023-01-19,2023-01-19,オブザラウンドテーブル株式会社,,株式会社,東京都,荒川区,西尾久２丁目３０番１３号山根ビル第２・３０１,,13,118,1160011,,,,,,,2023-01-19,1,,,,,オブザラウンドテーブル,0
2094,8011501028843,新規,0,2023-01-19,2023-01-19,エニホームズ株式会社,,株式会社,東京都,荒川区,西日暮里２丁目３９番７－１００５号,,13,118,1160013,,,,,,,2023-01-19,1,,,,,エニホームズ,0
2095,8011501028876,新規,0,2023-01-19,2023-01-19,ＳＩＧ　Ｌｏｇｉｓｔｉｃｓ株式会社,,株式会社,東京都,北区,赤羽北１丁目１９番１号,,13,117,1150052,,,,,,,2023-01-19,1,,,,,エスアイジーロジスティクス,0
2097,8011603003802,新規,0,2023-01-19,2023-01-19,Ｔ．Ｆファンド１号合同会社,,合同会社,東京都,練馬区,氷川台４丁目４７番１８号,,13,120,1790084,,,,,,,2023-01-19,1,,,,,ティーエスファンドイチゴウ,0
2100,8011801041819,新規,0,2023-01-19,2023-01-19,株式会社コサイ装業,,株式会社,東京都,足立区,竹の塚１丁目４０番１５号庄栄ビル５Ｆ,,13,121,1210813,,,,,,,2023-01-19,1,,,,,コサイソウギョウ,0
2106,8012401040095,新規,0,2023-01-19,2023-01-19,株式会社ＰｒｏｌｏＧｕｅ,,株式会社,東京都,小金井市,緑町３丁目１２番１４号,,13,210,1840003,,,,,,,2023-01-19,1,,,,,プロローグ,0
2108,8012701017438,新規,0,2023-01-19,2023-01-19,ｄｏｔ　ｋｎｏｗ株式会社,,株式会社,東京都,小平市,仲町１５５－３２ビューラーセキ１－１０１,,13,211,1870042,,,,,,,2023-01-19,1,,,,,ドットノウ,0
2109,8012803002981,新規,0,2023-01-19,2023-01-19,合同会社サワベタカシ事務所,,合同会社,東京都,国分寺市,東戸倉１丁目２１－５１,,13,214,1850002,,,,,,,2023-01-19,1,,,,,サワベタカシジムショ,0
2110,8012805003169,新規,0,2023-01-19,2023-01-19,行政書士法人Ｔｒｅｅ,,その他の設立登記法人,東京都,国立市,中１丁目９番８号第７叶ビル３Ｆ,,13,215,1860004,,,,,,,2023-01-19,1,,,,,ツリー,0
2115,8013303006457,新規,0,2023-01-19,2023-01-19,合同会社２５２５,,合同会社,東京都,豊島区,北大塚１丁目１６番５号パークアクシス大塚ステーションゲートタワー１９０６号,,13,116,1700004,,,,,,,2023-01-19,1,,,,,ニーゴーニーゴー,0
2117,8020001149892,新規,0,2023-01-19,2023-01-19,株式会社Ｓｔａｙ,,株式会社,神奈川県,横浜市都筑区,勝田町７５３番地５,,14,118,2240034,,,,,,,2023-01-19,1,,,,,ステイ,0
2122,8020005015819,新規,0,2023-01-19,2023-01-19,プロスパイラ労働組合,,その他の設立登記法人,神奈川県,川崎市幸区,堀川町５８０番地,,14,132,2120013,,,,,,,2023-01-19,1,,,,,プロスパイラ,0
2136,8030001152020,新規,0,2023-01-19,2023-01-19,株式会社三神,,株式会社,埼玉県,草加市,手代２丁目５番１号,,11,221,3400021,,,,,,,2023-01-19,1,,,,,サンシン,0
2137,8030001152029,新規,0,2023-01-19,2023-01-19,株式会社ライト,,株式会社,埼玉県,鴻巣市,吹上本町４丁目１２番２３号,,11,217,3690115,,,,,,,2023-01-19,1,,,,,ライト,0
2147,8040001126700,新規,0,2023-01-19,2023-01-19,株式会社サーバント,,株式会社,千葉県,松戸市,高塚新田６４２番地の１７１,,12,207,2702222,,,,,,,2023-01-19,1,,,,,サーバント,0
2153,8040003021718,新規,0,2023-01-19,2023-01-19,Ｐｏｌｇａｍｐａｌａ　Ｅｎｔｅｒｐｒｉｓｅｓ合同会社,,合同会社,千葉県,山武郡九十九里町,田中荒生１５３２－３,,12,403,2830103,,,,,,,2023-01-19,1,,,,,ポルガンパラエンタープライゼズ,0
2156,8050001052276,新規,0,2023-01-19,2023-01-19,株式会社ジャバリノール,,株式会社,茨城県,猿島郡境町,大字栗山５３番地３,,08,546,3060412,,,,,,,2023-01-19,1,,,,,ジャバリノール,0
2160,8060001035602,新規,0,2023-01-19,2023-01-19,株式会社Ｍ．Ｉ．,,株式会社,栃木県,宇都宮市,岩曽町１３５３番地２７,,09,201,3210973,,,,,,,2023-01-19,1,,,,,エムアイ,0
2161,8060001035627,新規,0,2023-01-19,2023-01-19,株式会社ポピー,,株式会社,栃木県,小山市,大字南半田９２－１,,09,208,3230011,,,,,,,2023-01-19,1,,,,,ポピー,0
2164,8060003004365,新規,0,2023-01-19,2023-01-19,Ｓｈａｈｊｅｅ　Ｔｒａｄｉｎｇ合同会社,,合同会社,栃木県,小山市,大字粟宮１７９８宮内コーポＡ２階２０３号室,,09,208,3290201,,,,,,,2023-01-19,1,,,,,シャジトレーディング,0
2172,8080101023752,新規,0,2023-01-19,2023-01-19,株式会社三面体,,株式会社,静岡県,伊東市,富戸８４２番１１５,,22,208,4130231,,,,,,,2023-01-19,1,,,,,サンメンタイ,0
2183,8100001036067,新規,0,2023-01-19,2023-01-19,株式会社ソラヤ,,株式会社,長野県,松本市,大字新村１９３４番地１,,20,202,3901241,,,,,,,2023-01-19,1,,,,,ソラヤ,0
2184,8100003006852,新規,0,2023-01-19,2023-01-19,ビルドマーケティング合同会社,,合同会社,長野県,東御市,和１６２２－１,,20,219,3890505,,,,,,,2023-01-19,1,,,,,ビルドマーケティング,0
2193,8120001251878,新規,0,2023-01-19,2023-01-19,株式会社ＳＰＮ,,株式会社,大阪府,大阪市此花区,酉島５丁目９番３７号,,27,104,5540051,,,,,,,2023-01-19,1,,,,,エスピーエヌ,0
2194,8120001251886,新規,0,2023-01-19,2023-01-19,銀幕Ｔｅｃｈｎｏｌｏｇｙ株式会社,,株式会社,大阪府,大阪市西成区,玉出中２丁目１４番９－３０１号,,27,122,5570044,,,,,,,2023-01-19,1,,,,,ギンマクテクノロジー,0
2198,8120103005034,新規,0,2023-01-19,2023-01-19,合同会社ＭＯＭＯ,,合同会社,大阪府,岸和田市,荒木町１丁目１１番１２－５０３号,,27,202,5960004,,,,,,,2023-01-19,1,,,,,モモ,0
2205,8130001073520,新規,0,2023-01-19,2023-01-19,株式会社丁度極転,,株式会社,京都府,京都市伏見区,深草西浦町６丁目７９番地５、ＥＤＡアドバンスビル４０１,,26,109,6120029,,,,,,,2023-01-19,1,,,,,チョウドゴクテン,0
2219,8150005009452,新規,0,2023-01-19,2023-01-19,司法書士法人イオリ,,その他の設立登記法人,奈良県,生駒郡斑鳩町,神南５丁目１２番１－１０２号,,29,344,6360143,,,,,,,2023-01-19,1,,,,,イオリ,0
2239,8190001030111,新規,0,2023-01-19,2023-01-19,株式会社エソラ,,株式会社,三重県,桑名市,大字東方２０５０番地１,,24,205,5110811,,,,,,,2023-01-19,1,,,,,エソラ,0
2250,8230001019678,新規,0,2023-01-19,2023-01-19,株式会社ＫＵＵ,,株式会社,富山県,富山市,中川原１２８番地１,,16,201,9398015,,,,,,,2023-01-19,1,,,,,クウ,0
2278,8290001100218,新規,0,2023-01-19,2023-01-19,株式会社雅電工,,株式会社,福岡県,福岡市南区,大平寺１丁目４番２号,,40,134,8111354,,,,,,,2023-01-19,1,,,,,ミヤビデンコウ,0
2283,8320005010046,新規,0,2023-01-19,2023-01-19,一般社団法人つみきの家,,その他の設立登記法人,大分県,大分市,城南西２丁目１０番１２号,,44,201,8700826,,,,,,,2023-01-19,1,,,,,ツミキノイエ,0
2285,8330001030518,新規,0,2023-01-19,2023-01-19,株式会社ＩＳＦ,,株式会社,熊本県,熊本市中央区,京町２丁目１４－１５－１Ｍａｎｏｎ京町２Ｆ西,,43,101,8600078,,,,,,,2023-01-19,1,,,,,アイエスエフ,0
2288,8350005006132,新規,0,2023-01-19,2023-01-19,一般社団法人宮崎県幼稚園連合会,,その他の設立登記法人,宮崎県,宮崎市,瀬頭２丁目５番２号,,45,201,8800867,,,,,,,2023-01-19,1,,,,,ミヤザキケンヨウチエンレンゴウカイ,0
2293,8380001033417,新規,0,2023-01-19,2023-01-19,伸倭株式会社,,株式会社,福島県,相馬市,柏崎字中台１７５番地の１,,07,209,9760034,,,,,,,2023-01-19,1,,,,,シンワ,0
2307,8430001088249,新規,0,2023-01-19,2023-01-19,株式会社小平物産,,株式会社,北海道,苫小牧市,啓北町２丁目１１番８号,,01,213,0530854,,,,,,,2023-01-19,1,,,,,コダイラブッサン,0
2309,8440001009212,新規,0,2023-01-19,2023-01-19,株式会社ラテズチョイス,,株式会社,北海道,函館市,中道２丁目１２番９号,,01,202,0410853,,,,,,,2023-01-19,1,,,,,ラテズチョイス,0
2313,8470001019431,新規,0,2023-01-19,2023-01-19,株式会社ケーズコーポレーション,,株式会社,香川県,木田郡三木町,大字下高岡１９１２番地１,,37,341,7610704,,,,,,,2023-01-19,1,,,,,ケーズコーポレーション,0
2338,8700150111650,新規,0,2023-01-19,2023-01-19,Ｊｅｔ　Ｒｉｄｅｒ　Ｃｏ．Ｌｔｄ．,,外国会社等,,,,,,,,３９－１，Ｇｕａｎｇｄｅ　Ｒｄ．，Ｔａｉｐｉｎｇ　Ｄｉｓｔ．，Ｔａｉｃｈｕｎｇ，４１１４７，Ｔａｉｗａｎ,,,,,,2023-01-19,1,,,,,ジェットライダーユウゲンコウシ,0
2339,8700150113829,新規,0,2023-01-19,2023-01-19,ケーオークラブ,,その他,愛媛県,今治市,富田新港１丁目３番地日本食研ホールディングス（株）内,,38,202,7991503,,,,,,,2023-01-19,1,,,,,ケーオークラブ,0
2347,9010003039423,新規,0,2023-01-19,2023-01-19,合同会社ライフサポート,,合同会社,東京都,文京区,小日向２丁目１８番７号細井ビル３０１,,13,105,1120006,,,,,,,2023-01-19,1,,,,,ライフサポート,0
2354,9010401171868,新規,0,2023-01-19,2023-01-19,株式会社Ｓｔｅｌｌａ,,株式会社,東京都,港区,新橋１丁目９番２号新橋二光ビル３階,,13,103,1050004,,,,,,,2023-01-19,1,,,,,ステラ,0
2355,9010401171983,新規,0,2023-01-19,2023-01-19,株式会社システムコミュニケーションズホールディングス,,株式会社,東京都,港区,白金台５丁目１１番１１－３０４号,,13,103,1080071,,,,,,,2023-01-19,1,,,,,システムコミュニケーションズホールディングス,0
2357,9010403029313,新規,0,2023-01-19,2023-01-19,合同会社ソーラーパーク１５号,,合同会社,東京都,港区,六本木３丁目２番１号,,13,103,1060032,,,,,,,2023-01-19,1,,,,,ソーラーパークジュウゴゴウ,0
2360,9010501049881,新規,0,2023-01-19,2023-01-19,清于軒株式会社,,株式会社,東京都,台東区,松が谷２丁目９番１－３０８号,,13,106,1110036,,,,,,,2023-01-19,1,,,,,キヨウケン,0
2361,9010501049898,新規,0,2023-01-19,2023-01-19,株式会社ユメニア,,株式会社,東京都,台東区,下谷１丁目１０番５－８０１号コアマンションフリージオ上野,,13,106,1100004,,,,,,,2023-01-19,1,,,,,ユメニア,0
2363,9010601062438,新規,0,2023-01-19,2023-01-19,ときわ花王株式会社,,株式会社,東京都,墨田区,立花２丁目３３番５号,,13,107,1310043,,,,,,,2023-01-19,1,,,,,,0
2364,9010603009949,新規,0,2023-01-19,2023-01-19,合同会社ＲＡＳＨ,,合同会社,東京都,墨田区,江東橋４丁目１３番１－４０１号サニーハイツ,,13,107,1300022,,,,,,,2023-01-19,1,,,,,ラッシュ,0
2366,9010801033585,新規,0,2023-01-19,2023-01-19,株式会社Ｓｈｅｌｌｔａｓ,,株式会社,東京都,大田区,中央１丁目１６－８シャンボール大森１１９,,13,111,1430024,,,,,,,2023-01-19,1,,,,,シェルタス,0
2379,9011001151888,新規,0,2023-01-19,2023-01-19,株式会社ＮａＬａＬｙｓ,,株式会社,東京都,渋谷区,道玄坂１丁目１０番８号渋谷道玄坂東急ビル２Ｆ－Ｃ,,13,113,1500043,,,,,,,2023-01-19,1,,,,,ナラリス,0
2380,9011001151913,新規,0,2023-01-19,2023-01-19,株式会社Ｋ３,,株式会社,東京都,渋谷区,渋谷２丁目１２－１１ＫＫビル６階,,13,113,1500002,,,,,,,2023-01-19,1,,,,,,0
2381,9011001152003,新規,0,2023-01-19,2023-01-19,株式会社ノルディス,,株式会社,東京都,目黒区,鷹番２丁目１６番１４号ラディアスＲビル３Ｂ,,13,110,1520004,,,,,,,2023-01-19,1,,,,,ノルディス,0
2382,9011001152044,新規,0,2023-01-19,2023-01-19,株式会社ＳａｋａＳ,,株式会社,東京都,渋谷区,神宮前３丁目１５番２１号ヒルトップ原宿３０１,,13,113,1500001,,,,,,,2023-01-19,1,,,,,サカス,0
2390,9011101101553,新規,0,2023-01-19,2023-01-19,株式会社ＧａＮｏＮ,,株式会社,東京都,新宿区,百人町１丁目５番２２号アパートメントプレアデス１１０,,13,104,1690073,,,,,,,2023-01-19,1,,,,,ガノン,0
2392,9011103012617,新規,0,2023-01-19,2023-01-19,コスモホールディングス合同会社,,合同会社,東京都,新宿区,新宿５丁目１１番３０号新宿第五葉山ビル３Ｆ,,13,104,1600022,,,,,,,2023-01-19,1,,,,,コスモホールディングス,0
2394,9011303004637,新規,0,2023-01-19,2023-01-19,合同会社マイノート,,合同会社,東京都,杉並区,永福４丁目２６番２４号グリーンハイツ１０５,,13,115,1680064,,,,,,,2023-01-19,1,,,,,マイノート,0
2398,9011501028875,新規,0,2023-01-19,2023-01-19,株式会社アフタービートサウンド,,株式会社,東京都,北区,東十条５丁目１７－１０－１Ｆ,,13,117,1140001,,,,,,,2023-01-19,1,,,,,アフタービートサウンド,0
2402,9011801041818,新規,0,2023-01-19,2023-01-19,株式会社共伸,,株式会社,東京都,葛飾区,亀有４丁目３０番２２号,,13,122,1250061,,,,,,,2023-01-19,1,,,,,キョウシン,0
2403,9011802007421,新規,0,2023-01-19,2023-01-19,有限会社マルヤマプロセス印刷,,有限会社,東京都,葛飾区,西水元１丁目１４番２号,,13,122,1250031,,,,,,,2023-01-19,1,,,,,マルヤマプロセスインサツ,0
2404,9011803005465,新規,0,2023-01-19,2023-01-19,合同会社ＴＯＣＡＮ,,合同会社,東京都,足立区,柳原２丁目２番９号,,13,121,1200022,,,,,,,2023-01-19,1,,,,,トゥキャン,0
2406,9012401040094,新規,0,2023-01-19,2023-01-19,一帆国際株式会社,,株式会社,東京都,武蔵野市,桜堤１丁目５番８号３の１階,,13,203,1800021,,,,,,,2023-01-19,1,,,,,カズホコクサイ,0
2410,9012801022089,新規,0,2023-01-19,2023-01-19,株式会社ミンモチ,,株式会社,東京都,武蔵村山市,神明３丁目３３番１０,,13,223,2080002,,,,,,,2023-01-19,1,,,,,ミンモチ,0
2411,9012803002980,新規,0,2023-01-19,2023-01-19,久運合同会社,,合同会社,東京都,立川市,一番町４丁目６５番地１０大清ビル３０３号,,13,202,1900033,,,,,,,2023-01-19,1,,,,,キュウウン,0
2414,9013303006456,新規,0,2023-01-19,2023-01-19,合同会社フォトミート,,合同会社,東京都,豊島区,西池袋４丁目１９－１２・９０３,,13,116,1710021,,,,,,,2023-01-19,1,,,,,フォトミート,0
2426,9021003012609,新規,0,2023-01-19,2023-01-19,ＡＳＡＲＥ合同会社,,合同会社,神奈川県,茅ヶ崎市,矢畑７５０番地１０,,14,207,2530085,,,,,,,2023-01-19,1,,,,,アサレ,0
2427,9021003012633,新規,0,2023-01-19,2023-01-19,ＨＡＡＮＩＹＡ　ＴＲＡＤＩＮＧ合同会社,,合同会社,神奈川県,綾瀬市,大上３丁目２２番３２－２０１号,,14,218,2521104,,,,,,,2023-01-19,1,,,,,ハーニヤトレーディング,0
2443,9040001126666,新規,0,2023-01-19,2023-01-19,株式会社ＲＯＤ,,株式会社,千葉県,印西市,木下１５２１番地６４真仲ビル２０３,,12,231,2701326,,,,,,,2023-01-19,1,,,,,アールオーディー,0
2444,9040001126699,新規,0,2023-01-19,2023-01-19,未来環境株式会社,,株式会社,千葉県,千葉市中央区,中央４丁目１２番１２号,,12,101,2600013,,,,,,,2023-01-19,1,,,,,ミライカンキョウ,0
2445,9040001126708,新規,0,2023-01-19,2023-01-19,ＨａｐｐｉｎｅｓｓＬｉｆｅ株式会社,,株式会社,千葉県,船橋市,習志野台４丁目６７番１４号,,12,204,2740063,,,,,,,2023-01-19,1,,,,,ハピネスライフ,0
2448,9040003021717,新規,0,2023-01-19,2023-01-19,ＫＴＳ合同会社,,合同会社,千葉県,木更津市,菅生８２２番地２０,,12,206,2920036,,,,,,,2023-01-19,1,,,,,ケーティーエス,0
2449,9040003021725,新規,0,2023-01-19,2023-01-19,合同会社組織開発パートナーズ,,合同会社,千葉県,松戸市,新松戸５丁目１番地新松戸中央パークハウスＤ－１００９,,12,207,2700034,,,,,,,2023-01-19,1,,,,,ソシキカイハツパートナーズ,0
2451,9050001052267,新規,0,2023-01-19,2023-01-19,株式会社メドフラワー,,株式会社,茨城県,つくば市,竹園１丁目３番地８ＬＥＢＥＮ・ＴＨＥ・ＴＳＵＫＵＢＡ９２２号,,08,220,3050032,,,,,,,2023-01-19,1,,,,,メドフラワー,0
2452,9050001052275,新規,0,2023-01-19,2023-01-19,小野商会株式会社,,株式会社,茨城県,猿島郡境町,２２５８番地６,,08,546,3060433,,,,,,,2023-01-19,1,,,,,オノショウカイ,0
2457,9070001040039,新規,0,2023-01-19,2023-01-19,株式会社ＧＬＳＴＡ,,株式会社,群馬県,高崎市,貝沢町７９０番地１エルージュＡ１０１号,,10,202,3700042,,,,,,,2023-01-19,1,,,,,グラスタ,0
2461,9080101023751,新規,0,2023-01-19,2023-01-19,株式会社ハマムラ,,株式会社,静岡県,沼津市,原９６３番地の５,,22,203,4100312,,,,,,,2023-01-19,1,,,,,ハマムラ,0
2464,9100001036066,新規,0,2023-01-19,2023-01-19,株式会社ライフパートナー佐久だいら,,株式会社,長野県,佐久市,常田３２５,,20,217,3850026,,,,,,,2023-01-19,1,,,,,ライフパートナーサクダイラ,0
2466,9100003006851,新規,0,2023-01-19,2023-01-19,合同会社ＫＩＹ,,合同会社,長野県,南佐久郡小海町,大字小海３９４１番地４ハイツスワン２０１,,20,303,3841102,,,,,,,2023-01-19,1,,,,,ケイアイワイ,0
2480,9120001251844,新規,0,2023-01-19,2023-01-19,株式会社ＴＨＰＪＡＰＡＮ,,株式会社,大阪府,大阪市中央区,西心斎橋２丁目１０番２２号３階,,27,128,5420086,,,,,,,2023-01-19,1,,,,,ティーエイチピージャパン,0
2481,9120001251869,新規,0,2023-01-19,2023-01-19,株式会社玉那覇,,株式会社,大阪府,大阪市西区,北堀江３丁目７番２９号１３０２,,27,106,5500014,,,,,,,2023-01-19,1,,,,,タマナハ,0
2482,9120001251885,新規,0,2023-01-19,2023-01-19,悟仁Ｔｅｃｈｎｏｌｏｇｙ株式会社,,株式会社,大阪府,大阪市西成区,玉出中２丁目１４番９－２０６号,,27,122,5570044,,,,,,,2023-01-19,1,,,,,ゴジンテクノロジー,0
2493,9120901047020,新規,0,2023-01-19,2023-01-19,株式会社びむてく工房,,株式会社,大阪府,吹田市,垂水町３丁目２９－２チサンマンション第五江坂４０６,,27,205,5640062,,,,,,,2023-01-19,1,,,,,ビムテクコウボウ,0
2495,9122001036606,新規,0,2023-01-19,2023-01-19,メルシースリー株式会社,,株式会社,大阪府,東大阪市,衣摺４丁目２０番１０号,,27,227,5770827,,,,,,,2023-01-19,1,,,,,メルシースリー,0
2496,9122003002498,新規,0,2023-01-19,2023-01-19,合同会社ＳＫスポーツ,,合同会社,大阪府,東大阪市,出雲井町６番２６号シャルマンコーポ枚岡公園Ｆ３０３,,27,227,5798033,,,,,,,2023-01-19,1,,,,,エスケイスポーツ,0
2505,9130005016680,新規,0,2023-01-19,2023-01-19,特定非営利活動法人自由空間ぶどうの実,,その他の設立登記法人,京都府,八幡市,八幡神原１６番地,,26,210,6148087,,,,,,,2023-01-19,1,,,,,ジユウクウカンブドウノミ,0
2513,9140005026456,新規,0,2023-01-19,2023-01-19,農事組合法人アグリ上組,,その他の設立登記法人,兵庫県,赤穂市,西有年１９６７番地１,,28,212,6781186,,,,,,,2023-01-19,1,,,,,,0
2551,9290001100282,新規,0,2023-01-19,2023-01-19,株式会社平成クラフト,,株式会社,福岡県,久留米市,城島町江上本１１４９番地１,,40,203,8300214,,,,,,,2023-01-19,1,,,,,ヘイセイクラフト,0
2555,9290003013425,新規,0,2023-01-19,2023-01-19,ぱるぷんて合同会社,,合同会社,福岡県,福岡市博多区,堅粕１丁目１番２号ニュー堅粕６棟店舗１５号,,40,132,8120043,,,,,,,2023-01-19,1,,,,,パルプンテ,0
2556,9290801016760,新規,0,2023-01-19,2023-01-19,三井鉱山セメント株式会社,,株式会社,福岡県,田川市,平松町１番６５号,,40,206,8260032,,,,,,,2023-01-19,1,,,,,ミツイコウザンセメント,0
2558,9290805009629,新規,0,2023-01-19,2023-01-19,医療法人啓翔会,,その他の設立登記法人,福岡県,北九州市小倉北区,竪町１丁目８番２０号,,40,106,8030818,,,,,,,2023-01-19,1,,,,,ケイショウカイ,0
2559,9310001018225,新規,0,2023-01-19,2023-01-19,岳路の森株式会社,,株式会社,長崎県,長崎市,岩見町３１番１号,,42,201,8528017,,,,,,,2023-01-19,1,,,,,タケロノモリ,0
2561,9320001019528,新規,0,2023-01-19,2023-01-19,アイ．ジー．シー株式会社,,株式会社,大分県,別府市,石垣東９丁目４番５２－１３０２号,,44,202,8740919,,,,,,,2023-01-19,1,,,,,アイジーシー,0
2575,9370001049520,新規,0,2023-01-19,2023-01-19,株式会社ＫＳＣ,,株式会社,宮城県,登米市,登米町寺池前舟橋９９番地,,04,212,9870702,,,,,,,2023-01-19,1,,,,,ケーエスシー,0
2578,9380001033416,新規,0,2023-01-19,2023-01-19,株式会社ネクストライフ,,株式会社,福島県,福島市,御山字上谷地２番地の１,,07,201,9608252,,,,,,,2023-01-19,1,,,,,ネクストライフ,0
2584,9420001018131,新規,0,2023-01-19,2023-01-19,Ｔｅｃｈｓｔ株式会社,,株式会社,青森県,青森市,松原３丁目１５番２５号リバーサイド桜川弐番館１０５号,,02,201,0300813,,,,,,,2023-01-19,1,,,,,テクスト,0
2593,9430003014623,新規,0,2023-01-19,2023-01-19,合同会社Ｌｕａｎａ　Ｌａｂ,,合同会社,北海道,札幌市西区,西町南２丁目２番３号,,01,107,0630062,,,,,,,2023-01-19,1,,,,,ルアナラボ,0
