sequenceNumber,corporateNumber,process,correct,updateDate,changeDate,name,nameImageId,kind,prefectureName,cityName,streetNumber,addressImageId,prefectureCode,cityCode,postCode,addressOutside,addressOutsideImageId,closeDate,closeCause,successorCorporateNumber,changeCause,assignmentDate,latest,enName,enPrefectureName,enCityName,enAddressOutside,furigana,hihyoji
12,1010003049900,新規,0,2026-01-16,2026-01-16,合同会社ＰＯＮ　ＮＩＰＰＯＮ,,合同会社,東京都,千代田区,神田須田町１丁目７番８号ＶＯＲＴ秋葉原ＩＶ２Ｆ,00142208,13,101,1010041,,,,,,,2026-01-16,1,,,,,ポンニッポン,0
21,1010401195643,新規,0,2026-01-16,2026-01-16,ディーコンジャパン株式会社,,株式会社,東京都,港区,北青山１丁目３番１号アールキューブ青山３階,,13,103,1070061,,,,,,,2026-01-16,1,,,,,ディーコンジャパン,0
28,1010501055292,新規,0,2026-01-16,2026-01-16,株式会社ポラリスプロダクション,,株式会社,東京都,台東区,千束１丁目１４－７皆見ビル４Ｂ,,13,106,1110031,,,,,,,2026-01-16,1,,,,,ポラリスプロダクション,0
30,1010703008081,新規,0,2026-01-16,2026-01-16,Ｋｈｕ合同会社,,合同会社,東京都,品川区,小山３丁目２７－５,,13,109,1420062,,,,,,,2026-01-16,1,,,,,クウ,0
34,1010903010572,新規,0,2026-01-16,2026-01-16,合同会社柏の葉環境エレクトロニクス,,合同会社,東京都,世田谷区,世田谷１丁目４０番１４号,,13,112,1540017,,,,,,,2026-01-16,1,,,,,カシワノハカンキョウエレクトロニクス,0
38,1011001174590,新規,0,2026-01-16,2026-01-16,株式会社Ａｇｅｎｔｉｃ　Ｃｌｏｕｄ,,株式会社,東京都,目黒区,自由が丘２丁目１６番１２号ＲＪ３,,13,110,1520035,,,,,,,2026-01-16,1,,,,,エージェンティッククラウド,0
45,1011003023333,新規,0,2026-01-16,2026-01-16,合同会社ＣＦＵＮＫ,,合同会社,東京都,渋谷区,渋谷１丁目１０番７号グローリア宮益坂ＩＩＩＢ１,00142204,13,113,1500002,,,,,,,2026-01-16,1,,,,,シーファンク,0
46,1011101114406,新規,0,2026-01-16,2026-01-16,株式会社Ｓｏｎａｅ’ｒ,,株式会社,東京都,新宿区,新宿１丁目３４番１６号清水ビル２０６号室,,13,104,1600022,,,,,,,2026-01-16,1,,,,,ソナエアール,0
47,1011101114422,新規,0,2026-01-16,2026-01-16,ソラノボル株式会社,,株式会社,東京都,新宿区,中落合１丁目１８－６ライオンズステーションプラザ中井１４０３,,13,104,1610032,,,,,,,2026-01-16,1,,,,,ソラノボル,0
48,1011101114455,新規,0,2026-01-16,2026-01-16,エヌスタンド株式会社,,株式会社,東京都,新宿区,西新宿３丁目３番１３号西新宿水間ビル６階,,13,104,1600023,,,,,,,2026-01-16,1,,,,,エヌスタンド,0
49,1011103016889,新規,0,2026-01-16,2026-01-16,ＡＲＩＡ合同会社,,合同会社,東京都,新宿区,西新宿６丁目５番１号新宿アイランドタワー２階,,13,104,1600023,,,,,,,2026-01-16,1,,,,,アリア,0
53,1011201026897,新規,0,2026-01-16,2026-01-16,株式会社ＥＸＥ,,株式会社,東京都,中野区,本町１丁目２３番９号ＮＩＤビル４階,,13,114,1640012,,,,,,,2026-01-16,1,,,,,エグザ,0
58,1011403004998,新規,0,2026-01-16,2026-01-16,ＡＧＳＷ合同会社,,合同会社,東京都,板橋区,徳丸１丁目２７－３,,13,119,1750083,,,,,,,2026-01-16,1,,,,,アサミジェネラリストソーシャルワーカー,0
60,1011501033016,新規,0,2026-01-16,2026-01-16,株式会社オクト,,株式会社,東京都,荒川区,西日暮里２丁目２２－１－２３０２ステーションプラザタワー,,13,118,1160013,,,,,,,2026-01-16,1,,,,,オクト,0
61,1011503006837,新規,0,2026-01-16,2026-01-16,ＲＡ　ＰＲＯＰＥＲＴＹ合同会社,,合同会社,東京都,荒川区,町屋３丁目２３－１８東和ビル,,13,118,1160001,,,,,,,2026-01-16,1,,,,,アルエープロパティー,0
62,1011601029244,新規,0,2026-01-16,2026-01-16,株式会社Ｄｅｌｉｇｈｔ　Ｅｄｇｅ,,株式会社,東京都,練馬区,中村３丁目４番１１号Ｌｉｖｅｇｅｏｎａｋａｍｕｒａｂａｓｈｉ３０４,,13,120,1760024,,,,,,,2026-01-16,1,,,,,ディライトエッジ,0
68,1011801047293,新規,0,2026-01-16,2026-01-16,株式会社ＪＵＮＥ＆ＬＷＩＮ,,株式会社,東京都,葛飾区,西新小岩４丁目２８番８号３０１室,,13,122,1240025,,,,,,,2026-01-16,1,,,,,ジュンアンドルイン,0
69,1011801047319,新規,0,2026-01-16,2026-01-16,株式会社阿部養庵メディカルサービス,,株式会社,東京都,足立区,関原３丁目５番８号,,13,121,1230852,,,,,,,2026-01-16,1,,,,,アベヨウアンメディカルサービス,0
71,1012401044004,新規,0,2026-01-16,2026-01-16,株式会社富永,,株式会社,東京都,三鷹市,井口２丁目１０番２２号,,13,204,1810011,,,,,,,2026-01-16,1,,,,,トミエイ,0
72,1012401044020,新規,0,2026-01-16,2026-01-16,株式会社コスモス,,株式会社,東京都,府中市,緑町２丁目１７番地の７コナヴィレッジ１０６,,13,206,1830006,,,,,,,2026-01-16,1,,,,,コスモス,0
73,1012401044029,新規,0,2026-01-16,2026-01-16,グレートフル株式会社,,株式会社,東京都,多摩市,鶴牧１丁目４番地の１７いずみビル６階,,13,224,2060034,,,,,,,2026-01-16,1,,,,,グレートフル,0
76,1012403007561,新規,0,2026-01-16,2026-01-16,大日本動画合同会社,,合同会社,東京都,三鷹市,上連雀５丁目３０番２０号,,13,204,1810012,,,,,,,2026-01-16,1,,,,,ダイニッポンドウガ,0
78,1013101009908,新規,0,2026-01-16,2026-01-16,株式会社フィールドコースト,,株式会社,東京都,あきる野市,瀬戸岡５４９番地,,13,228,1970803,,,,,,,2026-01-16,1,,,,,フィールドコースト,0
80,1013303008030,新規,0,2026-01-16,2026-01-16,アルテミストラスト合同会社,,合同会社,東京都,豊島区,東池袋３丁目２０番３号,,13,116,1700013,,,,,,,2026-01-16,1,,,,,アルテミストラスト,0
85,1020001166614,新規,0,2026-01-16,2026-01-16,株式会社グリッドエンジニアラボ,,株式会社,神奈川県,横浜市旭区,南希望が丘１３３番地７５,,14,112,2410824,,,,,,,2026-01-16,1,,,,,グリッドエンジニアラボ,0
86,1020001166663,新規,0,2026-01-16,2026-01-16,株式会社ＴＩＡ,,株式会社,神奈川県,川崎市高津区,新作４丁目１２番１２号エスポワール１Ｆ,,14,134,2130014,,,,,,,2026-01-16,1,,,,,ティーアイエー,0
90,1020005017111,新規,0,2026-01-16,2026-01-16,一般社団法人ＳＫＭＴアセットデザイン,,その他の設立登記法人,神奈川県,横浜市鶴見区,梶山２丁目４番４０号,,14,101,2300072,,,,,,,2026-01-16,1,,,,,エスケーエムティーアセットデザイン,0
93,1021001087206,新規,0,2026-01-16,2026-01-16,株式会社アヴニール,,株式会社,神奈川県,厚木市,東町７番６号,,14,212,2430001,,,,,,,2026-01-16,1,,,,,アヴニール,0
94,1021001087222,新規,0,2026-01-16,2026-01-16,株式会社大浦坂工務店,,株式会社,神奈川県,相模原市中央区,田名８２９１番地４,,14,152,2520244,,,,,,,2026-01-16,1,,,,,オオウラサカコウムテン,0
95,1021001087239,新規,0,2026-01-16,2026-01-16,ベザレル湘南株式会社,,株式会社,神奈川県,藤沢市,打戻１５３０番地フォレストＢ２０１,,14,205,2520824,,,,,,,2026-01-16,1,,,,,ベザレルショウナン,0
104,1030001170615,新規,0,2026-01-16,2026-01-16,株式会社梶原プロダクツ,,株式会社,埼玉県,志木市,柏町６丁目１３番２２号,,11,228,3530007,,,,,,,2026-01-16,1,,,,,カジワラプロダクツ,0
106,1030003028448,新規,0,2026-01-16,2026-01-16,合同会社Ａ＆Ｍ,,合同会社,埼玉県,入間市,扇台３丁目９番３６号,,11,225,3580023,,,,,,,2026-01-16,1,,,,,エーアンドエム,0
109,1040001142118,新規,0,2026-01-16,2026-01-16,株式会社エムズサービス,,株式会社,千葉県,市原市,辰巳台東４丁目１１番地の３０,,12,219,2900003,,,,,,,2026-01-16,1,,,,,エムズサービス,0
112,1040003029247,新規,0,2026-01-16,2026-01-16,合同会社柏手賀沼Ｗｅｂ企画,,合同会社,千葉県,柏市,鷲野谷３５,,12,217,2701443,,,,,,,2026-01-16,1,,,,,カシワテガヌマウェブキカク,0
116,1050001057868,新規,0,2026-01-16,2026-01-16,株式会社豪羅ＣＯＭＰＡＮＹ,,株式会社,茨城県,取手市,山王１１５番地２,,08,217,3001544,,,,,,,2026-01-16,1,,,,,ゴウラカンパニー,0
118,1050003009850,新規,0,2026-01-16,2026-01-16,合同会社ケルテック冷熱,,合同会社,茨城県,牛久市,さくら台４丁目２番地１２,,08,219,3001217,,,,,,,2026-01-16,1,,,,,ケルテックレイネツ,0
119,1050005013751,新規,0,2026-01-16,2026-01-16,特定非営利活動法人自分らしく生きる支援ネットつくば,,その他の設立登記法人,茨城県,つくば市,吾妻１丁目１４－１－１１１８,,08,220,3050031,,,,,,,2026-01-16,1,,,,,ジブンラシクイキルシエンネット,0
121,1070001043742,新規,0,2026-01-16,2026-01-16,株式会社ＳＨＩＮＮイノベーション,,株式会社,群馬県,みどり市,笠懸町西鹿田３２６番地４,,10,212,3792314,,,,,,,2026-01-16,1,,,,,シンイノベーション,0
131,1100001039266,新規,0,2026-01-16,2026-01-16,株式会社Ｈａｐｐｙ　Ｈａｐｐｙ　Ｈｏｍｅ,,株式会社,長野県,北安曇郡白馬村,大字北城４７２１番地,,20,485,3999301,,,,,,,2026-01-16,1,,,,,ハッピーハッピーホーム,0
132,1100001039274,新規,0,2026-01-16,2026-01-16,ドッグラン長野株式会社,,株式会社,長野県,長野市,川中島町四ツ屋２１８番地１,,20,201,3812231,,,,,,,2026-01-16,1,,,,,ドッグランナガノ,0
138,1110003006040,新規,0,2026-01-16,2026-01-16,合同会社ｃａｂａｒｅｔ,,合同会社,新潟県,新潟市中央区,東大通１丁目１１番１２号パルコミニオンビル５階,,15,103,9500087,,,,,,,2026-01-16,1,,,,,キャバレー,0
149,1120001283416,新規,0,2026-01-16,2026-01-16,株式会社ライフイズ,,株式会社,大阪府,大阪市淀川区,東三国２丁目７番５号,,27,123,5320002,,,,,,,2026-01-16,1,,,,,ライフイズ,0
150,1120001283440,新規,0,2026-01-16,2026-01-16,株式会社ＺＥＮＩＱ,,株式会社,大阪府,大阪市中央区,農人橋２丁目１番３５号,,27,128,5400011,,,,,,,2026-01-16,1,,,,,ゼニック,0
158,1120005025351,新規,0,2026-01-16,2026-01-16,Ｋａｎｓａｉ　Ｃｏｎｓｔｒｕｃｔｉｏｎ協同組合,,その他の設立登記法人,大阪府,大阪市阿倍野区,阪南町１丁目１２番２９号,,27,119,5450021,,,,,,,2026-01-16,1,,,,,カンサイコンストラクション,0
164,1120103006939,新規,0,2026-01-16,2026-01-16,合同会社Ｔ・Ｔプランニング,,合同会社,大阪府,泉大津市,池浦町４丁目３番３６号,,27,206,5950024,,,,,,,2026-01-16,1,,,,,ティーティープランニング,0
169,1122001040086,新規,0,2026-01-16,2026-01-16,株式会社Ａｃｔ,,株式会社,大阪府,東大阪市,衣摺５丁目４番２３号クリエイティブスペースＨＡＶＥ衣摺２号,,27,227,5770827,,,,,,,2026-01-16,1,,,,,アクト,0
170,1122001040094,新規,0,2026-01-16,2026-01-16,株式会社横野組,,株式会社,大阪府,柏原市,国分西２丁目３番５９号,,27,221,5820025,,,,,,,2026-01-16,1,,,,,ヨコノグミ,0
177,1140001141349,新規,0,2026-01-16,2026-01-16,ＨＤＫ　ＤＥＳＩＧＮ　ＢＵＩＬＤ株式会社,,株式会社,兵庫県,明石市,大久保町山手台２丁目５番地の８,,28,203,6740056,,,,,,,2026-01-16,1,,,,,エイチディーケーデザインビルド,0
178,1140001141357,新規,0,2026-01-16,2026-01-16,Ｆ・ｇｒｏｗ株式会社,,株式会社,兵庫県,神戸市西区,伊川谷町潤和９１４番地１０,,28,111,6512124,,,,,,,2026-01-16,1,,,,,エフグロウ,0
183,1140003023066,新規,0,2026-01-16,2026-01-16,合同会社ＦＵＪＩＴＡ,,合同会社,兵庫県,加古川市,加古川町木村２６４番地の８,,28,210,6750038,,,,,,,2026-01-16,1,,,,,フジタ,0
184,1140003023082,新規,0,2026-01-16,2026-01-16,合同会社８,,合同会社,兵庫県,明石市,西新町１丁目８番１３号,,28,203,6730023,,,,,,,2026-01-16,1,,,,,エイト,0
187,1150003003810,新規,0,2026-01-16,2026-01-16,ＳＨＩＮ合同会社,,合同会社,奈良県,吉野郡天川村,大字坪内２１番地の１,,29,446,6380321,,,,,,,2026-01-16,1,,,,,シン,0
198,1180001170286,新規,0,2026-01-16,2026-01-16,ＯＲＩＧＡＭＩ株式会社,,株式会社,愛知県,名古屋市名東区,明が丘２３番地プラウド藤が丘センターマークス５０１号,,23,115,4650033,,,,,,,2026-01-16,1,,,,,オリガミ,0
199,1180001170294,新規,0,2026-01-16,2026-01-16,株式会社ケイグロース,,株式会社,愛知県,名古屋市中区,栄３丁目１５番３３号栄ガスビル１３階,,23,106,4600008,,,,,,,2026-01-16,1,,,,,ケイグロース,0
200,1180001170311,新規,0,2026-01-16,2026-01-16,株式会社Ｏ．Ｎ．Ｅ．,,株式会社,愛知県,半田市,乙川一色町８番地,,23,205,4750056,,,,,,,2026-01-16,1,,,,,オーエヌイー,0
201,1180001170344,新規,0,2026-01-16,2026-01-16,株式会社サブサポ,,株式会社,愛知県,名古屋市中村区,太閤通８丁目３０,,23,105,4530811,,,,,,,2026-01-16,1,,,,,サブサポ,0
202,1180003029613,新規,0,2026-01-16,2026-01-16,合同会社白壁浄心ＳＴＡＹ,,合同会社,愛知県,名古屋市東区,白壁３丁目３－３０ラ・モヴェール白壁２０７,,23,102,4610011,,,,,,,2026-01-16,1,,,,,シラカベジョウシンステイ,0
204,1180305009759,新規,0,2026-01-16,2026-01-16,一般社団法人太陽の木,,その他の設立登記法人,愛知県,豊田市,東梅坪町１０丁目５番地８,,23,211,4710071,,,,,,,2026-01-16,1,,,,,タイヨウノキ,0
207,1210001020462,新規,0,2026-01-16,2026-01-16,株式会社ＹＡＭＡＳＥＩ,,株式会社,福井県,福井市,渡町３０４番,,18,201,9188066,,,,,,,2026-01-16,1,,,,,ヤマセイ,0
211,1230005009517,新規,0,2026-01-16,2026-01-16,一般社団法人Ｌａ・Ｆａｍｉｌｌｅ,,その他の設立登記法人,富山県,射水市,中村１３７番地１,,16,211,9390241,,,,,,,2026-01-16,1,,,,,ラファミーユ,0
218,1240001066065,新規,0,2026-01-16,2026-01-16,株式会社エフェクト,,株式会社,広島県,広島市佐伯区,八幡東３丁目９番１３号,,34,108,7315115,,,,,,,2026-01-16,1,,,,,エフェクト,0
231,1290001112723,新規,0,2026-01-16,2026-01-16,株式会社ＧＬＯＷ　ＵＰ,,株式会社,福岡県,福岡市博多区,店屋町６番６号モダンビューロ店屋町７０２号,,40,132,8120025,,,,,,,2026-01-16,1,,,,,グローアップ,0
232,1290001112731,新規,0,2026-01-16,2026-01-16,株式会社あらたひ,,株式会社,福岡県,福岡市南区,清水２丁目８番２０－５０２号,,40,134,8150031,,,,,,,2026-01-16,1,,,,,アラタヒ,0
233,1290001112748,新規,0,2026-01-16,2026-01-16,株式会社こと,,株式会社,福岡県,福岡市中央区,渡辺通５丁目２番１０－２０２号,,40,133,8100004,,,,,,,2026-01-16,1,,,,,コト,0
234,1290001112780,新規,0,2026-01-16,2026-01-16,株式会社エーアイプロシステム,,株式会社,福岡県,福岡市博多区,上呉服町１０番１号博多三井ビルディング,,40,132,8120036,,,,,,,2026-01-16,1,,,,,エーアイプロシステム,0
240,1290801032179,新規,0,2026-01-16,2026-01-16,株式会社プラスアップ,,株式会社,福岡県,田川郡福智町,金田１９９７番地１,,40,610,8221201,,,,,,,2026-01-16,1,,,,,プラスアップ,0
241,1290805009900,新規,0,2026-01-16,2026-01-16,一般社団法人リュッカリーヴ,,その他の設立登記法人,福岡県,北九州市小倉北区,上到津２丁目８番１４号波多野ハイツ２０２号室,,40,106,8030845,,,,,,,2026-01-16,1,,,,,リュッカリーヴ,0
258,1340003005069,新規,0,2026-01-16,2026-01-16,合同会社ｓａｎｇｏ,,合同会社,鹿児島県,鹿屋市,輝北町諏訪原４５７４,,46,203,8998512,,,,,,,2026-01-16,1,,,,,サンゴ,0
259,1370001053397,新規,0,2026-01-16,2026-01-16,株式会社やおぞう,,株式会社,宮城県,仙台市若林区,若林２丁目３番４０号パレヴェルジェアイ６０６,,04,103,9840826,,,,,,,2026-01-16,1,,,,,ヤオゾウ,0
260,1370001053406,新規,0,2026-01-16,2026-01-16,株式会社斎藤エンブリッジ,,株式会社,宮城県,仙台市青葉区,一番町１丁目１２番２－５０３号,,04,101,9800811,,,,,,,2026-01-16,1,,,,,サイトウエンブリッジ,0
261,1370003007442,新規,0,2026-01-16,2026-01-16,ケーエー合同会社,,合同会社,宮城県,仙台市青葉区,大町２丁目１１番１１号,,04,101,9800804,,,,,,,2026-01-16,1,,,,,ケーエー,0
262,1370005011062,新規,0,2026-01-16,2026-01-16,特定非営利活動法人ｄｒｉｐ,,その他の設立登記法人,宮城県,仙台市青葉区,宮町２丁目１番７８－４０５号,,04,101,9800004,,,,,,,2026-01-16,1,,,,,ドリップ,0
269,1410003004204,新規,0,2026-01-16,2026-01-16,ＩＭＰＯＲＴ　ＰＲＩＭＥ合同会社,,合同会社,秋田県,湯沢市,山田字荻生田２６番地２,,05,207,0120055,,,,,,,2026-01-16,1,,,,,インポートプライム,0
270,1430001096084,新規,0,2026-01-16,2026-01-16,株式会社ＡＲＫＲ,,株式会社,北海道,札幌市西区,西野五条３丁目１番２０号,,01,107,0630035,,,,,,,2026-01-16,1,,,,,アーカー,0
271,1430003018499,新規,0,2026-01-16,2026-01-16,エムケアグループ合同会社,,合同会社,北海道,札幌市西区,八軒五条西３丁目１番７号,,01,107,0630845,,,,,,,2026-01-16,1,,,,,エムケアグループ,0
282,1460101007806,新規,0,2026-01-16,2026-01-16,株式会社元気工場,,株式会社,北海道,上川郡清水町,御影西二条３丁目１３番地,,01,636,0890352,,,,,,,2026-01-16,1,,,,,ゲンキコウジョウ,0
285,1500001026728,新規,0,2026-01-16,2026-01-16,株式会社Ｔｏｔａｌ　Ｃａｒ　Ｂｅａｕｔｙカルヴォ,,株式会社,愛媛県,松山市,小村町８２－４,,38,201,7911125,,,,,,,2026-01-16,1,,,,,トータルカービューティカルヴォ,0
288,1700150133957,新規,0,2026-01-16,2026-01-16,Ｇａｆ　Ｅｎｔｅｒｐｒｉｓｅｓ　ＬＴＤ,,外国会社等,,,,,,,,１６　Ｗａｒｗｉｃｋ　ｒｏａｄ，Ｗｅｓｔ　Ｄｒａｙｔｏｎ，ＵＢ７　９ＢＺ　ＧＢ,,,,,,2026-01-16,1,,,,,ガフエンタープライゼズリミテッド,0
293,2010001261679,新規,0,2026-01-16,2026-01-16,株式会社ＪＩＡ　ＣＲＥＡＴＩＶＥ,,株式会社,東京都,中央区,日本橋堀留町１丁目１０番１号カクタビル２Ｆ,,13,102,1030012,,,,,,,2026-01-16,1,,,,,ジアクリエイティブ,0
294,2010005041219,新規,0,2026-01-16,2026-01-16,弁護士法人太田,,その他の設立登記法人,東京都,千代田区,日比谷公園一丁目３番,,13,101,1000012,,,,,,,2026-01-16,1,,,,,オオタ,0
295,2010005041235,新規,0,2026-01-16,2026-01-16,一般社団法人プラスツー,,その他の設立登記法人,東京都,千代田区,丸の内１丁目４番１号東京共同会計事務所内,,13,101,1000005,,,,,,,2026-01-16,1,,,,,プラスツー,0
302,2010401195667,新規,0,2026-01-16,2026-01-16,株式会社高速エレベーター,,株式会社,東京都,港区,赤坂５丁目２－３３ＩｓａＩＡｋａｓａｋＡ５１０,,13,103,1070052,,,,,,,2026-01-16,1,,,,,コウソクエレベーター,0
303,2010403037066,新規,0,2026-01-16,2026-01-16,合同会社メディスジャパン,,合同会社,東京都,港区,麻布十番２丁目２１－６アクシア麻布１９０１,,13,103,1060045,,,,,,,2026-01-16,1,,,,,メディスジャパン,0
305,2010405025218,新規,0,2026-01-16,2026-01-16,一般社団法人気候ソリューションズ,,その他の設立登記法人,東京都,港区,虎ノ門１丁目１７番１号虎ノ門ヒルズビジネスタワー１５階,,13,103,1050001,,,,,,,2026-01-16,1,,,,,キコウソリューションズ,0
307,2010503008140,新規,0,2026-01-16,2026-01-16,合同会社ＫＢＴＨ,,合同会社,東京都,台東区,台東３丁目２０番２号アーバンステージ御徒町１０２,,13,106,1100016,,,,,,,2026-01-16,1,,,,,ケービーティーエイチ,0
318,2011001174862,新規,0,2026-01-16,2026-01-16,株式会社Ｆｌｏｗ,,株式会社,東京都,目黒区,下目黒１丁目１番１４号コノトラビル７Ｆ,,13,110,1530064,,,,,,,2026-01-16,1,,,,,フロウ,0
324,2011101114388,新規,0,2026-01-16,2026-01-16,トリプルビー株式会社,,株式会社,東京都,新宿区,新宿２丁目８番１５－１２０１号,,13,104,1600022,,,,,,,2026-01-16,1,,,,,トリプルビー,0
325,2011101114438,新規,0,2026-01-16,2026-01-16,株式会社ゴールデントパーズ,,株式会社,東京都,新宿区,天神町１３番地１ＡＩＦＬＡＴ神楽坂１００１,,13,104,1620808,,,,,,,2026-01-16,1,,,,,ゴールデントパーズ,0
330,2011201026905,新規,0,2026-01-16,2026-01-16,株式会社アクアプロデュース彩,,株式会社,東京都,中野区,中野３丁目４８番２１号,,13,114,1640001,,,,,,,2026-01-16,1,,,,,アクアプロデュースサイ,0
331,2011203004933,新規,0,2026-01-16,2026-01-16,合同会社セットリスト,,合同会社,東京都,中野区,中央３丁目９番５号,,13,114,1640011,,,,,,,2026-01-16,1,,,,,セットリスト,0
343,2011501032982,新規,0,2026-01-16,2026-01-16,Ｙ　Ｈｏｒｉｚｏｎ株式会社,,株式会社,東京都,荒川区,東日暮里５丁目５０－５アパートホテル日暮里ラングウッド３階,,13,118,1160014,,,,,,,2026-01-16,1,,,,,ワイホライゾン,0
345,2011503006836,新規,0,2026-01-16,2026-01-16,合同会社ネオライトワークス,,合同会社,東京都,北区,赤羽１丁目７番９号赤羽第一葉山ビル４Ｆ,,13,117,1150045,,,,,,,2026-01-16,1,,,,,ネオライトワークス,0
354,2011801047318,新規,0,2026-01-16,2026-01-16,株式会社阿部養庵エイジングバイオサイエンス,,株式会社,東京都,足立区,関原３丁目５番８号,,13,121,1230852,,,,,,,2026-01-16,1,,,,,アベヨウアンエイジングバイオサイエンス,0
355,2012401044003,新規,0,2026-01-16,2026-01-16,株式会社木下企画,,株式会社,東京都,武蔵野市,吉祥寺北町１丁目１７番２号,,13,203,1800001,,,,,,,2026-01-16,1,,,,,キノシタキカク,0
356,2012401044028,新規,0,2026-01-16,2026-01-16,株式会社Ｂ・Ｅ　Ｓｐｏｒｔｓ,,株式会社,東京都,調布市,国領町４丁目３５番２号１階,,13,208,1820022,,,,,,,2026-01-16,1,,,,,ビーイースポーツ,0
358,2012403007569,新規,0,2026-01-16,2026-01-16,Ｎａｉｔｏ　Ａｄｖｉｓｏｒｙ合同会社,,合同会社,東京都,三鷹市,中原２丁目２５番５号,,13,204,1810005,,,,,,,2026-01-16,1,,,,,ナイトウアドバイザリー,0
359,2012701019274,新規,0,2026-01-16,2026-01-16,株式会社７６３企画,,株式会社,東京都,東久留米市,大門町２丁目６番４号ライオンズマンション東久留米２０４,,13,222,2030011,,,,,,,2026-01-16,1,,,,,ナルミキカク,0
372,2020001166522,新規,0,2026-01-16,2026-01-16,やぎはね不動産株式会社,,株式会社,神奈川県,横浜市緑区,霧が丘１丁目１８番地１２,,14,113,2260016,,,,,,,2026-01-16,1,,,,,,0
373,2020001166687,新規,0,2026-01-16,2026-01-16,ＳＣＩ総合研究所株式会社,,株式会社,神奈川県,横浜市神奈川区,金港町５－１４クアドリフォリオ８階,,14,102,2210056,,,,,,,2026-01-16,1,,,,,エスシーアイソウゴウケンキュウジョ,0
374,2020001166720,新規,0,2026-01-16,2026-01-16,株式会社インターアース,,株式会社,神奈川県,横浜市港北区,新横浜２丁目１４番地３０,,14,109,2220033,,,,,,,2026-01-16,1,,,,,インターアース,0
382,2021001087238,新規,0,2026-01-16,2026-01-16,株式会社Ｒｉｂｂｏｎ　Ｖｏｙａｇｅ,,株式会社,神奈川県,相模原市緑区,橋本６丁目２７番２号,,14,151,2520143,,,,,,,2026-01-16,1,,,,,リボンボヤージュ,0
406,2040003029262,新規,0,2026-01-16,2026-01-16,Ｍ‐Ａｅｓｔｈｅｔｉｃａ合同会社,,合同会社,千葉県,八千代市,大和田新田４９６番地２２,,12,221,2760046,,,,,,,2026-01-16,1,,,,,エムエステティカ,0
407,2040003029304,新規,0,2026-01-16,2026-01-16,合同会社プロメンズ建築設計事務所,,合同会社,千葉県,千葉市緑区,おゆみ野南２丁目２７番地４タウンカテッジおゆみ野レジデンスイーストＢ号室,,12,105,2660033,,,,,,,2026-01-16,1,,,,,プロメンズケンチクセッケイジムショ,0
409,2050001057859,新規,0,2026-01-16,2026-01-16,ミュータブルプロパティ株式会社,,株式会社,茨城県,つくば市,竹園１丁目２番地１レーベンつくばＣＯＲＩＳ８２１号,,08,220,3050032,,,,,,,2026-01-16,1,,,,,ミュータブルプロパティ,0
410,2050001057867,新規,0,2026-01-16,2026-01-16,株式会社篠原ライスファーム,,株式会社,茨城県,常陸太田市,谷河原町６４６番地,,08,212,3130043,,,,,,,2026-01-16,1,,,,,シノハラライスファーム,0
417,2080101026034,新規,0,2026-01-16,2026-01-16,株式会社アジロテック,,株式会社,静岡県,熱海市,網代１９５,,22,205,4130103,,,,,,,2026-01-16,1,,,,,アジロテック,0
420,2100001039273,新規,0,2026-01-16,2026-01-16,株式会社くじらＡＩワークス,,株式会社,長野県,長野市,大字鶴賀上千歳町１１３７番地２３リアライズ長野ビル２階,,20,201,3800821,,,,,,,2026-01-16,1,,,,,クジラエーアイワークス,0
435,2120001283349,新規,0,2026-01-16,2026-01-16,株式会社アストラルシード,,株式会社,大阪府,大阪市中央区,龍造寺町４－３,,27,128,5400014,,,,,,,2026-01-16,1,,,,,アストラルシード,0
436,2120001283373,新規,0,2026-01-16,2026-01-16,株式会社大末１８９７,,株式会社,大阪府,大阪市天王寺区,上本町６丁目９－２１,,27,109,5430001,,,,,,,2026-01-16,1,,,,,ダイスエイチハチキュウナナ,0
437,2120001283415,新規,0,2026-01-16,2026-01-16,株式会社ＭＥＧＡＮＥＴＨ,,株式会社,大阪府,大阪市旭区,清水３丁目４番９号,,27,117,5350021,,,,,,,2026-01-16,1,,,,,メガネス,0
441,2120003031648,新規,0,2026-01-16,2026-01-16,ＬＡＣＯＮＳＴＡＲ合同会社,,合同会社,大阪府,大阪市中央区,瓦屋町１丁目１１番１８号スピカコート２Ｆ,,27,128,5420066,,,,,,,2026-01-16,1,,,,,ラコンスター,0
442,2120003031672,新規,0,2026-01-16,2026-01-16,合同会社アシスト,,合同会社,大阪府,大阪市西区,江之子島１丁目７－３奥内阿波座駅前ビル４０１,,27,106,5500006,,,,,,,2026-01-16,1,,,,,アシスト,0
443,2120003031722,新規,0,2026-01-16,2026-01-16,Ｖｏｉｄ合同会社,,合同会社,大阪府,大阪市北区,梅田１丁目２番２号大阪駅前第２ビル１２‐１２,,27,127,5300001,,,,,,,2026-01-16,1,,,,,ヴォイド,0
444,2120005025350,新規,0,2026-01-16,2026-01-16,医療法人仁徳会,,その他の設立登記法人,大阪府,大阪市中央区,島之内１丁目１５番１０号アイテックスエコービル７Ｆ,,27,128,5420082,,,,,,,2026-01-16,1,,,,,ジントクカイ,0
454,2122001040085,新規,0,2026-01-16,2026-01-16,株式会社ＫＩＳＨＩＲＯ,,株式会社,大阪府,東大阪市,森河内東１丁目１２番１６号,,27,227,5770062,,,,,,,2026-01-16,1,,,,,キシロ,0
455,2122001040093,新規,0,2026-01-16,2026-01-16,株式会社ＲＥ‐ｖｉｖｅ,,株式会社,大阪府,八尾市,太田２丁目２１４番地,,27,212,5810037,,,,,,,2026-01-16,1,,,,,リバイブ,0
456,2130001081388,新規,0,2026-01-16,2026-01-16,ＡＮＣ株式会社,,株式会社,京都府,京都市中京区,壬生朱雀町８番１３,,26,104,6048871,,,,,,,2026-01-16,1,,,,,エーエヌシー,0
458,2130003011070,新規,0,2026-01-16,2026-01-16,合同会社ＫＡＺＥＴＯＮＡＧＩ,,合同会社,京都府,京都市右京区,嵯峨折戸町３番地２０,,26,108,6168345,,,,,,,2026-01-16,1,,,,,カゼトナギ,0
459,2130005017561,新規,0,2026-01-16,2026-01-16,一般社団法人シュナモア,,その他の設立登記法人,京都府,京都市下京区,七条通油小路東入大黒町２２７番地第２キョートビル４０２,,26,106,6008223,,,,,,,2026-01-16,1,,,,,シュナモア,0
462,2140001141356,新規,0,2026-01-16,2026-01-16,株式会社杉浦技巧,,株式会社,兵庫県,高砂市,阿弥陀町魚橋１０１６番地の５、２０３号,,28,216,6760822,,,,,,,2026-01-16,1,,,,,スギウラギコウ,0
463,2140001141364,新規,0,2026-01-16,2026-01-16,株式会社Ｋ’ｓ　ｃｏｍｐａｎｙ,,株式会社,兵庫県,神戸市長田区,腕塚町８丁目３番１２号,,28,106,6530036,,,,,,,2026-01-16,1,,,,,ケーズカンパニー,0
464,2140001141372,新規,0,2026-01-16,2026-01-16,株式会社Ｌａ・Ｐａｔｒｉｅ,,株式会社,兵庫県,明石市,本町１丁目６番１３号明石ＣＢビルディング３階,,28,203,6730892,,,,,,,2026-01-16,1,,,,,ラパトリ,0
467,2140003023081,新規,0,2026-01-16,2026-01-16,合同会社Ｄｉｇｉｔａｌ　Ｐａｒｔｎｅｒｓ,,合同会社,兵庫県,神戸市中央区,磯辺通１丁目１番１８号カサベラ国際プラザビル７０７号室,,28,110,6510084,,,,,,,2026-01-16,1,,,,,デジタルパートナーズ,0
471,2160001027363,新規,0,2026-01-16,2026-01-16,ＭＳＣ株式会社,,株式会社,滋賀県,草津市,桜ケ丘５丁目１０番１号,,25,206,5250057,,,,,,,2026-01-16,1,,,,,エムエスシー,0
472,2170003002371,新規,0,2026-01-16,2026-01-16,合同会社メディウエスト,,合同会社,和歌山県,和歌山市,園部７６９番地,,30,201,6408483,,,,,,,2026-01-16,1,,,,,メディウエスト,0
476,2180001170285,新規,0,2026-01-16,2026-01-16,ＬＵＭＩＴＯ株式会社,,株式会社,愛知県,名古屋市東区,代官町３７番２２号ラトゥール代官町ＷＥＳＴ１４０１号,,23,102,4610002,,,,,,,2026-01-16,1,,,,,ルミット,0
477,2180001170293,新規,0,2026-01-16,2026-01-16,株式会社ユタカテック,,株式会社,愛知県,名古屋市西区,那古野２丁目１４番１号なごのキャンパス内,,23,104,4510042,,,,,,,2026-01-16,1,,,,,ユタカテック,0
478,2180001170310,新規,0,2026-01-16,2026-01-16,株式会社みどり不動産,,株式会社,愛知県,名古屋市緑区,浦里２丁目１番地,,23,114,4580847,,,,,,,2026-01-16,1,,,,,ミドリフドウサン,0
479,2180001170335,新規,0,2026-01-16,2026-01-16,株式会社ＴＥＮＲＥＸ．,,株式会社,愛知県,名古屋市中区,上前津１丁目１０－１,,23,106,4600013,,,,,,,2026-01-16,1,,,,,テンレックス,0
485,2180003029620,新規,0,2026-01-16,2026-01-16,合同会社いちかばちか,,合同会社,愛知県,名古屋市北区,柳原１丁目１１番７号,,23,103,4620845,,,,,,,2026-01-16,1,,,,,イチカバチカ,0
500,2230001021235,新規,0,2026-01-16,2026-01-16,株式会社ＭｉｙａＶｉ,,株式会社,富山県,富山市,山室荒屋１５番地２６８,,16,201,9398022,,,,,,,2026-01-16,1,,,,,ミヤビ,0
501,2230001021251,新規,0,2026-01-16,2026-01-16,株式会社ＰＡＲＡＤＯＸ,,株式会社,富山県,下新川郡朝日町,境１２０７番地１,,16,343,9390704,,,,,,,2026-01-16,1,,,,,パラドックス,0
509,2290001112730,新規,0,2026-01-16,2026-01-16,株式会社エムケイ,,株式会社,福岡県,糸島市,志摩芥屋９４番地５,,40,230,8191335,,,,,,,2026-01-16,1,,,,,エムケイ,0
510,2290001112755,新規,0,2026-01-16,2026-01-16,株式会社Ｔ‐Ｌｉｎｅ,,株式会社,福岡県,久留米市,東合川４丁目１番４０号,,40,203,8390809,,,,,,,2026-01-16,1,,,,,ティーライン,0
511,2290001112763,新規,0,2026-01-16,2026-01-16,株式会社フィーロ,,株式会社,福岡県,福岡市東区,香椎浜４丁目７番１－８０１号,,40,131,8130016,,,,,,,2026-01-16,1,,,,,フィーロ,0
516,2290803005256,新規,0,2026-01-16,2026-01-16,合同会社ｏｃｔａ,,合同会社,福岡県,北九州市小倉北区,西港町９４番６号１Ｆ,,40,106,8030801,,,,,,,2026-01-16,1,,,,,オクタ,0
517,2300001014479,新規,0,2026-01-16,2026-01-16,株式会社そらりく,,株式会社,佐賀県,神埼郡吉野ヶ里町,吉田８２番６号,,41,327,8420031,,,,,,,2026-01-16,1,,,,,ソラリク,0
525,2340003005068,新規,0,2026-01-16,2026-01-16,ＩＤＥＡＤＡＭ合同会社,,合同会社,鹿児島県,鹿児島市,南林寺町２９番８号プレーリーＩＩ６０１号,00142203,46,201,8920834,,,,,,,2026-01-16,1,,,,,アイデアダム,0
527,2350001019903,新規,0,2026-01-16,2026-01-16,株式会社エメラルド,,株式会社,宮崎県,宮崎市,大塚町馬場崎３５７８番地１,,45,201,8800951,,,,,,,2026-01-16,1,,,,,エメラルド,0
536,2370001053405,新規,0,2026-01-16,2026-01-16,株式会社ＳＯＭＡ建築,,株式会社,宮城県,仙台市青葉区,中山９丁目７番２２号,,04,101,9810952,,,,,,,2026-01-16,1,,,,,ソマケンチク,0
546,2410001014360,新規,0,2026-01-16,2026-01-16,株式会社小春Ｐｌａｎｎｉｎｇ　Ｌａｂ,,株式会社,秋田県,由利本荘市,石脇字田尻野３６－２１９－Ｂ,,05,210,0150013,,,,,,,2026-01-16,1,,,,,コハルプランニングラボ,0
547,2410003004203,新規,0,2026-01-16,2026-01-16,それいけ合同会社,,合同会社,秋田県,湯沢市,山田字荻生田２６番地２,,05,207,0120055,,,,,,,2026-01-16,1,,,,,ソレイケ,0
548,2420003003229,新規,0,2026-01-16,2026-01-16,合同会社はちケア,,合同会社,青森県,八戸市,南類家２丁目１番３号,,02,203,0310004,,,,,,,2026-01-16,1,,,,,ハチケア,0
554,2430001096034,新規,0,2026-01-16,2026-01-16,札幌正直不動産株式会社,,株式会社,北海道,札幌市南区,澄川一条２丁目４番２０－２０１号,,01,106,0050001,,,,,,,2026-01-16,1,,,,,サッポロショウジキフドウサン,0
555,2430001096059,新規,0,2026-01-16,2026-01-16,株式会社Ｂｅソリューションズ,,株式会社,北海道,滝川市,流通団地１丁目５番２５号,,01,225,0730025,,,,,,,2026-01-16,1,,,,,ビーソリューションズ,0
570,2500001026727,新規,0,2026-01-16,2026-01-16,株式会社ＡＮＣＨＯＲ　ＢＡＳＥ,,株式会社,愛媛県,松山市,千舟町４丁目３番７号青野ビル１Ｆ,,38,201,7900011,,,,,,,2026-01-16,1,,,,,アンカーベース,0
573,2500003003658,新規,0,2026-01-16,2026-01-16,天音合同会社,,合同会社,愛媛県,四国中央市,妻鳥町９５５－１,,38,213,7990113,,,,,,,2026-01-16,1,,,,,,0
578,2700150133956,新規,0,2026-01-16,2026-01-16,ＳＨＥＮＧＦＥＮＧ　ＩＮＤＵＳＴＲＹ（ＨＫ）ＬＩＭＩＴＥＤ,,外国会社等,,,,,,,,ＵＮＩＴ　０８，１５／Ｆ　ＷＩＴＴＹ　ＣＯＭＭ　ＢＬＤＧ　１Ａ－１Ｌ　ＴＵＮＧ　ＣＨＯＩ　ＳＴＲＥＥＴ，ＫＬＮ　ＨＯＮＧ　ＫＯＮＧ,,,,,,2026-01-16,1,,,,,シェンフォンインダストリーホンコンリミテッド,0
585,3010001261612,新規,0,2026-01-16,2026-01-16,株式会社ウエルキヤノンドライブ,,株式会社,東京都,千代田区,神田三崎町１丁目１番２号宮本ビル３Ｆ,,13,101,1010061,,,,,,,2026-01-16,1,,,,,ウエルキヤノンドライブ,0
586,3010001261629,新規,0,2026-01-16,2026-01-16,株式会社ＳＥＲＩＮＯ,,株式会社,東京都,千代田区,神田須田町１丁目２４番地２１,,13,101,1010041,,,,,,,2026-01-16,1,,,,,セリノ,0
587,3010001261942,新規,0,2026-01-16,2026-01-16,株式会社アシストリンクテクノロジー,,株式会社,東京都,千代田区,九段北４丁目２番１号,,13,101,1020073,,,,,,,2026-01-16,1,,,,,アシストリンクテクノロジー,0
590,3010003049898,新規,0,2026-01-16,2026-01-16,合同会社セブン商事,,合同会社,東京都,中央区,日本橋室町１丁目１１番１２号日本橋水野ビル７階,,13,102,1030022,,,,,,,2026-01-16,1,,,,,セブンショウジ,0
591,3010003049956,新規,0,2026-01-16,2026-01-16,合同会社レインボー,,合同会社,東京都,中央区,日本橋１丁目４番１号,,13,102,1030027,,,,,,,2026-01-16,1,,,,,レインボー,0
592,3010005041168,新規,0,2026-01-16,2026-01-16,一般社団法人在日シンガポール商工会議所,,その他の設立登記法人,東京都,千代田区,平河町２丁目４番４号,,13,101,1020093,,,,,,,2026-01-16,1,,,,,ザイニチシンガポール,0
593,3010005041226,新規,0,2026-01-16,2026-01-16,一般社団法人ＮＵ‐１２,,その他の設立登記法人,東京都,千代田区,九段南３丁目７番７号成和綜合会計事務所内,,13,101,1020074,,,,,,,2026-01-16,1,,,,,エヌユージュウニ,0
594,3010101017039,新規,0,2026-01-16,2026-01-16,株式会社ＩＴＡ,,株式会社,東京都,八王子市,楢原町８４４番地９,,13,201,1930803,,,,,,,2026-01-16,1,,,,,アイティーエー,0
599,3010401195749,新規,0,2026-01-16,2026-01-16,株式会社ヌエ・プロダクション,,株式会社,東京都,港区,南青山３丁目１番３６号青山丸竹ビル６Ｆ,,13,103,1070062,,,,,,,2026-01-16,1,,,,,ヌエプロダクション,0
600,3010401195781,新規,0,2026-01-16,2026-01-16,コールド電力株式会社,,株式会社,東京都,港区,浜松町２丁目２番１５号浜松町ダイヤビル２Ｆ,,13,103,1050013,,,,,,,2026-01-16,1,,,,,コールドデンリョク,0
601,3010401195807,新規,0,2026-01-16,2026-01-16,シリウス・キャピタル・プロパティ株式会社,,株式会社,東京都,港区,南青山３丁目１番３６号青山丸竹ビル６階,,13,103,1070062,,,,,,,2026-01-16,1,,,,,シリウスキャピタルプロパティ,0
602,3010401195831,新規,0,2026-01-16,2026-01-16,株式会社Ｊ＆Ｊマーケティング,,株式会社,東京都,港区,六本木７丁目１５番１３号,,13,103,1060032,,,,,,,2026-01-16,1,,,,,ジェイアンドジェイマーケティング,0
603,3010401195856,新規,0,2026-01-16,2026-01-16,株式会社ｉｎｏｆｏｌｉｏ,,株式会社,東京都,港区,東麻布２丁目６番９号,,13,103,1060044,,,,,,,2026-01-16,1,,,,,イノフォリオ,0
606,3010501055217,新規,0,2026-01-16,2026-01-16,株式会社アースホッパー,,株式会社,東京都,台東区,小島２丁目２０番１１小島ビル,,13,106,1110056,,,,,,,2026-01-16,1,,,,,アースホッパー,0
613,3010701048895,新規,0,2026-01-16,2026-01-16,株式会社かりたに,,株式会社,東京都,品川区,大井５丁目２７番１－４０３号,,13,109,1400014,,,,,,,2026-01-16,1,,,,,カリタニ,0
615,3010705003847,新規,0,2026-01-16,2026-01-16,一般社団法人公和,,その他の設立登記法人,東京都,品川区,上大崎３丁目１番１号目黒セントラルスクエア１５階,,13,109,1410021,,,,,,,2026-01-16,1,,,,,コウワ,0
625,3011003023331,新規,0,2026-01-16,2026-01-16,ＩＭＡ合同会社,,合同会社,東京都,目黒区,目黒１丁目２４番１６号マイキャッスル目黒１２０１,,13,110,1530063,,,,,,,2026-01-16,1,,,,,イマ,0
632,3011101114429,新規,0,2026-01-16,2026-01-16,ＡＱＵＡ株式会社,,株式会社,東京都,新宿区,百人町２丁目５－４土屋ビル２Ｆ,,13,104,1690073,,,,,,,2026-01-16,1,,,,,アクア,0
633,3011101114453,新規,0,2026-01-16,2026-01-16,株式会社ＫＡＩＳＡ,,株式会社,東京都,新宿区,南元町１５－５９Ｈｉｒａｔａ,,13,104,1600012,,,,,,,2026-01-16,1,,,,,カイサ,0
636,3011205002728,新規,0,2026-01-16,2026-01-16,一般社団法人Ａｙａｎａｉ,,その他の設立登記法人,東京都,中野区,江原町３丁目５番１６号,,13,114,1650023,,,,,,,2026-01-16,1,,,,,アヤナイ,0
649,3011701029092,新規,0,2026-01-16,2026-01-16,株式会社茂山工務店,,株式会社,東京都,江戸川区,西葛西８丁目３番５号,,13,123,1340088,,,,,,,2026-01-16,1,,,,,シゲヤマコウムテン,0
652,3011801047300,新規,0,2026-01-16,2026-01-16,株式会社エス・ハーモニー,,株式会社,東京都,足立区,竹の塚３丁目１３番６号,,13,121,1210813,,,,,,,2026-01-16,1,,,,,エスハーモニー,0
653,3011801047317,新規,0,2026-01-16,2026-01-16,株式会社阿部養庵ホールディングス,,株式会社,東京都,足立区,関原３丁目５番８号,,13,121,1230852,,,,,,,2026-01-16,1,,,,,アベヨウアンホールディングス,0
661,3012801024470,新規,0,2026-01-16,2026-01-16,株式会社ＫＫサービス,,株式会社,東京都,立川市,柴崎町２丁目１４番２５号セゾン３０１,,13,202,1900023,,,,,,,2026-01-16,1,,,,,ケーケーサービス,0
676,3020001166653,新規,0,2026-01-16,2026-01-16,株式会社ＦＯＲＥＳＴＹ,,株式会社,神奈川県,川崎市高津区,千年３８番地１,,14,134,2130022,,,,,,,2026-01-16,1,,,,,フォレスティー,0
677,3020001166678,新規,0,2026-01-16,2026-01-16,株式会社オーサムクリーン,,株式会社,神奈川県,横浜市神奈川区,菅田町１０５３番地６,,14,102,2210864,,,,,,,2026-01-16,1,,,,,オーサムクリーン,0
678,3020001166777,新規,0,2026-01-16,2026-01-16,ＡＮＪＯラボ株式会社,,株式会社,神奈川県,横浜市神奈川区,金港町５－１４クアドリフォリオ８階,,14,102,2210056,,,,,,,2026-01-16,1,,,,,アンジョウラボ,0
686,3021001087253,新規,0,2026-01-16,2026-01-16,株式会社Ｗｏｏｄｓ　Ｕｐ,,株式会社,神奈川県,綾瀬市,深谷上８丁目２２番６号,,14,218,2521108,,,,,,,2026-01-16,1,,,,,ウッズアップ,0
697,3030005022389,新規,0,2026-01-16,2026-01-16,税理士法人サンタックス,,その他の設立登記法人,埼玉県,所沢市,大字北秋津５６番地,,11,208,3590038,,,,,,,2026-01-16,1,,,,,サンタックス,0
700,3040001142041,新規,0,2026-01-16,2026-01-16,株式会社外国人専門技能講習センター,,株式会社,千葉県,市原市,辰巳台東５丁目１１番地１辰巳台東寮,,12,219,2900003,,,,,,,2026-01-16,1,,,,,ガイコクジンセンモンギノウコウシュウセンター,0
701,3040001142058,新規,0,2026-01-16,2026-01-16,ＣＢ１株式会社,,株式会社,千葉県,市川市,本北方３丁目１２番１号みのり荘１０１号室,,12,203,2720816,,,,,,,2026-01-16,1,,,,,シービーワン,0
702,3040001142082,新規,0,2026-01-16,2026-01-16,クボエンジ株式会社,,株式会社,千葉県,千葉市花見川区,三角町６３８番地１,,12,102,2620011,,,,,,,2026-01-16,1,,,,,クボエンジ,0
703,3040001142108,新規,0,2026-01-16,2026-01-16,株式会社丸喜,,株式会社,千葉県,印西市,浦部１番地４,,12,231,2701367,,,,,,,2026-01-16,1,,,,,マルキ,0
705,3040005023015,新規,0,2026-01-16,2026-01-16,医療法人社団参星会,,その他の設立登記法人,千葉県,船橋市,本町１丁目３１番５号レオセントラルスクエアＩＩ２階,00142224,12,204,2730005,,,,,,,2026-01-16,1,,,,,シンセイカイ,0
710,3050001057866,新規,0,2026-01-16,2026-01-16,株式会社ワイエヌケイ,,株式会社,茨城県,水戸市,酒門町１６９２番地の２,,08,201,3100841,,,,,,,2026-01-16,1,,,,,ワイエヌケイ,0
713,3060001038931,新規,0,2026-01-16,2026-01-16,株式会社匠外装,,株式会社,栃木県,宇都宮市,西川田本町２丁目８番２４号ＡＫＡビル２－Ａ,,09,201,3210158,,,,,,,2026-01-16,1,,,,,タクミガイソウ,0
742,3120001283372,新規,0,2026-01-16,2026-01-16,株式会社青山板硝子店,,株式会社,大阪府,寝屋川市,東香里園町２３番５号,,27,215,5720081,,,,,,,2026-01-16,1,,,,,アオヤマイタガラステン,0
743,3120001283505,新規,0,2026-01-16,2026-01-16,ＡＤＩＦ不動産株式会社,,株式会社,大阪府,大阪市中央区,南久宝寺町３丁目３番１号,,27,128,5410058,,,,,,,2026-01-16,1,,,,,アディフフドウサン,0
751,3120003031663,新規,0,2026-01-16,2026-01-16,合同会社ＹＫパートナーズ,,合同会社,大阪府,大阪市中央区,玉造１丁目１番２５－１６０５号,,27,128,5400004,,,,,,,2026-01-16,1,,,,,ワイケーパートナーズ,0
754,3120101073087,新規,0,2026-01-16,2026-01-16,こころの森株式会社,,株式会社,大阪府,堺市堺区,京町通１番３５－２号,,27,141,5900054,,,,,,,2026-01-16,1,,,,,ココロノモリ,0
755,3120103006945,新規,0,2026-01-16,2026-01-16,ＫＢアセットマネジメント合同会社,,合同会社,大阪府,堺市堺区,市之町東１丁１番１０号,,27,141,5900952,,,,,,,2026-01-16,1,,,,,ケービーアセットマネジメント,0
756,3120105010103,新規,0,2026-01-16,2026-01-16,医療法人あゆむ会,,その他の設立登記法人,大阪府,羽曳野市,古市４丁目１番１号スワンライズビル１Ｆ、２Ｆ,,27,222,5830852,,,,,,,2026-01-16,1,,,,,アユムカイ,0
760,3130001081395,新規,0,2026-01-16,2026-01-16,株式会社皐稀,,株式会社,京都府,京都市伏見区,竹田内畑町２６９－４,,26,109,6128423,,,,,,,2026-01-16,1,,,,,サツキ,0
762,3130003011078,新規,0,2026-01-16,2026-01-16,ＭＩＲＥＡＬ合同会社,,合同会社,京都府,京都市右京区,西京極堤下町３番地１イニシア桂大橋１１６号室,,26,108,6150835,,,,,,,2026-01-16,1,,,,,ミリアル,0
766,3140001141347,新規,0,2026-01-16,2026-01-16,株式会社ＤＭＡ,,株式会社,兵庫県,神戸市東灘区,御影中町１丁目４－５,,28,101,6580054,,,,,,,2026-01-16,1,,,,,ディーエムエー,0
767,3140001141355,新規,0,2026-01-16,2026-01-16,株式会社はしやすめ,,株式会社,兵庫県,美方郡香美町,村岡区村岡２２８７番地,,28,585,6671311,,,,,,,2026-01-16,1,,,,,ハシヤスメ,0
768,3140001141388,新規,0,2026-01-16,2026-01-16,株式会社ＴＫＲ,,株式会社,兵庫県,神戸市北区,藤原台中町３丁目１１番１９号,,28,109,6511302,,,,,,,2026-01-16,1,,,,,ティーケーアール,0
769,3140001141413,新規,0,2026-01-16,2026-01-16,未来エナジー株式会社,,株式会社,兵庫県,神戸市垂水区,高丸７丁目３番１０－６０６号,,28,108,6550016,,,,,,,2026-01-16,1,,,,,,0
772,3150001028626,新規,0,2026-01-16,2026-01-16,株式会社ａｎｄ　ＧＯ,,株式会社,奈良県,生駒市,桜ケ丘３番２号,,29,209,6300211,,,,,,,2026-01-16,1,,,,,アンドゴー,0
773,3150001028642,新規,0,2026-01-16,2026-01-16,一滴水株式会社,,株式会社,奈良県,山辺郡山添村,大字広代１３６７番５,,29,322,6302342,,,,,,,2026-01-16,1,,,,,イッテキスイ,0
774,3160003003709,新規,0,2026-01-16,2026-01-16,Ｌｉｂｅｒｔａ　Ｓｔｒｕｃｔｕｒｅ合同会社,,合同会社,滋賀県,大津市,南小松１９５－４,,25,201,5200502,,,,,,,2026-01-16,1,,,,,リベルタストラクチャー,0
782,3180001170152,新規,0,2026-01-16,2026-01-16,株式会社ＥＳＮＡＨ,,株式会社,愛知県,名古屋市東区,泉１丁目１９－１４ライオンズマンション東桜１０１４,,23,102,4610001,,,,,,,2026-01-16,1,,,,,エスナ,0
783,3180001170276,新規,0,2026-01-16,2026-01-16,株式会社ＨＭファシリティ,,株式会社,愛知県,名古屋市名東区,牧の里１丁目５０７番地,,23,115,4650068,,,,,,,2026-01-16,1,,,,,エイチエムファシリティ,0
784,3180001170301,新規,0,2026-01-16,2026-01-16,株式会社デア・ゼーマン,,株式会社,愛知県,名古屋市中村区,日ノ宮町３丁目８１番地の１,,23,105,4530823,,,,,,,2026-01-16,1,,,,,デアゼーマン,0
790,3180301040609,新規,0,2026-01-16,2026-01-16,渡邉グループ株式会社,,株式会社,愛知県,蒲郡市,形原町川原２４番地１３,,23,214,4430104,,,,,,,2026-01-16,1,,,,,ワタナベグループ,0
791,3180301040617,新規,0,2026-01-16,2026-01-16,株式会社大福,,株式会社,愛知県,蒲郡市,竹谷町東作間１０番地５,,23,214,4430046,,,,,,,2026-01-16,1,,,,,ダイフク,0
792,3180303006871,新規,0,2026-01-16,2026-01-16,合同会社大壱商会,,合同会社,愛知県,豊橋市,向山町字池下２３－１１,,23,201,4400864,,,,,,,2026-01-16,1,,,,,ダイイチショウカイ,0
793,3190001032830,新規,0,2026-01-16,2026-01-16,柳ホールディングス株式会社,,株式会社,三重県,津市,船頭町津興３４８７番地,,24,201,5140801,,,,,,,2026-01-16,1,,,,,ヤナギホールディングス,0
800,3240001066063,新規,0,2026-01-16,2026-01-16,株式会社果凛,,株式会社,広島県,広島市東区,中山東３丁目２番３４－２０２号,,34,102,7320023,,,,,,,2026-01-16,1,,,,,カリン,0
808,3260001040909,新規,0,2026-01-16,2026-01-16,株式会社Ｄｅｐａｒｔｕｒｅ　Ｗｏｒｋｓ,,株式会社,岡山県,岡山市南区,豊成１丁目１０番１６号クリーンピア豊成５０３,,33,104,7000942,,,,,,,2026-01-16,1,,,,,ディパーチャーワークス,0
811,3260003005455,新規,0,2026-01-16,2026-01-16,合同会社ピノブラン,,合同会社,岡山県,岡山市東区,西大寺新１５２番地１,,33,103,7048127,,,,,,,2026-01-16,1,,,,,ピノブラン,0
813,3280001009571,新規,0,2026-01-16,2026-01-16,株式会社クリエット,,株式会社,島根県,益田市,あけぼの東町７‐４松岡ビル１階,,32,204,6980027,,,,,,,2026-01-16,1,,,,,クリエット,0
818,3290001112754,新規,0,2026-01-16,2026-01-16,株式会社イェイェグローバル,,株式会社,福岡県,福岡市中央区,警固２丁目１９番１３号警固ロイヤルビル６０２号室,,40,133,8100023,,,,,,,2026-01-16,1,,,,,イェイェグローバル,0
835,3350001019893,新規,0,2026-01-16,2026-01-16,株式会社レフレール,,株式会社,宮崎県,宮崎市,広島２丁目１２番１９号秀坂店舗１０２号,,45,201,8800806,,,,,,,2026-01-16,1,,,,,レフレール,0
836,3350001019902,新規,0,2026-01-16,2026-01-16,株式会社アグリアップフィールド,,株式会社,宮崎県,都城市,山之口町富吉６３５５番地４,,45,202,8891801,,,,,,,2026-01-16,1,,,,,アグリアップフィールド,0
843,3360001036260,新規,0,2026-01-16,2026-01-16,株式会社アスク,,株式会社,沖縄県,島尻郡南風原町,字宮平３番地１ミルコマンション南風原スカイリベール２０５,,47,350,9011104,,,,,,,2026-01-16,1,,,,,アスク,0
854,3400001017289,新規,0,2026-01-16,2026-01-16,株式会社ゴールドリーム,,株式会社,岩手県,北上市,上江釣子１６地割６２番地１,,03,206,0240071,,,,,,,2026-01-16,1,,,,,ゴールドリーム,0
861,3430003018506,新規,0,2026-01-16,2026-01-16,合同会社木戸不動産管理,,合同会社,北海道,北広島市,里見町７丁目１番地１４６,,01,234,0611147,,,,,,,2026-01-16,1,,,,,キドフドウサンカンリ,0
862,3430005015393,新規,0,2026-01-16,2026-01-16,行政書士法人サントラスト,,その他の設立登記法人,北海道,札幌市豊平区,月寒東三条１１丁目１番５０号,,01,105,0620053,,,,,,,2026-01-16,1,,,,,サントラスト,0
874,3500001026726,新規,0,2026-01-16,2026-01-16,株式会社ひといろ,,株式会社,愛媛県,西条市,明理川１８２番地,,38,206,7991345,,,,,,,2026-01-16,1,,,,,ヒトイロ,0
877,3700150133955,新規,0,2026-01-16,2026-01-16,Ｓａｆｅｔｅｃｈ　Ｇｌｏｂａｌ　Ｌｉｍｉｔｅｄ,,外国会社等,,,,,,,,Ｕｎｉｔ　１６０３，１６ｔｈ　Ｆｌｏｏｒ　Ｔｈｅ　Ｌ．Ｐｌａｚａ，３６７－３７５　Ｑｕｅｅｎ’ｓ　Ｒｏａｄ　Ｃｅｎｔｒａｌ　３６７－３７５　Ｑｕｅｅｎ’ｓ　Ｒｏａｄ　Ｃｅｎｔｒａｌ　Ｓｈｅｕｎｇ　Ｗａｎ　９９９０７７　ＨＫ,,,,,,2026-01-16,1,,,,,セーフテックグローバルリミテッド,0
882,4010001261693,新規,0,2026-01-16,2026-01-16,株式会社ＷＩＮエナジー,,株式会社,東京都,千代田区,外神田５丁目２番１号,,13,101,1010021,,,,,,,2026-01-16,1,,,,,ウィンエナジー,0
883,4010001261710,新規,0,2026-01-16,2026-01-16,株式会社行政経営コンサルティング,,株式会社,東京都,文京区,小石川２丁目１番２号,,13,105,1120002,,,,,,,2026-01-16,1,,,,,ギョウセイケイエイコンサルティング,0
884,4010001261917,新規,0,2026-01-16,2026-01-16,株式会社ＣＮＥＴパートナーズ,,株式会社,東京都,文京区,目白台３丁目２８番１０号,,13,105,1120015,,,,,,,2026-01-16,1,,,,,シーネットパートナーズ,0
885,4010001261941,新規,0,2026-01-16,2026-01-16,株式会社アシストＡＩテラス,,株式会社,東京都,千代田区,九段北４丁目２番１号,,13,101,1020073,,,,,,,2026-01-16,1,,,,,アシストエーアイテラス,0
894,4010401195640,新規,0,2026-01-16,2026-01-16,株式会社Ｓｅｒｅｎｏ　ｌａ　ｖｉｔａ,,株式会社,東京都,港区,白金台１丁目２番４６号,,13,103,1080071,,,,,,,2026-01-16,1,,,,,セレーノラビータ,0
895,4010401195847,新規,0,2026-01-16,2026-01-16,Ｎｅｘｅａ株式会社,,株式会社,東京都,港区,六本木３丁目１番３０号Ａ・Ｂビル６階,,13,103,1060032,,,,,,,2026-01-16,1,,,,,ネクセア,0
896,4010403037064,新規,0,2026-01-16,2026-01-16,ＨＯＬＤ　Ｍ合同会社,,合同会社,東京都,港区,西麻布４丁目１６番３－１５０３号,,13,103,1060031,,,,,,,2026-01-16,1,,,,,ホールドエム,0
901,4010601068539,新規,0,2026-01-16,2026-01-16,Ｉコミュニケーションズ・テクノロジーズ株式会社,,株式会社,東京都,江東区,青海２丁目５－１０テレコムセンタービル東棟１４階,,13,108,1350064,,,,,,,2026-01-16,1,,,,,アイコミュニケーションズテクノロジーズ,0
903,4010701048894,新規,0,2026-01-16,2026-01-16,株式会社ｒｏｓｙｆｉｌｉｆｅ,,株式会社,東京都,品川区,西品川１丁目１－１住友不動産大崎ガーデンタワー９階トンネル東京,,13,109,1410033,,,,,,,2026-01-16,1,,,,,ロゼィフィライフ,0
904,4010701048903,新規,0,2026-01-16,2026-01-16,株式会社Ｊｏｙｆｕｌ　Ｂｉｒｔｈ　Ｇｉｆｔ,,株式会社,東京都,品川区,南大井２丁目１０番６－２３１４号,,13,109,1400013,,,,,,,2026-01-16,1,,,,,ジョイフルバースギフト,0
906,4010803005686,新規,0,2026-01-16,2026-01-16,合同会社向日葵,,合同会社,東京都,大田区,西蒲田７丁目２９－５ニューカマタビル６０４,,13,111,1440051,,,,,,,2026-01-16,1,,,,,ヒマワリ,0
912,4010903010561,新規,0,2026-01-16,2026-01-16,合同会社灯羅企画,,合同会社,東京都,世田谷区,太子堂４丁目１８番１５号マガザン三軒茶屋２－３Ｆ－３,,13,112,1540004,,,,,,,2026-01-16,1,,,,,トウラキカク,0
917,4011001174836,新規,0,2026-01-16,2026-01-16,ＴＮＫＮ株式会社,,株式会社,東京都,渋谷区,渋谷２丁目１２番１２－７０１号三貴ビル,,13,113,1500002,,,,,,,2026-01-16,1,,,,,テイーエヌケーエヌ,0
918,4011003023314,新規,0,2026-01-16,2026-01-16,合同会社ＥＮＮＫＥＩ,,合同会社,東京都,目黒区,目黒本町２丁目２０番４－６０９号,,13,110,1520002,,,,,,,2026-01-16,1,,,,,エンケイ,0
919,4011003023330,新規,0,2026-01-16,2026-01-16,合同会社吉田企画,00142205,合同会社,東京都,渋谷区,恵比寿西１丁目１７番６号,,13,113,1500021,,,,,,,2026-01-16,1,,,,,ヨシダキカク,0
920,4011005011341,新規,0,2026-01-16,2026-01-16,一般社団法人ＶＦＸ技術推進協会,,その他の設立登記法人,東京都,渋谷区,神宮前６丁目２３番３号第９ＳＹビル５階,,13,113,1500001,,,,,,,2026-01-16,1,,,,,ヴイエフエックスギジュツスイシンキョウカイ,0
922,4011103016886,新規,0,2026-01-16,2026-01-16,合同会社３８,,合同会社,東京都,新宿区,歌舞伎町１丁目６番１２号堀内ビル４階,,13,104,1600021,,,,,,,2026-01-16,1,,,,,ミヤ,0
926,4011701029091,新規,0,2026-01-16,2026-01-16,株式会社ＹＫＭ,,株式会社,東京都,江戸川区,春江町５丁目１９－５,,13,123,1340003,,,,,,,2026-01-16,1,,,,,ワイケーエム,0
931,4011801047290,新規,0,2026-01-16,2026-01-16,ＵＮＩＣＯＲＮ工房株式会社,,株式会社,東京都,葛飾区,西新小岩５丁目２８番２０号七番館３０３,,13,122,1240025,,,,,,,2026-01-16,1,,,,,ユニコーンコウボウ,0
932,4011801047316,新規,0,2026-01-16,2026-01-16,株式会社ガムナム,,株式会社,東京都,葛飾区,西新小岩５丁目２６番１９号,,13,122,1240025,,,,,,,2026-01-16,1,,,,,ガムナム,0
939,4012403007567,新規,0,2026-01-16,2026-01-16,合同会社全生新舎,,合同会社,東京都,狛江市,元和泉２丁目１４番２号,,13,219,2010013,,,,,,,2026-01-16,1,,,,,ゼンセイシンシャ,0
943,4013103001521,新規,0,2026-01-16,2026-01-16,合同会社盛光舎,,合同会社,東京都,青梅市,梅郷４丁目６６８番地,,13,205,1980063,,,,,,,2026-01-16,1,,,,,セイコウシャ,0
956,4020003030113,新規,0,2026-01-16,2026-01-16,合同会社オルデナ,,合同会社,神奈川県,横浜市青葉区,市ケ尾町１１７７番地４西市ケ尾ドエリングＢ－５１８,,14,117,2250024,,,,,,,2026-01-16,1,,,,,オルデナ,0
958,4021001087244,新規,0,2026-01-16,2026-01-16,株式会社ブルーフォレスト,,株式会社,神奈川県,藤沢市,湘南台２丁目３８番地の５,,14,205,2520804,,,,,,,2026-01-16,1,,,,,ブルーフォレスト,0
959,4021001087252,新規,0,2026-01-16,2026-01-16,株式会社ＬＭＳ工業,,株式会社,神奈川県,藤沢市,遠藤２５９５番地１,,14,205,2520816,,,,,,,2026-01-16,1,,,,,エルエムエスコウギョウ,0
970,4030003028461,新規,0,2026-01-16,2026-01-16,ゴールドアース合同会社,,合同会社,埼玉県,さいたま市緑区,東浦和３丁目１９番地１３アネックス東浦和１０３号,,11,109,3360926,,,,,,,2026-01-16,1,,,,,ゴールドアース,0
971,4030005022388,新規,0,2026-01-16,2026-01-16,一般社団法人Ｃｏｌｏｒ　Ｓｅｎｓｉｎｇ　Ａｌｌｉａｎｃｅ,,その他の設立登記法人,埼玉県,さいたま市浦和区,仲町１丁目１０番２２－６０４号,,11,107,3300062,,,,,,,2026-01-16,1,,,,,カラーセンシングアライアンス,0
976,4040005022998,新規,0,2026-01-16,2026-01-16,一般社団法人若狭会,,その他の設立登記法人,千葉県,松戸市,小金原４丁目２２番地の４,,12,207,2700021,,,,,,,2026-01-16,1,,,,,ワカサカイ,0
1002,4120001283339,新規,0,2026-01-16,2026-01-16,株式会社ＡＲＫ,,株式会社,大阪府,大阪市平野区,平野西１丁目３番２４号スペチアーレ平野西１０１号,,27,126,5470033,,,,,,,2026-01-16,1,,,,,アルケー,0
1003,4120001283396,新規,0,2026-01-16,2026-01-16,株式会社ｎｅｓｏｎ,,株式会社,大阪府,大阪市中央区,十二軒町６番２２号４０３,,27,128,5400015,,,,,,,2026-01-16,1,,,,,ネソン,0
1004,4120001283413,新規,0,2026-01-16,2026-01-16,株式会社ＰＲＥＳＳＦＩ,,株式会社,大阪府,大阪市北区,大深町５番５４号,,27,127,5300011,,,,,,,2026-01-16,1,,,,,プレスファイ,0
1011,4120003031654,新規,0,2026-01-16,2026-01-16,合同会社ＩＳＳＩＮ,,合同会社,大阪府,大阪市生野区,中川２丁目８番１９号,,27,116,5440005,,,,,,,2026-01-16,1,,,,,イッシン,0
1014,4120105010102,新規,0,2026-01-16,2026-01-16,一般社団法人みらい,,その他の設立登記法人,大阪府,松原市,三宅中５丁目１４番１３号,,27,217,5800046,,,,,,,2026-01-16,1,,,,,ミライ,0
1020,4122001040100,新規,0,2026-01-16,2026-01-16,株式会社フロスト,,株式会社,大阪府,東大阪市,永和２丁目５番３１号３０５,,27,227,5770809,,,,,,,2026-01-16,1,,,,,フロスト,0
1027,4140001141346,新規,0,2026-01-16,2026-01-16,ケーイーテック株式会社,,株式会社,兵庫県,川西市,向陽台３丁目６番地の１４５,,28,217,6660115,,,,,,,2026-01-16,1,,,,,ケーイーテック,0
1028,4140001141354,新規,0,2026-01-16,2026-01-16,ｐｌｕｓ　ｎｕｔｓ株式会社,,株式会社,兵庫県,神戸市中央区,二宮町３丁目１０番１２号,,28,110,6510093,,,,,,,2026-01-16,1,,,,,プラスナッツ,0
1029,4140001141362,新規,0,2026-01-16,2026-01-16,株式会社ＳＫＰ企画,,株式会社,兵庫県,神戸市中央区,磯上通８丁目１番２９号カサベラビルＣ＆Ｍ４０３号室,,28,110,6510086,,,,,,,2026-01-16,1,,,,,エスケーピーキカク,0
1030,4140001141420,新規,0,2026-01-16,2026-01-16,株式会社Ｒｅｆｌａｍｅ,,株式会社,兵庫県,姫路市,砥堀６９４番地１７,,28,201,6700802,,,,,,,2026-01-16,1,,,,,リフレーム,0
1035,4140003023071,新規,0,2026-01-16,2026-01-16,ＳＳＴベースロジ合同会社,,合同会社,兵庫県,西脇市,野村町７５４番地,,28,213,6770054,,,,,,,2026-01-16,1,,,,,エスエスティーベースロジ,0
1036,4140005027772,新規,0,2026-01-16,2026-01-16,特定非営利活動法人ＫＯＢＥ　ＮＯＵＲＩＳＭ,,その他の設立登記法人,兵庫県,神戸市北区,山田町下谷上字西畑１１番地,,28,109,6511243,,,,,,,2026-01-16,1,,,,,コウベノウリズム,0
1039,4150001028666,新規,0,2026-01-16,2026-01-16,株式会社ＣＨＲＯＮＯＳ,,株式会社,奈良県,生駒市,新生駒台５番２－７号,,29,209,6300242,,,,,,,2026-01-16,1,,,,,クロノス,0
1041,4150003003808,新規,0,2026-01-16,2026-01-16,合同会社ＣｏＬｅａｐ,,合同会社,奈良県,奈良市,六条町１７４番地の６,,29,201,6308041,,,,,,,2026-01-16,1,,,,,コリープ,0
1042,4150005009753,新規,0,2026-01-16,2026-01-16,医療法人ＯＰＭ,,その他の設立登記法人,奈良県,奈良市,学園中３丁目７０５番地６３,,29,201,6310035,,,,,,,2026-01-16,1,,,,,オーピーエム,0
1044,4160005011477,新規,0,2026-01-16,2026-01-16,弁護士法人大津総合法律事務所,,その他の設立登記法人,滋賀県,大津市,末広町１番１号日本生命大津ビル６階,,25,201,5200056,,,,,,,2026-01-16,1,,,,,オオツソウゴウホウリツジムショ,0
1051,4180001170283,新規,0,2026-01-16,2026-01-16,リーオ株式会社,,株式会社,愛知県,一宮市,千秋町佐野字本郷３２１６番地１,,23,203,4910804,,,,,,,2026-01-16,1,,,,,リーオ,0
1052,4180001170291,新規,0,2026-01-16,2026-01-16,株式会社エイト,,株式会社,愛知県,一宮市,平和３丁目９番地４,,23,203,4910905,,,,,,,2026-01-16,1,,,,,エイト,0
1053,4180001170300,新規,0,2026-01-16,2026-01-16,株式会社お多福祉リビングラボ,,株式会社,愛知県,一宮市,富塚字郷中１７９５番地８,,23,203,4910123,,,,,,,2026-01-16,1,,,,,オタフクシリビングラボ,0
1054,4180001170309,新規,0,2026-01-16,2026-01-16,株式会社真正工業,,株式会社,愛知県,名古屋市北区,中切町４丁目６６番地の４宝マンション中切町３０６号,,23,103,4620051,,,,,,,2026-01-16,1,,,,,シンセイコウギョウ,0
1055,4180001170333,新規,0,2026-01-16,2026-01-16,株式会社平野ホールディングス,,株式会社,愛知県,名古屋市東区,徳川１丁目８番４２号,,23,102,4610025,,,,,,,2026-01-16,1,,,,,ヒラノホールディングス,0
1059,4180003029619,新規,0,2026-01-16,2026-01-16,ＡＮＤ　ＥＩＧＨＴ合同会社,,合同会社,愛知県,名古屋市中区,葵１丁目２２番１８号プレサンスジェネ新栄町駅前葵７０１号,,23,106,4600006,,,,,,,2026-01-16,1,,,,,アンドエイト,0
1061,4180301040608,新規,0,2026-01-16,2026-01-16,株式会社とりい農産,,株式会社,愛知県,豊川市,小田渕町下垂２５番地の２,,23,207,4420844,,,,,,,2026-01-16,1,,,,,トリイノウサン,0
1080,4240001066054,新規,0,2026-01-16,2026-01-16,株式会社エフケイフーズ,,株式会社,広島県,福山市,大門町４丁目１５番５号,,34,207,7210926,,,,,,,2026-01-16,1,,,,,エフケイフーズ,0
1093,4290001112712,新規,0,2026-01-16,2026-01-16,テック株式会社,,株式会社,福岡県,福岡市早良区,次郎丸３丁目２７番６９－１０２号,,40,137,8140165,,,,,,,2026-01-16,1,,,,,テック,0
1094,4290001112745,新規,0,2026-01-16,2026-01-16,株式会社アンドクリエーションズ,,株式会社,福岡県,福岡市博多区,下川端町８番７号,,40,132,8120027,,,,,,,2026-01-16,1,,,,,アンドクリエーションズ,0
1102,4300003002406,新規,0,2026-01-16,2026-01-16,Ａｍａｎｅ合同会社,,合同会社,佐賀県,鳥栖市,秋葉町２丁目１０４３番地１３,,41,203,8410036,,,,,,,2026-01-16,1,,,,,アマネ,0
1117,4360001036185,新規,0,2026-01-16,2026-01-16,株式会社わかなつ,,株式会社,沖縄県,那覇市,字小禄５４１番地,,47,201,9010152,,,,,,,2026-01-16,1,,,,,ワカナツ,0
1123,4370003007448,新規,0,2026-01-16,2026-01-16,川村工業合同会社,,合同会社,宮城県,仙台市若林区,六丁の目中町１３番１９号,,04,103,9840012,,,,,,,2026-01-16,1,,,,,カワムラコウギョウ,0
1125,4410003004201,新規,0,2026-01-16,2026-01-16,サーベイジャパン合同会社,,合同会社,秋田県,横手市,大雄字八柏４１番地,,05,203,0130402,,,,,,,2026-01-16,1,,,,,サーベイジャパン,0
1129,4430001096073,新規,0,2026-01-16,2026-01-16,株式会社アールワントラスト,,株式会社,北海道,札幌市豊平区,水車町６丁目１番８号,,01,105,0620912,,,,,,,2026-01-16,1,,,,,アールワントラスト,0
1130,4430001096081,新規,0,2026-01-16,2026-01-16,株式会社ＳＨＵＲＯ,,株式会社,北海道,札幌市東区,北六条東２丁目２番１－２５０３号,,01,103,0600906,,,,,,,2026-01-16,1,,,,,シュウロウ,0
1150,4460101007803,新規,0,2026-01-16,2026-01-16,株式会社ＢＥＳＣＯ,,株式会社,北海道,河西郡更別村,字更別西四線１７番地２１,,01,639,0891542,,,,,,,2026-01-16,1,,,,,ベスコ,0
1155,4700150133954,新規,0,2026-01-16,2026-01-16,ＤＥＳＨＩＤＥ　ＴＥＣＨＮＯＬＯＧＹ　ＨＯＮＧ　ＫＯＮＧ　ＬＩＭＩＴＥＤ,,外国会社等,,,,,,,,Ｕｎｉｔ　１８０１，１８／Ｆ，ＯｆｆｉｃｅＰｌｕｓ　Ｗａｎ　Ｃｈａｉ，３０３　Ｈｅｎｎｅｓｓｙ　Ｒｏａｄ，Ｗａｎ　Ｃｈａｉ，Ｈｏｎｇ　Ｋｏｎｇ,,,,,,2026-01-16,1,,,,,デシャイドテクノロジーホンコンリミテッド,0
1159,5010001261791,新規,0,2026-01-16,2026-01-16,ＬＭ株式会社,,株式会社,東京都,千代田区,有楽町１丁目１番２号,,13,101,1000006,,,,,,,2026-01-16,1,,,,,エルエム,0
1160,5010001261949,新規,0,2026-01-16,2026-01-16,株式会社ＷＦＪ蓄電所１号,,株式会社,東京都,中央区,京橋２丁目１２番２号ＮＥＷＳＸビル４Ｆ,,13,102,1040031,,,,,,,2026-01-16,1,,,,,ダブルエフジェイチクデンショイチゴウ,0
1162,5010005041182,新規,0,2026-01-16,2026-01-16,一般社団法人建築・不動産アカデミー,,その他の設立登記法人,東京都,中央区,銀座１丁目１２番４号Ｎ＆ＥＢＬＤ．６Ｆ,,13,102,1040061,,,,,,,2026-01-16,1,,,,,ケンチクフドウサンアカデミー,0
1163,5010005041224,新規,0,2026-01-16,2026-01-16,一般社団法人鳥栖田代インベストメント,,その他の設立登記法人,東京都,中央区,日本橋１丁目４番１号日本橋一丁目ビルディング,,13,102,1030027,,,,,,,2026-01-16,1,,,,,トスタシロインベストメント,0
1170,5010401195615,新規,0,2026-01-16,2026-01-16,株式会社ハチカラ,,株式会社,東京都,港区,南青山２丁目２番８号,,13,103,1070062,,,,,,,2026-01-16,1,,,,,ハチカラ,0
1171,5010401195664,新規,0,2026-01-16,2026-01-16,株式会社ごきげん社,,株式会社,東京都,港区,南青山３丁目１番３６号青山丸竹ビル６Ｆ,,13,103,1070062,,,,,,,2026-01-16,1,,,,,ゴキゲンシャ,0
1176,5010405025157,新規,0,2026-01-16,2026-01-16,一般社団法人Ｍｉｒａｅ　Ｍｏｖｅｍｅｎｔｓ,,その他の設立登記法人,東京都,港区,南青山１丁目２６番１６号５Ｆ,,13,103,1070062,,,,,,,2026-01-16,1,,,,,ミラエムーブメンツ,0
1181,5010501055306,新規,0,2026-01-16,2026-01-16,株式会社なおがら,,株式会社,東京都,台東区,西浅草２丁目３番７－４０１号ディーアール西浅草ＩＩ,00142221,13,106,1110035,,,,,,,2026-01-16,1,,,,,ナオガラ,0
1193,5010901058742,新規,0,2026-01-16,2026-01-16,株式会社ピックルボールジャパン,,株式会社,東京都,世田谷区,上用賀６丁目２―１９,,13,112,1580098,,,,,,,2026-01-16,1,,,,,ピックルボールジャパン,0
1210,5011205002726,新規,0,2026-01-16,2026-01-16,一般社団法人Ｍｉｘ　Ｐｏｋｅｒ　Ｊａｐａｎ,,その他の設立登記法人,東京都,中野区,中野５丁目３２番４号中野ステーションハイツ５０５,,13,114,1640001,,,,,,,2026-01-16,1,,,,,ミックスポーカージャパン,0
1218,5011803007275,新規,0,2026-01-16,2026-01-16,合同会社ＢＲＩＤＧＥ　ＬＩＮＫ,,合同会社,東京都,葛飾区,東新小岩５丁目７－８－１０６,,13,122,1240023,,,,,,,2026-01-16,1,,,,,ブリッジリンク,0
1221,5012403007558,新規,0,2026-01-16,2026-01-16,合同会社ｅｌｍ,,合同会社,東京都,調布市,布田１丁目２２番地１パークノヴァ調布２０５,,13,208,1820024,,,,,,,2026-01-16,1,,,,,エルム,0
1222,5012703003447,新規,0,2026-01-16,2026-01-16,合同会社ペリア,,合同会社,東京都,西東京市,住吉町３丁目１番１６号,,13,229,2020005,,,,,,,2026-01-16,1,,,,,ペリア,0
1225,5012803003974,新規,0,2026-01-16,2026-01-16,ＧＲＡＴ合同会社,,合同会社,東京都,立川市,曙町２丁目１１番７号,00142223,13,202,1900012,,,,,,,2026-01-16,1,,,,,グラット,0
1246,5020001166692,新規,0,2026-01-16,2026-01-16,株式会社イノチデザイン,,株式会社,神奈川県,横浜市中区,本郷町３丁目１５９番地３,,14,104,2310843,,,,,,,2026-01-16,1,,,,,イノチデザイン,0
1250,5020003030112,新規,0,2026-01-16,2026-01-16,合同会社ＢｅａｔＴｅｃｈＬａｂ,,合同会社,神奈川県,横浜市神奈川区,金港町５－１４クアドリフォリオ８階,,14,102,2210056,,,,,,,2026-01-16,1,,,,,ビートテックラボ,0
1253,5021001087251,新規,0,2026-01-16,2026-01-16,株式会社ツインサポート,,株式会社,神奈川県,藤沢市,湘南台１丁目３８番１３号シラハニテラス１階,,14,205,2520804,,,,,,,2026-01-16,1,,,,,ツインサポート,0
1254,5021001087268,新規,0,2026-01-16,2026-01-16,株式会社サウンドバリュー,,株式会社,神奈川県,藤沢市,湘南台３丁目８番地の１,,14,205,2520804,,,,,,,2026-01-16,1,,,,,サウンドバリュー,0
1260,5030001170586,新規,0,2026-01-16,2026-01-16,株式会社ＹＵ‐ＫＥＮ,,株式会社,埼玉県,川口市,大字安行吉蔵４００番地の３,,11,203,3340053,,,,,,,2026-01-16,1,,,,,ユーケン,0
1262,5030003028444,新規,0,2026-01-16,2026-01-16,合同会社ＨＯＮＥＳＴＹ,,合同会社,埼玉県,川口市,大字東内野３５６番地の１,,11,203,3330821,,,,,,,2026-01-16,1,,,,,オネスティ,0
1263,5030003028460,新規,0,2026-01-16,2026-01-16,合同会社アズマアセットマネージメント,,合同会社,埼玉県,入間市,東町４丁目４番１１号,,11,225,3580002,,,,,,,2026-01-16,1,,,,,アズマアセットマネージメント,0
1268,5040001142106,新規,0,2026-01-16,2026-01-16,株式会社ＴＫＢ　ｓｋｙ　Ｃｒｅａｔｉｏｎｓ,,株式会社,千葉県,市原市,菊間９００番地７２サンフラワー２０５,,12,219,2900007,,,,,,,2026-01-16,1,,,,,ティーケービースカイクリエイションズ,0
1269,5040001142122,新規,0,2026-01-16,2026-01-16,ＬｅａｐＳｔａｂｅ　Ｐａｒｔｎｅｒｓ株式会社,,株式会社,千葉県,松戸市,松戸１３５８番地の１－３０２,,12,207,2710092,,,,,,,2026-01-16,1,,,,,リープステイブパートナーズ,0
1270,5040001142171,新規,0,2026-01-16,2026-01-16,美研ＵＮＩＴＥＤ株式会社,,株式会社,千葉県,佐倉市,本町５１番地２,,12,212,2850037,,,,,,,2026-01-16,1,,,,,ビケンユナイテッド,0
1271,5040003029301,新規,0,2026-01-16,2026-01-16,合同会社スマート,,合同会社,千葉県,君津市,糠田１５０番地８,,12,225,2991104,,,,,,,2026-01-16,1,,,,,スマート,0
1272,5040003029318,新規,0,2026-01-16,2026-01-16,合同会社ＳＯＵ,,合同会社,千葉県,千葉市緑区,誉田町２丁目１６番４４０号,,12,105,2660005,,,,,,,2026-01-16,1,,,,,ソウ,0
1281,5090003002955,新規,0,2026-01-16,2026-01-16,ヴェジファームデベロッパー合同会社,,合同会社,山梨県,南アルプス市,飯野新田８４６番地の１,,19,208,4000224,,,,,,,2026-01-16,1,,,,,ヴェジファームデベロッパー,0
1282,5090003002963,新規,0,2026-01-16,2026-01-16,合同会社ｅｎｅ,,合同会社,山梨県,都留市,鹿留２２６５番地,,19,204,4020032,,,,,,,2026-01-16,1,,,,,イーネ,0
1288,5110001039856,新規,0,2026-01-16,2026-01-16,株式会社ＮＨＬ,,株式会社,新潟県,三条市,三竹１丁目１３番３号,,15,204,9550041,,,,,,,2026-01-16,1,,,,,エヌエイチエル,0
1302,5120001283271,新規,0,2026-01-16,2026-01-16,株式会社石原清掃,,株式会社,大阪府,門真市,向島町１５番１４号,,27,223,5710051,,,,,,,2026-01-16,1,,,,,イシハラセイソウ,0
1303,5120001283362,新規,0,2026-01-16,2026-01-16,株式会社インフレア,,株式会社,大阪府,大阪市住吉区,沢之町１丁目９番１６－７０２号,,27,120,5580031,,,,,,,2026-01-16,1,,,,,インフレア,0
1304,5120001283420,新規,0,2026-01-16,2026-01-16,株式会社ＴＯＲＵ,,株式会社,大阪府,大阪市平野区,長吉長原１丁目９番３６号,,27,126,5470016,,,,,,,2026-01-16,1,,,,,トオル,0
1314,5122001040082,新規,0,2026-01-16,2026-01-16,株式会社Ｋ‐ＲＹＵ,,株式会社,大阪府,柏原市,田辺２丁目９番６２号,,27,221,5820024,,,,,,,2026-01-16,1,,,,,ケーリュウ,0
1315,5122001040099,新規,0,2026-01-16,2026-01-16,株式会社カルム,,株式会社,大阪府,八尾市,桂町３丁目１５番地の３５,,27,212,5810823,,,,,,,2026-01-16,1,,,,,カルム,0
1317,5130001081369,新規,0,2026-01-16,2026-01-16,株式会社土橋左官店,,株式会社,京都府,京都市左京区,一乗寺西浦畑町５９番地，６０番地の２合地,,26,103,6068127,,,,,,,2026-01-16,1,,,,,ツチハシサカンテン,0
1328,5140001141345,新規,0,2026-01-16,2026-01-16,ケーエヌセツビ株式会社,,株式会社,兵庫県,加東市,下滝野４３５番地１,,28,228,6790212,,,,,,,2026-01-16,1,,,,,ケーエヌセツビ,0
1329,5140001141353,新規,0,2026-01-16,2026-01-16,三田運送ホールディングス株式会社,,株式会社,兵庫県,三田市,中町１７番３号,,28,219,6691527,,,,,,,2026-01-16,1,,,,,サンダウンソウホールディングス,0
1330,5140001141394,新規,0,2026-01-16,2026-01-16,Ｂｌｏｏｍ　ｏｎ　ｔｈｅ　Ｇｒｅｅｎ株式会社,,株式会社,兵庫県,神戸市垂水区,朝谷町１０番地の７,,28,108,6550862,,,,,,,2026-01-16,1,,,,,ブルームオンザグリーン,0
1333,5140003023079,新規,0,2026-01-16,2026-01-16,合同会社ｅｌｅｖｅｎ,,合同会社,兵庫県,姫路市,大黒壱丁町８３番地シエリア姫路城東１１０２,,28,201,6700853,,,,,,,2026-01-16,1,,,,,イレブン,0
1334,5140003023087,新規,0,2026-01-16,2026-01-16,ＫＩＤＳラボＡｐｏｌｌｏ合同会社,,合同会社,兵庫県,三田市,つつじが丘北２丁目１２番地８,,28,219,6691348,,,,,,,2026-01-16,1,,,,,キッズラボアポロ,0
1335,5140003023095,新規,0,2026-01-16,2026-01-16,合同会社ＫＡＮＯＡＬＵ,,合同会社,兵庫県,西宮市,二見町１４番１８号メゾン甲子園６７２号,,28,204,6638111,,,,,,,2026-01-16,1,,,,,カノアル,0
1347,5180001170282,新規,0,2026-01-16,2026-01-16,株式会社よろず屋,,株式会社,愛知県,名古屋市港区,土古町２丁目８番地,,23,111,4550068,,,,,,,2026-01-16,1,,,,,ヨロズヤ,0
1348,5180001170290,新規,0,2026-01-16,2026-01-16,株式会社Ｔａｌｅ　Ｃｒｅａｔｅ,,株式会社,愛知県,名古屋市中村区,名駅３丁目４－１０アルティメイト名駅１ｓｔ２階,,23,105,4500002,,,,,,,2026-01-16,1,,,,,テイルクリエイト,0
1349,5180001170324,新規,0,2026-01-16,2026-01-16,株式会社ＧＮＯ,,株式会社,愛知県,一宮市,三ツ井６丁目１番２２号,,23,203,4910827,,,,,,,2026-01-16,1,,,,,ジーエヌオー,0
1350,5180001170332,新規,0,2026-01-16,2026-01-16,株式会社Ｍ．Ｍ．Ｃ,,株式会社,愛知県,名古屋市緑区,松が根台２１３番地の７,,23,114,4580843,,,,,,,2026-01-16,1,,,,,エムエムシー,0
1355,5180301040615,新規,0,2026-01-16,2026-01-16,Ｏ＆Ｏ株式会社,,株式会社,愛知県,豊田市,前山町３丁目１０番地１パレス前山１０５,,23,211,4710828,,,,,,,2026-01-16,1,,,,,オーアンドオー,0
1361,5210003002001,新規,0,2026-01-16,2026-01-16,合同会社Ｎｅｘｕｓ　Ｂｒａｖｏ　Ｅｎｔｅｒｐｒｉｓｅ,,合同会社,福井県,あわら市,自由ケ丘２丁目１６－１５サンメゾンＣＯＣＯ－Ｄ１１３,,18,208,9190604,,,,,,,2026-01-16,1,,,,,ネクサスブラボーエンタープライズ,0
1363,5230001021240,新規,0,2026-01-16,2026-01-16,株式会社ＨＩＭＩｃｏ‐ｂｒｉｄｇｅ,,株式会社,富山県,氷見市,伊勢大町１丁目１番５号,,16,205,9350015,,,,,,,2026-01-16,1,,,,,ヒミコブリッジ,0
1364,5230001021249,新規,0,2026-01-16,2026-01-16,株式会社リグル,,株式会社,富山県,富山市,荒川２丁目１３番１８号,,16,201,9300982,,,,,,,2026-01-16,1,,,,,リグル,0
1366,5240001066037,新規,0,2026-01-16,2026-01-16,株式会社日電ファミリアグループ,,株式会社,広島県,広島市安佐南区,川内５丁目２０番２７号,,34,105,7310102,,,,,,,2026-01-16,1,,,,,ニチデンファミリアグループ,0
1373,5250001021494,新規,0,2026-01-16,2026-01-16,株式会社クロスコア,,株式会社,山口県,宇部市,大字妻崎開作５７９－１２,,35,202,7590204,,,,,,,2026-01-16,1,,,,,クロスコア,0
1375,5280005007677,新規,0,2026-01-16,2026-01-16,一般社団法人奥出雲みらい学び舎,,その他の設立登記法人,島根県,仁多郡奥出雲町,稲原７７３番地１１,,32,343,6991821,,,,,,,2026-01-16,1,,,,,オクイズモミライマナビヤ,0
1380,5290001112744,新規,0,2026-01-16,2026-01-16,株式会社ＮＡＶＹ,,株式会社,福岡県,福岡市博多区,中洲２丁目４番２０号第２１ポールスタービル３階３０６号室,,40,132,8100801,,,,,,,2026-01-16,1,,,,,ナビー,0
1381,5290003017933,新規,0,2026-01-16,2026-01-16,合同会社稗田内装,,合同会社,福岡県,福岡市西区,今宿町４２７番地７,,40,135,8190164,,,,,,,2026-01-16,1,,,,,ヒエダナイソウ,0
1385,5320001021537,新規,0,2026-01-16,2026-01-16,株式会社みつぼし,,株式会社,大分県,大分市,賀来南２丁目１番１号,,44,201,8700849,,,,,,,2026-01-16,1,,,,,ミツボシ,0
1392,5370001053402,新規,0,2026-01-16,2026-01-16,仙台土地株式会社,,株式会社,宮城県,仙台市青葉区,山手町１６番１７－２０５号,,04,101,9810967,,,,,,,2026-01-16,1,,,,,センダイトチ,0
1410,5410001014366,新規,0,2026-01-16,2026-01-16,金魚ばちプロダクション株式会社,,株式会社,秋田県,潟上市,昭和大久保字北野大崎道添１７７番地１,,05,211,0181401,,,,,,,2026-01-16,1,,,,,キンギョバチプロダクション,0
1414,5430001096056,新規,0,2026-01-16,2026-01-16,株式会社柴田商会,,株式会社,北海道,札幌市西区,琴似一条６丁目３番３１号,,01,107,0630811,,,,,,,2026-01-16,1,,,,,シバタショウカイ,0
1415,5430001096072,新規,0,2026-01-16,2026-01-16,伊藤興業株式会社,,株式会社,北海道,札幌市厚別区,もみじ台東６丁目８番８号,,01,108,0040011,,,,,,,2026-01-16,1,,,,,イトウコウギョウ,0
1416,5430001096080,新規,0,2026-01-16,2026-01-16,株式会社ＳＯＩＮＴＯ,,株式会社,北海道,札幌市中央区,南九条西４丁目３番１号ＡＭＳＴＯＷＥＲ１階テナントＡ,,01,101,0640809,,,,,,,2026-01-16,1,,,,,ソイント,0
1417,5430001096089,新規,0,2026-01-16,2026-01-16,株式会社ＪＯＩＮＮＯ,,株式会社,北海道,札幌市白石区,本通６丁目北３番１１号,,01,104,0030027,,,,,,,2026-01-16,1,,,,,ジョイノ,0
1420,5430003018504,新規,0,2026-01-16,2026-01-16,合同会社白道便,,合同会社,北海道,小樽市,桜５丁目２４番４号,,01,203,0470156,,,,,,,2026-01-16,1,,,,,シロミチベン,0
1430,5460101007802,新規,0,2026-01-16,2026-01-16,株式会社トム製麺,,株式会社,北海道,帯広市,西二条南４丁目１９番地３,,01,207,0800012,,,,,,,2026-01-16,1,,,,,トムセイメン,0
1433,5480001013056,新規,0,2026-01-16,2026-01-16,リベラルアーツ研究本部株式会社,,株式会社,徳島県,阿南市,見能林町貞成４９－７,,36,204,7740017,,,,,,,2026-01-16,1,,,,,リベラルアーツケンキュウホンブ,0
1435,5490003002089,新規,0,2026-01-16,2026-01-16,合同会社わのおと,,合同会社,高知県,吾川郡いの町,４０６８－２,,39,386,7812110,,,,,,,2026-01-16,1,,,,,ワノオト,0
1436,5700150133953,新規,0,2026-01-16,2026-01-16,ＢＥＮＦＥＩ　ＬＩＭＩＴＥＤ,,外国会社等,,,,,,,,Ｕｎｉｔ　０６，１／Ｆ，２５　Ｈｕｎｇ　Ｔｏ　Ｒｏａｄ，Ｋｗｕｎ　Ｔｏｎｇ　Ｄｉｓｔｒｉｃｔ，Ｈｏｎｇ　Ｋｏｎｇ,,,,,,2026-01-16,1,,,,,ベンフェーリミティド,0
1445,6010001261709,新規,0,2026-01-16,2026-01-16,ギャラクシーソフトウェアサービス株式会社,,株式会社,東京都,中央区,銀座３丁目１０番９号ＫＥＣ銀座ビル８階,,13,102,1040061,,,,,,,2026-01-16,1,,,,,ギャラクシーソフトウェアサービス,0
1446,6010001261865,新規,0,2026-01-16,2026-01-16,Ｈｕｍａｎ　Ｍａｇｉｃ株式会社,,株式会社,東京都,千代田区,神田小川町３丁目２８－５ａｘｌｅ御茶ノ水Ｃ０５,,13,101,1010052,,,,,,,2026-01-16,1,,,,,ヒューマンマジック,0
1448,6010003049986,新規,0,2026-01-16,2026-01-16,スリーエス合同会社,,合同会社,東京都,千代田区,霞が関３丁目２番５号,,13,101,1000013,,,,,,,2026-01-16,1,,,,,スリーエス,0
1449,6010005041223,新規,0,2026-01-16,2026-01-16,一般社団法人日本予防医療センター,,その他の設立登記法人,東京都,中央区,日本橋横山町１番３号ＯＫＫ日本橋ビル２Ｆ,,13,102,1030003,,,,,,,2026-01-16,1,,,,,ニホンヨボウイリョウセンター,0
1450,6010005041231,新規,0,2026-01-16,2026-01-16,日出ＢＥＳＳ一般社団法人,,その他の設立登記法人,東京都,千代田区,丸の内１丁目４番１号東京共同会計事務所内,,13,101,1000005,,,,,,,2026-01-16,1,,,,,ヒジベス,0
1453,6010401006432,新規,0,2026-01-16,2026-01-16,株式会社オプト,,株式会社,東京都,港区,西麻布４丁目７番１１号,,13,103,1060031,,,,,,,2026-01-16,1,,,,,,0
1460,6010401195713,新規,0,2026-01-16,2026-01-16,Ｓｉｎｃｅｒｉａ株式会社,,株式会社,東京都,港区,浜松町２丁目２番１５号浜松町ダイヤビル２Ｆ,,13,103,1050013,,,,,,,2026-01-16,1,,,,,シンセリア,0
1461,6010401195746,新規,0,2026-01-16,2026-01-16,株式会社ちたん,,株式会社,東京都,港区,浜松町２丁目２番１５号浜松町ダイヤビル２Ｆ,,13,103,1050013,,,,,,,2026-01-16,1,,,,,チタン,0
1467,6010501055271,新規,0,2026-01-16,2026-01-16,株式会社イースワンプ,,株式会社,東京都,台東区,西浅草３丁目２２番３－３５１１号浅草タワー,,13,106,1110035,,,,,,,2026-01-16,1,,,,,イースワンプ,0
1474,6010703008036,新規,0,2026-01-16,2026-01-16,パマソニック合同会社,,合同会社,東京都,品川区,大井３丁目４－８ベンセレーモス４０１,,13,109,1400014,,,,,,,2026-01-16,1,,,,,パマソニック,0
1490,6011001174842,新規,0,2026-01-16,2026-01-16,株式会社三豊フーズジャパン,,株式会社,東京都,渋谷区,千駄ヶ谷１丁目１３番４号,,13,113,1510051,,,,,,,2026-01-16,1,,,,,ミツトヨフーズジャパン,0
1491,6011001174859,新規,0,2026-01-16,2026-01-16,株式会社ヤクモン,,株式会社,東京都,渋谷区,道玄坂１丁目１０番８号渋谷道玄坂東急ビル２Ｆ－Ｃ,,13,113,1500043,,,,,,,2026-01-16,1,,,,,ヤクモン,0
1492,6011001174875,新規,0,2026-01-16,2026-01-16,グロースファーム株式会社,,株式会社,東京都,渋谷区,千駄ヶ谷５丁目２１番７号第５瑞穂ビル７階,,13,113,1510051,,,,,,,2026-01-16,1,,,,,グロースファーム,0
1493,6011003023320,新規,0,2026-01-16,2026-01-16,合同会社櫻カンパニー,,合同会社,東京都,渋谷区,道玄坂１丁目１０番８号渋谷道玄坂東急ビル２Ｆ－Ｃ,,13,113,1500043,,,,,,,2026-01-16,1,,,,,サクラカンパニー,0
1494,6011003023329,新規,0,2026-01-16,2026-01-16,Ｒｏｕｔｅ８Ｄｅｓｉｇｎ合同会社,,合同会社,東京都,渋谷区,道玄坂１丁目１６－６二葉ビル８Ｂ,,13,113,1500043,,,,,,,2026-01-16,1,,,,,ルートハチデザイン,0
1495,6011003023403,新規,0,2026-01-16,2026-01-16,霞屋十条合同会社,,合同会社,東京都,渋谷区,神南１丁目１１番４号ＦＰＧリンクス神南５階,,13,113,1500041,,,,,,,2026-01-16,1,,,,,カスミヤジュウジョウ,0
1500,6011103016967,新規,0,2026-01-16,2026-01-16,合同会社アクシスト,,合同会社,東京都,新宿区,西新宿３丁目３番１３号新宿水間ビル６Ｆ,,13,104,1600023,,,,,,,2026-01-16,1,,,,,アクシスト,0
1505,6011503006832,新規,0,2026-01-16,2026-01-16,エックスエフジェイ合同会社,,合同会社,東京都,北区,田端３丁目７番６－３０３号,,13,117,1140014,,,,,,,2026-01-16,1,,,,,エックスエフジェイ,0
1516,6012401044016,新規,0,2026-01-16,2026-01-16,株式会社Ｍｏｒｅ　Ｃｕｒｉｏｓｉｔｙ,,株式会社,東京都,狛江市,東野川２丁目１４番９号,,13,219,2010002,,,,,,,2026-01-16,1,,,,,モアキュリオシティ,0
1517,6012403007565,新規,0,2026-01-16,2026-01-16,Ｃａｈａｙａ　Ｉｎｄｏｎｅｓｉａ合同会社,,合同会社,東京都,小金井市,中町２丁目７番２７号,,13,210,1840012,,,,,,,2026-01-16,1,,,,,チャハヤインドネシア,0
1519,6012405005204,新規,0,2026-01-16,2026-01-16,一般社団法人和ドレス協会,,その他の設立登記法人,東京都,府中市,多磨町２丁目４８番地の２,,13,206,1830002,,,,,,,2026-01-16,1,,,,,ワドレスキョウカイ,0
1520,6012703003446,新規,0,2026-01-16,2026-01-16,合同会社ＴＮＣ　Ｊａｐａｎ,,合同会社,東京都,西東京市,田無町３丁目３番８号共栄ビル４０１,,13,229,1880011,,,,,,,2026-01-16,1,,,,,ティーエヌシージャパン,0
1521,6012801024468,新規,0,2026-01-16,2026-01-16,株式会社カインドトライブ,,株式会社,東京都,国分寺市,西町５丁目１０番地３－１０１,,13,214,1850035,,,,,,,2026-01-16,1,,,,,カインドトライブ,0
1535,6021001087242,新規,0,2026-01-16,2026-01-16,株式会社エナジーアグリラボ,,株式会社,神奈川県,綾瀬市,上土棚中２丁目１番１５号,,14,218,2521113,,,,,,,2026-01-16,1,,,,,エナジーアグリラボ,0
1536,6021001087250,新規,0,2026-01-16,2026-01-16,株式会社ＧｒｏｗｉｎＸ,,株式会社,神奈川県,相模原市南区,東林間８丁目５番１３－２号,,14,153,2520311,,,,,,,2026-01-16,1,,,,,グローウィンクス,0
1538,6030001170503,新規,0,2026-01-16,2026-01-16,株式会社テラオハウジング,,株式会社,埼玉県,越谷市,大字大竹１３３番地３,,11,222,3430034,,,,,,,2026-01-16,1,,,,,テラオハウジング,0
1539,6030001170560,新規,0,2026-01-16,2026-01-16,株式会社シエンヌ,,株式会社,埼玉県,春日部市,大場１１０８番地２上原マンション２０８号,,11,214,3440021,,,,,,,2026-01-16,1,,,,,シエンヌ,0
1540,6030001170593,新規,0,2026-01-16,2026-01-16,株式会社ワイアール,,株式会社,埼玉県,熊谷市,妻沼中央１８番地３,,11,202,3600204,,,,,,,2026-01-16,1,,,,,ワイアール,0
1541,6030001170610,新規,0,2026-01-16,2026-01-16,株式会社宮建,,株式会社,埼玉県,入間市,大字中神５４４番地１,,11,225,3580035,,,,,,,2026-01-16,1,,,,,ミヤケン,0
1546,6030003028476,新規,0,2026-01-16,2026-01-16,合同会社えいろく,,合同会社,埼玉県,越谷市,東越谷１０丁目２８番地１６,,11,222,3430023,,,,,,,2026-01-16,1,,,,,エイロク,0
1555,6040001142055,新規,0,2026-01-16,2026-01-16,株式会社ＥＶＡＲ,,株式会社,千葉県,船橋市,馬込町９４８番地１６,,12,204,2730851,,,,,,,2026-01-16,1,,,,,エヴァー,0
1556,6040001142105,新規,0,2026-01-16,2026-01-16,株式会社みらばん,,株式会社,千葉県,千葉市美浜区,幕張西４丁目２－１－１１３,,12,106,2610026,,,,,,,2026-01-16,1,,,,,ミラバン,0
1557,6040001142121,新規,0,2026-01-16,2026-01-16,メンタルヘルス総合サポート株式会社,,株式会社,千葉県,船橋市,二和東１丁目４番６－３号,,12,204,2740805,,,,,,,2026-01-16,1,,,,,メンタルヘルスソウゴウサポート,0
1560,6040005023020,新規,0,2026-01-16,2026-01-16,医療法人社団輝笑会,,その他の設立登記法人,千葉県,市川市,行徳駅前２丁目２０番地２サンシャインコ－ト１Ｆ,,12,203,2720133,,,,,,,2026-01-16,1,,,,,キショウカイ,0
1562,6050001057855,新規,0,2026-01-16,2026-01-16,株式会社ＳＫコミュニティー,,株式会社,茨城県,筑西市,藤ケ谷７１１番地３号棟,,08,227,3080112,,,,,,,2026-01-16,1,,,,,エスケーコミュニティー,0
1563,6050001057871,新規,0,2026-01-16,2026-01-16,改善の道具屋株式会社,,株式会社,茨城県,牛久市,ひたち野西３丁目１９番地１,,08,219,3001206,,,,,,,2026-01-16,1,,,,,カイゼンノドウグヤ,0
1569,6080001027384,新規,0,2026-01-16,2026-01-16,株式会社ＲＥＦ,,株式会社,静岡県,静岡市葵区,山崎２丁目１４番地の２２,,22,101,4211213,,,,,,,2026-01-16,1,,,,,レフ,0
1572,6080401028379,新規,0,2026-01-16,2026-01-16,株式会社溝口ふぁーむ,,株式会社,静岡県,磐田市,福田２４７３番地,,22,211,4371203,,,,,,,2026-01-16,1,,,,,ミゾグチファーム,0
1579,6100005013436,新規,0,2026-01-16,2026-01-16,一般社団法人ＧＯＴ　ＫＥＹ,,その他の設立登記法人,長野県,安曇野市,穂高４３１６番地１,,20,220,3998303,,,,,,,2026-01-16,1,,,,,ガットキー,0
1585,6110003006036,新規,0,2026-01-16,2026-01-16,合同会社ＴＯＦ,,合同会社,新潟県,新潟市北区,濁川３９９３番地,,15,101,9503131,,,,,,,2026-01-16,1,,,,,ティーオーエフ,0
1600,6120001283353,新規,0,2026-01-16,2026-01-16,イワーク株式会社,,株式会社,大阪府,大阪市浪速区,桜川４丁目１７番６号,,27,111,5560022,,,,,,,2026-01-16,1,,,,,イワーク,0
1601,6120001283361,新規,0,2026-01-16,2026-01-16,株式会社テトラベア,,株式会社,大阪府,大阪市東住吉区,杭全５丁目９番１９号,,27,121,5460002,,,,,,,2026-01-16,1,,,,,テトラベア,0
1606,6120003031669,新規,0,2026-01-16,2026-01-16,合同会社Ｈ＆Ｔシッティングサービス,,合同会社,大阪府,寝屋川市,寝屋南２丁目１０番１３号,,27,215,5720855,,,,,,,2026-01-16,1,,,,,エイチアンドティーシッティングサービス,0
1607,6120003031677,新規,0,2026-01-16,2026-01-16,佳辰商事合同会社,,合同会社,大阪府,大阪市浪速区,日本橋５丁目１３番２０号ナニワビル２０３室,,27,111,5560005,,,,,,,2026-01-16,1,,,,,カシンショウジ,0
1608,6120005025355,新規,0,2026-01-16,2026-01-16,医療法人大成会,,その他の設立登記法人,大阪府,大阪市平野区,加美鞍作３丁目９番２１号ラフォーレ加美１階,,27,126,5470004,,,,,,,2026-01-16,1,,,,,タイセイカイ,0
1612,6120101073084,新規,0,2026-01-16,2026-01-16,堺上インベストメント株式会社,,株式会社,大阪府,堺市中区,伏尾３５１番地,,27,142,5998254,,,,,,,2026-01-16,1,,,,,カイジョウインベストメント,0
1616,6120905006826,新規,0,2026-01-16,2026-01-16,一般社団法人ネクストフィールド,,その他の設立登記法人,大阪府,摂津市,鳥飼本町２丁目４番４４号,,27,224,5660052,,,,,,,2026-01-16,1,,,,,ネクストフィールド,0
1618,6122001040073,新規,0,2026-01-16,2026-01-16,ＳＯＬＡＲＥ株式会社,,株式会社,大阪府,八尾市,郡川５丁目２５－８,,27,212,5810872,,,,,,,2026-01-16,1,,,,,ソラーレ,0
1619,6122001040123,新規,0,2026-01-16,2026-01-16,株式会社ＹＵＭＥ　ＰＲＯＪＥＣＴ,,株式会社,大阪府,大東市,諸福１丁目１４－３－２０５,,27,218,5740044,,,,,,,2026-01-16,1,,,,,ユメプロジェクト,0
1623,6122003003433,新規,0,2026-01-16,2026-01-16,合同会社ダイヤモンドヘッド,,合同会社,大阪府,東大阪市,古箕輪１丁目５番６号,,27,227,5780915,,,,,,,2026-01-16,1,,,,,ダイヤモンドヘッド,0
1625,6130001081392,新規,0,2026-01-16,2026-01-16,株式会社ＧＥＳａ,,株式会社,京都府,京都市伏見区,北寝小屋町３１番地,,26,109,6128388,,,,,,,2026-01-16,1,,,,,ジェサ,0
1629,6140001141344,新規,0,2026-01-16,2026-01-16,株式会社ＲＴクリエイト,,株式会社,兵庫県,姫路市,大津区西土井２０番地５,,28,201,6711141,,,,,,,2026-01-16,1,,,,,アールティークリエイト,0
1630,6140001141352,新規,0,2026-01-16,2026-01-16,株式会社誉オート,,株式会社,兵庫県,加東市,上滝野１５１７－２,,28,228,6790211,,,,,,,2026-01-16,1,,,,,ホマレオート,0
1634,6140003023078,新規,0,2026-01-16,2026-01-16,合同会社Ｍ．Ｙ＆Ｃｏ．,,合同会社,兵庫県,姫路市,田寺東２丁目１０番１７－１０５号,,28,201,6700081,,,,,,,2026-01-16,1,,,,,エムワイアンドコー,0
1638,6170001018944,新規,0,2026-01-16,2026-01-16,株式会社蓮水,,株式会社,和歌山県,和歌山市,東高松２丁目８番３９号,,30,201,6410052,,,,,,,2026-01-16,1,,,,,レンスイ,0
1647,6180001170281,新規,0,2026-01-16,2026-01-16,セルスポ株式会社,,株式会社,愛知県,名古屋市中区,丸の内３丁目６番３３号,,23,106,4600002,,,,,,,2026-01-16,1,,,,,セルスポ,0
1648,6180001170323,新規,0,2026-01-16,2026-01-16,岩本工業株式会社,,株式会社,愛知県,名古屋市西区,南堀越１丁目１１番１４号,,23,104,4510054,,,,,,,2026-01-16,1,,,,,イワモトコウギョウ,0
1650,6180003029591,新規,0,2026-01-16,2026-01-16,合同会社蓮,,合同会社,愛知県,名古屋市中川区,打中１丁目３１番地の２,,23,110,4540927,,,,,,,2026-01-16,1,,,,,レン,0
1651,6180003029600,新規,0,2026-01-16,2026-01-16,合同会社ＢｕｚｚＳｙｓｔｅｍ,,合同会社,愛知県,名古屋市中村区,名駅３丁目４－１０アルティメイト名駅１ｓｔ２階,,23,105,4500002,,,,,,,2026-01-16,1,,,,,バズシステム,0
1656,6180301040606,新規,0,2026-01-16,2026-01-16,株式会社ＮＩＫＯ　ＢＡＳＥ,,株式会社,愛知県,みよし市,三好丘旭４丁目２番地１６アソシエ三好丘２０２号,,23,236,4700203,,,,,,,2026-01-16,1,,,,,ニコベース,0
1661,6200001044623,新規,0,2026-01-16,2026-01-16,株式会社アクト輸送,,株式会社,岐阜県,各務原市,大野町１丁目４０番地３,,21,213,5040934,,,,,,,2026-01-16,1,,,,,,0
1663,6200005013839,新規,0,2026-01-16,2026-01-16,一般社団法人日本国際創発社,,その他の設立登記法人,岐阜県,郡上市,八幡町島谷７２番地２１,,21,219,5014222,,,,,,,2026-01-16,1,,,,,ニッポンコクサイソウハツシャ,0
1667,6230001021248,新規,0,2026-01-16,2026-01-16,株式会社環境デザイア,,株式会社,富山県,富山市,新保９６３番地,,16,201,9398253,,,,,,,2026-01-16,1,,,,,カンキョウデザイア,0
1681,6290001112611,新規,0,2026-01-16,2026-01-16,コアトラスト株式会社,,株式会社,福岡県,福岡市東区,水谷１丁目１３－２６,,40,131,8130041,,,,,,,2026-01-16,1,,,,,コアトラスト,0
1682,6290001112693,新規,0,2026-01-16,2026-01-16,株式会社ＳＦＣ,,株式会社,福岡県,福岡市博多区,千代１丁目２３番１５号サイドえびす博多２０１号室,,40,132,8120044,,,,,,,2026-01-16,1,,,,,エスエフシー,0
1683,6290001112768,新規,0,2026-01-16,2026-01-16,株式会社ｂｌｏｏｍ,,株式会社,福岡県,宗像市,くりえいと３丁目１８番４号,,40,220,8114184,,,,,,,2026-01-16,1,,,,,ブルーム,0
1684,6290001112784,新規,0,2026-01-16,2026-01-16,株式会社ＡＬＷ,,株式会社,福岡県,福岡市博多区,博多駅東１丁目９番６号アクタス博多ステーションタワー１４０２,,40,132,8120013,,,,,,,2026-01-16,1,,,,,アロー,0
1692,6300003002404,新規,0,2026-01-16,2026-01-16,合同会社ＮＳＵＳ,,合同会社,佐賀県,鳥栖市,幸津町１３７５番地,,41,203,8410062,,,,,,,2026-01-16,1,,,,,エヌサス,0
1699,6340003005072,新規,0,2026-01-16,2026-01-16,合同会社翔興業,,合同会社,鹿児島県,日置市,伊集院町下谷口２２０４番地１５,,46,216,8992501,,,,,,,2026-01-16,1,,,,,カケルコウギョウ,0
1700,6350001019899,新規,0,2026-01-16,2026-01-16,株式会社かわたけ茶園,,株式会社,宮崎県,児湯郡高鍋町,大字持田５５４１番地２,,45,401,8840005,,,,,,,2026-01-16,1,,,,,カワタケチャエン,0
1701,6350005006349,新規,0,2026-01-16,2026-01-16,医療法人社団ｋｉｄｓ,,その他の設立登記法人,宮崎県,日向市,大字財光寺１７３７番地１の１,,45,206,8830021,,,,,,,2026-01-16,1,,,,,キッズ,0
1702,6360001036258,新規,0,2026-01-16,2026-01-16,株式会社Ｎ．,,株式会社,沖縄県,国頭郡今帰仁村,字諸志８００－１,,47,306,9050426,,,,,,,2026-01-16,1,,,,,エヌドット,0
1703,6360001036266,新規,0,2026-01-16,2026-01-16,株式会社ＲｅｎＳａ,,株式会社,沖縄県,那覇市,若狭３丁目１番１２号,,47,201,9000031,,,,,,,2026-01-16,1,,,,,レンサ,0
1710,6370003007446,新規,0,2026-01-16,2026-01-16,合同会社ダイヤ,,合同会社,宮城県,大崎市,古川小稲葉町１番２８号セジュールロージェＩＩ番館１０１号,00142210,04,215,9896144,,,,,,,2026-01-16,1,,,,,ダイヤ,0
1714,6380003006232,新規,0,2026-01-16,2026-01-16,合同会社うどん屋庵湖嘉,,合同会社,福島県,郡山市,逢瀬町多田野字高萱９番地の１８,,07,203,9630213,,,,,,,2026-01-16,1,,,,,ウドンヤイコカ,0
1719,6420001019396,新規,0,2026-01-16,2026-01-16,株式会社和兼精米所,,株式会社,青森県,上北郡東北町,旭北３番地２,,02,408,0392600,,,,,,,2026-01-16,1,,,,,ワカネセイマイジョ,0
1726,6430003018494,新規,0,2026-01-16,2026-01-16,合同会社海１０００,,合同会社,北海道,小樽市,忍路１丁目２９３番,,01,203,0482561,,,,,,,2026-01-16,1,,,,,ウミサウザンド,0
1727,6430003018503,新規,0,2026-01-16,2026-01-16,合同会社清建,,合同会社,北海道,札幌市白石区,平和通６丁目北４－６－１０３,,01,104,0030029,,,,,,,2026-01-16,1,,,,,セイケン,0
1728,6430003018511,新規,0,2026-01-16,2026-01-16,合同会社美国ハウス,,合同会社,北海道,積丹郡積丹町,大字美国町字船澗４９番地,,01,405,0460201,,,,,,,2026-01-16,1,,,,,ビクニハウス,0
1744,6460101007801,新規,0,2026-01-16,2026-01-16,株式会社塗り手,,株式会社,北海道,河東郡音更町,木野大通東１５丁目３番地５６,,01,631,0800111,,,,,,,2026-01-16,1,,,,,ヌリテ,0
1745,6462505000299,新規,0,2026-01-16,2026-01-16,一般社団法人ａｉｎａ,,その他の設立登記法人,北海道,標津郡中標津町,桜ヶ丘２丁目１３番地３,,01,692,0861153,,,,,,,2026-01-16,1,,,,,アイナ,0
1750,6490001011256,新規,0,2026-01-16,2026-01-16,株式会社小松工務店,,株式会社,高知県,安芸市,矢ノ丸３丁目５番３９号,,39,203,7840001,,,,,,,2026-01-16,1,,,,,コマツコウムテン,0
1770,7010003050027,新規,0,2026-01-16,2026-01-16,合同会社ＢＦキャピタル,,合同会社,東京都,文京区,大塚４丁目３１番１号,,13,105,1120012,,,,,,,2026-01-16,1,,,,,ビーエフキャピタル,0
1772,7010005041164,新規,0,2026-01-16,2026-01-16,一般社団法人ナラティブ・スピーカー協会,,その他の設立登記法人,東京都,中央区,日本橋小舟町３－１２日本橋ＧＲＩＴ１００１号室,,13,102,1030024,,,,,,,2026-01-16,1,,,,,ナラティブスピーカーキョウカイ,0
1773,7010005041230,新規,0,2026-01-16,2026-01-16,一般社団法人ＭＥＷＤ１,,その他の設立登記法人,東京都,千代田区,丸の内１丁目４番１号東京共同会計事務所内,,13,101,1000005,,,,,,,2026-01-16,1,,,,,ミュードワン,0
1782,7010401195828,新規,0,2026-01-16,2026-01-16,株式会社Ｙ．Ｎ　Ｄｅｓｉｇｎ,,株式会社,東京都,港区,南青山５丁目１２番２４号,,13,103,1070062,,,,,,,2026-01-16,1,,,,,ワイエヌデザイン,0
1784,7010403036963,新規,0,2026-01-16,2026-01-16,合同会社七星書店,,合同会社,東京都,港区,南青山３丁目１番３６号青山丸竹ビル６Ｆ,,13,103,1070062,,,,,,,2026-01-16,1,,,,,ナナホシショテン,0
1785,7010403037029,新規,0,2026-01-16,2026-01-16,ＡＺｉ合同会社,,合同会社,東京都,港区,虎ノ門１丁目１番２１号新虎ノ門実業会館５Ｆ,,13,103,1050001,,,,,,,2026-01-16,1,,,,,エーゼットアイ,0
1788,7010405025221,新規,0,2026-01-16,2026-01-16,一般社団法人馨優会,,その他の設立登記法人,東京都,港区,南青山２丁目２２番１９号アドバンテック南青山ビル１０階,,13,103,1070062,,,,,,,2026-01-16,1,,,,,ケイユウカイ,0
1791,7010501055270,新規,0,2026-01-16,2026-01-16,株式会社Ｐ．ＰＡＮＵＷＩＣＨ,,株式会社,東京都,台東区,元浅草３丁目１７番２２号Ｅ．Ｓｔａｇｅ新御徒町１１０１,,13,106,1110041,,,,,,,2026-01-16,1,,,,,ピーパヌウィット,0
1794,7010701048883,新規,0,2026-01-16,2026-01-16,株式会社Ｐｏｐｃｏｒｎ,,株式会社,東京都,品川区,大井５丁目２４番７号,,13,109,1400014,,,,,,,2026-01-16,1,,,,,ポップコーン,0
1795,7010703008084,新規,0,2026-01-16,2026-01-16,公和ホールディングス合同会社,,合同会社,東京都,品川区,上大崎３丁目１番１号目黒セントラルスクエア１５階,,13,109,1410021,,,,,,,2026-01-16,1,,,,,コウワホールディングス,0
1801,7010801036929,新規,0,2026-01-16,2026-01-16,株式会社ライブリッジ,,株式会社,東京都,大田区,久が原６丁目１４番２３号,,13,111,1460085,,,,,,,2026-01-16,1,,,,,ライブリッジ,0
1813,7011003023410,新規,0,2026-01-16,2026-01-16,トコヨピクチャーズ合同会社,,合同会社,東京都,渋谷区,恵比寿西２丁目８番４号ＥＸ恵比寿西ビル５階,,13,113,1500021,,,,,,,2026-01-16,1,,,,,トコヨピクチャーズ,0
1814,7011005011322,新規,0,2026-01-16,2026-01-16,一般社団法人独立事業者支援機構,,その他の設立登記法人,東京都,渋谷区,東２丁目２４番３号長嶋ビル５Ｆ,,13,113,1500011,,,,,,,2026-01-16,1,,,,,ドクリツジギョウシャシエンキコウ,0
1816,7011101114400,新規,0,2026-01-16,2026-01-16,株式会社ＦＯ,,株式会社,東京都,新宿区,下落合４丁目２４番２号ケイズプレイス目白１０１号,,13,104,1610033,,,,,,,2026-01-16,1,,,,,フォー,0
1817,7011101114409,新規,0,2026-01-16,2026-01-16,株式会社ＤａｏＸ,,株式会社,東京都,新宿区,天神町７７番地都住創ラスティック,,13,104,1620808,,,,,,,2026-01-16,1,,,,,ダオックス,0
1818,7011101114573,新規,0,2026-01-16,2026-01-16,株式会社Ｍｉｒ,,株式会社,東京都,新宿区,西新宿３丁目３番１３号西新宿水間ビル６階,,13,104,1600023,,,,,,,2026-01-16,1,,,,,ミール,0
1819,7011303005827,新規,0,2026-01-16,2026-01-16,合同会社ウィステリア,,合同会社,東京都,杉並区,和泉３丁目９番１３号,,13,115,1680063,,,,,,,2026-01-16,1,,,,,ウィステリア,0
1833,7011801047296,新規,0,2026-01-16,2026-01-16,雅泉斎株式会社,,株式会社,東京都,葛飾区,堀切７丁目２７番７号名橋ビル４０５号室,,13,122,1240006,,,,,,,2026-01-16,1,,,,,ガセンサイ,0
1834,7011801047313,新規,0,2026-01-16,2026-01-16,株式会社Ｆ＆Ｂ　Ｐａｒｔｎｅｒｓ,,株式会社,東京都,足立区,新田２丁目１６－２－６０２,,13,121,1230865,,,,,,,2026-01-16,1,,,,,エフアンドビーパートナーズ,0
1835,7011803007273,新規,0,2026-01-16,2026-01-16,合同会社シーザー,,合同会社,東京都,足立区,南花畑５丁目２４番４２号,,13,121,1210062,,,,,,,2026-01-16,1,,,,,シーザー,0
1840,7012401044023,新規,0,2026-01-16,2026-01-16,株式会社ＨＲＫ電工,,株式会社,東京都,府中市,白糸台６丁目３０番地の１,,13,206,1830011,,,,,,,2026-01-16,1,,,,,エイチアールケイデンコウ,0
1841,7012403007564,新規,0,2026-01-16,2026-01-16,合同会社ＢＯＥＬ　ＮＯＴＥ,,合同会社,東京都,武蔵野市,吉祥寺南町５丁目１４番６号ｄｕｏＫＩＣＨＩＪＯＪＩ－Ｎ－１,,13,203,1800003,,,,,,,2026-01-16,1,,,,,ボエルノート,0
1842,7012701019278,新規,0,2026-01-16,2026-01-16,株式会社トリニティナイン,,株式会社,東京都,東村山市,野口町１丁目３２番地９,,13,213,1890022,,,,,,,2026-01-16,1,,,,,トリニティナイン,0
1843,7012801024450,新規,0,2026-01-16,2026-01-16,株式会社恒星,,株式会社,東京都,国分寺市,南町３丁目４番１６号ヘリオス３７８相互第７ビル１Ｆ,,13,214,1850021,,,,,,,2026-01-16,1,,,,,コウセイ,0
1844,7012803003972,新規,0,2026-01-16,2026-01-16,合同会社ユキ,,合同会社,東京都,武蔵村山市,三ツ藤１丁目３９－４,,13,223,2080021,,,,,,,2026-01-16,1,,,,,ユキ,0
1845,7013101009910,新規,0,2026-01-16,2026-01-16,遠智科技株式会社,,株式会社,東京都,福生市,南田園１丁目１３番１２号２０５号室,,13,218,1970004,,,,,,,2026-01-16,1,,,,,エンチカギ,0
1847,7020001166781,新規,0,2026-01-16,2026-01-16,株式会社ＰＡＳＳＩＯＮ,,株式会社,神奈川県,川崎市麻生区,栗木３丁目９番１０号ジェミニＡ１０３,,14,137,2150033,,,,,,,2026-01-16,1,,,,,パッション,0
1849,7020003030135,新規,0,2026-01-16,2026-01-16,ＯＦＦＩＣＥ岳合同会社,,合同会社,神奈川県,川崎市麻生区,東百合丘４丁目１１番３号,,14,137,2150012,,,,,,,2026-01-16,1,,,,,オフィスガク,0
1850,7020005017106,新規,0,2026-01-16,2026-01-16,特定非営利活動法人ことさんち,,その他の設立登記法人,神奈川県,横浜市都筑区,茅ケ崎中央４３－１６ミレナリオビル２０１,,14,118,2240032,,,,,,,2026-01-16,1,,,,,コトサンチ,0
1853,7030001170601,新規,0,2026-01-16,2026-01-16,株式会社グリーンダイヤモンド,,株式会社,埼玉県,富士見市,大字水子１３５０番地７,,11,235,3540011,,,,,,,2026-01-16,1,,,,,グリーンダイヤモンド,0
1854,7030001170634,新規,0,2026-01-16,2026-01-16,ｓｐａｒｋｌｉｎｇ株式会社,,株式会社,埼玉県,さいたま市見沼区,大和田町１丁目２１０１番地アルティア壱番館３０２号室,,11,104,3370053,,,,,,,2026-01-16,1,,,,,スパークリング,0
1859,7030003028459,新規,0,2026-01-16,2026-01-16,合同会社ＤＭＳ,,合同会社,埼玉県,川口市,川口２丁目４番６－９０１号コンフォートステージ,,11,203,3320015,,,,,,,2026-01-16,1,,,,,ディーエムエス,0
1868,7040001142087,新規,0,2026-01-16,2026-01-16,株式会社ＧＹホールディングス,,株式会社,千葉県,千葉市中央区,中央２丁目２番１６－８１１号,,12,101,2600013,,,,,,,2026-01-16,1,,,,,ジーワイホールディングス,0
1869,7040001142112,新規,0,2026-01-16,2026-01-16,株式会社木更津ライスマン,,株式会社,千葉県,木更津市,下郡１０８４番地,,12,206,2920205,,,,,,,2026-01-16,1,,,,,キサラヅライスマン,0
1870,7040001142120,新規,0,2026-01-16,2026-01-16,ＫＯＭＯＲＩ　ＫＥＩＢＩ株式会社,,株式会社,千葉県,船橋市,本町６丁目１２番３号パークサイド船橋１０１号室,,12,204,2730005,,,,,,,2026-01-16,1,,,,,コモリケイビ,0
1871,7040001142194,新規,0,2026-01-16,2026-01-16,株式会社奏音,,株式会社,千葉県,浦安市,弁天１丁目２３番１－９１５号エアーズガーデン新浦安,,12,227,2790026,,,,,,,2026-01-16,1,,,,,カノン,0
1875,7040003029299,新規,0,2026-01-16,2026-01-16,合同会社なかむら,,合同会社,千葉県,千葉市中央区,富士見２丁目７番９号富士見ビル６０９号,,12,101,2600015,,,,,,,2026-01-16,1,,,,,ナカムラ,0
1878,7050001057870,新規,0,2026-01-16,2026-01-16,株式会社いばらき企画,,株式会社,茨城県,水戸市,小吹町３８５番地２,,08,201,3100914,,,,,,,2026-01-16,1,,,,,イバラキキカク,0
1880,7050003009878,新規,0,2026-01-16,2026-01-16,ＨＩＷＡＬＡＮＩ　ＰＯＬＹＮＥＳＩＡＮ　ＡＲＴＳ合同会社,,合同会社,茨城県,つくば市,谷田部２５２７番地（陣場Ｅ２８街区６９）,,08,220,3050861,,,,,,,2026-01-16,1,,,,,ヒワラニポリネシアンアーツ,0
1894,7080003003622,新規,0,2026-01-16,2026-01-16,合同会社黒天,,合同会社,静岡県,静岡市清水区,月見町１１番１４号,,22,103,4240853,,,,,,,2026-01-16,1,,,,,コクテン,0
1897,7080405007790,新規,0,2026-01-16,2026-01-16,社会保険労務士法人オレンジ,,その他の設立登記法人,静岡県,浜松市中央区,幸４丁目１４番４号,,22,138,4338123,,,,,,,2026-01-16,1,,,,,,0
1900,7100001039277,新規,0,2026-01-16,2026-01-16,株式会社Ｈｏｒｓｅ　ａｎｄ　ｔｈｅ　Ｓｕｎ,,株式会社,長野県,北佐久郡軽井沢町,大字発地３４８－５５,,20,321,3890113,,,,,,,2026-01-16,1,,,,,ホースアンドザサン,0
1904,7100003008569,新規,0,2026-01-16,2026-01-16,合同会社レーヴ,,合同会社,長野県,飯田市,東和町２丁目２７番地１,,20,205,3950086,,,,,,,2026-01-16,1,,,,,レーヴ,0
1918,7120001283360,新規,0,2026-01-16,2026-01-16,株式会社いろはリング,,株式会社,大阪府,大阪市中央区,難波４丁目１番１５号近鉄難波ビル１階,,27,128,5420076,,,,,,,2026-01-16,1,,,,,イロハリング,0
1919,7120001283385,新規,0,2026-01-16,2026-01-16,株式会社エイチファイブ,,株式会社,大阪府,大阪市生野区,新今里１丁目８番２２号,,27,116,5440001,,,,,,,2026-01-16,1,,,,,エイチファイブ,0
1920,7120001283435,新規,0,2026-01-16,2026-01-16,未来樹株式会社,,株式会社,大阪府,大阪市住吉区,長居東４丁目２１番７号長居グリーンマンション６０４号室,,27,120,5580004,,,,,,,2026-01-16,1,,,,,ミライジュ,0
1921,7120001283526,新規,0,2026-01-16,2026-01-16,株式会社アイポジー,,株式会社,大阪府,大阪市淀川区,西宮原１丁目５番３３号　新大阪飯田ビル１Ｆ,,27,123,5320004,,,,,,,2026-01-16,1,,,,,アイポジー,0
1925,7120003031676,新規,0,2026-01-16,2026-01-16,合同会社Ｏｄｄ　Ｐｌｕｓ,,合同会社,大阪府,大阪市西区,北堀江２丁目７番７号８０１,,27,106,5500014,,,,,,,2026-01-16,1,,,,,オッドプラス,0
1927,7120005025354,新規,0,2026-01-16,2026-01-16,医療法人智誠会,,その他の設立登記法人,大阪府,枚方市,津田駅前１丁目２８番１６号メディカルガーデン津田駅前１０３号,,27,210,5730125,,,,,,,2026-01-16,1,,,,,チセイカイ,0
1930,7120101073075,新規,0,2026-01-16,2026-01-16,株式会社リノア,,株式会社,大阪府,堺市南区,原山台２丁３番３－１６０８号,,27,145,5900132,,,,,,,2026-01-16,1,,,,,リノア,0
1931,7120103006933,新規,0,2026-01-16,2026-01-16,Ｔｅｋｎｏ　Ｐｒｏｖｉｄｅ合同会社,,合同会社,大阪府,岸和田市,小松里町６５１番地の１,,27,202,5960821,,,,,,,2026-01-16,1,,,,,テクノプロバイド,0
1934,7120903006042,新規,0,2026-01-16,2026-01-16,合同会社Ｂｅｌｌ,,合同会社,大阪府,高槻市,芥川町４丁目６番２３,,27,207,5691123,,,,,,,2026-01-16,1,,,,,ベル,0
1940,7130005017557,新規,0,2026-01-16,2026-01-16,一般社団法人プラントリシャンＪＡＰＡＮ,,その他の設立登記法人,京都府,京都市東山区,大橋町８９番１号鈴木形成外科ビル２Ｆ,,26,105,6050009,,,,,,,2026-01-16,1,,,,,プラントリシャンジャパン,0
1948,7140001141319,新規,0,2026-01-16,2026-01-16,株式会社魚豊,,株式会社,兵庫県,西宮市,松原町２番１１－２０４号,,28,204,6620912,,,,,,,2026-01-16,1,,,,,ウオブン,0
1949,7140001141368,新規,0,2026-01-16,2026-01-16,株式会社ＭＣＬ,,株式会社,兵庫県,神戸市垂水区,向陽２丁目６番１８号向陽センタービル１０３,,28,108,6550012,,,,,,,2026-01-16,1,,,,,エムシーエル,0
1950,7140001141384,新規,0,2026-01-16,2026-01-16,株式会社山田組,,株式会社,兵庫県,明石市,朝霧町３丁目１番２１号,,28,203,6730866,,,,,,,2026-01-16,1,,,,,ヤマダグミ,0
1951,7140001141392,新規,0,2026-01-16,2026-01-16,株式会社エス・オーケー,,株式会社,兵庫県,神戸市兵庫区,和田崎町３丁目１番２４号,,28,105,6520854,,,,,,,2026-01-16,1,,,,,エスオーケー,0
1958,7140003023060,新規,0,2026-01-16,2026-01-16,ＦＦ　ＴＲＡＤＩＮＧ合同会社,,合同会社,兵庫県,神戸市北区,鈴蘭台西町３丁目９－１８第一永晃ハイツ５０５号室,,28,109,6511114,,,,,,,2026-01-16,1,,,,,エフエフトレーディング,0
1959,7140003023069,新規,0,2026-01-16,2026-01-16,合同会社街の映画社,,合同会社,兵庫県,神戸市中央区,浪花町５６ＫｉＰ内,,28,110,6500035,,,,,,,2026-01-16,1,,,,,マチノエイガシャ,0
1960,7150003003805,新規,0,2026-01-16,2026-01-16,シナジー・クリエイションズ合同会社,,合同会社,奈良県,御所市,大字名柄２９番地の１,,29,208,6392321,,,,,,,2026-01-16,1,,,,,シナジークリエイションズ,0
1966,7180001170181,新規,0,2026-01-16,2026-01-16,株式会社ＥＮＣＨＡＮＴＥＤ,,株式会社,愛知県,大府市,月見町６丁目５番地,,23,223,4740036,,,,,,,2026-01-16,1,,,,,エンチャンテッド,0
1967,7180001170231,新規,0,2026-01-16,2026-01-16,ｓｏｌｅｉｌ株式会社,,株式会社,愛知県,稲沢市,稲島東３丁目４０番地,,23,220,4928230,,,,,,,2026-01-16,1,,,,,ソレイユ,0
1968,7180001170256,新規,0,2026-01-16,2026-01-16,株式会社Ｐｅａｃｅ　ｏｆ　Ｍｉｎｄ,,株式会社,愛知県,名古屋市東区,泉１丁目３番４０号,,23,102,4610001,,,,,,,2026-01-16,1,,,,,ピースオブマインド,0
1969,7180001170272,新規,0,2026-01-16,2026-01-16,トライアンフ株式会社,,株式会社,愛知県,半田市,亀崎町４丁目１４７番地,,23,205,4750023,,,,,,,2026-01-16,1,,,,,トライアンフ,0
1970,7180001170280,新規,0,2026-01-16,2026-01-16,株式会社Ｎｅｘｕｓ　Ｆｏｒｃｅ,,株式会社,愛知県,豊明市,新栄町１丁目１１２番地１,,23,229,4701154,,,,,,,2026-01-16,1,,,,,ネクサスフォース,0
1971,7180001170289,新規,0,2026-01-16,2026-01-16,スパイスサポート株式会社,,株式会社,愛知県,名古屋市西区,八筋町２７番地,,23,104,4520815,,,,,,,2026-01-16,1,,,,,スパイスサポート,0
1972,7180001170322,新規,0,2026-01-16,2026-01-16,株式会社吉華総合事務所,,株式会社,愛知県,長久手市,長配２丁目１５１１番地シャトルミエ３０６,,23,238,4801114,,,,,,,2026-01-16,1,,,,,キッカソウゴウジムショ,0
1973,7180001170339,新規,0,2026-01-16,2026-01-16,株式会社ＭＴ．クラフト,,株式会社,愛知県,名古屋市西区,比良２丁目２５４番地の４,,23,104,4520802,,,,,,,2026-01-16,1,,,,,エムティークラフト,0
1978,7180003029616,新規,0,2026-01-16,2026-01-16,合同会社Ｓｕｐｐｌｙ’ｓ,,合同会社,愛知県,名古屋市中村区,烏森町６丁目２１４番地の３,,23,105,4530855,,,,,,,2026-01-16,1,,,,,サプライズ,0
1979,7180003029624,新規,0,2026-01-16,2026-01-16,Ｍｏｔｏｒ　Ｐｏｉｎｔ合同会社,,合同会社,愛知県,名古屋市中村区,京田町１丁目２５番地ハウス壱番館２０１号室,,23,105,4530816,,,,,,,2026-01-16,1,,,,,モーターポイント,0
1980,7180003029632,新規,0,2026-01-16,2026-01-16,合同会社サイキ,,合同会社,愛知県,名古屋市中区,新栄２丁目２０番１７号,,23,106,4600007,,,,,,,2026-01-16,1,,,,,サイキ,0
1983,7180301040613,新規,0,2026-01-16,2026-01-16,株式会社ＣＯＢＲＡ　Ｈｏｌｄｉｎｇｓ,,株式会社,愛知県,岡崎市,橋目町字屋敷４６番地,,23,202,4440908,,,,,,,2026-01-16,1,,,,,コブラホールディングス,0
1986,7180303006876,新規,0,2026-01-16,2026-01-16,合同会社醸す,,合同会社,愛知県,安城市,西別所町中新田４９番地２,,23,212,4460012,,,,,,,2026-01-16,1,,,,,カモス,0
1990,7210001020449,新規,0,2026-01-16,2026-01-16,株式会社ヴェリタス,,株式会社,福井県,敦賀市,呉竹町２丁目８番５号,,18,202,9140802,,,,,,,2026-01-16,1,,,,,ヴェリタス,0
1996,7240001066051,新規,0,2026-01-16,2026-01-16,かしばファームサポートサービス株式会社,,株式会社,広島県,庄原市,板橋町５４５番地２,,34,210,7270014,,,,,,,2026-01-16,1,,,,,カシバファームサポートサービス,0
1999,7260001040913,新規,0,2026-01-16,2026-01-16,ＣＩＢＩ　ＯＫＡＹＡＭＡ株式会社,,株式会社,岡山県,加賀郡吉備中央町,竹荘７９１番地３,,33,681,7161122,,,,,,,2026-01-16,1,,,,,チビオカヤマ,0
2006,7290001112726,新規,0,2026-01-16,2026-01-16,株式会社ＣＴＳ研究所,,株式会社,福岡県,久留米市,高良内町２７０５番地２,,40,203,8390852,,,,,,,2026-01-16,1,,,,,シィティエスケンキュウショ,0
2007,7290001112734,新規,0,2026-01-16,2026-01-16,株式会社ＮＡＴＵＲＡＬ　ＮＩＮＥ,,株式会社,福岡県,久留米市,諏訪野町４番地１－７０１号,,40,203,8300037,,,,,,,2026-01-16,1,,,,,ナチュラルナイン,0
2008,7290001112742,新規,0,2026-01-16,2026-01-16,株式会社Ｅｒａｌｉｓ,,株式会社,福岡県,久留米市,長門石３丁目８番２１－１０１号,,40,203,8300027,,,,,,,2026-01-16,1,,,,,エラリス,0
2009,7290001112759,新規,0,2026-01-16,2026-01-16,株式会社丸星ラーメン,,株式会社,福岡県,久留米市,高野２丁目６番５２号,,40,203,8300002,,,,,,,2026-01-16,1,,,,,マルホシラーメン,0
2010,7290001112767,新規,0,2026-01-16,2026-01-16,株式会社高山興業,00142222,株式会社,福岡県,久留米市,野中町４４８番地４,,40,203,8390862,,,,,,,2026-01-16,1,,,,,タカヤマコウギョウ,0
2011,7290001112775,新規,0,2026-01-16,2026-01-16,九州コンテンツワークス株式会社,,株式会社,福岡県,福岡市中央区,大名１丁目３番４１号プリオ大名ビル２階,,40,133,8100041,,,,,,,2026-01-16,1,,,,,キュウシュウコンテンツワークス,0
2014,7290003017907,新規,0,2026-01-16,2026-01-16,合同会社系統用蓄電池５号,,合同会社,福岡県,福岡市博多区,博多駅東２丁目５番２１号,,40,132,8120013,,,,,,,2026-01-16,1,,,,,ケイトウヨウチクデンチゴゴウ,0
2015,7290003017923,新規,0,2026-01-16,2026-01-16,合同会社Ｌｏｃａｌ　Ｂｒｉｄｇｅ,,合同会社,福岡県,福岡市中央区,天神２丁目２－１２,,40,133,8100001,,,,,,,2026-01-16,1,,,,,ローカルブリッジ,0
2017,7290803005243,新規,0,2026-01-16,2026-01-16,合同会社ＴＬＸ,,合同会社,福岡県,北九州市若松区,畑谷町７－３７,,40,103,8080055,,,,,,,2026-01-16,1,,,,,ティーエルエックス,0
2018,7310001019927,新規,0,2026-01-16,2026-01-16,株式会社ジェイマックス,,株式会社,長崎県,諫早市,福田町２５４４－１サンハイツ福田１０５,,42,204,8540001,,,,,,,2026-01-16,1,,,,,ジェイマックス,0
2021,7320001021543,新規,0,2026-01-16,2026-01-16,株式会社輝,,株式会社,大分県,大分市,汐見１丁目６番４０号,,44,201,8700253,,,,,,,2026-01-16,1,,,,,カガヤキ,0
2026,7340003005071,新規,0,2026-01-16,2026-01-16,合同会社Ｎ．ｓｅｌｅｃｔｉｏｎ,,合同会社,鹿児島県,姶良市,西餅田３８４０番地２２,,46,225,8995431,,,,,,,2026-01-16,1,,,,,エヌセレクション,0
2030,7350001019898,新規,0,2026-01-16,2026-01-16,株式会社ＭＯＲＥ,,株式会社,宮崎県,宮崎市,松橋１丁目１０番１８号２０００コーポコダマ１０１号,,45,201,8800013,,,,,,,2026-01-16,1,,,,,モア,0
2032,7350005006348,新規,0,2026-01-16,2026-01-16,医療法人りゅうたろう歯科クリニック,,その他の設立登記法人,宮崎県,宮崎市,佐土原町下田島９３９４番地１,,45,201,8800211,,,,,,,2026-01-16,1,,,,,リュウタロウシカクリニック,0
2038,7380001035819,新規,0,2026-01-16,2026-01-16,株式会社ＦＵＲＯＭ,,株式会社,福島県,いわき市,小名浜字芳浜１１番地の５９,,07,204,9718101,,,,,,,2026-01-16,1,,,,,フロム,0
2041,7420001019370,新規,0,2026-01-16,2026-01-16,株式会社九東リレーション,,株式会社,青森県,青森市,大字矢田前字浅井２３番地６,,02,201,0300936,,,,,,,2026-01-16,1,,,,,キュウトウリレーション,0
2052,7430003018485,新規,0,2026-01-16,2026-01-16,高田清掃管理合同会社,00142209,合同会社,北海道,札幌市豊平区,中の島二条３丁目１－１号,,01,105,0620922,,,,,,,2026-01-16,1,,,,,タカダセイソウカンリ,0
2053,7430003018510,新規,0,2026-01-16,2026-01-16,合同会社Ｔ‐ｇｒａｃｅ,,合同会社,北海道,札幌市手稲区,新発寒五条５丁目９番２０号,,01,109,0060805,,,,,,,2026-01-16,1,,,,,ティーグレイス,0
2071,7490001011255,新規,0,2026-01-16,2026-01-16,株式会社Ｌａｔｔｉｃｅ,,株式会社,高知県,高知市,はりまや町１丁目１３番１０号,,39,201,7800822,,,,,,,2026-01-16,1,,,,,ラティス,0
2072,7500003003661,新規,0,2026-01-16,2026-01-16,合同会社サンクスリンク,,合同会社,愛媛県,松山市,北土居４丁目５番３－３号,,38,201,7911104,,,,,,,2026-01-16,1,,,,,サンクスリンク,0
2084,8010001261673,新規,0,2026-01-16,2026-01-16,株式会社ＫＯＢＡＮ,,株式会社,東京都,文京区,本駒込２丁目３番１６号,,13,105,1130021,,,,,,,2026-01-16,1,,,,,コバン,0
2086,8010005041221,新規,0,2026-01-16,2026-01-16,弁護士法人増田パートナーズ法律事務所,,その他の設立登記法人,東京都,千代田区,内神田１丁目６番１０号笠原ビルディング１２階,,13,101,1010047,,,,,,,2026-01-16,1,,,,,マスダパートナーズホウリツジムショ,0
2092,8010405025237,新規,0,2026-01-16,2026-01-16,一般社団法人ｃｏｒｅ１７,,その他の設立登記法人,東京都,港区,芝浦１丁目１番１号,,13,103,1050023,,,,,,,2026-01-16,1,,,,,コアセブンティーン,0
2099,8010605004544,新規,0,2026-01-16,2026-01-16,一般社団法人欅,,その他の設立登記法人,東京都,江東区,千田４番６号ドエル清光１階,,13,108,1350013,,,,,,,2026-01-16,1,,,,,ケヤキ,0
2102,8010903010541,新規,0,2026-01-16,2026-01-16,合同会社みくや,,合同会社,東京都,世田谷区,三軒茶屋１丁目３５番２３号,,13,112,1540024,,,,,,,2026-01-16,1,,,,,ミクヤ,0
2110,8011001174667,新規,0,2026-01-16,2026-01-16,株式会社ＩＮＳＴＥＬＬＡ,,株式会社,東京都,渋谷区,恵比寿３丁目２３－２Ｃ２,,13,113,1500013,,,,,,,2026-01-16,1,,,,,インステラ,0
2111,8011001174956,新規,0,2026-01-16,2026-01-16,Ｗｈｉｔｅｃａｐ　Ｅｑｕｉｔｉｅｓ株式会社,,株式会社,東京都,渋谷区,千駄ヶ谷３丁目１２番１号,,13,113,1510051,,,,,,,2026-01-16,1,,,,,ホワイトキャップエクイティーズ,0
2112,8011001174989,新規,0,2026-01-16,2026-01-16,アネラ薬局株式会社,,株式会社,東京都,渋谷区,道玄坂１丁目１０番８号渋谷道玄坂東急ビル２Ｆ－Ｃ,,13,113,1500043,,,,,,,2026-01-16,1,,,,,アネラヤッキョク,0
2115,8011003023335,新規,0,2026-01-16,2026-01-16,合同会社１７０．２６,,合同会社,東京都,目黒区,自由が丘２丁目１６番１２号ＲＪ３,,13,110,1520035,,,,,,,2026-01-16,1,,,,,イチナナゼロドットニーロク,0
2124,8011301031196,新規,0,2026-01-16,2026-01-16,株式会社ＨＩＩＲＡＧＩ,,株式会社,東京都,杉並区,上荻３丁目３番２号,,13,115,1670043,,,,,,,2026-01-16,1,,,,,ヒイラギ,0
2134,8011705001927,新規,0,2026-01-16,2026-01-16,一般社団法人中華網魚福音傳播協會,,その他の設立登記法人,東京都,江戸川区,南小岩３丁目１０－９南小岩スカイマンション３０３,,13,123,1330056,,,,,,,2026-01-16,1,,,,,チュウカワンユイフクインデンパキョウカイ,0
2140,8012401043998,新規,0,2026-01-16,2026-01-16,株式会社北村音響設計,,株式会社,東京都,稲城市,若葉台３丁目１番地の１・Ｅ棟３０４号室,,13,225,2060824,,,,,,,2026-01-16,1,,,,,キタムラオンキョウセッケイ,0
2141,8012401044014,新規,0,2026-01-16,2026-01-16,株式会社Ｔｈｅ　Ｉｎｎｏｖａｔｉｏｎ,,株式会社,東京都,武蔵野市,境２丁目１０番２２号,,13,203,1800022,,,,,,,2026-01-16,1,,,,,ザイノベーション,0
2142,8012401044022,新規,0,2026-01-16,2026-01-16,株式会社ＳＥＰ,,株式会社,東京都,稲城市,矢野口２７３３番地の１,,13,225,2060812,,,,,,,2026-01-16,1,,,,,エスイーピー,0
2143,8012401044030,新規,0,2026-01-16,2026-01-16,ケア・ムーヴ株式会社,,株式会社,東京都,武蔵野市,吉祥寺南町３丁目２１番１２号,,13,203,1800003,,,,,,,2026-01-16,1,,,,,ケアムーヴ,0
2145,8012701019277,新規,0,2026-01-16,2026-01-16,株式会社Ｒキャピタル,,株式会社,東京都,清瀬市,上清戸１丁目１２番２７号,,13,221,2040013,,,,,,,2026-01-16,1,,,,,アールキャピタル,0
2146,8012705002493,新規,0,2026-01-16,2026-01-16,一般社団法人ＮＥＯ,,その他の設立登記法人,東京都,清瀬市,上清戸２丁目４番１７号,,13,221,2040013,,,,,,,2026-01-16,1,,,,,ネオ,0
2147,8012803003971,新規,0,2026-01-16,2026-01-16,合同会社虹プランニング,,合同会社,東京都,日野市,多摩平１丁目５番地１２,,13,212,1910062,,,,,,,2026-01-16,1,,,,,ニジプランニング,0
2155,8020001166673,新規,0,2026-01-16,2026-01-16,株式会社グリーニア,,株式会社,神奈川県,川崎市多摩区,長尾６丁目３４番３号,,14,135,2140023,,,,,,,2026-01-16,1,,,,,グリーニア,0
2160,8020003030134,新規,0,2026-01-16,2026-01-16,グローバルウェルネスコンサルティング合同会社,,合同会社,神奈川県,横浜市中区,不老町２丁目１１番地６－５０１号室,,14,104,2310032,,,,,,,2026-01-16,1,,,,,グローバルウェルネスコンサルティング,0
2162,8021001087240,新規,0,2026-01-16,2026-01-16,株式会社ＳＡＷＡＤＥＮ,,株式会社,神奈川県,平塚市,横内４３８６－６,,14,203,2540002,,,,,,,2026-01-16,1,,,,,サワデン,0
2163,8021001087249,新規,0,2026-01-16,2026-01-16,株式会社湘南クリエイション,,株式会社,神奈川県,平塚市,黒部丘８番１７－１０１号コスモ平塚黒部丘,,14,203,2540821,,,,,,,2026-01-16,1,,,,,ショウナンクリエイション,0
2171,8030001170484,新規,0,2026-01-16,2026-01-16,株式会社ＭＨＴ,,株式会社,埼玉県,春日部市,永沼１８１９番地１,,11,214,3440123,,,,,,,2026-01-16,1,,,,,エムエイチティ,0
2175,8030005022384,新規,0,2026-01-16,2026-01-16,一般社団法人サンキュー,,その他の設立登記法人,埼玉県,比企郡鳩山町,松ヶ丘１丁目２番４号鳩山町タウンセンター１階,,11,348,3500313,,,,,,,2026-01-16,1,,,,,サンキュー,0
2181,8040001142136,新規,0,2026-01-16,2026-01-16,株式会社ｃｒｅｓｔ,,株式会社,千葉県,千葉市中央区,川戸町４０４番地,,12,101,2600802,,,,,,,2026-01-16,1,,,,,クレスト,0
2185,8040003029298,新規,0,2026-01-16,2026-01-16,合同会社ＴＡＳＣ,,合同会社,千葉県,船橋市,古作４丁目６番６１号,,12,204,2730037,,,,,,,2026-01-16,1,,,,,タスク,0
2191,8050005013745,新規,0,2026-01-16,2026-01-16,特定非営利活動法人Ｃｈｏｒｉ　Ｂｅａｎｓ,,その他の設立登記法人,茨城県,つくば市,下広岡３８３番地５,,08,220,3050042,,,,,,,2026-01-16,1,,,,,チョリビーンズ,0
2194,8060001038935,新規,0,2026-01-16,2026-01-16,ＭＡＹＵＺＵＭＩメディカル株式会社,,株式会社,栃木県,宇都宮市,豊郷台３丁目４３番地２,,09,201,3200003,,,,,,,2026-01-16,1,,,,,マユズミメディカル,0
2195,8060001038943,新規,0,2026-01-16,2026-01-16,株式会社ひなた足場,,株式会社,栃木県,鹿沼市,千渡２３１０番地５３,,09,205,3220002,,,,,,,2026-01-16,1,,,,,ヒナタアシバ,0
2197,8070003006261,新規,0,2026-01-16,2026-01-16,合同会社リコフラワー,,合同会社,群馬県,邑楽郡明和町,中谷１１６番地７,,10,522,3700713,,,,,,,2026-01-16,1,,,,,リコフラワー,0
2204,8080401028385,新規,0,2026-01-16,2026-01-16,株式会社メテオール,,株式会社,静岡県,浜松市中央区,田町３２４番地の１８コスモ第７ビル４階,,22,138,4300944,,,,,,,2026-01-16,1,,,,,メテオール,0
2224,8120001283426,新規,0,2026-01-16,2026-01-16,株式会社播州部屋,,株式会社,大阪府,大阪市北区,本庄西１丁目１番７－３６１１号,,27,127,5310073,,,,,,,2026-01-16,1,,,,,バンシュウベヤ,0
2228,8120005025345,新規,0,2026-01-16,2026-01-16,一般社団法人Ｍ・コンシェルジュ,,その他の設立登記法人,大阪府,大阪市北区,梅田１丁目２番２号大阪駅前第２ビル１２－１２,,27,127,5300001,,,,,,,2026-01-16,1,,,,,エムコンシェルジュ,0
2229,8120005025353,新規,0,2026-01-16,2026-01-16,医療法人みどり会,,その他の設立登記法人,大阪府,大阪市鶴見区,緑１丁目１９番２号プラザみどり１階,,27,124,5380054,,,,,,,2026-01-16,1,,,,,ミドリカイ,0
2230,8120101073074,新規,0,2026-01-16,2026-01-16,株式会社ＳＰＲＩＮＧＤＡＹＳ,,株式会社,大阪府,堺市中区,東山２４６番地１２,,27,142,5998247,,,,,,,2026-01-16,1,,,,,スプリングデイズ,0
2231,8120101073082,新規,0,2026-01-16,2026-01-16,ハウスネットサービス株式会社,,株式会社,大阪府,堺市西区,山田１丁２０番３号,,27,144,5938316,,,,,,,2026-01-16,1,,,,,ハウスネットサービス,0
2234,8120903006041,新規,0,2026-01-16,2026-01-16,合同会社リンクプランニング,,合同会社,大阪府,高槻市,辻子１丁目２０番地２３号,,27,207,5690036,,,,,,,2026-01-16,1,,,,,リンクプランニング,0
2235,8122001040071,新規,0,2026-01-16,2026-01-16,株式会社翔矢,,株式会社,大阪府,八尾市,小阪合町３丁目８番１６号,,27,212,5810012,,,,,,,2026-01-16,1,,,,,ショウヤ,0
2240,8140003023076,新規,0,2026-01-16,2026-01-16,合同会社まねき,,合同会社,兵庫県,尼崎市,南武庫之荘１１丁目９番８号,,28,202,6610033,,,,,,,2026-01-16,1,,,,,マネキ,0
2241,8140005027769,新規,0,2026-01-16,2026-01-16,一般社団法人フラワーオブライフ,,その他の設立登記法人,兵庫県,明石市,魚住町中尾６０４番地の１３,,28,203,6740082,,,,,,,2026-01-16,1,,,,,フラワーオブライフ,0
2242,8150001028670,新規,0,2026-01-16,2026-01-16,株式会社そだちの森,,株式会社,奈良県,奈良市,宝来町１３１０番地３８号,,29,201,6310844,,,,,,,2026-01-16,1,,,,,ソダチノモリ,0
2245,8170001018950,新規,0,2026-01-16,2026-01-16,株式会社ＲＩＮＳＴＹＬＥ,,株式会社,和歌山県,田辺市,下万呂４２３番地,,30,206,6460004,,,,,,,2026-01-16,1,,,,,リンスタイル,0
2247,8180001170255,新規,0,2026-01-16,2026-01-16,株式会社ＡＫＩＳＩＡ,,株式会社,愛知県,愛西市,大井町弥八１６６番地,,23,232,4960921,,,,,,,2026-01-16,1,,,,,アキシア,0
2248,8180001170338,新規,0,2026-01-16,2026-01-16,株式会社Ｎ　ＨＯＵＳＥ,,株式会社,愛知県,江南市,前飛保町寺町２２７番地１,,23,217,4838336,,,,,,,2026-01-16,1,,,,,エヌハウス,0
2253,8180301040604,新規,0,2026-01-16,2026-01-16,株式会社Ｉｒｉｓ,,株式会社,愛知県,豊橋市,岩屋町字岩屋下３２番地２９,,23,201,4400842,,,,,,,2026-01-16,1,,,,,アイリス,0
2258,8210001020464,新規,0,2026-01-16,2026-01-16,株式会社きりん薬局,,株式会社,福井県,福井市,春日３丁目２０３番地４４,,18,201,9188108,,,,,,,2026-01-16,1,,,,,キリンヤッキョク,0
2266,8240001066059,新規,0,2026-01-16,2026-01-16,ＧＳハイウェイ中国株式会社,,株式会社,広島県,広島市佐伯区,五日市２丁目９番２０－６号勝谷ビル３０１号,,34,108,7315127,,,,,,,2026-01-16,1,,,,,ジーエスハイウェイチュウゴク,0
2269,8240003007548,新規,0,2026-01-16,2026-01-16,合同会社高島ビル,00142211,合同会社,広島県,広島市西区,南観音７丁目１３番２８号,,34,104,7330035,,,,,,,2026-01-16,1,,,,,タカシマビル,0
2271,8250003003884,新規,0,2026-01-16,2026-01-16,合同会社バビロン,,合同会社,山口県,下関市,竹崎町３丁目１３番７号,,35,201,7500025,,,,,,,2026-01-16,1,,,,,バビロン,0
2274,8260001040912,新規,0,2026-01-16,2026-01-16,株式会社プレシャスライフケア,,株式会社,岡山県,岡山市東区,西大寺射越３６５番地１１３,,33,103,7048121,,,,,,,2026-01-16,1,,,,,プレシャスライフケア,0
2284,8290001112725,新規,0,2026-01-16,2026-01-16,株式会社ドクターワン,,株式会社,福岡県,福岡市中央区,舞鶴１丁目１番１１号天神グラスビルディング４１３,,40,133,8100073,,,,,,,2026-01-16,1,,,,,ドクターワン,0
2285,8290001112774,新規,0,2026-01-16,2026-01-16,株式会社ＥＮＤＥＡＶＯＲ,,株式会社,福岡県,福岡市中央区,今川１丁目５番１０号,,40,133,8100054,,,,,,,2026-01-16,1,,,,,エンデヴァー,0
2287,8290003017906,新規,0,2026-01-16,2026-01-16,合同会社系統用蓄電池３号,,合同会社,福岡県,福岡市博多区,博多駅東２丁目５番２１号,,40,132,8120013,,,,,,,2026-01-16,1,,,,,ケイトウヨウチクデンチサンゴウ,0
2288,8290003017914,新規,0,2026-01-16,2026-01-16,保田合同会社,,合同会社,福岡県,糟屋郡宇美町,貴船５丁目１９番２０号,,40,341,8112131,,,,,,,2026-01-16,1,,,,,ヤスダ,0
2291,8320001021542,新規,0,2026-01-16,2026-01-16,株式会社Ｈ．Ｇ．Ｓ．,,株式会社,大分県,宇佐市,大字葛原２６５番地の１,,44,211,8790443,,,,,,,2026-01-16,1,,,,,エッチジエス,0
2300,8350001019897,新規,0,2026-01-16,2026-01-16,株式会社Ｗｅｌｌ　Ｂｅｉｎｇ,,株式会社,宮崎県,宮崎市,大王町３０番地１,,45,201,8800871,,,,,,,2026-01-16,1,,,,,ウェルビーイング,0
2315,8430001096004,新規,0,2026-01-16,2026-01-16,ＡＧＲＩ　ＳＣＩＥＮＣＥ株式会社,,株式会社,北海道,樺戸郡浦臼町,字ヲソキナイ２番地の８５０,,01,431,0610600,,,,,,,2026-01-16,1,,,,,アグリサイエンス,0
2316,8430001096037,新規,0,2026-01-16,2026-01-16,株式会社ｍｉｌｅｓｔｏｎｅ,,株式会社,北海道,小樽市,清水町２４番２号,,01,203,0470045,,,,,,,2026-01-16,1,,,,,マイルストーン,0
2325,8700150133959,新規,0,2026-01-16,2026-01-16,ｊｉｕｔｉａｎｇｕｏｊｉｍａｏｙｉｙａｎｇｚｈｏｕｙｏｕｘｉａｎｇｏｎｇｓｉ,,外国会社等,,,,,,,,ｂｏｗｕｇｕａｎｌｕ　５４７ｈａｏ　ｄｅｘｉｎｄａｓｈａ　８１５　ｈａｎｊｉａｎｇｑｕ，ｙａｎｇｚｈｏｕ,,,,,,2026-01-16,1,,,,,ジュウテンゴウジマオイヤンゾウユウゲンコウシ,0
2344,9010001261755,新規,0,2026-01-16,2026-01-16,Ｓｈｉｎｙ　Ｂｒａｎｄｓ　Ｊａｐａｎ株式会社,,株式会社,東京都,中央区,銀座３丁目１０番９号ＫＥＣ銀座ビル８階,,13,102,1040061,,,,,,,2026-01-16,1,,,,,シャイニーブランズジャパン,0
2345,9010001261813,新規,0,2026-01-16,2026-01-16,株式会社プリベント不動産,,株式会社,東京都,中央区,日本橋小舟町９番１８号,,13,102,1030024,,,,,,,2026-01-16,1,,,,,プリベントフドウサン,0
2346,9010001261870,新規,0,2026-01-16,2026-01-16,株式会社セレストリ,,株式会社,東京都,千代田区,四番町２番地１クレール東郷坂１Ｆ・Ｍ－５０,,13,101,1020081,,,,,,,2026-01-16,1,,,,,セレストリ,0
2347,9010001261994,新規,0,2026-01-16,2026-01-16,株式会社メルキア,,株式会社,東京都,中央区,銀座１丁目１２番４号Ｎ＆ＥＢＬＤ．６Ｆ,,13,102,1040061,,,,,,,2026-01-16,1,,,,,メルキア,0
2350,9010005041220,新規,0,2026-01-16,2026-01-16,特定非営利活動法人Ｗａｔｏｔｏ　ｗａ　Ａｆｒｉｃａ,,その他の設立登記法人,東京都,千代田区,神田須田町１丁目７番８号ＶＯＲＴ秋葉原ＩＶ２Ｆ,00142219,13,101,1010041,,,,,,,2026-01-16,1,,,,,ワトトワアフリカ,0
2351,9010005041229,新規,0,2026-01-16,2026-01-16,一般社団法人ＭＥＷＤ２,,その他の設立登記法人,東京都,千代田区,丸の内１丁目４番１号東京共同会計事務所内,,13,101,1000005,,,,,,,2026-01-16,1,,,,,ミュードツー,0
2361,9010401195850,新規,0,2026-01-16,2026-01-16,佳享樂投資株式会社,,株式会社,東京都,港区,芝大門１丁目１０番１１号芝大門センタービル１０階リージャス芝大門,,13,103,1050012,,,,,,,2026-01-16,1,,,,,カキョウラクトウシ,0
2363,9010403037068,新規,0,2026-01-16,2026-01-16,合同会社夢スペース,,合同会社,東京都,港区,六本木２丁目２番２号イトーピア六本木４０８号,,13,103,1060032,,,,,,,2026-01-16,1,,,,,ユメスペース,0
2364,9010501055293,新規,0,2026-01-16,2026-01-16,禾源興業株式会社,,株式会社,東京都,台東区,台東４丁目７番５号ＣＨＩＯ御徒町６０１,,13,106,1100016,,,,,,,2026-01-16,1,,,,,カゲンコウギョウ,0
2366,9010601068559,新規,0,2026-01-16,2026-01-16,セイズライフ株式会社,,株式会社,東京都,江東区,亀戸６丁目２２番４号２Ｆ,,13,108,1360071,,,,,,,2026-01-16,1,,,,,セイズライフ,0
2367,9010603012003,新規,0,2026-01-16,2026-01-16,合同会社豊影,,合同会社,東京都,江東区,清澄３丁目７番６号長沢ビル３Ｆ,,13,108,1350024,,,,,,,2026-01-16,1,,,,,トヨカゲ,0
2379,9010903010557,新規,0,2026-01-16,2026-01-16,合同会社とちどち,,合同会社,東京都,世田谷区,赤堤５丁目２４番６号中込ビル２０１,,13,112,1560044,,,,,,,2026-01-16,1,,,,,トチドチ,0
2384,9011001174757,新規,0,2026-01-16,2026-01-16,株式会社ＳＩＲＤＩＡ,,株式会社,東京都,目黒区,平町２丁目９番１４号,,13,110,1520032,,,,,,,2026-01-16,1,,,,,シルディア,0
2386,9011003023383,新規,0,2026-01-16,2026-01-16,合同会社Ｅｓｃａｐｅ　Ｓｙｓｔｅｍｓ,,合同会社,東京都,渋谷区,道玄坂１丁目１０番８号渋谷道玄坂東急ビル２Ｆ－Ｃ,,13,113,1500043,,,,,,,2026-01-16,1,,,,,エスケープシステムズ,0
2387,9011005011320,新規,0,2026-01-16,2026-01-16,一般社団法人日本福袋協会,,その他の設立登記法人,東京都,渋谷区,神宮前２丁目１３番９号ＢＩＲＴＨ神宮前１０１号室,,13,113,1500001,,,,,,,2026-01-16,1,,,,,ニホンフクブクロキョウカイ,0
2389,9011101114381,新規,0,2026-01-16,2026-01-16,株式会社ＡＧソリューションズ,,株式会社,東京都,新宿区,西新宿３丁目３－１３西新宿水間ビル６Ｆ,,13,104,1600023,,,,,,,2026-01-16,1,,,,,エージーソリューションズ,0
2390,9011101114539,新規,0,2026-01-16,2026-01-16,株式会社ブリルライズ,,株式会社,東京都,新宿区,西新宿７丁目１９番１８号,,13,104,1600023,,,,,,,2026-01-16,1,,,,,ブリルライズ,0
2401,9011403004999,新規,0,2026-01-16,2026-01-16,合同会社ニューアーク,,合同会社,東京都,板橋区,成増３丁目４８－１成増ＡＰ２０３,,13,119,1750094,,,,,,,2026-01-16,1,,,,,ニューアーク,0
2404,9011701029087,新規,0,2026-01-16,2026-01-16,株式会社ワタナベエステート,,株式会社,東京都,江戸川区,東瑞江２丁目１２番１６号,,13,123,1320014,,,,,,,2026-01-16,1,,,,,ワタナベエステート,0
2405,9011705001926,新規,0,2026-01-16,2026-01-16,一般社団法人ヴァクトパートナーズ,,その他の設立登記法人,東京都,江戸川区,南小岩６丁目２９番５号,,13,123,1330056,,,,,,,2026-01-16,1,,,,,ヴァクトパートナーズ,0
2410,9012401044013,新規,0,2026-01-16,2026-01-16,株式会社Ｓｍｉｌｅ　Ｄａｉｌｙ,,株式会社,東京都,稲城市,矢野口１３９０番地の１ライオンズグローベル稲城パルティール４０９号室,,13,225,2060812,,,,,,,2026-01-16,1,,,,,スマイルデイリィ,0
2411,9012403007538,新規,0,2026-01-16,2026-01-16,合同会社エンジョイグローバル,,合同会社,東京都,小金井市,中町４丁目４番２５号,,13,210,1840012,,,,,,,2026-01-16,1,,,,,エンジョイグローバル,0
2417,9012801024473,新規,0,2026-01-16,2026-01-16,むさしの計画株式会社,,株式会社,東京都,立川市,砂川町８丁目５３番地の３,,13,202,1900031,,,,,,,2026-01-16,1,,,,,ムサシノケイカク,0
2427,9020001166524,新規,0,2026-01-16,2026-01-16,株式会社湘亜工業,,株式会社,神奈川県,横浜市栄区,飯島町２０９２番地１４,,14,115,2440842,,,,,,,2026-01-16,1,,,,,ショウアコウギョウ,0
2428,9020001166714,新規,0,2026-01-16,2026-01-16,ななきエステート株式会社,,株式会社,神奈川県,川崎市高津区,坂戸１丁目８番１１号,,14,134,2130012,,,,,,,2026-01-16,1,,,,,ナナキエステート,0
2431,9020003030190,新規,0,2026-01-16,2026-01-16,ＨＯＢＢＹ‐ＰＬＡＺＡ合同会社,,合同会社,神奈川県,川崎市宮前区,神木本町３丁目４番１８号,,14,136,2160031,,,,,,,2026-01-16,1,,,,,ホビープラザ,0
2432,9021001087207,新規,0,2026-01-16,2026-01-16,株式会社トキプラン,,株式会社,神奈川県,厚木市,東町７番６号,,14,212,2430001,,,,,,,2026-01-16,1,,,,,トキプラン,0
2435,9030003028473,新規,0,2026-01-16,2026-01-16,合同会社ミロティ,,合同会社,埼玉県,草加市,吉町２丁目５番２３号,,11,221,3400017,,,,,,,2026-01-16,1,,,,,ミロティ,0
2447,9040003029297,新規,0,2026-01-16,2026-01-16,合同会社ＢＡＳＥ,,合同会社,千葉県,鎌ケ谷市,中沢新町１番５号,,12,224,2730119,,,,,,,2026-01-16,1,,,,,ベース,0
2448,9040005023018,新規,0,2026-01-16,2026-01-16,一般社団法人地域経済活性化推進機構,,その他の設立登記法人,千葉県,八千代市,八千代台東１丁目５番２号,,12,221,2760032,,,,,,,2026-01-16,1,,,,,チイキケイザイカッセイカスイシンキコウ,0
2450,9050001057836,新規,0,2026-01-16,2026-01-16,ＤＥＭＯＬＩ　ＴＥＣＨ株式会社,,株式会社,茨城県,神栖市,矢田部字石瓦４４６２番２,,08,232,3140341,,,,,,,2026-01-16,1,,,,,デモリテック,0
2451,9050001057860,新規,0,2026-01-16,2026-01-16,株式会社松田農園,,株式会社,茨城県,つくば市,今鹿島４２６９－１,,08,220,3002641,,,,,,,2026-01-16,1,,,,,マツダノウエン,0
2456,9050003009884,新規,0,2026-01-16,2026-01-16,合同会社デジタルコラボパートナーズ,,合同会社,茨城県,龍ケ崎市,松葉６丁目１３番地１５,,08,208,3010043,,,,,,,2026-01-16,1,,,,,デジタルコラボパートナーズ,0
2460,9060001038934,新規,0,2026-01-16,2026-01-16,ＢＩＴＴＥ株式会社,,株式会社,栃木県,那須塩原市,東三島５丁目７４番地１０,,09,213,3292751,,,,,,,2026-01-16,1,,,,,ビッテ,0
2467,9070003006260,新規,0,2026-01-16,2026-01-16,合同会社森の音,,合同会社,群馬県,吾妻郡嬬恋村,大字大笹字大平３４４９番５８,,10,425,3771613,,,,,,,2026-01-16,1,,,,,モリノオト,0
2468,9080003003629,新規,0,2026-01-16,2026-01-16,合同会社ルミナス,,合同会社,静岡県,静岡市清水区,興津中町４１２番地の１０,,22,103,4240204,,,,,,,2026-01-16,1,,,,,ルミナス,0
2470,9100001039267,新規,0,2026-01-16,2026-01-16,株式会社Ｈａｐｐｙ　Ｈａｐｐｙ　Ｔｏｕｒ,,株式会社,長野県,北安曇郡白馬村,大字北城４７２１番地,,20,485,3999301,,,,,,,2026-01-16,1,,,,,ハッピーハッピーツアー,0
2489,9120001283391,新規,0,2026-01-16,2026-01-16,株式会社ＧＯＬＤ　ＴＲＥＡＳＵＲＥ,,株式会社,大阪府,大阪市鶴見区,鶴見４丁目１１番３０－８０３号,,27,124,5380053,,,,,,,2026-01-16,1,,,,,ゴールドトレジャー,0
2490,9120001283400,新規,0,2026-01-16,2026-01-16,株式会社Ｒ＆Ｙ,,株式会社,大阪府,大阪市中央区,南船場３丁目２番２２号おおきに南船場ビル２０５,,27,128,5420081,,,,,,,2026-01-16,1,,,,,アールアンドワイ,0
2491,9120001283409,新規,0,2026-01-16,2026-01-16,株式会社ＴＥＫＯ,,株式会社,大阪府,大阪市北区,堂山町１番５号三共梅田ビル７階,,27,127,5300027,,,,,,,2026-01-16,1,,,,,テコ,0
2492,9120001283425,新規,0,2026-01-16,2026-01-16,株式会社エアリアル,,株式会社,大阪府,寝屋川市,国松町２４番２１号,,27,215,5720016,,,,,,,2026-01-16,1,,,,,エアリアル,0
2496,9120003031641,新規,0,2026-01-16,2026-01-16,合同会社ぜろぐら,,合同会社,大阪府,大阪市北区,中津２丁目８番Ａ－７０８号,,27,127,5310071,,,,,,,2026-01-16,1,,,,,ゼログラ,0
2497,9120003031682,新規,0,2026-01-16,2026-01-16,合同会社Ｃ＆Ｔ　Ｐａｒｔｎｅｒｓ,,合同会社,大阪府,大阪市北区,梅田１丁目２番２号大阪駅前第２ビル１２－１２,,27,127,5300001,,,,,,,2026-01-16,1,,,,,シーアンドティーパートナーズ,0
2498,9120003031732,新規,0,2026-01-16,2026-01-16,グロストラボ合同会社,,合同会社,大阪府,大阪市中央区,久太郎町３丁目１‐６‐８Ｆ,,27,128,5410056,,,,,,,2026-01-16,1,,,,,グロストラボ,0
2500,9120005025352,新規,0,2026-01-16,2026-01-16,医療法人天羽会,,その他の設立登記法人,大阪府,大阪市淀川区,宮原２丁目３番１８号,,27,123,5320003,,,,,,,2026-01-16,1,,,,,アモウカイ,0
2506,9120903006032,新規,0,2026-01-16,2026-01-16,合同会社みらいＢｌｏｏｍ,,合同会社,大阪府,池田市,鉢塚３丁目５番７号,00142202,27,204,5630024,,,,,,,2026-01-16,1,,,,,ミライブルーム,0
2507,9120903006040,新規,0,2026-01-16,2026-01-16,合同会社アウレウス,,合同会社,大阪府,豊能郡能勢町,山辺４５１番地２,,27,322,5630372,,,,,,,2026-01-16,1,,,,,アウレウス,0
2508,9122001040062,新規,0,2026-01-16,2026-01-16,株式会社Ｚｅｎｉｔｈ,,株式会社,大阪府,東大阪市,岩田町３丁目１２番１４号サンメゾン１０１号,,27,227,5780941,,,,,,,2026-01-16,1,,,,,ジーニス,0
2509,9122001040087,新規,0,2026-01-16,2026-01-16,株式会社サンライズ,,株式会社,大阪府,八尾市,宮町４丁目３－２４,,27,212,5810815,,,,,,,2026-01-16,1,,,,,サンライズ,0
2512,9130001081340,新規,0,2026-01-16,2026-01-16,Ｎｅｏ　Ｉｎｎｏｖａｔｉｏｎ株式会社,,株式会社,京都府,宇治市,槇島町吹前１７番３,,26,204,6110041,,,,,,,2026-01-16,1,,,,,ネオイノベーション,0
2520,9140001141325,新規,0,2026-01-16,2026-01-16,株式会社Ｓａｉｌｏｎ,,株式会社,兵庫県,神戸市兵庫区,松本通７丁目１番２９号１階,,28,105,6520045,,,,,,,2026-01-16,1,,,,,セイルオン,0
2521,9140001141358,新規,0,2026-01-16,2026-01-16,株式会社Ｌｏｗ　Ｂａｃｋｇｒｏｕｎｄ　Ｔｅｃｈｎｏｌｏｇｉｅｓ,,株式会社,兵庫県,神戸市灘区,六甲台町１－１理学研究科内,,28,102,6570013,,,,,,,2026-01-16,1,,,,,ロウバックグラウンドテクノロジーズ,0
2522,9140001141382,新規,0,2026-01-16,2026-01-16,株式会社沖野商会,,株式会社,兵庫県,神戸市垂水区,山手５丁目２番１５号,,28,108,6550891,,,,,,,2026-01-16,1,,,,,オキノショウカイ,0
2523,9140001141424,新規,0,2026-01-16,2026-01-16,株式会社キョウフク,,株式会社,兵庫県,神戸市東灘区,深江南町４丁目１－２Ｆ,,28,101,6580022,,,,,,,2026-01-16,1,,,,,キョウフク,0
2527,9140003023075,新規,0,2026-01-16,2026-01-16,ミツヤＡｇｒｉ合同会社,,合同会社,兵庫県,加古川市,加古川町北在家７８７番地の２,,28,210,6750031,,,,,,,2026-01-16,1,,,,,ミツヤアグリ,0
2528,9150001028620,新規,0,2026-01-16,2026-01-16,ＮｅｏＮｅｘｔ株式会社,,株式会社,奈良県,奈良市,南京終町１丁目９０番地の１エスペランス奈良４０９号,,29,201,6308141,,,,,,,2026-01-16,1,,,,,ネオネクスト,0
2529,9150003003811,新規,0,2026-01-16,2026-01-16,合同会社テラノヴァ,,合同会社,奈良県,大和郡山市,額田部北町６６５番地,,29,203,6391037,,,,,,,2026-01-16,1,,,,,テラノヴァ,0
2530,9160001027357,新規,0,2026-01-16,2026-01-16,ＫＡＴＳＵＲＡＤＡホームズ株式会社,,株式会社,滋賀県,大津市,仰木の里東２丁目１３番１６号,,25,201,5200248,,,,,,,2026-01-16,1,,,,,カツラダホームズ,0
2543,9180001170238,新規,0,2026-01-16,2026-01-16,Ｘｙｎｃ株式会社,,株式会社,愛知県,名古屋市東区,代官町３番２０号クリオ代官町ザ・クラシック１５０３号,,23,102,4610002,,,,,,,2026-01-16,1,,,,,シンク,0
2544,9180001170287,新規,0,2026-01-16,2026-01-16,濱野興業株式会社,,株式会社,愛知県,常滑市,大和町１丁目１０７番地ラヴァーグエスト１０１,,23,216,4790844,,,,,,,2026-01-16,1,,,,,ハマノコウギョウ,0
2545,9180001170304,新規,0,2026-01-16,2026-01-16,株式会社クオン,,株式会社,愛知県,一宮市,丹陽町重吉字城戸１２２番地４,,23,203,4910821,,,,,,,2026-01-16,1,,,,,クオン,0
2546,9180001170320,新規,0,2026-01-16,2026-01-16,株式会社ＢＥＣＫ,,株式会社,愛知県,名古屋市天白区,鴻の巣１丁目８０７番地,,23,116,4680003,,,,,,,2026-01-16,1,,,,,ベック,0
2550,9180005021370,新規,0,2026-01-16,2026-01-16,一般社団法人ＮＥＸＴ‐ＦＯＵＲ,,その他の設立登記法人,愛知県,名古屋市港区,明正１丁目８１番地ウエストハウスＣ,,23,111,4550806,,,,,,,2026-01-16,1,,,,,ネクストフォー,0
2551,9180005021395,新規,0,2026-01-16,2026-01-16,一般社団法人ＲＥ・ＦＵＮＤ推進機構,,その他の設立登記法人,愛知県,名古屋市西区,城西町１８６番地ＤＥＰＯＴ城西町Ｂ棟,,23,104,4520841,,,,,,,2026-01-16,1,,,,,リファンドスイシンキコウ,0
2555,9180301040611,新規,0,2026-01-16,2026-01-16,株式会社葵事務所,,株式会社,愛知県,岡崎市,福岡町字菱田４５番地１,,23,202,4440825,,,,,,,2026-01-16,1,,,,,アオイジムショ,0
2563,9240001065984,新規,0,2026-01-16,2026-01-16,３ＰＥＡＣＥ株式会社,,株式会社,広島県,広島市西区,庚午中４丁目４番４号,,34,104,7330822,,,,,,,2026-01-16,1,,,,,スリーピース,0
2564,9240001066041,新規,0,2026-01-16,2026-01-16,株式会社ＬＯＨＡＳ,,株式会社,広島県,広島市中区,堀川町７番１４号ＩＴＥＺＡビル３Ｆ,,34,101,7300033,,,,,,,2026-01-16,1,,,,,ロハス,0
2565,9250003003883,新規,0,2026-01-16,2026-01-16,ＦＯＲＥＶＥＲ合同会社,,合同会社,山口県,山口市,徳地堀１５３８番地１,,35,203,7470231,,,,,,,2026-01-16,1,,,,,フォーエバー,0
2570,9270001009369,新規,0,2026-01-16,2026-01-16,株式会社キーマンクラフト,,株式会社,鳥取県,鳥取市,古海７５３番地２０,,31,201,6800921,,,,,,,2026-01-16,1,,,,,キーマンクラフト,0
2581,9290003017946,新規,0,2026-01-16,2026-01-16,合同会社戸畑,,合同会社,福岡県,福岡市博多区,博多駅前２丁目１３番３－９０４号ネストピア博多駅前ＩＩ,00142206,40,132,8120011,,,,,,,2026-01-16,1,,,,,トバタ,0
2591,9310005008890,新規,0,2026-01-16,2026-01-16,特定非営利活動法人ながさき読書文化フォーラム,,その他の設立登記法人,長崎県,長崎市,上野町２５番１号,,42,201,8528113,,,,,,,2026-01-16,1,,,,,ナガサキドクショブンカフォーラム,0
2595,9350001019896,新規,0,2026-01-16,2026-01-16,株式会社ＭｅｄＮｅｘｕｓ,,株式会社,宮崎県,都城市,梅北町２４４１番地,,45,202,8850063,,,,,,,2026-01-16,1,,,,,メッドネクサス,0
2598,9370001053398,新規,0,2026-01-16,2026-01-16,株式会社ＡＬＬ,,株式会社,宮城県,富谷市,明石台８丁目７番地６,,04,216,9813332,,,,,,,2026-01-16,1,,,,,オール,0
2604,9430001095979,新規,0,2026-01-16,2026-01-16,泰基建設株式会社,,株式会社,北海道,札幌市中央区,北四条西１８丁目７－１２レガーロ美術館通５０５号室,,01,101,0600004,,,,,,,2026-01-16,1,,,,,タイキケンセツ,0
2605,9430001096077,新規,0,2026-01-16,2026-01-16,株式会社ＡＹペンギンＨＯＵＳＥ,,株式会社,北海道,札幌市豊平区,月寒東一条６丁目２番１１号,,01,105,0620051,,,,,,,2026-01-16,1,,,,,エーワイペンギンハウス,0
2608,9430003018483,新規,0,2026-01-16,2026-01-16,サッポロプラス合同会社,,合同会社,北海道,札幌市白石区,北郷八条４丁目７番８号ソフィアＫＩＴＡＧＯ－Ｔ１４２号,,01,104,0030838,,,,,,,2026-01-16,1,,,,,サッポロプラス,0
2615,9460103001774,新規,0,2026-01-16,2026-01-16,合同会社白稜舎,,合同会社,北海道,帯広市,西十九条南２丁目３５番３号コーポ山口１０２,,01,207,0802469,,,,,,,2026-01-16,1,,,,,ハクリョウシャ,0
2617,9470001021056,新規,0,2026-01-16,2026-01-16,株式会社Ｋ．Ｃ．Ｅ,,株式会社,香川県,丸亀市,垂水町３２００番地５,,37,202,7630095,,,,,,,2026-01-16,1,,,,,ケーシーイー,0
2621,9700150133958,新規,0,2026-01-16,2026-01-16,ＡＲＴ　ＴＯＯＬ　ＵＳＡ　ＩＮＣＯＲＰＯＲＡＴＥＤ,,外国会社等,,,,,,,,２１０８　Ｎ　ＳＴ　ＳＴＥ　Ｎ　ＳＡＣＲＡＭＥＮＴＯ，ＣＡ　９５８１６,,,,,,2026-01-16,1,,,,,アートツールユーエスエーインコーポーレティッド,0
