sequenceNumber,corporateNumber,process,correct,updateDate,changeDate,name,nameImageId,kind,prefectureName,cityName,streetNumber,addressImageId,prefectureCode,cityCode,postCode,addressOutside,addressOutsideImageId,closeDate,closeCause,successorCorporateNumber,changeCause,assignmentDate,latest,enName,enPrefectureName,enCityName,enAddressOutside,furigana,hihyoji
12,1010401033324,登記記録の閉鎖等,0,2023-11-30,2023-11-28,株式会社エイチ・ケイ・コマース,,株式会社,東京都,港区,赤坂９丁目１番７号,,13,103,1070052,,,2023-11-28,清算の結了等,,,2015-10-05,1,,,,,エイチケイコマース,0
13,1010401082809,登記記録の閉鎖等,0,2023-11-30,2023-11-28,株式会社日本マスターカード決済機構,,株式会社,東京都,港区,東新橋２丁目８番５号,,13,103,1050021,,,2023-11-28,清算の結了等,,,2015-10-05,1,,,,,ニホンマスターカードケッサイキコウ,0
30,1010801030615,登記記録の閉鎖等,0,2023-11-30,2023-11-27,ＵＲＬ株式会社,,株式会社,東京都,大田区,羽田旭町１４番１－７０１号,,13,111,1440042,,,2023-11-27,清算の結了等,,,2020-02-05,1,,,,,ユーアールエル,0
31,1010901010657,登記記録の閉鎖等,0,2023-11-30,2023-11-24,株式会社藤森彫金アトリエ,,株式会社,東京都,世田谷区,太子堂４丁目１０番８号,,13,112,1540004,,,2023-11-24,清算の結了等,,,2015-10-05,1,,,,,フジモリチョウキンアトリエ,0
58,1011802005102,登記記録の閉鎖等,0,2023-11-30,2023-11-29,有限会社中昭,,有限会社,東京都,葛飾区,奥戸１丁目５番１２号,,13,122,1240022,,,2023-11-29,清算の結了等,,,2015-10-05,1,,,,,ナカショウ,0
61,1012401024212,登記記録の閉鎖等,0,2023-11-30,2023-11-27,Ｄｅｓｉｇｎｉｔ　Ｔｏｋｙｏ株式会社,,株式会社,神奈川県,横浜市西区,みなとみらい２丁目２番１号,,14,103,2200012,,,2023-11-27,清算の結了等,,,2015-10-05,1,,,,,デザインイットトウキョウ,0
75,1020003018458,登記記録の閉鎖等,0,2023-11-30,2023-11-24,合同会社Ｅｍｓａ,,合同会社,神奈川県,横浜市都筑区,北山田２丁目１４番４－２号,,14,118,2240021,,,2023-11-24,清算の結了等,,,2020-09-10,1,,,,,エムサ,0
78,1021001011727,登記記録の閉鎖等,0,2023-11-30,2023-11-27,カネヒロ運輸株式会社,,株式会社,神奈川県,相模原市中央区,田名３６７２番地,,14,152,2520244,,,2023-11-27,清算の結了等,,,2015-10-05,1,,,,,カネヒロウンユ,0
79,1021001074369,登記記録の閉鎖等,0,2023-11-30,2023-11-27,株式会社森嶋住宅設備,,株式会社,神奈川県,横浜市中区,福富町西通４５番地１ファーストビル７Ｆ,,14,104,2310042,,,2023-11-27,清算の結了等,,,2021-11-04,1,,,,,モリシマジュウタクセツビ,0
82,1030001012528,登記記録の閉鎖等,0,2023-11-30,2023-11-20,株式会社リフォメイト,,株式会社,埼玉県,さいたま市大宮区,天沼町１丁目６５番地１０３,,11,103,3300834,,,2023-11-20,清算の結了等,,,2015-10-05,1,,,,,リフォメイト,0
83,1030001056062,登記記録の閉鎖等,0,2023-11-30,2023-11-27,株式会社ワタナベホーム,,株式会社,埼玉県,ふじみ野市,水宮１４番２３号,,11,245,3560020,,,2023-11-27,清算の結了等,,,2015-10-05,1,,,,,ワタナベホーム,0
104,1040002023143,登記記録の閉鎖等,0,2023-11-30,2023-11-21,有限会社関建築設計事務所,,有限会社,千葉県,船橋市,本町６丁目２番１０－２０４号,,12,204,2730005,,,2023-11-21,清算の結了等,,,2015-10-05,1,,,,,セキケンチクセッケイ,0
111,1050002031483,登記記録の閉鎖等,0,2023-11-30,2023-11-24,有限会社三代運送,,有限会社,茨城県,日立市,久慈町６丁目１１番２１号,,08,202,3191222,,,2023-11-24,清算の結了等,,,2015-10-05,1,,,,,,0
130,1120001140897,登記記録の閉鎖等,0,2023-11-30,2023-11-28,ジィメディカル株式会社,,株式会社,大阪府,大阪市東住吉区,南田辺３丁目１番１５－５０４号,,27,121,5460033,,,2023-11-28,清算の結了等,,,2015-10-05,1,,,,,ジィメディカル,0
131,1120001141689,登記記録の閉鎖等,0,2023-11-30,2023-11-28,株式会社ウェスティ,,株式会社,大阪府,大阪市西区,江戸堀２丁目１－１江戸堀センタービル９階,,27,106,5500002,,,2023-11-28,清算の結了等,,,2015-10-05,1,,,,,ウェスティ,0
143,1120101036756,登記記録の閉鎖等,0,2023-11-30,2023-11-29,株式会社三光工業,,株式会社,大阪府,岸和田市,春木南浜町１１番９号,,27,202,5960036,,,2023-11-29,清算の結了等,,,2015-10-05,1,,,,,サンコウコウギョウ,0
147,1122001000890,登記記録の閉鎖等,0,2023-11-30,2023-11-29,株式会社越後建設,,株式会社,大阪府,東大阪市,西石切町２丁目４番１－５０５号,,27,227,5798013,,,2023-11-29,清算の結了等,,,2015-10-05,1,,,,,エチゴケンセツ,0
153,1130002033736,登記記録の閉鎖等,0,2023-11-30,2023-11-28,共和石材有限会社,,有限会社,京都府,京丹後市,弥栄町堤３２番地の４,,26,212,6270121,,,2023-11-28,清算の結了等,,,2015-10-05,1,,,,,キョウワセキザイ,0
154,1140001054369,登記記録の閉鎖等,0,2023-11-30,2023-11-24,亜洲ニチロ株式会社,,株式会社,兵庫県,尼崎市,七松町２丁目７番２５号,,28,202,6600052,,,2023-11-24,清算の結了等,,,2015-10-05,1,,,,,アシュウニチロ,0
161,1180001099022,登記記録の閉鎖等,0,2023-11-30,2023-11-24,株式会社叶,,株式会社,愛知県,あま市,甚目寺稲荷１３２番地,,23,237,4901111,,,2023-11-24,清算の結了等,,,2015-10-05,1,,,,,カノウ,0
166,1180302015537,登記記録の閉鎖等,0,2023-11-30,2023-11-24,有限会社スズハン,,有限会社,愛知県,蒲郡市,府相町１丁目１１２番地,,23,214,4430054,,,2023-11-24,清算の結了等,,,2015-10-05,1,,,,,スズハン,0
198,1380002006254,登記記録の閉鎖等,0,2023-11-30,2023-11-27,有限会社鈴木装飾,,有限会社,福島県,伊達市,保原町字城ノ内１２１番地の１,,07,213,9600611,,,2023-11-27,清算の結了等,,,2015-10-05,1,,,,,スズキソウショク,0
199,1400601000175,登記記録の閉鎖等,0,2023-11-30,2023-11-27,株式会社菅原工務所,,株式会社,岩手県,奥州市,水沢佐倉河字川原田５２番地１,,03,215,0230003,,,2023-11-27,清算の結了等,,,2015-10-05,1,,,,,スガワラコウムショ,0
202,1410003003321,登記記録の閉鎖等,0,2023-11-30,2023-11-24,合同会社Ｓ．Ｔコンサルティング,,合同会社,秋田県,秋田市,旭川南町９番２８号,,05,201,0100834,,,2023-11-24,清算の結了等,,,2019-12-18,1,,,,,エスティーコンサルティング,0
203,1420001006721,登記記録の閉鎖等,0,2023-11-30,2023-11-24,株式会社ヤンサン,,株式会社,青森県,八戸市,売市２丁目６番１０号,,02,203,0310073,,,2023-11-24,清算の結了等,,,2015-10-05,1,,,,,ヤンサン,0
204,1420002013576,登記記録の閉鎖等,0,2023-11-30,2023-11-24,有限会社相馬製菓製パン,,有限会社,青森県,弘前市,大字樋の口１丁目５番地２８,,02,202,0368278,,,2023-11-24,清算の結了等,,,2015-10-05,1,,,,,ソウマセイカセイパン,0
212,1470001006790,登記記録の閉鎖等,0,2023-11-30,2023-11-28,株式会社中井建設,,株式会社,香川県,木田郡三木町,大字下高岡３２３番地３,,37,341,7610704,,,2023-11-28,清算の結了等,,,2015-10-05,1,,,,,ナカイケンセツ,0
231,2010401149409,登記記録の閉鎖等,0,2023-11-30,2023-11-24,株式会社ＴｏＢｅ,,株式会社,広島県,広島市安佐北区,深川３丁目１１番１５号,,34,106,7391751,,,2023-11-24,清算の結了等,,,2019-11-25,1,,,,,トゥービー,0
240,2010602030227,登記記録の閉鎖等,0,2023-11-30,2023-11-24,有限会社アオキ,,有限会社,東京都,墨田区,八広６丁目３５番１０号,,13,107,1310041,,,2023-11-24,清算の結了等,,,2015-10-05,1,,,,,アオキ,0
244,2010801017495,登記記録の閉鎖等,0,2023-11-30,2023-11-22,株式会社ニューデリカ,,株式会社,東京都,大田区,大森東１丁目３５－４コーシャハイム大森東１１１号,,13,111,1430012,,,2023-11-22,清算の結了等,,,2015-10-05,1,,,,,ニューデリカ,0
273,2011602023930,登記記録の閉鎖等,0,2023-11-30,2023-11-28,有限会社多摩調剤,,有限会社,東京都,練馬区,氷川台３丁目２６番１７号,,13,120,1790084,,,2023-11-28,清算の結了等,,,2015-10-05,1,,,,,タマチョウザイ,0
295,2030001054825,登記記録の閉鎖等,0,2023-11-30,2023-11-22,株式会社さゝ川,,株式会社,埼玉県,川越市,大字小仙波７００－１,,11,201,3500031,,,2023-11-22,清算の結了等,,,2015-10-05,1,,,,,,0
298,2030002103845,登記記録の閉鎖等,0,2023-11-30,2023-11-27,有限会社白石事務所,,有限会社,埼玉県,川口市,西川口２丁目２番１号新堀ビル２０２号室,,11,203,3320021,,,2023-11-27,清算の結了等,,,2015-10-05,1,,,,,シライシジムショ,0
300,2040001084672,登記記録の閉鎖等,0,2023-11-30,2023-11-21,株式会社航索舎,,株式会社,千葉県,柏市,東１丁目８番９号,,12,217,2770014,,,2023-11-21,清算の結了等,,,2015-10-05,1,,,,,コウサクシャ,0
314,2040003010833,登記記録の閉鎖等,0,2023-11-30,2023-11-22,江原企画合同会社,,合同会社,千葉県,四街道市,千代田２丁目５番１５号,,12,228,2840015,,,2023-11-22,清算の結了等,,,2017-11-08,1,,,,,エハラキカク,0
324,2050002036481,登記記録の閉鎖等,0,2023-11-30,2023-11-24,有限会社ダイヤフーズ,,有限会社,茨城県,かすみがうら市,上稲吉１９８６番地,,08,230,3150056,,,2023-11-24,清算の結了等,,,2015-10-05,1,,,,,ダイヤフーズ,0
331,2110005010122,登記記録の閉鎖等,0,2023-11-30,2023-11-28,農事組合法人米原きのこ組合,,その他の設立登記法人,新潟県,中魚沼郡津南町,大字米原丙３００１番地１,,15,482,9498312,,,2023-11-28,清算の結了等,,,2015-10-05,1,,,,,マイバラキノコクミアイ,0
371,2180001016232,登記記録の閉鎖等,0,2023-11-30,2023-11-21,株式会社ディージーエー,,株式会社,愛知県,名古屋市中区,大須３丁目１４番５５号,,23,106,4600011,,,2023-11-21,清算の結了等,,,2015-10-05,1,,,,,ディジーエー,0
373,2180001121503,登記記録の閉鎖等,0,2023-11-30,2023-11-27,株式会社アローズ,,株式会社,愛知県,名古屋市中川区,万場４丁目１０４番地,,23,110,4540997,,,2023-11-27,清算の結了等,,,2015-12-24,1,,,,,アローズ,0
374,2180001123573,登記記録の閉鎖等,0,2023-11-30,2023-11-27,株式会社亀将,,株式会社,愛知県,名古屋市熱田区,千代田町４番１９号,,23,109,4560073,,,2023-11-27,清算の結了等,,,2016-06-08,1,,,,,キショウ,0
384,2180301027053,登記記録の閉鎖等,0,2023-11-30,2023-11-27,メーン株式会社,,株式会社,愛知県,豊田市,高岡町松葉１４１番地,,23,211,4730933,,,2023-11-27,清算の結了等,,,2015-10-05,1,,,,,メーン,0
389,2210001017441,登記記録の閉鎖等,0,2023-11-30,2023-11-28,株式会社Ｏｋｅｙ,,株式会社,福井県,福井市,下荒井町第４号９４番地,,18,201,9188017,,,2023-11-28,清算の結了等,,,2019-02-26,1,,,,,オケィ,0
396,2240001011961,登記記録の閉鎖等,0,2023-11-30,2023-11-24,株式会社山下金属工芸,,株式会社,広島県,広島市中区,吉島西２丁目１５番７－４号,,34,101,7300823,,,2023-11-24,清算の結了等,,,2015-10-05,1,,,,,ヤマシタキキンゾクコウゲイ,0
417,2320002022867,登記記録の閉鎖等,0,2023-11-30,2023-11-29,有限会社大塚農場,,有限会社,大分県,国東市,国東町重藤３５５番地,,44,214,8730514,,,2023-11-29,清算の結了等,,,2023-05-16,1,,,,,オオツカノウジョウ,0
424,2370001040122,登記記録の閉鎖等,0,2023-11-30,2023-11-29,株式会社湯治,,株式会社,宮城県,大崎市,古川穂波４丁目１６番２５号,,04,215,9896136,,,2023-11-29,清算の結了等,,,2016-08-17,1,,,,,トウジ,0
431,2380002016640,登記記録の閉鎖等,0,2023-11-30,2023-11-28,有限会社ムトウ工業所,,有限会社,福島県,二本松市,戸沢字株郎内１３番地,,07,210,9640201,,,2023-11-28,清算の結了等,,,2015-10-05,1,,,,,ムトウコウギョウショ,0
443,2470002001724,登記記録の閉鎖等,0,2023-11-30,2023-11-27,有限会社尾野運送,,有限会社,香川県,高松市,川島本町４７９番地１,,37,201,7610442,,,2023-11-27,清算の結了等,,,2015-10-05,1,,,,,オノウンソウ,0
452,3010001147745,登記記録の閉鎖等,0,2023-11-30,2023-11-27,Ｇｌｏｂａｌ　Ｃｏｌｌｅｃｔ　Ｓｅｒｖｉｃｅｓ　Ｊａｐａｎ株式会社,,株式会社,東京都,港区,虎ノ門１丁目２番８号虎ノ門琴平タワー４階,,13,103,1050001,,,2023-11-27,清算の結了等,,,2015-10-05,1,,,,,グローバルコレクトサービスジャパン,0
475,3010601053087,登記記録の閉鎖等,0,2023-11-30,2023-11-27,株式会社Ｙ，Ｓ　Ｆａｃｔｏｒｙ,,株式会社,東京都,墨田区,錦糸１丁目１番８－１００２号,,13,107,1300013,,,2023-11-27,清算の結了等,,,2018-03-30,1,,,,,ワイエスファクトリー,0
482,3011001060392,登記記録の閉鎖等,0,2023-11-30,2023-11-24,株式会社ラ・ボーテ・アクアボン,,株式会社,東京都,渋谷区,神宮前２丁目３３番５－５０４号,,13,113,1500001,,,2023-11-24,清算の結了等,,,2015-10-05,1,,,,,ラボーテアクアボン,0
517,3011802012393,登記記録の閉鎖等,0,2023-11-30,2023-11-29,有限会社香山堂奈加川,,有限会社,東京都,足立区,梅田２丁目１７番１１号,,13,121,1230851,,,2023-11-29,清算の結了等,,,2015-10-05,1,,,,,コウザンドウナカガワ,0
519,3012401020498,登記記録の閉鎖等,0,2023-11-30,2023-11-27,株式会社レグルス,,株式会社,東京都,国分寺市,東恋ヶ窪３丁目３番８号,,13,214,1850014,,,2023-11-27,清算の結了等,,,2015-10-05,1,,,,,レグルス,0
523,3012702007657,登記記録の閉鎖等,0,2023-11-30,2023-11-27,有限会社エムズ,,有限会社,神奈川県,鎌倉市,由比ガ浜３丁目１０番５号鎌倉ガーデンハウスＢ号,,14,204,2480014,,,2023-11-27,清算の結了等,,,2015-10-05,1,,,,,エムズ,0
532,3020001078477,登記記録の閉鎖等,0,2023-11-30,2023-11-27,株式会社トライ企画,,株式会社,神奈川県,川崎市川崎区,砂子１丁目８番６号長谷川ビル２階,,14,131,2100006,,,2023-11-27,清算の結了等,,,2015-10-05,1,,,,,トライキカク,0
547,3021002026722,登記記録の閉鎖等,0,2023-11-30,2023-11-28,有限会社大和,,有限会社,神奈川県,相模原市南区,上鶴間本町５丁目３番１９－３０１号,,14,153,2520318,,,2023-11-28,清算の結了等,,,2015-10-05,1,,,,,ヤマト,0
558,3030002097814,登記記録の閉鎖等,0,2023-11-30,2023-11-22,有限会社吉村工務店,,有限会社,埼玉県,比企郡嵐山町,大字志賀２７２番地１０,,11,342,3550214,,,2023-11-22,清算の結了等,,,2015-10-05,1,,,,,ヨシムラコウムテン,0
575,3050002044896,登記記録の閉鎖等,0,2023-11-30,2023-11-22,有限会社橋本ワークス電気,,有限会社,茨城県,結城市,大字結城１０１２番地４,,08,207,3070001,,,2023-11-22,清算の結了等,,,2015-10-05,1,,,,,ハシモトワークスデンキ,0
576,3060002005749,登記記録の閉鎖等,0,2023-11-30,2023-11-29,武富不動産有限会社,,有限会社,栃木県,塩谷郡高根沢町,大字宝積寺２４０５番地,,09,386,3291233,,,2023-11-29,清算の結了等,,,2015-10-05,1,,,,,タケトミフドウサン,0
581,3070002030770,登記記録の閉鎖等,0,2023-11-30,2023-11-24,有限会社富士製工,,有限会社,群馬県,太田市,山之神町５９５番地１,,10,205,3792302,,,2023-11-24,清算の結了等,,,2015-10-05,1,,,,,フジセイコウ,0
585,3080102016826,登記記録の閉鎖等,0,2023-11-30,2023-11-28,有限会社住建,,有限会社,静岡県,富士宮市,杉田１４９６番地の３,,22,207,4180021,,,2023-11-28,清算の結了等,,,2015-10-05,1,,,,,ジュウケン,0
595,3120001143106,登記記録の閉鎖等,0,2023-11-30,2023-11-29,株式会社ｅプランニング,,株式会社,大阪府,堺市西区,鳳南町４丁４２５,,27,144,5938325,,,2023-11-29,清算の結了等,,,2015-10-05,1,,,,,,0
597,3120001152726,登記記録の閉鎖等,0,2023-11-30,2023-11-28,株式会社エンカレッジ,,株式会社,大阪府,寝屋川市,高宮栄町２５番１５号,,27,215,5720846,,,2023-11-28,清算の結了等,,,2015-10-05,1,,,,,エンカレッジ,0
614,3120902001733,登記記録の閉鎖等,0,2023-11-30,2023-11-28,有限会社よどや,,有限会社,大阪府,茨木市,南安威２丁目５番５号,00033685,27,211,5670007,,,2023-11-28,清算の結了等,,,2015-10-05,1,,,,,ヨドヤ,0
642,3180002011438,登記記録の閉鎖等,0,2023-11-30,2023-11-27,坂井機工有限会社,,有限会社,愛知県,名古屋市北区,田幡２丁目１６番２３号,,23,103,4620843,,,2023-11-27,清算の結了等,,,2015-10-05,1,,,,,サカイキコウ,0
643,3180002029199,登記記録の閉鎖等,0,2023-11-30,2023-11-24,有限会社宮入塗装,,有限会社,愛知県,名古屋市中村区,靖国町１丁目８１番地,,23,105,4530065,,,2023-11-24,清算の結了等,,,2015-10-05,1,,,,,ミヤイリトソウ,0
653,3210001013266,登記記録の閉鎖等,0,2023-11-30,2023-11-28,株式会社北陸フードシステムズ,,株式会社,福井県,鯖江市,水落町２丁目３０番２３号,,18,207,9160022,,,2023-11-28,清算の結了等,,,2015-10-05,1,,,,,ホクリクフードシステムズ,0
693,3360001006957,登記記録の閉鎖等,0,2023-11-30,2023-11-27,株式会社島栄ビルサービス,,株式会社,沖縄県,中頭郡西原町,字小橋川２５０番地７,,47,329,9030122,,,2023-11-27,清算の結了等,,,2015-10-05,1,,,,,,0
706,3500002011000,登記記録の閉鎖等,0,2023-11-30,2023-11-28,有限会社アルファソフト,,有限会社,愛媛県,東温市,牛渕１９５７番地１,,38,215,7910213,,,2023-11-28,清算の結了等,,,2015-10-05,1,,,,,アルファソフト,0
724,4010403024459,登記記録の閉鎖等,0,2023-11-30,2023-11-28,合同会社Ｂｒｉｃｋ,,合同会社,東京都,港区,虎ノ門５丁目１番４号,,13,103,1050001,,,2023-11-28,清算の結了等,,,2021-01-07,1,,,,,ブリック,0
753,4011003016383,登記記録の閉鎖等,0,2023-11-30,2023-11-27,ＴＩＰ合同会社,,合同会社,東京都,渋谷区,渋谷１丁目１番３号,,13,113,1500002,,,2023-11-27,清算の結了等,,,2023-03-07,1,,,,,ティアイピー,0
756,4011101087533,登記記録の閉鎖等,0,2023-11-30,2023-11-28,株式会社ミリオンエンタープライズ,,株式会社,東京都,新宿区,百人町１丁目２３番２６号みなみビル１階Ａ号室,,13,104,1690073,,,2023-11-28,清算の結了等,,,2019-05-08,1,,,,,ミリオンエンタープライズ,0
776,4011803000140,登記記録の閉鎖等,0,2023-11-30,2023-11-28,合名会社アキラ時計眼鏡店,,合名会社,東京都,葛飾区,立石１丁目８番１７号,,13,122,1240012,,,2023-11-28,清算の結了等,,,2015-10-05,1,,,,,アキラトケイガンキョウテン,0
783,4020001043265,登記記録の閉鎖等,0,2023-11-30,2023-11-27,株式会社グローバル・アーバン,,株式会社,神奈川県,横浜市鶴見区,豊岡町１８－２４,,14,101,2300062,,,2023-11-27,清算の結了等,,,2015-10-05,1,,,,,グローバルアーバン,0
791,4020003010288,登記記録の閉鎖等,0,2023-11-30,2023-11-27,日本交流センター合同会社,,合同会社,神奈川県,横浜市鶴見区,矢向４丁目３番１０号,,14,101,2300001,,,2023-11-27,清算の結了等,,,2015-10-05,1,,,,,ニホンコウリュウセンター,0
796,4021002008926,登記記録の閉鎖等,0,2023-11-30,2023-11-27,有限会社ドリームライン,,有限会社,神奈川県,藤沢市,鵠沼橘１丁目１５番６号,,14,205,2510024,,,2023-11-27,清算の結了等,,,2015-10-05,1,,,,,ドリームライン,0
797,4021002038972,登記記録の閉鎖等,0,2023-11-30,2023-11-27,有限会社ヘイブン,,有限会社,神奈川県,秦野市,南矢名１３１５番地の６,,14,211,2570003,,,2023-11-27,清算の結了等,,,2015-10-05,1,,,,,ヘイブン,0
800,4021005008915,登記記録の閉鎖等,0,2023-11-30,2023-11-27,一般財団法人美鈴記念財団,,その他の設立登記法人,神奈川県,鎌倉市,寺分２丁目３０番８号,,14,204,2470064,,,2023-11-27,清算の結了等,,,2015-10-05,1,,,,,ミスズキネンザイダン,0
805,4030002021731,登記記録の閉鎖等,0,2023-11-30,2023-11-22,有限会社峰徳運輸,,有限会社,埼玉県,さいたま市岩槻区,大字掛４７番地,,11,110,3390078,,,2023-11-22,清算の結了等,,,2015-10-05,1,,,,,,0
813,4030005017454,登記記録の閉鎖等,0,2023-11-30,2023-11-22,一般社団法人やすらか,,その他の設立登記法人,千葉県,柏市,中原２丁目１５番１０号,,12,217,2770085,,,2023-11-22,清算の結了等,,,2015-10-05,1,,,,,ヤスラカ,0
814,4040001025567,登記記録の閉鎖等,0,2023-11-30,2023-11-21,株式会社イングコーポ,,株式会社,千葉県,市川市,八幡３丁目２３番９号,,12,203,2720021,,,2023-11-21,清算の結了等,,,2015-10-05,1,,,,,イングコーポ,0
822,4040002081700,登記記録の閉鎖等,0,2023-11-30,2023-11-22,有限会社みつわ,,有限会社,千葉県,茂原市,町保１０番地,,12,210,2970022,,,2023-11-22,清算の結了等,,,2015-10-05,1,,,,,ミツワ,0
824,4040005016018,登記記録の閉鎖等,0,2023-11-30,2023-11-22,農事組合法人和加菜,,その他の設立登記法人,千葉県,南房総市,和田町布野１９６番地１,,12,234,2992723,,,2023-11-22,清算の結了等,,,2015-10-05,1,,,,,ワカナ,0
843,4080402010461,登記記録の閉鎖等,0,2023-11-30,2023-11-29,有限会社スタイル,,有限会社,静岡県,浜松市北区,三方原町１０６４番地の７,,22,135,4338105,,,2023-11-29,清算の結了等,,,2015-10-05,1,,,,,,0
844,4080403003431,登記記録の閉鎖等,0,2023-11-30,2023-11-27,合同会社いしばし,,合同会社,静岡県,御前崎市,池新田３５２５番地の８,,22,223,4371612,,,2023-11-27,清算の結了等,,,2017-04-13,1,,,,,イシバシ,0
861,4120005007917,登記記録の閉鎖等,0,2023-11-30,2023-11-28,特定非営利活動法人医薬ビジランスセンター,,その他の設立登記法人,大阪府,大阪市天王寺区,勝山２丁目１４番８号シャンテ勝山６０２号,,27,109,5430043,,,2023-11-28,清算の結了等,,,2015-10-05,1,,,,,イヤクビジランスセンター,0
864,4120101065034,登記記録の閉鎖等,0,2023-11-30,2023-11-29,株式会社ツイストワン,,株式会社,大阪府,松原市,天美我堂１丁目７番地（Ｅ棟８０２号）,,27,217,5800026,,,2023-11-29,清算の結了等,,,2022-02-03,1,,,,,ツイストワン,0
865,4120901017837,登記記録の閉鎖等,0,2023-11-30,2023-11-27,早川商事株式会社,,株式会社,大阪府,吹田市,春日１丁目１６番６－３０７号,,27,205,5650853,,,2023-11-27,清算の結了等,,,2015-10-05,1,,,,,ハヤカワショウジ,0
874,4140001130828,登記記録の閉鎖等,0,2023-11-30,2023-11-28,株式会社林商店,,株式会社,兵庫県,神戸市中央区,栄町通１丁目３番１９号,,28,110,6500023,,,2023-11-28,清算の結了等,,,2023-07-12,1,,,,,ハヤシショウテン,0
878,4180001070483,登記記録の閉鎖等,0,2023-11-30,2023-11-28,株式会社クオルーチェ,,株式会社,愛知県,名古屋市昭和区,御器所２丁目２番３７号末広ビル１Ｆ東,,23,107,4660051,,,2023-11-28,清算の結了等,,,2015-10-05,1,,,,,クオルーチェ,0
891,4180305002513,登記記録の閉鎖等,0,2023-11-30,2023-11-27,協同組合グランドショップアツミ,,その他の設立登記法人,愛知県,田原市,福江町堂前６０番地,,23,231,4413617,,,2023-11-27,清算の結了等,,,2015-10-05,1,,,,,グランドショップアツミ,0
902,4260002007360,登記記録の閉鎖等,0,2023-11-30,2023-11-28,有限会社ナラムラ工芸社,,有限会社,岡山県,岡山市北区,御津矢原８５０番地,,33,101,7092107,,,2023-11-28,清算の結了等,,,2015-10-05,1,,,,,ナラムラコウゲイシャ,0
907,4290002007903,登記記録の閉鎖等,0,2023-11-30,2023-11-21,有限会社菊地,,有限会社,福岡県,福岡市早良区,高取１丁目１番３０号,,40,137,8140011,,,2023-11-21,清算の結了等,,,2015-10-05,1,,,,,キクチ,0
926,4380002034013,登記記録の閉鎖等,0,2023-11-30,2023-11-28,有限会社福門商会,,有限会社,福島県,会津若松市,東千石１丁目５番２号,,07,202,9650818,,,2023-11-28,清算の結了等,,,2015-10-05,1,,,,,フクモンショウカイ,0
927,4390001015921,登記記録の閉鎖等,0,2023-11-30,2023-11-24,長谷堂開発株式会社,,株式会社,山形県,山形市,大字長谷堂字出倉１１１番２,,06,201,9902363,,,2023-11-24,清算の結了等,,,2019-12-23,1,,,,,ハセドウカイハツ,0
929,4420005007127,登記記録の閉鎖等,0,2023-11-30,2023-11-24,農事組合法人羽立,,その他の設立登記法人,青森県,十和田市,大字洞内字家ノ上２９番地,,02,206,0340107,,,2023-11-24,清算の結了等,,,2015-10-05,1,,,,,ハダチ,0
932,4430005005897,登記記録の閉鎖等,0,2023-11-30,2023-11-16,医療法人社団向陽台歯科,,その他の設立登記法人,北海道,千歳市,白樺２丁目２番地の１,,01,224,0660056,,,2023-11-16,清算の結了等,,,2015-10-05,1,,,,,コウヨウダイシカ,0
943,4470002000963,登記記録の閉鎖等,0,2023-11-30,2023-11-27,有限会社泉川十字堂,,有限会社,香川県,高松市,元山町８５４番地,,37,201,7610311,,,2023-11-27,清算の結了等,,,2015-10-05,1,,,,,イズミカワジュウジドウ,0
944,4470002013247,登記記録の閉鎖等,0,2023-11-30,2023-11-28,有限会社塩田商店,,有限会社,香川県,仲多度郡琴平町,榎井７６３番地２,,37,403,7660004,,,2023-11-28,清算の結了等,,,2015-10-05,1,,,,,シオタショウテン,0
962,5010101007426,登記記録の閉鎖等,0,2023-11-30,2023-11-29,株式会社ＧＲＡＮＤ　ＳＴＹＬＥ　ＤＥＳＩＧＮ,,株式会社,東京都,八王子市,小宮町８９７番地１,,13,201,1920031,,,2023-11-29,清算の結了等,,,2015-10-05,1,,,,,,0
970,5010601019631,登記記録の閉鎖等,0,2023-11-30,2023-11-27,日本シーリング株式会社,,株式会社,東京都,墨田区,太平３丁目１１番５号,,13,107,1300012,,,2023-11-27,清算の結了等,,,2015-10-05,1,,,,,ニッポンシーリング,0
1012,5011603000109,登記記録の閉鎖等,0,2023-11-30,2023-11-27,合資会社パーソナル,,合資会社,東京都,練馬区,大泉学園町３丁目６番４７号,,13,120,1780061,,,2023-11-27,清算の結了等,,,2015-10-05,1,,,,,パーソナル,0
1019,5011802021822,登記記録の閉鎖等,0,2023-11-30,2023-11-28,有限会社アント,,有限会社,東京都,足立区,綾瀬５丁目２４番４号,,13,121,1200005,,,2023-11-28,清算の結了等,,,2015-10-05,1,,,,,アント,0
1022,5012701012334,登記記録の閉鎖等,0,2023-11-30,2023-11-28,株式会社Ｋｏｎｄｏ　Ｍｅｄｉｃａｌ　Ｓｅｒｖｉｃｅ,,株式会社,東京都,西東京市,富士町６丁目２番１５号シルクレジデンス１０１号,,13,229,2020014,,,2023-11-28,清算の結了等,,,2015-10-05,1,,,,,コンドウメディカルサービス,0
1051,5030002013281,登記記録の閉鎖等,0,2023-11-30,2023-11-24,有限会社見沼技研,,有限会社,埼玉県,さいたま市北区,本郷町３３８番地の１,,11,102,3310802,,,2023-11-24,清算の結了等,,,2015-10-05,1,,,,,ミヌマギケン,0
1054,5030002070050,登記記録の閉鎖等,0,2023-11-30,2023-11-21,有限会社庄和電業社,,有限会社,埼玉県,春日部市,東中野３２５番地５,,11,214,3440114,,,2023-11-21,清算の結了等,,,2015-10-05,1,,,,,ショウワデンギョウシャ,0
1083,5110001001386,登記記録の閉鎖等,0,2023-11-30,2023-11-22,株式会社上野商店,,株式会社,新潟県,新潟市中央区,本町通９番町１３４３番地１,,15,103,9518067,,,2023-11-22,清算の結了等,,,2015-10-05,1,,,,,ウエノショウテン,0
1093,5120101041224,登記記録の閉鎖等,0,2023-11-30,2023-11-27,いづみ物産株式会社,,株式会社,大阪府,和泉市,大野町２６２番地,,27,219,5941134,,,2023-11-27,清算の結了等,,,2015-10-05,1,,,,,イヅミブッサン,0
1104,5130001050927,登記記録の閉鎖等,0,2023-11-30,2023-11-24,株式会社俊栄工業,,株式会社,京都府,舞鶴市,字余部下８６５番地２,,26,202,6250087,,,2023-11-24,清算の結了等,,,2015-10-05,1,,,,,シュンエイコウギョウ,0
1111,5130003007834,登記記録の閉鎖等,0,2023-11-30,2023-11-22,Ｚｙｒａｆａ　Ｉｎｖｅｓｔｍｅｎｔ合同会社,,合同会社,京都府,京都市下京区,油小路通木津屋橋下る北不動堂町５２２番地１アンビエント京都駅前１００３号,,26,106,6008233,,,2023-11-22,清算の結了等,,,2022-03-28,1,,,,,ジラファインベストメント,0
1117,5180001022608,登記記録の閉鎖等,0,2023-11-30,2023-11-24,パール機器株式会社,,株式会社,愛知県,名古屋市熱田区,白鳥３丁目８番３号,,23,109,4560035,,,2023-11-24,清算の結了等,,,2015-10-05,1,,,,,パールキキ,0
1138,5220001020433,登記記録の閉鎖等,0,2023-11-30,2023-11-17,アースワンホーム株式会社,,株式会社,石川県,金沢市,円光寺３丁目６番７－５号,,17,201,9218173,,,2023-11-17,清算の結了等,,,2015-10-05,1,,,,,アースワンホーム,0
1143,5260005010996,登記記録の閉鎖等,0,2023-11-30,2023-11-10,特定非営利活動法人あいきっず,,その他の設立登記法人,岡山県,岡山市南区,東畦３９番地２８,,33,104,7010211,,,2023-11-10,清算の結了等,,,2021-11-30,1,,,,,アイキッズ,0
1157,5310001016694,登記記録の閉鎖等,0,2023-11-30,2023-11-24,オブフェロ株式会社,,株式会社,長崎県,長崎市,元船町９番１８号長崎ＢｉｚＰＯＲＴ２階,,42,201,8500035,,,2023-11-24,清算の結了等,,,2020-05-26,1,,,,,,0
1158,5310005002988,登記記録の閉鎖等,0,2023-11-30,2023-11-27,医療法人慶成会坂口医院,,その他の設立登記法人,長崎県,東彼杵郡波佐見町,宿郷５８０番地,,42,323,8593715,,,2023-11-27,清算の結了等,,,2015-10-05,1,,,,,ケイセイカイサカグチイイン,0
1164,5340002008259,登記記録の閉鎖等,0,2023-11-30,2023-11-28,有限会社福丸工芸,,有限会社,鹿児島県,鹿児島市,南栄６丁目２番１７号,,46,201,8910122,,,2023-11-28,清算の結了等,,,2015-10-05,1,,,,,フクマルコウゲイ,0
1165,5340002020494,登記記録の閉鎖等,0,2023-11-30,2023-11-29,南国太陽農産有限会社,,有限会社,鹿児島県,大島郡知名町,大字余多７８５番地２,,46,534,8919201,,,2023-11-29,清算の結了等,,,2015-10-05,1,,,,,ナンゴクタイヨウノウサン,0
1168,5360001017977,登記記録の閉鎖等,0,2023-11-30,2023-11-27,株式会社ディーマジュエリー,,株式会社,沖縄県,沖縄市,泡瀬５丁目３３番４号,,47,211,9042172,,,2023-11-27,清算の結了等,,,2015-10-05,1,,,,,ディーマジュエリー,0
1188,5490001008451,登記記録の閉鎖等,0,2023-11-30,2023-11-28,株式会社コスモスアグリサポート,,株式会社,高知県,高岡郡佐川町,甲１７５１番地１,,39,402,7891201,,,2023-11-28,清算の結了等,,,2016-09-07,1,,,,,コスモスアグリサポート,0
1189,5500001019422,登記記録の閉鎖等,0,2023-11-30,2023-11-22,株式会社ｓｈｉｇｅ,,株式会社,東京都,品川区,戸越３丁目９番９号Ｔ・Ｉコープ１０１,,13,109,1420041,,,2023-11-22,清算の結了等,,,2015-11-05,1,,,,,シゲ,0
1203,6010001217058,登記記録の閉鎖等,0,2023-11-30,2023-11-27,ＨＤシステム株式会社,,株式会社,東京都,中央区,新川２丁目８番８号ＳＮＴ八丁堀ビル４階,,13,102,1040033,,,2023-11-27,清算の結了等,,,2021-04-05,1,,,,,エイチディーシステム,0
1207,6010005021844,登記記録の閉鎖等,0,2023-11-30,2023-11-28,一般社団法人ＩＴエスコート協会,,その他の設立登記法人,東京都,千代田区,麹町２丁目１０番３号リ・ノウ麹町１階,,13,101,1020083,,,2023-11-28,清算の結了等,,,2015-10-05,1,,,,,アイティーエスコートキョウカイ,0
1217,6010403024036,登記記録の閉鎖等,0,2023-11-30,2023-11-27,Ｂｒｏｏｋ合同会社,,合同会社,東京都,港区,六本木１丁目９番１０号アークヒルズ仙石山森タワー４０階,,13,103,1060032,,,2023-11-27,清算の結了等,,,2020-11-04,1,,,,,ブルック,0
1235,6010901044659,登記記録の閉鎖等,0,2023-11-30,2023-11-13,株式会社３６５,,株式会社,東京都,世田谷区,千歳台５丁目１９番１号－１０２,,13,112,1570071,,,2023-11-13,清算の結了等,,,2019-08-08,1,,,,,サンロクゴ,0
1275,6013401004835,登記記録の閉鎖等,0,2023-11-30,2023-11-24,株式会社セレス,,株式会社,東京都,日野市,平山３丁目１４番地３,,13,212,1910043,,,2023-11-24,清算の結了等,,,2015-10-05,1,,,,,セレス,0
1278,6020001064730,登記記録の閉鎖等,0,2023-11-30,2023-11-27,丸和建設株式会社,,株式会社,神奈川県,川崎市高津区,坂戸３丁目２１番９号,,14,134,2130012,,,2023-11-27,清算の結了等,,,2015-10-05,1,,,,,マルワケンセツ,0
1286,6020002009016,登記記録の閉鎖等,0,2023-11-30,2023-11-27,有限会社八百菊商店,,有限会社,神奈川県,横浜市金沢区,釜利谷東１丁目２５番４号,,14,108,2360042,,,2023-11-27,清算の結了等,,,2015-10-05,1,,,,,ヤオキクショウテン,0
1287,6020002028445,登記記録の閉鎖等,0,2023-11-30,2023-11-24,有限会社柳藤商店,,有限会社,神奈川県,横浜市神奈川区,山内町１番地の１,,14,102,2210054,,,2023-11-24,清算の結了等,,,2015-10-05,1,,,,,,0
1296,6030001147344,登記記録の閉鎖等,0,2023-11-30,2023-11-22,株式会社イメージファクトリー,,株式会社,埼玉県,さいたま市南区,大字大谷口５０２７番地３,,11,108,3360042,,,2023-11-22,清算の結了等,,,2022-03-22,1,,,,,イメージファクトリー,0
1312,6040002070461,登記記録の閉鎖等,0,2023-11-30,2023-11-20,有限会社ビッグ・スポーツ,,有限会社,千葉県,君津市,東坂田３丁目６番３号,,12,225,2991144,,,2023-11-20,清算の結了等,,,2015-10-05,1,,,,,ビッグスポーツ,0
1318,6050002008980,登記記録の閉鎖等,0,2023-11-30,2023-11-27,有限会社マルヨシ水産,,有限会社,茨城県,ひたちなか市,平磯町１９２７番地の３,,08,221,3111203,,,2023-11-27,清算の結了等,,,2015-10-05,1,,,,,マルヨシスイサン,0
1333,6090002001354,登記記録の閉鎖等,0,2023-11-30,2023-11-29,有限会社三星工業,,有限会社,山梨県,甲府市,千塚１丁目７番２８号,,19,201,4000074,,,2023-11-29,清算の結了等,,,2015-10-05,1,,,,,サンセイコウギョウ,0
1338,6120001034921,登記記録の閉鎖等,0,2023-11-30,2023-11-28,株式会社工電社,,株式会社,大阪府,大阪市此花区,高見３丁目８番３号,,27,104,5540001,,,2023-11-28,清算の結了等,,,2015-10-05,1,,,,,コウデンシャ,0
1342,6120001210431,登記記録の閉鎖等,0,2023-11-30,2023-11-27,株式会社喜多岡商事,,株式会社,大阪府,大阪市天王寺区,大道３丁目８番３２－４０２号,,27,109,5430052,,,2023-11-27,清算の結了等,,,2018-01-04,1,,,,,キタオカショウジ,0
1357,6120102024771,登記記録の閉鎖等,0,2023-11-30,2023-11-28,有限会社ヒカリ管財,,有限会社,大阪府,泉佐野市,上町１丁目４番２２号,,27,213,5980007,,,2023-11-28,清算の結了等,,,2015-10-05,1,,,,,ヒカリカンザイ,0
1397,6190002019345,登記記録の閉鎖等,0,2023-11-30,2023-11-28,有限会社魚芳商店,,有限会社,三重県,四日市市,小古曽２丁目１番６号,,24,202,5100958,,,2023-11-28,清算の結了等,,,2015-10-05,1,,,,,,0
1408,6220002011075,登記記録の閉鎖等,0,2023-11-30,2023-11-27,有限会社美伝,,有限会社,石川県,小松市,安宅新町ニ１番地３２,,17,203,9230995,,,2023-11-27,清算の結了等,,,2015-10-05,1,,,,,ビデン,0
1410,6250005007596,登記記録の閉鎖等,0,2023-11-30,2023-11-28,農事組合法人山口瀬戸内グループ,,その他の設立登記法人,山口県,山口市,名田島１５９７番地,,35,203,7540892,,,2023-11-28,清算の結了等,,,2015-10-05,1,,,,,ヤマグチセトウチグループ,0
1414,6290001061750,登記記録の閉鎖等,0,2023-11-30,2023-11-22,株式会社ａｓｈｉｔａｂａ,,株式会社,福岡県,筑紫野市,杉塚１丁目２番８号,,40,217,8180054,,,2023-11-22,清算の結了等,,,2015-10-05,1,,,,,,0
1424,6310001000482,登記記録の閉鎖等,0,2023-11-30,2023-11-28,株式会社クウォリティ秀英社,,株式会社,長崎県,長崎市,かき道２丁目３７番２１号,,42,201,8510115,,,2023-11-28,清算の結了等,,,2015-10-05,1,,,,,クウォリティシュウエイシャ,0
1442,6440002004478,登記記録の閉鎖等,0,2023-11-30,2023-11-28,有限会社マルシチ新栄電気,,有限会社,北海道,函館市,鍛治１丁目１２番１８号,,01,202,0410852,,,2023-11-28,清算の結了等,,,2015-10-05,1,,,,,マルシチシンエイデンキ,0
1456,7010001183134,登記記録の閉鎖等,0,2023-11-30,2023-11-27,株式会社琥珀,,株式会社,東京都,中央区,銀座７丁目６番１６号,,13,102,1040061,,,2023-11-27,清算の結了等,,,2017-04-27,1,,,,,コハク,0
1475,7010601027946,登記記録の閉鎖等,0,2023-11-30,2023-11-27,株式会社エム企画,,株式会社,東京都,江東区,新木場３丁目５番６号,,13,108,1360082,,,2023-11-27,清算の結了等,,,2015-10-05,1,,,,,エムキカク,0
1507,7011301012866,登記記録の閉鎖等,0,2023-11-30,2023-11-27,ビーカル株式会社,,株式会社,大阪府,豊中市,栗ケ丘町８番２３号,,27,203,5600016,,,2023-11-27,清算の結了等,,,2015-10-05,1,,,,,ビーカル,0
1518,7012302005314,登記記録の閉鎖等,0,2023-11-30,2023-11-28,有限会社若林,,有限会社,東京都,町田市,本町田２５３３番地公社住宅ハ１－５０３,,13,209,1940032,,,2023-11-28,清算の結了等,,,2015-10-05,1,,,,,ワカバヤシ,0
1537,7020002005971,登記記録の閉鎖等,0,2023-11-30,2023-11-27,有限会社キヨー,,有限会社,神奈川県,横浜市都筑区,茅ケ崎東４丁目７番８号,,14,118,2240033,,,2023-11-27,清算の結了等,,,2015-10-05,1,,,,,キヨー,0
1555,7030003014673,登記記録の閉鎖等,0,2023-11-30,2023-11-22,合同会社ｃｈｏｕｅｔｔｅ,,合同会社,埼玉県,草加市,西町１４０２番地１,,11,221,3400035,,,2023-11-22,清算の結了等,,,2020-01-20,1,,,,,シュエット,0
1557,7040001023642,登記記録の閉鎖等,0,2023-11-30,2023-11-21,株式会社ラビットキャリーサービス,,株式会社,千葉県,八千代市,高津１００５－１－２０３,,12,221,2760036,,,2023-11-21,清算の結了等,,,2015-10-05,1,,,,,ラビットキャリーサービス,0
1560,7040001082374,登記記録の閉鎖等,0,2023-11-30,2023-11-07,株式会社フェアビュー,,株式会社,千葉県,千葉市中央区,千葉寺町１２２５番地５,,12,101,2600844,,,2023-11-07,清算の結了等,,,2015-10-05,1,,,,,フェアビュー,0
1567,7040001125629,登記記録の閉鎖等,0,2023-11-30,2023-11-16,ＰａｒｔｎｅｒＨｕｂ株式会社,,株式会社,千葉県,千葉市中央区,中央２丁目８－２ヒューリックレジデンス千葉中央５０５,,12,101,2600013,,,2023-11-16,清算の結了等,,,2022-10-31,1,,,,,パートナーハブ,0
1580,7050001046717,登記記録の閉鎖等,0,2023-11-30,2023-11-24,株式会社ＳＫＹロジスティクス,,株式会社,茨城県,つくば市,小白硲４５８番地１２,,08,220,3050844,,,2023-11-24,清算の結了等,,,2019-11-08,1,,,,,スカイロジスティクス,0
1595,7110002021274,登記記録の閉鎖等,0,2023-11-30,2023-11-28,有限会社互協,,有限会社,新潟県,柏崎市,高柳町岡田６２８番地,,15,205,9451501,,,2023-11-28,清算の結了等,,,2015-10-05,1,,,,,ゴキョウ,0
1630,7140001120685,登記記録の閉鎖等,0,2023-11-30,2023-11-24,株式会社ＨＩＲＯ,,株式会社,兵庫県,神戸市中央区,下山手通７丁目６番１１,,28,110,6500011,,,2023-11-24,清算の結了等,,,2021-03-08,1,,,,,ヒロ,0
1635,7140002026436,登記記録の閉鎖等,0,2023-11-30,2023-11-27,有限会社オフィスミノル,,有限会社,兵庫県,神戸市垂水区,千鳥が丘３丁目２４番２３号,,28,108,6550011,,,2023-11-27,清算の結了等,,,2015-10-05,1,,,,,オフィスミノル,0
1638,7160001012724,登記記録の閉鎖等,0,2023-11-30,2023-11-28,加藤機工商事株式会社,,株式会社,滋賀県,草津市,野路東６丁目５番７号,,25,206,5250058,,,2023-11-28,清算の結了等,,,2015-10-05,1,,,,,カトウキコウショウジ,0
1646,7180001070010,登記記録の閉鎖等,0,2023-11-30,2023-11-27,バスクルジャパン株式会社,,株式会社,愛知県,名古屋市中川区,長良町３丁目２０番地,,23,110,4540815,,,2023-11-27,清算の結了等,,,2015-10-05,1,,,,,バスクルジャパン,0
1650,7180002010989,登記記録の閉鎖等,0,2023-11-30,2023-11-27,有限会社一善堂,,有限会社,愛知県,名古屋市北区,大曽根３丁目１４番４３号,,23,103,4620825,,,2023-11-27,清算の結了等,,,2015-10-05,1,,,,,イチゼンドウ,0
1673,7240001011890,登記記録の閉鎖等,0,2023-11-30,2023-11-27,株式会社柳原眼鏡,,株式会社,広島県,広島市中区,南千田西町６番３０号,,34,101,7300055,,,2023-11-27,清算の結了等,,,2015-10-05,1,,,,,ヤナギハラガンキョウ,0
1694,7310003003136,登記記録の閉鎖等,0,2023-11-30,2023-11-28,合同会社理工,,合同会社,長崎県,長崎市,三原１丁目７番３２号,,42,201,8528123,,,2023-11-28,清算の結了等,,,2016-05-18,1,,,,,リコウ,0
1697,7330002012846,登記記録の閉鎖等,0,2023-11-30,2023-11-27,有限会社青空在宅サービス,,有限会社,熊本県,熊本市東区,戸島西２丁目６番３２号,,43,102,8618043,,,2023-11-27,清算の結了等,,,2015-10-05,1,,,,,アオゾラザイタクサービス,0
1698,7340001017738,登記記録の閉鎖等,0,2023-11-30,2023-11-28,株式会社きずな,,株式会社,鹿児島県,熊毛郡中種子町,納官５４０１番地１,,46,501,8913601,,,2023-11-28,清算の結了等,,,2015-10-05,1,,,,,キズナ,0
1735,8010003023519,登記記録の閉鎖等,0,2023-11-30,2023-11-24,グローバス合同会社,,合同会社,東京都,千代田区,外神田３丁目１１番１１号,,13,101,1010021,,,2023-11-24,清算の結了等,,,2016-05-17,1,,,,,グローバス,0
1743,8010401056087,登記記録の閉鎖等,0,2023-11-30,2023-11-27,シオズミアセットマネジメント株式会社,,株式会社,東京都,港区,西新橋３丁目１３－７,,13,103,1050003,,,2023-11-27,清算の結了等,,,2015-10-05,1,,,,,シオズミアセットマネジメント,0
1749,8010403021898,登記記録の閉鎖等,0,2023-11-30,2023-11-28,合同会社厚木愛川,,合同会社,東京都,港区,虎ノ門２丁目１０番１号株式会社シーアールイー内,,13,103,1050001,,,2023-11-28,清算の結了等,,,2019-11-27,1,,,,,アツギアイカワ,0
1785,8011701005808,登記記録の閉鎖等,0,2023-11-30,2023-11-24,トヨタ工業株式会社,,株式会社,東京都,江戸川区,松江５丁目１０番１６号,,13,123,1320025,,,2023-11-24,清算の結了等,,,2015-10-05,1,,,,,トヨタコウギョウ,0
1787,8012302008621,登記記録の閉鎖等,0,2023-11-30,2023-11-27,有限会社栄晴,,有限会社,東京都,町田市,本町田１５６５－２６,,13,209,1940032,,,2023-11-27,清算の結了等,,,2015-10-05,1,,,,,エイセイ,0
1791,8012403004692,登記記録の閉鎖等,0,2023-11-30,2023-11-27,合同会社ＰＥＴＩＴＭＡＲＴ,,合同会社,東京都,多摩市,豊ヶ丘２丁目１番地１－３０６,,13,224,2060031,,,2023-11-27,清算の結了等,,,2021-02-05,1,,,,,プチマート,0
1793,8012702003024,登記記録の閉鎖等,0,2023-11-30,2023-11-28,有限会社武田測量設計事務所,,有限会社,東京都,東村山市,廻田町４丁目２４番地６５,,13,213,1890025,,,2023-11-28,清算の結了等,,,2015-10-05,1,,,,,タケダソクリョウセッケイジムショ,0
1814,8020003022255,登記記録の閉鎖等,0,2023-11-30,2023-11-27,合同会社クラウドジャパン,,合同会社,東京都,練馬区,旭町２丁目３０番２０号エルハイツ成増Ｗ３０９,,13,120,1790071,,,2023-11-27,清算の結了等,,,2022-08-19,1,,,,,クラウドジャパン,0
1834,8040005020924,登記記録の閉鎖等,0,2023-11-30,2023-11-22,特定非営利活動法人ＳＯＲＡ,,その他の設立登記法人,千葉県,千葉市若葉区,若松町７１４番地２,,12,104,2640021,,,2023-11-22,清算の結了等,,,2020-09-18,1,,,,,ソラ,0
1840,8050002027970,登記記録の閉鎖等,0,2023-11-30,2023-11-24,大門興業有限会社,,有限会社,茨城県,神栖市,砂山１０１４番地３８２号,,08,232,3140255,,,2023-11-24,清算の結了等,,,2015-10-05,1,,,,,ダイモンコウギョウ,0
1843,8060001035032,登記記録の閉鎖等,0,2023-11-30,2023-11-27,株式会社ＨＩＮＡＴＡ,,株式会社,栃木県,宇都宮市,鶴田町２４８４番地８,,09,201,3200851,,,2023-11-27,清算の結了等,,,2022-07-01,1,,,,,ヒナタ,0
1873,8120002055700,登記記録の閉鎖等,0,2023-11-30,2023-11-28,有限会社リンケージツー,,有限会社,大阪府,大阪市北区,西天満５丁目９番１６号ダイアパレス西天満４０３号室,,27,127,5300047,,,2023-11-28,清算の結了等,,,2015-10-05,1,,,,,リンケージツー,0
1882,8122001007095,登記記録の閉鎖等,0,2023-11-30,2023-11-27,北陽石鹸株式会社,00034329,株式会社,大阪府,東大阪市,山手町６番１５号,,27,227,5798022,,,2023-11-27,清算の結了等,,,2015-10-05,1,,,,,ホクヨウセッケン,0
1894,8140001033176,登記記録の閉鎖等,0,2023-11-30,2023-11-28,株式会社ハウスリバイセル,,株式会社,兵庫県,神戸市東灘区,向洋町中１丁目４－１３０－３０１,,28,101,6580032,,,2023-11-28,清算の結了等,,,2015-10-05,1,,,,,ハウスリバイセル,0
1897,8140001083766,登記記録の閉鎖等,0,2023-11-30,2023-11-29,株式会社ミツタ,,株式会社,兵庫県,川西市,けやき坂１丁目１８番地の１,,28,217,6660145,,,2023-11-29,清算の結了等,,,2015-10-05,1,,,,,ミツタ,0
1902,8140002050708,登記記録の閉鎖等,0,2023-11-30,2023-11-29,フロント神栄有限会社,,有限会社,兵庫県,姫路市,白浜町宇佐崎中３丁目２２番地北－１,,28,201,6728021,,,2023-11-29,清算の結了等,,,2015-10-05,1,,,,,フロントシンエイ,0
1906,8170001008415,登記記録の閉鎖等,0,2023-11-30,2023-11-28,株式会社ＭＯＲＩＭＯＴＯ,,株式会社,和歌山県,紀の川市,桃山町調月４１４番地１,,30,208,6496112,,,2023-11-28,清算の結了等,,,2015-10-05,1,,,,,モリモト,0
1908,8180001148045,登記記録の閉鎖等,0,2023-11-30,2023-11-27,株式会社Ｂｉｊｏｕ,,株式会社,愛知県,名古屋市東区,泉３丁目４－２５ラヴィータ泉３０１,,23,102,4610001,,,2023-11-27,清算の結了等,,,2021-10-11,1,,,,,ビジュー,0
1916,8190001027768,登記記録の閉鎖等,0,2023-11-30,2023-11-28,株式会社Ｒｉｎ,,株式会社,三重県,津市,香良洲町５９５１番地１,,24,201,5140315,,,2023-11-28,清算の結了等,,,2020-10-30,1,,,,,リン,0
1923,8220002015033,登記記録の閉鎖等,0,2023-11-30,2023-11-27,有限会社吉田牛乳,,有限会社,石川県,羽咋郡宝達志水町,宿チ３０４番地,,17,386,9291341,,,2023-11-27,清算の結了等,,,2015-10-05,1,,,,,ヨシダギュウニュウ,0
1944,8300005004116,登記記録の閉鎖等,0,2023-11-30,2023-11-27,協同組合伊西地区エルピーガス保安調査事務所,,その他の設立登記法人,佐賀県,伊万里市,大坪町甲２６７５番地１,,41,205,8480021,,,2023-11-27,清算の結了等,,,2015-10-05,1,,,,,イセイチクエルピーガスホアンチョウサジムショ,0
1948,8320003002334,登記記録の閉鎖等,0,2023-11-30,2023-11-29,合同会社ｋｏｈａｋｕ,,合同会社,大分県,大分市,六坊北町２番５６号メゾンパンセ１０１号室,,44,201,8700841,,,2023-11-29,清算の結了等,,,2015-12-16,1,,,,,,0
1957,8400001010009,登記記録の閉鎖等,0,2023-11-30,2023-11-24,ジーフェイス株式会社,,株式会社,岩手県,滝沢市,牧野林６７８番地２,,03,216,0200632,,,2023-11-24,清算の結了等,,,2015-10-05,1,,,,,ジーフェイス,0
1962,8420001014346,登記記録の閉鎖等,0,2023-11-30,2023-11-24,株式会社平賀バッテリー,,株式会社,青森県,平川市,新屋栄館５５番地,,02,210,0360121,,,2023-11-24,清算の結了等,,,2015-10-05,1,,,,,ヒラカバッテリー,0
1987,9010001205670,登記記録の閉鎖等,0,2023-11-30,2023-11-27,ソウラムゲン株式会社,,株式会社,東京都,千代田区,東神田２丁目６番７号６０８号室,,13,101,1010031,,,2023-11-27,清算の結了等,,,2019-11-28,1,,,,,ソウラムゲン,0
2003,9010403009042,登記記録の閉鎖等,0,2023-11-30,2023-11-29,ナチュラレッサ麻布合同会社,,合同会社,東京都,港区,赤坂２丁目２１番５号,,13,103,1070052,,,2023-11-29,清算の結了等,,,2015-10-05,1,,,,,ナチュラレッサアザブ,0
2008,9010601035781,登記記録の閉鎖等,0,2023-11-30,2023-11-27,株式会社和プランニング,,株式会社,東京都,江東区,新大橋２丁目２０番２－１００５号,,13,108,1350007,,,2023-11-27,清算の結了等,,,2015-10-05,1,,,,,カズプランニング,0
2041,9012702009672,登記記録の閉鎖等,0,2023-11-30,2023-11-28,有限会社関工房,,有限会社,東京都,東村山市,秋津町４丁目３９番地６８,,13,213,1890001,,,2023-11-28,清算の結了等,,,2015-10-05,1,,,,,セキコウボウ,0
2054,9020001085690,登記記録の閉鎖等,0,2023-11-30,2023-11-27,株式会社化学工業社,,株式会社,神奈川県,川崎市多摩区,三田１丁目１２番地５三田コーポ１３５,,14,135,2140034,,,2023-11-27,清算の結了等,,,2015-10-05,1,,,,,カガクコウギョウシャ,0
2058,9020001142822,登記記録の閉鎖等,0,2023-11-30,2023-11-27,株式会社ＭａｉＳｔａｒ,,株式会社,神奈川県,横浜市保土ケ谷区,川島町１５５７番地９,,14,106,2400045,,,2023-11-27,清算の結了等,,,2021-09-02,1,,,,,マイスター,0
2070,9030001018534,登記記録の閉鎖等,0,2023-11-30,2023-11-22,株式会社ワークス,,株式会社,埼玉県,蓮田市,大字黒浜３５６０番地２４,,11,238,3490101,,,2023-11-22,清算の結了等,,,2015-10-05,1,,,,,ワークス,0
2088,9040002048901,登記記録の閉鎖等,0,2023-11-30,2023-11-22,有限会社マルマス,,有限会社,千葉県,松戸市,栄町５丁目３６０番地,,12,207,2710062,,,2023-11-22,清算の結了等,,,2015-10-05,1,,,,,マルマス,0
2094,9050001022922,登記記録の閉鎖等,0,2023-11-30,2023-11-24,株式会社アイケーディー,,株式会社,茨城県,日立市,鮎川町１丁目１番１４号,,08,202,3160036,,,2023-11-24,清算の結了等,,,2015-10-05,1,,,,,アイケーディー,0
2104,9070003002887,登記記録の閉鎖等,0,2023-11-30,2023-11-20,合同会社シナジー,,合同会社,群馬県,邑楽郡大泉町,大字吉田１２２１番地の１,,10,524,3700523,,,2023-11-20,清算の結了等,,,2017-04-17,1,,,,,シナジー,0
2129,9120901035173,登記記録の閉鎖等,0,2023-11-30,2023-11-27,株式会社Ｉフロア,,株式会社,大阪府,高槻市,今城町２４番８号グランブルー高槻２０２号,,27,207,5691135,,,2023-11-27,合併による解散等,6120901015533,令和５年１１月２４日大阪府高槻市今城町２４番８号グランブルー高槻２０５号ＩＳ工業株式会社（6120901015533）に合併し解散,2015-10-05,1,,,,,アイフロア,0
2130,9120902001109,登記記録の閉鎖等,0,2023-11-30,2023-11-27,有限会社寺田鉄工所,,有限会社,大阪府,茨木市,中津町２番７号,,27,211,5670824,,,2023-11-27,清算の結了等,,,2015-10-05,1,,,,,テラダテッコウショ,0
2133,9122001033198,登記記録の閉鎖等,0,2023-11-30,2023-11-29,みのり不動産サービス株式会社,,株式会社,大阪府,東大阪市,小阪２丁目１１番１１号,,27,227,5770801,,,2023-11-29,清算の結了等,,,2019-12-05,1,,,,,ミノリフドウサンサービス,0
2135,9140001051441,登記記録の閉鎖等,0,2023-11-30,2023-11-27,株式会社三木組,,株式会社,兵庫県,尼崎市,杭瀬本町２丁目２１番９号,,28,202,6600814,,,2023-11-27,清算の結了等,,,2015-10-05,1,,,,,ミキグミ,0
2142,9140002030246,登記記録の閉鎖等,0,2023-11-30,2023-11-27,有限会社エス・アイ・ジー,,有限会社,兵庫県,明石市,本町１丁目１番２６号明不ビル内,,28,203,6730892,,,2023-11-27,清算の結了等,,,2015-10-05,1,,,,,エスアイジー,0
2158,9180301006991,登記記録の閉鎖等,0,2023-11-30,2023-11-27,株式会社フロンティア,,株式会社,愛知県,豊橋市,前田南町１丁目５番地の１３,,23,201,4400851,,,2023-11-27,清算の結了等,,,2015-10-05,1,,,,,フロンティア,0
2162,9200001001183,登記記録の閉鎖等,0,2023-11-30,2023-11-29,株式会社かわらや,,株式会社,岐阜県,岐阜市,今町４丁目１５番地,,21,201,5008023,,,2023-11-29,清算の結了等,,,2015-10-05,1,,,,,カワラヤ,0
2163,9220001022062,登記記録の閉鎖等,0,2023-11-30,2023-11-29,Ｆカンパニー株式会社,,株式会社,石川県,白山市,中成２丁目２０１番地,,17,210,9240029,,,2023-11-29,清算の結了等,,,2018-01-10,1,,,,,エフカンパニー,0
2175,9240005001168,登記記録の閉鎖等,0,2023-11-30,2023-11-22,医療法人川本耳鼻咽喉科医院,,その他の設立登記法人,広島県,広島市南区,宇品神田１丁目１番３号,,34,103,7340004,,,2023-11-22,清算の結了等,,,2015-10-05,1,,,,,カワモトジビインコウカイイン,0
2181,9260002001243,登記記録の閉鎖等,0,2023-11-30,2023-11-27,有限会社エイチ,,有限会社,岡山県,岡山市北区,清心町３番２１号,,33,101,7000027,,,2023-11-27,合併による解散等,3260001005374,令和５年１０月１日岡山市北区清心町３番２１号株式会社ハシモト（3260001005374）に合併し解散,2015-10-05,1,,,,,エイチ,0
2194,9360001012438,登記記録の閉鎖等,0,2023-11-30,2023-11-28,株式会社沖縄緑建,,株式会社,沖縄県,国頭郡大宜味村,字屋古２６４番地の３,,47,302,9051312,,,2023-11-28,清算の結了等,,,2015-10-05,1,,,,,オキナワリョッケン,0
2203,9380002016857,登記記録の閉鎖等,0,2023-11-30,2023-11-27,有限会社アイワ空調サービス,,有限会社,福島県,本宮市,高木字井戸上３８番地１２,,07,214,9691101,,,2023-11-27,清算の結了等,,,2015-10-05,1,,,,,アイワクウチョウサービス,0
2205,9390001005851,登記記録の閉鎖等,0,2023-11-30,2023-11-27,株式会社日本水素,,株式会社,山形県,山形市,東青田５丁目１１番３号,,06,201,9902423,,,2023-11-27,清算の結了等,,,2015-10-05,1,,,,,ニホンスイソ,0
2209,9420003001085,登記記録の閉鎖等,0,2023-11-30,2023-11-27,合同会社やすた木工,,合同会社,青森県,北津軽郡板柳町,大字灰沼字玉川１５－７３,,02,381,0383672,,,2023-11-27,清算の結了等,,,2015-10-05,1,,,,,ヤスタモッコウ,0
