sequenceNumber,corporateNumber,process,correct,updateDate,changeDate,name,nameImageId,kind,prefectureName,cityName,streetNumber,addressImageId,prefectureCode,cityCode,postCode,addressOutside,addressOutsideImageId,closeDate,closeCause,successorCorporateNumber,changeCause,assignmentDate,latest,enName,enPrefectureName,enCityName,enAddressOutside,furigana,hihyoji
2,1010001026901,登記記録の閉鎖等,0,2023-08-22,2023-08-14,株式会社白和,,株式会社,東京都,千代田区,麹町４丁目５番地４,,13,101,1020083,,,2023-08-14,清算の結了等,,,2015-10-05,1,,,,,ハクワ,0
35,1010801018750,登記記録の閉鎖等,0,2023-08-22,2023-08-14,株式会社トレチーメ,,株式会社,兵庫県,神戸市中央区,中山手通３丁目２番１－３００６号,,28,110,6500004,,,2023-08-14,清算の結了等,,,2015-10-05,1,,,,,トレチーメ,0
61,1011502014733,登記記録の閉鎖等,0,2023-08-22,2023-08-17,クリーンサポート有限会社,,有限会社,東京都,北区,赤羽北２丁目７番１号,,13,117,1150052,,,2023-08-17,清算の結了等,,,2015-10-05,1,,,,,クリーンサポート,0
75,1020001036313,登記記録の閉鎖等,0,2023-08-22,2023-08-09,株式会社Ｐ．Ｏ．Ｃ,,株式会社,神奈川県,横浜市南区,蒔田町字谷戸田９７０番地,,14,105,2320043,,,2023-08-09,清算の結了等,,,2015-10-05,1,,,,,,0
78,1020001097537,登記記録の閉鎖等,0,2023-08-22,2023-08-09,株式会社達徳,,株式会社,神奈川県,横浜市都筑区,佐江戸町１９５６番地,,14,118,2240054,,,2023-08-09,清算の結了等,,,2015-10-05,1,,,,,,0
84,1020003011413,登記記録の閉鎖等,0,2023-08-22,2023-07-13,合同会社ＴＮ企画,,合同会社,神奈川県,横浜市瀬谷区,瀬谷４丁目２１番地の２７,,14,114,2460031,,,2023-07-13,清算の結了等,,,2016-06-14,1,,,,,,0
86,1021001037193,登記記録の閉鎖等,0,2023-08-22,2023-07-18,株式会社平塚きんか,,株式会社,千葉県,南房総市,宮谷２６０番地,,12,234,2992222,,,2023-07-18,清算の結了等,,,2015-10-05,1,,,,,,0
90,1021002045212,登記記録の閉鎖等,0,2023-08-22,2023-08-17,有限会社星和,,有限会社,神奈川県,海老名市,国分北１丁目３４番５号,,14,215,2430406,,,2023-08-17,清算の結了等,,,2015-10-05,1,,,,,,0
102,1030002088690,登記記録の閉鎖等,0,2023-08-22,2023-07-26,有限会社カタワク二十一,,有限会社,埼玉県,越谷市,谷中町１丁目４２番地４,,11,222,3430856,,,2023-07-26,清算の結了等,,,2015-10-05,1,,,,,,0
106,1040001028259,登記記録の閉鎖等,0,2023-08-22,2023-07-31,株式会社プロメイド,,株式会社,千葉県,鎌ケ谷市,初富８００番地２１７,,12,224,2730121,,,2023-07-31,清算の結了等,,,2015-10-05,1,,,,,プロメイド,0
146,1120002052035,登記記録の閉鎖等,0,2023-08-22,2023-08-18,アイエムエス有限会社,,有限会社,大阪府,大阪市西区,新町１丁目８番１号,,27,106,5500013,,,2023-08-18,合併による解散等,7120901027544,令和５年７月２１日大阪府豊中市上野東二丁目６番４４号ＮＰＳ株式会社（7120901027544）に合併し解散,2015-10-05,1,,,,,アイエムエス,0
155,1120901021767,登記記録の閉鎖等,0,2023-08-22,2023-08-14,株式会社やさか,,株式会社,大阪府,箕面市,西宿３丁目１５番２号,,27,220,5620034,,,2023-08-14,清算の結了等,,,2015-10-05,1,,,,,ヤサカ,0
161,1122001006062,登記記録の閉鎖等,0,2023-08-22,2023-08-14,ビッグエム株式会社,,株式会社,大阪府,寝屋川市,成田東が丘３３番７号,,27,215,5720002,,,2023-08-14,清算の結了等,,,2015-10-05,1,,,,,ビッグエム,0
166,1130002015676,登記記録の閉鎖等,0,2023-08-22,2023-07-28,稲垣染工有限会社,,有限会社,京都府,京都市中京区,西ノ京内畑町１２番地,,26,104,6048417,,,2023-07-28,清算の結了等,,,2015-10-05,1,,,,,イナガキセンコウ,0
179,1140005019054,登記記録の閉鎖等,0,2023-08-22,2023-08-07,特定非営利活動法人日中会計税務交流機構,,その他の設立登記法人,兵庫県,宝塚市,野上１丁目７－６,,28,214,6650022,,,2023-08-07,清算の結了等,,,2015-10-05,1,,,,,ニッチュウカイケイゼイムコウリュウキコウ,0
214,1240002048987,登記記録の閉鎖等,0,2023-08-22,2023-08-18,有限会社ヨシヤ,,有限会社,広島県,安芸郡坂町,北新地２丁目３番５５－２０４号,,34,309,7314311,,,2023-08-18,清算の結了等,,,2015-10-05,1,,,,,ヨシヤ,0
219,1250002003818,登記記録の閉鎖等,0,2023-08-22,2023-08-10,有限会社広和商事,,有限会社,山口県,防府市,大字高井１０６２番地の１,,35,206,7470064,,,2023-08-10,清算の結了等,,,2015-10-05,1,,,,,コウワショウジ,0
222,1260001005384,登記記録の閉鎖等,0,2023-08-22,2023-08-18,株式会社橋本ハウジングセンター,,株式会社,岡山県,岡山市南区,福成２丁目２１番３１号,,33,104,7028022,,,2023-08-18,合併による解散等,1260001005376,令和５年８月１日岡山市南区福成二丁目２１番３１号橋本興産株式会社（1260001005376）に合併し解散,2015-10-05,1,,,,,ハシモトハウジングセンター,0
226,1260005004390,登記記録の閉鎖等,0,2023-08-22,2023-08-21,医療法人佐藤胃腸科外科病院,,その他の設立登記法人,岡山県,倉敷市,田ノ上７３２番地,,33,202,7100831,,,2023-08-21,清算の結了等,,,2015-10-05,1,,,,,サトウイチョウカゲカビョウイン,0
260,1430002016710,登記記録の閉鎖等,0,2023-08-22,2023-07-25,平馬商事有限会社,,有限会社,北海道,札幌市南区,石山二条４丁目４番７号,,01,106,0050842,,,2023-07-25,清算の結了等,,,2015-10-05,1,,,,,ヒラマショウジ,0
262,1430002040495,登記記録の閉鎖等,0,2023-08-22,2023-07-28,有限会社アイドライサービス,,有限会社,北海道,札幌市西区,発寒十条１４丁目１０６９番地,,01,107,0630830,,,2023-07-28,清算の結了等,,,2015-10-05,1,,,,,アイドライサービス,0
263,1430003002593,登記記録の閉鎖等,0,2023-08-22,2023-07-26,合資会社中垣衣裳店,,合資会社,北海道,滝川市,本町１丁目７番１２号,,01,225,0730021,,,2023-07-26,清算の結了等,,,2015-10-05,1,,,,,ナカガキイショウテン,0
264,1450001011875,登記記録の閉鎖等,0,2023-08-22,2023-08-01,株式会社さいとう自動車,,株式会社,北海道,岩見沢市,東町一条８丁目９３２番地４５,,01,210,0680013,,,2023-08-01,清算の結了等,,,2016-11-11,1,,,,,サイトウジドウシャ,0
286,2010003022419,登記記録の閉鎖等,0,2023-08-22,2023-08-14,番合同会社,,合同会社,東京都,千代田区,一番町１０番８号,,13,101,1020082,,,2023-08-14,清算の結了等,,,2015-10-05,1,,,,,バン,0
305,2010403017910,登記記録の閉鎖等,0,2023-08-22,2023-07-31,合同会社タントモンタ,,合同会社,東京都,港区,海岸３丁目１９－２マリンシティダイヤモンドパレス７１６号室,,13,103,1080022,,,2023-07-31,清算の結了等,,,2018-01-12,1,,,,,,0
309,2010405016051,登記記録の閉鎖等,0,2023-08-22,2023-07-28,一般社団法人ＡＰ２,,その他の設立登記法人,東京都,港区,元赤坂１丁目１番８号赤坂コミュニティビル４階,,13,103,1070051,,,2023-07-28,清算の結了等,,,2017-09-06,1,,,,,エーピーツー,0
316,2010701036026,登記記録の閉鎖等,0,2023-08-22,2023-07-26,ＲＯＢＩＮＥＴ株式会社,,株式会社,東京都,港区,六本木６丁目１２番２号,,13,103,1060032,,,2023-07-26,清算の結了等,,,2018-06-27,1,,,,,ロビネット,0
331,2011001094037,登記記録の閉鎖等,0,2023-08-22,2023-08-18,ＵｎＫｎｏｔ株式会社,,株式会社,東京都,千代田区,神田佐久間河岸８４番,,13,101,1010026,,,2023-08-18,合併による解散等,6010001151703,令和５年８月１日福岡市中央区大名一丁目１番３２号ＧＬＡＮＺビル４階株式会社ＨＥＲＯ　ｉｎｎｏｖａｔｉｏｎ（6010001151703）に合併し解散,2015-10-05,1,,,,,アンノット,0
341,2011103009850,登記記録の閉鎖等,0,2023-08-22,2023-08-14,合同会社アシスト,,合同会社,東京都,新宿区,新宿７丁目２２番１８号グランドメゾン・Ｆ２０３Ｂ,,13,104,1600022,,,2023-08-14,清算の結了等,,,2020-07-14,1,,,,,アシスト,0
343,2011303002275,登記記録の閉鎖等,0,2023-08-22,2023-07-31,合同会社Ｈａｌｅ,,合同会社,東京都,港区,赤坂２丁目７番２号,,13,103,1070052,,,2023-07-31,清算の結了等,,,2015-10-05,1,,,,,ハレ,0
355,2012302005970,登記記録の閉鎖等,0,2023-08-22,2023-08-21,有限会社ＳＫボディー,,有限会社,東京都,町田市,小山町８６４番地,,13,209,1940212,,,2023-08-21,清算の結了等,,,2015-10-05,1,,,,,,0
363,2013401001349,登記記録の閉鎖等,0,2023-08-22,2023-08-18,ティーエスケー株式会社,,株式会社,東京都,多摩市,豊ヶ丘１丁目２１番地の６住吉ビル２０３号,,13,224,2060031,,,2023-08-18,清算の結了等,,,2015-10-05,1,,,,,ティーエスケー,0
368,2020002058512,登記記録の閉鎖等,0,2023-08-22,2023-08-09,有限会社ヨコハマスリーエー,,有限会社,神奈川県,横浜市緑区,竹山２丁目５番地１,,14,113,2260005,,,2023-08-09,清算の結了等,,,2015-10-05,1,,,,,ヨコハマスリーエー,0
376,2030001022286,登記記録の閉鎖等,0,2023-08-22,2023-07-24,株式会社三盛商会,,株式会社,埼玉県,戸田市,喜沢南１丁目４番１７号戸田第一スカイハイツ６４９号室,,11,224,3350014,,,2023-07-24,清算の結了等,,,2015-10-05,1,,,,,サンセイショウカイ,0
390,2040002059987,登記記録の閉鎖等,0,2023-08-22,2023-08-01,有限会社新藤工業所,,有限会社,千葉県,成田市,並木町２０６番地９,,12,211,2860045,,,2023-08-01,清算の結了等,,,2015-10-05,1,,,,,シンドウコウギョウショ,0
404,2080402013714,登記記録の閉鎖等,0,2023-08-22,2023-08-21,有限会社ＫＳＬ,,有限会社,静岡県,浜松市中区,和合町３１５番地の１３０４サンバードＩＩＩ２０３,00068445,22,131,4338125,,,2023-08-21,清算の結了等,,,2015-10-05,1,,,,,ケイエスエル,0
413,2110002020306,登記記録の閉鎖等,0,2023-08-22,2023-08-17,有限会社エス・エス・ケイ,,有限会社,新潟県,柏崎市,西山町下山田５０５番地７,,15,205,9494126,,,2023-08-17,清算の結了等,,,2015-10-05,1,,,,,エスエスケイ,0
414,2110002021907,登記記録の閉鎖等,0,2023-08-22,2023-08-21,有限会社かねま鮮魚,,有限会社,新潟県,村上市,藤沢３０８番地１,,15,212,9593131,,,2023-08-21,清算の結了等,,,2015-10-05,1,,,,,カネマセンギョ,0
418,2120001153056,登記記録の閉鎖等,0,2023-08-22,2023-08-14,株式会社ＩＮ　ＰＬＡＮＮＩＮＧ,,株式会社,大阪府,交野市,私部４丁目７３番４号,,27,230,5760052,,,2023-08-14,清算の結了等,,,2015-10-05,1,,,,,,0
429,2120101061984,登記記録の閉鎖等,0,2023-08-22,2023-08-21,株式会社Ｂｅｌｌａ　Ｖｉｔａ,,株式会社,大阪府,富田林市,甲田１丁目１番２４号,,27,214,5840036,,,2023-08-21,清算の結了等,,,2020-07-13,1,,,,,ベラヴィータ,0
439,2130002011187,登記記録の閉鎖等,0,2023-08-22,2023-08-07,有限会社辻又,00037274,有限会社,京都府,京都市南区,西九条比永城町１０１番地,,26,107,6018437,,,2023-08-07,清算の結了等,,,2015-10-05,1,,,,,ツジマタ,0
458,2180002069436,登記記録の閉鎖等,0,2023-08-22,2023-08-18,有限会社長生堂,,有限会社,愛知県,小牧市,大字小牧原新田３９８番地４,,23,219,4850012,,,2023-08-18,清算の結了等,,,2015-10-05,1,,,,,チョウセイドウ,0
468,2190001024085,登記記録の閉鎖等,0,2023-08-22,2023-08-17,株式会社神宝農産,,株式会社,三重県,伊勢市,小俣町元町１２１１番地,,24,203,5190503,,,2023-08-17,清算の結了等,,,2016-10-26,1,,,,,シンボウノウサン,0
473,2240001027974,登記記録の閉鎖等,0,2023-08-22,2023-08-18,春藤建設株式会社,,株式会社,広島県,廿日市市,佐方１丁目１３番３２号,,34,213,7380001,,,2023-08-18,清算の結了等,,,2015-10-05,1,,,,,シュントウケンセツ,0
480,2260003001331,登記記録の閉鎖等,0,2023-08-22,2023-08-21,合同会社ジョゼ,,合同会社,岡山県,岡山市北区,表町３丁目４番３６号,,33,101,7000822,,,2023-08-21,清算の結了等,,,2015-10-05,1,,,,,ジョゼ,0
482,2290002047042,登記記録の閉鎖等,0,2023-08-22,2023-08-02,有限会社エルアールシースギヤマ,,有限会社,福岡県,筑後市,大字長浜４７８番地１,,40,211,8330005,,,2023-08-02,清算の結了等,,,2015-10-05,1,,,,,エルアールシースギヤマ,0
484,2290002054179,登記記録の閉鎖等,0,2023-08-22,2023-08-02,有限会社読売ニユースセンター大川,,有限会社,福岡県,大川市,大字向島２３２２番地の２,,40,212,8310005,,,2023-08-02,清算の結了等,,,2015-10-05,1,,,,,ヨミウリニュースセンターオオカワ,0
497,2370002004175,登記記録の閉鎖等,0,2023-08-22,2023-08-18,有限会社リーフ,,有限会社,宮城県,仙台市太白区,柳生３丁目４番地の９,,04,104,9811106,,,2023-08-18,清算の結了等,,,2015-10-05,1,,,,,リーフ,0
504,2390002005634,登記記録の閉鎖等,0,2023-08-22,2023-08-18,有限会社トーフセンター高橋,00084878,有限会社,山形県,天童市,老野森３丁目１５番６号,,06,210,9940013,,,2023-08-18,清算の結了等,,,2015-10-05,1,,,,,トーフセンタータカハシ,0
528,3010003025057,登記記録の閉鎖等,0,2023-08-22,2023-08-16,合同会社ウェルダン,,合同会社,東京都,中央区,銀座６丁目１３番１６号銀座ＷａｌｌビルＵＣＦ５０１,,13,102,1040061,,,2023-08-16,清算の結了等,,,2017-03-22,1,,,,,ウェルダン,0
533,3010401111656,登記記録の閉鎖等,0,2023-08-22,2023-07-28,株式会社ＮＯＮＯＳＩＮＡ　ＪＡＰＡＮ,,株式会社,神奈川県,川崎市川崎区,大島４丁目１５－３,,14,131,2100834,,,2023-07-28,清算の結了等,,,2015-10-05,1,,,,,ノノシナジャパン,0
541,3010403026365,登記記録の閉鎖等,0,2023-08-22,2023-07-28,Ｃｏｎｖｉｖａ　Ｊａｐａｎ合同会社,,合同会社,東京都,港区,西新橋３丁目４番２号ＳＳビル８階,,13,103,1050003,,,2023-07-28,清算の結了等,,,2021-10-21,1,,,,,コンビバジャパン,0
544,3010405015317,登記記録の閉鎖等,0,2023-08-22,2023-07-31,つくし一般社団法人,,その他の設立登記法人,東京都,港区,北青山１丁目２番３号,,13,103,1070061,,,2023-07-31,清算の結了等,,,2016-12-01,1,,,,,ツクシ,0
582,3020001100802,登記記録の閉鎖等,0,2023-08-22,2023-08-10,株式会社Ｗｏｒｌｄ　Ｖｉｔａｌ　ＡＳＩＡ,,株式会社,神奈川県,川崎市麻生区,多摩美２丁目１５番９－４０３号,,14,137,2150002,,,2023-08-10,清算の結了等,,,2015-10-05,1,,,,,ワールドバイタルアジア,0
610,3040001055549,登記記録の閉鎖等,0,2023-08-22,2023-07-31,株式会社白光,,株式会社,千葉県,市原市,牛久９６５番地１,,12,219,2900225,,,2023-07-31,清算の結了等,,,2015-10-05,1,,,,,ハッコウ,0
611,3040001099281,登記記録の閉鎖等,0,2023-08-22,2023-07-31,ケーイーエムシステムズ株式会社,,株式会社,千葉県,旭市,松ケ谷１９３９番地,,12,215,2892601,,,2023-07-31,清算の結了等,,,2017-03-14,1,,,,,ケーイーエムシステムズ,0
623,3080101012272,登記記録の閉鎖等,0,2023-08-22,2023-08-18,株式会社富士森林サービス,,株式会社,静岡県,富士宮市,内野１７９０番地の１１,,22,207,4180104,,,2023-08-18,清算の結了等,,,2015-10-05,1,,,,,フジシンリンサービス,0
645,3120901019636,登記記録の閉鎖等,0,2023-08-22,2023-08-16,株式会社ジャパンアロー,,株式会社,大阪府,池田市,城南１丁目８番２３号池田共栄ビル２０１号,,27,204,5630025,,,2023-08-16,清算の結了等,,,2015-10-05,1,,,,,ジャパンアロー,0
651,3140001013991,登記記録の閉鎖等,0,2023-08-22,2023-08-15,兵敷興産株式会社,,株式会社,兵庫県,神戸市兵庫区,新開地４丁目１番１１号,,28,105,6520811,,,2023-08-15,合併による解散等,7140001013807,令和５年８月１５日神戸市兵庫区新開地四丁目１番１１号株式会社西多聞（7140001013807）に合併し解散,2015-10-05,1,,,,,ヒョウシキコウサン,0
659,3160002011431,登記記録の閉鎖等,0,2023-08-22,2023-08-18,有限会社中野商店,,有限会社,滋賀県,高島市,安曇川町南船木１０４番地,,25,212,5201233,,,2023-08-18,清算の結了等,,,2015-10-05,1,,,,,ナカノショウテン,0
666,3180001115628,登記記録の閉鎖等,0,2023-08-22,2023-07-27,株式会社ＰＥＯ,,株式会社,愛知県,名古屋市中村区,名駅南１丁目２４番３０号,,23,105,4500003,,,2023-07-27,合併による解散等,2080001012662,令和５年７月１日東京都千代田区丸の内一丁目８番３号株式会社アウトソーシング（2080001012662）に合併し解散,2015-10-05,1,,,,,ピーイーオー,0
672,3180002046731,登記記録の閉鎖等,0,2023-08-22,2023-08-18,有限会社ラスティ,,有限会社,愛知県,名古屋市昭和区,広路町字北石坂１０２番地の１１７,,23,107,4660834,,,2023-08-18,清算の結了等,,,2015-10-05,1,,,,,ラスティ,0
678,3180302019908,登記記録の閉鎖等,0,2023-08-22,2023-08-10,有限会社岡本建築,,有限会社,愛知県,碧南市,六軒町２丁目５３番地,,23,209,4470861,,,2023-08-10,清算の結了等,,,2015-10-05,1,,,,,オカモトケンチク,0
686,3210002011707,登記記録の閉鎖等,0,2023-08-22,2023-08-21,有限会社清和商事,,有限会社,福井県,越前市,四郎丸町３２字６番地１,,18,209,9150857,,,2023-08-21,清算の結了等,,,2015-10-05,1,,,,,セイワショウジ,0
690,3240001050827,登記記録の閉鎖等,0,2023-08-22,2023-08-21,株式会社Ｒｉｃｈｅｓｓｅ,,株式会社,広島県,広島市佐伯区,旭園２７番１４号,,34,108,7315133,,,2023-08-21,清算の結了等,,,2017-03-22,1,,,,,リシェス,0
698,3260001030694,登記記録の閉鎖等,0,2023-08-22,2023-08-21,ペットエンゼル岡山株式会社,,株式会社,岡山県,岡山市北区,平山９０９番地,,33,101,7011332,,,2023-08-21,清算の結了等,,,2017-04-11,1,,,,,ペットエンゼルオカヤマ,0
699,3290001090661,登記記録の閉鎖等,0,2023-08-22,2023-08-07,株式会社ＰＩＴＯＣＯ,,株式会社,福岡県,福岡市東区,千早１丁目９番２－１０１１号千早公団住宅２棟,,40,131,8130044,,,2023-08-07,清算の結了等,,,2020-10-22,1,,,,,ピトコ,0
706,3340001000383,登記記録の閉鎖等,0,2023-08-22,2023-08-17,株式会社アリマツ,,株式会社,鹿児島県,鹿児島市,西陵２丁目３０番１１号,,46,201,8900032,,,2023-08-17,清算の結了等,,,2015-10-05,1,,,,,,0
719,3430001012122,登記記録の閉鎖等,0,2023-08-22,2023-08-01,株式会社長瀬不動産鑑定事務所,,株式会社,北海道,札幌市中央区,北二条西１４丁目３番地３６,,01,101,0600002,,,2023-08-01,清算の結了等,,,2015-10-05,1,,,,,ナガセフドウサンカンテイシムショ,0
722,3430001044660,登記記録の閉鎖等,0,2023-08-22,2023-07-28,フリーダムＭ・Ｈ株式会社,,株式会社,北海道,千歳市,稲穂３丁目１番１６号,,01,224,0660029,,,2023-07-28,清算の結了等,,,2015-10-05,1,,,,,フリーダムエムエイチ,0
726,3430001068313,登記記録の閉鎖等,0,2023-08-22,2023-08-01,株式会社ケアメゾン,,株式会社,北海道,札幌市中央区,南二十一条西１２丁目３番３号,,01,101,0640921,,,2023-08-01,合併による解散等,7430001019799,令和５年８月１日札幌市中央区南二条西八丁目１２番１号株式会社あいプラン（7430001019799）に合併し解散,2015-10-05,1,,,,,ケアメゾン,0
727,3430002008086,登記記録の閉鎖等,0,2023-08-22,2023-07-31,有限会社小峰企画,,有限会社,北海道,札幌市北区,新琴似十二条２丁目２番２号,,01,102,0010912,,,2023-07-31,清算の結了等,,,2015-10-05,1,,,,,,0
728,3430002022194,登記記録の閉鎖等,0,2023-08-22,2023-07-28,有限会社ルテニア,,有限会社,北海道,札幌市中央区,南一条西１丁目１６番地４,,01,101,0600061,,,2023-07-28,清算の結了等,,,2015-10-05,1,,,,,ルテニア,0
731,3470001013595,登記記録の閉鎖等,0,2023-08-22,2023-08-17,株式会社米沢接骨院,,株式会社,香川県,さぬき市,志度９０４番地１６,,37,206,7692101,,,2023-08-17,清算の結了等,,,2015-10-05,1,,,,,,0
752,4010401115771,登記記録の閉鎖等,0,2023-08-22,2023-07-26,株式会社クレメンティア,,株式会社,埼玉県,さいたま市西区,大字指扇領別所３８２番地５１,,11,101,3310073,,,2023-07-26,清算の結了等,,,2015-10-05,1,,,,,クレメンティア,0
757,4010403029549,登記記録の閉鎖等,0,2023-08-22,2023-08-18,ＲＢソーラージニア合同会社,,合同会社,東京都,港区,虎ノ門３丁目２２番１０－２０１号,,13,103,1050001,,,2023-08-18,合併による解散等,5030001098638,令和５年８月８日東京都中央区八丁堀四丁目２番１０号ＡＯＪ税理士法人内株式会社Ｋ．Ｈ（5030001098638）に合併し解散,2023-02-20,1,,,,,アールビーソーラージニア,0
775,4011001111987,登記記録の閉鎖等,0,2023-08-22,2023-08-18,ニッタ工房株式会社,,株式会社,東京都,品川区,南大井６丁目１－７レグノ大森５０２,,13,109,1400013,,,2023-08-18,清算の結了等,,,2016-07-25,1,,,,,ニッタコウボウ,0
800,4013102005977,登記記録の閉鎖等,0,2023-08-22,2023-08-21,有限会社グリーンライフ,,有限会社,東京都,青梅市,新町４丁目２２番地の６,,13,205,1980024,,,2023-08-21,清算の結了等,,,2015-10-05,1,,,,,,0
804,4013301031832,登記記録の閉鎖等,0,2023-08-22,2023-08-18,金子和夫事務所株式会社,,株式会社,東京都,豊島区,千川１丁目１８番２号,,13,116,1710041,,,2023-08-18,清算の結了等,,,2015-10-05,1,,,,,カネコカズオジムショ,0
819,4030001098531,登記記録の閉鎖等,0,2023-08-22,2023-07-18,開肩堂株式会社,,株式会社,埼玉県,久喜市,下早見３０９番地８,,11,232,3460022,,,2023-07-18,清算の結了等,,,2015-10-05,1,,,,,カイケンドウ,0
823,4030002057429,登記記録の閉鎖等,0,2023-08-22,2023-07-27,有限会社エム・ワン,,有限会社,埼玉県,上尾市,錦町３４番地３Ｂ－２０４,,11,219,3620006,,,2023-07-27,清算の結了等,,,2015-10-05,1,,,,,エムワン,0
825,4030002087475,登記記録の閉鎖等,0,2023-08-22,2023-07-25,有限会社昇電気,,有限会社,埼玉県,越谷市,大間野町５丁目２２５番地１５,,11,222,3430844,,,2023-07-25,清算の結了等,,,2015-10-05,1,,,,,ショウデンキ,0
847,4080401021096,登記記録の閉鎖等,0,2023-08-22,2023-08-21,株式会社ＶＩＵＳ,,株式会社,静岡県,浜松市南区,三島町４５番地の３ピュアライフ三島５０６号,,22,134,4300853,,,2023-08-21,清算の結了等,,,2015-10-15,1,,,,,ヴィアス,0
881,4120102014097,登記記録の閉鎖等,0,2023-08-22,2023-08-18,クリーンサービス有限会社,,有限会社,大阪府,松原市,田井城２丁目２番２－９３５号,,27,217,5800044,,,2023-08-18,清算の結了等,,,2015-10-05,1,,,,,クリーンサービス,0
889,4140001011747,登記記録の閉鎖等,0,2023-08-22,2023-08-16,株式会社リンズパール,,株式会社,兵庫県,神戸市中央区,北長狭通４丁目６番７号,,28,110,6500012,,,2023-08-16,清算の結了等,,,2015-10-05,1,,,,,リンズパール,0
899,4140002049282,登記記録の閉鎖等,0,2023-08-22,2023-08-14,有限会社ソート,,有限会社,兵庫県,姫路市,大寿台２丁目９番６号,,28,201,6700898,,,2023-08-14,清算の結了等,,,2015-10-05,1,,,,,ソート,0
903,4180002069806,登記記録の閉鎖等,0,2023-08-22,2023-08-17,有限会社藤昇リース建築,,有限会社,愛知県,小牧市,小木東１丁目２６７番地,,23,219,4850059,,,2023-08-17,清算の結了等,,,2015-10-05,1,,,,,フジショウリースケンチク,0
907,4180302008942,登記記録の閉鎖等,0,2023-08-22,2023-08-21,有限会社中西建設,,有限会社,愛知県,豊橋市,老津町字大津中１２０番地の２,,23,201,4413301,,,2023-08-21,清算の結了等,,,2015-10-05,1,,,,,ナカニシケンセツ,0
939,4360001017821,登記記録の閉鎖等,0,2023-08-22,2023-08-16,株式会社Ｆｕ’ｓ　Ｈａｐｐｉｎｅｓｓ,,株式会社,沖縄県,島尻郡南風原町,字兼城６６５番地６かねしろ荘２０２,,47,350,9011111,,,2023-08-16,清算の結了等,,,2015-10-05,1,,,,,フーズハピネス,0
947,4370001013828,登記記録の閉鎖等,0,2023-08-22,2023-08-16,サンテコーポレーション株式会社,,株式会社,宮城県,仙台市泉区,南光台７丁目２５番１号,,04,105,9818003,,,2023-08-16,清算の結了等,,,2015-10-05,1,,,,,サンテコーポレーション,0
949,4370002020410,登記記録の閉鎖等,0,2023-08-22,2023-08-16,有限会社米くら高速配送,,有限会社,宮城県,富谷市,あけの平２丁目３２番地の１８,,04,216,9813361,,,2023-08-16,清算の結了等,,,2015-10-05,1,,,,,ヨネクラコウソクハイソウ,0
953,4390001012745,登記記録の閉鎖等,0,2023-08-22,2023-08-16,株式会社ミカヤマ,,株式会社,山形県,米沢市,桜木町１番６２号,,06,202,9920017,,,2023-08-16,清算の結了等,,,2015-10-05,1,,,,,ミカヤマ,0
974,5010001109314,登記記録の閉鎖等,0,2023-08-22,2023-08-10,株式会社ウィノヴァ,,株式会社,東京都,千代田区,一番町４番５号ニューライフ一番町２０２,,13,101,1020082,,,2023-08-10,清算の結了等,,,2015-10-05,1,,,,,ウィノヴァ,0
981,5010005022166,登記記録の閉鎖等,0,2023-08-22,2023-08-16,一般財団法人Ｎｅｘｔ　Ｗｉｓｄｏｍ　Ｆｏｕｎｄａｔｉｏｎ,,その他の設立登記法人,東京都,千代田区,麹町１丁目４番地４,,13,101,1020083,,,2023-08-16,清算の結了等,,,2015-10-05,1,,,,,ネクストウィズダムファウンデーション,0
996,5010601041692,登記記録の閉鎖等,0,2023-08-22,2023-08-17,清水隆一コーチングカレッジ株式会社,,株式会社,東京都,墨田区,業平５丁目１０番２号,,13,107,1300002,,,2023-08-17,清算の結了等,,,2015-10-05,1,,,,,,0
1009,5010901046219,登記記録の閉鎖等,0,2023-08-22,2023-08-16,株式会社ＡＯＩＲＯ,,株式会社,東京都,世田谷区,玉堤１丁目２７番２８号,,13,112,1580087,,,2023-08-16,清算の結了等,,,2020-05-14,1,,,,,アオイロ,0
1027,5011201012530,登記記録の閉鎖等,0,2023-08-22,2023-08-21,株式会社ＳＡＮＣＴＵＡＲＹ,,株式会社,東京都,中野区,東中野１丁目５７番７号,,13,114,1640003,,,2023-08-21,清算の結了等,,,2015-10-05,1,,,,,サンクチュアリ,0
1039,5012401015471,登記記録の閉鎖等,0,2023-08-22,2023-08-21,株式会社ビーシーコレクション,,株式会社,東京都,国分寺市,日吉町２丁目３２番地３２,,13,214,1850032,,,2023-08-21,清算の結了等,,,2015-10-05,1,,,,,,0
1047,5013301041814,登記記録の閉鎖等,0,2023-08-22,2023-08-14,株式会社ＧＲＥＥＮ　ＮＯＴＥ,,株式会社,東京都,中央区,銀座６丁目１０－１・１３Ｆ,,13,102,1040061,,,2023-08-14,清算の結了等,,,2018-02-19,1,,,,,,0
1062,5021001031993,登記記録の閉鎖等,0,2023-08-22,2023-08-17,株式会社ちぼり湯河原,,株式会社,神奈川県,足柄下郡湯河原町,土肥１丁目１５番地の４,,14,384,2590303,,,2023-08-17,合併による解散等,5090001011132,令和５年８月１日山梨県甲府市下曽根町３４０２番地３株式会社ちぼりコンフェクショナリー（5090001011132）に合併し解散,2015-10-05,1,,,,,,0
1069,5021005002082,登記記録の閉鎖等,0,2023-08-22,2023-08-18,学校法人聖ミカエル学院,,その他の設立登記法人,神奈川県,鎌倉市,常盤４４５番地,,14,204,2480022,,,2023-08-18,清算の結了等,,,2015-10-05,1,,,,,,0
1070,5021005011356,登記記録の閉鎖等,0,2023-08-22,2023-08-17,特定非営利活動法人湘南ローカルウェーブ,,その他の設立登記法人,神奈川県,藤沢市,片瀬海岸１丁目１２番１６～４０２号,,14,205,2510035,,,2023-08-17,清算の結了等,,,2018-07-11,1,,,,,ショウナンローカルウェーブ,0
1072,5030001065778,登記記録の閉鎖等,0,2023-08-22,2023-07-26,山二倉庫株式会社,,株式会社,埼玉県,吉川市,中野３７５番地１,,11,243,3420042,,,2023-07-26,清算の結了等,,,2015-10-05,1,,,,,ヤマニソウコ,0
1075,5030001125763,登記記録の閉鎖等,0,2023-08-22,2023-07-26,株式会社リテールサポート,,株式会社,埼玉県,所沢市,弥生町２８８０番地ライオンズガーデン新所沢５１０,,11,208,3590043,,,2023-07-26,清算の結了等,,,2018-05-18,1,,,,,リテールサポート,0
1082,5040001051950,登記記録の閉鎖等,0,2023-08-22,2023-07-31,株式会社平野鉄工,,株式会社,千葉県,富津市,小久保１３７番地の３,,12,226,2930042,,,2023-07-31,清算の結了等,,,2015-10-05,1,,,,,ヒラノテッコウ,0
1091,5040002036488,登記記録の閉鎖等,0,2023-08-22,2023-07-31,豊盛工業有限会社,,有限会社,千葉県,市川市,稲越１丁目１４番２号,,12,203,2720831,,,2023-07-31,清算の結了等,,,2015-10-05,1,,,,,ホウセイコウギョウ,0
1103,5080001020976,登記記録の閉鎖等,0,2023-08-22,2023-08-18,株式会社日本エコパワー,,株式会社,愛知県,豊田市,若林東町石根６番地,,23,211,4730914,,,2023-08-18,合併による解散等,3010001154106,令和５年７月２０日東京都港区東新橋一丁目５番２号汐留シティセンター８階ブルースカイソーラー株式会社（3010001154106）に合併し解散,2016-06-03,1,,,,,,0
1109,5120001081403,登記記録の閉鎖等,0,2023-08-22,2023-08-17,集英産業株式会社,,株式会社,大阪府,大阪市東成区,東中本２丁目４番１６号,,27,115,5370021,,,2023-08-17,清算の結了等,,,2015-10-05,1,,,,,シュウエイサンギョウ,0
1121,5120002037800,登記記録の閉鎖等,0,2023-08-22,2023-08-18,有限会社バク,,有限会社,大阪府,大阪市北区,天神橋５丁目１番４号,,27,127,5300041,,,2023-08-18,清算の結了等,,,2015-10-05,1,,,,,バク,0
1126,5120901034641,登記記録の閉鎖等,0,2023-08-22,2023-08-07,株式会社アーキテクト,,株式会社,大阪府,吹田市,千里山西１丁目３８番２８号,,27,205,5650851,,,2023-08-07,清算の結了等,,,2015-10-05,1,,,,,アーキテクト,0
1132,5130001067772,登記記録の閉鎖等,0,2023-08-22,2023-08-03,株式会社ランドーナージャパン京都マネジメント,,株式会社,京都府,京都市中京区,油小路通丸太町下る大文字町５０番地,,26,104,6040071,,,2023-08-03,清算の結了等,,,2020-10-08,1,,,,,ランドーナージャパンキョウトマネジメント,0
1147,5170001014085,登記記録の閉鎖等,0,2023-08-22,2023-08-21,株式会社ゆらちょう,,株式会社,和歌山県,日高郡由良町,大字神谷２１３番地,,30,383,6491122,,,2023-08-21,清算の結了等,,,2016-01-05,1,,,,,ユラチョウ,0
1154,5200001034088,登記記録の閉鎖等,0,2023-08-22,2023-08-14,末広株式会社,,株式会社,岐阜県,大垣市,郭町３丁目２０５番地,,21,202,5030887,,,2023-08-14,清算の結了等,,,2017-06-05,1,,,,,スエヒロ,0
1158,5220001017082,登記記録の閉鎖等,0,2023-08-22,2023-08-17,株式会社有松管工所,,株式会社,石川県,金沢市,光が丘３丁目２４７番地,,17,201,9218142,,,2023-08-17,清算の結了等,,,2015-10-05,1,,,,,アリマツカンコウショ,0
1162,5240002035916,登記記録の閉鎖等,0,2023-08-22,2023-08-18,武島建設有限会社,,有限会社,広島県,江田島市,大柿町柿浦７８３番地の１,,34,215,7372211,,,2023-08-18,清算の結了等,,,2015-10-05,1,,,,,タケシマケンセツ,0
1176,5290003007190,登記記録の閉鎖等,0,2023-08-22,2023-08-03,株式会社ＢＯＮＤ,,株式会社,福岡県,福津市,八並１３６３番地の３,,40,224,8113201,,,2023-08-03,清算の結了等,,,2017-05-10,1,,,,,ボンド,0
1180,5290802020476,登記記録の閉鎖等,0,2023-08-22,2023-08-18,有限会社西部メンテナンス,,有限会社,福岡県,宮若市,龍徳字百合野６５７番地の１,,40,226,8230001,,,2023-08-18,清算の結了等,,,2015-10-05,1,,,,,セイブメンテナンス,0
1199,5370001021870,登記記録の閉鎖等,0,2023-08-22,2023-08-03,株式会社ライト・ラン,,株式会社,宮城県,仙台市青葉区,高野原２丁目１０番地の２０,,04,101,9893216,,,2023-08-03,清算の結了等,,,2015-10-05,1,,,,,ライトラン,0
1202,5370002014510,登記記録の閉鎖等,0,2023-08-22,2023-08-18,仙台事務代行株式会社,,株式会社,宮城県,仙台市青葉区,上杉１丁目１３番１３号,,04,101,9800011,,,2023-08-18,清算の結了等,,,2015-10-05,1,,,,,センダイジムダイコウ,0
1203,5370402001810,登記記録の閉鎖等,0,2023-08-22,2023-08-17,有限会社仕出しセンターきむら,,有限会社,宮城県,登米市,米山町字桜岡畑崎１７番地,,04,212,9870311,,,2023-08-17,清算の結了等,,,2015-10-05,1,,,,,,0
1224,6010001128726,登記記録の閉鎖等,0,2023-08-22,2023-07-27,株式会社太平洋経済技術,,株式会社,埼玉県,草加市,新栄４丁目１０００番,,11,221,3400056,,,2023-07-27,清算の結了等,,,2015-10-05,1,,,,,タイヘイヨウケイザイギジュツ,0
1240,6010401126379,登記記録の閉鎖等,0,2023-08-22,2023-08-14,株式会社ＲＹプロデュース,,株式会社,東京都,品川区,東品川２丁目２番２０号天王洲オーシャンスクエア２１階,,13,109,1400002,,,2023-08-14,合併による解散等,4010701019607,令和５年７月３１日東京都品川区東品川二丁目２番２０号天王洲オーシャンスクエア２１階株式会社ＲＹコーポレーション（4010701019607）に合併し解散,2016-08-10,1,,,,,アールワイプロデュース,0
1246,6010602034109,登記記録の閉鎖等,0,2023-08-22,2023-08-18,有限会社ラガー,,有限会社,東京都,江東区,大島２丁目１０番２１号,,13,108,1360072,,,2023-08-18,清算の結了等,,,2015-10-05,1,,,,,ラガー,0
1255,6010902015782,登記記録の閉鎖等,0,2023-08-22,2023-08-15,有限会社Ｕ設計室,,有限会社,東京都,世田谷区,若林４丁目２９番３７号,,13,112,1540023,,,2023-08-15,清算の結了等,,,2015-10-05,1,,,,,ユーセッケイシツ,0
1307,6030002074348,登記記録の閉鎖等,0,2023-08-22,2023-07-24,有限会社戸田商店,,有限会社,埼玉県,川越市,西小仙波町２丁目３番地４,,11,201,3500035,,,2023-07-24,清算の結了等,,,2015-10-05,1,,,,,トダショウテン,0
1312,6030003017751,登記記録の閉鎖等,0,2023-08-22,2023-07-26,合同会社ＲＩＣＫ,,合同会社,埼玉県,春日部市,中央５丁目３番５号ジュネパレス春日部第８－１０２号室,,11,214,3440067,,,2023-07-26,清算の結了等,,,2021-08-11,1,,,,,リック,0
1319,6080402002358,登記記録の閉鎖等,0,2023-08-22,2023-08-21,有限会社欣生,,有限会社,静岡県,浜松市南区,恩地町７５番地,,22,134,4300814,,,2023-08-21,清算の結了等,,,2015-10-05,1,,,,,,0
1359,6140002062358,登記記録の閉鎖等,0,2023-08-22,2023-08-21,有限会社三信電気設備,,有限会社,兵庫県,加西市,殿原町字井ノ元８６６番地の４,,28,220,6752445,,,2023-08-21,清算の結了等,,,2015-10-05,1,,,,,,0
1386,6200003004625,登記記録の閉鎖等,0,2023-08-22,2023-08-21,合同会社坂口自動車興業,,合同会社,岐阜県,本巣市,長屋１３５番地２,,21,218,5010412,,,2023-08-21,清算の結了等,,,2019-10-23,1,,,,,サカグチジドウシャコウギョウ,0
1389,6220001017949,登記記録の閉鎖等,0,2023-08-22,2023-08-18,株式会社宮坂製作所,,株式会社,石川県,かほく市,秋浜ホ３９番乙地,,17,209,9291175,,,2023-08-18,清算の結了等,,,2015-10-05,1,,,,,ミヤサカセイサクショ,0
1416,6330002019891,登記記録の閉鎖等,0,2023-08-22,2023-08-10,有限会社御船健康社,,有限会社,熊本県,上益城郡御船町,大字高木１０５３番地,,43,441,8613203,,,2023-08-10,清算の結了等,,,2015-10-05,1,,,,,ミフネケンコウシャ,0
1429,6370001031530,登記記録の閉鎖等,0,2023-08-22,2023-08-17,日建産業株式会社,,株式会社,宮城県,仙台市青葉区,本町１丁目９番６号,,04,101,9800014,,,2023-08-17,清算の結了等,,,2015-10-05,1,,,,,ニケンサンギョウ,0
1431,6370002006944,登記記録の閉鎖等,0,2023-08-22,2023-08-16,有限会社オートサポートジップ,,有限会社,宮城県,仙台市若林区,大和町５丁目１７番７号,,04,103,9840042,,,2023-08-16,清算の結了等,,,2015-10-05,1,,,,,オートサポートジップ,0
1436,6380001013783,登記記録の閉鎖等,0,2023-08-22,2023-08-18,ＧＦ株式会社,,株式会社,福島県,いわき市,常磐湯本町三函２０８番地,,07,204,9728321,,,2023-08-18,清算の結了等,,,2015-10-05,1,,,,,ジイエフ,0
1450,6430002059291,登記記録の閉鎖等,0,2023-08-22,2023-07-31,有限会社ときわ加藤電気,,有限会社,北海道,苫小牧市,宮前町４丁目１３番１号,,01,213,0591264,,,2023-07-31,清算の結了等,,,2015-10-05,1,,,,,トキワカトウデンキ,0
1462,7010001170215,登記記録の閉鎖等,0,2023-08-22,2023-07-31,株式会社ＲＷカンパニー,,株式会社,東京都,港区,芝大門２丁目７番１０号メゾン・ド・ヴィレ芝大門３０３,,13,103,1050012,,,2023-07-31,合併による解散等,8010401083387,令和５年７月３１日東京都港区浜松町二丁目２番３号株式会社キャビテックビルコミュニティ（8010401083387）に合併し解散,2015-10-05,1,,,,,アールダブリュカンパニー,0
1470,7010003033097,登記記録の閉鎖等,0,2023-08-22,2023-08-16,きずな１合同会社,,合同会社,東京都,千代田区,飯田橋４丁目７番１号結和税理士法人内,,13,101,1020072,,,2023-08-16,清算の結了等,,,2020-09-25,1,,,,,キズナワン,0
1473,7010101014503,登記記録の閉鎖等,0,2023-08-22,2023-08-15,耳洗堂株式会社,,株式会社,東京都,八王子市,小宮町７２４番地５,,13,201,1920031,,,2023-08-15,清算の結了等,,,2021-01-25,1,,,,,ジセンドウ,0
1474,7010101014627,登記記録の閉鎖等,0,2023-08-22,2023-08-10,株式会社六合,,株式会社,東京都,八王子市,八木町３番１５号ライオンズマンション西八王子第３・６０１号室,,13,201,1920055,,,2023-08-10,清算の結了等,,,2021-04-16,1,,,,,ロクゴウ,0
1489,7010702014380,登記記録の閉鎖等,0,2023-08-22,2023-08-18,有限会社ティーズプロジェクト,,有限会社,東京都,品川区,東品川３丁目２３番２７－９０４号,,13,109,1400002,,,2023-08-18,清算の結了等,,,2015-10-05,1,,,,,ティーズプロジェクト,0
1490,7010801017078,登記記録の閉鎖等,0,2023-08-22,2023-08-16,株式会社加藤工務,,株式会社,東京都,大田区,東六郷３丁目６番６号,,13,111,1440046,,,2023-08-16,清算の結了等,,,2015-10-05,1,,,,,カトウコウム,0
1492,7010801021831,登記記録の閉鎖等,0,2023-08-22,2023-08-17,株式会社稲ぎく,,株式会社,東京都,大田区,山王３丁目３７番６号Ｄ－７０７,,13,111,1430023,,,2023-08-17,清算の結了等,,,2015-10-05,1,,,,,イナギク,0
1495,7010903007258,登記記録の閉鎖等,0,2023-08-22,2023-08-15,合同会社ＢＴＭ,,合同会社,東京都,世田谷区,大原２丁目１３番４号フルール大原１０２号室,,13,112,1560041,,,2023-08-15,清算の結了等,,,2022-03-28,1,,,,,ビーティーエム,0
1519,7011402000547,登記記録の閉鎖等,0,2023-08-22,2023-08-16,有限会社アドイムラ,,有限会社,東京都,板橋区,南常盤台２丁目１８番１１号,,13,119,1740072,,,2023-08-16,清算の結了等,,,2015-10-05,1,,,,,,0
1524,7012705001686,登記記録の閉鎖等,0,2023-08-22,2023-08-15,一般社団法人東京法医学鑑定研究支援センター,,その他の設立登記法人,東京都,西東京市,向台町６丁目１８番４３号,,13,229,1880013,,,2023-08-15,清算の結了等,,,2015-10-05,1,,,,,トウキョウホウイガクカンテイケンキュウシエンセンター,0
1541,7030001095237,登記記録の閉鎖等,0,2023-08-22,2023-07-25,株式会社アルカディアＸ,,株式会社,埼玉県,川口市,西川口１丁目５番２０号,,11,203,3320021,,,2023-07-25,清算の結了等,,,2015-10-05,1,,,,,アルカディアエックス,0
1553,7040001040720,登記記録の閉鎖等,0,2023-08-22,2023-07-31,株式会社ジェイ・オー・シー本部,,株式会社,千葉県,松戸市,根本１３番地の１－３１１号,,12,207,2710077,,,2023-07-31,清算の結了等,,,2015-10-05,1,,,,,ジェイオーシーホンブ,0
1554,7040002011316,登記記録の閉鎖等,0,2023-08-22,2023-07-31,有限会社みつわ台酒店,,有限会社,千葉県,千葉市若葉区,みつわ台２丁目３８番地の７,,12,104,2640032,,,2023-07-31,清算の結了等,,,2015-10-05,1,,,,,ミツワダイサケテン,0
1560,7050001034218,登記記録の閉鎖等,0,2023-08-22,2023-08-17,クサマ総合メンテナンス株式会社,,株式会社,茨城県,土浦市,国分町７番２号,,08,203,3000814,,,2023-08-17,清算の結了等,,,2015-10-05,1,,,,,クサマソウゴウメンテナンス,0
1564,7070002018705,登記記録の閉鎖等,0,2023-08-22,2023-08-10,有限会社カネタケ,,有限会社,群馬県,伊勢崎市,除ケ町３７７番地８,,10,204,3720832,,,2023-08-10,清算の結了等,,,2015-10-05,1,,,,,カネタケ,0
1565,7090002005354,登記記録の閉鎖等,0,2023-08-22,2023-08-17,有限会社ケーエス企画,,有限会社,山梨県,中央市,布施２６４８番地１,,19,214,4093841,,,2023-08-17,清算の結了等,,,2015-10-05,1,,,,,ケーエスキカク,0
1567,7100002021713,登記記録の閉鎖等,0,2023-08-22,2023-08-17,有限会社丸和陸送,,有限会社,長野県,松本市,大字神林１９０１番地２５野口住宅Ｅ号,,20,202,3901243,,,2023-08-17,清算の結了等,,,2015-10-05,1,,,,,マルワリクソウ,0
1585,7120901041165,登記記録の閉鎖等,0,2023-08-22,2023-08-18,株式会社ＳＳコーポレーション,,株式会社,大阪府,箕面市,西小路５丁目５番５号清和ビル４０２号,,27,220,5620003,,,2023-08-18,清算の結了等,,,2019-04-10,1,,,,,エスエスコーポレーション,0
1610,7180001004141,登記記録の閉鎖等,0,2023-08-22,2023-08-18,株式会社サンベツク,,株式会社,愛知県,名古屋市昭和区,元宮町６丁目２６番地３,,23,107,4660851,,,2023-08-18,清算の結了等,,,2015-10-05,1,,,,,サンベック,0
1616,7180001119617,登記記録の閉鎖等,0,2023-08-22,2023-08-16,株式会社オーナーズ,,株式会社,愛知県,津島市,北町１０８番地,,23,208,4960817,,,2023-08-16,清算の結了等,,,2015-10-05,1,,,,,オーナーズ,0
1620,7180002052313,登記記録の閉鎖等,0,2023-08-22,2023-08-15,有限会社新中部ヘルシーフーズ,,有限会社,愛知県,西春日井郡豊山町,大字豊場字大山８４番地,,23,342,4800202,,,2023-08-15,合併による解散等,7180001052256,令和５年８月１日愛知県西春日井郡豊山町大字豊場字八反１０７番地サンフレッシュ中部株式会社（7180001052256）に合併し解散,2015-10-05,1,,,,,シンチュウブヘルシーフーズ,0
1627,7180301026216,登記記録の閉鎖等,0,2023-08-22,2023-08-09,株式会社マシンオオハシ,,株式会社,愛知県,豊田市,土橋町３丁目７８番地,,23,211,4710842,,,2023-08-09,清算の結了等,,,2015-10-05,1,,,,,マシンオオハシ,0
1632,7190001000123,登記記録の閉鎖等,0,2023-08-22,2023-08-21,株式会社今井淡水,,株式会社,三重県,津市,雲出本郷町８５０番地の２,,24,201,5140304,,,2023-08-21,清算の結了等,,,2015-10-05,1,,,,,イマイタンスイ,0
1637,7190002010749,登記記録の閉鎖等,0,2023-08-22,2023-08-17,有限会社保市,,有限会社,三重県,鳥羽市,浦村町１９７３,,24,211,5170025,,,2023-08-17,清算の結了等,,,2015-10-05,1,,,,,ヤスイチ,0
1656,7330001018225,登記記録の閉鎖等,0,2023-08-22,2023-08-07,株式会社ＭＯ販売,,株式会社,熊本県,熊本市東区,御領６丁目７番１号,,43,102,8618035,,,2023-08-07,清算の結了等,,,2015-10-05,1,,,,,エムオーハンバイ,0
1657,7330001018737,登記記録の閉鎖等,0,2023-08-22,2023-08-09,株式会社菅田機械設計,,株式会社,熊本県,宇城市,松橋町西下郷６９１番地１,,43,213,8690534,,,2023-08-09,清算の結了等,,,2015-10-05,1,,,,,スガタキカイセッケイ,0
1670,7430002026340,登記記録の閉鎖等,0,2023-08-22,2023-07-28,有限会社まるや山本商店,,有限会社,北海道,札幌市中央区,北一条西２７丁目４３６番地,,01,101,0640821,,,2023-07-28,清算の結了等,,,2015-10-05,1,,,,,マルヤヤマモトショウテン,0
1715,8011001116693,登記記録の閉鎖等,0,2023-08-22,2023-08-07,株式会社Ｄｒｅｓｓ　Ｉｎｔｅｌｌｉｇｅｎｃｅ,,株式会社,東京都,渋谷区,渋谷２丁目７番１３号ネオメット青山３階,,13,113,1500002,,,2023-08-07,清算の結了等,,,2017-06-06,1,,,,,ドレスインテリジェンス,0
1733,8011801030945,登記記録の閉鎖等,0,2023-08-22,2023-08-18,株式会社粂川建装,,株式会社,東京都,足立区,一ツ家１丁目１番７号,,13,121,1210075,,,2023-08-18,清算の結了等,,,2015-10-23,1,,,,,クメカワケンソウ,0
1735,8012302000462,登記記録の閉鎖等,0,2023-08-22,2023-08-18,有限会社インフォラボ,,有限会社,東京都,町田市,高ヶ坂２丁目９番１７号,,13,209,1940014,,,2023-08-18,清算の結了等,,,2015-10-05,1,,,,,インフォラボ,0
1743,8020001029756,登記記録の閉鎖等,0,2023-08-22,2023-08-09,株式会社レーマーク,,株式会社,神奈川県,横浜市港南区,野庭町６８０番６号３０１,,14,111,2340056,,,2023-08-09,清算の結了等,,,2015-10-05,1,,,,,レーマーク,0
1747,8020001139002,登記記録の閉鎖等,0,2023-08-22,2023-08-08,ベルグラス株式会社,,株式会社,神奈川県,川崎市中原区,小杉町３丁目６００番,,14,133,2110063,,,2023-08-08,清算の結了等,,,2020-12-11,1,,,,,ベルグラス,0
1753,8020003010557,登記記録の閉鎖等,0,2023-08-22,2023-08-09,合同会社アモローソ,,合同会社,神奈川県,横浜市磯子区,杉田２丁目８番２２－Ｃ７０１号,,14,107,2350033,,,2023-08-09,清算の結了等,,,2015-11-04,1,,,,,アモローソ,0
1763,8030002002331,登記記録の閉鎖等,0,2023-08-22,2023-07-26,有限会社江口建築設計事務所,,有限会社,埼玉県,さいたま市大宮区,上小町１３７番地の４,,11,103,3300855,,,2023-07-26,清算の結了等,,,2015-10-05,1,,,,,エグチケンチクセッケイジムショ,0
1765,8030005018614,登記記録の閉鎖等,0,2023-08-22,2023-07-28,特定非営利活動法人Ｗｅｓｔ　Ａｆｒｉｃａ　Ｃｈｉｌｄｒｅｎ　Ｃｏｏｐｅｒａｔｉｏｎ,,その他の設立登記法人,埼玉県,日高市,大字大谷沢３１９番地２,,11,242,3501222,,,2023-07-28,清算の結了等,,,2017-08-03,1,,,,,ウエストアフリカチルドレンコーポレーション,0
1779,8090001000438,登記記録の閉鎖等,0,2023-08-22,2023-08-21,株式会社甲斐物産商会,,株式会社,山梨県,甲府市,丸の内１丁目２１番２６号,,19,201,4000031,,,2023-08-21,清算の結了等,,,2015-10-05,1,,,,,カイブッサンショウカイ,0
1780,8090001003077,登記記録の閉鎖等,0,2023-08-22,2023-08-08,株式会社空調メンテナンス,,株式会社,山梨県,中巨摩郡昭和町,西条３７９８番地,,19,384,4093866,,,2023-08-08,清算の結了等,,,2015-10-05,1,,,,,クウチョウメンテナンス,0
1783,8090001015626,登記記録の閉鎖等,0,2023-08-22,2023-08-10,株式会社ウィズＭ,,株式会社,山梨県,韮崎市,龍岡町若尾新田６３７番地,,19,207,4070031,,,2023-08-10,清算の結了等,,,2018-06-26,1,,,,,ウィズエム,0
1784,8100005002263,登記記録の閉鎖等,0,2023-08-22,2023-08-10,特定非営利活動法人麦っ子広場,,その他の設立登記法人,長野県,長野市,大字大豆島６１７４番地３,,20,201,3810022,,,2023-08-10,清算の結了等,,,2015-10-05,1,,,,,ムギッコヒロバ,0
1820,8140001038935,登記記録の閉鎖等,0,2023-08-22,2023-08-10,アズ株式会社,,株式会社,兵庫県,宍粟市,山崎町山崎８８番地の２,,28,227,6712577,,,2023-08-10,清算の結了等,,,2015-10-05,1,,,,,アズ,0
1877,8320002016566,登記記録の閉鎖等,0,2023-08-22,2023-08-21,有限会社清原,,有限会社,大分県,佐伯市,１０２８５番地の５,,44,205,8760000,,,2023-08-21,清算の結了等,,,2015-10-05,1,,,,,,0
1880,8330002009783,登記記録の閉鎖等,0,2023-08-22,2023-08-10,有限会社松江測量設計社,,有限会社,熊本県,熊本市中央区,大江４丁目３番１号,,43,101,8620971,,,2023-08-10,清算の結了等,,,2015-10-05,1,,,,,マツエソクヨウセッケイシャ,0
1887,8370001015382,登記記録の閉鎖等,0,2023-08-22,2023-08-16,株式会社Ｙ２Ｍ・ｆａｍｉｌｙｓ,,株式会社,宮城県,仙台市若林区,中倉１丁目７番３０号,,04,103,9840821,,,2023-08-16,清算の結了等,,,2015-10-05,1,,,,,,0
1888,8370001045198,登記記録の閉鎖等,0,2023-08-22,2023-08-16,株式会社フルール,,株式会社,宮城県,仙台市青葉区,堤通雨宮町２番２１号,,04,101,9810914,,,2023-08-16,清算の結了等,,,2020-01-06,1,,,,,,0
1905,8430001040226,登記記録の閉鎖等,0,2023-08-22,2023-08-01,株式会社あいライフ,,株式会社,北海道,札幌市中央区,南二条西８丁目１２番１号,,01,101,0600062,,,2023-08-01,合併による解散等,7430001019799,令和５年８月１日札幌市中央区南二条西八丁目１２番１号株式会社あいプラン（7430001019799）に合併し解散,2015-10-05,1,,,,,アイライフ,0
1939,9010402031410,登記記録の閉鎖等,0,2023-08-22,2023-07-31,有限会社マンダール・アソシエイツ,,有限会社,千葉県,木更津市,久津間１１１２－１,,12,206,2920004,,,2023-07-31,清算の結了等,,,2015-10-05,1,,,,,マンダールアソシエイツ,0
1941,9010403027077,登記記録の閉鎖等,0,2023-08-22,2023-07-31,風合同会社,,合同会社,東京都,港区,南青山２丁目２番１５号,,13,103,1070062,,,2023-07-31,清算の結了等,,,2022-02-15,1,,,,,フウ,0
1951,9010601044312,登記記録の閉鎖等,0,2023-08-22,2023-08-18,都市建設工業株式会社,,株式会社,東京都,墨田区,墨田４丁目４５番５号,,13,107,1310031,,,2023-08-18,清算の結了等,,,2015-10-05,1,,,,,トシケンセツコウギョウ,0
1968,9011001062235,登記記録の閉鎖等,0,2023-08-22,2023-08-21,株式会社Ｙ’ｚ,,株式会社,東京都,目黒区,八雲１丁目４番６号,,13,110,1520023,,,2023-08-21,清算の結了等,,,2015-10-05,1,,,,,,0
1977,9011003007824,登記記録の閉鎖等,0,2023-08-22,2023-08-21,合同会社ＭＯＥＴ,,合同会社,東京都,新宿区,百人町２丁目１４番１２号,,13,104,1690073,,,2023-08-21,清算の結了等,,,2017-06-30,1,,,,,モエット,0
1994,9011502001617,登記記録の閉鎖等,0,2023-08-22,2023-08-18,有限会社樹,,有限会社,東京都,北区,浮間３丁目１番３９号,,13,117,1150051,,,2023-08-18,清算の結了等,,,2015-10-05,1,,,,,イツキ,0
2002,9012302003919,登記記録の閉鎖等,0,2023-08-22,2023-08-21,有限会社ヒューマンネイチャー,,有限会社,東京都,町田市,原町田６丁目１８番１３号,,13,209,1940013,,,2023-08-21,清算の結了等,,,2015-10-05,1,,,,,,0
2003,9012401010048,登記記録の閉鎖等,0,2023-08-22,2023-08-18,ユーロマット株式会社,,株式会社,東京都,小金井市,貫井北町３丁目３７番１７号,,13,210,1840015,,,2023-08-18,清算の結了等,,,2015-10-05,1,,,,,ユーロマット,0
2005,9013101001114,登記記録の閉鎖等,0,2023-08-22,2023-08-18,西村建設株式会社,,株式会社,東京都,昭島市,緑町５丁目１４番２０－１１６号,,13,207,1960004,,,2023-08-18,清算の結了等,,,2015-10-05,1,,,,,ニシムラケンセツ,0
2010,9020001122428,登記記録の閉鎖等,0,2023-08-22,2023-08-09,株式会社はじめ住建,,株式会社,神奈川県,横浜市青葉区,市ケ尾町１４８１番地１,,14,117,2250024,,,2023-08-09,清算の結了等,,,2017-08-02,1,,,,,ハジメジュウケン,0
2013,9020002001036,登記記録の閉鎖等,0,2023-08-22,2023-08-10,有限会社石垣商会,,有限会社,神奈川県,横浜市瀬谷区,三ツ境２３番地３０,,14,114,2460022,,,2023-08-10,清算の結了等,,,2015-10-05,1,,,,,イシガキショウカイ,0
2029,9030001133077,登記記録の閉鎖等,0,2023-08-22,2023-07-26,株式会社順福,,株式会社,埼玉県,川口市,並木４丁目１６番１７号３０５,,11,203,3320034,,,2023-07-26,清算の結了等,,,2019-10-01,1,,,,,ジュンフク,0
2036,9030005003689,登記記録の閉鎖等,0,2023-08-22,2023-07-28,特定非営利活動法人所沢・生命と緑を守る会,,その他の設立登記法人,埼玉県,所沢市,大字神米金１８５番地の１５,,11,208,3590005,,,2023-07-28,清算の結了等,,,2015-10-05,1,,,,,トコロザワイノチトミドリヲマモルカイ,0
2041,9050001027112,登記記録の閉鎖等,0,2023-08-22,2023-08-17,和陽株式会社,,株式会社,茨城県,常陸太田市,堅磐町７３番地,,08,212,3130035,,,2023-08-17,清算の結了等,,,2015-10-05,1,,,,,ワヨウ,0
2050,9080101005700,登記記録の閉鎖等,0,2023-08-22,2023-08-21,株式会社七福堂,,株式会社,静岡県,駿東郡清水町,卸団地３０４番地,,22,341,4110912,,,2023-08-21,清算の結了等,,,2015-10-05,1,,,,,シチフクドウ,0
2071,9120901032063,登記記録の閉鎖等,0,2023-08-22,2023-08-18,株式会社さくらファーマシー,,株式会社,大阪府,高槻市,北園町１６番１３号,,27,207,5690802,,,2023-08-18,合併による解散等,7290001008379,令和５年８月１日福岡市中央区大名二丁目９番２３号総合メディカル株式会社（7290001008379）に合併し解散,2015-10-05,1,,,,,サクラファーマシー,0
2114,9180301031800,登記記録の閉鎖等,0,2023-08-22,2023-08-01,中部相続オフィス株式会社,,株式会社,愛知県,豊橋市,向山町字伝馬５番地１,,23,201,4400864,,,2023-08-01,合併による解散等,3180301026401,令和５年８月１日愛知県豊橋市向山町字伝馬５番地１株式会社かわすみ事務所（3180301026401）に合併し解散,2018-08-29,1,,,,,チュウブソウゾクオフィス,0
2124,9240002023710,登記記録の閉鎖等,0,2023-08-22,2023-08-18,有限会社船越南,,有限会社,広島県,広島市安芸区,船越南２丁目７番２４－１号,,34,107,7360082,,,2023-08-18,清算の結了等,,,2015-10-05,1,,,,,フナコシミナミ,0
2127,9250002001104,登記記録の閉鎖等,0,2023-08-22,2023-08-10,有限会社中岡商店,,有限会社,山口県,山口市,東山２丁目７番６号,,35,203,7530041,,,2023-08-10,清算の結了等,,,2015-10-05,1,,,,,ナカオカショウテン,0
2128,9260001009262,登記記録の閉鎖等,0,2023-08-22,2023-08-18,株式会社スタジオケンネル,,株式会社,岡山県,赤磐市,桜が丘西８丁目１６番８号,,33,213,7090802,,,2023-08-18,清算の結了等,,,2015-10-05,1,,,,,スタジオケンネル,0
2137,9290002053678,登記記録の閉鎖等,0,2023-08-22,2023-08-04,有限会社友の会もろふじ,,有限会社,福岡県,柳川市,袋町１６番地２,,40,207,8320044,,,2023-08-04,清算の結了等,,,2015-10-05,1,,,,,,0
2141,9290802009573,登記記録の閉鎖等,0,2023-08-22,2023-08-21,有限会社芹野工務店,,有限会社,福岡県,北九州市門司区,奥田１丁目１１番２３号,,40,101,8000011,,,2023-08-21,清算の結了等,,,2015-10-05,1,,,,,セリノコウムテン,0
2156,9340001022612,登記記録の閉鎖等,0,2023-08-22,2023-08-17,株式会社シナジーブリーディング,,株式会社,鹿児島県,指宿市,西方５０３０番地,,46,210,8910311,,,2023-08-17,合併による解散等,6120001193156,令和５年８月１０日大阪市中央区難波千日前４番１９号池梅ビル２階株式会社シナジーブリーディング（6120001193156）に合併し解散,2020-02-03,1,,,,,シナジーブリーディング,0
2159,9340005001075,登記記録の閉鎖等,0,2023-08-22,2023-08-21,医療法人楠会,,その他の設立登記法人,鹿児島県,鹿児島市,下荒田３丁目３０番７号,,46,201,8900056,,,2023-08-21,清算の結了等,,,2015-10-05,1,,,,,クスノキカイ,0
2161,9360001002678,登記記録の閉鎖等,0,2023-08-22,2023-08-16,株式会社ケイアイエム,,株式会社,沖縄県,那覇市,泉崎１丁目１７番３号,,47,201,9000021,,,2023-08-16,清算の結了等,,,2015-10-05,1,,,,,ケイアイエム,0
2183,9430002055957,登記記録の閉鎖等,0,2023-08-22,2023-07-28,有限会社はまなすフーズ,,有限会社,北海道,小樽市,桜２丁目３８番１８号,,01,203,0470156,,,2023-07-28,清算の結了等,,,2015-10-05,1,,,,,ハマナスフーズ,0
2187,9430003012610,登記記録の閉鎖等,0,2023-08-22,2023-08-01,合同会社日興物産,,合同会社,北海道,札幌市中央区,南三条西１０丁目１０００番地,,01,101,0600063,,,2023-08-01,清算の結了等,,,2021-04-14,1,,,,,ニッコウブッサン,0
