sequenceNumber,corporateNumber,process,correct,updateDate,changeDate,name,nameImageId,kind,prefectureName,cityName,streetNumber,addressImageId,prefectureCode,cityCode,postCode,addressOutside,addressOutsideImageId,closeDate,closeCause,successorCorporateNumber,changeCause,assignmentDate,latest,enName,enPrefectureName,enCityName,enAddressOutside,furigana,hihyoji
17,1010001226781,新規,0,2022-05-24,2022-05-24,株式会社ＡＮＨ　ＤＵＯＮＧ　ＧＲＯＵＰ,,株式会社,東京都,文京区,湯島３丁目２８番１２号,,13,105,1130034,,,,,,,2022-05-24,1,,,,,,0
18,1010001226823,新規,0,2022-05-24,2022-05-24,ハウル株式会社,,株式会社,東京都,中央区,銀座１丁目２２－１１,,13,102,1040061,,,,,,,2022-05-24,1,,,,,ハウル,0
21,1010003037731,新規,0,2022-05-24,2022-05-24,ＪＤ麹町合同会社,,合同会社,東京都,千代田区,平河町２丁目４番１６号,,13,101,1020093,,,,,,,2022-05-24,1,,,,,ジェイディーコウジマチ,0
24,1010005035048,新規,0,2022-05-24,2022-05-24,ＤＥ１特定目的会社,,その他の設立登記法人,東京都,千代田区,有楽町１丁目１番２号,,13,101,1000006,,,,,,,2022-05-24,1,,,,,ディーイーワン,0
35,1010401167320,新規,0,2022-05-24,2022-05-24,ＰＰリアルティ株式会社,,株式会社,東京都,港区,浜松町１丁目２７番１７号,,13,103,1050013,,,,,,,2022-05-24,1,,,,,ピーピーリアルティ,0
36,1010401167460,新規,0,2022-05-24,2022-05-24,株式会社ＢｏｏＳＴ,,株式会社,東京都,港区,南青山７丁目１番２７号,,13,103,1070062,,,,,,,2022-05-24,1,,,,,ブースト,0
37,1010403027571,新規,0,2022-05-24,2022-05-24,ゴショク合同会社,,合同会社,東京都,港区,赤坂２丁目８番１４－５０４号,,13,103,1070052,,,,,,,2022-05-24,1,,,,,ゴショク,0
38,1010403027712,新規,0,2022-05-24,2022-05-24,柏合同会社,,合同会社,東京都,港区,西新橋１丁目１番１号ＥＰコンサルティングサービス内,,13,103,1050003,,,,,,,2022-05-24,1,,,,,カシワ,0
41,1010601061208,新規,0,2022-05-24,2022-05-24,株式会社ぶる,,株式会社,東京都,墨田区,両国３丁目３番４号丸山ビル２階,,13,107,1300026,,,,,,,2022-05-24,1,,,,,ブル,0
42,1010603009543,新規,0,2022-05-24,2022-05-24,合同会社のびのび,,合同会社,東京都,墨田区,立川４丁目１７－６グロース錦糸町ミルーナヒルズ６０３,,13,107,1300023,,,,,,,2022-05-24,1,,,,,ノビノビ,0
46,1010703006250,新規,0,2022-05-24,2022-05-24,エナジー・ビバレッジズ・ジャパン合同会社,,合同会社,東京都,品川区,二葉２丁目９番１５号ＮＦパークビルディング２階,,13,109,1420043,,,,,,,2022-05-24,1,,,,,エナジービバレッジズジャパン,0
53,1010901050901,新規,0,2022-05-24,2022-05-24,株式会社Ｈ　ＰＬＡＮＮＩＮＧ,,株式会社,東京都,世田谷区,三宿１丁目２８番５号グリーンマンション２０２,,13,112,1540005,,,,,,,2022-05-24,1,,,,,アッシュプランニング,0
59,1011401024255,新規,0,2022-05-24,2022-05-24,株式会社ＳＫクリーン,,株式会社,東京都,板橋区,前野町３丁目２１番１０－５０４号みなとマンション,,13,119,1740063,,,,,,,2022-05-24,1,,,,,エスケークリーン,0
60,1011501028065,新規,0,2022-05-24,2022-05-24,株式会社エムティラインサービス,,株式会社,東京都,北区,浮間３丁目５番３８－３０１号,,13,117,1150051,,,,,,,2022-05-24,1,,,,,エムティラインサービス,0
61,1011501028073,新規,0,2022-05-24,2022-05-24,株式会社ＳＡＭＲＥＥＮ　ＥＮＴＥＲＰＲＩＳＥＳ,,株式会社,東京都,北区,東十条３丁目１１－６東十条銀座センタービル２階２０２号室,,13,117,1140001,,,,,,,2022-05-24,1,,,,,サムリーンエンタープライズ,0
65,1011701025325,新規,0,2022-05-24,2022-05-24,株式会社光美装,,株式会社,東京都,江戸川区,中葛西４丁目１８番１０－３０３号,,13,123,1340083,,,,,,,2022-05-24,1,,,,,ヒカリビソウ,0
74,1012303001680,新規,0,2022-05-24,2022-05-24,Ｏｎｅ’ｓ　ｐｌａｃｅ合同会社,,合同会社,東京都,町田市,小山町５００８番地１５,,13,209,1940212,,,,,,,2022-05-24,1,,,,,ワンズプレイス,0
75,1012703002460,新規,0,2022-05-24,2022-05-24,Ｇｒａｃｅ合同会社,,合同会社,東京都,小平市,学園西町２丁目２０－１１,,13,211,1870045,,,,,,,2022-05-24,1,,,,,グレース,0
81,1012801021593,新規,0,2022-05-24,2022-05-24,株式会社アルナ,,株式会社,東京都,国立市,東１丁目６番２５号丸信ビル３階,,13,215,1860002,,,,,,,2022-05-24,1,,,,,アルナ,0
82,1013301049126,新規,0,2022-05-24,2022-05-24,株式会社ＤＡＯ,,株式会社,東京都,豊島区,南池袋１丁目１６番１５号ダイヤゲート池袋５階,,13,116,1710022,,,,,,,2022-05-24,1,,,,,ダオ,0
94,1020001146566,新規,0,2022-05-24,2022-05-24,株式会社４Ｃ’ｓ　ＡＤ,,株式会社,神奈川県,横浜市西区,高島２丁目１１番２号スカイメナー横浜５１９,,14,103,2200011,,,,,,,2022-05-24,1,,,,,フォーシーズエーディー,0
102,1021001076027,新規,0,2022-05-24,2022-05-24,ウィズ・ライフ株式会社,,株式会社,神奈川県,相模原市南区,上鶴間７丁目１０番３３号クラーロ・エスパシオ１０４,,14,153,2520302,,,,,,,2022-05-24,1,,,,,ウィズライフ,0
107,1021003011717,新規,0,2022-05-24,2022-05-24,合同会社Ｎｂｒａｎｄ,,合同会社,神奈川県,足柄上郡大井町,大井中央２５０番地,,14,362,2580010,,,,,,,2022-05-24,1,,,,,エヌブランド,0
108,1021003011725,新規,0,2022-05-24,2022-05-24,千音合同会社,,合同会社,神奈川県,茅ヶ崎市,小和田３丁目１７－２６エスポワールＢ１０１,,14,207,2530012,,,,,,,2022-05-24,1,,,,,ユキネ,0
117,1030001148347,新規,0,2022-05-24,2022-05-24,株式会社コネクト,,株式会社,埼玉県,川口市,元郷１丁目２番８号,,11,203,3320011,,,,,,,2022-05-24,1,,,,,コネクト,0
118,1030001148355,新規,0,2022-05-24,2022-05-24,Ｃｈｒｏｍｏ　Ｏａｋｍｏｎｔ株式会社,,株式会社,埼玉県,さいたま市浦和区,岸町４丁目１４－７,,11,107,3300064,,,,,,,2022-05-24,1,,,,,クロモオークモント,0
132,1050001051111,新規,0,2022-05-24,2022-05-24,株式会社ケロケロファーム,,株式会社,茨城県,土浦市,白鳥町１０５２番地１,,08,203,3000022,,,,,,,2022-05-24,1,,,,,ケロケロファーム,0
139,1090003002091,新規,0,2022-05-24,2022-05-24,モン・メディ合同会社,,合同会社,山梨県,富士吉田市,上吉田５３６８番地の１－３号室,,19,202,4030005,,,,,,,2022-05-24,1,,,,,モンメディ,0
143,1100001035364,新規,0,2022-05-24,2022-05-24,竹也工業株式会社,,株式会社,長野県,上田市,小泉１１０４番地１,,20,203,3861106,,,,,,,2022-05-24,1,,,,,タケヤコウギョウ,0
163,1120001246026,新規,0,2022-05-24,2022-05-24,Ｆ株式会社,,株式会社,大阪府,大阪市浪速区,恵美須東３丁目２番９号パークシャトー５０３号,,27,111,5560002,,,,,,,2022-05-24,1,,,,,エフ,0
164,1120001246034,新規,0,2022-05-24,2022-05-24,明成保証株式会社,,株式会社,大阪府,大阪市中央区,久太郎町３丁目５番１３号又一ビルディング７階,,27,128,5410056,,,,,,,2022-05-24,1,,,,,メイセイホショウ,0
165,1120001246050,新規,0,2022-05-24,2022-05-24,月華株式会社,,株式会社,大阪府,大阪市住吉区,遠里小野３丁目２０－９ロイヤル遠里小野,,27,120,5580032,,,,,,,2022-05-24,1,,,,,ゲツカ,0
166,1120001246100,新規,0,2022-05-24,2022-05-24,株式会社ＬＰＳリノベーション,,株式会社,大阪府,大阪市中央区,本町３丁目１番１号森脇ビルディング２Ｆ,,27,128,5410053,,,,,,,2022-05-24,1,,,,,エルピーエスリノベーション,0
170,1120003021732,新規,0,2022-05-24,2022-05-24,合同会社バイオマス発電九,,合同会社,大阪府,大阪市中央区,久太郎町１丁目９番４号,,27,128,5410056,,,,,,,2022-05-24,1,,,,,バイオマスハツデンキュウ,0
171,1120003021740,新規,0,2022-05-24,2022-05-24,武田合同会社,,合同会社,大阪府,大阪市西淀川区,柏里２丁目７番２６号ラピース塚本４０２室,,27,113,5550022,,,,,,,2022-05-24,1,,,,,タケダ,0
175,1120101065623,新規,0,2022-05-24,2022-05-24,株式会社ＫＳＢ,,株式会社,大阪府,堺市西区,山田１丁１２５０番地１,,27,144,5938316,,,,,,,2022-05-24,1,,,,,ケーエスビー,0
181,1122001035895,新規,0,2022-05-24,2022-05-24,株式会社ｅｎｊｏｙ　ｌｉｆｅ,,株式会社,大阪府,八尾市,安中町７丁目５－２０,,27,212,5810085,,,,,,,2022-05-24,1,,,,,エンジョイライフ,0
187,1130003007937,新規,0,2022-05-24,2022-05-24,アドバンスグループ合同会社,,合同会社,京都府,宇治市,槇島町十一６７番地１７号,,26,204,6110041,,,,,,,2022-05-24,1,,,,,アドバンスグループ,0
192,1140001126085,新規,0,2022-05-24,2022-05-24,株式会社ｇ‐ｗａｖｅ,,株式会社,兵庫県,西宮市,田代町１９番３号,,28,204,6638201,,,,,,,2022-05-24,1,,,,,ジーウェイブ,0
197,1140005026182,新規,0,2022-05-24,2022-05-24,一般社団法人Ｌｉｖｅｒ　Ａｃａｄｅｍｙ,,その他の設立登記法人,兵庫県,神戸市中央区,北長狭通３丁目１１番１７号,,28,110,6500012,,,,,,,2022-05-24,1,,,,,ライバーアカデミー,0
198,1150003002688,新規,0,2022-05-24,2022-05-24,合同会社ｍｅｎ’ｓ　ｃｈａｉｎｏｎ,,合同会社,奈良県,生駒市,東生駒１丁目２９４－１東前マンション１０１号室,,29,209,6300213,,,,,,,2022-05-24,1,,,,,メンズシェノン,0
211,1180001151393,新規,0,2022-05-24,2022-05-24,株式会社Ａｃｔ　Ｒｅｓｅａｒｃｈ,,株式会社,愛知県,豊明市,沓掛町勅使８番地６９,,23,229,4701102,,,,,,,2022-05-24,1,,,,,アクトリサーチ,0
216,1190001029424,新規,0,2022-05-24,2022-05-24,株式会社ＹＯＴＳＵＢＡ,,株式会社,三重県,鈴鹿市,中江島町２０番２２号,,24,207,5100236,,,,,,,2022-05-24,1,,,,,ヨツバ,0
217,1190001029432,新規,0,2022-05-24,2022-05-24,株式会社Ｕ．Ｂ．Ｉｎｔｅｒｎａｔｉｏｎａｌ,,株式会社,三重県,伊賀市,大内３４４番地の４,,24,216,5180034,,,,,,,2022-05-24,1,,,,,ユービーインターナショナル,0
218,1200001040081,新規,0,2022-05-24,2022-05-24,株式会社関ヶ原カントリークラブ,,株式会社,岐阜県,大垣市,上石津町牧田９５番地の１８,,21,202,5031602,,,,,,,2022-05-24,1,,,,,セキガハラカントリークラブ,0
221,1220001024859,新規,0,2022-05-24,2022-05-24,株式会社エニシス,,株式会社,石川県,能美市,吉原釜屋町ル７７番地２,,17,211,9290121,,,,,,,2022-05-24,1,,,,,エニシス,0
222,1230001019370,新規,0,2022-05-24,2022-05-24,株式会社阿部電気,,株式会社,富山県,富山市,宮成７１番地４,,16,201,9318425,,,,,,,2022-05-24,1,,,,,アベデンキ,0
232,1250001019575,新規,0,2022-05-24,2022-05-24,株式会社ｏｎｅ　ｓｔｅｐ,,株式会社,山口県,下松市,大字河内８０９番地８,,35,207,7440061,,,,,,,2022-05-24,1,,,,,ワンステップ,0
234,1250003003065,新規,0,2022-05-24,2022-05-24,合同会社山陽自販,,合同会社,山口県,山陽小野田市,大字福田３２０,,35,216,7570013,,,,,,,2022-05-24,1,,,,,サンヨウジハン,0
235,1260001036867,新規,0,2022-05-24,2022-05-24,株式会社桃山亭,,株式会社,岡山県,岡山市南区,新保６７８番地８,,33,104,7000945,,,,,,,2022-05-24,1,,,,,モモヤマテイ,0
240,1280001008699,新規,0,2022-05-24,2022-05-24,株式会社ＮＦＥＳ,,株式会社,島根県,松江市,朝日町４８４－１９－１１Ｆ,,32,201,6900003,,,,,,,2022-05-24,1,,,,,エヌフェス,0
246,1290001097592,新規,0,2022-05-24,2022-05-24,株式会社Ｚｏｅｙ　ｇｒｏｕｐ,,株式会社,福岡県,福岡市中央区,警固１丁目５番４号１Ｆ,,40,133,8100023,,,,,,,2022-05-24,1,,,,,ゾーイグループ,0
247,1290001097634,新規,0,2022-05-24,2022-05-24,株式会社エリアホールディングス,,株式会社,福岡県,福岡市中央区,薬院１丁目６番９号,,40,133,8100022,,,,,,,2022-05-24,1,,,,,エリアホールディングス,0
248,1290001097642,新規,0,2022-05-24,2022-05-24,株式会社Ｒｏｙａｌ　Ｃｒｅｗ,,株式会社,福岡県,福岡市博多区,博多駅南３丁目１２番５－８０２号,,40,132,8120016,,,,,,,2022-05-24,1,,,,,ロイヤルクルー,0
249,1290003012541,新規,0,2022-05-24,2022-05-24,合同会社シマンパニー,,合同会社,福岡県,大牟田市,大字吉野５７４－１,,40,202,8370904,,,,,,,2022-05-24,1,,,,,シマンパニー,0
251,1290005018693,新規,0,2022-05-24,2022-05-24,医療法人むらかみ歯科・小児歯科,,その他の設立登記法人,福岡県,筑後市,大字上北島７２番,,40,211,8330033,,,,,,,2022-05-24,1,,,,,ムラカミシカショウニシカ,0
252,1290801028557,新規,0,2022-05-24,2022-05-24,株式会社ＡＬＬ‐ｉｎ,,株式会社,福岡県,北九州市小倉北区,魚町１丁目３番１８号山岡ビル３０１,,40,106,8020006,,,,,,,2022-05-24,1,,,,,オールイン,0
256,1330005010522,新規,0,2022-05-24,2022-05-24,一般社団法人ＵＤｅ‐スポーツ協会,,その他の設立登記法人,熊本県,合志市,御代志１６６１番地１,,43,216,8611104,,,,,,,2022-05-24,1,,,,,ユーディイースポーツキョウカイ,0
261,1360001030406,新規,0,2022-05-24,2022-05-24,株式会社ＲＡＤＩＡＮＴ　ＪＡＰＡＮ,,株式会社,沖縄県,中頭郡北谷町,字北前２５９番地,,47,326,9040117,,,,,,,2022-05-24,1,,,,,レイディアントジャパン,0
267,1370001048587,新規,0,2022-05-24,2022-05-24,ＫＭＫ株式会社,,株式会社,宮城県,塩竈市,旭町６番１５－５０１号ダイアパレス・ベイシティ旭町,,04,203,9850026,,,,,,,2022-05-24,1,,,,,ケエムケ,0
268,1370003005702,新規,0,2022-05-24,2022-05-24,合同会社ＭｉＵ,,合同会社,宮城県,仙台市青葉区,立町２６番２号ハイム立町２０１,,04,101,9800822,,,,,,,2022-05-24,1,,,,,ミウ,0
271,1380001032838,新規,0,2022-05-24,2022-05-24,株式会社ＡＣＴ,,株式会社,福島県,相馬郡飯舘村,関沢字中里１０,,07,564,9601804,,,,,,,2022-05-24,1,,,,,アクト,0
282,1420003002520,新規,0,2022-05-24,2022-05-24,合同会社こん機工,,合同会社,青森県,青森市,大字後萢字外山１番地７,00126628,02,201,0300932,,,,,,,2022-05-24,1,,,,,コンキコウ,0
290,1430001086696,新規,0,2022-05-24,2022-05-24,ＬＹ．株式会社,,株式会社,北海道,勇払郡厚真町,字朝日２２０番地,,01,581,0591606,,,,,,,2022-05-24,1,,,,,エルワイドット,0
296,1460003000900,新規,0,2022-05-24,2022-05-24,合同会社とちたて企画,,合同会社,北海道,釧路市,鳥取南５丁目１１番９号,,01,206,0840905,,,,,,,2022-05-24,1,,,,,トチタテキカク,0
299,1490001010188,新規,0,2022-05-24,2022-05-24,株式会社きら,,株式会社,高知県,高知市,針木本町８番１６号,,39,201,7808088,,,,,,,2022-05-24,1,,,,,キラ,0
318,2010001226780,新規,0,2022-05-24,2022-05-24,株式会社ＴＲＡＣＥ　ＯＮＥ,,株式会社,東京都,中央区,銀座２丁目１１－８ラウンドクロス銀座二丁目１２階,,13,102,1040061,,,,,,,2022-05-24,1,,,,,トレースワン,0
319,2010001226822,新規,0,2022-05-24,2022-05-24,株式会社ＳｅｃｏｎｄＳｉｇｈｔ,,株式会社,東京都,千代田区,神田練塀町３番地,,13,101,1010022,,,,,,,2022-05-24,1,,,,,セカンドサイト,0
323,2010003037722,新規,0,2022-05-24,2022-05-24,ＡＰＧＩ０１合同会社,,合同会社,東京都,千代田区,霞が関３丁目２番５号,,13,101,1000013,,,,,,,2022-05-24,1,,,,,エーピージーアイゼロワン,0
324,2010003037739,新規,0,2022-05-24,2022-05-24,ＥＫ　Ｊａｐａｎ合同会社,,合同会社,東京都,文京区,大塚６丁目１４番１３号１階,,13,105,1120012,,,,,,,2022-05-24,1,,,,,イーケージャパン,0
336,2010403027637,新規,0,2022-05-24,2022-05-24,合同会社日本開発機構,,合同会社,東京都,港区,赤坂９丁目４－１,,13,103,1070052,,,,,,,2022-05-24,1,,,,,ニホンカイハツキコウ,0
337,2010405020994,新規,0,2022-05-24,2022-05-24,一般社団法人空の架け橋,,その他の設立登記法人,東京都,港区,虎ノ門１丁目５番９号虎ノ門ＮＰビル３階,,13,103,1050001,,,,,,,2022-05-24,1,,,,,ソラノカケハシ,0
340,2010603009542,新規,0,2022-05-24,2022-05-24,合同会社ｔｒｅｅ　ｔｒｅｅ,,合同会社,東京都,墨田区,緑４丁目２４番９－９０１号,,13,107,1300021,,,,,,,2022-05-24,1,,,,,ツリーツリー,0
341,2010701042692,新規,0,2022-05-24,2022-05-24,株式会社エルラボ,,株式会社,東京都,品川区,東大井５丁目１４－１６,,13,109,1400011,,,,,,,2022-05-24,1,,,,,エルラボ,0
343,2010901050909,新規,0,2022-05-24,2022-05-24,株式会社イベル,,株式会社,東京都,世田谷区,上馬３丁目３－６ドエル駒沢・三軒茶屋１０３号室,,13,112,1540011,,,,,,,2022-05-24,1,,,,,イベル,0
346,2010903007394,新規,0,2022-05-24,2022-05-24,ベース不動産合同会社,,合同会社,東京都,世田谷区,岡本１丁目３０番１５号第２ドウェル３０１号室,,13,112,1570076,,,,,,,2022-05-24,1,,,,,ベースフドウサン,0
356,2011001147554,新規,0,2022-05-24,2022-05-24,Ｔｅｍｐｕｒａ　ｔｅｃｈｎｏｌｏｇｉｅｓ株式会社,,株式会社,東京都,渋谷区,東２丁目２５－３ＧＵＩＬＤＳＨＩＢＵＹＡ５Ｆ,,13,113,1500011,,,,,,,2022-05-24,1,,,,,テンプラテクノロジーズ,0
364,2011401024254,新規,0,2022-05-24,2022-05-24,ＤＯＯＬ株式会社,,株式会社,東京都,板橋区,坂下２丁目１４番１８号,,13,119,1740043,,,,,,,2022-05-24,1,,,,,ドール,0
367,2011501028072,新規,0,2022-05-24,2022-05-24,超凡株式会社,,株式会社,東京都,北区,浮間１丁目１番１４号リムジンビル３１９,,13,117,1150051,,,,,,,2022-05-24,1,,,,,チョウボン,0
369,2011601025977,新規,0,2022-05-24,2022-05-24,友和電機株式会社,,株式会社,東京都,練馬区,南田中５丁目３番２０号,,13,120,1770035,,,,,,,2022-05-24,1,,,,,ユウワデンキ,0
373,2011701025324,新規,0,2022-05-24,2022-05-24,株式会社Ａｎｄｂａｇ,,株式会社,東京都,江戸川区,南篠崎町３丁目２５番５号,,13,123,1330065,,,,,,,2022-05-24,1,,,,,アンドバッグ,0
376,2011801040743,新規,0,2022-05-24,2022-05-24,株式会社ＬＵＮＡＲＪＥ,,株式会社,東京都,足立区,千住２丁目４６番地,,13,121,1200034,,,,,,,2022-05-24,1,,,,,ルナージュ,0
398,2021001076042,新規,0,2022-05-24,2022-05-24,三國商事株式会社,,株式会社,神奈川県,相模原市緑区,橋本３丁目４番２４号,,14,151,2520143,,,,,,,2022-05-24,1,,,,,ミクニショウジ,0
402,2021003011724,新規,0,2022-05-24,2022-05-24,合同会社ことのはプロパティーズ,,合同会社,神奈川県,鎌倉市,今泉台３丁目９番１２号,,14,204,2470053,,,,,,,2022-05-24,1,,,,,コトノハプロパティーズ,0
406,2030001148346,新規,0,2022-05-24,2022-05-24,株式会社ＯＭＣ産業,,株式会社,埼玉県,川口市,三ツ和２丁目１２番地３,,11,203,3340011,,,,,,,2022-05-24,1,,,,,オーエムシーサンギョウ,0
407,2030001148354,新規,0,2022-05-24,2022-05-24,株式会社ＲＥ‐ＢＯＮＤ,,株式会社,埼玉県,さいたま市緑区,松木１丁目１０番地１８,,11,109,3360918,,,,,,,2022-05-24,1,,,,,リボンド,0
408,2030001148362,新規,0,2022-05-24,2022-05-24,株式会社ｋｒｙ,,株式会社,埼玉県,川口市,戸塚５丁目９番２２号マスタピースＩ１０３,00126631,11,203,3330811,,,,,,,2022-05-24,1,,,,,ケーアールワイ,0
411,2030003019413,新規,0,2022-05-24,2022-05-24,オーアイジー合同会社,,合同会社,埼玉県,川口市,金山町１２番１―２７０３号,,11,203,3320014,,,,,,,2022-05-24,1,,,,,オーアイジー,0
412,2030003019470,新規,0,2022-05-24,2022-05-24,合同会社マグ,,合同会社,埼玉県,越谷市,花田１丁目２５－４７,,11,222,3430015,,,,,,,2022-05-24,1,,,,,マグ,0
416,2040001123538,新規,0,2022-05-24,2022-05-24,西則Ｒａｇｄｏｌｌ　Ｊａｐａｎ株式会社,,株式会社,千葉県,木更津市,金田東１丁目４９番地７,,12,206,2920009,,,,,,,2022-05-24,1,,,,,ニシノリラグドールジャパン,0
421,2050001051119,新規,0,2022-05-24,2022-05-24,リアンシード株式会社,,株式会社,茨城県,鹿嶋市,大字荒野１５４７番地３１,,08,222,3112221,,,,,,,2022-05-24,1,,,,,リアンシード,0
432,2080403004539,新規,0,2022-05-24,2022-05-24,合同会社おひさまカンパニー,,合同会社,静岡県,袋井市,浅岡４２５番地,,22,216,4371122,,,,,,,2022-05-24,1,,,,,オヒサマカンパニー,0
459,2120001246041,新規,0,2022-05-24,2022-05-24,リュウ株式会社,,株式会社,大阪府,大阪市中央区,南船場４丁目１３番４号４０１,,27,128,5420081,,,,,,,2022-05-24,1,,,,,リュウ,0
460,2120001246058,新規,0,2022-05-24,2022-05-24,アレヲプロダクション株式会社,,株式会社,大阪府,大阪市中央区,谷町５丁目７番３号,,27,128,5400012,,,,,,,2022-05-24,1,,,,,アレヲプロダクション,0
463,2120003021731,新規,0,2022-05-24,2022-05-24,合同会社ＳＲＳ,,合同会社,大阪府,大阪市中央区,久太郎町１丁目９番４号,,27,128,5410056,,,,,,,2022-05-24,1,,,,,エスアールエス,0
469,2120103004710,新規,0,2022-05-24,2022-05-24,合同会社ＳＯＵ,,合同会社,大阪府,富田林市,谷川町３番１４号（２０１）,,27,214,5840035,,,,,,,2022-05-24,1,,,,,ソウ,0
472,2122001035894,新規,0,2022-05-24,2022-05-24,ＧＯ株式会社,,株式会社,大阪府,八尾市,宮町１丁目１０番２９号,,27,212,5810815,,,,,,,2022-05-24,1,,,,,ゴー,0
490,2140001126076,新規,0,2022-05-24,2022-05-24,株式会社スモキチ,,株式会社,兵庫県,西宮市,枝川町１６番３５号,,28,204,6638143,,,,,,,2022-05-24,1,,,,,スモキチ,0
493,2140003017711,新規,0,2022-05-24,2022-05-24,ＡＴコンサルティング合同会社,,合同会社,兵庫県,神戸市灘区,水道筋６丁目４番８－２０２号,,28,102,6570831,,,,,,,2022-05-24,1,,,,,エーティーコンサルティング,0
497,2150001025566,新規,0,2022-05-24,2022-05-24,株式会社Ｎａｔｓｕｋａ,,株式会社,奈良県,桜井市,大字吉備６３４番地の１３,,29,206,6330065,,,,,,,2022-05-24,1,,,,,ナツカ,0
499,2160001024220,新規,0,2022-05-24,2022-05-24,株式会社カーアンサー湖南,,株式会社,滋賀県,湖南市,岩根３９８０番地,,25,211,5203252,,,,,,,2022-05-24,1,,,,,カーアンサーコナン,0
506,2180301036252,新規,0,2022-05-24,2022-05-24,高橋工建株式会社,00126627,株式会社,愛知県,岡崎市,矢作町字高縄手２０番地１６,,23,202,4440943,,,,,,,2022-05-24,1,,,,,タカハシコウケン,0
510,2200001040080,新規,0,2022-05-24,2022-05-24,美建株式会社,,株式会社,岐阜県,郡上市,大和町島７３０４番地３,,21,219,5014610,,,,,,,2022-05-24,1,,,,,ビケン,0
521,2240001059803,新規,0,2022-05-24,2022-05-24,株式会社広星,,株式会社,広島県,福山市,金江町金見５７４番地１,,34,207,7200541,,,,,,,2022-05-24,1,,,,,コウセイ,0
523,2250001019574,新規,0,2022-05-24,2022-05-24,株式会社ｉプラン,,株式会社,山口県,下関市,山の田中央町１７番７－２０５号,,35,201,7510837,,,,,,,2022-05-24,1,,,,,アイプラン,0
524,2250003003072,新規,0,2022-05-24,2022-05-24,みもざ合同会社,,合同会社,山口県,光市,大字浅江１８８８番地６,,35,210,7430021,,,,,,,2022-05-24,1,,,,,ミモザ,0
529,2280001008698,新規,0,2022-05-24,2022-05-24,株式会社イズミエコステーション,,株式会社,島根県,雲南市,三刀屋町三刀屋１０６２番地,,32,209,6902404,,,,,,,2022-05-24,1,,,,,イズミエコステーション,0
542,2290001097591,新規,0,2022-05-24,2022-05-24,株式会社ｈｕｍｂｕｌｌ,,株式会社,福岡県,福岡市中央区,御所ヶ谷２番３０－１０４号,,40,133,8100027,,,,,,,2022-05-24,1,,,,,ハンブル,0
543,2290001097609,新規,0,2022-05-24,2022-05-24,エムヒルズ株式会社,,株式会社,福岡県,大川市,大字榎津５３８番地１０,,40,212,8310004,,,,,,,2022-05-24,1,,,,,エムヒルズ,0
544,2290001097633,新規,0,2022-05-24,2022-05-24,株式会社ＯＲＡＮＧＥ工房,,株式会社,福岡県,福岡市西区,城の原団地６番５０３号,,40,135,8190053,,,,,,,2022-05-24,1,,,,,オレンジコウボウ,0
545,2290001097641,新規,0,2022-05-24,2022-05-24,株式会社Ｌｉｎｋ　Ｏｎｅ,,株式会社,福岡県,福岡市中央区,天神２丁目１１番１号福岡ＰＡＲＣＯ新館５階,,40,133,8100001,,,,,,,2022-05-24,1,,,,,リンクワン,0
550,2290003012540,新規,0,2022-05-24,2022-05-24,合同会社ＨＡＮＡ,,合同会社,福岡県,福岡市西区,小戸１丁目５番１９－１号,,40,135,8190001,,,,,,,2022-05-24,1,,,,,ハナ,0
552,2290005018692,新規,0,2022-05-24,2022-05-24,一般社団法人国際そろばん連盟,,その他の設立登記法人,福岡県,福岡市博多区,店屋町１番３５号,,40,132,8120025,,,,,,,2022-05-24,1,,,,,コクサイソロバンレンメイ,0
555,2290801028556,新規,0,2022-05-24,2022-05-24,木村総建株式会社,,株式会社,福岡県,北九州市小倉南区,上貫１丁目６番１４号,,40,107,8000244,,,,,,,2022-05-24,1,,,,,キムラソウケン,0
566,2330003009375,新規,0,2022-05-24,2022-05-24,こぐまリスクコンサル合同会社,,合同会社,熊本県,熊本市東区,保田窪３丁目２０番２７号,,43,102,8620926,,,,,,,2022-05-24,1,,,,,コグマリスクコンサル,0
571,2350001017758,新規,0,2022-05-24,2022-05-24,株式会社北咲工業,,株式会社,宮崎県,延岡市,北川町長井１０９４番地,,45,203,8890102,,,,,,,2022-05-24,1,,,,,ホクショウコウギョウ,0
574,2370001048586,新規,0,2022-05-24,2022-05-24,株式会社ＩＮＧパートナーズ,,株式会社,宮城県,仙台市青葉区,愛子中央５丁目１番２３号,,04,101,9893128,,,,,,,2022-05-24,1,,,,,アイエヌジーパートナーズ,0
577,2380001032829,新規,0,2022-05-24,2022-05-24,アイデンティティ株式会社,,株式会社,福島県,西白河郡西郷村,字屋敷裏東１１番地にしごうハンズＢ－２,,07,461,9618046,,,,,,,2022-05-24,1,,,,,アイデンティティ,0
579,2390001016905,新規,0,2022-05-24,2022-05-24,株式会社アトレ,,株式会社,山形県,天童市,芳賀タウン北５丁目２番１７号たくみテナント１０２,,06,210,9940082,,,,,,,2022-05-24,1,,,,,アトレ,0
587,2420001017858,新規,0,2022-05-24,2022-05-24,株式会社川村,,株式会社,青森県,三沢市,南町４丁目３１番地３４７２号,,02,207,0330036,,,,,,,2022-05-24,1,,,,,カワムラ,0
601,2460301005071,新規,0,2022-05-24,2022-05-24,株式会社リバイブ,,株式会社,北海道,北見市,東相内町３２７番地１０,,01,208,0990878,,,,,,,2022-05-24,1,,,,,リバイブ,0
607,2500001024227,新規,0,2022-05-24,2022-05-24,サンワサポート愛媛株式会社,,株式会社,愛媛県,松山市,祝谷２丁目１０番２３号,,38,201,7900833,,,,,,,2022-05-24,1,,,,,サンワサポートエヒメ,0
620,3010001226788,新規,0,2022-05-24,2022-05-24,株式会社Ｗｉ‐ｎｏ　ｓｍａｒｔ,,株式会社,東京都,中央区,日本橋２丁目１番３号,,13,102,1030027,,,,,,,2022-05-24,1,,,,,ウィーノスマート,0
621,3010001226796,新規,0,2022-05-24,2022-05-24,ＥＤＯＭ　Ｔｅｃｈｎｏｌｏｇｙ　Ｊａｐａｎ株式会社,,株式会社,東京都,千代田区,内幸町１丁目１番１号帝国ホテルタワー１５階,,13,101,1000011,,,,,,,2022-05-24,1,,,,,イードムテクノロジージャパン,0
622,3010001226821,新規,0,2022-05-24,2022-05-24,ＪＭＣ株式会社,,株式会社,東京都,千代田区,内神田２丁目７番４号三井ビル２階,,13,101,1010047,,,,,,,2022-05-24,1,,,,,ジェイエムシー,0
627,3010003037746,新規,0,2022-05-24,2022-05-24,合同会社Ｎｏｎａｇｏｎ　Ｃａｐｉｔａｌ,,合同会社,東京都,千代田区,富士見１丁目３番１１号富士見デュープレックスビズ５階,,13,101,1020071,,,,,,,2022-05-24,1,,,,,ノナゴンキャピタル,0
634,3010403027719,新規,0,2022-05-24,2022-05-24,合同会社浅井綜合,,合同会社,東京都,港区,北青山３丁目６番７号青山パラシオタワー１１階,,13,103,1070061,,,,,,,2022-05-24,1,,,,,アサイソウゴウ,0
635,3010403027743,新規,0,2022-05-24,2022-05-24,Ａｃｃｕｒａ合同会社,,合同会社,東京都,港区,虎ノ門４丁目１番１３号プライムテラス神谷町,,13,103,1050001,,,,,,,2022-05-24,1,,,,,アックラ,0
636,3010405021001,新規,0,2022-05-24,2022-05-24,汐留特許商標弁理士法人,,その他の設立登記法人,東京都,港区,東新橋１丁目１番２１号今朝ビル５階,,13,103,1050021,,,,,,,2022-05-24,1,,,,,シオドメトッキョショウヒョウ,0
638,3010501048864,新規,0,2022-05-24,2022-05-24,株式会社市村座,,株式会社,東京都,台東区,台東２丁目５番６号,,13,106,1100016,,,,,,,2022-05-24,1,,,,,イチムラザ,0
644,3010701042691,新規,0,2022-05-24,2022-05-24,株式会社ブリランテ,,株式会社,東京都,品川区,南品川５丁目８番１７ー２０１号,,13,109,1400004,,,,,,,2022-05-24,1,,,,,ブリランテ,0
647,3010801032989,新規,0,2022-05-24,2022-05-24,株式会社櫻電社,,株式会社,東京都,大田区,多摩川１丁目３６番２７－４０１号,,13,111,1460095,,,,,,,2022-05-24,1,,,,,オウデンシャ,0
649,3010803004177,新規,0,2022-05-24,2022-05-24,合同会社ＪＣ,,合同会社,東京都,大田区,西蒲田７丁目５７番１－１４０７号,,13,111,1440051,,,,,,,2022-05-24,1,,,,,ジェイシー,0
652,3010903007303,新規,0,2022-05-24,2022-05-24,合同会社ＲａｐｉＲａｂｂｉ,,合同会社,東京都,世田谷区,三軒茶屋２丁目５―５クレール三軒茶屋３０１,,13,112,1540024,,,,,,,2022-05-24,1,,,,,ラピラビ,0
653,3010905004315,新規,0,2022-05-24,2022-05-24,大手町税理士法人,,その他の設立登記法人,東京都,世田谷区,下馬５丁目２番１４号,,13,112,1540002,,,,,,,2022-05-24,1,,,,,オオテマチ,0
672,3011101098894,新規,0,2022-05-24,2022-05-24,プライムフィールド株式会社,,株式会社,東京都,新宿区,西新宿３丁目３－１３西新宿水間ビル６Ｆ,,13,104,1600023,,,,,,,2022-05-24,1,,,,,,0
674,3011105010260,新規,0,2022-05-24,2022-05-24,一般社団法人ＡＩＣアークウェイ,,その他の設立登記法人,東京都,新宿区,西新宿３丁目３番１３号西新宿水間ビル６階,,13,104,1600023,,,,,,,2022-05-24,1,,,,,エーアイシーアークウェイ,0
680,3011501028055,新規,0,2022-05-24,2022-05-24,株式会社エルグロウ,,株式会社,東京都,北区,岩淵町３５－１４池田ハイツ１０１号室,,13,117,1150041,,,,,,,2022-05-24,1,,,,,エルグロウ,0
681,3011501028071,新規,0,2022-05-24,2022-05-24,天虹国際株式会社,,株式会社,東京都,北区,浮間１丁目１番１４号リムジンビル２２４,,13,117,1150051,,,,,,,2022-05-24,1,,,,,テンコウコクサイ,0
690,3012701017054,新規,0,2022-05-24,2022-05-24,株式会社ＲａｙＺｙ,,株式会社,東京都,清瀬市,中清戸３丁目４４０番地３ハイツ西川１０２号,,13,221,2040012,,,,,,,2022-05-24,1,,,,,レイジー,0
691,3013101008924,新規,0,2022-05-24,2022-05-24,株式会社ひなた,,株式会社,東京都,あきる野市,二宮２３７６番地７,,13,228,1970814,,,,,,,2022-05-24,1,,,,,ヒナタ,0
696,3013301049116,新規,0,2022-05-24,2022-05-24,ＬＹＹＭ　ＣＯＳＭＥ株式会社,,株式会社,東京都,豊島区,東池袋１丁目３１番１０号,,13,116,1700013,,,,,,,2022-05-24,1,,,,,リームコスメ,0
703,3020001146572,新規,0,2022-05-24,2022-05-24,株式会社セナホーム,,株式会社,神奈川県,横浜市南区,中島町４丁目８１番地,,14,105,2320055,,,,,,,2022-05-24,1,,,,,セナホーム,0
712,3020003021798,新規,0,2022-05-24,2022-05-24,ラシュエット合同会社,,合同会社,神奈川県,横浜市港南区,港南台４丁目１７－２８ＣＨＡＴＥＡＵＭＡＲＣＨＡＮＤ５０１,,14,111,2340054,,,,,,,2022-05-24,1,,,,,ラシュエット,0
719,3030001148279,新規,0,2022-05-24,2022-05-24,株式会社ピリカ,,株式会社,埼玉県,深谷市,普済寺１１４６番地,,11,218,3690203,,,,,,,2022-05-24,1,,,,,ピリカ,0
720,3030001148287,新規,0,2022-05-24,2022-05-24,株式会社ＲＶＨ２,,株式会社,埼玉県,入間市,狭山台２丁目２番地１５,,11,225,3580033,,,,,,,2022-05-24,1,,,,,アールブイエイチツー,0
721,3030001148345,新規,0,2022-05-24,2022-05-24,株式会社アルファ,,株式会社,埼玉県,蕨市,中央２丁目４番１７－２０６号,,11,223,3350004,,,,,,,2022-05-24,1,,,,,アルファ,0
722,3030001148353,新規,0,2022-05-24,2022-05-24,オールウインズ株式会社,,株式会社,埼玉県,さいたま市大宮区,桜木町２丁目３番地大宮マルイ７階,,11,103,3300854,,,,,,,2022-05-24,1,,,,,オールウインズ,0
727,3030005020871,新規,0,2022-05-24,2022-05-24,特定非営利活動法人うまごと,,その他の設立登記法人,埼玉県,比企郡ときがわ町,大字大野６０２,,11,349,3550366,,,,,,,2022-05-24,1,,,,,ウマゴト,0
740,3060003004080,新規,0,2022-05-24,2022-05-24,合同会社ロイヤルパリス,,合同会社,栃木県,宇都宮市,大通り３丁目５番１８号宮リバーハイツ５０１,,09,201,3200811,,,,,,,2022-05-24,1,,,,,ロイヤルパリス,0
745,3080001024954,新規,0,2022-05-24,2022-05-24,株式会社フォーカス,,株式会社,静岡県,静岡市駿河区,稲川３丁目１番２１号スギタビル４Ｆ,,22,102,4228062,,,,,,,2022-05-24,1,,,,,フォーカス,0
747,3080101023294,新規,0,2022-05-24,2022-05-24,株式会社ＡＬＣ　Ｓｐｅｃｉａｌｅ,,株式会社,静岡県,沼津市,東熊堂４４１番地の５,,22,203,4100013,,,,,,,2022-05-24,1,,,,,エーエルシースペチアーレ,0
760,3120001246016,新規,0,2022-05-24,2022-05-24,株式会社コクアラボ,,株式会社,大阪府,大阪市旭区,今市１丁目１０番１１号,,27,117,5350011,,,,,,,2022-05-24,1,,,,,コクアラボ,0
761,3120001246040,新規,0,2022-05-24,2022-05-24,株式会社匠建築設計工房,,株式会社,大阪府,大阪市北区,天神橋３丁目２番１０号,,27,127,5300041,,,,,,,2022-05-24,1,,,,,ショウケンチクセッケイコウボウ,0
762,3120001246049,新規,0,2022-05-24,2022-05-24,稲見スタジオ株式会社,,株式会社,大阪府,大阪市住吉区,長峡町５番１８号,,27,120,5580044,,,,,,,2022-05-24,1,,,,,イナミスタジオ,0
763,3120001246057,新規,0,2022-05-24,2022-05-24,株式会社Ｒｅｃｔａｖｉａ,,株式会社,大阪府,大阪市北区,西天満５丁目１０番１２号,,27,127,5300047,,,,,,,2022-05-24,1,,,,,レクタヴィア,0
764,3120001246081,新規,0,2022-05-24,2022-05-24,株式会社アヤックスシザーズ,,株式会社,大阪府,大阪市浪速区,湊町２丁目２番５－１２１８号,,27,111,5560017,,,,,,,2022-05-24,1,,,,,アヤックスシザーズ,0
765,3120001246107,新規,0,2022-05-24,2022-05-24,株式会社赤尾総合事務所,,株式会社,大阪府,大阪市平野区,平野本町５丁目４番４号,,27,126,5470044,,,,,,,2022-05-24,1,,,,,アカオソウゴウジムショ,0
771,3120003021739,新規,0,2022-05-24,2022-05-24,合同会社青山鉄筋工業参,,合同会社,大阪府,大阪市中央区,久太郎町１丁目９番４号,,27,128,5410056,,,,,,,2022-05-24,1,,,,,アオヤマテッキンコウギョウサン,0
772,3120003021747,新規,0,2022-05-24,2022-05-24,ＨＡＰＰＹ合同会社,,合同会社,大阪府,大阪市西成区,松２丁目５番１９号,,27,122,5570034,,,,,,,2022-05-24,1,,,,,ハッピー,0
774,3120101065605,新規,0,2022-05-24,2022-05-24,株式会社ＳＨＩＮＳＥＩ,,株式会社,大阪府,堺市西区,鳳西町１丁７５番地２６,,27,144,5938326,,,,,,,2022-05-24,1,,,,,シンセイ,0
775,3120101065613,新規,0,2022-05-24,2022-05-24,株式会社高渕工業,00126632,株式会社,大阪府,和泉市,東阪本町３５１番地の１,,27,219,5940051,,,,,,,2022-05-24,1,,,,,タカブチコウギョウ,0
779,3120901045995,新規,0,2022-05-24,2022-05-24,ＣＡＮＤＥ　ＥＮＴＥＲＴＡＩＮＭＥＮＴ　ＡＣＡＤＥＭＹ株式会社,,株式会社,大阪府,吹田市,山田東２丁目１番５号山田ビル３０１号,,27,205,5650821,,,,,,,2022-05-24,1,,,,,キャンデエンターテイメントアカデミー,0
787,3140001126083,新規,0,2022-05-24,2022-05-24,株式会社ＮＥＷ　ＡＮＴＩＱＵＥ　ＣＬＵＢ１９６０,,株式会社,兵庫県,加古川市,別府町石町６番地の３グレイス６,,28,210,6750127,,,,,,,2022-05-24,1,,,,,ニューアンティーククラブイチキュウロクゼロ,0
788,3140001126091,新規,0,2022-05-24,2022-05-24,Ｆ’ｓ　Ｍａｒｋｅｔ株式会社,,株式会社,兵庫県,神戸市西区,今寺２６番地の７,,28,111,6512114,,,,,,,2022-05-24,1,,,,,エフズマーケット,0
794,3140005026180,新規,0,2022-05-24,2022-05-24,特定非営利活動法人ストップ・ザ・アスベスト,,その他の設立登記法人,兵庫県,西宮市,甑岩町６番２５号,,28,204,6620092,,,,,,,2022-05-24,1,,,,,ストップザアスベスト,0
806,3180003023746,新規,0,2022-05-24,2022-05-24,合同会社東海エコロジー,,合同会社,愛知県,名古屋市千種区,覚王山通７丁目１１番地の１,,23,101,4640841,,,,,,,2022-05-24,1,,,,,トウカイエコロジー,0
807,3180003023861,新規,0,2022-05-24,2022-05-24,合同会社いざわ,,合同会社,愛知県,名古屋市東区,泉３丁目４番２５号,,23,102,4610001,,,,,,,2022-05-24,1,,,,,イザワ,0
809,3180303005337,新規,0,2022-05-24,2022-05-24,合同会社高橋総合管理,00126640,合同会社,愛知県,安城市,大山町１丁目１１番地７,,23,212,4460042,,,,,,,2022-05-24,1,,,,,タカハシソウゴウカンリ,0
813,3210001018942,新規,0,2022-05-24,2022-05-24,株式会社輝工業,,株式会社,福井県,坂井市,丸岡町高柳第２号１３番地８,,18,210,9100373,,,,,,,2022-05-24,1,,,,,ヒカリコウギョウ,0
815,3220003003264,新規,0,2022-05-24,2022-05-24,合同会社ＮＯＴＯＮＯ,,合同会社,石川県,鳳珠郡能登町,字小木３丁目１２１‐２,,17,463,9270553,,,,,,,2022-05-24,1,,,,,ノトノ,0
818,3230001019369,新規,0,2022-05-24,2022-05-24,株式会社爽庭,,株式会社,富山県,射水市,かもめ台９番地,,16,211,9330240,,,,,,,2022-05-24,1,,,,,ソウテイ,0
819,3230003001853,新規,0,2022-05-24,2022-05-24,合同会社ｍｋｒ,,合同会社,富山県,富山市,桜橋通り３番１号富山電気ビルディング本館２Ｆ,,16,201,9300004,,,,,,,2022-05-24,1,,,,,,0
825,3240001059802,新規,0,2022-05-24,2022-05-24,株式会社パンパカパン,,株式会社,広島県,福山市,新市町大字下安井１１６番地１,,34,207,7293105,,,,,,,2022-05-24,1,,,,,パンパカパン,0
831,3250001019573,新規,0,2022-05-24,2022-05-24,株式会社デポルタルス,,株式会社,山口県,宇部市,大字小串１９８番地４,,35,202,7550067,,,,,,,2022-05-24,1,,,,,デポルタルス,0
849,3290001097632,新規,0,2022-05-24,2022-05-24,株式会社ＦＲＥＡ,,株式会社,福岡県,福岡市博多区,奈良屋町１３番１６－１２０２号,,40,132,8120023,,,,,,,2022-05-24,1,,,,,エフリア,0
850,3290001097640,新規,0,2022-05-24,2022-05-24,株式会社ＣＨＡＮＧＥ,,株式会社,福岡県,福岡市中央区,大手門２丁目７－１１ＢＭＳビル６Ｆ,,40,133,8100074,,,,,,,2022-05-24,1,,,,,チェンジ,0
857,3300003001846,新規,0,2022-05-24,2022-05-24,合同会社雅の里,,合同会社,佐賀県,佐賀市,神野東４丁目５番３１号クレアヴィル神野１０２,,41,201,8400804,,,,,,,2022-05-24,1,,,,,ミヤビノサト,0
867,3340005009462,新規,0,2022-05-24,2022-05-24,特定非営利活動法人やくしま未来工房,,その他の設立登記法人,鹿児島県,熊毛郡屋久島町,小島１８０番地,,46,505,8914405,,,,,,,2022-05-24,1,,,,,ヤクシマミライコウボウ,0
873,3370001048585,新規,0,2022-05-24,2022-05-24,エコＰｌｕｓ株式会社,,株式会社,宮城県,仙台市若林区,蒲町３９番２９号,,04,103,9840037,,,,,,,2022-05-24,1,,,,,エコプラス,0
880,3380001032828,新規,0,2022-05-24,2022-05-24,株式会社押山工業,,株式会社,福島県,相馬市,磯部字山信田１１８８－３０,,07,209,9792501,,,,,,,2022-05-24,1,,,,,オシヤマコウギョウ,0
888,3410003001463,新規,0,2022-05-24,2022-05-24,合資会社木村商店,,合資会社,秋田県,北秋田市,松葉町４番６号,,05,213,0183321,,,,,,,2022-05-24,1,,,,,キムラショウテン,0
908,3450001013705,新規,0,2022-05-24,2022-05-24,三宝株式会社,,株式会社,北海道,紋別市,港町１丁目３番１２号,,01,219,0940011,,,,,,,2022-05-24,1,,,,,サンポウ,0
911,3460301005070,新規,0,2022-05-24,2022-05-24,株式会社Ｂｒａｖｅ,,株式会社,北海道,網走市,字潮見１６９番地１,,01,211,0930042,,,,,,,2022-05-24,1,,,,,ブレイヴ,0
913,3490001010186,新規,0,2022-05-24,2022-05-24,株式会社Ｍ・ＴＥＣＴ,,株式会社,高知県,高知市,大谷公園町２０番３号,,39,201,7808085,,,,,,,2022-05-24,1,,,,,エムテクト,0
914,3500001024226,新規,0,2022-05-24,2022-05-24,株式会社ＧＣ,,株式会社,愛媛県,松山市,南久米町５２７番地６,,38,201,7900924,,,,,,,2022-05-24,1,,,,,,0
923,4010001226787,新規,0,2022-05-24,2022-05-24,株式会社泰明,,株式会社,東京都,中央区,銀座６丁目３番１７号悠玄ビル２号－３Ｂ,,13,102,1040061,,,,,,,2022-05-24,1,,,,,タイメイ,0
924,4010001226795,新規,0,2022-05-24,2022-05-24,株式会社Ｍｅｓｓｉｘ,,株式会社,東京都,千代田区,平河町２丁目５番３号,,13,101,1020093,,,,,,,2022-05-24,1,,,,,メシックス,0
925,4010001226845,新規,0,2022-05-24,2022-05-24,株式会社ＡＬＤＯＮＡ,,株式会社,東京都,中央区,銀座１丁目２２番１１号銀座大竹ビジデンス２階,,13,102,1040061,,,,,,,2022-05-24,1,,,,,アルドナ,0
930,4010003037737,新規,0,2022-05-24,2022-05-24,合同会社Ｇｒａｎｄｅｕｒ,,合同会社,東京都,中央区,銀座１丁目２２番１１号銀座大竹ビジデンス２階,,13,102,1040061,,,,,,,2022-05-24,1,,,,,グランドゥー,0
948,4010401167466,新規,0,2022-05-24,2022-05-24,株式会社Ｂｌｕｅ’ｓ　Ｃｒｕｉｓｅ,,株式会社,東京都,港区,東新橋１丁目１０番２－３８０１号,,13,103,1050021,,,,,,,2022-05-24,1,,,,,ブルースクルーズ,0
951,4010403027718,新規,0,2022-05-24,2022-05-24,ジー・ジェイ・レジデンス・テン合同会社,,合同会社,東京都,港区,虎ノ門４丁目３番１号城山トラストタワー２７階ＳａｎｎｅＧｒｏｕｐＪａｐａｎ株式会社内,,13,103,1050001,,,,,,,2022-05-24,1,,,,,ジージェイレジデンステン,0
952,4010405021017,新規,0,2022-05-24,2022-05-24,虎ノ門スリー特定目的会社,,その他の設立登記法人,東京都,港区,虎ノ門３丁目２２番１０－２０１号,,13,103,1050001,,,,,,,2022-05-24,1,,,,,トラノモンスリー,0
953,4010501048863,新規,0,2022-05-24,2022-05-24,株式会社福田商事,,株式会社,東京都,台東区,台東２丁目３１番１０号第２掛川ビル３０２室,,13,106,1100016,,,,,,,2022-05-24,1,,,,,フクダショウジ,0
957,4010603009540,新規,0,2022-05-24,2022-05-24,クレアパートナーズ合同会社,,合同会社,東京都,江東区,東陽３丁目２３番３－３０１号,,13,108,1350016,,,,,,,2022-05-24,1,,,,,クレアパートナーズ,0
959,4010701042682,新規,0,2022-05-24,2022-05-24,株式会社ワン・サイエンス,,株式会社,東京都,品川区,東五反田２丁目７番５号,,13,109,1410022,,,,,,,2022-05-24,1,,,,,ワンサイエンス,0
960,4010703006248,新規,0,2022-05-24,2022-05-24,合同会社Ａｔｓｕｍａｒｕ,,合同会社,東京都,品川区,東五反田２丁目８番３号五反田ＡＳビル４階,,13,109,1410022,,,,,,,2022-05-24,1,,,,,アツマル,0
964,4010801032988,新規,0,2022-05-24,2022-05-24,株式会社森居工業,,株式会社,東京都,大田区,大森南２丁目２４番２－８０１号,,13,111,1430013,,,,,,,2022-05-24,1,,,,,モリイコウギョウ,0
965,4010803004176,新規,0,2022-05-24,2022-05-24,合同会社ＦＢＯ羽田,,合同会社,東京都,大田区,羽田空港３丁目３番２号,,13,111,1440041,,,,,,,2022-05-24,1,,,,,エフビーオーハネダ,0
968,4010901050898,新規,0,2022-05-24,2022-05-24,アパテックモーターズ株式会社,,株式会社,東京都,世田谷区,成城４丁目１２番１０号,,13,112,1570066,,,,,,,2022-05-24,1,,,,,アパテックモーターズ,0
969,4010901050907,新規,0,2022-05-24,2022-05-24,株式会社ＲｅＬｉｎｅ,,株式会社,東京都,世田谷区,太子堂２丁目１７－５佐藤ビル３階,,13,112,1540004,,,,,,,2022-05-24,1,,,,,リライン,0
978,4011401024252,新規,0,2022-05-24,2022-05-24,株式会社ミセスペ,,株式会社,東京都,板橋区,高島平８丁目１４番３号,,13,119,1750082,,,,,,,2022-05-24,1,,,,,ミセスペ,0
986,4011601025975,新規,0,2022-05-24,2022-05-24,株式会社ＭＡＪＥＳＴＹ,,株式会社,東京都,練馬区,富士見台２丁目１８番９号へんみビル１Ｆ,,13,120,1770034,,,,,,,2022-05-24,1,,,,,マゼスティー,0
987,4011702018390,新規,0,2022-05-24,2022-05-24,有限会社鎌田産業,,有限会社,東京都,江戸川区,松島１丁目２８番８号,,13,123,1320031,,,,,,,2022-05-24,1,,,,,カマタサンギョウ,0
994,4012301012999,新規,0,2022-05-24,2022-05-24,株式会社Ｓｉｌｋ,,株式会社,東京都,町田市,南成瀬１丁目４番地８,,13,209,1940045,,,,,,,2022-05-24,1,,,,,シルク,0
996,4012401039158,新規,0,2022-05-24,2022-05-24,株式会社３Ｈ　ＦＯＯＤ　ＧＲＯＵＰ,,株式会社,東京都,稲城市,東長沼２４１６番地プラウドシティ南山９１９,,13,225,2060802,,,,,,,2022-05-24,1,,,,,サンエイチフードグループ,0
997,4012401039224,新規,0,2022-05-24,2022-05-24,株式会社クラフトアークス,,株式会社,東京都,調布市,多摩川５丁目１３－５,,13,208,1820025,,,,,,,2022-05-24,1,,,,,クラフトアークス,0
1001,4013301049123,新規,0,2022-05-24,2022-05-24,ＫＡＣＯＡ株式会社,,株式会社,東京都,豊島区,西池袋１丁目２９番５号９階Ａ号,,13,116,1710021,,,,,,,2022-05-24,1,,,,,カコア,0
1017,4020005015541,新規,0,2022-05-24,2022-05-24,一般社団法人国際アスリートサポート協会,,その他の設立登記法人,神奈川県,横浜市神奈川区,栄町２－１キコー横浜ビル３１１,,14,102,2210052,,,,,,,2022-05-24,1,,,,,コクサイアスリートサポートキョウカイ,0
1019,4021001076024,新規,0,2022-05-24,2022-05-24,イワテック株式会社,,株式会社,神奈川県,秦野市,南矢名２丁目２５番５号,,14,211,2570003,,,,,,,2022-05-24,1,,,,,イワテック,0
1020,4021001076049,新規,0,2022-05-24,2022-05-24,株式会社日出山工業,,株式会社,神奈川県,座間市,座間１丁目３４０９番地の９,,14,216,2520027,,,,,,,2022-05-24,1,,,,,ヒデヤマコウギョウ,0
1025,4030001148278,新規,0,2022-05-24,2022-05-24,株式会社ＲＶＨ１,,株式会社,埼玉県,入間市,狭山台２丁目２番地１５,,11,225,3580033,,,,,,,2022-05-24,1,,,,,アールブイエイチワン,0
1026,4030001148344,新規,0,2022-05-24,2022-05-24,株式会社シバ,,株式会社,埼玉県,行田市,持田３丁目１５１４番地２,,11,206,3610056,,,,,,,2022-05-24,1,,,,,シバ,0
1034,4040001123346,新規,0,2022-05-24,2022-05-24,株式会社ｓｉｉ．,,株式会社,千葉県,松戸市,東平賀５５８番地の３,,12,207,2700003,,,,,,,2022-05-24,1,,,,,シー,0
1035,4040001123453,新規,0,2022-05-24,2022-05-24,漆原商店株式会社,,株式会社,千葉県,館山市,北条１０５７番地１ＣＩＲＣＵＳ３階,,12,205,2940045,,,,,,,2022-05-24,1,,,,,ウルシバラショウテン,0
1036,4040001123536,新規,0,2022-05-24,2022-05-24,亀山公園管理株式会社,,株式会社,千葉県,君津市,川俣旧川俣８番地,,12,225,2920524,,,,,,,2022-05-24,1,,,,,カメヤマコウエンカンリ,0
1042,4040005021620,新規,0,2022-05-24,2022-05-24,一般財団法人渡辺美容医療財団,,その他の設立登記法人,千葉県,香取市,八日市場９７２番地１９,,12,236,2890311,,,,,,,2022-05-24,1,,,,,ワタナベビヨウイリョウザイダン,0
1047,4060001034888,新規,0,2022-05-24,2022-05-24,株式会社ＳＯＭ,,株式会社,栃木県,佐野市,栃本町３３８５番地１,,09,204,3270312,,,,,,,2022-05-24,1,,,,,エスオーエム,0
1057,4080001024945,新規,0,2022-05-24,2022-05-24,株式会社オフィス家具サイコー,,株式会社,静岡県,藤枝市,下当間６０１番地,,22,214,4260003,,,,,,,2022-05-24,1,,,,,オフィスカグサイコー,0
1061,4080101023302,新規,0,2022-05-24,2022-05-24,株式会社アクティス,,株式会社,静岡県,富士市,宮島３６番地の２,,22,210,4160945,,,,,,,2022-05-24,1,,,,,アクティス,0
1065,4090001017584,新規,0,2022-05-24,2022-05-24,株式会社ヒカレヤマナシ,,株式会社,山梨県,中巨摩郡昭和町,西条２７９９番地,,19,384,4093866,,,,,,,2022-05-24,1,,,,,ヒカレヤマナシ,0
1066,4110001036672,新規,0,2022-05-24,2022-05-24,株式会社Ｍｉ‐ＥＷ,,株式会社,新潟県,新潟市中央区,姥ケ山３１２番地１,,15,103,9500923,,,,,,,2022-05-24,1,,,,,ミュウ,0
1087,4120001246048,新規,0,2022-05-24,2022-05-24,株式会社ホムペタ,,株式会社,大阪府,大阪市中央区,安土町２丁目３番１３号,,27,128,5410052,,,,,,,2022-05-24,1,,,,,ホムペタ,0
1088,4120001246072,新規,0,2022-05-24,2022-05-24,株式会社華豊ホーム,,株式会社,大阪府,大阪市浪速区,日本橋西２丁目７番３号ファミール松竹１０１号,,27,111,5560004,,,,,,,2022-05-24,1,,,,,カホウホーム,0
1091,4120003021721,新規,0,2022-05-24,2022-05-24,合同会社ＢＡＭＢＩ,,合同会社,大阪府,大阪市城東区,天王田４番１６号,,27,118,5360012,,,,,,,2022-05-24,1,,,,,バンビ,0
1092,4120003021738,新規,0,2022-05-24,2022-05-24,合同会社青山鉄筋工業弐,,合同会社,大阪府,大阪市中央区,久太郎町１丁目９番４号,,27,128,5410056,,,,,,,2022-05-24,1,,,,,アオヤマテッキンコウギョウニ,0
1094,4120101065612,新規,0,2022-05-24,2022-05-24,株式会社ＯＮ　ＧＯＬＦ,,株式会社,大阪府,和泉市,松尾寺町２１６４番地の２０１,,27,219,5941154,,,,,,,2022-05-24,1,,,,,オンゴルフ,0
1096,4120105009565,新規,0,2022-05-24,2022-05-24,一般社団法人ミライエラボ,,その他の設立登記法人,大阪府,泉大津市,東雲町１番２８－１００８号,,27,206,5950026,,,,,,,2022-05-24,1,,,,,ミライエラボ,0
1097,4120901045994,新規,0,2022-05-24,2022-05-24,株式会社清和,,株式会社,大阪府,豊中市,浜１丁目２０番１７号,,27,203,5610817,,,,,,,2022-05-24,1,,,,,セイワ,0
1098,4120901046002,新規,0,2022-05-24,2022-05-24,株式会社Ｅｓｃｏｎ　ａｒｔ,,株式会社,大阪府,吹田市,山手町３丁目２８番８号,,27,205,5640073,,,,,,,2022-05-24,1,,,,,エスコンアート,0
1102,4122003002346,新規,0,2022-05-24,2022-05-24,ＵＴＱＵＡＮ合同会社,,合同会社,大阪府,八尾市,安中町８丁目１４－２２,,27,212,5810085,,,,,,,2022-05-24,1,,,,,ユーティークァン,0
1106,4130005016487,新規,0,2022-05-24,2022-05-24,一般社団法人難民ナウ,,その他の設立登記法人,京都府,京都市左京区,田中下柳町７番地２かぜのね２０３号室,,26,103,6068204,,,,,,,2022-05-24,1,,,,,ナンミンナウ,0
1110,4140001126074,新規,0,2022-05-24,2022-05-24,株式会社ＴＹＨ,,株式会社,兵庫県,神崎郡市川町,西田中４８９番地の５,,28,442,6792313,,,,,,,2022-05-24,1,,,,,ティーワイエイチ,0
1111,4140001126082,新規,0,2022-05-24,2022-05-24,株式会社アグリ藤本,,株式会社,兵庫県,佐用郡佐用町,中島３８１番地１,,28,501,6795202,,,,,,,2022-05-24,1,,,,,アグリフジモト,0
1112,4140001126108,新規,0,2022-05-24,2022-05-24,株式会社イーセレンド,,株式会社,兵庫県,尼崎市,東難波町３丁目１０－２０,,28,202,6600892,,,,,,,2022-05-24,1,,,,,イーセレンド,0
1116,4150001025556,新規,0,2022-05-24,2022-05-24,株式会社エビス関西,,株式会社,奈良県,大和郡山市,池沢町４４０－３,,29,203,6391032,,,,,,,2022-05-24,1,,,,,エビスカンサイ,0
1121,4180001151374,新規,0,2022-05-24,2022-05-24,リレート株式会社,,株式会社,愛知県,名古屋市熱田区,幡野町１８番８号,,23,109,4560077,,,,,,,2022-05-24,1,,,,,リレート,0
1125,4180301036250,新規,0,2022-05-24,2022-05-24,株式会社Ｒｉｂｂｏｎｓ　Ｂａｓｅ,,株式会社,愛知県,豊橋市,西幸町字浜池３３３番地の９豊橋サイエンスコア１０９,,23,201,4418113,,,,,,,2022-05-24,1,,,,,リボンズベース,0
1126,4180301036259,新規,0,2022-05-24,2022-05-24,株式会社ランナー,,株式会社,愛知県,豊川市,八幡町西赤土７３番地,,23,207,4420857,,,,,,,2022-05-24,1,,,,,ランナー,0
1128,4180303005336,新規,0,2022-05-24,2022-05-24,合同会社ＢＡＴＡ,,合同会社,愛知県,豊田市,東山町１丁目１番地２,,23,211,4710014,,,,,,,2022-05-24,1,,,,,バタ,0
1129,4180305009343,新規,0,2022-05-24,2022-05-24,一般社団法人アスミオン,,その他の設立登記法人,愛知県,西尾市,新在家１丁目４６番地７,,23,213,4450878,,,,,,,2022-05-24,1,,,,,アスミオン,0
1136,4230001019368,新規,0,2022-05-24,2022-05-24,株式会社ロイヤル産業,,株式会社,富山県,富山市,清水町４丁目２番８号大成ビル３階,,16,201,9300036,,,,,,,2022-05-24,1,,,,,,0
1142,4240001059801,新規,0,2022-05-24,2022-05-24,株式会社きずな,,株式会社,広島県,東広島市,黒瀬町川角８４番地２,,34,212,7392623,,,,,,,2022-05-24,1,,,,,キズナ,0
1151,4290001097607,新規,0,2022-05-24,2022-05-24,株式会社Ｄプランニング,,株式会社,福岡県,久留米市,小頭町２番地１２パークハウス小頭５０１号,,40,203,8300045,,,,,,,2022-05-24,1,,,,,ディープランニング,0
1152,4290001097615,新規,0,2022-05-24,2022-05-24,株式会社Ｍ’ｓファシリティーズ,,株式会社,福岡県,福岡市早良区,小田部２丁目１２番２４号,,40,137,8140032,,,,,,,2022-05-24,1,,,,,エムエスファシリティーズ,0
1153,4290001097631,新規,0,2022-05-24,2022-05-24,彩装株式会社,,株式会社,福岡県,糟屋郡宇美町,貴船４丁目１８番１４号,,40,341,8112131,,,,,,,2022-05-24,1,,,,,サイソウ,0
1159,4290005018690,新規,0,2022-05-24,2022-05-24,一般社団法人もっと自分の町を知ろう,,その他の設立登記法人,福岡県,福岡市博多区,中洲３丁目７番７号高嶺ビル３Ｆ,,40,132,8100801,,,,,,,2022-05-24,1,,,,,モットジブンノマチヲシロウ,0
1160,4290801028554,新規,0,2022-05-24,2022-05-24,株式会社ＯＭＲ,,株式会社,福岡県,北九州市小倉北区,浅野２丁目１番２１号５階,,40,106,8020001,,,,,,,2022-05-24,1,,,,,オーエムアール,0
1162,4300003001845,新規,0,2022-05-24,2022-05-24,ｆｏｒ　ｍｙ　ｓｏｎ合同会社,,合同会社,佐賀県,佐賀市,大和町大字尼寺３５１８番地５,,41,201,8400201,,,,,,,2022-05-24,1,,,,,フォーマイサン,0
1163,4310001017867,新規,0,2022-05-24,2022-05-24,ＡＺマネージメント株式会社,,株式会社,長崎県,西彼杵郡長与町,嬉里郷１１９５番地２,,42,307,8512128,,,,,,,2022-05-24,1,,,,,エイジーマネージメント,0
1167,4340005009461,新規,0,2022-05-24,2022-05-24,一般社団法人夢・実現,,その他の設立登記法人,鹿児島県,姶良市,蒲生町漆４８４番地,,46,225,8995301,,,,,,,2022-05-24,1,,,,,ユメジツゲン,0
1170,4360001030452,新規,0,2022-05-24,2022-05-24,Ｒ．ＫＡＮＡＳＡ株式会社,,株式会社,沖縄県,豊見城市,字豊崎１番地４１－２階,,47,212,9010225,,,,,,,2022-05-24,1,,,,,アールカナサ,0
1175,4380001032827,新規,0,2022-05-24,2022-05-24,株式会社ＳＨＯエナジー,,株式会社,福島県,福島市,森合字高野２５番地の６,,07,201,9608003,,,,,,,2022-05-24,1,,,,,エスエイチオーエナジー,0
1176,4380001032835,新規,0,2022-05-24,2022-05-24,ＡｓｔｒｏＸ株式会社,,株式会社,福島県,南相馬市,小高区本町１丁目８７番地,,07,212,9792124,,,,,,,2022-05-24,1,,,,,アストロエックス,0
1188,4430003013910,新規,0,2022-05-24,2022-05-24,合同会社Ａｎｅｃｔ,,合同会社,北海道,札幌市豊平区,平岸五条１３丁目５番２号Ｒｅｆｕｇｉｏ平岸高台１０１号,,01,105,0620935,,,,,,,2022-05-24,1,,,,,アネクト,0
1189,4430003013943,新規,0,2022-05-24,2022-05-24,合同会社ＬＩＦＥ＆ＨＯＭＥ,,合同会社,北海道,札幌市豊平区,豊平四条１２丁目３番１３－４１６号,,01,105,0620904,,,,,,,2022-05-24,1,,,,,ライフアンドホーム,0
1193,4460101007200,新規,0,2022-05-24,2022-05-24,株式会社ＡＹＡコンサルタント,,株式会社,北海道,河東郡音更町,木野大通西１２丁目３番地２,,01,631,0800301,,,,,,,2022-05-24,1,,,,,エーワイエーコンサルタント,0
1196,4470001019088,新規,0,2022-05-24,2022-05-24,株式会社天元工業,,株式会社,香川県,高松市,屋島西町２２９３番地３,,37,201,7610113,,,,,,,2022-05-24,1,,,,,テンゲンコウギョウ,0
1197,4490003001661,新規,0,2022-05-24,2022-05-24,合同会社メリベル,,合同会社,高知県,高知市,本宮町１０５－２５高知ソフトウェアセンター３Ｆ,,39,201,7800945,,,,,,,2022-05-24,1,,,,,メリベル,0
1209,5010001226786,新規,0,2022-05-24,2022-05-24,株式会社ＯＳＭ,,株式会社,東京都,中央区,銀座１丁目２２番１１号銀座大竹ビジデンス２階,,13,102,1040061,,,,,,,2022-05-24,1,,,,,オーエスエム,0
1210,5010001226803,新規,0,2022-05-24,2022-05-24,ＳｃａｌｅＨｕｂ　Ｊａｐａｎ株式会社,,株式会社,東京都,中央区,日本橋小網町１２番７号,,13,102,1030016,,,,,,,2022-05-24,1,,,,,スケールハブジャパン,0
1211,5010001226828,新規,0,2022-05-24,2022-05-24,株式会社Ｙ＆Ｙ,,株式会社,東京都,中央区,勝どき１丁目３番１号,,13,102,1040054,,,,,,,2022-05-24,1,,,,,ワイアンドワイ,0
1213,5010003037744,新規,0,2022-05-24,2022-05-24,アトラクティブ合同会社,,合同会社,東京都,中央区,銀座１丁目２２番１１号銀座大竹ビジデンス２階,,13,102,1040061,,,,,,,2022-05-24,1,,,,,アトラクティブ,0
1230,5010501048862,新規,0,2022-05-24,2022-05-24,三森総合株式会社,,株式会社,東京都,台東区,台東２丁目２９番３号,,13,106,1100016,,,,,,,2022-05-24,1,,,,,ミモリソウゴウ,0
1234,5010601061195,新規,0,2022-05-24,2022-05-24,ＳＮ商事株式会社,,株式会社,東京都,江東区,豊洲５丁目１番１３－２４０８号,,13,108,1350061,,,,,,,2022-05-24,1,,,,,エスエヌショウジ,0
1235,5010601061204,新規,0,2022-05-24,2022-05-24,株式会社ミラージュ,,株式会社,東京都,墨田区,江東橋３丁目９番１号新明ビル３階,,13,107,1300022,,,,,,,2022-05-24,1,,,,,ミラージュ,0
1243,5010803004175,新規,0,2022-05-24,2022-05-24,合同会社ＢｌｏｏＭ,,合同会社,東京都,大田区,本羽田３丁目２３番４６号,,13,111,1440044,,,,,,,2022-05-24,1,,,,,ブルーム,0
1261,5011401024251,新規,0,2022-05-24,2022-05-24,株式会社モス・ジェムス,,株式会社,東京都,板橋区,徳丸１丁目１１番５号,,13,119,1750083,,,,,,,2022-05-24,1,,,,,モスジェムス,0
1262,5011403003666,新規,0,2022-05-24,2022-05-24,合同会社ＧＲＩＰＨＡ,,合同会社,東京都,板橋区,中台１丁目５５番１号サンクススタジオ中台１Ｄ,,13,119,1740064,,,,,,,2022-05-24,1,,,,,グリファー,0
1268,5011701025321,新規,0,2022-05-24,2022-05-24,ＳＣＲ　ＧＲＯＵＰ株式会社,,株式会社,東京都,江戸川区,北葛西４丁目２番３４－２１３号,,13,123,1340081,,,,,,,2022-05-24,1,,,,,エスシーアールグループ,0
1271,5011801040757,新規,0,2022-05-24,2022-05-24,株式会社アグノスワン,,株式会社,東京都,足立区,宮城１丁目２３番５号,,13,121,1200047,,,,,,,2022-05-24,1,,,,,アグノスワン,0
1272,5011803005106,新規,0,2022-05-24,2022-05-24,アザラシ合同会社,,合同会社,東京都,足立区,梅島３丁目３６番２６号,,13,121,1210816,,,,,,,2022-05-24,1,,,,,アザラシ,0
1280,5013301049122,新規,0,2022-05-24,2022-05-24,株式会社フィレンツェ,,株式会社,東京都,豊島区,南池袋１丁目９－１８ＧＯＧＯオフィス池袋３３９,,13,116,1710022,,,,,,,2022-05-24,1,,,,,フィレンツェ,0
1296,5020003021805,新規,0,2022-05-24,2022-05-24,合同会社ＰＯＭＰＯＭ　Ｌａｂ．,,合同会社,神奈川県,横浜市都筑区,川和台２０番１４号,,14,118,2240056,,,,,,,2022-05-24,1,,,,,ポンポンラボ,0
1297,5021001076031,新規,0,2022-05-24,2022-05-24,株式会社ＭＩＹＯＳＨＩ,,株式会社,神奈川県,逗子市,小坪２丁目２１番６号,,14,208,2490008,,,,,,,2022-05-24,1,,,,,ミヨシ,0
1298,5021001076048,新規,0,2022-05-24,2022-05-24,株式会社幸輝産業,,株式会社,神奈川県,相模原市緑区,下九沢１２９２番地９,,14,151,2520134,,,,,,,2022-05-24,1,,,,,コウキサンギョウ,0
1303,5030001148285,新規,0,2022-05-24,2022-05-24,株式会社ワンウィズ,,株式会社,埼玉県,久喜市,栗橋中央１丁目１４番１号,,11,232,3491102,,,,,,,2022-05-24,1,,,,,ワンウィズ,0
1312,5040001123502,新規,0,2022-05-24,2022-05-24,株式会社イーストサンライズ,,株式会社,千葉県,柏市,豊四季３２８番地７,,12,217,2770863,,,,,,,2022-05-24,1,,,,,イーストサンライズ,0
1317,5040003020086,新規,0,2022-05-24,2022-05-24,合同会社邁進,,合同会社,千葉県,習志野市,津田沼５丁目１１－１３三橋ビル１階,,12,216,2750016,,,,,,,2022-05-24,1,,,,,マイシン,0
1324,5060003004079,新規,0,2022-05-24,2022-05-24,合同会社光,,合同会社,栃木県,宇都宮市,南大通り１丁目１０番９号三博マンションＢ１０３号,,09,201,3210963,,,,,,,2022-05-24,1,,,,,ヒカリ,0
1331,5070003004490,新規,0,2022-05-24,2022-05-24,合同会社香味屋,,合同会社,群馬県,みどり市,大間々町大間々４６６番地１２グリーンセントラルＡ棟１、２号,,10,212,3760101,,,,,,,2022-05-24,1,,,,,コウミヤ,0
1335,5080003002799,新規,0,2022-05-24,2022-05-24,十二商事合同会社,,合同会社,静岡県,焼津市,小土２３７番地の８,,22,212,4250086,,,,,,,2022-05-24,1,,,,,ジュウニショウジ,0
1337,5080103002591,新規,0,2022-05-24,2022-05-24,アジュール明善インベスター合同会社,,合同会社,静岡県,熱海市,上宿町４番２９号第３明善ビル熱海３０５号,,22,205,4130018,,,,,,,2022-05-24,1,,,,,アジュールメイゼンインベスター,0
1349,5110005016810,新規,0,2022-05-24,2022-05-24,一般社団法人飼い主サポート新潟,,その他の設立登記法人,新潟県,新潟市中央区,南長潟２９番１３号,,15,103,9500931,,,,,,,2022-05-24,1,,,,,カイヌシサポートニイガタ,0
1350,5120001046521,新規,0,2022-05-24,2022-05-24,株式会社波佐出無,,株式会社,大阪府,大阪市西区,南堀江４丁目１８番４号,,27,106,5500015,,,,,,,2022-05-24,1,,,,,パサデイナ,0
1357,5120001246039,新規,0,2022-05-24,2022-05-24,明石貿易株式会社,,株式会社,大阪府,大阪市生野区,巽北１丁目２１番２９－２１３号,00126639,27,116,5440004,,,,,,,2022-05-24,1,,,,,アカシボウエキ,0
1358,5120001246055,新規,0,2022-05-24,2022-05-24,株式会社ＭＩＭＯＺＡ,,株式会社,大阪府,大阪市平野区,西脇１丁目２０番３２号,,27,126,5470035,,,,,,,2022-05-24,1,,,,,ミモザ,0
1359,5120001246088,新規,0,2022-05-24,2022-05-24,株式会社おウチネット,,株式会社,大阪府,大阪市中央区,南船場４丁目１０番２０号,,27,128,5420081,,,,,,,2022-05-24,1,,,,,オウチネット,0
1360,5120001246113,新規,0,2022-05-24,2022-05-24,株式会社クラウリーク,,株式会社,大阪府,大阪市中央区,玉造２丁目１６－１３櫻ビル２階３号,,27,128,5400004,,,,,,,2022-05-24,1,,,,,クラウリーク,0
1362,5120003021737,新規,0,2022-05-24,2022-05-24,合同会社神戸電光社,,合同会社,大阪府,大阪市中央区,久太郎町１丁目９番４号,,27,128,5410056,,,,,,,2022-05-24,1,,,,,コウベデンコウシャ,0
1364,5120005022964,新規,0,2022-05-24,2022-05-24,一般社団法人ＮＹ,,その他の設立登記法人,大阪府,大阪市港区,弁天１丁目２番３０－３９０５号,,27,107,5520007,,,,,,,2022-05-24,1,,,,,エヌワイ,0
1367,5120103004708,新規,0,2022-05-24,2022-05-24,オリーブ合同会社,,合同会社,大阪府,泉大津市,森町２丁目４番１４号,,27,206,5950005,,,,,,,2022-05-24,1,,,,,オリーブ,0
1371,5120901046001,新規,0,2022-05-24,2022-05-24,株式会社Ｍｅｄｉ　Ｇｒａｃｅ,,株式会社,大阪府,豊中市,本町２丁目４－１４豊中本町ＭＫビル１０１,,27,203,5600021,,,,,,,2022-05-24,1,,,,,メディグレイス,0
1372,5120903004155,新規,0,2022-05-24,2022-05-24,合同会社ＫＡＫＵＭＡＥ,,合同会社,大阪府,吹田市,岸部北３丁目１１番２０号,,27,205,5640001,,,,,,,2022-05-24,1,,,,,カクマエ,0
1385,5150001025571,新規,0,2022-05-24,2022-05-24,株式会社ＰＬＡＹＥＲＳ,,株式会社,奈良県,奈良市,杏町２６６番地,,29,201,6308454,,,,,,,2022-05-24,1,,,,,プレイヤーズ,0
1391,5170001017113,新規,0,2022-05-24,2022-05-24,株式会社オザキ試錐,,株式会社,和歌山県,和歌山市,園部１１４８番地１,,30,201,6408483,,,,,,,2022-05-24,1,,,,,オザキシスイ,0
1392,5170003001726,新規,0,2022-05-24,2022-05-24,Ｚｅｕｓ合同会社,,合同会社,和歌山県,和歌山市,今福１丁目１番９号,,30,201,6410044,,,,,,,2022-05-24,1,,,,,ゼウス,0
1395,5180001151398,新規,0,2022-05-24,2022-05-24,株式会社あさひ薬局,,株式会社,愛知県,一宮市,中町１丁目３番１号,,23,203,4910913,,,,,,,2022-05-24,1,,,,,アサヒヤッキョク,0
1396,5180001151415,新規,0,2022-05-24,2022-05-24,Ｃｈａｌｌｅｎｇｅｄ　Ｆｏｒｅｓｔ株式会社,,株式会社,愛知県,春日井市,瑞穂通１丁目１７８番地１,,23,206,4860845,,,,,,,2022-05-24,1,,,,,チャレンジドフォレスト,0
1400,5190001029429,新規,0,2022-05-24,2022-05-24,株式会社ＮＶＡ,,株式会社,三重県,松阪市,白粉町３９２番地,,24,204,5150076,,,,,,,2022-05-24,1,,,,,エヌブイエー,0
1405,5220001024863,新規,0,2022-05-24,2022-05-24,株式会社双雄,,株式会社,石川県,かほく市,横山井２１番地１１,,17,209,9291105,,,,,,,2022-05-24,1,,,,,ソウユウ,0
1408,5230001019367,新規,0,2022-05-24,2022-05-24,株式会社バースライン,,株式会社,富山県,富山市,稲荷元町１丁目７番２２－１,,16,201,9300010,,,,,,,2022-05-24,1,,,,,バースライン,0
1422,5290001097606,新規,0,2022-05-24,2022-05-24,株式会社Ｐｌｕｓ　Ｌ,,株式会社,福岡県,福岡市博多区,博多駅東３丁目９番３号,,40,132,8120013,,,,,,,2022-05-24,1,,,,,プラスエル,0
1423,5290001097614,新規,0,2022-05-24,2022-05-24,株式会社水城興業,,株式会社,福岡県,福岡市南区,三宅１丁目２７番８号,,40,134,8111344,,,,,,,2022-05-24,1,,,,,ミズシロコウギョウ,0
1424,5290001097630,新規,0,2022-05-24,2022-05-24,ＡＢＣ株式会社,,株式会社,福岡県,久留米市,六ツ門町７番地２４ライオンズ六ツ門サンリヤンタワー１２０６号,,40,203,8300031,,,,,,,2022-05-24,1,,,,,エービーシー,0
1425,5290001097639,新規,0,2022-05-24,2022-05-24,株式会社しのわ,,株式会社,福岡県,久留米市,東櫛原町１１８５－２,,40,203,8300003,,,,,,,2022-05-24,1,,,,,シノワ,0
1427,5290003012455,新規,0,2022-05-24,2022-05-24,合同会社ＧＯＴＯストア,,合同会社,福岡県,宗像市,平井１丁目３－１９,,40,220,8113430,,,,,,,2022-05-24,1,,,,,ゴトウストア,0
1428,5290003012538,新規,0,2022-05-24,2022-05-24,ＤＡＲＥ合同会社,,合同会社,福岡県,糟屋郡篠栗町,大字尾仲４０９番地４サンパラッツォ篠栗３０５号,,40,342,8112413,,,,,,,2022-05-24,1,,,,,ダーレ,0
1433,5290801028553,新規,0,2022-05-24,2022-05-24,株式会社ＯＫＡＫＯ,,株式会社,福岡県,田川市,千代町１番９号,,40,206,8260031,,,,,,,2022-05-24,1,,,,,オカコ,0
1434,5300003001844,新規,0,2022-05-24,2022-05-24,合同会社るな,,合同会社,佐賀県,佐賀市,大和町尼寺１３１８番地,,41,201,8490000,,,,,,,2022-05-24,1,,,,,ルナ,0
1435,5310001017866,新規,0,2022-05-24,2022-05-24,株式会社ＢＬＵＥ．ＭＯＵＮＴＡＩＮ,,株式会社,長崎県,大村市,本町４４４番地,,42,205,8560832,,,,,,,2022-05-24,1,,,,,ブルーマウンテン,0
1439,5320001019085,新規,0,2022-05-24,2022-05-24,株式会社グレカーレ,,株式会社,大分県,速見郡日出町,大字豊岡２７９番地１,,44,341,8791507,,,,,,,2022-05-24,1,,,,,グレカーレ,0
1441,5350001017747,新規,0,2022-05-24,2022-05-24,アグリモチナガ株式会社,,株式会社,宮崎県,都城市,早鈴町２１５０番地１４,,45,202,8850055,,,,,,,2022-05-24,1,,,,,アグリモチナガ,0
1446,5360003012010,新規,0,2022-05-24,2022-05-24,合同会社なみき,,合同会社,沖縄県,国頭郡今帰仁村,字今泊１６４番地,,47,306,9050428,,,,,,,2022-05-24,1,,,,,,0
1450,5370003005707,新規,0,2022-05-24,2022-05-24,合同会社ＨＯＭＩＥＳ,,合同会社,宮城県,仙台市泉区,泉ケ丘３丁目２０－３５,,04,105,9813201,,,,,,,2022-05-24,1,,,,,ホーミーズ,0
1452,5380001032826,新規,0,2022-05-24,2022-05-24,株式会社ＳＳＲ,,株式会社,福島県,福島市,鎌田字町２１番地,,07,201,9600102,,,,,,,2022-05-24,1,,,,,エスエスアール,0
1453,5380001032834,新規,0,2022-05-24,2022-05-24,株式会社オオタカ,,株式会社,福島県,いわき市,平赤井字反町２２番地の４,,07,204,9793131,,,,,,,2022-05-24,1,,,,,オオタカ,0
1470,5470001019087,新規,0,2022-05-24,2022-05-24,株式会社玉井オート,,株式会社,香川県,高松市,亀田南町５４６番地２,,37,201,7610432,,,,,,,2022-05-24,1,,,,,タマイオート,0
1474,5490005006848,新規,0,2022-05-24,2022-05-24,一般社団法人本山未来協議会,,その他の設立登記法人,高知県,長岡郡本山町,大石１８２２番地１,,39,341,7813602,,,,,,,2022-05-24,1,,,,,モトヤマミライキョウギカイ,0
1478,5500001024224,新規,0,2022-05-24,2022-05-24,株式会社ＨＣＳ,,株式会社,愛媛県,西条市,大町１４４１番地４,,38,206,7930030,,,,,,,2022-05-24,1,,,,,エイチシーエス,0
1480,5500005008495,新規,0,2022-05-24,2022-05-24,一般社団法人愛媛シルク,,その他の設立登記法人,愛媛県,松山市,大街道３丁目２番８号,,38,201,7900004,,,,,,,2022-05-24,1,,,,,,0
1481,5700150048557,新規,0,2022-05-24,2015-10-09,愛岐カントリークラブ,,その他,岐阜県,可児市,大森１５０１,,21,214,5090238,,,,,,,2015-10-09,1,,,,,アイギカントリークラブ,0
1482,5700150108947,新規,0,2022-05-24,2022-05-24,今野雄二相続財産管理人前田大輔,,その他,宮城県,仙台市青葉区,大町１丁目２番１号ライオンビル５階,,04,101,9800804,,,,,,,2022-05-24,1,,,,,コンノユウジソウゾクザイサンカンリニンマエダダイスケ,0
1489,6010001226678,新規,0,2022-05-24,2022-05-24,エネルギー・リサーチ・アンド・テクノロジー株式会社,,株式会社,東京都,中央区,日本橋浜町３丁目３番地１号,,13,102,1030007,,,,,,,2022-05-24,1,,,,,エネルギーリサーチアンドテクノロジー,0
1490,6010001226793,新規,0,2022-05-24,2022-05-24,ベスティングループ株式会社,,株式会社,東京都,中央区,日本橋室町１丁目２番６号,,13,102,1030022,,,,,,,2022-05-24,1,,,,,ベスティングループ,0
1491,6010001226819,新規,0,2022-05-24,2022-05-24,ＭＥＮＩＡ株式会社,,株式会社,東京都,千代田区,神田須田町１丁目１４番地１ヒューリック神田須田町ビル１階,,13,101,1010041,,,,,,,2022-05-24,1,,,,,メニア,0
1498,6010003037702,新規,0,2022-05-24,2022-05-24,ＭＫＭ合同会社,,合同会社,東京都,文京区,水道２丁目３－２５今泉ビル１Ｆ,,13,105,1120005,,,,,,,2022-05-24,1,,,,,エムケーエム,0
1499,6010003037735,新規,0,2022-05-24,2022-05-24,合同会社グッドルーティンカンパニー,,合同会社,東京都,中央区,明石町５番１２－９１２号,,13,102,1040044,,,,,,,2022-05-24,1,,,,,グッドルーティンカンパニー,0
1500,6010005035051,新規,0,2022-05-24,2022-05-24,オーク名古屋特定目的会社,,その他の設立登記法人,東京都,千代田区,内神田２丁目２番６号５階あすな会計事務所内,,13,101,1010047,,,,,,,2022-05-24,1,,,,,オークナゴヤ,0
1511,6010403027708,新規,0,2022-05-24,2022-05-24,合同会社Ｕｎｉｃｏｒｎ,,合同会社,東京都,港区,虎ノ門５丁目１番４号,,13,103,1050001,,,,,,,2022-05-24,1,,,,,ユニコーン,0
1513,6010801032986,新規,0,2022-05-24,2022-05-24,株式会社ＫＪコンサルティング,,株式会社,東京都,大田区,東雪谷２丁目２３番７号,,13,111,1450065,,,,,,,2022-05-24,1,,,,,ケージェイコンサルティング,0
1514,6010805002944,新規,0,2022-05-24,2022-05-24,一般社団法人リーダーシップ研究開発機構,,その他の設立登記法人,東京都,大田区,南雪谷４丁目２番５号,,13,111,1450066,,,,,,,2022-05-24,1,,,,,リーダーシップケンキュウカイハツキコウ,0
1543,6011501028052,新規,0,2022-05-24,2022-05-24,株式会社ＦＥＲＮＡ,,株式会社,東京都,荒川区,西尾久１丁目１７－１２,,13,118,1160011,,,,,,,2022-05-24,1,,,,,フェルーナ,0
1547,6011601025973,新規,0,2022-05-24,2022-05-24,株式会社人材活躍工房,,株式会社,東京都,練馬区,豊玉北６丁目１３番１８号,,13,120,1760012,,,,,,,2022-05-24,1,,,,,ジンザイカツヤクコウボウ,0
1548,6011603003606,新規,0,2022-05-24,2022-05-24,合同会社Ｌｅｙ‐ｌｉｎｅ,,合同会社,東京都,練馬区,東大泉４丁目２８番１号コーポシュワ２０３号室,,13,120,1780063,,,,,,,2022-05-24,1,,,,,レイライン,0
1550,6011701025320,新規,0,2022-05-24,2022-05-24,株式会社Ｎｕ,,株式会社,東京都,江戸川区,鹿骨１丁目５２番５号フラワーキャッスルＩＩ２０３,00126629,13,123,1330073,,,,,,,2022-05-24,1,,,,,ヌゥ,0
1553,6011801040756,新規,0,2022-05-24,2022-05-24,東陽ソフト株式会社,,株式会社,東京都,葛飾区,東立石４丁目３番４号,,13,122,1240013,,,,,,,2022-05-24,1,,,,,トウヨウソフト,0
1555,6012301012997,新規,0,2022-05-24,2022-05-24,株式会社ＴＢＤＥ,,株式会社,東京都,町田市,玉川学園３丁目３６－１３,,13,209,1940041,,,,,,,2022-05-24,1,,,,,タビデ,0
1560,6012801021580,新規,0,2022-05-24,2022-05-24,株式会社みうみ,,株式会社,東京都,昭島市,拝島町３丁目５番２１号,,13,207,1960002,,,,,,,2022-05-24,1,,,,,ミウミ,0
1561,6012801021589,新規,0,2022-05-24,2022-05-24,株式会社ＭＡＮＹＯＤＯ,,株式会社,東京都,国分寺市,本多４丁目１番１４号,,13,214,1850011,,,,,,,2022-05-24,1,,,,,マンヨードー,0
1562,6012803002785,新規,0,2022-05-24,2022-05-24,合同会社ＳＩＴＩＨＵＫＵＲＯ,,合同会社,東京都,国立市,富士見台２丁目２５番地の３０,,13,215,1860003,,,,,,,2022-05-24,1,,,,,シチフクロ,0
1579,6020003021795,新規,0,2022-05-24,2022-05-24,合同会社結ノ華,,合同会社,神奈川県,川崎市高津区,梶ケ谷２丁目４番地２梶ヶ谷住宅４０３,,14,134,2130015,,,,,,,2022-05-24,1,,,,,ユイノハナ,0
1582,6021001076030,新規,0,2022-05-24,2022-05-24,株式会社ＡＮＩＭＯ　ＪＡＰＡＮ,,株式会社,神奈川県,藤沢市,鵠沼橘１丁目１７番１３号ザ・フジサワツインビル３階Ｄ室,,14,205,2510024,,,,,,,2022-05-24,1,,,,,アニモジャパン,0
1583,6021001076039,新規,0,2022-05-24,2022-05-24,キンクス株式会社,,株式会社,神奈川県,足柄上郡大井町,金手１１７番３,,14,362,2580018,,,,,,,2022-05-24,1,,,,,キンクス,0
1584,6021001076047,新規,0,2022-05-24,2022-05-24,株式会社ＤＩＣＥ,,株式会社,神奈川県,鎌倉市,扇ガ谷３丁目１番１号,,14,204,2480011,,,,,,,2022-05-24,1,,,,,ダイス,0
1590,6030003019467,新規,0,2022-05-24,2022-05-24,合同会社みどり寝台サービス,,合同会社,埼玉県,さいたま市桜区,中島４丁目１３番２１号,,11,106,3380822,,,,,,,2022-05-24,1,,,,,ミドリシンダイサービス,0
1598,6040001123492,新規,0,2022-05-24,2022-05-24,株式会社相川ケアステーション,,株式会社,千葉県,市原市,五井中央東２丁目２３番地１５,,12,219,2900054,,,,,,,2022-05-24,1,,,,,アイカワケアステーション,0
1608,6060001034903,新規,0,2022-05-24,2022-05-24,株式会社砥上建設,,株式会社,栃木県,宇都宮市,下砥上町５４５番地４,,09,201,3200852,,,,,,,2022-05-24,1,,,,,トカミケンセツ,0
1619,6080003002798,新規,0,2022-05-24,2022-05-24,合同会社Ｓ＆Ｐソリューションズ,,合同会社,静岡県,静岡市葵区,西瀬名町２４番４１号,,22,101,4200914,,,,,,,2022-05-24,1,,,,,エスアンドピーソリューションズ,0
1620,6080005007457,新規,0,2022-05-24,2022-05-24,一般社団法人シアター・クラウン・ジャパン,,その他の設立登記法人,静岡県,静岡市葵区,呉服町２丁目４番地の６,,22,101,4200031,,,,,,,2022-05-24,1,,,,,シアタークラウンジャパン,0
1624,6090001017582,新規,0,2022-05-24,2022-05-24,株式会社三科電気工事,,株式会社,山梨県,笛吹市,石和町井戸１３１番地１,,19,211,4060045,,,,,,,2022-05-24,1,,,,,ミシナデンキコウジ,0
1627,6110003004766,新規,0,2022-05-24,2022-05-24,合同会社ＫＮＲファクトリー,,合同会社,新潟県,新潟市中央区,天神１丁目１番地プラーカ３,,15,103,9500917,,,,,,,2022-05-24,1,,,,,ケーエヌアールファクトリー,0
1634,6120001246038,新規,0,2022-05-24,2022-05-24,株式会社Ｈｉｇｈ　Ｌｕｃｋ　Ｅａｒｔｈ　ＨＤ,,株式会社,大阪府,大阪市東成区,中本５丁目１１番２７号,,27,115,5370022,,,,,,,2022-05-24,1,,,,,ハイラックアースホールディングス,0
1635,6120001246054,新規,0,2022-05-24,2022-05-24,株式会社Ｓ‐ＳＹＳＴＥＭ,,株式会社,大阪府,寝屋川市,萱島東１丁目１７番１７－５０１号,,27,215,5720824,,,,,,,2022-05-24,1,,,,,エスシステム,0
1636,6120001246079,新規,0,2022-05-24,2022-05-24,神戸栄養ラボ株式会社,,株式会社,大阪府,大阪市北区,梅田１丁目１番３号大阪駅前第３ビル２５階,,27,127,5300001,,,,,,,2022-05-24,1,,,,,コウベエイヨウラボ,0
1637,6120001246087,新規,0,2022-05-24,2022-05-24,株式会社英和,,株式会社,大阪府,大阪市中央区,淡路町２丁目１－１０ユニ船場ビル１００３,,27,128,5410047,,,,,,,2022-05-24,1,,,,,エイワ,0
1640,6120003021728,新規,0,2022-05-24,2022-05-24,合同会社Ｐ２Ｃ　Ｐｒｏｄｕｃｅ,,合同会社,大阪府,大阪市北区,梅田２丁目５番１３号桜橋第一ビル３０４号,,27,127,5300001,,,,,,,2022-05-24,1,,,,,ピーツーシープロデユース,0
1641,6120003021736,新規,0,2022-05-24,2022-05-24,合同会社あおやま,,合同会社,大阪府,大阪市中央区,久太郎町１丁目９番４号,,27,128,5410056,,,,,,,2022-05-24,1,,,,,アオヤマ,0
1645,6120103004707,新規,0,2022-05-24,2022-05-24,合同会社バレンティア,,合同会社,大阪府,松原市,天美東１丁目５番２号,,27,217,5800032,,,,,,,2022-05-24,1,,,,,バレンティア,0
1646,6122001035882,新規,0,2022-05-24,2022-05-24,ｉｄｅｍｏ株式会社,,株式会社,大阪府,八尾市,八尾木北２丁目１１３番４号,,27,212,5810016,,,,,,,2022-05-24,1,,,,,アイデモ,0
1665,6140001126097,新規,0,2022-05-24,2022-05-24,株式会社はっこう,,株式会社,兵庫県,加古川市,尾上町口里７５３－１３,,28,210,6750022,,,,,,,2022-05-24,1,,,,,ハッコウ,0
1666,6140001126106,新規,0,2022-05-24,2022-05-24,株式会社ファンブリッジ,,株式会社,兵庫県,神戸市灘区,福住通６丁目３番６号,,28,102,6570824,,,,,,,2022-05-24,1,,,,,ファンブリッジ,0
1670,6150001025562,新規,0,2022-05-24,2022-05-24,株式会社阪野農園,,株式会社,奈良県,生駒郡平群町,大字福貴１０４９番地７５,,29,342,6360936,,,,,,,2022-05-24,1,,,,,,0
1671,6150001025570,新規,0,2022-05-24,2022-05-24,株式会社ＮＫ　ＢＵＩＬＤ,,株式会社,奈良県,北葛城郡上牧町,大字上牧３４２３番地１クリエイトプラザ２－１－２Ｆ,,29,424,6390214,,,,,,,2022-05-24,1,,,,,エヌケイビルド,0
1676,6170001017120,新規,0,2022-05-24,2022-05-24,株式会社いけぶん,,株式会社,和歌山県,和歌山市,新大工町１番地,,30,201,6408372,,,,,,,2022-05-24,1,,,,,イケブン,0
1682,6180301036257,新規,0,2022-05-24,2022-05-24,株式会社ビーンズサービス,,株式会社,愛知県,岡崎市,保母町字伊賀山屋敷３番地２,,23,202,4440004,,,,,,,2022-05-24,1,,,,,ビーンズサービス,0
1689,6230001019374,新規,0,2022-05-24,2022-05-24,株式会社Ｌ・Ａ　Ｃｏｒｐｏｒａｔｉｏｎ,,株式会社,富山県,射水市,本江中新１５５番地,,16,211,9330247,,,,,,,2022-05-24,1,,,,,エルエーコーポレーション,0
1700,6250001019579,新規,0,2022-05-24,2022-05-24,株式会社雄善フーズ,,株式会社,山口県,防府市,大字仁井令８５４番地の３,,35,206,7470845,,,,,,,2022-05-24,1,,,,,ユウゼンフーズ,0
1702,6260001036862,新規,0,2022-05-24,2022-05-24,株式会社Ｍｙｓｅｌｆ,,株式会社,岡山県,倉敷市,老松町２丁目３番１４－１４０１号,,33,202,7100826,,,,,,,2022-05-24,1,,,,,マイセルフ,0
1711,6290001097588,新規,0,2022-05-24,2022-05-24,株式会社Ｆ,,株式会社,福岡県,福岡市西区,姪の浜１丁目２３番２１号,,40,135,8190002,,,,,,,2022-05-24,1,,,,,エフ,0
1712,6290001097621,新規,0,2022-05-24,2022-05-24,株式会社Ａｒｔ　Ｃｏｏｋ,,株式会社,福岡県,福岡市早良区,西新５丁目８－２６リバーケープビル３Ｆ,,40,137,8140002,,,,,,,2022-05-24,1,,,,,アートクック,0
1715,6290801028552,新規,0,2022-05-24,2022-05-24,株式会社エクストラパートナー,,株式会社,福岡県,北九州市小倉南区,長尾４丁目３２番９号,,40,107,8030274,,,,,,,2022-05-24,1,,,,,エクストラパートナー,0
1727,6360003012026,新規,0,2022-05-24,2022-05-24,合同会社ｃａｐｅｌｌａ,,合同会社,沖縄県,沖縄市,比屋根６丁目１６番６号,,47,211,9042173,,,,,,,2022-05-24,1,,,,,カピラ,0
1729,6370001048582,新規,0,2022-05-24,2022-05-24,株式会社ｍｅｇｕｒｕ,,株式会社,宮城県,仙台市青葉区,二日町１７－２２ＴＮＥＲ３１９,,04,101,9800802,,,,,,,2022-05-24,1,,,,,メグル,0
1731,6370003005706,新規,0,2022-05-24,2022-05-24,合同会社ｂ‐ｒｉｇｈｔ　ｓｙｍｐｈｏｎｙ,,合同会社,宮城県,気仙沼市,百目木２６番地１,,04,205,9880826,,,,,,,2022-05-24,1,,,,,ビーライトシンフォニー,0
1733,6380001032833,新規,0,2022-05-24,2022-05-24,株式会社ＤＲＥＡＭＦＡＣＴＯＲＹ,,株式会社,福島県,伊達市,荒町３番地１,,07,213,9600423,,,,,,,2022-05-24,1,,,,,ドリームファクトリー,0
1734,6390001016901,新規,0,2022-05-24,2022-05-24,ＧＴウッドリサイクル米沢株式会社,,株式会社,山形県,米沢市,直江石堤１８７０１番地１,,06,202,9921446,,,,,,,2022-05-24,1,,,,,ジーティーウッドリサイクルヨネザワ,0
1737,6410003003655,新規,0,2022-05-24,2022-05-24,アシストパートナーズ合同会社,,合同会社,秋田県,秋田市,中通１丁目１番３３－２０２号,,05,201,0100001,,,,,,,2022-05-24,1,,,,,アシストパートナーズ,0
1742,6430001086709,新規,0,2022-05-24,2022-05-24,株式会社ココピアワークス札幌,,株式会社,北海道,札幌市中央区,南一条西１６丁目１番地３２３春野ビル３Ｆ,,01,101,0600061,,,,,,,2022-05-24,1,,,,,ココピアワークスサッポロ,0
1748,6460103001455,新規,0,2022-05-24,2022-05-24,Ｎｅｘｓｔａｒ合同会社,,合同会社,北海道,帯広市,東十条南１６丁目１番地８,,01,207,0800810,,,,,,,2022-05-24,1,,,,,ネクスター,0
1751,6470001019086,新規,0,2022-05-24,2022-05-24,株式会社ＰＲＥＧＯ,,株式会社,香川県,三豊市,詫間町松崎２８１７番地１１,,37,208,7691102,,,,,,,2022-05-24,1,,,,,プレゴ,0
1752,6470003002189,新規,0,2022-05-24,2022-05-24,合同会社Ｔ＆Ｋ社会福祉士事務所,,合同会社,香川県,高松市,新田町甲８７９番地,,37,201,7610102,,,,,,,2022-05-24,1,,,,,ティーアンドケイシャカイフクシシジムショ,0
1753,6480003001834,新規,0,2022-05-24,2022-05-24,エコスト合同会社,,合同会社,徳島県,鳴門市,鳴門町高島字浜中１０７番地１３,,36,202,7720051,,,,,,,2022-05-24,1,,,,,エコスト,0
1755,6500003002838,新規,0,2022-05-24,2022-05-24,Ｃｒｅａｒ合同会社,,合同会社,愛媛県,松山市,来住町１１９１番地１－２－Ｂ,,38,201,7911102,,,,,,,2022-05-24,1,,,,,クレアール,0
1761,6700150108962,新規,0,2022-05-24,2022-05-24,ＹＯＵＪＵＫＵ　ＩＮＴＥＲＮＡＴＩＯＮＡＬ　ＩＮＣ．,,外国会社等,東京都,渋谷区,道玄坂１丁目１０－８渋谷道玄坂東急ビル２Ｆ－Ｃ,,13,113,1500043,アメリカ合衆国テキサス州フリスコ市ストーンブルックパークウェイ８２００スイート１０８,,,,,,2022-05-24,1,,,,,ユウジユクインターナシヨナルインク,0
1772,7010001226735,新規,0,2022-05-24,2022-05-24,ムームージャパン株式会社,,株式会社,東京都,中央区,日本橋室町１丁目２番６号日本橋大栄ビル７階,,13,102,1030022,,,,,,,2022-05-24,1,,,,,ムームージャパン,0
1773,7010001226792,新規,0,2022-05-24,2022-05-24,ＤａｔａＳｏｆｔ　ＮＥＸＴ　Ｊａｐａｎ株式会社,,株式会社,東京都,千代田区,九段北１丁目７番３号昭栄ビル５階,,13,101,1020073,,,,,,,2022-05-24,1,,,,,データソフトネクストジャパン,0
1774,7010001226818,新規,0,2022-05-24,2022-05-24,Ｃｒｅｓｃｅｎｔ株式会社,,株式会社,東京都,千代田区,富士見１丁目３番１１号富士見デュープレックスＢ’ｓ４Ｆ,,13,101,1020071,,,,,,,2022-05-24,1,,,,,クレッセント,0
1786,7010401167488,新規,0,2022-05-24,2022-05-24,株式会社奥山ホールディングス,,株式会社,東京都,港区,芝浦１丁目１３番１０号第３東運ビル３Ｆ,,13,103,1050023,,,,,,,2022-05-24,1,,,,,オクヤマホールディングス,0
1789,7010403027707,新規,0,2022-05-24,2022-05-24,合同会社神谷町インベストメント２０号,,合同会社,東京都,港区,虎ノ門５丁目１番４号,,13,103,1050001,,,,,,,2022-05-24,1,,,,,カミヤチョウインベストメントニジュウゴウ,0
1790,7010405020998,新規,0,2022-05-24,2022-05-24,一般社団法人ＨＯＰＥ医療福祉支援協会,,その他の設立登記法人,東京都,港区,赤坂４丁目８番１９号赤坂フロントタウン３階,,13,103,1070052,,,,,,,2022-05-24,1,,,,,ホープイリョウフクシシエンキョウカイ,0
1791,7010405021039,新規,0,2022-05-24,2022-05-24,一般社団法人Ｐｅｎｉｎｓｕｌａ４,,その他の設立登記法人,東京都,港区,虎ノ門５丁目１番４号,,13,103,1050001,,,,,,,2022-05-24,1,,,,,ペニンシュラフォー,0
1797,7010601061193,新規,0,2022-05-24,2022-05-24,株式会社ＤＥＵＢＯＵＲ,,株式会社,東京都,江東区,東陽１丁目２１番２号,,13,108,1350016,,,,,,,2022-05-24,1,,,,,デューボア,0
1799,7010801032985,新規,0,2022-05-24,2022-05-24,株式会社Ｎ‐Ｒｅｐａｉｒ,,株式会社,東京都,大田区,蒲田２丁目１番８号メゾンドサカエ２０６,,13,111,1440052,,,,,,,2022-05-24,1,,,,,エヌリペア,0
1809,7011205002492,新規,0,2022-05-24,2022-05-24,ＮＰＯ法人ＡＬＢＡ,,その他の設立登記法人,東京都,中野区,上鷺宮５丁目２３番１０号,,13,114,1650031,,,,,,,2022-05-24,1,,,,,アルバ,0
1811,7011403003672,新規,0,2022-05-24,2022-05-24,合同会社ＲＥＸ．１,,合同会社,東京都,板橋区,前野町３丁目１８番１号ファーストヴィレッジ１０４号室,,13,119,1740063,,,,,,,2022-05-24,1,,,,,レックスワン,0
1812,7011501028068,新規,0,2022-05-24,2022-05-24,株式会社Ｐｒｏｇｒｅｓｓ,,株式会社,東京都,荒川区,町屋１丁目５番６号,,13,118,1160001,,,,,,,2022-05-24,1,,,,,プログレス,0
1815,7011801040755,新規,0,2022-05-24,2022-05-24,Ｚｅｎ　Ｈｏｉ株式会社,,株式会社,東京都,葛飾区,高砂６丁目１３番２０号,,13,122,1250054,,,,,,,2022-05-24,1,,,,,ゼンホイ,0
1830,7020001146585,新規,0,2022-05-24,2022-05-24,クロノスエージェント株式会社,,株式会社,神奈川県,川崎市中原区,上小田中６丁目３７番９号,,14,133,2110053,,,,,,,2022-05-24,1,,,,,クロノスエージェント,0
1836,7021001076021,新規,0,2022-05-24,2022-05-24,株式会社志,,株式会社,神奈川県,相模原市南区,東林間５丁目３番３号,,14,153,2520311,,,,,,,2022-05-24,1,,,,,ココロザシ,0
1837,7021001076038,新規,0,2022-05-24,2022-05-24,株式会社Ｌｉｂｅｒａｔａ,,株式会社,神奈川県,鎌倉市,御成町１１番１７号,,14,204,2480012,,,,,,,2022-05-24,1,,,,,リベラータ,0
1838,7021003011736,新規,0,2022-05-24,2022-05-24,合同会社ＬＤ,,合同会社,神奈川県,相模原市南区,相武台２丁目２２番５号,,14,153,2520324,,,,,,,2022-05-24,1,,,,,エルディー,0
1842,7030001148317,新規,0,2022-05-24,2022-05-24,ＭＢ株式会社,,株式会社,埼玉県,坂戸市,千代田４丁目６番２６号,,11,239,3500214,,,,,,,2022-05-24,1,,,,,エムビー,0
1843,7030001148341,新規,0,2022-05-24,2022-05-24,ＭＡＴＴ株式会社,,株式会社,埼玉県,さいたま市見沼区,大字南中野９０７－２,,11,104,3370042,,,,,,,2022-05-24,1,,,,,マット,0
1848,7040001123525,新規,0,2022-05-24,2022-05-24,丸新株式会社,,株式会社,千葉県,千葉市花見川区,大日町１２８２番地,,12,102,2620004,,,,,,,2022-05-24,1,,,,,マルシン,0
1854,7040003020084,新規,0,2022-05-24,2022-05-24,ＲＡＳＯＮＡ合同会社,,合同会社,千葉県,市川市,市川南１丁目７番２３－１０３号,,12,203,2720033,,,,,,,2022-05-24,1,,,,,ラソナ,0
1855,7050001051114,新規,0,2022-05-24,2022-05-24,株式会社トク,,株式会社,茨城県,日立市,大沼町１丁目６番７号,,08,202,3160022,,,,,,,2022-05-24,1,,,,,トク,0
1861,7060003004077,新規,0,2022-05-24,2022-05-24,合同会社とちぎスポーツ振興センター,,合同会社,栃木県,宇都宮市,緑５丁目９番２４号レオパレスグリーンリーフ１０６号室,,09,201,3210165,,,,,,,2022-05-24,1,,,,,トチギスポーツシンコウセンター,0
1865,7070001039256,新規,0,2022-05-24,2022-05-24,株式会社エムズワークス,,株式会社,群馬県,渋川市,吹屋６１３番地２３,,10,208,3770203,,,,,,,2022-05-24,1,,,,,エムズワークス,0
1870,7080403004542,新規,0,2022-05-24,2022-05-24,合同会社大場組,,合同会社,静岡県,磐田市,一言３１７０番地,,22,211,4380811,,,,,,,2022-05-24,1,,,,,オオバグミ,0
1872,7100001035350,新規,0,2022-05-24,2022-05-24,株式会社ＵｐＳｔａｇｅ８８,,株式会社,長野県,駒ヶ根市,下市場３６番１７号,,20,210,3994108,,,,,,,2022-05-24,1,,,,,アップステージワロワロ,0
1875,7100003006556,新規,0,2022-05-24,2022-05-24,ＰＨＯ　ＮＡＭ合同会社,,合同会社,長野県,松本市,大手４丁目１２番９号Ｋ・Ｉビル１０４号,,20,202,3900874,,,,,,,2022-05-24,1,,,,,フォーナム,0
1877,7110001036661,新規,0,2022-05-24,2022-05-24,株式会社中田製作所,,株式会社,新潟県,五泉市,三本木字早出３０２６番地,,15,218,9591811,,,,,,,2022-05-24,1,,,,,ナカダセイサクショ,0
1891,7120001245922,新規,0,2022-05-24,2022-05-24,株式会社ヴェガテック,,株式会社,大阪府,大阪市北区,天満２丁目１－１２,,27,127,5300043,,,,,,,2022-05-24,1,,,,,ヴェガテック,0
1892,7120001246037,新規,0,2022-05-24,2022-05-24,株式会社ごちそうさん,,株式会社,大阪府,大阪市北区,本庄東１丁目１番１０号,,27,127,5310074,,,,,,,2022-05-24,1,,,,,ゴチソウサン,0
1893,7120001246053,新規,0,2022-05-24,2022-05-24,カランクリエート株式会社,,株式会社,大阪府,大阪市西区,新町２丁目１２番４号,,27,106,5500013,,,,,,,2022-05-24,1,,,,,カランクリエート,0
1894,7120001246086,新規,0,2022-05-24,2022-05-24,株式会社Ｋｉｎｇｓ,,株式会社,大阪府,大阪市西区,江之子島１丁目７－３奥内阿波座駅前ビル５０３,,27,106,5500006,,,,,,,2022-05-24,1,,,,,キングス,0
1895,7120001246094,新規,0,2022-05-24,2022-05-24,大野株式会社,,株式会社,大阪府,大阪市淀川区,西宮原１丁目７番４－１００７号,,27,123,5320004,,,,,,,2022-05-24,1,,,,,オオノ,0
1903,7120003021636,新規,0,2022-05-24,2022-05-24,合同会社ポレ・オーガニック,,合同会社,大阪府,大阪市北区,中津３丁目８番１３号,,27,127,5310071,,,,,,,2022-05-24,1,,,,,ポレオーガニック,0
1904,7120003021735,新規,0,2022-05-24,2022-05-24,合同会社青山鉄筋工業壱,,合同会社,大阪府,大阪市中央区,久太郎町１丁目９番４号,,27,128,5410056,,,,,,,2022-05-24,1,,,,,アオヤマテッキンコウギョウイチ,0
1907,7120101065626,新規,0,2022-05-24,2022-05-24,株式会社Ｓｍａｒｔｒａｄｅ　Ｊａｐａｎ,,株式会社,大阪府,堺市中区,深井清水町３５５６番地ムーンライト深井３－Ａ,,27,142,5998273,,,,,,,2022-05-24,1,,,,,スマートレイド,0
1914,7120901046008,新規,0,2022-05-24,2022-05-24,株式会社Ｓａｐｈａｎ,,株式会社,大阪府,高槻市,真上町５丁目８番１２号,,27,207,5691121,,,,,,,2022-05-24,1,,,,,サパーン,0
1920,7130001071814,新規,0,2022-05-24,2022-05-24,株式会社ウイングコーポレーション関西,,株式会社,京都府,京都市中京区,高倉通夷川上る福屋町７１８番地,,26,104,6040882,,,,,,,2022-05-24,1,,,,,ウイングコーポレーションカンサイ,0
1921,7130001071822,新規,0,2022-05-24,2022-05-24,株式会社桑室防災,,株式会社,京都府,宇治市,神明宮北９番地５３,,26,204,6110025,,,,,,,2022-05-24,1,,,,,クワムロボウサイ,0
1929,7140001126105,新規,0,2022-05-24,2022-05-24,淡路特機株式会社,,株式会社,兵庫県,南あわじ市,広田広田１４２番地２,,28,224,6560122,,,,,,,2022-05-24,1,,,,,アワジトッキ,0
1933,7140003017698,新規,0,2022-05-24,2022-05-24,合同会社龍と空,,合同会社,兵庫県,明石市,大久保町江井島７１３番１１号,,28,203,6740064,,,,,,,2022-05-24,1,,,,,リュウトクウ,0
1936,7140005026185,新規,0,2022-05-24,2022-05-24,一般社団法人歯科再生医療協会,,その他の設立登記法人,兵庫県,神戸市中央区,港島南町１丁目３番地１,,28,110,6500047,,,,,,,2022-05-24,1,,,,,シカサイセイイリョウキョウカイ,0
1938,7160001024224,新規,0,2022-05-24,2022-05-24,株式会社ｔ‐ｐｌｕｓ,,株式会社,滋賀県,草津市,矢橋町１７－１０,,25,206,5250066,,,,,,,2022-05-24,1,,,,,ティープラス,0
1942,7180001151421,新規,0,2022-05-24,2022-05-24,株式会社ナガエモールド,,株式会社,愛知県,瀬戸市,白岩町７９番地の１,,23,204,4801213,,,,,,,2022-05-24,1,,,,,ナガエモールド,0
1949,7180301036248,新規,0,2022-05-24,2022-05-24,株式会社モテまち,,株式会社,愛知県,豊川市,末広通２丁目４０番地,,23,207,4420029,,,,,,,2022-05-24,1,,,,,モテマチ,0
1953,7190001029427,新規,0,2022-05-24,2022-05-24,株式会社山本造園,,株式会社,三重県,津市,美里町南長野３５５番地,,24,201,5142114,,,,,,,2022-05-24,1,,,,,ヤマモトゾウエン,0
1957,7200001040084,新規,0,2022-05-24,2022-05-24,株式会社キャットストリートＨ．Ｊ．Ｔ,,株式会社,岐阜県,高山市,本町４丁目３９番地２Ｆ,,21,203,5060011,,,,,,,2022-05-24,1,,,,,キャットストリートエイチジェーティー,0
1962,7220003003285,新規,0,2022-05-24,2022-05-24,合同会社優悠,,合同会社,石川県,鳳珠郡穴水町,字川島ラの１９１番地４,,17,461,9270027,,,,,,,2022-05-24,1,,,,,ユウユウ,0
1963,7230001019365,新規,0,2022-05-24,2022-05-24,株式会社スタート,,株式会社,富山県,高岡市,野村２９３番地,,16,202,9330014,,,,,,,2022-05-24,1,,,,,スタート,0
1964,7230001019373,新規,0,2022-05-24,2022-05-24,株式会社ＳＡＫＵＲＡ,,株式会社,富山県,高岡市,駅南１丁目７番８号,,16,202,9330871,,,,,,,2022-05-24,1,,,,,サクラ,0
1969,7250001019578,新規,0,2022-05-24,2022-05-24,美祢環境開発株式会社,,株式会社,山口県,美祢市,豊田前町保々字和田３５番１,,35,213,7500604,,,,,,,2022-05-24,1,,,,,ミネカンキョウカイハツ,0
1977,7260001036861,新規,0,2022-05-24,2022-05-24,株式会社ＫＵＲＡＶＵＵ,,株式会社,岡山県,倉敷市,鶴形２丁目８－８－９０２,,33,202,7100056,,,,,,,2022-05-24,1,,,,,クラヴュー,0
1988,7290001097414,新規,0,2022-05-24,2022-05-24,株式会社Ｃｒｅａｒｅ　Ｋｏｈ’ｓ,,株式会社,福岡県,福岡市中央区,舞鶴１丁目１番８号,,40,133,8100073,,,,,,,2022-05-24,1,,,,,クレアーレコーズ,0
1989,7290001097637,新規,0,2022-05-24,2022-05-24,株式会社令和,,株式会社,福岡県,糟屋郡宇美町,宇美中央３丁目１４番１４号,,40,341,8112128,,,,,,,2022-05-24,1,,,,,レイワ,0
1992,7290003012536,新規,0,2022-05-24,2022-05-24,合同会社ヤスミン１１７,,合同会社,福岡県,福岡市城南区,東油山３丁目３１番２６号,,40,136,8140155,,,,,,,2022-05-24,1,,,,,ヤスミンイイナ,0
1993,7290005018688,新規,0,2022-05-24,2022-05-24,ＮＰＯ法人成育医療推進機構,,その他の設立登記法人,福岡県,福岡市中央区,渡辺通５丁目２３番２－４０９号,,40,133,8100004,,,,,,,2022-05-24,1,,,,,セイイクイリョウスイシンキコウ,0
1997,7320003003812,新規,0,2022-05-24,2022-05-24,合同会社ワイヤー商事,,合同会社,大分県,別府市,石垣東２丁目７－１２,,44,202,8740919,,,,,,,2022-05-24,1,,,,,ワイヤーショウジ,0
1999,7330001029759,新規,0,2022-05-24,2022-05-24,ミライズアセット株式会社,,株式会社,熊本県,熊本市中央区,下通１丁目７番１９号証券ビル５階,,43,101,8600807,,,,,,,2022-05-24,1,,,,,ミライズアセット,0
2001,7340001024742,新規,0,2022-05-24,2022-05-24,株式会社ユキタ,,株式会社,鹿児島県,奄美市,名瀬和光町１７番地７,,46,222,8940007,,,,,,,2022-05-24,1,,,,,ユキタ,0
2004,7370001048581,新規,0,2022-05-24,2022-05-24,株式会社ツートップ,,株式会社,宮城県,仙台市太白区,袋原２丁目１０番１１号,,04,104,9811102,,,,,,,2022-05-24,1,,,,,ツートップ,0
2005,7370003005705,新規,0,2022-05-24,2022-05-24,マサオキッチン合同会社,,合同会社,宮城県,仙台市泉区,高森３丁目４番地の２７,,04,105,9813203,,,,,,,2022-05-24,1,,,,,マサオキッチン,0
2010,7390001016900,新規,0,2022-05-24,2022-05-24,エス・ケイ精工株式会社,,株式会社,山形県,天童市,北久野本５丁目９番１号,,06,210,9940011,,,,,,,2022-05-24,1,,,,,エスケイセイコウ,0
2020,7430003013940,新規,0,2022-05-24,2022-05-24,合同会社佐藤装業,,合同会社,北海道,札幌市北区,新琴似一条２丁目１０番１８号,,01,102,0010901,,,,,,,2022-05-24,1,,,,,サトウソウギョウ,0
2023,7470001019085,新規,0,2022-05-24,2022-05-24,株式会社Ｓｍｉｔｈ,,株式会社,香川県,仲多度郡多度津町,大字葛原１８３６番地２,,37,404,7640028,,,,,,,2022-05-24,1,,,,,スミス,0
2025,7470003002188,新規,0,2022-05-24,2022-05-24,合同会社Ｌａｕｌｅａ,,合同会社,香川県,小豆郡小豆島町,西村甲２０２１番地１,,37,324,7614434,,,,,,,2022-05-24,1,,,,,ラウレア,0
2031,7700150108219,新規,0,2022-05-24,2022-04-21,劇団アカレンガ,,その他,大阪府,富田林市,本町８－１９,,27,214,5840093,,,,,,,2022-04-21,1,,,,,ゲキダンアカレンガ,0
2032,7700150108409,新規,0,2022-05-24,2022-04-28,グッドパニックエンタテインメント,,その他,東京都,世田谷区,喜多見４丁目１－６ハイツアユミ２０２,,13,112,1570067,,,,,,,2022-04-28,1,,,,,グツドパニツクエンタテインメント,0
2042,8010001226791,新規,0,2022-05-24,2022-05-24,株式会社北川,,株式会社,東京都,中央区,銀座２丁目１０番１１号マロニエ通り銀座館３階,,13,102,1040061,,,,,,,2022-05-24,1,,,,,キタガワ,0
2043,8010001226833,新規,0,2022-05-24,2022-05-24,株式会社ＢＢＷａｖｅ,,株式会社,東京都,中央区,新川１丁目８番１５－１４０１号,,13,102,1040033,,,,,,,2022-05-24,1,,,,,ビービーウェーブ,0
2047,8010003037733,新規,0,2022-05-24,2022-05-24,Ａｓｐｅｅｅｄ合同会社,,合同会社,東京都,中央区,銀座８丁目１０－５ＤＥＮＳＡＮビルＧ－２８３７１,,13,102,1040061,,,,,,,2022-05-24,1,,,,,アスピード,0
2062,8010401167504,新規,0,2022-05-24,2022-05-24,世達株式会社,,株式会社,東京都,港区,六本木２丁目２番１８ー１０１号,,13,103,1060032,,,,,,,2022-05-24,1,,,,,セタツ,0
2063,8010403027706,新規,0,2022-05-24,2022-05-24,合同会社神谷町インベストメント１９号,,合同会社,東京都,港区,虎ノ門５丁目１番４号,,13,103,1050001,,,,,,,2022-05-24,1,,,,,カミヤチョウインベストメントジュウキュウゴウ,0
2064,8010403027714,新規,0,2022-05-24,2022-05-24,杉合同会社,,合同会社,東京都,港区,西新橋１丁目１番１号ＥＰコンサルティングサービス内,,13,103,1050003,,,,,,,2022-05-24,1,,,,,スギ,0
2065,8010405021038,新規,0,2022-05-24,2022-05-24,一般社団法人Ｐｅｎｉｎｓｕｌａ３,,その他の設立登記法人,東京都,港区,虎ノ門５丁目１番４号,,13,103,1050001,,,,,,,2022-05-24,1,,,,,ペニンシュラスリー,0
2070,8010601061176,新規,0,2022-05-24,2022-05-24,ポケットペット株式会社,,株式会社,東京都,江東区,東陽１丁目２５番１４号,,13,108,1350016,,,,,,,2022-05-24,1,,,,,ポケットペット,0
2079,8010903007348,新規,0,2022-05-24,2022-05-24,合同会社Ｌ＆Ｔ,,合同会社,東京都,世田谷区,用賀４丁目１２－１３ヴェルディ用賀４０１,,13,112,1580097,,,,,,,2022-05-24,1,,,,,エルアンドティー,0
2089,8011001147615,新規,0,2022-05-24,2022-05-24,株式会社エスリー,,株式会社,東京都,渋谷区,富ヶ谷１丁目４４番６号２階,,13,113,1510063,,,,,,,2022-05-24,1,,,,,エスリー,0
2092,8011103011768,新規,0,2022-05-24,2022-05-24,リモデル環境合同会社,,合同会社,東京都,新宿区,西新宿６丁目１２番４号,,13,104,1600023,,,,,,,2022-05-24,1,,,,,リモデルカンキョウ,0
2094,8011401024249,新規,0,2022-05-24,2022-05-24,株式会社暇人,,株式会社,東京都,板橋区,蓮根２丁目８番１１号パルテノシア板橋３０３,,13,119,1740046,,,,,,,2022-05-24,1,,,,,ヒマンチュ,0
2099,8011503005171,新規,0,2022-05-24,2022-05-24,合同会社ＫＳＫ,,合同会社,東京都,北区,豊島４丁目７番１５号,,13,117,1140003,,,,,,,2022-05-24,1,,,,,ケーエスケー,0
2113,8012801021595,新規,0,2022-05-24,2022-05-24,株式会社丸美建材,,株式会社,東京都,立川市,一番町４丁目３番地の１１,,13,202,1900033,,,,,,,2022-05-24,1,,,,,マルミケンザイ,0
2132,8020003021785,新規,0,2022-05-24,2022-05-24,ＹＤＳＩ合同会社,,合同会社,神奈川県,横浜市神奈川区,橋本町２丁目５－３ＢＷ２１０７,,14,102,2210053,,,,,,,2022-05-24,1,,,,,ワイディーエスアイ,0
2133,8020003021802,新規,0,2022-05-24,2022-05-24,合同会社ＢＵＢＵＨＯＵＳＥ,,合同会社,神奈川県,横浜市旭区,中白根４丁目１－２－２４５,,14,112,2410004,,,,,,,2022-05-24,1,,,,,ブブハウス,0
2136,8021001076012,新規,0,2022-05-24,2022-05-24,株式会社ＪＡＭ　ＪＡＭ　ＭＩＸ,,株式会社,神奈川県,相模原市緑区,原宿１丁目１１番１１号,,14,151,2520102,,,,,,,2022-05-24,1,,,,,ジャムジャムミックス,0
2137,8021001076029,新規,0,2022-05-24,2022-05-24,鳥居不動産株式会社,,株式会社,神奈川県,横須賀市,野比１丁目１２番１号,,14,201,2390841,,,,,,,2022-05-24,1,,,,,トリイフドウサン,0
2149,8030001148290,新規,0,2022-05-24,2022-05-24,株式会社スマイルライフ,,株式会社,埼玉県,上尾市,本町３丁目２番６号,,11,219,3620014,,,,,,,2022-05-24,1,,,,,スマイルライフ,0
2150,8030001148340,新規,0,2022-05-24,2022-05-24,株式会社Ｌｉｔ,,株式会社,埼玉県,川口市,西川口１丁目１８番１６号アズビル１Ｆ,,11,203,3320021,,,,,,,2022-05-24,1,,,,,リット,0
2155,8030003019465,新規,0,2022-05-24,2022-05-24,合同会社神縁,,合同会社,埼玉県,所沢市,西新井１９番１６号,,11,208,3590000,,,,,,,2022-05-24,1,,,,,,0
2169,8040001123524,新規,0,2022-05-24,2022-05-24,株式会社マナトランス,,株式会社,千葉県,松戸市,大金平４丁目２６２番地の６,,12,207,2700006,,,,,,,2022-05-24,1,,,,,マナトランス,0
2173,8040003020075,新規,0,2022-05-24,2022-05-24,羅朱合同会社,,合同会社,千葉県,千葉市中央区,登戸３丁目１１番１９号新千葉リオグランデ３０２号,,12,101,2600032,,,,,,,2022-05-24,1,,,,,ラッシュ,0
2174,8040003020083,新規,0,2022-05-24,2022-05-24,合同会社ケアプランあすみ,,合同会社,千葉県,千葉市緑区,あすみが丘９丁目４０番９号,,12,105,2670066,,,,,,,2022-05-24,1,,,,,ケアプランアスミ,0
2175,8040005021625,新規,0,2022-05-24,2022-05-24,医療法人社団明希会,,その他の設立登記法人,千葉県,市川市,湊新田１丁目９番地１８ジョイエノモト１０３号,,12,203,2720132,,,,,,,2022-05-24,1,,,,,メイキカイ,0
2179,8080103002589,新規,0,2022-05-24,2022-05-24,合同会社プレアデス９８,,合同会社,静岡県,富士市,松岡６５６番地の１４,,22,210,4160909,,,,,,,2022-05-24,1,,,,,プレアデスキュウジュウハチ,0
2181,8080403004541,新規,0,2022-05-24,2022-05-24,合同会社クリマンライフジャパン,,合同会社,静岡県,浜松市中区,砂山町３５５番地の４ハマキョウレックス浜松駅南ビル４Ｆ,,22,131,4300926,,,,,,,2022-05-24,1,,,,,クリマンライフジャパン,0
2197,8120001245995,新規,0,2022-05-24,2022-05-24,株式会社アクションプラン,,株式会社,大阪府,大阪市淀川区,西中島６丁目９番２０号,,27,123,5320011,,,,,,,2022-05-24,1,,,,,アクションプラン,0
2198,8120001246044,新規,0,2022-05-24,2022-05-24,ＣＯＯＯＮ　ＷＯＲＫＳ株式会社,,株式会社,大阪府,大阪市北区,天神橋７丁目１５番５号好きやねん大阪ビル５階,,27,127,5310041,,,,,,,2022-05-24,1,,,,,コーンワークス,0
2199,8120001246060,新規,0,2022-05-24,2022-05-24,北陸いづみ運輸株式会社,,株式会社,大阪府,大阪市中央区,本町３丁目４番８号,,27,128,5410053,,,,,,,2022-05-24,1,,,,,ホクリクイヅミウンユ,0
2200,8120001246085,新規,0,2022-05-24,2022-05-24,仟瑞株式会社,,株式会社,大阪府,大阪市中央区,淡路町１丁目５－１０－２０７,,27,128,5410047,,,,,,,2022-05-24,1,,,,,センスイ,0
2204,8120003021734,新規,0,2022-05-24,2022-05-24,合同会社バイオマス発電拾壱,,合同会社,大阪府,大阪市中央区,久太郎町１丁目９番４号,,27,128,5410056,,,,,,,2022-05-24,1,,,,,バイオマスハツデンジュウイチ,0
2207,8120101065625,新規,0,2022-05-24,2022-05-24,株式会社和コーポレーション,,株式会社,大阪府,堺市堺区,栄橋町１丁８番１４号,,27,141,5900971,,,,,,,2022-05-24,1,,,,,カズコーポレーション,0
2211,8120901045999,新規,0,2022-05-24,2022-05-24,キャビン株式会社,,株式会社,大阪府,茨木市,星見町９番１９号,,27,211,5670843,,,,,,,2022-05-24,1,,,,,キャビン,0
2216,8130003007947,新規,0,2022-05-24,2022-05-24,合同会社Ｔｏｓｈｉ開発,,合同会社,京都府,京都市右京区,西京極畔勝町４３番地,,26,108,6150806,,,,,,,2022-05-24,1,,,,,トシカイハツ,0
2220,8140001126079,新規,0,2022-05-24,2022-05-24,株式会社ＳＥＫ,,株式会社,兵庫県,豊岡市,但東町天谷２７１,,28,209,6680316,,,,,,,2022-05-24,1,,,,,シーク,0
2231,8170003001723,新規,0,2022-05-24,2022-05-24,合同会社ＣＯＣＯＬＯ,,合同会社,和歌山県,西牟婁郡上富田町,南紀の台７０番４４号,,30,404,6492106,,,,,,,2022-05-24,1,,,,,ココロ,0
2240,8180001151395,新規,0,2022-05-24,2022-05-24,三和商事株式会社,,株式会社,愛知県,尾張旭市,旭台３丁目１６番地３,,23,226,4880001,,,,,,,2022-05-24,1,,,,,サンワショウジ,0
2241,8180001151420,新規,0,2022-05-24,2022-05-24,デイズプランニング株式会社,,株式会社,愛知県,名古屋市中村区,竹橋町３３番１４号,,23,105,4530016,,,,,,,2022-05-24,1,,,,,デイズプランニング,0
2249,8180301036247,新規,0,2022-05-24,2022-05-24,株式会社ＤＨＫ,,株式会社,愛知県,豊川市,宿町野川９５番地,,23,207,4410101,,,,,,,2022-05-24,1,,,,,ディーエイチケイ,0
2252,8190001029426,新規,0,2022-05-24,2022-05-24,株式会社ＯｆｆｉｃｅＢｅｌｌｓ,,株式会社,三重県,鈴鹿市,東玉垣町１０６９番地の３,,24,207,5130814,,,,,,,2022-05-24,1,,,,,オフィスベルズ,0
2258,8220003003284,新規,0,2022-05-24,2022-05-24,合同会社たまのいえ,,合同会社,石川県,金沢市,増泉３丁目７番３３号増泉ビル１階,,17,201,9218025,,,,,,,2022-05-24,1,,,,,タマノイエ,0
2259,8230001019372,新規,0,2022-05-24,2022-05-24,株式会社ビジラボ,,株式会社,富山県,高岡市,福田六家１４６番地,,16,202,9330313,,,,,,,2022-05-24,1,,,,,ビジラボ,0
2267,8250001019577,新規,0,2022-05-24,2022-05-24,株式会社ｋｅａｒｉ,,株式会社,山口県,周南市,大字上村７７番地の２,,35,215,7450853,,,,,,,2022-05-24,1,,,,,ケアリ,0
2268,8260001036869,新規,0,2022-05-24,2022-05-24,株式会社ＳＡＫＵＲＡ,,株式会社,岡山県,倉敷市,天城台４丁目７番９号,,33,202,7100131,,,,,,,2022-05-24,1,,,,,サクラ,0
2277,8290001097603,新規,0,2022-05-24,2022-05-24,株式会社ＩＣＥ　ＭＩＬＥ,,株式会社,福岡県,福岡市城南区,七隈７丁目２番１７号,,40,136,8140133,,,,,,,2022-05-24,1,,,,,アイスマイル,0
2290,8330003009378,新規,0,2022-05-24,2022-05-24,合同会社エム・ワイ,,合同会社,熊本県,熊本市北区,龍田７丁目２２番３２－１０８号ガーデンヒルズ武蔵,,43,105,8618006,,,,,,,2022-05-24,1,,,,,エムワイ,0
2292,8350001017760,新規,0,2022-05-24,2022-05-24,株式会社山康建設,,株式会社,宮崎県,延岡市,平原町５丁目１４８４番地２,,45,203,8820866,,,,,,,2022-05-24,1,,,,,ヤマコウケンセツ,0
2293,8350003004088,新規,0,2022-05-24,2022-05-24,合同会社まるたい商事,,合同会社,宮崎県,延岡市,北浦町古江２４９２番地１,,45,203,8890301,,,,,,,2022-05-24,1,,,,,マルタイショウジ,0
2295,8360003012024,新規,0,2022-05-24,2022-05-24,アトリエール合同会社,,合同会社,沖縄県,那覇市,字安里１３４番地１階,,47,201,9020067,,,,,,,2022-05-24,1,,,,,アトリエール,0
2296,8360003012032,新規,0,2022-05-24,2022-05-24,合同会社ＭＳＫ　ＬＩＶＥＬＹ,,合同会社,沖縄県,糸満市,字伊原１５５番地の１,,47,210,9010344,,,,,,,2022-05-24,1,,,,,エムエスケイライブラリー,0
2298,8370003005704,新規,0,2022-05-24,2022-05-24,ＷＨＩＰ合同会社,,合同会社,宮城県,仙台市宮城野区,五輪２丁目１３番１８号三洋ビル４０Ａ,,04,102,9830842,,,,,,,2022-05-24,1,,,,,ウィップ,0
2301,8380001032831,新規,0,2022-05-24,2022-05-24,東福産業株式会社,,株式会社,福島県,いわき市,勿来町関田障子川２０番地,,07,204,9790146,,,,,,,2022-05-24,1,,,,,トウフクサンギョウ,0
2307,8400001015890,新規,0,2022-05-24,2022-05-24,株式会社白福建設,,株式会社,岩手県,一関市,真柴字曽根田１０番地４,,03,209,0210901,,,,,,,2022-05-24,1,,,,,シラフクケンセツ,0
2309,8400003002937,新規,0,2022-05-24,2022-05-24,合同会社藤屋,,合同会社,岩手県,盛岡市,永井２０地割１－３０,,03,201,0200834,,,,,,,2022-05-24,1,,,,,フジヤ,0
2315,8430003013948,新規,0,2022-05-24,2022-05-24,合同会社アイワークス,,合同会社,北海道,北広島市,大曲緑ヶ丘５丁目７番地１０,,01,234,0611276,,,,,,,2022-05-24,1,,,,,アイワークス,0
2322,8470001019084,新規,0,2022-05-24,2022-05-24,商祺商事株式会社,,株式会社,香川県,高松市,兵庫町４番地６,,37,201,7600024,,,,,,,2022-05-24,1,,,,,ショウキショウジ,0
2336,9010001226790,新規,0,2022-05-24,2022-05-24,株式会社ＭＯＳＨＩＭＯ　ＨＡＣＫ,,株式会社,東京都,千代田区,丸の内１丁目８－３丸の内トラストタワー本館２０階,,13,101,1000005,,,,,,,2022-05-24,1,,,,,モシモハック,0
2337,9010001226824,新規,0,2022-05-24,2022-05-24,ワンオーディオジャパン株式会社,,株式会社,東京都,中央区,銀座７丁目１２－４友野本社ビル１１Ｆ,,13,102,1040061,,,,,,,2022-05-24,1,,,,,ワンオーディオジャパン,0
2352,9010401167560,新規,0,2022-05-24,2022-05-24,株式会社はじまりの食卓,,株式会社,東京都,港区,麻布十番２丁目７番１４号麻布２７５、２０１,,13,103,1060045,,,,,,,2022-05-24,1,,,,,ハジマリノショクタク,0
2356,9010403027713,新規,0,2022-05-24,2022-05-24,萩合同会社,,合同会社,東京都,港区,西新橋１丁目１番１号ＥＰコンサルティングサービス内,,13,103,1050003,,,,,,,2022-05-24,1,,,,,ハギ,0
2357,9010405020996,新規,0,2022-05-24,2022-05-24,一般社団法人小規模飲食店環境整備協会,,その他の設立登記法人,東京都,港区,芝大門２丁目１１番１６号,,13,103,1050012,,,,,,,2022-05-24,1,,,,,ショウキボインショクテンカンキョウセイビキョウカイ,0
2358,9010405021004,新規,0,2022-05-24,2022-05-24,一般社団法人ＣＡＮＳＯＯＮ協会,,その他の設立登記法人,東京都,港区,六本木５丁目１６―５０―６０３,,13,103,1060032,,,,,,,2022-05-24,1,,,,,キャンスーンキョウカイ,0
2359,9010501048859,新規,0,2022-05-24,2022-05-24,株式会社チトセ,,株式会社,東京都,台東区,東上野１丁目７番１５号,,13,106,1100015,,,,,,,2022-05-24,1,,,,,チトセ,0
2360,9010501048867,新規,0,2022-05-24,2022-05-24,株式会社ＴＳＤコーポレーション,,株式会社,東京都,台東区,東上野２丁目１９番５号,,13,106,1100015,,,,,,,2022-05-24,1,,,,,ティーエスディーコーポレーション,0
2370,9010601061167,新規,0,2022-05-24,2022-05-24,株式会社エース,,株式会社,東京都,墨田区,緑１丁目１番５号レジデンス森下６０１号室,,13,107,1300021,,,,,,,2022-05-24,1,,,,,エース,0
2378,9010901050910,新規,0,2022-05-24,2022-05-24,株式会社ＭＩＮＮＡ,,株式会社,東京都,世田谷区,池尻３丁目２１番１６－７０２号,,13,112,1540001,,,,,,,2022-05-24,1,,,,,ミンナ,0
2403,9011401024256,新規,0,2022-05-24,2022-05-24,株式会社Ｒ１,,株式会社,東京都,板橋区,熊野町１８番１０号,,13,119,1730025,,,,,,,2022-05-24,1,,,,,アールワン,0
2404,9011403003670,新規,0,2022-05-24,2022-05-24,すまいのきずな合同会社,,合同会社,東京都,板橋区,中板橋２２番２－３０２号,,13,119,1730016,,,,,,,2022-05-24,1,,,,,スマイノキズナ,0
2409,9011701025326,新規,0,2022-05-24,2022-05-24,株式会社匠栄,,株式会社,東京都,江戸川区,松江２丁目３３番６号,,13,123,1320025,,,,,,,2022-05-24,1,,,,,ショウエイ,0
2410,9011703003148,新規,0,2022-05-24,2022-05-24,合同会社ＭＫ２,,合同会社,東京都,江戸川区,春江町２丁目９－１６,,13,123,1320003,,,,,,,2022-05-24,1,,,,,エムケーツー,0
2413,9012303001681,新規,0,2022-05-24,2022-05-24,合同会社フェアリエル福祉会,,合同会社,東京都,町田市,小山町１６１８番地１０３,,13,209,1940212,,,,,,,2022-05-24,1,,,,,フェアリエルフクシカイ,0
2417,9012403005384,新規,0,2022-05-24,2022-05-24,合同会社クォリティースタート,,合同会社,東京都,小金井市,桜町３丁目６番３号,,13,210,1840005,,,,,,,2022-05-24,1,,,,,クォリティースタート,0
2418,9012701017057,新規,0,2022-05-24,2022-05-24,株式会社Ｒ’ｓテクノ,,株式会社,東京都,清瀬市,中清戸３丁目３６３番地１４,,13,221,2040012,,,,,,,2022-05-24,1,,,,,アールズテクノ,0
2419,9012801021594,新規,0,2022-05-24,2022-05-24,株式会社ｓｔｕｄｉｏ上海,,株式会社,東京都,立川市,錦町５丁目５番２９号－２０５,,13,202,1900022,,,,,,,2022-05-24,1,,,,,スタジオシャンハイ,0
2423,9020001146534,新規,0,2022-05-24,2022-05-24,株式会社ＲＩＮＱＵＥＳＴ,,株式会社,神奈川県,川崎市中原区,下沼部１９１５番地,,14,133,2110011,,,,,,,2022-05-24,1,,,,,リンクエスト,0
2434,9021001076036,新規,0,2022-05-24,2022-05-24,株式会社ｍｉｃｈｉｋａｋｅ,,株式会社,神奈川県,鎌倉市,鎌倉山１丁目２番７号,,14,204,2480031,,,,,,,2022-05-24,1,,,,,ミチカケ,0
2439,9030001148249,新規,0,2022-05-24,2022-05-24,三葉株式会社,,株式会社,埼玉県,所沢市,小手指町１丁目２４番１５号,,11,208,3591141,,,,,,,2022-05-24,1,,,,,,0
2440,9030001148307,新規,0,2022-05-24,2022-05-24,株式会社瀧見型枠,,株式会社,埼玉県,川口市,前川３丁目２４番２１－２０２号,,11,203,3330842,,,,,,,2022-05-24,1,,,,,タキミカタワク,0
2441,9030001148356,新規,0,2022-05-24,2022-05-24,あーぐる株式会社,,株式会社,埼玉県,深谷市,西島町１丁目１番１９号ネオハイツ深谷１３０３号,,11,218,3660824,,,,,,,2022-05-24,1,,,,,アーグル,0
2445,9030003019448,新規,0,2022-05-24,2022-05-24,合同会社カニエ,,合同会社,埼玉県,新座市,西堀１丁目１０－３,,11,230,3520031,,,,,,,2022-05-24,1,,,,,カニエ,0
2460,9040005021624,新規,0,2022-05-24,2022-05-24,医療法人社団遥桃会,,その他の設立登記法人,千葉県,木更津市,港南台３丁目４番地１,,12,206,2920827,,,,,,,2022-05-24,1,,,,,ヨウトウカイ,0
2463,9050001051120,新規,0,2022-05-24,2022-05-24,株式会社未来警備保障,,株式会社,茨城県,つくば市,上大島１８４８番地１,,08,220,3004351,,,,,,,2022-05-24,1,,,,,ミライケイビホショウ,0
2480,9070001039254,新規,0,2022-05-24,2022-05-24,株式会社爽盡,,株式会社,群馬県,渋川市,八木原８９８番地,,10,208,3770003,,,,,,,2022-05-24,1,,,,,ソウジン,0
2492,9080403004540,新規,0,2022-05-24,2022-05-24,ＮＨＡＴ　ＮＡＭ合同会社,,合同会社,静岡県,浜松市中区,佐藤３丁目１２番２５号,,22,131,4300807,,,,,,,2022-05-24,1,,,,,ニャットナム,0
2493,9080405007459,新規,0,2022-05-24,2022-05-24,一般社団法人中東遠プラリサイクル協議会,,その他の設立登記法人,静岡県,掛川市,大池２７９８番６,,22,213,4360043,,,,,,,2022-05-24,1,,,,,チュウトウエンプラリサイクルキョウギカイ,0
2495,9100003006554,新規,0,2022-05-24,2022-05-24,合同会社アグリソーラージャパン,,合同会社,長野県,伊那市,福島１５４６番地２,,20,209,3960001,,,,,,,2022-05-24,1,,,,,アグリソーラージャパン,0
2496,9110001036668,新規,0,2022-05-24,2022-05-24,株式会社清水建築設計室,,株式会社,新潟県,長岡市,川崎６丁目１２９１番地４,,15,202,9400864,,,,,,,2022-05-24,1,,,,,シミズケンチクセッケイシツ,0
2506,9120001246035,新規,0,2022-05-24,2022-05-24,株式会社Ｍｉｌｌ　Ｗｏｏｄ,,株式会社,大阪府,大阪市中央区,西心斎橋１丁目９番２２号,,27,128,5420086,,,,,,,2022-05-24,1,,,,,ミルウッド,0
2507,9120001246076,新規,0,2022-05-24,2022-05-24,優誠株式会社,,株式会社,大阪府,大阪市西区,新町１丁目１７番８－５０４号,,27,106,5500013,,,,,,,2022-05-24,1,,,,,ユウセイ,0
2510,9120003021733,新規,0,2022-05-24,2022-05-24,合同会社バイオマス発電十,,合同会社,大阪府,大阪市中央区,久太郎町１丁目９番４号,,27,128,5410056,,,,,,,2022-05-24,1,,,,,バイオマスハツデンジュウ,0
2513,9120005022960,新規,0,2022-05-24,2022-05-24,一般社団法人ウィル・トラスト,,その他の設立登記法人,大阪府,大阪市中央区,谷町２丁目２番２０号大手前類第一ビル６階,,27,128,5400012,,,,,,,2022-05-24,1,,,,,ウィルトラスト,0
2515,9120901045998,新規,0,2022-05-24,2022-05-24,株式会社リバーサイド,,株式会社,大阪府,吹田市,千里山西４丁目４０番２５－９０４号,,27,205,5650851,,,,,,,2022-05-24,1,,,,,リバーサイド,0
2516,9120901046006,新規,0,2022-05-24,2022-05-24,株式会社住宅アフター相談センター,,株式会社,大阪府,茨木市,美沢町１６番３４号,,27,211,5670862,,,,,,,2022-05-24,1,,,,,ジュウタクアフターソウダンセンター,0
2518,9122001035896,新規,0,2022-05-24,2022-05-24,株式会社ニューウェル,,株式会社,大阪府,大東市,中垣内１丁目７番２０号,,27,218,5740013,,,,,,,2022-05-24,1,,,,,ニューウェル,0
2522,9130003007946,新規,0,2022-05-24,2022-05-24,合同会社ヒロファーム,,合同会社,京都府,京田辺市,花住坂３丁目１０番６花住坂ガーデン弐番館１０５,,26,211,6100352,,,,,,,2022-05-24,1,,,,,ヒロファーム,0
2529,9140001126111,新規,0,2022-05-24,2022-05-24,株式会社ＣＡＲ　ＢＯＤＹ　ＳＨＯＰ　ＫＡＺＵ,,株式会社,兵庫県,姫路市,豊富町御蔭１８６番地１,,28,201,6792122,,,,,,,2022-05-24,1,,,,,カーボディーショップカズ,0
2533,9140003017705,新規,0,2022-05-24,2022-05-24,合同会社フェニックス,,合同会社,兵庫県,神戸市須磨区,白川台３丁目３８番地６号白川台ハイツ７号棟４０２,,28,107,6540103,,,,,,,2022-05-24,1,,,,,フェニックス,0
2537,9160003002572,新規,0,2022-05-24,2022-05-24,スマイルポンプ合同会社,,合同会社,滋賀県,東近江市,緑町２９番２２号,,25,213,5270000,,,,,,,2022-05-24,1,,,,,スマイルポンプ,0
2539,9170003001722,新規,0,2022-05-24,2022-05-24,Ｃｏｍｆｏｒｔ合同会社,,合同会社,和歌山県,有田市,宮原町滝川原５６０番地１,,30,204,6490435,,,,,,,2022-05-24,1,,,,,コンフォート,0
2546,9180001151411,新規,0,2022-05-24,2022-05-24,株式会社ＢＳサービス,,株式会社,愛知県,小牧市,桃ケ丘３丁目６番地９,,23,219,4850813,,,,,,,2022-05-24,1,,,,,ビーエスサービス,0
2553,9190001029425,新規,0,2022-05-24,2022-05-24,新孝エンジ株式会社,,株式会社,三重県,四日市市,大字末永１０７５番地１,,24,202,5100813,,,,,,,2022-05-24,1,,,,,シンコウエンジ,0
2554,9190001029433,新規,0,2022-05-24,2022-05-24,ヒカリフリー株式会社,,株式会社,三重県,伊勢市,黒瀬町１４０９番地７,,24,203,5160018,,,,,,,2022-05-24,1,,,,,ヒカリフリー,0
2556,9230001019371,新規,0,2022-05-24,2022-05-24,株式会社ＢｉｒｄＯｎｅ,,株式会社,富山県,魚津市,吉島１０９５番地５,,16,204,9370041,,,,,,,2022-05-24,1,,,,,バードワン,0
2558,9240001059796,新規,0,2022-05-24,2022-05-24,株式会社すみだ,,株式会社,広島県,東広島市,西条町御薗宇２２３８番地１,,34,212,7390024,,,,,,,2022-05-24,1,,,,,スミダ,0
2559,9240001059805,新規,0,2022-05-24,2022-05-24,株式会社ＳＯＲＡ,,株式会社,広島県,呉市,両城１丁目２番３７号,,34,202,7370826,,,,,,,2022-05-24,1,,,,,ソラ,0
2564,9250001019576,新規,0,2022-05-24,2022-05-24,株式会社クウテック,,株式会社,山口県,山口市,朝田２０９２番地１,,35,203,7530871,,,,,,,2022-05-24,1,,,,,クウテック,0
2565,9250003003074,新規,0,2022-05-24,2022-05-24,合同会社ｓａｚａｒｅ,,合同会社,山口県,山口市,青葉台１６－１５,,35,203,7530012,,,,,,,2022-05-24,1,,,,,サザレ,0
2573,9290001097560,新規,0,2022-05-24,2022-05-24,ＦＵＪＩ物流株式会社,,株式会社,福岡県,朝倉郡筑前町,依井３５８番地１,,40,447,8380813,,,,,,,2022-05-24,1,,,,,フジブツリュウ,0
2574,9290001097610,新規,0,2022-05-24,2022-05-24,フィッシュマーケットフクオカ株式会社,,株式会社,福岡県,福岡市博多区,博多駅東２丁目１３番２６号ＬｗｉｔｈＰ２０１号室,,40,132,8120013,,,,,,,2022-05-24,1,,,,,フィッシュマーケットフクオカ,0
2575,9290001097635,新規,0,2022-05-24,2022-05-24,ＳＤファーム株式会社,,株式会社,福岡県,飯塚市,大分１５９４－２－１,,40,205,8200712,,,,,,,2022-05-24,1,,,,,エスディーファーム,0
2576,9290005018694,新規,0,2022-05-24,2022-05-24,一般社団法人いとしまワインプロジェクト,,その他の設立登記法人,福岡県,糸島市,二丈吉井３７４５番地８,,40,230,8191641,,,,,,,2022-05-24,1,,,,,イトシマワインプロジェクト,0
2577,9290801028558,新規,0,2022-05-24,2022-05-24,株式会社ＳＬＩトレーディング,,株式会社,福岡県,北九州市小倉北区,西港町１５番６号２Ｆ,,40,106,8030801,,,,,,,2022-05-24,1,,,,,エスエルアイトレーディング,0
2579,9300001012939,新規,0,2022-05-24,2022-05-24,株式会社ＨＩＴＳサービス,,株式会社,佐賀県,鳥栖市,布津原町６２番地１０２,,41,203,8410053,,,,,,,2022-05-24,1,,,,,ヒッツサービス,0
2582,9320005009995,新規,0,2022-05-24,2022-05-24,一般社団法人日本カザフスタン友好協会,,その他の設立登記法人,大分県,大分市,中央町２丁目７番２５号,,44,201,8700035,,,,,,,2022-05-24,1,,,,,ニホンカザフスタンユウコウキョウカイ,0
2606,9390001016898,新規,0,2022-05-24,2022-05-24,アクアソリューションズ株式会社,,株式会社,山形県,鶴岡市,井岡字和田３２７‐１９,,06,203,9970842,,,,,,,2022-05-24,1,,,,,アクアソリューションズ,0
2611,9410003003660,新規,0,2022-05-24,2022-05-24,合同会社ＡＬＬＤ,,合同会社,秋田県,横手市,平鹿町醍醐字上関合６５番地,,05,203,0130102,,,,,,,2022-05-24,1,,,,,オールド,0
2618,9430001086697,新規,0,2022-05-24,2022-05-24,株式会社ジノリンク,,株式会社,北海道,札幌市南区,澄川五条５丁目７番５号,,01,106,0050005,,,,,,,2022-05-24,1,,,,,ジノリンク,0
2627,9500001024229,新規,0,2022-05-24,2022-05-24,株式会社ゆいふる,,株式会社,愛媛県,松山市,大手町１丁目１１番地１,,38,201,7900067,,,,,,,2022-05-24,1,,,,,ユイフル,0
2628,9700150095835,新規,0,2022-05-24,2019-09-02,たっこ産直友の会,,その他,青森県,三戸郡田子町,大字田子字田子１７－１,,02,443,0390201,,,,,,,2019-09-02,1,,,,,タツコサンチヨクトモノカイ,0
