sequenceNumber,corporateNumber,process,correct,updateDate,changeDate,name,nameImageId,kind,prefectureName,cityName,streetNumber,addressImageId,prefectureCode,cityCode,postCode,addressOutside,addressOutsideImageId,closeDate,closeCause,successorCorporateNumber,changeCause,assignmentDate,latest,enName,enPrefectureName,enCityName,enAddressOutside,furigana,hihyoji
9,1010001232020,新規,0,2023-01-10,2023-01-10,株式会社慶清,,株式会社,東京都,文京区,湯島３丁目４０番１号,,13,105,1130034,,,,,,,2023-01-10,1,,,,,ケイシン,0
12,1010003039505,新規,0,2023-01-10,2023-01-10,Ｇｏｌｄｅｎ　Ｒａｔｉｏ合同会社,,合同会社,東京都,中央区,銀座１丁目１２番４号Ｎ＆Ｅ．ＢＬＤ．６Ｆ,,13,102,1040061,,,,,,,2023-01-10,1,,,,,ゴールデンレシオ,0
18,1010005036070,新規,0,2023-01-10,2023-01-10,弁理士法人前川知的財産事務所,,その他の設立登記法人,東京都,千代田区,日比谷公園１番３号５階,,13,101,1000012,,,,,,,2023-01-10,1,,,,,マエカワチテキザイサンジムショ,0
19,1010005036079,新規,0,2023-01-10,2023-01-10,一般社団法人ｘＩＢ　ＪＡＰＡＮ,,その他の設立登記法人,東京都,千代田区,一ツ橋１丁目１番１号,,13,101,1000003,,,,,,,2023-01-10,1,,,,,エックスアイビージャパン,0
20,1010101015481,新規,0,2023-01-10,2023-01-10,株式会社ニート,,株式会社,東京都,八王子市,めじろ台４丁目３２番地１１,,13,201,1930833,,,,,,,2023-01-10,1,,,,,ニート,0
26,1010401171529,新規,0,2023-01-10,2023-01-10,ＭｅＤＩＩ株式会社,,株式会社,東京都,港区,北青山３丁目６番７号青山パラシオタワー１１階,,13,103,1070061,,,,,,,2023-01-10,1,,,,,メディ,0
27,1010401171652,新規,0,2023-01-10,2023-01-10,株式会社ｕｎｖｉｌｌａｇｅ,,株式会社,東京都,港区,新橋３丁目１０番５号,,13,103,1050004,,,,,,,2023-01-10,1,,,,,アンヴィラージュ,0
36,1010601062387,新規,0,2023-01-10,2023-01-10,株式会社左近五常会,,株式会社,東京都,江東区,富岡１丁目２４番５号,,13,108,1350047,,,,,,,2023-01-10,1,,,,,サコンゴジョウカイ,0
38,1010603009931,新規,0,2023-01-10,2023-01-10,合同会社Ｒａｍｅｓｅｓ,,合同会社,東京都,江東区,豊洲３丁目６番８－２０１９号,,13,108,1350061,,,,,,,2023-01-10,1,,,,,ラムジー,0
41,1010701043691,新規,0,2023-01-10,2023-01-10,株式会社Ｓｐｉｎｅｌ,,株式会社,東京都,品川区,上大崎３丁目９番３７－４０６号,,13,109,1410021,,,,,,,2023-01-10,1,,,,,スピネル,0
45,1011001151805,新規,0,2023-01-10,2023-01-10,Ｌｉｎｋｓ株式会社,,株式会社,東京都,渋谷区,道玄坂１丁目１０番８号渋谷道玄坂東急ビル２Ｆ－Ｃ,,13,113,1500043,,,,,,,2023-01-10,1,,,,,リンクス,0
46,1011001151813,新規,0,2023-01-10,2023-01-10,株式会社凛,,株式会社,東京都,目黒区,中町１丁目２番９号,,13,110,1530065,,,,,,,2023-01-10,1,,,,,リン,0
47,1011001151846,新規,0,2023-01-10,2023-01-10,株式会社医師たちとつくる,,株式会社,東京都,渋谷区,恵比寿４丁目１１番５号,,13,113,1500013,,,,,,,2023-01-10,1,,,,,イシタチトツクル,0
48,1011001151961,新規,0,2023-01-10,2023-01-10,株式会社ＳａｙＭｅ,,株式会社,東京都,渋谷区,本町１丁目４０番１４号カームコート初台３０４,,13,113,1510071,,,,,,,2023-01-10,1,,,,,セイミー,0
49,1011003015909,新規,0,2023-01-10,2023-01-10,ＭＦＭ合同会社,,合同会社,東京都,渋谷区,本町３丁目４３番４号,,13,113,1510071,,,,,,,2023-01-10,1,,,,,エムエフエム,0
50,1011003015958,新規,0,2023-01-10,2023-01-10,Ｒ＆Ｍ合同会社,,合同会社,東京都,渋谷区,神宮前６丁目２３番４号桑野ビル２階,,13,113,1500001,,,,,,,2023-01-10,1,,,,,アールアンドエム,0
55,1011101101346,新規,0,2023-01-10,2023-01-10,株式会社イイダ技研,,株式会社,東京都,新宿区,中落合２丁目１８番１９号犬竹荘２０３,,13,104,1610032,,,,,,,2023-01-10,1,,,,,イイダギケン,0
56,1011101101370,新規,0,2023-01-10,2023-01-10,株式会社Ｃｒｏｓｓ　Ａｇｅｎｔ,,株式会社,東京都,新宿区,西新宿３丁目３番１３号西新宿水間ビル６階,,13,104,1600023,,,,,,,2023-01-10,1,,,,,クロスエージェント,0
57,1011101101387,新規,0,2023-01-10,2023-01-10,株式会社正心,,株式会社,東京都,新宿区,百人町１丁目２０番３号バラードハイム新宿渡辺ビル９０３号,,13,104,1690073,,,,,,,2023-01-10,1,,,,,セイシン,0
58,1011101101395,新規,0,2023-01-10,2023-01-10,レンツァジャパン株式会社,,株式会社,東京都,新宿区,西新宿６丁目１０番１号新宿オークシティ日土地西新宿ビル８階,,13,104,1600023,,,,,,,2023-01-10,1,,,,,レンツァジャパン,0
59,1011101101429,新規,0,2023-01-10,2023-01-10,ＴＰＣ日本株式会社,,株式会社,東京都,新宿区,富久町２番１９号市ヶ谷ヒルサイドハイツ３０７号,,13,104,1620067,,,,,,,2023-01-10,1,,,,,ティーピーシーニホン,0
62,1011105010510,新規,0,2023-01-10,2023-01-10,ＴＦＳ行政書士法人,,その他の設立登記法人,東京都,新宿区,四谷３丁目１１番地山一ビル５階,,13,104,1600004,,,,,,,2023-01-10,1,,,,,ティーエフエス,0
63,1011201024323,新規,0,2023-01-10,2023-01-10,株式会社Ｊｏｕｙａ　Ｉｎｖｅｓｔｍｅｎｔ,,株式会社,東京都,中野区,中央３丁目３４番６号,,13,114,1640011,,,,,,,2023-01-10,1,,,,,ジョウヤインベストメント,0
64,1011201024331,新規,0,2023-01-10,2023-01-10,株式会社Ｌｉｃｏ　Ｃｏｍｐａｎｙ,,株式会社,東京都,中野区,中央２丁目３１番８号,,13,114,1640011,,,,,,,2023-01-10,1,,,,,リコカンパニー,0
68,1011401024817,新規,0,2023-01-10,2023-01-10,株式会社ピカピカ,,株式会社,東京都,板橋区,大山東町４４番２号,,13,119,1730014,,,,,,,2023-01-10,1,,,,,ピカピカ,0
80,1011701025928,新規,0,2023-01-10,2023-01-10,株式会社菅原技研,,株式会社,東京都,江戸川区,中葛西１丁目１番１５号,,13,123,1340083,,,,,,,2023-01-10,1,,,,,スガワラギケン,0
81,1011701025936,新規,0,2023-01-10,2023-01-10,株式会社アニマイル,,株式会社,東京都,江戸川区,宇喜田町１１２２－１クレッセント船堀１００４号,,13,123,1340082,,,,,,,2023-01-10,1,,,,,アニマイル,0
82,1011801041759,新規,0,2023-01-10,2023-01-10,株式会社イキイキ水産,,株式会社,東京都,葛飾区,立石６丁目９番４号,,13,122,1240012,,,,,,,2023-01-10,1,,,,,イキイキスイサン,0
84,1012401040036,新規,0,2023-01-10,2023-01-10,株式会社カプーン,,株式会社,東京都,武蔵野市,吉祥寺本町２丁目３３－２,,13,203,1800004,,,,,,,2023-01-10,1,,,,,カプーン,0
86,1012403005771,新規,0,2023-01-10,2023-01-10,合同会社ＡＩＲＴＥＸ,,合同会社,東京都,小金井市,貫井北町１丁目１３－１１,,13,210,1840015,,,,,,,2023-01-10,1,,,,,エアテックス,0
89,1013301050158,新規,0,2023-01-10,2023-01-10,ＦＭＣ株式会社,,株式会社,東京都,豊島区,要町１丁目１８番３号－１０２,,13,116,1710043,,,,,,,2023-01-10,1,,,,,エフエムシー,0
91,1013305003426,新規,0,2023-01-10,2023-01-10,税理士法人ＮｅｗＲ,,その他の設立登記法人,東京都,豊島区,南池袋３丁目８番３－８０１Ａ号,,13,116,1710022,,,,,,,2023-01-10,1,,,,,ニューアール,0
95,1020001149676,新規,0,2023-01-10,2023-01-10,株式会社佐助,,株式会社,神奈川県,横浜市港南区,大久保１丁目１９番１０号,,14,111,2330007,,,,,,,2023-01-10,1,,,,,サスケ,0
96,1020001149767,新規,0,2023-01-10,2023-01-10,株式会社セントラル不動産,,株式会社,神奈川県,川崎市中原区,上丸子八幡町７９８番地４サンテ・リヴィエール３０１,,14,133,2110001,,,,,,,2023-01-10,1,,,,,セントラルフドウサン,0
97,1020003023020,新規,0,2023-01-10,2023-01-10,合同会社Ｒ＆Ｍ,,合同会社,神奈川県,川崎市宮前区,宮崎１６４番地２１,,14,136,2160033,,,,,,,2023-01-10,1,,,,,アールアンドエム,0
98,1020003023061,新規,0,2023-01-10,2023-01-10,合同会社文化コモンズ研究所,,合同会社,神奈川県,横浜市中区,北仲通３丁目３３番地,,14,104,2310003,,,,,,,2023-01-10,1,,,,,ブンカコモンズケンキュウショ,0
101,1021001077842,新規,0,2023-01-10,2023-01-10,後藤総業株式会社,,株式会社,神奈川県,高座郡寒川町,宮山３０４７番地１,,14,321,2530106,,,,,,,2023-01-10,1,,,,,ゴトウソウギョウ,0
102,1021001077850,新規,0,2023-01-10,2023-01-10,株式会社ｌａｉｍ,,株式会社,神奈川県,秦野市,鶴巻南２丁目４２番１０号サンハイツＭＯＣＯ２０２号,,14,211,2570002,,,,,,,2023-01-10,1,,,,,ライム,0
109,1030001151739,新規,0,2023-01-10,2023-01-10,株式会社きさらぎ事務所,,株式会社,埼玉県,さいたま市大宮区,上小町５７２番地１白石ビル３階,,11,103,3300855,,,,,,,2023-01-10,1,,,,,キサラギジムショ,0
110,1030001151755,新規,0,2023-01-10,2023-01-10,株式会社ＧＯＴＯ　ＣＹＣＬＥ　ＬＡＢ,,株式会社,埼玉県,川越市,松江町１丁目５－４,,11,201,3500056,,,,,,,2023-01-10,1,,,,,ゴトウサイクルラボ,0
111,1030001151788,新規,0,2023-01-10,2023-01-10,株式会社防水道場,,株式会社,埼玉県,春日部市,備後東２丁目１５番２３－３号,,11,214,3440032,,,,,,,2023-01-10,1,,,,,ボウスイドウジョウ,0
114,1030003020875,新規,0,2023-01-10,2023-01-10,エムエスセレクト合同会社,,合同会社,埼玉県,南埼玉郡宮代町,字道佛６２７番地５,,11,442,3450811,,,,,,,2023-01-10,1,,,,,エムエスセレクト,0
121,1040001126467,新規,0,2023-01-10,2023-01-10,株式会社Ｒ,,株式会社,千葉県,富里市,日吉台４丁目１１番地１１,,12,233,2860201,,,,,,,2023-01-10,1,,,,,アール,0
122,1040001126491,新規,0,2023-01-10,2023-01-10,株式会社吉原組,00128975,株式会社,千葉県,いすみ市,作田７９５番地,,12,238,2980135,,,,,,,2023-01-10,1,,,,,ヨシハラグミ,0
123,1040001126500,新規,0,2023-01-10,2023-01-10,株式会社アントン,,株式会社,千葉県,佐倉市,ユーカリが丘６丁目４番１号,,12,212,2850858,,,,,,,2023-01-10,1,,,,,アントン,0
126,1040003021625,新規,0,2023-01-10,2023-01-10,合同会社ｖｉｔａ,,合同会社,千葉県,佐倉市,王子台２丁目２６番地１２,,12,212,2850837,,,,,,,2023-01-10,1,,,,,ビータ,0
127,1040003021641,新規,0,2023-01-10,2023-01-10,スパイラックス・サーコ合同会社,,合同会社,千葉県,千葉市美浜区,浜田２丁目３７番,,12,106,2610025,,,,,,,2023-01-10,1,,,,,スパイラックスサーコ,0
128,1040003021658,新規,0,2023-01-10,2023-01-10,合同会社ｗａｙｏｕ,,合同会社,千葉県,市川市,市川４丁目９番１２－３０１号,,12,203,2720034,,,,,,,2023-01-10,1,,,,,ワヨウ,0
132,1070001039947,新規,0,2023-01-10,2023-01-10,金強産業株式会社,,株式会社,群馬県,太田市,新田市野井町２７９９番地,,10,205,3700314,,,,,,,2023-01-10,1,,,,,キンキョウサンギョウ,0
136,1080101023718,新規,0,2023-01-10,2023-01-10,株式会社神山ＢＲＯＴＨＥＲＳ,,株式会社,静岡県,御殿場市,神山３９９－４,,22,215,4120033,,,,,,,2023-01-10,1,,,,,カミヤマブラザーズ,0
139,1090001017918,新規,0,2023-01-10,2023-01-10,株式会社勝栄興建,,株式会社,山梨県,甲府市,貢川本町９番１２号ボヌール貢川３０１号室,,19,201,4000048,,,,,,,2023-01-10,1,,,,,ショウエイコウケン,0
145,1100001036016,新規,0,2023-01-10,2023-01-10,株式会社半野田電気工事,,株式会社,長野県,岡谷市,川岸東２丁目１番１８号,,20,204,3940045,,,,,,,2023-01-10,1,,,,,ハンノタデンキコウジ,0
149,1100003006826,新規,0,2023-01-10,2023-01-10,ＡＳＪ白馬合同会社,,合同会社,長野県,北安曇郡白馬村,大字北城３０２０番地８３７,,20,485,3999301,,,,,,,2023-01-10,1,,,,,エイエスジェイハクバ,0
151,1110001037211,新規,0,2023-01-10,2023-01-10,株式会社シンクメディカル,,株式会社,新潟県,新潟市東区,松和町１４番３号,,15,102,9500027,,,,,,,2023-01-10,1,,,,,シンクメディカル,0
152,1110001037228,新規,0,2023-01-10,2023-01-10,株式会社ハク,,株式会社,新潟県,柏崎市,田中２番１４号,,15,205,9450816,,,,,,,2023-01-10,1,,,,,ハク,0
156,1120001251513,新規,0,2023-01-10,2023-01-10,株式会社ＫＳ‐ＫＴＳ,,株式会社,大阪府,大阪市平野区,長吉六反４丁目６番１９号,,27,126,5470012,,,,,,,2023-01-10,1,,,,,ケイエスケイティエス,0
159,1120003023200,新規,0,2023-01-10,2023-01-10,合同会社Ｎコーヒー,,合同会社,大阪府,大阪市北区,本庄東２丁目４番１号,,27,127,5310074,,,,,,,2023-01-10,1,,,,,エヌコーヒー,0
160,1120003023209,新規,0,2023-01-10,2023-01-10,合同会社宿り木,,合同会社,大阪府,大阪市都島区,片町１丁目５番１３号大手前センチュリービル４階,,27,102,5340025,,,,,,,2023-01-10,1,,,,,ヤドリギ,0
163,1120901046946,新規,0,2023-01-10,2023-01-10,株式会社ＴＷＯ　ＦＡＳＴ,,株式会社,大阪府,豊中市,野田町６番１号,,27,203,5610855,,,,,,,2023-01-10,1,,,,,ツーファスト,0
165,1122001036555,新規,0,2023-01-10,2023-01-10,株式会社よろず屋,,株式会社,大阪府,東大阪市,新庄３丁目１１番１５号鴻池クレスト５０５,,27,227,5780963,,,,,,,2023-01-10,1,,,,,ヨロズヤ,0
166,1122005003659,新規,0,2023-01-10,2023-01-10,一般社団法人日本資産形成推進教育協会,,その他の設立登記法人,大阪府,東大阪市,森河内西１丁目２１番２５号サンヴィレッジ森河内,,27,227,5770061,,,,,,,2023-01-10,1,,,,,ニホンシサンケイセイスイシンキョウイクキョウカイ,0
170,1130001073386,新規,0,2023-01-10,2023-01-10,鈴木工業株式会社,,株式会社,京都府,亀岡市,大井町土田３丁目５６５番地,,26,206,6210011,,,,,,,2023-01-10,1,,,,,スズキコウギョウ,0
171,1130001073394,新規,0,2023-01-10,2023-01-10,株式会社ｓｕｉ,,株式会社,京都府,京都市左京区,松ケ崎柳井田町６番地３４,,26,103,6060904,,,,,,,2023-01-10,1,,,,,スイ,0
172,1130001073403,新規,0,2023-01-10,2023-01-10,株式会社ＡＮＩＭＯ,,株式会社,京都府,京都市中京区,西ノ京月輪町２８番地３,,26,104,6048444,,,,,,,2023-01-10,1,,,,,アニモ,0
173,1130001073411,新規,0,2023-01-10,2023-01-10,株式会社飛田,,株式会社,京都府,木津川市,加茂町駅東２丁目２番地１ユニ加茂壱番館８０８号,,26,214,6191154,,,,,,,2023-01-10,1,,,,,ヒダ,0
174,1130003008423,新規,0,2023-01-10,2023-01-10,合同会社ＡＭＢＩＣＩＯＮ,,合同会社,京都府,京都市北区,上賀茂六段田町２２番地１８,,26,101,6038004,,,,,,,2023-01-10,1,,,,,アンビション,0
179,1140001128511,新規,0,2023-01-10,2023-01-10,株式会社光高工務店,,株式会社,兵庫県,西宮市,神楽町１３番地,,28,204,6620977,,,,,,,2023-01-10,1,,,,,ミツタカコウムテン,0
181,1140003018537,新規,0,2023-01-10,2023-01-10,合同会社ＭＩＴＳＵＭＯ,,合同会社,兵庫県,洲本市,下内膳１３８番地,,28,205,6560016,,,,,,,2023-01-10,1,,,,,ミツモ,0
189,1180001154347,新規,0,2023-01-10,2023-01-10,株式会社Ｐｏｋｅｒ　Ｆａｃｅ,,株式会社,愛知県,名古屋市中村区,名駅３丁目４－１０アルティメイト名駅１ｓｔ２階,,23,105,4500002,,,,,,,2023-01-10,1,,,,,ポーカーフェイス,0
190,1180001154388,新規,0,2023-01-10,2023-01-10,三愛仮設株式会社,,株式会社,愛知県,名古屋市港区,東蟹田５１１番地,,23,111,4550886,,,,,,,2023-01-10,1,,,,,サンアイカセツ,0
191,1180001154396,新規,0,2023-01-10,2023-01-10,株式会社アドオーシャン,,株式会社,愛知県,小牧市,小木２丁目４２７番地,,23,219,4850058,,,,,,,2023-01-10,1,,,,,アドオーシャン,0
192,1180001154413,新規,0,2023-01-10,2023-01-10,株式会社名岐商事,,株式会社,愛知県,名古屋市中区,栄３丁目２－３名古屋日興證券ビル４階,,23,106,4600008,,,,,,,2023-01-10,1,,,,,メイギショウジ,0
193,1180001154421,新規,0,2023-01-10,2023-01-10,株式会社リフォーム東海,,株式会社,愛知県,名古屋市守山区,城南町７番６号,,23,113,4630014,,,,,,,2023-01-10,1,,,,,リフォームトウカイ,0
194,1180001154438,新規,0,2023-01-10,2023-01-10,株式会社ラグス企画,,株式会社,愛知県,清須市,一場６５３番地１,,23,233,4520931,,,,,,,2023-01-10,1,,,,,ラグスキカク,0
195,1180001154446,新規,0,2023-01-10,2023-01-10,株式会社Ｇｒｅｅｎ　Ｓｔｙｌｅ,,株式会社,愛知県,海部郡蟹江町,大字今字川東上８８－１０,,23,425,4970032,,,,,,,2023-01-10,1,,,,,グリーンスタイル,0
196,1180001154454,新規,0,2023-01-10,2023-01-10,株式会社Ｊ‐Ｗｏｒｋｓ,,株式会社,愛知県,犬山市,四季の丘５丁目１０９番地,,23,215,4840019,,,,,,,2023-01-10,1,,,,,ジェイワークス,0
199,1180003024688,新規,0,2023-01-10,2023-01-10,合同会社ＫＡＫＵＯＵＺＡＮ　ＭＯＫＵ,,合同会社,愛知県,名古屋市千種区,覚王山通９丁目１９番地,,23,101,4640841,,,,,,,2023-01-10,1,,,,,カクオウザンモク,0
202,1180005020066,新規,0,2023-01-10,2023-01-10,税理士法人ヒトノワ山田会計事務所,,その他の設立登記法人,愛知県,名古屋市千種区,内山３丁目１０番１２号,,23,101,4640075,,,,,,,2023-01-10,1,,,,,ヒトノワヤマダカイケイジムショ,0
206,1190005011782,新規,0,2023-01-10,2023-01-10,Ｊｏｉｎ　Ｆｏｒｃｅｓ協同組合,,その他の設立登記法人,三重県,志摩市,志摩町布施田１０８５番地１,,24,215,5170702,,,,,,,2023-01-10,1,,,,,ジョインフォーシーズ,0
209,1220001025205,新規,0,2023-01-10,2023-01-10,株式会社錦,,株式会社,石川県,小松市,下粟津町マ２９番地,,17,203,9230304,,,,,,,2023-01-10,1,,,,,ニシキ,0
210,1220001025213,新規,0,2023-01-10,2023-01-10,株式会社ＣＬＥ,,株式会社,石川県,金沢市,西金沢４丁目５８４番地,,17,201,9218054,,,,,,,2023-01-10,1,,,,,シーエルイー,0
213,1230001019651,新規,0,2023-01-10,2023-01-10,株式会社北陸醗酵ホールディングス,,株式会社,富山県,魚津市,本江２１９２番地７,,16,204,9370805,,,,,,,2023-01-10,1,,,,,ホクリクハッコウホールディングス,0
217,1240001060893,新規,0,2023-01-10,2023-01-10,株式会社Ａｅｒａｓ,,株式会社,広島県,福山市,多治米町３丁目１１番６－３０３号,,34,207,7200824,,,,,,,2023-01-10,1,,,,,アエラス,0
218,1240001060902,新規,0,2023-01-10,2023-01-10,株式会社天誠工業,,株式会社,広島県,三原市,中之町１丁目８番４０号,,34,204,7230003,,,,,,,2023-01-10,1,,,,,テンセイコウギョウ,0
219,1240001060935,新規,0,2023-01-10,2023-01-10,株式会社Ｓ・Ｈ,,株式会社,広島県,広島市佐伯区,薬師が丘４丁目１０番１１号,,34,108,7315154,,,,,,,2023-01-10,1,,,,,エスエイチ,0
221,1240003005962,新規,0,2023-01-10,2023-01-10,合同会社溢光ファーム,,合同会社,広島県,福山市,沼隈町能登原２１５９,,34,207,7210000,,,,,,,2023-01-10,1,,,,,イッコウファーム,0
225,1260001037568,新規,0,2023-01-10,2023-01-10,株式会社宇野工業,,株式会社,岡山県,倉敷市,連島町矢柄６１７８番地１０,,33,202,7128015,,,,,,,2023-01-10,1,,,,,ウノコウギョウ,0
227,1260003004153,新規,0,2023-01-10,2023-01-10,ヒラガナ企画合同会社,,合同会社,岡山県,赤磐市,是里２５４９－１,,33,213,7012525,,,,,,,2023-01-10,1,,,,,ヒラガナキカク,0
234,1290001100091,新規,0,2023-01-10,2023-01-10,エイジス九州分割準備株式会社,,株式会社,福岡県,福岡市博多区,金の隈２丁目２４番１０号,,40,132,8120863,,,,,,,2023-01-10,1,,,,,エイジスキュウシュウブンカツジュンビ,0
235,1290001100125,新規,0,2023-01-10,2023-01-10,株式会社Ｒａｐｐｏｒｔ,,株式会社,福岡県,春日市,桜ヶ丘５丁目７番地グランドハイツＩＩ２０３号,00128980,40,218,8160872,,,,,,,2023-01-10,1,,,,,ラポール,0
236,1290001100133,新規,0,2023-01-10,2023-01-10,株式会社サンホークス,,株式会社,福岡県,福岡市西区,横浜３丁目６番２６号,,40,135,8190366,,,,,,,2023-01-10,1,,,,,サンホークス,0
237,1290001100141,新規,0,2023-01-10,2023-01-10,株式会社Ｎシステム,,株式会社,福岡県,福岡市早良区,早良７丁目１１番２２－２号,,40,137,8111122,,,,,,,2023-01-10,1,,,,,エヌシステム,0
243,1290801029183,新規,0,2023-01-10,2023-01-10,北九ソフト株式会社,,株式会社,福岡県,北九州市小倉北区,浅野３丁目８番１号ＡＩＭビル６階,,40,106,8020001,,,,,,,2023-01-10,1,,,,,キタキュウソフト,0
246,1310001018199,新規,0,2023-01-10,2023-01-10,株式会社総合建設業オリハラ,,株式会社,長崎県,佐世保市,潜木町１５３８,,42,202,8570121,,,,,,,2023-01-10,1,,,,,ソウゴウケンセツギョウオリハラ,0
257,1370001049453,新規,0,2023-01-10,2023-01-10,株式会社ＦＲＦ,,株式会社,宮城県,仙台市太白区,大野田４丁目１１番地の７クラヴィエ富沢１０２,,04,104,9820014,,,,,,,2023-01-10,1,,,,,エフアールエフ,0
261,1390001017111,新規,0,2023-01-10,2023-01-10,株式会社ｍｅｇｕｒｕ　ｋａｒａｄａ,,株式会社,山形県,天童市,南小畑１丁目３番１９号Ｂ１０１,,06,210,9940081,,,,,,,2023-01-10,1,,,,,メグルカラダ,0
262,1390001017128,新規,0,2023-01-10,2023-01-10,株式会社千川原自動車,,株式会社,山形県,最上郡鮭川村,大字京塚１４０７番地１,,06,366,9995201,,,,,,,2023-01-10,1,,,,,チガハラジドウシャ,0
263,1390003002029,新規,0,2023-01-10,2023-01-10,ＥＣＯサービス合同会社,,合同会社,山形県,山形市,防原町４番地の２３,,06,201,9900013,,,,,,,2023-01-10,1,,,,,エコサービス,0
270,1400003003017,新規,0,2023-01-10,2023-01-10,さくら測量合同会社,,合同会社,岩手県,久慈市,源道第１６地割３０番地,,03,207,0280015,,,,,,,2023-01-10,1,,,,,サクラソクリョウ,0
273,1410003003734,新規,0,2023-01-10,2023-01-10,平柳合同会社,,合同会社,秋田県,雄勝郡羽後町,西馬音内堀回字塩出７５番地,,05,463,0121137,,,,,,,2023-01-10,1,,,,,ヒラヤナギ,0
274,1420003002644,新規,0,2023-01-10,2023-01-10,青嶺グループ合同会社,,合同会社,青森県,八戸市,大字長苗代字内前田１４－２,,02,203,0391103,,,,,,,2023-01-10,1,,,,,アオネグループ,0
278,1430001088148,新規,0,2023-01-10,2023-01-10,株式会社ヌクレオ,,株式会社,北海道,札幌市東区,北十一条東４丁目２番２４号,,01,103,0650011,,,,,,,2023-01-10,1,,,,,ヌクレオ,0
280,1430003014597,新規,0,2023-01-10,2023-01-10,合同会社Ｔｗｅｎｔｙ　ｔｗｏ,,合同会社,北海道,札幌市中央区,南四条西３丁目１番地第２グリーンビル６階,,01,101,0640804,,,,,,,2023-01-10,1,,,,,トゥウェンティトゥー,0
281,1430003014606,新規,0,2023-01-10,2023-01-10,ＥＭＩＫＫＵＭＡＳＨＯＰ合同会社,,合同会社,北海道,札幌市南区,石山二条４丁目１－２２,,01,106,0050842,,,,,,,2023-01-10,1,,,,,エミックマショップ,0
282,1430003014630,新規,0,2023-01-10,2023-01-10,ＵＲＧＩＣ合同会社,,合同会社,北海道,札幌市豊平区,平岸二条８丁目３番１２号－４０１,,01,105,0620932,,,,,,,2023-01-10,1,,,,,アージック,0
289,1500001024707,新規,0,2023-01-10,2023-01-10,株式会社キノト,,株式会社,愛媛県,松山市,白水台３丁目６番地１１,,38,201,7910113,,,,,,,2023-01-10,1,,,,,キノト,0
294,1700150113538,新規,0,2023-01-10,2023-01-10,ＡＵＴＯ　ＣＡＲ　ＥＮＴＥＲＰＲＩＳＥＳ,,外国会社等,神奈川県,厚木市,下川入６４５宮田ハイツＩＩ２０１－１,00128868,14,212,2430206,スリランカ民主社会主義共和国、ヌワラエリヤ、バベラケレ、Ｎｏ．１７０／４,,,,,,2023-01-10,1,,,,,オートカーエンタープライセス,0
295,1700150113554,新規,0,2023-01-10,2023-01-10,大崎土地改良区,,その他,石川県,かほく市,大崎チ１１５番地,,17,209,9291127,,,,,,,2023-01-10,1,,,,,オオサキトチカイリヨウク,0
303,2010001232003,新規,0,2023-01-10,2023-01-10,クラム株式会社,,株式会社,東京都,中央区,日本橋兜町６－７,,13,102,1030026,,,,,,,2023-01-10,1,,,,,クラム,0
304,2010001232052,新規,0,2023-01-10,2023-01-10,株式会社ＳＴ１０,,株式会社,東京都,中央区,銀座１丁目１２－４Ｎ＆Ｅ・ＢＬＤ．７階,,13,102,1040061,,,,,,,2023-01-10,1,,,,,エスティーテン,0
315,2010401171627,新規,0,2023-01-10,2023-01-10,株式会社トータルコム,,株式会社,東京都,港区,白金３丁目１番７号Ｋ＆Ｇ５１０ハウス５０２,,13,103,1080072,,,,,,,2023-01-10,1,,,,,トータルコム,0
317,2010403029278,新規,0,2023-01-10,2023-01-10,ジー・ジェイ・レジデンス・セブン合同会社,,合同会社,東京都,港区,六本木１丁目９番１０号アークヒルズ仙石山森タワー４０階,,13,103,1060032,,,,,,,2023-01-10,1,,,,,ジージェイレジデンスセブン,0
320,2010501049839,新規,0,2023-01-10,2023-01-10,株式会社ソーベックス,,株式会社,東京都,台東区,蔵前２丁目１７番７号,,13,106,1110051,,,,,,,2023-01-10,1,,,,,ソーベックス,0
323,2010701043682,新規,0,2023-01-10,2023-01-10,株式会社アメージング,,株式会社,東京都,品川区,上大崎３丁目９番３７号,,13,109,1410021,,,,,,,2023-01-10,1,,,,,アメージング,0
325,2010901052277,新規,0,2023-01-10,2023-01-10,株式会社ＥＴＳＵＫＯエンタープライズ,,株式会社,東京都,世田谷区,瀬田３丁目７番１８号,,13,112,1580095,,,,,,,2023-01-10,1,,,,,エツコエンタープライズ,0
336,2011001151829,新規,0,2023-01-10,2023-01-10,株式会社キャメル,,株式会社,東京都,渋谷区,道玄坂１丁目１０番８号渋谷道玄坂東急ビル２Ｆ－Ｃ,,13,113,1500043,,,,,,,2023-01-10,1,,,,,キャメル,0
338,2011101101361,新規,0,2023-01-10,2023-01-10,みのむしフィルム株式会社,,株式会社,東京都,新宿区,南元町１３番地１５ＲＮ外苑１０４,,13,104,1600012,,,,,,,2023-01-10,1,,,,,ミノムシフィルム,0
339,2011101101378,新規,0,2023-01-10,2023-01-10,株式会社Ｎ．Ｏ．Ｏｎｅ,,株式会社,東京都,新宿区,住吉町１４番６号ベルウッドビル２０２,,13,104,1620065,,,,,,,2023-01-10,1,,,,,エヌオーワン,0
340,2011101101386,新規,0,2023-01-10,2023-01-10,アンエムＶＪ株式会社,,株式会社,東京都,新宿区,新宿１丁目３６－２新宿第七葉山ビル３Ｆ,,13,104,1600022,,,,,,,2023-01-10,1,,,,,アンエムベトジャパン,0
341,2011103012565,新規,0,2023-01-10,2023-01-10,ムーピーテクノロジーズ合同会社,,合同会社,東京都,新宿区,新宿１丁目３６－２新宿第七葉山ビル３Ｆ,,13,104,1600022,,,,,,,2023-01-10,1,,,,,ムーピーテクノロジーズ,0
342,2011301028363,新規,0,2023-01-10,2023-01-10,株式会社Ｗａｋｌｉｎｋ,,株式会社,東京都,杉並区,阿佐谷北１丁目９番２号ミフジ阿佐谷マンション２０１,,13,115,1660001,,,,,,,2023-01-10,1,,,,,ワクリンク,0
343,2011303004627,新規,0,2023-01-10,2023-01-10,ＹＪ　Ｉｎｖｅｓｔｍｅｎｔ合同会社,,合同会社,東京都,杉並区,清水３丁目９番２－３号,,13,115,1670033,,,,,,,2023-01-10,1,,,,,ワイジェイインベストメント,0
344,2011401024808,新規,0,2023-01-10,2023-01-10,株式会社アケイス,,株式会社,東京都,板橋区,向原２丁目２８番３号,,13,119,1730036,,,,,,,2023-01-10,1,,,,,アケイス,0
352,2011801041758,新規,0,2023-01-10,2023-01-10,株式会社マッハ,,株式会社,東京都,足立区,千住２丁目４３番地コア・モーヴ１０１号,,13,121,1200034,,,,,,,2023-01-10,1,,,,,マッハ,0
359,2012401040019,新規,0,2023-01-10,2023-01-10,ＬＥＡＬＩＳＥ株式会社,,株式会社,東京都,武蔵野市,吉祥寺南町２丁目１０番１６号ユニアスコスモエイト１０２,,13,203,1800003,,,,,,,2023-01-10,1,,,,,レアライズ,0
360,2012401040027,新規,0,2023-01-10,2023-01-10,株式会社ＳＰＲＩＮＧ　ＶＥＴＳ,,株式会社,東京都,府中市,清水が丘２丁目２番地２０,,13,206,1830015,,,,,,,2023-01-10,1,,,,,スプリングベッツ,0
361,2012401040051,新規,0,2023-01-10,2023-01-10,株式会社パレット,,株式会社,東京都,武蔵野市,吉祥寺南町１丁目３番３号第一通南ビル２階,,13,203,1800003,,,,,,,2023-01-10,1,,,,,パレット,0
365,2013303006438,新規,0,2023-01-10,2023-01-10,Ｎ＆Ｍ合同会社,,合同会社,東京都,豊島区,南長崎５丁目２７番５－３０９号,,13,116,1710052,,,,,,,2023-01-10,1,,,,,エヌアンドエム,0
367,2020001149675,新規,0,2023-01-10,2023-01-10,Ｍ・Ｐｒｏｆｅｓｓｉｏｎａｌｓ株式会社,,株式会社,神奈川県,横浜市鶴見区,上の宮１丁目４番４号,,14,101,2300075,,,,,,,2023-01-10,1,,,,,エムプロフェッショナルズ,0
368,2020001149683,新規,0,2023-01-10,2023-01-10,株式会社ベイスト,,株式会社,神奈川県,横浜市磯子区,杉田坪呑４番５－４０２号,00128984,14,107,2350000,,,,,,,2023-01-10,1,,,,,ベイスト,0
369,2020001149691,新規,0,2023-01-10,2023-01-10,株式会社ジッパ,,株式会社,神奈川県,横浜市中区,扇町１丁目１番２５号キンガビルＴＨＥＨＵＢ横浜関内１階,,14,104,2310027,,,,,,,2023-01-10,1,,,,,ジッパ,0
370,2020001149700,新規,0,2023-01-10,2023-01-10,株式会社山崎建装,,株式会社,神奈川県,横浜市磯子区,田中１丁目１６番４号,,14,107,2350035,,,,,,,2023-01-10,1,,,,,ヤマザキケンソウ,0
371,2021001077841,新規,0,2023-01-10,2023-01-10,株式会社千藝社,,株式会社,神奈川県,相模原市南区,磯部４４９２番地１,,14,153,2520327,,,,,,,2023-01-10,1,,,,,センゲイシャ,0
372,2021001077858,新規,0,2023-01-10,2023-01-10,株式会社Ｈａｒｕｎｏ,,株式会社,神奈川県,相模原市緑区,西橋本２丁目１７番１４号,,14,151,2520131,,,,,,,2023-01-10,1,,,,,ハルノ,0
373,2021001077874,新規,0,2023-01-10,2023-01-10,株式会社ＭＡＫＯＴＯ,,株式会社,神奈川県,厚木市,関口３０５番地９,,14,212,2430804,,,,,,,2023-01-10,1,,,,,マコト,0
374,2021003012581,新規,0,2023-01-10,2023-01-10,ＴＨマリン合同会社,,合同会社,神奈川県,横須賀市,ハイランド１丁目８番１０号,,14,201,2390833,,,,,,,2023-01-10,1,,,,,ティエッチマリン,0
380,2030001151779,新規,0,2023-01-10,2023-01-10,関東総合地所株式会社,,株式会社,埼玉県,八潮市,大字大瀬１９３８－１,,11,234,3400822,,,,,,,2023-01-10,1,,,,,カントウソウゴウジショ,0
386,2030003020890,新規,0,2023-01-10,2023-01-10,合同会社拓食会,,合同会社,埼玉県,越谷市,南町３丁目１０番１号アルファタウンＩＩ－１Ａ,00128977,11,222,3430832,,,,,,,2023-01-10,1,,,,,タクショクカイ,0
391,2040001126458,新規,0,2023-01-10,2023-01-10,株式会社ニノショー,,株式会社,千葉県,船橋市,海神４丁目１４番１５－１ＦＢ,,12,204,2730021,,,,,,,2023-01-10,1,,,,,ニノショー,0
392,2040001126466,新規,0,2023-01-10,2023-01-10,ＴＡＳＳ　ＪＡＰＡＮ株式会社,,株式会社,千葉県,野田市,大殿井４６１番地,,12,208,2780017,,,,,,,2023-01-10,1,,,,,タスジャパン,0
393,2040001126490,新規,0,2023-01-10,2023-01-10,株式会社白井クレーンサービス,,株式会社,千葉県,松戸市,二ツ木１３９２番地の５,,12,207,2700027,,,,,,,2023-01-10,1,,,,,シロイクレーンサービス,0
394,2040001126499,新規,0,2023-01-10,2023-01-10,株式会社グノン,,株式会社,千葉県,浦安市,東野１丁目２４番３８号,,12,227,2790042,,,,,,,2023-01-10,1,,,,,グノン,0
395,2040001126508,新規,0,2023-01-10,2023-01-10,株式会社ＺＥＡＬ,,株式会社,千葉県,東金市,一之袋１７５番地３,,12,213,2830057,,,,,,,2023-01-10,1,,,,,ジール,0
396,2040003021632,新規,0,2023-01-10,2023-01-10,泰楽合同会社,,合同会社,千葉県,市川市,末広２丁目１０番２２号,,12,203,2720121,,,,,,,2023-01-10,1,,,,,タイラク,0
397,2040003021665,新規,0,2023-01-10,2023-01-10,エフザコット合同会社,,合同会社,千葉県,浦安市,明海３丁目２－５－１０２,,12,227,2790014,,,,,,,2023-01-10,1,,,,,エフザコット,0
398,2050001052166,新規,0,2023-01-10,2023-01-10,株式会社Ｏｆｆｓｈｏｒｅ,,株式会社,茨城県,鹿嶋市,大字宮中２３７３番地５,,08,222,3140031,,,,,,,2023-01-10,1,,,,,オフショア,0
399,2050003007135,新規,0,2023-01-10,2023-01-10,合同会社ＧＳ建物管理センター,,合同会社,茨城県,筑西市,乙３３４番地１５,,08,227,3080041,,,,,,,2023-01-10,1,,,,,ジーエスタテモノカンリセンター,0
401,2060001035582,新規,0,2023-01-10,2023-01-10,株式会社あらかわファーム,,株式会社,栃木県,栃木市,大平町榎本９０２番地２,,09,203,3294422,,,,,,,2023-01-10,1,,,,,アラカワファーム,0
402,2060003004370,新規,0,2023-01-10,2023-01-10,合同会社ネオステップ宇都宮,,合同会社,栃木県,宇都宮市,鶴田町３３５３番地４９,,09,201,3200851,,,,,,,2023-01-10,1,,,,,ネオステップウツノミヤ,0
403,2070005010069,新規,0,2023-01-10,2023-01-10,一般社団法人美貴会,,その他の設立登記法人,群馬県,みどり市,笠懸町阿左美５０９番地１２,,10,212,3792311,,,,,,,2023-01-10,1,,,,,ミキカイ,0
404,2080001025391,新規,0,2023-01-10,2023-01-10,株式会社３１０ＢＡＳＥ,,株式会社,静岡県,静岡市葵区,北１丁目３１番１７号,,22,101,4200961,,,,,,,2023-01-10,1,,,,,サトウベース,0
405,2080401026238,新規,0,2023-01-10,2023-01-10,株式会社ＦｌＴ,,株式会社,静岡県,浜松市南区,安松町７９番地の２２,,22,134,4350034,,,,,,,2023-01-10,1,,,,,エフエルティー,0
408,2100001036007,新規,0,2023-01-10,2023-01-10,株式会社スクリーン印刷ラトナ,,株式会社,長野県,上田市,保野７３５番地１,,20,203,3861321,,,,,,,2023-01-10,1,,,,,スクリーンインサツラトナ,0
412,2110001037210,新規,0,2023-01-10,2023-01-10,株式会社吉田電気商会,,株式会社,新潟県,北蒲原郡聖籠町,大字大夫２１４８番地の４,,15,307,9570121,,,,,,,2023-01-10,1,,,,,ヨシダデンキショウカイ,0
413,2110001037219,新規,0,2023-01-10,2023-01-10,株式会社Ｇｒｅｅｎ　Ａｑｕａ,,株式会社,新潟県,新潟市北区,葛塚４８４４番地１５,,15,101,9503321,,,,,,,2023-01-10,1,,,,,グリーンアクア,0
414,2110001037227,新規,0,2023-01-10,2023-01-10,株式会社おまめ,,株式会社,新潟県,新潟市西区,黒鳥４９９６番地,,15,107,9501123,,,,,,,2023-01-10,1,,,,,オマメ,0
426,2120001251479,新規,0,2023-01-10,2023-01-10,株式会社井上防水,,株式会社,大阪府,寝屋川市,太秦東が丘２４番３－２０５号,,27,215,5720841,,,,,,,2023-01-10,1,,,,,イノウエボウスイ,0
427,2120001251495,新規,0,2023-01-10,2023-01-10,ＳＵＮＮＹ　Ａ株式会社,,株式会社,大阪府,枚方市,宮之阪４丁目２１番１号,,27,210,5730022,,,,,,,2023-01-10,1,,,,,サニーエー,0
428,2120001251520,新規,0,2023-01-10,2023-01-10,株式会社Ｓｅｌｔｅｒｒｅ,,株式会社,大阪府,大阪市都島区,東野田町１丁目６番１号,,27,102,5340024,,,,,,,2023-01-10,1,,,,,セルテール,0
429,2120001251537,新規,0,2023-01-10,2023-01-10,株式会社エマルーチェ,,株式会社,大阪府,守口市,南寺方東通４丁目２４番８号,,27,209,5700043,,,,,,,2023-01-10,1,,,,,エマルーチェ,0
430,2120001251561,新規,0,2023-01-10,2023-01-10,株式会社ラヴィドール,,株式会社,大阪府,大阪市生野区,鶴橋１丁目１０番２７号,,27,116,5440031,,,,,,,2023-01-10,1,,,,,ラヴィドール,0
431,2120001251578,新規,0,2023-01-10,2023-01-10,株式会社金田電気,,株式会社,大阪府,大阪市生野区,巽中３丁目１３番３２号,00128978,27,116,5440013,,,,,,,2023-01-10,1,,,,,カネダデンキ,0
432,2120001251586,新規,0,2023-01-10,2023-01-10,株式会社ＫＴＴ,,株式会社,大阪府,大阪市福島区,福島６丁目３番２号１３０４,,27,103,5530003,,,,,,,2023-01-10,1,,,,,ケーティーティー,0
435,2120003023190,新規,0,2023-01-10,2023-01-10,合同会社大洋ＡＧ,,合同会社,大阪府,大阪市中央区,玉造２丁目１７番１０－９０２号,,27,128,5400004,,,,,,,2023-01-10,1,,,,,タイヨウエージー,0
436,2120003023199,新規,0,2023-01-10,2023-01-10,合同会社Ｍ・Ａプランニング,,合同会社,大阪府,大阪市西区,本田４丁目６番２０－９０２号,,27,106,5500022,,,,,,,2023-01-10,1,,,,,エムエープランニング,0
443,2120101066760,新規,0,2023-01-10,2023-01-10,株式会社ＬＵＸＣＯＲ,,株式会社,大阪府,堺市南区,岩室１２番地,,27,145,5900112,,,,,,,2023-01-10,1,,,,,ラックスコア,0
448,2120901046953,新規,0,2023-01-10,2023-01-10,株式会社ハレ,,株式会社,大阪府,吹田市,竹見台４丁目１番４－６０５号,,27,205,5650863,,,,,,,2023-01-10,1,,,,,ハレ,0
451,2122001036546,新規,0,2023-01-10,2023-01-10,株式会社なにわ通信,,株式会社,大阪府,東大阪市,新庄西２番２４号,,27,227,5780964,,,,,,,2023-01-10,1,,,,,ナニワツウシン,0
452,2130001073402,新規,0,2023-01-10,2023-01-10,株式会社百花,,株式会社,京都府,京都市中京区,大阪材木町６９９番地フォルム洛中庵４０１号,,26,104,6048182,,,,,,,2023-01-10,1,,,,,モモカ,0
453,2130001073410,新規,0,2023-01-10,2023-01-10,株式会社ヴァルブランシュ,,株式会社,京都府,京都市右京区,太秦井戸ケ尻町２４－７,,26,108,6168122,,,,,,,2023-01-10,1,,,,,ヴァルブランシュ,0
458,2140001128626,新規,0,2023-01-10,2023-01-10,蓮空株式会社,,株式会社,兵庫県,宝塚市,高松町１０番１８号,,28,214,6650043,,,,,,,2023-01-10,1,,,,,ハスクウ,0
459,2140001128642,新規,0,2023-01-10,2023-01-10,株式会社ゆにわ,,株式会社,兵庫県,姫路市,継４２０番地８,,28,201,6728004,,,,,,,2023-01-10,1,,,,,ユニワ,0
461,2150001026069,新規,0,2023-01-10,2023-01-10,株式会社ライズコーポレーション,,株式会社,奈良県,磯城郡田原本町,大字宮古２４８番地,,29,363,6360302,,,,,,,2023-01-10,1,,,,,ライズコーポレーション,0
462,2150003002852,新規,0,2023-01-10,2023-01-10,ＦＯＸＴＲＡＩＬ　ＯＵＴＤＯＯＲ合同会社,,合同会社,奈良県,奈良市,中登美ヶ丘６丁目１３番２－３１３号,,29,201,6310003,,,,,,,2023-01-10,1,,,,,フォックストレイルアウトドア,0
463,2160001024749,新規,0,2023-01-10,2023-01-10,ｉ‐ｋｕ　ｈｏｕｓｅ株式会社,,株式会社,滋賀県,長浜市,三川町１２７２番地４,,25,203,5290111,,,,,,,2023-01-10,1,,,,,イークハウス,0
472,2180001154429,新規,0,2023-01-10,2023-01-10,ＡＳＴＶＩＳＩＯＮ株式会社,,株式会社,愛知県,一宮市,明地字社宮地２５番地１,,23,203,4940012,,,,,,,2023-01-10,1,,,,,アストビジョン,0
473,2180001154437,新規,0,2023-01-10,2023-01-10,株式会社ｉ‐Ｑｕａｌｉｔｙ,,株式会社,愛知県,知多郡美浜町,大字北方字宮東３３番地,,23,446,4702403,,,,,,,2023-01-10,1,,,,,アイクオリティー,0
474,2180001154445,新規,0,2023-01-10,2023-01-10,株式会社エベレストムーン,,株式会社,愛知県,名古屋市熱田区,横田１丁目４番５号,,23,109,4560022,,,,,,,2023-01-10,1,,,,,エベレストムーン,0
475,2180001154461,新規,0,2023-01-10,2023-01-10,ビー・エル・ジー株式会社,,株式会社,愛知県,津島市,宇治町字城１２５番地,,23,208,4960008,,,,,,,2023-01-10,1,,,,,ビーエルジー,0
481,2180003024679,新規,0,2023-01-10,2023-01-10,合同会社Ｐｅｅｋａｂｏｏ,,合同会社,愛知県,名古屋市緑区,ほら貝１丁目４７１－２０１,,23,114,4580013,,,,,,,2023-01-10,1,,,,,ピーカブー,0
488,2190003004184,新規,0,2023-01-10,2023-01-10,合同会社Ｓ‐ＰＬＵＳ,,合同会社,三重県,桑名市,大央町２９番地,,24,205,5110065,,,,,,,2023-01-10,1,,,,,エスプラス,0
491,2190005011781,新規,0,2023-01-10,2023-01-10,一般社団法人日本クマノザクラの会,,その他の設立登記法人,三重県,南牟婁郡紀宝町,神内８０８番地１,,24,562,5195712,,,,,,,2023-01-10,1,,,,,ニホンクマノザクラノカイ,0
498,2210003001600,新規,0,2023-01-10,2023-01-10,合同会社ＴＯＭＩＴＡＷＯＲＫ,,合同会社,福井県,福井市,中央３丁目５番１２号クラフトブリッジ２階,,18,201,9100006,,,,,,,2023-01-10,1,,,,,トミタワーク,0
499,2220001025204,新規,0,2023-01-10,2023-01-10,株式会社ケーキショップオカダ,,株式会社,石川県,七尾市,小島町ヘ部８０番地１,,17,202,9260852,,,,,,,2023-01-10,1,,,,,ケーキショップオカダ,0
500,2220001025212,新規,0,2023-01-10,2023-01-10,株式会社カワバタ,,株式会社,石川県,金沢市,無量寺５丁目２０番地２,,17,201,9200333,,,,,,,2023-01-10,1,,,,,カワバタ,0
501,2220003003422,新規,0,2023-01-10,2023-01-10,ディープラウド合同会社,,合同会社,石川県,河北郡津幡町,字川尻タ７４番地２,,17,361,9290334,,,,,,,2023-01-10,1,,,,,ディープラウド,0
502,2230001019659,新規,0,2023-01-10,2023-01-10,はちたん工房株式会社,,株式会社,富山県,南砺市,院林１１１番地５,,16,210,9391531,,,,,,,2023-01-10,1,,,,,ハチタンコウボウ,0
503,2240001060901,新規,0,2023-01-10,2023-01-10,株式会社山本商店,,株式会社,広島県,三原市,古浜２丁目１０番３４号,,34,204,7230013,,,,,,,2023-01-10,1,,,,,ヤマモトショウテン,0
504,2240001060918,新規,0,2023-01-10,2023-01-10,エフイーシイ株式会社,,株式会社,広島県,三原市,大和町下草井１１０２番地,,34,204,7291333,,,,,,,2023-01-10,1,,,,,エフイーシイ,0
505,2240001060926,新規,0,2023-01-10,2023-01-10,ＡＣＭＥ株式会社,,株式会社,広島県,広島市中区,河原町７番８号,,34,101,7300856,,,,,,,2023-01-10,1,,,,,アクミ,0
512,2260001037559,新規,0,2023-01-10,2023-01-10,株式会社Ｊ‐ＮＥＸＵＳ,,株式会社,岡山県,岡山市東区,光津１０６７番地,,33,103,7048164,,,,,,,2023-01-10,1,,,,,ジェイネクサス,0
513,2260001037567,新規,0,2023-01-10,2023-01-10,株式会社悠航建設工業,,株式会社,岡山県,岡山市北区,宿１３２６番地６３,,33,101,7000001,,,,,,,2023-01-10,1,,,,,ユウコウケンセツコウギョウ,0
518,2280003001684,新規,0,2023-01-10,2023-01-10,合同会社塩冶事務所,,合同会社,島根県,松江市,うぐいす台２番２５号,,32,201,6900869,,,,,,,2023-01-10,1,,,,,エンヤジムショ,0
523,2290001100066,新規,0,2023-01-10,2023-01-10,ライフチューニング株式会社,,株式会社,福岡県,福岡市中央区,輝国２丁目２４番１８－２,,40,133,8100032,,,,,,,2023-01-10,1,,,,,ライフチューニング,0
524,2290001100099,新規,0,2023-01-10,2023-01-10,アクシズ株式会社,,株式会社,福岡県,福岡市東区,原田１丁目４２番３８号,,40,131,8120063,,,,,,,2023-01-10,1,,,,,アクシズ,0
525,2290001100108,新規,0,2023-01-10,2023-01-10,株式会社しょうじん,,株式会社,福岡県,筑紫野市,二日市北２丁目１２番３号レナジア二日市１Ｆ,,40,217,8180056,,,,,,,2023-01-10,1,,,,,ショウジン,0
526,2290001100116,新規,0,2023-01-10,2023-01-10,株式会社Ｃｏｍｐａｓｓ,,株式会社,福岡県,福岡市東区,青葉７丁目５１番２号,,40,131,8130025,,,,,,,2023-01-10,1,,,,,コンパス,0
527,2290001100124,新規,0,2023-01-10,2023-01-10,株式会社ワードセキュリティ,,株式会社,福岡県,久留米市,梅満町４１２番地８,,40,203,8300048,,,,,,,2023-01-10,1,,,,,ワードセキュリティ,0
530,2290805009619,新規,0,2023-01-10,2023-01-10,医療法人天祐会かたえ整形外科・リウマチ科,,その他の設立登記法人,福岡県,北九州市小倉北区,真鶴２丁目１０番５号,,40,106,8030844,,,,,,,2023-01-10,1,,,,,テンユウカイカタエセイケイゲカリウマチカ,0
534,2310001018215,新規,0,2023-01-10,2023-01-10,株式会社ＴＣＢ,,株式会社,長崎県,佐世保市,光月町１番２３号,,42,202,8570805,,,,,,,2023-01-10,1,,,,,ティーシービー,0
537,2320001019501,新規,0,2023-01-10,2023-01-10,株式会社村上ファーム,,株式会社,大分県,臼杵市,野津町大字西寒田２１２２番地,,44,206,8750237,,,,,,,2023-01-10,1,,,,,ムラカミファーム,0
538,2320005010043,新規,0,2023-01-10,2023-01-10,医療法人亀山会,,その他の設立登記法人,大分県,日田市,隈２丁目１番３号,,44,204,8770044,,,,,,,2023-01-10,1,,,,,キザンカイ,0
539,2330001030449,新規,0,2023-01-10,2023-01-10,株式会社大道工業,,株式会社,熊本県,玉名市,築地６３９番地,,43,206,8650065,,,,,,,2023-01-10,1,,,,,ダイドウコウギョウ,0
541,2330003009664,新規,0,2023-01-10,2023-01-10,合同会社ひなた,,合同会社,熊本県,熊本市北区,龍田陳内３丁目６番１３－２１１号,,43,105,8618005,,,,,,,2023-01-10,1,,,,,ヒナタ,0
545,2340001025274,新規,0,2023-01-10,2023-01-10,株式会社尾之上産業,,株式会社,鹿児島県,曽於市,末吉町二之方４８９２番地５,,46,217,8998605,,,,,,,2023-01-10,1,,,,,オノウエサンギョウ,0
546,2340001025282,新規,0,2023-01-10,2023-01-10,株式会社米玉利工芸,,株式会社,鹿児島県,鹿児島市,清和３丁目４番１号,,46,201,8910109,,,,,,,2023-01-10,1,,,,,ヨネタマリコウゲイ,0
547,2350001018129,新規,0,2023-01-10,2023-01-10,株式会社リムクリエイト,,株式会社,宮崎県,日向市,大字財光寺１３３７番地２,,45,206,8830021,,,,,,,2023-01-10,1,,,,,リムクリエイト,0
550,2360003012608,新規,0,2023-01-10,2023-01-10,Ｉｃｈｉｊｉｍ合同会社,,合同会社,沖縄県,那覇市,牧志１丁目１２番１６号２階,,47,201,9000013,,,,,,,2023-01-10,1,,,,,イチヂム,0
551,2360003012616,新規,0,2023-01-10,2023-01-10,合同会社ワンダーミッション,,合同会社,沖縄県,宜野湾市,大謝名４丁目１０番３３号Ａ－１０１号,,47,205,9012225,,,,,,,2023-01-10,1,,,,,ワンダーミッション,0
554,2390001017127,新規,0,2023-01-10,2023-01-10,株式会社グリーンアース,,株式会社,山形県,新庄市,大字角沢７２８番地,,06,205,9960052,,,,,,,2023-01-10,1,,,,,グリーンアース,0
568,2420001018113,新規,0,2023-01-10,2023-01-10,株式会社クオリア,,株式会社,青森県,青森市,合浦２丁目６番３号,,02,201,0300902,,,,,,,2023-01-10,1,,,,,クオリア,0
569,2420003002643,新規,0,2023-01-10,2023-01-10,とんぼ合同会社,,合同会社,青森県,上北郡おいらせ町,松原１丁目７３番地４９６,,02,412,0392206,,,,,,,2023-01-10,1,,,,,トンボ,0
570,2430001088130,新規,0,2023-01-10,2023-01-10,株式会社Ｒａｐｓｂｌｕｔｅ,,株式会社,北海道,札幌市中央区,南六条西９丁目１０１９番地１２札幌第一パークハイツ８１９号室,,01,101,0640806,,,,,,,2023-01-10,1,,,,,ラップスブルート,0
576,2490005006883,新規,0,2023-01-10,2023-01-10,一般社団法人土佐清水ジオパーク推進協議会,,その他の設立登記法人,高知県,土佐清水市,三崎４０３２番地２,,39,209,7870450,,,,,,,2023-01-10,1,,,,,トサシミズジオパークスイシンキョウギカイ,0
590,3010001231994,新規,0,2023-01-10,2023-01-10,Ｅｃｏ　Ｇｒｅｅｎ　Ｅｎｅｒｇｙ株式会社,,株式会社,東京都,中央区,日本橋３丁目８－７坂本ビル５Ｆ,,13,102,1030027,,,,,,,2023-01-10,1,,,,,エコグリーンエネルギー,0
591,3010001232002,新規,0,2023-01-10,2023-01-10,ＭＡＬＬＯ株式会社,,株式会社,東京都,中央区,銀座７丁目１５番８号タウンハイツ銀座４０６,,13,102,1040061,,,,,,,2023-01-10,1,,,,,マーロ,0
592,3010001232043,新規,0,2023-01-10,2023-01-10,株式会社Ｍｉｘａｚｚ,,株式会社,東京都,文京区,千石４丁目４６番８号,,13,105,1120011,,,,,,,2023-01-10,1,,,,,ミクサーズ,0
598,3010003039486,新規,0,2023-01-10,2023-01-10,ビー・ダブリュー・エー・ジャパン合同会社,,合同会社,東京都,千代田区,大手町１丁目２番１号,,13,101,1000004,,,,,,,2023-01-10,1,,,,,ビーダブリューエージャパン,0
601,3010005036069,新規,0,2023-01-10,2023-01-10,一般社団法人国際ヘルスケア協力研究会,,その他の設立登記法人,東京都,千代田区,五番町１０五番町ＫＵビル,,13,101,1020076,,,,,,,2023-01-10,1,,,,,コクサイヘルスケアキョウリョクケンキュウカイ,0
603,3010401171725,新規,0,2023-01-10,2023-01-10,株式会社ｐａｒｆａｉｔ,,株式会社,東京都,港区,北青山２丁目１４番４号,,13,103,1070061,,,,,,,2023-01-10,1,,,,,パルフェ,0
609,3010403029236,新規,0,2023-01-10,2023-01-10,合同会社Ｖｅｒｎａｌ　Ｊｕｎｃｔｉｏｎ,,合同会社,東京都,港区,南青山２丁目２番１５号,,13,103,1070062,,,,,,,2023-01-10,1,,,,,バーナルジャンクション,0
610,3010403029244,新規,0,2023-01-10,2023-01-10,合同会社Ｃｒｅａ美,,合同会社,東京都,港区,赤坂２丁目１３－１９フレームズアカサカ４０４号室,,13,103,1070052,,,,,,,2023-01-10,1,,,,,クレアメイ,0
611,3010403029277,新規,0,2023-01-10,2023-01-10,ＰＲＥＰ　ＩＩＩ合同会社,,合同会社,東京都,港区,虎ノ門４丁目１番２８号,,13,103,1050001,,,,,,,2023-01-10,1,,,,,プレップスリー,0
613,3010601062369,新規,0,2023-01-10,2023-01-10,株式会社初昇,,株式会社,東京都,墨田区,墨田５丁目５番２号,,13,107,1310031,,,,,,,2023-01-10,1,,,,,ハツノボリ,0
614,3010601062393,新規,0,2023-01-10,2023-01-10,株式会社ＳＧＹコーポレーション,,株式会社,東京都,江東区,亀戸２丁目４０番１号,,13,108,1360071,,,,,,,2023-01-10,1,,,,,エスジーワイコーポレーション,0
615,3010601062402,新規,0,2023-01-10,2023-01-10,株式会社Ｇ‐ＳＰＥＸ,,株式会社,東京都,江東区,新木場１丁目１３番地９,,13,108,1360082,,,,,,,2023-01-10,1,,,,,ジィスペック,0
617,3010801033566,新規,0,2023-01-10,2023-01-10,株式会社昭和電業社,,株式会社,東京都,大田区,大森北３丁目１８番１１号,,13,111,1430016,,,,,,,2023-01-10,1,,,,,,0
624,3011001151794,新規,0,2023-01-10,2023-01-10,ＡｓｔａｒＧａｍｅｓ株式会社,,株式会社,東京都,渋谷区,神宮前６丁目２３番４号桑野ビル２階,,13,113,1500001,,,,,,,2023-01-10,1,,,,,アスターゲームス,0
625,3011001151811,新規,0,2023-01-10,2023-01-10,株式会社ＤＩＧ‐ＵＰ　ＤＡＴＡ,,株式会社,東京都,渋谷区,円山町５番５号Ｎａｖｉ渋谷Ｖ３階,,13,113,1500044,,,,,,,2023-01-10,1,,,,,ディグアップデータ,0
626,3011001151828,新規,0,2023-01-10,2023-01-10,株式会社ｅｃｌｉｐｓｅ,,株式会社,東京都,目黒区,青葉台４丁目７－３－３０１,,13,110,1530042,,,,,,,2023-01-10,1,,,,,エクリプス,0
628,3011003016054,新規,0,2023-01-10,2023-01-10,合同会社切札,,合同会社,東京都,渋谷区,道玄坂１丁目１０番８号渋谷道玄坂東急ビル２Ｆ－Ｃ,,13,113,1500043,,,,,,,2023-01-10,1,,,,,キリフダ,0
632,3011101101360,新規,0,2023-01-10,2023-01-10,株式会社ミズバ商事,,株式会社,東京都,新宿区,北新宿１丁目３５－１５－２０３,,13,104,1690074,,,,,,,2023-01-10,1,,,,,ミズバショウジ,0
633,3011101101385,新規,0,2023-01-10,2023-01-10,株式会社マッシュアップワークス,,株式会社,東京都,新宿区,百人町２丁目２５番１－４０８号,,13,104,1690073,,,,,,,2023-01-10,1,,,,,マッシュアップワークス,0
634,3011103012556,新規,0,2023-01-10,2023-01-10,森林再生ファンド４号合同会社,,合同会社,東京都,新宿区,四谷４丁目３２番８号ＹＫＢサニービル６階,,13,104,1600004,,,,,,,2023-01-10,1,,,,,シンリンサイセイファンドヨンゴウ,0
636,3011201024313,新規,0,2023-01-10,2023-01-10,東京光禹莱特数字科技株式会社,,株式会社,東京都,中野区,江古田２丁目２１番３号ハイツベルナール,,13,114,1650022,,,,,,,2023-01-10,1,,,,,トウキョウコウウサイトクスウジカギ,0
637,3011201024338,新規,0,2023-01-10,2023-01-10,株式会社コミヤマデザイン,,株式会社,東京都,中野区,鷺宮３丁目１１番２８号,,13,114,1650032,,,,,,,2023-01-10,1,,,,,コミヤマデザイン,0
646,3012301013271,新規,0,2023-01-10,2023-01-10,株式会社完丸不動産,,株式会社,東京都,町田市,木曽東４丁目６番５１０号,,13,209,1940036,,,,,,,2023-01-10,1,,,,,シシマルフドウサン,0
651,3012403005761,新規,0,2023-01-10,2023-01-10,合同会社未来商店,,合同会社,東京都,調布市,菊野台３丁目３２番地１０,,13,208,1820007,,,,,,,2023-01-10,1,,,,,ミライショウテン,0
653,3013101009096,新規,0,2023-01-10,2023-01-10,株式会社京侑,,株式会社,東京都,羽村市,羽加美３丁目１０番２１号,,13,227,2050016,,,,,,,2023-01-10,1,,,,,ケイユウ,0
663,3020001149666,新規,0,2023-01-10,2023-01-10,株式会社Ａｌｉｃｅ,,株式会社,神奈川県,横浜市鶴見区,東寺尾１丁目９番２号,,14,101,2300077,,,,,,,2023-01-10,1,,,,,アリス,0
664,3020001149674,新規,0,2023-01-10,2023-01-10,株式会社北東,,株式会社,神奈川県,横浜市南区,堀ノ内町１丁目９８番地１堀ノ内ハイツ１０１,,14,105,2320042,,,,,,,2023-01-10,1,,,,,ホクトウ,0
665,3020001149682,新規,0,2023-01-10,2023-01-10,Ｎ‐ＳＴＹＬＥ株式会社,,株式会社,神奈川県,横浜市栄区,上郷町２６８番地１０,,14,115,2470013,,,,,,,2023-01-10,1,,,,,エヌスタイル,0
666,3020001149699,新規,0,2023-01-10,2023-01-10,株式会社ハイサーフ,,株式会社,神奈川県,川崎市川崎区,駅前本町１８番１号メルスサイトー７０２,,14,131,2100007,,,,,,,2023-01-10,1,,,,,ハイサーフ,0
667,3020001149708,新規,0,2023-01-10,2023-01-10,株式会社ＯＮＥ　ＳＴＥＰ,,株式会社,神奈川県,川崎市宮前区,平２丁目２番３号１Ｆ,,14,136,2160022,,,,,,,2023-01-10,1,,,,,ワンステップ,0
670,3020003023019,新規,0,2023-01-10,2023-01-10,合同会社ｎｅｋｏｉｎｋ,,合同会社,神奈川県,横浜市西区,花咲町６丁目１３８番地１クリオレジタンス横濱ザ・マークス６０１号,,14,103,2200022,,,,,,,2023-01-10,1,,,,,ネコインク,0
671,3020003023027,新規,0,2023-01-10,2023-01-10,合同会社ＳＥＮＪＹＵ,,合同会社,神奈川県,川崎市中原区,新丸子東３丁目９４６番地３ＭＫファーストビル２Ｆ,,14,133,2110004,,,,,,,2023-01-10,1,,,,,センジュ,0
672,3020003023051,新規,0,2023-01-10,2023-01-10,合同会社レスクル,,合同会社,神奈川県,横浜市中区,相生町３丁目６３－１パークアクシス横濱関内４０１,,14,104,2310012,,,,,,,2023-01-10,1,,,,,レスクル,0
673,3020005015798,新規,0,2023-01-10,2023-01-10,田中事務所税理士法人,,その他の設立登記法人,神奈川県,横浜市中区,尾上町１丁目４－１,,14,104,2310015,,,,,,,2023-01-10,1,,,,,,0
675,3021001077840,新規,0,2023-01-10,2023-01-10,株式会社５＆フィットネス,,株式会社,神奈川県,横須賀市,追浜本町２丁目３３番地３２,,14,201,2370068,,,,,,,2023-01-10,1,,,,,ファイブアンドフィットネス,0
676,3021001077849,新規,0,2023-01-10,2023-01-10,Ｋ‐ｍａｒｋｓ株式会社,,株式会社,神奈川県,海老名市,門沢橋６丁目１４番１９号,,14,215,2430426,,,,,,,2023-01-10,1,,,,,ケーマークス,0
677,3021001077857,新規,0,2023-01-10,2023-01-10,株式会社ＥＮＣＲＥ,,株式会社,神奈川県,厚木市,妻田東２丁目２２番１８号,,14,212,2430813,,,,,,,2023-01-10,1,,,,,アンクル,0
678,3021001077865,新規,0,2023-01-10,2023-01-10,株式会社ＯＡＨＳ,,株式会社,神奈川県,小田原市,浜町１丁目１０番１４号,,14,206,2500004,,,,,,,2023-01-10,1,,,,,オーエーエイチエス,0
679,3021001077881,新規,0,2023-01-10,2023-01-10,株式会社綾瀬ニュースサービス,,株式会社,神奈川県,綾瀬市,寺尾本町１丁目２３番２２号,,14,218,2521133,,,,,,,2023-01-10,1,,,,,アヤセニュースサービス,0
680,3021001077898,新規,0,2023-01-10,2023-01-10,株式会社Ｔｒｕｓｔ　Ｏｎｅ,,株式会社,神奈川県,厚木市,長谷１１７２－２,,14,212,2430036,,,,,,,2023-01-10,1,,,,,,0
681,3021003012564,新規,0,2023-01-10,2023-01-10,ＴＯＳＨＩ建設合同会社,,合同会社,神奈川県,相模原市中央区,陽光台４丁目８－９パステルメゾンＩＩ２階２０９,00128986,14,152,2520226,,,,,,,2023-01-10,1,,,,,トシケンセツ,0
682,3021003012580,新規,0,2023-01-10,2023-01-10,合同会社芳裕,,合同会社,神奈川県,平塚市,長持４２１番地の５,,14,203,2591217,,,,,,,2023-01-10,1,,,,,ホウユウ,0
687,3030001151729,新規,0,2023-01-10,2023-01-10,株式会社檜左官,,株式会社,埼玉県,所沢市,大字下安松６３７番地の７アドレコート２０２,,11,208,3590024,,,,,,,2023-01-10,1,,,,,ヒノキサカン,0
688,3030001151753,新規,0,2023-01-10,2023-01-10,株式会社石塚工業,,株式会社,埼玉県,白岡市,高岩１８００番地３,,11,246,3490213,,,,,,,2023-01-10,1,,,,,イシヅカコウギョウ,0
689,3030001151761,新規,0,2023-01-10,2023-01-10,株式会社東防災設備,,株式会社,埼玉県,川越市,豊田町２丁目３３番地５,,11,201,3501110,,,,,,,2023-01-10,1,,,,,アズマボウサイセツビ,0
693,3030003020915,新規,0,2023-01-10,2023-01-10,日本公益投資合同会社,,合同会社,埼玉県,さいたま市大宮区,櫛引町１丁目１５０番地４,,11,103,3300851,,,,,,,2023-01-10,1,,,,,ニホンコウエキトウシ,0
700,3040001126465,新規,0,2023-01-10,2023-01-10,富士昭和新材料株式会社,,株式会社,千葉県,市原市,潤井戸字坂ノ上２１０７番地１２,,12,219,2900171,,,,,,,2023-01-10,1,,,,,フジショウワシンザイリョウ,0
701,3040001126473,新規,0,2023-01-10,2023-01-10,アイオシェア株式会社,,株式会社,千葉県,船橋市,八木が谷２丁目３２番５号,,12,204,2740802,,,,,,,2023-01-10,1,,,,,アイオシェア,0
702,3040001126481,新規,0,2023-01-10,2023-01-10,株式会社ウェルステージ,,株式会社,千葉県,松戸市,小金原３丁目１７番地の３９－１０３,,12,207,2700021,,,,,,,2023-01-10,1,,,,,ウェルステージ,0
703,3040001126507,新規,0,2023-01-10,2023-01-10,株式会社鈴木板金,,株式会社,千葉県,野田市,木間ケ瀬３７８７番地１,,12,208,2700222,,,,,,,2023-01-10,1,,,,,スズキバンキン,0
704,3040001126515,新規,0,2023-01-10,2023-01-10,プリームス株式会社,,株式会社,千葉県,木更津市,清見台３丁目９番１４号,,12,206,2920045,,,,,,,2023-01-10,1,,,,,プリームス,0
707,3040003021631,新規,0,2023-01-10,2023-01-10,合同会社あじさい,,合同会社,千葉県,東金市,下武射田２７２１番地６,,12,213,2830012,,,,,,,2023-01-10,1,,,,,アジサイ,0
710,3060001035581,新規,0,2023-01-10,2023-01-10,株式会社キャッスル・トレード,,株式会社,栃木県,真岡市,台町４２９８番地１２,,09,209,3214306,,,,,,,2023-01-10,1,,,,,キャッスルトレード,0
712,3070001039994,新規,0,2023-01-10,2023-01-10,株式会社アペックスクリーン,,株式会社,群馬県,高崎市,上小鳥町３０２番地３,,10,202,3700078,,,,,,,2023-01-10,1,,,,,アペックスクリーン,0
715,3080101023716,新規,0,2023-01-10,2023-01-10,株式会社ライフ,,株式会社,静岡県,伊豆の国市,南條１５６４番地の２,,22,225,4102114,,,,,,,2023-01-10,1,,,,,ライフ,0
716,3080401026237,新規,0,2023-01-10,2023-01-10,Ｐｉｓｔｅ株式会社,,株式会社,静岡県,浜松市中区,富塚町４７０２番地の１２,,22,131,4328002,,,,,,,2023-01-10,1,,,,,ピスト,0
718,3080403004686,新規,0,2023-01-10,2023-01-10,合同会社りゅう３５８,,合同会社,静岡県,湖西市,古見９９６番地の１,,22,221,4310442,,,,,,,2023-01-10,1,,,,,リュウサンゴーハチ,0
723,3110001037201,新規,0,2023-01-10,2023-01-10,株式会社ＭＦＬ,,株式会社,新潟県,新潟市中央区,鳥屋野２丁目１３番２２号,,15,103,9500951,,,,,,,2023-01-10,1,,,,,エムエフエル,0
724,3110005016886,新規,0,2023-01-10,2023-01-10,農事組合法人ハワイファーム,,その他の設立登記法人,新潟県,新発田市,乗廻３５４番地,,15,206,9592328,,,,,,,2023-01-10,1,,,,,ハワイファーム,0
735,3120001251536,新規,0,2023-01-10,2023-01-10,株式会社マリマリ,,株式会社,大阪府,大阪市生野区,桃谷５丁目７番３１号,,27,116,5440034,,,,,,,2023-01-10,1,,,,,マリマリ,0
736,3120001251552,新規,0,2023-01-10,2023-01-10,株式会社松西ビルマネジメント,,株式会社,大阪府,大阪市住吉区,我孫子３丁目１１番２７号,,27,120,5580014,,,,,,,2023-01-10,1,,,,,マツニシビルマネジメント,0
737,3120001251560,新規,0,2023-01-10,2023-01-10,株式会社ユニティ企画,,株式会社,大阪府,大阪市中央区,南本町１丁目３番２号三星南本町ビル８階,,27,128,5410054,,,,,,,2023-01-10,1,,,,,ユニティキカク,0
738,3120001251577,新規,0,2023-01-10,2023-01-10,株式会社テクノバネ商会,,株式会社,大阪府,大阪市鶴見区,今津中１丁目６番１２号,,27,124,5380042,,,,,,,2023-01-10,1,,,,,テクノバネショウカイ,0
744,3120101066784,新規,0,2023-01-10,2023-01-10,株式会社ＥｎｊｏｙＥｎｇｉｎｅｅｒｉｎｇＣｌｕｂ,,株式会社,大阪府,堺市北区,長曽根町１３０番地４２,,27,146,5918025,,,,,,,2023-01-10,1,,,,,エンジョイエンジニアリングクラブ,0
751,3122001036545,新規,0,2023-01-10,2023-01-10,株式会社ビーピーエス,,株式会社,大阪府,東大阪市,吉田４丁目６番３８－３０２号,,27,227,5780924,,,,,,,2023-01-10,1,,,,,ビーピーエス,0
757,3140001128583,新規,0,2023-01-10,2023-01-10,プライムプロパティー株式会社,,株式会社,兵庫県,伊丹市,東野５丁目１３番地２０１,,28,207,6640004,,,,,,,2023-01-10,1,,,,,プライムプロパティー,0
758,3140003018535,新規,0,2023-01-10,2023-01-10,合同会社ＣＲＡＩＮＳ,,合同会社,兵庫県,姫路市,網干区浜田１７１番地１,,28,201,6711242,,,,,,,2023-01-10,1,,,,,クレインズ,0
760,3170001017429,新規,0,2023-01-10,2023-01-10,株式会社ＳＮホーム,,株式会社,和歌山県,和歌山市,津秦１８番地,,30,201,6408315,,,,,,,2023-01-10,1,,,,,エスエヌホーム,0
769,3180001154378,新規,0,2023-01-10,2023-01-10,株式会社オオシマ商店,,株式会社,愛知県,海部郡大治町,大字北間島字藤田４０番地の２,,23,424,4901132,,,,,,,2023-01-10,1,,,,,オオシマショウテン,0
770,3180001154428,新規,0,2023-01-10,2023-01-10,株式会社ＡＣＣＥＰＴ,,株式会社,愛知県,名古屋市瑞穂区,新開町２４番５０号,,23,108,4670856,,,,,,,2023-01-10,1,,,,,アクセプト,0
771,3180001154436,新規,0,2023-01-10,2023-01-10,アイチラベル株式会社,,株式会社,愛知県,名古屋市昭和区,福江１丁目２番５号,,23,107,4660059,,,,,,,2023-01-10,1,,,,,アイチラベル,0
772,3180001154444,新規,0,2023-01-10,2023-01-10,＿龍商事株式会社,00128979,株式会社,愛知県,名古屋市中村区,靖国町２丁目９０番地ハイツゾンネ２Ｂ室,,23,105,4530065,,,,,,,2023-01-10,1,,,,,シンロンショウジ,0
773,3180001154452,新規,0,2023-01-10,2023-01-10,株式会社エムテック,,株式会社,愛知県,東海市,大田町天尾崎１７番地３クオレール２０２,,23,222,4770031,,,,,,,2023-01-10,1,,,,,エムテック,0
774,3180001154460,新規,0,2023-01-10,2023-01-10,株式会社ＡＳＣ,,株式会社,愛知県,名古屋市昭和区,陶生町１丁目１２番地の２,,23,107,4660026,,,,,,,2023-01-10,1,,,,,エーエスシー,0
777,3180003024694,新規,0,2023-01-10,2023-01-10,ＹＬＳ合同会社,,合同会社,愛知県,名古屋市中村区,並木２丁目２４７番地の１,,23,105,4530856,,,,,,,2023-01-10,1,,,,,ワイエルエス,0
783,3200003005799,新規,0,2023-01-10,2023-01-10,合同会社ＳＴＡサポート,,合同会社,岐阜県,各務原市,尾崎南町１丁目２番地,,21,213,5040003,,,,,,,2023-01-10,1,,,,,エスティーエーサポート,0
787,3210001019197,新規,0,2023-01-10,2023-01-10,株式会社ＮＪＳ,,株式会社,福井県,勝山市,平泉寺町岡横江第５号４番地５,,18,206,9110821,,,,,,,2023-01-10,1,,,,,エヌジェイエス,0
788,3210003001599,新規,0,2023-01-10,2023-01-10,合同会社升升,,合同会社,福井県,福井市,田原２丁目５番３号,,18,201,9100018,,,,,,,2023-01-10,1,,,,,マスマス,0
789,3220001025203,新規,0,2023-01-10,2023-01-10,株式会社エヌマシン,,株式会社,石川県,能美市,徳山町タ２番地１８,,17,211,9231222,,,,,,,2023-01-10,1,,,,,エヌマシン,0
791,3220005008724,新規,0,2023-01-10,2023-01-10,農事組合法人べんけいファーム,,その他の設立登記法人,石川県,小松市,浮柳町ハ２０５番地,,17,203,9230993,,,,,,,2023-01-10,1,,,,,ベンケイファーム,0
792,3230001019658,新規,0,2023-01-10,2023-01-10,株式会社風の薫り,,株式会社,富山県,富山市,宝町２丁目５番１５号,,16,201,9300007,,,,,,,2023-01-10,1,,,,,カゼノカオリ,0
793,3240001060917,新規,0,2023-01-10,2023-01-10,株式会社Ｙ,,株式会社,広島県,呉市,中央３丁目１１－２２ＰＡＮビル５Ｆ,,34,202,7370051,,,,,,,2023-01-10,1,,,,,ワイ,0
794,3240001060925,新規,0,2023-01-10,2023-01-10,株式会社ＯＹＦグループ,,株式会社,広島県,広島市南区,西蟹屋４丁目４番２６号第１６平勝ビル１階,,34,103,7320804,,,,,,,2023-01-10,1,,,,,オーワイエフグループ,0
801,3260001037558,新規,0,2023-01-10,2023-01-10,株式会社ＢｉｏＬｉｂｒｅ,,株式会社,岡山県,岡山市北区,東島田町２丁目６番９号１２０１,,33,101,7000983,,,,,,,2023-01-10,1,,,,,バイオリブレ,0
802,3260001037574,新規,0,2023-01-10,2023-01-10,株式会社ＡＹＡＭＥ　ＴＥＣＨＮＯ,,株式会社,岡山県,倉敷市,連島３丁目６番１号,,33,202,7128012,,,,,,,2023-01-10,1,,,,,アヤメテクノ,0
803,3260003004151,新規,0,2023-01-10,2023-01-10,合同会社ＮＫＩ　Ｏｆｆｉｃｅ,,合同会社,岡山県,岡山市中区,＿１４９－２,00128976,33,102,7038248,,,,,,,2023-01-10,1,,,,,,0
804,3270001008698,新規,0,2023-01-10,2023-01-10,株式会社プレミアムカーマネジメント,,株式会社,鳥取県,米子市,加茂町２丁目２１８番地,,31,202,6830823,,,,,,,2023-01-10,1,,,,,プレミアムカーマネジメント,0
805,3280001008862,新規,0,2023-01-10,2023-01-10,サンフィールドリペア株式会社,,株式会社,島根県,浜田市,熱田町６４２番地１,,32,202,6970062,,,,,,,2023-01-10,1,,,,,サンフィールドリペア,0
807,3290001100107,新規,0,2023-01-10,2023-01-10,株式会社ＣＢ　ｗｏｒｋｓ,,株式会社,福岡県,大牟田市,神田町４５番地１,,40,202,8360093,,,,,,,2023-01-10,1,,,,,シービーワークス,0
808,3290001100115,新規,0,2023-01-10,2023-01-10,波多江通信工業株式会社,,株式会社,福岡県,糸島市,波多江４１３番地,,40,230,8191104,,,,,,,2023-01-10,1,,,,,ハタエツウシンコウギョウ,0
817,3310001018206,新規,0,2023-01-10,2023-01-10,株式会社颯建設,,株式会社,長崎県,長崎市,琴海大平町６３９番地１５,,42,201,8513214,,,,,,,2023-01-10,1,,,,,ソウケンセツ,0
818,3320001019509,新規,0,2023-01-10,2023-01-10,株式会社Ｂ・プロテック,,株式会社,大分県,別府市,若草町３番１５号,,44,202,8740925,,,,,,,2023-01-10,1,,,,,ビープロテック,0
822,3330001030472,新規,0,2023-01-10,2023-01-10,Ｋ　ｕｎｓｏ株式会社,,株式会社,熊本県,菊池郡菊陽町,武蔵ヶ丘北２丁目１６番１号,,43,404,8691112,,,,,,,2023-01-10,1,,,,,ケイウンソウ,0
824,3330003009663,新規,0,2023-01-10,2023-01-10,合同会社ＳＧ２,,合同会社,熊本県,熊本市中央区,草葉町２番３２号２Ａ,,43,101,8600843,,,,,,,2023-01-10,1,,,,,エスジーツー,0
828,3340005009545,新規,0,2023-01-10,2023-01-10,一般社団法人Ｏｎｅ,,その他の設立登記法人,鹿児島県,薩摩川内市,永利町１４８９番地１,,46,215,8950005,,,,,,,2023-01-10,1,,,,,ワン,0
829,3350001018128,新規,0,2023-01-10,2023-01-10,株式会社こころケア,,株式会社,宮崎県,宮崎市,佐土原町下田島１９５０８番地２,,45,201,8800211,,,,,,,2023-01-10,1,,,,,ココロケア,0
831,3350003004258,新規,0,2023-01-10,2023-01-10,きいろいさくらんぼ合同会社,,合同会社,宮崎県,日南市,飫肥２丁目５番３－１号,,45,204,8892535,,,,,,,2023-01-10,1,,,,,キイロイサクランボ,0
832,3360003012615,新規,0,2023-01-10,2023-01-10,合同会社運天重機,,合同会社,沖縄県,浦添市,西原３丁目１２番１号,,47,208,9012101,,,,,,,2023-01-10,1,,,,,ウンテンジュウキ,0
834,3380005012660,新規,0,2023-01-10,2023-01-10,一般社団法人ワイ・ケー・ファンド,,その他の設立登記法人,福島県,白河市,白坂一里段６番地２８５,,07,205,9610835,,,,,,,2023-01-10,1,,,,,ワイケーファンド,0
836,3390001017126,新規,0,2023-01-10,2023-01-10,株式会社メタルファクトリー,,株式会社,山形県,山形市,大字下椹沢９４４番地,,06,201,9900858,,,,,,,2023-01-10,1,,,,,メタルファクトリー,0
840,3400005008292,新規,0,2023-01-10,2023-01-10,行政書士法人ラフ,,その他の設立登記法人,岩手県,盛岡市,本宮２丁目１５番１５号,,03,201,0200866,,,,,,,2023-01-10,1,,,,,ラフ,0
844,3420001018112,新規,0,2023-01-10,2023-01-10,吉田青果株式会社,,株式会社,青森県,上北郡おいらせ町,一川目２丁目６５番地２７９,,02,412,0392203,,,,,,,2023-01-10,1,,,,,ヨシダセイカ,0
845,3430001088121,新規,0,2023-01-10,2023-01-10,トウショウグループ株式会社,,株式会社,北海道,札幌市東区,北三十六条東２５丁目３番１５号,,01,103,0070836,,,,,,,2023-01-10,1,,,,,トウショウグループ,0
846,3430001088138,新規,0,2023-01-10,2023-01-10,ＦＪファイナンス株式会社,,株式会社,北海道,芦別市,北三条西２丁目１番地の１５,,01,216,0750003,,,,,,,2023-01-10,1,,,,,エフジェイファイナンス,0
847,3430001088162,新規,0,2023-01-10,2023-01-10,株式会社ＪＹ　ＨＯＫＫＡＩＤＯ　ＴＯＵＲ,,株式会社,北海道,札幌市西区,山の手二条９丁目１番１７号,,01,107,0630002,,,,,,,2023-01-10,1,,,,,ジェイワイホッカイドウツアー,0
849,3430003014604,新規,0,2023-01-10,2023-01-10,合同会社Ｓ．Ｓ．Ｄ,,合同会社,北海道,空知郡奈井江町,字奈井江町３１番地２,,01,424,0790300,,,,,,,2023-01-10,1,,,,,エスエスディー,0
855,3470003002324,新規,0,2023-01-10,2023-01-10,ＨＩＦＵＭＩ合同会社,,合同会社,香川県,高松市,川島東町４８８番地,,37,201,7610443,,,,,,,2023-01-10,1,,,,,ヒフミ,0
860,3500003002948,新規,0,2023-01-10,2023-01-10,合同会社Ｍａｓｓｉｖｅ,,合同会社,愛媛県,松山市,木屋町２丁目８番９号,,38,201,7900821,,,,,,,2023-01-10,1,,,,,マッシブ,0
862,3700150113552,新規,0,2023-01-10,2023-01-10,Ａｕｔｏ　Ｚｅｅ,,外国会社等,神奈川県,茅ヶ崎市,赤羽根３３８６番地４,,14,207,2530001,スリランカ民主社会主義共和国、キャンディ、アクラナ、７ｔｈマイルポスト、８９１－Ａ,,,,,,2023-01-10,1,,,,,オートジー,0
869,4010001231944,新規,0,2023-01-10,2023-01-10,株式会社ライアス,,株式会社,東京都,中央区,勝どき６丁目３番１号,,13,102,1040054,,,,,,,2023-01-10,1,,,,,ライアス,0
870,4010001231977,新規,0,2023-01-10,2023-01-10,株式会社Ｔ‐ＲＥＸ,,株式会社,東京都,千代田区,内神田２丁目１５番２－７号室,,13,101,1010047,,,,,,,2023-01-10,1,,,,,ティーレックス,0
872,4010005036068,新規,0,2023-01-10,2023-01-10,司法書士法人永田町事務所,,その他の設立登記法人,東京都,千代田区,永田町１丁目１１番２８号,,13,101,1000014,,,,,,,2023-01-10,1,,,,,ナガタチョウジムショ,0
873,4010005036092,新規,0,2023-01-10,2023-01-10,一般社団法人ＬＳ２,,その他の設立登記法人,東京都,千代田区,丸の内３丁目１番１号東京共同会計事務所内,,13,101,1000005,,,,,,,2023-01-10,1,,,,,エルエスツー,0
876,4010401171658,新規,0,2023-01-10,2023-01-10,インパクトサークルリーシング株式会社,,株式会社,東京都,港区,港南２丁目１６番２号,,13,103,1080075,,,,,,,2023-01-10,1,,,,,インパクトサークルリーシング,0
877,4010401171666,新規,0,2023-01-10,2023-01-10,株式会社アクアクララボトリング,,株式会社,東京都,港区,港南１丁目６番３１号,,13,103,1080075,,,,,,,2023-01-10,1,,,,,アクアクララボトリング,0
878,4010401171682,新規,0,2023-01-10,2023-01-10,株式会社カンパニーズドクター,,株式会社,東京都,港区,元赤坂１丁目２番７号赤坂Ｋタワー４階,,13,103,1070051,,,,,,,2023-01-10,1,,,,,カンパニーズドクター,0
881,4010501049837,新規,0,2023-01-10,2023-01-10,株式会社オンフリーク,,株式会社,東京都,台東区,日本堤１丁目３６番７号,,13,106,1110021,,,,,,,2023-01-10,1,,,,,オンフリーク,0
884,4010601062376,新規,0,2023-01-10,2023-01-10,株式会社Ｓｔｕｄｉｏ　ＯＶＩＳ,,株式会社,東京都,江東区,有明１丁目４番１１号,,13,108,1350063,,,,,,,2023-01-10,1,,,,,スタジオオビス,0
885,4010601062392,新規,0,2023-01-10,2023-01-10,株式会社ホエギクリエイト,,株式会社,東京都,江東区,亀戸２丁目６番９－８１７号,,13,108,1360071,,,,,,,2023-01-10,1,,,,,ホエギクリエイト,0
887,4010603009929,新規,0,2023-01-10,2023-01-10,合同会社ＧＡ　Ｇｌｏｂａｌ,,合同会社,東京都,江東区,東砂２丁目１５番２０号エンゼルハイム東大島第一１２０１号,,13,108,1360074,,,,,,,2023-01-10,1,,,,,ジーエーグローバル,0
890,4010703006529,新規,0,2023-01-10,2023-01-10,クリッカーズウェブ合同会社,,合同会社,東京都,品川区,大井１丁目２３―７大井町駅前三井ビル７階,,13,109,1400014,,,,,,,2023-01-10,1,,,,,クリッカーズウェブ,0
904,4011001151760,新規,0,2023-01-10,2023-01-10,株式会社ＫＩＫＩＴＳＵ,,株式会社,東京都,目黒区,碑文谷５丁目１４番１２号,,13,110,1520003,,,,,,,2023-01-10,1,,,,,キキツ,0
905,4011001151810,新規,0,2023-01-10,2023-01-10,株式会社ｎ９,,株式会社,東京都,渋谷区,神宮前６丁目２３番４号桑野ビル２階,,13,113,1500001,,,,,,,2023-01-10,1,,,,,エヌナイン,0
906,4011001151827,新規,0,2023-01-10,2023-01-10,株式会社Ｅｌｅｖｅｎ,,株式会社,東京都,渋谷区,円山町２２－６パラッツォガレリア７０２,,13,113,1500044,,,,,,,2023-01-10,1,,,,,イレブン,0
907,4011001151835,新規,0,2023-01-10,2023-01-10,株式会社ＧＲＥＥＮＳ,,株式会社,東京都,目黒区,下目黒２丁目２１番１５号,,13,110,1530064,,,,,,,2023-01-10,1,,,,,グリーンズ,0
913,4011101101368,新規,0,2023-01-10,2023-01-10,株式会社ＥｎｔｅｒＴｅｃｈ,,株式会社,東京都,新宿区,新宿２丁目３番１３号大橋ビル２階,,13,104,1600022,,,,,,,2023-01-10,1,,,,,エンターテック,0
914,4011201024320,新規,0,2023-01-10,2023-01-10,株式会社スリージェイ,,株式会社,東京都,中野区,中野４丁目３番１号サンクオーレタワー１１０７,,13,114,1640001,,,,,,,2023-01-10,1,,,,,スリージェイ,0
923,4011705001765,新規,0,2023-01-10,2023-01-10,特定非営利活動法人美汝,,その他の設立登記法人,東京都,江戸川区,西葛西５丁目１１番１１号司ビル６Ｆ,,13,123,1340088,,,,,,,2023-01-10,1,,,,,ビーナ,0
925,4012301013270,新規,0,2023-01-10,2023-01-10,株式会社Ｄ‐トライ,,株式会社,東京都,町田市,本町田３６８０パルナスＧ３１１号室,,13,209,1940032,,,,,,,2023-01-10,1,,,,,ディートライ,0
927,4012803002969,新規,0,2023-01-10,2023-01-10,合同会社ＬＭＥＳ,,合同会社,東京都,国分寺市,東元町１丁目２９－１０,,13,214,1850022,,,,,,,2023-01-10,1,,,,,エルメス,0
928,4013301050155,新規,0,2023-01-10,2023-01-10,株式会社ＴＢＭＣ,,株式会社,東京都,豊島区,東池袋１丁目３５番９号,,13,116,1700013,,,,,,,2023-01-10,1,,,,,ティービーエムシー,0
929,4013303006436,新規,0,2023-01-10,2023-01-10,合同会社ＩＦＣ,,合同会社,東京都,豊島区,要町３丁目４番１５号,,13,116,1710043,,,,,,,2023-01-10,1,,,,,アイエフシー,0
932,4020001149673,新規,0,2023-01-10,2023-01-10,ＡＳＩＡ　ＨＵＭＡＮ　ＧＡＴＥＷＡＹ株式会社,,株式会社,神奈川県,横浜市港北区,新横浜１丁目１３番地６アイシスプラザＩＩＩ５０４号室,00128969,14,109,2220033,,,,,,,2023-01-10,1,,,,,アジアヒューマンゲートウェイ,0
933,4020001149698,新規,0,2023-01-10,2023-01-10,株式会社ヨコヤマ,,株式会社,神奈川県,川崎市川崎区,港町７－２,,14,131,2100807,,,,,,,2023-01-10,1,,,,,ヨコヤマ,0
937,4021001077856,新規,0,2023-01-10,2023-01-10,株式会社ＴＲＡ,,株式会社,神奈川県,大和市,林間２丁目２０番９号,,14,213,2420003,,,,,,,2023-01-10,1,,,,,ティーアールエー,0
938,4021001077880,新規,0,2023-01-10,2023-01-10,株式会社Ｍ２プランニング,,株式会社,神奈川県,秦野市,桜町２丁目２番２３号,,14,211,2570045,,,,,,,2023-01-10,1,,,,,エムツープランニング,0
939,4021001077897,新規,0,2023-01-10,2023-01-10,株式会社ＮＥＤＳ,,株式会社,神奈川県,横須賀市,田浦大作町３９番地,,14,201,2370074,,,,,,,2023-01-10,1,,,,,エヌイーディーエス,0
941,4021003012563,新規,0,2023-01-10,2023-01-10,合同会社Ａｍｂｅｒ,,合同会社,神奈川県,海老名市,中央１丁目１７番２５号Ｔ．ＣＲＥＳＴ．ＢＬＤＧＩＩ２０３号,00128974,14,215,2430432,,,,,,,2023-01-10,1,,,,,アンバー,0
944,4030001151744,新規,0,2023-01-10,2023-01-10,株式会社清和測量,,株式会社,埼玉県,飯能市,南町２番３３号,,11,209,3570036,,,,,,,2023-01-10,1,,,,,セイワソクリョウ,0
945,4030001151769,新規,0,2023-01-10,2023-01-10,株式会社ハサノ,,株式会社,埼玉県,川口市,北原台１丁目１５番４－１０３号,,11,203,3330815,,,,,,,2023-01-10,1,,,,,ハサノ,0
946,4030001151777,新規,0,2023-01-10,2023-01-10,株式会社エムライズカンパニー,,株式会社,埼玉県,熊谷市,代８７７番地１,,11,202,3600804,,,,,,,2023-01-10,1,,,,,エムライズカンパニー,0
951,4030003020906,新規,0,2023-01-10,2023-01-10,合同会社ＬＡＶＩ,,合同会社,埼玉県,越谷市,新川町２丁目４４番地８,,11,222,3430852,,,,,,,2023-01-10,1,,,,,ラビ,0
954,4040001126472,新規,0,2023-01-10,2023-01-10,株式会社Ｂｅｅ　ｓｉｄｅクリエーション,,株式会社,千葉県,千葉市緑区,椎名崎町１１５６番地２,,12,105,2660016,,,,,,,2023-01-10,1,,,,,ビーサイドクリエーション,0
955,4040001126489,新規,0,2023-01-10,2023-01-10,間部工業株式会社,,株式会社,千葉県,市原市,山木９３１番地３,,12,219,2900005,,,,,,,2023-01-10,1,,,,,マベコウギョウ,0
956,4040001126497,新規,0,2023-01-10,2023-01-10,株式会社ゆうひま,,株式会社,千葉県,木更津市,金田東４丁目１２番地８,,12,206,2920009,,,,,,,2023-01-10,1,,,,,ユウヒマ,0
957,4040001126506,新規,0,2023-01-10,2023-01-10,株式会社九翔,,株式会社,千葉県,船橋市,夏見１丁目１７番３１－３０５号,,12,204,2730865,,,,,,,2023-01-10,1,,,,,キュウト,0
958,4040001126522,新規,0,2023-01-10,2023-01-10,株式会社ＡＰＯＬＬＯ　ＡＵＴＯ,,株式会社,千葉県,八街市,朝日２２６番地２２コーポ朝日ＩＩ１０４,00128982,12,230,2891101,,,,,,,2023-01-10,1,,,,,アポロオート,0
960,4040003021630,新規,0,2023-01-10,2023-01-10,合同会社ＯＧＡ,,合同会社,千葉県,浦安市,入船６丁目１番４０５号,,12,227,2790012,,,,,,,2023-01-10,1,,,,,オージーエー,0
964,4050003007083,新規,0,2023-01-10,2023-01-10,合同会社Ｋ．ＳＴＹＬＥ,,合同会社,茨城県,桜川市,金敷３３６－１大塚住宅Ｃ号棟,,08,231,3091245,,,,,,,2023-01-10,1,,,,,ケースタイル,0
965,4060001035580,新規,0,2023-01-10,2023-01-10,株式会社Ａｉｒｙｃｏｃｏ,,株式会社,栃木県,栃木市,河合町４番１６号イートミーサンドイッチ内,,09,203,3280041,,,,,,,2023-01-10,1,,,,,エアリーココ,0
968,4070001039993,新規,0,2023-01-10,2023-01-10,株式会社ツツミのヤサイ,,株式会社,群馬県,高崎市,浜尻町９５７番地７,,10,202,3700005,,,,,,,2023-01-10,1,,,,,ツツミノヤサイ,0
970,4070003004780,新規,0,2023-01-10,2023-01-10,合同会社石原牧場,,合同会社,群馬県,みどり市,大間々町桐原１５７０番地３９４,,10,212,3760102,,,,,,,2023-01-10,1,,,,,イシハラボクジョウ,0
971,4080001025381,新規,0,2023-01-10,2023-01-10,ツバキ電設株式会社,,株式会社,静岡県,藤枝市,天王町２丁目１２番１８号ソレイユ藤枝１０１号室,,22,214,4260019,,,,,,,2023-01-10,1,,,,,ツバキデンセツ,0
973,4080401026236,新規,0,2023-01-10,2023-01-10,玄氣株式会社,,株式会社,静岡県,掛川市,上垂木３４４番地の６,,22,213,4360221,,,,,,,2023-01-10,1,,,,,ゲンキ,0
976,4080403004685,新規,0,2023-01-10,2023-01-10,合同会社ＦＩＡ,,合同会社,静岡県,袋井市,久能１４０９番地,,22,216,4370061,,,,,,,2023-01-10,1,,,,,,0
978,4090001017915,新規,0,2023-01-10,2023-01-10,株式会社川手フルーツ農園,,株式会社,山梨県,南アルプス市,飯野２２７４番地,,19,208,4000222,,,,,,,2023-01-10,1,,,,,カワテフルーツノウエン,0
979,4090003002221,新規,0,2023-01-10,2023-01-10,合同会社金と銀と碧,,合同会社,山梨県,南アルプス市,小笠原１０９６番地１県営櫛形小笠原団地３－３０６,,19,208,4000306,,,,,,,2023-01-10,1,,,,,キントギントアオ,0
980,4100001036021,新規,0,2023-01-10,2023-01-10,株式会社佐久ライフサービス,,株式会社,長野県,佐久市,望月９９番地３,,20,217,3842202,,,,,,,2023-01-10,1,,,,,サクライフサービス,0
993,4120001251519,新規,0,2023-01-10,2023-01-10,株式会社ｔｈｏｕｓａｎｄＤＡＹＳ,,株式会社,大阪府,大阪市中央区,難波千日前１０番１４号,,27,128,5420075,,,,,,,2023-01-10,1,,,,,サウザンドデイズ,0
994,4120001251568,新規,0,2023-01-10,2023-01-10,株式会社ワイエスコネクト,,株式会社,大阪府,大阪市生野区,中川５丁目２番５－２０１号,,27,116,5440005,,,,,,,2023-01-10,1,,,,,ワイエスコネクト,0
998,4120005023385,新規,0,2023-01-10,2023-01-10,藁谷社会保険労務士法人,,その他の設立登記法人,大阪府,大阪市北区,天神橋２丁目北１番２１号八千代ビル東館７階Ｂ’号,,27,127,5300041,,,,,,,2023-01-10,1,,,,,ワラタニ,0
1001,4120101066775,新規,0,2023-01-10,2023-01-10,株式会社翔陽ボーリング,,株式会社,大阪府,堺市西区,浜寺船尾町東１丁１３６番地３,,27,144,5928341,,,,,,,2023-01-10,1,,,,,ショウヨウボーリング,0
1005,4122001036544,新規,0,2023-01-10,2023-01-10,夢想株式会社,,株式会社,大阪府,東大阪市,若江東町３丁目３番２８号,,27,227,5780935,,,,,,,2023-01-10,1,,,,,ムソウ,0
1006,4122003002486,新規,0,2023-01-10,2023-01-10,エイシン合同会社,,合同会社,大阪府,東大阪市,長田３丁目４番３５号,,27,227,5770015,,,,,,,2023-01-10,1,,,,,エイシン,0
1009,4130001073400,新規,0,2023-01-10,2023-01-10,株式会社ブリティッシュガーデン八幡ファーム,,株式会社,京都府,八幡市,上津屋里垣内７番地の４,,26,210,6148173,,,,,,,2023-01-10,1,,,,,ブリティッシュガーデンヤワタファーム,0
1010,4130001073409,新規,0,2023-01-10,2023-01-10,株式会社Ｍ２,,株式会社,京都府,京都市伏見区,醍醐新開１番地４３,,26,109,6011365,,,,,,,2023-01-10,1,,,,,エムツー,0
1013,4130003008412,新規,0,2023-01-10,2023-01-10,合同会社ＴＫＲ,,合同会社,京都府,京都市下京区,朱雀宝蔵町４４番地協栄ビル２階京都朱雀スタジオ,,26,106,6008846,,,,,,,2023-01-10,1,,,,,ティーケーアール,0
1021,4140003018542,新規,0,2023-01-10,2023-01-10,フェリーチェ合同会社,,合同会社,兵庫県,神戸市須磨区,北落合５丁目６番２号,,28,107,6540151,,,,,,,2023-01-10,1,,,,,フェリーチェ,0
1022,4140005026444,新規,0,2023-01-10,2023-01-10,医療法人社団菜愛会,,その他の設立登記法人,兵庫県,姫路市,南駅前町８７番地,,28,201,6700962,,,,,,,2023-01-10,1,,,,,ナノアカイ,0
1023,4150003002850,新規,0,2023-01-10,2023-01-10,ＡＷＡ　ＡＵＴＯ合同会社,,合同会社,奈良県,磯城郡川西町,大字結崎１４３０番地１,,29,361,6360202,,,,,,,2023-01-10,1,,,,,アワオート,0
1024,4170001017428,新規,0,2023-01-10,2023-01-10,株式会社マルトモ,,株式会社,和歌山県,東牟婁郡串本町,大島９４番地の９８,,30,428,6493633,,,,,,,2023-01-10,1,,,,,マルトモ,0
1032,4180001154385,新規,0,2023-01-10,2023-01-10,株式会社宴家,,株式会社,愛知県,海部郡蟹江町,源氏３丁目３８番地,,23,425,4970055,,,,,,,2023-01-10,1,,,,,エンヤ,0
1033,4180001154419,新規,0,2023-01-10,2023-01-10,株式会社事業承継総合研究所,,株式会社,愛知県,名古屋市中区,錦１丁目７番１５号５０ＫＴ中駒ビル６Ｆ,,23,106,4600003,,,,,,,2023-01-10,1,,,,,ジギョウショウケイソウゴウケンキュウジョ,0
1034,4180001154435,新規,0,2023-01-10,2023-01-10,株式会社Ｙ＆Ｌ,,株式会社,愛知県,名古屋市中村区,竹橋町２２番１２号,,23,105,4530016,,,,,,,2023-01-10,1,,,,,ワイアンドエル,0
1035,4180001154443,新規,0,2023-01-10,2023-01-10,株式会社ボディフル,,株式会社,愛知県,半田市,成岩東町１８番地,,23,205,4750845,,,,,,,2023-01-10,1,,,,,ボディフル,0
1036,4180001154451,新規,0,2023-01-10,2023-01-10,株式会社創和インテリア,,株式会社,愛知県,稲沢市,井之口北畑町１２５番地６,,23,220,4928151,,,,,,,2023-01-10,1,,,,,ソウワインテリア,0
1043,4180003024693,新規,0,2023-01-10,2023-01-10,プレスト合同会社,,合同会社,愛知県,名古屋市中区,大須１丁目７番１４号パークＩＭビル２Ｆ,,23,106,4600011,,,,,,,2023-01-10,1,,,,,プレスト,0
1046,4200001040830,新規,0,2023-01-10,2023-01-10,株式会社中村鍼治療院,,株式会社,岐阜県,岐阜市,平和通１丁目８番地,,21,201,5020827,,,,,,,2023-01-10,1,,,,,ナカムラハリチリョウイン,0
1047,4200001040839,新規,0,2023-01-10,2023-01-10,矢口鉄工所株式会社,,株式会社,岐阜県,岐阜市,粟野西８丁目６７番地,,21,201,5020006,,,,,,,2023-01-10,1,,,,,ヤグチテッコウジョ,0
1048,4200001040855,新規,0,2023-01-10,2023-01-10,株式会社オートサービスクルーズ,,株式会社,岐阜県,安八郡安八町,西結３３２番地,,21,383,5030111,,,,,,,2023-01-10,1,,,,,オートサービスクルーズ,0
1049,4210001019196,新規,0,2023-01-10,2023-01-10,株式会社笹のコーポレーション,,株式会社,福井県,福井市,西開発１丁目２８０２番地アペックス開発１１１,,18,201,9100843,,,,,,,2023-01-10,1,,,,,ササノコーポレーション,0
1050,4220001025210,新規,0,2023-01-10,2023-01-10,株式会社ＴａｋｅＯＮＥ,,株式会社,石川県,河北郡津幡町,字庄リ８８番地５,,17,361,9290327,,,,,,,2023-01-10,1,,,,,テイクワン,0
1051,4230001019665,新規,0,2023-01-10,2023-01-10,株式会社丸の内ビルマネジメント,,株式会社,富山県,富山市,丸の内１丁目８番１７号新丸の内ビルディング内,,16,201,9300085,,,,,,,2023-01-10,1,,,,,マルノウチビルマネジメント,0
1054,4240001060899,新規,0,2023-01-10,2023-01-10,株式会社新本,,株式会社,広島県,広島市東区,牛田早稲田２丁目２番３４号,,34,102,7320062,,,,,,,2023-01-10,1,,,,,ニイモト,0
1055,4240001060908,新規,0,2023-01-10,2023-01-10,Ｋ２Ｅ株式会社,,株式会社,広島県,広島市佐伯区,石内北２丁目２８番２０号,,34,108,7315109,,,,,,,2023-01-10,1,,,,,ケーツーイー,0
1056,4240001060932,新規,0,2023-01-10,2023-01-10,株式会社ＣＡＳＴ　ＯＮＥ,,株式会社,広島県,廿日市市,原８５３番地,,34,213,7380031,,,,,,,2023-01-10,1,,,,,キャストワン,0
1062,4260001037557,新規,0,2023-01-10,2023-01-10,セキ建設株式会社,,株式会社,岡山県,倉敷市,羽島５７番地７,,33,202,7100043,,,,,,,2023-01-10,1,,,,,セキケンセツ,0
1063,4260001037565,新規,0,2023-01-10,2023-01-10,株式会社ハッピーズ,,株式会社,岡山県,笠岡市,走出４４０７番,,33,205,7140001,,,,,,,2023-01-10,1,,,,,ハッピーズ,0
1064,4260001037573,新規,0,2023-01-10,2023-01-10,アスロジ株式会社,,株式会社,岡山県,岡山市北区,足守１６６９‐１,,33,101,7011463,,,,,,,2023-01-10,1,,,,,アスロジ,0
1065,4270001008697,新規,0,2023-01-10,2023-01-10,かみだね繚花株式会社,,株式会社,鳥取県,東伯郡北栄町,上種３４５番地２,,31,372,6892213,,,,,,,2023-01-10,1,,,,,カミダネリョウカ,0
1067,4270005005534,新規,0,2023-01-10,2023-01-10,一般社団法人オーガニック農産普及推進ネットワーク,,その他の設立登記法人,鳥取県,鳥取市,用瀬町安蔵８８７番地１,,31,201,6891227,,,,,,,2023-01-10,1,,,,,オーガニックノウサンフキュウスイシンネットワーク,0
1070,4290001100048,新規,0,2023-01-10,2023-01-10,株式会社シロノマ,,株式会社,福岡県,大牟田市,大字倉永１０番地１,,40,202,8370906,,,,,,,2023-01-10,1,,,,,シロノマ,0
1071,4290001100114,新規,0,2023-01-10,2023-01-10,株式会社ＵＮＩＶＥＴ,,株式会社,福岡県,大野城市,緑ケ丘４丁目１７番５号,,40,219,8160961,,,,,,,2023-01-10,1,,,,,ユニヴェット,0
1072,4290001100147,新規,0,2023-01-10,2023-01-10,結栄株式会社,,株式会社,福岡県,福岡市早良区,有田５丁目１７番１０号,,40,137,8140033,,,,,,,2023-01-10,1,,,,,ユウエイ,0
1080,4290801029189,新規,0,2023-01-10,2023-01-10,株式会社北九ウエス,,株式会社,福岡県,北九州市八幡西区,永犬丸５丁目４番８号,,40,109,8070851,,,,,,,2023-01-10,1,,,,,キタキュウウエス,0
1082,4300001013181,新規,0,2023-01-10,2023-01-10,株式会社ミキ・メディカル,,株式会社,佐賀県,伊万里市,山代町久原３０１５番地１,,41,205,8494256,,,,,,,2023-01-10,1,,,,,ミキメディカル,0
1087,4310001018213,新規,0,2023-01-10,2023-01-10,株式会社まるかわ産業,,株式会社,長崎県,諫早市,多良見町山川内２３番地３,,42,204,8590415,,,,,,,2023-01-10,1,,,,,マルカワサンギョウ,0
1090,4320005010041,新規,0,2023-01-10,2023-01-10,一般社団法人ＳＰＮ,,その他の設立登記法人,大分県,大分市,生石５丁目７番１号,,44,201,8700003,,,,,,,2023-01-10,1,,,,,エスピーエヌ,0
1092,4330001030471,新規,0,2023-01-10,2023-01-10,株式会社創匠,,株式会社,熊本県,宇城市,松橋町松橋３０２番地,,43,213,8690502,,,,,,,2023-01-10,1,,,,,ソウショウ,0
1097,4340001025272,新規,0,2023-01-10,2023-01-10,株式会社ｇｒａｍ,,株式会社,鹿児島県,鹿児島市,石谷町１４６７番地５,,46,201,8992701,,,,,,,2023-01-10,1,,,,,グラム,0
1102,4360001031401,新規,0,2023-01-10,2023-01-10,株式会社てぃーだ石垣島,,株式会社,沖縄県,石垣市,字新川２９１番地７平良ハイツ１０１,,47,207,9070024,,,,,,,2023-01-10,1,,,,,ティーダイシガキジマ,0
1104,4360003012606,新規,0,2023-01-10,2023-01-10,宮工設合同会社,,合同会社,沖縄県,宜野湾市,我如古４丁目８番１５号,,47,205,9012214,,,,,,,2023-01-10,1,,,,,ミヤコウセツ,0
1105,4360003012622,新規,0,2023-01-10,2023-01-10,合同会社大串,,合同会社,沖縄県,那覇市,安里２丁目６番２４－８１２号リファイン安里,,47,201,9020067,,,,,,,2023-01-10,1,,,,,オオグシ,0
1107,4370001049459,新規,0,2023-01-10,2023-01-10,日中建設株式会社,,株式会社,宮城県,仙台市宮城野区,燕沢２丁目８番１６号,,04,102,9830823,,,,,,,2023-01-10,1,,,,,ニッチュウケンセツ,0
1130,4430001088120,新規,0,2023-01-10,2023-01-10,株式会社ブレイブアドバンス,,株式会社,北海道,札幌市北区,新川二条７丁目３番２０号,,01,102,0010922,,,,,,,2023-01-10,1,,,,,ブレイブアドバンス,0
1131,4430001088129,新規,0,2023-01-10,2023-01-10,株式会社Ｕ‐ＮＥＴ,,株式会社,北海道,札幌市北区,新琴似十条１２丁目６番２０号,,01,102,0010910,,,,,,,2023-01-10,1,,,,,ユーネット,0
1132,4430001088145,新規,0,2023-01-10,2023-01-10,株式会社クリーン＆クリーン工房,,株式会社,北海道,札幌市白石区,南郷通２０丁目北３番１７－５０８号,,01,104,0030023,,,,,,,2023-01-10,1,,,,,クリーンアンドクリーンコウボウ,0
1133,4430001088153,新規,0,2023-01-10,2023-01-10,株式会社Ｓ＆Ｓ,,株式会社,北海道,札幌市中央区,南二条東２丁目８番地１大都ビル１階,,01,101,0600052,,,,,,,2023-01-10,1,,,,,エスアンドエス,0
1134,4430003014603,新規,0,2023-01-10,2023-01-10,合同会社ｎｏｎｇｗｏｒｋｓ,,合同会社,北海道,苫小牧市,澄川町３丁目１７番１７号,,01,213,0591271,,,,,,,2023-01-10,1,,,,,ノングワークス,0
1150,5010001231927,新規,0,2023-01-10,2023-01-10,株式会社ｔｈｅ　ＨＡＴＳＵ,,株式会社,東京都,千代田区,神田平河町１番地第３東ビル６Ｆ,,13,101,1010027,,,,,,,2023-01-10,1,,,,,ザハツ,0
1151,5010001231943,新規,0,2023-01-10,2023-01-10,吉祥株式会社,,株式会社,東京都,中央区,新川１丁目１６番７号２０２室,,13,102,1040033,,,,,,,2023-01-10,1,,,,,キッショウ,0
1152,5010001232066,新規,0,2023-01-10,2023-01-10,株式会社キーストン・プラス,,株式会社,東京都,文京区,白山２丁目５番９－３０１号,,13,105,1120001,,,,,,,2023-01-10,1,,,,,キーストンプラス,0
1155,5010003039484,新規,0,2023-01-10,2023-01-10,ＡＢＣ　Ａｄｖｉｓｏｒｙ合同会社,,合同会社,東京都,中央区,銀座１丁目２２番１１号銀座大竹ビジデンス２階,,13,102,1040061,,,,,,,2023-01-10,1,,,,,エービーシーアドバイザリー,0
1162,5010401171649,新規,0,2023-01-10,2023-01-10,Ｈａｒｍｏｎｙ株式会社,,株式会社,東京都,港区,赤坂８丁目２－１６,,13,103,1070052,,,,,,,2023-01-10,1,,,,,ハーモニー,0
1163,5010401171681,新規,0,2023-01-10,2023-01-10,株式会社ｎｅｏ,,株式会社,東京都,港区,南青山３丁目８番４０号青山センタービル２Ｆ,,13,103,1070062,,,,,,,2023-01-10,1,,,,,ネオ,0
1167,5010405021726,新規,0,2023-01-10,2023-01-10,ジー・エイ・ワン・レジデンス・ツー一般社団法人,,その他の設立登記法人,東京都,港区,六本木１丁目９番１０号アークヒルズ仙石山森タワー４０階,,13,103,1060032,,,,,,,2023-01-10,1,,,,,ジーエイワンレジデンスツー,0
1168,5010503006835,新規,0,2023-01-10,2023-01-10,合同会社４９６,,合同会社,東京都,台東区,池之端３丁目４番８号,,13,106,1100008,,,,,,,2023-01-10,1,,,,,ヨンキュウロク,0
1169,5010503006843,新規,0,2023-01-10,2023-01-10,合同会社Ｄａｒｗｉｎ８,,合同会社,東京都,台東区,元浅草１丁目６番１２号,,13,106,1110041,,,,,,,2023-01-10,1,,,,,ダーウィンエイト,0
1173,5010601062391,新規,0,2023-01-10,2023-01-10,株式会社パシフィック・ヘリコプター・コーポレーション,,株式会社,東京都,江東区,新木場４丁目７番１７号,,13,108,1360082,,,,,,,2023-01-10,1,,,,,パシフィックヘリコプターコーポレーション,0
1177,5010801033572,新規,0,2023-01-10,2023-01-10,株式会社アイ・ティー・オー,,株式会社,東京都,大田区,東矢口３丁目１３番２０号,,13,111,1460094,,,,,,,2023-01-10,1,,,,,アイティーオー,0
1178,5010805002994,新規,0,2023-01-10,2023-01-10,一般社団法人日本知能犯被害対策支援機構,,その他の設立登記法人,東京都,大田区,田園調布３丁目１３番２号,,13,111,1450071,,,,,,,2023-01-10,1,,,,,ニホンチノウハンヒガイタイサクシエンキコウ,0
1179,5010901052274,新規,0,2023-01-10,2023-01-10,株式会社四葉草,,株式会社,東京都,世田谷区,上祖師谷５丁目９－２０マイコーポ祖師谷１０７号室,,13,112,1570065,,,,,,,2023-01-10,1,,,,,ヨツハ,0
1180,5010901052282,新規,0,2023-01-10,2023-01-10,株式会社フォレストワン,,株式会社,東京都,世田谷区,船橋４丁目８番１１号,,13,112,1560055,,,,,,,2023-01-10,1,,,,,フォレストワン,0
1185,5011001151784,新規,0,2023-01-10,2023-01-10,株式会社ＳＰＩＮ,,株式会社,東京都,渋谷区,松濤１丁目２３番１４号,,13,113,1500046,,,,,,,2023-01-10,1,,,,,スピン,0
1186,5011001151801,新規,0,2023-01-10,2023-01-10,株式会社ＬｉＰ　Ｒｉｓｉｎｇ,,株式会社,東京都,渋谷区,神南１丁目１０番５号,,13,113,1500041,,,,,,,2023-01-10,1,,,,,リップライジング,0
1187,5011001151826,新規,0,2023-01-10,2023-01-10,株式会社ＡＡ,,株式会社,東京都,渋谷区,神宮前６丁目７番１４号,,13,113,1500001,,,,,,,2023-01-10,1,,,,,エーエー,0
1190,5011003016036,新規,0,2023-01-10,2023-01-10,合同会社Ａ‐ＶＩＶＩＤ,,合同会社,東京都,渋谷区,道玄坂１丁目１０番８号渋谷道玄坂東急ビル２Ｆ－Ｃ,,13,113,1500043,,,,,,,2023-01-10,1,,,,,エービビッド,0
1191,5011003016044,新規,0,2023-01-10,2023-01-10,カフェソウル合同会社,,合同会社,東京都,目黒区,青葉台４丁目４番１－７０５号,,13,110,1530042,,,,,,,2023-01-10,1,,,,,カフェソウル,0
1196,5011101101350,新規,0,2023-01-10,2023-01-10,株式会社パラレルスコープ,,株式会社,東京都,新宿区,西新宿４丁目７番１６号,,13,104,1600023,,,,,,,2023-01-10,1,,,,,パラレルスコープ,0
1197,5011101101359,新規,0,2023-01-10,2023-01-10,株式会社ポセイドーン,,株式会社,東京都,新宿区,新宿１丁目３０番１６号ルネ新宿御苑タワー１００３,,13,104,1600022,,,,,,,2023-01-10,1,,,,,ポセイドーン,0
1198,5011101101367,新規,0,2023-01-10,2023-01-10,株式会社てん,,株式会社,東京都,新宿区,富久町１５番１号富久クロスコンフォートタワー,,13,104,1620067,,,,,,,2023-01-10,1,,,,,テン,0
1202,5011103012546,新規,0,2023-01-10,2023-01-10,合同会社Ｋ・Ｋ,,合同会社,東京都,新宿区,西早稲田１丁目９番１７号藤和シティコープ早稲田１階,,13,104,1690051,,,,,,,2023-01-10,1,,,,,ケーケー,0
1206,5011501028813,新規,0,2023-01-10,2023-01-10,株式会社ｈａｖｉｎｇ,,株式会社,東京都,北区,西ケ原３丁目５４－８ウィンベルソロ駒込３０２,,13,117,1140024,,,,,,,2023-01-10,1,,,,,ハビング,0
1213,5013301050154,新規,0,2023-01-10,2023-01-10,株式会社ＧＭプランニング,,株式会社,東京都,豊島区,北大塚２丁目３番１５号２Ｆ,,13,116,1700004,,,,,,,2023-01-10,1,,,,,ジーエムプランニング,0
1215,5020001149648,新規,0,2023-01-10,2023-01-10,アメージング株式会社,,株式会社,神奈川県,横浜市都筑区,佐江戸町２００２番地１,,14,118,2240054,,,,,,,2023-01-10,1,,,,,アメージング,0
1216,5020001149672,新規,0,2023-01-10,2023-01-10,株式会社伊藤木工,,株式会社,神奈川県,横浜市泉区,和泉町７０９２番地,,14,116,2450016,,,,,,,2023-01-10,1,,,,,イトウモッコウ,0
1217,5020001149680,新規,0,2023-01-10,2023-01-10,ＫＳＰエンジ株式会社,,株式会社,神奈川県,横浜市南区,清水ケ丘５３番地１３,,14,105,2320007,,,,,,,2023-01-10,1,,,,,ケイエスピーエンジ,0
1218,5020001149689,新規,0,2023-01-10,2023-01-10,株式会社プリマステラコンサルティング,,株式会社,神奈川県,川崎市多摩区,中野島１丁目１１番７号,,14,135,2140012,,,,,,,2023-01-10,1,,,,,プリマステラコンサルティング,0
1219,5020001149697,新規,0,2023-01-10,2023-01-10,店舗コマース株式会社,,株式会社,神奈川県,横浜市緑区,三保町１７２９－１６,,14,113,2260015,,,,,,,2023-01-10,1,,,,,テンポコマース,0
1220,5020001149739,新規,0,2023-01-10,2023-01-10,ｋｉｍ株式会社,,株式会社,神奈川県,川崎市麻生区,はるひ野２丁目３番１２号アリヴィオＢ１０１,,14,137,2150036,,,,,,,2023-01-10,1,,,,,キム,0
1222,5020003023017,新規,0,2023-01-10,2023-01-10,なまはげ合同会社,,合同会社,神奈川県,横浜市中区,山手町１６８番地４ベイヒルズ山手３階,,14,104,2310862,,,,,,,2023-01-10,1,,,,,ナマハゲ,0
1223,5020003023025,新規,0,2023-01-10,2023-01-10,合同会社キシエンターテインメント,,合同会社,神奈川県,横浜市中区,常盤町３丁目２２番地３－４０１,,14,104,2310014,,,,,,,2023-01-10,1,,,,,キシエンターテインメント,0
1224,5021001077855,新規,0,2023-01-10,2023-01-10,株式会社ＴＯＭＯ　ＪＡＰＡＮ,,株式会社,神奈川県,大和市,つきみ野１丁目６番地９グランアリーナレジデンス１０３６,,14,213,2420002,,,,,,,2023-01-10,1,,,,,トモジャパン,0
1225,5021001077871,新規,0,2023-01-10,2023-01-10,株式会社ＡＮＳＥＥ,,株式会社,神奈川県,茅ヶ崎市,新栄町１０番１３号２Ｆ,,14,207,2530044,,,,,,,2023-01-10,1,,,,,アンシー,0
1226,5021001077896,新規,0,2023-01-10,2023-01-10,株式会社ＭＤＭ,,株式会社,神奈川県,愛甲郡愛川町,三増１９３５番地,,14,401,2430308,,,,,,,2023-01-10,1,,,,,エムディーエム,0
1229,5021003012562,新規,0,2023-01-10,2023-01-10,合同会社常芳立腰塾,,合同会社,神奈川県,大和市,深見台２丁目１１番１０号,,14,213,2420013,,,,,,,2023-01-10,1,,,,,ジョウホウリツヨウジュク,0
1230,5021003012579,新規,0,2023-01-10,2023-01-10,合同会社ひばり補聴器相模原,,合同会社,神奈川県,相模原市南区,相模大野５丁目２７番４号ファイブワン１階,,14,153,2520303,,,,,,,2023-01-10,1,,,,,ヒバリホチョウキサガミハラ,0
1237,5030001151727,新規,0,2023-01-10,2023-01-10,株式会社高橋工業,,株式会社,埼玉県,八潮市,大字大曽根１１０４番地２,,11,234,3400834,,,,,,,2023-01-10,1,,,,,タカハシコウギョウ,0
1238,5030001151751,新規,0,2023-01-10,2023-01-10,株式会社レキオス,,株式会社,埼玉県,越谷市,千間台東２丁目１４番地５,,11,222,3430042,,,,,,,2023-01-10,1,,,,,レキオス,0
1239,5030001151776,新規,0,2023-01-10,2023-01-10,株式会社翔輝,,株式会社,埼玉県,草加市,吉町５丁目６番４３号,,11,221,3400017,,,,,,,2023-01-10,1,,,,,ショウキ,0
1244,5040001126463,新規,0,2023-01-10,2023-01-10,株式会社ＷＥＬＣＯＭＥ　ＨＯＭＥ,,株式会社,千葉県,市原市,小谷田６５２,,12,219,2900529,,,,,,,2023-01-10,1,,,,,ウェルカムホーム,0
1245,5040001126496,新規,0,2023-01-10,2023-01-10,株式会社村山ガーデン,,株式会社,千葉県,佐倉市,井野１６０番地１,,12,212,2850855,,,,,,,2023-01-10,1,,,,,ムラヤマガーデン,0
1246,5040001126505,新規,0,2023-01-10,2023-01-10,株式会社藪電設,,株式会社,千葉県,四街道市,大日２１１５番地１,,12,228,2840001,,,,,,,2023-01-10,1,,,,,ヤブデンセツ,0
1247,5040001126521,新規,0,2023-01-10,2023-01-10,株式会社金田建工,,株式会社,千葉県,市川市,南行徳４丁目２０番１０号,,12,203,2720138,,,,,,,2023-01-10,1,,,,,,0
1248,5040001126546,新規,0,2023-01-10,2023-01-10,株式会社Ｓｔｒａｔｅｇｙ＆Ｌａｗ,,株式会社,千葉県,市川市,市川南２丁目６－４－１４０５,,12,203,2720033,,,,,,,2023-01-10,1,,,,,ストラテジーアンドロー,0
1250,5040003021621,新規,0,2023-01-10,2023-01-10,合同会社ＲＩＢＥＬ,,合同会社,千葉県,松戸市,小金原９丁目１番地の１小金原けやき通り１０６号,,12,207,2700021,,,,,,,2023-01-10,1,,,,,リベル,0
1254,5060003004368,新規,0,2023-01-10,2023-01-10,合同会社ソラノイエ,,合同会社,栃木県,宇都宮市,下岡本町３７４４番地７,,09,201,3291104,,,,,,,2023-01-10,1,,,,,ソラノイエ,0
1263,5080401026227,新規,0,2023-01-10,2023-01-10,株式会社ＭｅｎｔａｌＢａｓｅ,,株式会社,静岡県,浜松市中区,鍛冶町１００番地の１ザザシティ浜松中央館Ｂ１Ｆ,,22,131,4300933,,,,,,,2023-01-10,1,,,,,メンタルベース,0
1266,5090001017914,新規,0,2023-01-10,2023-01-10,株式会社ＳＯＬ,,株式会社,山梨県,甲府市,国母８丁目２６番１５号,,19,201,4000043,,,,,,,2023-01-10,1,,,,,ソル,0
1268,5100001036020,新規,0,2023-01-10,2023-01-10,株式会社信州ひかり屋,,株式会社,長野県,松本市,大字和田９６５番地３,,20,202,3901242,,,,,,,2023-01-10,1,,,,,シンシュウヒカリヤ,0
1279,5120001251518,新規,0,2023-01-10,2023-01-10,株式会社ＤＯＧＧＹ　ＯＬＩＶＥ　ＯＳＡＫＡ,,株式会社,大阪府,寝屋川市,緑町１９番２３号,,27,215,5720022,,,,,,,2023-01-10,1,,,,,ドギーオリーブオオサカ,0
1280,5120001251534,新規,0,2023-01-10,2023-01-10,株式会社一,,株式会社,大阪府,大阪市東成区,東小橋３丁目１４番２６号鶴橋ビルＭ９０２号,,27,115,5370024,,,,,,,2023-01-10,1,,,,,ハジメ,0
1281,5120001251559,新規,0,2023-01-10,2023-01-10,株式会社ＳＳパートナー,,株式会社,大阪府,大阪市阿倍野区,昭和町４丁目２番４号－２０１号,,27,119,5450011,,,,,,,2023-01-10,1,,,,,エスエスパートナー,0
1282,5120003023196,新規,0,2023-01-10,2023-01-10,ＬＵＣＥ合同会社,,合同会社,大阪府,大阪市北区,梅田１丁目２番２号大阪駅前第二ビル１２－１２,,27,127,5300001,,,,,,,2023-01-10,1,,,,,ルーチェ,0
1285,5120101066766,新規,0,2023-01-10,2023-01-10,株式会社ＱＵＩＣＫＦＩＴ,,株式会社,大阪府,羽曳野市,栄町５番１４号,,27,222,5830853,,,,,,,2023-01-10,1,,,,,クイックフィット,0
1287,5120901046950,新規,0,2023-01-10,2023-01-10,株式会社ＤＣＢ研究所,,株式会社,大阪府,三島郡島本町,山崎１丁目２番５号リブラコート２０１号,,27,301,6180001,,,,,,,2023-01-10,1,,,,,ディーシービーケンキュウジョ,0
1291,5122001036543,新規,0,2023-01-10,2023-01-10,株式会社Ｇｒａｎｄ　Ｓｌａｍ,,株式会社,大阪府,四條畷市,大字清瀧４０番地の１１,,27,229,5750063,,,,,,,2023-01-10,1,,,,,グランドスラム,0
1292,5122001036551,新規,0,2023-01-10,2023-01-10,株式会社アート,,株式会社,大阪府,東大阪市,寿町３丁目１６番１６号,,27,227,5770837,,,,,,,2023-01-10,1,,,,,アート,0
1295,5122003002485,新規,0,2023-01-10,2023-01-10,合同会社ギダクリエイト,,合同会社,大阪府,東大阪市,布市町４丁目８番３５号朝日プラザイーストスクエア８０２号,,27,227,5798004,,,,,,,2023-01-10,1,,,,,ギダクリエイト,0
1305,5140001128598,新規,0,2023-01-10,2023-01-10,株式会社共生,,株式会社,兵庫県,姫路市,飯田２丁目３番地,,28,201,6700974,,,,,,,2023-01-10,1,,,,,キョウセイ,0
1306,5140001128623,新規,0,2023-01-10,2023-01-10,株式会社東播テクノサービス,,株式会社,兵庫県,加古川市,平岡町土山４２１番地の２５１,,28,210,6750104,,,,,,,2023-01-10,1,,,,,トウバンテクノサービス,0
1308,5140003018376,新規,0,2023-01-10,2023-01-10,あおいねこ合同会社,,合同会社,兵庫県,神戸市垂水区,西舞子９丁目２１番３０号,,28,108,6550048,,,,,,,2023-01-10,1,,,,,アオイネコ,0
1314,5150003002858,新規,0,2023-01-10,2023-01-10,合同会社コトリーフ,,合同会社,奈良県,大和郡山市,新木町４６６番地２,,29,203,6391021,,,,,,,2023-01-10,1,,,,,コトリーフ,0
1316,5170003001817,新規,0,2023-01-10,2023-01-10,合同会社くぼり,,合同会社,和歌山県,日高郡印南町,大字西ノ地橋本１１４２番１３,,30,390,6491528,,,,,,,2023-01-10,1,,,,,クボリ,0
1326,5180001154418,新規,0,2023-01-10,2023-01-10,中軽日本株式会社,,株式会社,愛知県,名古屋市東区,東桜２丁目３番７号東カン名古屋キャステール９２８号室,,23,102,4610005,,,,,,,2023-01-10,1,,,,,チュウケイニホン,0
1327,5180001154426,新規,0,2023-01-10,2023-01-10,株式会社ｆｏｒ,,株式会社,愛知県,犬山市,中山町２丁目５５番地,,23,215,4840087,,,,,,,2023-01-10,1,,,,,フォー,0
1328,5180001154434,新規,0,2023-01-10,2023-01-10,株式会社千一,,株式会社,愛知県,一宮市,起字西生出８５番地７,,23,203,4940006,,,,,,,2023-01-10,1,,,,,センイチ,0
1329,5180001154442,新規,0,2023-01-10,2023-01-10,とりこグループ株式会社,,株式会社,愛知県,日進市,赤池１丁目１１１４番地レイール赤池３１２,,23,230,4700125,,,,,,,2023-01-10,1,,,,,トリコグループ,0
1330,5180001154450,新規,0,2023-01-10,2023-01-10,株式会社ｉｍａ,,株式会社,愛知県,名古屋市港区,土古町１丁目２６番地,,23,111,4550068,,,,,,,2023-01-10,1,,,,,イマ,0
1341,5190005011779,新規,0,2023-01-10,2023-01-10,税理士法人Ａｃｅ,,その他の設立登記法人,三重県,いなべ市,員弁町西方３７３番地,,24,214,5110225,,,,,,,2023-01-10,1,,,,,エース,0
1342,5200001040838,新規,0,2023-01-10,2023-01-10,株式会社木股商事,,株式会社,岐阜県,土岐市,肥田町肥田２９８５番地の４１０,,21,212,5095115,,,,,,,2023-01-10,1,,,,,キマタショウジ,0
1344,5200003005789,新規,0,2023-01-10,2023-01-10,ＡＮＳ　ＡＲＡＩ合同会社,,合同会社,岐阜県,羽島市,正木町新井４２９番地１,,21,209,5016225,,,,,,,2023-01-10,1,,,,,アナスアライ,0
1346,5210001019195,新規,0,2023-01-10,2023-01-10,株式会社らくぴかＬａｂ,,株式会社,福井県,坂井市,坂井町長畑第１１号２０番地１,,18,210,9190511,,,,,,,2023-01-10,1,,,,,ラクピカラボ,0
1347,5220001025201,新規,0,2023-01-10,2023-01-10,金沢ポート株式会社,,株式会社,石川県,金沢市,入江１丁目１２５番地,,17,201,9218011,,,,,,,2023-01-10,1,,,,,カナザワポート,0
1348,5220001025218,新規,0,2023-01-10,2023-01-10,株式会社ｂｅａｔ,,株式会社,石川県,金沢市,藤江北２丁目３２３番地２Ｆ,,17,201,9200345,,,,,,,2023-01-10,1,,,,,ベア,0
1350,5230001019664,新規,0,2023-01-10,2023-01-10,株式会社小林工業,,株式会社,富山県,富山市,本郷町１７８番地２ソフィアＤ・１０２号,,16,201,9398045,,,,,,,2023-01-10,1,,,,,コバヤシコウギョウ,0
1353,5240001060907,新規,0,2023-01-10,2023-01-10,株式会社ＤＭＰ　ＷＯＲＫＳ,,株式会社,広島県,東広島市,高屋町杵原１４７５番地２Ｇ－３,,34,212,7392102,,,,,,,2023-01-10,1,,,,,ディーエムピーワークス,0
1363,5260001037556,新規,0,2023-01-10,2023-01-10,株式会社はやぶさ,,株式会社,岡山県,岡山市北区,辰巳３７番地１１７（１０２号）,,33,101,7000976,,,,,,,2023-01-10,1,,,,,ハヤブサ,0
1364,5260001037572,新規,0,2023-01-10,2023-01-10,株式会社ＢＲｉＧ,,株式会社,岡山県,岡山市中区,円山３８３番地７９,,33,102,7038271,,,,,,,2023-01-10,1,,,,,ブリッグ,0
1367,5270001008696,新規,0,2023-01-10,2023-01-10,まつお建設株式会社,,株式会社,鳥取県,米子市,夜見町３０８０番地１６ヴィラプレジールＩＩＩ２０２号,00128970,31,202,6830851,,,,,,,2023-01-10,1,,,,,マツオケンセツ,0
1375,5290001100096,新規,0,2023-01-10,2023-01-10,株式会社ＳＡコンサルティング,,株式会社,福岡県,福岡市中央区,天神４丁目６番２８号天神ファーストビル７階,,40,133,8100001,,,,,,,2023-01-10,1,,,,,エスエーコンサルティング,0
1376,5290001100113,新規,0,2023-01-10,2023-01-10,ＨＲ株式会社,,株式会社,福岡県,糟屋郡宇美町,ゆりが丘７丁目７番１５号,,40,341,8112108,,,,,,,2023-01-10,1,,,,,エイチアール,0
1377,5290001100138,新規,0,2023-01-10,2023-01-10,株式会社ＩＮＦ,,株式会社,福岡県,筑紫野市,大字永岡２１８番地７,,40,217,8180066,,,,,,,2023-01-10,1,,,,,アイエヌエフ,0
1378,5290003013387,新規,0,2023-01-10,2023-01-10,オカモトクレーン合同会社,,合同会社,福岡県,春日市,上白水２丁目４５番地,,40,218,8160844,,,,,,,2023-01-10,1,,,,,オカモトクレーン,0
1382,5290801029163,新規,0,2023-01-10,2023-01-10,株式会社ＳＹＯＵＥＩ,,株式会社,福岡県,遠賀郡芦屋町,幸町６番１９号,,40,381,8070101,,,,,,,2023-01-10,1,,,,,ショウエイ,0
1384,5290803004296,新規,0,2023-01-10,2023-01-10,合同会社フェアリー,,合同会社,福岡県,北九州市小倉北区,片野新町１丁目３番５３号おかたビル２０５号,,40,106,8020062,,,,,,,2023-01-10,1,,,,,フェアリー,0
1386,5310001018212,新規,0,2023-01-10,2023-01-10,株式会社竜成,,株式会社,長崎県,西海市,大瀬戸町瀬戸板浦郷８９８番地１,,42,212,8572301,,,,,,,2023-01-10,1,,,,,リュウセイ,0
1393,5340005009543,新規,0,2023-01-10,2023-01-10,行政書士法人鹿島事務所,,その他の設立登記法人,鹿児島県,鹿児島市,下荒田４丁目１４番３３号,,46,201,8900056,,,,,,,2023-01-10,1,,,,,カシマジムショ,0
1395,5350001018126,新規,0,2023-01-10,2023-01-10,株式会社Ｊｕｎｏ,,株式会社,宮崎県,宮崎市,神宮東３丁目４－２１山本コーポ１０２号,,45,201,8800056,,,,,,,2023-01-10,1,,,,,ジュノ,0
1396,5350003004256,新規,0,2023-01-10,2023-01-10,合同会社稀有,,合同会社,宮崎県,宮崎市,橘通東４丁目２番３１号ポレスター宮崎ザ・レジデンス３０９号,,45,201,8800805,,,,,,,2023-01-10,1,,,,,ケウ,0
1398,5360003012605,新規,0,2023-01-10,2023-01-10,Ｓｏｌ合同会社,,合同会社,沖縄県,糸満市,字武富２２８－Ｍ,,47,210,9010311,,,,,,,2023-01-10,1,,,,,ソル,0
1400,5370001049441,新規,0,2023-01-10,2023-01-10,株式会社栄輝工業,,株式会社,宮城県,仙台市青葉区,上愛子字蛇台原３７番地の１,,04,101,9893124,,,,,,,2023-01-10,1,,,,,エイキコウギョウ,0
1401,5370001049458,新規,0,2023-01-10,2023-01-10,株式会社エイネス,,株式会社,宮城県,仙台市泉区,将監殿４丁目９番地の１,,04,105,9813136,,,,,,,2023-01-10,1,,,,,エイネス,0
1402,5370001049474,新規,0,2023-01-10,2023-01-10,ＭＡＫＥＲＳ株式会社,,株式会社,宮城県,仙台市青葉区,上杉１丁目１１－１,,04,101,9800011,,,,,,,2023-01-10,1,,,,,メイカーズ,0
1403,5370003005938,新規,0,2023-01-10,2023-01-10,合同会社ＢＥＲＲＹ,,合同会社,宮城県,仙台市泉区,寺岡４丁目２番地の２４,,04,105,9813204,,,,,,,2023-01-10,1,,,,,ベリー,0
1407,5380001033378,新規,0,2023-01-10,2023-01-10,株式会社アークレスト,,株式会社,福島県,郡山市,安積荒井３丁目２５５番地,,07,203,9630117,,,,,,,2023-01-10,1,,,,,アークレスト,0
1408,5390001017124,新規,0,2023-01-10,2023-01-10,株式会社吉祥ファーム,,株式会社,山形県,東田川郡庄内町,余目新田字西町３番地２,,06,428,9997714,,,,,,,2023-01-10,1,,,,,キッショウファーム,0
1420,5410003003739,新規,0,2023-01-10,2023-01-10,合同会社農輝,,合同会社,秋田県,秋田市,土崎港北３丁目１１番１０号,,05,201,0110941,,,,,,,2023-01-10,1,,,,,ノウキ,0
1427,5430001088128,新規,0,2023-01-10,2023-01-10,株式会社バンデ工業,,株式会社,北海道,札幌市手稲区,明日風１丁目８番２１号,,01,109,0060861,,,,,,,2023-01-10,1,,,,,バンデコウギョウ,0
1428,5430001088136,新規,0,2023-01-10,2023-01-10,株式会社ＩＭＬ,,株式会社,北海道,札幌市中央区,南十条西１４丁目１番２５号,,01,101,0640810,,,,,,,2023-01-10,1,,,,,アイエムエル,0
1429,5430001088144,新規,0,2023-01-10,2023-01-10,紬建設株式会社,,株式会社,北海道,札幌市厚別区,厚別西五条６丁目１番６号,,01,108,0040065,,,,,,,2023-01-10,1,,,,,ツムギケンセツ,0
1430,5430001088160,新規,0,2023-01-10,2023-01-10,株式会社Ｙ＆Ｔ,,株式会社,北海道,札幌市中央区,南十四条西７丁目３番４０号,,01,101,0640914,,,,,,,2023-01-10,1,,,,,ワイアンドティ,0
1431,5430001088169,新規,0,2023-01-10,2023-01-10,ライラプス株式会社,,株式会社,北海道,札幌市東区,北十四条東１６丁目２－３０－２０５,,01,103,0650014,,,,,,,2023-01-10,1,,,,,ライラプス,0
1432,5440001009207,新規,0,2023-01-10,2023-01-10,株式会社林商会,,株式会社,北海道,島牧郡島牧村,字千走７５番地,,01,391,0480631,,,,,,,2023-01-10,1,,,,,ハヤシショウカイ,0
1435,5460101007307,新規,0,2023-01-10,2023-01-10,株式会社ＢＡＳＥ　Ｃｏｍｍｕｎｉｃａｔｉｏｎ,,株式会社,北海道,河東郡音更町,木野西通１０丁目７番地６,,01,631,0800302,,,,,,,2023-01-10,1,,,,,ベイスコミュニケイション,0
1436,5470003002322,新規,0,2023-01-10,2023-01-10,合同会社ＫａｇａｗａＬａｎｋａ,,合同会社,香川県,高松市,扇町３丁目９番１９号,,37,201,7600013,,,,,,,2023-01-10,1,,,,,カガワランカ,0
1444,5500001024703,新規,0,2023-01-10,2023-01-10,株式会社武裕,,株式会社,愛媛県,松山市,一番町１丁目９番地７,,38,201,7900001,,,,,,,2023-01-10,1,,,,,タケヒロ,0
1446,5500003002946,新規,0,2023-01-10,2023-01-10,合同会社ＹＡＭＡＴＯ,,合同会社,愛媛県,松山市,松ノ木２丁目６９７番地３,,38,201,7918071,,,,,,,2023-01-10,1,,,,,ヤマト,0
1448,5700150113534,新規,0,2023-01-10,2023-01-10,ＩＮＳＡＲＡ　ＥＮＴＥＲＰＲＩＳＥＳ,,外国会社等,千葉県,八街市,八街に４６３－１２,,12,230,2891103,スリランカ民主社会主義共和国、コロンボ、マーラベ、イスループラ、１７レーン、Ｅ１８５,,,,,,2023-01-10,1,,,,,インサラエンタープライセス,0
1454,6010001232024,新規,0,2023-01-10,2023-01-10,エウレカロボティックス株式会社,,株式会社,東京都,中央区,日本橋茅場町１丁目１３番１３号七宝ビルディング９階,,13,102,1030025,,,,,,,2023-01-10,1,,,,,エウレカロボティックス,0
1459,6010003039541,新規,0,2023-01-10,2023-01-10,合同会社日電農,,合同会社,東京都,中央区,日本橋兜町１７－２兜町第６葉山ビル４Ｆ,,13,102,1030026,,,,,,,2023-01-10,1,,,,,ニチデンノウ,0
1463,6010401171656,新規,0,2023-01-10,2023-01-10,エッセンシャルズ株式会社,,株式会社,東京都,港区,南青山６丁目１２番１０号ユニティ５０２,,13,103,1070062,,,,,,,2023-01-10,1,,,,,エッセンシャルズ,0
1472,6010801033571,新規,0,2023-01-10,2023-01-10,株式会社トランスリード,,株式会社,東京都,大田区,羽田２丁目２４番４号,,13,111,1440043,,,,,,,2023-01-10,1,,,,,トランスリード,0
1473,6010805002993,新規,0,2023-01-10,2023-01-10,リージョンパートナー社会保険労務士法人,,その他の設立登記法人,東京都,大田区,蒲田５丁目１５番８号,,13,111,1440052,,,,,,,2023-01-10,1,,,,,リージョンパートナー,0
1475,6010901052273,新規,0,2023-01-10,2023-01-10,株式会社ＲＥＢＯＲＮ,,株式会社,東京都,世田谷区,奥沢２丁目８番１３号クレスト自由ヶ丘３０６,,13,112,1580083,,,,,,,2023-01-10,1,,,,,リボーン,0
1482,6011001151809,新規,0,2023-01-10,2023-01-10,株式会社Ｒａｈｍｅｎ,,株式会社,東京都,渋谷区,神宮前６丁目２３－４桑野ビル２階,,13,113,1500001,,,,,,,2023-01-10,1,,,,,ラーメン,0
1483,6011001151825,新規,0,2023-01-10,2023-01-10,株式会社Ｓｃｅｎｅ,,株式会社,東京都,渋谷区,神宮前６丁目２３番４号桑野ビル２階,,13,113,1500001,,,,,,,2023-01-10,1,,,,,シーン,0
1484,6011003016019,新規,0,2023-01-10,2023-01-10,合同会社ＴＲＤ,,合同会社,東京都,渋谷区,円山町２４－３ＴＴＫフラット１Ｆ,,13,113,1500044,,,,,,,2023-01-10,1,,,,,ティアールディ,0
1485,6011003016035,新規,0,2023-01-10,2023-01-10,合同会社Ｗ　Ｃａｐｉｔａｌ　Ｇｒｏｕｐ,,合同会社,東京都,渋谷区,宇田川町１番１２－１２０２号,,13,113,1500042,,,,,,,2023-01-10,1,,,,,ダブリューキャピタルグループ,0
1490,6011101101358,新規,0,2023-01-10,2023-01-10,株式会社ＫＩＲＡＫＵ,,株式会社,東京都,新宿区,西新宿３丁目３番１３号西新宿水間ビル６Ｆ,,13,104,1600023,,,,,,,2023-01-10,1,,,,,キラク,0
1491,6011101101374,新規,0,2023-01-10,2023-01-10,プリマス株式会社,,株式会社,東京都,新宿区,西新宿３丁目３番１３号西新宿水間ビル２Ｆ,,13,104,1600023,,,,,,,2023-01-10,1,,,,,プリマス,0
1495,6011301028368,新規,0,2023-01-10,2023-01-10,株式会社リンクトリックス,,株式会社,東京都,杉並区,桃井２丁目１８番２号,,13,115,1670034,,,,,,,2023-01-10,1,,,,,リンクトリックス,0
1496,6011501028820,新規,0,2023-01-10,2023-01-10,天澤株式会社,,株式会社,東京都,荒川区,南千住８丁目８番１－１８１０号,,13,118,1160003,,,,,,,2023-01-10,1,,,,,テンタク,0
1500,6011603003787,新規,0,2023-01-10,2023-01-10,Ａｌｌｕｒｅ合同会社,,合同会社,東京都,練馬区,東大泉１丁目３１番３号ケント大泉学園ビル２階,,13,120,1780063,,,,,,,2023-01-10,1,,,,,アリュール,0
1501,6011701025931,新規,0,2023-01-10,2023-01-10,ハイテクマシナリー株式会社,,株式会社,東京都,江戸川区,松江７丁目２１番１１号,,13,123,1320025,,,,,,,2023-01-10,1,,,,,ハイテクマシナリー,0
1502,6011705001763,新規,0,2023-01-10,2023-01-10,一般社団法人関東放置自動車相談センター,,その他の設立登記法人,東京都,江戸川区,一之江１丁目１０番１３号,,13,123,1320024,,,,,,,2023-01-10,1,,,,,カントウホウチジドウシャソウダンセンター,0
1504,6012301013269,新規,0,2023-01-10,2023-01-10,株式会社バダス,,株式会社,東京都,町田市,木曽西４丁目４番２号２,,13,209,1940037,,,,,,,2023-01-10,1,,,,,バダス,0
1506,6012303001767,新規,0,2023-01-10,2023-01-10,合同会社ＡＮＤ　ＦＩＳＨ,,合同会社,東京都,町田市,鶴川１丁目２７番地９ウッドベル１０５,,13,209,1950061,,,,,,,2023-01-10,1,,,,,アンドフィッシュ,0
1507,6012401040031,新規,0,2023-01-10,2023-01-10,ＭＡＶＩＥ株式会社,,株式会社,東京都,多摩市,豊ヶ丘１丁目６０番地１７第二唐沢コーポ１０３,,13,224,2060031,,,,,,,2023-01-10,1,,,,,マヴィ,0
1510,6013301050145,新規,0,2023-01-10,2023-01-10,株式会社３Ｃ,,株式会社,東京都,豊島区,東池袋１丁目１７番１１号パークハイツ池袋１１０５号,,13,116,1700013,,,,,,,2023-01-10,1,,,,,スリーシー,0
1511,6013301050153,新規,0,2023-01-10,2023-01-10,アップキャリア株式会社,,株式会社,東京都,豊島区,南池袋２丁目８番１７号第一豊南ビル２０３号室,,13,116,1710022,,,,,,,2023-01-10,1,,,,,アップキャリア,0
1512,6013303006442,新規,0,2023-01-10,2023-01-10,合同会社セルヴァジーナ,,合同会社,東京都,豊島区,駒込３丁目２番７号,,13,116,1700003,,,,,,,2023-01-10,1,,,,,セルヴァジーナ,0
1517,6020001149688,新規,0,2023-01-10,2023-01-10,株式会社エスホープ,,株式会社,神奈川県,川崎市麻生区,細山６丁目１番５－１０６号,,14,137,2150001,,,,,,,2023-01-10,1,,,,,エスホープ,0
1521,6020003023008,新規,0,2023-01-10,2023-01-10,合同会社アスロンアンドオンリー,,合同会社,神奈川県,横浜市青葉区,美しが丘２丁目２０番地８－１０３号,,14,117,2250002,,,,,,,2023-01-10,1,,,,,アスロンアンドオンリー,0
1522,6020003023032,新規,0,2023-01-10,2023-01-10,合同会社Ｏｌａｆａｍｉｌｙ,,合同会社,神奈川県,川崎市中原区,上小田中６丁目２３番３０号コーポラス荻原２０１号室,,14,133,2110053,,,,,,,2023-01-10,1,,,,,オラファミリー,0
1523,6021001077846,新規,0,2023-01-10,2023-01-10,東林間青果株式会社,,株式会社,神奈川県,大和市,深見西１丁目１番２５－４０３号,,14,213,2420018,,,,,,,2023-01-10,1,,,,,ヒガシリンカンセイカ,0
1524,6021001077854,新規,0,2023-01-10,2023-01-10,株式会社ＣＩＲＣＬＥ　ＤＡＳＨ,,株式会社,神奈川県,茅ヶ崎市,萩園１２３６番地ＹＭＴメゾネット湘南ＩＩ１０８,00128973,14,207,2530071,,,,,,,2023-01-10,1,,,,,サークルダッシュ,0
1525,6021001077862,新規,0,2023-01-10,2023-01-10,株式会社ｍｉｅｌ,,株式会社,神奈川県,鎌倉市,手広５丁目３番３－２０１号,,14,204,2480036,,,,,,,2023-01-10,1,,,,,ミエル,0
1526,6021001077870,新規,0,2023-01-10,2023-01-10,株式会社ａｒｏｕｎｄ,,株式会社,神奈川県,逗子市,小坪７丁目１５番７号,,14,208,2490008,,,,,,,2023-01-10,1,,,,,アラウンド,0
1527,6021001077879,新規,0,2023-01-10,2023-01-10,株式会社ＭＭプランニング,,株式会社,神奈川県,秦野市,曽屋８２７番地の１プリマベーラＩＩ１０１号,00128988,14,211,2570031,,,,,,,2023-01-10,1,,,,,エムエムプランニング,0
1536,6030001151726,新規,0,2023-01-10,2023-01-10,株式会社ＮＯＢＬＥ　ＳＨＯＫＡＩ,,株式会社,埼玉県,加須市,栄３３５８番地１０,,11,210,3491213,,,,,,,2023-01-10,1,,,,,ノーブルショウカイ,0
1537,6030001151742,新規,0,2023-01-10,2023-01-10,株式会社７８トレーディング,,株式会社,埼玉県,さいたま市桜区,田島５丁目１６－５,,11,106,3380837,,,,,,,2023-01-10,1,,,,,ナナハチトレーディング,0
1538,6030001151759,新規,0,2023-01-10,2023-01-10,株式会社マリー,,株式会社,埼玉県,熊谷市,江南中央３丁目１０番地１４,,11,202,3600114,,,,,,,2023-01-10,1,,,,,マリー,0
1539,6030001151767,新規,0,2023-01-10,2023-01-10,株式会社三基エンジニア,,株式会社,埼玉県,飯能市,大字下赤工３２４番地１２,,11,209,3570126,,,,,,,2023-01-10,1,,,,,サンキエンジニア,0
1540,6030001151775,新規,0,2023-01-10,2023-01-10,株式会社上成工業,,株式会社,埼玉県,上尾市,小泉３丁目２１番地３３,,11,219,3620063,,,,,,,2023-01-10,1,,,,,ジョウセイコウギョウ,0
1541,6030001151783,新規,0,2023-01-10,2023-01-10,株式会社梅宮総業,,株式会社,埼玉県,さいたま市緑区,松木３丁目１６番地４,,11,109,3360918,,,,,,,2023-01-10,1,,,,,ウメミヤソウギョウ,0
1542,6030001151791,新規,0,2023-01-10,2023-01-10,株式会社赤石商事,,株式会社,埼玉県,桶川市,大字加納１５６７番地の１,,11,231,3630001,,,,,,,2023-01-10,1,,,,,アカイシショウジ,0
1549,6040001126470,新規,0,2023-01-10,2023-01-10,株式会社シンシア,,株式会社,千葉県,市川市,市川１丁目６番１１号ロイビル市川２階,,12,203,2720034,,,,,,,2023-01-10,1,,,,,シンシア,0
1550,6040001126479,新規,0,2023-01-10,2023-01-10,ＭＲＭペイント株式会社,,株式会社,千葉県,船橋市,高野台３丁目６番１３号,,12,204,2740801,,,,,,,2023-01-10,1,,,,,エムアールエムペイント,0
1551,6040001126487,新規,0,2023-01-10,2023-01-10,株式会社ＢＲＩＧＨＴ,,株式会社,千葉県,市原市,五井２４４２番地１,,12,219,2900056,,,,,,,2023-01-10,1,,,,,ブライト,0
1552,6040001126495,新規,0,2023-01-10,2023-01-10,八興メンテナンス株式会社,,株式会社,千葉県,市原市,市原３７番地４,,12,219,2900015,,,,,,,2023-01-10,1,,,,,ハチコウメンテナンス,0
1553,6040001126512,新規,0,2023-01-10,2023-01-10,株式会社ＭＩＲＡＩ,,株式会社,千葉県,船橋市,北本町２丁目６９番２号,,12,204,2730864,,,,,,,2023-01-10,1,,,,,ミライ,0
1554,6040001126537,新規,0,2023-01-10,2023-01-10,ＦＡロボットマネジメント株式会社,,株式会社,千葉県,松戸市,本町１７－１１芹澤ビル６Ｆ,,12,207,2710091,,,,,,,2023-01-10,1,,,,,エフエーロボットマネジメント,0
1555,6040001126545,新規,0,2023-01-10,2023-01-10,株式会社Ａｉｗｅｌｌ,,株式会社,千葉県,船橋市,高根台７丁目１３番１６号,,12,204,2740065,,,,,,,2023-01-10,1,,,,,アイウェル,0
1557,6040003021620,新規,0,2023-01-10,2023-01-10,紅葉成田シーサイドホテル合同会社,,合同会社,千葉県,匝瑳市,野手字内裏浜１７０９９番地１０,,12,235,2893181,,,,,,,2023-01-10,1,,,,,コウヨウナリタシーサイドホテル,0
1558,6040003021629,新規,0,2023-01-10,2023-01-10,合同会社豊,,合同会社,千葉県,千葉市若葉区,貝塚町２０３８番地９メゾンド貝塚２０４号,,12,104,2640023,,,,,,,2023-01-10,1,,,,,ユタカ,0
1563,6060001035579,新規,0,2023-01-10,2023-01-10,株式会社ＳＥＴＴ　Ｆ,,株式会社,栃木県,佐野市,富士町２３２番地１,,09,204,3270801,,,,,,,2023-01-10,1,,,,,セットエフ,0
1564,6060001035587,新規,0,2023-01-10,2023-01-10,株式会社ｒｏｕｇｅ,,株式会社,栃木県,芳賀郡芳賀町,大字八ツ木５７番地４５,,09,345,3213306,,,,,,,2023-01-10,1,,,,,ルージュ,0
1565,6060003004359,新規,0,2023-01-10,2023-01-10,ＪＹＯＴＩＲＡＪ合同会社,,合同会社,栃木県,小山市,東城南１丁目１番地３シャトレ海老沼５０３号,,09,208,3230829,,,,,,,2023-01-10,1,,,,,ジョティラジ,0
1567,6070001039991,新規,0,2023-01-10,2023-01-10,株式会社ヤマシンテクノ,,株式会社,群馬県,太田市,西新町７４番地５,,10,205,3730847,,,,,,,2023-01-10,1,,,,,ヤマシンテクノ,0
1568,6070003004779,新規,0,2023-01-10,2023-01-10,合同会社ｏｎｅ‐Ｈ,,合同会社,群馬県,佐波郡玉村町,大字板井１４００番地,,10,464,3701135,,,,,,,2023-01-10,1,,,,,ワンエイチ,0
1572,6080001025388,新規,0,2023-01-10,2023-01-10,株式会社結彩,,株式会社,静岡県,静岡市葵区,鷹匠３丁目１１－１９,,22,101,4200839,,,,,,,2023-01-10,1,,,,,スクイロ,0
1573,6080001025396,新規,0,2023-01-10,2023-01-10,アクシアホーム株式会社,,株式会社,静岡県,静岡市葵区,古庄２丁目１４番１８号,,22,101,4200812,,,,,,,2023-01-10,1,,,,,アクシアホーム,0
1574,6080003002922,新規,0,2023-01-10,2023-01-10,Ｌａｆ　ｇｒｏｕｐ合同会社,,合同会社,静岡県,静岡市清水区,草薙杉道３丁目１－１８,,22,103,4240885,,,,,,,2023-01-10,1,,,,,ラフグループ,0
1575,6080401026234,新規,0,2023-01-10,2023-01-10,株式会社イトー板金,,株式会社,静岡県,浜松市中区,高丘北１丁目１１番１１号,,22,131,4338119,,,,,,,2023-01-10,1,,,,,イトーバンキン,0
1576,6090001017913,新規,0,2023-01-10,2023-01-10,ＹＭ総合株式会社,,株式会社,山梨県,中巨摩郡昭和町,西条２５４８番地５,,19,384,4093866,,,,,,,2023-01-10,1,,,,,,0
1579,6110001037207,新規,0,2023-01-10,2023-01-10,株式会社七彩,,株式会社,新潟県,柏崎市,新赤坂４丁目５番４４号,,15,205,9450845,,,,,,,2023-01-10,1,,,,,ナナイロ,0
1585,6110005016883,新規,0,2023-01-10,2023-01-10,特定非営利活動法人イロドリ,,その他の設立登記法人,新潟県,胎内市,本郷５４４番地１,,15,227,9592655,,,,,,,2023-01-10,1,,,,,イロドリ,0
1595,6120001251459,新規,0,2023-01-10,2023-01-10,青島昇龍株式会社,,株式会社,大阪府,大阪市中央区,島之内１丁目１３番３２号,,27,128,5420082,,,,,,,2023-01-10,1,,,,,チンタオショウリュウ,0
1596,6120001251533,新規,0,2023-01-10,2023-01-10,株式会社ＴＡＬＬ　ＭａＮ,,株式会社,大阪府,大阪市生野区,巽西３丁目１０番１９号,,27,116,5440012,,,,,,,2023-01-10,1,,,,,トールマン,0
1597,6120001251574,新規,0,2023-01-10,2023-01-10,株式会社マックリン,,株式会社,大阪府,大阪市都島区,友渕町１丁目６番１－１３０３号,,27,102,5340016,,,,,,,2023-01-10,1,,,,,マックリン,0
1600,6120005023383,新規,0,2023-01-10,2023-01-10,一般社団法人友ファミリー,,その他の設立登記法人,大阪府,大阪市都島区,東野田町２丁目８番７号,,27,102,5340024,,,,,,,2023-01-10,1,,,,,ユウファミリー,0
1603,6120901046958,新規,0,2023-01-10,2023-01-10,株式会社ミンカ,,株式会社,大阪府,池田市,城南１丁目６番１９号,,27,204,5630025,,,,,,,2023-01-10,1,,,,,ミンカ,0
1605,6120903004443,新規,0,2023-01-10,2023-01-10,合同会社ＩＴＡＲＵ,,合同会社,大阪府,豊中市,上野東３丁目１８番１３号,,27,203,5600013,,,,,,,2023-01-10,1,,,,,イタル,0
1607,6122001036542,新規,0,2023-01-10,2023-01-10,株式会社アギーラ,,株式会社,大阪府,八尾市,教興寺４丁目１５８番地,,27,212,5810874,,,,,,,2023-01-10,1,,,,,アギーラ,0
1608,6122001036550,新規,0,2023-01-10,2023-01-10,株式会社永由工務店,,株式会社,大阪府,八尾市,弓削町南２丁目２９番地の１８,,27,212,5810034,,,,,,,2023-01-10,1,,,,,ナガヨシコウムテン,0
1612,6130001073407,新規,0,2023-01-10,2023-01-10,株式会社福山保険事務所,,株式会社,京都府,福知山市,字堀２５９３番地,,26,201,6200000,,,,,,,2023-01-10,1,,,,,フクヤマホケンジムショ,0
1613,6130001073415,新規,0,2023-01-10,2023-01-10,株式会社ＤＲ,,株式会社,京都府,京都市北区,紫野上築山町３４番地１キンブリッジ京都大徳寺前１階,,26,101,6038221,,,,,,,2023-01-10,1,,,,,ディーアール,0
1614,6130001073423,新規,0,2023-01-10,2023-01-10,株式会社ＡＺ,,株式会社,京都府,京都市山科区,西野山中鳥井町９１－２西野山洛庵３０８号,,26,110,6078306,,,,,,,2023-01-10,1,,,,,アズ,0
1623,6140001128580,新規,0,2023-01-10,2023-01-10,ｉｖｕ株式会社,,株式会社,兵庫県,西宮市,今津二葉町１番３号,,28,204,6638228,,,,,,,2023-01-10,1,,,,,イヴ,0
1624,6140001128639,新規,0,2023-01-10,2023-01-10,株式会社新栄商会,,株式会社,兵庫県,神戸市兵庫区,駅南通５丁目４－１７,,28,105,6520897,,,,,,,2023-01-10,1,,,,,シンエイショウカイ,0
1627,6140005026434,新規,0,2023-01-10,2023-01-10,医療法人社団謙壽会,,その他の設立登記法人,兵庫県,神戸市垂水区,小束山本町３丁目１番２号,,28,108,6550003,,,,,,,2023-01-10,1,,,,,ケンジュカイ,0
1628,6150001026073,新規,0,2023-01-10,2023-01-10,株式会社アンド・リスペクト,,株式会社,奈良県,奈良市,西大寺小坊町６番５号,,29,201,6310827,,,,,,,2023-01-10,1,,,,,アンドリスペクト,0
1630,6160001024737,新規,0,2023-01-10,2023-01-10,株式会社リード,,株式会社,滋賀県,近江八幡市,鷹飼町１４８１番地,,25,204,5230891,,,,,,,2023-01-10,1,,,,,リード,0
1631,6160001024745,新規,0,2023-01-10,2023-01-10,株式会社９ｗｏｒｋ,,株式会社,滋賀県,犬上郡豊郷町,大字安食南６１３番地,,25,441,5291172,,,,,,,2023-01-10,1,,,,,キュウワーク,0
1633,6170001017434,新規,0,2023-01-10,2023-01-10,株式会社ジェルコ,,株式会社,和歌山県,和歌山市,西浜９３７番地４０,,30,201,6410036,,,,,,,2023-01-10,1,,,,,ジェルコ,0
1634,6170003001816,新規,0,2023-01-10,2023-01-10,合同会社Ｍ’ｓコンサルティング,,合同会社,和歌山県,和歌山市,坂田３３番地３,,30,201,6410003,,,,,,,2023-01-10,1,,,,,エムズコンサルティング,0
1637,6180001154409,新規,0,2023-01-10,2023-01-10,株式会社エルメ・エステート,,株式会社,愛知県,名古屋市東区,泉１丁目１８番３号泉ステイトリービル６０１号,,23,102,4610001,,,,,,,2023-01-10,1,,,,,エルメエステート,0
1638,6180001154425,新規,0,2023-01-10,2023-01-10,株式会社グロースヴァルド,,株式会社,愛知県,海部郡大治町,大字西條字神田５番地の３,,23,424,4901144,,,,,,,2023-01-10,1,,,,,グロースヴァルド,0
1639,6180001154441,新規,0,2023-01-10,2023-01-10,株式会社石建,,株式会社,愛知県,江南市,前飛保町緑ケ丘１９４番地３,,23,217,4838334,,,,,,,2023-01-10,1,,,,,イシケン,0
1643,6180003024675,新規,0,2023-01-10,2023-01-10,合同会社犬猫良品企画,,合同会社,愛知県,あま市,森５丁目１１番地１,,23,237,4901107,,,,,,,2023-01-10,1,,,,,イヌネコリョウヒンキカク,0
1644,6180003024691,新規,0,2023-01-10,2023-01-10,優縁合同会社,,合同会社,愛知県,名古屋市中区,栄５丁目２６番３９号ＧＳ栄ビル３階,,23,106,4600008,,,,,,,2023-01-10,1,,,,,ユウエン,0
1645,6180005020061,新規,0,2023-01-10,2023-01-10,医療法人平安通歯科クリニック,,その他の設立登記法人,愛知県,名古屋市北区,平安２丁目１０番２５号ミライエＡ１階,,23,103,4620819,,,,,,,2023-01-10,1,,,,,ヘイアンドオリシカクリニック,0
1648,6190001030071,新規,0,2023-01-10,2023-01-10,株式会社みどりの研究所,,株式会社,三重県,鈴鹿市,岸田町１１００番地,,24,207,5131121,,,,,,,2023-01-10,1,,,,,ミドリノケンキュウショ,0
1650,6200001040837,新規,0,2023-01-10,2023-01-10,株式会社ＴＯＰ技研,,株式会社,岐阜県,大垣市,和合新町１丁目１２３９番地３,,21,202,5030801,,,,,,,2023-01-10,1,,,,,トップギケン,0
1651,6200003005796,新規,0,2023-01-10,2023-01-10,ｉｅｙ‐Ｆａｃｔｏｒｙ合同会社,,合同会社,岐阜県,可児郡御嵩町,中切１４３２番地５,,21,521,5050114,,,,,,,2023-01-10,1,,,,,アイイーファクトリー,0
1653,6210001019194,新規,0,2023-01-10,2023-01-10,株式会社ピーハウス,,株式会社,福井県,鯖江市,長泉寺町１丁目２番４３号,,18,207,9160024,,,,,,,2023-01-10,1,,,,,ピーハウス,0
1654,6210001019203,新規,0,2023-01-10,2023-01-10,株式会社Ｃｏｎｎｅｃｔｉｏｎ,,株式会社,福井県,福井市,若杉２丁目１４０１番地池田ビル３階,,18,201,9188055,,,,,,,2023-01-10,1,,,,,コネクション,0
1655,6220001025200,新規,0,2023-01-10,2023-01-10,株式会社ＮＯＭＡＤ,,株式会社,石川県,羽咋郡志賀町,上野ロの１２９番地１,,17,384,9250165,,,,,,,2023-01-10,1,,,,,ノマド,0
1656,6220001025209,新規,0,2023-01-10,2023-01-10,株式会社千代寿司,,株式会社,石川県,鹿島郡中能登町,高畠ち部１番地１,,17,407,9291635,,,,,,,2023-01-10,1,,,,,チヨズシ,0
1658,6220003003427,新規,0,2023-01-10,2023-01-10,百万石ＩＰサービス合同会社,,合同会社,石川県,金沢市,みずき１丁目２３０番地,,17,201,9200201,,,,,,,2023-01-10,1,,,,,ヒャクマンゴクアイピーサービス,0
1659,6230001019663,新規,0,2023-01-10,2023-01-10,ＨＢＡＵＴＯ株式会社,,株式会社,富山県,射水市,小杉白石９５７番地１,,16,211,9390304,,,,,,,2023-01-10,1,,,,,エイチビーオート,0
1662,6240001060914,新規,0,2023-01-10,2023-01-10,株式会社ミジョン,,株式会社,広島県,福山市,神辺町字道上３５番地３,,34,207,7202104,,,,,,,2023-01-10,1,,,,,ミジョン,0
1663,6240001060922,新規,0,2023-01-10,2023-01-10,でんでんコーポレーション株式会社,,株式会社,広島県,福山市,三吉町１丁目８番２７号,,34,207,7200031,,,,,,,2023-01-10,1,,,,,デンデンコーポレーション,0
1670,6260001037555,新規,0,2023-01-10,2023-01-10,株式会社中臣興業,,株式会社,岡山県,倉敷市,中畝５丁目７番３６－７号,,33,202,7128051,,,,,,,2023-01-10,1,,,,,ナカトミコウギョウ,0
1671,6260001037563,新規,0,2023-01-10,2023-01-10,株式会社内田建設工業,,株式会社,岡山県,岡山市北区,吉宗４８７番地１,,33,101,7011143,,,,,,,2023-01-10,1,,,,,ウチダケンセツコウギョウ,0
1672,6270001008695,新規,0,2023-01-10,2023-01-10,株式会社ＰＡＩＮＴ　ＷＡＴＡＭＵＲＡ,,株式会社,鳥取県,鳥取市,河原町釜口７３５番地１,,31,201,6801216,,,,,,,2023-01-10,1,,,,,ペイントワタムラ,0
1679,6290001100070,新規,0,2023-01-10,2023-01-10,マカフ株式会社,,株式会社,福岡県,福岡市中央区,薬院２丁目１３－３３ＶＩＰ薬院８Ｆ,,40,133,8100022,,,,,,,2023-01-10,1,,,,,マカフ,0
1680,6290001100104,新規,0,2023-01-10,2023-01-10,株式会社ｎｏｔ　ａｔ,,株式会社,福岡県,福岡市博多区,博多駅南４丁目１９番５号,,40,132,8120016,,,,,,,2023-01-10,1,,,,,ノットアット,0
1681,6290001100112,新規,0,2023-01-10,2023-01-10,株式会社Ｒ‐ＥｘｔｅｒｉｏｒＤｅｓｉｇｎ,,株式会社,福岡県,柳川市,田脇６６０番地２,,40,207,8320089,,,,,,,2023-01-10,1,,,,,アールエクステリアデザイン,0
1682,6290001100120,新規,0,2023-01-10,2023-01-10,株式会社古賀電機サービス,,株式会社,福岡県,朝倉市,甘木２１３６番地５,,40,228,8380068,,,,,,,2023-01-10,1,,,,,コガデンキサービス,0
1684,6290801029179,新規,0,2023-01-10,2023-01-10,東犀川ファーム株式会社,,株式会社,福岡県,京都郡みやこ町,犀川続命院１７番地,,40,625,8240203,,,,,,,2023-01-10,1,,,,,ヒガシサイガワファーム,0
1685,6290801029187,新規,0,2023-01-10,2023-01-10,株式会社Ｓｕｎ　ｂｅｅ,,株式会社,福岡県,北九州市小倉北区,堺町１丁目９番１０号アースコート堺町ＢＬＤ,,40,106,8020005,,,,,,,2023-01-10,1,,,,,サンビー,0
1686,6290801029195,新規,0,2023-01-10,2023-01-10,株式会社Ｔａｋｅ　Ｒｏｏｔｓ,,株式会社,福岡県,北九州市八幡東区,祝町１丁目１６番１７号,,40,108,8050041,,,,,,,2023-01-10,1,,,,,テイクルーツ,0
1687,6290805009623,新規,0,2023-01-10,2023-01-10,医療法人創,,その他の設立登記法人,福岡県,北九州市小倉北区,若富士町６番１２号ウィングス城野駅前１０３号,,40,106,8020063,,,,,,,2023-01-10,1,,,,,ソウ,0
1689,6330001030461,新規,0,2023-01-10,2023-01-10,株式会社ＮＩＳＨＩＭＵＲＡ,,株式会社,熊本県,熊本市中央区,花畑町１３番２６号第一銀杏ビル２階,,43,101,8600806,,,,,,,2023-01-10,1,,,,,ニシムラ,0
1690,6330001030478,新規,0,2023-01-10,2023-01-10,株式会社浦山海苔,,株式会社,熊本県,熊本市西区,沖新町３４８０番地,,43,103,8615273,,,,,,,2023-01-10,1,,,,,ウラヤマノリ,0
1691,6340001025270,新規,0,2023-01-10,2023-01-10,株式会社ぐっちＶＥＴ,,株式会社,鹿児島県,鹿児島市,吉野町３５０６番地５２,,46,201,8920871,,,,,,,2023-01-10,1,,,,,グッチベット,0
1692,6340001025279,新規,0,2023-01-10,2023-01-10,株式会社エフスリー,,株式会社,鹿児島県,熊毛郡中種子町,坂井４０４１番地,,46,501,8913606,,,,,,,2023-01-10,1,,,,,エフスリー,0
1693,6340001025287,新規,0,2023-01-10,2023-01-10,萩原石材株式会社,,株式会社,鹿児島県,鹿児島市,東佐多町２２５９番地３,,46,201,8911302,,,,,,,2023-01-10,1,,,,,ハギハラセキザイ,0
1694,6340003004009,新規,0,2023-01-10,2023-01-10,みのりある合同会社,,合同会社,鹿児島県,奄美市,名瀬長浜町８－１６照屋ビル１０１号,,46,222,8940036,,,,,,,2023-01-10,1,,,,,ミノリアル,0
1695,6340005009542,新規,0,2023-01-10,2023-01-10,社会保険労務士法人鹿島事務所,,その他の設立登記法人,鹿児島県,鹿児島市,下荒田４丁目１４番３３号,,46,201,8900056,,,,,,,2023-01-10,1,,,,,カシマジムショ,0
1697,6350001018117,新規,0,2023-01-10,2023-01-10,株式会社リヴィール,,株式会社,宮崎県,日南市,飫肥５丁目４番１６号,,45,204,8892535,,,,,,,2023-01-10,1,,,,,リヴィール,0
1703,6370001049440,新規,0,2023-01-10,2023-01-10,株式会社学進建設,,株式会社,宮城県,亘理郡亘理町,長瀞字南原１９３番６３,,04,361,9892341,,,,,,,2023-01-10,1,,,,,ガクシンケンセツ,0
1704,6370001049457,新規,0,2023-01-10,2023-01-10,瀧直建設工業株式会社,,株式会社,宮城県,仙台市宮城野区,鶴ケ谷２丁目５番地３号棟２０５,,04,102,9830824,,,,,,,2023-01-10,1,,,,,タキナオケンセツコウギョウ,0
1705,6370001049465,新規,0,2023-01-10,2023-01-10,株式会社プロテジェ,,株式会社,宮城県,仙台市若林区,河原町１丁目２－１４－６０７,,04,103,9840816,,,,,,,2023-01-10,1,,,,,プロテジェ,0
1707,6380001033369,新規,0,2023-01-10,2023-01-10,株式会社エルクラシア,,株式会社,福島県,会津若松市,門田町大字飯寺字村東６１５番地の９８グランデハウスイースト３４・２０２,,07,202,9650846,,,,,,,2023-01-10,1,,,,,エルクラシア,0
1708,6380003005358,新規,0,2023-01-10,2023-01-10,合同会社オバラ,,合同会社,福島県,南相馬市,原町区国見町３丁目２４番地,,07,212,9750015,,,,,,,2023-01-10,1,,,,,オバラ,0
1714,6400001016115,新規,0,2023-01-10,2023-01-10,株式会社ＦＮＭ,,株式会社,岩手県,盛岡市,流通センター北１丁目１０番１１号,,03,201,0200846,,,,,,,2023-01-10,1,,,,,エフエヌエム,0
1715,6400001016123,新規,0,2023-01-10,2023-01-10,株式会社ニックスいわて,,株式会社,岩手県,盛岡市,仙北２丁目１０番１７号,,03,201,0200861,,,,,,,2023-01-10,1,,,,,ニックスイワテ,0
1716,6410001013359,新規,0,2023-01-10,2023-01-10,株式会社モギアート,,株式会社,秋田県,大仙市,福田字川原道下４２番地１,,05,212,0140114,,,,,,,2023-01-10,1,,,,,モギアート,0
1720,6430001088127,新規,0,2023-01-10,2023-01-10,株式会社イデルティー,,株式会社,北海道,札幌市中央区,南六条西１丁目４番地１レジデンスカープ札幌５０８号,,01,101,0640806,,,,,,,2023-01-10,1,,,,,イデルティー,0
1721,6430001088151,新規,0,2023-01-10,2023-01-10,株式会社Ｓｕｎ　ａｒｏｕｎｄ　ｓｅｒｖｉｃｅ,,株式会社,北海道,札幌市北区,北三十条西７丁目２番６号,,01,102,0010030,,,,,,,2023-01-10,1,,,,,サンアラウンドサービス,0
1732,6470003002321,新規,0,2023-01-10,2023-01-10,合同会社ランダム,,合同会社,香川県,丸亀市,綾歌町岡田東１７０８番１,,37,202,7612404,,,,,,,2023-01-10,1,,,,,ランダム,0
1735,6500003002945,新規,0,2023-01-10,2023-01-10,合同会社ＮＳｎｉｌ,,合同会社,愛媛県,松山市,西石井６丁目８番６号,,38,201,7900931,,,,,,,2023-01-10,1,,,,,エヌエスニル,0
1739,7010001232031,新規,0,2023-01-10,2023-01-10,株式会社オリジナルブレイン,,株式会社,東京都,中央区,銀座１丁目２２番１１号,,13,102,1040061,,,,,,,2023-01-10,1,,,,,オリジナルブレイン,0
1740,7010001232048,新規,0,2023-01-10,2023-01-10,中国煤科日本株式会社,,株式会社,東京都,千代田区,丸の内１丁目８番３号丸の内トラストタワー本館２０階,,13,101,1000005,,,,,,,2023-01-10,1,,,,,,0
1743,7010003039482,新規,0,2023-01-10,2023-01-10,合同会社Ｓｈｏｕｒａｉ,,合同会社,東京都,中央区,京橋２丁目８番２１号仁大ビル天翔オフィス京橋７０１号室,,13,102,1040031,,,,,,,2023-01-10,1,,,,,ショウライ,0
1744,7010003039490,新規,0,2023-01-10,2023-01-10,合同会社ＡＳＨ,,合同会社,東京都,中央区,銀座８丁目１８番３号銀座加藤ビル２階,,13,102,1040061,,,,,,,2023-01-10,1,,,,,アッシュ,0
1745,7010003039499,新規,0,2023-01-10,2023-01-10,ＦＯＸ合同会社,,合同会社,東京都,千代田区,西神田２丁目２番１５号,,13,101,1010065,,,,,,,2023-01-10,1,,,,,フォックス,0
1747,7010005036081,新規,0,2023-01-10,2023-01-10,一般社団法人ＡＲＫ０１,,その他の設立登記法人,東京都,千代田区,丸の内３丁目１番１号東京共同会計事務所内,,13,101,1000005,,,,,,,2023-01-10,1,,,,,アークゼロワン,0
1757,7010401171572,新規,0,2023-01-10,2023-01-10,株式会社コルレオーネ,,株式会社,東京都,港区,南青山２丁目２番８号,,13,103,1070062,,,,,,,2023-01-10,1,,,,,コルレオーネ,0
1758,7010401171696,新規,0,2023-01-10,2023-01-10,株式会社スキル,,株式会社,東京都,港区,新橋６丁目４番３－４１２号,,13,103,1050004,,,,,,,2023-01-10,1,,,,,スキル,0
1759,7010401171779,新規,0,2023-01-10,2023-01-10,株式会社イマジカデジタルスケープ,,株式会社,東京都,港区,海岸１丁目１４番２号,,13,103,1050022,,,,,,,2023-01-10,1,,,,,イマジカデジタルスケープ,0
1764,7010405021690,新規,0,2023-01-10,2023-01-10,一般財団法人日本バウンドテニス振興協会,,その他の設立登記法人,東京都,港区,海岸１丁目１０番３０号,,13,103,1050022,,,,,,,2023-01-10,1,,,,,ニホンバウンドテニスシンコウキョウカイ,0
1766,7010503006841,新規,0,2023-01-10,2023-01-10,合同会社ＫＩＴｙｏｕ,,合同会社,東京都,台東区,台東４丁目３２－７第二宮地ビル６階,,13,106,1100016,,,,,,,2023-01-10,1,,,,,キットユー,0
1767,7010603009926,新規,0,2023-01-10,2023-01-10,梅叶の家合同会社,,合同会社,東京都,墨田区,八広６丁目２番１－６０２,,13,107,1310041,,,,,,,2023-01-10,1,,,,,ウメカナノイエ,0
1772,7010701043678,新規,0,2023-01-10,2023-01-10,株式会社Ｍｅｔａｌ　Ｐｏｔ　Ｓｔｕｄｉｏ,,株式会社,東京都,品川区,上大崎２丁目９番２５号ＳＫ２９２５（１０５）,,13,109,1410021,,,,,,,2023-01-10,1,,,,,メタルポットスタジオ,0
1773,7010701043686,新規,0,2023-01-10,2023-01-10,株式会社Ｋａｆｒａ,,株式会社,東京都,品川区,南品川２丁目６番６号,,13,109,1400004,,,,,,,2023-01-10,1,,,,,カフラ,0
1774,7010701043694,新規,0,2023-01-10,2023-01-10,株式会社ＨＴ,,株式会社,東京都,品川区,東大井１丁目１３番５－５０３号,,13,109,1400011,,,,,,,2023-01-10,1,,,,,エッチティー,0
1776,7010801033570,新規,0,2023-01-10,2023-01-10,Ｌｉｖ‐Ｌｅａｆ株式会社,,株式会社,東京都,大田区,上池台３丁目３２番６号,,13,111,1450064,,,,,,,2023-01-10,1,,,,,リブリーフ,0
1777,7010805002992,新規,0,2023-01-10,2023-01-10,一般社団法人スタートアップ労働衛生推進協会,,その他の設立登記法人,東京都,大田区,西糀谷４丁目１６‐２吉澤ビル１,,13,111,1440034,,,,,,,2023-01-10,1,,,,,スタートアップロウドウエイセイスイシンキョウカイ,0
1780,7010901052264,新規,0,2023-01-10,2023-01-10,ＯＫＵＤＡ　Ａｓｓｅｔ　Ｍａｎａｇｅｍｅｎｔ株式会社,,株式会社,東京都,世田谷区,上用賀３丁目５番７号,,13,112,1580098,,,,,,,2023-01-10,1,,,,,オクダアセットマネジメント,0
1783,7010903007893,新規,0,2023-01-10,2023-01-10,Ｂａｓｅ＆Ｃｏｍｐａｎｙ合同会社,,合同会社,東京都,世田谷区,弦巻１丁目５１番６―１０６号,,13,112,1540016,,,,,,,2023-01-10,1,,,,,ベースアンドカンパニー,0
1789,7011001151840,新規,0,2023-01-10,2023-01-10,株式会社ＩＮＳＰＩＤＡ,,株式会社,東京都,渋谷区,神宮前６丁目２３番４号,,13,113,1500001,,,,,,,2023-01-10,1,,,,,インスパイダ,0
1790,7011003016050,新規,0,2023-01-10,2023-01-10,ＧＲＯＷ合同会社,,合同会社,東京都,渋谷区,円山町２８番３号いちご渋谷道玄坂ビル９Ｆ,,13,113,1500044,,,,,,,2023-01-10,1,,,,,グロウ,0
1792,7011103012585,新規,0,2023-01-10,2023-01-10,９ｄ９ｊａｐａｎ合同会社,,合同会社,東京都,新宿区,西新宿３丁目３番１３号西新宿水間ビル２Ｆ,,13,104,1600023,,,,,,,2023-01-10,1,,,,,クドクジャパン,0
1795,7011503005420,新規,0,2023-01-10,2023-01-10,合同会社柊美,,合同会社,東京都,荒川区,西日暮里２丁目３９番５－１２０１号,,13,118,1160013,,,,,,,2023-01-10,1,,,,,シュウビ,0
1797,7011801041753,新規,0,2023-01-10,2023-01-10,株式会社ケーエスコーポレーション,,株式会社,東京都,葛飾区,金町５丁目３４－１７和田ビル４０３号室,,13,122,1250042,,,,,,,2023-01-10,1,,,,,ケーエスコーポレーション,0
1799,7012401040022,新規,0,2023-01-10,2023-01-10,株式会社ＪＵＩＣＹ　ＤＥＳＩＧＮ,,株式会社,東京都,調布市,国領町４丁目２９番地２グリーンタウン国領Ａ－１,,13,208,1820022,,,,,,,2023-01-10,1,,,,,ジューシーデザイン,0
1800,7012401040055,新規,0,2023-01-10,2023-01-10,株式会社ティーエムコネクト,,株式会社,東京都,武蔵野市,吉祥寺本町１丁目１３－２シラカバビル５Ｆ,,13,203,1800004,,,,,,,2023-01-10,1,,,,,ティーエムコネクト,0
1813,7020001149670,新規,0,2023-01-10,2023-01-10,株式会社ＮＥＳ　Ｃｏｒｐｏｒａｔｉｏｎ,,株式会社,神奈川県,川崎市多摩区,登戸２４３２番地１Ｂｌｕｅｗａｔｅｒ・Ｂｕｉｌｄｉｎｇ６階,,14,135,2140014,,,,,,,2023-01-10,1,,,,,ネスコーポレーション,0
1814,7020001149679,新規,0,2023-01-10,2023-01-10,株式会社深田屋,,株式会社,神奈川県,川崎市宮前区,犬蔵１丁目９番１号,,14,136,2160011,,,,,,,2023-01-10,1,,,,,フカダヤ,0
1815,7020001149720,新規,0,2023-01-10,2023-01-10,株式会社ランプルテック,,株式会社,神奈川県,横浜市戸塚区,深谷町４２８番地２,,14,110,2450067,,,,,,,2023-01-10,1,,,,,ランプルテック,0
1816,7020003023007,新規,0,2023-01-10,2023-01-10,合同会社モリヤマホールディングス,,合同会社,神奈川県,横浜市保土ケ谷区,上星川３丁目１番１号,,14,106,2400042,,,,,,,2023-01-10,1,,,,,モリヤマホールディングス,0
1817,7020003023015,新規,0,2023-01-10,2023-01-10,ＰＲＩＭＯ合同会社,,合同会社,神奈川県,横浜市中区,常盤町５丁目７２番地１ＧＭ横浜馬車道ビル１Ｆ,,14,104,2310014,,,,,,,2023-01-10,1,,,,,プリモ,0
1820,7021001077845,新規,0,2023-01-10,2023-01-10,株式会社ＣＯＬＯＲ,,株式会社,神奈川県,大和市,上草柳３丁目１６番７－１２号,,14,213,2420029,,,,,,,2023-01-10,1,,,,,カラー,0
1821,7021001077853,新規,0,2023-01-10,2023-01-10,株式会社ＭＩＹＡＢＩ,,株式会社,神奈川県,藤沢市,遠藤３２２３番地の１,,14,205,2520816,,,,,,,2023-01-10,1,,,,,ミヤビ,0
1822,7021001077878,新規,0,2023-01-10,2023-01-10,株式会社セラピーワークス,,株式会社,神奈川県,秦野市,南矢名５２６番地の１７,,14,211,2570003,,,,,,,2023-01-10,1,,,,,セラピーワークス,0
1830,7030001151709,新規,0,2023-01-10,2023-01-10,株式会社うさぎとカメ,,株式会社,埼玉県,日高市,大字猿田１３６番地２,,11,242,3501236,,,,,,,2023-01-10,1,,,,,ウサギトカメ,0
1831,7030001151741,新規,0,2023-01-10,2023-01-10,株式会社鍛冶鳶エスケイ,,株式会社,埼玉県,川口市,大字久左衛門新田３番地の２,,11,203,3330804,,,,,,,2023-01-10,1,,,,,カジトビエスケイ,0
1841,7040001126486,新規,0,2023-01-10,2023-01-10,株式会社エムズカラット,,株式会社,千葉県,松戸市,八ケ崎３丁目２０番地の１２,,12,207,2700023,,,,,,,2023-01-10,1,,,,,エムズカラット,0
1842,7040001126494,新規,0,2023-01-10,2023-01-10,株式会社しげふく,,株式会社,千葉県,野田市,尾崎７４番地１,,12,208,2700235,,,,,,,2023-01-10,1,,,,,シゲフク,0
1843,7040001126503,新規,0,2023-01-10,2023-01-10,株式会社エムズトレジャー,,株式会社,千葉県,茂原市,八千代１丁目１２番地３,,12,210,2970024,,,,,,,2023-01-10,1,,,,,エムズトレジャー,0
1844,7040001126511,新規,0,2023-01-10,2023-01-10,株式会社柏葉,,株式会社,千葉県,柏市,柏３１３番地１アインズコート柏３２０号,,12,217,2770005,,,,,,,2023-01-10,1,,,,,ハクヨウ,0
1845,7040001126528,新規,0,2023-01-10,2023-01-10,株式会社ｃｌｉｍｂ,,株式会社,千葉県,習志野市,津田沼１丁目１３－２４カメリアマンション２０９,,12,216,2750016,,,,,,,2023-01-10,1,,,,,クライム,0
1847,7040003021628,新規,0,2023-01-10,2023-01-10,プラスワンフォース合同会社,,合同会社,千葉県,船橋市,前貝塚町１１０６番地３,,12,204,2730042,,,,,,,2023-01-10,1,,,,,プラスワンフォース,0
1848,7050001052194,新規,0,2023-01-10,2023-01-10,福田商事株式会社,,株式会社,茨城県,神栖市,太田１８７３番地１,,08,232,3140254,,,,,,,2023-01-10,1,,,,,フクタショウジ,0
1856,7060001035586,新規,0,2023-01-10,2023-01-10,株式会社後藤ダクト工業,,株式会社,栃木県,那須塩原市,豊浦７番地２４,,09,213,3250023,,,,,,,2023-01-10,1,,,,,ゴトウダクトコウギョウ,0
1859,7070001039990,新規,0,2023-01-10,2023-01-10,森永並榎販売株式会社,,株式会社,群馬県,高崎市,筑縄町３６３番地３,,10,202,3700075,,,,,,,2023-01-10,1,,,,,モリナガナミエハンバイ,0
1860,7070003004778,新規,0,2023-01-10,2023-01-10,合同会社ＧＬＤ企画,,合同会社,群馬県,高崎市,上中居町１５０８－３５,,10,202,3700851,,,,,,,2023-01-10,1,,,,,ジーエルディーキカク,0
1861,7080001025387,新規,0,2023-01-10,2023-01-10,株式会社Ｍａｓｔｅｒ　Ｐｌａｎ,,株式会社,静岡県,藤枝市,立花１丁目１番地の１２,,22,214,4260013,,,,,,,2023-01-10,1,,,,,マスタープラン,0
1863,7080401026241,新規,0,2023-01-10,2023-01-10,株式会社オフィスモリシゲ,,株式会社,静岡県,浜松市中区,富塚町１６１８番地の９４,,22,131,4328002,,,,,,,2023-01-10,1,,,,,オフィスモリシゲ,0
1864,7100001036010,新規,0,2023-01-10,2023-01-10,オフィスライズ株式会社,,株式会社,長野県,岡谷市,７４３４番地,,20,204,3940091,,,,,,,2023-01-10,1,,,,,オフィスライズ,0
1865,7100001036019,新規,0,2023-01-10,2023-01-10,株式会社ＢＥＡＲ,,株式会社,長野県,飯田市,宮の前４４１８番地１,,20,205,3950082,,,,,,,2023-01-10,1,,,,,ベアー,0
1867,7100003006829,新規,0,2023-01-10,2023-01-10,Ｍ．Ｋ．設備合同会社,,合同会社,長野県,長野市,川中島町原８１９番地８,,20,201,3812224,,,,,,,2023-01-10,1,,,,,エムケイセツビ,0
1872,7110001037214,新規,0,2023-01-10,2023-01-10,エトワールエトワ株式会社,,株式会社,新潟県,新潟市中央区,東堀通８番町１４２５玉家ビル２Ｆ,,15,103,9518065,,,,,,,2023-01-10,1,,,,,エトワールエトワ,0
1884,7120001251474,新規,0,2023-01-10,2023-01-10,株式会社レインボー,,株式会社,大阪府,大阪市中央区,瓦町２丁目２番１２号ＡＸＩＳ瓦町ビル５Ｆ,,27,128,5410048,,,,,,,2023-01-10,1,,,,,レインボー,0
1885,7120001251557,新規,0,2023-01-10,2023-01-10,株式会社サンライト,,株式会社,大阪府,大阪市福島区,福島８丁目２０番８号セブンオークス６０１号,,27,103,5530003,,,,,,,2023-01-10,1,,,,,サンライト,0
1886,7120001251615,新規,0,2023-01-10,2023-01-10,株式会社アミート,,株式会社,大阪府,大阪市北区,梅田１丁目２番２号大阪駅前第２ビル１２－１２,,27,127,5300001,,,,,,,2023-01-10,1,,,,,アミート,0
1890,7120003023194,新規,0,2023-01-10,2023-01-10,合同会社ｆａＮｄｅｓｙｏＮ,,合同会社,大阪府,大阪市中央区,南船場３丁目２番６号大阪農林会館ビル３０４,,27,128,5420081,,,,,,,2023-01-10,1,,,,,ファンデーション,0
1892,7120101066780,新規,0,2023-01-10,2023-01-10,株式会社ＪＦリフォーム,,株式会社,大阪府,岸和田市,池尻町４７０番地の７,,27,202,5960813,,,,,,,2023-01-10,1,,,,,ジェイエフリフォーム,0
1898,7120901046957,新規,0,2023-01-10,2023-01-10,株式会社カラライフ,,株式会社,大阪府,高槻市,大畑町１８番２－１３１０号,,27,207,5691144,,,,,,,2023-01-10,1,,,,,カラライフ,0
1901,7122001036541,新規,0,2023-01-10,2023-01-10,株式会社Ｊ．Ｅ．Ｆ,,株式会社,大阪府,東大阪市,小若江４丁目１１番１５号,,27,227,5770818,,,,,,,2023-01-10,1,,,,,ジェイイーエフ,0
1902,7122001036566,新規,0,2023-01-10,2023-01-10,株式会社ｈｏｐＥ,,株式会社,大阪府,八尾市,北木の本２丁目３５番地の５,,27,212,5810041,,,,,,,2023-01-10,1,,,,,ホープ,0
1904,7130001073406,新規,0,2023-01-10,2023-01-10,株式会社ＣｙｂｅｒｏｍｉＸ,,株式会社,京都府,京都市上京区,伊佐町２３３・３８５ＰＬＡＣＥ５０４号室,,26,102,6028407,,,,,,,2023-01-10,1,,,,,サイバーオミックス,0
1909,7140001128588,新規,0,2023-01-10,2023-01-10,隆希株式会社,,株式会社,兵庫県,姫路市,西今宿６丁目２－２２－９０１,,28,201,6700061,,,,,,,2023-01-10,1,,,,,リュウキ,0
1913,7140005026433,新規,0,2023-01-10,2023-01-10,医療法人社団たまだ泌尿器科クリニック,,その他の設立登記法人,兵庫県,加西市,北条町古坂７丁目１１１,,28,220,6752303,,,,,,,2023-01-10,1,,,,,タマダヒニョウキカクリニック,0
1914,7150001026056,新規,0,2023-01-10,2023-01-10,国際電機株式会社,,株式会社,奈良県,奈良市,下三条町３４番地更家ビル３階３０３号室,,29,201,6308236,,,,,,,2023-01-10,1,,,,,コクサイデンキ,0
1915,7150001026064,新規,0,2023-01-10,2023-01-10,株式会社アーモンド,,株式会社,奈良県,生駒市,山崎新町１番３６号,,29,209,6300255,,,,,,,2023-01-10,1,,,,,アーモンド,0
1916,7170001017433,新規,0,2023-01-10,2023-01-10,株式会社カロ,,株式会社,和歌山県,和歌山市,三葛２８４番地３,,30,201,6410011,,,,,,,2023-01-10,1,,,,,カロ,0
1923,7180001154440,新規,0,2023-01-10,2023-01-10,藤田塗装株式会社,,株式会社,愛知県,名古屋市中川区,万場１丁目８０８番地,,23,110,4540997,,,,,,,2023-01-10,1,,,,,フジタトソウ,0
1927,7180003024682,新規,0,2023-01-10,2023-01-10,合同会社Ｙ＆Ｋ,,合同会社,愛知県,津島市,今市場町２丁目１７番地１,,23,208,4960803,,,,,,,2023-01-10,1,,,,,ワイアンドケイ,0
1934,7190001030079,新規,0,2023-01-10,2023-01-10,株式会社イトウ建設,,株式会社,三重県,四日市市,東茂福町５番２２号,,24,202,5108011,,,,,,,2023-01-10,1,,,,,イトウケンセツ,0
1938,7200001040836,新規,0,2023-01-10,2023-01-10,株式会社Ａｎ,,株式会社,岐阜県,瑞穂市,本田８８０番地４,,21,216,5010236,,,,,,,2023-01-10,1,,,,,アン,0
1939,7200001040852,新規,0,2023-01-10,2023-01-10,株式会社ＳＲ　ＴＲＡＮＳＰＯＲＴ,,株式会社,岐阜県,各務原市,那加昭南町１０３番地２,,21,213,5040834,,,,,,,2023-01-10,1,,,,,エスアールトランスポート,0
1940,7200005013433,新規,0,2023-01-10,2023-01-10,ベルシティ税務研究会一般社団法人,,その他の設立登記法人,岐阜県,各務原市,尾崎南町１丁目２番地,,21,213,5040003,,,,,,,2023-01-10,1,,,,,ベルシティゼイムケンキュウカイ,0
1942,7220003003426,新規,0,2023-01-10,2023-01-10,合同会社フラワーオブライフ,,合同会社,石川県,金沢市,菊川２丁目２５番１号,,17,201,9200967,,,,,,,2023-01-10,1,,,,,フラワーオブライフ,0
1943,7230001019662,新規,0,2023-01-10,2023-01-10,株式会社Ｌｉ‐Ｐｏｒｔ,,株式会社,富山県,富山市,小中２２７番地１,,16,201,9398183,,,,,,,2023-01-10,1,,,,,リポート,0
1947,7240001060913,新規,0,2023-01-10,2023-01-10,大成ファーム株式会社,,株式会社,広島県,三原市,大和町大具１４９４番地,,34,204,7291323,,,,,,,2023-01-10,1,,,,,タイセイファーム,0
1953,7260001037562,新規,0,2023-01-10,2023-01-10,株式会社ＨＤｓ,,株式会社,岡山県,岡山市北区,北方１丁目１０‐１９（７０３）,,33,101,7000803,,,,,,,2023-01-10,1,,,,,エイチディーエス,0
1958,7290001100103,新規,0,2023-01-10,2023-01-10,一千也フーズ株式会社,,株式会社,福岡県,糟屋郡宇美町,神武原３丁目１８番５号,,40,341,8112129,,,,,,,2023-01-10,1,,,,,イッセンナリフーズ,0
1961,7290003013377,新規,0,2023-01-10,2023-01-10,合同会社ＭＲＴ,,合同会社,福岡県,飯塚市,仁保７１番地１,,40,205,8200115,,,,,,,2023-01-10,1,,,,,エムアールティー,0
1962,7290003013385,新規,0,2023-01-10,2023-01-10,合同会社Ｋ．Ｄ．Ｌ,,合同会社,福岡県,大野城市,月の浦３丁目４番２号,,40,219,8160983,,,,,,,2023-01-10,1,,,,,ケーディーエル,0
1963,7290003013393,新規,0,2023-01-10,2023-01-10,合同会社ドリームネットシュシュ,,合同会社,福岡県,久留米市,梅満町１３５８番地３,,40,203,8300048,,,,,,,2023-01-10,1,,,,,ドリームネットシュシュ,0
1964,7290005018903,新規,0,2023-01-10,2023-01-10,医療法人茜会,,その他の設立登記法人,福岡県,福岡市中央区,大名１丁目３番４１号プリオ大名ビル３階,,40,133,8100041,,,,,,,2023-01-10,1,,,,,アカネカイ,0
1965,7290801029161,新規,0,2023-01-10,2023-01-10,株式会社ＫＳＴ,,株式会社,福岡県,遠賀郡水巻町,二西３丁目１５番３号,,40,382,8070055,,,,,,,2023-01-10,1,,,,,ケイエスティ,0
1966,7290805009622,新規,0,2023-01-10,2023-01-10,医療法人治慶会,,その他の設立登記法人,福岡県,直方市,大字感田２１５４番地１,,40,204,8220001,,,,,,,2023-01-10,1,,,,,チケイカイ,0
1967,7300001013179,新規,0,2023-01-10,2023-01-10,株式会社大林総建,,株式会社,佐賀県,鳥栖市,真木町２００１番地,,41,203,8410046,,,,,,,2023-01-10,1,,,,,オオバヤシソウケン,0
1969,7320005010039,新規,0,2023-01-10,2023-01-10,医療法人高崎皮フ科,,その他の設立登記法人,大分県,中津市,大字下池永１０２番地の１２,,44,203,8710011,,,,,,,2023-01-10,1,,,,,タカサキヒフカ,0
1972,7340001025278,新規,0,2023-01-10,2023-01-10,株式会社シズカ設備,,株式会社,鹿児島県,奄美市,名瀬矢之脇町１７番２７号,,46,222,8940033,,,,,,,2023-01-10,1,,,,,シズカセツビ,0
1973,7340001025286,新規,0,2023-01-10,2023-01-10,株式会社ｃｒａｆｔｓｍａｎ,,株式会社,鹿児島県,鹿児島市,春日町７番１２号,,46,201,8920804,,,,,,,2023-01-10,1,,,,,クラフトマン,0
1976,7340003004016,新規,0,2023-01-10,2023-01-10,合同会社Ｕｉｔａｂａ,,合同会社,鹿児島県,大島郡知名町,大字芦清良１８０３番地１,,46,534,8919211,,,,,,,2023-01-10,1,,,,,ユイタバ,0
1980,7350003004262,新規,0,2023-01-10,2023-01-10,合同会社ＮＣＦ,,合同会社,宮崎県,東臼杵郡美郷町,南郷鬼神野３１４１番地,,45,431,8830304,,,,,,,2023-01-10,1,,,,,エヌシーエフ,0
1981,7360001031407,新規,0,2023-01-10,2023-01-10,株式会社塗巧舎,,株式会社,沖縄県,島尻郡南風原町,字兼城１１２番地ラフィーネ・ヴァン２０２,,47,350,9011111,,,,,,,2023-01-10,1,,,,,トコウシャ,0
1982,7360003012561,新規,0,2023-01-10,2023-01-10,合同会社うみかじ,,合同会社,沖縄県,那覇市,真嘉比２丁目２０番１０号アーバンまかび２０１号,,47,201,9020068,,,,,,,2023-01-10,1,,,,,ウミカジ,0
1983,7370001049464,新規,0,2023-01-10,2023-01-10,株式会社Ｂ‐ｔａｓ,,株式会社,宮城県,仙台市青葉区,本町１丁目６番２３号７階,,04,101,9800014,,,,,,,2023-01-10,1,,,,,ビータス,0
1985,7380001033376,新規,0,2023-01-10,2023-01-10,株式会社宍戸電気,,株式会社,福島県,本宮市,糠沢字作２０３番地,,07,214,9691204,,,,,,,2023-01-10,1,,,,,シシドデンキ,0
1989,7400001016122,新規,0,2023-01-10,2023-01-10,株式会社Ｇｒａｎｄｉｒ　Ｒｅｐａｉｒ,,株式会社,岩手県,盛岡市,高松２丁目３４番８号,,03,201,0200114,,,,,,,2023-01-10,1,,,,,グランディールリペア,0
2000,7430003014600,新規,0,2023-01-10,2023-01-10,Ｆａｖｏｒｅ合同会社,,合同会社,北海道,札幌市北区,北三十条西９丁目４番１０号,,01,102,0010030,,,,,,,2023-01-10,1,,,,,ファボーレ,0
2001,7430003014609,新規,0,2023-01-10,2023-01-10,合同会社栄光,,合同会社,北海道,札幌市東区,苗穂町２丁目１番５号,,01,103,0650043,,,,,,,2023-01-10,1,,,,,エイコウ,0
2002,7470001019408,新規,0,2023-01-10,2023-01-10,株式会社ＮＡＧＡＯ,,株式会社,香川県,坂出市,加茂町１２３３番地１６,,37,203,7620023,,,,,,,2023-01-10,1,,,,,ナガオ,0
2003,7470003002320,新規,0,2023-01-10,2023-01-10,合同会社丸山建築デザインオフィス,,合同会社,香川県,高松市,瓦町１丁目４番地１７みどりビル３階,,37,201,7600052,,,,,,,2023-01-10,1,,,,,マルヤマケンチクデザインオフィス,0
2006,7500003002944,新規,0,2023-01-10,2023-01-10,合同会社文英堂,,合同会社,愛媛県,松山市,余戸中２丁目７番５号,,38,201,7900045,,,,,,,2023-01-10,1,,,,,ブンエイドウ,0
2015,8010001232039,新規,0,2023-01-10,2023-01-10,株式会社ビッグピクチャー,,株式会社,東京都,千代田区,永田町２丁目９－６十全ビル２０５号室,,13,101,1000014,,,,,,,2023-01-10,1,,,,,ビッグピクチャー,0
2019,8010003039481,新規,0,2023-01-10,2023-01-10,合同会社ＮＫＪ　ＦＯＯＤ　ＷＯＲＫＳ,,合同会社,東京都,中央区,銀座３丁目１４番５号,,13,102,1040061,,,,,,,2023-01-10,1,,,,,エヌケージェイフードワークス,0
2021,8010005036064,新規,0,2023-01-10,2023-01-10,一般社団法人アールイートラスト２,,その他の設立登記法人,東京都,千代田区,有楽町１丁目２番２号,,13,101,1000006,,,,,,,2023-01-10,1,,,,,アールイートラストツー,0
2022,8010005036080,新規,0,2023-01-10,2023-01-10,弁理士法人来知国際特許事務所,,その他の設立登記法人,東京都,千代田区,神田佐久間町１丁目１４番地第二東ビル５階,,13,101,1010025,,,,,,,2023-01-10,1,,,,,ライチコクサイトッキョジムショ,0
2029,8010401171530,新規,0,2023-01-10,2023-01-10,ＭＤＸ株式会社,,株式会社,東京都,港区,北青山３丁目６番７号青山パラシオタワー１１階,,13,103,1070061,,,,,,,2023-01-10,1,,,,,エムデクス,0
2035,8010403029231,新規,0,2023-01-10,2023-01-10,合同会社ＨＭＩ．ＪＡＰＡＮ,,合同会社,東京都,港区,芝浦４丁目５番１３号５０４,,13,103,1080023,,,,,,,2023-01-10,1,,,,,エイチエムアイジャパン,0
2036,8010501049809,新規,0,2023-01-10,2023-01-10,株式会社丸子,,株式会社,東京都,台東区,蔵前２丁目２番８号ブラントン蔵前１３０２室,,13,106,1110051,,,,,,,2023-01-10,1,,,,,マルコ,0
2041,8010601062389,新規,0,2023-01-10,2023-01-10,株式会社伊吹吾郎事務所,,株式会社,東京都,墨田区,吾妻橋１丁目２３番３０号,,13,107,1300001,,,,,,,2023-01-10,1,,,,,イブキゴロウジムショ,0
2043,8010603009925,新規,0,2023-01-10,2023-01-10,合同会社わかふじ,,合同会社,東京都,江東区,東砂２丁目１０番２号,,13,108,1360074,,,,,,,2023-01-10,1,,,,,ワカフジ,0
2045,8010701043677,新規,0,2023-01-10,2023-01-10,新野創新株式会社,,株式会社,東京都,品川区,西五反田２丁目１３番１号プレジデントハイツ五反田６０７,,13,109,1410031,,,,,,,2023-01-10,1,,,,,ニイノソウシン,0
2046,8010703006525,新規,0,2023-01-10,2023-01-10,合同会社Ｃｏｃｏ,,合同会社,東京都,品川区,西五反田１丁目２６番２号五反田サンハイツ９１１,,13,109,1410031,,,,,,,2023-01-10,1,,,,,ココ,0
2048,8010803004420,新規,0,2023-01-10,2023-01-10,合同会社ｗｅｄｘ,,合同会社,東京都,大田区,南馬込４丁目４０－１２,,13,111,1430025,,,,,,,2023-01-10,1,,,,,ウェディクス,0
2049,8010901052271,新規,0,2023-01-10,2023-01-10,ＺＥＲＯ　ＳＴＡＲＴ　ＴＯＫＹＯ株式会社,,株式会社,東京都,世田谷区,等々力１丁目３０番１６号ライオンズマンション１０２,,13,112,1580082,,,,,,,2023-01-10,1,,,,,ゼロスタートトウキョウ,0
2050,8010903007884,新規,0,2023-01-10,2023-01-10,ライチ・エンタテインメント・ファクトリー合同会社,,合同会社,東京都,世田谷区,梅丘２丁目１４番１５－３０６号,,13,112,1540022,,,,,,,2023-01-10,1,,,,,,0
2057,8011001151815,新規,0,2023-01-10,2023-01-10,株式会社ラウレアハウジング,,株式会社,東京都,渋谷区,初台２丁目２２番３号,,13,113,1510061,,,,,,,2023-01-10,1,,,,,ラウレアハウジング,0
2058,8011001151831,新規,0,2023-01-10,2023-01-10,株式会社Ａｔｌａｎｔｉｃ,,株式会社,東京都,渋谷区,神山町１０番２－７０２号パークハビオ渋谷神山町,,13,113,1500047,,,,,,,2023-01-10,1,,,,,アトランティック,0
2061,8011101101364,新規,0,2023-01-10,2023-01-10,株式会社ネミエル,,株式会社,東京都,新宿区,高田馬場１丁目３２－１０,,13,104,1690075,,,,,,,2023-01-10,1,,,,,ネミエル,0
2062,8011101101372,新規,0,2023-01-10,2023-01-10,株式会社ＰｕｚｚｌｅＨｕｎｔｅｒｓ,,株式会社,東京都,新宿区,新宿１丁目３１番７号新宿御苑ダイカンプラザ２１０号室,,13,104,1600022,,,,,,,2023-01-10,1,,,,,パズルハンターズ,0
2063,8011101101380,新規,0,2023-01-10,2023-01-10,株式会社再生可能エネルギー推進機構,,株式会社,東京都,新宿区,横寺町３６－１８カグラハウス２０２,,13,104,1620831,,,,,,,2023-01-10,1,,,,,サイセイカノウエネルギースイシンキコウ,0
2068,8011401024810,新規,0,2023-01-10,2023-01-10,株式会社ＰＵＮＴ,,株式会社,東京都,板橋区,常盤台３丁目２９番３号パークサイド常盤台４０３号室,,13,119,1740071,,,,,,,2023-01-10,1,,,,,ピント,0
2073,8011601026482,新規,0,2023-01-10,2023-01-10,株式会社高廣工業,00128981,株式会社,東京都,練馬区,谷原３丁目８番３１号,,13,120,1770032,,,,,,,2023-01-10,1,,,,,タカヒロコウギョウ,0
2074,8011601026490,新規,0,2023-01-10,2023-01-10,株式会社タニケントータルクリーン,,株式会社,東京都,練馬区,大泉町１丁目４０番１１号,,13,120,1780062,,,,,,,2023-01-10,1,,,,,タニケントータルクリーン,0
2075,8011603003793,新規,0,2023-01-10,2023-01-10,合同会社メノプレスト,,合同会社,東京都,練馬区,北町２丁目３０番２１号,,13,120,1790081,,,,,,,2023-01-10,1,,,,,メノプレスト,0
2077,8011703003339,新規,0,2023-01-10,2023-01-10,龍鳴タクティカル合同会社,,合同会社,東京都,江戸川区,北小岩６丁目１１－２エールプラザ京成小岩Ｂ１０２,,13,123,1330051,,,,,,,2023-01-10,1,,,,,リュウメイタクティカル,0
2079,8011803005458,新規,0,2023-01-10,2023-01-10,合同会社Ｒｏｃｋｅｔ,,合同会社,東京都,葛飾区,柴又４丁目９番２０号リーヴス館１０１,,13,122,1250052,,,,,,,2023-01-10,1,,,,,ロケット,0
2087,8013303006432,新規,0,2023-01-10,2023-01-10,合同会社あおい,,合同会社,東京都,豊島区,池袋２丁目２４－５,,13,116,1710014,,,,,,,2023-01-10,1,,,,,アオイ,0
2092,8020001149686,新規,0,2023-01-10,2023-01-10,ｓｏｌｏ企画株式会社,,株式会社,神奈川県,川崎市川崎区,下並木１１番地５川崎サイドシティＩ番館８０８,00128971,14,131,2100025,,,,,,,2023-01-10,1,,,,,ソロキカク,0
2093,8020001149744,新規,0,2023-01-10,2023-01-10,ＰＮＤ株式会社,,株式会社,神奈川県,横浜市港北区,新吉田町５５２４番地６,,14,109,2230056,,,,,,,2023-01-10,1,,,,,ピーエヌディー,0
2094,8020003023022,新規,0,2023-01-10,2023-01-10,ＫＴｗｏｒｋ合同会社,,合同会社,神奈川県,横浜市緑区,霧が丘４丁目２２番地２４,,14,113,2260016,,,,,,,2023-01-10,1,,,,,ケーティーワーク,0
2095,8020003023055,新規,0,2023-01-10,2023-01-10,合同会社ヴァンクール,,合同会社,神奈川県,川崎市麻生区,高石６丁目２２－１－３０８,,14,137,2150003,,,,,,,2023-01-10,1,,,,,ヴァンクール,0
2096,8021001077852,新規,0,2023-01-10,2023-01-10,株式会社Ｔｏｙｒｏ,,株式会社,神奈川県,大和市,南林間２丁目１９番５号,,14,213,2420006,,,,,,,2023-01-10,1,,,,,トイロ,0
2100,8030001151724,新規,0,2023-01-10,2023-01-10,有園株式会社,,株式会社,埼玉県,蕨市,塚越２丁目１４番１２－１０５号,,11,223,3350002,,,,,,,2023-01-10,1,,,,,アリゾノ,0
2101,8030001151732,新規,0,2023-01-10,2023-01-10,株式会社ＷｉＬＤＣＡＲＤ,,株式会社,埼玉県,和光市,丸山台１丁目１１番１１号ＧＩＲＡＳＯＬ・ＷａｋｏＩＩＩ－８０２,00128972,11,229,3510112,,,,,,,2023-01-10,1,,,,,ワイルドカード,0
2102,8030001151740,新規,0,2023-01-10,2023-01-10,株式会社ハヤシ住建,,株式会社,埼玉県,越谷市,大字増森５２０番地１０,,11,222,3430012,,,,,,,2023-01-10,1,,,,,ハヤシジュウケン,0
2104,8030003020885,新規,0,2023-01-10,2023-01-10,合同会社幸生,,合同会社,埼玉県,所沢市,小手指町１丁目３８番地の１６,,11,208,3591141,,,,,,,2023-01-10,1,,,,,コウセイ,0
2107,8040001126469,新規,0,2023-01-10,2023-01-10,株式会社ユニアス防災,,株式会社,千葉県,浦安市,猫実２丁目６番２２－２０９号,,12,227,2790004,,,,,,,2023-01-10,1,,,,,ユニアスボウサイ,0
2108,8040001126502,新規,0,2023-01-10,2023-01-10,ナガサハウスクラブ株式会社,,株式会社,千葉県,鴨川市,細野８９２番地,,12,223,2960114,,,,,,,2023-01-10,1,,,,,ナガサハウスクラブ,0
2109,8040001126510,新規,0,2023-01-10,2023-01-10,株式会社ＧＳＰＮ,,株式会社,千葉県,船橋市,本中山２丁目１５番５－１００６号,,12,204,2730035,,,,,,,2023-01-10,1,,,,,ジーエスピーエヌ,0
2110,8040001126527,新規,0,2023-01-10,2023-01-10,株式会社シャロンローズ,,株式会社,千葉県,千葉市中央区,栄町２１番５号カーサデラグロリア２０３,,12,101,2600016,,,,,,,2023-01-10,1,,,,,シャロンローズ,0
2114,8040003021619,新規,0,2023-01-10,2023-01-10,合同会社エフ・ヴィ,,合同会社,千葉県,茂原市,高師２６６－５７,,12,210,2970029,,,,,,,2023-01-10,1,,,,,エフヴィ,0
2115,8040003021627,新規,0,2023-01-10,2023-01-10,合同会社ｍａｒｕｓｈｉｎ,,合同会社,千葉県,木更津市,貝渕３丁目３番６号,,12,206,2920833,,,,,,,2023-01-10,1,,,,,マルシン,0
2116,8040003021635,新規,0,2023-01-10,2023-01-10,合同会社ｃｕｅ’ｓ,,合同会社,千葉県,船橋市,前原西２丁目７番９号,,12,204,2740825,,,,,,,2023-01-10,1,,,,,キューズ,0
2117,8050001052177,新規,0,2023-01-10,2023-01-10,株式会社エシックスＫ,,株式会社,茨城県,石岡市,石岡２２２９番地,,08,205,3150001,,,,,,,2023-01-10,1,,,,,エシックスケイ,0
2118,8050001052185,新規,0,2023-01-10,2023-01-10,株式会社竜紀,,株式会社,茨城県,猿島郡境町,大字山崎２１３６番地１１,,08,546,3060413,,,,,,,2023-01-10,1,,,,,タツキ,0
2127,8080101023728,新規,0,2023-01-10,2023-01-10,株式会社Ｓｅｃｒｅｔ,,株式会社,静岡県,裾野市,水窪１３６番地の８,,22,220,4101124,,,,,,,2023-01-10,1,,,,,シークレット,0
2133,8100001036018,新規,0,2023-01-10,2023-01-10,かりがねエステート株式会社,,株式会社,長野県,松本市,大字惣社５８９番地２８,,20,202,3900305,,,,,,,2023-01-10,1,,,,,カリガネエステート,0
2134,8110001005467,新規,0,2023-01-10,2023-01-10,株式会社深雪建設,,株式会社,新潟県,新潟市西区,坂井東２丁目１２番２４号,,15,107,9502041,,,,,,,2023-01-10,1,,,,,ミユキケンセツ,0
2137,8110001037205,新規,0,2023-01-10,2023-01-10,株式会社ナガイ工業,,株式会社,新潟県,新潟市東区,もえぎ野１丁目２番６号,,15,102,9500842,,,,,,,2023-01-10,1,,,,,ナガイコウギョウ,0
2138,8110001037213,新規,0,2023-01-10,2023-01-10,株式会社シモテツ,,株式会社,新潟県,柏崎市,北園町１７番１３号,,15,205,9450072,,,,,,,2023-01-10,1,,,,,シモテツ,0
2141,8110003004962,新規,0,2023-01-10,2023-01-10,合同会社Ｆｌａｇｓ　Ｎｉｉｇａｔａ,,合同会社,新潟県,新潟市中央区,神道寺３丁目４番１６号,,15,103,9500983,,,,,,,2023-01-10,1,,,,,フラッグスニイガタ,0
2153,8120001251548,新規,0,2023-01-10,2023-01-10,株式会社ホープ,,株式会社,大阪府,守口市,八雲北町２丁目３番８号,,27,209,5700008,,,,,,,2023-01-10,1,,,,,ホープ,0
2154,8120001251564,新規,0,2023-01-10,2023-01-10,株式会社Ｓ．Ｔロジスティックス,,株式会社,大阪府,大阪市淀川区,宮原１丁目１９番１０号エクセルビル５０２号,,27,123,5320003,,,,,,,2023-01-10,1,,,,,エスティロジスティックス,0
2162,8120101066771,新規,0,2023-01-10,2023-01-10,株式会社４５６,,株式会社,大阪府,堺市堺区,旭ヶ丘中町３丁２番６号,,27,141,5900808,,,,,,,2023-01-10,1,,,,,シゴロク,0
2164,8120901046972,新規,0,2023-01-10,2023-01-10,株式会社フジエ外装,,株式会社,大阪府,摂津市,鳥飼銘木町２番３６号,,27,224,5660063,,,,,,,2023-01-10,1,,,,,フジエガイゾウ,0
2166,8122001036540,新規,0,2023-01-10,2023-01-10,株式会社大希,,株式会社,大阪府,東大阪市,俊徳町４丁目８番２９号,,27,227,5770831,,,,,,,2023-01-10,1,,,,,ダイキ,0
2172,8130003008417,新規,0,2023-01-10,2023-01-10,合同会社Ｎｕｍｂｅｒ　ｉ,,合同会社,京都府,京都市下京区,七条通油小路東入大黒町２２７番地第２キョートビル４０２,,26,106,6008223,,,,,,,2023-01-10,1,,,,,ナンバーアイ,0
2173,8130003008425,新規,0,2023-01-10,2023-01-10,ＧＲＥＡＭ合同会社,,合同会社,京都府,京都市下京区,朱雀宝蔵町４４番地協栄ビル２階京都朱雀スタジオ,,26,106,6008846,,,,,,,2023-01-10,1,,,,,グリーム,0
2180,8140001128587,新規,0,2023-01-10,2023-01-10,株式会社ＫＡＤＥＲ,,株式会社,兵庫県,神戸市灘区,赤坂通７丁目１番２６号,,28,102,6570821,,,,,,,2023-01-10,1,,,,,カデル,0
2181,8140001128637,新規,0,2023-01-10,2023-01-10,株式会社Ｕｎｈａｐｐｙ　Ｐｒｏｊｅｃｔ,,株式会社,兵庫県,神戸市中央区,旭通４丁目１番３－３９１１号,,28,110,6510095,,,,,,,2023-01-10,1,,,,,アンハッピープロジェクト,0
2182,8140001128661,新規,0,2023-01-10,2023-01-10,株式会社ウィード,,株式会社,兵庫県,尼崎市,七松町３丁目２番１４号,,28,202,6600052,,,,,,,2023-01-10,1,,,,,ウィード,0
2184,8140005026432,新規,0,2023-01-10,2023-01-10,医療法人涼風会,,その他の設立登記法人,兵庫県,西宮市,鞍掛町８番３号くらかけクリニックモール３階,,28,204,6620926,,,,,,,2023-01-10,1,,,,,リョウフウカイ,0
2185,8150001026055,新規,0,2023-01-10,2023-01-10,松平建築株式会社,,株式会社,奈良県,奈良市,西登美ヶ丘８丁目６番１３号,,29,201,6310006,,,,,,,2023-01-10,1,,,,,マツダイラケンチク,0
2186,8150001026071,新規,0,2023-01-10,2023-01-10,株式会社ケイローン,,株式会社,奈良県,磯城郡川西町,大字結崎５９４番地の５,,29,361,6360202,,,,,,,2023-01-10,1,,,,,ケイローン,0
2187,8160001024751,新規,0,2023-01-10,2023-01-10,株式会社富電工,,株式会社,滋賀県,近江八幡市,鍛治屋町２２番地,,25,204,5230833,,,,,,,2023-01-10,1,,,,,トミデンコウ,0
2188,8160003002771,新規,0,2023-01-10,2023-01-10,アバンダンティア合同会社,,合同会社,滋賀県,草津市,西大路町８番１８号,,25,206,5250037,,,,,,,2023-01-10,1,,,,,アバンダンティア,0
2189,8170001017432,新規,0,2023-01-10,2023-01-10,株式会社山本創建,,株式会社,和歌山県,有田郡有田川町,大字徳田７７１番地,,30,366,6430801,,,,,,,2023-01-10,1,,,,,ヤマモトソウケン,0
2197,8180001154381,新規,0,2023-01-10,2023-01-10,株式会社翔真,,株式会社,愛知県,愛西市,山路町中村２８番地,,23,232,4960942,,,,,,,2023-01-10,1,,,,,ショウシン,0
2198,8180001154407,新規,0,2023-01-10,2023-01-10,株式会社ＵＮＩＴＥＤ　ＬＩＬＬＹ,,株式会社,愛知県,名古屋市中区,栄４丁目２０番１０号,,23,106,4600008,,,,,,,2023-01-10,1,,,,,ユナイテッドリリー,0
2199,8180001154415,新規,0,2023-01-10,2023-01-10,株式会社エムワイクリエイト,,株式会社,愛知県,名古屋市千種区,千代が丘５番Ｓ－８１１号,,23,101,4640005,,,,,,,2023-01-10,1,,,,,エムワイクリエイト,0
2200,8180001154423,新規,0,2023-01-10,2023-01-10,整理収納バービースタイル株式会社,,株式会社,愛知県,名古屋市東区,泉３丁目１７番１０号泉ビル３Ｆ,,23,102,4610001,,,,,,,2023-01-10,1,,,,,セイリシュウノウバービースタイル,0
2201,8180001154456,新規,0,2023-01-10,2023-01-10,株式会社Ｔｅｃｈ＆ＰＲ,,株式会社,愛知県,名古屋市西区,名駅１丁目１番地１７,,23,104,4510045,,,,,,,2023-01-10,1,,,,,テックアンドピーアール,0
2202,8180001154464,新規,0,2023-01-10,2023-01-10,株式会社ＪＩＮ　Ｃｏｒｐｏｒａｔｉｏｎ,,株式会社,愛知県,春日井市,鳥居松町２丁目１５５番地,,23,206,4860844,,,,,,,2023-01-10,1,,,,,ジンコーポレーション,0
2209,8180005020068,新規,0,2023-01-10,2023-01-10,社会保険労務士法人杉田事務所,,その他の設立登記法人,愛知県,春日井市,篠木町５丁目１３１３番地２１,,23,206,4860851,,,,,,,2023-01-10,1,,,,,スギタジムショ,0
2217,8190001030078,新規,0,2023-01-10,2023-01-10,株式会社千道,,株式会社,三重県,度会郡南伊勢町,道方１５２２番地４,,24,472,5161301,,,,,,,2023-01-10,1,,,,,センドウ,0
2220,8200001040835,新規,0,2023-01-10,2023-01-10,株式会社ＵＰＷＩＮＤ,,株式会社,岐阜県,各務原市,蘇原栄町４丁目６番地,,21,213,5040822,,,,,,,2023-01-10,1,,,,,アップウインド,0
2221,8200001040851,新規,0,2023-01-10,2023-01-10,株式会社ルパン,,株式会社,岐阜県,大垣市,林町６丁目８０番地１９６,,21,202,5030015,,,,,,,2023-01-10,1,,,,,ルパン,0
2222,8200003005794,新規,0,2023-01-10,2023-01-10,ＲＥＥＬ　ＴＲＡＤＩＮＧ合同会社,,合同会社,岐阜県,土岐市,下石町６６０－２９サンテラス芝Ｂ－１０３,,21,212,5095202,,,,,,,2023-01-10,1,,,,,リールトレーディング,0
2223,8210001019201,新規,0,2023-01-10,2023-01-10,株式会社ベルフラ,,株式会社,福井県,南条郡南越前町,西大道１５－１１－７,,18,404,9190224,,,,,,,2023-01-10,1,,,,,ベルフラ,0
2225,8220001025207,新規,0,2023-01-10,2023-01-10,安田企画株式会社,,株式会社,石川県,羽咋郡志賀町,矢田弐九の８０番地,,17,384,9250211,,,,,,,2023-01-10,1,,,,,ヤスダキカク,0
2227,8230001019661,新規,0,2023-01-10,2023-01-10,株式会社ＴＭＲ．ｓ,,株式会社,富山県,高岡市,姫野４６３番地５,,16,202,9340093,,,,,,,2023-01-10,1,,,,,ティーエムアールズ,0
2229,8240001060912,新規,0,2023-01-10,2023-01-10,株式会社ＺＥＲＯＰｌｕｓ,,株式会社,広島県,呉市,伏原２丁目７番１号,,34,202,7370077,,,,,,,2023-01-10,1,,,,,ゼロプラス,0
2230,8240001060920,新規,0,2023-01-10,2023-01-10,ｈａｎａ工業株式会社,,株式会社,広島県,福山市,瀬戸町大字長和１１１６番地１１,,34,207,7200836,,,,,,,2023-01-10,1,,,,,ハナコウギョウ,0
2232,8240003005964,新規,0,2023-01-10,2023-01-10,合同会社土井工業,,合同会社,広島県,広島市安佐北区,落合１丁目２８番３３－１０１号,,34,106,7391731,,,,,,,2023-01-10,1,,,,,ドイコウギョウ,0
2233,8260001037553,新規,0,2023-01-10,2023-01-10,株式会社翔建設,,株式会社,岡山県,倉敷市,連島中央４丁目１２番２６－２号,,33,202,7128014,,,,,,,2023-01-10,1,,,,,ショウケンセツ,0
2234,8260001037561,新規,0,2023-01-10,2023-01-10,株式会社ムーンショット,,株式会社,岡山県,岡山市中区,山崎２８０番地２,,33,102,7038267,,,,,,,2023-01-10,1,,,,,ムーンショット,0
2235,8260003004139,新規,0,2023-01-10,2023-01-10,ＮＢＧ　ＳＴＵＤＩＯ合同会社,,合同会社,岡山県,岡山市北区,宿本町９番１７号,,33,101,7000002,,,,,,,2023-01-10,1,,,,,エヌビージースタジオ,0
2236,8260005011182,新規,0,2023-01-10,2023-01-10,一般社団法人と或る農園,,その他の設立登記法人,岡山県,美作市,上山８６３,,33,215,7012614,,,,,,,2023-01-10,1,,,,,トアルノウエン,0
2240,8290001100069,新規,0,2023-01-10,2023-01-10,株式会社ＬＯＶＥ　ＳＴＯＲＭ,,株式会社,福岡県,福岡市東区,千早２丁目８番４号,,40,131,8130044,,,,,,,2023-01-10,1,,,,,ラブストーム,0
2245,8290003013384,新規,0,2023-01-10,2023-01-10,合同会社ＯＨＡＹＯ,,合同会社,福岡県,久留米市,東和町６－９－１０１,,40,203,8300035,,,,,,,2023-01-10,1,,,,,オハヨウ,0
2246,8290005018902,新規,0,2023-01-10,2023-01-10,医療法人社団ＤＸＤ,,その他の設立登記法人,福岡県,福岡市西区,西都２丁目１番１１号九大学研都市タワー１９－１Ｆ,,40,135,8190367,,,,,,,2023-01-10,1,,,,,ディーエックスディー,0
2247,8290801029185,新規,0,2023-01-10,2023-01-10,株式会社Ｃｏｒｒｅｔｔａ,,株式会社,福岡県,直方市,大字感田２５８１番地８,,40,204,8220001,,,,,,,2023-01-10,1,,,,,コレッタ,0
2248,8290805009621,新規,0,2023-01-10,2023-01-10,一般社団法人東京国際振興会,,その他の設立登記法人,福岡県,北九州市小倉北区,浅野３丁目８番１号,,40,106,8020001,,,,,,,2023-01-10,1,,,,,トウキョウコクサイシンコウカイ,0
2254,8310001018201,新規,0,2023-01-10,2023-01-10,株式会社ベッセルズパートナー,,株式会社,長崎県,北松浦郡佐々町,皆瀬免１１９０番地１０,,42,391,8570335,,,,,,,2023-01-10,1,,,,,ベッセルズパートナー,0
2255,8330001030484,新規,0,2023-01-10,2023-01-10,株式会社イッツベスト,,株式会社,熊本県,合志市,野々島５４９５番地１０,,43,216,8611103,,,,,,,2023-01-10,1,,,,,イッツベスト,0
2257,8340001025269,新規,0,2023-01-10,2023-01-10,永井獣医科株式会社,,株式会社,鹿児島県,鹿屋市,西原１丁目３１番８号,,46,203,8930064,,,,,,,2023-01-10,1,,,,,ナガイジュウイカ,0
2258,8340001025285,新規,0,2023-01-10,2023-01-10,株式会社ニームかごしま,,株式会社,鹿児島県,鹿児島市,南郡元町２２番１１号,,46,201,8900069,,,,,,,2023-01-10,1,,,,,ニームカゴシマ,0
2265,8350003004261,新規,0,2023-01-10,2023-01-10,Ｍｅｇａｍｉｇｒｏｕｐ合同会社,,合同会社,宮崎県,都城市,中町１３街区２２号,,45,202,8850071,,,,,,,2023-01-10,1,,,,,メガミグループ,0
2267,8360003012610,新規,0,2023-01-10,2023-01-10,愛沖合同会社,,合同会社,沖縄県,那覇市,牧志２丁目２２番１号ライオンズマンション牧志第３、５０６,,47,201,9000013,,,,,,,2023-01-10,1,,,,,アイオキ,0
2268,8360003012619,新規,0,2023-01-10,2023-01-10,合同会社ＣＣＣ,,合同会社,沖縄県,中頭郡北谷町,字吉原７２１－２,,47,326,9040105,,,,,,,2023-01-10,1,,,,,シーシーシー,0
2271,8370001049439,新規,0,2023-01-10,2023-01-10,株式会社エンドー製材所,,株式会社,宮城県,石巻市,北村字大日５１番地１,,04,202,9871103,,,,,,,2023-01-10,1,,,,,エンドーセイザイショ,0
2272,8380001033375,新規,0,2023-01-10,2023-01-10,ＦｏｕｒＳｉｎ株式会社,,株式会社,福島県,郡山市,大槻町字小山田前８番地２,,07,203,9630201,,,,,,,2023-01-10,1,,,,,フォーシン,0
2275,8390001017113,新規,0,2023-01-10,2023-01-10,株式会社Ｊ　Ｈｏｍｅ　Ｄｅｓｉｇｎ,,株式会社,山形県,鶴岡市,西茅原町２０番１８号,,06,203,9970039,,,,,,,2023-01-10,1,,,,,ジェイホームデザイン,0
2278,8400001016121,新規,0,2023-01-10,2023-01-10,株式会社ＴＫクリーンサービス,,株式会社,岩手県,盛岡市,中央通２丁目６番３号ブエナビスタ１０１号,,03,201,0200021,,,,,,,2023-01-10,1,,,,,ティーケークリーンサービス,0
2285,8430001088158,新規,0,2023-01-10,2023-01-10,株式会社北村板金,,株式会社,北海道,札幌市東区,北三十一条東１３丁目３番３号,,01,103,0650031,,,,,,,2023-01-10,1,,,,,キタムラバンキン,0
2286,8430003014608,新規,0,2023-01-10,2023-01-10,メリー・エンジェル合同会社,,合同会社,北海道,岩見沢市,北村赤川４６５９番地,,01,210,0681213,,,,,,,2023-01-10,1,,,,,メリーエンジェル,0
2287,8430003014632,新規,0,2023-01-10,2023-01-10,合同会社フロレンティーネ,,合同会社,北海道,恵庭市,島松本町４丁目８番１１号,,01,231,0611353,,,,,,,2023-01-10,1,,,,,フロレンティーネ,0
2288,8460101007304,新規,0,2023-01-10,2023-01-10,藤丸株式会社,,株式会社,北海道,帯広市,西二条南８丁目１４番地３,,01,207,0800012,,,,,,,2023-01-10,1,,,,,フジマル,0
2289,8470001019407,新規,0,2023-01-10,2023-01-10,株式会社角屋美術,,株式会社,香川県,高松市,木太町４１５－１,,37,201,7600080,,,,,,,2023-01-10,1,,,,,カドヤビジュツ,0
2293,9010001231980,新規,0,2023-01-10,2023-01-10,株式会社９ＧＡＴＥＳ．合人社,,株式会社,東京都,中央区,日本橋室町４丁目１番５号,,13,102,1030022,,,,,,,2023-01-10,1,,,,,ナインゲーツゴウジンシャ,0
2294,9010001232021,新規,0,2023-01-10,2023-01-10,株式会社タウングループ,,株式会社,東京都,千代田区,岩本町２丁目６番１０号,,13,101,1010032,,,,,,,2023-01-10,1,,,,,タウングループ,0
2295,9010001232095,新規,0,2023-01-10,2023-01-10,株式会社ＴＳファースト,,株式会社,東京都,千代田区,神田和泉町一丁目６番１６号ヤマトビル４０５,,13,101,1010024,,,,,,,2023-01-10,1,,,,,ティーエスファースト,0
2299,9010501049816,新規,0,2023-01-10,2023-01-10,ＷＳ株式会社,,株式会社,東京都,台東区,松が谷３丁目１８番９－５０３号プラウド上野松が谷,,13,106,1110036,,,,,,,2023-01-10,1,,,,,ダブリューエス,0
2304,9010601062371,新規,0,2023-01-10,2023-01-10,株式会社ＪＶＳ日本周遊,,株式会社,東京都,江東区,大島１丁目３３番９号ＹＫビル２０１,,13,108,1360072,,,,,,,2023-01-10,1,,,,,ジェイヴィエスニホンシュウユウ,0
2305,9010601062388,新規,0,2023-01-10,2023-01-10,株式会社ＡＮＫ,,株式会社,東京都,江東区,亀戸６丁目８番３号ジンヒビル４０１,,13,108,1360071,,,,,,,2023-01-10,1,,,,,エーエヌケー,0
2306,9010601062396,新規,0,2023-01-10,2023-01-10,株式会社ＳＲ,,株式会社,東京都,江東区,木場３丁目１６番２－８０６号,,13,108,1350042,,,,,,,2023-01-10,1,,,,,エスアール,0
2309,9010603009908,新規,0,2023-01-10,2023-01-10,Ｊｕｓｔ　Ａｎｎ合同会社,,合同会社,東京都,江東区,大島４丁目１番３号５４３号室,,13,108,1360072,,,,,,,2023-01-10,1,,,,,ジャストアン,0
2312,9010703006524,新規,0,2023-01-10,2023-01-10,Ｐｏｐ’ｅｍＥｌｌｉｅ合同会社,,合同会社,東京都,品川区,西五反田１丁目７番１－１４０４号,,13,109,1410031,,,,,,,2023-01-10,1,,,,,ポッペメリ,0
2314,9010803004411,新規,0,2023-01-10,2023-01-10,合同会社ＴＯＭＯＫＯ　ＦＵＲＵＳＡＷＡ　ＤＥＳＩＧＮ　ＳＴＵＤＩＯ,,合同会社,東京都,大田区,久が原１丁目３６番１２号,,13,111,1460085,,,,,,,2023-01-10,1,,,,,トモコフルサワデザインストゥディオ,0
2316,9010901052262,新規,0,2023-01-10,2023-01-10,株式会社ｎｅｋｏ,,株式会社,東京都,世田谷区,野沢４丁目１３番８号,,13,112,1540003,,,,,,,2023-01-10,1,,,,,ネコ,0
2320,9010903007883,新規,0,2023-01-10,2023-01-10,Ｔｈｅ　Ｅｄｅｎ　Ｐｒｏｊｅｃｔ合同会社,,合同会社,東京都,世田谷区,上馬５丁目８番４号,,13,112,1540011,,,,,,,2023-01-10,1,,,,,,0
2324,9011001151797,新規,0,2023-01-10,2023-01-10,株式会社ハーツ,,株式会社,東京都,渋谷区,神宮前６丁目１０番４号ＣＯＭＳ神宮前３階,,13,113,1500001,,,,,,,2023-01-10,1,,,,,ハーツ,0
2325,9011001151814,新規,0,2023-01-10,2023-01-10,株式会社ＤＥＥＥＮ,,株式会社,東京都,目黒区,東山１丁目２１番１号,,13,110,1530043,,,,,,,2023-01-10,1,,,,,ディーン,0
2326,9011001151830,新規,0,2023-01-10,2023-01-10,株式会社えびす,,株式会社,東京都,渋谷区,神泉町１７番８号松濤アダージョ２０１,,13,113,1500045,,,,,,,2023-01-10,1,,,,,エビス,0
2327,9011003016032,新規,0,2023-01-10,2023-01-10,合同会社オゴポゴ,,合同会社,東京都,渋谷区,道玄坂１丁目１０番８号渋谷道玄坂東急ビル２Ｆ－Ｃ,,13,113,1500043,,,,,,,2023-01-10,1,,,,,オゴポゴ,0
2328,9011101101363,新規,0,2023-01-10,2023-01-10,セイコウ株式会社,,株式会社,東京都,新宿区,百人町２丁目４番５‐８０７号,,13,104,1690073,,,,,,,2023-01-10,1,,,,,セイコウ,0
2329,9011101101371,新規,0,2023-01-10,2023-01-10,株式会社ＡＲＥ,,株式会社,東京都,新宿区,歌舞伎町２丁目１９番７号新田中ビル５階,,13,104,1600021,,,,,,,2023-01-10,1,,,,,アレ,0
2330,9011101101388,新規,0,2023-01-10,2023-01-10,株式会社矢部建築設計事務所,,株式会社,東京都,新宿区,西新宿３丁目３番１３号西新宿水間ビル２Ｆ,,13,104,1600023,,,,,,,2023-01-10,1,,,,,ヤベケンチクセッケイジムショ,0
2331,9011103012550,新規,0,2023-01-10,2023-01-10,ＴＲＡＹＤＳＴＲＥＡＭジャパン合同会社,,合同会社,東京都,新宿区,西新宿６丁目１０番１号,,13,104,1600023,,,,,,,2023-01-10,1,,,,,トレイドストリームジャパン,0
2332,9011105010503,新規,0,2023-01-10,2023-01-10,一般社団法人エラルトン,,その他の設立登記法人,東京都,新宿区,横寺町３７,,13,104,1620831,,,,,,,2023-01-10,1,,,,,エラルトン,0
2333,9011201024324,新規,0,2023-01-10,2023-01-10,株式会社正直不動産,,株式会社,東京都,中野区,中野３丁目３４番３１号大橋ビル４階,,13,114,1640001,,,,,,,2023-01-10,1,,,,,ショウジキフドウサン,0
2334,9011201024332,新規,0,2023-01-10,2023-01-10,株式会社ラポール,,株式会社,東京都,中野区,新井２丁目３０番１２－４０３号,,13,114,1650026,,,,,,,2023-01-10,1,,,,,ラポール,0
2336,9011301028365,新規,0,2023-01-10,2023-01-10,株式会社キューク,,株式会社,東京都,杉並区,和泉２丁目２６番２号ＧＲＡＮＤＥＵＲ・ＨＵＩＴ・Ａ２０１,,13,115,1680063,,,,,,,2023-01-10,1,,,,,キューク,0
2337,9011403003860,新規,0,2023-01-10,2023-01-10,ＴＯＣ　ＭＡＹ　ＰＨＵＯＮＧ　ＮＡＭ合同会社,,合同会社,東京都,板橋区,蓮沼町５０番５号,,13,119,1740052,,,,,,,2023-01-10,1,,,,,トックマイフーンナム,0
2340,9011503005419,新規,0,2023-01-10,2023-01-10,合同会社４６４９,,合同会社,東京都,北区,中十条１丁目３番４号,,13,117,1140032,,,,,,,2023-01-10,1,,,,,ヨンロクヨンキュウ,0
2341,9011605002487,新規,0,2023-01-10,2023-01-10,一般社団法人ＳＬＰｒＯ,,その他の設立登記法人,東京都,練馬区,富士見台４丁目２４番２１号,,13,120,1770034,,,,,,,2023-01-10,1,,,,,エスエルプロ,0
2342,9011701025929,新規,0,2023-01-10,2023-01-10,株式会社伊作,,株式会社,東京都,江戸川区,東葛西５丁目１３番１－８０５号,,13,123,1340084,,,,,,,2023-01-10,1,,,,,イサク,0
2343,9011701025937,新規,0,2023-01-10,2023-01-10,ＲＡＫＵＥＩ株式会社,,株式会社,東京都,江戸川区,平井４丁目２０番１５－５２９号,,13,123,1320035,,,,,,,2023-01-10,1,,,,,ラクエイ,0
2345,9011801041751,新規,0,2023-01-10,2023-01-10,山河建設株式会社,,株式会社,東京都,足立区,東和５丁目５番２号,,13,121,1200003,,,,,,,2023-01-10,1,,,,,ヤマカワケンセツ,0
2347,9011803005457,新規,0,2023-01-10,2023-01-10,合同会社訳あり不動産,,合同会社,東京都,足立区,梅島２丁目２０番１０号,,13,121,1210816,,,,,,,2023-01-10,1,,,,,ワケアリフドウサン,0
2348,9012303001748,新規,0,2023-01-10,2023-01-10,Ｊｅｍｏ合同会社,,合同会社,東京都,町田市,高ヶ坂７丁目３９－１１,,13,209,1940014,,,,,,,2023-01-10,1,,,,,ジェイモ,0
2351,9012401040029,新規,0,2023-01-10,2023-01-10,株式会社ＡＬｂ　ＰＬＵＳ,,株式会社,東京都,武蔵野市,吉祥寺本町２丁目１０番１２号,,13,203,1800004,,,,,,,2023-01-10,1,,,,,オルブプラス,0
2352,9012401040061,新規,0,2023-01-10,2023-01-10,セキュアダイス株式会社,,株式会社,東京都,三鷹市,野崎１丁目９番３４号,,13,204,1810014,,,,,,,2023-01-10,1,,,,,セキュアダイス,0
2353,9012801022064,新規,0,2023-01-10,2023-01-10,株式会社ＫＴＳ,,株式会社,東京都,日野市,神明３丁目１０番地の２０,,13,212,1910016,,,,,,,2023-01-10,1,,,,,ケーティーエス,0
2359,9020001149685,新規,0,2023-01-10,2023-01-10,株式会社ムクノ,,株式会社,神奈川県,川崎市多摩区,三田２丁目５番地９,,14,135,2140034,,,,,,,2023-01-10,1,,,,,ムクノ,0
2360,9020001149702,新規,0,2023-01-10,2023-01-10,株式会社実樹,,株式会社,神奈川県,横浜市港北区,篠原東３丁目１番８－５０２号,,14,109,2220022,,,,,,,2023-01-10,1,,,,,ミキ,0
2362,9020003023070,新規,0,2023-01-10,2023-01-10,ｉ・ｆｏｃｕｘ・ｄ合同会社,,合同会社,神奈川県,横浜市青葉区,藤が丘１丁目１４番地１０１,,14,117,2270043,,,,,,,2023-01-10,1,,,,,アイフォーカス,0
2365,9021001077843,新規,0,2023-01-10,2023-01-10,ファブナス株式会社,,株式会社,神奈川県,平塚市,平塚１丁目１６番１３号,,14,203,2540052,,,,,,,2023-01-10,1,,,,,ファブナス,0
2368,9030001151731,新規,0,2023-01-10,2023-01-10,斉藤建築株式会社,,株式会社,埼玉県,熊谷市,野原７９４番地１,,11,202,3600101,,,,,,,2023-01-10,1,,,,,サイトウケンチク,0
2370,9030003020876,新規,0,2023-01-10,2023-01-10,合同会社いづみ犬と猫の病院,,合同会社,埼玉県,川口市,大字里１２３３番地グレースコート・イースト１階,,11,203,3340005,,,,,,,2023-01-10,1,,,,,イヅミイヌトネコノビョウイン,0
2371,9030003020901,新規,0,2023-01-10,2023-01-10,合同会社ＢＯＮＤ,,合同会社,埼玉県,久喜市,北広島１２３９番,,11,232,3491111,,,,,,,2023-01-10,1,,,,,ボンド,0
2374,9040001126451,新規,0,2023-01-10,2023-01-10,株式会社東葉テック,,株式会社,千葉県,市川市,若宮３丁目３０番１６号,,12,203,2720812,,,,,,,2023-01-10,1,,,,,トウヨウテック,0
2375,9040001126468,新規,0,2023-01-10,2023-01-10,株式会社コールアンドレスポンス,,株式会社,千葉県,松戸市,松戸新田５８６番地の６,,12,207,2702241,,,,,,,2023-01-10,1,,,,,コールアンドレスポンス,0
2376,9040001126492,新規,0,2023-01-10,2023-01-10,かんべ株式会社,,株式会社,千葉県,浦安市,猫実４丁目１番１８号,,12,227,2790004,,,,,,,2023-01-10,1,,,,,カンベ,0
2377,9040001126518,新規,0,2023-01-10,2023-01-10,株式会社エアコン・メンテ・サービス,,株式会社,千葉県,松戸市,千駄堀１４８４－１１,,12,207,2702252,,,,,,,2023-01-10,1,,,,,エアコンメンテサービス,0
2378,9040001126526,新規,0,2023-01-10,2023-01-10,株式会社上村工業,,株式会社,千葉県,船橋市,松が丘２丁目５０番４０号,,12,204,2740064,,,,,,,2023-01-10,1,,,,,ウエムラコウギョウ,0
2379,9040003021626,新規,0,2023-01-10,2023-01-10,合同会社石橋商店,,合同会社,千葉県,市川市,国分２丁目２番２２号,,12,203,2720834,,,,,,,2023-01-10,1,,,,,イシバシショウテン,0
2388,9070001039989,新規,0,2023-01-10,2023-01-10,株式会社疋田産業,,株式会社,群馬県,前橋市,堀越町１４０５番地３,,10,201,3710231,,,,,,,2023-01-10,1,,,,,ヒキダサンギョウ,0
2392,9080001025393,新規,0,2023-01-10,2023-01-10,株式会社ＦＡＳＴＢＡＣＫ,,株式会社,静岡県,静岡市葵区,沓谷１丁目２５番２２－４０８号,,22,101,4200816,,,,,,,2023-01-10,1,,,,,ファストバック,0
2393,9080101023735,新規,0,2023-01-10,2023-01-10,株式会社ツナグｔｏｂｅ,,株式会社,静岡県,三島市,文教町２丁目１７番４６号,,22,206,4110033,,,,,,,2023-01-10,1,,,,,ツナグトベ,0
2399,9100001036009,新規,0,2023-01-10,2023-01-10,株式会社ケイズクリエーション,,株式会社,長野県,諏訪市,大字豊田１６１０番地１,,20,206,3920016,,,,,,,2023-01-10,1,,,,,ケイズクリエーション,0
2400,9100001036017,新規,0,2023-01-10,2023-01-10,福井建築株式会社,,株式会社,長野県,松本市,波田９３１２番地,,20,202,3901401,,,,,,,2023-01-10,1,,,,,フクイケンチク,0
2403,9100003006827,新規,0,2023-01-10,2023-01-10,ＬＥＩＳＵＲＥ　ＩＮＮＯＶＡＴＩＯＮ合同会社,,合同会社,長野県,下高井郡山ノ内町,大字平穏３９６５番地,,20,561,3810401,,,,,,,2023-01-10,1,,,,,レジャーイノベーション,0
2406,9110003004953,新規,0,2023-01-10,2023-01-10,合同会社ＭｕｒａｉＣｒｅａｔｅｓ,,合同会社,新潟県,新潟市西区,小針西２丁目６番１１号,,15,107,9502014,,,,,,,2023-01-10,1,,,,,ムライクリエイツ,0
2412,9120001251480,新規,0,2023-01-10,2023-01-10,リライン株式会社,,株式会社,大阪府,大阪市中央区,南船場１丁目１０番１２号ラインビルド南船場１００４号室,,27,128,5420081,,,,,,,2023-01-10,1,,,,,リライン,0
2413,9120001251530,新規,0,2023-01-10,2023-01-10,株式会社ｋａｗａｔａテック,,株式会社,大阪府,枚方市,都丘町１１番６－２号,,27,210,5731165,,,,,,,2023-01-10,1,,,,,カワタテック,0
2414,9120001251547,新規,0,2023-01-10,2023-01-10,株式会社ＣＯＬＬＡＢＯＲＥＸ,,株式会社,大阪府,大阪市東淀川区,淡路４丁目３０－４－２０２,,27,114,5330032,,,,,,,2023-01-10,1,,,,,コラボレックス,0
2415,9120001251563,新規,0,2023-01-10,2023-01-10,恒路株式会社,,株式会社,大阪府,大阪市鶴見区,鶴見４丁目１７－１イオンモール鶴見緑地３階フードコート中華１０１,,27,124,5380053,,,,,,,2023-01-10,1,,,,,コウロ,0
2422,9120003023201,新規,0,2023-01-10,2023-01-10,合同会社ふたば,,合同会社,大阪府,大阪市生野区,小路１丁目２８番１５号,,27,116,5440002,,,,,,,2023-01-10,1,,,,,フタバ,0
2428,9120101066770,新規,0,2023-01-10,2023-01-10,株式会社パラム,,株式会社,大阪府,堺市堺区,田出井町２番４３－６０３号,,27,141,5900014,,,,,,,2023-01-10,1,,,,,パラム,0
2432,9120901046939,新規,0,2023-01-10,2023-01-10,株式会社サンクス,,株式会社,大阪府,箕面市,箕面６丁目４番２４号,,27,220,5620001,,,,,,,2023-01-10,1,,,,,サンクス,0
2433,9120903004440,新規,0,2023-01-10,2023-01-10,合同会社ＭＡＫ,,合同会社,大阪府,吹田市,豊津町１０番７－７０７号,,27,205,5640051,,,,,,,2023-01-10,1,,,,,マック,0
2434,9120903004457,新規,0,2023-01-10,2023-01-10,エムティデザイン合同会社,,合同会社,大阪府,吹田市,千里山西６丁目２８番１１号,,27,205,5650851,,,,,,,2023-01-10,1,,,,,エムティデザイン,0
2437,9122001036548,新規,0,2023-01-10,2023-01-10,株式会社ｕｐ　ＧＲＡＤＥ,,株式会社,大阪府,八尾市,跡部本町２丁目２番３０号,,27,212,5810064,,,,,,,2023-01-10,1,,,,,アップグレード,0
2440,9130001073404,新規,0,2023-01-10,2023-01-10,株式会社Ｙ‐ＫＩ,,株式会社,京都府,京都市上京区,北伊勢殿構町６８２番地,,26,102,6028296,,,,,,,2023-01-10,1,,,,,ワイケイアイ,0
2441,9130001073420,新規,0,2023-01-10,2023-01-10,株式会社ＳＫＹ‐ＬＥＡＰ,,株式会社,京都府,京都市下京区,四条大宮町２７－４,,26,106,6000000,,,,,,,2023-01-10,1,,,,,スカイリープ,0
2445,9130005016664,新規,0,2023-01-10,2023-01-10,医療法人マリイズ診療所,,その他の設立登記法人,京都府,京都市中京区,三条通御幸町西入弁慶石町４８番地三条ありもとビル５階,,26,104,6048082,,,,,,,2023-01-10,1,,,,,マリイズシンリョウショ,0
2448,9140003018538,新規,0,2023-01-10,2023-01-10,ＳＡＫＵＲＡ合同会社,,合同会社,兵庫県,神崎郡福崎町,西治１７０４番地２,,28,443,6792215,,,,,,,2023-01-10,1,,,,,サクラ,0
2449,9160001024742,新規,0,2023-01-10,2023-01-10,株式会社藤総研,,株式会社,滋賀県,湖南市,夏見１５１３番地,,25,211,5203223,,,,,,,2023-01-10,1,,,,,フジソウケン,0
2450,9160001024750,新規,0,2023-01-10,2023-01-10,株式会社ＧＦＩ,,株式会社,滋賀県,野洲市,野洲１５４８番地,,25,210,5202342,,,,,,,2023-01-10,1,,,,,ジーエフアイ,0
2452,9170001017431,新規,0,2023-01-10,2023-01-10,株式会社ＧＡ‐ＥＮ,,株式会社,和歌山県,和歌山市,新八百屋丁２３,,30,201,6408371,,,,,,,2023-01-10,1,,,,,ガーエン,0
2461,9180001154240,新規,0,2023-01-10,2023-01-10,株式会社バズリンク,,株式会社,愛知県,名古屋市中村区,名駅５丁目２２番２号ルミナス名駅８０３号,,23,105,4500002,,,,,,,2023-01-10,1,,,,,バズリンク,0
2462,9180001154397,新規,0,2023-01-10,2023-01-10,株式会社Ｈ＆Ａ,,株式会社,愛知県,江南市,前飛保町寺町８３番地３,,23,217,4838336,,,,,,,2023-01-10,1,,,,,エイチアンドエー,0
2463,9180001154414,新規,0,2023-01-10,2023-01-10,株式会社Ｌｉｂｒｅ,,株式会社,愛知県,名古屋市中区,栄２丁目１３番２１号１３０６号室,,23,106,4600008,,,,,,,2023-01-10,1,,,,,リブレ,0
2464,9180001154439,新規,0,2023-01-10,2023-01-10,株式会社Ｕｎｉｔｅｄ　ｗａｌｌ,,株式会社,愛知県,一宮市,北小渕字八幡７３番地６,,23,203,4910013,,,,,,,2023-01-10,1,,,,,ユナイテッドウォール,0
2465,9180001154447,新規,0,2023-01-10,2023-01-10,株式会社Ａｈａｒｅ,,株式会社,愛知県,名古屋市中村区,名駅４丁目２４番５号第２森ビル４０１,,23,105,4500002,,,,,,,2023-01-10,1,,,,,アハレ,0
2466,9180001154463,新規,0,2023-01-10,2023-01-10,株式会社リヴァイス,,株式会社,愛知県,名古屋市東区,泉１丁目１８番３０号プラウドタワー名古屋久屋大通公園８０４号,,23,102,4610001,,,,,,,2023-01-10,1,,,,,リヴァイス,0
2491,9210001019200,新規,0,2023-01-10,2023-01-10,トコー株式会社,,株式会社,福井県,鯖江市,つつじケ丘町５番２１号,,18,207,9160011,,,,,,,2023-01-10,1,,,,,トコー,0
2493,9220001025214,新規,0,2023-01-10,2023-01-10,株式会社農家ふじた,,株式会社,石川県,小松市,木場町ロ７７番地,,17,203,9230311,,,,,,,2023-01-10,1,,,,,ノウカフジタ,0
2496,9230001019660,新規,0,2023-01-10,2023-01-10,株式会社ＴＯＳＵＭＯ建築設計,,株式会社,富山県,富山市,黒瀬北町２丁目４番地８,,16,201,9398216,,,,,,,2023-01-10,1,,,,,トスモケンチクセッケイ,0
2499,9240001060911,新規,0,2023-01-10,2023-01-10,株式会社Ａ‐Ｐｌｕｓ,,株式会社,広島県,広島市西区,山田新町１丁目２１番３号,,34,104,7330853,,,,,,,2023-01-10,1,,,,,エープラス,0
2503,9240003005963,新規,0,2023-01-10,2023-01-10,合同会社リハマテリアル,,合同会社,広島県,広島市佐伯区,利松３丁目２６－１９,,34,108,7315106,,,,,,,2023-01-10,1,,,,,リハマテリアル,0
2504,9260001037552,新規,0,2023-01-10,2023-01-10,株式会社ＫＯＵＴＯＫＵ,,株式会社,岡山県,岡山市中区,旭東町１丁目２番４号,,33,102,7038286,,,,,,,2023-01-10,1,,,,,コウトク,0
2505,9260001037569,新規,0,2023-01-10,2023-01-10,株式会社モリヤ電工,,株式会社,岡山県,倉敷市,真備町箭田１１７９番地５,00128987,33,202,7101301,,,,,,,2023-01-10,1,,,,,モリヤデンコウ,0
2508,9290001100134,新規,0,2023-01-10,2023-01-10,ＴＫテクノス株式会社,,株式会社,福岡県,福岡市城南区,樋井川３丁目１７番７号,,40,136,8140153,,,,,,,2023-01-10,1,,,,,ティーケーテクノス,0
2512,9290003013375,新規,0,2023-01-10,2023-01-10,合同会社ｃｒｏｓｓＡ‐Ａ,,合同会社,福岡県,久留米市,大石町２６５番地１,,40,203,8300049,,,,,,,2023-01-10,1,,,,,クロスエーエー,0
2513,9290005018901,新規,0,2023-01-10,2023-01-10,医療法人丞幸会,,その他の設立登記法人,福岡県,大野城市,下大利１丁目９番２４号,,40,219,8160952,,,,,,,2023-01-10,1,,,,,ジョウコウカイ,0
2514,9290801029192,新規,0,2023-01-10,2023-01-10,株式会社三良,,株式会社,福岡県,北九州市八幡東区,竹下町１５番２０号,,40,108,8050022,,,,,,,2023-01-10,1,,,,,サンリョウ,0
2515,9290805009620,新規,0,2023-01-10,2023-01-10,医療法人ひなた会,,その他の設立登記法人,福岡県,北九州市小倉北区,原町２丁目６番１４号２Ｆ,,40,106,8030815,,,,,,,2023-01-10,1,,,,,ヒナタカイ,0
2516,9310001018209,新規,0,2023-01-10,2023-01-10,株式会社幸花咲,,株式会社,長崎県,長崎市,梁川町１番１号,,42,201,8528013,,,,,,,2023-01-10,1,,,,,,0
2517,9310001018217,新規,0,2023-01-10,2023-01-10,拓富工建株式会社,,株式会社,長崎県,長崎市,片淵４丁目１２番１６号,,42,201,8500003,,,,,,,2023-01-10,1,,,,,タクトコウケン,0
2518,9310003004504,新規,0,2023-01-10,2023-01-10,合同会社ブレイバリキッチン,,合同会社,長崎県,佐世保市,棚方町４２４番地７０,,42,202,8580907,,,,,,,2023-01-10,1,,,,,ブレイバリキッチン,0
2521,9330001030467,新規,0,2023-01-10,2023-01-10,株式会社城建,,株式会社,熊本県,宇土市,石橋町９５番地,,43,211,8690456,,,,,,,2023-01-10,1,,,,,セイケン,0
2522,9330001030475,新規,0,2023-01-10,2023-01-10,株式会社クオリティクリーン,,株式会社,熊本県,菊池郡大津町,大字吹田１２２６番地６,,43,403,8691218,,,,,,,2023-01-10,1,,,,,クオリティクリーン,0
2523,9330003009658,新規,0,2023-01-10,2023-01-10,合同会社新村ファーム,,合同会社,熊本県,人吉市,中林町１７２４番地,,43,203,8680082,,,,,,,2023-01-10,1,,,,,シンムラファーム,0
2525,9340001025284,新規,0,2023-01-10,2023-01-10,株式会社帝王３５８,,株式会社,鹿児島県,西之表市,国上２００５‐２,,46,213,8913222,,,,,,,2023-01-10,1,,,,,テイオウサンゴハチ,0
2526,9340003004014,新規,0,2023-01-10,2023-01-10,合同会社吉村工務店,,合同会社,鹿児島県,大島郡徳之島町,母間４７１２番地,,46,530,8917426,,,,,,,2023-01-10,1,,,,,ヨシムラコウムテン,0
2529,9350003004260,新規,0,2023-01-10,2023-01-10,合同会社Ｔｅｔｓｕインテリア,,合同会社,宮崎県,宮崎市,大字本郷南方３５８６番地５,,45,201,8800921,,,,,,,2023-01-10,1,,,,,テツインテリア,0
2531,9360003012618,新規,0,2023-01-10,2023-01-10,合同会社明和学習塾,,合同会社,沖縄県,宜野湾市,新城２丁目２５番８号,,47,205,9012201,,,,,,,2023-01-10,1,,,,,メイワガクシュウジュク,0
2532,9370001049438,新規,0,2023-01-10,2023-01-10,株式会社クレイジーラボ,,株式会社,宮城県,仙台市青葉区,五橋２丁目８番７－５０３号,,04,101,9800022,,,,,,,2023-01-10,1,,,,,クレイジーラボ,0
2533,9370001049446,新規,0,2023-01-10,2023-01-10,Ｔｏｈｏｋｕ‐ＴＭＩＴ株式会社,,株式会社,宮城県,仙台市宮城野区,小田原２丁目３番１４号,,04,102,9830803,,,,,,,2023-01-10,1,,,,,トウホクティエムアイティ,0
2540,9390001017112,新規,0,2023-01-10,2023-01-10,株式会社ＡＩＴＯＧＩ,,株式会社,山形県,米沢市,城西４丁目５番２４号,,06,202,9920054,,,,,,,2023-01-10,1,,,,,アイトギ,0
2541,9390001017129,新規,0,2023-01-10,2023-01-10,冨樫モータース株式会社,,株式会社,山形県,東置賜郡高畠町,大字根岸５０番地２,,06,381,9920343,,,,,,,2023-01-10,1,,,,,トガシモータース,0
2549,9420001018115,新規,0,2023-01-10,2023-01-10,小林漆器株式会社,,株式会社,青森県,弘前市,大字東城北３丁目３番地１２,,02,202,0368064,,,,,,,2023-01-10,1,,,,,コバヤシシッキ,0
2550,9420003002645,新規,0,2023-01-10,2023-01-10,合同会社ＢＯサポート,,合同会社,青森県,青森市,千刈１丁目６番３号,,02,201,0380015,,,,,,,2023-01-10,1,,,,,ビーオーサポート,0
2553,9430001088124,新規,0,2023-01-10,2023-01-10,セールスシステム株式会社,,株式会社,北海道,札幌市中央区,宮の森三条６丁目７番１２－１０１号,,01,101,0640953,,,,,,,2023-01-10,1,,,,,セールスシステム,0
2554,9430001088157,新規,0,2023-01-10,2023-01-10,エムズホーム株式会社,,株式会社,北海道,札幌市東区,東苗穂三条１丁目３番３０号,,01,103,0070803,,,,,,,2023-01-10,1,,,,,エムズホーム,0
2555,9430003014607,新規,0,2023-01-10,2023-01-10,ＢＭＣＣ合同会社,,合同会社,北海道,札幌市白石区,中央一条５丁目３番１６号,,01,104,0030011,,,,,,,2023-01-10,1,,,,,ビーエムシーシー,0
2558,9470001019414,新規,0,2023-01-10,2023-01-10,株式会社塗や美創,,株式会社,香川県,丸亀市,飯山町西坂元１３の１３,,37,202,7620087,,,,,,,2023-01-10,1,,,,,ヌリヤビソウ,0
2560,9470003002319,新規,0,2023-01-10,2023-01-10,合同会社ｆｉｒｓｔ　ｇａｔｅ,,合同会社,香川県,高松市,上天神町２６５番地２,,37,201,7618056,,,,,,,2023-01-10,1,,,,,ファーストゲート,0
2561,9480003001914,新規,0,2023-01-10,2023-01-10,てとて合同会社,,合同会社,徳島県,板野郡北島町,新喜来字中竿２３番地３,,36,402,7710207,,,,,,,2023-01-10,1,,,,,テトテ,0
2566,9500001024708,新規,0,2023-01-10,2023-01-10,ジャストコンサルタント株式会社,,株式会社,愛媛県,松山市,本町６丁目２番地７,,38,201,7900811,,,,,,,2023-01-10,1,,,,,ジャストコンサルタント,0
2567,9700150113539,新規,0,2023-01-10,2023-01-10,ＨＡＡＪＥＲＡ　ＥＮＴＥＲＰＲＩＳＥＳ,,外国会社等,神奈川県,厚木市,下川入６４５宮田ハイツＩＩ２０１,00128869,14,212,2430206,スリランカ民主社会主義共和国、キャンディ、アクラナ、テルムブガヘワッテ、Ｎｏ．１０５／Ａ／１,,,,,,2023-01-10,1,,,,,ハアジエラエンタープライセス,0
2568,9700150113555,新規,0,2023-01-10,2023-01-10,ＧＡＮＥＷＥＬＡ　ＩＮＴＥＲＮＡＴＩＯＮＡＬ　ＰＲＩＶＡＴＥ　ＬＩＭＩＴＥＤ　,,外国会社等,神奈川県,南足柄市,塚原４４７９－１,,14,217,2500117,スリランカ民主社会主義共和国、コロンボ－１０、ナショナルハウススキーム、マリガワッテ、Ｍ／３／３番,,,,,,2023-01-10,1,,,,,ガネウエラインターナシヨナルプライベートリミテツド,0
