sequenceNumber,corporateNumber,process,correct,updateDate,changeDate,name,nameImageId,kind,prefectureName,cityName,streetNumber,addressImageId,prefectureCode,cityCode,postCode,addressOutside,addressOutsideImageId,closeDate,closeCause,successorCorporateNumber,changeCause,assignmentDate,latest,enName,enPrefectureName,enCityName,enAddressOutside,furigana,hihyoji
13,1010001222211,新規,0,2021-11-05,2021-11-05,株式会社エニシング,,株式会社,東京都,中央区,日本橋茅場町２丁目５番２－７０６号,,13,102,1030025,,,,,,,2021-11-05,1,,,,,エニシング,0
14,1010001222236,新規,0,2021-11-05,2021-11-05,株式会社ＯＮＯＤＥＲＡユニバーサルキッチン,,株式会社,東京都,千代田区,大手町１丁目１番３号,,13,101,1000004,,,,,,,2021-11-05,1,,,,,オノデラユニバーサルキッチン,0
15,1010001222310,新規,0,2021-11-05,2021-11-05,株式会社ＳＡＫＵＭＯＢＡ,,株式会社,東京都,千代田区,神田松永町１０番地１,,13,101,1010023,,,,,,,2021-11-05,1,,,,,サクモバ,0
18,1010003036147,新規,0,2021-11-05,2021-11-05,合同会社ハナミズキ,,合同会社,東京都,千代田区,丸の内３丁目１番１号東京共同会計事務所内,,13,101,1000005,,,,,,,2021-11-05,1,,,,,ハナミズキ,0
22,1010005034165,新規,0,2021-11-05,2021-11-05,一般社団法人ジャパンライダーズクラブ,,その他の設立登記法人,東京都,中央区,勝どき６丁目３番２－２２０８号,,13,102,1040054,,,,,,,2021-11-05,1,,,,,ジャパンライダーズクラブ,0
30,1010401163600,新規,0,2021-11-05,2021-11-05,株式会社ネオン,,株式会社,東京都,港区,高輪３丁目２１番６号,,13,103,1080074,,,,,,,2021-11-05,1,,,,,ネオン,0
31,1010401163633,新規,0,2021-11-05,2021-11-05,株式会社ＳＳＫ,,株式会社,東京都,港区,新橋５丁目１２番１１号天翔オフィス新橋５丁目４０４号,,13,103,1050004,,,,,,,2021-11-05,1,,,,,エスエスケー,0
32,1010401163658,新規,0,2021-11-05,2021-11-05,株式会社ＳＯＵＮＤ　ＰＯＲＴ,,株式会社,東京都,港区,白金６丁目５番２－１５０２号,,13,103,1080072,,,,,,,2021-11-05,1,,,,,サウンドポート,0
33,1010401163666,新規,0,2021-11-05,2021-11-05,株式会社カメリア,,株式会社,東京都,港区,芝３丁目１９番３－７０１号,,13,103,1050014,,,,,,,2021-11-05,1,,,,,カメリア,0
34,1010401163674,新規,0,2021-11-05,2021-11-05,株式会社Ｔ＆Ｇ　Ｃｏｎｓｕｌｔｉｎｇ,,株式会社,東京都,港区,海岸３丁目１２番４－１１０７号,,13,103,1080022,,,,,,,2021-11-05,1,,,,,ティーアンドジーコンサルティング,0
35,1010403026433,新規,0,2021-11-05,2021-11-05,スター合同会社,,合同会社,東京都,港区,浜松町１丁目２０番１０号ライオネス浜松町５０６号室,,13,103,1050013,,,,,,,2021-11-05,1,,,,,スター,0
39,1010601060176,新規,0,2021-11-05,2021-11-05,株式会社メリーノーツ,,株式会社,東京都,江東区,亀戸５丁目３４番８号,,13,108,1360071,,,,,,,2021-11-05,1,,,,,メリーノーツ,0
44,1010901049729,新規,0,2021-11-05,2021-11-05,株式会社ｉｎｈｅｒｉｔ,,株式会社,東京都,世田谷区,喜多見５丁目４番３０号テラスフローラ３０２,,13,112,1570067,,,,,,,2021-11-05,1,,,,,インハリット,0
50,1011001143793,新規,0,2021-11-05,2021-11-05,株式会社ＫＡＩＺＥＮ,,株式会社,東京都,目黒区,中目黒２丁目１０番８号－１２０２,,13,110,1530061,,,,,,,2021-11-05,1,,,,,カイゼン,0
51,1011001143802,新規,0,2021-11-05,2021-11-05,株式会社ａｌｌｍｏｉ,,株式会社,東京都,目黒区,洗足２丁目５番３号,,13,110,1520012,,,,,,,2021-11-05,1,,,,,オルモイ,0
52,1011001143843,新規,0,2021-11-05,2021-11-05,株式会社ローリン,,株式会社,東京都,渋谷区,富ヶ谷１丁目６番４号,,13,113,1510063,,,,,,,2021-11-05,1,,,,,ローリン,0
71,1011801039943,新規,0,2021-11-05,2021-11-05,株式会社しげ,,株式会社,東京都,足立区,千住３丁目３１番地第２武田ビル５階,,13,121,1200034,,,,,,,2021-11-05,1,,,,,シゲ,0
73,1012403005094,新規,0,2021-11-05,2021-11-05,合名会社ＡＩＵタイムシェア,,合名会社,東京都,武蔵野市,吉祥寺南町３丁目３番１３号,,13,203,1800003,,,,,,,2021-11-05,1,,,,,エイアイユータイムシェア,0
74,1012405004664,新規,0,2021-11-05,2021-11-05,特定非営利活動法人首都圏防災士連絡会,,その他の設立登記法人,東京都,府中市,寿町１丁目１番地３号三ツ木寿町ビル５階,,13,206,1830056,,,,,,,2021-11-05,1,,,,,シュトケンボウサイシレンラクカイ,0
75,1012801021197,新規,0,2021-11-05,2021-11-05,株式会社ＶＩＡＳ,,株式会社,東京都,立川市,柴崎町３丁目１４番２１号,,13,202,1900023,,,,,,,2021-11-05,1,,,,,ヴィアス,0
90,1020001143729,新規,0,2021-11-05,2021-11-05,株式会社笑価一心,,株式会社,神奈川県,横浜市栄区,長沼町５９７番地１９,,14,115,2440841,,,,,,,2021-11-05,1,,,,,ショウカイッシン,0
93,1020003020752,新規,0,2021-11-05,2021-11-05,日野コスモ合同会社,,合同会社,神奈川県,横浜市港南区,日野７丁目２５番２３号,,14,111,2340051,,,,,,,2021-11-05,1,,,,,ヒノコスモ,0
94,1020003020760,新規,0,2021-11-05,2021-11-05,ｍａｇｎｅｔ合同会社,,合同会社,神奈川県,川崎市中原区,上平間３７７番地２０,,14,133,2110013,,,,,,,2021-11-05,1,,,,,マグネット,0
95,1020003020777,新規,0,2021-11-05,2021-11-05,合同会社ユニカ,,合同会社,神奈川県,横浜市青葉区,荏田町３４１－１－３０２,,14,117,2250013,,,,,,,2021-11-05,1,,,,,ユニカ,0
97,1021001074393,新規,0,2021-11-05,2021-11-05,エストラスト株式会社,,株式会社,神奈川県,相模原市南区,鵜野森２丁目２５番３３号ロワール町田２０２,,14,153,2520301,,,,,,,2021-11-05,1,,,,,エストラスト,0
98,1021001074402,新規,0,2021-11-05,2021-11-05,ヤマグチオート株式会社,,株式会社,神奈川県,相模原市南区,磯部１４０９番地１,,14,153,2520327,,,,,,,2021-11-05,1,,,,,ヤマグチオート,0
103,1021005012341,新規,0,2021-11-05,2021-11-05,一般社団法人ソーシャルアートラボ,,その他の設立登記法人,神奈川県,藤沢市,宮原３３３４番地の３,,14,205,2520826,,,,,,,2021-11-05,1,,,,,ソーシャルアートラボ,0
107,1030001145113,新規,0,2021-11-05,2021-11-05,株式会社ティーエムエス,,株式会社,埼玉県,草加市,新善町４３７番地１３,,11,221,3400054,,,,,,,2021-11-05,1,,,,,ティーエムエス,0
108,1030001145121,新規,0,2021-11-05,2021-11-05,株式会社リフォール・プランニング,,株式会社,埼玉県,越谷市,蒲生茜町９番地９,,11,222,3430843,,,,,,,2021-11-05,1,,,,,リフォールプランニング,0
109,1030001145138,新規,0,2021-11-05,2021-11-05,株式会社オアシス,,株式会社,埼玉県,羽生市,大沼２丁目５８番地,,11,216,3480016,,,,,,,2021-11-05,1,,,,,オアシス,0
110,1030001145146,新規,0,2021-11-05,2021-11-05,株式会社Ｐｅａｃｅ,,株式会社,埼玉県,さいたま市見沼区,春岡１丁目３０番地６―１０２号,,11,104,3370008,,,,,,,2021-11-05,1,,,,,ピース,0
111,1030001145154,新規,0,2021-11-05,2021-11-05,株式会社エールペイント,,株式会社,埼玉県,八潮市,八潮２丁目２５番地１８,,11,234,3400815,,,,,,,2021-11-05,1,,,,,エールペイント,0
112,1030001145162,新規,0,2021-11-05,2021-11-05,Ｒ＆Ｉ株式会社,,株式会社,埼玉県,川口市,元郷５丁目１４番１１号,,11,203,3320011,,,,,,,2021-11-05,1,,,,,アールアンドアイ,0
113,1030001145187,新規,0,2021-11-05,2021-11-05,株式会社アイベル,,株式会社,埼玉県,上尾市,春日１丁目２７番地３５,,11,219,3620074,,,,,,,2021-11-05,1,,,,,アイベル,0
114,1030001145195,新規,0,2021-11-05,2021-11-05,株式会社ＩＸＩＴ,,株式会社,埼玉県,新座市,野寺４丁目１番９号,,11,230,3520034,,,,,,,2021-11-05,1,,,,,イグジット,0
115,1030001145212,新規,0,2021-11-05,2021-11-05,株式会社Ａｎｓｗｅｒ,,株式会社,埼玉県,所沢市,金山町１７番１１号アーバンリゾート２号館２０３号室,,11,208,3591128,,,,,,,2021-11-05,1,,,,,アンサー,0
116,1030001145229,新規,0,2021-11-05,2021-11-05,株式会社Ｅ－ＨＯＭＥ,,株式会社,埼玉県,富士見市,東みずほ台４丁目１２－７スカイピアみずほ台１０２号,,11,235,3540015,,,,,,,2021-11-05,1,,,,,,0
117,1030003018250,新規,0,2021-11-05,2021-11-05,コネッション合同会社,,合同会社,埼玉県,さいたま市浦和区,仲町４丁目３番１０号,,11,107,3300062,,,,,,,2021-11-05,1,,,,,コネッション,0
118,1030003018267,新規,0,2021-11-05,2021-11-05,合同会社クリオテクノス,,合同会社,埼玉県,さいたま市見沼区,東大宮２丁目２番地２０,,11,104,3370051,,,,,,,2021-11-05,1,,,,,クリオテクノス,0
120,1030005020618,新規,0,2021-11-05,2021-11-05,一般社団法人シェアキッチン協会,,その他の設立登記法人,埼玉県,さいたま市大宮区,宮町１丁目５番地,,11,103,3300802,,,,,,,2021-11-05,1,,,,,シェアキッチンキョウカイ,0
132,1040001120866,新規,0,2021-11-05,2021-11-05,ビルド・ワーク株式会社,,株式会社,千葉県,南房総市,千倉町白間津２９３番地,,12,234,2950027,,,,,,,2021-11-05,1,,,,,ビルドワーク,0
133,1040001120908,新規,0,2021-11-05,2021-11-05,株式会社ＡＫ　ＳＫＹ,,株式会社,千葉県,松戸市,牧の原４３５番地３６,,12,207,2702267,,,,,,,2021-11-05,1,,,,,エーケースカイ,0
134,1040001120916,新規,0,2021-11-05,2021-11-05,株式会社ベストスポーツニュートリション,,株式会社,千葉県,千葉市稲毛区,小中台町４８８番地１稲毛スカイタウン４棟５０４号,,12,103,2630044,,,,,,,2021-11-05,1,,,,,ベストスポーツニュートリション,0
137,1040003018844,新規,0,2021-11-05,2021-11-05,青山不動産合同会社,,合同会社,千葉県,成田市,青山３８７番地５,,12,211,2890112,,,,,,,2021-11-05,1,,,,,アオヤマフドウサン,0
138,1040003018852,新規,0,2021-11-05,2021-11-05,Ｌｉｆｅコンサル合同会社,,合同会社,千葉県,千葉市稲毛区,稲毛東３丁目１６番２４号４Ｆ,,12,103,2630031,,,,,,,2021-11-05,1,,,,,ライフコンサル,0
139,1040003018860,新規,0,2021-11-05,2021-11-05,Ｃｒｅａｔｕｒｅ合同会社,,合同会社,千葉県,柏市,旭町１丁目２番１３号,,12,217,2770852,,,,,,,2021-11-05,1,,,,,クレアチュール,0
140,1040003018877,新規,0,2021-11-05,2021-11-05,合同会社ＮＩＳＳＡＮＫＡ　ＥＮＴＥＲＰＲＩＳＥＳ,,合同会社,千葉県,松戸市,六高台７丁目５７番地小松コーポＩ４０２号室,00124774,12,207,2702203,,,,,,,2021-11-05,1,,,,,ニサンカエンタープライゼス,0
144,1050001050105,新規,0,2021-11-05,2021-11-05,株式会社ＨＡＮＴＯ,,株式会社,茨城県,つくば市,飯田２６３番地１,,08,220,3050874,,,,,,,2021-11-05,1,,,,,ハント,0
146,1050003006179,新規,0,2021-11-05,2021-11-05,合同会社もみじ,,合同会社,茨城県,つくば市,大舟戸１８１番地１,,08,220,3001267,,,,,,,2021-11-05,1,,,,,モミジ,0
150,1060001034271,新規,0,2021-11-05,2021-11-05,株式会社木村建材,,株式会社,栃木県,佐野市,吉水町７７５番地４,,09,204,3270313,,,,,,,2021-11-05,1,,,,,,0
151,1060005009922,新規,0,2021-11-05,2021-11-05,一般社団法人福テラス,,その他の設立登記法人,栃木県,宇都宮市,一条２丁目４番１１号ファーストレジデンス３０５,,09,201,3200821,,,,,,,2021-11-05,1,,,,,フクテラス,0
152,1070001038593,新規,0,2021-11-05,2021-11-05,株式会社中島自動車,,株式会社,群馬県,邑楽郡千代田町,大字赤岩２５０３番地の２０,,10,523,3700503,,,,,,,2021-11-05,1,,,,,ナカジマジドウシャ,0
153,1070003004288,新規,0,2021-11-05,2021-11-05,合同会社リメイン,,合同会社,群馬県,前橋市,表町２丁目３０番３号駅前ハーモニービル４階Ａ５,,10,201,3710024,,,,,,,2021-11-05,1,,,,,リメイン,0
158,1080101022884,新規,0,2021-11-05,2021-11-05,株式会社関野建設,,株式会社,静岡県,熱海市,下多賀４６４番地の１２,,22,205,4130102,,,,,,,2021-11-05,1,,,,,セキノケンセツ,0
159,1080101022892,新規,0,2021-11-05,2021-11-05,株式会社ＳＴＡＹＬＥＳＳ,,株式会社,静岡県,富士市,水戸島本町１０番２５号ダイアパレスステーションサイド富士６０３号,,22,210,4160924,,,,,,,2021-11-05,1,,,,,ステイレス,0
166,1090003001985,新規,0,2021-11-05,2021-11-05,エムアイ警備合同会社,,合同会社,山梨県,甲府市,朝日３丁目１１番１０号,,19,201,4000025,,,,,,,2021-11-05,1,,,,,,0
167,1100001034787,新規,0,2021-11-05,2021-11-05,株式会社リライフ,,株式会社,長野県,飯田市,松尾明４９００番地１０,,20,205,3950823,,,,,,,2021-11-05,1,,,,,リライフ,0
168,1100001034795,新規,0,2021-11-05,2021-11-05,株式会社ｅ９ｔｈ,,株式会社,長野県,長野市,大字中御所岡田町２６０－１,,20,201,3800936,,,,,,,2021-11-05,1,,,,,イーナインス,0
175,1110001036171,新規,0,2021-11-05,2021-11-05,株式会社住まいるコミット,,株式会社,新潟県,新潟市西区,小針１丁目４５番地２３９,,15,107,9502022,,,,,,,2021-11-05,1,,,,,スマイルコミット,0
193,1120001241588,新規,0,2021-11-05,2021-11-05,株式会社あらい,,株式会社,大阪府,大阪市西淀川区,柏里１丁目１７番２号,,27,113,5550022,,,,,,,2021-11-05,1,,,,,アライ,0
194,1120001241605,新規,0,2021-11-05,2021-11-05,株式会社グローリーカンパニー,,株式会社,大阪府,大阪市東住吉区,山坂５丁目１５番３２号,,27,121,5460035,,,,,,,2021-11-05,1,,,,,グローリーカンパニー,0
195,1120001241621,新規,0,2021-11-05,2021-11-05,株式会社乙井商店,,株式会社,大阪府,大阪市北区,天満２丁目６番２０号,,27,127,5300043,,,,,,,2021-11-05,1,,,,,オツイショウテン,0
196,1120001241638,新規,0,2021-11-05,2021-11-05,株式会社Ｈ－ＰＰＹ,,株式会社,大阪府,大阪市中央区,久太郎町４丁目１番３号大阪センタービル６Ｆ－１６３,,27,128,5410056,,,,,,,2021-11-05,1,,,,,エイチピイ,0
197,1120001241654,新規,0,2021-11-05,2021-11-05,株式会社リバーホーム,,株式会社,大阪府,大阪市東成区,東小橋２丁目１０番２６号,,27,115,5370024,,,,,,,2021-11-05,1,,,,,リバーホーム,0
198,1120001241670,新規,0,2021-11-05,2021-11-05,株式会社ｉｏ,,株式会社,大阪府,枚方市,北中振３丁目１１番１５号,,27,210,5730064,,,,,,,2021-11-05,1,,,,,アイオー,0
199,1120001241687,新規,0,2021-11-05,2021-11-05,スタービルド株式会社,,株式会社,大阪府,大阪市北区,堂山町１－５三共梅田ビル７階オギャーズ梅田内,,27,127,5300027,,,,,,,2021-11-05,1,,,,,スタービルド,0
200,1120001241704,新規,0,2021-11-05,2021-11-05,株式会社ＷＸＹＺ,,株式会社,大阪府,大阪市西区,北堀江１丁目３番２０号,,27,106,5500014,,,,,,,2021-11-05,1,,,,,ワクシーズ,0
206,1120003020536,新規,0,2021-11-05,2021-11-05,合同会社大阪リボン,,合同会社,大阪府,大阪市中央区,日本橋１丁目１７番３－７０５号,,27,128,5420073,,,,,,,2021-11-05,1,,,,,オオサカリボン,0
207,1120003020544,新規,0,2021-11-05,2021-11-05,バーサタイル合同会社,,合同会社,大阪府,大阪市北区,梅田２丁目５番１３号桜橋第一ビル３０４号,,27,127,5300001,,,,,,,2021-11-05,1,,,,,バーサタイル,0
210,1120005022547,新規,0,2021-11-05,2021-11-05,一般社団法人そうじの学校,,その他の設立登記法人,大阪府,大阪市東住吉区,駒川１丁目６番１０号,,27,121,5460043,,,,,,,2021-11-05,1,,,,,ソウジノガッコウ,0
217,1120101064591,新規,0,2021-11-05,2021-11-05,株式会社鶴田池ゴルフセンター,,株式会社,大阪府,堺市西区,草部１６３０番地,,27,144,5938312,,,,,,,2021-11-05,1,,,,,ツルタイケゴルフセンター,0
218,1120101064600,新規,0,2021-11-05,2021-11-05,レベチ株式会社,,株式会社,大阪府,泉南郡熊取町,希望が丘３丁目８－３,,27,361,5900422,,,,,,,2021-11-05,1,,,,,レベチ,0
224,1120901045122,新規,0,2021-11-05,2021-11-05,株式会社ＹＨＳ,,株式会社,大阪府,箕面市,彩都栗生南二丁目１１番１号,,27,220,5620000,,,,,,,2021-11-05,1,,,,,ワイエイチエス,0
225,1120901045130,新規,0,2021-11-05,2021-11-05,株式会社ＡＳＡＬＩＮＫＳ,,株式会社,大阪府,箕面市,桜井１丁目２６番３７号,,27,220,5620043,,,,,,,2021-11-05,1,,,,,アサリンクス,0
232,1130001070458,新規,0,2021-11-05,2021-11-05,ａｔｅｌｉｅｒぷに株式会社,,株式会社,京都府,京田辺市,同志社山手２丁目４番地１１５,,26,211,6100315,,,,,,,2021-11-05,1,,,,,アトリエプニ,0
233,1130005016309,新規,0,2021-11-05,2021-11-05,一般社団法人御屠蘇普及協会,,その他の設立登記法人,京都府,京都市伏見区,深草西浦町６丁目７９－５ＥＤＡアドバンスビル２階,,26,109,6120029,,,,,,,2021-11-05,1,,,,,オトソフキュウキョウカイ,0
237,1140001123702,新規,0,2021-11-05,2021-11-05,株式会社四季折々,,株式会社,兵庫県,伊丹市,北本町３丁目７１番地,,28,207,6640836,,,,,,,2021-11-05,1,,,,,シキオリオリ,0
238,1140001123710,新規,0,2021-11-05,2021-11-05,株式会社Ｋ．Ｔ．Ｍ,,株式会社,兵庫県,姫路市,砥堀１１３５番地１８,,28,201,6700802,,,,,,,2021-11-05,1,,,,,ケーティーエム,0
239,1140001123727,新規,0,2021-11-05,2021-11-05,株式会社リケイズ,,株式会社,兵庫県,尼崎市,塚口町４丁目５０番地の１,,28,202,6610002,,,,,,,2021-11-05,1,,,,,リケイズ,0
240,1140001123743,新規,0,2021-11-05,2021-11-05,株式会社織田酒店,,株式会社,兵庫県,明石市,西明石南町２丁目１８番４号,,28,203,6730041,,,,,,,2021-11-05,1,,,,,オダサケテン,0
241,1140001123784,新規,0,2021-11-05,2021-11-05,株式会社ｆｏｒｔｕｎｅ,,株式会社,兵庫県,神戸市北区,藤原台南町４丁目１番２７－２号,,28,109,6511303,,,,,,,2021-11-05,1,,,,,フォーチュン,0
247,1140003016953,新規,0,2021-11-05,2021-11-05,リンクホイール合同会社,,合同会社,兵庫県,西宮市,甲東園１丁目１－６パセオ甲東１１０,,28,204,6620812,,,,,,,2021-11-05,1,,,,,リンクホイール,0
250,1160001023768,新規,0,2021-11-05,2021-11-05,株式会社Ｄ‐ｐｌｕｓ,,株式会社,滋賀県,草津市,野路町６８３番地６－２０２,,25,206,5250055,,,,,,,2021-11-05,1,,,,,ディープラス,0
252,1170001016853,新規,0,2021-11-05,2021-11-05,株式会社山本建設,,株式会社,和歌山県,有田市,糸我町西２８２番地２,,30,204,6490422,,,,,,,2021-11-05,1,,,,,ヤマモトケンセツ,0
262,1180001148654,新規,0,2021-11-05,2021-11-05,株式会社ＣＢモンスター,,株式会社,愛知県,名古屋市東区,東桜２丁目２０番１０号ベストハイツ東桜２０１号,,23,102,4610005,,,,,,,2021-11-05,1,,,,,シービーモンスター,0
265,1180005019505,新規,0,2021-11-05,2021-11-05,一般社団法人Ａ　Ｓｔａｒｔ　Ｐｉｅｃｅ　Ｌａｂ．,,その他の設立登記法人,愛知県,名古屋市中区,錦１丁目５番１１号,,23,106,4600003,,,,,,,2021-11-05,1,,,,,アスタートピースラボ,0
276,1190005011634,新規,0,2021-11-05,2021-11-05,農事組合法人匠ファーマーズ三重朝日,,その他の設立登記法人,三重県,三重郡朝日町,大字柿２２７０番地,,24,343,5108103,,,,,,,2021-11-05,1,,,,,タクミファーマーズミエアサヒ,0
281,1200003005371,新規,0,2021-11-05,2021-11-05,合同会社酒井医科歯科コンサルティング,,合同会社,岐阜県,各務原市,蘇原東島町４丁目７６番地５,,21,213,5040816,,,,,,,2021-11-05,1,,,,,サカイイカシカコンサルティング,0
297,1240003005351,新規,0,2021-11-05,2021-11-05,マサ合同会社,,合同会社,広島県,三次市,十日市東１丁目３番１号ヤマナカビル２階,,34,209,7280013,,,,,,,2021-11-05,1,,,,,マサ,0
300,1250001019229,新規,0,2021-11-05,2021-11-05,株式会社ショウブ空設,,株式会社,山口県,萩市,大字明木２９４５番地６,,35,204,7540411,,,,,,,2021-11-05,1,,,,,ショウブクウセツ,0
302,1260001036181,新規,0,2021-11-05,2021-11-05,株式会社ＡＯＩ,,株式会社,岡山県,岡山市北区,中央町１‐２６‐２０３,,33,101,7000836,,,,,,,2021-11-05,1,,,,,アオイ,0
309,1270003001364,新規,0,2021-11-05,2021-11-05,あいしん保険サービス合同会社,,合同会社,鳥取県,鳥取市,松並町２丁目１６０番地,,31,201,6800801,,,,,,,2021-11-05,1,,,,,アイシンホケンサービス,0
317,1290001095258,新規,0,2021-11-05,2021-11-05,ＬＡＢ株式会社,,株式会社,福岡県,糟屋郡久山町,大字久原２２３１－４,,40,348,8112501,,,,,,,2021-11-05,1,,,,,エルエービー,0
318,1290001095266,新規,0,2021-11-05,2021-11-05,株式会社コンシャスマネジメント,,株式会社,福岡県,福岡市中央区,天神１丁目１５－５天神明治通りビル７階,,40,133,8100001,,,,,,,2021-11-05,1,,,,,コンシャスマネジメント,0
319,1290001095274,新規,0,2021-11-05,2021-11-05,株式会社パーソナル,,株式会社,福岡県,福岡市博多区,中洲２丁目５番１１号,,40,132,8100801,,,,,,,2021-11-05,1,,,,,パーソナル,0
320,1290001095299,新規,0,2021-11-05,2021-11-05,株式会社ＢＲＩＤＧＥＡ,,株式会社,福岡県,福岡市中央区,舞鶴３丁目２番３５号,,40,133,8100073,,,,,,,2021-11-05,1,,,,,ブリッジア,0
325,1290005018405,新規,0,2021-11-05,2021-11-05,一般社団法人福祉サポートセンタートイロ,,その他の設立登記法人,福岡県,福津市,あけぼの２４番地の１３,,40,224,8113220,,,,,,,2021-11-05,1,,,,,フクシサポートセンタートイロ,0
326,1290801027963,新規,0,2021-11-05,2021-11-05,ＢＨＣ株式会社,,株式会社,福岡県,北九州市小倉北区,中津口１丁目９番１５号ＭＯビル２階,,40,106,8020018,,,,,,,2021-11-05,1,,,,,ビーエイチシー,0
332,1310001017564,新規,0,2021-11-05,2021-11-05,ルナズコーポレーション株式会社,,株式会社,長崎県,長崎市,香焼町２３２番地１,,42,201,8510310,,,,,,,2021-11-05,1,,,,,ルナズコーポレーション,0
340,1330001029129,新規,0,2021-11-05,2021-11-05,実鈴縫製株式会社,,株式会社,熊本県,球磨郡錦町,大字西２５４番地１５,,43,501,8680303,,,,,,,2021-11-05,1,,,,,ミスズホウセイ,0
341,1330001029153,新規,0,2021-11-05,2021-11-05,カナト功業株式会社,,株式会社,熊本県,玉名郡南関町,大字小原４６２番地１,,43,367,8610811,,,,,,,2021-11-05,1,,,,,カナトコウギョウ,0
342,1330001029161,新規,0,2021-11-05,2021-11-05,株式会社うなぎのぼり,,株式会社,熊本県,熊本市西区,出町１番３号,,43,103,8600074,,,,,,,2021-11-05,1,,,,,ウナギノボリ,0
355,1370001047787,新規,0,2021-11-05,2021-11-05,株式会社ＴＡО,,株式会社,宮城県,栗原市,高清水大沢６番地４,,04,213,9872014,,,,,,,2021-11-05,1,,,,,ティーエーオー,0
361,1380001032301,新規,0,2021-11-05,2021-11-05,株式会社ブレース,,株式会社,福島県,福島市,清明町１番１０号,,07,201,9608062,,,,,,,2021-11-05,1,,,,,ブレース,0
369,1420003002405,新規,0,2021-11-05,2021-11-05,合同会社石橋電機,,合同会社,青森県,八戸市,田向１丁目１７番１９号,,02,203,0310011,,,,,,,2021-11-05,1,,,,,イシバシデンキ,0
373,1430001085285,新規,0,2021-11-05,2021-11-05,ｂｙ　ｔｈｅ　ｇａｔｅ株式会社,,株式会社,北海道,札幌市白石区,東札幌三条２丁目１番５７－２１３号,,01,104,0030003,,,,,,,2021-11-05,1,,,,,バイザゲート,0
374,1430001085293,新規,0,2021-11-05,2021-11-05,株式会社ＢＬＡＣＫ　ＡＰＲＯＮ,,株式会社,北海道,新冠郡新冠町,字北星町２番地の４４,,01,604,0592403,,,,,,,2021-11-05,1,,,,,ブラックエプロン,0
377,1430003013335,新規,0,2021-11-05,2021-11-05,石川会計合同会社,,合同会社,北海道,札幌市北区,新琴似五条１７丁目１番２－１００５号,,01,102,0010905,,,,,,,2021-11-05,1,,,,,イシカワカイケイ,0
379,1450001013525,新規,0,2021-11-05,2021-11-05,株式会社仲川,,株式会社,北海道,紋別市,幸町６丁目２番９号,,01,219,0940005,,,,,,,2021-11-05,1,,,,,ナカガワ,0
383,1490003001598,新規,0,2021-11-05,2021-11-05,合同会社きらめき,,合同会社,高知県,高知市,土居町１４番地３,,39,201,7818001,,,,,,,2021-11-05,1,,,,,キラメキ,0
394,2010001222219,新規,0,2021-11-05,2021-11-05,株式会社ＬＥＧＡＲＥＡ,,株式会社,東京都,中央区,日本橋２丁目１番３号,,13,102,1030027,,,,,,,2021-11-05,1,,,,,レガリア,0
395,2010001222268,新規,0,2021-11-05,2021-11-05,株式会社ＡＭＣリテール,,株式会社,東京都,千代田区,大手町１丁目４番２号,,13,101,1000004,,,,,,,2021-11-05,1,,,,,エーエムシーリテール,0
396,2010001222276,新規,0,2021-11-05,2021-11-05,マリホレ株式会社,,株式会社,東京都,中央区,銀座１丁目１２番４号Ｎ＆Ｅ・ＢＬＤ．７階,,13,102,1040061,,,,,,,2021-11-05,1,,,,,マリホレ,0
398,2010003036146,新規,0,2021-11-05,2021-11-05,東京レジ２３合同会社,,合同会社,東京都,千代田区,丸の内３丁目１番１号東京共同会計事務所内,,13,101,1000005,,,,,,,2021-11-05,1,,,,,トウキョウレジトゥエンティスリー,0
401,2010101014945,新規,0,2021-11-05,2021-11-05,株式会社スキップ,,株式会社,東京都,八王子市,東町１０番３号ＷＡＤＡビルディング１０６,,13,201,1920082,,,,,,,2021-11-05,1,,,,,スキップ,0
418,2010401163632,新規,0,2021-11-05,2021-11-05,株式会社トーニチ,,株式会社,東京都,港区,浜松町２丁目１番１６号浜松町北田ビル５階,,13,103,1050013,,,,,,,2021-11-05,1,,,,,トーニチ,0
419,2010401163657,新規,0,2021-11-05,2021-11-05,株式会社Ｔｉｇｒｅ,,株式会社,東京都,港区,芝大門２丁目１３番１号滝沢ビル２階,,13,103,1050012,,,,,,,2021-11-05,1,,,,,ティグレ,0
420,2010401163673,新規,0,2021-11-05,2021-11-05,株式会社サンアイ,,株式会社,東京都,港区,新橋５丁目３１番８号,,13,103,1050004,,,,,,,2021-11-05,1,,,,,サンアイ,0
426,2010403026465,新規,0,2021-11-05,2021-11-05,ＪＫＪＰ合同会社,,合同会社,東京都,港区,台場１丁目３番２－９０３号,,13,103,1350091,,,,,,,2021-11-05,1,,,,,ジェイケイジェイピー,0
428,2010405020359,新規,0,2021-11-05,2021-11-05,ＨＳＪＰＮ３特定目的会社,,その他の設立登記法人,東京都,港区,虎ノ門３丁目２２番１０－２０１号,,13,103,1050001,,,,,,,2021-11-05,1,,,,,エイチエスジェイピーエヌスリー,0
430,2010501048031,新規,0,2021-11-05,2021-11-05,株式会社ＣＹＣＯＯ　ＪＡＰＡＮ,,株式会社,東京都,台東区,台東４丁目１４番１１号６Ｆ,,13,106,1100016,,,,,,,2021-11-05,1,,,,,サイクージャパン,0
431,2010501048064,新規,0,2021-11-05,2021-11-05,株式会社ＩＴＥＴＯＲｉ,,株式会社,東京都,台東区,竜泉３丁目１２番７－２０３号ヴェレーナ東京入谷ＩＩＩ,00124772,13,106,1100012,,,,,,,2021-11-05,1,,,,,アイテトリ,0
439,2010601060159,新規,0,2021-11-05,2021-11-05,ＭｏｎｙｏＰｒｏ株式会社,,株式会社,東京都,江東区,豊洲５丁目６番２９－１１２４号,,13,108,1350061,,,,,,,2021-11-05,1,,,,,モニョプロ,0
440,2010603009237,新規,0,2021-11-05,2021-11-05,合同会社スズキ,,合同会社,東京都,江東区,東陽３丁目２７番１７号長谷川ビル５階,,13,108,1350016,,,,,,,2021-11-05,1,,,,,スズキ,0
443,2010801032461,新規,0,2021-11-05,2021-11-05,平綿不動産株式会社,,株式会社,東京都,大田区,上池台１丁目７－１６,,13,111,1450064,,,,,,,2021-11-05,1,,,,,ヒラワタフドウサン,0
451,2010903006917,新規,0,2021-11-05,2021-11-05,合同会社若林産業医事務所,,合同会社,東京都,世田谷区,上用賀５丁目１６番１４号,,13,112,1580098,,,,,,,2021-11-05,1,,,,,ワカバヤシサンギョウイジムショ,0
460,2011203003679,新規,0,2021-11-05,2021-11-05,合同会社モクテン,,合同会社,東京都,中野区,南台３丁目６番１７号クリスタルコート８８－１Ｆ－３号室,,13,114,1640014,,,,,,,2021-11-05,1,,,,,モクテン,0
476,2011801039934,新規,0,2021-11-05,2021-11-05,アップワード株式会社,,株式会社,東京都,葛飾区,西水元５丁目１４番１５号,,13,122,1250031,,,,,,,2021-11-05,1,,,,,アップワード,0
481,2012401038491,新規,0,2021-11-05,2021-11-05,株式会社Ｔ．Ｏ．２９,,株式会社,東京都,府中市,四谷１丁目２番地の２１,,13,206,1830035,,,,,,,2021-11-05,1,,,,,ティーオートゥエンティナイン,0
482,2012401038500,新規,0,2021-11-05,2021-11-05,株式会社ＴＫＺ,,株式会社,東京都,調布市,布田１丁目４５番地６ライオンズマンション調布駅前６０５号室,,13,208,1820024,,,,,,,2021-11-05,1,,,,,ティーケーゼット,0
483,2012403005093,新規,0,2021-11-05,2021-11-05,クマセイサク合同会社,,合同会社,東京都,三鷹市,中原２丁目６番１２号,,13,204,1810005,,,,,,,2021-11-05,1,,,,,クマセイサク,0
484,2012405004663,新規,0,2021-11-05,2021-11-05,一般社団法人鬼太鼓座,,その他の設立登記法人,東京都,調布市,国領町１丁目４１番地４メルヴェーユ調布４０７,,13,208,1820022,,,,,,,2021-11-05,1,,,,,オンデコザ,0
485,2012701016750,新規,0,2021-11-05,2021-11-05,株式会社ＢＬＵＥ　ＳＯＬ,,株式会社,東京都,東久留米市,新川町１丁目９番２３－１０１号,,13,222,2030013,,,,,,,2021-11-05,1,,,,,ブルーソル,0
486,2012703002344,新規,0,2021-11-05,2021-11-05,リアルティ・ラボ合同会社,,合同会社,東京都,東村山市,久米川町４丁目２４番地３９,,13,213,1890003,,,,,,,2021-11-05,1,,,,,リアルティラボ,0
487,2012801021196,新規,0,2021-11-05,2021-11-05,須崎ＩＴコンサルタント株式会社,,株式会社,東京都,日野市,高幡２番地の１２,,13,212,1910031,,,,,,,2021-11-05,1,,,,,スザキアイティーコンサルタント,0
494,2020001143760,新規,0,2021-11-05,2021-11-05,株式会社ＬＩＭＩＴＬＥＳＳ,,株式会社,神奈川県,横浜市青葉区,しらとり台３０－６－Ｃ,,14,117,2270054,,,,,,,2021-11-05,1,,,,,リミットレス,0
495,2020001143802,新規,0,2021-11-05,2021-11-05,株式会社ＴＯＲＥＡ　ＮＡＴＵＲＡ,,株式会社,神奈川県,川崎市多摩区,生田２丁目３番４号,,14,135,2140038,,,,,,,2021-11-05,1,,,,,トレアナチュラ,0
496,2020001143810,新規,0,2021-11-05,2021-11-05,株式会社Ｊｕｎｏ　ｉｎｔｅｒｎａｔｉｏｎａｌ,,株式会社,神奈川県,横浜市金沢区,柴町３６８番地,,14,108,2360012,,,,,,,2021-11-05,1,,,,,ジュノインターナショナル,0
504,2020003020768,新規,0,2021-11-05,2021-11-05,令和製作所合同会社,,合同会社,神奈川県,横浜市中区,根岸旭台５７番地１コスモ根岸旭台３０４号室,,14,104,2310854,,,,,,,2021-11-05,1,,,,,レイワセイサクショ,0
505,2020003020776,新規,0,2021-11-05,2021-11-05,Ｃａｒ　Ｐｒｉｄｅ　Ｉｎｔｅｒｎａｔｉｏｎａｌ合同会社,,合同会社,神奈川県,川崎市中原区,今井南町３０番１６号,,14,133,2110064,,,,,,,2021-11-05,1,,,,,カープライドインターナショナル,0
514,2021001074392,新規,0,2021-11-05,2021-11-05,株式会社ＨＡＫＵＡＩ,,株式会社,神奈川県,藤沢市,大庭５４１６番地の２３,,14,205,2510861,,,,,,,2021-11-05,1,,,,,ハクアイ,0
515,2021001074401,新規,0,2021-11-05,2021-11-05,ＨＫＴグループ株式会社,,株式会社,神奈川県,相模原市緑区,西橋本５丁目８番２４号,,14,151,2520131,,,,,,,2021-11-05,1,,,,,エイチケイティグループ,0
516,2021001074434,新規,0,2021-11-05,2021-11-05,株式会社高來想建,,株式会社,神奈川県,小田原市,早川１３７６番地の１,,14,206,2500021,,,,,,,2021-11-05,1,,,,,タカラソウケン,0
518,2021003011047,新規,0,2021-11-05,2021-11-05,アルバスＪａｐａｎ合同会社,,合同会社,神奈川県,相模原市中央区,相模原２丁目２番２０号山田ビル５Ｆ,,14,152,2520231,,,,,,,2021-11-05,1,,,,,アルバスジャパン,0
519,2021003011055,新規,0,2021-11-05,2021-11-05,キャロットケーキ合同会社,,合同会社,神奈川県,鎌倉市,材木座３丁目１番３５号,,14,204,2480013,,,,,,,2021-11-05,1,,,,,キャロットケーキ,0
522,2030001145112,新規,0,2021-11-05,2021-11-05,株式会社ネクストライン,,株式会社,埼玉県,ふじみ野市,北野１丁目８番１４号,,11,245,3560007,,,,,,,2021-11-05,1,,,,,ネクストライン,0
523,2030001145129,新規,0,2021-11-05,2021-11-05,株式会社ＣＧＩ,,株式会社,埼玉県,川口市,大字里４００番地の１,,11,203,3340005,,,,,,,2021-11-05,1,,,,,シージーアイ,0
524,2030001145145,新規,0,2021-11-05,2021-11-05,株式会社大青,,株式会社,埼玉県,三郷市,彦成１丁目６５番地４,,11,237,3410003,,,,,,,2021-11-05,1,,,,,タイセイ,0
525,2030001145161,新規,0,2021-11-05,2021-11-05,株式会社浮彦ベース,,株式会社,埼玉県,八潮市,大字浮塚３８２番地,,11,234,3400835,,,,,,,2021-11-05,1,,,,,ウキヒコベース,0
526,2030001145194,新規,0,2021-11-05,2021-11-05,株式会社小池サッシ,,株式会社,埼玉県,ふじみ野市,苗間１２番地１７,,11,245,3560052,,,,,,,2021-11-05,1,,,,,コイケサッシ,0
527,2030001145211,新規,0,2021-11-05,2021-11-05,吉久商事株式会社,,株式会社,埼玉県,熊谷市,弥藤吾１６０－６三合ビル１０１号室,,11,202,3600203,,,,,,,2021-11-05,1,,,,,ヨシヒサショウジ,0
541,2040001120857,新規,0,2021-11-05,2021-11-05,株式会社サンパワー電工,,株式会社,千葉県,白井市,大松１丁目２２番６号,,12,232,2701439,,,,,,,2021-11-05,1,,,,,サンパワーデンコウ,0
542,2040001120865,新規,0,2021-11-05,2021-11-05,株式会社平岡,,株式会社,千葉県,柏市,南逆井７丁目２２番８号,,12,217,2770043,,,,,,,2021-11-05,1,,,,,ヒラオカ,0
543,2040001120881,新規,0,2021-11-05,2021-11-05,株式会社ジェイテイント,,株式会社,千葉県,君津市,中富１０５３番地１セジュール中富１０１,,12,225,2991132,,,,,,,2021-11-05,1,,,,,ジェイテイント,0
544,2040001120915,新規,0,2021-11-05,2021-11-05,株式会社Ｒａｔｉｏｎａｌｅ,,株式会社,千葉県,松戸市,八ケ崎７丁目３番地の１ハイランドテラス八ケ崎３１０号,,12,207,2700023,,,,,,,2021-11-05,1,,,,,ラショナル,0
557,2040005021416,新規,0,2021-11-05,2021-11-05,社会保険労務士法人ＭＫＳ,,その他の設立登記法人,千葉県,八千代市,緑が丘１丁目１１０６番地５,,12,221,2760049,,,,,,,2021-11-05,1,,,,,エムケーエス,0
562,2050001050087,新規,0,2021-11-05,2021-11-05,株式会社ａｎｇｅｌｉｃ,,株式会社,茨城県,稲敷郡阿見町,岡崎１丁目１２番地２グランデミキ１０１号室,,08,443,3000335,,,,,,,2021-11-05,1,,,,,アンジェリック,0
563,2050001050095,新規,0,2021-11-05,2021-11-05,株式会社東京２４,,株式会社,茨城県,坂東市,沓掛５２０７番地,,08,228,3060515,,,,,,,2021-11-05,1,,,,,トウキョウトゥエンティーフォー,0
565,2060001034270,新規,0,2021-11-05,2021-11-05,岳三株式会社,,株式会社,栃木県,下都賀郡壬生町,通町４番１１号,,09,361,3210227,,,,,,,2021-11-05,1,,,,,タケゾー,0
566,2060001034287,新規,0,2021-11-05,2021-11-05,株式会社ＡＬＩ　ＴＲＡＤＩＮＧ　ＣＯＭＰＡＮＹ,,株式会社,栃木県,栃木市,岩舟町新里１３０４番地,,09,203,3294316,,,,,,,2021-11-05,1,,,,,,0
570,2070003004287,新規,0,2021-11-05,2021-11-05,藤山ファーム合同会社,,合同会社,群馬県,安中市,野殿３２２１番地,,10,211,3790114,,,,,,,2021-11-05,1,,,,,フジヤマファーム,0
575,2080101022883,新規,0,2021-11-05,2021-11-05,株式会社ファイナル・ステ―ジ,,株式会社,静岡県,熱海市,伊豆山２６２番地２４－１２０３号,,22,205,4130002,,,,,,,2021-11-05,1,,,,,ファイナルステージ,0
576,2080101022900,新規,0,2021-11-05,2021-11-05,株式会社ｐｈｙｓｉｃａｌ,,株式会社,静岡県,沼津市,大岡４０３‐１‐１０１,,22,203,4100022,,,,,,,2021-11-05,1,,,,,フィジカル,0
577,2080401025462,新規,0,2021-11-05,2021-11-05,株式会社Ｃｅｄａｒ＆Ｃｏ．,,株式会社,静岡県,御前崎市,池新田４１６０番地の６,,22,223,4371612,,,,,,,2021-11-05,1,,,,,シダーアンドシーオー,0
582,2090001017264,新規,0,2021-11-05,2021-11-05,株式会社東永電装,,株式会社,山梨県,富士吉田市,上吉田東１丁目４番３７号,,19,202,4030032,,,,,,,2021-11-05,1,,,,,トウエイデンソウ,0
588,2090003001984,新規,0,2021-11-05,2021-11-05,合同会社ＰＨＥＮＩＸ,,合同会社,山梨県,上野原市,秋山１２２４９番地１,,19,212,4010201,,,,,,,2021-11-05,1,,,,,フェニックス,0
591,2100001034761,新規,0,2021-11-05,2021-11-05,株式会社信屋,,株式会社,長野県,北安曇郡白馬村,大字北城５７１４番地２,,20,485,3999301,,,,,,,2021-11-05,1,,,,,シンヤ,0
593,2110001036170,新規,0,2021-11-05,2021-11-05,株式会社にっしん遍損保事務所,,株式会社,新潟県,長岡市,城内町３丁目５番地１５タウンコート城内７０１号室,,15,202,9400061,,,,,,,2021-11-05,1,,,,,ニッシンアマネソンポジムショ,0
604,2120001241570,新規,0,2021-11-05,2021-11-05,株式会社Ｈ．Ｓ．Ｍ,,株式会社,大阪府,大阪市淀川区,宮原１丁目８番２７－１１０３号,,27,123,5320003,,,,,,,2021-11-05,1,,,,,エイチエスエム,0
605,2120001241587,新規,0,2021-11-05,2021-11-05,ＩＮＳＯＵ　ＳＯＵＴＨ株式会社,,株式会社,大阪府,大阪市西区,新町３丁目６番１０号,,27,106,5500013,,,,,,,2021-11-05,1,,,,,インソウサウス,0
606,2120001241604,新規,0,2021-11-05,2021-11-05,Ｄ＆Ｍ株式会社,,株式会社,大阪府,大阪市中央区,西心斎橋２丁目１２番２２号朝日プラザ心斎橋６１３号室,,27,128,5420086,,,,,,,2021-11-05,1,,,,,ディーアンドエム,0
607,2120001241612,新規,0,2021-11-05,2021-11-05,株式会社サニー,,株式会社,大阪府,大阪市中央区,糸屋町１丁目２番１１－７０９号,,27,128,5400022,,,,,,,2021-11-05,1,,,,,サニー,0
608,2120001241620,新規,0,2021-11-05,2021-11-05,ＤＥＮＮＩＳ　ＧＬＯＢＡＬ株式会社,,株式会社,大阪府,大阪市西淀川区,姫里２丁目１０番１０号,,27,113,5550025,,,,,,,2021-11-05,1,,,,,デニスグローバル,0
609,2120001241661,新規,0,2021-11-05,2021-11-05,株式会社ミナト商事,,株式会社,大阪府,大阪市大正区,南恩加島２丁目１０番２１号,,27,108,5510021,,,,,,,2021-11-05,1,,,,,ミナトショウジ,0
610,2120001241678,新規,0,2021-11-05,2021-11-05,株式会社ＰＬＡＹ　ＣＲＡＦＴ,,株式会社,大阪府,枚方市,川原町１１－１０大京第一ビル１０１,,27,210,5730028,,,,,,,2021-11-05,1,,,,,プレイクラフト,0
611,2120001241686,新規,0,2021-11-05,2021-11-05,株式会社テイク・ワン,,株式会社,大阪府,大阪市東淀川区,柴島２丁目７番１９－９０５号,,27,114,5330024,,,,,,,2021-11-05,1,,,,,テイクワン,0
612,2120001241703,新規,0,2021-11-05,2021-11-05,株式会社えん,,株式会社,大阪府,大阪市中央区,内平野町２丁目２番７号大阪文化会館７０２,,27,128,5400037,,,,,,,2021-11-05,1,,,,,エン,0
613,2120003020502,新規,0,2021-11-05,2021-11-05,合同会社三澤商会,,合同会社,大阪府,大阪市西淀川区,竹島２丁目４番地２２号,,27,113,5550011,,,,,,,2021-11-05,1,,,,,ミサワショウカイ,0
614,2120003020543,新規,0,2021-11-05,2021-11-05,ＣＲｕ合同会社,,合同会社,大阪府,大阪市東成区,中道１丁目７－１７,,27,115,5370025,,,,,,,2021-11-05,1,,,,,クルー,0
621,2120101064558,新規,0,2021-11-05,2021-11-05,株式会社ＫＡＣ,,株式会社,大阪府,堺市東区,北野田８６９番地１６,,27,143,5998123,,,,,,,2021-11-05,1,,,,,ケイエイシー,0
622,2120101064616,新規,0,2021-11-05,2021-11-05,株式会社ｓｅａ　ａｓｔｅｒ,,株式会社,大阪府,堺市堺区,大町東３丁２－６－１０１,,27,141,5900954,,,,,,,2021-11-05,1,,,,,シーアスター,0
625,2120901045138,新規,0,2021-11-05,2021-11-05,安成電気株式会社,,株式会社,大阪府,豊中市,庄内栄町１丁目７番１０号,,27,203,5610834,,,,,,,2021-11-05,1,,,,,アンセイデンキ,0
626,2122003002208,新規,0,2021-11-05,2021-11-05,ＡＫクリエイト合同会社,,合同会社,大阪府,東大阪市,大蓮南２丁目２１－２,00124770,27,227,5770825,,,,,,,2021-11-05,1,,,,,エーケークリエイト,0
630,2130001070449,新規,0,2021-11-05,2021-11-05,株式会社岡島精工所,,株式会社,京都府,京都市伏見区,淀美豆町５５１番地,,26,109,6130916,,,,,,,2021-11-05,1,,,,,オカジマセイコウショ,0
631,2130001070473,新規,0,2021-11-05,2021-11-05,株式会社初音美術,,株式会社,京都府,京都市南区,西九条東島町１１番地２２,,26,107,6018432,,,,,,,2021-11-05,1,,,,,ハツネビジュツ,0
636,2140001123718,新規,0,2021-11-05,2021-11-05,株式会社三成,,株式会社,兵庫県,三木市,末広１丁目１３番３０号,,28,215,6730403,,,,,,,2021-11-05,1,,,,,サンセイ,0
637,2140001123734,新規,0,2021-11-05,2021-11-05,株式会社ミュージアム,,株式会社,兵庫県,神戸市中央区,三宮町２丁目６番４号宮内三宮ビル３Ｆ,,28,110,6500021,,,,,,,2021-11-05,1,,,,,ミュージアム,0
638,2140001123750,新規,0,2021-11-05,2021-11-05,エスティー関西株式会社,,株式会社,兵庫県,加古川市,平荘町西山３２番１,,28,210,6751234,,,,,,,2021-11-05,1,,,,,エスティーカンサイ,0
639,2140001123759,新規,0,2021-11-05,2021-11-05,株式会社ウイルアクセス,,株式会社,兵庫県,尼崎市,玄番北之町３８番地１,,28,202,6600872,,,,,,,2021-11-05,1,,,,,ウイルアクセス,0
640,2140001123775,新規,0,2021-11-05,2021-11-05,ヤマデン株式会社,,株式会社,兵庫県,加古郡稲美町,六分一６１２番地の２,,28,381,6751112,,,,,,,2021-11-05,1,,,,,ヤマデン,0
644,2140003016928,新規,0,2021-11-05,2021-11-05,合同会社ＷＩＺＡＲＤ,,合同会社,兵庫県,神戸市東灘区,向洋町中１丁目１８リバモールイースト７０２,,28,101,6580032,,,,,,,2021-11-05,1,,,,,ウィザード,0
659,2180001148546,新規,0,2021-11-05,2021-11-05,株式会社愛岐工業,,株式会社,愛知県,名古屋市中川区,富田町大字千音寺字西川岸塚１３１５番地の５,,23,110,4540971,,,,,,,2021-11-05,1,,,,,アイギコウギョウ,0
660,2180001148637,新規,0,2021-11-05,2021-11-05,株式会社ＧｏｏＦｙぱんち,,株式会社,愛知県,名古屋市守山区,川東山３６０３番地,,23,113,4630006,,,,,,,2021-11-05,1,,,,,グーフィーパンチ,0
661,2180001148645,新規,0,2021-11-05,2021-11-05,株式会社タケツネ,,株式会社,愛知県,一宮市,萩原町西宮重字西光堂４５番地３,,23,203,4910362,,,,,,,2021-11-05,1,,,,,タケツネ,0
676,2200001039354,新規,0,2021-11-05,2021-11-05,株式会社ＡＪ,,株式会社,岐阜県,大垣市,中川町２丁目１０５２番地３,,21,202,5030017,,,,,,,2021-11-05,1,,,,,エージェイ,0
689,2240001058887,新規,0,2021-11-05,2021-11-05,株式会社フェアリー,,株式会社,広島県,尾道市,高須町４８０７番地２,,34,205,7290141,,,,,,,2021-11-05,1,,,,,フェアリー,0
691,2240003005350,新規,0,2021-11-05,2021-11-05,ＰＯＷＥＲ’Ｓ合同会社,,合同会社,広島県,三次市,十日市東１丁目３番１号,,34,209,7280013,,,,,,,2021-11-05,1,,,,,パワーズ,0
694,2250001019228,新規,0,2021-11-05,2021-11-05,ＫＤＫ　ＪＡＰＡＮ株式会社,,株式会社,山口県,防府市,大字田島８４５番地の２,,35,206,7470834,,,,,,,2021-11-05,1,,,,,ケイディーケイジャパン,0
695,2250001019244,新規,0,2021-11-05,2021-11-05,株式会社ＳＤ,,株式会社,山口県,岩国市,山手町１丁目２番６号,,35,208,7400022,,,,,,,2021-11-05,1,,,,,エスディー,0
699,2260001036164,新規,0,2021-11-05,2021-11-05,株式会社大銀,,株式会社,岡山県,岡山市南区,箕島８３５番地１,,33,104,7010206,,,,,,,2021-11-05,1,,,,,ダイギン,0
701,2260005010990,新規,0,2021-11-05,2021-11-05,ジェックス事業協同組合,,その他の設立登記法人,岡山県,岡山市北区,清輝本町８番１４号,,33,101,7000862,,,,,,,2021-11-05,1,,,,,ジェックス,0
702,2270001008385,新規,0,2021-11-05,2021-11-05,株式会社葵,,株式会社,鳥取県,鳥取市,雲山１４７番地７,,31,201,6800862,,,,,,,2021-11-05,1,,,,,アオイ,0
707,2290001095240,新規,0,2021-11-05,2021-11-05,株式会社翔真,,株式会社,福岡県,福岡市博多区,空港前３丁目５番５０号,,40,132,8120002,,,,,,,2021-11-05,1,,,,,ショウシン,0
708,2290001095257,新規,0,2021-11-05,2021-11-05,株式会社エイトワン,,株式会社,福岡県,福岡市早良区,百道浜４丁目３１番１号,,40,137,8140001,,,,,,,2021-11-05,1,,,,,エイトワン,0
709,2290001095273,新規,0,2021-11-05,2021-11-05,株式会社ｇｌｏｗ,,株式会社,福岡県,小郡市,小郡９１１番地８ツァルト小郡Ｂ２０４号,,40,216,8380141,,,,,,,2021-11-05,1,,,,,グロウ,0
710,2290001095281,新規,0,2021-11-05,2021-11-05,株式会社ソネス,,株式会社,福岡県,福岡市中央区,薬院１丁目１６番１８号江島ビル１０２号,,40,133,8100022,,,,,,,2021-11-05,1,,,,,ソネス,0
711,2290003011798,新規,0,2021-11-05,2021-11-05,八尋企画合同会社,,合同会社,福岡県,福岡市西区,野方１丁目２６番９号,,40,135,8190043,,,,,,,2021-11-05,1,,,,,ヤヒロキカク,0
713,2290801027962,新規,0,2021-11-05,2021-11-05,株式会社ｐｌｕｍｅ,,株式会社,福岡県,北九州市八幡東区,中央２丁目３番１２号,,40,108,8050019,,,,,,,2021-11-05,1,,,,,プリューム,0
714,2290801027970,新規,0,2021-11-05,2021-11-05,株式会社ナカオ,,株式会社,福岡県,北九州市小倉南区,重住１丁目８番３号,,40,107,8020811,,,,,,,2021-11-05,1,,,,,ナカオ,0
715,2300001012689,新規,0,2021-11-05,2021-11-05,株式会社森山設計,,株式会社,佐賀県,鳥栖市,蔵上３丁目２１７番地,,41,203,8410056,,,,,,,2021-11-05,1,,,,,モリヤマセッケイ,0
716,2300001012697,新規,0,2021-11-05,2021-11-05,株式会社Ｏｎｅ‐Ｓｔｏｐ,,株式会社,佐賀県,佐賀市,鍋島町大字八戸溝２４８番地９－５０３,,41,201,8490932,,,,,,,2021-11-05,1,,,,,ワンストップ,0
743,2350001017394,新規,0,2021-11-05,2021-11-05,株式会社セントラル,,株式会社,宮崎県,都城市,都北町７１００番地３,,45,202,8850004,,,,,,,2021-11-05,1,,,,,セントラル,0
746,2350003003962,新規,0,2021-11-05,2021-11-05,合同会社ほんとうのさいわい,,合同会社,宮崎県,日南市,大字益安３３－５,,45,204,8870032,,,,,,,2021-11-05,1,,,,,ホントウノサイワイ,0
749,2360001029579,新規,0,2021-11-05,2021-11-05,株式会社テックライズ,,株式会社,沖縄県,豊見城市,字翁長８２８番地１０,,47,212,9010223,,,,,,,2021-11-05,1,,,,,テックライズ,0
750,2360001029587,新規,0,2021-11-05,2021-11-05,株式会社沖縄小高園,,株式会社,沖縄県,那覇市,字安里９１番地１アーバンパレット新都心２０５,,47,201,9020067,,,,,,,2021-11-05,1,,,,,オキナワオダカエン,0
752,2370001047786,新規,0,2021-11-05,2021-11-05,株式会社こにし屋,,株式会社,宮城県,仙台市宮城野区,宮千代３丁目５番地１３号アサダビジネスビル１０１号室,,04,102,9830044,,,,,,,2021-11-05,1,,,,,コニシヤ,0
756,2420001017643,新規,0,2021-11-05,2021-11-05,あきもと農園株式会社,,株式会社,青森県,つがる市,稲垣町繁田赤籏５６番地,,02,209,0370102,,,,,,,2021-11-05,1,,,,,アキモトノウエン,0
757,2420003002404,新規,0,2021-11-05,2021-11-05,合同会社ハシビロ工業,,合同会社,青森県,上北郡おいらせ町,松原２丁目１３２番地２２,,02,412,0392206,,,,,,,2021-11-05,1,,,,,ハシビロコウギョウ,0
759,2430001085276,新規,0,2021-11-05,2021-11-05,株式会社エース,,株式会社,北海道,恵庭市,西松島１８番地１,,01,231,0611400,,,,,,,2021-11-05,1,,,,,エース,0
760,2430001085326,新規,0,2021-11-05,2021-11-05,株式会社バーニーズ,,株式会社,北海道,札幌市豊平区,中の島二条４丁目４－１０中の島コンパウンド９０２号室,,01,105,0620922,,,,,,,2021-11-05,1,,,,,バーニーズ,0
763,2430003013318,新規,0,2021-11-05,2021-11-05,オーソリュート合同会社,,合同会社,北海道,札幌市北区,北三十二条西５丁目３番２８号,,01,102,0010032,,,,,,,2021-11-05,1,,,,,オーソリュート,0
764,2430003013334,新規,0,2021-11-05,2021-11-05,合同会社モリノコ商会,,合同会社,北海道,札幌市中央区,南九条西３丁目２番５号南九条ビル６０３号室,,01,101,0640809,,,,,,,2021-11-05,1,,,,,モリノコショウカイ,0
769,2470001018810,新規,0,2021-11-05,2021-11-05,株式会社かわにし,,株式会社,香川県,高松市,松縄町１１３２番地３,,37,201,7600079,,,,,,,2021-11-05,1,,,,,カワニシ,0
770,2470001018819,新規,0,2021-11-05,2021-11-05,ＧｉｎｇｅｒＵｐ株式会社,,株式会社,香川県,三豊市,豊中町岡本１６５１番地３,,37,208,7691507,,,,,,,2021-11-05,1,,,,,ジンジャーアップ,0
781,2700150105385,新規,0,2021-11-05,2021-10-18,総合エンターテインメント集団「興」,,その他,愛知県,名古屋市中区,栄１丁目３１－１２トーカングランドマンション栄９０８,,23,106,4600008,,,,,,,2021-10-18,1,,,,,ソウゴウエンターテインメントシユウダンオコシ,0
790,3010001222242,新規,0,2021-11-05,2021-11-05,株式会社オープンハウス桐生,,株式会社,東京都,千代田区,丸の内３丁目３番１号,,13,101,1000005,,,,,,,2021-11-05,1,,,,,オープンハウスキリュウ,0
791,3010001222267,新規,0,2021-11-05,2021-11-05,株式会社ＤＬＤ,,株式会社,東京都,千代田区,九段北１丁目１３番５号,,13,101,1020073,,,,,,,2021-11-05,1,,,,,ディーエルディー,0
794,3010003036153,新規,0,2021-11-05,2021-11-05,合同会社横田カントリー倶楽部,,合同会社,東京都,中央区,新川１丁目３番２１号,,13,102,1040033,,,,,,,2021-11-05,1,,,,,ヨコタカンタリークラブ,0
795,3010003036161,新規,0,2021-11-05,2021-11-05,黒崎バイオエナジー合同会社,,合同会社,東京都,千代田区,丸の内２丁目６番１号,,13,101,1000005,,,,,,,2021-11-05,1,,,,,クロサキバイオエナジー,0
796,3010003036194,新規,0,2021-11-05,2021-11-05,七島不動産合同会社,,合同会社,東京都,三宅島三宅村,坪田９６１番地,,13,381,1001211,,,,,,,2021-11-05,1,,,,,シチトウフドウサン,0
797,3010005034171,新規,0,2021-11-05,2021-11-05,ＪＥＲＡ労働組合,,その他の設立登記法人,東京都,中央区,日本橋２丁目５番１号,,13,102,1030027,,,,,,,2021-11-05,1,,,,,ジェラ,0
800,3010401163607,新規,0,2021-11-05,2021-11-05,株式会社Ｈ２ｍ,,株式会社,東京都,港区,東麻布２丁目１５－５アルカディア東麻布Ｂ１,,13,103,1060044,,,,,,,2021-11-05,1,,,,,エイチツーエム,0
801,3010401163631,新規,0,2021-11-05,2021-11-05,株式会社Ａｒｒｏｗｓ,,株式会社,東京都,港区,高輪１丁目１７番１５－８０４号,,13,103,1080074,,,,,,,2021-11-05,1,,,,,アローズ,0
802,3010401163648,新規,0,2021-11-05,2021-11-05,株式会社アンドロソフィー,,株式会社,東京都,港区,南青山２丁目２番１５号,,13,103,1070062,,,,,,,2021-11-05,1,,,,,アンドロソフィー,0
803,3010401163656,新規,0,2021-11-05,2021-11-05,株式会社ｃｕｌｌｉｎａｎ,,株式会社,東京都,港区,赤坂４丁目９番１９号赤坂ＴＯタマビル２階Ｂ,,13,103,1070052,,,,,,,2021-11-05,1,,,,,カリナン,0
804,3010401163680,新規,0,2021-11-05,2021-11-05,ＪＣＰ１株式会社,,株式会社,東京都,港区,東新橋１丁目５番２号汐留シティセンター,,13,103,1050021,,,,,,,2021-11-05,1,,,,,ジェイシーピーワン,0
810,3010403026448,新規,0,2021-11-05,2021-11-05,Ｔ＆Ｆパートナーズ合同会社,,合同会社,東京都,港区,高輪２丁目１番１５－６０３号,,13,103,1080074,,,,,,,2021-11-05,1,,,,,ティーアンドエフパートナーズ,0
817,3010601060166,新規,0,2021-11-05,2021-11-05,株式会社１Ｈ　ｂａｓｉｘ,,株式会社,東京都,江東区,新大橋２丁目１６番１１－３０２号,,13,108,1350007,,,,,,,2021-11-05,1,,,,,ワンエイチベイシックス,0
818,3010603009236,新規,0,2021-11-05,2021-11-05,合同会社ゆいまーる,,合同会社,東京都,江東区,富岡１丁目２２－２８金桜堂ビル２０１,,13,108,1350047,,,,,,,2021-11-05,1,,,,,ユイマール,0
824,3010801032460,新規,0,2021-11-05,2021-11-05,ＯＴＡ株式会社,,株式会社,東京都,大田区,京浜島２丁目１８番１０号,,13,111,1430003,,,,,,,2021-11-05,1,,,,,オーテイーエー,0
828,3010903006924,新規,0,2021-11-05,2021-11-05,トーストファーム合同会社,,合同会社,東京都,世田谷区,上祖師谷４丁目２番３－３０８,,13,112,1570065,,,,,,,2021-11-05,1,,,,,トーストファーム,0
831,3011001143783,新規,0,2021-11-05,2021-11-05,株式会社クランツ,,株式会社,東京都,渋谷区,恵比寿西２丁目４番５号星ビル４階,,13,113,1500021,,,,,,,2021-11-05,1,,,,,クランツ,0
844,3011401023817,新規,0,2021-11-05,2021-11-05,株式会社平井組,,株式会社,東京都,板橋区,赤塚２丁目３６番２０－２０４号室,,13,119,1750092,,,,,,,2021-11-05,1,,,,,ヒライグミ,0
851,3011601025514,新規,0,2021-11-05,2021-11-05,株式会社コンドルキャブ,,株式会社,東京都,練馬区,桜台３丁目１０番８号,,13,120,1760002,,,,,,,2021-11-05,1,,,,,コンドルキャブ,0
852,3011605002410,新規,0,2021-11-05,2021-11-05,医療法人社団順敬会,,その他の設立登記法人,東京都,練馬区,石神井町３丁目２１番９号第３島光ビル４階,,13,120,1770041,,,,,,,2021-11-05,1,,,,,ジュンケイカイ,0
855,3011701024829,新規,0,2021-11-05,2021-11-05,株式会社美Ｔｒｕｓｔ,,株式会社,東京都,江戸川区,西小松川町１８番１２号,,13,123,1320032,,,,,,,2021-11-05,1,,,,,ビトラスト,0
859,3011801039941,新規,0,2021-11-05,2021-11-05,株式会社田嶋解体,,株式会社,東京都,足立区,西新井栄町３丁目１０番１６号,,13,121,1230843,,,,,,,2021-11-05,1,,,,,タジマカイタイ,0
861,3011803004860,新規,0,2021-11-05,2021-11-05,ＷｏＦ合同会社,,合同会社,東京都,葛飾区,立石４丁目３４番１号ボワエトワール立石５０３,,13,122,1240012,,,,,,,2021-11-05,1,,,,,ダブリューオーエフ,0
862,3012301012760,新規,0,2021-11-05,2021-11-05,株式会社Ｒｉｃｅ　Ｖｉｌｌａｇｅ,,株式会社,東京都,町田市,中町１丁目２１番１１号中一ビル４Ｆ,,13,209,1940021,,,,,,,2021-11-05,1,,,,,ライスビレッジ,0
864,3012401038499,新規,0,2021-11-05,2021-11-05,ＯＤＮＫ板金工業株式会社,,株式会社,東京都,府中市,日新町２丁目５番地の１６,,13,206,1830036,,,,,,,2021-11-05,1,,,,,オーディーエヌケーバンキンコウギョウ,0
866,3012703002343,新規,0,2021-11-05,2021-11-05,ウェリナ合同会社,,合同会社,東京都,東久留米市,東本町５番１号,,13,222,2030014,,,,,,,2021-11-05,1,,,,,ウェリナ,0
878,3020001143751,新規,0,2021-11-05,2021-11-05,Ｓブロス株式会社,,株式会社,神奈川県,横浜市中区,本町３丁目３０番地７,,14,104,2310005,,,,,,,2021-11-05,1,,,,,エスブロス,0
879,3020001143768,新規,0,2021-11-05,2021-11-05,ＣｒｅｃＨ株式会社,,株式会社,神奈川県,横浜市南区,前里町２丁目４６番地３,,14,105,2320004,,,,,,,2021-11-05,1,,,,,クレッチ,0
880,3020001143801,新規,0,2021-11-05,2021-11-05,株式会社鈴木工務店,,株式会社,神奈川県,横浜市都筑区,大熊町２８２番地１,,14,118,2240042,,,,,,,2021-11-05,1,,,,,スズキコウムテン,0
885,3020003020759,新規,0,2021-11-05,2021-11-05,ＧｏＫ合同会社,,合同会社,神奈川県,川崎市川崎区,川中島２丁目５番１０号藤田ビル１階,,14,131,2100803,,,,,,,2021-11-05,1,,,,,ゴケイ,0
886,3020003020767,新規,0,2021-11-05,2021-11-05,スイフトコンサルティング合同会社,,合同会社,神奈川県,川崎市川崎区,浅田３丁目１４番９－４号,,14,131,2100847,,,,,,,2021-11-05,1,,,,,スイフトコンサルティング,0
890,3021001074383,新規,0,2021-11-05,2021-11-05,Ｙ・Ｕホールディングス株式会社,,株式会社,神奈川県,厚木市,上依知５１７番地２,,14,212,2430801,,,,,,,2021-11-05,1,,,,,ワイユーホールディングス,0
891,3021001074409,新規,0,2021-11-05,2021-11-05,株式会社ＲｅＬＩＦＥ,,株式会社,神奈川県,相模原市南区,当麻１１９２番地の２,,14,153,2520336,,,,,,,2021-11-05,1,,,,,リライフ,0
892,3021001074417,新規,0,2021-11-05,2021-11-05,株式会社ＮＯＢＵ’Ｓ　Ｃｏｍｐａｎｙ,,株式会社,神奈川県,三浦郡葉山町,一色９４３番地１ＡＴＥＬＩＥＲ９４３Ａ棟１階,,14,301,2400111,,,,,,,2021-11-05,1,,,,,ノブズカンパニー,0
899,3030001144996,新規,0,2021-11-05,2021-11-05,株式会社Ｆｒｅｉｇｈｔ,,株式会社,埼玉県,桶川市,末広２丁目８番２１号,,11,231,3630012,,,,,,,2021-11-05,1,,,,,フライト,0
900,3030001145086,新規,0,2021-11-05,2021-11-05,サツキ株式会社,,株式会社,埼玉県,行田市,大字持田２０８１番地５,,11,206,3610056,,,,,,,2021-11-05,1,,,,,サツキ,0
901,3030001145111,新規,0,2021-11-05,2021-11-05,株式会社ＮＥＸ,,株式会社,埼玉県,白岡市,荒井新田６５番地,,11,246,3490202,,,,,,,2021-11-05,1,,,,,ネックス,0
902,3030001145136,新規,0,2021-11-05,2021-11-05,改新重機株式会社,,株式会社,埼玉県,秩父市,中宮地町２４番１７号,,11,207,3680022,,,,,,,2021-11-05,1,,,,,カイシンジュウキ,0
903,3030001145144,新規,0,2021-11-05,2021-11-05,株式会社田口設備,,株式会社,埼玉県,北足立郡伊奈町,西小針１丁目７番地４７,,11,301,3620811,,,,,,,2021-11-05,1,,,,,タグチセツビ,0
904,3030001145160,新規,0,2021-11-05,2021-11-05,株式会社富士建設,,株式会社,埼玉県,八潮市,大字西袋５５３番地４－２０３号,,11,234,3400833,,,,,,,2021-11-05,1,,,,,フジケンセツ,0
906,3030003018249,新規,0,2021-11-05,2021-11-05,合同会社凪華,,合同会社,埼玉県,朝霞市,本町２丁目８番４１号,,11,227,3510011,,,,,,,2021-11-05,1,,,,,ナカ,0
911,3040001120831,新規,0,2021-11-05,2021-11-05,株式会社リフィックス,,株式会社,千葉県,成田市,郷部１３５０番地花澤ビル２Ｆ,,12,211,2860014,,,,,,,2021-11-05,1,,,,,リフィックス,0
915,3040003018850,新規,0,2021-11-05,2021-11-05,合同会社ＳｍｉｌｅＬｉｎｋｓ,,合同会社,千葉県,木更津市,太田３丁目９番１５号,,12,206,2920044,,,,,,,2021-11-05,1,,,,,スマイルリンクス,0
916,3040003018859,新規,0,2021-11-05,2021-11-05,タケオテック合同会社,,合同会社,千葉県,君津市,南子安４丁目３番１３－８号,,12,225,2991162,,,,,,,2021-11-05,1,,,,,タケオテック,0
919,3050001050094,新規,0,2021-11-05,2021-11-05,株式会社Ｈ２,,株式会社,茨城県,ひたちなか市,大字稲田７４２番地２Ｆ,,08,221,3120061,,,,,,,2021-11-05,1,,,,,エイチツー,0
922,3050003006177,新規,0,2021-11-05,2021-11-05,合同会社楽流人,,合同会社,茨城県,水戸市,酒門町４３２８番地の３９,,08,201,3100841,,,,,,,2021-11-05,1,,,,,ラクルト,0
923,3050003006185,新規,0,2021-11-05,2021-11-05,ＤＹＧ合同会社,,合同会社,茨城県,つくば市,研究学園６丁目６０－１,,08,220,3050817,,,,,,,2021-11-05,1,,,,,ディーワイジー,0
930,3080001024541,新規,0,2021-11-05,2021-11-05,スルガノホールディングス株式会社,,株式会社,静岡県,静岡市清水区,蒲原東１７０番地の１,,22,103,4213201,,,,,,,2021-11-05,1,,,,,スルガノホールディングス,0
938,3090001017263,新規,0,2021-11-05,2021-11-05,株式会社ナカムラ工業所,,株式会社,山梨県,笛吹市,春日居町鎮目１３８番地１３,,19,211,4060015,,,,,,,2021-11-05,1,,,,,ナカムラコウギョウショ,0
954,3120001241537,新規,0,2021-11-05,2021-11-05,株式会社ＢＡＣＫ　ＤＯＯＲ,,株式会社,大阪府,大阪市此花区,西九条１丁目２９番２号５０１,,27,104,5540012,,,,,,,2021-11-05,1,,,,,バックドア,0
955,3120001241561,新規,0,2021-11-05,2021-11-05,ＡＱＵＡ株式会社,,株式会社,大阪府,守口市,大日町１丁目２番１１号２０３号,,27,209,5700003,,,,,,,2021-11-05,1,,,,,アクア,0
956,3120001241652,新規,0,2021-11-05,2021-11-05,タコヤキフィルム株式会社,,株式会社,大阪府,大阪市北区,梅田２丁目５番１３号桜橋第一ビル３０４号,,27,127,5300001,,,,,,,2021-11-05,1,,,,,タコヤキフィルム,0
957,3120001241660,新規,0,2021-11-05,2021-11-05,株式会社ユナイテッドベース,,株式会社,大阪府,大阪市中央区,本町１丁目５番７号西村ビル６０４号室,,27,128,5410053,,,,,,,2021-11-05,1,,,,,ユナイテッドベース,0
958,3120001241669,新規,0,2021-11-05,2021-11-05,株式会社ＩＭＰＲＯＴＥＣ,,株式会社,大阪府,大阪市北区,梅田１丁目２番２号大阪駅前第２ビル２階５－６号室,,27,127,5300001,,,,,,,2021-11-05,1,,,,,インプロテック,0
959,3120001241677,新規,0,2021-11-05,2021-11-05,株式会社Ｒｅｂｏｒｎ,,株式会社,大阪府,大阪市阿倍野区,昭和町２丁目１２番２６号プレミスト１３０３,,27,119,5450011,,,,,,,2021-11-05,1,,,,,リボーン,0
960,3120001241685,新規,0,2021-11-05,2021-11-05,株式会社Ａｒｒｏｗｓ,,株式会社,大阪府,大阪市住吉区,苅田１丁目１４－２４,,27,120,5580011,,,,,,,2021-11-05,1,,,,,アローズ,0
961,3120001241710,新規,0,2021-11-05,2021-11-05,株式会社宮美,,株式会社,大阪府,大阪市西区,江戸堀２丁目６番２５－１１０５号,,27,106,5500002,,,,,,,2021-11-05,1,,,,,ミヤビ,0
963,3120003020526,新規,0,2021-11-05,2021-11-05,Ｏｎｅ　ｆｉｆｔＹ合同会社,,合同会社,大阪府,大阪市淀川区,塚本２丁目１２－５－６０３,,27,123,5320026,,,,,,,2021-11-05,1,,,,,ワンフィフティー,0
964,3120003020550,新規,0,2021-11-05,2021-11-05,合同会社ＤＣ　Ｇｒｏｕｎｄ,,合同会社,大阪府,大阪市東淀川区,東中島１丁目５番７号ルミエール新大阪８０３号,,27,114,5330033,,,,,,,2021-11-05,1,,,,,ディーシーグラウンド,0
965,3120003020559,新規,0,2021-11-05,2021-11-05,合同会社ＳｋｉｌｌＭａｎ,,合同会社,大阪府,大阪市福島区,海老江１丁目５番３０－１２３３号,,27,103,5530001,,,,,,,2021-11-05,1,,,,,スキルマン,0
970,3120101064615,新規,0,2021-11-05,2021-11-05,株式会社好都音,,株式会社,大阪府,泉南市,信達牧野９２７番地の８,,27,228,5900522,,,,,,,2021-11-05,1,,,,,トーオン,0
971,3120103004429,新規,0,2021-11-05,2021-11-05,幸千合同会社,,合同会社,大阪府,富田林市,東板持町３丁目１８番１５号,,27,214,5840046,,,,,,,2021-11-05,1,,,,,コウセン,0
982,3122001035332,新規,0,2021-11-05,2021-11-05,ＡｔｅｌｉｅｒＣＣＣ株式会社,,株式会社,大阪府,東大阪市,高井田２８番３６－４０１号,,27,227,5770053,,,,,,,2021-11-05,1,,,,,アトリエシーシーシー,0
988,3130001070464,新規,0,2021-11-05,2021-11-05,株式会社組紐からく,,株式会社,京都府,京都市上京区,千本通出水上る弁天町３１５番地１７,,26,102,6028168,,,,,,,2021-11-05,1,,,,,クミヒモカラク,0
989,3130001070472,新規,0,2021-11-05,2021-11-05,株式会社Ｒｅｌｉｅｆ,,株式会社,京都府,京都市下京区,月鉾町５９エリッツ四条烏丸ビル９０２,,26,106,6008492,,,,,,,2021-11-05,1,,,,,リリーフ,0
990,3130001070489,新規,0,2021-11-05,2021-11-05,株式会社本倉税制研究会,,株式会社,京都府,宇治市,開町４５番地３１,,26,204,6110026,,,,,,,2021-11-05,1,,,,,モトクラゼイセイケンキュウカイ,0
999,3140001123700,新規,0,2021-11-05,2021-11-05,株式会社Ｙ２プランニング,,株式会社,兵庫県,西宮市,甲陽園若江町５番２６－２０３号,,28,204,6620016,,,,,,,2021-11-05,1,,,,,ワイツープランニング,0
1000,3140001123709,新規,0,2021-11-05,2021-11-05,株式会社Ｊ－ｓｔｙｌｅ,,株式会社,兵庫県,神戸市中央区,中山手通２丁目１３番１２号ランドマークビル神戸４Ｂ,,28,110,6500004,,,,,,,2021-11-05,1,,,,,ジェイスタイル,0
1001,3140001123733,新規,0,2021-11-05,2021-11-05,株式会社ローカライズ,,株式会社,兵庫県,神戸市兵庫区,荒田町１丁目１９番１１号３階,,28,105,6520032,,,,,,,2021-11-05,1,,,,,ローカライズ,0
1002,3140001123758,新規,0,2021-11-05,2021-11-05,幸和工業株式会社,,株式会社,兵庫県,姫路市,余部区上余部７３１番地１,,28,201,6711262,,,,,,,2021-11-05,1,,,,,コウワコウギョウ,0
1003,3140001123766,新規,0,2021-11-05,2021-11-05,ＡＳＳＥＭＢＬＥ株式会社,,株式会社,兵庫県,神戸市灘区,岸地通４丁目１番１５号,,28,102,6570832,,,,,,,2021-11-05,1,,,,,アッセンブル,0
1008,3140003016951,新規,0,2021-11-05,2021-11-05,合同会社ホープ開発,,合同会社,兵庫県,加古川市,野口町古大内１６０番地の１,,28,210,6750014,,,,,,,2021-11-05,1,,,,,ホープカイハツ,0
1011,3150003002538,新規,0,2021-11-05,2021-11-05,合同会社ころろ,,合同会社,奈良県,奈良市,左京２丁目３番地の１ローレルスクエア高の原５－５０４,,29,201,6310801,,,,,,,2021-11-05,1,,,,,コロロ,0
1013,3160003002421,新規,0,2021-11-05,2021-11-05,合同会社Ｋ　Ｃｒａｆｔ　Ｄｅｓｉｇｎ,,合同会社,滋賀県,大津市,湖青１丁目１番地１３,,25,201,5200532,,,,,,,2021-11-05,1,,,,,ケークラフトデザイン,0
1014,3170005006931,新規,0,2021-11-05,2021-11-05,エホバの証人の和歌山市南会衆,,その他の設立登記法人,和歌山県,和歌山市,毛見字南池田３８９番地５,,30,201,6410014,,,,,,,2021-11-05,1,,,,,エホバノショウニンノワカヤマシミナミカイシュウ,0
1019,3180001148537,新規,0,2021-11-05,2021-11-05,株式会社アサイミート,,株式会社,愛知県,名古屋市北区,西味鋺５丁目６３３番地,,23,103,4620016,,,,,,,2021-11-05,1,,,,,アサイミート,0
1020,3180001148553,新規,0,2021-11-05,2021-11-05,ＭＳＲ株式会社,,株式会社,愛知県,名古屋市天白区,鴻の巣１丁目２１０８番地,,23,116,4680003,,,,,,,2021-11-05,1,,,,,エムエスアール,0
1021,3180001148594,新規,0,2021-11-05,2021-11-05,株式会社ビズクロス,,株式会社,愛知県,名古屋市中区,大須１丁目７番１４号パークＩＭビル２Ｆ,,23,106,4600011,,,,,,,2021-11-05,1,,,,,ビズクロス,0
1022,3180001148628,新規,0,2021-11-05,2021-11-05,株式会社一創,,株式会社,愛知県,名古屋市緑区,藤塚２丁目１０３２番地,,23,114,4580813,,,,,,,2021-11-05,1,,,,,カズソウ,0
1023,3180001148660,新規,0,2021-11-05,2021-11-05,株式会社Ａ‐ＳＴＥＰ,,株式会社,愛知県,名古屋市中区,錦２丁目１１番２７号,,23,106,4600003,,,,,,,2021-11-05,1,,,,,エーステップ,0
1027,3180003023143,新規,0,2021-11-05,2021-11-05,ミッケプランニング合同会社,,合同会社,愛知県,名古屋市熱田区,金山町１丁目３－２イトーピア金山マンション１階アンフォーラ内,,23,109,4560002,,,,,,,2021-11-05,1,,,,,ミッケプランニング,0
1028,3180005019503,新規,0,2021-11-05,2021-11-05,一般社団法人寅,,その他の設立登記法人,愛知県,名古屋市南区,内田橋１丁目６番２０号２階,,23,112,4570862,,,,,,,2021-11-05,1,,,,,トラ,0
1039,3190001028845,新規,0,2021-11-05,2021-11-05,株式会社杉岡建設,,株式会社,三重県,鈴鹿市,肥田町１７５番地,,24,207,5130819,,,,,,,2021-11-05,1,,,,,スギオカケンセツ,0
1055,3240001058845,新規,0,2021-11-05,2021-11-05,株式会社関戸無線電機,,株式会社,広島県,福山市,大門町３丁目２６番３５号,,34,207,7210926,,,,,,,2021-11-05,1,,,,,セキトムセンデンキ,0
1056,3250001019235,新規,0,2021-11-05,2021-11-05,株式会社ヘルメスウィングス,,株式会社,山口県,宇部市,常盤台２丁目８番２－１０２号,,35,202,7550097,,,,,,,2021-11-05,1,,,,,ヘルメスウィングス,0
1062,3270001008384,新規,0,2021-11-05,2021-11-05,株式会社児嶋珈琲店,,株式会社,鳥取県,鳥取市,片原５丁目５０３番地エネトピアプラザ内,,31,201,6800023,,,,,,,2021-11-05,1,,,,,コジマコーヒーテン,0
1063,3280001008557,新規,0,2021-11-05,2021-11-05,株式会社タイヤショップ山根,,株式会社,島根県,浜田市,日脚町１０６７番地４,,32,202,6971322,,,,,,,2021-11-05,1,,,,,タイヤショップヤマネ,0
1064,3290001095215,新規,0,2021-11-05,2021-11-05,多々良塗装株式会社,,株式会社,福岡県,大川市,大字津１１３番地３,,40,212,8310035,,,,,,,2021-11-05,1,,,,,タタラトソウ,0
1065,3290001095248,新規,0,2021-11-05,2021-11-05,株式会社ＦＴＴパートナーズ,,株式会社,福岡県,福岡市中央区,薬院２丁目３番４１号,,40,133,8100022,,,,,,,2021-11-05,1,,,,,エフティーティーパートナーズ,0
1066,3290001095289,新規,0,2021-11-05,2021-11-05,株式会社ＦＯＣＵＳ,,株式会社,福岡県,福岡市南区,大橋２丁目１２番１２号,,40,134,8150033,,,,,,,2021-11-05,1,,,,,フォーカス,0
1067,3290003011797,新規,0,2021-11-05,2021-11-05,合同会社ＴＯＫＵＳＯＵ,,合同会社,福岡県,福岡市南区,井尻２丁目３０番３－１０３号レイクタウン井尻Ｂ棟,,40,134,8111302,,,,,,,2021-11-05,1,,,,,トクソウ,0
1070,3290801027961,新規,0,2021-11-05,2021-11-05,株式会社原田建設,,株式会社,福岡県,京都郡みやこ町,犀川喜多良１３０９番地２,,40,625,8240213,,,,,,,2021-11-05,1,,,,,ハラダケンセツ,0
1078,3330001029168,新規,0,2021-11-05,2021-11-05,株式会社エーテックエンジニアリング,,株式会社,熊本県,上天草市,松島町合津７９１５番地１２,,43,212,8616102,,,,,,,2021-11-05,1,,,,,エーテックエンジニアリング,0
1079,3330005010421,新規,0,2021-11-05,2021-11-05,医療法人智実会,,その他の設立登記法人,熊本県,菊池郡菊陽町,大字原水２９０６番地５,,43,404,8691102,,,,,,,2021-11-05,1,,,,,トモミカイ,0
1082,3340003003616,新規,0,2021-11-05,2021-11-05,グラティアス合同会社,,合同会社,鹿児島県,鹿児島市,広木１丁目１１番１３号,,46,201,8900037,,,,,,,2021-11-05,1,,,,,グラティアス,0
1085,3350001017393,新規,0,2021-11-05,2021-11-05,株式会社コードマーク都城,,株式会社,宮崎県,都城市,都北町５９２９番地黒島ビル１０３号室,,45,202,8850004,,,,,,,2021-11-05,1,,,,,コードマークミヤコノジョウ,0
1087,3360001029578,新規,0,2021-11-05,2021-11-05,株式会社仲川電設,,株式会社,沖縄県,島尻郡伊平屋村,字島尻６８番地,,47,359,9050704,,,,,,,2021-11-05,1,,,,,ナカガワデンセツ,0
1088,3360001029586,新規,0,2021-11-05,2021-11-05,株式会社ＡＳＧ,,株式会社,沖縄県,中頭郡嘉手納町,字水釜５４８番地３,,47,325,9040204,,,,,,,2021-11-05,1,,,,,エーエスジー,0
1091,3380001032308,新規,0,2021-11-05,2021-11-05,株式会社ａｓ,,株式会社,福島県,郡山市,安積町荒井字柴宮山２７番地の９,,07,203,9630111,,,,,,,2021-11-05,1,,,,,エーエス,0
1092,3380001032316,新規,0,2021-11-05,2021-11-05,株式会社愛光エナジー,,株式会社,福島県,双葉郡富岡町,大字本岡字清水前１２２番地１７,,07,543,9791151,,,,,,,2021-11-05,1,,,,,アイコウエナジー,0
1097,3400005008193,新規,0,2021-11-05,2021-11-05,一般社団法人北上建設職人協会,,その他の設立登記法人,岩手県,北上市,新穀町１丁目５番４０号,,03,206,0240092,,,,,,,2021-11-05,1,,,,,キタカミケンセツショクニンキョウカイ,0
1100,3420001017642,新規,0,2021-11-05,2021-11-05,十和田ガス工業株式会社,,株式会社,青森県,十和田市,大字赤沼字下平５７７番地,,02,206,0340071,,,,,,,2021-11-05,1,,,,,トワダガスコウギョウ,0
1106,3430001085275,新規,0,2021-11-05,2021-11-05,株式会社アーバン・クラン,,株式会社,北海道,札幌市豊平区,月寒東一条１０丁目６番８号,,01,105,0620051,,,,,,,2021-11-05,1,,,,,アーバンクラン,0
1107,3430001085283,新規,0,2021-11-05,2021-11-05,株式会社野崎重機工業,,株式会社,北海道,札幌市東区,北四十二条東１丁目１番５号,,01,103,0070842,,,,,,,2021-11-05,1,,,,,ノザキジュウキコウギョウ,0
1108,3430001085317,新規,0,2021-11-05,2021-11-05,ＬＩＢＥＲＯ株式会社,,株式会社,北海道,札幌市中央区,南十九条西１５丁目２番－２７　４０２号,,01,101,0640919,,,,,,,2021-11-05,1,,,,,リベロ,0
1120,3500001023789,新規,0,2021-11-05,2021-11-05,野口工業株式会社,,株式会社,愛媛県,西条市,中野甲８８６番地７,,38,206,7930054,,,,,,,2021-11-05,1,,,,,ノグチコウギョウ,0
1122,3700150105252,新規,0,2021-11-05,2021-10-13,相馬ストリートダンス協会,,その他,福島県,相馬市,中村字田町１８,,07,209,9760042,,,,,,,2021-10-13,1,,,,,ソウマストリートダンスキヨウカイ,0
1130,4010001222150,新規,0,2021-11-05,2021-11-05,ワップシステムズ株式会社,,株式会社,東京都,中央区,日本橋横山町１番３号,,13,102,1030003,,,,,,,2021-11-05,1,,,,,ワップシステムズ,0
1131,4010001222200,新規,0,2021-11-05,2021-11-05,株式会社ＲＥＣＯ,,株式会社,東京都,中央区,銀座１丁目１２番４号Ｎ＆ＥＢＬＤ．７階,,13,102,1040061,,,,,,,2021-11-05,1,,,,,レコ,0
1132,4010001222258,新規,0,2021-11-05,2021-11-05,株式会社エストディアン,,株式会社,東京都,千代田区,丸の内２丁目２番１号岸本ビルヂング６階,,13,101,1000005,,,,,,,2021-11-05,1,,,,,エストディアン,0
1134,4010003036160,新規,0,2021-11-05,2021-11-05,合同会社Ｒｉｅｍａｎｎ,,合同会社,東京都,中央区,銀座１丁目１２番４号Ｎ＆ＥＢＬＤ．７階,,13,102,1040061,,,,,,,2021-11-05,1,,,,,リーマン,0
1135,4010003036169,新規,0,2021-11-05,2021-11-05,合同会社ＳＰＣ２,,合同会社,東京都,千代田区,平河町１丁目６番１５号シルスフィア会計事務所内,,13,101,1020093,,,,,,,2021-11-05,1,,,,,エスピーシーツー,0
1136,4010103001808,新規,0,2021-11-05,2021-11-05,古為運送合同会社,,合同会社,東京都,八王子市,狭間町１４５５－５メゾン・ド・ノア狭間２０８号,,13,201,1930941,,,,,,,2021-11-05,1,,,,,フルタメウンソウ,0
1142,4010401163655,新規,0,2021-11-05,2021-11-05,株式会社泉杜,,株式会社,東京都,港区,芝浦１丁目６番４１－１６０２号,,13,103,1050023,,,,,,,2021-11-05,1,,,,,セイント,0
1143,4010401163671,新規,0,2021-11-05,2021-11-05,デーコムビジネスサポート株式会社,,株式会社,東京都,港区,海岸３丁目２３番１９号,,13,103,1080022,,,,,,,2021-11-05,1,,,,,デーコムビジネスサポート,0
1155,4010601060165,新規,0,2021-11-05,2021-11-05,株式会社ガールフレンド,,株式会社,東京都,墨田区,本所１丁目５番１０号,,13,107,1300004,,,,,,,2021-11-05,1,,,,,ガールフレンド,0
1156,4010601060173,新規,0,2021-11-05,2021-11-05,東京会津社中株式会社,,株式会社,東京都,江東区,扇橋２丁目１０番３－３０６号,,13,108,1350011,,,,,,,2021-11-05,1,,,,,トウキョウアイヅシャチュウ,0
1160,4010703005984,新規,0,2021-11-05,2021-11-05,Ａｔｍｏｓｐｈｅｒｅ合同会社,,合同会社,東京都,品川区,西五反田２丁目９番地７号ドルミ五反田４０７号,,13,109,1410031,,,,,,,2021-11-05,1,,,,,アトモスフィア,0
1161,4010703005992,新規,0,2021-11-05,2021-11-05,リスタート合同会社,,合同会社,東京都,品川区,上大崎２丁目１０－１１アビティ目黒４１６,,13,109,1410021,,,,,,,2021-11-05,1,,,,,リスタート,0
1163,4010803003946,新規,0,2021-11-05,2021-11-05,合同会社ＨＵＧＥＮ,,合同会社,東京都,大田区,西蒲田７丁目５８番１号スタイリオ蒲田６０３,,13,111,1440051,,,,,,,2021-11-05,1,,,,,ヒューゲン,0
1164,4010901049726,新規,0,2021-11-05,2021-11-05,株式会社Ｆ－ｓｔｙｌｅ,,株式会社,東京都,世田谷区,南烏山５丁目１８番１５号ＡＮＯＡＴＨ南烏山４Ｆ,,13,112,1570062,,,,,,,2021-11-05,1,,,,,エフスタイル,0
1178,4011001143782,新規,0,2021-11-05,2021-11-05,株式会社ＷＡＴＥＲＴＲＥＥ,,株式会社,東京都,渋谷区,千駄ヶ谷３丁目５番１２号ＥＳビル１Ｆ,,13,113,1510051,,,,,,,2021-11-05,1,,,,,ウオーターツリー,0
1179,4011001143799,新規,0,2021-11-05,2021-11-05,株式会社スーパーデラックスゲームス,,株式会社,東京都,渋谷区,桜丘町２９番３３号渋谷三信マンション６０２号室,,13,113,1500031,,,,,,,2021-11-05,1,,,,,スーパーデラックスゲームス,0
1188,4011101096798,新規,0,2021-11-05,2021-11-05,株式会社Ｃｌａｉｒ　Ｐａｒｔｎｅｒｓ,,株式会社,東京都,新宿区,喜久井町５０番地更輝夏目坂マンション３０２,,13,104,1620044,,,,,,,2021-11-05,1,,,,,クレールパートナーズ,0
1196,4011401023816,新規,0,2021-11-05,2021-11-05,犬と猫の病院ぴーす株式会社,,株式会社,東京都,板橋区,大谷口北町７５番６号,,13,119,1730031,,,,,,,2021-11-05,1,,,,,イヌトネコノビョウインピース,0
1198,4011403003493,新規,0,2021-11-05,2021-11-05,常楽商事合同会社,,合同会社,東京都,板橋区,双葉町１８番３－２０３号,,13,119,1730011,,,,,,,2021-11-05,1,,,,,ジョウラクショウジ,0
1202,4011505002435,新規,0,2021-11-05,2021-11-05,イーライフ司法書士法人,,その他の設立登記法人,東京都,荒川区,西日暮里５丁目２１番６号山本ビル３階,,13,118,1160013,,,,,,,2021-11-05,1,,,,,イーライフ,0
1205,4011701024828,新規,0,2021-11-05,2021-11-05,株式会社テイクエム,,株式会社,東京都,江戸川区,東葛西１丁目５番１－９０２号,,13,123,1340084,,,,,,,2021-11-05,1,,,,,テイクエム,0
1210,4012401038507,新規,0,2021-11-05,2021-11-05,株式会社ＳｉＲＯ,,株式会社,東京都,武蔵野市,吉祥寺本町１丁目１０番５号吉祥寺公園通りビル６Ｆ,,13,203,1800004,,,,,,,2021-11-05,1,,,,,シロ,0
1212,4012405004661,新規,0,2021-11-05,2021-11-05,一般社団法人世田Ｏくらぶ,,その他の設立登記法人,東京都,狛江市,中和泉３丁目２３番７号,,13,219,2010012,,,,,,,2021-11-05,1,,,,,セタワクラブ,0
1217,4020001143742,新規,0,2021-11-05,2021-11-05,株式会社ミロワール,,株式会社,神奈川県,川崎市川崎区,東扇島３８番地１,,14,131,2100869,,,,,,,2021-11-05,1,,,,,ミロワール,0
1222,4020003020758,新規,0,2021-11-05,2021-11-05,ＵＬＴＲＡ　ＳＯＣＩＡＬ合同会社,,合同会社,神奈川県,横浜市西区,西戸部町２丁目１４５－５,,14,103,2200046,,,,,,,2021-11-05,1,,,,,ウルトラソーシャル,0
1223,4020005015260,新規,0,2021-11-05,2021-11-05,一般社団法人神奈川県ｅスポーツ連合,,その他の設立登記法人,神奈川県,横浜市中区,桜木町１丁目１番８号,,14,104,2310062,,,,,,,2021-11-05,1,,,,,カナガワケンイースポーツレンゴウ,0
1228,4021001074366,新規,0,2021-11-05,2021-11-05,株式会社ゼストリビング,,株式会社,神奈川県,厚木市,寿町３丁目１０番３号ＹＮビル２階Ｂ号室,,14,212,2430003,,,,,,,2021-11-05,1,,,,,ゼストリビング,0
1229,4021001074382,新規,0,2021-11-05,2021-11-05,株式会社坂上電機,,株式会社,神奈川県,伊勢原市,串橋８８番地の２,,14,214,2591136,,,,,,,2021-11-05,1,,,,,サカガミデンキ,0
1230,4021001074399,新規,0,2021-11-05,2021-11-05,株式会社ＴＭＤ,,株式会社,神奈川県,藤沢市,善行坂１丁目１番２２－２０９号,,14,205,2510876,,,,,,,2021-11-05,1,,,,,ティーエムディー,0
1231,4021001074408,新規,0,2021-11-05,2021-11-05,株式会社ヨシノホールディングス,,株式会社,神奈川県,愛甲郡愛川町,中津６７５２番地１,,14,401,2430303,,,,,,,2021-11-05,1,,,,,ヨシノホールディングス,0
1232,4021001074440,新規,0,2021-11-05,2021-11-05,株式会社Ｇｏｏｄｗａｖｅ,,株式会社,神奈川県,藤沢市,片瀬海岸３丁目２３－１８－２１６,,14,205,2510035,,,,,,,2021-11-05,1,,,,,グッドウェーブ,0
1235,4021003011045,新規,0,2021-11-05,2021-11-05,合同会社Ｋｅｎｔｙ　Ｗｈｉｔｅ　Ｍｏｔｏｒｓ,,合同会社,神奈川県,大和市,南林間８丁目２１番９号グリーンフラット１０３号,,14,213,2420006,,,,,,,2021-11-05,1,,,,,ケンティホワイトモーターズ,0
1241,4030001145110,新規,0,2021-11-05,2021-11-05,ＹＢＳ株式会社,,株式会社,埼玉県,入間市,宮寺２６１５番地１,,11,225,3580014,,,,,,,2021-11-05,1,,,,,ワイビーエス,0
1242,4030001145168,新規,0,2021-11-05,2021-11-05,株式会社ａｔｅｌｉｅｒ　ＮＡＬＵ,,株式会社,埼玉県,さいたま市見沼区,東大宮４丁目２６番地３鯨井ビル１Ｆ,,11,104,3370051,,,,,,,2021-11-05,1,,,,,アトリエナルー,0
1243,4030003018248,新規,0,2021-11-05,2021-11-05,ライトスタッフ合同会社,,合同会社,埼玉県,飯能市,大字岩沢１０番地１,,11,209,3570023,,,,,,,2021-11-05,1,,,,,ライトスタッフ,0
1244,4030003018272,新規,0,2021-11-05,2021-11-05,浩源合同会社,,合同会社,埼玉県,川口市,西川口１丁目３０番２０－４１２号,,11,203,3320021,,,,,,,2021-11-05,1,,,,,コウゲン,0
1252,4040001120863,新規,0,2021-11-05,2021-11-05,株式会社ハズキ,,株式会社,千葉県,千葉市緑区,おゆみ野１丁目４０番地３,,12,105,2660031,,,,,,,2021-11-05,1,,,,,ハズキ,0
1253,4040001120913,新規,0,2021-11-05,2021-11-05,株式会社お家ごはん,,株式会社,千葉県,柏市,若柴１７８番地４柏の葉キャンパス１４８街区２ショップ＆オフィス棟６Ｆ,,12,217,2770871,,,,,,,2021-11-05,1,,,,,オウチゴハン,0
1260,4050001050069,新規,0,2021-11-05,2021-11-05,株式会社２４－７デザインｓ,,株式会社,茨城県,結城市,大字結城５８６０番地３８,,08,207,3070001,,,,,,,2021-11-05,1,,,,,トゥエンティーフォーセブンデザインズ,0
1261,4050001050077,新規,0,2021-11-05,2021-11-05,株式会社ＷＩＮＤ’Ｓ,,株式会社,茨城県,土浦市,真鍋２丁目４番１３号,,08,203,3000051,,,,,,,2021-11-05,1,,,,,ウインズ,0
1265,4070001038616,新規,0,2021-11-05,2021-11-05,ＧＬＯＢＡＬ　ＴＲＡＤＩＮＧ株式会社,,株式会社,群馬県,太田市,粕川町１２番地１２,,10,205,3700421,,,,,,,2021-11-05,1,,,,,グローバルトレーディング,0
1273,4080101022898,新規,0,2021-11-05,2021-11-05,株式会社ソウテック,,株式会社,静岡県,駿東郡長泉町,中土狩７４８番地の２,,22,342,4110942,,,,,,,2021-11-05,1,,,,,ソウテック,0
1274,4080103002452,新規,0,2021-11-05,2021-11-05,合同会社ＨｈＭ,,合同会社,静岡県,富士市,永田町１丁目４番地,,22,210,4170055,,,,,,,2021-11-05,1,,,,,エイチエイチエム,0
1280,4090001017262,新規,0,2021-11-05,2021-11-05,株式会社志村電装,,株式会社,山梨県,南巨摩郡富士川町,大椚１８４番地,,19,368,4000506,,,,,,,2021-11-05,1,,,,,シムラデンソウ,0
1290,4110005016729,新規,0,2021-11-05,2021-11-05,一般社団法人長岡六花スポーツクラブ,,その他の設立登記法人,新潟県,長岡市,新町２丁目２番２１号,,15,202,9400023,,,,,,,2021-11-05,1,,,,,ナガオカロッカスポーツクラブ,0
1299,4120001241569,新規,0,2021-11-05,2021-11-05,南風株式会社,,株式会社,大阪府,大阪市都島区,東野田町５丁目３番４１－４０２号,,27,102,5340024,,,,,,,2021-11-05,1,,,,,ナンプウ,0
1300,4120001241668,新規,0,2021-11-05,2021-11-05,株式会社ワイコネクト,,株式会社,大阪府,大阪市福島区,玉川２丁目３番１６－１３６号,,27,103,5530004,,,,,,,2021-11-05,1,,,,,ワイコネクト,0
1301,4120001241692,新規,0,2021-11-05,2021-11-05,株式会社８８Ｐｌｕｓ,,株式会社,大阪府,大阪市西成区,花園南１丁目３番１１号花園ビル４階,,27,122,5570015,,,,,,,2021-11-05,1,,,,,ハチハチプラス,0
1302,4120001241701,新規,0,2021-11-05,2021-11-05,株式会社ＣＲＥＡＳ,,株式会社,大阪府,大阪市中央区,瓦町４丁目６番８号ローレルタワー御堂筋本町９０５号,,27,128,5410048,,,,,,,2021-11-05,1,,,,,クレアス,0
1306,4120003020525,新規,0,2021-11-05,2021-11-05,ＲａｉｎＢｒｏｓ合同会社,,合同会社,大阪府,大阪市北区,豊崎３丁目１６番１６－１１０１号,,27,127,5310072,,,,,,,2021-11-05,1,,,,,レインブロズ,0
1307,4120003020533,新規,0,2021-11-05,2021-11-05,Ａｋａｚｏｎ合同会社,,合同会社,大阪府,枚方市,茄子作１丁目５番２６号,,27,210,5730071,,,,,,,2021-11-05,1,,,,,アカゾン,0
1309,4120101064572,新規,0,2021-11-05,2021-11-05,統望株式会社,,株式会社,大阪府,松原市,北新町５丁目１３７番地の１（３０２号）,,27,217,5800025,,,,,,,2021-11-05,1,,,,,トウホウ,0
1310,4120101064589,新規,0,2021-11-05,2021-11-05,株式会社竹本設備工業,,株式会社,大阪府,泉佐野市,日根野５８００番地の２,,27,213,5980021,,,,,,,2021-11-05,1,,,,,タケモトセツビコウギョウ,0
1312,4120901045128,新規,0,2021-11-05,2021-11-05,株式会社ステラプロパティ,,株式会社,大阪府,高槻市,緑町１７番８号,,27,207,5690094,,,,,,,2021-11-05,1,,,,,ステラプロパティ,0
1313,4120901045136,新規,0,2021-11-05,2021-11-05,株式会社ハレルヤワークス,,株式会社,大阪府,吹田市,千里丘北１番２６－２０２号,,27,205,5650815,,,,,,,2021-11-05,1,,,,,ハレルヤワークス,0
1314,4120901045152,新規,0,2021-11-05,2021-11-05,株式会社ＦＳＤＬ,,株式会社,大阪府,吹田市,南吹田５丁目２９番１８号第二田辺ビル,,27,205,5640043,,,,,,,2021-11-05,1,,,,,エフエスディーエル,0
1315,4120901045160,新規,0,2021-11-05,2021-11-05,株式会社ズィーズィーモータースポーツ,,株式会社,大阪府,茨木市,宮島３丁目３番４号,,27,211,5670853,,,,,,,2021-11-05,1,,,,,ズィーズィーモータースポーツ,0
1320,4122001035323,新規,0,2021-11-05,2021-11-05,松栄木材株式会社,,株式会社,大阪府,八尾市,八尾木北１丁目４０番地,,27,212,5810016,,,,,,,2021-11-05,1,,,,,ショウエイモクザイ,0
1325,4130001070463,新規,0,2021-11-05,2021-11-05,株式会社三ツ丸ホールディングス,,株式会社,京都府,福知山市,篠尾新町３丁目１１６番１,,26,201,6200055,,,,,,,2021-11-05,1,,,,,ミツマルホールディングス,0
1326,4130003007579,新規,0,2021-11-05,2021-11-05,合同会社ＡＺＤ,,合同会社,京都府,宇治市,槇島町落合１１８番地の９,,26,204,6110041,,,,,,,2021-11-05,1,,,,,エーゼットディー,0
1327,4130005016306,新規,0,2021-11-05,2021-11-05,一般社団法人一草一木,,その他の設立登記法人,京都府,京都市上京区,釜座通丸太町上る夷川町３８０番地２シュワルベ６０５号室,,26,102,6028032,,,,,,,2021-11-05,1,,,,,イッソウイチモク,0
1330,4140001123732,新規,0,2021-11-05,2021-11-05,株式会社健塗,,株式会社,兵庫県,神戸市垂水区,名谷町１５０７番地の５,,28,108,6550852,,,,,,,2021-11-05,1,,,,,ケント,0
1331,4140001123740,新規,0,2021-11-05,2021-11-05,株式会社ＢｅｎｉＷｅｌｌ,,株式会社,兵庫県,神戸市中央区,浪花町５６起業プラザひょうご内,,28,110,6500035,,,,,,,2021-11-05,1,,,,,ベニウェル,0
1332,4140001123749,新規,0,2021-11-05,2021-11-05,株式会社清商店,,株式会社,兵庫県,三田市,中内神９４８番地１,,28,219,6691334,,,,,,,2021-11-05,1,,,,,セイショウテン,0
1333,4140001123757,新規,0,2021-11-05,2021-11-05,株式会社Ｂｅｉｎｇ　ｗｉｔｈ　ｙｏｕ,,株式会社,兵庫県,神戸市中央区,加納町６丁目３番１－２５０２号,,28,110,6500001,,,,,,,2021-11-05,1,,,,,ビーングウィズユー,0
1334,4140001123781,新規,0,2021-11-05,2021-11-05,株式会社和音,,株式会社,兵庫県,姫路市,大塩町汐咲３丁目１２番地１７,,28,201,6710102,,,,,,,2021-11-05,1,,,,,ワオン,0
1337,4150003002537,新規,0,2021-11-05,2021-11-05,合同会社Ｓｌａｐｓ,,合同会社,奈良県,御所市,大字幸町１５５番地の１４,,29,208,6392314,,,,,,,2021-11-05,1,,,,,スラップス,0
1351,4180001148552,新規,0,2021-11-05,2021-11-05,株式会社スズム,,株式会社,愛知県,北名古屋市,沖村権現２２番地,,23,234,4810043,,,,,,,2021-11-05,1,,,,,スズム,0
1352,4180001148602,新規,0,2021-11-05,2021-11-05,株式会社キリオス,,株式会社,愛知県,名古屋市東区,新出来２丁目１番７号,,23,102,4610038,,,,,,,2021-11-05,1,,,,,キリオス,0
1353,4180001148619,新規,0,2021-11-05,2021-11-05,名古屋天愛ペットセレモニー株式会社,,株式会社,愛知県,名古屋市西区,笹塚町２丁目７０番地,,23,104,4510077,,,,,,,2021-11-05,1,,,,,ナゴヤテンアイペットセレモニー,0
1354,4180001148643,新規,0,2021-11-05,2021-11-05,株式会社ＦｕｌｕｌＵ,,株式会社,愛知県,名古屋市中川区,中郷５丁目９２番地の１,,23,110,4540921,,,,,,,2021-11-05,1,,,,,フルル,0
1358,4180003023167,新規,0,2021-11-05,2021-11-05,ＩＳＤ合同会社,,合同会社,愛知県,北名古屋市,徳重小崎１４番地,,23,234,4810038,,,,,,,2021-11-05,1,,,,,アイエスディー,0
1359,4180005019493,新規,0,2021-11-05,2021-11-05,一般社団法人地域介護お助け隊,,その他の設立登記法人,愛知県,東海市,富木島町伏見２丁目２３番地５,,23,222,4760012,,,,,,,2021-11-05,1,,,,,チイキカイゴオタスケタイ,0
1360,4180005019502,新規,0,2021-11-05,2021-11-05,ａｎｄＬＥＧＡＬ弁護士法人,,その他の設立登記法人,愛知県,名古屋市中区,錦３丁目５番３０号三晃錦ビル９階,,23,106,4600003,,,,,,,2021-11-05,1,,,,,アンドリーガル,0
1367,4200001039385,新規,0,2021-11-05,2021-11-05,株式会社ｗｉｎｇｂｅａｔ,,株式会社,岐阜県,岐阜市,蔵前７丁目１１番１３号,,21,201,5008233,,,,,,,2021-11-05,1,,,,,ウイングビート,0
1376,4210001018685,新規,0,2021-11-05,2021-11-05,株式会社Ｓ．Ｓマネジメント福井,,株式会社,福井県,福井市,和田東２丁目１７１１番地,,18,201,9188237,,,,,,,2021-11-05,1,,,,,エスエスマネジメントフクイ,0
1380,4220001024501,新規,0,2021-11-05,2021-11-05,株式会社ＰＯＬＡＲＩＳ,,株式会社,石川県,金沢市,小立野１丁目５－１小立野センチュリー４０６号室,,17,201,9200942,,,,,,,2021-11-05,1,,,,,ポラリス,0
1383,4230001019079,新規,0,2021-11-05,2021-11-05,Ｋ’ｓホールディングス株式会社,,株式会社,富山県,富山市,赤田６９４番地２,,16,201,9398064,,,,,,,2021-11-05,1,,,,,ケーズホールディングス,0
1388,4240001058852,新規,0,2021-11-05,2021-11-05,株式会社ＣＯＶＥＲ,,株式会社,広島県,広島市中区,竹屋町１番２４号,,34,101,7300048,,,,,,,2021-11-05,1,,,,,カバー,0
1399,4260001036179,新規,0,2021-11-05,2021-11-05,ＫＫシステム株式会社,,株式会社,岡山県,岡山市中区,中納言町６番２３号ビウェル中納言ＩＩ１１０２,00124767,33,102,7038292,,,,,,,2021-11-05,1,,,,,ケーケーシステム,0
1411,4290001095239,新規,0,2021-11-05,2021-11-05,株式会社ＧＲテック,,株式会社,福岡県,福岡市西区,拾六町５丁目４３１番地,,40,135,8190041,,,,,,,2021-11-05,1,,,,,ジーアールテック,0
1412,4290001095255,新規,0,2021-11-05,2021-11-05,株式会社アナライズコンサルティング,,株式会社,福岡県,福岡市中央区,大名２丁目９番２９号第２プリンスビル８０９号,,40,133,8100041,,,,,,,2021-11-05,1,,,,,アナライズコンサルティング,0
1416,4290005018410,新規,0,2021-11-05,2021-11-05,社会保険労務士法人ステラ,,その他の設立登記法人,福岡県,福岡市中央区,大名２丁目９番２９－４０８号,,40,133,8100041,,,,,,,2021-11-05,1,,,,,ステラ,0
1417,4290801027952,新規,0,2021-11-05,2021-11-05,株式会社ＴＫＤ,,株式会社,福岡県,北九州市小倉北区,高坊２丁目９番２５－２０４号,,40,106,8020053,,,,,,,2021-11-05,1,,,,,ティーケイディー,0
1418,4290801027960,新規,0,2021-11-05,2021-11-05,株式会社クリエイションケア,,株式会社,福岡県,北九州市小倉北区,井堀４丁目８番１９号,,40,106,8030835,,,,,,,2021-11-05,1,,,,,クリエイションケア,0
1420,4300001012687,新規,0,2021-11-05,2021-11-05,サンクスラボキャリア株式会社,,株式会社,佐賀県,佐賀市,金立町大字金立１９５７番地７,,41,201,8490906,,,,,,,2021-11-05,1,,,,,サンクスラボキャリア,0
1421,4300001012695,新規,0,2021-11-05,2021-11-05,株式会社ネオテック,,株式会社,佐賀県,伊万里市,大坪町乙４２番地８,,41,205,8480022,,,,,,,2021-11-05,1,,,,,ネオテック,0
1422,4320001018716,新規,0,2021-11-05,2021-11-05,株式会社大塚建設,,株式会社,大分県,豊後大野市,三重町小坂４００１番地４,,44,212,8797104,,,,,,,2021-11-05,1,,,,,オオツカケンセツ,0
1426,4330001029142,新規,0,2021-11-05,2021-11-05,ＴＫコンサルタント株式会社,,株式会社,熊本県,熊本市中央区,西子飼町４番８号,,43,101,8600853,,,,,,,2021-11-05,1,,,,,ティーケイコンサルタント,0
1427,4330001029167,新規,0,2021-11-05,2021-11-05,株式会社エヌシス,,株式会社,熊本県,人吉市,下林町１９７９番地７,,43,203,8680083,,,,,,,2021-11-05,1,,,,,エヌシス,0
1432,4340001024225,新規,0,2021-11-05,2021-11-05,株式会社心葉,,株式会社,鹿児島県,指宿市,開聞仙田３９１５番地１,,46,210,8910604,,,,,,,2021-11-05,1,,,,,ココハ,0
1433,4340001024241,新規,0,2021-11-05,2021-11-05,株式会社イワモト工務店,,株式会社,鹿児島県,鹿児島市,坂元町８０５番地７,,46,201,8920862,,,,,,,2021-11-05,1,,,,,イワモトコウムテン,0
1434,4340003003623,新規,0,2021-11-05,2021-11-05,合同会社ｔａｔａ,,合同会社,鹿児島県,鹿屋市,野里町３１２９,,46,203,8930055,,,,,,,2021-11-05,1,,,,,タタ,0
1438,4350001017392,新規,0,2021-11-05,2021-11-05,株式会社岩戸精米,,株式会社,宮崎県,西臼杵郡高千穂町,大字三田井４９６８番地７,,45,441,8821101,,,,,,,2021-11-05,1,,,,,イワトセイマイ,0
1439,4360001029577,新規,0,2021-11-05,2021-11-05,株式会社式典社,,株式会社,沖縄県,豊見城市,字座安３６５番地,,47,212,9010221,,,,,,,2021-11-05,1,,,,,シキテンシャ,0
1440,4360001029602,新規,0,2021-11-05,2021-11-05,株式会社ＣＲＩ＆Ｃ,,株式会社,沖縄県,那覇市,久茂地１丁目１番地１－９階,,47,201,9000015,,,,,,,2021-11-05,1,,,,,クールリュウキュウインベストメントアンドコンサルティング,0
1444,4380001032307,新規,0,2021-11-05,2021-11-05,株式会社赤塚,,株式会社,福島県,いわき市,平赤井字大作場１３番地,,07,204,9793131,,,,,,,2021-11-05,1,,,,,アカツカ,0
1447,4380003005046,新規,0,2021-11-05,2021-11-05,合同会社ＴＯＫＵ,,合同会社,福島県,南相馬市,原町区大木戸字西原５番地１,,07,212,9750061,,,,,,,2021-11-05,1,,,,,トク,0
1448,4390001016671,新規,0,2021-11-05,2021-11-05,株式会社平林,,株式会社,山形県,長井市,勧進代２４５番地,,06,209,9930064,,,,,,,2021-11-05,1,,,,,ヘイリン,0
1453,4420001017641,新規,0,2021-11-05,2021-11-05,株式会社アライズＭＴ,,株式会社,青森県,八戸市,東白山台３丁目１７番１３号,,02,203,0391111,,,,,,,2021-11-05,1,,,,,アライズエムティ,0
1458,4430001085282,新規,0,2021-11-05,2021-11-05,株式会社Ｍｉｒｒｉｓｏライフ,,株式会社,北海道,札幌市西区,西野九条４丁目６番４３号,,01,107,0630039,,,,,,,2021-11-05,1,,,,,ミリーソライフ,0
1459,4430001085290,新規,0,2021-11-05,2021-11-05,株式会社晃栄プランニング,,株式会社,北海道,札幌市清田区,北野四条４丁目２６番２７号,,01,110,0040864,,,,,,,2021-11-05,1,,,,,コウエイプランニング,0
1460,4430001085324,新規,0,2021-11-05,2021-11-05,株式会社ｆｒｅｅ　ｕｐ,,株式会社,北海道,札幌市東区,北二十七条東２丁目２番１４号,,01,103,0650027,,,,,,,2021-11-05,1,,,,,フリーアップ,0
1462,4430003013324,新規,0,2021-11-05,2021-11-05,合同会社昇龍,,合同会社,北海道,伊達市,中稀府１０８番地４,,01,233,0520000,,,,,,,2021-11-05,1,,,,,ショウリュウ,0
1464,4450003002151,新規,0,2021-11-05,2021-11-05,合同会社みなまる,,合同会社,北海道,旭川市,豊岡三条３丁目１番４号,,01,204,0788233,,,,,,,2021-11-05,1,,,,,ミナマル,0
1471,4500001023788,新規,0,2021-11-05,2021-11-05,株式会社ワイエス工務店,,株式会社,愛媛県,松山市,千舟町４丁目３番地７青野ビル１階,,38,201,7900011,,,,,,,2021-11-05,1,,,,,ワイエスコウムテン,0
1472,4500003002716,新規,0,2021-11-05,2021-11-05,愛石表面処理工業合同会社,,合同会社,愛媛県,松山市,北吉田町７７番地,,38,201,7918041,,,,,,,2021-11-05,1,,,,,アイセキヒョウメンショリコウギョウ,0
1473,4700150105251,新規,0,2021-11-05,2021-10-13,Ｔｗｉｎｋｌｅ　Ｃｏｎｃｅｒｔ実行委員会,,その他,福島県,相馬市,中村字塚田６２復興支援センターＭＩＲＡＩ内,,07,209,9760042,,,,,,,2021-10-13,1,,,,,トウインクルコンサートジツコウイインカイ,0
1474,4700150105565,新規,0,2021-11-05,2021-11-01,エクセラート松ノ浜　管理組合,,その他,大阪府,泉大津市,助松町３丁目１－１５,,27,206,5950071,,,,,,,2021-11-01,1,,,,,エクセラートマツノハマカンリクミアイ,0
1484,5010001222190,新規,0,2021-11-05,2021-11-05,株式会社２ｊｋ,,株式会社,東京都,中央区,銀座５丁目９番１７号銀座あづまビル２階,,13,102,1040061,,,,,,,2021-11-05,1,,,,,ツージェイケー,0
1485,5010001222232,新規,0,2021-11-05,2021-11-05,株式会社ＲＥＩＺＩＮ　ＦＯＲＥＸ,,株式会社,東京都,中央区,銀座１丁目２２番１１号,,13,102,1040061,,,,,,,2021-11-05,1,,,,,レイジンフォレックス,0
1486,5010005034178,新規,0,2021-11-05,2021-11-05,一般社団法人人間能力開発機構,,その他の設立登記法人,東京都,千代田区,神田三崎町３丁目３番２０号ＶＯＲＴ水道橋ＩＩ－２階,00124773,13,101,1010061,,,,,,,2021-11-05,1,,,,,ニンゲンノウリョクカイハツキコウ,0
1489,5010101014942,新規,0,2021-11-05,2021-11-05,株式会社Ｅｍｔｒａｎｓｅ,,株式会社,東京都,八王子市,南町９番１０－４０６号,,13,201,1920072,,,,,,,2021-11-05,1,,,,,エントランス,0
1490,5010103001798,新規,0,2021-11-05,2021-11-05,合同会社ティーツーファーム,,合同会社,東京都,八王子市,四谷町５５９－９－１０２号,,13,201,1930813,,,,,,,2021-11-05,1,,,,,ティーツーファーム,0
1499,5010401163596,新規,0,2021-11-05,2021-11-05,株式会社Ｆｉｌａｍｅｎｔクリエイティブ,,株式会社,東京都,港区,北青山２丁目１２番３３号ＡＣＮ青山テラス１階,,13,103,1070061,,,,,,,2021-11-05,1,,,,,フィラメントクリエイティブ,0
1500,5010401163654,新規,0,2021-11-05,2021-11-05,株式会社三景リフォーム,,株式会社,東京都,港区,浜松町２丁目２番１５号浜松町ダイヤビル,,13,103,1050013,,,,,,,2021-11-05,1,,,,,サンケイリフォーム,0
1501,5010401163670,新規,0,2021-11-05,2021-11-05,Ｂ－Ｌｉｇｈｔ株式会社,,株式会社,東京都,港区,新橋５丁目６番４号トゥシェ新橋３０３号,,13,103,1050004,,,,,,,2021-11-05,1,,,,,ブライト,0
1503,5010403026462,新規,0,2021-11-05,2021-11-05,ＭＣＭＩＶＭＣＭＩＸ合同会社,,合同会社,東京都,港区,浜松町２丁目２番１５号浜松町ダイヤビル２Ｆ,,13,103,1050013,,,,,,,2021-11-05,1,,,,,エムシーエムアイエムアイヴィエムシーエムアイエックス,0
1507,5010601060164,新規,0,2021-11-05,2021-11-05,株式会社クリエイティブ・ラボ,,株式会社,東京都,江東区,豊洲５丁目６番５２号,,13,108,1350061,,,,,,,2021-11-05,1,,,,,クリエイティブラボ,0
1511,5010703005983,新規,0,2021-11-05,2021-11-05,ＬｕｘＡｅｔｅｒｎａ合同会社,,合同会社,東京都,品川区,西五反田２丁目９番地７号ドルミ五反田４０７号,,13,109,1410031,,,,,,,2021-11-05,1,,,,,ルクスエテルナ,0
1512,5010703005991,新規,0,2021-11-05,2021-11-05,ミール合同会社,,合同会社,東京都,品川区,大崎４丁目１２番１３号,,13,109,1410032,,,,,,,2021-11-05,1,,,,,ミール,0
1513,5010801032467,新規,0,2021-11-05,2021-11-05,株式会社エクストリーム,,株式会社,東京都,大田区,蒲田４丁目１５－１２－３０２,,13,111,1440052,,,,,,,2021-11-05,1,,,,,エクストリーム,0
1514,5010803003945,新規,0,2021-11-05,2021-11-05,Ｖｉｓｉｏｎａｒｙ　Ｅｎｇｉｎｅ合同会社,,合同会社,東京都,大田区,南千束２丁目３１－８－１０７,,13,111,1450063,,,,,,,2021-11-05,1,,,,,ビジョナリーエンジン,0
1519,5010901049725,新規,0,2021-11-05,2021-11-05,株式会社セイゾー,,株式会社,東京都,世田谷区,三宿２丁目３８番３号,,13,112,1540005,,,,,,,2021-11-05,1,,,,,セイゾー,0
1529,5011001143807,新規,0,2021-11-05,2021-11-05,株式会社ＢＯＵＲＧＥＯＩＳ,,株式会社,東京都,渋谷区,宇田川町３番７号ヒューリック渋谷公園通りビル５Ｆ,,13,113,1500042,,,,,,,2021-11-05,1,,,,,ブルジョワ,0
1530,5011101096780,新規,0,2021-11-05,2021-11-05,株式会社トーキョーヤオヨロズ,,株式会社,東京都,新宿区,新宿５丁目１３番５号ドルチェ新宿ビル３階,,13,104,1600022,,,,,,,2021-11-05,1,,,,,トーキョーヤオヨロズ,0
1531,5011101096789,新規,0,2021-11-05,2021-11-05,株式会社Ｉｎ　Ｓｔｙｌｅ　Ｔｒａｄｉｎｇ,,株式会社,東京都,新宿区,百人町２丁目２番１号カイダ第７ビル４Ｆ,,13,104,1690073,,,,,,,2021-11-05,1,,,,,インスタイルトレーディング,0
1532,5011105010036,新規,0,2021-11-05,2021-11-05,一般社団法人カスタマーサクセス推進協会,,その他の設立登記法人,東京都,新宿区,袋町８アルファホームズ新神楽坂アスティオン１１０２号,,13,104,1620828,,,,,,,2021-11-05,1,,,,,カスタマーサクセススイシンキョウカイ,0
1537,5011701024819,新規,0,2021-11-05,2021-11-05,翔輝ＥＸ株式会社,,株式会社,東京都,江戸川区,中葛西２丁目３番１３号スターコーポＳ１０２,,13,123,1340083,,,,,,,2021-11-05,1,,,,,ショウキイーエックス,0
1540,5011801039915,新規,0,2021-11-05,2021-11-05,株式会社Ｓｕｎ’ｓ　Ｔｈｉｎｋ,,株式会社,東京都,足立区,梅島１丁目９番１３号中村ビル,,13,121,1210816,,,,,,,2021-11-05,1,,,,,サンズシンク,0
1545,5012401038497,新規,0,2021-11-05,2021-11-05,株式会社双葉苑,,株式会社,東京都,調布市,深大寺元町４丁目１２番地１８,,13,208,1820017,,,,,,,2021-11-05,1,,,,,フタバエン,0
1546,5012803002638,新規,0,2021-11-05,2021-11-05,合同会社ミドル,,合同会社,東京都,国分寺市,南町３丁目１１番１２号コンフォール５０２,,13,214,1850021,,,,,,,2021-11-05,1,,,,,ミドル,0
1560,5020001143725,新規,0,2021-11-05,2021-11-05,株式会社ナチュレマルセイ,,株式会社,神奈川県,横浜市都筑区,北山田３丁目２７番２－７０４号,,14,118,2240021,,,,,,,2021-11-05,1,,,,,ナチュレマルセイ,0
1561,5020001143766,新規,0,2021-11-05,2021-11-05,カルチャーガードナー株式会社,,株式会社,神奈川県,横浜市青葉区,奈良４丁目１番地１ルクサージュあおば山の手台Ｂ棟,,14,117,2270038,,,,,,,2021-11-05,1,,,,,カルチャーガードナー,0
1562,5020003020757,新規,0,2021-11-05,2021-11-05,インプレッションエス合同会社,,合同会社,神奈川県,横浜市金沢区,六浦３丁目９番５号,,14,108,2360031,,,,,,,2021-11-05,1,,,,,インプレッションエス,0
1566,5021001074381,新規,0,2021-11-05,2021-11-05,株式会社ＪＯ建設,,株式会社,神奈川県,小田原市,南鴨宮１丁目１１番１号,,14,206,2500875,,,,,,,2021-11-05,1,,,,,ジェイオーケンセツ,0
1568,5030001145035,新規,0,2021-11-05,2021-11-05,株式会社久保田青果,,株式会社,埼玉県,深谷市,中瀬６８８番地２,,11,218,3660001,,,,,,,2021-11-05,1,,,,,クボタセイカ,0
1569,5030001145101,新規,0,2021-11-05,2021-11-05,株式会社村建,,株式会社,埼玉県,春日部市,粕壁５６２７番地,,11,214,3440061,,,,,,,2021-11-05,1,,,,,ムラケン,0
1570,5030001145118,新規,0,2021-11-05,2021-11-05,株式会社地球農業Ｌａｂ,,株式会社,埼玉県,春日部市,木崎４３７番地,,11,214,3440106,,,,,,,2021-11-05,1,,,,,チキュウノウギョウラボ,0
1571,5030001145126,新規,0,2021-11-05,2021-11-05,株式会社ヘリテージ,,株式会社,埼玉県,児玉郡上里町,大字長浜３３５番地,,11,385,3690316,,,,,,,2021-11-05,1,,,,,ヘリテージ,0
1572,5030001145134,新規,0,2021-11-05,2021-11-05,株式会社ＪＳ工務店,,株式会社,埼玉県,坂戸市,千代田２丁目１４番１１号,,11,239,3500214,,,,,,,2021-11-05,1,,,,,ジェイエスコウムテン,0
1573,5030001145150,新規,0,2021-11-05,2021-11-05,株式会社シードプラス,,株式会社,埼玉県,戸田市,喜沢１丁目３番地の４,,11,224,3350013,,,,,,,2021-11-05,1,,,,,シードプラス,0
1574,5030001145159,新規,0,2021-11-05,2021-11-05,株式会社東和,,株式会社,埼玉県,北葛飾郡杉戸町,大字椿７７３番地,,11,464,3450013,,,,,,,2021-11-05,1,,,,,トウワ,0
1575,5030001145167,新規,0,2021-11-05,2021-11-05,株式会社Ｓａｌｏｎ　ｄｅ　Ｙｕｋａ,,株式会社,埼玉県,川越市,大字鯨井新田３３番地１常松ビル１０１,,11,201,3500809,,,,,,,2021-11-05,1,,,,,サロンドユカ,0
1576,5030001145191,新規,0,2021-11-05,2021-11-05,株式会社工藤工業,,株式会社,埼玉県,川口市,東本郷２丁目３番３号,,11,203,3340063,,,,,,,2021-11-05,1,,,,,クドウコウギョウ,0
1577,5030001145200,新規,0,2021-11-05,2021-11-05,株式会社ＪＴＯ,,株式会社,埼玉県,三郷市,中央１丁目２番地１ザ・ライオンズ三郷中央Ｂ棟７１０,,11,237,3410038,,,,,,,2021-11-05,1,,,,,ジェイティーオー,0
1580,5030003018263,新規,0,2021-11-05,2021-11-05,合同会社ＳＥＥＫ,,合同会社,埼玉県,さいたま市中央区,鈴谷４丁目９番２４－１２０５号,,11,105,3380013,,,,,,,2021-11-05,1,,,,,シーク,0
1596,5040001120879,新規,0,2021-11-05,2021-11-05,株式会社ケイワイエステート,,株式会社,千葉県,千葉市若葉区,都賀３丁目１８番９号,,12,104,2640025,,,,,,,2021-11-05,1,,,,,ケイワイエステート,0
1602,5040003018832,新規,0,2021-11-05,2021-11-05,プレジャールーム合同会社,,合同会社,千葉県,木更津市,大和１丁目９番５号魁ビル３Ｆ右側,,12,206,2920805,,,,,,,2021-11-05,1,,,,,プレジャールーム,0
1603,5040003018873,新規,0,2021-11-05,2021-11-05,ひらけごま合同会社,,合同会社,千葉県,市川市,新浜１丁目２０番２４号,,12,203,2720136,,,,,,,2021-11-05,1,,,,,ヒラケゴマ,0
1609,5050001050084,新規,0,2021-11-05,2021-11-05,シーユーエム株式会社,,株式会社,茨城県,古河市,諸川９４８番地４,,08,204,3060126,,,,,,,2021-11-05,1,,,,,シーユーエム,0
1610,5050001050092,新規,0,2021-11-05,2021-11-05,株式会社つくば緑師,,株式会社,茨城県,つくば市,筑穂１丁目１６－７ＹＫハウス花畑１０２号室,,08,220,3003257,,,,,,,2021-11-05,1,,,,,ツクバリョクシ,0
1611,5050001050101,新規,0,2021-11-05,2021-11-05,株式会社ウィナーズゴルフカンパニー,,株式会社,茨城県,つくば市,高崎１６８８番地４,,08,220,3001245,,,,,,,2021-11-05,1,,,,,ウィナーズゴルフカンパニー,0
1615,5060001034251,新規,0,2021-11-05,2021-11-05,株式会社アクセス・リンク,,株式会社,栃木県,下野市,下古山２９３３番地１０ラフランセ下古山Ｂ－２０１,,09,216,3290502,,,,,,,2021-11-05,1,,,,,アクセスリンク,0
1616,5060001034268,新規,0,2021-11-05,2021-11-05,Ｒｅｄ　Ｌｉｎｅ　Ｔｒａｄｉｎｇ株式会社,,株式会社,栃木県,足利市,大前町６４３番地１－２０２,,09,202,3260845,,,,,,,2021-11-05,1,,,,,レッドライントレーディング,0
1617,5060001034276,新規,0,2021-11-05,2021-11-05,株式会社リホム,,株式会社,栃木県,宇都宮市,中央３丁目１番４号栃木県産業会館３Ｆ,,09,201,3200806,,,,,,,2021-11-05,1,,,,,リホム,0
1628,5080101022897,新規,0,2021-11-05,2021-11-05,顧客集める株式会社,,株式会社,静岡県,富士市,伝法２４４４番地の７－５０１号,,22,210,4170061,,,,,,,2021-11-05,1,,,,,コキャクアツメル,0
1629,5080103002451,新規,0,2021-11-05,2021-11-05,ｆｏｒｎｏ合同会社,,合同会社,静岡県,駿東郡清水町,卸団地２０７,,22,341,4110912,,,,,,,2021-11-05,1,,,,,フォルノ,0
1635,5090001017261,新規,0,2021-11-05,2021-11-05,インテリア大晴株式会社,,株式会社,山梨県,甲府市,幸町１１番４号,,19,201,4000857,,,,,,,2021-11-05,1,,,,,インテリアタイセイ,0
1638,5100001034791,新規,0,2021-11-05,2021-11-05,吉江機械株式会社,,株式会社,長野県,塩尻市,大字広丘高出２００８番地１１,,20,215,3990703,,,,,,,2021-11-05,1,,,,,ヨシエキカイ,0
1652,5120001241576,新規,0,2021-11-05,2021-11-05,有馬建設株式会社,,株式会社,大阪府,枚方市,禁野本町１丁目２番３５号,,27,210,5731197,,,,,,,2021-11-05,1,,,,,アリマケンセツ,0
1653,5120001241584,新規,0,2021-11-05,2021-11-05,株式会社Ｒａｉｎｅｌ,,株式会社,大阪府,大阪市北区,天神橋７丁目１５番５号好きやねん大阪ビル５階,,27,127,5310041,,,,,,,2021-11-05,1,,,,,ライネル,0
1654,5120001241642,新規,0,2021-11-05,2021-11-05,ＮＩＫＯＬＡ株式会社,,株式会社,大阪府,大阪市天王寺区,松ケ鼻町１０番９号,,27,109,5430034,,,,,,,2021-11-05,1,,,,,ニコラ,0
1655,5120001241709,新規,0,2021-11-05,2021-11-05,関西物販株式会社,,株式会社,大阪府,大阪市中央区,瓦屋町２丁目１－９,,27,128,5420066,,,,,,,2021-11-05,1,,,,,カンサイブッパン,0
1660,5120101064588,新規,0,2021-11-05,2021-11-05,株式会社セカンド・ケア,,株式会社,大阪府,堺市西区,鳳南町５丁７００番地３,,27,144,5938325,,,,,,,2021-11-05,1,,,,,セカンドケア,0
1661,5120101064596,新規,0,2021-11-05,2021-11-05,株式会社縁月,,株式会社,大阪府,藤井寺市,藤井寺１丁目８番３０号サングレース藤井寺７－１Ｆ,,27,226,5830024,,,,,,,2021-11-05,1,,,,,エンゲツ,0
1664,5120103004427,新規,0,2021-11-05,2021-11-05,合同会社ＫＭＴ,,合同会社,大阪府,松原市,天美西５丁目１１３番地の１,,27,217,5800034,,,,,,,2021-11-05,1,,,,,ケーエムティ,0
1668,5120901045135,新規,0,2021-11-05,2021-11-05,株式会社ＳＤＢＭ,,株式会社,大阪府,吹田市,長野西１０番１６号,,27,205,5650817,,,,,,,2021-11-05,1,,,,,エスディビィエム,0
1669,5120901045151,新規,0,2021-11-05,2021-11-05,株式会社ライトワン,,株式会社,大阪府,高槻市,桜ケ丘南町２４番１３号,,27,207,5690818,,,,,,,2021-11-05,1,,,,,ライトワン,0
1677,5130001070495,新規,0,2021-11-05,2021-11-05,株式会社ＺＵＺＵ,,株式会社,京都府,京都市山科区,勧修寺閑林寺６１番４６第二ニタ荘１２号室,,26,110,6078217,,,,,,,2021-11-05,1,,,,,ズズ,0
1680,5130003007578,新規,0,2021-11-05,2021-11-05,合同会社アンセム,,合同会社,京都府,京都市左京区,吉田下大路町４５番地６６,,26,103,6068314,,,,,,,2021-11-05,1,,,,,アンセム,0
1682,5140001123707,新規,0,2021-11-05,2021-11-05,株式会社コーチングプロジェクト,,株式会社,兵庫県,神戸市中央区,下山手通２丁目１３－３建創ビル９Ｆ,,28,110,6500011,,,,,,,2021-11-05,1,,,,,コーチングプロジェクト,0
1683,5140001123715,新規,0,2021-11-05,2021-11-05,株式会社ひめ動物クリニック,,株式会社,兵庫県,尼崎市,東園田町３丁目３１番地の７,,28,202,6610953,,,,,,,2021-11-05,1,,,,,ヒメドウブツクリニック,0
1684,5140001123723,新規,0,2021-11-05,2021-11-05,株式会社ＳＴＩデザインオフィス,,株式会社,兵庫県,神戸市中央区,相生町５丁目１５番３－１００２号,,28,110,6500025,,,,,,,2021-11-05,1,,,,,エスティアイデザインオフィス,0
1685,5140001123731,新規,0,2021-11-05,2021-11-05,ネオ・あどばんす株式会社,,株式会社,兵庫県,宝塚市,寿町８番１４－１０３号,,28,214,6650865,,,,,,,2021-11-05,1,,,,,ネオアドバンス,0
1686,5140001123764,新規,0,2021-11-05,2021-11-05,株式会社優伸,,株式会社,兵庫県,加古川市,野口町野口１４８番地の２２,,28,210,6750012,,,,,,,2021-11-05,1,,,,,ユウシン,0
1692,5140003016933,新規,0,2021-11-05,2021-11-05,合同会社ソレイユ,,合同会社,兵庫県,神戸市東灘区,魚崎北町３丁目１番１５号,,28,101,6580082,,,,,,,2021-11-05,1,,,,,ソレイユ,0
1693,5140003016941,新規,0,2021-11-05,2021-11-05,合同会社まあむ,,合同会社,兵庫県,姫路市,継２８５番地２,,28,201,6728004,,,,,,,2021-11-05,1,,,,,マアム,0
1697,5150003002528,新規,0,2021-11-05,2021-11-05,トラベリエ合同会社,,合同会社,奈良県,橿原市,白橿町２丁目２６番地１号棟５０１号室,,29,205,6340051,,,,,,,2021-11-05,1,,,,,トラベリエ,0
1699,5160001023780,新規,0,2021-11-05,2021-11-05,株式会社蓮山,,株式会社,滋賀県,草津市,矢橋町１５９－１,,25,206,5250066,,,,,,,2021-11-05,1,,,,,レンザン,0
1707,5180001148551,新規,0,2021-11-05,2021-11-05,株式会社中部創建不動産,,株式会社,愛知県,名古屋市瑞穂区,白羽根町１丁目２８番地,,23,108,4670014,,,,,,,2021-11-05,1,,,,,チュウブソウケンフドウサン,0
1708,5180001148618,新規,0,2021-11-05,2021-11-05,株式会社上田商店,,株式会社,愛知県,尾張旭市,狩宿町１丁目３８番地３,,23,226,4880021,,,,,,,2021-11-05,1,,,,,ウエダショウテン,0
1709,5180001148626,新規,0,2021-11-05,2021-11-05,株式会社マナベ―ス,,株式会社,愛知県,江南市,上奈良町郷３０８番地,,23,217,4838258,,,,,,,2021-11-05,1,,,,,マナベース,0
1710,5180001148634,新規,0,2021-11-05,2021-11-05,株式会社ｐｌａｃｅ,,株式会社,愛知県,名古屋市千種区,仲田２丁目１８番１５号大沢ビル１Ｆ,,23,101,4640074,,,,,,,2021-11-05,1,,,,,プレイス,0
1712,5180003023125,新規,0,2021-11-05,2021-11-05,合同会社ＨａｐｐｙＳｏｎｇ,,合同会社,愛知県,尾張旭市,東三郷町１７５－２,,23,226,4880017,,,,,,,2021-11-05,1,,,,,ハッピーソング,0
1713,5180003023158,新規,0,2021-11-05,2021-11-05,合同会社福住柔術,,合同会社,愛知県,名古屋市天白区,野並１丁目１６５番地,,23,116,4680045,,,,,,,2021-11-05,1,,,,,フクズミジウジツ,0
1717,5190001028835,新規,0,2021-11-05,2021-11-05,株式会社杉山建設,,株式会社,三重県,伊勢市,宇治浦田２丁目１７番９号,,24,203,5160026,,,,,,,2021-11-05,1,,,,,スギヤマケンセツ,0
1718,5190001028843,新規,0,2021-11-05,2021-11-05,ＫＣ株式会社,,株式会社,三重県,桑名市,伝馬町４９,,24,205,5110045,,,,,,,2021-11-05,1,,,,,ケーシー,0
1719,5190005011639,新規,0,2021-11-05,2021-11-05,特定非営利活動法人ルピナス品川,,その他の設立登記法人,三重県,津市,修成町１４番２０号,,24,201,5140837,,,,,,,2021-11-05,1,,,,,ルピナスシナガワ,0
1731,5210001018684,新規,0,2021-11-05,2021-11-05,株式会社エコドライブ,,株式会社,福井県,福井市,二の宮１丁目４番４号Ｓｅｃｏｎｄ　Ｆｉｅｌｄ　２０１,,18,201,9100015,,,,,,,2021-11-05,1,,,,,エコドライブ,0
1739,5240001058876,新規,0,2021-11-05,2021-11-05,株式会社ＰＲＯ　ＨＯＬＤＩＮＧＳ,,株式会社,広島県,福山市,南蔵王町６丁目１８番４０号,,34,207,7210973,,,,,,,2021-11-05,1,,,,,プロホールディングス,0
1740,5240001058892,新規,0,2021-11-05,2021-11-05,株式会社リンクス,,株式会社,広島県,広島市安佐南区,川内１丁目８番５３号,,34,105,7310102,,,,,,,2021-11-05,1,,,,,リンクス,0
1745,5250001019233,新規,0,2021-11-05,2021-11-05,株式会社ピース工業,,株式会社,山口県,岩国市,小瀬１０５００番地４４,,35,208,7410091,,,,,,,2021-11-05,1,,,,,ピースコウギョウ,0
1748,5260003003713,新規,0,2021-11-05,2021-11-05,ＨＡＲＢＳ合同会社,,合同会社,岡山県,倉敷市,玉島八島１７６０番地１,,33,202,7138113,,,,,,,2021-11-05,1,,,,,ハーブス,0
1755,5290001095304,新規,0,2021-11-05,2021-11-05,株式会社河本組,,株式会社,福岡県,福岡市早良区,賀茂１丁目５１番２５号,,40,137,8140164,,,,,,,2021-11-05,1,,,,,カワモトグミ,0
1759,5300001012686,新規,0,2021-11-05,2021-11-05,株式会社新成工務店,,株式会社,佐賀県,佐賀市,大財３丁目１０－１４大財事務所２階,,41,201,8400811,,,,,,,2021-11-05,1,,,,,シンセイコウムテン,0
1760,5300001012694,新規,0,2021-11-05,2021-11-05,株式会社ＴＧＣ,,株式会社,佐賀県,鳥栖市,酒井西町８０４番地１,,41,203,8410042,,,,,,,2021-11-05,1,,,,,ティージーシー,0
1770,5320001018707,新規,0,2021-11-05,2021-11-05,株式会社井堀工務店,,株式会社,大分県,中津市,三光上秣２０６番地１,,44,203,8790221,,,,,,,2021-11-05,1,,,,,イボリコウムテン,0
1771,5320003003649,新規,0,2021-11-05,2021-11-05,合同会社高木,00124769,合同会社,大分県,日田市,若宮町５番４８号,,44,204,8770037,,,,,,,2021-11-05,1,,,,,タカキ,0
1777,5340003003622,新規,0,2021-11-05,2021-11-05,ＱＯＱＯＴｏｗｎ合同会社,,合同会社,鹿児島県,鹿屋市,野里町３１２９番地１,,46,203,8930055,,,,,,,2021-11-05,1,,,,,ココタウン,0
1780,5350001017391,新規,0,2021-11-05,2021-11-05,株式会社心愛,,株式会社,宮崎県,日向市,大字財光寺３６３６番地,,45,206,8830021,,,,,,,2021-11-05,1,,,,,シンアイ,0
1781,5350001017400,新規,0,2021-11-05,2021-11-05,株式会社ＳＦＳ,,株式会社,宮崎県,延岡市,桜ケ丘１丁目２６番地１２,,45,203,8820007,,,,,,,2021-11-05,1,,,,,エスエフエス,0
1782,5350001017409,新規,0,2021-11-05,2021-11-05,株式会社オーエムプランニング,,株式会社,宮崎県,宮崎市,清武町今泉甲８１９番地３,,45,201,8891602,,,,,,,2021-11-05,1,,,,,オーエムプランニング,0
1785,5360001029584,新規,0,2021-11-05,2021-11-05,株式会社ＭＡ２ｓｔｕｄｉｏ,,株式会社,沖縄県,那覇市,久茂地２丁目２番２号２Ｆ,,47,201,9000015,,,,,,,2021-11-05,1,,,,,エムエーツースタジオ,0
1786,5360001029601,新規,0,2021-11-05,2021-11-05,株式会社コスモス,,株式会社,沖縄県,那覇市,字仲井真１０３番地４,,47,201,9020074,,,,,,,2021-11-05,1,,,,,コスモス,0
1789,5370003005467,新規,0,2021-11-05,2021-11-05,合同会社Ｃａｆｕｎｅ．,,合同会社,宮城県,仙台市太白区,東中田５丁目１１番１１号,,04,104,9811107,,,,,,,2021-11-05,1,,,,,カフネ,0
1792,5380001032306,新規,0,2021-11-05,2021-11-05,株式会社堂前工業,,株式会社,福島県,双葉郡富岡町,大字本岡字王塚２５番地７,,07,543,9791151,,,,,,,2021-11-05,1,,,,,ドウマエコウギョウ,0
1795,5390003001893,新規,0,2021-11-05,2021-11-05,合同会社スカイ急便,,合同会社,山形県,山形市,吉原１丁目６‐２６‐１０２,,06,201,9902451,,,,,,,2021-11-05,1,,,,,スカイキュウビン,0
1805,5420001017640,新規,0,2021-11-05,2021-11-05,株式会社菊地設備,,株式会社,青森県,八戸市,南郷大字市野沢字山陣屋２２番地１２７,,02,203,0310111,,,,,,,2021-11-05,1,,,,,キクチセツビ,0
1810,5430001085281,新規,0,2021-11-05,2021-11-05,株式会社特進,,株式会社,北海道,札幌市中央区,宮ケ丘１丁目２番４１号,,01,101,0640959,,,,,,,2021-11-05,1,,,,,トクシン,0
1811,5430001085307,新規,0,2021-11-05,2021-11-05,エイチエーメンテナンス株式会社,,株式会社,北海道,札幌市東区,北十八条東１丁目２番２０号,,01,103,0650018,,,,,,,2021-11-05,1,,,,,エイチエーメンテナンス,0
1812,5430001085323,新規,0,2021-11-05,2021-11-05,株式会社エルセカンド,,株式会社,北海道,札幌市西区,西野十一条９丁目１１番１４号,,01,107,0630041,,,,,,,2021-11-05,1,,,,,エルセカンド,0
1815,5440001008976,新規,0,2021-11-05,2021-11-05,札幌全力ストレッチ株式会社,,株式会社,北海道,函館市,西桔梗町８５０番地６４,,01,202,0410824,,,,,,,2021-11-05,1,,,,,サッポロゼンリョクストレッチ,0
1817,5460003000871,新規,0,2021-11-05,2021-11-05,ｂ．ｂａｏｂａｂ合同会社,,合同会社,北海道,釧路市,文苑２丁目４２番１６号,,01,206,0850063,,,,,,,2021-11-05,1,,,,,ビードットバオバブ,0
1821,5470001018808,新規,0,2021-11-05,2021-11-05,株式会社大西グリーン,,株式会社,香川県,観音寺市,柞田町丙８６番地,,37,205,7680040,,,,,,,2021-11-05,1,,,,,オオニシグリーン,0
1830,5500001023795,新規,0,2021-11-05,2021-11-05,株式会社ミニマルラボ,,株式会社,愛媛県,新居浜市,船木甲２９１２番地２１,,38,205,7920856,,,,,,,2021-11-05,1,,,,,ミニマルラボ,0
1842,6010001222215,新規,0,2021-11-05,2021-11-05,ＮＳシステムズ株式会社,,株式会社,東京都,中央区,日本橋蛎殻町１丁目３８番１１号,,13,102,1030014,,,,,,,2021-11-05,1,,,,,エヌエスシステムズ,0
1843,6010001222297,新規,0,2021-11-05,2021-11-05,株式会社ＮＥＷＳＡＧＩＮＧ,,株式会社,東京都,文京区,目白台１丁目９番４号,,13,105,1120015,,,,,,,2021-11-05,1,,,,,ニュースエイジング,0
1844,6010001222314,新規,0,2021-11-05,2021-11-05,株式会社蓮の花,,株式会社,東京都,中央区,京橋３丁目９番１０－８０３号,,13,102,1040031,,,,,,,2021-11-05,1,,,,,ハスノハナ,0
1850,6010003036175,新規,0,2021-11-05,2021-11-05,合同会社あすとミライデベロップメント,,合同会社,東京都,千代田区,丸の内３丁目１番１号東京共同会計事務所内,,13,101,1000005,,,,,,,2021-11-05,1,,,,,アストミライデベロップメント,0
1854,6010103001806,新規,0,2021-11-05,2021-11-05,合同会社田口,,合同会社,東京都,八王子市,川口町１５４０番地１６１,,13,201,1930801,,,,,,,2021-11-05,1,,,,,タグチ,0
1866,6010401163612,新規,0,2021-11-05,2021-11-05,株式会社ＮＳ,,株式会社,東京都,港区,赤坂４丁目１４番１４－３８０２号,,13,103,1070052,,,,,,,2021-11-05,1,,,,,エヌエス,0
1867,6010401163629,新規,0,2021-11-05,2021-11-05,株式会社ＭＹＡＲＴ,,株式会社,東京都,港区,北青山２丁目７－２０猪瀬ビル２Ｆ,,13,103,1070061,,,,,,,2021-11-05,1,,,,,マイアート,0
1872,6010403026429,新規,0,2021-11-05,2021-11-05,合同会社Ｓｔａｒ　Ｃｒｅｓｔ,,合同会社,東京都,港区,南青山２丁目２番１５号ウィン青山１２１４号,,13,103,1070062,,,,,,,2021-11-05,1,,,,,スタークレスト,0
1873,6010405020363,新規,0,2021-11-05,2021-11-05,ＭＦＪＰＮ３特定目的会社,,その他の設立登記法人,東京都,港区,虎ノ門３丁目２２番１０－２０１号,,13,103,1050001,,,,,,,2021-11-05,1,,,,,エムエフジェイピーエヌスリー,0
1874,6010501048044,新規,0,2021-11-05,2021-11-05,株式会社リケスタ,,株式会社,東京都,台東区,東上野３丁目１３番２号,,13,106,1100015,,,,,,,2021-11-05,1,,,,,リケスタ,0
1880,6010601060171,新規,0,2021-11-05,2021-11-05,株式会社ソミックトランスフォーメーション,,株式会社,東京都,墨田区,本所１丁目３４番６号,,13,107,1300004,,,,,,,2021-11-05,1,,,,,ソミックトランスフォーメーション,0
1886,6010703005990,新規,0,2021-11-05,2021-11-05,ブライトネオ合同会社,,合同会社,東京都,品川区,東五反田５丁目２０－１１－４０４,,13,109,1410022,,,,,,,2021-11-05,1,,,,,ブライトネオ,0
1888,6010801032458,新規,0,2021-11-05,2021-11-05,ＴＯＢＥ工業株式会社,,株式会社,東京都,大田区,東糀谷３丁目１４番５－３０５号,,13,111,1440033,,,,,,,2021-11-05,1,,,,,トベコウギョウ,0
1889,6010803003944,新規,0,2021-11-05,2021-11-05,合同会社ＯＲＩＯＮ　ＰＲＯＪＥＣＴ,,合同会社,東京都,大田区,田園調布１丁目５２番９号,,13,111,1450071,,,,,,,2021-11-05,1,,,,,オリオンプロジェクト,0
1890,6010901049740,新規,0,2021-11-05,2021-11-05,株式会社光水道設計事務所,,株式会社,東京都,世田谷区,上祖師谷２丁目９番１１号,,13,112,1570065,,,,,,,2021-11-05,1,,,,,ヒカリスイドウセッケイジムショ,0
1893,6010903006913,新規,0,2021-11-05,2021-11-05,合同会社Ｂ２プランニング,,合同会社,東京都,世田谷区,尾山台３丁目２２番１１号クリオ尾山台壱番館１０５,,13,112,1580086,,,,,,,2021-11-05,1,,,,,ビーツープランニング,0
1894,6010903006921,新規,0,2021-11-05,2021-11-05,ブランドアーキテクツジャパン合同会社,,合同会社,東京都,世田谷区,下馬１丁目１８－１ウィングッド下馬３０１,,13,112,1540002,,,,,,,2021-11-05,1,,,,,ブランドアーキテクツジャパン,0
1898,6011001143599,新規,0,2021-11-05,2021-11-05,株式会社ｉｎｃｏｍｅ　ｃｌｕｂ,,株式会社,東京都,渋谷区,恵比寿南３丁目４番１４号,,13,113,1500022,,,,,,,2021-11-05,1,,,,,インカムクラブ,0
1899,6011001143780,新規,0,2021-11-05,2021-11-05,株式会社サイバーエージェントＤＸ,,株式会社,東京都,渋谷区,宇田川町４０番１号,,13,113,1500042,,,,,,,2021-11-05,1,,,,,サイバーエージェントディーエックス,0
1900,6011001143830,新規,0,2021-11-05,2021-11-05,エンライズテック株式会社,,株式会社,東京都,渋谷区,代々木１丁目４３番７号,,13,113,1510053,,,,,,,2021-11-05,1,,,,,エンライズテック,0
1902,6011101096763,新規,0,2021-11-05,2021-11-05,株式会社Ｍａｄｏｎｎａ　Ｌｉｌｙ,,株式会社,東京都,新宿区,新宿１丁目３６－２新宿第七葉山ビル３階,,13,104,1600022,,,,,,,2021-11-05,1,,,,,マドンナリリー,0
1904,6011301027312,新規,0,2021-11-05,2021-11-05,株式会社エムエムシージェイ,,株式会社,東京都,杉並区,阿佐谷南３丁目４７番２８号野島方,,13,115,1660004,,,,,,,2021-11-05,1,,,,,エムエムシージェイ,0
1907,6011401023806,新規,0,2021-11-05,2021-11-05,株式会社ブリッジ,,株式会社,東京都,板橋区,双葉町１０番１２号メゾンアマーレ２０２,,13,119,1730011,,,,,,,2021-11-05,1,,,,,ブリッジ,0
1909,6011403003491,新規,0,2021-11-05,2021-11-05,合同会社Ｗｉｔｃｈｃｒａｆｔ　Ｃｏｍｐａｎｙ,,合同会社,東京都,板橋区,南町１６－１ルーカス要町２Ｆ,,13,119,1730027,,,,,,,2021-11-05,1,,,,,ウィッチクラフトカンパニー,0
1914,6011603003432,新規,0,2021-11-05,2021-11-05,合同会社かょのこ,,合同会社,東京都,練馬区,平和台２丁目３５番１５号,,13,120,1790083,,,,,,,2021-11-05,1,,,,,カョノコ,0
1915,6011701024818,新規,0,2021-11-05,2021-11-05,株式会社ｎｅｕｅｒ　ｏｒｔ,,株式会社,東京都,江戸川区,中葛西３丁目１６番１１号オザリア葛西１Ｆ,,13,123,1340083,,,,,,,2021-11-05,1,,,,,ノイエルオルト,0
1916,6011703002986,新規,0,2021-11-05,2021-11-05,櫻井合同会社,,合同会社,東京都,江戸川区,西葛西３丁目４番１１号メゾン丸正２・１０３,,13,123,1340088,,,,,,,2021-11-05,1,,,,,サクライ,0
1918,6011803004858,新規,0,2021-11-05,2021-11-05,合同会社ｄｎｓｈ,,合同会社,東京都,足立区,保塚町６番２号１０１,,13,121,1210072,,,,,,,2021-11-05,1,,,,,ダンシュ,0
1925,6012401038496,新規,0,2021-11-05,2021-11-05,クラシック工業株式会社,,株式会社,東京都,調布市,佐須町３丁目１０番地９,,13,208,1820016,,,,,,,2021-11-05,1,,,,,クラシックコウギョウ,0
1926,6012401038505,新規,0,2021-11-05,2021-11-05,株式会社ＥＸＰＥＲＩＥＮＣＥ,,株式会社,東京都,多摩市,聖ヶ丘２丁目４５番地の５,,13,224,2060022,,,,,,,2021-11-05,1,,,,,エクスペリエンス,0
1927,6012401038513,新規,0,2021-11-05,2021-11-05,株式会社カロッツェリア創造,,株式会社,東京都,稲城市,平尾３丁目７番地の５,,13,225,2060823,,,,,,,2021-11-05,1,,,,,カロッツェリアソウゾウ,0
1930,6012801021201,新規,0,2021-11-05,2021-11-05,株式会社ＩＭＧ,,株式会社,東京都,立川市,富士見町２丁目２２番１７号フラット２２３－１０１号,,13,202,1900013,,,,,,,2021-11-05,1,,,,,アイエムジー,0
1946,6020001143765,新規,0,2021-11-05,2021-11-05,株式会社ユウアツ,,株式会社,神奈川県,横浜市都筑区,池辺町３２３８番地,,14,118,2240053,,,,,,,2021-11-05,1,,,,,ユウアツ,0
1947,6020003020748,新規,0,2021-11-05,2021-11-05,Ｃｈａｎｇｅ．ｏｒｇ　Ｊａｐａｎ合同会社,,合同会社,神奈川県,横浜市中区,長者町２丁目５番５号,,14,104,2310033,,,,,,,2021-11-05,1,,,,,チェンジドットオーグジャパン,0
1948,6020003020756,新規,0,2021-11-05,2021-11-05,合同会社ｋｏｇｒｙ,,合同会社,神奈川県,川崎市麻生区,高石４丁目１３－１９,,14,137,2150003,,,,,,,2021-11-05,1,,,,,コグリー,0
1952,6021001074389,新規,0,2021-11-05,2021-11-05,株式会社Ｆｒｅｅｋ,,株式会社,神奈川県,茅ヶ崎市,堤２２０４番地５,,14,207,2530006,,,,,,,2021-11-05,1,,,,,フリーク,0
1953,6021001074406,新規,0,2021-11-05,2021-11-05,株式会社ＢｇＡ,,株式会社,神奈川県,海老名市,中央１丁目１６番３１号Ａ＆ＮＩビル１Ｆ,,14,215,2430432,,,,,,,2021-11-05,1,,,,,ビージーエー,0
1954,6021003011051,新規,0,2021-11-05,2021-11-05,＿美合同会社,00124771,合同会社,神奈川県,海老名市,中新田３丁目４３番５８－１０２号,,14,215,2430422,,,,,,,2021-11-05,1,,,,,ビビ,0
1956,6030001145109,新規,0,2021-11-05,2021-11-05,株式会社武田電業社,,株式会社,埼玉県,川口市,芝下３丁目２０番２０号,,11,203,3330848,,,,,,,2021-11-05,1,,,,,タケダデンギョウシャ,0
1957,6030001145117,新規,0,2021-11-05,2021-11-05,株式会社熊倉商事,,株式会社,埼玉県,羽生市,西５丁目３５番地５,,11,216,3480054,,,,,,,2021-11-05,1,,,,,クマクラショウジ,0
1958,6030001145133,新規,0,2021-11-05,2021-11-05,株式会社ＳＴＡＲ　ＤＡＨＬＩＡ,,株式会社,埼玉県,蕨市,中央１丁目２番６号,,11,223,3350004,,,,,,,2021-11-05,1,,,,,スターダリア,0
1959,6030001145158,新規,0,2021-11-05,2021-11-05,株式会社Ｎ－ｃｒａｆｔ,,株式会社,埼玉県,さいたま市北区,本郷町５３０番地６,,11,102,3310802,,,,,,,2021-11-05,1,,,,,エヌクラフト,0
1960,6030001145166,新規,0,2021-11-05,2021-11-05,株式会社アークス,,株式会社,埼玉県,さいたま市中央区,本町東５丁目１８番２０－１０２号,,11,105,3380003,,,,,,,2021-11-05,1,,,,,アークス,0
1961,6030001145190,新規,0,2021-11-05,2021-11-05,株式会社なかやま,,株式会社,埼玉県,所沢市,若松町１１１０番地の２５,,11,208,3590032,,,,,,,2021-11-05,1,,,,,ナカヤマ,0
1969,6040001120853,新規,0,2021-11-05,2021-11-05,株式会社伊藤工業,,株式会社,千葉県,千葉市中央区,寒川町１丁目２１８番２号エスポワール１０３,,12,101,2600832,,,,,,,2021-11-05,1,,,,,イトウコウギョウ,0
1970,6040001120861,新規,0,2021-11-05,2021-11-05,株式会社ＺＥＮＴＯＫＵ,,株式会社,千葉県,木更津市,下烏田２３７番地１,,12,206,2920816,,,,,,,2021-11-05,1,,,,,ゼントク,0
1973,6040003018856,新規,0,2021-11-05,2021-11-05,光合同会社,,合同会社,千葉県,市原市,八幡２１４５番地２２,,12,219,2900062,,,,,,,2021-11-05,1,,,,,ヒカリ,0
1974,6040003018880,新規,0,2021-11-05,2021-11-05,合同会社ＳＫＩＰスキップ,,合同会社,千葉県,浦安市,北栄２丁目２２－１０,,12,227,2790002,,,,,,,2021-11-05,1,,,,,スキップスキップ,0
1975,6050001050109,新規,0,2021-11-05,2021-11-05,株式会社ワイエスコーポレーション,,株式会社,茨城県,神栖市,知手６３１１番地,,08,232,3140115,,,,,,,2021-11-05,1,,,,,ワイエスコーポレーション,0
1979,6060001034283,新規,0,2021-11-05,2021-11-05,株式会社Ｖｉｓｕａｌｌｙ,,株式会社,栃木県,宇都宮市,桜４丁目１７番１４号,,09,201,3200043,,,,,,,2021-11-05,1,,,,,ビジュアリー,0
1983,6070005009917,新規,0,2021-11-05,2021-11-05,ＮＰＯ法人ａｒｔｓｕｍ,,その他の設立登記法人,群馬県,高崎市,井野町２６７番地,,10,202,3700004,,,,,,,2021-11-05,1,,,,,アートサム,0
1986,6080003002674,新規,0,2021-11-05,2021-11-05,合同会社ジューサー,,合同会社,静岡県,榛原郡吉田町,住吉１２番地,,22,424,4210301,,,,,,,2021-11-05,1,,,,,ジューサー,0
1987,6080101022905,新規,0,2021-11-05,2021-11-05,株式会社ＹＡ　Ｔｏｔａｌ　Ｃｒｅａｔｅ,,株式会社,静岡県,伊東市,富戸８７７番地の４,,22,208,4130231,,,,,,,2021-11-05,1,,,,,ワイエートータルクリエイト,0
1988,6080103002450,新規,0,2021-11-05,2021-11-05,神山建設工業合同会社,,合同会社,静岡県,沼津市,宮町１４番地,,22,203,4100851,,,,,,,2021-11-05,1,,,,,カミヤマケンセツコウギョウ,0
1991,6100001034782,新規,0,2021-11-05,2021-11-05,株式会社夢咲,,株式会社,長野県,上伊那郡辰野町,大字伊那富３１１６番地６ハイツラポール２０２号,,20,382,3990428,,,,,,,2021-11-05,1,,,,,ユメサキ,0
1994,6100003006284,新規,0,2021-11-05,2021-11-05,合同会社ＲＳ丸勝,,合同会社,長野県,松本市,波田５４０９－１,,20,202,3901401,,,,,,,2021-11-05,1,,,,,アールエスマルカツ,0
1998,6110003004618,新規,0,2021-11-05,2021-11-05,合同会社ＡＭＩＧＯ,,合同会社,新潟県,十日町市,荒屋癸４０－７,,15,210,9498414,,,,,,,2021-11-05,1,,,,,アミーゴ,0
2004,6120001241583,新規,0,2021-11-05,2021-11-05,株式会社ＯＲＣａ,,株式会社,大阪府,大阪市北区,天神橋７丁目１５番５号好きやねん大阪ビル５階,,27,127,5310041,,,,,,,2021-11-05,1,,,,,オルカ,0
2005,6120001241609,新規,0,2021-11-05,2021-11-05,株式会社Ｒｕｏｓ,,株式会社,大阪府,大阪市中央区,南船場４丁目１４番１号,,27,128,5420081,,,,,,,2021-11-05,1,,,,,ルオス,0
2006,6120001241633,新規,0,2021-11-05,2021-11-05,ＦＵＪＩＭＵＲＡ建築工房株式会社,,株式会社,大阪府,大阪市住吉区,万代東３丁目２番１１号,,27,120,5580056,,,,,,,2021-11-05,1,,,,,フジムラケンチクコウボウ,0
2007,6120001241690,新規,0,2021-11-05,2021-11-05,株式会社ＰＰＬ,,株式会社,大阪府,大阪市阿倍野区,長池町５番２号,,27,119,5450013,,,,,,,2021-11-05,1,,,,,ピーピーエル,0
2008,6120003020556,新規,0,2021-11-05,2021-11-05,ＫＴＲ合同会社,,合同会社,大阪府,大阪市中央区,本町橋８番７号,,27,128,5400029,,,,,,,2021-11-05,1,,,,,ケーティーアール,0
2012,6120101064604,新規,0,2021-11-05,2021-11-05,株式会社はな来楽部,,株式会社,大阪府,堺市北区,百舌鳥赤畑町２丁５２番地２,,27,146,5918037,,,,,,,2021-11-05,1,,,,,ハナクラブ,0
2016,6120901045134,新規,0,2021-11-05,2021-11-05,株式会社ミヤビス,,株式会社,大阪府,豊中市,曽根南町１丁目１４番１－１０１号,,27,203,5610804,,,,,,,2021-11-05,1,,,,,ミヤビス,0
2017,6120901045142,新規,0,2021-11-05,2021-11-05,株式会社ＷＰＣ,,株式会社,大阪府,豊中市,曽根東町２丁目２番５－２０７号,,27,203,5610802,,,,,,,2021-11-05,1,,,,,ダブルピーシー,0
2018,6120901045150,新規,0,2021-11-05,2021-11-05,あすなる株式会社,,株式会社,大阪府,吹田市,江坂町１丁目２番１６号,,27,205,5640063,,,,,,,2021-11-05,1,,,,,アスナル,0
2019,6120901045159,新規,0,2021-11-05,2021-11-05,株式会社宝エステート,,株式会社,大阪府,豊中市,庄内室町二丁目９番２５号,,27,203,5600000,,,,,,,2021-11-05,1,,,,,タカラエステート,0
2020,6120903003899,新規,0,2021-11-05,2021-11-05,合同会社ＨＫエステート,,合同会社,大阪府,箕面市,半町４丁目１５番７号,,27,220,5620044,,,,,,,2021-11-05,1,,,,,エイチケイエステート,0
2031,6130001070494,新規,0,2021-11-05,2021-11-05,株式会社前田建装,,株式会社,京都府,京都市北区,西賀茂北川上町９８番地８,,26,101,6038816,,,,,,,2021-11-05,1,,,,,マエダケンソウ,0
2037,6140001123706,新規,0,2021-11-05,2021-11-05,株式会社ＪＵＮ,,株式会社,兵庫県,姫路市,飾磨区上野田３丁目１１９番地,,28,201,6728043,,,,,,,2021-11-05,1,,,,,ジュン,0
2038,6140001123714,新規,0,2021-11-05,2021-11-05,株式会社神姫不動産神戸北,,株式会社,兵庫県,神戸市北区,藤原台北町７丁目８番１２－２０３号,,28,109,6511301,,,,,,,2021-11-05,1,,,,,シンキフドウサンコウベキタ,0
2039,6140001123739,新規,0,2021-11-05,2021-11-05,株式会社Ａ・Ｋ・Ｉ,,株式会社,兵庫県,伊丹市,北伊丹３丁目１６８番地,,28,207,6640831,,,,,,,2021-11-05,1,,,,,エーケーアイ,0
2040,6140001123771,新規,0,2021-11-05,2021-11-05,大成土木株式会社,,株式会社,兵庫県,尼崎市,東塚口町２丁目４番５５号,,28,202,6610011,,,,,,,2021-11-05,1,,,,,タイセイドボク,0
2044,6150001025075,新規,0,2021-11-05,2021-11-05,株式会社春日武道具,,株式会社,奈良県,奈良市,大宮町４丁目２６０番地の１シティコープ新大宮１０４号,,29,201,6308115,,,,,,,2021-11-05,1,,,,,カスガブドウグ,0
2045,6150001025083,新規,0,2021-11-05,2021-11-05,株式会社リレージュ,,株式会社,奈良県,生駒市,東新町４番２３号,,29,209,6300258,,,,,,,2021-11-05,1,,,,,リレージュ,0
2047,6150003002535,新規,0,2021-11-05,2021-11-05,ＭｅｒｃｈａｎｔＴａｍｕｒａ合同会社,,合同会社,奈良県,奈良市,北京終町３６－３，サンセレノＷＡＢＩ２０３,,29,201,6308322,,,,,,,2021-11-05,1,,,,,マーチャントタムラ,0
2057,6180001148501,新規,0,2021-11-05,2021-11-05,株式会社亀甲オートサービス,,株式会社,愛知県,春日井市,下条町１０１１番地３,,23,206,4860923,,,,,,,2021-11-05,1,,,,,キッコウオートサービス,0
2058,6180001148550,新規,0,2021-11-05,2021-11-05,株式会社未来のかたち,,株式会社,愛知県,名古屋市天白区,野並２丁目４３１番地ＹＫビル１階,,23,116,4680045,,,,,,,2021-11-05,1,,,,,ミライノカタチ,0
2059,6180001148575,新規,0,2021-11-05,2021-11-05,株式会社ほっとＪＣ,,株式会社,愛知県,名古屋市熱田区,大宝４丁目９番２０号,,23,109,4560062,,,,,,,2021-11-05,1,,,,,ホットジェーシー,0
2065,6180003023149,新規,0,2021-11-05,2021-11-05,フェニックス合同会社,,合同会社,愛知県,名古屋市西区,名駅２丁目２９番２８号グランデール名古屋８０８号室,,23,104,4510045,,,,,,,2021-11-05,1,,,,,フェニックス,0
2068,6180005019500,新規,0,2021-11-05,2021-11-05,一般社団法人ｆｏｒｔｉｎａ,,その他の設立登記法人,愛知県,名古屋市北区,丸新町４８６番地,,23,103,4620063,,,,,,,2021-11-05,1,,,,,フォルティーナ,0
2075,6190001028826,新規,0,2021-11-05,2021-11-05,株式会社民宿豊,,株式会社,三重県,志摩市,阿児町国府３８２１番地２,,24,215,5170506,,,,,,,2021-11-05,1,,,,,ミンシュクユタカ,0
2089,6210001018683,新規,0,2021-11-05,2021-11-05,株式会社ＭＫＲ,,株式会社,福井県,福井市,東森田１丁目７０６番地,,18,201,9100138,,,,,,,2021-11-05,1,,,,,エムケーアール,0
2092,6220001024508,新規,0,2021-11-05,2021-11-05,株式会社みつあき,,株式会社,石川県,河北郡内灘町,字大根布５丁目１２０番地３,,17,365,9200266,,,,,,,2021-11-05,1,,,,,ミツアキ,0
2095,6230001019077,新規,0,2021-11-05,2021-11-05,株式会社湾乃幸,,株式会社,富山県,富山市,桜橋通り３番１号富山電気ビルデイング本館２階,,16,201,9300004,,,,,,,2021-11-05,1,,,,,ワンノサチ,0
2100,6240001058891,新規,0,2021-11-05,2021-11-05,株式会社ｇｌａｄ,,株式会社,広島県,広島市安佐南区,西原４丁目４番２９－２０３号,,34,105,7310113,,,,,,,2021-11-05,1,,,,,グラッド,0
2101,6240003005355,新規,0,2021-11-05,2021-11-05,合同会社岳人,,合同会社,広島県,広島市中区,南竹屋町２番２号,,34,101,7300049,,,,,,,2021-11-05,1,,,,,ガクジン,0
2103,6250001019240,新規,0,2021-11-05,2021-11-05,株式会社ＦＫＬＩＮＥ,,株式会社,山口県,下関市,豊田町大字稲見４４２番地,,35,201,7500412,,,,,,,2021-11-05,1,,,,,エフケーライン,0
2121,6290001095237,新規,0,2021-11-05,2021-11-05,株式会社たすく,,株式会社,福岡県,福岡市東区,西戸崎６丁目１７番２０号,,40,131,8110321,,,,,,,2021-11-05,1,,,,,タスク,0
2122,6290001095253,新規,0,2021-11-05,2021-11-05,株式会社ナチュレールＡＫＡＲＩ,,株式会社,福岡県,福岡市城南区,茶山６丁目１７番６号,,40,136,8140111,,,,,,,2021-11-05,1,,,,,ナチュレールアカリ,0
2123,6290001095261,新規,0,2021-11-05,2021-11-05,株式会社ＰＡＲＫ　ＳＴＵＤＩＯ,,株式会社,福岡県,福岡市中央区,警固１丁目３番７号,,40,133,8100023,,,,,,,2021-11-05,1,,,,,パークスタジオ,0
2124,6290001095278,新規,0,2021-11-05,2021-11-05,株式会社Ｔｒａｎｓｐｏｒｔ　Ｗｕｎｄｅｒ,,株式会社,福岡県,福岡市中央区,那の津３丁目４６番６号,,40,133,8100071,,,,,,,2021-11-05,1,,,,,トランスポートヴンダー,0
2125,6290001095286,新規,0,2021-11-05,2021-11-05,株式会社ｒｅｓｕｌｔａｔ,,株式会社,福岡県,糸島市,前原南２丁目１０番５号,,40,230,8191139,,,,,,,2021-11-05,1,,,,,レジュルタ,0
2128,6290801027959,新規,0,2021-11-05,2021-11-05,株式会社パドルデザインオフィス,,株式会社,福岡県,北九州市戸畑区,小芝２丁目６番８号,,40,105,8040092,,,,,,,2021-11-05,1,,,,,パドルデザインオフィス,0
2129,6290801027967,新規,0,2021-11-05,2021-11-05,株式会社丈成,,株式会社,福岡県,田川市,伊田町９番１４号第３扇ビル３Ｆ,,40,206,8250015,,,,,,,2021-11-05,1,,,,,ジョウセイ,0
2140,6330003009124,新規,0,2021-11-05,2021-11-05,合同会社プロバイオ,,合同会社,熊本県,阿蘇郡西原村,大字布田１３３０－１,,43,432,8612403,,,,,,,2021-11-05,1,,,,,プロバイオ,0
2141,6330005010427,新規,0,2021-11-05,2021-11-05,行政書士法人熊本法務事務所,,その他の設立登記法人,熊本県,熊本市東区,桜木４丁目１６番１３号,,43,102,8612101,,,,,,,2021-11-05,1,,,,,クマモトホウムジムショ,0
2145,6340001024207,新規,0,2021-11-05,2021-11-05,株式会社ＬＩＡＮＡＨ,,株式会社,鹿児島県,鹿児島市,西谷山２丁目１９番１３号,,46,201,8910117,,,,,,,2021-11-05,1,,,,,リアンナ,0
2146,6350001017390,新規,0,2021-11-05,2021-11-05,本谷Ｇｒｅｅｎ株式会社,,株式会社,宮崎県,日向市,大字財光寺２８１８番地４,,45,206,8830021,,,,,,,2021-11-05,1,,,,,ホンタニグリーン,0
2147,6350001017399,新規,0,2021-11-05,2021-11-05,株式会社豪拳,,株式会社,宮崎県,小林市,細野３０５９番地５,,45,205,8860004,,,,,,,2021-11-05,1,,,,,ゴウケン,0
2152,6360001029575,新規,0,2021-11-05,2021-11-05,トータルプロデュース株式会社,,株式会社,沖縄県,宜野湾市,伊佐１丁目１番１４－３０５号,,47,205,9012221,,,,,,,2021-11-05,1,,,,,トータルプロデュース,0
2153,6360001029591,新規,0,2021-11-05,2021-11-05,株式会社アズーラ,,株式会社,沖縄県,石垣市,字大川２０９番地６,,47,207,9070022,,,,,,,2021-11-05,1,,,,,アズーラ,0
2154,6360001029600,新規,0,2021-11-05,2021-11-05,Ｐｏｎｏ　Ｓｔｙｌｅ株式会社,,株式会社,沖縄県,沖縄市,中央１丁目７－８,,47,211,9040004,,,,,,,2021-11-05,1,,,,,ポノスタイル,0
2156,6360003011523,新規,0,2021-11-05,2021-11-05,南西コーポレーション合同会社,,合同会社,沖縄県,国頭郡恩納村,字恩納６１３０番地シーパレス恩納１０５号,,47,311,9040411,,,,,,,2021-11-05,1,,,,,ナンセイコーポレーション,0
2157,6370001047799,新規,0,2021-11-05,2021-11-05,株式会社医食同源社,,株式会社,宮城県,仙台市青葉区,五橋１丁目１番５０－１３０３号,,04,101,9800022,,,,,,,2021-11-05,1,,,,,イショクドウゲンシャ,0
2158,6370001047808,新規,0,2021-11-05,2021-11-05,株式会社ｅｎｎ,,株式会社,宮城県,仙台市太白区,大谷地１番９号,,04,104,9820035,,,,,,,2021-11-05,1,,,,,エン,0
2160,6370005010381,新規,0,2021-11-05,2021-11-05,行政書士法人あおばの杜,,その他の設立登記法人,宮城県,仙台市青葉区,上杉１丁目６番１０号,,04,101,9800011,,,,,,,2021-11-05,1,,,,,アオバノモリ,0
2163,6380001032305,新規,0,2021-11-05,2021-11-05,株式会社ウィンロード,,株式会社,福島県,郡山市,巳六段１１６番地,,07,203,9630119,,,,,,,2021-11-05,1,,,,,ウィンロード,0
2175,6440001008975,新規,0,2021-11-05,2021-11-05,Ｓｍｉｌｅ　Ａｌｌ　Ｓｕｐｐｏｒｔ株式会社,,株式会社,北海道,函館市,宇賀浦町１５番６号,,01,202,0400023,,,,,,,2021-11-05,1,,,,,スマイルオールサポート,0
2179,6460101007082,新規,0,2021-11-05,2021-11-05,株式会社６ＲＯＫＵ,,株式会社,北海道,帯広市,西六条南３１丁目５番地２,,01,207,0800016,,,,,,,2021-11-05,1,,,,,ロク,0
2183,6470001018807,新規,0,2021-11-05,2021-11-05,株式会社Ｇ・Ｆ,,株式会社,香川県,さぬき市,長尾西２３５７番地１,,37,206,7692302,,,,,,,2021-11-05,1,,,,,ジーエフ,0
2185,6470003002073,新規,0,2021-11-05,2021-11-05,合同会社ＹＡＳＵＥ　ＯＦＦＩＣＩＡＬ,,合同会社,香川県,高松市,木太町３６１７番地１サンライフ原田Ｃ－１０２,,37,201,7600080,,,,,,,2021-11-05,1,,,,,ヤスエオフィシャル,0
2187,6480003001751,新規,0,2021-11-05,2021-11-05,合同会社田渕溶接工業,,合同会社,徳島県,鳴門市,里浦町里浦字恵美寿５０７番地,,36,202,7720021,,,,,,,2021-11-05,1,,,,,タブチヨウセツコウギョウ,0
2196,6700150105308,新規,0,2021-11-05,2021-10-14,Ｙｉｎ－Ｙａｎｇ　Ａｒｔ　Ｐｒｏｊｅｃｔ実行委員会,,その他,鳥取県,鳥取市,用瀬町屋住４５６－２,,31,201,6891228,,,,,,,2021-10-14,1,,,,,イエンヤンアートプロジエクトジツコウイインカイ,0
2208,7010001222222,新規,0,2021-11-05,2021-11-05,株式会社Ｇａｉａｎｉｘｘ,,株式会社,東京都,中央区,日本橋蛎殻町１丁目８番５号,,13,102,1030014,,,,,,,2021-11-05,1,,,,,ガイアニクス,0
2209,7010001222239,新規,0,2021-11-05,2021-11-05,アセットエス株式会社,,株式会社,東京都,中央区,銀座１丁目１５番１１号,,13,102,1040061,,,,,,,2021-11-05,1,,,,,アセットエス,0
2210,7010001222321,新規,0,2021-11-05,2021-11-05,株式会社めぐる不動産,,株式会社,東京都,文京区,湯島３丁目２８番１号,,13,105,1130034,,,,,,,2021-11-05,1,,,,,メグルフドウサン,0
2214,7010003036174,新規,0,2021-11-05,2021-11-05,合同会社Ｇｉｎｚａ　Ｌｉｌｉｅ,,合同会社,東京都,中央区,銀座２丁目１３番１６－３０１号,,13,102,1040061,,,,,,,2021-11-05,1,,,,,ギンザリーリエ,0
2215,7010101014940,新規,0,2021-11-05,2021-11-05,株式会社Ａ　ＷＯＯＤ　ＷＯＲＫＳ,,株式会社,東京都,八王子市,東中野２００１番地３０,,13,201,1920351,,,,,,,2021-11-05,1,,,,,アウッドワークス,0
2221,7010401163652,新規,0,2021-11-05,2021-11-05,株式会社ＯＴＳ,,株式会社,東京都,港区,浜松町２丁目２番１５号,,13,103,1050013,,,,,,,2021-11-05,1,,,,,オーティーエス,0
2222,7010401163660,新規,0,2021-11-05,2021-11-05,スモール株式会社,,株式会社,東京都,港区,南青山２丁目２番１５号,,13,103,1070062,,,,,,,2021-11-05,1,,,,,スモール,0
2223,7010401163677,新規,0,2021-11-05,2021-11-05,株式会社Ｐｏｒｕｌｅｔ,,株式会社,東京都,港区,南青山２丁目２９番９,,13,103,1070062,,,,,,,2021-11-05,1,,,,,ポルレ,0
2224,7010401163693,新規,0,2021-11-05,2021-11-05,株式会社ＳＨＩＮＮ,,株式会社,東京都,港区,赤坂６丁目１９－４１,,13,103,1070052,,,,,,,2021-11-05,1,,,,,シン,0
2234,7010601060187,新規,0,2021-11-05,2021-11-05,ＫＹＯ株式会社,,株式会社,東京都,墨田区,京島１丁目１番２－２０２号イーストコア曳舟二番館,,13,107,1310046,,,,,,,2021-11-05,1,,,,,キョウ,0
2239,7010801032449,新規,0,2021-11-05,2021-11-05,株式会社キャリー・オン・ファシリティーズ,,株式会社,東京都,大田区,大森東３丁目２番１４号,,13,111,1430012,,,,,,,2021-11-05,1,,,,,キャリーオンファシリティーズ,0
2240,7010801032457,新規,0,2021-11-05,2021-11-05,株式会社ジェイフィギュア,,株式会社,東京都,大田区,東雪谷４丁目３－１８,,13,111,1450065,,,,,,,2021-11-05,1,,,,,ジェイフィギュア,0
2245,7010901049715,新規,0,2021-11-05,2021-11-05,株式会社フォレストワン,,株式会社,東京都,世田谷区,等々力５丁目２１番１５号,,13,112,1580082,,,,,,,2021-11-05,1,,,,,フォレストワン,0
2246,7010901049731,新規,0,2021-11-05,2021-11-05,株式会社Ｐｒｏｊｅｃｔ　Ｎｙｘ,,株式会社,東京都,世田谷区,経堂５丁目３番２６号,,13,112,1560052,,,,,,,2021-11-05,1,,,,,プロジェクトニクス,0
2253,7011001143796,新規,0,2021-11-05,2021-11-05,アンドストラテジー株式会社,,株式会社,東京都,渋谷区,恵比寿４丁目５番２８－３０８号,,13,113,1500013,,,,,,,2021-11-05,1,,,,,アンドストラテジー,0
2260,7011101096779,新規,0,2021-11-05,2021-11-05,株式会社Ｗｉｎｄｏｒａ　Ａｃｃｏｕｎｔｉｎｇ,,株式会社,東京都,新宿区,弁天町１０５番地日神デュオステージ新宿外苑東通り１１０１,,13,104,1620851,,,,,,,2021-11-05,1,,,,,ウィンドーラアカウンティング,0
2261,7011101096829,新規,0,2021-11-05,2021-11-05,三泰生物科技研究所株式会社,,株式会社,東京都,新宿区,百人町２丁目２２番２－１０８号,,13,104,1690073,,,,,,,2021-11-05,1,,,,,サンタイセイブツカギケンキュウショ,0
2263,7011105010034,新規,0,2021-11-05,2021-11-05,社会保険労務士法人ルーティング,,その他の設立登記法人,東京都,新宿区,新宿２丁目１２番１３号２階,,13,104,1600022,,,,,,,2021-11-05,1,,,,,ルーティング,0
2265,7011501027458,新規,0,2021-11-05,2021-11-05,株式会社東京広告,,株式会社,東京都,北区,赤羽１丁目７番９号赤羽第一葉山ビル４階,,13,117,1150045,,,,,,,2021-11-05,1,,,,,トウキョウコウコク,0
2266,7011503004959,新規,0,2021-11-05,2021-11-05,合同会社Ｐ＆Ｈ,,合同会社,東京都,北区,王子本町１丁目１番２１号,,13,117,1140022,,,,,,,2021-11-05,1,,,,,ピーアンドエイチ,0
2268,7011701024817,新規,0,2021-11-05,2021-11-05,株式会社トップエージェント,,株式会社,東京都,江戸川区,平井３丁目２３番２８号,,13,123,1320035,,,,,,,2021-11-05,1,,,,,トップエージェント,0
2272,7011703002985,新規,0,2021-11-05,2021-11-05,合同会社ＬＩＮＥＴ　ＰＪ１８,,合同会社,東京都,江戸川区,西一之江３丁目４番１２号,,13,123,1320023,,,,,,,2021-11-05,1,,,,,リネットピージェイジュウハチ,0
2273,7011803004849,新規,0,2021-11-05,2021-11-05,ティー・ＳＨ合同会社,,合同会社,東京都,葛飾区,鎌倉３丁目１３番９号サークルテラス高砂参番館２０５,,13,122,1250053,,,,,,,2021-11-05,1,,,,,ティーエスエイチ,0
2275,7012401038504,新規,0,2021-11-05,2021-11-05,株式会社東京アーバン不動産,,株式会社,東京都,武蔵野市,吉祥寺本町１丁目２０番１号,,13,203,1800004,,,,,,,2021-11-05,1,,,,,トウキョウアーバンフドウサン,0
2283,7013101008763,新規,0,2021-11-05,2021-11-05,株式会社ＩＤＫ,,株式会社,東京都,西多摩郡瑞穂町,むさし野２丁目５９番地１１,,13,303,1901214,,,,,,,2021-11-05,1,,,,,アイディーケー,0
2287,7013301048213,新規,0,2021-11-05,2021-11-05,Ｇｌоｂａｌ　Ｂｕｙｅｒ株式会社,,株式会社,東京都,豊島区,池袋１丁目１２－１ハニービーＣ室,,13,116,1700014,,,,,,,2021-11-05,1,,,,,グローバルバイヤー,0
2289,7013303005889,新規,0,2021-11-05,2021-11-05,千東国際合同会社,,合同会社,東京都,豊島区,上池袋１丁目３７番２２－１５０４号,,13,116,1700012,,,,,,,2021-11-05,1,,,,,センドウコクサイ,0
2302,7020001143748,新規,0,2021-11-05,2021-11-05,株式会社ｔｏｃｏｎｏｖａ,,株式会社,神奈川県,横浜市青葉区,市ケ尾町１１５５番地３,,14,117,2250024,,,,,,,2021-11-05,1,,,,,トコノバ,0
2303,7020001143772,新規,0,2021-11-05,2021-11-05,株式会社発達障害リハビリテーション研究センター,,株式会社,神奈川県,横浜市金沢区,六浦南４丁目２０番１－３０７号,,14,108,2360038,,,,,,,2021-11-05,1,,,,,ハッタツショウガイリハビリテーションケンキュウセンター,0
2304,7020001143797,新規,0,2021-11-05,2021-11-05,株式会社信為,,株式会社,神奈川県,横浜市磯子区,東町１９番１０－１１０号,,14,107,2350005,,,,,,,2021-11-05,1,,,,,,0
2306,7020003020739,新規,0,2021-11-05,2021-11-05,合同会社ＯＴＲ,,合同会社,神奈川県,横浜市南区,高根町１丁目３,,14,105,2320022,,,,,,,2021-11-05,1,,,,,オーティーアール,0
2307,7020003020771,新規,0,2021-11-05,2021-11-05,ＧＵＧＥＮ　Ｓｏｆｔｗａｒｅ合同会社,,合同会社,神奈川県,横浜市磯子区,森１丁目１３番３－９０６号,,14,107,2350023,,,,,,,2021-11-05,1,,,,,グゲンソフトウェア,0
2314,7021001074446,新規,0,2021-11-05,2021-11-05,株式会社三浦総合福祉,,株式会社,神奈川県,藤沢市,辻堂神台２丁目３番７,,14,205,2510041,,,,,,,2021-11-05,1,,,,,ミウラソウゴウフクシ,0
2321,7030001145099,新規,0,2021-11-05,2021-11-05,株式会社歩未,,株式会社,埼玉県,北葛飾郡松伏町,松葉１丁目７番地８,,11,465,3430112,,,,,,,2021-11-05,1,,,,,アユミ,0
2322,7030001145116,新規,0,2021-11-05,2021-11-05,株式会社イーアンドエムエクステリア,,株式会社,埼玉県,北葛飾郡杉戸町,大字木野川３２６番地７,,11,464,3450003,,,,,,,2021-11-05,1,,,,,イーアンドエムエクステリア,0
2323,7030001145124,新規,0,2021-11-05,2021-11-05,ｆｒｅｅ株式会社,,株式会社,埼玉県,朝霞市,西弁財１丁目１５番５－１０２号,,11,227,3510021,,,,,,,2021-11-05,1,,,,,フリー,0
2324,7030001145132,新規,0,2021-11-05,2021-11-05,株式会社とだ・わらび葬祭センター,,株式会社,埼玉県,戸田市,氷川町２丁目８番２号,,11,224,3350027,,,,,,,2021-11-05,1,,,,,トダワラビソウサイセンター,0
2325,7030001145149,新規,0,2021-11-05,2021-11-05,ＭＡＫＥ　Ａ　ＩＮＮＯＶＡＴＩＯＮ株式会社,,株式会社,埼玉県,さいたま市大宮区,桜木町４丁目３３３番地１３・ＯＬＳビル１階,,11,103,3300854,,,,,,,2021-11-05,1,,,,,メイクアイノベーション,0
2326,7030001145157,新規,0,2021-11-05,2021-11-05,株式会社Ｔスチール,,株式会社,埼玉県,新座市,馬場３丁目８番２３－８号,,11,230,3520016,,,,,,,2021-11-05,1,,,,,ティースチール,0
2327,7030001145165,新規,0,2021-11-05,2021-11-05,株式会社ヒロセウォールズ,,株式会社,埼玉県,本庄市,児玉町下真下７１０番地１,,11,211,3670207,,,,,,,2021-11-05,1,,,,,ヒロセウォールズ,0
2328,7030001145173,新規,0,2021-11-05,2021-11-05,株式会社山電,,株式会社,埼玉県,川口市,大字石神１９６番地の３,,11,203,3330823,,,,,,,2021-11-05,1,,,,,ヤマデン,0
2329,7030001145207,新規,0,2021-11-05,2021-11-05,彩管工業株式会社,,株式会社,埼玉県,川越市,石原町２丁目４８番地１５,,11,201,3500824,,,,,,,2021-11-05,1,,,,,サイカンコウギョウ,0
2342,7040001120844,新規,0,2021-11-05,2021-11-05,大谷建築設備株式会社,,株式会社,千葉県,山武市,木原２０２６番地３１,,12,237,2891212,,,,,,,2021-11-05,1,,,,,オオタニケンチクセツビ,0
2343,7040001120852,新規,0,2021-11-05,2021-11-05,篠塚電気設備株式会社,,株式会社,千葉県,香取市,多田７７１番地３,,12,236,2870014,,,,,,,2021-11-05,1,,,,,シノツカデンキセツビ,0
2344,7040001120877,新規,0,2021-11-05,2021-11-05,株式会社ＬＯＧＩＥＸ,,株式会社,千葉県,富津市,二間塚１６６６番地１,,12,226,2930002,,,,,,,2021-11-05,1,,,,,ロジエックス,0
2345,7040001120893,新規,0,2021-11-05,2021-11-05,株式会社Ｉ．Ｋ,,株式会社,千葉県,市原市,能満１１番地５,,12,219,2900011,,,,,,,2021-11-05,1,,,,,アイケー,0
2350,7040003018847,新規,0,2021-11-05,2021-11-05,合同会社ＩＶＥＬＡＴＡ,,合同会社,千葉県,流山市,江戸川台西１丁目５４番６号,,12,220,2700115,,,,,,,2021-11-05,1,,,,,イベラタ,0
2351,7040003018855,新規,0,2021-11-05,2021-11-05,ＭｉＡマネジメント合同会社,,合同会社,千葉県,我孫子市,栄２６番１４号,,12,222,2701141,,,,,,,2021-11-05,1,,,,,ミアマネジメント,0
2355,7050001050074,新規,0,2021-11-05,2021-11-05,株式会社鹿行Ａ．Ｒ．Ｑ．Ｃ．,,株式会社,茨城県,鹿嶋市,大字宮中２２９番地７エムエフビル,,08,222,3140031,,,,,,,2021-11-05,1,,,,,ロッコウエーアールキューシー,0
2356,7050001050082,新規,0,2021-11-05,2021-11-05,株式会社吉岡塗装,,株式会社,茨城県,結城市,みどり町２丁目１番地２,,08,207,3070004,,,,,,,2021-11-05,1,,,,,ヨシオカトソウ,0
2359,7060001034274,新規,0,2021-11-05,2021-11-05,株式会社仁助エンジニアリング,,株式会社,栃木県,那須郡那須町,大字富岡１０４３番地１,,09,407,3293212,,,,,,,2021-11-05,1,,,,,ニスケエンジニアリング,0
2370,7080101022879,新規,0,2021-11-05,2021-11-05,株式会社ＡＩＤ　ＰＲＥＣＩＯＵＳ,,株式会社,静岡県,沼津市,市道町８－５１,,22,203,4100866,,,,,,,2021-11-05,1,,,,,エイドプレシャス,0
2371,7080101022895,新規,0,2021-11-05,2021-11-05,株式会社杉山技建,,株式会社,静岡県,賀茂郡松崎町,松崎３２０番地の３,,22,305,4103611,,,,,,,2021-11-05,1,,,,,スギヤマギケン,0
2372,7080101022904,新規,0,2021-11-05,2021-11-05,株式会社村総,,株式会社,静岡県,富士市,松岡９０２番地の１ローズスクエアＢ－１０１号,,22,210,4160909,,,,,,,2021-11-05,1,,,,,ムラソウ,0
2373,7080401025458,新規,0,2021-11-05,2021-11-05,株式会社エルフィ,,株式会社,静岡県,浜松市南区,三島町１１０９番地の２モンファミーユＩ１０１,00124784,22,134,4300853,,,,,,,2021-11-05,1,,,,,エルフィ,0
2374,7080401025466,新規,0,2021-11-05,2021-11-05,株式会社オオツカ,,株式会社,静岡県,浜松市東区,大蒲町７７番地の３,,22,132,4350014,,,,,,,2021-11-05,1,,,,,オオツカ,0
2375,7100001034798,新規,0,2021-11-05,2021-11-05,つなぐ株式会社,,株式会社,長野県,飯田市,小伝馬町１丁目４５番地の２,,20,205,3950013,,,,,,,2021-11-05,1,,,,,ツナグ,0
2400,7120001241558,新規,0,2021-11-05,2021-11-05,株式会社コトナリス,,株式会社,大阪府,大阪市北区,芝田２丁目８番１１号共栄ビル３階,,27,127,5300012,,,,,,,2021-11-05,1,,,,,コトナリス,0
2401,7120001241566,新規,0,2021-11-05,2021-11-05,さくら乗用サービス株式会社,,株式会社,大阪府,大阪市福島区,福島６丁目２番６号大阪安藤ハザマビル８０３号室,,27,103,5530003,,,,,,,2021-11-05,1,,,,,サクラジョウヨウサービス,0
2402,7120001241582,新規,0,2021-11-05,2021-11-05,トヨタエステート株式会社,,株式会社,大阪府,大阪市生野区,中川西１丁目７番１６号,,27,116,5440032,,,,,,,2021-11-05,1,,,,,トヨタエステート,0
2403,7120001241590,新規,0,2021-11-05,2021-11-05,株式会社イゾラーニ,,株式会社,大阪府,大阪市中央区,谷町５丁目２番７－３０１号,,27,128,5400012,,,,,,,2021-11-05,1,,,,,イゾラーニ,0
2404,7120001241599,新規,0,2021-11-05,2021-11-05,株式会社ＨＩＢＩＫＩ工務店,,株式会社,大阪府,大阪市鶴見区,中茶屋１丁目１２番４５号,,27,124,5380033,,,,,,,2021-11-05,1,,,,,ヒビキコウムテン,0
2405,7120001241608,新規,0,2021-11-05,2021-11-05,株式会社ｐｉｕ,,株式会社,大阪府,大阪市北区,堂島１丁目１番５号,,27,127,5300003,,,,,,,2021-11-05,1,,,,,ピュー,0
2406,7120001241616,新規,0,2021-11-05,2021-11-05,株式会社ＶＯＧＵＥ　ＥＮＴＥＲＴＡＩＮＭＥＮＴ,,株式会社,大阪府,大阪市福島区,福島６丁目１１番１３－３０５号,,27,103,5530003,,,,,,,2021-11-05,1,,,,,ボーグエンターテイメント,0
2407,7120001241624,新規,0,2021-11-05,2021-11-05,株式会社オフィスウェーブ,,株式会社,大阪府,大阪市北区,西天満３丁目１０番３号４階,,27,127,5300047,,,,,,,2021-11-05,1,,,,,オフィスウェーブ,0
2408,7120001241657,新規,0,2021-11-05,2021-11-05,生き様クリエイト株式会社,,株式会社,大阪府,大阪市東淀川区,豊里６丁目２４番１９号,,27,114,5330013,,,,,,,2021-11-05,1,,,,,イキザマクリエイト,0
2409,7120001241707,新規,0,2021-11-05,2021-11-05,株式会社さくら興産,,株式会社,大阪府,寝屋川市,萱島東１丁目９－２１,,27,215,5720824,,,,,,,2021-11-05,1,,,,,サクラコウサン,0
2414,7120101064594,新規,0,2021-11-05,2021-11-05,カロシ株式会社,,株式会社,大阪府,泉佐野市,笠松１丁目８－１７－６０６,,27,213,5980044,,,,,,,2021-11-05,1,,,,,カロシ,0
2415,7120101064603,新規,0,2021-11-05,2021-11-05,株式会社大英,,株式会社,大阪府,富田林市,高辺台１丁目１０番１号,,27,214,5840072,,,,,,,2021-11-05,1,,,,,ダイエイ,0
2416,7120105009471,新規,0,2021-11-05,2021-11-05,一般社団法人しらさぎ子供育英基金,,その他の設立登記法人,大阪府,堺市東区,白鷺町１丁１９番１９号,,27,143,5998107,,,,,,,2021-11-05,1,,,,,シラサギコドモイクエイキキン,0
2427,7140001123696,新規,0,2021-11-05,2021-11-05,株式会社ＳＨＯ‐ＧＲＯＵＰ,,株式会社,兵庫県,加古郡播磨町,南大中２丁目７番４３号,,28,382,6750147,,,,,,,2021-11-05,1,,,,,ショウグループ,0
2428,7140001123746,新規,0,2021-11-05,2021-11-05,ＤＯＴＦＲＥＥ株式会社,,株式会社,兵庫県,神戸市中央区,海岸通８番地神港ビルヂング,,28,110,6500024,,,,,,,2021-11-05,1,,,,,ドットフリー,0
2429,7140001123754,新規,0,2021-11-05,2021-11-05,Ｓａｇｏ　ＮＭＧ株式会社,,株式会社,兵庫県,尼崎市,浜田町２丁目４９番地の３,,28,202,6600062,,,,,,,2021-11-05,1,,,,,サゴエヌエムジー,0
2430,7140001123770,新規,0,2021-11-05,2021-11-05,株式会社歩和,,株式会社,兵庫県,尼崎市,西立花町２丁目５番２６号,,28,202,6600054,,,,,,,2021-11-05,1,,,,,ポワ,0
2434,7140003016931,新規,0,2021-11-05,2021-11-05,合同会社Ｃａｃａｏ,,合同会社,兵庫県,神戸市兵庫区,御崎本町２丁目９番１０号,,28,105,6520852,,,,,,,2021-11-05,1,,,,,カカオ,0
2435,7140005025880,新規,0,2021-11-05,2021-11-05,一般社団法人税務研究会,,その他の設立登記法人,兵庫県,尼崎市,御園町２４番地尼崎第一ビル４０２号,,28,202,6600861,,,,,,,2021-11-05,1,,,,,ゼイムケンキュウカイ,0
2439,7170001016856,新規,0,2021-11-05,2021-11-05,株式会社児島造園,,株式会社,和歌山県,有田郡湯浅町,大字青木３９４番地,,30,361,6430002,,,,,,,2021-11-05,1,,,,,コジマゾウエン,0
2448,7180001148500,新規,0,2021-11-05,2021-11-05,株式会社Ｗｈｉｐｓ,,株式会社,愛知県,知多市,岡田字大曽１９番地３,,23,224,4780021,,,,,,,2021-11-05,1,,,,,ウィップス,0
2454,7180005019499,新規,0,2021-11-05,2021-11-05,一般社団法人ライフラボ,,その他の設立登記法人,愛知県,名古屋市名東区,貴船１丁目１４３番地,,23,115,4650058,,,,,,,2021-11-05,1,,,,,ライフラボ,0
2472,7210001018682,新規,0,2021-11-05,2021-11-05,株式会社福井スクールランチパートナーズ,,株式会社,福井県,福井市,中央２丁目６番８号,,18,201,9100006,,,,,,,2021-11-05,1,,,,,フクイスクールランチパートナーズ,0
2475,7210003001414,新規,0,2021-11-05,2021-11-05,合同会社Ｌｉｆｅ－ｕｐ,,合同会社,福井県,福井市,運動公園１丁目３６０６番地,,18,201,9188046,,,,,,,2021-11-05,1,,,,,ライフアップ,0
2478,7220001024523,新規,0,2021-11-05,2021-11-05,ワイエムテクノ株式会社,,株式会社,石川県,小松市,大領中町１丁目３３２番地,,17,203,9230962,,,,,,,2021-11-05,1,,,,,ワイエムテクノ,0
2485,7240001058866,新規,0,2021-11-05,2021-11-05,株式会社フルスイング,,株式会社,広島県,広島市安佐南区,山本３丁目２２番６号,,34,105,7310137,,,,,,,2021-11-05,1,,,,,フルスイング,0
2486,7240003005346,新規,0,2021-11-05,2021-11-05,合同会社香’ｓ,,合同会社,広島県,尾道市,新高山２丁目２６３１番地４４６,,34,205,7220055,,,,,,,2021-11-05,1,,,,,カオス,0
2488,7250001019231,新規,0,2021-11-05,2021-11-05,株式会社明誠,,株式会社,山口県,山口市,大内矢田北６丁目６番３９号,,35,203,7530221,,,,,,,2021-11-05,1,,,,,メイセイ,0
2503,7290001095236,新規,0,2021-11-05,2021-11-05,株式会社ヤマシタアートモールディング,,株式会社,福岡県,福岡市南区,柳瀬２丁目１番２６号,,40,134,8111321,,,,,,,2021-11-05,1,,,,,ヤマシタアートモールディング,0
2504,7290001095252,新規,0,2021-11-05,2021-11-05,松下板金塗装株式会社,,株式会社,福岡県,糟屋郡粕屋町,原町３丁目１３番１８号,,40,349,8112307,,,,,,,2021-11-05,1,,,,,マツシタバンキントソウ,0
2505,7290001095285,新規,0,2021-11-05,2021-11-05,浦田庭園設計事務所株式会社,,株式会社,福岡県,太宰府市,高雄５丁目２番１５号,,40,221,8180122,,,,,,,2021-11-05,1,,,,,ウラタテイエンセッケイジムショ,0
2506,7290001095319,新規,0,2021-11-05,2021-11-05,オフィスカンパニー株式会社,,株式会社,福岡県,福岡市南区,玉川町５番１１－７０２号,,40,134,8150037,,,,,,,2021-11-05,1,,,,,オフィスカンパニー,0
2510,7290801027958,新規,0,2021-11-05,2021-11-05,株式会社今井書店,,株式会社,福岡県,北九州市八幡東区,祝町２丁目１３番８号,,40,108,8050041,,,,,,,2021-11-05,1,,,,,イマイショテン,0
2513,7300001012692,新規,0,2021-11-05,2021-11-05,株式会社フリーメーク,,株式会社,佐賀県,唐津市,旭が丘９番１５号,,41,202,8470823,,,,,,,2021-11-05,1,,,,,フリーメーク,0
2517,7310001017559,新規,0,2021-11-05,2021-11-05,株式会社コネクトながさき,,株式会社,長崎県,西彼杵郡長与町,三根郷５５５番地１１２,,42,307,8512125,,,,,,,2021-11-05,1,,,,,コネクトナガサキ,0
2522,7330001029148,新規,0,2021-11-05,2021-11-05,クリーン工社株式会社,,株式会社,熊本県,菊池市,旭志新明１６０番地３,,43,210,8691207,,,,,,,2021-11-05,1,,,,,クリーンコウシャ,0
2523,7330001029156,新規,0,2021-11-05,2021-11-05,株式会社モアナ,,株式会社,熊本県,天草市,牛深町１５５１番地６９,,43,215,8631901,,,,,,,2021-11-05,1,,,,,モアナ,0
2524,7330001029164,新規,0,2021-11-05,2021-11-05,株式会社大浜町野菜生産組合,,株式会社,熊本県,玉名市,大浜町３６２５番地,,43,206,8650055,,,,,,,2021-11-05,1,,,,,オオハママチヤサイセイサンクミアイ,0
2526,7330005010426,新規,0,2021-11-05,2021-11-05,一般社団法人ソニックトラスト,,その他の設立登記法人,熊本県,熊本市南区,御幸笛田７丁目６番２７号,,43,104,8614172,,,,,,,2021-11-05,1,,,,,ソニックトラスト,0
2533,7350003003966,新規,0,2021-11-05,2021-11-05,合同会社畜産企画,,合同会社,宮崎県,都城市,早水町１３号６番地Ｂ棟,,45,202,8850016,,,,,,,2021-11-05,1,,,,,チクサンキカク,0
2534,7360001029582,新規,0,2021-11-05,2021-11-05,株式会社リバテック,,株式会社,沖縄県,浦添市,安波茶３丁目３５番９－１０１号喜舎場アパート,,47,208,9012114,,,,,,,2021-11-05,1,,,,,リバテック,0
2536,7370001047781,新規,0,2021-11-05,2021-11-05,佐藤メンテナンス株式会社,,株式会社,宮城県,仙台市青葉区,本町２丁目１１番５号,,04,101,9800014,,,,,,,2021-11-05,1,,,,,サトウメンテナンス,0
2543,7380001032304,新規,0,2021-11-05,2021-11-05,株式会社日本ファルマ,,株式会社,福島県,会津若松市,表町１番４８号,,07,202,9650831,,,,,,,2021-11-05,1,,,,,ニホンファルマ,0
2544,7380001032320,新規,0,2021-11-05,2021-11-05,三幸建装株式会社,,株式会社,福島県,大沼郡会津美里町,氷玉字関山甲１０８６番地,,07,447,9696143,,,,,,,2021-11-05,1,,,,,サンコウケンソウ,0
2551,7390003001891,新規,0,2021-11-05,2021-11-05,合同会社黒龍工房,,合同会社,山形県,上山市,みはらしの丘１３番地１２,,06,207,9993107,,,,,,,2021-11-05,1,,,,,コクリュウコウボウ,0
2555,7420001017639,新規,0,2021-11-05,2021-11-05,株式会社アップサイド,,株式会社,青森県,八戸市,城下４丁目１６番３２号,,02,203,0310072,,,,,,,2021-11-05,1,,,,,アップサイド,0
2556,7420001017647,新規,0,2021-11-05,2021-11-05,株式会社ＹＢＳ,,株式会社,青森県,青森市,浜館１丁目１８番地５,,02,201,0300947,,,,,,,2021-11-05,1,,,,,ワイビーエス,0
2563,7440003001424,新規,0,2021-11-05,2021-11-05,合同会社ＴＡＴＡＭＩ　ＷＯＲＫＳ,,合同会社,北海道,北斗市,昭和２丁目１５番２２号,,01,236,0490142,,,,,,,2021-11-05,1,,,,,タタミワークス,0
2565,7450003002149,新規,0,2021-11-05,2021-11-05,合同会社ケータリングサービス旭川,,合同会社,北海道,旭川市,神楽七条１４丁目４番５号,,01,204,0708007,,,,,,,2021-11-05,1,,,,,ケータリングサービスアサヒカワ,0
2566,7460001005623,新規,0,2021-11-05,2021-11-05,株式会社北陵,,株式会社,北海道,釧路市,益浦４丁目２番２３１号,,01,206,0850803,,,,,,,2021-11-05,1,,,,,ホクリョウ,0
2567,7470001018814,新規,0,2021-11-05,2021-11-05,株式会社ＰＵＲＯＧＵＲＥＳＵ,,株式会社,香川県,高松市,屋島西町２４９８番地１１,,37,201,7610113,,,,,,,2021-11-05,1,,,,,プログレス,0
2580,8010001222295,新規,0,2021-11-05,2021-11-05,株式会社ジェイド,,株式会社,東京都,中央区,銀座１丁目２２番１１号銀座大竹ビジデンス２階,,13,102,1040061,,,,,,,2021-11-05,1,,,,,ジェイド,0
2581,8010001222304,新規,0,2021-11-05,2021-11-05,株式会社Ｉ－Ｔｅｃｈ,,株式会社,東京都,千代田区,内幸町２丁目１番１号,,13,101,1000011,,,,,,,2021-11-05,1,,,,,アイテック,0
2588,8010003036132,新規,0,2021-11-05,2021-11-05,合同会社ＨＡＮ,,合同会社,東京都,中央区,築地３丁目１６番９号,,13,102,1040045,,,,,,,2021-11-05,1,,,,,ハン,0
2589,8010003036173,新規,0,2021-11-05,2021-11-05,ＧＩＮＺＡ２合同会社,,合同会社,東京都,中央区,日本橋１丁目４番１号日本橋一丁目ビルディング,,13,102,1030027,,,,,,,2021-11-05,1,,,,,ギンザツー,0
2591,8010005034167,新規,0,2021-11-05,2021-11-05,一般社団法人隼ファミリーサポート,,その他の設立登記法人,東京都,文京区,目白台３丁目１８番２６号,,13,105,1120015,,,,,,,2021-11-05,1,,,,,ハヤファミリーサポート,0
2592,8010103001804,新規,0,2021-11-05,2021-11-05,ＣＲＡＦＴ人事サポート合同会社,,合同会社,東京都,八王子市,暁町１丁目３５番１０－５０９号,,13,201,1920043,,,,,,,2021-11-05,1,,,,,クラフトジンジサポート,0
2597,8010401163635,新規,0,2021-11-05,2021-11-05,ビットク株式会社,,株式会社,東京都,港区,麻布狸穴町４４番地１－５０８号,,13,103,1060042,,,,,,,2021-11-05,1,,,,,ビットク,0
2598,8010401163643,新規,0,2021-11-05,2021-11-05,株式会社達,,株式会社,東京都,港区,麻布十番１丁目８番１１号,,13,103,1060045,,,,,,,2021-11-05,1,,,,,タツ,0
2599,8010401163651,新規,0,2021-11-05,2021-11-05,アンブランチ株式会社,,株式会社,東京都,港区,三田１丁目６番３,,13,103,1080073,,,,,,,2021-11-05,1,,,,,,0
2600,8010401163692,新規,0,2021-11-05,2021-11-05,株式会社フォスター・エデュケーション,,株式会社,東京都,港区,海岸１丁目２番３号,,13,103,1050022,,,,,,,2021-11-05,1,,,,,フォスターエデュケーション,0
2608,8010601060186,新規,0,2021-11-05,2021-11-05,株式会社ＢＡＳＳＡ,,株式会社,東京都,江東区,富岡１丁目２５番４号ニックハイム八幡１０２,,13,108,1350047,,,,,,,2021-11-05,1,,,,,バッサ,0
2613,8010703005989,新規,0,2021-11-05,2021-11-05,合同会社ＰＲＯＰＥＲＴＹ,,合同会社,東京都,品川区,上大崎２丁目８－１カスタリア目黒長者丸１０７,,13,109,1410021,,,,,,,2021-11-05,1,,,,,プロパティ,0
2614,8010801032456,新規,0,2021-11-05,2021-11-05,株式会社ＳＴＵＤＩＯ　ＳＯＴＡ,,株式会社,東京都,大田区,大森西１丁目８番２２号,,13,111,1430015,,,,,,,2021-11-05,1,,,,,スタジオソウタ,0
2615,8010801032464,新規,0,2021-11-05,2021-11-05,株式会社Ｓ１８－８工房,,株式会社,東京都,大田区,東糀谷６丁目９番１－４１３号,,13,111,1440033,,,,,,,2021-11-05,1,,,,,エスイチハチハチコウボウ,0
2616,8010901049722,新規,0,2021-11-05,2021-11-05,株式会社ビズマネ,,株式会社,東京都,世田谷区,桜丘４丁目２４番４０号,,13,112,1560054,,,,,,,2021-11-05,1,,,,,ビズマネ,0
2617,8010901049739,新規,0,2021-11-05,2021-11-05,株式会社めどしる,,株式会社,東京都,世田谷区,松原４丁目８番４号,,13,112,1560043,,,,,,,2021-11-05,1,,,,,メドシル,0
2621,8011001143787,新規,0,2021-11-05,2021-11-05,株式会社Ｗａｃｗｏｒｋｓ,,株式会社,東京都,渋谷区,神宮前６丁目２３番４号桑野ビル２階,,13,113,1500001,,,,,,,2021-11-05,1,,,,,ワックワークス,0
2622,8011001143829,新規,0,2021-11-05,2021-11-05,株式会社やすいお葬式,,株式会社,東京都,渋谷区,恵比寿１丁目１８番１６号恵比寿東海マンション６０２,,13,113,1500013,,,,,,,2021-11-05,1,,,,,ヤスイオソウシキ,0
2623,8011001143837,新規,0,2021-11-05,2021-11-05,株式会社ＳＵＰＥＲＭＡＲＫＥＴ,,株式会社,東京都,渋谷区,千駄ヶ谷４丁目５番１１号,,13,113,1510051,,,,,,,2021-11-05,1,,,,,スーパーマーケット,0
2625,8011003013625,新規,0,2021-11-05,2021-11-05,合同会社渋谷通商,,合同会社,東京都,渋谷区,南平台町１５番１－１００３号,,13,113,1500036,,,,,,,2021-11-05,1,,,,,シブヤツウショウ,0
2628,8011101096778,新規,0,2021-11-05,2021-11-05,株式会社Ｋ３キャラクターズ,,株式会社,東京都,新宿区,余丁町８番１０号ライオンズマンション２０３,,13,104,1620055,,,,,,,2021-11-05,1,,,,,ケイスリーキャラクターズ,0
2639,8011401023812,新規,0,2021-11-05,2021-11-05,株式会社Ｋ‐ｌ’ａｖａｎｃｅ,,株式会社,東京都,板橋区,仲宿４９－７,,13,119,1730005,,,,,,,2021-11-05,1,,,,,ケーラバンス,0
2643,8011501027457,新規,0,2021-11-05,2021-11-05,ＹＯＧ株式会社,,株式会社,東京都,荒川区,西日暮里４丁目２０番１－２０７号,,13,118,1160013,,,,,,,2021-11-05,1,,,,,ヨグ,0
2647,8011701024816,新規,0,2021-11-05,2021-11-05,レイグリーンエナジー株式会社,,株式会社,東京都,江戸川区,東葛西５丁目１２番６,,13,123,1340084,,,,,,,2021-11-05,1,,,,,レイグリーンエナジー,0
2649,8011801039920,新規,0,2021-11-05,2021-11-05,株式会社ＡＩＲＡＹ－ＡＰＡＲＴＭＥＮＴ,,株式会社,東京都,葛飾区,東金町１丁目３８番３号ＮＥＷ金町ビル２Ｆ,,13,122,1250041,,,,,,,2021-11-05,1,,,,,エアレイアパートメント,0
2650,8011803004856,新規,0,2021-11-05,2021-11-05,合同会社Ｒ．Ｔ．Ａ．,,合同会社,東京都,足立区,綾瀬１丁目１０番９号,,13,121,1200005,,,,,,,2021-11-05,1,,,,,アールティーエー,0
2652,8012301012764,新規,0,2021-11-05,2021-11-05,株式会社にこにこＴＥＲＲＡＣＥ,,株式会社,東京都,町田市,薬師台３丁目７番地６,,13,209,1950073,,,,,,,2021-11-05,1,,,,,ニコニコテラス,0
2653,8012401038503,新規,0,2021-11-05,2021-11-05,栄佑工業株式会社,,株式会社,東京都,武蔵野市,関前３丁目１６番１１－２１５号,,13,203,1800014,,,,,,,2021-11-05,1,,,,,エイユウコウギョウ,0
2655,8012701016753,新規,0,2021-11-05,2021-11-05,村岡商事株式会社,,株式会社,東京都,西東京市,ひばりが丘北３丁目３番３５号,,13,229,2020002,,,,,,,2021-11-05,1,,,,,ムラオカショウジ,0
2656,8012801021199,新規,0,2021-11-05,2021-11-05,株式会社ＰｉａＤＯＯＲ,,株式会社,東京都,国立市,富士見台３丁目１９－４,,13,215,1860003,,,,,,,2021-11-05,1,,,,,ピアドア,0
2659,8013101008762,新規,0,2021-11-05,2021-11-05,株式会社シーズ,,株式会社,東京都,羽村市,神明台１丁目１６番地４,,13,227,2050023,,,,,,,2021-11-05,1,,,,,シーズ,0
2670,8020001143722,新規,0,2021-11-05,2021-11-05,株式会社Ａ＆Ｇ　ＢＬＯＯＭ,,株式会社,神奈川県,横浜市都筑区,茅ケ崎東４丁目１２番１１号,,14,118,2240033,,,,,,,2021-11-05,1,,,,,エーアンドジーブルーム,0
2671,8020001143739,新規,0,2021-11-05,2021-11-05,株式会社便利屋いろは,,株式会社,神奈川県,横浜市西区,久保町３６番２号,,14,103,2200061,,,,,,,2021-11-05,1,,,,,ベンリヤイロハ,0
2672,8020001143755,新規,0,2021-11-05,2021-11-05,株式会社ソエルプランニング,,株式会社,神奈川県,横浜市神奈川区,白楽６番地５,,14,102,2210065,,,,,,,2021-11-05,1,,,,,ソエルプランニング,0
2673,8020001143763,新規,0,2021-11-05,2021-11-05,株式会社ＥｘｏｔｉｃＣａｒｓ．ｊｐ,,株式会社,神奈川県,横浜市青葉区,美しが丘３丁目５４番地３,,14,117,2250002,,,,,,,2021-11-05,1,,,,,エギゾチックカーズジェーピー,0
2679,8020003020762,新規,0,2021-11-05,2021-11-05,ネクストワン合同会社,,合同会社,神奈川県,川崎市川崎区,殿町１丁目３－４,,14,131,2100821,,,,,,,2021-11-05,1,,,,,ネクストワン,0
2682,8021001074379,新規,0,2021-11-05,2021-11-05,ＡＭＨＡＲ　ＭＯＴＥＲＳ株式会社,,株式会社,神奈川県,藤沢市,用田５９３番地の１０,,14,205,2520821,,,,,,,2021-11-05,1,,,,,アムハモータース,0
2683,8021001074395,新規,0,2021-11-05,2021-11-05,株式会社善心,,株式会社,神奈川県,伊勢原市,神戸７１４番地の３,,14,214,2591138,,,,,,,2021-11-05,1,,,,,ヨシン,0
2684,8021001074412,新規,0,2021-11-05,2021-11-05,株式会社湘南経営支援センター,,株式会社,神奈川県,平塚市,明石町１２番１０号２０３,,14,203,2540042,,,,,,,2021-11-05,1,,,,,ショウナンケイエイシエンセンター,0
2685,8021001074445,新規,0,2021-11-05,2021-11-05,株式会社Ａ－ＴＥＱ,,株式会社,神奈川県,厚木市,飯山３２９３番地８,,14,212,2430213,,,,,,,2021-11-05,1,,,,,エーテック,0
2687,8021005012343,新規,0,2021-11-05,2021-11-05,税理士法人小山内・中川事務所,,その他の設立登記法人,神奈川県,藤沢市,南藤沢９番１２－２０１号,,14,205,2510055,,,,,,,2021-11-05,1,,,,,オサナイナカガワジムショ,0
2690,8030001145115,新規,0,2021-11-05,2021-11-05,なかよし株式会社,,株式会社,埼玉県,深谷市,中瀬１５２０番地１,,11,218,3660001,,,,,,,2021-11-05,1,,,,,ナカヨシ,0
2691,8030001145131,新規,0,2021-11-05,2021-11-05,株式会社ＴＳＵＫＡＳＡホールディングス,,株式会社,埼玉県,川越市,大字藤間１５１番地７,,11,201,3501142,,,,,,,2021-11-05,1,,,,,ツカサホールディングス,0
2692,8030001145148,新規,0,2021-11-05,2021-11-05,株式会社巧進,,株式会社,埼玉県,北本市,中丸５丁目１９番地１０,,11,233,3640013,,,,,,,2021-11-05,1,,,,,コウシン,0
2693,8030001145164,新規,0,2021-11-05,2021-11-05,株式会社ｐａｔｍｅ,,株式会社,埼玉県,戸田市,大字新曽１４１３番地の２－３０５号,,11,224,3350021,,,,,,,2021-11-05,1,,,,,パットミ,0
2694,8030001145189,新規,0,2021-11-05,2021-11-05,株式会社Ｆｕ－ＳｅｎＳＥ,,株式会社,埼玉県,春日部市,中央１丁目５８番地１３,,11,214,3440067,,,,,,,2021-11-05,1,,,,,ヒューセンス,0
2695,8030001145206,新規,0,2021-11-05,2021-11-05,株式会社エアリープロダクション,,株式会社,埼玉県,大里郡寄居町,大字西ノ入４２５番１０,,11,408,3691225,,,,,,,2021-11-05,1,,,,,エアリープロダクション,0
2698,8030003018228,新規,0,2021-11-05,2021-11-05,合同会社ＫＣＧ４２０,,合同会社,埼玉県,川口市,柳崎３丁目１０番３３－２０４号ライオンズマンション東浦和第３,,11,203,3330861,,,,,,,2021-11-05,1,,,,,ケーシージーヨンニゼロ,0
2699,8030003018252,新規,0,2021-11-05,2021-11-05,合同会社ルークス,,合同会社,埼玉県,大里郡寄居町,大字桜沢４７６１番地,,11,408,3691202,,,,,,,2021-11-05,1,,,,,ルークス,0
2700,8030003018269,新規,0,2021-11-05,2021-11-05,合同会社Ｓｃｅｌｔｏ,,合同会社,埼玉県,戸田市,本町１丁目２１番２０－２０３号,,11,224,3350023,,,,,,,2021-11-05,1,,,,,シェルト,0
2720,8040001120835,新規,0,2021-11-05,2021-11-05,株式会社クレオブランディング,,株式会社,千葉県,柏市,若柴１７８番地４柏の葉キャンパス１４８街区２ショップ＆オフィス棟６Ｆ,,12,217,2770871,,,,,,,2021-11-05,1,,,,,クレオブランディング,0
2721,8040001120851,新規,0,2021-11-05,2021-11-05,よしの電設株式会社,,株式会社,千葉県,白井市,中２１８番地の８７,,12,232,2701406,,,,,,,2021-11-05,1,,,,,ヨシノデンセツ,0
2722,8040001120876,新規,0,2021-11-05,2021-11-05,株式会社ウインドサプライ,,株式会社,千葉県,市原市,糸久３１８番地１,,12,219,2900262,,,,,,,2021-11-05,1,,,,,ウインドサプライ,0
2723,8040001120884,新規,0,2021-11-05,2021-11-05,ホック株式会社,,株式会社,千葉県,千葉市中央区,浜野町１０２５番地１２,,12,101,2600824,,,,,,,2021-11-05,1,,,,,ホック,0
2726,8040003018870,新規,0,2021-11-05,2021-11-05,合同会社ＦｕｎＬａｂ．,,合同会社,千葉県,鎌ケ谷市,道野辺中央３丁目７番４５号,,12,224,2730113,,,,,,,2021-11-05,1,,,,,ファンラボ,0
2731,8050001050081,新規,0,2021-11-05,2021-11-05,株式会社小沼青果,,株式会社,茨城県,鉾田市,鹿田１１２４番地,,08,234,3111416,,,,,,,2021-11-05,1,,,,,オヌマセイカ,0
2732,8050001050098,新規,0,2021-11-05,2021-11-05,株式会社ぽかぽかファーム,,株式会社,茨城県,水戸市,鯉淵町４３００番地の１１,,08,201,3190323,,,,,,,2021-11-05,1,,,,,ポカポカファーム,0
2733,8050001050107,新規,0,2021-11-05,2021-11-05,株式会社Ｎｅｘｔ　ｅｎｃｏｕｎｔ,,株式会社,茨城県,つくばみらい市,板橋２６８４番地３,,08,235,3002307,,,,,,,2021-11-05,1,,,,,ネクストインカウント,0
2734,8050005012961,新規,0,2021-11-05,2021-11-05,一般財団法人いばらきコープ社会活動財団,,その他の設立登記法人,茨城県,小美玉市,西郷地１７０３番地,,08,236,3190102,,,,,,,2021-11-05,1,,,,,イバラキコープシャカイカツドウザイダン,0
2737,8060001034273,新規,0,2021-11-05,2021-11-05,株式会社きぬファーム,,株式会社,栃木県,塩谷郡高根沢町,大字石末１５９番地１９,,09,386,3291225,,,,,,,2021-11-05,1,,,,,キヌファーム,0
2745,8070001038595,新規,0,2021-11-05,2021-11-05,株式会社鳶矢崎架設,,株式会社,群馬県,館林市,下三林町８４６番地の５,,10,207,3740044,,,,,,,2021-11-05,1,,,,,トビヤザキカセツ,0
2749,8080101022894,新規,0,2021-11-05,2021-11-05,株式会社矢内原研究所,,株式会社,静岡県,富士宮市,粟倉２４８０番地の１,,22,207,4180011,,,,,,,2021-11-05,1,,,,,ヤナイハラケンキュウジョ,0
2751,8080401025457,新規,0,2021-11-05,2021-11-05,株式会社三建,,株式会社,静岡県,浜松市浜北区,東美薗７４４番地の１,,22,136,4340026,,,,,,,2021-11-05,1,,,,,サンケン,0
2752,8090001017267,新規,0,2021-11-05,2021-11-05,株式会社ソルトアイランド,,株式会社,山梨県,甲府市,国母６丁目６番２号,,19,201,4000043,,,,,,,2021-11-05,1,,,,,ソルトアイランド,0
2755,8090003001987,新規,0,2021-11-05,2021-11-05,合同会社成島工業,,合同会社,山梨県,甲府市,東下条町１８３番地９,,19,201,4000843,,,,,,,2021-11-05,1,,,,,ナルシマコウギョウ,0
2757,8100001034780,新規,0,2021-11-05,2021-11-05,株式会社太一,,株式会社,長野県,須坂市,大字塩川４９０番地６,,20,207,3820000,,,,,,,2021-11-05,1,,,,,タイチ,0
2759,8110001036173,新規,0,2021-11-05,2021-11-05,株式会社ウッドデザイン,,株式会社,新潟県,新潟市南区,木滑２１８９番地,,15,106,9501311,,,,,,,2021-11-05,1,,,,,ウッドデザイン,0
2772,8120001241565,新規,0,2021-11-05,2021-11-05,さくら乗用サービス株式会社,,株式会社,大阪府,大阪市福島区,福島６丁目２番６号大阪安藤ハザマビル８０２号室,,27,103,5530003,,,,,,,2021-11-05,1,,,,,サクラジョウヨウサービス,0
2773,8120001241573,新規,0,2021-11-05,2021-11-05,株式会社ＵＮＩＳＯＮ,,株式会社,大阪府,寝屋川市,河北西町２番２０号,,27,215,5720817,,,,,,,2021-11-05,1,,,,,ユニゾン,0
2774,8120001241581,新規,0,2021-11-05,2021-11-05,Ｅ－Ｍｉｎｄ株式会社,,株式会社,大阪府,大阪市淀川区,宮原１丁目１９番２３号,,27,123,5320003,,,,,,,2021-11-05,1,,,,,イーマインド,0
2775,8120001241607,新規,0,2021-11-05,2021-11-05,株式会社ヒロファーマコンサルティング,,株式会社,大阪府,大阪市淀川区,木川東２丁目１６番１２－７０３号,,27,123,5320012,,,,,,,2021-11-05,1,,,,,ヒロファーマコンサルティング,0
2776,8120001241672,新規,0,2021-11-05,2021-11-05,株式会社ＧＣｐｒｏｍｏｔｅ,,株式会社,大阪府,大阪市中央区,南本町４丁目５番７号東亜ビル５０２号室,,27,128,5410054,,,,,,,2021-11-05,1,,,,,ジーシープロモート,0
2777,8120001241689,新規,0,2021-11-05,2021-11-05,株式会社ＤｅｍｉＣｏ,,株式会社,大阪府,大阪市平野区,加美北８丁目１番４号,,27,126,5470001,,,,,,,2021-11-05,1,,,,,デミコ,0
2781,8120003020554,新規,0,2021-11-05,2021-11-05,合同会社スクエア,,合同会社,大阪府,枚方市,東香里南町５３番３０号,,27,210,5730074,,,,,,,2021-11-05,1,,,,,スクエア,0
2786,8120101064585,新規,0,2021-11-05,2021-11-05,株式会社ＭＯＣＡ－ｗｅｌｆａｒｅ,,株式会社,大阪府,富田林市,南旭ケ丘町１７番３号,,27,214,5840007,,,,,,,2021-11-05,1,,,,,モカウェルフェア,0
2787,8120101064602,新規,0,2021-11-05,2021-11-05,株式会社ＣＳパートナーズ,,株式会社,大阪府,岸和田市,北町８番２２号,,27,202,5960056,,,,,,,2021-11-05,1,,,,,シーエスパートナーズ,0
2790,8120103004424,新規,0,2021-11-05,2021-11-05,合同会社オートコースター,,合同会社,大阪府,堺市西区,山田４丁２０７９番地１,,27,144,5938316,,,,,,,2021-11-05,1,,,,,オートコースター,0
2795,8120901045124,新規,0,2021-11-05,2021-11-05,株式会社ＣＯＵＲＡＭＯＮ,,株式会社,大阪府,摂津市,鳥飼西５丁目４番６号３Ｆ,,27,224,5660072,,,,,,,2021-11-05,1,,,,,クラーモン,0
2796,8120901045132,新規,0,2021-11-05,2021-11-05,株式会社エール,,株式会社,大阪府,豊中市,服部西町４丁目１番１号,,27,203,5610858,,,,,,,2021-11-05,1,,,,,エール,0
2797,8120901045140,新規,0,2021-11-05,2021-11-05,株式会社ＤＡＷＮ,,株式会社,大阪府,池田市,石橋１丁目２３番５号,,27,204,5630032,,,,,,,2021-11-05,1,,,,,ドーン,0
2801,8130001070451,新規,0,2021-11-05,2021-11-05,游美株式会社,,株式会社,京都府,京都市中京区,松屋町５１番地,,26,104,6040831,,,,,,,2021-11-05,1,,,,,ユウビ,0
2802,8130001070476,新規,0,2021-11-05,2021-11-05,株式会社ＨＥＲＯＳ,,株式会社,京都府,京都市下京区,小坂町１番地１,,26,106,6008821,,,,,,,2021-11-05,1,,,,,ヒーローズ,0
2803,8130001070484,新規,0,2021-11-05,2021-11-05,株式会社ＲＵ,,株式会社,京都府,京都市右京区,西院坤町６１番地都興業ビル５階,,26,108,6150062,,,,,,,2021-11-05,1,,,,,アールユー,0
2807,8140001123695,新規,0,2021-11-05,2021-11-05,株式会社パワフルポスト,,株式会社,兵庫県,明石市,大明石町１丁目７番３５号,,28,203,6730891,,,,,,,2021-11-05,1,,,,,パワフルポスト,0
2808,8140001123704,新規,0,2021-11-05,2021-11-05,株式会社ＳＫホールディングス,,株式会社,兵庫県,西宮市,南郷町３番２０号,,28,204,6620038,,,,,,,2021-11-05,1,,,,,エスケイホールディングス,0
2809,8140001123729,新規,0,2021-11-05,2021-11-05,株式会社麦,,株式会社,兵庫県,加古郡稲美町,国岡１０４８番地の２,,28,381,6751115,,,,,,,2021-11-05,1,,,,,ムギ,0
2810,8140001123753,新規,0,2021-11-05,2021-11-05,株式会社Ｋａｒｅｉｎａ,,株式会社,兵庫県,姫路市,久保町８０番地,,28,201,6700916,,,,,,,2021-11-05,1,,,,,カレイナ,0
2811,8140003016947,新規,0,2021-11-05,2021-11-05,シチュー合同会社,,合同会社,兵庫県,相生市,汐見台２３番地４,,28,208,6780002,,,,,,,2021-11-05,1,,,,,シチュー,0
2823,8180001148557,新規,0,2021-11-05,2021-11-05,株式会社Ｆａｎ　ｆｏｏｄ,,株式会社,愛知県,瀬戸市,東寺山町１６８番地,,23,204,4890928,,,,,,,2021-11-05,1,,,,,ファンフード,0
2824,8180001148581,新規,0,2021-11-05,2021-11-05,ＥＬＪ　ｓｔｅｒｒａ株式会社,,株式会社,愛知県,名古屋市名東区,姫若町３番地の２ＫＴＣビル４階,,23,115,4650045,,,,,,,2021-11-05,1,,,,,イーエルジェイステラ,0
2825,8180001148607,新規,0,2021-11-05,2021-11-05,株式会社ＶＡＳＥ,,株式会社,愛知県,清須市,朝日愛宕１３８番地,,23,233,4520932,,,,,,,2021-11-05,1,,,,,ベイス,0
2828,8180003023171,新規,0,2021-11-05,2021-11-05,合同会社寿,,合同会社,愛知県,春日井市,気噴町北１丁目３４番地,,23,206,4870015,,,,,,,2021-11-05,1,,,,,コトブキ,0
2834,8190001028824,新規,0,2021-11-05,2021-11-05,株式会社タケハラ,,株式会社,三重県,志摩市,磯部町穴川３７９番地２,,24,215,5170213,,,,,,,2021-11-05,1,,,,,タケハラ,0
2842,8200001039365,新規,0,2021-11-05,2021-11-05,株式会社ケアーズダクト,,株式会社,岐阜県,高山市,国府町瓜巣１８０番地３,,21,203,5094126,,,,,,,2021-11-05,1,,,,,ケアーズダクト,0
2843,8200001039381,新規,0,2021-11-05,2021-11-05,株式会社アトレ,,株式会社,岐阜県,安八郡安八町,東結９１５番地の３,,21,383,5030112,,,,,,,2021-11-05,1,,,,,アトレ,0
2849,8230001019083,新規,0,2021-11-05,2021-11-05,株式会社縁溜,,株式会社,富山県,中新川郡立山町,四谷尾６９１番地４,,16,323,9303221,,,,,,,2021-11-05,1,,,,,エンタメ,0
2854,8240001058840,新規,0,2021-11-05,2021-11-05,株式会社Ｋ．ＳＴＯＮＥ,,株式会社,広島県,山県郡安芸太田町,大字津浪１１番地１,,34,368,7313502,,,,,,,2021-11-05,1,,,,,,0
2855,8240001058865,新規,0,2021-11-05,2021-11-05,Ｎ・Ｈホールディングス株式会社,,株式会社,広島県,東広島市,八本松町篠８７８番地１９,,34,212,7390131,,,,,,,2021-11-05,1,,,,,エヌエイチホールディングス,0
2856,8240003005353,新規,0,2021-11-05,2021-11-05,ＤＳＰ合同会社,,合同会社,広島県,三次市,江田川之内町９９４番１５号,,34,209,7296215,,,,,,,2021-11-05,1,,,,,ディーエスピー,0
2859,8250001019239,新規,0,2021-11-05,2021-11-05,株式会社鄭家,,株式会社,山口県,下関市,竹崎町２丁目１１番１３号,,35,201,7500025,,,,,,,2021-11-05,1,,,,,テイケ,0
2869,8290001095235,新規,0,2021-11-05,2021-11-05,インター工業株式会社,,株式会社,福岡県,糟屋郡宇美町,宇美中央３丁目１６番２２号,,40,341,8112128,,,,,,,2021-11-05,1,,,,,インターコウギョウ,0
2870,8290001095243,新規,0,2021-11-05,2021-11-05,株式会社ＧＣ,,株式会社,福岡県,福岡市中央区,地行浜２丁目２番５号,,40,133,8100065,,,,,,,2021-11-05,1,,,,,ジーシー,0
2871,8290001095276,新規,0,2021-11-05,2021-11-05,福達株式会社,,株式会社,福岡県,福岡市中央区,大名１丁目３番２９号７階,,40,133,8100041,,,,,,,2021-11-05,1,,,,,フクタツ,0
2872,8290001095284,新規,0,2021-11-05,2021-11-05,株式会社Ｒｅｎ　Ｃｌａｉｒ,,株式会社,福岡県,福岡市博多区,比恵町１８番２３号,,40,132,8120014,,,,,,,2021-11-05,1,,,,,レンクレール,0
2878,8300003001742,新規,0,2021-11-05,2021-11-05,合同会社ｉＯＮＡ,,合同会社,佐賀県,唐津市,原３３７番地１,,41,202,8470031,,,,,,,2021-11-05,1,,,,,イオナ,0
2888,8330001029147,新規,0,2021-11-05,2021-11-05,株式会社いちご光,,株式会社,熊本県,熊本市西区,河内町白浜８１４番地４,,43,103,8615348,,,,,,,2021-11-05,1,,,,,イチゴヒカル,0
2891,8330003009114,新規,0,2021-11-05,2021-11-05,合同会社出口建設,,合同会社,熊本県,荒尾市,宮内出目１３番地３,,43,204,8640003,,,,,,,2021-11-05,1,,,,,デグチケンセツ,0
2892,8330005010425,新規,0,2021-11-05,2021-11-05,医療法人季々会,,その他の設立登記法人,熊本県,熊本市南区,白藤３丁目２－１００,,43,104,8614112,,,,,,,2021-11-05,1,,,,,キキカイ,0
2902,8360001029581,新規,0,2021-11-05,2021-11-05,株式会社エフプラス,,株式会社,沖縄県,石垣市,字宮良１０５５番地２９,,47,207,9070243,,,,,,,2021-11-05,1,,,,,エフプラス,0
2903,8360003011554,新規,0,2021-11-05,2021-11-05,合同会社せかいえ,,合同会社,沖縄県,島尻郡与那原町,字東浜７８番地の１４ディアフラッツ東浜アネックス６０６,,47,348,9011304,,,,,,,2021-11-05,1,,,,,セカイエ,0
2904,8360005006552,新規,0,2021-11-05,2021-11-05,一般財団法人西表財団,,その他の設立登記法人,沖縄県,八重山郡竹富町,字南風見２０１番地の４７,,47,381,9071434,,,,,,,2021-11-05,1,,,,,イリオモテザイダン,0
2906,8370001047806,新規,0,2021-11-05,2021-11-05,株式会社恵比寿,,株式会社,宮城県,宮城郡七ヶ浜町,東宮浜字御林３番地の１１９,,04,404,9850804,,,,,,,2021-11-05,1,,,,,エビス,0
2909,8380001032303,新規,0,2021-11-05,2021-11-05,株式会社サイクル,,株式会社,福島県,郡山市,大槻町字上西田１８番地の２パセオミレニアム１０３号,,07,203,9630201,,,,,,,2021-11-05,1,,,,,サイクル,0
2910,8380001032311,新規,0,2021-11-05,2021-11-05,株式会社ＳＭＣ,,株式会社,福島県,いわき市,渡辺町上釜戸字瀬峰７４,,07,204,9728336,,,,,,,2021-11-05,1,,,,,エスエムシー,0
2913,8380005012499,新規,0,2021-11-05,2021-11-05,一般社団法人日本神経免疫学会,,その他の設立登記法人,福島県,郡山市,八山田７丁目１１５番地,,07,203,9638052,,,,,,,2021-11-05,1,,,,,ニホンシンケイメンエキガッカイ,0
2922,8420001017638,新規,0,2021-11-05,2021-11-05,カネカケンテック畳資材販売株式会社,,株式会社,青森県,南津軽郡藤崎町,大字福島字富田４０番地１,,02,361,0381211,,,,,,,2021-11-05,1,,,,,カネカケンテックタタミシザイハンバイ,0
2938,8440001008973,新規,0,2021-11-05,2021-11-05,株式会社ＯＧ,,株式会社,北海道,函館市,昭和２丁目６番１３号,,01,202,0410812,,,,,,,2021-11-05,1,,,,,オージー,0
2940,8460101007080,新規,0,2021-11-05,2021-11-05,株式会社山口工業,,株式会社,北海道,帯広市,西十七条南３丁目１７番１７号,,01,207,0800027,,,,,,,2021-11-05,1,,,,,ヤマグチコウギョウ,0
2941,8470001018813,新規,0,2021-11-05,2021-11-05,株式会社陽だまり,,株式会社,香川県,高松市,由良町５３７番地１５,,37,201,7610441,,,,,,,2021-11-05,1,,,,,ヒダマリ,0
2943,8480001011544,新規,0,2021-11-05,2021-11-05,株式会社紅葉アセットマネジメント,,株式会社,徳島県,鳴門市,撫養町木津字嬉谷１３３４番地４,,36,202,7720004,,,,,,,2021-11-05,1,,,,,,0
2948,8500001023768,新規,0,2021-11-05,2021-11-05,ＡＤＡＯ株式会社,,株式会社,愛媛県,松山市,歩行町１丁目１３－３プログレッソ御宝,,38,201,7900801,,,,,,,2021-11-05,1,,,,,アダオ,0
2958,9010001222220,新規,0,2021-11-05,2021-11-05,ＭＳＣ株式会社,,株式会社,東京都,中央区,銀座１丁目２２番１１号銀座大竹ビジデンス２Ｆ,,13,102,1040061,,,,,,,2021-11-05,1,,,,,エムエスシー,0
2959,9010001222311,新規,0,2021-11-05,2021-11-05,株式会社ＮＨＨＭ,,株式会社,東京都,千代田区,神田淡路町１丁目２番地１武蔵野ビル４階,,13,101,1010063,,,,,,,2021-11-05,1,,,,,エヌエイチエイチエム,0
2962,9010003036172,新規,0,2021-11-05,2021-11-05,合同会社アジャストシステムインテグレーション,,合同会社,東京都,千代田区,神田錦町３丁目９－１,,13,101,1010054,,,,,,,2021-11-05,1,,,,,アジャストシステムインテグレーション,0
2965,9010005034174,新規,0,2021-11-05,2021-11-05,一般社団法人あすとミライデベロップメント,,その他の設立登記法人,東京都,千代田区,丸の内３丁目１番１号東京共同会計事務所内,,13,101,1000005,,,,,,,2021-11-05,1,,,,,アストミライデベロップメント,0
2966,9010005034182,新規,0,2021-11-05,2021-11-05,ＮＩＨＯＮＢＡＳＨＩ２一般社団法人,,その他の設立登記法人,東京都,中央区,日本橋１丁目４番１号日本橋一丁目ビルディング,,13,102,1030027,,,,,,,2021-11-05,1,,,,,ニホンバシツー,0
2967,9010101014947,新規,0,2021-11-05,2021-11-05,株式会社イッカクシステム総合研究所,,株式会社,東京都,八王子市,片倉町２３５２番地３,,13,201,1920914,,,,,,,2021-11-05,1,,,,,イッカクシステムソウゴウケンキュウジョ,0
2971,9010401163650,新規,0,2021-11-05,2021-11-05,株式会社ブラン,,株式会社,東京都,港区,南青山３丁目１番３号スプライン青山東急ビル３階,,13,103,1070062,,,,,,,2021-11-05,1,,,,,ブラン,0
2972,9010401163659,新規,0,2021-11-05,2021-11-05,株式会社Ｒｅａｌ,,株式会社,東京都,港区,西新橋２丁目３４番８－３０６号,,13,103,1050003,,,,,,,2021-11-05,1,,,,,リアル,0
2973,9010401163675,新規,0,2021-11-05,2021-11-05,株式会社ＳＨＯＺＯ　ＴＯＫＹＯ,,株式会社,東京都,港区,北青山３丁目１０番１５号,,13,103,1070061,,,,,,,2021-11-05,1,,,,,ショウゾートウキョウ,0
2981,9010405020360,新規,0,2021-11-05,2021-11-05,一般社団法人こどものトビラ,,その他の設立登記法人,東京都,港区,南青山１丁目１２番３号ＬＩＦＯＲＫ南青山ＮｏｒｔｈＢｕｉｌｄｉｎｇ２Ｆ,,13,103,1070062,,,,,,,2021-11-05,1,,,,,コドモノトビラ,0
2984,9010503006419,新規,0,2021-11-05,2021-11-05,合同会社鐘鎮,,合同会社,東京都,台東区,上野７丁目３番９号,,13,106,1100005,,,,,,,2021-11-05,1,,,,,カネデン,0
2993,9010701041738,新規,0,2021-11-05,2021-11-05,株式会社ＡｉｒＡｄｍｉｎ８,,株式会社,東京都,品川区,南大井３丁目２０番５号,,13,109,1400013,,,,,,,2021-11-05,1,,,,,エアーアドミンエイト,0
2995,9010705003288,新規,0,2021-11-05,2021-11-05,一般社団法人日本アーシング鍼灸・整体協会,,その他の設立登記法人,東京都,品川区,東大井５丁目１９番９号,,13,109,1400011,,,,,,,2021-11-05,1,,,,,ニホンアーシングシンキュウセイタイキョウカイ,0
2996,9010901049746,新規,0,2021-11-05,2021-11-05,株式会社タイトエンド,,株式会社,東京都,世田谷区,若林４丁目３１番１９－５０５号,,13,112,1540023,,,,,,,2021-11-05,1,,,,,タイトエンド,0
2997,9010901049754,新規,0,2021-11-05,2021-11-05,株式会社Ｆｉｎａｎｃｉａｌ　Ｐｌａｔｆｏｒｍ　Ｈｕｂ,,株式会社,東京都,世田谷区,北沢１丁目１５－５カスタリア北沢４０１,,13,112,1550031,,,,,,,2021-11-05,1,,,,,フィナンシャルプラットフォームハブ,0
3008,9011001143786,新規,0,2021-11-05,2021-11-05,株式会社ＡＴ,,株式会社,東京都,渋谷区,代官山町１７番１号代官山アドレス３１０６,,13,113,1500034,,,,,,,2021-11-05,1,,,,,エーティー,0
3009,9011001143828,新規,0,2021-11-05,2021-11-05,株式会社東京オルガン不動産,,株式会社,東京都,渋谷区,神宮前４丁目３１番１１号コスモ原宿ビル７０２,,13,113,1500001,,,,,,,2021-11-05,1,,,,,トウキョウオルガンフドウサン,0
3014,9011101096810,新規,0,2021-11-05,2021-11-05,株式会社ココロミル,,株式会社,東京都,新宿区,西新宿１丁目２５番１号,,13,104,1600023,,,,,,,2021-11-05,1,,,,,ココロミル,0
3015,9011105010024,新規,0,2021-11-05,2021-11-05,イーグル社会保険労務士法人,,その他の設立登記法人,東京都,新宿区,新宿１丁目１５番１５号東邦ビル３階,,13,104,1600022,,,,,,,2021-11-05,1,,,,,イーグル,0
3018,9011503004957,新規,0,2021-11-05,2021-11-05,マイアン合同会社,,合同会社,東京都,荒川区,東日暮里６丁目２８番１８－３０３号サニーマンション,,13,118,1160014,,,,,,,2021-11-05,1,,,,,マイアン,0
3027,9011701024823,新規,0,2021-11-05,2021-11-05,株式会社キューテック,,株式会社,東京都,江戸川区,北葛西２丁目１５番１号,,13,123,1340081,,,,,,,2021-11-05,1,,,,,キューテック,0
3034,9012801021198,新規,0,2021-11-05,2021-11-05,株式会社田代住設,,株式会社,東京都,武蔵村山市,中原１丁目２０番地の９,,13,223,2080035,,,,,,,2021-11-05,1,,,,,タシロジュウセツ,0
3035,9012801021207,新規,0,2021-11-05,2021-11-05,株式会社インワンダープラネット,,株式会社,東京都,国分寺市,西恋ヶ窪４丁目２－２、３０３,,13,214,1850013,,,,,,,2021-11-05,1,,,,,インワンダープラネット,0
3048,9020001143754,新規,0,2021-11-05,2021-11-05,株式会社Ｔｏｔａｌ　Ｓｕｐｐｏｒｔ　Ｍａｎａｇｅｍｅｎｔ,,株式会社,神奈川県,横浜市保土ケ谷区,星川１丁目４番１３号,,14,106,2400006,,,,,,,2021-11-05,1,,,,,トータルサポートマネジメント,0
3049,9020001143770,新規,0,2021-11-05,2021-11-05,株式会社アンセー電工,,株式会社,神奈川県,横浜市港北区,小机町３６９番地１横浜小机パークスクエアＡ棟１０１号,,14,109,2220036,,,,,,,2021-11-05,1,,,,,アンセーデンコウ,0
3050,9020001143779,新規,0,2021-11-05,2021-11-05,株式会社ＴＦＳホールディングス,,株式会社,神奈川県,横浜市西区,浅間町１丁目１３番地３,,14,103,2200072,,,,,,,2021-11-05,1,,,,,ティーエフエスホールディングス,0
3051,9020001143795,新規,0,2021-11-05,2021-11-05,グランゼスト株式会社,,株式会社,神奈川県,横浜市中区,本牧和田２７番１８－２０１号,,14,104,2310827,,,,,,,2021-11-05,1,,,,,グランゼスト,0
3052,9020001143804,新規,0,2021-11-05,2021-11-05,株式会社大喜,,株式会社,神奈川県,横浜市中区,石川町３丁目１１３番地,,14,104,2310868,,,,,,,2021-11-05,1,,,,,タイキ,0
3053,9020001143812,新規,0,2021-11-05,2021-11-05,株式会社明暉,,株式会社,神奈川県,横浜市中区,山下町１４６－６－４Ｆ,,14,104,2310023,,,,,,,2021-11-05,1,,,,,メイキ,0
3054,9020001143820,新規,0,2021-11-05,2021-11-05,株式会社ラ・ソナリサ,,株式会社,神奈川県,横浜市港南区,東永谷３丁目１５番３０－４２０号,,14,111,2330011,,,,,,,2021-11-05,1,,,,,ラソナリサ,0
3059,9020003020761,新規,0,2021-11-05,2021-11-05,ＣＡＬＡＦＯ合同会社,,合同会社,神奈川県,川崎市宮前区,南平台８－７－１,,14,136,2160024,,,,,,,2021-11-05,1,,,,,カラフォ,0
3061,9020005015256,新規,0,2021-11-05,2021-11-05,かながわ司法書士法人,,その他の設立登記法人,神奈川県,横浜市神奈川区,西神奈川１丁目１９番地３セザール東白楽,,14,102,2210822,,,,,,,2021-11-05,1,,,,,カナガワ,0
3065,9021001074386,新規,0,2021-11-05,2021-11-05,翔輝建設株式会社,,株式会社,神奈川県,厚木市,関口９９９番地９,,14,212,2430804,,,,,,,2021-11-05,1,,,,,ショウキケンセツ,0
3066,9021001074394,新規,0,2021-11-05,2021-11-05,株式会社ＭＫ　Ｌｉｎｋｓ,,株式会社,神奈川県,相模原市緑区,東橋本２丁目３５番５号,,14,151,2520144,,,,,,,2021-11-05,1,,,,,エムケイリンクス,0
3067,9021001074428,新規,0,2021-11-05,2021-11-05,株式会社六心医療情報システム,,株式会社,神奈川県,厚木市,戸室５丁目１８番１号,,14,212,2430031,,,,,,,2021-11-05,1,,,,,ロクシンイリョウジョウホウシステム,0
3073,9030001145106,新規,0,2021-11-05,2021-11-05,株式会社ガーデンヒル,,株式会社,埼玉県,吉川市,大字川藤１６４５番地１,,11,243,3420005,,,,,,,2021-11-05,1,,,,,ガーデンヒル,0
3074,9030001145114,新規,0,2021-11-05,2021-11-05,株式会社Ｒ．Ｋ．Ｅ,,株式会社,埼玉県,川越市,大字砂新田３７８番地６５,,11,201,3501137,,,,,,,2021-11-05,1,,,,,アールケーイー,0
3075,9030001145122,新規,0,2021-11-05,2021-11-05,株式会社ｉｃｅｒ,,株式会社,埼玉県,熊谷市,中西４丁目１９番２６号,,11,202,3600013,,,,,,,2021-11-05,1,,,,,アイサー,0
3076,9030001145130,新規,0,2021-11-05,2021-11-05,株式会社マルユウ,,株式会社,埼玉県,さいたま市北区,宮原町２丁目３５番地６－１０２,,11,102,3310812,,,,,,,2021-11-05,1,,,,,マルユウ,0
3077,9030001145139,新規,0,2021-11-05,2021-11-05,結縁株式会社,,株式会社,埼玉県,川越市,大字今福１０８７番地２,,11,201,3501151,,,,,,,2021-11-05,1,,,,,ユエン,0
3078,9030001145155,新規,0,2021-11-05,2021-11-05,井上建設工業株式会社,,株式会社,埼玉県,熊谷市,船木台１丁目２番地６,,11,202,3690108,,,,,,,2021-11-05,1,,,,,イノウエケンセツコウギョウ,0
3079,9030001145163,新規,0,2021-11-05,2021-11-05,株式会社サバイバルカンパニー,,株式会社,埼玉県,川越市,新富町２丁目７番地１新富町伊勢原第三ビル２０２,,11,201,3500043,,,,,,,2021-11-05,1,,,,,サバイバルカンパニー,0
3080,9030003018193,新規,0,2021-11-05,2021-11-05,合同会社ｃｏｍｅ　ｔｕｒｅ,,合同会社,埼玉県,入間郡三芳町,大字藤久保３３６番１号エコヴィレッジ鶴瀬７１１号室,,11,324,3540041,,,,,,,2021-11-05,1,,,,,カムトゥルー,0
3088,9040001120834,新規,0,2021-11-05,2021-11-05,株式会社オトナシステム,,株式会社,千葉県,千葉市中央区,中央４丁目１３番２９号ＲＳビル２０１,,12,101,2600013,,,,,,,2021-11-05,1,,,,,オトナシステム,0
3089,9040001120850,新規,0,2021-11-05,2021-11-05,株式会社Ｓｐｉｎ　Ｐｌｕｓ,,株式会社,千葉県,千葉市緑区,おゆみ野５丁目２４番地６,,12,105,2660031,,,,,,,2021-11-05,1,,,,,スピンプラス,0
3090,9040001120867,新規,0,2021-11-05,2021-11-05,ＣＬＳ株式会社,,株式会社,千葉県,千葉市美浜区,真砂４丁目３番１棟８０３号,,12,106,2610011,,,,,,,2021-11-05,1,,,,,シーエルエス,0
3091,9040001120917,新規,0,2021-11-05,2021-11-05,株式会社Ｋ．Ｏ．ＬＯＧＩ,,株式会社,千葉県,野田市,柳沢６４番地の５６,,12,208,2780006,,,,,,,2021-11-05,1,,,,,ケーオーロジ,0
3095,9040003018853,新規,0,2021-11-05,2021-11-05,合同会社四つ葉トレーディング,,合同会社,千葉県,茂原市,早野１９６８－１上田ハイツ２０３号,,12,210,2970037,,,,,,,2021-11-05,1,,,,,ヨツバトレーディング,0
3096,9040003018878,新規,0,2021-11-05,2021-11-05,ＦＡ　ＴＲＡＤＩＮＧ合同会社,,合同会社,千葉県,山武市,川崎１５４番地１０,,12,237,2891331,,,,,,,2021-11-05,1,,,,,エフエイトレーディング,0
3097,9040005021418,新規,0,2021-11-05,2021-11-05,一般財団法人波多野財団,,その他の設立登記法人,千葉県,いすみ市,大原７６５０番地５,,12,238,2980004,,,,,,,2021-11-05,1,,,,,ハタノザイダン,0
3099,9050001050080,新規,0,2021-11-05,2021-11-05,清水物産丸鋒株式会社,,株式会社,茨城県,稲敷市,清水２０６０番地１,,08,229,3000614,,,,,,,2021-11-05,1,,,,,シミズブッサンマルホウ,0
3100,9050001050097,新規,0,2021-11-05,2021-11-05,茨城アクアテクノス株式会社,,株式会社,茨城県,水戸市,城東４丁目１番９号,,08,201,3100012,,,,,,,2021-11-05,1,,,,,イバラキアクアテクノス,0
3101,9050001050106,新規,0,2021-11-05,2021-11-05,株式会社クエルプリン,,株式会社,茨城県,古河市,東１丁目５－１５,,08,204,3060011,,,,,,,2021-11-05,1,,,,,クエルプリン,0
3110,9060001034280,新規,0,2021-11-05,2021-11-05,株式会社幸悠会,,株式会社,栃木県,佐野市,高砂町５３,,09,204,3270022,,,,,,,2021-11-05,1,,,,,コウユウカイ,0
3113,9070001038603,新規,0,2021-11-05,2021-11-05,株式会社ｅｃ．０,,株式会社,群馬県,伊勢崎市,下植木町７７２番地３７サンモール植木Ｃ号棟,,10,204,3720024,,,,,,,2021-11-05,1,,,,,エコゼロ,0
3118,9080001024536,新規,0,2021-11-05,2021-11-05,吉成管工株式会社,,株式会社,静岡県,静岡市駿河区,広野３丁目２９番５号,,22,102,4210121,,,,,,,2021-11-05,1,,,,,ヨシナリカンコウ,0
3120,9080101022893,新規,0,2021-11-05,2021-11-05,株式会社新希,,株式会社,静岡県,富士宮市,小泉６３０番地の１９,,22,207,4180022,,,,,,,2021-11-05,1,,,,,シンキ,0
3121,9080103002448,新規,0,2021-11-05,2021-11-05,ＭＩＹＯＯ　ＴＲＡＤＩＮＧ合同会社,,合同会社,静岡県,富士宮市,山本３８７番地の１０,,22,207,4180023,,,,,,,2021-11-05,1,,,,,ミヨートレイディング,0
3123,9080403004400,新規,0,2021-11-05,2021-11-05,合同会社トラストパートナーＫ,,合同会社,静岡県,浜松市中区,松城町２０３番地６,,22,131,4300947,,,,,,,2021-11-05,1,,,,,トラストパートナーケー,0
3128,9090001017266,新規,0,2021-11-05,2021-11-05,株式会社ＲラインＥＸＰＲＥＳＳ,,株式会社,山梨県,甲斐市,富竹新田７５７番地５２,,19,210,4000113,,,,,,,2021-11-05,1,,,,,,0
3130,9090003001986,新規,0,2021-11-05,2021-11-05,Ｐａｒｅｉｍｉ合同会社,,合同会社,山梨県,北杜市,高根町下黒澤１４３０－１３,,19,209,4080015,,,,,,,2021-11-05,1,,,,,パレイミ,0
3132,9100001034788,新規,0,2021-11-05,2021-11-05,株式会社インターネイチャー,,株式会社,長野県,茅野市,本町東１番１２号,,20,214,3910003,,,,,,,2021-11-05,1,,,,,インターネイチャー,0
3133,9100001034796,新規,0,2021-11-05,2021-11-05,株式会社＿槞＿,00124786,株式会社,長野県,上田市,真田町本原９３５番地１,,20,203,3862202,,,,,,,2021-11-05,1,,,,,ブルコウ,0
3151,9120001241548,新規,0,2021-11-05,2021-11-05,株式会社エアリービーチ,,株式会社,大阪府,大阪市中央区,久太郎町３丁目１－２７ヒグチビル４０１,,27,128,5410056,,,,,,,2021-11-05,1,,,,,エアリービーチ,0
3152,9120001241556,新規,0,2021-11-05,2021-11-05,株式会社ＫＥネット,,株式会社,大阪府,大阪市中央区,内本町１丁目２番１４号,,27,128,5400026,,,,,,,2021-11-05,1,,,,,ケーイーネット,0
3153,9120001241622,新規,0,2021-11-05,2021-11-05,株式会社クレオ,,株式会社,大阪府,大阪市淀川区,十八条３丁目１７番３号,,27,123,5320001,,,,,,,2021-11-05,1,,,,,クレオ,0
3154,9120001241639,新規,0,2021-11-05,2021-11-05,株式会社ＵＮＣ,,株式会社,大阪府,大阪市中央区,難波千日前４番１７号,,27,128,5420075,,,,,,,2021-11-05,1,,,,,ユーエヌシー,0
3155,9120001241655,新規,0,2021-11-05,2021-11-05,株式会社よしこれ,,株式会社,大阪府,大阪市中央区,安土町１丁目７番１３号,,27,128,5410052,,,,,,,2021-11-05,1,,,,,ヨシコレ,0
3156,9120001241671,新規,0,2021-11-05,2021-11-05,株式会社アーバンサイクル,,株式会社,大阪府,大阪市北区,堂島２丁目３番２－３０４号,,27,127,5300003,,,,,,,2021-11-05,1,,,,,アーバンサイクル,0
3162,9120003020545,新規,0,2021-11-05,2021-11-05,合同会社アセットクリエイション,,合同会社,大阪府,大阪市旭区,大宮３丁目２０番２２－１４０２号,,27,117,5350002,,,,,,,2021-11-05,1,,,,,アセットクリエイション,0
3168,9120901045131,新規,0,2021-11-05,2021-11-05,株式会社Ａ・セキュリティ,,株式会社,大阪府,豊中市,服部西町２丁目７番３０号,,27,203,5610858,,,,,,,2021-11-05,1,,,,,エーセキュリティ,0
3170,9130001070475,新規,0,2021-11-05,2021-11-05,ＵＮＩＣＯＲＮ　ＦＯＲＥＳＴ株式会社,,株式会社,京都府,京都市中京区,天神山町２８０番地,,26,104,6048221,,,,,,,2021-11-05,1,,,,,ユニコーンフォレスト,0
3171,9130001070491,新規,0,2021-11-05,2021-11-05,株式会社グリーン・マルベリー・ジャパン,,株式会社,京都府,京都市東山区,下河原通八坂鳥居前下る三丁目南町４２４番地２０６,,26,105,6050000,,,,,,,2021-11-05,1,,,,,グリーンマルベリージャパン,0
3179,9140001123694,新規,0,2021-11-05,2021-11-05,株式会社將正,,株式会社,兵庫県,明石市,大久保町西島４０１番地の３コスモグレイスＩ－１０１号,00124785,28,203,6740065,,,,,,,2021-11-05,1,,,,,ショウセイ,0
3180,9140001123703,新規,0,2021-11-05,2021-11-05,株式会社カモコ,,株式会社,兵庫県,神戸市東灘区,鴨子ケ原１丁目１２番１４号,,28,101,6580064,,,,,,,2021-11-05,1,,,,,カモコ,0
3181,9140001123711,新規,0,2021-11-05,2021-11-05,株式会社キッズ・ジョイ,,株式会社,兵庫県,神戸市須磨区,弥栄台３丁目６番地,,28,107,6540161,,,,,,,2021-11-05,1,,,,,キッズジョイ,0
3182,9140001123752,新規,0,2021-11-05,2021-11-05,株式会社ＮＴＨ,,株式会社,兵庫県,姫路市,飾磨区加茂２７５番地５－１Ｆ,,28,201,6728074,,,,,,,2021-11-05,1,,,,,エヌティエイチ,0
3183,9140001123760,新規,0,2021-11-05,2021-11-05,株式会社フードカルチャー,,株式会社,兵庫県,加古川市,野口町野口６８７番地の７０,,28,210,6750012,,,,,,,2021-11-05,1,,,,,フードカルチャー,0
3184,9140001123777,新規,0,2021-11-05,2021-11-05,株式会社織田鉄工所,,株式会社,兵庫県,加西市,河内町５０番地の１,,28,220,6752421,,,,,,,2021-11-05,1,,,,,オリタテッコウショ,0
3189,9140003016938,新規,0,2021-11-05,2021-11-05,合同会社ＡＤＤＹＡＹ,,合同会社,兵庫県,揖保郡太子町,鵤４５５番地２,,28,464,6711561,,,,,,,2021-11-05,1,,,,,アッドイェイ,0
3190,9140003016954,新規,0,2021-11-05,2021-11-05,吉村ネクストフェーズ合同会社,,合同会社,兵庫県,芦屋市,南浜町１４番２５号,,28,206,6590037,,,,,,,2021-11-05,1,,,,,ヨシムラネクストフェーズ,0
3194,9150001025080,新規,0,2021-11-05,2021-11-05,株式会社Ｂｌｕｅ　ｐｅａｒ,,株式会社,奈良県,奈良市,芝辻町３丁目９－１５,00124768,29,201,6308114,,,,,,,2021-11-05,1,,,,,ブルーペアー,0
3195,9150005009344,新規,0,2021-11-05,2021-11-05,明日香村特定地域づくり事業協同組合,,その他の設立登記法人,奈良県,高市郡明日香村,大字島庄５番地,,29,402,6340112,,,,,,,2021-11-05,1,,,,,アスカムラトクテイチイキヅクリ,0
3200,9160005011010,新規,0,2021-11-05,2021-11-05,一般社団法人れもん,,その他の設立登記法人,滋賀県,長浜市,湖北町山本字堂前２６３８番地２,,25,203,5290354,,,,,,,2021-11-05,1,,,,,レモン,0
3207,9180001148564,新規,0,2021-11-05,2021-11-05,株式会社落合建築,,株式会社,愛知県,春日井市,八田町６丁目６番地４,,23,206,4860849,,,,,,,2021-11-05,1,,,,,オチアイケンチク,0
3208,9180001148606,新規,0,2021-11-05,2021-11-05,株式会社東和解体,,株式会社,愛知県,名古屋市緑区,大高町字定納山１４番地の２３３（２Ｆ）,,23,114,4598001,,,,,,,2021-11-05,1,,,,,トウワカイタイ,0
3209,9180001148622,新規,0,2021-11-05,2021-11-05,株式会社Ｆｉｖｅ－Ａｒｃ,,株式会社,愛知県,名古屋市中区,栄５丁目２１番２６号,,23,106,4600008,,,,,,,2021-11-05,1,,,,,ファイブアーク,0
3210,9180001148639,新規,0,2021-11-05,2021-11-05,株式会社ＡＣホーム,,株式会社,愛知県,名古屋市名東区,延珠町５０１番地大島ビル１０３号室,,23,115,4650003,,,,,,,2021-11-05,1,,,,,エーシーホーム,0
3216,9180003023162,新規,0,2021-11-05,2021-11-05,合同会社Ａ,,合同会社,愛知県,名古屋市東区,葵１丁目２５番１号,,23,102,4610004,,,,,,,2021-11-05,1,,,,,エー,0
3223,9190005011635,新規,0,2021-11-05,2021-11-05,医療法人神田小児科,,その他の設立登記法人,三重県,伊勢市,河崎１丁目１２番１２号,,24,203,5160009,,,,,,,2021-11-05,1,,,,,カンダショウニカ,0
3226,9200001039364,新規,0,2021-11-05,2021-11-05,株式会社オープンテラス,,株式会社,岐阜県,岐阜市,松風町１丁目１７番地１,,21,201,5020833,,,,,,,2021-11-05,1,,,,,オープンテラス,0
3233,9210003001420,新規,0,2021-11-05,2021-11-05,合同会社ｒｉｓｅ,,合同会社,福井県,福井市,上中町第２６号３４番地１,,18,201,9100826,,,,,,,2021-11-05,1,,,,,ライズ,0
3241,9250001019238,新規,0,2021-11-05,2021-11-05,大樹サーチファンド株式会社,,株式会社,山口県,下関市,一の宮町２丁目１５番１５号マーベラス新下関３０２号,,35,201,7510806,,,,,,,2021-11-05,1,,,,,タイジュサーチファンド,0
3242,9250001019246,新規,0,2021-11-05,2021-11-05,株式会社ウィズ,,株式会社,山口県,下関市,武久町１丁目１４番１６号,,35,201,7510833,,,,,,,2021-11-05,1,,,,,ウィズ,0
3243,9250003002935,新規,0,2021-11-05,2021-11-05,ＢＨＤ合同会社,,合同会社,山口県,周南市,本町１丁目２５番地,,35,215,7450036,,,,,,,2021-11-05,1,,,,,ビーエイチディー,0
3246,9260001036174,新規,0,2021-11-05,2021-11-05,Ｋｅｙｓｔｏｎｅ株式会社,,株式会社,岡山県,勝田郡勝央町,岡５１９番地,,33,622,7094311,,,,,,,2021-11-05,1,,,,,キーストーン,0
3251,9290001095267,新規,0,2021-11-05,2021-11-05,株式会社倉冨ホールディングス,,株式会社,福岡県,福岡市東区,大字志賀島４９８番地１,,40,131,8110323,,,,,,,2021-11-05,1,,,,,クラトミホールディングス,0
3252,9290001095275,新規,0,2021-11-05,2021-11-05,株式会社藤山住設,,株式会社,福岡県,福岡市東区,多の津５丁目１５番２０号,,40,131,8130034,,,,,,,2021-11-05,1,,,,,フジヤマジュウセツ,0
3256,9290801027964,新規,0,2021-11-05,2021-11-05,株式会社イズミ貴金属,,株式会社,福岡県,北九州市小倉北区,吉野町９番１９号,,40,106,8020085,,,,,,,2021-11-05,1,,,,,イズミキキンゾク,0
3260,9300003001741,新規,0,2021-11-05,2021-11-05,エフテックサービス合同会社,,合同会社,佐賀県,三養基郡みやき町,大字白壁４３８５番地３３,,41,346,8490111,,,,,,,2021-11-05,1,,,,,エフテックサービス,0
3265,9320001018711,新規,0,2021-11-05,2021-11-05,株式会社シュトーデンソー,,株式会社,大分県,豊後高田市,玉津２１４８番地３,,44,209,8790606,,,,,,,2021-11-05,1,,,,,シュトーデンソー,0
3266,9330001029138,新規,0,2021-11-05,2021-11-05,株式会社ＭＫＳ,,株式会社,熊本県,山鹿市,古閑１０３３番地２,,43,208,8610533,,,,,,,2021-11-05,1,,,,,エムケイエス,0
3267,9330003009113,新規,0,2021-11-05,2021-11-05,合同会社伝承工房,,合同会社,熊本県,熊本市北区,麻生田４丁目９番１４号,,43,105,8618081,,,,,,,2021-11-05,1,,,,,デンショウコウボウ,0
3268,9330003009121,新規,0,2021-11-05,2021-11-05,ストアマネジメントアンドトレード合同会社,,合同会社,熊本県,熊本市中央区,壺川２丁目３番６８号,,43,101,8600076,,,,,,,2021-11-05,1,,,,,ストアマネジメントアンドトレード,0
3273,9360001029589,新規,0,2021-11-05,2021-11-05,株式会社沖縄ゼネラルマネジメント,,株式会社,沖縄県,宜野湾市,真志喜１丁目７番２号３Ｂ,,47,205,9012224,,,,,,,2021-11-05,1,,,,,オキナワゼネラルマネジメント,0
3277,9360003011545,新規,0,2021-11-05,2021-11-05,合同会社翔,,合同会社,沖縄県,那覇市,字小禄６５８番地１平安マンション２０３,,47,201,9010152,,,,,,,2021-11-05,1,,,,,ショウ,0
3278,9360003011553,新規,0,2021-11-05,2021-11-05,合同会社まおのて,,合同会社,沖縄県,那覇市,字上間３００－１上間第２市街地住宅６０９,,47,201,9020073,,,,,,,2021-11-05,1,,,,,,0
3281,9380001032302,新規,0,2021-11-05,2021-11-05,株式会社ケネディ,,株式会社,福島県,双葉郡広野町,大字上浅見川字南山３５番地２,,07,541,9790406,,,,,,,2021-11-05,1,,,,,ケネディ,0
3282,9380001032319,新規,0,2021-11-05,2021-11-05,株式会社小泉電設,,株式会社,福島県,郡山市,安積町笹川字西長久保１１４番地の３,,07,203,9630102,,,,,,,2021-11-05,1,,,,,コイズミデンセツ,0
3287,9420001017645,新規,0,2021-11-05,2021-11-05,株式会社赤帽青森県,,株式会社,青森県,青森市,大字古館字大柳８４番地２,,02,201,0300946,,,,,,,2021-11-05,1,,,,,アカボウアオモリケン,0
3291,9430001085278,新規,0,2021-11-05,2021-11-05,株式会社アンカーリスト,,株式会社,北海道,千歳市,柏丘南１－３－１千歳アルカディア・プラザ４階,,01,224,0660000,,,,,,,2021-11-05,1,,,,,アンカーリスト,0
3292,9430001085294,新規,0,2021-11-05,2021-11-05,株式会社ｌａｕｇｈ　ｄｕｘｘ,,株式会社,北海道,札幌市豊平区,月寒東五条９丁目２番１１号,,01,105,0620055,,,,,,,2021-11-05,1,,,,,ラフダックス,0
3294,9430003013336,新規,0,2021-11-05,2021-11-05,合同会社Ｇｏｒｉｓｅｓ,,合同会社,北海道,札幌市豊平区,中の島二条３丁目１番２４号中の島２－３ビル４０１,,01,105,0620922,,,,,,,2021-11-05,1,,,,,ゴーライズ,0
3295,9440003001422,新規,0,2021-11-05,2021-11-05,Ｎｏｒｔｈｌｉｇｈｔ合同会社,,合同会社,北海道,亀田郡七飯町,字東大沼２４番地１０２７,,01,337,0411351,,,,,,,2021-11-05,1,,,,,ノースライト,0
3296,9450001013526,新規,0,2021-11-05,2021-11-05,株式会社Ｆｒｕｏｒ,,株式会社,北海道,旭川市,永山二条４丁目２番３号,,01,204,0798412,,,,,,,2021-11-05,1,,,,,フルオール,0
