sequenceNumber,corporateNumber,process,correct,updateDate,changeDate,name,nameImageId,kind,prefectureName,cityName,streetNumber,addressImageId,prefectureCode,cityCode,postCode,addressOutside,addressOutsideImageId,closeDate,closeCause,successorCorporateNumber,changeCause,assignmentDate,latest,enName,enPrefectureName,enCityName,enAddressOutside,furigana,hihyoji
3,1010001087175,登記記録の閉鎖等,0,2025-07-30,2025-06-30,株式会社クレスト,,株式会社,東京都,渋谷区,代々木５丁目２番７号,,13,113,1510053,,,2025-06-30,清算の結了等,,,2015-10-05,1,,,,,クレスト,0
18,1010401040766,登記記録の閉鎖等,0,2025-07-30,2025-07-02,ディー・ヴイ・ディー・フォーマット・ロゴ・ライセンシング株式会社,,株式会社,東京都,港区,高輪２丁目１４番１７号,,13,103,1080074,,,2025-07-02,清算の結了等,,,2015-10-05,1,,,,,ディーヴイディーフォーマットロゴライセンシング,0
31,1010403029741,登記記録の閉鎖等,0,2025-07-30,2025-07-03,合同会社エマース,,合同会社,東京都,港区,浜松町２丁目２番１５号浜松町ダイヤビル２階,,13,103,1050013,,,2025-07-03,清算の結了等,,,2023-03-16,1,,,,,エマース,0
39,1010701004149,登記記録の閉鎖等,0,2025-07-30,2025-07-16,株式会社ジェー・エス・シー永生,,株式会社,東京都,品川区,南大井５丁目２６番１２号,,13,109,1400013,,,2025-07-16,清算の結了等,,,2015-10-05,1,,,,,ジェーエスシーエイセイ,0
71,1011303003662,登記記録の閉鎖等,0,2025-07-30,2025-07-22,合同会社ＰＲＯＳＰＥＲ,,合同会社,東京都,杉並区,和泉２丁目３６番７－３０１号,,13,115,1680063,,,2025-07-22,清算の結了等,,,2020-06-04,1,,,,,プロスパー,0
77,1012703002980,登記記録の閉鎖等,0,2025-07-30,2025-07-15,ＶＭｅｄ合同会社,,合同会社,東京都,西東京市,向台町４丁目２１番３－３号,,13,229,1880013,,,2025-07-15,清算の結了等,,,2024-05-08,1,,,,,ブイメド,0
98,1030002016866,登記記録の閉鎖等,0,2025-07-30,2025-07-24,有限会社ウヅキ,,有限会社,埼玉県,さいたま市大宮区,桜木町１丁目１１番地１,,11,103,3300854,,,2025-07-24,清算の結了等,,,2015-10-05,1,,,,,ウヅキ,0
102,1030002058289,登記記録の閉鎖等,0,2025-07-30,2025-07-23,有限会社ウスキシステムプロジェクト,,有限会社,埼玉県,朝霞市,大字上内間木１８０番地の４１,,11,227,3510001,,,2025-07-23,清算の結了等,,,2015-10-05,1,,,,,ウスキシステムプロジェクト,0
103,1030002104778,登記記録の閉鎖等,0,2025-07-30,2025-07-25,有限会社立花鉄工所,,有限会社,埼玉県,川口市,飯塚３丁目１０番３９号,,11,203,3320023,,,2025-07-25,清算の結了等,,,2015-10-05,1,,,,,タチバナテッコウショ,0
110,1060001022838,登記記録の閉鎖等,0,2025-07-30,2025-07-15,株式会社飛鳥,,株式会社,栃木県,那須郡那須町,大字豊原丙４６６５番地,,09,407,3293225,,,2025-07-15,清算の結了等,,,2015-10-05,1,,,,,アスカ,0
112,1070002020690,登記記録の閉鎖等,0,2025-07-30,2025-07-17,有限会社亀田鉄工所,,有限会社,群馬県,佐波郡玉村町,大字斎田６０番地３,,10,464,3701131,,,2025-07-17,清算の結了等,,,2015-10-05,1,,,,,カメダテッコウショ,0
123,1110002031849,登記記録の閉鎖等,0,2025-07-30,2025-07-03,有限会社見附霊柩公社,,有限会社,新潟県,見附市,本町３丁目３番２号,,15,211,9540053,,,2025-07-03,清算の結了等,,,2015-10-05,1,,,,,ミツケレイキュウコウシャ,0
128,1120001138487,登記記録の閉鎖等,0,2025-07-30,2025-07-18,Ｋ・Ｇ・Ｃ株式会社,,株式会社,大阪府,大阪市都島区,内代町２丁目６番２１号,,27,102,5340013,,,2025-07-18,清算の結了等,,,2015-10-05,1,,,,,ケージーシー,0
153,1150003000964,登記記録の閉鎖等,0,2025-07-30,2025-07-28,合同会社レイ・アンド・ビュー,,合同会社,奈良県,奈良市,富雄北３丁目２０番１１号,,29,201,6310076,,,2025-07-28,清算の結了等,,,2015-10-05,1,,,,,レイアンドビュー,0
165,1180001089064,登記記録の閉鎖等,0,2025-07-30,2025-07-07,株式会社独歩舎,,株式会社,愛知県,日進市,竹の山３丁目１０１０番地,,23,230,4700136,,,2025-07-07,清算の結了等,,,2015-10-05,1,,,,,ドッポシャ,0
172,1180002071161,登記記録の閉鎖等,0,2025-07-30,2025-07-08,有限会社白鳥,,有限会社,愛知県,春日井市,鳥居松町３丁目１８４番地,,23,206,4860844,,,2025-07-08,清算の結了等,,,2015-10-05,1,,,,,シラトリ,0
173,1180002074726,登記記録の閉鎖等,0,2025-07-30,2025-07-08,プラス技研有限会社,,有限会社,愛知県,丹羽郡大口町,奈良子２丁目２１５番地,,23,361,4800139,,,2025-07-08,清算の結了等,,,2015-10-05,1,,,,,プラスギケン,0
178,1190001024656,登記記録の閉鎖等,0,2025-07-30,2025-07-22,防犯ステーション株式会社,,株式会社,三重県,津市,南中央１番２５号,,24,201,5140832,,,2025-07-22,清算の結了等,,,2017-05-17,1,,,,,ボウハンステーション,0
181,1190002016974,登記記録の閉鎖等,0,2025-07-30,2025-07-22,有限会社丹和設備,,有限会社,三重県,桑名市,大字福地２５２番地の１,,24,205,5110845,,,2025-07-22,清算の結了等,,,2015-10-05,1,,,,,ニワセツビ,0
186,1200002016114,登記記録の閉鎖等,0,2025-07-30,2025-07-22,有限会社成建,,有限会社,岐阜県,美濃加茂市,本郷町６丁目３番２４号,,21,211,5050027,,,2025-07-22,清算の結了等,,,2015-10-05,1,,,,,セイケン,0
188,1220001012450,登記記録の閉鎖等,0,2025-07-30,2025-07-25,株式会社丸石,,株式会社,石川県,小松市,松任町３５番地,,17,203,9230913,,,2025-07-25,清算の結了等,,,2015-10-05,1,,,,,,0
222,1350001015341,登記記録の閉鎖等,0,2025-07-30,2025-07-24,株式会社栄工務店,,株式会社,宮崎県,日向市,中堀町２丁目９０番地２,,45,206,8830005,,,2025-07-24,清算の結了等,,,2018-07-04,1,,,,,サカエコウムテン,0
231,1380002027077,登記記録の閉鎖等,0,2025-07-30,2025-07-07,伏見屋商事有限会社,,有限会社,福島県,いわき市,内郷御厩町１丁目８５番地,00084025,07,204,9738402,,,2025-07-07,清算の結了等,,,2015-10-05,1,,,,,フシミヤショウジ,0
234,1420002003602,登記記録の閉鎖等,0,2025-07-30,2025-07-11,ソフィックフォーチュン有限会社,,有限会社,青森県,青森市,大字石江字江渡１１番地,,02,201,0380003,,,2025-07-11,清算の結了等,,,2015-10-05,1,,,,,ソフィックフォーチュン,0
239,1430002007370,登記記録の閉鎖等,0,2025-07-30,2025-07-10,有限会社弘親電設,,有限会社,北海道,札幌市清田区,里塚二条６丁目１９番７号,,01,110,0040802,,,2025-07-10,清算の結了等,,,2015-10-05,1,,,,,コウシンデンセツ,0
250,2010001190795,登記記録の閉鎖等,0,2025-07-30,2025-07-03,ＳＣＩＳＰＣ株式会社,,株式会社,東京都,中央区,日本橋２丁目７番１号東京日本橋タワー,,13,102,1030027,,,2025-07-03,清算の結了等,,,2018-04-09,1,,,,,エスシーアイエスピーシー,0
280,2010601063987,登記記録の閉鎖等,0,2025-07-30,2025-07-14,株式会社Ｒｏｓｓｉ’ｓ　Ｓｏｌｕｔｉｏｎｓ,,株式会社,東京都,墨田区,菊川３丁目２１－１１レジデンス須賀菊川２０５階,,13,107,1300024,,,2025-07-14,清算の結了等,,,2023-10-18,1,,,,,,0
291,2011001139618,登記記録の閉鎖等,0,2025-07-30,2025-06-30,株式会社ＬＡＢ,,株式会社,東京都,渋谷区,渋谷１丁目２２番１０号ＴＢミヤシタビル４Ｆ,,13,113,1500002,,,2025-06-30,清算の結了等,,,2021-04-12,1,,,,,ラボ,0
309,2011301015964,登記記録の閉鎖等,0,2025-07-30,2025-07-22,株式会社トウキョウ・ワンク,,株式会社,東京都,杉並区,高円寺南２丁目２４番１９号,,13,115,1660003,,,2025-07-22,清算の結了等,,,2015-10-05,1,,,,,トウキョウワンク,0
322,2012401039110,登記記録の閉鎖等,0,2025-07-30,2025-07-17,株式会社４７ＭＩＮＥ,,株式会社,東京都,調布市,深大寺北町７丁目１６番地２フォレステージュ・シャルム１０８,,13,208,1820011,,,2025-07-17,清算の結了等,,,2022-04-20,1,,,,,ヨンナナマイン,0
323,2012702012930,登記記録の閉鎖等,0,2025-07-30,2025-07-15,有限会社ブルーストラトス,,有限会社,東京都,小平市,鈴木町１丁目４４８番地,,13,211,1870011,,,2025-07-15,清算の結了等,,,2015-10-05,1,,,,,ブルーストラトス,0
324,2012801000745,登記記録の閉鎖等,0,2025-07-30,2025-07-23,株式会社須田・ビルメンテナンス,,株式会社,東京都,立川市,砂川町４丁目２４番地の１３,,13,202,1900031,,,2025-07-23,清算の結了等,,,2015-10-05,1,,,,,スダビルメンテナンス,0
356,2030002081323,登記記録の閉鎖等,0,2025-07-30,2025-07-22,有限会社ＶＳ．Ｔｒａｎｓｐｏｒｔ,,有限会社,群馬県,伊勢崎市,北千木町１４３２番地３,,10,204,3720032,,,2025-07-22,清算の結了等,,,2015-10-05,1,,,,,ヴイエストランスポート,0
360,2030002099373,登記記録の閉鎖等,0,2025-07-30,2025-07-24,有限会社マスヤ酒店,,有限会社,埼玉県,川口市,桜町２丁目６番１６号,,11,203,3340001,,,2025-07-24,清算の結了等,,,2015-10-05,1,,,,,マスヤサケテン,0
395,2120002073914,登記記録の閉鎖等,0,2025-07-30,2025-07-18,有限会社カパーナ阪下,,有限会社,大阪府,枚方市,出口５丁目５番１６号,,27,210,5730065,,,2025-07-18,清算の結了等,,,2015-10-05,1,,,,,カパーナサカシタ,0
402,2120905001921,登記記録の閉鎖等,0,2025-07-30,2025-07-17,近畿資材企業組合,,その他の設立登記法人,大阪府,高槻市,萩之庄２丁目６番１２号,,27,207,5690093,,,2025-07-17,清算の結了等,,,2015-10-05,1,,,,,キンキシザイ,0
414,2140003018874,登記記録の閉鎖等,0,2025-07-30,2025-07-22,ＯＳ合同会社,,合同会社,兵庫県,神戸市北区,北五葉５丁目６番２０号,,28,109,6511131,,,2025-07-22,清算の結了等,,,2023-03-22,1,,,,,オーエス,0
421,2180001091481,登記記録の閉鎖等,0,2025-07-30,2025-07-24,ボリュームグラフィックス株式会社,,株式会社,愛知県,名古屋市千種区,千種３丁目３９番４号,,23,101,4640858,,,2025-07-24,合併による解散等,1010001118434,令和７年７月１日東京都千代田区神田錦町二丁目２番地１ＫＡＮＤＡＳＱＵＡＲＥ１６階Ｈｅｘａｇｏｎ　Ｍａｎｕｆａｃｔｕｒｉｎｇ　Ｉｎｔｅｌｌｉｇｅｎｃｅ株式会社（1010001118434）に合併し解散,2015-10-05,1,,,,,ボリュームグラフィックス,0
425,2180002055246,登記記録の閉鎖等,0,2025-07-30,2025-07-08,有限会社橋場新聞店,,有限会社,愛知県,名古屋市中川区,高畑２丁目３７０番地,,23,110,4540911,,,2025-07-08,清算の結了等,,,2015-10-05,1,,,,,ハシバシンブンテン,0
433,2200002012888,登記記録の閉鎖等,0,2025-07-30,2025-07-23,有限会社堤,,有限会社,岐阜県,大垣市,笠縫町５３０番地の１,,21,202,5030027,,,2025-07-23,清算の結了等,,,2015-10-05,1,,,,,ツツミ,0
441,2240002048160,登記記録の閉鎖等,0,2025-07-30,2025-07-18,有限会社坂口樹脂工業,,有限会社,広島県,安芸郡府中町,千代３番２８号,,34,302,7350027,,,2025-07-18,清算の結了等,,,2015-10-05,1,,,,,サカグチジュシコウギョウ,0
483,2420005000026,登記記録の閉鎖等,0,2025-07-30,2025-07-17,青森県自動車商工業協同組合,,その他の設立登記法人,青森県,青森市,大字八ツ役字矢作６９番１,,02,201,0300112,,,2025-07-17,清算の結了等,,,2015-10-05,1,,,,,アオモリケンジドウシャショウコウギョウ,0
489,2500001013766,登記記録の閉鎖等,0,2025-07-30,2025-07-10,株式会社ユーワン,,株式会社,愛媛県,松山市,北立花町５番地４,,38,201,7900867,,,2025-07-10,清算の結了等,,,2015-10-05,1,,,,,ユーワン,0
490,3010001016727,登記記録の閉鎖等,0,2025-07-30,2025-06-30,株式会社コローネジャパン,,株式会社,東京都,渋谷区,代々木５丁目２番７号,,13,113,1510053,,,2025-06-30,清算の結了等,,,2015-10-05,1,,,,,コローネジャパン,0
515,3011001015306,登記記録の閉鎖等,0,2025-07-30,2025-06-30,トーケン株式会社,,株式会社,東京都,渋谷区,神宮前１丁目１７番５号,,13,113,1500001,,,2025-06-30,清算の結了等,,,2015-10-05,1,,,,,トーケン,0
517,3011001154863,登記記録の閉鎖等,0,2025-07-30,2025-06-30,株式会社ＰＡＬＭ　ＨＯＵＳＥ,,株式会社,東京都,渋谷区,恵比寿４丁目２０番４号,,13,113,1500013,,,2025-06-30,合併による解散等,8011001162606,令和７年６月３０日東京都渋谷区恵比寿四丁目２０番４号株式会社トランジットオペレーションサービス（8011001162606）に合併し解散,2023-06-06,1,,,,,パームハウス,0
522,3011303004007,登記記録の閉鎖等,0,2025-07-30,2025-07-24,合同会社ピースフィールド,,合同会社,東京都,杉並区,宮前２丁目２２番１２号,,13,115,1680081,,,2025-07-24,清算の結了等,,,2021-04-16,1,,,,,ピースフィールド,0
525,3011503005481,登記記録の閉鎖等,0,2025-07-30,2025-07-23,合同会社文源,,合同会社,東京都,荒川区,西日暮里１丁目４７－１４,,13,118,1160013,,,2025-07-23,清算の結了等,,,2023-03-01,1,,,,,フミゲン,0
539,3020001140253,登記記録の閉鎖等,0,2025-07-30,2025-07-14,株式会社Ｇｏｏｄ　Ｌｕｃｋ　Ｇｒｏｕｐ,,株式会社,神奈川県,横浜市西区,高島２丁目７番２号,,14,103,2200011,,,2025-07-14,清算の結了等,,,2021-03-08,1,,,,,グッドラックグループ,0
542,3020002082321,登記記録の閉鎖等,0,2025-07-30,2025-07-14,有限会社万城工業,,有限会社,神奈川県,川崎市幸区,北加瀬３丁目５番４号,,14,132,2120057,,,2025-07-14,清算の結了等,,,2015-10-05,1,,,,,バンジョウコウギョウ,0
567,3030003026573,登記記録の閉鎖等,0,2025-07-30,2025-07-23,合同会社Ｏｈｔｏｒｉ　Ｂｒｅｗｅｒｙ,,合同会社,埼玉県,鴻巣市,郷地３５番地１,,11,217,3650022,,,2025-07-23,清算の結了等,,,2025-04-16,1,,,,,オオトリブルワリー,0
584,3070002009947,登記記録の閉鎖等,0,2025-07-30,2025-07-17,有限会社サカイ建照,,有限会社,群馬県,高崎市,南新波町１４１番地３,,10,202,3700083,,,2025-07-17,清算の結了等,,,2015-10-05,1,,,,,サカイケンショウ,0
590,3080102005135,登記記録の閉鎖等,0,2025-07-30,2025-07-28,有限会社薫風,,有限会社,静岡県,三島市,長伏８５番地の６コーポラス杉山６Ａ,,22,206,4110824,,,2025-07-28,清算の結了等,,,2015-10-05,1,,,,,クンフウ,0
593,3080402019215,登記記録の閉鎖等,0,2025-07-30,2025-07-22,有限会社宮本建設,,有限会社,静岡県,御前崎市,池新田２３３９番地の１２,,22,223,4371612,,,2025-07-22,清算の結了等,,,2015-10-05,1,,,,,ミヤモトケンセツ,0
612,3120903005072,登記記録の閉鎖等,0,2025-07-30,2025-07-10,インフィニティ合同会社,,合同会社,大阪府,三島郡島本町,江川２丁目１５番４５－１２３８号,,27,301,6180013,,,2025-07-10,清算の結了等,,,2024-03-06,1,,,,,インフィニティ,0
613,3122002013956,登記記録の閉鎖等,0,2025-07-30,2025-07-09,有限会社信光精器,,有限会社,大阪府,八尾市,桂町１丁目２７番４号,,27,212,5810823,,,2025-07-09,清算の結了等,,,2015-10-05,1,,,,,シンコウセイキ,0
660,3250001014913,登記記録の閉鎖等,0,2025-07-30,2025-07-25,まあるく株式会社,,株式会社,山口県,防府市,大字植松４６８番地,,35,206,7470836,,,2025-07-25,清算の結了等,,,2015-10-05,1,,,,,マアルク,0
674,3320001009501,登記記録の閉鎖等,0,2025-07-30,2025-07-17,株式会社徳尾商店,00096700,株式会社,大分県,竹田市,大字会々２４２７番地１,,44,208,8780011,,,2025-07-17,清算の結了等,,,2015-10-05,1,,,,,トクオショウテン,0
695,3380005005433,登記記録の閉鎖等,0,2025-07-30,2025-07-07,医療法人鈴木歯科医院,,その他の設立登記法人,福島県,石川郡石川町,大字双里字七鍬石２４番地１,,07,501,9637808,,,2025-07-07,清算の結了等,,,2015-10-05,1,,,,,スズキシカイイン,0
696,3390002000576,登記記録の閉鎖等,0,2025-07-30,2025-07-15,有限会社太田金型,,有限会社,山形県,山形市,落合町字二口８２番地の２,,06,201,9900075,,,2025-07-15,清算の結了等,,,2015-10-05,1,,,,,オオタカナガタ,0
725,4010003033463,登記記録の閉鎖等,0,2025-07-30,2025-07-02,シダー合同会社,,合同会社,東京都,中央区,銀座１丁目６番１１号アースタックス税理士法人内,,13,102,1040061,,,2025-07-02,清算の結了等,,,2020-11-09,1,,,,,シダー,0
734,4010401166113,登記記録の閉鎖等,0,2025-07-30,2025-07-02,ＮＨＮ　Ｓｔｕｄｉｏ　ｃｏｍｉｃｏ株式会社,,株式会社,東京都,港区,西新橋３丁目１番８号,,13,103,1050003,,,2025-07-02,合併による解散等,8010401131914,令和７年７月１日東京都港区西新橋三丁目１番８号ＮＨＮ　ｃｏｍｉｃｏ株式会社（8010401131914）に合併し解散,2022-03-11,1,,,,,エヌエイチエヌスタジオコミコ,0
744,4010601055347,登記記録の閉鎖等,0,2025-07-30,2025-07-15,株式会社ハーモニー,,株式会社,東京都,江東区,新木場１丁目１番７号,,13,108,1360082,,,2025-07-15,清算の結了等,,,2019-04-15,1,,,,,ハーモニー,0
754,4011001063064,登記記録の閉鎖等,0,2025-07-30,2025-06-30,株式会社やよいファーマシー,,株式会社,東京都,渋谷区,宇田川町３３番７号,,13,113,1500042,,,2025-06-30,清算の結了等,,,2015-10-05,1,,,,,ヤヨイファーマシー,0
769,4011301011680,登記記録の閉鎖等,0,2025-07-30,2025-07-22,株式会社コア・スペース,,株式会社,東京都,杉並区,阿佐谷南３丁目１２番４号,,13,115,1660004,,,2025-07-22,清算の結了等,,,2015-10-05,1,,,,,コアスペース,0
782,4013305002053,登記記録の閉鎖等,0,2025-07-30,2025-07-10,一般社団法人環境ソリューション技術推進機構,,その他の設立登記法人,東京都,豊島区,目白３丁目２番１４号,,13,116,1710031,,,2025-07-10,清算の結了等,,,2015-10-05,1,,,,,カンキョウソリューションギジュツスイシンキコウ,0
786,4020001120485,登記記録の閉鎖等,0,2025-07-30,2025-07-11,株式会社スリースプリング,,株式会社,神奈川県,横浜市南区,井土ケ谷下町２１５番地１井土ケ谷東団地１号棟８０５号室,,14,105,2320053,,,2025-07-11,清算の結了等,,,2017-03-21,1,,,,,スリースプリング,0
802,4030003018826,登記記録の閉鎖等,0,2025-07-30,2025-07-28,合同会社プロアイ,,合同会社,埼玉県,春日部市,大場３８１番地２,,11,214,3440021,,,2025-07-28,清算の結了等,,,2022-02-09,1,,,,,プロアイ,0
835,4090002000399,登記記録の閉鎖等,0,2025-07-30,2025-07-22,有限会社梅広,,有限会社,山梨県,甲府市,北新２丁目５番１９号,,19,201,4000005,,,2025-07-22,清算の結了等,,,2015-10-05,1,,,,,ウメヒロ,0
851,4122002016446,登記記録の閉鎖等,0,2025-07-30,2025-07-09,有限会社アーチ建設,,有限会社,大阪府,八尾市,教興寺１丁目８２番地の２,,27,212,5810874,,,2025-07-09,清算の結了等,,,2015-10-05,1,,,,,アーチケンセツ,0
862,4150001010112,登記記録の閉鎖等,0,2025-07-30,2025-07-28,株式会社奈良在宅看護センター,,株式会社,奈良県,宇陀市,榛原萩原２４９４番地,,29,212,6330253,,,2025-07-28,清算の結了等,,,2015-10-05,1,,,,,ナラザイタクカンゴセンター,0
879,4180005008422,登記記録の閉鎖等,0,2025-07-30,2025-07-16,安正寺,,その他の設立登記法人,愛知県,小牧市,多気中町２９２番地,,23,219,4850052,,,2025-07-16,清算の結了等,,,2015-10-05,1,,,,,アンショウジ,0
897,4260001022724,登記記録の閉鎖等,0,2025-07-30,2025-06-30,セントラル石油株式会社,,株式会社,岡山県,真庭市,久世２９１７番地の１,,33,214,7193201,,,2025-06-30,合併による解散等,8260001022729,令和７年６月３０日岡山県真庭市久世２９２０番１２竹藤建設株式会社（8260001022729）に合併し解散,2015-10-05,1,,,,,セントラルセキユ,0
899,4260002003574,登記記録の閉鎖等,0,2025-07-30,2025-07-03,有限会社工芸ナカヤマ,,有限会社,岡山県,岡山市北区,奥田南町３番４－１号,,33,101,7000934,,,2025-07-03,清算の結了等,,,2015-10-05,1,,,,,コウゲイナカヤマ,0
900,4270005003307,登記記録の閉鎖等,0,2025-07-30,2025-07-24,鳥取県西部舗装業協同組合,,その他の設立登記法人,鳥取県,米子市,車尾４丁目３番４３号,,31,202,6830006,,,2025-07-24,清算の結了等,,,2015-10-05,1,,,,,トットリケンセイブホソウギョウ,0
903,4290001099454,登記記録の閉鎖等,0,2025-07-30,2025-07-15,株式会社Ｒｅ‐ｎｏｗ,,株式会社,福岡県,福岡市博多区,博多駅南４丁目１２－３ルノアス博多３０６,,40,132,8120016,,,2025-07-15,清算の結了等,,,2022-11-04,1,,,,,リナウ,0
905,4290003011334,登記記録の閉鎖等,0,2025-07-30,2025-07-18,合同会社Ｓｔｅｍ　ｂｉｏ,,合同会社,福岡県,久留米市,百年公園１番１号,,40,203,8390864,,,2025-07-18,清算の結了等,,,2021-06-17,1,,,,,ステムバイオ,0
907,4310005000134,登記記録の閉鎖等,0,2025-07-30,2025-07-23,長崎施設管理協同組合,,その他の設立登記法人,長崎県,長崎市,古町１６番１号２０１,,42,201,8500026,,,2025-07-23,清算の結了等,,,2015-10-05,1,,,,,ナガサキシセツカンリ,0
927,4370002012944,登記記録の閉鎖等,0,2025-07-30,2025-06-30,有限会社美栄社,,有限会社,宮城県,仙台市青葉区,上杉１丁目１０番２５－４１０号,,04,101,9800011,,,2025-06-30,合併による解散等,8370001012198,令和７年６月３０日仙台市青葉区国分町二丁目１３番２１号株式会社白蜂（8370001012198）に合併し解散,2015-10-05,1,,,,,ビエイシャ,0
931,4400003003088,登記記録の閉鎖等,0,2025-07-30,2025-07-08,合同会社ジャパンフォレスト,,合同会社,岩手県,九戸郡軽米町,大字上舘第１地割７５番２２光陽ハイツ５号Ｆ,,03,501,0286301,,,2025-07-08,清算の結了等,,,2023-05-29,1,,,,,ジャパンフォレスト,0
934,4430001001933,登記記録の閉鎖等,0,2025-07-30,2025-07-10,ウエハラ産業株式会社,,株式会社,北海道,札幌市西区,発寒十七条１４丁目３番５号,,01,107,0630837,,,2025-07-10,清算の結了等,,,2015-10-05,1,,,,,ウエハラサンギョウ,0
952,5010003036473,登記記録の閉鎖等,0,2025-07-30,2025-07-02,福崎ロジ合同会社,,合同会社,東京都,中央区,銀座１丁目６番１１号アースタックス税理士法人内,,13,102,1040061,,,2025-07-02,清算の結了等,,,2021-12-08,1,,,,,フクサキロジ,0
954,5010003039807,登記記録の閉鎖等,0,2025-07-30,2025-07-02,合同会社ＺＥＨＰＪ５,,合同会社,東京都,中央区,銀座４丁目６番１号三幸アセットマネジメント株式会社内,,13,102,1040061,,,2025-07-02,清算の結了等,,,2023-02-09,1,,,,,ゼッチピージェーファイブ,0
957,5010101009199,登記記録の閉鎖等,0,2025-07-30,2025-07-28,Ｆｏｒ　Ｌｉｆｅ株式会社,,株式会社,東京都,八王子市,本町１６番１号,,13,201,1920066,,,2025-07-28,清算の結了等,,,2015-10-05,1,,,,,フォーライフ,0
964,5010403032659,登記記録の閉鎖等,0,2025-07-30,2025-07-03,合同会社ＡＲＴ,,合同会社,東京都,港区,南青山３丁目１番３６号青山丸竹ビル６Ｆ,,13,103,1070062,,,2025-07-03,清算の結了等,,,2024-05-29,1,,,,,アート,0
974,5010701047524,登記記録の閉鎖等,0,2025-07-30,2025-07-17,株式会社Ｚｅｎ　Ｂｅａｔ,,株式会社,東京都,品川区,上大崎３丁目１番２－３４０４号,,13,109,1410021,,,2025-07-17,清算の結了等,,,2025-04-08,1,,,,,ゼンビート,0
975,5010703002832,登記記録の閉鎖等,0,2025-07-30,2025-07-18,合同会社ブレインビズ,,合同会社,東京都,品川区,南大井６丁目４番６－４２０号,,13,109,1400013,,,2025-07-18,清算の結了等,,,2015-10-05,1,,,,,ブレインビズ,0
977,5011001024577,登記記録の閉鎖等,0,2025-07-30,2025-06-30,株式会社ラゴンダ,,株式会社,東京都,渋谷区,代々木５丁目２番７号,,13,113,1510053,,,2025-06-30,清算の結了等,,,2015-10-05,1,,,,,ラゴンダ,0
978,5011001046745,登記記録の閉鎖等,0,2025-07-30,2025-07-24,株式会社サンテオレコーポレーション,,株式会社,東京都,杉並区,高円寺北２丁目２９番１４号,,13,115,1660002,,,2025-07-24,清算の結了等,,,2015-10-05,1,,,,,サンテオレコーポレーション,0
979,5011001063848,登記記録の閉鎖等,0,2025-07-30,2025-07-23,株式会社プロファウンド,,株式会社,東京都,北区,志茂１丁目１５番１１－２０１号,,13,117,1150042,,,2025-07-23,清算の結了等,,,2015-10-05,1,,,,,プロファウンド,0
990,5011101053047,登記記録の閉鎖等,0,2025-07-30,2025-07-02,株式会社ｉＤＰ,,株式会社,東京都,新宿区,左門町９－１８,,13,104,1600017,,,2025-07-02,清算の結了等,,,2015-10-05,1,,,,,アイデイーピー,0
993,5011102007794,登記記録の閉鎖等,0,2025-07-30,2025-07-02,有限会社鷹岩商事,,有限会社,東京都,港区,虎ノ門１丁目１６番４号,,13,103,1050001,,,2025-07-02,合併による解散等,5011101007911,令和７年７月１日東京都港区虎ノ門一丁目１６番４号佐藤ビル株式会社（5011101007911）に合併し解散,2015-10-05,1,,,,,タカイワショウジ,0
995,5011201015483,登記記録の閉鎖等,0,2025-07-30,2025-07-28,株式会社Ｔｒｕｌｙ,,株式会社,東京都,中野区,野方５丁目２３番９号,,13,114,1650027,,,2025-07-28,清算の結了等,,,2015-10-05,1,,,,,,0
996,5011301013981,登記記録の閉鎖等,0,2025-07-30,2025-07-22,ディイーエヌ・ジャパン株式会社,,株式会社,東京都,杉並区,浜田山３丁目３番１５－１０８号,,13,115,1680065,,,2025-07-22,清算の結了等,,,2015-10-05,1,,,,,ディイーエヌジャパン,0
1004,5011702003656,登記記録の閉鎖等,0,2025-07-30,2025-07-18,有限会社クロスクロス,,有限会社,東京都,江戸川区,下篠崎町１７番９号,,13,123,1330064,,,2025-07-18,清算の結了等,,,2015-10-05,1,,,,,クロスクロス,0
1006,5012702006104,登記記録の閉鎖等,0,2025-07-30,2025-07-15,有限会社渡辺電気管理事務所,,有限会社,東京都,西東京市,芝久保町１丁目２３番１７号,,13,229,1880014,,,2025-07-15,清算の結了等,,,2015-10-05,1,,,,,ワタナベデンキカンリジムショ,0
1013,5013303004199,登記記録の閉鎖等,0,2025-07-30,2025-07-22,集合住宅再生合同会社,,合同会社,東京都,杉並区,阿佐谷南３丁目４０番４号,,13,115,1660004,,,2025-07-22,清算の結了等,,,2018-06-13,1,,,,,シュウゴウジュウタクサイセイ,0
1086,5140001029004,登記記録の閉鎖等,0,2025-07-30,2025-07-16,クレドＭＧ株式会社,,株式会社,兵庫県,神戸市中央区,京町７９番地,,28,110,6500034,,,2025-07-16,清算の結了等,,,2015-10-05,1,,,,,クレドエムジー,0
1093,5140001107998,登記記録の閉鎖等,0,2025-07-30,2025-07-23,株式会社ココノミ,,株式会社,兵庫県,神戸市中央区,雲井通２丁目１番２９－２０３号,,28,110,6510096,,,2025-07-23,清算の結了等,,,2017-10-30,1,,,,,ココノミ,0
1097,5140002035686,登記記録の閉鎖等,0,2025-07-30,2025-07-22,こくまい物産有限会社,,有限会社,兵庫県,加古川市,別府町東町１７４番地の４,,28,210,6750135,,,2025-07-22,清算の結了等,,,2015-10-05,1,,,,,コクマイブッサン,0
1099,5140003015398,登記記録の閉鎖等,0,2025-07-30,2025-07-22,株式会社ＴＤＳ,,株式会社,兵庫県,川西市,大和東５丁目２番地の１３,,28,217,6660111,,,2025-07-22,清算の結了等,,,2020-09-18,1,,,,,ティーディーエス,0
1101,5150005003722,登記記録の閉鎖等,0,2025-07-30,2025-07-25,一般社団法人斑鳩町観光協会,,その他の設立登記法人,奈良県,生駒郡斑鳩町,法隆寺１丁目８番２５号［斑鳩の里観光案内所（法隆寺ｉセンター）］内,00049007,29,344,6360116,,,2025-07-25,清算の結了等,,,2015-10-05,1,,,,,イカルガチョウカンコウキョウカイ,0
1119,5180005003083,登記記録の閉鎖等,0,2025-07-30,2025-07-17,愛知県靴下工業組合,,その他の設立登記法人,愛知県,名古屋市西区,花の木３丁目９番１１号,,23,104,4510062,,,2025-07-17,清算の結了等,,,2015-10-05,1,,,,,アイチケンクツシタ,0
1120,5180005007217,登記記録の閉鎖等,0,2025-07-30,2025-07-14,特定非営利活動法人外国人支援交流情報センター,,その他の設立登記法人,愛知県,名古屋市千種区,下方町１丁目２５番地,,23,101,4640096,,,2025-07-14,清算の結了等,,,2015-10-05,1,,,,,ガイコクジンシエンコウリュウジョウホウセンター,0
1126,5200001038733,登記記録の閉鎖等,0,2025-07-30,2025-07-22,株式会社ＧＩＶＡＣＫ,,株式会社,岐阜県,大垣市,榎戸町３丁目８０番地,,21,202,5032222,,,2025-07-22,清算の結了等,,,2021-06-04,1,,,,,ギバック,0
1127,5200002013850,登記記録の閉鎖等,0,2025-07-30,2025-07-22,有限会社松岡撚糸,,有限会社,岐阜県,安八郡輪之内町,里１１９５番地,,21,382,5030234,,,2025-07-22,清算の結了等,,,2015-10-05,1,,,,,マツオカネンシ,0
1128,5200002016184,登記記録の閉鎖等,0,2025-07-30,2025-07-23,有限会社パン工房マルヤマ,,有限会社,岐阜県,美濃加茂市,川合町３丁目２番２２号,,21,211,5050022,,,2025-07-23,清算の結了等,,,2015-10-05,1,,,,,パンコウボウマルヤマ,0
1149,5240002040569,登記記録の閉鎖等,0,2025-07-30,2025-07-23,コスモ設計有限会社,,有限会社,広島県,福山市,沖野上町６丁目２番２１号,,34,207,7200825,,,2025-07-23,清算の結了等,,,2015-10-05,1,,,,,コスモセッケイ,0
1151,5240005006138,登記記録の閉鎖等,0,2025-07-30,2025-07-17,医療法人社団産婦人科小児科松田医院,,その他の設立登記法人,広島県,呉市,中通２丁目４番１１号,,34,202,7370046,,,2025-07-17,清算の結了等,,,2015-10-05,1,,,,,サンフジンカショウニカマダツイイン,0
1155,5250002013870,登記記録の閉鎖等,0,2025-07-30,2025-07-25,有限会社山崎コーポレーション,,有限会社,山口県,長門市,東深川１３９番地の１２,,35,211,7594101,,,2025-07-25,清算の結了等,,,2015-10-05,1,,,,,ヤマサキコーポレーション,0
1156,5250003003359,登記記録の閉鎖等,0,2025-07-30,2025-07-28,合同会社ＴＡＫＥＯＵＴ,,合同会社,山口県,山口市,秋穂東１０３番地５,,35,203,7541101,,,2025-07-28,清算の結了等,,,2023-09-28,1,,,,,テイクアウト,0
1160,5260002029726,登記記録の閉鎖等,0,2025-07-30,2025-07-10,有限会社ワールド薬局,,有限会社,岡山県,勝田郡奈義町,滝本１３３２番地の２,,33,623,7081325,,,2025-07-10,清算の結了等,,,2015-10-05,1,,,,,ワールドヤッキョク,0
1161,5290001101581,登記記録の閉鎖等,0,2025-07-30,2025-07-02,Ｄｉｇｉｔａｌ　Ｈｏｏｄ株式会社,,株式会社,福岡県,福岡市博多区,冷泉町二丁目９号クレアランドマーク３０５－８８８,,40,132,8120039,,,2025-07-02,清算の結了等,,,2023-05-19,1,,,,,デジタルフード,0
1164,5290002039697,登記記録の閉鎖等,0,2025-07-30,2025-07-04,有限会社藤酒店,,有限会社,福岡県,大野城市,曙町３丁目３番１号,00093367,40,219,8160934,,,2025-07-04,清算の結了等,,,2015-10-05,1,,,,,トウサケテン,0
1166,5290801007854,登記記録の閉鎖等,0,2025-07-30,2025-07-25,株式会社宮電,,株式会社,福岡県,北九州市戸畑区,牧山１丁目１０番５０号,,40,105,8040053,,,2025-07-25,清算の結了等,,,2015-10-05,1,,,,,ミヤデン,0
1167,5290801012887,登記記録の閉鎖等,0,2025-07-30,2025-07-24,タイキ工業株式会社,,株式会社,福岡県,遠賀郡芦屋町,大字山鹿１０４番地２,,40,381,8070141,,,2025-07-24,清算の結了等,,,2015-10-05,1,,,,,タイキコウギョウ,0
1222,6010003036150,登記記録の閉鎖等,0,2025-07-30,2025-07-02,ラベンダー合同会社,,合同会社,東京都,中央区,銀座１丁目６番１１号アースタックス税理士法人内,,13,102,1040061,,,2025-07-02,清算の結了等,,,2021-11-04,1,,,,,ラベンダー,0
1231,6010401159346,登記記録の閉鎖等,0,2025-07-30,2025-07-03,株式会社人とサイエンス社,,株式会社,東京都,港区,北青山２丁目７番１３号,,13,103,1070061,,,2025-07-03,清算の結了等,,,2021-04-07,1,,,,,ヒトトサイエンスシャ,0
1246,6010601063455,登記記録の閉鎖等,0,2025-07-30,2025-07-15,株式会社コミュニケーションサービス,,株式会社,東京都,江東区,東砂７丁目２－１１,,13,108,1360074,,,2025-07-15,清算の結了等,,,2023-07-20,1,,,,,コミュニケーションサービス,0
1254,6010702008706,登記記録の閉鎖等,0,2025-07-30,2025-07-18,有限会社芳寿司商事,,有限会社,東京都,品川区,西五反田２丁目１２番１５－２０２号,,13,109,1410031,,,2025-07-18,清算の結了等,,,2015-10-05,1,,,,,ヨシズシショウジ,0
1260,6010901007236,登記記録の閉鎖等,0,2025-07-30,2025-07-28,タストン・リサイクル株式会社,,株式会社,東京都,世田谷区,経堂４丁目１７番２０号,,13,112,1560052,,,2025-07-28,清算の結了等,,,2015-10-05,1,,,,,タストンリサイクル,0
1263,6010901046283,登記記録の閉鎖等,0,2025-07-30,2025-07-28,株式会社ｇｏｏｄ．ｐｅｒｓｏｎ,,株式会社,東京都,世田谷区,池尻３丁目２４番２号ビラ・ネージュ３００,,13,112,1540001,,,2025-07-28,清算の結了等,,,2020-05-27,1,,,,,グッドパーソン,0
1266,6011001039962,登記記録の閉鎖等,0,2025-07-30,2025-07-28,ＴＣＳ株式会社,,株式会社,東京都,渋谷区,恵比寿１丁目１９番１９号,,13,113,1500013,,,2025-07-28,合併による解散等,6010701025982,令和７年７月１日東京都港区港南二丁目１６番６号キヤノンＩＴソリューションズ株式会社（6010701025982）に合併し解散,2015-10-05,1,,,,,ティーシーエス,0
1271,6011003020846,登記記録の閉鎖等,0,2025-07-30,2025-06-30,合同会社ルミエル,,合同会社,東京都,渋谷区,渋谷２丁目１９－１５宮益坂ビルディング６０９,,13,113,1500002,,,2025-06-30,清算の結了等,,,2025-02-03,1,,,,,ルミエル,0
1279,6011501023953,登記記録の閉鎖等,0,2025-07-30,2025-07-24,株式会社Ｋ＆Ｙ,,株式会社,東京都,北区,十条仲原１丁目２６番５号,,13,117,1140031,,,2025-07-24,清算の結了等,,,2018-08-02,1,,,,,ケーアンドワイ,0
1302,6030001034583,登記記録の閉鎖等,0,2025-07-30,2025-07-24,株式会社アイ出版サービス,,株式会社,埼玉県,草加市,旭町６丁目１４番６号,,11,221,3400053,,,2025-07-24,清算の結了等,,,2015-10-05,1,,,,,アイシュッパンサービス,0
1310,6030002007159,登記記録の閉鎖等,0,2025-07-30,2025-07-24,有限会社寿能屋,,有限会社,埼玉県,さいたま市大宮区,大門町１丁目２３番地,,11,103,3300846,,,2025-07-24,清算の結了等,,,2015-10-05,1,,,,,ジュノウヤ,0
1311,6030002027990,登記記録の閉鎖等,0,2025-07-30,2025-07-23,アール商事有限会社,,有限会社,埼玉県,所沢市,小手指町５丁目１２番地の３０,,11,208,3591141,,,2025-07-23,清算の結了等,,,2015-10-05,1,,,,,アールショウジ,0
1328,6070002011999,登記記録の閉鎖等,0,2025-07-30,2025-07-18,有限会社堀越商会,,有限会社,群馬県,高崎市,吉井町吉井１２７番地,,10,202,3702132,,,2025-07-18,清算の結了等,,,2015-10-05,1,,,,,ホリコシショウカイ,0
1331,6080002004424,登記記録の閉鎖等,0,2025-07-30,2025-07-18,有限会社にんぎょっ子,,有限会社,静岡県,静岡市駿河区,東新田４丁目１０番２１号,,22,102,4210112,,,2025-07-18,清算の結了等,,,2015-10-05,1,,,,,,0
1334,6080101025494,登記記録の閉鎖等,0,2025-07-30,2025-07-24,株式会社三恵,,株式会社,静岡県,熱海市,中央町１９番２９号,,22,205,4130015,,,2025-07-24,清算の結了等,,,2025-05-22,1,,,,,サンケイ,0
1335,6080102012285,登記記録の閉鎖等,0,2025-07-30,2025-07-25,有限会社佐野工事,,有限会社,静岡県,三島市,玉川３４９番地の４,,22,206,4110835,,,2025-07-25,清算の結了等,,,2015-10-05,1,,,,,サノコウジ,0
1338,6080401021482,登記記録の閉鎖等,0,2025-07-30,2025-07-22,天龍商事株式会社,,株式会社,静岡県,浜松市中央区,薬師町２２１番地の１,,22,138,4350017,,,2025-07-22,清算の結了等,,,2016-05-13,1,,,,,テンリュウショウジ,0
1340,6100001036259,登記記録の閉鎖等,0,2025-07-30,2025-07-25,株式会社徳竹ホワイトミライ,,株式会社,長野県,中野市,大字片塩４８番地,,20,211,3830046,,,2025-07-25,清算の結了等,,,2023-03-28,1,,,,,トクタケホワイトミライ,0
1343,6110002021432,登記記録の閉鎖等,0,2025-07-30,2025-07-07,有限会社オムクリエイション,,有限会社,新潟県,村上市,片町５番２３号,,15,212,9580872,,,2025-07-07,清算の結了等,,,2015-10-05,1,,,,,オムクリエイション,0
1365,6140001007693,登記記録の閉鎖等,0,2025-07-30,2025-07-22,株式会社壽パール商会,,株式会社,兵庫県,神戸市中央区,中山手通１丁目２３番１０号,,28,110,6500004,,,2025-07-22,清算の結了等,,,2015-10-05,1,,,,,コトブキパールショウカイ,0
1389,6180302005806,登記記録の閉鎖等,0,2025-07-30,2025-07-22,英有限会社,,有限会社,愛知県,岡崎市,田口町字口田４６番地３,,23,202,4443172,,,2025-07-22,清算の結了等,,,2015-10-05,1,,,,,,0
1394,6190002012069,登記記録の閉鎖等,0,2025-07-30,2025-07-17,有限会社魚喜,,有限会社,三重県,伊賀市,平田字東中川原７４２番地の１０,,24,216,5181422,,,2025-07-17,清算の結了等,,,2015-10-05,1,,,,,ウオキ,0
1395,6200001012828,登記記録の閉鎖等,0,2025-07-30,2025-07-22,今心株式会社,,株式会社,岐阜県,岐阜市,世保東２５番地１,,21,201,5012542,,,2025-07-22,清算の結了等,,,2015-10-05,1,,,,,イマジン,0
1399,6200002027643,登記記録の閉鎖等,0,2025-07-30,2025-07-24,有限会社古田自動車,,有限会社,岐阜県,下呂市,金山町金山６０６番地の２,,21,220,5091622,,,2025-07-24,清算の結了等,,,2015-10-05,1,,,,,フルタジドウシャ,0
1405,6240001053240,登記記録の閉鎖等,0,2025-07-30,2025-07-22,株式会社コアファクト,,株式会社,広島県,広島市中区,上八丁堀５番２４号,,34,101,7300012,,,2025-07-22,清算の結了等,,,2018-08-28,1,,,,,コアファクト,0
1416,6290001098215,登記記録の閉鎖等,0,2025-07-30,2025-07-04,株式会社メディテラス,,株式会社,福岡県,福岡市城南区,飯倉１丁目６番２５号,,40,136,8140134,,,2025-07-04,清算の結了等,,,2022-07-07,1,,,,,メディテラス,0
1424,6330005001277,登記記録の閉鎖等,0,2025-07-30,2025-07-09,医療法人社団橘会,,その他の設立登記法人,熊本県,熊本市中央区,八王寺町３５番２３号,,43,101,8600831,,,2025-07-09,清算の結了等,,,2015-10-05,1,,,,,タチバナカイ,0
1427,6340001008201,登記記録の閉鎖等,0,2025-07-30,2025-07-08,株式会社ハーネス工業,,株式会社,鹿児島県,姶良市,東餅田３７２６番地２３,00098613,46,225,8995421,,,2025-07-08,清算の結了等,,,2015-10-05,1,,,,,ハーネスコウギョウ,0
1433,6370001009015,登記記録の閉鎖等,0,2025-07-30,2025-06-30,東亜キャピタル株式会社,,株式会社,宮城県,仙台市青葉区,上杉１丁目１０番２５号,,04,101,9800011,,,2025-06-30,合併による解散等,8370001012198,令和７年６月３０日仙台市青葉区国分町二丁目１３番２１号株式会社白蜂（8370001012198）に合併し解散,2015-10-05,1,,,,,トウアキャピタル,0
1442,6430001012276,登記記録の閉鎖等,0,2025-07-30,2025-07-22,株式会社ナショナルマリン,,株式会社,北海道,札幌市豊平区,月寒東三条１５丁目７番１４号,,01,105,0620053,,,2025-07-22,合併による解散等,3180001083916,令和７年７月１日愛知県一宮市せんい二丁目３番１３号モリリン株式会社（3180001083916）に合併し解散,2015-10-05,1,,,,,ナショナルマリン,0
1446,6430002025756,登記記録の閉鎖等,0,2025-07-30,2025-07-09,有限会社丸哲塗装,,有限会社,北海道,札幌市豊平区,月寒西一条４丁目１番１１号,,01,105,0620021,,,2025-07-09,清算の結了等,,,2015-10-05,1,,,,,マルテツトソウ,0
1448,6480001011678,登記記録の閉鎖等,0,2025-07-30,2025-07-17,ＬＧＢＴＱ就職株式会社,,株式会社,徳島県,徳島市,八万町川南６７番地の１４,,36,201,7708082,,,2025-07-17,清算の結了等,,,2022-03-15,1,,,,,エルジービーティーキューシュウショク,0
1470,7010403030941,登記記録の閉鎖等,0,2025-07-30,2025-07-03,合同会社Ｌｉｔｔｌｅ　Ｓｔａｒ,,合同会社,東京都,港区,元赤坂１丁目１番７号,,13,103,1070051,,,2025-07-03,清算の結了等,,,2023-09-13,1,,,,,リトルスター,0
1471,7010405012905,登記記録の閉鎖等,0,2025-07-30,2025-07-03,Ｇ　Ｇｌｏｂａｌ　Ｎａｇｏｙａ特定目的会社,,その他の設立登記法人,東京都,港区,赤坂２丁目１０番５号デロイトトーマツ赤坂インターナショナル株式会社内,,13,103,1070052,,,2025-07-03,清算の結了等,,,2015-10-05,1,,,,,ジーグローバルナゴヤ,0
1475,7010602014571,登記記録の閉鎖等,0,2025-07-30,2025-07-17,有限会社本所機械店,,有限会社,東京都,墨田区,緑３丁目２３番８号,,13,107,1300021,,,2025-07-17,清算の結了等,,,2015-10-05,1,,,,,ホンジョキカイテン,0
1484,7011001045646,登記記録の閉鎖等,0,2025-07-30,2025-07-17,株式会社パッションキッズ,,株式会社,東京都,品川区,中延３丁目４番５号,,13,109,1420053,,,2025-07-17,清算の結了等,,,2015-10-05,1,,,,,パッションキッズ,0
1489,7011001153127,登記記録の閉鎖等,0,2025-07-30,2025-06-30,株式会社青船,,株式会社,東京都,渋谷区,東２丁目１４番２６号令和小路１０３,,13,113,1500011,,,2025-06-30,清算の結了等,,,2023-03-16,1,,,,,アオフネ,0
1490,7011001163539,登記記録の閉鎖等,0,2025-07-30,2025-06-26,ＡｌｐｈａＢｅｔａ株式会社,,株式会社,東京都,渋谷区,渋谷２丁目１９－１５宮益坂ビルディング６０９号,,13,113,1500002,,,2025-06-26,清算の結了等,,,2024-07-22,1,,,,,アルファベータ,0
1524,7021001028666,登記記録の閉鎖等,0,2025-07-30,2025-07-28,株式会社小林造形企画,,株式会社,神奈川県,大和市,中央林間８丁目１２番７号,,14,213,2420007,,,2025-07-28,清算の結了等,,,2015-10-05,1,,,,,コバヤシゾウケイキカク,0
1525,7021001073753,登記記録の閉鎖等,0,2025-07-30,2025-07-23,株式会社くまのと,,株式会社,神奈川県,三浦郡葉山町,一色１９４０番地の３４,,14,301,2400111,,,2025-07-23,清算の結了等,,,2021-08-25,1,,,,,クマノト,0
1541,7030002092514,登記記録の閉鎖等,0,2025-07-30,2025-07-22,有限会社信企画,,有限会社,埼玉県,坂戸市,溝端町１３番地４,,11,239,3500274,,,2025-07-22,清算の結了等,,,2015-10-05,1,,,,,,0
1543,7040001056213,登記記録の閉鎖等,0,2025-07-30,2025-07-09,株式会社ウイン,,株式会社,千葉県,市原市,ちはら台東２丁目１１番地１８,,12,219,2900141,,,2025-07-09,清算の結了等,,,2015-10-05,1,,,,,ウイン,0
1554,7050002039216,登記記録の閉鎖等,0,2025-07-30,2025-07-24,有限会社つくばライン開発,,有限会社,千葉県,千葉市稲毛区,緑町２丁目６番１６－４０５号,,12,103,2630023,,,2025-07-24,合併による解散等,7013401000239,令和７年７月１日東京都文京区白山五丁目３３番３号４階ＶＥＬＡＯＳ株式会社（7013401000239）に合併し解散,2015-10-05,1,,,,,ツクバラインカイハツ,0
1557,7070001020100,登記記録の閉鎖等,0,2025-07-30,2025-07-17,株式会社古川テクニカコーポレーション,,株式会社,群馬県,太田市,西新町１２６番地３,,10,205,3730847,,,2025-07-17,清算の結了等,,,2015-10-05,1,,,,,フルカワテクニカコーポレーション,0
1563,7080001014638,登記記録の閉鎖等,0,2025-07-30,2025-07-18,アクト設備株式会社,,株式会社,静岡県,焼津市,石津９４０番地,,22,212,4250041,,,2025-07-18,清算の結了等,,,2015-10-05,1,,,,,アクトセツビ,0
1567,7080402004205,登記記録の閉鎖等,0,2025-07-30,2025-07-22,有限会社鈴木育男計画設計室,,有限会社,静岡県,浜松市中央区,市野町９５４番地,,22,138,4350051,,,2025-07-22,清算の結了等,,,2015-10-05,1,,,,,スズキイクオケイカクセッケイシツ,0
1572,7100005010358,登記記録の閉鎖等,0,2025-07-30,2025-07-24,一里塚開拓農業協同組合,,その他の設立登記法人,長野県,北佐久郡御代田町,大字馬瀬口字一里塚無番地,,20,323,3890207,,,2025-07-24,清算の結了等,,,2015-10-05,1,,,,,イチリヅカカイタク,0
1573,7110002004601,登記記録の閉鎖等,0,2025-07-30,2025-07-16,有限会社ナカノフーズ,,有限会社,新潟県,新潟市西区,赤塚２７１２番地１,,15,107,9502261,,,2025-07-16,清算の結了等,,,2015-10-05,1,,,,,ナカノフーズ,0
1579,7120003018839,登記記録の閉鎖等,0,2025-07-30,2025-07-18,合同会社Ｈｉｇｈｌａｎｄ　Ｔｒａｄｉｎｇ,,合同会社,大阪府,大阪市浪速区,大国２丁目７番１８号,,27,111,5560014,,,2025-07-18,清算の結了等,,,2021-02-03,1,,,,,ハイランドトレーディング,0
1589,7122003002062,登記記録の閉鎖等,0,2025-07-30,2025-07-09,合同会社ＡｎｏｔｈｅｒＳｔｅｐ,,合同会社,大阪府,八尾市,中田１丁目４７番地の１４,,27,212,5810014,,,2025-07-09,清算の結了等,,,2021-04-02,1,,,,,アナザーステップ,0
1596,7140001063686,登記記録の閉鎖等,0,2025-07-30,2025-07-22,株式会社モダンタイムス,,株式会社,兵庫県,姫路市,北原５１２番地２１,,28,201,6728002,,,2025-07-22,清算の結了等,,,2015-10-05,1,,,,,モダンタイムス,0
1623,7180005003882,登記記録の閉鎖等,0,2025-07-30,2025-07-17,愛知県靴下工業協同組合,,その他の設立登記法人,愛知県,名古屋市西区,花の木３丁目９番１１号,,23,104,4510062,,,2025-07-17,清算の結了等,,,2015-10-05,1,,,,,アイチケンクツシタ,0
1626,7200002015250,登記記録の閉鎖等,0,2025-07-30,2025-07-22,有限会社アイエヌ工業,,有限会社,岐阜県,揖斐郡池田町,舟子３７６番地の１,,21,404,5032409,,,2025-07-22,清算の結了等,,,2015-10-05,1,,,,,アイエヌコウギョウ,0
1636,7250002000017,登記記録の閉鎖等,0,2025-07-30,2025-07-28,朝日商事有限会社,,有限会社,山口県,山口市,吉敷下東２丁目２番３３号,,35,203,7530814,,,2025-07-28,清算の結了等,,,2015-10-05,1,,,,,アサヒショウジ,0
1637,7250002019494,登記記録の閉鎖等,0,2025-07-30,2025-07-25,有限会社潮風,,有限会社,山口県,岩国市,由宇町８５００番地６,,35,208,7401488,,,2025-07-25,清算の結了等,,,2015-10-05,1,,,,,シオカゼ,0
1638,7280001005823,登記記録の閉鎖等,0,2025-07-30,2025-07-28,ＳＫＫ電気通信株式会社,,株式会社,島根県,雲南市,大東町田中２７０番地,,32,209,6991252,,,2025-07-28,清算の結了等,,,2015-10-05,1,,,,,エスケーケーデンキツウシン,0
1649,7350002010154,登記記録の閉鎖等,0,2025-07-30,2025-07-18,有限会社長友クレーン工業,,有限会社,宮崎県,児湯郡新富町,大字上富田６２７８番地１,,45,402,8891403,,,2025-07-18,清算の結了等,,,2015-10-05,1,,,,,ナガトモクレーンコウギョウ,0
1650,7350002013850,登記記録の閉鎖等,0,2025-07-30,2025-07-23,有限会社エムアンドエム,,有限会社,宮崎県,都城市,高崎町大牟田６２０８番地,,45,202,8894505,,,2025-07-23,清算の結了等,,,2015-10-05,1,,,,,エムアンドエム,0
1662,7370005008879,登記記録の閉鎖等,0,2025-07-30,2025-07-08,特定非営利活動法人仙台雇用福祉事業団,,その他の設立登記法人,宮城県,仙台市太白区,中田２丁目１３番３０号,,04,104,9811104,,,2025-07-08,清算の結了等,,,2015-11-25,1,,,,,センダイコヨウフクシジギョウダン,0
1676,7460001001655,登記記録の閉鎖等,0,2025-07-30,2025-07-24,株式会社マルタミ,,株式会社,北海道,釧路郡釧路町,桂木２丁目４番地３,,01,661,0880621,,,2025-07-24,合併による解散等,2120001123629,令和７年６月３０日大阪市中央区西心斎橋一丁目５番２５号ジネスビル１階株式会社ＦＡＳＣＩＮＡＴＥ（2120001123629）に合併し解散,2015-10-05,1,,,,,マルタミ,0
1695,8010003028798,登記記録の閉鎖等,0,2025-07-30,2025-07-03,Ｏｔｏｗａ　Ｊａｐａｎ合同会社,,合同会社,東京都,千代田区,霞が関３丁目２番５号霞が関ビル,,13,101,1000013,,,2025-07-03,清算の結了等,,,2018-11-27,1,,,,,オトワジャパン,0
1706,8010601013672,登記記録の閉鎖等,0,2025-07-30,2025-07-16,泰東株式会社,,株式会社,東京都,墨田区,立花４丁目１３番１４号,,13,107,1310043,,,2025-07-16,清算の結了等,,,2015-10-05,1,,,,,タイトウ,0
1712,8010701024883,登記記録の閉鎖等,0,2025-07-30,2025-07-18,株式会社ファーガス商会,,株式会社,東京都,品川区,旗の台６丁目１６番２２号,,13,109,1420064,,,2025-07-18,清算の結了等,,,2015-10-05,1,,,,,ファーガスショウカイ,0
1755,8030002092397,登記記録の閉鎖等,0,2025-07-30,2025-07-23,有限会社坂戸エンジニアリング,,有限会社,埼玉県,坂戸市,千代田２丁目８番３６号,,11,239,3500214,,,2025-07-23,清算の結了等,,,2015-10-05,1,,,,,サカドエンジニアリング,0
1761,8040002028895,登記記録の閉鎖等,0,2025-07-30,2025-07-07,有限会社寄特青果,,有限会社,千葉県,八千代市,大字米本２２１８番地９０米本団地２街区３０号,,12,221,2760000,,,2025-07-07,清算の結了等,,,2015-10-05,1,,,,,キトクセイカ,0
1762,8040002069428,登記記録の閉鎖等,0,2025-07-30,2025-07-03,有限会社ＯＮＭ,,有限会社,千葉県,木更津市,東中央２丁目１１－１５パインズマンション木更津参番館３０１号,,12,206,2920057,,,2025-07-03,清算の結了等,,,2015-10-05,1,,,,,オーエヌエム,0
1763,8040002076721,登記記録の閉鎖等,0,2025-07-30,2025-07-08,有限会社島田企画,,有限会社,千葉県,市原市,君塚５丁目９番地４,,12,219,2900051,,,2025-07-08,清算の結了等,,,2015-10-05,1,,,,,シマダキカク,0
1764,8050001016917,登記記録の閉鎖等,0,2025-07-30,2025-07-15,日通つくば運輸株式会社,,株式会社,茨城県,つくば市,谷田部３３５７番地の１,,08,220,3050861,,,2025-07-15,清算の結了等,,,2015-10-05,1,,,,,ニッツウツクバウンユ,0
1770,8080105005648,登記記録の閉鎖等,0,2025-07-30,2025-07-25,一般社団法人旅館ホテルコンサルタント協会,,その他の設立登記法人,静岡県,伊東市,湯川３丁目１番１号さくらビル２Ｆ,,22,208,4140002,,,2025-07-25,清算の結了等,,,2016-05-26,1,,,,,リョカンホテルコンサルタントキョウカイ,0
1777,8110001026034,登記記録の閉鎖等,0,2025-07-30,2025-07-07,株式会社アルゾン,,株式会社,新潟県,長岡市,中興野４３１番地３,,15,202,9540131,,,2025-07-07,清算の結了等,,,2015-10-05,1,,,,,アルゾン,0
1779,8110002029366,登記記録の閉鎖等,0,2025-07-30,2025-07-07,有限会社ももの木,,有限会社,新潟県,長岡市,下柳２丁目７番２９号,,15,202,9402013,,,2025-07-07,清算の結了等,,,2015-10-05,1,,,,,モモノキ,0
1783,8120001115876,登記記録の閉鎖等,0,2025-07-30,2025-07-28,株式会社ミナジン,,株式会社,大阪府,大阪市北区,堂島１丁目５番１７号,,27,127,5300003,,,2025-07-28,合併による解散等,9010401181504,令和７年７月１日東京都港区南青山一丁目２４番３号ＷｅＷｏｒｋ乃木坂株式会社ｋｕｂｅｌｌパートナー（9010401181504）に合併し解散,2015-10-05,1,,,,,ミナジン,0
1812,8130002032475,登記記録の閉鎖等,0,2025-07-30,2025-07-14,有限会社植村工業,,有限会社,京都府,福知山市,字榎原１５８３番地,,26,201,6200000,,,2025-07-14,清算の結了等,,,2015-10-05,1,,,,,ウエムラコウギョウ,0
1820,8140002047167,登記記録の閉鎖等,0,2025-07-30,2025-07-22,有限会社青山歯科商店,,有限会社,兵庫県,姫路市,大津区平松２４３番地の１４,,28,201,6711145,,,2025-07-22,清算の結了等,,,2015-10-05,1,,,,,アオヤマシカショウテン,0
1823,8140003016328,登記記録の閉鎖等,0,2025-07-30,2025-07-22,合同会社ルナ・ファースト,,合同会社,兵庫県,芦屋市,打出小槌町３番１４－１０３号,00123201,28,206,6590028,,,2025-07-22,清算の結了等,,,2021-05-31,1,,,,,ルナファースト,0
1824,8150001023903,登記記録の閉鎖等,0,2025-07-30,2025-07-09,株式会社Ｎｅｘｕｓ,,株式会社,大阪府,東大阪市,高井田元町２丁目２６番１６号,,27,227,5770054,,,2025-07-09,清算の結了等,,,2020-07-14,1,,,,,ネクサス,0
1843,8180302023756,登記記録の閉鎖等,0,2025-07-30,2025-07-15,有限会社屋根星,,有限会社,愛知県,豊田市,若林西町稲荷７３番地,,23,211,4730917,,,2025-07-15,清算の結了等,,,2015-10-05,1,,,,,ヤネホシ,0
1851,8200001028599,登記記録の閉鎖等,0,2025-07-30,2025-07-22,株式会社はたの,,株式会社,岐阜県,山県市,洞田２番地３６,,21,215,5012125,,,2025-07-22,清算の結了等,,,2015-10-05,1,,,,,ハタノ,0
1855,8240001016121,登記記録の閉鎖等,0,2025-07-30,2025-07-17,株式会社エスコート,,株式会社,広島県,呉市,音戸町引地１丁目１番２号,,34,202,7371202,,,2025-07-17,清算の結了等,,,2015-10-05,1,,,,,エスコート,0
1858,8240003006310,登記記録の閉鎖等,0,2025-07-30,2025-07-16,合同会社ＬｕＡｎｇｅａ,,合同会社,広島県,広島市中区,昭和町５－２第２創ビル１Ｆ,,34,101,7300046,,,2025-07-16,清算の結了等,,,2023-09-15,1,,,,,ルアンジア,0
1860,8250002015047,登記記録の閉鎖等,0,2025-07-30,2025-07-28,徳山砂利有限会社,,有限会社,山口県,周南市,築港町１番２号,,35,215,7450025,,,2025-07-28,清算の結了等,,,2015-10-05,1,,,,,トクヤマジャリ,0
1861,8250005006737,登記記録の閉鎖等,0,2025-07-30,2025-07-18,学校法人柳井幼稚園,,その他の設立登記法人,山口県,柳井市,姫田４番１号,,35,212,7420001,,,2025-07-18,清算の結了等,,,2015-10-05,1,,,,,ヤナイヨウチエン,0
1881,8340002000519,登記記録の閉鎖等,0,2025-07-30,2025-07-10,有限会社ケイエス,,有限会社,鹿児島県,日置市,伊集院町妙円寺１丁目５７番地９,,46,216,8992503,,,2025-07-10,清算の結了等,,,2015-10-05,1,,,,,ケイエス,0
1884,8350005005456,登記記録の閉鎖等,0,2025-07-30,2025-07-15,みやざきでんきやネットワーク協同組合,,その他の設立登記法人,宮崎県,都城市,広原町１９号７番地２,,45,202,8850036,,,2025-07-15,清算の結了等,,,2015-10-05,1,,,,,ミヤザキデンキヤネットワーク,0
1889,8370301001041,登記記録の閉鎖等,0,2025-07-30,2025-07-07,株式会社日野石油店,,株式会社,宮城県,石巻市,井内字一番５６番地,,04,202,9860003,,,2025-07-07,清算の結了等,,,2015-10-05,1,,,,,ヒノセキユテン,0
1907,8480002012129,登記記録の閉鎖等,0,2025-07-30,2025-07-28,有限会社小林瓦店,,有限会社,徳島県,板野郡北島町,北村字大黒２２番地の１,,36,402,7710201,,,2025-07-28,清算の結了等,,,2015-10-05,1,,,,,,0
1909,8500002017703,登記記録の閉鎖等,0,2025-07-30,2025-07-22,有限会社井川建設,,有限会社,愛媛県,今治市,近見町３丁目４番４３号,,38,202,7940007,,,2025-07-22,清算の結了等,,,2025-05-30,1,,,,,イガワケンセツ,0
1916,9010001187389,登記記録の閉鎖等,0,2025-07-30,2025-07-25,株式会社Ｐｏｅｔｉｃｓ,,株式会社,東京都,渋谷区,千駄ヶ谷３丁目１６番３号メイゾン原宿５０２号室,,13,113,1510051,,,2025-07-25,合併による解散等,4010401151825,令和７年６月３０日東京都港区虎ノ門四丁目１番１号株式会社ナレッジワーク（4010401151825）に合併し解散,2017-11-07,1,,,,,ポエティクス,0
1939,9010601029833,登記記録の閉鎖等,0,2025-07-30,2025-07-18,アイム株式会社,,株式会社,東京都,墨田区,緑１丁目１５番１２－６０１号,,13,107,1300021,,,2025-07-18,清算の結了等,,,2015-10-05,1,,,,,アイム,0
1944,9010701013365,登記記録の閉鎖等,0,2025-07-30,2025-07-03,株式会社総和エステーツ,,株式会社,東京都,港区,南青山２丁目２番１５－８２５号,,13,103,1070062,,,2025-07-03,清算の結了等,,,2015-10-05,1,,,,,ソウワエステーツ,0
1953,9011003017591,登記記録の閉鎖等,0,2025-07-30,2025-06-30,合同会社ｔｒｉｐｐｓ,,合同会社,東京都,渋谷区,渋谷２丁目１９－１５宮益坂ビルディング６０９,,13,113,1500002,,,2025-06-30,清算の結了等,,,2023-11-30,1,,,,,トリップス,0
1959,9011201001694,登記記録の閉鎖等,0,2025-07-30,2025-07-24,恒陽振興株式会社,,株式会社,東京都,中野区,中央３丁目３２番２号クリンネルビル,,13,114,1640011,,,2025-07-24,清算の結了等,,,2015-10-05,1,,,,,,0
1965,9011601018289,登記記録の閉鎖等,0,2025-07-30,2025-07-03,アキュラシー・インベストメント株式会社,,株式会社,東京都,練馬区,三原台３丁目１３番６号,,13,120,1770031,,,2025-07-03,清算の結了等,,,2015-10-05,1,,,,,アキュラシーインベストメント,0
1986,9021002030215,登記記録の閉鎖等,0,2025-07-30,2025-07-18,有限会社邦栄商事,,有限会社,神奈川県,相模原市南区,上鶴間６丁目９番６号,,14,153,2520302,,,2025-07-18,清算の結了等,,,2015-10-05,1,,,,,ホウエイショウジ,0
1990,9030001119480,登記記録の閉鎖等,0,2025-07-30,2025-07-22,ＨＹＣ株式会社,,株式会社,埼玉県,さいたま市見沼区,堀崎町１０１８番地８,,11,104,3370052,,,2025-07-22,清算の結了等,,,2017-04-04,1,,,,,,0
1999,9030005002303,登記記録の閉鎖等,0,2025-07-30,2025-07-23,特定非営利活動法人さいたまシニアライフアドバイザーの会,,その他の設立登記法人,埼玉県,さいたま市浦和区,北浦和２丁目５番１１号,,11,107,3300074,,,2025-07-23,清算の結了等,,,2015-10-05,1,,,,,サイタマシニアライフアドバイザーノカイ,0
2025,9080401021983,登記記録の閉鎖等,0,2025-07-30,2025-07-23,株式会社里灯都,,株式会社,静岡県,浜松市浜名区,高畑２番地の７,,22,139,4340034,,,2025-07-23,清算の結了等,,,2017-02-03,1,,,,,リヒト,0
2030,9080402020092,登記記録の閉鎖等,0,2025-07-30,2025-07-23,有限会社太田室内,,有限会社,静岡県,磐田市,東名２３番地の１,,22,211,4380806,,,2025-07-23,清算の結了等,,,2015-10-05,1,,,,,オオタシツナイ,0
2032,9100002018113,登記記録の閉鎖等,0,2025-07-30,2025-07-25,有限会社永井設備工業所,,有限会社,長野県,中野市,大字新野６８９番地６,,20,211,3830034,,,2025-07-25,清算の結了等,,,2015-10-05,1,,,,,ナガイセツビコウギョウジョ,0
2052,9120002018482,登記記録の閉鎖等,0,2025-07-30,2025-07-18,有限会社大関,,有限会社,大阪府,大阪市福島区,吉野１丁目２２番４号大関ビル,,27,103,5530006,,,2025-07-18,清算の結了等,,,2015-10-05,1,,,,,オオゼキ,0
2072,9140001049675,登記記録の閉鎖等,0,2025-07-30,2025-07-22,株式会社泰斗,,株式会社,兵庫県,尼崎市,戸ノ内町２丁目３番３９号,,28,202,6610961,,,2025-07-22,清算の結了等,,,2015-10-05,1,,,,,,0
2073,9140001087246,登記記録の閉鎖等,0,2025-07-30,2025-07-22,セームマインド株式会社,,株式会社,兵庫県,神戸市西区,玉津町水谷２９番地の８,,28,111,6512121,,,2025-07-22,清算の結了等,,,2015-10-05,1,,,,,セームマインド,0
2077,9140002013960,登記記録の閉鎖等,0,2025-07-30,2025-07-23,有限会社小濱パール,,有限会社,兵庫県,神戸市中央区,港島中町６丁目２番地の１神戸パークシティ３号棟７０７号,,28,110,6500046,,,2025-07-23,清算の結了等,,,2015-10-05,1,,,,,コハマパール,0
2091,9180001144472,登記記録の閉鎖等,0,2025-07-30,2025-07-25,テロワール・ヌフ株式会社,,株式会社,愛知県,名古屋市名東区,藤見が丘６２番地１イースタンメゾン藤が丘１０１,,23,115,4650048,,,2025-07-25,合併による解散等,2180001106801,令和７年７月２５日愛知県小牧市春日寺二丁目３６０番地株式会社みらいえ（2180001106801）に合併し解散,2021-01-18,1,,,,,テロワールヌフ,0
2099,9180301033524,登記記録の閉鎖等,0,2025-07-30,2025-07-22,Ａ－ＴＥＣＨ株式会社,,株式会社,愛知県,岡崎市,山綱町字恋ノ口５９番地,,23,202,4443513,,,2025-07-22,清算の結了等,,,2020-03-18,1,,,,,エイテック,0
2114,9240001038065,登記記録の閉鎖等,0,2025-07-30,2025-07-22,株式会社小林呉服店,,株式会社,広島県,尾道市,土堂１丁目８番１１号,,34,205,7220035,,,2025-07-22,清算の結了等,,,2015-10-05,1,,,,,コバヤシゴフクテン,0
2120,9280001005920,登記記録の閉鎖等,0,2025-07-30,2025-07-28,株式会社心,,株式会社,島根県,松江市,東本町３丁目６番地カサローゼ４０２号,,32,201,6900842,,,2025-07-28,清算の結了等,,,2015-10-05,1,,,,,ココロ,0
2131,9290801025448,登記記録の閉鎖等,0,2025-07-30,2025-07-24,株式会社中本設備工業,,株式会社,福岡県,築上郡上毛町,大字八ツ並１４番地８,,40,646,8710903,,,2025-07-24,清算の結了等,,,2019-04-17,1,,,,,ナカモトセツビコウギョウ,0
2160,9420003001481,登記記録の閉鎖等,0,2025-07-30,2025-07-11,ソフィックユニオン合同会社,,合同会社,青森県,青森市,大字石江字江渡１１番地,,02,201,0380003,,,2025-07-11,清算の結了等,,,2015-10-05,1,,,,,ソフィックユニオン,0
2168,9480001001214,登記記録の閉鎖等,0,2025-07-30,2025-07-28,株式会社鈴木商店,,株式会社,徳島県,徳島市,津田海岸町６番９号,,36,201,7708001,,,2025-07-28,清算の結了等,,,2015-10-05,1,,,,,,0
2170,9480002005395,登記記録の閉鎖等,0,2025-07-30,2025-07-24,藍クリエイト有限会社,,有限会社,徳島県,板野郡藍住町,奥野字乾１２９－１－２,,36,403,7711201,,,2025-07-24,清算の結了等,,,2015-10-05,1,,,,,アイクリエイト,0
