sequenceNumber,corporateNumber,process,correct,updateDate,changeDate,name,nameImageId,kind,prefectureName,cityName,streetNumber,addressImageId,prefectureCode,cityCode,postCode,addressOutside,addressOutsideImageId,closeDate,closeCause,successorCorporateNumber,changeCause,assignmentDate,latest,enName,enPrefectureName,enCityName,enAddressOutside,furigana,hihyoji
1,1010001111273,登記記録の閉鎖等,0,2022-12-02,2022-11-29,株式会社エルエスピー,,株式会社,東京都,中央区,新富１丁目１３番２６号,,13,102,1040041,,,2022-11-29,清算の結了等,,,2015-10-05,1,,,,,エルエスピー,0
16,1010401079961,登記記録の閉鎖等,0,2022-12-02,2022-11-25,株式会社ＦＬＵＸＵＳ　ＪＡＰＡＮ,,株式会社,東京都,港区,北青山２丁目１１番３号Ａ－ＰＬＡＣＥ青山４階,,13,103,1070061,,,2022-11-25,清算の結了等,,,2015-10-05,1,,,,,フラクサスジャパン,0
22,1010403016194,登記記録の閉鎖等,0,2022-12-02,2022-11-28,寶聖グローバルライン合同会社,,合同会社,東京都,港区,海岸３丁目３３番１７号東京ベイサイドビル,,13,103,1080022,,,2022-11-28,清算の結了等,,,2017-02-23,1,,,,,ホウセイグローバルライン,0
39,1011001134628,登記記録の閉鎖等,0,2022-12-02,2022-11-25,ｓａｓａ株式会社,,株式会社,東京都,渋谷区,上原１丁目７番２０号ＳＫ・ＰＬＡＣＥ,,13,113,1510064,,,2022-11-25,清算の結了等,,,2020-07-07,1,,,,,ササ,0
43,1011002007510,登記記録の閉鎖等,0,2022-12-02,2022-11-29,株式会社ヒューマンカンパニーエスケープ,,株式会社,東京都,北区,浮間２丁目５番１１号サークルハウス浮間弐番館１０１,,13,117,1150051,,,2022-11-29,清算の結了等,,,2015-10-05,1,,,,,ヒューマンカンパニーエスケープ,0
50,1011401017481,登記記録の閉鎖等,0,2022-12-02,2022-11-30,３Ｃ株式会社,,株式会社,東京都,板橋区,前野町２丁目４番９号,,13,119,1740063,,,2022-11-30,清算の結了等,,,2015-10-05,1,,,,,スリーシー,0
62,1011802027666,登記記録の閉鎖等,0,2022-12-02,2022-11-29,有限会社セパージュ,,有限会社,東京都,足立区,千住仲町２４番４号,,13,121,1200036,,,2022-11-29,清算の結了等,,,2015-10-05,1,,,,,セパージュ,0
67,1020001059157,登記記録の閉鎖等,0,2022-12-02,2022-11-30,株式会社ホームパートナーズ,,株式会社,神奈川県,横浜市金沢区,大川７番９号,,14,108,2360043,,,2022-11-30,清算の結了等,,,2015-10-05,1,,,,,ホームパートナーズ,0
77,1020002029282,登記記録の閉鎖等,0,2022-12-02,2022-11-30,有限会社おもや,,有限会社,神奈川県,横浜市南区,吉野町３丁目７番地,,14,105,2320014,,,2022-11-30,清算の結了等,,,2015-10-05,1,,,,,オモヤ,0
81,1021005000387,登記記録の閉鎖等,0,2022-12-02,2022-11-30,辻堂新町商店街振興組合,00014148,その他の設立登記法人,神奈川県,藤沢市,辻堂新町１丁目３番１０号,,14,205,2510042,,,2022-11-30,清算の結了等,,,2015-10-05,1,,,,,ツジドウシンマチ,0
82,1030001007981,登記記録の閉鎖等,0,2022-12-02,2022-11-30,株式会社丸一合板,,株式会社,東京都,調布市,調布ケ丘１丁目１８番地７６、７０６,,13,208,1820021,,,2022-11-30,清算の結了等,,,2015-10-05,1,,,,,マルイチゴウハン,0
104,1040002047233,登記記録の閉鎖等,0,2022-12-02,2022-11-25,有限会社堤合成工業所,,有限会社,千葉県,松戸市,栄町西５丁目１３７１番地,,12,207,2710061,,,2022-11-25,清算の結了等,,,2015-10-05,1,,,,,,0
118,1070002000131,登記記録の閉鎖等,0,2022-12-02,2022-12-01,アールエス有限会社,,有限会社,群馬県,前橋市,柏倉町１５９５番地,,10,201,3710246,,,2022-12-01,清算の結了等,,,2015-10-05,1,,,,,アールエス,0
125,1090001011573,登記記録の閉鎖等,0,2022-12-02,2022-11-28,ホームシェルパ株式会社,,株式会社,山梨県,北杜市,大泉町西井出８２０９番地３,,19,209,4091501,,,2022-11-28,清算の結了等,,,2015-10-05,1,,,,,ホームシェルパ,0
128,1090003001671,登記記録の閉鎖等,0,2022-12-02,2022-11-28,合同会社なるみ会,,合同会社,山梨県,甲斐市,富竹新田１９９７番地３０,,19,210,4000113,,,2022-11-28,清算の結了等,,,2020-05-01,1,,,,,,0
143,1120002029074,登記記録の閉鎖等,0,2022-12-02,2022-11-30,有限会社アトリエ匠,,有限会社,大阪府,大阪市北区,（大阪市大淀区豊崎七丁目４番１１－１３０１号）,,27,127,5300000,,,2022-11-30,清算の結了等,,,2015-10-05,1,,,,,アトリエタクミ,1
146,1120005010196,登記記録の閉鎖等,0,2022-12-02,2022-11-30,医療法人春暁会,,その他の設立登記法人,大阪府,大阪市住之江区,浜口西１丁目１４番１０号ルナ・ピエーナー浜口西１０２号,,27,125,5590006,,,2022-11-30,清算の結了等,,,2015-10-05,1,,,,,シュンギョウカイ,0
147,1120101001603,登記記録の閉鎖等,0,2022-12-02,2022-11-30,株式会社カメックス,,株式会社,大阪府,堺市南区,茶山台１丁３番１号,,27,145,5900115,,,2022-11-30,清算の結了等,,,2015-10-05,1,,,,,カメックス,0
160,1130002035162,登記記録の閉鎖等,0,2022-12-02,2022-11-30,有限会社ランドプランワン,,有限会社,大阪府,大阪市中央区,博労町２丁目４番７号タイケンビル,,27,128,5410059,,,2022-11-30,清算の結了等,,,2015-10-05,1,,,,,ランドプランワン,0
165,1140001097780,登記記録の閉鎖等,0,2022-12-02,2022-11-30,株式会社ルカ,,株式会社,兵庫県,高砂市,北浜町北脇３３２番地の５,,28,216,6710122,,,2022-11-30,清算の結了等,,,2015-10-05,1,,,,,ルカ,0
171,1140002009074,登記記録の閉鎖等,0,2022-12-02,2022-11-30,有限会社濱崎鉄工所,00040553,有限会社,兵庫県,神戸市長田区,南駒栄町４番２５号,,28,106,6530044,,,2022-11-30,清算の結了等,,,2015-10-05,1,,,,,ハマサキテッコウショ,0
187,1180301028911,登記記録の閉鎖等,0,2022-12-02,2022-11-30,株式会社ＣＳＮ,,株式会社,愛知県,豊橋市,向山台町４番地１４マンション向山３０１,,23,201,4400865,,,2022-11-30,清算の結了等,,,2016-02-18,1,,,,,シーエスエヌ,0
193,1210002012649,登記記録の閉鎖等,0,2022-12-02,2022-11-30,有限会社籔根建築,00077951,有限会社,福井県,丹生郡越前町,上川去第４６号１番地の２３,,18,423,9160142,,,2022-11-30,清算の結了等,,,2015-10-05,1,,,,,ヤブネケンチク,0
210,1290001085275,登記記録の閉鎖等,0,2022-12-02,2022-11-28,株式会社医療福祉人材支援センター,,株式会社,佐賀県,鳥栖市,轟木町１４８１番地１,,41,203,8410061,,,2022-11-28,清算の結了等,,,2019-05-22,1,,,,,イリョウフクシジンザイシエンセンター,0
218,1290801013113,登記記録の閉鎖等,0,2022-12-02,2022-11-30,株式会社菜の花コーポレーション,,株式会社,福岡県,北九州市八幡西区,星ケ丘４丁目７番１９号,,40,109,8071264,,,2022-11-30,清算の結了等,,,2015-10-05,1,,,,,ナノハナコーポレーション,0
222,1300001007582,登記記録の閉鎖等,0,2022-12-02,2022-11-28,相知化成株式会社,,株式会社,佐賀県,唐津市,相知町平山下８８０番地,,41,202,8493202,,,2022-11-28,清算の結了等,,,2015-10-05,1,,,,,オウチカセイ,0
237,1320002016408,登記記録の閉鎖等,0,2022-12-02,2022-11-30,有限会社江藤食品,,有限会社,大分県,佐伯市,大字上岡１５２７番地の１,,44,205,8760045,,,2022-11-30,清算の結了等,,,2015-10-05,1,,,,,エトウショクヒン,0
250,1380002024751,登記記録の閉鎖等,0,2022-12-02,2022-11-29,有限会社高山組,,有限会社,福島県,いわき市,平字城東二丁目３番地の１９,,07,204,9708026,,,2022-11-29,清算の結了等,,,2015-10-05,1,,,,,タカヤマグミ,0
254,1402701000344,登記記録の閉鎖等,0,2022-12-02,2022-11-30,常陽瓦工業株式会社,,株式会社,岩手県,大船渡市,猪川町字前田１２番地１４,,03,203,0220004,,,2022-11-30,清算の結了等,,,2015-10-05,1,,,,,,0
255,1410001010633,登記記録の閉鎖等,0,2022-12-02,2022-11-25,株式会社三六九会,,株式会社,秋田県,大館市,字馬喰町１番地,,05,204,0170842,,,2022-11-25,清算の結了等,,,2015-10-05,1,,,,,ミロクカイ,0
256,1410003000319,登記記録の閉鎖等,0,2022-12-02,2022-11-28,合同会社すどう,,合同会社,秋田県,秋田市,土崎港中央６丁目４番８号,,05,201,0110946,,,2022-11-28,清算の結了等,,,2015-10-05,1,,,,,スドウ,0
259,1430002000854,登記記録の閉鎖等,0,2022-12-02,2022-11-28,有限会社あずま,,有限会社,北海道,札幌市手稲区,前田四条１０丁目３番２７号,,01,109,0060814,,,2022-11-28,清算の結了等,,,2015-10-05,1,,,,,アズマ,0
273,2010001128408,登記記録の閉鎖等,0,2022-12-02,2022-11-28,株式会社ＮＳＴソフト開発,,株式会社,東京都,文京区,小石川４丁目２０番３号,,13,105,1120002,,,2022-11-28,清算の結了等,,,2015-10-05,1,,,,,エヌエスティーソフトカイハツ,0
283,2010401125327,登記記録の閉鎖等,0,2022-12-02,2022-11-28,株式会社いないだホールディングス,,株式会社,東京都,港区,六本木６丁目１２番２号,,13,103,1060032,,,2022-11-28,清算の結了等,,,2016-06-14,1,,,,,,0
288,2010402032646,登記記録の閉鎖等,0,2022-12-02,2022-11-30,有限会社ル・フレール,,有限会社,神奈川県,横浜市中区,南仲通３丁目２６カーニープレイス横浜関内３Ｆ,,14,104,2310006,,,2022-11-30,清算の結了等,,,2015-10-05,1,,,,,ルフレール,0
295,2010601053617,登記記録の閉鎖等,0,2022-12-02,2022-11-28,桜木株式会社,,株式会社,東京都,江東区,亀戸６丁目３２番１４号,,13,108,1360071,,,2022-11-28,清算の結了等,,,2018-07-12,1,,,,,サクラギ,0
320,2011005007465,登記記録の閉鎖等,0,2022-12-02,2022-11-22,特定非営利活動法人フォーミュラ,,その他の設立登記法人,東京都,目黒区,目黒４丁目１４番１６－４０８号,,13,110,1530063,,,2022-11-22,清算の結了等,,,2017-12-20,1,,,,,フォーミュラ,0
324,2011201007046,登記記録の閉鎖等,0,2022-12-02,2022-11-30,株式会社ユーワエージェンシー,,株式会社,東京都,中野区,弥生町４丁目２６番２２号,,13,114,1640013,,,2022-11-30,清算の結了等,,,2015-10-05,1,,,,,ユーワエージェンシー,0
363,2021002023200,登記記録の閉鎖等,0,2022-12-02,2022-11-30,有限会社根本商会,,有限会社,神奈川県,相模原市中央区,宮下本町３丁目２８番１４号,,14,152,2520211,,,2022-11-30,清算の結了等,,,2015-10-05,1,,,,,ネモトショウカイ,0
371,2030001026808,登記記録の閉鎖等,0,2022-12-02,2022-11-28,株式会社エスケイ電機,,株式会社,埼玉県,入間市,狭山台４丁目１番地４,,11,225,3580033,,,2022-11-28,合併による解散等,3140001057485,令和４年１１月２１日兵庫県姫路市北原１１３３番地の１アイベステクノ株式会社（3140001057485）に合併し解散,2015-10-05,1,,,,,エスケイデンキ,0
382,2040001014761,登記記録の閉鎖等,0,2022-12-02,2022-11-16,株式会社ボイス,,株式会社,千葉県,船橋市,前原西３丁目２０番７号,,12,204,2740825,,,2022-11-16,清算の結了等,,,2015-10-05,1,,,,,ボイス,0
411,2120001088137,登記記録の閉鎖等,0,2022-12-02,2022-11-30,株式会社ファセット,,株式会社,大阪府,大阪市中央区,平野町３丁目３番８号辻梅ビル３階,00028668,27,128,5410046,,,2022-11-30,清算の結了等,,,2015-10-05,1,,,,,ファセット,0
417,2120001167254,登記記録の閉鎖等,0,2022-12-02,2022-11-29,株式会社藤一,,株式会社,大阪府,大阪市住吉区,長居東３丁目２０番１－７０６号,,27,120,5580004,,,2022-11-29,清算の結了等,,,2015-10-05,1,,,,,フジイチ,0
457,2150001009899,登記記録の閉鎖等,0,2022-12-02,2022-11-28,三誠産業株式会社,,株式会社,奈良県,宇陀市,榛原ひのき坂３丁目１番地の２１,,29,212,6330251,,,2022-11-28,清算の結了等,,,2015-10-05,1,,,,,サンセイサンギョウ,0
468,2180001145304,登記記録の閉鎖等,0,2022-12-02,2022-11-28,株式会社イシカワトレディング,,株式会社,愛知県,海部郡蟹江町,大字蟹江新田字大海用１４７番地,,23,425,4970044,,,2022-11-28,清算の結了等,,,2021-03-30,1,,,,,イシカワトレディング,0
481,2200002023183,登記記録の閉鎖等,0,2022-12-02,2022-11-30,有限会社魚繁商店,00077063,有限会社,岐阜県,中津川市,栄町７番１９号,,21,206,5080032,,,2022-11-30,清算の結了等,,,2015-10-05,1,,,,,ウオシゲショウテン,0
492,2240001044747,登記記録の閉鎖等,0,2022-12-02,2022-12-01,株式会社エスキスプラスチック,,株式会社,広島県,広島市西区,三篠町２丁目６番４号,,34,104,7330003,,,2022-12-01,清算の結了等,,,2015-10-05,1,,,,,エスキスプラスチック,0
541,2370001007022,登記記録の閉鎖等,0,2022-12-02,2022-11-30,株式会社イオンコマース,,株式会社,宮城県,仙台市青葉区,大町２丁目６番１４号,,04,101,9800804,,,2022-11-30,合併による解散等,2370001021163,令和４年１０月１日仙台市青葉区大町二丁目６番１４号株式会社イオン建築設計事務所（2370001021163）に合併し解散,2015-10-05,1,,,,,イオンコマース,0
550,2380001004761,登記記録の閉鎖等,0,2022-12-02,2022-11-30,大堀建設工業株式会社,,株式会社,福島県,郡山市,富久山町久保田字中台１１０番地,,07,203,9638071,,,2022-11-30,清算の結了等,,,2015-10-05,1,,,,,オオホリケンセツコウギョウ,0
552,2390001015097,登記記録の閉鎖等,0,2022-12-02,2022-11-28,株式会社グルービアン,,株式会社,山形県,米沢市,アルカディア１丁目８０８番地の１７,,06,202,9920119,,,2022-11-28,清算の結了等,,,2017-11-07,1,,,,,グルービアン,0
569,2450002010875,登記記録の閉鎖等,0,2022-12-02,2022-12-01,有限会社カトウ工芸,,有限会社,北海道,稚内市,声問１丁目３番１２号,,01,214,0986642,,,2022-12-01,清算の結了等,,,2015-10-05,1,,,,,カトウコウゲイ,0
573,2500002017279,登記記録の閉鎖等,0,2022-12-02,2022-11-28,山下食品有限会社,,有限会社,愛媛県,新居浜市,坂井町３丁目５番４４号,,38,205,7920812,,,2022-11-28,清算の結了等,,,2015-10-05,1,,,,,ヤマシタショクヒン,0
597,3010602020771,登記記録の閉鎖等,0,2022-12-02,2022-11-28,有限会社田村草襖舎,00051739,有限会社,東京都,墨田区,千歳３丁目１１番２号,,13,107,1300025,,,2022-11-28,清算の結了等,,,2015-10-05,1,,,,,タムラソウオウシャ,0
629,3011801008401,登記記録の閉鎖等,0,2022-12-02,2022-11-29,ジャパンエキゾティックレザー株式会社,,株式会社,東京都,足立区,千住仲町２３番１号,,13,121,1200036,,,2022-11-29,清算の結了等,,,2015-10-05,1,,,,,ジャパンエキゾティックレザー,0
646,3020002002873,登記記録の閉鎖等,0,2022-12-02,2022-11-29,有限会社志宇知左官店,,有限会社,神奈川県,横浜市戸塚区,汲沢町９９６番２,00010141,14,110,2450062,,,2022-11-29,清算の結了等,,,2015-10-05,1,,,,,シウチサカンテン,0
647,3020002089548,登記記録の閉鎖等,0,2022-12-02,2022-11-30,有限会社田澤合金,,有限会社,神奈川県,川崎市高津区,下野毛３丁目７番３１号,,14,134,2130006,,,2022-11-30,清算の結了等,,,2015-10-05,1,,,,,タザワゴウキン,0
673,3030003013464,登記記録の閉鎖等,0,2022-12-02,2022-11-28,合同会社ＥＮＦ　Ｐｌａｎｎｉｎｇ,,合同会社,埼玉県,狭山市,富士見１丁目６番１４号ＫＩビルＢ１,,11,215,3501306,,,2022-11-28,清算の結了等,,,2019-04-24,1,,,,,イーエヌエフプランニング,0
697,3080002006092,登記記録の閉鎖等,0,2022-12-02,2022-12-01,有限会社山田インテリア装備,,有限会社,静岡県,静岡市駿河区,中吉田２番５号,,22,102,4228001,,,2022-12-01,清算の結了等,,,2015-10-05,1,,,,,ヤマダインテリアソウビ,0
709,3110003004579,登記記録の閉鎖等,0,2022-12-02,2022-11-29,合同会社Ｇｎｕ,,合同会社,新潟県,新潟市江南区,曽野木２丁目１７番５号,,15,104,9501135,,,2022-11-29,清算の結了等,,,2021-09-22,1,,,,,ヌー,0
739,3130002014288,登記記録の閉鎖等,0,2022-12-02,2022-12-01,株式会社平安,,株式会社,滋賀県,大津市,和邇中１３７番地,,25,201,5200526,,,2022-12-01,清算の結了等,,,2015-10-05,1,,,,,ヘイアン,0
740,3140001015294,登記記録の閉鎖等,0,2022-12-02,2022-11-30,株式会社バウ工房,,株式会社,兵庫県,神戸市北区,藤原台中町７丁目５番１９号,,28,109,6511302,,,2022-11-30,清算の結了等,,,2015-10-05,1,,,,,バウコウボウ,0
746,3140005011892,登記記録の閉鎖等,0,2022-12-02,2022-11-30,パールヒル尼崎管理組合法人,,その他の設立登記法人,兵庫県,尼崎市,昭和南通９丁目２５０番地,,28,202,6600882,,,2022-11-30,清算の結了等,,,2015-10-05,1,,,,,パールヒルアマガサキ,0
749,3160002009244,登記記録の閉鎖等,0,2022-12-02,2022-11-30,有限会社井上テクノサポート,,有限会社,滋賀県,彦根市,西今町８８０番地３,,25,202,5220054,,,2022-11-30,清算の結了等,,,2015-10-05,1,,,,,イノウエテクノサポート,0
761,3180302018645,登記記録の閉鎖等,0,2022-12-02,2022-11-29,有限会社トーカイルーフ,,有限会社,愛知県,刈谷市,板倉町２丁目２番地２７,,23,210,4480801,,,2022-11-29,清算の結了等,,,2015-10-05,1,,,,,トーカイルーフ,0
770,3190002016634,登記記録の閉鎖等,0,2022-12-02,2022-12-01,有限会社佐野製作所,,有限会社,三重県,桑名市,西正和台３丁目８番地の３２,,24,205,5110933,,,2022-12-01,清算の結了等,,,2015-10-05,1,,,,,サノセイサクショ,0
779,3220002005591,登記記録の閉鎖等,0,2022-12-02,2022-11-30,有限会社丸乃商事,,有限会社,石川県,金沢市,野町１丁目３番２９号,,17,201,9218031,,,2022-11-30,清算の結了等,,,2015-10-05,1,,,,,マルノショウジ,0
800,3290002042827,登記記録の閉鎖等,0,2022-12-02,2022-11-30,有限会社吉塚商事,00093419,有限会社,福岡県,太宰府市,五条２丁目２番３５号,,40,221,8180125,,,2022-11-30,清算の結了等,,,2015-10-05,1,,,,,ヨシヅカショウジ,0
809,3330005007401,登記記録の閉鎖等,0,2022-12-02,2022-11-10,特定非営利活動法人天の蔵,,その他の設立登記法人,熊本県,天草市,本渡町広瀬１８１８番地１,,43,215,8630001,,,2022-11-10,清算の結了等,,,2015-10-05,1,,,,,テンノクラ,0
824,3410002002140,登記記録の閉鎖等,0,2022-12-02,2022-11-29,有限会社スズキ機工,,有限会社,秋田県,秋田市,桜４丁目１９番８号,,05,201,0100042,,,2022-11-29,清算の結了等,,,2015-10-05,1,,,,,スズキキコウ,0
832,3470002008347,登記記録の閉鎖等,0,2022-12-02,2022-11-30,有限会社クリエイティブケイアンドティ,,有限会社,香川県,高松市,屋島西町６７８番地８０,,37,201,7610113,,,2022-11-30,清算の結了等,,,2015-10-05,1,,,,,クリエイティブケイアンドティ,0
834,3480002011259,登記記録の閉鎖等,0,2022-12-02,2022-12-01,有限会社中谷商店,,有限会社,徳島県,板野郡北島町,高房字居内３８番地５,,36,402,7710206,,,2022-12-01,清算の結了等,,,2015-10-05,1,,,,,ナカタニショウテン,0
836,3490001003818,登記記録の閉鎖等,0,2022-12-02,2022-11-30,株式会社ＳＨカンパニー,,株式会社,高知県,高知市,唐人町９番１１号,,39,201,7800864,,,2022-11-30,清算の結了等,,,2015-10-05,1,,,,,エスエイチカンパニー,0
863,4010402001616,登記記録の閉鎖等,0,2022-12-02,2022-11-28,有限会社ヴィゼ,,有限会社,東京都,港区,南青山３丁目１８番９号,,13,103,1070062,,,2022-11-28,清算の結了等,,,2015-10-05,1,,,,,ヴィゼ,0
890,4011101057503,登記記録の閉鎖等,0,2022-12-02,2022-11-29,株式会社ＳＥＯオンライン,,株式会社,神奈川県,横浜市青葉区,市ケ尾町１１７１－１９,,14,117,2250024,,,2022-11-29,清算の結了等,,,2015-10-05,1,,,,,エスイーオーオンライン,0
894,4011101100295,登記記録の閉鎖等,0,2022-12-02,2022-11-28,Ｔｏｍａｔｏ　Ｉｎｔｅｒａｃｔｉｖｅ株式会社,,株式会社,東京都,新宿区,西新宿１丁目２６番２号新宿野村ビル３２階,,13,104,1600023,,,2022-11-28,清算の結了等,,,2022-09-27,1,,,,,トマトインタラクティブ,0
901,4011202007514,登記記録の閉鎖等,0,2022-12-02,2022-11-30,有限会社マリックスコーポレーション,,有限会社,東京都,中野区,東中野３丁目６番１８号,,13,114,1640003,,,2022-11-30,清算の結了等,,,2015-10-05,1,,,,,マリックスコーポレーション,0
931,4021002003316,登記記録の閉鎖等,0,2022-12-02,2022-11-30,有限会社筑博,,有限会社,神奈川県,藤沢市,白旗４丁目７番２１号,,14,205,2510051,,,2022-11-30,清算の結了等,,,2015-10-05,1,,,,,チクハク,0
950,4040002049879,登記記録の閉鎖等,0,2022-12-02,2022-11-25,有限会社タカハシテクノ,,有限会社,千葉県,松戸市,河原塚３３６番地の３,,12,207,2702254,,,2022-11-25,清算の結了等,,,2015-10-05,1,,,,,タカハシテクノ,0
958,4050002030375,登記記録の閉鎖等,0,2022-12-02,2022-11-29,神峯交通有限会社,,有限会社,茨城県,日立市,小木津町４丁目２８番１号,,08,202,3191413,,,2022-11-29,清算の結了等,,,2015-10-05,1,,,,,カミネコウツウ,0
966,4070001003801,登記記録の閉鎖等,0,2022-12-02,2022-11-30,株式会社セントラル不動産,,株式会社,群馬県,前橋市,朝倉町３丁目２８番地の２１,,10,201,3710811,,,2022-11-30,清算の結了等,,,2015-10-05,1,,,,,セントラルフドウサン,0
972,4080005000967,登記記録の閉鎖等,0,2022-12-02,2022-11-24,静岡県自動車車体整備協同組合,,その他の設立登記法人,静岡県,静岡市駿河区,中吉田１０番３６号,,22,102,4228001,,,2022-11-24,清算の結了等,,,2015-10-05,1,,,,,シズオカケンジドウシャシャタイセイビ,0
979,4090001016297,登記記録の閉鎖等,0,2022-12-02,2022-11-30,株式会社キャリアステップ,,株式会社,東京都,江戸川区,本一色１丁目７番１５号シバビル２階,,13,123,1330044,,,2022-11-30,清算の結了等,,,2019-11-28,1,,,,,キャリアステップ,0
994,4120002006426,登記記録の閉鎖等,0,2022-12-02,2022-11-30,有限会社アクセルカラー,,有限会社,大阪府,大阪市東成区,玉津３丁目１２番３２号,,27,115,5370023,,,2022-11-30,清算の結了等,,,2015-10-05,1,,,,,アクセルカラー,0
996,4120005013411,登記記録の閉鎖等,0,2022-12-02,2022-11-30,特定非営利活動法人Ｃｈａｌｌｅｎｇｅ　ｆｏｒ　Ｄｒｅａｍ武道空手正空会,,その他の設立登記法人,大阪府,寝屋川市,若葉町３０番１５号,,27,215,5720031,,,2022-11-30,清算の結了等,,,2015-10-05,1,,,,,チャレンジフォードリームブドウカラテセイクウカイ,0
1002,4120101031440,登記記録の閉鎖等,0,2022-12-02,2022-11-30,株式会社三井システムエンジニア,,株式会社,大阪府,南河内郡河南町,大宝１丁目２２番７号,,27,382,5850005,,,2022-11-30,清算の結了等,,,2015-10-05,1,,,,,ミツイシステムエンジニア,0
1008,4120901032282,登記記録の閉鎖等,0,2022-12-02,2022-11-30,株式会社Ｃ’ｓ,,株式会社,大阪府,吹田市,長野西１６番４２号,,27,205,5650817,,,2022-11-30,清算の結了等,,,2015-10-05,1,,,,,シーズ,0
1032,4140005017550,登記記録の閉鎖等,0,2022-12-02,2022-12-01,洗心教北条分教会,,その他の設立登記法人,兵庫県,加西市,北条町東南１６番地,,28,220,6752324,,,2022-12-01,清算の結了等,,,2015-10-05,1,,,,,,0
1051,4180302012374,登記記録の閉鎖等,0,2022-12-02,2022-11-29,有限会社多米伊藤販売店,,有限会社,愛知県,豊橋市,多米中町１丁目１８番地の１,,23,201,4400027,,,2022-11-29,清算の結了等,,,2015-10-05,1,,,,,タメイトウハンバイテン,0
1056,4190002002575,登記記録の閉鎖等,0,2022-12-02,2022-11-30,有限会社エリアメイト,,有限会社,三重県,津市,夢が丘１丁目５０番地４,,24,201,5140116,,,2022-11-30,清算の結了等,,,2015-10-05,1,,,,,エリアメイト,0
1084,4270002001726,登記記録の閉鎖等,0,2022-12-02,2022-11-30,日本設備管理有限会社,,有限会社,鳥取県,鳥取市,千代水３丁目７５番地,,31,201,6800911,,,2022-11-30,合併による解散等,3270001000572,令和４年１１月３０日鳥取市千代水三丁目７５番地日本上下水道工業株式会社（3270001000572）に合併し解散,2015-10-05,1,,,,,ニホンセツビカンリ,0
1085,4280001000158,登記記録の閉鎖等,0,2022-12-02,2022-12-01,川谷薬品株式会社,,株式会社,島根県,松江市,竪町６９番地,,32,201,6900052,,,2022-12-01,清算の結了等,,,2015-10-05,1,,,,,カワタニヤクヒン,0
1090,4290001062429,登記記録の閉鎖等,0,2022-12-02,2022-11-30,株式会社ＥＸＡ．Ｓ,,株式会社,福岡県,福岡市南区,清水４丁目１０番１１号１Ｆ,,40,134,8150031,,,2022-11-30,清算の結了等,,,2015-10-05,1,,,,,,0
1099,4310001016935,登記記録の閉鎖等,0,2022-12-02,2022-11-21,株式会社紅蘭工業,,株式会社,長崎県,長崎市,鳴滝１丁目１番２号,,42,201,8500011,,,2022-11-21,清算の結了等,,,2020-11-02,1,,,,,コウランコウギョウ,0
1110,4350002013779,登記記録の閉鎖等,0,2022-12-02,2022-11-30,有限会社岩下電装,,有限会社,宮崎県,都城市,鷹尾３丁目１０街区２７号,,45,202,8850081,,,2022-11-30,清算の結了等,,,2015-10-05,1,,,,,イワシタデンソウ,0
1123,4400002008889,登記記録の閉鎖等,0,2022-12-02,2022-11-30,有限会社オフィスジェイ,,有限会社,岩手県,花巻市,吹張町６番４号,,03,205,0250078,,,2022-11-30,清算の結了等,,,2015-10-05,1,,,,,,0
1129,4470002006886,登記記録の閉鎖等,0,2022-12-02,2022-11-30,有限会社村瀬酒店,,有限会社,香川県,高松市,天神前６番３４号,,37,201,7600018,,,2022-11-30,清算の結了等,,,2015-10-05,1,,,,,ムラセサケテン,0
1134,4500002015561,登記記録の閉鎖等,0,2022-12-02,2022-11-29,有限会社黒河工業,,有限会社,愛媛県,西条市,下島山甲２２０番地の３３,,38,206,7930006,,,2022-11-29,清算の結了等,,,2015-10-05,1,,,,,クロカワコウギョウ,0
1152,5010001221242,登記記録の閉鎖等,0,2022-12-02,2022-11-30,株式会社ＴＲＩ　Ｅｘｐｒｅｓｓ,,株式会社,東京都,江戸川区,西小岩１丁目３番１４号,,13,123,1330057,,,2022-11-30,清算の結了等,,,2021-09-17,1,,,,,トライエクスプレス,0
1157,5010101002880,登記記録の閉鎖等,0,2022-12-02,2022-11-30,日本環境株式会社,,株式会社,東京都,八王子市,元八王子町２丁目１２９０番地,,13,201,1930826,,,2022-11-30,清算の結了等,,,2015-10-05,1,,,,,,0
1161,5010403019524,登記記録の閉鎖等,0,2022-12-02,2022-11-28,合同会社Ｒ７,,合同会社,東京都,港区,元赤坂１丁目１番７号,,13,103,1070051,,,2022-11-28,清算の結了等,,,2018-10-18,1,,,,,アールセブン,0
1202,5011803001939,登記記録の閉鎖等,0,2022-12-02,2022-11-28,合同会社セールスプロモーション,,合同会社,千葉県,松戸市,五香西５丁目２－１０,,12,207,2702218,,,2022-11-28,清算の結了等,,,2015-10-05,1,,,,,セールスプロモーション,0
1216,5020002025765,登記記録の閉鎖等,0,2022-12-02,2022-11-30,有限会社大原商事八百惣,,有限会社,神奈川県,横浜市神奈川区,大口仲町２３番地の１,,14,102,2210003,,,2022-11-30,清算の結了等,,,2015-10-05,1,,,,,オオハラショウジヤオソウ,0
1222,5030001018620,登記記録の閉鎖等,0,2022-12-02,2022-11-24,株式会社静和堂メディアプレス,,株式会社,埼玉県,さいたま市岩槻区,府内１丁目７番１３号,,11,110,3390042,,,2022-11-24,清算の結了等,,,2015-10-05,1,,,,,セイワドウメディアプレス,0
1229,5030002025938,登記記録の閉鎖等,0,2022-12-02,2022-11-28,有限会社埼玉藤田商事,,有限会社,埼玉県,蕨市,北町１丁目１２番１号,,11,223,3350001,,,2022-11-28,清算の結了等,,,2015-10-05,1,,,,,サイタマフジタショウジ,0
1234,5030003019699,登記記録の閉鎖等,0,2022-12-02,2022-11-28,Ｈｉｒｏコンサルティング合同会社,,合同会社,埼玉県,川越市,大字寺山５５０番地,,11,201,3500827,,,2022-11-28,清算の結了等,,,2022-06-30,1,,,,,ヒロコンサルティング,0
1237,5040001050655,登記記録の閉鎖等,0,2022-12-02,2022-11-28,住建株式会社,,株式会社,千葉県,木更津市,文京４丁目５番２４号,,12,206,2920804,,,2022-11-28,清算の結了等,,,2015-10-05,1,,,,,ジュウケン,0
1245,5050002002828,登記記録の閉鎖等,0,2022-12-02,2022-12-01,有限会社双葉印刷,,有限会社,茨城県,水戸市,見川町字釜場２５００番地の７,,08,201,3100913,,,2022-12-01,清算の結了等,,,2015-10-05,1,,,,,フタバインサツ,0
1248,5050003006761,登記記録の閉鎖等,0,2022-12-02,2022-11-30,合同会社城南実業,,合同会社,茨城県,水戸市,城南２丁目４番１３号キャスティーロ１０２号,,08,201,3100803,,,2022-11-30,清算の結了等,,,2022-08-12,1,,,,,,0
1255,5070005007748,登記記録の閉鎖等,0,2022-12-02,2022-11-28,中之条町土地開発公社,,その他の設立登記法人,群馬県,吾妻郡中之条町,大字中之条町１０９１番地,,10,421,3770424,,,2022-11-28,清算の結了等,,,2015-10-05,1,,,,,,0
1268,5110001008927,登記記録の閉鎖等,0,2022-12-02,2022-11-30,株式会社悠総合計画,,株式会社,新潟県,新潟市中央区,弁天橋通２丁目２８番７号,,15,103,9500925,,,2022-11-30,清算の結了等,,,2015-10-05,1,,,,,ユウソウゴウケイカク,0
1269,5120001092532,登記記録の閉鎖等,0,2022-12-02,2022-12-01,株式会社ワイエフ,,株式会社,大阪府,大阪市中央区,南本町２丁目６番８号,,27,128,5410054,,,2022-12-01,清算の結了等,,,2015-10-05,1,,,,,ワイエフ,0
1282,5120101043154,登記記録の閉鎖等,0,2022-12-02,2022-11-30,三桂ケミカル株式会社,,株式会社,大阪府,泉大津市,東助松町４丁目５番１号,,27,206,5950006,,,2022-11-30,清算の結了等,,,2015-10-05,1,,,,,サンケイケミカル,0
1303,5160001020290,登記記録の閉鎖等,0,2022-12-02,2022-12-01,株式会社レッドペンギン,,株式会社,滋賀県,草津市,西大路町４番地３２,,25,206,5250037,,,2022-12-01,清算の結了等,,,2017-06-23,1,,,,,レッドペンギン,0
1304,5170001005514,登記記録の閉鎖等,0,2022-12-02,2022-12-01,阪和霊柩自動車株式会社,,株式会社,和歌山県,海南市,且来１１８６番地の１,,30,202,6420015,,,2022-12-01,清算の結了等,,,2015-10-05,1,,,,,ハンワレイキュウジドウシャ,0
1313,5180002078574,登記記録の閉鎖等,0,2022-12-02,2022-11-28,有限会社光与製作所,,有限会社,愛知県,一宮市,木曽川町玉ノ井字新屋敷五ノ切３番地,,23,203,4930004,,,2022-11-28,清算の結了等,,,2015-10-05,1,,,,,コウヨセイサクショ,0
1314,5180003013893,登記記録の閉鎖等,0,2022-12-02,2022-11-29,合同会社アフェクション,,合同会社,愛知県,半田市,青山４丁目１２番地の７,,23,205,4750836,,,2022-11-29,清算の結了等,,,2015-10-05,1,,,,,アフェクション,0
1327,5200005003849,登記記録の閉鎖等,0,2022-12-02,2022-12-01,協同組合岐阜繊維ファッション協会,,その他の設立登記法人,岐阜県,羽島市,上中町長間１０５８番地１,,21,209,5016311,,,2022-12-01,清算の結了等,,,2015-10-05,1,,,,,ギフセンイファッションキョウカイ,0
1341,5250002002048,登記記録の閉鎖等,0,2022-12-02,2022-11-30,有限会社湯田不動産管理,,有限会社,山口県,山口市,大内長野３９２番地１,,35,203,7530211,,,2022-11-30,合併による解散等,8250001013910,令和４年１１月３０日山口県山口市大内長野３９２番地１株式会社クリーンエネルギー山口（8250001013910）に合併し解散,2015-10-05,1,,,,,ユダフドウサンカンリ,0
1356,5310001011613,登記記録の閉鎖等,0,2022-12-02,2022-11-30,白梅コーポレーション株式会社,,株式会社,長崎県,西彼杵郡長与町,丸田郷１１１５番地３６,,42,307,8512124,,,2022-11-30,合併による解散等,5310001014260,令和４年１１月３０日長崎県西彼杵郡長与町丸田郷１１１５番地３６長崎マリンオートメーション株式会社（5310001014260）に合併し解散,2015-10-05,1,,,,,シラウメコーポレーション,0
1363,5330005005964,登記記録の閉鎖等,0,2022-12-02,2022-11-29,医療法人社団中川会,,その他の設立登記法人,熊本県,八代市,横手町１５１２番地の３,,43,202,8660873,,,2022-11-29,清算の結了等,,,2015-10-05,1,,,,,ナカガワカイ,0
1369,5340002003318,登記記録の閉鎖等,0,2022-12-02,2022-12-01,きりハウス有限会社,,有限会社,鹿児島県,鹿児島市,下荒田４丁目８番１６号,,46,201,8900056,,,2022-12-01,合併による解散等,6340002003317,令和４年１２月１日鹿児島市下荒田四丁目８番１６号株式会社桐商（6340002003317）に合併し解散,2015-10-05,1,,,,,キリハウス,0
1373,5370001039269,登記記録の閉鎖等,0,2022-12-02,2022-11-30,新興建設株式会社,,株式会社,宮城県,名取市,大曲字藤木９番地の１,,04,207,9811216,,,2022-11-30,合併による解散等,1370002019125,令和４年１１月３０日宮城県名取市大曲字藤木９番地の１株式会社エコ・プランナー（1370002019125）に合併し解散,2016-03-04,1,,,,,シンコウケンセツ,0
1392,5480003000358,登記記録の閉鎖等,0,2022-12-02,2022-11-30,合資会社ケアリンク,,合資会社,徳島県,鳴門市,撫養町弁財天字派名３５番地,,36,202,7720014,,,2022-11-30,清算の結了等,,,2015-10-05,1,,,,,ケアリンク,0
1393,5500002021427,登記記録の閉鎖等,0,2022-12-02,2022-11-30,有限会社エム・テック,,有限会社,愛媛県,四国中央市,妻鳥町１８９３番地１,,38,213,7990113,,,2022-11-30,清算の結了等,,,2015-10-05,1,,,,,エムテック,0
1401,6010001141472,登記記録の閉鎖等,0,2022-12-02,2022-11-25,株式会社ＥＰＭ,,株式会社,東京都,渋谷区,渋谷２丁目２番１７号,,13,113,1500002,,,2022-11-25,清算の結了等,,,2015-10-05,1,,,,,イーピーエム,0
1417,6010403024580,登記記録の閉鎖等,0,2022-12-02,2022-11-25,合同会社ｋｏｏｏ,,合同会社,東京都,港区,南青山６丁目１５番１３号南青山レジデンス５０１,,13,103,1070062,,,2022-11-25,清算の結了等,,,2021-01-28,1,,,,,クー,0
1420,6010502011100,登記記録の閉鎖等,0,2022-12-02,2022-11-24,有限会社宮島椅子製作所,,有限会社,東京都,台東区,竜泉３丁目１５番３号,,13,106,1100012,,,2022-11-24,清算の結了等,,,2015-10-05,1,,,,,ミヤジマイスセイサクショ,0
1433,6011001050481,登記記録の閉鎖等,0,2022-12-02,2022-11-30,株式会社ｕｎ　ｓｏｕｒｉｒｅ,,株式会社,東京都,渋谷区,神宮前１丁目１０番３４号,,13,113,1500001,,,2022-11-30,清算の結了等,,,2015-10-05,1,,,,,アンスリール,0
1435,6011001099544,登記記録の閉鎖等,0,2022-12-02,2022-11-29,株式会社ＶＥＡＴＲＩＸ,,株式会社,東京都,世田谷区,羽根木１丁目１６番１５号,,13,112,1560042,,,2022-11-29,清算の結了等,,,2015-10-05,1,,,,,ヴィアトリクス,0
1442,6011002014733,登記記録の閉鎖等,0,2022-12-02,2022-11-30,有限会社エー・オー・シー,,有限会社,東京都,渋谷区,恵比寿４丁目２３番６－９０４号,,13,113,1500013,,,2022-11-30,清算の結了等,,,2015-10-05,1,,,,,エーオーシー,0
1443,6011003011127,登記記録の閉鎖等,0,2022-12-02,2022-11-28,合同会社ＡＫＣ,,合同会社,東京都,渋谷区,千駄ヶ谷４丁目２５番２号修養団ＳＹＤビル株式会社フジタ内,,13,113,1510051,,,2022-11-28,清算の結了等,,,2020-05-12,1,,,,,エーケーシー,0
1458,6011802023363,登記記録の閉鎖等,0,2022-12-02,2022-11-30,有限会社ジェイ・ピー・エヌ企画,,有限会社,東京都,葛飾区,四つ木２丁目３番２１号,,13,122,1240011,,,2022-11-30,清算の結了等,,,2015-10-05,1,,,,,ジェイピーエヌキカク,0
1463,6012401023192,登記記録の閉鎖等,0,2022-12-02,2022-11-29,株式会社杉山企画,,株式会社,東京都,三鷹市,井の頭１丁目２２番１１号メゾネット．ラフィーネ１０３,,13,204,1810001,,,2022-11-29,清算の結了等,,,2015-10-05,1,,,,,スギヤマキカク,0
1477,6020001117703,登記記録の閉鎖等,0,2022-12-02,2022-12-01,縁株式会社,,株式会社,神奈川県,川崎市多摩区,登戸２１３１城条ビル１Ｆ,,14,135,2140014,,,2022-12-01,清算の結了等,,,2016-09-05,1,,,,,エン,0
1502,6030002087861,登記記録の閉鎖等,0,2022-12-02,2022-11-28,プランニング・スギヤマ有限会社,,有限会社,埼玉県,越谷市,蒲生寿町２番１０－Ａ６１４号,,11,222,3430836,,,2022-11-28,清算の結了等,,,2015-10-05,1,,,,,プランニングスギヤマ,0
1521,6080402013669,登記記録の閉鎖等,0,2022-12-02,2022-12-01,有限会社悠創建,,有限会社,静岡県,浜松市東区,恒武町６８６番地,,22,132,4313108,,,2022-12-01,清算の結了等,,,2015-10-05,1,,,,,,0
1523,6090005000048,登記記録の閉鎖等,0,2022-12-02,2022-11-30,医療法人帝昌会,,その他の設立登記法人,山梨県,甲府市,朝日１丁目４番１２号,,19,201,4000025,,,2022-11-30,清算の結了等,,,2015-10-05,1,,,,,テイショウカイ,0
1526,6110002020822,登記記録の閉鎖等,0,2022-12-02,2022-11-25,有限会社成海,,有限会社,新潟県,柏崎市,宮場町９番９号,,15,205,9450827,,,2022-11-25,清算の結了等,,,2015-10-05,1,,,,,ナルミ,0
1538,6120001206909,登記記録の閉鎖等,0,2022-12-02,2022-11-30,株式会社Ｃａｄｄｉｅｅ,,株式会社,大阪府,大阪市中央区,瓦屋町２丁目５－２４,,27,128,5420066,,,2022-11-30,清算の結了等,,,2017-07-28,1,,,,,キャディー,0
1583,6180302008767,登記記録の閉鎖等,0,2022-12-02,2022-11-30,有限会社東三らぼセンター,,有限会社,愛知県,豊橋市,瓜郷町前川５０番地の１,,23,201,4400092,,,2022-11-30,清算の結了等,,,2015-10-05,1,,,,,トウサンラボセンター,0
1645,6410001008086,登記記録の閉鎖等,0,2022-12-02,2022-11-29,株式会社八嶋木材店,,株式会社,秋田県,大仙市,大花町１５番４７号,,05,212,0140022,,,2022-11-29,清算の結了等,,,2015-10-05,1,,,,,ヤシマモクザイテン,0
1661,6450002011390,登記記録の閉鎖等,0,2022-12-02,2022-11-30,有限会社トナカイファーム,,有限会社,北海道,天塩郡幌延町,東町２２番地,,01,520,0983222,,,2022-11-30,清算の結了等,,,2015-10-05,1,,,,,トナカイファーム,0
1665,6490002011420,登記記録の閉鎖等,0,2022-12-02,2022-11-30,有限会社陽和技建,,有限会社,高知県,香美市,土佐山田町町田３１５番地,,39,212,7820013,,,2022-11-30,清算の結了等,,,2015-10-05,1,,,,,ヨウワギケン,0
1682,7010001199196,登記記録の閉鎖等,0,2022-12-02,2022-11-29,株式会社フィットライフ,,株式会社,東京都,中央区,築地７丁目１１－１３－１００１,,13,102,1040045,,,2022-11-29,清算の結了等,,,2019-03-11,1,,,,,フィットライフ,0
1709,7010801032655,登記記録の閉鎖等,0,2022-12-02,2022-11-29,株式会社ハイフィールド,,株式会社,東京都,大田区,蒲田４丁目４４番１２号ＬＯＴＵＳ・ＫＡＭＡＴＡ４０１号,,13,111,1440052,,,2022-11-29,清算の結了等,,,2022-01-12,1,,,,,ハイフィールド,0
1723,7011103010705,登記記録の閉鎖等,0,2022-12-02,2022-11-30,ＮＢ１合同会社,,合同会社,東京都,新宿区,四谷２丁目９番地１５東京ユナイテッド綜合事務所内,,13,104,1600004,,,2022-11-30,清算の結了等,,,2021-05-26,1,,,,,エヌビーワン,0
1736,7011602004257,登記記録の閉鎖等,0,2022-12-02,2022-11-28,有限会社栄美術,,有限会社,埼玉県,新座市,池田３丁目４番１０号,,11,230,3520015,,,2022-11-28,清算の結了等,,,2015-10-05,1,,,,,サカイビジュツ,0
1755,7013301041572,登記記録の閉鎖等,0,2022-12-02,2022-11-29,ＳＵＮＮＹ　ＷＡＹＳ株式会社,,株式会社,東京都,豊島区,高田３丁目５番３号（３０５号室）,,13,116,1710033,,,2022-11-29,清算の結了等,,,2017-12-25,1,,,,,サニーウェイズ,0
1756,7020001051133,登記記録の閉鎖等,0,2022-12-02,2022-11-30,三輪株式会社,,株式会社,神奈川県,横浜市神奈川区,鶴屋町３丁目３３番地８,,14,102,2210835,,,2022-11-30,清算の結了等,,,2015-10-05,1,,,,,ミワ,0
1757,7020001113123,登記記録の閉鎖等,0,2022-12-02,2022-11-30,株式会社フィナンシャルサポート,,株式会社,神奈川県,横浜市中区,山下町１１２番地３,,14,104,2310023,,,2022-11-30,清算の結了等,,,2015-10-15,1,,,,,フィナンシャルサポート,0
1798,7070005001740,登記記録の閉鎖等,0,2022-12-02,2022-11-30,特定非営利活動法人青少年の自立を支える群馬の会,,その他の設立登記法人,群馬県,前橋市,上泉町１０３４番地,,10,201,3710007,,,2022-11-30,清算の結了等,,,2015-10-05,1,,,,,セイショウネンノジリツヲササエルグンマノカイ,0
1806,7080401001203,登記記録の閉鎖等,0,2022-12-02,2022-11-29,サーラＥ＆Ｌサポート株式会社,,株式会社,愛知県,豊橋市,白河町１００番地,,23,201,4418021,,,2022-11-29,清算の結了等,,,2015-10-05,1,,,,,サーライーアンドエルサポート,0
1814,7120001028575,登記記録の閉鎖等,0,2022-12-02,2022-11-30,株式会社ウラグチ商会,,株式会社,大阪府,大阪市港区,弁天２丁目４番７号,,27,107,5520007,,,2022-11-30,清算の結了等,,,2015-10-05,1,,,,,ウラグチショウカイ,0
1816,7120001145949,登記記録の閉鎖等,0,2022-12-02,2022-11-30,株式会社三來サービス,,株式会社,大阪府,大阪市生野区,勝山北４丁目１番５号,,27,116,5440033,,,2022-11-30,清算の結了等,,,2015-10-05,1,,,,,サンライサービス,0
1828,7120002078124,登記記録の閉鎖等,0,2022-12-02,2022-11-30,有限会社大倉興業,,有限会社,大阪府,守口市,藤田町３丁目２２番２号,,27,209,5700014,,,2022-11-30,清算の結了等,,,2015-10-05,1,,,,,オオクラコウギョウ,0
1832,7120102021909,登記記録の閉鎖等,0,2022-12-02,2022-11-30,有限会社桐華堂,,有限会社,大阪府,貝塚市,海塚８３番地,,27,208,5970083,,,2022-11-30,清算の結了等,,,2015-10-05,1,,,,,トウカドウ,0
1837,7120903002776,登記記録の閉鎖等,0,2022-12-02,2022-11-29,合同会社関西サービスＴａｒａ,,合同会社,大阪府,豊中市,西緑丘３丁目１１番３２号,,27,203,5600005,,,2022-11-29,清算の結了等,,,2019-03-18,1,,,,,カンサイサービスタラ,0
1885,7180303003007,登記記録の閉鎖等,0,2022-12-02,2022-11-30,合同会社一福亭,,合同会社,愛知県,岡崎市,大樹寺２丁目３番地１３,,23,202,4442134,,,2022-11-30,清算の結了等,,,2015-10-05,1,,,,,イップクテイ,0
1889,7190003002101,登記記録の閉鎖等,0,2022-12-02,2022-11-30,合同会社加藤,,合同会社,三重県,伊勢市,大湊町２６４番地１００,,24,203,5160001,,,2022-11-30,清算の結了等,,,2015-10-05,1,,,,,カトウ,0
1892,7210002003122,登記記録の閉鎖等,0,2022-12-02,2022-12-01,藤本土木工業有限会社,,有限会社,福井県,福井市,生部町第１５号８番地,,18,201,9190314,,,2022-12-01,清算の結了等,,,2015-10-05,1,,,,,フジモトドボクコウギョウ,0
1897,7250002005643,登記記録の閉鎖等,0,2022-12-02,2022-11-30,有限会社プランタン,,有限会社,山口県,宇部市,明神町３丁目１番１号,,35,202,7550008,,,2022-11-30,清算の結了等,,,2015-10-05,1,,,,,プランタン,0
1935,7420001000660,登記記録の閉鎖等,0,2022-12-02,2022-11-30,片谷木材株式会社,,株式会社,青森県,青森市,合浦１丁目１４番１７号,,02,201,0300902,,,2022-11-30,清算の結了等,,,2015-10-05,1,,,,,カタヤモクザイ,0
1951,8010001057576,登記記録の閉鎖等,0,2022-12-02,2022-11-28,前田商事株式会社,,株式会社,東京都,中央区,晴海２丁目５番１６－３１３号,,13,102,1040053,,,2022-11-28,清算の結了等,,,2015-10-05,1,,,,,マエダショウジ,0
1955,8010001218525,登記記録の閉鎖等,0,2022-12-02,2022-11-25,株式会社ヒューズ・ジャパン,,株式会社,東京都,中央区,勝どき３丁目４番６号ニュー勝どきビル５０５号,,13,102,1040054,,,2022-11-25,清算の結了等,,,2021-06-04,1,,,,,ヒューズジャパン,0
1962,8010401143380,登記記録の閉鎖等,0,2022-12-02,2022-11-24,株式会社東知化成,,株式会社,東京都,港区,赤坂３丁目６番４号,,13,103,1070052,,,2022-11-24,清算の結了等,,,2019-01-25,1,,,,,トウチカセイ,0
1995,8011301001752,登記記録の閉鎖等,0,2022-12-02,2022-11-28,株式会社カルバス,,株式会社,東京都,杉並区,松ノ木３丁目１５番１号,,13,115,1660014,,,2022-11-28,清算の結了等,,,2015-10-05,1,,,,,カルバス,0
2000,8011602004529,登記記録の閉鎖等,0,2022-12-02,2022-11-30,サンフーズ有限会社,,有限会社,東京都,練馬区,豊玉北３丁目３０番５号,,13,120,1760012,,,2022-11-30,清算の結了等,,,2015-10-05,1,,,,,サンフーズ,0
2012,8020001119895,登記記録の閉鎖等,0,2022-12-02,2022-11-30,株式会社シー・プライド,,株式会社,神奈川県,横浜市旭区,二俣川１丁目１６番地１４,,14,112,2410821,,,2022-11-30,清算の結了等,,,2017-02-08,1,,,,,シープライド,0
2036,8030001092687,登記記録の閉鎖等,0,2022-12-02,2022-11-29,株式会社彩要,,株式会社,埼玉県,朝霞市,本町１丁目３３番１号,,11,227,3510011,,,2022-11-29,清算の結了等,,,2015-10-05,1,,,,,サイヨウ,0
2041,8030002079709,登記記録の閉鎖等,0,2022-12-02,2022-11-28,有限会社アキファーマ,,有限会社,埼玉県,川越市,大字久下戸３６１４番地,,11,201,3500011,,,2022-11-28,清算の結了等,,,2015-10-05,1,,,,,アキファーマ,0
2050,8040002079798,登記記録の閉鎖等,0,2022-12-02,2022-11-25,有限会社平山製作所,,有限会社,千葉県,山武市,和田１８８番地の３,,12,237,2891334,,,2022-11-25,清算の結了等,,,2015-10-05,1,,,,,ヒラヤマセイサクショ,0
2070,8080401013379,登記記録の閉鎖等,0,2022-12-02,2022-12-01,株式会社浜松ポスティングセンター,,株式会社,静岡県,浜松市中区,早出町２２３番地の３,,22,131,4350054,,,2022-12-01,清算の結了等,,,2015-10-05,1,,,,,ハママツポスティングセンター,0
2081,8120001154809,登記記録の閉鎖等,0,2022-12-02,2022-11-30,株式会社サテライト梅田,,株式会社,大阪府,大阪市北区,小松原町１番５号,,27,127,5300018,,,2022-11-30,清算の結了等,,,2015-10-05,1,,,,,サテライトウメダ,0
2099,8122001027564,登記記録の閉鎖等,0,2022-12-02,2022-11-30,株式会社シニア物流,,株式会社,大阪府,東大阪市,西堤２丁目３番２３号,,27,227,5770042,,,2022-11-30,清算の結了等,,,2015-10-05,1,,,,,シニアブツリュウ,0
2122,8160001012005,登記記録の閉鎖等,0,2022-12-02,2022-12-01,株式会社中村重機,,株式会社,滋賀県,高島市,安曇川町青柳１７５５番地６,,25,212,5201221,,,2022-12-01,清算の結了等,,,2015-10-05,1,,,,,,0
2135,8180003020227,登記記録の閉鎖等,0,2022-12-02,2022-11-29,合同会社べる,,合同会社,愛知県,半田市,平地町１丁目１２９番地,,23,205,4750081,,,2022-11-29,清算の結了等,,,2019-08-01,1,,,,,ベル,0
2137,8180301002876,登記記録の閉鎖等,0,2022-12-02,2022-11-28,株式会社ユーエヌオー,,株式会社,愛知県,岡崎市,細川町字扇田１４９番地,,23,202,4442149,,,2022-11-28,清算の結了等,,,2015-10-05,1,,,,,ユーエヌオー,0
2158,8260001012564,登記記録の閉鎖等,0,2022-12-02,2022-11-30,植野自動車株式会社,,株式会社,岡山県,倉敷市,児島稗田町２３５１番地の３,00003141,33,202,7110937,,,2022-11-30,清算の結了等,,,2015-10-05,1,,,,,ウエノジドウシャ,0
2185,8290005015593,登記記録の閉鎖等,0,2022-12-02,2022-12-01,一般社団法人はやしだアセットマネジメント,,その他の設立登記法人,福岡県,福岡市博多区,麦野６丁目２４番２号,,40,132,8120882,,,2022-12-01,清算の結了等,,,2015-10-05,1,,,,,ハヤシダアセットマネジメント,0
2197,8360001018700,登記記録の閉鎖等,0,2022-12-02,2022-11-28,タイフーンエンタテインメント株式会社,,株式会社,沖縄県,那覇市,松島１丁目１１番１９－１０２号,,47,201,9020069,,,2022-11-28,清算の結了等,,,2015-10-05,1,,,,,タイフーンエンタテインメント,0
2217,8490002004356,登記記録の閉鎖等,0,2022-12-02,2022-12-01,有限会社平井酒店,,有限会社,高知県,高知市,神田２１４１－２６,,39,201,7808040,,,2022-12-01,清算の結了等,,,2015-10-05,1,,,,,ヒライサケテン,0
2227,9010001033502,登記記録の閉鎖等,0,2022-12-02,2022-11-28,株式会社日本都市計画,,株式会社,東京都,千代田区,神田錦町１丁目８番１１号,,13,101,1010054,,,2022-11-28,清算の結了等,,,2015-10-05,1,,,,,ニホントシケイカク,0
2229,9010001131611,登記記録の閉鎖等,0,2022-12-02,2022-11-30,株式会社ボンズインターナショナル,,株式会社,静岡県,御殿場市,川島田２６８番地の６,,22,215,4120045,,,2022-11-30,清算の結了等,,,2015-10-05,1,,,,,ボンズインターナショナル,0
2230,9010001137204,登記記録の閉鎖等,0,2022-12-02,2022-11-28,株式会社リ創,,株式会社,東京都,江東区,常盤２丁目４番１４号,,13,108,1350006,,,2022-11-28,清算の結了等,,,2015-10-05,1,,,,,リソウ,0
2242,9010401143256,登記記録の閉鎖等,0,2022-12-02,2022-11-25,株式会社ハートイズ,,株式会社,東京都,港区,海岸３丁目２０番２０号,,13,103,1080022,,,2022-11-25,清算の結了等,,,2019-01-21,1,,,,,ハートイズ,0
2247,9010402006189,登記記録の閉鎖等,0,2022-12-02,2022-11-25,有限会社新光商会,,有限会社,東京都,港区,赤坂２丁目９番４号,,13,103,1070052,,,2022-11-25,清算の結了等,,,2015-10-05,1,,,,,シンコウショウカイ,0
2250,9010405009057,登記記録の閉鎖等,0,2022-12-02,2022-11-28,一般財団法人Ｌｉｖｉｎｇ　ｉｎ　Ｐｅａｃｅ,,その他の設立登記法人,東京都,豊島区,駒込４丁目９－３８ブリリア駒込染井４１２,,13,116,1700003,,,2022-11-28,清算の結了等,,,2015-10-05,1,,,,,リビングインピース,0
2257,9010801014593,登記記録の閉鎖等,0,2022-12-02,2022-11-25,スリーフォールド株式会社,,株式会社,東京都,港区,芝浦４丁目５番４号,,13,103,1080023,,,2022-11-25,清算の結了等,,,2015-10-05,1,,,,,スリーフォールド,0
2271,9011105006807,登記記録の閉鎖等,0,2022-12-02,2022-11-30,ＴＬＳＳＨ２一般社団法人,,その他の設立登記法人,東京都,新宿区,四谷２丁目９番地１５あると綜合事務所内,,13,104,1600004,,,2022-11-30,清算の結了等,,,2015-10-05,1,,,,,ティーエルエスエスエイチツー,0
2277,9011302006023,登記記録の閉鎖等,0,2022-12-02,2022-11-28,有限会社辻装身具製作所,00054544,有限会社,東京都,杉並区,今川３丁目１６番２２号,,13,115,1670035,,,2022-11-28,清算の結了等,,,2015-10-05,1,,,,,ツジソウシングセイサクショ,0
2287,9012402002044,登記記録の閉鎖等,0,2022-12-02,2022-12-01,有限会社日営商事,,有限会社,東京都,府中市,武蔵台１丁目１７番地の４９,,13,206,1830042,,,2022-12-01,清算の結了等,,,2015-10-05,1,,,,,ニチエイショウジ,0
2319,9030002112526,登記記録の閉鎖等,0,2022-12-02,2022-11-25,有限会社イーズ・オフィス,,有限会社,埼玉県,川口市,金山町１３番３０号,,11,203,3320014,,,2022-11-25,清算の結了等,,,2015-10-05,1,,,,,イーズオフィス,0
2331,9040002022708,登記記録の閉鎖等,0,2022-12-02,2022-11-25,有限会社柴崎製作所,,有限会社,千葉県,船橋市,二和西２丁目２４番１１号,,12,204,2740806,,,2022-11-25,清算の結了等,,,2015-10-05,1,,,,,シバサキセイサクジョ,0
2354,9090002012175,登記記録の閉鎖等,0,2022-12-02,2022-11-28,有限会社セディエホリウチ,,有限会社,山梨県,南都留郡忍野村,忍草３２８６番地５,,19,424,4010511,,,2022-11-28,清算の結了等,,,2015-10-05,1,,,,,セディエホリウチ,0
2393,9140005021341,登記記録の閉鎖等,0,2022-12-02,2022-12-01,特定非営利活動法人養父市元気プロジェクト,,その他の設立登記法人,兵庫県,養父市,広谷２５３番地１,,28,222,6670101,,,2022-12-01,清算の結了等,,,2015-10-05,1,,,,,ヤブシゲンキプロジェクト,0
2394,9150002000578,登記記録の閉鎖等,0,2022-12-02,2022-11-28,有限会社グリーンフィールド,,有限会社,奈良県,奈良市,奈良阪町２４６５番地,,29,201,6308104,,,2022-11-28,清算の結了等,,,2015-10-05,1,,,,,,0
2415,9200002008624,登記記録の閉鎖等,0,2022-12-02,2022-12-01,あゆみ福祉サービス有限会社,,有限会社,岐阜県,岐阜市,宇佐３丁目１７番７号,,21,201,5008368,,,2022-12-01,清算の結了等,,,2015-10-05,1,,,,,アユミフクシサービス,0
2427,9290001087867,登記記録の閉鎖等,0,2022-12-02,2022-11-24,株式会社森川工房,,株式会社,福岡県,福岡市博多区,堅粕２丁目１３番９－６号,,40,132,8120043,,,2022-11-24,清算の結了等,,,2020-01-24,1,,,,,モリカワコウボウ,0
2431,9290801022734,登記記録の閉鎖等,0,2022-12-02,2022-11-30,株式会社タカマツ,,株式会社,福岡県,北九州市小倉南区,蜷田若園３丁目７番３７号,,40,107,8020814,,,2022-11-30,清算の結了等,,,2016-07-14,1,,,,,タカマツ,0
2444,9360001023550,登記記録の閉鎖等,0,2022-12-02,2022-12-01,株式会社琉球エンタープライズ,,株式会社,大阪府,大阪市福島区,吉野１丁目５番１７号野田庄ビル２Ｆ,,27,103,5530006,,,2022-12-01,清算の結了等,,,2018-02-20,1,,,,,,0
2447,9360002013402,登記記録の閉鎖等,0,2022-12-02,2022-11-28,有限会社青雲測量設計,,有限会社,沖縄県,うるま市,喜仲１丁目３番２２号,,47,213,9042236,,,2022-11-28,清算の結了等,,,2015-10-05,1,,,,,セイウンソクリョウセッケイ,0
2449,9370001019184,登記記録の閉鎖等,0,2022-12-02,2022-12-01,Ｂ－ｆｏｒｅｓｔ株式会社,,株式会社,宮城県,仙台市青葉区,一番町２丁目２番１３号,,04,101,9800811,,,2022-12-01,合併による解散等,6370001017926,令和４年１２月１日仙台市青葉区大町二丁目１０番１４号株式会社ＢＷＭ（6370001017926）に合併し解散,2015-10-05,1,,,,,ビーフォレスト,0
2467,9500001010930,登記記録の閉鎖等,0,2022-12-02,2022-11-29,株式会社のぞみ建物,,株式会社,愛媛県,八幡浜市,保内町宮内２番耕地２２８番地２,,38,204,7960202,,,2022-11-29,清算の結了等,,,2015-10-05,1,,,,,ノゾミタテモノ,0
