sequenceNumber,corporateNumber,process,correct,updateDate,changeDate,name,nameImageId,kind,prefectureName,cityName,streetNumber,addressImageId,prefectureCode,cityCode,postCode,addressOutside,addressOutsideImageId,closeDate,closeCause,successorCorporateNumber,changeCause,assignmentDate,latest,enName,enPrefectureName,enCityName,enAddressOutside,furigana,hihyoji
3,1010001118748,登記記録の閉鎖等,0,2024-08-09,2024-07-29,株式会社Ｊスペース３１,,株式会社,東京都,千代田区,神田神保町３丁目１番地１４Ｊスペース３１ビル,,13,101,1010051,,,2024-07-29,清算の結了等,,,2015-10-05,1,,,,,ジェイスペースサンジュウイチ,0
4,1010001146939,登記記録の閉鎖等,0,2024-08-09,2024-08-02,株式会社グレート,,株式会社,東京都,板橋区,板橋１丁目４５番１号落合ビル３Ｆ,,13,119,1730004,,,2024-08-02,清算の結了等,,,2015-10-05,1,,,,,グレート,0
23,1010401081001,登記記録の閉鎖等,0,2024-08-09,2024-07-19,株式会社マーケティング・マネジメント・アライアンス,,株式会社,東京都,港区,南青山２丁目４番１１号,,13,103,1070062,,,2024-07-19,清算の結了等,,,2015-10-05,1,,,,,,0
31,1010502009330,登記記録の閉鎖等,0,2024-08-09,2024-07-31,有限会社平井硝子器械工業所,,有限会社,東京都,台東区,西浅草３丁目２５番３号,,13,106,1110035,,,2024-07-31,清算の結了等,,,2015-10-05,1,,,,,ヒライガラスキカイコウギョウショ,0
39,1010701041118,登記記録の閉鎖等,0,2024-08-09,2024-08-01,株式会社インティライミ,,株式会社,東京都,大田区,上池台１丁目７番１６号,,13,111,1450064,,,2024-08-01,清算の結了等,,,2021-06-21,1,,,,,インティライミ,0
44,1010901039408,登記記録の閉鎖等,0,2024-08-09,2024-08-05,株式会社ＴＷＯ　ＨＡＮＤＳ,,株式会社,東京都,世田谷区,尾山台１丁目１１番２２号,,13,112,1580086,,,2024-08-05,清算の結了等,,,2017-01-18,1,,,,,トゥーハンズ,0
71,1011502014659,登記記録の閉鎖等,0,2024-08-09,2024-08-06,有限会社寺田サイン研究所,,有限会社,東京都,北区,志茂３丁目１７番３号,,13,117,1150042,,,2024-08-06,清算の結了等,,,2015-10-05,1,,,,,テラダサインケンキュウジョ,0
72,1011601003959,登記記録の閉鎖等,0,2024-08-09,2024-08-05,大三工業株式会社,,株式会社,埼玉県,所沢市,大字南永井１０４０番地,,11,208,3590011,,,2024-08-05,清算の結了等,,,2015-10-05,1,,,,,ダイサンコウギョウ,0
99,1020002088601,登記記録の閉鎖等,0,2024-08-09,2024-08-01,有限会社ハナワ,,有限会社,東京都,大田区,矢口１丁目２１番１０号,,13,111,1460093,,,2024-08-01,合併による解散等,3010801006167,令和６年８月１日東京都大田区大森西一丁目４番１７号株式会社関根製作所（3010801006167）に合併し解散,2015-10-05,1,,,,,ハナワ,0
100,1020002096174,登記記録の閉鎖等,0,2024-08-09,2024-08-01,有限会社大久保商店,,有限会社,神奈川県,川崎市川崎区,昭和２丁目９番４号,,14,131,2100813,,,2024-08-01,合併による解散等,9020002096175,令和６年８月１日川崎市川崎区昭和一丁目５番１９号株式会社大久保商事（9020002096175）に合併し解散,2015-10-05,1,,,,,オオクボショウテン,0
107,1030002040602,登記記録の閉鎖等,0,2024-08-09,2024-08-02,有限会社リュウエイ,,有限会社,埼玉県,白岡市,西９丁目６番１３,,11,246,3490205,,,2024-08-02,清算の結了等,,,2015-10-05,1,,,,,リュウエイ,0
111,1040001009449,登記記録の閉鎖等,0,2024-08-09,2024-07-26,株式会社エイゼット,,株式会社,千葉県,千葉市花見川区,さつきが丘１丁目４４番地２４,,12,102,2620014,,,2024-07-26,清算の結了等,,,2015-10-05,1,,,,,エイゼット,0
146,1100003005175,登記記録の閉鎖等,0,2024-08-09,2024-07-25,合同会社倉石産業,,合同会社,長野県,長野市,大字高田８７３番地,,20,201,3810034,,,2024-07-25,清算の結了等,,,2018-12-04,1,,,,,クライシサンギョウ,0
156,1120001221796,登記記録の閉鎖等,0,2024-08-09,2024-08-01,株式会社乃が美,,株式会社,大阪府,大阪市西区,靱本町１丁目６番１０号,,27,106,5500004,,,2024-08-01,合併による解散等,6010401142418,令和６年８月１日大阪市西区靱本町一丁目６番１０号株式会社乃が美ホールディングス（6010401142418）に合併し解散,2019-06-19,1,,,,,ノガミ,0
162,1120002016295,登記記録の閉鎖等,0,2024-08-09,2024-08-06,門文食品有限会社,,有限会社,大阪府,大阪市住之江区,浜口東３丁目７番９号,,27,125,5590002,,,2024-08-06,清算の結了等,,,2015-10-05,1,,,,,カドブンショクヒン,0
171,1130001042168,登記記録の閉鎖等,0,2024-08-09,2024-08-05,株式会社リーフレ,,株式会社,京都府,京都市伏見区,御駕籠町１２４番地１,,26,109,6128065,,,2024-08-05,清算の結了等,,,2015-10-05,1,,,,,リーフレ,0
192,1180002063299,登記記録の閉鎖等,0,2024-08-09,2024-07-30,有限会社岡業務店,,有限会社,愛知県,長久手市,岩作平地２１番地６,,23,238,4801103,,,2024-07-30,清算の結了等,,,2015-10-05,1,,,,,オカギョウムテン,0
193,1180005019868,登記記録の閉鎖等,0,2024-08-09,2024-07-29,グロースリンク司法書士法人,,その他の設立登記法人,愛知県,名古屋市中村区,平池町４丁目６０番地の１２グローバルゲート１９階,,23,105,4530872,,,2024-07-29,清算の結了等,,,2022-08-10,1,,,,,グロースリンク,0
201,1190001022429,登記記録の閉鎖等,0,2024-08-09,2024-08-07,株式会社ＳＡＫ,,株式会社,三重県,鈴鹿市,若松北１丁目２８番３０号,,24,207,5100223,,,2024-08-07,清算の結了等,,,2015-10-05,1,,,,,エスエイケイ,0
224,1290002025593,登記記録の閉鎖等,0,2024-08-09,2024-07-03,ＳＣＴ有限会社,,有限会社,福岡県,福岡市中央区,桜坂３丁目４番２８号ハイムニュー桜坂２Ｆ,,40,133,8100024,,,2024-07-03,清算の結了等,,,2015-10-05,1,,,,,エスシーティー,0
247,1370105001368,登記記録の閉鎖等,0,2024-08-09,2024-07-18,白石建設業協同組合,,その他の設立登記法人,宮城県,白石市,字長町２２番地,,04,206,9890274,,,2024-07-18,清算の結了等,,,2015-10-05,1,,,,,シロイシケンセツギョウ,0
248,1370602003296,登記記録の閉鎖等,0,2024-08-09,2024-07-22,有限会社マルワ渡會商店,,有限会社,宮城県,塩竈市,新浜町１丁目７番１０号,,04,203,9850001,,,2024-07-22,清算の結了等,,,2015-10-05,1,,,,,マルワワタライショウテン,0
250,1380001025115,登記記録の閉鎖等,0,2024-08-09,2024-08-02,福山保険事務所株式会社,,株式会社,福島県,相馬市,成田字藤堂塚３６１番地の３,,07,209,9792542,,,2024-08-02,清算の結了等,,,2015-10-05,1,,,,,フクヤマホケンジムショ,0
262,1470001011171,登記記録の閉鎖等,0,2024-08-09,2024-08-05,株式会社杉山海産,,株式会社,香川県,さぬき市,津田町津田１３９６番地１,,37,206,7692401,,,2024-08-05,清算の結了等,,,2015-10-05,1,,,,,スギヤマカイサン,0
269,2010001057128,登記記録の閉鎖等,0,2024-08-09,2024-07-29,株式会社ボンヌールジャポン,,株式会社,東京都,中央区,日本橋馬喰町１丁目１３番８号,,13,102,1030002,,,2024-07-29,清算の結了等,,,2015-10-05,1,,,,,ボンヌールジャポン,0
294,2010602011623,登記記録の閉鎖等,0,2024-08-09,2024-08-08,有限会社昭英印刷,,有限会社,東京都,墨田区,東墨田２丁目２５番１号,,13,107,1310042,,,2024-08-08,清算の結了等,,,2015-10-05,1,,,,,ショウエイインサツ,0
299,2010901030134,登記記録の閉鎖等,0,2024-08-09,2023-08-05,株式会社パーマネントバケーション,,株式会社,東京都,世田谷区,粕谷１丁目１７番２５号,,13,112,1570063,,,2023-08-05,清算の結了等,,,2015-10-05,1,,,,,パーマネントバケーション,0
313,2011101085670,登記記録の閉鎖等,0,2024-08-09,2024-07-29,ＩｎｆｅｒＶｉｓｉｏｎ株式会社,,株式会社,東京都,千代田区,九段南３丁目４－５番町ビル６０１号,,13,101,1020074,,,2024-07-29,清算の結了等,,,2018-10-19,1,,,,,インファービジョン,0
344,2020001017659,登記記録の閉鎖等,0,2024-08-09,2024-08-05,株式会社昌平,,株式会社,神奈川県,厚木市,上依知字上ノ原３０１２番地３,,14,212,2430801,,,2024-08-05,清算の結了等,,,2015-10-05,1,,,,,,0
348,2020001148421,登記記録の閉鎖等,0,2024-08-09,2024-07-22,六士株式会社,,株式会社,神奈川県,横浜市中区,海岸通４丁目２０番地２ＹＴ馬車道ビル,,14,104,2310002,,,2024-07-22,清算の結了等,,,2022-10-05,1,,,,,ロクシ,0
350,2020002087593,登記記録の閉鎖等,0,2024-08-09,2024-07-19,有限会社八幡園,,有限会社,神奈川県,川崎市宮前区,宮前平２丁目１５番地８,,14,136,2160006,,,2024-07-19,清算の結了等,,,2015-10-05,1,,,,,ヤワタエン,0
376,2040002089299,登記記録の閉鎖等,0,2024-08-09,2024-07-29,有限会社神崎ビル,,有限会社,千葉県,柏市,明原３丁目９番１０号,,12,217,2770843,,,2024-07-29,清算の結了等,,,2015-10-05,1,,,,,カンザキビル,0
400,2100002016172,登記記録の閉鎖等,0,2024-08-09,2024-07-26,有限会社クラマタ,,有限会社,長野県,上田市,御嶽堂１０６０番地１,,20,203,3860412,,,2024-07-26,清算の結了等,,,2015-10-05,1,,,,,クラマタ,0
407,2120001058924,登記記録の閉鎖等,0,2024-08-09,2024-08-07,ストック・フリー株式会社,,株式会社,奈良県,御所市,大字三室２１８番地の１,,29,208,6392306,,,2024-08-07,清算の結了等,,,2015-10-05,1,,,,,ストックフリー,0
419,2120005021449,登記記録の閉鎖等,0,2024-08-09,2024-08-07,一般社団法人ＩＢファッション採用定着研究所,,その他の設立登記法人,大阪府,大阪市北区,梅田１丁目１－３大阪駅前第３ビル２９階１－１－１号室,,27,127,5300001,,,2024-08-07,清算の結了等,,,2020-02-26,1,,,,,アイビーファッションサイヨウテイチャクケンキュウジョ,0
464,2210002003481,登記記録の閉鎖等,0,2024-08-09,2024-08-06,有限会社桝谷水産,,有限会社,福井県,福井市,蒲生町第１号１番地の９,,18,201,9103553,,,2024-08-06,清算の結了等,,,2015-10-05,1,,,,,マスヤスイサン,0
474,2260002011141,登記記録の閉鎖等,0,2024-08-09,2024-07-23,日本ビル管理有限会社,,有限会社,岡山県,赤磐市,長尾４３０番地,,33,213,7090823,,,2024-07-23,清算の結了等,,,2015-10-05,1,,,,,ニホンビルカンリ,0
476,2270002010431,登記記録の閉鎖等,0,2024-08-09,2024-08-06,有限会社天正,,有限会社,鳥取県,倉吉市,河原町１７２１番地,,31,203,6820924,,,2024-08-06,清算の結了等,,,2015-10-05,1,,,,,テンショウ,0
484,2290005016060,登記記録の閉鎖等,0,2024-08-09,2024-07-05,ＮＰＯ法人ゼロファーム,,その他の設立登記法人,福岡県,大牟田市,浜田町１５番地１２,,40,202,8360026,,,2024-07-05,清算の結了等,,,2016-09-05,1,,,,,ゼロファーム,0
495,2360001010308,登記記録の閉鎖等,0,2024-08-09,2024-08-07,株式会社くれえる沖縄,,株式会社,沖縄県,浦添市,勢理客４丁目１５番１５号,,47,208,9012122,,,2024-08-07,合併による解散等,3120001078616,令和６年８月１日大阪市中央区西心斎橋一丁目１０番２５号株式会社くれえる（3120001078616）に合併し解散,2015-10-05,1,,,,,,0
498,2370001043224,登記記録の閉鎖等,0,2024-08-09,2024-07-24,株式会社みなと建築工房,,株式会社,宮城県,塩竈市,藤倉３丁目１７番１３号,,04,203,9850004,,,2024-07-24,清算の結了等,,,2018-06-26,1,,,,,ミナトケンチクコウボウ,0
502,2380001025469,登記記録の閉鎖等,0,2024-08-09,2024-08-02,株式会社ネクストデザイン,,株式会社,福島県,郡山市,緑町９番１２号三部会計事務所第２ビル１階,,07,203,9638023,,,2024-08-02,清算の結了等,,,2015-10-05,1,,,,,ネクストデザイン,0
521,2500002000474,登記記録の閉鎖等,0,2024-08-09,2024-08-05,有限会社アイゼンホーム,,有限会社,愛媛県,松山市,来住町４８３番地１,,38,201,7911102,,,2024-08-05,清算の結了等,,,2015-10-05,1,,,,,アイゼンホーム,0
522,2500002002990,登記記録の閉鎖等,0,2024-08-09,2024-08-05,有限会社サクラメディカルシステムズ,,有限会社,愛媛県,松山市,白水台２丁目９番地２,,38,201,7910113,,,2024-08-05,清算の結了等,,,2015-10-05,1,,,,,,0
540,3010003026955,登記記録の閉鎖等,0,2024-08-09,2024-07-25,合同会社フラット,,合同会社,東京都,中央区,日本橋２丁目２番３号,,13,102,1030027,,,2024-07-25,清算の結了等,,,2018-02-13,1,,,,,フラット,0
552,3010501002160,登記記録の閉鎖等,0,2024-08-09,2024-08-02,オークラ印刷株式会社,,株式会社,東京都,江戸川区,南小岩５丁目３番１２号,,13,123,1330056,,,2024-08-02,清算の結了等,,,2015-10-05,1,,,,,オークラインサツ,0
554,3010501021251,登記記録の閉鎖等,0,2024-08-09,2024-07-30,イハラハウジング株式会社,,株式会社,東京都,台東区,上野３丁目１６番３号,,13,106,1100005,,,2024-07-30,清算の結了等,,,2024-05-07,1,,,,,イハラハウジング,0
564,3010702003924,登記記録の閉鎖等,0,2024-08-09,2024-08-01,有限会社志田工務所,00051961,有限会社,東京都,品川区,大崎４丁目１番１７号,,13,109,1410032,,,2024-08-01,清算の結了等,,,2015-10-05,1,,,,,シダコウムショ,0
575,3011001055839,登記記録の閉鎖等,0,2024-08-09,2024-07-18,株式会社ラピスクーナ,,株式会社,東京都,港区,六本木６丁目２番３１号,,13,103,1060032,,,2024-07-18,清算の結了等,,,2015-10-05,1,,,,,ラピスクーナ,0
578,3011001129832,登記記録の閉鎖等,0,2024-08-09,2024-08-07,株式会社Ｒｅｋｋ,,株式会社,東京都,渋谷区,恵比寿西１丁目３３番６号,,13,113,1500021,,,2024-08-07,清算の結了等,,,2019-09-05,1,,,,,レック,0
579,3011001130105,登記記録の閉鎖等,0,2024-08-09,2024-08-02,株式会社弘成,,株式会社,東京都,江東区,東雲１丁目１番８－７０１号,,13,108,1350062,,,2024-08-02,清算の結了等,,,2019-09-30,1,,,,,コウセイ,0
602,3011603002346,登記記録の閉鎖等,0,2024-08-09,2024-08-06,合同会社Ｈ２キャピタル,,合同会社,東京都,練馬区,大泉学園町８丁目１２番１１号,,13,120,1780061,,,2024-08-06,清算の結了等,,,2018-06-05,1,,,,,エイチツーキャピタル,0
615,3020001006438,登記記録の閉鎖等,0,2024-08-09,2024-07-22,株式会社たからや,,株式会社,神奈川県,横浜市金沢区,六浦４丁目１９番１９号,,14,108,2360031,,,2024-07-22,清算の結了等,,,2015-10-05,1,,,,,タカラヤ,0
631,3030002082923,登記記録の閉鎖等,0,2024-08-09,2024-08-02,有限会社増田商店,,有限会社,埼玉県,鴻巣市,箕田３９２５番地の１,,11,217,3650062,,,2024-08-02,清算の結了等,,,2015-10-05,1,,,,,マスダショウテン,0
636,3040001006840,登記記録の閉鎖等,0,2024-08-09,2024-07-26,鳳栄建設株式会社,,株式会社,千葉県,千葉市中央区,浜野町５０８番地１６,,12,101,2600824,,,2024-07-26,清算の結了等,,,2015-10-05,1,,,,,ホウエイケンセツ,0
641,3040001103943,登記記録の閉鎖等,0,2024-08-09,2024-07-26,株式会社大弘,,株式会社,千葉県,千葉市中央区,新田町３６番５号,,12,101,2600027,,,2024-07-26,清算の結了等,,,2018-03-22,1,,,,,タイコウ,0
652,3050002000486,登記記録の閉鎖等,0,2024-08-09,2024-08-05,有限会社梅屋酒店,,有限会社,茨城県,水戸市,見川町２５６３番地４２４,,08,201,3100913,,,2024-08-05,清算の結了等,,,2015-10-05,1,,,,,ウメヤサケテン,0
659,3070005008038,登記記録の閉鎖等,0,2024-08-09,2024-08-08,特定非営利活動法人赤城自然塾,,その他の設立登記法人,群馬県,前橋市,上大島町西ノ山１４０－４上毛資源株式会社天川大島プラント内,,10,201,3792153,,,2024-08-08,清算の結了等,,,2015-10-05,1,,,,,アカギシゼンジュク,0
663,3080002000946,登記記録の閉鎖等,0,2024-08-09,2024-07-31,有限会社エスポア桑名や,,有限会社,静岡県,静岡市葵区,本通３丁目５番地,,22,101,4200064,,,2024-07-31,清算の結了等,,,2015-10-05,1,,,,,エスポアクワナヤ,0
678,3120001210335,登記記録の閉鎖等,0,2024-08-09,2024-08-08,株式会社ＷｕＰａｓ,,株式会社,奈良県,葛城市,忍海４６４－３セントフィールド葛城Ｉ２０３,00130425,29,211,6392123,,,2024-08-08,清算の結了等,,,2017-12-25,1,,,,,ウーパス,0
692,3120005019731,登記記録の閉鎖等,0,2024-08-09,2024-08-07,一般財団法人シニアライフ・サポート協会,,その他の設立登記法人,大阪府,大阪市中央区,谷町１丁目２番６号,,27,128,5400012,,,2024-08-07,清算の結了等,,,2017-10-03,1,,,,,シニアライフサポートキョウカイ,0
703,3120902019684,登記記録の閉鎖等,0,2024-08-09,2024-08-01,有限会社ベストコーポレーション,,有限会社,大阪府,豊中市,緑丘３丁目１１番１５－４０７号,,27,203,5600002,,,2024-08-01,清算の結了等,,,2015-10-05,1,,,,,ベストコーポレーション,0
711,3140001053690,登記記録の閉鎖等,0,2024-08-09,2024-08-01,株式会社オスカー・プロダクト,,株式会社,兵庫県,尼崎市,武庫之荘１丁目３３番１－９１４号,,28,202,6610035,,,2024-08-01,清算の結了等,,,2015-10-05,1,,,,,オスカープロダクト,0
712,3140001060794,登記記録の閉鎖等,0,2024-08-09,2024-08-05,株式会社ハヤシ,,株式会社,兵庫県,姫路市,二階町３７番地,,28,201,6700922,,,2024-08-05,清算の結了等,,,2015-10-05,1,,,,,ハヤシ,0
747,3180303004280,登記記録の閉鎖等,0,2024-08-09,2024-07-31,合同会社アウタープロ,,合同会社,愛知県,岡崎市,上地６丁目１８番地中央マンション上地７０６,,23,202,4440823,,,2024-07-31,清算の結了等,,,2019-03-15,1,,,,,アウタープロ,0
750,3200005001078,登記記録の閉鎖等,0,2024-08-09,2024-08-02,岐阜国際ソーイング協同組合,,その他の設立登記法人,岐阜県,岐阜市,忠節町１丁目１８番地,,21,201,5008801,,,2024-08-02,清算の結了等,,,2015-10-05,1,,,,,ギフコクサイソーイング,0
759,3240005012823,登記記録の閉鎖等,0,2024-08-09,2024-08-08,特定非営利活動法人ひろしま臨空飛来,,その他の設立登記法人,広島県,三原市,大和町上徳良３２２番地,,34,204,7291405,,,2024-08-08,清算の結了等,,,2015-10-05,1,,,,,,0
762,3280002006361,登記記録の閉鎖等,0,2024-08-09,2024-08-06,有限会社だいわモータース,,有限会社,島根県,出雲市,斐川町原鹿１８０２番地,,32,203,6990643,,,2024-08-06,清算の結了等,,,2015-10-05,1,,,,,ダイワモータース,0
773,3310002012694,登記記録の閉鎖等,0,2024-08-09,2024-08-01,有限会社西工業所,,有限会社,長崎県,佐世保市,広田２丁目２番９号,,42,202,8593223,,,2024-08-01,清算の結了等,,,2015-10-05,1,,,,,ニシコウギョウショ,0
775,3330001004162,登記記録の閉鎖等,0,2024-08-09,2024-07-30,株式会社プロメディアシステム,,株式会社,熊本県,熊本市南区,良町５丁目２３番１９号,,43,104,8620969,,,2024-07-30,清算の結了等,,,2015-10-05,1,,,,,プロメディアシステム,0
782,3340002002676,登記記録の閉鎖等,0,2024-08-09,2024-08-05,有限会社川口自動車整備工場,,有限会社,鹿児島県,鹿児島市,南林寺町１１番２号,,46,201,8920834,,,2024-08-05,清算の結了等,,,2015-10-05,1,,,,,カワグチジドウシャセイビコウジョウ,0
792,3390001017002,登記記録の閉鎖等,0,2024-08-09,2024-07-29,株式会社サカタモータース,,株式会社,山形県,酒田市,東大町２丁目２４‐１４‐１０３,,06,204,9980851,,,2024-07-29,清算の結了等,,,2022-08-22,1,,,,,サカタモータース,0
800,3430002062232,登記記録の閉鎖等,0,2024-08-09,2024-08-02,有限会社澤鉄工所,,有限会社,北海道,浦河郡浦河町,昌平町駅通５－６号,,01,607,0570022,,,2024-08-02,清算の結了等,,,2015-10-05,1,,,,,サワテッコウショ,0
811,3500005004422,登記記録の閉鎖等,0,2024-08-09,2024-08-05,新居浜製豆協同組合,,その他の設立登記法人,愛媛県,新居浜市,田所町６番２５号,,38,205,7920804,,,2024-08-05,清算の結了等,,,2015-10-05,1,,,,,ニイハマセイトウ,0
831,4010403026851,登記記録の閉鎖等,0,2024-08-09,2024-07-18,合同会社Ｗｉｔｈ　Ａ,,合同会社,東京都,港区,海岸３丁目１９番２号ＭＣダイヤモンドパレス６１７,,13,103,1080022,,,2024-07-18,清算の結了等,,,2022-01-13,1,,,,,ウイズエー,0
836,4010502021142,登記記録の閉鎖等,0,2024-08-09,2024-07-30,有限会社東京ロータリーサービス,,有限会社,東京都,台東区,台東３丁目５番４－６Ｆ,,13,106,1100016,,,2024-07-30,清算の結了等,,,2015-10-05,1,,,,,トウキョウロータリーサービス,0
845,4010703004912,登記記録の閉鎖等,0,2024-08-09,2024-08-01,合同会社ｗＡＡ　ｐｌａｎｎｉｎｇ,,合同会社,東京都,品川区,西五反田２丁目９－７ドルミ五反田４０７号,,13,109,1410031,,,2024-08-01,合併による解散等,5010701037392,令和６年８月１日東京都品川区西五反田２－９－７ドルミ五反田４０７号株式会社ＷＡＡ（5010701037392）に合併し解散,2019-08-08,1,,,,,ワアプランニング,0
859,4011103013917,登記記録の閉鎖等,0,2024-08-09,2024-08-05,合同会社西浦精機ホールディングス,,合同会社,東京都,新宿区,矢来町１２０番地,,13,104,1620805,,,2024-08-05,合併による解散等,5021001013505,令和６年８月１日神奈川県相模原市南区鵜野森一丁目２４番１０号株式会社西浦精機（5021001013505）に合併し解散,2024-01-04,1,,,,,ニシウラセイキホールディングス,0
870,4011701009465,登記記録の閉鎖等,0,2024-08-09,2024-08-02,横山建設株式会社,,株式会社,東京都,練馬区,南田中４丁目１７番３号,,13,120,1770035,,,2024-08-02,清算の結了等,,,2015-10-05,1,,,,,ヨコヤマケンセツ,0
929,4040002090429,登記記録の閉鎖等,0,2024-08-09,2024-07-29,有限会社第一コンクリート,00020969,有限会社,千葉県,柏市,名戸ケ谷１１６２番地,,12,217,2770032,,,2024-07-29,清算の結了等,,,2015-10-05,1,,,,,,0
930,4040002096491,登記記録の閉鎖等,0,2024-08-09,2024-07-29,有限会社スタジオパパ,,有限会社,千葉県,柏市,豊町２丁目３番１８－７１０号,,12,217,2770854,,,2024-07-29,清算の結了等,,,2015-10-05,1,,,,,スタジオパパ,0
940,4070001008775,登記記録の閉鎖等,0,2024-08-09,2024-08-08,リード工業株式会社,,株式会社,群馬県,高崎市,上佐野町１５８番地４,,10,202,3700857,,,2024-08-08,清算の結了等,,,2015-10-05,1,,,,,リードコウギョウ,0
948,4100001001958,登記記録の閉鎖等,0,2024-08-09,2024-07-24,中央グリーン株式会社,,株式会社,長野県,長野市,大字鶴賀権堂町２２６１番地７,,20,201,3800833,,,2024-07-24,清算の結了等,,,2015-10-05,1,,,,,チュウオウグリーン,0
949,4100001024959,登記記録の閉鎖等,0,2024-08-09,2024-07-26,株式会社佐藤工業,,株式会社,長野県,佐久市,田口４９５６番地５,,20,217,3840412,,,2024-07-26,清算の結了等,,,2015-10-05,1,,,,,サトウコウギョウ,0
965,4120002026746,登記記録の閉鎖等,0,2024-08-09,2024-08-05,有限会社北野機型製作所,,有限会社,大阪府,大阪市淀川区,三津屋南２丁目５番１号,,27,123,5320035,,,2024-08-05,清算の結了等,,,2015-10-05,1,,,,,キタノキガタセイサクショ,0
990,4130001056355,登記記録の閉鎖等,0,2024-08-09,2024-07-11,株式会社ＡＡＵＡ,,株式会社,京都府,京都市下京区,新町通松原下る富永町１０７－１,,26,106,6008449,,,2024-07-11,清算の結了等,,,2015-11-12,1,,,,,アウア,0
1019,4180002066497,登記記録の閉鎖等,0,2024-08-09,2024-07-30,有限会社太豊建設,,有限会社,愛知県,春日井市,中央台６丁目４番地の７,,23,206,4870011,,,2024-07-30,清算の結了等,,,2015-10-05,1,,,,,タイホウケンセツ,0
1023,4180301006410,登記記録の閉鎖等,0,2024-08-09,2024-08-07,株式会社アマノパック,,株式会社,愛知県,豊橋市,神野新田町字ヌノ割２８番地の２,,23,201,4418077,,,2024-08-07,清算の結了等,,,2015-10-05,1,,,,,アマノパック,0
1027,4180302022134,登記記録の閉鎖等,0,2024-08-09,2024-08-01,有限会社紗倶羅,00075175,有限会社,愛知県,豊田市,美里２丁目１２番地４１,,23,211,4710805,,,2024-08-01,清算の結了等,,,2015-10-05,1,,,,,サクラ,0
1035,4230001004601,登記記録の閉鎖等,0,2024-08-09,2024-08-01,株式会社五葉商事,,株式会社,富山県,富山市,西公文名町７番１４号,,16,201,9398003,,,2024-08-01,合併による解散等,3230001010237,令和６年８月１日富山県高岡市佐野７３４番地株式会社菅原電気（3230001010237）に合併し解散,2015-10-05,1,,,,,ゴヨウショウジ,0
1037,4230001012703,登記記録の閉鎖等,0,2024-08-09,2024-08-07,庄川生コンクリート工業株式会社,,株式会社,富山県,射水市,小島７１７番地の１,,16,211,9390274,,,2024-08-07,清算の結了等,,,2015-10-05,1,,,,,ショウガワナマコンクリートコウギョウ,0
1047,4260005008967,登記記録の閉鎖等,0,2024-08-09,2024-07-29,特定非営利活動法人エコビレッジあば,,その他の設立登記法人,岡山県,津山市,阿波１２０４番１号,,33,203,7093951,,,2024-07-29,清算の結了等,,,2015-10-05,1,,,,,エコビレッジアバ,0
1048,4270001007162,登記記録の閉鎖等,0,2024-08-09,2024-08-07,ＴＲＥＡＳＵＲＥ株式会社,,株式会社,鳥取県,鳥取市,興南町４５番地,,31,201,6800844,,,2024-08-07,清算の結了等,,,2017-02-03,1,,,,,トレジャー,0
1056,4300001012968,登記記録の閉鎖等,0,2024-08-09,2024-08-05,株式会社ブルー・フラッグ,,株式会社,佐賀県,神埼郡吉野ヶ里町,立野５８６番地１,,41,327,8420032,,,2024-08-05,清算の結了等,,,2022-06-15,1,,,,,ブルーフラッグ,0
1057,4310001003495,登記記録の閉鎖等,0,2024-08-09,2024-08-01,株式会社田上総合企画,,株式会社,長崎県,西彼杵郡長与町,岡郷１４７４番地１５,,42,307,8512121,,,2024-08-01,合併による解散等,7310002008326,令和６年８月１日長崎県西彼杵郡長与町岡郷１４７４番地１５株式会社リカーズたがみ（7310002008326）に合併し解散,2015-10-05,1,,,,,タガミソウゴウキカク,0
1074,4380001024915,登記記録の閉鎖等,0,2024-08-09,2024-07-31,ときわや株式会社,,株式会社,福島県,いわき市,小名浜港ケ丘１番地の４,,07,204,9718102,,,2024-07-31,清算の結了等,,,2015-10-05,1,,,,,トキワヤ,0
1076,4380002035028,登記記録の閉鎖等,0,2024-08-09,2024-08-01,有限会社白水堂,,有限会社,福島県,喜多方市,字西四ツ谷１８３番地１,,07,208,9660086,,,2024-08-01,合併による解散等,7380002032765,令和６年８月１日福島県会津若松市米代二丁目２番５号株式会社白水堂（7380002032765）に合併し解散,2015-10-05,1,,,,,ハクスイドウ,0
1126,5010803001395,登記記録の閉鎖等,0,2024-08-09,2024-08-01,合同会社共生,,合同会社,東京都,大田区,大森東２丁目１７番１号,,13,111,1430012,,,2024-08-01,清算の結了等,,,2015-10-05,1,,,,,キョウセイ,0
1128,5011001053246,登記記録の閉鎖等,0,2024-08-09,2024-07-26,株式会社アジアンドリームドットコム,,株式会社,東京都,新宿区,西新宿５丁目２５番１３号日神パレス西新宿３０８号,,13,104,1600023,,,2024-07-26,清算の結了等,,,2015-10-05,1,,,,,アジアンドリームドットコム,0
1132,5011001097623,登記記録の閉鎖等,0,2024-08-09,2024-07-22,山野愛子どろんこ美容ｌｌ株式会社,,株式会社,東京都,渋谷区,代々木１丁目３０番７号,,13,113,1510053,,,2024-07-22,合併による解散等,1011001030265,令和６年７月２１日東京都渋谷区代々木一丁目３０番７号株式会社ヤマノビューティメイトグループ（1011001030265）に合併し解散,2015-10-05,1,,,,,ヤマノアイコドロンコビヨウツー,0
1152,5011601026519,登記記録の閉鎖等,0,2024-08-09,2024-07-31,株式会社せせらぎ,,株式会社,東京都,練馬区,豊玉北５丁目３２番９号,,13,120,1760012,,,2024-07-31,清算の結了等,,,2023-01-25,1,,,,,セセラギ,0
1158,5011802020254,登記記録の閉鎖等,0,2024-08-09,2024-08-05,有限会社四ツ家浴場,,有限会社,東京都,足立区,青井３丁目３７番１２号,,13,121,1200012,,,2024-08-05,清算の結了等,,,2015-10-05,1,,,,,ヨツヤヨクジョウ,0
1177,5020002064441,登記記録の閉鎖等,0,2024-08-09,2024-07-19,有限会社虹ケ丘エンタープライズ,,有限会社,神奈川県,横浜市青葉区,荏子田１丁目１０番地３６,,14,117,2250005,,,2024-07-19,清算の結了等,,,2015-10-05,1,,,,,ニジガオカエンタープライズ,0
1178,5020002082542,登記記録の閉鎖等,0,2024-08-09,2024-07-22,有限会社アートホーム,,有限会社,神奈川県,川崎市中原区,下小田中３丁目３３番３３号,,14,133,2110041,,,2024-07-22,清算の結了等,,,2015-10-05,1,,,,,アートホーム,0
1202,5040001100996,登記記録の閉鎖等,0,2024-08-09,2024-07-29,株式会社Ｌ＆Ｂ,,株式会社,千葉県,東金市,台方４７６番地４,,12,213,2830811,,,2024-07-29,清算の結了等,,,2017-07-10,1,,,,,エルアンドビー,0
1208,5050005009952,登記記録の閉鎖等,0,2024-08-09,2024-07-29,医療法人信愛会,,その他の設立登記法人,栃木県,下野市,医大前３丁目２－１２フォレスト２Ｆ,,09,216,3290403,,,2024-07-29,清算の結了等,,,2015-10-05,1,,,,,シンアイカイ,0
1209,5060001005145,登記記録の閉鎖等,0,2024-08-09,2024-07-29,優希シンシアティ株式会社,,株式会社,栃木県,宇都宮市,下栗町７５９番地９,,09,201,3210923,,,2024-07-29,清算の結了等,,,2015-10-05,1,,,,,ユウキシンシアティ,0
1224,5090002007996,登記記録の閉鎖等,0,2024-08-09,2024-08-01,有限会社ＡＵ,,有限会社,山梨県,甲府市,朝気３丁目２番２号,,19,201,4000862,,,2024-08-01,合併による解散等,8090001006121,令和６年８月１日山梨県笛吹市石和町井戸８５番地１株式会社トライアンフ（8090001006121）に合併し解散,2015-10-05,1,,,,,,0
1247,5120102017512,登記記録の閉鎖等,0,2024-08-09,2024-08-01,有限会社読売センター喜志,,有限会社,大阪府,富田林市,喜志町４丁目１１番４号,,27,214,5840005,,,2024-08-01,清算の結了等,,,2015-10-05,1,,,,,ヨミウリセンターキシ,0
1262,5140001128359,登記記録の閉鎖等,0,2024-08-09,2024-08-05,ＦＣＣ株式会社,,株式会社,兵庫県,神戸市中央区,磯上通８丁目１番２９号カサベラビルＣ＆Ｍ４０３号室,,28,110,6510086,,,2024-08-05,清算の結了等,,,2022-12-13,1,,,,,エフシーシー,0
1264,5140002022395,登記記録の閉鎖等,0,2024-08-09,2024-08-06,有限会社アプリシエイト,,有限会社,兵庫県,神戸市東灘区,魚崎北町５丁目９番８号,,28,101,6580082,,,2024-08-06,清算の結了等,,,2015-10-05,1,,,,,アプリシエイト,0
1274,5160001011686,登記記録の閉鎖等,0,2024-08-09,2024-08-01,株式会社ＯＳＴ,,株式会社,滋賀県,近江八幡市,鷹飼町南３丁目３番地９,,25,204,5230898,,,2024-08-01,合併による解散等,8160001010685,令和６年８月１日滋賀県近江八幡市鷹飼町南三丁目３番地９株式会社近江八幡ステーションホテル（8160001010685）に合併し解散,2015-10-05,1,,,,,オーエスティ,0
1300,5250002016048,登記記録の閉鎖等,0,2024-08-09,2024-08-02,プランニングハウス有限会社,,有限会社,山口県,周南市,大字鹿野下１１１０３番地の１８,,35,215,7450304,,,2024-08-02,清算の結了等,,,2015-10-05,1,,,,,プランニングハウス,0
1338,5370102001862,登記記録の閉鎖等,0,2024-08-09,2024-07-22,キムラ産業有限会社,,有限会社,宮城県,角田市,角田字栄町３４番地,,04,208,9811505,,,2024-07-22,清算の結了等,,,2015-10-05,1,,,,,キムラサンギョウ,0
1342,5390001005327,登記記録の閉鎖等,0,2024-08-09,2024-07-29,株式会社皆伸商会,,株式会社,山形県,山形市,中桜田１丁目１４番２８号,,06,201,9902422,,,2024-07-29,清算の結了等,,,2015-10-05,1,,,,,,0
1345,5390002010251,登記記録の閉鎖等,0,2024-08-09,2024-08-01,有限会社クリーンロード,,有限会社,山形県,鶴岡市,藤浪１丁目７８番地１,,06,203,9997604,,,2024-08-01,合併による解散等,6390001007982,令和６年８月１日山形県鶴岡市藤浪一丁目７８番地１株式会社リープ（6390001007982）に合併し解散,2015-10-05,1,,,,,クリーンロード,0
1350,5410003002419,登記記録の閉鎖等,0,2024-08-09,2024-08-02,合資会社佐々木ラジオ店,,合資会社,秋田県,横手市,田中町３番２８号,,05,203,0130024,,,2024-08-02,清算の結了等,,,2015-10-05,1,,,,,ササキラジオテン,0
1352,5420002001230,登記記録の閉鎖等,0,2024-08-09,2024-08-02,有限会社こなかの,,有限会社,青森県,八戸市,江陽４丁目８番１８号,,02,203,0310801,,,2024-08-02,清算の結了等,,,2015-10-05,1,,,,,コナカノ,0
1353,5430001017136,登記記録の閉鎖等,0,2024-08-09,2024-08-02,八神冷暖工業株式会社,,株式会社,北海道,札幌市清田区,美しが丘一条１丁目２番７号,,01,110,0040811,,,2024-08-02,合併による解散等,2120001000984,令和６年７月３１日大阪市旭区大宮一丁目２１番１２号株式会社八神（2120001000984）に合併し解散,2015-10-05,1,,,,,ハッシンレイダンコウギョウ,0
1356,5430002015114,登記記録の閉鎖等,0,2024-08-09,2024-08-02,有限会社日東モータース,,有限会社,北海道,札幌市豊平区,豊平四条１１丁目５番２４号,,01,105,0620904,,,2024-08-02,清算の結了等,,,2015-10-05,1,,,,,ニットウモータース,0
1361,5460102002001,登記記録の閉鎖等,0,2024-08-09,2024-08-07,有限会社メディカルサポート,,有限会社,北海道,帯広市,南の森西４丁目４番地１５,,01,207,0800862,,,2024-08-07,清算の結了等,,,2015-10-05,1,,,,,メディカルサポート,0
1370,6010001017664,登記記録の閉鎖等,0,2024-08-09,2024-08-01,株式会社サン工芸,,株式会社,埼玉県,三郷市,高州４丁目６２番地２,,11,237,3410037,,,2024-08-01,合併による解散等,5030001036597,令和６年８月１日埼玉県三郷市高州四丁目６２番地２株式会社カナビ（5030001036597）に合併し解散,2015-10-05,1,,,,,サンコウゲイ,0
1385,6010405019091,登記記録の閉鎖等,0,2024-08-09,2024-07-19,一般社団法人Ａ．Ｐ．１３,,その他の設立登記法人,東京都,港区,元赤坂１丁目１番８号赤坂コミュニティビル４階,,13,103,1070051,,,2024-07-19,清算の結了等,,,2020-09-15,1,,,,,エーピーサーティーン,0
1386,6010501049769,登記記録の閉鎖等,0,2024-08-09,2024-07-31,株式会社富桜康華,,株式会社,東京都,台東区,松が谷２丁目９番１－３０３号,,13,106,1110036,,,2024-07-31,清算の結了等,,,2022-12-23,1,,,,,フヨウコウカ,0
1387,6010502012370,登記記録の閉鎖等,0,2024-08-09,2024-07-31,有限会社渡部工業所,,有限会社,東京都,台東区,浅草４丁目２５番５号,,13,106,1110032,,,2024-07-31,清算の結了等,,,2015-10-05,1,,,,,ワタベコウギョウショ,0
1390,6010802008985,登記記録の閉鎖等,0,2024-08-09,2024-08-01,有限会社立花工業,,有限会社,東京都,大田区,東雪谷５丁目２４番６号,,13,111,1450065,,,2024-08-01,清算の結了等,,,2015-10-05,1,,,,,タチバナコウギョウ,0
1423,6012403005552,登記記録の閉鎖等,0,2024-08-09,2024-08-08,良宅計画合同会社,,合同会社,東京都,武蔵野市,仲町一丁目２７番１２号ＨｏｕｓｅＭａｒｉｍｏ３０３号,,13,203,1800000,,,2024-08-08,清算の結了等,,,2022-08-25,1,,,,,リョウタクケイカク,0
1438,6020002010741,登記記録の閉鎖等,0,2024-08-09,2024-07-19,有限会社三井縫製所,,有限会社,神奈川県,横浜市磯子区,中原３丁目１８番４号,,14,107,2350036,,,2024-07-19,清算の結了等,,,2015-10-05,1,,,,,ミツイホウセイジョ,0
1448,6030001059465,登記記録の閉鎖等,0,2024-08-09,2024-08-02,株式会社ブティック・タカ,,株式会社,埼玉県,川越市,四都野台１２番地２４,,11,201,3501163,,,2024-08-02,清算の結了等,,,2015-10-05,1,,,,,ブティックタカ,0
1453,6030002072888,登記記録の閉鎖等,0,2024-08-09,2024-08-02,有限会社金子精密,,有限会社,埼玉県,川越市,大字平塚字家敷１０１番２,,11,201,3500814,,,2024-08-02,清算の結了等,,,2015-10-05,1,,,,,カネコセイミツ,0
1455,6030005004194,登記記録の閉鎖等,0,2024-08-09,2024-08-02,特定非営利活動法人狭山市の高齢社会を考える会,,その他の設立登記法人,埼玉県,狭山市,大字南入曽１０４８番地の４１,,11,215,3501316,,,2024-08-02,清算の結了等,,,2015-10-05,1,,,,,サヤマシノコウレイシャカイヲカンガエルカイ,0
1491,6110001017191,登記記録の閉鎖等,0,2024-08-09,2024-08-01,株式会社かしわい,,株式会社,新潟県,柏崎市,北半田２丁目１４番１１号,,15,205,9450035,,,2024-08-01,清算の結了等,,,2015-10-05,1,,,,,カシワイ,0
1495,6120001010625,登記記録の閉鎖等,0,2024-08-09,2024-08-08,株式会社中筋製本所,,株式会社,大阪府,大阪市東住吉区,北田辺１丁目５番１９号,,27,121,5460044,,,2024-08-08,清算の結了等,,,2015-10-05,1,,,,,ナカスジセイホンショ,0
1496,6120001081897,登記記録の閉鎖等,0,2024-08-09,2024-08-07,伸和金物貿易株式会社,,株式会社,大阪府,大阪市中央区,（大阪市南区南船場一丁目３番１６号）,,27,128,5390000,,,2024-08-07,清算の結了等,,,2015-10-05,1,,,,,シンワカナモノボウエキ,1
1515,6120101054398,登記記録の閉鎖等,0,2024-08-09,2024-08-01,株式会社スカイハイ,,株式会社,大阪府,堺市北区,南花田町２３２番地６－２階,,27,146,5918011,,,2024-08-01,合併による解散等,7120101028896,令和６年８月１日大阪府堺市北区南花田町２３２番地６－２階株式会社ＥＲＰインシュアランス（7120101028896）に合併し解散,2016-03-07,1,,,,,スカイハイ,0
1521,6122001023805,登記記録の閉鎖等,0,2024-08-09,2024-08-07,株式会社サティス,,株式会社,大阪府,大阪市西区,西本町１丁目１３番３６号,,27,106,5500005,,,2024-08-07,清算の結了等,,,2015-10-05,1,,,,,,0
1532,6130002015093,登記記録の閉鎖等,0,2024-08-09,2024-08-05,有限会社村西,,有限会社,京都府,京都市伏見区,深草南明町１１番地の５,,26,109,6120802,,,2024-08-05,清算の結了等,,,2015-10-05,1,,,,,ムラニシ,0
1539,6140002004021,登記記録の閉鎖等,0,2024-08-09,2024-08-07,有限会社六甲ライブエステート,,有限会社,兵庫県,神戸市灘区,箕岡通２丁目４番５号,,28,102,6570812,,,2024-08-07,清算の結了等,,,2015-10-05,1,,,,,ロッコウライブエステート,0
1541,6140002025447,登記記録の閉鎖等,0,2024-08-09,2024-08-05,有限会社ｔｒｏｏｐ,,有限会社,兵庫県,神戸市中央区,北長狭通２丁目１１番５号,,28,110,6500012,,,2024-08-05,清算の結了等,,,2015-10-05,1,,,,,トゥループ,0
1553,6180001026847,登記記録の閉鎖等,0,2024-08-09,2024-07-29,株式会社ヒューテックエムデー,,株式会社,愛知県,名古屋市西区,八筋町４７４番地,,23,104,4520815,,,2024-07-29,清算の結了等,,,2015-10-05,1,,,,,ヒューテックエムデー,0
1581,6240002003244,登記記録の閉鎖等,0,2024-08-09,2024-08-08,有限会社岡野無線,,有限会社,広島県,広島市西区,横川新町９番２６号,,34,104,7330013,,,2024-08-08,清算の結了等,,,2015-10-05,1,,,,,オカノムセン,0
1586,6250001006899,登記記録の閉鎖等,0,2024-08-09,2024-08-07,アリフク印刷株式会社,,株式会社,山口県,下関市,豊北町大字粟野４８９６番地の８,,35,201,7595101,,,2024-08-07,清算の結了等,,,2015-10-05,1,,,,,アリフクインサツ,0
1588,6250002001057,登記記録の閉鎖等,0,2024-08-09,2024-08-05,有限会社トレビ,,有限会社,山口県,山口市,堂の前町３番９号,,35,203,7530032,,,2024-08-05,清算の結了等,,,2015-10-05,1,,,,,トレビ,0
1593,6270002004875,登記記録の閉鎖等,0,2024-08-09,2024-08-07,有限会社木の原,,有限会社,鳥取県,鳥取市,北園１丁目２０９番地,,31,201,6800004,,,2024-08-07,清算の結了等,,,2015-10-05,1,,,,,,0
1607,6290802009304,登記記録の閉鎖等,0,2024-08-09,2024-07-30,有限会社九州エーブイサービス,,有限会社,福岡県,北九州市門司区,下二十町７番２７号,,40,101,8000028,,,2024-07-30,清算の結了等,,,2015-10-05,1,,,,,キュウシュウエーブイサービス,0
1613,6330002022516,登記記録の閉鎖等,0,2024-08-09,2024-07-30,有限会社谷鉄筋工業,,有限会社,熊本県,玉名郡長洲町,大字宮野２７５７番地の６,,43,368,8690101,,,2024-07-30,清算の結了等,,,2015-10-05,1,,,,,タニテッキンコウギョウ,0
1622,6370001045415,登記記録の閉鎖等,0,2024-08-09,2024-07-22,株式会社イーエスジー,,株式会社,宮城県,大崎市,松山千石字松山２１５番地１,,04,215,9871304,,,2024-07-22,清算の結了等,,,2020-02-12,1,,,,,イーエスジー,0
1626,6380002019417,登記記録の閉鎖等,0,2024-08-09,2024-08-02,有限会社メガネのアイランド,,有限会社,福島県,白河市,久田野城内８７番地,,07,205,9610011,,,2024-08-02,清算の結了等,,,2015-10-05,1,,,,,メガネノアイランド,0
1638,6430001035764,登記記録の閉鎖等,0,2024-08-09,2024-08-05,株式会社テンファクトリー,,株式会社,北海道,札幌市白石区,本通４丁目北２番２４号オーシャンビレッジ本通１０３号室,,01,104,0030027,,,2024-08-05,清算の結了等,,,2015-10-05,1,,,,,テンファクトリー,0
1640,6430001074705,登記記録の閉鎖等,0,2024-08-09,2024-08-05,株式会社ユーティリティー,,株式会社,北海道,札幌市東区,北六条東５丁目１番地３－２１５号,,01,103,0600906,,,2024-08-05,合併による解散等,1460301003258,令和６年７月２８日北海道網走市南三条東三丁目３番地株式会社丸カ朝倉商店（1460301003258）に合併し解散,2017-08-08,1,,,,,ユーティリティー,0
1651,7010001139862,登記記録の閉鎖等,0,2024-08-09,2024-07-29,ｉ－ＰＳＲ株式会社,,株式会社,東京都,中央区,銀座７丁目１３番６号,,13,102,1040061,,,2024-07-29,清算の結了等,,,2015-10-05,1,,,,,アイピーエスアール,0
1663,7010003040069,登記記録の閉鎖等,0,2024-08-09,2024-07-23,合同会社ｃａｍｅｌｌｉａｆｉｅｌｄ,,合同会社,東京都,中央区,月島１丁目２２番１－３０４号,,13,102,1040052,,,2024-07-23,清算の結了等,,,2023-03-20,1,,,,,カメリアフィールド,0
1667,7010401088734,登記記録の閉鎖等,0,2024-08-09,2024-07-18,株式会社Ｈａｐｐｉｎｅｓｓ＆Ｊｏｙ,,株式会社,東京都,港区,西新橋１丁目５番１０号,,13,103,1050003,,,2024-07-18,清算の結了等,,,2015-10-05,1,,,,,ハピネスアンドジョイ,0
1688,7010605003142,登記記録の閉鎖等,0,2024-08-09,2024-08-07,一般社団法人重信慶松文庫,,その他の設立登記法人,東京都,江東区,猿江２丁目１６番２３－４１２号,,13,108,1350003,,,2024-08-07,清算の結了等,,,2015-10-05,1,,,,,シゲノブケイショウブンコ,0
1690,7010701039825,登記記録の閉鎖等,0,2024-08-09,2024-08-01,Ｅｖｉｒｏ株式会社,,株式会社,東京都,品川区,南大井３丁目３５番１４号,,13,109,1400013,,,2024-08-01,合併による解散等,8010701002162,令和６年７月３１日東京都品川区南大井三丁目３５番１４号株式会社オフィックス（8010701002162）に合併し解散,2020-09-15,1,,,,,エヴァイロ,0
1741,7013303002589,登記記録の閉鎖等,0,2024-08-09,2024-08-01,合同会社ｆｉｒｅｆｌｙ,,合同会社,東京都,豊島区,西池袋１丁目４１番地６号エスペランザ池袋４階,,13,116,1710021,,,2024-08-01,清算の結了等,,,2015-10-05,1,,,,,ファイアフライ,0
1743,7013401001963,登記記録の閉鎖等,0,2024-08-09,2024-08-07,株式会社ツルタ,,株式会社,東京都,稲城市,坂浜２２５５番地１,,13,225,2060822,,,2024-08-07,清算の結了等,,,2015-10-05,1,,,,,ツルタ,0
1751,7021001060834,登記記録の閉鎖等,0,2024-08-09,2024-08-07,株式会社喜久家,,株式会社,神奈川県,茅ヶ崎市,萩園２４６０番地１１,,14,207,2530071,,,2024-08-07,清算の結了等,,,2016-12-07,1,,,,,キクヤ,0
1759,7030002013544,登記記録の閉鎖等,0,2024-08-09,2024-08-06,明和クレーンサービス有限会社,,有限会社,埼玉県,さいたま市南区,辻８丁目２５番２２号,00016180,11,108,3360026,,,2024-08-06,合併による解散等,7013401000057,令和６年８月１日東京都日野市旭が丘五丁目１２番地の２０荒島工業株式会社（7013401000057）に合併し解散,2015-10-05,1,,,,,メイワクレーンサービス,0
1769,7040002036528,登記記録の閉鎖等,0,2024-08-09,2024-07-10,有限会社細谷コンパニー,,有限会社,千葉県,市川市,須和田２丁目１３番２号,,12,203,2720825,,,2024-07-10,清算の結了等,,,2015-10-05,1,,,,,ホソヤコンパニー,0
1786,7080401020789,登記記録の閉鎖等,0,2024-08-09,2024-08-05,兼子設計株式会社,,株式会社,静岡県,浜松市浜名区,染地台２丁目１３番２５号,,22,139,4340046,,,2024-08-05,清算の結了等,,,2015-10-05,1,,,,,カネコセッケイ,0
1787,7080405007023,登記記録の閉鎖等,0,2024-08-09,2024-08-01,採用育成サポート協同組合,,その他の設立登記法人,静岡県,浜松市中央区,白羽町６８９番地,,22,138,4300846,,,2024-08-01,清算の結了等,,,2017-10-04,1,,,,,サイヨウイクセイサポート,0
1808,7120002061996,登記記録の閉鎖等,0,2024-08-09,2024-08-07,有限会社光新,,有限会社,大阪府,大阪市住吉区,長居３丁目２番２９号,,27,120,5580003,,,2024-08-07,清算の結了等,,,2015-10-05,1,,,,,,0
1819,7120902014847,登記記録の閉鎖等,0,2024-08-09,2024-08-01,有限会社村上工務店,,有限会社,大阪府,池田市,渋谷１丁目１５番１１号,,27,204,5630028,,,2024-08-01,清算の結了等,,,2015-10-05,1,,,,,ムラカミコウムテン,0
1829,7130002010093,登記記録の閉鎖等,0,2024-08-09,2024-08-05,有限会社並河良一商店,,有限会社,京都府,京都市東山区,大仏南門通大和大路東入本瓦町６６０番地の５,,26,105,6050963,,,2024-08-05,清算の結了等,,,2015-10-05,1,,,,,ナミカワリョウイチショウテン,0
1830,7130003007361,登記記録の閉鎖等,0,2024-08-09,2024-08-05,合同会社ＳｔｅｐＯｕｔ,,合同会社,京都府,京都市右京区,北嵯峨北ノ段町５０番地１０,,26,108,6168441,,,2024-08-05,清算の結了等,,,2021-07-27,1,,,,,ステップアウト,0
1835,7140001059148,登記記録の閉鎖等,0,2024-08-09,2024-08-07,株式会社サンミッシェル,,株式会社,兵庫県,姫路市,紺屋町７３番地,,28,201,6700924,,,2024-08-07,清算の結了等,,,2015-10-05,1,,,,,サンミッシェル,0
1841,7140002034447,登記記録の閉鎖等,0,2024-08-09,2024-08-02,有限会社エース健康食品,,有限会社,兵庫県,丹波市,山南町太田４１５番地２,,28,223,6693113,,,2024-08-02,清算の結了等,,,2015-10-05,1,,,,,エースケンコウショクヒン,0
1842,7140002049676,登記記録の閉鎖等,0,2024-08-09,2024-08-06,有限会社ティー・システムズ,,有限会社,兵庫県,姫路市,西庄甲５５９番地,,28,201,6700981,,,2024-08-06,清算の結了等,,,2015-10-05,1,,,,,ティーシステムズ,0
1843,7150002006346,登記記録の閉鎖等,0,2024-08-09,2024-08-08,有限会社太子堂,,有限会社,奈良県,生駒郡斑鳩町,法隆寺１丁目５番２９号,00048936,29,344,6360116,,,2024-08-08,清算の結了等,,,2015-10-05,1,,,,,タイシドウ,0
1847,7180001029551,登記記録の閉鎖等,0,2024-08-09,2024-07-30,株式会社内山木型製作所,,株式会社,愛知県,名古屋市中村区,日ノ宮町２丁目２番地,,23,105,4530823,,,2024-07-30,清算の結了等,,,2015-10-05,1,,,,,ウチヤマキガタセイサクショ,0
1848,7180001087797,登記記録の閉鎖等,0,2024-08-09,2024-07-31,株式会社干場,,株式会社,愛知県,岩倉市,東町仙奈１１番地の４,,23,228,4820041,,,2024-07-31,清算の結了等,,,2015-10-05,1,,,,,ホシバ,0
1860,7180002069761,登記記録の閉鎖等,0,2024-08-09,2024-07-29,有限会社平坂技研,,有限会社,愛知県,小牧市,久保一色南２丁目２７８番地の１,,23,219,4850007,,,2024-07-29,清算の結了等,,,2015-10-05,1,,,,,ヒラサカギケン,0
1862,7180003003232,登記記録の閉鎖等,0,2024-08-09,2024-07-30,合資会社玉野薬局,,合資会社,愛知県,名古屋市東区,矢田４丁目２番３号,,23,102,4610040,,,2024-07-30,清算の結了等,,,2015-10-05,1,,,,,タマノヤッキョク,0
1875,7180302022197,登記記録の閉鎖等,0,2024-08-09,2024-08-05,有限会社サンワールド,,有限会社,愛知県,豊田市,西山町２丁目４番地３,,23,211,4710062,,,2024-08-05,清算の結了等,,,2015-10-05,1,,,,,サンワールド,0
1879,7190001027942,登記記録の閉鎖等,0,2024-08-09,2024-08-06,株式会社雅工業,,株式会社,三重県,四日市市,山之一色町２０８０番地２,,24,202,5120906,,,2024-08-06,清算の結了等,,,2021-01-06,1,,,,,ミヤビコウギョウ,0
1880,7190002021283,登記記録の閉鎖等,0,2024-08-09,2024-08-05,有限会社鳥幸,,有限会社,三重県,四日市市,新正３丁目５番９号,,24,202,5100064,,,2024-08-05,清算の結了等,,,2015-10-05,1,,,,,トリコウ,0
1881,7200001002076,登記記録の閉鎖等,0,2024-08-09,2024-08-06,三愛エンタープライズ株式会社,,株式会社,岐阜県,岐阜市,長良２９７７番地の３の１,,21,201,5020071,,,2024-08-06,清算の結了等,,,2015-10-05,1,,,,,サンアイエンタープライズ,0
1910,7290802024269,登記記録の閉鎖等,0,2024-08-09,2024-08-05,有限会社タナカ調剤薬局,,有限会社,福岡県,田川市,桜町１４番２５号,,40,206,8260021,,,2024-08-05,清算の結了等,,,2015-10-05,1,,,,,タナカチョウザイヤッキョク,0
1912,7290805007907,登記記録の閉鎖等,0,2024-08-09,2024-08-02,ＮＰＯ法人九州視覚障害ゴルファーズ協会,,その他の設立登記法人,福岡県,宮若市,宮田７５番地４,,40,226,8230011,,,2024-08-02,清算の結了等,,,2015-10-05,1,,,,,キュウシュウシカクショウガイゴルファーズキョウカイ,0
1932,7420001012128,登記記録の閉鎖等,0,2024-08-09,2024-08-02,株式会社おいらせ輸送,,株式会社,青森県,上北郡おいらせ町,松原２丁目１３２番３,,02,412,0392206,,,2024-08-02,清算の結了等,,,2015-10-05,1,,,,,オイラセユソウ,0
1933,7420001012292,登記記録の閉鎖等,0,2024-08-09,2024-08-01,株式会社ブルーセレス,,株式会社,青森県,上北郡東北町,字下笹橋２１番地２,,02,408,0392662,,,2024-08-01,清算の結了等,,,2015-10-05,1,,,,,ブルーセレス,0
1948,7500002007333,登記記録の閉鎖等,0,2024-08-09,2024-08-06,有限会社和ふく堂,,有限会社,愛媛県,松山市,空港通３丁目８番２０号,,38,201,7910054,,,2024-08-06,清算の結了等,,,2015-10-05,1,,,,,ワフクドウ,0
1952,8010001172895,登記記録の閉鎖等,0,2024-08-09,2024-07-26,ヴォストク・トランスマリン株式会社,,株式会社,東京都,千代田区,二番町５番地２,,13,101,1020084,,,2024-07-26,清算の結了等,,,2016-01-14,1,,,,,ヴォストクトランスマリン,0
1969,8010601033448,登記記録の閉鎖等,0,2024-08-09,2024-08-08,株式会社アンプランニング,,株式会社,東京都,江東区,南砂１丁目１９番１－６０４号,,13,108,1360076,,,2024-08-08,清算の結了等,,,2015-10-05,1,,,,,アンプランニング,0
1974,8010702009173,登記記録の閉鎖等,0,2024-08-09,2024-08-01,有限会社城南エレベーターサービス,,有限会社,東京都,品川区,西大井６丁目１４番１３号,,13,109,1400015,,,2024-08-01,合併による解散等,7010701018184,令和６年８月１日東京都品川区西大井六丁目１４番１３号株式会社城南エレベーターサービス（7010701018184）に合併し解散,2015-10-05,1,,,,,ジョウナンエレベーターサービス,0
1980,8010905004228,登記記録の閉鎖等,0,2024-08-09,2024-07-22,一般社団法人アットアート,,その他の設立登記法人,東京都,世田谷区,船橋５丁目１７番２０－１０４号,,13,112,1560055,,,2024-07-22,清算の結了等,,,2021-11-12,1,,,,,アットアート,0
1983,8011001100846,登記記録の閉鎖等,0,2024-08-09,2024-08-07,株式会社アイ・ジャパン,,株式会社,東京都,渋谷区,南平台町１６－２８グラスシティ渋谷,,13,113,1500036,,,2024-08-07,清算の結了等,,,2015-10-05,1,,,,,アイジャパン,0
1988,8011003008559,登記記録の閉鎖等,0,2024-08-09,2024-08-07,合同会社ｗｅｌｉｎａ,,合同会社,東京都,目黒区,上目黒１丁目１６番２号鹿コーポラス２０１,,13,110,1530051,,,2024-08-07,清算の結了等,,,2018-03-06,1,,,,,,0
2008,8012302004744,登記記録の閉鎖等,0,2024-08-09,2024-08-05,有限会社源エンタープライズ,,有限会社,東京都,町田市,南成瀬５丁目４番地６,,13,209,1940045,,,2024-08-05,清算の結了等,,,2015-10-05,1,,,,,ゲンエンタープライズ,0
2009,8012305000393,登記記録の閉鎖等,0,2024-08-09,2024-08-06,町田市民病院労働組合,,その他の設立登記法人,東京都,町田市,旭町２丁目２番１８号市立看護専門学校内,,13,209,1940023,,,2024-08-06,清算の結了等,,,2015-10-05,1,,,,,マチダシミンビョウイン,0
2012,8012701016423,登記記録の閉鎖等,0,2024-08-09,2024-08-06,株式会社スマイルホーム,,株式会社,東京都,杉並区,井草４丁目１８番２６－４０７号,,13,115,1670021,,,2024-08-06,清算の結了等,,,2021-04-13,1,,,,,スマイルホーム,0
2016,8013301038543,登記記録の閉鎖等,0,2024-08-09,2024-08-01,株式会社ＫＭ　ＬＩＶＥＳ,,株式会社,東京都,豊島区,長崎４丁目１１番１１号,,13,116,1710051,,,2024-08-01,清算の結了等,,,2016-03-24,1,,,,,,0
2026,8030001082416,登記記録の閉鎖等,0,2024-08-09,2024-08-05,株式会社エルエスジェイ,,株式会社,埼玉県,川口市,飯塚３丁目６番２８号,,11,203,3320023,,,2024-08-05,清算の結了等,,,2015-10-05,1,,,,,エルエスジェイ,0
2038,8030005020917,登記記録の閉鎖等,0,2024-08-09,2024-08-01,一般社団法人セントラル,,その他の設立登記法人,埼玉県,さいたま市岩槻区,大字真福寺１４０２番地１８,,11,110,3390044,,,2024-08-01,合併による解散等,1030005016979,令和６年８月１日埼玉県さいたま市岩槻区大字真福寺１２０８番地２一般社団法人児童福祉経営支援協会（1030005016979）に合併し解散,2022-07-14,1,,,,,セントラル,0
2042,8040002009128,登記記録の閉鎖等,0,2024-08-09,2024-07-29,有限会社野村工業,,有限会社,千葉県,千葉市稲毛区,山王町１２７番地１８,,12,103,2630002,,,2024-07-29,清算の結了等,,,2015-10-05,1,,,,,ノムラコウギョウ,0
2044,8040002053002,登記記録の閉鎖等,0,2024-08-09,2024-07-26,有限会社栄光装備,,有限会社,千葉県,野田市,大殿井字真福寺谷津５８番１９,,12,208,2780017,,,2024-07-26,清算の結了等,,,2015-10-05,1,,,,,エイコウソウビ,0
2048,8040005019999,登記記録の閉鎖等,0,2024-08-09,2024-07-29,一般社団法人成田医療２０３８研究所,,その他の設立登記法人,千葉県,成田市,橋賀台２丁目４番地１,,12,211,2860037,,,2024-07-29,清算の結了等,,,2018-06-04,1,,,,,ナリタイリョウニゼロサンハチケンキュウジョ,0
2054,8060002031518,登記記録の閉鎖等,0,2024-08-09,2024-07-29,有限会社旭チキン,,有限会社,栃木県,栃木市,箱森町５番３号,,09,203,3280075,,,2024-07-29,清算の結了等,,,2015-10-05,1,,,,,アサヒチキン,0
2060,8070002017152,登記記録の閉鎖等,0,2024-08-09,2024-08-07,有限会社新井材木店,,有限会社,群馬県,藤岡市,藤岡８６４番地の１,,10,209,3750024,,,2024-08-07,清算の結了等,,,2015-10-05,1,,,,,アライザイモクテン,0
2069,8100001032660,登記記録の閉鎖等,0,2024-08-09,2024-08-01,株式会社長野ベンチャーズクリエイション,,株式会社,長野県,長野市,大字鶴賀上千歳町１１３７番地２３長野１１３７ビル２階ＢＰＮ,,20,201,3800821,,,2024-08-01,清算の結了等,,,2019-10-30,1,,,,,ナガノベンチャーズクリエイション,0
2070,8100002036082,登記記録の閉鎖等,0,2024-08-09,2024-07-26,有限会社カネダ電気,,有限会社,長野県,飯田市,大瀬木４００７番地,,20,205,3950157,,,2024-07-26,清算の結了等,,,2015-10-05,1,,,,,カネダデンキ,0
2071,8100005012568,登記記録の閉鎖等,0,2024-08-09,2024-07-24,一般社団法人びりーぶセラピスト養成協会,,その他の設立登記法人,長野県,飯田市,鼎一色４９６番地７,,20,205,3950805,,,2024-07-24,清算の結了等,,,2020-04-28,1,,,,,ビリーブセラピストヨウセイキョウカイ,0
2088,8120001253825,登記記録の閉鎖等,0,2024-08-09,2024-08-08,富正株式会社,,株式会社,大阪府,大阪市港区,南市岡３丁目１０－２グリシーヌ弁天町１０３号室,,27,107,5520011,,,2024-08-08,清算の結了等,,,2023-04-10,1,,,,,トミマサ,0
2089,8120001254195,登記記録の閉鎖等,0,2024-08-09,2024-08-08,加集株式会社,,株式会社,大阪府,大阪市東成区,東小橋１丁目１７－３１グランドハイツ東小橋２０１号室,,27,115,5370024,,,2024-08-08,清算の結了等,,,2023-04-20,1,,,,,カシュウ,0
2097,8120003012931,登記記録の閉鎖等,0,2024-08-09,2024-08-02,合同会社ｕｍａｋｕｉｋｕ,,合同会社,大阪府,枚方市,長尾元町４丁目６番１１号,,27,210,5730163,,,2024-08-02,清算の結了等,,,2017-06-12,1,,,,,ウマクイク,0
2102,8120102007056,登記記録の閉鎖等,0,2024-08-09,2024-08-05,有限会社フェニックス,,有限会社,大阪府,堺市中区,深井水池町３０７６番地,,27,142,5998237,,,2024-08-05,清算の結了等,,,2015-10-05,1,,,,,フェニックス,0
2111,8130001015308,登記記録の閉鎖等,0,2024-08-09,2024-07-26,西村システム株式会社,,株式会社,京都府,京都市伏見区,醍醐下山口町２０番地の６,,26,109,6011343,,,2024-07-26,清算の結了等,,,2015-10-05,1,,,,,ニシムラシステム,0
2123,8140002055120,登記記録の閉鎖等,0,2024-08-09,2024-08-06,有限会社アクトコンサルタント,,有限会社,兵庫県,三田市,あかしあ台５丁目２９番地Ｄ棟５０２号,,28,219,6691323,,,2024-08-06,清算の結了等,,,2015-10-05,1,,,,,アクトコンサルタント,0
2126,8140005023173,登記記録の閉鎖等,0,2024-08-09,2024-08-08,特定非営利活動法人ＮＰＯ創生クオーレ,,その他の設立登記法人,兵庫県,明石市,山下町５番２２号,,28,203,6730878,,,2024-08-08,清算の結了等,,,2016-09-28,1,,,,,エヌピーオーソウセイクオーレ,0
2149,8180302000961,登記記録の閉鎖等,0,2024-08-09,2024-08-05,有限会社ウエルフィットネスシステム,,有限会社,愛知県,岡崎市,南明大寺町３番地３,,23,202,4440852,,,2024-08-05,清算の結了等,,,2015-10-05,1,,,,,ウエルフィットネスシステム,0
2154,8220001012543,登記記録の閉鎖等,0,2024-08-09,2024-07-30,株式会社安井メリヤス,,株式会社,石川県,小松市,国府台２丁目２７番地,,17,203,9230061,,,2024-07-30,清算の結了等,,,2015-10-05,1,,,,,ヤスイメリヤス,0
2159,8240002047462,登記記録の閉鎖等,0,2024-08-09,2024-08-01,有限会社インワーク・メディカルマインド,,有限会社,広島県,福山市,水呑町３７９４番地,,34,207,7200832,,,2024-08-01,合併による解散等,2240001032371,令和６年８月１日広島県福山市松浜町三丁目７番４２号株式会社ファシオール（2240001032371）に合併し解散,2015-10-05,1,,,,,インワークメディカルマインド,0
2171,8290803004401,登記記録の閉鎖等,0,2024-08-09,2024-08-02,合同会社福岡創生,,合同会社,福岡県,北九州市門司区,稲積２丁目１１番２２号,,40,101,8000048,,,2024-08-02,清算の結了等,,,2023-04-19,1,,,,,フクオカソウセイ,0
2191,8380002030124,登記記録の閉鎖等,0,2024-08-09,2024-08-02,有限会社末永建設,,有限会社,福島県,双葉郡浪江町,大字赤宇木字中平４５番地２,,07,547,9791751,,,2024-08-02,清算の結了等,,,2015-10-05,1,,,,,,0
2206,8460002001653,登記記録の閉鎖等,0,2024-08-09,2024-08-07,有限会社拓振設備工業,,有限会社,北海道,釧路市,松浦町３番８号,,01,206,0850005,,,2024-08-07,清算の結了等,,,2015-10-05,1,,,,,タクシンセツビコウギョウ,0
2209,8490005001945,登記記録の閉鎖等,0,2024-08-09,2024-08-07,医療法人ソフィア,,その他の設立登記法人,高知県,高知市,越前町２丁目５番８号,,39,201,7800928,,,2024-08-07,清算の結了等,,,2015-10-05,1,,,,,ソフィア,0
2217,9010001142922,登記記録の閉鎖等,0,2024-08-09,2024-08-07,ビルサービス株式会社,,株式会社,東京都,武蔵野市,境１丁目１９番１６号,,13,203,1800022,,,2024-08-07,清算の結了等,,,2015-10-05,1,,,,,ビルサービス,0
2247,9010502012153,登記記録の閉鎖等,0,2024-08-09,2024-08-01,有限会社吉豊,,有限会社,東京都,台東区,上野４丁目４番１２号,,13,106,1100005,,,2024-08-01,清算の結了等,,,2015-10-05,1,,,,,ヨシトヨ,0
2249,9010601025403,登記記録の閉鎖等,0,2024-08-09,2024-08-07,株式会社メディアボックス,,株式会社,東京都,墨田区,吾妻橋３丁目９番１２号,,13,107,1300001,,,2024-08-07,清算の結了等,,,2015-10-05,1,,,,,メディアボックス,0
2251,9010802010856,登記記録の閉鎖等,0,2024-08-09,2024-08-01,有限会社並木製作所,,有限会社,東京都,大田区,矢口２丁目１０番２号,,13,111,1460093,,,2024-08-01,清算の結了等,,,2015-10-05,1,,,,,ナミキセイサクショ,0
2254,9011001127756,登記記録の閉鎖等,0,2024-08-09,2024-07-23,株式会社ボディメイク本舗,,株式会社,東京都,渋谷区,恵比寿４丁目９番１３－６０１号,,13,113,1500013,,,2024-07-23,清算の結了等,,,2019-04-25,1,,,,,ボディメイクホンポ,0
2261,9011101098427,登記記録の閉鎖等,0,2024-08-09,2024-07-25,株式会社クロスリンク・インベストメンツ,,株式会社,東京都,新宿区,愛住町２３番１４号ベルックス新宿ビル３階,,13,104,1600005,,,2024-07-25,清算の結了等,,,2022-04-07,1,,,,,クロスリンクインベストメンツ,0
2276,9011802005532,登記記録の閉鎖等,0,2024-08-09,2024-08-05,有限会社東和自動車商会,,有限会社,東京都,葛飾区,水元１丁目１２番１号,,13,122,1250032,,,2024-08-05,清算の結了等,,,2015-10-05,1,,,,,トウワジドウシャショウカイ,0
2277,9012301003044,登記記録の閉鎖等,0,2024-08-09,2024-08-05,株式会社ミヤビ建設,,株式会社,東京都,町田市,南町田３丁目４４番１号,,13,209,1940005,,,2024-08-05,清算の結了等,,,2015-10-05,1,,,,,ミヤビケンセツ,0
2279,9012302004108,登記記録の閉鎖等,0,2024-08-09,2024-08-02,有限会社フライングフィシュ,,有限会社,東京都,町田市,鶴川６丁目９番地３（７の５０１）,,13,209,1950061,,,2024-08-02,清算の結了等,,,2015-10-05,1,,,,,フライングフィシュ,0
2296,9020002085120,登記記録の閉鎖等,0,2024-08-09,2024-07-18,有限会社ミヤ電子,,有限会社,神奈川県,川崎市中原区,新城１丁目５番１６－５０４号,,14,133,2110044,,,2024-07-18,清算の結了等,,,2015-10-05,1,,,,,ミヤデンシ,0
2297,9020002088734,登記記録の閉鎖等,0,2024-08-09,2024-07-26,有限会社ケイビーエム,,有限会社,神奈川県,川崎市高津区,久地１丁目２１番１０号,,14,134,2130032,,,2024-07-26,清算の結了等,,,2015-10-05,1,,,,,ケイビーエム,0
2300,9021001004673,登記記録の閉鎖等,0,2024-08-09,2024-08-08,株式会社マルキ・フレッサ,,株式会社,神奈川県,藤沢市,稲荷５２０番地,,14,205,2510862,,,2024-08-08,清算の結了等,,,2015-10-05,1,,,,,マルキフレッサ,0
2306,9021001041725,登記記録の閉鎖等,0,2024-08-09,2024-08-07,神和金属株式会社,,株式会社,神奈川県,三浦郡葉山町,堀内５０４番地,,14,301,2400112,,,2024-08-07,清算の結了等,,,2015-10-05,1,,,,,シンワキンゾク,0
2316,9030001070452,登記記録の閉鎖等,0,2024-08-09,2024-08-02,株式会社大内工業,,株式会社,埼玉県,坂戸市,大字北峰１５８番地８,,11,239,3500258,,,2024-08-02,清算の結了等,,,2015-10-05,1,,,,,オオウチコウギョウ,0
2317,9030001105035,登記記録の閉鎖等,0,2024-08-09,2024-08-02,パルフィーモ株式会社,,株式会社,埼玉県,朝霞市,本町２丁目１８－７,,11,227,3510011,,,2024-08-02,清算の結了等,,,2015-10-05,1,,,,,パルフィーモ,0
2318,9030001107361,登記記録の閉鎖等,0,2024-08-09,2024-08-02,通運株式会社,,株式会社,埼玉県,さいたま市見沼区,大和田町１丁目２０５ラック大和田１０２,,11,104,3370053,,,2024-08-02,清算の結了等,,,2015-10-05,1,,,,,ツウウン,0
2327,9040001057291,登記記録の閉鎖等,0,2024-08-09,2024-07-29,株式会社東栄,,株式会社,千葉県,東金市,川場７０８番５の１０２号,,12,213,2830064,,,2024-07-29,清算の結了等,,,2015-10-05,1,,,,,,0
2343,9060001028836,登記記録の閉鎖等,0,2024-08-09,2024-07-29,株式会社ハーデック,,株式会社,栃木県,宇都宮市,西川田南１丁目５番２号ハイツウエストベル２０１号,,09,201,3210155,,,2024-07-29,清算の結了等,,,2016-11-28,1,,,,,ハーデック,0
2356,9080001023430,登記記録の閉鎖等,0,2024-08-09,2024-08-01,株式会社ＢＬＵＥ　ＡＮＧＥＬ,,株式会社,静岡県,静岡市葵区,本通８丁目４１番地の１,,22,101,4200064,,,2024-08-01,合併による解散等,3080001015672,令和６年８月１日静岡市葵区本通八丁目４１番地の１株式会社お佛壇のやまき（3080001015672）に合併し解散,2020-03-04,1,,,,,ブルーエンジェル,0
2357,9080002003844,登記記録の閉鎖等,0,2024-08-09,2024-07-30,有限会社ちぐさ,,有限会社,静岡県,静岡市葵区,羽鳥４丁目１３番１５号,,22,101,4211215,,,2024-07-30,清算の結了等,,,2015-10-05,1,,,,,チグサ,0
2358,9080002014767,登記記録の閉鎖等,0,2024-08-09,2024-07-30,有限会社八木製作所,,有限会社,静岡県,榛原郡吉田町,大幡２１３１番地の２,,22,424,4210305,,,2024-07-30,清算の結了等,,,2015-10-05,1,,,,,ヤギセイサクショ,0
2360,9080102006771,登記記録の閉鎖等,0,2024-08-09,2024-08-05,有限会社小野工務店,,有限会社,静岡県,駿東郡小山町,用沢８２６番地の３,,22,344,4101326,,,2024-08-05,清算の結了等,,,2015-10-05,1,,,,,オノコウムテン,0
2371,9100005006189,登記記録の閉鎖等,0,2024-08-09,2024-07-25,医療法人なわた耳鼻咽喉科クリニック,,その他の設立登記法人,長野県,松本市,並柳３丁目１０番３３号,,20,202,3900825,,,2024-07-25,清算の結了等,,,2015-10-05,1,,,,,ナワタジビインコウカクリニック,0
2372,9110005004448,登記記録の閉鎖等,0,2024-08-09,2024-08-01,村松燃料協同組合,,その他の設立登記法人,新潟県,五泉市,本田屋字本田屋７６５番地,,15,218,9591761,,,2024-08-01,清算の結了等,,,2015-10-05,1,,,,,ムラマツネンリョウ,0
2376,9120001006439,登記記録の閉鎖等,0,2024-08-09,2024-08-07,株式会社ディプス,,株式会社,大阪府,大阪市中央区,瓦屋町３丁目３－１－５０２,,27,128,5420066,,,2024-08-07,清算の結了等,,,2015-10-05,1,,,,,ディプス,0
2378,9120001090029,登記記録の閉鎖等,0,2024-08-09,2024-08-05,丸信総合鑑定株式会社,,株式会社,大阪府,富田林市,藤沢台６丁目６番１０号,,27,214,5840071,,,2024-08-05,清算の結了等,,,2015-10-05,1,,,,,マルシンソウゴウカンテイ,0
2380,9120001147134,登記記録の閉鎖等,0,2024-08-09,2024-08-01,株式会社ネストイズ,,株式会社,大阪府,豊中市,新千里西町２丁目２４番３０－９０７号,,27,203,5600083,,,2024-08-01,清算の結了等,,,2015-10-05,1,,,,,ネストイズ,0
2397,9120102028373,登記記録の閉鎖等,0,2024-08-09,2024-08-02,有限会社ヒサミツ,,有限会社,大阪府,泉大津市,東助松町１丁目１０番２３号,,27,206,5950006,,,2024-08-02,清算の結了等,,,2015-10-05,1,,,,,ヒサミツ,0
2412,9140001009951,登記記録の閉鎖等,0,2024-08-09,2024-08-02,ニッケ不動産株式会社,,株式会社,兵庫県,神戸市中央区,明石町４７番地,,28,110,6500037,,,2024-08-02,合併による解散等,3140001132263,令和６年８月１日神戸市中央区明石町４７番地ニッケみらい建設株式会社（3140001132263）に合併し解散,2015-10-05,1,,,,,ニッケフドウサン,0
2419,9180001009741,登記記録の閉鎖等,0,2024-08-09,2024-07-29,株式会社アイチク商事,,株式会社,愛知県,名古屋市瑞穂区,土市町１丁目３４,,23,108,4670843,,,2024-07-29,清算の結了等,,,2015-10-05,1,,,,,アイチクショウジ,0
2425,9180001145462,登記記録の閉鎖等,0,2024-08-09,2024-07-30,株式会社アイデアル,,株式会社,愛知県,名古屋市中区,錦２丁目９番６号,,23,106,4600003,,,2024-07-30,清算の結了等,,,2021-04-08,1,,,,,アイデアル,0
2436,9180002084899,登記記録の閉鎖等,0,2024-08-09,2024-07-29,田端土建有限会社,,有限会社,愛知県,大府市,横根町箕手１０３番地の１２,,23,223,4740011,,,2024-07-29,清算の結了等,,,2015-10-05,1,,,,,タバタドケン,0
2441,9180301033862,登記記録の閉鎖等,0,2024-08-09,2024-08-05,愛知セキュリティー警備株式会社,,株式会社,愛知県,碧南市,雨池町３丁目３４番地４,,23,209,4470813,,,2024-08-05,清算の結了等,,,2020-07-06,1,,,,,アイチセキュリティーケイビ,0
2458,9240001030047,登記記録の閉鎖等,0,2024-08-09,2024-08-01,大村佛具製造株式会社,,株式会社,広島県,福山市,笠岡町２番３号,,34,207,7200044,,,2024-08-01,合併による解散等,6240002039767,令和６年８月１日広島県福山市笠岡町２番３号株式会社大村仏具店（6240002039767）に合併し解散,2015-10-05,1,,,,,オオムラブツグセイゾウ,0
2459,9240001040764,登記記録の閉鎖等,0,2024-08-09,2024-08-07,株式会社今本組,,株式会社,広島県,東広島市,八本松町宗吉６５番地２,,34,212,7390145,,,2024-08-07,清算の結了等,,,2015-10-05,1,,,,,,0
2483,9290801012636,登記記録の閉鎖等,0,2024-08-09,2024-08-02,株式会社機動,,株式会社,福岡県,北九州市八幡西区,三ケ森４丁目１３番３５‐３０７号,,40,109,8070843,,,2024-08-02,清算の結了等,,,2015-10-05,1,,,,,キドウ,0
2506,9370302001056,登記記録の閉鎖等,0,2024-08-09,2024-07-22,有限会社さくら商事,,有限会社,宮城県,仙台市青葉区,一番町１丁目１１番９号,,04,101,9800811,,,2024-07-22,清算の結了等,,,2015-10-05,1,,,,,サクラショウジ,0
2512,9380002031410,登記記録の閉鎖等,0,2024-08-09,2024-08-02,有限会社小野自動車,,有限会社,福島県,会津若松市,西年貢２丁目２番２０号,,07,202,9650830,,,2024-08-02,清算の結了等,,,2015-10-05,1,,,,,オノジドウシャ,0
2513,9380002032929,登記記録の閉鎖等,0,2024-08-09,2024-08-05,有限会社風湖堂,,有限会社,福島県,会津若松市,山見町３００番地,,07,202,9650021,,,2024-08-05,清算の結了等,,,2015-10-05,1,,,,,フウコドウ,0
2520,9430002023625,登記記録の閉鎖等,0,2024-08-09,2024-08-02,有限会社札幌メディア販売,,有限会社,北海道,札幌市東区,北二十七条東１８丁目３番１０号,,01,103,0650027,,,2024-08-02,清算の結了等,,,2015-10-05,1,,,,,サッポロメディアハンバイ,0
