sequenceNumber,corporateNumber,process,correct,updateDate,changeDate,name,nameImageId,kind,prefectureName,cityName,streetNumber,addressImageId,prefectureCode,cityCode,postCode,addressOutside,addressOutsideImageId,closeDate,closeCause,successorCorporateNumber,changeCause,assignmentDate,latest,enName,enPrefectureName,enCityName,enAddressOutside,furigana,hihyoji
30,1010703003545,登記記録の閉鎖等,0,2021-12-17,2021-12-15,合同会社ろく,,合同会社,東京都,品川区,西五反田２丁目９番７号ドルミ五反田４０７号,,13,109,1410031,,,2021-12-15,清算の結了等,,,2017-04-13,1,,,,,ロク,0
44,1011101090358,登記記録の閉鎖等,0,2021-12-17,2021-12-14,株式会社スポーツフィールドイノベーションズ,,株式会社,東京都,新宿区,市谷本村町３番２９号,,13,104,1620845,,,2021-12-14,清算の結了等,,,2020-02-06,1,,,,,スポーツフィールドイノベーションズ,0
54,1011601003884,登記記録の閉鎖等,0,2021-12-17,2021-12-14,大映電機株式会社,,株式会社,東京都,練馬区,中村北１丁目１６番１号,,13,120,1760023,,,2021-12-14,清算の結了等,,,2015-10-05,1,,,,,ダイエイデンキ,0
79,1020002010424,登記記録の閉鎖等,0,2021-12-17,2021-12-14,有限会社ノブデザインルーム,,有限会社,神奈川県,横浜市磯子区,磯子３丁目１０番１６号,,14,107,2350016,,,2021-12-14,清算の結了等,,,2015-10-05,1,,,,,ノブデザインルーム,0
80,1020002033391,登記記録の閉鎖等,0,2021-12-17,2021-12-15,有限会社桑田鉄工,,有限会社,神奈川県,横浜市港北区,新吉田東２丁目１１番２７号,,14,109,2230058,,,2021-12-15,清算の結了等,,,2015-10-05,1,,,,,クワタテッコウ,0
88,1021002018837,登記記録の閉鎖等,0,2021-12-17,2021-12-14,有限会社岡村モールド,,有限会社,神奈川県,相模原市南区,上鶴間本町４丁目１８番９号,,14,153,2520318,,,2021-12-14,清算の結了等,,,2015-10-05,1,,,,,オカムラモールド,0
99,1030002054288,登記記録の閉鎖等,0,2021-12-17,2021-12-14,有限会社瀧乃家,,有限会社,埼玉県,上尾市,本町３丁目４番１３号,,11,219,3620014,,,2021-12-14,清算の結了等,,,2015-10-05,1,,,,,タキノヤ,0
113,1050003003944,登記記録の閉鎖等,0,2021-12-17,2021-12-13,合同会社孝情,,合同会社,茨城県,古河市,大手町８番２８号,,08,204,3060032,,,2021-12-13,清算の結了等,,,2017-10-26,1,,,,,,0
114,1050003005817,登記記録の閉鎖等,0,2021-12-17,2021-12-09,合同会社瀬谷工業,,合同会社,茨城県,東茨城郡城里町,大字石塚１３８４番地,,08,310,3114303,,,2021-12-09,清算の結了等,,,2021-04-28,1,,,,,セヤコウギョウ,0
119,1060002007664,登記記録の閉鎖等,0,2021-12-17,2021-12-15,有限会社ビルハット,,有限会社,栃木県,宇都宮市,滝の原２丁目５番１７号,,09,201,3200846,,,2021-12-15,清算の結了等,,,2015-10-05,1,,,,,ビルハット,0
123,1070001029948,登記記録の閉鎖等,0,2021-12-17,2021-12-14,株式会社アイシェア,,株式会社,群馬県,太田市,西新町２０番地１９,,10,205,3730847,,,2021-12-14,清算の結了等,,,2015-10-05,1,,,,,アイシェア,0
126,1080102004436,登記記録の閉鎖等,0,2021-12-17,2021-12-15,有限会社ナカデンサービス,,有限会社,静岡県,裾野市,茶畑２２５番地の１１,,22,220,4101121,,,2021-12-15,清算の結了等,,,2015-10-05,1,,,,,ナカデンサービス,0
128,1080402013855,登記記録の閉鎖等,0,2021-12-17,2021-12-10,有限会社東海カウンセラー協会,,有限会社,静岡県,浜松市中区,板屋町２７６－４０１Ｒｏｙａｌ　ｉｔａｙａ,,22,131,4300928,,,2021-12-10,清算の結了等,,,2015-10-05,1,,,,,トウカイカウンセラーキョウカイ,0
145,1120001133125,登記記録の閉鎖等,0,2021-12-17,2021-12-14,レスタンス株式会社,,株式会社,大阪府,大阪市北区,豊崎３丁目１９番３号,,27,127,5310072,,,2021-12-14,清算の結了等,,,2015-10-05,1,,,,,レスタンス,0
170,1130001039115,登記記録の閉鎖等,0,2021-12-17,2021-12-14,株式会社カナート,,株式会社,京都府,京田辺市,大住ケ丘４丁目１７番地５,,26,211,6100351,,,2021-12-14,清算の結了等,,,2015-10-05,1,,,,,カナート,0
173,1130005013553,登記記録の閉鎖等,0,2021-12-17,2021-12-15,特定非営利活動法人田舎暮らし支援センター,,その他の設立登記法人,京都府,南丹市,園部町小山西町柿ノ木谷８番地,,26,213,6220043,,,2021-12-15,清算の結了等,,,2015-10-05,1,,,,,イナカグラシシエンセンター,0
180,1140005024806,登記記録の閉鎖等,0,2021-12-17,2021-12-15,一般社団法人ヌマタ,,その他の設立登記法人,兵庫県,神戸市灘区,篠原中町６丁目５番４‐１０３号,,28,102,6570066,,,2021-12-15,清算の結了等,,,2019-09-26,1,,,,,ヌマタ,0
216,1240002031010,登記記録の閉鎖等,0,2021-12-17,2021-12-15,有限会社河野土木,,有限会社,広島県,安芸高田市,吉田町上入江１９２５番地の２,,34,214,7310532,,,2021-12-15,清算の結了等,,,2021-10-19,1,,,,,コウノドボク,0
225,1260002000491,登記記録の閉鎖等,0,2021-12-17,2021-12-16,有限会社アポロプロパン商会,,有限会社,岡山県,岡山市北区,青江１丁目１０番１１号,,33,101,7000941,,,2021-12-16,清算の結了等,,,2015-10-05,1,,,,,アポロプロパンショウカイ,0
238,1310002007829,登記記録の閉鎖等,0,2021-12-17,2021-12-15,有限会社伸和薬品,,有限会社,長崎県,西彼杵郡時津町,日並郷１０８４番地１１,,42,308,8512108,,,2021-12-15,清算の結了等,,,2015-10-05,1,,,,,シンワヤクヒン,0
243,1340001005558,登記記録の閉鎖等,0,2021-12-17,2021-12-10,三共商事株式会社,,株式会社,東京都,港区,高輪２丁目１５番２１号,,13,103,1080074,,,2021-12-10,清算の結了等,,,2015-10-05,1,,,,,サンキョウショウジ,0
254,1380002028629,登記記録の閉鎖等,0,2021-12-17,2021-12-13,有限会社鈴木林業,,有限会社,福島県,南相馬市,原町区南町３丁目５３番地,,07,212,9750007,,,2021-12-13,清算の結了等,,,2015-10-05,1,,,,,,0
263,1410002013643,登記記録の閉鎖等,0,2021-12-17,2021-12-10,有限会社アドバンス,,有限会社,秋田県,横手市,平鹿町下吉田字高口東４番地１,,05,203,0130107,,,2021-12-10,清算の結了等,,,2015-10-05,1,,,,,アドバンス,0
307,2010401139095,登記記録の閉鎖等,0,2021-12-17,2021-12-08,株式会社ベリーク,,株式会社,東京都,港区,赤坂３丁目２番１２号,,13,103,1070052,,,2021-12-08,合併による解散等,1010401099200,令和３年１２月１日東京都港区赤坂四丁目３番２８号株式会社ブルーム・クラシック（1010401099200）に合併し解散,2018-06-20,1,,,,,ベリーク,0
316,2010405017438,登記記録の閉鎖等,0,2021-12-17,2021-12-10,札幌ホテルホールディングス一般社団法人,,その他の設立登記法人,東京都,港区,元赤坂１丁目１番７号,,13,103,1070051,,,2021-12-10,清算の結了等,,,2019-02-08,1,,,,,サッポロホテルホールディングス,0
326,2010801013949,登記記録の閉鎖等,0,2021-12-17,2021-12-08,京浜工業株式会社,,株式会社,東京都,大田区,南千束１丁目１番５号,,13,111,1450063,,,2021-12-08,清算の結了等,,,2021-10-19,1,,,,,ケイヒンコウギョウ,0
332,2011001110108,登記記録の閉鎖等,0,2021-12-17,2021-12-13,株式会社ディー・ピー・ツーインターナショナル,,株式会社,東京都,大田区,鵜の木２丁目８番４号,,13,111,1460091,,,2021-12-13,清算の結了等,,,2016-03-25,1,,,,,ディーピーツーインターナショナル,0
334,2011001140427,登記記録の閉鎖等,0,2021-12-17,2021-12-09,株式会社クラタＳＰＣ２号,,株式会社,東京都,渋谷区,恵比寿４丁目２０番３号恵比寿ガーデンプレイスタワー３４階,,13,113,1500013,,,2021-12-09,合併による解散等,5020001025568,令和３年１２月１日横浜市中区野毛町三丁目１１８番地蓮華堂ビル１Ｆ・２Ｆ株式会社エクレーヌ（5020001025568）に合併し解散,2021-05-18,1,,,,,クラタエスピーシーニゴウ,0
336,2011101070664,登記記録の閉鎖等,0,2021-12-17,2021-12-10,株式会社ＫＭＧｌｏｂａｌ,,株式会社,東京都,新宿区,大久保１丁目１番１１号コントワール新宿２０６号室,,13,104,1690072,,,2021-12-10,清算の結了等,,,2015-10-05,1,,,,,ケイエムグローバル,0
342,2011405000490,登記記録の閉鎖等,0,2021-12-17,2021-12-01,天理教龍徳六分教会,00055550,その他の設立登記法人,東京都,板橋区,若木２丁目２７番１１号,,13,119,1740065,,,2021-12-01,合併による解散等,7150005002821,令和３年１１月３０日奈良県大和郡山市天理町１番５号天理教郡山大教会（7150005002821）に合併し解散,2015-10-05,1,,,,,,0
350,2011802024068,登記記録の閉鎖等,0,2021-12-17,2021-12-15,有限会社千葉メンテナンスサービス,,有限会社,東京都,足立区,六町３丁目１１番１号,,13,121,1210073,,,2021-12-15,清算の結了等,,,2015-10-05,1,,,,,,0
359,2013102007397,登記記録の閉鎖等,0,2021-12-17,2021-12-13,有限会社エイ・エス・ケイ,,有限会社,東京都,青梅市,新町３丁目１０番地の１３,,13,205,1980024,,,2021-12-13,清算の結了等,,,2015-10-05,1,,,,,エイエスケイ,0
370,2020002053257,登記記録の閉鎖等,0,2021-12-17,2021-12-16,有限会社神哲建設,,有限会社,神奈川県,横浜市都筑区,見花山８番８号,,14,118,2240066,,,2021-12-16,清算の結了等,,,2015-10-05,1,,,,,シンテツケンセツ,0
374,2020002082363,登記記録の閉鎖等,0,2021-12-17,2021-12-14,有限会社土屋エンジニアリング,,有限会社,神奈川県,川崎市幸区,東古市場４４番地１３,,14,132,2120051,,,2021-12-14,清算の結了等,,,2015-10-05,1,,,,,ツチヤエンジニアリング,0
378,2020003005926,登記記録の閉鎖等,0,2021-12-17,2021-12-14,合資会社エムズコンストラクション,,合資会社,神奈川県,川崎市中原区,上小田中６丁目１１番２２－４０２号フォワイエ中原,,14,133,2110053,,,2021-12-14,清算の結了等,,,2015-10-05,1,,,,,エムズコンストラクション,0
385,2030001081720,登記記録の閉鎖等,0,2021-12-17,2021-12-16,株式会社英和,,株式会社,埼玉県,川口市,大字新堀１４６番地５,,11,203,3340061,,,2021-12-16,清算の結了等,,,2015-10-05,1,,,,,エイワ,0
398,2040001058197,登記記録の閉鎖等,0,2021-12-17,2021-12-15,株式会社土屋総業,,株式会社,千葉県,山武市,松尾町山室１２１番地１７,,12,237,2891501,,,2021-12-15,清算の結了等,,,2015-10-05,1,,,,,ツチヤソウギョウ,0
399,2040001072784,登記記録の閉鎖等,0,2021-12-17,2021-12-14,株式会社英知,,株式会社,千葉県,浦安市,今川１丁目２番２６号,,12,227,2790022,,,2021-12-14,清算の結了等,,,2015-10-05,1,,,,,エイチ,0
401,2040002012351,登記記録の閉鎖等,0,2021-12-17,2021-12-15,有限会社米満工業所,,有限会社,千葉県,千葉市中央区,祐光４丁目２５番１３号,,12,101,2600007,,,2021-12-15,清算の結了等,,,2015-10-05,1,,,,,,0
402,2040002049435,登記記録の閉鎖等,0,2021-12-17,2021-12-13,湯浅レジン工業有限会社,,有限会社,千葉県,松戸市,紙敷９１４番地の３,,12,207,2702221,,,2021-12-13,清算の結了等,,,2015-10-05,1,,,,,ユアサレジンコウギョウ,0
406,2050001012987,登記記録の閉鎖等,0,2021-12-17,2021-12-13,株式会社常南,,株式会社,茨城県,石岡市,国府７丁目８番５号,,08,205,3150014,,,2021-12-13,清算の結了等,,,2015-10-05,1,,,,,ジョウナン,0
409,2060002013554,登記記録の閉鎖等,0,2021-12-17,2021-12-14,有限会社花き洋蘭部会,,有限会社,栃木県,宇都宮市,上横田町５３２番地１,,09,201,3210106,,,2021-12-14,清算の結了等,,,2015-10-05,1,,,,,カキヨウランブカイ,0
410,2070001006327,登記記録の閉鎖等,0,2021-12-17,2021-12-15,株式会社大富通商,,株式会社,群馬県,高崎市,緑町４丁目２番１号,,10,202,3700073,,,2021-12-15,清算の結了等,,,2015-10-05,1,,,,,オオトミツウショウ,0
414,2070005006471,登記記録の閉鎖等,0,2021-12-17,2021-12-06,ながえ農事組合法人,,その他の設立登記法人,群馬県,邑楽郡邑楽町,大字赤堀３７４３番地,,10,525,3700614,,,2021-12-06,清算の結了等,,,2015-10-05,1,,,,,ナガエ,0
415,2080101011408,登記記録の閉鎖等,0,2021-12-17,2021-12-13,株式会社佐々エンジニアリング,,株式会社,静岡県,富士宮市,外神１８１５番地の５,,22,207,4180006,,,2021-12-13,清算の結了等,,,2015-10-05,1,,,,,ササエンジニアリング,0
416,2080401011074,登記記録の閉鎖等,0,2021-12-17,2021-12-13,株式会社ドゥライフマネジメント,,株式会社,静岡県,浜松市浜北区,貴布祢９０７番地の１,,22,136,4340038,,,2021-12-13,清算の結了等,,,2015-10-05,1,,,,,ドゥライフマネジメント,0
422,2100002030826,登記記録の閉鎖等,0,2021-12-17,2021-12-14,ユニオン工業有限会社,,有限会社,長野県,諏訪郡原村,１１７６４番地３,,20,363,3910100,,,2021-12-14,清算の結了等,,,2015-10-05,1,,,,,ユニオンコウギョウ,0
423,2110002004408,登記記録の閉鎖等,0,2021-12-17,2021-12-14,有限会社銅谷塗装工業,,有限会社,新潟県,新潟市中央区,愛宕３丁目８番地１１,,15,103,9500944,,,2021-12-14,清算の結了等,,,2015-10-05,1,,,,,ドウヤトソウコウギョウ,0
434,2120001225359,登記記録の閉鎖等,0,2021-12-17,2021-12-13,株式会社Ｓｉｎｃｅｒｅ,,株式会社,大阪府,大阪市淀川区,西中島７丁目１－２９新大阪ＳＯＮＥビル４Ｆ４０２,,27,123,5320011,,,2021-12-13,清算の結了等,,,2019-11-26,1,,,,,,0
451,2140001049376,登記記録の閉鎖等,0,2021-12-17,2021-12-15,笹原電機株式会社,,株式会社,兵庫県,尼崎市,西川１丁目９番４号,,28,202,6610966,,,2021-12-15,清算の結了等,,,2015-10-05,1,,,,,ササハラデンキ,0
462,2180301008020,登記記録の閉鎖等,0,2021-12-17,2021-12-15,株式会社柴田住建,,株式会社,愛知県,豊橋市,中浜町１６８番地の２,,23,201,4418065,,,2021-12-15,清算の結了等,,,2015-10-05,1,,,,,シバタジュウケン,0
464,2190002018581,登記記録の閉鎖等,0,2021-12-17,2021-12-14,有限会社桔梗屋,,有限会社,三重県,桑名市,大字桑名４７６番地５９,,24,205,5110009,,,2021-12-14,清算の結了等,,,2015-10-05,1,,,,,キキョウヤ,0
490,2290801005794,登記記録の閉鎖等,0,2021-12-17,2021-12-14,山勝興産株式会社,,株式会社,福岡県,北九州市門司区,大字畑８２７番地の２,,40,101,8000112,,,2021-12-14,清算の結了等,,,2015-10-05,1,,,,,ヤマカツコウサン,0
560,3010403021085,登記記録の閉鎖等,0,2021-12-17,2021-12-09,合同会社ＮＬＩ１号,,合同会社,東京都,港区,赤坂１丁目１２番３２号アーク森ビル３０階Ｃｅｎｘｕｓ税理士法人内,,13,103,1070052,,,2021-12-09,清算の結了等,,,2019-07-17,1,,,,,エヌエルアイイチゴウ,0
563,3010405018336,登記記録の閉鎖等,0,2021-12-17,2021-12-10,一般社団法人エスエイチＲ１,,その他の設立登記法人,東京都,港区,元赤坂１丁目１番８号株式会社赤坂国際会計内,,13,103,1070051,,,2021-12-10,清算の結了等,,,2019-12-16,1,,,,,エスエイチアールワン,0
564,3010405018807,登記記録の閉鎖等,0,2021-12-17,2021-12-10,一般社団法人虎ノ門,,その他の設立登記法人,東京都,港区,元赤坂１丁目１番８号株式会社赤坂国際会計内,,13,103,1070051,,,2021-12-10,清算の結了等,,,2020-06-08,1,,,,,トラノモン,0
565,3010501045614,登記記録の閉鎖等,0,2021-12-17,2021-12-13,株式会社Ｐｅｐｐｅｔｓ,,株式会社,東京都,文京区,千駄木２丁目３３番９号パレドール千駄木５０１号室,,13,105,1130022,,,2021-12-13,合併による解散等,5030001119039,令和３年１１月２３日東京都台東区上野七丁目６番１１号第一下谷ビル７階株式会社青成堂（5030001119039）に合併し解散,2020-04-15,1,,,,,ペペッツ,0
576,3011001065433,登記記録の閉鎖等,0,2021-12-17,2021-12-14,グルーポン・ジャパン株式会社,,株式会社,東京都,千代田区,神田錦町２丁目２番地１,,13,101,1010054,,,2021-12-14,清算の結了等,,,2015-10-05,1,,,,,グルーポンジャパン,0
581,3011003003085,登記記録の閉鎖等,0,2021-12-17,2021-12-01,Ｈｅｌｐ　Ｂｕｔｔｏｎ合同会社,,合同会社,東京都,渋谷区,代官山町１７番４号,,13,113,1500034,,,2021-12-01,清算の結了等,,,2015-10-05,1,,,,,ヘルプボタン,0
584,3011101060367,登記記録の閉鎖等,0,2021-12-17,2021-12-14,株式会社ＡＴエンタープライズ,,株式会社,東京都,千代田区,麹町４丁目５番地１０号,,13,101,1020083,,,2021-12-14,清算の結了等,,,2015-10-05,1,,,,,エーティーエンタープライズ,0
588,3011301005626,登記記録の閉鎖等,0,2021-12-17,2021-12-15,株式会社野崎,,株式会社,東京都,杉並区,下高井戸１丁目４０番８号,,13,115,1680073,,,2021-12-15,清算の結了等,,,2015-10-05,1,,,,,ノザキ,0
591,3011501016373,登記記録の閉鎖等,0,2021-12-17,2021-12-10,鍛造家族株式会社,,株式会社,東京都,北区,田端新町３丁目１１番２号,,13,117,1140012,,,2021-12-10,清算の結了等,,,2015-10-05,1,,,,,タンゾウカゾク,0
595,3011502015754,登記記録の閉鎖等,0,2021-12-17,2021-12-13,株式会社アトム,,株式会社,東京都,北区,赤羽２丁目３４番５号アイエスハイツ２－１階,,13,117,1150045,,,2021-12-13,清算の結了等,,,2015-10-05,1,,,,,アトム,0
598,3011802029132,登記記録の閉鎖等,0,2021-12-17,2021-12-16,有限会社ガンボ,,有限会社,東京都,足立区,西保木間２丁目３番１７－７１２号,,13,121,1210812,,,2021-12-16,清算の結了等,,,2015-10-05,1,,,,,,0
599,3012401003081,登記記録の閉鎖等,0,2021-12-17,2021-12-15,セラ株式会社,,株式会社,東京都,小金井市,前原町２丁目１１番１９号,,13,210,1840013,,,2021-12-15,清算の結了等,,,2015-10-05,1,,,,,セラ,0
613,3020001051905,登記記録の閉鎖等,0,2021-12-17,2021-12-01,株式会社ＩＡＧコンストラクション,,株式会社,神奈川県,横浜市戸塚区,品濃町５４５番地５,,14,110,2440801,,,2021-12-01,合併による解散等,1020001007009,令和３年１２月１日横浜市戸塚区品濃町５４５番地５株式会社アイディーエム（1020001007009）に合併し解散,2015-10-05,1,,,,,,0
620,3020002098730,登記記録の閉鎖等,0,2021-12-17,2021-12-14,有限会社菱田製作所,,有限会社,神奈川県,川崎市川崎区,塩浜３丁目１１番２９号,,14,131,2100826,,,2021-12-14,清算の結了等,,,2021-11-01,1,,,,,ヒシダセイサクショ,0
628,3021001013184,登記記録の閉鎖等,0,2021-12-17,2021-12-14,テクノケア株式会社,,株式会社,神奈川県,相模原市南区,相武台１丁目１７番３号,,14,153,2520324,,,2021-12-14,清算の結了等,,,2015-10-05,1,,,,,テクノケア,0
636,3030001000893,登記記録の閉鎖等,0,2021-12-17,2021-12-14,浦和防水工業株式会社,,株式会社,埼玉県,さいたま市南区,大字大谷口７２０番地８,,11,108,3360042,,,2021-12-14,清算の結了等,,,2015-10-05,1,,,,,ウラワボウスイコウギョウ,0
639,3030001060649,登記記録の閉鎖等,0,2021-12-17,2021-12-15,株式会社竹内商会,,株式会社,埼玉県,本庄市,児玉町金屋２８７番地,,11,211,3670216,,,2021-12-15,清算の結了等,,,2015-10-05,1,,,,,タケウチショウカイ,0
645,3040001021113,登記記録の閉鎖等,0,2021-12-17,2021-12-15,株式会社ブレス,,株式会社,千葉県,八千代市,八千代台東１丁目２－１４和光堂ビル２階,,12,221,2760032,,,2021-12-15,清算の結了等,,,2015-10-05,1,,,,,ブレス,0
665,3050002033651,登記記録の閉鎖等,0,2021-12-17,2021-12-13,有限会社ケイシステム,,有限会社,茨城県,北相馬郡利根町,大字中田切４２９番地,,08,564,3001624,,,2021-12-13,清算の結了等,,,2015-10-05,1,,,,,ケイシステム,0
675,3070002004064,登記記録の閉鎖等,0,2021-12-17,2021-12-16,有限会社西澤商店,,有限会社,群馬県,前橋市,千代田町１丁目１０番１７号,,10,201,3710022,,,2021-12-16,清算の結了等,,,2015-10-05,1,,,,,ニシザワショウテン,0
690,3110002017788,登記記録の閉鎖等,0,2021-12-17,2021-12-14,有限会社渡文建具店,,有限会社,新潟県,三条市,本町３丁目８番２号,,15,204,9550071,,,2021-12-14,清算の結了等,,,2015-10-05,1,,,,,ワタブンタテグテン,0
702,3120002038791,登記記録の閉鎖等,0,2021-12-17,2021-12-14,有限会社ミサカ印刷,,有限会社,大阪府,大阪市中央区,（大阪市南区瓦屋町一丁目７番１３号）,,27,128,5390000,,,2021-12-14,清算の結了等,,,2015-10-05,1,,,,,ミサカインサツ,1
718,3140001088274,登記記録の閉鎖等,0,2021-12-17,2021-12-13,株式会社エル・シー・エフ,,株式会社,兵庫県,伊丹市,稲野町６丁目３８番地１,,28,207,6640861,,,2021-12-13,清算の結了等,,,2015-10-05,1,,,,,エルシーエフ,0
721,3140002043773,登記記録の閉鎖等,0,2021-12-17,2021-12-14,有限会社シーエスシー,,有限会社,兵庫県,尼崎市,東難波町５丁目２１番１９号,,28,202,6600892,,,2021-12-14,清算の結了等,,,2015-10-05,1,,,,,シーエスシー,0
729,3170001016711,登記記録の閉鎖等,0,2021-12-17,2021-12-14,キワシルバーサービス株式会社,,株式会社,和歌山県,紀の川市,北長田３６番地の１,,30,208,6496502,,,2021-12-14,清算の結了等,,,2021-08-12,1,,,,,キワシルバーサービス,0
734,3180001115520,登記記録の閉鎖等,0,2021-12-17,2021-12-14,株式会社エイト,,株式会社,愛知県,名古屋市天白区,土原４丁目６３４番地,,23,116,4680026,,,2021-12-14,清算の結了等,,,2015-10-05,1,,,,,エイト,0
742,3180302024107,登記記録の閉鎖等,0,2021-12-17,2021-12-15,有限会社酒井地所,,有限会社,愛知県,みよし市,福田町一本松４３番地,,23,236,4700225,,,2021-12-15,清算の結了等,,,2015-10-05,1,,,,,サカイジショ,0
750,3220002013875,登記記録の閉鎖等,0,2021-12-17,2021-12-10,有限会社田上青果,,有限会社,石川県,七尾市,大田町壱壱壱部２５番地,,17,202,9260006,,,2021-12-10,清算の結了等,,,2015-10-05,1,,,,,タガミセイカ,0
761,3240005003566,登記記録の閉鎖等,0,2021-12-17,2021-12-13,医療法人社団藤本皮膚泌尿器科医院,,その他の設立登記法人,広島県,東広島市,西条町西条東１０２４番地の４,,34,212,7390042,,,2021-12-13,清算の結了等,,,2015-10-05,1,,,,,フジモトヒフヒニョウキカイイン,0
768,3260003001652,登記記録の閉鎖等,0,2021-12-17,2021-12-07,合同会社アゴスト,,合同会社,岡山県,岡山市南区,豊成１丁目１６番３２号ペルル豊成６０４号室,,33,104,7000942,,,2021-12-07,清算の結了等,,,2015-10-05,1,,,,,アゴスト,0
783,3320001012579,登記記録の閉鎖等,0,2021-12-17,2021-12-15,株式会社メイユウジャパン,,株式会社,大分県,宇佐市,住吉町２丁目２７番地,,44,211,8720033,,,2021-12-15,清算の結了等,,,2015-10-05,1,,,,,メイユウジャパン,0
785,3330002026585,登記記録の閉鎖等,0,2021-12-17,2021-12-15,有限会社ラ・パンセ,,有限会社,熊本県,八代市,永碇町字新地１３５５番地,,43,202,8660885,,,2021-12-15,清算の結了等,,,2015-10-05,1,,,,,ラパンセ,0
786,3340001002545,登記記録の閉鎖等,0,2021-12-17,2021-12-15,大商ハウス株式会社,,株式会社,鹿児島県,鹿児島市,西陵６丁目３１番４３号,,46,201,8900032,,,2021-12-15,清算の結了等,,,2015-10-05,1,,,,,,0
795,3370003004974,登記記録の閉鎖等,0,2021-12-17,2021-12-13,日本流通食活機構合同会社,,合同会社,宮城県,仙台市若林区,清水小路６－１東日本不動産仙台ファーストビル１Ｆ,,04,103,9840075,,,2021-12-13,清算の結了等,,,2020-10-21,1,,,,,ニホンリュウツウショクカツキコウ,0
796,3370201002854,登記記録の閉鎖等,0,2021-12-17,2021-12-10,株式会社警備保障しんせい,,株式会社,宮城県,大崎市,岩出山字上真山機織３０番地２,,04,215,9896401,,,2021-12-10,清算の結了等,,,2015-10-05,1,,,,,ケイビホショウシンセイ,0
823,3500002014333,登記記録の閉鎖等,0,2021-12-17,2021-12-10,有限会社ディール,,有限会社,愛媛県,西条市,ひうち３番地２０,,38,206,7930003,,,2021-12-10,合併による解散等,3500002014060,令和３年１２月１０日愛媛県西条市ひうち３番地２０株式会社エクスプレス高瀬（3500002014060）に合併し解散,2015-10-05,1,,,,,ディール,0
830,4010001195999,登記記録の閉鎖等,0,2021-12-17,2021-12-10,株式会社ジーエッグ,,株式会社,東京都,千代田区,麹町２丁目１０番３号,,13,101,1020083,,,2021-12-10,清算の結了等,,,2018-11-08,1,,,,,ジーエッグ,0
837,4010005022118,登記記録の閉鎖等,0,2021-12-17,2021-12-15,一般社団法人丹沢ホールディングス,,その他の設立登記法人,東京都,千代田区,丸の内３丁目１番１号東京共同会計事務所内,,13,101,1000005,,,2021-12-15,清算の結了等,,,2015-10-05,1,,,,,タンザワホールディングス,0
866,4011002001403,登記記録の閉鎖等,0,2021-12-17,2021-12-15,エスアンドエムデザインファクトリー有限会社,,有限会社,東京都,渋谷区,千駄ヶ谷３丁目２８番５号,,13,113,1510051,,,2021-12-15,清算の結了等,,,2015-10-05,1,,,,,,0
872,4011301002498,登記記録の閉鎖等,0,2021-12-17,2021-12-14,株式会社後藤鉄工,,株式会社,東京都,杉並区,桃井２丁目８番２４号,,13,115,1670034,,,2021-12-14,清算の結了等,,,2015-10-05,1,,,,,ゴトウテッコウ,0
877,4011801013747,登記記録の閉鎖等,0,2021-12-17,2021-12-15,日立冷凍倉庫株式会社,,株式会社,東京都,足立区,入谷９丁目１６番２５号,,13,121,1210836,,,2021-12-15,清算の結了等,,,2015-10-05,1,,,,,ヒタチレイトウソウコ,0
905,4020001110412,登記記録の閉鎖等,0,2021-12-17,2021-12-01,株式会社ＩＤＭｏｂｉｌｅ,,株式会社,神奈川県,横浜市戸塚区,品濃町５４５番地５,,14,110,2440801,,,2021-12-01,合併による解散等,1020001007009,令和３年１２月１日横浜市戸塚区品濃町５４５番地５株式会社アイディーエム（1020001007009）に合併し解散,2015-10-05,1,,,,,アイディーモバイル,0
907,4020002053890,登記記録の閉鎖等,0,2021-12-17,2021-12-15,有限会社ヒロエ企画,,有限会社,神奈川県,横浜市都筑区,北山田７丁目１０番７号,,14,118,2240021,,,2021-12-15,清算の結了等,,,2015-10-05,1,,,,,ヒロエキカク,0
920,4030001141811,登記記録の閉鎖等,0,2021-12-17,2021-12-14,株式会社ブルーマウンテン,,株式会社,埼玉県,川越市,旭町１丁目７番地５７,,11,201,3501126,,,2021-12-14,清算の結了等,,,2021-04-16,1,"Blue Mountain Co.,Ltd.",Saitama,"1-7-57, Asahicho, Kawagoe shi",,ブルーマウンテン,0
943,4070002009938,登記記録の閉鎖等,0,2021-12-17,2021-12-14,有限会社コヤマ興産,,有限会社,群馬県,高崎市,高関町１７９番地,,10,202,3700043,,,2021-12-14,清算の結了等,,,2015-10-05,1,,,,,コヤマコウサン,0
944,4070002017940,登記記録の閉鎖等,0,2021-12-17,2021-12-13,有限会社寿緑地建工,,有限会社,群馬県,藤岡市,鬼石２１０番地５,,10,209,3701401,,,2021-12-13,清算の結了等,,,2015-10-05,1,,,,,コトブキリョクチケンコウ,0
945,4070002031677,登記記録の閉鎖等,0,2021-12-17,2021-12-16,有限会社山雅,,有限会社,群馬県,太田市,大原町２１９７番地２５,,10,205,3792304,,,2021-12-16,清算の結了等,,,2015-10-05,1,,,,,,0
950,4080401023992,登記記録の閉鎖等,0,2021-12-17,2021-12-13,株式会社盛徳,,株式会社,静岡県,磐田市,福田５４９７番地,,22,211,4371203,,,2021-12-13,清算の結了等,,,2019-11-21,1,,,,,セイトク,0
956,4110002011575,登記記録の閉鎖等,0,2021-12-17,2021-12-14,有限会社アルファーテック,,有限会社,新潟県,新潟市西蒲区,五之上１８３２番地,,15,108,9590508,,,2021-12-14,清算の結了等,,,2015-10-05,1,,,,,アルファーテック,0
966,4120001134459,登記記録の閉鎖等,0,2021-12-17,2021-12-14,株式会社タナカリース,,株式会社,大阪府,大阪市中央区,谷町５丁目２番７－５０６号,,27,128,5400012,,,2021-12-14,清算の結了等,,,2015-10-05,1,,,,,タナカリース,0
975,4120001215903,登記記録の閉鎖等,0,2021-12-17,2021-12-14,株式会社クールシカ,,株式会社,大阪府,大阪市中央区,博労町４丁目２番８号４Ｆ,,27,128,5410059,,,2021-12-14,合併による解散等,5122001023649,令和３年１２月１日大阪市都島区都島南通一丁目７番１８号粋粋街道株式会社（5122001023649）に合併し解散,2018-09-12,1,,,,,クールシカ,0
977,4120001231000,登記記録の閉鎖等,0,2021-12-17,2021-12-09,ＩｎＱｕａｒｔｉｋ　Ｊａｐａｎ株式会社,,株式会社,大阪府,大阪市阿倍野区,阪南町１丁目５０番３号,,27,119,5450021,,,2021-12-09,清算の結了等,,,2020-08-13,1,,,,,インクァテックジャパン,0
984,4120005003271,登記記録の閉鎖等,0,2021-12-17,2021-12-16,一般社団法人大阪茶道会,,その他の設立登記法人,大阪府,大阪市中央区,内平野町２丁目２番７号,,27,128,5400037,,,2021-12-16,清算の結了等,,,2015-10-05,1,,,,,,0
987,4120101036217,登記記録の閉鎖等,0,2021-12-17,2021-12-10,ウエノ薬品工業株式会社,,株式会社,大阪府,岸和田市,野田町１丁目１１番４号,,27,202,5960076,,,2021-12-10,清算の結了等,,,2015-10-05,1,,,,,ウエノヤクヒンコウギョウ,0
988,4120101041200,登記記録の閉鎖等,0,2021-12-17,2021-12-10,株式会社和泉精密金型製作所,,株式会社,大阪府,和泉市,のぞみ野２丁目２番３１号,,27,219,5941105,,,2021-12-10,清算の結了等,,,2015-10-05,1,,,,,イズミセイミツカナガタセイサクショ,0
1001,4130001063112,登記記録の閉鎖等,0,2021-12-17,2021-12-14,株式会社Ｓｉｒｉｕｓ,,株式会社,京都府,京都市伏見区,向島四ツ谷池１４－８６－２－５１０号,,26,109,6128136,,,2021-12-14,清算の結了等,,,2018-10-12,1,,,,,,0
1004,4140001114938,登記記録の閉鎖等,0,2021-12-17,2021-12-14,株式会社ＫＳアクアリウム,,株式会社,東京都,千代田区,内神田２丁目３番４号,,13,101,1010047,,,2021-12-14,清算の結了等,,,2019-09-24,1,,,,,ケーエスアクアリウム,0
1014,4180001062951,登記記録の閉鎖等,0,2021-12-17,2021-12-14,株式会社井上,,株式会社,愛知県,名古屋市中区,正木３丁目１番２４号,,23,106,4600024,,,2021-12-14,清算の結了等,,,2015-10-05,1,,,,,イノウエ,0
1015,4180001085721,登記記録の閉鎖等,0,2021-12-17,2021-12-15,クリエイトコミュニケーション株式会社,,株式会社,愛知県,稲沢市,祖父江町上牧１９８番地,,23,220,4950031,,,2021-12-15,清算の結了等,,,2015-10-05,1,,,,,クリエイトコミュニケーション,0
1019,4180005015229,登記記録の閉鎖等,0,2021-12-17,2021-12-16,一般社団法人名古屋競馬馬主会,,その他の設立登記法人,愛知県,名古屋市港区,泰明町１丁目１番地,,23,111,4550069,,,2021-12-16,清算の結了等,,,2015-10-05,1,,,,,ナゴヤケイババヌシカイ,0
1020,4180301010668,登記記録の閉鎖等,0,2021-12-17,2021-12-15,キユーソーロジック株式会社,,株式会社,東京都,調布市,調布ケ丘３丁目５０番地１,,13,208,1820021,,,2021-12-15,合併による解散等,1120001150005,令和３年１２月１日大阪府枚方市野村中町２２８番地キユーソーアレスト株式会社（1120001150005）に合併し解散,2015-10-05,1,,,,,キユーソーロジック,0
1023,4180302027785,登記記録の閉鎖等,0,2021-12-17,2021-12-15,有限会社ぽあんか,,有限会社,愛知県,新城市,石田字西末旨４１番地,,23,221,4411342,,,2021-12-15,清算の結了等,,,2015-10-05,1,,,,,ポアンカ,0
1031,4210002007737,登記記録の閉鎖等,0,2021-12-17,2021-12-13,有限会社オーテック,,有限会社,福井県,坂井市,丸岡町高柳第２号１３番地３５,,18,210,9100373,,,2021-12-13,清算の結了等,,,2015-10-05,1,,,,,オーテック,0
1036,4240001000590,登記記録の閉鎖等,0,2021-12-17,2021-12-13,天野ビル株式会社,,株式会社,広島県,広島市中区,西白島町７番３３号,,34,101,7300005,,,2021-12-13,清算の結了等,,,2015-10-05,1,,,,,アマノビル,0
1059,4290002037891,登記記録の閉鎖等,0,2021-12-17,2021-12-13,有限会社ＴＡＳ,,有限会社,福岡県,糟屋郡篠栗町,大字津波黒２０番地１,,40,342,8112415,,,2021-12-13,清算の結了等,,,2015-10-05,1,,,,,タス,0
1070,4330001022659,登記記録の閉鎖等,0,2021-12-17,2021-12-14,株式会社原崎ビルド,,株式会社,熊本県,熊本市中央区,黒髪６丁目２６番４６号,,43,101,8600862,,,2021-12-14,合併による解散等,6330001028183,令和３年１２月５日熊本市東区新生一丁目２８番１５号株式会社ＭＡＲＳＥ（6330001028183）に合併し解散,2016-04-08,1,,,,,ハラサキビルド,0
1089,4410001004302,登記記録の閉鎖等,0,2021-12-17,2021-12-14,株式会社共栄不動産,,株式会社,秋田県,秋田市,南通築地４番１０号アークシティ築地第２、１０４号,,05,201,0100013,,,2021-12-14,合併による解散等,6380001020037,令和３年１２月１０日福島市吉倉字前田４９番地１株式会社共栄不動産（6380001020037）に合併し解散,2015-10-05,1,,,,,キョウエイフドウサン,0
1097,4480002000558,登記記録の閉鎖等,0,2021-12-17,2021-12-16,有限会社エスエイチエム,,有限会社,徳島県,徳島市,寺島本町東３丁目１５番地５,,36,201,7700832,,,2021-12-16,清算の結了等,,,2015-10-05,1,,,,,エスエイチエム,0
1105,5010001197375,登記記録の閉鎖等,0,2021-12-17,2021-12-13,株式会社ＫＦ製薬,,株式会社,東京都,千代田区,神田駿河台２丁目１－１９アルベルゴ御茶ノ水６１１号室,,13,101,1010062,,,2021-12-13,合併による解散等,5030001119039,令和３年１１月２３日東京都台東区上野七丁目６番１１号第一下谷ビル７階株式会社青成堂（5030001119039）に合併し解散,2019-01-16,1,,,,,ケーエフセイヤク,0
1142,5010803001552,登記記録の閉鎖等,0,2021-12-17,2021-12-09,ＳＯＬＡＩＲＥ合同会社,,合同会社,東京都,港区,浜松町２丁目２番１５号,,13,103,1050013,,,2021-12-09,清算の結了等,,,2015-10-05,1,,,,,ソレール,0
1156,5011302010557,登記記録の閉鎖等,0,2021-12-17,2021-12-14,有限会社コンサルタント事務所ペテセ,,有限会社,東京都,立川市,富士見町６丁目３２番２０１号,,13,202,1900013,,,2021-12-14,清算の結了等,,,2015-10-05,1,,,,,コンサルタントジムショペセテ,0
1170,5011805002191,登記記録の閉鎖等,0,2021-12-17,2021-12-15,一般社団法人美育,,その他の設立登記法人,千葉県,市原市,桜台２丁目１２番地５,,12,219,2990127,,,2021-12-15,清算の結了等,,,2015-10-05,1,,,,,ビイク,0
1173,5012401018846,登記記録の閉鎖等,0,2021-12-17,2021-12-16,株式会社スリーボックス,,株式会社,東京都,三鷹市,大沢４丁目７番９号,,13,204,1810015,,,2021-12-16,清算の結了等,,,2015-10-05,1,,,,,スリーボックス,0
1180,5012801000486,登記記録の閉鎖等,0,2021-12-17,2021-12-16,株式会社コスモメディア,,株式会社,東京都,立川市,高松町１丁目１７番２７号,,13,202,1900011,,,2021-12-16,清算の結了等,,,2015-10-05,1,,,,,コスモメディア,0
1187,5020001012062,登記記録の閉鎖等,0,2021-12-17,2021-12-15,株式会社ポピー,,株式会社,神奈川県,横浜市青葉区,美しが丘１丁目９番地１,,14,117,2250002,,,2021-12-15,清算の結了等,,,2015-10-05,1,,,,,ポピー,0
1207,5021002059183,登記記録の閉鎖等,0,2021-12-17,2021-12-14,有限会社濱野,00013774,有限会社,神奈川県,平塚市,八重咲町１番９号,,14,203,2540811,,,2021-12-14,清算の結了等,,,2015-10-05,1,,,,,ハマノ,0
1226,5040002094610,登記記録の閉鎖等,0,2021-12-17,2021-12-14,有限会社なる,,有限会社,千葉県,柏市,松葉町６丁目２５番地１０,,12,217,2770827,,,2021-12-14,清算の結了等,,,2015-10-05,1,,,,,ナル,0
1233,5050001029509,登記記録の閉鎖等,0,2021-12-17,2021-12-10,株式会社東日本自動車流通センター,,株式会社,茨城県,常総市,水海道山田町４６３６番地１,,08,211,3030031,,,2021-12-10,清算の結了等,,,2015-10-05,1,,,,,,0
1238,5070001008270,登記記録の閉鎖等,0,2021-12-17,2021-12-16,フユキ建販株式会社,,株式会社,群馬県,高崎市,中尾町６９８番地１２２,,10,202,3700001,,,2021-12-16,清算の結了等,,,2015-10-05,1,,,,,フユキケンパン,0
1245,5080102020719,登記記録の閉鎖等,0,2021-12-17,2021-12-14,有限会社ルミエール,,有限会社,神奈川県,鎌倉市,材木座１丁目４番１６号３０２,,14,204,2480013,,,2021-12-14,清算の結了等,,,2015-10-05,1,,,,,ルミエール,0
1254,5110002022506,登記記録の閉鎖等,0,2021-12-17,2021-12-14,有限会社金谷金物・硝子店,,有限会社,新潟県,上越市,本町６丁目１番１６号,,15,222,9430832,,,2021-12-14,清算の結了等,,,2015-10-05,1,,,,,カナヤカナモノガラステン,0
1255,5120001010782,登記記録の閉鎖等,0,2021-12-17,2021-12-13,株式会社針中野花義葬祭,,株式会社,大阪府,大阪市東住吉区,鷹合２丁目１４番２９号,,27,121,5460014,,,2021-12-13,清算の結了等,,,2015-10-05,1,,,,,,0
1256,5120001166311,登記記録の閉鎖等,0,2021-12-17,2021-12-14,サンソリット株式会社,,株式会社,大阪府,大阪市北区,豊崎３丁目１９番３号,,27,127,5310072,,,2021-12-14,清算の結了等,,,2015-10-05,1,,,,,サンソリット,0
1265,5120101009956,登記記録の閉鎖等,0,2021-12-17,2021-12-10,株式会社ユニバーサルエアー,,株式会社,大阪府,堺市西区,北条町１丁３０番１４号,,27,144,5938302,,,2021-12-10,清算の結了等,,,2015-10-05,1,,,,,ユニバーサルエアー,0
1266,5120101021069,登記記録の閉鎖等,0,2021-12-17,2021-12-10,株式会社オートセンターウイング,,株式会社,大阪府,富田林市,大字廿山６４２番地１,,27,214,5840081,,,2021-12-10,清算の結了等,,,2015-10-05,1,,,,,オートセンターウイング,0
1276,5130001040861,登記記録の閉鎖等,0,2021-12-17,2021-12-15,橋立フーズ株式会社,,株式会社,京都府,与謝郡与謝野町,字男山８００番地の１,,26,465,6292261,,,2021-12-15,清算の結了等,,,2015-10-05,1,,,,,,0
1283,5140002065246,登記記録の閉鎖等,0,2021-12-17,2021-12-14,有限会社柳川土木,,有限会社,兵庫県,川西市,加茂５丁目３番１３号,,28,217,6660025,,,2021-12-14,清算の結了等,,,2015-10-05,1,,,,,ヤナガワドボク,0
1284,5150002008419,登記記録の閉鎖等,0,2021-12-17,2021-12-14,有限会社蕨岡,,有限会社,奈良県,橿原市,醍醐町５８５番地,,29,205,6340072,,,2021-12-14,清算の結了等,,,2015-10-05,1,,,,,ワラビオカ,0
1311,5220001001920,登記記録の閉鎖等,0,2021-12-17,2021-12-08,上山建設株式会社,,株式会社,石川県,金沢市,緑が丘６番１５号,,17,201,9218117,,,2021-12-08,清算の結了等,,,2021-10-08,1,,,,,ウエヤマケンセツ,0
1329,5290001039467,登記記録の閉鎖等,0,2021-12-17,2021-12-10,株式会社エヌオーツーギフト,,株式会社,福岡県,糟屋郡須惠町,大字植木６４０番地,,40,344,8112112,,,2021-12-10,清算の結了等,,,2015-10-05,1,,,,,エヌオーツーギフト,0
1335,5290001079406,登記記録の閉鎖等,0,2021-12-17,2021-12-10,株式会社ＡＬＥＳ,,株式会社,福岡県,福岡市中央区,高砂２丁目９番１９号１Ｆ,,40,133,8100011,,,2021-12-10,清算の結了等,,,2017-10-19,1,,,,,アレス,0
1340,5310002010341,登記記録の閉鎖等,0,2021-12-17,2021-12-14,有限会社渋川洋傘店,,有限会社,長崎県,佐世保市,島瀬町１０番７号,,42,202,8570806,,,2021-12-14,清算の結了等,,,2015-10-05,1,,,,,シブカワヨウガサテン,0
1370,5460002000501,登記記録の閉鎖等,0,2021-12-17,2021-12-15,有限会社加賀,,有限会社,北海道,釧路市,鳥取北１０丁目２１番２号,,01,206,0840907,,,2021-12-15,合併による解散等,9460003000653,令和３年１２月１５日北海道釧路市鶴野東五丁目２４番２０号合同会社加賀モータース（9460003000653）に合併し解散,2015-10-05,1,,,,,カガ,0
1382,6010001184174,登記記録の閉鎖等,0,2021-12-17,2021-12-15,株式会社ＣＲＥインベストメント,,株式会社,愛知県,豊橋市,向山大池町１２番地の６,,23,201,4400862,,,2021-12-15,清算の結了等,,,2017-06-12,1,,,,,シーアールイーインベストメント,0
1403,6010401146559,登記記録の閉鎖等,0,2021-12-17,2021-12-09,株式会社ＮＥＷ　ＰＩＥＣＥ,,株式会社,東京都,港区,赤坂９丁目６番２６号フォンテ六本木８０７号室,,13,103,1070052,,,2021-12-09,清算の結了等,,,2019-07-04,1,,,,,ニューピース,0
1410,6010403022031,登記記録の閉鎖等,0,2021-12-17,2021-12-10,雲龍合同会社,,合同会社,東京都,港区,元赤坂１丁目１番８号株式会社赤坂国際会計内,,13,103,1070051,,,2021-12-10,清算の結了等,,,2019-12-18,1,,,,,ウンリュウ,0
1422,6011001054607,登記記録の閉鎖等,0,2021-12-17,2021-12-01,ベシュレジャパン株式会社,,株式会社,東京都,渋谷区,笹塚１丁目２６番４号,,13,113,1510073,,,2021-12-01,合併による解散等,7011001020756,令和３年１２月１日東京都渋谷区笹塚一丁目２６番４号ベクトル株式会社（7011001020756）に合併し解散,2015-10-05,1,,,,,,0
1432,6011202001416,登記記録の閉鎖等,0,2021-12-17,2021-12-14,有限会社オリバー,,有限会社,東京都,中野区,中野１丁目８番１０号,,13,114,1640001,,,2021-12-14,清算の結了等,,,2015-10-05,1,,,,,オリバー,0
1444,6012701003423,登記記録の閉鎖等,0,2021-12-17,2021-12-13,株式会社アクティ,,株式会社,東京都,東久留米市,前沢５丁目２６番１９号,,13,222,2030032,,,2021-12-13,清算の結了等,,,2015-10-05,1,,,,,アクティ,0
1448,6012702013207,登記記録の閉鎖等,0,2021-12-17,2021-12-15,有限会社ニシダ,,有限会社,東京都,東久留米市,小山２丁目１６番７号,,13,222,2030051,,,2021-12-15,清算の結了等,,,2015-10-05,1,,,,,ニシダ,0
1454,6020001038734,登記記録の閉鎖等,0,2021-12-17,2021-12-01,株式会社アイディーエムパートナーズ,,株式会社,神奈川県,横浜市戸塚区,品濃町５１３番地７,,14,110,2440801,,,2021-12-01,合併による解散等,1020001007009,令和３年１２月１日横浜市戸塚区品濃町５４５番地５株式会社アイディーエム（1020001007009）に合併し解散,2015-10-05,1,,,,,アイディーエムパートナーズ,0
1459,6020001129649,登記記録の閉鎖等,0,2021-12-17,2021-12-15,株式会社Ｔｈｅ　Ｆｕｓａｒｉｕｍ　Ｃｏｍｐａｎｙ,,株式会社,神奈川県,横浜市泉区,和泉町１３４９番地,,14,116,2450016,,,2021-12-15,清算の結了等,,,2019-01-29,1,,,,,ザフザリウムカンパニー,0
1471,6021001058417,登記記録の閉鎖等,0,2021-12-17,2021-12-08,株式会社祥山,,株式会社,神奈川県,相模原市南区,南台５丁目１１番１９号ペアナードオダサガ２０５,,14,153,2520314,,,2021-12-08,清算の結了等,,,2016-02-01,1,,,,,ショウザン,0
1488,6030005018161,登記記録の閉鎖等,0,2021-12-17,2021-12-14,特定非営利活動法人みつばさ学童クラブ,,その他の設立登記法人,埼玉県,狭山市,中央４丁目３０番３号,,11,215,3501308,,,2021-12-14,清算の結了等,,,2016-10-14,1,,,,,ミツバサガクドウクラブ,0
1491,6040001033626,登記記録の閉鎖等,0,2021-12-17,2021-12-13,山形緑化株式会社,,株式会社,千葉県,市川市,南八幡３丁目１４番２３－２０７号,,12,203,2720023,,,2021-12-13,清算の結了等,,,2015-10-05,1,,,,,ヤマガタリョッカ,0
1501,6040003007157,登記記録の閉鎖等,0,2021-12-17,2021-12-15,合同会社みやまケアプランサービス,,合同会社,千葉県,千葉市若葉区,みつわ台５丁目２９番４棟４０８号,,12,104,2640032,,,2021-12-15,清算の結了等,,,2015-10-05,1,,,,,ミヤマケアプランサービス,0
1541,6130001048037,登記記録の閉鎖等,0,2021-12-17,2021-12-15,株式会社丸協,,株式会社,京都府,京都市上京区,智恵光院通五辻上る紋屋町３００番地,00111137,26,102,6028447,,,2021-12-15,清算の結了等,,,2015-10-05,1,,,,,マルキョウ,0
1552,6140005022466,登記記録の閉鎖等,0,2021-12-17,2021-12-15,ＮＰＯ法人なかよしピーチクラブ,,その他の設立登記法人,兵庫県,神戸市東灘区,魚崎北町５丁目９番８号,,28,101,6580082,,,2021-12-15,清算の結了等,,,2015-10-05,1,,,,,ナカヨシピーチクラブ,0
1554,6150001013609,登記記録の閉鎖等,0,2021-12-17,2021-12-14,株式会社山崎設備,,株式会社,奈良県,香芝市,高１１５番地１,,29,210,6390241,,,2021-12-14,清算の結了等,,,2015-10-05,1,,,,,ヤマザキセツビ,0
1563,6180001127934,登記記録の閉鎖等,0,2021-12-17,2021-12-14,株式会社ミニミニ愛知,,株式会社,愛知県,名古屋市中区,錦３丁目１６番２７号,,23,106,4600003,,,2021-12-14,清算の結了等,,,2017-05-19,1,,,,,ミニミニアイチ,0
1568,6200001009642,登記記録の閉鎖等,0,2021-12-17,2021-12-16,株式会社たけなか,,株式会社,岐阜県,各務原市,鵜沼東町５丁目１８８番地,,21,213,5090126,,,2021-12-16,清算の結了等,,,2015-10-05,1,,,,,タケナカ,0
1574,6240001011322,登記記録の閉鎖等,0,2021-12-17,2021-12-10,三川運輸株式会社,,株式会社,広島県,広島市安佐北区,安佐町大字久地字名原２６８３番地１５１,,34,106,7313362,,,2021-12-10,清算の結了等,,,2021-07-27,1,,,,,ミカワウンユ,0
1576,6240001021494,登記記録の閉鎖等,0,2021-12-17,2021-12-13,株式会社スクルド,,株式会社,広島県,広島市西区,東観音町１２番７号,,34,104,7330032,,,2021-12-13,清算の結了等,,,2015-10-05,1,,,,,スクルド,0
1584,6240002049213,登記記録の閉鎖等,0,2021-12-17,2021-12-14,有限会社カワイ建設,,有限会社,広島県,安芸郡府中町,宮の町４丁目１８番５号,,34,302,7350005,,,2021-12-14,清算の結了等,,,2015-10-05,1,,,,,カワイケンセツ,0
1593,6260001033653,登記記録の閉鎖等,0,2021-12-17,2021-12-17,株式会社ＴＵウォーターテクノエンジニアリング,,株式会社,岡山県,倉敷市,中畝１０丁目３番１０号,,33,202,7128051,,,2021-12-17,清算の結了等,,,2019-10-17,1,,,,,ティーユーウォーターテクノエンジニアリング,0
1606,6320001015315,登記記録の閉鎖等,0,2021-12-17,2021-12-16,株式会社梅高,,株式会社,大分県,宇佐市,大字猿渡１０４８番地の１５,,44,211,8790314,,,2021-12-16,清算の結了等,,,2016-12-02,1,,,,,ウメタカ,0
1616,6360001010106,登記記録の閉鎖等,0,2021-12-17,2021-12-01,株式会社ＭＫプランニング,,株式会社,沖縄県,那覇市,若狭３丁目４番５号,,47,201,9000031,,,2021-12-01,合併による解散等,1360002005423,令和３年１２月１日沖縄県那覇市銘苅一丁目１８番１号株式会社沖広開発（1360002005423）に合併し解散,2015-10-05,1,,,,,エムケープランニング,0
1620,6360002016440,登記記録の閉鎖等,0,2021-12-17,2021-12-07,有限会社天照閣,,有限会社,沖縄県,中頭郡北谷町,字上勢頭８４２番２,,47,326,9040101,,,2021-12-07,清算の結了等,,,2015-10-05,1,,,,,テンショウカク,0
1622,6370001039929,登記記録の閉鎖等,0,2021-12-17,2021-12-16,ジンホア仙台株式会社,,株式会社,宮城県,仙台市若林区,六丁の目西町８番８号,,04,103,9840011,,,2021-12-16,清算の結了等,,,2016-07-08,1,,,,,ジンホアセンダイ,0
1636,6430001031920,登記記録の閉鎖等,0,2021-12-17,2021-12-16,株式会社カサイ石油,,株式会社,北海道,札幌市北区,太平七条４丁目２番１９号,,01,102,0028007,,,2021-12-16,清算の結了等,,,2015-10-05,1,,,,,カサイセキユ,0
1644,6460102001869,登記記録の閉鎖等,0,2021-12-17,2021-12-15,有限会社タカハシ住機,,有限会社,北海道,帯広市,西二十四条南４丁目３７番地４,,01,207,0802474,,,2021-12-15,清算の結了等,,,2015-10-05,1,,,,,タカハシジュウキ,0
1646,6470005004290,登記記録の閉鎖等,0,2021-12-17,2021-12-15,医療法人社団仁誓会,,その他の設立登記法人,香川県,観音寺市,植田町１０１０番地,,37,205,7680012,,,2021-12-15,清算の結了等,,,2015-10-05,1,,,,,ジンセイカイ,0
1662,7010005014624,登記記録の閉鎖等,0,2021-12-17,2021-12-10,特定目的会社ソニック・インベストメンツ５,,その他の設立登記法人,東京都,港区,元赤坂１丁目１番８号株式会社赤坂国際会計内,,13,103,1070051,,,2021-12-10,清算の結了等,,,2015-10-05,1,,,,,ソニックインベストメンツファイブ,0
1670,7010401067028,登記記録の閉鎖等,0,2021-12-17,2021-12-08,株式会社パワーツリー,,株式会社,東京都,港区,北青山２丁目７番２５号,,13,103,1070061,,,2021-12-08,合併による解散等,9010401099201,令和３年１２月１日東京都港区赤坂四丁目３番２８号株式会社エステツイン（9010401099201）に合併し解散,2015-10-05,1,,,,,パワーツリー,0
1693,7010702007624,登記記録の閉鎖等,0,2021-12-17,2021-12-14,有限会社前島工業所,,有限会社,東京都,品川区,小山台１丁目２番１０号,,13,109,1420061,,,2021-12-14,清算の結了等,,,2015-10-05,1,,,,,マエジマコウギョウショ,0
1714,7011501009365,登記記録の閉鎖等,0,2021-12-17,2021-12-10,株式会社和同,,株式会社,東京都,荒川区,町屋１丁目１番８号オリエントビル,,13,118,1160001,,,2021-12-10,清算の結了等,,,2015-10-05,1,,,,,ワドウ,0
1717,7011702013604,登記記録の閉鎖等,0,2021-12-17,2021-12-14,有限会社エルアール,,有限会社,東京都,江戸川区,西葛西３丁目８番７－１２０５号,,13,123,1340088,,,2021-12-14,清算の結了等,,,2015-10-05,1,,,,,エルアール,0
1723,7013101004531,登記記録の閉鎖等,0,2021-12-17,2021-12-14,株式会社ウエーブロック,,株式会社,東京都,青梅市,千ヶ瀬町３丁目３８８番地の６,,13,205,1980043,,,2021-12-14,清算の結了等,,,2015-10-05,1,,,,,,0
1744,7021001066526,登記記録の閉鎖等,0,2021-12-17,2021-12-14,相模原アスリート応援団株式会社,,株式会社,神奈川県,相模原市緑区,西橋本５丁目４番２１号さがみはら産業創造センター内,,14,151,2520131,,,2021-12-14,清算の結了等,,,2019-01-29,1,,,,,サガミハラアスリートオウエンダン,0
1750,7030001094528,登記記録の閉鎖等,0,2021-12-17,2021-12-14,株式会社山栄,,株式会社,埼玉県,川口市,大字新堀１０３０番地の１４,,11,203,3340061,,,2021-12-14,清算の結了等,,,2015-10-05,1,,,,,サンエイ,0
1766,7040003011637,登記記録の閉鎖等,0,2021-12-17,2021-12-15,株式会社ｗｉｎｄ　ｆｅａｔｈｅｒｓ,,株式会社,千葉県,市川市,宝２丁目１４－２－２０５サンフローレ,,12,203,2720122,,,2021-12-15,清算の結了等,,,2018-05-14,1,,,,,ウィンドフェザーズ,0
1770,7050002026866,登記記録の閉鎖等,0,2021-12-17,2021-12-13,鹿港運輸有限会社,,有限会社,茨城県,鹿嶋市,大字小宮作１４６番地,,08,222,3140003,,,2021-12-13,清算の結了等,,,2015-10-05,1,,,,,ロッコウウンユ,0
1784,7100003001177,登記記録の閉鎖等,0,2021-12-17,2021-12-14,株式会社三井酒店,,株式会社,長野県,上田市,中央６丁目１４番５号,,20,203,3860012,,,2021-12-14,清算の結了等,,,2015-10-05,1,,,,,ミツイサケテン,0
1792,7120001215909,登記記録の閉鎖等,0,2021-12-17,2021-12-14,株式会社フィットオン,,株式会社,大阪府,大阪市北区,天神橋３丁目７番１９号,,27,127,5300041,,,2021-12-14,合併による解散等,5122001023649,令和３年１２月１日大阪市都島区都島南通一丁目７番１８号粋粋街道株式会社（5122001023649）に合併し解散,2018-09-13,1,,,,,フィットオン,0
1802,7120102017758,登記記録の閉鎖等,0,2021-12-17,2021-12-13,有限会社アーサー,,有限会社,大阪府,富田林市,宮町３丁目２００８番地２８,,27,214,5840011,,,2021-12-13,清算の結了等,,,2015-10-05,1,,,,,アーサー,0
1832,7180002076246,登記記録の閉鎖等,0,2021-12-17,2021-12-14,有限会社グランデ大西,,有限会社,愛知県,一宮市,北方町北方字内沼２２３番地,,23,203,4938001,,,2021-12-14,清算の結了等,,,2015-10-05,1,,,,,グランデオオニシ,0
1837,7180305008895,登記記録の閉鎖等,0,2021-12-17,2021-12-14,ＫＤ人材支援協同組合,,その他の設立登記法人,愛知県,碧南市,羽根町４丁目７１番地１,,23,209,4470851,,,2021-12-14,清算の結了等,,,2019-04-10,1,,,,,ケーディジンザイシエン,0
1842,7230001005357,登記記録の閉鎖等,0,2021-12-17,2021-12-14,株式会社山口電気工業,,株式会社,富山県,富山市,八尾町西葛坂２８番地,,16,201,9392401,,,2021-12-14,清算の結了等,,,2015-10-05,1,,,,,ヤマグチデンキコウギョウ,0
1845,7240001021881,登記記録の閉鎖等,0,2021-12-17,2021-12-16,株式会社家達,,株式会社,広島県,広島市西区,観音本町１丁目３番１６号,,34,104,7330033,,,2021-12-16,清算の結了等,,,2015-10-05,1,,,,,,0
1872,7330001015057,登記記録の閉鎖等,0,2021-12-17,2021-12-15,天草柑橘株式会社,,株式会社,熊本県,天草市,有明町上津浦２３８２番地,,43,215,8617311,,,2021-12-15,清算の結了等,,,2015-10-05,1,,,,,アマクサカンキツ,0
1875,7360001022397,登記記録の閉鎖等,0,2021-12-17,2021-12-14,株式会社ＷＵＢｐｅｄｉａ,,株式会社,沖縄県,那覇市,松尾１丁目２番３号,,47,201,9000014,,,2021-12-14,清算の結了等,,,2017-06-01,1,,,,,ワブペディア,0
1892,7390001006174,登記記録の閉鎖等,0,2021-12-17,2021-12-15,くろもりアルファフーズ株式会社,,株式会社,山形県,酒田市,浜中字小浜７８番地の１,,06,204,9980112,,,2021-12-15,清算の結了等,,,2015-10-05,1,,,,,,0
1922,8010401006380,登記記録の閉鎖等,0,2021-12-17,2021-12-10,株式会社オフィス・タック,,株式会社,東京都,港区,虎ノ門１丁目４番４号川村ビル５Ｆ,,13,103,1050001,,,2021-12-10,清算の結了等,,,2015-10-05,1,,,,,オフィスタック,0
1928,8010403023110,登記記録の閉鎖等,0,2021-12-17,2021-12-10,合同会社虎ノ門,,合同会社,東京都,港区,元赤坂１丁目１番８号株式会社赤坂国際会計内,,13,103,1070051,,,2021-12-10,清算の結了等,,,2020-06-10,1,,,,,トラノモン,0
1930,8010501026659,登記記録の閉鎖等,0,2021-12-17,2021-12-15,アコヤパール株式会社,,株式会社,東京都,台東区,上野５丁目１３番７号ＹＭＤビル２Ｆ,,13,106,1100005,,,2021-12-15,清算の結了等,,,2015-10-05,1,,,,,アコヤパール,0
1941,8011001121116,登記記録の閉鎖等,0,2021-12-17,2021-12-08,株式会社エクソダス,,株式会社,東京都,渋谷区,渋谷２丁目２２番３号,,13,113,1500002,,,2021-12-08,合併による解散等,8011001067978,令和３年１１月３０日東京都渋谷区渋谷二丁目２２番３号株式会社ＣＡＭＰＦＩＲＥ（8011001067978）に合併し解散,2018-03-13,1,,,,,エクソダス,0
1971,8020001094552,登記記録の閉鎖等,0,2021-12-17,2021-12-14,株式会社丸進,,株式会社,神奈川県,藤沢市,遠藤６２４９番地の３,,14,205,2520816,,,2021-12-14,清算の結了等,,,2015-10-05,1,,,,,マルシン,0
1976,8020002032750,登記記録の閉鎖等,0,2021-12-17,2021-12-01,株式会社エフ・エム・クラフト,,株式会社,神奈川県,横浜市戸塚区,品濃町５４５番地５,,14,110,2440801,,,2021-12-01,合併による解散等,1020001007009,令和３年１２月１日横浜市戸塚区品濃町５４５番地５株式会社アイディーエム（1020001007009）に合併し解散,2015-10-05,1,,,,,エフエムクラフト,0
1978,8020002045018,登記記録の閉鎖等,0,2021-12-17,2021-12-14,有限会社宝明,,有限会社,神奈川県,横浜市中区,山下町１８９番地,,14,104,2310023,,,2021-12-14,清算の結了等,,,2015-10-05,1,,,,,ホウメイ,0
1979,8020003004451,登記記録の閉鎖等,0,2021-12-17,2021-12-13,合同会社ジーノーツ,,合同会社,神奈川県,横浜市青葉区,あざみ野３丁目２番地あざみ野団地２２棟１０２号,,14,117,2250011,,,2021-12-13,清算の結了等,,,2015-10-05,1,,,,,ジーノーツ,0
1993,8030002017040,登記記録の閉鎖等,0,2021-12-17,2021-12-13,有限会社地圏探査技術研究所,,有限会社,埼玉県,さいたま市南区,別所１丁目２番９号,,11,108,3360021,,,2021-12-13,清算の結了等,,,2015-10-05,1,,,,,チケンタンサギジュツケンキュウショ,0
2006,8050002037912,登記記録の閉鎖等,0,2021-12-17,2021-12-14,有限会社平安交通,,有限会社,茨城県,牛久市,牛久町五反田３２５９番地１９,,08,219,3001221,,,2021-12-14,清算の結了等,,,2015-10-05,1,,,,,ヘイアンコウツウ,0
2009,8070002008589,登記記録の閉鎖等,0,2021-12-17,2021-12-14,有限会社新井装蹄所,,有限会社,群馬県,高崎市,上中居町２７４番地３,,10,202,3700851,,,2021-12-14,清算の結了等,,,2015-10-05,1,,,,,アライソウテイジョ,0
2014,8090001014751,登記記録の閉鎖等,0,2021-12-17,2021-12-13,株式会社レッグス,,株式会社,山梨県,甲府市,青沼１丁目１２番２７号,,19,201,4000867,,,2021-12-13,清算の結了等,,,2016-08-29,1,,,,,レッグス,0
2040,8120101037657,登記記録の閉鎖等,0,2021-12-17,2021-12-13,松喜コンクリート工業株式会社,,株式会社,大阪府,岸和田市,土生滝町８９６番地,,27,202,5960844,,,2021-12-13,清算の結了等,,,2015-10-05,1,,,,,マツキコンクリートコウギョウ,0
2049,8120901016744,登記記録の閉鎖等,0,2021-12-17,2021-12-15,株式会社ウエテック,,株式会社,大阪府,吹田市,岸部中３丁目２２番８号,,27,205,5640002,,,2021-12-15,清算の結了等,,,2015-10-05,1,,,,,ウエテック,0
2055,8130002035206,登記記録の閉鎖等,0,2021-12-17,2021-12-14,ウエアハウス有限会社,,有限会社,京都府,舞鶴市,字布敷１４番地の１,,26,202,6240806,,,2021-12-14,清算の結了等,,,2015-10-05,1,,,,,ウエアハウス,0
2079,8180301006373,登記記録の閉鎖等,0,2021-12-17,2021-12-15,東洋ソーケン株式会社,,株式会社,愛知県,豊橋市,向草間町字北新切６７番地の１,,23,201,4418142,,,2021-12-15,清算の結了等,,,2015-10-05,1,,,,,トウヨウソーケン,0
2092,8210002002610,登記記録の閉鎖等,0,2021-12-17,2021-12-10,中村林業有限会社,,有限会社,福井県,福井市,本折町第１６号２０番地,,18,201,9103642,,,2021-12-10,清算の結了等,,,2015-10-05,1,,,,,ナカムラリンギョウ,0
2104,8250002013414,登記記録の閉鎖等,0,2021-12-17,2021-12-10,有限会社萩国際観光ホテル楽天池,,有限会社,山口県,萩市,大字椿東６５０９番地,,35,204,7580011,,,2021-12-10,清算の結了等,,,2021-09-24,1,,,,,ハギコクサイカンコウホテルラクテンチ,0
2115,8290002019358,登記記録の閉鎖等,0,2021-12-17,2021-12-08,有限会社カジハラ,,有限会社,福岡県,福岡市西区,愛宕浜４丁目６番１号,,40,135,8190013,,,2021-12-08,清算の結了等,,,2015-10-05,1,,,,,カジハラ,0
2117,8290002055592,登記記録の閉鎖等,0,2021-12-17,2021-12-10,有限会社西山薬局,,有限会社,福岡県,大牟田市,栄町２丁目１４番地の１,,40,202,8360042,,,2021-12-10,清算の結了等,,,2015-10-05,1,,,,,ニシヤマヤッキョク,0
2144,8370501000933,登記記録の閉鎖等,0,2021-12-17,2021-12-13,株式会社イワイ,,株式会社,宮城県,気仙沼市,入沢６番１４号,,04,205,9880083,,,2021-12-13,清算の結了等,,,2015-10-05,1,,,,,イワイ,0
2149,8380002018367,登記記録の閉鎖等,0,2021-12-17,2021-12-13,有限会社フラワー．ワールド,,有限会社,福島県,白河市,中田６４番地,,07,205,9610053,,,2021-12-13,清算の結了等,,,2015-10-05,1,,,,,,0
2155,8390001010745,登記記録の閉鎖等,0,2021-12-17,2021-12-15,株式会社佐々木建設,,株式会社,山形県,東置賜郡川西町,大字高山８２０番地の２,,06,382,9990141,,,2021-12-15,清算の結了等,,,2015-10-05,1,,,,,ササキケンセツ,0
2159,8400602000762,登記記録の閉鎖等,0,2021-12-17,2021-12-15,有限会社ヤマサ製作所,,有限会社,岩手県,奥州市,水沢姉体町字水ノ口前６９番地２,,03,215,0230831,,,2021-12-15,清算の結了等,,,2015-10-05,1,,,,,ヤマサセイサクショ,0
2174,8440001001383,登記記録の閉鎖等,0,2021-12-17,2021-12-15,株式会社マルエスオオタニ,,株式会社,北海道,函館市,湯川町２丁目３８番１８－３０６号,,01,202,0420932,,,2021-12-15,清算の結了等,,,2015-10-05,1,,,,,マルエスオオタニ,0
2187,8500002008405,登記記録の閉鎖等,0,2021-12-17,2021-12-15,有限会社えひめヘルスプラン研究所,,有限会社,愛媛県,伊予郡松前町,大字北黒田９３３番地３,,38,401,7913102,,,2021-12-15,合併による解散等,2500001006101,令和３年１２月１０日愛媛県松山市湊町八丁目１１１番地１愛建ビル三階パーソネルＳｏｆｔウェルビ株式会社（2500001006101）に合併し解散,2015-10-05,1,,,,,エヒメヘルスプランケンキュウショ,0
2189,8700150010745,登記記録の閉鎖等,0,2021-12-17,2021-06-30,全国シルバー人材センター厚生年金基金,,その他,東京都,江東区,東陽３丁目２３－２２東陽プラザビル３階,,13,108,1350016,,,2021-06-30,その他の清算の結了等,,,2015-10-09,1,,,,,ゼンコクシルバージンザイセンターコウセイネンキンキキン,0
2211,9010405014189,登記記録の閉鎖等,0,2021-12-17,2021-12-10,特定目的会社ＭＴインベストメンツ,,その他の設立登記法人,東京都,港区,元赤坂１丁目１番８号株式会社赤坂国際会計内,,13,103,1070051,,,2021-12-10,清算の結了等,,,2015-10-05,1,,,,,エムティーインベストメンツ,0
2218,9010701015907,登記記録の閉鎖等,0,2021-12-17,2021-12-16,株式会社富士屋レストラン,,株式会社,東京都,品川区,南大井２丁目１２番５－６０４号,,13,109,1400013,,,2021-12-16,清算の結了等,,,2015-10-05,1,,,,,フジヤレストラン,0
2224,9010801014379,登記記録の閉鎖等,0,2021-12-17,2021-12-13,株式会社ワイド,,株式会社,東京都,大田区,羽田１丁目７番１６－４０４号,,13,111,1440043,,,2021-12-13,清算の結了等,,,2015-10-05,1,,,,,ワイド,0
2256,9020001090204,登記記録の閉鎖等,0,2021-12-17,2021-12-16,株式会社エッグ,,株式会社,神奈川県,横浜市青葉区,みたけ台１２番地４９,,14,117,2270047,,,2021-12-16,清算の結了等,,,2015-10-05,1,,,,,エッグ,0
2281,9030001088263,登記記録の閉鎖等,0,2021-12-17,2021-12-13,株式会社Ｈ．Ａ．Ｓ．,,株式会社,埼玉県,深谷市,上野台１０４番地６,,11,218,3660801,,,2021-12-13,清算の結了等,,,2015-10-05,1,,,,,エイチエーエス,0
2285,9040001048687,登記記録の閉鎖等,0,2021-12-17,2021-12-15,株式会社ＮＫＴコンサルティング,,株式会社,千葉県,佐倉市,稲荷台３丁目３番地２２,,12,212,2850864,,,2021-12-15,清算の結了等,,,2015-10-05,1,,,,,エヌケーティーコンサルティング,0
2293,9040002013789,登記記録の閉鎖等,0,2021-12-17,2021-12-15,有限会社米満,,有限会社,千葉県,千葉市中央区,祐光４丁目１３番６号,,12,101,2600007,,,2021-12-15,清算の結了等,,,2015-10-05,1,,,,,,0
2301,9050002018548,登記記録の閉鎖等,0,2021-12-17,2021-12-13,有限会社田村産業,,有限会社,茨城県,猿島郡境町,大字伏木３５３１番地,,08,546,3060416,,,2021-12-13,清算の結了等,,,2015-10-05,1,,,,,タムラサンギョウ,0
2321,9080103000419,登記記録の閉鎖等,0,2021-12-17,2021-12-10,合資会社加藤包装,,合資会社,静岡県,駿東郡長泉町,竹原４０５番地,,22,342,4110944,,,2021-12-10,清算の結了等,,,2015-10-05,1,,,,,カトウホウソウ,0
2333,9120001182668,登記記録の閉鎖等,0,2021-12-17,2021-12-14,株式会社大市珍味ＳＭＳ,,株式会社,大阪府,大阪市東住吉区,照ケ丘矢田２丁目２０番９号,,27,121,5460021,,,2021-12-14,清算の結了等,,,2015-10-05,1,,,,,ダイイチチンミエスエムエス,0
2339,9120002027327,登記記録の閉鎖等,0,2021-12-17,2021-12-13,有限会社新東洋産業,,有限会社,大阪府,大阪市淀川区,三国本町１丁目４番８号,,27,123,5320005,,,2021-12-13,清算の結了等,,,2015-10-05,1,,,,,シントウヨウサンギョウ,0
2370,9160002008645,登記記録の閉鎖等,0,2021-12-17,2021-12-15,有限会社ミヤ・コーポレーション,,有限会社,滋賀県,彦根市,京町１丁目２番１０号,,25,202,5220081,,,2021-12-15,清算の結了等,,,2015-10-05,1,,,,,ミヤコーポレーション,0
2371,9170005000037,登記記録の閉鎖等,0,2021-12-17,2021-12-16,医療法人沼田歯科医院,,その他の設立登記法人,和歌山県,和歌山市,内原９９６番地の１,,30,201,6410013,,,2021-12-16,清算の結了等,,,2015-10-05,1,,,,,ヌマタシカイイン,0
2395,9190002022131,登記記録の閉鎖等,0,2021-12-17,2021-12-13,有限会社丸八コンクリート,,有限会社,三重県,四日市市,桜町５６２５番地の１,,24,202,5121211,,,2021-12-13,清算の結了等,,,2015-10-05,1,,,,,マルハチコンクリート,0
2396,9200001010168,登記記録の閉鎖等,0,2021-12-17,2021-12-16,政田興業株式会社,,株式会社,岐阜県,本巣市,政田１１８２番地２,,21,218,5010471,,,2021-12-16,清算の結了等,,,2015-10-05,1,,,,,マサダコウギョウ,0
2400,9230001015858,登記記録の閉鎖等,0,2021-12-17,2021-12-14,ロードサービスアリーナ富山株式会社,,株式会社,富山県,富山市,針原中町９０１番地２,,16,201,9318431,,,2021-12-14,清算の結了等,,,2015-10-05,1,,,,,ロードサービスアリーナトヤマ,0
2402,9240001001758,登記記録の閉鎖等,0,2021-12-17,2021-12-14,株式会社オートランド広島,,株式会社,広島県,東広島市,志和町志和東１３９１番地１,,34,212,7390262,,,2021-12-14,清算の結了等,,,2015-10-05,1,,,,,オートランドヒロシマ,0
2408,9240003002259,登記記録の閉鎖等,0,2021-12-17,2021-12-13,合同会社Ａ・Ｋ工房,,合同会社,広島県,広島市安佐南区,祇園５丁目４番３３－１０３号,,34,105,7310138,,,2021-12-13,清算の結了等,,,2015-10-05,1,,,,,エーケーコウボウ,0
2410,9250002014254,登記記録の閉鎖等,0,2021-12-17,2021-12-10,有限会社天鵬山,,有限会社,山口県,萩市,大字椿東６５０９番地,,35,204,7580011,,,2021-12-10,清算の結了等,,,2021-09-24,1,,,,,テンポウザン,0
2414,9260002034466,登記記録の閉鎖等,0,2021-12-17,2021-12-10,福江産業有限会社,,有限会社,岡山県,総社市,中央２丁目９番１７号,,33,208,7191131,,,2021-12-10,清算の結了等,,,2018-12-06,1,,,,,フクエサンギョウ,0
2417,9270001006713,登記記録の閉鎖等,0,2021-12-17,2021-12-07,株式会社ハッピーライフ,,株式会社,鳥取県,米子市,福市６０４番地２,,31,202,6830011,,,2021-12-07,清算の結了等,,,2015-10-05,1,,,,,ハッビーライフ,0
2419,9290001000722,登記記録の閉鎖等,0,2021-12-17,2021-12-13,株式会社アクリビコー,,株式会社,福岡県,福岡市南区,清水３丁目２１番３号,,40,134,8150031,,,2021-12-13,清算の結了等,,,2015-10-05,1,,,,,アクリビコー,0
2432,9310003003142,登記記録の閉鎖等,0,2021-12-17,2021-12-15,合同会社アクティブ・プランナー,,合同会社,長崎県,佐世保市,大野町２２３番地４,,42,202,8570131,,,2021-12-15,清算の結了等,,,2016-06-08,1,,,,,アクティブプランナー,0
2434,9330002009881,登記記録の閉鎖等,0,2021-12-17,2021-12-15,有限会社松本鉄工所,,有限会社,熊本県,熊本市北区,楠野町字前畑１４０６番地の２,,43,105,8615511,,,2021-12-15,清算の結了等,,,2015-10-05,1,,,,,マツモトテッコウショ,0
2448,9380001004557,登記記録の閉鎖等,0,2021-12-17,2021-12-13,株式会社伊勢屋商店,,株式会社,福島県,郡山市,中田町黒木字宮ノ前２４３番地,,07,203,9630835,,,2021-12-13,清算の結了等,,,2015-10-05,1,,,,,,0
2462,9450002006355,登記記録の閉鎖等,0,2021-12-17,2021-12-17,基建設有限会社,,有限会社,北海道,旭川市,神楽三条９丁目３番２１号,,01,204,0708003,,,2021-12-17,清算の結了等,,,2015-10-05,1,,,,,モトイケンセツ,0
2469,9480005000179,登記記録の閉鎖等,0,2021-12-17,2021-12-16,医療法人後藤小児科,,その他の設立登記法人,徳島県,徳島市,鮎喰町２丁目１１４番地,,36,201,7700046,,,2021-12-16,清算の結了等,,,2015-10-05,1,,,,,ゴトウショウニカ,0
2470,9490002000701,登記記録の閉鎖等,0,2021-12-17,2021-12-16,有限会社大崎住設,,有限会社,高知県,高知市,上本宮町１１３番地９,,39,201,7800946,,,2021-12-16,清算の結了等,,,2015-10-05,1,,,,,オオサキジュウセツ,0
