sequenceNumber,corporateNumber,process,correct,updateDate,changeDate,name,nameImageId,kind,prefectureName,cityName,streetNumber,addressImageId,prefectureCode,cityCode,postCode,addressOutside,addressOutsideImageId,closeDate,closeCause,successorCorporateNumber,changeCause,assignmentDate,latest,enName,enPrefectureName,enCityName,enAddressOutside,furigana,hihyoji
3,1010001135017,登記記録の閉鎖等,0,2022-01-14,2022-01-04,株式会社インサイト,,株式会社,東京都,港区,芝５丁目３３番１号,,13,103,1080014,,,2022-01-04,合併による解散等,1010001083026,令和４年１月１日東京都港区芝五丁目３３番１号フロンティアコンストラクション＆パートナーズ株式会社（1010001083026）に合併し解散,2015-10-05,1,,,,,インサイト,0
11,1010003019011,登記記録の閉鎖等,0,2022-01-14,2022-01-04,ＳｏｌａｒＧｒｅｅｎ合同会社,,合同会社,東京都,千代田区,内幸町２丁目２番２号富国生命ビル１２階渥美坂井法律事務所内,,13,101,1000011,,,2022-01-04,合併による解散等,8010403010216,令和４年１月１日東京都千代田区内幸町二丁目２番２号富国生命ビル１２階渥美坂井法律事務所内ＲｅｄＳｏｌ合同会社（8010403010216）に合併し解散,2015-10-05,1,,,,,ソーラーグリーン,0
12,1010003033540,登記記録の閉鎖等,0,2022-01-14,2022-01-06,株式会社ＳＹホールディングス,,株式会社,東京都,北区,赤羽２丁目１番１号,,13,117,1150045,,,2022-01-06,合併による解散等,4011503002016,令和３年１２月３１日東京都北区赤羽二丁目１番１号株式会社西友ホールディングス（4011503002016）に合併し解散,2020-11-18,1,,,,,エスワイホールディングス,0
16,1010401090274,登記記録の閉鎖等,0,2022-01-14,2022-01-12,メディオス・サービス株式会社,,株式会社,東京都,世田谷区,玉川４丁目８番５号クレセント二子玉川４０１,,13,112,1580094,,,2022-01-12,清算の結了等,,,2015-10-05,1,,,,,メディオスサービス,0
31,1010403010214,登記記録の閉鎖等,0,2022-01-14,2022-01-04,ＹｅｌｌｏｗＳｏｌ合同会社,,合同会社,東京都,千代田区,内幸町２丁目２番２号富国生命ビル１２階渥美坂井法律事務所内,,13,101,1000011,,,2022-01-04,合併による解散等,8010403010216,令和４年１月１日東京都千代田区内幸町二丁目２番２号富国生命ビル１２階渥美坂井法律事務所内ＲｅｄＳｏｌ合同会社（8010403010216）に合併し解散,2015-10-05,1,,,,,イエローソル,0
56,1011102027978,登記記録の閉鎖等,0,2022-01-14,2022-01-06,有限会社ミスコンダクト,,有限会社,東京都,新宿区,若松町２８番３－７０４号,,13,104,1620056,,,2022-01-06,清算の結了等,,,2015-10-05,1,,,,,ミスコンダクト,0
57,1011102028282,登記記録の閉鎖等,0,2022-01-14,2022-01-06,有限会社ラウンド・ティー,,有限会社,東京都,新宿区,上落合２丁目２６番１１号,,13,104,1610034,,,2022-01-06,清算の結了等,,,2015-10-05,1,,,,,,0
60,1011305001433,登記記録の閉鎖等,0,2022-01-14,2022-01-06,特定非営利活動法人ベアフット協会,,その他の設立登記法人,東京都,杉並区,下高井戸５丁目４番８号２０１号室,,13,115,1680073,,,2022-01-06,清算の結了等,,,2015-10-05,1,,,,,ベアフットキョウカイ,0
63,1011601015987,登記記録の閉鎖等,0,2022-01-14,2022-01-12,株式会社エコリード,,株式会社,埼玉県,新座市,畑中２丁目１７番１５号,,11,230,3520012,,,2022-01-12,清算の結了等,,,2015-10-05,1,,,,,エコリード,0
65,1011801007735,登記記録の閉鎖等,0,2022-01-14,2022-01-11,株式会社ゴトウトレイディング,,株式会社,東京都,足立区,竹の塚６丁目７番１－３１０号,,13,121,1210813,,,2022-01-11,清算の結了等,,,2015-10-05,1,,,,,ゴトウトレイディング,0
71,1012801002684,登記記録の閉鎖等,0,2022-01-14,2022-01-11,理学メカトロニクス株式会社,,株式会社,東京都,昭島市,松原町３丁目９番１２号,,13,207,1960003,,,2022-01-11,合併による解散等,5012801002680,令和４年１月１日東京都昭島市松原町三丁目９番１２号株式会社リガク（5012801002680）に合併し解散,2015-10-05,1,,,,,リガクメカトロニクス,0
94,1020002062647,登記記録の閉鎖等,0,2022-01-14,2022-01-11,有限会社ヴィガー,,有限会社,神奈川県,横浜市西区,西戸部町２丁目２２９番地,,14,103,2200046,,,2022-01-11,清算の結了等,,,2015-10-05,1,,,,,ヴィガー,0
110,1030002012262,登記記録の閉鎖等,0,2022-01-14,2022-01-12,有限会社堀内工業,,有限会社,埼玉県,さいたま市桜区,大字下大久保８５４番地２５,,11,106,3380825,,,2022-01-12,清算の結了等,,,2015-10-05,1,,,,,ホリウチコウギョウ,0
112,1030002122251,登記記録の閉鎖等,0,2022-01-14,2022-01-11,有限会社日の出屋寝具店,,有限会社,埼玉県,秩父郡皆野町,大字金崎１５９番地,,11,362,3691621,,,2022-01-11,清算の結了等,,,2015-10-05,1,,,,,ヒノデヤシングテン,0
146,1110002017617,登記記録の閉鎖等,0,2022-01-14,2022-01-07,有限会社本間空調,,有限会社,新潟県,三条市,東本成寺５１５番地４,,15,204,9550823,,,2022-01-07,清算の結了等,,,2015-10-05,1,,,,,ホンマクウチョウ,0
151,1120001073924,登記記録の閉鎖等,0,2022-01-14,2022-01-07,株式会社アプラスフィナンシャル,,株式会社,大阪府,大阪市浪速区,湊町１丁目２番３号,,27,111,5560017,,,2022-01-07,合併による解散等,2120001137521,令和４年１月１日大阪市浪速区湊町一丁目２番３号株式会社アプラス（2120001137521）に合併し解散,2015-10-05,1,,,,,アプラスフィナンシャル,0
176,1120101047316,登記記録の閉鎖等,0,2022-01-14,2022-01-04,Ｃ＆Ｈ株式会社,,株式会社,大阪府,岸和田市,木材町１７番地２,,27,202,5960011,,,2022-01-04,合併による解散等,5120101037593,令和４年１月１日大阪府岸和田市木材町１７番地２ホクシン株式会社（5120101037593）に合併し解散,2015-10-05,1,,,,,シーアンドエイチ,0
182,1120102004943,登記記録の閉鎖等,0,2022-01-14,2022-01-07,有限会社山崎商店,00032754,有限会社,大阪府,堺市西区,築港新町２丁６番４６,,27,144,5928331,,,2022-01-07,清算の結了等,,,2015-10-05,1,,,,,ヤマサキショウテン,0
221,1200001011017,登記記録の閉鎖等,0,2022-01-14,2022-01-11,児玉建設株式会社,,株式会社,岐阜県,羽島市,舟橋町出須賀３丁目３３番地,,21,209,5016304,,,2022-01-11,清算の結了等,,,2015-10-05,1,,,,,コダマケンセツ,0
224,1200002020842,登記記録の閉鎖等,0,2022-01-14,2022-01-11,有限会社山鉄製陶所,,有限会社,岐阜県,多治見市,大畑町５丁目５５番地,,21,204,5070818,,,2022-01-11,清算の結了等,,,2015-10-05,1,,,,,ヤマテツセイトウショ,0
225,1210001003855,登記記録の閉鎖等,0,2022-01-14,2022-01-14,松井工業株式会社,,株式会社,福井県,福井市,勝見１丁目４番１１号,,18,201,9100856,,,2022-01-14,登記官による閉鎖,,,2015-10-05,1,,,,,,0
229,1210001009638,登記記録の閉鎖等,0,2022-01-14,2022-01-14,トータル東邦株式会社,,株式会社,福井県,福井市,中央１丁目２１番５－３０２号,,18,201,9100006,,,2022-01-14,登記官による閉鎖,,,2015-10-05,1,,,,,,0
230,1210002000117,登記記録の閉鎖等,0,2022-01-14,2022-01-14,有限会社アクセスセキュリティ,,有限会社,福井県,坂井市,丸岡町上久米田第１４号４７番地,,18,210,9100331,,,2022-01-14,登記官による閉鎖,,,2015-10-05,1,,,,,,0
231,1210002002955,登記記録の閉鎖等,0,2022-01-14,2022-01-14,有限会社日ノ出クラブ,,有限会社,福井県,福井市,中央１丁目１０番２１号,,18,201,9100006,,,2022-01-14,登記官による閉鎖,,,2015-10-05,1,,,,,,0
232,1210002012541,登記記録の閉鎖等,0,2022-01-14,2022-01-14,有限会社グループホーム福井,,有限会社,福井県,丹生郡越前町,米ノ第５６号１７番地１,,18,423,9160426,,,2022-01-14,登記官による閉鎖,,,2015-10-05,1,,,,,,0
245,1260005004151,登記記録の閉鎖等,0,2022-01-14,2021-12-22,天理教誠松分教会,,その他の設立登記法人,岡山県,倉敷市,松島３３５番地,,33,202,7010114,,,2021-12-22,合併による解散等,3130005000780,令和３年１２月１７日京都市中京区押小路通東洞院西入西押小路町１１３番地天理教誠道分教会（3130005000780）に合併し解散,2015-10-05,1,,,,,,0
255,1290002033695,登記記録の閉鎖等,0,2022-01-14,2022-01-06,香椎石材有限会社,,有限会社,福岡県,古賀市,舞の里５丁目３６番１８号,,40,223,8113114,,,2022-01-06,清算の結了等,,,2015-10-05,1,,,,,カシイセキザイ,0
267,1340001014996,登記記録の閉鎖等,0,2022-01-14,2022-01-12,サンワイティ株式会社,,株式会社,鹿児島県,曽於郡大崎町,岡別府３０７番地１,,46,468,8997308,,,2022-01-12,清算の結了等,,,2015-10-05,1,,,,,,0
287,1370002004985,登記記録の閉鎖等,0,2022-01-14,2022-01-12,有限会社コア・クリーン,,有限会社,宮城県,仙台市若林区,沖野６丁目３４－１８,,04,103,9840831,,,2022-01-12,清算の結了等,,,2015-10-05,1,,,,,,0
293,1390001000075,登記記録の閉鎖等,0,2022-01-14,2022-01-11,株式会社荒木薬局,,株式会社,山形県,山形市,旅篭町２丁目２番２９号,,06,201,9900047,,,2022-01-11,清算の結了等,,,2015-10-05,1,,,,,アラキヤッキョク,0
296,1400003002794,登記記録の閉鎖等,0,2022-01-14,2022-01-13,合同会社キャンバス,,合同会社,岩手県,盛岡市,松園２丁目５番地３号,,03,201,0200107,,,2022-01-13,清算の結了等,,,2021-06-03,1,,,,,キャンバス,0
302,1430001050990,登記記録の閉鎖等,0,2022-01-14,2022-01-07,株式会社小林商店,,株式会社,北海道,余市郡余市町,黒川町３丁目５６番地,,01,408,0460003,,,2022-01-07,清算の結了等,,,2015-10-05,1,,,,,コバヤシショウテン,0
303,1430001052970,登記記録の閉鎖等,0,2022-01-14,2022-01-07,株式会社佐々木火薬銃砲店,,株式会社,北海道,苫小牧市,錦町２丁目４番１６号,,01,213,0530023,,,2022-01-07,清算の結了等,,,2015-10-05,1,,,,,ササキカヤクジュウホウテン,0
309,1430005004976,登記記録の閉鎖等,0,2022-01-14,2022-01-07,税理士法人札幌北星会計,,その他の設立登記法人,北海道,札幌市中央区,北二条東１丁目２番地１０,,01,101,0600032,,,2022-01-07,清算の結了等,,,2015-10-05,1,,,,,サッポロホクセイカイケイ,0
311,1450002000852,登記記録の閉鎖等,0,2022-01-14,2022-01-13,有限会社右近オート商事,,有限会社,北海道,旭川市,永山九条１３丁目１番３３号,,01,204,0798419,,,2022-01-13,清算の結了等,,,2015-10-05,1,,,,,ウコンオートショウジ,0
336,2010401013135,登記記録の閉鎖等,0,2022-01-14,2022-01-04,株式会社新生旅行,,株式会社,東京都,港区,新橋６丁目２番１号,,13,103,1050004,,,2022-01-04,清算の結了等,,,2015-10-05,1,,,,,シンセイリョコウ,0
346,2010403010213,登記記録の閉鎖等,0,2022-01-14,2022-01-04,ＯｒａｎｇｅＳｏｌ合同会社,,合同会社,東京都,千代田区,内幸町２丁目２番２号富国生命ビル１２階渥美坂井法律事務所内,,13,101,1000011,,,2022-01-04,合併による解散等,8010403010216,令和４年１月１日東京都千代田区内幸町二丁目２番２号富国生命ビル１２階渥美坂井法律事務所内ＲｅｄＳｏｌ合同会社（8010403010216）に合併し解散,2015-10-05,1,,,,,オレンジソル,0
348,2010403010485,登記記録の閉鎖等,0,2022-01-14,2022-01-04,ＳｏｌａｒＴｗｏ合同会社,,合同会社,東京都,千代田区,内幸町２丁目２番２号富国生命ビル１２階渥美坂井法律事務所内,,13,101,1000011,,,2022-01-04,合併による解散等,8010403010216,令和４年１月１日東京都千代田区内幸町二丁目２番２号富国生命ビル１２階渥美坂井法律事務所内ＲｅｄＳｏｌ合同会社（8010403010216）に合併し解散,2015-10-05,1,,,,,ソーラートゥー,0
355,2010701011441,登記記録の閉鎖等,0,2022-01-14,2022-01-06,株式会社ソメヤデザイン,,株式会社,東京都,品川区,大井１丁目２７番８号,,13,109,1400014,,,2022-01-06,清算の結了等,,,2015-10-05,1,,,,,ソメヤデザイン,0
375,2011101090126,登記記録の閉鎖等,0,2022-01-14,2022-01-05,ＩＮＳＩＧＨＴ　ＬＡＢアドバンス株式会社,,株式会社,東京都,新宿区,西新宿１丁目２６番２号,,13,104,1600023,,,2022-01-05,合併による解散等,9011101061475,令和４年１月１日東京都新宿区西新宿一丁目２６番２号ＩＮＳＩＧＨＴ　ＬＡＢ株式会社（9011101061475）に合併し解散,2020-01-17,1,,,,,インサイトラボアドバンス,0
384,2011501000502,登記記録の閉鎖等,0,2022-01-14,2022-01-12,株式会社ヴェージュ,,株式会社,東京都,北区,王子４丁目２２番９号,,13,117,1140002,,,2022-01-12,合併による解散等,5011402003064,令和４年１月１日東京都板橋区舟渡二丁目２１番１号株式会社ケーシー・サクシード（5011402003064）に合併し解散,2015-10-05,1,,,,,ヴェージュ,0
393,2013302016396,登記記録の閉鎖等,0,2022-01-14,2022-01-06,有限会社亜未企画,,有限会社,東京都,豊島区,東池袋４丁目３０番１３号,,13,116,1700013,,,2022-01-06,清算の結了等,,,2015-10-05,1,,,,,アミキカク,0
397,2020001082760,登記記録の閉鎖等,0,2022-01-14,2022-01-11,株式会社パシフィック保険,,株式会社,神奈川県,川崎市川崎区,本町１丁目７番９号,,14,131,2100001,,,2022-01-11,清算の結了等,,,2015-10-05,1,,,,,パシフィックホケン,0
414,2021001033984,登記記録の閉鎖等,0,2022-01-14,2022-01-12,株式会社内藤建設,,株式会社,神奈川県,足柄上郡松田町,松田庶子４１７番地イ号ニ,,14,363,2580004,,,2022-01-12,清算の結了等,,,2015-10-05,1,,,,,ナイトウケンセツ,0
415,2021001041203,登記記録の閉鎖等,0,2022-01-14,2022-01-12,株式会社明商,,株式会社,神奈川県,横須賀市,池上１丁目５番９号１Ｆ,,14,201,2380035,,,2022-01-12,清算の結了等,,,2015-10-05,1,,,,,,0
426,2030001130089,登記記録の閉鎖等,0,2022-01-14,2022-01-04,株式会社コムフォートメイト,,株式会社,埼玉県,川口市,中青木４丁目１９番１２号,,11,203,3320032,,,2022-01-04,清算の結了等,,,2019-03-26,1,,,,,コムフォートメイト,0
447,2040002003037,登記記録の閉鎖等,0,2022-01-14,2022-01-05,有限会社カヤノ商事,,有限会社,千葉県,千葉市中央区,弁天１丁目１６番１号,,12,101,2600045,,,2022-01-05,清算の結了等,,,2015-10-05,1,,,,,カヤノショウジ,0
459,2070001009973,登記記録の閉鎖等,0,2022-01-14,2022-01-07,大同ブロック製造株式会社,,株式会社,群馬県,安中市,板鼻３３１番地,,10,211,3790111,,,2022-01-07,清算の結了等,,,2015-10-05,1,,,,,ダイドウブロックセイゾウ,0
554,2210002004934,登記記録の閉鎖等,0,2022-01-14,2022-01-14,有限会社興和商事,,有限会社,福井県,福井市,春山２丁目１番３号,,18,201,9100019,,,2022-01-14,登記官による閉鎖,,,2015-10-05,1,,,,,,0
555,2210002014116,登記記録の閉鎖等,0,2022-01-14,2022-01-14,有限会社浜本鉄工所,,有限会社,福井県,大飯郡高浜町,和田第１１６号１７番地,,18,481,9192201,,,2022-01-14,登記官による閉鎖,,,2015-10-05,1,,,,,,0
556,2210005002126,登記記録の閉鎖等,0,2022-01-14,2022-01-14,特定非営利活動法人ひまわりの会,,その他の設立登記法人,福井県,坂井市,丸岡町吉政第２２号２番地,,18,210,9100372,,,2022-01-14,登記官による閉鎖,,,2015-10-05,1,,,,,,0
577,2300005004360,登記記録の閉鎖等,0,2022-01-14,2021-12-15,天理教外尾分教会,,その他の設立登記法人,佐賀県,西松浦郡有田町,本町丙１５１７番地,,41,401,8440018,,,2021-12-15,合併による解散等,4300005004359,令和３年１２月１５日佐賀県西松浦郡有田町南原甲９６番地１天理教西松浦分教会（4300005004359）に合併し解散,2015-10-05,1,,,,,テンリキョウホカオブンキョウカイ,0
602,2380001025007,登記記録の閉鎖等,0,2022-01-14,2022-01-07,株式会社ライズ,,株式会社,福島県,いわき市,平字菱川町６番地１,,07,204,9708026,,,2022-01-07,清算の結了等,,,2015-10-05,1,,,,,ライズ,0
604,2380002019998,登記記録の閉鎖等,0,2022-01-14,2022-01-13,有限会社大邦食品,,有限会社,福島県,須賀川市,並木町２５７番地１,,07,207,9620836,,,2022-01-13,合併による解散等,4240001035505,令和４年１月１日広島県福山市箕島町５７２５番地１アシード株式会社（4240001035505）に合併し解散,2015-10-05,1,,,,,タイホウショクヒン,0
605,2380002020865,登記記録の閉鎖等,0,2022-01-14,2022-01-07,有限会社エルフ音楽出版,,有限会社,福島県,石川郡石川町,大字塩沢字割田作３４番地の２０,,07,501,9637836,,,2022-01-07,清算の結了等,,,2015-10-05,1,,,,,エルフオンガクシュッパン,0
608,2380002035707,登記記録の閉鎖等,0,2022-01-14,2022-01-04,有限会社ワイ・エス,,有限会社,福島県,南会津郡下郷町,大字落合字下川原２３１番地１,,07,362,9695343,,,2022-01-04,清算の結了等,,,2021-05-11,1,,,,,ワイエス,0
610,2390001013670,登記記録の閉鎖等,0,2022-01-14,2022-01-11,サン技研テック株式会社,,株式会社,山形県,天童市,石鳥居３番地５,,06,210,9940057,,,2022-01-11,清算の結了等,,,2015-10-05,1,,,,,サンギケンテック,0
620,2430002054775,登記記録の閉鎖等,0,2022-01-14,2022-01-07,有限会社茶の木,,有限会社,北海道,小樽市,稲穂２丁目１６番１６号,,01,203,0470032,,,2022-01-07,清算の結了等,,,2015-10-05,1,,,,,チャノキ,0
651,3010003028118,登記記録の閉鎖等,0,2022-01-14,2022-01-04,ＳｏｌａｒＹｅｌｌｏｗ合同会社,,合同会社,東京都,千代田区,内幸町２丁目２番２号富国生命ビル１２階渥美坂井法律事務所内,,13,101,1000011,,,2022-01-04,合併による解散等,8010403010216,令和４年１月１日東京都千代田区内幸町二丁目２番２号富国生命ビル１２階渥美坂井法律事務所内ＲｅｄＳｏｌ合同会社（8010403010216）に合併し解散,2018-08-17,1,,,,,ソーラーイエロー,0
677,3010901035108,登記記録の閉鎖等,0,2022-01-14,2022-01-12,株式会社やきとりレストランプロジェクト,,株式会社,東京都,世田谷区,大蔵１丁目２－２４デュオステージ３０１号,,13,112,1570074,,,2022-01-12,清算の結了等,,,2015-10-05,1,,,,,,0
678,3010901037525,登記記録の閉鎖等,0,2022-01-14,2022-01-12,７０３株式会社,,株式会社,東京都,世田谷区,成城６丁目３３番１７号,,13,112,1570066,,,2022-01-12,清算の結了等,,,2016-02-03,1,,,,,,0
700,3011301012630,登記記録の閉鎖等,0,2022-01-14,2022-01-07,株式会社ケン・フード・サービス,,株式会社,東京都,杉並区,上高井戸１丁目２９番１０号,,13,115,1680074,,,2022-01-07,清算の結了等,,,2015-10-05,1,,,,,ケンフードサービス,0
710,3011801006099,登記記録の閉鎖等,0,2022-01-14,2022-01-13,株式会社五代儀製作所,,株式会社,東京都,足立区,小台２丁目３０番６号,,13,121,1200046,,,2022-01-13,清算の結了等,,,2015-10-05,1,,,,,イヨギセイサクショ,0
722,3013301033680,登記記録の閉鎖等,0,2022-01-14,2022-01-04,ビーモーション・ホールディングス株式会社,,株式会社,東京都,豊島区,目白１丁目４番２５号目白博物館ビル３階,,13,116,1710031,,,2022-01-04,合併による解散等,4013301015546,令和４年１月４日東京都豊島区目白一丁目４番２５号ビーモーション株式会社（4013301015546）に合併し解散,2015-10-05,1,,,,,ビーモーションホールディングス,0
748,3021003001220,登記記録の閉鎖等,0,2022-01-14,2022-01-11,合資会社松栄商事,,合資会社,神奈川県,相模原市中央区,淵野辺２丁目５番６１－１０１１号,,14,152,2520206,,,2022-01-11,清算の結了等,,,2015-10-05,1,,,,,マツエイショウジ,0
755,3030002033711,登記記録の閉鎖等,0,2022-01-14,2022-01-12,有限会社三友,,有限会社,埼玉県,狭山市,大字北入曽５２６番地の４,,11,215,3501315,,,2022-01-12,清算の結了等,,,2015-10-05,1,,,,,サンユウ,0
760,3040001010966,登記記録の閉鎖等,0,2022-01-14,2022-01-05,株式会社キットネット,,株式会社,千葉県,千葉市中央区,椿森３丁目５番１号,,12,101,2600042,,,2022-01-05,清算の結了等,,,2015-10-05,1,,,,,キットネット,0
768,3040002100980,登記記録の閉鎖等,0,2022-01-14,2022-01-05,長狭園有限会社,,有限会社,千葉県,鴨川市,北風原９１０番地,,12,223,2960123,,,2022-01-05,清算の結了等,,,2015-10-05,1,,,,,ナガサエン,0
773,3050002012580,登記記録の閉鎖等,0,2022-01-14,2021-12-28,有限会社大久保製作所,,有限会社,茨城県,稲敷郡阿見町,大字吉原３５９７番地の４２,,08,443,3001155,,,2021-12-28,清算の結了等,,,2015-10-05,1,,,,,オオクボセイサクショ,0
784,3080002011415,登記記録の閉鎖等,0,2022-01-14,2022-01-12,有限会社明静工芸,,有限会社,静岡県,静岡市清水区,辻４丁目８番２４号,00067523,22,103,4240806,,,2022-01-12,清算の結了等,,,2015-10-05,1,,,,,メイセイコウゲイ,0
801,3120001136373,登記記録の閉鎖等,0,2022-01-14,2022-01-07,株式会社メイク・プログレス,,株式会社,大阪府,大阪市中央区,今橋１丁目７番２号,,27,128,5410042,,,2022-01-07,清算の結了等,,,2015-10-05,1,,,,,メイクプログレス,0
803,3120001192796,登記記録の閉鎖等,0,2022-01-14,2021-12-28,アプリード株式会社,,株式会社,大阪府,大阪市中央区,南船場４丁目１０番５号南船場ＳＯＨＯビル７０２,,27,128,5420081,,,2021-12-28,清算の結了等,,,2015-10-05,1,,,,,アプリード,0
818,3120901013440,登記記録の閉鎖等,0,2022-01-14,2022-01-12,株式会社ブルーハイツ,,株式会社,大阪府,茨木市,南春日丘３丁目１番５４号,,27,211,5670046,,,2022-01-12,清算の結了等,,,2015-10-05,1,,,,,ブルーハイツ,0
821,3120902008407,登記記録の閉鎖等,0,2022-01-14,2022-01-11,近江石油販売有限会社,,有限会社,大阪府,摂津市,鳥飼上３丁目１８番４号,,27,224,5660062,,,2022-01-11,清算の結了等,,,2015-10-05,1,,,,,オウミセキユハンバイ,0
836,3170005000595,登記記録の閉鎖等,0,2022-01-14,2021-12-21,天理教紀ノ華分教会,,その他の設立登記法人,和歌山県,和歌山市,湊５丁目９番１２号,,30,201,6408404,,,2021-12-21,合併による解散等,5170005000610,令和３年１２月２１日和歌山市下町３８番地天理教紀ノ川分教会（5170005000610）に合併し解散,2015-10-05,1,,,,,テンリキョウキノハナブンキョウカイ,0
838,3180001122616,登記記録の閉鎖等,0,2022-01-14,2022-01-11,株式会社テクニカル,,株式会社,愛知県,名古屋市緑区,南大高２丁目３０１番地（フロンティア・グリーンフォート５０１号）,,23,114,4598016,,,2022-01-11,清算の結了等,,,2016-03-24,1,,,,,テクニカル,0
842,3180003005422,登記記録の閉鎖等,0,2022-01-14,2022-01-05,合資会社青信号,,合資会社,愛知県,名古屋市中区,栄３丁目９番５号,,23,106,4600008,,,2022-01-05,合併による解散等,1180001040027,令和４年１月１日名古屋市中区栄五丁目１番３２号株式会社久屋ワイエス（1180001040027）に合併し解散,2015-10-05,1,,,,,ヒサヤワイエス,0
852,3200001036441,登記記録の閉鎖等,0,2022-01-14,2022-01-04,株式会社ＹＫＳ,,株式会社,岐阜県,多治見市,昭栄町８８番地の３８,,21,204,5070076,,,2022-01-04,合併による解散等,3200001026962,令和４年１月１日岐阜県多治見市脇之島町八丁目８３番地の６株式会社Ｅワークス（3200001026962）に合併し解散,2019-07-03,1,,,,,ワイケーエス,0
856,3210001008844,登記記録の閉鎖等,0,2022-01-14,2022-01-14,株式会社つじき,,株式会社,福井県,福井市,藤島町第３７号１８番地,,18,201,9100827,,,2022-01-14,登記官による閉鎖,,,2015-10-05,1,,,,,,0
857,3210001009933,登記記録の閉鎖等,0,2022-01-14,2022-01-14,株式会社宮村組,,株式会社,福井県,大野市,東中町３１２番地,,18,205,9120042,,,2022-01-14,登記官による閉鎖,,,2015-10-05,1,,,,,,0
863,3210002014296,登記記録の閉鎖等,0,2022-01-14,2022-01-14,有限会社スペシャルゲスト,,有限会社,福井県,大飯郡高浜町,和田第１１７号７０番地,,18,481,9192201,,,2022-01-14,登記官による閉鎖,,,2015-10-05,1,,,,,,0
864,3210002014395,登記記録の閉鎖等,0,2022-01-14,2022-01-14,有限会社不二工建,,有限会社,福井県,三方上中郡若狭町,藤井５２号２０番地,,18,501,9191311,,,2022-01-14,登記官による閉鎖,,,2016-08-29,1,,,,,,0
865,3210005004600,登記記録の閉鎖等,0,2022-01-14,2022-01-14,福井坂井地区資源回収協同組合,,その他の設立登記法人,福井県,坂井市,丸岡町栄１丁目６１０番地,,18,210,9100262,,,2022-01-14,登記官による閉鎖,,,2015-10-05,1,,,,,,0
882,3290001048032,登記記録の閉鎖等,0,2022-01-14,2022-01-07,株式会社リボンファーマシー,,株式会社,福岡県,八女市,本村３７７番地,,40,210,8340063,,,2022-01-07,清算の結了等,,,2015-10-05,1,,,,,リボンファーマシー,0
884,3290001052067,登記記録の閉鎖等,0,2022-01-14,2021-12-27,株式会社花嫁手帖,,株式会社,福岡県,久留米市,天神町３７番地,,40,203,8300033,,,2021-12-27,清算の結了等,,,2015-10-05,1,,,,,ハナヨメテチョウ,0
899,3300002001698,登記記録の閉鎖等,0,2022-01-14,2022-01-07,有限会社リー,,有限会社,佐賀県,佐賀市,本庄町大字本庄９５２番地１１,,41,201,8400027,,,2022-01-07,清算の結了等,,,2015-10-05,1,,,,,,0
906,3320002004996,登記記録の閉鎖等,0,2022-01-14,2022-01-12,有限会社長野工務店,,有限会社,大分県,大分市,城崎町３丁目３番４１号,,44,201,8700045,,,2022-01-12,清算の結了等,,,2015-10-05,1,,,,,ナガノコウムテン,0
907,3320002011811,登記記録の閉鎖等,0,2022-01-14,2022-01-13,有限会社田辺運送,,有限会社,大分県,別府市,大字南立石１９３５番地の２３,,44,202,8740000,,,2022-01-13,清算の結了等,,,2015-10-05,1,,,,,タナベウンソウ,0
927,3380002012309,登記記録の閉鎖等,0,2022-01-14,2022-01-07,有限会社松屋商店,,有限会社,福島県,郡山市,喜久田町堀之内字堀内５７番地,,07,203,9630541,,,2022-01-07,清算の結了等,,,2015-10-05,1,,,,,,0
936,3410003003113,登記記録の閉鎖等,0,2022-01-14,2022-01-04,合同会社櫻井,,合同会社,秋田県,北秋田市,下杉字塚ノ岱１１番地２,,05,213,0184221,,,2022-01-04,清算の結了等,,,2017-10-20,1,,,,,サクライ,0
937,3410005005727,登記記録の閉鎖等,0,2022-01-14,2022-01-12,農事組合法人アグテックス,,その他の設立登記法人,北海道,中川郡本別町,北８丁目１３番地３３,,01,646,0893334,,,2022-01-12,清算の結了等,,,2015-10-05,1,,,,,アグテックス,0
941,3460101001443,登記記録の閉鎖等,0,2022-01-14,2022-01-06,ひまわり産業株式会社,,株式会社,北海道,帯広市,西六条南１４丁目１番地,,01,207,0800016,,,2022-01-06,合併による解散等,7430001022357,令和４年１月１日札幌市西区二十四軒四条一丁目１番８号ＮＸエネルギー北海道株式会社（7430001022357）に合併し解散,2015-10-05,1,,,,,ヒマワリサンギョウ,0
942,3460101005345,登記記録の閉鎖等,0,2022-01-14,2022-01-12,株式会社シーエス,,株式会社,北海道,帯広市,西五条南２８丁目１番地３,,01,207,0800015,,,2022-01-12,清算の結了等,,,2015-10-05,1,,,,,,0
944,3490001008544,登記記録の閉鎖等,0,2022-01-14,2022-01-13,株式会社四万十の大葉,,株式会社,高知県,四万十市,岩田１１１０番地１,,39,210,7871107,,,2022-01-13,清算の結了等,,,2017-01-11,1,,,,,,0
969,4010401135456,登記記録の閉鎖等,0,2022-01-14,2022-01-06,Ｅｙｅｄｅｎｔｉｔｙ　Ｇａｍｅｓ　Ｊａｐａｎ株式会社,,株式会社,東京都,新宿区,西新宿６丁目８番１号住友不動産新宿オークタワー,,13,104,1600023,,,2022-01-06,清算の結了等,,,2017-12-07,1,,,,,アイデンティティゲームスジャパン,0
976,4010402027017,登記記録の閉鎖等,0,2022-01-14,2022-01-04,有限会社新北海園,,有限会社,東京都,港区,西麻布２丁目２３番２２号,,13,103,1060031,,,2022-01-04,清算の結了等,,,2015-10-05,1,,,,,シンホッカイエン,0
977,4010403022322,登記記録の閉鎖等,0,2022-01-14,2022-01-04,ブルーエナジーブリッジファンドイオタ合同会社,,合同会社,東京都,港区,元赤坂１丁目１番７号,,13,103,1070051,,,2022-01-04,清算の結了等,,,2020-02-12,1,,,,,ブルーエナジーブリッジファンドイオタ,0
988,4010801014193,登記記録の閉鎖等,0,2022-01-14,2022-01-06,株式会社永大,,株式会社,東京都,大田区,大森中２丁目１９番１６号,,13,111,1430014,,,2022-01-06,清算の結了等,,,2015-10-05,1,,,,,エイダイ,0
992,4010802002940,登記記録の閉鎖等,0,2022-01-14,2022-01-07,有限会社大原工業,,有限会社,東京都,大田区,東糀谷４丁目１１番５－４０３号グランイーグル大鳥居,,13,111,1440033,,,2022-01-07,清算の結了等,,,2015-10-05,1,,,,,オオハラコウギョウ,0
1009,4011101071644,登記記録の閉鎖等,0,2022-01-14,2022-01-04,株式会社ＣＲＥ－ＣＯ,,株式会社,東京都,新宿区,新宿１丁目３番８号ＹＫＢ新宿御苑３Ｆ,,13,104,1600022,,,2022-01-04,合併による解散等,3011101057586,令和４年１月１日東京都新宿区新宿一丁目３番８号ＹＫＢ新宿御苑３Ｆ株式会社ＣＲＥ－ＣＯ（3011101057586）に合併し解散,2015-10-05,1,,,,,クレコ,0
1032,4011701016206,登記記録の閉鎖等,0,2022-01-14,2022-01-11,株式会社優和ビジネス,,株式会社,東京都,江戸川区,清新町１丁目４番８号,,13,123,1340087,,,2022-01-11,清算の結了等,,,2015-10-05,1,,,,,ユウワビジネス,0
1034,4011803002426,登記記録の閉鎖等,0,2022-01-14,2022-01-13,創作集団タルヲシル株式会社,,株式会社,東京都,足立区,加平３丁目１６番２号,,13,121,1210055,,,2022-01-13,清算の結了等,,,2016-04-19,1,,,,,,0
1054,4021001044138,登記記録の閉鎖等,0,2022-01-14,2022-01-12,株式会社ＧＳサービス,,株式会社,神奈川県,横須賀市,汐入町２丁目３番地柏木ビル４０１号,,14,201,2380042,,,2022-01-12,清算の結了等,,,2015-10-05,1,,,,,,0
1073,4040001011212,登記記録の閉鎖等,0,2022-01-14,2022-01-05,株式会社グレイスラボラトリー,,株式会社,千葉県,千葉市稲毛区,園生町１３３９番１,,12,103,2630051,,,2022-01-05,清算の結了等,,,2015-10-05,1,,,,,グレイスラボラトリー,0
1096,4080001009293,登記記録の閉鎖等,0,2022-01-14,2022-01-11,株式会社望月家具製作所,,株式会社,静岡県,静岡市清水区,宮加三３４３番地の３,,22,103,4240911,,,2022-01-11,清算の結了等,,,2015-10-05,1,,,,,モチヅキカグセイサクジョ,0
1100,4080102008244,登記記録の閉鎖等,0,2022-01-14,2022-01-12,有限会社栄屋スーパーストアー,,有限会社,静岡県,伊豆市,柏久保５５３番地の８,,22,222,4102407,,,2022-01-12,清算の結了等,,,2015-10-05,1,,,,,サカエヤスーパーストアー,0
1104,4090001016363,登記記録の閉鎖等,0,2022-01-14,2022-01-11,リゾートデザイン株式会社,,株式会社,山梨県,南都留郡富士河口湖町,河口２７４６番地１,,19,430,4010304,,,2022-01-11,清算の結了等,,,2020-01-31,1,,,,,リゾートデザイン,0
1109,4110002018570,登記記録の閉鎖等,0,2022-01-14,2022-01-05,有限会社テクノパック,,有限会社,新潟県,南蒲原郡田上町,大字川船河甲１３５０番地２００,,15,361,9591513,,,2022-01-05,合併による解散等,5110001022606,令和４年１月１日新潟県長岡市原町一丁目５番地１５株式会社シマキュウ（5110001022606）に合併し解散,2015-10-05,1,,,,,テクノパック,0
1136,4120002004784,登記記録の閉鎖等,0,2022-01-14,2022-01-07,有限会社プライム,,有限会社,大阪府,大阪市都島区,友渕町２丁目７番１７号,,27,102,5340016,,,2022-01-07,清算の結了等,,,2015-10-05,1,,,,,プライム,0
1156,4120901028108,登記記録の閉鎖等,0,2022-01-14,2022-01-14,大長商事株式会社,,株式会社,福井県,越前市,松森町第２４号９番地,,18,209,9150852,,,2022-01-14,登記官による閉鎖,,,2015-10-05,1,,,,,,0
1159,4130001001947,登記記録の閉鎖等,0,2022-01-14,2022-01-07,丸有印刷株式会社,,株式会社,京都府,久世郡久御山町,中島沖ノ内７６番地,,26,322,6130041,,,2022-01-07,清算の結了等,,,2015-10-05,1,,,,,,0
1177,4170002011116,登記記録の閉鎖等,0,2022-01-14,2022-01-12,有限会社切目屋薬局,,有限会社,和歌山県,新宮市,大橋通３丁目１番地の５,,30,207,6470004,,,2022-01-12,清算の結了等,,,2015-10-05,1,,,,,キリメヤヤッキョク,0
1181,4180002007261,登記記録の閉鎖等,0,2022-01-14,2022-01-11,有限会社名晃油脂,,有限会社,愛知県,名古屋市中川区,荒子町字大門東８８グレイス高畑４０１,,23,110,4540861,,,2022-01-11,清算の結了等,,,2015-10-05,1,,,,,メイコウユシ,0
1190,4210001010741,登記記録の閉鎖等,0,2022-01-14,2022-01-14,株式会社福井アート,,株式会社,福井県,敦賀市,呉竹町１丁目３８番１２号,,18,202,9140802,,,2022-01-14,登記官による閉鎖,,,2015-10-05,1,,,,,,0
1195,4210002002770,登記記録の閉鎖等,0,2022-01-14,2022-01-14,有限会社野村美容室,,有限会社,福井県,福井市,大手３丁目７番１号,,18,201,9100005,,,2022-01-14,登記官による閉鎖,,,2015-10-05,1,,,,,,0
1196,4210002010435,登記記録の閉鎖等,0,2022-01-14,2022-01-14,有限会社ティーアンドエム計算センター,,有限会社,福井県,敦賀市,神楽町１丁目４番２９号,,18,202,9140063,,,2022-01-14,登記官による閉鎖,,,2015-10-05,1,,,,,,0
1202,4240001005061,登記記録の閉鎖等,0,2022-01-14,2022-01-11,株式会社シャル,,株式会社,広島県,広島市中区,田中町６番１６号,,34,101,7300026,,,2022-01-11,清算の結了等,,,2015-10-05,1,,,,,シャル,0
1214,4290001018505,登記記録の閉鎖等,0,2022-01-14,2022-01-07,博洋自動車株式会社,,株式会社,福岡県,糟屋郡須惠町,大字植木１４２５番地１,,40,344,8112112,,,2022-01-07,清算の結了等,,,2015-10-05,1,,,,,,0
1215,4290001076296,登記記録の閉鎖等,0,2022-01-14,2022-01-07,株式会社近未来ダイニング,,株式会社,福岡県,福岡市中央区,天神１丁目１５番３３号１Ｆ,,40,133,8100001,,,2022-01-07,清算の結了等,,,2017-01-10,1,,,,,,0
1219,4290005014806,登記記録の閉鎖等,0,2022-01-14,2022-01-11,ＮＰＯ法人ライフサポート,,その他の設立登記法人,福岡県,柳川市,三橋町蒲船津２０３番地５,,40,207,8320827,,,2022-01-11,清算の結了等,,,2015-10-05,1,,,,,ライフサポート,0
1228,4300005003328,登記記録の閉鎖等,0,2022-01-14,2021-12-15,天理教住吉分教会,,その他の設立登記法人,佐賀県,武雄市,山内町大字大野７１２２番地,,41,206,8492304,,,2021-12-15,合併による解散等,4300005004359,令和３年１２月１５日佐賀県西松浦郡有田町南原甲９６番地１天理教西松浦分教会（4300005004359）に合併し解散,2015-10-05,1,,,,,テンリキョウスミヨシブンキョウカイ,0
1238,4330002021916,登記記録の閉鎖等,0,2022-01-14,2022-01-05,有限会社古野瓦工事,,有限会社,熊本県,荒尾市,牛水８３番地,,43,204,8640026,,,2022-01-05,清算の結了等,,,2015-10-05,1,,,,,フルノカワラコウジ,0
1260,4420001004945,登記記録の閉鎖等,0,2022-01-14,2022-01-12,通信ネット株式会社,,株式会社,青森県,青森市,奥野４丁目１１番１４号,,02,201,0300841,,,2022-01-12,清算の結了等,,,2015-10-05,1,,,,,ツウシンネット,0
1266,4430002009249,登記記録の閉鎖等,0,2022-01-14,2022-01-06,株式会社敷島ホールディングス,,株式会社,北海道,札幌市中央区,大通西２８丁目２番１２号,,01,101,0640820,,,2022-01-06,合併による解散等,6430001007292,令和４年１月１日札幌市中央区北二条西三丁目１番地株式会社敷島屋（6430001007292）に合併し解散,2015-10-05,1,,,,,シキシマホールディングス,0
1267,4450002002160,登記記録の閉鎖等,0,2022-01-14,2022-01-13,有限会社コスモ観光,,有限会社,北海道,旭川市,永山八条１丁目３番１５号,,01,204,0798418,,,2022-01-13,清算の結了等,,,2015-10-05,1,,,,,コスモカンコウ,0
1301,5010403010482,登記記録の閉鎖等,0,2022-01-14,2022-01-04,ＰｈｏｔｏＳｏｌ合同会社,,合同会社,東京都,千代田区,内幸町２丁目２番２号富国生命ビル１２階ヤンセン外国法事務弁護士事務所内,,13,101,1000011,,,2022-01-04,合併による解散等,8010403010216,令和４年１月１日東京都千代田区内幸町二丁目２番２号富国生命ビル１２階渥美坂井法律事務所内ＲｅｄＳｏｌ合同会社（8010403010216）に合併し解散,2015-10-05,1,,,,,フォトソル,0
1302,5010403022321,登記記録の閉鎖等,0,2022-01-14,2022-01-04,ブルーエナジーブリッジファンドカッパ合同会社,,合同会社,東京都,港区,元赤坂１丁目１番７号,,13,103,1070051,,,2022-01-04,清算の結了等,,,2020-02-12,1,,,,,ブルーエナジーブリッジファンドカッパ,0
1359,5013202013433,登記記録の閉鎖等,0,2022-01-14,2021-12-24,マリアコーポレーション株式会社,,株式会社,東京都,目黒区,平町２丁目９番１７号,,13,110,1520032,,,2021-12-24,清算の結了等,,,2015-10-05,1,,,,,マリアコーポレーション,0
1364,5020001019149,登記記録の閉鎖等,0,2022-01-14,2022-01-07,株式会社横浜スーパー・ファクトリー,,株式会社,神奈川県,横浜市鶴見区,末広町１丁目１１番地,,14,101,2300045,,,2022-01-07,合併による解散等,4010001055088,令和４年１月１日東京都中央区築地五丁目４番１８号株式会社電通クリエーティブキューブ（4010001055088）に合併し解散,2015-10-05,1,,,,,ヨコハマスーパーファクトリー,0
1368,5020001126374,登記記録の閉鎖等,0,2022-01-14,2022-01-11,株式会社Ａｑｕａ　Ｔｅｒｒａ,,株式会社,神奈川県,藤沢市,辻堂神台１丁目６番５（１階Ａ）,,14,205,2510041,,,2022-01-11,合併による解散等,4350001012187,令和４年１月１日東京都大田区山王三丁目４３番２－１０３号株式会社ＶＩＴＡ（4350001012187）に合併し解散,2018-05-18,1,,,,,アクアテラ,0
1401,5030002084158,登記記録の閉鎖等,0,2022-01-14,2022-01-12,有限会社魚七,,有限会社,埼玉県,鴻巣市,南１丁目２２番５号,,11,217,3690122,,,2022-01-12,清算の結了等,,,2015-10-05,1,,,,,,0
1408,5040001079190,登記記録の閉鎖等,0,2022-01-14,2022-01-07,株式会社マツダイ機工,,株式会社,千葉県,千葉市稲毛区,長沼町２５９番地４４元気ハイツ１０１号,,12,103,2630005,,,2022-01-07,清算の結了等,,,2015-10-05,1,,,,,マツダイキコウ,0
1412,5050001000122,登記記録の閉鎖等,0,2022-01-14,2022-01-07,株式会社赤のれんエルベ,,株式会社,茨城県,水戸市,本町１丁目９番２５号,,08,201,3100815,,,2022-01-07,清算の結了等,,,2015-10-05,1,,,,,アカノレンエルベ,0
1416,5060001019244,登記記録の閉鎖等,0,2022-01-14,2022-01-07,株式会社三田オートモービル,,株式会社,栃木県,足利市,助戸仲町４８９番地,,09,202,3260043,,,2022-01-07,合併による解散等,9030001041668,令和４年１月１日埼玉県さいたま市大宮区桜木町一丁目７番地５株式会社ホンダカーズ埼玉中（9030001041668）に合併し解散,2015-10-05,1,,,,,ミタオートモービル,0
1418,5060002020820,登記記録の閉鎖等,0,2022-01-14,2022-01-05,藤平産業有限会社,,有限会社,栃木県,鹿沼市,茂呂字北野２４７２番地,,09,205,3220026,,,2022-01-05,清算の結了等,,,2015-10-05,1,,,,,,0
1446,5120001204087,登記記録の閉鎖等,0,2022-01-14,2022-01-11,ａｎｄ　Ｉｎｔｅｒｎａｔｉｏｎａｌ株式会社,,株式会社,大阪府,大阪市浪速区,桜川４丁目１４番３０号三研ビルディング桜川３Ａ号,,27,111,5560022,,,2022-01-11,清算の結了等,,,2017-03-03,1,,,,,アンドインターナショナル,0
1463,5120102023048,登記記録の閉鎖等,0,2022-01-14,2022-01-11,有限会社未来,,有限会社,大阪府,岸和田市,下池田町１丁目９番２２号,,27,202,5960811,,,2022-01-11,清算の結了等,,,2015-10-05,1,,,,,ミライ,0
1486,5170002000704,登記記録の閉鎖等,0,2022-01-14,2022-01-12,有限会社太田建設,,有限会社,和歌山県,和歌山市,平尾２７６番地の４,,30,201,6400304,,,2022-01-12,清算の結了等,,,2015-10-05,1,,,,,オオタケンセツ,0
1502,5180302026142,登記記録の閉鎖等,0,2022-01-14,2022-01-12,有限会社セイブン,,有限会社,愛知県,西尾市,寺津町亀井７７番地１０,,23,213,4440324,,,2022-01-12,清算の結了等,,,2015-10-05,1,,,,,セイブン,0
1509,5210001009023,登記記録の閉鎖等,0,2022-01-14,2022-01-14,株式会社ＳＴＹＬＥ　ＡＵＧ,,株式会社,福井県,福井市,二の宮４丁目１番７号,,18,201,9100015,,,2022-01-14,登記官による閉鎖,,,2015-10-05,1,,,,,,0
1510,5210001009691,登記記録の閉鎖等,0,2022-01-14,2022-01-14,株式会社アートスチール,,株式会社,福井県,大野市,中保１５号１０８番地２,,18,205,9120014,,,2022-01-14,登記官による閉鎖,,,2015-10-05,1,,,,,,0
1511,5210001010369,登記記録の閉鎖等,0,2022-01-14,2022-01-14,株式会社ジャパン・エクスプレス・チャイナ,,株式会社,福井県,福井市,二の宮５丁目１２番２２号,,18,201,9100015,,,2022-01-14,登記官による閉鎖,,,2015-10-05,1,,,,,,0
1512,5210001011490,登記記録の閉鎖等,0,2022-01-14,2022-01-14,株式会社エポック,,株式会社,福井県,越前市,家久町５７号１６番地,,18,209,9150801,,,2022-01-14,登記官による閉鎖,,,2015-10-05,1,,,,,,0
1514,5210003000954,登記記録の閉鎖等,0,2022-01-14,2022-01-14,坂下織布合名会社,,合名会社,福井県,福井市,御所垣内町１６号４４番地２,,18,201,9103112,,,2022-01-14,登記官による閉鎖,,,2016-11-04,1,,,,,,0
1515,5210005009606,登記記録の閉鎖等,0,2022-01-14,2022-01-14,白濱漁業協同組合,,その他の設立登記法人,福井県,丹生郡越前町,高佐２１号２番地,,18,423,9160425,,,2022-01-14,登記官による閉鎖,,,2016-07-15,1,,,,,,0
1516,5220001000749,登記記録の閉鎖等,0,2022-01-14,2022-01-07,朝日新聞金沢販売株式会社,,株式会社,石川県,金沢市,玉川町１１番３１号,,17,201,9200863,,,2022-01-07,清算の結了等,,,2015-10-05,1,,,,,アサヒシンブンカナザワハンバイ,0
1517,5220002004815,登記記録の閉鎖等,0,2022-01-14,2022-01-11,有限会社ビー・ピー・エス,,有限会社,石川県,金沢市,諸江町中丁２４０番地,,17,201,9200016,,,2022-01-11,清算の結了等,,,2015-10-05,1,,,,,ビーピーエス,0
1527,5240005013415,登記記録の閉鎖等,0,2022-01-14,2022-01-13,特定非営利活動法人高田っ子倶楽部,,その他の設立登記法人,広島県,江田島市,能美町高田３４０４番地１,,34,215,7372303,,,2022-01-13,清算の結了等,,,2015-10-05,1,,,,,タカタッコクラブ,0
1534,5280002007374,登記記録の閉鎖等,0,2022-01-14,2022-01-13,有限会社ＥＸＥＯ,,有限会社,島根県,出雲市,小山町３３８番地８,,32,203,6930051,,,2022-01-13,清算の結了等,,,2015-10-05,1,,,,,エクシオ,0
1535,5290001055398,登記記録の閉鎖等,0,2022-01-14,2022-01-05,有明ワーク・アソシェーツ株式会社,,株式会社,福岡県,大牟田市,不知火町２丁目５番地１シーザリオン２階,,40,202,8360843,,,2022-01-05,合併による解散等,7290001053689,令和４年１月１日福岡県大牟田市不知火町二丁目５番地１シーザリオン２階有明商事株式会社（7290001053689）に合併し解散,2015-10-05,1,,,,,アリアケワークアソシェーツ,0
1542,5290003009724,登記記録の閉鎖等,0,2022-01-14,2022-01-07,合同会社マーベル,,合同会社,福岡県,福岡市博多区,中洲１丁目５番１５号,,40,132,8100801,,,2022-01-07,清算の結了等,,,2020-01-31,1,,,,,マーベル,0
1562,5350002014330,登記記録の閉鎖等,0,2022-01-14,2022-01-12,有限会社成紘建設,,有限会社,宮崎県,都城市,年見町２６号３番地,,45,202,8850017,,,2022-01-12,清算の結了等,,,2015-10-05,1,,,,,セイコウケンセツ,0
1599,5470002009145,登記記録の閉鎖等,0,2022-01-14,2022-01-11,有限会社オフィス檀,,有限会社,香川県,高松市,檀紙町１４８９番地１,,37,201,7618041,,,2022-01-11,清算の結了等,,,2015-10-05,1,,,,,オフィスダン,0
1633,6010403019630,登記記録の閉鎖等,0,2022-01-14,2022-01-04,ブルーエナジーブリッジファンドＦ合同会社,,合同会社,東京都,港区,元赤坂１丁目１番７号,,13,103,1070051,,,2022-01-04,清算の結了等,,,2018-11-05,1,,,,,ブルーエナジーブリッジファンドエフ,0
1649,6010902017432,登記記録の閉鎖等,0,2022-01-14,2022-01-11,有限会社レガロ,,有限会社,東京都,世田谷区,弦巻２丁目９番５－５０１号,,13,112,1540016,,,2022-01-11,清算の結了等,,,2015-10-05,1,,,,,レガロ,0
1650,6011001005238,登記記録の閉鎖等,0,2022-01-14,2021-12-24,株式会社オフィス石川,,株式会社,東京都,渋谷区,神宮前２丁目３４番５－１０８号,,13,113,1500001,,,2021-12-24,清算の結了等,,,2015-10-05,1,,,,,オフィスイシカワ,0
1661,6011102026835,登記記録の閉鎖等,0,2022-01-14,2022-01-11,有限会社ＭＡＶＥＲＩＣＫ,,有限会社,東京都,文京区,本郷２丁目２２番１号,,13,105,1130033,,,2022-01-11,清算の結了等,,,2015-10-05,1,,,,,マーヴェリック,0
1688,6020001044063,登記記録の閉鎖等,0,2022-01-14,2022-01-11,和興オートパーツ販売株式会社,,株式会社,神奈川県,横浜市港北区,新横浜３丁目６番地５,,14,109,2220033,,,2022-01-11,合併による解散等,7010001060894,令和４年１月１日東京都千代田区鍛冶町一丁目８番３号和興フィルタテクノロジー株式会社（7010001060894）に合併し解散,2015-10-05,1,,,,,ワコウオートパーツハンバイ,0
1703,6020002086146,登記記録の閉鎖等,0,2022-01-14,2022-01-12,有限会社大久保園,,有限会社,神奈川県,川崎市宮前区,土橋２丁目１１番地６,,14,136,2160005,,,2022-01-12,清算の結了等,,,2015-10-05,1,,,,,オオクボエン,0
1790,6120105004143,登記記録の閉鎖等,0,2022-01-14,2021-12-20,福應寺,,その他の設立登記法人,大阪府,松原市,上田７丁目１番１０号,,27,217,5800016,,,2021-12-20,合併による解散等,4120105004104,令和３年１２月２０日大阪府松原市上田七丁目１５番２９号願正寺（4120105004104）に合併し解散,2015-10-05,1,,,,,フクオウジ,0
1828,6200003003197,登記記録の閉鎖等,0,2022-01-14,2022-01-13,合同会社寳船,,合同会社,岐阜県,可児郡御嵩町,中２６６３番地７１,,21,521,5050121,,,2022-01-13,清算の結了等,,,2015-10-05,1,,,,,,0
1830,6210001003529,登記記録の閉鎖等,0,2022-01-14,2022-01-14,ジェットルームサービス株式会社,,株式会社,福井県,福井市,開発３丁目８０２番地,,18,201,9100842,,,2022-01-14,登記官による閉鎖,,,2015-10-05,1,,,,,,0
1831,6210001008610,登記記録の閉鎖等,0,2022-01-14,2022-01-14,株式会社ヘイセー産業,,株式会社,福井県,福井市,若杉２丁目１５１２番地,,18,201,9188055,,,2022-01-14,登記官による閉鎖,,,2015-10-05,1,,,,,,0
1832,6210002001944,登記記録の閉鎖等,0,2022-01-14,2022-01-14,有限会社千徳,,有限会社,福井県,福井市,開発２丁目２２５番地,,18,201,9100842,,,2022-01-14,登記官による閉鎖,,,2015-10-05,1,,,,,,0
1833,6210002012108,登記記録の閉鎖等,0,2022-01-14,2022-01-14,有限会社爲沢眼鏡,,有限会社,福井県,越前市,中津山町第１１号９番地１,,18,209,9150253,,,2022-01-14,登記官による閉鎖,,,2015-10-05,1,,,,,,0
1834,6210003000499,登記記録の閉鎖等,0,2022-01-14,2022-01-14,合資会社杉本機業場,,合資会社,福井県,勝山市,栄町４丁目３番１９号,,18,206,9110033,,,2022-01-14,登記官による閉鎖,,,2016-08-12,1,,,,,,0
1835,6210003000664,登記記録の閉鎖等,0,2022-01-14,2022-01-14,合同会社あすなろケア・プランニング,,合同会社,福井県,越前市,稲寄町７字３番地１,,18,209,9150095,,,2022-01-14,登記官による閉鎖,,,2015-10-05,1,,,,,,0
1836,6210005008937,登記記録の閉鎖等,0,2022-01-14,2022-01-14,協同組合小浜駅前デパート,,その他の設立登記法人,福井県,小浜市,駅前町６番１号,,18,204,9170077,,,2022-01-14,登記官による閉鎖,,,2015-10-05,1,,,,,,0
1851,6250002000562,登記記録の閉鎖等,0,2022-01-14,2022-01-12,有限会社寿塗装店,,有限会社,山口県,山口市,下小鯖２０９８番地の２,00002544,35,203,7530212,,,2022-01-12,清算の結了等,,,2015-10-05,1,,,,,コトブキトソウテン,0
1857,6290001002853,登記記録の閉鎖等,0,2022-01-14,2022-01-05,株式会社九州建産,,株式会社,福岡県,福岡市東区,松島３丁目２１番７号,,40,131,8130062,,,2022-01-05,合併による解散等,2290001049320,令和４年１月１日福岡県久留米市宮ノ陣町若松１番地の９株式会社ニシケン（2290001049320）に合併し解散,2015-10-05,1,,,,,キュウシュウケンサン,0
1871,6300002008419,登記記録の閉鎖等,0,2022-01-14,2022-01-07,有限会社白屋クリーニング,,有限会社,佐賀県,西松浦郡有田町,丸尾丙１９２２番地４,,41,401,8440023,,,2022-01-07,清算の結了等,,,2015-10-05,1,,,,,シロヤクリーニング,0
1873,6310001015258,登記記録の閉鎖等,0,2022-01-14,2022-01-11,株式会社さち,,株式会社,長崎県,東彼杵郡川棚町,中組郷１５４５番地２,,42,322,8593614,,,2022-01-11,清算の結了等,,,2017-11-28,1,,,,,サチ,0
1912,6390005003912,登記記録の閉鎖等,0,2022-01-14,2022-01-04,一般財団法人庄内自動車協会,,その他の設立登記法人,山形県,東田川郡三川町,大字押切新田字歌枕１０９番地２,,06,426,9971321,,,2022-01-04,合併による解散等,4390005007873,令和４年１月１日山形市大字漆山字行段１９６１番地一般社団法人山形県自動車整備振興会（4390005007873）に合併し解散,2015-10-05,1,,,,,ショウナイジドウシャキョウカイ,0
1920,6450001000502,登記記録の閉鎖等,0,2022-01-14,2022-01-13,株式会社市村商事,,株式会社,北海道,旭川市,六条通１１丁目５５番地の２５,,01,204,0700036,,,2022-01-13,清算の結了等,,,2015-10-05,1,,,,,イチムラショウジ,0
1933,7010001180916,登記記録の閉鎖等,0,2022-01-14,2022-01-05,株式会社Ｓｉｍｐｌｅ＆ｃｏｎｖｉｎｃｅｄ　Ｓｅｒｖｉｃｅ,,株式会社,東京都,千代田区,四番町１番地８,,13,101,1020081,,,2022-01-05,清算の結了等,,,2017-01-23,1,,,,,シンプルアンドコンビンスドサービス,0
1948,7010005024788,登記記録の閉鎖等,0,2022-01-14,2022-01-12,Ｐｒｅｍｉｅｒ　Ｊａｐａｎ　Ｉｎｖｅｓｔｍｅｎｔ特定目的会社,,その他の設立登記法人,東京都,中央区,銀座１丁目６番１１号土志田ビルディング３Ｆ,,13,102,1040061,,,2022-01-12,清算の結了等,,,2016-01-04,1,,,,,プレミアジャパンインヴェストメント,0
1951,7010401145766,登記記録の閉鎖等,0,2022-01-14,2022-01-04,株式会社ＲＯＯＴｓ,,株式会社,東京都,港区,赤坂５丁目２番２０号,,13,103,1070052,,,2022-01-04,合併による解散等,3010401076255,令和４年１月１日東京都港区赤坂五丁目２番２０号株式会社読売広告社（3010401076255）に合併し解散,2019-05-24,1,,,,,ルーツ,0
1959,7010403010217,登記記録の閉鎖等,0,2022-01-14,2022-01-04,ＧｒｅｅｎＳｏｌ合同会社,,合同会社,東京都,千代田区,内幸町２丁目２番２号富国生命ビル１２階渥美坂井法律事務所内,,13,101,1000011,,,2022-01-04,合併による解散等,8010403010216,令和４年１月１日東京都千代田区内幸町二丁目２番２号富国生命ビル１２階渥美坂井法律事務所内ＲｅｄＳｏｌ合同会社（8010403010216）に合併し解散,2015-10-05,1,,,,,グリーンソル,0
1993,7012803001191,登記記録の閉鎖等,0,2022-01-14,2022-01-07,カスタム保険企画合同会社,,合同会社,東京都,国立市,谷保５０２番地の７,,13,215,1860011,,,2022-01-07,清算の結了等,,,2015-10-05,1,,,,,カスタムホケンキカク,0
2015,7020002099353,登記記録の閉鎖等,0,2022-01-14,2022-01-12,有限会社ミツ薬局,,有限会社,神奈川県,川崎市川崎区,大島３丁目１５番１３号,,14,131,2100834,,,2022-01-12,清算の結了等,,,2022-01-11,1,,,,,ミツヤッキョク,0
2019,7021001002794,登記記録の閉鎖等,0,2022-01-14,2022-01-11,株式会社ワイプラス,,株式会社,神奈川県,逗子市,小坪３丁目１５番３号,,14,208,2490008,,,2022-01-11,清算の結了等,,,2015-10-05,1,,,,,ワイプラス,0
2020,7021001054514,登記記録の閉鎖等,0,2022-01-14,2022-01-11,株式会社Ｔファクトリー,,株式会社,神奈川県,秦野市,南矢名２丁目２６番３２号,,14,211,2570003,,,2022-01-11,清算の結了等,,,2015-10-05,1,,,,,,0
2032,7030001026134,登記記録の閉鎖等,0,2022-01-14,2022-01-11,イケヤテック株式会社,,株式会社,埼玉県,狭山市,大字東三ツ木１０２番地の１１１,,11,215,3501302,,,2022-01-11,清算の結了等,,,2015-10-05,1,,,,,イケヤテック,0
2037,7030002065453,登記記録の閉鎖等,0,2022-01-14,2022-01-12,有限会社タバコセンター武蔵野,,有限会社,埼玉県,新座市,野火止４丁目１番２５号,,11,230,3520011,,,2022-01-12,清算の結了等,,,2015-10-05,1,,,,,タバコセンタームサシノ,0
2039,7040001058267,登記記録の閉鎖等,0,2022-01-14,2022-01-04,レンタル千葉株式会社,,株式会社,千葉県,山武市,大木８０２番地,,12,237,2891211,,,2022-01-04,合併による解散等,2040001058222,令和３年１２月３１日千葉県山武市大木８０２番地株式会社八起産業（2040001058222）に合併し解散,2015-10-05,1,,,,,レンタルチバ,0
2054,7060001026775,登記記録の閉鎖等,0,2022-01-14,2022-01-05,株式会社フクダキカク,,株式会社,栃木県,那須塩原市,上厚崎６番地１９,,09,213,3250026,,,2022-01-05,清算の結了等,,,2015-10-05,1,,,,,,0
2070,7100001005659,登記記録の閉鎖等,0,2022-01-14,2022-01-11,東和建物株式会社,,株式会社,長野県,須坂市,大字須坂８４７番地,,20,207,3820000,,,2022-01-11,清算の結了等,,,2015-10-05,1,,,,,トウワタテモノ,0
2073,7110002012273,登記記録の閉鎖等,0,2022-01-14,2022-01-11,有限会社プラシカ,,有限会社,新潟県,新潟市西区,内野西３丁目２番８７号,,15,107,9502151,,,2022-01-11,清算の結了等,,,2015-10-05,1,,,,,プラシカ,0
2097,7120102003353,登記記録の閉鎖等,0,2022-01-14,2022-01-12,有限会社中嶋撚糸,,有限会社,大阪府,堺市中区,大野芝町１８７番地,,27,142,5998233,,,2022-01-12,清算の結了等,,,2015-10-05,1,,,,,ナカジマネンシ,0
2121,7190001014420,登記記録の閉鎖等,0,2022-01-14,2022-01-07,株式会社英耀,,株式会社,三重県,四日市市,尾平町３１８７番地８,,24,202,5120921,,,2022-01-07,清算の結了等,,,2015-10-05,1,,,,,エイヨウ,0
2123,7200002004889,登記記録の閉鎖等,0,2022-01-14,2022-01-11,有限会社モリ薬局,,有限会社,岐阜県,岐阜市,柳ケ瀬通４丁目６番地,,21,201,5008875,,,2022-01-11,清算の結了等,,,2015-10-05,1,,,,,モリヤッキョク,0
2124,7210001004162,登記記録の閉鎖等,0,2022-01-14,2022-01-14,山田硝子建材株式会社,,株式会社,福井県,福井市,二の宮５丁目１７番２３号,,18,201,9100015,,,2022-01-14,登記官による閉鎖,,,2015-10-05,1,,,,,,0
2125,7210001009426,登記記録の閉鎖等,0,2022-01-14,2022-01-14,広洋株式会社,,株式会社,福井県,福井市,中央１丁目２１－５－３０２号,,18,201,9100006,,,2022-01-14,登記官による閉鎖,,,2015-10-05,1,,,,,,0
2126,7210001010004,登記記録の閉鎖等,0,2022-01-14,2022-01-14,勝山生コンクリート株式会社,,株式会社,福井県,勝山市,荒土町妙金島４号３３番地,,18,206,9110045,,,2022-01-14,登記官による閉鎖,,,2015-10-05,1,,,,,,0
2127,7210001011472,登記記録の閉鎖等,0,2022-01-14,2022-01-14,上木石油株式会社,,株式会社,福井県,越前市,押田２丁目１０番７号,,18,209,9150083,,,2022-01-14,登記官による閉鎖,,,2015-10-05,1,,,,,,0
2128,7210002003782,登記記録の閉鎖等,0,2022-01-14,2022-01-14,有限会社ライフサークル,,有限会社,福井県,福井市,下中町第１号２２番地の３,,18,201,9188211,,,2022-01-14,登記官による閉鎖,,,2015-10-05,1,,,,,,0
2129,7210002007742,登記記録の閉鎖等,0,2022-01-14,2022-01-14,有限会社笠松商事,,有限会社,福井県,坂井市,丸岡町一本田中第３１号７番地１,,18,210,9100253,,,2022-01-14,登記官による閉鎖,,,2015-10-05,1,,,,,,0
2134,7230001006314,登記記録の閉鎖等,0,2022-01-14,2022-01-07,株式会社日興地所,,株式会社,富山県,富山市,五福３４３０番地,,16,201,9300887,,,2022-01-07,清算の結了等,,,2015-10-05,1,,,,,ニッコウジショ,0
2136,7240001033654,登記記録の閉鎖等,0,2022-01-14,2022-01-12,新市食産株式会社,,株式会社,広島県,福山市,新市町大字新市１０６５番地,,34,207,7293103,,,2022-01-12,清算の結了等,,,2015-10-05,1,,,,,シンイチショクサン,0
2141,7250002001980,登記記録の閉鎖等,0,2022-01-14,2022-01-12,有限会社ユービー,,有限会社,山口県,山口市,大内矢田１５０番地,,35,203,7530215,,,2022-01-12,清算の結了等,,,2015-10-05,1,,,,,ユービー,0
2144,7260002016904,登記記録の閉鎖等,0,2022-01-14,2021-12-22,有限会社岡山タオル,,有限会社,岡山県,都窪郡早島町,前潟１０６１番地,,33,423,7010303,,,2021-12-22,合併による解散等,5260001001033,令和３年１２月２２日岡山市中区江並３７４番地の２岡山県タオル株式会社（5260001001033）と合併して解散,2015-10-05,1,,,,,オカヤマタオル,0
2159,7300001009243,登記記録の閉鎖等,0,2022-01-14,2022-01-07,株式会社Ｋ・Ｋプロデュース,,株式会社,佐賀県,佐賀市,卸本町７番５３号,00113803,41,201,8490933,,,2022-01-07,清算の結了等,,,2015-10-05,1,,,,,ケーケープロデュース,0
2166,7340001015997,登記記録の閉鎖等,0,2022-01-14,2022-01-12,株式会社Ｊｏｈｎｎｙ　ｆｏｏｄｓ,,株式会社,鹿児島県,鹿屋市,新生町２番２０号,,46,203,8930062,,,2022-01-12,清算の結了等,,,2015-10-05,1,,,,,,0
2177,7370001040712,登記記録の閉鎖等,0,2022-01-14,2022-01-12,株式会社仙台中京医薬品,,株式会社,宮城県,名取市,美田園５丁目４番地１アルモニーパル１０３号室,,04,207,9811217,,,2022-01-12,合併による解散等,1050001016865,令和４年１月１日茨城県つくば市大砂１８５番地４３茨城田村薬品株式会社（1050001016865）に合併し解散,2017-01-05,1,,,,,センダイチュウキョウイヤクヒン,0
2181,7380001009987,登記記録の閉鎖等,0,2022-01-14,2022-01-11,西池テニスクラブ株式会社,,株式会社,福島県,二本松市,槻木２５２番地３,,07,210,9640875,,,2022-01-11,清算の結了等,,,2015-10-05,1,,,,,,0
2201,7500002005320,登記記録の閉鎖等,0,2022-01-14,2022-01-12,有限会社長谷川水産,,有限会社,愛媛県,松山市,三津２丁目９番１３号,,38,201,7918061,,,2022-01-12,清算の結了等,,,2015-10-05,1,,,,,ハセガワスイサン,0
2212,8010003019013,登記記録の閉鎖等,0,2022-01-14,2022-01-04,ＳｏｌａｒＢｌｕｅ合同会社,,合同会社,東京都,千代田区,内幸町２丁目２番２号富国生命ビル１２階渥美坂井法律事務所内,,13,101,1000011,,,2022-01-04,合併による解散等,8010403010216,令和４年１月１日東京都千代田区内幸町二丁目２番２号富国生命ビル１２階渥美坂井法律事務所内ＲｅｄＳｏｌ合同会社（8010403010216）に合併し解散,2015-10-05,1,,,,,ソーラーブルー,0
2217,8010101013421,登記記録の閉鎖等,0,2022-01-14,2022-01-12,株式会社アシスト,,株式会社,東京都,八王子市,三崎町３番４号ＲＪスクエア７階Ａ,,13,201,1920084,,,2022-01-12,清算の結了等,,,2018-08-23,1,,,,,アシスト,0
2219,8010401098939,登記記録の閉鎖等,0,2022-01-14,2022-01-11,株式会社メッドインテル,,株式会社,滋賀県,草津市,野路１丁目１２番１１－１２０２号,,25,206,5250059,,,2022-01-11,清算の結了等,,,2015-10-05,1,,,,,メッドインテル,0
2220,8010401120636,登記記録の閉鎖等,0,2022-01-14,2022-01-11,Ｆａｓ　Ｔｅｃｈｎｏｌｏｇｉｅｓ株式会社,,株式会社,東京都,小平市,上水本町２丁目８番２９号,,13,211,1870022,,,2022-01-11,清算の結了等,,,2015-10-05,1,,,,,ファステクノロジーズ,0
2237,8010701012640,登記記録の閉鎖等,0,2022-01-14,2022-01-13,株式会社ジェイフーズ,,株式会社,東京都,品川区,荏原４丁目１番４号,,13,109,1420063,,,2022-01-13,清算の結了等,,,2015-10-05,1,,,,,ジェイフーズ,0
2240,8010901019601,登記記録の閉鎖等,0,2022-01-14,2022-01-12,株式会社Ｍ＆Ｈコーポレーション,,株式会社,東京都,世田谷区,玉川台２丁目１番１５号,,13,112,1580096,,,2022-01-12,清算の結了等,,,2015-10-05,1,,,,,,0
2260,8011502007177,登記記録の閉鎖等,0,2022-01-14,2022-01-07,有限会社上沢寝具店,,有限会社,東京都,荒川区,西尾久５丁目７番２４号,,13,118,1160011,,,2022-01-07,清算の結了等,,,2015-10-05,1,,,,,カミザワシングテン,0
2264,8011801007919,登記記録の閉鎖等,0,2022-01-14,2022-01-11,サイカ商事株式会社,,株式会社,埼玉県,草加市,瀬崎３丁目２７番１９号,,11,221,3400022,,,2022-01-11,清算の結了等,,,2015-10-05,1,,,,,サイカショウジ,0
2274,8013301041126,登記記録の閉鎖等,0,2022-01-14,2022-01-04,青松ホームズ株式会社,,株式会社,東京都,港区,西新橋３丁目４番２号ヤマキ第二ビル４階,,13,103,1050003,,,2022-01-04,清算の結了等,,,2017-09-14,1,,,,,アオマツホームズ,0
2291,8021001025200,登記記録の閉鎖等,0,2022-01-14,2022-01-11,株式会社コスメティック・アイーダ,,株式会社,神奈川県,大和市,中央林間５丁目２０番地５号,,14,213,2420007,,,2022-01-11,清算の結了等,,,2015-10-05,1,,,,,コスメティックアイーダ,0
2297,8021002036989,登記記録の閉鎖等,0,2022-01-14,2022-01-11,有限会社フォルム,,有限会社,神奈川県,厚木市,宮の里４丁目７番１－２号,,14,212,2430216,,,2022-01-11,清算の結了等,,,2015-10-05,1,,,,,フォルム,0
2305,8030001061733,登記記録の閉鎖等,0,2022-01-14,2022-01-12,株式会社サイフジ,,株式会社,埼玉県,鴻巣市,箕田字下町４１８５番地４,,11,217,3650062,,,2022-01-12,清算の結了等,,,2015-10-05,1,,,,,サイフジ,0
2308,8030001090402,登記記録の閉鎖等,0,2022-01-14,2022-01-12,株式会社ＥＩＨＯ,,株式会社,埼玉県,飯能市,大字唐竹８８番地１９,,11,209,3570127,,,2022-01-12,清算の結了等,,,2015-10-05,1,,,,,,0
2319,8040001110786,登記記録の閉鎖等,0,2022-01-14,2022-01-12,アルファス株式会社,,株式会社,埼玉県,さいたま市見沼区,大字御蔵１４１８番地１ロイヤルヒルズＡ棟１０２,,11,104,3370033,,,2022-01-12,清算の結了等,,,2019-09-25,1,,,,,アルファス,0
2345,8080101005016,登記記録の閉鎖等,0,2022-01-14,2022-01-11,株式会社アサヒ設備,,株式会社,静岡県,伊豆の国市,中條２６４番地の２,,22,225,4102121,,,2022-01-11,清算の結了等,,,2015-10-05,1,,,,,アサヒセツビ,0
2347,8080405004985,登記記録の閉鎖等,0,2022-01-14,2021-12-15,善枝庵,,その他の設立登記法人,静岡県,菊川市,河東３３０３番地,,22,224,4371506,,,2021-12-15,合併による解散等,2080405004982,令和３年１２月１５日静岡県菊川市高橋４９７番地宗教法人正林寺（2080405004982）に合併し解散,2015-10-05,1,,,,,ゼンシアン,0
2358,8100005000630,登記記録の閉鎖等,0,2022-01-14,2021-12-22,長年寺,,その他の設立登記法人,長野県,長野市,篠ノ井有旅６４７２番地,,20,201,3888016,,,2021-12-22,合併による解散等,6100005000806,令和３年１２月２２日長野市篠ノ井山布施３２５０番地法輪寺（6100005000806）に合併し解散,2015-10-05,1,,,,,チョウネンジ,0
2361,8120001029531,登記記録の閉鎖等,0,2022-01-14,2022-01-11,株式会社ニツクス,,株式会社,大阪府,大阪市港区,磯路２丁目２２番１号,,27,107,5520003,,,2022-01-11,清算の結了等,,,2015-10-05,1,,,,,ニツクス,0
2364,8120001053903,登記記録の閉鎖等,0,2022-01-14,2022-01-12,株式会社インターフェース,,株式会社,大阪府,大阪市浪速区,湊町２丁目１番５７号,,27,111,5560017,,,2022-01-12,清算の結了等,,,2015-10-05,1,,,,,インターフェース,0
2403,8120905005628,登記記録の閉鎖等,0,2022-01-14,2022-01-06,一般社団法人アクティブエイジング協会,,その他の設立登記法人,大阪府,池田市,菅原町８番１０－８０５号,,27,204,5630055,,,2022-01-06,清算の結了等,,,2017-10-11,1,,,,,アクティブエイジングキョウカイ,0
2412,8140003014232,登記記録の閉鎖等,0,2022-01-14,2022-01-07,合同会社日本フィルム,,合同会社,兵庫県,尼崎市,富松町１丁目２９番２３号,,28,202,6610003,,,2022-01-07,清算の結了等,,,2019-08-30,1,,,,,ニッポンフィルム,0
2431,8180303001678,登記記録の閉鎖等,0,2022-01-14,2022-01-11,合同会社上口,,合同会社,愛知県,豊橋市,新栄町字南小向１０番地（Ａ－１）,,23,201,4418016,,,2022-01-11,清算の結了等,,,2015-10-05,1,,,,,ジョウグチ,0
2445,8210001003048,登記記録の閉鎖等,0,2022-01-14,2022-01-14,福井嶋田株式会社,,株式会社,福井県,福井市,御幸２丁目１８番１３号,,18,201,9100854,,,2022-01-14,登記官による閉鎖,,,2015-10-05,1,,,,,,0
2446,8210001016140,登記記録の閉鎖等,0,2022-01-14,2022-01-14,株式会社嶺北石油,,株式会社,福井県,坂井市,丸岡町八ツ口第７号６番地,,18,210,9100371,,,2022-01-14,登記官による閉鎖,,,2015-12-07,1,,,,,,0
2447,8210005000537,登記記録の閉鎖等,0,2022-01-14,2022-01-14,ウインテック協同組合,,その他の設立登記法人,福井県,福井市,西下野町１２号４番地,,18,201,9188041,,,2022-01-14,登記官による閉鎖,,,2015-10-05,1,,,,,,0
2448,8210005005619,登記記録の閉鎖等,0,2022-01-14,2022-01-14,勝山ＬＰガス販売協同組合,,その他の設立登記法人,福井県,勝山市,本町３丁目２番１２号,,18,206,9110806,,,2022-01-14,登記官による閉鎖,,,2015-10-05,1,,,,,,0
2452,8240001027960,登記記録の閉鎖等,0,2022-01-14,2022-01-11,三和木工株式会社,,株式会社,広島県,廿日市市,木材港北５番３３号,,34,213,7380021,,,2022-01-11,清算の結了等,,,2015-10-05,1,,,,,サンワモッコウ,0
2458,8240005009047,登記記録の閉鎖等,0,2022-01-14,2022-01-12,新市食産協同組合,,その他の設立登記法人,広島県,福山市,新市町大字新市１０６５番地,,34,207,7293103,,,2022-01-12,清算の結了等,,,2015-10-05,1,,,,,シンイチショクサン,0
2459,8250001015551,登記記録の閉鎖等,0,2022-01-14,2022-01-11,株式会社アヤナ,,株式会社,山口県,下関市,菊川町大字下岡枝３５６番地２,,35,201,7500317,,,2022-01-11,清算の結了等,,,2015-10-05,1,,,,,アヤナ,0
2478,8290803001539,登記記録の閉鎖等,0,2022-01-14,2022-01-04,合資会社原田石材工業所,,合資会社,福岡県,行橋市,大字上津熊１番地,,40,213,8240064,,,2022-01-04,清算の結了等,,,2015-10-05,1,,,,,ハラダセキザイコウギョウショ,0
2479,8290805004473,登記記録の閉鎖等,0,2022-01-14,2022-01-07,福寳寺,,その他の設立登記法人,福岡県,北九州市八幡東区,大字槻田清田町一丁目１０９番地,,40,108,8050000,,,2022-01-07,清算の結了等,,,2015-10-05,1,,,,,フクホウジ,1
2488,8330002019840,登記記録の閉鎖等,0,2022-01-14,2022-01-11,有限会社企画一,,有限会社,熊本県,上益城郡御船町,大字木倉１５８８番地,,43,441,8613204,,,2022-01-11,清算の結了等,,,2015-10-05,1,,,,,キカクワン,0
2492,8340002013990,登記記録の閉鎖等,0,2022-01-14,2022-01-07,有限会社隼自動車工場,,有限会社,鹿児島県,霧島市,隼人町姫城２４６２番地,,46,218,8995111,,,2022-01-07,清算の結了等,,,2015-10-05,1,,,,,ハヤブサジドウシャコウジョウ,0
2537,8470002015000,登記記録の閉鎖等,0,2022-01-14,2022-01-11,四交商事有限会社,,有限会社,香川県,坂出市,番の州公園６番６号,,37,203,7620063,,,2022-01-11,清算の結了等,,,2015-10-05,1,,,,,ヨンコウショウジ,0
2544,9010001043749,登記記録の閉鎖等,0,2022-01-14,2022-01-04,コールマンジャパン株式会社,,株式会社,東京都,港区,芝浦４丁目９番２５号芝浦スクエアビル,,13,103,1080023,,,2022-01-04,合併による解散等,9120001130049,令和４年１月１日東京都港区芝浦四丁目９番２５号芝浦スクエアビルニューウェルブランズ・ジャパン合同会社（9120001130049）に合併し解散,2015-10-05,1,,,,,コールマンジャパン,0
2570,9010403010215,登記記録の閉鎖等,0,2022-01-14,2022-01-04,ＷｈｉｔｅＳｏｌ合同会社,,合同会社,東京都,千代田区,内幸町２丁目２番２号富国生命ビル１２階渥美坂井法律事務所内,,13,101,1000011,,,2022-01-04,合併による解散等,8010403010216,令和４年１月１日東京都千代田区内幸町二丁目２番２号富国生命ビル１２階渥美坂井法律事務所内ＲｅｄＳｏｌ合同会社（8010403010216）に合併し解散,2015-10-05,1,,,,,ホワイトソル,0
2583,9010701006848,登記記録の閉鎖等,0,2022-01-14,2022-01-05,株式会社東昇商事,,株式会社,東京都,新宿区,河田町３番１０号,,13,104,1620054,,,2022-01-05,合併による解散等,4011101029023,令和４年１月１日東京都新宿区河田町３番１０号ミアヘルサ株式会社（4011101029023）に合併し解散,2015-10-05,1,,,,,トウショウショウジ,0
2585,9010701035054,登記記録の閉鎖等,0,2022-01-14,2022-01-05,六本木オークション株式会社,,株式会社,東京都,港区,赤坂９丁目６番３０号,,13,103,1070052,,,2022-01-05,清算の結了等,,,2017-12-06,1,,,,,ロッポンギオークション,0
2588,9010901005311,登記記録の閉鎖等,0,2022-01-14,2022-01-11,株式会社ワーコレ,,株式会社,神奈川県,川崎市多摩区,宿河原６丁目２８番５号関ビル３階,,14,135,2140021,,,2022-01-11,清算の結了等,,,2015-10-05,1,,,,,ワーコレ,0
2590,9010901020434,登記記録の閉鎖等,0,2022-01-14,2022-01-12,株式会社インターアーバン,,株式会社,東京都,世田谷区,瀬田１丁目２４番６号,,13,112,1580095,,,2022-01-12,清算の結了等,,,2015-10-05,1,,,,,,0
2597,9011001061162,登記記録の閉鎖等,0,2022-01-14,2022-01-04,日本ケンブリッジフィルター株式会社,,株式会社,東京都,港区,芝３丁目１４番２号,,13,103,1050014,,,2022-01-04,合併による解散等,3011001061143,令和４年１月１日東京都港区芝三丁目１４番２号ケンブリッジフィルターコーポレーション株式会社（3011001061143）に合併し解散,2015-10-05,1,,,,,ニホンケンブリッジフィルター,0
2635,9013301030466,登記記録の閉鎖等,0,2022-01-14,2022-01-12,ＷＯＲＬＤ　ＥＹＥＳ株式会社,,株式会社,埼玉県,さいたま市大宮区,三橋１丁目５７５－４０８,,11,103,3300856,,,2022-01-12,清算の結了等,,,2015-10-05,1,,,,,ワールドアイズ,0
2717,9110002016776,登記記録の閉鎖等,0,2022-01-14,2022-01-06,有限会社アーク,,有限会社,新潟県,三条市,西四日町３丁目６番１０号,,15,204,9550851,,,2022-01-06,清算の結了等,,,2015-10-05,1,,,,,アーク,0
2729,9120001182643,登記記録の閉鎖等,0,2022-01-14,2022-01-06,アークス株式会社,,株式会社,大阪府,大阪市都島区,都島北通２丁目１５番１０号,,27,102,5340014,,,2022-01-06,清算の結了等,,,2015-10-05,1,,,,,アークス,0
2732,9120001195455,登記記録の閉鎖等,0,2022-01-14,2022-01-07,株式会社エム・ワイ・イー,,株式会社,大阪府,大阪市中央区,瓦町１丁目１番３号,,27,128,5410048,,,2022-01-07,清算の結了等,,,2016-01-06,1,,,,,エムワイイー,0
2772,9180001048640,登記記録の閉鎖等,0,2022-01-14,2022-01-12,株式会社アイキューブテクノロジ,,株式会社,愛知県,名古屋市東区,東桜１丁目９番２６号,,23,102,4610005,,,2022-01-12,合併による解散等,6180301022439,令和４年１月１日愛知県西尾市花蔵寺町宮後１７番地３株式会社光南（6180301022439）に合併し解散,2015-10-05,1,,,,,アイキューブテクノロジ,0
2800,9210001008731,登記記録の閉鎖等,0,2022-01-14,2022-01-14,株式会社グローバル技建,,株式会社,福井県,福井市,つくし野１丁目５０９番地,,18,201,9100101,,,2022-01-14,登記官による閉鎖,,,2015-10-05,1,,,,,,0
2801,9210001009630,登記記録の閉鎖等,0,2022-01-14,2022-01-14,タスクフッド株式会社,,株式会社,福井県,福井市,中央１丁目２１番５－３０２号,,18,201,9100006,,,2022-01-14,登記官による閉鎖,,,2015-10-05,1,,,,,,0
2802,9210001011165,登記記録の閉鎖等,0,2022-01-14,2022-01-14,敦賀無盡株式会社,,株式会社,福井県,敦賀市,大島３０番地,,18,202,9140000,,,2022-01-14,登記官による閉鎖,,,2015-10-05,1,,,,,,0
2803,9210001011297,登記記録の閉鎖等,0,2022-01-14,2022-01-14,株式会社ヒュンダイ福井,,株式会社,福井県,敦賀市,櫛川１３号１番地１,00077728,18,202,9140821,,,2022-01-14,登記官による閉鎖,,,2015-10-05,1,,,,,,0
2804,9210002010950,登記記録の閉鎖等,0,2022-01-14,2022-01-14,有限会社立基工業,,有限会社,福井県,三方郡美浜町,久々子第３３号１番地,,18,442,9191123,,,2022-01-14,登記官による閉鎖,,,2015-10-05,1,,,,,,0
2809,9240001050425,登記記録の閉鎖等,0,2022-01-14,2022-01-12,株式会社永尾,,株式会社,広島県,三次市,十日市中３丁目１３番７号,,34,209,7280012,,,2022-01-12,清算の結了等,,,2017-01-10,1,,,,,ナガオ,0
2865,9430001021679,登記記録の閉鎖等,0,2022-01-14,2022-01-06,株式会社北海道イトミック,,株式会社,北海道,札幌市西区,二十四軒一条５丁目１番１０号,,01,107,0630801,,,2022-01-06,清算の結了等,,,2015-10-05,1,,,,,ホッカイドウイトミック,0
2868,9430001062418,登記記録の閉鎖等,0,2022-01-14,2022-01-07,株式会社光生舎エンタープライズ,,株式会社,北海道,札幌市東区,北三十九条東１５丁目１番１９号,,01,103,0070839,,,2022-01-07,清算の結了等,,,2015-10-05,1,,,,,コウセイシャエンタープライズ,0
2871,9430002016521,登記記録の閉鎖等,0,2022-01-14,2022-01-11,有限会社美容室サニー,,有限会社,北海道,札幌市豊平区,西岡四条９丁目９番１５号,,01,105,0620034,,,2022-01-11,清算の結了等,,,2015-10-05,1,,,,,ビヨウシツサニー,0
