sequenceNumber,corporateNumber,process,correct,updateDate,changeDate,name,nameImageId,kind,prefectureName,cityName,streetNumber,addressImageId,prefectureCode,cityCode,postCode,addressOutside,addressOutsideImageId,closeDate,closeCause,successorCorporateNumber,changeCause,assignmentDate,latest,enName,enPrefectureName,enCityName,enAddressOutside,furigana,hihyoji
8,1010001241129,新規,0,2023-12-27,2023-12-27,アロット・アセットマネジメント株式会社,,株式会社,東京都,千代田区,永田町２丁目４番７号,,13,101,1000014,,,,,,,2023-12-27,1,,,,,アロットアセットマネジメント,0
10,1010101015936,新規,0,2023-12-27,2023-12-27,東京友慶堂株式会社,,株式会社,東京都,八王子市,追分町６番１１号－３０１,,13,201,1920056,,,,,,,2023-12-27,1,,,,,トウキョウユウケイドウ,0
11,1010101015944,新規,0,2023-12-27,2023-12-27,善弥メドテック株式会社,,株式会社,東京都,八王子市,楢原町７０５番地２,,13,201,1930803,,,,,,,2023-12-27,1,,,,,ゼンヤメドテック,0
18,1010401179217,新規,0,2023-12-27,2023-12-27,株式会社ＭＡｉＫＩ,,株式会社,東京都,港区,港南３丁目６番２１－２０５号,,13,103,1080075,,,,,,,2023-12-27,1,,,,,マイキー,0
19,1010401179373,新規,0,2023-12-27,2023-12-27,株式会社ｍｉｌｉｃｌｏｓｅｔ,,株式会社,東京都,港区,芝３丁目１５番１４号ヒキタカ芝公園ビル９Ｆ,,13,103,1050014,,,,,,,2023-12-27,1,,,,,ミリークローゼット,0
20,1010401179431,新規,0,2023-12-27,2023-12-27,ワンダリシャス・ジャパン株式会社,,株式会社,東京都,港区,西新橋２丁目４－２西新橋安田ユニオンビル３階,,13,103,1050003,,,,,,,2023-12-27,1,,,,,ワンダリシャスジャパン,0
21,1010401179472,新規,0,2023-12-27,2023-12-27,株式会社ＯＮＥ　ＬＵＸＥ　ＪＯＹ,,株式会社,東京都,港区,虎ノ門３丁目１８番６号朝日虎ノ門マンション６１４号室,,13,103,1050001,,,,,,,2023-12-27,1,,,,,ワンリュクスジョイ,0
24,1010405022802,新規,0,2023-12-27,2023-12-27,一般社団法人日本シニア・キャリア・サポート協会,,その他の設立登記法人,東京都,港区,浜松町２丁目５番３号,,13,103,1050013,,,,,,,2023-12-27,1,,,,,ニホンシニアキャリアサポートキョウカイ,0
26,1010501051556,新規,0,2023-12-27,2023-12-27,株式会社電気管理事務所,,株式会社,東京都,台東区,台東３丁目２７番３号,,13,106,1100016,,,,,,,2023-12-27,1,,,,,デンキカンリジムショ,0
27,1010503007275,新規,0,2023-12-27,2023-12-27,合同会社イエロータイガーアイ,,合同会社,東京都,台東区,台東１丁目２番１－１６０５号,,13,106,1100016,,,,,,,2023-12-27,1,,,,,イエロータイガーアイ,0
36,1010803004798,新規,0,2023-12-27,2023-12-27,合同会社ｉｘｉａ,,合同会社,東京都,大田区,南蒲田３丁目８番１６号ｔｒｉａｓ３８１－１０３,,13,111,1440035,,,,,,,2023-12-27,1,,,,,イキシア,0
38,1010901054373,新規,0,2023-12-27,2023-12-27,株式会社北斗建設,,株式会社,東京都,世田谷区,三軒茶屋１丁目２１－１２－４０１,,13,112,1540024,,,,,,,2023-12-27,1,,,,,ホクトケンセツ,0
39,1010901054423,新規,0,2023-12-27,2023-12-27,株式会社Ｉａｍ,,株式会社,東京都,世田谷区,池尻２丁目７番６号,,13,112,1540001,,,,,,,2023-12-27,1,,,,,アイアム,0
42,1011001008030,新規,0,2023-12-27,2023-12-27,株式会社小阪自工,,株式会社,東京都,渋谷区,初台２丁目２６番３号,,13,113,1510061,,,,,,,2023-12-27,1,,,,,,0
44,1011001158998,新規,0,2023-12-27,2023-12-27,株式会社ＹＵＭ,,株式会社,東京都,渋谷区,広尾５丁目１４番２号,,13,113,1500012,,,,,,,2023-12-27,1,,,,,ユエム,0
45,1011001159047,新規,0,2023-12-27,2023-12-27,株式会社ＴＥＭＰ８,,株式会社,東京都,渋谷区,道玄坂１丁目１０番８号渋谷道玄坂東急ビル２Ｆ－Ｃ,,13,113,1500043,,,,,,,2023-12-27,1,,,,,テンプエイト,0
46,1011001159105,新規,0,2023-12-27,2023-12-27,ＯＬＤＥＲＳ株式会社,,株式会社,東京都,渋谷区,富ヶ谷１丁目３７番１８号１０２,,13,113,1510063,,,,,,,2023-12-27,1,,,,,オールダース,0
47,1011003018192,新規,0,2023-12-27,2023-12-27,合同会社五番町４１,,合同会社,東京都,渋谷区,恵比寿西１丁目９番６号,,13,113,1500021,,,,,,,2023-12-27,1,,,,,ゴバンチョウヨンイチ,0
48,1011005010321,新規,0,2023-12-27,2023-12-27,一般社団法人五番町４１,,その他の設立登記法人,東京都,渋谷区,恵比寿西１丁目９番６号,,13,113,1500021,,,,,,,2023-12-27,1,,,,,ゴバンチョウヨンイチ,0
50,1011101105636,新規,0,2023-12-27,2023-12-27,Ｄｏｏｄｌｅ株式会社,,株式会社,東京都,新宿区,西新宿６丁目１５番１号１９階,,13,104,1600023,,,,,,,2023-12-27,1,,,,,ドゥードル,0
51,1011101105652,新規,0,2023-12-27,2023-12-27,株式会社ニュートンアソシエイツ,,株式会社,東京都,新宿区,百人町１丁目１７番５号メゾンオグラ３０４,,13,104,1690073,,,,,,,2023-12-27,1,,,,,ニュートンアソシエイツ,0
52,1011101105660,新規,0,2023-12-27,2023-12-27,タッチポイント株式会社,,株式会社,東京都,新宿区,新宿２丁目１２番１３号新宿アントレサロンビル２Ｆ,,13,104,1600022,,,,,,,2023-12-27,1,,,,,タッチポイント,0
63,1011803006017,新規,0,2023-12-27,2023-12-27,ＲＡＬＬＹＳ合同会社,,合同会社,東京都,足立区,鹿浜２丁目２１－８,,13,121,1230864,,,,,,,2023-12-27,1,,,,,ラリーズ,0
64,1012301013703,新規,0,2023-12-27,2023-12-27,株式会社アウル,,株式会社,東京都,町田市,森野１丁目３６－２セレステ町田２０２,,13,209,1940022,,,,,,,2023-12-27,1,,,,,,0
68,1012401041364,新規,0,2023-12-27,2023-12-27,株式会社デコール,,株式会社,東京都,調布市,若葉町２丁目４番地２５,,13,208,1820003,,,,,,,2023-12-27,1,,,,,デコール,0
86,1020003025264,新規,0,2023-12-27,2023-12-27,合同会社Ｙｏｕｒ　Ｓｔｙｌｅ,,合同会社,神奈川県,横浜市保土ケ谷区,霞台３０番１８号ハーミットクラブハウス霞台ＩＩＩ１０１号,00133142,14,106,2400014,,,,,,,2023-12-27,1,,,,,ユアスタイル,0
96,1021001081084,新規,0,2023-12-27,2023-12-27,株式会社ｍｅｄｅｒｕ,,株式会社,神奈川県,足柄下郡箱根町,湯本茶屋７９番地の７,,14,382,2500312,,,,,,,2023-12-27,1,,,,,メデル,0
99,1030001157892,新規,0,2023-12-27,2023-12-27,株式会社すずなみ,,株式会社,埼玉県,さいたま市中央区,本町東１丁目１０－２３,,11,105,3380003,,,,,,,2023-12-27,1,,,,,スズナミ,0
100,1030001157934,新規,0,2023-12-27,2023-12-27,協和トラストトレード株式会社,,株式会社,埼玉県,越谷市,神明町３丁目１６１番地３,,11,222,3430805,,,,,,,2023-12-27,1,,,,,キョウワトラストトレード,0
101,1030001157942,新規,0,2023-12-27,2023-12-27,株式会社Ｃｉｒｃｕｌａｒ　Ｈｏｕｓｅ,,株式会社,埼玉県,比企郡滑川町,月の輪５丁目２２番地１５,,11,341,3550815,,,,,,,2023-12-27,1,,,,,サーキュラーハウス,0
106,1030003023250,新規,0,2023-12-27,2023-12-27,合同会社デジタルコンサルタント,,合同会社,埼玉県,北本市,中丸４丁目１２３番地８,,11,233,3640013,,,,,,,2023-12-27,1,,,,,デジタルコンサルタント,0
107,1030003023317,新規,0,2023-12-27,2023-12-27,合同会社ゾルディック,,合同会社,埼玉県,さいたま市緑区,大字三室１３９９番地１５,,11,109,3360911,,,,,,,2023-12-27,1,,,,,ゾルディック,0
109,1040001131434,新規,0,2023-12-27,2023-12-27,株式会社はませい,,株式会社,千葉県,山武郡九十九里町,片貝６７５７,,12,403,2830104,,,,,,,2023-12-27,1,,,,,ハマセイ,0
110,1040003024000,新規,0,2023-12-27,2023-12-27,合同会社Ｔｅｒｒａ　Ｉｎｃｏｇｎｉｔａ,,合同会社,千葉県,富里市,七栄２８６番地５,,12,233,2860221,,,,,,,2023-12-27,1,,,,,テラインコグニタ,0
111,1040003024009,新規,0,2023-12-27,2023-12-27,ＣＯＬＯＲ合同会社,,合同会社,千葉県,柏市,西原２丁目７－９,,12,217,2770885,,,,,,,2023-12-27,1,,,,,カラー,0
119,1050005013371,新規,0,2023-12-27,2023-12-27,オハナ協同組合,,その他の設立登記法人,茨城県,つくば市,吉沼字寺山３９７６番地１,,08,220,3002617,,,,,,,2023-12-27,1,,,,,オハナ,0
121,1060001036672,新規,0,2023-12-27,2023-12-27,株式会社バラミーターン,,株式会社,栃木県,小山市,西城南４丁目５番地１０,,09,208,3230820,,,,,,,2023-12-27,1,,,,,バラミーターン,0
124,1070001041218,新規,0,2023-12-27,2023-12-27,ゼストダイニング株式会社,,株式会社,群馬県,北群馬郡吉岡町,大字大久保５８２,,10,345,3703602,,,,,,,2023-12-27,1,,,,,,0
125,1070001041234,新規,0,2023-12-27,2023-12-27,株式会社希絆,,株式会社,群馬県,渋川市,金井１７４番地２,,10,208,3770027,,,,,,,2023-12-27,1,,,,,,0
137,1110001038069,新規,0,2023-12-27,2023-12-27,株式会社バイバイ,,株式会社,新潟県,北蒲原郡聖籠町,大字蓮野２９８０番地の１,00133141,15,307,9570124,,,,,,,2023-12-27,1,,,,,バイバイ,0
142,1110005017036,新規,0,2023-12-27,2023-12-27,一般社団法人ソーシャルデザインワークス,,その他の設立登記法人,新潟県,新潟市秋葉区,新津本町２丁目１番２９号３階,,15,105,9560864,,,,,,,2023-12-27,1,,,,,ソーシャルデザインワークス,0
150,1120001260844,新規,0,2023-12-27,2023-12-27,ＧＲＯＷＶＡ株式会社,,株式会社,大阪府,大阪市生野区,巽南５丁目１３番１１号,00133126,27,116,5440015,,,,,,,2023-12-27,1,,,,,グローヴァ,0
151,1120001260910,新規,0,2023-12-27,2023-12-27,株式会社エスプロパティ,,株式会社,大阪府,大阪市北区,西天満３丁目６番２１号ＡＸＩＳ東梅田ビル１０階,,27,127,5300047,,,,,,,2023-12-27,1,,,,,エスプロパティ,0
152,1120001260951,新規,0,2023-12-27,2023-12-27,株式会社親和建設,,株式会社,大阪府,大阪市淀川区,西中島７丁目１番１号９階,,27,123,5320011,,,,,,,2023-12-27,1,,,,,シンワケンセツ,0
153,1120003025584,新規,0,2023-12-27,2023-12-27,ＨＯＡＮＧ　ＡＮＨ合同会社,,合同会社,大阪府,大阪市浪速区,下寺１丁目４番７号１Ｂ号室,,27,111,5560001,,,,,,,2023-12-27,1,,,,,ホアンアイン,0
154,1120003025592,新規,0,2023-12-27,2023-12-27,グローブ合同会社,,合同会社,大阪府,大阪市中央区,徳井町２丁目２番１４号日宝徳井ビル３階４号,,27,128,5400025,,,,,,,2023-12-27,1,,,,,グローブ,0
155,1120005024064,新規,0,2023-12-27,2023-12-27,一般社団法人ウェストフィールド,,その他の設立登記法人,大阪府,大阪市大正区,千島３丁目４番２１号,,27,108,5510003,,,,,,,2023-12-27,1,,,,,ウェストフィールド,0
158,1120101068774,新規,0,2023-12-27,2023-12-27,株式会社エスシーイー設計事務所,,株式会社,大阪府,堺市西区,鳳東町５丁４８７番地１９４,,27,144,5938324,,,,,,,2023-12-27,1,,,,,エスーシーイーセッケイジムショ,0
159,1120101068799,新規,0,2023-12-27,2023-12-27,株式会社ＰＯＳＴ　ＣＡＢＩＮＥＴＳ,,株式会社,大阪府,岸和田市,土生町４丁目４番６号新川第１ビル,,27,202,5960825,,,,,,,2023-12-27,1,,,,,ポストキャビネッツ,0
161,1120103005602,新規,0,2023-12-27,2023-12-27,合同会社ＡＸＩＳ,,合同会社,大阪府,堺市堺区,緑ヶ丘北町３丁２番８号ミューゼス緑ヶ丘３０２号,,27,141,5900806,,,,,,,2023-12-27,1,,,,,アクシス,0
165,1120901048546,新規,0,2023-12-27,2023-12-27,株式会社櫻舟,,株式会社,大阪府,豊中市,春日町２丁目１７－９,,27,203,5600052,,,,,,,2023-12-27,1,,,,,サクラブネ,0
166,1120901048562,新規,0,2023-12-27,2023-12-27,株式会社ＦＲＥＡＫ,,株式会社,大阪府,茨木市,双葉町１０番１号,,27,211,5670829,,,,,,,2023-12-27,1,,,,,フリーク,0
167,1120903004968,新規,0,2023-12-27,2023-12-27,ｗｉｔｈ　Ａｉ　Ｂａｎｋ合同会社,,合同会社,大阪府,茨木市,主原町１０番２５号,,27,211,5670897,,,,,,,2023-12-27,1,,,,,ウイズエイバンク,0
168,1120903004984,新規,0,2023-12-27,2023-12-27,合同会社ＧＲＡＣＩＡＳ,,合同会社,大阪府,吹田市,長野東１５－３５－２０１,,27,205,5650816,,,,,,,2023-12-27,1,,,,,グラシアス,0
178,1130001076026,新規,0,2023-12-27,2023-12-27,株式会社ＭＥＭＥＭＥＳ　ＩＮＣ．,,株式会社,京都府,京都市北区,鷹峯旧土居町１番地２９,,26,101,6038448,,,,,,,2023-12-27,1,,,,,ミーミーミーズインク,0
179,1130001076050,新規,0,2023-12-27,2023-12-27,株式会社ヴェール,,株式会社,京都府,京都市北区,西賀茂南川上町６９番地２,,26,101,6038814,,,,,,,2023-12-27,1,,,,,ヴェール,0
187,1140005026868,新規,0,2023-12-27,2023-12-27,医療法人正治会,,その他の設立登記法人,兵庫県,西宮市,甲子園七番町１２番３号,,28,204,6638177,,,,,,,2023-12-27,1,,,,,セイチカイ,0
190,1180001159544,新規,0,2023-12-27,2023-12-27,富田ケミテック株式会社,,株式会社,愛知県,名古屋市千種区,下方町６丁目１１０番地の２,,23,101,4640096,,,,,,,2023-12-27,1,,,,,トミタケミテック,0
191,1180001159585,新規,0,2023-12-27,2023-12-27,Ｄｅｅｐ　Ｅｍｏｔｉｏｎ株式会社,,株式会社,愛知県,稲沢市,下津穂所１丁目６番地１３,,23,220,4928092,,,,,,,2023-12-27,1,,,,,ディープエモーション,0
195,1180005020479,新規,0,2023-12-27,2023-12-27,医療法人幸和,,その他の設立登記法人,愛知県,名古屋市北区,八龍町１丁目５６番地,,23,103,4620805,,,,,,,2023-12-27,1,,,,,コウワ,0
197,1190001030984,新規,0,2023-12-27,2023-12-27,株式会社パートナー,,株式会社,三重県,津市,上浜町６丁目６４番地,,24,201,5140008,,,,,,,2023-12-27,1,,,,,パートナー,0
212,1240003006473,新規,0,2023-12-27,2023-12-27,合同会社ｎｏａ　ｐｌａ,,合同会社,広島県,東広島市,八本松東６丁目２番４８号ワシントンハウスＢ１０１号,,34,212,7390142,,,,,,,2023-12-27,1,,,,,ノアプラ,0
218,1260001038608,新規,0,2023-12-27,2023-12-27,株式会社Ｔｏｒｓａｄｅ　ｔｒｅｉｚｅ,,株式会社,岡山県,玉野市,築港３丁目１６番３０号,,33,204,7060002,,,,,,,2023-12-27,1,,,,,トルサードトレイズ,0
219,1260001038616,新規,0,2023-12-27,2023-12-27,株式会社ＷＡＬＮＵＳＨ,,株式会社,岡山県,倉敷市,玉島長尾１０２番地１ロンクーＩＩ２０１号室,00133140,33,202,7100251,,,,,,,2023-12-27,1,,,,,ウォルナッシュ,0
223,1270001008898,新規,0,2023-12-27,2023-12-27,株式会社モリ産業医事務所,,株式会社,鳥取県,鳥取市,湖山町南２丁目８４９番地,,31,201,6800945,,,,,,,2023-12-27,1,,,,,モリサンギョウイジムショ,0
226,1290001104191,新規,0,2023-12-27,2023-12-27,エフケーホールディングス株式会社,,株式会社,福岡県,福岡市東区,千早５丁目１１番２６－１３１４号,,40,131,8130044,,,,,,,2023-12-27,1,,,,,エフケーホールディングス,0
228,1290003014802,新規,0,2023-12-27,2023-12-27,合同会社インフラステーション,,合同会社,福岡県,福岡市博多区,博多駅前４丁目３番１８号,,40,132,8120011,,,,,,,2023-12-27,1,,,,,インフラステーション,0
230,1290801030174,新規,0,2023-12-27,2023-12-27,垣根建設株式会社,,株式会社,福岡県,築上郡築上町,大字極楽寺５１１番地９,,40,647,8290323,,,,,,,2023-12-27,1,,,,,カキネケンセツ,0
234,1310001018769,新規,0,2023-12-27,2023-12-27,ＮＫホールディングス株式会社,,株式会社,長崎県,諫早市,小船越町９３０番地２４５,,42,204,8540062,,,,,,,2023-12-27,1,,,,,エヌケーホールディングス,0
236,1310003004701,新規,0,2023-12-27,2023-12-27,機電サービス合同会社,,合同会社,長崎県,長崎市,小江町２７３４番地８６,,42,201,8511133,,,,,,,2023-12-27,1,,,,,キデンサービス,0
239,1320001020204,新規,0,2023-12-27,2023-12-27,株式会社ｔｏａ,,株式会社,大分県,中津市,大字加来２１０番地１０,,44,203,8710152,,,,,,,2023-12-27,1,,,,,トア,0
246,1340001026166,新規,0,2023-12-27,2023-12-27,株式会社Ｇｒｏｗｔｈ,,株式会社,鹿児島県,鹿児島市,鴨池１丁目２４番３号,,46,201,8900063,,,,,,,2023-12-27,1,,,,,グロウス,0
247,1350001018732,新規,0,2023-12-27,2023-12-27,株式会社神宮テクノサービス,,株式会社,宮崎県,宮崎市,村角町宮崎牟田２０番３,,45,201,8800837,,,,,,,2023-12-27,1,,,,,ジングウテクノサービス,0
250,1360001033012,新規,0,2023-12-27,2023-12-27,Ｇｌｏｂａｌ　Ｉｎｓｐｉｒｅ株式会社,,株式会社,沖縄県,中頭郡北中城村,字安谷屋１９３４番地２階,,47,327,9012316,,,,,,,2023-12-27,1,,,,,グローバルインスパイア,0
252,1370001050782,新規,0,2023-12-27,2023-12-27,株式会社とくのり,,株式会社,宮城県,仙台市泉区,紫山４丁目２３番地の８,,04,105,9813205,,,,,,,2023-12-27,1,,,,,トクノリ,0
255,1370003006428,新規,0,2023-12-27,2023-12-27,エコホームアシュアランス合同会社,,合同会社,宮城県,栗原市,若柳字川北新町９８番地１９,,04,213,9895501,,,,,,,2023-12-27,1,,,,,エコホームアシュアランス,0
258,1380001034215,新規,0,2023-12-27,2023-12-27,株式会社岩福,,株式会社,福島県,いわき市,平字正月町３番地の３サンライズビル３０２,,07,204,9708026,,,,,,,2023-12-27,1,,,,,イワフク,0
265,1420001018527,新規,0,2023-12-27,2023-12-27,株式会社大和,,株式会社,青森県,上北郡六戸町,小松ケ丘５丁目７７番地２０８４,,02,405,0330074,,,,,,,2023-12-27,1,,,,,ヤマト,0
273,1430001090723,新規,0,2023-12-27,2023-12-27,株式会社ｍｉｌｅｓｔｏｎｅｓ,,株式会社,北海道,札幌市北区,北七条西４丁目１番地１トーカン札幌第一キャステール６０７,,01,102,0600807,,,,,,,2023-12-27,1,,,,,マイルストーンズ,0
274,1430001090756,新規,0,2023-12-27,2023-12-27,株式会社ＫＩＫＩ,,株式会社,北海道,札幌市中央区,北二条西１８丁目１番地１６,,01,101,0600002,,,,,,,2023-12-27,1,,,,,キキ,0
278,1430003015793,新規,0,2023-12-27,2023-12-27,合同会社千葉道場,,合同会社,北海道,千歳市,富丘２丁目１２番８号,,01,224,0660034,,,,,,,2023-12-27,1,,,,,チバドウジョウ,0
279,1450001014184,新規,0,2023-12-27,2023-12-27,株式会社ＡＪＩＴＯ,,株式会社,北海道,富良野市,北の峰町１３番１３号,,01,229,0760034,,,,,,,2023-12-27,1,,,,,アジト,0
281,1480001012334,新規,0,2023-12-27,2023-12-27,株式会社アン・シュバル,,株式会社,徳島県,徳島市,国府町矢野６５３番地,,36,201,7793126,,,,,,,2023-12-27,1,,,,,アンシュバル,0
282,1700150123099,新規,0,2023-12-27,2023-12-27,ＳＨＥＮＺＨＥＮ　ＬＩＨＯＵＬＡＩ　ＣＯ．，ＬＩＭＩＴＥＤ,,外国会社等,,,,,,,,Ｒｏｏｍ　３０２，Ｃｏｍｐｌｅｘ　Ｂｕｉｌｄｉｎｇ，Ｎｏ．８，Ｙｕａｎｚｈｏｎｇｙｕａｎ　１ｓｔ　Ｄｉｓｔｒｉｃｔ，Ｇｕａｎｇｙａｙｕａｎ，Ｗｕｈｅ　Ｃｏｍｍｕｎｉｔｙ，Ｂａｎｔｉａｎ　Ｓｔｒｅｅｔ，Ｌｏｎｇｇａｎｇ　Ｄｉｓｔｒｉｃｔ，Ｓｈｅｎｚｈｅｎ　Ｃｉｔｙ,,,,,,2023-12-27,1,,,,,シェンジェンシーリーバオライコージーヨウシエンゴンスー,0
285,2010001241004,新規,0,2023-12-27,2023-12-27,株式会社ビアンケット,,株式会社,東京都,中央区,築地７丁目１６番５号ＣＴ７１６５－７０２,,13,102,1040045,,,,,,,2023-12-27,1,,,,,ビアンケット,0
286,2010001241037,新規,0,2023-12-27,2023-12-27,株式会社ＳＡＮＵ　Ｏｗｎｅｒｓ,,株式会社,東京都,中央区,日本橋小舟町１４－７ＳＯＩＬＮｉｈｏｎｂａｓｈｉ,,13,102,1030024,,,,,,,2023-12-27,1,,,,,サヌオーナーズ,0
287,2010001241152,新規,0,2023-12-27,2023-12-27,プロバイオメディカル株式会社,,株式会社,東京都,千代田区,外神田３丁目１４番３号福栄秋葉原ビル５階,,13,101,1010021,,,,,,,2023-12-27,1,,,,,プロバイオメディカル,0
288,2010001241177,新規,0,2023-12-27,2023-12-27,Ｒｅｐｌｉｃａｎｔ株式会社,,株式会社,東京都,中央区,銀座１丁目２２番１１号銀座大竹ビジデンス２Ｆ,,13,102,1040061,,,,,,,2023-12-27,1,,,,,レプリカント,0
297,2010101015943,新規,0,2023-12-27,2023-12-27,株式会社創健,,株式会社,東京都,八王子市,台町１丁目２１番１４号,,13,201,1930931,,,,,,,2023-12-27,1,,,,,ソウケン,0
302,2010401179439,新規,0,2023-12-27,2023-12-27,日本麻六記株式会社,,株式会社,東京都,港区,東麻布２丁目１５－９,,13,103,1060044,,,,,,,2023-12-27,1,,,,,ニホンマロキ,0
305,2010503007274,新規,0,2023-12-27,2023-12-27,合同会社ヴェルデ・ズメラルド,,合同会社,東京都,台東区,台東１丁目２番１－１６０５号,,13,106,1100016,,,,,,,2023-12-27,1,,,,,ヴェルデズメラルド,0
307,2010601064366,新規,0,2023-12-27,2023-12-27,株式会社ＴＳＬｓｅｃｏｎｄ,,株式会社,東京都,江東区,北砂２丁目１８番２,,13,108,1360073,,,,,,,2023-12-27,1,,,,,ティーエスエルセカンド,0
308,2010601064399,新規,0,2023-12-27,2023-12-27,２Ｍｏｎｏ‐Ｅｌｅｃｔｒｏｎｉｃｓ株式会社,,株式会社,東京都,墨田区,文花１丁目３４番１１－３０３号,,13,107,1310044,,,,,,,2023-12-27,1,,,,,ツーモノエレクトロニクス,0
311,2010703007000,新規,0,2023-12-27,2023-12-27,合同会社ＡＣＥ,,合同会社,東京都,品川区,東五反田２丁目１０番２号,,13,109,1410022,,,,,,,2023-12-27,1,,,,,エース,0
324,2011001158972,新規,0,2023-12-27,2023-12-27,株式会社ビー・スレッド,,株式会社,東京都,目黒区,上目黒３丁目６番２３－４０５号,,13,110,1530051,,,,,,,2023-12-27,1,,,,,ビースレッド,0
325,2011001158989,新規,0,2023-12-27,2023-12-27,ミラ・キュロスマネジメント株式会社,,株式会社,東京都,目黒区,南２丁目１番３４号,,13,110,1520013,,,,,,,2023-12-27,1,,,,,ミラキュロスマネジメント,0
326,2011001159005,新規,0,2023-12-27,2023-12-27,株式会社ｔｕｂｕ　ｍｕｓｔａｒｄ,,株式会社,東京都,渋谷区,円山町１５－３グランエストビル３Ｆ,,13,113,1500044,,,,,,,2023-12-27,1,,,,,ツブマスタード,0
327,2011001159013,新規,0,2023-12-27,2023-12-27,株式会社Ｔａｉｌｓ　Ｔｒａｖｅｌ＆Ｔｒａｄｅ,,株式会社,東京都,渋谷区,渋谷３丁目６番２号エクラート渋谷４０５号室,,13,113,1500002,,,,,,,2023-12-27,1,,,,,テールズトラベルアンドトレード,0
328,2011001159021,新規,0,2023-12-27,2023-12-27,ＩＮＡＳＥ株式会社,,株式会社,東京都,目黒区,中目黒２丁目１０番５号中目黒ＮＫビル２階,,13,110,1530061,,,,,,,2023-12-27,1,,,,,イナセ,0
329,2011001159038,新規,0,2023-12-27,2023-12-27,株式会社ＳＭＩＬＥ‐ＴＥＣＨ,,株式会社,東京都,渋谷区,道玄坂２丁目１８番１１号サンモール道玄坂４３４号,,13,113,1500043,,,,,,,2023-12-27,1,,,,,スマイルテック,0
330,2011001159054,新規,0,2023-12-27,2023-12-27,株式会社レルウイ,,株式会社,東京都,渋谷区,円山町５番５号Ｎａｖｉ渋谷Ｖ３階,,13,113,1500044,,,,,,,2023-12-27,1,,,,,レルウイ,0
331,2011001159070,新規,0,2023-12-27,2023-12-27,鉄砲道株式会社,,株式会社,東京都,渋谷区,桜丘町２６番１号セルリアンタワー１５階,,13,113,1500031,,,,,,,2023-12-27,1,,,,,テッポウミチ,0
332,2011001159079,新規,0,2023-12-27,2023-12-27,株式会社ＦｕｌｌＳｔａｃｋｅｒｓ　Ｇｕｉｌｄ,,株式会社,東京都,渋谷区,渋谷２丁目１９－１５宮益坂ビルディング６０９,,13,113,1500002,,,,,,,2023-12-27,1,,,,,フルスタッカーズギルド,0
333,2011001159095,新規,0,2023-12-27,2023-12-27,株式会社ｐＨｍｅｄｉａ,,株式会社,東京都,渋谷区,道玄坂２丁目２５番１２号,,13,113,1500043,,,,,,,2023-12-27,1,,,,,ペーハーメディア,0
334,2011003017854,新規,0,2023-12-27,2023-12-27,合同会社遺伝子継承国籍法研究所,,合同会社,東京都,渋谷区,神宮前５丁目５３－７０,,13,113,1500001,,,,,,,2023-12-27,1,,,,,イデンシケイショウコクセキホウケンキュウショ,0
335,2011003018191,新規,0,2023-12-27,2023-12-27,豊田ＮＥＷＭＯＴＯＲＳ合同会社,,合同会社,東京都,渋谷区,恵比寿４丁目１６番６号パークアクシス恵比寿６０３,,13,113,1500013,,,,,,,2023-12-27,1,,,,,トヨダニューモータース,0
340,2011101105651,新規,0,2023-12-27,2023-12-27,株式会社アザラ,,株式会社,東京都,新宿区,高田馬場１丁目３２番１０号,,13,104,1690075,,,,,,,2023-12-27,1,,,,,アザラ,0
341,2011103013910,新規,0,2023-12-27,2023-12-27,Ｈ２Ｋ合同会社,,合同会社,東京都,新宿区,西新宿６丁目５番１号新宿アイランドタワー２階,,13,104,1600023,,,,,,,2023-12-27,1,,,,,エイチツーケイ,0
355,2011803006016,新規,0,2023-12-27,2023-12-27,華日昇合同会社,,合同会社,東京都,足立区,江北２丁目２８－１２,,13,121,1230872,,,,,,,2023-12-27,1,,,,,ハナニチショウ,0
358,2012301013710,新規,0,2023-12-27,2023-12-27,株式会社ＭＧ商事,,株式会社,東京都,町田市,忠生４丁目９番地１,,13,209,1940035,,,,,,,2023-12-27,1,,,,,エムジーショウジ,0
374,2020001155079,新規,0,2023-12-27,2023-12-27,海川株式会社,,株式会社,神奈川県,横浜市鶴見区,獅子ケ谷１丁目１６番３６－１０６号,,14,101,2300073,,,,,,,2023-12-27,1,,,,,ウミカワ,0
375,2020001155095,新規,0,2023-12-27,2023-12-27,株式会社ＥＤＧＥ,,株式会社,神奈川県,横浜市港北区,樽町３丁目３番３号,,14,109,2220001,,,,,,,2023-12-27,1,,,,,エッジ,0
383,2021001081083,新規,0,2023-12-27,2023-12-27,株式会社ＩＺＡＮＡＩ,,株式会社,神奈川県,相模原市中央区,陽光台３丁目２０番１１号,,14,152,2520226,,,,,,,2023-12-27,1,,,,,イザナイ,0
392,2030001157891,新規,0,2023-12-27,2023-12-27,株式会社ｓｏｌｍａｎｏ,,株式会社,埼玉県,春日部市,八木崎町２－１２アルカディア春日部３０２,,11,214,3440055,,,,,,,2023-12-27,1,,,,,ソルマノ,0
393,2030001157909,新規,0,2023-12-27,2023-12-27,株式会社ＫＥＮＺＯ,,株式会社,埼玉県,川口市,東領家３丁目２９番１８－１０２号,,11,203,3320003,,,,,,,2023-12-27,1,,,,,ケンゾウ,0
396,2030003023299,新規,0,2023-12-27,2023-12-27,合同会社アセットライズ,,合同会社,埼玉県,熊谷市,石原１７１４－１１ＮＳビル２Ｆ,,11,202,3600816,,,,,,,2023-12-27,1,,,,,アセットライズ,0
397,2030003023308,新規,0,2023-12-27,2023-12-27,合同会社だいぼ,,合同会社,埼玉県,飯能市,大字飯能２７０―３,,11,209,3570063,,,,,,,2023-12-27,1,,,,,ダイボ,0
399,2040001131466,新規,0,2023-12-27,2023-12-27,ＭＩＮＴ　ＪＡＰＡＮ株式会社,,株式会社,千葉県,東金市,下武射田１９４０番地８,,12,213,2830012,,,,,,,2023-12-27,1,,,,,ミントジャパン,0
400,2040001131532,新規,0,2023-12-27,2023-12-27,白兎株式会社,,株式会社,千葉県,柏市,中新宿１丁目１５番２号,,12,217,2770066,,,,,,,2023-12-27,1,,,,,ハクト,0
405,2060001036663,新規,0,2023-12-27,2023-12-27,株式会社住美令,,株式会社,栃木県,日光市,今市１１２６番地,,09,206,3211261,,,,,,,2023-12-27,1,,,,,スミレ,0
406,2060001036671,新規,0,2023-12-27,2023-12-27,福友建設株式会社,,株式会社,栃木県,鹿沼市,武子５０８番地２２６,,09,205,3220007,,,,,,,2023-12-27,1,,,,,フクユウケンセツ,0
409,2080101024426,新規,0,2023-12-27,2023-12-27,株式会社ＲＩＤＳ,,株式会社,静岡県,伊東市,川奈１３３８番地の９,,22,208,4140044,,,,,,,2023-12-27,1,,,,,リズ,0
411,2080401026907,新規,0,2023-12-27,2023-12-27,株式会社サチライズ,,株式会社,静岡県,湖西市,坊瀬７７２番地,,22,221,4310444,,,,,,,2023-12-27,1,,,,,サチライズ,0
416,2110001038043,新規,0,2023-12-27,2023-12-27,ＹＭＧ株式会社,,株式会社,新潟県,新潟市中央区,東大通１丁目５番６号－１Ｆ,,15,103,9500087,,,,,,,2023-12-27,1,,,,,ワイエムジー,0
417,2110001038068,新規,0,2023-12-27,2023-12-27,株式会社まるに商店,,株式会社,新潟県,長岡市,土合１丁目８番７－２０１号,,15,202,9400043,,,,,,,2023-12-27,1,,,,,マルニショウテン,0
421,2110005017035,新規,0,2023-12-27,2023-12-27,一般社団法人ＴＵＭＵＧＵ糸魚川,,その他の設立登記法人,新潟県,糸魚川市,上刈１丁目５番２２号,,15,216,9410064,,,,,,,2023-12-27,1,,,,,ツムグイトイガワ,0
427,2120001260851,新規,0,2023-12-27,2023-12-27,株式会社エスクリエイト,,株式会社,大阪府,大阪市北区,天満４丁目１１－１樋口ビル２０１号,,27,127,5300043,,,,,,,2023-12-27,1,,,,,エスクリエイト,0
428,2120001260868,新規,0,2023-12-27,2023-12-27,唐株式会社,,株式会社,大阪府,大阪市淀川区,宮原２丁目１２番１４－５１９号,,27,123,5320003,,,,,,,2023-12-27,1,,,,,カラ,0
429,2120001260926,新規,0,2023-12-27,2023-12-27,株式会社スリーフィールド,,株式会社,大阪府,大阪市城東区,鴫野西２丁目４番７号,,27,118,5360014,,,,,,,2023-12-27,1,,,,,スリーフィールド,0
430,2120001260950,新規,0,2023-12-27,2023-12-27,株式会社クレドピクシス,,株式会社,大阪府,大阪市淀川区,西中島５丁目９番５号,,27,123,5320011,,,,,,,2023-12-27,1,,,,,クレドピクシス,0
431,2120001260959,新規,0,2023-12-27,2023-12-27,雲泰投資株式会社,,株式会社,大阪府,大阪市浪速区,敷津西２丁目１４番１４号,,27,111,5560015,,,,,,,2023-12-27,1,,,,,ウンタイトウシ,0
432,2120001260983,新規,0,2023-12-27,2023-12-27,靖慕株式会社,,株式会社,大阪府,大阪市中央区,船越町１丁目５－８－４１２号,,27,128,5400036,,,,,,,2023-12-27,1,,,,,セイボ,0
433,2120001260991,新規,0,2023-12-27,2023-12-27,株式会社福助堂,,株式会社,大阪府,大阪市生野区,林寺２丁目１番４号,,27,116,5440023,,,,,,,2023-12-27,1,,,,,フクスケドウ,0
434,2120001261081,新規,0,2023-12-27,2023-12-27,株式会社ノーブコンサルティング,,株式会社,大阪府,大阪市北区,豊崎３丁目２０番１０号,,27,127,5310072,,,,,,,2023-12-27,1,,,,,ノーブコンサルティング,0
437,2120101068798,新規,0,2023-12-27,2023-12-27,株式会社Ｅａｒｔｈ,,株式会社,大阪府,堺市美原区,青南台２丁目５番５号,,27,147,5870043,,,,,,,2023-12-27,1,,,,,アース,0
439,2120103005601,新規,0,2023-12-27,2023-12-27,合同会社Ｃｏｃｏｃｏｌｏｒ,,合同会社,大阪府,岸和田市,沼町２９－１８,,27,202,5960053,,,,,,,2023-12-27,1,,,,,ココカラ,0
440,2120105009798,新規,0,2023-12-27,2023-12-27,一般社団法人ビジネスパーソンコミュニティ,,その他の設立登記法人,大阪府,堺市南区,三原台４丁４番８－２号,,27,145,5900111,,,,,,,2023-12-27,1,,,,,ビジネスパーソンコミュニティ,0
443,2120901048553,新規,0,2023-12-27,2023-12-27,株式会社Ｋｕｒａｎｄａ,,株式会社,大阪府,吹田市,江坂町１丁目２３－１９米澤ビル第５江坂７０２号,,27,205,5640063,,,,,,,2023-12-27,1,,,,,キュランダ,0
449,2130001076033,新規,0,2023-12-27,2023-12-27,株式会社和愛,,株式会社,京都府,京都市伏見区,久我石原町３番地４１８,,26,109,6128491,,,,,,,2023-12-27,1,,,,,ワアイ,0
450,2130001076041,新規,0,2023-12-27,2023-12-27,株式会社ＢＵＩＬＤＩＸ,,株式会社,京都府,京都市下京区,小稲荷町８５番地８,,26,106,6008208,,,,,,,2023-12-27,1,,,,,ビルディクス,0
452,2130003009214,新規,0,2023-12-27,2023-12-27,合同会社壺,,合同会社,京都府,京都市北区,鞍馬口通寺町西入新御霊口町２５３－３,,26,101,6038146,,,,,,,2023-12-27,1,,,,,ツボ,0
461,2140003019963,新規,0,2023-12-27,2023-12-27,合同会社あおぞらＮｅｘｔ,,合同会社,兵庫県,三田市,屋敷町１２－２４,,28,219,6691532,,,,,,,2023-12-27,1,,,,,アオゾラネクスト,0
463,2140005026867,新規,0,2023-12-27,2023-12-27,医療法人わかば会,,その他の設立登記法人,兵庫県,たつの市,揖保川町金剛山５５０番地１,,28,229,6711664,,,,,,,2023-12-27,1,,,,,ワカバカイ,0
464,2150003003157,新規,0,2023-12-27,2023-12-27,合同会社ｔｅｎ　ｄｉａ,,合同会社,奈良県,橿原市,南八木町２丁目１番１号バルコート１０１,,29,205,6340077,,,,,,,2023-12-27,1,,,,,テンダイヤ,0
477,2180301038174,新規,0,2023-12-27,2023-12-27,恵栄ＪＡＰＡＮ株式会社,,株式会社,愛知県,岡崎市,柱３丁目８番地３,,23,202,4440837,,,,,,,2023-12-27,1,,,,,ケイエイジャパン,0
479,2180303005957,新規,0,2023-12-27,2023-12-27,合同会社悠,,合同会社,愛知県,西尾市,花ノ木町３丁目１番地－２Ａ号室,,23,213,4450852,,,,,,,2023-12-27,1,,,,,ユウ,0
484,2200003006195,新規,0,2023-12-27,2023-12-27,合同会社ＴＲＹＯＮ,,合同会社,岐阜県,本巣郡北方町,高屋１２４１番地の８,,21,421,5010458,,,,,,,2023-12-27,1,,,,,トライオン,0
487,2210001019586,新規,0,2023-12-27,2023-12-27,株式会社ヤマダ,,株式会社,福井県,坂井市,丸岡町山崎三ケ第３２号８番地,,18,210,9100321,,,,,,,2023-12-27,1,,,,,ヤマダ,0
490,2240001062609,新規,0,2023-12-27,2023-12-27,株式会社ヒューマンニーズ,,株式会社,広島県,福山市,御幸町上岩成３６９－１－１０１,,34,207,7210000,,,,,,,2023-12-27,1,,,,,ヒューマンニーズ,0
493,2260001038615,新規,0,2023-12-27,2023-12-27,株式会社インシュランスカンパニー,,株式会社,岡山県,倉敷市,真備町辻田５３３番地９,00133139,33,202,7101312,,,,,,,2023-12-27,1,,,,,インシュランスカンパニー,0
504,2290801030173,新規,0,2023-12-27,2023-12-27,株式会社２ＩＣｏｍｐａｎｙ,,株式会社,福岡県,北九州市小倉北区,真鶴１丁目１２番２５号,,40,106,8030844,,,,,,,2023-12-27,1,,,,,ツーアイカンパニー,0
506,2290805009701,新規,0,2023-12-27,2023-12-27,医療法人うおずみクリニック,,その他の設立登記法人,福岡県,北九州市小倉北区,魚町２丁目１番１１号,,40,106,8020006,,,,,,,2023-12-27,1,,,,,ウオズミクリニック,0
508,2300001013571,新規,0,2023-12-27,2023-12-27,株式会社メディアクエストジャパン,,株式会社,佐賀県,多久市,東多久町大字納所６４８１番地６,,41,204,8460014,,,,,,,2023-12-27,1,,,,,メディアクエストジャパン,0
514,2330003010143,新規,0,2023-12-27,2023-12-27,合同会社ＳＲ２,,合同会社,熊本県,熊本市中央区,保田窪１丁目２番１３４－２０９号,,43,101,8620926,,,,,,,2023-12-27,1,,,,,エスアールツー,0
516,2350001018731,新規,0,2023-12-27,2023-12-27,増田工業株式会社,,株式会社,宮崎県,宮崎市,大字新名爪１８８３番地１,,45,201,8800124,,,,,,,2023-12-27,1,,,,,マスダコウギョウ,0
521,2360001033011,新規,0,2023-12-27,2023-12-27,７２株式会社,,株式会社,沖縄県,南城市,玉城字百名９２番１,,47,215,9010603,,,,,,,2023-12-27,1,,,,,セブンツー,0
523,2360003013580,新規,0,2023-12-27,2023-12-27,合同会社トライスト,,合同会社,沖縄県,那覇市,三原３丁目２０番５号１Ｆ－Ａ号ゆうな整骨院,,47,201,9020063,,,,,,,2023-12-27,1,,,,,トライスト,0
524,2370001050781,新規,0,2023-12-27,2023-12-27,株式会社Ｎ．Ｓ．Ｆ,,株式会社,宮城県,黒川郡大和町,吉岡南１丁目５番地の５,,04,421,9813626,,,,,,,2023-12-27,1,,,,,エヌエスエフ,0
525,2370003006427,新規,0,2023-12-27,2023-12-27,合同会社Ｓｕｎ　Ｐｌａｎｔｓ,,合同会社,宮城県,仙台市若林区,沖野６丁目２５番４号,,04,103,9840831,,,,,,,2023-12-27,1,,,,,サンプランツ,0
529,2380001034214,新規,0,2023-12-27,2023-12-27,株式会社シリウス,,株式会社,福島県,相馬郡飯舘村,飯樋字町１１６番地２Ａ１０１,,07,564,9601721,,,,,,,2023-12-27,1,,,,,シリウス,0
532,2380003005650,新規,0,2023-12-27,2023-12-27,たまねぎカンパニー合同会社,,合同会社,福島県,南相馬市,原町区東町１丁目２７番地の１,,07,212,9750002,,,,,,,2023-12-27,1,,,,,タマネギカンパニー,0
534,2390001017457,新規,0,2023-12-27,2023-12-27,株式会社蔵王花岡農場,,株式会社,山形県,山形市,蔵王上野６１番地,,06,201,9902303,,,,,,,2023-12-27,1,,,,,ザオウハナオカノウジョウ,0
535,2390003002184,新規,0,2023-12-27,2023-12-27,合同会社ＭＩＨＡＲＵ,,合同会社,山形県,天童市,芳賀タウン北２丁目３番１号,,06,210,9940082,,,,,,,2023-12-27,1,,,,,ミハル,0
544,2420001018534,新規,0,2023-12-27,2023-12-27,ＪＰＦ株式会社,,株式会社,青森県,八戸市,新湊１丁目１１番２１号,,02,203,0310811,,,,,,,2023-12-27,1,,,,,ジェイピーエフ,0
549,2430001090706,新規,0,2023-12-27,2023-12-27,株式会社エアコンつけるくん,,株式会社,北海道,札幌市南区,北ノ沢３丁目５番７号,,01,106,0050832,,,,,,,2023-12-27,1,,,,,エアコンツケルクン,0
550,2430001090722,新規,0,2023-12-27,2023-12-27,株式会社Ｙｎｅｔｓ,,株式会社,北海道,札幌市白石区,米里三条１丁目５番１号,,01,104,0030873,,,,,,,2023-12-27,1,,,,,ワイネッツ,0
551,2430001090739,新規,0,2023-12-27,2023-12-27,株式会社ＬＥＰＵＳ,,株式会社,北海道,札幌市中央区,北六条西１８丁目１１－１,,01,101,0600006,,,,,,,2023-12-27,1,,,,,レプス,0
552,2430001090755,新規,0,2023-12-27,2023-12-27,株式会社Ｐｒｅｍｉｕｍ　Ｃｌｅａｎ　Ｓｅｒｖｉｃｅ,,株式会社,北海道,札幌市北区,新琴似十二条８丁目１番２５号,,01,102,0010912,,,,,,,2023-12-27,1,,,,,プレミアムクリーンサービス,0
562,2470001019957,新規,0,2023-12-27,2023-12-27,うまげな企画株式会社,,株式会社,香川県,丸亀市,山北町７１２番地１,,37,202,7630072,,,,,,,2023-12-27,1,,,,,ウマゲナキカク,0
563,2470005006539,新規,0,2023-12-27,2023-12-27,一般社団法人チャレンジ・ヴィレッジ,,その他の設立登記法人,香川県,高松市,屋島東町１０９５番地３,,37,201,7610111,,,,,,,2023-12-27,1,,,,,チャレンジヴィレッジ,0
567,2490001010666,新規,0,2023-12-27,2023-12-27,アバイド株式会社,,株式会社,高知県,高知市,高須新木５番２７号,,39,201,7818103,,,,,,,2023-12-27,1,,,,,アバイド,0
572,2700150123098,新規,0,2023-12-27,2023-12-27,Ｓｈｅｎｚｈｅｎｓｈｉｆａｎｇｆｅｉｄｉａｎｚｉｋｅｊｉｙｏｕｘｉａｎｇｏｎｇｓｉ,,外国会社等,,,,,,,,Ｇｕａｎｇｄｏｎｇｓｈｅｎｇ　ｓｈｅｎｚｈｅｎｓｈｉ　ｌｏｎｇｈｕａｑｕ　ｌｏｎｇｈｕａｊｉｅｄａｏ　ｌｏｎｇｙｕａｎｓｈｅｑｕ　ｒｅｎｍｉｎｌｕｈａｉａｎｗｅｉｌａｉｋｅｊｉｆｕｈｕａｚｈｏｎｇｘｉｎＢｄｏｎｇ７０２,,,,,,2023-12-27,1,,,,,シェンジェンシーファンフェイディエンズーコージーヨウシエンゴンスー,0
578,3010001241151,新規,0,2023-12-27,2023-12-27,株式会社ＪＳＫ１８,,株式会社,東京都,千代田区,麹町２丁目６番地５,,13,101,1020083,,,,,,,2023-12-27,1,,,,,ジェイエスケイジュウハチ,0
581,3010003042548,新規,0,2023-12-27,2023-12-27,ＫＬＩＮＥ　ＷＩＮＤ　ＳＵＲＶＥＹ合同会社,,合同会社,東京都,千代田区,霞が関３丁目２番１号,,13,101,1000013,,,,,,,2023-12-27,1,,,,,ケイラインウインドサーベイ,0
582,3010003042564,新規,0,2023-12-27,2023-12-27,合同会社Ｎｅｘｔ　Ａｒｔ　Ｂｒｉｄｇｅ,,合同会社,東京都,中央区,八丁堀３丁目１１番地１３号ＡＳＰＲＩＭＥ３０５号,,13,102,1040032,,,,,,,2023-12-27,1,,,,,ネクストアートブリッジ,0
588,3010401179231,新規,0,2023-12-27,2023-12-27,株式会社ＴｅｌｌｅｒＳ,,株式会社,東京都,港区,浜松町１丁目２９番１０号コシバビル５階,,13,103,1050013,,,,,,,2023-12-27,1,,,,,テラース,0
589,3010401179405,新規,0,2023-12-27,2023-12-27,ＮＹソリューションズ株式会社,,株式会社,東京都,港区,虎ノ門３丁目２０番５号伊藤佑ビル虎ノ門８階,,13,103,1050001,,,,,,,2023-12-27,1,,,,,エヌワイソリューションズ,0
590,3010401179438,新規,0,2023-12-27,2023-12-27,株式会社ルビコン,,株式会社,東京都,港区,高輪３丁目１０番２号グラスプラス高輪,,13,103,1080074,,,,,,,2023-12-27,1,,,,,ルビコン,0
591,3010401179454,新規,0,2023-12-27,2023-12-27,株式会社ＴＯＭＩＪＩ,,株式会社,東京都,港区,虎ノ門３丁目１５番６－７０８号,,13,103,1050001,,,,,,,2023-12-27,1,,,,,トミジ,0
592,3010401179462,新規,0,2023-12-27,2023-12-27,株式会社ＥＸエンタテインメント,,株式会社,東京都,港区,六本木６丁目９番１号,,13,103,1060032,,,,,,,2023-12-27,1,,,,,イーエックスエンタテインメント,0
595,3010501051538,新規,0,2023-12-27,2023-12-27,株式会社縵達,,株式会社,東京都,台東区,雷門２丁目１１番１０号コモドール雷門８０１,,13,106,1110034,,,,,,,2023-12-27,1,,,,,マンダ,0
596,3010501051546,新規,0,2023-12-27,2023-12-27,啾啾ホーム株式会社,,株式会社,東京都,台東区,蔵前３丁目１３－１２蔵前ハイム２０４,,13,106,1110051,,,,,,,2023-12-27,1,,,,,ジョジョホーム,0
597,3010501051554,新規,0,2023-12-27,2023-12-27,株式会社ＲＯＧＣ,,株式会社,東京都,台東区,浅草１丁目３２番１１号,,13,106,1110032,,,,,,,2023-12-27,1,,,,,ログシー,0
599,3010503007265,新規,0,2023-12-27,2023-12-27,合同会社Ｐｈａｒｅ　ｅｔ　ｉｎｓｅｃｔｅｓ,,合同会社,東京都,台東区,蔵前３丁目１番１１－１００２号,,13,106,1110051,,,,,,,2023-12-27,1,,,,,ファーイアンセクト,0
600,3010503007273,新規,0,2023-12-27,2023-12-27,合同会社ホワイトタイガーアイ,,合同会社,東京都,台東区,台東１丁目２番１－１６０５号,,13,106,1100016,,,,,,,2023-12-27,1,,,,,ホワイトタイガーアイ,0
602,3010601064398,新規,0,2023-12-27,2023-12-27,株式会社ひとごえ,,株式会社,東京都,江東区,毛利１丁目２１番２号,,13,108,1350001,,,,,,,2023-12-27,1,,,,,ヒトゴエ,0
604,3010701045331,新規,0,2023-12-27,2023-12-27,株式会社ヴェルデックス,,株式会社,東京都,品川区,北品川５丁目５番１５号,,13,109,1410001,,,,,,,2023-12-27,1,,,,,ヴェルデックス,0
605,3010803004796,新規,0,2023-12-27,2023-12-27,合同会社グローバルネオキャリア,,合同会社,東京都,大田区,大森東３丁目２０－９メルシー芙蓉１０・１０１号室,,13,111,1430012,,,,,,,2023-12-27,1,,,,,グローバルネオキャリア,0
606,3010903008689,新規,0,2023-12-27,2023-12-27,合同会社ＤＡＫＯＴＡ,,合同会社,東京都,世田谷区,給田２丁目５番１８号,,13,112,1570064,,,,,,,2023-12-27,1,,,,,ダコタ,0
621,3011001158996,新規,0,2023-12-27,2023-12-27,株式会社キングフィッシャー,,株式会社,東京都,渋谷区,恵比寿西２丁目８番４号ＥＸ恵比寿西ビル５階,,13,113,1500021,,,,,,,2023-12-27,1,,,,,キングフィッシャー,0
622,3011001159012,新規,0,2023-12-27,2023-12-27,株式会社ＣＨＡＲＡＣＴＥＲ,,株式会社,東京都,渋谷区,神宮前６丁目２８－９東武ビル６階,,13,113,1500001,,,,,,,2023-12-27,1,,,,,,0
623,3011001159020,新規,0,2023-12-27,2023-12-27,ａｌａａ株式会社,,株式会社,東京都,渋谷区,円山町５－５Ｎａｖｉ渋谷Ｖ３階,,13,113,1500044,,,,,,,2023-12-27,1,,,,,アラア,0
624,3011001159029,新規,0,2023-12-27,2023-12-27,株式会社久立成,,株式会社,東京都,目黒区,自由が丘２丁目１６－１２ＲＪ３,,13,110,1520035,,,,,,,2023-12-27,1,,,,,クリナ,0
625,3011001159053,新規,0,2023-12-27,2023-12-27,株式会社Ｅｖｅｒ　Ｄａｉｓｙ,,株式会社,東京都,渋谷区,円山町５番５号Ｎａｖｉ渋谷Ｖ３階,,13,113,1500044,,,,,,,2023-12-27,1,,,,,エバーデイジー,0
626,3011001159111,新規,0,2023-12-27,2023-12-27,株式会社Ｆ,,株式会社,東京都,渋谷区,神山町２０番１６号,,13,113,1500047,,,,,,,2023-12-27,1,,,,,エフ,0
634,3011101105634,新規,0,2023-12-27,2023-12-27,Ｌｅａｐｕｔ株式会社,,株式会社,東京都,新宿区,早稲田鶴巻町５２１番地,,13,104,1620041,,,,,,,2023-12-27,1,,,,,リープット,0
635,3011101105650,新規,0,2023-12-27,2023-12-27,株式会社ＴＯＳＩ商事,,株式会社,東京都,新宿区,新宿２丁目８－１新宿セブンビル６０６号,,13,104,1600022,,,,,,,2023-12-27,1,,,,,トシショウジ,0
636,3011101105659,新規,0,2023-12-27,2023-12-27,Ｅｓｔｉｍａｂｌｅ株式会社,,株式会社,東京都,新宿区,高田馬場２丁目８番６号,,13,104,1690075,,,,,,,2023-12-27,1,,,,,エスティメイブル,0
637,3011105010896,新規,0,2023-12-27,2023-12-27,一般社団法人ＫＮ,,その他の設立登記法人,東京都,新宿区,東五軒町６番１９－２０２号,,13,104,1620813,,,,,,,2023-12-27,1,,,,,ケイエヌ,0
638,3011203004271,新規,0,2023-12-27,2023-12-27,合同会社下村,,合同会社,東京都,中野区,江古田１丁目１２番２号,,13,114,1650022,,,,,,,2023-12-27,1,,,,,シモムラ,0
640,3011301029278,新規,0,2023-12-27,2023-12-27,株式会社青山ビジネスサポート,,株式会社,東京都,杉並区,宮前３丁目２９－１３南荻窪パークホームズ４０１,,13,115,1680081,,,,,,,2023-12-27,1,,,,,アオヤマビジネスサポート,0
643,3011601027411,新規,0,2023-12-27,2023-12-27,株式会社ヴェルヴィ,,株式会社,東京都,練馬区,田柄５丁目１２番１０号,,13,120,1790073,,,,,,,2023-12-27,1,,,,,ヴェルヴィ,0
645,3011801043588,新規,0,2023-12-27,2023-12-27,株式会社Ｍｏｄｅ　Ｏｎｅ,,株式会社,東京都,足立区,綾瀬６丁目３２番１３号パーク・ハイデンス５０５,,13,121,1200005,,,,,,,2023-12-27,1,,,,,モードワン,0
647,3012401041362,新規,0,2023-12-27,2023-12-27,株式会社匠土建,,株式会社,東京都,調布市,緑ケ丘２丁目２７番地１藤和仙川コープ２０４,,13,208,1820001,,,,,,,2023-12-27,1,,,,,タクミドケン,0
658,3020001155086,新規,0,2023-12-27,2023-12-27,株式会社Ｃａｐ　Ｃｏｍｐａｎｙ,,株式会社,神奈川県,川崎市中原区,新城２丁目９番１号,,14,133,2110044,,,,,,,2023-12-27,1,,,,,キャップカンパニー,0
659,3020003025246,新規,0,2023-12-27,2023-12-27,ＥＸトレード合同会社,,合同会社,神奈川県,横浜市西区,浅間町１丁目４番３号ウィザードビル４０２,,14,103,2200072,,,,,,,2023-12-27,1,,,,,イーエックストレード,0
660,3020003025254,新規,0,2023-12-27,2023-12-27,ｄｏｕｂｌｅ　ｔｏｍｍｙ合同会社,,合同会社,神奈川県,川崎市幸区,小向町１４番１６号,,14,132,2120003,,,,,,,2023-12-27,1,,,,,ダブルトミー,0
661,3020003025270,新規,0,2023-12-27,2023-12-27,合同会社Ｓ＆Ｋ,,合同会社,神奈川県,川崎市川崎区,駅前本町１１番地２川崎フロンティアビル４階,,14,131,2100007,,,,,,,2023-12-27,1,,,,,エスアンドケー,0
668,3021001081082,新規,0,2023-12-27,2023-12-27,株式会社ＳＡＹ　ＨＯＯ,,株式会社,神奈川県,小田原市,栄町２丁目５番７号,,14,206,2500011,,,,,,,2023-12-27,1,,,,,セイホー,0
675,3030001157899,新規,0,2023-12-27,2023-12-27,漢服天下株式会社,,株式会社,埼玉県,川口市,中青木２丁目８番２３－５０６号,,11,203,3320032,,,,,,,2023-12-27,1,,,,,カンフクテンカ,0
676,3030001157932,新規,0,2023-12-27,2023-12-27,株式会社フォルテ,,株式会社,埼玉県,所沢市,松葉町４番２号トレーランス新所沢１階,,11,208,3590044,,,,,,,2023-12-27,1,,,,,フォルテ,0
677,3030001157940,新規,0,2023-12-27,2023-12-27,株式会社Ｓｏｌｅｉｌｅ,,株式会社,埼玉県,越谷市,南越谷４丁目１１番地１１信栄ビル１階,,11,222,3430845,,,,,,,2023-12-27,1,,,,,ソレイル,0
679,3030003023298,新規,0,2023-12-27,2023-12-27,合同会社トガル,,合同会社,埼玉県,さいたま市南区,曲本５丁目１番２号１０１,,11,108,3360033,,,,,,,2023-12-27,1,,,,,トガル,0
680,3030003023307,新規,0,2023-12-27,2023-12-27,Ｄｒｅａｍ　Ｍａｒｔ合同会社,,合同会社,埼玉県,川口市,西川口３丁目２２番２２号パティオ西川口２０３号,,11,203,3320021,,,,,,,2023-12-27,1,,,,,ドリームマート,0
681,3030003023315,新規,0,2023-12-27,2023-12-27,Ｆｏｒｔｒｅｓｓ　Ｋ合同会社,,合同会社,埼玉県,さいたま市緑区,道祖土２丁目７番１１号,,11,109,3360907,,,,,,,2023-12-27,1,,,,,フォートレスケイ,0
682,3030003023323,新規,0,2023-12-27,2023-12-27,合同会社ｊｏｙ,,合同会社,埼玉県,所沢市,大字牛沼５１番地の３,,11,208,3590026,,,,,,,2023-12-27,1,,,,,ジョイ,0
683,3030005021507,新規,0,2023-12-27,2023-12-27,ＮＰＯ法人Ｄ．Ａ．Ｉ未来育成会,,その他の設立登記法人,埼玉県,さいたま市大宮区,下町３丁目７番地１グランドミッドタワーズ大宮Ｓ１４０７,,11,103,3300844,,,,,,,2023-12-27,1,,,,,ディーエーアイミライイクセイカイ,0
687,3040001131465,新規,0,2023-12-27,2023-12-27,株式会社Ｌｉｆｅ　Ｂｉｚ,,株式会社,千葉県,成田市,橋賀台２丁目４番地１,,12,211,2860037,,,,,,,2023-12-27,1,,,,,ライフビズ,0
688,3040001131523,新規,0,2023-12-27,2023-12-27,株式会社ＧＰ,,株式会社,千葉県,千葉市花見川区,畑町６００－７,,12,102,2620018,,,,,,,2023-12-27,1,,,,,ジーピー,0
689,3040001131531,新規,0,2023-12-27,2023-12-27,株式会社ＨＴＣ,,株式会社,千葉県,八千代市,小池３７４番地１３,,12,221,2760001,,,,,,,2023-12-27,1,,,,,エイチティーシー,0
690,3040001131548,新規,0,2023-12-27,2023-12-27,株式会社カポノ,,株式会社,千葉県,船橋市,印内２丁目３番１３シャルム楓３０１号,,12,204,2730039,,,,,,,2023-12-27,1,,,,,カポノ,0
696,3040003023999,新規,0,2023-12-27,2023-12-27,合同会社富士商会,,合同会社,千葉県,白井市,清水口３丁目１９番１９号,,12,232,2701435,,,,,,,2023-12-27,1,,,,,フジショウカイ,0
699,3050001054046,新規,0,2023-12-27,2023-12-27,株式会社Ｂｅ　ｗｉｌｄ,,株式会社,茨城県,水戸市,平須町１８２４番地の３９６,,08,201,3100853,,,,,,,2023-12-27,1,,,,,ビーワイルド,0
701,3060001036679,新規,0,2023-12-27,2023-12-27,株式会社ＳＵＮ　ＮＥＸＴ,,株式会社,栃木県,宇都宮市,西原３丁目３番２０号,,09,201,3200862,,,,,,,2023-12-27,1,,,,,サンネクスト,0
708,3080101024409,新規,0,2023-12-27,2023-12-27,株式会社Ｇ．Ｆ．Ｂ．,,株式会社,静岡県,御殿場市,東田中１８５３番地の１御殿場レックスハイツ２０５,,22,215,4120026,,,,,,,2023-12-27,1,,,,,ジーエフビー,0
711,3080401026914,新規,0,2023-12-27,2023-12-27,株式会社ＭｉｉＲ,,株式会社,静岡県,浜松市中区,領家２丁目２６番６号,,22,131,4300852,,,,,,,2023-12-27,1,,,,,ミーア,0
713,3100001037078,新規,0,2023-12-27,2023-12-27,株式会社森田屋,,株式会社,長野県,南佐久郡佐久穂町,大字高野町２９２３番地,,20,309,3840613,,,,,,,2023-12-27,1,,,,,モリタヤ,0
727,3120001260859,新規,0,2023-12-27,2023-12-27,アクシオソリューションズ株式会社,,株式会社,大阪府,大阪市北区,中崎１丁目１番１９－２０２号室,,27,127,5300016,,,,,,,2023-12-27,1,,,,,アクシオソリューションズ,0
728,3120001260909,新規,0,2023-12-27,2023-12-27,株式会社ＫＩＫＵＹＡ工務店,,株式会社,大阪府,大阪市大正区,三軒家東２丁目１２番６９－４２５号,,27,108,5510002,,,,,,,2023-12-27,1,,,,,キクヤコウムテン,0
729,3120001260925,新規,0,2023-12-27,2023-12-27,株式会社ＨＫＧ,,株式会社,大阪府,大阪市此花区,春日出中２丁目１２番９号,,27,104,5540022,,,,,,,2023-12-27,1,,,,,エイチケイジー,0
730,3120001260982,新規,0,2023-12-27,2023-12-27,小魚株式会社,,株式会社,大阪府,大阪市大正区,平尾４丁目７－９－２０２,,27,108,5510012,,,,,,,2023-12-27,1,,,,,コザカナ,0
733,3120005024062,新規,0,2023-12-27,2023-12-27,一般社団法人女性活躍支援協会,,その他の設立登記法人,大阪府,大阪市西区,新町１丁目３番１６号,,27,106,5500013,,,,,,,2023-12-27,1,,,,,ジョセイカツヤクシエンキョウカイ,0
734,3120101068797,新規,0,2023-12-27,2023-12-27,株式会社Ａｓｓｅｔ　Ｂｕｉｌｄｉｎｇ,,株式会社,大阪府,堺市中区,福田５９５－６,,27,142,5998241,,,,,,,2023-12-27,1,,,,,アセットビルディング,0
738,3120901048552,新規,0,2023-12-27,2023-12-27,株式会社ＦＯＲ　ＭＡＲＩＡ,,株式会社,大阪府,豊中市,上新田１丁目１８－１ロジュマン千里中央３０３,,27,203,5600085,,,,,,,2023-12-27,1,,,,,フォーマリア,0
739,3120901048560,新規,0,2023-12-27,2023-12-27,アレミュ株式会社,,株式会社,大阪府,吹田市,垂水町１丁目５７番２０－２０４号,,27,205,5640062,,,,,,,2023-12-27,1,,,,,アレミュ,0
740,3122001037691,新規,0,2023-12-27,2023-12-27,ＢＥＮＥＦＩＴ株式会社,,株式会社,大阪府,東大阪市,角田３丁目１番２８号,,27,227,5780912,,,,,,,2023-12-27,1,,,,,ベネフィット,0
742,3130001076032,新規,0,2023-12-27,2023-12-27,株式会社ＡＬＬホワイト高浜店,,株式会社,京都府,亀岡市,大井町土田３丁目５番８号,,26,206,6210011,,,,,,,2023-12-27,1,,,,,オールホワイトタカハマテン,0
750,3140001132833,新規,0,2023-12-27,2023-12-27,リッケライティング株式会社,,株式会社,兵庫県,神戸市西区,見津が丘２丁目２番地の１,,28,111,6512228,,,,,,,2023-12-27,1,,,,,リッケライティング,0
755,3140003019987,新規,0,2023-12-27,2023-12-27,合同会社伽羅,,合同会社,兵庫県,神戸市中央区,下山手通２丁目１１番３０号４階北,,28,110,6500011,,,,,,,2023-12-27,1,,,,,キャラ,0
757,3140005026866,新規,0,2023-12-27,2023-12-27,医療法人楽陽会,,その他の設立登記法人,兵庫県,加古郡播磨町,野添１６５５番地の３,,28,382,6750151,,,,,,,2023-12-27,1,,,,,ラクヨウカイ,0
758,3140005026874,新規,0,2023-12-27,2023-12-27,一般社団法人日本トコジラミ完全駆除協会,,その他の設立登記法人,兵庫県,尼崎市,高田町５番２１号,,28,202,6610963,,,,,,,2023-12-27,1,,,,,ニホントコジラミカンゼンクジョキョウカイ,0
760,3160001025589,新規,0,2023-12-27,2023-12-27,株式会社新星工業,,株式会社,滋賀県,長浜市,上野町７１４番地１,,25,203,5260264,,,,,,,2023-12-27,1,,,,,シンセイコウギョウ,0
772,3180001159542,新規,0,2023-12-27,2023-12-27,株式会社Ｆｕｓｏエナジー,,株式会社,愛知県,名古屋市中川区,荒江町１６番９号,,23,110,4540032,,,,,,,2023-12-27,1,,,,,フソウエナジー,0
773,3180001159575,新規,0,2023-12-27,2023-12-27,株式会社ＥＣＣＯ,,株式会社,愛知県,稲沢市,大塚北６丁目７５番地,,23,220,4928215,,,,,,,2023-12-27,1,,,,,エッコ,0
779,3180301038173,新規,0,2023-12-27,2023-12-27,山田染色株式会社,,株式会社,愛知県,岡崎市,栄町４丁目３４番地,,23,202,4440012,,,,,,,2023-12-27,1,,,,,ヤマダセンショク,0
781,3180303005956,新規,0,2023-12-27,2023-12-27,合同会社Ｍ＆Ｉ,,合同会社,愛知県,豊田市,勘八町勘八２３５番地１５,,23,211,4700328,,,,,,,2023-12-27,1,,,,,エムアンドアイ,0
782,3200001042019,新規,0,2023-12-27,2023-12-27,株式会社翠正園,,株式会社,岐阜県,海津市,平田町勝賀１４８５番地,,21,221,5030302,,,,,,,2023-12-27,1,,,,,スイショウエン,0
790,3230001020153,新規,0,2023-12-27,2023-12-27,ＭＥＴＩＭＥ株式会社,,株式会社,富山県,富山市,中川原字八幡割１７番地３,,16,201,9398015,,,,,,,2023-12-27,1,,,,,ミータイム,0
797,3260001038614,新規,0,2023-12-27,2023-12-27,株式会社ホワイトビジョン,,株式会社,岡山県,赤磐市,沢原１１７４－２,,33,213,7090704,,,,,,,2023-12-27,1,,,,,ホワイトビジョン,0
798,3260005011303,新規,0,2023-12-27,2023-12-27,一般社団法人かぐや,,その他の設立登記法人,岡山県,倉敷市,浦田１６６０番地,,33,202,7100843,,,,,,,2023-12-27,1,,,,,カグヤ,0
804,3290001104181,新規,0,2023-12-27,2023-12-27,株式会社わかすぎ環境サービス,,株式会社,福岡県,糟屋郡篠栗町,中央４丁目１６番３２号３号室,,40,342,8112417,,,,,,,2023-12-27,1,,,,,ワカスギカンキョウサービス,0
805,3290001104223,新規,0,2023-12-27,2023-12-27,さくら電源開発株式会社,,株式会社,福岡県,福岡市中央区,薬院１丁目６番５－６０７号,,40,133,8100022,,,,,,,2023-12-27,1,,,,,サクラデンゲンカイハツ,0
812,3290801030172,新規,0,2023-12-27,2023-12-27,ポニーテール株式会社,,株式会社,福岡県,行橋市,中央３丁目７番６－３０３号,,40,213,8240005,,,,,,,2023-12-27,1,,,,,ポニーテール,0
813,3290805009700,新規,0,2023-12-27,2023-12-27,医療法人奥内科クリニック,,その他の設立登記法人,福岡県,北九州市八幡西区,折尾４丁目８番１０－１０３号,,40,109,8070825,,,,,,,2023-12-27,1,,,,,オクナイカクリニック,0
814,3310001018767,新規,0,2023-12-27,2023-12-27,株式会社翔和,,株式会社,長崎県,佐世保市,新港町１番１９号ポールカルチェ１０２号,,42,202,8570855,,,,,,,2023-12-27,1,,,,,ショウワ,0
819,3320001020210,新規,0,2023-12-27,2023-12-27,ブランロックス株式会社,,株式会社,大分県,大分市,明野高尾２丁目１番２２号,,44,201,8700162,,,,,,,2023-12-27,1,,,,,ブランロックス,0
826,3330005010735,新規,0,2023-12-27,2023-12-27,税理士法人会計顧問,,その他の設立登記法人,熊本県,熊本市中央区,新屋敷３丁目１５番１号,,43,101,8620975,,,,,,,2023-12-27,1,,,,,カイケイコモン,0
832,3350001018722,新規,0,2023-12-27,2023-12-27,株式会社万福,,株式会社,宮崎県,宮崎市,清武町正手３丁目１８番地１セルシス３０１号,,45,201,8891603,,,,,,,2023-12-27,1,,,,,バンプク,0
833,3350001018730,新規,0,2023-12-27,2023-12-27,株式会社ＧＥＬＵＫ,,株式会社,宮崎県,宮崎市,本郷１丁目２０番５－１号,,45,201,8800922,,,,,,,2023-12-27,1,,,,,ヘルック,0
834,3360001033010,新規,0,2023-12-27,2023-12-27,株式会社龍生堂,,株式会社,沖縄県,浦添市,内間２丁目９番１３号,,47,208,9012121,,,,,,,2023-12-27,1,,,,,リュウセイドウ,0
835,3360003013588,新規,0,2023-12-27,2023-12-27,合同会社えん,,合同会社,沖縄県,那覇市,首里石嶺町４丁目１０２番地２階,,47,201,9030804,,,,,,,2023-12-27,1,,,,,,0
837,3370001050780,新規,0,2023-12-27,2023-12-27,株式会社ＭＤトラスト,,株式会社,宮城県,仙台市若林区,若林１丁目８番６－５号,,04,103,9840826,,,,,,,2023-12-27,1,,,,,エムディートラスト,0
838,3370003006426,新規,0,2023-12-27,2023-12-27,合同会社ｅｌｉａｎｔｏ,,合同会社,宮城県,岩沼市,桜５丁目６番２３号,,04,211,9892433,,,,,,,2023-12-27,1,,,,,エリアント,0
843,3380005012784,新規,0,2023-12-27,2023-12-27,一般社団法人地域商社Ｓａｋｕｒａｉｚｅ,,その他の設立登記法人,福島県,石川郡石川町,字長久保９６番地,,07,501,9637846,,,,,,,2023-12-27,1,,,,,チイキショウシャサクライズ,0
845,3390001017456,新規,0,2023-12-27,2023-12-27,株式会社環境テック,,株式会社,山形県,酒田市,東大町３丁目２７番地の１０,,06,204,9980851,,,,,,,2023-12-27,1,,,,,カンキョウテック,0
847,3410003003872,新規,0,2023-12-27,2023-12-27,秋田フーディ合同会社,,合同会社,秋田県,潟上市,天王字上江川４７番地６,,05,211,0100201,,,,,,,2023-12-27,1,,,,,アキタフーディ,0
853,3430001090688,新規,0,2023-12-27,2023-12-27,株式会社戸津川農場,,株式会社,北海道,勇払郡安平町,追分春日２９２番地,,01,585,0591985,,,,,,,2023-12-27,1,,,,,トツガワノウジョウ,0
854,3430001090738,新規,0,2023-12-27,2023-12-27,株式会社Ｒ．Ｒ,,株式会社,北海道,札幌市北区,篠路町篠路３９４番４３３,,01,102,0028053,,,,,,,2023-12-27,1,,,,,ツーアール,0
855,3430001090746,新規,0,2023-12-27,2023-12-27,ロジェックスライン株式会社,,株式会社,北海道,札幌市手稲区,新発寒六条７丁目１４番１２号,,01,109,0060806,,,,,,,2023-12-27,1,,,,,ロジェックスライン,0
860,3430003015800,新規,0,2023-12-27,2023-12-27,合同会社ＭＨＳ,,合同会社,北海道,札幌市中央区,南五条西２丁目２サイバーシティビル１０１５号室,,01,101,0640805,,,,,,,2023-12-27,1,,,,,エムエイチエス,0
861,3430005014858,新規,0,2023-12-27,2023-12-27,特定非営利活動法人ｏｃｈｉｂｏ,,その他の設立登記法人,北海道,登別市,中央町７丁目２番地４センタービレッヂ３０３,,01,230,0590012,,,,,,,2023-12-27,1,,,,,オチボ,0
867,3470001019956,新規,0,2023-12-27,2023-12-27,株式会社ウッドライフ,,株式会社,香川県,さぬき市,長尾西９９０番地,,37,206,7692302,,,,,,,2023-12-27,1,,,,,ウッドライフ,0
875,4010001241150,新規,0,2023-12-27,2023-12-27,株式会社ＪＳＫ１７,,株式会社,東京都,千代田区,麹町２丁目６番地５,,13,101,1020083,,,,,,,2023-12-27,1,,,,,ジェイエスケイジュウナナ,0
876,4010001241159,新規,0,2023-12-27,2023-12-27,株式会社Ｅｎｅｒｇｙ　ＰＪ８８,,株式会社,東京都,中央区,日本橋箱崎町２０番１号,,13,102,1030015,,,,,,,2023-12-27,1,,,,,エネルギーピージェイハチハチ,0
878,4010003042555,新規,0,2023-12-27,2023-12-27,合同会社ＣａｐｉｔａｌＨｉｌｌｓＴｏｋｙｏ,,合同会社,東京都,中央区,銀座１丁目２２番１１号銀座大竹ビジデンス２階,,13,102,1040061,,,,,,,2023-12-27,1,,,,,キャピタルヒルズトウキョウ,0
881,4010101015941,新規,0,2023-12-27,2023-12-27,株式会社ＡＫＡＧＩ．,,株式会社,東京都,八王子市,明神町３丁目１４番６号レーヴエスチュエール２０２,,13,201,1920046,,,,,,,2023-12-27,1,,,,,アカギ,0
887,4010601064397,新規,0,2023-12-27,2023-12-27,瑞麟株式会社,,株式会社,東京都,墨田区,文花１丁目３４番１１－２１３号,,13,107,1310044,,,,,,,2023-12-27,1,,,,,ズイリン,0
888,4010601064406,新規,0,2023-12-27,2023-12-27,株式会社富友不動産,,株式会社,東京都,江東区,大島３丁目３０番９号,,13,108,1360072,,,,,,,2023-12-27,1,,,,,フユフドウサン,0
889,4010703006999,新規,0,2023-12-27,2023-12-27,合同会社アイズアップ,,合同会社,東京都,品川区,西五反田１丁目２６番２号五反田サンハイツ９１１,,13,109,1410031,,,,,,,2023-12-27,1,,,,,アイズアップ,0
891,4010803004795,新規,0,2023-12-27,2023-12-27,合同会社ＬｕｍｉｎＡＩｒｅ　Ｌａｂ．,,合同会社,東京都,大田区,蒲田１丁目４－１７グランフルール２０２,,13,111,1440052,,,,,,,2023-12-27,1,,,,,ルミネアラボ,0
898,4011001158946,新規,0,2023-12-27,2023-12-27,櫻雪株式会社,,株式会社,東京都,渋谷区,富ヶ谷２丁目２５番３号,,13,113,1510063,,,,,,,2023-12-27,1,,,,,サクラユキ,0
899,4011001159011,新規,0,2023-12-27,2023-12-27,株式会社えんため,,株式会社,東京都,渋谷区,渋谷２丁目１９番１５号宮益坂ビルディング６０９,,13,113,1500002,,,,,,,2023-12-27,1,,,,,エンタメ,0
900,4011001159102,新規,0,2023-12-27,2023-12-27,株式会社ブロックト,,株式会社,東京都,渋谷区,神南１丁目２３番１０号４Ｆ・ＭＡＧＮＥＴｂｙＳＨＩＢＵＹＡ１０９,,13,113,1500041,,,,,,,2023-12-27,1,,,,,ブロックト,0
901,4011001159110,新規,0,2023-12-27,2023-12-27,マイメンツ株式会社,,株式会社,東京都,渋谷区,南平台町２－１０－８０４,,13,113,1500036,,,,,,,2023-12-27,1,,,,,マイメンツ,0
902,4011001159135,新規,0,2023-12-27,2023-12-27,株式会社ＬＡＤ,,株式会社,東京都,渋谷区,円山町５－５Ｎａｖｉ渋谷Ｖ３Ｆ,,13,113,1500044,,,,,,,2023-12-27,1,,,,,ラッド,0
906,4011101105666,新規,0,2023-12-27,2023-12-27,株式会社Ｋｌｉｔｅ,,株式会社,東京都,新宿区,西新宿３丁目３番１３号西新宿水間ビル２Ｆ,,13,104,1600023,,,,,,,2023-12-27,1,,,,,ケーライト,0
909,4011201025137,新規,0,2023-12-27,2023-12-27,株式会社ＲＥＰエージェント,,株式会社,東京都,中野区,中野４丁目１０番２号中野セントラルパークサウス２Ｆ,,13,114,1640001,,,,,,,2023-12-27,1,,,,,レップエージェント,0
911,4011503005902,新規,0,2023-12-27,2023-12-27,Ｆｉｖｅ　Ｒｅ合同会社,,合同会社,東京都,北区,王子２丁目２９－９ノールプランス１０２,,13,117,1140002,,,,,,,2023-12-27,1,,,,,ファイブリー,0
912,4011601027410,新規,0,2023-12-27,2023-12-27,株式会社トラスト,,株式会社,東京都,練馬区,高松３丁目７番１号,,13,120,1790075,,,,,,,2023-12-27,1,,,,,トラスト,0
915,4011801043587,新規,0,2023-12-27,2023-12-27,Ａ’ｓ株式会社,,株式会社,東京都,足立区,六木３丁目５２番１５号ウインド・リバー１０３,,13,121,1210052,,,,,,,2023-12-27,1,,,,,エイス,0
919,4012403006346,新規,0,2023-12-27,2023-12-27,合同会社Ｃ＆Ｊ　ＰＡＲＴＮＥＲＳ　ＩＮＣ．,,合同会社,東京都,狛江市,西野川１丁目１７番３号１０９,,13,219,2010001,,,,,,,2023-12-27,1,,,,,シーアンドジェイパートナーズ,0
928,4020001155143,新規,0,2023-12-27,2023-12-27,グランツアーズ株式会社,,株式会社,神奈川県,横浜市港南区,芹が谷５丁目５２番４－１０４号,,14,111,2330006,,,,,,,2023-12-27,1,,,,,グランツアーズ,0
931,4020003025261,新規,0,2023-12-27,2023-12-27,ＮＫ　ＣｒａｆｔＬａｂ合同会社,,合同会社,神奈川県,横浜市青葉区,榎が丘１８番地,,14,117,2270063,,,,,,,2023-12-27,1,,,,,エヌケークラフトラボ,0
943,4030001157741,新規,0,2023-12-27,2023-12-27,株式会社ＩＴＯ,,株式会社,埼玉県,春日部市,武里中野２３９番地１３,,11,214,3440026,,,,,,,2023-12-27,1,,,,,アイティーオー,0
944,4030001157898,新規,0,2023-12-27,2023-12-27,Ｏａｓｉｓ　Ｍｅｄ株式会社,,株式会社,埼玉県,さいたま市南区,辻７丁目２－３南浦和ハイツ３０２室,,11,108,3360026,,,,,,,2023-12-27,1,,,,,オアシスメッド,0
945,4030001157931,新規,0,2023-12-27,2023-12-27,Ｈ．Ｘ株式会社,,株式会社,埼玉県,さいたま市北区,別所町１１０番地３,,11,102,3310821,,,,,,,2023-12-27,1,,,,,エイチエックス,0
948,4030003023322,新規,0,2023-12-27,2023-12-27,合同会社和会,,合同会社,埼玉県,朝霞市,根岸台４丁目６番２１号,,11,227,3510005,,,,,,,2023-12-27,1,,,,,ヤワラギカイ,0
950,4040001131464,新規,0,2023-12-27,2023-12-27,株式会社ケーエス設備,,株式会社,千葉県,印西市,大森２６４１番地２８,,12,231,2701327,,,,,,,2023-12-27,1,,,,,ケーエスセツビ,0
951,4040001131506,新規,0,2023-12-27,2023-12-27,株式会社大沼興産,,株式会社,千葉県,千葉市若葉区,桜木３丁目１８番１５号２０２,,12,104,2640028,,,,,,,2023-12-27,1,,,,,オオヌマコウサン,0
952,4040001131522,新規,0,2023-12-27,2023-12-27,株式会社紅菱企画,,株式会社,千葉県,匝瑳市,八日市場イ１３８番地１０,,12,235,2892144,,,,,,,2023-12-27,1,,,,,コウリョウキカク,0
959,4040003023825,新規,0,2023-12-27,2023-12-27,合同会社Ｃｉｒｃｕｌａｒｓ,,合同会社,千葉県,木更津市,かずさ鎌足１丁目８－１,,12,206,2920818,,,,,,,2023-12-27,1,,,,,サーキュラーズ,0
960,4040003023998,新規,0,2023-12-27,2023-12-27,合同会社れあ,,合同会社,千葉県,千葉市中央区,長洲１丁目５番９号松月堂２０２,,12,101,2600854,,,,,,,2023-12-27,1,,,,,レア,0
962,4050001054037,新規,0,2023-12-27,2023-12-27,株式会社ＴＳＵＭＵ,,株式会社,茨城県,つくば市,竹園２丁目２０番地３つくば国際会議場１Ｆリストランテツム,,08,220,3050032,,,,,,,2023-12-27,1,,,,,ツム,0
965,4070001041231,新規,0,2023-12-27,2023-12-27,株式会社中野商会,,株式会社,群馬県,館林市,本町４丁目３番２３号,,10,207,3740024,,,,,,,2023-12-27,1,,,,,ナカノショウカイ,0
970,4080101024432,新規,0,2023-12-27,2023-12-27,株式会社Ｇｏａｔ,,株式会社,静岡県,熱海市,水口町２番２８号４Ｂ,,22,205,4130016,,,,,,,2023-12-27,1,,,,,ゴート,0
972,4080103002948,新規,0,2023-12-27,2023-12-27,合同会社アグリノ,,合同会社,静岡県,富士市,松岡１５５４番地の４,,22,210,4160909,,,,,,,2023-12-27,1,,,,,アグリノ,0
976,4090001018483,新規,0,2023-12-27,2023-12-27,株式会社ＯＴＥＬＡＢ,,株式会社,山梨県,都留市,夏狩１８８７番地,,19,204,4020035,,,,,,,2023-12-27,1,,,,,オテラボ,0
980,4100001037077,新規,0,2023-12-27,2023-12-27,株式会社なないろ屋,,株式会社,長野県,須坂市,旭ケ丘９番地３７,,20,207,3820003,,,,,,,2023-12-27,1,,,,,ナナイロヤ,0
984,4110001038066,新規,0,2023-12-27,2023-12-27,株式会社ＧＦＧＳ　ＣＡＲＬＩＦＥ,,株式会社,新潟県,加茂市,本町３番１２号,,15,209,9591372,,,,,,,2023-12-27,1,,,,,ジーエフジーエスカーライフ,0
992,4120001260825,新規,0,2023-12-27,2023-12-27,Ｃｏｒｄｅｌｉａ＆Ｃｌａｕｄｉａ株式会社,,株式会社,大阪府,大阪市大正区,三軒家西３丁目４番１６号中山ビル１０１３,,27,108,5510001,,,,,,,2023-12-27,1,,,,,コーディリアアンドクラウディア,0
993,4120001260908,新規,0,2023-12-27,2023-12-27,株式会社Ｍｉ＆Ｋ,,株式会社,大阪府,大阪市阿倍野区,阪南町１丁目３２番７号,,27,119,5450021,,,,,,,2023-12-27,1,,,,,ミーアンドケイ,0
994,4120001260932,新規,0,2023-12-27,2023-12-27,株式会社弐九九,,株式会社,大阪府,大阪市淀川区,十三東３丁目２７番２１号２階,,27,123,5320023,,,,,,,2023-12-27,1,,,,,ニクキュウ,0
995,4120001260940,新規,0,2023-12-27,2023-12-27,株式会社アドバンス,,株式会社,大阪府,大阪市北区,梅田１丁目１番３号,,27,127,5300001,,,,,,,2023-12-27,1,,,,,アドバンス,0
996,4120001260957,新規,0,2023-12-27,2023-12-27,株式会社ＣＡＲＭＡＫ,,株式会社,大阪府,大阪市大正区,三軒家東１丁目１４番２７－４０７号,,27,108,5510002,,,,,,,2023-12-27,1,,,,,カーマック,0
997,4120001260981,新規,0,2023-12-27,2023-12-27,泰発株式会社,,株式会社,大阪府,大阪市大正区,平尾４丁目７－９－３０２,,27,108,5510012,,,,,,,2023-12-27,1,,,,,タイハツ,0
1003,4120005024061,新規,0,2023-12-27,2023-12-27,一般社団法人紀祐会,,その他の設立登記法人,大阪府,大阪市西区,新町１丁目３番１６号,,27,106,5500013,,,,,,,2023-12-27,1,,,,,キユウカイ,0
1005,4120101068796,新規,0,2023-12-27,2023-12-27,株式会社ｉｎｉｔ,,株式会社,大阪府,堺市北区,百舌鳥梅北町４丁１３３番地３ハピネス三国ヶ丘３０２号,,27,146,5918031,,,,,,,2023-12-27,1,,,,,イニット,0
1006,4120105009796,新規,0,2023-12-27,2023-12-27,一般社団法人望叶,,その他の設立登記法人,大阪府,河内長野市,大師町７番１７号,,27,216,5860041,,,,,,,2023-12-27,1,,,,,モカ,0
1010,4120901048568,新規,0,2023-12-27,2023-12-27,株式会社クウカンテクノ,,株式会社,大阪府,高槻市,南平台４丁目８番１９号,,27,207,5691042,,,,,,,2023-12-27,1,,,,,クウカンテクノ,0
1013,4120903004981,新規,0,2023-12-27,2023-12-27,スポット合同会社,,合同会社,大阪府,豊中市,永楽荘２丁目８番３１号,,27,203,5600051,,,,,,,2023-12-27,1,,,,,スポット,0
1016,4122001037690,新規,0,2023-12-27,2023-12-27,株式会社ファゼル,,株式会社,大阪府,八尾市,太田３丁目１４８番地の６,,27,212,5810037,,,,,,,2023-12-27,1,,,,,ファゼル,0
1022,4130001076015,新規,0,2023-12-27,2023-12-27,Ｃｈｏｋｅｌ株式会社,,株式会社,京都府,京都市下京区,四条通柳馬場東入立売東町２０番地１,,26,106,6008005,,,,,,,2023-12-27,1,,,,,チョケル,0
1030,4140001132799,新規,0,2023-12-27,2023-12-27,ＳＯＳ株式会社,,株式会社,兵庫県,西宮市,豊楽町１３番６号,,28,204,6620072,,,,,,,2023-12-27,1,,,,,エスオーエス,0
1031,4140001132816,新規,0,2023-12-27,2023-12-27,株式会社スミスマシンツール,,株式会社,兵庫県,尼崎市,戸ノ内町６丁目９番３号３０２号,,28,202,6610961,,,,,,,2023-12-27,1,,,,,スミスマシンツール,0
1036,4140005026865,新規,0,2023-12-27,2023-12-27,医療法人社団佐伯歯科医院,,その他の設立登記法人,兵庫県,神戸市須磨区,大池町５丁目１６番４号１階,,28,107,6540026,,,,,,,2023-12-27,1,,,,,サエキシカイイン,0
1037,4140005026873,新規,0,2023-12-27,2023-12-27,一般社団法人ｔｒｅｅ　Ａｉｄ,,その他の設立登記法人,兵庫県,姫路市,北今宿１丁目２－２８,,28,201,6700057,,,,,,,2023-12-27,1,,,,,ツリーエイド,0
1043,4160001025596,新規,0,2023-12-27,2023-12-27,株式会社シエスタ,,株式会社,滋賀県,草津市,追分南３丁目２１番１８号,,25,206,5250048,,,,,,,2023-12-27,1,,,,,シエスタ,0
1053,4180001159566,新規,0,2023-12-27,2023-12-27,株式会社シーパンダ,,株式会社,愛知県,名古屋市中村区,名駅３丁目２０番２０号名駅錦ビル６Ｆ,,23,105,4500002,,,,,,,2023-12-27,1,,,,,シーパンダ,0
1063,4190001030981,新規,0,2023-12-27,2023-12-27,株式会社シェルハート,,株式会社,三重県,四日市市,泊山崎町１０番１号,,24,202,5100892,,,,,,,2023-12-27,1,,,,,シェルハート,0
1065,4200001042018,新規,0,2023-12-27,2023-12-27,株式会社山甲,,株式会社,岐阜県,岐阜市,早田本町２丁目７２番地１,,21,201,5020848,,,,,,,2023-12-27,1,,,,,サンコウ,0
1070,4240005015692,新規,0,2023-12-27,2023-12-27,特定非営利活動法人天空未来塾,,その他の設立登記法人,広島県,神石郡神石高原町,油木甲４５５番地３,,34,545,7201812,,,,,,,2023-12-27,1,,,,,テンクウミライジュク,0
1078,4280005007579,新規,0,2023-12-27,2023-12-27,医療法人おおつ内科クリニック,,その他の設立登記法人,島根県,出雲市,大津町１７０８番地９,,32,203,6930011,,,,,,,2023-12-27,1,,,,,オオツナイカクリニック,0
1085,4290001104115,新規,0,2023-12-27,2023-12-27,株式会社ＳＭＣ,,株式会社,福岡県,福岡市中央区,大濠１丁目１３番２３‐３０１号グランドメゾン大濠ＬＵＸＥ,,40,133,8100052,,,,,,,2023-12-27,1,,,,,エスエムシー,0
1086,4290001104197,新規,0,2023-12-27,2023-12-27,株式会社アイ・エム・ビー,,株式会社,福岡県,福岡市南区,鶴田２丁目１番４３号,,40,134,8111352,,,,,,,2023-12-27,1,,,,,アイエムビー,0
1087,4290001104222,新規,0,2023-12-27,2023-12-27,綴建装株式会社,,株式会社,福岡県,福岡市東区,馬出５丁目３３番１４号,,40,131,8120054,,,,,,,2023-12-27,1,,,,,ツヅリケンソウ,0
1097,4290801030155,新規,0,2023-12-27,2023-12-27,株式会社そらあお,,株式会社,福岡県,北九州市八幡西区,熊西１丁目３番２６－２０３号,,40,109,8060031,,,,,,,2023-12-27,1,,,,,ソラアオ,0
1100,4290805009699,新規,0,2023-12-27,2023-12-27,医療法人いたや歯科,,その他の設立登記法人,福岡県,北九州市小倉北区,片野新町１丁目１２番２５号,,40,106,8020062,,,,,,,2023-12-27,1,,,,,イタヤシカ,0
1106,4320005010124,新規,0,2023-12-27,2023-12-27,医療法人優泉会,,その他の設立登記法人,大分県,別府市,大字鶴見４５１４番地の２６,,44,202,8740840,,,,,,,2023-12-27,1,,,,,ユウセンカイ,0
1110,4340001026171,新規,0,2023-12-27,2023-12-27,株式会社Ｋｏｕ,,株式会社,鹿児島県,鹿児島市,草牟田２丁目１９番１号,,46,201,8900014,,,,,,,2023-12-27,1,,,,,コウ,0
1115,4360001033018,新規,0,2023-12-27,2023-12-27,ルーカスドローン株式会社,,株式会社,沖縄県,うるま市,石川曙１丁目６番４５号,,47,213,9041107,,,,,,,2023-12-27,1,,,,,ルーカスドローン,0
1117,4360005006960,新規,0,2023-12-27,2023-12-27,一般社団法人アジャイルＰＢＬ振興会,,その他の設立登記法人,沖縄県,那覇市,牧志２丁目１７－２７－４０１,,47,201,9000013,,,,,,,2023-12-27,1,,,,,アジャイルピービーエルシンコウカイ,0
1121,4380003005649,新規,0,2023-12-27,2023-12-27,ＥＡＳＴＥＲ合同会社,,合同会社,福島県,本宮市,高木字井戸上２６番地７,,07,214,9691101,,,,,,,2023-12-27,1,,,,,イースター,0
1123,4400003003195,新規,0,2023-12-27,2023-12-27,合同会社Ｔｈｉｎｋ　Ｂｅｙｏｎｄ,,合同会社,岩手県,北上市,滑田１２地割３,,03,206,0240074,,,,,,,2023-12-27,1,,,,,シンクビヨンド,0
1124,4410003003871,新規,0,2023-12-27,2023-12-27,合同会社鈴竹商店,,合同会社,秋田県,仙北市,角館町中町９番地,,05,215,0140318,,,,,,,2023-12-27,1,,,,,スズタケショウテン,0
1129,4430001090737,新規,0,2023-12-27,2023-12-27,株式会社格安解体除雪建築,,株式会社,北海道,札幌市中央区,北一条西２３丁目１番４１号,,01,101,0640821,,,,,,,2023-12-27,1,,,,,カクヤスカイタイジョセツケンチク,0
1132,4430003015799,新規,0,2023-12-27,2023-12-27,合同会社Ｌｉｆｅ　Ｓｔｙｌｉｎｇ　ａｂｍｉ,,合同会社,北海道,札幌市北区,北十九条西３丁目２番７号,,01,102,0010019,,,,,,,2023-12-27,1,,,,,ライフスタイリングアブミ,0
1135,4470001019955,新規,0,2023-12-27,2023-12-27,株式会社ＬＩＮＸ,,株式会社,香川県,高松市,香川町寺井５７７多田ビル１０１号,,37,201,7611702,,,,,,,2023-12-27,1,,,,,リンクス,0
1138,4490001010664,新規,0,2023-12-27,2023-12-27,株式会社湯山工業,,株式会社,高知県,高知市,横浜西町３６番２０－１０号,,39,201,7810242,,,,,,,2023-12-27,1,,,,,ユヤマコウギョウ,0
1141,4500001025388,新規,0,2023-12-27,2023-12-27,株式会社シャガード,,株式会社,愛媛県,宇和島市,三間町宮野下６１０番地,,38,203,7981112,,,,,,,2023-12-27,1,,,,,シャガード,0
1151,5010001241109,新規,0,2023-12-27,2023-12-27,ＥＮＥＯＳ　Ｘｐｌｏｒａ株式会社,,株式会社,東京都,千代田区,大手町１丁目１番２号,,13,101,1000004,,,,,,,2023-12-27,1,,,,,エネオスエクスプローラ,0
1152,5010001241125,新規,0,2023-12-27,2023-12-27,ＢＯＶＬＩＦＥ株式会社,,株式会社,東京都,千代田区,神田駿河台２丁目１１番７号,,13,101,1010062,,,,,,,2023-12-27,1,,,,,ボヴライフ,0
1153,5010001241133,新規,0,2023-12-27,2023-12-27,株式会社ＨＡＣＯＮＩＷＡ,,株式会社,東京都,中央区,月島２丁目１６番６－４０１号,,13,102,1040052,,,,,,,2023-12-27,1,,,,,ハコニワ,0
1154,5010003042546,新規,0,2023-12-27,2023-12-27,合同会社東京美容,,合同会社,東京都,中央区,銀座４丁目３番９号８階,,13,102,1040061,,,,,,,2023-12-27,1,,,,,トウキョウビヨウ,0
1155,5010003042554,新規,0,2023-12-27,2023-12-27,合同会社築地食堂,,合同会社,東京都,中央区,築地４丁目１０番５号ＭＩＨＩＲＯビル４階,,13,102,1040045,,,,,,,2023-12-27,1,,,,,ツキジショクドウ,0
1156,5010003042562,新規,0,2023-12-27,2023-12-27,野田ロジスティクス合同会社,,合同会社,東京都,千代田区,丸の内３丁目１番１号東京共同会計事務所内,,13,101,1000005,,,,,,,2023-12-27,1,,,,,ノダロジスティクス,0
1162,5010401179428,新規,0,2023-12-27,2023-12-27,Ｂｉｚ　Ａｒｃｈｉｔｅｃｔｓ株式会社,,株式会社,東京都,港区,西麻布４丁目１５番２－９０５号,,13,103,1060031,,,,,,,2023-12-27,1,,,,,ビズアーキテクツ,0
1163,5010401179477,新規,0,2023-12-27,2023-12-27,Ｃｈｉｂａｙｕ株式会社,,株式会社,東京都,港区,南青山４丁目１８番１１号,,13,103,1070062,,,,,,,2023-12-27,1,,,,,チバユ,0
1164,5010405022807,新規,0,2023-12-27,2023-12-27,特定目的会社ＴＳＭＺ５,,その他の設立登記法人,東京都,港区,元赤坂１丁目１番７号,,13,103,1070051,,,,,,,2023-12-27,1,,,,,ティーエスエムゼットファイブ,0
1165,5010501051560,新規,0,2023-12-27,2023-12-27,株式会社ロンジェビティライフ,,株式会社,東京都,台東区,竜泉２丁目７－７東京ビューマンクス５０２,,13,106,1100012,,,,,,,2023-12-27,1,,,,,ロンジェビティライフ,0
1169,5010603010547,新規,0,2023-12-27,2023-12-27,合同会社Ｅｑｕａｌｉｓｅｒ,,合同会社,東京都,江東区,北砂３丁目３番２１号,,13,108,1360073,,,,,,,2023-12-27,1,,,,,イコライザ,0
1170,5010701045338,新規,0,2023-12-27,2023-12-27,ＩＢｐｒｏ株式会社,,株式会社,東京都,品川区,東品川２丁目１番１１号,,13,109,1400002,,,,,,,2023-12-27,1,,,,,アイビープロ,0
1175,5010901054329,新規,0,2023-12-27,2023-12-27,株式会社ＳＯＬ,,株式会社,東京都,世田谷区,玉川３丁目２０番２号マノア玉川第３ビル５０１号室,,13,112,1580094,,,,,,,2023-12-27,1,,,,,ソル,0
1176,5010901054428,新規,0,2023-12-27,2023-12-27,１ＰＬＡＴＥ株式会社,,株式会社,東京都,世田谷区,砧２丁目１４番１２－８０６号,,13,112,1570073,,,,,,,2023-12-27,1,,,,,ワンプレート,0
1180,5011001158945,新規,0,2023-12-27,2023-12-27,株式会社シルフラーレ販売,,株式会社,東京都,渋谷区,渋谷２丁目２４番１２号,,13,113,1500002,,,,,,,2023-12-27,1,,,,,シルフラーレハンバイ,0
1181,5011001159035,新規,0,2023-12-27,2023-12-27,株式会社零,,株式会社,東京都,渋谷区,恵比寿西２丁目１４－７ｐａｒｋａｘｉｓ代官山４０３,,13,113,1500021,,,,,,,2023-12-27,1,,,,,ゼロ,0
1182,5011003018164,新規,0,2023-12-27,2023-12-27,ＴＨＫ　ａｒｔｗｏｒｋｓ合同会社,,合同会社,東京都,渋谷区,恵比寿西２丁目８番４号ＥＸ恵比寿西ビル５階,,13,113,1500021,,,,,,,2023-12-27,1,,,,,ティーエイチケーアートワークス,0
1185,5011101105649,新規,0,2023-12-27,2023-12-27,株式会社Ｇｌｏｂａｌ　Ｃｏｎｎｅｃｔｉｏｎ,,株式会社,東京都,新宿区,北新宿１丁目１９－４メイクスデザイン西新宿４０３,,13,104,1690074,,,,,,,2023-12-27,1,,,,,グローバルコネクション,0
1186,5011101105657,新規,0,2023-12-27,2023-12-27,株式会社轉千,,株式会社,東京都,新宿区,西新宿３丁目３番１３号西新宿水間ビル２Ｆ,,13,104,1600023,,,,,,,2023-12-27,1,,,,,テンゼン,0
1187,5011103013899,新規,0,2023-12-27,2023-12-27,合同会社ＰＭＯ,,合同会社,東京都,新宿区,早稲田鶴巻町５３８,,13,104,1620041,,,,,,,2023-12-27,1,,,,,ピーエムオー,0
1192,5011303004995,新規,0,2023-12-27,2023-12-27,ｋｕｒｉｙａ住設合同会社,,合同会社,東京都,杉並区,方南１丁目５１番７号２１６号室,,13,115,1680062,,,,,,,2023-12-27,1,,,,,クリヤジュウセツ,0
1197,5011505002599,新規,0,2023-12-27,2023-12-27,一般社団法人日本ペット救命活動協会,,その他の設立登記法人,東京都,北区,赤羽北２丁目１２番２３号,,13,117,1150052,,,,,,,2023-12-27,1,,,,,ニホンペットキュウメイカツドウキョウカイ,0
1200,5011701026889,新規,0,2023-12-27,2023-12-27,株式会社上東テクノ,,株式会社,東京都,江戸川区,松島１丁目３番３号,,13,123,1320031,,,,,,,2023-12-27,1,,,,,ジョウトウテクノ,0
1202,5011801043586,新規,0,2023-12-27,2023-12-27,株式会社トラスト,,株式会社,東京都,足立区,千住緑町１丁目２４番１－１０１,,13,121,1200044,,,,,,,2023-12-27,1,,,,,トラスト,0
1208,5020001155084,新規,0,2023-12-27,2023-12-27,株式会社ＩＤ技術経営オフィス,,株式会社,神奈川県,横浜市金沢区,富岡西６丁目４０番地１５号,,14,108,2360052,,,,,,,2023-12-27,1,,,,,アイディーギジュツケイエイオフィス,0
1209,5020001155101,新規,0,2023-12-27,2023-12-27,株式会社強盛商事,,株式会社,神奈川県,川崎市幸区,幸町２丁目６８４番地６,,14,132,2120011,,,,,,,2023-12-27,1,,,,,,0
1210,5020003025211,新規,0,2023-12-27,2023-12-27,合同会社Ｓｉｍｐｌｅ,,合同会社,神奈川県,川崎市高津区,諏訪３丁目１８－６－３０５,,14,134,2130004,,,,,,,2023-12-27,1,,,,,シンプル,0
1211,5020003025277,新規,0,2023-12-27,2023-12-27,合同会社レチハルボンボン,,合同会社,神奈川県,横浜市南区,大岡３丁目１２番３３号,,14,105,2320061,,,,,,,2023-12-27,1,,,,,レチハルボンボン,0
1218,5021001081106,新規,0,2023-12-27,2023-12-27,株式会社田中水産雄満丸,,株式会社,神奈川県,茅ヶ崎市,南湖２丁目１３番４５号,,14,207,2530061,,,,,,,2023-12-27,1,,,,,タナカスイサンユウマンマル,0
1227,5030001157906,新規,0,2023-12-27,2023-12-27,株式会社Ｇｌｏｂａｌ　Ｓｋｙ,,株式会社,埼玉県,三郷市,新和４丁目３９９番地,,11,237,3410034,,,,,,,2023-12-27,1,,,,,グローバルスカイ,0
1228,5030001157914,新規,0,2023-12-27,2023-12-27,Ｒｉｓｅ　Ｔｅｃｈ株式会社,,株式会社,埼玉県,越谷市,東越谷９丁目７３番地１２,,11,222,3430023,,,,,,,2023-12-27,1,,,,,ライズテック,0
1229,5030001157930,新規,0,2023-12-27,2023-12-27,株式会社ＩＷＡＳＡＫＩアセットマネジメント,,株式会社,埼玉県,さいたま市浦和区,北浦和４丁目１番１１号,,11,107,3300074,,,,,,,2023-12-27,1,,,,,イワサキアセットマネジメント,0
1230,5030001157947,新規,0,2023-12-27,2023-12-27,株式会社沓川工芸,,株式会社,埼玉県,川口市,大字安行原２５５６番地の１２,,11,203,3340057,,,,,,,2023-12-27,1,,,,,クツカワコウゲイ,0
1235,5040001131471,新規,0,2023-12-27,2023-12-27,株式会社富士馬工業,,株式会社,千葉県,旭市,岩井６１番地１５,,12,215,2892602,,,,,,,2023-12-27,1,,,,,フジマコウギョウ,0
1236,5040001131513,新規,0,2023-12-27,2023-12-27,株式会社エンジェルエンターテインメント,,株式会社,千葉県,松戸市,幸谷４６６番地,,12,207,2700017,,,,,,,2023-12-27,1,,,,,エンジェルエンターテインメント,0
1237,5040001131570,新規,0,2023-12-27,2023-12-27,株式会社ＣｈａｒｍｅｒＪａｐａｎ,,株式会社,千葉県,流山市,おおたかの森北２丁目５０番地の１ＧＲＡＮＤＩＳ２０７,,12,220,2700119,,,,,,,2023-12-27,1,,,,,シャルメジャパン,0
1244,5040003023997,新規,0,2023-12-27,2023-12-27,三和合同会社,,合同会社,千葉県,松戸市,稔台２丁目１１－２ヒルズ八柱ＩＩ－１００３,00133133,12,207,2702231,,,,,,,2023-12-27,1,,,,,ミワ,0
1247,5050001054060,新規,0,2023-12-27,2023-12-27,令和ビジネスアソシエイト株式会社,,株式会社,茨城県,結城市,大字東茂呂１３３６番地１,,08,207,3070037,,,,,,,2023-12-27,1,,,,,レイワビジネスアソシエイト,0
1250,5050005013368,新規,0,2023-12-27,2023-12-27,一般社団法人つくばレインボーランド,,その他の設立登記法人,茨城県,つくば市,妻木２２２番地１井上ハイツ１０１,,08,220,3050028,,,,,,,2023-12-27,1,,,,,,0
1253,5060001036677,新規,0,2023-12-27,2023-12-27,株式会社Ｍｅｇｕクリーンサービス,,株式会社,栃木県,宇都宮市,鶴田町３４９３番地１９７,,09,201,3200851,,,,,,,2023-12-27,1,,,,,メグクリーンサービス,0
1258,5070001041222,新規,0,2023-12-27,2023-12-27,アール・ケー・エム株式会社,,株式会社,群馬県,館林市,緑町２丁目１５番２４号クラリスアイ－２０３,,10,207,3740025,,,,,,,2023-12-27,1,,,,,アールケーエム,0
1266,5110001038065,新規,0,2023-12-27,2023-12-27,株式会社富士屋モータース,,株式会社,新潟県,長岡市,島崎５２７０番地,,15,202,9494525,,,,,,,2023-12-27,1,,,,,フジヤモータース,0
1282,5120001260568,新規,0,2023-12-27,2023-12-27,Ｈ＆Ｈ株式会社,,株式会社,大阪府,大阪市阿倍野区,丸山通１丁目５番１号ＭＪビル４階,,27,119,5450042,,,,,,,2023-12-27,1,,,,,エイチアンドエイチ,0
1283,5120001260964,新規,0,2023-12-27,2023-12-27,株式会社ＬＩＦＡＣＴ,,株式会社,大阪府,大阪市北区,大淀南２丁目２番４３－２１０３号,,27,127,5310075,,,,,,,2023-12-27,1,,,,,リフアクト,0
1286,5120003025572,新規,0,2023-12-27,2023-12-27,ＤｒｅａｍＦｏｒｇｅ合同会社,,合同会社,大阪府,大阪市天王寺区,細工谷１丁目４番２２号８０２号室,,27,109,5430032,,,,,,,2023-12-27,1,,,,,ドリームフォージ,0
1287,5120003025580,新規,0,2023-12-27,2023-12-27,Ｙｕｓｈｉｎ　Ｃｏｎｓｕｌｔｉｎｇ合同会社,,合同会社,大阪府,大阪市北区,梅田１丁目８番１６号ヒルトンプラザイースト,,27,127,5300001,,,,,,,2023-12-27,1,,,,,ユーシンコンサルティング,0
1288,5120003025589,新規,0,2023-12-27,2023-12-27,合同会社ＣＨＡＮＣＥ,,合同会社,大阪府,大阪市平野区,加美東４丁目２１番３号４０１,,27,126,5470002,,,,,,,2023-12-27,1,,,,,チャンス,0
1289,5120003025597,新規,0,2023-12-27,2023-12-27,合同会社リアリティバイツ,,合同会社,大阪府,大阪市鶴見区,諸口６丁目１５番３３号シャトーレイクルイーズ４０２,,27,124,5380051,,,,,,,2023-12-27,1,,,,,リアリティバイツ,0
1291,5120005024060,新規,0,2023-12-27,2023-12-27,特定非営利活動法人鶴見区音楽団,,その他の設立登記法人,大阪府,大阪市鶴見区,鶴見５丁目５番３号,,27,124,5380053,,,,,,,2023-12-27,1,,,,,ツルミクオンガクダン,0
1293,5120101068779,新規,0,2023-12-27,2023-12-27,株式会社フクズミテック,,株式会社,大阪府,岸和田市,尾生町３丁目１４番４号,,27,202,5960816,,,,,,,2023-12-27,1,,,,,フクズミテック,0
1294,5120101068795,新規,0,2023-12-27,2023-12-27,創和オーセンティック株式会社,,株式会社,大阪府,堺市堺区,翁橋町１丁１－１ミナルコビル４０２号,,27,141,5900061,,,,,,,2023-12-27,1,,,,,ソウワオーセンティック,0
1295,5120101068804,新規,0,2023-12-27,2023-12-27,株式会社ジェネラルソリューション,,株式会社,大阪府,堺市東区,白鷺町３丁１７－２２－１００９,,27,143,5998107,,,,,,,2023-12-27,1,,,,,ジェネラルソリューション,0
1299,5120901048518,新規,0,2023-12-27,2023-12-27,株式会社上友運送,,株式会社,大阪府,高槻市,城南町１丁目９－９－２,,27,207,5690056,,,,,,,2023-12-27,1,,,,,ウエトモウンソウ,0
1300,5120901048542,新規,0,2023-12-27,2023-12-27,株式会社スリーエー,,株式会社,大阪府,吹田市,桃山台２丁目７番１２－２０６号,,27,205,5650854,,,,,,,2023-12-27,1,,,,,スリーエー,0
1303,5130001076014,新規,0,2023-12-27,2023-12-27,株式会社Ｃ＆Ｃ,,株式会社,京都府,京都市右京区,太秦安井松本町１５番地１―６２４号,,26,108,6168085,,,,,,,2023-12-27,1,,,,,シーアンドシー,0
1304,5130001076047,新規,0,2023-12-27,2023-12-27,春華株式会社,,株式会社,京都府,京都市伏見区,竹田久保町７０－１０ＭＦＫ伏見ビル１Ｆ,,26,109,6128411,,,,,,,2023-12-27,1,,,,,ハルカ,0
1311,5140001132815,新規,0,2023-12-27,2023-12-27,株式会社ＡＴＫ,,株式会社,兵庫県,高砂市,今市２丁目１２番３０号,,28,216,6760003,,,,,,,2023-12-27,1,,,,,,0
1314,5140003019985,新規,0,2023-12-27,2023-12-27,ＴＤＲ合同会社,,合同会社,兵庫県,神戸市中央区,加納町４丁目７番２５号羽根田ビル３０３,,28,110,6500001,,,,,,,2023-12-27,1,,,,,ティーディーアール,0
1318,5150001026966,新規,0,2023-12-27,2023-12-27,ＭＡＲＩＯＮ株式会社,,株式会社,奈良県,生駒市,壱分町１１６１番地２エフ・メゾンＥ棟２０１,,29,209,6300222,,,,,,,2023-12-27,1,,,,,マリオン,0
1320,5160001025595,新規,0,2023-12-27,2023-12-27,株式会社らいんグループ,,株式会社,滋賀県,草津市,野村２丁目３番１８号都計第一ビル１Ｆ,,25,206,5250027,,,,,,,2023-12-27,1,,,,,ライングループ,0
1327,5180001159565,新規,0,2023-12-27,2023-12-27,株式会社ＧＯＬＤ　ＳＴＯＮＥ,,株式会社,愛知県,名古屋市中村区,元中村町１丁目８３番地,,23,105,4530047,,,,,,,2023-12-27,1,,,,,ゴールドストーン,0
1330,5180003026136,新規,0,2023-12-27,2023-12-27,合同会社フルフィルタマキ,,合同会社,愛知県,犬山市,大字羽黒新田字上蝉屋３９番地１,00133131,23,215,4840888,,,,,,,2023-12-27,1,,,,,フルフィルタマキ,0
1336,5190003004545,新規,0,2023-12-27,2023-12-27,ｆｉｎｇｌｏｏｐ合同会社,,合同会社,三重県,四日市市,千代田町１９７番地２,,24,202,5128065,,,,,,,2023-12-27,1,,,,,フィングループ,0
1337,5200001042017,新規,0,2023-12-27,2023-12-27,株式会社ＳＡＮＳＨＩＮ,,株式会社,岐阜県,飛騨市,古川町杉崎１９４番地１,,21,217,5094215,,,,,,,2023-12-27,1,,,,,サンシン,0
1339,5200003006192,新規,0,2023-12-27,2023-12-27,合同会社けやき,,合同会社,岐阜県,大野郡白川村,大字荻町３０５番地の１,,21,604,5015627,,,,,,,2023-12-27,1,,,,,ケヤキ,0
1346,5250001020447,新規,0,2023-12-27,2023-12-27,株式会社有信アステル,,株式会社,山口県,下関市,勝谷新町３丁目１１－６,,35,201,7510802,,,,,,,2023-12-27,1,,,,,ユウシンアステル,0
1348,5260001038604,新規,0,2023-12-27,2023-12-27,株式会社ミサワ,,株式会社,岡山県,倉敷市,加須山２９０番地３,,33,202,7100026,,,,,,,2023-12-27,1,,,,,ミサワ,0
1360,5290001104221,新規,0,2023-12-27,2023-12-27,ＡＭＴホールディング株式会社,,株式会社,福岡県,古賀市,舞の里５丁目３９番７号,,40,223,8113114,,,,,,,2023-12-27,1,,,,,エーエムティーホールディング,0
1362,5290005019242,新規,0,2023-12-27,2023-12-27,一般財団法人溝田奨学財団,,その他の設立登記法人,福岡県,久留米市,東町４８０番地１６,,40,203,8300032,,,,,,,2023-12-27,1,,,,,ミゾタショウガクザイダン,0
1366,5290801030170,新規,0,2023-12-27,2023-12-27,株式会社Ｔｈａｎｋｓ,,株式会社,福岡県,田川郡福智町,市場１４番地５７,,40,610,8221103,,,,,,,2023-12-27,1,,,,,サンクス,0
1367,5290805009698,新規,0,2023-12-27,2023-12-27,医療法人晴々会,,その他の設立登記法人,福岡県,直方市,大字感田２６４５番１,,40,204,8220001,,,,,,,2023-12-27,1,,,,,セイセイカイ,0
1371,5320003004267,新規,0,2023-12-27,2023-12-27,合同会社Ｍａｒｉａ,,合同会社,大分県,宇佐市,大字佐々礼１６６０番地の３,,44,211,8720016,,,,,,,2023-12-27,1,,,,,マリア,0
1372,5320005010123,新規,0,2023-12-27,2023-12-27,一般社団法人Ｈｏｎｅｓｔ,,その他の設立登記法人,大分県,大分市,久原中央１丁目４番１５号,,44,201,8700325,,,,,,,2023-12-27,1,,,,,オネスト,0
1373,5330001031601,新規,0,2023-12-27,2023-12-27,株式会社ミライヒラクくまもと,,株式会社,熊本県,熊本市南区,出仲間８丁目５番３３号,,43,104,8620963,,,,,,,2023-12-27,1,,,,,ミライヒラククマモト,0
1376,5340001026170,新規,0,2023-12-27,2023-12-27,株式会社小園不動産,,株式会社,鹿児島県,垂水市,錦江町１番地１００,,46,214,8912124,,,,,,,2023-12-27,1,,,,,コゾノフドウサン,0
1380,5360001033009,新規,0,2023-12-27,2023-12-27,株式会社新喜,,株式会社,沖縄県,沖縄市,久保田２丁目２番３２号,,47,211,9040023,,,,,,,2023-12-27,1,,,,,シンキ,0
1381,5360001033017,新規,0,2023-12-27,2023-12-27,株式会社ここから,,株式会社,沖縄県,中頭郡嘉手納町,字水釜３６７番地１,,47,325,9040204,,,,,,,2023-12-27,1,,,,,ココカラ,0
1383,5370001050779,新規,0,2023-12-27,2023-12-27,株式会社ウッドベル,,株式会社,宮城県,登米市,迫町北方字大和田１番地１８,,04,212,9870513,,,,,,,2023-12-27,1,,,,,ウッドベル,0
1386,5380003005648,新規,0,2023-12-27,2023-12-27,合同会社エスエス商会,,合同会社,福島県,本宮市,本宮字栄田５８番地２,,07,214,9691148,,,,,,,2023-12-27,1,,,,,エスエスショウカイ,0
1388,5400003003194,新規,0,2023-12-27,2023-12-27,合同会社遠克建設,,合同会社,岩手県,滝沢市,湯舟沢２２２番地１１４,,03,216,0200617,,,,,,,2023-12-27,1,,,,,エンカツケンセツ,0
1395,5430001090736,新規,0,2023-12-27,2023-12-27,株式会社春建設,,株式会社,北海道,札幌市豊平区,平岸五条１２丁目２番４６－２号,,01,105,0620935,,,,,,,2023-12-27,1,,,,,ハルケンセツ,0
1396,5430001090744,新規,0,2023-12-27,2023-12-27,株式会社塗装屋永塗,,株式会社,北海道,苫小牧市,大成町２丁目６番３－１０１号,,01,213,0530806,,,,,,,2023-12-27,1,,,,,トソウヤエイト,0
1398,5430003015798,新規,0,2023-12-27,2023-12-27,合同会社旅と北海道,,合同会社,北海道,勇払郡安平町,追分本町１丁目４５－１,,01,585,0591911,,,,,,,2023-12-27,1,,,,,タビトホッカイドウ,0
1399,5460001005856,新規,0,2023-12-27,2023-12-27,株式会社ヴィクトリー,,株式会社,北海道,釧路郡釧路町,東陽大通西３丁目１番地１,,01,661,0880628,,,,,,,2023-12-27,1,,,,,ヴィクトリー,0
1405,5480005006997,新規,0,2023-12-27,2023-12-27,特定非営利活動法人ＰＯＣ,,その他の設立登記法人,徳島県,徳島市,東船場町２丁目２１番地２,,36,201,7700911,,,,,,,2023-12-27,1,,,,,ピーオーシー,0
1410,5700150041636,新規,0,2023-12-27,2015-10-09,愛知中小企業家同友会,,その他,愛知県,名古屋市中区,錦３丁目６－２９サウスハウス　２Ｆ,,23,106,4600003,,,,,,,2015-10-09,1,,,,,アイチチユウシヨウキギヨウカドウユウカイ,0
1418,6010001241149,新規,0,2023-12-27,2023-12-27,株式会社ＪＳＫ１６,,株式会社,東京都,千代田区,麹町２丁目６番地５,,13,101,1020083,,,,,,,2023-12-27,1,,,,,ジェイエスケイジュウロク,0
1420,6010003042553,新規,0,2023-12-27,2023-12-27,ＳＬリアルティ合同会社,,合同会社,東京都,中央区,日本橋１丁目４番１号,,13,102,1030027,,,,,,,2023-12-27,1,,,,,エスエルリアルティ,0
1426,6010401179427,新規,0,2023-12-27,2023-12-27,株式会社インウィット,,株式会社,東京都,港区,高輪１丁目２７番３７号２７０３号室,,13,103,1080074,,,,,,,2023-12-27,1,,,,,インウィット,0
1427,6010401179435,新規,0,2023-12-27,2023-12-27,株式会社ＤＳｅｃｕｒｅ,,株式会社,東京都,港区,芝４丁目７番６号芝ビルディング７０４,,13,103,1080014,,,,,,,2023-12-27,1,,,,,ディーセキュア,0
1428,6010401179443,新規,0,2023-12-27,2023-12-27,株式会社ＡＧＩＬＥ　ＥＮＪＩＮ　ＥＮＴＥＲＴＡＩＮＭＥＮＴ,,株式会社,東京都,港区,虎ノ門４丁目１番４０号,,13,103,1050001,,,,,,,2023-12-27,1,,,,,アジャイルエンジンエンターテインメント,0
1431,6010405022806,新規,0,2023-12-27,2023-12-27,一般社団法人日本伝統美,,その他の設立登記法人,東京都,港区,白金３丁目１番１０－３０５号,,13,103,1080072,,,,,,,2023-12-27,1,,,,,ニホンデントウビ,0
1432,6010405022822,新規,0,2023-12-27,2023-12-27,一般社団法人ＤＶＣ,,その他の設立登記法人,東京都,港区,南青山４丁目２１番２６号リュエル青山Ｃ棟Ｂ１細谷総合会計事務所内,,13,103,1070062,,,,,,,2023-12-27,1,,,,,ディーブイシー,0
1435,6010601064412,新規,0,2023-12-27,2023-12-27,株式会社ＡｎｄＢＲＡＮＤ,,株式会社,東京都,江東区,高橋８－１２タナアミビル１０１号室,,13,108,1350005,,,,,,,2023-12-27,1,,,,,アンドブランド,0
1438,6010701045337,新規,0,2023-12-27,2023-12-27,株式会社ホワイトベリー,,株式会社,東京都,品川区,東五反田５丁目２１－２－２０３,,13,109,1410022,,,,,,,2023-12-27,1,,,,,ホワイトベリー,0
1441,6010805003083,新規,0,2023-12-27,2023-12-27,特定非営利活動法人中国残留邦人等・日中友好大海の会,,その他の設立登記法人,東京都,大田区,南久が原２丁目２４番９号,,13,111,1460084,,,,,,,2023-12-27,1,,,,,チュウゴクザンリュウホウジントウニッチュウユウコウタイカイノカイ,0
1443,6010901054402,新規,0,2023-12-27,2023-12-27,株式会社ＫＣＧ　Ｌｕｘｉａ,,株式会社,東京都,世田谷区,経堂１丁目２１番１７号ＳｈｉｉｙａＢＬＤ２Ｆ,,13,112,1560052,,,,,,,2023-12-27,1,,,,,ケーシージールクシア,0
1444,6010901054410,新規,0,2023-12-27,2023-12-27,株式会社ＭＥＩＬＩ,,株式会社,東京都,世田谷区,東玉川２丁目６番１５号ハル１０３,,13,112,1580084,,,,,,,2023-12-27,1,,,,,メイリー,0
1451,6011001159001,新規,0,2023-12-27,2023-12-27,株式会社チームテック,,株式会社,東京都,目黒区,下目黒１丁目８－１,,13,110,1530064,,,,,,,2023-12-27,1,,,,,チームテック,0
1452,6011001159018,新規,0,2023-12-27,2023-12-27,株式会社Ｏｎｅ　Ｗｏｒｌｄ　Ｔｅｃｈｎｏｌｏｇｙ,,株式会社,東京都,目黒区,東山１丁目５番４号ＫＤＸ中目黒ビル３階,,13,110,1530043,,,,,,,2023-12-27,1,,,,,ワンワールドテクノロジー,0
1453,6011001159109,新規,0,2023-12-27,2023-12-27,株式会社Ｌｅｍｏｎ,,株式会社,東京都,渋谷区,円山町１０－１８マイキャッスル渋谷ＪＰ２０１号室,,13,113,1500044,,,,,,,2023-12-27,1,,,,,レモン,0
1460,6011101105631,新規,0,2023-12-27,2023-12-27,株式会社ＡＲＥＹ,,株式会社,東京都,新宿区,新宿２丁目７番２号サニーコーポ７０３,,13,104,1600022,,,,,,,2023-12-27,1,,,,,アリー,0
1461,6011101105648,新規,0,2023-12-27,2023-12-27,株式会社楽楽フード,,株式会社,東京都,新宿区,百人町１丁目１８－１０第２林ビル４階,,13,104,1690073,,,,,,,2023-12-27,1,,,,,ラクラクフード,0
1462,6011101105656,新規,0,2023-12-27,2023-12-27,株式会社錦月,,株式会社,東京都,新宿区,下落合２丁目１３番１－４０１号,,13,104,1610033,,,,,,,2023-12-27,1,,,,,キンゲツ,0
1463,6011101105664,新規,0,2023-12-27,2023-12-27,株式会社フロムファースト,,株式会社,東京都,新宿区,新宿１丁目３１番３－３０７号,,13,104,1600022,,,,,,,2023-12-27,1,,,,,フロムファースト,0
1472,6011601027409,新規,0,2023-12-27,2023-12-27,光アセット株式会社,,株式会社,東京都,練馬区,大泉学園町２丁目３０番７号,,13,120,1780061,,,,,,,2023-12-27,1,,,,,ヒカリアセット,0
1476,6011801043585,新規,0,2023-12-27,2023-12-27,株式会社Ｆｉｒｓｔ　ｓｔｅｐ,,株式会社,東京都,葛飾区,西亀有２丁目３９番３号,,13,122,1240002,,,,,,,2023-12-27,1,,,,,ファーストステップ,0
1480,6012401041368,新規,0,2023-12-27,2023-12-27,株式会社アズイズ,,株式会社,東京都,小金井市,本町５丁目１８番５号太平ビル３Ｆ,,13,210,1840004,,,,,,,2023-12-27,1,,,,,アズイズ,0
1504,6030001157938,新規,0,2023-12-27,2023-12-27,株式会社ＫＡＫＵＭＥＩ,,株式会社,埼玉県,入間市,大字新光１３９番地２,,11,225,3580055,,,,,,,2023-12-27,1,,,,,カクメイ,0
1505,6030001157946,新規,0,2023-12-27,2023-12-27,株式会社オートショップＱｕｉｃｋ,,株式会社,埼玉県,春日部市,花積４２８番地１,,11,214,3440044,,,,,,,2023-12-27,1,,,,,オートショップクイック,0
1511,6040001131470,新規,0,2023-12-27,2023-12-27,株式会社ＦＵＪＩ,,株式会社,千葉県,成田市,公津の杜４丁目１２番地プロシードＣＯ－Ｚ東館１階,,12,211,2860048,,,,,,,2023-12-27,1,,,,,フジ,0
1512,6040001131512,新規,0,2023-12-27,2023-12-27,株式会社Ｏｎｇｉｂａｃｋ,,株式会社,千葉県,市原市,市原６番地３,,12,219,2900015,,,,,,,2023-12-27,1,,,,,オンギバック,0
1513,6040001131520,新規,0,2023-12-27,2023-12-27,ＩＮＴＥＲＮＡＴＩＯＮＡＬ　ＳＯＲＯＮＡ　ＣＯＲＰＯＲＡＴＩＯＮ株式会社,,株式会社,千葉県,流山市,青田２２番地１１,,12,220,2700112,,,,,,,2023-12-27,1,,,,,インターナショナルソロナコーポレーション,0
1514,6040003023988,新規,0,2023-12-27,2023-12-27,合同会社Ａｄａｐｔ,,合同会社,千葉県,柏市,新富町２丁目１４番４８号,,12,217,2770856,,,,,,,2023-12-27,1,,,,,アダプト,0
1515,6040003024012,新規,0,2023-12-27,2023-12-27,合同会社まめコーポレーション,,合同会社,千葉県,千葉市稲毛区,小仲台７丁目２１番地２７－３０３号,,12,103,2630043,,,,,,,2023-12-27,1,,,,,マメコーポレーション,0
1521,6050001054043,新規,0,2023-12-27,2023-12-27,Ｗｉｓｔｅｒｉａ　Ｂｒａｎｃｈ株式会社,,株式会社,茨城県,東茨城郡茨城町,大字海老沢１５１０番地２,,08,302,3113135,,,,,,,2023-12-27,1,,,,,ウィステリアブランチ,0
1531,6060001036668,新規,0,2023-12-27,2023-12-27,株式会社Ｇｒｅｅｎ　Ｍｏｎｓｔｅｒ,,株式会社,栃木県,大田原市,倉骨２２番地,,09,210,3240014,,,,,,,2023-12-27,1,,,,,グリーンモンスター,0
1532,6060001036676,新規,0,2023-12-27,2023-12-27,株式会社Ａ‐ｍａｙ,,株式会社,栃木県,宇都宮市,富士見が丘１丁目２０番３号,,09,201,3200011,,,,,,,2023-12-27,1,,,,,エイメイ,0
1533,6060003004854,新規,0,2023-12-27,2023-12-27,合同会社ＧＹＫ,,合同会社,栃木県,下都賀郡壬生町,大字安塚７９１番地１１,00133129,09,361,3210201,,,,,,,2023-12-27,1,,,,,ジーワイケー,0
1557,6120001260740,新規,0,2023-12-27,2023-12-27,ＳＹＮＡＰＳＥ株式会社,,株式会社,大阪府,大阪市中央区,久太郎町４丁目１－３大阪センタービル６Ｆ－２２５,,27,128,5410056,,,,,,,2023-12-27,1,,,,,シナプス,0
1558,6120001260906,新規,0,2023-12-27,2023-12-27,株式会社ジェムズ,,株式会社,大阪府,大阪市東成区,大今里南３丁目９番１２号,,27,115,5370013,,,,,,,2023-12-27,1,,,,,ジェムズ,0
1559,6120001260922,新規,0,2023-12-27,2023-12-27,微四季株式会社,,株式会社,大阪府,大阪市東成区,東小橋１丁目１７－３１グランドハイツ東小橋５０５号室,,27,115,5370024,,,,,,,2023-12-27,1,,,,,ビシキ,0
1560,6120001260939,新規,0,2023-12-27,2023-12-27,株式会社ＮＩＨＯＮＢＡＳＨＩ　ＭＫＴ,,株式会社,大阪府,大阪市西淀川区,歌島１丁目２番２８号,,27,113,5550021,,,,,,,2023-12-27,1,,,,,ニホンバシエムケーティー,0
1561,6120001260947,新規,0,2023-12-27,2023-12-27,株式会社ｌｉｅｎ,,株式会社,大阪府,大阪市都島区,善源寺町２丁目８－１２,,27,102,5340015,,,,,,,2023-12-27,1,,,,,リアン,0
1562,6120001260963,新規,0,2023-12-27,2023-12-27,株式会社ワークハウス,,株式会社,大阪府,大阪市平野区,長吉六反３丁目３番５号,,27,126,5470012,,,,,,,2023-12-27,1,,,,,ワークハウス,0
1563,6120001260971,新規,0,2023-12-27,2023-12-27,ムーセン企画株式会社,,株式会社,大阪府,大阪市都島区,都島本通５丁目１０－１２,,27,102,5340021,,,,,,,2023-12-27,1,,,,,ムーセンキカク,0
1564,6120001261061,新規,0,2023-12-27,2023-12-27,ＫＲテック株式会社,,株式会社,大阪府,守口市,大宮通３丁目１１番１４号,,27,209,5700033,,,,,,,2023-12-27,1,,,,,ケーアールテック,0
1565,6120001261086,新規,0,2023-12-27,2023-12-27,株式会社Ｌａｒｇｏ,,株式会社,大阪府,大阪市西区,新町１丁目２５番１８号レナジア新町ビル,,27,106,5500013,,,,,,,2023-12-27,1,,,,,ラルゴ,0
1568,6120003025596,新規,0,2023-12-27,2023-12-27,ドリーム合同会社,,合同会社,大阪府,大阪市大正区,鶴町１丁目６番２号,,27,108,5510023,,,,,,,2023-12-27,1,,,,,ドリーム,0
1576,6120101068712,新規,0,2023-12-27,2023-12-27,ＪＭＴＣ株式会社,,株式会社,大阪府,堺市北区,南花田町４１７－３－２０１,,27,146,5918011,,,,,,,2023-12-27,1,,,,,ジェーエムティーシー,0
1577,6120101068778,新規,0,2023-12-27,2023-12-27,株式会社Ｄ‐ＰＬＡＮ,,株式会社,大阪府,堺市中区,福田１３８５番地２,,27,142,5998241,,,,,,,2023-12-27,1,,,,,ディープラン,0
1578,6120101068786,新規,0,2023-12-27,2023-12-27,株式会社Ｈ．Ｎホールディングス,,株式会社,大阪府,堺市堺区,北花田口町３丁１番２０号（西和ビル）,,27,141,5900074,,,,,,,2023-12-27,1,,,,,エイチエヌホールディングス,0
1579,6120101068794,新規,0,2023-12-27,2023-12-27,株式会社ＶＩＴＡ,,株式会社,大阪府,和泉市,寺門町１丁目１番１号,,27,219,5940064,,,,,,,2023-12-27,1,,,,,ヴィータ,0
1582,6120901048558,新規,0,2023-12-27,2023-12-27,株式会社Ｆｅｌｉｚ,,株式会社,大阪府,豊中市,緑丘４丁目８番６号,,27,203,5600002,,,,,,,2023-12-27,1,,,,,フェリス,0
1583,6120901048566,新規,0,2023-12-27,2023-12-27,株式会社フーズカル,,株式会社,大阪府,茨木市,下穂積１丁目８番７号,,27,211,5670041,,,,,,,2023-12-27,1,,,,,フーズカル,0
1584,6120901048574,新規,0,2023-12-27,2023-12-27,株式会社ラビングホーム,,株式会社,大阪府,池田市,旭丘３丁目５番２５号,,27,204,5630022,,,,,,,2023-12-27,1,,,,,ラビングホーム,0
1585,6122001037697,新規,0,2023-12-27,2023-12-27,株式会社ＳＭＫ,,株式会社,大阪府,東大阪市,長堂２丁目４番１８号トーアビル３０１号室,,27,227,5770056,,,,,,,2023-12-27,1,,,,,エスエムケイ,0
1589,6130001075989,新規,0,2023-12-27,2023-12-27,Ｓａｚａｒｙ．株式会社,,株式会社,京都府,京都市東山区,三条通白川橋東入五軒町１０６番地１,,26,105,6050036,,,,,,,2023-12-27,1,,,,,サザリー,0
1590,6130001076021,新規,0,2023-12-27,2023-12-27,智村グローバル株式会社,,株式会社,京都府,京都市上京区,五辻町８２番地ＯＴＡ．ｌａｂ２０２,00133135,26,102,6020000,,,,,,,2023-12-27,1,,,,,トモムラグローバル,0
1591,6130001076038,新規,0,2023-12-27,2023-12-27,株式会社美縁,,株式会社,京都府,京都市伏見区,醍醐御陵東裏町３８番地１,,26,109,6011313,,,,,,,2023-12-27,1,,,,,ミエン,0
1599,6140001132806,新規,0,2023-12-27,2023-12-27,ＷＤＦ商事株式会社,,株式会社,兵庫県,赤穂市,木津１３２７番地１５７,,28,212,6780165,,,,,,,2023-12-27,1,,,,,ダブリューディーエフショウジ,0
1600,6140001132814,新規,0,2023-12-27,2023-12-27,株式会社クリエイティブゼロ,,株式会社,兵庫県,明石市,西新町２丁目８番６号,,28,203,6730023,,,,,,,2023-12-27,1,,,,,クリエイティブゼロ,0
1605,6140005026855,新規,0,2023-12-27,2023-12-27,医療法人社団むこがわホームクリニック,,その他の設立登記法人,兵庫県,西宮市,鳴尾町４丁目１番１０号パレ西宮鳴尾ガーデン１０１号室,,28,204,6638184,,,,,,,2023-12-27,1,,,,,ムコガワホームクリニック,0
1606,6140005026863,新規,0,2023-12-27,2023-12-27,一般社団法人Ｃｈａｌｌｅｎｇｅｒｓ　Ｆｏｏｔｂａｌｌ　Ｃｌｕｂ,,その他の設立登記法人,兵庫県,尼崎市,東向島東之町１番地・日本製鉄尼崎製造所内,,28,202,6600835,,,,,,,2023-12-27,1,,,,,チャレンジャーズフットボールクラブ,0
1610,6160001025594,新規,0,2023-12-27,2023-12-27,株式会社四季彩,,株式会社,滋賀県,草津市,野路東４丁目１１番４０－１０１号,,25,206,5250058,,,,,,,2023-12-27,1,,,,,シキサイ,0
1612,6170001017946,新規,0,2023-12-27,2023-12-27,株式会社ＬａＭａｉｓｏｎ,,株式会社,和歌山県,田辺市,今福町２番地,,30,206,6460043,,,,,,,2023-12-27,1,,,,,ラメゾン,0
1617,6180001159457,新規,0,2023-12-27,2023-12-27,株式会社Ｌａｐｐｏｒｔ訪問看護ステーションｉｍ,,株式会社,愛知県,犬山市,大字前原字東野畔６８番地１,,23,215,4840061,,,,,,,2023-12-27,1,,,,,ラポールホウモンカンゴステーションアイエム,0
1618,6180001159531,新規,0,2023-12-27,2023-12-27,株式会社ＮＥＸＴ　ＡＵＴＯ,,株式会社,愛知県,弥富市,平島中３丁目１２３番地ヌーベルオーブＫ１－２０１,,23,235,4980032,,,,,,,2023-12-27,1,,,,,ネクストオート,0
1626,6180003026168,新規,0,2023-12-27,2023-12-27,合同会社ＳＮＯＷ　ＲＥＡＬＩＴＹ,,合同会社,愛知県,名古屋市名東区,高社１丁目１６番地東昭ビル２０８号,,23,115,4650095,,,,,,,2023-12-27,1,,,,,スノーリアリティ,0
1634,6240001062596,新規,0,2023-12-27,2023-12-27,株式会社ネクサス技建,,株式会社,広島県,尾道市,西藤町３５６番地１４,,34,205,7290142,,,,,,,2023-12-27,1,,,,,ネクサスギケン,0
1641,6260001038611,新規,0,2023-12-27,2023-12-27,株式会社Ｅｔｏｉｌｅ,,株式会社,岡山県,岡山市北区,幸町９番１７号,,33,101,7000903,,,,,,,2023-12-27,1,,,,,エトワール,0
1646,6290001104195,新規,0,2023-12-27,2023-12-27,株式会社Ｂｅｅｓ,,株式会社,福岡県,福岡市中央区,今川１丁目２６番３３号,,40,133,8100054,,,,,,,2023-12-27,1,,,,,ビーズ,0
1647,6290003014797,新規,0,2023-12-27,2023-12-27,合同会社Ｆｏｒｓｅ,,合同会社,福岡県,嘉穂郡桂川町,大字土居１１１９番地２,,40,421,8200606,,,,,,,2023-12-27,1,,,,,フォース,0
1653,6300001013568,新規,0,2023-12-27,2023-12-27,株式会社明友,,株式会社,佐賀県,神埼郡吉野ヶ里町,吉田２１７番地３,,41,327,8420031,,,,,,,2023-12-27,1,,,,,メイユウ,0
1656,6320001020199,新規,0,2023-12-27,2023-12-27,Ｗｉｎｄｗａｒｄ　Ｆｉｌｍｓ株式会社,,株式会社,大分県,中津市,２４１番地１,,44,203,8710099,,,,,,,2023-12-27,1,,,,,ウィンドワードフィルムズ,0
1657,6320001020208,新規,0,2023-12-27,2023-12-27,株式会社ＭＡＮＡ　ＣＬＥＡＮ,,株式会社,大分県,中津市,大字東浜７３３番地９,,44,203,8710006,,,,,,,2023-12-27,1,,,,,マナクリーン,0
1658,6320001020216,新規,0,2023-12-27,2023-12-27,株式会社松はし,,株式会社,大分県,大分市,大字生石４５７番地の１５,,44,201,8700003,,,,,,,2023-12-27,1,,,,,マツハシ,0
1663,6340003004339,新規,0,2023-12-27,2023-12-27,ＯＭＩ合同会社,,合同会社,鹿児島県,日置市,伊集院町猪鹿倉６２２番地５０,,46,216,8992505,,,,,,,2023-12-27,1,,,,,オーエムアイ,0
1665,6360001033008,新規,0,2023-12-27,2023-12-27,株式会社一心,,株式会社,沖縄県,島尻郡八重瀬町,字富盛３５番地,,47,362,9010402,,,,,,,2023-12-27,1,,,,,イッシン,0
1666,6360001033016,新規,0,2023-12-27,2023-12-27,株式会社清友堂,,株式会社,沖縄県,那覇市,壺屋２丁目２４番１２号コスミオン壺屋ＩＩ２－Ｂ,00133130,47,201,9020065,,,,,,,2023-12-27,1,,,,,セイユウドウ,0
1667,6360001033024,新規,0,2023-12-27,2023-12-27,株式会社ＮＯＭＥＲ,,株式会社,沖縄県,那覇市,宇栄原１丁目３番３３号,,47,201,9010153,,,,,,,2023-12-27,1,,,,,ノマー,0
1672,6360003013577,新規,0,2023-12-27,2023-12-27,合同会社ａｎｙｏｎｅ．Ｃｏ,,合同会社,沖縄県,島尻郡八重瀬町,字東風平４９３－３,,47,362,9010401,,,,,,,2023-12-27,1,,,,,エニワンカンパニー,0
1674,6370001050778,新規,0,2023-12-27,2023-12-27,株式会社Ｓｕｎｇｌｏｗ,,株式会社,宮城県,仙台市宮城野区,榴岡１丁目６番３７号ＴＭ仙台ビル３０２号,,04,102,9830852,,,,,,,2023-12-27,1,,,,,サングロー,0
1678,6380001034219,新規,0,2023-12-27,2023-12-27,ＩｎｆｉｎｉｔｉＣｏｍｍ株式会社,,株式会社,福島県,郡山市,並木３丁目６番地の１１,,07,203,9638026,,,,,,,2023-12-27,1,,,,,インフィニティコム,0
1679,6380003005647,新規,0,2023-12-27,2023-12-27,伊藤忠合同会社,,合同会社,福島県,いわき市,平字田町６３番地の１３ライオンズプラザ１０３,,07,204,9708026,,,,,,,2023-12-27,1,,,,,イトウチュウ,0
1681,6400001016503,新規,0,2023-12-27,2023-12-27,株式会社空と樹,,株式会社,岩手県,一関市,萩荘字古内２４１番地,,03,209,0210902,,,,,,,2023-12-27,1,,,,,ソラトキ,0
1685,6410001013680,新規,0,2023-12-27,2023-12-27,株式会社ショートケーキ,,株式会社,秋田県,秋田市,蛇野８番地１,,05,201,0100853,,,,,,,2023-12-27,1,,,,,ショートケーキ,0
1691,6430001090727,新規,0,2023-12-27,2023-12-27,株式会社トラスト,,株式会社,北海道,札幌市中央区,南十一条西１２丁目２番２８―１１０１号,,01,101,0640811,,,,,,,2023-12-27,1,,,,,トラスト,0
1692,6430001090735,新規,0,2023-12-27,2023-12-27,株式会社フラワー花水木,,株式会社,北海道,札幌市北区,新琴似七条１丁目３番２７号,,01,102,0010907,,,,,,,2023-12-27,1,,,,,フラワーハナミズキ,0
1693,6430001090751,新規,0,2023-12-27,2023-12-27,ハロー北海道株式会社,,株式会社,北海道,札幌市清田区,清田十条４丁目２０番６号,,01,110,0040840,,,,,,,2023-12-27,1,,,,,ハローホッカイドウ,0
1699,6440001009370,新規,0,2023-12-27,2023-12-27,株式会社マルフ藤野水産,,株式会社,北海道,山越郡長万部町,字国縫１４６番地１５,,01,347,0493462,,,,,,,2023-12-27,1,,,,,マルフフジノスイサン,0
1703,6470003002544,新規,0,2023-12-27,2023-12-27,ＫＣ合同会社,,合同会社,香川県,高松市,上福岡町７３２－８,,37,201,7600077,,,,,,,2023-12-27,1,,,,,ケーシー,0
1704,6480003002064,新規,0,2023-12-27,2023-12-27,合同会社Ｎｅｖｅｒｍｉｎｄ,,合同会社,徳島県,三好郡東みよし町,加茂１８８３－１,,36,489,7794701,,,,,,,2023-12-27,1,,,,,ネバーマインド,0
1712,6700150121684,新規,0,2023-12-27,2023-11-01,福岡シニアオープンゴルフ実行委員会,,その他,福岡県,福岡市東区,和白東１丁目２番１５号,,40,131,8110214,,,,,,,2023-11-01,1,,,,,フクオカシニアオープンゴルフジツコウイインカイ,0
1717,7010001241107,新規,0,2023-12-27,2023-12-27,潤鳴重工株式会社,,株式会社,東京都,中央区,日本橋浜町２丁目２３番５号８Ｆ,,13,102,1030007,,,,,,,2023-12-27,1,,,,,ジュンメイジュウコウ,0
1718,7010001241131,新規,0,2023-12-27,2023-12-27,株式会社ＩＤＥＡ　Ａｓｓｅｔ,,株式会社,東京都,中央区,京橋２丁目２番１号京橋エドグラン２６階,,13,102,1040031,,,,,,,2023-12-27,1,,,,,イデアアセット,0
1719,7010001241148,新規,0,2023-12-27,2023-12-27,株式会社ＪＳＫ１５,,株式会社,東京都,千代田区,麹町２丁目６番地５,,13,101,1020083,,,,,,,2023-12-27,1,,,,,ジェイエスケイジュウゴ,0
1720,7010001241156,新規,0,2023-12-27,2023-12-27,株式会社Ｃｏｎｔｒａｐｐｕｎｔｏ　Ｎｉｐｐｏｎ,,株式会社,東京都,千代田区,神田神保町１丁目５－１０,,13,101,1010051,,,,,,,2023-12-27,1,,,,,コントラプントニッポン,0
1721,7010001241189,新規,0,2023-12-27,2023-12-27,株式会社Ｂｉｓｓ,,株式会社,東京都,千代田区,内神田２丁目１３－６ウィンド神田ビル５Ｆ,,13,101,1010047,,,,,,,2023-12-27,1,,,,,ビス,0
1734,7010401179418,新規,0,2023-12-27,2023-12-27,株式会社ＫＹコンサルティング,,株式会社,東京都,港区,南青山４丁目５－１６,,13,103,1070062,,,,,,,2023-12-27,1,,,,,ケイワイコンサルティング,0
1735,7010401179525,新規,0,2023-12-27,2023-12-27,株式会社Ｓ‐Ｕｎｉｔｙ,,株式会社,東京都,港区,新橋３丁目２１番９号貴悦ビル２階,,13,103,1050004,,,,,,,2023-12-27,1,,,,,エスユニティ,0
1739,7010403031659,新規,0,2023-12-27,2023-12-27,合同会社ゼログラビティ,,合同会社,東京都,港区,南青山２丁目２番１５号,,13,103,1070062,,,,,,,2023-12-27,1,,,,,ゼログラビティ,0
1741,7010501051559,新規,0,2023-12-27,2023-12-27,株式会社ＮｏＦｒａｍｅ,,株式会社,東京都,台東区,上野６丁目８番１９号,,13,106,1100005,,,,,,,2023-12-27,1,,,,,ノーフレーム,0
1749,7010601064295,新規,0,2023-12-27,2023-12-27,株式会社ジュヴナイル,,株式会社,東京都,江東区,青海２丁目７番４号ＴｈｅＳＯＨＯ６１８号室,,13,108,1350064,,,,,,,2023-12-27,1,,,,,ジュヴナイル,0
1755,7010701045328,新規,0,2023-12-27,2023-12-27,株式会社ＴＭＴ,,株式会社,東京都,品川区,西五反田２丁目７番９号クワハラビルＢ１Ｆ,,13,109,1410031,,,,,,,2023-12-27,1,,,,,ティーエムティー,0
1756,7010701045336,新規,0,2023-12-27,2023-12-27,株式会社ｋｏｈ,,株式会社,東京都,品川区,東五反田５丁目２２－２５池田山マンション４０１,,13,109,1410022,,,,,,,2023-12-27,1,,,,,コー,0
1758,7010803004801,新規,0,2023-12-27,2023-12-27,甘楽合同会社,,合同会社,東京都,大田区,西糀谷１丁目３番１９号,,13,111,1440034,,,,,,,2023-12-27,1,,,,,カンラ,0
1766,7011001158984,新規,0,2023-12-27,2023-12-27,株式会社Ｑｕｅｅｎｃａｒｄ,,株式会社,東京都,渋谷区,道玄坂１丁目１０番８号渋谷道玄坂東急ビル２Ｆ－Ｃ,,13,113,1500043,,,,,,,2023-12-27,1,,,,,クイーンカード,0
1767,7011001159033,新規,0,2023-12-27,2023-12-27,株式会社ｓｏｕｚｏｕ,,株式会社,東京都,目黒区,鷹番３丁目１４番６号鷹番西口角地店舗,,13,110,1520004,,,,,,,2023-12-27,1,,,,,ソウゾウ,0
1768,7011001159090,新規,0,2023-12-27,2023-12-27,株式会社ＷＥＢＹＴＨ,,株式会社,東京都,渋谷区,恵比寿西１丁目９番６号アストウルビル６階,,13,113,1500021,,,,,,,2023-12-27,1,,,,,ウェビス,0
1770,7011003018187,新規,0,2023-12-27,2023-12-27,合同会社ｉｃｈｉｙｏ,,合同会社,東京都,目黒区,中目黒１丁目８番２号ビラ中目黒１階,,13,110,1530061,,,,,,,2023-12-27,1,,,,,イチヨウ,0
1772,7011101105647,新規,0,2023-12-27,2023-12-27,株式会社ガーベラ,,株式会社,東京都,新宿区,西新宿４丁目８番９号,,13,104,1600023,,,,,,,2023-12-27,1,,,,,ガーベラ,0
1773,7011101105671,新規,0,2023-12-27,2023-12-27,ｃｒｅｖａｔｉｏｎ株式会社,,株式会社,東京都,新宿区,西新宿３丁目３番１３号西新宿水間ビル２Ｆ,,13,104,1600023,,,,,,,2023-12-27,1,,,,,クリベーション,0
1775,7011203004268,新規,0,2023-12-27,2023-12-27,合同会社Ｌｉｌｌｙ,,合同会社,東京都,中野区,弥生町２丁目３１番１０号,,13,114,1640013,,,,,,,2023-12-27,1,,,,,リリー,0
1778,7011301029282,新規,0,2023-12-27,2023-12-27,ｉｗｏｗ　ｉｎｖｅｓｔｍｅｎｔ株式会社,,株式会社,東京都,杉並区,成田東５丁目４２番９－２号,,13,115,1660015,,,,,,,2023-12-27,1,,,,,アイワオインベストメント,0
1780,7011401025735,新規,0,2023-12-27,2023-12-27,株式会社日向企画,,株式会社,東京都,板橋区,板橋１丁目５３番１７号,,13,119,1730004,,,,,,,2023-12-27,1,,,,,ヒュウガキカク,0
1782,7011503005899,新規,0,2023-12-27,2023-12-27,３‐ＢＡＳＥグラフィック合同会社,,合同会社,東京都,北区,西ケ原３丁目６５番８号,,13,117,1140024,,,,,,,2023-12-27,1,,,,,スリーベースグラフィック,0
1783,7011601027408,新規,0,2023-12-27,2023-12-27,ジョーカーサポート株式会社,,株式会社,東京都,練馬区,南大泉２丁目２９番２７号第二サンビレッヂアサノＢ１０１,00133125,13,120,1780064,,,,,,,2023-12-27,1,,,,,ジョーカーサポート,0
1784,7011601027416,新規,0,2023-12-27,2023-12-27,株式会社ＣＯＮＣＥＲＴＯ,,株式会社,東京都,練馬区,三原台１丁目１１番１２号,,13,120,1770031,,,,,,,2023-12-27,1,,,,,コンチェルト,0
1787,7011801043584,新規,0,2023-12-27,2023-12-27,株式会社ミラノバホールディングス,,株式会社,東京都,葛飾区,東四つ木４丁目９番９号,,13,122,1240014,,,,,,,2023-12-27,1,,,,,ミラノバホールディングス,0
1790,7012401041367,新規,0,2023-12-27,2023-12-27,東京建物調査株式会社,,株式会社,東京都,府中市,紅葉丘２丁目１２番地の１３,,13,206,1830004,,,,,,,2023-12-27,1,,,,,トウキョウタテモノチョウサ,0
1802,7020001155066,新規,0,2023-12-27,2023-12-27,株式会社令和花咲,,株式会社,神奈川県,横浜市泉区,和泉が丘３丁目１７番４０号,,14,116,2450022,,,,,,,2023-12-27,1,,,,,,0
1803,7020001155090,新規,0,2023-12-27,2023-12-27,株式会社ドライブ,,株式会社,神奈川県,横浜市鶴見区,矢向６丁目４番２号エイカ２Ｆ,,14,101,2300001,,,,,,,2023-12-27,1,,,,,ドライブ,0
1809,7020003025267,新規,0,2023-12-27,2023-12-27,合同会社ましろ,,合同会社,神奈川県,川崎市多摩区,生田１丁目１９番１６－３０１号,,14,135,2140038,,,,,,,2023-12-27,1,,,,,マシロ,0
1817,7030001157904,新規,0,2023-12-27,2023-12-27,株式会社Ｙ．Ｓｐｌａｎｎｉｎｇ,,株式会社,埼玉県,さいたま市浦和区,木崎５丁目２４番１号,,11,107,3300042,,,,,,,2023-12-27,1,,,,,ワイエスプランニング,0
1818,7030001157912,新規,0,2023-12-27,2023-12-27,らしく株式会社,,株式会社,埼玉県,さいたま市緑区,大字大間木７０５番地１,,11,109,3360923,,,,,,,2023-12-27,1,,,,,ラシク,0
1819,7030001157920,新規,0,2023-12-27,2023-12-27,株式会社中島組,,株式会社,埼玉県,児玉郡上里町,大字七本木３６５１番地９,,11,385,3690306,,,,,,,2023-12-27,1,,,,,ナカジマグミ,0
1820,7030001157929,新規,0,2023-12-27,2023-12-27,Ａｎｇｅｌ　Ｌｅｅ株式会社,,株式会社,埼玉県,所沢市,緑町２丁目１３番２号新所沢ビル地下１階,,11,208,3591111,,,,,,,2023-12-27,1,,,,,エンジェルリー,0
1824,7030005021511,新規,0,2023-12-27,2023-12-27,特定非営利活動法人ＫＡＷＡＧＵＣＨＩ　ＦＣ慈林,,その他の設立登記法人,埼玉県,川口市,大字安行吉岡１４９０番地の４,,11,203,3340072,,,,,,,2023-12-27,1,,,,,カワグチエフシージリン,0
1827,7040001131461,新規,0,2023-12-27,2023-12-27,株式会社タビタ,,株式会社,千葉県,千葉市中央区,登戸５丁目１５番６号,,12,101,2600032,,,,,,,2023-12-27,1,,,,,タビタ,0
1828,7040001131494,新規,0,2023-12-27,2023-12-27,株式会社アイムホーム,,株式会社,千葉県,鎌ケ谷市,粟野５１２番６,,12,224,2730132,,,,,,,2023-12-27,1,,,,,アイムホーム,0
1829,7040001131528,新規,0,2023-12-27,2023-12-27,月下株式会社,,株式会社,千葉県,佐倉市,宮前３丁目２２番地４、２１４号室,,12,212,2850005,,,,,,,2023-12-27,1,,,,,ゲッカ,0
1830,7040001131536,新規,0,2023-12-27,2023-12-27,洋成工業株式会社,,株式会社,千葉県,市川市,曽谷１丁目７番１７号,,12,203,2720832,,,,,,,2023-12-27,1,,,,,ヨウセイコウギョウ,0
1831,7040001131544,新規,0,2023-12-27,2023-12-27,株式会社ＣｈｒｏｍａＣｒａｆｔ,,株式会社,千葉県,成田市,橋賀台１丁目２８番地８,,12,211,2860037,,,,,,,2023-12-27,1,,,,,クロマクラフト,0
1832,7040001131552,新規,0,2023-12-27,2023-12-27,株式会社コレ,,株式会社,千葉県,千葉市中央区,富士見２丁目７番９号富士見ビル６０９号,,12,101,2600015,,,,,,,2023-12-27,1,,,,,コレ,0
1837,7040003023995,新規,0,2023-12-27,2023-12-27,ＫＡＫＥＨＡＳＨＩ合同会社,,合同会社,千葉県,流山市,向小金１丁目４５４番地の１３,,12,220,2700143,,,,,,,2023-12-27,1,,,,,カケハシ,0
1838,7040003024003,新規,0,2023-12-27,2023-12-27,合同会社松次郎商会,,合同会社,千葉県,船橋市,三山９丁目７番１９号,,12,204,2740072,,,,,,,2023-12-27,1,,,,,マツジロウショウカイ,0
1839,7040003024011,新規,0,2023-12-27,2023-12-27,合同会社Ｓａｎｔｏｓ,,合同会社,千葉県,東金市,東金１１３５,,12,213,2830802,,,,,,,2023-12-27,1,,,,,サントス,0
1842,7050001054059,新規,0,2023-12-27,2023-12-27,株式会社有機ナノエレクトロニクス研究所,,株式会社,茨城県,土浦市,中荒川沖町１８番１６号,,08,203,3000875,,,,,,,2023-12-27,1,,,,,ユウキナノエレクトロニクスケンキュウジョ,0
1845,7060001036667,新規,0,2023-12-27,2023-12-27,株式会社近藤板金,,株式会社,栃木県,鹿沼市,玉田町２７２番地９,,09,205,3220072,,,,,,,2023-12-27,1,,,,,コンドウバンキン,0
1846,7060001036675,新規,0,2023-12-27,2023-12-27,株式会社タケオグラフィックコミュニケイション,,株式会社,栃木県,宇都宮市,雀宮町１２３番地５１,,09,201,3210121,,,,,,,2023-12-27,1,,,,,タケオグラフィックコミュニケイション,0
1847,7060001036683,新規,0,2023-12-27,2023-12-27,株式会社カナエル,,株式会社,栃木県,大田原市,住吉町１丁目１２番３１号ハイツ・ミネルヴァＤＩ１０５号,00133144,09,210,3240057,,,,,,,2023-12-27,1,,,,,カナエル,0
1848,7060003004853,新規,0,2023-12-27,2023-12-27,合同会社共栄土木,,合同会社,栃木県,足利市,江川町２３６番地,,09,202,3260067,,,,,,,2023-12-27,1,,,,,キョウエイドボク,0
1852,7070001041229,新規,0,2023-12-27,2023-12-27,株式会社さくら,,株式会社,群馬県,高崎市,江木町９５８番地４,,10,202,3700046,,,,,,,2023-12-27,1,,,,,サクラ,0
1857,7080403004930,新規,0,2023-12-27,2023-12-27,東山再エネ発電合同会社,,合同会社,静岡県,袋井市,梅山２５７０番地,,22,216,4371105,,,,,,,2023-12-27,1,,,,,ヒガシヤマサイエネハツデン,0
1883,7120001260938,新規,0,2023-12-27,2023-12-27,株式会社文吉幸子,,株式会社,大阪府,大阪市浪速区,大国１丁目１２番５号,,27,111,5560014,,,,,,,2023-12-27,1,,,,,ブンキチサチコ,0
1887,7120005024059,新規,0,2023-12-27,2023-12-27,一般社団法人ビューティスクリニック,,その他の設立登記法人,大阪府,大阪市北区,梅田２丁目４番７号桜橋ニコービル８階,,27,127,5300001,,,,,,,2023-12-27,1,,,,,ビューティスクリニック,0
1888,7120101068769,新規,0,2023-12-27,2023-12-27,敏浩旅行株式会社,,株式会社,大阪府,泉南市,鳴滝１丁目１１－６,,27,228,5900534,,,,,,,2023-12-27,1,,,,,トシホトラベル,0
1889,7120101068793,新規,0,2023-12-27,2023-12-27,株式会社ＷＩＬＬ　ＨＡＷＫ,,株式会社,大阪府,堺市西区,鳳中町１０丁１３番地１５アベニール羽衣２０６号,,27,144,5938327,,,,,,,2023-12-27,1,,,,,ウィルホーク,0
1891,7120901048549,新規,0,2023-12-27,2023-12-27,Ｔｕｒｆ．Ｌａｂｏ株式会社,,株式会社,大阪府,箕面市,桜ケ丘２丁目８―２５,,27,220,5620046,,,,,,,2023-12-27,1,,,,,ターフラボ,0
1892,7120901048565,新規,0,2023-12-27,2023-12-27,株式会社ＬＡＮＩ,,株式会社,大阪府,吹田市,円山町２９番３３号,,27,205,5640061,,,,,,,2023-12-27,1,,,,,ラニ,0
1893,7120903004979,新規,0,2023-12-27,2023-12-27,ＲＰＴ合同会社,,合同会社,大阪府,茨木市,庄２丁目２０番２８号,,27,211,5670806,,,,,,,2023-12-27,1,,,,,アールピーティー,0
1899,7130001075996,新規,0,2023-12-27,2023-12-27,株式会社川瀬建設,,株式会社,京都府,京都市伏見区,醍醐東合場町４番地１３,,26,109,6011346,,,,,,,2023-12-27,1,,,,,カワセケンセツ,0
1900,7130001076020,新規,0,2023-12-27,2023-12-27,ＮＯＤＡＳ株式会社,,株式会社,京都府,京都市上京区,五辻町８２番地ＯＴＡ．ｌａｂ２０１,00133134,26,102,6020000,,,,,,,2023-12-27,1,,,,,ノーダス,0
1901,7130001076045,新規,0,2023-12-27,2023-12-27,株式会社ＡＯＩ,,株式会社,京都府,京都市伏見区,竹田東小屋ノ内町１１１番地ペアシティ京都４０７号,,26,109,6128448,,,,,,,2023-12-27,1,,,,,アオイ,0
1909,7140003019983,新規,0,2023-12-27,2023-12-27,Ａｓｔｅｒｉｏ合同会社,,合同会社,兵庫県,神戸市東灘区,向洋町中５丁目６番地の１－１４０８号,,28,101,6580032,,,,,,,2023-12-27,1,,,,,アステリオ,0
1911,7140005026862,新規,0,2023-12-27,2023-12-27,一般社団法人ＡＮＫ,,その他の設立登記法人,兵庫県,川西市,南花屋敷４丁目１６番３０号,,28,217,6660026,,,,,,,2023-12-27,1,,,,,アンク,0
1919,7160001025585,新規,0,2023-12-27,2023-12-27,株式会社チームリトロ,,株式会社,滋賀県,草津市,山寺町２４６番地１,,25,206,5250042,,,,,,,2023-12-27,1,,,,,チームリトロ,0
1920,7160001025593,新規,0,2023-12-27,2023-12-27,株式会社丸新エンジニアリング,,株式会社,滋賀県,愛知郡愛荘町,南野々目１０２番地,,25,425,5291226,,,,,,,2023-12-27,1,,,,,マルシンエンジニアリング,0
1921,7160003003077,新規,0,2023-12-27,2023-12-27,琵琶湖さかもと合同会社,,合同会社,滋賀県,大津市,仰木の里５丁目６番１１号,,25,201,5200246,,,,,,,2023-12-27,1,,,,,ビワコサカモト,0
1927,7170001017945,新規,0,2023-12-27,2023-12-27,株式会社オポッサムマーケット,,株式会社,和歌山県,岩出市,中黒６２番地の２,,30,209,6496248,,,,,,,2023-12-27,1,,,,,オポッサムマーケット,0
1933,7180001159530,新規,0,2023-12-27,2023-12-27,雄々不動産株式会社,,株式会社,愛知県,尾張旭市,平子町中通３２２番地,,23,226,4880873,,,,,,,2023-12-27,1,,,,,ユウユウフドウサン,0
1934,7180001159539,新規,0,2023-12-27,2023-12-27,レジャパ株式会社,,株式会社,愛知県,名古屋市西区,那古野２丁目１４番１号,,23,104,4510042,,,,,,,2023-12-27,1,,,,,レジャパ,0
1939,7180003026167,新規,0,2023-12-27,2023-12-27,Ｊ　Ｊ　Ｔｒａｄｉｎｇ合同会社,,合同会社,愛知県,名古屋市中村区,烏森町１丁目１０４番地,,23,105,4530855,,,,,,,2023-12-27,1,,,,,ジェイジェイトレーディング,0
1944,7180303005960,新規,0,2023-12-27,2023-12-27,Ｊａｐａｎｉｃａ合同会社,,合同会社,愛知県,豊橋市,岩屋町字岩屋西１番地３（２Ｆ）,,23,201,4400842,,,,,,,2023-12-27,1,,,,,ジャパニカ,0
1945,7190001030987,新規,0,2023-12-27,2023-12-27,Ｒｅ　Ｌａｎｄ株式会社,,株式会社,三重県,員弁郡東員町,大字鳥取１８２番地７,,24,324,5110241,,,,,,,2023-12-27,1,,,,,リランド,0
1946,7200001042023,新規,0,2023-12-27,2023-12-27,株式会社Ｙｏｕ　Ｌｉｎｅ,,株式会社,岐阜県,可児市,川合字雨池１１６番地－２０５,,21,214,5090201,,,,,,,2023-12-27,1,,,,,ユーライン,0
1951,7200005013557,新規,0,2023-12-27,2023-12-27,一般社団法人岐阜県スキー連盟,,その他の設立登記法人,岐阜県,高山市,桐生町２丁目３８９番地ＪＡひだ桐生支店２Ｆ,,21,203,5060004,,,,,,,2023-12-27,1,,,,,ギフケンスキーレンメイ,0
1954,7220003003649,新規,0,2023-12-27,2023-12-27,合同会社ホクラニ,,合同会社,石川県,金沢市,大友１丁目２２８番地,,17,201,9208205,,,,,,,2023-12-27,1,,,,,ホクラニ,0
1968,7290001104186,新規,0,2023-12-27,2023-12-27,株式会社Ｖａｎｉｌｌａ,,株式会社,福岡県,福岡市博多区,中洲２丁目２番７号,,40,132,8100801,,,,,,,2023-12-27,1,,,,,,0
1973,7290005019240,新規,0,2023-12-27,2023-12-27,一般社団法人グリーンキャップ,,その他の設立登記法人,福岡県,福岡市西区,横浜２丁目８番１４号,,40,135,8190166,,,,,,,2023-12-27,1,,,,,グリーンキャップ,0
1974,7290801030169,新規,0,2023-12-27,2023-12-27,株式会社キャッチエイト,,株式会社,福岡県,北九州市若松区,響南町１番４０号,,40,103,8080011,,,,,,,2023-12-27,1,,,,,キャッチエイト,0
1981,7320001020207,新規,0,2023-12-27,2023-12-27,株式会社ＲＲＫ,,株式会社,大分県,大分市,大字駄原１４０１番地の１３,,44,201,8700100,,,,,,,2023-12-27,1,,,,,アールアールケー,0
1982,7320001020215,新規,0,2023-12-27,2023-12-27,株式会社温心苑,,株式会社,大分県,別府市,大字鉄輪８２６番地の４,,44,202,8740000,,,,,,,2023-12-27,1,,,,,アツミエン,0
1986,7340001026169,新規,0,2023-12-27,2023-12-27,株式会社Ｌｉｇｕｌａ,,株式会社,鹿児島県,鹿児島市,易居町９－２２アルファステイツみなと大通り公園前５０４,,46,201,8920815,,,,,,,2023-12-27,1,,,,,リグラ,0
1987,7340003004338,新規,0,2023-12-27,2023-12-27,合同会社Ｖｉｎｔａｇｅ　ＦＲＣ,,合同会社,鹿児島県,鹿児島市,柳町５番１４号グランドパレス柳町１１０３号,,46,201,8920819,,,,,,,2023-12-27,1,,,,,ヴィンテージエフアールシー,0
1989,7350003004535,新規,0,2023-12-27,2023-12-27,合同会社ＹＵＭＩＫＡ,,合同会社,宮崎県,宮崎市,生目台東４丁目１２番地３,,45,201,8800942,,,,,,,2023-12-27,1,,,,,ユミカ,0
1990,7360001033007,新規,0,2023-12-27,2023-12-27,栄一総建株式会社,,株式会社,沖縄県,うるま市,字天願１３８番地２０１号,,47,213,9042202,,,,,,,2023-12-27,1,,,,,エイイチソウケン,0
1993,7360003013584,新規,0,2023-12-27,2023-12-27,合同会社Ａ　ＳＯＵＲＣＥ　ＯＦ　ＬＩＧＨＴ月の雫,,合同会社,沖縄県,沖縄市,比屋根６丁目３４－２１久貝ハウス１Ｆ,,47,211,9042173,,,,,,,2023-12-27,1,,,,,アソースオブライトツキノシズク,0
1996,7370001050777,新規,0,2023-12-27,2023-12-27,Ｈｏｒｉｚｏｎ株式会社,,株式会社,宮城県,仙台市若林区,卸町２丁目１番地の８パークホームズ仙台卸町１００１,,04,103,9840015,,,,,,,2023-12-27,1,,,,,ホライズン,0
1997,7370001050785,新規,0,2023-12-27,2023-12-27,Ｙ２ブランディング株式会社,,株式会社,宮城県,仙台市青葉区,中央４丁目８番１７号小林ビル１Ｆ,,04,101,9800021,,,,,,,2023-12-27,1,,,,,ワイツーブランディング,0
1999,7370003006430,新規,0,2023-12-27,2023-12-27,ｂｅａｓｔｉｅｓ合同会社,,合同会社,宮城県,仙台市青葉区,小田原８丁目１１番１０－３０１号,,04,101,9800003,,,,,,,2023-12-27,1,,,,,ビースティーズ,0
2001,7400001016502,新規,0,2023-12-27,2023-12-27,株式会社青栄,,株式会社,岩手県,紫波郡紫波町,吉水字中村１０７番地,,03,321,0283448,,,,,,,2023-12-27,1,,,,,アオエイ,0
2008,7430003015796,新規,0,2023-12-27,2023-12-27,合同会社ＯＥＣ,,合同会社,北海道,札幌市清田区,清田二条３丁目１番５号,,01,110,0040842,,,,,,,2023-12-27,1,,,,,オーイーシー,0
2009,7430005014854,新規,0,2023-12-27,2023-12-27,一般社団法人ＳＴＡＤＴ,,その他の設立登記法人,北海道,苫小牧市,表町１丁目３番４号大東ビル１階,,01,213,0530022,,,,,,,2023-12-27,1,,,,,シュタット,0
2010,7430005014862,新規,0,2023-12-27,2023-12-27,特定非営利活動法人ＨＯＲＩＺＯＮ,,その他の設立登記法人,北海道,札幌市中央区,南十四条西１５丁目２番２３－４０１号,,01,101,0640914,,,,,,,2023-12-27,1,,,,,ホライズン,0
2011,7460003000977,新規,0,2023-12-27,2023-12-27,合同会社ＩＴＡＫＩＮＯ,,合同会社,北海道,阿寒郡鶴居村,字幌呂原野南５線４３番地５０,,01,667,0851200,,,,,,,2023-12-27,1,,,,,イタキノ,0
2012,7470001019960,新規,0,2023-12-27,2023-12-27,株式会社ＲＨ,,株式会社,香川県,高松市,上福岡町２０６０番地８,,37,201,7600077,,,,,,,2023-12-27,1,,,,,アールエイチ,0
2014,7500001025385,新規,0,2023-12-27,2023-12-27,田中建設株式会社,,株式会社,愛媛県,大洲市,東大洲８４３番地,,38,207,7950064,,,,,,,2023-12-27,1,,,,,タナカケンセツ,0
2015,7700150123102,新規,0,2023-12-27,2023-12-27,野村證券健康保険組合,,その他,東京都,江東区,豊洲２丁目２番１号豊洲ベイサイドクロスタワー４階,,13,108,1350061,,,,,,,2023-12-27,1,,,,,ノムラシヨウケンケンコウホケンクミアイ,0
2019,8010001241147,新規,0,2023-12-27,2023-12-27,株式会社ＪＳＫ１４,,株式会社,東京都,千代田区,麹町２丁目６番地５,,13,101,1020083,,,,,,,2023-12-27,1,,,,,ジェイエスケイジュウヨン,0
2020,8010001241155,新規,0,2023-12-27,2023-12-27,株式会社Ｂｕｄｄｙ’ｓ,,株式会社,東京都,文京区,小石川１丁目１０番１３号,,13,105,1120002,,,,,,,2023-12-27,1,,,,,バディーズ,0
2021,8010003042568,新規,0,2023-12-27,2023-12-27,合同会社Ｎｉｃａ,,合同会社,東京都,中央区,銀座７丁目１１番６号ＧＩＮＺＡ．ＩＳＯＮＯ．ＢＬＤＧ３Ｆ,,13,102,1040061,,,,,,,2023-12-27,1,,,,,ニカ,0
2024,8010101015938,新規,0,2023-12-27,2023-12-27,株式会社植斗園,,株式会社,東京都,八王子市,越野７３４番地４,,13,201,1920361,,,,,,,2023-12-27,1,,,,,ウエトエン,0
2032,8010403031633,新規,0,2023-12-27,2023-12-27,合同会社ＴＯＰ　Ｒ,,合同会社,東京都,港区,南麻布４丁目１１番３１号,,13,103,1060047,,,,,,,2023-12-27,1,,,,,トップアール,0
2035,8010501051558,新規,0,2023-12-27,2023-12-27,株式会社松風,,株式会社,東京都,台東区,松が谷２丁目１１番１号,,13,106,1110036,,,,,,,2023-12-27,1,,,,,マツカゼ,0
2038,8010601064410,新規,0,2023-12-27,2023-12-27,株式会社ｏｎｃｈａ,,株式会社,東京都,墨田区,亀沢４丁目２０－９チャコール錦糸町４０１,,13,107,1300014,,,,,,,2023-12-27,1,,,,,オンチャ,0
2044,8010701045335,新規,0,2023-12-27,2023-12-27,株式会社せきえもん鑑定団,,株式会社,東京都,品川区,東五反田２丁目１０－１,,13,109,1410022,,,,,,,2023-12-27,1,,,,,セキエモンカンテイダン,0
2047,8010803004800,新規,0,2023-12-27,2023-12-27,ｔｗｉｎｔｒａｄｅ合同会社,,合同会社,東京都,大田区,下丸子３丁目１３－２１,,13,111,1460092,,,,,,,2023-12-27,1,,,,,ツイントレード,0
2048,8010901054425,新規,0,2023-12-27,2023-12-27,株式会社ゴールデンツリーＳＰ,,株式会社,東京都,世田谷区,深沢２丁目１５番４号,,13,112,1580081,,,,,,,2023-12-27,1,,,,,ゴールデンツリーエスピー,0
2049,8010901054433,新規,0,2023-12-27,2023-12-27,株式会社あしたづくり,,株式会社,東京都,世田谷区,太子堂５丁目２０番１２号青木ビル３－Ａ,,13,112,1540004,,,,,,,2023-12-27,1,,,,,アシタヅクリ,0
2054,8011001158851,新規,0,2023-12-27,2023-12-27,ＡＨＲ　ｔｅｃｈｎｏｌｏｇｉｅｓ株式会社,,株式会社,東京都,渋谷区,恵比寿西２丁目４番８号ウィンド恵比寿ビル８Ｆ,,13,113,1500021,,,,,,,2023-12-27,1,,,,,エーエイチアールテクノロジーズ,0
2055,8011001158975,新規,0,2023-12-27,2023-12-27,株式会社Ｇ１パートナー,,株式会社,東京都,渋谷区,道玄坂１丁目１０番８号渋谷道玄坂東急ビル２Ｆ－Ｃ,,13,113,1500043,,,,,,,2023-12-27,1,,,,,ジーワンパートナー,0
2056,8011001158991,新規,0,2023-12-27,2023-12-27,株式会社ニル・クリエーション,,株式会社,東京都,渋谷区,恵比寿４丁目２０番３号恵比寿ガーデンプレイスタワー１８階,,13,113,1500013,,,,,,,2023-12-27,1,,,,,ニルクリエーション,0
2057,8011001159008,新規,0,2023-12-27,2023-12-27,株式会社ゼロボックス,,株式会社,東京都,渋谷区,渋谷２丁目１９－１５宮益坂ビルディング６０９,,13,113,1500002,,,,,,,2023-12-27,1,,,,,ゼロボックス,0
2058,8011001159098,新規,0,2023-12-27,2023-12-27,株式会社ＬＩＮＫＳ　ＳＨＡＲＥ,,株式会社,東京都,渋谷区,恵比寿西１丁目８番７号,,13,113,1500021,,,,,,,2023-12-27,1,,,,,リンクスシェア,0
2059,8011001159107,新規,0,2023-12-27,2023-12-27,豊田ＮＥＷＭＯＴＯＲＳ株式会社,,株式会社,東京都,渋谷区,恵比寿４丁目１６番６号パークアクシス恵比寿６０３,,13,113,1500013,,,,,,,2023-12-27,1,,,,,トヨダニューモータース,0
2060,8011001159131,新規,0,2023-12-27,2023-12-27,株式会社ＫＧｆｉｇｈｔｎｅｓｓ,,株式会社,東京都,渋谷区,道玄坂１丁目１６番６号二葉ビル８ｂ,,13,113,1500043,,,,,,,2023-12-27,1,,,,,ケージーファイトネス,0
2061,8011003018145,新規,0,2023-12-27,2023-12-27,デ・シーヴォ合同会社,,合同会社,東京都,渋谷区,円山町５番５号Ｎａｖｉ渋谷Ｖ３階,,13,113,1500044,,,,,,,2023-12-27,1,,,,,デシーヴォ,0
2065,8011101105638,新規,0,2023-12-27,2023-12-27,株式会社ＮＯＳＥ,,株式会社,東京都,新宿区,上落合２丁目２５番２号山西ビル１０２,,13,104,1610034,,,,,,,2023-12-27,1,,,,,ノーズ,0
2066,8011101105646,新規,0,2023-12-27,2023-12-27,株式会社ｋｎｏｗｌ,,株式会社,東京都,新宿区,新宿１丁目３６－２新宿第七葉山ビル３Ｆ,,13,104,1600022,,,,,,,2023-12-27,1,,,,,ノウル,0
2067,8011101105654,新規,0,2023-12-27,2023-12-27,棲家株式会社,,株式会社,東京都,新宿区,西新宿４丁目２５番１６号コートブリランテ１０１,,13,104,1600023,,,,,,,2023-12-27,1,,,,,スミカ,0
2068,8011101105662,新規,0,2023-12-27,2023-12-27,ＮＫ．ＰＡＮＤＡ株式会社,,株式会社,東京都,新宿区,西新宿３丁目３番１３号西新宿水間ビル６階,,13,104,1600023,,,,,,,2023-12-27,1,,,,,エヌケーパンダ,0
2070,8011203004267,新規,0,2023-12-27,2023-12-27,合同会社Ｄｅｓｔｉｎｙ,,合同会社,東京都,中野区,新井１丁目７番１号カーサ巴新井Ｎｏ．２－３階,,13,114,1650026,,,,,,,2023-12-27,1,,,,,ディスティニー,0
2072,8011401025718,新規,0,2023-12-27,2023-12-27,株式会社さくら,,株式会社,東京都,板橋区,大山西町５５番１２号ライオンズマンション１０４号室,,13,119,1730033,,,,,,,2023-12-27,1,,,,,サクラ,0
2074,8011501030155,新規,0,2023-12-27,2023-12-27,株式会社ルームフェリーチェ,,株式会社,東京都,北区,滝野川６丁目２１番７－１３０９号パークアクシス滝野川ラブリーズ,,13,117,1140023,,,,,,,2023-12-27,1,,,,,ルームフェリーチェ,0
2075,8011601027415,新規,0,2023-12-27,2023-12-27,株式会社ＳＨＫ松野,,株式会社,東京都,練馬区,田柄５丁目２１番１３号,,13,120,1790073,,,,,,,2023-12-27,1,,,,,エスエイチケーマツノ,0
2077,8011703003702,新規,0,2023-12-27,2023-12-27,ＡＲＣ　ＦＯＲＭ　ＤＥＳＩＧＮ合同会社,,合同会社,東京都,江戸川区,臨海町５丁目３番２号,,13,123,1340086,,,,,,,2023-12-27,1,,,,,アークフォルムデザイン,0
2078,8011803006019,新規,0,2023-12-27,2023-12-27,ＦＵＴＵＲＥ合同会社,,合同会社,東京都,葛飾区,西新小岩３丁目３番１号,,13,122,1240025,,,,,,,2023-12-27,1,,,,,フューチャー,0
2081,8012303001922,新規,0,2023-12-27,2023-12-27,カワルミライ合同会社,,合同会社,東京都,町田市,小山町４３５３番地,,13,209,1940212,,,,,,,2023-12-27,1,,,,,カワルミライ,0
2084,8012401041366,新規,0,2023-12-27,2023-12-27,ＹＳＫ　ｉｎｖｅｓｔｍｅｎｔ株式会社,,株式会社,東京都,府中市,小柳町５丁目８番地の２０４,,13,206,1830013,,,,,,,2023-12-27,1,,,,,ワイエスケーインベストメント,0
2088,8013301051843,新規,0,2023-12-27,2023-12-27,株式会社ブルー警備,,株式会社,東京都,豊島区,要町１丁目１０番１号要町ツインビル４１２号室,,13,116,1710043,,,,,,,2023-12-27,1,,,,,ブルーケイビ,0
2096,8020001155081,新規,0,2023-12-27,2023-12-27,株式会社Ｎｅｘｔ　Ｃｒｅａｔｉｏｎ,,株式会社,神奈川県,横浜市南区,中村町５丁目３１６番地１５７,,14,105,2320033,,,,,,,2023-12-27,1,,,,,ネクストクリエーション,0
2097,8020001155107,新規,0,2023-12-27,2023-12-27,株式会社ＰＵＬＬ　ＵＰ,,株式会社,神奈川県,横浜市南区,井土ケ谷下町３７番地４クリオ井土ヶ谷ファースト１０２,,14,105,2320053,,,,,,,2023-12-27,1,,,,,プルアップ,0
2100,8020003025274,新規,0,2023-12-27,2023-12-27,合同会社ユーアイ,,合同会社,神奈川県,横浜市南区,南太田１丁目５２番１－４０４号,,14,105,2320006,,,,,,,2023-12-27,1,,,,,ユーアイ,0
2103,8021001081094,新規,0,2023-12-27,2023-12-27,株式会社Ｂ．Ｅ．Ｃ．ＦＡＣＴＯＲＹ,,株式会社,神奈川県,小田原市,飯田岡５４０番地の１１,,14,206,2500854,,,,,,,2023-12-27,1,,,,,ベックファクトリー,0
2110,8030001157928,新規,0,2023-12-27,2023-12-27,株式会社インテクノロジー,,株式会社,埼玉県,さいたま市南区,根岸１丁目６－１６,,11,108,3360024,,,,,,,2023-12-27,1,,,,,インテクノロジー,0
2111,8030001157936,新規,0,2023-12-27,2023-12-27,エンデザインオフィス株式会社,,株式会社,埼玉県,越谷市,蒲生茜町２３番地２ＷＡｎｅｓｔＤ５１,,11,222,3430843,,,,,,,2023-12-27,1,,,,,エンデザインオフィス,0
2112,8030001157960,新規,0,2023-12-27,2023-12-27,株式会社Ｇｉｆｔｅｄ,,株式会社,埼玉県,さいたま市浦和区,高砂３丁目２番３号Ｓｕｍｉｙｏｓｈｉ－ｓｏ１０２,,11,107,3300063,,,,,,,2023-12-27,1,,,,,ギフテッド,0
2114,8030003023310,新規,0,2023-12-27,2023-12-27,合同会社Ｆｅｌｌｏｗｓ,,合同会社,埼玉県,川越市,脇田本町１０番地４サンハイム川越２Ａ,,11,201,3501123,,,,,,,2023-12-27,1,,,,,フェローズ,0
2116,8040001131411,新規,0,2023-12-27,2023-12-27,株式会社ＫＡＯＲＩ,,株式会社,千葉県,我孫子市,布佐平和台４丁目６番２８号,,12,222,2701108,,,,,,,2023-12-27,1,,,,,カオリ,0
2117,8040001131493,新規,0,2023-12-27,2023-12-27,ミヤコフロアワークス株式会社,,株式会社,千葉県,成田市,美郷台２丁目２６番地１（ロイヤルハイツ美郷１０１）,,12,211,2860013,,,,,,,2023-12-27,1,,,,,ミヤコフロアワークス,0
2118,8040001131519,新規,0,2023-12-27,2023-12-27,株式会社Ｄｏ‐Ｌｅａｓｅ,,株式会社,千葉県,四街道市,めいわ３丁目２７番３号,,12,228,2840043,,,,,,,2023-12-27,1,,,,,ドゥリース,0
2119,8040001131527,新規,0,2023-12-27,2023-12-27,本真株式会社,,株式会社,千葉県,佐倉市,宮前３丁目２２番地４、２１７号室,,12,212,2850005,,,,,,,2023-12-27,1,,,,,ホンシン,0
2120,8040001131535,新規,0,2023-12-27,2023-12-27,株式会社ニューイーラ,,株式会社,千葉県,松戸市,新松戸６丁目１２番地の１ヒルズ新松戸中央公園２０３号,,12,207,2700034,,,,,,,2023-12-27,1,,,,,ニューイーラ,0
2122,8040003024002,新規,0,2023-12-27,2023-12-27,ヴィジョンクエスト合同会社,,合同会社,千葉県,我孫子市,若松１１３番地５号,,12,222,2701147,,,,,,,2023-12-27,1,,,,,ヴィジョンクエスト,0
2123,8040003024010,新規,0,2023-12-27,2023-12-27,田中電機・千葉合同会社,,合同会社,千葉県,千葉市美浜区,中瀬１丁目３幕張テクノガーデンＣＢ棟３ＦＭＢＰ,,12,106,2610023,,,,,,,2023-12-27,1,,,,,タナカデンキチバ,0
2126,8050001054041,新規,0,2023-12-27,2023-12-27,三千考房株式会社,,株式会社,茨城県,水戸市,南町２丁目４番５１－８０６号レーベン水戸ＴＨＥＰＲＥＭＩＥＲＥ,,08,201,3100021,,,,,,,2023-12-27,1,,,,,サンゼンコウボウ,0
2127,8050005013365,新規,0,2023-12-27,2023-12-27,地域の安心とつながりのＮＰＯえんの木,,その他の設立登記法人,茨城県,日立市,大みか町４丁目２２番１１号,,08,202,3191221,,,,,,,2023-12-27,1,,,,,チイキノアンシントツナガリノエヌピーオーエンノキ,0
2129,8060001036674,新規,0,2023-12-27,2023-12-27,株式会社ファイブスター,,株式会社,栃木県,小山市,城北３丁目２４番地１２リードプラザ１階西側,,09,208,3230029,,,,,,,2023-12-27,1,,,,,ファイブスター,0
2132,8060003004852,新規,0,2023-12-27,2023-12-27,ＡＳＩＡＮ　ＳＨＩＮＪＵ合同会社,,合同会社,栃木県,足利市,小俣町２１０４番地２,,09,202,3260141,,,,,,,2023-12-27,1,,,,,アジアンシンジュ,0
2143,8100001037098,新規,0,2023-12-27,2023-12-27,株式会社ＹＡＲＩ　ＦＬＯＷＥＲ　ＦＡＲＭ,,株式会社,長野県,安曇野市,穂高有明３００６,,20,220,3998301,,,,,,,2023-12-27,1,,,,,,0
2146,8110001038062,新規,0,2023-12-27,2023-12-27,株式会社ｎｏａ,,株式会社,新潟県,新潟市中央区,沼垂東１丁目９番１０号,,15,103,9500075,,,,,,,2023-12-27,1,,,,,ノア,0
2151,8120001260904,新規,0,2023-12-27,2023-12-27,株式会社ｅ‐ｍａｓｔｅｒ,,株式会社,大阪府,枚方市,菊丘町９番５５号,,27,210,5730091,,,,,,,2023-12-27,1,,,,,イーマスター,0
2152,8120001260920,新規,0,2023-12-27,2023-12-27,株式会社リファーバル,,株式会社,大阪府,大阪市東淀川区,西淡路３丁目１０－１４－１０１号,,27,114,5330031,,,,,,,2023-12-27,1,,,,,リファーバル,0
2153,8120001260929,新規,0,2023-12-27,2023-12-27,トライアングルマネージメント株式会社,,株式会社,大阪府,大阪市北区,西天満３丁目１番２７号,,27,127,5300047,,,,,,,2023-12-27,1,,,,,トライアングルマネージメント,0
2154,8120001260937,新規,0,2023-12-27,2023-12-27,株式会社リメイク,,株式会社,大阪府,大阪市北区,梅田２丁目６番２０号,,27,127,5300001,,,,,,,2023-12-27,1,,,,,リメイク,0
2163,8120901048564,新規,0,2023-12-27,2023-12-27,株式会社Ｆｏｒｅｓｔ,,株式会社,大阪府,高槻市,安満西の町１４番６号,,27,207,5691107,,,,,,,2023-12-27,1,,,,,フォレスト,0
2164,8120903004978,新規,0,2023-12-27,2023-12-27,佐藤電設合同会社,,合同会社,大阪府,高槻市,深沢本町１２番５号の４,,27,207,5690033,,,,,,,2023-12-27,1,,,,,サトウデンセツ,0
2176,8130001076028,新規,0,2023-12-27,2023-12-27,株式会社ＴＨＯＴＨ,,株式会社,京都府,京都市下京区,柳馬場通高辻上る万里小路町１８０番地,,26,106,6008075,,,,,,,2023-12-27,1,,,,,トート,0
2180,8140001132829,新規,0,2023-12-27,2023-12-27,株式会社ゲンロク,,株式会社,兵庫県,神戸市長田区,六番町３丁目１－７,,28,106,6530002,,,,,,,2023-12-27,1,,,,,ゲンロク,0
2181,8140001132837,新規,0,2023-12-27,2023-12-27,株式会社蓬栄不動産,00133143,株式会社,兵庫県,神戸市須磨区,戎町１丁目４番２号,,28,107,6540023,,,,,,,2023-12-27,1,,,,,ホウエイフドウサン,0
2182,8140001132853,新規,0,2023-12-27,2023-12-27,宮崎ブランド株式会社,,株式会社,兵庫県,神戸市中央区,野崎通１丁目３－１９,,28,110,6510054,,,,,,,2023-12-27,1,,,,,ミヤザキブランド,0
2189,8140005026878,新規,0,2023-12-27,2023-12-27,医療法人社団あかね歯科クリニック,,その他の設立登記法人,兵庫県,明石市,大久保町茜２丁目４番１９号,,28,203,6740059,,,,,,,2023-12-27,1,,,,,アカネシカクリニック,0
2190,8150001026971,新規,0,2023-12-27,2023-12-27,株式会社ＫＯＴＯ,,株式会社,奈良県,奈良市,百楽園１丁目９番３号,,29,201,6310024,,,,,,,2023-12-27,1,,,,,コト,0
2191,8160001025592,新規,0,2023-12-27,2023-12-27,株式会社アテナファーマシー,,株式会社,滋賀県,高島市,マキノ町中庄４７３番地１３１,,25,212,5201823,,,,,,,2023-12-27,1,,,,,アテナファーマシー,0
2198,8180001159562,新規,0,2023-12-27,2023-12-27,永香株式会社,,株式会社,愛知県,あま市,七宝町遠島鳥居先１８３番地１３,,23,237,4970002,,,,,,,2023-12-27,1,,,,,エイカ,0
2199,8180001159612,新規,0,2023-12-27,2023-12-27,株式会社Ｒｅｍａｋｅ,,株式会社,愛知県,名古屋市中区,栄３丁目１０番６号,,23,106,4600008,,,,,,,2023-12-27,1,,,,,リメイク,0
2204,8190001030986,新規,0,2023-12-27,2023-12-27,ＨＹエステート株式会社,,株式会社,三重県,鈴鹿市,鈴鹿ハイツ３６番３号,,24,207,5100208,,,,,,,2023-12-27,1,,,,,エイチワイエステート,0
2207,8200001042014,新規,0,2023-12-27,2023-12-27,株式会社ＨＡＺＡＲＤ,,株式会社,岐阜県,関市,本町７丁目１５番地,,21,205,5013886,,,,,,,2023-12-27,1,,,,,アザール,0
2208,8200001042022,新規,0,2023-12-27,2023-12-27,株式会社Ｈｅａｌｔｈｙ　Ｓａｌｏｎ,,株式会社,岐阜県,多治見市,平和町６丁目１７８番地の１,,21,204,5070827,,,,,,,2023-12-27,1,,,,,ヘルシーサロン,0
2212,8220001025751,新規,0,2023-12-27,2023-12-27,株式会社豊,,株式会社,石川県,金沢市,福久２丁目８９番地,,17,201,9203126,,,,,,,2023-12-27,1,,,,,ミノリ,0
2215,8250001020452,新規,0,2023-12-27,2023-12-27,詩音株式会社,,株式会社,山口県,下関市,伊倉本町２７番１０号,,35,201,7510863,,,,,,,2023-12-27,1,,,,,シオン,0
2218,8270001008900,新規,0,2023-12-27,2023-12-27,株式会社エナテクスウイング,,株式会社,鳥取県,東伯郡北栄町,田井６５１番地１,,31,372,6892103,,,,,,,2023-12-27,1,,,,,エナテクスウイング,0
2227,8290001104193,新規,0,2023-12-27,2023-12-27,ジーピーエム株式会社,,株式会社,福岡県,福岡市早良区,飯倉５丁目１番７号,,40,137,8140161,,,,,,,2023-12-27,1,,,,,ジーピーエム,0
2228,8290001104202,新規,0,2023-12-27,2023-12-27,ＴＳＲＲＫ株式会社,,株式会社,福岡県,久留米市,梅満町６２３番地１,,40,203,8300048,,,,,,,2023-12-27,1,,,,,ティーエスアールアールケイ,0
2230,8290003014804,新規,0,2023-12-27,2023-12-27,エクスケイプリンク合同会社,,合同会社,福岡県,福岡市中央区,大名１丁目８番５号養巴コープ２０３号,,40,133,8100041,,,,,,,2023-12-27,1,,,,,エクスケイプリンク,0
2231,8290803004574,新規,0,2023-12-27,2023-12-27,合同会社ＴＡＫＡインタナショナル,,合同会社,福岡県,北九州市門司区,大字恒見１３８３番地,,40,101,8000117,,,,,,,2023-12-27,1,,,,,タカインタナショナル,0
2235,8310003004703,新規,0,2023-12-27,2023-12-27,合同会社吉武,,合同会社,長崎県,雲仙市,国見町土黒甲９６９番地１,,42,213,8591311,,,,,,,2023-12-27,1,,,,,ヨシタケ,0
2236,8320001020206,新規,0,2023-12-27,2023-12-27,オーライフ株式会社,,株式会社,大分県,中津市,大字蛎瀬３３４番地,,44,203,8710007,,,,,,,2023-12-27,1,,,,,オーライフ,0
2241,8330001031607,新規,0,2023-12-27,2023-12-27,株式会社アイソート,,株式会社,熊本県,熊本市中央区,黒髪７丁目７３３番地,,43,101,8600862,,,,,,,2023-12-27,1,,,,,アイソート,0
2243,8340001026168,新規,0,2023-12-27,2023-12-27,株式会社ＫＵＲＡ企画,,株式会社,鹿児島県,霧島市,国分中央１丁目２５番３７号,,46,218,8994332,,,,,,,2023-12-27,1,,,,,クラキカク,0
2246,8340003004337,新規,0,2023-12-27,2023-12-27,合同会社ＲＥＡＬ,,合同会社,鹿児島県,伊佐市,大口里７６７番地１,,46,224,8952511,,,,,,,2023-12-27,1,,,,,リアル,0
2247,8350001018734,新規,0,2023-12-27,2023-12-27,株式会社ＴＯＭＩファーマシー,,株式会社,宮崎県,宮崎市,大字本郷南方２１０２番地４,,45,201,8800921,,,,,,,2023-12-27,1,,,,,トミファーマシー,0
2248,8350003004534,新規,0,2023-12-27,2023-12-27,ｅｓ．Ｒａｐｏ．合同会社,,合同会社,宮崎県,延岡市,愛宕町３丁目３０番地,,45,203,8820872,,,,,,,2023-12-27,1,,,,,エスラポ,0
2249,8360001033014,新規,0,2023-12-27,2023-12-27,株式会社ＬＥＢＤＦＩＸ,,株式会社,沖縄県,那覇市,赤嶺２丁目３番地１Ｆステージ赤嶺ステーション１－Ｂ,,47,201,9010154,,,,,,,2023-12-27,1,,,,,リブドゥフィックス,0
2250,8360001033022,新規,0,2023-12-27,2023-12-27,株式会社キンオウプランニング,,株式会社,沖縄県,那覇市,辻１丁目２番地１７号西部コーポＩＩＩ１階,00133128,47,201,9000037,,,,,,,2023-12-27,1,,,,,キンオウプランニング,0
2252,8370001050776,新規,0,2023-12-27,2023-12-27,株式会社トラストワン,,株式会社,宮城県,多賀城市,高橋３丁目１５－４０,,04,209,9850853,,,,,,,2023-12-27,1,,,,,トラストワン,0
2253,8370001050784,新規,0,2023-12-27,2023-12-27,株式会社サンフォレスト,,株式会社,宮城県,仙台市青葉区,二日町６番６号シャンボール青葉６０７号,,04,101,9800802,,,,,,,2023-12-27,1,,,,,サンフォレスト,0
2254,8380001034217,新規,0,2023-12-27,2023-12-27,株式会社ライド,,株式会社,福島県,いわき市,好間町大利字向山３２番地の２,,07,204,9701147,,,,,,,2023-12-27,1,,,,,ライド,0
2263,8420001018529,新規,0,2023-12-27,2023-12-27,株式会社ピットイン,,株式会社,青森県,五所川原市,みどり町４丁目４６番地,,02,205,0370024,,,,,,,2023-12-27,1,,,,,ピットイン,0
2264,8420005007874,新規,0,2023-12-27,2023-12-27,医療法人山内会,,その他の設立登記法人,青森県,青森市,大字大野字前田７４番地９３,,02,201,0300852,,,,,,,2023-12-27,1,,,,,ヤマウチカイ,0
2267,8430001090733,新規,0,2023-12-27,2023-12-27,株式会社ベルクシノ,,株式会社,北海道,札幌市北区,北二十七条西６丁目２番２８号アメニティコート１０１,,01,102,0010027,,,,,,,2023-12-27,1,,,,,ベルクシノ,0
2270,8430003015779,新規,0,2023-12-27,2023-12-27,合同会社Ｎｅｖｅｒ　Ｇｉｖｅ　Ｕｐ,,合同会社,北海道,札幌市北区,屯田一条１丁目１番２９号,,01,102,0020851,,,,,,,2023-12-27,1,,,,,ネバーギブアップ,0
2271,8440001009369,新規,0,2023-12-27,2023-12-27,株式会社イツキ,,株式会社,北海道,函館市,亀田本町６７番１４－２号,,01,202,0410813,,,,,,,2023-12-27,1,,,,,,0
2277,8500001025384,新規,0,2023-12-27,2023-12-27,株式会社ＳＩホールディングス,,株式会社,愛媛県,四国中央市,下柏町８４８番地１,,38,213,7990411,,,,,,,2023-12-27,1,,,,,エスアイホールディングス,0
2279,9010001241170,新規,0,2023-12-27,2023-12-27,ＳＹマリンコンサルタント株式会社,,株式会社,東京都,千代田区,永田町２丁目１１番１号,,13,101,1000014,,,,,,,2023-12-27,1,,,,,エスワイマリンコンサルタント,0
2282,9010005037672,新規,0,2023-12-27,2023-12-27,一般社団法人ＳＬリアルティ,,その他の設立登記法人,東京都,中央区,日本橋１丁目４番１号,,13,102,1030027,,,,,,,2023-12-27,1,,,,,エスエルリアルティ,0
2283,9010101015945,新規,0,2023-12-27,2023-12-27,株式会社Ｓａｋｕｒａ　Ｆａｃｔｏｒｙ,,株式会社,東京都,八王子市,横山町２５－１６フロイデンビル４階Ａ号,,13,201,1920081,,,,,,,2023-12-27,1,,,,,サクラファクトリー,0
2284,9010103002280,新規,0,2023-12-27,2023-12-27,合同会社ＡＫＩＴ,,合同会社,東京都,八王子市,西寺方町１００６番地１２６,,13,201,1920153,,,,,,,2023-12-27,1,,,,,エーキット,0
2289,9010401179424,新規,0,2023-12-27,2023-12-27,株式会社Ｒ,,株式会社,東京都,港区,赤坂２丁目１６番６号,,13,103,1070052,,,,,,,2023-12-27,1,,,,,アール,0
2290,9010401179449,新規,0,2023-12-27,2023-12-27,ＵＮＩＭＩＲＡ株式会社,,株式会社,東京都,港区,三田５丁目４番４号リッツ三田２Ａ,,13,103,1080073,,,,,,,2023-12-27,1,,,,,ユニミラ,0
2291,9010401179473,新規,0,2023-12-27,2023-12-27,陸の魚株式会社,,株式会社,東京都,港区,浜松町２丁目２番１５号浜松町ダイヤビル２Ｆ,,13,103,1050013,,,,,,,2023-12-27,1,,,,,リクノサカナ,0
2298,9010701045334,新規,0,2023-12-27,2023-12-27,ＬＩＦＥ　ＬＯＧ株式会社,,株式会社,東京都,品川区,東大井５丁目１９番５号第１１下川ビル５階,,13,109,1400011,,,,,,,2023-12-27,1,,,,,ライフログ,0
2304,9011001158974,新規,0,2023-12-27,2023-12-27,ＵｎｉＭｅｄｉｃａｌ株式会社,,株式会社,東京都,渋谷区,神泉町２０－２１クロスシー渋谷神泉ビル,,13,113,1500045,,,,,,,2023-12-27,1,,,,,ユニメディカル,0
2305,9011001158999,新規,0,2023-12-27,2023-12-27,ＫＩＳＨ株式会社,,株式会社,東京都,渋谷区,広尾５丁目１４番２号,,13,113,1500012,,,,,,,2023-12-27,1,,,,,キシュ,0
2306,9011001159106,新規,0,2023-12-27,2023-12-27,株式会社ドライブデザイン,,株式会社,東京都,渋谷区,渋谷２丁目１９番１５－６０９号宮益坂ビルディング,,13,113,1500002,,,,,,,2023-12-27,1,,,,,ドライブデザイン,0
2307,9011003018103,新規,0,2023-12-27,2023-12-27,投資顧問ランキング合同会社,,合同会社,東京都,渋谷区,道玄坂１丁目１０番８号渋谷道玄坂東急ビル,,13,113,1500043,,,,,,,2023-12-27,1,,,,,トウシコモンランキング,0
2308,9011003018160,新規,0,2023-12-27,2023-12-27,Ｖ．Ｌ．Ｋ．合同会社,,合同会社,東京都,目黒区,下目黒６丁目１－２４日生ハイツ４０５,,13,110,1530064,,,,,,,2023-12-27,1,,,,,ヴイエルケイ,0
2309,9011003018169,新規,0,2023-12-27,2023-12-27,合同会社セプテム,,合同会社,東京都,渋谷区,上原１丁目２２番１号,,13,113,1510064,,,,,,,2023-12-27,1,,,,,セプテム,0
2310,9011003018193,新規,0,2023-12-27,2023-12-27,ブリックパートナーズ合同会社,,合同会社,東京都,渋谷区,道玄坂１丁目１０番８号,,13,113,1500043,,,,,,,2023-12-27,1,,,,,ブリックパートナーズ,0
2315,9011101105645,新規,0,2023-12-27,2023-12-27,株式会社Ｇａｍｉｎ,,株式会社,東京都,新宿区,払方町２５番地１アーバンコート市ヶ谷１０４,,13,104,1620841,,,,,,,2023-12-27,1,,,,,ギャマン,0
2316,9011103013912,新規,0,2023-12-27,2023-12-27,未来エネルギー２合同会社,,合同会社,東京都,新宿区,南元町２０番地ガーデンヒルズ四ツ谷迎賓の森２１４,,13,104,1600012,,,,,,,2023-12-27,1,,,,,ミライエネルギーニ,0
2322,9011301029280,新規,0,2023-12-27,2023-12-27,株式会社ａｎｄ　Ｉ,,株式会社,東京都,杉並区,井草２丁目３５番１２－４－１０４号グランドメゾン杉並シーズン,,13,115,1670021,,,,,,,2023-12-27,1,,,,,アンドアイ,0
2324,9011401025717,新規,0,2023-12-27,2023-12-27,株式会社Ｒｅｓｔｅｒ．ｉｎｃ,,株式会社,東京都,板橋区,成増３丁目１５番８－４０５号,,13,119,1750094,,,,,,,2023-12-27,1,,,,,リスターインク,0
2325,9011401025733,新規,0,2023-12-27,2023-12-27,株式会社スムスビ,,株式会社,東京都,板橋区,小豆沢２丁目２１番１７号ＡＫ小豆沢３０２号室,,13,119,1740051,,,,,,,2023-12-27,1,,,,,スムスビ,0
2329,9012303001921,新規,0,2023-12-27,2023-12-27,合同会社ＢＥＬＬＥＦＩＮＥ,,合同会社,東京都,町田市,小山町６２７番地１－２０２,,13,209,1940212,,,,,,,2023-12-27,1,,,,,ベルフィーヌ,0
2335,9013301051818,新規,0,2023-12-27,2023-12-27,株式会社ＳＵＰＬＡＢ,,株式会社,東京都,豊島区,南池袋２丁目１７－８ブルーム南池袋１Ｆ,,13,116,1710022,,,,,,,2023-12-27,1,,,,,サプラボ,0
2341,9020001155072,新規,0,2023-12-27,2023-12-27,Ｎｅｗｓｐａｃｅ株式会社,,株式会社,神奈川県,川崎市高津区,久本１丁目６番８号ＢＩＺＣｏｍｆｏｒｔ溝の口,,14,134,2130011,,,,,,,2023-12-27,1,,,,,ニュースペース,0
2342,9020001155080,新規,0,2023-12-27,2023-12-27,株式会社晃貴塗装工業,,株式会社,神奈川県,横浜市鶴見区,生麦５丁目２０番９号,,14,101,2300052,,,,,,,2023-12-27,1,,,,,コウキトソウコウギョウ,0
2344,9020003025257,新規,0,2023-12-27,2023-12-27,ランドシュライン合同会社,,合同会社,神奈川県,横浜市泉区,和泉中央南２丁目６番４３号,,14,116,2450023,,,,,,,2023-12-27,1,,,,,ランドシュライン,0
2345,9020003025281,新規,0,2023-12-27,2023-12-27,合同会社Ｍａｖｅｒｉｃｋ,,合同会社,神奈川県,横浜市都筑区,北山田６丁目８番４６号,,14,118,2240021,,,,,,,2023-12-27,1,,,,,マーベリック,0
2350,9021001081085,新規,0,2023-12-27,2023-12-27,株式会社ＲＨＹプランニング,,株式会社,神奈川県,藤沢市,鵠沼石上１丁目１３番１－１３０１号,,14,205,2510025,,,,,,,2023-12-27,1,,,,,アールエイチワイプランニング,0
2354,9030001157902,新規,0,2023-12-27,2023-12-27,株式会社Ａｔａｃａｎｔｏ,,株式会社,埼玉県,和光市,新倉１丁目２５番１３号Ｅ１０４,,11,229,3510115,,,,,,,2023-12-27,1,,,,,アタカント,0
2355,9030001157919,新規,0,2023-12-27,2023-12-27,タリーライト株式会社,,株式会社,埼玉県,蕨市,錦町４丁目７番１号ロイヤルシティマンション３０３,,11,223,3350005,,,,,,,2023-12-27,1,,,,,タリーライト,0
2356,9030001157943,新規,0,2023-12-27,2023-12-27,株式会社Ｒ工業,,株式会社,埼玉県,さいたま市浦和区,瀬ヶ崎２丁目１６番９笹屋マンション３０２号,,11,107,3300044,,,,,,,2023-12-27,1,,,,,アールコウギョウ,0
2357,9030001157951,新規,0,2023-12-27,2023-12-27,株式会社ＳＰＡＣＥ,,株式会社,埼玉県,ふじみ野市,大井６２４番地２－５０２,,11,245,3560053,,,,,,,2023-12-27,1,,,,,スペース,0
2361,9030003023318,新規,0,2023-12-27,2023-12-27,合同会社ＭＡＲＵ,,合同会社,埼玉県,東松山市,六反町９－１２－１０３,,11,212,3550023,,,,,,,2023-12-27,1,,,,,マル,0
2363,9040001131492,新規,0,2023-12-27,2023-12-27,ＳＯＹＯＵ株式会社,,株式会社,千葉県,印西市,牧の原３丁目５番地１３４,,12,231,2701331,,,,,,,2023-12-27,1,,,,,ソーユー,0
2364,9040001131518,新規,0,2023-12-27,2023-12-27,株式会社宮川興業,,株式会社,千葉県,松戸市,五香３丁目５番地の２０,,12,207,2702213,,,,,,,2023-12-27,1,,,,,ミヤカワコウギョウ,0
2365,9040001131526,新規,0,2023-12-27,2023-12-27,ＨａｓｈＯｖｅｒｆｌｏｗ株式会社,,株式会社,千葉県,佐倉市,宮前３丁目２２番地４、２１５号室,,12,212,2850005,,,,,,,2023-12-27,1,,,,,ハッシュオーバーフロー,0
2366,9040003023952,新規,0,2023-12-27,2023-12-27,ＡＮＨ　ＤＵＯＮＧ合同会社,,合同会社,千葉県,山武市,本須賀１４番地１８４,,12,237,2891305,,,,,,,2023-12-27,1,,,,,アィンズオン,0
2367,9040003023993,新規,0,2023-12-27,2023-12-27,合同会社Ｍｅａｌｉｆｅ,,合同会社,千葉県,白井市,根１６９９番地の３５,,12,232,2701431,,,,,,,2023-12-27,1,,,,,ミーライフ,0
2368,9040003024001,新規,0,2023-12-27,2023-12-27,ＮＡＳＣＯ　ＴＲＡＤＩＮＧ合同会社,,合同会社,千葉県,山武市,松尾町借毛本郷２３００番地１サクセスランドＮｏ．１０,,12,237,2891537,,,,,,,2023-12-27,1,,,,,ナスコトレーディング,0
2372,9050003008036,新規,0,2023-12-27,2023-12-27,合同会社ＳＡＭＩＤ,,合同会社,茨城県,猿島郡境町,４７８番地１,,08,546,3060433,,,,,,,2023-12-27,1,,,,,サミッド,0
2375,9060001036665,新規,0,2023-12-27,2023-12-27,株式会社大成カンパニー,,株式会社,栃木県,宇都宮市,下荒針町字長坂２６７８番地６６２,,09,201,3210346,,,,,,,2023-12-27,1,,,,,タイセイカンパニー,0
2381,9080101024428,新規,0,2023-12-27,2023-12-27,株式会社ＫＥＮＳＥＩ,,株式会社,静岡県,富士宮市,泉町７８３番地,,22,207,4180043,,,,,,,2023-12-27,1,,,,,ケンセイ,0
2387,9080401026917,新規,0,2023-12-27,2023-12-27,株式会社ヤマコウ,,株式会社,静岡県,浜松市南区,恩地町３６１番地の１,,22,134,4300814,,,,,,,2023-12-27,1,,,,,ヤマコウ,0
2390,9100001037089,新規,0,2023-12-27,2023-12-27,株式会社星のなまえ,,株式会社,長野県,北佐久郡軽井沢町,大字軽井沢４５１番地２,,20,321,3890102,,,,,,,2023-12-27,1,,,,,ホシノナマエ,0
2392,9100005013103,新規,0,2023-12-27,2023-12-27,一般財団法人サンクゼール財団,,その他の設立登記法人,長野県,上水内郡信濃町,大字平岡２２４９番地１,,20,583,3891315,,,,,,,2023-12-27,1,,,,,サンクゼールザイダン,0
2395,9110001038061,新規,0,2023-12-27,2023-12-27,深川建総株式会社,,株式会社,新潟県,新潟市西蒲区,曽根１２０６番地２,,15,108,9590422,,,,,,,2023-12-27,1,,,,,フカガワケンソウ,0
2407,9120001260911,新規,0,2023-12-27,2023-12-27,株式会社Ｃｏｃｏｎｕｔ,,株式会社,大阪府,大阪市中央区,高麗橋２丁目３番６－１０１１号,,27,128,5410043,,,,,,,2023-12-27,1,,,,,ココナッツ,0
2408,9120001260960,新規,0,2023-12-27,2023-12-27,株式会社スマート住建,,株式会社,大阪府,大阪市中央区,南久宝寺町２丁目１－２－６０２,,27,128,5410058,,,,,,,2023-12-27,1,,,,,スマートジュウケン,0
2409,9120001261001,新規,0,2023-12-27,2023-12-27,株式会社ＰＪＣＬ,,株式会社,大阪府,大阪市平野区,背戸口１丁目２２番２９号,,27,126,5470034,,,,,,,2023-12-27,1,,,,,ピージェイシーエル,0
2410,9120001261050,新規,0,2023-12-27,2023-12-27,株式会社リトライグループ,,株式会社,大阪府,守口市,寺内町１丁目１１番５－３０３号,,27,209,5700056,,,,,,,2023-12-27,1,,,,,リトライグループ,0
2414,9120003025395,新規,0,2023-12-27,2023-12-27,合同会社みつなり,,合同会社,大阪府,大阪市北区,大淀中１丁目１７－１４－７０４,,27,127,5310076,,,,,,,2023-12-27,1,,,,,ミツナリ,0
2416,9120101068775,新規,0,2023-12-27,2023-12-27,エコアドバンス株式会社,,株式会社,大阪府,貝塚市,石才３４２番地の１,,27,208,5970082,,,,,,,2023-12-27,1,,,,,エコアドバンス,0
2418,9120103005578,新規,0,2023-12-27,2023-12-27,合同会社排尿生理研究所,,合同会社,大阪府,堺市南区,三原台２丁１番１－８１０号,,27,145,5900111,,,,,,,2023-12-27,1,,,,,ハイニョウセイリケンキュウジョ,0
2419,9120103005603,新規,0,2023-12-27,2023-12-27,森本健一資産管理合同会社,,合同会社,大阪府,河内長野市,美加の台５丁目２０番１６号,,27,216,5860044,,,,,,,2023-12-27,1,,,,,モリモトケンイチシサンカンリ,0
2421,9120901048547,新規,0,2023-12-27,2023-12-27,学校の達人株式会社,,株式会社,大阪府,箕面市,瀬川４丁目１５番４５号森住ハイツ１０３号,,27,220,5620045,,,,,,,2023-12-27,1,,,,,ガッコウノタツジン,0
2432,9130001075846,新規,0,2023-12-27,2023-12-27,株式会社ＲｅＨａｗｋ,,株式会社,京都府,京都市南区,東九条河西町３６ティムール九条２０８,,26,107,6018014,,,,,,,2023-12-27,1,,,,,リホーク,0
2433,9130001076002,新規,0,2023-12-27,2023-12-27,ローズウッド株式会社,,株式会社,京都府,京都市東山区,中之町１９７番地グローバル岡崎４０５室,,26,105,6050082,,,,,,,2023-12-27,1,,,,,ローズウッド,0
2438,9130003009216,新規,0,2023-12-27,2023-12-27,合同会社イーマ,,合同会社,京都府,八幡市,下奈良一丁地１８番地の９,,26,210,6148143,,,,,,,2023-12-27,1,,,,,イーマ,0
2439,9130005016961,新規,0,2023-12-27,2023-12-27,一般社団法人日本台湾友好交流協会,,その他の設立登記法人,京都府,京都市下京区,朱雀宝蔵町４４番地協栄ビル２階京都朱雀スタジオ,,26,106,6008846,,,,,,,2023-12-27,1,,,,,ニホンタイワンユウコウコウリュウキョウカイ,0
2444,9140005026860,新規,0,2023-12-27,2023-12-27,医療法人社団セントラル,,その他の設立登記法人,兵庫県,神戸市灘区,岩屋北町７丁目３番２ＪＲ灘駅ビル４Ｆ,,28,102,6570846,,,,,,,2023-12-27,1,,,,,セントラル,0
2445,9140005026877,新規,0,2023-12-27,2023-12-27,医療法人社団プリューム,,その他の設立登記法人,兵庫県,神戸市東灘区,岡本１丁目４番１７号,,28,101,6580072,,,,,,,2023-12-27,1,,,,,プリューム,0
2448,9160001025591,新規,0,2023-12-27,2023-12-27,株式会社Ｈｏｎｅｓｔ,,株式会社,滋賀県,長浜市,高月町東高田１３３番地２,,25,203,5290202,,,,,,,2023-12-27,1,,,,,ホーネスト,0
2461,9180003026157,新規,0,2023-12-27,2023-12-27,ＰＲＡＮ合同会社,,合同会社,愛知県,名古屋市西区,城西４丁目６番１０号,,23,104,4510031,,,,,,,2023-12-27,1,,,,,プラン,0
2466,9180301038176,新規,0,2023-12-27,2023-12-27,星野電設株式会社,,株式会社,愛知県,西尾市,吉良町木田祐言３０番地２５,,23,213,4440534,,,,,,,2023-12-27,1,,,,,ホシノデンセツ,0
2468,9180303005959,新規,0,2023-12-27,2023-12-27,合同会社ＡＬＯＡＬＯ,,合同会社,愛知県,岡崎市,橋目町字勘介屋敷７５－２オフィスユリオウ２０２,,23,202,4440908,,,,,,,2023-12-27,1,,,,,アロアロ,0
2473,9190001030985,新規,0,2023-12-27,2023-12-27,株式会社ヴィラージュ,,株式会社,三重県,四日市市,日永４丁目３番１７号,,24,202,5100885,,,,,,,2023-12-27,1,,,,,ヴィラージュ,0
2482,9220001025750,新規,0,2023-12-27,2023-12-27,株式会社Ｎｅｏ,,株式会社,石川県,小松市,月津町ナ１００番地５,,17,203,9230972,,,,,,,2023-12-27,1,,,,,ネオ,0
2484,9240001062602,新規,0,2023-12-27,2023-12-27,株式会社ｈａｃｏ,,株式会社,広島県,広島市西区,井口鈴が台３丁目４番１２号,,34,104,7330843,,,,,,,2023-12-27,1,,,,,ハコ,0
2489,9260001038617,新規,0,2023-12-27,2023-12-27,宇治橋自動車株式会社,,株式会社,岡山県,和気郡和気町,衣笠９４９番地４,,33,346,7090441,,,,,,,2023-12-27,1,,,,,ウジバシジドウシャ,0
2490,9260003004534,新規,0,2023-12-27,2023-12-27,合同会社アース＆ピースホームズ,,合同会社,岡山県,岡山市北区,中山下１丁目１１番１５号新田第一ビル４０２,,33,101,7000821,,,,,,,2023-12-27,1,,,,,アースアンドピースホームズ,0
2500,9290001104192,新規,0,2023-12-27,2023-12-27,株式会社ＴＲＩＭ,,株式会社,福岡県,福岡市中央区,六本松２丁目２番３０－６０３号,,40,133,8100044,,,,,,,2023-12-27,1,,,,,トリム,0
2501,9290001104226,新規,0,2023-12-27,2023-12-27,鳳興産株式会社,,株式会社,福岡県,福岡市中央区,春吉１丁目１１番２９号,,40,133,8100003,,,,,,,2023-12-27,1,,,,,オオトリコウサン,0
2509,9290801030175,新規,0,2023-12-27,2023-12-27,株式会社ＨＷＳ,,株式会社,福岡県,直方市,湯野原２丁目８番８号,,40,204,8220008,,,,,,,2023-12-27,1,,,,,エイチダブリュエス,0
2517,9320001020213,新規,0,2023-12-27,2023-12-27,株式会社ラクーンカンパニー,,株式会社,大分県,大分市,大字市１１３７－４,,44,201,8701151,,,,,,,2023-12-27,1,,,,,ラクーンカンパニー,0
2520,9330001031606,新規,0,2023-12-27,2023-12-27,パワーコネクト株式会社,,株式会社,熊本県,熊本市中央区,出水８丁目１５番２７号,,43,101,8620941,,,,,,,2023-12-27,1,,,,,パワーコネクト,0
2521,9330005010738,新規,0,2023-12-27,2023-12-27,一般社団法人熊本城おもてなし武将隊,,その他の設立登記法人,熊本県,熊本市中央区,魚屋町２丁目５番地,,43,101,8600031,,,,,,,2023-12-27,1,,,,,クマモトオモテナシブショウタイ,0
2522,9340005009688,新規,0,2023-12-27,2023-12-27,一般社団法人わかば,,その他の設立登記法人,鹿児島県,姶良市,西餅田１１９２番地３,,46,225,8995431,,,,,,,2023-12-27,1,,,,,ワカバ,0
2527,9370003006429,新規,0,2023-12-27,2023-12-27,合同会社テクノ美装,,合同会社,宮城県,富谷市,明石台５丁目３９番１０号,,04,216,9813332,,,,,,,2023-12-27,1,,,,,テクノビソウ,0
2536,9380001034208,新規,0,2023-12-27,2023-12-27,株式会社カリビアジャパン,,株式会社,福島県,いわき市,植田町中央２丁目２番地の２１,,07,204,9748261,,,,,,,2023-12-27,1,,,,,カリビアジャパン,0
2537,9380001034216,新規,0,2023-12-27,2023-12-27,ｔｒｙｆｏｒ株式会社,,株式会社,福島県,福島市,方木田字永樋６番地の２ミオカステーロ２０１,,07,201,9608163,,,,,,,2023-12-27,1,,,,,トライフォー,0
2540,9390001017459,新規,0,2023-12-27,2023-12-27,株式会社宮内印刷,,株式会社,山形県,南陽市,漆山１７８８番地,,06,213,9920474,,,,,,,2023-12-27,1,,,,,ミヤウチインサツ,0
2542,9400005008378,新規,0,2023-12-27,2023-12-27,一般社団法人Ｔａｎｎｂｏ,,その他の設立登記法人,岩手県,盛岡市,中央通１丁目７番３５号コアフィールドモリオカ１階,,03,201,0200021,,,,,,,2023-12-27,1,,,,,タンボ,0
2543,9420001018528,新規,0,2023-12-27,2023-12-27,株式会社ツガイヤマジュウ,,株式会社,青森県,上北郡野辺地町,字白岩３７番地２５,,02,401,0393124,,,,,,,2023-12-27,1,,,,,ツガイヤマジュウ,0
2546,9430001090550,新規,0,2023-12-27,2023-12-27,株式会社ＳＹＨ貿易,,株式会社,北海道,札幌市豊平区,美園四条４丁目１番８－４０５号,,01,105,0620004,,,,,,,2023-12-27,1,,,,,エスワイエイチボウエキ,0
2547,9430001090740,新規,0,2023-12-27,2023-12-27,株式会社ＨＩＴＯＳＯＲＡ,,株式会社,北海道,札幌市北区,北三十一条西５丁目１番２４号プリンス札幌４０３,,01,102,0010031,,,,,,,2023-12-27,1,,,,,ヒトソラ,0
2550,9430003015803,新規,0,2023-12-27,2023-12-27,合同会社ＲＡ,,合同会社,北海道,札幌市中央区,南八条西５丁目２８９番地８１フェイス中島公園１０３,,01,101,0640808,,,,,,,2023-12-27,1,,,,,アールエー,0
2551,9430005014860,新規,0,2023-12-27,2023-12-27,一般社団法人青春の会北海道,,その他の設立登記法人,北海道,夕張郡長沼町,旭町南２丁目８番１２号,,01,428,0691343,,,,,,,2023-12-27,1,,,,,セイシュンノカイホッカイドウ,0
2558,9490003001847,新規,0,2023-12-27,2023-12-27,合同会社ＫＩＭ,,合同会社,高知県,高知市,潮見台１丁目２１１５番地,,39,201,7815108,,,,,,,2023-12-27,1,,,,,ケイアイエム,0
2559,9500001025383,新規,0,2023-12-27,2023-12-27,株式会社ＦＵＴＵＲＥ,,株式会社,愛媛県,新居浜市,高津町２番４号,,38,205,7920867,,,,,,,2023-12-27,1,,,,,フューチャー,0
2560,9700150024827,新規,0,2023-12-27,2015-10-09,労働保険事務組合　ナニワ労務協会,,その他,大阪府,大阪市北区,本庄東２丁目２－２８－２０７,,27,127,5310074,,,,,,,2015-10-09,1,,,,,ロウドウホケンジムクミアイナニワロウムキヨウカイ,0
2561,9700150123100,新規,0,2023-12-27,2023-12-27,ＨＵＮＡＮ　ＦＥＩＬＩＮＢＡＩＨＵＯ　ＭＡＯＹＩＹＯＵＸＩＡＮＧＯＮＧＳＩ,,外国会社等,,,,,,,,Ｇａｏｘｉｎｋａｉｆａｑｕ　ｇｕｙｕａｎｌｕ　２２９ｈａｏ　ｈａｉｐｉｎｇｙｕａｎ　１ｚｈｕａｎｇ　７ｃｅｎｇ　７０８ｈａｏ　０１ｓｈｉ　Ｃｈａｎｇｓｈａｓｈｉ　Ｈｕｎａｎ　４１７６００　ＣＮ,,,,,,2023-12-27,1,,,,,フーナンフェイリンバイフオマオイーヨウシエンゴンスー,0
