sequenceNumber,corporateNumber,process,correct,updateDate,changeDate,name,nameImageId,kind,prefectureName,cityName,streetNumber,addressImageId,prefectureCode,cityCode,postCode,addressOutside,addressOutsideImageId,closeDate,closeCause,successorCorporateNumber,changeCause,assignmentDate,latest,enName,enPrefectureName,enCityName,enAddressOutside,furigana,hihyoji
2,1010001235683,登記記録の閉鎖等,0,2024-07-29,2024-07-11,メルシーママンクリエイティブ株式会社,,株式会社,東京都,千代田区,六番町６番地４ＬＨ番町スクエア５階,,13,101,1020085,,,2024-07-11,清算の結了等,,,2023-06-06,1,,,,,メルシーママンクリエイティブ,0
7,1010005030247,登記記録の閉鎖等,0,2024-07-29,2024-07-12,ＭＪロジスティクス特定目的会社,,その他の設立登記法人,東京都,千代田区,丸の内３丁目１番１号東京共同会計事務所内,,13,101,1000005,,,2024-07-12,清算の結了等,,,2019-05-30,1,,,,,エムジェイロジスティクス,0
15,1010402018010,登記記録の閉鎖等,0,2024-07-29,2024-07-17,有限会社大沼企画,,有限会社,静岡県,静岡市駿河区,聖一色５５５番地の１０,,22,102,4228007,,,2024-07-17,清算の結了等,,,2015-10-05,1,,,,,オオヌマキカク,0
18,1010601050268,登記記録の閉鎖等,0,2024-07-29,2024-07-10,株式会社ヴァロフジャパン,,株式会社,東京都,新宿区,西新宿３丁目９番７号,,13,104,1600023,,,2024-07-10,清算の結了等,,,2016-08-24,1,,,,,ヴァロフジャパン,0
24,1011001152547,登記記録の閉鎖等,0,2024-07-29,2024-07-05,ＯＮＣＥ十株式会社,,株式会社,東京都,渋谷区,代官山町８番１３号,,13,113,1500034,,,2024-07-05,合併による解散等,5011101038270,令和６年６月３０日東京都渋谷区代官山町８番１３号株式会社シェアリング・ビューティー（5011101038270）に合併し解散,2023-02-13,1,,,,,ワンスプラス,0
46,1011502010674,登記記録の閉鎖等,0,2024-07-29,2024-07-25,有限会社平崎工事,00055948,有限会社,東京都,荒川区,南千住７丁目２２番１－８０２号,,13,118,1160003,,,2024-07-25,清算の結了等,,,2015-10-05,1,,,,,ヒラサキコウジ,0
49,1011603002331,登記記録の閉鎖等,0,2024-07-29,2024-07-23,ＴＫＹコンサルティング合同会社,,合同会社,東京都,練馬区,貫井２丁目１６番２３号,,13,120,1760021,,,2024-07-23,清算の結了等,,,2018-05-09,1,,,,,ティーケイワイコンサルティング,0
51,1011801030951,登記記録の閉鎖等,0,2024-07-29,2024-07-19,株式会社日昇管工,,株式会社,東京都,調布市,深大寺東町８丁目３１番地４７,,13,208,1820012,,,2024-07-19,清算の結了等,,,2015-10-27,1,,,,,ニッショウカンコウ,0
57,1013301033749,登記記録の閉鎖等,0,2024-07-29,2024-07-19,株式会社エスエムアイ,,株式会社,東京都,豊島区,巣鴨３丁目１６番２１号,,13,116,1700002,,,2024-07-19,清算の結了等,,,2015-10-05,1,,,,,エスエムアイ,0
66,1020002027740,登記記録の閉鎖等,0,2024-07-29,2024-07-05,有限会社パシュ,,有限会社,神奈川県,横浜市神奈川区,白幡仲町１２番２７号,,14,102,2210071,,,2024-07-05,清算の結了等,,,2015-10-05,1,,,,,パシュ,0
80,1030002003682,登記記録の閉鎖等,0,2024-07-29,2024-07-23,有限会社管野工務店,,有限会社,埼玉県,さいたま市北区,日進町２丁目１０８８番地の９,,11,102,3310823,,,2024-07-23,清算の結了等,,,2015-10-05,1,,,,,カンノコウムテン,0
81,1030002046640,登記記録の閉鎖等,0,2024-07-29,2024-07-23,有限会社大熊製作所,,有限会社,埼玉県,八潮市,大字柳之宮２１７番地,,11,234,3400832,,,2024-07-23,清算の結了等,,,2015-10-05,1,,,,,オオクマセイサクショ,0
86,1040005017836,登記記録の閉鎖等,0,2024-07-29,2024-07-25,一般社団法人建築よろず相談支援機構,,その他の設立登記法人,東京都,三鷹市,井の頭３丁目１２番１１号,,13,204,1810001,,,2024-07-25,清算の結了等,,,2015-10-05,1,,,,,ケンチクヨロズソウダンシエンキコウ,0
100,1110002014903,登記記録の閉鎖等,0,2024-07-29,2024-07-19,有限会社小野左官工業所,,有限会社,新潟県,新発田市,島潟６５９番地の１,,15,206,9570011,,,2024-07-19,清算の結了等,,,2015-10-05,1,,,,,オノサカンコウギョウショ,0
101,1110003003228,登記記録の閉鎖等,0,2024-07-29,2024-07-18,合同会社すずらん,,合同会社,新潟県,上越市,大字寺町８７０番地１３,,15,222,9430859,,,2024-07-18,清算の結了等,,,2015-12-10,1,,,,,スズラン,0
105,1120001027979,登記記録の閉鎖等,0,2024-07-29,2024-07-24,株式会社プルナスホールディングス,,株式会社,東京都,港区,港南２丁目１６－１品川イーストワンタワー７Ｆ,,13,103,1080075,,,2024-07-24,合併による解散等,7010401170640,令和６年７月１日神奈川県相模原市緑区橋本四丁目１８番５号株式会社プルナスジャパン（7010401170640）に合併し解散,2015-10-05,1,,,,,プルナスホールディングス,0
124,1140001020692,登記記録の閉鎖等,0,2024-07-29,2024-07-24,優和住宅株式会社,,株式会社,兵庫県,神戸市須磨区,松風町５丁目１番２４号,,28,107,6540045,,,2024-07-24,清算の結了等,,,2015-10-05,1,,,,,ユウワジュウタク,0
130,1140005021803,登記記録の閉鎖等,0,2024-07-29,2024-07-23,一般社団法人若手職人育成協会,,その他の設立登記法人,兵庫県,養父市,薮崎１６６番地,,28,222,6670113,,,2024-07-23,清算の結了等,,,2015-10-05,1,,,,,ワカテショクニンイクセイキョウカイ,0
132,1150001001634,登記記録の閉鎖等,0,2024-07-29,2024-07-22,奈良植野ガス株式会社,,株式会社,奈良県,奈良市,池田町２０３番地の６,,29,201,6308445,,,2024-07-22,合併による解散等,6150001001357,令和６年７月２１日奈良市北之庄西町一丁目９番７株式会社大和サンソ（6150001001357）に合併し解散,2015-10-05,1,,,,,ナラウエノガス,0
135,1180001034623,登記記録の閉鎖等,0,2024-07-29,2024-07-11,エンゼル工業株式会社,,株式会社,愛知県,名古屋市中区,大須１丁目３４番３８号,,23,106,4600011,,,2024-07-11,清算の結了等,,,2015-10-05,1,,,,,エンゼルコウギョウ,0
139,1180001138036,登記記録の閉鎖等,0,2024-07-29,2024-07-10,株式会社Ｍ＆Ａクリエイティブ,,株式会社,愛知県,名古屋市千種区,内山３丁目２５番６号,,23,101,4640075,,,2024-07-10,清算の結了等,,,2019-09-06,1,,,,,エムアンドエークリエイティブ,0
143,1180302010827,登記記録の閉鎖等,0,2024-07-29,2024-07-11,有限会社浜千代うどん店,,有限会社,愛知県,田原市,谷熊町寺新田３９番地,,23,231,4413412,,,2024-07-11,清算の結了等,,,2015-10-05,1,,,,,ハマチヨウドンテン,0
147,1200003001197,登記記録の閉鎖等,0,2024-07-29,2024-07-24,森彦織物合資会社,,合資会社,岐阜県,各務原市,川島松倉町１６６３番地,,21,213,5016022,,,2024-07-24,清算の結了等,,,2015-10-05,1,,,,,モリヒコオリモノ,0
153,1240002043187,登記記録の閉鎖等,0,2024-07-29,2024-07-24,有限会社丸昌,,有限会社,広島県,福山市,草戸町２丁目２３番２７号,,34,207,7200831,,,2024-07-24,清算の結了等,,,2015-10-05,1,,,,,マルショウ,0
169,1340001008560,登記記録の閉鎖等,0,2024-07-29,2024-07-19,川内印刷株式会社,,株式会社,鹿児島県,薩摩川内市,鳥追町１０番１４号,,46,215,8950024,,,2024-07-19,清算の結了等,,,2015-10-05,1,,,,,センダイインサツ,0
176,1370001023499,登記記録の閉鎖等,0,2024-07-29,2024-07-08,株式会社エンズ,,株式会社,宮城県,仙台市泉区,南光台２丁目２番１６号ルミエール１０２,,04,105,9818003,,,2024-07-08,清算の結了等,,,2015-10-05,1,,,,,エンズ,0
180,1400001003893,登記記録の閉鎖等,0,2024-07-29,2024-07-12,株式会社巻藤建設,,株式会社,岩手県,紫波郡紫波町,南日詰字大銀９１番地,,03,321,0283317,,,2024-07-12,清算の結了等,,,2015-10-05,1,,,,,マキフジケンセツ,0
188,1430001063605,登記記録の閉鎖等,0,2024-07-29,2024-07-23,株式会社吉田トランクルーム,,株式会社,北海道,札幌市中央区,南四条西１５丁目２番２３号,,01,101,0640804,,,2024-07-23,清算の結了等,,,2015-10-05,1,,,,,ヨシダトランクルーム,0
204,2010001039043,登記記録の閉鎖等,0,2024-07-29,2024-07-02,株式会社円満相続推進の会,,株式会社,東京都,港区,台場１丁目１番１シーリアお台場一番街１２１３号室,,13,103,1350091,,,2024-07-02,清算の結了等,,,2015-10-05,1,,,,,エンマンソウゾクスイシンノカイ,0
206,2010001130537,登記記録の閉鎖等,0,2024-07-29,2024-07-12,株式会社エビデンスラボ,,株式会社,東京都,千代田区,神田小川町１丁目３番１号,,13,101,1010052,,,2024-07-12,清算の結了等,,,2015-10-05,1,,,,,エビデンスラボ,0
228,2010901004823,登記記録の閉鎖等,0,2024-07-29,2024-07-22,株式会社サニー,,株式会社,東京都,世田谷区,祖師谷３丁目１１番２－１１０５号,,13,112,1570072,,,2024-07-22,清算の結了等,,,2015-10-05,1,,,,,サニー,0
233,2011002013482,登記記録の閉鎖等,0,2024-07-29,2024-07-08,有限会社ベンカンパニー,,有限会社,東京都,渋谷区,恵比寿２丁目３２番２５号,,13,113,1500013,,,2024-07-08,清算の結了等,,,2015-10-05,1,,,,,ベンカンパニー,0
251,2011802002429,登記記録の閉鎖等,0,2024-07-29,2024-07-24,有限会社クリーニング・ビック,,有限会社,東京都,葛飾区,立石１丁目１４番５号,,13,122,1240012,,,2024-07-24,清算の結了等,,,2015-10-05,1,,,,,クリーニングビック,0
252,2011803005744,登記記録の閉鎖等,0,2024-07-29,2024-07-25,合同会社ミキ,,合同会社,東京都,足立区,伊興２丁目９番７号マンション第二グリーンヒル１０３,,13,121,1210823,,,2024-07-25,清算の結了等,,,2023-07-19,1,,,,,ミキ,0
259,2020001114654,登記記録の閉鎖等,0,2024-07-29,2024-07-05,株式会社Ｋ’ｓ　Ｃｏｍｐａｎｙ,,株式会社,神奈川県,横浜市都筑区,見花山１０番２３号,,14,118,2240066,,,2024-07-05,清算の結了等,,,2016-01-29,1,,,,,ケイズカンパニー,0
273,2030001055286,登記記録の閉鎖等,0,2024-07-29,2024-07-22,日本福祉事業促進株式会社,,株式会社,埼玉県,川越市,大字下広谷１１８３番地６,,11,201,3500804,,,2024-07-22,清算の結了等,,,2015-10-05,1,,,,,ニホンフクシジギョウソクシン,0
274,2030001063025,登記記録の閉鎖等,0,2024-07-29,2024-07-22,株式会社ジャパン・マネージメント・スラスター,,株式会社,埼玉県,北本市,緑１丁目９７番地,,11,233,3640032,,,2024-07-22,清算の結了等,,,2015-10-05,1,,,,,ジャパンマネージメントスラスター,0
275,2030001082611,登記記録の閉鎖等,0,2024-07-29,2024-07-16,株式会社石浜製菓,,株式会社,埼玉県,川口市,末広１丁目１４番１７号,,11,203,3320006,,,2024-07-16,清算の結了等,,,2015-10-05,1,,,,,イシハマセイカ,0
285,2030003022458,登記記録の閉鎖等,0,2024-07-29,2024-07-17,山口のホライズン合同会社,,合同会社,埼玉県,朝霞市,宮戸２丁目１－２１カローレ３０１,,11,227,3510031,,,2024-07-17,清算の結了等,,,2023-09-20,1,,,,,ヤマグチノホライズン,0
288,2040001034025,登記記録の閉鎖等,0,2024-07-29,2024-07-11,株式会社ベネフィット,,株式会社,千葉県,市川市,福栄１丁目１７番１３号,,12,203,2720137,,,2024-07-11,清算の結了等,,,2015-10-05,1,,,,,ベネフィット,0
290,2040001059708,登記記録の閉鎖等,0,2024-07-29,2024-07-11,株式会社ハラダ,,株式会社,千葉県,茂原市,本納６００番地７,,12,210,2994114,,,2024-07-11,清算の結了等,,,2015-10-05,1,,,,,ハラダ,0
307,2070002002795,登記記録の閉鎖等,0,2024-07-29,2024-07-25,有限会社城古,,有限会社,群馬県,前橋市,朝日町３丁目８番１６号,,10,201,3710014,,,2024-07-25,清算の結了等,,,2015-10-05,1,,,,,ジョウコ,0
355,2180001075212,登記記録の閉鎖等,0,2024-07-29,2024-07-01,株式会社ロイヤル,,株式会社,愛知県,春日井市,坂下町２丁目１３７１番地の１８,,23,206,4800305,,,2024-07-01,清算の結了等,,,2015-10-05,1,,,,,ロイヤル,0
364,2180005018241,登記記録の閉鎖等,0,2024-07-29,2024-07-11,一般社団法人地球文化村,,その他の設立登記法人,愛知県,名古屋市守山区,翠松園３丁目８１５番地,,23,113,4630010,,,2024-07-11,清算の結了等,,,2019-04-26,1,,,,,チキュウブンカムラ,0
366,2180302023670,登記記録の閉鎖等,0,2024-07-29,2024-07-19,有限会社ミヨシエクステリア,,有限会社,愛知県,豊田市,大島町豊１１番地１３,,23,211,4730935,,,2024-07-19,清算の結了等,,,2015-10-05,1,,,,,ミヨシエクステリア,0
386,2290002037919,登記記録の閉鎖等,0,2024-07-29,2024-06-27,有限会社宮下,,有限会社,福岡県,糟屋郡志免町,片峰中央１丁目１番３号,,40,343,8112246,,,2024-06-27,清算の結了等,,,2015-10-05,1,,,,,ミヤシタ,0
394,2330002028723,登記記録の閉鎖等,0,2024-07-29,2024-07-16,有限会社高野水産,00097998,有限会社,熊本県,天草市,魚貫町１９１５番地,,43,215,8631721,,,2024-07-16,清算の結了等,,,2015-10-05,1,,,,,タカノスイサン,0
430,3010001102510,登記記録の閉鎖等,0,2024-07-29,2024-07-12,株式会社アイ・シー・エイチジャパン,,株式会社,東京都,千代田区,大手町１丁目７番２号東京サンケイビル２７階,,13,101,1000004,,,2024-07-12,清算の結了等,,,2015-10-05,1,,,,,アイシーエイチジャパン,0
431,3010001120124,登記記録の閉鎖等,0,2024-07-29,2024-07-10,株式会社ケイアンドエイコンサルティングファーム,,株式会社,東京都,中央区,銀座６丁目１４番８号,,13,102,1040061,,,2024-07-10,清算の結了等,,,2015-10-05,1,,,,,ケイアンドエイコンサルティングファーム,0
447,3010405021587,登記記録の閉鎖等,0,2024-07-29,2024-07-08,Ｏインフラホールディングス３号一般社団法人,,その他の設立登記法人,東京都,港区,元赤坂１丁目１番７号,,13,103,1070051,,,2024-07-08,清算の結了等,,,2022-11-15,1,,,,,オーインフラホールディングスサンゴウ,0
471,3011005009460,登記記録の閉鎖等,0,2024-07-29,2024-07-08,目黒青葉台グランドハイツ管理組合法人,,その他の設立登記法人,東京都,目黒区,青葉台４丁目２番１３号,,13,110,1530042,,,2024-07-08,清算の結了等,,,2022-03-03,1,,,,,メグロアオバダイグランドハイツ,0
508,3030001025379,登記記録の閉鎖等,0,2024-07-29,2024-07-22,株式会社エクサ,,株式会社,東京都,練馬区,南大泉４丁目２９番３２号,,13,120,1780064,,,2024-07-22,清算の結了等,,,2015-10-05,1,,,,,エクサ,0
521,3040002082559,登記記録の閉鎖等,0,2024-07-29,2024-07-11,南房総メンテニール有限会社,,有限会社,千葉県,長生郡一宮町,一宮８９９８番地７,,12,421,2994301,,,2024-07-11,清算の結了等,,,2015-10-05,1,,,,,ミナミボウソウメンテニール,0
525,3050001020824,登記記録の閉鎖等,0,2024-07-29,2024-07-18,株式会社むさし,,株式会社,茨城県,神栖市,木崎２４０６番地３９,,08,232,3140127,,,2024-07-18,清算の結了等,,,2015-10-05,1,,,,,ムサシ,0
531,3080001001235,登記記録の閉鎖等,0,2024-07-29,2024-07-16,キョーワバイオ株式会社,,株式会社,静岡県,静岡市駿河区,西中原１丁目１番９１２号,,22,102,4228053,,,2024-07-16,清算の結了等,,,2015-10-05,1,,,,,キョーワバイオ,0
534,3080001014443,登記記録の閉鎖等,0,2024-07-29,2024-07-16,株式会社ダイユウ,,株式会社,静岡県,島田市,船木４０６４番地の８,,22,209,4270107,,,2024-07-16,清算の結了等,,,2015-10-05,1,,,,,ダイユウ,0
537,3080102021801,登記記録の閉鎖等,0,2024-07-29,2024-07-25,有限会社シモヤマ,,有限会社,静岡県,賀茂郡西伊豆町,田子６４７番地の１,,22,306,4103515,,,2024-07-25,清算の結了等,,,2015-10-05,1,,,,,シモヤマ,0
546,3100002019190,登記記録の閉鎖等,0,2024-07-29,2024-07-09,有限会社いけだや呉服店,,有限会社,長野県,松本市,中央２丁目２番７号,,20,202,3900811,,,2024-07-09,清算の結了等,,,2015-10-05,1,,,,,イケダヤゴフクテン,0
554,3120002038998,登記記録の閉鎖等,0,2024-07-29,2024-07-25,有限会社森岡紙製品工業所,,有限会社,大阪府,大阪市中央区,玉造２丁目２２番１５号,,27,128,5400004,,,2024-07-25,清算の結了等,,,2015-10-05,1,,,,,モリオカカミセイヒンコウギョウショ,0
559,3120105004963,登記記録の閉鎖等,0,2024-07-29,2024-07-23,特定非営利活動法人南河内街かど福祉協会,,その他の設立登記法人,大阪府,富田林市,錦織北１丁目５番７号,,27,214,5840066,,,2024-07-23,清算の結了等,,,2015-10-05,1,,,,,ミナミカワチマチカドフクシキョウカイ,0
566,3122005002031,登記記録の閉鎖等,0,2024-07-29,2024-07-24,大阪牛乳事業協同組合,,その他の設立登記法人,大阪府,八尾市,旭ケ丘１丁目３３,,27,212,5810833,,,2024-07-24,清算の結了等,,,2015-10-05,1,,,,,オオサカギュウニュウ,0
577,3140001128658,登記記録の閉鎖等,0,2024-07-29,2024-07-25,株式会社コムレイズ,,株式会社,兵庫県,神戸市中央区,小野柄通３丁目２番２３号１Ｆ,,28,110,6510088,,,2024-07-25,清算の結了等,,,2023-01-11,1,,,,,コムレイズ,0
581,3150001017538,登記記録の閉鎖等,0,2024-07-29,2024-07-26,株式会社自立未来,,株式会社,奈良県,奈良市,朱雀６丁目１６－５,,29,201,6310806,,,2024-07-26,清算の結了等,,,2015-10-05,1,,,,,,0
582,3150001022100,登記記録の閉鎖等,0,2024-07-29,2024-07-26,株式会社シリウス,,株式会社,大阪府,大阪市中央区,南船場２丁目１番３号,,27,128,5420081,,,2024-07-26,清算の結了等,,,2018-02-08,1,,,,,シリウス,0
588,3180002063900,登記記録の閉鎖等,0,2024-07-29,2024-07-09,有限会社遠藤重機,,有限会社,愛知県,豊明市,新栄町５丁目１５番地,,23,229,4701154,,,2024-07-09,清算の結了等,,,2015-10-05,1,,,,,エンドウジュウキ,0
594,3180301017648,登記記録の閉鎖等,0,2024-07-29,2024-07-19,ベルソリュシオン株式会社,,株式会社,愛知県,刈谷市,井ケ谷町戌沼１８番地１,,23,210,4480001,,,2024-07-19,清算の結了等,,,2015-10-05,1,,,,,ベルソリュシオン,0
597,3180301030717,登記記録の閉鎖等,0,2024-07-29,2024-07-16,株式会社アイメディアワークス,,株式会社,愛知県,刈谷市,若松町３丁目９番地ＹＦＢＬＤＧ３階,,23,210,4480858,,,2024-07-16,清算の結了等,,,2017-09-06,1,,,,,アイメディアワークス,0
598,3180302016681,登記記録の閉鎖等,0,2024-07-29,2024-07-18,有限会社サンケイ電設,,有限会社,愛知県,安城市,里町三郎１０番地１８,,23,212,4460001,,,2024-07-18,清算の結了等,,,2015-10-05,1,,,,,サンケイデンセツ,0
600,3180305002621,登記記録の閉鎖等,0,2024-07-29,2024-07-19,豊橋広小路三丁目商店街振興組合,,その他の設立登記法人,愛知県,豊橋市,広小路３丁目１６番地,,23,201,4400881,,,2024-07-19,清算の結了等,,,2015-10-05,1,,,,,トヨハシヒロコウジサンチョウメ,0
601,3190005008629,登記記録の閉鎖等,0,2024-07-29,2024-07-24,医療法人社団早川歯科医院,,その他の設立登記法人,三重県,四日市市,東富田町１１番１５号,,24,202,5108006,,,2024-07-24,清算の結了等,,,2015-10-05,1,,,,,ハヤカワシカイイン,0
602,3200003001674,登記記録の閉鎖等,0,2024-07-29,2024-07-25,合資会社タイヤステップ,,合資会社,岐阜県,大垣市,久徳町５６０番地,,21,202,5030982,,,2024-07-25,清算の結了等,,,2015-10-05,1,,,,,タイヤステップ,0
604,3210005000946,登記記録の閉鎖等,0,2024-07-29,2024-07-18,福井市木材林産協同組合,,その他の設立登記法人,福井県,福井市,米松２丁目５番１２号,,18,201,9100851,,,2024-07-18,清算の結了等,,,2015-10-05,1,,,,,フクイシモクザイリンサン,0
610,3240002012941,登記記録の閉鎖等,0,2024-07-29,2024-07-24,有限会社広島車輌,,有限会社,広島県,広島市安佐北区,可部南３丁目１番２１号,,34,106,7310223,,,2024-07-24,清算の結了等,,,2015-10-05,1,,,,,ヒロシマシャリョウ,0
613,3260001035421,登記記録の閉鎖等,0,2024-07-29,2024-07-26,株式会社恩結び,,株式会社,岡山県,岡山市北区,今７丁目２３番２５号,,33,101,7000975,,,2024-07-26,清算の結了等,,,2021-04-09,1,,,,,オンムスビ,0
639,3370001025642,登記記録の閉鎖等,0,2024-07-29,2024-07-08,株式会社オートガレージ・ジャスティス,,株式会社,宮城県,黒川郡大郷町,大松沢字下町宅地７３番地,,04,422,9813501,,,2024-07-08,清算の結了等,,,2015-10-05,1,,,,,オートガレージジャスティス,0
644,3380002020204,登記記録の閉鎖等,0,2024-07-29,2024-07-25,有限会社古川砂利店,,有限会社,福島県,須賀川市,江持字中江持１５８番地１,,07,207,9620801,,,2024-07-25,清算の結了等,,,2015-10-05,1,,,,,,0
647,3400001014162,登記記録の閉鎖等,0,2024-07-29,2024-07-12,株式会社ＢｏｎＤ　Ｐｌａｎｎｉｎｇ,,株式会社,岩手県,花巻市,上根子字欠端１６８番地１,,03,205,0250043,,,2024-07-12,清算の結了等,,,2018-06-05,1,,,,,ビーオンディープランニング,0
656,3430002020883,登記記録の閉鎖等,0,2024-07-29,2024-07-24,有限会社ユアーズデンタルオフイス,,有限会社,北海道,札幌市北区,新琴似十条１４丁目４番３号,,01,102,0010910,,,2024-07-24,清算の結了等,,,2015-10-05,1,,,,,ユアーズデンタルオフィス,0
662,3500002001653,登記記録の閉鎖等,0,2024-07-29,2024-07-22,有限会社オーガスト,,有限会社,愛媛県,松山市,愛光町２番２５号,,38,201,7900064,,,2024-07-22,清算の結了等,,,2015-10-05,1,,,,,オーガスト,0
663,3500002003030,登記記録の閉鎖等,0,2024-07-29,2024-07-17,有限会社佐藤プラントシステム,,有限会社,愛媛県,松山市,白水台２丁目１０番地２,,38,201,7910113,,,2024-07-17,清算の結了等,,,2015-10-05,1,,,,,サトウプラントシステム,0
671,4010001226845,登記記録の閉鎖等,0,2024-07-29,2024-07-12,株式会社ＡＬＤＯＮＡ,,株式会社,東京都,中央区,銀座１丁目２２番１１号銀座大竹ビジデンス２階,,13,102,1040061,,,2024-07-12,清算の結了等,,,2022-05-24,1,,,,,アルドナ,0
674,4010005015591,登記記録の閉鎖等,0,2024-07-29,2024-07-12,一般社団法人オールイン,,その他の設立登記法人,東京都,中央区,新川１丁目６番１１号,,13,102,1040033,,,2024-07-12,清算の結了等,,,2015-10-05,1,,,,,オールイン,0
676,4010005034385,登記記録の閉鎖等,0,2024-07-29,2024-07-08,円海山一般社団法人,,その他の設立登記法人,東京都,港区,北青山１丁目２番３号,,13,103,1070061,,,2024-07-08,清算の結了等,,,2021-12-28,1,,,,,エンカイザン,0
677,4010102003920,登記記録の閉鎖等,0,2024-07-29,2024-07-18,有限会社そめや,,有限会社,東京都,八王子市,中野山王１丁目２番１２号,,13,201,1920042,,,2024-07-18,清算の結了等,,,2015-10-05,1,,,,,ソメヤ,0
686,4010801025166,登記記録の閉鎖等,0,2024-07-29,2024-07-18,株式会社東盛,,株式会社,東京都,大田区,南六郷３丁目１９番２０－２０１号,,13,111,1440045,,,2024-07-18,清算の結了等,,,2015-10-05,1,,,,,トウセイ,0
728,4011802019272,登記記録の閉鎖等,0,2024-07-29,2024-07-25,有限会社宮崎商事,,有限会社,東京都,足立区,保木間１丁目３１番８号,,13,121,1210064,,,2024-07-25,清算の結了等,,,2015-10-05,1,,,,,ミヤザキショウジ,0
731,4013301044834,登記記録の閉鎖等,0,2024-07-29,2024-07-18,株式会社和弓建設,,株式会社,東京都,豊島区,東池袋１丁目３８番１号豊島サロンビル４０３号室,,13,116,1700013,,,2024-07-18,清算の結了等,,,2019-11-27,1,,,,,ワユミケンセツ,0
735,4020001024595,登記記録の閉鎖等,0,2024-07-29,2024-07-05,株式会社みゆき,,株式会社,神奈川県,横浜市神奈川区,大口通１３４番地の１１,,14,102,2210002,,,2024-07-05,清算の結了等,,,2015-10-05,1,,,,,ミユキ,0
739,4020001137546,登記記録の閉鎖等,0,2024-07-29,2024-07-23,株式会社ライフ,,株式会社,東京都,世田谷区,豪徳寺１丁目５０番１７号,,13,112,1540021,,,2024-07-23,清算の結了等,,,2020-09-09,1,,,,,ライフ,0
748,4030001012153,登記記録の閉鎖等,0,2024-07-29,2024-07-23,富士マネジメント株式会社,,株式会社,埼玉県,さいたま市見沼区,大字中川５６４番地１５,,11,104,3370043,,,2024-07-23,清算の結了等,,,2015-10-05,1,,,,,フジマネジメント,0
750,4030001050731,登記記録の閉鎖等,0,2024-07-29,2024-07-22,株式会社コンフィアンス,,株式会社,埼玉県,富士見市,鶴馬１丁目１１番４４－３０２号,,11,235,3540021,,,2024-07-22,清算の結了等,,,2015-10-05,1,,,,,コンフィアンス,0
759,4030002054384,登記記録の閉鎖等,0,2024-07-29,2024-07-22,有限会社超美素,,有限会社,埼玉県,上尾市,本町３丁目６番２号,,11,219,3620014,,,2024-07-22,清算の結了等,,,2015-10-05,1,,,,,,0
780,4100001006544,登記記録の閉鎖等,0,2024-07-29,2024-07-08,株式会社メイプル,,株式会社,長野県,上高井郡小布施町,大字小布施８５１番地の４,,20,541,3810201,,,2024-07-08,清算の結了等,,,2015-10-05,1,,,,,メイプル,0
782,4100002023349,登記記録の閉鎖等,0,2024-07-29,2024-07-08,有限会社市原,,有限会社,長野県,安曇野市,豊科５２３１番地６７,,20,220,3998205,,,2024-07-08,清算の結了等,,,2015-10-05,1,,,,,イチハラ,0
785,4120001004455,登記記録の閉鎖等,0,2024-07-29,2024-07-26,株式会社柳澤設備,,株式会社,大阪府,大阪市西成区,太子１丁目８番１９号,,27,122,5570002,,,2024-07-26,清算の結了等,,,2015-10-05,1,,,,,ヤナギサワセツビ,0
786,4120001191871,登記記録の閉鎖等,0,2024-07-29,2024-07-25,株式会社チャズアンドケイ,,株式会社,大阪府,大阪市西区,北堀江１丁目１２－１７,,27,106,5500014,,,2024-07-25,清算の結了等,,,2015-10-05,1,,,,,チャズアンドケイ,0
798,4120101068549,登記記録の閉鎖等,0,2024-07-29,2024-07-25,株式会社ハルノテック,,株式会社,大阪府,大阪狭山市,今熊４丁目７１１番地の６,,27,231,5890021,,,2024-07-25,清算の結了等,,,2023-11-15,1,,,,,ハルノテック,0
806,4122001025621,登記記録の閉鎖等,0,2024-07-29,2024-07-26,株式会社吉川製作所,,株式会社,大阪府,東大阪市,水走３丁目８番４５号,,27,227,5780921,,,2024-07-26,清算の結了等,,,2015-10-05,1,,,,,,0
819,4150001024327,登記記録の閉鎖等,0,2024-07-29,2024-07-26,株式会社ＲＥＡＬＩＺＥ,,株式会社,奈良県,奈良市,橋本町３－１,,29,201,6308217,,,2024-07-26,清算の結了等,,,2021-01-22,1,,,,,リアライズ,0
828,4180001038654,登記記録の閉鎖等,0,2024-07-29,2024-07-09,株式会社道家秀男建築設計事務所,,株式会社,愛知県,愛知郡東郷町,和合ケ丘２丁目８番地の６,,23,302,4700154,,,2024-07-09,清算の結了等,,,2015-10-05,1,,,,,ドウケヒデオケンチクセッケイジムショ,0
833,4180003023290,登記記録の閉鎖等,0,2024-07-29,2024-07-10,合同会社トミヒロアーツ,,合同会社,愛知県,名古屋市中川区,八剱町２丁目５２番地,,23,110,4540054,,,2024-07-10,清算の結了等,,,2021-12-15,1,,,,,トミヒロアーツ,0
840,4180303004379,登記記録の閉鎖等,0,2024-07-29,2024-07-16,ＶＯＩＣＥ　ａｎｄ　ＴＲＡＮＣＥ合同会社,,合同会社,愛知県,高浜市,田戸町４丁目３番地４,,23,227,4441323,,,2024-07-16,清算の結了等,,,2019-07-12,1,,,,,ボイスアンドトランス,0
850,4240001043912,登記記録の閉鎖等,0,2024-07-29,2024-07-24,大倉ビル株式会社,,株式会社,広島県,広島市西区,己斐上２丁目７番２号,,34,104,7330815,,,2024-07-24,清算の結了等,,,2015-10-05,1,,,,,,0
853,4280002003309,登記記録の閉鎖等,0,2024-07-29,2024-07-26,有限会社プリムール,,有限会社,島根県,松江市,淞北台１番４１号,,32,201,6900868,,,2024-07-26,清算の結了等,,,2015-10-05,1,,,,,プリムール,0
863,4290005013295,登記記録の閉鎖等,0,2024-07-29,2024-06-19,特定非営利活動法人自分らしくみんなと暮らすウォッチ,,その他の設立登記法人,福岡県,久留米市,津福本町７８６番地６グランピア津福３０１,,40,203,8300047,,,2024-06-19,清算の結了等,,,2015-10-05,1,,,,,ジブンラシクミンナトクラスウォッチ,0
864,4290801013110,登記記録の閉鎖等,0,2024-07-29,2024-07-16,株式会社丸山建設,,株式会社,福岡県,北九州市八幡西区,陣原３丁目１５番４号,,40,109,8070821,,,2024-07-16,清算の結了等,,,2015-10-05,1,,,,,マルヤマケンセツ,0
869,4310002014632,登記記録の閉鎖等,0,2024-07-29,2024-07-18,有限会社鹿町シヨッピングセンター,,有限会社,長崎県,佐世保市,鹿町町下歌ヶ浦９８９番地,,42,202,8596204,,,2024-07-18,清算の結了等,,,2015-10-05,1,,,,,シカマチショッピングセンター,0
870,4320001004699,登記記録の閉鎖等,0,2024-07-29,2024-07-22,株式会社日本機装,,株式会社,大分県,大分市,大字鶴崎１８１０番地の１,,44,201,8700106,,,2024-07-22,清算の結了等,,,2015-10-05,1,,,,,,0
872,4330002008384,登記記録の閉鎖等,0,2024-07-29,2024-07-16,有限会社パブリツクデザインヨコタ,,有限会社,熊本県,熊本市南区,良町２丁目１番３号,,43,104,8620969,,,2024-07-16,清算の結了等,,,2015-10-05,1,,,,,パブリツクデザインヨコタ,0
873,4330002018706,登記記録の閉鎖等,0,2024-07-29,2024-07-17,藤吉陶器瓦工業有限会社,,有限会社,熊本県,山鹿市,熊入町２５８番地,,43,208,8610511,,,2024-07-17,清算の結了等,,,2015-10-05,1,,,,,フジヨシトウキカワラコウギョウ,0
881,4380001026226,登記記録の閉鎖等,0,2024-07-29,2024-07-22,ＺＥＲＯ　ＴＥＣ株式会社,,株式会社,福島県,福島市,飯坂町湯野字芹田１番地の４,,07,201,9600211,,,2024-07-22,清算の結了等,,,2015-12-08,1,,,,,,0
883,4380002019922,登記記録の閉鎖等,0,2024-07-29,2024-07-19,有限会社鈴木商店,,有限会社,福島県,須賀川市,岡東町１２５番地２,,07,207,9620013,,,2024-07-19,清算の結了等,,,2015-10-05,1,,,,,スズキショウテン,0
884,4380005001992,登記記録の閉鎖等,0,2024-07-29,2024-07-23,医療法人小野寺整形外科医院,,その他の設立登記法人,福島県,伊達市,保原町上保原字寺前２番地の７,,07,213,9600684,,,2024-07-23,清算の結了等,,,2015-10-05,1,,,,,オノデラセイケイゲカイイン,0
886,4420001014746,登記記録の閉鎖等,0,2024-07-29,2024-07-17,株式会社司工業,,株式会社,青森県,むつ市,大湊新町２８番１号,,02,208,0350084,,,2024-07-17,清算の結了等,,,2015-10-05,1,,,,,ツカサコウギョウ,0
910,5010001121830,登記記録の閉鎖等,0,2024-07-29,2024-07-11,株式会社自由世代,,株式会社,東京都,文京区,白山５丁目２４番８号,,13,105,1120001,,,2024-07-11,清算の結了等,,,2015-10-05,1,,,,,ジユウセダイ,0
915,5010001170885,登記記録の閉鎖等,0,2024-07-29,2024-07-23,株式会社スタンレーズ,,株式会社,埼玉県,川越市,新宿町１丁目１２－２０－１０１,,11,201,3501124,,,2024-07-23,清算の結了等,,,2015-10-05,1,,,,,スタンレーズ,0
923,5010002015560,登記記録の閉鎖等,0,2024-07-29,2024-07-12,有限会社ラ・ララ企画,,有限会社,東京都,千代田区,丸の内３丁目４番１号,,13,101,1000005,,,2024-07-12,清算の結了等,,,2015-10-05,1,,,,,ラララキカク,0
968,5011702001461,登記記録の閉鎖等,0,2024-07-29,2024-07-22,有限会社ウイル,,有限会社,東京都,江戸川区,西葛西８丁目２１番１６号,,13,123,1340088,,,2024-07-22,清算の結了等,,,2015-10-05,1,,,,,ウイル,0
972,5011801032127,登記記録の閉鎖等,0,2024-07-29,2024-07-24,マルゼン不動産管理株式会社,,株式会社,東京都,足立区,中央本町３丁目９番１５号,,13,121,1210011,,,2024-07-24,清算の結了等,,,2016-08-01,1,,,,,マルゼンフドウサンカンリ,0
997,5030002069456,登記記録の閉鎖等,0,2024-07-29,2024-07-23,有限会社モン・カンパニー,,有限会社,埼玉県,春日部市,道口蛭田１９番地３,,11,214,3440045,,,2024-07-23,清算の結了等,,,2015-10-05,1,,,,,モンカンパニー,0
1018,5110001022812,登記記録の閉鎖等,0,2024-07-29,2024-07-19,株式会社高橋建設,,株式会社,新潟県,長岡市,中島６丁目１番２２号,,15,202,9400094,,,2024-07-19,清算の結了等,,,2015-10-05,1,,,,,タカハシケンセツ,0
1021,5110005007396,登記記録の閉鎖等,0,2024-07-29,2024-07-17,特定非営利活動法人地域活動サポートセンター柏崎,,その他の設立登記法人,新潟県,柏崎市,東本町１丁目１６番１２号,,15,205,9450051,,,2024-07-17,清算の結了等,,,2015-10-05,1,,,,,チイキカツドウサポートセンターカシワザキ,0
1044,5140005009274,登記記録の閉鎖等,0,2024-07-29,2024-07-24,加古川印刷事業協同組合,,その他の設立登記法人,兵庫県,加古川市,野口町良野１５２４番地,,28,210,6750017,,,2024-07-24,清算の結了等,,,2015-10-05,1,,,,,カコガワインサツ,0
1047,5170002009002,登記記録の閉鎖等,0,2024-07-29,2024-07-25,有限会社東山自動車,,有限会社,和歌山県,田辺市,東山２丁目２番２９号,,30,206,6460022,,,2024-07-25,清算の結了等,,,2015-10-05,1,,,,,ヒガシヤマジドウシャ,0
1049,5180001118307,登記記録の閉鎖等,0,2024-07-29,2024-07-23,株式会社Ａｉｍ,,株式会社,兵庫県,神戸市須磨区,大池町５丁目１７番１号,,28,107,6540026,,,2024-07-23,合併による解散等,7210001014351,令和６年７月２日福井県大飯郡高浜町和田１１７字１２－１フクムラ仮設株式会社（7210001014351）に合併し解散,2015-10-05,1,,,,,エイム,0
1057,5180002002419,登記記録の閉鎖等,0,2024-07-29,2024-07-11,有限会社末扇土地,,有限会社,愛知県,名古屋市名東区,勢子坊１丁目４０８番地の２,,23,115,4650055,,,2024-07-11,清算の結了等,,,2015-10-05,1,,,,,スエヒロトチ,0
1063,5180301013331,登記記録の閉鎖等,0,2024-07-29,2024-07-17,株式会社松美堂,,株式会社,愛知県,安城市,御幸本町７番２５号,,23,212,4460032,,,2024-07-17,清算の結了等,,,2015-10-05,1,,,,,マツミドウ,0
1070,5190005001169,登記記録の閉鎖等,0,2024-07-29,2024-07-25,特定非営利活動法人交通事故被害者支援センター,,その他の設立登記法人,三重県,津市,白山町二本木１００１番地３５３,,24,201,5152602,,,2024-07-25,清算の結了等,,,2015-10-05,1,,,,,コウツウジコヒガイシャシエンセンター,0
1071,5200001005097,登記記録の閉鎖等,0,2024-07-29,2024-07-25,株式会社丸西家具店,,株式会社,岐阜県,岐阜市,東鶉３丁目７１番地２,,21,201,5008281,,,2024-07-25,清算の結了等,,,2015-10-05,1,,,,,マルニシカグテン,0
1073,5200002019096,登記記録の閉鎖等,0,2024-07-29,2024-07-24,有限会社フラツト,,有限会社,岐阜県,美濃市,２５８０番地の１,,21,207,5013701,,,2024-07-24,清算の結了等,,,2015-10-05,1,,,,,フラット,0
1078,5220002007743,登記記録の閉鎖等,0,2024-07-29,2024-07-25,ワコー金沢有限会社,,有限会社,石川県,金沢市,久安２丁目４６０番地,,17,201,9218164,,,2024-07-25,合併による解散等,4230001003405,令和６年７月２１日富山市上冨居一丁目８番７４号株式会社ワコー（4230001003405）に合併し解散,2015-10-05,1,,,,,,0
1082,5240002020827,登記記録の閉鎖等,0,2024-07-29,2024-07-24,スズキ工業有限会社,,有限会社,広島県,広島市安佐北区,可部町大字上町屋１７６３番地の４,,34,106,7310216,,,2024-07-24,清算の結了等,,,2015-10-05,1,,,,,スズキコウギョウ,0
1111,5380001005897,登記記録の閉鎖等,0,2024-07-29,2024-07-25,株式会社藤成工業,,株式会社,福島県,郡山市,富久山町久保田字郷花１２番１,,07,203,9638071,,,2024-07-25,清算の結了等,,,2015-10-05,1,,,,,,0
1119,5400002001868,登記記録の閉鎖等,0,2024-07-29,2024-07-09,有限会社大弘産業,,有限会社,岩手県,盛岡市,みたけ５丁目１５番１２号,,03,201,0200122,,,2024-07-09,合併による解散等,3400001000708,令和６年７月１日岩手県盛岡市みたけ五丁目１５番１２号三陸土建株式会社（3400001000708）に合併し解散,2015-10-05,1,,,,,ダイコウサンギョウ,0
1120,5400502000790,登記記録の閉鎖等,0,2024-07-29,2024-07-11,有限会社平泉通信土木,,有限会社,岩手県,西磐井郡平泉町,長島字生江田２４番地４,,03,402,0294101,,,2024-07-11,清算の結了等,,,2015-10-05,1,,,,,ヒライズミツウシンドボク,0
1136,5480002013658,登記記録の閉鎖等,0,2024-07-29,2024-07-25,有限会社松下商店,,有限会社,徳島県,阿南市,橘町南新田３番地９,,36,204,7740023,,,2024-07-25,清算の結了等,,,2015-10-05,1,,,,,マツシタショウテン,0
1154,6010403019548,登記記録の閉鎖等,0,2024-07-29,2024-07-05,合同会社ＲＰＪ１,,合同会社,東京都,港区,赤坂１丁目７番１号,,13,103,1070052,,,2024-07-05,清算の結了等,,,2018-10-23,1,,,,,アールピージェイワン,0
1161,6010802015437,登記記録の閉鎖等,0,2024-07-29,2024-07-18,有限会社米屋不動産,,有限会社,東京都,大田区,池上４丁目２８番１０号２０１,,13,111,1460082,,,2024-07-18,清算の結了等,,,2015-10-05,1,,,,,ヨネヤフドウサン,0
1183,6011501004895,登記記録の閉鎖等,0,2024-07-29,2024-07-25,横田土木株式会社,,株式会社,東京都,北区,中里３丁目１７番２５号,,13,117,1140015,,,2024-07-25,清算の結了等,,,2015-10-05,1,,,,,ヨコタドボク,0
1200,6020001053568,登記記録の閉鎖等,0,2024-07-29,2024-07-05,櫂設計企画工房株式会社,,株式会社,神奈川県,横浜市西区,浅間台１２番２,,14,103,2200071,,,2024-07-05,清算の結了等,,,2015-10-05,1,,,,,カイセッケイキカクコウボウカイ,0
1212,6021001054077,登記記録の閉鎖等,0,2024-07-29,2024-07-26,株式会社Ｉ美,,株式会社,神奈川県,伊勢原市,沼目５丁目６番８号エンゼルハイム沼目７号,,14,214,2591126,,,2024-07-26,清算の結了等,,,2015-10-05,1,,,,,,0
1216,6021002060314,登記記録の閉鎖等,0,2024-07-29,2024-07-26,有限会社石津,,有限会社,神奈川県,中郡大磯町,東小磯４５３番地６グランヴェール大磯３０４号,,14,341,2550004,,,2024-07-26,清算の結了等,,,2015-10-05,1,,,,,イシヅ,0
1221,6030001137295,登記記録の閉鎖等,0,2024-07-29,2024-07-22,株式会社リビングウェル,,株式会社,埼玉県,さいたま市見沼区,東大宮５丁目４８番地３４,,11,104,3370051,,,2024-07-22,清算の結了等,,,2020-07-10,1,,,,,リビングウェル,0
1227,6030005002388,登記記録の閉鎖等,0,2024-07-29,2024-07-19,特定非営利活動法人パル,,その他の設立登記法人,埼玉県,さいたま市南区,根岸４丁目６番７号,,11,108,3360024,,,2024-07-19,清算の結了等,,,2015-10-05,1,,,,,パル,0
1239,6060002032501,登記記録の閉鎖等,0,2024-07-29,2024-07-04,有限会社パイン・フーズ,,有限会社,栃木県,栃木市,大宮町１８４８番地１,,09,203,3280011,,,2024-07-04,清算の結了等,,,2015-10-05,1,,,,,パインフーズ,0
1254,6110005016660,登記記録の閉鎖等,0,2024-07-29,2024-07-18,一般社団法人ジャパン・アスレティックス・ソサエティ,,その他の設立登記法人,新潟県,新潟市中央区,白山浦１丁目６１４番地５白山ビル７Ｆ,,15,103,9518131,,,2024-07-18,清算の結了等,,,2021-05-11,1,,,,,ジャパンアスレティックスソサエティ,0
1255,6120001009205,登記記録の閉鎖等,0,2024-07-29,2024-07-25,市田冷食株式会社,,株式会社,大阪府,大阪市東住吉区,今林２丁目２４番１３号,,27,121,5460001,,,2024-07-25,清算の結了等,,,2015-10-05,1,,,,,,0
1283,6130005014101,登記記録の閉鎖等,0,2024-07-29,2024-07-18,一般社団法人保険活動管理センター,,その他の設立登記法人,京都府,京田辺市,山手東２丁目５番地１Ａ１０２,,26,211,6100357,,,2024-07-18,清算の結了等,,,2015-10-05,1,,,,,ホケンカツドウカンリセンター,0
1285,6140001039332,登記記録の閉鎖等,0,2024-07-29,2024-07-23,三興繊維株式会社,,株式会社,兵庫県,佐用郡佐用町,末広３５９番地,,28,501,6795300,,,2024-07-23,清算の結了等,,,2015-10-05,1,,,,,サンコウセンイ,0
1295,6150001021553,登記記録の閉鎖等,0,2024-07-29,2024-07-26,株式会社エスアールエス,,株式会社,奈良県,奈良市,芝辻町３丁目６番地１３号新大宮北ライゼホビー２号室,00112457,29,201,6308114,,,2024-07-26,清算の結了等,,,2017-06-06,1,,,,,エスアールエス,0
1298,6150005008497,登記記録の閉鎖等,0,2024-07-29,2024-07-23,特定非営利活動法人はっぴぃ明日,,その他の設立登記法人,奈良県,奈良市,五条畑１丁目１７番１０－１号,,29,201,6308036,,,2024-07-23,清算の結了等,,,2015-10-05,1,,,,,ハッピーアース,0
1304,6180001140128,登記記録の閉鎖等,0,2024-07-29,2024-07-09,モリカフーズ株式会社,,株式会社,愛知県,名古屋市北区,大曽根３丁目１０番１６号ライオンビル大曽根２Ｆ,,23,103,4620825,,,2024-07-09,清算の結了等,,,2020-02-20,1,,,,,モリカフーズ,0
1307,6180002085735,登記記録の閉鎖等,0,2024-07-29,2024-07-10,有限会社ミネ,,有限会社,愛知県,知多郡東浦町,大字森岡字飯喰場７番地４９,,23,442,4702101,,,2024-07-10,清算の結了等,,,2015-10-05,1,,,,,ミネ,0
1323,6250005002309,登記記録の閉鎖等,0,2024-07-29,2024-07-22,医療法人社団伊藤会,,その他の設立登記法人,山口県,山陽小野田市,千代町１丁目１番１号,,35,216,7560814,,,2024-07-22,清算の結了等,,,2015-10-05,1,,,,,イトウカイ,0
1351,6370005003880,登記記録の閉鎖等,0,2024-07-29,2024-07-02,一般社団法人虹の橋,,その他の設立登記法人,宮城県,仙台市泉区,市名坂字楢町２０１－１Ｃ号室,,04,105,9813117,,,2024-07-02,合併による解散等,7370005000134,令和６年７月１日仙台市宮城野区幸町四丁目６番２号一般社団法人宮城県手をつなぐ育成会（7370005000134）に合併し解散,2015-10-05,1,,,,,,0
1361,6430002057361,登記記録の閉鎖等,0,2024-07-29,2024-07-19,有限会社便利屋たけちゃん,,有限会社,北海道,苫小牧市,音羽町２丁目１８－１７,,01,213,0530044,,,2024-07-19,清算の結了等,,,2015-10-05,1,,,,,ベンリヤタケチャン,0
1364,6440001005741,登記記録の閉鎖等,0,2024-07-29,2024-07-23,永田冷熱株式会社,,株式会社,北海道,函館市,赤川町２０３番地７,,01,202,0410804,,,2024-07-23,清算の結了等,,,2015-10-05,1,,,,,ナガタレイネツ,0
1366,6460001001128,登記記録の閉鎖等,0,2024-07-29,2024-07-24,ドウ・セントラル株式会社,,株式会社,北海道,釧路市,浦見３丁目３番１７号,,01,206,0850835,,,2024-07-24,清算の結了等,,,2015-10-05,1,,,,,ドウセントラル,0
1373,6500002006253,登記記録の閉鎖等,0,2024-07-29,2024-07-22,有限会社毎日新聞松山東部専売所,,有限会社,愛媛県,松山市,祇園町５番２３号第２北海ビル,,38,201,7900965,,,2024-07-22,清算の結了等,,,2015-10-05,1,,,,,マイニチシンブンマツヤマトウブセンバイショ,0
1381,7010401064462,登記記録の閉鎖等,0,2024-07-29,2024-07-11,ネプラス株式会社,,株式会社,東京都,千代田区,神田練塀町３００番地,,13,101,1010022,,,2024-07-11,清算の結了等,,,2015-10-05,1,,,,,ネプラス,0
1393,7010502003682,登記記録の閉鎖等,0,2024-07-29,2024-07-17,有限会社経済情報センター,,有限会社,東京都,台東区,東上野５丁目７番３号,,13,106,1100015,,,2024-07-17,清算の結了等,,,2015-10-05,1,,,,,ケイザイジョウホウセンター,0
1422,7011801031795,登記記録の閉鎖等,0,2024-07-29,2024-07-24,株式会社インテルノ,,株式会社,東京都,葛飾区,細田５丁目４番７号,,13,122,1240021,,,2024-07-24,清算の結了等,,,2016-05-13,1,,,,,,0
1428,7012701017901,登記記録の閉鎖等,0,2024-07-29,2024-07-18,東陽株式会社,,株式会社,東京都,小平市,上水本町４丁目２２番２－８０４号,,13,211,1870022,,,2024-07-18,清算の結了等,,,2023-10-20,1,,,,,トウヨウ,0
1467,7070001025999,登記記録の閉鎖等,0,2024-07-29,2024-07-23,株式会社みねの湯,,株式会社,群馬県,利根郡みなかみ町,後閑１７３９番地１,,10,449,3791305,,,2024-07-23,清算の結了等,,,2015-10-05,1,,,,,ミネノユ,0
1470,7070005007457,登記記録の閉鎖等,0,2024-07-29,2024-07-23,特定非営利活動法人みんなの太助さん,,その他の設立登記法人,群馬県,利根郡みなかみ町,布施７１番地２,,10,449,3791414,,,2024-07-23,清算の結了等,,,2015-10-05,1,,,,,ミンナノタスケサン,0
1479,7100005000697,登記記録の閉鎖等,0,2024-07-29,2024-07-11,徳乘寺,,その他の設立登記法人,長野県,長野市,大字大町字町屋敷１１７番地,,20,201,3810004,,,2024-07-11,清算の結了等,,,2015-10-05,1,,,,,トクジョウジ,0
1528,7180002005725,登記記録の閉鎖等,0,2024-07-29,2024-07-10,有限会社伊藤瓦店,,有限会社,愛知県,名古屋市港区,小碓２丁目２１７番地,,23,111,4550801,,,2024-07-10,清算の結了等,,,2015-10-05,1,,,,,イトウカワラテン,0
1530,7180002091204,登記記録の閉鎖等,0,2024-07-29,2024-07-11,有限会社恒川硝子,,有限会社,愛知県,愛西市,渕高町一ノ割１３番地１,,23,232,4968018,,,2024-07-11,清算の結了等,,,2015-10-05,1,,,,,ツネカワガラス,0
1537,7180301023287,登記記録の閉鎖等,0,2024-07-29,2024-07-12,株式会社下村組,,株式会社,愛知県,西尾市,一色町治明大江３４番地,,23,213,4440426,,,2024-07-12,清算の結了等,,,2015-10-05,1,,,,,シモムラクミ,0
1538,7180302007388,登記記録の閉鎖等,0,2024-07-29,2024-07-05,有限会社コサカ,,有限会社,神奈川県,横浜市港南区,日野３丁目８番２－３０５号,,14,111,2340051,,,2024-07-05,清算の結了等,,,2015-10-05,1,,,,,コサカ,0
1564,7330002030336,登記記録の閉鎖等,0,2024-07-29,2024-07-16,有限会社豊永自動車整備工場,,有限会社,熊本県,球磨郡相良村,大字柳瀬字永谷３３２９番地の１,,43,510,8680095,,,2024-07-16,清算の結了等,,,2015-10-05,1,,,,,トヨナガジドウシャセイビコウジョウ,0
1565,7330003006847,登記記録の閉鎖等,0,2024-07-29,2024-07-17,セーフティ熊本合同会社,,合同会社,熊本県,合志市,豊岡４４８番地,,43,216,8611115,,,2024-07-17,清算の結了等,,,2016-09-29,1,,,,,セーフティクマモト,0
1567,7360001029005,登記記録の閉鎖等,0,2024-07-29,2024-07-09,ＦＩＲＳＫＹ株式会社,,株式会社,愛知県,名古屋市西区,幅下２丁目５番１２号２階,,23,104,4510041,,,2024-07-09,清算の結了等,,,2021-07-05,1,,,,,ファースキ,0
1578,7380002011570,登記記録の閉鎖等,0,2024-07-29,2024-07-17,有限会社八幡裏質店,,有限会社,福島県,郡山市,清水台１丁目８番１８号,,07,203,9638005,,,2024-07-17,清算の結了等,,,2015-10-05,1,,,,,ハチマンウラシチテン,0
1589,7450001003090,登記記録の閉鎖等,0,2024-07-29,2024-07-24,株式会社和忠洋行,,株式会社,北海道,旭川市,一条通３丁目左４号,,01,204,0700031,,,2024-07-24,清算の結了等,,,2015-10-05,1,,,,,ワチュウヨウコウ,0
1597,7480001005373,登記記録の閉鎖等,0,2024-07-29,2024-07-25,株式会社祐徳汽船,,株式会社,徳島県,板野郡松茂町,長原２７番地,,36,401,7710216,,,2024-07-25,清算の結了等,,,2015-10-05,1,,,,,ユウトクキセン,0
1601,8010001091781,登記記録の閉鎖等,0,2024-07-29,2024-07-09,フィクスコミュニケーションズ株式会社,,株式会社,東京都,中央区,日本橋馬喰町２丁目２番６号,,13,102,1030002,,,2024-07-09,合併による解散等,3010401177516,令和６年７月１日東京都中央区日本橋馬喰町二丁目２番６号フィクスコミュニケーションズ株式会社（3010401177516）に合併し解散,2015-10-05,1,,,,,フィクスコミュニケーションズ,0
1608,8010001239001,登記記録の閉鎖等,0,2024-07-29,2024-07-12,株式会社キャリログ,,株式会社,東京都,千代田区,神田司町２丁目１６佐一第二ビル４階,,13,101,1010048,,,2024-07-12,清算の結了等,,,2023-10-05,1,,,,,キャリログ,0
1613,8010402008327,登記記録の閉鎖等,0,2024-07-29,2024-07-08,有限会社地図屋もりそん,,有限会社,東京都,港区,赤坂８丁目６番２７－１０２号,,13,103,1070052,,,2024-07-08,清算の結了等,,,2015-10-05,1,,,,,,0
1616,8010405002046,登記記録の閉鎖等,0,2024-07-29,2024-07-08,特許資料協同組合,,その他の設立登記法人,東京都,港区,麻布台３丁目１番９号,,13,103,1060041,,,2024-07-08,清算の結了等,,,2015-10-05,1,,,,,トッキョシリョウ,0
1619,8010501007634,登記記録の閉鎖等,0,2024-07-29,2024-07-18,株式会社竹本,,株式会社,東京都,台東区,松が谷１丁目５番１０号－５０２号,,13,106,1110036,,,2024-07-18,清算の結了等,,,2015-10-05,1,,,,,タケモト,0
1631,8011001147078,登記記録の閉鎖等,0,2024-07-29,2024-07-04,株式会社フィジーポップ,,株式会社,東京都,渋谷区,渋谷２丁目７番１４号ＶＯＲＴＡＯＹＡＭＡ３０２,,13,113,1500002,,,2024-07-04,清算の結了等,,,2022-04-25,1,,,,,フィジーポップ,0
1661,8020002028633,登記記録の閉鎖等,0,2024-07-29,2024-07-05,有限会社横浜リザーブ,,有限会社,神奈川県,横浜市神奈川区,大口通１８番地,,14,102,2210002,,,2024-07-05,清算の結了等,,,2015-10-05,1,,,,,ヨコハマリザーブ,0
1677,8030002041123,登記記録の閉鎖等,0,2024-07-29,2024-07-23,有限会社小山エクスプレス,,有限会社,埼玉県,加須市,串作５２４番地３,,11,210,3470041,,,2024-07-23,清算の結了等,,,2015-10-05,1,,,,,コヤマエクスプレス,0
1678,8030002083818,登記記録の閉鎖等,0,2024-07-29,2024-07-22,シーブイエス吹上富士見有限会社,,有限会社,埼玉県,東松山市,大字上野本１８７１番２,,11,212,3550073,,,2024-07-22,清算の結了等,,,2015-10-05,1,,,,,シーブイエスフキアゲフジミ,0
1683,8030005017822,登記記録の閉鎖等,0,2024-07-29,2024-07-23,特定非営利活動法人女性就労サポートセンター,,その他の設立登記法人,埼玉県,ふじみ野市,仲２丁目４番地２８,,11,245,3560025,,,2024-07-23,清算の結了等,,,2016-02-22,1,,,,,ジョセイシュウロウサポートセンター,0
1692,8040003015298,登記記録の閉鎖等,0,2024-07-29,2024-07-11,アビエーション・ロジスティクス・サービス合同会社,,合同会社,千葉県,船橋市,南三咲３丁目２２番１５－１１１号,,12,204,2740813,,,2024-07-11,清算の結了等,,,2020-04-30,1,,,,,アビエーションロジスティクスサービス,0
1703,8080401012059,登記記録の閉鎖等,0,2024-07-29,2024-07-23,浜松内装解体株式会社,,株式会社,静岡県,浜松市中央区,金折町５８３番地の３,,22,138,4350026,,,2024-07-23,清算の結了等,,,2015-10-05,1,,,,,ハママツナイソウカイタイ,0
1711,8120001011134,登記記録の閉鎖等,0,2024-07-29,2024-07-25,株式会社三木商店,,株式会社,大阪府,大阪市東住吉区,今林１丁目２番６８号大阪市中央卸売市場東部市場内,,27,121,5460001,,,2024-07-25,清算の結了等,,,2015-10-05,1,,,,,ミキショウテン,0
1731,8130001067646,登記記録の閉鎖等,0,2024-07-29,2024-07-19,株式会社ＪｕｓｔＥｘｐｌｏｒｅ,,株式会社,京都府,京都市南区,上鳥羽北花名町９番地,,26,107,6018127,,,2024-07-19,清算の結了等,,,2020-09-18,1,,,,,ジャストエクスプローラー,0
1749,8180001029864,登記記録の閉鎖等,0,2024-07-29,2024-07-09,雅夢クリエート株式会社,,株式会社,愛知県,名古屋市中村区,太閤４丁目１２番１５号,,23,105,4530801,,,2024-07-09,清算の結了等,,,2015-10-05,1,,,,,ガムクリエート,0
1761,8180002081369,登記記録の閉鎖等,0,2024-07-29,2024-07-11,有限会社山田設備,,有限会社,愛知県,稲沢市,込野町郷中１０８番地,,23,220,4928444,,,2024-07-11,清算の結了等,,,2015-10-05,1,,,,,ヤマダセツビ,0
1762,8180002089107,登記記録の閉鎖等,0,2024-07-29,2024-07-10,有限会社アイサン自動車,,有限会社,愛知県,あま市,篠田八反田１７番地２,,23,237,4901211,,,2024-07-10,清算の結了等,,,2015-10-05,1,,,,,アイサンジドウシャ,0
1763,8180301009756,登記記録の閉鎖等,0,2024-07-29,2024-07-16,板倉家具株式会社,,株式会社,愛知県,豊川市,一宮町大池１７８番地,,23,207,4411231,,,2024-07-16,清算の結了等,,,2015-10-05,1,,,,,イタクラカグ,0
1771,8210002000374,登記記録の閉鎖等,0,2024-07-29,2024-07-19,有限会社昭建,,有限会社,福井県,福井市,高柳１丁目３０５番地,,18,201,9100837,,,2024-07-19,清算の結了等,,,2015-10-05,1,,,,,ショウケン,0
1773,8220003002583,登記記録の閉鎖等,0,2024-07-29,2024-07-17,ＩＲＯＨＡ合同会社,,合同会社,石川県,加賀市,山中温泉荒谷町ヲ１０５番地１,,17,206,9220134,,,2024-07-17,清算の結了等,,,2019-04-09,1,,,,,イロハ,0
1797,8320002020923,登記記録の閉鎖等,0,2024-07-29,2024-07-22,有限会社なかざと,,有限会社,大分県,中津市,外馬場２６０５番地,,44,203,8710059,,,2024-07-22,清算の結了等,,,2015-10-05,1,,,,,,0
1799,8330001007276,登記記録の閉鎖等,0,2024-07-29,2024-07-16,株式会社熊本ワーキングルーム,,株式会社,熊本県,熊本市東区,健軍１丁目１５番５－４０３号,,43,102,8620911,,,2024-07-16,清算の結了等,,,2015-10-05,1,,,,,クマモトワーキングルーム,0
1803,8350003002793,登記記録の閉鎖等,0,2024-07-29,2024-07-19,Ｌ＆Ｍ合同会社,,合同会社,宮崎県,宮崎市,大字芳士３７３,,45,201,8800123,,,2024-07-19,清算の結了等,,,2016-11-08,1,,,,,エルアンドエム,0
1807,8370302002476,登記記録の閉鎖等,0,2024-07-29,2024-07-08,有限会社矢本製綿,,有限会社,宮城県,東松島市,矢本字河戸１５番地の３,,04,214,9810503,,,2024-07-08,清算の結了等,,,2015-10-05,1,,,,,ヤモトセイメン,0
1810,8380001014631,登記記録の閉鎖等,0,2024-07-29,2024-07-25,株式会社周智プランニング,,株式会社,福島県,いわき市,平字堂ノ前１６番地,,07,204,9708026,,,2024-07-25,清算の結了等,,,2015-10-05,1,,,,,,0
1814,8390002011841,登記記録の閉鎖等,0,2024-07-29,2024-07-10,有限会社斎藤自動車整備工場,,有限会社,山形県,尾花沢市,新町４丁目４番２２号,,06,212,9994224,,,2024-07-10,清算の結了等,,,2015-10-05,1,,,,,サイトウジドウシャセイビコウジョウ,0
1827,8470001011859,登記記録の閉鎖等,0,2024-07-29,2024-07-23,株式会社ティーバイオ,,株式会社,東京都,中央区,銀座６丁目１３番９号ｂｉｚｃｕｂｅ,,13,102,1040061,,,2024-07-23,合併による解散等,2040001053363,令和６年６月１日東京都港区三田二丁目１４番４号株式会社未来（2040001053363）に合併し解散,2015-10-05,1,,,,,ティーバイオ,0
1837,9010001228696,登記記録の閉鎖等,0,2024-07-29,2024-07-11,株式会社ビューティリアム,,株式会社,東京都,中央区,銀座１丁目２２番１１号銀座大竹ビジデンス２階,,13,102,1040061,,,2024-07-11,清算の結了等,,,2022-08-10,1,,,,,ビューティリアム,0
1872,9011101005952,登記記録の閉鎖等,0,2024-07-29,2024-07-23,株式会社クリエイティブマイン,,株式会社,東京都,世田谷区,粕谷４丁目２番１９号,,13,112,1570063,,,2024-07-23,清算の結了等,,,2015-10-05,1,,,,,クリエイティブマイン,0
1874,9011101056632,登記記録の閉鎖等,0,2024-07-29,2024-07-23,株式会社エルゴコンサルティング,,株式会社,東京都,杉並区,桃井４丁目２番１６号,,13,115,1670034,,,2024-07-23,清算の結了等,,,2015-10-05,1,,,,,エルゴコンサルティング,0
1879,9011301002907,登記記録の閉鎖等,0,2024-07-29,2024-07-23,三宝美装株式会社,,株式会社,東京都,杉並区,上井草１丁目３２番２号,,13,115,1670023,,,2024-07-23,清算の結了等,,,2015-10-05,1,,,,,サンポウビソウ,0
1911,9020002082522,登記記録の閉鎖等,0,2024-07-29,2024-07-05,有限会社青山防水工業,,有限会社,神奈川県,川崎市中原区,中丸子３２５番地,,14,133,2110012,,,2024-07-05,清算の結了等,,,2015-10-05,1,,,,,,0
1915,9020005003962,登記記録の閉鎖等,0,2024-07-29,2024-07-05,特定非営利活動法人ビラーンの医療と自立を支える会,,その他の設立登記法人,神奈川県,横浜市青葉区,鴨志田町５１６番地１１,,14,117,2270033,,,2024-07-05,清算の結了等,,,2015-10-05,1,,,,,ビラーンノイリョウトジリツヲササエルカイ,0
1916,9021002048728,登記記録の閉鎖等,0,2024-07-29,2024-07-26,有限会社中嶋建設,,有限会社,神奈川県,厚木市,三田３２９０番地１,,14,212,2430211,,,2024-07-26,清算の結了等,,,2015-10-05,1,,,,,ナカジマケンセツ,0
1919,9030001040769,登記記録の閉鎖等,0,2024-07-29,2024-07-22,株式会社イノセントワン,,株式会社,埼玉県,朝霞市,朝志ケ丘１丁目６番６０号６０６号室,,11,227,3510035,,,2024-07-22,清算の結了等,,,2015-10-05,1,,,,,イノセントワン,0
1921,9030001105902,登記記録の閉鎖等,0,2024-07-29,2024-07-23,株式会社ワットジャパン,,株式会社,埼玉県,草加市,金明町６１８番地１ソフィア草加新田７１３号,,11,221,3400052,,,2024-07-23,清算の結了等,,,2015-10-05,1,,,,,ワットジャパン,0
1923,9030002070690,登記記録の閉鎖等,0,2024-07-29,2024-07-22,有限会社ピーエムケイ,,有限会社,埼玉県,春日部市,南５丁目９番２０号,,11,214,3440064,,,2024-07-22,清算の結了等,,,2015-10-05,1,,,,,ピーエムケイ,0
1928,9040001121700,登記記録の閉鎖等,0,2024-07-29,2024-07-23,株式会社ＫＡＩＳＥＩ,,株式会社,千葉県,千葉市中央区,都町３丁目２０－１７千鳥ビル１０２号,,12,101,2600001,,,2024-07-23,合併による解散等,8370001050974,令和６年７月１日宮城県大崎市古川飯川字中新田３１番地株式会社藤機工（8370001050974）に合併し解散,2022-01-13,1,,,,,カイセイ,0
1930,9040002070698,登記記録の閉鎖等,0,2024-07-29,2024-07-11,株式会社ＱＵＡＲＴＺ,,株式会社,千葉県,君津市,南久保２丁目１４番１号,,12,225,2991154,,,2024-07-11,清算の結了等,,,2015-10-05,1,,,,,クオーツ,0
1937,9080102004271,登記記録の閉鎖等,0,2024-07-29,2024-07-25,有限会社真田緑地,,有限会社,静岡県,裾野市,下和田１５０番地の６,,22,220,4101105,,,2024-07-25,清算の結了等,,,2015-10-05,1,,,,,サナダリョクチ,0
1951,9120001211047,登記記録の閉鎖等,0,2024-07-29,2024-07-25,株式会社肉の口福屋,,株式会社,大阪府,大阪市住吉区,遠里小野７丁目４番１５号,,27,120,5580032,,,2024-07-25,清算の結了等,,,2018-01-31,1,,,,,,0
1962,9120105005741,登記記録の閉鎖等,0,2024-07-29,2024-07-23,医療法人河村小児科皮膚科,,その他の設立登記法人,大阪府,和泉市,弥生町３丁目８番７号,,27,219,5940061,,,2024-07-23,清算の結了等,,,2015-10-05,1,,,,,カワムラショウニカヒフカ,0
1976,9140002001619,登記記録の閉鎖等,0,2024-07-29,2024-07-24,有限会社サンセール,,有限会社,兵庫県,神戸市東灘区,本山北町３丁目７番２号,,28,101,6580003,,,2024-07-24,清算の結了等,,,2015-10-05,1,,,,,サンセール,0
1977,9140002011519,登記記録の閉鎖等,0,2024-07-29,2024-07-24,有限会社末廣鉄工所,,有限会社,兵庫県,神戸市兵庫区,中道通９丁目６番１１号,,28,105,6520801,,,2024-07-24,清算の結了等,,,2015-10-05,1,,,,,スエヒロテッコウショ,0
1979,9140002067263,登記記録の閉鎖等,0,2024-07-29,2024-07-24,有限会社長谷川商店,,有限会社,兵庫県,宝塚市,安倉中５丁目７番１６号,,28,214,6650822,,,2024-07-24,清算の結了等,,,2015-10-05,1,,,,,ハセガワショウテン,0
1986,9160002005428,登記記録の閉鎖等,0,2024-07-29,2024-07-24,有限会社マルサ,,有限会社,滋賀県,甲賀市,水口町本町１丁目７番１３号,,25,209,5280031,,,2024-07-24,清算の結了等,,,2015-10-05,1,,,,,マルサ,0
1990,9180001037098,登記記録の閉鎖等,0,2024-07-29,2024-07-10,株式会社杉野会舘ビル,,株式会社,愛知県,名古屋市中区,千代田５丁目１８番２２号,,23,106,4600012,,,2024-07-10,清算の結了等,,,2015-10-05,1,,,,,スギノカイカンビル,0
1998,9180002073919,登記記録の閉鎖等,0,2024-07-29,2024-07-10,有限会社瞳コーポレーション,,有限会社,愛知県,尾張旭市,緑町緑ケ丘１００番地２０５,,23,226,4880822,,,2024-07-10,清算の結了等,,,2015-10-05,1,,,,,ヒトミコーポレーション,0
2003,9190002006019,登記記録の閉鎖等,0,2024-07-29,2024-07-25,有限会社海の幸魚長,,有限会社,三重県,鈴鹿市,北若松町３６２番地,,24,207,5100221,,,2024-07-25,清算の結了等,,,2015-10-05,1,,,,,ウミノサチウオナガ,0
2007,9210001016486,登記記録の閉鎖等,0,2024-07-29,2024-07-19,株式会社菖蒲谷山林開発,,株式会社,福井県,福井市,菖蒲谷町第１６号１番地,,18,201,9103148,,,2024-07-19,清算の結了等,,,2016-10-07,1,,,,,ショウブダニサンリンカイハツ,0
2044,9370002004796,登記記録の閉鎖等,0,2024-07-29,2024-07-09,有限会社嘉藤金物店,,有限会社,宮城県,仙台市若林区,荒町１番地,,04,103,9840073,,,2024-07-09,清算の結了等,,,2015-10-05,1,,,,,カトウカナモノテン,0
2050,9380001025867,登記記録の閉鎖等,0,2024-07-29,2024-07-25,株式会社創明,,株式会社,福島県,郡山市,待池台１丁目５５番２５,,07,203,9630215,,,2024-07-25,清算の結了等,,,2015-10-05,1,,,,,,0
2058,9430001070164,登記記録の閉鎖等,0,2024-07-29,2024-07-18,株式会社さきがけ,,株式会社,北海道,札幌市東区,北十五条東１丁目１番１５号,,01,103,0650015,,,2024-07-18,清算の結了等,,,2015-10-29,1,,,,,サキガケ,0
