sequenceNumber,corporateNumber,process,correct,updateDate,changeDate,name,nameImageId,kind,prefectureName,cityName,streetNumber,addressImageId,prefectureCode,cityCode,postCode,addressOutside,addressOutsideImageId,closeDate,closeCause,successorCorporateNumber,changeCause,assignmentDate,latest,enName,enPrefectureName,enCityName,enAddressOutside,furigana,hihyoji
8,1010001232227,新規,0,2023-01-24,2023-01-24,株式会社スターシア・ベンチャー・スタジオ,,株式会社,東京都,千代田区,鍛冶町１丁目７番１１号ＫＣＡビル９階,,13,101,1010044,,,,,,,2023-01-24,1,,,,,スターシアベンチャースタジオ,0
9,1010001232433,新規,0,2023-01-24,2023-01-24,ＭＩＲＩＳＡ株式会社,,株式会社,東京都,文京区,本駒込１丁目１０－４白山第一ビル２Ｆ,,13,105,1130021,,,,,,,2023-01-24,1,,,,,ミリサ,0
11,1010005036153,新規,0,2023-01-24,2023-01-24,一般社団法人司法教育支援協会,,その他の設立登記法人,東京都,千代田区,平河町２丁目１１番１号,,13,101,1020093,,,,,,,2023-01-24,1,,,,,シホウキョウイクシエンキョウカイ,0
16,1010401172023,新規,0,2023-01-24,2023-01-24,株式会社ＦＵＫＵ,,株式会社,東京都,港区,三田５丁目２１番６－２０４号,,13,103,1080073,,,,,,,2023-01-24,1,,,,,フク,0
20,1010601062478,新規,0,2023-01-24,2023-01-24,ＡＵＳＣＯＭ株式会社,,株式会社,東京都,墨田区,錦糸１丁目２番１号アルカセントラル１４階,,13,107,1300013,,,,,,,2023-01-24,1,,,,,アスコム,0
22,1010603009956,新規,0,2023-01-24,2023-01-24,合同会社ＡＭＯＲ,,合同会社,東京都,江東区,北砂６丁目１６番６号アミーパレス山内ＩＩ３０３,00129189,13,108,1360073,,,,,,,2023-01-24,1,,,,,アモール,0
23,1011001152068,新規,0,2023-01-24,2023-01-24,株式会社Ｃｏ‐ＲｙＡＫＵ,,株式会社,東京都,渋谷区,神宮前６丁目２３番４号桑野ビル２階,,13,113,1500001,,,,,,,2023-01-24,1,,,,,コウリャク,0
33,1011101101602,新規,0,2023-01-24,2023-01-24,株式会社ｐａｌｅｔｔｅ　ｐｒｏｍｏｔｉｏｎ,,株式会社,東京都,新宿区,西新宿４丁目５番１０－１２０３号,,13,104,1600023,,,,,,,2023-01-24,1,,,,,パレットプロモーション,0
37,1011103012624,新規,0,2023-01-24,2023-01-24,合同会社リプルン,,合同会社,東京都,新宿区,西新宿３丁目３番１３号西新宿水間ビル,,13,104,1600023,,,,,,,2023-01-24,1,,,,,リプルン,0
58,1011805003243,新規,0,2023-01-24,2023-01-24,金光教亀有教会,,その他の設立登記法人,東京都,葛飾区,亀有２丁目８番５号,,13,122,1250061,,,,,,,2023-01-24,1,,,,,コンコウキョウカメアリキョウカイ,0
65,1012401040110,新規,0,2023-01-24,2023-01-24,株式会社ティーケーシー,,株式会社,東京都,武蔵野市,吉祥寺本町２丁目４番６号Ｈ－スクエア吉祥寺４０４,,13,203,1800004,,,,,,,2023-01-24,1,,,,,ティーケーシー,0
67,1012801022063,新規,0,2023-01-24,2023-01-24,東洋ビル株式会社,,株式会社,東京都,立川市,砂川町７丁目５６番地の４１,,13,202,1900031,,,,,,,2023-01-24,1,,,,,トウヨウビル,0
68,1013303006463,新規,0,2023-01-24,2023-01-24,合同会社Ｌａ・ＣＩＥＬ,,合同会社,東京都,豊島区,池袋２丁目２番６号パレス池袋５Ｆ,,13,116,1710014,,,,,,,2023-01-24,1,,,,,ラシエル,0
83,1020001149940,新規,0,2023-01-24,2023-01-24,株式会社ＬｉｔｔｌｅＧａｉｎ,,株式会社,神奈川県,横浜市港北区,鳥山町６１５番地２シャルム新横浜２０２,,14,109,2220035,,,,,,,2023-01-24,1,,,,,リトルゲイン,0
89,1020005015817,新規,0,2023-01-24,2023-01-24,一般社団法人ゆめ創造アシスト協会,,その他の設立登記法人,神奈川県,横浜市港南区,港南台４丁目１６番地１４号,,14,111,2340054,,,,,,,2023-01-24,1,,,,,ユメソウゾウアシストキョウカイ,0
95,1021001078015,新規,0,2023-01-24,2023-01-24,株式会社フィールドコーポレーション,,株式会社,神奈川県,茅ヶ崎市,菱沼１丁目１０番２９－１０２号グランデュール,,14,207,2530011,,,,,,,2023-01-24,1,,,,,フィールドコーポレーション,0
98,1021003012657,新規,0,2023-01-24,2023-01-24,合同会社ファルコニー,,合同会社,神奈川県,相模原市中央区,田名４６５１番地１４,,14,152,2520244,,,,,,,2023-01-24,1,,,,,ファルコニー,0
104,1030001151730,新規,0,2023-01-24,2023-01-24,ＢＥＡＴ　ＪＡＰＡＮ株式会社,,株式会社,埼玉県,川口市,芝樋ノ爪１丁目１０番２０号２１号室,,11,203,3330852,,,,,,,2023-01-24,1,,,,,ビートジャパン,0
105,1030001151986,新規,0,2023-01-24,2023-01-24,株式会社ルミエールオート,,株式会社,埼玉県,熊谷市,広瀬５１４番地１,,11,202,3600833,,,,,,,2023-01-24,1,,,,,ルミエールオート,0
106,1030001152068,新規,0,2023-01-24,2023-01-24,株式会社ａｎｉｍａｌ　ｐａｒｔｎｅｒｓ,,株式会社,埼玉県,さいたま市緑区,大字中野田６３－２ワークオフィスＦｅｌｉｃｅ２０２,,11,109,3360972,,,,,,,2023-01-24,1,,,,,アニマルマルパートナーズ,0
120,1050003007169,新規,0,2023-01-24,2023-01-24,合同会社ＷＨＥＥＬＳ　ＢＡＲ,,合同会社,茨城県,稲敷市,蒲ケ山１２３９番地４,,08,229,3000522,,,,,,,2023-01-24,1,,,,,ホイールズバー,0
121,1050005013198,新規,0,2023-01-24,2023-01-24,一般社団法人ｍａｋｕａｋｅひたち,,その他の設立登記法人,茨城県,日立市,滑川町２丁目２２番２１号,,08,202,3170053,,,,,,,2023-01-24,1,,,,,マクアケヒタチ,0
167,1120001251926,新規,0,2023-01-24,2023-01-24,株式会社ＫＹ,,株式会社,大阪府,大阪市福島区,福島３丁目１番４９－４０７号,,27,103,5530003,,,,,,,2023-01-24,1,,,,,ケイワイ,0
170,1120005023421,新規,0,2023-01-24,2023-01-24,医療法人スマイルビジョン,,その他の設立登記法人,大阪府,大阪市阿倍野区,帝塚山１丁目２番４号,00129198,27,119,5450037,,,,,,,2023-01-24,1,,,,,スマイルビジョン,0
172,1120101066877,新規,0,2023-01-24,2023-01-24,株式会社ＷＡＳ,,株式会社,大阪府,堺市北区,東三国ヶ丘町５丁６番１６－２０１号,,27,146,5918046,,,,,,,2023-01-24,1,,,,,ワズ,0
175,1122001036621,新規,0,2023-01-24,2023-01-24,株式会社Ｓａｍｕｒａｉ,,株式会社,大阪府,東大阪市,小阪１丁目２番２３号,,27,227,5770801,,,,,,,2023-01-24,1,,,,,サムライ,0
178,1130001073543,新規,0,2023-01-24,2023-01-24,京都アレス株式会社,,株式会社,京都府,京都市伏見区,羽束師古川町１１６番地９７柊荘１０６,,26,109,6128486,,,,,,,2023-01-24,1,,,,,キョウトアレス,0
181,1140001128809,新規,0,2023-01-24,2023-01-24,株式会社ＳＴソリューション,,株式会社,兵庫県,伊丹市,安堂寺町４丁目２０７番地,,28,207,6640864,,,,,,,2023-01-24,1,,,,,エスティーソリューション,0
182,1140001128825,新規,0,2023-01-24,2023-01-24,株式会社アセンブルデザイン,,株式会社,兵庫県,宝塚市,花屋敷荘園２丁目２番７号,,28,214,6650802,,,,,,,2023-01-24,1,,,,,アセンブルデザイン,0
183,1140001128866,新規,0,2023-01-24,2023-01-24,株式会社Ｎシステム,,株式会社,兵庫県,神戸市垂水区,山手４丁目９番５号,,28,108,6550891,,,,,,,2023-01-24,1,,,,,エヌシステム,0
201,1180001154685,新規,0,2023-01-24,2023-01-24,株式会社Ｈａｎｃｓ,,株式会社,愛知県,一宮市,木曽川町里小牧字清水５０番地,,23,203,4930005,,,,,,,2023-01-24,1,,,,,ハンクス,0
206,1180003024746,新規,0,2023-01-24,2023-01-24,合同会社エムサポート,,合同会社,愛知県,名古屋市中村区,太閤１丁目２０番１０号,,23,105,4530801,,,,,,,2023-01-24,1,,,,,エムサポート,0
207,1180003024754,新規,0,2023-01-24,2023-01-24,Ａ４Ｕ合同会社,,合同会社,愛知県,春日井市,藤山台１０丁目２２－２,,23,206,4870035,,,,,,,2023-01-24,1,,,,,エイフォーユ,0
223,1240001060992,新規,0,2023-01-24,2023-01-24,０．ｔｏ．１株式会社,,株式会社,広島県,広島市中区,立町５番７－５０１号,,34,101,7300032,,,,,,,2023-01-24,1,,,,,ゼロトゥーワン,0
231,1260001037601,新規,0,2023-01-24,2023-01-24,株式会社プレコア,,株式会社,岡山県,岡山市北区,万成西町１６番３０号,,33,101,7000073,,,,,,,2023-01-24,1,,,,,プレコア,0
240,1290001100281,新規,0,2023-01-24,2023-01-24,株式会社ＥＮＺＯ,,株式会社,福岡県,福岡市中央区,大名２丁目２番４２号ケイワン大名５０２,,40,133,8100041,,,,,,,2023-01-24,1,,,,,エンゾウ,0
242,1290003013449,新規,0,2023-01-24,2023-01-24,合同会社オメガ・インフィニティーズ,,合同会社,福岡県,福岡市南区,桧原１丁目３７番１１号,,40,134,8111355,,,,,,,2023-01-24,1,,,,,オメガインフィニティーズ,0
243,1290005018925,新規,0,2023-01-24,2023-01-24,特定非営利活動法人寺子屋塾光れ心,,その他の設立登記法人,福岡県,糸島市,波多江駅南１丁目１１番３号,,40,230,8191108,,,,,,,2023-01-24,1,,,,,テラコヤジュクヒカレココロ,0
245,1290801029233,新規,0,2023-01-24,2023-01-24,株式会社シンイ,,株式会社,福岡県,宮若市,倉久字山神３７４５番地２,,40,226,8230017,,,,,,,2023-01-24,1,,,,,シンイ,0
247,1300001013201,新規,0,2023-01-24,2023-01-24,株式会社ＭＰＭ,,株式会社,佐賀県,鳥栖市,曽根崎町１１６０番地５,,41,203,8410025,,,,,,,2023-01-24,1,,,,,エムピーエム,0
249,1320003003999,新規,0,2023-01-24,2023-01-24,合同会社Ｔｏｕｓｈｏｕ,,合同会社,大分県,大分市,都町３丁目５番２７号大原ビル４０３,,44,201,8700034,,,,,,,2023-01-24,1,,,,,トウショウ,0
266,1350003004276,新規,0,2023-01-24,2023-01-24,合同会社Ｌｅｂｅｎ　Ｒｏｏｍ,,合同会社,宮崎県,都城市,北原町１街区２４号,,45,202,8850024,,,,,,,2023-01-24,1,,,,,レーベンルーム,0
284,1370003005958,新規,0,2023-01-24,2023-01-24,合同会社資産管理サービス,,合同会社,宮城県,仙台市泉区,紫山４丁目９番地の１３,,04,105,9813205,,,,,,,2023-01-24,1,,,,,シサンカンリサービス,0
302,1470001019438,新規,0,2023-01-24,2023-01-24,株式会社サクセス,,株式会社,香川県,坂出市,江尻町１３０８番地１ロッソ・カロータＣ２０２号,,37,203,7620011,,,,,,,2023-01-24,1,,,,,サクセス,0
304,1490003001730,新規,0,2023-01-24,2023-01-24,合同会社鈴の音,,合同会社,高知県,香南市,野市町西野２５５１番地,,39,211,7815232,,,,,,,2023-01-24,1,,,,,スズノネ,0
308,1700150113892,新規,0,2023-01-24,2023-01-24,Ｎｏｒｔｈｅａｓｔ　Ｃｈｉｎａ　Ｉｎｖｅｓｔｏｒｓ　Ｌｔｄ．,,外国会社等,北海道,虻田郡留寿都村,字泉川２７番６の１００２,,01,397,0481711,ＶｉｓｔｒａＣｏｒｐｏｒａｔｅＳｅｒｖｉｃｅＣｅｎｔｒｅＷｉｃｋｈａｍｓＣａｙＩＩＲｏａｄＴｏｗｎＴｏｒｔｏｌａＶＧ１１１０ＢｒｉｔｉｓｈＶｉｒｇｉｎＩｓｌａｎｄｓ,00129183,,,,,2023-01-24,1,,,,,ノーザストチヤイナインベスターズエルテイーデイー,0
309,1700150113901,新規,0,2023-01-24,2023-01-24,Ｎａｎｏｂｉｔ　ｄ．ｏ．ｏ．,,外国会社等,,,,,,,,Ｒａｄｎｉ＿ｋａ　ｃｅｓｔａ　３７Ｂ　ＨＲ－１００００　Ｚａｇｒｅｂ，Ｃｒｏａｔｉａ,00129196,,,,,2023-01-24,1,,,,,ナノビツトデイーオーオー,0
310,1700150113918,新規,0,2023-01-24,2023-01-24,横内上自治会,,その他,香川県,東かがわ市,横内９７７－２,,37,207,7692603,,,,,,,2023-01-24,1,,,,,ヨコウチカミジチカイ,0
328,2010005036160,新規,0,2023-01-24,2023-01-24,Ｓｔａｒ一般社団法人,,その他の設立登記法人,東京都,千代田区,丸の内３丁目１番１号東京共同会計事務所内,,13,101,1000005,,,,,,,2023-01-24,1,,,,,スター,0
331,2010401171882,新規,0,2023-01-24,2023-01-24,株式会社ＩＮＯＲＩ,,株式会社,東京都,港区,東新橋１丁目１０番１号Ｌ棟１１０９号室,,13,103,1050021,,,,,,,2023-01-24,1,,,,,イノリ,0
333,2010403029360,新規,0,2023-01-24,2023-01-24,合同会社ジーニアス,,合同会社,東京都,港区,白金台２丁目１５番９号,,13,103,1080071,,,,,,,2023-01-24,1,,,,,ジーニアス,0
334,2010403029377,新規,0,2023-01-24,2023-01-24,ＳＫＹ　Ｆｉｎｖｅｓｔオフィス合同会社,,合同会社,東京都,港区,虎ノ門１丁目１６番６号虎ノ門Ｒａｐｏ－ｔｏビルＵＣＦ７階,,13,103,1050001,,,,,,,2023-01-24,1,,,,,エスケーワイフィンベストオフィス,0
335,2010405021720,新規,0,2023-01-24,2023-01-24,ＡＭＡパートナーズ税理士法人,,その他の設立登記法人,東京都,港区,高輪４丁目２３番４―８０３号高輪サンハイツ,,13,103,1080074,,,,,,,2023-01-24,1,,,,,エーエムエーパートナーズ,0
336,2010405021729,新規,0,2023-01-24,2023-01-24,ＹＡＮＡＧＩ一般社団法人,,その他の設立登記法人,東京都,港区,虎ノ門３丁目２２番１０－２０１号,,13,103,1050001,,,,,,,2023-01-24,1,,,,,ヤナギ,0
338,2010601062378,新規,0,2023-01-24,2023-01-24,株式会社キリエ,,株式会社,東京都,江東区,東雲１丁目９番３１－１７０１号,,13,108,1350062,,,,,,,2023-01-24,1,,,,,キリエ,0
339,2010601062469,新規,0,2023-01-24,2023-01-24,衆信旅游ＪＡＰＡＮ株式会社,,株式会社,東京都,墨田区,文花１丁目３４番１１－２０８号,,13,107,1310044,,,,,,,2023-01-24,1,,,,,シュウシンリョユウジャパン,0
340,2010603009955,新規,0,2023-01-24,2023-01-24,合同会社永遠,,合同会社,東京都,江東区,大島６丁目１番６－１０５３号,,13,108,1360072,,,,,,,2023-01-24,1,,,,,エイエン,0
344,2010801033625,新規,0,2023-01-24,2023-01-24,Ｎｏｖａ　Ａｃｅ株式会社,,株式会社,東京都,大田区,蒲田５丁目４５番１号ＹＭビル３０１,,13,111,1440052,,,,,,,2023-01-24,1,,,,,ノワエイス,0
346,2010901052392,新規,0,2023-01-24,2023-01-24,株式会社エフセット,,株式会社,東京都,世田谷区,代沢５丁目３６番１６号５Ｂ,,13,112,1550032,,,,,,,2023-01-24,1,,,,,エフセット,0
352,2011001151812,新規,0,2023-01-24,2023-01-24,株式会社全,,株式会社,東京都,渋谷区,本町１丁目１５番１９号セビルロー・オオタワ２０１,,13,113,1510071,,,,,,,2023-01-24,1,,,,,ゼン,0
353,2011001152067,新規,0,2023-01-24,2023-01-24,株式会社ｎｏｆｆｉｃｅ,,株式会社,東京都,渋谷区,宇田川町４番８号昭和ビル１０１,,13,113,1500042,,,,,,,2023-01-24,1,,,,,ノーフィス,0
354,2011001152166,新規,0,2023-01-24,2023-01-24,株式会社百年企業,,株式会社,東京都,渋谷区,渋谷２丁目７番１４号ＶＯＲＴＡＯＹＡＭＡ３０２,,13,113,1500002,,,,,,,2023-01-24,1,,,,,ヒャクネンキギョウ,0
359,2011005009916,新規,0,2023-01-24,2023-01-24,一般社団法人グランドオペラジャパン,,その他の設立登記法人,東京都,渋谷区,千駄ヶ谷１丁目２５番１２号二期会会館内,,13,113,1510051,,,,,,,2023-01-24,1,,,,,グランドオペラジャパン,0
360,2011005009924,新規,0,2023-01-24,2023-01-24,弁護士法人ＡＣＴ,,その他の設立登記法人,東京都,渋谷区,渋谷１丁目７番４号青山小林ビル２階,,13,113,1500002,,,,,,,2023-01-24,1,,,,,アクト,0
366,2011101101551,新規,0,2023-01-24,2023-01-24,株式会社ジェイエステート,,株式会社,東京都,新宿区,百人町１丁目２０番５号新宿葵ビル,,13,104,1690073,,,,,,,2023-01-24,1,,,,,,0
380,2011301028405,新規,0,2023-01-24,2023-01-24,株式会社ユーザーヒアリング,,株式会社,東京都,杉並区,松庵１丁目１７番２３号,,13,115,1670054,,,,,,,2023-01-24,1,,,,,ユーザーヒアリング,0
382,2011401024849,新規,0,2023-01-24,2023-01-24,株式会社ガーネット,,株式会社,東京都,板橋区,小豆沢４丁目１２－１,,13,119,1740051,,,,,,,2023-01-24,1,,,,,ガーネット,0
393,2012403005787,新規,0,2023-01-24,2023-01-24,合同会社ＬＩＳＨ,,合同会社,東京都,府中市,紅葉丘２丁目１０番地の１,,13,206,1830004,,,,,,,2023-01-24,1,,,,,リッシュ,0
398,2013301050207,新規,0,2023-01-24,2023-01-24,シマテン株式会社,,株式会社,東京都,豊島区,東池袋２丁目６３－５日興パレス池袋２０１号室,,13,116,1700013,,,,,,,2023-01-24,1,,,,,シマテン,0
405,2020001149543,新規,0,2023-01-24,2023-01-24,株式会社ＳｉＬｖｅｒ　ＧｅｎｅｒａＬ,,株式会社,神奈川県,川崎市川崎区,南町１５－１１ベイヒルズカワサキ６０１号室,,14,131,2100015,,,,,,,2023-01-24,1,,,,,シルバージェネラル,0
411,2020003023176,新規,0,2023-01-24,2023-01-24,Ｃａｔａｌｙｓｋｉ合同会社,,合同会社,神奈川県,横浜市西区,北幸２丁目１０番地２８むつみビル３Ｆ,,14,103,2200004,,,,,,,2023-01-24,1,,,,,カタリスキー,0
414,2021001078030,新規,0,2023-01-24,2023-01-24,株式会社ＡＢガーデン,,株式会社,神奈川県,相模原市南区,文京１丁目６番２１号ラフォルテ町田１０３,,14,153,2520307,,,,,,,2023-01-24,1,,,,,エービーガーデン,0
415,2021003012656,新規,0,2023-01-24,2023-01-24,Ｂ＆ＢＳ合同会社,,合同会社,神奈川県,藤沢市,下土棚４６８番地ベルーガ湘南１０２,,14,205,2520807,,,,,,,2023-01-24,1,,,,,ビーアンドビーエス,0
425,2040001126755,新規,0,2023-01-24,2023-01-24,株式会社キャンディークリーニング,,株式会社,千葉県,四街道市,吉岡１１６８番地７,,12,228,2840032,,,,,,,2023-01-24,1,,,,,キャンディークリーニング,0
429,2040003021748,新規,0,2023-01-24,2023-01-24,合同会社ＴＭＰ商会,,合同会社,千葉県,山武市,松尾町本水深７３１番地１,,12,237,2891525,,,,,,,2023-01-24,1,,,,,ティエムピーショウカイ,0
431,2050003007168,新規,0,2023-01-24,2023-01-24,ＮＯＹＡ　ＥＮＴＥＲＰＲＩＳＥＳ合同会社,,合同会社,茨城県,坂東市,大谷口２９４番地１－２,,08,228,3060621,,,,,,,2023-01-24,1,,,,,ノヤエンタープライセス,0
432,2050005013197,新規,0,2023-01-24,2023-01-24,一般社団法人Ｍａｋｅ　Ｂｏｎｄ　Ｌａｂｏ,,その他の設立登記法人,茨城県,神栖市,矢田部７９５６番地９,,08,232,3140341,,,,,,,2023-01-24,1,,,,,メイクボンドラボ,0
444,2060003004387,新規,0,2023-01-24,2023-01-24,合同会社ＮＺＡ,,合同会社,栃木県,栃木市,境町２８番１７号,,09,203,3280043,,,,,,,2023-01-24,1,,,,,エヌゼットエー,0
445,2070001040053,新規,0,2023-01-24,2023-01-24,ギトー食品株式会社,,株式会社,群馬県,前橋市,鳥取町１２３番地,,10,201,3710131,,,,,,,2023-01-24,1,,,,,ギトーショクヒン,0
454,2080001025425,新規,0,2023-01-24,2023-01-24,株式会社ｍｏｕ,,株式会社,静岡県,静岡市駿河区,小黒２丁目６番１５－３０１号,,22,102,4228072,,,,,,,2023-01-24,1,,,,,ムウ,0
456,2080401026270,新規,0,2023-01-24,2023-01-24,スリーシーズ株式会社,,株式会社,静岡県,浜松市中区,茄子町３５２番地の１３,,22,131,4300912,,,,,,,2023-01-24,1,,,,,スリーシーズ,0
457,2080403004704,新規,0,2023-01-24,2023-01-24,サイバーハブジャパン合同会社,,合同会社,静岡県,掛川市,秋葉路２９－１５,,22,213,4360041,,,,,,,2023-01-24,1,,,,,サイバーハブジャパン,0
466,2120001251941,新規,0,2023-01-24,2023-01-24,株式会社ＰＥＰＯＴＢＥＮＤＳ,,株式会社,大阪府,大阪市福島区,福島４丁目４番４３号１階,,27,103,5530003,,,,,,,2023-01-24,1,,,,,ペポットベンズ,0
467,2120001251966,新規,0,2023-01-24,2023-01-24,三合久美株式会社,,株式会社,大阪府,大阪市中央区,南船場４丁目９番１２号朝日プラザ心斎橋北５０４号,,27,128,5420081,,,,,,,2023-01-24,1,,,,,サンゴウクミ,0
474,2122001036620,新規,0,2023-01-24,2023-01-24,株式会社藤元物流,,株式会社,大阪府,東大阪市,横小路町５丁目５番２２号,,27,227,5798063,,,,,,,2023-01-24,1,,,,,フジモトブツリュウ,0
486,2140001128824,新規,0,2023-01-24,2023-01-24,京株式会社,,株式会社,兵庫県,神戸市中央区,南本町通２丁目２番２号,,28,110,6510074,,,,,,,2023-01-24,1,,,,,ケイ,0
487,2140001128849,新規,0,2023-01-24,2023-01-24,株式会社ジャパンＴＪコーポレーション,,株式会社,兵庫県,神戸市中央区,中山手通７丁目１６番１号,,28,110,6500004,,,,,,,2023-01-24,1,,,,,ジャパンティージェイコーポレーション,0
488,2140001128857,新規,0,2023-01-24,2023-01-24,株式会社助吉,,株式会社,兵庫県,西宮市,松生町１４－１２,,28,204,6620076,,,,,,,2023-01-24,1,,,,,スケキチ,0
489,2140001128865,新規,0,2023-01-24,2023-01-24,株式会社ＤＥＮ,,株式会社,兵庫県,神戸市東灘区,本山北町４丁目２番１１－２０１号,,28,101,6580003,,,,,,,2023-01-24,1,,,,,デン,0
494,2140003018627,新規,0,2023-01-24,2023-01-24,合同会社ＭＤＲＹ,,合同会社,兵庫県,尼崎市,北城内８８番地の１４,,28,202,6600826,,,,,,,2023-01-24,1,,,,,ミドリ,0
495,2150001026127,新規,0,2023-01-24,2023-01-24,ｒｅｓｔａｒｔ株式会社,,株式会社,奈良県,生駒郡斑鳩町,龍田３丁目２番９号,00129192,29,344,6360152,,,,,,,2023-01-24,1,,,,,リスタート,0
509,2180001154676,新規,0,2023-01-24,2023-01-24,株式会社三葉,,株式会社,愛知県,名古屋市中区,錦３丁目８番１号ＯＡＳＩＳ－７Ａ号室,,23,106,4600003,,,,,,,2023-01-24,1,,,,,サンヨウ,0
516,2210001019215,新規,0,2023-01-24,2023-01-24,株式会社クラシオ,,株式会社,福井県,福井市,新田塚２丁目９３－５,,18,201,9100067,,,,,,,2023-01-24,1,,,,,クラシオ,0
519,2240001060991,新規,0,2023-01-24,2023-01-24,株式会社ＨＫ工業,,株式会社,広島県,広島市安佐北区,小河原町６１番１９号,,34,106,7391754,,,,,,,2023-01-24,1,,,,,エイチケーコウギョウ,0
522,2260003004169,新規,0,2023-01-24,2023-01-24,合同会社一期一会,,合同会社,岡山県,総社市,中央１丁目８番３４号,,33,208,7191131,,,,,,,2023-01-24,1,,,,,イチゴイチエ,0
525,2280005007531,新規,0,2023-01-24,2023-01-24,医療法人ＵＥＤＡ会,,その他の設立登記法人,島根県,松江市,西津田７丁目１１番１５号,,32,201,6900017,,,,,,,2023-01-24,1,,,,,ウエダカイ,0
537,2330001030531,新規,0,2023-01-24,2023-01-24,株式会社ｉｔ,,株式会社,熊本県,熊本市中央区,新町２丁目１２番２６号７０３,,43,101,8600004,,,,,,,2023-01-24,1,,,,,イット,0
542,2330005010612,新規,0,2023-01-24,2023-01-24,一般社団法人球磨川ＮＰ,,その他の設立登記法人,熊本県,球磨郡あさぎり町,岡原北１３５４番地１,,43,514,8680431,,,,,,,2023-01-24,1,,,,,クマガワエヌピー,0
543,2340001025316,新規,0,2023-01-24,2023-01-24,株式会社Ｔ‐ｐｌａＮ,,株式会社,鹿児島県,鹿児島市,常磐一丁目２５番２５号,,46,201,8900000,,,,,,,2023-01-24,1,,,,,ティープラン,0
545,2350001018145,新規,0,2023-01-24,2023-01-24,株式会社クレアシア,,株式会社,宮崎県,宮崎市,月見ケ丘２丁目２４番７号,,45,201,8800926,,,,,,,2023-01-24,1,,,,,クレアシア,0
546,2360001031469,新規,0,2023-01-24,2023-01-24,株式会社デジスター,,株式会社,沖縄県,那覇市,天久２丁目１６番１２号ｌａ・ｌｉｂｅｒｔｅ４０３,,47,201,9000005,,,,,,,2023-01-24,1,,,,,デジスター,0
557,2370005010591,新規,0,2023-01-24,2023-01-24,一般社団法人村田町観光物産協会,,その他の設立登記法人,宮城県,柴田郡村田町,大字村田字迫６番地,,04,322,9891305,,,,,,,2023-01-24,1,,,,,ムラタマチカンコウブッサンキョウカイ,0
578,2480001011987,新規,0,2023-01-24,2023-01-24,株式会社Ｍ．Ａ．Ｋ．Ｋ,,株式会社,徳島県,小松島市,金磯町８番１２４号,,36,203,7730007,,,,,,,2023-01-24,1,,,,,エムエーケーケー,0
579,2490001010385,新規,0,2023-01-24,2023-01-24,株式会社ＯＵＴＥＲ,,株式会社,高知県,香美市,土佐山田町旭町２丁目２番２２号,,39,212,7820033,,,,,,,2023-01-24,1,,,,,アウター,0
584,2700150113891,新規,0,2023-01-24,2023-01-24,Ｍａｃｇｏ＆Ｃｏ．，Ｌｉｍｉｔｅｄ,,外国会社等,北海道,虻田郡倶知安町,字樺山３８番２４－６０１,,01,400,0440078,Ｆｌａｔ／Ｒｍ９０２９／ＦＳｏｌｏＷｏｒｋｓｈｏｐｓ１３１－１３２ＣｏｎｎａｕｇｈｔＲｏａｄＷｅｓｔＨｏｎｇＫｏｎｇ,,,,,,2023-01-24,1,,,,,マクゴアンドシーオーリミテツド,0
596,3010401172038,新規,0,2023-01-24,2023-01-24,株式会社ｑｕｏｎ,,株式会社,東京都,港区,南青山３丁目１番３６号青山丸竹ビル６Ｆ,,13,103,1070062,,,,,,,2023-01-24,1,,,,,クオン,0
597,3010401172046,新規,0,2023-01-24,2023-01-24,ＲＥＡＬＩＴＹ　ＸＲ　ｃｌｏｕｄ株式会社,,株式会社,東京都,港区,六本木６丁目１１番１号,,13,103,1060032,,,,,,,2023-01-24,1,,,,,リアリティエックスアールクラウド,0
598,3010401172062,新規,0,2023-01-24,2023-01-24,ＧＣＪＩ１０株式会社,,株式会社,東京都,港区,元赤坂１丁目１番８号株式会社赤坂国際会計内,,13,103,1070051,,,,,,,2023-01-24,1,,,,,ジーシージェイアイテン,0
607,3010603009954,新規,0,2023-01-24,2023-01-24,Ｗｅａｌｔｈ　Ｍａｎａｇｅｍｅｎｔ合同会社,,合同会社,東京都,江東区,東陽４丁目７番３５－１２０２号,,13,108,1350016,,,,,,,2023-01-24,1,,,,,ウェルスマネージメント,0
608,3010701043756,新規,0,2023-01-24,2023-01-24,株式会社Ｆｏｒｅｓｉｇｈｔ　Ｍｉ,,株式会社,東京都,品川区,小山６丁目７番１４号４０１,,13,109,1420062,,,,,,,2023-01-24,1,,,,,フォーサイトミイ,0
620,3011003016120,新規,0,2023-01-24,2023-01-24,Ｙｏｓａｍｉ合同会社,,合同会社,東京都,渋谷区,渋谷２丁目１９－１５宮益坂ビルディング６０９,,13,113,1500002,,,,,,,2023-01-24,1,,,,,ヨサミ,0
621,3011003016129,新規,0,2023-01-24,2023-01-24,アウルム合同会社,,合同会社,東京都,渋谷区,桜丘町２６－１セルリアンタワー１５階,,13,113,1500031,,,,,,,2023-01-24,1,,,,,アウルム,0
626,3011101101600,新規,0,2023-01-24,2023-01-24,株式会社クラウド,,株式会社,東京都,新宿区,西新宿３丁目２番９号,,13,104,1600023,,,,,,,2023-01-24,1,,,,,クラウド,0
627,3011101101609,新規,0,2023-01-24,2023-01-24,株式会社Ｋｉｒｕａ,,株式会社,東京都,新宿区,西新宿３丁目３番１３号西新宿水間ビル６階,,13,104,1600023,,,,,,,2023-01-24,1,,,,,キルア,0
638,3011301028404,新規,0,2023-01-24,2023-01-24,株式会社ＳＨＯＷ,,株式会社,東京都,杉並区,高円寺南１丁目２４番１４－６０３号,,13,115,1660003,,,,,,,2023-01-24,1,,,,,ショウ,0
639,3011401024848,新規,0,2023-01-24,2023-01-24,株式会社ＤＭ商事,,株式会社,東京都,板橋区,赤塚新町３丁目３４番３号,,13,119,1750093,,,,,,,2023-01-24,1,,,,,ディーエムショウジ,0
640,3011403003890,新規,0,2023-01-24,2023-01-24,合同会社エヌジーアール,,合同会社,東京都,板橋区,板橋１丁目５３番３－７０３号信友板橋ビル,,13,119,1730004,,,,,,,2023-01-24,1,,,,,エヌジーアール,0
641,3011501028823,新規,0,2023-01-24,2023-01-24,株式会社Ｉｚａｎａ,,株式会社,東京都,荒川区,東日暮里６丁目５９－８,,13,118,1160014,,,,,,,2023-01-24,1,,,,,イザナ,0
642,3011503005440,新規,0,2023-01-24,2023-01-24,アストラロード合同会社,,合同会社,東京都,荒川区,西日暮里６丁目１７番１０号,,13,118,1160013,,,,,,,2023-01-24,1,,,,,アストラロード,0
657,3011801041831,新規,0,2023-01-24,2023-01-24,株式会社エルハウス,,株式会社,東京都,足立区,千住仲町５番４号,,13,121,1200036,,,,,,,2023-01-24,1,,,,,エルハウス,0
659,3012403005794,新規,0,2023-01-24,2023-01-24,合同会社ＢＶＫ,,合同会社,東京都,調布市,仙川町２丁目１２番地８号,,13,208,1820002,,,,,,,2023-01-24,1,,,,,ビーブイケー,0
662,3012803002986,新規,0,2023-01-24,2023-01-24,てくたく合同会社,,合同会社,東京都,立川市,若葉町４丁目２５―１,,13,202,1900001,,,,,,,2023-01-24,1,,,,,テクタク,0
681,3020005015823,新規,0,2023-01-24,2023-01-24,特定非営利活動法人にゃぶ・猫を保護する人を増やす会,,その他の設立登記法人,神奈川県,横浜市泉区,和泉町５９９７番地８,,14,116,2450016,,,,,,,2023-01-24,1,,,,,ニャブネコヲホゴスルヒトヲフヤスカイ,0
691,3030003021013,新規,0,2023-01-24,2023-01-24,合同会社かなた,,合同会社,埼玉県,さいたま市緑区,宮本２丁目２８番地１０,,11,109,3360916,,,,,,,2023-01-24,1,,,,,カナタ,0
693,3030005021127,新規,0,2023-01-24,2023-01-24,一般社団法人あげおメディカルアライアンス,,その他の設立登記法人,埼玉県,上尾市,柏座１丁目１０番１０号,,11,219,3620075,,,,,,,2023-01-24,1,,,,,アゲオメディカルアライアンス,0
704,3040003021739,新規,0,2023-01-24,2023-01-24,成泰合同会社,,合同会社,千葉県,柏市,西町１３番３０号,,12,217,2770844,,,,,,,2023-01-24,1,,,,,セイタイ,0
705,3040003021747,新規,0,2023-01-24,2023-01-24,合同会社ＭｅｄＭｅｄｉａ,,合同会社,千葉県,富里市,日吉台２丁目２１番地４,,12,233,2860201,,,,,,,2023-01-24,1,,,,,メドメディア,0
706,3040005021885,新規,0,2023-01-24,2023-01-24,一般社団法人幸せなコミュニティとつながり実践研究所,,その他の設立登記法人,千葉県,市川市,大野町２丁目６５７番地３,,12,203,2720805,,,,,,,2023-01-24,1,,,,,シアワセナコミュニティトツナガリジッセンケンキュウジョ,0
737,3080001025424,新規,0,2023-01-24,2023-01-24,株式会社ニシダテ,,株式会社,静岡県,牧之原市,坂部２３７２番地１,,22,226,4210412,,,,,,,2023-01-24,1,,,,,ニシダテ,0
757,3120001251833,新規,0,2023-01-24,2023-01-24,株式会社ＣＯＬ,,株式会社,大阪府,大阪市中央区,久太郎町２丁目３番８号ハイム船場２０２号室,,27,128,5410056,,,,,,,2023-01-24,1,,,,,シーオーエル,0
758,3120001251866,新規,0,2023-01-24,2023-01-24,斉魯株式会社,,株式会社,大阪府,大阪市生野区,巽北１丁目１番１号２Ｆ－Ａ,00129184,27,116,5440004,,,,,,,2023-01-24,1,,,,,サイロ,0
759,3120001251965,新規,0,2023-01-24,2023-01-24,株式会社Ｇａｌａｘｙ,,株式会社,大阪府,大阪市中央区,日本橋１丁目２４－６－１Ａ,,27,128,5420073,,,,,,,2023-01-24,1,,,,,ギャラクシー,0
760,3120003023090,新規,0,2023-01-24,2023-01-24,ＮＡＩＭ合同会社,,合同会社,大阪府,大阪市中央区,北久宝寺町１丁目２－１－５０３,,27,128,5410057,,,,,,,2023-01-24,1,,,,,ナイン,0
761,3120003023264,新規,0,2023-01-24,2023-01-24,合同会社ファースト,,合同会社,大阪府,大阪市平野区,喜連１丁目１番２８号,,27,126,5470027,,,,,,,2023-01-24,1,,,,,ファースト,0
771,3140001128848,新規,0,2023-01-24,2023-01-24,株式会社ジーエィピー,,株式会社,兵庫県,神戸市長田区,海運町７丁目６番１０号,,28,106,6530052,,,,,,,2023-01-24,1,,,,,ジーエィピー,0
772,3140001128856,新規,0,2023-01-24,2023-01-24,株式会社ＡＩＲＥ,,株式会社,兵庫県,神戸市東灘区,深江南町１丁目１番２６－１号,,28,101,6580022,,,,,,,2023-01-24,1,,,,,アイレ,0
773,3140003018626,新規,0,2023-01-24,2023-01-24,合同会社ｌａｔ,,合同会社,兵庫県,尼崎市,塚口町１丁目１０番地４,,28,202,6610002,,,,,,,2023-01-24,1,,,,,ラット,0
775,3150001026126,新規,0,2023-01-24,2023-01-24,株式会社イーグルホーム,,株式会社,奈良県,橿原市,葛本町３１２番地３,,29,205,6340007,,,,,,,2023-01-24,1,,,,,イーグルホーム,0
789,3180001154675,新規,0,2023-01-24,2023-01-24,クリスプ株式会社,,株式会社,愛知県,名古屋市港区,入場２丁目５０１番地,,23,111,4550803,,,,,,,2023-01-24,1,,,,,クリスプ,0
795,3180003024728,新規,0,2023-01-24,2023-01-24,スケットセブン合同会社,,合同会社,愛知県,名古屋市中村区,名駅４丁目２４番５号第２森ビル４０１,,23,105,4500002,,,,,,,2023-01-24,1,,,,,スケットセブン,0
799,3180301037019,新規,0,2023-01-24,2023-01-24,株式会社藍,,株式会社,愛知県,豊田市,上丘町八ツ田３１番地１,,23,211,4730931,,,,,,,2023-01-24,1,,,,,アイ,0
800,3180301037035,新規,0,2023-01-24,2023-01-24,株式会社佰順,,株式会社,愛知県,豊田市,山之手７丁目５５番地ハイレジデンス第一山之手苑１階７号室,,23,211,4710833,,,,,,,2023-01-24,1,,,,,ハクジュン,0
814,3240001060982,新規,0,2023-01-24,2023-01-24,株式会社世勝,,株式会社,広島県,福山市,新涯町５丁目２０番１７号,,34,207,7210955,,,,,,,2023-01-24,1,,,,,セイショウ,0
817,3260005011187,新規,0,2023-01-24,2023-01-24,一般社団法人岡山県軟式野球連盟,,その他の設立登記法人,岡山県,岡山市東区,城東台南２丁目１１番５号,,33,103,7090623,,,,,,,2023-01-24,1,,,,,オカヤマケンナンシキヤキュウレンメイ,0
826,3290001100321,新規,0,2023-01-24,2023-01-24,株式会社Ｓｅｉｓｉｎ　Ｗｏｒｌｄ　Ｔｏｕｒ　Ｍａｓｔｅｒ,,株式会社,福岡県,福岡市博多区,奈良屋町８番１０号,,40,132,8120023,,,,,,,2023-01-24,1,,,,,セイシンワールドツアーマスター,0
835,3330001030514,新規,0,2023-01-24,2023-01-24,株式会社Ｍ’ｓ,,株式会社,熊本県,菊池郡菊陽町,大字津久礼１９番地１８,,43,404,8691101,,,,,,,2023-01-24,1,,,,,エムズ,0
844,3330005010611,新規,0,2023-01-24,2023-01-24,税理士法人八代綜合税理士事務所,,その他の設立登記法人,熊本県,八代市,西松江城町２番８号,,43,202,8660863,,,,,,,2023-01-24,1,,,,,ヤツシロソウゴウゼイリシジムショ,0
845,3340001025315,新規,0,2023-01-24,2023-01-24,株式会社阿久根自動車商会,,株式会社,鹿児島県,薩摩川内市,中郷３丁目２９３番地,,46,215,8950072,,,,,,,2023-01-24,1,,,,,アクネジドウシャショウカイ,0
846,3340003004028,新規,0,2023-01-24,2023-01-24,合同会社ＰＩＮＥＴＡＩＬ,,合同会社,鹿児島県,西之表市,西之表１４４１５番地２４,,46,213,8913101,,,,,,,2023-01-24,1,,,,,パインテイル,0
848,3350001018144,新規,0,2023-01-24,2023-01-24,株式会社ウツス,,株式会社,宮崎県,宮崎市,大字本郷北方２５００番地４０,,45,201,8800925,,,,,,,2023-01-24,1,,,,,ウツス,0
851,3360003012656,新規,0,2023-01-24,2023-01-24,イ・ジョ合同会社,,合同会社,沖縄県,那覇市,字大道７８番地２０、１Ｆ,,47,201,9020066,,,,,,,2023-01-24,1,,,,,イジョ,0
875,3460101007325,新規,0,2023-01-24,2023-01-24,株式会社Ｋ和左官,,株式会社,北海道,河東郡音更町,ひびき野西町２丁目５番地１０,,01,631,0800163,,,,,,,2023-01-24,1,,,,,ケイワサカン,0
879,3700150113016,新規,0,2023-01-24,2023-01-24,Ｌｉｎｄｓａｙ　Ｔｒａｎｓｐｏｒｔａｔｉｏｎ　Ｓｏｌｕｔｉｏｎｓ　Ｓａｌｅｓ＆Ｓｅｒｖｉｃｅ．ＬＬＣ,,外国会社等,,,,,,,,１８０　Ｒｉｖｅｒ　Ｒｏａｄ，Ｒｉｏ　Ｖｉｓｔａ，ＣＡ　９４５７１　ＵＳＡ,,,,,,2023-01-24,1,,,,,リンゼイトランスポーテーシヨンソリユーシヨンズセールスアンドサービスエルエルシー,0
880,3700150113916,新規,0,2023-01-24,2023-01-24,Ｆｏｓｈａｎ　Ｋａｉｙｉ　Ｅｌｅｃｔｒｏｎｉｃ　Ｔｅｃｈｎｏｌｏｇｙ　Ｃｏ．，Ｌｔｄ,,外国会社等,,,,,,,,４６，Ｂａｏｌｉｙｕａｎ，Ｙａｎｂｕ，Ｄａｌｉ　Ｔｏｗｎ，Ｎａｎｈａｉ　Ｄｉｓｔｒｉｃｔ，Ｆｏｓｈａｎ　Ｃｉｔｙ,,,,,,2023-01-24,1,,,,,フオサンカイイエレクトロニクステクノロジーカンパニーリミテツド,0
881,3700150113924,新規,0,2023-01-24,2023-01-24,テュンガ・インターナショナル・トレーディング・プライベート・リミテド,,外国会社等,東京都,八王子市,台町４丁目３３－８月ビル３０６号,,13,201,1930931,ネパール連邦民主共和国カトマンズ市第１６区ナヤズ・バザール,,,,,,2023-01-24,1,,,,,テユンガインターナシヨナルトレーデイングプライベートリミテド,0
891,4010003039650,新規,0,2023-01-24,2023-01-24,合同会社ＨＹ０１,,合同会社,東京都,千代田区,丸の内１丁目１１番１号パシフィックセンチュリープレイス丸の内２８階,,13,101,1000005,,,,,,,2023-01-24,1,,,,,エイチワイゼロイチ,0
892,4010005036159,新規,0,2023-01-24,2023-01-24,山城税理士法人,,その他の設立登記法人,東京都,千代田区,神田駿河台１丁目５番６号コトー駿河台１１３号室,,13,101,1010062,,,,,,,2023-01-24,1,,,,,ヤマシロ,0
899,4010401172037,新規,0,2023-01-24,2023-01-24,幸和ライフ株式会社,,株式会社,東京都,港区,西新橋１丁目２番９号日比谷セントラルビル１４階,,13,103,1050003,,,,,,,2023-01-24,1,,,,,コウワライフ,0
900,4010401172045,新規,0,2023-01-24,2023-01-24,ＲＥＡＬＩＴＹ　Ｓｔｕｄｉｏｓ株式会社,,株式会社,東京都,港区,六本木６丁目１１番１号,,13,103,1060032,,,,,,,2023-01-24,1,,,,,リアリティスタジオ,0
901,4010501049894,新規,0,2023-01-24,2023-01-24,ミレアーク労務パートナーズ株式会社,,株式会社,東京都,台東区,上野７丁目９番９－３１０号,,13,106,1100005,,,,,,,2023-01-24,1,,,,,ミレアークロウムパートナーズ,0
905,4010601062483,新規,0,2023-01-24,2023-01-24,株式会社福八,,株式会社,東京都,墨田区,太平４丁目１番１－２００３号,,13,107,1300012,,,,,,,2023-01-24,1,,,,,フクヤ,0
907,4010701043763,新規,0,2023-01-24,2023-01-24,株式会社ＹＳｔｏｒｙ,,株式会社,東京都,品川区,西大井６丁目１－１－２０２,,13,109,1400015,,,,,,,2023-01-24,1,,,,,ワイストーリー,0
913,4010901052399,新規,0,2023-01-24,2023-01-24,株式会社ＪＩＲＯＭＯ,,株式会社,東京都,世田谷区,鎌田２丁目１５－２７,,13,112,1570077,,,,,,,2023-01-24,1,,,,,ジロモ,0
921,4011001152065,新規,0,2023-01-24,2023-01-24,株式会社Ｃ‐ＢＲＩＧＨＴ,,株式会社,東京都,渋谷区,神宮前６丁目２３番４号桑野ビル２階,,13,113,1500001,,,,,,,2023-01-24,1,,,,,シーブライト,0
922,4011001152180,新規,0,2023-01-24,2023-01-24,株式会社Ｒｅｌｉｆｅ　ｔｅｃｈｎｏｌｏｇｙ,,株式会社,東京都,渋谷区,神南１丁目８番１８－３０８号,,13,113,1500041,,,,,,,2023-01-24,1,,,,,リライフテクノロジー,0
924,4011003016078,新規,0,2023-01-24,2023-01-24,Ｆｉｒｓｔ　Ｃｉｒｃｌｅ合同会社,,合同会社,東京都,渋谷区,神泉町１０番１５号,,13,113,1500045,,,,,,,2023-01-24,1,,,,,ファーストサークル,0
925,4011003016144,新規,0,2023-01-24,2023-01-24,合同会社ＳＹＣ,,合同会社,東京都,渋谷区,道玄坂２丁目２０－２６藤和エクシール道玄坂２０１,,13,113,1500043,,,,,,,2023-01-24,1,,,,,エスワイシー,0
926,4011003016160,新規,0,2023-01-24,2023-01-24,ブライトストン合同会社,,合同会社,東京都,目黒区,青葉台１丁目１０―１１―２１６,,13,110,1530042,,,,,,,2023-01-24,1,,,,,ブライトストン,0
928,4011101101599,新規,0,2023-01-24,2023-01-24,株式会社Ａｍｕｓｅｒ,,株式会社,東京都,新宿区,西新宿７丁目７番地３３号新銘ビル４階,,13,104,1600023,,,,,,,2023-01-24,1,,,,,アミュゼ,0
929,4011101101608,新規,0,2023-01-24,2023-01-24,株式会社サードパーティ,,株式会社,東京都,新宿区,新宿７丁目２６－７ビクセル新宿１Ｆ,,13,104,1600022,,,,,,,2023-01-24,1,,,,,サードパーティ,0
938,4011301028394,新規,0,2023-01-24,2023-01-24,株式会社ＳＴＡＲＴベンチャーズ,,株式会社,東京都,杉並区,永福３丁目１０－４,,13,115,1680064,,,,,,,2023-01-24,1,,,,,スタートベンチャーズ,0
939,4011303004641,新規,0,2023-01-24,2023-01-24,合同会社Ｍｏｏｎ,,合同会社,東京都,杉並区,桃井２丁目２番７－４０２号,,13,115,1670034,,,,,,,2023-01-24,1,,,,,ムーン,0
940,4011401024847,新規,0,2023-01-24,2023-01-24,ビーケン工業株式会社,,株式会社,東京都,板橋区,蓮根２丁目１２番５号,,13,119,1740046,,,,,,,2023-01-24,1,,,,,ビーケンコウギョウ,0
943,4011501028896,新規,0,2023-01-24,2023-01-24,和川吉株式会社,,株式会社,東京都,北区,田端１丁目７－１６バリーロマーネ１０２号室,,13,117,1140014,,,,,,,2023-01-24,1,,,,,ワカワキチ,0
959,4012401040099,新規,0,2023-01-24,2023-01-24,ＥＲアナリスト・ジャパン株式会社,,株式会社,東京都,三鷹市,下連雀３丁目３５番１号,,13,204,1810013,,,,,,,2023-01-24,1,,,,,イーアールアナリストジャパン,0
964,4012803002985,新規,0,2023-01-24,2023-01-24,合同会社ユウエステート,,合同会社,東京都,日野市,豊田３丁目２７番地の１４,,13,212,1910053,,,,,,,2023-01-24,1,,,,,ユウエステート,0
983,4021003012646,新規,0,2023-01-24,2023-01-24,合同会社隆善,,合同会社,神奈川県,相模原市緑区,下九沢１７０番地７,,14,151,2520134,,,,,,,2023-01-24,1,,,,,リュウゼン,0
984,4030001152040,新規,0,2023-01-24,2023-01-24,株式会社新常紅,,株式会社,埼玉県,春日部市,粕壁東６丁目９番４２号シエロ１０３号室,,11,214,3440062,,,,,,,2023-01-24,1,,,,,ニイジョウベニ,0
985,4030001152057,新規,0,2023-01-24,2023-01-24,ＷｉｔｈＳｏｌｅ株式会社,,株式会社,埼玉県,さいたま市浦和区,岸町４丁目８番１８号,,11,107,3300064,,,,,,,2023-01-24,1,,,,,ウイズソウル,0
986,4030003021020,新規,0,2023-01-24,2023-01-24,Ｎｕｄｇｅ　Ｗｏｒｋｓ合同会社,,合同会社,埼玉県,三郷市,谷口６０６番地１４,,11,237,3410042,,,,,,,2023-01-24,1,,,,,ナッジワークス,0
988,4040001126753,新規,0,2023-01-24,2023-01-24,株式会社イーワークシステム,,株式会社,千葉県,市川市,鬼高２丁目１１番１５－１０８号（プラウド下総中山ディアージュ）,,12,203,2720015,,,,,,,2023-01-24,1,,,,,イーワークシステム,0
994,4050003007166,新規,0,2023-01-24,2023-01-24,ＳＹ　ＥＮＴＥＲＰＲＩＳＥ合同会社,,合同会社,茨城県,筑西市,二木成１５１０番地１階東側,,08,227,3080841,,,,,,,2023-01-24,1,,,,,エスワイエンタープライズ,0
1011,4070001040051,新規,0,2023-01-24,2023-01-24,株式会社木暮総建,,株式会社,群馬県,前橋市,富士見町石井１６３番地,,10,201,3710105,,,,,,,2023-01-24,1,,,,,キグレソウケン,0
1013,4070003004789,新規,0,2023-01-24,2023-01-24,こもれびガーデン合同会社,,合同会社,群馬県,前橋市,日輪寺町３５７番地３,,10,201,3710042,,,,,,,2023-01-24,1,,,,,コモレビガーデン,0
1014,4070005010075,新規,0,2023-01-24,2023-01-24,一般社団法人ＷＳ推進教育機関,,その他の設立登記法人,群馬県,安中市,原市１２７１番地１６,,10,211,3790133,,,,,,,2023-01-24,1,,,,,ダブリューエススイシンキョウイクキカン,0
1015,4080001025423,新規,0,2023-01-24,2023-01-24,株式会社ウィステリア,,株式会社,静岡県,静岡市清水区,三保１７８８番地の２,,22,103,4240901,,,,,,,2023-01-24,1,,,,,ウィステリア,0
1018,4090005007540,新規,0,2023-01-24,2023-01-24,一般社団法人Ｕｎｉｔｅｄ　Ａｃａｄｅｍｙ,,その他の設立登記法人,山梨県,甲斐市,大下条６７５番地ビューハイツ敷島５０２,,19,210,4000126,,,,,,,2023-01-24,1,,,,,ユナイテッドアカデミー,0
1026,4120001251741,新規,0,2023-01-24,2023-01-24,株式会社ＣＡＮＤＹ,,株式会社,大阪府,大阪市北区,兎我野町１１番３号,,27,127,5300056,,,,,,,2023-01-24,1,,,,,キャンディー,0
1027,4120001251898,新規,0,2023-01-24,2023-01-24,Ｓｐｈｉｎｘ　Ｈｏｌｄｉｎｇｓ株式会社,,株式会社,大阪府,大阪市中央区,島之内１丁目１２番２６－１３０３号,,27,128,5420082,,,,,,,2023-01-24,1,,,,,スフィンックスホルディングス,0
1028,4120001251964,新規,0,2023-01-24,2023-01-24,Ｌａｐｉｎ株式会社,,株式会社,大阪府,大阪市東成区,東小橋３丁目１７番３号,,27,115,5370024,,,,,,,2023-01-24,1,,,,,ラパン,0
1032,4120003023271,新規,0,2023-01-24,2023-01-24,合同会社ＨＵＮＴＥＲ,,合同会社,大阪府,大阪市城東区,中央１丁目１番３１－７０３号,,27,118,5360005,,,,,,,2023-01-24,1,,,,,ハンター,0
1033,4120005023410,新規,0,2023-01-24,2023-01-24,医療法人金子耳鼻咽喉科,,その他の設立登記法人,大阪府,大阪市阿倍野区,阪南町２丁目１９番１号,,27,119,5450021,,,,,,,2023-01-24,1,,,,,カネコジビインコウカ,0
1034,4120005023419,新規,0,2023-01-24,2023-01-24,一般社団法人彩,,その他の設立登記法人,大阪府,大阪市中央区,心斎橋筋１丁目１番１号心斎橋クラシックビル５Ｆ,,27,128,5420085,,,,,,,2023-01-24,1,,,,,イロドリ,0
1036,4120103005046,新規,0,2023-01-24,2023-01-24,合同会社ＲＡＳＫ,,合同会社,大阪府,岸和田市,中井町１丁目１１番８号,,27,202,5960003,,,,,,,2023-01-24,1,,,,,ラスク,0
1040,4120901047041,新規,0,2023-01-24,2023-01-24,株式会社アイポス,,株式会社,大阪府,茨木市,玉瀬町１７番７号,,27,211,5670893,,,,,,,2023-01-24,1,,,,,アイポス,0
1045,4130001073524,新規,0,2023-01-24,2023-01-24,株式会社ＤＲＴ,,株式会社,京都府,京都市伏見区,東大文字町１０５９,,26,109,6128334,,,,,,,2023-01-24,1,,,,,ディーアールティー,0
1052,4140001128863,新規,0,2023-01-24,2023-01-24,株式会社Ｘｉｏｎｇ,,株式会社,兵庫県,明石市,二見町東二見５７５－２５,,28,203,6740092,,,,,,,2023-01-24,1,,,,,シィオン,0
1055,4150001026117,新規,0,2023-01-24,2023-01-24,ｏｃｅａｎ　ｃａｒｓ株式会社,,株式会社,奈良県,生駒郡平群町,大字三里３７０番地の８,,29,342,6360904,,,,,,,2023-01-24,1,,,,,オーシャンカーズ,0
1064,4160005011155,新規,0,2023-01-24,2023-01-24,一般社団法人仰木地区活性化委員会わさいな仰木,,その他の設立登記法人,滋賀県,大津市,仰木４丁目２番２５号,,25,201,5200247,,,,,,,2023-01-24,1,,,,,オオギチクカッセイカイインカイワサイナオオギ,0
1068,4180001154658,新規,0,2023-01-24,2023-01-24,いちのみや未来エネルギー株式会社,,株式会社,愛知県,一宮市,音羽１丁目１番１３号,,23,203,4910045,,,,,,,2023-01-24,1,,,,,イチノミヤミライエネルギー,0
1080,4200001040888,新規,0,2023-01-24,2023-01-24,株式会社ＡＹＡＫＯ・ボン・ソウルアカデミー,,株式会社,岐阜県,飛騨市,古川町幸栄町１３番８号,,21,217,5094245,,,,,,,2023-01-24,1,,,,,アヤコボンソウルアカデミー,0
1101,4290001100304,新規,0,2023-01-24,2023-01-24,株式会社ここひろ,,株式会社,福岡県,福岡市中央区,大名１丁目３番７号サウスステージＩ３階,00129187,40,133,8100041,,,,,,,2023-01-24,1,,,,,ココヒロ,0
1102,4290001100312,新規,0,2023-01-24,2023-01-24,Ｍｏｎｏ株式会社,,株式会社,福岡県,福岡市中央区,天神４丁目６－２８天神ファーストビル７階,,40,133,8100001,,,,,,,2023-01-24,1,,,,,モノ,0
1103,4290001100320,新規,0,2023-01-24,2023-01-24,株式会社ファイブミーターズ,,株式会社,福岡県,福岡市中央区,大名１丁目３番４１号プリオ大名２Ｆ,,40,133,8100041,,,,,,,2023-01-24,1,,,,,ファイブミーターズ,0
1123,4350001018143,新規,0,2023-01-24,2023-01-24,五ヶ瀬エンターテイメント株式会社,,株式会社,宮崎県,西臼杵郡五ヶ瀬町,大字鞍岡２８７３番地２,,45,443,8821201,,,,,,,2023-01-24,1,,,,,ゴカセエンターテイメント,0
1128,4360001031475,新規,0,2023-01-24,2023-01-24,株式会社琉宮,,株式会社,沖縄県,宮古島市,伊良部字伊良部１４９２番地１３,,47,214,9060503,,,,,,,2023-01-24,1,,,,,リュウグウ,0
1139,4370003005963,新規,0,2023-01-24,2023-01-24,合同会社これから,,合同会社,宮城県,石巻市,湊字大門崎２６９番地１,,04,202,9860011,,,,,,,2023-01-24,1,,,,,コレカラ,0
1154,4430003014677,新規,0,2023-01-24,2023-01-24,合同会社ミミサービス,,合同会社,北海道,札幌市西区,八軒八条東１丁目１－１８－４０７,,01,107,0630868,,,,,,,2023-01-24,1,,,,,ミミサービス,0
1169,4460101007324,新規,0,2023-01-24,2023-01-24,株式会社あおい,,株式会社,北海道,帯広市,緑ケ丘一条通６丁目５番地１,,01,207,0800841,,,,,,,2023-01-24,1,,,,,アオイ,0
1174,4700150113898,新規,0,2023-01-24,2023-01-24,ＦＪＢ　Ｉｎｖｅｓｔ　ＰＴＥ．Ｌｔｄ．,,外国会社等,北海道,虻田郡倶知安町,ニセコひらふ一条２丁目６－９－７３１,,01,400,0440080,２０　Ｍｃｃａｌｌｕｍ　Ｓｔｒｅｅｔ，＃１６－０１，Ｔｏｋｉｏ　Ｍａｒｉｎｅ　Ｃｅｎｔｒｅ　Ｓｉｎｇａｐｏｒｅ,,,,,,2023-01-24,1,,,,,エフジエイビーインベストピーテイーイーリミテツド,0
1175,4700150113915,新規,0,2023-01-24,2023-01-24,Ｉｎｆｉｌａｎｄ　Ｌｉｍｉｔｅｄ　Ｌｉａｂｉｌｉｔｙ　Ｃｏｍｐａｎｙ,,外国会社等,,,,,,,,２０　Ｐｏｌｈｅｍｕｓ　Ｄｒｉｖｅ，Ｈｉｌｌｓｂｏｒｏｕｇｈ，Ｎｅｗ　Ｊｅｒｓｅｙ，Ｕｎｉｔｅｄ　Ｓｔａｔｅｓ,,,,,,2023-01-24,1,,,,,インフイランドリミテツドライアビリテイカンパニー,0
1176,4700150113923,新規,0,2023-01-24,2023-01-24,Ｓｈｅｎｚｈｅｎ　Ｙｏｕｄｉａｎｙｉｓｉ　Ｅ－ｃｏｍｍｅｒｃｅ　Ｔｅｃｈｎｏｌｏｇｙ　Ｃｏ．，Ｌｔｄ,,外国会社等,,,,,,,,２８０６－Ｇ２６，Ｆｏｒｅｉｇｎ　Ｔｒａｄｅ　Ｇｒｏｕｐ　Ｂｕｉｌｄｉｎｇ，Ｎｏ．２３９，Ｚｈｏｎｇｘｉｎｇ　Ｒｏａｄ，Ｃｈｅｎｇｄｏｎｇ　Ｃｏｍｍｕｎｉｔｙ，Ｄｏｎｇｍｅｎ　Ｓｔｒｅｅｔ，Ｌｕｏｈｕ　Ｄｉｓｔｒｉｃｔ，Ｓｈｅｎｚｈｅｎ,,,,,,2023-01-24,1,,,,,シエンチエンユウデンイシイーコマーステクノロジーカンパニーリミテツド,0
1182,5010001232470,新規,0,2023-01-24,2023-01-24,株式会社旅猫,,株式会社,東京都,中央区,銀座１丁目２２－１１銀座大竹ビジデンス２階,,13,102,1040061,,,,,,,2023-01-24,1,,,,,タビネコ,0
1186,5010103002053,新規,0,2023-01-24,2023-01-24,ｉｌ　ａｎｄａｎｔｅ合同会社,,合同会社,東京都,八王子市,越野３４番地４４,,13,201,1920361,,,,,,,2023-01-24,1,,,,,イルアンダンテ,0
1195,5010405021759,新規,0,2023-01-24,2023-01-24,さくら坂５一般社団法人,,その他の設立登記法人,東京都,港区,虎ノ門３丁目２２番１０－２０１号,,13,103,1050001,,,,,,,2023-01-24,1,,,,,サクラザカファイブ,0
1196,5010501049893,新規,0,2023-01-24,2023-01-24,Ｊａｐａｎ　Ｎｏｖｏｓｅｎｓｅ　Ｍｉｃｒｏｅｌｅｃｔｒｏｎｉｃｓ株式会社,,株式会社,東京都,台東区,台東２丁目２７番３号ＮＳＫビル１０Ｆ,,13,106,1100016,,,,,,,2023-01-24,1,,,,,ジャパンノボセンスマイクロエレクトロニクス,0
1197,5010601062466,新規,0,2023-01-24,2023-01-24,株式会社ＴＯＫＩ,,株式会社,東京都,江東区,森下１丁目１２番６号アロー森下３５番館３階,,13,108,1350004,,,,,,,2023-01-24,1,,,,,トキ,0
1207,5010901052398,新規,0,2023-01-24,2023-01-24,株式会社Ｌｉｎｋ　Ｃｏｌｌｅｃｔｉｖｅ,,株式会社,東京都,世田谷区,尾山台１丁目１－１１,,13,112,1580086,,,,,,,2023-01-24,1,,,,,リンクコレクティブ,0
1222,5011101101607,新規,0,2023-01-24,2023-01-24,株式会社ＭＡＧＯＫＯＲＯ　ＤＩＮＩＮＧ,,株式会社,東京都,新宿区,百人町２丁目１６番１３号ヘレンハウゼ１０３,,13,104,1690073,,,,,,,2023-01-24,1,,,,,マゴコロダイニング,0
1229,5011103012629,新規,0,2023-01-24,2023-01-24,合同会社ＯＲＩＴＡ,,合同会社,東京都,新宿区,歌舞伎町２丁目３番２１号明治通りビル４０３,,13,104,1600021,,,,,,,2023-01-24,1,,,,,オリタ,0
1251,5012701017440,新規,0,2023-01-24,2023-01-24,釧路畜産株式会社,,株式会社,東京都,東久留米市,中央町６丁目２番１４号,,13,222,2030054,,,,,,,2023-01-24,1,,,,,クシロチクサン,0
1253,5012803002984,新規,0,2023-01-24,2023-01-24,合同会社アトリエ・ナンバージョイ,,合同会社,東京都,日野市,多摩平３丁目１２番地の４,,13,212,1910062,,,,,,,2023-01-24,1,,,,,,0
1256,5013301050220,新規,0,2023-01-24,2023-01-24,Ｌｉｆｅ　ｗｉｔｈ　Ｂｅａｃｈ株式会社,,株式会社,東京都,豊島区,南長崎６丁目３６番１４号,,13,116,1710052,,,,,,,2023-01-24,1,,,,,ライフウィズビーチ,0
1258,5013303006468,新規,0,2023-01-24,2023-01-24,ＳＴ管財合同会社,,合同会社,東京都,豊島区,池袋本町４丁目４６番１１－７０５号,,13,116,1700011,,,,,,,2023-01-24,1,,,,,エスティカンザイ,0
1272,5020003023157,新規,0,2023-01-24,2023-01-24,合同会社アクアホロス,,合同会社,神奈川県,川崎市宮前区,小台１丁目２０番１号アン．ビジネスパーク７Ｆとかじ歯科内,,14,136,2160007,,,,,,,2023-01-24,1,,,,,アクアホロス,0
1278,5021001077962,新規,0,2023-01-24,2023-01-24,株式会社Ｅｎｃｏｒｅ,,株式会社,神奈川県,相模原市南区,東林間７丁目９番３３号ＬＭ東林間ガーデン１２２号,,14,153,2520311,,,,,,,2023-01-24,1,,,,,アンコール,0
1279,5021001078036,新規,0,2023-01-24,2023-01-24,株式会社カットクリーン,,株式会社,神奈川県,平塚市,大神２７９９－１,,14,203,2540012,,,,,,,2023-01-24,1,,,,,カットクリーン,0
1289,5030001151999,新規,0,2023-01-24,2023-01-24,隆達株式会社,,株式会社,埼玉県,戸田市,喜沢１丁目１３番地の３２－１０１号,,11,224,3350013,,,,,,,2023-01-24,1,,,,,リュウタツ,0
1290,5030001152072,新規,0,2023-01-24,2023-01-24,株式会社ｙｕｍｅｎｏｓｏｒａ,,株式会社,埼玉県,越谷市,南越谷１丁目２７番地７ノーブルクロスＩＩ－３０２,00129186,11,222,3430845,,,,,,,2023-01-24,1,,,,,ユメノソラ,0
1299,5040001126728,新規,0,2023-01-24,2023-01-24,株式会社ＭＤＸ　Ａｄｖｉｓｅｒｓ,,株式会社,千葉県,浦安市,富岡２丁目２番５－３０３号,,12,227,2790021,,,,,,,2023-01-24,1,,,,,エムディーエックスアドバイザーズ,0
1305,5040003021745,新規,0,2023-01-24,2023-01-24,合同会社Ｈｏ‐Ａ,,合同会社,千葉県,習志野市,鷺沼２丁目９－５０クリオ津田沼レジダンス３１５,,12,216,2750014,,,,,,,2023-01-24,1,,,,,ホーエイ,0
1306,5040005021883,新規,0,2023-01-24,2023-01-24,一般社団法人日本産業コーチ協会,,その他の設立登記法人,千葉県,佐倉市,ユーカリが丘４丁目１番１号スカイプラザ・モール３Ｆ佐倉市スマートオフィスプレイス内,,12,212,2850858,,,,,,,2023-01-24,1,,,,,ニホンサンギョウコーチキョウカイ,0
1309,5050001052287,新規,0,2023-01-24,2023-01-24,株式会社Ｍｒ．電気,,株式会社,茨城県,稲敷市,上君山２７４４番地１１,,08,229,3000528,,,,,,,2023-01-24,1,,,,,ミスターデンキ,0
1351,5120001251922,新規,0,2023-01-24,2023-01-24,株式会社ＧＬＯＢＡＬ　ＷＯＲＫＳ,,株式会社,大阪府,大阪市北区,梅田２丁目４番９号ブリーゼタワー２階,,27,127,5300001,,,,,,,2023-01-24,1,,,,,グローバルワークス,0
1352,5120001251955,新規,0,2023-01-24,2023-01-24,兼一薬品特販株式会社,,株式会社,大阪府,大阪市西淀川区,姫島３丁目５番２３号,,27,113,5550033,,,,,,,2023-01-24,1,,,,,カネイチヤクヒントクハン,0
1353,5120001251963,新規,0,2023-01-24,2023-01-24,株式会社ＪＩＮ,,株式会社,大阪府,大阪市生野区,桃谷２丁目９番１４号,,27,116,5440034,,,,,,,2023-01-24,1,,,,,ジン,0
1354,5120001251971,新規,0,2023-01-24,2023-01-24,株式会社ＩＳＡＭＵ,,株式会社,大阪府,大阪市生野区,林寺２丁目８番２号Ａ２０１,,27,116,5440023,,,,,,,2023-01-24,1,,,,,イサム,0
1355,5120001251988,新規,0,2023-01-24,2023-01-24,ＳＵＲＨＯＭＭＥ株式会社,,株式会社,大阪府,大阪市西区,南堀江４丁目２５番７－１１０２号,,27,106,5500015,,,,,,,2023-01-24,1,,,,,シュロム,0
1360,5120003023320,新規,0,2023-01-24,2023-01-24,ムジナ合同会社,,合同会社,大阪府,大阪市福島区,海老江４丁目８番６号,,27,103,5530001,,,,,,,2023-01-24,1,,,,,ムジナ,0
1364,5120101066881,新規,0,2023-01-24,2023-01-24,株式会社ＨＫＭ,,株式会社,大阪府,堺市中区,土塔町３００２番地,,27,142,5998234,,,,,,,2023-01-24,1,,,,,エイチケーエム,0
1370,5120901047040,新規,0,2023-01-24,2023-01-24,株式会社ｓｔｕｄｉｏ　Ｏｕｒ,,株式会社,大阪府,吹田市,江の木町３０－２０,,27,205,5640053,,,,,,,2023-01-24,1,,,,,スタジオオウル,0
1375,5122001036618,新規,0,2023-01-24,2023-01-24,発光理研株式会社,,株式会社,大阪府,大東市,北条１丁目７番１５号野崎アーバン１００３号,,27,218,5740011,,,,,,,2023-01-24,1,,,,,ハッコウリケン,0
1382,5140003018632,新規,0,2023-01-24,2023-01-24,トライモンド合同会社,,合同会社,兵庫県,西宮市,上甲東園３丁目１７番２０号,,28,204,6620813,,,,,,,2023-01-24,1,,,,,トライモンド,0
1385,5140005026451,新規,0,2023-01-24,2023-01-24,医療法人社団敬真会,,その他の設立登記法人,兵庫県,西宮市,池田町９番６号ＪＲ西宮駅ＮＫビル２階,,28,204,6620911,,,,,,,2023-01-24,1,,,,,ケイシンカイ,0
1386,5150005009455,新規,0,2023-01-24,2023-01-24,一般社団法人橘,,その他の設立登記法人,奈良県,吉野郡大淀町,大字越部１５６３番地,,29,442,6380803,,,,,,,2023-01-24,1,,,,,タチバナ,0
1392,5160001024779,新規,0,2023-01-24,2023-01-24,株式会社ロレッタ,,株式会社,滋賀県,大津市,青山３丁目１１番２０号,,25,201,5202101,,,,,,,2023-01-24,1,,,,,ロレッタ,0
1404,5180001154673,新規,0,2023-01-24,2023-01-24,株式会社ＯＳＵＣ．,,株式会社,愛知県,名古屋市昭和区,御器所２丁目２０番１０号,,23,107,4660051,,,,,,,2023-01-24,1,,,,,オーエスユーシー,0
1419,5230001019680,新規,0,2023-01-24,2023-01-24,株式会社ＲＥＦＩＣＴ,,株式会社,富山県,高岡市,戸出市野瀬１５２,,16,202,9391101,,,,,,,2023-01-24,1,,,,,リフィクト,0
1420,5240001060997,新規,0,2023-01-24,2023-01-24,株式会社多聞,,株式会社,広島県,広島市安佐南区,緑井７丁目２１番５６号,,34,105,7310103,,,,,,,2023-01-24,1,,,,,タモン,0
1426,5280001008869,新規,0,2023-01-24,2023-01-24,株式会社引野会計,,株式会社,島根県,松江市,比津町３４番地１,,32,201,6900863,,,,,,,2023-01-24,1,,,,,ヒキノカイケイ,0
1435,5290003013445,新規,0,2023-01-24,2023-01-24,山海合同会社,,合同会社,福岡県,福岡市早良区,室見２丁目７番３１号エルモスリバーサイド３０１,,40,137,8140015,,,,,,,2023-01-24,1,,,,,ヤマウミ,0
1438,5290801029238,新規,0,2023-01-24,2023-01-24,株式会社ＫＤＲ,,株式会社,福岡県,遠賀郡遠賀町,大字老良５０３番地,,40,384,8114311,,,,,,,2023-01-24,1,,,,,ケイディーアール,0
1462,5340005009551,新規,0,2023-01-24,2023-01-24,特定非営利活動法人かごしまサポートアスリートバンク,,その他の設立登記法人,鹿児島県,鹿児島市,宇宿９丁目３８番３号,,46,201,8900073,,,,,,,2023-01-24,1,,,,,カゴシマサポートアスリートバンク,0
1466,5360001031409,新規,0,2023-01-24,2023-01-24,ハローレンタカー株式会社,,株式会社,沖縄県,那覇市,首里赤平町２丁目１２プラスパーズ１０１,,47,201,9030811,,,,,,,2023-01-24,1,,,,,ハローレンタカー,0
1471,5360003012662,新規,0,2023-01-24,2023-01-24,合同会社ＨＵＮＧＲＹ　ＬＡＢ,,合同会社,沖縄県,南城市,佐敷字佐敷２０７,,47,215,9011403,,,,,,,2023-01-24,1,,,,,ハングリーラボ,0
1490,5370003005962,新規,0,2023-01-24,2023-01-24,合同会社ウェルコネクト,,合同会社,宮城県,多賀城市,高崎１丁目１０番１号,,04,209,9850862,,,,,,,2023-01-24,1,,,,,ウェルコネクト,0
1508,5450001013892,新規,0,2023-01-24,2023-01-24,株式会社ケラピリカ,,株式会社,北海道,上川郡美瑛町,旭町１丁目４番１１号,,01,459,0710212,,,,,,,2023-01-24,1,,,,,ケラピリカ,0
1512,5460101007323,新規,0,2023-01-24,2023-01-24,株式会社北海道パートナーズとかち,,株式会社,北海道,帯広市,西一条南１１丁目１９番地１株式会社ふく井ホテル内,,01,207,0800011,,,,,,,2023-01-24,1,,,,,,0
1518,5700150113220,新規,0,2023-01-24,2023-01-24,Ｃｅｌｅｓｔｉａｌ　Ａｖｉａｔｉｏｎ　Ｔｒａｄｉｎｇ　７１　Ｌｉｍｉｔｅｄ,,外国会社等,,,,,,,,Ａｖｉａｔｉｏｎ　Ｈｏｕｓｅ，Ｓｈａｎｎｏｎ，Ｃｏ　Ｃｌａｒｅ，Ｉｒｅｌａｎｄ,,,,,,2023-01-24,1,,,,,セレスシヤルエヴイエイシヨントレーデイングセブンテイワンリミテツド,0
1519,5700150113897,新規,0,2023-01-24,2023-01-24,開発創新管理顧問股斌有限公司,,外国会社等,東京都,港区,芝浦２丁目９番１－１７０１号,,13,103,1080023,台湾臺北市松山區敦化北路１３５號１２樓,,,,,,2023-01-24,1,,,,,カイハツソウシンカンリコモンコフンユウゲンコウシ,0
1520,5700150113914,新規,0,2023-01-24,2023-01-24,ＨＯＮＧＫＯＮＧ　ＵＣＬＯＵＤＬＩＮＫ　ＮＥＴＷＯＲＫ　ＴＥＣＨＮＯＬＯＧＹ　ＬＩＭＩＴＥＤ,,外国会社等,,,,,,,,６／Ｆ　ＭＡＮＵＬＩＦＥ　ＰＬＡＣＥ　３４８　ＫＷＵＮ　ＴＯＮＧ　ＲＯＡＤ　ＫＬ,,,,,,2023-01-24,1,,,,,ホンコンユークラウドリンクネツトワークテクノロジーリミテツド,0
1521,5700150113922,新規,0,2023-01-24,2023-01-24,Ｓｈｅｎｚｈｅｎ　Ｃｈｏｎｇｔｉａｎ　Ｅｌｅｃｔｒｏｎｉｃ　Ｔｅｃｈｎｏｌｏｇｙ　Ｃｏ．，Ｌｔｄ．,,外国会社等,,,,,,,,１２０１Ｒｏｏｍ，Ｑｉａｎｃｈｅｎｇ　Ｃｏｍｍｅｒｃｉａｌ　Ｃｅｎｔｅｒ，Ｎｏ．５　Ｈａｉｃｈｅｎｇ　Ｒｏａｄ，Ｍａｂｕ　Ｃｏｍｍｕｎｉｔｙ，Ｘｉｘｉａｎｇ　Ｓｕｂ－ｄｉｓｔｒｉｃｔ，Ｂａｏ’ａｎ　Ｄｉｓｔｒｉｃｔ，Ｓｈｅｎｚｈｅｎ　Ｃｉｔｙ,,,,,,2023-01-24,1,,,,,シエンチエンツウンテンエレクトロニクステクノロジーカンパニーリミテツド,0
1539,6010401172010,新規,0,2023-01-24,2023-01-24,シグナル株式会社,,株式会社,東京都,港区,六本木３丁目７番１－１４０４号,,13,103,1060032,,,,,,,2023-01-24,1,,,,,シグナル,0
1540,6010401172043,新規,0,2023-01-24,2023-01-24,株式会社ポートリンク,,株式会社,東京都,港区,赤坂９丁目６番２９－３０１号,,13,103,1070052,,,,,,,2023-01-24,1,,,,,ポートリンク,0
1544,6010503006859,新規,0,2023-01-24,2023-01-24,ＡＨ　ｉｎｖｅｓｔｍｅｎｔ合同会社,,合同会社,東京都,台東区,上野３丁目１４－５ヴェルコ黒門２Ｆ,,13,106,1100005,,,,,,,2023-01-24,1,,,,,エーエイチインベストメント,0
1548,6010701043761,新規,0,2023-01-24,2023-01-24,株式会社ｉｎｓｉｄｅ,,株式会社,東京都,品川区,東大井１丁目９－３２－７１５,,13,109,1400011,,,,,,,2023-01-24,1,,,,,インサイド,0
1555,6010801033621,新規,0,2023-01-24,2023-01-24,株式会社ＥＸＣＥＬ　Ｉｎｃ．,,株式会社,東京都,大田区,山王４丁目２９番１２－１号,,13,111,1430023,,,,,,,2023-01-24,1,,,,,エクセルインク,0
1562,6011001152063,新規,0,2023-01-24,2023-01-24,株式会社ＦａｂＵ,,株式会社,東京都,渋谷区,神泉町１０番１５号,,13,113,1500045,,,,,,,2023-01-24,1,,,,,ファブ,0
1563,6011001152105,新規,0,2023-01-24,2023-01-24,株式会社Ｓａｌｕｄ,,株式会社,東京都,渋谷区,道玄坂１丁目１０番８号渋谷道玄坂東急ビル２Ｆ－Ｃ,,13,113,1500043,,,,,,,2023-01-24,1,,,,,サルー,0
1564,6011001152113,新規,0,2023-01-24,2023-01-24,株式会社クローバー,,株式会社,東京都,渋谷区,道玄坂１丁目１０番８号渋谷道玄坂東急ビル２Ｆ－Ｃ,,13,113,1500043,,,,,,,2023-01-24,1,,,,,クローバー,0
1566,6011003016118,新規,0,2023-01-24,2023-01-24,合同会社Ｒｏｍａｎｚ,,合同会社,東京都,渋谷区,神宮前６丁目２３番４号桑野ビル２階,,13,113,1500001,,,,,,,2023-01-24,1,,,,,ロマンズ,0
1580,6011403003888,新規,0,2023-01-24,2023-01-24,ｉｎｔｅｒｉｏｒ奏合同会社,,合同会社,東京都,板橋区,西台２丁目２４番２１－４０４号,,13,119,1750045,,,,,,,2023-01-24,1,,,,,インテリアカナデル,0
1581,6011503005438,新規,0,2023-01-24,2023-01-24,合同会社ＲＢＹＴ　ｏｆｆｉｃｅ,,合同会社,東京都,北区,豊島５丁目５番５－１０１４号,,13,117,1140003,,,,,,,2023-01-24,1,,,,,アールビーワイテイーオフィス,0
1594,6011801041829,新規,0,2023-01-24,2023-01-24,あだちブルワリー株式会社,,株式会社,東京都,足立区,西新井本町１丁目２４番２３号,,13,121,1230845,,,,,,,2023-01-24,1,,,,,,0
1596,6012801022100,新規,0,2023-01-24,2023-01-24,株式会社グレイスホーム,,株式会社,東京都,立川市,幸町６丁目２３番地の４,,13,202,1900002,,,,,,,2023-01-24,1,,,,,グレイスホーム,0
1600,6013303006467,新規,0,2023-01-24,2023-01-24,合同会社ｍｏｖｅ,,合同会社,東京都,豊島区,西池袋４丁目３８番７号フェニックス椎名町駅前６０１号,,13,116,1710021,,,,,,,2023-01-24,1,,,,,ムーブ,0
1613,6020003023164,新規,0,2023-01-24,2023-01-24,合同会社ＡＳＩＴＡＮＯ,,合同会社,神奈川県,横浜市都筑区,牛久保西２丁目２３番１４号ＹＫハウス１０３号室,,14,118,2240015,,,,,,,2023-01-24,1,,,,,アシタノ,0
1616,6021001078027,新規,0,2023-01-24,2023-01-24,リトルリバー株式会社,,株式会社,神奈川県,厚木市,山際１００９番地－１０２,,14,212,2430803,,,,,,,2023-01-24,1,,,,,リトルリバー,0
1617,6021001078035,新規,0,2023-01-24,2023-01-24,ＪＩＮＣ株式会社,,株式会社,神奈川県,小田原市,成田６５番５号ＢＲＥＷＴＩＭＥＳ１Ｆ,,14,206,2500862,,,,,,,2023-01-24,1,,,,,ジンシ,0
1632,6040003021744,新規,0,2023-01-24,2023-01-24,合同会社ｓｅｖｅｎ　ｃｏｌｏｒｓ,,合同会社,千葉県,千葉市中央区,松波１丁目１２番１号クレアホームズ千葉松波１０７号,,12,101,2600044,,,,,,,2023-01-24,1,,,,,セブンカラーズ,0
1661,6070001040058,新規,0,2023-01-24,2023-01-24,中沢トレーディング株式会社,,株式会社,群馬県,邑楽郡邑楽町,大字鶉字高原６５６番,,10,525,3700601,,,,,,,2023-01-24,1,,,,,ナカザワトレーディング,0
1672,6120001251938,新規,0,2023-01-24,2023-01-24,株式会社Ｐｏｃｃｏ,,株式会社,大阪府,寝屋川市,境橋町５番６－３０２号,,27,215,5720018,,,,,,,2023-01-24,1,,,,,ポッコ,0
1673,6120001251970,新規,0,2023-01-24,2023-01-24,＿旭株式会社,00129188,株式会社,大阪府,大阪市中央区,東平２丁目２番７号メゾンルミエール．ウエ６－２０２号,,27,128,5420063,,,,,,,2023-01-24,1,,,,,カンキョク,0
1674,6120003023311,新規,0,2023-01-24,2023-01-24,明美合同会社,,合同会社,大阪府,大阪市平野区,平野市町１丁目１番９号１０５号室,,27,126,5470042,,,,,,,2023-01-24,1,,,,,メイビ,0
1675,6120101066880,新規,0,2023-01-24,2023-01-24,株式会社絆,,株式会社,大阪府,堺市北区,常磐町３丁５－１０,,27,146,5918001,,,,,,,2023-01-24,1,,,,,キズナ,0
1677,6122001036617,新規,0,2023-01-24,2023-01-24,ＤＹＬｉｎｋｓ株式会社,,株式会社,大阪府,八尾市,跡部北の町２丁目４番３８号サンハイツ田中１００３号,,27,212,5810068,,,,,,,2023-01-24,1,,,,,ディーワイリンクス,0
1678,6122001036625,新規,0,2023-01-24,2023-01-24,Ｌｉｆｅｈａｃｋ　Ｃｏｎｓｕｌｔｉｎｇ株式会社,,株式会社,大阪府,東大阪市,永和２丁目９番１８号,,27,227,5770809,,,,,,,2023-01-24,1,,,,,ライフハックコンサルティング,0
1680,6130001073506,新規,0,2023-01-24,2023-01-24,株式会社誠,,株式会社,京都府,与謝郡伊根町,字六万部小字大畑６１番地７,,26,463,6260414,,,,,,,2023-01-24,1,,,,,マコト,0
1687,6150001026123,新規,0,2023-01-24,2023-01-24,株式会社アイエスオート,,株式会社,奈良県,大和郡山市,矢田町５３０８番地１,,29,203,6391058,,,,,,,2023-01-24,1,,,,,アイエスオート,0
1689,6150003002865,新規,0,2023-01-24,2023-01-24,合同会社ｍｏｒｂ,,合同会社,奈良県,奈良市,大安寺３丁目１１番２７号,,29,201,6308133,,,,,,,2023-01-24,1,,,,,モルブ,0
1707,6180001154664,新規,0,2023-01-24,2023-01-24,日光株式会社,,株式会社,愛知県,瀬戸市,水無瀬町２０８番地,,23,204,4890872,,,,,,,2023-01-24,1,,,,,ニッコウ,0
1708,6180001154672,新規,0,2023-01-24,2023-01-24,株式会社ＭＯＮＳＯ,,株式会社,愛知県,名古屋市中区,大須２丁目２７番３０号西大須ビル２階,,23,106,4600011,,,,,,,2023-01-24,1,,,,,モンソ,0
1715,6180301037032,新規,0,2023-01-24,2023-01-24,株式会社中央メディカル,,株式会社,愛知県,安城市,三河安城南町１丁目１５番地８,,23,212,4460058,,,,,,,2023-01-24,1,,,,,チュウオウメディカル,0
1716,6180303005581,新規,0,2023-01-24,2023-01-24,合同会社Ｈ’ｓ,,合同会社,愛知県,安城市,御幸本町７番１７号安城壱番館１階,,23,212,4460032,,,,,,,2023-01-24,1,,,,,エイチズ,0
1726,6240001060971,新規,0,2023-01-24,2023-01-24,株式会社田浦建設,,株式会社,広島県,尾道市,瀬戸田町宮原８９４番地,,34,205,7222402,,,,,,,2023-01-24,1,,,,,タウラケンセツ,0
1727,6240001060988,新規,0,2023-01-24,2023-01-24,株式会社あぐり,,株式会社,広島県,広島市安佐北区,可部町綾ケ谷２７６４－５,,34,106,7391700,,,,,,,2023-01-24,1,,,,,,0
1735,6280001008868,新規,0,2023-01-24,2023-01-24,株式会社ＱＲＯＳＳ,,株式会社,島根県,松江市,古曽志町５６７番地１３５,,32,201,6900151,,,,,,,2023-01-24,1,,,,,クロス,0
1739,6290001100319,新規,0,2023-01-24,2023-01-24,株式会社Ｕｎ　ｓｏｕｒｉｒｅ,,株式会社,福岡県,宗像市,葉山２丁目５番地１６,,40,220,8114171,,,,,,,2023-01-24,1,,,,,アンスリール,0
1741,6290801029229,新規,0,2023-01-24,2023-01-24,株式会社丸銀,,株式会社,福岡県,中間市,大字垣生１５００番地,,40,215,8090001,,,,,,,2023-01-24,1,,,,,マルギン,0
1746,6320005010048,新規,0,2023-01-24,2023-01-24,特定非営利活動法人みんなの教室,,その他の設立登記法人,大分県,別府市,上田の湯町１４番６号,,44,202,8740908,,,,,,,2023-01-24,1,,,,,ミンナノキョウシツ,0
1766,6340001025312,新規,0,2023-01-24,2023-01-24,株式会社初穂企画,,株式会社,鹿児島県,奄美市,名瀬石橋町１１番２１号,,46,222,8940017,,,,,,,2023-01-24,1,,,,,ハツホキカク,0
1768,6360001031473,新規,0,2023-01-24,2023-01-24,株式会社オフィス５４,,株式会社,沖縄県,沖縄市,中央１丁目３－１７,,47,211,9040004,,,,,,,2023-01-24,1,,,,,オフィスゴジュウヨン,0
1771,6370001049531,新規,0,2023-01-24,2023-01-24,株式会社ライフサポート,,株式会社,宮城県,仙台市青葉区,鷺ケ森１丁目２９番１号,,04,101,9810922,,,,,,,2023-01-24,1,,,,,ライフサポート,0
1787,6430003014675,新規,0,2023-01-24,2023-01-24,合同会社Ｇｅａｒ,,合同会社,北海道,札幌市北区,篠路町上篠路３２１番地７３,,01,102,0028052,,,,,,,2023-01-24,1,,,,,ギア,0
1788,6440001009214,新規,0,2023-01-24,2023-01-24,株式会社ＧＲＥＥＮ　ＲＥＡＦ,,株式会社,北海道,函館市,山の手１丁目１９番１６号,,01,202,0410836,,,,,,,2023-01-24,1,,,,,グリーンリーフ,0
1804,6700150113896,新規,0,2023-01-24,2023-01-24,Ｇｒｏｋｅ　Ｔｅｃｈｎｏｌｏｇｉｅｓ　Ｌｔｄ．,,外国会社等,東京都,千代田区,丸の内２丁目６番１号,,13,101,1000005,フィンランド共和国レミンカイセンカトゥ１４－１８Ｂ２０５２０、トゥルク,,,,,,2023-01-24,1,,,,,グロークテクノロジーズエルテイーデイー,0
1805,6700150113905,新規,0,2023-01-24,2023-01-24,ヨンドク電子株式会社,,外国会社等,東京都,北区,西が丘１丁目４３番１４号,,13,117,1150056,大韓民国ソウル特別市衿川区ソブセッギル６３２、７０５（加山洞、デリュンテクノタウン５次）,,,,,,2023-01-24,1,,,,,ヨンドクデンシカブシキガイシヤ,0
1806,6700150113921,新規,0,2023-01-24,2023-01-24,ＭＳＶＥＮＴＵＲＥＳＧＲＯＵＰ　ＯＵ,,外国会社等,,,,,,,,Ｈａｒｊｕ　ｍａａｋｏｎｄ，Ｋｅｓｋｌｉｎｎａ　ｌｉｎｎａｏｓａ，Ｔｕｕｋｒｉ　ｔｎ　１９－３１５－１０１２０　Ｔａｌｌｉｎｎ,,,,,,2023-01-24,1,,,,,エムエスベンチヤーズグループウーユー,0
1810,7010001232378,新規,0,2023-01-24,2023-01-24,日本クルードワイン株式会社,,株式会社,東京都,千代田区,神田美土代町９番地７千代田２１ビルディング３階,,13,101,1010053,,,,,,,2023-01-24,1,,,,,ニホンクルードワイン,0
1811,7010003039672,新規,0,2023-01-24,2023-01-24,ＴＭＡＹ合同会社,,合同会社,東京都,中央区,銀座１丁目１２番４号Ｎ＆ＥＢＬＤ．６Ｆ,,13,102,1040061,,,,,,,2023-01-24,1,,,,,ティーエムエーワイ,0
1823,7010401172001,新規,0,2023-01-24,2023-01-24,株式会社ＦａｎｄＳＫＹ,,株式会社,東京都,港区,白金６丁目１６番２４号バルビゾン１００－１Ｆ,,13,103,1080072,,,,,,,2023-01-24,1,,,,,エフアンドスカイ,0
1826,7010405021716,新規,0,2023-01-24,2023-01-24,社会保険労務士法人ＹｏｕｒＬｉｎｋ,,その他の設立登記法人,東京都,港区,高輪２丁目１４番１４号,,13,103,1080074,,,,,,,2023-01-24,1,,,,,ユアリンク,0
1827,7010405021724,新規,0,2023-01-24,2023-01-24,一般社団法人ＨＤＧ３７,,その他の設立登記法人,東京都,港区,虎ノ門３丁目２２番１０－２０１号,,13,103,1050001,,,,,,,2023-01-24,1,,,,,エイチディージースリーセブン,0
1835,7010701043760,新規,0,2023-01-24,2023-01-24,株式会社クールレント,,株式会社,東京都,品川区,北品川１丁目１６番８号,,13,109,1400001,,,,,,,2023-01-24,1,,,,,クールレント,0
1853,7011101101596,新規,0,2023-01-24,2023-01-24,株式会社ＭＩＹＵＳＥＩ,,株式会社,東京都,新宿区,高田馬場４丁目２７－３田岡ビル３０１室,,13,104,1690075,,,,,,,2023-01-24,1,,,,,ミユウセイ,0
1854,7011101101605,新規,0,2023-01-24,2023-01-24,株式会社ＨＲＣエグゼクティブサーチジャパン,,株式会社,東京都,新宿区,赤城下町４５番地ＫＢＣＦ－９,,13,104,1620803,,,,,,,2023-01-24,1,,,,,エイチアールシーエグゼクティブサーチジャパン,0
1863,7011103012619,新規,0,2023-01-24,2023-01-24,合同会社１ＤＥＲＴＡＩＬ,,合同会社,東京都,新宿区,新宿５丁目３番４－２０７号,,13,104,1600022,,,,,,,2023-01-24,1,,,,,ワンダーテイル,0
1864,7011103012627,新規,0,2023-01-24,2023-01-24,サイバーストリーム合同会社,,合同会社,東京都,新宿区,西新宿３丁目３－１３西新宿水間ビル６Ｆ,,13,104,1600023,,,,,,,2023-01-24,1,,,,,サイバーストリーム,0
1871,7011401024844,新規,0,2023-01-24,2023-01-24,株式会社建物屋,,株式会社,東京都,板橋区,常盤台２丁目５番４号,,13,119,1740071,,,,,,,2023-01-24,1,,,,,タテモノヤ,0
1873,7011403003887,新規,0,2023-01-24,2023-01-24,合同会社シリウス,,合同会社,東京都,板橋区,大和町１３番２０号イストアール９０１,,13,119,1730012,,,,,,,2023-01-24,1,,,,,シリウス,0
1879,7011601026517,新規,0,2023-01-24,2023-01-24,株式会社Ｍａｈａｌｏ,,株式会社,東京都,練馬区,富士見台１丁目７－６Ｍａｈａｌｏ,,13,120,1770034,,,,,,,2023-01-24,1,,,,,マハロ,0
1882,7011701025971,新規,0,2023-01-24,2023-01-24,サニーシャイン株式会社,,株式会社,東京都,江戸川区,平井４丁目２２番２－５０９号,,13,123,1320035,,,,,,,2023-01-24,1,,,,,サニーシャイン,0
1891,7012801022099,新規,0,2023-01-24,2023-01-24,株式会社ｕｎｐｏｎｔ,,株式会社,東京都,昭島市,中神町１１７７番１８号,,13,207,1960022,,,,,,,2023-01-24,1,,,,,アンポン,0
1893,7013301050227,新規,0,2023-01-24,2023-01-24,株式会社クアスト,,株式会社,東京都,豊島区,南大塚１丁目５１番１８号,,13,116,1700005,,,,,,,2023-01-24,1,,,,,クアスト,0
1894,7013303006466,新規,0,2023-01-24,2023-01-24,合同会社イトウアカウンティングサービス,,合同会社,東京都,豊島区,池袋３丁目３番１１号コアプラス山手池袋６０３号室,,13,116,1710014,,,,,,,2023-01-24,1,,,,,イトウアカウンティングサービス,0
1904,7020001149910,新規,0,2023-01-24,2023-01-24,Ｊ・プラン株式会社,,株式会社,神奈川県,横浜市神奈川区,片倉５丁目２４番４号ソリアード片倉Ｃ棟２号室,,14,102,2210865,,,,,,,2023-01-24,1,,,,,ジェイプラン,0
1905,7020001149935,新規,0,2023-01-24,2023-01-24,株式会社かなえ経営研究所,,株式会社,神奈川県,横浜市神奈川区,白幡上町１６番３号,,14,102,2210075,,,,,,,2023-01-24,1,,,,,カナエケイエイケンキュウショ,0
1906,7020001149943,新規,0,2023-01-24,2023-01-24,株式会社アンドタックス,,株式会社,神奈川県,川崎市多摩区,登戸３３７５－１第２ＴＳＳビル５０３,,14,135,2140014,,,,,,,2023-01-24,1,,,,,アンドタックス,0
1909,7020003023139,新規,0,2023-01-24,2023-01-24,合同会社ふくゆめ,,合同会社,神奈川県,横浜市港北区,綱島西５丁目３番１６号,,14,109,2230053,,,,,,,2023-01-24,1,,,,,フクユメ,0
1910,7020003023163,新規,0,2023-01-24,2023-01-24,合同会社ワンリンク,,合同会社,神奈川県,横浜市港北区,綱島西３丁目７番１９号ウエストヴァリー綱島４０２号,,14,109,2230053,,,,,,,2023-01-24,1,,,,,ワンリンク,0
1912,7021001078018,新規,0,2023-01-24,2023-01-24,株式会社ＦＬＡＴ,,株式会社,神奈川県,綾瀬市,深谷上６丁目３５番２４号,,14,218,2521108,,,,,,,2023-01-24,1,,,,,フラット,0
1913,7021001078034,新規,0,2023-01-24,2023-01-24,株式会社ｅ‐ＢＡＳＥ,,株式会社,神奈川県,平塚市,唐ケ原１２３番地の２－１－４０９,,14,203,2540826,,,,,,,2023-01-24,1,,,,,イーベース,0
1919,7030001152079,新規,0,2023-01-24,2023-01-24,株式会社ｃｒａｖｅ,,株式会社,埼玉県,さいたま市見沼区,大字中川２１１番地,,11,104,3370043,,,,,,,2023-01-24,1,,,,,クレイブ,0
1959,7070001040057,新規,0,2023-01-24,2023-01-24,株式会社ＤｒｅａｍＧｒａｂ,,株式会社,群馬県,高崎市,貝沢町７９０番地１エルージュＡ１０３号,,10,202,3700042,,,,,,,2023-01-24,1,,,,,ドリームグラブ,0
1962,7080001025420,新規,0,2023-01-24,2023-01-24,株式会社ディアー配送,,株式会社,静岡県,牧之原市,坂部４６３４番地,,22,226,4210412,,,,,,,2023-01-24,1,,,,,ディアーハイソウ,0
1965,7090005007538,新規,0,2023-01-24,2023-01-24,一般社団法人秘境わくわくエンジン,,その他の設立登記法人,山梨県,南巨摩郡早川町,奈良田４０３番地,,19,364,4092701,,,,,,,2023-01-24,1,,,,,,0
1985,7120003023310,新規,0,2023-01-24,2023-01-24,合同会社Ｈｅａｄｌｉｇｈｔ,,合同会社,大阪府,枚方市,岡東町１４番１０号,,27,210,5730032,,,,,,,2023-01-24,1,,,,,ヘッドライト,0
1986,7120003023319,新規,0,2023-01-24,2023-01-24,合同会社群馬谷川岳ハイドロパワー,,合同会社,大阪府,大阪市淀川区,西中島６丁目１番１号,,27,123,5320011,,,,,,,2023-01-24,1,,,,,グンマタニガワダケハイドロパワー,0
1987,7120005023416,新規,0,2023-01-24,2023-01-24,医療法人介有会,,その他の設立登記法人,大阪府,大阪市天王寺区,烏ケ辻１丁目３番２４号ケーズスクエア１０１号,00129197,27,109,5430042,,,,,,,2023-01-24,1,,,,,カイユウカイ,0
1989,7130003008475,新規,0,2023-01-24,2023-01-24,合同会社マチルダ,,合同会社,京都府,京都市下京区,東洞院通綾小路下る扇酒屋町２８９番地デ・リードビル５階,,26,106,6008095,,,,,,,2023-01-24,1,,,,,マチルダ,0
2019,7180001154663,新規,0,2023-01-24,2023-01-24,株式会社なぎさ,,株式会社,愛知県,海部郡飛島村,大字渚１丁目１６２番地,,23,427,4901433,,,,,,,2023-01-24,1,,,,,ナギサ,0
2024,7180003024749,新規,0,2023-01-24,2023-01-24,Ｎａｙ‐Ｕｔａ合同会社,,合同会社,愛知県,名古屋市中川区,上高畑１丁目１０４番地（モアクレシア１０２号）,,23,110,4540873,,,,,,,2023-01-24,1,,,,,ナユタ,0
2040,7240001060995,新規,0,2023-01-24,2023-01-24,レクス株式会社,,株式会社,広島県,東広島市,福富町久芳２１６５番地,,34,212,7392303,,,,,,,2023-01-24,1,,,,,レクス,0
2048,7290003013443,新規,0,2023-01-24,2023-01-24,合同会社ケアプランすくすく,,合同会社,福岡県,福岡市西区,今宿駅前１丁目１９番２８号,,40,135,8190168,,,,,,,2023-01-24,1,,,,,ケアプランスクスク,0
2049,7290003013451,新規,0,2023-01-24,2023-01-24,合同会社百心,,合同会社,福岡県,福岡市東区,奈多３丁目３番２２号,,40,131,8110204,,,,,,,2023-01-24,1,,,,,ヒャクシン,0
2050,7290005018928,新規,0,2023-01-24,2023-01-24,医療法人カノア,,その他の設立登記法人,福岡県,飯塚市,枝国４６４番地２７,,40,205,8200081,,,,,,,2023-01-24,1,,,,,カノア,0
2051,7290805009630,新規,0,2023-01-24,2023-01-24,北九州調理師連合協同組合,,その他の設立登記法人,福岡県,遠賀郡遠賀町,大字虫生津７５番地の７,,40,384,8114321,,,,,,,2023-01-24,1,,,,,キタキュウシュウチョウリシレンゴウ,0
2053,7310001018235,新規,0,2023-01-24,2023-01-24,株式会社ＨＹＴ,,株式会社,長崎県,長崎市,船大工町５番３７号ＮＫ籠町ビル１Ｆ,,42,201,8500904,,,,,,,2023-01-24,1,,,,,エイチワイティー,0
2097,7380001033418,新規,0,2023-01-24,2023-01-24,株式会社エイト,,株式会社,福島県,郡山市,富田町日吉ケ丘１３番地,,07,203,9638041,,,,,,,2023-01-24,1,,,,,エイト,0
2098,7390001017147,新規,0,2023-01-24,2023-01-24,株式会社トポス,,株式会社,山形県,鶴岡市,播磨字若松５１番地１,,06,203,9970002,,,,,,,2023-01-24,1,,,,,トポス,0
2109,7430003014682,新規,0,2023-01-24,2023-01-24,合同会社おぎの,,合同会社,北海道,札幌市手稲区,前田三条１０丁目３番３号,,01,109,0060813,,,,,,,2023-01-24,1,,,,,オギノ,0
2115,7500003002960,新規,0,2023-01-24,2023-01-24,ｄａｙ＆ｔｉｅ合同会社,,合同会社,愛媛県,松山市,八反地甲８６番地３,,38,201,7992424,,,,,,,2023-01-24,1,,,,,デイアンドタイ,0
2116,7700150113219,新規,0,2023-01-24,2023-01-24,Ｃｅｌｅｓｔｉａｌ　Ａｖｉａｔｉｏｎ　Ｔｒａｄｉｎｇ　６６　Ｌｉｍｉｔｅｄ,,外国会社等,,,,,,,,Ａｖｉａｔｉｏｎ　Ｈｏｕｓｅ，Ｓｈａｎｎｏｎ，Ｃｏ　Ｃｌａｒｅ，Ｉｒｅｌａｎｄ,,,,,,2023-01-24,1,,,,,セレスシヤルエヴイエイシヨントレーデイングシツクステイシツクスリミテツド,0
2117,7700150113920,新規,0,2023-01-24,2023-01-24,ＹＯＮＧＫＡＮＧ　ＪＩＮＧＴＩ　ＴＲＡＤＩＮＧ　ＣＯ．，ＬＴＤ,,外国会社等,,,,,,,,ＲＯＯＭ９０９，９ＴＨ　ＦＬＯＯＲ，ＪＩＮＣＨＥＮＧ　ＢＵＩＬＤＩＮＧ，ＨＥＡＤＱＵＡＲＴＥＲＳ　ＣＥＮＴＥＲ，ＤＯＮＧＣＨＥＮＧ　ＳＴＲＥＥＴ，ＹＯＮＧＫＡＮＧ　ＣＩＴＹ，ＪＩＮＨＵＡ　ＣＩＴＹ，ＺＨＥＪＩＡＮＧ　ＰＲＯＶＩＮＣＥ,,,,,,2023-01-24,1,,,,,ヨンカンジンテイトレーデイングカンパニーリミテツド,0
2121,8010001232311,新規,0,2023-01-24,2023-01-24,株式会社ＲＵＲＩ　Ｓｏｃｉａｌ　Ｉｎｎｏｖａｔｉｏｎ,,株式会社,東京都,中央区,銀座６丁目６－１銀座風月堂ビル５Ｆ,,13,102,1040061,,,,,,,2023-01-24,1,,,,,ルリソーシャルイノベーション,0
2122,8010001232419,新規,0,2023-01-24,2023-01-24,株式会社Ｓａｔｏｒ,,株式会社,東京都,中央区,銀座１丁目１２番４号Ｎ＆ＥＢＬＤ．６Ｆ,,13,102,1040061,,,,,,,2023-01-24,1,,,,,セイター,0
2124,8010003039655,新規,0,2023-01-24,2023-01-24,Ｌｏｇｉｓｔｉｃｓ　Ｈｏｌｄｃｏ合同会社,,合同会社,東京都,千代田区,丸の内３丁目１番１号東京共同会計事務所内,,13,101,1000005,,,,,,,2023-01-24,1,,,,,ロジスティクスホールドコー,0
2132,8010401172033,新規,0,2023-01-24,2023-01-24,カノープス株式会社,,株式会社,東京都,港区,白金４丁目６番１７－１０６号,,13,103,1080072,,,,,,,2023-01-24,1,,,,,カノープス,0
2133,8010401172041,新規,0,2023-01-24,2023-01-24,ＳＢＹ株式会社,,株式会社,東京都,港区,浜松町２丁目２番１５号浜松町ダイヤビル２Ｆ,,13,103,1050013,,,,,,,2023-01-24,1,,,,,エスビーワイ,0
2136,8010403029363,新規,0,2023-01-24,2023-01-24,ブルーリミテッド合同会社,,合同会社,東京都,港区,芝４丁目１６番２号,,13,103,1080014,,,,,,,2023-01-24,1,,,,,ブルーリミテッド,0
2137,8010405021723,新規,0,2023-01-24,2023-01-24,一般社団法人ＨＤＧ３６,,その他の設立登記法人,東京都,港区,虎ノ門３丁目２２番１０－２０１号,,13,103,1050001,,,,,,,2023-01-24,1,,,,,エイチディージースリーシックス,0
2139,8010601062463,新規,0,2023-01-24,2023-01-24,日冠株式会社,,株式会社,東京都,江東区,枝川３丁目１０番１５－７０３号,,13,108,1350051,,,,,,,2023-01-24,1,,,,,ニッカン,0
2150,8010903007926,新規,0,2023-01-24,2023-01-24,Ｒ＆Ｈ合同会社,,合同会社,東京都,世田谷区,南烏山６丁目１４番６－２０４号,,13,112,1570062,,,,,,,2023-01-24,1,,,,,アールアンドエイチ,0
2152,8011003016116,新規,0,2023-01-24,2023-01-24,合同会社賑崎,,合同会社,東京都,渋谷区,道玄坂１丁目１０番８号渋谷道玄坂東急ビル２Ｆ－Ｃ,,13,113,1500043,,,,,,,2023-01-24,1,,,,,ニギサキ,0
2153,8011101101587,新規,0,2023-01-24,2023-01-24,花の源株式会社,,株式会社,東京都,新宿区,新小川町１番１７号三輪田ビル３階,,13,104,1620814,,,,,,,2023-01-24,1,,,,,ハナノゲン,0
2166,8011201024374,新規,0,2023-01-24,2023-01-24,株式会社成,,株式会社,東京都,中野区,白鷺３丁目１５番１８号,,13,114,1650035,,,,,,,2023-01-24,1,,,,,ナル,0
2167,8011303004646,新規,0,2023-01-24,2023-01-24,合同会社ＲＫ　Ｌｏｇｉｓｔｉｃｓ,,合同会社,東京都,杉並区,高井戸東１丁目２７番－５－２０２号ヴェレーナグラン浜田山,,13,115,1680072,,,,,,,2023-01-24,1,,,,,アールケイロジスティックス,0
2179,8011801041827,新規,0,2023-01-24,2023-01-24,株式会社ＰＬＡＴＹＰＵＳ,,株式会社,東京都,足立区,南花畑４丁目１７番８号,,13,121,1210062,,,,,,,2023-01-24,1,,,,,プラティプス,0
2181,8012401040112,新規,0,2023-01-24,2023-01-24,ＦＧＦ株式会社,,株式会社,東京都,府中市,宮西町３丁目８番１号セザールプラザ府中１０３,,13,206,1830022,,,,,,,2023-01-24,1,,,,,エフジーエフ,0
2192,8020003023162,新規,0,2023-01-24,2023-01-24,合同会社セラ,,合同会社,神奈川県,川崎市中原区,市ノ坪４４９セントラルマンション武蔵小杉４０３号,,14,133,2110016,,,,,,,2023-01-24,1,,,,,セラ,0
2193,8020005015827,新規,0,2023-01-24,2023-01-24,医療法人社団わかば会,,その他の設立登記法人,神奈川県,川崎市中原区,西加瀬１７番８号,,14,133,2110024,,,,,,,2023-01-24,1,,,,,ワカバカイ,0
2196,8021001078033,新規,0,2023-01-24,2023-01-24,ＧＯＯＤＥＡＬ株式会社,,株式会社,神奈川県,藤沢市,鵠沼海岸５丁目８番１－３０４号,,14,205,2510037,,,,,,,2023-01-24,1,,,,,グーディル,0
2197,8021003012650,新規,0,2023-01-24,2023-01-24,合同会社スタジオ・チュウ,,合同会社,神奈川県,平塚市,高浜台１番５－４０３号,,14,203,2540805,,,,,,,2023-01-24,1,,,,,スタジオチュウ,0
2202,8030001152045,新規,0,2023-01-24,2023-01-24,楓産業株式会社,,株式会社,埼玉県,越谷市,大間野町３丁目９１番地１,,11,222,3430844,,,,,,,2023-01-24,1,,,,,カエデサンギョウ,0
2242,8090001017944,新規,0,2023-01-24,2023-01-24,シキシマ醤油株式会社,,株式会社,山梨県,甲府市,幸町９番２２号,,19,201,4000857,,,,,,,2023-01-24,1,,,,,シキシマショウユ,0
2247,8120001251903,新規,0,2023-01-24,2023-01-24,聖風技術株式会社,,株式会社,大阪府,大阪市東淀川区,淡路１丁目１４番３号,,27,114,5330032,,,,,,,2023-01-24,1,,,,,セイフウギジュツ,0
2248,8120001251993,新規,0,2023-01-24,2023-01-24,株式会社ＨＡＺＡＭＡ,,株式会社,大阪府,大阪市天王寺区,国分町１３番８号３Ｆ,,27,109,5430044,,,,,,,2023-01-24,1,,,,,ハザマ,0
2251,8120003023318,新規,0,2023-01-24,2023-01-24,合同会社ＳＹＰＨＥＲ　ＣＲＥＡＴＩＯＮ,,合同会社,大阪府,大阪市都島区,高倉町３丁目６番１－７０３号,,27,102,5340011,,,,,,,2023-01-24,1,,,,,サイファークリエーション,0
2252,8120005023407,新規,0,2023-01-24,2023-01-24,Ｎｏ．Ｐａｒｔｎｅｒｓ社会保険労務士法人,,その他の設立登記法人,大阪府,大阪市北区,曾根崎新地１丁目３番１６号京富ビル６Ｆ,,27,127,5300002,,,,,,,2023-01-24,1,,,,,ノーパートナーズ,0
2253,8120005023415,新規,0,2023-01-24,2023-01-24,医療法人Ａ＆Ｍ,,その他の設立登記法人,大阪府,大阪市東淀川区,豊里７丁目１９番４号,,27,114,5330013,,,,,,,2023-01-24,1,,,,,エーアンドエム,0
2255,8120101066870,新規,0,2023-01-24,2023-01-24,株式会社ＥＮＩＳＨＩ,,株式会社,大阪府,河内長野市,上原町４７２－２,,27,216,5860037,,,,,,,2023-01-24,1,,,,,エニシ,0
2256,8122001036623,新規,0,2023-01-24,2023-01-24,株式会社ＫＡＮＡＥＬｓ,,株式会社,大阪府,柏原市,清州１丁目１番８号,,27,221,5820006,,,,,,,2023-01-24,1,,,,,カナエルーズ,0
2259,8130001073470,新規,0,2023-01-24,2023-01-24,株式会社ママエルモ,,株式会社,京都府,京都市下京区,中堂寺前田町２８番地３,,26,106,6008804,,,,,,,2023-01-24,1,,,,,ママエルモ,0
2267,8140003018638,新規,0,2023-01-24,2023-01-24,さくらＭａｊｌｉｓ合同会社,,合同会社,兵庫県,神戸市東灘区,本山南町８丁目３番１－６０１号,,28,101,6580015,,,,,,,2023-01-24,1,,,,,サクラマジュリス,0
2268,8150001026121,新規,0,2023-01-24,2023-01-24,株式会社岩崎興業,00129185,株式会社,奈良県,桜井市,大字新屋敷３１番地の１,,29,206,6330075,,,,,,,2023-01-24,1,,,,,イワサキコウギョウ,0
2271,8160001024784,新規,0,2023-01-24,2023-01-24,株式会社エクスプレス,,株式会社,滋賀県,大津市,衣川１丁目２１番８－１０１号,,25,201,5200244,,,,,,,2023-01-24,1,,,,,エクスプレス,0
2278,8170001017449,新規,0,2023-01-24,2023-01-24,室建株式会社,,株式会社,和歌山県,和歌山市,狐島３７９番地１１,,30,201,6408412,,,,,,,2023-01-24,1,,,,,ムロケン,0
2285,8180001154670,新規,0,2023-01-24,2023-01-24,株式会社春和,,株式会社,愛知県,名古屋市昭和区,御器所２丁目１８番７号,,23,107,4660051,,,,,,,2023-01-24,1,,,,,シュンワ,0
2288,8180301037039,新規,0,2023-01-24,2023-01-24,株式会社Ｍ’ｓレストランツ,,株式会社,愛知県,蒲郡市,形原町東上松４８番地,,23,214,4430104,,,,,,,2023-01-24,1,,,,,エムズレストランツ,0
2290,8180305009439,新規,0,2023-01-24,2023-01-24,一般社団法人田原観光事業協会,,その他の設立登記法人,愛知県,田原市,神戸町大坪３４番地１,,23,231,4413415,,,,,,,2023-01-24,1,,,,,タハラカンコウジギョウキョウカイ,0
2299,8230001019686,新規,0,2023-01-24,2023-01-24,株式会社ライフアシスト,,株式会社,富山県,富山市,黒瀬４４７番地１号アルビトロＪ１０４号,,16,201,9398213,,,,,,,2023-01-24,1,,,,,ライフアシスト,0
2300,8240001060986,新規,0,2023-01-24,2023-01-24,株式会社Ｒｅ　ｍｉｎｅ,,株式会社,広島県,広島市中区,舟入本町６－１７藤ビル３０２,,34,101,7300843,,,,,,,2023-01-24,1,,,,,リマイン,0
2301,8240001060994,新規,0,2023-01-24,2023-01-24,Ｎｅｏ　Ｅａｒｔｈ株式会社,,株式会社,広島県,広島市西区,井口台３丁目１３番１４号,,34,104,7330844,,,,,,,2023-01-24,1,,,,,ネオアース,0
2313,8290001100317,新規,0,2023-01-24,2023-01-24,株式会社ダイセイ,,株式会社,福岡県,福岡市東区,原田４丁目６番２５－７０１号,,40,131,8120063,,,,,,,2023-01-24,1,,,,,ダイセイ,0
2327,8330001030526,新規,0,2023-01-24,2023-01-24,株式会社ＲＥＡＲ　ＳＴＯＣＫ,,株式会社,熊本県,熊本市中央区,新屋敷２丁目２－２１新屋敷ピアッツァビル４０１,,43,101,8620975,,,,,,,2023-01-24,1,,,,,リアストック,0
2337,8330003009683,新規,0,2023-01-24,2023-01-24,合同会社末継空調サービス,,合同会社,熊本県,玉名郡和水町,東吉地８３５番地２,,43,369,8610904,,,,,,,2023-01-24,1,,,,,スエツグクウチョウサービス,0
2345,8340005009549,新規,0,2023-01-24,2023-01-24,税理士法人エンリンク,,その他の設立登記法人,鹿児島県,鹿児島市,郡元３丁目５番３号,,46,201,8900065,,,,,,,2023-01-24,1,,,,,エンリンク,0
2374,8390001017146,新規,0,2023-01-24,2023-01-24,株式会社カネボウ技工,,株式会社,山形県,山形市,小荷駄町５番８号,,06,201,9900035,,,,,,,2023-01-24,1,,,,,カネボウギコウ,0
2384,8470003002336,新規,0,2023-01-24,2023-01-24,うさぎデザイン合同会社,,合同会社,香川県,仲多度郡多度津町,若葉町８―６―１,,37,404,7640023,,,,,,,2023-01-24,1,,,,,ウサギデザイン,0
2385,8490001010388,新規,0,2023-01-24,2023-01-24,西田木材グループホールディングス株式会社,,株式会社,高知県,高岡郡佐川町,東組１３７１番地,,39,402,7891232,,,,,,,2023-01-24,1,,,,,ニシダモクザイグループホールディングス,0
2389,8700150112517,新規,0,2023-01-24,2023-01-24,Ｃｏｇｎｅｘ　Ｉｒｅｌａｎｄ　Ｌｉｍｉｔｅｄ,,外国会社等,,,,,,,,２００８―２０１４　Ｂｌｏｃｋ　２０００　Ｇａｔｅｗａｙ　Ｂｕｓｉｎｅｓｓ　Ｐａｒｋ　Ｍａｌｌｏｗ　Ｒｏａｄ　Ｃｏｒｋ，Ｉｒｅｌａｎｄ,,,,,,2023-01-24,1,,,,,コグネツクスアイルランドリミテツド,0
2390,8700150113218,新規,0,2023-01-24,2023-01-24,Ｃｅｌｅｓｔｉａｌ　Ａｖｉａｔｉｏｎ　Ｔｒａｄｉｎｇ　１２　Ｌｉｍｉｔｅｄ,,外国会社等,,,,,,,,Ａｖｉａｔｉｏｎ　Ｈｏｕｓｅ，Ｓｈａｎｎｏｎ，Ｃｏ　Ｃｌａｒｅ，Ｉｒｅｌａｎｄ,,,,,,2023-01-24,1,,,,,セレスシヤルエヴイエイシヨントレーデイングトウエルブリミテツド,0
2391,8700150113911,新規,0,2023-01-24,2023-01-24,Ｊｉａｓｈａｎ　Ｈａｉｐａｉ　Ｔｒａｄｉｎｇ　Ｃｏ．，Ｌｔｄ,,外国会社等,,,,,,,,Ｒｏｏｍ　４１０，Ｎｏ．１６，Ｆｕｘｉｎｇ　Ａｖｅｎｕｅ，Ｘｉｔａｎｇ　Ｔｏｗｎ，Ｊｉａｓｈａｎ　Ｃｏｕｎｔｙ，Ｊｉａｘｉｎｇ　Ｃｉｔｙ，Ｚｈｅｊｉａｎｇ　Ｐｒｏｖｉｎｃｅ,,,,,,2023-01-24,1,,,,,ジヤザンハイパイトレーデイングカンパニーリミテツド,0
2398,9010001231964,新規,0,2023-01-24,2023-01-24,ＬＧＴ株式会社,,株式会社,東京都,千代田区,神田小川町２丁目１番２シンコーミュージックプラザ東館７階,,13,101,1010052,,,,,,,2023-01-24,1,,,,,エルジーティー,0
2399,9010001232475,新規,0,2023-01-24,2023-01-24,株式会社トモフル,,株式会社,東京都,千代田区,西神田２丁目３－２牧ビル４０３室,,13,101,1010065,,,,,,,2023-01-24,1,,,,,トモフル,0
2413,9010401172008,新規,0,2023-01-24,2023-01-24,株式会社ＨＳＫコンサルティング,,株式会社,東京都,港区,港南２丁目１５番１号品川インターシティＡ棟２８階,,13,103,1080075,,,,,,,2023-01-24,1,,,,,エイチエスケーコンサルティング,0
2414,9010403029346,新規,0,2023-01-24,2023-01-24,合同会社Ｍｉｃ,,合同会社,東京都,港区,白金台４丁目１３番５号,,13,103,1080071,,,,,,,2023-01-24,1,,,,,ミック,0
2415,9010405021730,新規,0,2023-01-24,2023-01-24,一般社団法人日本無人航空機検査機構,,その他の設立登記法人,東京都,港区,芝公園３丁目５番８号機械振興会館３０６号室,,13,103,1050011,,,,,,,2023-01-24,1,,,,,ニホンムジンコウクウキケンサキコウ,0
2418,9010601062462,新規,0,2023-01-24,2023-01-24,株式会社通暁,,株式会社,東京都,墨田区,横川２丁目１番５号,,13,107,1300003,,,,,,,2023-01-24,1,,,,,ツウギョウ,0
2419,9010603009957,新規,0,2023-01-24,2023-01-24,合同会社ＧｏＭａＭｅ,,合同会社,東京都,江東区,新砂３丁目４番３－３１８号,,13,108,1360075,,,,,,,2023-01-24,1,,,,,ゴマメ,0
2431,9010901052394,新規,0,2023-01-24,2023-01-24,株式会社Ｃ．Ｃｒｅｔｅ,,株式会社,東京都,世田谷区,奥沢８丁目２９番１０号,,13,112,1580083,,,,,,,2023-01-24,1,,,,,シークリート,0
2432,9010903007925,新規,0,2023-01-24,2023-01-24,合同会社Ｃ‐ｒｏｌｌ,,合同会社,東京都,世田谷区,宮坂３丁目２１－２アフロヴィーナ３１７,,13,112,1560051,,,,,,,2023-01-24,1,,,,,シーロール,0
2444,9011001152176,新規,0,2023-01-24,2023-01-24,株式会社ＰＧＣパートナーズ,,株式会社,東京都,渋谷区,広尾２丁目２０番１３－３０３号,,13,113,1500012,,,,,,,2023-01-24,1,,,,,ピージーシーパートナーズ,0
2446,9011003016115,新規,0,2023-01-24,2023-01-24,ＷａＦｕ　Ｒｅｓｅａｒｃｈ　ａｎｄ　Ｃｏｎｓｕｌｔｉｎｇ合同会社,,合同会社,東京都,渋谷区,神宮前６丁目２３－４桑野ビル２Ｆ,,13,113,1500001,,,,,,,2023-01-24,1,,,,,ワフーリサーチアンドコンサルティング,0
2454,9011101101603,新規,0,2023-01-24,2023-01-24,株式会社ＫＥＫＫＡＩ,,株式会社,東京都,新宿区,西早稲田３丁目１２番３号ファイブ早稲田３０６号,,13,104,1690051,,,,,,,2023-01-24,1,,,,,ケッカイ,0
2455,9011101101611,新規,0,2023-01-24,2023-01-24,株式会社Ｋｉｒａ　Ｂｅａｕｔｙ,,株式会社,東京都,新宿区,大久保１丁目１５番１８号みゆきビル６０３号室,,13,104,1690072,,,,,,,2023-01-24,1,,,,,キラビューティー,0
2462,9011301028407,新規,0,2023-01-24,2023-01-24,株式会社ＨｅＲ　ＭａｊｅｓｔＹ,,株式会社,東京都,杉並区,南荻窪４丁目３９番１１号,,13,115,1670052,,,,,,,2023-01-24,1,,,,,ハーマジェスティ,0
2464,9011501028883,新規,0,2023-01-24,2023-01-24,バイオ産業株式会社,,株式会社,東京都,荒川区,東尾久２丁目２－９三祥ビル２３０号,,13,118,1160012,,,,,,,2023-01-24,1,,,,,バイオサンギョウ,0
2500,9021005012722,新規,0,2023-01-24,2023-01-24,行政書士法人佐々木事務所,,その他の設立登記法人,神奈川県,藤沢市,本鵠沼２丁目７番２０号ＵＳビル２０２,,14,205,2510028,,,,,,,2023-01-24,1,,,,,ササキジムショ,0
2505,9030001152060,新規,0,2023-01-24,2023-01-24,株式会社ＭＡＮＨＡＴＴＡＮ,,株式会社,埼玉県,蓮田市,緑町２丁目２３番１号,,11,238,3490104,,,,,,,2023-01-24,1,,,,,マンハッタン,0
2508,9030003020983,新規,0,2023-01-24,2023-01-24,合同会社Ｅｎｉｔｏ,,合同会社,埼玉県,戸田市,本町２丁目６番５－５０２号,,11,224,3350023,,,,,,,2023-01-24,1,,,,,エニット,0
2514,9040001126749,新規,0,2023-01-24,2023-01-24,株式会社ハピネス,,株式会社,千葉県,八千代市,米本２２０８番地６５,,12,221,2760015,,,,,,,2023-01-24,1,,,,,ハピネス,0
2549,9070001040055,新規,0,2023-01-24,2023-01-24,株式会社藍ＬＯＶＥ,,株式会社,群馬県,高崎市,中大類町３６２番地１２,,10,202,3700033,,,,,,,2023-01-24,1,,,,,アイラブ,0
2552,9080401026272,新規,0,2023-01-24,2023-01-24,株式会社ビズブリッジ,,株式会社,静岡県,浜松市北区,初生町５６７－１サンライズ初生Ｅ１,,22,135,4338112,,,,,,,2023-01-24,1,,,,,ビズブリッジ,0
2553,9080403004706,新規,0,2023-01-24,2023-01-24,合同会社Ｆｕｊｉ　Ｌａｎｋａ　Ｇｒｏｕｐ　ｏｆ　Ｃｏｍｐａｎｉｅｓ,,合同会社,静岡県,浜松市南区,安松町３０２５番地コーポサワＩＩ１０２号室,00129191,22,134,4350034,,,,,,,2023-01-24,1,,,,,フジランカグループオブカンパニーズ,0
2573,9120001251778,新規,0,2023-01-24,2023-01-24,株式会社ＤＩＡＲＴ,,株式会社,大阪府,大阪市浪速区,日本橋西２丁目５－６,,27,111,5560004,,,,,,,2023-01-24,1,,,,,ダート,0
2574,9120001251852,新規,0,2023-01-24,2023-01-24,壹訊株式会社,,株式会社,大阪府,大阪市住之江区,西加賀屋４丁目３－２７フォンタル１－３０３号室,,27,125,5590016,,,,,,,2023-01-24,1,,,,,イチジン,0
2575,9120001251877,新規,0,2023-01-24,2023-01-24,春華商事株式会社,,株式会社,大阪府,大阪市西区,南堀江４丁目２２番７号コート堀江３０５,,27,106,5500015,,,,,,,2023-01-24,1,,,,,シュンカショウジ,0
2576,9120001251902,新規,0,2023-01-24,2023-01-24,オレンジ猫株式会社,,株式会社,大阪府,大阪市中央区,船場中央２丁目１番４号船場センタービル４号館地下一階Ｂ１０８ＲＯＹＡＬＯＦＦＩＣＥ内,,27,128,5410055,,,,,,,2023-01-24,1,,,,,オレンジネコ,0
2577,9120001251927,新規,0,2023-01-24,2023-01-24,株式会社ｅｎｇｒａｖｅ,,株式会社,大阪府,大阪市浪速区,塩草３丁目６番１６号みのりハイツ２０２号,,27,111,5560024,,,,,,,2023-01-24,1,,,,,イングレイヴ,0
2584,9120005023414,新規,0,2023-01-24,2023-01-24,医療法人心鹿会,,その他の設立登記法人,大阪府,大阪市中央区,西心斎橋１丁目１３番２１号コーニッシュビル６階,,27,128,5420086,,,,,,,2023-01-24,1,,,,,ココシカカイ,0
2585,9120101066861,新規,0,2023-01-24,2023-01-24,株式会社桃組工業,,株式会社,大阪府,岸和田市,箕土路町１丁目８番１２－２０６号,,27,202,5960801,,,,,,,2023-01-24,1,,,,,モモグミコウギョウ,0
2586,9120101066878,新規,0,2023-01-24,2023-01-24,株式会社ＲＮＹ,,株式会社,大阪府,堺市北区,北長尾町４丁７番１０号,,27,146,5918043,,,,,,,2023-01-24,1,,,,,アールエヌワイ,0
2587,9120105009668,新規,0,2023-01-24,2023-01-24,医療法人マキノ,,その他の設立登記法人,大阪府,泉南郡熊取町,野田３丁目３５３番地の４,,27,361,5900451,,,,,,,2023-01-24,1,,,,,マキノ,0
2599,9130001073536,新規,0,2023-01-24,2023-01-24,株式会社ＳＭＫ黒田建物,,株式会社,京都府,京都市中京区,柳馬場通錦小路下る瀬戸屋町４７１番地１０１号室,,26,104,6048122,,,,,,,2023-01-24,1,,,,,エスエムケイクロダタテモノ,0
2600,9130001073544,新規,0,2023-01-24,2023-01-24,株式会社Ｋｈｏｗｉｃｈｅｍ　Ｎｉｐｐｏｎ,,株式会社,京都府,京都市上京区,大宮通上立売上る西入伊佐町２３３,,26,102,6028407,,,,,,,2023-01-24,1,,,,,カウウィケムニッポン,0
2601,9130001073552,新規,0,2023-01-24,2023-01-24,株式会社オンリーノース,,株式会社,京都府,京都市下京区,松原通烏丸西入ル玉津島町３０３番地,,26,106,6000000,,,,,,,2023-01-24,1,,,,,オンリーノース,0
2612,9140001128826,新規,0,2023-01-24,2023-01-24,株式会社アップルリリー,,株式会社,兵庫県,神戸市兵庫区,西多聞通１丁目１番７号,,28,105,6520035,,,,,,,2023-01-24,1,,,,,アップルリリー,0
2613,9140001128850,新規,0,2023-01-24,2023-01-24,気軽にサブスクダイビング株式会社,,株式会社,兵庫県,神戸市北区,東大池３丁目２４－５,,28,109,6511333,,,,,,,2023-01-24,1,,,,,キガルニサブスクダイビング,0
2619,9160001024783,新規,0,2023-01-24,2023-01-24,株式会社スターク・ファーム,,株式会社,滋賀県,東近江市,垣見町７２０番地３,,25,213,5211221,,,,,,,2023-01-24,1,,,,,スタークファーム,0
2638,9180001154637,新規,0,2023-01-24,2023-01-24,株式会社Ｎｏｌ,,株式会社,愛知県,名古屋市中村区,名駅３丁目２６番８号ＫＤＸ名古屋駅前ビル１３Ｆ,,23,105,4500002,,,,,,,2023-01-24,1,,,,,ノエル,0
2639,9180001154661,新規,0,2023-01-24,2023-01-24,株式会社ＢＬＵＥＰＲＩＮＴ,,株式会社,愛知県,東海市,加木屋町２丁目１８４番地,,23,222,4770032,,,,,,,2023-01-24,1,,,,,ブループリント,0
2649,9200001040891,新規,0,2023-01-24,2023-01-24,株式会社マウロア,,株式会社,岐阜県,関市,下白金７６４番地３,,21,205,5013955,,,,,,,2023-01-24,1,,,,,マウロア,0
2652,9220001025239,新規,0,2023-01-24,2023-01-24,株式会社Ｙ’ｓ　ｆａｃｔｏｒｙ,,株式会社,石川県,金沢市,昭和町７‐５＋ＣＲＥＷｒｏｏｍ８,,17,201,9200856,,,,,,,2023-01-24,1,,,,,ワイズファクトリー,0
2656,9240001060993,新規,0,2023-01-24,2023-01-24,株式会社モロビト,,株式会社,広島県,広島市佐伯区,八幡東４丁目８番２８号,,34,108,7315115,,,,,,,2023-01-24,1,,,,,モロビト,0
2663,9260001037602,新規,0,2023-01-24,2023-01-24,ビルドアップ株式会社,,株式会社,岡山県,岡山市中区,海吉１９１４番地１,,33,102,7038261,,,,,,,2023-01-24,1,,,,,ビルドアップ,0
2665,9260003004170,新規,0,2023-01-24,2023-01-24,アルデバラン合同会社,,合同会社,岡山県,岡山市北区,田中１４５番地１０５,,33,101,7000951,,,,,,,2023-01-24,1,,,,,アルデバラン,0
2675,9290001100308,新規,0,2023-01-24,2023-01-24,株式会社士誠,,株式会社,福岡県,福岡市西区,姪の浜４丁目１４番２５号華香ビル２０３号室,,40,135,8190002,,,,,,,2023-01-24,1,,,,,シセイ,0
2676,9290001100316,新規,0,2023-01-24,2023-01-24,ＣｒｏｓｓＴｏ株式会社,,株式会社,福岡県,福岡市城南区,堤１丁目１１－２２第２堤ハイツ,,40,136,8140151,,,,,,,2023-01-24,1,,,,,クロスト,0
2682,9300001013202,新規,0,2023-01-24,2023-01-24,株式会社佐賀商事,,株式会社,佐賀県,佐賀市,与賀町２番６２号２Ｆ,,41,201,8400047,,,,,,,2023-01-24,1,,,,,サガショウジ,0
2690,9330001030525,新規,0,2023-01-24,2023-01-24,株式会社ＭＹ‐ＧＹＭ　Ａｒｔ　ｄｅ　ｖｉｖｒｅ,,株式会社,熊本県,熊本市中央区,新町３丁目３番５－９０８号,,43,101,8600004,,,,,,,2023-01-24,1,,,,,マイジムアールドヴィーヴル,0
2699,9330003009682,新規,0,2023-01-24,2023-01-24,合同会社マルミ,,合同会社,熊本県,宇土市,笹原町１１７７番地３,,43,211,8690402,,,,,,,2023-01-24,1,,,,,マルミ,0
2748,9490001010387,新規,0,2023-01-24,2023-01-24,株式会社ｌｉｂｅｒａｌ,,株式会社,高知県,高知市,帯屋町１丁目８番１３号ニュープリンスミタニビル３Ｆ,,39,201,7800841,,,,,,,2023-01-24,1,,,,,リベラル,0
2749,9700150113902,新規,0,2023-01-24,2023-01-24,Ｇｒａｃｅ　Ｈｉｌｌ　Ｉｎｔｅｒｎａｔｉｏｎａｌ　Ｃｏｒｐｏｒａｔｉｏｎ,,外国会社等,,,,,,,,Ｐｏｒｔｃｕｌｌｉｓ　Ｃｈａｍｂｅｒｓ　Ｐ．Ｏ．　Ｂｏｘ　１２２５．　Ａｐｉａ，ＳＡＭＯＡ,,,,,,2023-01-24,1,,,,,グレースヒルインターナシヨナルコーポレーシヨン,0
2750,9700150113919,新規,0,2023-01-24,2023-01-24,Ａｃｔｉｖｉｓｉｏｎ　Ｂｌｉｚｚａｒｄ　Ｉｎｔｅｒｎａｔｉｏｎａｌ　ＬＬＣ,,外国会社等,,,,,,,,２５１　Ｌｉｔｔｌｅ　Ｆａｌｌｓ　ＤＲ，Ｗｉｌｍｉｎｇｔｏｎ，Ｃｏｕｎｔｙ　ｏｆ　Ｎｅｗ　Ｃａｓｔｌｅ，ＤＥ,,,,,,2023-01-24,1,,,,,アクテイビジヨンブリザードインターナシヨナルエルエルシー,0
