sequenceNumber,corporateNumber,process,correct,updateDate,changeDate,name,nameImageId,kind,prefectureName,cityName,streetNumber,addressImageId,prefectureCode,cityCode,postCode,addressOutside,addressOutsideImageId,closeDate,closeCause,successorCorporateNumber,changeCause,assignmentDate,latest,enName,enPrefectureName,enCityName,enAddressOutside,furigana,hihyoji
17,1010403026466,新規,0,2021-11-19,2021-11-19,ココロキューブ合同会社,,合同会社,東京都,港区,南青山２丁目２番１５号,,13,103,1070062,,,,,,,2021-11-19,1,,,,,ココロキューブ,0
18,1010403026549,新規,0,2021-11-19,2021-11-19,合同会社ゴールドＥ２,,合同会社,東京都,港区,虎ノ門３丁目２２番１０－２０１号,,13,103,1050001,,,,,,,2021-11-19,1,,,,,ゴールドイーツー,0
19,1010405020434,新規,0,2021-11-19,2021-11-19,一般社団法人ゴールドＩ０,,その他の設立登記法人,東京都,港区,虎ノ門３丁目２２番１０－２０１号,,13,103,1050001,,,,,,,2021-11-19,1,,,,,ゴールドアイゼロ,0
20,1010405020442,新規,0,2021-11-19,2021-11-19,加須ファシリティ特定目的会社,,その他の設立登記法人,東京都,港区,六本木１丁目６番１号泉ガーデンタワー,,13,103,1060032,,,,,,,2021-11-19,1,,,,,カゾファシリティ,0
21,1010501048123,新規,0,2021-11-19,2021-11-19,株式会社エヌテックコーポレーション,,株式会社,東京都,台東区,上野２丁目１１番１３号,,13,106,1100005,,,,,,,2021-11-19,1,,,,,エヌテックコーポレーション,0
32,1010901049828,新規,0,2021-11-19,2021-11-19,株式会社丸泉,,株式会社,東京都,世田谷区,松原６丁目３９番１２号,,13,112,1560043,,,,,,,2021-11-19,1,,,,,マルセン,0
33,1010901049852,新規,0,2021-11-19,2021-11-19,株式会社ＯＮＥＧＡＭＥ,,株式会社,東京都,世田谷区,桜丘２丁目２９番２１号,,13,112,1560054,,,,,,,2021-11-19,1,,,,,ワンゲーム,0
41,1011001144024,新規,0,2021-11-19,2021-11-19,株式会社ＬＩＦＥ　ＷＩＴＨ,,株式会社,東京都,渋谷区,道玄坂１丁目１５番３号プリメーラ道玄坂４０６,,13,113,1500043,,,,,,,2021-11-19,1,,,,,ライフウィズ,0
42,1011001144057,新規,0,2021-11-19,2021-11-19,株式会社Ｍｉｉｓｅｌ,,株式会社,東京都,渋谷区,神宮前６丁目２３番４号桑野ビル２階,,13,113,1500001,,,,,,,2021-11-19,1,,,,,ミーセル,0
43,1011001144065,新規,0,2021-11-19,2021-11-19,株式会社Ｐｅａｘ,,株式会社,東京都,渋谷区,渋谷２丁目１９－１５宮益坂ビルディング６０９,,13,113,1500002,,,,,,,2021-11-19,1,,,,,ピークス,0
44,1011001144148,新規,0,2021-11-19,2021-11-19,株式会社シェモア,,株式会社,東京都,渋谷区,東１丁目９番３号,,13,113,1500011,,,,,,,2021-11-19,1,,,,,シェモア,0
45,1011003013739,新規,0,2021-11-19,2021-11-19,合同会社ｂｅａｕｔｉｆｙ,,合同会社,東京都,渋谷区,広尾２丁目９番３４号,,13,113,1500012,,,,,,,2021-11-19,1,,,,,ビューティファイ,0
46,1011003013755,新規,0,2021-11-19,2021-11-19,ＲＥＢＵＩＬＤ合同会社,,合同会社,東京都,渋谷区,千駄ヶ谷３丁目５２番５－７０４号,,13,113,1510051,,,,,,,2021-11-19,1,,,,,リビルド,0
51,1011101096941,新規,0,2021-11-19,2021-11-19,株式会社Ｂｅｒｒｙ　Ｃａｐｉｔａｌ,,株式会社,東京都,新宿区,西新宿３丁目３番１３号,,13,104,1600023,,,,,,,2021-11-19,1,,,,,ベリーキャピタル,0
59,1011701024855,新規,0,2021-11-19,2021-11-19,株式会社ＨＹＭ　ＪＡＰＡＮ,,株式会社,東京都,江戸川区,南小岩６丁目２５番地１０号フェリース南小岩２－２０１,,13,123,1330056,,,,,,,2021-11-19,1,,,,,エイチワイエムジャパン,0
64,1011801039992,新規,0,2021-11-19,2021-11-19,株式会社ニューモード,,株式会社,東京都,足立区,西新井本町５丁目３番２３号,,13,121,1230845,,,,,,,2021-11-19,1,,,,,ニューモード,0
65,1011805003128,新規,0,2021-11-19,2021-11-19,一般社団法人ママの孤立防止支援協会,,その他の設立登記法人,東京都,足立区,梅島３丁目４番８号うめじまＫＳビル２０３,,13,121,1210816,,,,,,,2021-11-19,1,,,,,ママノコリツボウシシエンキョウカイ,0
76,1013301048292,新規,0,2021-11-19,2021-11-19,株式会社ＭＫＴ,,株式会社,東京都,豊島区,池袋２丁目６７番１号,,13,116,1710014,,,,,,,2021-11-19,1,,,,,エムケイティー,0
80,1020001144017,新規,0,2021-11-19,2021-11-19,株式会社ＡＳＢＩＡＮＪ,,株式会社,神奈川県,横浜市中区,翁町２丁目７番１号レックス横浜関内１Ｆ,,14,104,2310028,,,,,,,2021-11-19,1,,,,,アスビアンジョ,0
81,1020003020851,新規,0,2021-11-19,2021-11-19,ベジタリアン合同会社,,合同会社,神奈川県,横浜市保土ケ谷区,岡沢町１１－７－２０７,,14,106,2400062,,,,,,,2021-11-19,1,,,,,ベジタリアン,0
85,1021001074542,新規,0,2021-11-19,2021-11-19,株式会社ＴｏＳＳ,,株式会社,神奈川県,相模原市中央区,相模原５丁目２番１号,,14,152,2520231,,,,,,,2021-11-19,1,,,,,トス,0
94,1030001145393,新規,0,2021-11-19,2021-11-19,株式会社Ｓｔａｒｍｉｎｅ,,株式会社,埼玉県,秩父市,山田２７４１番地８,,11,207,3680004,,,,,,,2021-11-19,1,,,,,スターマイン,0
95,1030001145435,新規,0,2021-11-19,2021-11-19,株式会社ＷＡＲＡ,,株式会社,埼玉県,北葛飾郡杉戸町,清地３丁目９番１５号,,11,464,3450025,,,,,,,2021-11-19,1,,,,,ワラ,0
100,1030003018358,新規,0,2021-11-19,2021-11-19,アイビー合同会社,,合同会社,埼玉県,さいたま市南区,松本４丁目２－１３レオパレス西浦和第３・１０２号,,11,108,3360035,,,,,,,2021-11-19,1,,,,,アイビー,0
101,1030003018366,新規,0,2021-11-19,2021-11-19,プレアデス合同会社,,合同会社,埼玉県,川越市,大字木野目４７３番地１４,,11,201,3500016,,,,,,,2021-11-19,1,,,,,プレアデス,0
102,1030005020634,新規,0,2021-11-19,2021-11-19,一般社団法人きものと文化研究所,,その他の設立登記法人,埼玉県,さいたま市大宮区,櫛引町１丁目８７５番地１ウィズ大宮二番館１０８号,,11,103,3300851,,,,,,,2021-11-19,1,,,,,キモノトブンカケンキュウジョ,0
111,1040001121088,新規,0,2021-11-19,2021-11-19,ＴＨ　Ｔｒａｄｅ株式会社,,株式会社,千葉県,松戸市,栄町８丁目６７５番地の２３,,12,207,2710062,,,,,,,2021-11-19,1,,,,,ティーエイチトレード,0
115,1040003018984,新規,0,2021-11-19,2021-11-19,Ｐａｎｏｐｔｉｃ　ｃａｐｉｔａｌ　ｐａｒｔｎｅｒｓ合同会社,,合同会社,千葉県,勝浦市,松部１９９２番地１,,12,218,2995241,,,,,,,2021-11-19,1,,,,,パノプティックキャピタルパートナーズ,0
121,1050003006204,新規,0,2021-11-19,2021-11-19,Ｆｏｒｅｓｔｆｌｏｗ合同会社,,合同会社,茨城県,つくば市,春日２丁目２４番地１エクセラン春日３０１号,,08,220,3050821,,,,,,,2021-11-19,1,,,,,フォレストフロー,0
123,1070001038668,新規,0,2021-11-19,2021-11-19,株式会社ＭＩＰ,,株式会社,群馬県,高崎市,東町３２番地１ＢｒｉｌｌｉａＴｏｗｅｒ高崎１５０２号,,10,202,3700045,,,,,,,2021-11-19,1,,,,,エムアイピー,0
125,1080001024592,新規,0,2021-11-19,2021-11-19,株式会社そこあげ,,株式会社,静岡県,静岡市清水区,蒲原東１７０番地の１,,22,103,4213201,,,,,,,2021-11-19,1,,,,,ソコアゲ,0
127,1080101022926,新規,0,2021-11-19,2021-11-19,株式会社ＭＴ・Ｓｍａｓｈ,,株式会社,静岡県,伊東市,岡１２９４番地の９５,,22,208,4140055,,,,,,,2021-11-19,1,,,,,エムティースマッシュ,0
130,1090001017281,新規,0,2021-11-19,2021-11-19,株式会社渡邊工業,,株式会社,山梨県,甲府市,上今井町１６５９番地,,19,201,4000845,,,,,,,2021-11-19,1,,,,,ワタナベコウギョウ,0
131,1100001034829,新規,0,2021-11-19,2021-11-19,株式会社ＫＡＲＭ,,株式会社,長野県,上田市,国分１２９１番地１ブランメゾン２０１号,,20,203,3860016,,,,,,,2021-11-19,1,,,,,カーム,0
134,1110001036205,新規,0,2021-11-19,2021-11-19,株式会社ｂ＆ｖｅｉｎ,,株式会社,新潟県,南蒲原郡田上町,大字田上丁１９１８番地４８,,15,361,9591502,,,,,,,2021-11-19,1,,,,,ベーヴェイン,0
149,1120001241984,新規,0,2021-11-19,2021-11-19,株式会社ＥＮＩＸＩＡ,,株式会社,大阪府,大阪市中央区,難波４丁目１－１５近鉄難波ビル１Ｆ,,27,128,5420076,,,,,,,2021-11-19,1,,,,,エニシア,0
150,1120001242025,新規,0,2021-11-19,2021-11-19,株式会社Ｇｏｏｄ　Ｍｅｅｔｓ,,株式会社,大阪府,大阪市中央区,久太郎町３丁目１番６号伊藤佑大阪本町ビル,,27,128,5410056,,,,,,,2021-11-19,1,,,,,グッドミーツ,0
155,1120103004439,新規,0,2021-11-19,2021-11-19,合同会社まごころざし,,合同会社,大阪府,泉大津市,池浦町２丁目９番３号,,27,206,5950024,,,,,,,2021-11-19,1,,,,,マゴコロザシ,0
164,1130005016317,新規,0,2021-11-19,2021-11-19,特定非営利活動法人カラフル,,その他の設立登記法人,京都府,南丹市,日吉町胡麻ミロク７７番地１６,,26,213,6290311,,,,,,,2021-11-19,1,,,,,カラフル,0
170,1140001123917,新規,0,2021-11-19,2021-11-19,ＫＭＫ株式会社,,株式会社,兵庫県,姫路市,二階町９９番地１,,28,201,6700922,,,,,,,2021-11-19,1,,,,,ケーエムケー,0
171,1140005025894,新規,0,2021-11-19,2021-11-19,特定非営利活動法人市民後見たんば,,その他の設立登記法人,兵庫県,丹波市,氷上町市辺６８３番地,,28,223,6693461,,,,,,,2021-11-19,1,,,,,シミンコウケンタンバ,0
222,1240001058962,新規,0,2021-11-19,2021-11-19,高広株式会社,,株式会社,広島県,広島市中区,光南３丁目３番２－１０２号,,34,101,7300825,,,,,,,2021-11-19,1,,,,,タカヒロ,0
227,1280001008567,新規,0,2021-11-19,2021-11-19,ＫＯＤＡＫＩＴＡＫＡＳＨＩ．ＣＯＭ株式会社,,株式会社,島根県,出雲市,斐川町富村１９６０－４,,32,203,6990621,,,,,,,2021-11-19,1,,,,,コダキタカシドットコム,0
231,1290001095381,新規,0,2021-11-19,2021-11-19,株式会社４ａｃｅ,,株式会社,福岡県,福岡市中央区,大名１丁目９番２５－５０２号,,40,133,8100041,,,,,,,2021-11-19,1,,,,,フォーエース,0
232,1290001095415,新規,0,2021-11-19,2021-11-19,株式会社ダンドリ,,株式会社,福岡県,福岡市東区,香椎浜３丁目３番４号,,40,131,8130016,,,,,,,2021-11-19,1,,,,,ダンドリ,0
233,1290001095472,新規,0,2021-11-19,2021-11-19,株式会社ＬｉｖｅＡＲＴｓ,,株式会社,福岡県,福岡市博多区,博多駅前２丁目１９番１７号トーカン博多第５ビル３１２号室,,40,132,8120011,,,,,,,2021-11-19,1,,,,,ライブアーツ,0
234,1290001095489,新規,0,2021-11-19,2021-11-19,株式会社ウエルネス,,株式会社,福岡県,福岡市中央区,天神４丁目７番１１号クレアビル４階,,40,133,8100001,,,,,,,2021-11-19,1,,,,,ウエルネス,0
236,1290003011857,新規,0,2021-11-19,2021-11-19,和心みや田合同会社,,合同会社,福岡県,福岡市中央区,春吉３丁目２３－２２－２,,40,133,8100003,,,,,,,2021-11-19,1,,,,,ワシンミヤタ,0
242,1300001012707,新規,0,2021-11-19,2021-11-19,柳瀬建築株式会社,00124915,株式会社,佐賀県,藤津郡太良町,大字大浦丁１０７番地３,,41,441,8491612,,,,,,,2021-11-19,1,,,,,ヤナギセケンチク,0
244,1310003004214,新規,0,2021-11-19,2021-11-19,合同会社まんなか,,合同会社,長崎県,西彼杵郡時津町,浦郷３０７番地１,,42,308,8512105,,,,,,,2021-11-19,1,,,,,マンナカ,0
247,1320001018743,新規,0,2021-11-19,2021-11-19,鈴木テック株式会社,,株式会社,大分県,別府市,大字鶴見１９７６番地の３２,,44,202,8740840,,,,,,,2021-11-19,1,,,,,スズキテック,0
249,1320003003652,新規,0,2021-11-19,2021-11-19,合同会社えびすた,,合同会社,大分県,杵築市,大字杵築１２０６－１,,44,210,8730001,,,,,,,2021-11-19,1,,,,,エビスタ,0
256,1350001017429,新規,0,2021-11-19,2021-11-19,株式会社永野工業,,株式会社,宮崎県,宮崎市,源藤町南田４９番地５,,45,201,8800927,,,,,,,2021-11-19,1,,,,,ナガノコウギョウ,0
274,1420001017652,新規,0,2021-11-19,2021-11-19,ファイナンスアンドコンサルティングファーム株式会社,,株式会社,青森県,南津軽郡藤崎町,大字水木字水上９番地３,,02,361,0381204,,,,,,,2021-11-19,1,,,,,ファイナンスアンドコンサルティングファーム,0
283,1470001018836,新規,0,2021-11-19,2021-11-19,株式会社Ｍａｇｉｃ　ｗａｎｄ,,株式会社,香川県,仲多度郡多度津町,本通２丁目７番１８号,,37,404,7640014,,,,,,,2021-11-19,1,,,,,マジックワンド,0
286,1500001023824,新規,0,2021-11-19,2021-11-19,株式会社エムエイチ,,株式会社,愛媛県,松山市,夏目甲６０１番地２５,,38,201,7992437,,,,,,,2021-11-19,1,,,,,エムエイチ,0
287,1700150105907,新規,0,2021-11-19,2021-11-19,Ｒ．Ｓ．ＴＥＣＨ　ＨＯＮＧ　ＫＯＮＧ　ＬＩＭＴＥＤ,,外国会社等,東京都,品川区,東大井３丁目１０番２３号元芝ハイム２０１室,,13,109,1400011,中華人民共和国香港特別行政区新界屯門青楊街１號世紀城市工業大廈５樓Ｃ－１２室,,,,,,2021-11-19,1,,,,,アールエステツクホンコンリミテツド,0
296,2010001222474,新規,0,2021-11-19,2021-11-19,株式会社ＹＹダイニング,,株式会社,東京都,中央区,月島１丁目２２番１－１９１６号,,13,102,1040052,,,,,,,2021-11-19,1,,,,,ワイワイダイニング,0
297,2010001222664,新規,0,2021-11-19,2021-11-19,株式会社アンブレラ,,株式会社,東京都,中央区,銀座１丁目２２番１１号銀座大竹ビジデンス２階,,13,102,1040061,,,,,,,2021-11-19,1,,,,,アンブレラ,0
308,2010401163780,新規,0,2021-11-19,2021-11-19,株式会社ｐａｔｒｏｎｉｄｅ,,株式会社,東京都,港区,南青山２丁目２番１５号,,13,103,1070062,,,,,,,2021-11-19,1,,,,,パトロナイド,0
309,2010401163896,新規,0,2021-11-19,2021-11-19,イフアスク株式会社,,株式会社,東京都,港区,六本木５丁目１６番５号インペリアル六本木１号館８０７号室,,13,103,1060032,,,,,,,2021-11-19,1,,,,,イフアスク,0
320,2010901049827,新規,0,2021-11-19,2021-11-19,株式会社フェリーチェ,,株式会社,東京都,世田谷区,松原１丁目１６番１５号,,13,112,1560043,,,,,,,2021-11-19,1,,,,,フェリーチェ,0
327,2011001144056,新規,0,2021-11-19,2021-11-19,株式会社ｍｌｙ,,株式会社,東京都,渋谷区,神宮前４丁目１５番４号Ｙ．Ｃ表参道ビル１０２,,13,113,1500001,,,,,,,2021-11-19,1,,,,,ミリー,0
329,2011003013738,新規,0,2021-11-19,2021-11-19,しん合同会社,,合同会社,東京都,渋谷区,桜丘町３０番１５－５０２号,,13,113,1500031,,,,,,,2021-11-19,1,,,,,シン,0
334,2011101096965,新規,0,2021-11-19,2021-11-19,株式会社ＬＡＳＴ１,,株式会社,東京都,新宿区,百人町１丁目２１番２４号,,13,104,1690073,,,,,,,2021-11-19,1,,,,,ラストワン,0
335,2011103011187,新規,0,2021-11-19,2021-11-19,トライアズ合同会社,,合同会社,東京都,新宿区,下落合４丁目２２－８１０３,,13,104,1610033,,,,,,,2021-11-19,1,,,,,トライアズ,0
339,2011301027340,新規,0,2021-11-19,2021-11-19,株式会社ＡＯ,,株式会社,東京都,杉並区,高円寺北２丁目３９－２６,,13,115,1660002,,,,,,,2021-11-19,1,,,,,アオ,0
350,2011701024854,新規,0,2021-11-19,2021-11-19,株式会社アールコーポレーション,,株式会社,東京都,江戸川区,西一之江３丁目１５－１４,,13,123,1320023,,,,,,,2021-11-19,1,,,,,アールコーポレーション,0
354,2011805003127,新規,0,2021-11-19,2021-11-19,一般社団法人関東シニアスポーツ普及協議会,,その他の設立登記法人,東京都,葛飾区,東立石４丁目１９番４号,,13,122,1240013,,,,,,,2021-11-19,1,,,,,カントウシニアスポーツフキュウキョウギカイ,0
355,2012401038558,新規,0,2021-11-19,2021-11-19,株式会社トライセクトデザイン,,株式会社,東京都,三鷹市,上連雀５丁目２４番７号エヴァーグリーン３０３,,13,204,1810012,,,,,,,2021-11-19,1,,,,,トライセクトデザイン,0
356,2012403005119,新規,0,2021-11-19,2021-11-19,合同会社建築のたまご,,合同会社,東京都,小金井市,貫井北町１丁目２２－４,,13,210,1840015,,,,,,,2021-11-19,1,,,,,ケンチクノタマゴ,0
382,2020005015279,新規,0,2021-11-19,2021-11-19,一般社団法人医療者リカレント教育実践協会,,その他の設立登記法人,神奈川県,横浜市中区,桜木町１丁目１０１番地１クロスゲート７階,,14,104,2310062,,,,,,,2021-11-19,1,,,,,イリョウシャリカレントキョウイクジッセンキョウカイ,0
388,2021003011113,新規,0,2021-11-19,2021-11-19,合同会社アンドグロウ,,合同会社,神奈川県,横須賀市,上町４丁目６,,14,201,2380017,,,,,,,2021-11-19,1,,,,,アンドグロウ,0
397,2030001145392,新規,0,2021-11-19,2021-11-19,株式会社翔彩工務店,,株式会社,埼玉県,さいたま市中央区,上峰４丁目１４番１８号ラフィナート１０３号,,11,105,3380014,,,,,,,2021-11-19,1,,,,,ショウサイコウムテン,0
398,2030001145426,新規,0,2021-11-19,2021-11-19,美合株式会社,,株式会社,埼玉県,川口市,並木１丁目１３番３２－５０５号エバーグリーン川口,,11,203,3320034,,,,,,,2021-11-19,1,,,,,ビゴウ,0
399,2030001145475,新規,0,2021-11-19,2021-11-19,株式会社大福工務店,,株式会社,埼玉県,さいたま市南区,別所３丁目１９番１６号,,11,108,3360021,,,,,,,2021-11-19,1,,,,,ダイフクコウムテン,0
405,2030003018349,新規,0,2021-11-19,2021-11-19,Ｄｒｅａｍ　Ｓｔａｒ合同会社,,合同会社,埼玉県,ふじみ野市,緑ケ丘２丁目２３－１４,,11,245,3560043,,,,,,,2021-11-19,1,,,,,ドリームスター,0
406,2030003018357,新規,0,2021-11-19,2021-11-19,合同会社ＰＬＡＹ　ＴＯ　ＥＡＲＮ,,合同会社,埼玉県,吉川市,大字保７４０－７,,11,243,3420041,,,,,,,2021-11-19,1,,,,,プレイトゥアーン,0
407,2030003018365,新規,0,2021-11-19,2021-11-19,Ｊ．Ｐ．コンサルティング合同会社,,合同会社,埼玉県,川口市,東領家１丁目９－５,,11,203,3320003,,,,,,,2021-11-19,1,,,,,ジェイピーコンサルティング,0
408,2030005020633,新規,0,2021-11-19,2021-11-19,一般社団法人それいゆ,,その他の設立登記法人,埼玉県,さいたま市浦和区,木崎１丁目４番２５号,,11,107,3300042,,,,,,,2021-11-19,1,,,,,ソレイユ,0
414,2040001121070,新規,0,2021-11-19,2021-11-19,株式会社シャルムズ,,株式会社,千葉県,船橋市,宮本９丁目１１番１号,,12,204,2730003,,,,,,,2021-11-19,1,,,,,シャルムズ,0
415,2040001121087,新規,0,2021-11-19,2021-11-19,株式会社髪未来,,株式会社,千葉県,千葉市中央区,鵜の森町４番２号,,12,101,2600816,,,,,,,2021-11-19,1,,,,,カミミライ,0
417,2040003018975,新規,0,2021-11-19,2021-11-19,Ｔ－Ｎ合同会社,,合同会社,千葉県,松戸市,新松戸北２丁目３番２号ニュー松戸コーポＦ棟２０１号,,12,207,2700032,,,,,,,2021-11-19,1,,,,,ティーエヌ,0
418,2040005021432,新規,0,2021-11-19,2021-11-19,葉月社会保険労務士法人,,その他の設立登記法人,千葉県,船橋市,本町２丁目５番１９号マリーナタカケンビル８階,,12,204,2730005,,,,,,,2021-11-19,1,,,,,ハヅキ,0
422,2050001050178,新規,0,2021-11-19,2021-11-19,雅商事株式会社,,株式会社,茨城県,猿島郡境町,５０５番地,,08,546,3060433,,,,,,,2021-11-19,1,,,,,ミヤビショウジ,0
428,2070001038667,新規,0,2021-11-19,2021-11-19,株式会社わたぐも,,株式会社,群馬県,伊勢崎市,連取町１５３３番地１,,10,204,3720812,,,,,,,2021-11-19,1,,,,,ワタグモ,0
429,2070005009920,新規,0,2021-11-19,2021-11-19,一般社団法人メノキ,,その他の設立登記法人,群馬県,甘楽郡下仁田町,大字東野牧２６３５番地１,,10,382,3702624,,,,,,,2021-11-19,1,,,,,メノキ,0
436,2110001036212,新規,0,2021-11-19,2021-11-19,株式会社Ｗｏｒｌｄ　Ｂｅａｕｔｙ,,株式会社,新潟県,新潟市中央区,鳥屋野２９２番地１,,15,103,9500951,,,,,,,2021-11-19,1,,,,,ワールドビューティー,0
457,2120001241991,新規,0,2021-11-19,2021-11-19,株式会社ＢＹ　ＵＳ　ＣＯＭＰＡＮＹ,,株式会社,大阪府,大阪市西区,北堀江１丁目１５番１１号クリック北堀江ビル３０３号室,,27,106,5500014,,,,,,,2021-11-19,1,,,,,バイアスカンパニー,0
461,2120003020618,新規,0,2021-11-19,2021-11-19,合同会社明峰興産,,合同会社,大阪府,大阪市東淀川区,淡路５丁目１５番７号,,27,114,5330032,,,,,,,2021-11-19,1,,,,,メイホウコウサン,0
462,2120003020626,新規,0,2021-11-19,2021-11-19,合同会社Ｎｅｗ　Ｏｌｄ　Ｓｏｕｎｄｓ,,合同会社,大阪府,大阪市淀川区,西宮原１丁目８－１４新大阪コーポラス１０１９,,27,123,5320004,,,,,,,2021-11-19,1,,,,,ニューオールドサウンズ,0
473,2130001070572,新規,0,2021-11-19,2021-11-19,株式会社ＡＳＯＭＡＴＯＵＳ,,株式会社,京都府,相楽郡笠置町,大字笠置小字佃９番地,,26,364,6191303,,,,,,,2021-11-19,1,,,,,アソマタス,0
494,2180001148785,新規,0,2021-11-19,2021-11-19,株式会社ＵＭＩＴＳＵＫＩ,,株式会社,愛知県,名古屋市中区,栄５丁目２６－３９ＧＳ栄ビル３Ｆ,,23,106,4600008,,,,,,,2021-11-19,1,,,,,ウミツキ,0
495,2180001148819,新規,0,2021-11-19,2021-11-19,ＷａｔｅｒＰＳ株式会社,,株式会社,愛知県,名古屋市中区,丸の内３丁目１７番４号第１１ＫＴビル８階,,23,106,4600002,,,,,,,2021-11-19,1,,,,,ウォーターピーエス,0
500,2180003023210,新規,0,2021-11-19,2021-11-19,ＭＡＴＨＵＲＡＭＡＴＡ合同会社,,合同会社,愛知県,名古屋市中川区,三ツ屋町１丁目２６番地野村ビル１Ｆ,,23,110,4540831,,,,,,,2021-11-19,1,,,,,マトゥラマタ,0
503,2200001039437,新規,0,2021-11-19,2021-11-19,ＣＬＯＶＥＲ５株式会社,,株式会社,岐阜県,羽島郡岐南町,三宅５丁目４８，アイレックス三宅１ＦＢ,,21,302,5016002,,,,,,,2021-11-19,1,,,,,クローバーファイブ,0
506,2210001018704,新規,0,2021-11-19,2021-11-19,大野小水力発電株式会社,,株式会社,福井県,大野市,月美町９番１４号,,18,205,9120031,,,,,,,2021-11-19,1,,,,,オオノショウスイリョクハツデン,0
507,2220001024544,新規,0,2021-11-19,2021-11-19,株式会社カズマル,,株式会社,石川県,野々市市,若松町１３番１８号,,17,212,9218816,,,,,,,2021-11-19,1,,,,,カズマル,0
513,2240005015298,新規,0,2021-11-19,2021-11-19,一般社団法人マツガエ,,その他の設立登記法人,広島県,広島市安芸区,瀬野町２７５９番地３４０,,34,107,7390312,,,,,,,2021-11-19,1,,,,,マツガエ,0
516,2260001036230,新規,0,2021-11-19,2021-11-19,株式会社ニシケン,,株式会社,岡山県,倉敷市,中畝２丁目３番４－２号,,33,202,7128051,,,,,,,2021-11-19,1,,,,,ニシケン,0
518,2260003003724,新規,0,2021-11-19,2021-11-19,合同会社ウェルケア,,合同会社,岡山県,岡山市北区,西之町８－９,,33,101,7000916,,,,,,,2021-11-19,1,,,,,ウェルケア,0
524,2290001095364,新規,0,2021-11-19,2021-11-19,辻養蜂場株式会社,00124916,株式会社,福岡県,嘉麻市,山野２０５５番地６６,,40,227,8200202,,,,,,,2021-11-19,1,,,,,ツジヨウホウジョウ,0
525,2290001095422,新規,0,2021-11-19,2021-11-19,株式会社福和,,株式会社,福岡県,福岡市東区,原田１丁目２０番１２－１０１号,,40,131,8120063,,,,,,,2021-11-19,1,,,,,フクワ,0
526,2290001095430,新規,0,2021-11-19,2021-11-19,株式会社九動,,株式会社,福岡県,福岡市南区,三宅１丁目１５番１５号２階,,40,134,8111344,,,,,,,2021-11-19,1,,,,,キュウドウ,0
531,2290003011815,新規,0,2021-11-19,2021-11-19,合同会社プティエグラン,,合同会社,福岡県,糸島市,二丈武６２４－２２,,40,230,8191616,,,,,,,2021-11-19,1,,,,,プティエグラン,0
535,2300001012714,新規,0,2021-11-19,2021-11-19,日永電産株式会社,,株式会社,佐賀県,神埼郡吉野ヶ里町,田手２４５５番地２,,41,327,8420035,,,,,,,2021-11-19,1,,,,,ニチエイデンサン,0
536,2310005008567,新規,0,2021-11-19,2021-11-19,一般社団法人フェムテック長崎,,その他の設立登記法人,長崎県,長崎市,東山手町３番３６号,,42,201,8500911,,,,,,,2021-11-19,1,,,,,フェムテックナガサキ,0
538,2320005009936,新規,0,2021-11-19,2021-11-19,医療法人かみだ脳神経クリニック,,その他の設立登記法人,大分県,大分市,大字鴛野１０２８番地１,,44,201,8701121,,,,,,,2021-11-19,1,,,,,カミダノウシンケイクリニック,0
545,2360003011584,新規,0,2021-11-19,2021-11-19,合同会社しんかカンパニー,,合同会社,沖縄県,那覇市,曙２丁目１０番１１号国吉アパート１階,,47,201,9000002,,,,,,,2021-11-19,1,,,,,シンカカンパニー,0
550,2370005010385,新規,0,2021-11-19,2021-11-19,ＢＩＺサポート企業組合,,その他の設立登記法人,宮城県,大崎市,松山金谷字向田８８番地１０,,04,215,9871303,,,,,,,2021-11-19,1,,,,,ビズサポート,0
560,2430003013367,新規,0,2021-11-19,2021-11-19,合同会社ＦＣＬ,,合同会社,北海道,札幌市清田区,平岡八条３丁目７番１８号,,01,110,0040878,,,,,,,2021-11-19,1,,,,,エフシーエル,0
561,2430003013375,新規,0,2021-11-19,2021-11-19,Ｓｔｉｍｕｌａｔｉｏｎ合同会社,,合同会社,北海道,札幌市北区,新川７７５番地５１,,01,102,0010930,,,,,,,2021-11-19,1,,,,,スティミュレーション,0
563,2470003002077,新規,0,2021-11-19,2021-11-19,合同会社ｈｉｇｏｔｏ,,合同会社,香川県,高松市,木太町３１６１番地７,,37,201,7600080,,,,,,,2021-11-19,1,,,,,ヒゴト,0
567,2700150105880,新規,0,2021-11-19,2021-11-19,上鹿妻自治会,,その他,岩手県,盛岡市,上鹿妻天沼２９番地４,,03,201,0200855,,,,,,,2021-11-19,1,,,,,カミカヅマジチカイ,0
568,2700150105906,新規,0,2021-11-19,2021-11-19,ＶＩＡ　ＩＶ　ＨＯＬＤＣＯ　１　ＰＴＥ．ＬＴＤ．,,外国会社等,東京都,港区,虎ノ門３丁目２２番１０－２０１号,,13,103,1050001,１０　ＣＨＡＮＧＩ　ＢＵＳＩＮＥＳＳ　ＰＡＲＫ　ＣＥＮＴＲＡＬ　２　＃０５－０１　ＨＡＮＳＡＰＯＩＮＴ　ＳＩＮＧＡＰＯＲＥ（４８６０３０）,,,,,,2021-11-19,1,,,,,ヴイアイエーフオーホールドコーワンピーテイーイーエルテイーデイー,0
578,3010001222614,新規,0,2021-11-19,2021-11-19,株式会社Ｍｅｔａ　ｐｒｉｍｅ,,株式会社,東京都,千代田区,平河町２丁目１１番１号,,13,101,1020093,,,,,,,2021-11-19,1,,,,,メタプライム,0
579,3010001222655,新規,0,2021-11-19,2021-11-19,株式会社ヴェルデホーエンカンパニー,,株式会社,東京都,千代田区,平河町１丁目６番１５号ＵＳビル８階,,13,101,1020093,,,,,,,2021-11-19,1,,,,,ヴェルデホーエンカンパニー,0
596,3010401163895,新規,0,2021-11-19,2021-11-19,株式会社ｎａｔｏｓ,,株式会社,東京都,港区,北青山３丁目６番７号青山パラシオタワー１１階,,13,103,1070061,,,,,,,2021-11-19,1,,,,,ナトス,0
597,3010401163904,新規,0,2021-11-19,2021-11-19,株式会社プレオウンドウォッチ,,株式会社,東京都,港区,六本木７丁目２１番１７号,,13,103,1060032,,,,,,,2021-11-19,1,,,,,プレオウンドウォッチ,0
598,3010401163945,新規,0,2021-11-19,2021-11-19,ＭＰＲ株式会社,,株式会社,東京都,港区,浜松町２丁目２番１５号浜松町ダイヤビル２Ｆ,,13,103,1050013,,,,,,,2021-11-19,1,,,,,エムピーアール,0
601,3010403026530,新規,0,2021-11-19,2021-11-19,ウエストバリー合同会社,,合同会社,東京都,港区,南青山３丁目１５－９ＭＩＮＯＷＡ表参道３階,,13,103,1070062,,,,,,,2021-11-19,1,,,,,ウエストバリー,0
602,3010403026571,新規,0,2021-11-19,2021-11-19,カンサイレジデンス合同会社,,合同会社,東京都,港区,元赤坂１丁目１番８号株式会社赤坂国際会計内,,13,103,1070051,,,,,,,2021-11-19,1,,,,,カンサイレジデンス,0
603,3010405020432,新規,0,2021-11-19,2021-11-19,青木インベストメント一般社団法人,,その他の設立登記法人,東京都,港区,虎ノ門４丁目１番２８号,,13,103,1050001,,,,,,,2021-11-19,1,,,,,アオキインベストメント,0
605,3010501048121,新規,0,2021-11-19,2021-11-19,株式会社Ｃｏｌｌｅｔ,,株式会社,東京都,台東区,上野２丁目１番３号,,13,106,1100005,,,,,,,2021-11-19,1,,,,,コレット,0
608,3010701041801,新規,0,2021-11-19,2021-11-19,株式会社ＴＥＲＲＡ,,株式会社,東京都,品川区,小山６丁目６－４ダイヤモンドレジデンス西小山４０２,,13,109,1420062,,,,,,,2021-11-19,1,,,,,テラ,0
616,3010901049842,新規,0,2021-11-19,2021-11-19,株式会社ＹＯＫＯ,,株式会社,東京都,世田谷区,上祖師谷１丁目１３番２－３０１号,,13,112,1570065,,,,,,,2021-11-19,1,,,,,ヨコ,0
619,3010903006949,新規,0,2021-11-19,2021-11-19,合同会社ｋｉｄｓｋｎｏｗ,,合同会社,東京都,世田谷区,成城４丁目１８番２３号,,13,112,1570066,,,,,,,2021-11-19,1,,,,,キズナ,0
626,3011001144055,新規,0,2021-11-19,2021-11-19,株式会社ブロードエッジ・ＤＸ,,株式会社,東京都,渋谷区,代官山町２０番９号,,13,113,1500034,,,,,,,2021-11-19,1,,,,,ブロードエッジディーエックス,0
627,3011001144105,新規,0,2021-11-19,2021-11-19,株式会社マイプラ,,株式会社,東京都,渋谷区,代々木２丁目１１番５－９０５号アクティブ新宿,,13,113,1510053,,,,,,,2021-11-19,1,,,,,マイプラ,0
634,3011101096956,新規,0,2021-11-19,2021-11-19,恒昇株式会社,,株式会社,東京都,新宿区,百人町２丁目１－４５赤煉瓦２１３号,,13,104,1690073,,,,,,,2021-11-19,1,,,,,コウショウ,0
645,3011401023858,新規,0,2021-11-19,2021-11-19,ＡＺＳ株式会社,,株式会社,東京都,板橋区,徳丸７丁目２３番１０号,,13,119,1750083,,,,,,,2021-11-19,1,,,,,アザス,0
646,3011403003503,新規,0,2021-11-19,2021-11-19,石井管理合同会社,,合同会社,東京都,板橋区,徳丸３丁目４１番２７号,,13,119,1750083,,,,,,,2021-11-19,1,,,,,イシイカンリ,0
655,3011801039966,新規,0,2021-11-19,2021-11-19,千帆株式会社,,株式会社,東京都,足立区,竹の塚１丁目１３－１３－２０３号室,,13,121,1210813,,,,,,,2021-11-19,1,,,,,チホ,0
656,3011801039990,新規,0,2021-11-19,2021-11-19,株式会社ＡＬＺＥ,,株式会社,東京都,足立区,東保木間２丁目１４番９－４０１号,,13,121,1210063,,,,,,,2021-11-19,1,,,,,アルゼ,0
662,3012403005118,新規,0,2021-11-19,2021-11-19,合同会社ジェネラルゲームス,,合同会社,東京都,府中市,天神町１丁目２－３銀杏ビル２０３,,13,206,1830053,,,,,,,2021-11-19,1,,,,,ジェネラルゲームス,0
678,3020001144007,新規,0,2021-11-19,2021-11-19,株式会社Ａ－ＴＥＣ,,株式会社,神奈川県,横浜市瀬谷区,南瀬谷１丁目３７番地７,,14,114,2460034,,,,,,,2021-11-19,1,,,,,エーテック,0
683,3021001074540,新規,0,2021-11-19,2021-11-19,株式会社山紀,,株式会社,神奈川県,藤沢市,片瀬海岸３丁目１番３３号,,14,205,2510035,,,,,,,2021-11-19,1,,,,,サンキ,0
691,3021003011112,新規,0,2021-11-19,2021-11-19,Ｋｏｋｅｎ　Ｃｏｎｓｕｌｔｉｎｇ合同会社,,合同会社,神奈川県,相模原市南区,相武台１丁目１１番３号,,14,153,2520324,,,,,,,2021-11-19,1,,,,,コウケンコンサルティング,0
701,3030001145482,新規,0,2021-11-19,2021-11-19,株式会社リープ販売センター,,株式会社,埼玉県,桶川市,泉１丁目７番６号,,11,231,3630021,,,,,,,2021-11-19,1,,,,,リープハンバイセンター,0
709,3040001121061,新規,0,2021-11-19,2021-11-19,株式会社Ｆｌｉｇｈｔ　Ａｓｓｉｓｔ,,株式会社,千葉県,富里市,日吉倉７４４番地２,,12,233,2860202,,,,,,,2021-11-19,1,,,,,フライトアシスト,0
720,3060001034311,新規,0,2021-11-19,2021-11-19,株式会社Ｔ・Ｈ・Ｆ,,株式会社,栃木県,真岡市,長田４丁目１１番地３サカエハイツＤ号棟,,09,209,3214364,,,,,,,2021-11-19,1,,,,,ティーエイチエフ,0
721,3070003004303,新規,0,2021-11-19,2021-11-19,ＳＥＲＥＳＡ　Ｈ＆Ｈ合同会社,,合同会社,群馬県,邑楽郡邑楽町,大字中野４００１番３号,,10,525,3700603,,,,,,,2021-11-19,1,,,,,セレサエイチアンドエイチ,0
730,3100003006295,新規,0,2021-11-19,2021-11-19,合同会社コンコクト,,合同会社,長野県,下伊那郡平谷村,９１７番地１,,20,409,3950601,,,,,,,2021-11-19,1,,,,,コンコクト,0
731,3100005012795,新規,0,2021-11-19,2021-11-19,学校法人飯田ルーテル学園,,その他の設立登記法人,長野県,飯田市,仲ノ町１丁目７番地,,20,205,3950021,,,,,,,2021-11-19,1,,,,,イイダルーテルガクエン,0
748,3120001241925,新規,0,2021-11-19,2021-11-19,輝洋貿易株式会社,,株式会社,大阪府,大阪市西区,江戸堀２丁目１番１号江戸堀センタービル９階,,27,106,5500002,,,,,,,2021-11-19,1,,,,,キヨウボウエキ,0
749,3120001241982,新規,0,2021-11-19,2021-11-19,株式会社関西システムデベロップメント,,株式会社,大阪府,大阪市中央区,南船場４丁目１０番５号南船場ＳＯＨＯビル７０２,,27,128,5420081,,,,,,,2021-11-19,1,,,,,カンサイシステムデベロップメント,0
750,3120001241990,新規,0,2021-11-19,2021-11-19,株式会社ママミヤン,,株式会社,大阪府,大阪市浪速区,恵美須西１丁目２番５号マウンテン・ウエストビル５０７,,27,111,5560003,,,,,,,2021-11-19,1,,,,,ママミヤン,0
751,3120001241999,新規,0,2021-11-19,2021-11-19,株式会社吉裕,,株式会社,大阪府,大阪市淀川区,塚本５丁目３番１１号,,27,123,5320026,,,,,,,2021-11-19,1,,,,,ヨシヒロ,0
752,3120001242007,新規,0,2021-11-19,2021-11-19,株式会社Ｌｉｂｅｒｔａ,,株式会社,大阪府,大阪市西区,本田３丁目３番２４号エオス４Ｂ,,27,106,5500022,,,,,,,2021-11-19,1,,,,,リベルタ,0
755,3120003020633,新規,0,2021-11-19,2021-11-19,ＭＫＧ合同会社,,合同会社,大阪府,大阪市阿倍野区,阪南町２丁目２０番１９号,,27,119,5450021,,,,,,,2021-11-19,1,,,,,エムケージー,0
762,3120901045236,新規,0,2021-11-19,2021-11-19,株式会社Ｓａｌｏｎ,,株式会社,大阪府,高槻市,淀の原町２１－２０,,27,207,5690001,,,,,,,2021-11-19,1,,,,,サロン,0
764,3122001035373,新規,0,2021-11-19,2021-11-19,クレスト・ジャパン株式会社,,株式会社,大阪府,東大阪市,長田東２丁目１番３３号,,27,227,5770012,,,,,,,2021-11-19,1,,,,,クレストジャパン,0
780,3140001123915,新規,0,2021-11-19,2021-11-19,株式会社Ａ．Ｓ．Ｓ,,株式会社,兵庫県,宝塚市,今里町１７番８号,,28,214,6650862,,,,,,,2021-11-19,1,,,,,エーエスエス,0
805,3180303005171,新規,0,2021-11-19,2021-11-19,ショーナプラン合同会社,,合同会社,愛知県,岡崎市,戸崎町字藤狭２０番地２９７グローリアス岡崎戸崎町８０３,,23,202,4440841,,,,,,,2021-11-19,1,,,,,ショーナプラン,0
807,3210001018703,新規,0,2021-11-19,2021-11-19,株式会社Ｈａｒｖｅｓｔ,,株式会社,福井県,福井市,下森田桜町７０９番２,,18,201,9100146,,,,,,,2021-11-19,1,,,,,ハーヴェスト,0
810,3220001024551,新規,0,2021-11-19,2021-11-19,株式会社ＢＮＬ,,株式会社,石川県,金沢市,畝田西３丁目１８７番地,,17,201,9200342,,,,,,,2021-11-19,1,,,,,ビーエヌエル,0
816,3240001058952,新規,0,2021-11-19,2021-11-19,株式会社西賢,,株式会社,広島県,廿日市市,山陽園４番５号,,34,213,7380002,,,,,,,2021-11-19,1,,,,,ニシケン,0
827,3280005007448,新規,0,2021-11-19,2021-11-19,一般社団法人日本コミュニケーションエステティック協会,,その他の設立登記法人,島根県,浜田市,日脚町１８５番地１２（３）,,32,202,6971322,,,,,,,2021-11-19,1,,,,,ニホンコミュニケーションエステティックキョウカイ,0
838,3290001095297,新規,0,2021-11-19,2021-11-19,株式会社Ａｄｖａｇｅ,,株式会社,福岡県,福岡市中央区,警固２丁目１２－１９アイリス警固ビル３Ｆ,,40,133,8100023,,,,,,,2021-11-19,1,,,,,アドベージ,0
839,3290001095454,新規,0,2021-11-19,2021-11-19,株式会社滿菜,,株式会社,福岡県,福岡市博多区,空港前３丁目１９番３９号,,40,132,8120002,,,,,,,2021-11-19,1,,,,,マンサイ,0
840,3290001095487,新規,0,2021-11-19,2021-11-19,株式会社サンズクラフト,,株式会社,福岡県,飯塚市,横田２４５番地フランフラワー１０２,,40,205,8200044,,,,,,,2021-11-19,1,,,,,サンズクラフト,0
841,3290003011731,新規,0,2021-11-19,2021-11-19,ＧＯＬＤＥＮ　ＰＩＧ　ＰＩＧ合同会社,,合同会社,福岡県,福岡市早良区,重留７丁目２－１２,,40,137,8111101,,,,,,,2021-11-19,1,,,,,ゴールデンピッグピッグ,0
845,3300001012705,新規,0,2021-11-19,2021-11-19,株式会社ＯＡアイランド,,株式会社,佐賀県,鳥栖市,江島町２３４６番地３５,,41,203,8410073,,,,,,,2021-11-19,1,,,,,オーエーアイランド,0
848,3320001018741,新規,0,2021-11-19,2021-11-19,株式会社リオレミ,,株式会社,大分県,大分市,大字中戸次１３３７番地１オレンジＤＡＹＳーＡ２０１,,44,201,8797761,,,,,,,2021-11-19,1,,,,,リオレミ,0
854,3340001024283,新規,0,2021-11-19,2021-11-19,株式会社テクレ,,株式会社,鹿児島県,鹿児島市,谷山中央４丁目４８５５番地ルミエール伊牟田２０１号,,46,201,8910141,,,,,,,2021-11-19,1,,,,,テクレ,0
860,3350001017427,新規,0,2021-11-19,2021-11-19,株式会社ワール,,株式会社,宮崎県,宮崎市,大字赤江１２６９番地２,,45,201,8800912,,,,,,,2021-11-19,1,,,,,ワール,0
863,3360001029652,新規,0,2021-11-19,2021-11-19,株式会社ＵｎｔａｍａＭ,,株式会社,沖縄県,中頭郡西原町,字我謝２４８番地の３,,47,329,9030112,,,,,,,2021-11-19,1,,,,,アンテイマエム,0
873,3410001013023,新規,0,2021-11-19,2021-11-19,株式会社ネイティブ,,株式会社,秋田県,秋田市,大町５丁目７番６０号,,05,201,0100921,,,,,,,2021-11-19,1,,,,,ネイティブ,0
875,3430001085416,新規,0,2021-11-19,2021-11-19,株式会社Ｔｒａｎｓｐｏｒｔａｔｉｏｎ９２,,株式会社,北海道,苫小牧市,拓勇西町６丁目６番２１号,,01,213,0591302,,,,,,,2021-11-19,1,,,,,トランスポーテーションナインツー,0
895,4010001222729,新規,0,2021-11-19,2021-11-19,株式会社ウィーリンク,,株式会社,東京都,千代田区,神田錦町３丁目９－２－３Ｆ,,13,101,1010054,,,,,,,2021-11-19,1,,,,,ウィーリンク,0
896,4010003036326,新規,0,2021-11-19,2021-11-19,ＴＥＩＪＩＮ　ＣＭＩＣ　ＢＤＩ合同会社,,合同会社,東京都,千代田区,霞が関３丁目２番１号,,13,101,1000013,,,,,,,2021-11-19,1,,,,,テイジンシイミックビーディーアイ,0
897,4010005034229,新規,0,2021-11-19,2021-11-19,名取特定目的会社,,その他の設立登記法人,東京都,中央区,日本橋１丁目４番１号,,13,102,1030027,,,,,,,2021-11-19,1,,,,,ナトリ,0
904,4010401163985,新規,0,2021-11-19,2021-11-19,株式会社ビゲスト,,株式会社,東京都,港区,赤坂３丁目２１番８号,,13,103,1070052,,,,,,,2021-11-19,1,,,,,ビゲスト,0
906,4010403026521,新規,0,2021-11-19,2021-11-19,アップデート合同会社,,合同会社,東京都,港区,浜松町２丁目２番１５号浜松町ダイヤビル２Ｆ,,13,103,1050013,,,,,,,2021-11-19,1,,,,,アップデート,0
907,4010403026570,新規,0,2021-11-19,2021-11-19,稲城合同会社,,合同会社,東京都,港区,元赤坂１丁目１番８号株式会社赤坂国際会計内,,13,103,1070051,,,,,,,2021-11-19,1,,,,,イナギ,0
908,4010405020415,新規,0,2021-11-19,2021-11-19,一般社団法人日本デジタルマーケティング協会,,その他の設立登記法人,東京都,港区,六本木４丁目８番６号パシフィックキャピタルプラザ６階,,13,103,1060032,,,,,,,2021-11-19,1,,,,,ニホンデジタルマーケティングキョウカイ,0
913,4010505003278,新規,0,2021-11-19,2021-11-19,一般財団法人マルゼン食みらい創造財団,,その他の設立登記法人,東京都,台東区,根岸２丁目１９番１８号,,13,106,1100003,,,,,,,2021-11-19,1,,,,,マルゼンショクミライソウゾウザイダン,0
915,4010701041809,新規,0,2021-11-19,2021-11-19,株式会社ワイケイアカウンティング,,株式会社,東京都,品川区,東品川３丁目８番８－８１１号,,13,109,1400002,,,,,,,2021-11-19,1,,,,,ワイケイアカウンティング,0
920,4010803003962,新規,0,2021-11-19,2021-11-19,合同会社Ｃｏｒａｌ　Ｂｌｕｅ,,合同会社,東京都,大田区,大森北２丁目１３番３１号大森プロストシティレジデンス１４２４,,13,111,1430016,,,,,,,2021-11-19,1,,,,,コーラルブルー,0
921,4010901049825,新規,0,2021-11-19,2021-11-19,株式会社Ｎｏｄｅ－Ａ,,株式会社,東京都,世田谷区,玉川２丁目２８番１０－１０２号,,13,112,1580094,,,,,,,2021-11-19,1,,,,,ノードエー,0
925,4011001144054,新規,0,2021-11-19,2021-11-19,株式会社ＩＣＨＩ　ＩＣＨＩ,,株式会社,東京都,渋谷区,宇田川町３７番１５号ＡＲＩＳＴＯ渋谷６階,,13,113,1500042,,,,,,,2021-11-19,1,,,,,イチイチ,0
926,4011001144104,新規,0,2021-11-19,2021-11-19,株式会社エンポリオアーツ,,株式会社,東京都,渋谷区,千駄ヶ谷１丁目２９番４号３Ｆ,,13,113,1510051,,,,,,,2021-11-19,1,,,,,エンポリオアーツ,0
927,4011001144137,新規,0,2021-11-19,2021-11-19,株式会社Ｌ’Ｓ,,株式会社,東京都,渋谷区,道玄坂１丁目６番２号,,13,113,1500043,,,,,,,2021-11-19,1,,,,,エルズ,0
928,4011003013744,新規,0,2021-11-19,2021-11-19,合同会社豊松,,合同会社,東京都,渋谷区,神宮前６丁目２９番４号原宿ｋｏｍｉｙａビル６階,,13,113,1500001,,,,,,,2021-11-19,1,,,,,トヨマツ,0
929,4011005009311,新規,0,2021-11-19,2021-11-19,桜丘社会保険労務士法人,,その他の設立登記法人,東京都,渋谷区,桜丘町２９番２４－７０９号,,13,113,1500031,,,,,,,2021-11-19,1,,,,,サクラガオカ,0
931,4011101096955,新規,0,2021-11-19,2021-11-19,Ａｃｈｉｌｌｅｓ株式会社,,株式会社,東京都,新宿区,百人町２丁目１８番１５号,,13,104,1690073,,,,,,,2021-11-19,1,,,,,アキレス,0
944,4012701016781,新規,0,2021-11-19,2021-11-19,日本ＬＷＩ株式会社,,株式会社,東京都,西東京市,新町３丁目１１番２７号,,13,229,2020023,,,,,,,2021-11-19,1,,,,,ニホンエルダブリュアイ,0
945,4012801021228,新規,0,2021-11-19,2021-11-19,株式会社Ｊ　ａｎｄ　Ｊ,,株式会社,東京都,立川市,富士見町２丁目１９番８号,,13,202,1900013,,,,,,,2021-11-19,1,,,,,ジェイアンドジェイ,0
957,4020001144006,新規,0,2021-11-19,2021-11-19,株式会社桜国際商事,,株式会社,神奈川県,川崎市川崎区,昭和１丁目５番１１号ユナイトＳＨＯＷＡザ・シンボル２１０,,14,131,2100813,,,,,,,2021-11-19,1,,,,,サクラコクサイショウジ,0
967,4020003020865,新規,0,2021-11-19,2021-11-19,合同会社リスクインデックス,,合同会社,神奈川県,横浜市中区,海岸通４丁目２３番地,,14,104,2310002,,,,,,,2021-11-19,1,,,,,リスクインデックス,0
979,4030001145432,新規,0,2021-11-19,2021-11-19,ＨＯＡＮＧ　ＨＵＮＧ株式会社,,株式会社,埼玉県,本庄市,小島１丁目１０番２９号,,11,211,3670061,,,,,,,2021-11-19,1,,,,,ホアンフン,0
980,4030001145481,新規,0,2021-11-19,2021-11-19,和が家カンパニーズ株式会社,,株式会社,埼玉県,蓮田市,東５丁目８番６５号,,11,238,3490111,,,,,,,2021-11-19,1,,,,,ワガヤカンパニーズ,0
989,4040001121060,新規,0,2021-11-19,2021-11-19,株式会社東迅,,株式会社,千葉県,千葉市中央区,祐光４丁目１１番５－１０３号,,12,101,2600007,,,,,,,2021-11-19,1,,,,,トウジン,0
990,4040001121085,新規,0,2021-11-19,2021-11-19,株式会社Ｒ３５６,,株式会社,千葉県,香取市,野田２３２－４,,12,236,2890314,,,,,,,2021-11-19,1,,,,,アールサンゴーロク,0
991,4040001121102,新規,0,2021-11-19,2021-11-19,株式会社ＲＵＳＨ,,株式会社,千葉県,浦安市,日の出１丁目４番Ｃ,,12,227,2790013,,,,,,,2021-11-19,1,,,,,ラッシュ,0
995,4040003018981,新規,0,2021-11-19,2021-11-19,合同会社プレムローゾ,,合同会社,千葉県,松戸市,小金きよしケ丘２丁目２－１１ひより１０２,,12,207,2700013,,,,,,,2021-11-19,1,,,,,プレムローゾ,0
996,4040005021430,新規,0,2021-11-19,2021-11-19,一般社団法人モアルソーシャルパートナー,,その他の設立登記法人,千葉県,千葉市若葉区,若松町４８５,,12,104,2640021,,,,,,,2021-11-19,1,,,,,モアルソーシャルパートナー,0
999,4080101022923,新規,0,2021-11-19,2021-11-19,株式会社ＣＨＥＲＩＲ,,株式会社,静岡県,熱海市,青葉町９番９号,,22,205,4130041,,,,,,,2021-11-19,1,,,,,シェリール,0
1001,4080401025485,新規,0,2021-11-19,2021-11-19,株式会社ＳＴＵＤＩＯ　ＯＮＥ,,株式会社,静岡県,袋井市,上山梨９６７番地の１,,22,216,4370125,,,,,,,2021-11-19,1,,,,,スタジオワン,0
1003,4080403004413,新規,0,2021-11-19,2021-11-19,バルディア合同会社,,合同会社,静岡県,浜松市南区,若林町１１２９番地ビバリー若林２０３号,,22,134,4328051,,,,,,,2021-11-19,1,,,,,バルディア,0
1004,4090001017279,新規,0,2021-11-19,2021-11-19,株式会社ＣＡＳＥ建築研究所,,株式会社,山梨県,富士吉田市,旭１丁目３番２５－４号ｈｏｕｒｓ　Ａ号室,,19,202,4030012,,,,,,,2021-11-19,1,,,,,ケースケンチクケンキュウジョ,0
1006,4100005012794,新規,0,2021-11-19,2021-11-19,特定非営利活動法人織り成す軽井沢,,その他の設立登記法人,長野県,北佐久郡軽井沢町,中軽井沢１７番地８,,20,321,3890112,,,,,,,2021-11-19,1,,,,,オリナスカルイザワ,0
1019,4120001242039,新規,0,2021-11-19,2021-11-19,ＴＷＳコンサルティング株式会社,,株式会社,大阪府,大阪市中央区,久太郎町４丁目１－３大阪センタービル６Ｆ,,27,128,5410056,,,,,,,2021-11-19,1,,,,,ティーダブリューエスコンサルティング,0
1034,4120103004444,新規,0,2021-11-19,2021-11-19,合同会社ヤマザクラ,,合同会社,大阪府,和泉市,山荘町１丁目１８番４３号,,27,219,5940021,,,,,,,2021-11-19,1,,,,,ヤマザクラ,0
1035,4120901045235,新規,0,2021-11-19,2021-11-19,株式会社ＴＴＫ,,株式会社,大阪府,池田市,八王寺１丁目２番１４号,,27,204,5630037,,,,,,,2021-11-19,1,,,,,ティーティーケー,0
1040,4130001070579,新規,0,2021-11-19,2021-11-19,株式会社ｂｏｂｙ,,株式会社,京都府,京都市東山区,渋谷通東大路東入三丁目上馬町６０４番地１７,,26,105,6050000,,,,,,,2021-11-19,1,,,,,ボビー,0
1047,4140001123897,新規,0,2021-11-19,2021-11-19,株式会社ウエックス,,株式会社,兵庫県,神戸市東灘区,青木５丁目１２番５号,,28,101,6580027,,,,,,,2021-11-19,1,,,,,ウエックス,0
1048,4140001123914,新規,0,2021-11-19,2021-11-19,株式会社カトウテック,,株式会社,兵庫県,姫路市,白浜町神田２丁目８５番地,,28,201,6728011,,,,,,,2021-11-19,1,,,,,カトウテック,0
1054,4160005011015,新規,0,2021-11-19,2021-11-19,一般社団法人学友舎,,その他の設立登記法人,滋賀県,東近江市,小田苅町１７３８番地,,25,213,5270125,,,,,,,2021-11-19,1,,,,,ガクユウシャ,0
1073,4180301035640,新規,0,2021-11-19,2021-11-19,株式会社カトーソフトウェアシステムズ,,株式会社,愛知県,刈谷市,一色町１丁目９‐３第３ユタカビル３０３号,,23,210,4480022,,,,,,,2021-11-19,1,,,,,カトーソフトウェアシステムズ,0
1081,4220001024550,新規,0,2021-11-19,2021-11-19,株式会社ビューティーサロン,,株式会社,石川県,金沢市,本町２丁目１番１号パレスビル,,17,201,9200853,,,,,,,2021-11-19,1,,,,,ビューティーサロン,0
1088,4250005008704,新規,0,2021-11-19,2021-11-19,医療法人スマイルキッズクリニック,,その他の設立登記法人,山口県,下関市,小月駅前１丁目２番４３号,,35,201,7501143,,,,,,,2021-11-19,1,,,,,スマイルキッズクリニック,0
1098,4290001095478,新規,0,2021-11-19,2021-11-19,株式会社Ｓｕｎｓｅｅｄ,,株式会社,福岡県,大川市,大字大野島９８番地１,,40,212,8310045,,,,,,,2021-11-19,1,,,,,サンシード,0
1102,4290003011838,新規,0,2021-11-19,2021-11-19,合同会社エスポレーション,,合同会社,福岡県,那珂川市,西隈１丁目３番１号,,40,231,8111242,,,,,,,2021-11-19,1,,,,,エスポレーション,0
1105,4300001012704,新規,0,2021-11-19,2021-11-19,エムロジテック株式会社,,株式会社,佐賀県,鳥栖市,曽根崎町１００８番地,,41,203,8410025,,,,,,,2021-11-19,1,,,,,エムロジテック,0
1107,4310001017594,新規,0,2021-11-19,2021-11-19,株式会社ネメシスジャパン,,株式会社,長崎県,佐世保市,木宮町３番１６号リバーサイドマンション桜２０１,,42,202,8580916,,,,,,,2021-11-19,1,,,,,ネメシスジャパン,0
1126,4370005010383,新規,0,2021-11-19,2021-11-19,Ｗｉｔｈ．行政書士法人,,その他の設立登記法人,宮城県,仙台市青葉区,東照宮２丁目５番２号１階,,04,101,9810908,,,,,,,2021-11-19,1,,,,,ウィズ,0
1149,4500001023821,新規,0,2021-11-19,2021-11-19,株式会社ＴＯＰ１,,株式会社,愛媛県,松山市,千舟町１丁目２番地１０エステート千舟１Ｆ,,38,201,7900011,,,,,,,2021-11-19,1,,,,,トップワン,0
1152,4700150105904,新規,0,2021-11-19,2021-11-19,ＪＥＴＡＩＲ　１６　ＬＩＭＩＴＥＤ,,外国会社等,,,,,,,,Ｕｎｉｔ　Ｊ，Ｂｌｏｃｋ　１，Ｓｈａｎｎｏｎ　Ｂｕｓｉｎｅｓｓ　Ｐａｒｋ，Ｓｈａｎｎｏｎ，Ｃｏｕｎｔｙ　Ｃｌａｒｅ，Ｉｒｅｌａｎｄ,,,,,,2021-11-19,1,,,,,ジエツトエアーイチロクリミテツド,0
1159,5010001222629,新規,0,2021-11-19,2021-11-19,株式会社Ｎｋｏフィールド,,株式会社,東京都,千代田区,九段北１丁目５番５－１０２号,,13,101,1020073,,,,,,,2021-11-19,1,,,,,エヌコフィールド,0
1161,5010005034228,新規,0,2021-11-19,2021-11-19,一般社団法人六本木リアルティ・ワン,,その他の設立登記法人,東京都,中央区,日本橋１丁目４番１号,,13,102,1030027,,,,,,,2021-11-19,1,,,,,ロッポンギリアルティワン,0
1163,5010101014959,新規,0,2021-11-19,2021-11-19,株式会社松建,,株式会社,東京都,八王子市,元本郷町２丁目１９番１４号セゾン八王子４０１号,,13,201,1920051,,,,,,,2021-11-19,1,,,,,,0
1168,5010401163860,新規,0,2021-11-19,2021-11-19,株式会社多助,,株式会社,東京都,港区,新橋３丁目２番３号２階,,13,103,1050004,,,,,,,2021-11-19,1,,,,,タスケ,0
1169,5010401163877,新規,0,2021-11-19,2021-11-19,Ａｌｌｉａｎｃｅ　Ｇｌｏｂａｌ　Ｇｒｏｕｐ株式会社,,株式会社,東京都,港区,赤坂３丁目７番１５号,,13,103,1070052,,,,,,,2021-11-19,1,,,,,アライアンスグローバルグループ,0
1170,5010401163968,新規,0,2021-11-19,2021-11-19,ＰＪＣ　Ｉｎｖｅｓｔｍｅｎｔｓ株式会社,,株式会社,東京都,港区,西新橋１丁目２番９号ＥＰコンサルティングサービス内,,13,103,1050003,,,,,,,2021-11-19,1,,,,,ピージェイシーインベストメンツ,0
1174,5010405020430,新規,0,2021-11-19,2021-11-19,特定非営利活動法人セイエン,,その他の設立登記法人,東京都,港区,芝４丁目７番１号西山ビル４階,,13,103,1080014,,,,,,,2021-11-19,1,,,,,セイエン,0
1179,5010601060247,新規,0,2021-11-19,2021-11-19,八方通株式会社,,株式会社,東京都,江東区,亀戸２丁目４４番１０号,,13,108,1360071,,,,,,,2021-11-19,1,,,,,ハッポウツウ,0
1180,5010601060263,新規,0,2021-11-19,2021-11-19,エースホールディングス株式会社,,株式会社,東京都,江東区,東雲１丁目９－５０－２７０４,,13,108,1350062,,,,,,,2021-11-19,1,,,,,エースホールディングス,0
1187,5010705003291,新規,0,2021-11-19,2021-11-19,一般社団法人日本華僑華人国際ダンス連盟,,その他の設立登記法人,東京都,品川区,上大崎２丁目４番２４号,,13,109,1410021,,,,,,,2021-11-19,1,,,,,ニホンカキョウカジンコクサイダンスレンメイ,0
1190,5010801032509,新規,0,2021-11-19,2021-11-19,株式会社ＹＯＮＥＳＨＯ,,株式会社,東京都,大田区,東海３丁目７－１ＧＴＯビル６００号室,,13,111,1430001,,,,,,,2021-11-19,1,,,,,ヨネショウ,0
1192,5010903006947,新規,0,2021-11-19,2021-11-19,合同会社ＯＶＥＲ,,合同会社,東京都,世田谷区,野沢３丁目２２－１２－２０１,,13,112,1540003,,,,,,,2021-11-19,1,,,,,オーバー,0
1193,5010903006955,新規,0,2021-11-19,2021-11-19,リゲル合同会社,,合同会社,東京都,世田谷区,奥沢２丁目２３番３号,,13,112,1580083,,,,,,,2021-11-19,1,,,,,リゲル,0
1202,5011001144053,新規,0,2021-11-19,2021-11-19,ＪＭＦ株式会社,,株式会社,東京都,渋谷区,神宮前３丁目１６－１７ｍ－ｆｒａｍｅ神宮前２Ｆ－Ｂ,,13,113,1500001,,,,,,,2021-11-19,1,,,,,ジェイエムエフ,0
1203,5011001144086,新規,0,2021-11-19,2021-11-19,株式会社ユウ,,株式会社,東京都,渋谷区,渋谷２丁目１９番１５－６０９号宮益坂ビルディング,,13,113,1500002,,,,,,,2021-11-19,1,,,,,ユウ,0
1204,5011001144094,新規,0,2021-11-19,2021-11-19,ＳＤＦキャピタル株式会社,,株式会社,東京都,目黒区,目黒１丁目４番１６号目黒Ｇビル５Ｆ,,13,110,1530063,,,,,,,2021-11-19,1,,,,,エスディーエフキャピタル,0
1205,5011001144103,新規,0,2021-11-19,2021-11-19,株式会社マネーメディアラボ,,株式会社,東京都,目黒区,大橋１丁目５番１クロスエアタワー２６０４号,,13,110,1530044,,,,,,,2021-11-19,1,,,,,マネーメディアラボ,0
1206,5011001144128,新規,0,2021-11-19,2021-11-19,株式会社Ｌｕｉｇｉａ,,株式会社,東京都,目黒区,中目黒１丁目１番６３－４０２号シャトー代官山,,13,110,1530061,,,,,,,2021-11-19,1,,,,,ルイジア,0
1211,5011003013743,新規,0,2021-11-19,2021-11-19,ＴｏｋｙｏＢｅａｕｔｙ＆Ｍｅｄｉｃａｌ合同会社,,合同会社,東京都,目黒区,三田１丁目５番５号ＹＥＢＩＳＵＦＬＡＴ１階,,13,110,1530062,,,,,,,2021-11-19,1,,,,,トウキョウビューティーアンドメディカル,0
1212,5011003013751,新規,0,2021-11-19,2021-11-19,合同会社つくね商事,,合同会社,東京都,渋谷区,渋谷２丁目１９番１５号宮益坂ビルディング６０９,,13,113,1500002,,,,,,,2021-11-19,1,,,,,ツクネショウジ,0
1228,5011801039989,新規,0,2021-11-19,2021-11-19,株式会社ＴｒｅａｓｕｒｅＢｏｘ,,株式会社,東京都,足立区,竹の塚５丁目１番３号,,13,121,1210813,,,,,,,2021-11-19,1,,,,,トレジャーボックス,0
1240,5013303005916,新規,0,2021-11-19,2021-11-19,ＧＬＯＢＡＬ　ＲＯＳＨＩ合同会社,,合同会社,東京都,豊島区,北大塚１丁目１番１号,,13,116,1700004,,,,,,,2021-11-19,1,,,,,グローバルロシ,0
1264,5030001145225,新規,0,2021-11-19,2021-11-19,株式会社成航,,株式会社,埼玉県,深谷市,折之口字屋敷合４５３番地３,,11,218,3660812,,,,,,,2021-11-19,1,,,,,セイコウ,0
1265,5030001145464,新規,0,2021-11-19,2021-11-19,泰惠企業株式会社,,株式会社,埼玉県,戸田市,喜沢２丁目３４番地の７（ステイツ戸田喜沢４０３号室）,,11,224,3350013,,,,,,,2021-11-19,1,,,,,タイケイキギョウ,0
1269,5030003018346,新規,0,2021-11-19,2021-11-19,合同会社ＫＲＳＳ,,合同会社,埼玉県,さいたま市緑区,美園４丁目１番地１ウエリス浦和美園サウステラス１１１９号室,,11,109,3360967,,,,,,,2021-11-19,1,,,,,ケイアールエスエス,0
1270,5030003018354,新規,0,2021-11-19,2021-11-19,ＥＬ　ＤＯＲＡＤＯ合同会社,,合同会社,埼玉県,加須市,北小浜２６０番地１レオネクストリントアール１０４,,11,210,3470011,,,,,,,2021-11-19,1,,,,,エルドラド,0
1279,5040003018980,新規,0,2021-11-19,2021-11-19,ＨＲＣパートナーズ合同会社,,合同会社,千葉県,松戸市,大金平３丁目１４９番地の３,,12,207,2700006,,,,,,,2021-11-19,1,,,,,エイチアールシーパートナーズ,0
1281,5050001050175,新規,0,2021-11-19,2021-11-19,株式会社キャシャーン,,株式会社,茨城県,下妻市,高道祖４５６８番地,,08,210,3040031,,,,,,,2021-11-19,1,,,,,,0
1282,5050001050183,新規,0,2021-11-19,2021-11-19,ＤＡＩＫＯＵ株式会社,,株式会社,茨城県,水戸市,東野町７９番地の１,,08,201,3100846,,,,,,,2021-11-19,1,,,,,ダイコウ,0
1284,5050005012972,新規,0,2021-11-19,2021-11-19,医療法人社団啓勝会,,その他の設立登記法人,茨城県,つくば市,苅間１４２２番地１,,08,220,3050822,,,,,,,2021-11-19,1,,,,,ケイショウカイ,0
1287,5070003004301,新規,0,2021-11-19,2021-11-19,西群馬土地開発合同会社,,合同会社,群馬県,安中市,安中４３９２番地１,,10,211,3790116,,,,,,,2021-11-19,1,,,,,ニシグンマトチカイハツ,0
1290,5090001017278,新規,0,2021-11-19,2021-11-19,株式会社ＮＡＮＡＩＲＯ,,株式会社,山梨県,中央市,山之神１２１７番地３０Ｔエステート１０１号室,,19,214,4093845,,,,,,,2021-11-19,1,,,,,ナナイロ,0
1291,5090001017286,新規,0,2021-11-19,2021-11-19,フジプラット株式会社,,株式会社,山梨県,甲斐市,富竹新田２０９５番地５－１０１,,19,210,4000113,,,,,,,2021-11-19,1,,,,,フジプラット,0
1312,5120001241956,新規,0,2021-11-19,2021-11-19,Ｆｒｅｅ　ａｓ　ａ　ｂｉｒｄ株式会社,,株式会社,大阪府,大阪市城東区,中浜１丁目１７－１４ルネッサンスシャレード５Ｆ,,27,118,5360024,,,,,,,2021-11-19,1,,,,,フリーアズアバード,0
1313,5120001242013,新規,0,2021-11-19,2021-11-19,株式会社リエントラント,,株式会社,大阪府,大阪市中央区,久太郎町３丁目１－６伊藤佑ビル大阪本町,,27,128,5410056,,,,,,,2021-11-19,1,,,,,リエントラント,0
1316,5120003020417,新規,0,2021-11-19,2021-11-19,合同会社ＫＵＲＡＧＥ,,合同会社,大阪府,大阪市中央区,内淡路町２丁目４－１０－２０１,,27,128,5400038,,,,,,,2021-11-19,1,,,,,クラゲ,0
1317,5120003020631,新規,0,2021-11-19,2021-11-19,合同会社ふく,,合同会社,大阪府,大阪市福島区,大開１丁目９番１０－１０５号,,27,103,5530007,,,,,,,2021-11-19,1,,,,,フク,0
1331,5130001070520,新規,0,2021-11-19,2021-11-19,株式会社Ｃｈｉａａｒｚ,,株式会社,京都府,舞鶴市,字上福井セバト１５０２番地,,26,202,6240951,,,,,,,2021-11-19,1,,,,,チアーズ,0
1340,5140001123863,新規,0,2021-11-19,2021-11-19,イヴロン株式会社,,株式会社,兵庫県,神戸市中央区,下山手通４丁目１５番１号,,28,110,6500011,,,,,,,2021-11-19,1,,,,,イヴロン,0
1344,5160001023814,新規,0,2021-11-19,2021-11-19,株式会社アトリエリベルテ,,株式会社,滋賀県,大津市,日吉台１丁目９番９号,,25,201,5200112,,,,,,,2021-11-19,1,,,,,アトリエリベルテ,0
1369,5200001039442,新規,0,2021-11-19,2021-11-19,各務ラボ株式会社,,株式会社,岐阜県,各務原市,各務おがせ町３丁目７５番地,,21,213,5090104,,,,,,,2021-11-19,1,,,,,カガミラボ,0
1371,5200005013278,新規,0,2021-11-19,2021-11-19,特定非営利活動法人坂祝まちづくり推進機構,,その他の設立登記法人,岐阜県,加茂郡坂祝町,取組３７０番地,,21,501,5050075,,,,,,,2021-11-19,1,,,,,サカホギマチヅクリスイシンキコウ,0
1378,5240003005380,新規,0,2021-11-19,2021-11-19,倖合同会社,,合同会社,広島県,広島市安佐南区,緑井５丁目１９番３９－６０１号,,34,105,7310103,,,,,,,2021-11-19,1,,,,,サイワ,0
1381,5260001036228,新規,0,2021-11-19,2021-11-19,Ｋ＆Ｔコンサルティング株式会社,,株式会社,岡山県,岡山市北区,西崎２丁目３番７号,,33,101,7000055,,,,,,,2021-11-19,1,,,,,ケイアンドティーコンサルティング,0
1389,5290001095411,新規,0,2021-11-19,2021-11-19,株式会社ＴＨＲＥＥ　ＧＯＬＤ,,株式会社,福岡県,福岡市南区,長丘５丁目１４番２２号キャトル・セゾン長丘Ａ２０２号,,40,134,8150075,,,,,,,2021-11-19,1,,,,,スリーゴールド,0
1393,5290003011853,新規,0,2021-11-19,2021-11-19,合同会社Ｙ＆Ｚ,,合同会社,福岡県,福岡市博多区,美野島２丁目２番１号１０２号室,,40,132,8120017,,,,,,,2021-11-19,1,,,,,ワイアンドゼット,0
1394,5290005018434,新規,0,2021-11-19,2021-11-19,一般社団法人ウェルビーイングラボ,,その他の設立登記法人,福岡県,春日市,日の出町２丁目２７番－３０５号,,40,218,8160873,,,,,,,2021-11-19,1,,,,,ウェルビーイングラボ,0
1408,5350001017425,新規,0,2021-11-19,2021-11-19,天水株式会社,,株式会社,宮崎県,東臼杵郡椎葉村,大字不土野３９３番地３,,45,430,8831603,,,,,,,2021-11-19,1,,,,,テンスイ,0
1410,5360001029650,新規,0,2021-11-19,2021-11-19,株式会社ｍｏＲＥ　ＪＡＰＡＮ,,株式会社,沖縄県,宜野湾市,字大謝名９０番３－８０２号,,47,205,9012225,,,,,,,2021-11-19,1,,,,,モアジャパン,0
1411,5360001029659,新規,0,2021-11-19,2021-11-19,株式会社琉球セキュリティーサービス,,株式会社,沖縄県,浦添市,港川１丁目４３番１６号ポートかりゆし１０１,,47,208,9012134,,,,,,,2021-11-19,1,,,,,リュウキュウセキュリティーサービス,0
1428,5700150105903,新規,0,2021-11-19,2021-11-19,ＪＥＴＡＩＲ　１６　ＮＯＲＷＡＹ　ＡＳ,,外国会社等,,,,,,,,ｃ／ｏ　ＴＭＦ　Ｎｏｒｗａｙ　Ａ／Ｓ，２７　Ｔｏｌｌｂｕｇｔ，Ｏｓｌｏ　０１２５７，Ｎｏｒｗａｙ,,,,,,2021-11-19,1,,,,,ジエツトエアシツクステイーンノルウエーエーエス,0
1429,5700150105911,新規,0,2021-11-19,2021-11-19,阿見町荒川本郷第二土地区画整理組合,,その他,茨城県,稲敷郡阿見町,大字荒川本郷２００１－１,,08,443,3001152,,,,,,,2021-11-19,1,,,,,アミマチアラカワホンゴウダイニトチクカクセイリクミアイ,0
1440,6010001222628,新規,0,2021-11-19,2021-11-19,ＯＮｅＷ株式会社,,株式会社,東京都,文京区,湯島２丁目２番１６号御茶ノ水クロスビル５階,,13,105,1130034,,,,,,,2021-11-19,1,,,,,オーニュー,0
1441,6010001222660,新規,0,2021-11-19,2021-11-19,ＴＳＵＫＡＳＡ株式会社,,株式会社,東京都,中央区,日本橋堀留町１丁目１０番１号カクタビル２Ｆ,,13,102,1030012,,,,,,,2021-11-19,1,,,,,ツカサ,0
1450,6010403026552,新規,0,2021-11-19,2021-11-19,合同会社ゴールドＩ１,,合同会社,東京都,港区,虎ノ門３丁目２２番１０－２０１号,,13,103,1050001,,,,,,,2021-11-19,1,,,,,ゴールドアイワン,0
1451,6010403026560,新規,0,2021-11-19,2021-11-19,ＴＭＦ合同会社,,合同会社,東京都,港区,芝浦４丁目１０番１－７１１号,,13,103,1080023,,,,,,,2021-11-19,1,,,,,ティーエムエフ,0
1453,6010405020446,新規,0,2021-11-19,2021-11-19,カンサイレジデンス特定目的会社,,その他の設立登記法人,東京都,港区,元赤坂１丁目１番８号株式会社赤坂国際会計内,,13,103,1070051,,,,,,,2021-11-19,1,,,,,カンサイレジデンス,0
1454,6010501048119,新規,0,2021-11-19,2021-11-19,株式会社デジタルリージョン,,株式会社,東京都,台東区,元浅草２丁目１０－６浅草参番館３０２,,13,106,1110041,,,,,,,2021-11-19,1,,,,,デジタルリージョン,0
1455,6010503006421,新規,0,2021-11-19,2021-11-19,合同会社ＣａｒｐｅＤｉｅｍ,,合同会社,東京都,台東区,日本堤２丁目３９番４－１００９号ライオンズクオーレ東京三ノ輪シティゲート,,13,106,1110021,,,,,,,2021-11-19,1,,,,,カルペディエム,0
1457,6010701041807,新規,0,2021-11-19,2021-11-19,ＯｗｌＰａｙＪａｐａｎ株式会社,,株式会社,東京都,品川区,東五反田５丁目２２番３３号,,13,109,1410022,,,,,,,2021-11-19,1,,,,,オールペイジャパン,0
1463,6010901049823,新規,0,2021-11-19,2021-11-19,ＴＲ株式会社,,株式会社,東京都,世田谷区,粕谷４丁目１６番１６号セレニティ幸栄１０１,,13,112,1570063,,,,,,,2021-11-19,1,,,,,ティーアール,0
1470,6011001143938,新規,0,2021-11-19,2021-11-19,株式会社Ａ．ｓｔａｒｓ,,株式会社,東京都,渋谷区,神宮前３丁目１８番６号ストーリア神宮前１１０,,13,113,1500001,,,,,,,2021-11-19,1,,,,,エースターズ,0
1471,6011001144093,新規,0,2021-11-19,2021-11-19,ＮＡＶＵＥ株式会社,,株式会社,東京都,渋谷区,神宮前６丁目１２番３－２０２号,,13,113,1500001,,,,,,,2021-11-19,1,,,,,ナブー,0
1472,6011001144102,新規,0,2021-11-19,2021-11-19,株式会社ＤＩＥＳ,,株式会社,東京都,渋谷区,渋谷２丁目７番１１号ステラ青山４０１,,13,113,1500002,,,,,,,2021-11-19,1,,,,,ディエス,0
1476,6011003013734,新規,0,2021-11-19,2021-11-19,合同会社ＴＥＬＵＳ,,合同会社,東京都,渋谷区,恵比寿４丁目１６番６号パークアクシス恵比寿１０４,,13,113,1500013,,,,,,,2021-11-19,1,,,,,テラス,0
1477,6011003013742,新規,0,2021-11-19,2021-11-19,ポイントピクチャー合同会社,,合同会社,東京都,渋谷区,渋谷２丁目１９番１５号宮益坂ビルディング６０９,,13,113,1500002,,,,,,,2021-11-19,1,,,,,ポイントピクチャー,0
1493,6011701024850,新規,0,2021-11-19,2021-11-19,株式会社ＰＬＵＳ,,株式会社,東京都,江戸川区,北篠崎２丁目２１番３号,,13,123,1330053,,,,,,,2021-11-19,1,,,,,プラス,0
1520,6030001145380,新規,0,2021-11-19,2021-11-19,株式会社ネオ・ステージ,,株式会社,埼玉県,さいたま市岩槻区,大字大口４８９番地,,11,110,3390013,,,,,,,2021-11-19,1,,,,,ネオステージ,0
1521,6030001145406,新規,0,2021-11-19,2021-11-19,クロサワ株式会社,,株式会社,埼玉県,蕨市,塚越７丁目１０番２号,,11,223,3350002,,,,,,,2021-11-19,1,,,,,クロサワ,0
1522,6030001145439,新規,0,2021-11-19,2021-11-19,株式会社カドメド,,株式会社,埼玉県,川越市,菅原町７番１０号,,11,201,3500046,,,,,,,2021-11-19,1,,,,,カドメド,0
1523,6030001145463,新規,0,2021-11-19,2021-11-19,株式会社トライ,,株式会社,埼玉県,熊谷市,万平町１丁目３８番地,,11,202,3600034,,,,,,,2021-11-19,1,,,,,トライ,0
1536,6040001121075,新規,0,2021-11-19,2021-11-19,幸貴興業株式会社,,株式会社,千葉県,千葉市花見川区,こてはし台３丁目１０番４号,,12,102,2620005,,,,,,,2021-11-19,1,,,,,コウキコウギョウ,0
1544,6060005009926,新規,0,2021-11-19,2021-11-19,司法書士法人エスクライヴ,,その他の設立登記法人,栃木県,宇都宮市,小幡２丁目３番２４号,,09,201,3200036,,,,,,,2021-11-19,1,,,,,エスクライヴ,0
1545,6070003004300,新規,0,2021-11-19,2021-11-19,合同会社エース,,合同会社,群馬県,前橋市,後家町１６２番地２,,10,201,3710834,,,,,,,2021-11-19,1,,,,,エース,0
1568,6120001242012,新規,0,2021-11-19,2021-11-19,株式会社ＯＲｅｓｔ,,株式会社,大阪府,寝屋川市,三井南町１２－２５,,27,215,5720019,,,,,,,2021-11-19,1,,,,,オーレスト,0
1575,6120003020630,新規,0,2021-11-19,2021-11-19,はるしん企画合同会社,,合同会社,大阪府,大阪市中央区,島之内２丁目８番６号,,27,128,5420082,,,,,,,2021-11-19,1,,,,,ハルシンキカク,0
1576,6120003020639,新規,0,2021-11-19,2021-11-19,ハルコメ合同会社,,合同会社,大阪府,大阪市大正区,三軒家東４丁目１６番１１号,,27,108,5510002,,,,,,,2021-11-19,1,,,,,ハルコメ,0
1579,6120105009480,新規,0,2021-11-19,2021-11-19,一般社団法人まくばろ,,その他の設立登記法人,大阪府,南河内郡千早赤阪村,大字東阪１９１番地,,27,383,5850055,,,,,,,2021-11-19,1,,,,,マクバロ,0
1583,6130001070569,新規,0,2021-11-19,2021-11-19,ＨＪ株式会社,,株式会社,京都府,城陽市,寺田新池６６番地の１,,26,207,6100121,,,,,,,2021-11-19,1,,,,,エイチジェイ,0
1586,6130005016320,新規,0,2021-11-19,2021-11-19,一般社団法人アソボロジー,,その他の設立登記法人,京都府,京都市中京区,室町通御池上る御池之町３０５遊子庵内,,26,104,6040022,,,,,,,2021-11-19,1,,,,,アソボロジー,0
1610,6180001148831,新規,0,2021-11-19,2021-11-19,株式会社ｋｎｏｔ　ｄｅｓｉｇｎ,,株式会社,愛知県,名古屋市東区,泉１丁目２番１７号レジデンス泉３０１号,,23,102,4610001,,,,,,,2021-11-19,1,,,,,ノットデザイン,0
1620,6200001039441,新規,0,2021-11-19,2021-11-19,株式会社フジイ美装,,株式会社,岐阜県,岐阜市,江添３丁目５番５－１０２号（メゾン森崎）,,21,201,5008383,,,,,,,2021-11-19,1,,,,,フジイビソウ,0
1629,6230001019110,新規,0,2021-11-19,2021-11-19,株式会社ｉｒｏｄｏｒｉ　ｌａｂｏ,,株式会社,富山県,富山市,中央通り１丁目４番１６号,,16,201,9300044,,,,,,,2021-11-19,1,,,,,イロドリラボ,0
1633,6240001058958,新規,0,2021-11-19,2021-11-19,ｄａｙ＆ｆｒｅｅ株式会社,,株式会社,広島県,広島市西区,三篠町２丁目５番７号,,34,104,7330003,,,,,,,2021-11-19,1,,,,,デイアンドフリー,0
1637,6260001036227,新規,0,2021-11-19,2021-11-19,たより株式会社,,株式会社,岡山県,倉敷市,児島駅前２丁目２７番地,,33,202,7110921,,,,,,,2021-11-19,1,,,,,タヨリ,0
1646,6290001095419,新規,0,2021-11-19,2021-11-19,株式会社Ｍａｔｉｌｄａ,,株式会社,福岡県,福岡市中央区,長浜２丁目３番１―２０１号,,40,133,8100072,,,,,,,2021-11-19,1,,,,,マチルダ,0
1647,6290001095451,新規,0,2021-11-19,2021-11-19,株式会社ＡＮＤＳＡＬＴ,,株式会社,福岡県,久留米市,南１丁目２２番５号,,40,203,8300051,,,,,,,2021-11-19,1,,,,,アンドソルト,0
1662,6360003011589,新規,0,2021-11-19,2021-11-19,漢美人本舗合同会社,,合同会社,沖縄県,那覇市,字仲井真２７９番地２６,,47,201,9020074,,,,,,,2021-11-19,1,,,,,カンビジンホンポ,0
1663,6370003005482,新規,0,2021-11-19,2021-11-19,ＢＨＦ合同会社,,合同会社,宮城県,仙台市太白区,向山３丁目４番１１号,,04,104,9820841,,,,,,,2021-11-19,1,,,,,ビーエイチエフ,0
1670,6380003005052,新規,0,2021-11-19,2021-11-19,合同会社山田商事,,合同会社,福島県,福島市,渡利字沼ノ町２番地１,,07,201,9608141,,,,,,,2021-11-19,1,,,,,ヤマダショウジ,0
1671,6380005012501,新規,0,2021-11-19,2021-11-19,一般社団法人Ｌａｕｇｈ　Ｃｒｅａｔｉｏｎ,,その他の設立登記法人,福島県,耶麻郡猪苗代町,大字磐根字西久保７２０番地,,07,408,9693286,,,,,,,2021-11-19,1,,,,,,0
1684,6700150105910,新規,0,2021-11-19,2021-11-19,ＬＩＹＡＮＡＧＥ　ＥＮＴＥＲＰＲＩＳＥＳ,,外国会社等,千葉県,八街市,文違３０１－１１５７、コーポ赤間、サポートオフィス１０２,,12,230,2891104,スリランカ民主社会主義共和国、デイクワララ、ワッテガマサウス、セットヴィラ,,,,,,2021-11-19,1,,,,,リヤナゲエンタープライセス,0
1689,7010001222734,新規,0,2021-11-19,2021-11-19,株式会社ツバクロトレーディング,,株式会社,東京都,中央区,銀座６丁目６番１９号若松ビル４階,,13,102,1040061,,,,,,,2021-11-19,1,,,,,ツバクロトレーディング,0
1690,7010005034226,新規,0,2021-11-19,2021-11-19,一般社団法人てくてくぴあねっと,,その他の設立登記法人,東京都,中央区,月島３丁目３－１３－４０３,,13,102,1040052,,,,,,,2021-11-19,1,,,,,テクテクピアネット,0
1691,7010005034234,新規,0,2021-11-19,2021-11-19,一般社団法人高橋総合研究所,,その他の設立登記法人,東京都,千代田区,平河町２丁目１４番地１２号ウエルビル３階,,13,101,1020093,,,,,,,2021-11-19,1,,,,,タカハシソウゴウケンキュウジョ,0
1698,7010403026551,新規,0,2021-11-19,2021-11-19,合同会社ゴールドＩ０,,合同会社,東京都,港区,虎ノ門３丁目２２番１０－２０１号,,13,103,1050001,,,,,,,2021-11-19,1,,,,,ゴールドアイゼロ,0
1699,7010405020445,新規,0,2021-11-19,2021-11-19,八王子ＰＪ一般社団法人,,その他の設立登記法人,東京都,港区,六本木１丁目６番１号泉ガーデンタワー,,13,103,1060032,,,,,,,2021-11-19,1,,,,,ハチオウジピージェイ,0
1702,7010603009249,新規,0,2021-11-19,2021-11-19,Ｍ＆Ａリレーション合同会社,,合同会社,東京都,江東区,辰巳１丁目７番２８号９１４号室,,13,108,1350053,,,,,,,2021-11-19,1,,,,,エムアンドエーリレーション,0
1703,7010603009257,新規,0,2021-11-19,2021-11-19,合同会社小金電器,,合同会社,東京都,墨田区,吾妻橋２丁目８番２号,,13,107,1300001,,,,,,,2021-11-19,1,,,,,コガネデンキ,0
1705,7010703006006,新規,0,2021-11-19,2021-11-19,合同会社ＴＳＵＮＡＧＵ,,合同会社,東京都,品川区,戸越１丁目２５番５号エスティメゾン戸越２０９,,13,109,1420041,,,,,,,2021-11-19,1,,,,,ツナグ,0
1712,7010903006953,新規,0,2021-11-19,2021-11-19,エムケイ企画合同会社,,合同会社,東京都,世田谷区,等々力５丁目１１－２４スターハイツ１０２,,13,112,1580082,,,,,,,2021-11-19,1,,,,,エムケイキカク,0
1714,7011001144150,新規,0,2021-11-19,2021-11-19,株式会社Ｌｉｅｎ,,株式会社,東京都,渋谷区,恵比寿４丁目２０番３号恵比寿ガーデンプレイスタワー１８階,,13,113,1500013,,,,,,,2021-11-19,1,,,,,リアン,0
1716,7011003013741,新規,0,2021-11-19,2021-11-19,合同会社じゃ,,合同会社,東京都,渋谷区,幡ヶ谷３丁目７３番１１号メイプル１Ａ,,13,113,1510072,,,,,,,2021-11-19,1,,,,,ジャ,0
1720,7011103011199,新規,0,2021-11-19,2021-11-19,合同会社Ｆｒｉｓｋ,,合同会社,東京都,新宿区,西新宿３丁目３番１３号西新宿水間ビル６階,,13,104,1600023,,,,,,,2021-11-19,1,,,,,フリスク,0
1722,7011203003699,新規,0,2021-11-19,2021-11-19,ＳＡＹＵＲＩ　ＩＮＴＥＲＮＡＴＩＯＮＡＬ合同会社,,合同会社,東京都,中野区,上高田４丁目１６番３号,,13,114,1640002,,,,,,,2021-11-19,1,,,,,サユリインターナショナル,0
1723,7011301027360,新規,0,2021-11-19,2021-11-19,新沼コンサルティング株式会社,,株式会社,東京都,杉並区,高円寺北１丁目１５番１０号００１号室,,13,115,1660002,,,,,,,2021-11-19,1,,,,,ニイヌマコンサルティング,0
1729,7011503004983,新規,0,2021-11-19,2021-11-19,ウイン＆ウインプロデュース合同会社,,合同会社,東京都,荒川区,町屋３丁目２０番１８－３０２号マリオン・Ｔ,,13,118,1160001,,,,,,,2021-11-19,1,,,,,ウインアンドウインプロデュース,0
1746,7020001144011,新規,0,2021-11-19,2021-11-19,キー＆セキュアシステムズ株式会社,,株式会社,神奈川県,横浜市港北区,日吉本町５丁目５５番９－４０６号,,14,109,2230062,,,,,,,2021-11-19,1,,,,,キーアンドセキュアシステムズ,0
1755,7020003020862,新規,0,2021-11-19,2021-11-19,合同会社ＱｏｏＫａｉ,,合同会社,神奈川県,横浜市青葉区,荏田町４７１－６,,14,117,2250013,,,,,,,2021-11-19,1,,,,,クーカイ,0
1761,7021001074537,新規,0,2021-11-19,2021-11-19,プラチナテラス株式会社,,株式会社,神奈川県,鎌倉市,大船１９０５番地３,,14,204,2470056,,,,,,,2021-11-19,1,,,,,プラチナテラス,0
1778,7030001145405,新規,0,2021-11-19,2021-11-19,ＬＥＢＥＮ株式会社,,株式会社,埼玉県,春日部市,粕壁６９０１－８,,11,214,3440061,,,,,,,2021-11-19,1,,,,,レーベン,0
1783,7030003018328,新規,0,2021-11-19,2021-11-19,合同会社ＨｉＲ,,合同会社,埼玉県,さいたま市浦和区,常盤１丁目３－８レクセルマンション１２０４,,11,107,3300061,,,,,,,2021-11-19,1,,,,,ハイアール,0
1784,7030003018352,新規,0,2021-11-19,2021-11-19,合同会社インプルーブ,,合同会社,埼玉県,北足立郡伊奈町,大字羽貫２４３番地１２,,11,301,3620802,,,,,,,2021-11-19,1,,,,,インプルーブ,0
1785,7030003018369,新規,0,2021-11-19,2021-11-19,合同会社カインド,,合同会社,埼玉県,川口市,大字安行領根岸４４４番地の１５,,11,203,3330834,,,,,,,2021-11-19,1,,,,,カインド,0
1796,7050003006215,新規,0,2021-11-19,2021-11-19,合同会社みんな笑顔,,合同会社,茨城県,龍ケ崎市,８１６２番地,,08,208,3010000,,,,,,,2021-11-19,1,,,,,ミンナエガオ,0
1800,7070001038662,新規,0,2021-11-19,2021-11-19,阪東電機株式会社,,株式会社,群馬県,渋川市,渋川８７５番地２,,10,208,3770008,,,,,,,2021-11-19,1,,,,,バンドーデンキ,0
1820,7120001241921,新規,0,2021-11-19,2021-11-19,株式会社ＰＲＥＴＥＮＤ,,株式会社,大阪府,大阪市西区,北堀江１丁目６番１２号,,27,106,5500014,,,,,,,2021-11-19,1,,,,,プリデンド,0
1821,7120001241954,新規,0,2021-11-19,2021-11-19,錦富株式会社,,株式会社,大阪府,大阪市西成区,梅南１丁目６－１９梅南マンション２０１号室,,27,122,5570033,,,,,,,2021-11-19,1,,,,,キンプ,0
1822,7120001242036,新規,0,2021-11-19,2021-11-19,株式会社ブリリアントエトワール,,株式会社,大阪府,大阪市福島区,鷺洲３丁目１番１７号,,27,103,5530002,,,,,,,2021-11-19,1,,,,,ブリリアントエトワール,0
1830,7120101064677,新規,0,2021-11-19,2021-11-19,株式会社三久薬品商会,,株式会社,大阪府,堺市美原区,小平尾７２７番地１,,27,147,5870021,,,,,,,2021-11-19,1,,,,,サンキュウヤクヒンショウカイ,0
1840,7130003007592,新規,0,2021-11-19,2021-11-19,Ｈ＆Ｂ合同会社,,合同会社,京都府,京都市右京区,西京極北衣手町２番地８,,26,108,6150878,,,,,,,2021-11-19,1,,,,,エイチアンドビー,0
1847,7150001025116,新規,0,2021-11-19,2021-11-19,株式会社イマダデンキ,,株式会社,奈良県,北葛城郡河合町,大字川合３１８番地３,,29,427,6360051,,,,,,,2021-11-19,1,,,,,イマダデンキ,0
1858,7180001148830,新規,0,2021-11-19,2021-11-19,インテリジェント・ヴィジョン株式会社,,株式会社,愛知県,海部郡大治町,大字三本木字屋形８５番地,,23,424,4901142,,,,,,,2021-11-19,1,,,,,インテリジェントヴィジョン,0
1864,7180301035638,新規,0,2021-11-19,2021-11-19,株式会社ＩＴＭファーマ,,株式会社,愛知県,蒲郡市,旭町９番６号,,23,214,4430045,,,,,,,2021-11-19,1,,,,,アイティエムファーマ,0
1865,7190001028874,新規,0,2021-11-19,2021-11-19,株式会社みかづき,,株式会社,三重県,津市,殿村３３２番地１,,24,201,5140073,,,,,,,2021-11-19,1,,,,,ミカヅキ,0
1869,7240001058965,新規,0,2021-11-19,2021-11-19,株式会社はすひ,,株式会社,広島県,広島市安佐南区,山本町１００４番地２２,,34,105,7310137,,,,,,,2021-11-19,1,,,,,,0
1870,7240003005379,新規,0,2021-11-19,2021-11-19,合同会社紬,,合同会社,広島県,広島市東区,牛田旭１丁目１１番１１－１２０２号,,34,102,7320067,,,,,,,2021-11-19,1,,,,,ツムギ,0
1872,7260001036226,新規,0,2021-11-19,2021-11-19,株式会社Ｐｏｍｍｅ,,株式会社,岡山県,倉敷市,川入８０３番地２,,33,202,7100811,,,,,,,2021-11-19,1,,,,,ポム,0
1876,7290001095426,新規,0,2021-11-19,2021-11-19,株式会社Ｌｉｅｎ,,株式会社,福岡県,太宰府市,通古賀５丁目１１番９号,,40,221,8180104,,,,,,,2021-11-19,1,,,,,リエン,0
1877,7290001095442,新規,0,2021-11-19,2021-11-19,株式会社Ａｔｏｏｓｈｉ　Ｃｏｎｓｕｌｔｉｎｇ,,株式会社,福岡県,福岡市中央区,天神２丁目３番１０号天神パインクレスト７１９号,,40,133,8100001,,,,,,,2021-11-19,1,,,,,アトオシコンサルティング,0
1878,7290001095467,新規,0,2021-11-19,2021-11-19,株式会社平柳興業,,株式会社,福岡県,福岡市西区,泉１丁目２７番１５号,,40,135,8190381,,,,,,,2021-11-19,1,,,,,ヒラヤナギコウギョウ,0
1879,7290001095491,新規,0,2021-11-19,2021-11-19,株式会社アマテクノ,,株式会社,福岡県,福岡市西区,姪浜駅南１丁目５番４号,,40,135,8190006,,,,,,,2021-11-19,1,,,,,アマテクノ,0
1883,7290003011843,新規,0,2021-11-19,2021-11-19,合同会社ＭＡＴＯＳＥ,,合同会社,福岡県,宗像市,自由ヶ丘３丁目１７番地３,,40,220,8114163,,,,,,,2021-11-19,1,,,,,マトセ,0
1887,7300001012718,新規,0,2021-11-19,2021-11-19,株式会社ベストライフ・ｉｎｓｕｒａｎｃｅ,,株式会社,佐賀県,鳥栖市,本鳥栖町１８２３番地東峰マンション鳥栖ＩＩＩ５０１,00124921,41,203,8410026,,,,,,,2021-11-19,1,,,,,ベストライフインシュアランス,0
1895,7360001029657,新規,0,2021-11-19,2021-11-19,株式会社充興業,,株式会社,沖縄県,宜野湾市,野嵩２丁目１１番９－１０２号ＳＡＫＵＲＡ・ＳＯ,,47,205,9012203,,,,,,,2021-11-19,1,,,,,ミツルコウギョウ,0
1898,7360003011588,新規,0,2021-11-19,2021-11-19,ザ・ライトハウス・カンパニー合同会社,,合同会社,沖縄県,糸満市,字喜屋武１３３番地の１,,47,210,9010354,,,,,,,2021-11-19,1,,,,,ザライトハウスカンパニー,0
1904,7420003002408,新規,0,2021-11-19,2021-11-19,合同会社ＡＬｐｈａ,,合同会社,青森県,青森市,堤町１丁目１０番５号,,02,201,0300812,,,,,,,2021-11-19,1,,,,,アルファ,0
1914,7462501000913,新規,0,2021-11-19,2021-11-19,ケーズファクトリー株式会社,,株式会社,北海道,標津郡中標津町,計根別南二条東２丁目３番地１,,01,692,0882682,,,,,,,2021-11-19,1,,,,,ケーズファクトリー,0
1916,7470001018847,新規,0,2021-11-19,2021-11-19,小林造園設計株式会社,,株式会社,香川県,高松市,川部町１９０８番地１,,37,201,7618046,,,,,,,2021-11-19,1,,,,,コバヤシゾウエンセッケイ,0
1934,8010003036322,新規,0,2021-11-19,2021-11-19,合同会社ほうじ茶スタジオ,,合同会社,東京都,中央区,銀座１丁目２２－１１銀座大竹ビジデンス２階,,13,102,1040061,,,,,,,2021-11-19,1,,,,,ホウジチャスタジオ,0
1936,8010101014964,新規,0,2021-11-19,2021-11-19,株式会社オガワリフォーム,,株式会社,東京都,八王子市,暁町２丁目６番３号,,13,201,1920043,,,,,,,2021-11-19,1,,,,,,0
1946,8010401163940,新規,0,2021-11-19,2021-11-19,ＫＯＳＥＩ株式会社,,株式会社,東京都,港区,芝浦２丁目７番１１－６０２号,,13,103,1080023,,,,,,,2021-11-19,1,,,,,コーセイ,0
1947,8010401163981,新規,0,2021-11-19,2021-11-19,株式会社ＳＥＡＣＲＥＴ,,株式会社,東京都,港区,南麻布４丁目２番４２－６０７号,,13,103,1060047,,,,,,,2021-11-19,1,,,,,シークレット,0
1951,8010405020444,新規,0,2021-11-19,2021-11-19,加須ファシリティ一般社団法人,,その他の設立登記法人,東京都,港区,六本木１丁目６番１号泉ガーデンタワー,,13,103,1060032,,,,,,,2021-11-19,1,,,,,カゾファシリティ,0
1956,8010601060269,新規,0,2021-11-19,2021-11-19,株式会社コスモス,,株式会社,東京都,墨田区,文花１丁目２３番３７－３０３号,,13,107,1310044,,,,,,,2021-11-19,1,,,,,コスモス,0
1957,8010605004016,新規,0,2021-11-19,2021-11-19,一般社団法人ＷＯＲＬＤ　ＳＭＩＬＥ,,その他の設立登記法人,東京都,江東区,有明１丁目１番１７－２４１５号,,13,108,1350063,,,,,,,2021-11-19,1,,,,,ワールドスマイル,0
1964,8011001144050,新規,0,2021-11-19,2021-11-19,株式会社ｉｌｌ,,株式会社,東京都,渋谷区,渋谷２丁目１９－１５宮益坂ビルディング６０９,,13,113,1500002,,,,,,,2021-11-19,1,,,,,イル,0
1965,8011001144083,新規,0,2021-11-19,2021-11-19,株式会社ティーワイスリー,,株式会社,東京都,渋谷区,恵比寿西２丁目１３番７号,,13,113,1500021,,,,,,,2021-11-19,1,,,,,ティーワイスリー,0
1966,8011001144100,新規,0,2021-11-19,2021-11-19,株式会社Ａｌｄｅｂａｒａｎ,,株式会社,東京都,渋谷区,東３丁目８番２４号,,13,113,1500011,,,,,,,2021-11-19,1,,,,,アルデバラン,0
1969,8011005009308,新規,0,2021-11-19,2021-11-19,行政書士法人会社設立エクスプレス,,その他の設立登記法人,東京都,渋谷区,渋谷３丁目６番４号プライア渋谷５０８号,,13,113,1500002,,,,,,,2021-11-19,1,,,,,カイシャセツリツエクスプレス,0
1978,8011401023861,新規,0,2021-11-19,2021-11-19,十一屋株式会社,,株式会社,東京都,板橋区,東新町１丁目３８番１５号,,13,119,1740074,,,,,,,2021-11-19,1,,,,,ジュウイチヤ,0
1985,8011801039961,新規,0,2021-11-19,2021-11-19,０１株式会社,,株式会社,東京都,足立区,梅田７丁目１０－９－９０３,,13,121,1230851,,,,,,,2021-11-19,1,,,,,ゼロイチ,0
2009,8020001143937,新規,0,2021-11-19,2021-11-19,株式会社さくらプラン,,株式会社,神奈川県,横浜市神奈川区,白幡西町２８番９号,,14,102,2210074,,,,,,,2021-11-19,1,,,,,サクラプラン,0
2010,8020001144010,新規,0,2021-11-19,2021-11-19,ＡＩｔｏＡｉｒ株式会社,,株式会社,神奈川県,川崎市幸区,大宮町１８－２・２Ｆ－１５,,14,132,2120014,,,,,,,2021-11-19,1,,,,,エイアイトエアー,0
2014,8020003020861,新規,0,2021-11-19,2021-11-19,合同会社セブンティーン,,合同会社,神奈川県,横浜市中区,山下町９３－４０８,,14,104,2310023,,,,,,,2021-11-19,1,,,,,セブンティーン,0
2017,8021001074536,新規,0,2021-11-19,2021-11-19,株式会社ＫＭ　Ｆａｃｔｏｒｙ,,株式会社,神奈川県,横須賀市,大矢部３丁目４２番７号,,14,201,2380024,,,,,,,2021-11-19,1,,,,,ケイエムファクトリー,0
2026,8030001145362,新規,0,2021-11-19,2021-11-19,ハニカムＱＧ株式会社,,株式会社,埼玉県,川口市,上青木西５丁目２番１９号,,11,203,3330845,,,,,,,2021-11-19,1,,,,,ハニカムキュージー,0
2027,8030001145420,新規,0,2021-11-19,2021-11-19,ＬＥＥＳＵＮ株式会社,,株式会社,埼玉県,川口市,西川口１丁目３０番２０－４０２号,,11,203,3320021,,,,,,,2021-11-19,1,,,,,リーサン,0
2028,8030001145453,新規,0,2021-11-19,2021-11-19,株式会社匠デザイン塗装,,株式会社,埼玉県,川口市,領家５丁目１番５号,,11,203,3320004,,,,,,,2021-11-19,1,,,,,タクミデザイントソウ,0
2034,8030003018335,新規,0,2021-11-19,2021-11-19,合同会社Ａｄａｍａｎｔ,,合同会社,埼玉県,北葛飾郡杉戸町,高野台西３丁目１番地１クレインフォレスト４０３,,11,464,3450045,,,,,,,2021-11-19,1,,,,,アダマント,0
2045,8050001050148,新規,0,2021-11-19,2021-11-19,株式会社ＬＯＯＰＳ,,株式会社,茨城県,牛久市,ひたち野西３丁目３７番地１,,08,219,3001206,,,,,,,2021-11-19,1,,,,,ループス,0
2046,8050001050180,新規,0,2021-11-19,2021-11-19,株式会社糖尿病重症化予防協議会,,株式会社,茨城県,筑西市,成田６７８番地,,08,227,3080821,,,,,,,2021-11-19,1,,,,,トウニョウビョウジュウショウカヨボウキョウギカイ,0
2061,8100001034830,新規,0,2021-11-19,2021-11-19,株式会社ＳＥＬＥＣＴＵＳ,,株式会社,長野県,北佐久郡軽井沢町,大字追分７８番地４５,,20,321,3890115,,,,,,,2021-11-19,1,,,,,セレクトアス,0
2072,8120001241945,新規,0,2021-11-19,2021-11-19,万門大学株式会社,,株式会社,大阪府,大阪市住之江区,御崎１丁目８－３２,,27,125,5590013,,,,,,,2021-11-19,1,,,,,マンモンダイガク,0
2073,8120001241953,新規,0,2021-11-19,2021-11-19,Ｗａｎｄｅｒｉｎｇ株式会社,,株式会社,大阪府,大阪市城東区,中浜１丁目１７－１４ルネッサンスシャレード５Ｈ,,27,118,5360024,,,,,,,2021-11-19,1,,,,,ワンダリング,0
2074,8120001241986,新規,0,2021-11-19,2021-11-19,株式会社ＴＥＲＡ　ｃｏｒｐｏｒａｔｉｏｎ,,株式会社,大阪府,大阪市住吉区,遠里小野５丁目７番２３号,,27,120,5580032,,,,,,,2021-11-19,1,,,,,テラコーポレーション,0
2075,8120001242010,新規,0,2021-11-19,2021-11-19,株式会社リアーツ,,株式会社,大阪府,大阪市都島区,高倉町３丁目５番１２－６号,,27,102,5340011,,,,,,,2021-11-19,1,,,,,リアーツ,0
2082,8120003020629,新規,0,2021-11-19,2021-11-19,合同会社ｔｓｕｋｉｃｈｉｙｏ,,合同会社,大阪府,大阪市城東区,中浜１丁目１７－１４ルネッサンスシャレード４Ｊ,,27,118,5360024,,,,,,,2021-11-19,1,,,,,ツキチヨ,0
2086,8120101064684,新規,0,2021-11-19,2021-11-19,株式会社オフィスナカオ,,株式会社,大阪府,泉南郡岬町,深日１５２２番地の２,,27,366,5990303,,,,,,,2021-11-19,1,,,,,オフィスナカオ,0
2090,8120905006238,新規,0,2021-11-19,2021-11-19,一般社団法人かみかみごはん,,その他の設立登記法人,大阪府,豊能郡能勢町,上田尻２７５,,27,322,5630122,,,,,,,2021-11-19,1,,,,,カミカミゴハン,0
2118,8180001148796,新規,0,2021-11-19,2021-11-19,株式会社クロミヤ創建,,株式会社,愛知県,名古屋市緑区,尾崎山１丁目４１１番地,,23,114,4580024,,,,,,,2021-11-19,1,,,,,クロミヤソウケン,0
2126,8180301035637,新規,0,2021-11-19,2021-11-19,株式会社ニューエイジキューシー,,株式会社,愛知県,岡崎市,明大寺町字西郷中３２番地３０,,23,202,4440867,,,,,,,2021-11-19,1,,,,,ニューエイジキューシー,0
2127,8180301035645,新規,0,2021-11-19,2021-11-19,株式会社ｃｒｕｓｔ,,株式会社,愛知県,豊田市,猿投町池田９番地,,23,211,4700361,,,,,,,2021-11-19,1,,,,,クラスト,0
2130,8180303005175,新規,0,2021-11-19,2021-11-19,ｐｌｕｇ＆ｗｏｒｋハタヤ合同会社,,合同会社,愛知県,みよし市,三好丘緑３丁目１番１号アールビル２Ｆ・Ｄ‐２,,23,236,4700205,,,,,,,2021-11-19,1,,,,,プラグアンドワークハタヤ,0
2143,8210003001421,新規,0,2021-11-19,2021-11-19,合同会社Ｈ．Ｕ．Ｂ　Ｉｎｃ,,合同会社,福井県,越前市,粟田部町第６９号４番地,,18,209,9150242,,,,,,,2021-11-19,1,,,,,ハブインク,0
2144,8230003001758,新規,0,2021-11-19,2021-11-19,合同会社スマイル介護サービス,,合同会社,富山県,滑川市,笠木１０６番地,,16,206,9360004,,,,,,,2021-11-19,1,,,,,スマイルカイゴサービス,0
2149,8240003005378,新規,0,2021-11-19,2021-11-19,合同会社ｓｐｒｏｕｔ,,合同会社,広島県,広島市西区,己斐西町２７番１３号ＫＯＩＷＥＳＴ２０３号室,,34,104,7330814,,,,,,,2021-11-19,1,,,,,スプラウト,0
2155,8270001008396,新規,0,2021-11-19,2021-11-19,株式会社週末住人,,株式会社,鳥取県,西伯郡大山町,富長１５９番地１２Ｆ（ＴＯＲＩＣＯ内）,,31,386,6893221,,,,,,,2021-11-19,1,,,,,シュウマツジュウニン,0
2158,8290001095466,新規,0,2021-11-19,2021-11-19,株式会社Ｋ＆Ｍ,,株式会社,福岡県,福岡市博多区,中洲４丁目１番２６号中洲人形町ビル地下１階Ｂ１Ｆ号室,,40,132,8100801,,,,,,,2021-11-19,1,,,,,ケーアンドエム,0
2161,8300003001750,新規,0,2021-11-19,2021-11-19,合同会社しおん,,合同会社,佐賀県,佐賀市,川副町南里１２９６－３,,41,201,8490000,,,,,,,2021-11-19,1,,,,,シオン,0
2167,8330001029205,新規,0,2021-11-19,2021-11-19,株式会社クルーバンク,,株式会社,熊本県,上天草市,大矢野町登立１２０８７番地５,,43,212,8693601,,,,,,,2021-11-19,1,,,,,クルーバンク,0
2170,8350001017430,新規,0,2021-11-19,2021-11-19,株式会社エルリー,,株式会社,宮崎県,東諸県郡国富町,大字宮王丸２６２番地４,,45,382,8801102,,,,,,,2021-11-19,1,,,,,エルリー,0
2172,8360001029656,新規,0,2021-11-19,2021-11-19,Ｂｅｒｒｙ株式会社,,株式会社,沖縄県,那覇市,首里山川町１丁目６８番地ファイブテラス１階,,47,201,9030825,,,,,,,2021-11-19,1,,,,,ベリー,0
2176,8370001047855,新規,0,2021-11-19,2021-11-19,株式会社Ｇ．Ｔ．Ｙ,,株式会社,宮城県,名取市,手倉田字諏訪３２２番地９,,04,207,9811231,,,,,,,2021-11-19,1,,,,,ジーティワイ,0
2201,8430003013378,新規,0,2021-11-19,2021-11-19,合同会社Ｒ２４,,合同会社,北海道,札幌市豊平区,中の島一条１丁目７番８号,,01,105,0620921,,,,,,,2021-11-19,1,,,,,アールトゥウェンティフォー,0
2203,8500001023826,新規,0,2021-11-19,2021-11-19,株式会社Ｆｅｄｉｃａ,,株式会社,愛媛県,松山市,古川南１丁目１６番２４号,,38,201,7900943,,,,,,,2021-11-19,1,,,,,フェディカ,0
2206,8700150105883,新規,0,2021-11-19,2021-11-19,ｅｚＣａｒｅｔｅｃｈｃｏ．，Ｌｔｄ,,外国会社等,神奈川県,川崎市宮前区,菅生２丁目１６－１,,14,136,2160015,４Ｆ，３０７，Ｔｏｅｇｙｅ－ｒｏ，Ｊｕｎｇ－ｇｕ，Ｓｅｏｕｌ，ＲｅｐｕｂｌｉｃｏｆＫｏｒｅａ,,,,,,2021-11-19,1,,,,,イージーケアテツクカンパニーリミテイツド,0
2207,8700150105909,新規,0,2021-11-19,2021-11-19,Ｋｉｚｕｎａ　Ｓｏｌｕｔｉｏｎｓ　ｌｉｍｉｔｅｄ,,外国会社等,北海道,虻田郡ニセコ町,字ニセコ３１５－１１９,,01,395,0481511,Ｍｉｄｗａｙ　Ｈｏｕｓｅ　Ｓｔａｖｅｒｔｏｎ　Ｔｅｃｈｎｏｌｏｇｙ　Ｐａｒｋ　Ｈｅｒ　ｒｉｃｋ　ｗａｙ，Ｓｔａｖｅｒｔｏｎ　Ｃｈｅｌｔｅｎｈａｍ　ＵＫ,,,,,,2021-11-19,1,,,,,キズナソリユーシヨンズリミテツド,0
2213,9010001222526,新規,0,2021-11-19,2021-11-19,株式会社ＲＵＮ,,株式会社,東京都,中央区,築地１丁目５番１１号ＡＣＮ築地ビル４階,,13,102,1040045,,,,,,,2021-11-19,1,,,,,ラン,0
2214,9010001222666,新規,0,2021-11-19,2021-11-19,株式会社ＦＵＮＤｉＴ,,株式会社,東京都,中央区,日本橋小網町７番８号,,13,102,1030016,,,,,,,2021-11-19,1,,,,,ファンディット,0
2216,9010003036321,新規,0,2021-11-19,2021-11-19,合同会社Ｃｏｌｌｅｔ,,合同会社,東京都,千代田区,九段南１丁目５－６りそな九段ビル５Ｆ,,13,101,1020074,,,,,,,2021-11-19,1,,,,,コレット,0
2224,9010401163964,新規,0,2021-11-19,2021-11-19,Ｈｏｐｅ株式会社,,株式会社,東京都,港区,浜松町２丁目２番１５号浜松町ダイヤビル２Ｆ,,13,103,1050013,,,,,,,2021-11-19,1,,,,,ホープ,0
2228,9010405020435,新規,0,2021-11-19,2021-11-19,一般社団法人ゴールドＩ,,その他の設立登記法人,東京都,港区,虎ノ門３丁目２２番１０－２０１号,,13,103,1050001,,,,,,,2021-11-19,1,,,,,ゴールドアイ,0
2229,9010405020443,新規,0,2021-11-19,2021-11-19,八王子ＰＪ特定目的会社,,その他の設立登記法人,東京都,港区,六本木１丁目６番１号泉ガーデンタワー,,13,103,1060032,,,,,,,2021-11-19,1,,,,,ハチオウジピージェイ,0
2233,9010603009255,新規,0,2021-11-19,2021-11-19,Ｒｉｋａ　Ｆａｓｈｉｏｎ合同会社,,合同会社,東京都,江東区,豊洲６丁目２番３１－１９１７号,,13,108,1350061,,,,,,,2021-11-19,1,,,,,リカファッション,0
2237,9010801032505,新規,0,2021-11-19,2021-11-19,ＫＫＭテック株式会社,,株式会社,東京都,大田区,大森北５丁目１６番１－２０７号,,13,111,1430016,,,,,,,2021-11-19,1,,,,,ケイケイエムテック,0
2248,9011001144009,新規,0,2021-11-19,2021-11-19,株式会社アワーバックス,,株式会社,東京都,目黒区,青葉台４丁目１－１－４０５,,13,110,1530042,,,,,,,2021-11-19,1,,,,,,0
2249,9011001144058,新規,0,2021-11-19,2021-11-19,株式会社インサイトホールディングス,,株式会社,東京都,渋谷区,渋谷３丁目９番９号東京建物渋谷ビル８階,,13,113,1500002,,,,,,,2021-11-19,1,,,,,インサイトホールディングス,0
2250,9011001144090,新規,0,2021-11-19,2021-11-19,株式会社七十八,,株式会社,東京都,渋谷区,代々木１丁目３０番１５号,,13,113,1510053,,,,,,,2021-11-19,1,,,,,ナナジュウハチ,0
2251,9011001144149,新規,0,2021-11-19,2021-11-19,株式会社箱根リゾートオペレーションズ,,株式会社,東京都,渋谷区,恵比寿４丁目１番１８号恵比寿ネオナート,,13,113,1500013,,,,,,,2021-11-19,1,,,,,ハコネリゾートオペレーションズ,0
2252,9011001144198,新規,0,2021-11-19,2021-11-19,株式会社信瑞,,株式会社,東京都,渋谷区,神宮前５丁目１８番１３号１階,,13,113,1500001,,,,,,,2021-11-19,1,,,,,シンズイ,0
2253,9011003013731,新規,0,2021-11-19,2021-11-19,合同会社ＫＹＹ,,合同会社,東京都,渋谷区,東１丁目２３番４号,,13,113,1500011,,,,,,,2021-11-19,1,,,,,,0
2254,9011005009307,新規,0,2021-11-19,2021-11-19,一般社団法人ＳＵＮＮＹ　ＣＵＤＤＬＥＳ,,その他の設立登記法人,東京都,渋谷区,代々木５丁目４２番８号,,13,113,1510053,,,,,,,2021-11-19,1,,,,,サニーカドルズ,0
2263,9011101096942,新規,0,2021-11-19,2021-11-19,株式会社ミツエーＩ’Ｏ,,株式会社,東京都,新宿区,西新宿８丁目１７番１号,,13,104,1600023,,,,,,,2021-11-19,1,,,,,ミツエーアイオー,0
2270,9011403003506,新規,0,2021-11-19,2021-11-19,ＩＳＲ合同会社,,合同会社,東京都,板橋区,富士見町１４番５号板橋本町オフィス・ビズサークル板橋本町１０４,,13,119,1740062,,,,,,,2021-11-19,1,,,,,アイエスアール,0
2276,9011803004871,新規,0,2021-11-19,2021-11-19,合同会社さんなすび,,合同会社,東京都,足立区,竹の塚１丁目２７番９－５０１号,,13,121,1210813,,,,,,,2021-11-19,1,,,,,サンナスビ,0
2281,9012703002354,新規,0,2021-11-19,2021-11-19,合同会社ジャパン有人,,合同会社,東京都,東村山市,富士見町１丁目２番地４６,,13,213,1890024,,,,,,,2021-11-19,1,,,,,ジャパンユウジン,0
2282,9012803002650,新規,0,2021-11-19,2021-11-19,合同会社とりむｗｏｒｋｓ,,合同会社,東京都,東大和市,奈良橋６丁目７６５－２－２０５,,13,220,2070031,,,,,,,2021-11-19,1,,,,,トリムワークス,0
2286,9013301048293,新規,0,2021-11-19,2021-11-19,株式会社トウキョウベイサイド,,株式会社,東京都,豊島区,千早３丁目３５番７号１０３号室,,13,116,1710044,,,,,,,2021-11-19,1,,,,,トウキョウベイサイド,0
2304,9020003020844,新規,0,2021-11-19,2021-11-19,ＭＯＮＡＭＩ　Ａｓｓｅｔ合同会社,,合同会社,神奈川県,川崎市多摩区,菅馬場１丁目１９番１５－３０２号,,14,135,2140004,,,,,,,2021-11-19,1,,,,,モナミアセット,0
2309,9021001074543,新規,0,2021-11-19,2021-11-19,株式会社ムガルトレーディング,,株式会社,神奈川県,愛甲郡愛川町,角田７７４番地１,,14,401,2430301,,,,,,,2021-11-19,1,,,,,ムガルトレーディング,0
2320,9030005020619,新規,0,2021-11-19,2021-11-19,一般社団法人山守学舎,,その他の設立登記法人,埼玉県,比企郡小川町,大字大塚１２６７番地,,11,343,3550328,,,,,,,2021-11-19,1,,,,,ヤマモリガクシャ,0
2321,9030005020635,新規,0,2021-11-19,2021-11-19,一般社団法人ふりーはんど,,その他の設立登記法人,埼玉県,本庄市,万年寺１丁目７番１７号,,11,211,3670064,,,,,,,2021-11-19,1,,,,,フリーハンド,0
2328,9040001121072,新規,0,2021-11-19,2021-11-19,株式会社ファースト・ファンタジー,,株式会社,千葉県,千葉市中央区,椿森３丁目９番１６号コンフォート椿森１０１,,12,101,2600042,,,,,,,2021-11-19,1,,,,,ファーストファンタジー,0
2329,9040001121089,新規,0,2021-11-19,2021-11-19,株式会社ＡＴ,,株式会社,千葉県,松戸市,小金上総町３番地の８ビレッジ「Ｋ」ＫＡＭＥ１－Ｄ１０５号,,12,207,2700015,,,,,,,2021-11-19,1,,,,,エイティー,0
2333,9040003018969,新規,0,2021-11-19,2021-11-19,ＰＣ　ＨＯＵＳＥ合同会社,,合同会社,千葉県,千葉市花見川区,検見川町５丁目２４２５－１検見川サンフラワー１０２号室,,12,102,2620023,,,,,,,2021-11-19,1,,,,,ピーシーハウス,0
2334,9040005021426,新規,0,2021-11-19,2021-11-19,特定非営利活動法人Ｗｏｒｌｄ　Ｆｏｏｔｂａｌｌ　Ｓｈｉｐ,,その他の設立登記法人,千葉県,市川市,市川南４丁目２番３０号,,12,203,2720033,,,,,,,2021-11-19,1,,,,,ワールドフットボールシップ,0
2335,9040005021434,新規,0,2021-11-19,2021-11-19,農事組合法人ＶＥＧＥ・ＦＩＲＳＴ,,その他の設立登記法人,千葉県,山武郡横芝光町,中台１４０５番地１１０,,12,410,2891741,,,,,,,2021-11-19,1,,,,,ベジファースト,0
2338,9050001050163,新規,0,2021-11-19,2021-11-19,Ｔ’ｓエステート株式会社,,株式会社,茨城県,筑西市,木戸２１番地,,08,227,3080104,,,,,,,2021-11-19,1,,,,,ティーズエステート,0
2345,9070001038669,新規,0,2021-11-19,2021-11-19,株式会社境谷工業,,株式会社,群馬県,安中市,西上磯部１８７０番地２,,10,211,3790126,,,,,,,2021-11-19,1,,,,,サカイダニコウギョウ,0
2346,9070003004306,新規,0,2021-11-19,2021-11-19,合同会社筏井商事,,合同会社,群馬県,利根郡昭和村,大字糸井７５５１番地４,,10,448,3791203,,,,,,,2021-11-19,1,,,,,イカダイショウジ,0
2355,9090001017282,新規,0,2021-11-19,2021-11-19,Ｅ－ＲＩＳＥ　ＥＸＴＥＲＩＯＲ株式会社,,株式会社,山梨県,南アルプス市,藤田１６９９番地１,,19,208,4000334,,,,,,,2021-11-19,1,,,,,イーライズエクステリア,0
2363,9110001036206,新規,0,2021-11-19,2021-11-19,株式会社Ａｔｈｌｅｔｅ　Ｐａｒｔｎｅｒｓ,,株式会社,新潟県,新潟市中央区,沼垂東４丁目７番２号１Ｆ,,15,103,9500075,,,,,,,2021-11-19,1,,,,,アスリートパートナーズ,0
2379,9120001241952,新規,0,2021-11-19,2021-11-19,満樹果物株式会社,,株式会社,大阪府,大阪市城東区,中浜１丁目１７－１４ルネッサンスシャレード６Ｈ,,27,118,5360024,,,,,,,2021-11-19,1,,,,,マンジュクダモノ,0
2391,9120101064659,新規,0,2021-11-19,2021-11-19,ＬＯＯＰ設備工業株式会社,,株式会社,大阪府,岸和田市,大沢町６４７番地,,27,202,5960114,,,,,,,2021-11-19,1,,,,,ループセツビコウギョウ,0
2392,9120105009478,新規,0,2021-11-19,2021-11-19,メーティス税理士法人,,その他の設立登記法人,大阪府,岸和田市,下松町１１７４番地の１５,,27,202,5960823,,,,,,,2021-11-19,1,,,,,メーティス,0
2393,9120901045239,新規,0,2021-11-19,2021-11-19,株式会社ＢａＴＯＮ,,株式会社,大阪府,茨木市,南春日丘７丁目８番１８号,,27,211,5670046,,,,,,,2021-11-19,1,,,,,バトン,0
2402,9130001070541,新規,0,2021-11-19,2021-11-19,株式会社ブレンデッド,,株式会社,京都府,京都市中京区,御池通堀川東入下る鍛冶町１８７番地リーガル京都二条城東６０４,,26,104,6048267,,,,,,,2021-11-19,1,,,,,ブレンデッド,0
2403,9130001070574,新規,0,2021-11-19,2021-11-19,株式会社ユーベッツ,,株式会社,京都府,京都市西京区,嵐山朝月町２番地１,,26,111,6160022,,,,,,,2021-11-19,1,,,,,ユーベッツ,0
2406,9140001123942,新規,0,2021-11-19,2021-11-19,株式会社ヒャクネンミライ,,株式会社,兵庫県,川西市,小花２丁目２番４号ハーフェン小花１０１,,28,217,6660015,,,,,,,2021-11-19,1,,,,,ヒャクネンミライ,0
2411,9150003002549,新規,0,2021-11-19,2021-11-19,合同会社ふぉゆう,,合同会社,奈良県,北葛城郡河合町,池部１丁目７番５号,,29,427,6360053,,,,,,,2021-11-19,1,,,,,フォユウ,0
2418,9180001148746,新規,0,2021-11-19,2021-11-19,株式会社興亜,,株式会社,愛知県,名古屋市千種区,大島町２丁目１８番地２１８ＨＯＵＳＥ２階Ａ号室,,23,101,4640833,,,,,,,2021-11-19,1,,,,,コウア,0
2419,9180001148820,新規,0,2021-11-19,2021-11-19,株式会社ＹＨＬ,,株式会社,愛知県,名古屋市中区,丸の内３丁目１７番４号第１１ＫＴビル８階,,23,106,4600002,,,,,,,2021-11-19,1,,,,,ワイエイチエル,0
2420,9180001148837,新規,0,2021-11-19,2021-11-19,株式会社ティーエムトラスト,,株式会社,愛知県,愛西市,佐屋町道東７６番地１３,,23,232,4960901,,,,,,,2021-11-19,1,,,,,ティーエムトラスト,0
2447,9240001058955,新規,0,2021-11-19,2021-11-19,株式会社ＭＭＳＫＹ,,株式会社,広島県,広島市西区,古江西町４番１３号,,34,104,7330874,,,,,,,2021-11-19,1,,,,,エムエムスカイ,0
2448,9240001058963,新規,0,2021-11-19,2021-11-19,東澤産業株式会社,,株式会社,広島県,広島市中区,八丁堀１番２３－４０９号,,34,101,7300013,,,,,,,2021-11-19,1,,,,,トウタクサンギョウ,0
2452,9260001036224,新規,0,2021-11-19,2021-11-19,幸輝建設株式会社,,株式会社,岡山県,赤磐市,桜が丘東１丁目１２９１番地１５,,33,213,7090721,,,,,,,2021-11-19,1,,,,,コウキケンセツ,0
2453,9260001036232,新規,0,2021-11-19,2021-11-19,株式会社ル・ジェルム,,株式会社,岡山県,岡山市中区,海吉１９１５番地１２,,33,102,7038261,,,,,,,2021-11-19,1,,,,,ルジェルム,0
2459,9290001095457,新規,0,2021-11-19,2021-11-19,株式会社博多千じゅ,,株式会社,福岡県,福岡市南区,大橋１丁目１５番６号アルボーレ大橋Ｂ１,,40,134,8150033,,,,,,,2021-11-19,1,,,,,ハカタセンジュ,0
2461,9290003011841,新規,0,2021-11-19,2021-11-19,Ｇ‐ＳＴＹＬＥ合同会社,,合同会社,福岡県,福岡市東区,箱崎ふ頭３丁目１番１５－９１２号,,40,131,8120051,,,,,,,2021-11-19,1,,,,,ジースタイル,0
2465,9310003004215,新規,0,2021-11-19,2021-11-19,彩りケアグループ合同会社,,合同会社,長崎県,長崎市,木鉢町１丁目１４５番地２５ルミエール１０２,,42,201,8500076,,,,,,,2021-11-19,1,,,,,イロドリケアグループ,0
2468,9320001018744,新規,0,2021-11-19,2021-11-19,株式会社Ｍ＆Ｓ,,株式会社,大分県,大分市,大字猪野１５２８番地の３９,,44,201,8700134,,,,,,,2021-11-19,1,,,,,エムアンドエス,0
2472,9320005009938,新規,0,2021-11-19,2021-11-19,医療法人ＡＳＣ,,その他の設立登記法人,大分県,大分市,東大道１丁目３番１号アクロスプラザ大分駅南２Ｆ,,44,201,8700823,,,,,,,2021-11-19,1,,,,,エーエスシー,0
2478,9350003003972,新規,0,2021-11-19,2021-11-19,エムズプラス合同会社,,合同会社,宮崎県,宮崎市,清武町船引４１７０－２,,45,201,8891604,,,,,,,2021-11-19,1,,,,,エムズプラス,0
2483,9400003002861,新規,0,2021-11-19,2021-11-19,合同会社ＢａｙＰｈｏｅｎｉｘ,,合同会社,岩手県,北上市,相去町西裏３７,,03,206,0240051,,,,,,,2021-11-19,1,,,,,ベイフェニックス,0
2496,9500001023825,新規,0,2021-11-19,2021-11-19,株式会社Ｐｒｏｐｅｌ,,株式会社,愛媛県,松山市,光洋台８番地４９,,38,201,7992469,,,,,,,2021-11-19,1,,,,,プロペル,0
2497,9700150105908,新規,0,2021-11-19,2021-11-19,全国新聞業企業年金基金,,その他,東京都,千代田区,内幸町２丁目２－１日本プレスセンタービル３Ｆ,,13,101,1000011,,,,,,,2021-11-19,1,,,,,ゼンコクシンブンギヨウキギヨウネンキンキキン,0
