sequenceNumber,corporateNumber,process,correct,updateDate,changeDate,name,nameImageId,kind,prefectureName,cityName,streetNumber,addressImageId,prefectureCode,cityCode,postCode,addressOutside,addressOutsideImageId,closeDate,closeCause,successorCorporateNumber,changeCause,assignmentDate,latest,enName,enPrefectureName,enCityName,enAddressOutside,furigana,hihyoji
6,1010001225882,新規,0,2022-04-22,2022-04-22,株式会社せつな,,株式会社,東京都,千代田区,神田練塀町３００番２階,,13,101,1010022,,,,,,,2022-04-22,1,,,,,セツナ,0
7,1010001225908,新規,0,2022-04-22,2022-04-22,株式会社ｓｔｒｅａｍｓ,,株式会社,東京都,千代田区,神田錦町３丁目２１－１２４６,,13,101,1010054,,,,,,,2022-04-22,1,,,,,ストリームズ,0
10,1010101015151,新規,0,2022-04-22,2022-04-22,株式会社スーパーシード商事,,株式会社,東京都,八王子市,みなみ野４丁目１１番６号プラシード１０１号,,13,201,1920916,,,,,,,2022-04-22,1,,,,,スーパーシードショウジ,0
16,1010403027539,新規,0,2022-04-22,2022-04-22,ＩＴデザインコンサルティング合同会社,,合同会社,東京都,港区,芝４丁目５番９ー２０２号,,13,103,1080014,,,,,,,2022-04-22,1,,,,,アイティーデザインコンサルティング,0
22,1010701042561,新規,0,2022-04-22,2022-04-22,株式会社ＹＡＭＡＧＡＭＩ,,株式会社,東京都,品川区,西品川１丁目１７－１９,,13,109,1410033,,,,,,,2022-04-22,1,,,,,ヤマガミ,0
39,1011101098599,新規,0,2022-04-22,2022-04-22,グローバル設備株式会社,,株式会社,東京都,新宿区,市谷柳町４５番地３ＭＩＴＡ市ヶ谷柳町ビル６階,,13,104,1620061,,,,,,,2022-04-22,1,,,,,グローバルセツビ,0
40,1011101098608,新規,0,2022-04-22,2022-04-22,株式会社ウィンワーク,,株式会社,東京都,新宿区,新宿５丁目１１番１号,,13,104,1600022,,,,,,,2022-04-22,1,,,,,ウィンワーク,0
41,1011101098632,新規,0,2022-04-22,2022-04-22,株式会社ＺＡヒューマンサポート,,株式会社,東京都,新宿区,高田馬場４丁目２番９号コーポ白峰２０２,,13,104,1690075,,,,,,,2022-04-22,1,,,,,ゼットエーヒューマンサポート,0
45,1011303004388,新規,0,2022-04-22,2022-04-22,合同会社Ｍａｓｈｒｉｑ,,合同会社,東京都,杉並区,高円寺北１丁目１０番５－１０１号,,13,115,1660002,,,,,,,2022-04-22,1,,,,,マシュリク,0
46,1011401024189,新規,0,2022-04-22,2022-04-22,株式会社ＴＲＹＲＯ,,株式会社,東京都,板橋区,本町１０番１６号ラ・ヴレ・ヴォーグ６Ｇ,,13,119,1730001,,,,,,,2022-04-22,1,,,,,トライロ,0
55,1012801021528,新規,0,2022-04-22,2022-04-22,株式会社山都,,株式会社,東京都,立川市,富士見町３丁目５番６号,,13,202,1900013,,,,,,,2022-04-22,1,,,,,ヤマト,0
65,1020001146236,新規,0,2022-04-22,2022-04-22,住まいるホーム株式会社,,株式会社,神奈川県,横浜市港南区,下永谷３丁目１０番２２号ダイトミＮｏ１－１０２,,14,111,2330016,,,,,,,2022-04-22,1,,,,,スマイルホーム,0
66,1020001146260,新規,0,2022-04-22,2022-04-22,株式会社Ｔｈｅ　ｈｏｍｅ,,株式会社,神奈川県,横浜市青葉区,美しが丘１丁目１３番地１０吉村ビル１０７,,14,117,2250002,,,,,,,2022-04-22,1,,,,,ザホーム,0
68,1020003021692,新規,0,2022-04-22,2022-04-22,合同会社エンスージアズム,,合同会社,神奈川県,横浜市緑区,中山１丁目２９番４－１０８号,,14,113,2260019,,,,,,,2022-04-22,1,,,,,エンスージアズム,0
75,1021001075763,新規,0,2022-04-22,2022-04-22,株式会社クロヤ,,株式会社,神奈川県,鎌倉市,腰越３丁目１番２号,,14,204,2480033,,,,,,,2022-04-22,1,,,,,クロヤ,0
82,1021003011634,新規,0,2022-04-22,2022-04-22,合同会社ｔｉｄａ,,合同会社,神奈川県,相模原市中央区,緑が丘１丁目２番４号,,14,152,2520225,,,,,,,2022-04-22,1,,,,,ティダ,0
89,1030001147803,新規,0,2022-04-22,2022-04-22,株式会社大翔,,株式会社,埼玉県,幸手市,緑台１丁目４５番２４号,,11,240,3400151,,,,,,,2022-04-22,1,,,,,ダイショウ,0
90,1030001147844,新規,0,2022-04-22,2022-04-22,株式会社松場工業,,株式会社,埼玉県,越谷市,新川町１丁目４４７－６,,11,222,3430852,,,,,,,2022-04-22,1,,,,,,0
91,1030001147860,新規,0,2022-04-22,2022-04-22,株式会社ＭＴＣｏｍ,,株式会社,埼玉県,さいたま市大宮区,寿能町１丁目１３７番地３,,11,103,3300805,,,,,,,2022-04-22,1,,,,,エムティーコム,0
96,1030003019265,新規,0,2022-04-22,2022-04-22,合同会社早川設備,,合同会社,埼玉県,東松山市,御茶山町１１番地２２,,11,212,3550022,,,,,,,2022-04-22,1,,,,,ハヤカワセツビ,0
97,1030003019281,新規,0,2022-04-22,2022-04-22,合同会社クレスト,,合同会社,埼玉県,さいたま市緑区,美園３丁目１４番地１１,,11,109,3360967,,,,,,,2022-04-22,1,,,,,クレスト,0
107,1040001123150,新規,0,2022-04-22,2022-04-22,株式会社アグリュース,,株式会社,千葉県,千葉市中央区,都町１丁目３９番１号,,12,101,2600001,,,,,,,2022-04-22,1,,,,,アグリュース,0
109,1050001051004,新規,0,2022-04-22,2022-04-22,ながおか電気通信株式会社,,株式会社,茨城県,東茨城郡茨城町,大字長岡３５２３番地１０,,08,302,3113116,,,,,,,2022-04-22,1,,,,,ナガオカデンキツウシン,0
112,1060001034767,新規,0,2022-04-22,2022-04-22,株式会社あおい電設,,株式会社,栃木県,小山市,大字出井２１６０番地４,,09,208,3230808,,,,,,,2022-04-22,1,,,,,アオイデンセツ,0
115,1070003004461,新規,0,2022-04-22,2022-04-22,合同会社浅商,,合同会社,群馬県,吾妻郡長野原町,大字北軽井沢１９９０番地４５５５,,10,424,3771412,,,,,,,2022-04-22,1,,,,,センショウ,0
143,1120001245366,新規,0,2022-04-22,2022-04-22,株式会社合信旅行社,,株式会社,大阪府,大阪市中央区,難波４丁目１－１５近鉄難波ビル１Ｆ,,27,128,5420076,,,,,,,2022-04-22,1,,,,,ゴウシンリョコウシャ,0
144,1120001245449,新規,0,2022-04-22,2022-04-22,株式会社ＧＥＮＩＵＳ　Ｇｒｏｕｐ,,株式会社,大阪府,大阪市淀川区,新北野１丁目９番２７－８０５号,,27,123,5320025,,,,,,,2022-04-22,1,,,,,ジニアスグループ,0
150,1120901045881,新規,0,2022-04-22,2022-04-22,Ｄａ　Ｖｉｎｃｉ　ｍｅｄｉｃａｌ株式会社,,株式会社,大阪府,箕面市,彩都粟生北７丁目１番７４号,,27,220,5620029,,,,,,,2022-04-22,1,,,,,ダヴィンチメディカル,0
151,1120901045898,新規,0,2022-04-22,2022-04-22,知名グループ株式会社,,株式会社,大阪府,高槻市,西面北２丁目１５－３２,,27,207,5690841,,,,,,,2022-04-22,1,,,,,チナグループ,0
154,1122001035788,新規,0,2022-04-22,2022-04-22,株式会社ワンズ建設,,株式会社,大阪府,東大阪市,小若江２丁目１１番４号Ｆ棟,,27,227,5770818,,,,,,,2022-04-22,1,,,,,ワンズケンセツ,0
160,1130001071613,新規,0,2022-04-22,2022-04-22,茶草屋株式会社,,株式会社,京都府,京都市右京区,西院西高田町６番地３－２０２,,26,108,6150032,,,,,,,2022-04-22,1,,,,,チャソウヤ,0
168,1150001025476,新規,0,2022-04-22,2022-04-22,株式会社やるかやらんか,,株式会社,奈良県,奈良市,富雄元町２丁目１番２０－２Ｃ,,29,201,6310078,,,,,,,2022-04-22,1,,,,,ヤルカヤランカ,0
171,1170003001713,新規,0,2022-04-22,2022-04-22,ＳＴＲＡＴＥＧＹ　ＭＡＮＡＧＥＭＥＮＴ合同会社,,合同会社,和歌山県,和歌山市,新在家１３４－３グランディールＮＴ２０５,,30,201,6408345,,,,,,,2022-04-22,1,,,,,ストラテジーマネジメント,0
185,1180001150949,新規,0,2022-04-22,2022-04-22,株式会社ＢＤＳ,,株式会社,愛知県,名古屋市中区,栄４丁目１２番５号,,23,106,4600008,,,,,,,2022-04-22,1,,,,,ビーディーエス,0
186,1180001150965,新規,0,2022-04-22,2022-04-22,株式会社リノベア,,株式会社,愛知県,名古屋市東区,山口町１１番１３号サンニシキ３Ａ,,23,102,4610024,,,,,,,2022-04-22,1,,,,,リノベア,0
187,1180001151006,新規,0,2022-04-22,2022-04-22,株式会社大盈商,,株式会社,愛知県,名古屋市北区,丸新町３５３番地,,23,103,4620063,,,,,,,2022-04-22,1,,,,,ダイエイショウ,0
194,1180303005314,新規,0,2022-04-22,2022-04-22,合同会社ｂｌｕｅ８,,合同会社,愛知県,豊川市,下長山町堺５７番地の３,,23,207,4420824,,,,,,,2022-04-22,1,,,,,ブルーエイト,0
200,1200001040008,新規,0,2022-04-22,2022-04-22,株式会社ウォーターリンク,,株式会社,岐阜県,羽島市,江吉良町江西１丁目１５番地レジデンスタツミ５０４号室,,21,209,5016237,,,,,,,2022-04-22,1,,,,,ウォーターリンク,0
201,1210001018894,新規,0,2022-04-22,2022-04-22,株式会社遊亀庵かめや,,株式会社,福井県,越前市,東千福町２７番３７号,,18,209,9150847,,,,,,,2022-04-22,1,,,,,ユウキアンカメヤ,0
204,1240001059663,新規,0,2022-04-22,2022-04-22,株式会社グランツ,,株式会社,広島県,山県郡北広島町,壬生２０５２番地１４,,34,369,7311515,,,,,,,2022-04-22,1,,,,,グランツ,0
205,1250001019526,新規,0,2022-04-22,2022-04-22,株式会社Ｂ‐ｌａｂ,,株式会社,山口県,周南市,城ケ丘１丁目７番３１号,,35,215,7450807,,,,,,,2022-04-22,1,,,,,ビーラブ,0
207,1260001036776,新規,0,2022-04-22,2022-04-22,株式会社Ｈｉｇｈ　Ｕｐ,,株式会社,岡山県,倉敷市,水江１９５番地１セレッソコートＣ－２０１,,33,202,7100802,,,,,,,2022-04-22,1,,,,,ハイアップ,0
213,1290001097279,新規,0,2022-04-22,2022-04-22,株式会社ＲＥＱＫＡＪＩ,,株式会社,福岡県,福岡市東区,松島２丁目６番３号,,40,131,8120062,,,,,,,2022-04-22,1,,,,,リクカジ,0
217,1290005018660,新規,0,2022-04-22,2022-04-22,医療法人信知会,,その他の設立登記法人,福岡県,古賀市,日吉３丁目２１番４０号,,40,223,8113106,,,,,,,2022-04-22,1,,,,,シンチカイ,0
223,1290801028474,新規,0,2022-04-22,2022-04-22,株式会社ＧＹＭ　ＳＴＡＧＥ,,株式会社,福岡県,北九州市小倉南区,津田南町１８番１６号,,40,107,8000248,,,,,,,2022-04-22,1,,,,,ジムステージ,0
232,1340001024673,新規,0,2022-04-22,2022-04-22,株式会社建築徳永屋,00126378,株式会社,鹿児島県,霧島市,隼人町小田１８２３番地２,,46,218,8995105,,,,,,,2022-04-22,1,,,,,ケンチクトクナガヤ,0
266,1440003001454,新規,0,2022-04-22,2022-04-22,合同会社ＫＡＩＴＯ潜水,,合同会社,北海道,函館市,湯川町３丁目２７番２９号,,01,202,0420932,,,,,,,2022-04-22,1,,,,,カイトセンスイ,0
268,1450001013681,新規,0,2022-04-22,2022-04-22,株式会社ＡＴＡＲＵファーム,,株式会社,北海道,雨竜郡幌加内町,字長留内,,01,472,0740415,,,,,,,2022-04-22,1,,,,,アタルファーム,0
290,2010001225980,新規,0,2022-04-22,2022-04-22,株式会社ビジョナリーファーマシー,,株式会社,東京都,中央区,銀座４丁目１２番１５号歌舞伎座タワー,,13,102,1040061,,,,,,,2022-04-22,1,,,,,ビジョナリーファーマシー,0
291,2010001225989,新規,0,2022-04-22,2022-04-22,ＫＸ　Ｃａｐｉｔａｌ　Ｇｒｏｕｐ株式会社,,株式会社,東京都,千代田区,丸の内３丁目１－１国際ビル,,13,101,1000005,,,,,,,2022-04-22,1,,,,,ケーエックスキャピタルグループ,0
292,2010001226021,新規,0,2022-04-22,2022-04-22,株式会社二階堂商会,,株式会社,東京都,文京区,本郷３丁目１７－３－２Ｆ,,13,105,1130033,,,,,,,2022-04-22,1,,,,,ニカイドウショウカイ,0
293,2010001226054,新規,0,2022-04-22,2022-04-22,株式会社マイア,,株式会社,東京都,千代田区,内神田１丁目５番９号,,13,101,1010047,,,,,,,2022-04-22,1,,,,,マイア,0
294,2010001226079,新規,0,2022-04-22,2022-04-22,株式会社Ｉｎｔｅｒｍｅｄｉａｔｅ,,株式会社,東京都,中央区,銀座１丁目２２番１１号銀座大竹ビジデンス２階,,13,102,1040061,,,,,,,2022-04-22,1,,,,,インターミディエイト,0
295,2010001226112,新規,0,2022-04-22,2022-04-22,キャロットキャピタル株式会社,,株式会社,東京都,中央区,日本橋本町１丁目８番１３号日本橋滄浪閣ビル２階Ｒフロア,,13,102,1030023,,,,,,,2022-04-22,1,,,,,キャロットキャピタル,0
306,2010005034908,新規,0,2022-04-22,2022-04-22,弁護士法人ＫＭ法律事務所,,その他の設立登記法人,東京都,千代田区,神田須田町２丁目２３－１－５０４,,13,101,1010041,,,,,,,2022-04-22,1,,,,,ケイエムホウリツジムショ,0
308,2010401166965,新規,0,2022-04-22,2022-04-22,株式会社ビューティーワークス,,株式会社,東京都,港区,虎ノ門４丁目３番１号城山トラストタワー２７階,,13,103,1050001,,,,,,,2022-04-22,1,,,,,ビューティーワークス,0
311,2010403027521,新規,0,2022-04-22,2022-04-22,合同会社夢知屋,,合同会社,東京都,港区,西麻布４丁目２番６号菱和パレス西麻布６０５号,,13,103,1060031,,,,,,,2022-04-22,1,,,,,ムッチャ,0
317,2010601061017,新規,0,2022-04-22,2022-04-22,株式会社大原,,株式会社,東京都,江東区,北砂５丁目１０番１１－１０２号,,13,108,1360073,,,,,,,2022-04-22,1,,,,,オオハラ,0
318,2010601061033,新規,0,2022-04-22,2022-04-22,株式会社笹川工業所,,株式会社,東京都,江東区,亀戸７丁目１２番４号,,13,108,1360071,,,,,,,2022-04-22,1,,,,,ササガワコウギョウショ,0
323,2010701042560,新規,0,2022-04-22,2022-04-22,株式会社田倉の予想,,株式会社,東京都,品川区,南大井６丁目１８番２号,,13,109,1400013,,,,,,,2022-04-22,1,,,,,タクラノヨソウ,0
328,2010901050743,新規,0,2022-04-22,2022-04-22,ＲｅｄＲｕｍ株式会社,,株式会社,東京都,世田谷区,経堂４丁目１４番１０号ＳＢフラッツウエスト３０１,,13,112,1560052,,,,,,,2022-04-22,1,,,,,レッドラム,0
337,2011101098598,新規,0,2022-04-22,2022-04-22,株式会社ＴＡＲＩＫＩ,,株式会社,東京都,新宿区,新宿１丁目３６番２号３階,,13,104,1600022,,,,,,,2022-04-22,1,,,,,タリキ,0
338,2011101098607,新規,0,2022-04-22,2022-04-22,株式会社ＳＡＬＴＯ‐ｔｅｃ,,株式会社,東京都,新宿区,新宿１丁目２３番１号新宿マルネビル２階,,13,104,1600022,,,,,,,2022-04-22,1,,,,,サルテック,0
339,2011101098648,新規,0,2022-04-22,2022-04-22,株式会社ｈｏｍｅ,,株式会社,東京都,新宿区,四谷４丁目８番地９ライオンズ四谷タワーゲート１５０６,,13,104,1600004,,,,,,,2022-04-22,1,,,,,ホーム,0
344,2011201023778,新規,0,2022-04-22,2022-04-22,株式会社Ｓｔｕｄｉｏ　Ｌｉｓ,,株式会社,東京都,中野区,中央１丁目５０－１７中野坂上パークホームズ４０８,,13,114,1640011,,,,,,,2022-04-22,1,,,,,スタジオリス,0
355,2011801040636,新規,0,2022-04-22,2022-04-22,株式会社ｉｎｓｕｒｅ,,株式会社,東京都,葛飾区,四つ木４丁目１５番７号,,13,122,1240011,,,,,,,2022-04-22,1,,,,,インシュア,0
356,2012303001663,新規,0,2022-04-22,2022-04-22,アスワク町田合同会社,,合同会社,東京都,町田市,南成瀬８丁目５番地２４,,13,209,1940045,,,,,,,2022-04-22,1,,,,,アスワクマチダ,0
363,2013301048993,新規,0,2022-04-22,2022-04-22,株式会社リクラフト,,株式会社,東京都,豊島区,長崎５丁目２番１７号ハイツ長崎２０１号,,13,116,1710051,,,,,,,2022-04-22,1,,,,,リクラフト,0
372,2020001146227,新規,0,2022-04-22,2022-04-22,Ｐ＆Ｍ大好き株式会社,,株式会社,神奈川県,川崎市川崎区,下並木１４番地３ダイアパレス川崎第３、４０２,,14,131,2100025,,,,,,,2022-04-22,1,,,,,ピーアンドエムダイスキ,0
373,2020001146243,新規,0,2022-04-22,2022-04-22,株式会社Ｇｒａｎｉｔｅ,,株式会社,神奈川県,横浜市鶴見区,矢向５丁目４－３グラニット矢向１０２号室,,14,101,2300001,,,,,,,2022-04-22,1,,,,,グラニット,0
376,2020005015502,新規,0,2022-04-22,2022-04-22,医療法人社団ＬＯＨＡＳ,,その他の設立登記法人,神奈川県,横浜市港北区,綱島東４丁目１番５号コジマビル１階,,14,109,2230052,,,,,,,2022-04-22,1,,,,,ロハス,0
381,2021001075754,新規,0,2022-04-22,2022-04-22,グローバルクリエイトシステム株式会社,,株式会社,神奈川県,藤沢市,亀井野２０９９番地,,14,205,2520813,,,,,,,2022-04-22,1,,,,,グローバルクリエイトシステム,0
385,2021003011641,新規,0,2022-04-22,2022-04-22,糸エンジニアリング合同会社,,合同会社,神奈川県,相模原市南区,古淵４丁目７番４０－２０３号,,14,153,2520344,,,,,,,2022-04-22,1,,,,,イトエンジニアリング,0
387,2021005012497,新規,0,2022-04-22,2022-04-22,特定非営利活動法人カンボジア支援センター,,その他の設立登記法人,神奈川県,平塚市,中原３丁目２番５２号,,14,203,2540075,,,,,,,2022-04-22,1,,,,,カンボジアシエンセンター,0
395,2030001147851,新規,0,2022-04-22,2022-04-22,株式会社ＴＭＫ,,株式会社,埼玉県,さいたま市見沼区,大和田町２丁目９８０番地１,,11,104,3370053,,,,,,,2022-04-22,1,,,,,ティーエムケー,0
398,2030003019256,新規,0,2022-04-22,2022-04-22,合同会社良縁,,合同会社,埼玉県,川口市,金山町１４－２,,11,203,3320014,,,,,,,2022-04-22,1,,,,,リョウエン,0
399,2030003019272,新規,0,2022-04-22,2022-04-22,スタープラチナ合同会社,,合同会社,埼玉県,蕨市,中央６丁目１４番１９号,,11,223,3350004,,,,,,,2022-04-22,1,,,,,スタープラチナ,0
400,2030003019280,新規,0,2022-04-22,2022-04-22,合同会社さくらｏｆｆｉｃｅ,,合同会社,埼玉県,吉川市,保１丁目３６番地１,,11,243,3420041,,,,,,,2022-04-22,1,,,,,サクラオフィス,0
403,2040001123109,新規,0,2022-04-22,2022-04-22,緑環衛株式会社,,株式会社,千葉県,東金市,山田１２２９番地６号,,12,213,2830823,,,,,,,2022-04-22,1,,,,,リョクカンエイ,0
407,2040003019924,新規,0,2022-04-22,2022-04-22,ＭＺ‐ＲＩＤＥ合同会社,,合同会社,千葉県,千葉市中央区,富士見２丁目１８－１０ＭＦ８ビル２Ｆ,,12,101,2600015,,,,,,,2022-04-22,1,,,,,エムゼットライド,0
408,2040003019932,新規,0,2022-04-22,2022-04-22,エルプランニング合同会社,,合同会社,千葉県,君津市,東坂田３丁目４番地２,,12,225,2991144,,,,,,,2022-04-22,1,,,,,エルプランニング,0
414,2060001034790,新規,0,2022-04-22,2022-04-22,エスエーケント株式会社,,株式会社,栃木県,那須塩原市,野間６番地７６,,09,213,3250014,,,,,,,2022-04-22,1,,,,,エスエーケント,0
418,2080005007452,新規,0,2022-04-22,2022-04-22,一般社団法人びーはっぴぃ,,その他の設立登記法人,静岡県,静岡市駿河区,稲川１丁目２番３６号,,22,102,4228062,,,,,,,2022-04-22,1,,,,,ビーハッピィ,0
420,2080101023238,新規,0,2022-04-22,2022-04-22,株式会社ワイズ,,株式会社,静岡県,駿東郡長泉町,上長窪１９番地,,22,342,4110935,,,,,,,2022-04-22,1,,,,,ワイズ,0
426,2090003002082,新規,0,2022-04-22,2022-04-22,合同会社風の止まり木,,合同会社,山梨県,甲州市,大和町初鹿野２２４８番地,,19,213,4091203,,,,,,,2022-04-22,1,,,,,カゼノトマリギ,0
429,2100001035280,新規,0,2022-04-22,2022-04-22,俊甲株式会社,,株式会社,長野県,東御市,常田５９６番地１,,20,219,3890515,,,,,,,2022-04-22,1,,,,,シュンコウ,0
437,2120001245290,新規,0,2022-04-22,2022-04-22,株式会社Ｄａｉｆｕｋｕ　Ｈｏｕｓｅ,,株式会社,大阪府,大阪市西区,京町堀３丁目２番８号ロータリー京町堀２０２号,,27,106,5500003,,,,,,,2022-04-22,1,,,,,ダイフクハウス,0
438,2120001245423,新規,0,2022-04-22,2022-04-22,株式会社ピアノ買取ピアノワン,,株式会社,大阪府,寝屋川市,香里北之町２－６香里園テレプラス２０３,,27,215,5720080,,,,,,,2022-04-22,1,,,,,ピアノカイトリピアノワン,0
443,2120005022926,新規,0,2022-04-22,2022-04-22,一般社団法人Ｋ‐ｔｗｏクリニック,,その他の設立登記法人,大阪府,大阪市中央区,西心斎橋２丁目４番２号,,27,128,5420086,,,,,,,2022-04-22,1,,,,,ケーツークリニック,0
448,2120101065457,新規,0,2022-04-22,2022-04-22,株式会社マインプルーフ,,株式会社,大阪府,堺市堺区,柳之町西２丁１－３番,,27,141,5900930,,,,,,,2022-04-22,1,,,,,マインプルーフ,0
449,2120101065465,新規,0,2022-04-22,2022-04-22,オクノ興産株式会社,,株式会社,大阪府,藤井寺市,藤井寺１丁目５番２１号,,27,226,5830024,,,,,,,2022-04-22,1,,,,,オクノコウサン,0
450,2120101065473,新規,0,2022-04-22,2022-04-22,株式会社瑞樹,,株式会社,大阪府,和泉市,池田下町１６４５番地の６,,27,219,5940032,,,,,,,2022-04-22,1,,,,,ミズキ,0
463,2130001071620,新規,0,2022-04-22,2022-04-22,株式会社ＳＴＣｏｍｐａｎｙ２４,,株式会社,京都府,京都市伏見区,向島二ノ丸町８７,,26,109,6128141,,,,,,,2022-04-22,1,,,,,エステイーカンパニーニジュウヨン,0
474,2140005026149,新規,0,2022-04-22,2022-04-22,一般社団法人ＧＥＮホールディングス,,その他の設立登記法人,兵庫県,神戸市中央区,下山手通５丁目６番１６－３５０１号,,28,110,6500011,,,,,,,2022-04-22,1,,,,,ゲンホールディングス,0
480,2160001024146,新規,0,2022-04-22,2022-04-22,智財建物管理株式会社,,株式会社,滋賀県,米原市,顔戸１４２３番地１１,,25,214,5210072,,,,,,,2022-04-22,1,,,,,チザイタテモノカンリ,0
481,2160003002554,新規,0,2022-04-22,2022-04-22,アドミックス合同会社,,合同会社,滋賀県,草津市,野路町６８６ラフラ館,,25,206,5250055,,,,,,,2022-04-22,1,,,,,アドミックス,0
491,2180001150915,新規,0,2022-04-22,2022-04-22,株式会社ＲＩＳＥ,,株式会社,愛知県,名古屋市昭和区,車田町１丁目２０２番地オープンレジデンシア昭和吹上８０３,,23,107,4660001,,,,,,,2022-04-22,1,,,,,ライズ,0
492,2180001150931,新規,0,2022-04-22,2022-04-22,株式会社ＤｏｎＤｅｎ,,株式会社,愛知県,犬山市,大字犬山字東古券７７３番地,,23,215,4840083,,,,,,,2022-04-22,1,,,,,ドンデン,0
493,2180001150997,新規,0,2022-04-22,2022-04-22,マネーテラス株式会社,,株式会社,愛知県,名古屋市守山区,瀬古東１丁目２３２番地の１ラ・カキゥコナム２０１号,,23,113,4630090,,,,,,,2022-04-22,1,,,,,マネーテラス,0
494,2180001151021,新規,0,2022-04-22,2022-04-22,株式会社前田ホールディングス,,株式会社,愛知県,津島市,大縄町３丁目１番地１,,23,208,4960876,,,,,,,2022-04-22,1,,,,,マエダホールディングス,0
500,2180003023739,新規,0,2022-04-22,2022-04-22,セーフティーフリー合同会社,,合同会社,愛知県,名古屋市中区,千代田３丁目２４番１７号（アステリ鶴舞トゥリア２０５号）,,23,106,4600012,,,,,,,2022-04-22,1,,,,,セーフティーフリー,0
505,2180301036153,新規,0,2022-04-22,2022-04-22,株式会社ツツイファクトリー,,株式会社,愛知県,西尾市,法光寺町流５５番地１,,23,213,4450892,,,,,,,2022-04-22,1,,,,,ツツイファクトリー,0
507,2190001029349,新規,0,2022-04-22,2022-04-22,株式会社ＢｌｕｅＭｏｕｎｔａｉｎ,,株式会社,三重県,津市,庄田町２５４４番地１,,24,201,5141255,,,,,,,2022-04-22,1,,,,,ブルーマウンテン,0
511,2190003003962,新規,0,2022-04-22,2022-04-22,合同会社ＴＨＥＲＩＣＨＴＲＡＤＩＮＧ,,合同会社,三重県,津市,住吉町１３－１０,,24,201,5140019,,,,,,,2022-04-22,1,,,,,ザリッチトレーディング,0
512,2190005011699,新規,0,2022-04-22,2022-04-22,行政書士法人特化エキスパートナー,,その他の設立登記法人,三重県,三重郡菰野町,大字下村１００４番地１２,,24,341,5101225,,,,,,,2022-04-22,1,,,,,トッカエキスパートナー,0
515,2200001040007,新規,0,2022-04-22,2022-04-22,株式会社愛斗,,株式会社,岐阜県,岐阜市,粟野東３丁目４６３番地３,,21,201,5020002,,,,,,,2022-04-22,1,,,,,アイト,0
517,2200005013339,新規,0,2022-04-22,2022-04-22,一般社団法人ことばサポートネット,,その他の設立登記法人,岐阜県,可児市,光陽台１丁目３９番地,,21,214,5090255,,,,,,,2022-04-22,1,,,,,コトバサポートネット,0
518,2210001018902,新規,0,2022-04-22,2022-04-22,株式会社ＣＡＶＡＫＯＧＡ,,株式会社,福井県,福井市,天池町第３６号４１番地５,,18,201,9100124,,,,,,,2022-04-22,1,,,,,カバコガ,0
522,2230003001838,新規,0,2022-04-22,2022-04-22,合同会社富山ライフサイエンス研究所,,合同会社,富山県,滑川市,大浦２番地２,,16,206,9360811,,,,,,,2022-04-22,1,,,,,トヤマライフサイエンスケンキュウジョ,0
526,2240001059662,新規,0,2022-04-22,2022-04-22,Ｋｅｉ　Ｇｒａｃｅ株式会社,,株式会社,広島県,広島市西区,庚午北１丁目４番２５－９０１号,,34,104,7330821,,,,,,,2022-04-22,1,,,,,ケイグレース,0
530,2250001019517,新規,0,2022-04-22,2022-04-22,山陽小野田グリーンエナジー株式会社,,株式会社,山口県,山陽小野田市,大字高畑字北畑７７番地１１１,,35,216,7560021,,,,,,,2022-04-22,1,,,,,サンヨウオノダグリーンエナジー,0
531,2250003003048,新規,0,2022-04-22,2022-04-22,藤井商店合同会社,,合同会社,山口県,山口市,吉敷上東２丁目１０番６号,,35,203,7530818,,,,,,,2022-04-22,1,,,,,フジイショウテン,0
532,2260001036791,新規,0,2022-04-22,2022-04-22,株式会社Ｎｅｗ　ｓｔｅｐ,,株式会社,岡山県,岡山市南区,並木町１丁目６番７号,,33,104,7028058,,,,,,,2022-04-22,1,,,,,ニューステップ,0
534,2270001008501,新規,0,2022-04-22,2022-04-22,株式会社ライクウッド,,株式会社,鳥取県,日野郡日南町,神戸上６５０番地の２,,31,401,6895662,,,,,,,2022-04-22,1,,,,,ライクウッド,0
536,2280001008681,新規,0,2022-04-22,2022-04-22,株式会社レスタ石州,,株式会社,島根県,邑智郡川本町,大字川下１２２２番地,,32,441,6960004,,,,,,,2022-04-22,1,,,,,レスタセキシュウ,0
549,2290001097245,新規,0,2022-04-22,2022-04-22,ＯＴＳＵＮＡＧＩ株式会社,,株式会社,福岡県,福岡市中央区,赤坂１丁目１１－６,,40,133,8100042,,,,,,,2022-04-22,1,,,,,オツナギ,0
550,2290001097286,新規,0,2022-04-22,2022-04-22,株式会社グロース・エージェンシー,,株式会社,福岡県,福岡市中央区,天神２丁目３番３６号,,40,133,8100001,,,,,,,2022-04-22,1,,,,,グロースエージェンシー,0
551,2290001097294,新規,0,2022-04-22,2022-04-22,株式会社ＳＡＧＡＲＡ,,株式会社,福岡県,久留米市,田主丸町益生田８７３番地１２,,40,203,8391213,,,,,,,2022-04-22,1,,,,,サガラ,0
566,2330005010513,新規,0,2022-04-22,2022-04-22,医療法人熊本上翔会,,その他の設立登記法人,熊本県,玉名市,繁根木４０番地２,,43,206,8650051,,,,,,,2022-04-22,1,,,,,,0
569,2340003003765,新規,0,2022-04-22,2022-04-22,合同会社アップストレート,,合同会社,鹿児島県,鹿児島市,吉野町３４２５番地２アネシスＬ２０１号,,46,201,8920871,,,,,,,2022-04-22,1,,,,,アップストレート,0
573,2360001030297,新規,0,2022-04-22,2022-04-22,株式会社ＫＩＴ琉球,,株式会社,沖縄県,那覇市,松尾２丁目８－１９－７Ｆ,,47,201,9000014,,,,,,,2022-04-22,1,,,,,,0
576,2370001048487,新規,0,2022-04-22,2022-04-22,大和サービス株式会社,,株式会社,宮城県,仙台市宮城野区,小田原弓ノ町１００番８号,,04,102,9830812,,,,,,,2022-04-22,1,,,,,ダイワサービス,0
591,2430001086522,新規,0,2022-04-22,2022-04-22,株式会社アールビルド,,株式会社,北海道,札幌市清田区,真栄２６８番地８,,01,110,0040839,,,,,,,2022-04-22,1,,,,,アールビルド,0
593,2430003013854,新規,0,2022-04-22,2022-04-22,Ｌｕｃｋ合同会社,,合同会社,北海道,札幌市中央区,北三条東６丁目３３８番地８,,01,101,0600033,,,,,,,2022-04-22,1,,,,,ラック,0
594,2450005004338,新規,0,2022-04-22,2022-04-22,一般財団法人旭川道徳教育振興会,,その他の設立登記法人,北海道,旭川市,永山十四条３丁目４番１３号,,01,204,0798424,,,,,,,2022-04-22,1,,,,,アサヒカワドウトクキョウイクシンコウカイ,0
595,2460103001450,新規,0,2022-04-22,2022-04-22,合同会社Ｔｗｅｎｔｙ　ｆｏｒ　ｃｏｌｏｒｓ,,合同会社,北海道,帯広市,西九条南２６丁目３９番地２,,01,207,0800019,,,,,,,2022-04-22,1,,,,,トゥエンティーフォーカラーズ,0
604,2500003002817,新規,0,2022-04-22,2022-04-22,合同会社ダブルアール５０３Ｋ,,合同会社,愛媛県,松山市,山越５丁目１３番８号メゾン森田３０２,,38,201,7918013,,,,,,,2022-04-22,1,,,,,ダブルアールゴーゼロサンケー,0
613,3010001225749,新規,0,2022-04-22,2022-04-22,山喰株式会社,,株式会社,東京都,中央区,日本橋人形町２丁目１０－７ＴＹビル１階,,13,102,1030013,,,,,,,2022-04-22,1,,,,,ヤマハミ,0
614,3010001226029,新規,0,2022-04-22,2022-04-22,株式会社交点架台,,株式会社,東京都,千代田区,神田錦町３丁目６番１,,13,101,1010054,,,,,,,2022-04-22,1,,,,,コウテンガダイ,0
615,3010001226045,新規,0,2022-04-22,2022-04-22,株式会社ＭｅｔａＷｉｎ,,株式会社,東京都,中央区,築地１丁目２番１－５１１,,13,102,1040045,,,,,,,2022-04-22,1,,,,,メタウィン,0
618,3010003037481,新規,0,2022-04-22,2022-04-22,Ｓ＆Ｄｘ　ｓｏｌａｒ１合同会社,,合同会社,東京都,千代田区,神田三崎町２丁目４番１号ＴＵＧ－Ｉビル９Ｆ,00126380,13,101,1010061,,,,,,,2022-04-22,1,,,,,エスアンドディーエックスソーラーイチ,0
625,3010401013695,新規,0,2022-04-22,2022-04-22,秀栄製版株式会社,,株式会社,東京都,港区,芝浦３丁目１２番２号,,13,103,1080023,,,,,,,2022-04-22,1,,,,,,0
637,3010403027529,新規,0,2022-04-22,2022-04-22,合同会社Ｃｈｉｃａ,,合同会社,東京都,港区,南麻布２丁目３番１１号,,13,103,1060047,,,,,,,2022-04-22,1,,,,,チカ,0
640,3010601061024,新規,0,2022-04-22,2022-04-22,株式会社ＳＴＡＹ,,株式会社,東京都,墨田区,亀沢２丁目８番６号２Ｆ,,13,107,1300014,,,,,,,2022-04-22,1,,,,,ステイ,0
648,3010901050726,新規,0,2022-04-22,2022-04-22,株式会社ｆｓ,,株式会社,東京都,世田谷区,桜上水４丁目１－Ｈ３０３,,13,112,1560045,,,,,,,2022-04-22,1,,,,,エフエス,0
658,3011101098639,新規,0,2022-04-22,2022-04-22,株式会社Ｂ‐ｋｕｒｕ,,株式会社,東京都,新宿区,西新宿１丁目２６番２号新宿野村ビル３２階,,13,104,1600023,,,,,,,2022-04-22,1,,,,,ビークル,0
659,3011101098647,新規,0,2022-04-22,2022-04-22,株式会社ＶＬＯＯＭ,,株式会社,東京都,新宿区,四谷１丁目２０番地,,13,104,1600004,,,,,,,2022-04-22,1,,,,,ブルーム,0
671,3011803005058,新規,0,2022-04-22,2022-04-22,Ｇｉｎｐｓｙ合同会社,,合同会社,東京都,足立区,竹の塚１丁目４０番１５号庄栄ビル５Ｆ,,13,121,1210813,,,,,,,2022-04-22,1,,,,,ジンプシー,0
677,3012705002300,新規,0,2022-04-22,2022-04-22,一般社団法人小平市国際交流協会,,その他の設立登記法人,東京都,小平市,学園西町２丁目１２番２２号学園西町地域センター３階,,13,211,1870045,,,,,,,2022-04-22,1,,,,,コダイラシコクサイコウリュウキョウカイ,0
678,3013101008899,新規,0,2022-04-22,2022-04-22,株式会社ＴＫＳ,,株式会社,東京都,青梅市,今井１丁目５６番地の１,,13,205,1980023,,,,,,,2022-04-22,1,,,,,,0
686,3013301048992,新規,0,2022-04-22,2022-04-22,ＲｅＦｒｅ株式会社,,株式会社,東京都,豊島区,巣鴨４丁目２２番７－２０１号,,13,116,1700002,,,,,,,2022-04-22,1,,,,,リフレ,0
694,3020001146201,新規,0,2022-04-22,2022-04-22,株式会社日向,,株式会社,神奈川県,横浜市西区,南浅間町２６番２０－２０２号,,14,103,2200074,,,,,,,2022-04-22,1,,,,,ヒナタ,0
695,3020001146259,新規,0,2022-04-22,2022-04-22,通同株式会社,,株式会社,神奈川県,横浜市神奈川区,神奈川２丁目１９－９洛東ビル３０３,,14,102,2210045,,,,,,,2022-04-22,1,,,,,ツウドウ,0
700,3020005015501,新規,0,2022-04-22,2022-04-22,医療法人社団陽優会,,その他の設立登記法人,神奈川県,川崎市高津区,久本１丁目７番１２号１階,,14,134,2130011,,,,,,,2022-04-22,1,,,,,ヨウユウカイ,0
710,3021001075753,新規,0,2022-04-22,2022-04-22,株式会社Ｓ‐ＬＩＫＥ,,株式会社,神奈川県,相模原市南区,若松１丁目１２番１号,,14,153,2520334,,,,,,,2022-04-22,1,,,,,,0
719,3030001147792,新規,0,2022-04-22,2022-04-22,Ｊ‐ＵＮＩＴ株式会社,,株式会社,埼玉県,本庄市,児玉町高柳６３番地,,11,211,3670224,,,,,,,2022-04-22,1,,,,,ジェイユニット,0
723,3030003019255,新規,0,2022-04-22,2022-04-22,合同会社たぺたむ,,合同会社,埼玉県,さいたま市西区,大字西遊馬３６１番地３－２０３,,11,101,3310061,,,,,,,2022-04-22,1,,,,,タペタム,0
729,3040001123140,新規,0,2022-04-22,2022-04-22,栄和株式会社,,株式会社,千葉県,松戸市,上本郷４３８番地の１北松戸第２ローヤルコーポ２０４号,,12,207,2710064,,,,,,,2022-04-22,1,,,,,エイワ,0
730,3040001123149,新規,0,2022-04-22,2022-04-22,フジスイカン株式会社,,株式会社,千葉県,習志野市,本大久保２丁目４番１号棟２０１号室,,12,216,2750012,,,,,,,2022-04-22,1,,,,,フジスイカン,0
733,3040003019923,新規,0,2022-04-22,2022-04-22,順＿合同会社,00126375,合同会社,千葉県,千葉市稲毛区,あやめ台５１３番地５第二あやめ台住宅１６号棟２０４,,12,103,2630052,,,,,,,2022-04-22,1,,,,,ジュンキン,0
736,3050005013064,新規,0,2022-04-22,2022-04-22,いばらき広域農業共済組合,,その他の設立登記法人,茨城県,水戸市,小吹町９４０番地,,08,201,3100914,,,,,,茨城県笠間市来栖１３８番地５県央南農業共済組合（4050005002520）と茨城県つくば市下横場４２７番２茨城県みなみ農業共済組合（1050005005278）の合併により設立,2022-04-22,1,,,,,イバラキコウイキ,0
743,3070003004468,新規,0,2022-04-22,2022-04-22,合同会社ＡＴＴＮＯＥＬ,,合同会社,群馬県,高崎市,飯塚町１０２９‐１ナイス２１いいづか２０１,,10,202,3700069,,,,,,,2022-04-22,1,,,,,アットノエル,0
746,3090005007483,新規,0,2022-04-22,2022-04-22,一般社団法人ほらじゅう,,その他の設立登記法人,山梨県,南巨摩郡早川町,奈良田３６０番地２,,19,364,4092701,,,,,,,2022-04-22,1,,,,,ホラジュウ,0
750,3100003006510,新規,0,2022-04-22,2022-04-22,合同会社ながの企画,,合同会社,長野県,岡谷市,本町２丁目９番６号,,20,204,3940028,,,,,,,2022-04-22,1,,,,,ナガノキカク,0
752,3110001036616,新規,0,2022-04-22,2022-04-22,株式会社Ｔｎ　Ｊｉｇ　Ｐｒｏｄｕｃｔｓ,,株式会社,新潟県,燕市,水道町３丁目６番３号,,15,213,9591262,,,,,,,2022-04-22,1,,,,,ティーエヌジグプロダクツ,0
772,3120001245422,新規,0,2022-04-22,2022-04-22,トニージャパン株式会社,,株式会社,大阪府,大阪市西区,京町堀１丁目７－２１Ｕ２ＢＢＬＤＧ３Ｆ,,27,106,5500003,,,,,,,2022-04-22,1,,,,,トニージャパン,0
786,3130001071529,新規,0,2022-04-22,2022-04-22,株式会社ＭＦ２２,,株式会社,京都府,京都市右京区,西京極浜ノ本町６９－２アブニールＫ１階,,26,108,6150873,,,,,,,2022-04-22,1,,,,,エムエフニジュウニ,0
787,3130001071603,新規,0,2022-04-22,2022-04-22,川村食品株式会社,,株式会社,京都府,京都市伏見区,成町８０８番地３号,,26,109,6128347,,,,,,,2022-04-22,1,,,,,カワムラショクヒン,0
789,3140001125804,新規,0,2022-04-22,2022-04-22,株式会社Ｎｙｍｐｈａｅａ,,株式会社,兵庫県,西宮市,甲陽園若江町５－２６－６０３,,28,204,6620016,,,,,,,2022-04-22,1,,,,,ニンフェア,0
792,3140003017603,新規,0,2022-04-22,2022-04-22,合同会社ｗｉｎ‐ｗｉｎ,,合同会社,兵庫県,神戸市灘区,深田町２丁目１－１ブラスコート六甲５０１号室,,28,102,6570038,,,,,,,2022-04-22,1,,,,,ウィンウィン,0
796,3170001017073,新規,0,2022-04-22,2022-04-22,株式会社ＴＨＥ　ＮＩＣＥ,,株式会社,和歌山県,和歌山市,片岡町２丁目１番地１,,30,201,6408139,,,,,,,2022-04-22,1,,,,,ザナイス,0
814,3180301036152,新規,0,2022-04-22,2022-04-22,ＴＳコンサルタント株式会社,,株式会社,愛知県,安城市,堀内町前山９０番地１キャッスルハイツ安城堀内公園７０１,,23,212,4441155,,,,,,,2022-04-22,1,,,,,ティーエスコンサルタント,0
815,3180301036160,新規,0,2022-04-22,2022-04-22,株式会社えんなか,,株式会社,愛知県,豊川市,本野ケ原１丁目１９５番地の１,,23,207,4420005,,,,,,,2022-04-22,1,,,,,エンナカ,0
817,3180303005312,新規,0,2022-04-22,2022-04-22,合同会社キャストライト,,合同会社,愛知県,岡崎市,真伝町字亀山５２番地４,,23,202,4443174,,,,,,,2022-04-22,1,,,,,キャストライト,0
819,3200003005543,新規,0,2022-04-22,2022-04-22,合同会社Ｃｌｅａｒ　ｌｉｆｅ　ｓｔｙｌｅ,,合同会社,岐阜県,高山市,三福寺町４４６３番地,,21,203,5060807,,,,,,,2022-04-22,1,,,,,クリアライフスタイル,0
822,3210001018892,新規,0,2022-04-22,2022-04-22,ＭＳＪ　ＧＲＯＵＰ株式会社,,株式会社,福井県,越前市,下太田町第２０号３番地の９,,18,209,9150881,,,,,,,2022-04-22,1,,,,,エムエスジェイグループ,0
823,3210001018901,新規,0,2022-04-22,2022-04-22,株式会社Ｌａｎｄ　Ｃ,,株式会社,福井県,福井市,二の宮４丁目１２番５号サーパス二の宮３０７,,18,201,9100015,,,,,,,2022-04-22,1,,,,,ランドシー,0
824,3210003001500,新規,0,2022-04-22,2022-04-22,こころの合同会社,,合同会社,福井県,越前市,家久町第９０号８番地の３１,,18,209,9150801,,,,,,,2022-04-22,1,,,,,ココロノ,0
839,3250001019516,新規,0,2022-04-22,2022-04-22,株式会社建成ライズ,,株式会社,山口県,岩国市,平田４丁目２８番２７号,,35,208,7410072,,,,,,,2022-04-22,1,,,,,ケンセイライズ,0
841,3260001036790,新規,0,2022-04-22,2022-04-22,株式会社しょう,,株式会社,岡山県,岡山市北区,柳町２丁目１０番１３号,,33,101,7000904,,,,,,,2022-04-22,1,,,,,ショウ,0
842,3260005011063,新規,0,2022-04-22,2022-04-22,一般社団法人個人事業主合同協会,,その他の設立登記法人,岡山県,倉敷市,児島柳田町６０９－２,,33,202,7110936,,,,,,,2022-04-22,1,,,,,コジンジギョウヌシゴウドウキョウカイ,0
847,3290001097211,新規,0,2022-04-22,2022-04-22,株式会社大谷,,株式会社,福岡県,福岡市中央区,警固２丁目１６番６－４０５号,,40,133,8100023,,,,,,,2022-04-22,1,,,,,オオタニ,0
848,3290001097302,新規,0,2022-04-22,2022-04-22,株式会社ステージアップ,,株式会社,福岡県,福岡市南区,井尻４丁目１３番２０号,,40,134,8111302,,,,,,,2022-04-22,1,,,,,ステージアップ,0
849,3290003012416,新規,0,2022-04-22,2022-04-22,合同会社Ｌ．Ａ．Ｆ,,合同会社,福岡県,久留米市,国分町２０１４－６,,40,203,8390863,,,,,,,2022-04-22,1,,,,,ラフ,0
850,3290003012424,新規,0,2022-04-22,2022-04-22,合同会社エフ企画,,合同会社,福岡県,春日市,紅葉ヶ丘東５丁目１２７番地,,40,218,8160833,,,,,,,2022-04-22,1,,,,,エフキカク,0
858,3310001017827,新規,0,2022-04-22,2022-04-22,ＴＳＵＲＩＴＡＢＩ株式会社,,株式会社,長崎県,南松浦郡新上五島町,桐古里郷字真浦４５６番３地先,,42,411,8532302,,,,,,,2022-04-22,1,,,,,ツリタビ,0
870,3360001030288,新規,0,2022-04-22,2022-04-22,Ｃｏｎｎｅｃｔ　Ｌｉｆｅ　Ｃｒｅａｔｉｏｎ株式会社,,株式会社,沖縄県,浦添市,屋富祖４丁目３番５号小野ビル３Ｆ,,47,208,9012127,,,,,,,2022-04-22,1,,,,,コネクトライフクリエイション,0
871,3360001030296,新規,0,2022-04-22,2022-04-22,ナーティーチ株式会社,,株式会社,沖縄県,うるま市,石川東山２丁目２３番地２,,47,213,9041102,,,,,,,2022-04-22,1,,,,,ナーティーチ,0
877,3370001048478,新規,0,2022-04-22,2022-04-22,株式会社シュハリ・プログレスパートナー,,株式会社,宮城県,仙台市青葉区,本町１丁目５番２８号,,04,101,9800014,,,,,,,2022-04-22,1,,,,,シュハリプログレスパートナー,0
883,3390001016870,新規,0,2022-04-22,2022-04-22,プラットヨネザワ株式会社,,株式会社,山形県,米沢市,松が岬１丁目４番２４－２号,,06,202,9920053,,,,,,,2022-04-22,1,,,,,プラットヨネザワ,0
887,3430001086463,新規,0,2022-04-22,2022-04-22,株式会社Ｗａｖｅｒ　Ｗｏｒｋｓ,,株式会社,北海道,苫小牧市,柏木町５丁目１３番７号,,01,213,0530823,,,,,,,2022-04-22,1,,,,,ウェイバーワークス,0
888,3430001086505,新規,0,2022-04-22,2022-04-22,リアル管理サービス株式会社,,株式会社,北海道,札幌市白石区,栄通５丁目１０番４号,,01,104,0030021,,,,,,,2022-04-22,1,,,,,リアルカンリサービス,0
889,3430001086513,新規,0,2022-04-22,2022-04-22,株式会社ＫＯＫＯ,,株式会社,北海道,札幌市清田区,美しが丘二条６丁目２番,,01,110,0040812,,,,,,,2022-04-22,1,,,,,ココ,0
892,3430003013845,新規,0,2022-04-22,2022-04-22,リジョイス合同会社,,合同会社,北海道,札幌市北区,北十七条西２丁目２番２４号粟生ビル４Ｆ,,01,102,0010017,,,,,,,2022-04-22,1,,,,,リジョイス,0
895,3440005000717,新規,0,2022-04-22,2022-04-22,協同組合連合会松前木材加工センター,,その他の設立登記法人,北海道,松前郡松前町,字福山１２番地,,01,331,0491512,,,,,,,2022-04-22,1,,,,,マツマエモクザイカコウセンター,0
896,3440005002721,新規,0,2022-04-22,2022-04-22,新函館バスユニオン,,その他の設立登記法人,北海道,函館市,堀川町２７番１１号,,01,202,0400025,,,,,,,2022-04-22,1,,,,,シンハコダテバスユニオン,0
899,3490001010161,新規,0,2022-04-22,2022-04-22,株式会社スマイリーダイブ,,株式会社,高知県,幡多郡大月町,大字柏島６３５番地１,,39,424,7880343,,,,,,,2022-04-22,1,,,,,スマイリーダイブ,0
911,4010003037480,新規,0,2022-04-22,2022-04-22,合同会社Ｓｍａｒｔ　Ｌｅｖｅｌ,,合同会社,東京都,中央区,銀座７丁目１３番６号サガミビル２階,,13,102,1040061,,,,,,,2022-04-22,1,,,,,スマートレベル,0
912,4010003037497,新規,0,2022-04-22,2022-04-22,合同会社アルコイリス,,合同会社,東京都,中央区,日本橋兜町５－１兜町第１平和ビル３階,,13,102,1030026,,,,,,,2022-04-22,1,,,,,アルコイリス,0
913,4010003037506,新規,0,2022-04-22,2022-04-22,合同会社ＩＣＱ,,合同会社,東京都,中央区,入船１丁目１番２４号,,13,102,1040042,,,,,,,2022-04-22,1,,,,,アイシーキュー,0
915,4010005034922,新規,0,2022-04-22,2022-04-22,司法書士法人竹馬合同法務事務所,,その他の設立登記法人,東京都,千代田区,岩本町２丁目１番１６号森川ビル７階,,13,101,1010032,,,,,,,2022-04-22,1,,,,,チクバゴウドウホウムジムショ,0
923,4010401166971,新規,0,2022-04-22,2022-04-22,株式会社エリシアン,,株式会社,東京都,港区,赤坂２丁目１６番１３号,,13,103,1070052,,,,,,,2022-04-22,1,,,,,エリシアン,0
927,4010405020910,新規,0,2022-04-22,2022-04-22,一般社団法人ローカルコマースＬａｂ,,その他の設立登記法人,東京都,港区,南青山２丁目２番１５号,,13,103,1070062,,,,,,,2022-04-22,1,,,,,ローカルコマースラボ,0
931,4010601061023,新規,0,2022-04-22,2022-04-22,株式会社＿宇,00126381,株式会社,東京都,江東区,東陽３丁目２２番３号,,13,108,1350016,,,,,,,2022-04-22,1,,,,,キンウ,0
935,4010803004151,新規,0,2022-04-22,2022-04-22,合同会社Ｔ＆Ｙ,,合同会社,東京都,大田区,上池台５丁目２５番２－２０２号,,13,111,1450064,,,,,,,2022-04-22,1,,,,,ティーアンドワイ,0
944,4011005009550,新規,0,2022-04-22,2022-04-22,一般社団法人泉樹会,,その他の設立登記法人,東京都,渋谷区,笹塚２丁目２６番７号,,13,113,1510073,,,,,,,2022-04-22,1,,,,,センジュカイ,0
947,4011101098621,新規,0,2022-04-22,2022-04-22,株式会社ダイバーシティイースト,,株式会社,東京都,新宿区,西新宿３丁目３番１３号,,13,104,1600023,,,,,,,2022-04-22,1,,,,,ダイバーシティイースト,0
949,4011301027727,新規,0,2022-04-22,2022-04-22,株式会社ＭＩフロンティア,,株式会社,東京都,杉並区,高円寺南３丁目２４番１０－３０５号,,13,115,1660003,,,,,,,2022-04-22,1,,,,,エムアイフロンティア,0
952,4011501027972,新規,0,2022-04-22,2022-04-22,Ｐａｒａｋｅｅｔ株式会社,,株式会社,東京都,北区,志茂２丁目４４番６号Ｔ－ＡＰＡＲＴＭＥＮＴ・３－Ｃ号,,13,117,1150042,,,,,,,2022-04-22,1,,,,,パラキート,0
954,4011601025892,新規,0,2022-04-22,2022-04-22,株式会社ＤＡＩＵＮ,,株式会社,東京都,練馬区,栄町２７－５ジャストオフィス江古田２０６号,,13,120,1760006,,,,,,,2022-04-22,1,,,,,ダイウン,0
958,4012401039133,新規,0,2022-04-22,2022-04-22,株式会社ＧＵＩＬＤ　ＢＥｅ,,株式会社,東京都,府中市,住吉町１丁目４４－１０Ｄ．１中河原２Ｆ,,13,206,1830034,,,,,,,2022-04-22,1,,,,,ギルドビー,0
959,4013301049016,新規,0,2022-04-22,2022-04-22,株式会社ワイズプロジェクト,,株式会社,東京都,豊島区,西池袋３丁目３０番３号西池本田ビル７階,,13,116,1710021,,,,,,,2022-04-22,1,,,,,ワイズプロジェクト,0
965,4020001146159,新規,0,2022-04-22,2022-04-22,株式会社ＣＰ　ｃａｌｍ,,株式会社,神奈川県,川崎市宮前区,小台１丁目１６番地８エスポワール鷺沼１０１号,,14,136,2160007,,,,,,,2022-04-22,1,,,,,シーピーカーム,0
967,4020003021681,新規,0,2022-04-22,2022-04-22,合同会社ＱＯＬＰＬＵＳ,,合同会社,神奈川県,横浜市港北区,新吉田町３５１１番地７,,14,109,2230056,,,,,,,2022-04-22,1,,,,,クオルプラス,0
969,4020005015500,新規,0,2022-04-22,2022-04-22,医療法人社団Ｃｌｏｖｅｒ,,その他の設立登記法人,神奈川県,川崎市川崎区,池田１丁目６番３号八丁畷クリニックファーム４階,,14,131,2100022,,,,,,,2022-04-22,1,,,,,クローバー,0
973,4021001075810,新規,0,2022-04-22,2022-04-22,株式会社エムエス企画,,株式会社,神奈川県,藤沢市,渡内２丁目９番１４－１号,,14,205,2510011,,,,,,,2022-04-22,1,,,,,エムエスキカク,0
979,4021003011631,新規,0,2022-04-22,2022-04-22,合同会社とれさぽ,,合同会社,神奈川県,南足柄市,飯沢３３６番地４号,,14,217,2500122,,,,,,,2022-04-22,1,,,,,トレサポ,0
989,4030001147767,新規,0,2022-04-22,2022-04-22,株式会社Ｗｅｌｌ　ｂｕｉｌｄ,,株式会社,埼玉県,越谷市,大字大房９１１－７,,11,222,3430027,,,,,,,2022-04-22,1,,,,,ウェルビルド,0
992,4030003019279,新規,0,2022-04-22,2022-04-22,ＰＲＯＰＭＡＮ　ＤＥＳＩＧＮ合同会社,,合同会社,埼玉県,新座市,北野１丁目３－１２レスポワール志木１０４,,11,230,3520003,,,,,,,2022-04-22,1,,,,,プロップマンデザイン,0
1000,4040001123123,新規,0,2022-04-22,2022-04-22,ＢＦ２株式会社,,株式会社,千葉県,市川市,田尻４丁目２番１４－２０２号,,12,203,2720014,,,,,,,2022-04-22,1,,,,,ビーエフツー,0
1001,4040001123164,新規,0,2022-04-22,2022-04-22,株式会社長谷川造園,,株式会社,千葉県,八千代市,島田台７４１番地６８,,12,221,2760004,,,,,,,2022-04-22,1,,,,,ハセガワゾウエン,0
1023,4070003004467,新規,0,2022-04-22,2022-04-22,合同会社ＤＴＫ,,合同会社,群馬県,太田市,新田木崎町７１２‐１‐３号室,,10,205,3700321,,,,,,,2022-04-22,1,,,,,ディティケイ,0
1026,4080401025766,新規,0,2022-04-22,2022-04-22,株式会社幸電工,,株式会社,静岡県,掛川市,大池３０３９番地の３,,22,213,4360043,,,,,,,2022-04-22,1,,,,,コウデンコウ,0
1032,4110001036607,新規,0,2022-04-22,2022-04-22,株式会社ｖｉｎｃｕｌｏ,,株式会社,新潟県,新潟市中央区,京王２丁目１１番１７号,,15,103,9500921,,,,,,,2022-04-22,1,,,,,ヴインクロ,0
1044,4120001245264,新規,0,2022-04-22,2022-04-22,株式会社ｆｏｕｒ　ａｎｉｍａｌ,,株式会社,大阪府,大阪市平野区,平野西２丁目４番１０号メゾン丹井２０２,,27,126,5470033,,,,,,,2022-04-22,1,,,,,フォーアニマル,0
1045,4120001245421,新規,0,2022-04-22,2022-04-22,株式会社ＫＮ　ＲＩＳＥ,,株式会社,大阪府,大阪市東住吉区,住道矢田７丁目１５－１０ＣＵＢＥＳＰＡＣＥＤ号,,27,121,5460022,,,,,,,2022-04-22,1,,,,,ケーエヌライズ,0
1053,4120003021531,新規,0,2022-04-22,2022-04-22,合同会社Ｃｉｐｈｅｒ,,合同会社,大阪府,大阪市阿倍野区,阪南町２丁目２３番２８－５０２号,,27,119,5450021,,,,,,,2022-04-22,1,,,,,サイファー,0
1061,4120105009549,新規,0,2022-04-22,2022-04-22,一般社団法人日本統合医療セルフケア協会,,その他の設立登記法人,大阪府,高石市,綾園１丁目１－１５－４０１,,27,225,5920014,,,,,,,2022-04-22,1,,,,,ニホントウゴウイリョウセルフケアキョウカイ,0
1062,4120901045862,新規,0,2022-04-22,2022-04-22,株式会社インクルーシブ,,株式会社,大阪府,豊中市,桜の町６丁目９番２０号,,27,203,5600054,,,,,,,2022-04-22,1,,,,,インクルーシブ,0
1068,4122001035793,新規,0,2022-04-22,2022-04-22,株式会社ＳＯＦ,,株式会社,大阪府,東大阪市,吉松２丁目９番３１号メゾン福田３０８,,27,227,5770821,,,,,,,2022-04-22,1,,,,,ソフ,0
1072,4130001071627,新規,0,2022-04-22,2022-04-22,ピー・ビー・ジャパン株式会社,,株式会社,京都府,宇治市,南陵町４丁目１番地の９０,,26,204,6110028,,,,,,,2022-04-22,1,,,,,ピービージャパン,0
1074,4130003007901,新規,0,2022-04-22,2022-04-22,合同会社ライフエステート,,合同会社,京都府,京都市左京区,田中高原町１１番地落水コーポ１５３号室,,26,103,6068242,,,,,,,2022-04-22,1,,,,,ライフエステート,0
1079,4140001125737,新規,0,2022-04-22,2022-04-22,株式会社神戸太田,,株式会社,兵庫県,神戸市兵庫区,松原通２丁目３番５号,,28,105,6520881,,,,,,,2022-04-22,1,,,,,,0
1082,4140003017610,新規,0,2022-04-22,2022-04-22,Ｍｉｙａｚａｋｉ合同会社,,合同会社,兵庫県,宝塚市,武庫川町３番７号,,28,214,6650844,,,,,,,2022-04-22,1,,,,,ミヤザキ,0
1095,4180301036151,新規,0,2022-04-22,2022-04-22,株式会社ＯＮＧＡＥＳＨＩ,,株式会社,愛知県,豊田市,舞木町小原野６３０番地３（２階）,,23,211,4700362,,,,,,,2022-04-22,1,,,,,オンガエシ,0
1096,4180303005311,新規,0,2022-04-22,2022-04-22,合同会社中野診断工学研究所,,合同会社,愛知県,西尾市,西幡豆町池下５１番地１,,23,213,4440703,,,,,,,2022-04-22,1,,,,,ナカノシンダンコウガクケンキュウショ,0
1098,4200001040005,新規,0,2022-04-22,2022-04-22,株式会社クオンカット,,株式会社,岐阜県,関市,小瀬２０６６番地１,,21,205,5013265,,,,,,,2022-04-22,1,,,,,クオンカット,0
1099,4210001018900,新規,0,2022-04-22,2022-04-22,岩建匠株式会社,,株式会社,福井県,福井市,文京２丁目８番８号文京三谷ヴィラ１０１,,18,201,9100017,,,,,,,2022-04-22,1,,,,,イワケンショウ,0
1102,4220005008657,新規,0,2022-04-22,2022-04-22,医療法人真俊会,,その他の設立登記法人,石川県,輪島市,河井町３部１６７番地,,17,204,9280001,,,,,,,2022-04-22,1,,,,,シンシュンカイ,0
1105,4240001059660,新規,0,2022-04-22,2022-04-22,株式会社ユーダブル保険事務所,,株式会社,広島県,呉市,江原町９番３０号,,34,202,7370807,,,,,,,2022-04-22,1,,,,,ユーダブルホケンジムショ,0
1110,4250001019515,新規,0,2022-04-22,2022-04-22,ゆうわ不動産株式会社,,株式会社,山口県,宇部市,東平原２丁目１番３８号,,35,202,7550807,,,,,,,2022-04-22,1,,,,,ユウワフドウサン,0
1111,4250001019523,新規,0,2022-04-22,2022-04-22,株式会社ＣＡＰＴＡＩＮＳＨＯＵＳＥ,,株式会社,山口県,防府市,大字田島３５１番地の１１６,,35,206,7470834,,,,,,,2022-04-22,1,,,,,キャプテンズハウス,0
1113,4260001036757,新規,0,2022-04-22,2022-04-22,株式会社智能,,株式会社,岡山県,岡山市北区,津島西坂２丁目１４番３０号ストリーム安井３０３号,,33,101,7000086,,,,,,,2022-04-22,1,,,,,チノウ,0
1131,4290001097301,新規,0,2022-04-22,2022-04-22,ＯＡＶＯ株式会社,,株式会社,福岡県,福岡市中央区,平尾３丁目２１番２４号２Ｆ,,40,133,8100014,,,,,,,2022-04-22,1,,,,,オアーボ,0
1132,4290003012415,新規,0,2022-04-22,2022-04-22,キュベレイ合同会社,,合同会社,福岡県,福岡市博多区,南本町２丁目４番２―５０１号,,40,132,8120883,,,,,,,2022-04-22,1,,,,,キュベレイ,0
1134,4290801028463,新規,0,2022-04-22,2022-04-22,株式会社梅本組,,株式会社,福岡県,田川郡糸田町,原３４１９番地６,,40,604,8221318,,,,,,,2022-04-22,1,,,,,ウメモトグミ,0
1135,4290801028471,新規,0,2022-04-22,2022-04-22,野間口造園株式会社,,株式会社,福岡県,北九州市八幡西区,大字則松２４８番地１,,40,109,8070831,,,,,,,2022-04-22,1,,,,,ノマグチゾウエン,0
1141,4300003001829,新規,0,2022-04-22,2022-04-22,合同会社ｆｏｓｓｅｔｔａ,,合同会社,佐賀県,唐津市,鏡４２００番地９,,41,202,8470022,,,,,,,2022-04-22,1,,,,,フォセッタ,0
1142,4300005007072,新規,0,2022-04-22,2022-04-22,一般財団法人清明会館,,その他の設立登記法人,佐賀県,杵島郡白石町,大字今泉１３８番地１,,41,425,8491101,,,,,,,2022-04-22,1,,,,,セイメイカイカン,0
1151,4330005010494,新規,0,2022-04-22,2022-04-22,中九州たばこ耕作組合,,その他の設立登記法人,熊本県,合志市,豊岡字上境目１５３８番地,,43,216,8611115,,,,,,熊本県合志市豊岡字上境目１５３８番地熊本県たばこ耕作組合（5330005003167）と大分県臼杵市野津町大字野津市３７４番地の１大分県たばこ耕作組合（4320205000494）の合併により設立,2022-04-22,1,,,,,ナカキュウシュウタバココウサククミアイナカキュウシュウ,0
1152,4330005010511,新規,0,2022-04-22,2022-04-22,医療法人ＺＡＩＴＡＣＫ,,その他の設立登記法人,熊本県,熊本市中央区,帯山３丁目５４－３７,,43,101,8620924,,,,,,,2022-04-22,1,,,,,ザイタック,0
1160,4370001048477,新規,0,2022-04-22,2022-04-22,株式会社メディカルライフ,,株式会社,宮城県,柴田郡柴田町,西船迫３丁目５番１号,,04,323,9891622,,,,,,,2022-04-22,1,,,,,メディカルライフ,0
1172,4380001032760,新規,0,2022-04-22,2022-04-22,フジミツ建業株式会社,,株式会社,福島県,郡山市,大槻町字広町２０番地の１,,07,203,9630201,,,,,,,2022-04-22,1,,,,,フジミツケンギョウ,0
1181,4390003001952,新規,0,2022-04-22,2022-04-22,合同会社一期一縁,,合同会社,山形県,寒河江市,小沼町１５７番地,,06,206,9910045,,,,,,,2022-04-22,1,,,,,イチゴイチエ,0
1188,4430001086520,新規,0,2022-04-22,2022-04-22,株式会社Ｓｑｕｉｃｋ,,株式会社,北海道,札幌市北区,屯田九条９丁目３番７号,,01,102,0020859,,,,,,,2022-04-22,1,,,,,エスクイック,0
1189,4430001086529,新規,0,2022-04-22,2022-04-22,株式会社満亀,,株式会社,北海道,札幌市中央区,南九条西２１丁目１番６号,,01,101,0640809,,,,,,,2022-04-22,1,,,,,マンガメ,0
1201,4500005008488,新規,0,2022-04-22,2022-04-22,医療法人前田歯科医院,,その他の設立登記法人,愛媛県,松山市,東石井６丁目７番２６号,,38,201,7900932,,,,,,,2022-04-22,1,,,,,マエダシカイイン,0
1209,5010001225805,新規,0,2022-04-22,2022-04-22,株式会社熊谷,,株式会社,東京都,中央区,晴海３丁目１３番１－１３１６号,,13,102,1040053,,,,,,,2022-04-22,1,,,,,クマタニ,0
1210,5010001226019,新規,0,2022-04-22,2022-04-22,ＴＨＴホテルマネジメント株式会社,,株式会社,東京都,中央区,銀座１丁目１２番４号Ｎ＆ＥＢＬＤ．７階,,13,102,1040061,,,,,,,2022-04-22,1,,,,,ティエイチティホテルマネジメント,0
1211,5010001226101,新規,0,2022-04-22,2022-04-22,ＦＴＸ　Ｊａｐａｎ　Ｓｅｒｖｉｃｅｓ株式会社,,株式会社,東京都,千代田区,神田錦町３丁目１７番地,,13,101,1010054,,,,,,,2022-04-22,1,,,,,エフティーエックスジャパンサービシズ,0
1212,5010003037496,新規,0,2022-04-22,2022-04-22,合同会社ＡＫコーポレーション,,合同会社,東京都,中央区,晴海５丁目１番１７－１２０７号,,13,102,1040053,,,,,,,2022-04-22,1,,,,,エイケイコーポレーション,0
1219,5010405020918,新規,0,2022-04-22,2022-04-22,ＮＰＯ法人全国フレイルサポーター連絡会連合会,,その他の設立登記法人,東京都,港区,西新橋１丁目５番１１号１１東洋海事ビル３・４Ｆ,,13,103,1050003,,,,,,,2022-04-22,1,,,,,ゼンコクフレイルサポーターレンラクカイレンゴウカイ,0
1220,5010405020934,新規,0,2022-04-22,2022-04-22,ＭＡＤＡＩ特定目的会社,,その他の設立登記法人,東京都,港区,虎ノ門３丁目２２番１０－２０１号,,13,103,1050001,,,,,,,2022-04-22,1,,,,,マダイ,0
1221,5010501048739,新規,0,2022-04-22,2022-04-22,株式会社ＤｒａｗｅＡｒ．,,株式会社,東京都,台東区,橋場１丁目１７番２号,,13,106,1110023,,,,,,,2022-04-22,1,,,,,ドロアー,0
1233,5010803004150,新規,0,2022-04-22,2022-04-22,合同会社グラスウィン,,合同会社,東京都,大田区,大森中３丁目９－２三桃マンション２０４,,13,111,1430014,,,,,,,2022-04-22,1,,,,,グラスウィン,0
1238,5010901050716,新規,0,2022-04-22,2022-04-22,ＹＭアーツ株式会社,,株式会社,東京都,世田谷区,上野毛２丁目１１番１号,,13,112,1580093,,,,,,,2022-04-22,1,,,,,ワイエムアーツ,0
1240,5010903007334,新規,0,2022-04-22,2022-04-22,メディアプロモーション合同会社,,合同会社,東京都,世田谷区,赤堤５丁目１９番１５号ＹＳＧレジデンス下高井戸１０４,,13,112,1560044,,,,,,,2022-04-22,1,,,,,メディアプロモーション,0
1266,5011701025255,新規,0,2022-04-22,2022-04-22,Ｒｅｇｉｔ株式会社,,株式会社,東京都,江戸川区,一之江７丁目３７番２２号グランドハイライズ９０１号室,,13,123,1320024,,,,,,,2022-04-22,1,,,,,レジット,0
1273,5012401039124,新規,0,2022-04-22,2022-04-22,株式会社宮写真スタジオ,,株式会社,東京都,武蔵野市,吉祥寺南町２丁目４－６アイリスコーポ１０６,,13,203,1800003,,,,,,,2022-04-22,1,,,,,ミヤシャシンスタジオ,0
1276,5013301048990,新規,0,2022-04-22,2022-04-22,株式会社ＬＯＫＡＨＩ,,株式会社,東京都,豊島区,池袋２丁目３６－１ＩＮＦＩＮＩＴＹＩＫＥＢＵＫＵＲＯ６Ｆ,,13,116,1710014,,,,,,,2022-04-22,1,,,,,ロカヒ,0
1290,5020001146249,新規,0,2022-04-22,2022-04-22,株式会社アキナウ,,株式会社,神奈川県,川崎市高津区,二子４丁目６番２５－２０５号グランディール高津,,14,134,2130002,,,,,,,2022-04-22,1,,,,,アキナウ,0
1291,5020001146265,新規,0,2022-04-22,2022-04-22,株式会社Ｇｒｏｏｖｅｒ’ｓＡｒｋ,,株式会社,神奈川県,横浜市中区,弁天通２丁目２８番地１７－７０６号室,,14,104,2310007,,,,,,,2022-04-22,1,,,,,グルーバーズアーク,0
1292,5020003021631,新規,0,2022-04-22,2022-04-22,Ｆｏｓｎｅｓｓ合同会社,,合同会社,神奈川県,横浜市青葉区,市ケ尾町１８９４－１,,14,117,2250024,,,,,,,2022-04-22,1,,,,,フォスネス,0
1293,5020003021672,新規,0,2022-04-22,2022-04-22,合同会社ニカ,,合同会社,神奈川県,横浜市南区,白妙町２丁目７番２７－６０１号,,14,105,2320023,,,,,,,2022-04-22,1,,,,,ニカ,0
1302,5021001075743,新規,0,2022-04-22,2022-04-22,小田原箱根交通株式会社,,株式会社,神奈川県,茅ヶ崎市,萩園１６５５番地,,14,207,2530071,,,,,,,2022-04-22,1,,,,,オダワラハコネコウツウ,0
1304,5021003011630,新規,0,2022-04-22,2022-04-22,合同会社ニート,,合同会社,神奈川県,藤沢市,辻堂６丁目６－２ホワイトコート辻堂Ｂ棟３号室,,14,205,2510047,,,,,,,2022-04-22,1,,,,,ニート,0
1318,5030001147849,新規,0,2022-04-22,2022-04-22,株式会社Ｒａｙｂｕｃ,,株式会社,埼玉県,さいたま市見沼区,大字大谷１７８０番地７－１０２,,11,104,3370014,,,,,,,2022-04-22,1,,,,,レイブック,0
1319,5030001147857,新規,0,2022-04-22,2022-04-22,株式会社ＣｏｓｍｏＲｅｇａｌｏ,,株式会社,埼玉県,上尾市,仲町２丁目６－４サニーサイドコートＢ－Ｂ,,11,219,3620035,,,,,,,2022-04-22,1,,,,,コスモレガーロ,0
1327,5030003019286,新規,0,2022-04-22,2022-04-22,ＤＩＥＮ　ＴＨＡＩ合同会社,,合同会社,埼玉県,川口市,西青木３丁目３番２４号ヴィラフラワー２０２号室,,11,203,3320035,,,,,,,2022-04-22,1,,,,,ジエンタイ,0
1339,5040003019905,新規,0,2022-04-22,2022-04-22,ＥＵ　Ｃｏｎｎｅｃｔ合同会社,,合同会社,千葉県,八千代市,佐山２００９番地第２号,,12,221,2760011,,,,,,,2022-04-22,1,,,,,イーユーコネクト,0
1340,5040003019913,新規,0,2022-04-22,2022-04-22,合同会社あお,,合同会社,千葉県,長生郡長柄町,長柄山１１６３番地１３,,12,426,2970234,,,,,,,2022-04-22,1,,,,,アオ,0
1341,5040003019921,新規,0,2022-04-22,2022-04-22,合同会社あーる,,合同会社,千葉県,袖ケ浦市,奈良輪３３６番地,,12,229,2990263,,,,,,,2022-04-22,1,,,,,アール,0
1352,5070003004466,新規,0,2022-04-22,2022-04-22,Ｔ＆Ｋ合同会社,,合同会社,群馬県,太田市,大原町１９６‐１２,,10,205,3792304,,,,,,,2022-04-22,1,,,,,ティーアンドケー,0
1354,5080001024903,新規,0,2022-04-22,2022-04-22,大富工業株式会社,,株式会社,静岡県,静岡市清水区,三保松原町２８番地の１３,,22,103,4240908,,,,,,,2022-04-22,1,,,,,オオトミコウギョウ,0
1360,5080105006252,新規,0,2022-04-22,2022-04-22,医療法人社団馬杉会,,その他の設立登記法人,静岡県,伊東市,宇佐美６１０番地の１８,,22,208,4140001,,,,,,,2022-04-22,1,,,,,バスギカイ,0
1365,5100001035278,新規,0,2022-04-22,2022-04-22,３６ＩＣＴ株式会社,,株式会社,長野県,茅野市,ちの３５０２番地１ベルビア２階ワークラボ八ヶ岳１０４,,20,214,3910001,,,,,,,2022-04-22,1,,,,,サンロクアイシーティー,0
1366,5100003006509,新規,0,2022-04-22,2022-04-22,ＩＳ合同会社,,合同会社,長野県,長野市,差出南１丁目１０番１－２０２号,,20,201,3800948,,,,,,,2022-04-22,1,,,,,アイス,0
1388,5120105009548,新規,0,2022-04-22,2022-04-22,特定非営利活動法人くれは未来ＮＥＴ,,その他の設立登記法人,大阪府,河内長野市,美加の台５丁目１９番９号,,27,216,5860044,,,,,,,2022-04-22,1,,,,,クレハミライネット,0
1412,5140005026138,新規,0,2022-04-22,2022-04-22,一般社団法人丹波・タンボフ交流協会,,その他の設立登記法人,兵庫県,丹波市,春日町朝日１０９４番地１,,28,223,6693411,,,,,,,2022-04-22,1,,,,,タンバタンボフコウリュウキョウカイ,0
1413,5140005026146,新規,0,2022-04-22,2022-04-22,一般社団法人茶美楽協会,,その他の設立登記法人,兵庫県,神戸市東灘区,西岡本２丁目７番３－２１３号,,28,101,6580073,,,,,,,2022-04-22,1,,,,,チャビラクキョウカイ,0
1419,5160001024143,新規,0,2022-04-22,2022-04-22,株式会社ジャストプラス,,株式会社,滋賀県,長浜市,田村町８６１番地１,,25,203,5260829,,,,,,,2022-04-22,1,,,,,ジャストプラス,0
1421,5170001017071,新規,0,2022-04-22,2022-04-22,株式会社ワシ電,,株式会社,和歌山県,和歌山市,東高松１丁目３番４号,,30,201,6410052,,,,,,,2022-04-22,1,,,,,ワシデン,0
1433,5180001151019,新規,0,2022-04-22,2022-04-22,株式会社アイショウ,,株式会社,愛知県,名古屋市緑区,ほら貝１丁目１９１番地の１,,23,114,4580013,,,,,,,2022-04-22,1,,,,,アイショウ,0
1434,5180001151027,新規,0,2022-04-22,2022-04-22,株式会社日本なわとびアカデミー,,株式会社,愛知県,海部郡蟹江町,桜１丁目１番地,,23,425,4970038,,,,,,,2022-04-22,1,,,,,ニホンナワトビアカデミー,0
1440,5180003023744,新規,0,2022-04-22,2022-04-22,合同会社臣希,,合同会社,愛知県,春日井市,小野町６丁目５番地４サクラシャンテＢ２０１号,,23,206,4860926,,,,,,,2022-04-22,1,,,,,オミキ,0
1444,5190001029338,新規,0,2022-04-22,2022-04-22,天照株式会社,,株式会社,三重県,四日市市,八千代台２丁目１番地５,,24,202,5128047,,,,,,,2022-04-22,1,,,,,アマテラス,0
1445,5200001040004,新規,0,2022-04-22,2022-04-22,株式会社悠工業,,株式会社,岐阜県,山県市,上願５０番地１３８,,21,215,5012133,,,,,,,2022-04-22,1,,,,,ユウコウギョウ,0
1448,5220001024814,新規,0,2022-04-22,2022-04-22,株式会社にこにこコンタクト,,株式会社,石川県,七尾市,国分町ラ部１３番地９,,17,202,9260821,,,,,,,2022-04-22,1,,,,,ニコニココンタクト,0
1449,5230003001843,新規,0,2022-04-22,2022-04-22,合同会社ひのき屋,,合同会社,富山県,小矢部市,小森谷８１９番地,,16,209,9320133,,,,,,,2022-04-22,1,,,,,ヒノキヤ,0
1456,5240003005595,新規,0,2022-04-22,2022-04-22,合同会社ワラフ・メイカー,,合同会社,広島県,広島市安佐南区,上安２丁目２番５号,,34,105,7310154,,,,,,,2022-04-22,1,,,,,ワラフメイカー,0
1457,5250001019514,新規,0,2022-04-22,2022-04-22,株式会社ＭＡＴＴ,,株式会社,山口県,岩国市,室の木町１丁目４番５５号,,35,208,7400021,,,,,,,2022-04-22,1,,,,,マット,0
1458,5250001019522,新規,0,2022-04-22,2022-04-22,株式会社ＡＹＡ,,株式会社,山口県,防府市,大字大崎４５５番地１,,35,206,7470065,,,,,,,2022-04-22,1,,,,,アヤ,0
1475,5290001097291,新規,0,2022-04-22,2022-04-22,株式会社荷役屋,,株式会社,福岡県,糟屋郡新宮町,湊坂２丁目１番４号,,40,345,8110114,,,,,,,2022-04-22,1,,,,,ニヤクヤ,0
1476,5290001097300,新規,0,2022-04-22,2022-04-22,株式会社Ｃ５メディカル研究所,,株式会社,福岡県,福岡市中央区,大宮２丁目４番８号２Ｆ,,40,133,8100013,,,,,,,2022-04-22,1,,,,,シーファイブメディカルケンキュウショ,0
1478,5290003012414,新規,0,2022-04-22,2022-04-22,ＹＫＴ合同会社,,合同会社,福岡県,福岡市西区,姪浜１－１３－９－１２０２,,40,135,8190000,,,,,,,2022-04-22,1,,,,,ワイケーティー,0
1479,5290003012430,新規,0,2022-04-22,2022-04-22,合同会社ＡＵＮ,,合同会社,福岡県,柳川市,大浜町８１４番地３,,40,207,8320053,,,,,,,2022-04-22,1,,,,,アウン,0
1480,5290005018649,新規,0,2022-04-22,2022-04-22,一般社団法人イキルチカラ,,その他の設立登記法人,福岡県,うきは市,浮羽町山北１８４６番地１,,40,225,8391408,,,,,,,2022-04-22,1,,,,,イキルチカラ,0
1481,5290005018657,新規,0,2022-04-22,2022-04-22,医療法人しのざき歯科クリニック,,その他の設立登記法人,福岡県,糟屋郡宇美町,宇美６丁目１－６,,40,341,8112101,,,,,,,2022-04-22,1,,,,,シノザキシカクリニック,0
1484,5290801028470,新規,0,2022-04-22,2022-04-22,アースジャパンファーム株式会社,,株式会社,福岡県,北九州市小倉北区,堺町１丁目９番１０号,,40,106,8020005,,,,,,,2022-04-22,1,,,,,アースジャパンファーム,0
1505,5360003011953,新規,0,2022-04-22,2022-04-22,合同会社ＨＯＴファーム,,合同会社,沖縄県,那覇市,若狭１丁目１８番１５号シーサイドパレスＷＡＫＡＳＡ４０２,,47,201,9000031,,,,,,,2022-04-22,1,,,,,ホットファーム,0
1506,5360003011961,新規,0,2022-04-22,2022-04-22,ＢＮＤ合同会社,,合同会社,沖縄県,浦添市,城間２丁目１８番５号,,47,208,9012133,,,,,,,2022-04-22,1,,,,,ビーエヌディー,0
1511,5370005010473,新規,0,2022-04-22,2022-04-22,一般社団法人子育てのご近所さんただいまおかえり,,その他の設立登記法人,宮城県,伊具郡丸森町,舘矢間松掛字新宮田１４番地,,04,341,9812105,,,,,,,2022-04-22,1,,,,,コソダテノゴキンジョサンタダイマオカエリ,0
1516,5390001016869,新規,0,2022-04-22,2022-04-22,株式会社ＨＡＲＵ,,株式会社,山形県,鶴岡市,谷定字楯の前６番地,,06,203,9970366,,,,,,,2022-04-22,1,,,,,ハル,0
1518,5390003001951,新規,0,2022-04-22,2022-04-22,合同会社梅里,,合同会社,山形県,天童市,大字寺津１４１番地,,06,210,9940073,,,,,,,2022-04-22,1,,,,,バイリ,0
1526,5420005007803,新規,0,2022-04-22,2022-04-22,一般社団法人青森県学校薬剤師会,,その他の設立登記法人,青森県,青森市,岡造道３丁目１５番３号,,02,201,0300914,,,,,,,2022-04-22,1,,,,,アオモリケンガッコウヤクザイシカイ,0
1529,5430001086494,新規,0,2022-04-22,2022-04-22,山元エンジニアリング株式会社,,株式会社,北海道,札幌市西区,八軒六条東５丁目６番１８号,,01,107,0630866,,,,,,,2022-04-22,1,,,,,ヤマモトエンジニアリング,0
1530,5430001086511,新規,0,2022-04-22,2022-04-22,株式会社ライフケアプラン,,株式会社,北海道,札幌市西区,平和一条２丁目４番３３号,,01,107,0630021,,,,,,,2022-04-22,1,,,,,ライフケアプラン,0
1531,5430001086528,新規,0,2022-04-22,2022-04-22,株式会社アセットコネクション,,株式会社,北海道,札幌市西区,西野十条７丁目１２番６号,,01,107,0630040,,,,,,,2022-04-22,1,,,,,アセットコネクション,0
1532,5430003013835,新規,0,2022-04-22,2022-04-22,合同会社Ｇｒｏｗ．Ｂｒｉｄｇｅ,,合同会社,北海道,札幌市西区,西町北１７丁目２番１７－２０２号,,01,107,0630061,,,,,,,2022-04-22,1,,,,,グロウブリッジ,0
1547,5500001024174,新規,0,2022-04-22,2022-04-22,株式会社ルフト・ウィクスト,,株式会社,愛媛県,松山市,和泉北１丁目１４番１７号,,38,201,7900038,,,,,,,2022-04-22,1,,,,,ルフトウィクスト,0
1549,5500005008487,新規,0,2022-04-22,2022-04-22,医療法人うぐもり耳鼻咽喉科,,その他の設立登記法人,愛媛県,松山市,余戸西３丁目１０番２５号,,38,201,7900046,,,,,,,2022-04-22,1,,,,,ウグモリジビインコウカ,0
1551,5700150108229,新規,0,2022-04-22,2022-04-22,ＡＲＩＳＴＥＥＬ　ＣＯＭＰＡＮＹ　ＬＩＭＩＴＥＤ,,外国会社等,愛知県,名古屋市緑区,鳴丘１丁目３３１番地,,23,114,4580005,ベトナム国ホーチミン市トゥドゥック市アンフ町グインクイユック通り５３番地,,,,,,2022-04-22,1,,,,,アリステイールカンパニーリミテツド,0
1561,6010001226117,新規,0,2022-04-22,2022-04-22,株式会社セントリック,,株式会社,東京都,千代田区,内神田１丁目１５－７,,13,101,1010047,,,,,,,2022-04-22,1,,,,,セントリック,0
1574,6010401166961,新規,0,2022-04-22,2022-04-22,株式会社ＣＨＩＬＬ,,株式会社,東京都,港区,東麻布２丁目２８番３号,,13,103,1060044,,,,,,,2022-04-22,1,,,,,チル,0
1577,6010403027542,新規,0,2022-04-22,2022-04-22,合同会社ＦＷＦ,,合同会社,東京都,港区,虎ノ門１丁目２番１５号１Ｆ,,13,103,1050001,,,,,,,2022-04-22,1,,,,,エフダブリューエフ,0
1579,6010405020933,新規,0,2022-04-22,2022-04-22,ＫＩＮＭＥＤＡＩ特定目的会社,,その他の設立登記法人,東京都,港区,虎ノ門３丁目２２番１０－２０１号,,13,103,1050001,,,,,,,2022-04-22,1,,,,,キンメダイ,0
1580,6010405020941,新規,0,2022-04-22,2022-04-22,特定目的会社内神田土地建物,,その他の設立登記法人,東京都,港区,六本木６丁目１０番１号六本木ヒルズ森タワー,,13,103,1060032,,,,,,,2022-04-22,1,,,,,ウチカンダトチタテモノ,0
1583,6010601061021,新規,0,2022-04-22,2022-04-22,ヒマス株式会社,,株式会社,東京都,江東区,豊洲５丁目１番１３－１５０８号,,13,108,1350061,,,,,,,2022-04-22,1,,,,,ヒマス,0
1584,6010601061038,新規,0,2022-04-22,2022-04-22,あいかの株式会社,,株式会社,東京都,江東区,東砂８丁目９番４号,,13,108,1360074,,,,,,,2022-04-22,1,,,,,アイカノ,0
1588,6010901050748,新規,0,2022-04-22,2022-04-22,栄宏ライフ株式会社,,株式会社,東京都,世田谷区,桜上水５丁目７－１０ベルオーレ３０１号,,13,112,1560045,,,,,,,2022-04-22,1,,,,,エイヒロライフ,0
1601,6011101098611,新規,0,2022-04-22,2022-04-22,株式会社ｆｏｒ　ｓａｌｅｓ,,株式会社,東京都,新宿区,東榎町１１番地,,13,104,1620807,,,,,,,2022-04-22,1,,,,,フォーセールス,0
1605,6011401024192,新規,0,2022-04-22,2022-04-22,ＳＵＮＤＡＹ株式会社,,株式会社,東京都,板橋区,板橋２丁目６４番１０号板橋新生ビル４０７号室,,13,119,1730004,,,,,,,2022-04-22,1,,,,,サンデー,0
1606,6011403003640,新規,0,2022-04-22,2022-04-22,合同会社ＭＥＲＩ　ＫＵＵ,,合同会社,東京都,板橋区,西台１丁目３７番８号,,13,119,1740045,,,,,,,2022-04-22,1,,,,,メリクー,0
1608,6011501027970,新規,0,2022-04-22,2022-04-22,株式会社Ｍａｔｅｓｈｉｐ,,株式会社,東京都,北区,中里１丁目９－１０パレドール六義園北５０１,,13,117,1140015,,,,,,,2022-04-22,1,,,,,マイトシップ,0
1616,6011805003172,新規,0,2022-04-22,2022-04-22,一般社団法人日本ＥＣＯプラスチックロッカー促進協会,,その他の設立登記法人,東京都,足立区,綾瀬７丁目４番１号,,13,121,1200005,,,,,,,2022-04-22,1,,,,,,0
1617,6012301012964,新規,0,2022-04-22,2022-04-22,エスケーディモータース株式会社,,株式会社,東京都,町田市,図師町７４１番地１４,,13,209,1940203,,,,,,,2022-04-22,1,,,,,エスケーディモータース,0
1621,6012401039131,新規,0,2022-04-22,2022-04-22,株式会社アミマネラ,,株式会社,東京都,府中市,武蔵台１丁目１１番地の３０,,13,206,1830042,,,,,,,2022-04-22,1,,,,,アミマネラ,0
1625,6012701017035,新規,0,2022-04-22,2022-04-22,株式会社高田急送,00126389,株式会社,東京都,西東京市,向台町１丁目７番６５号,,13,229,1880013,,,,,,,2022-04-22,1,,,,,タカダキュウソウ,0
1626,6012703002448,新規,0,2022-04-22,2022-04-22,合同会社ＨＡＮＡＳＥＲＯ,,合同会社,東京都,小平市,上水南町１丁目３１番１９－１号,,13,211,1870021,,,,,,,2022-04-22,1,,,,,ハナセロ,0
1635,6013301048998,新規,0,2022-04-22,2022-04-22,株式会社ｄｒｅｗ,,株式会社,東京都,豊島区,池袋２丁目１０番３号第Ｉ絆ビル,00126379,13,116,1710014,,,,,,,2022-04-22,1,,,,,ドリュー,0
1636,6013301049014,新規,0,2022-04-22,2022-04-22,株式会社令和日本,,株式会社,東京都,豊島区,南大塚３丁目４８番７号,,13,116,1700005,,,,,,,2022-04-22,1,,,,,レイワニッポン,0
1641,6020001146248,新規,0,2022-04-22,2022-04-22,株式会社ＮＥＩＴＨ,,株式会社,神奈川県,川崎市多摩区,菅５丁目１番１１－１０１号,,14,135,2140001,,,,,,,2022-04-22,1,,,,,ネイト,0
1642,6020001146272,新規,0,2022-04-22,2022-04-22,株式会社工新,,株式会社,神奈川県,横浜市保土ケ谷区,天王町１丁目２番地２寺尾ビル３０２号,,14,106,2400003,,,,,,,2022-04-22,1,,,,,コウシン,0
1651,6021005012502,新規,0,2022-04-22,2022-04-22,一般社団法人地域防災ドローン・相模原,,その他の設立登記法人,神奈川県,相模原市中央区,緑が丘２丁目２０番１４号,,14,152,2520225,,,,,,,2022-04-22,1,,,,,チイキボウサイドローンサガミハラ,0
1656,6030001147807,新規,0,2022-04-22,2022-04-22,ＬｉｂｅｒｔａｓＥｓｔａｔｅ株式会社,,株式会社,埼玉県,川口市,鳩ヶ谷本町４丁目１４番１２号,,11,203,3340002,,,,,,,2022-04-22,1,,,,,リベルタスエステート,0
1657,6030001147823,新規,0,2022-04-22,2022-04-22,株式会社タウラス,,株式会社,埼玉県,ふじみ野市,うれし野２丁目１０番２－１７０５号,,11,245,3560056,,,,,,,2022-04-22,1,,,,,タウラス,0
1661,6030003019285,新規,0,2022-04-22,2022-04-22,合同会社ＮＵＩＮＤＯ　ＪＡＰＡＮ,,合同会社,埼玉県,越谷市,蒲生茜町１２番地１２グリーン健康ビル,,11,222,3430843,,,,,,,2022-04-22,1,,,,,ニューインドジャパン,0
1672,6040005021577,新規,0,2022-04-22,2022-04-22,一般財団法人エコミュージアムいすみ,,その他の設立登記法人,千葉県,いすみ市,岬町長者３２０番地,,12,238,2994616,,,,,,,2022-04-22,1,,,,,エコミュージアムイスミ,0
1688,6070003004457,新規,0,2022-04-22,2022-04-22,合同会社ＮＥＷ　ＥＲＡ,,合同会社,群馬県,伊勢崎市,馬見塚町２３３３番地２３,,10,204,3720842,,,,,,,2022-04-22,1,,,,,ニューエラ,0
1690,6080001024902,新規,0,2022-04-22,2022-04-22,株式会社ウエスト・ライト,,株式会社,静岡県,静岡市駿河区,丸子新田２２０番地の１２,,22,102,4210111,,,,,,,2022-04-22,1,,,,,ウエストライト,0
1696,6090001017541,新規,0,2022-04-22,2022-04-22,株式会社叶拓,,株式会社,山梨県,甲斐市,島上条１番地１,,19,210,4000123,,,,,,,2022-04-22,1,,,,,カナタ,0
1701,6100003006516,新規,0,2022-04-22,2022-04-22,合同会社ＦＯＲＥＳＴＥＲＲＡ,,合同会社,長野県,諏訪郡富士見町,境１１３－２,,20,362,3990101,,,,,,,2022-04-22,1,,,,,フォレステラ,0
1704,6110001036613,新規,0,2022-04-22,2022-04-22,株式会社ウィンクス,,株式会社,新潟県,新潟市中央区,上大川前通７番町１２３０番地７,,15,103,9518068,,,,,,,2022-04-22,1,,,,,ウィンクス,0
1720,6120001245411,新規,0,2022-04-22,2022-04-22,株式会社ジョイヤ,,株式会社,大阪府,大阪市北区,中崎西２丁目２－１東梅田八千代ビル３Ｆ,,27,127,5300015,,,,,,,2022-04-22,1,,,,,ジョイヤ,0
1721,6120001245428,新規,0,2022-04-22,2022-04-22,株式会社ＶＩＳ　ｉｎｎｏｖａｔｉｏｎ,,株式会社,大阪府,大阪市北区,角田町８番４７号２０階,,27,127,5300017,,,,,,,2022-04-22,1,,,,,ヴィスイノベーション,0
1726,6120003021546,新規,0,2022-04-22,2022-04-22,モモザル合同会社,,合同会社,大阪府,大阪市中央区,玉造１丁目６番２２号,,27,128,5400004,,,,,,,2022-04-22,1,,,,,モモザル,0
1736,6120901045877,新規,0,2022-04-22,2022-04-22,ＡＭＳ株式会社,,株式会社,大阪府,吹田市,千里山西４丁目３７番１号,,27,205,5650851,,,,,,,2022-04-22,1,,,,,エーエムエス,0
1739,6122001035791,新規,0,2022-04-22,2022-04-22,株式会社エークリエイト,,株式会社,大阪府,八尾市,東町５丁目１８番地,,27,212,5810861,,,,,,,2022-04-22,1,,,,,エークリエイト,0
1746,6130001071600,新規,0,2022-04-22,2022-04-22,株式会社ＢＯＮＡＱＵ,,株式会社,京都府,京都市東山区,清水５丁目１２５番地１シャーメゾン清水道２０２,,26,105,6050862,,,,,,,2022-04-22,1,,,,,ボナーク,0
1768,6180301036158,新規,0,2022-04-22,2022-04-22,まんまる産業株式会社,,株式会社,愛知県,豊川市,千両町広貝津８０番地,,23,207,4420001,,,,,,,2022-04-22,1,,,,,マンマルサンギョウ,0
1769,6180305009333,新規,0,2022-04-22,2022-04-22,一般社団法人あすなろ,,その他の設立登記法人,愛知県,豊田市,広久手町３丁目４番地８０４号,,23,211,4710036,,,,,,,2022-04-22,1,,,,,アスナロ,0
1778,6240001059650,新規,0,2022-04-22,2022-04-22,ＦｉＥｘｃｅＬ株式会社,,株式会社,広島県,三原市,明神２丁目６番１０号,,34,204,7230046,,,,,,,2022-04-22,1,,,,,フィエクセル,0
1779,6240001059667,新規,0,2022-04-22,2022-04-22,株式会社ジムコモン,,株式会社,広島県,広島市南区,旭２丁目１４－１７－３０１,,34,103,7340036,,,,,,,2022-04-22,1,,,,,ジムコモン,0
1783,6250001019521,新規,0,2022-04-22,2022-04-22,株式会社ユウシンテクノ,,株式会社,山口県,周南市,大字久米３１４０番地の１コーポラス２１－２０４号,,35,215,7450801,,,,,,,2022-04-22,1,,,,,ユウシンテクノ,0
1786,6260001036788,新規,0,2022-04-22,2022-04-22,株式会社天翔,,株式会社,岡山県,倉敷市,連島３丁目２番１１号,,33,202,7128012,,,,,,,2022-04-22,1,,,,,テンショウ,0
1787,6260005011077,新規,0,2022-04-22,2022-04-22,修験道大樂院,,その他の設立登記法人,岡山県,倉敷市,大内１１０４番地,,33,202,7100817,,,,,,,2022-04-22,1,,,,,シュゲンドウタイラクイン,0
1800,6310003004341,新規,0,2022-04-22,2022-04-22,合同会社爽楽,,合同会社,長崎県,佐世保市,松瀬町７１３番地８,,42,202,8570102,,,,,,,2022-04-22,1,,,,,ソラ,0
1802,6320001019027,新規,0,2022-04-22,2022-04-22,株式会社藤裕,,株式会社,大分県,大分市,大字葛木１１３番地の１,,44,201,8700133,,,,,,,2022-04-22,1,,,,,フジヒロ,0
1803,6320003003788,新規,0,2022-04-22,2022-04-22,合同会社ＭＡＳＨＵ,,合同会社,大分県,大分市,中央町１丁目３番１２号,,44,201,8700035,,,,,,,2022-04-22,1,,,,,マシュー,0
1807,6330001029660,新規,0,2022-04-22,2022-04-22,株式会社エコライフ熊本,,株式会社,熊本県,宇土市,長浜町５８０番地の１,,43,211,8693171,,,,,,,2022-04-22,1,,,,,エコライフクマモト,0
1812,6340001024677,新規,0,2022-04-22,2022-04-22,株式会社ＭＩＴＳＵオート,,株式会社,鹿児島県,鹿児島市,山田町２１１４番地１,,46,201,8910104,,,,,,,2022-04-22,1,,,,,ミツオート,0
1815,6360001030269,新規,0,2022-04-22,2022-04-22,株式会社ＣＯＲＮＥＲＳ,,株式会社,沖縄県,石垣市,字登野城８７０番地１カーザセレーナあこう４０２,,47,207,9070004,,,,,,,2022-04-22,1,,,,,,0
1834,6390003001950,新規,0,2022-04-22,2022-04-22,合同会社コパルプラス,,合同会社,山形県,山形市,松栄１丁目５番１３号,,06,201,9902473,,,,,,,2022-04-22,1,,,,,コパルプラス,0
1839,6430001086460,新規,0,2022-04-22,2022-04-22,株式会社上村重機,,株式会社,北海道,虻田郡倶知安町,北五条東３丁目１番地６３,,01,400,0440005,,,,,,,2022-04-22,1,,,,,カミムラジュウキ,0
1840,6430001086493,新規,0,2022-04-22,2022-04-22,株式会社ｓｈｉｔａｎ．,,株式会社,北海道,札幌市西区,宮の沢一条１丁目６番１７号,,01,107,0630051,,,,,,,2022-04-22,1,,,,,シタン,0
1843,6430003013834,新規,0,2022-04-22,2022-04-22,合同会社ゴーランド,,合同会社,北海道,札幌市中央区,大通西２５丁目４番８号,,01,101,0640820,,,,,,,2022-04-22,1,,,,,ゴーランド,0
1844,6430005014459,新規,0,2022-04-22,2022-04-22,特定非営利活動法人あいのもりビレッジ,,その他の設立登記法人,北海道,札幌市西区,八軒二条東１丁目３番３号２０５号,,01,107,0630862,,,,,,,2022-04-22,1,,,,,アイノモリビレッジ,0
1856,7010001225407,新規,0,2022-04-22,2022-04-22,株式会社ライムデザインラボ,,株式会社,東京都,千代田区,九段南１丁目５－６りそな九段ビル５ＦＫＳフロア,,13,101,1020074,,,,,,,2022-04-22,1,,,,,ライムデザインラボ,0
1859,7010005034911,新規,0,2022-04-22,2022-04-22,一般社団法人ワークアズライフアソシエーション,,その他の設立登記法人,東京都,中央区,日本橋本町２丁目３番１５号共同ビル（新本町）５Ｆ,,13,102,1030023,,,,,,,2022-04-22,1,,,,,ワークアズライフアソシエーション,0
1865,7010401166944,新規,0,2022-04-22,2022-04-22,株式会社エコットコスメ,,株式会社,東京都,港区,赤坂４丁目３番２８号,,13,103,1070052,,,,,,,2022-04-22,1,,,,,エコットコスメ,0
1866,7010401166960,新規,0,2022-04-22,2022-04-22,ｓａｕｎａ　ｔｅｃｈｎｏｌｏｇｉｅｓ株式会社,,株式会社,東京都,港区,西麻布４丁目１番４号,,13,103,1060031,,,,,,,2022-04-22,1,,,,,サウナテクノロジーズ,0
1869,7010403027541,新規,0,2022-04-22,2022-04-22,合同会社２ｎｄ,,合同会社,東京都,港区,港南４丁目７番５５－２０１０号,,13,103,1080075,,,,,,,2022-04-22,1,,,,,セカンド,0
1870,7010405020940,新規,0,2022-04-22,2022-04-22,特定目的会社レジプロパティーズツー,,その他の設立登記法人,東京都,港区,六本木６丁目１０番１号六本木ヒルズ森タワー,,13,103,1060032,,,,,,,2022-04-22,1,,,,,レジプロパティーズツー,0
1874,7010501048737,新規,0,2022-04-22,2022-04-22,株式会社Ｓ’Ｇｒｏｕｐ,,株式会社,東京都,台東区,浅草７丁目６番５－２０２号ルネフラッツ浅草,,13,106,1110032,,,,,,,2022-04-22,1,,,,,エスダッシュグループ,0
1879,7010601061029,新規,0,2022-04-22,2022-04-22,株式会社村山工務店,,株式会社,東京都,江東区,豊洲６丁目２番３１号,,13,108,1350061,,,,,,,2022-04-22,1,,,,,ムラヤマコウムテン,0
1880,7010601061037,新規,0,2022-04-22,2022-04-22,株式会社ｉｋｉマネージメント,,株式会社,東京都,江東区,富岡２丁目６－４矢野第三ビル６０１,,13,108,1350047,,,,,,,2022-04-22,1,,,,,イキマネージメント,0
1882,7010701042556,新規,0,2022-04-22,2022-04-22,株式会社リバティエ,,株式会社,東京都,品川区,西品川１丁目１番１号住友不動産大崎ガーデンタワー９階,,13,109,1410033,,,,,,,2022-04-22,1,,,,,リバティエ,0
1889,7010903007308,新規,0,2022-04-22,2022-04-22,ＢＩＯＴＯＰＥ合同会社,,合同会社,東京都,世田谷区,駒沢１丁目２０番４号,,13,112,1540012,,,,,,,2022-04-22,1,,,,,ビオトープ,0
1890,7010903007332,新規,0,2022-04-22,2022-04-22,合同会社ワオン,,合同会社,東京都,世田谷区,松原１丁目４９番２号グランパセオ明大前ＩＩＩ２０４,00126382,13,112,1560043,,,,,,,2022-04-22,1,,,,,ワオン,0
1905,7011401024191,新規,0,2022-04-22,2022-04-22,株式会社ｐｅｄａｎｔｉｃ,,株式会社,東京都,板橋区,南常盤台１丁目１１－６レフア南常盤台１０１号室,,13,119,1740072,,,,,,,2022-04-22,1,,,,,ペダンティック,0
1907,7011501027961,新規,0,2022-04-22,2022-04-22,株式会社八角形,,株式会社,東京都,荒川区,荒川３丁目７６番１－１２０１号,,13,118,1160002,,,,,,,2022-04-22,1,,,,,ハッカクケイ,0
1909,7011505002465,新規,0,2022-04-22,2022-04-22,一般社団法人籌,,その他の設立登記法人,東京都,荒川区,荒川１丁目２１番１号,,13,118,1160002,,,,,,,2022-04-22,1,,,,,カズトリ,0
1917,7012703002447,新規,0,2022-04-22,2022-04-22,叶Ｔｒａｕｍ　ｐｌａｎｎｉｎｇ合同会社,,合同会社,東京都,西東京市,南町５丁目１２番１０号,,13,229,1880012,,,,,,,2022-04-22,1,,,,,トラオムプランニング,0
1921,7013301049005,新規,0,2022-04-22,2022-04-22,オートクス株式会社,,株式会社,東京都,豊島区,高田３丁目４２番１０号シャトー杉山６０３,,13,116,1710033,,,,,,,2022-04-22,1,,,,,オートクス,0
1930,7020001146222,新規,0,2022-04-22,2022-04-22,株式会社Ｌｏａｄｉｎｇ,,株式会社,神奈川県,横浜市中区,桜木町２丁目２番地港陽ビル３階,,14,104,2310062,,,,,,,2022-04-22,1,,,,,ローディング,0
1931,7020001146247,新規,0,2022-04-22,2022-04-22,株式会社みのりコンサルティング,,株式会社,神奈川県,横浜市鶴見区,上末吉１丁目２７番６１号,,14,101,2300011,,,,,,,2022-04-22,1,,,,,ミノリコンサルティング,0
1937,7021001075741,新規,0,2022-04-22,2022-04-22,株式会社ＮＷＣ,,株式会社,神奈川県,藤沢市,片瀬４丁目８番２３号,,14,205,2510032,,,,,,,2022-04-22,1,,,,,エヌダブリューシー,0
1938,7021001075758,新規,0,2022-04-22,2022-04-22,株式会社ごとぐる,,株式会社,神奈川県,藤沢市,羽鳥１丁目１番１号１０６１,,14,205,2510056,,,,,,,2022-04-22,1,,,,,ゴトグル,0
1939,7021001075774,新規,0,2022-04-22,2022-04-22,株式会社リノベーションスタイルＴａｄａｓｈｏ,,株式会社,神奈川県,横須賀市,湘南鷹取３丁目２２番４号,,14,201,2370066,,,,,,,2022-04-22,1,,,,,リノベーションスタイルタダショウ,0
1942,7021005012501,新規,0,2022-04-22,2022-04-22,医療法人しみずこどもクリニック,,その他の設立登記法人,神奈川県,鎌倉市,大船４丁目１７番１７号メディカルプラザ鎌倉大船,,14,204,2470056,,,,,,,2022-04-22,1,,,,,,0
1948,7030001147731,新規,0,2022-04-22,2022-04-22,株式会社ＳＴＧ,,株式会社,埼玉県,川口市,芝富士１丁目２７番３６－２０２号,,11,203,3330854,,,,,,,2022-04-22,1,,,,,エスティジー,0
1949,7030001147847,新規,0,2022-04-22,2022-04-22,株式会社ケープラミング,,株式会社,埼玉県,鴻巣市,箕田３９０２番地１,,11,217,3650062,,,,,,,2022-04-22,1,,,,,ケープラミング,0
1962,7050001050990,新規,0,2022-04-22,2022-04-22,株式会社ＡＣＥ,,株式会社,茨城県,取手市,白山２丁目８番８－１０２号,,08,217,3020023,,,,,,,2022-04-22,1,,,,,エース,0
1963,7060001034803,新規,0,2022-04-22,2022-04-22,株式会社ＮＳＭコーポレーション,,株式会社,栃木県,宇都宮市,吉野２丁目５番２３号,,09,201,3200838,,,,,,,2022-04-22,1,,,,,エヌエスエムコーポレーション,0
1968,7070003004464,新規,0,2022-04-22,2022-04-22,ＡＭＢＤソリューション合同会社,,合同会社,群馬県,桐生市,相生町１丁目１５番地６７,,10,203,3760011,,,,,,,2022-04-22,1,,,,,エイエムビーディーソリューション,0
1972,7080001024901,新規,0,2022-04-22,2022-04-22,株式会社アクトヴァン,,株式会社,静岡県,静岡市葵区,川合１丁目９番８３号,,22,101,4200923,,,,,,,2022-04-22,1,,,,,アクトヴァン,0
1977,7110001036612,新規,0,2022-04-22,2022-04-22,おたまちフーズ＆ライフ株式会社,,株式会社,新潟県,新潟市東区,上木戸５丁目４番１３号,,15,102,9500891,,,,,,,2022-04-22,1,,,,,オタマチフーズアンドライフ,0
2002,7120001245344,新規,0,2022-04-22,2022-04-22,株式会社クローバーケアグループ,,株式会社,大阪府,大阪市城東区,今福西５丁目１番２５－６０２号,,27,118,5360004,,,,,,,2022-04-22,1,,,,,クローバーケアグループ,0
2006,7120003021553,新規,0,2022-04-22,2022-04-22,合同会社Ｗａｌｂｒｅ,,合同会社,大阪府,大阪市北区,梅田２丁目５－１３桜橋第一ビル３０４号,,27,127,5300001,,,,,,,2022-04-22,1,,,,,ウォルブレ,0
2017,7120103004672,新規,0,2022-04-22,2022-04-22,合同会社おはな,,合同会社,大阪府,泉佐野市,南中樫井４８１番地２０棟３０２号室,,27,213,5980035,,,,,,,2022-04-22,1,,,,,オハナ,0
2020,7122001035782,新規,0,2022-04-22,2022-04-22,ＨＶＧ　ＣＯＲＰＯＲＡＴＩＯＮ株式会社,,株式会社,大阪府,柏原市,国分市場１丁目８番７７号,,27,221,5820022,,,,,,,2022-04-22,1,,,,,エイチヴィジーコーポレーション,0
2021,7122001035799,新規,0,2022-04-22,2022-04-22,株式会社ＷＡＮマテリアル,,株式会社,大阪府,東大阪市,菱江１丁目１６番１６号,,27,227,5780984,,,,,,,2022-04-22,1,,,,,ワンマテリアル,0
2026,7130003007898,新規,0,2022-04-22,2022-04-22,合同会社Ｈｉｇｈ　Ｌｉｆｅ,,合同会社,京都府,京都市伏見区,醍醐東合場町１１－７,,26,109,6011346,,,,,,,2022-04-22,1,,,,,ハイライフ,0
2036,7140001125726,新規,0,2022-04-22,2022-04-22,ＧＯＲＩＨＡＭＡ施工株式会社,,株式会社,兵庫県,神戸市中央区,磯上通８丁目１番２９号カサラベビルＣ＆Ｍ４０３号室,,28,110,6510086,,,,,,,2022-04-22,1,,,,,ゴリハマセコウ,0
2037,7140001125742,新規,0,2022-04-22,2022-04-22,株式会社レポーソ,,株式会社,兵庫県,姫路市,玉手３丁目４１１番地２,,28,201,6700985,,,,,,,2022-04-22,1,,,,,レポーソ,0
2041,7150001025487,新規,0,2022-04-22,2022-04-22,株式会社Ｃｌｅａｎ　Ａｌｌ　Ｋ,,株式会社,奈良県,奈良市,菅原町６４１番地３－２０１号,,29,201,6310842,,,,,,,2022-04-22,1,,,,,クリーンオールケー,0
2045,7170001017078,新規,0,2022-04-22,2022-04-22,株式会社ＭＡＲＩＮＥ‐Ｑ,,株式会社,和歌山県,日高郡印南町,大字印南３４２９番地の１,,30,390,6491534,,,,,,,2022-04-22,1,,,,,マリンキュー,0
2057,7180001151025,新規,0,2022-04-22,2022-04-22,株式会社佐野川工業,,株式会社,愛知県,瀬戸市,中水野町２丁目６８番地の１,,23,204,4890005,,,,,,,2022-04-22,1,,,,,サノカワコウギョウ,0
2079,7240001059658,新規,0,2022-04-22,2022-04-22,株式会社ＨＩＲＯＳＨＩＭＡ　ＦＡＣＴＯＲＹ,,株式会社,広島県,廿日市市,宮島口１丁目３番２９号,,34,213,7390411,,,,,,,2022-04-22,1,,,,,ヒロシマファクトリー,0
2080,7240001059666,新規,0,2022-04-22,2022-04-22,株式会社ＨＯＰＥ電気,,株式会社,広島県,広島市安佐北区,倉掛２丁目１１番１１号,,34,106,7391743,,,,,,,2022-04-22,1,,,,,ホープデンキ,0
2085,7250001019520,新規,0,2022-04-22,2022-04-22,株式会社吉村兄弟社,,株式会社,山口県,宇部市,大字川上１０７０番地,,35,202,7550084,,,,,,,2022-04-22,1,,,,,ヨシムラキョウダイシャ,0
2088,7260001036787,新規,0,2022-04-22,2022-04-22,株式会社砂川クリーナー,,株式会社,岡山県,岡山市東区,瀬戸町大内１１７４番地,,33,103,7090851,,,,,,,2022-04-22,1,,,,,スナガワクリーナー,0
2091,7270003001400,新規,0,2022-04-22,2022-04-22,合同会社大福,,合同会社,鳥取県,東伯郡湯梨浜町,大字はわい温泉６３番地５,,31,370,6820715,,,,,,,2022-04-22,1,,,,,ダイフク,0
2107,7290801028477,新規,0,2022-04-22,2022-04-22,株式会社藍’ｚカンパニー,,株式会社,福岡県,田川市,大字伊田１５５５番地２０,,40,206,8250002,,,,,,,2022-04-22,1,,,,,アイズカンパニー,0
2110,7320001019026,新規,0,2022-04-22,2022-04-22,株式会社はぐ・くむファーム,,株式会社,大分県,大分市,大道町２丁目３番１２号４Ｆ,,44,201,8700822,,,,,,,2022-04-22,1,,,,,ハグクムファーム,0
2121,7340003003769,新規,0,2022-04-22,2022-04-22,合同会社Ｃａｎｖａｓ,,合同会社,鹿児島県,鹿児島市,宇宿７丁目１３番３３号,,46,201,8900073,,,,,,,2022-04-22,1,,,,,キャンバス,0
2123,7360003011951,新規,0,2022-04-22,2022-04-22,みなみなみ合同会社,,合同会社,沖縄県,国頭郡恩納村,字真栄田１５７４番地１,,47,311,9040417,,,,,,,2022-04-22,1,,,,,ミナミナミ,0
2125,7360005006644,新規,0,2022-04-22,2022-04-22,一般社団法人あすいろ,,その他の設立登記法人,沖縄県,うるま市,与那城屋慶名２２８５番地１,,47,213,9042304,,,,,,,2022-04-22,1,,,,,アスイロ,0
2135,7380005012574,新規,0,2022-04-22,2022-04-22,一般社団法人林創活用協会,,その他の設立登記法人,福島県,郡山市,亀田２丁目２３番２７号,,07,203,9638033,,,,,,,2022-04-22,1,,,,,リンソウカツヨウキョウカイ,0
2140,7420001017812,新規,0,2022-04-22,2022-04-22,壬生電気株式会社,,株式会社,青森県,八戸市,大字尻内町字平中２３番地５コーポ豊５,,02,203,0391101,,,,,,,2022-04-22,1,,,,,ミブデンキ,0
2143,7430001086344,新規,0,2022-04-22,2022-04-22,関西ファーマシー株式会社,,株式会社,北海道,札幌市中央区,南二条西３丁目２０番,,01,101,0600062,,,,,,,2022-04-22,1,,,,,カンサイファーマシー,0
2144,7430001086492,新規,0,2022-04-22,2022-04-22,株式会社ＢＣＰ北海道,,株式会社,北海道,札幌市東区,北二十四条東２１丁目７番３２号,,01,103,0650024,,,,,,,2022-04-22,1,,,,,ビーシーピーホッカイドウ,0
2150,7700150108227,新規,0,2022-04-22,2022-04-22,全国ライブ配信協同組合準備会,,その他,千葉県,松戸市,本町１７－１１芹澤ビル６階,,12,207,2710091,,,,,,,2022-04-22,1,,,,,ゼンコクライブハイシンキョウドウクミアイジュンビカイ,0
2154,8010001225835,新規,0,2022-04-22,2022-04-22,株式会社ＫｅｎＦｉｇｈｔｅＲ,,株式会社,東京都,千代田区,神田北乗物町１６英ビル７階,,13,101,1010036,,,,,,,2022-04-22,1,,,,,,0
2155,8010001226180,新規,0,2022-04-22,2022-04-22,ＭＩＮＥ株式会社,,株式会社,東京都,千代田区,平河町１丁目６－４,,13,101,1020093,,,,,,,2022-04-22,1,,,,,マイン,0
2158,8010003037510,新規,0,2022-04-22,2022-04-22,合同会社アイディピーケイ,,合同会社,東京都,文京区,関口３丁目３番４号,,13,105,1120014,,,,,,,2022-04-22,1,,,,,アイディピーケイ,0
2159,8010003037535,新規,0,2022-04-22,2022-04-22,ミックル合同会社,,合同会社,東京都,千代田区,神田佐久間町３丁目２１－５ヒガシカンダビル３０７号,,13,101,1010025,,,,,,,2022-04-22,1,,,,,ミックル,0
2162,8010005034877,新規,0,2022-04-22,2022-04-22,一般社団法人神氣功．研究会,,その他の設立登記法人,東京都,文京区,湯島２丁目３３番１１,,13,105,1130034,,,,,,,2022-04-22,1,,,,,シンキコウケンキュウカイ,0
2163,8010005034902,新規,0,2022-04-22,2022-04-22,特定非営利活動法人ローカルワン,,その他の設立登記法人,東京都,中央区,日本橋３丁目２番１４号新槇町ビル別館第一１階,,13,102,1030027,,,,,,,2022-04-22,1,,,,,ローカルワン,0
2164,8010005034910,新規,0,2022-04-22,2022-04-22,行政書士法人中央行政事務所,,その他の設立登記法人,東京都,千代田区,岩本町３丁目９番１５号,,13,101,1010032,,,,,,,2022-04-22,1,,,,,チュウオウギョウセイジムショ,0
2166,8010401166951,新規,0,2022-04-22,2022-04-22,株式会社ＩＣ,,株式会社,東京都,港区,白金１丁目１５番１９号４０１,,13,103,1080072,,,,,,,2022-04-22,1,,,,,アイシー,0
2167,8010401166968,新規,0,2022-04-22,2022-04-22,株式会社Ｐｅｒｖａｌｌｅ,,株式会社,東京都,港区,白金台５丁目１０番１６号,,13,103,1080071,,,,,,,2022-04-22,1,,,,,ペルヴァレ,0
2168,8010401167082,新規,0,2022-04-22,2022-04-22,ビットセック株式会社,,株式会社,東京都,港区,白金３丁目２３－６フォリア白金１階,,13,103,1080072,,,,,,,2022-04-22,1,,,,,ビットセック,0
2170,8010403027508,新規,0,2022-04-22,2022-04-22,藤木会計アドバイザリー合同会社,,合同会社,東京都,港区,虎ノ門１丁目１番２１号新虎ノ門実業会館５階,,13,103,1050001,,,,,,,2022-04-22,1,,,,,フジキカイケイアドバイザリー,0
2172,8010501048744,新規,0,2022-04-22,2022-04-22,株式会社うなぎ松本,,株式会社,東京都,台東区,雷門２丁目６番３号アトラスミオ浅草雷門１３０１,,13,106,1110034,,,,,,,2022-04-22,1,,,,,ウナギマツモト,0
2175,8010601061036,新規,0,2022-04-22,2022-04-22,Ｓａｆｅｔｙ　Ａｓｓｕｒａｎｃｅ　Ｔｅｃｈｎｏｌｏｇｉｅｓ株式会社,,株式会社,東京都,江東区,豊洲１丁目１番１号,,13,108,1350061,,,,,,,2022-04-22,1,,,,,セーフティーアシュアランステクノロジーズ,0
2191,8010903007331,新規,0,2022-04-22,2022-04-22,Ｒ＆Ｉ合同会社,,合同会社,東京都,世田谷区,深沢１丁目７番５－５０１号,,13,112,1580081,,,,,,,2022-04-22,1,,,,,アールアンドアイ,0
2201,8011101098592,新規,0,2022-04-22,2022-04-22,森瑞商事株式会社,,株式会社,東京都,新宿区,百人町１丁目２１番８サニーハイツ２１－１０４号,,13,104,1690073,,,,,,,2022-04-22,1,,,,,モリミズショウジ,0
2206,8011103011693,新規,0,2022-04-22,2022-04-22,合同会社ＹＡＭＡＴＯエンタープライズ,,合同会社,東京都,新宿区,新宿１丁目３６番２号新宿第七葉山ビル３階,,13,104,1600022,,,,,,,2022-04-22,1,,,,,ヤマモトエンタープライズ,0
2216,8011501027969,新規,0,2022-04-22,2022-04-22,株式会社瑞建,,株式会社,東京都,北区,浮間３丁目３４番８号,,13,117,1150051,,,,,,,2022-04-22,1,,,,,ズイケン,0
2218,8011601025914,新規,0,2022-04-22,2022-04-22,株式会社ユウボヌール,,株式会社,東京都,練馬区,豊玉中３丁目２番１５号,,13,120,1760013,,,,,,,2022-04-22,1,,,,,ユウボヌール,0
2219,8011803005061,新規,0,2022-04-22,2022-04-22,合同会社Ｃｈａｒｏｎ,,合同会社,東京都,足立区,東綾瀬１丁目９－４プラザ白うめ５１０,,13,121,1200004,,,,,,,2022-04-22,1,,,,,シャロン,0
2220,8012303001666,新規,0,2022-04-22,2022-04-22,合同会社伸穏,,合同会社,東京都,町田市,南町田２丁目２３‐１２,,13,209,1940005,,,,,,,2022-04-22,1,,,,,シンオン,0
2222,8012803002750,新規,0,2022-04-22,2022-04-22,合同会社つばさ教育センター,,合同会社,東京都,国分寺市,東恋ヶ窪２丁目３１番地１２,,13,214,1850014,,,,,,,2022-04-22,1,,,,,ツバサキョウイクセンター,0
2226,8013301048996,新規,0,2022-04-22,2022-04-22,株式会社ハレステージ,,株式会社,東京都,豊島区,駒込１丁目２４番７号ＴＪ・ｋｏｍａｇｏｍｅ．ＢＬＤ２０２号室,,13,116,1700003,,,,,,,2022-04-22,1,,,,,ハレステージ,0
2227,8013301049012,新規,0,2022-04-22,2022-04-22,株式会社Ｕ‐ｓｔｙｌｅ,,株式会社,東京都,豊島区,南大塚２丁目１１番１０号ミモザビル３Ｆ,,13,116,1700005,,,,,,,2022-04-22,1,,,,,ユースタイル,0
2233,8020001146238,新規,0,2022-04-22,2022-04-22,株式会社リコリス,,株式会社,神奈川県,横浜市瀬谷区,相沢３丁目１１番地８,,14,114,2460013,,,,,,,2022-04-22,1,,,,,リコリス,0
2242,8021001075765,新規,0,2022-04-22,2022-04-22,株式会社アルバトロス,,株式会社,神奈川県,逗子市,小坪５丁目２番１号,,14,208,2490008,,,,,,,2022-04-22,1,,,,,アルバトロス,0
2243,8021001075781,新規,0,2022-04-22,2022-04-22,株式会社ＴＴ企画,,株式会社,神奈川県,鎌倉市,植木５０１番地１２,,14,204,2470073,,,,,,,2022-04-22,1,,,,,ティーティーキカク,0
2248,8021003011628,新規,0,2022-04-22,2022-04-22,合同会社匠,,合同会社,神奈川県,大和市,福田２丁目１１番地３,,14,213,2420024,,,,,,,2022-04-22,1,,,,,タクミ,0
2249,8021005012500,新規,0,2022-04-22,2022-04-22,特定非営利活動法人おだわら共生会,,その他の設立登記法人,神奈川県,小田原市,千代３８１番地の１１,,14,206,2500215,,,,,,,2022-04-22,1,,,,,オダワラキョウセイカイ,0
2252,8030001147796,新規,0,2022-04-22,2022-04-22,フジケン株式会社,,株式会社,埼玉県,所沢市,上新井２丁目１９番地の１６,,11,208,3591142,,,,,,,2022-04-22,1,,,,,フジケン,0
2253,8030001147870,新規,0,2022-04-22,2022-04-22,株式会社ディープインパクト,,株式会社,埼玉県,草加市,北谷３丁目２７番７号,,11,221,3400046,,,,,,,2022-04-22,1,,,,,ディープインパクト,0
2259,8030003019275,新規,0,2022-04-22,2022-04-22,合同会社スワローワークス,,合同会社,埼玉県,所沢市,大字山口７３０番地の２,,11,208,3591145,,,,,,,2022-04-22,1,,,,,スワローワークス,0
2263,8040001123136,新規,0,2022-04-22,2022-04-22,ＣＶＳプラスパ株式会社,,株式会社,千葉県,野田市,中戸５８番地,,12,208,2700215,,,,,,,2022-04-22,1,,,,,シーブイエスプラスパ,0
2264,8040001123152,新規,0,2022-04-22,2022-04-22,株式会社リタスピ,,株式会社,千葉県,柏市,南逆井３丁目１７番１２号,,12,217,2770043,,,,,,,2022-04-22,1,,,,,リタスピ,0
2270,8040003019893,新規,0,2022-04-22,2022-04-22,合同会社ＯＭＵＳＵＢＩ,,合同会社,千葉県,松戸市,根木内５２５番地の３１,,12,207,2700011,,,,,,,2022-04-22,1,,,,,オムスビ,0
2271,8040003019935,新規,0,2022-04-22,2022-04-22,合同会社工藤開発,,合同会社,千葉県,白井市,冨士９６番地の１フジハイム２０２,,12,232,2701432,,,,,,,2022-04-22,1,,,,,クドウカイハツ,0
2275,8050001050998,新規,0,2022-04-22,2022-04-22,ベルオート株式会社,,株式会社,茨城県,北茨城市,華川町中妻４６９番地,,08,215,3191536,,,,,,,2022-04-22,1,,,,,ベルオート,0
2283,8060003004043,新規,0,2022-04-22,2022-04-22,Ｍｅｈｎａｚ自動車商会合同会社,,合同会社,栃木県,足利市,五十部町５００番地８ソラン７１０－２０５,,09,202,3260843,,,,,,,2022-04-22,1,,,,,メヘナヅジドウシャショウカイ,0
2289,8080001024900,新規,0,2022-04-22,2022-04-22,株式会社アーカム,,株式会社,静岡県,静岡市葵区,大岩町１０番１７号,,22,101,4200885,,,,,,,2022-04-22,1,,,,,アーカム,0
2290,8080403004525,新規,0,2022-04-22,2022-04-22,合同会社ＢＥＬＩＦＥ,,合同会社,静岡県,浜松市東区,有玉南町１８６７番地の１,,22,132,4313122,,,,,,,2022-04-22,1,,,,,ビライフ,0
2307,8120001245302,新規,0,2022-04-22,2022-04-22,風沢ネットワーク株式会社,,株式会社,大阪府,大阪市阿倍野区,晴明通１４番１５号,,27,119,5450032,,,,,,,2022-04-22,1,,,,,フウタクネットワーク,0
2308,8120001245426,新規,0,2022-04-22,2022-04-22,株式会社地域支援総合研究所,,株式会社,大阪府,大阪市中央区,内平野町１丁目２番９号グランドビル大手前３０４号,,27,128,5400037,,,,,,,2022-04-22,1,,,,,チイキシエンソウゴウケンキュウショ,0
2328,8130003007880,新規,0,2022-04-22,2022-04-22,ブルースカイ８３８合同会社,,合同会社,京都府,京都市北区,大宮釈迦谷４番地２１,,26,101,6038478,,,,,,,2022-04-22,1,,,,,ブルースカイハチサンハチ,0
2334,8140001125691,新規,0,2022-04-22,2022-04-22,Ｇｏｌｆ‐ｔｓｕｃｏｍ株式会社,,株式会社,兵庫県,神戸市中央区,北野町１丁目１番地,,28,110,6500002,,,,,,,2022-04-22,1,,,,,ゴルフツコム,0
2339,8140003017598,新規,0,2022-04-22,2022-04-22,合同会社シゲノ,,合同会社,兵庫県,神戸市西区,竹の台６丁目６－２－２５０７,,28,111,6512274,,,,,,,2022-04-22,1,,,,,シゲノ,0
2344,8160001024149,新規,0,2022-04-22,2022-04-22,株式会社リブライティング,,株式会社,滋賀県,草津市,大路１丁目７－１、ＴＯＷＥＲ１１１－１－２号,,25,206,5250032,,,,,,,2022-04-22,1,,,,,リブライティング,0
2352,8180001150967,新規,0,2022-04-22,2022-04-22,株式会社ＧＡＴＥ,,株式会社,愛知県,名古屋市中区,丸の内１丁目１０番１三愛ビル２Ｆ,,23,106,4600002,,,,,,,2022-04-22,1,,,,,ゲート,0
2379,8240003005592,新規,0,2022-04-22,2022-04-22,羽佐竹太陽光発電所合同会社,,合同会社,広島県,広島市中区,富士見町７番１０号,,34,101,7300043,,,,,,,2022-04-22,1,,,,,ハサタケタイヨウコウハツデンショ,0
2380,8250001019511,新規,0,2022-04-22,2022-04-22,株式会社やつなみ,,株式会社,山口県,防府市,大字高井７２７番地の１,,35,206,7470064,,,,,,,2022-04-22,1,,,,,ヤツナミ,0
2381,8250003003050,新規,0,2022-04-22,2022-04-22,合同会社Ｍｅｌ,,合同会社,山口県,下関市,神田町１丁目１３－８,,35,201,7500044,,,,,,,2022-04-22,1,,,,,メル,0
2384,8270005005514,新規,0,2022-04-22,2022-04-22,一般社団法人Ｂｉｓｕｉ　Ｄａｉｓｅｎ,,その他の設立登記法人,鳥取県,米子市,淀江町今津５０番地１,,31,202,6893401,,,,,,,2022-04-22,1,,,,,ビスイダイセン,0
2392,8290005018654,新規,0,2022-04-22,2022-04-22,医療法人たかお整形外科,,その他の設立登記法人,福岡県,福岡市中央区,地行３丁目１番２４号,,40,133,8100064,,,,,,,2022-04-22,1,,,,,タカオセイケイゲカ,0
2399,8330001029659,新規,0,2022-04-22,2022-04-22,株式会社マリンバース,,株式会社,熊本県,熊本市東区,健軍本町１番１号,,43,102,8620910,,,,,,,2022-04-22,1,,,,,マリンバース,0
2408,8350001017711,新規,0,2022-04-22,2022-04-22,株式会社ＫＡＮＧＯ,,株式会社,宮崎県,宮崎市,橘通東４丁目１番４号河北ビル１Ｆ,,45,201,8800805,,,,,,,2022-04-22,1,,,,,カンゴ,0
2410,8350003004071,新規,0,2022-04-22,2022-04-22,合同会社ｍｏｒｏ,,合同会社,宮崎県,宮崎市,大字島之内１０５９２番地１０,,45,201,8800121,,,,,,,2022-04-22,1,,,,,モロ,0
2411,8360003011967,新規,0,2022-04-22,2022-04-22,合同会社碧凰,,合同会社,沖縄県,うるま市,字江洲３５０番地１諸ハウス１０２号室,,47,213,9042244,,,,,,,2022-04-22,1,,,,,アオ,0
2412,8360005006643,新規,0,2022-04-22,2022-04-22,医療法人好日会,,その他の設立登記法人,沖縄県,宜野湾市,大謝名１丁目１７番３１号,,47,205,9012225,,,,,,,2022-04-22,1,,,,,コウジツカイ,0
2419,8410005006464,新規,0,2022-04-22,2022-04-22,農事組合法人大仙高関ファーム,,その他の設立登記法人,秋田県,大仙市,高関上郷字中貫１６,,05,212,0140103,,,,,,,2022-04-22,1,,,,,ダイセンタカゼキファーム,0
2426,8430001086491,新規,0,2022-04-22,2022-04-22,株式会社根森,,株式会社,北海道,札幌市中央区,南三条西５丁目３０番地,,01,101,0600063,,,,,,,2022-04-22,1,,,,,ネモリ,0
2427,8430001086500,新規,0,2022-04-22,2022-04-22,株式会社ＰＡＳＴＥＬ　ＳＨＩＮＥ,,株式会社,北海道,江別市,緑ケ丘２２番地の１５,,01,217,0690823,,,,,,,2022-04-22,1,,,,,パステルシャイン,0
2428,8430001086517,新規,0,2022-04-22,2022-04-22,株式会社ＭＩＴ,,株式会社,北海道,札幌市東区,北九条東９丁目３番３２号,,01,103,0650009,,,,,,,2022-04-22,1,,,,,エムアイティ,0
2432,8430003013840,新規,0,2022-04-22,2022-04-22,合同会社ＣＲＤ,,合同会社,北海道,札幌市豊平区,月寒東一条１丁目５番１０－２号,,01,105,0620051,,,,,,,2022-04-22,1,,,,,シーアールディー,0
2444,8700150108226,新規,0,2022-04-22,2022-04-22,ハウスドゥ取引先持株会,,その他,京都府,京都市中京区,烏丸通錦小路上る手洗水町６７０番地,,26,104,6048152,,,,,,,2022-04-22,1,,,,,ハウスドゥトリヒキサキモチカブカイ,0
2445,8700150108300,新規,0,2022-04-22,2022-04-22,Ｍｏｕｎｔ　Ｎｉｃｈｏｌｓｏｎ（Ｎｉｓｅｋｏ）　Ｉｎｖｅｓｔｍｅｎｔ　Ｈｏｌｄｉｎｇ　Ｌｉｍｉｔｅｄ,,外国会社等,北海道,虻田郡ニセコ町,字ニセコ４３２－３３,,01,395,0481511,Ｆｌａｔ　Ｂ，４Ｆ　Ｂａｇｕｉｏ　Ｖｉｌｌａ　Ｔｏｗｅｒ　１７　５５０　Ｖｉｃｔｏｒｉａ　Ｒｏａｄ　Ｐｏｋｆｕｌａｍ　Ｈｏｎｇ　Ｋｏｎｇ,,,,,,2022-04-22,1,,,,,マウントニコルソンニセコインベストメントホールデイングリミテツド,0
2458,9010001226097,新規,0,2022-04-22,2022-04-22,クレーンカンパニー株式会社,,株式会社,東京都,中央区,日本橋兜町１７番２号,,13,102,1030026,,,,,,,2022-04-22,1,,,,,クレーンカンパニー,0
2461,9010003037484,新規,0,2022-04-22,2022-04-22,ＬＩＧＨＴＵＰ　ＪＡＰＡＮ合同会社,,合同会社,東京都,中央区,銀座１丁目２２番１１号銀座大竹ビジデンス２階,,13,102,1040061,,,,,,,2022-04-22,1,,,,,ライトアップジャパン,0
2468,9010401166819,新規,0,2022-04-22,2022-04-22,グリーキャピタルマネジメント株式会社,,株式会社,東京都,港区,六本木６丁目１１番１号,,13,103,1060032,,,,,,,2022-04-22,1,,,,,グリーキャピタルマネジメント,0
2469,9010401166950,新規,0,2022-04-22,2022-04-22,株式会社ＡＴＲＡＣＴ,,株式会社,東京都,港区,東麻布２丁目２９番１号コンフォリア麻布ＥＡＳＴ４０６号室,,13,103,1060044,,,,,,,2022-04-22,1,,,,,アトラクト,0
2470,9010401166959,新規,0,2022-04-22,2022-04-22,株式会社ＣＲＥＳＴ,,株式会社,東京都,港区,西麻布３丁目１９番３号西麻布フラッツ２０２,,13,103,1060031,,,,,,,2022-04-22,1,,,,,クレスト,0
2478,9010405020922,新規,0,2022-04-22,2022-04-22,一般社団法人入札総合研究所,,その他の設立登記法人,東京都,港区,東麻布１丁目５番２号,,13,103,1060044,,,,,,,2022-04-22,1,,,,,ニュウサツソウゴウケンキュウジョ,0
2482,9010601061019,新規,0,2022-04-22,2022-04-22,ＣＣＢＳ株式会社,,株式会社,東京都,江東区,有明４丁目８番６号４Ｆ,,13,108,1350063,,,,,,,2022-04-22,1,,,,,シーシービーエス,0
2483,9010601061027,新規,0,2022-04-22,2022-04-22,株式会社ｉｓ,,株式会社,東京都,江東区,南砂２丁目３番８－３２３号,,13,108,1360076,,,,,,,2022-04-22,1,,,,,イズ,0
2488,9010701042562,新規,0,2022-04-22,2022-04-22,コネクトテック株式会社,,株式会社,東京都,品川区,上大崎３丁目１番１号目黒セントラルスクエア１５階,,13,109,1410021,,,,,,,2022-04-22,1,,,,,コネクトテック,0
2489,9010705003346,新規,0,2022-04-22,2022-04-22,一般社団法人ＳＡＫＵＲＡ　ＣＯＬＬＥＣＴＩＯＮ,,その他の設立登記法人,東京都,品川区,西品川１丁目１番１号住友不動産大崎ガーデンタワー９階,,13,109,1410033,,,,,,,2022-04-22,1,,,,,サクラコレクション,0
2501,9011101098625,新規,0,2022-04-22,2022-04-22,株式会社ブルックリンフィルム,,株式会社,東京都,新宿区,荒木町１１番地６１ＦＡＲＥ四谷ＩＶ２０３,00126377,13,104,1600007,,,,,,,2022-04-22,1,,,,,ブルックリンフィルム,0
2502,9011103011684,新規,0,2022-04-22,2022-04-22,Ｍ＆Ｙコンサルティング合同会社,,合同会社,東京都,新宿区,南元町１４番地２－６０１号,,13,104,1600012,,,,,,,2022-04-22,1,,,,,エムアンドワイコンサルティング,0
2505,9011301027730,新規,0,2022-04-22,2022-04-22,株式会社ＲＡＹＳ＆Ｃｏｍｐａｎｙ,,株式会社,東京都,杉並区,今川４丁目１０番１１号,,13,115,1670035,,,,,,,2022-04-22,1,,,,,レイズアンドカンパニー,0
2512,9011803005060,新規,0,2022-04-22,2022-04-22,合同会社Ｔｒｅｎｄ　Ｍ,,合同会社,東京都,足立区,古千谷本町２丁目１７－７ソフィア１０３,,13,121,1210832,,,,,,,2022-04-22,1,,,,,トレンドエム,0
2516,9012401039120,新規,0,2022-04-22,2022-04-22,Ｌｉｇｈｔ　ｏｒｂｉｔ株式会社,,株式会社,東京都,狛江市,中和泉２丁目２番１６－５０５号,,13,219,2010012,,,,,,,2022-04-22,1,,,,,ライトオービット,0
2523,9013301048921,新規,0,2022-04-22,2022-04-22,株式会社ＢＥＰＡＲＩーＴＥＸ,,株式会社,東京都,豊島区,南大塚１丁目３９番６号ネオハイシティ南大塚５０５,,13,116,1700005,,,,,,,2022-04-22,1,,,,,ベパリテックス,0
2524,9013301048970,新規,0,2022-04-22,2022-04-22,株式会社マシキフーズ,,株式会社,東京都,豊島区,西池袋５丁目２８－３ノアビル１Ｆ,,13,116,1710021,,,,,,,2022-04-22,1,,,,,マシキフーズ,0
2526,9020001146253,新規,0,2022-04-22,2022-04-22,ルカラ株式会社,,株式会社,神奈川県,川崎市宮前区,馬絹４丁目１３番１８－１０２号,,14,136,2160035,,,,,,,2022-04-22,1,,,,,ルカラ,0
2530,9020003021603,新規,0,2022-04-22,2022-04-22,合同会社イクラコーポレーション,,合同会社,神奈川県,川崎市川崎区,旭町２丁目１５－７,,14,131,2100808,,,,,,,2022-04-22,1,,,,,イクラコーポレーション,0
2535,9021001075780,新規,0,2022-04-22,2022-04-22,株式会社アクティビティパートナー,,株式会社,神奈川県,相模原市緑区,橋本４丁目２１番１５号,,14,151,2520143,,,,,,,2022-04-22,1,,,,,アクティビティパートナー,0
2538,9021003011627,新規,0,2022-04-22,2022-04-22,合同会社Ｎｕｔｒｉｅｎｔｓ　Ｓｕｐｐｌｉｅｒ,,合同会社,神奈川県,藤沢市,長後１２３４－１,,14,205,2520801,,,,,,,2022-04-22,1,,,,,ニュートリエンツサプライヤー,0
2545,9030001147845,新規,0,2022-04-22,2022-04-22,Ｗ．Ｗ．Ｅ株式会社,,株式会社,埼玉県,川越市,大字古谷上６０６８番地５,,11,201,3500001,,,,,,,2022-04-22,1,,,,,ダブリューダブリューイー,0
2555,9030003019150,新規,0,2022-04-22,2022-04-22,ふわり総合福祉サービス合同会社,,合同会社,埼玉県,さいたま市緑区,大字中尾１５１６番地２号１０４号室,,11,109,3360932,,,,,,,2022-04-22,1,,,,,フワリソウゴウフクシサービス,0
2556,9030003019274,新規,0,2022-04-22,2022-04-22,合同会社ＳＳ　ＴＲＡＤＩＮＧ,,合同会社,埼玉県,深谷市,山河１０４８番地３ホワイトハイツＡ棟１０５号,,11,218,3690217,,,,,,,2022-04-22,1,,,,,エスエストレーディング,0
2557,9030003019290,新規,0,2022-04-22,2022-04-22,向生合同会社,,合同会社,埼玉県,ふじみ野市,福岡武蔵野１番１９号,,11,245,3560037,,,,,,,2022-04-22,1,,,,,コウセイ,0
2559,9030005020841,新規,0,2022-04-22,2022-04-22,一般社団法人草加サウンド,,その他の設立登記法人,埼玉県,草加市,住吉１丁目４番９号,,11,221,3400014,,,,,,,2022-04-22,1,,,,,ソウカサウンド,0
2562,9040001123110,新規,0,2022-04-22,2022-04-22,民生株式会社,,株式会社,千葉県,山武市,椎崎字簑和田３３９番地３,,12,237,2891205,,,,,,,2022-04-22,1,,,,,ミンセイ,0
2566,9040003019918,新規,0,2022-04-22,2022-04-22,合同会社レア,,合同会社,千葉県,船橋市,夏見７丁目３－１,,12,204,2730865,,,,,,,2022-04-22,1,,,,,レア,0
2567,9040005021582,新規,0,2022-04-22,2022-04-22,一般社団法人ＬＮアートメイクアカデミー,,その他の設立登記法人,千葉県,浦安市,富士見５丁目２２番１４－１０２号,,12,227,2790043,,,,,,,2022-04-22,1,,,,,エルエヌアートメイクアカデミー,0
2570,9050001050997,新規,0,2022-04-22,2022-04-22,株式会社辰己屋,,株式会社,茨城県,水戸市,赤塚１丁目１９７８番地の５,,08,201,3114141,,,,,,,2022-04-22,1,,,,,タツミヤ,0
2575,9080001024899,新規,0,2022-04-22,2022-04-22,ＡＭＩＣＡＬ株式会社,,株式会社,静岡県,静岡市葵区,田町４丁目４５番地の１,,22,101,4200068,,,,,,,2022-04-22,1,,,,,アミカル,0
2595,9120001245334,新規,0,2022-04-22,2022-04-22,株式会社みずのなか,,株式会社,大阪府,大阪市北区,梅田２丁目５番１３号桜橋第一ビル３０４号,,27,127,5300001,,,,,,,2022-04-22,1,,,,,ミズノナカ,0
2599,9120003021551,新規,0,2022-04-22,2022-04-22,合同会社ＢｉｇＬｉｆｅ,,合同会社,大阪府,大阪市生野区,巽北２丁目１３番６－１０３号,00126376,27,116,5440004,,,,,,,2022-04-22,1,,,,,ビッグライフ,0
2608,9122001035789,新規,0,2022-04-22,2022-04-22,株式会社ＳＵＮＲＩＳＥ,,株式会社,大阪府,八尾市,八尾木北５丁目１６０番地,,27,212,5810016,,,,,,,2022-04-22,1,,,,,サンライズ,0
2610,9130001071622,新規,0,2022-04-22,2022-04-22,オフィス・ラ・グランジュ株式会社,,株式会社,京都府,京都市中京区,河原町通三条上る下丸屋町４１３番地,,26,104,6048006,,,,,,,2022-04-22,1,,,,,オフィスラグランジュ,0
2611,9130001071630,新規,0,2022-04-22,2022-04-22,株式会社双美ファクトリー,,株式会社,京都府,久世郡久御山町,佐山新開地３３０番地,,26,322,6130034,,,,,,,2022-04-22,1,,,,,ソウビファクトリー,0
2612,9130003007896,新規,0,2022-04-22,2022-04-22,合同会社ヨコカワズ,,合同会社,京都府,京都市左京区,松ケ崎雲路町１２番地１大晋メゾネ北山通り６０１号,,26,103,6060955,,,,,,,2022-04-22,1,,,,,ヨコカワズ,0
2617,9140001125740,新規,0,2022-04-22,2022-04-22,株式会社マイオフィス,,株式会社,兵庫県,尼崎市,南武庫之荘１丁目１４番８号,,28,202,6610033,,,,,,,2022-04-22,1,,,,,マイオフィス,0
2618,9140001125749,新規,0,2022-04-22,2022-04-22,株式会社Ａｄａｍａｓ,,株式会社,兵庫県,神戸市中央区,山本通３丁目３－１０瀬戸ビル４階,,28,110,6500003,,,,,,,2022-04-22,1,,,,,アダマス,0
2625,9160001024148,新規,0,2022-04-22,2022-04-22,株式会社伸和,,株式会社,滋賀県,大津市,一里山４丁目２７番２７号,,25,201,5202153,,,,,,,2022-04-22,1,,,,,シンワ,0
2643,9180003023716,新規,0,2022-04-22,2022-04-22,ＧＴメディカル合同会社,,合同会社,愛知県,名古屋市東区,橦木町１丁目１０マストスクエア橦木町４０６号室,,23,102,4610014,,,,,,,2022-04-22,1,,,,,ジーティーメディカル,0
2644,9180003023740,新規,0,2022-04-22,2022-04-22,合同会社Ｗｅｌｌ‐Ｂｅｉｎｇ　Ｓｏｃｉａｌ,,合同会社,愛知県,名古屋市天白区,植田東２丁目９０４番地（アーバンレジデンス２０２号）,,23,116,4680006,,,,,,,2022-04-22,1,,,,,ウェルビーイングソーシャル,0
2646,9180301036147,新規,0,2022-04-22,2022-04-22,北原商事株式会社,,株式会社,愛知県,安城市,城南町１丁目１０番地２０,,23,212,4460043,,,,,,,2022-04-22,1,,,,,キタハラショウジ,0
2651,9210001018895,新規,0,2022-04-22,2022-04-22,ＫＡＳ株式会社,,株式会社,福井県,越前市,稲寄町第２０号１５番地の２３,,18,209,9150095,,,,,,,2022-04-22,1,,,,,ケーエーエス,0
2652,9210001018904,新規,0,2022-04-22,2022-04-22,株式会社エルドラ,,株式会社,福井県,福井市,八重巻町第１６号１４番地１,,18,201,9100123,,,,,,,2022-04-22,1,,,,,エルドラ,0
2664,9240001059656,新規,0,2022-04-22,2022-04-22,株式会社９８’ｓＤＣ,,株式会社,広島県,広島市中区,流川町６番５号,,34,101,7300028,,,,,,,2022-04-22,1,,,,,ナインエイツディーシー,0
2665,9240001059664,新規,0,2022-04-22,2022-04-22,株式会社コネクト建工,,株式会社,広島県,広島市安佐南区,伴西６丁目６３１番地１,,34,105,7313169,,,,,,,2022-04-22,1,,,,,コネクトケンコウ,0
2666,9240001059672,新規,0,2022-04-22,2022-04-22,ビーコム株式会社,,株式会社,広島県,広島市中区,南吉島２丁目３番４７号,,34,101,7300826,,,,,,,2022-04-22,1,,,,,ビーコム,0
2668,9250001019519,新規,0,2022-04-22,2022-04-22,株式会社エムエコー,,株式会社,山口県,下関市,彦島江の浦町２丁目２１番１３号,,35,201,7500075,,,,,,,2022-04-22,1,,,,,エムエコー,0
2669,9250001019527,新規,0,2022-04-22,2022-04-22,株式会社ナナ,,株式会社,山口県,周南市,大字徳山５１７３番地１,,35,215,7450851,,,,,,,2022-04-22,1,,,,,ナナ,0
2684,9290005018661,新規,0,2022-04-22,2022-04-22,医療法人ひつじ会,,その他の設立登記法人,福岡県,久留米市,荒木町白口１９０２番地２,,40,203,8300062,,,,,,,2022-04-22,1,,,,,ヒツジカイ,0
2686,9290801028475,新規,0,2022-04-22,2022-04-22,クリアエンジ株式会社,,株式会社,福岡県,北九州市八幡東区,高見３丁目５番６号,,40,108,8050016,,,,,,,2022-04-22,1,,,,,クリアエンジ,0
2687,9290803004111,新規,0,2022-04-22,2022-04-22,ＮＫデザインテック合同会社,,合同会社,福岡県,北九州市小倉北区,馬借１丁目１２番１４－３０１号,,40,106,8020077,,,,,,,2022-04-22,1,,,,,エヌケイデザインテック,0
2690,9330001029674,新規,0,2022-04-22,2022-04-22,ＦＫエレック株式会社,,株式会社,熊本県,菊池郡菊陽町,大字原水２８３６番地１,,43,404,8691102,,,,,,,2022-04-22,1,,,,,エフケイエレック,0
2697,9360001030299,新規,0,2022-04-22,2022-04-22,ＯＲＣ株式会社,,株式会社,沖縄県,那覇市,首里石嶺町３丁目８３番地２パレスキャッスルＹｏｕ２－Ｂ,,47,201,9030804,,,,,,,2022-04-22,1,,,,,オーアールシー,0
2698,9360003011958,新規,0,2022-04-22,2022-04-22,合同会社ハッピーリング,,合同会社,沖縄県,沖縄市,与儀３丁目１番７号プレミアムコート与儀パークヒルズ９Ａ,,47,211,9042174,,,,,,,2022-04-22,1,,,,,ハッピーリング,0
2699,9370001048489,新規,0,2022-04-22,2022-04-22,株式会社アグリふなこし,,株式会社,宮城県,登米市,迫町北方字雀屋敷３３番地,,04,212,9870513,,,,,,,2022-04-22,1,,,,,アグリフナコシ,0
2705,9390001016873,新規,0,2022-04-22,2022-04-22,有路建築株式会社,,株式会社,山形県,山形市,花楯１丁目１２番１号,,06,201,9900067,,,,,,,2022-04-22,1,,,,,アリジケンチク,0
2710,9430001086490,新規,0,2022-04-22,2022-04-22,株式会社Ｎ‐ｓｔｙｌｅ,,株式会社,北海道,札幌市北区,北三十九条西３丁目２番２４号アスティ麻生４０１号,,01,102,0010039,,,,,,,2022-04-22,1,,,,,エヌスタイル,0
2711,9430001086499,新規,0,2022-04-22,2022-04-22,株式会社ＪＡＰＡＮ　ＷｉｎｅＧｒｏｗｅｒｓ,,株式会社,北海道,札幌市中央区,南一条西１６丁目１番地３２３春野ビル３階,,01,101,0600061,,,,,,,2022-04-22,1,,,,,ジャパンワイングロワーズ,0
2712,9430001086516,新規,0,2022-04-22,2022-04-22,株式会社ＡＭＵＭＡ,,株式会社,北海道,小樽市,手宮３丁目９番１２号,,01,203,0470041,,,,,,,2022-04-22,1,,,,,アムマ,0
2716,9440003001455,新規,0,2022-04-22,2022-04-22,合同会社Ｏｗｌ,,合同会社,北海道,函館市,港町１丁目１４番１７号,,01,202,0410821,,,,,,,2022-04-22,1,,,,,アウル,0
2717,9450001013682,新規,0,2022-04-22,2022-04-22,株式会社オクヤマ,,株式会社,北海道,旭川市,永山三条１７丁目３番１７号,,01,204,0798413,,,,,,,2022-04-22,1,,,,,オクヤマ,0
2724,9700150108299,新規,0,2022-04-22,2022-04-22,海南裕元光電科技　駐在員事務所,,外国会社等,福島県,郡山市,駅前２丁目３番７号エリート３０ビル,,07,203,9638002,中国・河南省孟州市高新技朮開＿区創北＿七号楼,00126388,,,,,2022-04-22,1,,,,,ハイナンユウゲンコウデンカギチユウザイインジムシヨ,0
