sequenceNumber,corporateNumber,process,correct,updateDate,changeDate,name,nameImageId,kind,prefectureName,cityName,streetNumber,addressImageId,prefectureCode,cityCode,postCode,addressOutside,addressOutsideImageId,closeDate,closeCause,successorCorporateNumber,changeCause,assignmentDate,latest,enName,enPrefectureName,enCityName,enAddressOutside,furigana,hihyoji
2,1010001015656,登記記録の閉鎖等,0,2025-11-19,2025-11-06,ケイ・サービス株式会社,,株式会社,東京都,千代田区,有楽町２丁目４番１１号,,13,101,1000006,,,2025-11-06,清算の結了等,,,2015-10-05,1,,,,,ケイサービス,0
3,1010001136675,登記記録の閉鎖等,0,2025-11-19,2025-10-27,株式会社ダムトラックス,,株式会社,東京都,渋谷区,幡ヶ谷３丁目３９番１２号渋谷ウェストビル１階,,13,113,1510072,,,2025-10-27,清算の結了等,,,2015-10-05,1,,,,,ダムトラックス,0
5,1010001226583,登記記録の閉鎖等,0,2025-11-19,2025-11-06,株式会社ソアラー,,株式会社,東京都,千代田区,神田司町２丁目１３,,13,101,1010048,,,2025-11-06,清算の結了等,,,2022-05-16,1,,,,,ソアラー,0
22,1010102011224,登記記録の閉鎖等,0,2025-11-19,2025-11-17,有限会社ビオトープ,,有限会社,東京都,八王子市,椚田町５４２－４、１０２号,,13,201,1930942,,,2025-11-17,清算の結了等,,,2015-10-05,1,,,,,ビオトープ,0
23,1010103002387,登記記録の閉鎖等,0,2025-11-19,2025-11-14,安達合同会社,,合同会社,東京都,八王子市,小比企町５３６番地３０守屋コーポ１０３号室,,13,201,1930934,,,2025-11-14,清算の結了等,,,2024-07-12,1,,,,,アンタツ,0
24,1010401003079,登記記録の閉鎖等,0,2025-11-19,2025-10-20,インテリジェント株式会社,,株式会社,東京都,港区,南青山６丁目７－１－３０３号,,13,103,1070062,,,2025-10-20,清算の結了等,,,2015-10-05,1,,,,,インテリジェント,0
25,1010403017085,登記記録の閉鎖等,0,2025-11-19,2025-10-29,Ｂｉｏｍａｓｓ　Ｐｏｗｅｒ　Ｓｉｘ合同会社,,合同会社,東京都,港区,芝３丁目３１番６号サンライズ芝２Ｆ,,13,103,1050014,,,2025-10-29,清算の結了等,,,2017-09-01,1,,,,,バイオマスパワーシックス,0
26,1010403030063,登記記録の閉鎖等,0,2025-11-19,2025-10-29,Ｂｉｏｍａｓｓ　Ｐｏｗｅｒ　Ｎｉｎｅ合同会社,,合同会社,東京都,港区,芝３丁目３１番６号サンライズ芝２Ｆ,,13,103,1050014,,,2025-10-29,清算の結了等,,,2023-05-12,1,,,,,バイオマスパワーナイン,0
30,1010601004249,登記記録の閉鎖等,0,2025-11-19,2025-11-17,株式会社檀建築設計事務所,,株式会社,東京都,新宿区,新宿４丁目２番７号,,13,104,1600022,,,2025-11-17,清算の結了等,,,2015-10-05,1,,,,,,0
33,1010602017860,登記記録の閉鎖等,0,2025-11-19,2025-11-10,有限会社エムアンドエヌワークス,,有限会社,東京都,江東区,永代１丁目５番２号,,13,108,1350034,,,2025-11-10,清算の結了等,,,2015-10-05,1,,,,,エムアンドエヌワークス,0
67,1011102011940,登記記録の閉鎖等,0,2025-11-19,2025-11-17,有限会社マグラーデザインスタジオ,,有限会社,東京都,新宿区,四谷４丁目３番地エクシーナ四谷８０２,,13,104,1600004,,,2025-11-17,清算の結了等,,,2015-10-05,1,,,,,マグラーデザインスタジオ,0
82,1012802000233,登記記録の閉鎖等,0,2025-11-19,2025-11-13,有限会社イタキ,,有限会社,東京都,立川市,若葉町３丁目５７番地３,,13,202,1900001,,,2025-11-13,清算の結了等,,,2015-10-05,1,,,,,イタキ,0
90,1013402006249,登記記録の閉鎖等,0,2025-11-19,2025-11-17,有限会社シンシア,,有限会社,東京都,多摩市,中沢２丁目１１番地４－３０２,,13,224,2060036,,,2025-11-17,清算の結了等,,,2015-10-05,1,,,,,シンシア,0
102,1030001124934,登記記録の閉鎖等,0,2025-11-19,2025-11-11,栄凱日本株式会社,,株式会社,埼玉県,加須市,鴻茎２００４－２,,11,210,3470111,,,2025-11-11,清算の結了等,,,2018-04-10,1,"RONGKAI JAPAN CO.,LTD.",Saitama,"2004-2,kouguki, Kazo shi",,エイガイ,0
110,1030002070500,登記記録の閉鎖等,0,2025-11-19,2025-11-12,有限会社とらや,,有限会社,埼玉県,北葛飾郡杉戸町,杉戸２丁目１４番９号,,11,464,3450036,,,2025-11-12,清算の結了等,,,2015-10-05,1,,,,,トラヤ,0
111,1040001051013,登記記録の閉鎖等,0,2025-11-19,2025-10-22,両総通運株式会社,,株式会社,千葉県,木更津市,中央１丁目１番６号,,12,206,2920067,,,2025-10-22,清算の結了等,,,2015-10-05,1,,,,,リョウソウツウウン,0
119,1040002014019,登記記録の閉鎖等,0,2025-11-19,2025-10-21,有限会社ひまわり,,有限会社,千葉県,千葉市緑区,あすみが丘２丁目２７番地１,,12,105,2670066,,,2025-10-21,清算の結了等,,,2015-10-05,1,,,,,ヒマワリ,0
139,1080101000080,登記記録の閉鎖等,0,2025-11-19,2025-11-12,静岡沢井薬品株式会社,,株式会社,静岡県,沼津市,大岡３３３３番地の１,,22,203,4100022,,,2025-11-12,合併による解散等,6030001066965,令和７年１０月１日大阪府茨木市西駅前町１３番２５号株式会社ウィーズ（6030001066965）に合併し解散,2015-10-05,1,,,,,シズオカサワイヤクヒン,0
147,1080402005654,登記記録の閉鎖等,0,2025-11-19,2025-11-06,長尾硝子建材有限会社,,有限会社,静岡県,浜松市中央区,高丘東２丁目１７番８号,,22,138,4338117,,,2025-11-06,清算の結了等,,,2015-10-05,1,,,,,ナガオガラスケンザイ,0
158,1120001197310,登記記録の閉鎖等,0,2025-11-19,2025-11-14,株式会社エイチ・ツー・オー食品グループ,,株式会社,大阪府,大阪市北区,角田町８番７号,,27,127,5300017,,,2025-11-14,清算の結了等,,,2016-04-06,1,,,,,エイチツーオーショクヒングループ,0
161,1120001226655,登記記録の閉鎖等,0,2025-11-19,2025-11-17,株式会社ＳＵＧＡＴＡ,,株式会社,大阪府,枚方市,桜丘町２６番１－３０７号,,27,210,5730018,,,2025-11-17,清算の結了等,,,2020-01-24,1,,,,,スガタ,0
173,1120901021024,登記記録の閉鎖等,0,2025-11-19,2025-11-06,明和開発株式会社,,株式会社,大阪府,箕面市,西小路３丁目１番４号,,27,220,5620003,,,2025-11-06,清算の結了等,,,2015-10-05,1,,,,,メイワカイハツ,0
178,1122001005907,登記記録の閉鎖等,0,2025-11-19,2025-11-04,株式会社ハクミ製作所,,株式会社,大阪府,東大阪市,三島３丁目１８番５０号,,27,227,5780966,,,2025-11-04,清算の結了等,,,2015-10-05,1,,,,,ハクミセイサクショ,0
183,1140001016609,登記記録の閉鎖等,0,2025-11-19,2025-11-14,日幸電気工業株式会社,,株式会社,兵庫県,神戸市長田区,長楽町２丁目１番１４号,,28,106,6530054,,,2025-11-14,清算の結了等,,,2015-10-05,1,,,,,ニッコウデンキコウギョウ,0
184,1140001097954,登記記録の閉鎖等,0,2025-11-19,2025-11-11,株式会社ＴＲＫ,,株式会社,兵庫県,尼崎市,東園田町４丁目１０１－７,,28,202,6610953,,,2025-11-11,清算の結了等,,,2015-10-05,1,,,,,ティーアールケー,0
186,1140001112837,登記記録の閉鎖等,0,2025-11-19,2025-11-13,株式会社ＭＨ　ＤＥＳＩＧＮＳ,,株式会社,兵庫県,神戸市中央区,多聞通４丁目１－１０,,28,110,6500015,,,2025-11-13,清算の結了等,,,2019-02-26,1,,,,,エムエイチデザインズ,0
190,1140002024825,登記記録の閉鎖等,0,2025-11-19,2025-11-12,株式会社ＣＬＯＳＥ,,株式会社,兵庫県,神戸市兵庫区,五宮町３番２号,,28,105,6520007,,,2025-11-12,清算の結了等,,,2015-10-05,1,,,,,クロウズ,0
191,1140002041969,登記記録の閉鎖等,0,2025-11-19,2025-10-30,有限会社西尾鉄工,,有限会社,兵庫県,尼崎市,杭瀬南新町１丁目５番１１号,,28,202,6600822,,,2025-10-30,清算の結了等,,,2015-10-05,1,,,,,ニシオテッコウ,0
193,1160001021540,登記記録の閉鎖等,0,2025-11-19,2025-11-13,しろやま株式会社,,株式会社,滋賀県,甲賀市,信楽町神山１４１７番地,,25,209,5291812,,,2025-11-13,合併による解散等,4190001008573,令和７年１１月１日三重県伊賀市丸柱５６９番地長谷製陶株式会社（4190001008573）に合併し解散,2019-03-15,1,,,,,シロヤマ,0
194,1160002007506,登記記録の閉鎖等,0,2025-11-19,2025-11-13,有限会社別府パソコン,,有限会社,滋賀県,長浜市,南田附町１１１番地の３,,25,203,5260844,,,2025-11-13,清算の結了等,,,2015-10-05,1,,,,,ベップパソコン,0
210,1180002083132,登記記録の閉鎖等,0,2025-11-19,2025-11-14,有限会社イワイ,,有限会社,愛知県,半田市,住吉町１丁目３７番地,,23,205,4750862,,,2025-11-14,清算の結了等,,,2015-10-05,1,,,,,イワイ,0
216,1180302020462,登記記録の閉鎖等,0,2025-11-19,2025-11-14,幸栄産業有限会社,,有限会社,愛知県,高浜市,稗田町４丁目３番地８,00075142,23,227,4441321,,,2025-11-14,清算の結了等,,,2015-10-05,1,,,,,コウエイサンギョウ,0
223,1200001034884,登記記録の閉鎖等,0,2025-11-19,2025-11-14,株式会社フルハウスサポート,,株式会社,岐阜県,揖斐郡池田町,本郷１１７８番地の２,,21,404,5032417,,,2025-11-14,清算の結了等,,,2018-02-15,1,,,,,フルハウスサポート,0
232,1280002006941,登記記録の閉鎖等,0,2025-11-19,2025-11-18,地合定置網漁業有限会社,,有限会社,島根県,出雲市,地合町１０４６番地１,,32,203,6910071,,,2025-11-18,清算の結了等,,,2015-10-05,1,,,,,チゴウテイチアミギョギョウ,0
233,1290001032608,登記記録の閉鎖等,0,2025-11-19,2025-11-12,アンプロデュース株式会社,,株式会社,福岡県,福岡市中央区,天神４丁目４番３０号天神西江ビル６Ｆ,,40,133,8100001,,,2025-11-12,清算の結了等,,,2015-10-05,1,,,,,アンプロデュース,0
234,1290001048307,登記記録の閉鎖等,0,2025-11-19,2025-11-11,株式会社アクロス九州,,株式会社,福岡県,久留米市,大善寺町宮本１４６８番地の２,,40,203,8300073,,,2025-11-11,清算の結了等,,,2015-10-05,1,,,,,アクロスキュウシュウ,0
252,1370002007385,登記記録の閉鎖等,0,2025-11-19,2025-11-11,有限会社児玉和裁,,有限会社,宮城県,仙台市宮城野区,栄４丁目１３番５号,,04,102,9830011,,,2025-11-11,清算の結了等,,,2015-10-05,1,,,,,コダマワサイ,0
256,1390002011220,登記記録の閉鎖等,0,2025-11-19,2025-11-14,有限会社深田農産しめじセンター,,有限会社,山形県,最上郡鮭川村,大字中渡９９番地,,06,366,9995205,,,2025-11-14,清算の結了等,,,2015-10-05,1,,,,,フカダノウサンシメジセンター,0
259,1400001004314,登記記録の閉鎖等,0,2025-11-19,2025-11-11,株式会社つばさ工業,,株式会社,岩手県,岩手郡葛巻町,江刈第８地割２３番地４,,03,302,0285403,,,2025-11-11,清算の結了等,,,2015-10-05,1,,,,,ツバサコウギョウ,0
263,1400603000090,登記記録の閉鎖等,0,2025-11-19,2025-11-10,合資会社田中産業,,合資会社,岩手県,胆沢郡金ケ崎町,永沢田中１番地,,03,381,0294504,,,2025-11-10,清算の結了等,,,2015-10-05,1,,,,,タナカサンギョウ,0
270,1430002045222,登記記録の閉鎖等,0,2025-11-19,2025-11-11,有限会社アルケミワークス,,有限会社,埼玉県,新座市,野火止５丁目４番１２号,,11,230,3520011,,,2025-11-11,清算の結了等,,,2015-10-05,1,,,,,アルケミワークス,0
300,2010401057264,登記記録の閉鎖等,0,2025-11-19,2025-10-24,株式会社マリソル,,株式会社,東京都,港区,芝３丁目２１番１０－９０５号,,13,103,1050014,,,2025-10-24,清算の結了等,,,2015-10-05,1,,,,,,0
305,2010403017084,登記記録の閉鎖等,0,2025-11-19,2025-10-29,Ｂｉｏｍａｓｓ　Ｐｏｗｅｒ　Ｆｉｖｅ合同会社,,合同会社,東京都,港区,芝３丁目３１番６号サンライズ芝２Ｆ,,13,103,1050014,,,2025-10-29,清算の結了等,,,2017-09-01,1,,,,,バイオマスパワーファイブ,0
309,2010702006952,登記記録の閉鎖等,0,2025-11-19,2025-11-13,有限会社フィールド・エム,,有限会社,東京都,品川区,戸越６丁目１３番１８号,,13,109,1420041,,,2025-11-13,清算の結了等,,,2015-10-05,1,,,,,,0
313,2010802008691,登記記録の閉鎖等,0,2025-11-19,2025-11-04,タキシード不動産有限会社,,有限会社,東京都,大田区,蒲田本町１丁目２番５号,,13,111,1440053,,,2025-11-04,合併による解散等,9010803004188,令和７年１１月１日東京都大田区蒲田本町一丁目２番５号合同会社Ｓｅｅｄ・Ｆ（9010803004188）に合併し解散,2015-10-05,1,,,,,タキシードフドウサン,0
316,2011001054890,登記記録の閉鎖等,0,2025-11-19,2025-10-27,株式会社ゼフ,,株式会社,東京都,渋谷区,恵比寿西１丁目７番２号内健ビル２階,,13,113,1500021,,,2025-10-27,清算の結了等,,,2015-10-05,1,,,,,,0
317,2011001110322,登記記録の閉鎖等,0,2025-11-19,2025-11-04,株式会社アブクシー,,株式会社,東京都,渋谷区,東１丁目２６番３０号,,13,113,1500011,,,2025-11-04,清算の結了等,,,2016-04-08,1,,,,,アブクシー,0
320,2011001141895,登記記録の閉鎖等,0,2025-11-19,2025-10-31,株式会社Ｅｎｅｒｇｙ　Ｂａｔｏｎ,,株式会社,東京都,渋谷区,円山町５番５号Ｎａｖｉ渋谷Ｖ３階,,13,113,1500044,,,2025-10-31,清算の結了等,,,2021-07-28,1,,,,,エナジーバトン,0
350,2013303006891,登記記録の閉鎖等,0,2025-11-19,2025-11-07,合同会社シェファーズパース,,合同会社,東京都,豊島区,巣鴨５丁目２０番８号,,13,116,1700002,,,2025-11-07,清算の結了等,,,2023-11-29,1,,,,,シェファーズパース,0
361,2020002105999,登記記録の閉鎖等,0,2025-11-19,2025-11-04,有限会社別井商会,,有限会社,神奈川県,川崎市幸区,北加瀬３丁目５番５号,,14,132,2120057,,,2025-11-04,清算の結了等,,,2015-10-05,1,,,,,ベツイショウカイ,0
364,2020005015634,登記記録の閉鎖等,0,2025-11-19,2025-11-10,一般社団法人かながわ婦人懇話会,,その他の設立登記法人,神奈川県,横浜市港南区,港南台４丁目４番５号,,14,111,2340054,,,2025-11-10,清算の結了等,,,2022-08-24,1,,,,,カナガワフジンコンワカイ,0
374,2030001151696,登記記録の閉鎖等,0,2025-11-19,2025-11-11,株式会社日本大家不動産,,株式会社,東京都,渋谷区,代々木２丁目２３番１号,,13,113,1510053,,,2025-11-11,清算の結了等,,,2023-01-17,1,,,,,ニホンオオヤフドウサン,0
386,2040002066406,登記記録の閉鎖等,0,2025-11-19,2025-10-22,有限会社華美,,有限会社,千葉県,木更津市,岩根４丁目６番３１号,,12,206,2920061,,,2025-10-22,清算の結了等,,,2015-10-05,1,,,,,,0
393,2050001047843,登記記録の閉鎖等,0,2025-11-19,2025-11-12,株式会社３ＰＩＥＣＥ,,株式会社,茨城県,つくばみらい市,陽光台１丁目１８番地５ＭＴＣビル２Ｆ－１,,08,235,3002358,,,2025-11-12,清算の結了等,,,2020-07-30,1,,,,,スリーピース,0
399,2070001032356,登記記録の閉鎖等,0,2025-11-19,2025-11-13,株式会社藤,,株式会社,群馬県,渋川市,吹屋５８２番地５,,10,208,3770203,,,2025-11-13,清算の結了等,,,2016-06-29,1,,,,,フジ,0
409,2080402001280,登記記録の閉鎖等,0,2025-11-19,2025-11-12,有限会社エスケー,,有限会社,静岡県,浜松市浜名区,三ヶ日町都筑２４８０番３,,22,139,4311402,,,2025-11-12,合併による解散等,6030001066965,令和７年１０月１日大阪府茨木市西駅前町１３番２５号株式会社ウィーズ（6030001066965）に合併し解散,2015-10-05,1,,,,,エスケー,0
419,2110002034974,登記記録の閉鎖等,0,2025-11-19,2025-11-17,有限会社萬興業,,有限会社,新潟県,佐渡市,下横山５３番地,,15,224,9520025,,,2025-11-17,清算の結了等,,,2015-10-05,1,,,,,,0
426,2120901036863,登記記録の閉鎖等,0,2025-11-19,2025-11-13,関西地盤テクノ株式会社,,株式会社,大阪府,箕面市,箕面５丁目１２番７１号,,27,220,5620001,,,2025-11-13,清算の結了等,,,2016-04-27,1,,,,,,0
434,2140001073244,登記記録の閉鎖等,0,2025-11-19,2025-11-11,株式会社サークルＧ,,株式会社,兵庫県,西宮市,名塩ガーデン６番１２号,,28,204,6691143,,,2025-11-11,清算の結了等,,,2015-10-05,1,,,,,サークルジー,0
446,2140002071395,登記記録の閉鎖等,0,2025-11-19,2025-11-12,有限会社ピエロ,,有限会社,兵庫県,姫路市,中呉服町８番地１,,28,201,6700000,,,2025-11-12,清算の結了等,,,2024-11-14,1,,,,,ピエロ,1
449,2150002003174,登記記録の閉鎖等,0,2025-11-19,2025-11-17,有限会社ヒロメディカル,,有限会社,奈良県,奈良市,押熊町１３２１番地の１,,29,201,6310011,,,2025-11-17,清算の結了等,,,2015-10-05,1,,,,,ヒロメディカル,0
453,2160001015616,登記記録の閉鎖等,0,2025-11-19,2025-11-14,株式会社伸栄電設,,株式会社,滋賀県,野洲市,小堤６３７番地,,25,210,5202314,,,2025-11-14,清算の結了等,,,2015-10-05,1,,,,,シンエイデンセツ,0
457,2180001121759,登記記録の閉鎖等,0,2025-11-19,2025-11-11,株式会社フォルム,,株式会社,愛知県,名古屋市中区,栄３丁目８番２１号,,23,106,4600008,,,2025-11-11,清算の結了等,,,2016-01-18,1,,,,,フォルム,0
462,2180003001471,登記記録の閉鎖等,0,2025-11-19,2025-11-14,合資会社服部製作所,00073723,合資会社,愛知県,名古屋市港区,港楽３丁目１１番６号,,23,111,4550014,,,2025-11-14,清算の結了等,,,2015-10-05,1,,,,,ハットリセイサクショ,0
469,2190002004466,登記記録の閉鎖等,0,2025-11-19,2025-11-13,有限会社ジョイツアーズ,,有限会社,三重県,津市,野田２１番地３７５,,24,201,5140826,,,2025-11-13,清算の結了等,,,2015-10-05,1,,,,,,0
470,2190005007482,登記記録の閉鎖等,0,2025-11-19,2025-11-17,特定非営利活動法人日本情報出版協会,,その他の設立登記法人,三重県,松阪市,駅部田町１０１番地,,24,204,5150045,,,2025-11-17,清算の結了等,,,2015-10-05,1,,,,,ニホンジョウホウシュッパンキョウカイ,0
477,2200002025551,登記記録の閉鎖等,0,2025-11-19,2025-11-13,有限会社鳥海,,有限会社,岐阜県,高山市,石浦町５丁目２５０番地,,21,203,5060825,,,2025-11-13,清算の結了等,,,2015-10-05,1,,,,,チョウカイ,0
479,2220002012309,登記記録の閉鎖等,0,2025-11-19,2025-11-13,有限会社機工サービス,,有限会社,大阪府,高槻市,唐崎中１丁目７番１２号リーベグラス１０１号,,27,207,5690832,,,2025-11-13,清算の結了等,,,2015-10-05,1,,,,,,0
481,2230002010831,登記記録の閉鎖等,0,2025-11-19,2025-11-11,有限会社梶沢石油店,,有限会社,富山県,高岡市,上渡４０番地の１,,16,202,9330341,,,2025-11-11,清算の結了等,,,2015-10-05,1,,,,,カジサワセキユテン,0
489,2270001003956,登記記録の閉鎖等,0,2025-11-19,2025-11-17,株式会社名和精密,,株式会社,鳥取県,西伯郡大山町,高田１２７８番地,,31,386,6893224,,,2025-11-17,清算の結了等,,,2015-10-05,1,,,,,ナワセイミツ,0
490,2290001042985,登記記録の閉鎖等,0,2025-11-19,2025-11-04,株式会社フォレスト・コーポレーション,,株式会社,福岡県,福岡市博多区,板付４丁目１０番７号,,40,132,8120888,,,2025-11-04,合併による解散等,7290001013288,令和７年１１月１日福岡市博多区板付二丁目１３番１２号株式会社三恵（7290001013288）に合併し解散,2015-10-05,1,,,,,フォレストコーポレーション,0
492,2290001076554,登記記録の閉鎖等,0,2025-11-19,2025-10-21,株式会社ｓｏｌ　ｎｏｉｒｅ,,株式会社,福岡県,福岡市東区,奈多１丁目１２番３０号,,40,131,8110204,,,2025-10-21,清算の結了等,,,2017-02-01,1,,,,,,0
495,2290002050748,登記記録の閉鎖等,0,2025-11-19,2025-11-11,有限会社ユウメイト,,有限会社,福岡県,久留米市,南４丁目７－２７,,40,203,8300051,,,2025-11-11,清算の結了等,,,2015-10-05,1,,,,,ユウメイト,0
497,2290805003101,登記記録の閉鎖等,0,2025-11-19,2025-11-06,清藤寺,00094849,その他の設立登記法人,福岡県,北九州市門司区,元清滝４番７号,,40,101,8010832,,,2025-11-06,清算の結了等,,,2015-10-05,1,,,,,,0
503,2320001008867,登記記録の閉鎖等,0,2025-11-19,2025-11-12,株式会社Ｆｕｊｉ船員企画,,株式会社,大分県,大分市,上野丘西１２番９号フロンティアビル３０１号,,44,201,8700834,,,2025-11-12,清算の結了等,,,2015-10-05,1,,,,,フジセンインキカク,0
509,2370001020330,登記記録の閉鎖等,0,2025-11-19,2025-11-11,株式会社サンケンアロー,,株式会社,宮城県,仙台市宮城野区,田子２丁目１８番１－１０５号,,04,102,9830021,,,2025-11-11,清算の結了等,,,2015-10-05,1,,,,,サンケンアロー,0
513,2380002016434,登記記録の閉鎖等,0,2025-11-19,2025-11-14,有限会社東和,,有限会社,福島県,二本松市,戸沢字井田久５３番地,,07,210,9640201,,,2025-11-14,清算の結了等,,,2015-10-05,1,,,,,トウワ,0
514,2390002008579,登記記録の閉鎖等,0,2025-11-19,2025-11-14,有限会社富樫重建機工業,,有限会社,山形県,東田川郡庄内町,余目字大塚１０７番地１８,,06,428,9997781,,,2025-11-14,清算の結了等,,,2015-10-05,1,,,,,トガシジュウケンキコウギョウ,0
535,3010001249120,登記記録の閉鎖等,0,2025-11-19,2025-11-17,トライデントホールディングス株式会社,,株式会社,東京都,千代田区,二番町九丁目３番ＴＨＥＢＡＳＥ麹町１階,,13,101,1020084,,,2025-11-17,合併による解散等,5010003027976,令和７年１０月１日東京都渋谷区神宮前六丁目２３番４号桑野ビル２階ＩＰＩ合同会社（5010003027976）に合併し解散,2024-10-18,1,,,,,トライデントホールディングス,0
541,3010003032904,登記記録の閉鎖等,0,2025-11-19,2025-10-31,ＨＫＫＭ合同会社,,合同会社,東京都,中央区,銀座７丁目１３番６号サガミビル２階,,13,102,1040061,,,2025-10-31,清算の結了等,,,2020-08-25,1,,,,,エイチケイケイエム,0
543,3010005027596,登記記録の閉鎖等,0,2025-11-19,2025-11-14,一般社団法人はやぶさホテル札幌ホールディングス,,その他の設立登記法人,東京都,千代田区,平河町１丁目６番１５号シルスフィア会計事務所内,,13,101,1020093,,,2025-11-14,清算の結了等,,,2017-10-17,1,,,,,ハヤブサホテルサッポロホールディングス,0
553,3010403016060,登記記録の閉鎖等,0,2025-11-19,2025-10-29,Ｂｉｏｍａｓｓ　Ｐｏｗｅｒ　Ｔｗｏ合同会社,,合同会社,東京都,港区,芝３丁目３１番６号サンライズ芝２Ｆ,,13,103,1050014,,,2025-10-29,清算の結了等,,,2017-02-08,1,,,,,バイオマスパワーツー,0
560,3010703005267,登記記録の閉鎖等,0,2025-11-19,2025-10-20,株式会社ＡＩ　ＩＮＮＯＶＡＴＩＯＮ,,株式会社,東京都,渋谷区,初台１丁目４９番２－１３０３,,13,113,1510061,,,2025-10-20,合併による解散等,9200001041980,令和７年１０月２０日東京都渋谷区初台１－４８－５－８０３株式会社ＡＩ　ＩＮＮＯＶＡＴＩＯＮ（9200001041980）に合併し解散,2020-06-04,1,,,,,エーアイイノベーション,0
566,3010902000903,登記記録の閉鎖等,0,2025-11-19,2025-11-17,有限会社アンフイニ,,有限会社,東京都,世田谷区,尾山台３丁目１４番１４号,,13,112,1580086,,,2025-11-17,清算の結了等,,,2015-10-05,1,,,,,アンフイニ,0
574,3011001069624,登記記録の閉鎖等,0,2025-11-19,2025-10-16,株式会社日本ネットワークヴィジョン,,株式会社,東京都,渋谷区,渋谷３丁目１番９号ＹＡＺＡＷＡビル３階,,13,113,1500002,,,2025-10-16,清算の結了等,,,2015-10-05,1,,,,,ニホンネットワークヴィジョン,0
576,3011001105379,登記記録の閉鎖等,0,2025-11-19,2025-11-04,バグジー株式会社,,株式会社,東京都,渋谷区,元代々木町９番２号,,13,113,1510062,,,2025-11-04,清算の結了等,,,2015-10-05,1,,,,,,0
578,3011001153510,登記記録の閉鎖等,0,2025-11-19,2025-10-21,株式会社ＳＵＧＵＫＵＲＵ,,株式会社,東京都,渋谷区,道玄坂１丁目１６番６号二葉ビル８ｂ,,13,113,1500043,,,2025-10-21,清算の結了等,,,2023-04-06,1,,,,,スグクル,0
586,3011103007465,登記記録の閉鎖等,0,2025-11-19,2025-11-17,ＣＳ広島鈴張合同会社,,合同会社,東京都,世田谷区,経堂５丁目２０番地７,,13,112,1560052,,,2025-11-17,清算の結了等,,,2017-11-16,1,,,,,シーエスヒロシマスズハリ,0
598,3011701004780,登記記録の閉鎖等,0,2025-11-19,2025-11-11,株式会社ダイユー,,株式会社,東京都,江戸川区,北小岩３丁目２０番１９号,,13,123,1330051,,,2025-11-11,清算の結了等,,,2015-10-05,1,,,,,ダイユー,0
601,3011802012872,登記記録の閉鎖等,0,2025-11-19,2025-11-12,有限会社サンワ靴店,,有限会社,東京都,足立区,扇１丁目２１番１９－２０１号,,13,121,1230873,,,2025-11-12,清算の結了等,,,2015-10-05,1,,,,,サンワクツテン,0
604,3013302006470,登記記録の閉鎖等,0,2025-11-19,2025-11-12,有限会社ティアンドエム建築設計事務所,,有限会社,埼玉県,朝霞市,西原２丁目１５番１０号ビーフロスト２０７号,,11,227,3510034,,,2025-11-12,清算の結了等,,,2015-10-05,1,,,,,ティアンドエムケンチクセッケイジムショ,0
609,3020001048224,登記記録の閉鎖等,0,2025-11-19,2025-11-11,株式会社ワイズクリエーション,,株式会社,神奈川県,横浜市青葉区,新石川２丁目５番地１６Ｄ’グラディアたまプラーザ２０１,,14,117,2250003,,,2025-11-11,清算の結了等,,,2015-10-05,1,,,,,ワイズクリエーション,0
616,3021001039485,登記記録の閉鎖等,0,2025-11-19,2025-11-04,湘南技研株式会社,,株式会社,神奈川県,茅ヶ崎市,南湖５丁目１７番６８号,,14,207,2530061,,,2025-11-04,清算の結了等,,,2015-10-05,1,,,,,ショウナンギケン,0
622,3021002028850,登記記録の閉鎖等,0,2025-11-19,2025-10-29,有限会社ＳＫ商事,,有限会社,神奈川県,相模原市緑区,根小屋６５４,,14,151,2520153,,,2025-10-29,清算の結了等,,,2015-10-05,1,,,,,エスケーショウジ,0
625,3021002053584,登記記録の閉鎖等,0,2025-11-19,2025-11-04,有限会社桜堂,,有限会社,神奈川県,足柄下郡真鶴町,真鶴１９４６番地６５,,14,383,2590201,,,2025-11-04,清算の結了等,,,2015-10-05,1,,,,,サクラドウ,0
634,3030002069318,登記記録の閉鎖等,0,2025-11-19,2025-11-10,有限会社マルエスサービス,,有限会社,埼玉県,春日部市,小渕字山下１０２７番１１,,11,214,3440007,,,2025-11-10,清算の結了等,,,2015-10-05,1,,,,,マルエスサービス,0
660,3080001024442,登記記録の閉鎖等,0,2025-11-19,2025-11-12,株式会社こすも薬局,,株式会社,静岡県,静岡市駿河区,大谷２７８７番地の６７,,22,102,4228017,,,2025-11-12,合併による解散等,6030001066965,令和７年１０月１日大阪府茨木市西駅前町１３番２５号株式会社ウィーズ（6030001066965）に合併し解散,2021-09-14,1,,,,,コスモヤッキョク,0
669,3110005016770,登記記録の閉鎖等,0,2025-11-19,2025-11-11,一般社団法人にいがた相続・事業承継支援機構,,その他の設立登記法人,新潟県,新潟市中央区,東大通１丁目４番５号,,15,103,9500087,,,2025-11-11,清算の結了等,,,2022-04-01,1,,,,,ニイガタソウゾクジギョウショウケイシエンキコウ,0
671,3120001020263,登記記録の閉鎖等,0,2025-11-19,2025-11-17,澤田建設株式会社,,株式会社,大阪府,大阪市平野区,平野宮町２丁目２番４１号,,27,126,5470046,,,2025-11-17,清算の結了等,,,2015-10-05,1,,,,,サワダケンセツ,0
688,3120002010899,登記記録の閉鎖等,0,2025-11-19,2025-11-17,有限会社鴨谷,,有限会社,大阪府,大阪市平野区,平野上町２丁目４番２号,,27,126,5470045,,,2025-11-17,清算の結了等,,,2015-10-05,1,,,,,カモタニ,0
708,3130001047099,登記記録の閉鎖等,0,2025-11-19,2025-11-17,株式会社はーとるーぷ,,株式会社,京都府,京都市伏見区,醍醐構口町２８－１ルネスピース醍醐１Ｆ,,26,109,6011354,,,2025-11-17,清算の結了等,,,2015-10-05,1,,,,,ハートループ,0
709,3130001055358,登記記録の閉鎖等,0,2025-11-19,2025-11-17,オウエン株式会社,,株式会社,京都府,京都市中京区,夷川通油小路西入る西夷川町５６３番地夷川ビル３０３号室,,26,104,6040000,,,2025-11-17,清算の結了等,,,2015-10-05,1,,,,,オウエン,0
727,3140002066329,登記記録の閉鎖等,0,2025-11-19,2025-11-14,有限会社ＨＳＫ,,有限会社,兵庫県,伊丹市,東有岡３丁目１７２番地,,28,207,6640845,,,2025-11-14,合併による解散等,3120001070226,令和７年１１月１日大阪市北区豊崎西通三丁目４番地株式会社平原精機工業（3120001070226）に合併し解散,2015-10-05,1,,,,,エイチエスケー,0
733,3150002010970,登記記録の閉鎖等,0,2025-11-19,2025-11-17,有限会社シップス,,有限会社,奈良県,五條市,住川町１８６番地の１,,29,207,6370014,,,2025-11-17,清算の結了等,,,2015-10-05,1,,,,,シップス,0
736,3170001010284,登記記録の閉鎖等,0,2025-11-19,2025-11-17,株式会社大志建設,,株式会社,和歌山県,日高郡由良町,大字吹井２５２番地の２９,,30,383,6491121,,,2025-11-17,清算の結了等,,,2015-10-05,1,,,,,タイシケンセツ,0
750,3180002057778,登記記録の閉鎖等,0,2025-11-19,2025-11-14,有限会社ネオコーポレーション,,有限会社,愛知県,名古屋市昭和区,村雲町２０番６号,,23,107,4660052,,,2025-11-14,清算の結了等,,,2015-10-05,1,,,,,ネオコーポレーション,0
757,3190002008367,登記記録の閉鎖等,0,2025-11-19,2025-11-12,有限会社梅田左官店,,有限会社,三重県,伊勢市,前山町６９９番地２,,24,203,5160044,,,2025-11-12,清算の結了等,,,2015-10-05,1,,,,,ウメダサカンテン,0
763,3200005013222,登記記録の閉鎖等,0,2025-11-19,2025-11-14,特定非営利活動法人セブンシーズ,,その他の設立登記法人,岐阜県,関市,武芸川町小知野８２０番地１,,21,205,5012602,,,2025-11-14,清算の結了等,,,2021-07-21,1,,,,,セブンシーズ,0
764,3210001010049,登記記録の閉鎖等,0,2025-11-19,2025-11-14,瀬戸レース株式会社,,株式会社,福井県,勝山市,昭和町３丁目２番５８号,,18,206,9110802,,,2025-11-14,清算の結了等,,,2015-10-05,1,,,,,セトレース,0
768,3230002002258,登記記録の閉鎖等,0,2025-11-19,2025-11-12,有限会社データ・ボックス,,有限会社,富山県,富山市,根塚町３丁目７番地の１,,16,201,9398204,,,2025-11-12,清算の結了等,,,2015-10-05,1,,,,,データボックス,0
777,3250001015291,登記記録の閉鎖等,0,2025-11-19,2025-11-17,株式会社北島打設,,株式会社,山口県,下関市,彦島向井町２丁目２１番８号,,35,201,7500084,,,2025-11-17,清算の結了等,,,2015-10-05,1,,,,,キタジマダセツ,0
786,3290002007862,登記記録の閉鎖等,0,2025-11-19,2025-11-11,有限会社かねくら,,有限会社,福岡県,福岡市早良区,小田部１丁目１０番２２号,,40,137,8140032,,,2025-11-11,清算の結了等,,,2015-10-05,1,,,,,カネクラ,0
787,3290002017044,登記記録の閉鎖等,0,2025-11-19,2025-11-11,有限会社稗田建材,00093115,有限会社,福岡県,福岡市博多区,春町３丁目９番６号,,40,132,8120872,,,2025-11-11,清算の結了等,,,2015-10-05,1,,,,,ヒエダケンザイ,0
802,3380005012330,登記記録の閉鎖等,0,2025-11-19,2025-11-12,一般社団法人双葉町復興推進協議会,,その他の設立登記法人,福島県,双葉郡双葉町,大字長塚字鬼木３５番地,,07,546,9791471,,,2025-11-12,清算の結了等,,,2020-08-03,1,,,,,フタバマチフッコウスイシンキョウギカイ,0
804,3390005008682,登記記録の閉鎖等,0,2025-11-19,2025-10-29,一般社団法人とびしま,,その他の設立登記法人,山形県,酒田市,飛島字法木乙２２０番地,,06,204,9980281,,,2025-10-29,清算の結了等,,,2018-01-22,1,,,,,トビシマ,0
807,3430001041716,登記記録の閉鎖等,0,2025-11-19,2025-11-17,株式会社アレグリア,,株式会社,北海道,札幌市西区,宮の沢四条３丁目２０番１号,,01,107,0630054,,,2025-11-17,清算の結了等,,,2015-10-05,1,,,,,アレグリア,0
820,4010001235953,登記記録の閉鎖等,0,2025-11-19,2025-10-24,株式会社Ｆｉｔ　Ｎｅｔｗｏｒｋｓ,,株式会社,東京都,千代田区,富士見１丁目３番１１号,,13,101,1020071,,,2025-10-24,清算の結了等,,,2023-06-15,1,,,,,フィットネットワークス,0
833,4010102005124,登記記録の閉鎖等,0,2025-11-19,2025-11-17,有限会社なら一工務店,,有限会社,東京都,八王子市,中野上町４丁目２６番２９号,,13,201,1920041,,,2025-11-17,清算の結了等,,,2015-10-05,1,,,,,,0
840,4010403017041,登記記録の閉鎖等,0,2025-11-19,2025-11-06,センチュリオン・ワン合同会社,,合同会社,東京都,港区,西新橋１丁目１番１号ＥＰコンサルティングサービス内,,13,103,1050003,,,2025-11-06,清算の結了等,,,2017-08-15,1,,,,,センチュリオンワン,0
847,4010602002505,登記記録の閉鎖等,0,2025-11-19,2025-11-11,有限会社篠田鉄工所,,有限会社,東京都,江東区,東陽５丁目３１番８号,,13,108,1350016,,,2025-11-11,清算の結了等,,,2015-10-05,1,,,,,シノダテッコウショ,0
848,4010602027535,登記記録の閉鎖等,0,2025-11-19,2025-11-12,Ｒ＆Ｅ　Ｍａｎａｇｅｍｅｎｔ有限会社,,有限会社,東京都,中野区,野方１丁目２９番１－６０４号,,13,114,1650027,,,2025-11-12,清算の結了等,,,2015-10-05,1,,,,,アールアンドイーマネージメント,0
876,4011202011433,登記記録の閉鎖等,0,2025-11-19,2025-11-13,有限会社コスモエンタープライズ,,有限会社,東京都,中野区,上鷺宮３丁目９－２－４３２,,13,114,1650031,,,2025-11-13,清算の結了等,,,2015-10-05,1,,,,,コスモエンタープライズ,0
889,4012402011644,登記記録の閉鎖等,0,2025-11-19,2025-11-13,有限会社大丸家具店,,有限会社,東京都,調布市,仙川町１丁目２２番地３６,,13,208,1820002,,,2025-11-13,清算の結了等,,,2015-10-05,1,,,,,,0
891,4012701000224,登記記録の閉鎖等,0,2025-11-19,2025-11-12,株式会社きむら,,株式会社,東京都,小平市,学園東町２丁目７番６号,,13,211,1870043,,,2025-11-12,清算の結了等,,,2015-10-05,1,,,,,キムラ,0
893,4012801001428,登記記録の閉鎖等,0,2025-11-19,2025-11-13,株式会社不二商会,,株式会社,東京都,立川市,富士見町５丁目９番１２号,,13,202,1900013,,,2025-11-13,清算の結了等,,,2015-10-05,1,,,,,フジショウカイ,0
897,4020001068469,登記記録の閉鎖等,0,2025-11-19,2025-11-11,ファーム・プロダクツ株式会社,,株式会社,神奈川県,川崎市宮前区,馬絹４丁目２７番１９号,,14,136,2160035,,,2025-11-11,清算の結了等,,,2015-10-05,1,,,,,ファームプロダクツ,0
898,4020001131813,登記記録の閉鎖等,0,2025-11-19,2025-11-07,株式会社ＭｅｔａＤｕｏ,,株式会社,神奈川県,横浜市磯子区,汐見台２丁目２－２レーベン横浜汐見台ソラノテ２０９号,,14,107,2350022,,,2025-11-07,清算の結了等,,,2019-07-10,1,,,,,メタデュオ,0
899,4020001161166,登記記録の閉鎖等,0,2025-11-19,2025-11-10,株式会社Ｗｉｅｄｅｒ,,株式会社,神奈川県,横浜市都筑区,茅ケ崎中央２２番１号,,14,118,2240032,,,2025-11-10,清算の結了等,,,2025-02-03,1,,,,,ヴィーダー,0
908,4021002055423,登記記録の閉鎖等,0,2025-11-19,2025-10-31,有限会社スリースター,,有限会社,神奈川県,足柄上郡大井町,金手５番地１,,14,362,2580018,,,2025-10-31,清算の結了等,,,2015-10-05,1,,,,,スリースター,0
910,4030001032333,登記記録の閉鎖等,0,2025-11-19,2025-11-04,東洋石材株式会社,,株式会社,埼玉県,久喜市,北中曽根１５４０番地３,,11,232,3460036,,,2025-11-04,合併による解散等,1030002020001,令和７年１１月１日埼玉県久喜市北中曽根１５４０番地３株式会社ラピス（1030002020001）に合併し解散,2015-10-05,1,,,,,トウヨウセキザイ,0
951,4090002011066,登記記録の閉鎖等,0,2025-11-19,2025-11-17,有限会社若林総業,,有限会社,山梨県,甲州市,勝沼町藤井２２３番地,,19,213,4091314,,,2025-11-17,清算の結了等,,,2015-10-05,1,,,,,ワカバヤシソウギョウ,0
953,4100002003144,登記記録の閉鎖等,0,2025-11-19,2025-11-13,有限会社長東薬局,,有限会社,長野県,長野市,大字栗田２１５２番地,,20,201,3800921,,,2025-11-13,合併による解散等,9010001098066,令和７年１１月１日神奈川県横浜市港北区新横浜二丁目１５番１２号ルナ調剤株式会社（9010001098066）に合併し解散,2015-10-05,1,,,,,チョウトウヤッキョク,0
956,4120001065885,登記記録の閉鎖等,0,2025-11-19,2025-11-14,株式会社正文社,,株式会社,大阪府,大阪市北区,本庄西１丁目６番１４号第一明和ビル内,,27,127,5310073,,,2025-11-14,清算の結了等,,,2015-10-05,1,,,,,セイブンシャ,0
958,4120001124286,登記記録の閉鎖等,0,2025-11-19,2025-11-17,株式会社ｒｉｓｅ　ｕｐ,,株式会社,大阪府,大阪市中央区,西心斎橋１丁目９番１３号,,27,128,5420086,,,2025-11-17,清算の結了等,,,2015-10-05,1,,,,,ライズアップ,0
979,4130001015063,登記記録の閉鎖等,0,2025-11-19,2025-11-17,中央実業株式会社,,株式会社,京都府,京都市伏見区,淀際目町５７９番地,,26,109,6130915,,,2025-11-17,清算の結了等,,,2015-10-05,1,,,,,チュウオウジツギョウ,0
983,4140001127196,登記記録の閉鎖等,0,2025-11-19,2025-11-13,株式会社ココリハ,,株式会社,兵庫県,三田市,ゆりのき台３丁目２５番地４０,,28,219,6691324,,,2025-11-13,清算の結了等,,,2022-08-26,1,,,,,ココリハ,0
991,4140002049687,登記記録の閉鎖等,0,2025-11-19,2025-11-12,有限会社テーラー大松,,有限会社,兵庫県,姫路市,呉服町３０番地,,28,201,6700923,,,2025-11-12,清算の結了等,,,2015-10-05,1,,,,,テーラーオオマツ,0
1013,4180002032565,登記記録の閉鎖等,0,2025-11-19,2025-11-13,ヒロオフィス有限会社,,有限会社,愛知県,名古屋市北区,杉村１丁目１９番１４号,,23,103,4620835,,,2025-11-13,清算の結了等,,,2015-10-05,1,,,,,ヒロオフィス,0
1020,4190002017020,登記記録の閉鎖等,0,2025-11-19,2025-11-17,有限会社尚,,有限会社,三重県,桑名市,大字矢田４０８番地の１,,24,205,5110821,,,2025-11-17,清算の結了等,,,2015-10-05,1,,,,,ヒサシ,0
1032,4250002002569,登記記録の閉鎖等,0,2025-11-19,2025-11-17,有限会社サードプレイス,,有限会社,山口県,山口市,黒川５７２番地の４,,35,203,7530851,,,2025-11-17,清算の結了等,,,2015-10-05,1,,,,,サードプレイス,0
1034,4290001017028,登記記録の閉鎖等,0,2025-11-19,2025-11-04,ハート．クオリア．株式会社,,株式会社,福岡県,福岡市南区,長丘４丁目１６番２号,,40,134,8150075,,,2025-11-04,清算の結了等,,,2015-10-05,1,,,,,ハートクオリア,0
1037,4290002034864,登記記録の閉鎖等,0,2025-11-19,2025-11-10,有限会社木村屋,,有限会社,福岡県,宗像市,田熊４丁目１１番２３号,,40,220,8113431,,,2025-11-10,清算の結了等,,,2015-10-05,1,,,,,キムラヤ,0
1049,4350001011610,登記記録の閉鎖等,0,2025-11-19,2025-11-13,株式会社バブターズ,,株式会社,宮崎県,都城市,鷹尾３丁目９街区６号,,45,202,8850081,,,2025-11-13,清算の結了等,,,2015-10-05,1,,,,,バブターズ,0
1052,4370002010056,登記記録の閉鎖等,0,2025-11-19,2025-11-11,有限会社エムズコマース,,有限会社,宮城県,仙台市青葉区,一番町１丁目１５番１０－５０１号,,04,101,9800811,,,2025-11-11,清算の結了等,,,2015-10-05,1,,,,,エムズコマース,0
1055,4380001032348,登記記録の閉鎖等,0,2025-11-19,2025-11-12,株式会社ゴーライフ,,株式会社,埼玉県,さいたま市大宮区,宮町３丁目２１番地１－７０１,,11,103,3300802,,,2025-11-12,合併による解散等,6030001066965,令和７年１０月１日大阪府茨木市西駅前町１３番２５号株式会社ウィーズ（6030001066965）に合併し解散,2021-11-17,1,,,,,ゴーライフ,0
1059,4390002013453,登記記録の閉鎖等,0,2025-11-19,2025-11-17,有限会社美希企画,,有限会社,山形県,米沢市,花沢町２７１５番１,,06,202,9920022,,,2025-11-17,清算の結了等,,,2015-10-05,1,,,,,,0
1061,4400002017592,登記記録の閉鎖等,0,2025-11-19,2025-11-11,有限会社ポパイ,,有限会社,岩手県,花巻市,若葉町３丁目１１番１７号,,03,205,0250097,,,2025-11-11,清算の結了等,,,2025-10-17,1,,,,,ポパイ,0
1063,4420001000366,登記記録の閉鎖等,0,2025-11-19,2025-11-11,株式会社アール・エー・ビー学苑,,株式会社,青森県,青森市,緑３丁目９番地の２,,02,201,0300845,,,2025-11-11,清算の結了等,,,2015-10-05,1,,,,,アールエービーガクエン,0
1078,5010002013671,登記記録の閉鎖等,0,2025-11-19,2025-11-05,ピーエムシーエス有限会社,,有限会社,東京都,千代田区,神田和泉町１番地２の５,,13,101,1010024,,,2025-11-05,清算の結了等,,,2015-10-05,1,,,,,ピーエムシーエス,0
1089,5010403016059,登記記録の閉鎖等,0,2025-11-19,2025-10-29,Ｂｉｏｍａｓｓ　Ｐｏｗｅｒ　Ｏｎｅ合同会社,,合同会社,東京都,港区,芝３丁目３１番６号サンライズ芝２Ｆ,,13,103,1050014,,,2025-10-29,清算の結了等,,,2017-02-08,1,,,,,バイオマスパワーワン,0
1096,5010601040496,登記記録の閉鎖等,0,2025-11-19,2025-11-10,株式会社クラウド,,株式会社,東京都,江東区,猿江１丁目２３番８号,,13,108,1350003,,,2025-11-10,清算の結了等,,,2015-10-05,1,,,,,クラウド,0
1099,5010802001116,登記記録の閉鎖等,0,2025-11-19,2025-11-05,有限会社石井建築,,有限会社,東京都,大田区,池上４丁目５番９号,,13,111,1460082,,,2025-11-05,清算の結了等,,,2015-10-05,1,,,,,イシイケンチク,0
1101,5010901002980,登記記録の閉鎖等,0,2025-11-19,2025-11-04,協和油化株式会社,,株式会社,東京都,千代田区,内神田２丁目１２番６号,,13,101,1010047,,,2025-11-04,合併による解散等,9010001017389,令和７年１１月１日東京都千代田区内神田二丁目１２番６号山光油業株式会社（9010001017389）に合併し解散,2015-10-05,1,,,,,キョウワユカ,0
1103,5010903002830,登記記録の閉鎖等,0,2025-11-19,2025-11-17,合同会社ＫＴＲ,,合同会社,東京都,世田谷区,奥沢５丁目３７番１０号,,13,112,1580083,,,2025-11-17,清算の結了等,,,2015-10-05,1,,,,,ケーティーアール,0
1105,5010905003389,登記記録の閉鎖等,0,2025-11-19,2025-11-17,一般社団法人フィジカル＆ムーブメントトレーニング協会,,その他の設立登記法人,東京都,世田谷区,北沢２丁目１０番１５号下北沢ハイタウンＡ棟４１５,,13,112,1550031,,,2025-11-17,清算の結了等,,,2017-05-09,1,,,,,フィジカルアンドムーブメントトレーニングキョウカイ,0
1110,5011001127157,登記記録の閉鎖等,0,2025-11-19,2025-10-27,株式会社ＩＭＵＡ,,株式会社,東京都,渋谷区,渋谷３丁目１番９号ＹＡＺＡＷＡビルＵＣＦ３階,,13,113,1500002,,,2025-10-27,清算の結了等,,,2019-03-25,1,,,,,イムア,0
1163,5021002050472,登記記録の閉鎖等,0,2025-11-19,2025-11-04,有限会社清野土木,,有限会社,神奈川県,足柄下郡箱根町,宮城野１２８番地,,14,382,2500401,,,2025-11-04,清算の結了等,,,2015-10-05,1,,,,,セイノドボク,0
1164,5030001001262,登記記録の閉鎖等,0,2025-11-19,2025-11-12,株式会社エクステリア興和,,株式会社,埼玉県,さいたま市北区,宮原町４丁目１２０番地の２,,11,102,3310812,,,2025-11-12,清算の結了等,,,2015-10-05,1,,,,,エクステリアコウワ,0
1168,5030002087383,登記記録の閉鎖等,0,2025-11-19,2025-11-12,有限会社並木製作所,,有限会社,埼玉県,越谷市,大字南荻島４３２２番地,,11,222,3430804,,,2025-11-12,清算の結了等,,,2015-10-05,1,,,,,ナミキセイサクショ,0
1171,5040001021318,登記記録の閉鎖等,0,2025-11-19,2025-10-22,株式会社ワイアンドピー,,株式会社,千葉県,八千代市,八千代台西１０丁目２番１号,,12,221,2760034,,,2025-10-22,清算の結了等,,,2015-10-05,1,,,,,ワイアンドピー,0
1175,5040002084537,登記記録の閉鎖等,0,2025-11-19,2025-10-22,有限会社ダイアナスピカ,,有限会社,千葉県,旭市,江ケ崎１７２８番地,,12,215,2892503,,,2025-10-22,清算の結了等,,,2015-10-05,1,,,,,ダイアナスピカ,0
1186,5080005003003,登記記録の閉鎖等,0,2025-11-19,2025-11-14,グリーンフレンド協同組合,,その他の設立登記法人,静岡県,静岡市清水区,江尻東２丁目２番３号,,22,103,4240815,,,2025-11-14,清算の結了等,,,2015-10-05,1,,,,,グリーンフレンド,0
1187,5080101006363,登記記録の閉鎖等,0,2025-11-19,2025-11-13,株式会社ゆうゆ,,株式会社,静岡県,駿東郡清水町,柿田１３２番地の１９,,22,341,4110904,,,2025-11-13,清算の結了等,,,2015-10-05,1,,,,,ユウユ,0
1188,5080101016024,登記記録の閉鎖等,0,2025-11-19,2025-11-13,株式会社平松薬局,,株式会社,静岡県,沼津市,石川１６０番地の２,,22,203,4100317,,,2025-11-13,合併による解散等,9010001098066,令和７年１１月１日神奈川県横浜市港北区新横浜二丁目１５番１２号ルナ調剤株式会社（9010001098066）に合併し解散,2015-10-05,1,,,,,ヒラマツヤッキョク,0
1193,5110001021913,登記記録の閉鎖等,0,2025-11-19,2025-11-13,株式会社シーエム・ファイヴ,,株式会社,新潟県,新潟市西区,浦山１丁目３番３０－５０１号,,15,107,9502001,,,2025-11-13,清算の結了等,,,2015-10-05,1,,,,,シーエムファイヴ,0
1195,5110002034138,登記記録の閉鎖等,0,2025-11-19,2025-11-13,有限会社小春プレシジョン,,有限会社,新潟県,魚沼市,青島４３５番地６,,15,225,9460043,,,2025-11-13,清算の結了等,,,2015-10-05,1,,,,,コハルプレシジョン,0
1197,5120001027389,登記記録の閉鎖等,0,2025-11-19,2025-11-14,京阪神建設株式会社,,株式会社,大阪府,大阪市港区,池島２丁目３番２２号,,27,107,5520015,,,2025-11-14,清算の結了等,,,2015-10-05,1,,,,,ケイハンシンケンセツ,0
1199,5120001151073,登記記録の閉鎖等,0,2025-11-19,2025-11-14,株式会社五興建設,,株式会社,大阪府,寝屋川市,南水苑町１３－２ＳＴＲＥＡＭ１０１,,27,215,5720826,,,2025-11-14,清算の結了等,,,2015-10-05,1,,,,,ゴコウケンセツ,0
1201,5120001241353,登記記録の閉鎖等,0,2025-11-19,2025-11-17,株式会社白星,,株式会社,大阪府,豊中市,中桜塚３丁目１０－６,,27,203,5610881,,,2025-11-17,清算の結了等,,,2021-10-25,1,,,,,シロボシ,0
1211,5120002008339,登記記録の閉鎖等,0,2025-11-19,2025-11-17,有限会社タケカラークリエイト,,有限会社,大阪府,大阪市城東区,中央１丁目１２番１７号,,27,118,5360005,,,2025-11-17,清算の結了等,,,2015-10-05,1,,,,,タケカラークリエイト,0
1222,5120901040061,登記記録の閉鎖等,0,2025-11-19,2025-11-17,株式会社中電設,,株式会社,大阪府,高槻市,上土室１丁目８番１－６０３号,,27,207,5691044,,,2025-11-17,清算の結了等,,,2018-06-26,1,,,,,ナカデンセツ,0
1223,5120901046455,登記記録の閉鎖等,0,2025-11-19,2025-11-05,株式会社Ｋ＆Ｋ,,株式会社,大阪府,茨木市,春日１丁目１６番７－４０５号,,27,211,5670031,,,2025-11-05,清算の結了等,,,2022-09-05,1,,,,,ケーアンドケー,0
1238,5140001011168,登記記録の閉鎖等,0,2025-11-19,2025-11-13,株式会社ギャラリールポール,,株式会社,兵庫県,神戸市中央区,加納町４丁目６番４号,,28,110,6500001,,,2025-11-13,清算の結了等,,,2015-10-05,1,,,,,ギャラリールポール,0
1242,5140001096647,登記記録の閉鎖等,0,2025-11-19,2025-11-13,株式会社Ｋ・Ｋ・ＫＯ,,株式会社,兵庫県,西宮市,菊谷町１番７号,,28,204,6620078,,,2025-11-13,清算の結了等,,,2015-10-05,1,,,,,ケイケイケイオー,0
1250,5140002035579,登記記録の閉鎖等,0,2025-11-19,2025-11-12,有限会社共同電算センター,,有限会社,兵庫県,加古川市,加古川町河原１９９番地の９,,28,210,6750067,,,2025-11-12,清算の結了等,,,2015-10-05,1,,,,,キョウドウデンサンセンター,0
1262,5180302006540,登記記録の閉鎖等,0,2025-11-19,2025-11-14,有限会社植島工業,,有限会社,愛知県,豊橋市,下地町字野箱４２番地の２,,23,201,4400083,,,2025-11-14,清算の結了等,,,2015-10-05,1,,,,,ウエシマコウギョウ,0
1264,5180302025532,登記記録の閉鎖等,0,2025-11-19,2025-11-14,有限会社堀総業,,有限会社,愛知県,刈谷市,井ケ谷町石根１番地６２１,,23,210,4480001,,,2025-11-14,清算の結了等,,,2015-10-05,1,,,,,ホリソウギョウ,0
1266,5200001016986,登記記録の閉鎖等,0,2025-11-19,2025-11-13,株式会社アルファ保険グループ,,株式会社,岐阜県,大垣市,恵比寿町３丁目６番地２,,21,202,5030828,,,2025-11-13,清算の結了等,,,2015-10-05,1,,,,,アルファホケングループ,0
1269,5200003006283,登記記録の閉鎖等,0,2025-11-19,2025-11-11,合同会社Ｒシステムズ,,合同会社,岐阜県,岐阜市,薮田南１丁目７－１６第一岐阜県ビル７０７－２,,21,201,5008384,,,2025-11-11,清算の結了等,,,2024-03-28,1,,,,,アールシステムズ,0
1277,5240001001976,登記記録の閉鎖等,0,2025-11-19,2025-11-13,株式会社小田盛美堂,,株式会社,広島県,広島市西区,楠木町３丁目１３番３１号,,34,104,7330002,,,2025-11-13,清算の結了等,,,2015-10-05,1,,,,,オダセイビドウ,0
1282,5250001005621,登記記録の閉鎖等,0,2025-11-19,2025-11-14,代山漁網船具株式会社,,株式会社,山口県,下関市,綾羅木新町１丁目９番１９号,,35,201,7510865,,,2025-11-14,清算の結了等,,,2015-10-05,1,,,,,シロヤマギョモウセング,0
1283,5250005003943,登記記録の閉鎖等,0,2025-11-19,2025-11-17,豊北木工協業組合,,その他の設立登記法人,山口県,下関市,豊北町大字滝部１１８９番地,,35,201,7595511,,,2025-11-17,清算の結了等,,,2015-10-05,1,,,,,,0
1317,5380001003083,登記記録の閉鎖等,0,2025-11-19,2025-11-12,株式会社フォーサイト,,株式会社,福島県,福島市,泉字道下３番地の１３,,07,201,9608253,,,2025-11-12,清算の結了等,,,2015-10-05,1,,,,,フォーサイト,0
1319,5410002011148,登記記録の閉鎖等,0,2025-11-19,2025-11-17,有限会社ｍｉｃｏ,,有限会社,秋田県,能代市,大町４番７号,,05,202,0160803,,,2025-11-17,清算の結了等,,,2015-10-05,1,,,,,ミコ,0
1340,6010001239168,登記記録の閉鎖等,0,2025-11-19,2025-11-05,株式会社ＦｌｏｗＲａｃｅ,,株式会社,東京都,千代田区,内神田２丁目６番２号２Ｆ,,13,101,1010047,,,2025-11-05,清算の結了等,,,2023-10-12,1,,,,,フローレース,0
1343,6010003042999,登記記録の閉鎖等,0,2025-11-19,2025-11-07,ＴＲＥＦＬＥ合同会社,,合同会社,東京都,千代田区,神田神保町３丁目１１番１号,,13,101,1010051,,,2025-11-07,清算の結了等,,,2024-02-26,1,,,,,トレーフル,0
1344,6010005032998,登記記録の閉鎖等,0,2025-11-19,2025-11-14,一般社団法人ＮＴＹソーラーパワー,,その他の設立登記法人,東京都,千代田区,一ツ橋２丁目６番３号アクシスインベストメントアドバイザーズ株式会社内,,13,101,1010003,,,2025-11-14,清算の結了等,,,2021-03-02,1,,,,,エヌティーワイソーラーパワー,0
1345,6010005035794,登記記録の閉鎖等,0,2025-11-19,2025-11-17,一般社団法人新雪キャピタル,,その他の設立登記法人,東京都,千代田区,霞が関３丁目２番５号,,13,101,1000013,,,2025-11-17,清算の結了等,,,2022-11-17,1,,,,,シンセツキャピタル,0
1351,6010401142839,登記記録の閉鎖等,0,2025-11-19,2025-10-27,株式会社ジーエムワークス,,株式会社,東京都,港区,赤坂６丁目１０番３３－４１６号,,13,103,1070052,,,2025-10-27,清算の結了等,,,2018-12-26,1,,,,,ジーエムワークス,0
1366,6010602004631,登記記録の閉鎖等,0,2025-11-19,2025-11-11,有限会社堀ミシン商会,,有限会社,東京都,江東区,森下１丁目５番１０号,,13,108,1350004,,,2025-11-11,清算の結了等,,,2015-10-05,1,,,,,ホリミシンショウカイ,0
1372,6010903007556,登記記録の閉鎖等,0,2025-11-19,2025-11-13,合同会社レッドシャーク,,合同会社,東京都,世田谷区,代沢２丁目２８番４－３０６号,,13,112,1550032,,,2025-11-13,清算の結了等,,,2022-08-04,1,,,,,レッドシャーク,0
1385,6011003014798,登記記録の閉鎖等,0,2025-11-19,2025-10-16,合同会社イシモトテクノロジーズ,,合同会社,東京都,渋谷区,渋谷２丁目１９番１５号宮益坂ビルディング６０９,,13,113,1500002,,,2025-10-16,清算の結了等,,,2022-06-08,1,,,,,イシモトテクノロジーズ,0
1399,6011502000217,登記記録の閉鎖等,0,2025-11-19,2025-11-13,有限会社秋元青果店,,有限会社,東京都,北区,豊島８丁目１５番１９号,,13,117,1140003,,,2025-11-13,清算の結了等,,,2015-10-05,1,,,,,アキモトセイカテン,0
1411,6020001129657,登記記録の閉鎖等,0,2025-11-19,2025-11-07,株式会社ナックワークス,,株式会社,神奈川県,横浜市緑区,台村町６８６番地９,,14,113,2260014,,,2025-11-07,清算の結了等,,,2019-01-29,1,,,,,ナックワークス,0
1429,6030002080701,登記記録の閉鎖等,0,2025-11-19,2025-11-12,有限会社須長工業,,有限会社,埼玉県,本庄市,宮戸２８８番地,,11,211,3670012,,,2025-11-12,清算の結了等,,,2015-10-05,1,,,,,スナガコウギョウ,0
1433,6040001104237,登記記録の閉鎖等,0,2025-11-19,2025-10-22,株式会社ソルトゥーレ,,株式会社,千葉県,千葉市中央区,中央３丁目１７番１－３４０４号,,12,101,2600013,,,2025-10-22,清算の結了等,,,2018-04-12,1,,,,,ソルトゥーレ,0
1434,6040001118451,登記記録の閉鎖等,0,2025-11-19,2025-10-22,トラストワン株式会社,,株式会社,千葉県,千葉市稲毛区,小仲台６丁目１４番４号サン稲毛ビル３０１号室,,12,103,2630043,,,2025-10-22,清算の結了等,,,2021-05-19,1,,,,,トラストワン,0
1438,6040002053359,登記記録の閉鎖等,0,2025-11-19,2025-10-21,有限会社エイジレス,,有限会社,千葉県,松戸市,五香４丁目３７番地の２６,,12,207,2702213,,,2025-10-21,清算の結了等,,,2015-10-05,1,,,,,エイジレス,0
1439,6040002067607,登記記録の閉鎖等,0,2025-11-19,2025-10-21,有限会社富士生コーポレーション,,有限会社,千葉県,木更津市,矢那１４０７番地２,,12,206,2920812,,,2025-10-21,清算の結了等,,,2015-10-05,1,,,,,フジセイコーポレーション,0
1440,6040002074025,登記記録の閉鎖等,0,2025-11-19,2025-10-20,有限会社タケウチ,,有限会社,千葉県,市原市,大厩９３５番地,00020688,12,219,2900002,,,2025-10-20,清算の結了等,,,2015-10-05,1,,,,,タケウチ,0
1443,6040005018301,登記記録の閉鎖等,0,2025-11-19,2025-10-20,税理士法人伊藤会計事務所,,その他の設立登記法人,千葉県,匝瑳市,八日市場イ２９８６番地,,12,235,2892144,,,2025-10-20,清算の結了等,,,2015-10-05,1,,,,,イトウカイケイジムショ,0
1444,6050001014781,登記記録の閉鎖等,0,2025-11-19,2025-11-12,株式会社新興運輸,,株式会社,茨城県,坂東市,生子新田８２６番地１,,08,228,3060503,,,2025-11-12,合併による解散等,3030001040295,令和７年１１月１日埼玉県八潮市西袋４１６番地八潮運輸株式会社（3030001040295）に合併し解散,2015-10-05,1,,,,,シンコウウンユ,0
1453,6070001018046,登記記録の閉鎖等,0,2025-11-19,2025-11-11,群馬モールド株式会社,,株式会社,群馬県,北群馬郡榛東村,大字新井２６１６番地１,,10,344,3703503,,,2025-11-11,清算の結了等,,,2015-10-05,1,,,,,グンマモールド,0
1454,6070002016841,登記記録の閉鎖等,0,2025-11-19,2025-11-13,有限会社下山工業,,有限会社,群馬県,甘楽郡下仁田町,大字馬山甲４９０６番地,,10,382,3702603,,,2025-11-13,清算の結了等,,,2015-10-05,1,,,,,シモヤマコウギョウ,0
1457,6080003002633,登記記録の閉鎖等,0,2025-11-19,2025-11-14,合同会社ｃａｒ村,,合同会社,静岡県,牧之原市,波津２丁目７２番地,,22,226,4210523,,,2025-11-14,清算の結了等,,,2021-09-06,1,,,,,カームラ,0
1460,6080403003207,登記記録の閉鎖等,0,2025-11-19,2025-11-10,合同会社アイウエーブ,,合同会社,静岡県,浜松市中央区,城北１丁目２３番６号,,22,138,4328011,,,2025-11-10,清算の結了等,,,2015-12-15,1,,,,,アイウエーブ,0
1461,6080405000994,登記記録の閉鎖等,0,2025-11-19,2025-11-10,天理教愛遠州分教会,,その他の設立登記法人,静岡県,浜松市中央区,八幡町１１２番地の１,,22,138,4300918,,,2025-11-10,合併による解散等,7080405000944,令和７年１１月４日静岡県浜松市中央区三方原町２４０８番地天理教愛遠分教會（7080405000944）に合併し解散,2015-10-05,1,,,,,テンリキョウアイエンシュウブンキョウカイ,0
1462,6100001006360,登記記録の閉鎖等,0,2025-11-19,2025-11-14,株式会社ミヤサンライフ,,株式会社,長野県,千曲市,大字戸倉２５５７番地３,,20,218,3890804,,,2025-11-14,清算の結了等,,,2015-10-05,1,,,,,ミヤサンライフ,0
1467,6110002000312,登記記録の閉鎖等,0,2025-11-19,2025-11-13,有限会社アートウィング,,有限会社,新潟県,新潟市西区,小針２丁目２１番１０号,,15,107,9502022,,,2025-11-13,清算の結了等,,,2015-10-05,1,,,,,アートウィング,0
1487,6120003019326,登記記録の閉鎖等,0,2025-11-19,2025-11-17,大阪正和堂商事合同会社,,合同会社,大阪府,大阪市住吉区,長居西３丁目７番８－４０２号,,27,120,5580002,,,2025-11-17,清算の結了等,,,2021-04-30,1,,,,,オオサカショウワドウショウジ,0
1493,6120901016036,登記記録の閉鎖等,0,2025-11-19,2025-11-05,株式会社八起インターナショナル,,株式会社,大阪府,高槻市,桜ケ丘南町５－２３,,27,207,5690818,,,2025-11-05,清算の結了等,,,2015-10-05,1,,,,,ヤオキインターナショナル,0
1497,6120901041694,登記記録の閉鎖等,0,2025-11-19,2025-11-10,株式会社カウンターブラスト,,株式会社,大阪府,茨木市,駅前３丁目４番２７－４０２号,,27,211,5670888,,,2025-11-10,清算の結了等,,,2019-08-21,1,,,,,カウンターブラスト,0
1500,6122001030900,登記記録の閉鎖等,0,2025-11-19,2025-11-04,Ａ１Ｂｕｓｉｎｅｓｓ株式会社,,株式会社,大阪府,東大阪市,北石切町４番３９号,,27,227,5798015,,,2025-11-04,清算の結了等,,,2017-08-30,1,,,,,エーワンビジネス,0
1518,6180001035856,登記記録の閉鎖等,0,2025-11-19,2025-11-14,株式会社国際デザインセンター,,株式会社,愛知県,名古屋市中区,栄３丁目１８番１号,,23,106,4600008,,,2025-11-14,清算の結了等,,,2015-10-05,1,,,,,コクサイデザインセンター,0
1523,6180002043247,登記記録の閉鎖等,0,2025-11-19,2025-11-11,有限会社近藤総合経営事務所,,有限会社,愛知県,名古屋市瑞穂区,瑞穂通５丁目１９番地,,23,108,4670806,,,2025-11-11,清算の結了等,,,2015-10-05,1,,,,,コンドウソウゴウケイエイジムショ,0
1533,6180303004773,登記記録の閉鎖等,0,2025-11-19,2025-11-07,フラクタル合同会社,,合同会社,愛知県,碧南市,堀方町３丁目４８番地１９,,23,209,4470046,,,2025-11-07,清算の結了等,,,2020-10-14,1,,,,,フラクタル,0
1535,6200001037783,登記記録の閉鎖等,0,2025-11-19,2025-11-13,株式会社大翔工業,,株式会社,岐阜県,各務原市,各務西町２丁目２９８番地,,21,213,5090106,,,2025-11-13,清算の結了等,,,2020-09-04,1,,,,,ヤマトコウギョウ,0
1537,6220002016173,登記記録の閉鎖等,0,2025-11-19,2025-11-17,株式会社ＨＥＩＺＯ,,株式会社,石川県,珠洲市,上戸町北方７字７８番地,,17,205,9271215,,,2025-11-17,清算の結了等,,,2015-10-05,1,,,,,ヘイゾウ,0
1540,6240001034728,登記記録の閉鎖等,0,2025-11-19,2025-11-13,株式会社松永タイム,,株式会社,広島県,福山市,柳津町５丁目１番２９号,,34,207,7290114,,,2025-11-13,清算の結了等,,,2015-10-05,1,,,,,マツナガタイム,0
1543,6240002018325,登記記録の閉鎖等,0,2025-11-19,2025-11-11,有限会社リバイン西,,有限会社,広島県,広島市佐伯区,河内南２丁目１８番２５号,,34,108,7315153,,,2025-11-11,清算の結了等,,,2015-10-05,1,,,,,リバインニシ,0
1544,6240002035898,登記記録の閉鎖等,0,2025-11-19,2025-11-12,有限会社坂井組,,有限会社,広島県,江田島市,大柿町大原１１０６番地６,,34,215,7372213,,,2025-11-12,清算の結了等,,,2015-10-05,1,,,,,サカイグミ,0
1550,6260005002704,登記記録の閉鎖等,0,2025-11-19,2025-11-07,特定非営利活動法人よくなるデイサービスセンター,,その他の設立登記法人,岡山県,岡山市北区,弓之町１３番１０１,,33,101,7000817,,,2025-11-07,清算の結了等,,,2015-10-05,1,,,,,ヨクナルデイサービスセンター,0
1554,6290001001970,登記記録の閉鎖等,0,2025-11-19,2025-11-11,株式会社バウ・アート,,株式会社,福岡県,福岡市南区,野間３丁目１４－２０－８０２,,40,134,8150041,,,2025-11-11,清算の結了等,,,2015-10-05,1,,,,,バウアート,0
1556,6290001043922,登記記録の閉鎖等,0,2025-11-19,2025-11-12,株式会社朝協,,株式会社,福岡県,朝倉市,小田１２７０番地,,40,228,8380051,,,2025-11-12,清算の結了等,,,2015-10-05,1,,,,,アサキョウ,0
1570,6350002000296,登記記録の閉鎖等,0,2025-11-19,2025-11-17,有限会社アンラク印刷,,有限会社,宮崎県,宮崎市,村角町天神田１７５３番地,,45,201,8800837,,,2025-11-17,清算の結了等,,,2015-10-05,1,,,,,アンラクインサツ,0
1571,6350002005122,登記記録の閉鎖等,0,2025-11-19,2025-11-14,有限会社湯地電通,,有限会社,宮崎県,宮崎市,大字瓜生野９９７番地,,45,201,8800044,,,2025-11-14,清算の結了等,,,2015-10-05,1,,,,,ユジデンツウ,0
1580,6410002007500,登記記録の閉鎖等,0,2025-11-19,2025-11-17,有限会社若菜,,有限会社,秋田県,にかほ市,平沢字田角森４０番地の５,,05,214,0180402,,,2025-11-17,清算の結了等,,,2015-10-05,1,,,,,ワカナ,0
1587,6440005000243,登記記録の閉鎖等,0,2025-11-19,2025-11-14,医療法人社団さとう内科クリニック,,その他の設立登記法人,北海道,函館市,時任町３３番９号,,01,202,0400012,,,2025-11-14,清算の結了等,,,2015-10-05,1,,,,,サトウナイカクリニック,0
1589,6490001002032,登記記録の閉鎖等,0,2025-11-19,2025-11-17,株式会社フレスコ,,株式会社,高知県,高知市,追手筋２丁目５番１１号,,39,201,7800842,,,2025-11-17,清算の結了等,,,2015-10-05,1,,,,,フレスコ,0
1603,7010005028038,登記記録の閉鎖等,0,2025-11-19,2025-11-17,一般社団法人Ｏｌｉｖｅ,,その他の設立登記法人,東京都,千代田区,丸の内１丁目４番１号東京共同会計事務所内,,13,101,1000005,,,2025-11-17,清算の結了等,,,2018-01-30,1,,,,,オリーブ,0
1607,7010102000295,登記記録の閉鎖等,0,2025-11-19,2025-11-17,有限会社浅川通信建設,,有限会社,東京都,八王子市,東浅川町３１番地,,13,201,1930834,,,2025-11-17,清算の結了等,,,2015-10-05,1,,,,,アサカワツウシンケンセツ,0
1610,7010401172926,登記記録の閉鎖等,0,2025-11-19,2025-10-20,株式会社バタフェクト,,株式会社,東京都,港区,西麻布４丁目１０番１３号ウエストコート４１０・２Ｆ,,13,103,1060031,,,2025-10-20,清算の結了等,,,2023-03-08,1,,,,,バタフェクト,0
1617,7010701019389,登記記録の閉鎖等,0,2025-11-19,2025-10-17,ノニワールド株式会社,,株式会社,東京都,渋谷区,恵比寿西２丁目４番８号ウィンド恵比寿ビル８Ｆ,,13,113,1500021,,,2025-10-17,清算の結了等,,,2015-10-05,1,,,,,ノニワールド,0
1623,7010803002383,登記記録の閉鎖等,0,2025-11-19,2025-11-07,合同会社ロータス,,合同会社,東京都,大田区,山王３丁目４４番１８号,,13,111,1430023,,,2025-11-07,清算の結了等,,,2017-05-23,1,,,,,ロータス,0
1637,7011101062343,登記記録の閉鎖等,0,2025-11-19,2025-11-17,株式会社エヌステージ,,株式会社,東京都,新宿区,新宿６丁目２５番１４号,,13,104,1600022,,,2025-11-17,清算の結了等,,,2015-10-05,1,,,,,エヌステージ,0
1654,7012302008614,登記記録の閉鎖等,0,2025-11-19,2025-10-31,有限会社ＰＡＭ・Ｊ,,有限会社,神奈川県,厚木市,岡田３０５０番地,,14,212,2430021,,,2025-10-31,清算の結了等,,,2015-10-05,1,,,,,パムジェイ,0
1657,7012702000963,登記記録の閉鎖等,0,2025-11-19,2025-11-05,有限会社集建築設計事務所,,有限会社,東京都,小平市,津田町２丁目２１番３号,,13,211,1870025,,,2025-11-05,清算の結了等,,,2015-10-05,1,,,,,シュウケンチクセッケイジムショ,0
1663,7013202001246,登記記録の閉鎖等,0,2025-11-19,2025-10-23,有限会社エヌワイエム,,有限会社,東京都,目黒区,自由が丘１丁目２２番３号,,13,110,1520035,,,2025-10-23,清算の結了等,,,2015-10-05,1,,,,,エヌワイエム,0
1667,7020001097523,登記記録の閉鎖等,0,2025-11-19,2025-11-06,ＨＩＲＯ株式会社,,株式会社,神奈川県,横浜市西区,西戸部町１丁目５０番地,,14,103,2200046,,,2025-11-06,清算の結了等,,,2015-10-05,1,,,,,ヒロ,0
1692,7050002014482,登記記録の閉鎖等,0,2025-11-19,2025-11-12,ファーストタイヤ有限会社,,有限会社,茨城県,稲敷郡阿見町,大字阿見５２４８番地,,08,443,3000331,,,2025-11-12,清算の結了等,,,2015-10-05,1,,,,,ファーストタイヤ,0
1705,7080401024880,登記記録の閉鎖等,0,2025-11-19,2025-11-12,株式会社コンティニュー,,株式会社,静岡県,浜松市浜名区,三ヶ日町都筑２４８０番３,,22,139,4311402,,,2025-11-12,合併による解散等,6030001066965,令和７年１０月１日大阪府茨木市西駅前町１３番２５号株式会社ウィーズ（6030001066965）に合併し解散,2021-03-04,1,,,,,コンティニュー,0
1709,7090002004975,登記記録の閉鎖等,0,2025-11-19,2025-11-12,有限会社ＩＳＥＥ,,有限会社,山梨県,中巨摩郡昭和町,河西５５３番地２,,19,384,4093851,,,2025-11-12,合併による解散等,6030001066965,令和７年１０月１日大阪府茨木市西駅前町１３番２５号株式会社ウィーズ（6030001066965）に合併し解散,2015-10-05,1,,,,,アイシー,0
1719,7120001076599,登記記録の閉鎖等,0,2025-11-19,2025-11-12,株式会社おみき茶屋,,株式会社,大阪府,大阪市中央区,上汐２丁目４番６号,,27,128,5420064,,,2025-11-12,清算の結了等,,,2015-10-05,1,,,,,オミキヂャヤ,0
1722,7120001155080,登記記録の閉鎖等,0,2025-11-19,2025-11-17,香林株式会社,,株式会社,大阪府,大阪市西区,北堀江１丁目２０番１５号,,27,106,5500014,,,2025-11-17,清算の結了等,,,2015-10-05,1,,,,,,0
1763,7140002029686,登記記録の閉鎖等,0,2025-11-19,2025-11-13,有限会社北條陶器店,,有限会社,兵庫県,明石市,鍛治屋町４番３０号,,28,203,6730884,,,2025-11-13,清算の結了等,,,2015-10-05,1,,,,,ホウジョウトウキテン,0
1765,7140002029851,登記記録の閉鎖等,0,2025-11-19,2025-11-17,有限会社明海メディカル,,有限会社,兵庫県,明石市,藤江２０１番地,,28,203,6730044,,,2025-11-17,合併による解散等,8140001099861,令和７年１１月１７日兵庫県明石市藤江２０１番地株式会社明海エステート（8140001099861）に合併し解散,2015-10-05,1,,,,,メイカイメディカル,0
1766,7140002048728,登記記録の閉鎖等,0,2025-11-19,2025-11-12,有限会社サン大松,,有限会社,兵庫県,姫路市,呉服町３０番地,,28,201,6700923,,,2025-11-12,清算の結了等,,,2015-10-05,1,,,,,サンオオマツ,0
1795,7180002005799,登記記録の閉鎖等,0,2025-11-19,2025-11-13,有限会社宇佐美建材,,有限会社,愛知県,名古屋市港区,品川町２丁目２６番地の７,,23,111,4550055,,,2025-11-13,清算の結了等,,,2015-10-05,1,,,,,,0
1802,7210002011991,登記記録の閉鎖等,0,2025-11-19,2025-11-12,有限会社山田フアツシヨンプレス,,有限会社,福井県,越前市,国高３丁目１５号１番地の２３,,18,209,9150082,,,2025-11-12,清算の結了等,,,2015-10-05,1,,,,,ヤマダフアツシヨンプレス,0
1810,7250002017606,登記記録の閉鎖等,0,2025-11-19,2025-11-17,有限会社アイカワ,,有限会社,山口県,岩国市,阿品２５０番地の２,,35,208,7410094,,,2025-11-17,清算の結了等,,,2015-10-05,1,,,,,,0
1814,7270001005304,登記記録の閉鎖等,0,2025-11-19,2025-11-18,株式会社中部ジャーナル社,,株式会社,鳥取県,倉吉市,幸町５４２番地１,,31,203,6820807,,,2025-11-18,清算の結了等,,,2015-10-05,1,,,,,,0
1818,7290001047071,登記記録の閉鎖等,0,2025-11-19,2025-10-21,松本商事株式会社,,株式会社,福岡県,大野城市,乙金台１丁目２番１８号,,40,219,8160903,,,2025-10-21,清算の結了等,,,2015-10-05,1,,,,,マツモトショウジ,0
1819,7290001074768,登記記録の閉鎖等,0,2025-11-19,2025-11-11,株式会社Ｍ－ＬＡＢＯ,,株式会社,福岡県,福岡市東区,千早４丁目１番６号,,40,131,8130044,,,2025-11-11,清算の結了等,,,2016-08-05,1,,,,,エムラボ,0
1822,7290002043400,登記記録の閉鎖等,0,2025-11-19,2025-11-11,有限会社牛木自動車,,有限会社,福岡県,朝倉市,牛木７５１番地の３,,40,228,8380067,,,2025-11-11,清算の結了等,,,2015-10-05,1,,,,,ウシギジドウシヤ,0
1826,7290801003595,登記記録の閉鎖等,0,2025-11-19,2025-11-10,株式会社瑞穂産業,,株式会社,福岡県,北九州市小倉北区,馬借２丁目１番２２－７０１号,,40,106,8020077,,,2025-11-10,清算の結了等,,,2015-10-05,1,,,,,,0
1827,7290801019955,登記記録の閉鎖等,0,2025-11-19,2025-11-17,深川ビル株式会社,,株式会社,福岡県,北九州市八幡西区,大浦２丁目１２番１６号ブロッサム大浦４０６号,,40,109,8070874,,,2025-11-17,清算の結了等,,,2015-10-05,1,,,,,フカガワビル,0
1872,8010001232451,登記記録の閉鎖等,0,2025-11-19,2025-11-07,株式会社有頂天,,株式会社,東京都,千代田区,神田神保町１丁目４２番８号エスペランサ神田神保町１Ｆ,,13,101,1010051,,,2025-11-07,清算の結了等,,,2023-01-25,1,,,,,ウチョウテン,0
1876,8010003042956,登記記録の閉鎖等,0,2025-11-19,2025-11-06,リンクスオブハーツ合同会社,,合同会社,東京都,中央区,日本橋室町１丁目１１番１２号日本橋水野ビル７階,,13,102,1030022,,,2025-11-06,清算の結了等,,,2024-02-20,1,,,,,リンクスオブハーツ,0
1880,8010005033994,登記記録の閉鎖等,0,2025-11-19,2025-11-14,一般社団法人福岡,,その他の設立登記法人,東京都,千代田区,一ツ橋２丁目６番３号アクシスインベストメントアドバイザーズ株式会社内,,13,101,1010003,,,2025-11-14,清算の結了等,,,2021-09-22,1,,,,,フクオカ,0
1910,8010605003827,登記記録の閉鎖等,0,2025-11-19,2025-11-10,一般社団法人鋼製グレーチング工業会,,その他の設立登記法人,東京都,江東区,亀戸２丁目１８番１０号住友生命亀戸駅前ビル６Ｆ,,13,108,1360071,,,2025-11-10,清算の結了等,,,2020-04-17,1,,,,,コウセイグレーチングコウギョウカイ,0
1948,8011103009317,登記記録の閉鎖等,0,2025-11-19,2025-10-27,合同会社Ｂｌｕｅ　Ｗｉｎｇｓ,,合同会社,東京都,港区,南青山２丁目２番１５号,,13,103,1070062,,,2025-10-27,清算の結了等,,,2019-12-10,1,,,,,ブルーウィングス,0
1950,8011203003913,登記記録の閉鎖等,0,2025-11-19,2025-11-13,合同会社全善旅行,,合同会社,東京都,中野区,白鷺１丁目１番１号,,13,114,1650035,,,2025-11-13,清算の結了等,,,2022-09-20,1,,,,,ゼンゼンリョコウ,0
1956,8011801032792,登記記録の閉鎖等,0,2025-11-19,2025-11-17,株式会社ＬｏｃｏＳｔｏｒｙ,,株式会社,東京都,調布市,多摩川７丁目１７番地２５,,13,208,1820025,,,2025-11-17,清算の結了等,,,2017-01-25,1,,,,,ロコストーリー,0
1963,8013302001657,登記記録の閉鎖等,0,2025-11-19,2025-11-07,有限会社永順,,有限会社,東京都,豊島区,北大塚１丁目１９番１２号,,13,116,1700004,,,2025-11-07,清算の結了等,,,2015-10-05,1,,,,,エイジュン,0
1967,8020002017207,登記記録の閉鎖等,0,2025-11-19,2025-11-07,有限会社西横浜財務処理センター,,有限会社,神奈川県,横浜市西区,浜松町８番１１号,,14,103,2200055,,,2025-11-07,清算の結了等,,,2015-10-05,1,,,,,ニシヨコハマザイムショリセンター,0
1972,8021002000152,登記記録の閉鎖等,0,2025-11-19,2025-10-31,有限会社イーストック,,有限会社,神奈川県,藤沢市,藤沢５５６サンパールＩＩビルＢ１Ｆ,00114036,14,205,2510052,,,2025-10-31,清算の結了等,,,2015-10-05,1,,,,,イーストック,0
1973,8021002053134,登記記録の閉鎖等,0,2025-11-19,2025-11-04,有限会社真中塗装,,有限会社,神奈川県,小田原市,千代４４５番地５,,14,206,2500215,,,2025-11-04,清算の結了等,,,2015-10-05,1,,,,,マナカトソウ,0
1981,8030002062193,登記記録の閉鎖等,0,2025-11-19,2025-11-12,有限会社深井モータース,,有限会社,埼玉県,新座市,大和田１丁目１番２６号,,11,230,3520004,,,2025-11-12,清算の結了等,,,2015-10-05,1,,,,,フカイモータース,0
1993,8040002003048,登記記録の閉鎖等,0,2025-11-19,2025-10-22,有限会社小林青果,,有限会社,千葉県,千葉市花見川区,さつきが丘２丁目３３番地７,,12,102,2620014,,,2025-10-22,清算の結了等,,,2015-10-05,1,,,,,,0
1995,8040002034431,登記記録の閉鎖等,0,2025-11-19,2025-10-22,有限会社シンソウ,,有限会社,千葉県,市川市,平田３丁目２３番１９号,,12,203,2720031,,,2025-10-22,清算の結了等,,,2015-10-05,1,,,,,シンソウ,0
1996,8040002052029,登記記録の閉鎖等,0,2025-11-19,2025-10-20,有限会社仲屋商店,,有限会社,千葉県,流山市,流山８丁目１０７７番地の１,,12,220,2700164,,,2025-10-20,清算の結了等,,,2015-10-05,1,,,,,ナカヤショウテン,0
2001,8050001044496,登記記録の閉鎖等,0,2025-11-19,2025-11-12,株式会社アップストリーム,,株式会社,茨城県,稲敷市,佐倉３２９５番地１,,08,229,3000508,,,2025-11-12,清算の結了等,,,2018-06-06,1,,,,,アップストリーム,0
2010,8070002020420,登記記録の閉鎖等,0,2025-11-19,2025-11-11,有限会社佐藤製作所,,有限会社,群馬県,伊勢崎市,境下渕名２７６０番地,,10,204,3700103,,,2025-11-11,清算の結了等,,,2015-10-05,1,,,,,サトウセイサクショ,0
2017,8080402021315,登記記録の閉鎖等,0,2025-11-19,2025-11-17,有限会社ムラマツ,,有限会社,静岡県,磐田市,富士見町２丁目３２番地１２,,22,211,4380083,,,2025-11-17,清算の結了等,,,2015-10-05,1,,,,,ムラマツ,0
2027,8120001190481,登記記録の閉鎖等,0,2025-11-19,2025-11-13,株式会社ローデッド,,株式会社,兵庫県,三木市,末広３丁目１５番２６号,,28,215,6730403,,,2025-11-13,清算の結了等,,,2015-10-05,1,,,,,ローデッド,0
2028,8120001196108,登記記録の閉鎖等,0,2025-11-19,2025-11-14,株式会社ミヤビホーム,,株式会社,大阪府,大阪市東淀川区,豊新４丁目９番４号,,27,114,5330014,,,2025-11-14,清算の結了等,,,2016-02-04,1,,,,,ミヤビホーム,0
2031,8120001207129,登記記録の閉鎖等,0,2025-11-19,2025-11-17,井上商店株式会社,,株式会社,大阪府,大阪市平野区,平野北１丁目６番１９号,,27,126,5470041,,,2025-11-17,清算の結了等,,,2017-08-03,1,,,,,イノウエショウテン,0
2050,8120901035843,登記記録の閉鎖等,0,2025-11-19,2025-11-17,株式会社ＹＳＫサービス,,株式会社,大阪府,摂津市,鳥飼下２丁目２４番２４号,,27,224,5660071,,,2025-11-17,清算の結了等,,,2015-10-05,1,,,,,,0
2052,8120902000945,登記記録の閉鎖等,0,2025-11-19,2025-11-05,有限会社成佳,,有限会社,大阪府,茨木市,宿久庄１丁目１１番２５号,,27,211,5670051,,,2025-11-05,清算の結了等,,,2015-10-05,1,,,,,セイカ,0
2059,8130001069485,登記記録の閉鎖等,0,2025-11-19,2025-10-23,株式会社Ｌｉｌａｃ,,株式会社,東京都,渋谷区,千駄ヶ谷３丁目３番１号,,13,113,1510051,,,2025-10-23,清算の結了等,,,2021-06-09,1,,,,,ライラック,0
2065,8140001014291,登記記録の閉鎖等,0,2025-11-19,2025-11-11,三豊住建株式会社,,株式会社,兵庫県,神戸市兵庫区,荒田町３丁目８０番１４号,,28,105,6520032,,,2025-11-11,清算の結了等,,,2015-10-05,1,,,,,ミトヨジュウケン,0
2081,8140002066646,登記記録の閉鎖等,0,2025-11-19,2025-11-13,有限会社オオクラ,,有限会社,兵庫県,宝塚市,南口１丁目１４番７号,,28,214,6650011,,,2025-11-13,清算の結了等,,,2015-10-05,1,,,,,オオクラ,0
2094,8180001100253,登記記録の閉鎖等,0,2025-11-19,2025-11-13,株式会社ポポロ,,株式会社,愛知県,名古屋市千種区,日和町１丁目４番８号,,23,101,4640039,,,2025-11-13,清算の結了等,,,2015-10-05,1,,,,,ポポロ,0
2097,8180001119616,登記記録の閉鎖等,0,2025-11-19,2025-11-17,株式会社ル・シエル,,株式会社,大阪府,大阪市中央区,東平２丁目２番１４号山田ビル３０１,,27,128,5420063,,,2025-11-17,清算の結了等,,,2015-10-05,1,,,,,ルシエル,0
2099,8180001137881,登記記録の閉鎖等,0,2025-11-19,2025-11-14,パールプラス三重株式会社,,株式会社,愛知県,名古屋市中区,栄３丁目２３番２４号ＮＡＧＯＹＡＦＲＡＴ９０１号,,23,106,4600008,,,2025-11-14,清算の結了等,,,2019-08-28,1,,,,,パールプラスミエ,0
2104,8180001151321,登記記録の閉鎖等,0,2025-11-19,2025-11-13,株式会社愛知マンションリノベーション機構,,株式会社,愛知県,名古屋市西区,新道１丁目１９番２２号,,23,104,4510043,,,2025-11-13,清算の結了等,,,2022-05-18,1,,,,,,0
2106,8180002009295,登記記録の閉鎖等,0,2025-11-19,2025-11-11,有限会社圓山,,有限会社,愛知県,名古屋市瑞穂区,彌富町字円山１６番地,,23,108,4670033,,,2025-11-11,清算の結了等,,,2015-10-05,1,,,,,マルヤマ,0
2114,8210001010837,登記記録の閉鎖等,0,2025-11-19,2025-11-13,若狭技術工事株式会社,,株式会社,福井県,敦賀市,津内町２丁目１０番３３号,,18,202,9140056,,,2025-11-13,清算の結了等,,,2015-10-05,1,,,,,ワカサギジュツコウジ,0
2117,8220002003995,登記記録の閉鎖等,0,2025-11-19,2025-11-14,有限会社点心北陸,,有限会社,石川県,金沢市,彦三町２丁目１番３３号朝日プラザ武蔵ヶ辻７０１号,00078429,17,201,9200901,,,2025-11-14,清算の結了等,,,2015-10-05,1,,,,,テンシンホクリク,0
2118,8220003002617,登記記録の閉鎖等,0,2025-11-19,2025-11-17,合同会社幹,,合同会社,石川県,野々市市,本町３丁目１８番１７号,,17,212,9218815,,,2025-11-17,清算の結了等,,,2019-06-20,1,,,,,ミキ,0
2120,8240001024883,登記記録の閉鎖等,0,2025-11-19,2025-11-14,三矢オート株式会社,,株式会社,広島県,安芸高田市,吉田町多治比３４４５番地３,,34,214,7310544,,,2025-11-14,清算の結了等,,,2015-10-05,1,,,,,ミツヤオート,0
2127,8250003003637,登記記録の閉鎖等,0,2025-11-19,2025-10-30,ＹＴコーポレーション合同会社,,合同会社,山口県,下関市,上新地町１丁目１番７号,,35,201,7500061,,,2025-10-30,清算の結了等,,,2025-01-17,1,,,,,ワイティーコーポレーション,0
2136,8290001102222,登記記録の閉鎖等,0,2025-11-19,2025-10-21,株式会社ＨＡＣＴＯ,,株式会社,福岡県,福岡市南区,屋形原１丁目２３番４号,,40,134,8111351,,,2025-10-21,清算の結了等,,,2023-07-11,1,,,,,ハクト,0
2160,8420001016689,登記記録の閉鎖等,0,2025-11-19,2025-11-10,株式会社ふらいぱんダディ,,株式会社,青森県,弘前市,大字新町２２５番地,,02,202,0368364,,,2025-11-10,清算の結了等,,,2019-08-06,1,,,,,フライパンダディ,0
2166,8470001015232,登記記録の閉鎖等,0,2025-11-19,2025-11-14,株式会社フェイス＆ネット,,株式会社,香川県,高松市,多賀町３丁目１８番１号,,37,201,7600063,,,2025-11-14,清算の結了等,,,2015-10-05,1,,,,,フェイスアンドネット,0
2168,8490002002954,登記記録の閉鎖等,0,2025-11-19,2025-11-17,大洋食品有限会社,,有限会社,高知県,高知市,幸町２番２３号,,39,201,7800045,,,2025-11-17,清算の結了等,,,2015-10-05,1,,,,,タイヨウショクヒン,0
2188,9010401078733,登記記録の閉鎖等,0,2025-11-19,2025-11-14,株式会社アーテイジ,,株式会社,東京都,板橋区,徳丸１丁目２８番５－４０１号,,13,119,1750083,,,2025-11-14,清算の結了等,,,2015-10-05,1,,,,,アーテイジ,0
2193,9010403030064,登記記録の閉鎖等,0,2025-11-19,2025-10-29,Ｂｉｏｍａｓｓ　Ｐｏｗｅｒ　Ｔｅｎ合同会社,,合同会社,東京都,港区,芝３丁目３１番６号サンライズ芝２Ｆ,,13,103,1050014,,,2025-10-29,清算の結了等,,,2023-05-12,1,,,,,バイオマスパワーテン,0
2196,9010601035121,登記記録の閉鎖等,0,2025-11-19,2025-11-12,株式会社メディット,,株式会社,東京都,江東区,豊洲４丁目９番１３号,,13,108,1350061,,,2025-11-12,清算の結了等,,,2015-10-05,1,,,,,メディット,0
2202,9010702005857,登記記録の閉鎖等,0,2025-11-19,2025-11-13,東京計算サービス有限会社,,有限会社,東京都,品川区,西大井１丁目４番１５－３１４号,,13,109,1400015,,,2025-11-13,清算の結了等,,,2015-10-05,1,,,,,,0
2208,9010901044994,登記記録の閉鎖等,0,2025-11-19,2025-11-14,株式会社ＷＯＲＣ,,株式会社,東京都,世田谷区,代田２丁目２９番１２号２Ｆ,,13,112,1550033,,,2025-11-14,合併による解散等,2012401031711,令和７年１０月３１日東京都武蔵野市吉祥寺本町４－１３－１５中央マンション１０１株式会社ライトアップコーヒー（2012401031711）に合併し解散,2019-10-04,1,,,,,ワーク,0
2209,9010901046900,登記記録の閉鎖等,0,2025-11-19,2025-11-17,ヒトキカク株式会社,,株式会社,東京都,世田谷区,下馬２丁目６番１６号ＳＨＩＭＯＵＭＡＴＥＲＲＡＣＥ３０４,,13,112,1540002,,,2025-11-17,清算の結了等,,,2020-08-28,1,,,,,ヒトキカク,0
2211,9011001034119,登記記録の閉鎖等,0,2025-11-19,2025-11-04,株式会社アート・ベンチャー・オフィスショウ,,株式会社,東京都,渋谷区,富ヶ谷１丁目１８番８号,,13,113,1510063,,,2025-11-04,清算の結了等,,,2015-10-05,1,,,,,,0
2214,9011001107171,登記記録の閉鎖等,0,2025-11-19,2025-10-22,初台ワールドセンター株式会社,,株式会社,東京都,渋谷区,本町２丁目３３－２,,13,113,1510071,,,2025-10-22,清算の結了等,,,2015-10-05,1,,,,,ハツダイワールドセンター,0
2219,9011101098501,登記記録の閉鎖等,0,2025-11-19,2025-11-17,株式会社Ｐａｓｓｉｏｎａｔｅ　Ｐａｒｔｎｅｒ,,株式会社,東京都,新宿区,新宿５丁目３番８号,,13,104,1600022,,,2025-11-17,清算の結了等,,,2022-04-11,1,,,,,パッショネイトパートナー,0
2221,9011201000366,登記記録の閉鎖等,0,2025-11-19,2025-11-13,株式会社イーアンドアイ,,株式会社,東京都,中野区,鷺宮４丁目３９番８号,,13,114,1650032,,,2025-11-13,清算の結了等,,,2015-10-05,1,,,,,イーアンドアイ,0
2242,9020001100152,登記記録の閉鎖等,0,2025-11-19,2025-11-05,株式会社ＩＢグループ,,株式会社,神奈川県,横浜市西区,高島１丁目４番２０－８０１号,,14,103,2200011,,,2025-11-05,清算の結了等,,,2015-10-05,1,,,,,アイビーグループ,0
2248,9020002049257,登記記録の閉鎖等,0,2025-11-19,2025-11-11,有限会社松浦製作所,,有限会社,神奈川県,横浜市鶴見区,駒岡５丁目１３番１６号,,14,101,2300071,,,2025-11-11,清算の結了等,,,2015-10-05,1,,,,,マツウラセイサクジョ,0
2251,9020005013334,登記記録の閉鎖等,0,2025-11-19,2025-11-06,エクシア税理士法人,,その他の設立登記法人,神奈川県,川崎市多摩区,南生田３丁目９番１４号,,14,135,2140036,,,2025-11-06,清算の結了等,,,2017-10-10,1,,,,,エクシア,0
2260,9030001034127,登記記録の閉鎖等,0,2025-11-19,2025-11-17,株式会社エムアイジー,,株式会社,栃木県,那須郡那須町,大字高久甲６１１６－４,,09,407,3250001,,,2025-11-17,清算の結了等,,,2015-10-05,1,,,,,エムアイジー,0
2264,9030002005630,登記記録の閉鎖等,0,2025-11-19,2025-11-12,有限会社賛匠,,有限会社,埼玉県,さいたま市桜区,大字大久保領家１５６番地４,,11,106,3380826,,,2025-11-12,清算の結了等,,,2015-10-05,1,,,,,,0
2269,9030003025116,登記記録の閉鎖等,0,2025-11-19,2025-11-06,合同会社ＴｏｒｉＤｏｒｉ,,合同会社,埼玉県,春日部市,中央１丁目８－１５春日部セントラル,,11,214,3440067,,,2025-11-06,清算の結了等,,,2024-09-13,1,,,,,トリドリ,0
2285,9050002044610,登記記録の閉鎖等,0,2025-11-19,2025-11-12,有限会社三栄ダイカスト,,有限会社,茨城県,結城市,大字結城１８４９番地,,08,207,3070001,,,2025-11-12,清算の結了等,,,2015-10-05,1,,,,,サンエイダイカスト,0
2289,9060001014209,登記記録の閉鎖等,0,2025-11-19,2025-11-17,株式会社キット,,株式会社,栃木県,小山市,大字下河原田７１２番地,,09,208,3230052,,,2025-11-17,清算の結了等,,,2015-10-05,1,,,,,キット,0
2302,9100001007240,登記記録の閉鎖等,0,2025-11-19,2025-11-13,佐久集中監視センター株式会社,,株式会社,長野県,佐久市,瀬戸２８９８番地１,,20,217,3850035,,,2025-11-13,清算の結了等,,,2015-10-05,1,,,,,サクシュウチュウカンシセンター,0
2304,9100002038557,登記記録の閉鎖等,0,2025-11-19,2025-11-13,高橋建設有限会社,,有限会社,長野県,下伊那郡高森町,牛牧３９０番地１,,20,403,3993105,,,2025-11-13,清算の結了等,,,2015-10-05,1,,,,,タカハシケンセツ,0
2324,9120901045676,登記記録の閉鎖等,0,2025-11-19,2025-11-14,株式会社ｍｉｘｓｈｉｎ,,株式会社,大阪府,高槻市,氷室町１丁目２９番３号,,27,207,5691141,,,2025-11-14,清算の結了等,,,2022-03-15,1,,,,,,0
2346,9140002006741,登記記録の閉鎖等,0,2025-11-19,2025-11-13,有限会社矢野工務店,,有限会社,兵庫県,神戸市垂水区,野田通８番１９号,,28,108,6550015,,,2025-11-13,清算の結了等,,,2015-10-05,1,,,,,ヤノコウムテン,0
2347,9140002037002,登記記録の閉鎖等,0,2025-11-19,2025-11-13,有限会社河野食品,,有限会社,兵庫県,高砂市,高砂町浜田町１丁目７番１２号,,28,216,6760022,,,2025-11-13,清算の結了等,,,2015-10-05,1,,,,,コウノショクヒン,0
2350,9170001017935,登記記録の閉鎖等,0,2025-11-19,2025-11-17,株式会社ベータ,,株式会社,和歌山県,和歌山市,加太１１３４番地１９１（１０３）,,30,201,6400103,,,2025-11-17,清算の結了等,,,2023-12-20,1,,,,,ベータ,0
2362,9180002074611,登記記録の閉鎖等,0,2025-11-19,2025-11-12,有限会社和田研磨,,有限会社,愛知県,犬山市,大字羽黒字北郷２３番地の４,,23,215,4840894,,,2025-11-12,清算の結了等,,,2015-10-05,1,,,,,ワダケンマ,0
2363,9180003003569,登記記録の閉鎖等,0,2025-11-19,2025-11-07,合資会社ミタカ商事,,合資会社,愛知県,名古屋市天白区,御幸山１９３１番地,,23,116,4680075,,,2025-11-07,清算の結了等,,,2015-10-05,1,,,,,ミタカショウジ,0
2365,9180003022684,登記記録の閉鎖等,0,2025-11-19,2025-11-11,合同会社砂富商事,,合同会社,愛知県,名古屋市熱田区,二番２丁目２０番２３号,,23,109,4560052,,,2025-11-11,清算の結了等,,,2021-07-07,1,,,,,スナトミショウジ,0
2370,9190002016356,登記記録の閉鎖等,0,2025-11-19,2025-11-17,有限会社うちだ,,有限会社,三重県,桑名市,大字志知２５２８番地１,,24,205,5110937,,,2025-11-17,清算の結了等,,,2015-10-05,1,,,,,,0
2381,9240005014698,登記記録の閉鎖等,0,2025-11-19,2025-11-10,協同組合広島オートネットワーク,,その他の設立登記法人,広島県,東広島市,西条中央６丁目４番２号イシタケビル２階２号室,,34,212,7390025,,,2025-11-10,清算の結了等,,,2018-11-06,1,,,,,ヒロシマオートネットワーク,0
2390,9270005003517,登記記録の閉鎖等,0,2025-11-19,2025-11-17,医療法人社団菅医院,,その他の設立登記法人,鳥取県,西伯郡大山町,安原１０５７番地１,,31,386,6893326,,,2025-11-17,清算の結了等,,,2015-10-05,1,,,,,スガイイン,0
