sequenceNumber,corporateNumber,process,correct,updateDate,changeDate,name,nameImageId,kind,prefectureName,cityName,streetNumber,addressImageId,prefectureCode,cityCode,postCode,addressOutside,addressOutsideImageId,closeDate,closeCause,successorCorporateNumber,changeCause,assignmentDate,latest,enName,enPrefectureName,enCityName,enAddressOutside,furigana,hihyoji
8,1010002041858,登記記録の閉鎖等,0,2024-05-08,2024-04-24,有限会社東京エンジン,,有限会社,東京都,杉並区,松庵２丁目１１番５号,,13,115,1670054,,,2024-04-24,清算の結了等,,,2015-10-05,1,,,,,トウキョウエンジン,0
11,1010401011833,登記記録の閉鎖等,0,2024-05-08,2024-04-15,株式会社サンレク,,株式会社,東京都,港区,赤坂５丁目１番２６号,,13,103,1070052,,,2024-04-15,清算の結了等,,,2015-10-05,1,,,,,サンレク,0
20,1010501040633,登記記録の閉鎖等,0,2024-05-08,2024-04-30,株式会社ケイジュクリエイト,,株式会社,東京都,台東区,浅草橋１丁目６番１号浅草橋ビル７階,,13,106,1110053,,,2024-04-30,清算の結了等,,,2017-02-13,1,,,,,ケイジュクリエイト,0
43,1011001134603,登記記録の閉鎖等,0,2024-05-08,2024-04-30,株式会社ｓｏｌｅｒ,,株式会社,東京都,目黒区,東山３丁目６番１５－４０２号,,13,110,1530043,,,2024-04-30,清算の結了等,,,2020-07-06,1,,,,,ソルアー,0
91,1013302018336,登記記録の閉鎖等,0,2024-05-08,2024-04-22,有限会社Ａ＆Ｋ,,有限会社,東京都,豊島区,千川２丁目１７番７号,,13,116,1710041,,,2024-04-22,清算の結了等,,,2015-10-05,1,,,,,エーアンドケー,0
97,1020001143076,登記記録の閉鎖等,0,2024-05-08,2024-04-24,株式会社もくもく,,株式会社,神奈川県,横浜市神奈川区,大野町１番地２５横浜ポートサイドプレイス８０６号,,14,102,2210055,,,2024-04-24,清算の結了等,,,2021-09-21,1,,,,,モクモク,0
101,1020002032641,登記記録の閉鎖等,0,2024-05-08,2024-04-24,有限会社魚兼水産,,有限会社,神奈川県,横浜市港北区,日吉本町１丁目２番９号,,14,109,2230062,,,2024-04-24,清算の結了等,,,2015-10-05,1,,,,,ウオカネスイサン,0
103,1021001038836,登記記録の閉鎖等,0,2024-05-08,2024-04-26,株式会社トータルサポート,,株式会社,東京都,新宿区,喜久井町６７ビーム早稲田２０３,,13,104,1620044,,,2024-04-26,清算の結了等,,,2015-10-05,1,,,,,トータルサポート,0
104,1021001058347,登記記録の閉鎖等,0,2024-05-08,2024-05-01,株式会社ＦＯＲＴＵｎＥ,,株式会社,神奈川県,相模原市南区,松が枝町２４番３,,14,153,2520313,,,2024-05-01,合併による解散等,2021001071423,令和６年５月１日神奈川県相模原市南区松が枝町２４番３株式会社ビリジオン（2021001071423）に合併し解散,2016-01-20,1,,,,,,0
115,1030001032402,登記記録の閉鎖等,0,2024-05-08,2024-04-30,フットライフ株式会社,,株式会社,埼玉県,幸手市,大字下吉羽１４３６番地,,11,240,3400126,,,2024-04-30,清算の結了等,,,2015-10-05,1,,,,,フットライフ,0
126,1030002028135,登記記録の閉鎖等,0,2024-05-08,2024-04-26,有限会社有圭,,有限会社,埼玉県,所沢市,西所沢１丁目７番２２号４０３,,11,208,3591144,,,2024-04-26,清算の結了等,,,2015-10-05,1,,,,,アリヨシ,0
134,1030005018158,登記記録の閉鎖等,0,2024-05-08,2024-04-30,ななお税理士法人,,その他の設立登記法人,埼玉県,川口市,西川口３丁目１７番１２号,,11,203,3320021,,,2024-04-30,清算の結了等,,,2016-10-13,1,,,,,ナナオ,0
168,1110001026180,登記記録の閉鎖等,0,2024-05-08,2024-05-02,新潟マルヰ株式会社,,株式会社,新潟県,南魚沼市,美佐島１８５３番地,,15,226,9496608,,,2024-05-02,合併による解散等,5030001009545,令和６年４月１日埼玉県さいたま市中央区下落合１０７１番地２イワタニ関東株式会社（5030001009545）に合併し解散,2015-10-05,1,,,,,ニイガタマルイ,0
172,1110002024456,登記記録の閉鎖等,0,2024-05-08,2024-05-01,有限会社スクエア,,有限会社,新潟県,上越市,仲町３丁目６番７号,,15,222,9430831,,,2024-05-01,清算の結了等,,,2015-10-05,1,,,,,スクエア,0
176,1120001182766,登記記録の閉鎖等,0,2024-05-08,2024-04-17,株式会社ＡＲｅｖｉｖｅ,,株式会社,大阪府,大阪市生野区,巽北１丁目９番１４号,00029829,27,116,5440004,,,2024-04-17,清算の結了等,,,2015-10-05,1,,,,,エーリバイブ,0
178,1120001242413,登記記録の閉鎖等,0,2024-05-08,2024-05-07,株式会社ブルー・ジーン,,株式会社,大阪府,大阪市城東区,関目２丁目１２番３７－６０２号,,27,118,5360008,,,2024-05-07,清算の結了等,,,2021-12-10,1,,,,,ブルージーン,0
191,1120901033663,登記記録の閉鎖等,0,2024-05-08,2024-05-01,白井電設株式会社,,株式会社,大阪府,豊中市,長興寺南４丁目１１番２９号,,27,203,5610874,,,2024-05-01,清算の結了等,,,2015-10-05,1,,,,,シライデンセツ,0
225,1180001101910,登記記録の閉鎖等,0,2024-05-08,2024-04-22,丹羽建装株式会社,,株式会社,愛知県,名古屋市南区,六条町３丁目３番地,,23,112,4570853,,,2024-04-22,清算の結了等,,,2015-10-05,1,,,,,ニワケンソウ,0
274,1330001027776,登記記録の閉鎖等,0,2024-05-08,2024-04-30,株式会社ＯＣＥＡＮ　ＢＲＩＤＧＥ,,株式会社,熊本県,熊本市中央区,南坪井町６番３号ビアーレ並木坂５０３号,,43,101,8600848,,,2024-04-30,清算の結了等,,,2020-09-02,1,,,,,オーシャンブリッジ,0
282,1350001006398,登記記録の閉鎖等,0,2024-05-08,2024-04-30,株式会社末廣工業,,株式会社,宮崎県,日向市,大字日知屋２４４５番地１,,45,206,8830062,,,2024-04-30,清算の結了等,,,2015-10-05,1,,,,,スエヒロコウギョウ,0
303,1410002006036,登記記録の閉鎖等,0,2024-05-08,2024-04-23,有限会社イトーマーク,,有限会社,秋田県,秋田市,御所野地蔵田４丁目１９番１０号,,05,201,0101413,,,2024-04-23,清算の結了等,,,2015-10-05,1,,,,,イトーマーク,0
311,1430002039447,登記記録の閉鎖等,0,2024-05-08,2024-04-30,有限会社ＤｏＬａｂ,,有限会社,北海道,札幌市東区,北十三条東７丁目５番１０－１３１０号,,01,103,0650013,,,2024-04-30,清算の結了等,,,2015-10-05,1,,,,,ドゥーラボ,0
327,2010002000219,登記記録の閉鎖等,0,2024-05-08,2024-04-18,有限会社秋山紙工所,,有限会社,東京都,文京区,小石川５丁目３９番１６号,,13,105,1120002,,,2024-04-18,清算の結了等,,,2015-10-05,1,,,,,アキヤマシコウジョ,0
329,2010003036773,登記記録の閉鎖等,0,2024-05-08,2024-04-22,合同会社ＪＲＷＥＳＴファンド第２号,,合同会社,東京都,中央区,日本橋１丁目４番１号日本橋一丁目ビルディング,,13,102,1030027,,,2024-04-22,清算の結了等,,,2022-01-18,1,,,,,ジェイアールウエストファンドダイニゴウ,0
332,2010401071942,登記記録の閉鎖等,0,2024-05-08,2024-04-25,株式会社エストアール,,株式会社,東京都,大田区,蒲田３丁目１３番１３号,,13,111,1440052,,,2024-04-25,清算の結了等,,,2015-10-05,1,,,,,エストアール,0
354,2010803000061,登記記録の閉鎖等,0,2024-05-08,2024-04-16,合資会社ミカエルシューズ,,合資会社,東京都,大田区,下丸子３丁目１０番１３号,,13,111,1460092,,,2024-04-16,清算の結了等,,,2015-10-05,1,,,,,ミカエルシューズ,0
356,2010901021711,登記記録の閉鎖等,0,2024-05-08,2024-04-30,ゴールデンバード株式会社,,株式会社,東京都,世田谷区,代田５丁目３３番１５号,,13,112,1550033,,,2024-04-30,清算の結了等,,,2015-10-05,1,,,,,,0
369,2011001141945,登記記録の閉鎖等,0,2024-05-08,2024-04-16,株式会社ＬＶＢ,,株式会社,東京都,渋谷区,千駄ヶ谷３丁目６１－７－３０１,,13,113,1510051,,,2024-04-16,清算の結了等,,,2021-07-28,1,,,,,エルブイビー,0
370,2011001145847,登記記録の閉鎖等,0,2024-05-08,2024-04-16,株式会社ｗｅｂＡｒｃｈ,,株式会社,東京都,渋谷区,円山町５番５号Ｎａｖｉ渋谷Ｖ３階,,13,113,1500044,,,2024-04-16,清算の結了等,,,2022-02-28,1,,,,,ウェブアーキ,0
375,2011001154303,登記記録の閉鎖等,0,2024-05-08,2024-04-16,渋谷空調株式会社,,株式会社,東京都,渋谷区,道玄坂１丁目１０番８号渋谷道玄坂東急ビル２Ｆ－Ｃ,,13,113,1500043,,,2024-04-16,清算の結了等,,,2023-05-10,1,,,,,シブヤクウチョウ,0
377,2011003005702,登記記録の閉鎖等,0,2024-05-08,2024-04-18,合同会社ＪＳＧ,,合同会社,東京都,千代田区,大手町１丁目７－２東京サンケイビル２７階,,13,101,1000004,,,2024-04-18,清算の結了等,,,2015-10-05,1,,,,,ジェイエスジー,0
387,2011102007491,登記記録の閉鎖等,0,2024-05-08,2024-04-30,有限会社エーエスエー,,有限会社,東京都,新宿区,西新宿６丁目１２番７号,,13,104,1600023,,,2024-04-30,清算の結了等,,,2015-10-05,1,,,,,エーエスエー,0
396,2011401005832,登記記録の閉鎖等,0,2024-05-08,2024-04-26,株式会社マイカ貿易,,株式会社,東京都,板橋区,南常盤台２丁目２５番１０－６０１号,,13,119,1740072,,,2024-04-26,清算の結了等,,,2015-10-05,1,,,,,マイカボウエキ,0
407,2011801021223,登記記録の閉鎖等,0,2024-05-08,2024-05-01,エネライフ・キャリアー株式会社,,株式会社,東京都,港区,芝公園２丁目４番１号,,13,103,1050011,,,2024-05-01,合併による解散等,3020001005588,令和６年４月１日横浜市旭区上白根町７２５番地株式会社ホームエネルギー西関東（3020001005588）に合併し解散,2015-10-05,1,,,,,エネライフキャリアー,0
413,2013303003682,登記記録の閉鎖等,0,2024-05-08,2024-04-22,合同会社ハピネス,,合同会社,東京都,豊島区,東池袋４丁目２１番１ＯＷＬＴＯＷＥＲ３５０４号,,13,116,1700013,,,2024-04-22,清算の結了等,,,2017-04-27,1,,,,,ハピネス,0
414,2020001072679,登記記録の閉鎖等,0,2024-05-08,2024-04-25,熊谷建設株式会社,,株式会社,神奈川県,川崎市川崎区,浜町１丁目２番７号,,14,131,2100851,,,2024-04-25,清算の結了等,,,2023-08-23,1,,,,,クマガイケンセツ,0
422,2020002046252,登記記録の閉鎖等,0,2024-05-08,2024-04-23,有限会社高野重機サービス,00010980,有限会社,神奈川県,横浜市栄区,上郷町１０番地の９,,14,115,2470013,,,2024-04-23,清算の結了等,,,2015-10-05,1,,,,,タカノジュウキサービス,0
423,2020002061251,登記記録の閉鎖等,0,2024-05-08,2024-04-26,有限会社ロビンインターナショナル,,有限会社,神奈川県,横浜市青葉区,美しが丘５丁目２番１４号たまセンター第２ビル２０９号室,,14,117,2250002,,,2024-04-26,清算の結了等,,,2015-10-05,1,,,,,ロビンインターナショナル,0
435,2021002015585,登記記録の閉鎖等,0,2024-05-08,2024-05-01,有限会社蓬莱閣,00013118,有限会社,神奈川県,鎌倉市,長谷１丁目１６番２６号,,14,204,2480016,,,2024-05-01,清算の結了等,,,2015-10-05,1,,,,,ホウライカク,0
480,2100001032988,登記記録の閉鎖等,0,2024-05-08,2024-04-18,フューチャーリライアンス株式会社,,株式会社,長野県,長野市,上松３丁目２７番１２号,,20,201,3800802,,,2024-04-18,清算の結了等,,,2020-03-06,1,,,,,フューチャーリライアンス,0
482,2110001030306,登記記録の閉鎖等,0,2024-05-08,2024-05-01,極株式会社,,株式会社,新潟県,燕市,物流センター２丁目３４番地,,15,213,9591277,,,2024-05-01,合併による解散等,1110001016909,令和６年５月１日新潟県燕市物流センター二丁目３４番地ゴッドハンド株式会社（1110001016909）に合併し解散,2015-10-05,1,,,,,キワミ,0
490,2120002073872,登記記録の閉鎖等,0,2024-05-08,2024-05-02,有限会社カメラボーイ,,有限会社,大阪府,枚方市,楠葉並木２丁目１３番４号,,27,210,5731118,,,2024-05-02,清算の結了等,,,2015-10-05,1,,,,,カメラボーイ,0
494,2120005022001,登記記録の閉鎖等,0,2024-05-08,2024-05-07,一般社団法人日本ｂｅａｕｔｙ－ｖｉｘｘ脱毛協会,,その他の設立登記法人,大阪府,大阪市福島区,野田３丁目１３番２２号,,27,103,5530005,,,2024-05-07,清算の結了等,,,2020-12-14,1,,,,,ニホンビューティヴィックスダツモウキョウカイ,0
504,2130001028819,登記記録の閉鎖等,0,2024-05-08,2024-05-02,株式会社蓮樹,,株式会社,京都府,長岡京市,金ケ原北裏４番地８,,26,209,6170856,,,2024-05-02,清算の結了等,,,2015-10-05,1,,,,,レンジュ,0
510,2140001113966,登記記録の閉鎖等,0,2024-05-08,2024-05-02,株式会社ＴＯＰＲＯＡＤ,,株式会社,兵庫県,姫路市,忍町１１５番地,,28,201,6700917,,,2024-05-02,清算の結了等,,,2019-06-12,1,,,,,トップロード,0
523,2150001000949,登記記録の閉鎖等,0,2024-05-08,2024-05-01,株式会社シーゲル,,株式会社,奈良県,奈良市,芝辻町４丁目１０番地の２０,00042584,29,201,6308114,,,2024-05-01,清算の結了等,,,2015-10-05,1,,,,,シーゲル,0
529,2170003000739,登記記録の閉鎖等,0,2024-05-08,2024-05-02,合同会社オットー保険サービス,,合同会社,和歌山県,橋本市,高野口町応其２７３番地,,30,203,6497201,,,2024-05-02,清算の結了等,,,2015-10-05,1,,,,,オットーホケンサービス,0
540,2180002073693,登記記録の閉鎖等,0,2024-05-08,2024-04-23,有限会社三敬,,有限会社,愛知県,尾張旭市,東本地ケ原町４丁目３４番地,,23,226,4880033,,,2024-04-23,清算の結了等,,,2015-10-05,1,,,,,サンケイ,0
569,2280005005642,登記記録の閉鎖等,0,2024-05-08,2024-05-01,飯美生活協同組合,,その他の設立登記法人,島根県,隠岐郡隠岐の島町,飯美３６１番地２,,32,528,6850411,,,2024-05-01,清算の結了等,,,2015-10-05,1,,,,,イイビ,0
576,2290005010369,登記記録の閉鎖等,0,2024-05-08,2024-04-12,特定非営利活動法人青少年教育支援センター,,その他の設立登記法人,福岡県,久留米市,東町字洲崎５１６番地１,,40,203,8300032,,,2024-04-12,清算の結了等,,,2015-10-05,1,,,,,セイショウネンキョウイクシエンセンター,0
587,2320002013882,登記記録の閉鎖等,0,2024-05-08,2024-04-22,有限会社コスモプランニング,,有限会社,大分県,宇佐市,大字上田１２４９番地の１,,44,211,8790453,,,2024-04-22,清算の結了等,,,2015-10-05,1,,,,,コスモプランニング,0
589,2330002008980,登記記録の閉鎖等,0,2024-05-08,2024-05-01,有限会社文化堂レコード店,,有限会社,熊本県,熊本市中央区,九品寺１丁目１番１２－７０２号,,43,101,8620976,,,2024-05-01,清算の結了等,,,2015-10-05,1,,,,,ブンカドウレコードテン,0
602,2380002027084,登記記録の閉鎖等,0,2024-05-08,2024-04-30,有限会社遊粋庵,,有限会社,福島県,いわき市,小名浜住吉字冠木１３番地の２,,07,204,9718124,,,2024-04-30,清算の結了等,,,2015-10-05,1,,,,,,0
615,2460301002878,登記記録の閉鎖等,0,2024-05-08,2024-05-02,株式会社アイアンドユー薬品,,株式会社,北海道,紋別郡遠軽町,大通北２丁目１番地６,,01,555,0990404,,,2024-05-02,清算の結了等,,,2015-10-05,1,,,,,アイアンドユーヤクヒン,0
632,3010002012329,登記記録の閉鎖等,0,2024-05-08,2024-04-18,有限会社千代田ユニバース,,有限会社,東京都,千代田区,二番町１１番９号ダイアパレス二番町７０１号,,13,101,1020084,,,2024-04-18,清算の結了等,,,2015-10-05,1,,,,,チヨダユニバース,0
637,3010401071941,登記記録の閉鎖等,0,2024-05-08,2024-04-25,株式会社ステートグリーン,,株式会社,東京都,大田区,蒲田３丁目１３番１３号,,13,111,1440052,,,2024-04-25,清算の結了等,,,2015-10-05,1,,,,,ステートグリーン,0
662,3011002034081,登記記録の閉鎖等,0,2024-05-08,2024-04-30,有限会社エイケイアイ,,有限会社,東京都,渋谷区,本町１丁目４番１６号,,13,113,1510071,,,2024-04-30,清算の結了等,,,2015-10-05,1,,,,,エイケイアイ,0
663,3011002035039,登記記録の閉鎖等,0,2024-05-08,2024-04-16,有限会社アカウンティング壬生,,有限会社,東京都,渋谷区,幡ヶ谷１丁目３番１－６０７号,,13,113,1510072,,,2024-04-16,清算の結了等,,,2015-10-05,1,,,,,アカウンティングミブ,0
702,3013301003972,登記記録の閉鎖等,0,2024-05-08,2024-04-23,株式会社コンセプト,,株式会社,東京都,豊島区,東池袋３丁目１５番２－１０１４号,,13,116,1700013,,,2024-04-23,清算の結了等,,,2015-10-05,1,,,,,コンセプト,0
705,3020001013590,登記記録の閉鎖等,0,2024-05-08,2024-04-24,株式会社ハマコク,,株式会社,神奈川県,横浜市南区,六ツ川３丁目９１番地の５２,,14,105,2320066,,,2024-04-24,清算の結了等,,,2015-10-05,1,,,,,ハマコク,0
716,3021001002402,登記記録の閉鎖等,0,2024-05-08,2024-05-01,株式会社ワキプリントピア,,株式会社,神奈川県,藤沢市,石川６丁目２６番地の１９,,14,205,2520815,,,2024-05-01,清算の結了等,,,2015-10-05,1,,,,,ワキプリントピア,0
731,3040001001833,登記記録の閉鎖等,0,2024-05-08,2024-04-23,株式会社くにみ,,株式会社,千葉県,千葉市若葉区,千城台東１丁目１番６棟４０４号,,12,104,2640002,,,2024-04-23,清算の結了等,,,2015-10-05,1,,,,,クニミ,0
746,3060001029451,登記記録の閉鎖等,0,2024-05-08,2024-04-26,株式会社塩原屋,,株式会社,栃木県,那須塩原市,三島１丁目２３番地１３,,09,213,3292752,,,2024-04-26,清算の結了等,,,2017-05-26,1,,,,,シオバラヤ,0
747,3060001035490,登記記録の閉鎖等,0,2024-05-08,2024-04-26,株式会社ＮＯＭＩプランニング,,株式会社,栃木県,宇都宮市,宝木町２丁目２５５４番地８０,,09,201,3200061,,,2024-04-26,清算の結了等,,,2022-11-30,1,,,,,エヌオーエムアイプランニング,0
757,3090002012940,登記記録の閉鎖等,0,2024-05-08,2024-05-01,有限会社渡辺燃料店,,有限会社,山梨県,南都留郡富士河口湖町,船津３９９番地の１,,19,430,4010301,,,2024-05-01,清算の結了等,,,2015-10-05,1,,,,,ワタナベネンリョウテン,0
764,3110002026921,登記記録の閉鎖等,0,2024-05-08,2024-05-01,有限会社ウルマ電機,,有限会社,新潟県,長岡市,要町３丁目１番１８号,,15,202,9401153,,,2024-05-01,合併による解散等,1110001003956,令和６年５月１日新潟市西区流通センター三丁目１番地３株式会社新潟電装（1110001003956）に合併し解散,2015-10-05,1,,,,,ウルマデンキ,0
786,3120902018802,登記記録の閉鎖等,0,2024-05-08,2024-04-25,ゼット・シール有限会社,,有限会社,大阪府,豊中市,利倉１丁目１４番２８号,,27,203,5610845,,,2024-04-25,清算の結了等,,,2015-10-05,1,,,,,ゼットシール,0
789,3122003002025,登記記録の閉鎖等,0,2024-05-08,2024-04-30,合同会社ＢＥ　ＳＭＡＲＴ,,合同会社,大阪府,八尾市,荘内町１丁目２番２０－６０１号,,27,212,5810005,,,2024-04-30,清算の結了等,,,2021-02-12,1,,,,,ビースマート,0
798,3140001090271,登記記録の閉鎖等,0,2024-05-08,2024-05-01,株式会社タカハシ機工,,株式会社,兵庫県,尼崎市,西川２丁目１１番２３号,,28,202,6610966,,,2024-05-01,清算の結了等,,,2015-10-05,1,,,,,タカハシキコウ,0
806,3140002052246,登記記録の閉鎖等,0,2024-05-08,2024-04-30,有限会社角谷工業,,有限会社,兵庫県,姫路市,飾東町八重畑１０４０番地の１,,28,201,6710208,,,2024-04-30,合併による解散等,9140001115064,令和６年４月３０日兵庫県姫路市御国野町国分寺８３６番地３株式会社大勇総建（9140001115064）に合併し解散,2015-10-05,1,,,,,カクタニコウギョウ,0
807,3140003005681,登記記録の閉鎖等,0,2024-05-08,2024-05-01,合資会社多田クリーニング店,,合資会社,兵庫県,明石市,大久保町大窪２２８番地,,28,203,6740051,,,2024-05-01,清算の結了等,,,2015-10-05,1,,,,,タダクリーニングテン,0
818,3180002007626,登記記録の閉鎖等,0,2024-05-08,2024-04-24,有限会社イトウ企画,,有限会社,愛知県,名古屋市昭和区,鶴舞３丁目１３番１４号,,23,107,4660064,,,2024-04-24,清算の結了等,,,2015-10-05,1,,,,,イトウキカク,0
819,3180002016619,登記記録の閉鎖等,0,2024-05-08,2024-04-26,有限会社ハッピーウィングズ,,有限会社,愛知県,一宮市,大宮２丁目６番１２－６０１号,,23,203,4910044,,,2024-04-26,清算の結了等,,,2015-10-05,1,,,,,ハッピーウィングズ,0
822,3180002084649,登記記録の閉鎖等,0,2024-05-08,2024-04-25,有限会社大府インター吉田給油所,,有限会社,愛知県,大府市,宮内町６丁目２５９番地,,23,223,4740047,,,2024-04-25,清算の結了等,,,2015-10-05,1,,,,,オオブインターヨシダキュウユジョ,0
837,3230002000609,登記記録の閉鎖等,0,2024-05-08,2024-04-30,有限会社小川自動車工業所,,有限会社,富山県,富山市,田尻西２０４番地１０,,16,201,9302224,,,2024-04-30,清算の結了等,,,2015-10-05,1,,,,,オガワジドウシャコウギョウショ,0
840,3260001013121,登記記録の閉鎖等,0,2024-05-08,2024-04-23,倉敷ファッションセンター株式会社,,株式会社,岡山県,倉敷市,児島駅前１丁目４６番地,,33,202,7110921,,,2024-04-23,清算の結了等,,,2015-10-05,1,,,,,クラシキファッションセンター,0
841,3260001035165,登記記録の閉鎖等,0,2024-05-08,2024-04-23,株式会社アレスト,,株式会社,岡山県,倉敷市,白楽町３６６番地５アスティオン１０２,,33,202,7100824,,,2024-04-23,清算の結了等,,,2021-02-02,1,,,,,アレスト,0
862,3330001028871,登記記録の閉鎖等,0,2024-05-08,2024-04-30,株式会社ＷＯＯＳＵＮＧ　ＦＯＯＤ,,株式会社,熊本県,熊本市中央区,上通町１１番１号ＴＭＧビル１階,,43,101,8600845,,,2024-04-30,清算の結了等,,,2021-08-04,1,,,,,ウソンフード,0
882,3430001026766,登記記録の閉鎖等,0,2024-05-08,2024-05-02,北海道アンソロポロジー株式会社,,株式会社,北海道,札幌市北区,北七条西１丁目１番地２,,01,102,0600807,,,2024-05-02,合併による解散等,9010001069083,令和６年４月１日東京都品川区東品川二丁目２番２４号株式会社キナリ（9010001069083）に合併し解散,2015-10-05,1,,,,,ホッカイドウアンソロポロジー,0
909,4010001050782,登記記録の閉鎖等,0,2024-05-08,2024-04-17,サドラー・ジャパン株式会社,,株式会社,東京都,渋谷区,恵比寿４丁目２０番３号,,13,113,1500013,,,2024-04-17,合併による解散等,2011003002955,令和６年４月１日東京都渋谷区恵比寿四丁目２０番３号恵比寿ガーデンプレイスタワー２５階ＶＭＬ＆Ｏｇｉｌｖｙ　Ｊａｐａｎ合同会社（2011003002955）に合併し解散,2015-10-05,1,,,,,サドラージャパン,0
925,4010401146841,登記記録の閉鎖等,0,2024-05-08,2024-04-30,株式会社クロケット,,株式会社,東京都,港区,赤坂２丁目２１番１２号,,13,103,1070052,,,2024-04-30,合併による解散等,7010401017255,令和６年４月３０日東京都港区赤坂二丁目２１番１２号株式会社タンデム（7010401017255）に合併し解散,2019-07-17,1,,,,,クロケット,0
948,4011001007649,登記記録の閉鎖等,0,2024-05-08,2024-04-30,株式会社巧芸創作,,株式会社,東京都,渋谷区,元代々木町１２番８号,,13,113,1510062,,,2024-04-30,清算の結了等,,,2015-10-05,1,,,,,コウゲイソウサク,0
972,4011401005995,登記記録の閉鎖等,0,2024-05-08,2024-04-24,丸三企画興業株式会社,,株式会社,東京都,板橋区,舟渡２丁目１３番１１号,,13,119,1740041,,,2024-04-24,清算の結了等,,,2015-10-05,1,,,,,マルサンキカクコウギョウ,0
976,4011501010986,登記記録の閉鎖等,0,2024-05-08,2024-04-24,カルティベーションクリエイト株式会社,,株式会社,東京都,北区,東十条４丁目１０番３号,,13,117,1140001,,,2024-04-24,清算の結了等,,,2015-10-05,1,,,,,カルティベーションクリエイト,0
983,4011701000473,登記記録の閉鎖等,0,2024-05-08,2024-04-23,ＹＣＮ株式会社,,株式会社,東京都,江戸川区,西葛西６丁目１６番１６号,,13,123,1340088,,,2024-04-23,清算の結了等,,,2015-10-05,1,,,,,ワイシーエヌ,0
991,4012702005296,登記記録の閉鎖等,0,2024-05-08,2024-04-30,有限会社太田工務店,,有限会社,東京都,西東京市,谷戸町１丁目２７番５号,,13,229,1880001,,,2024-04-30,清算の結了等,,,2015-10-05,1,,,,,オオタコウムテン,0
994,4020001002840,登記記録の閉鎖等,0,2024-05-08,2024-04-24,株式会社ニッシン,,株式会社,神奈川県,川崎市川崎区,南町１２番１６号,,14,131,2100015,,,2024-04-24,清算の結了等,,,2015-10-05,1,,,,,ニッシン,0
1008,4020002032663,登記記録の閉鎖等,0,2024-05-08,2024-04-25,有限会社歌川板金工業所,,有限会社,神奈川県,横浜市港北区,綱島西２丁目７番５号,,14,109,2230053,,,2024-04-25,清算の結了等,,,2015-10-05,1,,,,,,0
1009,4020002049591,登記記録の閉鎖等,0,2024-05-08,2024-04-25,有限会社小林総合カンパニー,,有限会社,神奈川県,横浜市緑区,長津田５丁目３番３１号,,14,113,2260027,,,2024-04-25,清算の結了等,,,2015-10-05,1,,,,,,0
1018,4021002051018,登記記録の閉鎖等,0,2024-05-08,2024-05-01,有限会社井上楽器,,有限会社,神奈川県,小田原市,栄町１丁目１０番１２号,,14,206,2500011,,,2024-05-01,清算の結了等,,,2015-10-05,1,,,,,イノウエガッキ,0
1025,4030001127686,登記記録の閉鎖等,0,2024-05-08,2024-04-30,トライアングル３株式会社,,株式会社,埼玉県,戸田市,大字新曽１４２３番地,,11,224,3350021,,,2024-04-30,清算の結了等,,,2018-10-03,1,,,,,トライアングルスリー,0
1066,4090001010903,登記記録の閉鎖等,0,2024-05-08,2024-04-26,アカウンティングライフ株式会社,,株式会社,山梨県,富士吉田市,上吉田５丁目６番１４号,,19,202,4030005,,,2024-04-26,清算の結了等,,,2015-10-05,1,,,,,アカウンティングライフ,0
1070,4090001016124,登記記録の閉鎖等,0,2024-05-08,2024-05-02,ＲＩＣＨ　ＫＲＩＳＴＡＬ株式会社,,株式会社,山梨県,甲府市,高畑１丁目１３番３６号,,19,201,4000042,,,2024-05-02,清算の結了等,,,2019-07-25,1,,,,,リッチクリスタル,0
1084,4120001227931,登記記録の閉鎖等,0,2024-05-08,2024-04-30,株式会社コントラクト,,株式会社,大阪府,大阪市平野区,平野上町２丁目８番２０号,,27,126,5470045,,,2024-04-30,清算の結了等,,,2020-03-18,1,,,,,コントラクト,0
1090,4120003014023,登記記録の閉鎖等,0,2024-05-08,2024-05-02,合同会社Ｓｍａｒｔ　Ｉｎｆｏｒｍａｔｉｏｎ,,合同会社,大阪府,大阪市中央区,南船場４丁目１２番８号関西心斎橋ビル８０２,,27,128,5420081,,,2024-05-02,清算の結了等,,,2018-03-05,1,,,,,スマートインフォメーション,0
1094,4122001029011,登記記録の閉鎖等,0,2024-05-08,2024-05-01,株式会社ＨＯＭＡ,,株式会社,大阪府,東大阪市,池島町８丁目１－４０,,27,227,5798064,,,2024-05-01,清算の結了等,,,2015-11-06,1,,,,,ホマー,0
1098,4130001062964,登記記録の閉鎖等,0,2024-05-08,2024-04-30,株式会社フェイシンク,,株式会社,京都府,京都市西京区,川島東代町１８番地２,,26,111,6158101,,,2024-04-30,清算の結了等,,,2018-09-19,1,,,,,フェイシンク,0
1110,4140002061444,登記記録の閉鎖等,0,2024-05-08,2024-05-01,有限会社ＯＧＮデザイン,,有限会社,兵庫県,西脇市,黒田庄町田高２５１番地の３,,28,213,6790321,,,2024-05-01,清算の結了等,,,2015-10-05,1,,,,,オージーエヌデザイン,0
1113,4140005021775,登記記録の閉鎖等,0,2024-05-08,2024-05-01,医療法人社団中井歯科医院,,その他の設立登記法人,兵庫県,尼崎市,塚口町３丁目２６番地の６,,28,202,6610002,,,2024-05-01,清算の結了等,,,2015-10-05,1,,,,,ナカイシカイイン,0
1134,4180002089804,登記記録の閉鎖等,0,2024-05-08,2024-04-25,有限会社タカワ製作所,,有限会社,愛知県,海部郡蟹江町,大字今字川東下７番地,,23,425,4970032,,,2024-04-25,清算の結了等,,,2015-10-05,1,,,,,タカワセイサクショ,0
1160,4240002040842,登記記録の閉鎖等,0,2024-05-08,2024-05-01,太陽コーポレーション有限会社,,有限会社,広島県,福山市,神島町１１番２７号,,34,207,7200091,,,2024-05-01,清算の結了等,,,2015-10-05,1,,,,,タイヨウコーポレーション,0
1194,4300002004907,登記記録の閉鎖等,0,2024-05-08,2024-05-02,有限会社坂本工業,,有限会社,佐賀県,佐賀市,大和町大字池上１２６６番地,,41,201,8400212,,,2024-05-02,清算の結了等,,,2015-10-05,1,,,,,サカモトコウギョウ,0
1204,4330002009408,登記記録の閉鎖等,0,2024-05-08,2024-04-26,有限会社ペンション四季彩,,有限会社,熊本県,熊本市西区,上熊本１丁目１０番３７号,,43,103,8600079,,,2024-04-26,清算の結了等,,,2015-10-05,1,,,,,ペンションシキサイ,0
1208,4340002004028,登記記録の閉鎖等,0,2024-05-08,2024-05-02,有限会社呉服のおびや,,有限会社,鹿児島県,鹿児島市,東千石町１５番１８号,,46,201,8920842,,,2024-05-02,清算の結了等,,,2015-10-05,1,,,,,ゴフクノオビヤ,0
1212,4340005005592,登記記録の閉鎖等,0,2024-05-08,2024-05-07,特定非営利活動法人めざせ地球人,,その他の設立登記法人,鹿児島県,鹿児島市,鴨池１丁目４番６号,,46,201,8900063,,,2024-05-07,清算の結了等,,,2015-10-05,1,,,,,メザセチキュウジン,0
1249,4470003001903,登記記録の閉鎖等,0,2024-05-08,2024-04-26,巣立商事合同会社,,合同会社,香川県,高松市,北浜町１４番２１号,,37,201,7600031,,,2024-04-26,清算の結了等,,,2021-01-19,1,,,,,スタチショウジ,0
1290,5010802015454,登記記録の閉鎖等,0,2024-05-08,2024-04-24,有限会社ラインズ,,有限会社,東京都,大田区,西六郷１丁目１２番２２－１１０５号,,13,111,1440056,,,2024-04-24,清算の結了等,,,2015-10-05,1,,,,,ラインズ,0
1294,5011001054203,登記記録の閉鎖等,0,2024-05-08,2024-04-26,株式会社ＧＬＩＳＰＥＲ,,株式会社,東京都,渋谷区,上原３丁目８番２号ＫＵ上原１Ｆ,,13,113,1510064,,,2024-04-26,清算の結了等,,,2015-10-05,1,,,,,,0
1299,5011001112968,登記記録の閉鎖等,0,2024-05-08,2024-04-24,株式会社ロジカルリンク,,株式会社,東京都,品川区,西五反田７丁目２１－１第５ＴＯＣビル３Ｆ,,13,109,1410031,,,2024-04-24,清算の結了等,,,2016-10-04,1,,,,,ロジカルリンク,0
1301,5011001126828,登記記録の閉鎖等,0,2024-05-08,2024-04-16,株式会社Ｓｔａｎｄｂｙｍｅ,,株式会社,東京都,渋谷区,神南１丁目２０番２号第一清水ビル２階,,13,113,1500041,,,2024-04-16,清算の結了等,,,2019-03-05,1,,,,,スタンドバイミー,0
1308,5011005007396,登記記録の閉鎖等,0,2024-05-08,2024-04-26,特定非営利活動法人ＷＨＥＡＴ,,その他の設立登記法人,東京都,渋谷区,代々木２丁目１番１号マインズタワー地下１階,,13,113,1510053,,,2024-04-26,清算の結了等,,,2017-10-18,1,,,,,ウィート,0
1318,5011301025226,登記記録の閉鎖等,0,2024-05-08,2024-04-30,株式会社和乃和,,株式会社,愛知県,名古屋市昭和区,鶴舞４丁目８番２８号,,23,107,4660064,,,2024-04-30,合併による解散等,9200001038630,令和６年４月３０日岐阜県大垣市林町五丁目１８番地１１株式会社翔和（9200001038630）に合併し解散,2019-07-22,1,,,,,ワノワ,0
1327,5011602010637,登記記録の閉鎖等,0,2024-05-08,2024-04-26,有限会社ヨエル,,有限会社,東京都,練馬区,豊玉上２丁目２７番２０号,,13,120,1760011,,,2024-04-26,清算の結了等,,,2015-10-05,1,,,,,ヨエル,0
1331,5011701007278,登記記録の閉鎖等,0,2024-05-08,2024-04-24,株式会社牧野園,,株式会社,東京都,江戸川区,北小岩７丁目８番１８号,,13,123,1330051,,,2024-04-24,清算の結了等,,,2015-10-05,1,,,,,マキノエン,0
1333,5011701023993,登記記録の閉鎖等,0,2024-05-08,2024-05-02,株式会社うらら,,株式会社,群馬県,伊勢崎市,喜多町４７番地２Ｆ－１０１,,10,204,3720056,,,2024-05-02,清算の結了等,,,2020-12-18,1,,,,,,0
1357,5020005013800,登記記録の閉鎖等,0,2024-05-08,2024-04-24,モナーク綱島管理組合法人,,その他の設立登記法人,神奈川県,横浜市南区,日枝町４丁目９７番３号,,14,105,2320011,,,2024-04-24,清算の結了等,,,2018-08-10,1,,,,,モナークツナシマ,0
1361,5021001065769,登記記録の閉鎖等,0,2024-05-08,2024-05-02,株式会社バズライト,,株式会社,神奈川県,小田原市,東町４丁目４番１０,,14,206,2500003,,,2024-05-02,清算の結了等,,,2018-10-04,1,,,,,バズライト,0
1376,5030001091089,登記記録の閉鎖等,0,2024-05-08,2024-04-30,太陽樹脂工業株式会社,,株式会社,埼玉県,秩父郡長瀞町,大字本野上６２３番地２,,11,363,3691304,,,2024-04-30,清算の結了等,,,2015-10-05,1,,,,,タイヨウジュシコウギョウ,0
1418,5050002026570,登記記録の閉鎖等,0,2024-05-08,2024-04-30,有限会社タカギ部品商会,,有限会社,茨城県,鹿嶋市,大字宮中９０番地１,,08,222,3140031,,,2024-04-30,清算の結了等,,,2015-10-05,1,,,,,タカギブヒンショウカイ,0
1422,5070001036552,登記記録の閉鎖等,0,2024-05-08,2024-04-25,株式会社猪俣労務コンサルティング,,株式会社,群馬県,館林市,大手町５番１４号,,10,207,3740023,,,2024-04-25,清算の結了等,,,2020-02-07,1,,,,,イノマタロウムコンサルティング,0
1433,5120001047734,登記記録の閉鎖等,0,2024-05-08,2024-05-07,サンキアドレス株式会社,,株式会社,大阪府,大阪市中央区,農人橋１丁目２番１号,,27,128,5400011,,,2024-05-07,清算の結了等,,,2015-10-05,1,,,,,サンキアドレス,0
1447,5120002009279,登記記録の閉鎖等,0,2024-05-08,2024-05-01,有限会社勝山商店,,有限会社,大阪府,大阪市生野区,小路東１丁目１番１６号,,27,116,5440003,,,2024-05-01,清算の結了等,,,2015-10-05,1,,,,,カツヤマショウテン,0
1489,5180003025022,登記記録の閉鎖等,0,2024-05-08,2024-04-25,日月の杜合同会社,,合同会社,愛知県,名古屋市中村区,名駅４丁目２４番５号第２森ビル４０１,,23,105,4500002,,,2024-04-25,清算の結了等,,,2023-03-27,1,,,,,ヒヅキノモリ,0
1490,5180003025583,登記記録の閉鎖等,0,2024-05-08,2024-04-24,合同会社ストックデザイン,,合同会社,愛知県,名古屋市緑区,有松１０４６番地,,23,114,4580924,,,2024-04-24,清算の結了等,,,2023-08-07,1,,,,,ストックデザイン,0
1498,5200001001303,登記記録の閉鎖等,0,2024-05-08,2024-05-02,岐阜水産商事株式会社,,株式会社,岐阜県,岐阜市,茜部新所１丁目２６０番地,,21,201,5008263,,,2024-05-02,清算の結了等,,,2015-10-05,1,,,,,,0
1508,5240002002222,登記記録の閉鎖等,0,2024-05-08,2024-05-02,有限会社エスエフエス企画,,有限会社,広島県,広島市中区,橋本町５番５号,,34,101,7300015,,,2024-05-02,清算の結了等,,,2015-10-05,1,,,,,エスエフエスキカク,0
1509,5240002048067,登記記録の閉鎖等,0,2024-05-08,2024-05-02,有限会社五常興産,,有限会社,広島県,安芸郡海田町,寺迫１丁目５番１６号,,34,304,7360011,,,2024-05-02,清算の結了等,,,2015-10-05,1,,,,,ゴジョウコウサン,0
1546,5360001009413,登記記録の閉鎖等,0,2024-05-08,2024-05-01,株式会社クチーナ沖縄,,株式会社,沖縄県,宜野湾市,大山６丁目２５番６号,,47,205,9012223,,,2024-05-01,清算の結了等,,,2015-10-05,1,,,,,クチーナオキナワ,0
1574,5430003002788,登記記録の閉鎖等,0,2024-05-08,2024-04-25,適澤合資会社,,合資会社,北海道,小樽市,相生町１番５号,,01,203,0470028,,,2024-04-25,清算の結了等,,,2015-10-05,1,,,,,テキザワ,0
1581,5470002002372,登記記録の閉鎖等,0,2024-05-08,2024-04-26,有限会社共和電機工業所,,有限会社,香川県,高松市,松福町１丁目２３番２７号,,37,201,7600067,,,2024-04-26,清算の結了等,,,2015-10-05,1,,,,,キョウワデンキコウギョウショ,0
1586,6010001043405,登記記録の閉鎖等,0,2024-05-08,2024-04-19,壽紙業株式会社,,株式会社,東京都,中央区,八重洲１丁目１番３号,,13,102,1030028,,,2024-04-19,清算の結了等,,,2015-10-05,1,,,,,コトブキシギョウ,0
1593,6010002051885,登記記録の閉鎖等,0,2024-05-08,2024-04-25,株式会社ｍ‐ｃｒａｍｐ,,株式会社,神奈川県,横浜市中区,吉浜町１番地２パークスクエア横浜１５１４号室,,14,104,2310024,,,2024-04-25,清算の結了等,,,2015-10-05,1,,,,,エムクランプ,0
1597,6010401113591,登記記録の閉鎖等,0,2024-05-08,2024-04-17,株式会社ＤＰＡ　ＪＡＰＡＮ,,株式会社,東京都,目黒区,洗足２丁目２８番１７号,,13,110,1520012,,,2024-04-17,清算の結了等,,,2015-10-05,1,,,,,ディーピーエージャパン,0
1621,6011001126083,登記記録の閉鎖等,0,2024-05-08,2024-04-30,株式会社プロフェッショナル＆パートナーズ,,株式会社,東京都,目黒区,青葉台１丁目８番１号,,13,110,1530042,,,2024-04-30,清算の結了等,,,2019-01-16,1,,,,,プロフェッショナルアンドパートナーズ,0
1631,6011003002951,登記記録の閉鎖等,0,2024-05-08,2024-04-17,Ｗｕｎｄｅｒｍａｎ　Ｔｈｏｍｐｓｏｎ　Ｔｏｋｙｏ合同会社,,合同会社,東京都,渋谷区,恵比寿４丁目２０番３号恵比寿ガーデンプレイスタワー３０階,,13,113,1500013,,,2024-04-17,合併による解散等,2011003002955,令和６年４月１日東京都渋谷区恵比寿四丁目２０番３号恵比寿ガーデンプレイスタワー２５階ＶＭＬ＆Ｏｇｉｌｖｙ　Ｊａｐａｎ合同会社（2011003002955）に合併し解散,2015-10-05,1,,,,,ワンダーマントンプソントウキョウ,0
1667,6013402006442,登記記録の閉鎖等,0,2024-05-08,2024-04-30,有限会社健康堂,,有限会社,東京都,多摩市,関戸２丁目６９番地５,,13,224,2060011,,,2024-04-30,清算の結了等,,,2015-10-05,1,,,,,ケンコウドウ,0
1671,6020001055127,登記記録の閉鎖等,0,2024-05-08,2024-04-17,株式会社Ｋスタジオ東京,,株式会社,東京都,渋谷区,東１丁目１０番６号,,13,113,1500011,,,2024-04-17,清算の結了等,,,2015-10-05,1,,,,,ケースタジオトウキョウ,0
1685,6021001032462,登記記録の閉鎖等,0,2024-05-08,2024-04-26,オーラ株式会社,,株式会社,神奈川県,小田原市,本町２丁目３番２４号,,14,206,2500012,,,2024-04-26,清算の結了等,,,2015-10-05,1,,,,,オーラ,0
1693,6021002047113,登記記録の閉鎖等,0,2024-05-08,2024-05-02,有限会社ワールド企画,,有限会社,神奈川県,綾瀬市,寺尾本町１丁目２１番６号,,14,218,2521133,,,2024-05-02,清算の結了等,,,2015-10-05,1,,,,,,0
1700,6030001007317,登記記録の閉鎖等,0,2024-05-08,2024-04-30,ブリック東京株式会社,,株式会社,埼玉県,さいたま市緑区,大字三室８６７番地７,,11,109,3360911,,,2024-04-30,清算の結了等,,,2015-10-05,1,,,,,ブリックトウキョウ,0
1701,6030001009098,登記記録の閉鎖等,0,2024-05-08,2024-04-30,ロッキーホーム建設株式会社,,株式会社,埼玉県,さいたま市浦和区,元町１丁目４番３号,,11,107,3300073,,,2024-04-30,清算の結了等,,,2015-10-05,1,,,,,ロッキーホームケンセツ,0
1702,6030001022101,登記記録の閉鎖等,0,2024-05-08,2024-04-30,株式会社フナツキ製本,,株式会社,埼玉県,戸田市,笹目８丁目１番地２,,11,224,3350034,,,2024-04-30,清算の結了等,,,2015-10-05,1,,,,,フナツキセイホン,0
1706,6030001101177,登記記録の閉鎖等,0,2024-05-08,2024-04-30,ビルメンテナンス企画株式会社,,株式会社,埼玉県,越谷市,大字大泊７６５番地６８,,11,222,3430044,,,2024-04-30,清算の結了等,,,2015-10-05,1,,,,,ビルメンテナンスキカク,0
1718,6030002077301,登記記録の閉鎖等,0,2024-05-08,2024-04-30,有限会社双葉機械工業,,有限会社,埼玉県,入間郡三芳町,大字上富４５９番地９,,11,324,3540045,,,2024-04-30,清算の結了等,,,2015-10-05,1,,,,,フタバキカイコウギョウ,0
1727,6040002041792,登記記録の閉鎖等,0,2024-05-08,2024-04-23,有限会社美津屋商店,,有限会社,千葉県,浦安市,堀江３丁目１７番２号,,12,227,2790041,,,2024-04-23,清算の結了等,,,2015-10-05,1,,,,,,0
1749,6090001013474,登記記録の閉鎖等,0,2024-05-08,2024-05-02,株式会社協同,,株式会社,山梨県,甲府市,中小河原１丁目１１番１０号,,19,201,4000855,,,2024-05-02,清算の結了等,,,2015-10-05,1,,,,,キョウドウ,0
1752,6100002011079,登記記録の閉鎖等,0,2024-05-08,2024-04-18,有限会社日鵬住建,,有限会社,長野県,佐久市,上平尾８５１番地１,,20,217,3850002,,,2024-04-18,清算の結了等,,,2015-10-05,1,,,,,ニッポウジュウケン,0
1787,6140001009401,登記記録の閉鎖等,0,2024-05-08,2024-05-01,株式会社ディ・オー一級建築士事務所,,株式会社,兵庫県,神戸市兵庫区,中道通３丁目３番１号,,28,105,6520801,,,2024-05-01,合併による解散等,7140002023706,令和６年５月１日神戸市兵庫区中道通三丁目３番１号株式会社ディ・オー（7140002023706）に合併し解散,2015-10-05,1,,,,,ディオーイッキュウケンチクシジムショ,0
1799,6170005001723,登記記録の閉鎖等,0,2024-05-08,2024-05-07,特定非営利活動法人よみかきパソコン,,その他の設立登記法人,和歌山県,和歌山市,出口中ノ丁５番地,,30,201,6408283,,,2024-05-07,清算の結了等,,,2015-10-05,1,,,,,ヨミカキパソコン,0
1814,6180003007762,登記記録の閉鎖等,0,2024-05-08,2024-04-26,合資会社シヨウワナゲット,,合資会社,愛知県,名古屋市西区,あし原町７８番地,,23,104,4520823,,,2024-04-26,清算の結了等,,,2015-10-05,1,,,,,シヨウワナゲット,0
1817,6180302003388,登記記録の閉鎖等,0,2024-05-08,2024-04-30,有限会社かね高商店,,有限会社,愛知県,額田郡幸田町,大字菱池字池端２０番地２,,23,501,4440113,,,2024-04-30,清算の結了等,,,2015-10-05,1,,,,,,0
1832,6230005009082,登記記録の閉鎖等,0,2024-05-08,2024-04-24,一般社団法人富山医療従事者支援団体,,その他の設立登記法人,富山県,富山市,上大久保３２２番地５,,16,201,9392252,,,2024-04-24,清算の結了等,,,2020-06-03,1,,,,,トヤマイリョウジュウジシャシエンダンタイ,0
1888,6430001017003,登記記録の閉鎖等,0,2024-05-08,2024-04-30,株式会社本桐牧場,,株式会社,北海道,札幌市中央区,南十八条西１７丁目１番４５－３０７号,,01,101,0640918,,,2024-04-30,清算の結了等,,,2015-10-05,1,,,,,ホンキリボクジョウ,0
1900,6430005013551,登記記録の閉鎖等,0,2024-05-08,2024-05-01,北海道オールペット事業協同組合,,その他の設立登記法人,北海道,札幌市西区,発寒十四条２丁目８番９号,,01,107,0630834,,,2024-05-01,清算の結了等,,,2018-12-04,1,,,,,ホッカイドウオールペット,0
1902,6450001004239,登記記録の閉鎖等,0,2024-05-08,2024-05-01,株式会社三井設計,,株式会社,北海道,旭川市,四条通２５丁目４４４番地の２,,01,204,0788214,,,2024-05-01,清算の結了等,,,2015-10-05,1,,,,,ミツイセッケイ,0
1914,7010001068616,登記記録の閉鎖等,0,2024-05-08,2024-04-26,黒越化学株式会社,,株式会社,東京都,世田谷区,瀬田１丁目１６番１９号,,13,112,1580095,,,2024-04-26,清算の結了等,,,2015-10-05,1,,,,,クロコシカガク,0
1951,7010601016073,登記記録の閉鎖等,0,2024-05-08,2024-04-25,明和産業株式会社,,株式会社,東京都,墨田区,太平３丁目１０番１１号,,13,107,1300012,,,2024-04-25,清算の結了等,,,2015-10-05,1,,,,,メイワサンギョウ,0
1954,7010603009901,登記記録の閉鎖等,0,2024-05-08,2024-04-26,ＲＦ合同会社,,合同会社,東京都,墨田区,緑４丁目１３－４つるやビル２０１,,13,107,1300021,,,2024-04-26,清算の結了等,,,2022-12-22,1,,,,,ロゼフジ,0
1968,7011001109418,登記記録の閉鎖等,0,2024-05-08,2024-04-30,ノーリス株式会社,,株式会社,東京都,渋谷区,代々木２丁目２３番１号ニューステイトメナー１００３号室,,13,113,1510053,,,2024-04-30,清算の結了等,,,2016-02-08,1,,,,,ノーリス,0
1973,7011001150207,登記記録の閉鎖等,0,2024-05-08,2024-04-12,株式会社ＦｉｒｓｔＲｅｔｕｒｎ,,株式会社,東京都,目黒区,上目黒１丁目１６番１２号,,13,110,1530051,,,2024-04-12,清算の結了等,,,2022-10-12,1,,,,,ファーストリターン,0
1979,7011003005474,登記記録の閉鎖等,0,2024-05-08,2024-04-26,合同会社ハルカフーズ,,合同会社,東京都,渋谷区,代々木２丁目１番１号マインズタワー地下１階,,13,113,1510053,,,2024-04-26,清算の結了等,,,2015-10-05,1,,,,,ハルカフーズ,0
1983,7011101023287,登記記録の閉鎖等,0,2024-05-08,2024-04-26,株式会社タックデザインアンドエンジニア,,株式会社,東京都,新宿区,新宿２丁目８番８号,,13,104,1600022,,,2024-04-26,清算の結了等,,,2015-10-05,1,,,,,タックデザインアンドエンジニア,0
2009,7012402000108,登記記録の閉鎖等,0,2024-05-08,2024-04-30,有限会社曙湯,,有限会社,東京都,府中市,晴見町１丁目１１番地１,,13,206,1830057,,,2024-04-30,清算の結了等,,,2015-10-05,1,,,,,アケボノユ,0
2014,7013201018563,登記記録の閉鎖等,0,2024-05-08,2024-05-02,株式会社インターミックス,,株式会社,神奈川県,鎌倉市,腰越７９５番地,,14,204,2480033,,,2024-05-02,清算の結了等,,,2015-10-05,1,,,,,インターミックス,0
2019,7020001072996,登記記録の閉鎖等,0,2024-05-08,2024-04-26,株式会社サン測量,,株式会社,神奈川県,川崎市川崎区,鋼管通３丁目１０番９号,,14,131,2100852,,,2024-04-26,清算の結了等,,,2015-10-05,1,,,,,サンソクリョウ,0
2029,7020003021555,登記記録の閉鎖等,0,2024-05-08,2024-04-24,合同会社眞晃,,合同会社,神奈川県,横浜市神奈川区,三ツ沢中町１０番８号ライオンズマンションヨコハマ三ツ沢１０２,,14,102,2210851,,,2024-04-24,清算の結了等,,,2022-04-06,1,,,,,マコウ,0
2037,7021005005513,登記記録の閉鎖等,0,2024-05-08,2024-05-01,医療法人社団椎野歯科医院,,その他の設立登記法人,神奈川県,小田原市,成田２８８番地,,14,206,2500862,,,2024-05-01,清算の結了等,,,2015-10-05,1,,,,,,0
2038,7030001009097,登記記録の閉鎖等,0,2024-05-08,2024-04-30,株式会社ロッキー住宅,,株式会社,埼玉県,さいたま市浦和区,元町１丁目４番３号２０２,,11,107,3300073,,,2024-04-30,清算の結了等,,,2015-10-05,1,,,,,ロッキージュウタク,0
2047,7030003016447,登記記録の閉鎖等,0,2024-05-08,2024-04-15,雪ノ下アセット合同会社,,合同会社,東京都,港区,芝３丁目３番１４号７階,,13,103,1050014,,,2024-04-15,清算の結了等,,,2021-01-05,1,,,,,ユキノシタアセット,0
2054,7040001061403,登記記録の閉鎖等,0,2024-05-08,2024-04-23,大永航業株式会社,,株式会社,千葉県,香取郡多古町,喜多１８１番地１１,,12,347,2892232,,,2024-04-23,清算の結了等,,,2015-10-05,1,,,,,ダイエイコウギョウ,0
2055,7040001078224,登記記録の閉鎖等,0,2024-05-08,2024-04-22,ケイワイケイエキスプレス株式会社,,株式会社,千葉県,山武郡九十九里町,片貝２７９６番地,,12,403,2830104,,,2024-04-22,清算の結了等,,,2015-10-05,1,,,,,ケイワイケイエキスプレス,0
2077,7070003004373,登記記録の閉鎖等,0,2024-05-08,2024-04-12,合同会社ブルースター,,合同会社,群馬県,安中市,松井田町松井田５６４,,10,211,3790222,,,2024-04-12,清算の結了等,,,2022-02-09,1,,,,,ブルースター,0
2085,7080105006085,登記記録の閉鎖等,0,2024-05-08,2024-04-26,特定非営利活動法人ＢＥ　ＧＲＯＷＲＹ,,その他の設立登記法人,静岡県,沼津市,石川７２８番地１第３のぼりマンション２０２号室,,22,203,4100317,,,2024-04-26,清算の結了等,,,2020-10-30,1,,,,,ビーグローリー,0
2090,7100001003126,登記記録の閉鎖等,0,2024-05-08,2024-05-01,株式会社ホームエネルギー長野,,株式会社,長野県,長野市,大字東和田７４９番地,,20,201,3810038,,,2024-05-01,合併による解散等,3020001005588,令和６年４月１日横浜市旭区上白根町７２５番地株式会社ホームエネルギー西関東（3020001005588）に合併し解散,2015-10-05,1,,,,,ホームエネルギーナガノ,0
2095,7110002021522,登記記録の閉鎖等,0,2024-05-08,2024-05-01,有限会社斎藤商店,,有限会社,新潟県,村上市,塩谷１３１８番地,,15,212,9593441,,,2024-05-01,清算の結了等,,,2015-10-05,1,,,,,サイトウショウテン,0
2114,7120002066855,登記記録の閉鎖等,0,2024-05-08,2024-05-07,有限会社あとらす,,有限会社,大阪府,大阪市北区,西天満１丁目１０番８号西天満第１１松屋ビル５０８号,,27,127,5300047,,,2024-05-07,清算の結了等,,,2015-10-05,1,,,,,アトラス,0
2115,7120002070403,登記記録の閉鎖等,0,2024-05-08,2024-05-07,有限会社フィーノ,,有限会社,大阪府,大阪市浪速区,難波中２丁目１０番５２－４４０２号,,27,111,5560011,,,2024-05-07,清算の結了等,,,2015-10-05,1,,,,,フィーノ,0
2116,7120003010993,登記記録の閉鎖等,0,2024-05-08,2024-05-02,合同会社ｒａｙｔｉｏｎａｌ,,合同会社,大阪府,大阪市中央区,南船場４丁目１２番８号関西心斎橋ビル８０２,,27,128,5420081,,,2024-05-02,清算の結了等,,,2015-10-05,1,,,,,レイショナル,0
2121,7120103004400,登記記録の閉鎖等,0,2024-05-08,2024-04-30,合同会社Ｐｒｏトナ,,合同会社,大阪府,箕面市,石丸２丁目１８番１９号リバティハウス箕面１０１,,27,220,5620027,,,2024-04-30,清算の結了等,,,2021-10-18,1,,,,,プロトナ,0
2122,7120103004490,登記記録の閉鎖等,0,2024-05-08,2024-04-30,ムフロン合同会社,,合同会社,大阪府,大阪市浪速区,難波中２丁目１０番７０号なんばパークスタワー１９Ｆ,,27,111,5560011,,,2024-04-30,清算の結了等,,,2021-12-23,1,,,,,ムフロン,0
2123,7120901000204,登記記録の閉鎖等,0,2024-05-08,2024-04-30,茨木給食株式会社,00033209,株式会社,大阪府,茨木市,上穂積２丁目１２番４０号,,27,211,5670036,,,2024-04-30,清算の結了等,,,2015-10-05,1,,,,,イバラキキュウショク,0
2138,7140001111024,登記記録の閉鎖等,0,2024-05-08,2024-05-01,株式会社アーティスポン,,株式会社,兵庫県,神戸市東灘区,本山北町５丁目２０番３１号,,28,101,6580003,,,2024-05-01,清算の結了等,,,2018-08-20,1,,,,,アーティスポン,0
2146,7140002029174,登記記録の閉鎖等,0,2024-05-08,2024-05-01,有限会社たじつう,,有限会社,兵庫県,明石市,大久保町駅前１丁目１５番地の４,,28,203,6740058,,,2024-05-01,清算の結了等,,,2015-10-05,1,,,,,タジツウ,0
2154,7180001127529,登記記録の閉鎖等,0,2024-05-08,2024-04-25,ＭＡＵＳ株式会社,,株式会社,愛知県,名古屋市昭和区,福江１丁目９番４号,,23,107,4660059,,,2024-04-25,清算の結了等,,,2017-04-28,1,,,,,マウス,0
2161,7180002053096,登記記録の閉鎖等,0,2024-05-08,2024-04-25,有限会社山口屋,,有限会社,愛知県,北名古屋市,石橋郷１３１番地,,23,234,4810046,,,2024-04-25,清算の結了等,,,2015-10-05,1,,,,,ヤマグチヤ,0
2168,7190002009725,登記記録の閉鎖等,0,2024-05-08,2024-04-30,有限会社丸井産業,,有限会社,三重県,伊勢市,大世古２丁目１番１７号,,24,203,5160079,,,2024-04-30,清算の結了等,,,2015-10-05,1,,,,,マルイサンギョウ,0
2171,7200002019648,登記記録の閉鎖等,0,2024-05-08,2024-05-01,有限会社大扇化学,,有限会社,岐阜県,美濃市,乙狩１３２２番地３,,21,207,5013786,,,2024-05-01,清算の結了等,,,2015-10-05,1,,,,,ダイセンカガク,0
2191,7260002000346,登記記録の閉鎖等,0,2024-05-08,2024-05-02,有限会社アスト,,有限会社,岡山県,岡山市北区,下中野１２２２－５,,33,101,7000973,,,2024-05-02,清算の結了等,,,2015-10-05,1,,,,,,0
2192,7260005007297,登記記録の閉鎖等,0,2024-05-08,2024-04-22,楢原上第一区生産森林組合,,その他の設立登記法人,岡山県,美作市,楢原上８０４－２番地,,33,215,7070022,,,2024-04-22,清算の結了等,,,2015-10-05,1,,,,,ナラバラカミダイイック,0
2229,7380002032518,登記記録の閉鎖等,0,2024-05-08,2024-04-30,有限会社東京ソーイング,,有限会社,福島県,会津若松市,一箕町大字八幡字滝沢１４０番地,,07,202,9650003,,,2024-04-30,清算の結了等,,,2015-10-05,1,,,,,トウキョウソーイング,0
2239,7430001082005,登記記録の閉鎖等,0,2024-05-08,2024-05-01,株式会社Ａｉｍトラスト不動産,,株式会社,北海道,札幌市中央区,南七条西１２丁目４番３号Ａｉｍ．ＢＬＤＩＩ,00120405,01,101,0640807,,,2024-05-01,合併による解散等,1430001031512,令和６年５月１日札幌市西区西野二条五丁目６番５号Ａｉｍ．ＢＬＤ株式会社Ａｉｍパートナーズ（1430001031512）に合併し解散,2020-08-05,1,,,,,エイムトラストフドウサン,0
2242,7430002058128,登記記録の閉鎖等,0,2024-05-08,2024-04-26,有限会社エーブイ工房,,有限会社,北海道,苫小牧市,日吉町４丁目２０番１号,,01,213,0530816,,,2024-04-26,清算の結了等,,,2015-10-05,1,,,,,エーブイコウボウ,0
2243,7460001004501,登記記録の閉鎖等,0,2024-05-08,2024-05-01,株式会社堀新聞販売所,,株式会社,北海道,川上郡弟子屈町,朝日１丁目５番２号,,01,665,0883204,,,2024-05-01,清算の結了等,,,2015-10-05,1,,,,,ホリシンブンハンバイショ,0
2277,8010501036377,登記記録の閉鎖等,0,2024-05-08,2024-04-30,株式会社Ｉｎｔｅｒｉｏｒ　Ａｏｋｉ,,株式会社,東京都,台東区,清川１丁目２３番３号,,13,106,1110022,,,2024-04-30,清算の結了等,,,2015-10-05,1,,,,,インテリアアオキ,0
2292,8010902007381,登記記録の閉鎖等,0,2024-05-08,2024-04-15,有限会社システム裕,,有限会社,長野県,北佐久郡軽井沢町,大字追分１４１２番地４,,20,321,3890115,,,2024-04-15,清算の結了等,,,2015-10-05,1,,,,,システムユウ,0
2293,8011001014402,登記記録の閉鎖等,0,2024-05-08,2024-04-17,ティーエス株式会社,,株式会社,東京都,渋谷区,神宮前６丁目６番６号,,13,113,1500001,,,2024-04-17,清算の結了等,,,2015-10-05,1,,,,,ティーエス,0
2294,8011001030060,登記記録の閉鎖等,0,2024-05-08,2024-04-16,ミューエス株式会社,,株式会社,東京都,渋谷区,恵比寿２丁目１４番１９号,,13,113,1500013,,,2024-04-16,清算の結了等,,,2015-10-05,1,,,,,ミューエス,0
2295,8011001092951,登記記録の閉鎖等,0,2024-05-08,2024-04-16,ＣＨＢＣ　ＪＡＰＡＮ株式会社,,株式会社,東京都,港区,赤坂１丁目１１番４４号赤坂インターシティ５階Ｍａｚａｒｓ・Ｊａｐａｎ株式会社内,,13,103,1070052,,,2024-04-16,清算の結了等,,,2015-10-05,1,,,,,シーエイチビーシージャパン,0
2335,8011703001689,登記記録の閉鎖等,0,2024-05-08,2024-04-30,明達合同会社,,合同会社,東京都,墨田区,押上３丁目３９番１４号,,13,107,1310045,,,2024-04-30,清算の結了等,,,2017-02-27,1,,,,,メイタツ,0
2351,8020001050241,登記記録の閉鎖等,0,2024-05-08,2024-04-25,株式会社稲岡エンジニアリング,,株式会社,神奈川県,横浜市保土ケ谷区,仏向町１３２８番地１グレイス保土ケ谷公園ＩＩ３０１号,00009568,14,106,2400044,,,2024-04-25,清算の結了等,,,2015-10-05,1,,,,,イナオカエンジニアリング,0
2361,8021001075955,登記記録の閉鎖等,0,2024-05-08,2024-05-01,株式会社ＴＡＣ,,株式会社,神奈川県,相模原市中央区,矢部４丁目９番６号,,14,152,2520232,,,2024-05-01,清算の結了等,,,2022-05-16,1,,,,,タック,0
2364,8021002024291,登記記録の閉鎖等,0,2024-05-08,2024-05-01,有限会社松井経営研究所,,有限会社,神奈川県,相模原市中央区,高根２丁目６番８号,,14,152,2520221,,,2024-05-01,清算の結了等,,,2015-10-05,1,,,,,マツイケイエイケンキュウジョ,0
2368,8030001032767,登記記録の閉鎖等,0,2024-05-08,2024-04-30,株式会社鎌田モータース,,株式会社,埼玉県,羽生市,北３丁目６番２号,,11,216,3480057,,,2024-04-30,清算の結了等,,,2015-10-05,1,,,,,カマタモータース,0
2385,8040001042476,登記記録の閉鎖等,0,2024-05-08,2024-04-22,株式会社ビジネスマネジメントソリューション,,株式会社,千葉県,市川市,南八幡３丁目７番３号３階,,12,203,2720023,,,2024-04-22,清算の結了等,,,2015-10-05,1,,,,,ビジネスマネジメントソリューション,0
2418,8110001005054,登記記録の閉鎖等,0,2024-05-08,2024-05-02,株式会社ホームエネルギー新潟,,株式会社,新潟県,新潟市中央区,東出来島１１番９号,,15,103,9500961,,,2024-05-02,合併による解散等,3030001007690,令和６年４月１日埼玉県さいたま市中央区大字下落合１０７１番地２株式会社ホームエネルギー首都圏（3030001007690）に合併し解散,2015-10-05,1,,,,,ホームエネルギーニイガタ,0
2422,8110002018988,登記記録の閉鎖等,0,2024-05-08,2024-05-01,有限会社油巳石油商会,,有限会社,新潟県,西蒲原郡弥彦村,大字矢作２０２３番地５,,15,342,9590305,,,2024-05-01,清算の結了等,,,2015-10-05,1,,,,,アブラミセキユショウカイ,0
2426,8120001098196,登記記録の閉鎖等,0,2024-05-08,2024-05-02,株式会社ワシン,,株式会社,大阪府,大阪市大正区,三軒家東１丁目２０番１号,,27,108,5510002,,,2024-05-02,清算の結了等,,,2015-10-05,1,,,,,ワシン,0
2481,8140005025640,登記記録の閉鎖等,0,2024-05-08,2024-05-02,一般社団法人全国ファッション販売代行協会,,その他の設立登記法人,兵庫県,神戸市中央区,御幸通２丁目１番６号,,28,110,6510087,,,2024-05-02,清算の結了等,,,2021-04-12,1,,,,,ゼンコクファッションハンバイダイコウキョウカイ,0
2487,8170003001178,登記記録の閉鎖等,0,2024-05-08,2024-05-07,サンライフ１５合名会社,,合名会社,和歌山県,和歌山市,延時５０番地５,,30,201,6408443,,,2024-05-07,清算の結了等,,,2017-10-30,1,,,,,サンライフジュウゴ,0
2494,8180002024575,登記記録の閉鎖等,0,2024-05-08,2024-04-23,有限会社北栄シェル,,有限会社,愛知県,名古屋市西区,見寄町１３８番地,,23,104,4520839,,,2024-04-23,清算の結了等,,,2015-10-05,1,,,,,ホクエイシェル,0
2497,8180003015994,登記記録の閉鎖等,0,2024-05-08,2024-04-25,合同会社タキシン,,合同会社,愛知県,江南市,高屋町大師３７番地,,23,217,4838047,,,2024-04-25,清算の結了等,,,2015-10-05,1,,,,,タキシン,0
2499,8180003025044,登記記録の閉鎖等,0,2024-05-08,2024-04-25,ＫＩＲＩＮＪＩ合同会社,,合同会社,愛知県,春日井市,玉野台２丁目７番地６,,23,206,4870007,,,2024-04-25,清算の結了等,,,2023-03-31,1,,,,,キリンジ,0
2501,8180301027592,登記記録の閉鎖等,0,2024-05-08,2024-04-30,株式会社ティープロジェクト,,株式会社,愛知県,岡崎市,本宿町字上トコサフ１番地３０,,23,202,4443505,,,2024-04-30,清算の結了等,,,2015-10-05,1,,,,,ティープロジェクト,0
2553,8310001004548,登記記録の閉鎖等,0,2024-05-08,2024-04-30,株式会社角田興業,,株式会社,長崎県,長崎市,青山町４７２番地６４,,42,201,8528036,,,2024-04-30,清算の結了等,,,2015-10-05,1,,,,,スミダコウギョウ,0
2555,8310002008622,登記記録の閉鎖等,0,2024-05-08,2024-05-01,有限会社城戸商店,,有限会社,長崎県,西彼杵郡長与町,三根郷７７２番地９,,42,307,8512125,,,2024-05-01,清算の結了等,,,2015-10-05,1,,,,,キドショウテン,0
2586,8430001081798,登記記録の閉鎖等,0,2024-05-08,2024-05-01,株式会社ランドマネージ,,株式会社,北海道,札幌市白石区,平和通７丁目北１４番２２号,,01,104,0030029,,,2024-05-01,清算の結了等,,,2020-07-07,1,,,,,ランドマネージ,0
2588,8430002016068,登記記録の閉鎖等,0,2024-05-08,2024-05-01,有限会社林ハイツ,,有限会社,北海道,札幌市東区,伏古十二条２丁目１番７号,,01,103,0070872,,,2024-05-01,清算の結了等,,,2015-10-05,1,,,,,ハヤシハイツ,0
2594,8470001009300,登記記録の閉鎖等,0,2024-05-08,2024-04-30,株式会社ＭＩＲＩＣ,,株式会社,香川県,坂出市,川津町１２７番地１,,37,203,7620025,,,2024-04-30,清算の結了等,,,2015-10-05,1,,,,,,0
2596,8470005003068,登記記録の閉鎖等,0,2024-05-08,2024-04-26,古光寺,,その他の設立登記法人,香川県,仲多度郡琴平町,榎井８４８番地,,37,403,7660004,,,2024-04-26,清算の結了等,,,2015-10-05,1,,,,,フルコウジ,0
2605,9010001127320,登記記録の閉鎖等,0,2024-05-08,2024-05-01,オークス投資顧問株式会社,,株式会社,東京都,中野区,中野４丁目１０番２号,,13,114,1640001,,,2024-05-01,合併による解散等,8010001096558,令和６年５月１日東京都中野区中野四丁目１０番２号オークス株式会社（8010001096558）に合併し解散,2015-10-05,1,,,,,オークストウシコモン,0
2622,9010501032243,登記記録の閉鎖等,0,2024-05-08,2024-04-30,株式会社ウイルアップ,,株式会社,東京都,台東区,台東２丁目３０番１０号,,13,106,1100016,,,2024-04-30,清算の結了等,,,2015-10-05,1,,,,,ウイルアップ,0
2626,9010602001023,登記記録の閉鎖等,0,2024-05-08,2024-05-02,有限会社旭,,有限会社,東京都,江東区,大島２丁目２８番５号,,13,108,1360072,,,2024-05-02,清算の結了等,,,2015-10-05,1,,,,,アサヒ,0
2627,9010701001213,登記記録の閉鎖等,0,2024-05-08,2024-04-24,株式会社上田化成製作所,,株式会社,東京都,品川区,東品川２丁目２番４号東京ＭＩビル,,13,109,1400002,,,2024-04-24,清算の結了等,,,2024-04-11,1,,,,,,0
2629,9010701028198,登記記録の閉鎖等,0,2024-05-08,2024-04-11,株式会社スクロールＲ＆Ｄ,,株式会社,東京都,品川区,東品川２丁目２番２４号,,13,109,1400002,,,2024-04-11,合併による解散等,4010401098595,令和６年４月１日東京都品川区東品川二丁目２番２４号株式会社ＡＸＥＳ（4010401098595）に合併し解散,2015-10-05,1,,,,,スクロールアールアンドディー,0
2642,9011001138225,登記記録の閉鎖等,0,2024-05-08,2024-04-24,株式会社カンナムドール,,株式会社,東京都,新宿区,歌舞伎町２丁目４４番１号,,13,104,1600021,,,2024-04-24,合併による解散等,4011101056380,令和６年４月１日東京都新宿区西新宿二丁目４番１号株式会社Ｋ　Ｖｉｌｌａｇｅ（4011101056380）に合併し解散,2021-01-29,1,,,,,カンナムドール,0
2652,9011101067852,登記記録の閉鎖等,0,2024-05-08,2024-04-25,ＷｉｓＨ株式会社,,株式会社,東京都,新宿区,新宿２丁目１番９号,,13,104,1600022,,,2024-04-25,清算の結了等,,,2015-10-05,1,,,,,ウィッシュ,0
2661,9011601002474,登記記録の閉鎖等,0,2024-05-08,2024-05-01,株式会社斉藤工務店,,株式会社,東京都,練馬区,豊玉上２丁目２４番１号,,13,120,1760011,,,2024-05-01,清算の結了等,,,2015-10-05,1,,,,,サイトウコウムテン,0
2667,9011803002768,登記記録の閉鎖等,0,2024-05-08,2024-05-01,合同会社アナン,,合同会社,東京都,練馬区,旭町３丁目２４－１９リビナ奥村ドゥー４０３,,13,120,1790071,,,2024-05-01,清算の結了等,,,2017-02-16,1,,,,,アナン,0
2682,9020002037501,登記記録の閉鎖等,0,2024-05-08,2024-04-24,有限会社奥田建設,,有限会社,神奈川県,横浜市鶴見区,矢向３丁目２０番２１号,,14,101,2300001,,,2024-04-24,清算の結了等,,,2015-10-05,1,,,,,オクダケンセツ,0
2688,9020002103716,登記記録の閉鎖等,0,2024-05-08,2024-04-24,有限会社みやび出版,,有限会社,神奈川県,川崎市宮前区,宮崎６０４番地１グランドゥール宮崎台２０３,,14,136,2160033,,,2024-04-24,清算の結了等,,,2015-10-05,1,,,,,ミヤビシュッパン,0
2694,9021002039074,登記記録の閉鎖等,0,2024-05-08,2024-05-01,有限会社福元建築設計事務所,,有限会社,神奈川県,秦野市,北矢名１２３８番地の１５,,14,211,2570006,,,2024-05-01,清算の結了等,,,2015-10-05,1,,,,,フクモトケンチクセッケイジムショ,0
2718,9040001116353,登記記録の閉鎖等,0,2024-05-08,2024-05-01,荏原実業パワー株式会社,,株式会社,千葉県,木更津市,かずさ鎌足３丁目５番地１,,12,206,2920818,,,2024-05-01,合併による解散等,5010001039024,令和６年４月１日東京都中央区銀座七丁目１４番１号荏原実業株式会社（5010001039024）に合併し解散,2020-12-18,1,,,,,エバラジツギョウパワー,0
2721,9040005007912,登記記録の閉鎖等,0,2024-05-08,2024-04-22,医療法人社団医仁会,,その他の設立登記法人,千葉県,木更津市,請西２丁目４番１５号,,12,206,2920801,,,2024-04-22,清算の結了等,,,2015-10-05,1,,,,,イジンカイ,0
2722,9050001037383,登記記録の閉鎖等,0,2024-05-08,2024-04-26,茨城環境マネジメント株式会社,,株式会社,茨城県,水戸市,石川１丁目３９３２番地４,,08,201,3100905,,,2024-04-26,清算の結了等,,,2015-10-05,1,,,,,イバラキカンキョウマネジメント,0
2739,9090002004882,登記記録の閉鎖等,0,2024-05-08,2024-05-01,有限会社アイキ,,有限会社,山梨県,甲府市,城東４丁目１３番２号,,19,201,4000861,,,2024-05-01,清算の結了等,,,2015-10-05,1,,,,,アイキ,0
2744,9100002033938,登記記録の閉鎖等,0,2024-05-08,2024-04-18,有限会社かすが,,有限会社,長野県,上伊那郡宮田村,８５番地１,,20,388,3994301,,,2024-04-18,清算の結了等,,,2015-10-05,1,,,,,カスガ,0
2751,9120001105447,登記記録の閉鎖等,0,2024-05-08,2024-05-02,ミツワ産業株式会社,,株式会社,大阪府,大阪市東成区,大今里４丁目２３番１８号,,27,115,5370012,,,2024-05-02,清算の結了等,,,2015-10-05,1,,,,,ミツワサンギョウ,0
2754,9120001249070,登記記録の閉鎖等,0,2024-05-08,2024-04-26,Ｋ．Ｔ‐コンストラクション株式会社,,株式会社,大阪府,大阪市中央区,瓦町２丁目５番８号瓦町スクエアビル８階,,27,128,5410048,,,2024-04-26,清算の結了等,,,2022-09-28,1,,,,,ケイティーコンストラクション,0
2762,9120003012014,登記記録の閉鎖等,0,2024-05-08,2024-05-02,合同会社カスタマーインフォメーション,,合同会社,大阪府,大阪市中央区,南船場４丁目１２番８号関西心斎橋ビル８０２,,27,128,5420081,,,2024-05-02,清算の結了等,,,2016-09-14,1,,,,,カスタマーインフォメーション,0
2763,9120003012988,登記記録の閉鎖等,0,2024-05-08,2024-05-02,合同会社ＡＬＬ　ＬＩＮＫ,,合同会社,大阪府,大阪市中央区,南船場４丁目１２番８号関西心斎橋ビル８０２,,27,128,5420081,,,2024-05-02,清算の結了等,,,2017-06-28,1,,,,,オールリンク,0
2764,9120003013813,登記記録の閉鎖等,0,2024-05-08,2024-04-01,合同会社レイエイ,,合同会社,大阪府,大阪市平野区,加美北８丁目９番１－７０３号,,27,126,5470001,,,2024-04-01,清算の結了等,,,2018-01-24,1,,,,,レイエイ,0
2832,9290805005074,登記記録の閉鎖等,0,2024-05-08,2024-04-26,西部物流協同組合,,その他の設立登記法人,福岡県,北九州市若松区,南二島２丁目２番１号,,40,103,8080109,,,2024-04-26,清算の結了等,,,2015-10-05,1,,,,,,0
2835,9320001014215,登記記録の閉鎖等,0,2024-05-08,2024-04-30,大分ＥＢＬ水素ステーション株式会社,,株式会社,大分県,大分市,乙津町１番１８号,,44,201,8700145,,,2024-04-30,清算の結了等,,,2015-10-05,1,,,,,オオイタイービーエルスイソステーション,0
2839,9330001025558,登記記録の閉鎖等,0,2024-05-08,2024-04-30,株式会社想像発電所,,株式会社,熊本県,熊本市中央区,南坪井町６番３号ビアーレ並木坂５０３号,,43,101,8600848,,,2024-04-30,清算の結了等,,,2018-08-08,1,,,,,ソウゾウハツデンショ,0
2840,9330001028552,登記記録の閉鎖等,0,2024-05-08,2024-04-30,株式会社ＷＯＯＳＵＮＧＳＴＹＬＥ,,株式会社,熊本県,熊本市中央区,南坪井町１番１号ＮＫビル並木坂１階,,43,101,8600848,,,2024-04-30,清算の結了等,,,2021-05-06,1,,,,,ウソンスタイル,0
2869,9470001001966,登記記録の閉鎖等,0,2024-05-08,2024-04-30,株式会社四国日立システムズ,,株式会社,香川県,高松市,中央町５番３１号,,37,201,7600007,,,2024-04-30,合併による解散等,6010701025710,令和６年４月１日東京都品川区大崎一丁目２番１号株式会社日立システムズ（6010701025710）に合併し解散,2015-10-05,1,,,,,シコクヒタチシステムズ,0
