sequenceNumber,corporateNumber,process,correct,updateDate,changeDate,name,nameImageId,kind,prefectureName,cityName,streetNumber,addressImageId,prefectureCode,cityCode,postCode,addressOutside,addressOutsideImageId,closeDate,closeCause,successorCorporateNumber,changeCause,assignmentDate,latest,enName,enPrefectureName,enCityName,enAddressOutside,furigana,hihyoji
2,1010001180616,登記記録の閉鎖等,0,2023-11-22,2023-11-17,ＪＰＡ第５３号株式会社,,株式会社,東京都,千代田区,霞が関３丁目２番１号,,13,101,1000013,,,2023-11-17,清算の結了等,,,2017-01-11,1,,,,,ジェイピーエーダイゴジュウサンゴウ,0
7,1010005021130,登記記録の閉鎖等,0,2023-11-22,2023-11-20,一般社団法人百科綜合リサーチ・センター,,その他の設立登記法人,東京都,千代田区,神田神保町１丁目２９番,,13,101,1010051,,,2023-11-20,清算の結了等,,,2015-10-05,1,,,,,ヒャッカソウゴウリサーチセンター,0
9,1010401019983,登記記録の閉鎖等,0,2023-11-22,2023-11-17,株式会社十和田,,株式会社,東京都,港区,南麻布１丁目１５番２号,,13,103,1060047,,,2023-11-17,清算の結了等,,,2015-10-05,1,,,,,トワダ,0
12,1010401155143,登記記録の閉鎖等,0,2023-11-22,2023-11-13,株式会社コロポル,,株式会社,東京都,港区,浜松町２丁目２番１５号浜松町ダイヤビル２Ｆ,,13,103,1050013,,,2023-11-13,清算の結了等,,,2020-09-10,1,,,,,コロポル,0
22,1010502014116,登記記録の閉鎖等,0,2023-11-22,2023-11-17,有限会社佐藤商店,,有限会社,東京都,台東区,蔵前４丁目２７番６号,,13,106,1110051,,,2023-11-17,清算の結了等,,,2015-10-05,1,,,,,サトウショウテン,0
25,1010602004248,登記記録の閉鎖等,0,2023-11-22,2023-11-15,有限会社寿司長,,有限会社,東京都,江東区,門前仲町１丁目７番１１号,,13,108,1350048,,,2023-11-15,清算の結了等,,,2015-10-05,1,,,,,スシチョウ,0
26,1010602009924,登記記録の閉鎖等,0,2023-11-22,2023-11-17,有限会社グレート企画,,有限会社,東京都,墨田区,石原４丁目１４番８号,,13,107,1300011,,,2023-11-17,清算の結了等,,,2015-10-05,1,,,,,,0
33,1011002031907,登記記録の閉鎖等,0,2023-11-22,2023-11-20,有限会社ＵＭＥ,,有限会社,神奈川県,海老名市,上今泉１丁目６番２７号,,14,215,2430431,,,2023-11-20,清算の結了等,,,2015-10-05,1,,,,,ユーエムイー,0
35,1011005007598,登記記録の閉鎖等,0,2023-11-22,2023-11-17,枚方ロジスティクス特定目的会社,,その他の設立登記法人,東京都,中央区,日本橋１丁目４番１号,,13,102,1030027,,,2023-11-17,清算の結了等,,,2018-03-26,1,,,,,ヒラカタロジスティクス,0
37,1011101073255,登記記録の閉鎖等,0,2023-11-22,2023-11-20,尋登株式会社,,株式会社,東京都,渋谷区,代々木３丁目５７番７－６０１号,,13,113,1510053,,,2023-11-20,清算の結了等,,,2015-10-05,1,,,,,ジント,0
47,1011401023471,登記記録の閉鎖等,0,2023-11-22,2023-11-17,株式会社ＲＧ,,株式会社,東京都,板橋区,志村３丁目６番７号Ｂ１Ｆ,,13,119,1740056,,,2023-11-17,清算の結了等,,,2021-06-21,1,,,,,アールジー,0
52,1011801003172,登記記録の閉鎖等,0,2023-11-22,2023-11-17,東京ブレーキライニング株式会社,,株式会社,東京都,江戸川区,北小岩２丁目１９番７号,,13,123,1330051,,,2023-11-17,清算の結了等,,,2015-10-05,1,,,,,トウキョウブレーキライニング,0
62,1012702009119,登記記録の閉鎖等,0,2023-11-22,2023-11-20,有限会社シュガー・トレーディング,,有限会社,東京都,小平市,小川西町４丁目１４番１９号,,13,211,1870035,,,2023-11-20,清算の結了等,,,2015-10-05,1,,,,,シュガートレーディング,0
63,1012801001331,登記記録の閉鎖等,0,2023-11-22,2023-11-17,株式会社長谷川商店,,株式会社,東京都,立川市,栄町４丁目１８番地８,,13,202,1900003,,,2023-11-17,清算の結了等,,,2015-10-05,1,,,,,ハセガワショウテン,0
79,1020002105835,登記記録の閉鎖等,0,2023-11-22,2023-11-16,喜代商事有限会社,00011727,有限会社,神奈川県,川崎市中原区,木月４丁目７番７号,,14,133,2110025,,,2023-11-16,清算の結了等,,,2015-10-05,1,,,,,キヨショウジ,0
83,1021001026774,登記記録の閉鎖等,0,2023-11-22,2023-11-20,株式会社神奈川ボーリング工業,,株式会社,神奈川県,海老名市,門沢橋６丁目１７番２８号,,14,215,2430426,,,2023-11-20,清算の結了等,,,2015-10-05,1,,,,,カナガワボーリングコウギョウ,0
85,1021002032862,登記記録の閉鎖等,0,2023-11-22,2023-11-17,有限会社光商事,,有限会社,神奈川県,厚木市,愛名３６２番地３,,14,212,2430038,,,2023-11-17,清算の結了等,,,2015-10-05,1,,,,,ヒカリショウジ,0
90,1030001045338,登記記録の閉鎖等,0,2023-11-22,2023-11-10,株式会社新日本不動産,,株式会社,埼玉県,志木市,柏町６丁目２９番５４号,,11,228,3530007,,,2023-11-10,清算の結了等,,,2015-10-05,1,,,,,シンニホンフドウサン,0
91,1030001069097,登記記録の閉鎖等,0,2023-11-22,2023-11-14,株式会社埼西工販,,株式会社,埼玉県,鶴ヶ島市,大字藤金３９７番地２０,,11,241,3502206,,,2023-11-14,清算の結了等,,,2015-10-05,1,,,,,,0
130,1110001005498,登記記録の閉鎖等,0,2023-11-22,2023-11-17,東日本料飲株式会社,,株式会社,新潟県,新潟市中央区,神道寺南１丁目１５番１２号,,15,103,9500986,,,2023-11-17,清算の結了等,,,2015-10-05,1,,,,,ヒガシニホンリョウイン,0
146,1120002036847,登記記録の閉鎖等,0,2023-11-22,2023-11-20,有限会社大船サービス,,有限会社,大阪府,大阪市中央区,久太郎町３丁目４番１２号,,27,128,5410056,,,2023-11-20,合併による解散等,6120001076212,令和５年１１月２０日大阪市中央区久太郎町四丁目２番１０号グラントラスト株式会社（6120001076212）に合併し解散,2015-10-05,1,,,,,,0
154,1120102020404,登記記録の閉鎖等,0,2023-11-22,2023-11-17,有限会社Ｌａｒｖａ,,有限会社,大阪府,大阪市平野区,瓜破東７丁目１番４３号,,27,126,5470022,,,2023-11-17,清算の結了等,,,2015-10-05,1,,,,,,0
164,1140001098985,登記記録の閉鎖等,0,2023-11-22,2023-11-13,保安テック株式会社,,株式会社,兵庫県,神戸市中央区,相生町４丁目２番２８号,,28,110,6500025,,,2023-11-13,清算の結了等,,,2015-10-05,1,,,,,,0
185,1180002050628,登記記録の閉鎖等,0,2023-11-22,2023-11-20,有限会社ウッドベル,,有限会社,愛知県,名古屋市熱田区,四番１丁目１１番２２号,,23,109,4560051,,,2023-11-20,清算の結了等,,,2015-10-05,1,,,,,ウッドベル,0
199,1210002008845,登記記録の閉鎖等,0,2023-11-22,2023-11-14,有限会社ナカヒロ,,有限会社,福井県,福井市,新保１丁目１９０２番地,,18,201,9100833,,,2023-11-14,清算の結了等,,,2015-10-05,1,,,,,ナカヒロ,0
202,1240005003196,登記記録の閉鎖等,0,2023-11-22,2023-11-17,特定非営利活動法人中国シニアライフアドバイザー協会,,その他の設立登記法人,広島県,広島市中区,八丁堀１３番１５号八丁堀ビル,,34,101,7300013,,,2023-11-17,清算の結了等,,,2015-10-05,1,,,,,チュウゴクシニアライフアドバイザーキョウカイ,0
204,1260001020722,登記記録の閉鎖等,0,2023-11-22,2023-11-20,株式会社井福屋,,株式会社,岡山県,美作市,林野１１６番地,,33,215,7070041,,,2023-11-20,清算の結了等,,,2015-10-05,1,,,,,イフクヤ,0
208,1290003002039,登記記録の閉鎖等,0,2023-11-22,2023-11-13,合資会社嘉村秀巧堂,,合資会社,福岡県,朝倉市,甘木２０４１番地の１,,40,228,8380068,,,2023-11-13,清算の結了等,,,2015-10-05,1,,,,,カムラシュウコウドウ,0
215,1300002002517,登記記録の閉鎖等,0,2023-11-22,2023-11-20,有限会社花のある家,,有限会社,佐賀県,佐賀市,鍋島町大字八戸１２４１番地７,,41,201,8400857,,,2023-11-20,清算の結了等,,,2015-10-05,1,,,,,ハナノアルイエ,0
220,1310002013298,登記記録の閉鎖等,0,2023-11-22,2023-11-21,有限会社尾崎燃料本店,,有限会社,長崎県,西海市,崎戸町蠣浦郷１８１２番地１０,,42,212,8573101,,,2023-11-21,清算の結了等,,,2015-10-05,1,,,,,オザキネンリョウホンテン,0
226,1340002016918,登記記録の閉鎖等,0,2023-11-22,2023-11-20,有限会社中原モータース,,有限会社,鹿児島県,薩摩川内市,東向田町１４番８号,,46,215,8950026,,,2023-11-20,清算の結了等,,,2015-10-05,1,,,,,ナカハラモータース,0
242,1390001011650,登記記録の閉鎖等,0,2023-11-22,2023-11-16,株式会社とみさと,,株式会社,山形県,米沢市,大字李山３１９０番地,,06,202,9921461,,,2023-11-16,清算の結了等,,,2015-10-05,1,,,,,トミサト,0
250,1420001013874,登記記録の閉鎖等,0,2023-11-22,2023-11-16,株式会社ケーツーペイント,,株式会社,青森県,平川市,大坊福田７番地５,,02,210,0360146,,,2023-11-16,清算の結了等,,,2015-10-05,1,,,,,,0
267,2010001174848,登記記録の閉鎖等,0,2023-11-22,2023-11-17,ＪＰＡ第３８号株式会社,,株式会社,東京都,千代田区,霞が関３丁目２番１号,,13,101,1000013,,,2023-11-17,清算の結了等,,,2016-04-12,1,,,,,ジェイピーエーダイサンジュウハチゴウ,0
279,2010401139104,登記記録の閉鎖等,0,2023-11-22,2023-11-17,株式会社インストゥルメンツ,,株式会社,東京都,港区,南青山５丁目１１番２４号グレイセス２Ｆ,,13,103,1070062,,,2023-11-17,清算の結了等,,,2018-06-21,1,,,,,インストゥルメンツ,0
297,2010602031745,登記記録の閉鎖等,0,2023-11-22,2023-11-17,有限会社晴クリーン,,有限会社,東京都,墨田区,文花２丁目１２番９号,,13,107,1310044,,,2023-11-17,清算の結了等,,,2015-10-05,1,,,,,,0
313,2011101097377,登記記録の閉鎖等,0,2023-11-22,2023-11-09,株式会社Ｈａｋｕｓｈｉ,,株式会社,東京都,杉並区,方南１丁目３３番２号東コーポ１０４号室,,13,115,1680062,,,2023-11-09,清算の結了等,,,2021-12-28,1,,,,,ハクシ,0
323,2011701022024,登記記録の閉鎖等,0,2023-11-22,2023-11-20,株式会社リアルウィンフード,,株式会社,東京都,江戸川区,北小岩１丁目３－８,,13,123,1330051,,,2023-11-20,清算の結了等,,,2018-08-27,1,,,,,リアルウィンフード,0
326,2011801027468,登記記録の閉鎖等,0,2023-11-22,2023-11-14,株式会社英君,,株式会社,埼玉県,八潮市,大字南川崎２５５番地２９,,11,234,3400814,,,2023-11-14,清算の結了等,,,2015-10-05,1,,,,,エイクン,0
329,2011802017096,登記記録の閉鎖等,0,2023-11-22,2023-11-21,根岸瓦工業有限会社,,有限会社,東京都,足立区,西伊興４丁目１番２７号,,13,121,1210824,,,2023-11-21,清算の結了等,,,2015-10-05,1,,,,,ネギシカワラコウギョウ,0
330,2012401012422,登記記録の閉鎖等,0,2023-11-22,2023-11-20,幸明産業株式会社,,株式会社,東京都,三鷹市,下連雀４丁目１６番９号,,13,204,1810013,,,2023-11-20,清算の結了等,,,2015-10-05,1,,,,,コウメイサンギョウ,0
351,2021002014323,登記記録の閉鎖等,0,2023-11-22,2023-11-21,有限会社かんばんや,,有限会社,神奈川県,鎌倉市,大町２丁目１５番９号,,14,204,2480007,,,2023-11-21,清算の結了等,,,2015-10-05,1,,,,,カンバンヤ,0
355,2030001074063,登記記録の閉鎖等,0,2023-11-22,2023-11-15,エハラ物産株式会社,,株式会社,埼玉県,川口市,大字西新井宿９７７番地,,11,203,3330833,,,2023-11-15,清算の結了等,,,2015-10-05,1,,,,,エハラブッサン,0
365,2030005007003,登記記録の閉鎖等,0,2023-11-22,2023-11-16,朝霞市土地開発公社,,その他の設立登記法人,埼玉県,朝霞市,本町１丁目１番１号朝霞市役所内,,11,227,3510011,,,2023-11-16,清算の結了等,,,2015-10-05,1,,,,,アサカシ,0
375,2050001002501,登記記録の閉鎖等,0,2023-11-22,2023-11-09,株式会社水戸公衆放送,,株式会社,茨城県,水戸市,宮町２丁目３番２号,,08,201,3100015,,,2023-11-09,合併による解散等,3050001043957,令和５年１１月１日茨城県水戸市千波町２０８４番地２号株式会社Ｍ‐ＳＰＯ（3050001043957）に合併し解散,2015-10-05,1,,,,,ミトコウシュウホウソウ,0
379,2050002024998,登記記録の閉鎖等,0,2023-11-22,2023-11-15,有限会社烈,,有限会社,茨城県,古河市,長谷町１番１１号,,08,204,3060034,,,2023-11-15,清算の結了等,,,2015-10-05,1,,,,,,0
384,2070002020120,登記記録の閉鎖等,0,2023-11-22,2023-11-17,有限会社ケープラ,,有限会社,群馬県,伊勢崎市,赤堀鹿島町１６６番地,,10,204,3792202,,,2023-11-17,清算の結了等,,,2015-10-05,1,,,,,,0
407,2120002028868,登記記録の閉鎖等,0,2023-11-22,2023-11-20,有限会社ワニ丸,,有限会社,大阪府,大阪市淀川区,西中島６丁目９番２０号,,27,123,5320011,,,2023-11-20,清算の結了等,,,2015-10-05,1,,,,,ワニマル,0
430,2160001018024,登記記録の閉鎖等,0,2023-11-22,2023-11-20,長浜合金株式会社,,株式会社,滋賀県,長浜市,余呉町下余呉８４７番地,,25,203,5290521,,,2023-11-20,清算の結了等,,,2015-10-05,1,,,,,ナガハマゴウキン,0
444,2180301017780,登記記録の閉鎖等,0,2023-11-22,2023-11-13,株式会社アイチ酒米店,,株式会社,愛知県,豊田市,小坂本町３丁目２２番地,,23,211,4710034,,,2023-11-13,清算の結了等,,,2015-10-05,1,,,,,アイチサケコメテン,0
468,2270001000458,登記記録の閉鎖等,0,2023-11-22,2023-11-17,株式会社定有堂書店,,株式会社,鳥取県,鳥取市,元町１２１番地,,31,201,6800037,,,2023-11-17,清算の結了等,,,2015-10-05,1,,,,,テイユウドウショテン,0
473,2290001067487,登記記録の閉鎖等,0,2023-11-22,2023-11-16,株式会社シルバーストン,,株式会社,東京都,中央区,京橋２丁目８番５号京橋グラスゲート３階,,13,102,1040031,,,2023-11-16,清算の結了等,,,2015-10-05,1,,,,,シルバーストン,0
474,2290002020635,登記記録の閉鎖等,0,2023-11-22,2023-11-10,有限会社クライムシステム,,有限会社,福岡県,福岡市博多区,博多駅前２丁目１２番２６号,,40,132,8120011,,,2023-11-10,清算の結了等,,,2015-10-05,1,,,,,,0
482,2310005001778,登記記録の閉鎖等,0,2023-11-22,2023-11-15,特定非営利活動法人浦上の丘福祉支援サービス,,その他の設立登記法人,長崎県,長崎市,江平２丁目１０番２４号,,42,201,8528101,,,2023-11-15,清算の結了等,,,2015-10-05,1,,,,,ウラカミノオカフクシシエンサービス,0
500,2370602001316,登記記録の閉鎖等,0,2023-11-22,2023-11-20,有限会社東栄工業,,有限会社,宮城県,多賀城市,留ケ谷３丁目１０番２２号,,04,209,9850871,,,2023-11-20,清算の結了等,,,2015-10-05,1,,,,,トウエイコウギョウ,0
516,2430005013563,登記記録の閉鎖等,0,2023-11-22,2023-11-13,あいむ司法書士法人,,その他の設立登記法人,北海道,札幌市西区,西町南２１丁目２番２１号アルファ西町第２ビル３０１号室,,01,107,0630062,,,2023-11-13,清算の結了等,,,2018-12-20,1,,,,,アイム,0
517,2440002004655,登記記録の閉鎖等,0,2023-11-22,2023-11-20,有限会社丸山電気商会,,有限会社,北海道,函館市,陣川町７９番地２６,,01,202,0410833,,,2023-11-20,清算の結了等,,,2015-10-05,1,,,,,マルヤマデンキショウカイ,0
521,2470002013075,登記記録の閉鎖等,0,2023-11-22,2023-11-20,有限会社プーヤン,,有限会社,香川県,善通寺市,与北町３３６５番地３,,37,204,7650040,,,2023-11-20,清算の結了等,,,2015-10-05,1,,,,,プーヤン,0
532,3010001160384,登記記録の閉鎖等,0,2023-11-22,2023-11-17,ＯＲソーラー・テン合同会社,,合同会社,東京都,千代田区,丸の内３丁目１番１号東京共同会計事務所内,,13,101,1000005,,,2023-11-17,清算の結了等,,,2015-10-05,1,,,,,オーアールソーラーテン,0
534,3010001174847,登記記録の閉鎖等,0,2023-11-22,2023-11-17,ＪＰＡ第３７号株式会社,,株式会社,東京都,千代田区,霞が関３丁目２番１号,,13,101,1000013,,,2023-11-17,清算の結了等,,,2016-04-12,1,,,,,ジェイピーエーダイサンジュウナナゴウ,0
553,3010401171147,登記記録の閉鎖等,0,2023-11-22,2023-11-17,株式会社ＤｉＰｒｏｔｅ,,株式会社,東京都,港区,赤坂９丁目７番１号ミッドタウン・タワー３５Ｆ,,13,103,1070052,,,2023-11-17,清算の結了等,,,2022-12-05,1,,,,,ディプロテ,0
595,3012401002273,登記記録の閉鎖等,0,2023-11-22,2023-11-16,株式会社青果緑地開発,,株式会社,東京都,国分寺市,光町１丁目４０番地１,,13,214,1850034,,,2023-11-16,清算の結了等,,,2015-10-05,1,,,,,セイカリョクチカイハツ,0
607,3020003014819,登記記録の閉鎖等,0,2023-11-22,2023-11-20,井手矢倉通商合同会社,,合同会社,東京都,世田谷区,赤堤３丁目２８－１８けやきメゾン北郷１０１号室,,13,112,1560044,,,2023-11-20,清算の結了等,,,2018-09-04,1,,,,,イデヤグラツウショウ,0
637,3050001000669,登記記録の閉鎖等,0,2023-11-22,2023-11-15,加治設備工業株式会社,,株式会社,茨城県,水戸市,住吉町７３番地１０,,08,201,3100844,,,2023-11-15,清算の結了等,,,2015-10-05,1,,,,,カジセツビコウギョウ,0
640,3050002016318,登記記録の閉鎖等,0,2023-11-22,2023-11-13,有限会社オー・エヌ・エム電建,,有限会社,茨城県,石岡市,府中４丁目６番８号,,08,205,3150013,,,2023-11-13,清算の結了等,,,2015-10-05,1,,,,,オーエヌエムデンケン,0
652,3070001029863,登記記録の閉鎖等,0,2023-11-22,2023-11-17,株式会社ＷＯＯＤ　ＬＩＶ,,株式会社,群馬県,太田市,由良町２１７番地２,,10,205,3730036,,,2023-11-17,清算の結了等,,,2015-10-05,1,,,,,,0
655,3080001014914,登記記録の閉鎖等,0,2023-11-22,2023-11-21,株式会社七福,,株式会社,静岡県,焼津市,石脇下１２２０番地の１０,,22,212,4250016,,,2023-11-21,清算の結了等,,,2015-10-05,1,,,,,ヒチフク,0
662,3090003000746,登記記録の閉鎖等,0,2023-11-22,2023-10-30,合同会社すひちに,,合同会社,山梨県,南都留郡鳴沢村,８５４５番地６０９,,19,429,4010320,,,2023-10-30,清算の結了等,,,2015-10-05,1,,,,,スヒチニ,0
666,3110002007467,登記記録の閉鎖等,0,2023-11-22,2023-11-20,有限会社スカイコーポレーション,,有限会社,新潟県,新潟市中央区,堀之内南１丁目３番１４号,,15,103,9500982,,,2023-11-20,清算の結了等,,,2015-10-05,1,,,,,スカイコーポレーション,0
668,3120001173994,登記記録の閉鎖等,0,2023-11-22,2023-11-21,株式会社ヒゲノ看板店,,株式会社,大阪府,大阪市北区,芝田２丁目３番４号,,27,127,5300012,,,2023-11-21,清算の結了等,,,2019-03-11,1,,,,,ヒゲノカンバンテン,0
683,3130001003787,登記記録の閉鎖等,0,2023-11-22,2023-11-15,ホクト株式会社,,株式会社,京都府,京都市上京区,大宮通今宮御旅所下る東入東若宮町５５番地の２,,26,102,6020086,,,2023-11-15,清算の結了等,,,2015-10-05,1,,,,,ホクト,0
692,3160003001563,登記記録の閉鎖等,0,2023-11-22,2023-11-21,合同会社中島屋,,合同会社,滋賀県,草津市,矢橋町８番地５,,25,206,5250066,,,2023-11-21,清算の結了等,,,2017-09-26,1,,,,,ナカジマヤ,0
693,3170002007305,登記記録の閉鎖等,0,2023-11-22,2023-11-21,有限会社三友商事,,有限会社,和歌山県,有田市,初島町里１２０２番地,,30,204,6490307,,,2023-11-21,清算の結了等,,,2015-10-05,1,,,,,サンユウショウジ,0
694,3180001028169,登記記録の閉鎖等,0,2023-11-22,2023-11-17,三徳製機株式会社,,株式会社,愛知県,名古屋市緑区,鳴海町字杜若４５番地,,23,114,4580801,,,2023-11-17,清算の結了等,,,2015-10-05,1,,,,,サントクセイキ,0
712,3220005007445,登記記録の閉鎖等,0,2023-11-22,2023-11-20,特定非営利活動法人環境・福祉・活性化ネットワーク,,その他の設立登記法人,石川県,金沢市,横川４丁目１１７番地１,,17,201,9218163,,,2023-11-20,清算の結了等,,,2015-10-05,1,,,,,カンキョウフクシカッセイカネットワーク,0
718,3240002028558,登記記録の閉鎖等,0,2023-11-22,2023-11-20,有限会社ヤマヒロ,,有限会社,広島県,東広島市,八本松町正力１５１８番地の２,,34,212,7390132,,,2023-11-20,清算の結了等,,,2015-10-05,1,,,,,ヤマヒロ,0
768,3450002000883,登記記録の閉鎖等,0,2023-11-22,2023-11-21,有限会社遠藤食料品店,,有限会社,北海道,旭川市,南一条通２３丁目右１号,,01,204,0788331,,,2023-11-21,清算の結了等,,,2015-10-05,1,,,,,エンドウショクリョウヒンテン,0
772,3470002016291,登記記録の閉鎖等,0,2023-11-22,2023-11-20,有限会社岡崎産業,,有限会社,香川県,三豊市,財田町財田上２６９３番地,,37,208,7690401,,,2023-11-20,清算の結了等,,,2015-10-05,1,,,,,オカザキサンギョウ,0
780,4010001212044,登記記録の閉鎖等,0,2023-11-22,2023-11-15,Ｓ＆Ｋ　Ｆｏｒｗａｒｄ株式会社,,株式会社,東京都,大田区,中央３丁目７番９号,,13,111,1430024,,,2023-11-15,清算の結了等,,,2020-09-04,1,,,,,エスアンドケーフォワード,0
785,4010005018289,登記記録の閉鎖等,0,2023-11-22,2023-11-13,特定非営利活動法人からくりロボット,,その他の設立登記法人,東京都,中央区,銀座４丁目１４－４－２０１株式会社ジェイエムアンドカンパニー内,,13,102,1040061,,,2023-11-13,清算の結了等,,,2015-10-05,1,,,,,カラクリロボット,0
789,4010005020229,登記記録の閉鎖等,0,2023-11-22,2023-11-02,一般社団法人日本橋アーカイブス,,その他の設立登記法人,東京都,中央区,日本橋大伝馬町１３番１号,,13,102,1030011,,,2023-11-02,清算の結了等,,,2015-10-05,1,,,,,,0
817,4011005008429,登記記録の閉鎖等,0,2023-11-22,2023-11-16,一般社団法人日本建物調査組合,,その他の設立登記法人,東京都,渋谷区,桜丘町１７番１２号渋谷ジョンソンビル４Ｆ－１,,13,113,1500031,,,2023-11-16,清算の結了等,,,2020-01-16,1,,,,,ニホンタテモノチョウサクミアイ,0
818,4011005008602,登記記録の閉鎖等,0,2023-11-22,2023-11-17,一般社団法人カジノエコノミクス協会,,その他の設立登記法人,東京都,渋谷区,代官山町２番７号シャトレ代官山３０１号室,,13,113,1500034,,,2023-11-17,清算の結了等,,,2020-06-05,1,,,,,カジノエコノミクスキョウカイ,0
828,4011102020757,登記記録の閉鎖等,0,2023-11-22,2023-11-15,有限会社ケイエムエスアール,,有限会社,東京都,新宿区,若松町３６番２６号,,13,104,1620056,,,2023-11-15,清算の結了等,,,2015-10-05,1,,,,,ケイエムエスアール,0
830,4011201022968,登記記録の閉鎖等,0,2023-11-22,2023-11-20,株式会社ノーザ販売,,株式会社,東京都,中野区,中央１丁目２１番４号,,13,114,1640011,,,2023-11-20,清算の結了等,,,2021-05-14,1,,,,,ノーザハンバイ,0
832,4011303003585,登記記録の閉鎖等,0,2023-11-22,2023-11-10,合同会社プレシャスワン,,合同会社,東京都,杉並区,本天沼２丁目２０番２０号リリーオブランカ,,13,115,1670031,,,2023-11-10,清算の結了等,,,2020-03-03,1,,,,,プレシャスワン,0
843,4011805001921,登記記録の閉鎖等,0,2023-11-22,2023-11-20,特定非営利活動法人国際医療福祉人材育成機構,,その他の設立登記法人,京都府,京都市伏見区,両替町１４丁目１４６番地１メゾン・ド・シャルレ１－Ｄ号,,26,109,6128082,,,2023-11-20,清算の結了等,,,2015-10-05,1,,,,,,0
848,4013302020776,登記記録の閉鎖等,0,2023-11-22,2023-11-21,有限会社第一商会,,有限会社,東京都,中野区,上高田５丁目１７番２号ハイツナカオ１０３号,,13,114,1640002,,,2023-11-21,清算の結了等,,,2015-10-05,1,,,,,,0
851,4020001079788,登記記録の閉鎖等,0,2023-11-22,2023-11-17,株式会社エフピーパートナーズ,,株式会社,神奈川県,川崎市宮前区,東有馬２丁目３５番１号,,14,136,2160002,,,2023-11-17,清算の結了等,,,2015-10-05,1,,,,,エフピーパートナーズ,0
857,4020002015841,登記記録の閉鎖等,0,2023-11-22,2023-11-16,有限会社アーバンランド,,有限会社,神奈川県,横浜市中区,常盤町６丁目７５番地,,14,104,2310014,,,2023-11-16,清算の結了等,,,2015-10-05,1,,,,,アーバンランド,0
874,4030001142099,登記記録の閉鎖等,0,2023-11-22,2023-11-15,株式会社壱,,株式会社,茨城県,坂東市,岩井４２９４番地１２,,08,228,3060631,,,2023-11-15,清算の結了等,,,2021-05-10,1,,,,,イチ,0
880,4030005018262,登記記録の閉鎖等,0,2023-11-22,2023-11-14,特定非営利活動法人糧,,その他の設立登記法人,埼玉県,川口市,朝日１丁目２３番２６号,,11,203,3320001,,,2023-11-14,清算の結了等,,,2016-12-16,1,,,,,カリテ,0
891,4040002044293,登記記録の閉鎖等,0,2023-11-22,2023-11-14,有限会社石原タクシー,,有限会社,千葉県,松戸市,六実４丁目５番地の１,,12,207,2702204,,,2023-11-14,清算の結了等,,,2015-10-05,1,,,,,イシハラタクシー,0
895,4040002089157,登記記録の閉鎖等,0,2023-11-22,2023-11-14,有限会社大塚商店,,有限会社,千葉県,柏市,東上町１番６号,,12,217,2770011,,,2023-11-14,清算の結了等,,,2015-10-05,1,,,,,オオツカショウテン,0
915,4100001026880,登記記録の閉鎖等,0,2023-11-22,2023-11-15,サンツール株式会社,,株式会社,長野県,松本市,大字新村３３０６－１フルハタビル１Ｆ,,20,202,3901241,,,2023-11-15,清算の結了等,,,2015-10-05,1,,,,,サンツール,0
916,4100002007038,登記記録の閉鎖等,0,2023-11-22,2023-10-26,有限会社小林総建,,有限会社,長野県,長野市,大字大豆島３２８４番地１,,20,201,3810022,,,2023-10-26,清算の結了等,,,2015-10-05,1,,,,,,0
930,4120001232832,登記記録の閉鎖等,0,2023-11-22,2023-11-21,瑞吉株式会社,,株式会社,大阪府,大阪市西成区,橘１丁目１１番２８号オフィスポート橘４０４号室,,27,122,5570051,,,2023-11-21,清算の結了等,,,2020-11-04,1,,,,,ミズキチ,0
935,4120002017290,登記記録の閉鎖等,0,2023-11-22,2023-11-21,有限会社エフ・システム,,有限会社,大阪府,大阪市住吉区,長居３丁目４番７号,,27,120,5580003,,,2023-11-21,清算の結了等,,,2015-10-05,1,,,,,エフシステム,0
949,4122002016842,登記記録の閉鎖等,0,2023-11-22,2023-11-20,有限会社リーフスタッフ,,有限会社,大阪府,八尾市,太子堂５丁目１番６号,,27,212,5810063,,,2023-11-20,清算の結了等,,,2015-10-05,1,,,,,リーフスタッフ,0
961,4140002010483,登記記録の閉鎖等,0,2023-11-22,2023-11-21,有限会社水口,,有限会社,兵庫県,神戸市西区,秋葉台３丁目２番地の２８,,28,111,6512224,,,2023-11-21,清算の結了等,,,2015-10-05,1,,,,,ミズグチ,0
962,4160001010838,登記記録の閉鎖等,0,2023-11-22,2023-11-21,株式会社チュチュタムラ,,株式会社,滋賀県,近江八幡市,本町３丁目１番地,,25,204,5230876,,,2023-11-21,清算の結了等,,,2015-10-05,1,,,,,チュチュタムラ,0
975,4180005009585,登記記録の閉鎖等,0,2023-11-22,2023-11-15,一宮中心街駐車場協同組合,,その他の設立登記法人,愛知県,一宮市,本町３丁目４番２号,,23,203,4910859,,,2023-11-15,清算の結了等,,,2015-10-05,1,,,,,イチノミヤチュウシンガイチュウシャジョウ,0
985,4230001017917,登記記録の閉鎖等,0,2023-11-22,2023-11-20,株式会社グラティアス,,株式会社,富山県,富山市,八尾町大杉３６９番地１４,,16,201,9392303,,,2023-11-20,清算の結了等,,,2019-07-01,1,,,,,グラティアス,0
986,4230003001687,登記記録の閉鎖等,0,2023-11-22,2023-11-20,合同会社タカイコーポレーション,,合同会社,富山県,富山市,茶屋町１６３－４,,16,201,9300115,,,2023-11-20,清算の結了等,,,2021-06-09,1,,,,,タカイコーポレーション,0
1028,4380002033089,登記記録の閉鎖等,0,2023-11-22,2023-11-21,有限会社ホワイトベア,,有限会社,福島県,大沼郡会津美里町,藤家舘字藤田７３番地１,,07,447,9696212,,,2023-11-21,清算の結了等,,,2015-10-05,1,,,,,ホワイトベア,0
1033,4402701000077,登記記録の閉鎖等,0,2023-11-22,2023-11-13,株式会社金野組,,株式会社,岩手県,大船渡市,赤崎町字跡浜１８３番地４,,03,203,0220007,,,2023-11-13,清算の結了等,,,2015-10-05,1,,,,,キンノグミ,0
1051,5010401109038,登記記録の閉鎖等,0,2023-11-22,2023-11-16,株式会社ほそ川,,株式会社,愛知県,名古屋市熱田区,神宮３丁目９－１２,,23,109,4560031,,,2023-11-16,清算の結了等,,,2015-10-05,1,,,,,ホソカワ,0
1066,5010601049109,登記記録の閉鎖等,0,2023-11-22,2023-11-17,オステム株式会社,,株式会社,東京都,墨田区,業平１丁目１２番３号,,13,107,1300002,,,2023-11-17,清算の結了等,,,2016-01-29,1,,,,,,0
1084,5011301022322,登記記録の閉鎖等,0,2023-11-22,2023-11-09,ＭＩＳコンサルティング株式会社,,株式会社,東京都,杉並区,宮前３丁目１５番２４－１０８号,,13,115,1680081,,,2023-11-09,清算の結了等,,,2016-06-10,1,,,,,エムアイエスコンサルティング,0
1105,5013202003962,登記記録の閉鎖等,0,2023-11-22,2023-11-20,有限会社高橋工業所,,有限会社,東京都,目黒区,目黒本町５丁目１７番１８号,,13,110,1520002,,,2023-11-20,清算の結了等,,,2015-10-05,1,,,,,タカハシコウギョウショ,0
1121,5020002025377,登記記録の閉鎖等,0,2023-11-22,2023-11-15,有限会社浅井クリーニング六角橋商会,,有限会社,神奈川県,横浜市神奈川区,六角橋２丁目１６番２４号,,14,102,2210802,,,2023-11-15,清算の結了等,,,2015-10-05,1,,,,,アサイクリーニングロッカクバシショウカイ,0
1123,5020002080570,登記記録の閉鎖等,0,2023-11-22,2023-11-16,有限会社アラウィゴ,,有限会社,神奈川県,川崎市幸区,塚越２丁目１６２番,,14,132,2120024,,,2023-11-16,清算の結了等,,,2015-10-05,1,,,,,アラウィゴ,0
1125,5020003022407,登記記録の閉鎖等,0,2023-11-22,2023-11-16,合同会社人に優しくＳＯＨ,,合同会社,神奈川県,横浜市戸塚区,下倉田町６８２番地金子ビル３０１号,,14,110,2440815,,,2023-11-16,清算の結了等,,,2022-09-16,1,,,,,ヒトニヤサシクソウ,0
1145,5030002094495,登記記録の閉鎖等,0,2023-11-22,2023-11-15,有限会社利根川会計センター,,有限会社,埼玉県,鶴ヶ島市,富士見５丁目４番１１－１０６号,,11,241,3502201,,,2023-11-15,清算の結了等,,,2015-10-05,1,,,,,トネガワカイケイセンター,0
1149,5040001036497,登記記録の閉鎖等,0,2023-11-22,2023-11-15,株式会社日興実業,,株式会社,千葉県,松戸市,小金原４丁目９番地１,,12,207,2700021,,,2023-11-15,清算の結了等,,,2015-10-05,1,,,,,ニッコウジツギョウ,0
1151,5040001086212,登記記録の閉鎖等,0,2023-11-22,2023-11-09,株式会社タンポポ,,株式会社,茨城県,水戸市,中央２丁目１０番１０タンポポビル,,08,201,3100805,,,2023-11-09,清算の結了等,,,2015-10-05,1,,,,,タンポポ,0
1157,5040002048013,登記記録の閉鎖等,0,2023-11-22,2023-11-14,花嶋タクシー有限会社,,有限会社,千葉県,松戸市,千駄堀１５４７番地３,,12,207,2702252,,,2023-11-14,清算の結了等,,,2015-10-05,1,,,,,ハナシマタクシー,0
1164,5050001030615,登記記録の閉鎖等,0,2023-11-22,2023-11-17,応用計測研究所株式会社,,株式会社,茨城県,取手市,西１丁目４番１５号,,08,217,3020025,,,2023-11-17,清算の結了等,,,2015-10-05,1,,,,,オウヨウケイソクケンキュウジョ,0
1171,5050002025531,登記記録の閉鎖等,0,2023-11-22,2023-11-10,カントウボディサービス有限会社,,有限会社,茨城県,古河市,東山田字笹原９４７番３,,08,204,3060112,,,2023-11-10,合併による解散等,9050001019092,令和５年１１月１０日茨城県古河市東山田１０２２番地１関東建運株式会社（9050001019092）に合併し解散,2015-10-05,1,,,,,カントウボディサービス,0
1180,5070001000467,登記記録の閉鎖等,0,2023-11-22,2023-11-14,沖電線ワイヤーハーネス株式会社,,株式会社,群馬県,伊勢崎市,境伊与久３３４４番地１,,10,204,3700105,,,2023-11-14,合併による解散等,5020001069020,令和５年１１月１日群馬県伊勢崎市境伊与久３３４４番地１沖電線株式会社（5020001069020）に合併し解散,2015-10-05,1,,,,,オキデンセンワイヤーハーネス,0
1185,5080002016940,登記記録の閉鎖等,0,2023-11-22,2023-11-21,有限会社ヨシイ,,有限会社,静岡県,焼津市,焼津１丁目３番１９号サンパレスナカノ２０６号,,22,212,4250026,,,2023-11-21,清算の結了等,,,2015-10-05,1,,,,,ヨシイ,0
1190,5100002015155,登記記録の閉鎖等,0,2023-11-22,2023-11-10,株式会社バン・ワールド,,株式会社,長野県,上田市,菅平高原１２２３番地３８１,,20,203,3862204,,,2023-11-10,清算の結了等,,,2015-10-05,1,,,,,バンワールド,0
1214,5120901030756,登記記録の閉鎖等,0,2023-11-22,2023-11-20,３Ｇシステム株式会社,,株式会社,大阪府,箕面市,箕面２丁目６番４４号,,27,220,5620001,,,2023-11-20,清算の結了等,,,2015-10-05,1,,,,,スリージーシステム,0
1226,5140001015986,登記記録の閉鎖等,0,2023-11-22,2023-11-16,株式会社釘谷商店,,株式会社,兵庫県,神戸市長田区,苅藻島町３丁目５番２４号,,28,106,6530033,,,2023-11-16,清算の結了等,,,2015-10-05,1,,,,,クギタニショウテン,0
1243,5170001005472,登記記録の閉鎖等,0,2023-11-22,2023-11-20,株式会社川島正一郎商店,,株式会社,和歌山県,海南市,岡田２２３番地,,30,202,6420012,,,2023-11-20,清算の結了等,,,2015-10-05,1,,,,,カワシマショウイチロウショウテン,0
1265,5240001001679,登記記録の閉鎖等,0,2023-11-22,2023-11-20,株式会社大下酒店,,株式会社,広島県,広島市中区,大手町５丁目７番９号,,34,101,7300051,,,2023-11-20,清算の結了等,,,2015-10-05,1,,,,,オオシタサケテン,0
1281,5290005016446,登記記録の閉鎖等,0,2023-11-22,2023-11-16,一般社団法人音楽の輪コミュニティ日本協会,,その他の設立登記法人,福岡県,福岡市南区,井尻４丁目２番５１号,,40,134,8111302,,,2023-11-16,清算の結了等,,,2017-06-13,1,,,,,オンガクノワコミュニティニッポンキョウカイ,0
1290,5340002011782,登記記録の閉鎖等,0,2023-11-22,2023-11-20,有限会社メディカルオフィス中嶋,,有限会社,鹿児島県,鹿児島市,紫原７丁目１３番７号,,46,201,8900082,,,2023-11-20,清算の結了等,,,2015-10-05,1,,,,,メディカルオフィスナカジマ,0
1303,5400602001664,登記記録の閉鎖等,0,2023-11-22,2023-11-13,有限会社ハウスサポート,,有限会社,岩手県,胆沢郡金ケ崎町,西根城堰９番地１,,03,381,0294503,,,2023-11-13,清算の結了等,,,2015-10-05,1,,,,,ハウスサポート,0
1308,5420002017193,登記記録の閉鎖等,0,2023-11-22,2023-11-16,有限会社シンコー運輸,,有限会社,青森県,十和田市,大字赤沼字下川原１１４番地２,,02,206,0340071,,,2023-11-16,清算の結了等,,,2015-10-05,1,,,,,シンコーウンユ,0
1312,5430005003446,登記記録の閉鎖等,0,2023-11-22,2023-11-20,特定非営利活動法人札幌パークゴルフ協会,,その他の設立登記法人,北海道,札幌市西区,発寒三条１丁目６番６号,,01,107,0630823,,,2023-11-20,清算の結了等,,,2015-10-05,1,,,,,サッポロパークゴルフキョウカイ,0
1313,5430005012505,登記記録の閉鎖等,0,2023-11-22,2023-11-14,特定非営利活動法人こどもの医学部,,その他の設立登記法人,北海道,札幌市中央区,北五条西２３丁目２番１号第１６藤栄ビル,,01,101,0600005,,,2023-11-14,清算の結了等,,,2015-10-05,1,,,,,コドモノイガクブ,0
1329,6010001178928,登記記録の閉鎖等,0,2023-11-22,2023-11-17,ＪＰＡ第４５号株式会社,,株式会社,東京都,千代田区,霞が関３丁目２番１号,,13,101,1000013,,,2023-11-17,清算の結了等,,,2016-10-14,1,,,,,ジェイピーエーダイヨンジュウゴゴウ,0
1343,6010401115200,登記記録の閉鎖等,0,2023-11-22,2023-11-17,株式会社Ｓ４Ｃ,,株式会社,東京都,港区,赤坂２丁目１０番４号下村ビル２Ｆ,,13,103,1070052,,,2023-11-17,清算の結了等,,,2015-10-05,1,,,,,エスフォーシー,0
1357,6010601038630,登記記録の閉鎖等,0,2023-11-22,2023-11-17,創意企画株式会社,,株式会社,東京都,江東区,亀戸５丁目３３番１７－８０３号,,13,108,1360071,,,2023-11-17,清算の結了等,,,2015-10-05,1,,,,,ソウイキカク,0
1365,6010901005355,登記記録の閉鎖等,0,2023-11-22,2023-11-17,新川木工株式会社,,株式会社,東京都,世田谷区,世田谷１丁目２４番１２－２０２号,,13,112,1540017,,,2023-11-17,清算の結了等,,,2015-10-05,1,,,,,シンカワモッコウ,0
1381,6011501028696,登記記録の閉鎖等,0,2023-11-22,2023-11-15,ＡＰＧＢ株式会社,,株式会社,東京都,北区,豊島７丁目３１番２３号２０７室,,13,117,1140003,,,2023-11-15,清算の結了等,,,2022-11-24,1,,,,,エーピージービー,0
1394,6012703002241,登記記録の閉鎖等,0,2023-11-22,2023-11-17,合同会社大脇土建,00123255,合同会社,東京都,東村山市,久米川町１丁目２４番地４６,,13,213,1890003,,,2023-11-17,清算の結了等,,,2021-06-03,1,,,,,オオワキドケン,0
1395,6012803002331,登記記録の閉鎖等,0,2023-11-22,2023-11-15,優光総研合同会社,,合同会社,東京都,立川市,錦町１丁目４番２０号ＴＳＣビル５階・６階,,13,202,1900022,,,2023-11-15,清算の結了等,,,2020-08-06,1,,,,,ユウコウソウケン,0
1401,6020001104949,登記記録の閉鎖等,0,2023-11-22,2023-11-17,株式会社Ｔ＆Ｒ企画,,株式会社,神奈川県,横浜市南区,吉野町５丁目２７番地,,14,105,2320014,,,2023-11-17,清算の結了等,,,2015-10-05,1,,,,,ティーアンドアールキカク,0
1418,6021001070306,登記記録の閉鎖等,0,2023-11-22,2023-11-21,株式会社Ｒｙｕ　Ｓｔｒｅａｍ,,株式会社,神奈川県,相模原市緑区,西橋本４丁目１２番８号キャトルセゾンＩＶ６０３号,00120209,14,151,2520131,,,2023-11-21,清算の結了等,,,2020-07-08,1,,,,,リューストリーム,0
1435,6040001058490,登記記録の閉鎖等,0,2023-11-22,2023-11-08,スリーアイ成東株式会社,,株式会社,千葉県,山武市,成東１８７０番地１,,12,237,2891326,,,2023-11-08,清算の結了等,,,2015-10-05,1,,,,,スリーアイナルトウ,0
1459,6050002024870,登記記録の閉鎖等,0,2023-11-22,2023-11-16,有限会社山室電設,,有限会社,茨城県,古河市,下辺見２６６０番地,,08,204,3060235,,,2023-11-16,清算の結了等,,,2015-10-05,1,,,,,ヤマムロデンセツ,0
1471,6110001016540,登記記録の閉鎖等,0,2023-11-22,2023-11-20,株式会社堀江部屋,,株式会社,新潟県,三条市,嘉坪川１丁目１３番３３号,,15,204,9550056,,,2023-11-20,清算の結了等,,,2015-10-05,1,,,,,ホリエベヤ,0
1474,6120001030887,登記記録の閉鎖等,0,2023-11-22,2023-11-20,新生鋼業株式会社,,株式会社,大阪府,大阪市住之江区,泉２丁目１番６４号株式会社栗本鐵工所加賀屋工場内,,27,125,5590023,,,2023-11-20,清算の結了等,,,2015-10-05,1,,,,,シンセイコウギョウ,0
1476,6120001076757,登記記録の閉鎖等,0,2023-11-22,2023-11-17,開進貿易株式会社,,株式会社,大阪府,大阪市東住吉区,南田辺１丁目３番１５号,,27,121,5460033,,,2023-11-17,清算の結了等,,,2015-10-05,1,,,,,カイシンボウエキ,0
1491,6120003012041,登記記録の閉鎖等,0,2023-11-22,2023-11-17,合同会社Ｏｆｆｉｃｅ　ＭＩＮＴ,,合同会社,大阪府,大阪市西区,南堀江３丁目７番１１－１０１号,,27,106,5500015,,,2023-11-17,清算の結了等,,,2016-10-05,1,,,,,,0
1515,6140003011537,登記記録の閉鎖等,0,2023-11-22,2023-11-17,合同会社ミルリトン６３,,合同会社,兵庫県,尼崎市,武庫之荘２丁目２６－１４,,28,202,6610035,,,2023-11-17,清算の結了等,,,2016-07-27,1,,,,,ミルリトンロクジュウサン,0
1520,6170001010843,登記記録の閉鎖等,0,2023-11-22,2023-11-16,橋本開発株式会社,,株式会社,和歌山県,橋本市,大字横座花房垣内２０７番地,,30,203,6480000,,,2023-11-16,清算の結了等,,,2015-10-05,1,,,,,ハシモトカイハツ,0
1527,6180002065340,登記記録の閉鎖等,0,2023-11-22,2023-11-16,有限会社エムアールケー,,有限会社,愛知県,春日井市,東野町２丁目４番地の４,,23,206,4860817,,,2023-11-16,清算の結了等,,,2015-10-05,1,,,,,エムアールケー,0
1528,6180002067576,登記記録の閉鎖等,0,2023-11-22,2023-11-15,有限会社モル機器,,有限会社,愛知県,春日井市,松本町６５６番地,,23,206,4870027,,,2023-11-15,清算の結了等,,,2015-10-05,1,,,,,モルキキ,0
1529,6180002075777,登記記録の閉鎖等,0,2023-11-22,2023-11-16,有限会社今枝紙器,,有限会社,愛知県,一宮市,千秋町勝栗字削栗３１２番地,,23,203,4910802,,,2023-11-16,清算の結了等,,,2015-10-05,1,,,,,イマエシキ,0
1531,6180302009179,登記記録の閉鎖等,0,2023-11-22,2023-11-14,有限会社はとや,,有限会社,愛知県,豊橋市,広小路３丁目５１番地,,23,201,4400881,,,2023-11-14,清算の結了等,,,2015-10-05,1,,,,,ハトヤ,0
1548,6280002011565,登記記録の閉鎖等,0,2023-11-22,2023-11-20,三刀屋産業有限会社,,有限会社,島根県,雲南市,三刀屋町三刀屋２７０番地,,32,209,6902404,,,2023-11-20,清算の結了等,,,2015-10-05,1,,,,,ミトヤサンギョウ,0
1552,6310002004342,登記記録の閉鎖等,0,2023-11-22,2023-11-20,有限会社番所橋ファーマシー,,有限会社,長崎県,長崎市,矢上町２番３号,,42,201,8510133,,,2023-11-20,清算の結了等,,,2015-10-05,1,,,,,バンショバシファーマシー,0
1564,6370202004582,登記記録の閉鎖等,0,2023-11-22,2023-11-20,有限会社栗南商会,,有限会社,宮城県,栗原市,若柳字下畑岡内谷川１２６番地,,04,213,9895503,,,2023-11-20,清算の結了等,,,2015-10-05,1,,,,,リツナンショウカイ,0
1568,6380002033013,登記記録の閉鎖等,0,2023-11-22,2023-11-21,有限会社文化堂,,有限会社,福島県,会津若松市,大町１丁目６番１３号,,07,202,9650042,,,2023-11-21,清算の結了等,,,2015-10-05,1,,,,,ブンカドウ,0
1576,6430005001837,登記記録の閉鎖等,0,2023-11-22,2023-11-17,医療法人社団信洋会,,その他の設立登記法人,北海道,札幌市南区,石山二条８丁目２番１２号,,01,106,0050842,,,2023-11-17,清算の結了等,,,2015-10-05,1,,,,,シンヨウカイ,0
1615,7010502010753,登記記録の閉鎖等,0,2023-11-22,2023-11-20,有限会社マリオンティム,,有限会社,東京都,足立区,青井４丁目１－１２,,13,121,1210012,,,2023-11-20,清算の結了等,,,2015-10-05,1,,,,,マリオンティム,0
1629,7011001057708,登記記録の閉鎖等,0,2023-11-22,2023-11-15,株式会社クリア,,株式会社,神奈川県,横浜市港北区,綱島西６丁目３番３２号,,14,109,2230053,,,2023-11-15,清算の結了等,,,2015-10-05,1,,,,,クリア,0
1639,7011003010920,登記記録の閉鎖等,0,2023-11-22,2023-11-16,Ｂａｓｈａｍｉｃｈｉ　Ｓｋｙ　Ｖｅｎｕｅ合同会社,,合同会社,東京都,中央区,新川１丁目２１番２号,,13,102,1040033,,,2023-11-16,清算の結了等,,,2020-03-06,1,,,,,バシャミチスカイベニュー,0
1666,7012301007690,登記記録の閉鎖等,0,2023-11-22,2023-11-20,萩原ビル株式会社,,株式会社,東京都,町田市,森野１丁目１２番５号,,13,209,1940022,,,2023-11-20,清算の結了等,,,2015-10-05,1,,,,,ハギワラビル,0
1672,7020001117561,登記記録の閉鎖等,0,2023-11-22,2023-11-15,アオバ建業株式会社,,株式会社,神奈川県,横浜市青葉区,しらとり台６４番地７,,14,117,2270054,,,2023-11-15,清算の結了等,,,2016-08-24,1,,,,,アオバケンギョウ,0
1698,7030002083686,登記記録の閉鎖等,0,2023-11-22,2023-11-14,有限会社雄山社,,有限会社,埼玉県,北本市,北本２丁目１７７番地６,,11,233,3640006,,,2023-11-14,清算の結了等,,,2015-10-05,1,,,,,ユウザンシャ,0
1704,7040002016950,登記記録の閉鎖等,0,2023-11-22,2023-11-14,山東交易有限会社,,有限会社,千葉県,千葉市稲毛区,柏台１番２３棟１０３号,,12,103,2630053,,,2023-11-14,清算の結了等,,,2015-10-05,1,,,,,サントウコウエキ,0
1733,7080102015510,登記記録の閉鎖等,0,2023-11-22,2023-11-20,有限会社仙心あるみはんばい,,有限会社,静岡県,富士市,大渕１４９２番地の１５,,22,210,4170000,,,2023-11-20,清算の結了等,,,2015-10-05,1,,,,,センシンアルミハンバイ,0
1735,7080402020251,登記記録の閉鎖等,0,2023-11-22,2023-11-16,有限会社浜南管理センター,,有限会社,静岡県,磐田市,豊田５９０番地の２,,22,211,4380808,,,2023-11-16,清算の結了等,,,2015-10-05,1,,,,,ハマナンカンリセンター,0
1739,7090001011725,登記記録の閉鎖等,0,2023-11-22,2023-11-20,株式会社木下製作所,,株式会社,山梨県,韮崎市,龍岡町下條南割３２０番地１,,19,207,4070033,,,2023-11-20,清算の結了等,,,2015-10-05,1,,,,,キノシタセイサクジョ,0
1754,7120002020820,登記記録の閉鎖等,0,2023-11-22,2023-11-21,有限会社山仁,,有限会社,大阪府,大阪市浪速区,戎本町１丁目５番１１号,,27,111,5560013,,,2023-11-21,清算の結了等,,,2015-10-05,1,,,,,ヤマニ,0
1767,7120901038194,登記記録の閉鎖等,0,2023-11-22,2023-11-21,靖島リフォーム株式会社,,株式会社,大阪府,茨木市,五十鈴町１４－２８－３,,27,211,5670842,,,2023-11-21,清算の結了等,,,2017-03-22,1,,,,,,0
1782,7170001009595,登記記録の閉鎖等,0,2023-11-22,2023-11-21,株式会社マックスライン,,株式会社,大阪府,吹田市,江の木町５番２４号,,27,205,5640053,,,2023-11-21,清算の結了等,,,2015-10-05,1,,,,,マックスライン,0
1783,7180001030823,登記記録の閉鎖等,0,2023-11-22,2023-11-15,株式会社鈴木設計事務所,,株式会社,愛知県,名古屋市中川区,野田１丁目１０番地,,23,110,4540912,,,2023-11-15,清算の結了等,,,2015-10-05,1,,,,,スズキセッケイジムショ,0
1801,7240001041533,登記記録の閉鎖等,0,2023-11-22,2023-11-20,株式会社リンク,,株式会社,広島県,福山市,曙町１丁目１６番２４号,00000623,34,207,7210952,,,2023-11-20,清算の結了等,,,2015-10-05,1,,,,,リンク,0
1802,7240001062050,登記記録の閉鎖等,0,2023-11-22,2023-11-21,Ｒｍ株式会社,,株式会社,広島県,広島市南区,宇品西５丁目１１番１号９１６号室,,34,103,7340014,,,2023-11-21,清算の結了等,,,2023-09-01,1,,,,,アールエム,0
1821,7290801007794,登記記録の閉鎖等,0,2023-11-22,2023-11-17,株式会社門宮商事,,株式会社,福岡県,北九州市戸畑区,中原東３丁目１３番６１－５０１号,,40,105,8040012,,,2023-11-17,清算の結了等,,,2015-10-05,1,,,,,カドミヤショウジ,0
1823,7290802003033,登記記録の閉鎖等,0,2023-11-22,2023-11-13,有限会社昌栄総業,,有限会社,福岡県,宗像市,自由ヶ丘４丁目１１番地８,,40,220,8114163,,,2023-11-13,清算の結了等,,,2015-10-05,1,,,,,ショウエイソウギョウ,0
1850,7390001010861,登記記録の閉鎖等,0,2023-11-22,2023-11-15,株式会社シビルアイ,,株式会社,山形県,米沢市,林泉寺２丁目２番３４－１号,,06,202,9920062,,,2023-11-15,清算の結了等,,,2015-10-05,1,,,,,シビルアイ,0
1879,8010002043550,登記記録の閉鎖等,0,2023-11-22,2023-11-16,モックエムエムオーケー有限会社,,有限会社,東京都,千代田区,神田須田町１丁目４番地１,,13,101,1010041,,,2023-11-16,清算の結了等,,,2015-10-05,1,,,,,モックエムエムオーケー,0
1882,8010005022221,登記記録の閉鎖等,0,2023-11-22,2023-11-16,一般社団法人共同バックアップセンター運営機構,,その他の設立登記法人,東京都,千代田区,三番町５番地,,13,101,1020075,,,2023-11-16,清算の結了等,,,2015-10-05,1,,,,,キョウドウバックアップセンターウンエイキコウ,0
1920,8011301022088,登記記録の閉鎖等,0,2023-11-22,2023-11-13,杉並住販株式会社,,株式会社,東京都,杉並区,上荻３丁目２５番８号,,13,115,1670043,,,2023-11-13,清算の結了等,,,2016-03-09,1,,,,,スギナミジュウハン,0
1928,8011802018683,登記記録の閉鎖等,0,2023-11-22,2023-11-21,有限会社松下設計一級建築事務所,,有限会社,東京都,足立区,西伊興３丁目１２番１８号,,13,121,1210824,,,2023-11-21,清算の結了等,,,2015-10-05,1,,,,,マツシタセッケイイッキュウケンチクジムショ,0
1934,8020001047270,登記記録の閉鎖等,0,2023-11-22,2023-11-15,株式会社ミオ・ケイエスケイ,,株式会社,神奈川県,横浜市緑区,十日市場町８５５番地７平瀬ビル１０２号,,14,113,2260025,,,2023-11-15,清算の結了等,,,2015-10-05,1,,,,,ミオケイエスケイ,0
1963,8030001152920,登記記録の閉鎖等,0,2023-11-22,2023-11-15,株式会社Ｃ．Ｂ．Ｔ．Ｌ,,株式会社,埼玉県,さいたま市大宮区,大門町３丁目１９８番地１９,,11,103,3300846,,,2023-11-15,清算の結了等,,,2023-03-22,1,,,,,シービーティーエル,0
2007,8080001017961,登記記録の閉鎖等,0,2023-11-22,2023-11-20,株式会社ｑｕａｌｉｔｅ,,株式会社,静岡県,島田市,宝来町８番２号,,22,209,4270016,,,2023-11-20,清算の結了等,,,2015-10-05,1,,,,,カリテ,0
2008,8080102002994,登記記録の閉鎖等,0,2023-11-22,2023-11-20,有限会社ひとこし,,有限会社,静岡県,沼津市,大岡字笠田１９６１番地の１,,22,203,4100022,,,2023-11-20,清算の結了等,,,2015-10-05,1,,,,,ヒトコシ,0
2010,8090002009809,登記記録の閉鎖等,0,2023-11-22,2023-11-20,有限会社和田工務店,,有限会社,山梨県,上野原市,棡原９６１６番地,,19,212,4090111,,,2023-11-20,清算の結了等,,,2015-10-05,1,,,,,ワダコウムテン,0
2020,8110003003543,登記記録の閉鎖等,0,2023-11-22,2023-11-20,合同会社横田組,,合同会社,新潟県,五泉市,水島町８番１４号,,15,218,9591812,,,2023-11-20,清算の結了等,,,2017-08-02,1,,,,,ヨコタグミ,0
2021,8110005006750,登記記録の閉鎖等,0,2023-11-22,2023-11-17,柏崎市土地開発公社,,その他の設立登記法人,新潟県,柏崎市,日石町２番１号,,15,205,9450054,,,2023-11-17,清算の結了等,,,2015-10-05,1,,,,,カシワザキシ,0
2023,8120001084543,登記記録の閉鎖等,0,2023-11-22,2023-11-17,株式会社つたや,,株式会社,大阪府,大阪市中央区,久太郎町４丁目１番３号大阪センタービルＢ１,,27,128,5410056,,,2023-11-17,清算の結了等,,,2015-10-05,1,,,,,ツタヤ,0
2070,8180005002594,登記記録の閉鎖等,0,2023-11-22,2023-11-14,医療法人土古医院,,その他の設立登記法人,愛知県,名古屋市港区,泰明町２丁目６番地,,23,111,4550069,,,2023-11-14,清算の結了等,,,2015-10-05,1,,,,,ドンコイイン,0
2078,8240001019529,登記記録の閉鎖等,0,2023-11-22,2023-11-21,キョウワフーズ株式会社,,株式会社,広島県,広島市西区,草津港１丁目９番１号,,34,104,7330832,,,2023-11-21,清算の結了等,,,2015-10-05,1,,,,,キョウワフーズ,0
2084,8240002013869,登記記録の閉鎖等,0,2023-11-22,2023-11-20,有限会社ひらおか,,有限会社,広島県,広島市南区,松川町３番６号,,34,103,7320826,,,2023-11-20,清算の結了等,,,2015-10-05,1,,,,,ヒラオカ,0
2099,8320002018348,登記記録の閉鎖等,0,2023-11-22,2023-11-20,有限会社田村商店,,有限会社,大分県,豊後大野市,犬飼町田原４９番地１の３,,44,212,8797305,,,2023-11-20,清算の結了等,,,2015-10-05,1,,,,,,0
2120,8370005003524,登記記録の閉鎖等,0,2023-11-22,2023-11-16,特定非営利活動法人匠の右腕,,その他の設立登記法人,宮城県,仙台市泉区,市名坂字新門前２４番７,,04,105,9813117,,,2023-11-16,清算の結了等,,,2015-10-05,1,,,,,タクミノミギウデ,0
2154,9010001002127,登記記録の閉鎖等,0,2023-11-22,2023-11-16,株式会社協成社,,株式会社,東京都,文京区,千駄木３丁目１７番２号,,13,105,1130022,,,2023-11-16,清算の結了等,,,2015-10-05,1,,,,,キョウセイシャ,0
2163,9010001180617,登記記録の閉鎖等,0,2023-11-22,2023-11-17,ＪＰＡ第５４号株式会社,,株式会社,東京都,千代田区,霞が関３丁目２番１号,,13,101,1000013,,,2023-11-17,清算の結了等,,,2017-01-11,1,,,,,ジェイピーエーダイゴジュウヨウンゴウ,0
2182,9010403030972,登記記録の閉鎖等,0,2023-11-22,2023-11-20,合同会社ＴＴコーポレーション２,,合同会社,東京都,港区,白金台３丁目２番３４号,,13,103,1080071,,,2023-11-20,合併による解散等,6010403028648,令和５年１１月２０日東京都港区白金台三丁目２番３４号株式会社ＴＴコーポレーション（6010403028648）に合併し解散,2023-09-19,1,,,,,ティーティーコーポレーションツー,0
2263,9012402005286,登記記録の閉鎖等,0,2023-11-22,2023-11-17,有限会社東邦技研工業,,有限会社,東京都,小金井市,前原町５丁目２番４５号,,13,210,1840013,,,2023-11-17,清算の結了等,,,2015-10-05,1,,,,,トウホウギケンコウギョウ,0
2265,9012402018619,登記記録の閉鎖等,0,2023-11-22,2023-11-17,有限会社北沢モータース,,有限会社,東京都,三鷹市,牟礼７丁目８番６号,,13,204,1810002,,,2023-11-17,清算の結了等,,,2015-10-05,1,,,,,キタザワモータース,0
2271,9012701011613,登記記録の閉鎖等,0,2023-11-22,2023-11-20,株式会社スペースエンジニアリング,,株式会社,東京都,小平市,仲町２６９－１－３０５,,13,211,1870042,,,2023-11-20,清算の結了等,,,2015-10-05,1,,,,,,0
2289,9020002025150,登記記録の閉鎖等,0,2023-11-22,2023-11-16,有限会社新都市ネットワーク,,有限会社,神奈川県,横浜市保土ケ谷区,上星川２丁目３５番２号,,14,106,2400042,,,2023-11-16,清算の結了等,,,2015-10-05,1,,,,,シントシネットワーク,0
2293,9020002078677,登記記録の閉鎖等,0,2023-11-22,2023-11-17,有限会社Ｊ－ウィングサービス,,有限会社,神奈川県,横浜市港北区,新横浜３丁目１番４号,,14,109,2220033,,,2023-11-17,清算の結了等,,,2015-10-05,1,,,,,,0
2299,9021002015884,登記記録の閉鎖等,0,2023-11-22,2023-11-15,有限会社洋裝店ら・めーる,,有限会社,神奈川県,鎌倉市,扇ガ谷２丁目１３番２号,,14,204,2480011,,,2023-11-15,清算の結了等,,,2015-10-05,1,,,,,ヨウソウテンラメール,0
2341,9050002026963,登記記録の閉鎖等,0,2023-11-22,2023-11-15,エクセル有限会社,,有限会社,茨城県,神栖市,神栖４丁目１０番２５号,,08,232,3140143,,,2023-11-15,清算の結了等,,,2015-10-05,1,,,,,エクセル,0
2355,9100002019466,登記記録の閉鎖等,0,2023-11-22,2023-11-10,有限会社大手観光,,有限会社,長野県,松本市,大手２丁目６番１８号,,20,202,3900874,,,2023-11-10,清算の結了等,,,2015-10-05,1,,,,,オオテカンコウ,0
2394,9140001036566,登記記録の閉鎖等,0,2023-11-22,2023-11-20,株式会社ヘルスプラン,,株式会社,兵庫県,三木市,志染町広野８丁目１４９番地,,28,215,6730541,,,2023-11-20,清算の結了等,,,2015-10-05,1,,,,,ヘルスプラン,0
2402,9140005023750,登記記録の閉鎖等,0,2023-11-22,2023-11-20,一般社団法人日本着床前診断学会,,その他の設立登記法人,兵庫県,神戸市灘区,八幡町２丁目１番２３号,,28,102,6570051,,,2023-11-20,清算の結了等,,,2017-09-28,1,,,,,ニホンチャクショウマエシンダンガッカイ,0
2408,9170001005733,登記記録の閉鎖等,0,2023-11-22,2023-11-20,大東木工株式会社,,株式会社,和歌山県,海南市,船尾３６４番地,,30,202,6420001,,,2023-11-20,清算の結了等,,,2015-10-05,1,,,,,ダイトウモッコウ,0
2413,9180002023221,登記記録の閉鎖等,0,2023-11-22,2023-11-16,有限会社晃生電工,,有限会社,愛知県,名古屋市西区,上名古屋４丁目７番４号,,23,104,4510025,,,2023-11-16,清算の結了等,,,2015-10-05,1,,,,,コウセイデンコウ,0
2414,9180002092786,登記記録の閉鎖等,0,2023-11-22,2023-11-15,有限会社アイテック,,有限会社,愛知県,弥富市,五之三川平３丁目１２番地,,23,235,4980018,,,2023-11-15,清算の結了等,,,2015-10-05,1,,,,,アイテック,0
2417,9180301026998,登記記録の閉鎖等,0,2023-11-22,2023-11-13,株式会社菊地製作所,,株式会社,愛知県,豊橋市,東細谷町字一里山２２２番地の５,,23,201,4413112,,,2023-11-13,清算の結了等,,,2015-10-05,1,,,,,キクチセイサクジョ,0
2423,9180302024893,登記記録の閉鎖等,0,2023-11-22,2023-11-13,有限会社まぐろや,,有限会社,愛知県,豊田市,畝部西町伊勢神６２番地,,23,211,4701219,,,2023-11-13,清算の結了等,,,2015-10-05,1,,,,,マグロヤ,0
2426,9210001012659,登記記録の閉鎖等,0,2023-11-22,2023-11-09,アルファ株式会社,,株式会社,福井県,鯖江市,幸町１丁目１番１号,,18,207,9160018,,,2023-11-09,清算の結了等,,,2015-10-05,1,,,,,アルファ,0
2435,9270002002389,登記記録の閉鎖等,0,2023-11-22,2023-11-21,有限会社ワイワイ,,有限会社,鳥取県,鳥取市,面影２丁目１８番３６号,,31,201,6800855,,,2023-11-21,清算の結了等,,,2015-10-05,1,,,,,ワイワイ,0
2438,9290001032732,登記記録の閉鎖等,0,2023-11-22,2023-11-14,株式会社セカンドフーズ,,株式会社,福岡県,福岡市博多区,浦田２丁目２９番５号,,40,132,8120861,,,2023-11-14,清算の結了等,,,2015-10-05,1,,,,,セカンドフーズ,0
2439,9290001093923,登記記録の閉鎖等,0,2023-11-22,2023-11-20,株式会社ＭＩパートナーズ,,株式会社,広島県,呉市,中央１丁目６－３メゾンフェニックスＩＩＩ３０２号,00126341,34,202,7370051,,,2023-11-20,清算の結了等,,,2021-07-27,1,,,,,エムアイパートナーズ,0
2446,9320205000498,登記記録の閉鎖等,0,2023-11-22,2023-11-21,農事組合法人アグリカルチャー芦刈,00097263,その他の設立登記法人,大分県,臼杵市,野津町大字都原３４３５番地,,44,206,8750211,,,2023-11-21,清算の結了等,,,2015-10-05,1,,,,,アグリカルチャーアシカリ,0
2461,9380001030421,登記記録の閉鎖等,0,2023-11-22,2023-11-07,スピンネーカー株式会社,,株式会社,福島県,郡山市,並木２丁目１０番地の１３５,,07,203,9638026,,,2023-11-07,清算の結了等,,,2019-10-28,1,,,,,スピンネーカー,0
2479,9470001000340,登記記録の閉鎖等,0,2023-11-22,2023-11-20,株式会社アシスト,,株式会社,香川県,高松市,松島町２丁目１４番１号,,37,201,7600068,,,2023-11-20,清算の結了等,,,2015-10-05,1,,,,,アシスト,0
2481,9470001017649,登記記録の閉鎖等,0,2023-11-22,2023-11-20,株式会社やまを麺業,,株式会社,香川県,小豆郡土庄町,甲３３９２番地１,,37,322,7614101,,,2023-11-20,清算の結了等,,,2019-10-01,1,,,,,ヤマオメンギョウ,0
