sequenceNumber,corporateNumber,process,correct,updateDate,changeDate,name,nameImageId,kind,prefectureName,cityName,streetNumber,addressImageId,prefectureCode,cityCode,postCode,addressOutside,addressOutsideImageId,closeDate,closeCause,successorCorporateNumber,changeCause,assignmentDate,latest,enName,enPrefectureName,enCityName,enAddressOutside,furigana,hihyoji
13,1010001237102,新規,0,2023-07-26,2023-07-26,株式会社ｄｏｎｕｍ,,株式会社,東京都,中央区,銀座１丁目２２番１１号銀座大竹ビジデンス２階,,13,102,1040061,,,,,,,2023-07-26,1,,,,,ドーノム,0
14,1010001237143,新規,0,2023-07-26,2023-07-26,門ホールディングス株式会社,,株式会社,東京都,千代田区,丸の内１丁目７番１２号,,13,101,1000005,,,,,,,2023-07-26,1,,,,,モンホールディングス,0
18,1010003041196,新規,0,2023-07-26,2023-07-26,合同会社ウッドブック,,合同会社,東京都,文京区,本郷４丁目１６番６号文京区本郷四丁目ビル天翔オフィス後楽園６０７号室,,13,105,1130033,,,,,,,2023-07-26,1,,,,,ウッドブック,0
30,1010403030559,新規,0,2023-07-26,2023-07-26,Ｗ．Ｒ．Ｅ．コンサルティング合同会社,,合同会社,東京都,港区,浜松町１丁目１１番１２号金井ビル４Ｂ,,13,103,1050013,,,,,,,2023-07-26,1,,,,,ダブリューアールイーコンサルティング,0
31,1010405022364,新規,0,2023-07-26,2023-07-26,枇杷一般社団法人,,その他の設立登記法人,東京都,港区,西新橋１丁目１番１号ＥＰコンサルティングサービス内,,13,103,1050003,,,,,,,2023-07-26,1,,,,,ビワ,0
32,1010601063476,新規,0,2023-07-26,2023-07-26,カンファーウッド株式会社,,株式会社,東京都,江東区,豊洲２丁目５番１－２４１４号,,13,108,1350061,,,,,,,2023-07-26,1,,,,,カンファーウッド,0
48,1011101103697,新規,0,2023-07-26,2023-07-26,株式会社エイペックスワークス,,株式会社,東京都,新宿区,西新宿３丁目３番１３号西新宿水間ビル２Ｆ,,13,104,1600023,,,,,,,2023-07-26,1,,,,,エイペックスワークス,0
49,1011101103714,新規,0,2023-07-26,2023-07-26,株式会社裕香,,株式会社,東京都,新宿区,大久保１丁目１６番２７号ＫＭプラザ１階,,13,104,1690072,,,,,,,2023-07-26,1,,,,,ユカ,0
50,1011101103739,新規,0,2023-07-26,2023-07-26,株式会社ＯｎｅＳｔｅｐＵｐ,,株式会社,東京都,新宿区,新宿１丁目３６番２号新宿第七葉山ビル３Ｆ,,13,104,1600022,,,,,,,2023-07-26,1,,,,,ワンステップアップ,0
51,1011103013275,新規,0,2023-07-26,2023-07-26,合同会社草花,,合同会社,東京都,新宿区,西新宿３丁目３番１３号西新宿水間ビル６階,,13,104,1600023,,,,,,,2023-07-26,1,,,,,クサバナ,0
57,1012401040762,新規,0,2023-07-26,2023-07-26,株式会社エコロビー,,株式会社,東京都,多摩市,連光寺２丁目７３番９号サンビレッジ２０２,,13,224,2060021,,,,,,,2023-07-26,1,,,,,エコロビー,0
58,1012701017758,新規,0,2023-07-26,2023-07-26,株式会社アート工房かい,,株式会社,東京都,東村山市,久米川町３丁目２７番地８４,,13,213,1890003,,,,,,,2023-07-26,1,,,,,アートコウボウカイ,0
61,1012803003136,新規,0,2023-07-26,2023-07-26,Ｃｏｅ合同会社,,合同会社,東京都,立川市,富士見町２丁目３１番２５号,,13,202,1900013,,,,,,,2023-07-26,1,,,,,コエ,0
64,1013301051073,新規,0,2023-07-26,2023-07-26,日邦スカイブレス株式会社,,株式会社,東京都,豊島区,北大塚２丁目１８－６－７０５号,,13,116,1700004,,,,,,,2023-07-26,1,,,,,ニッポウスカイブレス,0
93,1030001155070,新規,0,2023-07-26,2023-07-26,株式会社タケトモ電機,,株式会社,埼玉県,川越市,大字的場２２１４番地６,,11,201,3501101,,,,,,,2023-07-26,1,,,,,タケトモデンキ,0
101,1040001129395,新規,0,2023-07-26,2023-07-26,栄晟株式会社,,株式会社,千葉県,松戸市,松飛台１３番地の８,,12,207,2702214,,,,,,,2023-07-26,1,,,,,エイセイ,0
113,1050003007672,新規,0,2023-07-26,2023-07-26,ＭＩＴ　ＡＵＴＯ　ＪＡＰＡＮ合同会社,,合同会社,茨城県,つくばみらい市,板橋１０５１番地２,,08,235,3002307,,,,,,,2023-07-26,1,,,,,ミットオートジャパン,0
118,1070001040673,新規,0,2023-07-26,2023-07-26,株式会社幸生,,株式会社,群馬県,前橋市,野中町１５８番地１４,,10,201,3792166,,,,,,,2023-07-26,1,,,,,コウセイ,0
122,1090001018230,新規,0,2023-07-26,2023-07-26,株式会社大武川,,株式会社,山梨県,北杜市,武川町宮脇１４８８番地,,19,209,4080303,,,,,,,2023-07-26,1,,,,,オオムカワ,0
124,1100001036585,新規,0,2023-07-26,2023-07-26,株式会社鳥山建築社,,株式会社,長野県,松本市,中条２番１５－７０１号,,20,202,3900816,,,,,,,2023-07-26,1,,,,,トリヤマケンチクシャ,0
127,1110001037715,新規,0,2023-07-26,2023-07-26,株式会社Ｓｍｉｌｅシャッター,,株式会社,新潟県,三条市,曲渕３丁目２３番３５－７号,,15,204,9550864,,,,,,,2023-07-26,1,,,,,スマイルシャッター,0
139,1120001256719,新規,0,2023-07-26,2023-07-26,株式会社Ｔｏｓｈｉ,,株式会社,大阪府,大阪市城東区,蒲生３丁目１５－４－４０３,,27,118,5360016,,,,,,,2023-07-26,1,,,,,トシ,0
140,1120001256784,新規,0,2023-07-26,2023-07-26,株式会社ソウルイン,,株式会社,大阪府,大阪市中央区,南船場１丁目１６番１０号大阪岡本ビル５階,,27,128,5420081,,,,,,,2023-07-26,1,,,,,ソウルイン,0
141,1120001256850,新規,0,2023-07-26,2023-07-26,株式会社ＩＯ　ｃｏｒｐｏｒａｔｉｏｎ,,株式会社,大阪府,大阪市西区,南堀江３丁目８番９－４０６号,,27,106,5500015,,,,,,,2023-07-26,1,,,,,アイオーコーポレーション,0
149,1120101067941,新規,0,2023-07-26,2023-07-26,株式会社Ｔａｋｅ２ロジ,,株式会社,大阪府,堺市西区,浜寺石津町西５丁４－１２,,27,144,5928333,,,,,,,2023-07-26,1,,,,,テイクツーロジ,0
161,1140001131011,新規,0,2023-07-26,2023-07-26,原建装株式会社,,株式会社,兵庫県,尼崎市,食満３丁目１８番１１－１０２号,,28,202,6610982,,,,,,,2023-07-26,1,,,,,ハラケンソウ,0
164,1150001026565,新規,0,2023-07-26,2023-07-26,株式会社ＳＮメタル,,株式会社,奈良県,奈良市,百楽園５丁目７番１号,,29,201,6310024,,,,,,,2023-07-26,1,,,,,エスエヌメタル,0
170,1180001157291,新規,0,2023-07-26,2023-07-26,株式会社Ｔｒｙ＆Ａ,,株式会社,愛知県,名古屋市中区,栄２丁目１５番１６号白川タワービル７Ｆ,,23,106,4600008,,,,,,,2023-07-26,1,,,,,トライアンドエー,0
174,1190003004375,新規,0,2023-07-26,2023-07-26,エムプラン合同会社,,合同会社,三重県,伊勢市,御薗町新開９１５番地フレグランスアサノ１０１号室,,24,203,5160802,,,,,,,2023-07-26,1,,,,,,0
190,1240003006234,新規,0,2023-07-26,2023-07-26,ＶＩＥＴ　ＮＨＡＴ　ＱＵＡＮ合同会社,,合同会社,広島県,福山市,伏見町２番６号,,34,207,7200062,,,,,,,2023-07-26,1,,,,,ベトニャットワン,0
203,1290001102402,新規,0,2023-07-26,2023-07-26,株式会社Ｐｏｉｎｔ＆Ｌｉｎｅ測量,,株式会社,福岡県,糟屋郡粕屋町,長者原西７番２号,,40,349,8112300,,,,,,,2023-07-26,1,,,,,ポイントアンドラインソクリョウ,0
205,1290003014158,新規,0,2023-07-26,2023-07-26,合同会社グレイスＮ,,合同会社,福岡県,大野城市,緑ケ丘１丁目１０番４号,,40,219,8160961,,,,,,,2023-07-26,1,,,,,グレイスエヌ,0
208,1290801029729,新規,0,2023-07-26,2023-07-26,株式会社ＳＡＭＵＲＡＩ,,株式会社,福岡県,直方市,大字感田２８２７番地１,,40,204,8220001,,,,,,,2023-07-26,1,,,,,サムライ,0
210,1300001013382,新規,0,2023-07-26,2023-07-26,かしわ産業株式会社,,株式会社,佐賀県,唐津市,神集島２３２８番地１３,,41,202,8470131,,,,,,,2023-07-26,1,,,,,カシワサンギョウ,0
214,1310003004610,新規,0,2023-07-26,2023-07-26,合同会社サンライトレンタカー,,合同会社,長崎県,雲仙市,小浜町北本町８７７番地３,,42,213,8540514,,,,,,,2023-07-26,1,,,,,サンライトレンタカー,0
215,1320001019907,新規,0,2023-07-26,2023-07-26,荒巻不動産株式会社,,株式会社,大分県,大分市,生石港町２丁目５番１４号ハズ・ドゥぺール生石港１１０２,,44,201,8700001,,,,,,,2023-07-26,1,,,,,アラマキフドウサン,0
218,1330001031043,新規,0,2023-07-26,2023-07-26,株式会社Ｐｌａｎｔ　Ｏｎｅ,,株式会社,熊本県,熊本市北区,植木町清水１１３９－２,,43,105,8610103,,,,,,,2023-07-26,1,,,,,プラントワン,0
219,1330001031084,新規,0,2023-07-26,2023-07-26,株式会社谷脇不動産,,株式会社,熊本県,人吉市,西間上町２３８４番地,,43,203,8680071,,,,,,,2023-07-26,1,,,,,タニワキフドウサン,0
220,1340003004186,新規,0,2023-07-26,2023-07-26,合同会社莉華,,合同会社,鹿児島県,出水市,荘１３０４番地,,46,208,8990435,,,,,,,2023-07-26,1,,,,,リハナ,0
224,1360001032336,新規,0,2023-07-26,2023-07-26,株式会社ＤＡＮＫ,,株式会社,沖縄県,名護市,字宮里８７５番地２５‐７０２,,47,209,9050011,,,,,,,2023-07-26,1,,,,,ダンク,0
227,1360003013152,新規,0,2023-07-26,2023-07-26,合同会社Ｇｌｅｅ　ｃｒｅａｔｅ,,合同会社,沖縄県,名護市,字済井出４３７番地２,,47,209,9051635,,,,,,,2023-07-26,1,,,,,グリークリエイト,0
250,1430001089492,新規,0,2023-07-26,2023-07-26,株式会社中野商会,,株式会社,北海道,札幌市白石区,菊水五条１丁目７番３号,,01,104,0030805,,,,,,,2023-07-26,1,,,,,ナカノショウカイ,0
251,1430001089526,新規,0,2023-07-26,2023-07-26,株式会社Ｍグレイス,,株式会社,北海道,室蘭市,中央町２丁目８番１２号,,01,205,0510011,,,,,,,2023-07-26,1,,,,,エムグレイス,0
254,1430003015232,新規,0,2023-07-26,2023-07-26,Ｙ＆Ｓ　Ｈｏｌｄｉｎｇｓ合同会社,,合同会社,北海道,札幌市白石区,本郷通８丁目南４番４－２０２号,,01,104,0030024,,,,,,,2023-07-26,1,,,,,ワイアンドエスホールディングス,0
255,1430003015240,新規,0,2023-07-26,2023-07-26,合同会社エムズコーポレーション,,合同会社,北海道,札幌市中央区,宮の森三条２丁目２番９号,,01,101,0640953,,,,,,,2023-07-26,1,,,,,エムズコーポレーション,0
256,1430003015257,新規,0,2023-07-26,2023-07-26,合同会社ＫＩ,,合同会社,北海道,札幌市北区,新琴似四条１１丁目２番１７号,,01,102,0010904,,,,,,,2023-07-26,1,,,,,ケイアイ,0
273,2010001237035,新規,0,2023-07-26,2023-07-26,株式会社ＭＩＺＵＨＩＫＩ,,株式会社,東京都,千代田区,霞が関３丁目６－１５,,13,101,1000013,,,,,,,2023-07-26,1,,,,,ミズヒキ,0
274,2010001237159,新規,0,2023-07-26,2023-07-26,株式会社Ｉｎｖｅｎｔｙ,,株式会社,東京都,千代田区,飯田橋２丁目１８－１－２６０６,,13,101,1020072,,,,,,,2023-07-26,1,,,,,インヴェンティ,0
275,2010001237175,新規,0,2023-07-26,2023-07-26,ＣＡＮＴＯＮ株式会社,,株式会社,東京都,千代田区,神田和泉町２－６今川ビル８Ｆ,,13,101,1010024,,,,,,,2023-07-26,1,,,,,キャントン,0
277,2010003041195,新規,0,2023-07-26,2023-07-26,３Ｅカンパニージャパン合同会社,,合同会社,東京都,千代田区,丸の内１丁目８番２号鉄鋼ビルディング４階,,13,101,1000005,,,,,,,2023-07-26,1,,,,,スリーイーカンパニージャパン,0
278,2010003041204,新規,0,2023-07-26,2023-07-26,合同会社ひかり投資,,合同会社,東京都,中央区,銀座１丁目１２番４号Ｎ＆ＥＢＬＤ．７階,,13,102,1040061,,,,,,,2023-07-26,1,,,,,ヒカリトウシ,0
288,2010405022363,新規,0,2023-07-26,2023-07-26,夕顔一般社団法人,,その他の設立登記法人,東京都,港区,西新橋１丁目１番１号ＥＰコンサルティングサービス内,,13,103,1050003,,,,,,,2023-07-26,1,,,,,ユウガオ,0
290,2010501050821,新規,0,2023-07-26,2023-07-26,株式会社うえの,,株式会社,東京都,台東区,東上野４丁目４番４号宝徳ビル３Ｆ,,13,106,1100015,,,,,,,2023-07-26,1,,,,,ウエノ,0
293,2010601063483,新規,0,2023-07-26,2023-07-26,株式会社スタイルワークス,,株式会社,東京都,江東区,新大橋２丁目１１番５号ＳＳＣビル１Ｆ,,13,108,1350007,,,,,,,2023-07-26,1,,,,,スタイルワークス,0
298,2010901053498,新規,0,2023-07-26,2023-07-26,株式会社Ａｓｓｉｓｔａｎｔ,,株式会社,東京都,世田谷区,上馬２丁目１０番９号メゾン上馬１０２,,13,112,1540011,,,,,,,2023-07-26,1,,,,,アシスタント,0
301,2011001155895,新規,0,2023-07-26,2023-07-26,株式会社アースホールディングス,,株式会社,東京都,渋谷区,東３丁目２０番４号,,13,113,1500011,,,,,,,2023-07-26,1,,,,,アースホールディングス,0
303,2011003017243,新規,0,2023-07-26,2023-07-26,ＭＥＭＥ合同会社,,合同会社,東京都,渋谷区,道玄坂１丁目１０番８号渋谷道玄坂東急ビル２Ｆ－Ｃ,,13,113,1500043,,,,,,,2023-07-26,1,,,,,ミーム,0
311,2011101103738,新規,0,2023-07-26,2023-07-26,株式会社Ｒマネジメント,,株式会社,東京都,新宿区,西新宿４丁目３１番３号永谷リヴュール新宿２１９,,13,104,1600023,,,,,,,2023-07-26,1,,,,,アールマネジメント,0
312,2011101103754,新規,0,2023-07-26,2023-07-26,株式会社エフアール,,株式会社,東京都,新宿区,西新宿３丁目３番１３号西新宿水間ビル６階,,13,104,1600023,,,,,,,2023-07-26,1,,,,,エフアール,0
315,2011103013290,新規,0,2023-07-26,2023-07-26,ＣＡＲＤＩＥ合同会社,,合同会社,東京都,新宿区,歌舞伎町２丁目１３番６号メトロプラザ１Ｂ１,,13,104,1600021,,,,,,,2023-07-26,1,,,,,カルディエ,0
326,2011703003542,新規,0,2023-07-26,2023-07-26,合同会社ラメール,,合同会社,東京都,江戸川区,南小岩８丁目１７番４号,,13,123,1330056,,,,,,,2023-07-26,1,,,,,ラメール,0
346,2020003024249,新規,0,2023-07-26,2023-07-26,合同会社ハシミエ,,合同会社,神奈川県,川崎市幸区,南幸町１丁目１７番地１０,,14,132,2120016,,,,,,,2023-07-26,1,,,,,ハシミエ,0
349,2020005016070,新規,0,2023-07-26,2023-07-26,一般社団法人ＢＬＰ‐Ｎｅｔｗｏｒｋ,,その他の設立登記法人,神奈川県,横浜市西区,浅間町１丁目４番３号ウィザードビル４０２,,14,103,2200072,,,,,,,2023-07-26,1,,,,,ビーエルピーネットワーク,0
359,2030001154939,新規,0,2023-07-26,2023-07-26,株式会社ｍａｍｏｒｅ,,株式会社,埼玉県,志木市,本町３丁目２番２６号,,11,228,3530004,,,,,,,2023-07-26,1,,,,,マモレ,0
360,2030001154947,新規,0,2023-07-26,2023-07-26,株式会社ＳＹコーポレーション,,株式会社,埼玉県,川口市,坂下町３丁目１２番６号ジョイフルコート１０２号,,11,203,3340003,,,,,,,2023-07-26,1,,,,,エスワイコーポレーション,0
362,2030003022177,新規,0,2023-07-26,2023-07-26,合同会社Ｈａｎｄ＆Ｅｙｅ,,合同会社,埼玉県,越谷市,千間台東３丁目１６番地３－１０１,,11,222,3430042,,,,,,,2023-07-26,1,,,,,ハンドアンドアイ,0
363,2030005021334,新規,0,2023-07-26,2023-07-26,一般社団法人シニアテラスユナイテッド,,その他の設立登記法人,埼玉県,さいたま市浦和区,仲町３丁目１２番６号,,11,107,3300062,,,,,,,2023-07-26,1,,,,,シニアテラスユナイテッド,0
373,2040005022075,新規,0,2023-07-26,2023-07-26,フローラ行政書士法人,,その他の設立登記法人,千葉県,市川市,欠真間１丁目３番６－１号舞浜第２ビル２０２号室,,12,203,2720142,,,,,,,2023-07-26,1,,,,,フローラ,0
379,2050003007655,新規,0,2023-07-26,2023-07-26,オートサービス合同会社,,合同会社,茨城県,猿島郡五霞町,大字元栗橋５０８７番地１２,,08,542,3060313,,,,,,,2023-07-26,1,,,,,オートサービス,0
381,2060001036184,新規,0,2023-07-26,2023-07-26,株式会社Ｋ．ｋｒｅｉｓ,,株式会社,栃木県,宇都宮市,みどり野町２番５号,,09,201,3210136,,,,,,,2023-07-26,1,,,,,ケークライス,0
411,2120001256528,新規,0,2023-07-26,2023-07-26,ＳｕｎＲｉｓｅ株式会社,,株式会社,大阪府,大阪市浪速区,元町２丁目７番２号池宗ビル,,27,111,5560016,,,,,,,2023-07-26,1,,,,,サンライズ,0
412,2120001256676,新規,0,2023-07-26,2023-07-26,株式会社コネクト,,株式会社,大阪府,大阪市東淀川区,南江口１丁目１番４１－７０２号,,27,114,5330003,,,,,,,2023-07-26,1,,,,,コネクト,0
413,2120001256750,新規,0,2023-07-26,2023-07-26,ＳＫＹ　ＰＲＯＤＵＣＴＩＯＮ株式会社,,株式会社,大阪府,大阪市中央区,南久宝寺町２丁目４番１０号勇拓ビル３Ｆ,,27,128,5410058,,,,,,,2023-07-26,1,,,,,スカイプロダクション,0
414,2120001256767,新規,0,2023-07-26,2023-07-26,株式会社高田工務店,,株式会社,大阪府,大阪市中央区,内久宝寺町４丁目４番１号ＭＳＣビル,,27,128,5400013,,,,,,,2023-07-26,1,,,,,タカダコウムテン,0
416,2120003024569,新規,0,2023-07-26,2023-07-26,サクセス合同会社,,合同会社,大阪府,大阪市天王寺区,堂ケ芝２丁目７番８号,,27,109,5430033,,,,,,,2023-07-26,1,,,,,サクセス,0
433,2140001130986,新規,0,2023-07-26,2023-07-26,株式会社横山商運,,株式会社,兵庫県,伊丹市,大野１丁目５９番地１６,,28,207,6640003,,,,,,,2023-07-26,1,,,,,ヨコヤマショウウン,0
434,2140001130994,新規,0,2023-07-26,2023-07-26,株式会社さな亭,,株式会社,兵庫県,神戸市垂水区,舞子台２丁目５－３２舞子公園パークハイム５０５,,28,108,6550046,,,,,,,2023-07-26,1,,,,,サナテイ,0
435,2140001131002,新規,0,2023-07-26,2023-07-26,ＫＰＳ株式会社,,株式会社,兵庫県,尼崎市,東難波町５丁目８番２６号リアライズ尼崎６Ｄ号室,,28,202,6600892,,,,,,,2023-07-26,1,,,,,ケーピーエス,0
436,2140001131010,新規,0,2023-07-26,2023-07-26,株式会社Ｉｍａｇｉｎｅ,,株式会社,兵庫県,神戸市灘区,烏帽子町３丁目２番８号,,28,102,6570042,,,,,,,2023-07-26,1,,,,,イマジン,0
442,2180001157266,新規,0,2023-07-26,2023-07-26,株式会社Ｓ＆Ｄ,,株式会社,愛知県,尾張旭市,長坂町南山２９３９番地３１,,23,226,4880821,,,,,,,2023-07-26,1,,,,,エスアンドディー,0
443,2180001157282,新規,0,2023-07-26,2023-07-26,株式会社トミヤ,,株式会社,愛知県,名古屋市中区,丸の内３丁目２０番５号オアシス日向９０５号室,,23,106,4600002,,,,,,,2023-07-26,1,,,,,トミヤ,0
444,2180001157290,新規,0,2023-07-26,2023-07-26,株式会社Ｄｏｐｅｓ,,株式会社,愛知県,名古屋市中区,大須１丁目１５番３６号,,23,106,4600011,,,,,,,2023-07-26,1,,,,,ドープス,0
457,2200001041509,新規,0,2023-07-26,2023-07-26,株式会社ＡＢＡＳ,,株式会社,岐阜県,多治見市,赤坂町２丁目６２番地の５,,21,204,5070057,,,,,,,2023-07-26,1,,,,,エバス,0
462,2240001061858,新規,0,2023-07-26,2023-07-26,株式会社ジーエム,,株式会社,広島県,広島市安佐南区,長束６丁目９番２６－８０５号,,34,105,7310135,,,,,,,2023-07-26,1,,,,,ジーエム,0
464,2240003006233,新規,0,2023-07-26,2023-07-26,ＡＮＳＩＮＭＡＬ合同会社,,合同会社,広島県,広島市中区,宝町５－９ファイブ２００４号,,34,101,7300044,,,,,,,2023-07-26,1,,,,,,0
471,2290001102401,新規,0,2023-07-26,2023-07-26,日本冷熱サイフォン販売株式会社,,株式会社,福岡県,久留米市,合川町１７７２番地１,,40,203,8390861,,,,,,,2023-07-26,1,,,,,ニホンレイネツサイフォンハンバイ,0
473,2290003014165,新規,0,2023-07-26,2023-07-26,ＥＨＷＳ　Ｉｎｔｅｒｎａｔｉｏｎａｌ合同会社,,合同会社,福岡県,福岡市中央区,大名１丁目３番７号,,40,133,8100041,,,,,,,2023-07-26,1,,,,,イーエイチダブリューエスインターナショナル,0
478,2310001018529,新規,0,2023-07-26,2023-07-26,株式会社蒼真,,株式会社,長崎県,長崎市,中里町２５２０番地,,42,201,8510103,,,,,,,2023-07-26,1,,,,,ソウシン,0
482,2320001019906,新規,0,2023-07-26,2023-07-26,株式会社星幸,,株式会社,大分県,別府市,大字別府３２１８番地の２東成山の手ビル３０５号,,44,202,8740000,,,,,,,2023-07-26,1,,,,,セイコウ,0
490,2360001032228,新規,0,2023-07-26,2023-07-26,株式会社ＮＴＲＡＮＳ．,,株式会社,沖縄県,那覇市,天久１丁目１１番５号ユイマールセンター銘苅１０２号,,47,201,9000005,,,,,,,2023-07-26,1,,,,,エントランス,0
491,2360001032335,新規,0,2023-07-26,2023-07-26,ＴＨＥ　ＭＩＹＡＫＯ　ＦＡＲＭ株式会社,,株式会社,沖縄県,宮古島市,下地字上地４７２番３９,,47,214,9060304,,,,,,,2023-07-26,1,,,,,ザミヤコファーム,0
504,2390001017325,新規,0,2023-07-26,2023-07-26,株式会社芳賀青果,,株式会社,山形県,寒河江市,大字柴橋字山田６６０番地１,,06,206,9910063,,,,,,,2023-07-26,1,,,,,ハガセイカ,0
507,2410003003824,新規,0,2023-07-26,2023-07-26,合同会社１９６７,,合同会社,秋田県,秋田市,手形字西谷地４０－３スープカレーガネーシャ２階,,05,201,0100851,,,,,,,2023-07-26,1,,,,,,0
509,2430001089491,新規,0,2023-07-26,2023-07-26,株式会社山田塗装工業,,株式会社,北海道,室蘭市,日の出町２丁目８番１８号,,01,205,0500081,,,,,,,2023-07-26,1,,,,,ヤマダトソウコウギョウ,0
510,2430001089517,新規,0,2023-07-26,2023-07-26,株式会社Ｋａｉｔｏ,,株式会社,北海道,小樽市,幸２丁目１１番１６号,,01,203,0470037,,,,,,,2023-07-26,1,,,,,カイト,0
521,2490001010542,新規,0,2023-07-26,2023-07-26,株式会社ＫＯ‐ＨＯｕｓＥ,,株式会社,高知県,南国市,大＿甲２３７０番地５,00131280,39,204,7830004,,,,,,,2023-07-26,1,,,,,コーハウス,0
532,3010001237174,新規,0,2023-07-26,2023-07-26,株式会社みどり草木湖リゾート,,株式会社,東京都,千代田区,丸の内２丁目７番２号,,13,101,1000005,,,,,,,2023-07-26,1,,,,,ミドリクサキコリゾート,0
533,3010001237199,新規,0,2023-07-26,2023-07-26,Ｕｎｉｖｅｒｓａｌ　Ｐｒｉｖａｔｅ　Ｓｔｕｄｉｏ株式会社,,株式会社,東京都,中央区,銀座１丁目２２番１１号銀座大竹ビジデンス２Ｆ,,13,102,1040061,,,,,,,2023-07-26,1,,,,,ユニバーサルプライベートスタジオ,0
534,3010003041194,新規,0,2023-07-26,2023-07-26,合同会社Ｕｍ,,合同会社,東京都,中央区,日本橋人形町３丁目１２番７号,,13,102,1030013,,,,,,,2023-07-26,1,,,,,ウム,0
535,3010003041203,新規,0,2023-07-26,2023-07-26,合同会社高知南国バイオマス発電所,,合同会社,東京都,中央区,銀座１丁目２２番１１号銀座大竹ビジデンス２階,,13,102,1040061,,,,,,,2023-07-26,1,,,,,コウチナンコクバイオマスハツデンショ,0
547,3010401175916,新規,0,2023-07-26,2023-07-26,株式会社日本健康生活,,株式会社,東京都,港区,新橋５丁目２４番８号,,13,103,1050004,,,,,,,2023-07-26,1,,,,,ニホンケンコウセイカツ,0
548,3010401175924,新規,0,2023-07-26,2023-07-26,株式会社プレザール,,株式会社,東京都,港区,愛宕１丁目１番１－１２１２号,,13,103,1050002,,,,,,,2023-07-26,1,,,,,プレザール,0
549,3010401175949,新規,0,2023-07-26,2023-07-26,株式会社コモン,,株式会社,東京都,港区,港南４丁目２番７号,,13,103,1080075,,,,,,,2023-07-26,1,,,,,コモン,0
554,3010405022305,新規,0,2023-07-26,2023-07-26,ＨＳＪＰＮ５特定目的会社,,その他の設立登記法人,東京都,港区,虎ノ門３丁目２２番１０－２０１号,,13,103,1050001,,,,,,,2023-07-26,1,,,,,エイチエスジェイピーエヌファイブ,0
556,3010601063482,新規,0,2023-07-26,2023-07-26,株式会社ミソラ,,株式会社,東京都,江東区,新大橋２丁目１１番５号ＳＳＣビル１Ｆ,,13,108,1350007,,,,,,,2023-07-26,1,,,,,ミソラ,0
564,3010803004615,新規,0,2023-07-26,2023-07-26,合同会社ＲＹＯＭＥＩ,,合同会社,東京都,大田区,山王２丁目５－６ＢＲＩＤＧＥ,,13,111,1430023,,,,,,,2023-07-26,1,,,,,リョウメイ,0
567,3010901053489,新規,0,2023-07-26,2023-07-26,ＣＲＯＷＮ　ＥＮＥＲＧＹ株式会社,,株式会社,東京都,世田谷区,千歳台３丁目９番１０号,,13,112,1570071,,,,,,,2023-07-26,1,,,,,クラウンエネルギー,0
568,3010901053506,新規,0,2023-07-26,2023-07-26,株式会社ナクセル,,株式会社,東京都,世田谷区,下馬６丁目２１番１号ラ・ジョリーメゾン２０１号室,,13,112,1540002,,,,,,,2023-07-26,1,,,,,ナクセル,0
575,3011001155837,新規,0,2023-07-26,2023-07-26,株式会社エンゲージメントゲートウェイ,,株式会社,東京都,渋谷区,恵比寿南３丁目５番７号,,13,113,1500022,,,,,,,2023-07-26,1,,,,,エンゲージメントゲートウェイ,0
576,3011003017234,新規,0,2023-07-26,2023-07-26,合同会社スリーエス不動産,,合同会社,東京都,目黒区,目黒本町２丁目３番１３号,,13,110,1520002,,,,,,,2023-07-26,1,,,,,スリーエスフドウサン,0
577,3011003017250,新規,0,2023-07-26,2023-07-26,合同会社ｓｏ　ｌｕｃｋｙ,,合同会社,東京都,渋谷区,代々木１丁目１０－７島村ビル２階,,13,113,1510053,,,,,,,2023-07-26,1,,,,,ソウラッキー,0
581,3011101103737,新規,0,2023-07-26,2023-07-26,ＮＡＺＯＲＩ株式会社,,株式会社,東京都,新宿区,西新宿３丁目３番１３号西新宿水間ビル２Ｆ,,13,104,1600023,,,,,,,2023-07-26,1,,,,,ナゾリ,0
582,3011103013298,新規,0,2023-07-26,2023-07-26,合同会社ＧＪ,,合同会社,東京都,新宿区,四谷４丁目２４コンシェリア新宿御苑１２０１,,13,104,1600004,,,,,,,2023-07-26,1,,,,,ジージェイ,0
586,3011301028858,新規,0,2023-07-26,2023-07-26,株式会社アイホールディングス,,株式会社,東京都,杉並区,和泉４丁目４２番２号,,13,115,1680063,,,,,,,2023-07-26,1,,,,,,0
588,3011401025301,新規,0,2023-07-26,2023-07-26,株式会社ＭＩＭＹＯ,,株式会社,東京都,板橋区,赤塚２丁目１６番１号,,13,119,1750092,,,,,,,2023-07-26,1,,,,,ミミョ,0
596,3011801042771,新規,0,2023-07-26,2023-07-26,サクセスクリエイト株式会社,,株式会社,東京都,足立区,千住旭町１９番地９号,,13,121,1200026,,,,,,,2023-07-26,1,,,,,サクセスクリエイト,0
599,3012401040777,新規,0,2023-07-26,2023-07-26,株式会社ＬＯＧＩＮ,,株式会社,東京都,小金井市,梶野町１丁目２番３６号,,13,210,1840002,,,,,,,2023-07-26,1,,,,,ログイン,0
602,3012701017756,新規,0,2023-07-26,2023-07-26,株式会社守谷解体,,株式会社,東京都,東村山市,久米川町１丁目４５番地８,,13,213,1890003,,,,,,,2023-07-26,1,,,,,モリヤカイタイ,0
603,3012703002764,新規,0,2023-07-26,2023-07-26,Ｋコンサルティング合同会社,,合同会社,東京都,西東京市,栄町１丁目１４番２０号,,13,229,2020006,,,,,,,2023-07-26,1,,,,,ケイコンサルティング,0
626,3030001154946,新規,0,2023-07-26,2023-07-26,株式会社オーズィー・グローバル,,株式会社,埼玉県,久喜市,吉羽３丁目２５番地２４,,11,232,3460014,,,,,,,2023-07-26,1,,,,,オーズィーグローバル,0
627,3030001155036,新規,0,2023-07-26,2023-07-26,株式会社景観技術研究所,,株式会社,埼玉県,大里郡寄居町,大字末野２２６９番地,,11,408,3691205,,,,,,,2023-07-26,1,,,,,ケイカンギジュツケンキュウジョ,0
634,3030003022151,新規,0,2023-07-26,2023-07-26,アクア・プーラ合同会社,,合同会社,埼玉県,吉川市,大字木売新田３０番地４,,11,243,3420044,,,,,,,2023-07-26,1,,,,,アクアプーラ,0
640,3040001129393,新規,0,2023-07-26,2023-07-26,株式会社ＪＭ,,株式会社,千葉県,千葉市若葉区,桜木北２丁目１２番７号,,12,104,2640029,,,,,,,2023-07-26,1,,,,,ジェイエム,0
642,3040003023017,新規,0,2023-07-26,2023-07-26,ＴＡＮＡＫＡ＆カンパニー合同会社,,合同会社,千葉県,佐倉市,八幡台３丁目５番５号,,12,212,2850867,,,,,,,2023-07-26,1,,,,,タナカアンドカンパニー,0
645,3050001053196,新規,0,2023-07-26,2023-07-26,株式会社アメリス,,株式会社,茨城県,常総市,水海道森下町３９５０番地１,,08,211,3030005,,,,,,,2023-07-26,1,,,,,アメリス,0
646,3050001053205,新規,0,2023-07-26,2023-07-26,株式会社いろどりファーマ,,株式会社,茨城県,つくば市,学園の森２丁目１３番地１３５,,08,220,3050816,,,,,,,2023-07-26,1,,,,,イロドリファーマ,0
647,3050003007670,新規,0,2023-07-26,2023-07-26,ＡＴＳ　Ｇｒｏｕｐｏｎ合同会社,,合同会社,茨城県,つくば市,安食字新白水２５３０－１４,,08,220,3004205,,,,,,,2023-07-26,1,,,,,エーティーエスグルーポン,0
655,3090003002346,新規,0,2023-07-26,2023-07-26,合同会社ＥＭＴ,,合同会社,山梨県,甲府市,東光寺町２０４８－１０,,19,201,4000808,,,,,,,2023-07-26,1,,,,,イーエムティー,0
659,3100001036625,新規,0,2023-07-26,2023-07-26,株式会社エムズプランニング,,株式会社,長野県,塩尻市,大字金井８１２,,20,215,3990721,,,,,,,2023-07-26,1,,,,,エムズプランニング,0
669,3110005016977,新規,0,2023-07-26,2023-07-26,一般社団法人藻類原油機構,,その他の設立登記法人,新潟県,新潟市中央区,京王１丁目１番３号,,15,103,9500921,,,,,,,2023-07-26,1,,,,,ソウルイゲンユキコウ,0
677,3120001256675,新規,0,2023-07-26,2023-07-26,マオ株式会社,,株式会社,大阪府,大阪市中央区,南船場１丁目１０番１２号,,27,128,5420081,,,,,,,2023-07-26,1,,,,,マオ,0
678,3120001256758,新規,0,2023-07-26,2023-07-26,株式会社萬洲,,株式会社,大阪府,大阪市中央区,南船場１丁目３番９号,,27,128,5420081,,,,,,,2023-07-26,1,,,,,バンシュウ,0
679,3120001256766,新規,0,2023-07-26,2023-07-26,ｂｒａｃｋｅｔ株式会社,,株式会社,大阪府,大阪市北区,西天満１丁目２－５ＪＡビル１４階,,27,127,5300047,,,,,,,2023-07-26,1,,,,,ブラケット,0
680,3120001256774,新規,0,2023-07-26,2023-07-26,株式会社ＲＩＳＥ,,株式会社,大阪府,枚方市,堂山１丁目４３番１３号,,27,210,5730007,,,,,,,2023-07-26,1,,,,,ライズ,0
681,3120001256799,新規,0,2023-07-26,2023-07-26,株式会社ＯＬＳＯ,,株式会社,大阪府,大阪市北区,梅田１丁目２番２号大阪駅前第２ビル１２－１２,,27,127,5300001,,,,,,,2023-07-26,1,,,,,オルソ,0
682,3120001256816,新規,0,2023-07-26,2023-07-26,株式会社ノーブルデザイン,,株式会社,大阪府,枚方市,川原町７番３０号第５浜田ビル２０３,,27,210,5730028,,,,,,,2023-07-26,1,,,,,ノーブルデザイン,0
685,3120003024568,新規,0,2023-07-26,2023-07-26,合同会社ＬＵＣＡ,,合同会社,大阪府,大阪市天王寺区,上汐３丁目２－１６－４０３,,27,109,5430002,,,,,,,2023-07-26,1,,,,,ルカ,0
686,3120003024576,新規,0,2023-07-26,2023-07-26,合同会社ＭＤ　Ｇｒｏｕｐ,,合同会社,大阪府,大阪市西成区,太子１丁目１３－１太子ハイツ２０２号,,27,122,5570002,,,,,,,2023-07-26,1,,,,,エムディーグループ,0
690,3120103005344,新規,0,2023-07-26,2023-07-26,合同会社ココプラス,,合同会社,大阪府,和泉市,府中町６丁目１４番３２－４２３号,,27,219,5940071,,,,,,,2023-07-26,1,,,,,ココプラス,0
702,3140001130993,新規,0,2023-07-26,2023-07-26,株式会社ツバキ建設,,株式会社,兵庫県,姫路市,豊富町豊富２７２６番地１,,28,201,6792123,,,,,,,2023-07-26,1,,,,,ツバキケンセツ,0
706,3150005009498,新規,0,2023-07-26,2023-07-26,特定非営利活動法人シャイン・フォー・ユー,,その他の設立登記法人,奈良県,香芝市,鎌田６１７番地１０,,29,210,6390227,,,,,,,2023-07-26,1,,,,,シャインフォーユー,0
707,3160003002941,新規,0,2023-07-26,2023-07-26,ｈ．ｍ’ｓ合同会社,,合同会社,滋賀県,草津市,若草１丁目７番地４,,25,206,5250045,,,,,,,2023-07-26,1,,,,,エイチエムズ,0
714,3180001157265,新規,0,2023-07-26,2023-07-26,株式会社ＦＵＫＵＴＥＣ,,株式会社,愛知県,知多郡東浦町,大字緒川字中米田１番地の１５,,23,442,4702102,,,,,,,2023-07-26,1,,,,,フクテック,0
715,3180001157281,新規,0,2023-07-26,2023-07-26,株式会社Ｎｕｔｓ,,株式会社,愛知県,名古屋市西区,菊井１丁目１９番２３号プレスティ則武１００１号,,23,104,4510044,,,,,,,2023-07-26,1,,,,,ナッツ,0
716,3180001157307,新規,0,2023-07-26,2023-07-26,株式会社ＴＹＯ,,株式会社,愛知県,北名古屋市,九之坪天下地１５８番地,,23,234,4810041,,,,,,,2023-07-26,1,,,,,ティーワイオー,0
717,3180001157315,新規,0,2023-07-26,2023-07-26,株式会社宮大,,株式会社,愛知県,名古屋市南区,三吉町３丁目１４番地マンション丸由Ｄ－１号,,23,112,4570805,,,,,,,2023-07-26,1,,,,,ミヤダイ,0
733,3240001061849,新規,0,2023-07-26,2023-07-26,株式会社人崎,00131278,株式会社,広島県,呉市,上畑町２４番９号,,34,202,7370071,,,,,,,2023-07-26,1,,,,,ヒトサキ,0
736,3260001038143,新規,0,2023-07-26,2023-07-26,岡山環境アスベスト調査株式会社,,株式会社,岡山県,岡山市北区,天瀬南町７番１号,,33,101,7000834,,,,,,,2023-07-26,1,,,,,オカヤマカンキョウアスベストチョウサ,0
746,3290803004447,新規,0,2023-07-26,2023-07-26,合同会社ＳｕｎＥｉｇｈｔ,,合同会社,福岡県,北九州市八幡西区,三ケ森４丁目１０－２０三ケ森ショッピングタウン２Ｆ,,40,109,8070843,,,,,,,2023-07-26,1,,,,,サンエイト,0
754,3330001031090,新規,0,2023-07-26,2023-07-26,フゲンオウ株式会社,,株式会社,熊本県,熊本市中央区,神水２丁目２番２０号Ｍビル４Ｆ,,43,101,8620954,,,,,,,2023-07-26,1,,,,,フゲンオウ,0
757,3350001018466,新規,0,2023-07-26,2023-07-26,南洋アグリ株式会社,,株式会社,宮崎県,西都市,妻町２丁目６６番１号,,45,208,8810034,,,,,,,2023-07-26,1,,,,,ナンヨウアグリ,0
758,3360001032227,新規,0,2023-07-26,2023-07-26,株式会社ＳｕｓｔａｉｎａＢＡＳＥ,,株式会社,沖縄県,浦添市,城間４丁目８番５－４０１号メゾンＫ,,47,208,9012133,,,,,,,2023-07-26,1,,,,,サスティナベース,0
759,3360001032326,新規,0,2023-07-26,2023-07-26,国際健康製薬株式会社,,株式会社,沖縄県,那覇市,牧志２丁目１７番２７号,,47,201,9000013,,,,,,,2023-07-26,1,,,,,コクサイケンコウセイヤク,0
760,3360001032334,新規,0,2023-07-26,2023-07-26,株式会社下中テック,,株式会社,沖縄県,宮古島市,平良字東仲宗根９０４番地１,,47,214,9060007,,,,,,,2023-07-26,1,,,,,シモナカテック,0
763,3360005006879,新規,0,2023-07-26,2023-07-26,一般社団法人Ｓｈｉｅｎ,,その他の設立登記法人,沖縄県,中頭郡読谷村,字宇座１８６１,,47,324,9040328,,,,,,,2023-07-26,1,,,,,シエン,0
780,3420005007862,新規,0,2023-07-26,2023-07-26,一般社団法人弘前学院後援会,,その他の設立登記法人,青森県,弘前市,大字稔町１３番地１,,02,202,0368231,,,,,,,2023-07-26,1,,,,,ヒロサキガクインコウエンカイ,0
786,3430001089474,新規,0,2023-07-26,2023-07-26,株式会社ＴＥＲＲＡＣＯ,,株式会社,北海道,札幌市中央区,北六条西２６丁目３番５号,,01,101,0640826,,,,,,,2023-07-26,1,,,,,テラコ,0
787,3430001089490,新規,0,2023-07-26,2023-07-26,株式会社Ｆｏｌｋｌｏｒｅ,,株式会社,北海道,札幌市豊平区,豊平五条２丁目５番２号,,01,105,0620905,,,,,,,2023-07-26,1,,,,,フォルクローレ,0
788,3430001089508,新規,0,2023-07-26,2023-07-26,株式会社グーファス,,株式会社,北海道,札幌市北区,新川二条１丁目２番５－３０３号,,01,102,0010922,,,,,,,2023-07-26,1,,,,,グーファス,0
789,3430001089532,新規,0,2023-07-26,2023-07-26,株式会社ＮＩＫＡＩＤＯ,,株式会社,北海道,札幌市南区,石山東５丁目９番３号,,01,106,0050850,,,,,,,2023-07-26,1,,,,,ニカイドウ,0
792,3430003015255,新規,0,2023-07-26,2023-07-26,合同会社ＺＯＷＥ,,合同会社,北海道,札幌市西区,西野六条３丁目９番１０号,,01,107,0630036,,,,,,,2023-07-26,1,,,,,ゾーイ,0
803,4010001237173,新規,0,2023-07-26,2023-07-26,株式会社かぜ,,株式会社,東京都,中央区,銀座６丁目１０番１号,,13,102,1040061,,,,,,,2023-07-26,1,,,,,カゼ,0
805,4010003041193,新規,0,2023-07-26,2023-07-26,合同会社ＮＩＭＳＵＳ,,合同会社,東京都,千代田区,二番町１番地番町ハイム１０１１号,,13,101,1020084,,,,,,,2023-07-26,1,,,,,ニムサス,0
813,4010401175898,新規,0,2023-07-26,2023-07-26,シングレス株式会社,,株式会社,東京都,港区,六本木１丁目６番１号,,13,103,1060032,,,,,,,2023-07-26,1,,,,,シングレス,0
814,4010401175907,新規,0,2023-07-26,2023-07-26,ユーティリティジャパン株式会社,,株式会社,東京都,港区,芝浦２丁目１４－１８サカイビル５Ｆ,,13,103,1080023,,,,,,,2023-07-26,1,,,,,ユーティリティジャパン,0
815,4010401175915,新規,0,2023-07-26,2023-07-26,株式会社ダイレクトプライマリーケア,,株式会社,東京都,港区,台場２丁目６番１号,,13,103,1350091,,,,,,,2023-07-26,1,,,,,ダイレクトプライマリーケア,0
818,4010403030449,新規,0,2023-07-26,2023-07-26,合同会社しおり,,合同会社,東京都,港区,芝５丁目３６番４号札の辻スクエア９階,,13,103,1080014,,,,,,,2023-07-26,1,,,,,シオリ,0
824,4010701044613,新規,0,2023-07-26,2023-07-26,株式会社モデュレーション,,株式会社,東京都,品川区,東五反田１丁目８番１０－９０３号,,13,109,1410022,,,,,,,2023-07-26,1,,,,,モデュレーション,0
836,4011001155828,新規,0,2023-07-26,2023-07-26,株式会社ランディック,,株式会社,東京都,渋谷区,渋谷２丁目１９－１５宮益坂ビルディング６０９,,13,113,1500002,,,,,,,2023-07-26,1,,,,,ランディック,0
837,4011001155919,新規,0,2023-07-26,2023-07-26,株式会社テクネタックス,,株式会社,東京都,渋谷区,神宮前６丁目３５番３号コープオリンピア６１０,,13,113,1500001,,,,,,,2023-07-26,1,,,,,テクネタックス,0
839,4011101103711,新規,0,2023-07-26,2023-07-26,話せるメディカル株式会社,,株式会社,東京都,新宿区,西新宿７丁目２２番３４号東海ビル３０２,,13,104,1600023,,,,,,,2023-07-26,1,,,,,ハナセルメディカル,0
840,4011101103736,新規,0,2023-07-26,2023-07-26,株式会社ＡＬＬｉＥＬ,,株式会社,東京都,新宿区,西新宿３丁目３番１３号西新宿水間ビル２Ｆ,,13,104,1600023,,,,,,,2023-07-26,1,,,,,オーリエル,0
841,4011101103744,新規,0,2023-07-26,2023-07-26,株式会社ファンクリバー,,株式会社,東京都,新宿区,舟町８番地１４,,13,104,1600006,,,,,,,2023-07-26,1,,,,,ファンクリバー,0
844,4011103013289,新規,0,2023-07-26,2023-07-26,ノースビレッジ・パートナーズ合同会社,,合同会社,東京都,新宿区,西新宿３丁目９－７フロンティア新宿タワー,,13,104,1600023,,,,,,,2023-07-26,1,,,,,ノースビレッジパートナーズ,0
845,4011103013297,新規,0,2023-07-26,2023-07-26,ＫＭＴ合同会社,,合同会社,東京都,新宿区,下落合１丁目８番１４－６０５号,,13,104,1610033,,,,,,,2023-07-26,1,,,,,ケーエムティー,0
849,4011303004848,新規,0,2023-07-26,2023-07-26,Ｓ＆Ｓ合同会社,,合同会社,東京都,杉並区,下高井戸３丁目２１番６号ｍｆ．,,13,115,1680073,,,,,,,2023-07-26,1,,,,,エスアンドエス,0
855,4011701026452,新規,0,2023-07-26,2023-07-26,株式会社暁,,株式会社,東京都,江戸川区,中央３丁目２２番７号橋本金属２１,,13,123,1320021,,,,,,,2023-07-26,1,,,,,アカツキ,0
858,4011803005750,新規,0,2023-07-26,2023-07-26,合同会社ビットクリーン,,合同会社,東京都,足立区,梅島３丁目１２－１４,,13,121,1210816,,,,,,,2023-07-26,1,,,,,ビットクリーン,0
867,4013103001249,新規,0,2023-07-26,2023-07-26,Ｆｉｎａｎｃｅ　Ｐｌａｎ合同会社,,合同会社,東京都,西多摩郡日の出町,大字平井２１９５－３７,,13,305,1900182,,,,,,,2023-07-26,1,,,,,,0
876,4020001152603,新規,0,2023-07-26,2023-07-26,ＭＨＡ株式会社,,株式会社,神奈川県,横浜市磯子区,氷取沢町１５０－４－３－５０４,,14,107,2350043,,,,,,,2023-07-26,1,,,,,エムエイチエー,0
886,4021001079704,新規,0,2023-07-26,2023-07-26,新日和株式会社,,株式会社,神奈川県,秦野市,南矢名２丁目２５番５号,,14,211,2570003,,,,,,,2023-07-26,1,,,,,シンニチワ,0
898,4030003022150,新規,0,2023-07-26,2023-07-26,おーどぶる合同会社,,合同会社,埼玉県,富士見市,鶴馬１丁目２５番地１３,,11,235,3540021,,,,,,,2023-07-26,1,,,,,オードブル,0
899,4030003022183,新規,0,2023-07-26,2023-07-26,合同会社ジーエムケー,,合同会社,埼玉県,さいたま市見沼区,大字片柳１２２２番地４,,11,104,3370024,,,,,,,2023-07-26,1,,,,,ジーエムケー,0
906,4040001129401,新規,0,2023-07-26,2023-07-26,エムジェイベース株式会社,,株式会社,千葉県,船橋市,松が丘４丁目４０番６－２号,,12,204,2740064,,,,,,,2023-07-26,1,,,,,エムジェイベース,0
912,4040005022073,新規,0,2023-07-26,2023-07-26,特定非営利活動法人清水の里,,その他の設立登記法人,千葉県,旭市,米込２１５６番地,,12,215,2890516,,,,,,,2023-07-26,1,,,,,シミズノサト,0
922,4050001053204,新規,0,2023-07-26,2023-07-26,株式会社ＴＲＵＳＴ‐Ｆ,,株式会社,茨城県,神栖市,平泉９０３番地２１０,,08,232,3140146,,,,,,,2023-07-26,1,,,,,トラストエフ,0
925,4050003007661,新規,0,2023-07-26,2023-07-26,合同会社とむの木,,合同会社,茨城県,つくば市,森の里８７番地４,,08,220,3001256,,,,,,,2023-07-26,1,,,,,トムノキ,0
928,4080101024135,新規,0,2023-07-26,2023-07-26,株式会社渡邊工業,,株式会社,静岡県,沼津市,原６９３番地の１一里山コーポ２０３号,,22,203,4100312,,,,,,,2023-07-26,1,,,,,ワタナベコウギョウ,0
939,4120001256567,新規,0,2023-07-26,2023-07-26,株式会社Ｔｗｉｃｅ　Ｕｐ,,株式会社,大阪府,大阪市中央区,平野町１丁目３－２コイケビルディング１階,,27,128,5410046,,,,,,,2023-07-26,1,,,,,トゥワイスアップ,0
940,4120001256708,新規,0,2023-07-26,2023-07-26,株式会社ＭＲＣ,,株式会社,大阪府,大阪市北区,万歳町３番３９－１０１０号,,27,127,5300028,,,,,,,2023-07-26,1,,,,,エムアールシー,0
941,4120001256732,新規,0,2023-07-26,2023-07-26,株式会社錦,,株式会社,大阪府,大阪市生野区,巽西４丁目８番７号,00131277,27,116,5440012,,,,,,,2023-07-26,1,,,,,ニシキ,0
942,4120001256765,新規,0,2023-07-26,2023-07-26,株式会社スマート,,株式会社,大阪府,大阪市都島区,毛馬町１丁目２０番２０号,,27,102,5340001,,,,,,,2023-07-26,1,,,,,スマート,0
943,4120003024575,新規,0,2023-07-26,2023-07-26,合同会社ジュエリースタジオＭＡＫＡＮＡＥ,,合同会社,大阪府,大阪市中央区,博労町３丁目１番８－２０４号,,27,128,5410059,,,,,,,2023-07-26,1,,,,,ジュエリースタジオマカナエ,0
944,4120003024583,新規,0,2023-07-26,2023-07-26,合同会社ｍｏｏｏｎ,,合同会社,大阪府,大阪市中央区,高津３丁目８－３０伊勢屋ビル２０２号室,,27,128,5420072,,,,,,,2023-07-26,1,,,,,ムーン,0
947,4120901047834,新規,0,2023-07-26,2023-07-26,株式会社キャンプベニー,,株式会社,大阪府,吹田市,千里山東２丁目１番４号,,27,205,5650842,,,,,,,2023-07-26,1,,,,,キャンプベニー,0
960,4140001130992,新規,0,2023-07-26,2023-07-26,Ｔｈｒｅｅ‐Ｐｉｅｃｅ株式会社,,株式会社,兵庫県,加古川市,上荘町都染６８８番地１,,28,210,6751216,,,,,,,2023-07-26,1,,,,,スリーピース,0
961,4140001131000,新規,0,2023-07-26,2023-07-26,株式会社神戸ヒラタ,,株式会社,兵庫県,川西市,清和台西４丁目４－１３２,,28,217,6660143,,,,,,,2023-07-26,1,,,,,コウベヒラタ,0
968,4160003002940,新規,0,2023-07-26,2023-07-26,輝屋合同会社,,合同会社,滋賀県,彦根市,中藪町７２５－２コーポ里２０２,,25,202,5220051,,,,,,,2023-07-26,1,,,,,カガヤキヤ,0
974,4180001157256,新規,0,2023-07-26,2023-07-26,株式会社ビジュ,,株式会社,愛知県,名古屋市名東区,勢子坊４丁目１０７番地,,23,115,4650055,,,,,,,2023-07-26,1,,,,,ビジュ,0
975,4180001157280,新規,0,2023-07-26,2023-07-26,株式会社ｋｉｍｉｈａｎａ,,株式会社,愛知県,名古屋市名東区,梅森坂３丁目５１０７番地,,23,115,4650065,,,,,,,2023-07-26,1,,,,,キミハナ,0
978,4180003025527,新規,0,2023-07-26,2023-07-26,ＳＫ合同会社,,合同会社,愛知県,日進市,藤島町長塚７５番地９４１,,23,230,4700102,,,,,,,2023-07-26,1,,,,,エスケー,0
982,4200001041531,新規,0,2023-07-26,2023-07-26,株式会社神谷,,株式会社,岐阜県,大垣市,和合本町１丁目５６３番地,,21,202,5030005,,,,,,,2023-07-26,1,,,,,カミヤ,0
988,4220001025516,新規,0,2023-07-26,2023-07-26,株式会社Ｂａｓｅ北陸,,株式会社,石川県,金沢市,東蚊爪町１丁目１０番地,,17,201,9200209,,,,,,,2023-07-26,1,,,,,ベースホクリク,0
992,4240001061856,新規,0,2023-07-26,2023-07-26,株式会社Ｍ＆Ｍ,,株式会社,広島県,廿日市市,対厳山２丁目１５番１６号,,34,213,7390402,,,,,,,2023-07-26,1,,,,,エムアンドアム,0
995,4250001020191,新規,0,2023-07-26,2023-07-26,株式会社衣会,,株式会社,山口県,下関市,長府中浜町２番１０号,,35,201,7520975,,,,,,,2023-07-26,1,,,,,コロモカイ,0
1001,4260001038142,新規,0,2023-07-26,2023-07-26,後英株式会社,,株式会社,岡山県,岡山市北区,表町１丁目９番６５号銅前ビル,,33,101,7000822,,,,,,,2023-07-26,1,,,,,コウエイ,0
1004,4280001009001,新規,0,2023-07-26,2023-07-26,グリーンキャピタル・マネジメント株式会社,,株式会社,島根県,松江市,大正町３番地２,,32,201,6900002,,,,,,,2023-07-26,1,,,,,グリーンキャピタルマネジメント,0
1014,4290001102399,新規,0,2023-07-26,2023-07-26,グリーンフォレスト富士株式会社,,株式会社,福岡県,糸島市,篠原西３丁目１１番３７号,,40,230,8191129,,,,,,,2023-07-26,1,,,,,グリーンフォレストフジ,0
1018,4300001013388,新規,0,2023-07-26,2023-07-26,株式会社Ｙｕｋｉ　ＨＯＭＥ’Ｓ,,株式会社,佐賀県,佐賀市,高木瀬町大字長瀬１８２５番地５,,41,201,8490917,,,,,,,2023-07-26,1,,,,,ユキホームズ,0
1034,4350001018465,新規,0,2023-07-26,2023-07-26,株式会社ＡＯＮＡＭＩ,,株式会社,宮崎県,宮崎市,大字恒久６７４４番地６,,45,201,8800916,,,,,,,2023-07-26,1,,,,,アオナミ,0
1035,4350003004397,新規,0,2023-07-26,2023-07-26,次のＮ合同会社,,合同会社,宮崎県,日向市,船場町１番地１３,,45,206,8830065,,,,,,,2023-07-26,1,,,,,ツギノエヌ,0
1050,4420001018342,新規,0,2023-07-26,2023-07-26,株式会社サワカミメディカルグループ,,株式会社,青森県,三沢市,下久保３丁目６番地５号,,02,207,0330023,,,,,,,2023-07-26,1,,,,,サワカミメディカルグループ,0
1056,4430001089473,新規,0,2023-07-26,2023-07-26,株式会社栄ｆａｒｍ倉知,,株式会社,北海道,岩見沢市,上幌向町１９１番地６,,01,210,0690365,,,,,,,2023-07-26,1,,,,,サカエファームクラチ,0
1057,4430001089481,新規,0,2023-07-26,2023-07-26,アイエスフォレスト株式会社,,株式会社,北海道,赤平市,幌岡町１２４番地,,01,218,0791102,,,,,,,2023-07-26,1,,,,,アイエスフォレスト,0
1058,4430001089515,新規,0,2023-07-26,2023-07-26,ＫＹＯＴＳＵ　Ｓｔａｂｌｅ株式会社,,株式会社,北海道,札幌市厚別区,厚別東三条７丁目１９番８号,,01,108,0040003,,,,,,,2023-07-26,1,,,,,キョウツウステーブル,0
1059,4430001089523,新規,0,2023-07-26,2023-07-26,株式会社Ｈ＆Ｔ,,株式会社,北海道,札幌市東区,北四十五条東１３丁目２－３　１０２号,,01,103,0070845,,,,,,,2023-07-26,1,,,,,エイチアンドティ,0
1063,4430003015238,新規,0,2023-07-26,2023-07-26,Ｔｏｏｏ合同会社,,合同会社,北海道,札幌市中央区,南六条西７丁目１番地１－１００１号,,01,101,0640806,,,,,,,2023-07-26,1,,,,,トゥー,0
1069,4490001010540,新規,0,2023-07-26,2023-07-26,須崎魚市場運営株式会社,,株式会社,高知県,須崎市,浜町２丁目４番１３号,,39,206,7850006,,,,,,,2023-07-26,1,,,,,スサキウオイチバウンエイ,0
1070,4700150108618,新規,0,2023-07-26,2022-05-11,大野環フラメンコアカデミア　ＥＬ　ＡＮＩＬＬＯ,,その他,埼玉県,飯能市,稲荷町２１－１４オクトマンション藤和２０１,,11,209,3570037,,,,,,,2022-05-11,1,,,,,オオノタマキフラメンコアカデミアエルアニージヨ,0
1080,5010003041127,新規,0,2023-07-26,2023-07-26,Ｓ＆Ｋ企画合同会社,,合同会社,東京都,文京区,根津２丁目１番１６－１４０７号,,13,105,1130031,,,,,,,2023-07-26,1,,,,,エスアンドケーキカク,0
1086,5010401175906,新規,0,2023-07-26,2023-07-26,株式会社Ｎｅｘｔ　Ｌａｎｇｕａｇｅ,,株式会社,東京都,港区,南青山２丁目２番１５号,,13,103,1070062,,,,,,,2023-07-26,1,,,,,ネクストランゲージ,0
1087,5010403030539,新規,0,2023-07-26,2023-07-26,ＴＦＢＳ　ＢＩＯＳＣＩＥＮＣＥ合同会社,,合同会社,東京都,港区,赤坂２丁目２３番１号アークヒルズ・フロントタワーＩｎＣｏｎｔｒｏｌ内,,13,103,1070052,,,,,,,2023-07-26,1,,,,,ティーエフビーエスバイオサイエンス,0
1088,5010403030555,新規,0,2023-07-26,2023-07-26,Ｓ＆Ｄｘ　ｓｏｌａｒ３合同会社,,合同会社,東京都,港区,東新橋１丁目５番２号汐留シティセンター８階,,13,103,1050021,,,,,,,2023-07-26,1,,,,,エスアンドディーエックスソーラーサン,0
1090,5010501050769,新規,0,2023-07-26,2023-07-26,Ｓｕｒｐａｓｓｉｎｇ　Ｉｎｖｅｓｔｍｅｎｔ株式会社,,株式会社,東京都,台東区,浅草３丁目４番１０号,,13,106,1110032,,,,,,,2023-07-26,1,,,,,サーパースィングインヴェストゥメント,0
1099,5011001155876,新規,0,2023-07-26,2023-07-26,ａｌｈａｐ株式会社,,株式会社,東京都,渋谷区,代官山町８－７Ｄａｉｗａ代官山ビル２Ｆ,,13,113,1500034,,,,,,,2023-07-26,1,,,,,オルハップ,0
1100,5011001155918,新規,0,2023-07-26,2023-07-26,株式会社ＰａｙＥｃｏｎｏＭｙ,,株式会社,東京都,渋谷区,渋谷２丁目１９－１５宮益坂ビルディング６０９,,13,113,1500002,,,,,,,2023-07-26,1,,,,,ペイエコノミー,0
1102,5011003017232,新規,0,2023-07-26,2023-07-26,合同会社Ｏｌｄ　Ａｄａｍ,,合同会社,東京都,渋谷区,渋谷２丁目１９番１５－７０６号宮益坂ビルディング,,13,113,1500002,,,,,,,2023-07-26,1,,,,,オールドアダム,0
1112,5011101103710,新規,0,2023-07-26,2023-07-26,株式会社ロウキル,,株式会社,東京都,新宿区,高田馬場４丁目１６－２メゾンマルクパージュ１０２,,13,104,1690075,,,,,,,2023-07-26,1,,,,,ロウキル,0
1113,5011101103719,新規,0,2023-07-26,2023-07-26,ＴＯＫＹＯ　ＢＮＢ株式会社,,株式会社,東京都,新宿区,北新宿４丁目２８番１０号,,13,104,1690074,,,,,,,2023-07-26,1,,,,,,0
1114,5011101103735,新規,0,2023-07-26,2023-07-26,株式会社プランツ,,株式会社,東京都,新宿区,上落合３丁目３４番１０号,,13,104,1610034,,,,,,,2023-07-26,1,,,,,プランツ,0
1115,5011101103751,新規,0,2023-07-26,2023-07-26,株式会社ゆかい,,株式会社,東京都,新宿区,早稲田鶴巻町５６３番地１９号プレールドゥーク６０３,,13,104,1620041,,,,,,,2023-07-26,1,,,,,ユカイ,0
1116,5011101103784,新規,0,2023-07-26,2023-07-26,株式会社ＭＩＲＩＤＥ,,株式会社,東京都,新宿区,西新宿３丁目３番１３号西新宿水間ビル６階,,13,104,1600023,,,,,,,2023-07-26,1,,,,,ミライド,0
1127,5011501029571,新規,0,2023-07-26,2023-07-26,遠航株式会社,,株式会社,東京都,荒川区,東尾久４丁目１５番２０号,,13,118,1160012,,,,,,,2023-07-26,1,,,,,エンコウ,0
1134,5012401040775,新規,0,2023-07-26,2023-07-26,株式会社Ｇｏａｔ,,株式会社,東京都,府中市,寿町１丁目４－３ロイヤルプラザ府中６０１,,13,206,1830056,,,,,,,2023-07-26,1,,,,,ゴート,0
1139,5012803003132,新規,0,2023-07-26,2023-07-26,合同会社ＴＥＳＯＲＯ,,合同会社,東京都,国立市,泉１丁目２５－８－２０３,,13,215,1860012,,,,,,,2023-07-26,1,,,,,テゾーロ,0
1146,5013303006716,新規,0,2023-07-26,2023-07-26,合同会社ＳＢ,,合同会社,東京都,豊島区,東池袋２丁目６３番１号東池袋パレス１００６,,13,116,1700013,,,,,,,2023-07-26,1,,,,,エスビー,0
1165,5030003022182,新規,0,2023-07-26,2023-07-26,合同会社ＨＡＳＥＧＡＷＡ,,合同会社,埼玉県,日高市,大字鹿山３８７番地２,,11,242,3501231,,,,,,,2023-07-26,1,,,,,,0
1173,5040001129367,新規,0,2023-07-26,2023-07-26,株式会社和,,株式会社,千葉県,大網白里市,永田１５１４番地３,,12,239,2993233,,,,,,,2023-07-26,1,,,,,カズ,0
1182,5050001053203,新規,0,2023-07-26,2023-07-26,株式会社坂本興業,,株式会社,茨城県,日立市,高鈴町３丁目３番１２,,08,202,3170066,,,,,,,2023-07-26,1,,,,,サカモトコウギョウ,0
1183,5050001053211,新規,0,2023-07-26,2023-07-26,株式会社Ｍ’ｓ　ｃｒａｆｔ,,株式会社,茨城県,水戸市,酒門町４４６８番地の４,,08,201,3100841,,,,,,,2023-07-26,1,,,,,エムズクラフト,0
1185,5050003007669,新規,0,2023-07-26,2023-07-26,合同会社ＭＡＮＡｃｏｒｐｏｒａｔｉｏｎ,,合同会社,茨城県,常総市,水海道宝町２７０５番地３,,08,211,3030023,,,,,,,2023-07-26,1,,,,,マナコーポレーション,0
1192,5080101024134,新規,0,2023-07-26,2023-07-26,株式会社ドクターズバンク,,株式会社,静岡県,富士市,中丸４９１番地の２,,22,210,4160933,,,,,,,2023-07-26,1,,,,,ドクターズバンク,0
1199,5090003002336,新規,0,2023-07-26,2023-07-26,ＭａｒＣｏｍｍ合同会社,,合同会社,山梨県,甲府市,中村町３－４,,19,201,4000069,,,,,,,2023-07-26,1,,,,,マーコム,0
1217,5120001256640,新規,0,2023-07-26,2023-07-26,株式会社ＥＳＴＥＣＨ,,株式会社,大阪府,大阪市西区,九条南４丁目２番４－１１０１号,,27,106,5500025,,,,,,,2023-07-26,1,,,,,エステック,0
1218,5120001256731,新規,0,2023-07-26,2023-07-26,株式会社ｒｅｖｉｖａｌ,,株式会社,大阪府,大阪市東住吉区,田辺１丁目５番５号－１０３号,,27,121,5460031,,,,,,,2023-07-26,1,,,,,リバイバル,0
1219,5120001256764,新規,0,2023-07-26,2023-07-26,株式会社ＮｏｏＷｏｒｋ,,株式会社,大阪府,大阪市中央区,南船場２丁目１１番９号,,27,128,5420081,,,,,,,2023-07-26,1,,,,,ヌーワーク,0
1220,5120001256780,新規,0,2023-07-26,2023-07-26,株式会社ＭＹＥＯＮＧＳＥＯＮＧ　ＨＯＬＤＩＮＧＳ,,株式会社,大阪府,大阪市住之江区,住之江２丁目２番２１号,,27,125,5590004,,,,,,,2023-07-26,1,,,,,ミョンソンホールディングス,0
1224,5120003024582,新規,0,2023-07-26,2023-07-26,合同会社アラマンダ,,合同会社,大阪府,大阪市西区,土佐堀１丁目５番１５－８１８号,,27,106,5500001,,,,,,,2023-07-26,1,,,,,アラマンダ,0
1246,5140001130926,新規,0,2023-07-26,2023-07-26,株式会社尾縄事務所,,株式会社,兵庫県,神戸市中央区,京町７８番地三宮京町ビル３階,,28,110,6500034,,,,,,,2023-07-26,1,,,,,オナワジムショ,0
1247,5140001130991,新規,0,2023-07-26,2023-07-26,株式会社グッドフェローズ,,株式会社,兵庫県,神戸市中央区,元町通４丁目１番１８号３Ｆ,,28,110,6500022,,,,,,,2023-07-26,1,,,,,グッドフェローズ,0
1248,5140001131008,新規,0,2023-07-26,2023-07-26,株式会社フロントフィールド,,株式会社,兵庫県,加古川市,野口町二屋３３８番地の８,,28,210,6750013,,,,,,,2023-07-26,1,,,,,フロントフィールド,0
1257,5150003003014,新規,0,2023-07-26,2023-07-26,合同会社ｅＭｅｄ,,合同会社,奈良県,奈良市,西大寺南町６番１－８０３号,,29,201,6310824,,,,,,,2023-07-26,1,,,,,イーメド,0
1264,5180001157288,新規,0,2023-07-26,2023-07-26,キーズモクシー株式会社,,株式会社,愛知県,名古屋市昭和区,広瀬町３丁目１６番地１,,23,107,4660004,,,,,,,2023-07-26,1,,,,,キーズモクシー,0
1276,5200003006028,新規,0,2023-07-26,2023-07-26,いたばしヘルパーステーション合同会社,,合同会社,岐阜県,関市,小屋名１２５９番地２,,21,205,5013941,,,,,,,2023-07-26,1,,,,,イタバシヘルパーステーション,0
1279,5220003003551,新規,0,2023-07-26,2023-07-26,合同会社ヒトノト,,合同会社,石川県,金沢市,鳴和町ヌ８０番地,,17,201,9200814,,,,,,,2023-07-26,1,,,,,ヒトノト,0
1282,5240001061863,新規,0,2023-07-26,2023-07-26,株式会社ｇ３ｋｕｒａｔａ,,株式会社,広島県,広島市中区,紙屋町１丁目５番７号,,34,101,7300031,,,,,,,2023-07-26,1,,,,,ジースリークラタ,0
1286,5250001020190,新規,0,2023-07-26,2023-07-26,株式会社モクジツ,,株式会社,山口県,宇部市,大字東須恵２７４－１２,,35,202,7590206,,,,,,,2023-07-26,1,,,,,モクジツ,0
1290,5260003004356,新規,0,2023-07-26,2023-07-26,合同会社ＨＩＧＨ　ＦＩＥＬＤ,,合同会社,岡山県,津山市,阿波３１６４,,33,203,7093951,,,,,,,2023-07-26,1,,,,,ハイフィールド,0
1291,5280001009000,新規,0,2023-07-26,2023-07-26,株式会社シナモン,,株式会社,島根県,松江市,大正町３番地２,,32,201,6900002,,,,,,,2023-07-26,1,,,,,シナモン,0
1293,5290001102381,新規,0,2023-07-26,2023-07-26,株式会社プラウド,,株式会社,福岡県,久留米市,上津町２２２８番地５１６号,,40,203,8300052,,,,,,,2023-07-26,1,,,,,プラウド,0
1306,5330001031089,新規,0,2023-07-26,2023-07-26,ブリス株式会社,,株式会社,熊本県,熊本市北区,清水岩倉２丁目６番１１号,,43,105,8618084,,,,,,,2023-07-26,1,,,,,ブリス,0
1315,5360001032324,新規,0,2023-07-26,2023-07-26,株式会社三幸開発,,株式会社,沖縄県,糸満市,西崎町３丁目４３１番地,,47,210,9010306,,,,,,,2023-07-26,1,,,,,サンコウカイハツ,0
1316,5360001032340,新規,0,2023-07-26,2023-07-26,株式会社ワイズブリッジ,,株式会社,沖縄県,那覇市,牧志１丁目４番２６号ガーデンハイムＩ．Ｂ４０３,00131279,47,201,9000013,,,,,,,2023-07-26,1,,,,,ワイズブリッジ,0
1318,5360003013149,新規,0,2023-07-26,2023-07-26,Ｔａｒｏｃａｔ合同会社,,合同会社,沖縄県,那覇市,前島３丁目２５番２号泊ポートビル２Ｆ２１１号室,,47,201,9000016,,,,,,,2023-07-26,1,,,,,タロキャット,0
1325,5370001050218,新規,0,2023-07-26,2023-07-26,株式会社ランドオーナーウィズ,,株式会社,宮城県,名取市,高舘熊野堂字石畑山１５番地,,04,207,9811241,,,,,,,2023-07-26,1,,,,,ランドオーナーウィズ,0
1327,5370003006218,新規,0,2023-07-26,2023-07-26,トップラインエナジー合同会社,,合同会社,宮城県,栗原市,築館伊豆１丁目１番３９号,,04,213,9872216,,,,,,,2023-07-26,1,,,,,トップラインエナジー,0
1343,5430001089472,新規,0,2023-07-26,2023-07-26,株式会社アウトリーガ,,株式会社,北海道,札幌市中央区,南二条西１２丁目３２４番地１１,,01,101,0600062,,,,,,,2023-07-26,1,,,,,アウトリーガ,0
1344,5430001089489,新規,0,2023-07-26,2023-07-26,カールム株式会社,,株式会社,北海道,札幌市豊平区,平岸一条９丁目３番５－４１３号,,01,105,0620931,,,,,,,2023-07-26,1,,,,,カールム,0
1345,5430001089514,新規,0,2023-07-26,2023-07-26,株式会社ＴＯＢＥ,,株式会社,北海道,札幌市東区,北三十三条東９丁目６番６号,,01,103,0650033,,,,,,,2023-07-26,1,,,,,トゥービー,0
1346,5430003015229,新規,0,2023-07-26,2023-07-26,合同会社アクアシステム,,合同会社,北海道,恵庭市,黄金南２丁目６－１１,,01,231,0611409,,,,,,,2023-07-26,1,,,,,アクアシステム,0
1347,5430003015245,新規,0,2023-07-26,2023-07-26,合同会社ＯＬＩＶＥ　Ｔｒｅｅ,,合同会社,北海道,札幌市中央区,南二条西１０丁目１０００番２４号ＴＡＫＥＴＯビル２階,,01,101,0600062,,,,,,,2023-07-26,1,,,,,オリーブツリー,0
1348,5430003015253,新規,0,2023-07-26,2023-07-26,千登合同会社,,合同会社,北海道,虻田郡倶知安町,北三条西２丁目９番地５,,01,400,0440053,,,,,,,2023-07-26,1,,,,,セントウ,0
1350,5450005004376,新規,0,2023-07-26,2023-07-26,一般社団法人産学官創造ネットワーク,,その他の設立登記法人,北海道,旭川市,緑が丘南一条２丁目４番６号,,01,204,0788811,,,,,,,2023-07-26,1,,,,,サンガクカンソウゾウネットワーク,0
1360,6010001237155,新規,0,2023-07-26,2023-07-26,株式会社ＳＯＩ,,株式会社,東京都,中央区,銀座１丁目１２番４号Ｎ＆ＥＢＬＤ．６Ｆ,,13,102,1040061,,,,,,,2023-07-26,1,,,,,エスオーアイ,0
1361,6010001237188,新規,0,2023-07-26,2023-07-26,エムティージー株式会社,,株式会社,東京都,千代田区,丸の内２丁目７番３号,,13,101,1000005,,,,,,,2023-07-26,1,,,,,エムティージー,0
1365,6010003041175,新規,0,2023-07-26,2023-07-26,ラーヒルジャパン合同会社,,合同会社,東京都,千代田区,丸の内３丁目２番２号丸の内二重橋ビル２階,,13,101,1000005,,,,,,,2023-07-26,1,,,,,ラーヒルジャパン,0
1374,6010401175888,新規,0,2023-07-26,2023-07-26,Ｓｈｉｒｏ　Ｔｒａｄｅ株式会社,,株式会社,東京都,港区,虎ノ門２丁目５番５号,,13,103,1050001,,,,,,,2023-07-26,1,,,,,シロトレード,0
1375,6010401175896,新規,0,2023-07-26,2023-07-26,株式会社ジー・エフ・エル・プラス,,株式会社,東京都,港区,新橋６丁目１０番２号,,13,103,1050004,,,,,,,2023-07-26,1,,,,,ジーエフエルプラス,0
1376,6010401175905,新規,0,2023-07-26,2023-07-26,株式会社ＳＴＡＩＲＳ　Ｔ＆Ｂ,,株式会社,東京都,港区,浜松町２丁目２番１５号浜松町ダイヤビル２Ｆ,,13,103,1050013,,,,,,,2023-07-26,1,,,,,ステアーティアンドビー,0
1377,6010401175946,新規,0,2023-07-26,2023-07-26,株式会社プレイングラン,,株式会社,東京都,港区,浜松町１丁目３番２号パークコート浜離宮ザタワー３７１１,,13,103,1050013,,,,,,,2023-07-26,1,,,,,プレイングラン,0
1379,6010403030538,新規,0,2023-07-26,2023-07-26,合同会社Ｅｎ,,合同会社,東京都,港区,赤坂７丁目５番１－１００２号,,13,103,1070052,,,,,,,2023-07-26,1,,,,,イーエヌ,0
1380,6010403030554,新規,0,2023-07-26,2023-07-26,ＬＬ合同会社,,合同会社,東京都,港区,虎ノ門４丁目１番２０－１６０１号,,13,103,1050001,,,,,,,2023-07-26,1,,,,,エルエル,0
1381,6010403030570,新規,0,2023-07-26,2023-07-26,合同会社ＣｕｂｅＧａｍｅＬａｂ,,合同会社,東京都,港区,白金１丁目１７番１－７１０号,,13,103,1080072,,,,,,,2023-07-26,1,,,,,キューブゲームラボ,0
1382,6010405022351,新規,0,2023-07-26,2023-07-26,一般社団法人Ｓ＆Ｄｘ３,,その他の設立登記法人,東京都,港区,東新橋１丁目５番２号汐留シティセンター８階,,13,103,1050021,,,,,,,2023-07-26,1,,,,,エスアンドディーエックスサン,0
1391,6010701044603,新規,0,2023-07-26,2023-07-26,株式会社キープラス,,株式会社,東京都,品川区,大崎２丁目９番２－１５０９号,,13,109,1410032,,,,,,,2023-07-26,1,,,,,キープラス,0
1402,6011001155891,新規,0,2023-07-26,2023-07-26,株式会社Ａ．Ｓ．Ｍ,,株式会社,東京都,渋谷区,渋谷２丁目１０番１５号,,13,113,1500002,,,,,,,2023-07-26,1,,,,,エーエスエム,0
1407,6011101103718,新規,0,2023-07-26,2023-07-26,株式会社Ｄ‐ｐｒｏｓｐｅｃｔ,,株式会社,東京都,新宿区,市谷田町３丁目８番地市ヶ谷科学技術イノベーションセンタービル２Ｆ,,13,104,1620843,,,,,,,2023-07-26,1,,,,,ディープロスペクト,0
1408,6011101103734,新規,0,2023-07-26,2023-07-26,株式会社クオーレ,,株式会社,東京都,新宿区,西新宿８丁目８番１８－８０７号,,13,104,1600023,,,,,,,2023-07-26,1,,,,,クオーレ,0
1409,6011101103750,新規,0,2023-07-26,2023-07-26,株式会社アイミー,,株式会社,東京都,新宿区,西新宿６丁目１１－３ディーマークス西新宿タワー２６０７,,13,104,1600023,,,,,,,2023-07-26,1,,,,,アイミー,0
1410,6011101103767,新規,0,2023-07-26,2023-07-26,株式会社リンク,,株式会社,東京都,新宿区,新宿２丁目１２番１３号新宿アントレサロンビル２階,,13,104,1600022,,,,,,,2023-07-26,1,,,,,リンク,0
1412,6011403004060,新規,0,2023-07-26,2023-07-26,合同会社ＭＡＪＯＬＩＣＡ　ＶＯＩＣＥ,,合同会社,東京都,板橋区,小茂根１丁目２５番８号フラッツ小茂根２０３,,13,119,1730037,,,,,,,2023-07-26,1,,,,,マジョリカボイス,0
1416,6011801042760,新規,0,2023-07-26,2023-07-26,白工房株式会社,,株式会社,東京都,足立区,西伊興３丁目１８－１４－２０６号室,,13,121,1210824,,,,,,,2023-07-26,1,,,,,ハクコウボウ,0
1418,6012701017761,新規,0,2023-07-26,2023-07-26,ＴＹＰインフォセンス株式会社,,株式会社,東京都,清瀬市,竹丘１丁目１７番２６号８１６号室,,13,221,2040023,,,,,,,2023-07-26,1,,,,,ティーワイピーインフォセンス,0
1423,6013303006723,新規,0,2023-07-26,2023-07-26,ＦＬＯＲＡビューティー合同会社,,合同会社,東京都,豊島区,池袋２丁目４４－３ｋｔｓビル２Ｆ,,13,116,1710014,,,,,,,2023-07-26,1,,,,,フローラ,0
1434,6020001152667,新規,0,2023-07-26,2023-07-26,株式会社エスポワール,,株式会社,神奈川県,横浜市南区,井土ケ谷下町１６番地５,,14,105,2320053,,,,,,,2023-07-26,1,,,,,エスポワール,0
1437,6020005016067,新規,0,2023-07-26,2023-07-26,一般社団法人トータルライフ保証協会,,その他の設立登記法人,神奈川県,横浜市西区,北幸１丁目１１番１号水信ビル７階,,14,103,2200004,,,,,,,2023-07-26,1,,,,,トータルライフホショウキョウカイ,0
1439,6021001079702,新規,0,2023-07-26,2023-07-26,株式会社Ｙｏｕ　Ｎｅｅｄ,,株式会社,神奈川県,綾瀬市,小園南２丁目１１番１８号,,14,218,2521122,,,,,,,2023-07-26,1,,,,,ユーニード,0
1440,6021003013353,新規,0,2023-07-26,2023-07-26,合同会社僥倖,,合同会社,神奈川県,平塚市,平塚２丁目４７番２号,,14,203,2540052,,,,,,,2023-07-26,1,,,,,ギョウコウ,0
1448,6030001155009,新規,0,2023-07-26,2023-07-26,ＥＮＡＸ株式会社,,株式会社,埼玉県,新座市,野火止５丁目１番５－３０９号,,11,230,3520011,,,,,,,2023-07-26,1,,,,,エネックス,0
1449,6030001155033,新規,0,2023-07-26,2023-07-26,株式会社ＭＴＮ,,株式会社,埼玉県,さいたま市緑区,東浦和５丁目１０番地１４－２１０号,,11,109,3360926,,,,,,,2023-07-26,1,,,,,エムティエヌ,0
1450,6030001155041,新規,0,2023-07-26,2023-07-26,株式会社Ｈｅｒｏｉｓ,,株式会社,埼玉県,三郷市,高洲二丁目４３８番地２,,11,237,3410000,,,,,,,2023-07-26,1,,,,,ヒーローイズ,0
1459,6040001129374,新規,0,2023-07-26,2023-07-26,株式会社サカマル,,株式会社,千葉県,松戸市,小金原３丁目１３番地の１８,,12,207,2700021,,,,,,,2023-07-26,1,,,,,サカマル,0
1460,6040001129390,新規,0,2023-07-26,2023-07-26,株式会社リレーションゲート,,株式会社,千葉県,八千代市,緑が丘１丁目１６番地１２,,12,221,2760049,,,,,,,2023-07-26,1,,,,,リレーションゲート,0
1464,6040003023014,新規,0,2023-07-26,2023-07-26,ＨＯＲＩＺＯＮＴ合同会社,,合同会社,千葉県,富津市,大堀１７５３－３２,,12,226,2930001,,,,,,,2023-07-26,1,,,,,ホリゾント,0
1469,6050001053152,新規,0,2023-07-26,2023-07-26,株式会社いたこ内装,,株式会社,茨城県,潮来市,日の出５丁目１１番地２２,,08,223,3112423,,,,,,,2023-07-26,1,,,,,イタコナイソウ,0
1472,6050003007668,新規,0,2023-07-26,2023-07-26,合同会社裕成興業,,合同会社,茨城県,神栖市,堀割１丁目１４番地２５ピースフル２０００・ＩＩ１０２号,00131281,08,232,3140135,,,,,,,2023-07-26,1,,,,,ユウセイコウギョウ,0
1480,6070001040677,新規,0,2023-07-26,2023-07-26,ＳＯＲＡ株式会社,,株式会社,群馬県,邑楽郡大泉町,朝日５丁目２２番１１号フレックスひまわり１０３号,,10,524,3700514,,,,,,,2023-07-26,1,,,,,,0
1484,6080003003020,新規,0,2023-07-26,2023-07-26,大矢電機合同会社,,合同会社,静岡県,島田市,岸町１０８５番地の３,,22,209,4270005,,,,,,,2023-07-26,1,,,,,オオヤデンキ,0
1487,6100001036622,新規,0,2023-07-26,2023-07-26,株式会社ＷＰＣ,,株式会社,長野県,岡谷市,西山１７２３番地の１３２,,20,204,3940091,,,,,,,2023-07-26,1,,,,,ダブリューピーシー,0
1502,6120001256730,新規,0,2023-07-26,2023-07-26,和錦株式会社,,株式会社,大阪府,大阪市東住吉区,田辺３丁目２５番２８号,,27,121,5460031,,,,,,,2023-07-26,1,,,,,ワキン,0
1503,6120001256763,新規,0,2023-07-26,2023-07-26,アイナベル株式会社,,株式会社,大阪府,枚方市,走谷１丁目１１番１２号１０５号室,,27,210,5730063,,,,,,,2023-07-26,1,,,,,アイナベル,0
1504,6120001256788,新規,0,2023-07-26,2023-07-26,大阪民泊清掃代行株式会社,,株式会社,大阪府,大阪市西成区,玉出西２丁目１３番２７号,,27,122,5570045,,,,,,,2023-07-26,1,,,,,オオサカミンパクセイソウダイコウ,0
1506,6120003024466,新規,0,2023-07-26,2023-07-26,お掃除屋さん合同会社,,合同会社,大阪府,大阪市中央区,島之内２丁目６－６アロンディール島之内９０３,,27,128,5420082,,,,,,,2023-07-26,1,,,,,オソウジヤサン,0
1513,6120901047840,新規,0,2023-07-26,2023-07-26,株式会社ゼブラファーム能勢天王,,株式会社,大阪府,豊能郡能勢町,天王３５９番地,,27,322,5630371,,,,,,,2023-07-26,1,,,,,ゼブラファームノセテンノウ,0
1519,6130005016799,新規,0,2023-07-26,2023-07-26,一般社団法人全日本公平財務,,その他の設立登記法人,京都府,京都市中京区,御幸町通三条下る海老屋町３２２番地ゴールデンフリース３０３号室,,26,104,6048076,,,,,,,2023-07-26,1,,,,,ゼンニホンコウヘイザイム,0
1533,6140001130999,新規,0,2023-07-26,2023-07-26,株式会社ｅｎ,,株式会社,兵庫県,神戸市東灘区,住吉山手５丁目８番２２号,,28,101,6580063,,,,,,,2023-07-26,1,,,,,エン,0
1534,6140001131015,新規,0,2023-07-26,2023-07-26,株式会社ケアナース大阪,,株式会社,兵庫県,川西市,中央町６番１２号１Ｆ,,28,217,6660016,,,,,,,2023-07-26,1,,,,,ケアナースオオサカ,0
1541,6150001026569,新規,0,2023-07-26,2023-07-26,株式会社ビーエス・コーポレーション,,株式会社,奈良県,奈良市,三碓１丁目８番１５－２０６号,,29,201,6310061,,,,,,,2023-07-26,1,,,,,ビーエスコーポレーション,0
1543,6160001025215,新規,0,2023-07-26,2023-07-26,株式会社Ｈ・Ｋ・Ｏ,,株式会社,滋賀県,近江八幡市,大工町３４－１,,25,204,5230824,,,,,,,2023-07-26,1,,,,,エイチケイオウ,0
1550,6180001157287,新規,0,2023-07-26,2023-07-26,株式会社ＭＴＫ,,株式会社,愛知県,名古屋市天白区,梅が丘１丁目６１３番地１０６号室,,23,116,4680004,,,,,,,2023-07-26,1,,,,,エムティーケー,0
1551,6180001157295,新規,0,2023-07-26,2023-07-26,Ｉ．Ｃ．Ｓ株式会社,,株式会社,愛知県,名古屋市天白区,梅が丘１丁目１００１番地の５,,23,116,4680004,,,,,,,2023-07-26,1,,,,,アイシーエス,0
1552,6180001157304,新規,0,2023-07-26,2023-07-26,メジャーセブンス株式会社,,株式会社,愛知県,東海市,名和町中屋敷７番地の２,,23,222,4760002,,,,,,,2023-07-26,1,,,,,メジャーセブンス,0
1566,6200003006027,新規,0,2023-07-26,2023-07-26,合同会社ＯＫサポート,,合同会社,岐阜県,各務原市,尾崎北町５丁目４１番地,,21,213,5040002,,,,,,,2023-07-26,1,,,,,オーケーサポート,0
1567,6220001025514,新規,0,2023-07-26,2023-07-26,ピーチワンメディカル株式会社,,株式会社,石川県,金沢市,山の上町３６番１２号,,17,201,9200816,,,,,,,2023-07-26,1,,,,,ピーチワンメディカル,0
1570,6240001061862,新規,0,2023-07-26,2023-07-26,株式会社７８,,株式会社,広島県,広島市東区,光町１丁目６番２７号,,34,102,7320052,,,,,,,2023-07-26,1,,,,,ナナハチ,0
1574,6250003003309,新規,0,2023-07-26,2023-07-26,合同会社うららかアルファ,,合同会社,山口県,下関市,豊浦町大字吉永６４２番地の９,,35,201,7596311,,,,,,,2023-07-26,1,,,,,ウララカアルファ,0
1587,6290001102406,新規,0,2023-07-26,2023-07-26,株式会社藤田工業,,株式会社,福岡県,飯塚市,綱分６６７番地２１,,40,205,8200101,,,,,,,2023-07-26,1,,,,,フジタコウギョウ,0
1588,6290001102414,新規,0,2023-07-26,2023-07-26,株式会社Ｋシステム,,株式会社,福岡県,飯塚市,大分１８４８番地８,,40,205,8200712,,,,,,,2023-07-26,1,,,,,,0
1590,6300001013386,新規,0,2023-07-26,2023-07-26,株式会社Ｓｈｉｋｉ　ＨＯＭＥ’Ｓ,,株式会社,佐賀県,小城市,小城町松尾４０８７番地１,,41,208,8450004,,,,,,,2023-07-26,1,,,,,シキホームズ,0
1595,6310003004606,新規,0,2023-07-26,2023-07-26,合同会社スタートＢ,,合同会社,長崎県,諫早市,鷲崎町３５６番地１,,42,204,8540051,,,,,,,2023-07-26,1,,,,,スタートビー,0
1602,6360001032331,新規,0,2023-07-26,2023-07-26,株式会社ＢＯＮＤＳ,,株式会社,沖縄県,浦添市,大平３丁目２番１７号,,47,208,9012113,,,,,,,2023-07-26,1,,,,,ボンズ,0
1610,6370001050217,新規,0,2023-07-26,2023-07-26,ストックＤＸ総研株式会社,,株式会社,宮城県,登米市,石越町東郷字千貫巻１９０番地１,,04,212,9894702,,,,,,,2023-07-26,1,,,,,ストックディーエックスソウケン,0
1613,6380001033872,新規,0,2023-07-26,2023-07-26,株式会社Ｇｒａｎｄｅ,,株式会社,福島県,福島市,御山字中川原２０－１,,07,201,9608252,,,,,,,2023-07-26,1,,,,,グランデ,0
1625,6430001089505,新規,0,2023-07-26,2023-07-26,株式会社Ｐｏｗｅｒ　Ｏｎｅ,,株式会社,北海道,札幌市豊平区,月寒東一条１丁目５番１０－２号,,01,105,0620051,,,,,,,2023-07-26,1,,,,,パワーワン,0
1629,6430003015260,新規,0,2023-07-26,2023-07-26,合同会社リファクト,,合同会社,北海道,札幌市西区,二十四軒四条５丁目１１番１６－４０３号,,01,107,0630804,,,,,,,2023-07-26,1,,,,,リファクト,0
1638,6500001025080,新規,0,2023-07-26,2023-07-26,株式会社ＩＴＯ建装,,株式会社,愛媛県,松山市,森松町１０６９番地１４,,38,201,7911113,,,,,,,2023-07-26,1,,,,,イトウケンソウ,0
1662,7010401175887,新規,0,2023-07-26,2023-07-26,クラリファイ株式会社,,株式会社,東京都,港区,港南１丁目９番３６号アレア品川１３階,,13,103,1080075,,,,,,,2023-07-26,1,,,,,クラリファイ,0
1663,7010401175904,新規,0,2023-07-26,2023-07-26,ＫＩＣＫ株式会社,,株式会社,東京都,港区,北青山１丁目３番１号アールキューブ青山３階,,13,103,1070061,,,,,,,2023-07-26,1,,,,,キック,0
1665,7010403030561,新規,0,2023-07-26,2023-07-26,合同会社ルカ・メディカル,,合同会社,東京都,港区,虎ノ門４丁目１番２０－１００４号,,13,103,1050001,,,,,,,2023-07-26,1,,,,,ルカメディカル,0
1669,7010501050791,新規,0,2023-07-26,2023-07-26,ＢＩＤＯＴ株式会社,,株式会社,東京都,台東区,上野６丁目７番１６川久保ビル８１９号,,13,106,1100005,,,,,,,2023-07-26,1,,,,,バイドット,0
1671,7010601063495,新規,0,2023-07-26,2023-07-26,ＶＡＳＲＥ　ＪＡＰＡＮ株式会社,,株式会社,東京都,江東区,平野３丁目２－６木場パークビル２Ｆ,,13,108,1350023,,,,,,,2023-07-26,1,,,,,バスレジャパン,0
1684,7011001155899,新規,0,2023-07-26,2023-07-26,株式会社Ａｐｈｒｏｄｉｔａ,,株式会社,東京都,目黒区,上目黒５丁目６番８号１０１,,13,110,1530051,,,,,,,2023-07-26,1,,,,,アフロディテ,0
1692,7011201024796,新規,0,2023-07-26,2023-07-26,株式会社ヒトミライ,,株式会社,東京都,中野区,本町２丁目１４番５号,,13,114,1640012,,,,,,,2023-07-26,1,,,,,ヒトミライ,0
1696,7011701026458,新規,0,2023-07-26,2023-07-26,ＧＹＥＣ株式会社,,株式会社,東京都,江戸川区,江戸川１丁目３６番１１号,,13,123,1320013,,,,,,,2023-07-26,1,,,,,ジーワイイーシー,0
1698,7011801042784,新規,0,2023-07-26,2023-07-26,ＳＫＳ株式会社,,株式会社,東京都,足立区,中川２丁目１３－２－３０６号,,13,121,1200002,,,,,,,2023-07-26,1,,,,,,0
1709,7012703002760,新規,0,2023-07-26,2023-07-26,シャカイナＧｌｏｒｙ合同会社,,合同会社,東京都,小平市,仲町６８４番３３号,,13,211,1870042,,,,,,,2023-07-26,1,,,,,シャカイナグローリー,0
1710,7013301051101,新規,0,2023-07-26,2023-07-26,株式会社ＢＬＩＳＳ,,株式会社,東京都,豊島区,南池袋１丁目１６番２０ぬかりやビル６Ｆ,,13,116,1710022,,,,,,,2023-07-26,1,,,,,ブリス,0
1714,7020001152591,新規,0,2023-07-26,2023-07-26,株式会社ファーストメイク,,株式会社,神奈川県,横浜市磯子区,杉田６丁目１番５号,,14,107,2350033,,,,,,,2023-07-26,1,,,,,ファーストメイク,0
1715,7020001152690,新規,0,2023-07-26,2023-07-26,ＡＤＭ新機軸株式会社,,株式会社,神奈川県,横浜市瀬谷区,相沢４丁目６番地８,,14,114,2460013,,,,,,,2023-07-26,1,,,,,エーディーエムシンキジク,0
1725,7030001154950,新規,0,2023-07-26,2023-07-26,Ｓｉｇｎａｔｕｒｅ　Ｇｏｌｆ株式会社,,株式会社,埼玉県,北足立郡伊奈町,大字小室字志久４６１５番地１,,11,301,3620806,,,,,,,2023-07-26,1,,,,,シグネチャーゴルフ,0
1726,7030001155024,新規,0,2023-07-26,2023-07-26,株式会社ＢＩＧ‐ＡＧＥＮＴ,,株式会社,埼玉県,入間市,狭山台２丁目２番地８,,11,225,3580033,,,,,,,2023-07-26,1,,,,,ビックエージェント,0
1742,7050001053201,新規,0,2023-07-26,2023-07-26,株式会社青測コンサルタント,,株式会社,茨城県,潮来市,潮来１０１５番地,,08,223,3112424,,,,,,,2023-07-26,1,,,,,アオソクコンサルタント,0
1744,7050003007650,新規,0,2023-07-26,2023-07-26,合同会社ケーズフィルムスタジオ,,合同会社,茨城県,取手市,新町５丁目７番２７号,,08,217,3020024,,,,,,,2023-07-26,1,,,,,ケーズフィルムスタジオ,0
1748,7060001036188,新規,0,2023-07-26,2023-07-26,株式会社遊友,,株式会社,栃木県,宇都宮市,東宿郷２丁目１８番１９号ニュー青山館１０５,,09,201,3210953,,,,,,,2023-07-26,1,,,,,ユウユウ,0
1751,7080005007547,新規,0,2023-07-26,2023-07-26,特定非営利活動法人子どもの居場所虹のいえ,,その他の設立登記法人,静岡県,藤枝市,時ケ谷４８３番地の２１,,22,214,4260204,,,,,,,2023-07-26,1,,,,,コドモノイバショニジノイエ,0
1754,7100001036621,新規,0,2023-07-26,2023-07-26,株式会社森泉鉄筋,,株式会社,長野県,小諸市,大字市６９８番地１７,,20,208,3840083,,,,,,,2023-07-26,1,,,,,モリズミテッキン,0
1761,7120001256333,新規,0,2023-07-26,2023-07-26,株式会社Ｗ＆Ｈ,,株式会社,大阪府,大阪市中央区,久太郎町１丁目７番１１－８１３号,,27,128,5410056,,,,,,,2023-07-26,1,,,,,ダブルアンドエイチ,0
1762,7120001256746,新規,0,2023-07-26,2023-07-26,株式会社ななつ星マネジメントサポート,,株式会社,大阪府,大阪市西区,京町堀１丁目１１番７号京旺ビル４階Ｂ号室,,27,106,5500003,,,,,,,2023-07-26,1,,,,,ナナツボシサポート,0
1763,7120001256754,新規,0,2023-07-26,2023-07-26,株式会社トワラッキー,,株式会社,大阪府,大阪市中央区,谷町２丁目２番１３－５０１号,,27,128,5400012,,,,,,,2023-07-26,1,,,,,トワラッキー,0
1764,7120001256762,新規,0,2023-07-26,2023-07-26,株式会社ＳＵＧＩＭＯＴＯ,,株式会社,大阪府,大阪市都島区,都島中通２丁目２４番８号,,27,102,5340022,,,,,,,2023-07-26,1,,,,,スギモト,0
1770,7120003024572,新規,0,2023-07-26,2023-07-26,合同会社フライハイト,,合同会社,大阪府,大阪市中央区,高津２丁目１－１５,,27,128,5420072,,,,,,,2023-07-26,1,,,,,フライハイト,0
1771,7120003024580,新規,0,2023-07-26,2023-07-26,ビジネスリスクサービス合同会社,,合同会社,大阪府,大阪市東淀川区,瑞光５丁目８‐２９,,27,114,5330005,,,,,,,2023-07-26,1,,,,,ビジネスリスクサービス,0
1773,7120101067944,新規,0,2023-07-26,2023-07-26,ダイバーシティホーム株式会社,,株式会社,大阪府,堺市西区,草部６５６番地９,,27,144,5938312,,,,,,,2023-07-26,1,,,,,ダイバーシティホーム,0
1777,7120903004756,新規,0,2023-07-26,2023-07-26,合同会社ＲＡＭＯＫＵ,,合同会社,大阪府,豊中市,刀根山２丁目２番３８の２号,,27,203,5600045,,,,,,,2023-07-26,1,,,,,ラモク,0
1782,7122001037192,新規,0,2023-07-26,2023-07-26,株式会社ボールズエムピーアール,,株式会社,大阪府,柏原市,片山町１８番６４号,,27,221,5820020,,,,,,,2023-07-26,1,,,,,ボールズエムピーアール,0
1783,7122005003694,新規,0,2023-07-26,2023-07-26,事業経営税理士法人,,その他の設立登記法人,大阪府,東大阪市,菱屋西１丁目１４番２２号,,27,227,5770807,,,,,,,2023-07-26,1,,,,,ジギョウケイエイ,0
1800,7180001157278,新規,0,2023-07-26,2023-07-26,株式会社流通ホールディングス,,株式会社,愛知県,北名古屋市,北野八竜前８３番地,,23,234,4810034,,,,,,,2023-07-26,1,,,,,リュウツウホールディングス,0
1804,7180003025524,新規,0,2023-07-26,2023-07-26,Ｆｌｅｅｋ　Ｐｏｃｋｅｔ　Ｓｏｌｕｓｉｏｎ合同会社,,合同会社,愛知県,愛知郡東郷町,兵庫１丁目９番地３１,,23,302,4700166,,,,,,,2023-07-26,1,,,,,フリークポケットソリューション,0
1810,7200001041529,新規,0,2023-07-26,2023-07-26,株式会社ＳＳＲ,,株式会社,岐阜県,高山市,久々野町久々野２１６０,,21,203,5093205,,,,,,,2023-07-26,1,,,,,エスエスアール,0
1821,7250001020189,新規,0,2023-07-26,2023-07-26,株式会社西田設備,,株式会社,山口県,周南市,大字八代１５０６番地,,35,215,7450501,,,,,,,2023-07-26,1,,,,,ニシダセツビ,0
1826,7280001008999,新規,0,2023-07-26,2023-07-26,サーキュラー・アセット・マネジメント株式会社,,株式会社,島根県,松江市,大正町３番地２,,32,201,6900002,,,,,,,2023-07-26,1,,,,,サーキュラーアセットマネジメント,0
1833,7290001102405,新規,0,2023-07-26,2023-07-26,株式会社ＪＵＮＡＭ　ＪＡＰＡＮ　ＣＯＲＰＯＲＡＴＩＯＮ,,株式会社,福岡県,福岡市博多区,博多駅南１丁目５番３２－５０５号ユーコウビルＩＩ,00131285,40,132,8120016,,,,,,,2023-07-26,1,,,,,ジュナムジャパンコーポレーション,0
1836,7290003014152,新規,0,2023-07-26,2023-07-26,合同会社よつかど,,合同会社,福岡県,福岡市東区,唐原７丁目３番１４号田代ハイツ,,40,131,8130001,,,,,,,2023-07-26,1,,,,,ヨツカド,0
1845,7360001032330,新規,0,2023-07-26,2023-07-26,ＦＲＯＭ　ＥＤＧＥ株式会社,,株式会社,沖縄県,那覇市,壺屋１丁目７－１９,,47,201,9020065,,,,,,,2023-07-26,1,,,,,フロムエッジ,0
1846,7360003013114,新規,0,2023-07-26,2023-07-26,ニライ合同会社,,合同会社,沖縄県,中頭郡読谷村,字楚辺２１０８番地の１,,47,324,9040304,,,,,,,2023-07-26,1,,,,,ニライ,0
1850,7370001050216,新規,0,2023-07-26,2023-07-26,株式会社舟山,,株式会社,宮城県,仙台市青葉区,木町通２丁目１番１５－４０３号,,04,101,9800801,,,,,,,2023-07-26,1,,,,,フナヤマ,0
1852,7380001033871,新規,0,2023-07-26,2023-07-26,株式会社ＴＨＹ,,株式会社,福島県,郡山市,安積町南長久保１丁目２２０,,07,203,9630104,,,,,,,2023-07-26,1,,,,,ゼイ,0
1863,7430001089487,新規,0,2023-07-26,2023-07-26,株式会社サウンズライクファン,,株式会社,北海道,札幌市豊平区,美園八条３丁目１番１０号,,01,105,0620008,,,,,,,2023-07-26,1,,,,,サウンズライクファン,0
1864,7430001089537,新規,0,2023-07-26,2023-07-26,株式会社レブール,,株式会社,北海道,札幌市中央区,南八条西１丁目１３番地１３９,,01,101,0640808,,,,,,,2023-07-26,1,,,,,レブール,0
1867,7430003015219,新規,0,2023-07-26,2023-07-26,合同会社藤健工業,,合同会社,北海道,札幌市北区,新川二条２丁目１０番１８号,,01,102,0010922,,,,,,,2023-07-26,1,,,,,トウケンコウギョウ,0
1868,7430003015251,新規,0,2023-07-26,2023-07-26,Ｍｅｒｃｙ合同会社,,合同会社,北海道,札幌市北区,篠路一条２丁目７番７号,,01,102,0028021,,,,,,,2023-07-26,1,,,,,マーシー,0
1883,8010001237145,新規,0,2023-07-26,2023-07-26,Ｓｍｉｌｅ　Ｊａｐａｎ株式会社,,株式会社,東京都,中央区,築地４丁目２番７－６０１号,,13,102,1040045,,,,,,,2023-07-26,1,,,,,スマイルジャパン,0
1884,8010001237153,新規,0,2023-07-26,2023-07-26,株式会社ブルーアライアンス,,株式会社,東京都,中央区,湊２丁目１１番１号シティタワー銀座東５２２号室,,13,102,1040043,,,,,,,2023-07-26,1,,,,,ブルーアライアンス,0
1885,8010001237178,新規,0,2023-07-26,2023-07-26,シバ・インター・アート株式会社,,株式会社,東京都,中央区,東日本橋２丁目１６番１０号ＶＩＰ東日本橋４０２号,,13,102,1030004,,,,,,,2023-07-26,1,,,,,シバインターアート,0
1886,8010001237203,新規,0,2023-07-26,2023-07-26,春天日和株式会社,,株式会社,東京都,千代田区,四番町４－９ＳＴＫ内,,13,101,1020081,,,,,,,2023-07-26,1,,,,,ハルビヨリ,0
1888,8010003041215,新規,0,2023-07-26,2023-07-26,合同会社Ｍａｅｙａｍａ　Ａｃｃｏｕｎｔｉｎｇ,,合同会社,東京都,文京区,本郷４丁目１６－６天翔オフィス後楽園３０３号室,,13,105,1130033,,,,,,,2023-07-26,1,,,,,マエヤマアカウンティング,0
1894,8010401175928,新規,0,2023-07-26,2023-07-26,Ｚｅｎｏｒ株式会社,,株式会社,東京都,港区,西麻布４丁目１１番２－６０６号,,13,103,1060031,,,,,,,2023-07-26,1,,,,,ゼノル,0
1895,8010401175944,新規,0,2023-07-26,2023-07-26,株式会社Ｍｅｄｉｃ,,株式会社,東京都,港区,六本木３丁目１６番２０－１００２号,,13,103,1060032,,,,,,,2023-07-26,1,,,,,メディック,0
1898,8010501050799,新規,0,2023-07-26,2023-07-26,株式会社アイズ,,株式会社,東京都,台東区,池之端２丁目４番１６号池之端マンション６０６,,13,106,1100008,,,,,,,2023-07-26,1,,,,,アイズ,0
1900,8010601063494,新規,0,2023-07-26,2023-07-26,源氏家具株式会社,,株式会社,東京都,江東区,有明３丁目７－２６有明フロンティアビルＢ棟９階,,13,108,1350063,,,,,,,2023-07-26,1,,,,,ゲンジカグ,0
1916,8011001155881,新規,0,2023-07-26,2023-07-26,株式会社ＶＡＳＥ　ＦＩＴＮＥＳＳ,,株式会社,東京都,渋谷区,広尾１丁目１５番３号マスダビル５０１,,13,113,1500012,,,,,,,2023-07-26,1,,,,,ベースフィットネス,0
1920,8011003017205,新規,0,2023-07-26,2023-07-26,合同会社ぽんずハウス,,合同会社,東京都,目黒区,南３丁目３番１８号,,13,110,1520013,,,,,,,2023-07-26,1,,,,,,0
1923,8011101103732,新規,0,2023-07-26,2023-07-26,ｕｎｓｕｎｇ　ｗｏｒｋｓ株式会社,,株式会社,東京都,新宿区,西新宿３丁目３番１３号西新宿水間ビル２Ｆ,,13,104,1600023,,,,,,,2023-07-26,1,,,,,アンサングワークス,0
1924,8011101103749,新規,0,2023-07-26,2023-07-26,環境指標ホールディングス株式会社,,株式会社,東京都,新宿区,岩戸町１８番地,,13,104,1620832,,,,,,,2023-07-26,1,,,,,カンキョウシヒョウホールディングス,0
1927,8011103013252,新規,0,2023-07-26,2023-07-26,合同会社Ｍｉｔｓｕｍａｍｅ　Ｂｏｘ,,合同会社,東京都,新宿区,高田馬場３丁目１番５号サンパティオ高田馬場３０９号室,,13,104,1690075,,,,,,,2023-07-26,1,,,,,ミツマメボックス,0
1930,8011105010735,新規,0,2023-07-26,2023-07-26,一般財団法人ＧｏｖＴｅｃｈ東京,,その他の設立登記法人,東京都,新宿区,西新宿２丁目４番１号,,13,104,1600023,,,,,,,2023-07-26,1,,,,,ガブテックトウキョウ,0
1940,8011501029577,新規,0,2023-07-26,2023-07-26,トップサポート株式会社,,株式会社,東京都,北区,浮間１丁目１番１４－１０４号,,13,117,1150051,,,,,,,2023-07-26,1,,,,,,0
1944,8011701026449,新規,0,2023-07-26,2023-07-26,株式会社２９５,,株式会社,東京都,江戸川区,松本２丁目３番１１号,,13,123,1330043,,,,,,,2023-07-26,1,,,,,フクコ,0
1950,8011801042783,新規,0,2023-07-26,2023-07-26,株式会社２Ｒインテリア,,株式会社,東京都,葛飾区,新宿２丁目２３番１７号,,13,122,1250051,,,,,,,2023-07-26,1,,,,,ダブルアールインテリア,0
1951,8012401040780,新規,0,2023-07-26,2023-07-26,株式会社Ｓｅｌｆｉｅ,,株式会社,東京都,多摩市,東寺方１丁目２１番地の６ｅｐｉｃせいせき１０３,,13,224,2060003,,,,,,,2023-07-26,1,,,,,セルフィー,0
1953,8012403006078,新規,0,2023-07-26,2023-07-26,合同会社ＰｏｐＰｅｔａｌ,,合同会社,東京都,稲城市,平尾３丁目７‐５,,13,225,2060823,,,,,,,2023-07-26,1,,,,,ポップペタル,0
1962,8020001152665,新規,0,2023-07-26,2023-07-26,株式会社ココナッツダイブ,,株式会社,神奈川県,横浜市神奈川区,高島台１７番地２,,14,102,2210833,,,,,,,2023-07-26,1,,,,,ココナッツダイブ,0
1966,8020003024243,新規,0,2023-07-26,2023-07-26,合同会社太鼎堂,,合同会社,神奈川県,横浜市鶴見区,下末吉１丁目２６－２８－２階,,14,101,2300012,,,,,,,2023-07-26,1,,,,,タイテイドウ,0
1967,8020003024276,新規,0,2023-07-26,2023-07-26,Ｒｅｄｐａｎｔｓ合同会社,,合同会社,神奈川県,横浜市鶴見区,潮田町１丁目１１番地１－２０７号室,,14,101,2300041,,,,,,,2023-07-26,1,,,,,レッドパンツ,0
1978,8021005012863,新規,0,2023-07-26,2023-07-26,一般社団法人茶の湯文化学院,,その他の設立登記法人,神奈川県,相模原市南区,相武台２丁目２１番２１号,,14,153,2520324,,,,,,,2023-07-26,1,,,,,,0
1983,8030001155023,新規,0,2023-07-26,2023-07-26,Ｉｖｙ株式会社,,株式会社,埼玉県,越谷市,レイクタウン１丁目２７番地６,,11,222,3430828,,,,,,,2023-07-26,1,,,,,アイビー,0
1984,8030001155072,新規,0,2023-07-26,2023-07-26,ＣＴＳ株式会社,,株式会社,埼玉県,秩父郡横瀬町,大字横瀬６５９１番地８,,11,361,3680072,,,,,,,2023-07-26,1,,,,,シーティーエス,0
1997,8050001053209,新規,0,2023-07-26,2023-07-26,株式会社建美,,株式会社,茨城県,龍ケ崎市,白羽２丁目１０番地５,,08,208,3010841,,,,,,,2023-07-26,1,,,,,ケンビ,0
1999,8070001040667,新規,0,2023-07-26,2023-07-26,株式会社ＡＲＴＥ,,株式会社,群馬県,安中市,郷原６９７番地２,,10,211,3790135,,,,,,,2023-07-26,1,,,,,アルテ,0
2005,8100005013046,新規,0,2023-07-26,2023-07-26,一般社団法人オレンジファム,,その他の設立登記法人,長野県,千曲市,大字内川７０１番地２,,20,218,3890802,,,,,,,2023-07-26,1,,,,,オレンジファム,0
2024,8120001256737,新規,0,2023-07-26,2023-07-26,株式会社ＧＵＩＤＥ４６,,株式会社,大阪府,大阪市北区,長柄東１丁目１番１１－９０５号,,27,127,5310063,,,,,,,2023-07-26,1,,,,,ガイドヨンジュウロク,0
2025,8120001256786,新規,0,2023-07-26,2023-07-26,ワンダリンク株式会社,,株式会社,大阪府,大阪市淀川区,宮原１丁目１９－２３－７０９,,27,123,5320003,,,,,,,2023-07-26,1,,,,,ワンダリンク,0
2026,8120001256794,新規,0,2023-07-26,2023-07-26,株式会社源丸,,株式会社,大阪府,大阪市都島区,片町２丁目７－１１－５０１,,27,102,5340025,,,,,,,2023-07-26,1,,,,,ゲンマル,0
2027,8120003024547,新規,0,2023-07-26,2023-07-26,合同会社ほろよい,,合同会社,大阪府,大阪市城東区,東中浜３丁目２－１６,,27,118,5360023,,,,,,,2023-07-26,1,,,,,ホロヨイ,0
2029,8120101067943,新規,0,2023-07-26,2023-07-26,堀川興産株式会社,,株式会社,大阪府,堺市堺区,三条通１番２号,,27,141,5900046,,,,,,,2023-07-26,1,,,,,ホリカワコウサン,0
2034,8130001074808,新規,0,2023-07-26,2023-07-26,ＥＭＯＮ株式会社,,株式会社,京都府,京都市伏見区,桃山町安芸山１０番地４８,,26,109,6120834,,,,,,,2023-07-26,1,,,,,エモン,0
2035,8130003008870,新規,0,2023-07-26,2023-07-26,合同会社こごろ研究所,,合同会社,京都府,京都市西京区,大原野南春日町１１５２,,26,111,6101153,,,,,,,2023-07-26,1,,,,,コゴロケンキュウショ,0
2041,8140001131013,新規,0,2023-07-26,2023-07-26,株式会社やまなか鉄工所,,株式会社,兵庫県,美方郡新温泉町,浜坂３６４番地の５,,28,586,6696702,,,,,,,2023-07-26,1,,,,,ヤマナカテッコウショ,0
2043,8140005026696,新規,0,2023-07-26,2023-07-26,一般社団法人パラフットボール,,その他の設立登記法人,兵庫県,姫路市,神屋町３丁目１５番地クリーンピア神屋町２０６号,,28,201,6700836,,,,,,,2023-07-26,1,,,,,パラフットボール,0
2046,8160001025213,新規,0,2023-07-26,2023-07-26,株式会社ＫＯＮＯＫＵＮＩ,,株式会社,滋賀県,大津市,秋葉台３０番３号,,25,201,5200822,,,,,,,2023-07-26,1,,,,,コノクニ,0
2053,8180001157277,新規,0,2023-07-26,2023-07-26,株式会社コスモツリー,,株式会社,愛知県,名古屋市千種区,春岡通７丁目２６番地ＮＫＳビル３－Ａ,,23,101,4640847,,,,,,,2023-07-26,1,,,,,コスモツリー,0
2054,8180001157285,新規,0,2023-07-26,2023-07-26,シープラス株式会社,,株式会社,愛知県,あま市,篠田八原７８番地３,,23,237,4901211,,,,,,,2023-07-26,1,,,,,シープラス,0
2055,8180001157293,新規,0,2023-07-26,2023-07-26,株式会社魔法のランプ,,株式会社,愛知県,名古屋市緑区,神沢１丁目１６１５番地の１,,23,114,4580014,,,,,,,2023-07-26,1,,,,,マホウノランプ,0
2056,8180001157302,新規,0,2023-07-26,2023-07-26,株式会社ＭＴ,,株式会社,愛知県,春日井市,神屋町字北海道１２２９番地２－Ａ室,,23,206,4800304,,,,,,,2023-07-26,1,,,,,エムティー,0
2058,8180003025523,新規,0,2023-07-26,2023-07-26,合同会社ＭＩＧＡＫＩ,,合同会社,愛知県,名古屋市中村区,名駅５丁目３１番１０号リンクス名駅１２０２,,23,105,4500002,,,,,,,2023-07-26,1,,,,,ミガキ,0
2067,8200003006017,新規,0,2023-07-26,2023-07-26,合同会社ＮＥＸＴＩＮＮＯＶＡＴＩＯＮ,,合同会社,岐阜県,多治見市,市之倉町６丁目７２番地の２,,21,204,5070814,,,,,,,2023-07-26,1,,,,,ネクストイノベーション,0
2068,8200005013507,新規,0,2023-07-26,2023-07-26,一般社団法人羽生の森,,その他の設立登記法人,岐阜県,加茂郡富加町,羽生１４６０番地１,,21,502,5013303,,,,,,,2023-07-26,1,,,,,ハニュウノモリ,0
2069,8220003003557,新規,0,2023-07-26,2023-07-26,合同会社ＣＡＲＤＲＥＡＭ,,合同会社,石川県,金沢市,昭和町７番５号,,17,201,9200856,,,,,,,2023-07-26,1,,,,,カードリーム,0
2073,8240001061852,新規,0,2023-07-26,2023-07-26,株式会社ＹＭＹ,,株式会社,広島県,広島市中区,昭和町８番１５号,,34,101,7300046,,,,,,,2023-07-26,1,,,,,ワイエムワイ,0
2074,8240001061860,新規,0,2023-07-26,2023-07-26,株式会社ＴＹ,,株式会社,広島県,広島市安佐南区,長束西２丁目４３番１９号,,34,105,7310136,,,,,,,2023-07-26,1,,,,,ティーワイ,0
2075,8240003006236,新規,0,2023-07-26,2023-07-26,合同会社ＫＥＮＫＩ　ＴＲＡＤＩＮＧ,,合同会社,広島県,福山市,三吉町南１丁目５番７号,,34,207,7200032,,,,,,,2023-07-26,1,,,,,ケンキトレーディング,0
2092,8290001102379,新規,0,2023-07-26,2023-07-26,捷迅商事株式会社,,株式会社,福岡県,福岡市東区,多の津１丁目１０－１－４３０,,40,131,8130034,,,,,,,2023-07-26,1,,,,,ショウシンショウジ,0
2093,8290001102404,新規,0,2023-07-26,2023-07-26,株式会社エムアイ,,株式会社,福岡県,大野城市,川久保３丁目６番１４－２号,,40,219,8160905,,,,,,,2023-07-26,1,,,,,エムアイ,0
2094,8290001102412,新規,0,2023-07-26,2023-07-26,０１Ｄｉｖｅｒｓｅ株式会社,,株式会社,福岡県,福岡市博多区,那珂３丁目２５番２０－７０３号アムール板付７,,40,132,8120893,,,,,,,2023-07-26,1,,,,,ゼロワンダイバース,0
2100,8290801029730,新規,0,2023-07-26,2023-07-26,Ｌ．Ｌワークス株式会社,,株式会社,福岡県,北九州市小倉北区,浅野２丁目１５番１５号,,40,106,8020001,,,,,,,2023-07-26,1,,,,,エルエルワークス,0
2107,8320001019900,新規,0,2023-07-26,2023-07-26,株式会社Ｈ，Ｙ，Ｓ,,株式会社,大分県,大分市,賀来南１丁目４番３９号,,44,201,8700849,,,,,,,2023-07-26,1,,,,,エイチワイエス,0
2138,8430001089536,新規,0,2023-07-26,2023-07-26,株式会社Ａｏ．ｈｏｍｅ,,株式会社,北海道,札幌市東区,北二十一条東２０丁目１－２０夢ハウス１０１,,01,103,0650021,,,,,,,2023-07-26,1,,,,,アオホーム,0
2139,8430003015250,新規,0,2023-07-26,2023-07-26,合同会社ナチュラル運送,,合同会社,北海道,札幌市東区,本町一条４丁目１番１０号,,01,103,0650041,,,,,,,2023-07-26,1,,,,,ナチュラルウンソウ,0
2140,8430003015309,新規,0,2023-07-26,2023-07-26,合同会社ムイムイ,,合同会社,北海道,札幌市西区,発寒四条３丁目４番５１号,,01,107,0630824,,,,,,,2023-07-26,1,,,,,ムイムイ,0
2143,8450003002362,新規,0,2023-07-26,2023-07-26,合同会社リトール,,合同会社,北海道,旭川市,東光十条４丁目１番１７号,,01,204,0788350,,,,,,,2023-07-26,1,,,,,,0
2146,8470001019720,新規,0,2023-07-26,2023-07-26,株式会社憧栄工業,,株式会社,香川県,丸亀市,垂水町２２３番地１６,,37,202,7630095,,,,,,,2023-07-26,1,,,,,ショウエイコウギョウ,0
2159,9010001236781,新規,0,2023-07-26,2023-07-26,ＷＪＰ株式会社,,株式会社,東京都,中央区,銀座６丁目１３番７号新保ビル４０６号室,,13,102,1040061,,,,,,,2023-07-26,1,,,,,ダブリュージェイピー,0
2160,9010001237152,新規,0,2023-07-26,2023-07-26,ＴＯＲＡ　Ａｓｓｅｔ　Ｉｎｖｅｓｔｍｅｎｔ株式会社,,株式会社,東京都,千代田区,九段南４丁目２－１２伊藤ビル２０３,,13,101,1020074,,,,,,,2023-07-26,1,,,,,トラアセットインベストメント,0
2167,9010003041197,新規,0,2023-07-26,2023-07-26,合同会社アサツナヘルスケアフーズ,,合同会社,東京都,中央区,銀座６丁目１３番１６号銀座ＷａｌｌビルＵＣＦ５０１,,13,102,1040061,,,,,,,2023-07-26,1,,,,,アサツナヘルスケアフーズ,0
2180,9010403030493,新規,0,2023-07-26,2023-07-26,合同会社エムシーツー,,合同会社,東京都,港区,西麻布４丁目１１－２８－５０２,,13,103,1060031,,,,,,,2023-07-26,1,,,,,エムシーツー,0
2181,9010403030568,新規,0,2023-07-26,2023-07-26,合同会社地域再生土地流動化協会１,,合同会社,東京都,港区,赤坂２丁目２１－２第２村嶋ビル４０４,,13,103,1070052,,,,,,,2023-07-26,1,,,,,チイキサイセイトチリュウドウカキョウカイイチ,0
2182,9010405022365,新規,0,2023-07-26,2023-07-26,唐花一般社団法人,,その他の設立登記法人,東京都,港区,西新橋１丁目１番１号ＥＰコンサルティングサービス内,,13,103,1050003,,,,,,,2023-07-26,1,,,,,カラハナ,0
2190,9010801034179,新規,0,2023-07-26,2023-07-26,株式会社古源,,株式会社,東京都,大田区,西六郷２丁目３２番３－１号,,13,111,1440056,,,,,,,2023-07-26,1,,,,,コゲン,0
2196,9010901053491,新規,0,2023-07-26,2023-07-26,株式会社ＯＲＩＥＮＴ,,株式会社,東京都,世田谷区,奥沢２丁目３７番９号,,13,112,1580083,,,,,,,2023-07-26,1,,,,,オリエント,0
2197,9010901053500,新規,0,2023-07-26,2023-07-26,株式会社ＨＡＲＵ,,株式会社,東京都,世田谷区,大原２丁目１７番１２号,,13,112,1560041,,,,,,,2023-07-26,1,,,,,ハル,0
2198,9010903008337,新規,0,2023-07-26,2023-07-26,合同会社吉澤,,合同会社,東京都,世田谷区,代沢４丁目４０－１０－Ｅ,,13,112,1550032,,,,,,,2023-07-26,1,,,,,ヨシザワ,0
2201,9011003017229,新規,0,2023-07-26,2023-07-26,合同会社リリーキャピタル,,合同会社,東京都,渋谷区,上原２丁目３４番３号,,13,113,1510064,,,,,,,2023-07-26,1,,,,,リリーキャピタル,0
2207,9011101103731,新規,0,2023-07-26,2023-07-26,Ｇｅｎｔｒｙ株式会社,,株式会社,東京都,新宿区,西新宿８丁目１１－１０星野ビル３階,,13,104,1600023,,,,,,,2023-07-26,1,,,,,ジェントリィ,0
2208,9011101103756,新規,0,2023-07-26,2023-07-26,株式会社Ｆｕｔｕｒｅ,,株式会社,東京都,新宿区,百人町２丁目２１番３号－４Ｆ,,13,104,1690073,,,,,,,2023-07-26,1,,,,,フューチャー,0
2210,9011103013292,新規,0,2023-07-26,2023-07-26,合同会社ＡＨＮＡＯ,,合同会社,東京都,新宿区,新宿２丁目４番１号第２２宮廷マンション１０７号室,,13,104,1600022,,,,,,,2023-07-26,1,,,,,アンアオ,0
2217,9011803005754,新規,0,2023-07-26,2023-07-26,合同会社笑顔,,合同会社,東京都,足立区,弘道２丁目１２番４号晝間ＢＲＷ１０３,,13,121,1200013,,,,,,,2023-07-26,1,,,,,エガオ,0
2225,9012703002750,新規,0,2023-07-26,2023-07-26,北夏合同会社,,合同会社,東京都,東久留米市,東本町１１番８号,,13,222,2030014,,,,,,,2023-07-26,1,,,,,ホクカ,0
2226,9012703002759,新規,0,2023-07-26,2023-07-26,合同会社ピトレスク,,合同会社,東京都,西東京市,東町２丁目１６番２４号,,13,229,2020012,,,,,,,2023-07-26,1,,,,,ピトレスク,0
2238,9020003024226,新規,0,2023-07-26,2023-07-26,ＢＡＢＡ合同会社,,合同会社,神奈川県,横浜市瀬谷区,瀬谷４丁目８－１３川口ビル１－５０３,,14,114,2460031,,,,,,,2023-07-26,1,,,,,ババ,0
2239,9020005016072,新規,0,2023-07-26,2023-07-26,一般社団法人美進會,,その他の設立登記法人,神奈川県,横浜市神奈川区,鶴屋町３丁目２９番地４ＣＲＡＮＥＣＯＲＮＥＲ２階,,14,102,2210835,,,,,,,2023-07-26,1,,,,,ビシンカイ,0
2244,9021005012862,新規,0,2023-07-26,2023-07-26,ＮＰＯ法人風鈴,,その他の設立登記法人,神奈川県,海老名市,門沢橋４丁目８番１５号,,14,215,2430426,,,,,,,2023-07-26,1,,,,,フウリン,0
2251,9030001155006,新規,0,2023-07-26,2023-07-26,株式会社Ｓｅｅｄｓ,,株式会社,埼玉県,富士見市,羽沢１丁目１４番２３号,,11,235,3540033,,,,,,,2023-07-26,1,,,,,シーズ,0
2252,9030003022170,新規,0,2023-07-26,2023-07-26,ＨＡＮＨ　ＭＯＯＮ合同会社,,合同会社,埼玉県,所沢市,東町２４番６－２０１号,,11,208,3591116,,,,,,,2023-07-26,1,,,,,ハンムーン,0
2302,9120001256760,新規,0,2023-07-26,2023-07-26,株式会社ｔｈｒｅｅ　ａｒｒｏｗｓ,,株式会社,大阪府,大阪市東淀川区,豊里７丁目２番７号,,27,114,5330013,,,,,,,2023-07-26,1,,,,,スリーアローズ,0
2303,9120001256777,新規,0,2023-07-26,2023-07-26,株式会社ＫＡＮＳＡＩ　ＢＯＹＡ,,株式会社,大阪府,大阪市浪速区,難波中２丁目１０番５２－４０６号,,27,111,5560011,,,,,,,2023-07-26,1,,,,,カンサイボーヤ,0
2304,9120001256785,新規,0,2023-07-26,2023-07-26,株式会社ホームジャパン,,株式会社,大阪府,大阪市淀川区,西中島３丁目１１番２６号,,27,123,5320011,,,,,,,2023-07-26,1,,,,,ホームジャパン,0
2305,9120001256793,新規,0,2023-07-26,2023-07-26,一暁株式会社,,株式会社,大阪府,大阪市東淀川区,井高野２丁目５番１３－３０１号,,27,114,5330001,,,,,,,2023-07-26,1,,,,,イチギョウ,0
2306,9120003024579,新規,0,2023-07-26,2023-07-26,Ｇ・Ｍインターナショナル合同会社,,合同会社,大阪府,大阪市住之江区,御崎６丁目３番３０号,,27,125,5590013,,,,,,,2023-07-26,1,,,,,ジーエムインターナショナル,0
2308,9120005023769,新規,0,2023-07-26,2023-07-26,一般社団法人社会福祉介護支援機構,,その他の設立登記法人,大阪府,大阪市天王寺区,真田山町２番９号ガーデンヒルズ天王寺ビル３Ｆ,,27,109,5430015,,,,,,,2023-07-26,1,,,,,シャカイフクシカイゴシエンキコウ,0
2318,9130003008878,新規,0,2023-07-26,2023-07-26,合同会社田村商店,,合同会社,京都府,城陽市,平川車塚７７番地の６,,26,207,6100101,,,,,,,2023-07-26,1,,,,,タムラショウテン,0
2322,9140001130996,新規,0,2023-07-26,2023-07-26,株式会社ＺＥＲＯＴＥＣ,,株式会社,兵庫県,高砂市,中島１丁目１７番２１－３号,,28,216,6760001,,,,,,,2023-07-26,1,,,,,ゼロテック,0
2326,9150001026566,新規,0,2023-07-26,2023-07-26,Ｍｕｔｕａｌ　Ｄｒｅａｍｓ株式会社,,株式会社,奈良県,橿原市,内膳町３丁目４－４－２０３,,29,205,6340804,,,,,,,2023-07-26,1,,,,,ミューチュアルドリームズ,0
2328,9160001025212,新規,0,2023-07-26,2023-07-26,株式会社ｓｋｙｓｏｎｇ,,株式会社,滋賀県,大津市,松が丘４丁目２番１０号,,25,201,5202102,,,,,,,2023-07-26,1,,,,,スカイソング,0
2339,9180001157251,新規,0,2023-07-26,2023-07-26,ＸＮＰ株式会社,,株式会社,愛知県,名古屋市千種区,今池４丁目４番１号玉置ビル,,23,101,4640850,,,,,,,2023-07-26,1,,,,,エックスエヌピー,0
2340,9180001157284,新規,0,2023-07-26,2023-07-26,南知多未来パートナーズ株式会社,,株式会社,愛知県,知多郡南知多町,大字豊浜字豊浦１番地の１３,,23,445,4703412,,,,,,,2023-07-26,1,,,,,ミナミチタミライパートナーズ,0
2351,9190001030606,新規,0,2023-07-26,2023-07-26,株式会社ＴＳＵＢＡＳＡ,,株式会社,三重県,鈴鹿市,山本町東野１０番２,,24,207,5190315,,,,,,,2023-07-26,1,,,,,ツバサ,0
2358,9200005013506,新規,0,2023-07-26,2023-07-26,農事組合法人花の恵,,その他の設立登記法人,岐阜県,恵那市,武並町藤３９１番地５,,21,210,5097121,,,,,,,2023-07-26,1,,,,,ハナノメグミ,0
2363,9240001061851,新規,0,2023-07-26,2023-07-26,株式会社リライフ研究所,,株式会社,広島県,広島市中区,大手町１丁目１－２０相生橋ビル７階Ａ号室,,34,101,7300051,,,,,,,2023-07-26,1,,,,,,0
2375,9290001102403,新規,0,2023-07-26,2023-07-26,株式会社メルカトル,,株式会社,福岡県,福岡市中央区,大手門１丁目５番１１号,,40,133,8100074,,,,,,,2023-07-26,1,,,,,メルカトル,0
2382,9310001018530,新規,0,2023-07-26,2023-07-26,株式会社モームシステム,,株式会社,長崎県,佐世保市,宮田町１２－４,,42,202,8570032,,,,,,,2023-07-26,1,,,,,モームシステム,0
2389,9340001025747,新規,0,2023-07-26,2023-07-26,株式会社福田商店,,株式会社,鹿児島県,大島郡伊仙町,大字目手久２８２番地１,,46,532,8918113,,,,,,,2023-07-26,1,,,,,フクダショウテン,0
2393,9360001032329,新規,0,2023-07-26,2023-07-26,株式会社Ｈ＆Ｎ,,株式会社,沖縄県,中頭郡中城村,字南上原１１５１－２ストーンフィールド１０１,,47,328,9012424,,,,,,,2023-07-26,1,,,,,エイチアンドエヌ,0
2399,9360003013137,新規,0,2023-07-26,2023-07-26,Ｌ．Ｔａｎｏ合同会社,,合同会社,沖縄県,中頭郡北谷町,字吉原１２０５番地７仲村渠アパート２０１,,47,326,9040105,,,,,,,2023-07-26,1,,,,,エルタニュウ,0
2403,9370003006214,新規,0,2023-07-26,2023-07-26,合同会社ＩＴＯ‐ＫＥＮＣＨＩＫＵ,,合同会社,宮城県,名取市,植松４丁目８番２５－８号ラスティー植松,,04,207,9811226,,,,,,,2023-07-26,1,,,,,イトウケンチク,0
2417,9380003005520,新規,0,2023-07-26,2023-07-26,合同会社柊,,合同会社,福島県,南相馬市,鹿島区西町２丁目１５２,,07,212,9792334,,,,,,,2023-07-26,1,,,,,ヒイラギ,0
2424,9430001089502,新規,0,2023-07-26,2023-07-26,株式会社大川写真事務所,,株式会社,北海道,札幌市白石区,東札幌六条５丁目２番６－５０３号,,01,104,0030006,,,,,,,2023-07-26,1,,,,,オオカワシャシンジムショ,0
2425,9430001089519,新規,0,2023-07-26,2023-07-26,株式会社Ｎａｂｉ,,株式会社,北海道,札幌市中央区,南二条西１２丁目３２３番地８Ｒｏｙａｌ　Ｈｙａｔｔ２０１号,,01,101,0600062,,,,,,,2023-07-26,1,,,,,ナビ,0
2426,9430003015258,新規,0,2023-07-26,2023-07-26,合同会社エルピーダ,,合同会社,北海道,札幌市白石区,北郷二条１１丁目７番４号,,01,104,0030832,,,,,,,2023-07-26,1,,,,,,0
2429,9462501000960,新規,0,2023-07-26,2023-07-26,株式会社ドラゴン,,株式会社,北海道,標津郡中標津町,東二十条南６丁目１３番地,,01,692,0861020,,,,,,,2023-07-26,1,,,,,ドラゴン,0
2431,9480001012153,新規,0,2023-07-26,2023-07-26,株式会社エスティネオ,,株式会社,徳島県,板野郡藍住町,笠木字西野３９番地２８,,36,403,7711262,,,,,,,2023-07-26,1,,,,,エスティネオ,0
