sequenceNumber,corporateNumber,process,correct,updateDate,changeDate,name,nameImageId,kind,prefectureName,cityName,streetNumber,addressImageId,prefectureCode,cityCode,postCode,addressOutside,addressOutsideImageId,closeDate,closeCause,successorCorporateNumber,changeCause,assignmentDate,latest,enName,enPrefectureName,enCityName,enAddressOutside,furigana,hihyoji
16,1010001244734,新規,0,2024-05-15,2024-05-15,株式会社ＩＺＡＩ,,株式会社,東京都,文京区,本郷５丁目２３番８号,,13,105,1130033,,,,,,,2024-05-15,1,,,,,イザイ,0
17,1010001244750,新規,0,2024-05-15,2024-05-15,株式会社エイチツー・グループカンパニー,,株式会社,東京都,中央区,日本橋横山町６番８号,,13,102,1030003,,,,,,,2024-05-15,1,,,,,,0
18,1010001244775,新規,0,2024-05-15,2024-05-15,ＪＰＶ第２１号株式会社,,株式会社,東京都,千代田区,霞が関３丁目２番１号,,13,101,1000013,,,,,,,2024-05-15,1,,,,,ジェイピーブイダイニジュウイチゴウ,0
20,1010003043746,新規,0,2024-05-15,2024-05-15,合同会社Ａｓｃｏｔ　Ｐｒｉｍｅ　Ｌｏｇｉｓｔｉｃｓ鶴ヶ島,,合同会社,東京都,千代田区,丸の内３丁目１番１号東京共同会計事務所内,,13,101,1000005,,,,,,,2024-05-15,1,,,,,アスコットプライムロジスティクスツルガシマ,0
30,1010401182410,新規,0,2024-05-15,2024-05-15,株式会社Ａ’ａｌｄａ　Ａｎｉｍａｌ　Ｈｏｓｐｉｔａｌ　ＳＰＣ３号,,株式会社,東京都,港区,新橋６丁目１１番８号ＰＯＲＴＯＮＥＳＨＩＭＢＡＳＨＩ３Ｆ,,13,103,1050004,,,,,,,2024-05-15,1,,,,,アルダアニマルホスピタルエスピーシーサンゴウ,0
31,1010401182427,新規,0,2024-05-15,2024-05-15,株式会社Ｌａ　ｖｉｅ　ｅｔメディカルバンク,,株式会社,東京都,港区,麻布台３丁目１番６号飯倉片町アネックスビル３Ｆ,,13,103,1060041,,,,,,,2024-05-15,1,,,,,ラヴィエメディカルバンク,0
32,1010401182443,新規,0,2024-05-15,2024-05-15,ＡＩ　ＵＳテクノロジー株式会社,,株式会社,東京都,港区,六本木６丁目１０番１号,,13,103,1060032,,,,,,,2024-05-15,1,,,,,エーアイユーエステクノロジー,0
33,1010401182451,新規,0,2024-05-15,2024-05-15,株式会社新発想,,株式会社,東京都,港区,南青山２丁目４番１５－３０７号,,13,103,1070062,,,,,,,2024-05-15,1,,,,,シンハッソウ,0
55,1011001161861,新規,0,2024-05-15,2024-05-15,株式会社アセットフォース,,株式会社,東京都,渋谷区,道玄坂１丁目１０番８号渋谷道玄坂東急ビル２Ｆ－Ｃ,,13,113,1500043,,,,,,,2024-05-15,1,,,,,アセットフォース,0
56,1011001161911,新規,0,2024-05-15,2024-05-15,株式会社ＰＯＣ,,株式会社,東京都,渋谷区,恵比寿南１丁目１７番１６号グランベル恵比寿Ｖ３階,00134764,13,113,1500022,,,,,,,2024-05-15,1,,,,,ポック,0
58,1011003019026,新規,0,2024-05-15,2024-05-15,合同会社ファーストバイト,,合同会社,東京都,渋谷区,渋谷２丁目１９‐１５宮益坂ビルディング６０９,,13,113,1500002,,,,,,,2024-05-15,1,,,,,ファーストバイト,0
59,1011003019091,新規,0,2024-05-15,2024-05-15,合同会社Ｓｔｕｄｉｏ　Ｔｈｅ　Ｆｕｔｕｒｅ　Ｊａｐａｎ,,合同会社,東京都,目黒区,上目黒１丁目３番９号藤屋ビル５Ｆ,,13,110,1530051,,,,,,,2024-05-15,1,,,,,スタジオザフューチャージャパン,0
60,1011003019133,新規,0,2024-05-15,2024-05-15,ハニカム１合同会社,,合同会社,東京都,渋谷区,道玄坂１丁目１０番８号渋谷道玄坂東急ビル２Ｆ－Ｃ,,13,113,1500043,,,,,,,2024-05-15,1,,,,,ハニカムワン,0
61,1011003019141,新規,0,2024-05-15,2024-05-15,ハニカム９合同会社,,合同会社,東京都,渋谷区,道玄坂１丁目１０番８号渋谷道玄坂東急ビル２Ｆ－Ｃ,,13,113,1500043,,,,,,,2024-05-15,1,,,,,ハニカムナイン,0
67,1011103014414,新規,0,2024-05-15,2024-05-15,パレス合同会社,,合同会社,東京都,新宿区,早稲田南町３３－２０１,,13,104,1620043,,,,,,,2024-05-15,1,,,,,パレス,0
70,1011503006060,新規,0,2024-05-15,2024-05-15,合同会社Ｅ’ｎｅ,,合同会社,東京都,荒川区,西日暮里２丁目３２－１０グロリアス東京３Ｆ,,13,118,1160013,,,,,,,2024-05-15,1,,,,,イーエヌイー,0
72,1011601027751,新規,0,2024-05-15,2024-05-15,株式会社ｐｅｔｉｔ　ｂｏｎｈｅｕｒ,,株式会社,東京都,練馬区,旭丘１丁目５６－２あさひやビル４０２号室,,13,120,1760005,,,,,,,2024-05-15,1,,,,,プティボネール,0
73,1011603004344,新規,0,2024-05-15,2024-05-15,赤尾国際貿易合同会社,,合同会社,東京都,練馬区,旭町３丁目２８番６号,,13,120,1790071,,,,,,,2024-05-15,1,,,,,アカオコクサイボウエキ,0
85,1020001157209,新規,0,2024-05-15,2024-05-15,株式会社七福,,株式会社,神奈川県,川崎市幸区,中幸町１丁目４２番地,,14,132,2120012,,,,,,,2024-05-15,1,,,,,シチフク,0
90,1020003026106,新規,0,2024-05-15,2024-05-15,かとう商会合同会社,,合同会社,神奈川県,横浜市旭区,東希望が丘７６番地３９,,14,112,2410826,,,,,,,2024-05-15,1,,,,,カトウショウカイ,0
96,1021003014496,新規,0,2024-05-15,2024-05-15,ＩＥＫＡＲＡ合同会社,,合同会社,神奈川県,愛甲郡愛川町,半原１９３８－１,,14,401,2430307,,,,,,,2024-05-15,1,,,,,イエカラ,0
97,1021005013109,新規,0,2024-05-15,2024-05-15,一般社団法人月と海,,その他の設立登記法人,神奈川県,足柄下郡真鶴町,真鶴１８６２－２０サニーヒル真鶴３号館－１０２,,14,383,2590201,,,,,,,2024-05-15,1,,,,,ツキトウミ,0
102,1030001160351,新規,0,2024-05-15,2024-05-15,株式会社晴,,株式会社,埼玉県,川口市,芝樋ノ爪２丁目１３番１号スターフィールドＡ２０１号,,11,203,3330852,,,,,,,2024-05-15,1,,,,,セイ,0
103,1030003024273,新規,0,2024-05-15,2024-05-15,合同会社ＳＳＩ　ＪＡＰＡＮ,,合同会社,埼玉県,戸田市,美女木１丁目２番地の１２－１階Ｂ室,,11,224,3350031,,,,,,,2024-05-15,1,,,,,エスエスアイジャパン,0
109,1040001133546,新規,0,2024-05-15,2024-05-15,株式会社ＰＡＳＳＩＯＮ,,株式会社,千葉県,富里市,日吉台６丁目７番地２,,12,233,2860201,,,,,,,2024-05-15,1,,,,,パッション,0
112,1050003008357,新規,0,2024-05-15,2024-05-15,ＡＺ貿易合同会社,,合同会社,茨城県,坂東市,寺久字向地１０５４番３,,08,228,3060656,,,,,,,2024-05-15,1,,,,,エーゼットボウエキ,0
113,1050003008365,新規,0,2024-05-15,2024-05-15,合同会社メイビー,,合同会社,茨城県,結城市,大字結城９６１３番地８,,08,207,3070001,,,,,,,2024-05-15,1,,,,,メイビー,0
115,1060001037084,新規,0,2024-05-15,2024-05-15,株式会社諏訪電気,,株式会社,栃木県,日光市,小代２８９番地３１４,,09,206,3211107,,,,,,,2024-05-15,1,,,,,スワデンキ,0
145,1120001264804,新規,0,2024-05-15,2024-05-15,株式会社Ｄｅｌｉｂｉｒｄ,,株式会社,大阪府,大阪市北区,大淀南３丁目６番４号ファーストコート西梅田２０４号室,,27,127,5310075,,,,,,,2024-05-15,1,,,,,デリバード,0
146,1120001264861,新規,0,2024-05-15,2024-05-15,ＬＡＬＡ株式会社,,株式会社,大阪府,大阪市港区,市岡元町１丁目６番１１－５０６号室,,27,107,5520002,,,,,,,2024-05-15,1,,,,,ララ,0
147,1120001264878,新規,0,2024-05-15,2024-05-15,ＴＳＫ株式会社,,株式会社,大阪府,大阪市生野区,桃谷１丁目１番１３号リブコートマキ１０３号室,,27,116,5440034,,,,,,,2024-05-15,1,,,,,ティーエスケイ,0
148,1120001264886,新規,0,2024-05-15,2024-05-15,芦田製作所株式会社,00134774,株式会社,大阪府,門真市,桑才新町１８番１５号,,27,223,5710043,,,,,,,2024-05-15,1,,,,,アシダセイサクショ,0
150,1120003026566,新規,0,2024-05-15,2024-05-15,合同会社天然材料研究所,,合同会社,大阪府,大阪市北区,梅田１丁目２番２号大阪駅前第２ビル１２－１２,,27,127,5300001,,,,,,,2024-05-15,1,,,,,テンネンザイリョウケンキュウショ,0
151,1120003026582,新規,0,2024-05-15,2024-05-15,合同会社ＬＩＮＫ,,合同会社,大阪府,大阪市北区,東天満２丁目２番地１５号第６新興ビル４０６,,27,127,5300044,,,,,,,2024-05-15,1,,,,,リンク,0
153,1120101069566,新規,0,2024-05-15,2024-05-15,株式会社Ｒｅｐａｅｘ,,株式会社,大阪府,貝塚市,東山２丁目１８番９号,,27,208,5970046,,,,,,,2024-05-15,1,,,,,リペックス,0
154,1120101069582,新規,0,2024-05-15,2024-05-15,株式会社Ｂ．Ｉ．Ｇ,,株式会社,大阪府,泉北郡忠岡町,高月南３丁目１６番１９号,,27,341,5950802,,,,,,,2024-05-15,1,,,,,ビーアイジー,0
164,1140001134410,新規,0,2024-05-15,2024-05-15,西宮商事株式会社,,株式会社,兵庫県,西宮市,小松北町２丁目３番９号,,28,204,6638126,,,,,,,2024-05-15,1,,,,,ニシノミヤショウジ,0
165,1140003020575,新規,0,2024-05-15,2024-05-15,合同会社きいち,,合同会社,兵庫県,宝塚市,月見山１丁目１３番２５号,,28,214,6650002,,,,,,,2024-05-15,1,,,,,キイチ,0
177,1180001161392,新規,0,2024-05-15,2024-05-15,金田株式会社,,株式会社,愛知県,名古屋市天白区,元八事２丁目１１０番地,,23,116,4680066,,,,,,,2024-05-15,1,,,,,カネダ,0
178,1180001161401,新規,0,2024-05-15,2024-05-15,株式会社Ｔ‐ＰＡＮＥＬ,,株式会社,愛知県,海部郡大治町,大字長牧字浦畑１２８番地,,23,424,4901131,,,,,,,2024-05-15,1,,,,,ティーパネル,0
179,1180001161459,新規,0,2024-05-15,2024-05-15,株式会社恵比須,,株式会社,愛知県,名古屋市守山区,桔梗平３丁目８０１番地の３,,23,113,4630814,,,,,,,2024-05-15,1,,,,,エビス,0
197,1220001026005,新規,0,2024-05-15,2024-05-15,株式会社大日工業,,株式会社,石川県,金沢市,若宮１丁目１１０番地１,,17,201,9200054,,,,,,,2024-05-15,1,,,,,ダイニチコウギョウ,0
204,1230001020345,新規,0,2024-05-15,2024-05-15,エーエスプラント株式会社,,株式会社,富山県,富山市,愛宕町２丁目１番６号,,16,201,9300091,,,,,,,2024-05-15,1,,,,,エーエスプラント,0
210,1260001039060,新規,0,2024-05-15,2024-05-15,マーケプラス株式会社,,株式会社,岡山県,総社市,清音軽部１５５０番地５,,33,208,7191172,,,,,,,2024-05-15,1,,,,,マーケプラス,0
213,1290001105652,新規,0,2024-05-15,2024-05-15,株式会社ＷＨＩＴＥ商会,,株式会社,福岡県,福岡市東区,箱崎１丁目２０番２３－４０６号,,40,131,8120053,,,,,,,2024-05-15,1,,,,,ホワイトショウカイ,0
214,1290001105660,新規,0,2024-05-15,2024-05-15,株式会社愛心,,株式会社,福岡県,筑紫野市,筑紫駅前通１丁目１５４番地１,,40,217,8180022,,,,,,,2024-05-15,1,,,,,アイシン,0
215,1290001105669,新規,0,2024-05-15,2024-05-15,株式会社ユニバースグループ,,株式会社,福岡県,福岡市西区,大字金武５９１番地,,40,135,8190035,,,,,,,2024-05-15,1,,,,,ユニバースグループ,0
216,1290001105677,新規,0,2024-05-15,2024-05-15,グッドライフ株式会社,,株式会社,福岡県,糸島市,前原中央２丁目１０番２３号,,40,230,8191116,,,,,,,2024-05-15,1,,,,,グッドライフ,0
217,1290001105702,新規,0,2024-05-15,2024-05-15,株式会社ゼニス,,株式会社,福岡県,福岡市東区,箱崎４丁目９番２３号,,40,131,8120053,,,,,,,2024-05-15,1,,,,,ゼニス,0
224,1290003015271,新規,0,2024-05-15,2024-05-15,合同会社Ｘ,,合同会社,福岡県,福岡市中央区,小笹３丁目２０番１１－１０１号,,40,133,8100033,,,,,,,2024-05-15,1,,,,,エックス,0
229,1330001032066,新規,0,2024-05-15,2024-05-15,熊厚株式会社,,株式会社,熊本県,菊池郡大津町,大字引水８２８ー８,,43,403,8691234,,,,,,,2024-05-15,1,,,,,ユウコウ,0
240,1360001033648,新規,0,2024-05-15,2024-05-15,株式会社コトブキコーポレーション,,株式会社,沖縄県,浦添市,仲間１丁目３０番１２号１０２号,,47,208,9012103,,,,,,,2024-05-15,1,,,,,コトブキコーポレーション,0
254,1410003003924,新規,0,2024-05-15,2024-05-15,合同会社ＡｋｉｔａＥｎｇｌｉｓｈＡｃａｄｅｍｙ,,合同会社,秋田県,秋田市,保戸野原の町６番１７号,,05,201,0100904,,,,,,,2024-05-15,1,,,,,,0
255,1420001018725,新規,0,2024-05-15,2024-05-15,株式会社ＫＳＢ,,株式会社,青森県,つがる市,富萢町去来見２４番地１,,02,209,0383301,,,,,,,2024-05-15,1,,,,,ケイエスビー,0
258,1430001091812,新規,0,2024-05-15,2024-05-15,株式会社北昇,,株式会社,北海道,札幌市北区,拓北一条３丁目５番１２号,,01,102,0028061,,,,,,,2024-05-15,1,,,,,ホクショウ,0
262,1500001025630,新規,0,2024-05-15,2024-05-15,株式会社ＤＧＭＡＣ,,株式会社,愛媛県,松山市,宮田町１８３番地６,,38,201,7900066,,,,,,,2024-05-15,1,,,,,デジマック,0
264,1700150125384,新規,0,2024-05-15,2024-05-15,Ｑｉｎｇｄａｏ　Ａｉ　Ｒｉ　Ｎｕｏ　Ｔｅｎｇ　ｔｒａｄｉｎｇ　ｃｏ．，ｌｔｄ,,外国会社等,,,,,,,,Ｈｕａｎｇ　Ｄａｏ　Ｑｕ　Ｈａｉ　Ｎａｎ　Ｄａｏ　Ｌｕ　１６３　Ｈａｏ　Ｈ１３０８　Ｓｉ　Ｑｉｎｇｄａｏ　Ｓｈａｎｄｏｎｇ,,,,,,2024-05-15,1,,,,,チーンダオアイゥリーヌオトゥオンシャーンマオヨウシエンゴーンスー,0
265,1700150125392,新規,0,2024-05-15,2024-05-15,Ｄｏｎｇｇｕａｎｓｈｉ　Ｓｈａｎｇｊｉｎ　Ｗａｎｇｌｕｏｋｅｊｉ　Ｙｏｕｘｉａｎ　Ｇｏｎｇｓｉ,,外国会社等,,,,,,,,Ｄｏｎｇｋｅｌｕ１ｈａｏ１９ｄｏｎｇ２０８ｓｈｉ　Ｄｏｎｇｃｈｅｎｇｊｉｅｄａｏ　Ｄｏｎｇｇｕａｎｓｈｉ　Ｇｕａｎｇｄｏｎｇ　５２３０００　ＣＮ,,,,,,2024-05-15,1,,,,,ドンワンシシャンジンワンルオカージヨウシエンゴンスー,0
275,2010001244774,新規,0,2024-05-15,2024-05-15,ＪＰＶ第２０号株式会社,,株式会社,東京都,千代田区,霞が関３丁目２番１号,,13,101,1000013,,,,,,,2024-05-15,1,,,,,ジェイピーブイダイニジュウゴウ,0
276,2010001244808,新規,0,2024-05-15,2024-05-15,株式会社ｂｒａｔ　ｄｅｓｉｇｎ,,株式会社,東京都,千代田区,平河町２丁目７番１０号１００２号,,13,101,1020093,,,,,,,2024-05-15,1,,,,,ブラットデザイン,0
277,2010001244824,新規,0,2024-05-15,2024-05-15,めぐみトラベル株式会社,,株式会社,東京都,中央区,八重洲１丁目３番７号八重洲ファーストフィナンシャルビル１３階,,13,102,1030028,,,,,,,2024-05-15,1,,,,,メグミトラベル,0
278,2010001244832,新規,0,2024-05-15,2024-05-15,株式会社ヴィヴェーカ・アカデミー,,株式会社,東京都,中央区,銀座７丁目１３番２０号銀座ＴＨビル９階,,13,102,1040061,,,,,,,2024-05-15,1,,,,,ヴィヴェーカアカデミー,0
279,2010001244865,新規,0,2024-05-15,2024-05-15,Ｒｅｔｏ　Ｃａｐｉｔａｌ株式会社,,株式会社,東京都,中央区,銀座１丁目１２番４号Ｎ＆ＥＢＬＤ．６Ｆ,,13,102,1040061,,,,,,,2024-05-15,1,,,,,レトキャピタル,0
283,2010003043357,新規,0,2024-05-15,2024-05-15,合同会社経営・人材支援ＡＭＥＹ,,合同会社,東京都,中央区,銀座７丁目１３番２０号,,13,102,1040061,,,,,,,2024-05-15,1,,,,,ケイエイジンザイシエンアメイ,0
285,2010005038306,新規,0,2024-05-15,2024-05-15,一般社団法人京都東山アセット,,その他の設立登記法人,東京都,千代田区,二番町３番地麹町スクエア株式会社シリウス・アドバイザリー内,,13,101,1020084,,,,,,,2024-05-15,1,,,,,キョウトヒガシヤマアセット,0
293,2010401182228,新規,0,2024-05-15,2024-05-15,株式会社ｕｔａａｏ,,株式会社,東京都,港区,北青山２丁目１２番８－５０３号,,13,103,1070061,,,,,,,2024-05-15,1,,,,,ウタアオ,0
295,2010403032629,新規,0,2024-05-15,2024-05-15,ＬＤ２宜野座合同会社,,合同会社,東京都,港区,虎ノ門５丁目１番４号,,13,103,1050001,,,,,,,2024-05-15,1,,,,,エルディツーギノザ,0
307,2010603010822,新規,0,2024-05-15,2024-05-15,ＮＩＳＳＨＯＴ合同会社,,合同会社,東京都,江東区,有明３丁目７番２６号アリアケフロンティアビルディングタワーＢ９階,,13,108,1350063,,,,,,,2024-05-15,1,,,,,ナイスショット,0
308,2010703007181,新規,0,2024-05-15,2024-05-15,橋枝企画合同会社,,合同会社,東京都,品川区,西五反田４丁目９―１１,,13,109,1410031,,,,,,,2024-05-15,1,,,,,ハシエダキカク,0
311,2010901055263,新規,0,2024-05-15,2024-05-15,ａｄａｍａｙｚ株式会社,,株式会社,東京都,世田谷区,駒沢３丁目１４番１１号シェモア駒沢１０１,,13,112,1540012,,,,,,,2024-05-15,1,,,,,アダメイズ,0
319,2011001161670,新規,0,2024-05-15,2024-05-15,株式会社ＭＩＴＯＢＩＯ,,株式会社,東京都,渋谷区,桜丘町１４－１０渋谷コープ６０１,,13,113,1500031,,,,,,,2024-05-15,1,,,,,ミトビオ,0
320,2011001161984,新規,0,2024-05-15,2024-05-15,株式会社結び,,株式会社,東京都,目黒区,大橋１丁目５－１クロスエアタワー１５１８,,13,110,1530044,,,,,,,2024-05-15,1,,,,,ムスビ,0
321,2011001161992,新規,0,2024-05-15,2024-05-15,株式会社河合商事,,株式会社,東京都,渋谷区,渋谷２丁目１９番１５号宮益坂ビルディング６０９,,13,113,1500002,,,,,,,2024-05-15,1,,,,,カワイショウジ,0
322,2011003019132,新規,0,2024-05-15,2024-05-15,合同会社Ｓｕｎｂｕｒｓｔ,,合同会社,東京都,渋谷区,神宮前６丁目２３番４号桑野ビル２階,,13,113,1500001,,,,,,,2024-05-15,1,,,,,サンバースト,0
323,2011003019140,新規,0,2024-05-15,2024-05-15,ハニカム８合同会社,,合同会社,東京都,渋谷区,道玄坂１丁目１０番８号渋谷道玄坂東急ビル２Ｆ－Ｃ,,13,113,1500043,,,,,,,2024-05-15,1,,,,,ハニカムエイト,0
324,2011003019149,新規,0,2024-05-15,2024-05-15,合同会社ワークツー,,合同会社,東京都,渋谷区,代々木２丁目１１番１２号,,13,113,1510053,,,,,,,2024-05-15,1,,,,,ワークツー,0
344,2011701027262,新規,0,2024-05-15,2024-05-15,株式会社江戸川ソーラー研究所,,株式会社,東京都,江戸川区,西篠崎２丁目２４番６号,,13,123,1330055,,,,,,,2024-05-15,1,,,,,エドガワソーラーケンキュウジョ,0
345,2011701027279,新規,0,2024-05-15,2024-05-15,富山製藥株式会社,,株式会社,東京都,江戸川区,平井５丁目４５番５号渡辺ハイツ１０１,,13,123,1320035,,,,,,,2024-05-15,1,,,,,トヤマセイヤク,0
355,2012405004993,新規,0,2024-05-15,2024-05-15,一般社団法人日本の伝統文化を後世に受け継ぐ会,,その他の設立登記法人,東京都,武蔵野市,関前３丁目２１番９－４０３号レオパード三鷹,,13,203,1800014,,,,,,,2024-05-15,1,,,,,ニホンノデントウブンカヲコウセイニウケツグカイ,0
357,2013301052509,新規,0,2024-05-15,2024-05-15,株式会社オフィス池袋,,株式会社,東京都,豊島区,西池袋１丁目４０番１号,,13,116,1710021,,,,,,,2024-05-15,1,,,,,オフィスイケブクロ,0
359,2013303007139,新規,0,2024-05-15,2024-05-15,伊藤エステート合同会社,,合同会社,東京都,豊島区,上池袋１丁目３７－２２,,13,116,1700012,,,,,,,2024-05-15,1,,,,,イトウエステート,0
360,2020001157199,新規,0,2024-05-15,2024-05-15,ｓｅｅｄｐｏｄ株式会社,,株式会社,神奈川県,横浜市港北区,高田西５丁目１６番１５号,,14,109,2230066,,,,,,,2024-05-15,1,,,,,シードポッド,0
361,2020001157216,新規,0,2024-05-15,2024-05-15,株式会社橋本空調設備,,株式会社,神奈川県,横浜市旭区,南本宿町４４番地３２,,14,112,2410833,,,,,,,2024-05-15,1,,,,,ハシモトクウチョウセツビ,0
370,2020003026096,新規,0,2024-05-15,2024-05-15,ＴＭＵ　Ａｇｅｎｃｙ合同会社,,合同会社,神奈川県,横浜市鶴見区,矢向４丁目２９番１２－６０２号,,14,101,2300001,,,,,,,2024-05-15,1,,,,,ティーエムユーエージェンシー,0
376,2021001082214,新規,0,2024-05-15,2024-05-15,株式会社ＫＥＹ　ＯＦ　ＬＩＦＥ,,株式会社,神奈川県,伊勢原市,東大竹１００３番地１－１０１号,,14,214,2591133,,,,,,,2024-05-15,1,,,,,キーオブライフ,0
385,2030001160342,新規,0,2024-05-15,2024-05-15,興津商事株式会社,,株式会社,埼玉県,草加市,小山１丁目１７番２４号ガーデンハウス壱番館２０２号,,11,221,3400045,,,,,,,2024-05-15,1,,,,,オキツショウジ,0
399,2050001054740,新規,0,2024-05-15,2024-05-15,ＤＥＯ　ＩＮＴＥＲＮＡＴＩＯＮＡＬ株式会社,,株式会社,茨城県,常総市,馬場新田５３８－１,,08,211,3002733,,,,,,,2024-05-15,1,,,,,デオインターナショナル,0
402,2060001037083,新規,0,2024-05-15,2024-05-15,株式会社ＦＴＢホールディングス,,株式会社,栃木県,日光市,鬼怒川温泉大原１３９６番地１１,,09,206,3212522,,,,,,,2024-05-15,1,,,,,エフティービーホールディングス,0
416,2080401027153,新規,0,2024-05-15,2024-05-15,株式会社ＳＡＮＫＹＯインターナショナル,,株式会社,静岡県,袋井市,川井１３１１番地の６ＫＴ川井ビル２０２号室,,22,216,4370064,,,,,,,2024-05-15,1,,,,,サンキョウインターナショナル,0
434,2120001264794,新規,0,2024-05-15,2024-05-15,みんなの株式会社,,株式会社,大阪府,大阪市中央区,高津３丁目２－３１－２０１,,27,128,5420072,,,,,,,2024-05-15,1,,,,,ミンナノ,0
435,2120001264836,新規,0,2024-05-15,2024-05-15,株式会社アシスト,,株式会社,大阪府,大阪市北区,天神橋１丁目１１－３アクアスイート南森町１００１号,,27,127,5300041,,,,,,,2024-05-15,1,,,,,アシスト,0
436,2120001264844,新規,0,2024-05-15,2024-05-15,株式会社Ｍ‐ＤＲＡＮＧ,,株式会社,大阪府,大阪市阿倍野区,阪南町１丁目４８番７－５０３号,,27,119,5450021,,,,,,,2024-05-15,1,,,,,エムドラング,0
437,2120001264852,新規,0,2024-05-15,2024-05-15,ＨｉＢａｉ株式会社,,株式会社,大阪府,大阪市東淀川区,豊里６丁目２１番１２号上田マンション４０２号,,27,114,5330013,,,,,,,2024-05-15,1,,,,,ヒバイ,0
438,2120001264877,新規,0,2024-05-15,2024-05-15,ＩＲ株式会社,,株式会社,大阪府,大阪市旭区,高殿４丁目９番２７号,,27,117,5350031,,,,,,,2024-05-15,1,,,,,アイアール,0
439,2120001264885,新規,0,2024-05-15,2024-05-15,株式会社エムケーエス,,株式会社,大阪府,大阪市平野区,流町１丁目１番１号,,27,126,5470032,,,,,,,2024-05-15,1,,,,,エムケーエス,0
440,2120001264935,新規,0,2024-05-15,2024-05-15,株式会社サムズ,,株式会社,大阪府,大阪市西区,京町堀３丁目４番２０－３０２号,,27,106,5500003,,,,,,,2024-05-15,1,,,,,サムズ,0
444,2120003026573,新規,0,2024-05-15,2024-05-15,合同会社Ｈｉｇｈ　Ｃｌａｓｓ,,合同会社,大阪府,大阪市淀川区,木川東３丁目５番１５－８０５号,,27,123,5320012,,,,,,,2024-05-15,1,,,,,ハイクラス,0
447,2120103005824,新規,0,2024-05-15,2024-05-15,Ｍａｎｈ　Ｔｕｎｇ合同会社,,合同会社,大阪府,堺市堺区,熊野町西１丁２－１５－２０２号,,27,141,5900947,,,,,,,2024-05-15,1,,,,,マイントウン,0
451,2122001038088,新規,0,2024-05-15,2024-05-15,株式会社ＣＳデザイン,,株式会社,大阪府,八尾市,太子堂５丁目１番６２号,,27,212,5810063,,,,,,,2024-05-15,1,,,,,シーエスデザイン,0
452,2122003002884,新規,0,2024-05-15,2024-05-15,ＬＨＤ合同会社,,合同会社,大阪府,東大阪市,太平寺１丁目７－８,,27,227,5770844,,,,,,,2024-05-15,1,,,,,エルエイチディー,0
465,2140001134392,新規,0,2024-05-15,2024-05-15,株式会社Ｍｓｉｓ,,株式会社,兵庫県,神戸市須磨区,潮見台町２丁目１番１３－２０４号,,28,107,6540075,,,,,,,2024-05-15,1,,,,,エムシス,0
476,2180001161441,新規,0,2024-05-15,2024-05-15,株式会社ＴＡＭｉｎｋ,,株式会社,愛知県,常滑市,多屋町１丁目１７４番地,,23,216,4790839,,,,,,,2024-05-15,1,,,,,タムインク,0
483,2180005020627,新規,0,2024-05-15,2024-05-15,行政書士法人Ａ．Ｃ．Ｍ．Ｓ．,,その他の設立登記法人,愛知県,名古屋市中区,松原３丁目７番１５号光葉ビル１階,,23,106,4600017,,,,,,,2024-05-15,1,,,,,アクムス,0
488,2200003006344,新規,0,2024-05-15,2024-05-15,Ｊ１　ＰＲＯＤＵＣＴＩＯＮ　Ｊａｐａｎ合同会社,,合同会社,岐阜県,高山市,下岡本町２２５３番地１６,,21,203,5060052,,,,,,,2024-05-15,1,,,,,ジェイワンプロダクションジャパン,0
495,2230001020344,新規,0,2024-05-15,2024-05-15,株式会社ムラカミ,,株式会社,富山県,富山市,黒瀬北町２丁目４番４号,,16,201,9398216,,,,,,,2024-05-15,1,,,,,ムラカミ,0
510,2290001105692,新規,0,2024-05-15,2024-05-15,在宅ワークラボ株式会社,,株式会社,福岡県,福岡市博多区,博多駅前１丁目１５－２０ＮＭＦ博多駅前ビル２階,,40,132,8120011,,,,,,,2024-05-15,1,,,,,ザイタクワークラボ,0
512,2290003015262,新規,0,2024-05-15,2024-05-15,サンライズ合同会社,,合同会社,福岡県,宗像市,ひかりヶ丘１丁目８番地１７,,40,220,8113403,,,,,,,2024-05-15,1,,,,,サンライズ,0
513,2290003015270,新規,0,2024-05-15,2024-05-15,合同会社グッドストリーム,,合同会社,福岡県,福岡市博多区,博多駅南１丁目１５番２５－３０５号,,40,132,8120016,,,,,,,2024-05-15,1,,,,,グッドストリーム,0
519,2310001019015,新規,0,2024-05-15,2024-05-15,株式会社ユノファーマシー,,株式会社,長崎県,諫早市,八坂町５番１号,,42,204,8540025,,,,,,,2024-05-15,1,,,,,ユノファーマシー,0
522,2330001032065,新規,0,2024-05-15,2024-05-15,台商熊本貿易株式会社,,株式会社,熊本県,菊池郡大津町,大字引水８８８ー１９,,43,403,8691234,,,,,,,2024-05-15,1,,,,,タイショウクマモトボウエキ,0
527,2360001033663,新規,0,2024-05-15,2024-05-15,株式会社Ｊａｄｅ　Ｈｉｌｌｓ　Ｏｋｉｎａｗａ,,株式会社,沖縄県,中頭郡北谷町,北谷２丁目５番地２,,47,326,9040116,,,,,,,2024-05-15,1,,,,,ジェイドヒルズオキナワ,0
547,2500001025621,新規,0,2024-05-15,2024-05-15,株式会社ケタインダストリー,,株式会社,愛媛県,今治市,阿方甲４９１番地２１,,38,202,7940081,,,,,,,2024-05-15,1,,,,,ケタインダストリー,0
550,2700150125383,新規,0,2024-05-15,2024-05-15,ｙｉｗｕｓｈｉｚｉｙｕｅｍａｏｙｉｙｏｕｘｉａｎｇｏｎｇｓｉ,,外国会社等,,,,,,,,１Ｆ，Ｎｏ．５６７，Ｄａｎｘｉ　Ｎｏｒｔｈ　Ｒｏａｄ，Ｂｅｉｙｕａｎ　Ｓｔｒｅｅｔ，Ｙｉｗｕ　Ｃｉｔｙ，Ｐｉｌｏｔ　Ｆｒｅｅ　Ｔｒａｄｅ　Ｚｏｎｅ，Ｃｈｉｎａ（Ｚｈｅｊｉａｎｇ）３２２０００　ＣＮ,,,,,,2024-05-15,1,,,,,イーウーシーズーユエマオイーヨウシエンゴーンスー,0
551,2700150125391,新規,0,2024-05-15,2024-05-15,Ｓｈｅｎｚｈｅｎｓｈｉ　Ｓｉｔｏｎｇｇｅ　Ｋｅｊｉ　Ｙｏｕｘｉａｎ　Ｇｏｎｇｓｉ,,外国会社等,,,,,,,,１０２，Ｊｉｎｆｕｌａｉ　Ｃｏｍｐｌｅｘ，Ｎｏ．４９－１　Ｄａｂａｏ　Ｒｏａｄ，Ｄａｌａｎｇ　Ｃｏｍｍｕｎｉｔｙ，Ｘｉｎ’ａｎ　Ｓｔｒｅｅｔ，Ｂａｏ’ａｎ　Ｄｉｓｔｒｉｃｔ，ＳｈｅｎＺｈｅｎ　ＧｕａｎｇＤｏｎｇ,,,,,,2024-05-15,1,,,,,シェンジェンシスートンゴーカージヨウシエンゴンスー,0
552,2700150125417,新規,0,2024-05-15,2024-05-15,ＰＯＦ２０２４国際会議組織委員会,,その他,神奈川県,川崎市幸区,新川崎７－１慶應義塾大学　新川崎タウンキャンパスＥ－１０１ＫＰＲＩ内,,14,132,2120032,,,,,,,2024-05-15,1,,,,,ピーオーエフニゼロニヨンコクサイカイギソシキイインカイ,0
564,3010001244773,新規,0,2024-05-15,2024-05-15,ＪＰＶ第１９号株式会社,,株式会社,東京都,千代田区,霞が関３丁目２番１号,,13,101,1000013,,,,,,,2024-05-15,1,,,,,ジェイピーブイダイジュウキュウゴウ,0
565,3010001244815,新規,0,2024-05-15,2024-05-15,株式会社Ｋｉｒａｌａ準備会社,,株式会社,東京都,中央区,東日本橋３丁目２番３号,,13,102,1030004,,,,,,,2024-05-15,1,,,,,キララジュンビガイシャ,0
566,3010001244856,新規,0,2024-05-15,2024-05-15,株式会社ＡＣＥプロフェッショナル,,株式会社,東京都,中央区,銀座１丁目１２番４号Ｎ＆ＥＢＬＤ．６Ｆ,,13,102,1040061,,,,,,,2024-05-15,1,,,,,エースプロフェッショナル,0
574,3010003043728,新規,0,2024-05-15,2024-05-15,合同会社ＮｅｘＡ,,合同会社,東京都,千代田区,飯田橋１丁目８番９号ニューシティハイツ飯田橋７０７,,13,101,1020072,,,,,,,2024-05-15,1,,,,,ネクサ,0
575,3010005038305,新規,0,2024-05-15,2024-05-15,一般社団法人バイオガスエネルギー,,その他の設立登記法人,東京都,千代田区,永田町２丁目１７番５号,,13,101,1000014,,,,,,,2024-05-15,1,,,,,バイオガスエネルギー,0
576,3010005038313,新規,0,2024-05-15,2024-05-15,脱炭素成長型経済構造移行推進機構,,その他の設立登記法人,東京都,千代田区,有楽町１丁目１３番２号,,13,101,1000006,,,,,,,2024-05-15,1,,,,,ダツタンソセイチョウガタケイザイコウゾウイコウスイシンキコウ,0
580,3010401182458,新規,0,2024-05-15,2024-05-15,和達株式会社,,株式会社,東京都,港区,赤坂２丁目８番１４－４０７号,,13,103,1070052,,,,,,,2024-05-15,1,,,,,ワダチ,0
582,3010403032611,新規,0,2024-05-15,2024-05-15,合同会社グリーンパワー伊佐・えびの・人吉,,合同会社,東京都,港区,赤坂１丁目１１番４４号赤坂インターシティ,,13,103,1070052,,,,,,,2024-05-15,1,,,,,グリーンパワーイサエビノヒトヨシ,0
583,3010403032628,新規,0,2024-05-15,2024-05-15,ＬＤ２仙石原合同会社,,合同会社,東京都,港区,虎ノ門５丁目１番４号,,13,103,1050001,,,,,,,2024-05-15,1,,,,,エルディツーセンゴクハラ,0
593,3010901055262,新規,0,2024-05-15,2024-05-15,株式会社ＴＨＥ　ＹＯＵＮＧ　ＡＭＥＲＩＣＡＮＳ　ＪＡＰＡＮ,,株式会社,東京都,世田谷区,代田６丁目８－１７,,13,112,1550033,,,,,,,2024-05-15,1,,,,,ザヤングアメリカンズジャパン,0
594,3010901055270,新規,0,2024-05-15,2024-05-15,株式会社岡本大理石,,株式会社,東京都,世田谷区,代田３丁目１５番３号,,13,112,1550033,,,,,,,2024-05-15,1,,,,,オカモトダイリセキ,0
595,3010901055279,新規,0,2024-05-15,2024-05-15,株式会社オフィスネットワーク,,株式会社,東京都,世田谷区,松原２丁目４１－１５－２０３,,13,112,1560043,,,,,,,2024-05-15,1,,,,,オフィスネットワーク,0
601,3011001161694,新規,0,2024-05-15,2024-05-15,Ｓｅｓｓｉｏｎ株式会社,,株式会社,東京都,目黒区,上目黒３丁目２７‐１５,,13,110,1530051,,,,,,,2024-05-15,1,,,,,セッション,0
602,3011001161827,新規,0,2024-05-15,2024-05-15,株式会社Ｓｙｎｃａ,,株式会社,東京都,渋谷区,恵比寿西２丁目８番４号ＥＸ恵比寿西ビル５階,,13,113,1500021,,,,,,,2024-05-15,1,,,,,シンカ,0
603,3011001161868,新規,0,2024-05-15,2024-05-15,株式会社Ｃｉｅｌ,,株式会社,東京都,渋谷区,渋谷２丁目２－４青山アルコープ８１４,,13,113,1500002,,,,,,,2024-05-15,1,,,,,シエル,0
604,3011001161884,新規,0,2024-05-15,2024-05-15,株式会社Ｃｏｎｂｅｒｔ,,株式会社,東京都,渋谷区,神南１丁目２３－１０東急渋谷駅前ビル３Ｆ,,13,113,1500041,,,,,,,2024-05-15,1,,,,,コンバート,0
605,3011001161950,新規,0,2024-05-15,2024-05-15,スケイルジム株式会社,,株式会社,東京都,渋谷区,恵比寿１丁目１５番９号日宝恵比寿ビル４０３,,13,113,1500013,,,,,,,2024-05-15,1,,,,,スケイルジム,0
606,3011001161959,新規,0,2024-05-15,2024-05-15,ＣｙｂｅｒＧｅｎｅ株式会社,,株式会社,東京都,渋谷区,恵比寿４丁目７番１５号,,13,113,1500013,,,,,,,2024-05-15,1,,,,,サイバージーン,0
607,3011001161975,新規,0,2024-05-15,2024-05-15,株式会社ＮＫＭ,,株式会社,東京都,目黒区,五本木１丁目１９番９号,,13,110,1530053,,,,,,,2024-05-15,1,,,,,エヌケーエム,0
608,3011001161983,新規,0,2024-05-15,2024-05-15,株式会社ＯＴＥＴＳＵ,,株式会社,東京都,渋谷区,千駄ヶ谷５丁目２０番１９号勝栄ビル１－Ａ,,13,113,1510051,,,,,,,2024-05-15,1,,,,,オテツ,0
612,3011003019148,新規,0,2024-05-15,2024-05-15,合同会社ｙｕｈａｒａｈａ,,合同会社,東京都,渋谷区,神宮前３丁目７番１２号,,13,113,1500001,,,,,,,2024-05-15,1,,,,,ユハラハ,0
613,3011003019156,新規,0,2024-05-15,2024-05-15,タイソンキャピタル４号合同会社,,合同会社,東京都,渋谷区,上原１丁目１７番１４号,,13,113,1510064,,,,,,,2024-05-15,1,,,,,タイソンキャピタルヨンゴウ,0
614,3011003019164,新規,0,2024-05-15,2024-05-15,合同会社Ｆａｉｒｎｅｓｓ,,合同会社,東京都,渋谷区,本町３丁目１０－３清水橋矢部ビル７０１,,13,113,1510071,,,,,,,2024-05-15,1,,,,,フェアネス,0
619,3011103014412,新規,0,2024-05-15,2024-05-15,合同会社クエタクエクト,,合同会社,東京都,新宿区,西新宿３丁目３番１３号西新宿水間ビル６階,,13,104,1600023,,,,,,,2024-05-15,1,,,,,クエタクエクト,0
621,3011501030663,新規,0,2024-05-15,2024-05-15,ＩＴＯＨＡ株式会社,,株式会社,東京都,北区,志茂３丁目１９番２号,,13,117,1150042,,,,,,,2024-05-15,1,,,,,イトハ,0
622,3011503006059,新規,0,2024-05-15,2024-05-15,合同会社イーディア,,合同会社,東京都,北区,赤羽西４丁目４１番８号飯島ハイム１０１号,,13,117,1150055,,,,,,,2024-05-15,1,,,,,イーディア,0
625,3011601027741,新規,0,2024-05-15,2024-05-15,株式会社Ａｌｏｅ,,株式会社,東京都,練馬区,旭町１丁目８－１－４０８,,13,120,1790071,,,,,,,2024-05-15,1,,,,,アロエ,0
631,3011801044223,新規,0,2024-05-15,2024-05-15,Ｊ＆Ｖ株式会社,,株式会社,東京都,足立区,中川４丁目２３番１９－７１２号,,13,121,1200002,,,,,,,2024-05-15,1,,,,,ジェイアンドブイ,0
633,3011803006238,新規,0,2024-05-15,2024-05-15,合同会社Ｌｕ　ｍｉ　Ａｉｌｅｓ,,合同会社,東京都,足立区,西保木間２丁目１２番９－１０４号,,13,121,1210812,,,,,,,2024-05-15,1,,,,,ルミエール,0
638,3012701018259,新規,0,2024-05-15,2024-05-15,株式会社永利,,株式会社,東京都,清瀬市,松山３丁目１７－５,,13,221,2040022,,,,,,,2024-05-15,1,,,,,エイリ,0
639,3013301052508,新規,0,2024-05-15,2024-05-15,株式会社心愛,,株式会社,東京都,豊島区,池袋１丁目１２－１ハニービーＣ室,,13,116,1700014,,,,,,,2024-05-15,1,,,,,ココア,0
648,3020001156951,新規,0,2024-05-15,2024-05-15,株式会社Ｈｅａｒｔ　Ｓｔａｔｉｏｎ,,株式会社,神奈川県,横浜市中区,南仲通３丁目３５エクセレントＩＩＩ１０階Ｆ,00134763,14,104,2310006,,,,,,,2024-05-15,1,,,,,ハートステーション,0
649,3020001157215,新規,0,2024-05-15,2024-05-15,株式会社ＩＳＫ企画室,,株式会社,神奈川県,横浜市中区,花咲町１丁目３１番地グランド・ガーラ桜木町駅前３０９,,14,104,2310063,,,,,,,2024-05-15,1,,,,,アイエスケイキカクシツ,0
658,3021003014503,新規,0,2024-05-15,2024-05-15,合同会社Ｅｎｖｉｓｉｏｎ,,合同会社,神奈川県,大和市,桜森２丁目４番１４－９０６号,,14,213,2420028,,,,,,,2024-05-15,1,,,,,エンビジョン,0
666,3030001160341,新規,0,2024-05-15,2024-05-15,株式会社ハイライズ,,株式会社,埼玉県,さいたま市大宮区,吉敷町４丁目８４番地３ウィルローズさいたま新都心４０２号,,11,103,3300843,,,,,,,2024-05-15,1,,,,,ハイライズ,0
667,3030001160358,新規,0,2024-05-15,2024-05-15,株式会社Ｃｌｏｗｎ,,株式会社,埼玉県,川口市,大字石神２４３番地９,,11,203,3330823,,,,,,,2024-05-15,1,,,,,クラウン,0
672,3030003024296,新規,0,2024-05-15,2024-05-15,合同会社セルスキル,,合同会社,埼玉県,川口市,中青木１丁目３番１０－３０３号グリーンキャッスルＡ,,11,203,3320032,,,,,,,2024-05-15,1,,,,,セルスキル,0
678,3040003024972,新規,0,2024-05-15,2024-05-15,合同会社ＣＡＢＩＮ,,合同会社,千葉県,野田市,中野台１６９,,12,208,2780035,,,,,,,2024-05-15,1,,,,,キャビン,0
679,3040005022396,新規,0,2024-05-15,2024-05-15,一般社団法人スピリチュアル・メタサイエンス・アカデミー,,その他の設立登記法人,千葉県,長生郡白子町,幸治３７６９番地８,,12,424,2994216,,,,,,,2024-05-15,1,,,,,スピリチュアルメタサイエンスアカデミー,0
693,3080001026298,新規,0,2024-05-15,2024-05-15,株式会社小鹿建物,,株式会社,静岡県,静岡市駿河区,津島町８番５号,,22,102,4228056,,,,,,,2024-05-15,1,,,,,オジカタテモノ,0
716,3120001264827,新規,0,2024-05-15,2024-05-15,夏樹株式会社,,株式会社,大阪府,大阪市阿倍野区,天王寺町北２丁目２６番１３－１０１号,,27,119,5450001,,,,,,,2024-05-15,1,,,,,ナツキ,0
717,3120001264876,新規,0,2024-05-15,2024-05-15,あいむプロ株式会社,,株式会社,大阪府,大阪市東住吉区,西今川３丁目１２番２４－６０３号,,27,121,5460042,,,,,,,2024-05-15,1,,,,,アイムプロ,0
718,3120001264901,新規,0,2024-05-15,2024-05-15,丸好株式会社,,株式会社,大阪府,大阪市淀川区,西宮原３丁目２番１号,,27,123,5320004,,,,,,,2024-05-15,1,,,,,マルス,0
719,3120001264942,新規,0,2024-05-15,2024-05-15,株式会社ネクストワン,,株式会社,大阪府,大阪市北区,同心１丁目９番５号,,27,127,5300035,,,,,,,2024-05-15,1,,,,,ネクストワン,0
721,3120003005163,新規,0,2024-05-15,2024-05-15,石田合名会社,,合名会社,大阪府,大阪市都島区,中野町３丁目８番２１号,,27,102,5340027,,,,,,,2024-05-15,1,,,,,イシダ,0
724,3120003026580,新規,0,2024-05-15,2024-05-15,合同会社放課後デイサービスこもれびホープ,,合同会社,大阪府,大阪市生野区,中川西２丁目１５番２１号,,27,116,5440032,,,,,,,2024-05-15,1,,,,,ホウカゴデイサービスコモレビホープ,0
726,3120103005831,新規,0,2024-05-15,2024-05-15,福美合同会社,,合同会社,大阪府,岸和田市,天神山町２丁目９－６－１０９室,,27,202,5960834,,,,,,,2024-05-15,1,,,,,フクミ,0
728,3130001077047,新規,0,2024-05-15,2024-05-15,株式会社Ｉ＆Ｃｏｍｐａｎｙ,,株式会社,京都府,京都市下京区,醒ケ井通花屋町上る元日町１７番地,,26,106,6008336,,,,,,,2024-05-15,1,,,,,アイアンドカンパニー,0
738,3140001134152,新規,0,2024-05-15,2024-05-15,株式会社庵案,,株式会社,兵庫県,丹波篠山市,市野々２９８,,28,221,6692613,,,,,,,2024-05-15,1,,,,,アンアン,0
740,3140003020573,新規,0,2024-05-15,2024-05-15,時代おくれ合同会社,,合同会社,兵庫県,神戸市中央区,元町通４丁目５－１４－１０１,,28,110,6500022,,,,,,,2024-05-15,1,,,,,ジダイオクレ,0
741,3150005009589,新規,0,2024-05-15,2024-05-15,一般社団法人日本ポジティブ行動支援ネットワーク,,その他の設立登記法人,奈良県,北葛城郡広陵町,馬見中４丁目２－２畿央大学大久保研究室,,29,426,6350832,,,,,,,2024-05-15,1,,,,,ニホンポジティブコウドウシエンネットワーク,0
750,3180001161408,新規,0,2024-05-15,2024-05-15,株式会社輪奏,,株式会社,愛知県,瀬戸市,川北町１丁目７２番地,,23,204,4890927,,,,,,,2024-05-15,1,,,,,ワソウ,0
755,3180005020626,新規,0,2024-05-15,2024-05-15,一般社団法人あいち空き家対策協会,,その他の設立登記法人,愛知県,名古屋市東区,泉１丁目２１番３５号日商岩井栄ハイツ１０１号,,23,102,4610001,,,,,,,2024-05-15,1,,,,,アイチアキヤタイサクキョウカイ,0
758,3180301038636,新規,0,2024-05-15,2024-05-15,株式会社ＴＨＡＰＡ　ＥＮＴＥＲＰＲＩＳＥＳ,,株式会社,愛知県,岡崎市,南明大寺町１番地２０,,23,202,4440852,,,,,,,2024-05-15,1,,,,,タパエンタープライセス,0
759,3180301038644,新規,0,2024-05-15,2024-05-15,株式会社ＴＥＸＴＵＲＥ,,株式会社,愛知県,刈谷市,小山町１丁目５１４番地２,,23,210,4480043,,,,,,,2024-05-15,1,,,,,テクスチャー,0
771,3240003006661,新規,0,2024-05-15,2024-05-15,きっかけオノミチ合同会社,,合同会社,広島県,尾道市,久保３丁目５番１号,,34,205,7220045,,,,,,,2024-05-15,1,,,,,キッカケオノミチ,0
774,3250001020647,新規,0,2024-05-15,2024-05-15,株式会社Ｈｏｌｌｙ　ｈｏｃｋ,,株式会社,山口県,周南市,大字久米１４６２番地,,35,215,7450801,,,,,,,2024-05-15,1,,,,,ホリホック,0
777,3260001039067,新規,0,2024-05-15,2024-05-15,株式会社グランファ,,株式会社,岡山県,岡山市南区,藤田５２７番地１５,,33,104,7010221,,,,,,,2024-05-15,1,,,,,グランファ,0
787,3290001105618,新規,0,2024-05-15,2024-05-15,株式会社ＫＲＫ,,株式会社,福岡県,福岡市博多区,博多駅前１丁目２４番９号,,40,132,8120011,,,,,,,2024-05-15,1,,,,,ケイアールケイ,0
788,3290001105634,新規,0,2024-05-15,2024-05-15,株式会社ＲＩＧＨＴ本店,,株式会社,福岡県,福岡市博多区,中洲５丁目６番２８号リバーフロント中洲川端５階,,40,132,8100801,,,,,,,2024-05-15,1,,,,,ライトホンテン,0
789,3290001105667,新規,0,2024-05-15,2024-05-15,株式会社ｔａｋｅ,,株式会社,福岡県,福岡市東区,香椎浜４丁目５番４－６２６号,,40,131,8130016,,,,,,,2024-05-15,1,,,,,タケ,0
790,3290001105675,新規,0,2024-05-15,2024-05-15,光大株式会社,,株式会社,福岡県,福岡市中央区,天神３丁目１０番３２－７０６号,,40,133,8100001,,,,,,,2024-05-15,1,,,,,コウダイ,0
791,3290001105700,新規,0,2024-05-15,2024-05-15,Ｘ‐ＺＥＵＳ株式会社,,株式会社,福岡県,福岡市南区,野間１丁目１番１９－９０１号,,40,134,8150041,,,,,,,2024-05-15,1,,,,,エグゼウス,0
792,3290001105709,新規,0,2024-05-15,2024-05-15,ほりでんと株式会社,,株式会社,福岡県,糸島市,南風台６丁目９番１号,,40,230,8191137,,,,,,,2024-05-15,1,,,,,ホリデント,0
796,3320001020458,新規,0,2024-05-15,2024-05-15,株式会社Ｇ‐ＳＴＹＬＥ,,株式会社,大分県,大分市,大字東明野１３７１番地の１０４,,44,201,8700151,,,,,,,2024-05-15,1,,,,,ジースタイル,0
804,3340003004481,新規,0,2024-05-15,2024-05-15,合同会社結いテクノロジーズ,,合同会社,鹿児島県,大島郡伊仙町,大字阿三８０６－２,,46,532,8918321,,,,,,,2024-05-15,1,,,,,ユイテクノロジーズ,0
812,3360005007035,新規,0,2024-05-15,2024-05-15,一般社団法人Ｅｖｅｒｙ　Ｓｔａｒ　Ｓｔｏｒｙ,,その他の設立登記法人,沖縄県,浦添市,内間４丁目５番２５号,,47,208,9012121,,,,,,,2024-05-15,1,,,,,エブリスターストーリー,0
821,3400001016662,新規,0,2024-05-15,2024-05-15,株式会社ライフプラス,,株式会社,岩手県,盛岡市,津志田町３丁目３番２０号,,03,201,0200837,,,,,,,2024-05-15,1,,,,,ライフプラス,0
824,3430005014973,新規,0,2024-05-15,2024-05-15,一般財団法人ＧＳＩ　ＳＤＧｓ支援財団,,その他の設立登記法人,北海道,札幌市北区,太平三条１丁目２番２２号,,01,102,0028003,,,,,,,2024-05-15,1,,,,,ジーエスアイエスディージーズシエンザイダン,0
833,3500001025629,新規,0,2024-05-15,2024-05-15,株式会社ｂｏｌｔ＆Ｄ,,株式会社,愛媛県,松山市,枝松１丁目３番２１号,,38,201,7900962,,,,,,,2024-05-15,1,,,,,ボルトアンドディー,0
835,3700150124946,新規,0,2024-05-15,2024-04-18,相浜亭,,その他,千葉県,館山市,相浜２４９,,12,205,2940235,,,,,,,2024-04-18,1,,,,,アイハマテイ,0
836,3700150125382,新規,0,2024-05-15,2024-05-15,Ｇｕａｎｇｄｏｎｇ　ＨＡＯＹＯＮＧ　Ａｐｐｌｉａｎｃｅｓ　Ｃｏ．，Ｌｔｄ,,外国会社等,,,,,,,,Ｎｏ．６９９，Ｊｉｅｆａｎｇｎａｎ　Ｒｏａｄ，Ｌｏｎｇｔｏｕ　Ｔｏｗｎ，Ｐｏｔｏｕ　Ｄｉｓｔｒｉｃｔ　Ｚｈａｎｊｉａｎｇ　Ｇｕａｎｇｄｏｎｇ　５２４０００　ＣＮ,,,,,,2024-05-15,1,,,,,グワーンドーンハオヨーンディエンチイヨウシエンゴーンスー,0
837,3700150125390,新規,0,2024-05-15,2024-05-15,Ｓｈｅｎｚｈｅｎ　Ｈｕｏｔｕ　Ｔｅｃｈｎｏｌｏｇｙ　Ｃｏ．，Ｌｔｄ．,,外国会社等,,,,,,,,Ｘｉａｎｇｍｉｈｕ　Ｓｔｒｅｅｔ，Ｘｉａｎｇｍｉ　Ｃｏｍｍｕｎｉｔｙ，Ｘｉａｎｇｍｅｉ　ＲｏａｄＮｏ．１０２１，Ｘｉａｎｇｍｉ　Ｂｕｉｌｄｉｎｇ，Ｂｕｉｌｄｉｎｇ　Ｃ，７０１Ｓｈｅｎｚｈｅｎ　Ｆｕｔｉａｎ　Ｄｉｓｔｒｉｃｔ,,,,,,2024-05-15,1,,,,,シェンジェンシーフオトゥーコージーヨウシエンゴンスー,0
852,4010001244780,新規,0,2024-05-15,2024-05-15,サンライズテクノロジー株式会社,,株式会社,東京都,千代田区,神田淡路町１丁目９番地７,,13,101,1010063,,,,,,,2024-05-15,1,,,,,サンライズテクノロジー,0
858,4010005038304,新規,0,2024-05-15,2024-05-15,一般社団法人ＴＳＦ１,,その他の設立登記法人,東京都,千代田区,永田町２丁目１７番５号,,13,101,1000014,,,,,,,2024-05-15,1,,,,,ティーエスエフワン,0
868,4010401182300,新規,0,2024-05-15,2024-05-15,株式会社ＨＭＣ,,株式会社,東京都,港区,高輪１丁目２３番２３－１２１０号,,13,103,1080074,,,,,,,2024-05-15,1,,,,,エイチエムシー,0
872,4010403032627,新規,0,2024-05-15,2024-05-15,ＬＤ２熱海合同会社,,合同会社,東京都,港区,虎ノ門５丁目１番４号,,13,103,1050001,,,,,,,2024-05-15,1,,,,,エルディツーアタミ,0
883,4010601065197,新規,0,2024-05-15,2024-05-15,株式会社ＡＧＩＦＩ,,株式会社,東京都,江東区,佐賀２丁目１０番２１－２１１号,,13,108,1350031,,,,,,,2024-05-15,1,,,,,エージーアイエフアイ,0
885,4010701045958,新規,0,2024-05-15,2024-05-15,株式会社Ｆｉｎｅｚｅ,,株式会社,東京都,品川区,荏原２丁目３番１号５１０,,13,109,1420063,,,,,,,2024-05-15,1,,,,,ファインズ,0
892,4010901055278,新規,0,2024-05-15,2024-05-15,株式会社ベスト,,株式会社,東京都,世田谷区,用賀２丁目３８－１４天虎ビル２０２,,13,112,1580097,,,,,,,2024-05-15,1,,,,,ベスト,0
899,4011001161883,新規,0,2024-05-15,2024-05-15,株式会社Ｓｌｏｔｈ＆Ｓｌｏｔｈｉｅｓ,,株式会社,東京都,渋谷区,桜丘町３番４号３０４－２区画,,13,113,1500031,,,,,,,2024-05-15,1,,,,,スロースアンドスローシーズ,0
900,4011001161909,新規,0,2024-05-15,2024-05-15,ＢｙｔｏｍＤＡＯ株式会社,,株式会社,東京都,渋谷区,笹塚１丁目６１番８号シャトレーイン東京・笹塚４１９,,13,113,1510073,,,,,,,2024-05-15,1,,,,,バイトムダオ,0
901,4011001161958,新規,0,2024-05-15,2024-05-15,Ｄｉｖｅｒｓｅ株式会社,,株式会社,東京都,渋谷区,神宮前６丁目２３番４号桑野ビル２Ｆ,,13,113,1500001,,,,,,,2024-05-15,1,,,,,ダイバース,0
902,4011001162007,新規,0,2024-05-15,2024-05-15,フィオーレ・ヴェーラ株式会社,,株式会社,東京都,渋谷区,渋谷２丁目１９番１５号宮益坂ビルディング６０９,,13,113,1500002,,,,,,,2024-05-15,1,,,,,フィオーレヴェーラ,0
905,4011003019139,新規,0,2024-05-15,2024-05-15,ハニカム７合同会社,,合同会社,東京都,渋谷区,道玄坂１丁目１０番８号渋谷道玄坂東急ビル２Ｆ－Ｃ,,13,113,1500043,,,,,,,2024-05-15,1,,,,,ハニカムセブン,0
910,4011101107332,新規,0,2024-05-15,2024-05-15,株式会社レントウェルス,,株式会社,東京都,新宿区,大久保２丁目１番８号,,13,104,1690072,,,,,,,2024-05-15,1,,,,,レントウェルス,0
918,4011701027277,新規,0,2024-05-15,2024-05-15,和盛株式会社,,株式会社,東京都,江戸川区,北小岩６丁目１７－５・４Ｄ,,13,123,1330051,,,,,,,2024-05-15,1,,,,,ワセイ,0
924,4011803006237,新規,0,2024-05-15,2024-05-15,ロイヤルナイト東京ホールディングス合同会社,,合同会社,東京都,足立区,六町３丁目５番１３号２Ｆ,,13,121,1210073,,,,,,,2024-05-15,1,,,,,ロイヤルナイトトウキョウホールディングス,0
943,4013303007137,新規,0,2024-05-15,2024-05-15,合同会社Ｆｅｒｐｌａｔ,,合同会社,東京都,豊島区,南大塚３丁目２８番６－１９０１号,,13,116,1700005,,,,,,,2024-05-15,1,,,,,フェルプラット,0
949,4020001157197,新規,0,2024-05-15,2024-05-15,株式会社いちのいち,,株式会社,神奈川県,横浜市西区,戸部町５丁目１９７番地クリオ横浜高島町壱番館９０１号,,14,103,2200042,,,,,,,2024-05-15,1,,,,,イチノイチ,0
950,4020001157206,新規,0,2024-05-15,2024-05-15,株式会社Ｓ．Ｈエンジ,,株式会社,神奈川県,川崎市幸区,戸手１丁目２番１－２０２号,,14,132,2120005,,,,,,,2024-05-15,1,,,,,エスエイチエンジ,0
960,4021003014502,新規,0,2024-05-15,2024-05-15,合同会社ｄｏｏｒｓ,,合同会社,神奈川県,茅ヶ崎市,東海岸北４丁目１０－１９－２,,14,207,2530053,,,,,,,2024-05-15,1,,,,,ドアーズ,0
963,4030001160357,新規,0,2024-05-15,2024-05-15,ｍｅｍｏｒｉｅｓ株式会社,,株式会社,埼玉県,草加市,花栗４丁目８番２３号,,11,221,3400044,,,,,,,2024-05-15,1,,,,,メモリーズ,0
964,4030001160365,新規,0,2024-05-15,2024-05-15,真泰株式会社,,株式会社,埼玉県,草加市,新栄４丁目１０００番地新栄町団地１－４－４０５,,11,221,3400056,,,,,,,2024-05-15,1,,,,,マヤス,0
972,4030003024196,新規,0,2024-05-15,2024-05-15,合同会社トワイライト,,合同会社,埼玉県,所沢市,緑町１丁目１－６グランドパレス２０５,,11,208,3591111,,,,,,,2024-05-15,1,,,,,トワイライト,0
975,4040001133601,新規,0,2024-05-15,2024-05-15,株式会社ランフェリオ,,株式会社,千葉県,木更津市,高柳２１００番地１,,12,206,2920014,,,,,,,2024-05-15,1,,,,,ランフェリオ,0
977,4040003024872,新規,0,2024-05-15,2024-05-15,合同会社祥安,,合同会社,千葉県,松戸市,千駄堀字一年栗１４５５番地の４越路荘１０５,,12,207,2702252,,,,,,,2024-05-15,1,,,,,ショウアン,0
978,4040005022395,新規,0,2024-05-15,2024-05-15,ハイパーリンクスキル事業協同組合,,その他の設立登記法人,千葉県,印西市,竹袋１７５５番地４５,,12,231,2701325,,,,,,,2024-05-15,1,,,,,ハイパーリンクスキル,0
985,4050001054763,新規,0,2024-05-15,2024-05-15,ＭＯＷ　ＥＮＴＥＲＴＡＩＮＭＥＮＴ株式会社,,株式会社,茨城県,取手市,取手２丁目７番５号イーストヒルズユウキ１０３,,08,217,3020004,,,,,,,2024-05-15,1,,,,,モウエンターテインメント,0
990,4050003008379,新規,0,2024-05-15,2024-05-15,ＮＯＲＭＩＣＫ合同会社,,合同会社,茨城県,常陸太田市,金井町３６８０番地２０２号,,08,212,3130016,,,,,,,2024-05-15,1,,,,,ノーミック,0
995,4060003005078,新規,0,2024-05-15,2024-05-15,合同会社トニシアコーポレーション,,合同会社,栃木県,宇都宮市,下岡本町２０８３番地４２パナハイツ岡本台Ｃ１０２号室,,09,201,3291104,,,,,,,2024-05-15,1,,,,,トニシアコーポレーション,0
1021,4100003007532,新規,0,2024-05-15,2024-05-15,合同会社赤坂屋,,合同会社,長野県,飯田市,下久堅知久平２３７番地,,20,205,3992603,,,,,,,2024-05-15,1,,,,,アカサカヤ,0
1035,4120001264834,新規,0,2024-05-15,2024-05-15,回形針株式会社,,株式会社,大阪府,大阪市城東区,関目５丁目１９番９号関目花博公館４０７Ａ,,27,118,5360008,,,,,,,2024-05-15,1,,,,,カイケイシン,0
1036,4120001264867,新規,0,2024-05-15,2024-05-15,興然株式会社,,株式会社,大阪府,大阪市東住吉区,山坂２丁目７番３号,,27,121,5460035,,,,,,,2024-05-15,1,,,,,コウゼン,0
1037,4120001264933,新規,0,2024-05-15,2024-05-15,株式会社ＬＩＥＮ，ｓ,,株式会社,大阪府,大阪市浪速区,敷津西１丁目１１番１７号,,27,111,5560015,,,,,,,2024-05-15,1,,,,,リアンズ,0
1040,4120003026588,新規,0,2024-05-15,2024-05-15,ＳＤＮ合同会社,,合同会社,大阪府,大阪市阿倍野区,美章園２丁目６番８号,,27,119,5450003,,,,,,,2024-05-15,1,,,,,エスディーエヌ,0
1041,4120003026596,新規,0,2024-05-15,2024-05-15,合同会社ＫＯＭＥ　ｔｏ　ＭＡＭＥ,,合同会社,大阪府,大阪市中央区,安堂寺町２丁目２番１９号,,27,128,5420061,,,,,,,2024-05-15,1,,,,,コメトマメ,0
1042,4120005024318,新規,0,2024-05-15,2024-05-15,一般社団法人センサリープレイ協会,,その他の設立登記法人,大阪府,大阪市北区,本庄東２丁目１５番１４－７０３号,,27,127,5310074,,,,,,,2024-05-15,1,,,,,センサリープレイキョウカイ,0
1057,4140003020564,新規,0,2024-05-15,2024-05-15,Ｎｒａｉｓｅ合同会社,,合同会社,兵庫県,神戸市須磨区,白川台５丁目５４番地の３,,28,107,6540103,,,,,,,2024-05-15,1,,,,,エヌライズ,0
1065,4180001161415,新規,0,2024-05-15,2024-05-15,ＰＬＡＮ‐ＴｏＤｏ株式会社,,株式会社,愛知県,名古屋市天白区,野並２丁目２６１番地,,23,116,4680045,,,,,,,2024-05-15,1,,,,,プラントゥドゥ,0
1066,4180001161431,新規,0,2024-05-15,2024-05-15,株式会社ＣＡＲＲＥＲＡ,,株式会社,愛知県,名古屋市中川区,富川町１丁目１番地の６,,23,110,4540037,,,,,,,2024-05-15,1,,,,,カレラ,0
1067,4180001161448,新規,0,2024-05-15,2024-05-15,株式会社隼大,,株式会社,愛知県,名古屋市中村区,岩塚本通５丁目２４番地ロフティ岩塚１００１号,,23,105,4530861,,,,,,,2024-05-15,1,,,,,シュンダイ,0
1068,4180001161497,新規,0,2024-05-15,2024-05-15,株式会社リバース,,株式会社,愛知県,一宮市,木曽川町玉ノ井字新屋敷六ノ切１０－１,,23,203,4930004,,,,,,,2024-05-15,1,,,,,リバース,0
1071,4180003026772,新規,0,2024-05-15,2024-05-15,合同会社Ｒｅｓｉｓｔ,,合同会社,愛知県,名古屋市守山区,茶臼前８番１２号,,23,113,4630012,,,,,,,2024-05-15,1,,,,,レジスト,0
1072,4180003026797,新規,0,2024-05-15,2024-05-15,合同会社グランツ,,合同会社,愛知県,名古屋市中村区,名駅４丁目２４番５号第２森ビル４０１,,23,105,4500002,,,,,,,2024-05-15,1,,,,,グランツ,0
1077,4180301038643,新規,0,2024-05-15,2024-05-15,株式会社ＧＲＡＮＤ　ＲＯＹＡＬ,,株式会社,愛知県,豊橋市,新栄町字一本木４１番地エルディム新栄Ａ－２０６,,23,201,4418016,,,,,,,2024-05-15,1,,,,,グランドロイヤル,0
1107,4290001105674,新規,0,2024-05-15,2024-05-15,日本創楽株式会社,,株式会社,福岡県,福岡市城南区,飯倉１丁目６番２７－２０５号,,40,136,8140134,,,,,,,2024-05-15,1,,,,,ニホンソウラク,0
1108,4290001105690,新規,0,2024-05-15,2024-05-15,福高ゴルフマネジメント株式会社,,株式会社,福岡県,福岡市博多区,中洲中島町４－２３高倉ビル,,40,132,8100802,,,,,,,2024-05-15,1,,,,,フクタカゴルフマネジメント,0
1109,4290001105708,新規,0,2024-05-15,2024-05-15,シャーマンテック工業株式会社,,株式会社,福岡県,福岡市東区,香住ヶ丘２丁目９番１２号第２作賑ビル１０３号,,40,131,8130003,,,,,,,2024-05-15,1,,,,,シャーマンテックコウギョウ,0
1110,4290001105716,新規,0,2024-05-15,2024-05-15,株式会社ＧＴコミュニケーションズ,,株式会社,福岡県,福岡市博多区,博多駅東１丁目９番１号ＰＡビル２Ｆ,,40,132,8120013,,,,,,,2024-05-15,1,,,,,ジイティコミュニケーションズ,0
1111,4290001105773,新規,0,2024-05-15,2024-05-15,日本エアロデザインエンジニアリング株式会社,,株式会社,福岡県,福岡市西区,野方３丁目４５番２９号,,40,135,8190043,,,,,,,2024-05-15,1,,,,,ニホンエアロデザインエンジニアリング,0
1112,4290003015236,新規,0,2024-05-15,2024-05-15,合同会社ｌｅｇｇｉａｄｒｏ,,合同会社,福岡県,福岡市博多区,築港本町１１－３エルスタンザ天神東１００２,,40,132,8120021,,,,,,,2024-05-15,1,,,,,レッジャードロ,0
1113,4290003015252,新規,0,2024-05-15,2024-05-15,たまほ合同会社,,合同会社,福岡県,福岡市博多区,祇園町８－１２ロータリー大和８０６号,,40,132,8120038,,,,,,,2024-05-15,1,,,,,タマホ,0
1114,4290003015260,新規,0,2024-05-15,2024-05-15,ＴＨＡＯ　ＳＴＯＲＥ合同会社,,合同会社,福岡県,福岡市東区,箱崎４丁目２７－１０日米フラットＩＩ１０１号,00134762,40,131,8120053,,,,,,,2024-05-15,1,,,,,タオストア,0
1121,4320001020449,新規,0,2024-05-15,2024-05-15,株式会社フィットヘルス,,株式会社,大分県,大分市,牧２丁目７番２２号,,44,201,8700924,,,,,,,2024-05-15,1,,,,,フィットヘルス,0
1123,4330001032063,新規,0,2024-05-15,2024-05-15,ＣＨＩ　ＹＩ　ＨＳＩＮ　ＪＡＰＡＮ株式会社,,株式会社,熊本県,熊本市東区,長嶺西３丁目２番７３－１号,,43,102,8618037,,,,,,,2024-05-15,1,,,,,,0
1132,4340003004480,新規,0,2024-05-15,2024-05-15,合同会社川上,,合同会社,鹿児島県,鹿児島市,下荒田２丁目１５番１６－１号,,46,201,8900056,,,,,,,2024-05-15,1,,,,,カワカミ,0
1133,4360001033661,新規,0,2024-05-15,2024-05-15,ＺＡＯ　ＭＯＴＥＲＳ株式会社,,株式会社,沖縄県,豊見城市,字与根１番地５,,47,212,9010224,,,,,,,2024-05-15,1,,,,,ザオモータース,0
1148,4410003003921,新規,0,2024-05-15,2024-05-15,合同会社Ｑｉｒｏ,,合同会社,秋田県,秋田市,新屋船場町２番８号,,05,201,0101615,,,,,,,2024-05-15,1,,,,,キロ,0
1159,4500001025628,新規,0,2024-05-15,2024-05-15,マツヤ繊維株式会社,,株式会社,愛媛県,西予市,城川町土居１３８７番地,,38,214,7971701,,,,,,,2024-05-15,1,,,,,マツヤセンイ,0
1160,4700150125381,新規,0,2024-05-15,2024-05-15,ｓｈｅｎｚｈｅｎｓｈｉｓｅｎｒｕｉｓｈｉｙｅｙｏｕｘｉａｎｇｏｎｇｓｉ,,外国会社等,,,,,,,,ｂａｎｔｉａｎｊｉｅｄａｏ　ｍａａｎｔａｎｇｓｈｅｑｕ　ｈｕａｎｃｈｅｎｇｎａｎｌｕ　５ｈａｏ　ｂａｎｔｉａｎｇｕｏｊｉｚｈｏｎｇｘｉｎ　Ｆｄｏｎｇ　ｓｈｉｅｒｃｅｎｇ　１２０７ｓｈｉ　Ｓｈｅｎｚｈｅｎｓｈｉ　ｌｏｎｇｇａｎｇｑｕ　Ｇｕａｎｇｄｏｎｇｓｈｅｎｇ　５１８１００　ＣＮ,,,,,,2024-05-15,1,,,,,シェンジェンシーセンゥルイシーイエヨウシエンゴーンスー,0
1170,5010001244689,新規,0,2024-05-15,2024-05-15,株式会社ネクストイノベーション,,株式会社,東京都,千代田区,九段南３丁目７番２号九段みなみビル２Ｆ,,13,101,1020074,,,,,,,2024-05-15,1,,,,,ネクストイノベーション,0
1171,5010001244788,新規,0,2024-05-15,2024-05-15,株式会社相双ＵＰ,,株式会社,東京都,中央区,八重洲２丁目１０番８号八重洲ビル４Ｆ,,13,102,1040028,,,,,,,2024-05-15,1,,,,,ソウソウアップ,0
1176,5010003043742,新規,0,2024-05-15,2024-05-15,関東持株合同会社,,合同会社,東京都,千代田区,神田平河町１番地第３東ビル５ＦイーオフィスＡＫＩＢＡ２番館２７号,,13,101,1010027,,,,,,,2024-05-15,1,,,,,カントウモチカブ,0
1178,5010105002266,新規,0,2024-05-15,2024-05-15,特定非営利活動法人ｍｉｎａ,,その他の設立登記法人,東京都,八王子市,千人町３丁目１７番１号蔵寿コーポラス２０２号室,,13,201,1930835,,,,,,,2024-05-15,1,,,,,ミナ,0
1186,5010401182448,新規,0,2024-05-15,2024-05-15,ＫＳＣ株式会社,,株式会社,東京都,港区,六本木７丁目７番７号,,13,103,1060032,,,,,,,2024-05-15,1,,,,,ケーエスシー,0
1192,5010403032626,新規,0,2024-05-15,2024-05-15,ＬＤ２賢島合同会社,,合同会社,東京都,港区,虎ノ門５丁目１番４号,,13,103,1050001,,,,,,,2024-05-15,1,,,,,エルディツーカシコジマ,0
1203,5010901055269,新規,0,2024-05-15,2024-05-15,株式会社Ｓｔｏｎｅｆｒｕｉｔｓ,,株式会社,東京都,世田谷区,三宿２丁目１１－１７－２１０,,13,112,1540005,,,,,,,2024-05-15,1,,,,,ストーンフルーツ,0
1217,5011001161858,新規,0,2024-05-15,2024-05-15,株式会社Ｃｏｎｆｉａｎｚａ,,株式会社,東京都,目黒区,下目黒６丁目２０番１４号２０１号室,,13,110,1530064,,,,,,,2024-05-15,1,,,,,コンフィアンサ,0
1218,5011001161908,新規,0,2024-05-15,2024-05-15,株式会社デジタルゲート,,株式会社,東京都,渋谷区,渋谷２丁目１９－１５宮益坂ビルディング６０９,,13,113,1500002,,,,,,,2024-05-15,1,,,,,デジタルゲート,0
1219,5011001161981,新規,0,2024-05-15,2024-05-15,株式会社Ｃ＆Ｏ　ｅｎｔｅｒｔａｉｎｍｅｎｔ,,株式会社,東京都,目黒区,上目黒３丁目１番４号中目黒グリーンプラザビル６階,,13,110,1530051,,,,,,,2024-05-15,1,,,,,シーアンドオーエンターテイメント,0
1221,5011003019138,新規,0,2024-05-15,2024-05-15,ハニカム６合同会社,,合同会社,東京都,渋谷区,道玄坂１丁目１０番８号渋谷道玄坂東急ビル２Ｆ－Ｃ,,13,113,1500043,,,,,,,2024-05-15,1,,,,,ハニカムシックス,0
1224,5011103014419,新規,0,2024-05-15,2024-05-15,京都四条大宮ホテル合同会社,,合同会社,東京都,新宿区,下宮比町１番４号,,13,104,1620822,,,,,,,2024-05-15,1,,,,,キョウトシジョウオオミヤホテル,0
1226,5011301029664,新規,0,2024-05-15,2024-05-15,株式会社Ｇ‐ＰＲＩＭＥ,,株式会社,東京都,杉並区,下高井戸２丁目２７番８号,,13,115,1680073,,,,,,,2024-05-15,1,,,,,,0
1230,5011501030653,新規,0,2024-05-15,2024-05-15,パークプレイスエステート株式会社,,株式会社,東京都,北区,赤羽西１丁目５番１－１１０３号,,13,117,1150055,,,,,,,2024-05-15,1,,,,,パークプレイスエステート,0
1231,5011501030661,新規,0,2024-05-15,2024-05-15,ＷＯＯＨＹＵＮ　ＳＨＩＰＰＮＧ　ＪＡＰＡＮ株式会社,,株式会社,東京都,荒川区,東日暮里２丁目３６番４－６０１号,,13,118,1160014,,,,,,,2024-05-15,1,,,,,ウヒヨンシッピングジャパン,0
1233,5011701027268,新規,0,2024-05-15,2024-05-15,株式会社ＨｘＨ,,株式会社,東京都,江戸川区,北篠崎１丁目１番１４号,,13,123,1330053,,,,,,,2024-05-15,1,,,,,エイチバイエイチ,0
1234,5011701027276,新規,0,2024-05-15,2024-05-15,盛和株式会社,,株式会社,東京都,江戸川区,北小岩６丁目１７－５・４Ｅ,,13,123,1330051,,,,,,,2024-05-15,1,,,,,モリワ,0
1235,5011701027284,新規,0,2024-05-15,2024-05-15,株式会社ＳＭＡＣ,,株式会社,東京都,江戸川区,松江３丁目４番２２号,,13,123,1320025,,,,,,,2024-05-15,1,,,,,スマック,0
1236,5011701027292,新規,0,2024-05-15,2024-05-15,睿佑株式会社,,株式会社,東京都,江戸川区,江戸川６丁目４０－１４、２１５号室,,13,123,1340013,,,,,,,2024-05-15,1,,,,,エイユウ,0
1239,5011803006236,新規,0,2024-05-15,2024-05-15,合同会社輝,,合同会社,東京都,葛飾区,堀切４丁目５０番２号,,13,122,1240006,,,,,,,2024-05-15,1,,,,,カガヤキ,0
1241,5012401041864,新規,0,2024-05-15,2024-05-15,株式会社ＯＣＥＡＮＳ３,,株式会社,東京都,稲城市,坂浜４５４番地の１２,,13,225,2060822,,,,,,,2024-05-15,1,,,,,オーシャンズスリー,0
1243,5012405004990,新規,0,2024-05-15,2024-05-15,ＮＰＯ法人府中ＪＳＬ日本語支援協会,,その他の設立登記法人,東京都,府中市,住吉町１丁目８４番地の１ステーザ府中中河原４階,,13,206,1830034,,,,,,,2024-05-15,1,,,,,フチュウジェイエスエルニホンゴシエンキョウカイ,0
1248,5013101009409,新規,0,2024-05-15,2024-05-15,株式会社ホームワン,,株式会社,東京都,青梅市,河辺町８丁目１３番１３号,,13,205,1980036,,,,,,,2024-05-15,1,,,,,,0
1253,5013301052506,新規,0,2024-05-15,2024-05-15,株式会社ＹＯＬＯ,,株式会社,東京都,豊島区,巣鴨４丁目１２－１６ニュー巣鴨ハイツ４０１,,13,116,1700002,,,,,,,2024-05-15,1,,,,,ヨロ,0
1260,5020001157213,新規,0,2024-05-15,2024-05-15,株式会社ドミナントセブンス,,株式会社,神奈川県,横浜市中区,元町１丁目７７番地１２,,14,104,2310861,,,,,,,2024-05-15,1,,,,,ドミナントセブンス,0
1261,5020001157221,新規,0,2024-05-15,2024-05-15,きたかみカンパニー株式会社,,株式会社,神奈川県,横浜市都筑区,大熊町８－１ニューライフマンション７１５号,,14,118,2240042,,,,,,,2024-05-15,1,,,,,キタカミカンパニー,0
1262,5020001157262,新規,0,2024-05-15,2024-05-15,株式会社ＢｙＳｉｄｅ,,株式会社,神奈川県,川崎市幸区,中幸町１丁目５０番服部ビル１Ｆ,,14,132,2120012,,,,,,,2024-05-15,1,,,,,バイサイド,0
1266,5020003026151,新規,0,2024-05-15,2024-05-15,合同会社合理的修繕,,合同会社,神奈川県,川崎市中原区,新丸子東３丁目１１００番地１２Ｍ１６１３,,14,133,2110004,,,,,,,2024-05-15,1,,,,,ゴウリテキシュウゼン,0
1271,5021003014501,新規,0,2024-05-15,2024-05-15,合同会社スローカーブファクトリー,,合同会社,神奈川県,横須賀市,ハイランド２丁目３９－１６,,14,201,2390833,,,,,,,2024-05-15,1,,,,,スローカーブファクトリー,0
1284,5030001160307,新規,0,2024-05-15,2024-05-15,フリーロード株式会社,,株式会社,埼玉県,さいたま市西区,宮前町６８２番地１－１０１,,11,101,3310046,,,,,,,2024-05-15,1,,,,,フリーロード,0
1285,5030001160331,新規,0,2024-05-15,2024-05-15,サークルコネクト株式会社,,株式会社,埼玉県,鴻巣市,滝馬室１４６２番地３,,11,217,3650044,,,,,,,2024-05-15,1,,,,,サークルコネクト,0
1286,5030001160364,新規,0,2024-05-15,2024-05-15,３ｃｏｎｇａ株式会社,,株式会社,埼玉県,富士見市,水谷東３丁目６番１２号,,11,235,3540013,,,,,,,2024-05-15,1,,,,,サンコンガ,0
1289,5030003024286,新規,0,2024-05-15,2024-05-15,合同会社ｓｐａｃｅ　ｂａｎｋ,,合同会社,埼玉県,熊谷市,新堀１７番地３サングランデ１０１,,11,202,3600841,,,,,,,2024-05-15,1,,,,,スペースバンク,0
1301,5040003024995,新規,0,2024-05-15,2024-05-15,合同会社ＹＨ,,合同会社,千葉県,千葉市中央区,栄町３２番１－１階,,12,101,2600016,,,,,,,2024-05-15,1,,,,,ワイエイチ,0
1302,5040005022394,新規,0,2024-05-15,2024-05-15,社会保険労務士法人ＨＲ　ｄｅｓｉｇｎ,,その他の設立登記法人,千葉県,我孫子市,寿２丁目６番１９号,,12,222,2701152,,,,,,,2024-05-15,1,,,,,エイチアールデザイン,0
1306,5060003005069,新規,0,2024-05-15,2024-05-15,合同会社ＵＭＵ　ｄｅｖｉｓｉｎｇ,,合同会社,栃木県,芳賀郡益子町,大字七井８２８番地３,,09,342,3214106,,,,,,,2024-05-15,1,,,,,ユウエムユウデバイシング,0
1309,5080101024745,新規,0,2024-05-15,2024-05-15,株式会社土光ル,,株式会社,静岡県,富士宮市,羽鮒１９０９,,22,207,4190316,,,,,,,2024-05-15,1,,,,,ツチヒカル,0
1320,5110003005393,新規,0,2024-05-15,2024-05-15,合同会社ＴＥＥ’Ｓ　ＷＯＲＫＳ,,合同会社,新潟県,新潟市南区,味方２０４番地,,15,106,9501261,,,,,,,2024-05-15,1,,,,,ティーズワークス,0
1321,5110005017098,新規,0,2024-05-15,2024-05-15,ライオンズマンション越後湯沢第３管理組合法人,,その他の設立登記法人,新潟県,南魚沼郡湯沢町,大字湯沢２２５３番地５,,15,461,9496101,,,,,,,2024-05-15,1,,,,,ライオンズマンションエチゴユザワダイサン,0
1334,5120001264866,新規,0,2024-05-15,2024-05-15,大成運営管理株式会社,,株式会社,大阪府,大阪市浪速区,敷津西２丁目１６－４－２０２,,27,111,5560015,,,,,,,2024-05-15,1,,,,,タイセイウンエイカンリ,0
1335,5120001264874,新規,0,2024-05-15,2024-05-15,楽図株式会社,,株式会社,大阪府,大阪市淀川区,東三国６丁目１２番１３号ＥＸＥマンション５０１号室,,27,123,5320002,,,,,,,2024-05-15,1,,,,,ラクト,0
1336,5120001264890,新規,0,2024-05-15,2024-05-15,Ｊ‐ＷＡＶＥ株式会社,,株式会社,大阪府,大阪市阿倍野区,長池町２１番１０号オーナーズビル西田辺ＥＡＳＴ４０２,,27,119,5450013,,,,,,,2024-05-15,1,,,,,ジェイウェイブ,0
1340,5120003026562,新規,0,2024-05-15,2024-05-15,合同会社ジオテック,,合同会社,大阪府,枚方市,黄金野１丁目１５番９号,,27,210,5731145,,,,,,,2024-05-15,1,,,,,ジオテック,0
1341,5120003026570,新規,0,2024-05-15,2024-05-15,合同会社Ｊａｐａｎｄａｓ,,合同会社,大阪府,寝屋川市,東大利町１８番２－１０１号,,27,215,5720042,,,,,,,2024-05-15,1,,,,,ジャパンダス,0
1347,5120101069570,新規,0,2024-05-15,2024-05-15,株式会社Ｇｒｅｅｄ,,株式会社,大阪府,堺市堺区,甲斐町東３丁１番１３号,,27,141,5900953,,,,,,,2024-05-15,1,,,,,グリード,0
1359,5150001009194,新規,0,2024-05-15,2024-05-15,株式会社あるぼーる,,株式会社,奈良県,桜井市,大字粟殿３５５番地,,29,206,6330062,,,,,,,2024-05-15,1,,,,,アルボール,0
1381,5180003026706,新規,0,2024-05-15,2024-05-15,合同会社フェリクステラ,,合同会社,愛知県,名古屋市南区,笠寺町字下新町８９番地９,,23,112,4570051,,,,,,,2024-05-15,1,,,,,フェリクステラ,0
1382,5180005020624,新規,0,2024-05-15,2024-05-15,特定非営利活動法人霞ケ丘クラブ,,その他の設立登記法人,愛知県,名古屋市千種区,霞ケ丘２丁目７番２５号,,23,101,4640041,,,,,,,2024-05-15,1,,,,,カスミガオカクラブ,0
1393,5230003002206,新規,0,2024-05-15,2024-05-15,合同会社富山設備,,合同会社,富山県,射水市,池多２－１,,16,211,9390318,,,,,,,2024-05-15,1,,,,,,0
1404,5290001105649,新規,0,2024-05-15,2024-05-15,株式会社九州ランカ,,株式会社,福岡県,福岡市中央区,清川１丁目８番８号かつやビル２Ｆ,,40,133,8100005,,,,,,,2024-05-15,1,,,,,キュウシュウランカ,0
1405,5290001105665,新規,0,2024-05-15,2024-05-15,株式会社ＦＵＪＩＷＡＲＡ,,株式会社,福岡県,福岡市早良区,原６丁目２番２４号,,40,137,8140022,,,,,,,2024-05-15,1,,,,,フジワラ,0
1406,5290001105715,新規,0,2024-05-15,2024-05-15,サンライズホールディングス株式会社,,株式会社,福岡県,福岡市博多区,上呉服町１１番１６号ＴＡＫＡＩＢＬＤ５０２,,40,132,8120036,,,,,,,2024-05-15,1,,,,,サンライズホールディングス,0
1412,5290003015251,新規,0,2024-05-15,2024-05-15,ＢＭ合同会社,,合同会社,福岡県,福岡市博多区,吉塚１丁目１８－３,,40,132,8120041,,,,,,,2024-05-15,1,,,,,ビーエム,0
1413,5290003015268,新規,0,2024-05-15,2024-05-15,Ｖｅｔｆｏｒｕｓ合同会社,,合同会社,福岡県,福岡市博多区,博多駅前１丁目２３番２号ＰａｒｋＦｒｏｎｔ博多駅前１丁目５Ｆ－Ｂ,,40,132,8120011,,,,,,,2024-05-15,1,,,,,ベットフォーラス,0
1414,5290003015276,新規,0,2024-05-15,2024-05-15,合同会社エンパワメント,,合同会社,福岡県,久留米市,合川町１２０５－１,,40,203,8390861,,,,,,,2024-05-15,1,,,,,エンパワメント,0
1417,5290801030567,新規,0,2024-05-15,2024-05-15,株式会社乙女水産,,株式会社,福岡県,築上郡吉富町,大字小犬丸４５２番地１,,40,642,8710802,,,,,,,2024-05-15,1,,,,,オトメスイサン,0
1418,5310001019012,新規,0,2024-05-15,2024-05-15,株式会社運動場,,株式会社,長崎県,対馬市,上県町佐須奈乙１０８０,,42,209,8171602,,,,,,,2024-05-15,1,,,,,ウンドウジョウ,0
1424,5350005006234,新規,0,2024-05-15,2024-05-15,特定非営利活動法人しまうら未来開発プロジェクト,,その他の設立登記法人,宮崎県,延岡市,島浦町７４５番地１,,45,203,8820096,,,,,,,2024-05-15,1,,,,,シマウラミライカイハツプロジェクト,0
1435,5430001091809,新規,0,2024-05-15,2024-05-15,株式会社池田車輛工業,,株式会社,北海道,滝川市,幸町１丁目１１番２４号,,01,225,0730043,,,,,,,2024-05-15,1,,,,,イケダシャリョウコウギョウ,0
1442,5480003002123,新規,0,2024-05-15,2024-05-15,合同会社アッセビアン,,合同会社,徳島県,徳島市,西新浜町１丁目１番１９－１０４号,,36,201,7708008,,,,,,,2024-05-15,1,,,,,アッセビアン,0
1446,5700150125380,新規,0,2024-05-15,2024-05-15,ＳＨＥＮＺＨＥＮＳＨＩ　ＳＨＥＮＧＷＡＮＧＪＩＡＫＥＪＩ　ＹＯＵＸＩＡＮＧＯＮＧＳＩ,,外国会社等,,,,,,,,ｓｈｅｎｚｈｅｎｓｈｉｌｏｎｇｇａｎｇｑｕｂａｎｔｉａｎｊｉｅｄａｏｍａａｎｔａｎｇｓｈｅｑｕｈｕａｎｃｈｅｎｇｎａｎｌｕ５ｈａｏｂａｎｔｉａｎｇｕｏｊｉｚｈｏｎｇｘｉｎＦｄｏｎｇｓｈｉｅｒ　ｅｎｇ１２０３ｓｈｉ,,,,,,2024-05-15,1,,,,,シェンジェンシーシュヨンワーンジアコーァジーヨウシエンゴーンスー,0
1447,5700150125389,新規,0,2024-05-15,2024-05-15,ｓｈｅｎｚｈｅｎｑｉｎｇｆｅｎｔｉｎｇｘｉｕＩｎｆｏｒｍａｔｉｏｎｔｅｃｈｎｏｌｏｇｙＣｏ．，Ｌｔｄ,,外国会社等,,,,,,,,ｓｈｅｎ　ｚｈｅｎ　ｓｈｉ　ｌｏｎｇ　ｇａｎｇ　ｑｕ　ｎａｎ　ｗａｎ　ｊｉｅ　ｄａｏ　ｓｈａｎｇｌｉｌａｎｇｓｈｅｑｕｂｕｌａｎｌｕ１８２ｈａｏ１８２ｓｈｅｊｉｙｕａｎｂａｏｔａｉｄａｓｈａ２４０５－０６　ｓｈｅｎｚｈｅｎ　ｇｕａｎｇ　ｄｏｎｇ　５１８１００　ＣＮ,,,,,,2024-05-15,1,,,,,シェンジェンチンフェンティンシューシンシーコージーヨウシエンゴンスー,0
1470,6010005038302,新規,0,2024-05-15,2024-05-15,一般社団法人あかり３号,,その他の設立登記法人,東京都,千代田区,平河町２丁目４番５号,,13,101,1020093,,,,,,,2024-05-15,1,,,,,アカリサンゴウ,0
1478,6010401182455,新規,0,2024-05-15,2024-05-15,ＭＯＢＩＵＳ　ＯＮＥ株式会社,,株式会社,東京都,港区,新橋５丁目１２－１１－４０５室,,13,103,1050004,,,,,,,2024-05-15,1,,,,,モビウスワン,0
1481,6010405023218,新規,0,2024-05-15,2024-05-15,一般財団法人ＫＰ‐ＮＥＸＴみらい財団,,その他の設立登記法人,東京都,港区,芝大門２丁目１番２号山口ビル５階,,13,103,1050012,,,,,,,2024-05-15,1,,,,,ケーピーネクストミライザイダン,0
1483,6010601065170,新規,0,2024-05-15,2024-05-15,株式会社ＩＣＥＢＥＲＧ　ＴＲＡＤＩＮＧ　ＪＡＰＡＮ,,株式会社,東京都,江東区,有明３丁目７番２６号有明フロンティアビルＢ棟９階,,13,108,1350063,,,,,,,2024-05-15,1,,,,,アイスバーグトレーディングジャパン,0
1484,6010601065179,新規,0,2024-05-15,2024-05-15,株式会社ブライトアセットマネジメント,,株式会社,東京都,江東区,東陽５丁目２３番６－２１４号,,13,108,1350016,,,,,,,2024-05-15,1,,,,,ブライトアセットマネジメント,0
1491,6010901055268,新規,0,2024-05-15,2024-05-15,株式会社スカイ,,株式会社,東京都,世田谷区,松原３丁目３０番１０号,,13,112,1560043,,,,,,,2024-05-15,1,,,,,スカイ,0
1492,6010901055276,新規,0,2024-05-15,2024-05-15,藤寅工業株式会社,,株式会社,東京都,世田谷区,世田谷１丁目４１番２号,,13,112,1540017,,,,,,,2024-05-15,1,,,,,フジトラコウギョウ,0
1493,6010901055284,新規,0,2024-05-15,2024-05-15,株式会社ＤＤＤ,,株式会社,東京都,世田谷区,三軒茶屋２丁目３８番１５号ビバ三茶２０１,,13,112,1540024,,,,,,,2024-05-15,1,,,,,トリプルディー,0
1494,6010903009057,新規,0,2024-05-15,2024-05-15,合同会社ＵＰＬＩＦＴｅｃｈ,,合同会社,東京都,世田谷区,桜丘４丁目１７－６,,13,112,1560054,,,,,,,2024-05-15,1,,,,,アップリフテック,0
1501,6011001161691,新規,0,2024-05-15,2024-05-15,株式会社Ｘ‐ｍｉ　ｆｉｔｎｅｓｓ．,,株式会社,東京都,目黒区,上目黒２丁目１２－１３今井前田共同ビル３階右,,13,110,1530051,,,,,,,2024-05-15,1,,,,,クロスミーフィットネス,0
1502,6011001161898,新規,0,2024-05-15,2024-05-15,株式会社フェムトテクノロジーズ,,株式会社,東京都,渋谷区,道玄坂１丁目１０番８号渋谷道玄坂東急ビル２Ｆ－Ｃ,,13,113,1500043,,,,,,,2024-05-15,1,,,,,フェムトテクノロジーズ,0
1504,6011003019137,新規,0,2024-05-15,2024-05-15,ハニカム５合同会社,,合同会社,東京都,渋谷区,道玄坂１丁目１０番８号渋谷道玄坂東急ビル２Ｆ－Ｃ,,13,113,1500043,,,,,,,2024-05-15,1,,,,,ハニカムファイブ,0
1511,6011501030669,新規,0,2024-05-15,2024-05-15,三益商事株式会社,,株式会社,東京都,北区,浮間１丁目１番１４号リムジンビル２１１,,13,117,1150051,,,,,,,2024-05-15,1,,,,,ミエキショウジ,0
1518,6011701027267,新規,0,2024-05-15,2024-05-15,ＬＳＹ物産株式会社,,株式会社,東京都,江戸川区,江戸川６丁目４０－１４、２１６号室,,13,123,1340013,,,,,,,2024-05-15,1,,,,,エルエスワイブッサン,0
1519,6011701027283,新規,0,2024-05-15,2024-05-15,株式会社ＮＥＸＵＳ,,株式会社,東京都,江戸川区,松島１丁目６番２号,,13,123,1320031,,,,,,,2024-05-15,1,,,,,ネクサス,0
1520,6011801044229,新規,0,2024-05-15,2024-05-15,マイ・スイートホーム株式会社,,株式会社,東京都,葛飾区,西水元３丁目２３番１号ハイツ植草１０２,,13,122,1250031,,,,,,,2024-05-15,1,,,,,マイスイートホーム,0
1523,6012401041855,新規,0,2024-05-15,2024-05-15,株式会社Ａｄｖａｎｃｅ,,株式会社,東京都,調布市,西つつじケ丘３丁目２番地１９,,13,208,1820006,,,,,,,2024-05-15,1,,,,,アドバンス,0
1524,6012401041863,新規,0,2024-05-15,2024-05-15,株式会社秀英,,株式会社,東京都,調布市,上石原３丁目５７番地６,,13,208,1820035,,,,,,,2024-05-15,1,,,,,シュウエイ,0
1525,6012403006559,新規,0,2024-05-15,2024-05-15,合同会社ユウティラヌス,,合同会社,東京都,小金井市,中町２丁目１９－３３コーラルハイツ１０２,,13,210,1840012,,,,,,,2024-05-15,1,,,,,ユウティラヌス,0
1532,6013301052505,新規,0,2024-05-15,2024-05-15,株式会社ＢＩＬＬＩＯＮ,,株式会社,東京都,豊島区,東池袋４丁目５番１号エアライズタワー１８１０号,,13,116,1700013,,,,,,,2024-05-15,1,,,,,ビリオン,0
1534,6013303007135,新規,0,2024-05-15,2024-05-15,合同会社スルー,,合同会社,東京都,豊島区,池袋３丁目４７－３ハイツウイスタリア３０５号,,13,116,1710014,,,,,,,2024-05-15,1,,,,,スルー,0
1540,6020001157138,新規,0,2024-05-15,2024-05-15,株式会社Ｃｕｌｅ,,株式会社,神奈川県,横浜市港北区,師岡町１１０６番地９,,14,109,2220002,,,,,,,2024-05-15,1,,,,,クレ,0
1541,6020001157187,新規,0,2024-05-15,2024-05-15,株式会社サキュロヴ,,株式会社,神奈川県,横浜市西区,北幸２丁目１０番４８号むつみビル３階,,14,103,2200004,,,,,,,2024-05-15,1,,,,,サキュロヴ,0
1542,6020001157195,新規,0,2024-05-15,2024-05-15,株式会社ＦＲＩＯ,,株式会社,神奈川県,横浜市港南区,港南台１丁目１１番１－１０４号,,14,111,2340054,,,,,,,2024-05-15,1,,,,,フリオ,0
1543,6020001157212,新規,0,2024-05-15,2024-05-15,ＮＯＷ株式会社,,株式会社,神奈川県,横浜市西区,桜木町４丁目２０番１－２０３号,,14,103,2200021,,,,,,,2024-05-15,1,,,,,ナウ,0
1547,6020003026043,新規,0,2024-05-15,2024-05-15,合同会社成松,,合同会社,神奈川県,横浜市神奈川区,鶴屋町１丁目４１番,,14,102,2210835,,,,,,,2024-05-15,1,,,,,ナリマツ,0
1548,6020003026101,新規,0,2024-05-15,2024-05-15,ＪＡＰＡＮ　ＢＲＥＥＺＥ合同会社,,合同会社,神奈川県,横浜市中区,本牧和田９－７,,14,104,2310827,,,,,,,2024-05-15,1,,,,,ジャパンブリーズ,0
1552,6021001082227,新規,0,2024-05-15,2024-05-15,株式会社ＫＡＮＯ,,株式会社,神奈川県,厚木市,下川入６２５,,14,212,2430206,,,,,,,2024-05-15,1,,,,,カノウ,0
1562,6030001160280,新規,0,2024-05-15,2024-05-15,シジジーズ株式会社,,株式会社,埼玉県,さいたま市大宮区,桜木町２丁目３番地大宮マルイ７階,,11,103,3300854,,,,,,,2024-05-15,1,,,,,シジジーズ,0
1563,6030001160355,新規,0,2024-05-15,2024-05-15,株式会社エムスリー,,株式会社,埼玉県,加須市,東栄２丁目７番１９号アルカディア１０３号,,11,210,3470064,,,,,,,2024-05-15,1,,,,,エムスリー,0
1570,6040001133608,新規,0,2024-05-15,2024-05-15,株式会社エリアＲ,,株式会社,千葉県,柏市,戸張１３１４－９,,12,217,2770008,,,,,,,2024-05-15,1,,,,,エリアアール,0
1574,6040005022393,新規,0,2024-05-15,2024-05-15,Ｕｎｉｔｅ協同組合,,その他の設立登記法人,千葉県,野田市,木間ケ瀬２３８１番地１,,12,208,2700222,,,,,,,2024-05-15,1,,,,,ユナイト,0
1582,6050003008369,新規,0,2024-05-15,2024-05-15,合同会社実喜友,,合同会社,茨城県,常総市,内守谷町きぬの里２丁目１４番地４０,,08,211,3030046,,,,,,,2024-05-15,1,,,,,ミキトモ,0
1583,6050003008377,新規,0,2024-05-15,2024-05-15,合同会社ＹＴ．ＢＩＯ,,合同会社,茨城県,取手市,白山４丁目７―１９,,08,217,3020023,,,,,,,2024-05-15,1,,,,,ワイティビオ,0
1587,6060001037096,新規,0,2024-05-15,2024-05-15,株式会社ＭＡＤＵＲＡＮＫＡ　ＥＸＰＯＲＴ,,株式会社,栃木県,佐野市,田島町９１番地６,,09,204,3270031,,,,,,,2024-05-15,1,,,,,マドゥランカエクスポート,0
1597,6100003007547,新規,0,2024-05-15,2024-05-15,合同会社Ｓ‐ＦＬＡＴ,,合同会社,長野県,上伊那郡南箕輪村,８４２５番地１４,,20,385,3994511,,,,,,,2024-05-15,1,,,,,エスフラット,0
1606,6110001038403,新規,0,2024-05-15,2024-05-15,株式会社ＬＡＭＥｓ,,株式会社,新潟県,新潟市西区,真砂１丁目１３番３２号ＣＬＯＥ小針西店,,15,107,9502074,,,,,,,2024-05-15,1,,,,,レイムス,0
1608,6110003005392,新規,0,2024-05-15,2024-05-15,合同会社ＫＨＡＮ　ＴＲＡＤＥ　ＷＯＲＬＤ,,合同会社,新潟県,新潟市北区,笠柳８５２番地２,,15,101,9503312,,,,,,,2024-05-15,1,,,,,カントレードワールド,0
1615,6120001264717,新規,0,2024-05-15,2024-05-15,株式会社Ｍｅ　Ｉｎｖｅｓｔ,,株式会社,大阪府,大阪市北区,天満２丁目８番３号クレグラン天満９０２号室,,27,127,5300043,,,,,,,2024-05-15,1,,,,,エムイーインベスト,0
1616,6120001264840,新規,0,2024-05-15,2024-05-15,株式会社Ｈ・Ｙ,,株式会社,大阪府,大阪市鶴見区,諸口４丁目６番３号,,27,124,5380051,,,,,,,2024-05-15,1,,,,,エイチワイ,0
1620,6120003026578,新規,0,2024-05-15,2024-05-15,ヒルズライフ合同会社,,合同会社,大阪府,大阪市東成区,神路１丁目７番４－８０３号,,27,115,5370003,,,,,,,2024-05-15,1,,,,,ヒルズライフ,0
1622,6120005024316,新規,0,2024-05-15,2024-05-15,一般社団法人Ｆｒｉｎｇｅ　Ｓｔａｆｆ　Ｐｏｒｔａｌ,,その他の設立登記法人,大阪府,大阪市東淀川区,淡路４丁目１４番１３号難波ビルＡ－１号,,27,114,5330032,,,,,,,2024-05-15,1,,,,,フリンジスタッフポータル,0
1623,6120103005829,新規,0,2024-05-15,2024-05-15,えんじょい合同会社,,合同会社,大阪府,堺市東区,大美野１１２番地９,,27,143,5998126,,,,,,,2024-05-15,1,,,,,エンジョイ,0
1630,6130001077052,新規,0,2024-05-15,2024-05-15,株式会社ａｎｄ,,株式会社,京都府,宇治市,折居台４丁目１番地の１６９,,26,204,6110023,,,,,,,2024-05-15,1,,,,,アンド,0
1640,6140003020562,新規,0,2024-05-15,2024-05-15,合同会社このためタクシー,,合同会社,兵庫県,神戸市中央区,磯辺通１丁目１番１８号カサベラ国際プラザビル７０７号室,,28,110,6510084,,,,,,,2024-05-15,1,,,,,コノタメタクシー,0
1641,6140003020570,新規,0,2024-05-15,2024-05-15,合同会社ＪＵＮコンサルティング,,合同会社,兵庫県,尼崎市,西難波町３丁目１９番２号,,28,202,6600893,,,,,,,2024-05-15,1,,,,,ジュンコンサルティング,0
1643,6150001027278,新規,0,2024-05-15,2024-05-15,株式会社ｍ．ｍ,,株式会社,奈良県,奈良市,左京３丁目６番地アルス高の原５－３０２,,29,201,6310801,,,,,,,2024-05-15,1,,,,,エムエム,0
1650,6180001161413,新規,0,2024-05-15,2024-05-15,株式会社Ｂｅｒｙｌ,,株式会社,愛知県,名古屋市中区,錦２丁目７番７号プラウドタワー名古屋錦１９０３号,,23,106,4600003,,,,,,,2024-05-15,1,,,,,ベリル,0
1651,6180001161495,新規,0,2024-05-15,2024-05-15,株式会社Ｙ＆Ｓ,,株式会社,愛知県,名古屋市千種区,千種通６丁目２７番地の３丸美シティーマンション大久手４０３号,,23,101,4640855,,,,,,,2024-05-15,1,,,,,ワイアンドエス,0
1658,6180003026779,新規,0,2024-05-15,2024-05-15,合同会社バランスセブン,,合同会社,愛知県,春日井市,押沢台４丁目１０番地１６サンライトｏｓｈｉｚａｗａ１０１号,,23,206,4870005,,,,,,,2024-05-15,1,,,,,バランスセブン,0
1669,6210001019756,新規,0,2024-05-15,2024-05-15,株式会社キリンジュ,,株式会社,福井県,敦賀市,古田刈１６号７番地の１,,18,202,9140045,,,,,,,2024-05-15,1,,,,,キリンジュ,0
1679,6270001008976,新規,0,2024-05-15,2024-05-15,株式会社Ｐｌｕｓパートナー,,株式会社,鳥取県,境港市,麦垣町３４５番地３,,31,204,6840052,,,,,,,2024-05-15,1,,,,,プラスパートナー,0
1686,6290001105714,新規,0,2024-05-15,2024-05-15,株式会社Ｃｏｎｎｅｃｔ,,株式会社,福岡県,那珂川市,松木２丁目９０番地,,40,231,8111251,,,,,,,2024-05-15,1,,,,,コネクト,0
1687,6290001105722,新規,0,2024-05-15,2024-05-15,九州五島海運株式会社,,株式会社,福岡県,福岡市東区,松崎４丁目１０番１０号,,40,131,8130035,,,,,,,2024-05-15,1,,,,,キュウシュウゴシマカイウン,0
1691,6290003015259,新規,0,2024-05-15,2024-05-15,合同会社ビジョンソリューション,,合同会社,福岡県,福岡市中央区,天神４丁目６番２８号天神ファーストビル７階,,40,133,8100001,,,,,,,2024-05-15,1,,,,,ビジョンソリューション,0
1692,6290003015275,新規,0,2024-05-15,2024-05-15,合同会社Ｌａｕｇｈ,,合同会社,福岡県,福岡市中央区,白金２丁目１５－１３ロイヤル白金１Ｆ,,40,133,8100012,,,,,,,2024-05-15,1,,,,,ラフ,0
1694,6290801030566,新規,0,2024-05-15,2024-05-15,サトラギ株式会社,,株式会社,福岡県,北九州市八幡西区,小嶺台２丁目１４－２２,,40,109,8070082,,,,,,,2024-05-15,1,,,,,サトラギ,0
1699,6310003004795,新規,0,2024-05-15,2024-05-15,合同会社Ｌｉｔｔｌｅ　Ｓｅｖｅｎ,,合同会社,長崎県,長崎市,小江原１丁目３４番８号,,42,201,8511132,,,,,,,2024-05-15,1,,,,,リトルセブン,0
1704,6330003010370,新規,0,2024-05-15,2024-05-15,合同会社ＧＬＯＢＮＯＸ‐ＪＡＰＡＮ,,合同会社,熊本県,上益城郡益城町,大字広崎５１７番地２Ｕハウス２－２号,,43,443,8612236,,,,,,,2024-05-15,1,,,,,グローブノックスジャパン,0
1712,6350003004643,新規,0,2024-05-15,2024-05-15,合同会社エム・エンタープライズ,,合同会社,宮崎県,宮崎市,中央通８番９号西エビスビル４１０号,,45,201,8800002,,,,,,,2024-05-15,1,,,,,エムエンタープライズ,0
1713,6360001033585,新規,0,2024-05-15,2024-05-15,株式会社Ｇｒａｄａｔｉｏｎ,,株式会社,沖縄県,那覇市,首里金城町１丁目４８番地,,47,201,9030815,,,,,,,2024-05-15,1,,,,,グラデーション,0
1719,6380001034540,新規,0,2024-05-15,2024-05-15,株式会社フードビジネスファクトリー,,株式会社,福島県,郡山市,大町１丁目２番９号,,07,203,9638001,,,,,,,2024-05-15,1,,,,,フードビジネスファクトリー,0
1733,6700150125388,新規,0,2024-05-15,2024-05-15,Ｓｈｅｎｚｈｅｎ　ｒｕｉｓｉｓｈｕｏ　Ｔｅｃｈｎｏｌｏｇｙ　Ｃｏ．，Ｌｔｄ．,,外国会社等,,,,,,,,Ｓｈｅｎｚｈｅｎｓｈｉｌｕｏｈｕｑｕｑｉｎｇｓｈｕｉｈｅｊｉｅｄａｏｌｏｎｇｈｕｓｈｅｑｕｌｏｎｇｙｕａｎｓｈａｎｚｈｕａｎｇ２８．２９ｄｏｎｇ２８ｄｏｎｇ１３０６ｓｈｅｎｚｈｅｎｓｈｉ　ｇｕａｎｇｄｏｎｇｓｈｅｎ,,,,,,2024-05-15,1,,,,,シェンジェンシールイスーシュオコージーヨウシエンゴンスー,0
1747,7010103002357,新規,0,2024-05-15,2024-05-15,合同会社ＢＥＳＴ　ＰＬＡＣＥ,,合同会社,東京都,八王子市,明神町２丁目１５番３号セブンビル４階,,13,201,1920046,,,,,,,2024-05-15,1,,,,,ベストプレイス,0
1748,7010105002264,新規,0,2024-05-15,2024-05-15,特定非営利活動法人アイシン,,その他の設立登記法人,東京都,八王子市,椚田町５３５番地１３澤田ビルＢ－１０２号,,13,201,1930942,,,,,,,2024-05-15,1,,,,,アイシン,0
1761,7010401182099,新規,0,2024-05-15,2024-05-15,アンフル株式会社,,株式会社,東京都,港区,虎ノ門４丁目３番１号,,13,103,1050001,,,,,,,2024-05-15,1,,,,,アンフル,0
1762,7010401182421,新規,0,2024-05-15,2024-05-15,株式会社ビー・エスデザイン,,株式会社,東京都,港区,台場１丁目３番４－８０２号,,13,103,1350091,,,,,,,2024-05-15,1,,,,,ビーエスデザイン,0
1763,7010401182462,新規,0,2024-05-15,2024-05-15,クロビティジャパン株式会社,,株式会社,東京都,港区,芝大門２丁目１２番１０号Ｔ＆Ｇ浜松町ビル６階,,13,103,1050012,,,,,,,2024-05-15,1,,,,,クロビティジャパン,0
1765,7010403032582,新規,0,2024-05-15,2024-05-15,合同会社ｓｗｆ,,合同会社,東京都,港区,浜松町２丁目２番１５号浜松町ダイヤビル２Ｆ,,13,103,1050013,,,,,,,2024-05-15,1,,,,,エスダブルエフ,0
1766,7010403032616,新規,0,2024-05-15,2024-05-15,合同会社ＷｉｎｅＢａｎｋ　Ｐ３,,合同会社,東京都,港区,六本木４丁目１２番８号,,13,103,1060032,,,,,,,2024-05-15,1,,,,,ワインバンクピースリー,0
1772,7010601065178,新規,0,2024-05-15,2024-05-15,株式会社ケーエイチ,,株式会社,東京都,江東区,深川１丁目８番１５号－３０２,,13,108,1350033,,,,,,,2024-05-15,1,,,,,ケーエイチ,0
1774,7010703007177,新規,0,2024-05-15,2024-05-15,合同会社Ｂｒｉｇｈｔｅｒ　Ｘ,,合同会社,東京都,品川区,東品川３丁目１５番１４－３０１号,,13,109,1400002,,,,,,,2024-05-15,1,,,,,ブライターエックス,0
1790,7011001161889,新規,0,2024-05-15,2024-05-15,株式会社歯医者のお医者,,株式会社,東京都,渋谷区,恵比寿西２丁目８番４号ＥＸ恵比寿西ビル５階,,13,113,1500021,,,,,,,2024-05-15,1,,,,,ハイシャノオイシャ,0
1791,7011001162029,新規,0,2024-05-15,2024-05-15,株式会社Ｆｌｕｍｅ,,株式会社,東京都,渋谷区,恵比寿２丁目２番１１－２０８号,,13,113,1500013,,,,,,,2024-05-15,1,,,,,フルーム,0
1793,7011003019136,新規,0,2024-05-15,2024-05-15,ハニカム４合同会社,,合同会社,東京都,渋谷区,道玄坂１丁目１０番８号渋谷道玄坂東急ビル２Ｆ－Ｃ,,13,113,1500043,,,,,,,2024-05-15,1,,,,,ハニカムフォー,0
1803,7011501030668,新規,0,2024-05-15,2024-05-15,株式会社ＯＳＥ,,株式会社,東京都,北区,浮間２丁目１７番１０号,,13,117,1150051,,,,,,,2024-05-15,1,,,,,オーエスイー,0
1808,7011701027266,新規,0,2024-05-15,2024-05-15,株式会社清衛産業,,株式会社,東京都,江戸川区,西葛西７丁目５番１５－３０１号,,13,123,1340088,,,,,,,2024-05-15,1,,,,,キヨエイサンギョウ,0
1809,7011701027274,新規,0,2024-05-15,2024-05-15,株式会社晴海商事,,株式会社,東京都,江戸川区,南篠崎町２丁目３５番１０号,,13,123,1330065,,,,,,,2024-05-15,1,,,,,ハルミショウジ,0
1811,7012403006558,新規,0,2024-05-15,2024-05-15,合同会社ＮＡＣＳ,,合同会社,東京都,調布市,上石原３丁目３２番地７ブールデリエール調布１０６,,13,208,1820035,,,,,,,2024-05-15,1,,,,,ナックス,0
1817,7013301052495,新規,0,2024-05-15,2024-05-15,株式会社オルハン,,株式会社,東京都,豊島区,東池袋１丁目１７番１１号パークハイツ池袋１１０５号,,13,116,1700013,,,,,,,2024-05-15,1,,,,,オルハン,0
1828,7020001157203,新規,0,2024-05-15,2024-05-15,ＢＵＳＹ株式会社,,株式会社,神奈川県,横浜市磯子区,洋光台３丁目１３番５－１０３号,,14,107,2350045,,,,,,,2024-05-15,1,,,,,ビジー,0
1829,7020001157211,新規,0,2024-05-15,2024-05-15,株式会社Ｇｌｏｂａｌ　Ｌｉｎｋｅｒ,,株式会社,神奈川県,横浜市神奈川区,片倉４丁目２番１３号,,14,102,2210865,,,,,,,2024-05-15,1,,,,,グローバルリンカー,0
1830,7020003026100,新規,0,2024-05-15,2024-05-15,いいくらし合同会社,,合同会社,神奈川県,横浜市都筑区,東山田町１４２９番地,,14,118,2240024,,,,,,,2024-05-15,1,,,,,イイクラシ,0
1838,7021005013111,新規,0,2024-05-15,2024-05-15,一般社団法人相模原市食品衛生協会,,その他の設立登記法人,神奈川県,相模原市中央区,中央３丁目３番６号アーバン木下１０２号,,14,152,2520239,,,,,,,2024-05-15,1,,,,,サガミハラシショクヒンエイセイキョウカイ,0
1844,7030001160288,新規,0,2024-05-15,2024-05-15,ＣＥＲＡＲＥＴＥ株式会社,,株式会社,埼玉県,越谷市,谷中町１丁目１４１番地１グランデュール越谷Ａ棟２０１,,11,222,3430856,,,,,,,2024-05-15,1,,,,,セラレーテ,0
1852,7040001133508,新規,0,2024-05-15,2024-05-15,リノーズ株式会社,,株式会社,千葉県,柏市,小青田５丁目７番デュオヒルズ・ザ・グラン２２２号室,,12,217,2770803,,,,,,,2024-05-15,1,,,,,リノーズ,0
1853,7040001133532,新規,0,2024-05-15,2024-05-15,株式会社ＦＵＪＩＭＩ,,株式会社,千葉県,君津市,箕輪１２０２－１,,12,225,2920453,,,,,,,2024-05-15,1,,,,,フジミ,0
1854,7040001133607,新規,0,2024-05-15,2024-05-15,株式会社金七,,株式会社,千葉県,市川市,塩焼２丁目２番７３号,,12,203,2720114,,,,,,,2024-05-15,1,,,,,カネシチ,0
1862,7050003008368,新規,0,2024-05-15,2024-05-15,合同会社平須通商,,合同会社,茨城県,水戸市,平須町１８１４番地の８３,,08,201,3100853,,,,,,,2024-05-15,1,,,,,ヒラスツウショウ,0
1865,7060003005075,新規,0,2024-05-15,2024-05-15,合同会社ミドリテクス,,合同会社,栃木県,栃木市,岩舟町静５１３８番地９,,09,203,3294307,,,,,,,2024-05-15,1,,,,,ミドリテクス,0
1866,7070001041749,新規,0,2024-05-15,2024-05-15,株式会社戦国,,株式会社,群馬県,伊勢崎市,本町８番地１０ヴィーナス伊勢崎２Ｆ－２Ａ,,10,204,3720047,,,,,,,2024-05-15,1,,,,,センゴク,0
1868,7080003003201,新規,0,2024-05-15,2024-05-15,ハウリック合同会社,,合同会社,静岡県,静岡市清水区,由比４６７番地の２３,,22,103,4213103,,,,,,,2024-05-15,1,,,,,ハウリック,0
1893,7120001264674,新規,0,2024-05-15,2024-05-15,株式会社Ｍ’ｓｃｏｍｐａｎｙ,,株式会社,大阪府,大阪市北区,大淀南２丁目２番９－２２０３号,,27,127,5310075,,,,,,,2024-05-15,1,,,,,エムズカンパニー,0
1894,7120001264848,新規,0,2024-05-15,2024-05-15,株式会社ＮＫＴＮ,,株式会社,大阪府,大阪市西成区,橘１丁目３番６号,,27,122,5570051,,,,,,,2024-05-15,1,,,,,エヌケーティエヌ,0
1895,7120001264897,新規,0,2024-05-15,2024-05-15,株式会社笑福や,,株式会社,大阪府,大阪市東住吉区,北田辺１丁目１１番７号,,27,121,5460044,,,,,,,2024-05-15,1,,,,,ショウフクヤ,0
1896,7120001264996,新規,0,2024-05-15,2024-05-15,株式会社浩陽,,株式会社,大阪府,大阪市西区,川口３丁目３番３号２Ｆ,,27,106,5500021,,,,,,,2024-05-15,1,,,,,コウヨウ,0
1897,7120001265012,新規,0,2024-05-15,2024-05-15,株式会社ちひろ,,株式会社,大阪府,大阪市北区,豊崎５丁目７－１２,,27,127,5310072,,,,,,,2024-05-15,1,,,,,チヒロ,0
1904,7120103005803,新規,0,2024-05-15,2024-05-15,合同会社サクセス,,合同会社,大阪府,泉大津市,助松町３丁目１番１５－６０１号,,27,206,5950071,,,,,,,2024-05-15,1,,,,,サクセス,0
1905,7120103005811,新規,0,2024-05-15,2024-05-15,合同会社えーちゃん,,合同会社,大阪府,堺市北区,中百舌鳥町２丁２９９番地４,,27,146,5918023,,,,,,,2024-05-15,1,,,,,エーチャン,0
1911,7122001038091,新規,0,2024-05-15,2024-05-15,Ｌｉｅｎ株式会社,,株式会社,大阪府,八尾市,西弓削２丁目５７番地の１４,,27,212,5810035,,,,,,,2024-05-15,1,,,,,リアン,0
1917,7130001077043,新規,0,2024-05-15,2024-05-15,平和工業株式会社,,株式会社,京都府,京都市山科区,西野山桜ノ馬場町２３６－８,,26,110,6078308,,,,,,,2024-05-15,1,,,,,ヘイワコウギョウ,0
1918,7130001077051,新規,0,2024-05-15,2024-05-15,株式会社御遊,,株式会社,京都府,八幡市,川口浜７３番地の４,,26,210,6148101,,,,,,,2024-05-15,1,,,,,ギョユウ,0
1919,7130003009564,新規,0,2024-05-15,2024-05-15,合同会社月と日と,,合同会社,京都府,京都市伏見区,東浜南町６７６番地１,,26,109,6128213,,,,,,,2024-05-15,1,,,,,ツキトヒト,0
1935,7180001161445,新規,0,2024-05-15,2024-05-15,株式会社ｔｎｇ,,株式会社,愛知県,名古屋市東区,葵３丁目２２番５号バンベール千種ザ・ファースト１８０４号,,23,102,4610004,,,,,,,2024-05-15,1,,,,,ティーエヌジー,0
1941,7180003026761,新規,0,2024-05-15,2024-05-15,ｄａｔａｒｅｉｎ合同会社,,合同会社,愛知県,名古屋市千種区,四谷通１丁目２３番地（アルファランドビル地下一階２Ａ号室）,,23,101,4640819,,,,,,,2024-05-15,1,,,,,データレイン,0
1956,7240003006666,新規,0,2024-05-15,2024-05-15,合同会社みつ帆,,合同会社,広島県,尾道市,美ノ郷町三成３０５８番地アーバン内海Ｄ５,,34,205,7220215,,,,,,,2024-05-15,1,,,,,ミツホ,0
1962,7290001105671,新規,0,2024-05-15,2024-05-15,株式会社ヘルツ,,株式会社,福岡県,小郡市,小郡１５３２番地１－３０５号,,40,216,8380141,,,,,,,2024-05-15,1,,,,,ヘルツ,0
1964,7290003015274,新規,0,2024-05-15,2024-05-15,晟家合同会社,,合同会社,福岡県,福岡市東区,和白丘２丁目２３番２８－１０３号,,40,131,8110213,,,,,,,2024-05-15,1,,,,,アキエ,0
1978,7330003010353,新規,0,2024-05-15,2024-05-15,合同会社イーリングブロードウェイ,,合同会社,熊本県,菊池市,西寺１６５４番地４,,43,210,8611323,,,,,,,2024-05-15,1,,,,,イーリングブロードウェイ,0
1986,7360001033634,新規,0,2024-05-15,2024-05-15,株式会社マトリカリア,,株式会社,沖縄県,うるま市,字宮里３２１－３－２Ｆ,,47,213,9042243,,,,,,,2024-05-15,1,,,,,マトリカリア,0
1987,7360001033659,新規,0,2024-05-15,2024-05-15,株式会社優心設備,,株式会社,沖縄県,浦添市,牧港２丁目１８番８号,,47,208,9012131,,,,,,,2024-05-15,1,,,,,ユウシン,0
1990,7360003013972,新規,0,2024-05-15,2024-05-15,合同会社ＨＡＰＰＩＮＥＳＳ,,合同会社,沖縄県,中頭郡北谷町,字伊平４５９番地４・２階,,47,326,9040102,,,,,,,2024-05-15,1,,,,,ハピネス,0
1996,7380001034515,新規,0,2024-05-15,2024-05-15,日精株式会社,,株式会社,福島県,会津若松市,山鹿町１番１０号,,07,202,9650876,,,,,,,2024-05-15,1,,,,,ニッセイ,0
2001,7410005006580,新規,0,2024-05-15,2024-05-15,農事組合法人蛭野,,その他の設立登記法人,秋田県,横手市,平鹿町浅舞字釜池２０１番地２,,05,203,0130105,,,,,,,2024-05-15,1,,,,,ヒルノ,0
2007,7430001091815,新規,0,2024-05-15,2024-05-15,株式会社ＲＹＯ,,株式会社,北海道,札幌市北区,拓北八条４丁目１番６号,,01,102,0028068,,,,,,,2024-05-15,1,,,,,リョウ,0
2010,7430005014986,新規,0,2024-05-15,2024-05-15,一般社団法人萌木会,,その他の設立登記法人,北海道,札幌市北区,篠路町拓北１６２番１６,,01,102,0028054,,,,,,,2024-05-15,1,,,,,モエギカイ,0
2015,7500001025625,新規,0,2024-05-15,2024-05-15,Ｍａｒｉｔｉｍｅ　Ｏｒｃｈｅｓｔｒａ　Ｃｏｒｐｏｒａｔｉｏｎ株式会社,,株式会社,愛媛県,松山市,小坂２丁目４番２７号,,38,201,7900963,,,,,,,2024-05-15,1,,,,,マリタイムオーケストラコーポレーション,0
2016,7700150111511,新規,0,2024-05-15,2024-05-15,Ｆｏｓｈａｎｓｈｉ　ｓｕｉｌｏｎｇ　ｊｉａｊｕｙｏｕｘｉａｎｇｏｎｇｓｉ,,外国会社等,,,,,,,,Ｇｕａｎｇｄｏｎｇ　Ｆｏｓｈａｎ　Ｎａｎｈａｉｑｕ　ｊｉｕｊｉａｎｇｚｈｅｎ　ｓｈａｔｏｕｓｈｕｉｎａｎｇｏｎｇｙｅｙｕａｎｑｕ　Ｅ１，ＣＨＩＮＡ,,,,,,2024-05-15,1,,,,,フォサンシスイロンジアジュウユシャンゴンシ,0
2017,7700150125379,新規,0,2024-05-15,2024-05-15,ＳＨＥＮＺＨＥＮＳＨＩ　ＸＩＮＹＵＡＮＤＩＡＮＺＩＫＥＪＩ　ＹＯＵＸＩＡＮＧＯＮＧＳＩ,,外国会社等,,,,,,,,ｌｏｎｇｇａｎｇｊｉｅｄａｏ　ｗｕｌｉａｎｓｈｅｑｕ　ｗａｔａｏｓｉｌｕ　４ｈａｏ　Ａｄｏｎｇ　２ｃｅｎｇ　ｓｈｅｎｚｈｅｎｓｈｉ　Ｇｕａｎｇｄｏｎｇｓｈｅｎｇ　５１８１００　ＣＮ,,,,,,2024-05-15,1,,,,,シェンジェンシーシンユエンディエンズーコーァジーヨウシエンゴーンスー,0
2018,7700150125387,新規,0,2024-05-15,2024-05-15,芦垣区自治会,,その他,山梨県,上野原市,芦垣１０７６,,19,212,4090135,,,,,,,2024-05-15,1,,,,,アシガキクジチカイ,0
2019,7700150125395,新規,0,2024-05-15,2024-05-15,ｓｕｚｈｏｕｓｈｉｇａｏｘｉｎｑｕｔｕｏｊｉｎｒｕｉｄａｓｈａｎｇｍａｏｙｏｕｘｉａｎｇｏｎｇｓｉ,,外国会社等,,,,,,,,ＣＮ，２１５０００，ｊｉａｎｇｓｕ，ｓｕｚｈｏｕｓｈｉ，ｇａｏｘｉｎｑｕ，ｄａｏｙｕａｎｌｕ１ｈａｏｑｉａｎｓｈａｎｓｈａｎｇｙｅｚｈｏｎｇｘｉｎ２ｚｈｕａｎｇ２０２－１７,,,,,,2024-05-15,1,,,,,スージョウシーガオシンチートゥオジンルイダーシャンマオヨウシエンゴンスー,0
2028,8010001244777,新規,0,2024-05-15,2024-05-15,ＪＰＶ第２３号株式会社,,株式会社,東京都,千代田区,霞が関３丁目２番１号,,13,101,1000013,,,,,,,2024-05-15,1,,,,,ジェイピーブイダイニジュウサンゴウ,0
2029,8010001244819,新規,0,2024-05-15,2024-05-15,株式会社ＢＬＯＯＭ,,株式会社,東京都,中央区,銀座８丁目１５番３号２０１号,,13,102,1040061,,,,,,,2024-05-15,1,,,,,ブルーム,0
2031,8010101016135,新規,0,2024-05-15,2024-05-15,株式会社アルモニ,,株式会社,東京都,八王子市,元本郷町３丁目６番２２号レオネクストＵ＆ＳＩＩＩ１０２号,00134760,13,201,1920051,,,,,,,2024-05-15,1,,,,,アルモニ,0
2040,8010401182263,新規,0,2024-05-15,2024-05-15,株式会社談,,株式会社,東京都,港区,芝５丁目３６番４号,,13,103,1080014,,,,,,,2024-05-15,1,,,,,ダン,0
2041,8010403032615,新規,0,2024-05-15,2024-05-15,スモールネットワーク合同会社,,合同会社,東京都,港区,南青山３丁目１番３６号青山丸竹ビル６Ｆ,,13,103,1070062,,,,,,,2024-05-15,1,,,,,スモールネットワーク,0
2044,8010603010825,新規,0,2024-05-15,2024-05-15,ｅｎｎアセットマネジメント合同会社,,合同会社,東京都,江東区,東陽２丁目３番６－５２０号,,13,108,1350016,,,,,,,2024-05-15,1,,,,,エンアセットマネジメント,0
2060,8011003019135,新規,0,2024-05-15,2024-05-15,ハニカム３合同会社,,合同会社,東京都,渋谷区,道玄坂１丁目１０番８号渋谷道玄坂東急ビル２Ｆ－Ｃ,,13,113,1500043,,,,,,,2024-05-15,1,,,,,ハニカムスリー,0
2061,8011003019143,新規,0,2024-05-15,2024-05-15,ハニカム１１合同会社,,合同会社,東京都,渋谷区,道玄坂１丁目１０番８号渋谷道玄坂東急ビル２Ｆ－Ｃ,,13,113,1500043,,,,,,,2024-05-15,1,,,,,ハニカムイレブン,0
2073,8011601027745,新規,0,2024-05-15,2024-05-15,株式会社ＯＦＦＩＣＥ　ＳＩＶＡ,,株式会社,東京都,練馬区,西大泉２丁目１４番１号,,13,120,1780065,,,,,,,2024-05-15,1,,,,,オフィスシバ,0
2074,8011701027265,新規,0,2024-05-15,2024-05-15,株式会社ソロサポ,,株式会社,東京都,江戸川区,南小岩７丁目１２番１９号,,13,123,1330056,,,,,,,2024-05-15,1,,,,,ソロサポ,0
2076,8011703003818,新規,0,2024-05-15,2024-05-15,Ｉ＆Ｅ合同会社,,合同会社,東京都,江戸川区,上一色３丁目８番５号レンタルオフィス百合１０１号室,,13,123,1330041,,,,,,,2024-05-15,1,,,,,アイアンドイー,0
2077,8011703003826,新規,0,2024-05-15,2024-05-15,ジャパンスプリング合同会社,,合同会社,東京都,江戸川区,本一色２丁目１８－２,,13,123,1330044,,,,,,,2024-05-15,1,,,,,ジャパンスプリング,0
2088,8013103001336,新規,0,2024-05-15,2024-05-15,合同会社ＭｃＱｕｅｅｎ,,合同会社,東京都,青梅市,新町５丁目９‐９,,13,205,1980024,,,,,,,2024-05-15,1,,,,,,0
2102,8020003026041,新規,0,2024-05-15,2024-05-15,合同会社みより,,合同会社,神奈川県,横浜市西区,北幸２丁目１０番４８号むつみビル３階,,14,103,2200004,,,,,,,2024-05-15,1,,,,,ミヨリ,0
2112,8030001160337,新規,0,2024-05-15,2024-05-15,株式会社テトリオ,,株式会社,埼玉県,さいたま市中央区,下落合４丁目１１番９号,,11,105,3380002,,,,,,,2024-05-15,1,,,,,テトリオ,0
2117,8030005021700,新規,0,2024-05-15,2024-05-15,一般社団法人ｍｙ　ｓｅａｔ,,その他の設立登記法人,埼玉県,所沢市,大字下富１１５７番地１８,,11,208,3590001,,,,,,,2024-05-15,1,,,,,マイシート,0
2130,8040003025000,新規,0,2024-05-15,2024-05-15,ＥＬＥ合同会社,,合同会社,千葉県,千葉市稲毛区,山王町４２１―１６,,12,103,2630002,,,,,,,2024-05-15,1,,,,,イーエルイー,0
2132,8060001037094,新規,0,2024-05-15,2024-05-15,株式会社Ｇｏｏｄ,,株式会社,栃木県,宇都宮市,陽東３丁目１－１,,09,201,3210904,,,,,,,2024-05-15,1,,,,,グッド,0
2134,8070001041748,新規,0,2024-05-15,2024-05-15,ＳＪホールディングズ株式会社,,株式会社,群馬県,伊勢崎市,本町８番地１０ヴィーナス伊勢崎２Ｆ－２Ａ,,10,204,3720047,,,,,,,2024-05-15,1,,,,,エスジェイホールディングズ,0
2140,8080003003200,新規,0,2024-05-15,2024-05-15,合同会社明活空調設備,,合同会社,静岡県,静岡市清水区,山切３９―２４,,22,103,4240105,,,,,,,2024-05-15,1,,,,,メイカツクウチョウセツビ,0
2147,8090003002564,新規,0,2024-05-15,2024-05-15,さくらガス石油合同会社,,合同会社,山梨県,南都留郡西桂町,下暮地８７１番地３,,19,423,4030021,,,,,,,2024-05-15,1,,,,,サクラガスセキユ,0
2166,8120001264863,新規,0,2024-05-15,2024-05-15,Ｈｏｔ　Ｆｏｘ株式会社,,株式会社,大阪府,大阪市北区,天満橋１丁目１番２４－６０５号,,27,127,5300042,,,,,,,2024-05-15,1,,,,,ホットフォックス,0
2167,8120001264871,新規,0,2024-05-15,2024-05-15,赫虹株式会社,,株式会社,大阪府,大阪市生野区,林寺２丁目８番２号２階Ａ２０１室,,27,116,5440023,,,,,,,2024-05-15,1,,,,,カクコウ,0
2168,8120001264896,新規,0,2024-05-15,2024-05-15,株式会社Ｖｏｉｅ　Ｌａｃｔｅｅ,,株式会社,大阪府,大阪市中央区,北久宝寺町１丁目７番１０号－２Ｂ,,27,128,5410057,,,,,,,2024-05-15,1,,,,,ヴォワラクテ,0
2174,8120103005835,新規,0,2024-05-15,2024-05-15,合同会社虹色,,合同会社,大阪府,羽曳野市,樫山２５５番地グランバレー３０２号,,27,222,5830875,,,,,,,2024-05-15,1,,,,,ニジイロ,0
2189,8140003020577,新規,0,2024-05-15,2024-05-15,マイスター不動産販売合同会社,,合同会社,兵庫県,神戸市須磨区,大手町２丁目１０－６,,28,107,6540013,,,,,,,2024-05-15,1,,,,,マイスターフドウサンハンバイ,0
2207,8180001161411,新規,0,2024-05-15,2024-05-15,株式会社勝喜,,株式会社,愛知県,名古屋市中村区,川前町５５１番地,,23,105,4530865,,,,,,,2024-05-15,1,,,,,カツキ,0
2208,8180001161469,新規,0,2024-05-15,2024-05-15,株式会社ＶＩＮＡＣＯＭＥＸ　ＪＡＰＡＮ,,株式会社,愛知県,名古屋市東区,東大曽根町２９番１１号共栄ビル西棟４０２号,,23,102,4610022,,,,,,,2024-05-15,1,,,,,ヴィナコメックスジャパン,0
2222,8220001025999,新規,0,2024-05-15,2024-05-15,株式会社Ｔｉａ　Ｍｅｄｉｃａｌ＆ＣＯ．,,株式会社,石川県,金沢市,田上の里２丁目２７１アルビレオＤ,,17,201,9201156,,,,,,,2024-05-15,1,,,,,ティアメディカルアンドコー,0
2236,8260001039062,新規,0,2024-05-15,2024-05-15,株式会社彩花,,株式会社,岡山県,倉敷市,連島町鶴新田２４５０番地２２,,33,202,7128006,,,,,,,2024-05-15,1,,,,,イロハ,0
2240,8260003004683,新規,0,2024-05-15,2024-05-15,ルクス合同会社,,合同会社,岡山県,倉敷市,玉島乙島５１８０―６,,33,202,7138103,,,,,,,2024-05-15,1,,,,,ルクス,0
2245,8300001013731,新規,0,2024-05-15,2024-05-15,株式会社ＳＴＴＪ佐賀,,株式会社,佐賀県,佐賀市,松原１丁目３番２号深川ビル２０１号室,,41,201,8400831,,,,,,,2024-05-15,1,,,,,エスティーティージェイサガ,0
2248,8310003004793,新規,0,2024-05-15,2024-05-15,合同会社ｎｉｎｏｓ,,合同会社,長崎県,諫早市,土師野尾町１６９０,,42,204,8540056,,,,,,,2024-05-15,1,,,,,ニーニョス,0
2257,8350003004641,新規,0,2024-05-15,2024-05-15,ラビロゼ合同会社,,合同会社,宮崎県,小林市,細野４６２９番地２,,45,205,8860004,,,,,,,2024-05-15,1,,,,,ラビロゼ,0
2258,8360001033658,新規,0,2024-05-15,2024-05-15,株式会社ｆｏｒＯｃｅａｎ,,株式会社,沖縄県,浦添市,宮城１丁目２１番１１－４０３号サニーオアシス宮城,,47,208,9012126,,,,,,,2024-05-15,1,,,,,フォーオーシャン,0
2262,8380001034522,新規,0,2024-05-15,2024-05-15,株式会社Ｖ８,,株式会社,福島県,いわき市,平字大工町１０番地の７アルスイートいわき１４０３,,07,204,9708026,,,,,,,2024-05-15,1,,,,,ヴイエイト,0
2268,8400003003266,新規,0,2024-05-15,2024-05-15,合同会社菊地商会,,合同会社,岩手県,北上市,新穀町２丁目４番６３号,,03,206,0240092,,,,,,,2024-05-15,1,,,,,キクチショウカイ,0
2281,8500001025624,新規,0,2024-05-15,2024-05-15,株式会社ＦＣＣ愛媛,,株式会社,愛媛県,松山市,山越１丁目４番２号,,38,201,7918013,,,,,,,2024-05-15,1,,,,,エフシーシーエヒメ,0
2282,8700150125378,新規,0,2024-05-15,2024-05-15,ＧＧＳ　Ｉｎｆｏｒｍａｔｉｏｎ　Ｓｅｒｖｉｃｅｓ　Ｉｎｄｉａ　Ｐｒｉｖａｔｅ　Ｌｉｍｉｔｅｄ,,外国会社等,,,,,,,,４ｔｈ　Ｆｌｏｏｒ，Ｏｌｄ　Ｎｏ　２６　ＮＥＷ　ＮＯ　２，ＡＳＶ　ＴＩＴＡＮＩＵＭ，ＦＡＣＩＴ　ＡＶＥＮＵＥ，ＡＮＮＡＮＥＤＵＮＳＡＬＡＩ，ＫＡＮＤＡＮＣＨＡＶＤＩ，Ｃｈｅｎｎａｉ，Ｔａｍｉｌ　Ｎａｄｕ，６０００９６,,,,,,2024-05-15,1,,,,,ジージーエスインフオメーシヨンサービシズインデイアプライベートリミテツド,0
2283,8700150125386,新規,0,2024-05-15,2024-05-15,浮穴地区まちづくり協議会,,その他,愛媛県,松山市,井門町１４７６－１,,38,201,7911114,,,,,,,2024-05-15,1,,,,,ウケナチクマチヅクリキョウギカイ,0
2284,8700150125394,新規,0,2024-05-15,2024-05-15,Ｔｈｅ　Ｃｒｅａｓｅ　Ｂｅａｓｔ　ＬＬＣ,,外国会社等,,,,,,,,５１０９　Ｗ　４９ＴＨ　ＳＴ　Ｒｏｅｌａｎｄ　Ｐａｒｋ　Ｋａｎｓａｓ　６６２０５－１１３０　ＵＳ,,,,,,2024-05-15,1,,,,,ザクリーズビーストエルエルシー,0
2298,9010001244776,新規,0,2024-05-15,2024-05-15,ＪＰＶ第２２号株式会社,,株式会社,東京都,千代田区,霞が関３丁目２番１号,,13,101,1000013,,,,,,,2024-05-15,1,,,,,ジェイピーブイダイニジュウニゴウ,0
2299,9010001244834,新規,0,2024-05-15,2024-05-15,株式会社ＡＥＲＩＣ,,株式会社,東京都,中央区,八丁堀４丁目１４番４号、３階,,13,102,1040032,,,,,,,2024-05-15,1,,,,,アエリック,0
2302,9010003043739,新規,0,2024-05-15,2024-05-15,合同会社ＪａＪａ,,合同会社,東京都,中央区,銀座１丁目１２番４号Ｎ＆Ｅ・ＢＬＤ．６Ｆ,,13,102,1040061,,,,,,,2024-05-15,1,,,,,ジェーエイジェーエイ,0
2306,9010005038299,新規,0,2024-05-15,2024-05-15,一般社団法人ＫＩＺＵＮＡ,,その他の設立登記法人,東京都,中央区,日本橋横山町３－１－６０５,,13,102,1030003,,,,,,,2024-05-15,1,,,,,キズナ,0
2314,9010401182428,新規,0,2024-05-15,2024-05-15,株式会社月々日々,,株式会社,東京都,港区,白金台５丁目５番２－８０１号,,13,103,1080071,,,,,,,2024-05-15,1,,,,,ツキヅキヒビ,0
2322,9010403032614,新規,0,2024-05-15,2024-05-15,Ｎｅｓｔ　Ｎｉｈｏｎ合同会社,,合同会社,東京都,港区,六本木６丁目１０番１号ＭｏｒｉＴｏｗｅｒ１６２３号室,,13,103,1060032,,,,,,,2024-05-15,1,,,,,ネストニホン,0
2323,9010403032630,新規,0,2024-05-15,2024-05-15,ＬＤ２京都合同会社,,合同会社,東京都,港区,虎ノ門５丁目１番４号,,13,103,1050001,,,,,,,2024-05-15,1,,,,,エルディツーキョウト,0
2327,9010501052266,新規,0,2024-05-15,2024-05-15,ＷＥＬＬ　ＹＯＵＮＧ株式会社,,株式会社,東京都,台東区,浅草４丁目４３番７号,,13,106,1110032,,,,,,,2024-05-15,1,,,,,ウェルヤング,0
2332,9010601065184,新規,0,2024-05-15,2024-05-15,株式会社シンセリティ,,株式会社,東京都,江東区,越中島３丁目１番３号ルネ・ベイグランデ１０１０,,13,108,1350044,,,,,,,2024-05-15,1,,,,,シンセリティ,0
2343,9010901055240,新規,0,2024-05-15,2024-05-15,株式会社ＴｅｒｒａＷｉｚ,,株式会社,東京都,世田谷区,奥沢２丁目２７番６号,,13,112,1580083,,,,,,,2024-05-15,1,,,,,テラウィズ,0
2344,9010901055273,新規,0,2024-05-15,2024-05-15,株式会社ＣＨＡ　ＤＯＲＥ,,株式会社,東京都,世田谷区,池尻３丁目１１番地３１号マンションニュー１２７号,,13,112,1540001,,,,,,,2024-05-15,1,,,,,チャドレ,0
2352,9011001162019,新規,0,2024-05-15,2024-05-15,株式会社ＧＰＭ,,株式会社,東京都,渋谷区,神宮前１丁目５番８号神宮前タワービルディング１４階,,13,113,1500001,,,,,,,2024-05-15,1,,,,,ジーピーエム,0
2356,9011003019134,新規,0,2024-05-15,2024-05-15,ハニカム２合同会社,,合同会社,東京都,渋谷区,道玄坂１丁目１０番８号渋谷道玄坂東急ビル２Ｆ－Ｃ,,13,113,1500043,,,,,,,2024-05-15,1,,,,,ハニカムツー,0
2357,9011003019142,新規,0,2024-05-15,2024-05-15,ハニカム１０合同会社,,合同会社,東京都,渋谷区,道玄坂１丁目１０番８号渋谷道玄坂東急ビル２Ｆ－Ｃ,,13,113,1500043,,,,,,,2024-05-15,1,,,,,ハニカムテン,0
2358,9011003019150,新規,0,2024-05-15,2024-05-15,合同会社スムーズリー,,合同会社,東京都,渋谷区,渋谷２丁目１９－１５宮益坂ビルディング６０９,,13,113,1500002,,,,,,,2024-05-15,1,,,,,スムーズリー,0
2364,9011201025470,新規,0,2024-05-15,2024-05-15,株式会社アメニティクリエイト,,株式会社,東京都,中野区,白鷺２丁目４８番９号,,13,114,1650035,,,,,,,2024-05-15,1,,,,,アメニティクリエイト,0
2367,9011503006061,新規,0,2024-05-15,2024-05-15,半田合同会社,,合同会社,東京都,荒川区,西尾久４丁目３－１０チャクラコート１０１,,13,118,1160011,,,,,,,2024-05-15,1,,,,,ハンダ,0
2370,9011601027752,新規,0,2024-05-15,2024-05-15,株式会社ＬＥＧＡＸＩＡ,,株式会社,東京都,練馬区,西大泉５丁目２１番２４号,,13,120,1780065,,,,,,,2024-05-15,1,,,,,レガシア,0
2373,9011701027272,新規,0,2024-05-15,2024-05-15,株式会社ＺＡＹＡＺ,,株式会社,東京都,江戸川区,一之江３丁目１６－１７,,13,123,1320024,,,,,,,2024-05-15,1,,,,,ザヤアズ,0
2374,9011801044218,新規,0,2024-05-15,2024-05-15,庄子株式会社,,株式会社,東京都,足立区,足立２丁目１９－１山口本社ビル２０１,,13,121,1200015,,,,,,,2024-05-15,1,,,,,ショウシ,0
2375,9011801044226,新規,0,2024-05-15,2024-05-15,日本漢方研究院株式会社,,株式会社,東京都,足立区,栗原４丁目１１－２,,13,121,1230842,,,,,,,2024-05-15,1,,,,,ニホンカンポウケンキュウイン,0
2376,9011803006240,新規,0,2024-05-15,2024-05-15,合同会社ＡＭＡＭＩ　ＰＪ,,合同会社,東京都,葛飾区,西亀有４丁目２３番２０号,,13,122,1250002,,,,,,,2024-05-15,1,,,,,アマミプロジェクト,0
2382,9013101009413,新規,0,2024-05-15,2024-05-15,株式会社勝山工業,,株式会社,東京都,あきる野市,瀬戸岡４５０番地９,,13,228,1970803,,,,,,,2024-05-15,1,,,,,カツヤマコウギョウ,0
2390,9020001157192,新規,0,2024-05-15,2024-05-15,株式会社旅とえがお,,株式会社,神奈川県,横浜市西区,北幸２丁目１０番４８号むつみビル３階,,14,103,2200004,,,,,,,2024-05-15,1,,,,,,0
2400,9021001082216,新規,0,2024-05-15,2024-05-15,ＩＮＰＡＱ　Ｔｅｃｈｎｏｌｏｇｙ　Ｊａｐａｎ株式会社,,株式会社,神奈川県,大和市,上和田２６８０－２６ＰＳＡＤＣビルディング,,14,213,2420014,,,,,,,2024-05-15,1,,,,,インパックテクノロジージャパン,0
2417,9030005021690,新規,0,2024-05-15,2024-05-15,医療法人社団ＨＡＴＯ‐ＥＮＴ,,その他の設立登記法人,埼玉県,川口市,大字里３７２番地メディカルガーデン川口１Ｆ,,11,203,3340005,,,,,,,2024-05-15,1,,,,,ハトエント,0
2430,9060003005073,新規,0,2024-05-15,2024-05-15,アーリーメイデン合同会社,,合同会社,栃木県,栃木市,川原田町２２６－８,,09,203,3280123,,,,,,,2024-05-15,1,,,,,アーリーメイデン,0
2432,9070001041755,新規,0,2024-05-15,2024-05-15,株式会社Ｓｈｉｍｉｚｕ,,株式会社,群馬県,前橋市,石倉町５丁目１番地１１,,10,201,3710841,,,,,,,2024-05-15,1,,,,,シミズ,0
2438,9080003003199,新規,0,2024-05-15,2024-05-15,合同会社カルガモ,,合同会社,静岡県,静岡市駿河区,東新田３丁目１５番２６号,,22,102,4210112,,,,,,,2024-05-15,1,,,,,カルガモ,0
2443,9080403005010,新規,0,2024-05-15,2024-05-15,合同会社Ｄｅｖａ,,合同会社,静岡県,浜松市中央区,城北１丁目２３番１３号城北シティハイツ１０５,,22,138,4328011,,,,,,,2024-05-15,1,,,,,ディーバ,0
2450,9110005017094,新規,0,2024-05-15,2024-05-15,一般社団法人えちごせきかわ四季の暮らし協議会,,その他の設立登記法人,新潟県,岩船郡関川村,大字上関４７６番地１３,,15,581,9593264,,,,,,,2024-05-15,1,,,,,エチゴセキカワシキノクラシキョウギカイ,0
2462,9120001264549,新規,0,2024-05-15,2024-05-15,株式会社娯楽倶楽部,,株式会社,大阪府,大阪市城東区,成育１丁目８番２３号Ｆｌｏｗｅｒｓ・花２０２,,27,118,5360007,,,,,,,2024-05-15,1,,,,,ゴラククラブ,0
2463,9120001264664,新規,0,2024-05-15,2024-05-15,河上設計株式会社,,株式会社,大阪府,大阪市中央区,船越町２丁目３番８号,,27,128,5400036,,,,,,,2024-05-15,1,,,,,カワカミセッケイ,0
2464,9120001264838,新規,0,2024-05-15,2024-05-15,株式会社ＩＴＢ,,株式会社,大阪府,大阪市浪速区,難波中１丁目１４番８－２０２号,,27,111,5560011,,,,,,,2024-05-15,1,,,,,アイティービー,0
2465,9120001264862,新規,0,2024-05-15,2024-05-15,日本久平株式会社,,株式会社,大阪府,大阪市西淀川区,柏里２丁目７番２６号,,27,113,5550022,,,,,,,2024-05-15,1,,,,,ニホンキュウヘイ,0
2466,9120001264887,新規,0,2024-05-15,2024-05-15,株式会社ミヤコ,,株式会社,大阪府,大阪市中央区,南本町４丁目２番１８号,,27,128,5410054,,,,,,,2024-05-15,1,,,,,ミヤコ,0
2467,9120001264953,新規,0,2024-05-15,2024-05-15,Ｏビバレッジ株式会社,,株式会社,大阪府,大阪市北区,梅田３丁目３番１０号,,27,127,5300001,,,,,,,2024-05-15,1,,,,,オービバレッジ,0
2470,9120003026575,新規,0,2024-05-15,2024-05-15,合同会社ＫＧＣＲ,,合同会社,大阪府,大阪市北区,芝田２丁目８－１１共栄ビル３階,,27,127,5300012,,,,,,,2024-05-15,1,,,,,ケージーシーアール,0
2481,9130003009562,新規,0,2024-05-15,2024-05-15,Ｍ＆Ｉラボ合同会社,,合同会社,京都府,宇治市,木幡南山８０番地の６５１,,26,204,6110002,,,,,,,2024-05-15,1,,,,,エムアンドアイラボ,0
2482,9130005017084,新規,0,2024-05-15,2024-05-15,特定非営利活動法人ホームホスピス京都・妖精さんのたねまき,,その他の設立登記法人,京都府,京都市北区,紫野十二坊町２６番地の７,,26,101,6038303,,,,,,,2024-05-15,1,,,,,ホームホスピスキョウトヨウセイサンノタネマキ,0
2486,9140001134411,新規,0,2024-05-15,2024-05-15,吉諾株式会社,,株式会社,兵庫県,神戸市須磨区,妙法寺字ぬめり石１番１－２０２,,28,107,6540121,,,,,,,2024-05-15,1,,,,,キチダク,0
2489,9140005027074,新規,0,2024-05-15,2024-05-15,特定非営利活動法人ミチル,,その他の設立登記法人,兵庫県,豊岡市,出石町八木９１番地,,28,209,6680225,,,,,,,2024-05-15,1,,,,,ミチル,0
2493,9150005009591,新規,0,2024-05-15,2024-05-15,社会保険労務士法人ナラハ,,その他の設立登記法人,奈良県,奈良市,西大寺南町８番３３号奈良商工会議所会館１階,,29,201,6310824,,,,,,,2024-05-15,1,,,,,ナラハ,0
2501,9180001161451,新規,0,2024-05-15,2024-05-15,株式会社ロッソビアンコ,,株式会社,愛知県,名古屋市西区,名駅２丁目１番１８号スエヒロビル１Ｆ,,23,104,4510045,,,,,,,2024-05-15,1,,,,,ロッソビアンコ,0
2514,9220001026006,新規,0,2024-05-15,2024-05-15,株式会社シフクノオト,,株式会社,石川県,金沢市,高岡町１２番４５号ロイヤルシャトー南町ＢＦ１,,17,201,9200864,,,,,,,2024-05-15,1,,,,,シフクノオト,0
2519,9240003006664,新規,0,2024-05-15,2024-05-15,合同会社といろ,,合同会社,広島県,広島市東区,牛田新町３丁目１９番７－２号,,34,102,7320068,,,,,,,2024-05-15,1,,,,,トイロ,0
2525,9290001105653,新規,0,2024-05-15,2024-05-15,株式会社日本動画センター,,株式会社,福岡県,福岡市中央区,天神４丁目６－２８天神ファーストビル７階,,40,133,8100001,,,,,,,2024-05-15,1,,,,,ニホンドウガセンター,0
2526,9290001105661,新規,0,2024-05-15,2024-05-15,ＭＹＪ株式会社,,株式会社,福岡県,福岡市中央区,地行４丁目６番１１－２０２号,,40,133,8100064,,,,,,,2024-05-15,1,,,,,エムワイジェイ,0
2527,9290001105694,新規,0,2024-05-15,2024-05-15,株式会社福電エンジニアリング,,株式会社,福岡県,福岡市東区,奈多２丁目２５番６号,,40,131,8110204,,,,,,,2024-05-15,1,,,,,フクデンエンジニアリング,0
2528,9290001105703,新規,0,2024-05-15,2024-05-15,キープランニング株式会社,,株式会社,福岡県,福岡市東区,松崎４丁目９番２０号,,40,131,8130035,,,,,,,2024-05-15,1,,,,,キープランニング,0
2531,9290003015256,新規,0,2024-05-15,2024-05-15,さかい合同会社,,合同会社,福岡県,福岡市南区,清水３丁目１０番２４号,,40,134,8150031,,,,,,,2024-05-15,1,,,,,サカイ,0
2538,9290801030571,新規,0,2024-05-15,2024-05-15,株式会社ｓｏｃｉａｌｐｌａｎｎｅｒ,,株式会社,福岡県,北九州市小倉北区,日明４丁目６－２７－３０３,,40,106,8030831,,,,,,,2024-05-15,1,,,,,ソーシャルプランナー,0
2543,9320001020452,新規,0,2024-05-15,2024-05-15,株式会社鶴林業,,株式会社,大分県,竹田市,荻町柏原２８５８番地,,44,208,8796122,,,,,,,2024-05-15,1,,,,,ツルリンギョウ,0
2544,9320001020460,新規,0,2024-05-15,2024-05-15,株式会社ＳＫ　ＲＯＯＭ,,株式会社,大分県,別府市,大字内竈３２０５番地の８７,,44,202,8740011,,,,,,,2024-05-15,1,,,,,エスケイルーム,0
2547,9330001032034,新規,0,2024-05-15,2024-05-15,株式会社フィールネイチャー天草,,株式会社,熊本県,天草市,天草町下田北字轟２８８番地６,,43,215,8632803,,,,,,,2024-05-15,1,,,,,フィールネイチャーアマクサ,0
2548,9330005010795,新規,0,2024-05-15,2024-05-15,一般社団法人国際文化交流センター,,その他の設立登記法人,熊本県,菊池郡菊陽町,大字原水１１５７番地３,,43,404,8691102,,,,,,,2024-05-15,1,,,,,コクサイコウリュウセンター,0
2555,9360001033657,新規,0,2024-05-15,2024-05-15,ポセイドングループ株式会社,,株式会社,沖縄県,那覇市,久茂地２丁目２―２,,47,201,9000015,,,,,,,2024-05-15,1,,,,,ポセイドングループ,0
2565,9420001018726,新規,0,2024-05-15,2024-05-15,株式会社セブンツー,,株式会社,青森県,八戸市,八太郎３丁目１番５号,,02,203,0391168,,,,,,,2024-05-15,1,,,,,セブンツー,0
2573,9460101007550,新規,0,2024-05-15,2024-05-15,株式会社人令,,株式会社,北海道,中川郡幕別町,札内若草町５４０番地の４１,,01,643,0890544,,,,,,,2024-05-15,1,,,,,ジンレイ,0
2576,9700150125360,新規,0,2024-05-15,2024-05-14,労働保険事務組合岩崎共栄会,,その他,大阪府,大阪市浪速区,元町１丁目５－７ナンバプラザビル５階,,27,111,5560016,,,,,,,2024-05-14,1,,,,,ロウドウホケンジムクミアイイワサキキヨウエイカイ,0
2577,9700150125377,新規,0,2024-05-15,2024-05-15,ＡＣＵＲＥＵＳ　ＬＴＤ,,外国会社等,東京都,港区,赤坂４丁目１３番５号赤坂オフィスハイツ,,13,103,1070052,英国、ロンドン、コヴェントガーデン、シェルトンストリート７１－７５,,,,,,2024-05-15,1,,,,,アキユリウスリミテツド,0
2578,9700150125385,新規,0,2024-05-15,2024-05-15,Ｃｈａｎｇｓｈａ　Ｓｏｎｉｃａｋｅ　Ｔｅｃｈｎｏｌｏｇｙ　Ｃｏ．，Ｌｔｄ．,,外国会社等,,,,,,,,Ｒｏｏｍ　６０１Ａ１６，Ｅｎｔｅｒｐｒｉｓｅ　Ｂｕｉｌｄｉｎｇ　Ｎｏ．１８６，Ｇｕｙｕａｎ　Ｒｏａｄ，Ｈｉｇｈ－ｔｅｃｈ　Ｚｏｎｅ　ＣＨＡＮＧＳＨＡ　ＨＵＮＡＮ,,,,,,2024-05-15,1,,,,,チャーンシャアチエンインシンシイコーァジーヨウシエンゴーンスー,0
2579,9700150125393,新規,0,2024-05-15,2024-05-15,ＲＡＴＴＬＥＲ　ＨＯＬＤＩＮＧＳ，ＬＬＣ,,外国会社等,,,,,,,,ＰＯ　Ｂｏｘ　１０１１，Ｂｏｎｎｅｒ，ＭＴ　５９８２３，Ｕｎｉｔｅｄ　Ｓｔａｔｅｓ,,,,,,2024-05-15,1,,,,,ラトラホールディングスエルエルシー,0
