sequenceNumber,corporateNumber,process,correct,updateDate,changeDate,name,nameImageId,kind,prefectureName,cityName,streetNumber,addressImageId,prefectureCode,cityCode,postCode,addressOutside,addressOutsideImageId,closeDate,closeCause,successorCorporateNumber,changeCause,assignmentDate,latest,enName,enPrefectureName,enCityName,enAddressOutside,furigana,hihyoji
13,1010001183024,登記記録の閉鎖等,0,2022-05-30,2022-05-16,株式会社インプロ,,株式会社,東京都,千代田区,内神田１丁目５番９号,,13,101,1010047,,,2022-05-16,清算の結了等,,,2017-04-28,1,,,,,インプロ,0
21,1010003021512,登記記録の閉鎖等,0,2022-05-30,2022-05-20,彩都東部合同会社,,合同会社,東京都,中央区,日本橋１丁目４番１号,,13,102,1030027,,,2022-05-20,清算の結了等,,,2015-10-05,1,,,,,サイトトウブ,0
22,1010003025397,登記記録の閉鎖等,0,2022-05-30,2022-05-16,合同会社清田プロジェクト,,合同会社,東京都,千代田区,有楽町２丁目１０番１号株式会社アセットソリューション内,,13,101,1000006,,,2022-05-16,合併による解散等,2010003027418,令和４年５月１４日東京都千代田区有楽町二丁目１０番１号株式会社アセットソリューション内株式会社ＡＳインベスト（2010003027418）に合併し解散,2017-05-26,1,,,,,キヨタプロジェクト,0
45,1010701040714,登記記録の閉鎖等,0,2022-05-30,2022-05-19,株式会社Ｓｅｅｄｓ＆Ｈａｒｖｅｓｔ,,株式会社,東京都,品川区,北品川５丁目５番１５号,,13,109,1410001,,,2022-05-19,清算の結了等,,,2021-04-01,1,,,,,シードアンドハーベスト,0
46,1010702004981,登記記録の閉鎖等,0,2022-05-30,2022-05-27,有限会社瀧澤商店,,有限会社,東京都,品川区,南大井５丁目３番８号,,13,109,1400013,,,2022-05-27,清算の結了等,,,2015-10-05,1,,,,,タキザワショウテン,0
49,1010902013329,登記記録の閉鎖等,0,2022-05-30,2022-05-19,有限会社フリーチケット,,有限会社,東京都,世田谷区,代沢４丁目３２番６号,,13,112,1550032,,,2022-05-19,清算の結了等,,,2015-10-05,1,,,,,フリーチケット,0
56,1011001060741,登記記録の閉鎖等,0,2022-05-30,2022-05-13,株式会社シーエーエス,,株式会社,東京都,渋谷区,南平台町１６番２８号,,13,113,1500036,,,2022-05-13,清算の結了等,,,2015-10-05,1,,,,,シーエムエス,0
64,1011101077768,登記記録の閉鎖等,0,2022-05-30,2022-05-16,株式会社イーコール,,株式会社,東京都,中央区,日本橋箱崎町４１番１２号,,13,102,1030015,,,2022-05-16,清算の結了等,,,2016-07-28,1,,,,,イーコール,0
83,1011701004840,登記記録の閉鎖等,0,2022-05-30,2022-05-27,株式会社たか装,,株式会社,東京都,江戸川区,平井６丁目２８番９号,,13,123,1320035,,,2022-05-27,清算の結了等,,,2015-10-05,1,,,,,,0
115,1030005003408,登記記録の閉鎖等,0,2022-05-30,2022-05-02,天理教東武分教会,,その他の設立登記法人,埼玉県,所沢市,元町１５番２号,,11,208,3591121,,,2022-05-02,合併による解散等,1021005004280,令和４年４月２２日神奈川県秦野市文京町５番１６号天理教秦野大教会（1021005004280）に合併し解散,2015-10-05,1,,,,,,0
116,1030005011682,登記記録の閉鎖等,0,2022-05-30,2022-04-20,天理教常義分教会,,その他の設立登記法人,埼玉県,比企郡小川町,大字木呂子１７０番地１,,11,343,3550337,,,2022-04-20,合併による解散等,8460305001243,令和４年４月１４日北海道北見市常呂町字常呂３４５番地天理教常呂分教会（8460305001243）に合併し解散,2015-10-05,1,,,,,,0
127,1050001039040,登記記録の閉鎖等,0,2022-05-30,2022-05-18,株式会社住設ナビ,,株式会社,茨城県,筑西市,下中山４９８番３号,,08,227,3080825,,,2022-05-18,清算の結了等,,,2015-10-05,1,,,,,ジュウセツナビ,0
128,1050001042440,登記記録の閉鎖等,0,2022-05-30,2022-05-26,株式会社ウェルハウジング,,株式会社,茨城県,守谷市,松ケ丘３丁目２０番地１,,08,224,3020127,,,2022-05-26,合併による解散等,2010701036323,令和４年５月１日東京都品川区上大崎二丁目２４番９号株式会社アールプラスＤＭ（2010701036323）に合併し解散,2017-03-17,1,,,,,ウェルハウジング,0
137,1060002039443,登記記録の閉鎖等,0,2022-05-30,2022-05-26,有限会社フィールデン,,有限会社,栃木県,佐野市,植下町４７３番地,,09,204,3270835,,,2022-05-26,清算の結了等,,,2015-10-05,1,,,,,フィールデン,0
151,1100002019655,登記記録の閉鎖等,0,2022-05-30,2022-05-25,有限会社カネト中村青果,,有限会社,長野県,松本市,平田東２丁目１０番１６号,,20,202,3990014,,,2022-05-25,清算の結了等,,,2015-10-05,1,,,,,カネトナカムラセイカ,0
177,1140001027060,登記記録の閉鎖等,0,2022-05-30,2022-05-25,株式会社ＢＰオアシス,,株式会社,兵庫県,神戸市中央区,多聞通３丁目２番９号,,28,110,6500015,,,2022-05-25,清算の結了等,,,2015-10-05,1,,,,,ビーピーオアシス,0
186,1150001022770,登記記録の閉鎖等,0,2022-05-30,2022-05-26,株式会社ＣＮＡ　ＣＯＭＰＡＮＹ,,株式会社,奈良県,大和高田市,大字吉井６１番地４,,29,202,6350059,,,2022-05-26,清算の結了等,,,2019-01-15,1,,,,,シーエヌエーカンパニー,0
197,1190005005834,登記記録の閉鎖等,0,2022-05-30,2022-04-13,天理教古山分教会,,その他の設立登記法人,三重県,伊賀市,鍛冶屋５２４番地,,24,216,5181143,,,2022-04-13,合併による解散等,3190005005832,令和４年４月１３日三重県伊賀市岩倉５３７番地天理教新居分教会（3190005005832）に合併し解散,2015-10-05,1,,,,,テンリキョウフルヤマブンキョウカイ,0
224,1290002044949,登記記録の閉鎖等,0,2022-05-30,2022-05-26,有限会社丸壽興産,,有限会社,福岡県,嘉穂郡桂川町,大字寿命１４０番地の１,,40,421,8200603,,,2022-05-26,清算の結了等,,,2015-10-05,1,,,,,,0
305,2011001091892,登記記録の閉鎖等,0,2022-05-30,2022-05-10,株式会社リンクス,,株式会社,東京都,渋谷区,幡ヶ谷１丁目１２番１１号,,13,113,1510072,,,2022-05-10,清算の結了等,,,2015-10-05,1,,,,,リンクス,0
386,2040002008647,登記記録の閉鎖等,0,2022-05-30,2022-05-24,有限会社中村園本舗,,有限会社,千葉県,千葉市中央区,中央１丁目６番９号,,12,101,2600013,,,2022-05-24,清算の結了等,,,2015-10-05,1,,,,,ナカムラエンホンポ,0
390,2040003009553,登記記録の閉鎖等,0,2022-05-30,2022-05-26,合同会社ＤＫＢｅＸ,,合同会社,千葉県,長生郡白子町,浜宿５８３番地２,,12,424,2994201,,,2022-05-26,清算の結了等,,,2017-01-18,1,,,,,ディーケベックス,0
396,2050003003076,登記記録の閉鎖等,0,2022-05-30,2022-05-20,ソフトフォトニクス合同会社,,合同会社,茨城県,つくば市,天久保２丁目８番地８,,08,220,3050005,,,2022-05-20,清算の結了等,,,2015-11-09,1,,,,,ソフトフォトニクス,0
404,2080401011735,登記記録の閉鎖等,0,2022-05-30,2022-05-26,株式会社創苑,,株式会社,静岡県,浜松市中区,城北３丁目３番４７号,,22,131,4328011,,,2022-05-26,清算の結了等,,,2015-10-05,1,,,,,ソウエン,0
438,2180001028640,登記記録の閉鎖等,0,2022-05-30,2022-05-26,鳴海青果株式会社,,株式会社,愛知県,名古屋市緑区,鳴海町字小松山６３番地,,23,114,4580801,,,2022-05-26,清算の結了等,,,2015-10-05,1,,,,,ナルミセイカ,0
445,2180002046872,登記記録の閉鎖等,0,2022-05-30,2022-05-23,有限会社オガワ設計,,有限会社,愛知県,名古屋市南区,戸部町１丁目１６番地,,23,112,4570043,,,2022-05-23,清算の結了等,,,2015-10-05,1,,,,,オガワセッケイ,0
487,2340001013114,登記記録の閉鎖等,0,2022-05-30,2022-05-25,ダイセー南九州株式会社,,株式会社,鹿児島県,姶良市,蒲生町白男２１２７番地,,46,225,8995305,,,2022-05-25,合併による解散等,7290001089989,令和４年５月２０日福岡県小郡市上岩田５６５番地１７株式会社ダイエックス九州（7290001089989）に合併し解散,2015-10-05,1,,,,,ダイセーミナミキュウシュウ,0
488,2340002017337,登記記録の閉鎖等,0,2022-05-30,2022-05-27,有限会社エーディシステム,,有限会社,鹿児島県,薩摩川内市,入来町浦之名７０５６番地,,46,215,8951402,,,2022-05-27,清算の結了等,,,2015-10-05,1,,,,,,0
507,2410002002959,登記記録の閉鎖等,0,2022-05-30,2022-05-25,有限会社バイオテック,,有限会社,秋田県,秋田市,広面字碇８０番地の１,,05,201,0100041,,,2022-05-25,清算の結了等,,,2015-10-05,1,,,,,バイオテック,0
516,2430002064469,登記記録の閉鎖等,0,2022-05-30,2022-05-26,有限会社大晃,,有限会社,北海道,室蘭市,白鳥台５丁目１番８号,,01,205,0500054,,,2022-05-26,清算の結了等,,,2015-10-05,1,,,,,,0
526,2460405000084,登記記録の閉鎖等,0,2022-05-30,2022-04-20,天理教道東分教会,,その他の設立登記法人,北海道,根室市,光洋町３丁目１０番地の１,,01,223,0870004,,,2022-04-20,合併による解散等,8460305001243,令和４年４月１４日北海道北見市常呂町字常呂３４５番地天理教常呂分教会（8460305001243）に合併し解散,2015-10-05,1,,,,,,0
539,3010002016593,登記記録の閉鎖等,0,2022-05-30,2022-05-16,有限会社アルティマーリ,,有限会社,東京都,千代田区,内幸町１丁目１番１号帝国ホテルプラザ３Ｆ,,13,101,1000011,,,2022-05-16,清算の結了等,,,2015-10-05,1,,,,,アルティマーリ,0
544,3010401019718,登記記録の閉鎖等,0,2022-05-30,2022-05-11,日本ユーロ貿易株式会社,,株式会社,東京都,港区,西新橋２丁目４番３号プロス西新橋ビル６階,,13,103,1050003,,,2022-05-11,清算の結了等,,,2015-10-05,1,,,,,ニホンユーロボウエキ,0
553,3010403015384,登記記録の閉鎖等,0,2022-05-30,2022-05-11,ＩＮＩＳＯＦＴ　ＪＡＰＡＮ合同会社,,合同会社,東京都,渋谷区,渋谷２丁目３－４スタービル青山３階,,13,113,1500002,,,2022-05-11,清算の結了等,,,2016-09-30,1,,,,,アイエヌアイソフトジャパン,0
557,3010405017676,登記記録の閉鎖等,0,2022-05-30,2022-05-11,中目黒ホールディング１一般社団法人,,その他の設立登記法人,東京都,港区,虎ノ門３丁目２２番１０－２０１号,,13,103,1050001,,,2022-05-11,清算の結了等,,,2019-05-09,1,,,,,ナカメグロホールディングワン,0
562,3010701028526,登記記録の閉鎖等,0,2022-05-30,2022-05-26,株式会社プレディス・ジャパン,,株式会社,東京都,港区,北青山３丁目１５番１６号,,13,103,1070061,,,2022-05-26,清算の結了等,,,2015-10-05,1,,,,,プレディスジャパン,0
580,3011003012664,登記記録の閉鎖等,0,2022-05-30,2022-04-12,合同会社ｇａｍｉｆｉｅｄ,,合同会社,東京都,渋谷区,神宮前６丁目２３番４号桑野ビル２階,,13,113,1500001,,,2022-04-12,清算の結了等,,,2021-05-07,1,,,,,ゲーミファイド,0
593,3012701010983,登記記録の閉鎖等,0,2022-05-30,2022-05-27,株式会社アイピーティー,,株式会社,東京都,西東京市,東町３丁目１３番２１－２０２号,,13,229,2020012,,,2022-05-27,清算の結了等,,,2015-10-05,1,,,,,,0
611,3030001131524,登記記録の閉鎖等,0,2022-05-30,2022-05-24,株式会社ＳＴＳ,,株式会社,埼玉県,さいたま市大宮区,桜木町１丁目３６６番９号,,11,103,3300854,,,2022-05-24,清算の結了等,,,2019-06-19,1,,,,,エスティーエス,0
630,3080001019871,登記記録の閉鎖等,0,2022-05-30,2022-05-26,株式会社タイコー,,株式会社,静岡県,焼津市,八楠１丁目２６番地の４,,22,212,4250091,,,2022-05-26,清算の結了等,,,2015-10-05,1,,,,,タイコー,0
641,3100002016618,登記記録の閉鎖等,0,2022-05-30,2022-05-25,有限会社Ｐ．Ｇ．Ｃ．,,有限会社,長野県,東御市,滋野字長刀畑乙１４２７番地３,,20,219,3890513,,,2022-05-25,清算の結了等,,,2015-10-05,1,,,,,ピージーシー,0
665,3130002004891,登記記録の閉鎖等,0,2022-05-30,2022-05-26,有限会社エルム環境研究所,,有限会社,京都府,京都市左京区,修学院登り内町５０番地の１,,26,103,6060000,,,2022-05-26,清算の結了等,,,2015-10-05,1,,,,,エルムカンキョウケンキュウショ,0
668,3140001029534,登記記録の閉鎖等,0,2022-05-30,2022-05-26,株式会社ＣＤＯ,,株式会社,兵庫県,神戸市東灘区,魚崎南町３丁目９番２１号２Ｆ,,28,101,6580025,,,2022-05-26,清算の結了等,,,2015-10-05,1,,,,,シーディーオー,0
689,3180002081729,登記記録の閉鎖等,0,2022-05-30,2022-05-25,有限会社大島製作所,,有限会社,愛知県,江南市,寄木町天道１７０番地,,23,217,4838184,,,2022-05-25,清算の結了等,,,2015-10-05,1,,,,,オオシマセイサクショ,0
695,3210001000306,登記記録の閉鎖等,0,2022-05-30,2022-05-26,株式会社インテリア渡辺,,株式会社,福井県,福井市,上北野１丁目２５番７号,,18,201,9188203,,,2022-05-26,清算の結了等,,,2015-10-05,1,,,,,インテリアワタナベ,0
697,3210001003936,登記記録の閉鎖等,0,2022-05-30,2022-05-26,株式会社丸越建設,,株式会社,福井県,福井市,大味町５３号４３番地,,18,201,9103551,,,2022-05-26,清算の結了等,,,2015-10-05,1,,,,,マルコシケンセツ,0
709,3240002040967,登記記録の閉鎖等,0,2022-05-30,2022-05-20,有限会社サンワード,,有限会社,広島県,福山市,赤坂町赤坂５８番地の３,,34,207,7210000,,,2022-05-20,清算の結了等,,,2015-10-05,1,,,,,サンワード,0
713,3260001024655,登記記録の閉鎖等,0,2022-05-30,2022-05-26,株式会社ツインケル,,株式会社,広島県,東広島市,黒瀬町丸山４０２番地,,34,212,7392612,,,2022-05-26,清算の結了等,,,2015-10-05,1,,,,,ツインケル,0
736,3380001016500,登記記録の閉鎖等,0,2022-05-30,2022-05-26,株式会社協和工業,,株式会社,福島県,双葉郡富岡町,大字小浜字中央６７１番地,,07,543,9791111,,,2022-05-26,清算の結了等,,,2015-10-05,1,,,,,キョウワコウギョウ,0
763,4010001138487,登記記録の閉鎖等,0,2022-05-30,2022-05-18,ＳＡアセット株式会社,,株式会社,東京都,千代田区,岩本町３丁目２番１号,,13,101,1010032,,,2022-05-18,清算の結了等,,,2015-10-05,1,,,,,エスエーアセット,0
767,4010001169747,登記記録の閉鎖等,0,2022-05-30,2022-05-16,鈴木ヒューマンサポート株式会社,,株式会社,東京都,文京区,本郷３丁目２番６号,,13,105,1130033,,,2022-05-16,清算の結了等,,,2015-10-05,1,,,,,スズキヒューマンサポート,0
809,4011001126589,登記記録の閉鎖等,0,2022-05-30,2022-05-10,メディアビスタ株式会社,,株式会社,東京都,目黒区,目黒２丁目１４番６号,,13,110,1530063,,,2022-05-10,清算の結了等,,,2019-02-14,1,,,,,メディアビスタ,0
840,4020001106848,登記記録の閉鎖等,0,2022-05-30,2022-05-24,株式会社ミューズ・ロボティクス,,株式会社,神奈川県,横浜市西区,北幸１丁目１１番１号水信ビル７階,,14,103,2200004,,,2022-05-24,清算の結了等,,,2015-10-05,1,,,,,ミューズロボティクス,0
868,4030003000949,登記記録の閉鎖等,0,2022-05-30,2022-04-21,合同会社メル,,合同会社,埼玉県,さいたま市北区,土呂町１丁目６５番地８,,11,102,3310804,,,2022-04-21,清算の結了等,,,2015-10-05,1,,,,,,0
897,4100005012316,登記記録の閉鎖等,0,2022-05-30,2022-05-26,ＮＰＯ法人まちづくり信州,,その他の設立登記法人,長野県,松本市,大字島内１６８７番地１０,,20,202,3900851,,,2022-05-26,清算の結了等,,,2018-10-29,1,,,,,マチヅクリシンシュウ,0
899,4100005012729,登記記録の閉鎖等,0,2022-05-30,2022-05-09,一般財団法人信州長野学園設立準備事務局,,その他の設立登記法人,長野県,長野市,大字三輪１３１３,,20,201,3800803,,,2022-05-09,清算の結了等,,,2021-06-22,1,,,,,,0
901,4110001005644,登記記録の閉鎖等,0,2022-05-30,2022-05-26,株式会社山甚不動産,,株式会社,新潟県,新潟市中央区,西大畑町５２０７番地３９,,15,103,9518104,,,2022-05-26,清算の結了等,,,2015-10-05,1,,,,,ヤマジンフドウサン,0
931,4130005000788,登記記録の閉鎖等,0,2022-05-30,2022-04-28,天理教千代榮分教会,,その他の設立登記法人,京都府,京都市右京区,西院西平町２２番地,,26,108,6150023,,,2022-04-28,合併による解散等,7130005000868,令和４年４月２８日京都市右京区鳴滝西嵯峨園町３番地の２天理教八十栄分教会（7130005000868）に合併し解散,2015-10-05,1,,,,,テンリキョウチヨエエブンキョウカイ,0
947,4140003016959,登記記録の閉鎖等,0,2022-05-30,2022-05-24,合同会社ホープ,,合同会社,兵庫県,芦屋市,船戸町１－２９モンテメール西館６階,,28,206,6590093,,,2022-05-24,清算の結了等,,,2021-11-09,1,,,,,ホープ,0
954,4180001089466,登記記録の閉鎖等,0,2022-05-30,2022-05-25,株式会社ケイファイテクノ,,株式会社,愛知県,名古屋市東区,東大曽根町４０番９号,,23,102,4610022,,,2022-05-25,清算の結了等,,,2015-10-05,1,,,,,ケイファイテクノ,0
959,4180301023711,登記記録の閉鎖等,0,2022-05-30,2022-05-23,株式会社サッタミーリング,,株式会社,愛知県,西尾市,吉良町岡山上川田２４番地１,,23,213,4440531,,,2022-05-23,清算の結了等,,,2015-10-05,1,,,,,サッタミーリング,0
970,4230001000690,登記記録の閉鎖等,0,2022-05-30,2022-05-26,共栄コンサルタント株式会社,,株式会社,富山県,富山市,丸の内１丁目６番９号,,16,201,9300085,,,2022-05-26,清算の結了等,,,2015-10-05,1,,,,,キョウエイコンサルタント,0
993,4290005010805,登記記録の閉鎖等,0,2022-05-30,2022-05-23,特定非営利活動法人新世紀教育研究会,,その他の設立登記法人,福岡県,福岡市中央区,白金１丁目８番２号１０２,,40,133,8100012,,,2022-05-23,清算の結了等,,,2015-10-05,1,,,,,シンセイキキョウイクケンキュウカイ,0
994,4290005012677,登記記録の閉鎖等,0,2022-05-30,2022-04-18,天理教福大真分教会,,その他の設立登記法人,福岡県,大牟田市,大字宮崎字西畑１１０３番地の２,,40,202,8370903,,,2022-04-18,合併による解散等,8290005010140,令和４年４月１８日福岡県久留米市上津町１８９２番地の１天理教諏訪野分教会（8290005010140）に合併し解散,2015-10-05,1,,,,,テンリキョウフクダイシンブンキョウカイ,0
996,4290805008478,登記記録の閉鎖等,0,2022-05-30,2022-05-27,特定非営利活動法人いきいき薬膳研究会,,その他の設立登記法人,福岡県,北九州市八幡西区,鉄竜１丁目１番４９－９０６号,,40,109,8060058,,,2022-05-27,清算の結了等,,,2015-10-05,1,,,,,イキイキヤクゼンケンキュウカイ,0
1001,4310002007603,登記記録の閉鎖等,0,2022-05-30,2022-05-25,有限会社クアンホーム,,有限会社,長崎県,西彼杵郡時津町,日並郷３６５０番地,,42,308,8512108,,,2022-05-25,合併による解散等,7310001004961,令和４年５月２３日長崎県西彼杵郡時津町日並郷３６５０番地匠プロモーション株式会社（7310001004961）に合併し解散,2015-10-05,1,,,,,クアンホーム,0
1003,4330005007540,登記記録の閉鎖等,0,2022-05-30,2022-05-26,医療法人社団信和会,,その他の設立登記法人,熊本県,人吉市,駒井田町２４３番地の１,,43,203,8680006,,,2022-05-26,清算の結了等,,,2015-10-05,1,,,,,シンワカイ,0
1020,4402702000299,登記記録の閉鎖等,0,2022-05-30,2022-05-26,有限会社東北瓦工業,,有限会社,岩手県,大船渡市,日頃市町字上板用２６番地７,,03,203,0220005,,,2022-05-26,清算の結了等,,,2015-10-05,1,,,,,トウホクカワラコウギョウ,0
1035,4480002010136,登記記録の閉鎖等,0,2022-05-30,2022-05-27,有限会社トーヨーガーデン,,有限会社,徳島県,阿波市,吉野町西条字東大竹７３番地１,,36,206,7711402,,,2022-05-27,清算の結了等,,,2015-10-05,1,,,,,トーヨーガーデン,0
1067,5010403006951,登記記録の閉鎖等,0,2022-05-30,2022-05-12,合同会社アイ・シー・コラボレーション,,合同会社,東京都,港区,白金１丁目２７－６,,13,103,1080072,,,2022-05-12,清算の結了等,,,2015-10-05,1,,,,,,0
1083,5011003004874,登記記録の閉鎖等,0,2022-05-30,2022-05-10,スマートラッシュ合同会社,,合同会社,東京都,渋谷区,代官山町２０番９号,,13,113,1500034,,,2022-05-10,清算の結了等,,,2015-10-05,1,,,,,スマートラッシュ,0
1090,5011301021274,登記記録の閉鎖等,0,2022-05-30,2022-05-11,Ｄｉｓｃｏｖｅｒ株式会社,,株式会社,東京都,渋谷区,初台１丁目９番３号,,13,113,1510061,,,2022-05-11,清算の結了等,,,2015-10-05,1,,,,,ディスカバー,0
1126,5021003008296,登記記録の閉鎖等,0,2022-05-30,2022-05-25,合同会社小嶋店舗商会,,合同会社,神奈川県,平塚市,東中原１丁目２番２９号,,14,203,2540077,,,2022-05-25,清算の結了等,,,2019-04-09,1,,,,,コジマテンポショウカイ,0
1143,5050002001945,登記記録の閉鎖等,0,2022-05-30,2022-05-23,有限会社ダイオー,,有限会社,茨城県,水戸市,吉沢町６６７番地,,08,201,3100845,,,2022-05-23,清算の結了等,,,2015-10-05,1,,,,,ダイオー,0
1162,5110001030476,登記記録の閉鎖等,0,2022-05-30,2022-05-25,株式会社ＥＣＯ　ＧＲＡＤＥ,,株式会社,新潟県,上越市,大手町８番１号,,15,222,9430838,,,2022-05-25,清算の結了等,,,2015-10-05,1,,,,,エコグレイド,0
1189,5130001033295,登記記録の閉鎖等,0,2022-05-30,2022-05-26,石川運輸株式会社,,株式会社,京都府,宇治市,宇治若森４５番地の８,,26,204,6110021,,,2022-05-26,清算の結了等,,,2015-10-05,1,,,,,イシカワウンユ,0
1192,5140001007711,登記記録の閉鎖等,0,2022-05-30,2022-05-26,小渕工業株式会社,,株式会社,兵庫県,神戸市中央区,熊内橋通６丁目３番１５号－４０３号,,28,110,6510055,,,2022-05-26,清算の結了等,,,2015-10-05,1,,,,,コブチコウギョウ,0
1193,5140001026736,登記記録の閉鎖等,0,2022-05-30,2022-05-24,株式会社エフ・エム・ケイ,,株式会社,兵庫県,加古川市,別府町別府字せいろ９１８番地３,,28,210,6750122,,,2022-05-24,清算の結了等,,,2015-10-05,1,,,,,エフエムケイ,0
1208,5150002008146,登記記録の閉鎖等,0,2022-05-30,2022-05-24,有限会社カンサイ,,有限会社,奈良県,橿原市,東竹田町１６９番地,,29,205,6340002,,,2022-05-24,清算の結了等,,,2015-10-05,1,,,,,カンサイ,0
1219,5180001136250,登記記録の閉鎖等,0,2022-05-30,2022-05-19,東京未来産業株式会社,,株式会社,東京都,中央区,日本橋本石町４丁目５番１１号伊藤ビル,,13,102,1030021,,,2022-05-19,清算の結了等,,,2019-04-22,1,,,,,トウキョウミライサンギョウ,0
1223,5180002093128,登記記録の閉鎖等,0,2022-05-30,2022-05-24,有限会社ＦＩＮＥ・ＡＬＰＨＡ,,有限会社,愛知県,名古屋市東区,泉２丁目１番２８号Ｖｉａｒｅｓｔｏｒｉａ１２０２号,,23,102,4610001,,,2022-05-24,清算の結了等,,,2015-10-05,1,,,,,ファインアルファ,0
1225,5180302027751,登記記録の閉鎖等,0,2022-05-30,2022-05-23,有限会社原石油店,,有限会社,愛知県,新城市,富岡字半ノ木３７番地の１,,23,221,4411335,,,2022-05-23,清算の結了等,,,2015-10-05,1,,,,,ハラセキユテン,0
1228,5210002010608,登記記録の閉鎖等,0,2022-05-30,2022-05-25,有限会社富士,,有限会社,福井県,敦賀市,本町２丁目８番２２号,,18,202,9140051,,,2022-05-25,清算の結了等,,,2015-10-05,1,,,,,フジ,0
1244,5310002007825,登記記録の閉鎖等,0,2022-05-30,2022-05-26,有限会社ＭＡＸ,,有限会社,長崎県,長崎市,魚の町７番３－９０２号,,42,201,8500874,,,2022-05-26,清算の結了等,,,2015-10-05,1,,,,,マックス,0
1290,6010001186047,登記記録の閉鎖等,0,2022-05-30,2022-05-17,Ｊｉｎｋｏ　Ｐｏｗｅｒ　Ｊａｐａｎ株式会社,,株式会社,東京都,中央区,京橋２丁目２番１号京橋エドグラン９階,,13,102,1040031,,,2022-05-17,清算の結了等,,,2017-09-05,1,,,,,ジンコパワージャパン,0
1300,6010401098528,登記記録の閉鎖等,0,2022-05-30,2022-05-11,株式会社アランフィガレージャパン,,株式会社,東京都,港区,南青山５丁目１３番３号ＫＤＸ南青山ビル５階,,13,103,1070062,,,2022-05-11,清算の結了等,,,2015-10-05,1,,,,,アランフィガレージャパン,0
1303,6010401127716,登記記録の閉鎖等,0,2022-05-30,2022-05-11,株式会社Ｄスポーツマーチャンダイジング,,株式会社,東京都,港区,東新橋１丁目８番１号電通本社ビル,,13,103,1050021,,,2022-05-11,清算の結了等,,,2016-10-25,1,,,,,ディースポーツマーチャンダイジング,0
1306,6010402003759,登記記録の閉鎖等,0,2022-05-30,2022-05-06,有限会社カワモト設計,,有限会社,東京都,港区,高輪４丁目２３番５号,,13,103,1080074,,,2022-05-06,清算の結了等,,,2015-10-05,1,,,,,,0
1310,6010405017731,登記記録の閉鎖等,0,2022-05-30,2022-05-11,中目黒ホールディング２一般社団法人,,その他の設立登記法人,東京都,港区,虎ノ門３丁目２２番１０－２０１号,,13,103,1050001,,,2022-05-11,清算の結了等,,,2019-05-29,1,,,,,ナカメグロホールディングツー,0
1315,6010701007551,登記記録の閉鎖等,0,2022-05-30,2022-04-25,ニッサン・モータースポーツ・インターナショナル株式会社,,株式会社,神奈川県,横浜市鶴見区,大黒町６番１号,,14,101,2300053,,,2022-04-25,合併による解散等,8021001006654,令和４年４月１日神奈川県茅ヶ崎市萩園８２４番地２株式会社オーテツクジヤパン（8021001006654）に合併し解散,2015-10-05,1,,,,,ニッサンモータースポーツインターナショナル,0
1325,6011001059201,登記記録の閉鎖等,0,2022-05-30,2022-05-13,株式会社東京矢印,,株式会社,東京都,目黒区,中目黒３丁目５番３号,,13,110,1530061,,,2022-05-13,清算の結了等,,,2015-10-05,1,,,,,トウキョウヤジルシ,0
1328,6011001128237,登記記録の閉鎖等,0,2022-05-30,2022-05-09,株式会社ｍｅｇｌｅｅ,,株式会社,東京都,渋谷区,東１丁目１９番２号,,13,113,1500011,,,2022-05-09,清算の結了等,,,2019-05-31,1,,,,,メグリー,0
1332,6011002007217,登記記録の閉鎖等,0,2022-05-30,2022-05-10,有限会社タケナカ,,有限会社,東京都,渋谷区,代々木２丁目２３番地１,,13,113,1510053,,,2022-05-10,清算の結了等,,,2015-10-05,1,,,,,タケナカ,0
1346,6011203002834,登記記録の閉鎖等,0,2022-05-30,2022-05-23,合同会社ＴＡＫＩＷＯ,,合同会社,東京都,中野区,本町３丁目２９番１３－１１０１号,,13,114,1640012,,,2022-05-23,清算の結了等,,,2018-08-01,1,,,,,タキヲ,0
1354,6011802007275,登記記録の閉鎖等,0,2022-05-30,2022-05-23,有限会社まめや,,有限会社,東京都,葛飾区,亀有３丁目１６番１３号,,13,122,1250061,,,2022-05-23,清算の結了等,,,2015-10-05,1,,,,,マメヤ,0
1364,6020001032571,登記記録の閉鎖等,0,2022-05-30,2022-05-18,株式会社グローリイ,,株式会社,神奈川県,横浜市鶴見区,馬場２丁目２３番１３号,,14,101,2300076,,,2022-05-18,合併による解散等,1020001112709,令和４年５月１日横浜市鶴見区馬場二丁目２３番１３号株式会社篠原パートナーズ（1020001112709）に合併し解散,2015-10-05,1,,,,,グローリイ,0
1391,6040002102157,登記記録の閉鎖等,0,2022-05-30,2022-05-25,有限会社磯野建設,,有限会社,千葉県,勝浦市,松野４５４番地１,,12,218,2995211,,,2022-05-25,清算の結了等,,,2015-10-05,1,,,,,イソノケンセツ,0
1406,6100001022226,登記記録の閉鎖等,0,2022-05-30,2022-05-26,伊藤建設株式会社,,株式会社,長野県,下伊那郡阿智村,浪合８３７番地,,20,407,3950501,,,2022-05-26,清算の結了等,,,2015-10-05,1,,,,,イトウケンセツ,0
1442,6140002027360,登記記録の閉鎖等,0,2022-05-30,2022-05-24,有限会社シンライズ,,有限会社,兵庫県,神戸市垂水区,本多聞１丁目３番１３号,,28,108,6550006,,,2022-05-24,清算の結了等,,,2015-10-05,1,,,,,シンライズ,0
1446,6180001077460,登記記録の閉鎖等,0,2022-05-30,2022-05-25,株式会社ヤナギコーポレーション,,株式会社,愛知県,春日井市,鳥居松町５丁目７５番地,,23,206,4860844,,,2022-05-25,清算の結了等,,,2015-10-05,1,,,,,ヤナギコーポレーション,0
1452,6180003016656,登記記録の閉鎖等,0,2022-05-30,2022-05-25,大輝工業合同会社,,合同会社,愛知県,名古屋市緑区,大高町字一色山４１番地の２,,23,114,4598001,,,2022-05-25,清算の結了等,,,2015-10-26,1,,,,,ダイキコウギョウ,0
1454,6180301017843,登記記録の閉鎖等,0,2022-05-30,2022-05-24,株式会社イイダ,,株式会社,愛知県,豊田市,花本町青木２５番地１４,,23,211,4700334,,,2022-05-24,清算の結了等,,,2015-10-05,1,,,,,イイダ,0
1459,6190005006381,登記記録の閉鎖等,0,2022-05-30,2022-04-19,天理教明六十五分教会,,その他の設立登記法人,三重県,名張市,新田９７９番地の６,,24,208,5180611,,,2022-04-19,合併による解散等,6120005000523,令和４年４月１１日大阪市中央区龍造寺町８番１１号天理教明城大教会（6120005000523）に合併し解散,2015-10-05,1,,,,,テンリキョウメイロクジュウゴブンキョウカイ,0
1463,6200001016309,登記記録の閉鎖等,0,2022-05-30,2022-05-23,株式会社森工務店,,株式会社,岐阜県,揖斐郡池田町,田畑７０２番地の５,,21,404,5032422,,,2022-05-23,清算の結了等,,,2015-10-05,1,,,,,,0
1476,6250005004577,登記記録の閉鎖等,0,2022-05-30,2022-04-28,天理教信長分教会,,その他の設立登記法人,山口県,萩市,大字中小川第１７４番地,,35,204,7593203,,,2022-04-28,合併による解散等,8250005004443,令和４年４月２８日山口県萩市大字平安古町７５番地天理教東洋分教会（8250005004443）に合併し解散,2015-10-05,1,,,,,,0
1505,6380005011552,登記記録の閉鎖等,0,2022-05-30,2022-05-25,福島復興支援事業協同組合,,その他の設立登記法人,福島県,郡山市,香久池２丁目１６番６号,,07,203,9638833,,,2022-05-25,清算の結了等,,,2015-10-22,1,,,,,フクシマフッコウシエンジギョウ,0
1519,6430002031457,登記記録の閉鎖等,0,2022-05-30,2022-05-24,サンブルームス有限会社,,有限会社,北海道,札幌市北区,新琴似七条２丁目１番２０－３１５号,,01,102,0010907,,,2022-05-24,清算の結了等,,,2015-10-05,1,,,,,サンブルームス,0
1529,7010001014108,登記記録の閉鎖等,0,2022-05-30,2022-05-16,カテナ貿易株式会社,,株式会社,東京都,中央区,日本橋馬喰町１丁目６番８号第二久ビル７階,,13,102,1030002,,,2022-05-16,清算の結了等,,,2015-10-05,1,,,,,カテナボウエキ,0
1535,7010001151223,登記記録の閉鎖等,0,2022-05-30,2022-05-11,株式会社ｅ－Ｄｒａｇｏｎ　Ｐｏｗｅｒ,,株式会社,東京都,中央区,八丁堀２丁目１２番７号,,13,102,1040032,,,2022-05-11,清算の結了等,,,2015-10-05,1,,,,,イードラゴンパワー,0
1567,7011002001680,登記記録の閉鎖等,0,2022-05-30,2022-05-11,有限会社インテリアきむら,,有限会社,東京都,渋谷区,本町２丁目３９番１７号,,13,113,1510071,,,2022-05-11,清算の結了等,,,2015-10-05,1,,,,,インテリアキムラ,0
1572,7011101084759,登記記録の閉鎖等,0,2022-05-30,2022-05-26,エンゲージメントデザイン株式会社,,株式会社,東京都,新宿区,四谷２丁目９番地１５東京ユナイテッド綜合事務所内,,13,104,1600004,,,2022-05-26,清算の結了等,,,2018-07-11,1,,,,,エンゲージメントデザイン,0
1587,7011802030251,登記記録の閉鎖等,0,2022-05-30,2022-05-23,有限会社ＳＳＤマネジメント,,有限会社,東京都,足立区,綾瀬３丁目１６番１５－１１０２号,,13,121,1200005,,,2022-05-23,清算の結了等,,,2015-10-05,1,,,,,エスエスディマネジメント,0
1591,7012401038999,登記記録の閉鎖等,0,2022-05-30,2022-05-25,株式会社福島フソー企画,,株式会社,東京都,調布市,柴崎１丁目５２番地９,,13,208,1820014,,,2022-05-25,合併による解散等,5012401036583,令和４年５月１８日東京都調布市柴崎一丁目５２番地９株式会社富創ホールディングス（5012401036583）に合併し解散,2022-03-25,1,,,,,フクシマフソーキカク,0
1603,7020001010238,登記記録の閉鎖等,0,2022-05-30,2022-05-25,株式会社つぼうち電気,,株式会社,神奈川県,横浜市旭区,さちが丘３９番地４,,14,112,2410822,,,2022-05-25,清算の結了等,,,2015-10-05,1,,,,,ツボウチデンキ,0
1622,7021002043615,登記記録の閉鎖等,0,2022-05-30,2022-05-24,有限会社佐野企画,,有限会社,神奈川県,座間市,緑ケ丘５丁目１４番１５号,,14,216,2520021,,,2022-05-24,清算の結了等,,,2015-10-05,1,,,,,サノキカク,0
1630,7030001051009,登記記録の閉鎖等,0,2022-05-30,2022-05-25,ゴールド株式会社,,株式会社,埼玉県,春日部市,緑町４丁目７番３２号,,11,214,3440063,,,2022-05-25,清算の結了等,,,2015-10-05,1,,,,,ゴールド,0
1642,7040003001927,登記記録の閉鎖等,0,2022-05-30,2022-05-24,合名会社ワイ・エム愛,,合名会社,千葉県,松戸市,五香西１丁目１３番３４号オフィス２,,12,207,2702218,,,2022-05-24,清算の結了等,,,2015-10-05,1,,,,,ワイエムアイ,0
1681,7122001005991,登記記録の閉鎖等,0,2022-05-30,2022-05-26,日興金網工業株式会社,,株式会社,大阪府,東大阪市,宝町１番７号,,27,227,5798025,,,2022-05-26,清算の結了等,,,2015-10-05,1,,,,,ニッコウカナアミコウギョウ,0
1685,7130002004211,登記記録の閉鎖等,0,2022-05-30,2022-05-26,有限会社平井源治郎商店,,有限会社,京都府,京都市北区,紫野上築山町４０番地,,26,101,6038221,,,2022-05-26,清算の結了等,,,2015-10-05,1,,,,,ヒライゲンジロウショウテン,0
1793,8010003029598,登記記録の閉鎖等,0,2022-05-30,2022-05-18,合同会社東京レジデンシャル２,,合同会社,東京都,中央区,日本橋１丁目４番１号,,13,102,1030027,,,2022-05-18,清算の結了等,,,2019-04-03,1,,,,,トウキョウレジデンシャルツー,0
1795,8010005024630,登記記録の閉鎖等,0,2022-05-30,2022-05-26,一般社団法人鴻臚舎,,その他の設立登記法人,東京都,千代田区,富士見２丁目１４番３１号,,13,101,1020071,,,2022-05-26,清算の結了等,,,2015-11-16,1,,,,,コウロシャ,0
1843,8012405000038,登記記録の閉鎖等,0,2022-05-30,2022-05-23,東府中商店会協同組合,,その他の設立登記法人,東京都,府中市,清水が丘１丁目３番地６,,13,206,1830015,,,2022-05-23,清算の結了等,,,2015-10-05,1,,,,,ヒガシフチュウショウテンカイ,0
1845,8012701013222,登記記録の閉鎖等,0,2022-05-30,2022-05-13,株式会社ｉ－Ｒｅｇａｌｉａ,,株式会社,東京都,渋谷区,渋谷１丁目８番１０号,,13,113,1500002,,,2022-05-13,清算の結了等,,,2015-10-05,1,,,,,,0
1847,8012801007900,登記記録の閉鎖等,0,2022-05-30,2022-05-26,株式会社一興業,,株式会社,東京都,昭島市,拝島町２丁目１０番１５号,,13,207,1960002,,,2022-05-26,清算の結了等,,,2015-10-05,1,,,,,,0
1849,8013201015782,登記記録の閉鎖等,0,2022-05-30,2022-05-11,株式会社楽羅,,株式会社,東京都,目黒区,目黒２丁目１番１３号－６０１,,13,110,1530063,,,2022-05-11,清算の結了等,,,2015-10-05,1,,,,,ラクラ,0
1853,8013301042900,登記記録の閉鎖等,0,2022-05-30,2022-05-25,株式会社乙吉,,株式会社,東京都,豊島区,要町３丁目２６番３号,,13,116,1710043,,,2022-05-25,清算の結了等,,,2018-10-10,1,,,,,オトキチ,0
1890,8070001021675,登記記録の閉鎖等,0,2022-05-30,2022-05-17,栗原建設株式会社,,株式会社,群馬県,邑楽郡板倉町,大字岩田８６２番地,,10,521,3740133,,,2022-05-17,清算の結了等,,,2021-11-30,1,,,,,クリバラケンセツ,0
1893,8080001012186,登記記録の閉鎖等,0,2022-05-30,2022-05-25,株式会社ニッコーテクノ,,株式会社,静岡県,静岡市清水区,高橋４丁目１４番２４号,,22,103,4240041,,,2022-05-25,清算の結了等,,,2015-10-05,1,,,,,ニッコーテクノ,0
1898,8080405006008,登記記録の閉鎖等,0,2022-05-30,2022-05-02,陽向院,,その他の設立登記法人,静岡県,周智郡森町,薄場５７番地,,22,461,4370217,,,2022-05-02,合併による解散等,8080405005975,令和４年５月２日静岡県周智郡森町森２３４５番地梅林院（8080405005975）に合併し解散,2015-10-05,1,,,,,ヨウコウイン,0
1928,8130001049792,登記記録の閉鎖等,0,2022-05-30,2022-04-07,株式会社アグリ・エフ,,株式会社,京都府,木津川市,山城町平尾東古川８０番地,,26,214,6190202,,,2022-04-07,合併による解散等,1130001037382,令和４年４月１日京都府木津川市山城町平尾東古川８０番地株式会社尾崎（1130001037382）に合併し解散,2015-10-05,1,,,,,アグリエフ,0
1937,8140001097741,登記記録の閉鎖等,0,2022-05-30,2022-05-24,株式会社加古川トータルサービス,,株式会社,兵庫県,加古川市,別府町別府９７４番地４,,28,210,6750122,,,2022-05-24,清算の結了等,,,2015-10-05,1,,,,,カコガワトータルサービス,0
1958,8180301021991,登記記録の閉鎖等,0,2022-05-30,2022-05-23,株式会社水輪,,株式会社,愛知県,岡崎市,大和町字平野７５番地１,,23,202,4440931,,,2022-05-23,清算の結了等,,,2015-10-05,1,,,,,ミズワ,0
1960,8200001013576,登記記録の閉鎖等,0,2022-05-30,2022-05-26,コーテック興産株式会社,,株式会社,岐阜県,大垣市,米野町３丁目３０番地,,21,202,5030847,,,2022-05-26,合併による解散等,9200001013575,令和４年５月２６日岐阜県大垣市米野町三丁目３０番地コーテック株式会社（9200001013575）に合併し解散,2015-10-05,1,,,,,コーテックコウサン,0
1967,8220001003492,登記記録の閉鎖等,0,2022-05-30,2022-05-26,株式会社ジャパントラベル,,株式会社,石川県,金沢市,諸江町下丁９３番地１,,17,201,9200017,,,2022-05-26,清算の結了等,,,2015-10-05,1,,,,,ジャパントラベル,0
1969,8230002008309,登記記録の閉鎖等,0,2022-05-30,2022-05-26,上越商事有限会社,,有限会社,富山県,下新川郡入善町,上飯野３６１番地の３,,16,342,9390653,,,2022-05-26,清算の結了等,,,2015-10-05,1,,,,,ジョウエツショウジ,0
2012,8370002014326,登記記録の閉鎖等,0,2022-05-30,2022-05-20,有限会社東北廣告社,00082023,有限会社,東京都,江東区,東雲２丁目２番１４－２３１３号,,13,108,1350062,,,2022-05-20,清算の結了等,,,2015-10-05,1,,,,,トウホクコウコクシャ,0
2020,8430002064827,登記記録の閉鎖等,0,2022-05-30,2022-05-26,有限会社北昌,,有限会社,北海道,室蘭市,中央町１丁目３番１０号,,01,205,0510011,,,2022-05-26,清算の結了等,,,2015-10-05,1,,,,,,0
2028,9010001016044,登記記録の閉鎖等,0,2022-05-30,2022-05-16,株式会社光陽紙器製作所,,株式会社,東京都,千代田区,神田神保町１丁目６４番地神保町ビル３０３号,,13,101,1010051,,,2022-05-16,清算の結了等,,,2015-10-05,1,,,,,コウヨウシキセイサクショ,0
2036,9010001212832,登記記録の閉鎖等,0,2022-05-30,2022-05-19,株式会社Ｎ．Ｂ．Ｍｅｄｉｃａｌ,,株式会社,東京都,中央区,日本橋本町３丁目１１番５号,,13,102,1030023,,,2022-05-19,清算の結了等,,,2020-10-07,1,,,,,エヌビーメディカル,0
2042,9010003023162,登記記録の閉鎖等,0,2022-05-30,2022-05-20,東京ピザ倶楽部合同会社,,合同会社,東京都,中央区,勝どき２丁目５番１号ＬＵＭＥＥＤ勝どき６０１,,13,102,1040054,,,2022-05-20,清算の結了等,,,2016-03-02,1,,,,,トウキョウピザクラブ,0
2129,9021002068759,登記記録の閉鎖等,0,2022-05-30,2022-05-25,有限会社カトレア物産,,有限会社,神奈川県,三浦郡葉山町,堀内１２２７番地７,,14,301,2400112,,,2022-05-25,清算の結了等,,,2015-10-05,1,,,,,カトレアブッサン,0
2160,9070001024826,登記記録の閉鎖等,0,2022-05-30,2022-05-23,株式会社福祉杏の花,,株式会社,群馬県,桐生市,宮本町３丁目２番１３号,,10,203,3760056,,,2022-05-23,清算の結了等,,,2015-10-05,1,,,,,フクシアンズノハナ,0
2170,9110005012905,登記記録の閉鎖等,0,2022-05-30,2022-04-28,天理教越谷分教会,,その他の設立登記法人,新潟県,小千谷市,上ノ山２丁目１番１１号,,15,208,9470026,,,2022-04-28,合併による解散等,6110005012429,令和４年４月２８日新潟県長岡市滝の下町４番４３号天理教栃尾分教会（6110005012429）に合併し解散,2015-10-05,1,,,,,テンリキョウコシガヤブンキョウカイ,0
2192,9140001047266,登記記録の閉鎖等,0,2022-05-30,2022-05-23,サダノ装研株式会社,,株式会社,兵庫県,明石市,藤江１０５５－５－Ｂ３０５,,28,203,6730044,,,2022-05-23,清算の結了等,,,2015-10-05,1,,,,,サダノソウケン,0
2210,9170001014197,登記記録の閉鎖等,0,2022-05-30,2022-05-27,株式会社Ｅｄｕｃａｔｉｏｎａｌ　Ｉｎｎｏｖａｔｉｏｎｓ,,株式会社,和歌山県,有田郡湯浅町,大字湯浅１９１４番地１２,,30,361,6430004,,,2022-05-27,清算の結了等,,,2016-04-07,1,,,,,,0
2241,9280002006587,登記記録の閉鎖等,0,2022-05-30,2022-05-27,有限会社多久和商店,,有限会社,島根県,出雲市,大社町遙堪２１９８番地,,32,203,6990731,,,2022-05-27,清算の結了等,,,2015-10-05,1,,,,,タクワショウテン,0
2262,9370001018500,登記記録の閉鎖等,0,2022-05-30,2022-05-25,株式会社Ｐ．Ｇ．Ｓ．,,株式会社,宮城県,仙台市若林区,六丁の目北町１０－８０,,04,103,9840003,,,2022-05-25,清算の結了等,,,2015-10-05,1,,,,,ピージーエス,0
2275,9480001011337,登記記録の閉鎖等,0,2022-05-30,2022-05-25,セディホーム株式会社,,株式会社,徳島県,板野郡藍住町,東中富字直道傍示６７番地１１,,36,403,7711220,,,2022-05-25,清算の結了等,,,2021-04-22,1,,,,,セディホーム,0
