sequenceNumber,corporateNumber,process,correct,updateDate,changeDate,name,nameImageId,kind,prefectureName,cityName,streetNumber,addressImageId,prefectureCode,cityCode,postCode,addressOutside,addressOutsideImageId,closeDate,closeCause,successorCorporateNumber,changeCause,assignmentDate,latest,enName,enPrefectureName,enCityName,enAddressOutside,furigana,hihyoji
19,1010101016835,新規,0,2025-08-25,2025-08-25,株式会社アシスト,,株式会社,東京都,八王子市,松木６８－１,,13,201,1920362,,,,,,,2025-08-25,1,,,,,アシスト,0
25,1010401192590,新規,0,2025-08-25,2025-08-25,株式会社鑑定法人ＬＥＧＡ．,,株式会社,東京都,港区,元赤坂１丁目２番７号リージャス赤坂Ｋタワー４Ｆ,,13,103,1070051,,,,,,,2025-08-25,1,,,,,カンテイホウジンリーガ,0
26,1010403035888,新規,0,2025-08-25,2025-08-25,Ｋａｓｈｉｗａ合同会社,,合同会社,東京都,港区,西新橋１丁目２２番５号６階,,13,103,1050003,,,,,,,2025-08-25,1,,,,,カシワ,0
27,1010405024591,新規,0,2025-08-25,2025-08-25,ＵＴユニオン,,その他の設立登記法人,東京都,港区,台場２丁目３番３号,,13,103,1350091,,,,,,,2025-08-25,1,,,,,ユーティーユニオン,0
35,1010801036513,新規,0,2025-08-25,2025-08-25,株式会社ノムライティング,,株式会社,東京都,大田区,西六郷４丁目３１番７号,,13,111,1440056,,,,,,,2025-08-25,1,,,,,ノムライティング,0
39,1010901057962,新規,0,2025-08-25,2025-08-25,株式会社ＯＣＬ,,株式会社,東京都,世田谷区,下馬１丁目１９番４号ａＬＡＴＯ祐天寺ＡＮＮＥＸ,,13,112,1540002,,,,,,,2025-08-25,1,,,,,オーシーエル,0
40,1010903010201,新規,0,2025-08-25,2025-08-25,合同会社一,,合同会社,東京都,世田谷区,宇奈根２丁目１９番１号,,13,112,1570068,,,,,,,2025-08-25,1,,,,,イチ,0
50,1011001171704,新規,0,2025-08-25,2025-08-25,株式会社Ｒｅｄ,,株式会社,東京都,渋谷区,広尾１丁目２番地１号ヒカリビル４階,,13,113,1500012,,,,,,,2025-08-25,1,,,,,レッド,0
56,1011101112649,新規,0,2025-08-25,2025-08-25,株式会社Ｌ４Ｌ,,株式会社,東京都,新宿区,新宿５丁目１８番２０号ルックハイツ新宿８０３号,,13,104,1600022,,,,,,,2025-08-25,1,,,,,エルフォーエル,0
57,1011103016195,新規,0,2025-08-25,2025-08-25,合同会社Ｒｅｃｏｌｔｅ　ｄ’Ｏｒ,,合同会社,東京都,新宿区,新宿１丁目３６－１２サンカテリーナビル６Ｆ,,13,104,1600022,,,,,,,2025-08-25,1,,,,,レコルトドール,0
61,1011701028633,新規,0,2025-08-25,2025-08-25,株式会社ＤＹＧホールディングス,,株式会社,東京都,江戸川区,江戸川６丁目４０－１４大吉ビル２２５室,,13,123,1340013,,,,,,,2025-08-25,1,,,,,ディーワイジーホールディングス,0
68,1013303007825,新規,0,2025-08-25,2025-08-25,合同会社ＬａＶＩＳＩＯＮ,,合同会社,東京都,豊島区,南池袋２丁目４２番５号グランステージ東池袋６０１号,,13,116,1710022,,,,,,,2025-08-25,1,,,,,ラビジョン,0
70,1020001164527,新規,0,2025-08-25,2025-08-25,株式会社菊河,,株式会社,神奈川県,横浜市戸塚区,原宿１丁目２３番２３号,,14,110,2450063,,,,,,,2025-08-25,1,,,,,キクカワ,0
72,1020003029158,新規,0,2025-08-25,2025-08-25,合同会社Ｍａｒｉｎｏ,,合同会社,神奈川県,横浜市鶴見区,江ケ崎町１２番１９号,,14,101,2300002,,,,,,,2025-08-25,1,,,,,マリノ,0
73,1020003029190,新規,0,2025-08-25,2025-08-25,ＡＭＥＯＮ合同会社,,合同会社,神奈川県,横浜市金沢区,並木１丁目１番５－７０１号,,14,108,2360005,,,,,,,2025-08-25,1,,,,,アメオン,0
77,1021001086109,新規,0,2025-08-25,2025-08-25,株式会社ＫＫ,,株式会社,神奈川県,大和市,大和南２丁目１番５号加瀬ビル１８７・４Ｆ,,14,213,2420016,,,,,,,2025-08-25,1,,,,,ケーケー,0
90,1030001168246,新規,0,2025-08-25,2025-08-25,薙志工業株式会社,,株式会社,埼玉県,八潮市,大字大原６５２番地１,,11,234,3400825,,,,,,,2025-08-25,1,,,,,ナギシコウギョウ,0
95,1030003027391,新規,0,2025-08-25,2025-08-25,合同会社アイダマシナリー,,合同会社,埼玉県,八潮市,大字南川崎１９２－７,,11,234,3400814,,,,,,,2025-08-25,1,,,,,アイダマシナリー,0
98,1040001140195,新規,0,2025-08-25,2025-08-25,株式会社ＤＩＡＧＥ,,株式会社,千葉県,千葉市稲毛区,緑町１丁目２６番６号カーサベルデ４Ａ,,12,103,2630023,,,,,,,2025-08-25,1,,,,,ディアージュ,0
107,1040003028348,新規,0,2025-08-25,2025-08-25,合同会社Ｄｉｎｅｓｈａ,,合同会社,千葉県,八街市,朝日８７－２－１０１,,12,230,2891101,,,,,,,2025-08-25,1,,,,,ディネーシャ,0
124,1090001019476,新規,0,2025-08-25,2025-08-25,株式会社ＫＣＳ,,株式会社,山梨県,上野原市,鶴島１５５８番地,,19,212,4090114,,,,,,,2025-08-25,1,,,,,ケーシーエス,0
131,1110005017259,新規,0,2025-08-25,2025-08-25,一般社団法人にいがた絆くらぶ,,その他の設立登記法人,新潟県,新潟市東区,粟山２丁目１番２号,,15,102,9500843,,,,,,,2025-08-25,1,,,,,ニイガタキズナクラブ,0
145,1120001279018,新規,0,2025-08-25,2025-08-25,白泉株式会社,,株式会社,大阪府,大阪市中央区,島之内２丁目６番６号１Ｆ,,27,128,5420082,,,,,,,2025-08-25,1,,,,,ハクセン,0
146,1120003030312,新規,0,2025-08-25,2025-08-25,合同会社心翔美建,,合同会社,大阪府,寝屋川市,上神田１丁目４９－３０,,27,215,5720052,,,,,,,2025-08-25,1,,,,,シントビケン,0
147,1120005025120,新規,0,2025-08-25,2025-08-25,一般財団法人日本先端医療振興財団,,その他の設立登記法人,大阪府,大阪市北区,大淀南２丁目２番９－５００２号,,27,127,5310075,,,,,,,2025-08-25,1,,,,,ニホンセンタンイリョウシンコウザイダン,0
150,1122001039566,新規,0,2025-08-25,2025-08-25,株式会社マツモラホールディングス,,株式会社,大阪府,東大阪市,玉串町東２丁目５番３９号,,27,227,5780932,,,,,,,2025-08-25,1,,,,,マツモラホールディングス,0
153,1130001080283,新規,0,2025-08-25,2025-08-25,株式会社松島運送,,株式会社,京都府,京都市山科区,東野森野町１番地１１,,26,110,6078147,,,,,,,2025-08-25,1,,,,,マツシマウンソウ,0
156,1140001139731,新規,0,2025-08-25,2025-08-25,ＴＯＷＥＲ　Ｂ１３ＪＡＰＡＮ株式会社,,株式会社,兵庫県,神戸市東灘区,向洋町中６丁目９番地神戸ファッションマート,,28,101,6580032,,,,,,,2025-08-25,1,,,,,タワービージュウサンジャパン,0
157,1140001139772,新規,0,2025-08-25,2025-08-25,株式会社ＫＥＥＰ,,株式会社,兵庫県,神戸市中央区,八幡通１丁目１－１４,,28,110,6510085,,,,,,,2025-08-25,1,,,,,キープ,0
159,1140003022480,新規,0,2025-08-25,2025-08-25,合同会社ｆｅ　ｉｎｔｅｒｎａｔｉｏｎａｌ,,合同会社,兵庫県,淡路市,明神字西濱６３９－１,,28,226,6561557,,,,,,,2025-08-25,1,,,,,エフイーインターナショナル,0
160,1140003022489,新規,0,2025-08-25,2025-08-25,合同会社ニシキＭａｌｔｉｃｓ＆Ｈｏｐｓ,,合同会社,兵庫県,丹波篠山市,遠方７９９番,,28,221,6692704,,,,,,,2025-08-25,1,,,,,ニシキモルティックスアンドホップス,0
161,1140005027610,新規,0,2025-08-25,2025-08-25,一般社団法人日本ノルディックゴルフ協会,,その他の設立登記法人,兵庫県,神戸市須磨区,清水台１番地の８グレーシィ須磨アルテピアＩ番街５２９号,00140404,28,107,6540123,,,,,,,2025-08-25,1,,,,,ニホンノルディックゴルフキョウカイ,0
162,1150001028355,新規,0,2025-08-25,2025-08-25,株式会社ジュノフィオーレ,,株式会社,奈良県,奈良市,百楽園１丁目９番３５－２号,,29,201,6310024,,,,,,,2025-08-25,1,,,,,ジュノフィオーレ,0
175,1180001168306,新規,0,2025-08-25,2025-08-25,ＡＫ　ＴＲＡＤＩＮＧ株式会社,,株式会社,愛知県,弥富市,鯏浦町気開１３６番地ユーパティオ１０３,,23,235,4980024,,,,,,,2025-08-25,1,,,,,エーケートレーディング,0
176,1180001168314,新規,0,2025-08-25,2025-08-25,株式会社三宇,,株式会社,愛知県,名古屋市西区,名駅２丁目２９－２８グランデール名古屋２０２号室,,23,104,4510045,,,,,,,2025-08-25,1,,,,,サンウ,0
177,1180003028879,新規,0,2025-08-25,2025-08-25,ＥＯＮＩＸ合同会社,,合同会社,愛知県,一宮市,浅井町大日比野字尾関前９番地,,23,203,4910105,,,,,,,2025-08-25,1,,,,,イオニクス,0
178,1180003028920,新規,0,2025-08-25,2025-08-25,合同会社ＯＨＡＳＨＩ,,合同会社,愛知県,日進市,東山１丁目１１３５番地,,23,230,4700116,,,,,,,2025-08-25,1,,,,,オオハシ,0
186,1200003006997,新規,0,2025-08-25,2025-08-25,木創ＬＡＢＯ合同会社,,合同会社,岐阜県,本巣市,上真桑字大正寺１６９９番地１,,21,218,5010461,,,,,,,2025-08-25,1,,,,,キソウラボ,0
187,1210005010220,新規,0,2025-08-25,2025-08-25,一般社団法人ＦｒＥＥＬ,,その他の設立登記法人,福井県,敦賀市,野神１号４２番地,,18,202,9140121,,,,,,,2025-08-25,1,,,,,フリール,0
197,1240001065397,新規,0,2025-08-25,2025-08-25,株式会社Ｆａｓｔ,,株式会社,広島県,府中市,中須町３４８番地７,,34,208,7260012,,,,,,,2025-08-25,1,,,,,ファスト,0
198,1240001065406,新規,0,2025-08-25,2025-08-25,丸山商事株式会社,,株式会社,広島県,広島市中区,八丁堀６番１１－５０１号,,34,101,7300013,,,,,,,2025-08-25,1,,,,,マルヤマショウジ,0
200,1250001021300,新規,0,2025-08-25,2025-08-25,ＹＡＭＡＴＯ　Ｇｌｏｂａｌ　Ｒｅｓｏｕｒｃｅｓ株式会社,,株式会社,山口県,防府市,大字牟礼３６５番地の４,,35,206,7470004,,,,,,,2025-08-25,1,,,,,ヤマトグローバルリソーシズ,0
203,1260001040464,新規,0,2025-08-25,2025-08-25,株式会社ＲＩＳＥ,,株式会社,岡山県,岡山市南区,片岡２３２２番地１（２０５）,,33,104,7091215,,,,,,,2025-08-25,1,,,,,ライズ,0
211,1290001110933,新規,0,2025-08-25,2025-08-25,ＤｅｃｋＨｕｂ株式会社,,株式会社,福岡県,福岡市博多区,博多駅前１丁目２３番２号ＰａｒｋＦｒｏｎｔ博多駅前１丁目５Ｆ‐Ｂ,,40,132,8120011,,,,,,,2025-08-25,1,,,,,デックハブ,0
212,1290001111147,新規,0,2025-08-25,2025-08-25,株式会社Ｍｏｔｏ　Ｂａｋｅｒｙ　Ｌａｂ,,株式会社,福岡県,福岡市博多区,新和町２丁目２－３７－１０１号,,40,132,8120875,,,,,,,2025-08-25,1,,,,,モトベーカリーラボ,0
213,1290001111155,新規,0,2025-08-25,2025-08-25,株式会社ｈａｎａｒｅ,,株式会社,福岡県,福岡市中央区,高砂２丁目１番４号,,40,133,8100011,,,,,,,2025-08-25,1,,,,,ハナレ,0
214,1290001111171,新規,0,2025-08-25,2025-08-25,株式会社ＯＭＣ,,株式会社,福岡県,糟屋郡須惠町,大字植木２０７番地２,,40,344,8112112,,,,,,,2025-08-25,1,,,,,オーエムシー,0
221,1300001014331,新規,0,2025-08-25,2025-08-25,株式会社Ｔ＆Ａ,,株式会社,佐賀県,佐賀市,天祐１丁目１６－１７レーブ天佑１０５号,,41,201,8400851,,,,,,,2025-08-25,1,,,,,ティーアンドエー,0
234,1360001035677,新規,0,2025-08-25,2025-08-25,株式会社原重機,,株式会社,沖縄県,浦添市,西原４丁目３７番１１号２Ｆ,,47,208,9012101,,,,,,,2025-08-25,1,,,,,ハラジュウキ,0
235,1360001035685,新規,0,2025-08-25,2025-08-25,株式会社シアワセサンド,,株式会社,沖縄県,石垣市,字真栄里７１－９,,47,207,9070002,,,,,,,2025-08-25,1,,,,,シアワセサンド,0
246,1380005013000,新規,0,2025-08-25,2025-08-25,一般社団法人アーバンデザインセンターフロンティア郡山,,その他の設立登記法人,福島県,郡山市,開成１丁目５番地,,07,203,9638851,,,,,,,2025-08-25,1,,,,,アーバンデザインセンターフロンティアコオリヤマ,0
252,1430001095086,新規,0,2025-08-25,2025-08-25,株式会社ＫＵＳＴＥＲ,,株式会社,北海道,札幌市北区,新川七条１６丁目７０９番地１,,01,102,0010927,,,,,,,2025-08-25,1,,,,,カスター,0
258,1450003002708,新規,0,2025-08-25,2025-08-25,ノーザンフロウ合同会社,,合同会社,北海道,空知郡中富良野町,字中富良野東４線北十九号,,01,461,0710774,,,,,,,2025-08-25,1,,,,,ノーザンフロウ,0
259,1470001020866,新規,0,2025-08-25,2025-08-25,株式会社Ａｔｔｕｒｅ,,株式会社,香川県,高松市,庵治町１８６１番地１,,37,201,7610130,,,,,,,2025-08-25,1,,,,,,0
260,1700150131960,新規,0,2025-08-25,2025-08-25,Ｇｒｅｅｎ　Ｃｏｎｃｅｐｔ　Ｉｄｅａｓ（ＨｕＩｚｈｏｕ）Ｃｏ．，Ｌｔｄ．,,外国会社等,,,,,,,,Ｗｏｒｋｓｈｏｐ　Ｂ，ｔｈｉｒｄ　ｆｌｏｏｒ　ｏｆ　ｔｈｅ　ｉｎｄｕｓｔｒｉａｌ　ｐｌａｎｔ　ａｔ　Ｎｏ．１　Ｑｉｎｇｌｉ　３ｒｄ　Ｒｏａｄ，Ｓｈｕｉｋｏｕ　Ｓｕｂ－ｄｉｓｔｒｉｃｔ，Ｈｕｉｃｈｅｎｇ　Ｄｉｓｔｒｉｃｔ，Ｈｕｉｚｈｏｕ　Ｃｉｔｙ,,,,,,2025-08-25,1,,,,,グリーンコンセプトアイディアズホイゾウカンパニーリミテッド,0
269,2010001257941,新規,0,2025-08-25,2025-08-25,株式会社みつより,,株式会社,東京都,文京区,湯島３丁目７－８パラッシオ湯島６０３,,13,105,1130034,,,,,,,2025-08-25,1,,,,,ミツヨリ,0
270,2010001257974,新規,0,2025-08-25,2025-08-25,株式会社ｂｌａｃｋｃｈｉｐ,,株式会社,東京都,中央区,日本橋兜町１１－８ジュネス日本橋３０２,,13,102,1030026,,,,,,,2025-08-25,1,,,,,ブラックチップ,0
283,2010401192598,新規,0,2025-08-25,2025-08-25,株式会社メドフォリオ,,株式会社,東京都,港区,虎ノ門５丁目９番１号,,13,103,1050001,,,,,,,2025-08-25,1,,,,,メドフォリオ,0
285,2010403035771,新規,0,2025-08-25,2025-08-25,合同会社ＮＮＹ,,合同会社,東京都,港区,南青山３丁目１番３６号青山丸竹ビル６階,,13,103,1070062,,,,,,,2025-08-25,1,,,,,エヌエヌワイ,0
286,2010403035887,新規,0,2025-08-25,2025-08-25,Ａｄｖａｎｃｅｄ　Ｎｉｐｐｏｎ　Ｖｅｎｔｕｒｅｓ合同会社,,合同会社,東京都,港区,愛宕１丁目６番８号,,13,103,1050002,,,,,,,2025-08-25,1,,,,,アドバンスドニッポンベンチャーズ,0
288,2010405024608,新規,0,2025-08-25,2025-08-25,一般社団法人国際先端抗老化医療協会,,その他の設立登記法人,東京都,港区,赤坂７丁目１－１５アトム青山タワー２Ｆ,,13,103,1070052,,,,,,,2025-08-25,1,,,,,コクサイセンタンコウロウカイリョウキョウカイ,0
291,2010601067856,新規,0,2025-08-25,2025-08-25,豊洲電器市場株式会社,,株式会社,東京都,江東区,豊洲５丁目６番２９,,13,108,1350061,,,,,,,2025-08-25,1,,,,,トヨスデンキイチバ,0
292,2010701048203,新規,0,2025-08-25,2025-08-25,株式会社Ｓｈｉｎｋａ　Ｔｅｃｈ　Ｐａｒｔｎｅｒｓ,,株式会社,東京都,品川区,大崎２丁目９番１－２６０８号,,13,109,1410032,,,,,,,2025-08-25,1,,,,,シンカテックパートナーズ,0
299,2011001171406,新規,0,2025-08-25,2025-08-25,株式会社スカイブルー６,,株式会社,東京都,渋谷区,富ヶ谷２丁目２－１１,,13,113,1510063,,,,,,,2025-08-25,1,,,,,スカイブルーシックス,0
300,2011001171942,新規,0,2025-08-25,2025-08-25,クロスジェネレーションズ株式会社,,株式会社,東京都,渋谷区,渋谷２丁目１９番１９号ワコー宮益坂ビル５階,,13,113,1500002,,,,,,,2025-08-25,1,,,,,クロスジェネレーションズ,0
304,2011003022243,新規,0,2025-08-25,2025-08-25,合同会社ＭＥＡＴ,,合同会社,東京都,目黒区,碑文谷５丁目１９番９号,,13,110,1520003,,,,,,,2025-08-25,1,,,,,ミート,0
310,2011101112929,新規,0,2025-08-25,2025-08-25,ＩＨ　ＮＥＸＵＳ株式会社,,株式会社,東京都,新宿区,百人町２丁目１番４２－３０９号,,13,104,1690073,,,,,,,2025-08-25,1,,,,,アイエイチネクサス,0
311,2011103016194,新規,0,2025-08-25,2025-08-25,合同会社ＸＩ,,合同会社,東京都,新宿区,西新宿３丁目３番１３号西新宿水間ビル６階,,13,104,1600023,,,,,,,2025-08-25,1,,,,,クシィー,0
313,2011301030823,新規,0,2025-08-25,2025-08-25,株式会社桂家不動産,,株式会社,東京都,杉並区,高井戸西１丁目２６－１７リバーサイド高井戸１０３,,13,115,1680071,,,,,,,2025-08-25,1,,,,,カツラヤフドウサン,0
315,2011303005682,新規,0,2025-08-25,2025-08-25,ＨＵＮＧ　ＱＵＹＥＮ合同会社,,合同会社,東京都,杉並区,西荻南３丁目８番７号,,13,115,1670053,,,,,,,2025-08-25,1,,,,,フンクエン,0
320,2011801046641,新規,0,2025-08-25,2025-08-25,松林株式会社,,株式会社,東京都,足立区,南花畑２丁目４２番地２、３Ｆ,,13,121,1210062,,,,,,,2025-08-25,1,,,,,ショウリン,0
324,2011803007022,新規,0,2025-08-25,2025-08-25,合同会社リラレイズ,,合同会社,東京都,足立区,西伊興３丁目１－２３,,13,121,1210824,,,,,,,2025-08-25,1,,,,,リラレイズ,0
328,2012403007296,新規,0,2025-08-25,2025-08-25,コバヤシリフォーム合同会社,,合同会社,東京都,調布市,柴崎２丁目１３番地３つつじケ丘ハイムＣ－５０３,,13,208,1820014,,,,,,,2025-08-25,1,,,,,コバヤシリフォーム,0
331,2013301054827,新規,0,2025-08-25,2025-08-25,株式会社Ｓｈａｒｂｅｔ,,株式会社,東京都,豊島区,南大塚２丁目４３－１２中村ビル５０１,,13,116,1700005,,,,,,,2025-08-25,1,,,,,シャーベット,0
333,2020001164484,新規,0,2025-08-25,2025-08-25,株式会社Ｈａｒｕ‐Ｔｅｃ,,株式会社,神奈川県,横浜市鶴見区,馬場３丁目１１番１１号コトー・デ・コクリコＥ号室,,14,101,2300076,,,,,,,2025-08-25,1,,,,,ハルテック,0
335,2020005016962,新規,0,2025-08-25,2025-08-25,一般社団法人Ｋｙｏｄｏ　Ｉｎｔｅｒｎａｔｉｏｎａｌ　ｔｅｃｈｎｏｌｏｇｙ,,その他の設立登記法人,神奈川県,横浜市中区,元浜町３番地の２３プロスタイル横浜馬車道２０７号,,14,104,2310000,,,,,,,2025-08-25,1,,,,,キョウドウインターナショナルテクノロジー,0
346,2030001168278,新規,0,2025-08-25,2025-08-25,Ｒ‐ＥＰ株式会社,,株式会社,埼玉県,草加市,長栄４丁目１８番地１６長栄マンション２０４号,,11,221,3400051,,,,,,,2025-08-25,1,,,,,レップ,0
347,2030001168311,新規,0,2025-08-25,2025-08-25,株式会社日本の夜明け,,株式会社,埼玉県,草加市,中根３丁目３１番２２号,,11,221,3400005,,,,,,,2025-08-25,1,,,,,ニホンノヨアケ,0
349,2030003027449,新規,0,2025-08-25,2025-08-25,合同会社ハッピーファーム,,合同会社,埼玉県,蓮田市,大字駒崎４９０２－１,,11,238,3490134,,,,,,,2025-08-25,1,,,,,ハッピーファーム,0
360,2040003028339,新規,0,2025-08-25,2025-08-25,合同会社ＣＡＳＡ　ＤＩ　ＬＯＬＬＯ,,合同会社,千葉県,柏市,豊住２丁目１番１８－４号,,12,217,2770071,,,,,,,2025-08-25,1,,,,,カーサディロッロ,0
361,2040003028347,新規,0,2025-08-25,2025-08-25,合同会社ネンネン,,合同会社,千葉県,松戸市,小根本８６－３フォレナ２０５,,12,207,2710073,,,,,,,2025-08-25,1,,,,,ネンネン,0
363,2050001057157,新規,0,2025-08-25,2025-08-25,株式会社Ａｕｋｓ,,株式会社,茨城県,つくば市,春風台２６番地３,,08,220,3050007,,,,,,,2025-08-25,1,,,,,オークス,0
372,2080105006528,新規,0,2025-08-25,2025-08-25,東海育成協同組合,,その他の設立登記法人,静岡県,富士市,水戸島本町１０番地の２５ダイアパレスＳｔａｔｉｏｎＳｉｄｅ富士６０２号室,,22,210,4160924,,,,,,,2025-08-25,1,,,,,トウカイイクセイ,0
389,2120001279000,新規,0,2025-08-25,2025-08-25,株式会社ＳＡＫＡＮＥ　ＯＮＥ,,株式会社,大阪府,大阪市東淀川区,柴島２丁目２１番２４号－５０５,,27,114,5330024,,,,,,,2025-08-25,1,,,,,サカネワン,0
390,2120001279165,新規,0,2025-08-25,2025-08-25,Ｓａｖｖｉ株式会社,,株式会社,大阪府,大阪市北区,角田町８番４７号阪急グランドビル２６階,,27,127,5300017,,,,,,,2025-08-25,1,,,,,サヴィ,0
391,2120003030369,新規,0,2025-08-25,2025-08-25,ＤＯＮＡグループ合同会社,,合同会社,大阪府,大阪市生野区,中川東２丁目１７番２５号,,27,116,5440006,,,,,,,2025-08-25,1,,,,,ドナグループ,0
395,2120101072313,新規,0,2025-08-25,2025-08-25,株式会社ＢＥＬＬ　ＲＩＳＥ,,株式会社,大阪府,堺市東区,白鷺町１丁３番１３号３Ｆ,,27,143,5998107,,,,,,,2025-08-25,1,,,,,ベルライズ,0
397,2122001039573,新規,0,2025-08-25,2025-08-25,ＫＩＭＳアパレル株式会社,,株式会社,大阪府,八尾市,安中町７丁目３番１８号,,27,212,5810085,,,,,,,2025-08-25,1,,,,,キムズアパレル,0
404,2130001080423,新規,0,2025-08-25,2025-08-25,合豊京都株式会社,,株式会社,京都府,京都市下京区,瀬戸屋町２８５－２プレジール大宮１０１号室,,26,106,6008398,,,,,,,2025-08-25,1,,,,,ゴウホウキョウト,0
412,2140003022488,新規,0,2025-08-25,2025-08-25,ＡＣＣブライト合同会社,,合同会社,兵庫県,西宮市,羽衣町７－３０夙川グリーンタウン３階,,28,204,6620051,,,,,,,2025-08-25,1,,,,,エーシーシーブライト,0
415,2160001027009,新規,0,2025-08-25,2025-08-25,エースロジスティクス株式会社,,株式会社,滋賀県,東近江市,妙法寺町１３４５番地５,,25,213,5270046,,,,,,,2025-08-25,1,,,,,エースロジスティクス,0
422,2180001168263,新規,0,2025-08-25,2025-08-25,株式会社ＢＨＡＹＡ　ＩＮＴＥＲＮＡＴＩＯＮＡＬ,,株式会社,愛知県,名古屋市中村区,塩池町２丁目２－２５海老清荘２０７号,,23,105,4530032,,,,,,,2025-08-25,1,,,,,バヤインターナショナル,0
423,2180001168313,新規,0,2025-08-25,2025-08-25,株式会社ＳＡ建設,,株式会社,愛知県,稲沢市,赤池中町３９番地１,,23,220,4928025,,,,,,,2025-08-25,1,,,,,エスエーケンセツ,0
432,2210001020288,新規,0,2025-08-25,2025-08-25,ＲＩＳＥ　ＭＡＲＴ株式会社,,株式会社,福井県,福井市,宝永２丁目８－９,,18,201,9100004,,,,,,,2025-08-25,1,,,,,ライズマート,0
438,2240001065396,新規,0,2025-08-25,2025-08-25,株式会社ＹＤＫ,,株式会社,広島県,福山市,山手町１２２４番地７,,34,207,7200092,,,,,,,2025-08-25,1,,,,,ワイディケー,0
447,2290001111154,新規,0,2025-08-25,2025-08-25,株式会社スタジオナゲット,,株式会社,福岡県,福岡市中央区,高砂２丁目１番４号,,40,133,8100011,,,,,,,2025-08-25,1,,,,,スタジオナゲット,0
448,2290001111162,新規,0,2025-08-25,2025-08-25,株式会社レックシステムズ,,株式会社,福岡県,大野城市,下大利５丁目３番２８－４０７号,,40,219,8160952,,,,,,,2025-08-25,1,,,,,レックシステムズ,0
449,2290001111204,新規,0,2025-08-25,2025-08-25,ＯＰＥＮ　ＧＡＴＥ株式会社,,株式会社,福岡県,福岡市東区,香椎浜２丁目８番２０－１３０７号,,40,131,8130016,,,,,,,2025-08-25,1,,,,,オープンゲイト,0
450,2290003017267,新規,0,2025-08-25,2025-08-25,合同会社ｊｏｕｒｎｅｙ,,合同会社,福岡県,福岡市南区,向新町１丁目８番３７号,,40,134,8111345,,,,,,,2025-08-25,1,,,,,ジャーニー,0
452,2300001014330,新規,0,2025-08-25,2025-08-25,株式会社駒,,株式会社,佐賀県,唐津市,西城内１番２号,,41,202,8470014,,,,,,,2025-08-25,1,,,,,コマ,0
453,2300003002309,新規,0,2025-08-25,2025-08-25,合同会社東料理研究所,,合同会社,佐賀県,鳥栖市,曽根崎町１２７３番地１,,41,203,8410025,,,,,,,2025-08-25,1,,,,,ヒガシリョウリケンキュウショ,0
462,2370005010996,新規,0,2025-08-25,2025-08-25,一般社団法人ＫＯＤＯＭＯ　ＥＨＯＮ,,その他の設立登記法人,宮城県,仙台市青葉区,一番町２丁目９－２８－７０３号,,04,101,9800811,,,,,,,2025-08-25,1,,,,,コドモエホン,0
466,2380001035534,新規,0,2025-08-25,2025-08-25,株式会社ロイズ,,株式会社,福島県,いわき市,明治団地２番地の２１,,07,204,9708035,,,,,,,2025-08-25,1,,,,,ロイズ,0
470,2430001095085,新規,0,2025-08-25,2025-08-25,Ｇｅｎｏｖａ　Ｂｉｏ　Ｊａｐａｎ株式会社,,株式会社,北海道,札幌市中央区,南十一条西８丁目３番１７－８０３号,,01,101,0640811,,,,,,,2025-08-25,1,,,,,ジェノババイオジャパン,0
471,2430001095093,新規,0,2025-08-25,2025-08-25,株式会社アスベラ,,株式会社,北海道,勇払郡安平町,遠浅７０７番地１０,,01,585,0591433,,,,,,,2025-08-25,1,,,,,アスベラ,0
472,2430001095119,新規,0,2025-08-25,2025-08-25,株式会社Ｍｅｌｌｏｗ,,株式会社,北海道,札幌市北区,北二十七条西５丁目２番３,,01,102,0010027,,,,,,,2025-08-25,1,,,,,メロウ,0
478,2450003002707,新規,0,2025-08-25,2025-08-25,合同会社ＷＨＩＴＥ４,,合同会社,北海道,士別市,朝日町中央３７８１番地,,01,220,0950401,,,,,,,2025-08-25,1,,,,,ホワイトフォー,0
483,2500003003575,新規,0,2025-08-25,2025-08-25,合同会社大島農建,,合同会社,愛媛県,東温市,牛渕８０５番地,,38,215,7910213,,,,,,,2025-08-25,1,,,,,オオシマノウケン,0
494,3010001257841,新規,0,2025-08-25,2025-08-25,株式会社ビルドアップスイミング,,株式会社,東京都,文京区,千石３丁目３１番７号ＴＫラ・ヴィドール３０２,,13,105,1120011,,,,,,,2025-08-25,1,,,,,ビルドアップスイミング,0
495,3010001257965,新規,0,2025-08-25,2025-08-25,株式会社ＤＩＥＵ,,株式会社,東京都,中央区,勝どき４丁目６番１－４１０７号,,13,102,1040054,,,,,,,2025-08-25,1,,,,,ディーアイイーユー,0
496,3010001257981,新規,0,2025-08-25,2025-08-25,株式会社クレッセオ,,株式会社,東京都,中央区,月島１丁目５番１－２５１０号,,13,102,1040052,,,,,,,2025-08-25,1,,,,,クレッセオ,0
499,3010003048487,新規,0,2025-08-25,2025-08-25,ＳＨ　Ｊａｐａｎ合同会社,,合同会社,東京都,中央区,日本橋３丁目９番１号日本橋三丁目スクエア１１階,,13,102,1030027,,,,,,,2025-08-25,1,,,,,エスエイチジャパン,0
500,3010003048512,新規,0,2025-08-25,2025-08-25,合同会社ＳＨＯＧＵＮ　ＡＫＩＢＡ,,合同会社,東京都,千代田区,外神田１丁目９番８号ダイヤモンドビル３階,,13,101,1010021,,,,,,,2025-08-25,1,,,,,ショーグンアキバ,0
510,3010401192564,新規,0,2025-08-25,2025-08-25,ＣｌｉｃｋＨｏｕｓｅ株式会社,,株式会社,東京都,港区,赤坂９丁目７番１号ミッドタウンタワー１８階,,13,103,1070052,,,,,,,2025-08-25,1,,,,,クリックハウス,0
512,3010403035853,新規,0,2025-08-25,2025-08-25,合同会社アシスト,,合同会社,東京都,港区,東麻布３丁目１０番１－８０４号,,13,103,1060044,,,,,,,2025-08-25,1,,,,,アシスト,0
515,3010405024607,新規,0,2025-08-25,2025-08-25,一般社団法人咲歯科未来研究所,,その他の設立登記法人,東京都,港区,浜松町２丁目２番１５号浜松町ダイヤビル２Ｆ,,13,103,1050013,,,,,,,2025-08-25,1,,,,,サクシカミライケンキュウジョ,0
516,3010405024623,新規,0,2025-08-25,2025-08-25,一般社団法人フードネクサスジャパン,,その他の設立登記法人,東京都,港区,新橋５丁目３２番７号ＦＩビル,,13,103,1050004,,,,,,,2025-08-25,1,,,,,フードネクサスジャパン,0
520,3010601067847,新規,0,2025-08-25,2025-08-25,株式会社ＥＩＴＯ,,株式会社,東京都,墨田区,緑４丁目２１番１０－５０５号,,13,107,1300021,,,,,,,2025-08-25,1,,,,,エイト,0
523,3010901057969,新規,0,2025-08-25,2025-08-25,株式会社ＴＩＥＲＲＡ,,株式会社,東京都,世田谷区,瀬田３丁目１番１３―６０２号,,13,112,1580095,,,,,,,2025-08-25,1,,,,,ティエラ,0
524,3010903010216,新規,0,2025-08-25,2025-08-25,合同会社Ｃｏｎｅｔ,,合同会社,東京都,世田谷区,奥沢５丁目１８―１０、１階,,13,112,1580083,,,,,,,2025-08-25,1,,,,,コネット,0
527,3011001171479,新規,0,2025-08-25,2025-08-25,株式会社グラシア,,株式会社,東京都,目黒区,下目黒１丁目３番２８－１２０２号,,13,110,1530064,,,,,,,2025-08-25,1,,,,,グラシア,0
528,3011001171520,新規,0,2025-08-25,2025-08-25,Ｐｌａｃｅ‐ｉｎ株式会社,,株式会社,東京都,渋谷区,恵比寿西２丁目８番４号ＥＸ恵比寿西ビル５Ｆ,,13,113,1500021,,,,,,,2025-08-25,1,,,,,プレイスイン,0
529,3011001171801,新規,0,2025-08-25,2025-08-25,株式会社トコロ,,株式会社,東京都,渋谷区,恵比寿４丁目１０番８号エビスビル２０１,,13,113,1500013,,,,,,,2025-08-25,1,,,,,トコロ,0
532,3011101112762,新規,0,2025-08-25,2025-08-25,株式会社キャロル,,株式会社,東京都,新宿区,新宿１丁目３６番２号新宿第七葉山ビル３Ｆ,,13,104,1600022,,,,,,,2025-08-25,1,,,,,キャロル,0
533,3011101112952,新規,0,2025-08-25,2025-08-25,株式会社エーシーズ,,株式会社,東京都,新宿区,上落合２丁目１１番３号グリーンＫ１０２,,13,104,1610034,,,,,,,2025-08-25,1,,,,,エーシーズ,0
534,3011101113001,新規,0,2025-08-25,2025-08-25,株式会社フュージョナーレグローバル,,株式会社,東京都,新宿区,袋町２３番地７－２０５,,13,104,1620828,,,,,,,2025-08-25,1,,,,,フュージョナーレグローバル,0
535,3011103016251,新規,0,2025-08-25,2025-08-25,ひばりクーテック合同会社,,合同会社,東京都,新宿区,西新宿３丁目３番１３号西新宿水間ビル６階,,13,104,1600023,,,,,,,2025-08-25,1,,,,,ヒバリクーテック,0
542,3011503006653,新規,0,2025-08-25,2025-08-25,合同会社ｂａｍｂｏｏ,,合同会社,東京都,荒川区,南千住８丁目４番５－４０４号,,13,118,1160003,,,,,,,2025-08-25,1,,,,,バンブー,0
546,3013101009781,新規,0,2025-08-25,2025-08-25,トヨタ自動車羽村株式会社,,株式会社,東京都,羽村市,緑ヶ丘３丁目１番地１,,13,227,2050003,,,,,,,2025-08-25,1,,,,,トヨタジドウシャハムラ,0
547,3013301054801,新規,0,2025-08-25,2025-08-25,株式会社Ｋ＆Ｊ,,株式会社,東京都,豊島区,要町１丁目１６番１４－３０２号,,13,116,1710043,,,,,,,2025-08-25,1,,,,,ケーアンドジェー,0
555,3020003029197,新規,0,2025-08-25,2025-08-25,ルーチェアイピー合同会社,,合同会社,神奈川県,川崎市宮前区,小台１丁目８番１７,,14,136,2160007,,,,,,,2025-08-25,1,,,,,ルーチェアイピー,0
567,3030001168310,新規,0,2025-08-25,2025-08-25,ＰＡＲＭＥＳＨＷＡＲ株式会社,,株式会社,埼玉県,川口市,西川口３丁目３２－１９,,11,203,3320021,,,,,,,2025-08-25,1,,,,,パルメシュワール,0
573,3030003027456,新規,0,2025-08-25,2025-08-25,ＤＨＱ合同会社,,合同会社,埼玉県,富士見市,鶴馬２丁目１４番４０－１１７号,,11,235,3540021,,,,,,,2025-08-25,1,,,,,ディーエイチキュー,0
574,3030003027464,新規,0,2025-08-25,2025-08-25,豊栄合同会社,,合同会社,埼玉県,川口市,芝園町３－１１－１０２,,11,203,3330853,,,,,,,2025-08-25,1,,,,,トヨサカ,0
578,3040001140177,新規,0,2025-08-25,2025-08-25,株式会社ＨＯＬＤ　ＨＡＮＤＳ,,株式会社,千葉県,松戸市,松飛台４５番地の４８,,12,207,2702214,,,,,,,2025-08-25,1,,,,,ホールドハンズ,0
579,3040001140202,新規,0,2025-08-25,2025-08-25,株式会社Ｍ＆Ｗ,,株式会社,千葉県,印西市,中央南１丁目１３番地３０４号,,12,231,2701340,,,,,,,2025-08-25,1,,,,,エムアンドダブリュ,0
581,3040003028346,新規,0,2025-08-25,2025-08-25,合同会社Ｏｋｏｂａ　Ａｃｃｏｕｎｔｉｎｇ,,合同会社,千葉県,白井市,笹塚３丁目１１番８号,,12,232,2701426,,,,,,,2025-08-25,1,,,,,オオコバアカウンティング,0
582,3050001057164,新規,0,2025-08-25,2025-08-25,ＲＡＮＡ　ＡＵＴＯ　ＴＲＡＤＩＮＧ株式会社,,株式会社,茨城県,古河市,女沼５７７番地８,,08,204,3060226,,,,,,,2025-08-25,1,,,,,ラナオートトレーディング,0
588,3070005010423,新規,0,2025-08-25,2025-08-25,一般社団法人希望のともしび,,その他の設立登記法人,群馬県,安中市,鷺宮１２８５番地２,,10,211,3790124,,,,,,,2025-08-25,1,,,,,,0
591,3080403005338,新規,0,2025-08-25,2025-08-25,ＪＭＮ　ＡＵＴＯ合同会社,,合同会社,静岡県,掛川市,千浜５６１８番地大松社宅４号,,22,213,4371412,,,,,,,2025-08-25,1,,,,,ジェイエムエヌオート,0
607,3120003030368,新規,0,2025-08-25,2025-08-25,合同会社Ｗｅｌｏｏｍ,,合同会社,大阪府,大阪市東淀川区,瑞光１丁目３番１７号第二ハイツツイゲル４０２号,,27,114,5330005,,,,,,,2025-08-25,1,,,,,ウェルーム,0
612,3130001080422,新規,0,2025-08-25,2025-08-25,株式会社京都娯楽,,株式会社,京都府,京都市中京区,鍋屋町２１５サキゾー木屋町２１５ビル２Ｆ,,26,104,6048015,,,,,,,2025-08-25,1,,,,,キョウトゴラク,0
613,3130001080430,新規,0,2025-08-25,2025-08-25,ＥＬニッポンカデミー株式会社,,株式会社,京都府,京都市伏見区,羽束師古川町５８２番地９,,26,109,6128486,,,,,,,2025-08-25,1,,,,,イーエルニッポンカデミー,0
615,3130003010699,新規,0,2025-08-25,2025-08-25,ＳＣ　Ｇｌｏｂａｌ合同会社,,合同会社,京都府,京都市北区,紫野中柏野町６９番地１,,26,101,6038312,,,,,,,2025-08-25,1,,,,,エスシーグローバル,0
618,3140001139754,新規,0,2025-08-25,2025-08-25,株式会社モミキ商会,,株式会社,兵庫県,西宮市,南越木岩町５番１８－５０３号,,28,204,6620075,,,,,,,2025-08-25,1,,,,,モミキショウカイ,0
619,3140001139779,新規,0,2025-08-25,2025-08-25,株式会社ＴＤＫ,,株式会社,兵庫県,宝塚市,安倉西２丁目６番３号,,28,214,6650825,,,,,,,2025-08-25,1,,,,,ティーディーケー,0
620,3140001139787,新規,0,2025-08-25,2025-08-25,株式会社スターリーフ,,株式会社,兵庫県,明石市,大久保町ゆりのき通２丁目５０番地の６Ａ棟１１１３号,,28,203,6740068,,,,,,,2025-08-25,1,,,,,スターリーフ,0
623,3140003022470,新規,0,2025-08-25,2025-08-25,ＷＡＮＤＡ合同会社,,合同会社,兵庫県,丹波篠山市,真南条中５４２番地,,28,221,6692463,,,,,,,2025-08-25,1,,,,,ワンダ,0
636,3180001168304,新規,0,2025-08-25,2025-08-25,株式会社ＳＯＩＹＡ,,株式会社,愛知県,名古屋市東区,筒井３丁目３４－２５,,23,102,4610003,,,,,,,2025-08-25,1,,,,,ソイヤ,0
646,3220003004106,新規,0,2025-08-25,2025-08-25,合同会社クラブマンホールディングス,,合同会社,石川県,加賀市,山中温泉こおろぎ町イ２番地９,,17,206,9220128,,,,,,,2025-08-25,1,,,,,クラブマンホールディングス,0
652,3240001065395,新規,0,2025-08-25,2025-08-25,株式会社ＢＬＯＯＭ,,株式会社,広島県,安芸郡府中町,瀬戸ハイム２丁目７番２７号,,34,302,7350011,,,,,,,2025-08-25,1,,,,,ブルーム,0
657,3270003001783,新規,0,2025-08-25,2025-08-25,合同会社大山ベジタブル,,合同会社,鳥取県,西伯郡大山町,門前１１１２番地,,31,386,6893213,,,,,,,2025-08-25,1,,,,,ダイセンベジタブル,0
663,3290001111178,新規,0,2025-08-25,2025-08-25,株式会社ＮＥＸＴ　ＹＡＴＡＩ,,株式会社,福岡県,福岡市中央区,天神２丁目２番１２号Ｔ＆Ｊビルディング７Ｆ,,40,133,8100001,,,,,,,2025-08-25,1,,,,,ネクストヤタイ,0
664,3290001111186,新規,0,2025-08-25,2025-08-25,ＦｉｎＭａｒｋ株式会社,,株式会社,福岡県,福岡市中央区,天神４丁目６番２８号７階,,40,133,8100001,,,,,,,2025-08-25,1,,,,,フィンマーク,0
665,3290001111260,新規,0,2025-08-25,2025-08-25,ＪＡＰＡＮ　ＴＯＵＲ　ＰＬＡＮＮＩＮＧ株式会社,,株式会社,福岡県,福岡市博多区,博多駅前３丁目２７番２５号,,40,132,8120011,,,,,,,2025-08-25,1,,,,,ジャパンツアープランニング,0
666,3290805009857,新規,0,2025-08-25,2025-08-25,一般社団法人京築バスケットボール協会,,その他の設立登記法人,福岡県,京都郡苅田町,京町２丁目６番地２２,,40,621,8000351,,,,,,,2025-08-25,1,,,,,ケイチクバスケットボールキョウカイ,0
667,3300003002332,新規,0,2025-08-25,2025-08-25,合同会社半分の猫,,合同会社,佐賀県,三養基郡みやき町,大字中津隈３９６３番地,,41,346,8490114,,,,,,,2025-08-25,1,,,,,ハンブンノネコ,0
670,3350001019704,新規,0,2025-08-25,2025-08-25,椎葉興山株式会社,,株式会社,宮崎県,東臼杵郡椎葉村,大字不土野４０６,,45,430,8831603,,,,,,,2025-08-25,1,,,,,シイバコウサン,0
675,3360001035675,新規,0,2025-08-25,2025-08-25,ＯＮＥ株式会社,,株式会社,沖縄県,糸満市,字潮平３１１番地の１,,47,210,9010302,,,,,,,2025-08-25,1,,,,,ワン,0
676,3360001035683,新規,0,2025-08-25,2025-08-25,株式会社あかちち,,株式会社,沖縄県,宜野湾市,志真志４丁目３２番７号,,47,205,9012213,,,,,,,2025-08-25,1,,,,,アカチチ,0
677,3360001035691,新規,0,2025-08-25,2025-08-25,株式会社ミライト,,株式会社,沖縄県,浦添市,西原２丁目１９番５号,,47,208,9012101,,,,,,,2025-08-25,1,,,,,ミライト,0
688,3430001095076,新規,0,2025-08-25,2025-08-25,ｇｒｏｗｔｈ株式会社,,株式会社,北海道,札幌市厚別区,厚別南２丁目１５番２９号,,01,108,0040022,,,,,,,2025-08-25,1,,,,,グロウス,0
689,3430001095092,新規,0,2025-08-25,2025-08-25,結むすび株式会社,,株式会社,北海道,札幌市中央区,南四条西１３丁目３番５－１０１号,,01,101,0640804,,,,,,,2025-08-25,1,,,,,ユイムスビ,0
691,3430003018043,新規,0,2025-08-25,2025-08-25,ＴＨＲ合同会社,,合同会社,北海道,江別市,野幌若葉町９８‐５３,,01,217,0690831,,,,,,,2025-08-25,1,,,,,ティエイチアール,0
694,3470005006645,新規,0,2025-08-25,2025-08-25,一般社団法人財ＴＵＲＮ,,その他の設立登記法人,香川県,三豊市,財田町財田上２０９０番地１,,37,208,7690401,,,,,,,2025-08-25,1,,,,,,0
695,3500001026478,新規,0,2025-08-25,2025-08-25,株式会社アイスタイル,,株式会社,愛媛県,松山市,富久町２２２番地,,38,201,7918034,,,,,,,2025-08-25,1,,,,,アイスタイル,0
697,3700150131959,新規,0,2025-08-25,2025-08-25,ＬＥＤＳＥＴ　ＰＯＥ　ＬＩＭＩＴＥＤ,,外国会社等,,,,,,,,ＦＬＡＴ／ＲＭ　Ａ　１２／Ｆ　ＺＪ　３００　３００　ＬＯＣＫＨＡＲＴ　ＲＤ　ＷＡＮ　ＣＨＡＩ　Ｈｏｎｇ　Ｋｏｎｇ,,,,,,2025-08-25,1,,,,,レドセットポーリミテッド,0
700,4010001257956,新規,0,2025-08-25,2025-08-25,株式会社粋,,株式会社,東京都,千代田区,神田和泉町１番地６－１６ヤマトビル４０５,,13,101,1010024,,,,,,,2025-08-25,1,,,,,スイ,0
701,4010001257964,新規,0,2025-08-25,2025-08-25,株式会社共走商事,,株式会社,東京都,文京区,小日向４丁目２番６号,,13,105,1120006,,,,,,,2025-08-25,1,,,,,キョウソウショウジ,0
702,4010001257980,新規,0,2025-08-25,2025-08-25,株式会社ロロママ,,株式会社,東京都,中央区,晴海３丁目１３番２－２７１０号,,13,102,1040053,,,,,,,2025-08-25,1,,,,,ロロママ,0
704,4010003048511,新規,0,2025-08-25,2025-08-25,アシスト合同会社,,合同会社,東京都,中央区,銀座１丁目２２番１１号銀座大竹ビジデンス２Ｆ,,13,102,1040061,,,,,,,2025-08-25,1,,,,,アシスト,0
715,4010401192555,新規,0,2025-08-25,2025-08-25,株式会社Ａｃｔｏｒｙ,,株式会社,東京都,港区,北青山１丁目３番１号アールキューブ青山３階,,13,103,1070061,,,,,,,2025-08-25,1,,,,,アクトリー,0
722,4010601067846,新規,0,2025-08-25,2025-08-25,シハクシ株式会社,,株式会社,東京都,墨田区,錦糸４丁目３番１号,,13,107,1300013,,,,,,,2025-08-25,1,,,,,シハクシ,0
723,4010701048192,新規,0,2025-08-25,2025-08-25,株式会社ＥｄＦＩＬＭ,,株式会社,東京都,品川区,大井１丁目６番３号,,13,109,1400014,,,,,,,2025-08-25,1,,,,,エドフィルム,0
728,4010703007881,新規,0,2025-08-25,2025-08-25,合同会社おかほーむ,,合同会社,東京都,品川区,南品川４丁目４番１７号品川サウスタワー,,13,109,1400004,,,,,,,2025-08-25,1,,,,,オカホーム,0
742,4011001171692,新規,0,2025-08-25,2025-08-25,株式会社ひまわり,,株式会社,東京都,渋谷区,広尾１丁目２番１号ヒカリビル４階,,13,113,1500012,,,,,,,2025-08-25,1,,,,,ヒマワリ,0
753,4011101112670,新規,0,2025-08-25,2025-08-25,アワーズ株式会社,,株式会社,東京都,新宿区,西新宿３丁目３番１３号西新宿水間ビル６階,,13,104,1600023,,,,,,,2025-08-25,1,,,,,アワーズ,0
754,4011101112720,新規,0,2025-08-25,2025-08-25,グローバルソリューションズ株式会社,,株式会社,東京都,新宿区,西新宿７丁目５－６新宿ダイガンプラザ７５６館７０１号,,13,104,1600023,,,,,,,2025-08-25,1,,,,,グローバルソリューションズ,0
755,4011101112729,新規,0,2025-08-25,2025-08-25,株式会社ＣＬＡＮＥＳ,,株式会社,東京都,新宿区,西新宿１丁目２６－２新宿野村ビル３２階,,13,104,1600023,,,,,,,2025-08-25,1,,,,,クラネス,0
756,4011101112761,新規,0,2025-08-25,2025-08-25,株式会社江頭よりそう広告社,,株式会社,東京都,新宿区,内藤町１番地１１フラット御苑１０２,,13,104,1600014,,,,,,,2025-08-25,1,,,,,エガシラヨリソウコウコクシャ,0
757,4011101112910,新規,0,2025-08-25,2025-08-25,東京マットレススプリング製造株式会社,,株式会社,東京都,新宿区,西新宿５丁目６番１－２８０８号,,13,104,1600023,,,,,,,2025-08-25,1,,,,,トウキョウマットレススプリングセイゾウ,0
758,4011105011563,新規,0,2025-08-25,2025-08-25,一般社団法人ブルーツリー,,その他の設立登記法人,東京都,新宿区,富久町５番６号,,13,104,1620067,,,,,,,2025-08-25,1,,,,,ブルーツリー,0
768,4011701028655,新規,0,2025-08-25,2025-08-25,株式会社アットマーク,,株式会社,東京都,江戸川区,一之江１丁目５番３号,,13,123,1320024,,,,,,,2025-08-25,1,,,,,アットマーク,0
777,4012405005148,新規,0,2025-08-25,2025-08-25,一般社団法人日本イスラムセンター,,その他の設立登記法人,東京都,多摩市,聖ヶ丘３丁目１３番地の２６,,13,224,2060022,,,,,,,2025-08-25,1,,,,,ニッポンイスラムセンター,0
784,4013301054833,新規,0,2025-08-25,2025-08-25,株式会社ＲＭＳ,,株式会社,東京都,豊島区,南池袋１丁目９番１８号ＧＯＧＯオフィス池袋３３２号室,,13,116,1710022,,,,,,,2025-08-25,1,,,,,アールエムエス,0
785,4013303007839,新規,0,2025-08-25,2025-08-25,ミライサポート合同会社,,合同会社,東京都,豊島区,東池袋２丁目６２番８号ＢＩＧオフィスプラザ池袋１２０６,,13,116,1700013,,,,,,,2025-08-25,1,,,,,ミライサポート,0
787,4020001164409,新規,0,2025-08-25,2025-08-25,アンライズ株式会社,,株式会社,神奈川県,川崎市中原区,上新城２丁目６－１１石井ビル２階新城ＷＯＲＫ,,14,133,2110045,,,,,,,2025-08-25,1,,,,,アンライズ,0
788,4020001164524,新規,0,2025-08-25,2025-08-25,株式会社新,,株式会社,神奈川県,横浜市栄区,小山台１丁目２１－１６ＩＩＩ－２０６,00140405,14,115,2470002,,,,,,,2025-08-25,1,,,,,アラタ,0
800,4030001168251,新規,0,2025-08-25,2025-08-25,株式会社ＡＢＥ,,株式会社,埼玉県,行田市,大字下忍１９０２番地６,,11,206,3610037,,,,,,,2025-08-25,1,,,,,アベ,0
801,4030001168284,新規,0,2025-08-25,2025-08-25,株式会社犬竹コーポレーション,,株式会社,埼玉県,日高市,大字馬引沢２０１番地,,11,242,3501225,,,,,,,2025-08-25,1,,,,,イヌタケコーポレーション,0
803,4030003027471,新規,0,2025-08-25,2025-08-25,合同会社ライフリンク,,合同会社,埼玉県,草加市,氷川町２１５７－６,,11,221,3400034,,,,,,,2025-08-25,1,,,,,ライフリンク,0
810,4040001140201,新規,0,2025-08-25,2025-08-25,株式会社ＥＴＳ,,株式会社,千葉県,四街道市,鹿放ケ丘１９９番地１,,12,228,2840008,,,,,,,2025-08-25,1,,,,,イーティーエス,0
818,4060003005697,新規,0,2025-08-25,2025-08-25,ＲＡＦＩＱＵＥ　ＧＬＯＢＡＬ合同会社,,合同会社,栃木県,栃木市,今泉町２丁目８－７３梅原アパート２０２号,,09,203,3280027,,,,,,,2025-08-25,1,,,,,ラフィークグローバル,0
838,4120001278999,新規,0,2025-08-25,2025-08-25,株式会社ＮＳＴ,,株式会社,大阪府,大阪市中央区,東心斎橋１丁目９番１９号３０７号室,,27,128,5420083,,,,,,,2025-08-25,1,,,,,エヌエスティー,0
842,4120005025118,新規,0,2025-08-25,2025-08-25,一般社団法人関西経営者協会,,その他の設立登記法人,大阪府,大阪市中央区,南船場３丁目９－４青柳ビル４Ｆ,,27,128,5420081,,,,,,,2025-08-25,1,,,,,カンサイケイエイシャキョウカイ,0
844,4120101072311,新規,0,2025-08-25,2025-08-25,株式会社ルミエール,,株式会社,大阪府,堺市美原区,大饗１７０番地,00140397,27,147,5870063,,,,,,,2025-08-25,1,,,,,ルミエール,0
846,4120901051365,新規,0,2025-08-25,2025-08-25,株式会社ＫＡＩ,,株式会社,大阪府,吹田市,出口町３５番１－３０２号,,27,205,5640072,,,,,,,2025-08-25,1,,,,,ケーエーアイ,0
850,4122001039530,新規,0,2025-08-25,2025-08-25,株式会社ｍｙｓｈｉａ,,株式会社,大阪府,大東市,南楠の里町３番３３号,,27,218,5740004,,,,,,,2025-08-25,1,,,,,マイシア,0
851,4122001039555,新規,0,2025-08-25,2025-08-25,株式会社叶,,株式会社,大阪府,東大阪市,大蓮南３丁目１番１６号,00140401,27,227,5770825,,,,,,,2025-08-25,1,,,,,カナウ,0
854,4130003010657,新規,0,2025-08-25,2025-08-25,合同会社ＳＡＫＵＲＡ,,合同会社,京都府,城陽市,観音堂西畑９１,,26,207,6100115,,,,,,,2025-08-25,1,,,,,サクラ,0
856,4130005017436,新規,0,2025-08-25,2025-08-25,一般社団法人みんなのふる里,,その他の設立登記法人,京都府,京丹後市,久美浜町友重８０２番地,,26,212,6293447,,,,,,,2025-08-25,1,,,,,ミンナノフルサト,0
859,4140001139753,新規,0,2025-08-25,2025-08-25,株式会社ぱる不動産,,株式会社,兵庫県,姫路市,勝原区山戸１０９－１グローブキリ１０７,,28,201,6711214,,,,,,,2025-08-25,1,,,,,パルフドウサン,0
860,4140001139761,新規,0,2025-08-25,2025-08-25,株式会社ＲＥ　ＶＥＲＶＥ,,株式会社,兵庫県,神戸市中央区,北長狭通４丁目２番１９号アムズ元町ビル,,28,110,6500012,,,,,,,2025-08-25,1,,,,,リヴァーブ,0
861,4140001139786,新規,0,2025-08-25,2025-08-25,株式会社ｋａｋｅｈａｓｈｉ,,株式会社,兵庫県,伊丹市,昆陽８丁目６,,28,207,6640881,,,,,,,2025-08-25,1,,,,,カケハシ,0
862,4150001028352,新規,0,2025-08-25,2025-08-25,匯金産業株式会社,,株式会社,奈良県,御所市,大字五百家４０７番１,,29,208,6392264,,,,,,,2025-08-25,1,,,,,カイキンサンギョウ,0
866,4180001168261,新規,0,2025-08-25,2025-08-25,株式会社ＡＴＬ,,株式会社,愛知県,名古屋市中村区,烏森町６丁目２９０番地,,23,105,4530855,,,,,,,2025-08-25,1,,,,,エーティーエル,0
867,4180001168303,新規,0,2025-08-25,2025-08-25,株式会社こみゅニッポン,,株式会社,愛知県,名古屋市中村区,名楽町４丁目１番地の２,,23,105,4530024,,,,,,,2025-08-25,1,,,,,コミュニッポン,0
868,4180001168311,新規,0,2025-08-25,2025-08-25,株式会社ルーナ,,株式会社,愛知県,名古屋市名東区,扇町１丁目７番地の４,,23,115,4650076,,,,,,,2025-08-25,1,,,,,ルーナ,0
873,4180301040070,新規,0,2025-08-25,2025-08-25,株式会社正,,株式会社,愛知県,豊田市,平芝町２丁目２番地６,,23,211,4710065,,,,,,,2025-08-25,1,,,,,ショウ,0
879,4220001026885,新規,0,2025-08-25,2025-08-25,株式会社ＨＩＲＯＫＡ,,株式会社,石川県,金沢市,此花町５番６号ライフ金沢第１ビル６０１Ａ,,17,201,9200852,,,,,,,2025-08-25,1,,,,,ヒロカ,0
883,4220003004105,新規,0,2025-08-25,2025-08-25,合同会社結の森,,合同会社,石川県,白山市,美川永代町甲２２９番地３,,17,210,9290235,,,,,,,2025-08-25,1,,,,,ユイノモリ,0
889,4240001065386,新規,0,2025-08-25,2025-08-25,扶桑電工株式会社,,株式会社,広島県,福山市,御幸町大字森脇４４８番地６,,34,207,7200003,,,,,,,2025-08-25,1,,,,,フソウデンコウ,0
902,4290003017273,新規,0,2025-08-25,2025-08-25,合同会社ＩＲＯＳＥＮＡ,,合同会社,福岡県,福岡市南区,横手３丁目２６番１－１０２号,,40,134,8111311,,,,,,,2025-08-25,1,,,,,イロセナ,0
904,4290005019813,新規,0,2025-08-25,2025-08-25,一般社団法人ヒト・モノ・コト・ＤＸ協会,,その他の設立登記法人,福岡県,福岡市中央区,高砂２丁目１番４号,,40,133,8100011,,,,,,,2025-08-25,1,,,,,ヒトモノコトディーエックスキョウカイ,0
906,4290801031797,新規,0,2025-08-25,2025-08-25,株式会社丸佐承継社,,株式会社,福岡県,北九州市小倉北区,浅野１丁目１番１号ビエラ小倉１階ＤＩＳＣＯＶＥＲＹ－１６５号,,40,106,8020001,,,,,,,2025-08-25,1,,,,,マルサショウケイシャ,0
908,4300001014329,新規,0,2025-08-25,2025-08-25,株式会社遥那,,株式会社,佐賀県,多久市,北多久町大字多久原１６７１番地２,,41,204,8460003,,,,,,,2025-08-25,1,,,,,ハルナ,0
912,4340005009899,新規,0,2025-08-25,2025-08-25,一般社団法人よろんエフエム,,その他の設立登記法人,鹿児島県,大島郡与論町,大字立長３４９３番地,,46,535,8919302,,,,,,,2025-08-25,1,,,,,ヨロンエフエム,0
916,4360001035674,新規,0,2025-08-25,2025-08-25,Ｚａｙｒａ　Ｒｅｓｏｒｔｓ株式会社,,株式会社,沖縄県,中頭郡北谷町,北谷１丁目１２－１８－１０１,,47,326,9040116,,,,,,,2025-08-25,1,,,,,ザイラリゾーツ,0
922,4380001035532,新規,0,2025-08-25,2025-08-25,ＥＲＦＯＬＧ株式会社,,株式会社,福島県,郡山市,大槻町字太田１９番地の３,,07,203,9630201,,,,,,,2025-08-25,1,,,,,エアフォルク,0
924,4380005012998,新規,0,2025-08-25,2025-08-25,郡山ヴィラオートリ管理組合法人,,その他の設立登記法人,福島県,郡山市,七ッ池町１番２号郡山ヴィラオートリ管理事務室,,07,203,9638831,,,,,,,2025-08-25,1,,,,,コオリヤマヴィラオートリ,0
930,4430001095083,新規,0,2025-08-25,2025-08-25,株式会社レイズ,,株式会社,北海道,札幌市白石区,東札幌五条１丁目２番２８号,,01,104,0030005,,,,,,,2025-08-25,1,,,,,レイズ,0
931,4430001095100,新規,0,2025-08-25,2025-08-25,株式会社ミツアキ,,株式会社,北海道,札幌市北区,太平八条５丁目２番４号,,01,102,0028008,,,,,,,2025-08-25,1,,,,,ミツアキ,0
932,4430001095109,新規,0,2025-08-25,2025-08-25,株式会社ほくでん寅福ファーム,,株式会社,北海道,勇払郡むかわ町,米原４３６番地,,01,586,0540014,,,,,,,2025-08-25,1,,,,,ホクデントラフクファーム,0
933,4430001095117,新規,0,2025-08-25,2025-08-25,株式会社ふじ,,株式会社,北海道,札幌市白石区,菊水元町一条１丁目７番１号,,01,104,0030821,,,,,,,2025-08-25,1,,,,,フジ,0
934,4430003018018,新規,0,2025-08-25,2025-08-25,ナイトクルーズ合同会社,,合同会社,北海道,札幌市北区,北三十九条西５丁目２番１５号アルトンビル２Ｆ,,01,102,0010039,,,,,,,2025-08-25,1,,,,,ナイトクルーズ,0
935,4430003018034,新規,0,2025-08-25,2025-08-25,合同会社壺,,合同会社,北海道,札幌市手稲区,西宮の沢三条３丁目８番２号,,01,109,0060003,,,,,,,2025-08-25,1,,,,,ツボ,0
936,4430003018042,新規,0,2025-08-25,2025-08-25,合同会社ｌａｒｌａｒ,,合同会社,北海道,札幌市中央区,南二条西５丁目３１‐１ＲＭＢｌｄ．７０１,,01,101,0600062,,,,,,,2025-08-25,1,,,,,ラーラー,0
941,4500003003573,新規,0,2025-08-25,2025-08-25,合同会社Ｍｉｔｏ,,合同会社,愛媛県,松山市,大手町２丁目９番地２０,,38,201,7900067,,,,,,,2025-08-25,1,,,,,ミト,0
942,4700150131958,新規,0,2025-08-25,2025-08-25,Ｓｈａｎｇｈａｉ　ＲＥＳＥＴ　Ｔｒａｄｉｎｇ　Ｃｏ．，Ｌｔｄ．,,外国会社等,,,,,,,,１ｓｔ　Ｆｌｏｏｒ，Ｎｏ．１９９０　Ｊｉｎｂｉ　Ｒｏａｄ，Ｆｅｎｇｘｉａｎ　Ｄｉｓｔｒｉｃｔ，Ｓｈａｎｇｈａｉ，Ｃｈｉｎａ,,,,,,2025-08-25,1,,,,,シャンハイリセットトレーディングカンパニーリミテッド,0
948,5010003048221,新規,0,2025-08-25,2025-08-25,合同会社エーユープラスレジャーランド,,合同会社,東京都,文京区,目白台１丁目１７番１号,,13,105,1120015,,,,,,,2025-08-25,1,,,,,,0
949,5010003048477,新規,0,2025-08-25,2025-08-25,ＯＭＧ合同会社,,合同会社,東京都,中央区,日本橋室町１丁目１１番１２号日本橋水野ビル７階,,13,102,1030022,,,,,,,2025-08-25,1,,,,,オーエムジー,0
950,5010003048502,新規,0,2025-08-25,2025-08-25,合同会社ＦＫＢアドミサポート,,合同会社,東京都,中央区,日本橋兜町１７－２兜町第６葉山ビル４Ｆ,,13,102,1030026,,,,,,,2025-08-25,1,,,,,エフケービーアドミサポート,0
953,5010005040531,新規,0,2025-08-25,2025-08-25,逗子一般社団法人,,その他の設立登記法人,東京都,千代田区,神田小川町３丁目２６番８号神田小川町三丁目ビル６階,,13,101,1010052,,,,,,,2025-08-25,1,,,,,ズシ,0
961,5010401192488,新規,0,2025-08-25,2025-08-25,Ｅｍｐｉｒｅ株式会社,,株式会社,東京都,港区,麻布十番４丁目４－１ツイン一橋２号館５号,,13,103,1060045,,,,,,,2025-08-25,1,,,,,エンパイヤ,0
962,5010401192546,新規,0,2025-08-25,2025-08-25,ペリカンホテルズ株式会社,,株式会社,東京都,港区,西新橋３丁目３番３号,,13,103,1050003,,,,,,,2025-08-25,1,,,,,ペリカンホテルズ,0
968,5010601067853,新規,0,2025-08-25,2025-08-25,Ｌｕｄｏｇｅｎ株式会社,,株式会社,東京都,江東区,東陽２丁目４番３９号新東陽ビル,,13,108,1350016,,,,,,,2025-08-25,1,,,,,ルドジェン,0
979,5011003022315,新規,0,2025-08-25,2025-08-25,合同会社トニー商会,,合同会社,東京都,目黒区,中目黒３丁目１８番１２号,,13,110,1530061,,,,,,,2025-08-25,1,,,,,トニーショウカイ,0
988,5011301030829,新規,0,2025-08-25,2025-08-25,Ｔｈｅ　Ａｌｔｕｓ株式会社,,株式会社,東京都,杉並区,浜田山４丁目２５－５プレステージ浜田山１０３,,13,115,1680065,,,,,,,2025-08-25,1,,,,,ジアルタス,0
993,5011503006635,新規,0,2025-08-25,2025-08-25,合同会社Ａｋａｒｉ　Ｍｏｅ,,合同会社,東京都,北区,豊島３丁目１７番１４号ノースレジェンド王子４０２号,,13,117,1140003,,,,,,,2025-08-25,1,,,,,アカリモー,0
996,5011701028646,新規,0,2025-08-25,2025-08-25,株式会社ＴＨＥ　ＶＩＶＩＩＤ,,株式会社,東京都,江戸川区,平井６丁目１４－７,,13,123,1320035,,,,,,,2025-08-25,1,,,,,ザヴィヴィード,0
1002,5012405005147,新規,0,2025-08-25,2025-08-25,一般社団法人ワンプランニング,,その他の設立登記法人,東京都,多摩市,諏訪１丁目５－９ベルメゾン４０４号,,13,224,2060024,,,,,,,2025-08-25,1,,,,,ワンプランニング,0
1003,5012701019024,新規,0,2025-08-25,2025-08-25,株式会社ＤＡＮＤＹ,,株式会社,東京都,東久留米市,八幡町３丁目２番３５号フィールドヴィレッヂ１０２,,13,222,2030042,,,,,,,2025-08-25,1,,,,,ダンディー,0
1004,5013305003744,新規,0,2025-08-25,2025-08-25,一般社団法人日本高等教育学会,,その他の設立登記法人,東京都,豊島区,東池袋２丁目３９番２号大住ビル４０１（株）ガリレオ学会業務情報センター東京オフィス内,,13,116,1700013,,,,,,,2025-08-25,1,,,,,ニホンコウトウキョウイクガッカイ,0
1012,5020003029187,新規,0,2025-08-25,2025-08-25,ＢＯＲＳ合同会社,,合同会社,神奈川県,横浜市戸塚区,小雀町２１０２－１,,14,110,2440004,,,,,,,2025-08-25,1,,,,,ボーズ,0
1013,5020003029195,新規,0,2025-08-25,2025-08-25,合同会社縁環,,合同会社,神奈川県,横浜市都筑区,牛久保東１丁目３８番２２‐４０１号,,14,118,2240014,,,,,,,2025-08-25,1,,,,,エンワ,0
1019,5021001086121,新規,0,2025-08-25,2025-08-25,川口不動産株式会社,,株式会社,神奈川県,厚木市,寿町３丁目６番４号,,14,212,2430003,,,,,,,2025-08-25,1,,,,,カワグチフドウサン,0
1024,5030001168143,新規,0,2025-08-25,2025-08-25,ＡＵＴＯ　ＥＸ株式会社,,株式会社,埼玉県,春日部市,内牧４０６４－１,,11,214,3440051,,,,,,,2025-08-25,1,,,,,オートイーエクス,0
1025,5030001168300,新規,0,2025-08-25,2025-08-25,株式会社エイチトレーディング,,株式会社,埼玉県,鴻巣市,本町２丁目２番２号,,11,217,3650038,,,,,,,2025-08-25,1,,,,,エイチトレーディング,0
1028,5030003027454,新規,0,2025-08-25,2025-08-25,Ｍインターナショナル合同会社,,合同会社,埼玉県,所沢市,くすのき台１丁目１３番地の２ガーデンシティ所沢２Ｆ,,11,208,3590037,,,,,,,2025-08-25,1,,,,,エムインターナショナル,0
1039,5040003028344,新規,0,2025-08-25,2025-08-25,合同会社Ｙ．Ａ　Ｃｏｍｆｏｒｔ,,合同会社,千葉県,白井市,根１６９９番地の３５,,12,232,2701431,,,,,,,2025-08-25,1,,,,,ワイエイコンフォート,0
1041,5040005022849,新規,0,2025-08-25,2025-08-25,一般社団法人ＦｏｏｄＡｉｄ千葉,,その他の設立登記法人,千葉県,長生郡一宮町,一宮１１１５番地,,12,421,2994301,,,,,,,2025-08-25,1,,,,,フードエイドチバ,0
1044,5050001057162,新規,0,2025-08-25,2025-08-25,株式会社ＲＹＯインターナショナル,,株式会社,茨城県,常総市,篠山１５９２番地３,,08,211,3002721,,,,,,,2025-08-25,1,,,,,リョーインターナショナル,0
1047,5050005013681,新規,0,2025-08-25,2025-08-25,特定非営利活動法人明秀スポーツ＆カルチャーアカデミー,,その他の設立登記法人,茨城県,日立市,鹿島町２丁目２番１１号,,08,202,3170071,,,,,,,2025-08-25,1,,,,,メイシュウスポーツアンドカルチャーアカデミー,0
1050,5080101025727,新規,0,2025-08-25,2025-08-25,ＡｎｅｍｏｉＰ＆Ｍ株式会社,,株式会社,静岡県,熱海市,泉元門川分字大黒崎２４９番地８,,22,205,4130001,,,,,,,2025-08-25,1,,,,,アネモイピーアンドエム,0
1051,5080401028124,新規,0,2025-08-25,2025-08-25,株式会社ＭＩＬＬＩＯＮＳＥＲＶＩＣＥＳ,,株式会社,静岡県,湖西市,大知波５３０番地１,,22,221,4310403,,,,,,,2025-08-25,1,,,,,ミリオンサービシス,0
1056,5090003002880,新規,0,2025-08-25,2025-08-25,合同会社ＫＯＲＵ,,合同会社,山梨県,南都留郡富士河口湖町,勝山１２２４番地４,,19,430,4010310,,,,,,,2025-08-25,1,,,,,コル,0
1066,5120001277950,新規,0,2025-08-25,2025-08-25,ＵｂｉＣｕｂｅ　ｃｏｎｓｕｌｔｉｎｇ株式会社,,株式会社,大阪府,大阪市西区,本田４丁目９番２３号プレステア九条４１２号室,,27,106,5500022,,,,,,,2025-08-25,1,,,,,ユビキューブコンサルティング,0
1067,5120001278998,新規,0,2025-08-25,2025-08-25,株式会社Ａｒｔｕｒａ,,株式会社,大阪府,大阪市北区,天神橋３丁目６－５ベルニーニ南森町１００２号室,,27,127,5300041,,,,,,,2025-08-25,1,,,,,アルトゥーラ,0
1072,5120003030366,新規,0,2025-08-25,2025-08-25,クワトロ・ワークス合同会社,,合同会社,大阪府,大阪市北区,梅田１丁目１－３大阪駅前第３ビル２９階１－１－１号室,,27,127,5300001,,,,,,,2025-08-25,1,,,,,クワトロワークス,0
1074,5120101072310,新規,0,2025-08-25,2025-08-25,Ｂｒｉｇｈｔ　Ｎｅｗ株式会社,,株式会社,大阪府,堺市中区,八田寺町１５８番地７,,27,142,5998267,,,,,,,2025-08-25,1,,,,,ブライトニュー,0
1075,5120103006654,新規,0,2025-08-25,2025-08-25,合同会社ＧＲＩＴ,,合同会社,大阪府,富田林市,五軒家１丁目１６番３７号,,27,214,5840079,,,,,,,2025-08-25,1,,,,,グリット,0
1077,5120105010051,新規,0,2025-08-25,2025-08-25,特定非営利活動法人Ｍ‐ｃｏｌｏｒ,,その他の設立登記法人,大阪府,松原市,丹南１丁目４１０番地の９,,27,217,5800013,,,,,,,2025-08-25,1,,,,,エムカラー,0
1079,5122001039570,新規,0,2025-08-25,2025-08-25,株式会社田中空調設備,,株式会社,大阪府,東大阪市,瓜生堂２丁目１番５６号,,27,227,5780946,,,,,,,2025-08-25,1,,,,,タナカクウチョウセツビ,0
1080,5122001039587,新規,0,2025-08-25,2025-08-25,株式会社ＡＫ’ｓ　ｃｏｍｐａｎｙ,,株式会社,大阪府,東大阪市,足代１丁目１１番２号グランドビュイソン１０１号,,27,227,5770841,,,,,,,2025-08-25,1,,,,,エイケイズカンパニー,0
1081,5130001080296,新規,0,2025-08-25,2025-08-25,Ｇｅｒｏｋ株式会社,,株式会社,京都府,京都市左京区,吉田下阿達町４６番地２９,,26,103,6068304,,,,,,,2025-08-25,1,,,,,ジェロック,0
1082,5130005017435,新規,0,2025-08-25,2025-08-25,税理士法人秋山事務所,,その他の設立登記法人,京都府,城陽市,寺田水度坂１５番地の４１,,26,207,6100121,,,,,,,2025-08-25,1,,,,,アキヤマジムショ,0
1083,5140001139760,新規,0,2025-08-25,2025-08-25,株式会社Ｔａｋａｉｃｈｉ,,株式会社,兵庫県,加古川市,志方町上冨木８６番地の２４,,28,210,6750314,,,,,,,2025-08-25,1,,,,,タカイチ,0
1084,5140001139769,新規,0,2025-08-25,2025-08-25,株式会社Ｒｅａｌｉｚｅ,,株式会社,兵庫県,尼崎市,神田北通９丁目２３８番地の７,,28,202,6600883,,,,,,,2025-08-25,1,,,,,,0
1085,5140001139777,新規,0,2025-08-25,2025-08-25,スターフィッシュ株式会社,,株式会社,兵庫県,西宮市,伏原町４番５－１号,,28,204,6638031,,,,,,,2025-08-25,1,,,,,スターフィッシュ,0
1088,5140003022469,新規,0,2025-08-25,2025-08-25,合同会社バレスト,,合同会社,兵庫県,神戸市西区,伊川谷町潤和１２６５番地の１５,,28,111,6512124,,,,,,,2025-08-25,1,,,,,,0
1091,5150001028351,新規,0,2025-08-25,2025-08-25,Ｌｉｍｉｔｌｅｓｓ株式会社,,株式会社,奈良県,橿原市,上品寺町５１１－３,,29,205,6340803,,,,,,,2025-08-25,1,,,,,リミットレス,0
1101,5180003028933,新規,0,2025-08-25,2025-08-25,丸の内ウィルパートナーズ合同会社,,合同会社,愛知県,名古屋市中区,丸の内２丁目１８番２５号,,23,106,4600002,,,,,,,2025-08-25,1,,,,,マルノウチウィルパートナーズ,0
1102,5190003005147,新規,0,2025-08-25,2025-08-25,合同会社灯輝,,合同会社,三重県,鈴鹿市,道伯４丁目５番１２号セレナーデＢ棟１０２,,24,207,5130823,,,,,,,2025-08-25,1,,,,,トウカ,0
1105,5220001026884,新規,0,2025-08-25,2025-08-25,株式会社ｙｍｓ,,株式会社,石川県,かほく市,森ワ７７番地１,,17,209,9291123,,,,,,,2025-08-25,1,,,,,ワイエムエス,0
1110,5260001040460,新規,0,2025-08-25,2025-08-25,株式会社ＦＲＥＥ　ＳＴＹＬＥ,,株式会社,岡山県,倉敷市,玉島３丁目１４番２５号,,33,202,7138102,,,,,,,2025-08-25,1,,,,,フリースタイル,0
1111,5260001040477,新規,0,2025-08-25,2025-08-25,株式会社オレンジリース,,株式会社,岡山県,岡山市南区,藤田６１６番地２６,,33,104,7010221,,,,,,,2025-08-25,1,,,,,オレンジリース,0
1117,5290001111003,新規,0,2025-08-25,2025-08-25,ＦＰオフィス福岡株式会社,,株式会社,福岡県,福岡市中央区,天神２丁目２番１２号Ｔ＆Ｊビルディング７Ｆ,,40,133,8100001,,,,,,,2025-08-25,1,,,,,エフピーオフィスフクオカ,0
1118,5290001111168,新規,0,2025-08-25,2025-08-25,ＭＧＳＶ　ｆａｍｉ株式会社,,株式会社,福岡県,福岡市博多区,博多駅南２丁目８番３２－３０１号,,40,132,8120016,,,,,,,2025-08-25,1,,,,,エムジーエスヴイファミ,0
1125,5340003004934,新規,0,2025-08-25,2025-08-25,合同会社ＬｉａＬｉｓｅ,,合同会社,鹿児島県,姶良市,東餅田５３７番地１,,46,225,8995421,,,,,,,2025-08-25,1,,,,,リアリス,0
1133,5370003007257,新規,0,2025-08-25,2025-08-25,合同会社哲弘組,,合同会社,宮城県,仙台市青葉区,上愛子字雷神８－３ＯＴネクスト雷神３－１０６,,04,101,9893124,,,,,,,2025-08-25,1,,,,,テツヒログミ,0
1136,5380001035515,新規,0,2025-08-25,2025-08-25,株式会社Ｎコーポレーション,,株式会社,福島県,会津若松市,飯寺南２丁目１番８８号,,07,202,9650840,,,,,,,2025-08-25,1,,,,,エヌコーポレーション,0
1145,5430001095074,新規,0,2025-08-25,2025-08-25,株式会社田真商会,,株式会社,北海道,苫小牧市,豊川町４丁目１番１３号,,01,213,0530831,,,,,,,2025-08-25,1,,,,,タマショウカイ,0
1146,5430001095082,新規,0,2025-08-25,2025-08-25,株式会社フェザーメイク,,株式会社,北海道,札幌市中央区,南六条西２０丁目２番２４－１０２号,,01,101,0640806,,,,,,,2025-08-25,1,,,,,フェザーメイク,0
1147,5430001095090,新規,0,2025-08-25,2025-08-25,株式会社ａｌｂａ,,株式会社,北海道,札幌市西区,山の手二条１１丁目３番１号,,01,107,0630002,,,,,,,2025-08-25,1,,,,,アルバ,0
1148,5430001095099,新規,0,2025-08-25,2025-08-25,株式会社アドバリュー,,株式会社,北海道,札幌市北区,北二十三条西７丁目２－５フィオーレ北２３条２０５,,01,102,0010023,,,,,,,2025-08-25,1,,,,,,0
1149,5430001095132,新規,0,2025-08-25,2025-08-25,ＨＤＫユナイテッド株式会社,,株式会社,北海道,札幌市豊平区,美園九条７丁目２番１－６０３号,,01,105,0620009,,,,,,,2025-08-25,1,,,,,エイチデーケーユナイテッド,0
1150,5430003018025,新規,0,2025-08-25,2025-08-25,瑞源堂合同会社,,合同会社,北海道,札幌市厚別区,もみじ台東６丁目６番６号,,01,108,0040011,,,,,,,2025-08-25,1,,,,,ズイゲンドウ,0
1151,5430005015276,新規,0,2025-08-25,2025-08-25,一般社団法人サッポロコンシェルジュ,,その他の設立登記法人,北海道,札幌市中央区,南一条西１２丁目３２２番地新永ビル９階（株式会社ＫＩＴＡＢＡ内）,,01,101,0600061,,,,,,,2025-08-25,1,,,,,サッポロコンシェルジュ,0
1159,5700150131957,新規,0,2025-08-25,2025-08-25,ｓｕｚｈｏｕｈａｎｙｕｎｉｕｘｉｎｘｉｋｅｊｉｙｏｕｘｉａｎｇｏｎｇｓｉ,,外国会社等,,,,,,,,Ｒｏｏｍ　１４０４，Ｂｕｉｌｄｉｎｇ　１０，Ｈｕｉｈｕａｎｇ　Ｙｉｎｈｅ　Ｓｈａｎｇｙｅ　Ｚｈｏｎｇｘｉｎ，８７　Ｙｉｎｈｅ　Ｒｏａｄ，Ｄｏｎｇｎａｎ　Ｓｕｂｄｉｓｔｒｉｃｔ，Ｃｈａｎｇｓｈｕ　Ｃｉｔｙ，Ｓｕｚｈｏｕ　Ｃｉｔｙ，Ｊｉａｎｇｓｕ　Ｐｒｏｖｉｎｃｅ，Ｃｈｉｎａ,,,,,,2025-08-25,1,,,,,スゾウハンユニュシンシカギユウゲンコウシ,0
1169,6010001257946,新規,0,2025-08-25,2025-08-25,金子食堂株式会社,,株式会社,東京都,中央区,銀座１丁目２２番１１号銀座大竹ビジデンス２Ｆ,,13,102,1040061,,,,,,,2025-08-25,1,,,,,カネコショクドウ,0
1170,6010001257954,新規,0,2025-08-25,2025-08-25,株式会社水総合研究所,,株式会社,東京都,千代田区,紀尾井町４番１号ニューオータニガーデンコート１９階,,13,101,1020094,,,,,,,2025-08-25,1,,,,,ミズソウゴウケンキュウショ,0
1171,6010001257962,新規,0,2025-08-25,2025-08-25,株式会社ｋｏｌｕ,,株式会社,東京都,文京区,小石川１丁目１４番３－１７０３号,,13,105,1120002,,,,,,,2025-08-25,1,,,,,コル,0
1173,6010003048501,新規,0,2025-08-25,2025-08-25,合同会社赤坂屋,,合同会社,東京都,千代田区,永田町２丁目１７番５号ローレル永田町３０６号,,13,101,1000014,,,,,,,2025-08-25,1,,,,,アカサカヤ,0
1174,6010003048518,新規,0,2025-08-25,2025-08-25,合同会社ＰＡＬＳＳ,,合同会社,東京都,中央区,日本橋兜町１７番１号日本橋ロイヤルプラザ７０６,,13,102,1030026,,,,,,,2025-08-25,1,,,,,パルス,0
1175,6010005040571,新規,0,2025-08-25,2025-08-25,一般社団法人日本ジオスポーツ協会,,その他の設立登記法人,東京都,文京区,西片２丁目１９番２３－３０５号,,13,105,1130024,,,,,,,2025-08-25,1,,,,,ニホンジオスポーツキョウカイ,0
1185,6010401192512,新規,0,2025-08-25,2025-08-25,株式会社ｂｌａｎｋｓｐａｃｅ,,株式会社,東京都,港区,六本木６丁目１０－１六本木ヒルズ森タワー１５階ＣＩＲＣＬＥｂｙＡＮＲＩ,,13,103,1060032,,,,,,,2025-08-25,1,,,,,ブランクスペース,0
1188,6010403035859,新規,0,2025-08-25,2025-08-25,合同会社クレド会議,,合同会社,東京都,港区,赤坂４丁目８－１９赤坂フロントタウン３Ｆ,,13,103,1070052,,,,,,,2025-08-25,1,,,,,クレドカイギ,0
1189,6010403035875,新規,0,2025-08-25,2025-08-25,合同会社ＨｉＪｏＪｏ　Ｆｕｎｄ５１,,合同会社,東京都,港区,西新橋１丁目７番２号,,13,103,1050003,,,,,,,2025-08-25,1,,,,,ヒジョージョーファンドゴジュウイチ,0
1190,6010405024612,新規,0,2025-08-25,2025-08-25,一般社団法人創健会,,その他の設立登記法人,東京都,港区,芝浦３丁目１６番１号中野興産ビル１階,,13,103,1080023,,,,,,,2025-08-25,1,,,,,ソウケンカイ,0
1191,6010405024694,新規,0,2025-08-25,2025-08-25,チームみらい,,その他の設立登記法人,東京都,港区,南麻布２丁目８番２１号ＳＮＵＧＭＩＮＡＭＩＡＺＡＢＵ３０３,,13,103,1060047,,,,,,,2025-08-25,1,,,,,チームミライ,0
1194,6010601067852,新規,0,2025-08-25,2025-08-25,株式会社ｅａｒｔｈ　ｐｌａｉｎ,,株式会社,東京都,江東区,南砂１丁目２５番１４―１１０１号,,13,108,1360076,,,,,,,2025-08-25,1,,,,,アースプレーン,0
1197,6010701048208,新規,0,2025-08-25,2025-08-25,株式会社ＴＯＮＯＲＩ,,株式会社,東京都,品川区,東五反田２丁目１０番１－２２０３号,,13,109,1410022,,,,,,,2025-08-25,1,,,,,トノリ,0
1198,6010703007871,新規,0,2025-08-25,2025-08-25,合同会社Ｒｏｏｔ,,合同会社,東京都,品川区,荏原２丁目１６番４号,,13,109,1420063,,,,,,,2025-08-25,1,,,,,ルート,0
1209,6011003022223,新規,0,2025-08-25,2025-08-25,合同会社Ｌａｙｌａ,,合同会社,東京都,目黒区,大橋２丁目７－１４ＹＭＡ１０４,,13,110,1530044,,,,,,,2025-08-25,1,,,,,レイラ,0
1211,6011101112784,新規,0,2025-08-25,2025-08-25,株式会社ラベルレス,,株式会社,東京都,新宿区,歌舞伎町１丁目１番８号,,13,104,1600021,,,,,,,2025-08-25,1,,,,,ラベルレス,0
1212,6011101112859,新規,0,2025-08-25,2025-08-25,株式会社ＮｅｘＡｒｉｓｅ,,株式会社,東京都,新宿区,西新宿３丁目２番９号新宿ワシントンホテルビル本館２階,,13,104,1600023,,,,,,,2025-08-25,1,,,,,ネクサライズ,0
1220,6011103016190,新規,0,2025-08-25,2025-08-25,光詠和商事合同会社,,合同会社,東京都,新宿区,新宿２丁目１２番１３号新宿アントレサロンビル２階,,13,104,1600022,,,,,,,2025-08-25,1,,,,,コウエイワショウジ,0
1222,6011501032483,新規,0,2025-08-25,2025-08-25,株式会社ユニオン,,株式会社,東京都,北区,中十条３丁目３５番３０－２２０号,,13,117,1140032,,,,,,,2025-08-25,1,,,,,ユニオン,0
1224,6011503006650,新規,0,2025-08-25,2025-08-25,合同会社Ｏｎｃｅ　Ｃａｒ,,合同会社,東京都,北区,堀船１丁目２４番５号,,13,117,1140004,,,,,,,2025-08-25,1,,,,,ワンスカー,0
1231,6011801046646,新規,0,2025-08-25,2025-08-25,Ｙｕｉ　Ｇａｍｉｎｇ株式会社,,株式会社,東京都,足立区,本木２丁目２２－１８－２００,,13,121,1230853,,,,,,,2025-08-25,1,,,,,ユイゲーミング,0
1232,6011803007043,新規,0,2025-08-25,2025-08-25,合同会社建,,合同会社,東京都,足立区,弘道１丁目２１番１２号,,13,121,1200013,,,,,,,2025-08-25,1,,,,,ケン,0
1235,6012403007301,新規,0,2025-08-25,2025-08-25,合同会社ＫＡＴＥＬＬ,,合同会社,東京都,三鷹市,井の頭５丁目２８番３号井の頭アルカディア１０５,,13,204,1810001,,,,,,,2025-08-25,1,,,,,カテル,0
1236,6012405005146,新規,0,2025-08-25,2025-08-25,一般社団法人三鷹ベースボールマネジメント,,その他の設立登記法人,東京都,三鷹市,北野１丁目７番２２号,,13,204,1810003,,,,,,,2025-08-25,1,,,,,,0
1237,6012703003355,新規,0,2025-08-25,2025-08-25,土陽舎合同会社,,合同会社,東京都,東村山市,富士見町１丁目１２番地２ヴィラージュ・ヴェール三番館３０４,,13,213,1890024,,,,,,,2025-08-25,1,,,,,ドヨウシャ,0
1239,6013101009779,新規,0,2025-08-25,2025-08-25,株式会社Ｂｒｉｇｈｔ　Ｍａｎ　Ａｓｓｉｓｔ,,株式会社,東京都,羽村市,小作台５丁目９番地３カターラ梶１０６,,13,227,2050001,,,,,,,2025-08-25,1,,,,,ブライトマンアシスト,0
1244,6020001164332,新規,0,2025-08-25,2025-08-25,株式会社ココワ,,株式会社,神奈川県,横浜市神奈川区,金港町５－１４クアドリフォリオ８階,,14,102,2210056,,,,,,,2025-08-25,1,,,,,ココワ,0
1258,6030001168282,新規,0,2025-08-25,2025-08-25,株式会社ＴＡ２３,,株式会社,埼玉県,川越市,大字笠幡９１３番地３２,,11,201,3501175,,,,,,,2025-08-25,1,,,,,タツミ,0
1259,6030001168324,新規,0,2025-08-25,2025-08-25,株式会社ライツ・インタラクティブ,,株式会社,埼玉県,さいたま市北区,櫛引町２丁目２３０番地２ウィズ大宮１０５,,11,102,3310825,,,,,,,2025-08-25,1,,,,,ライツインタラクティブ,0
1263,6040001140208,新規,0,2025-08-25,2025-08-25,株式会社ＡＲＩＡ,,株式会社,千葉県,山武郡横芝光町,尾垂イ３５１－３９セザール九十九里浜５０５,,12,410,2891725,,,,,,,2025-08-25,1,,,,,エリア,0
1272,6100001038890,新規,0,2025-08-25,2025-08-25,株式会社瀧笑,,株式会社,長野県,下伊那郡高森町,山吹３０５３番地５,,20,403,3993101,,,,,,,2025-08-25,1,,,,,タキショウ,0
1284,6120001279021,新規,0,2025-08-25,2025-08-25,株式会社グラティア,,株式会社,大阪府,大阪市東淀川区,柴島３丁目７番１６－１０４号,,27,114,5330024,,,,,,,2025-08-25,1,,,,,グラティア,0
1285,6120001279054,新規,0,2025-08-25,2025-08-25,和幸商事株式会社,,株式会社,大阪府,大阪市中央区,東心斎橋２丁目３番１７号,,27,128,5420083,,,,,,,2025-08-25,1,,,,,ワコウショウジ,0
1286,6120001279062,新規,0,2025-08-25,2025-08-25,株式会社Ｆｉｌｉａｌ　Ｐｉｅｔｙ　Ｊａｐａｎ,,株式会社,大阪府,大阪市浪速区,日本橋４丁目１７番１５号ぽんばしＯＯＰＳ２階,,27,111,5560005,,,,,,,2025-08-25,1,,,,,フィリアルパイエティジャパン,0
1287,6120001279087,新規,0,2025-08-25,2025-08-25,株式会社エストワーズ,,株式会社,大阪府,大阪市北区,西天満３丁目１１番３号,,27,127,5300047,,,,,,,2025-08-25,1,,,,,エストワーズ,0
1290,6120103006645,新規,0,2025-08-25,2025-08-25,ブルーペンタゴン合同会社,,合同会社,大阪府,岸和田市,別所町３丁目１番８号,,27,202,5960045,,,,,,,2025-08-25,1,,,,,ブルーペンタゴン,0
1293,6130001080329,新規,0,2025-08-25,2025-08-25,株式会社木連工舎,,株式会社,京都府,京都市右京区,嵯峨北堀町２３番地,,26,108,6168367,,,,,,,2025-08-25,1,,,,,キヅレコウシャ,0
1301,6140001139768,新規,0,2025-08-25,2025-08-25,ＳＫクリエイト株式会社,,株式会社,兵庫県,川西市,錦松台５番６－２号,,28,217,6660135,,,,,,,2025-08-25,1,,,,,エスケークリエイト,0
1303,6140003022484,新規,0,2025-08-25,2025-08-25,合同会社Ｈｅｒｅ＆Ｎｏｗ　ＳＴＥＬＬＡ,,合同会社,兵庫県,芦屋市,朝日ケ丘町１１－３サンヒルズ芦屋Ｉ４０６号室,00140399,28,206,6590012,,,,,,,2025-08-25,1,,,,,ヒアアンドナウステラ,0
1304,6140003022492,新規,0,2025-08-25,2025-08-25,合同会社琉,,合同会社,兵庫県,神戸市須磨区,道正台１丁目１番４－１３０７号,,28,107,6540122,,,,,,,2025-08-25,1,,,,,リュウ,0
1306,6170001018754,新規,0,2025-08-25,2025-08-25,株式会社Ｅｖｅｒｙｔｈｉｎｇ’ｓＧｏｎｎａＢｅＡｌｒｉｇｈｔ,,株式会社,和歌山県,和歌山市,南出島３８番１２,,30,201,6408318,,,,,,,2025-08-25,1,,,,,エブリシングゴナビーオールライト,0
1316,6180001168318,新規,0,2025-08-25,2025-08-25,株式会社アールレンタカー,,株式会社,愛知県,春日井市,東野町３丁目１３番地９,,23,206,4860817,,,,,,,2025-08-25,1,,,,,アールレンタカー,0
1322,6180003028916,新規,0,2025-08-25,2025-08-25,Ｋ’ｓＴｅｃｈＳｕｐｐｏｒｔ合同会社,,合同会社,愛知県,一宮市,開明字郷中９４番地,,23,203,4940001,,,,,,,2025-08-25,1,,,,,ケーズテックサポート,0
1323,6180003028924,新規,0,2025-08-25,2025-08-25,ＡＪＡ合同会社,,合同会社,愛知県,丹羽郡大口町,垣田８番地県営大口住宅１４棟４０１号,,23,361,4800149,,,,,,,2025-08-25,1,,,,,エージェイエー,0
1327,6180301040127,新規,0,2025-08-25,2025-08-25,株式会社ＩＳＳＡ,,株式会社,愛知県,豊田市,美里１丁目１１番地６,,23,211,4710805,,,,,,,2025-08-25,1,,,,,イッサ,0
1329,6180305009721,新規,0,2025-08-25,2025-08-25,ＮＰＯ法人グッドネイバー,,その他の設立登記法人,愛知県,豊川市,中条町小松１１５番地の７,,23,207,4420818,,,,,,,2025-08-25,1,,,,,グッドネイバー,0
1332,6200003006992,新規,0,2025-08-25,2025-08-25,Ａｄｅｅｌ　Ｔｒａｄｉｎｇ合同会社,,合同会社,岐阜県,可児市,西帷子５４６番地１,,21,214,5090265,,,,,,,2025-08-25,1,,,,,アディルトレーディング,0
1336,6220001026883,新規,0,2025-08-25,2025-08-25,株式会社リーフズ,,株式会社,石川県,羽咋郡志賀町,富来領家町ソの１０－２,,17,384,9250447,,,,,,,2025-08-25,1,,,,,リーフズ,0
1341,6260001022169,新規,0,2025-08-25,2025-08-25,宇野港冷蔵株式会社,,株式会社,岡山県,加賀郡吉備中央町,上野２４５２番地２３,,33,681,7092344,,,,,,,2025-08-25,1,,,,,ウノコウレイゾウ,0
1342,6260001040484,新規,0,2025-08-25,2025-08-25,株式会社Ｇｒｏｗ　Ｏｎｅ,,株式会社,岡山県,津山市,下高倉西１８６３番地,,33,203,7081123,,,,,,,2025-08-25,1,,,,,グローワン,0
1370,6360001035680,新規,0,2025-08-25,2025-08-25,ＨＩＴ株式会社,,株式会社,沖縄県,宮古島市,平良字東仲宗根６２６番地１６,,47,214,9060007,,,,,,,2025-08-25,1,,,,,ヒット,0
1374,6370001052972,新規,0,2025-08-25,2025-08-25,医療ＡＩＤＸ促進株式会社,,株式会社,宮城県,仙台市青葉区,本町１丁目２番５号,,04,101,9800014,,,,,,,2025-08-25,1,,,,,イリョウエーアイディーエックスソクシン,0
1382,6430001095065,新規,0,2025-08-25,2025-08-25,ＮＯＲＴＨ　ＧＬＯＢＡＬ　ＳＥＲＶＩＣＥ株式会社,,株式会社,北海道,札幌市中央区,南七条西４丁目４２４番地１２,,01,101,0640807,,,,,,,2025-08-25,1,,,,,ノースグローバルサービス,0
1383,6430001095073,新規,0,2025-08-25,2025-08-25,株式会社メープル,,株式会社,北海道,岩見沢市,四条西２丁目２番地３シキブビル１Ｆ,,01,210,0680024,,,,,,,2025-08-25,1,,,,,メープル,0
1384,6430001095098,新規,0,2025-08-25,2025-08-25,株式会社佐藤工業,,株式会社,北海道,小樽市,若竹町２７番３６号,,01,203,0470001,,,,,,,2025-08-25,1,,,,,サトウコウギョウ,0
1385,6430001095115,新規,0,2025-08-25,2025-08-25,株式会社アイダブルディテール,,株式会社,北海道,札幌市西区,西野五条８丁目５番２２号,,01,107,0630035,,,,,,,2025-08-25,1,,,,,アイダブルディテール,0
1386,6430003018040,新規,0,2025-08-25,2025-08-25,合同会社ＰＩ,,合同会社,北海道,札幌市東区,北十条東１０丁目１番１号,,01,103,0650010,,,,,,,2025-08-25,1,,,,,ピーアイ,0
1390,6440003001706,新規,0,2025-08-25,2025-08-25,合同会社アサヒエンジニアリング,,合同会社,北海道,函館市,桔梗２丁目３５番２３号,,01,202,0410808,,,,,,,2025-08-25,1,,,,,アサヒエンジニアリング,0
1394,6700150131956,新規,0,2025-08-25,2025-08-25,ｓｈｅｎｚｈｅｎｓｈｉｙｏｎｇｃｈｅｎｇｇｏｎｇｋｅｊｉｙｏｕｘｉａｎｇｏｎｇｓｉ,,外国会社等,,,,,,,,Ｒｏｏｍ　１１１２，Ｂｕｉｌｄｉｎｇ　１７７－１８０，Ｃｈｕａｎｇｙｅ　Ｇａｒｄｅｎ，Ｂｅｉｚｈａｎ　Ｃｏｍｍｕｎｉｔｙ，Ｍｉｎｚｈｉ　Ｓｕｂ－ｄｉｓｔｒｉｃｔ，Ｌｏｎｇｈｕａ　Ｄｉｓｔｒｉｃｔ，Ｓｈｅｎｚｈｅｎ　Ｃｉｔｙ,,,,,,2025-08-25,1,,,,,シンセンシヨンチェンゴンカギユウゲンコウシ,0
1406,7010001257697,新規,0,2025-08-25,2025-08-25,創価心工程顧問株式会社,,株式会社,東京都,文京区,音羽２丁目５番１１号ソフィア音羽１０１号室,,13,105,1120013,,,,,,,2025-08-25,1,,,,,ソウカシンコウテイコモン,0
1407,7010001257945,新規,0,2025-08-25,2025-08-25,株式会社Ｆメディカル,,株式会社,東京都,千代田区,丸の内２丁目７番２号ＪＰタワー２２階株式会社ベストキャピタル内,,13,101,1000005,,,,,,,2025-08-25,1,,,,,エフメディカル,0
1408,7010001257953,新規,0,2025-08-25,2025-08-25,株式会社ＳＨＵＫＲＩＹＡ,,株式会社,東京都,中央区,銀座１丁目１２番４号Ｎ＆ＥＢＬＤ．６Ｆ,,13,102,1040061,,,,,,,2025-08-25,1,,,,,シュクリヤ,0
1410,7010003048450,新規,0,2025-08-25,2025-08-25,合同会社ＳＯＬＡ　Ｂｉｏｓｃｉｅｎｃｅｓ　ＪＡＰＡＮ,,合同会社,東京都,中央区,日本橋本町２丁目３番１１号日本橋ライフサイエンスビルディング,,13,102,1030023,,,,,,,2025-08-25,1,,,,,ソラバイオサイエンスジャパン,0
1411,7010003048500,新規,0,2025-08-25,2025-08-25,ＮＥＲＤＩＳ合同会社,,合同会社,東京都,中央区,銀座１丁目２２番１１号銀座大竹ビジデンス２Ｆ,,13,102,1040061,,,,,,,2025-08-25,1,,,,,ナーディス,0
1412,7010003048509,新規,0,2025-08-25,2025-08-25,合同会社ヒルネコ,,合同会社,東京都,中央区,新川１丁目７番１号天翔日本橋茅場町ビル,,13,102,1040033,,,,,,,2025-08-25,1,,,,,ヒルネコ,0
1422,7010401192461,新規,0,2025-08-25,2025-08-25,株式会社ＴＲＵＳＴ,,株式会社,東京都,港区,高輪２丁目１４番１７号グレイス高輪ビルＴＨＥ＿ＨＵＢ高輪８階,,13,103,1080074,,,,,,,2025-08-25,1,,,,,トラスト,0
1426,7010403035874,新規,0,2025-08-25,2025-08-25,合同会社ＨｉＪｏＪｏ　Ｆｕｎｄ５０,,合同会社,東京都,港区,西新橋１丁目７番２号,,13,103,1050003,,,,,,,2025-08-25,1,,,,,ヒジョージョーファンドゴジュウ,0
1427,7010405024685,新規,0,2025-08-25,2025-08-25,Ｋａｓｈｉｗａ一般社団法人,,その他の設立登記法人,東京都,港区,西新橋１丁目２２番５号６階,,13,103,1050003,,,,,,,2025-08-25,1,,,,,カシワ,0
1434,7010701048173,新規,0,2025-08-25,2025-08-25,ＥＱＴＹ　ＴＯＫＹＯ株式会社,,株式会社,東京都,品川区,東五反田５丁目２２番３３号２階,,13,109,1410022,,,,,,,2025-08-25,1,,,,,イーキューティーワイトーキョー,0
1436,7010803005519,新規,0,2025-08-25,2025-08-25,合同会社おもろ企画,,合同会社,東京都,大田区,上池台５丁目１７番２１－１１０９号,,13,111,1450064,,,,,,,2025-08-25,1,,,,,オモロキカク,0
1439,7010901057973,新規,0,2025-08-25,2025-08-25,ＤＴＣ株式会社,,株式会社,東京都,世田谷区,玉川１丁目６－８シティ・コープ玉川４０５,,13,112,1580094,,,,,,,2025-08-25,1,,,,,ディーティーシー,0
1444,7011001171491,新規,0,2025-08-25,2025-08-25,株式会社八角洲,,株式会社,東京都,渋谷区,円山町５番３号ＭＩＥＵＸ渋谷ビル８階,,13,113,1500044,,,,,,,2025-08-25,1,,,,,ハッカクス,0
1445,7011001171509,新規,0,2025-08-25,2025-08-25,株式会社四葉,,株式会社,東京都,渋谷区,神山町１０番７号渋谷ダイカンプラザシティ２０７号室,,13,113,1500047,,,,,,,2025-08-25,1,,,,,ヨツバ,0
1446,7011001171533,新規,0,2025-08-25,2025-08-25,株式会社ＣＯＭＰＡＧＮＯ,,株式会社,東京都,目黒区,緑が丘１丁目１３番１３号イエローハウス１０１,,13,110,1520034,,,,,,,2025-08-25,1,,,,,コンパーノ,0
1450,7011005011124,新規,0,2025-08-25,2025-08-25,一般社団法人Ｔｈｅ　Ｇｌｏｂａｌ　Ｒｅｓｉｌｉｅｎｃｅ　Ｓｕｍｍｉｔ,,その他の設立登記法人,東京都,渋谷区,代官山町２０番２３号ＦｏｒｅｓｔｇａｔｅＤａｉｋａｎｙａｍａＭＡＩＮ棟３階,,13,113,1500034,,,,,,,2025-08-25,1,,,,,ザグローバルレジリエンスサミット,0
1458,7011101112726,新規,0,2025-08-25,2025-08-25,株式会社Ｇｒａｎｔ　ｌａｂ,,株式会社,東京都,新宿区,西新宿３丁目３番１３号西新宿水間ビル２Ｆ,,13,104,1600023,,,,,,,2025-08-25,1,,,,,グラントラボ,0
1460,7011103016198,新規,0,2025-08-25,2025-08-25,合同会社ＦＬＯ,,合同会社,東京都,新宿区,早稲田鶴巻町３０８－３スパイラル１０３,,13,104,1620041,,,,,,,2025-08-25,1,,,,,フロー,0
1473,7011701028644,新規,0,2025-08-25,2025-08-25,ＬＣＣＪＡＰＡＮ株式会社,,株式会社,東京都,江戸川区,西瑞江３丁目３１番地６３,,13,123,1320015,,,,,,,2025-08-25,1,,,,,エルシーシージャパン,0
1474,7011701028652,新規,0,2025-08-25,2025-08-25,株式会社Ｓｕｎｒｉｓｅ,,株式会社,東京都,江戸川区,平井５丁目３１番３－６０１号サンシャルム堀,,13,123,1320035,,,,,,,2025-08-25,1,,,,,サンライズ,0
1480,7011801046637,新規,0,2025-08-25,2025-08-25,ＢＬＵＥ株式会社,,株式会社,東京都,足立区,千住旭町４６番５－１１０４号,,13,121,1200026,,,,,,,2025-08-25,1,,,,,ブルー,0
1482,7011803007042,新規,0,2025-08-25,2025-08-25,合同会社Ａｌｌｉａｎｔ　ＣｏＶｉｓｉｏｎ,,合同会社,東京都,足立区,千住緑町３丁目２１－１５,,13,121,1200044,,,,,,,2025-08-25,1,,,,,アライアントコヴィジョン,0
1492,7013301054806,新規,0,2025-08-25,2025-08-25,ヒガンバナ株式会社,,株式会社,東京都,豊島区,西巣鴨４丁目２１番８号メゾンヴェール２０１号,,13,116,1700001,,,,,,,2025-08-25,1,,,,,ヒガンバナ,0
1500,7021001086111,新規,0,2025-08-25,2025-08-25,株式会社ＧＧ,,株式会社,神奈川県,座間市,緑ケ丘１丁目２１番５号,,14,216,2520021,,,,,,,2025-08-25,1,,,,,ジージー,0
1510,7030001168298,新規,0,2025-08-25,2025-08-25,株式会社坂本商事,,株式会社,埼玉県,蕨市,塚越２丁目１０番９号２Ｆ,,11,223,3350002,,,,,,,2025-08-25,1,,,,,サカモトショウジ,0
1513,7030003027460,新規,0,2025-08-25,2025-08-25,アザミニッポン合同会社,,合同会社,埼玉県,久喜市,緑１丁目３２番１２号,,11,232,3491106,,,,,,,2025-08-25,1,,,,,アザミニッポン,0
1521,7040001140181,新規,0,2025-08-25,2025-08-25,ＫＳＢレッドストーン株式会社,,株式会社,千葉県,いすみ市,岬町江場土４４７番地２,,12,238,2994612,,,,,,,2025-08-25,1,,,,,ケーエスビーレッドストーン,0
1524,7040005022855,新規,0,2025-08-25,2025-08-25,一般社団法人ＪＩＧ,,その他の設立登記法人,千葉県,松戸市,小金原１丁目３５番地の６０,,12,207,2700021,,,,,,,2025-08-25,1,,,,,ジグ,0
1529,7080101025733,新規,0,2025-08-25,2025-08-25,株式会社Ｏｐｔｉｍｉｓｔｉｃ　ｌａｂ,,株式会社,静岡県,伊東市,富戸１００６番地の４８,,22,208,4130231,,,,,,,2025-08-25,1,,,,,オプティミスティックラボ,0
1536,7090001019479,新規,0,2025-08-25,2025-08-25,株式会社宮義,,株式会社,山梨県,富士吉田市,上暮地３丁目１１番１５号,,19,202,4030001,,,,,,,2025-08-25,1,,,,,ミヤヨシ,0
1537,7090003002879,新規,0,2025-08-25,2025-08-25,合同会社キング,,合同会社,山梨県,甲府市,丸の内２丁目１６番８号上野ビル１階,,19,201,4000031,,,,,,,2025-08-25,1,,,,,キング,0
1538,7100003008354,新規,0,2025-08-25,2025-08-25,合同会社Ｒｅｔｒｕｓｔ,,合同会社,長野県,茅野市,中沖９番地５,,20,214,3910000,,,,,,,2025-08-25,1,,,,,リトラスト,0
1540,7110005017261,新規,0,2025-08-25,2025-08-25,一般社団法人フリーランスサポートセンター,,その他の設立登記法人,新潟県,新潟市東区,物見山３丁目２番８号,,15,102,9500021,,,,,,,2025-08-25,1,,,,,フリーランスサポートセンター,0
1555,7120001279012,新規,0,2025-08-25,2025-08-25,株式会社Ｆ‐Ｌｉｎｋ,,株式会社,大阪府,大阪市北区,梅田１丁目１－３大阪駅前第３ビル２９階１－１－１号室,,27,127,5300001,,,,,,,2025-08-25,1,,,,,エフリンク,0
1556,7120001279020,新規,0,2025-08-25,2025-08-25,株式会社Ｇｏｏｄｃｏａｓｔ,,株式会社,大阪府,大阪市西成区,萩之茶屋２丁目３番９号,,27,122,5570004,,,,,,,2025-08-25,1,,,,,グッドコースト,0
1557,7120003030348,新規,0,2025-08-25,2025-08-25,ＡＮ　ＡＮ合同会社,,合同会社,大阪府,大阪市生野区,新今里４丁目４番２８号,,27,116,5440001,,,,,,,2025-08-25,1,,,,,アンアン,0
1558,7120101072317,新規,0,2025-08-25,2025-08-25,金上株式会社,,株式会社,大阪府,堺市中区,辻之１１７１－６０－２０１,00140398,27,142,5998245,,,,,,,2025-08-25,1,,,,,キンジョウ,0
1562,7122001039577,新規,0,2025-08-25,2025-08-25,株式会社ＮＯＶＩＳ,,株式会社,大阪府,八尾市,北木の本２丁目４３－６－２０２,,27,212,5810041,,,,,,,2025-08-25,1,,,,,ノービス,0
1563,7130003010737,新規,0,2025-08-25,2025-08-25,合同会社ＡＣ京都,,合同会社,京都府,京都市中京区,西洞院通四条上る蟷螂山町４７９番地ルネス・ピース四条烏丸４０２号,,26,104,6048225,,,,,,,2025-08-25,1,,,,,エーシーキョウト,0
1568,7140001139759,新規,0,2025-08-25,2025-08-25,株式会社月彩香,,株式会社,兵庫県,西宮市,松下町３－２０グンゼ香櫨園社宅３１３号,,28,204,6620962,,,,,,,2025-08-25,1,,,,,ルノリア,0
1569,7140001139775,新規,0,2025-08-25,2025-08-25,株式会社ＴＡＴＵＭＩ管工,,株式会社,兵庫県,加西市,国正町９８５番地,,28,220,6752401,,,,,,,2025-08-25,1,,,,,タツミカンコウ,0
1573,7140003022475,新規,0,2025-08-25,2025-08-25,合同会社ｍｙｃａｒｅ,,合同会社,兵庫県,神戸市東灘区,岡本５丁目４番１０号,,28,101,6580072,,,,,,,2025-08-25,1,,,,,マイケア,0
1574,7140003022483,新規,0,2025-08-25,2025-08-25,合同会社ふぁみぐりー,,合同会社,兵庫県,尼崎市,南塚口町７丁目１８番１－２号,,28,202,6610012,,,,,,,2025-08-25,1,,,,,ファミグリー,0
1575,7140003022491,新規,0,2025-08-25,2025-08-25,コネクター合同会社,,合同会社,兵庫県,川西市,鼓が滝３丁目２６番５３号,,28,217,6660123,,,,,,,2025-08-25,1,,,,,コネクター,0
1579,7180001168127,新規,0,2025-08-25,2025-08-25,株式会社ＴＳＵＮＡＧＵ,,株式会社,愛知県,名古屋市中村区,烏森町７丁目３１７番地,,23,105,4530855,,,,,,,2025-08-25,1,,,,,ツナグ,0
1580,7180001168325,新規,0,2025-08-25,2025-08-25,株式会社Ｓ　ｐｌａｎ,,株式会社,愛知県,名古屋市中区,錦３丁目１３番１５号,,23,106,4600003,,,,,,,2025-08-25,1,,,,,エスプラン,0
1582,7180005021199,新規,0,2025-08-25,2025-08-25,ＮＰＯ法人こどもを守る会ＨＵＧ‐ＫＵＭＩ,,その他の設立登記法人,愛知県,一宮市,木曽川町黒田字東針口８２番地５,,23,203,4930001,,,,,,,2025-08-25,1,,,,,コドモヲマモルカイハグクミ,0
1589,7180301040126,新規,0,2025-08-25,2025-08-25,株式会社ヒカリファーム,,株式会社,愛知県,豊橋市,曙町字南松原１４８番地,,23,201,4418151,,,,,,,2025-08-25,1,,,,,ヒカリファーム,0
1595,7240001065400,新規,0,2025-08-25,2025-08-25,株式会社Ｍｕｎｉ．７２,,株式会社,広島県,呉市,朝日町６番６号,,34,202,7370056,,,,,,,2025-08-25,1,,,,,ムニドットセブンティトゥー,0
1596,7240001065409,新規,0,2025-08-25,2025-08-25,井上マリンテック株式会社,,株式会社,広島県,広島市安佐北区,亀山３丁目６番５１－７－１１号,,34,106,7310231,,,,,,,2025-08-25,1,,,,,イノウエマリンテック,0
1599,7250003003803,新規,0,2025-08-25,2025-08-25,合同会社西嶋工房,,合同会社,山口県,下関市,豊北町大字滝部２２８３番地,,35,201,7595511,,,,,,,2025-08-25,1,,,,,ニシジマコウボウ,0
1603,7260001040459,新規,0,2025-08-25,2025-08-25,株式会社ミヤビライン,,株式会社,岡山県,岡山市南区,平福２丁目５番８号漆黒ｅａｓｔ,,33,104,7028043,,,,,,,2025-08-25,1,,,,,ミヤビライン,0
1606,7260003005294,新規,0,2025-08-25,2025-08-25,則清合同会社,,合同会社,岡山県,笠岡市,西大島２７０７－４,,33,205,7140032,,,,,,,2025-08-25,1,,,,,ノリキヨ,0
1607,7260003005311,新規,0,2025-08-25,2025-08-25,合同会社ふくむすび,,合同会社,岡山県,倉敷市,西阿知町西原７７１番地５,,33,202,7100806,,,,,,,2025-08-25,1,,,,,フクムスビ,0
1608,7290001111042,新規,0,2025-08-25,2025-08-25,Ｌｏｌｅｎ株式会社,,株式会社,福岡県,福岡市中央区,大名２丁目１番４５号ＭＧＨ大名１４８ビル６階,,40,133,8100041,,,,,,,2025-08-25,1,,,,,,0
1611,7290003017270,新規,0,2025-08-25,2025-08-25,合同会社曙,,合同会社,福岡県,柳川市,久々原６９４－１,,40,207,8320086,,,,,,,2025-08-25,1,,,,,アケボノ,0
1615,7330001033505,新規,0,2025-08-25,2025-08-25,九州環境開発株式会社,,株式会社,熊本県,八代市,袋町３番２８号,,43,202,8660855,,,,,,,2025-08-25,1,,,,,,0
1616,7330001033513,新規,0,2025-08-25,2025-08-25,リンデン・プロパティ株式会社,,株式会社,熊本県,八代郡氷川町,吉本１６６番地,,43,468,8694803,,,,,,,2025-08-25,1,,,,,リンデンプロパティ,0
1620,7340001027605,新規,0,2025-08-25,2025-08-25,株式会社伝翔,,株式会社,鹿児島県,鹿児島市,平川町１６００番地１４,,46,201,8910133,,,,,,,2025-08-25,1,,,,,デンショウ,0
1622,7350003004997,新規,0,2025-08-25,2025-08-25,合同会社夢鳳,,合同会社,宮崎県,東臼杵郡門川町,庵川西２丁目３８,,45,421,8890605,,,,,,,2025-08-25,1,,,,,ムホウ,0
1636,7390001018087,新規,0,2025-08-25,2025-08-25,株式会社ライリー,,株式会社,山形県,山形市,小白川町５丁目２９－３７リールロージェｃ２０１,,06,201,9900021,,,,,,,2025-08-25,1,,,,,,0
1637,7400005008512,新規,0,2025-08-25,2025-08-25,医療法人修信会,,その他の設立登記法人,岩手県,盛岡市,北天昌寺町７番３５号,,03,201,0200136,,,,,,,2025-08-25,1,,,,,シュウシンカイ,0
1643,7450003002710,新規,0,2025-08-25,2025-08-25,合同会社北海道データシステム,,合同会社,北海道,旭川市,豊岡六条５丁目１１－１Ｔｈｉｓ６・５　２０３号室,,01,204,0788236,,,,,,,2025-08-25,1,,,,,ホッカイドウデータシステム,0
1646,7700150131955,新規,0,2025-08-25,2025-08-25,Ｓｈｅｎｚｈｅｎ　Ｙｉｙｕａｎｋｅｊｉ　ｙｏｕｘｉａｎｇｏｎｇｓｉ,,外国会社等,,,,,,,,Ｎｏ．６５０，Ｚｈｏｕｓｈｉ　Ｒｏａｄ，Ｚｈｏｎｇｗｕ　Ｃｏｍｍｕｎｉｔｙ，Ｈａｎｇｃｈｅｎｇ　Ｓｔｒｅｅｔ　Ｒｏｏｍ　１００５，Ｂｕｉｌｄｉｎｇ　１，Ｂａｏｘｉｎｇ　Ｚｈｉｈｕｉｃｈｅｎｇ　Ｓｈｅｎｚｈｅｎ　Ｃｉｔｙ　Ｂａｏ’ａｎ　Ｄｉｓｔｒｉｃｔ,,,,,,2025-08-25,1,,,,,シンセンイユェンカギユウゲンコウシ,0
1668,8010001257622,新規,0,2025-08-25,2025-08-25,株式会社Ｕコンサルティング,,株式会社,東京都,文京区,小石川１丁目１３番１１号岩井建設本社ビル４階,,13,105,1120002,,,,,,,2025-08-25,1,,,,,ユーコンサルティング,0
1669,8010001257944,新規,0,2025-08-25,2025-08-25,株式会社守正堂,,株式会社,東京都,中央区,築地７丁目１６番３号クラウン築地２０６号室,,13,102,1040045,,,,,,,2025-08-25,1,,,,,シュセイドウ,0
1670,8010001257969,新規,0,2025-08-25,2025-08-25,株式会社ＳＴＵＤＩＯ　ＪＡＰＡＮ,,株式会社,東京都,中央区,銀座１丁目１２番４号Ｎ＆ＥＢＬＤ．６Ｆ,,13,102,1040061,,,,,,,2025-08-25,1,,,,,スタジオジャパン,0
1671,8010001257977,新規,0,2025-08-25,2025-08-25,株式会社ワグセンティア,,株式会社,東京都,中央区,日本橋室町１丁目１１番１２号,,13,102,1030022,,,,,,,2025-08-25,1,,,,,ワグセンティア,0
1673,8010003048508,新規,0,2025-08-25,2025-08-25,ＲｉＴＧＲＩＤ合同会社,,合同会社,東京都,千代田区,神田猿楽町１丁目２番３号錦華堂ビル３階,,13,101,1010064,,,,,,,2025-08-25,1,,,,,ライグリット,0
1674,8010005040578,新規,0,2025-08-25,2025-08-25,Ｓｐｒｉｎｔ　ＨＤ特定目的会社,,その他の設立登記法人,東京都,千代田区,霞が関３丁目２番５号,,13,101,1000013,,,,,,,2025-08-25,1,,,,,スプリントエイチディー,0
1675,8010005040586,新規,0,2025-08-25,2025-08-25,特定非営利活動法人国際交流計画機構,,その他の設立登記法人,東京都,文京区,白山１丁目３３番１９－１００１号,,13,105,1130001,,,,,,,2025-08-25,1,,,,,コクサイコウリュウケイカクキコウ,0
1678,8010401192568,新規,0,2025-08-25,2025-08-25,株式会社ＤＩＳＬＯＧＵＥ,,株式会社,東京都,港区,北青山３丁目６番７号青山パラシオタワー１１階,,13,103,1070061,,,,,,,2025-08-25,1,,,,,ディスローグ,0
1679,8010401192576,新規,0,2025-08-25,2025-08-25,株式会社けやき坂ダイニング,,株式会社,東京都,港区,六本木６丁目１２番２号六本木ヒルズレジデンスＢ７０３,,13,103,1060032,,,,,,,2025-08-25,1,,,,,ケヤキザカダイニング,0
1680,8010401192592,新規,0,2025-08-25,2025-08-25,株式会社エーテルポーション,,株式会社,東京都,港区,六本木７丁目７－７Ｔｒｉ－ＳｅｖｅｎＲｏｐｐｏｎｇｉ８Ｆ,,13,103,1060032,,,,,,,2025-08-25,1,,,,,エーテルポーション,0
1681,8010403035832,新規,0,2025-08-25,2025-08-25,Ｗｏｎｄｅｒ．Ｌｅａｐ．合同会社,,合同会社,東京都,港区,芝大門１丁目３－１１ＹＳＫビル７階,,13,103,1050012,,,,,,,2025-08-25,1,,,,,ワンダーリープ,0
1682,8010403035873,新規,0,2025-08-25,2025-08-25,合同会社ＨｉＪｏＪｏ　Ｆｕｎｄ４９,,合同会社,東京都,港区,西新橋１丁目７番２号,,13,103,1050003,,,,,,,2025-08-25,1,,,,,ヒジョージョーファンドヨンジュウキュウ,0
1693,8010701048206,新規,0,2025-08-25,2025-08-25,株式会社Ｌｉｂｓｔｙｌｅ,,株式会社,東京都,品川区,東品川４丁目１２番１１－９０６号,,13,109,1400002,,,,,,,2025-08-25,1,,,,,リブスタイル,0
1712,8011101112642,新規,0,2025-08-25,2025-08-25,株式会社ＣｌｏｕｄＣａｒａｖａｎ,,株式会社,東京都,新宿区,西新宿７丁目５番地５号プラザ西新宿ＵＣＦ４０６,,13,104,1600023,,,,,,,2025-08-25,1,,,,,クラウドキャラバン,0
1713,8011101112782,新規,0,2025-08-25,2025-08-25,株式会社ＭＧＲ,,株式会社,東京都,新宿区,歌舞伎町２丁目４１番１２号,,13,104,1600021,,,,,,,2025-08-25,1,,,,,エムジーアール,0
1714,8011103016255,新規,0,2025-08-25,2025-08-25,エンパートナーズ３合同会社,,合同会社,東京都,新宿区,西落合１丁目３２番２１号,,13,104,1610031,,,,,,,2025-08-25,1,,,,,エンパートナーズスリー,0
1715,8011105011568,新規,0,2025-08-25,2025-08-25,ＴＩＰ行政書士法人,,その他の設立登記法人,東京都,新宿区,高田馬場２丁目１４番２号新陽ビル１１０５,,13,104,1690075,,,,,,,2025-08-25,1,,,,,ティーアイピー,0
1723,8011501032473,新規,0,2025-08-25,2025-08-25,株式会社ＴＥＣＨＫＩＮＧ　ＪＡＰＡＮ技術研究開発センター,,株式会社,東京都,荒川区,東日暮里１丁目３番２－６０２号,,13,118,1160014,,,,,,,2025-08-25,1,,,,,テクキングジャパンギジュツケンキュウカイハツセンター,0
1727,8011701028643,新規,0,2025-08-25,2025-08-25,ムシャン株式会社,,株式会社,東京都,江戸川区,中葛西１丁目３１番４４－２０２号,,13,123,1340083,,,,,,,2025-08-25,1,,,,,ムシャン,0
1730,8011803007041,新規,0,2025-08-25,2025-08-25,フリーランス支援団体合同会社,,合同会社,東京都,葛飾区,東新小岩３丁目１３番１０号ヴィラエクセル３０５,,13,122,1240023,,,,,,,2025-08-25,1,,,,,,0
1734,8012401043437,新規,0,2025-08-25,2025-08-25,海南飲食株式会社,,株式会社,東京都,調布市,仙川町１丁目１３－１１,,13,208,1820002,,,,,,,2025-08-25,1,,,,,カイナンインショク,0
1745,8020003029036,新規,0,2025-08-25,2025-08-25,合同会社ノドネクサス,,合同会社,神奈川県,横浜市西区,浅間町１丁目４番３号ウィザードビル４０２,,14,103,2200072,,,,,,,2025-08-25,1,,,,,ノドネクサス,0
1746,8020003029192,新規,0,2025-08-25,2025-08-25,合同会社ＳＯＲＡ,,合同会社,神奈川県,横浜市中区,山下町１３４－４龍ビル２０２,,14,104,2310023,,,,,,,2025-08-25,1,,,,,,0
1752,8021003016437,新規,0,2025-08-25,2025-08-25,合同会社Ｋ,,合同会社,神奈川県,厚木市,水引２丁目９番１５号ハイツ田園ＩＩＩ１０３,00140407,14,212,2430004,,,,,,,2025-08-25,1,,,,,ケー,0
1758,8030001168289,新規,0,2025-08-25,2025-08-25,株式会社サン,,株式会社,埼玉県,入間市,扇台３丁目５番３号,,11,225,3580023,,,,,,,2025-08-25,1,,,,,サン,0
1759,8030001168322,新規,0,2025-08-25,2025-08-25,株式会社Ｓ．Ｙ．Ｓ,,株式会社,埼玉県,三郷市,早稲田１丁目１番地３ヴェルティストン９０２,,11,237,3410018,,,,,,,2025-08-25,1,,,,,エスドットワイドットエス,0
1762,8030003027369,新規,0,2025-08-25,2025-08-25,合同会社スペース,,合同会社,埼玉県,朝霞市,朝志ケ丘３丁目１－４７,,11,227,3510035,,,,,,,2025-08-25,1,,,,,スペース,0
1777,8050003009514,新規,0,2025-08-25,2025-08-25,バウザー合同会社,,合同会社,茨城県,稲敷市,上須田１５２１番地１,,08,229,3000737,,,,,,,2025-08-25,1,,,,,バウザー,0
1789,8090001019478,新規,0,2025-08-25,2025-08-25,Ｓ．Ｈ．Ｓ株式会社,,株式会社,山梨県,南巨摩郡身延町,波高島２８９番地,,19,365,4092945,,,,,,,2025-08-25,1,,,,,エスエイチエス,0
1790,8090003002878,新規,0,2025-08-25,2025-08-25,合同会社ＷＯＭＹ,,合同会社,山梨県,富士吉田市,富士見３丁目３番３８号,,19,202,4030009,,,,,,,2025-08-25,1,,,,,ウォーミー,0
1804,8120001278979,新規,0,2025-08-25,2025-08-25,ｋａｒｕｔｅｘ株式会社,,株式会社,大阪府,大阪市西区,江戸堀２丁目１番１号江戸堀センタービル９階,,27,106,5500002,,,,,,,2025-08-25,1,,,,,カルテックス,0
1805,8120001279003,新規,0,2025-08-25,2025-08-25,井上一郎商事株式会社,,株式会社,大阪府,大阪市西成区,南津守八丁目８番６号２Ｄ,,27,122,5570000,,,,,,,2025-08-25,1,,,,,イノウエイチロウショウジ,0
1806,8120003030322,新規,0,2025-08-25,2025-08-25,Ｌｕｌｕｂｅｌ合同会社,,合同会社,大阪府,大阪市北区,梅田１丁目２番２号大阪駅前第２ビル１２－１２,,27,127,5300001,,,,,,,2025-08-25,1,,,,,ルルベル,0
1807,8120003030355,新規,0,2025-08-25,2025-08-25,さくらコーポレーション合同会社,,合同会社,大阪府,大阪市北区,梅田１丁目２番２号大阪駅前第２ビル１２－１２,,27,127,5300001,,,,,,,2025-08-25,1,,,,,サクラコーポレーション,0
1808,8120003030371,新規,0,2025-08-25,2025-08-25,合同会社共栄サービス,,合同会社,大阪府,大阪市東淀川区,柴島２丁目１４番４－４１６号,,27,114,5330024,,,,,,,2025-08-25,1,,,,,キョウエイサービス,0
1811,8120101072308,新規,0,2025-08-25,2025-08-25,プリンス自動車工業株式会社,,株式会社,大阪府,堺市西区,築港新町２丁６番１５号,,27,144,5928331,,,,,,,2025-08-25,1,,,,,プリンスジドウシャコウギョウ,0
1814,8120901051361,新規,0,2025-08-25,2025-08-25,株式会社染と織いとう,,株式会社,大阪府,茨木市,大池１丁目１３番８－１０６号,,27,211,5670826,,,,,,,2025-08-25,1,,,,,ソメトオリイトウ,0
1815,8120903005828,新規,0,2025-08-25,2025-08-25,合同会社Ｍ’ｓ　ｐｌｕｓ,,合同会社,大阪府,高槻市,高垣町１番１１号,,27,207,5690097,,,,,,,2025-08-25,1,,,,,エムズプラス,0
1822,8130001080327,新規,0,2025-08-25,2025-08-25,株式会社おとくにスタジオ,,株式会社,京都府,向日市,寺戸町七ノ坪１４１ＳＵＢＡＣＯ４Ｆシェアスバコ,,26,208,6170002,,,,,,,2025-08-25,1,,,,,オトクニスタジオ,0
1824,8130003010736,新規,0,2025-08-25,2025-08-25,合同会社グレース大原,,合同会社,京都府,京都市右京区,西京極町ノ坪町５－３,,26,108,6150804,,,,,,,2025-08-25,1,,,,,グレースオオハラ,0
1836,8140001139766,新規,0,2025-08-25,2025-08-25,ホオコーファーム株式会社,,株式会社,兵庫県,姫路市,林田町中山下１０６番地１,,28,201,6794214,,,,,,,2025-08-25,1,,,,,ホオコーファーム,0
1842,8140003022474,新規,0,2025-08-25,2025-08-25,Ｄｒｅａｍ　Ｔｏｕｃｈ合同会社,,合同会社,兵庫県,伊丹市,中野東２丁目６０ドルチェＫ＆Ｙ３０１,,28,207,6640022,,,,,,,2025-08-25,1,,,,,ドリームタッチ,0
1843,8140003022482,新規,0,2025-08-25,2025-08-25,合同会社Ｄｏｔ　Ｃｒｅｗ,,合同会社,兵庫県,神戸市中央区,中山手通１丁目９番６号４０１,,28,110,6500004,,,,,,,2025-08-25,1,,,,,ドットクルー,0
1844,8140003022490,新規,0,2025-08-25,2025-08-25,Ｒｏａ合同会社,,合同会社,兵庫県,神戸市中央区,小野浜町１－４－４２７,,28,110,6510082,,,,,,,2025-08-25,1,,,,,ロア,0
1856,8180001168290,新規,0,2025-08-25,2025-08-25,ＤＲＩＶＥ　Ｘ株式会社,,株式会社,愛知県,弥富市,竹田３丁目７９番地４,,23,235,4901428,,,,,,,2025-08-25,1,,,,,ドライブエックス,0
1857,8180003028914,新規,0,2025-08-25,2025-08-25,ＲＯＹＡＬ　ＭＯＴＯＲＳ合同会社,,合同会社,愛知県,名古屋市守山区,大字中志段味字南原２６７１番地の６,,23,113,4630002,,,,,,,2025-08-25,1,,,,,ローヤルモータース,0
1861,8180303006702,新規,0,2025-08-25,2025-08-25,ダアリヤトレーディング合同会社,,合同会社,愛知県,刈谷市,末広町１丁目４番地３パビリオン末広３０３号,,23,210,4480802,,,,,,,2025-08-25,1,,,,,ダアリヤトレーディング,0
1876,8250001021302,新規,0,2025-08-25,2025-08-25,清風Ｗｏｒｋｓ株式会社,,株式会社,山口県,長門市,三隅中３０９番地,,35,211,7593802,,,,,,,2025-08-25,1,,,,,セイフウワークス,0
1877,8260001040458,新規,0,2025-08-25,2025-08-25,株式会社無題,,株式会社,岡山県,岡山市南区,浦安本町１０１番地８,,33,104,7028026,,,,,,,2025-08-25,1,,,,,ムダイ,0
1880,8260003005310,新規,0,2025-08-25,2025-08-25,合同会社誠信土地管理,,合同会社,岡山県,岡山市北区,加茂３１番地７,,33,101,7011342,,,,,,,2025-08-25,1,,,,,セイシントチカンリ,0
1885,8290003017286,新規,0,2025-08-25,2025-08-25,合同会社優工業,,合同会社,福岡県,筑後市,大字西牟田６３５２番地１０－１０１号,,40,211,8330053,,,,,,,2025-08-25,1,,,,,ユウコウギョウ,0
1888,8290803005135,新規,0,2025-08-25,2025-08-25,合同会社ＳＨＩＩＤＡ,,合同会社,福岡県,北九州市若松区,深町１丁目８番１０号,,40,103,8080012,,,,,,,2025-08-25,1,,,,,シイダ,0
1892,8330005010945,新規,0,2025-08-25,2025-08-25,一般社団法人Ｏｌｉｖｅ　Ｐｅａｒｌ,,その他の設立登記法人,熊本県,熊本市中央区,坪井２丁目１０番８号中井ビル１０１号,,43,101,8600863,,,,,,,2025-08-25,1,,,,,オリーブパール,0
1893,8340001027604,新規,0,2025-08-25,2025-08-25,株式会社ＱＤＡＩ,,株式会社,鹿児島県,奄美市,名瀬長浜町３２番３号,,46,222,8940036,,,,,,,2025-08-25,1,,,,,キューディーエーアイ,0
1898,8370003007262,新規,0,2025-08-25,2025-08-25,ＫＥＩＲＡ合同会社,,合同会社,宮城県,富谷市,明石台５丁目７番地１０,,04,216,9813332,,,,,,,2025-08-25,1,,,,,ケイラ,0
1906,8430001095088,新規,0,2025-08-25,2025-08-25,Ａ．Ｃデザイン株式会社,,株式会社,北海道,札幌市西区,西町南７丁目１番５号,,01,107,0630062,,,,,,,2025-08-25,1,,,,,エーシーデザイン,0
1907,8430001095096,新規,0,2025-08-25,2025-08-25,株式会社コンフェクトワークス,,株式会社,北海道,札幌市厚別区,厚別中央三条４丁目１０番１２号,,01,108,0040053,,,,,,,2025-08-25,1,,,,,コンフェクトワークス,0
1912,8430003018014,新規,0,2025-08-25,2025-08-25,合同会社むすびえむ,,合同会社,北海道,札幌市白石区,東札幌五条２丁目６番１０ビッグバーンズマンション東札幌２―１０５号,,01,104,0030005,,,,,,,2025-08-25,1,,,,,ムスビエム,0
1913,8430003018022,新規,0,2025-08-25,2025-08-25,Ｋａｍｕｙ　Ａｄｖｅｎｔｕｒｅ合同会社,,合同会社,北海道,札幌市南区,澄川五条３丁目１０番１－Ａ４１５号,,01,106,0050005,,,,,,,2025-08-25,1,,,,,カムイアドベンチャー,0
1921,9010001257514,新規,0,2025-08-25,2025-08-25,リソースワーカー株式会社,,株式会社,東京都,千代田区,神田須田町１丁目１４－１ヒューリック神田須田町ビル１階,,13,101,1010041,,,,,,,2025-08-25,1,,,,,リソースワーカー,0
1924,9010003048507,新規,0,2025-08-25,2025-08-25,Ｍｏｄｕｌｏ合同会社,,合同会社,東京都,中央区,銀座１丁目１２番４号Ｎ＆ＥＢＬＤ．６Ｆ,,13,102,1040061,,,,,,,2025-08-25,1,,,,,モジュロ,0
1926,9010005040552,新規,0,2025-08-25,2025-08-25,一般社団法人浦々シマジマ実践ラボ,,その他の設立登記法人,東京都,中央区,銀座１丁目１２番４号Ｎ＆ＥＢＬＤ．７階,,13,102,1040061,,,,,,,2025-08-25,1,,,,,ウラウラシマジマジッセンラボ,0
1927,9010005040577,新規,0,2025-08-25,2025-08-25,一般社団法人黒潮,,その他の設立登記法人,東京都,千代田区,霞が関３丁目２番５号,,13,101,1000013,,,,,,,2025-08-25,1,,,,,クロシオ,0
1933,9010401192633,新規,0,2025-08-25,2025-08-25,ソラアセット株式会社,,株式会社,東京都,港区,麻布十番１丁目７番１号ＭＧＢ麻布十番ビル７階,,13,103,1060045,,,,,,,2025-08-25,1,,,,,ソラアセット,0
1936,9010403035864,新規,0,2025-08-25,2025-08-25,Ｍｅｅｓｔ　Ｊａｐａｎ合同会社,,合同会社,東京都,港区,元麻布３丁目１番６号,,13,103,1060046,,,,,,,2025-08-25,1,,,,,ミーストジャパン,0
1937,9010403035872,新規,0,2025-08-25,2025-08-25,Ｅｌｖｏ・Ｅｎｅｒｇｙ・Ｊａｐａｎ合同会社,,合同会社,東京都,港区,浜松町２丁目４番１号世界貿易センタービルディング南館１７階,,13,103,1050013,,,,,,,2025-08-25,1,,,,,エルボーエナジージャパン,0
1938,9010403035880,新規,0,2025-08-25,2025-08-25,合同会社ｋｕｒｉｋｉｎｔｏｎ,,合同会社,東京都,港区,高輪１丁目２７番３７－２１１２号,,13,103,1080074,,,,,,,2025-08-25,1,,,,,クリキントン,0
1939,9010403035906,新規,0,2025-08-25,2025-08-25,合同会社ＩｄｅａＳ,,合同会社,東京都,港区,赤坂７丁目５番１６ー２１５号,,13,103,1070052,,,,,,,2025-08-25,1,,,,,イデアス,0
1944,9010705003791,新規,0,2025-08-25,2025-08-25,ＪＲセントラル労働組合,,その他の設立登記法人,東京都,品川区,西五反田３丁目２番１３号,,13,109,1410031,,,,,,,2025-08-25,1,,,,,ジェイアールセントラル,0
1953,9011001171341,新規,0,2025-08-25,2025-08-25,陽璃イノベーション株式会社,,株式会社,東京都,渋谷区,神宮前６丁目２３番４号桑野ビル２階,,13,113,1500001,,,,,,,2025-08-25,1,,,,,ヨウリイノベーション,0
1956,9011101112906,新規,0,2025-08-25,2025-08-25,株式会社Ｒｉｖａ　Ｐｌｕｓ,,株式会社,東京都,新宿区,西新宿１丁目５番１２号ニューセントラルビル９階,,13,104,1600023,,,,,,,2025-08-25,1,,,,,リヴァプラス,0
1960,9011103016246,新規,0,2025-08-25,2025-08-25,イエトキ合同会社,,合同会社,東京都,新宿区,西新宿１丁目２５－１新宿センタービル４９階,,13,104,1600023,,,,,,,2025-08-25,1,,,,,イエトキ,0
1975,9013101009776,新規,0,2025-08-25,2025-08-25,株式会社ヨコケン,,株式会社,東京都,羽村市,栄町１丁目５番地１８,,13,227,2050002,,,,,,,2025-08-25,1,,,,,ヨコケン,0
1986,9021003016394,新規,0,2025-08-25,2025-08-25,合同会社織田商店,,合同会社,神奈川県,中郡二宮町,二宮１３８４ベルウッド１０２,,14,342,2590123,,,,,,,2025-08-25,1,,,,,オダショウテン,0
1994,9030003027459,新規,0,2025-08-25,2025-08-25,翼合同会社,,合同会社,埼玉県,深谷市,上柴町東５丁目１８番地１１,,11,218,3660051,,,,,,,2025-08-25,1,,,,,ツバサ,0
1995,9040001140196,新規,0,2025-08-25,2025-08-25,株式会社サクラランカ,,株式会社,千葉県,船橋市,金杉３丁目１４番６号,,12,204,2730853,,,,,,,2025-08-25,1,,,,,サクラランカ,0
1996,9040001140221,新規,0,2025-08-25,2025-08-25,大鐘工業株式会社,,株式会社,千葉県,市原市,上高根１２４２番地,,12,219,2900243,,,,,,,2025-08-25,1,,,,,オオガネコウギョウ,0
2001,9040003028316,新規,0,2025-08-25,2025-08-25,合同会社８４,,合同会社,千葉県,君津市,南子安６丁目１７番２９号,,12,225,2991162,,,,,,,2025-08-25,1,,,,,ハチヨン,0
2013,9080405007756,新規,0,2025-08-25,2025-08-25,一般社団法人ａｂｉａｎ,,その他の設立登記法人,静岡県,掛川市,大野４８６番地の３６,,22,213,4360009,,,,,,,2025-08-25,1,,,,,アビアン,0
2022,9120003030313,新規,0,2025-08-25,2025-08-25,合同会社ＡＭＥＩ　Ｔｅｃｈ,,合同会社,大阪府,大阪市西成区,橘３丁目７－３－１Ｆ,,27,122,5570051,,,,,,,2025-08-25,1,,,,,エイメイテック,0
2024,9120101072298,新規,0,2025-08-25,2025-08-25,株式会社Ｎｅｘｔ　Ｈｏｍｅ,,株式会社,大阪府,岸和田市,三田町１００４番地の１,,27,202,5960808,,,,,,,2025-08-25,1,,,,,ネクストホーム,0
2028,9120901051369,新規,0,2025-08-25,2025-08-25,株式会社Ｔｒｕｓｔ,,株式会社,大阪府,茨木市,鮎川３丁目１８－１,,27,211,5670831,,,,,,,2025-08-25,1,,,,,トラスト,0
2029,9122001039575,新規,0,2025-08-25,2025-08-25,株式会社アクアエム,,株式会社,大阪府,大東市,大字龍間１９６２番地,,27,218,5740012,,,,,,,2025-08-25,1,,,,,アクアエム,0
2030,9122001039583,新規,0,2025-08-25,2025-08-25,株式会社Ｔ．Ａｒｅｎｏｖａｔｉｏｎ,,株式会社,大阪府,東大阪市,稲田本町１丁目２８番３号,,27,227,5770007,,,,,,,2025-08-25,1,,,,,ティーエーリノベーション,0
2034,9130001080342,新規,0,2025-08-25,2025-08-25,株式会社ＡＲＳ　ＴＲＡＤＩＮＧ,,株式会社,京都府,木津川市,加茂町里西鳥口７６番地コスモハイツ東２０３号室,,26,214,6191152,,,,,,,2025-08-25,1,,,,,エーアールエストレーディング,0
2039,9140001139757,新規,0,2025-08-25,2025-08-25,株式会社ＲＡテックス,,株式会社,兵庫県,姫路市,太市中７８３番地,,28,201,6712233,,,,,,,2025-08-25,1,,,,,アールエイテックス,0
2040,9140001139765,新規,0,2025-08-25,2025-08-25,株式会社ブライトリンク,,株式会社,兵庫県,姫路市,二階町１８番地ＡＮＧＥＲＯ二階町２０７,,28,201,6700922,,,,,,,2025-08-25,1,,,,,ブライトリンク,0
2041,9140001139773,新規,0,2025-08-25,2025-08-25,株式会社ティーテック,,株式会社,兵庫県,神戸市北区,ひよどり台南町３丁目４番地の４５,,28,109,6511125,,,,,,,2025-08-25,1,,,,,ティーテック,0
2052,9180001168265,新規,0,2025-08-25,2025-08-25,株式会社ブルーナッツ,,株式会社,愛知県,春日井市,上田楽町２００３番地,,23,206,4860801,,,,,,,2025-08-25,1,,,,,ブルーナッツ,0
2053,9180001168281,新規,0,2025-08-25,2025-08-25,ＳＨＩＮＷＡＲＩ　ＴＲＡＤＩＮＧ株式会社,,株式会社,愛知県,弥富市,平島町中新田１９４番地１コンツェルハウスＩＩＣ－１０５,00140402,23,235,4980031,,,,,,,2025-08-25,1,,,,,シンワリトレーディング,0
2054,9180001168307,新規,0,2025-08-25,2025-08-25,株式会社ＳＩコンサルティング,,株式会社,愛知県,名古屋市中川区,尾頭橋２丁目８番１５号－１,,23,110,4540012,,,,,,,2025-08-25,1,,,,,エスアイコンサルティング,0
2065,9220001026880,新規,0,2025-08-25,2025-08-25,株式会社Ｒｅｌｉｅｆ,,株式会社,石川県,野々市市,三日市１丁目２６番地,,17,212,9218806,,,,,,,2025-08-25,1,,,,,リリーフ,0
2067,9220002017417,新規,0,2025-08-25,2025-08-25,大野木織物有限会社,,有限会社,石川県,鹿島郡中能登町,徳前ゐ部１７番地,,17,407,9291817,,,,,,,2025-08-25,1,,,,,,0
2072,9250003003801,新規,0,2025-08-25,2025-08-25,慧創社合同会社,,合同会社,山口県,柳井市,余田２８９９番地,,35,212,7420034,,,,,,,2025-08-25,1,,,,,エイソーシャ,0
2075,9260001040465,新規,0,2025-08-25,2025-08-25,株式会社ホリスティック波動研究所,,株式会社,岡山県,加賀郡吉備中央町,西２０８４番地２７,,33,681,7161554,,,,,,,2025-08-25,1,,,,,ホリスティックハドウケンキュウジョ,0
2079,9290001111156,新規,0,2025-08-25,2025-08-25,株式会社ＲｅＦｒａｍｅ,,株式会社,福岡県,飯塚市,吉原町８番４４－６０５号,,40,205,8200040,,,,,,,2025-08-25,1,,,,,リフレイム,0
2080,9290001111172,新規,0,2025-08-25,2025-08-25,株式会社縁,,株式会社,福岡県,福岡市博多区,中洲４丁目１番４号ステージ２ビル６階,,40,132,8100801,,,,,,,2025-08-25,1,,,,,エン,0
2081,9290001111180,新規,0,2025-08-25,2025-08-25,株式会社ウェルビーイングコネクト,,株式会社,福岡県,八女市,高塚５６８番地１,,40,210,8340034,,,,,,,2025-08-25,1,,,,,ウェルビーイングコネクト,0
2082,9290001111189,新規,0,2025-08-25,2025-08-25,ＸＨｅａｔ株式会社,,株式会社,福岡県,福岡市中央区,港１丁目９番－２６－９０２号モントーレ舞鶴ベイレジデンス,,40,133,8100075,,,,,,,2025-08-25,1,,,,,クロスヒート,0
2084,9290801031801,新規,0,2025-08-25,2025-08-25,株式会社コレクション,,株式会社,福岡県,遠賀郡芦屋町,高浜町７番１０号,,40,381,8070122,,,,,,,2025-08-25,1,,,,,コレクション,0
2088,9360001035686,新規,0,2025-08-25,2025-08-25,株式会社Ｌｕｍｉａ,,株式会社,沖縄県,うるま市,字田場２０６番地２,,47,213,9042213,,,,,,,2025-08-25,1,,,,,ルミア,0
2104,9430001094964,新規,0,2025-08-25,2025-08-25,ｉＬＤＫ株式会社,,株式会社,北海道,札幌市中央区,北十二条西１５丁目２番３７号４０２号室,,01,101,0600012,,,,,,,2025-08-25,1,,,,,アイエルディーケー,0
2105,9430001095046,新規,0,2025-08-25,2025-08-25,株式会社ＭｉＬｕ,,株式会社,北海道,札幌市中央区,南十三条西９丁目１番４２－３０２号,,01,101,0640913,,,,,,,2025-08-25,1,,,,,ミル,0
2106,9430001095062,新規,0,2025-08-25,2025-08-25,株式会社あおい企画,,株式会社,北海道,苫小牧市,日新町１丁目２番１３号,,01,213,0530833,,,,,,,2025-08-25,1,,,,,アオイキカク,0
2107,9430001095087,新規,0,2025-08-25,2025-08-25,Ｋｉｗｉ　Ｃａｆｅ株式会社,,株式会社,北海道,虻田郡倶知安町,北四条西２丁目１６番地４マンション宝ブロードヒル１０２号室,,01,400,0440054,,,,,,,2025-08-25,1,,,,,キーウィカフェ,0
2108,9430001095120,新規,0,2025-08-25,2025-08-25,株式会社ｉｌ　Ｃｏｎｃｅｒｔｏ,,株式会社,北海道,余市郡余市町,登町９８７番地２,,01,408,0460002,,,,,,,2025-08-25,1,,,,,イルコンチェルト,0
2109,9430001095129,新規,0,2025-08-25,2025-08-25,株式会社ＮＯＥＲＥＥ,,株式会社,北海道,苫小牧市,ときわ町３丁目７番２２号,,01,213,0591261,,,,,,,2025-08-25,1,,,,,ノエリー,0
2110,9430003018021,新規,0,2025-08-25,2025-08-25,合同会社ＯｎｌｙＲｅｓｕｌｔｓ,,合同会社,北海道,札幌市北区,北七条西４丁目１番地１トーカン札幌第一キャステール６０７,,01,102,0600807,,,,,,,2025-08-25,1,,,,,オンリーリザルツ,0
2111,9430003018038,新規,0,2025-08-25,2025-08-25,合同会社ｅｑｕａｌ,,合同会社,北海道,札幌市中央区,北八条西２３丁目１‐６‐１,,01,101,0600008,,,,,,,2025-08-25,1,,,,,イクオル,0
2118,9470001020867,新規,0,2025-08-25,2025-08-25,株式会社フォーネスト,,株式会社,香川県,高松市,上之町２丁目１７番２８号,,37,201,7618064,,,,,,,2025-08-25,1,,,,,フォーネスト,0
2120,9700150131623,新規,0,2025-08-25,2025-08-25,Ｓｈｅｎｚｈｅｎｓｈｉｄｉａｎｊｉｎｇｚｈｉｘｉｎｓｈｕｍａｋｅｊｉｙｏｕｘｉａｎｇｏｎｇｓｉ,,外国会社等,,,,,,,,ｆｕｔｉａｎｑｕ　ｈｕａｑｉａｎｇｂｅｉｊｉｅｄａｏ　ｌｉｃｕｎｓｈｅｑｕ　ｚｈｅｎｘｉｎｇｌｕ　１２０　ｈａｏ　ｓａｉｇｅ　ｋｅｊｉｙｕａｎ　４　ｄｏｎｇｄｏｎｇ　４　ｃｅｎｇ　４１６Ａ　ｓｈｅｎｚｈｅｎ　ｇｕａｎｇｄｏｎｇ,,,,,,2025-08-25,1,,,,,シンセンシデンキヨウシシンスウバカギユウゲンコウシ,0
