sequenceNumber,corporateNumber,process,correct,updateDate,changeDate,name,nameImageId,kind,prefectureName,cityName,streetNumber,addressImageId,prefectureCode,cityCode,postCode,addressOutside,addressOutsideImageId,closeDate,closeCause,successorCorporateNumber,changeCause,assignmentDate,latest,enName,enPrefectureName,enCityName,enAddressOutside,furigana,hihyoji
7,1010003038688,登記記録の閉鎖等,0,2024-11-25,2024-11-12,合同会社ＤＵＭＳ３,,合同会社,東京都,千代田区,丸の内３丁目１番１号東京共同会計事務所内,,13,101,1000005,,,2024-11-12,清算の結了等,,,2022-09-20,1,,,,,ディーユーエムエススリー,0
20,1010602001187,登記記録の閉鎖等,0,2024-11-25,2024-11-20,有限会社明石屋菅谷商店,,有限会社,東京都,江東区,門前仲町２丁目４番１１号,,13,108,1350048,,,2024-11-20,清算の結了等,,,2015-10-05,1,,,,,アカシヤスガヤショウテン,0
26,1010905003153,登記記録の閉鎖等,0,2024-11-25,2024-11-18,特定非営利活動法人２１世紀の水産を考える会,,その他の設立登記法人,東京都,世田谷区,奥沢２丁目３８番１－４１０号,,13,112,1580083,,,2024-11-18,清算の結了等,,,2016-01-25,1,,,,,ニジュウイッセイキノスイサンヲカンガエルカイ,0
28,1011001109902,登記記録の閉鎖等,0,2024-11-25,2024-11-01,株式会社Ｈａｎｘ,,株式会社,東京都,渋谷区,神宮前３丁目３１番１７号,,13,113,1500001,,,2024-11-01,清算の結了等,,,2016-03-07,1,,,,,,0
30,1011001151672,登記記録の閉鎖等,0,2024-11-25,2024-10-28,株式会社リバーヴィクトリー,,株式会社,東京都,渋谷区,恵比寿西１丁目１０番８号,,13,113,1500021,,,2024-10-28,清算の結了等,,,2022-12-27,1,,,,,リバーヴィクトリー,0
37,1011101058314,登記記録の閉鎖等,0,2024-11-25,2024-11-12,アジアビジネスファクトリー株式会社,,株式会社,東京都,新宿区,西早稲田３丁目３０番１８－４０４号,,13,104,1690051,,,2024-11-12,清算の結了等,,,2015-10-05,1,,,,,アジアビジネスファクトリー,0
72,1021003002278,登記記録の閉鎖等,0,2024-11-25,2024-11-21,合同会社安間商店,,合同会社,神奈川県,小田原市,板橋１０１番地,,14,206,2500034,,,2024-11-21,清算の結了等,,,2015-10-05,1,,,,,ヤスマショウテン,0
74,1030001018624,登記記録の閉鎖等,0,2024-11-25,2024-11-20,株式会社ヒロセスポーツ,,株式会社,埼玉県,さいたま市岩槻区,本町２丁目１番７号,,11,110,3390057,,,2024-11-20,清算の結了等,,,2015-10-05,1,,,,,ヒロセスポーツ,0
87,1030003002865,登記記録の閉鎖等,0,2024-11-25,2024-11-20,合同会社ＫＡＫＵホールディングス,,合同会社,埼玉県,ふじみ野市,亀久保４丁目９番４６号,,11,245,3560051,,,2024-11-20,清算の結了等,,,2015-10-05,1,,,,,カクホールディングス,0
101,1060001002022,登記記録の閉鎖等,0,2024-11-25,2024-11-21,サトス株式会社,,株式会社,栃木県,宇都宮市,富士見が丘１丁目１０番２号,,09,201,3200011,,,2024-11-21,清算の結了等,,,2015-10-05,1,,,,,サトス,0
109,1080102011622,登記記録の閉鎖等,0,2024-11-25,2024-11-22,有限会社松本地質調査事務所,,有限会社,静岡県,駿東郡清水町,湯川１９７番地の２６,,22,341,4110918,,,2024-11-22,清算の結了等,,,2015-10-05,1,,,,,マツモトチシツチョウサジムショ,0
110,1080401023260,登記記録の閉鎖等,0,2024-11-25,2024-11-22,Ｇｒｅｅｎ　Ｌａｂｏ浜松株式会社,,株式会社,静岡県,浜松市中央区,飯田町５０７番地,,22,138,4350028,,,2024-11-22,清算の結了等,,,2018-11-02,1,,,,,グリーンラボハママツ,0
117,1100002005671,登記記録の閉鎖等,0,2024-11-25,2024-11-18,有限会社和光照明,,有限会社,長野県,長野市,大字栗田２０７番地１,,20,201,3800921,,,2024-11-18,清算の結了等,,,2015-10-05,1,,,,,ワコウショウメイ,0
118,1100002008212,登記記録の閉鎖等,0,2024-11-25,2024-11-18,有限会社旭プラスチック工業,,有限会社,長野県,須坂市,大字小河原１９５４番地１,,20,207,3820000,,,2024-11-18,清算の結了等,,,2015-10-05,1,,,,,アサヒプラスチックコウギョウ,0
119,1100002008617,登記記録の閉鎖等,0,2024-11-25,2024-11-19,有限会社中村木工所,,有限会社,長野県,須坂市,大字日滝１６４０番地,,20,207,3820000,,,2024-11-19,清算の結了等,,,2015-10-05,1,,,,,ナカムラモッコウジョ,0
120,1100002009400,登記記録の閉鎖等,0,2024-11-25,2024-11-15,有限会社サンムーン,,有限会社,長野県,千曲市,大字桑原３０５６番地２,,20,218,3870024,,,2024-11-15,清算の結了等,,,2015-10-05,1,,,,,サンムーン,0
152,1140001125533,登記記録の閉鎖等,0,2024-11-25,2024-11-19,株式会社Ｏｈ‐Ｌｉｎｋ,,株式会社,兵庫県,神戸市中央区,下山手通４丁目１４－１０,,28,110,6500011,,,2024-11-19,合併による解散等,2140001125532,令和６年１１月１９日神戸市中央区中山手通４－３－６株式会社ＡＣＳ　Ｖｅｔ（2140001125532）に合併し解散,2022-04-04,1,,,,,オーリンク,0
155,1150001016475,登記記録の閉鎖等,0,2024-11-25,2024-11-21,株式会社フラッグ,,株式会社,奈良県,奈良市,油阪町４５９－１池口ビル５Ｆ,,29,201,6308247,,,2024-11-21,清算の結了等,,,2015-10-05,1,,,,,フラッグ,0
159,1170001007019,登記記録の閉鎖等,0,2024-11-25,2024-11-21,株式会社ビューティサロンカインド,,株式会社,和歌山県,和歌山市,古屋９５番地の３,,30,201,6408435,,,2024-11-21,清算の結了等,,,2015-10-05,1,,,,,ビューティサロンカインド,0
160,1180001011465,登記記録の閉鎖等,0,2024-11-25,2024-11-15,アケミ商事株式会社,,株式会社,愛知県,名古屋市北区,上飯田東町４丁目３１番地,,23,103,4620803,,,2024-11-15,清算の結了等,,,2015-10-05,1,,,,,アケミショウジ,0
169,1180005011338,登記記録の閉鎖等,0,2024-11-25,2024-11-20,愛知県学校事務労働組合,,その他の設立登記法人,愛知県,江南市,五明町青木１６５番地,,23,217,4838241,,,2024-11-20,清算の結了等,,,2015-10-05,1,,,,,アイチケンガッコウジム,0
177,1190002021660,登記記録の閉鎖等,0,2024-11-25,2024-11-21,有限会社ビユーテイーシヨツプタムラ,,有限会社,三重県,四日市市,富州原町６番４号,,24,202,5108016,,,2024-11-21,清算の結了等,,,2015-10-05,1,,,,,ビユーテイーシヨツプタムラ,0
179,1220003000957,登記記録の閉鎖等,0,2024-11-25,2024-11-20,合同会社嘉乃屋,,合同会社,石川県,加賀市,湖城町３丁目２８８番地,,17,206,9220413,,,2024-11-20,清算の結了等,,,2015-10-05,1,,,,,カノヤ,0
180,1230002010279,登記記録の閉鎖等,0,2024-11-25,2024-11-20,有限会社ジー・シー・グローイング,,有限会社,富山県,砺波市,林７１９番地の１,,16,208,9391345,,,2024-11-20,清算の結了等,,,2015-10-05,1,,,,,ジーシーグローイング,0
187,1240002042346,登記記録の閉鎖等,0,2024-11-25,2024-11-21,有限会社花馬車,,有限会社,広島県,福山市,久松台３丁目１８番１８号,,34,207,7200083,,,2024-11-21,清算の結了等,,,2015-10-05,1,,,,,ハナバシャ,0
191,1280001003502,登記記録の閉鎖等,0,2024-11-25,2024-11-20,株式会社山下工務所,,株式会社,島根県,出雲市,多伎町口田儀６４７番地,,32,203,6990904,,,2024-11-20,清算の結了等,,,2015-10-05,1,,,,,ヤマシタコウムショ,0
192,1280001004822,登記記録の閉鎖等,0,2024-11-25,2024-11-22,大社建設株式会社,,株式会社,島根県,邑智郡美郷町,粕渕３７７番地２,,32,448,6994621,,,2024-11-22,清算の結了等,,,2015-10-05,1,,,,,タイシャケンセツ,0
207,1290802000382,登記記録の閉鎖等,0,2024-11-25,2024-11-22,有限会社アヤベマーク製作所,,有限会社,福岡県,北九州市小倉北区,赤坂５丁目１番５号,,40,106,8020032,,,2024-11-22,清算の結了等,,,2015-10-05,1,,,,,アヤベマークセイサクショ,0
218,1370502000427,登記記録の閉鎖等,0,2024-11-25,2024-11-18,有限会社阿部六,,有限会社,宮城県,本吉郡南三陸町,志津川字五日町２０１番地５Ｃ棟Ｃ－３,,04,606,9860752,,,2024-11-18,清算の結了等,,,2015-10-05,1,,,,,アベロク,0
224,1380002019140,登記記録の閉鎖等,0,2024-11-25,2024-11-11,有限会社兼正製材,,有限会社,福島県,東白川郡塙町,大字塙字末広町１３８番地,,07,483,9635405,,,2024-11-11,清算の結了等,,,2015-10-05,1,,,,,カネショウセイザイ,0
227,1390001014356,登記記録の閉鎖等,0,2024-11-25,2024-11-15,ルーク株式会社,,株式会社,山形県,米沢市,大字下新田２４３４番地の１,,06,202,9920111,,,2024-11-15,清算の結了等,,,2016-01-14,1,,,,,ルーク,0
232,1420001008817,登記記録の閉鎖等,0,2024-11-25,2024-11-21,株式会社秋谷,,株式会社,青森県,青森市,妙見３丁目３－２８,,02,201,0300121,,,2024-11-21,清算の結了等,,,2015-10-05,1,,,,,アキヤ,0
240,1450003002170,登記記録の閉鎖等,0,2024-11-25,2024-11-21,合同会社エコバース,,合同会社,北海道,上川郡東川町,西町３丁目１２番１７号,,01,458,0711425,,,2024-11-21,清算の結了等,,,2022-01-19,1,,,,,エコバース,0
268,2010501036060,登記記録の閉鎖等,0,2024-11-25,2024-11-20,ＧＦプランニング株式会社,,株式会社,東京都,台東区,北上野２丁目１番１６号エム・ワイビル４０１号室,,13,106,1100014,,,2024-11-20,清算の結了等,,,2015-10-05,1,,,,,ジーエフプランニング,0
279,2010901010706,登記記録の閉鎖等,0,2024-11-25,2024-11-19,株式会社プランアール,,株式会社,東京都,八王子市,初沢町１２３１番地５１,,13,201,1930845,,,2024-11-19,清算の結了等,,,2015-10-05,1,,,,,プランアール,0
282,2011001042565,登記記録の閉鎖等,0,2024-11-25,2024-11-20,ギャラリア株式会社,,株式会社,東京都,渋谷区,道玄坂１丁目２２番９号,,13,113,1500043,,,2024-11-20,清算の結了等,,,2015-10-05,1,,,,,ギャラリア,0
308,2011802011611,登記記録の閉鎖等,0,2024-11-25,2024-11-20,有限会社木下和行商店,,有限会社,東京都,足立区,谷中２丁目１０番１２号,,13,121,1200006,,,2024-11-20,清算の結了等,,,2015-10-05,1,,,,,キノシタカズユキショウテン,0
310,2012401002646,登記記録の閉鎖等,0,2024-11-25,2024-11-11,株式会社武蔵野ソフトウエア,,株式会社,東京都,国分寺市,西町３丁目５番地３７,,13,214,1850035,,,2024-11-11,清算の結了等,,,2015-10-05,1,,,,,ムサシノソフトウエア,0
313,2012801018845,登記記録の閉鎖等,0,2024-11-25,2024-11-12,株式会社プラスト,,株式会社,東京都,日野市,平山３丁目４３番地の８,,13,212,1910043,,,2024-11-12,清算の結了等,,,2018-07-04,1,,,,,プラスト,0
316,2013303004870,登記記録の閉鎖等,0,2024-11-25,2024-11-13,ル・クレールブラン合同会社,,合同会社,東京都,豊島区,巣鴨４丁目２６番８号,,13,116,1700002,,,2024-11-13,清算の結了等,,,2019-11-05,1,,,,,ルクレールブラン,0
318,2020001006884,登記記録の閉鎖等,0,2024-11-25,2024-11-14,株式会社晴嵐,,株式会社,神奈川県,横浜市金沢区,釜利谷東３丁目２番４３－１０１号,,14,108,2360042,,,2024-11-14,清算の結了等,,,2015-10-05,1,,,,,セイラン,0
330,2020001151821,登記記録の閉鎖等,0,2024-11-25,2024-11-14,株式会社ＪＥＰＬＡＮ　Ｈｏｌｄｉｎｇｓ,,株式会社,神奈川県,川崎市川崎区,扇町１２番２号,,14,131,2100867,,,2024-11-14,清算の結了等,,,2023-06-05,1,,,,,ジェプランホールディングス,0
344,2021002052455,登記記録の閉鎖等,0,2024-11-25,2024-11-22,有限会社谷口クリーニング,,有限会社,神奈川県,小田原市,蓮正寺１３３番地の２４,00013631,14,206,2500865,,,2024-11-22,清算の結了等,,,2015-10-05,1,,,,,タニグチクリーニング,0
353,2040001034090,登記記録の閉鎖等,0,2024-11-25,2024-11-20,株式会社エムズワーカーズ,,株式会社,千葉県,市川市,二俣１丁目１０番２７号,,12,203,2720001,,,2024-11-20,清算の結了等,,,2015-10-05,1,,,,,エムズワーカーズ,0
359,2040003012037,登記記録の閉鎖等,0,2024-11-25,2024-11-20,合同会社ＡＥＧＩＳ,,合同会社,千葉県,千葉市中央区,新田町３９番３１－１４０５号,,12,101,2600027,,,2024-11-20,清算の結了等,,,2018-08-15,1,,,,,イージス,0
372,2080401022146,登記記録の閉鎖等,0,2024-11-25,2024-11-22,株式会社カネコウ,,株式会社,静岡県,磐田市,上野部１６００番地８,,22,211,4380111,,,2024-11-22,清算の結了等,,,2017-04-26,1,,,,,カネコウ,0
388,2120001187095,登記記録の閉鎖等,0,2024-11-25,2024-11-21,株式会社大空,,株式会社,大阪府,大阪市東住吉区,今川７丁目１０番２８号,,27,121,5460003,,,2024-11-21,清算の結了等,,,2015-10-05,1,,,,,オオゾラ,0
411,2140002019527,登記記録の閉鎖等,0,2024-11-25,2024-11-20,有限会社アドベンチストエリヤ会,,有限会社,兵庫県,神戸市北区,有野台８丁目４番の１三育センター内,,28,109,6511321,,,2024-11-20,清算の結了等,,,2015-10-05,1,,,,,アドベンチストエリヤカイ,0
412,2140002062452,登記記録の閉鎖等,0,2024-11-25,2024-11-20,有限会社加美グリーン,,有限会社,兵庫県,多可郡多可町,中区奥中９７１番地１０,,28,365,6791107,,,2024-11-20,清算の結了等,,,2015-10-05,1,,,,,カミグリーン,0
419,2180001081490,登記記録の閉鎖等,0,2024-11-25,2024-11-18,株式会社三英ホーム,,株式会社,愛知県,丹羽郡扶桑町,大字南山名字神地１０番地１,,23,362,4800105,,,2024-11-18,清算の結了等,,,2015-10-05,1,,,,,サンエイホーム,0
431,2180005017763,登記記録の閉鎖等,0,2024-11-25,2024-11-19,特定非営利活動法人名古屋画像診断支援センター,,その他の設立登記法人,愛知県,名古屋市瑞穂区,松月町５丁目３７番地の１,,23,108,4670004,,,2024-11-19,清算の結了等,,,2018-04-10,1,,,,,ナゴヤガゾウシンダンシエンセンター,0
478,2350003003657,登記記録の閉鎖等,0,2024-11-25,2024-10-28,合同会社ＫＯＵコンサルティング,,合同会社,宮崎県,宮崎市,江南２丁目２５－１２,,45,201,8800944,,,2024-10-28,清算の結了等,,,2020-09-04,1,,,,,コウコンサルティング,0
485,2380001007657,登記記録の閉鎖等,0,2024-11-25,2024-11-13,株式会社　オール・セインツ,,株式会社,福島県,郡山市,方八町２丁目２番１１号,,07,203,9638811,,,2024-11-13,清算の結了等,,,2015-10-05,1,,,,,,0
488,2420003001645,登記記録の閉鎖等,0,2024-11-25,2024-11-22,オーバルＢｉｚ合同会社,,合同会社,青森県,青森市,富田５丁目２番４５号,,02,201,0380004,,,2024-11-22,清算の結了等,,,2016-10-25,1,,,,,,0
493,2470001008167,登記記録の閉鎖等,0,2024-11-25,2024-11-20,四国建設工業株式会社,,株式会社,香川県,仲多度郡琴平町,４５番地,,37,403,7660001,,,2024-11-20,合併による解散等,4470001008066,令和６年１１月２０日香川県善通寺市櫛梨町５００番地１大企建設株式会社（4470001008066）に合併し解散,2015-10-05,1,,,,,シコクケンセツコウギョウ,0
495,2470002006649,登記記録の閉鎖等,0,2024-11-25,2024-11-20,有限会社ミストラル,,有限会社,香川県,高松市,亀井町３番地８,,37,201,7600050,,,2024-11-20,清算の結了等,,,2015-10-05,1,,,,,ミストラル,0
507,3010001182115,登記記録の閉鎖等,0,2024-11-25,2024-11-08,株式会社ＭＹＣＩＴＹ,,株式会社,東京都,中央区,日本橋本町３丁目８番３号日本橋ライフサイエンスビルディング３,,13,102,1030023,,,2024-11-08,合併による解散等,4011001098069,令和６年１１月１日東京都中央区日本橋本町三丁目８番３号日本橋ライフサイエンスビルディング３株式会社ＥＬＥＭＥＮＴＳ（4011001098069）に合併し解散,2017-03-22,1,,,,,マイシティ,0
527,3010701002729,登記記録の閉鎖等,0,2024-11-25,2024-11-19,株式会社キリーインターナショナル,,株式会社,東京都,品川区,南大井２丁目１２番５－８１６号,,13,109,1400013,,,2024-11-19,清算の結了等,,,2015-10-05,1,,,,,キリーインターナショナル,0
546,3011101071406,登記記録の閉鎖等,0,2024-11-25,2024-11-01,株式会社イケメン企画,,株式会社,東京都,渋谷区,渋谷１丁目２０番１７号,,13,113,1500002,,,2024-11-01,清算の結了等,,,2015-10-05,1,,,,,,0
548,3011201004166,登記記録の閉鎖等,0,2024-11-25,2024-11-15,株式会社日本メールシステム,,株式会社,東京都,練馬区,大泉町１丁目２２番３号,,13,120,1780062,,,2024-11-15,清算の結了等,,,2015-10-05,1,,,,,ニホンメールシステム,0
553,3011503003618,登記記録の閉鎖等,0,2024-11-25,2024-11-20,合同会社藤田運送,,合同会社,東京都,荒川区,西尾久２丁目３０番８号１階,,13,118,1160011,,,2024-11-20,清算の結了等,,,2018-05-07,1,,,,,フジタウンソウ,0
561,3012402015539,登記記録の閉鎖等,0,2024-11-25,2024-11-22,有限会社ゆーらいふ,,有限会社,東京都,調布市,緑ケ丘１丁目３７番地４９,,13,208,1820001,,,2024-11-22,清算の結了等,,,2015-10-05,1,,,,,ユーライフ,0
569,3013201005722,登記記録の閉鎖等,0,2024-11-25,2024-11-12,美晴電鍍工業株式会社,,株式会社,埼玉県,入間郡三芳町,大字竹間沢６番地１４,,11,324,3540043,,,2024-11-12,清算の結了等,,,2015-10-05,1,,,,,ミハルデントコウギョウ,0
586,3020005006062,登記記録の閉鎖等,0,2024-11-25,2024-11-12,特定非営利活動法人木の実の会,,その他の設立登記法人,神奈川県,横浜市青葉区,奈良１丁目２２番地１鴨志田第２ビル２０３号,,14,117,2270038,,,2024-11-12,清算の結了等,,,2015-10-05,1,,,,,キノミノカイ,0
589,3030001031501,登記記録の閉鎖等,0,2024-11-25,2024-11-21,株式会社ならや,,株式会社,埼玉県,幸手市,中３丁目１番５号,,11,240,3400115,,,2024-11-21,清算の結了等,,,2015-10-05,1,,,,,ナラヤ,0
599,3030002025691,登記記録の閉鎖等,0,2024-11-25,2024-11-20,有限会社臼田自動車整備工場,,有限会社,埼玉県,蕨市,北町３丁目１０番１６号,,11,223,3350001,,,2024-11-20,清算の結了等,,,2015-10-05,1,,,,,ウスダジドウシャセイビコウジョウ,0
603,3030003011253,登記記録の閉鎖等,0,2024-11-25,2024-11-20,合同会社ＭＡＰＲＯＰ,,合同会社,埼玉県,ふじみ野市,苗間２４０番地８,,11,245,3560052,,,2024-11-20,清算の結了等,,,2018-01-10,1,,,,,マップロップ,0
613,3040002008571,登記記録の閉鎖等,0,2024-11-25,2024-11-20,有限会社長嶋ブロツク,,有限会社,千葉県,千葉市中央区,村田町７７７番地,,12,101,2600825,,,2024-11-20,清算の結了等,,,2015-10-05,1,,,,,ナガシマブロック,0
621,3060001036588,登記記録の閉鎖等,0,2024-11-25,2024-11-21,株式会社マルクト,,株式会社,栃木県,宇都宮市,上戸祭３丁目４番１６号,,09,201,3200058,,,2024-11-21,清算の結了等,,,2023-11-27,1,,,,,マルクト,0
626,3080002009855,登記記録の閉鎖等,0,2024-11-25,2024-11-20,有限会社コスミック,,有限会社,静岡県,静岡市清水区,船越１丁目１４番２２号,,22,103,4240866,,,2024-11-20,清算の結了等,,,2015-10-05,1,,,,,コスミック,0
628,3110001035477,登記記録の閉鎖等,0,2024-11-25,2024-11-07,株式会社ユナイテッドスタジオパートナーズ,,株式会社,新潟県,上越市,本町２丁目２番２７－１００１,,15,222,9430832,,,2024-11-07,清算の結了等,,,2021-01-26,1,,,,,ユナイテッドスタジオパートナーズ,0
630,3110002026681,登記記録の閉鎖等,0,2024-11-25,2024-11-22,有限会社アダチ,,有限会社,新潟県,長岡市,江陽２丁目７番２号,,15,202,9402015,,,2024-11-22,清算の結了等,,,2015-10-05,1,,,,,アダチ,0
631,3120001019215,登記記録の閉鎖等,0,2024-11-25,2024-11-20,ヨシナガデンキ株式会社,,株式会社,大阪府,大阪市生野区,巽中３丁目２０番１９号,00027702,27,116,5440013,,,2024-11-20,清算の結了等,,,2015-10-05,1,,,,,ヨシナガデンキ,0
643,3120005019384,登記記録の閉鎖等,0,2024-11-25,2024-11-22,一般社団法人日中医療福祉推進協会,,その他の設立登記法人,大阪府,大阪市東住吉区,駒川５丁目２２番１８号,,27,121,5460043,,,2024-11-22,清算の結了等,,,2017-04-05,1,,,,,ニッチュウイリョウフクシスイシンキョウカイ,0
651,3130001021814,登記記録の閉鎖等,0,2024-11-25,2024-11-20,株式会社トキワビル,,株式会社,京都府,京都市中京区,烏丸通蛸薬師南入手洗水町６４７番地,,26,104,6040000,,,2024-11-20,合併による解散等,7130001044910,令和６年１１月２０日京都市左京区松ケ崎泉川町１０番地親友会ホールディングス株式会社（7130001044910）に合併し解散,2015-10-05,1,,,,,トキワビル,0
671,3180001059759,登記記録の閉鎖等,0,2024-11-25,2024-11-14,株式会社エーティージー,,株式会社,愛知県,名古屋市千種区,京命１丁目１番２１号,,23,101,4640004,,,2024-11-14,清算の結了等,,,2015-10-05,1,,,,,エーティージー,0
675,3180001156977,登記記録の閉鎖等,0,2024-11-25,2024-11-15,株式会社ミズホ美装,,株式会社,愛知県,日進市,折戸町定納９０番地２,,23,230,4700115,,,2024-11-15,清算の結了等,,,2023-07-05,1,,,,,ミズホビソウ,0
677,3180002020612,登記記録の閉鎖等,0,2024-11-25,2024-11-18,有限会社日光発條製作所,,有限会社,愛知県,名古屋市熱田区,伝馬３丁目２番２２号,,23,109,4560034,,,2024-11-18,清算の結了等,,,2015-10-05,1,,,,,ニッコウハツジョウセイサクジョ,0
680,3180003021361,登記記録の閉鎖等,0,2024-11-25,2024-11-15,Ｔｈｉｃｋ　ｔｒｅｅ　ａｎｄ　ｒｏｏｔｓ合同会社,,合同会社,愛知県,名古屋市東区,白壁２丁目１番２３号吉田ビル三階,,23,102,4610011,,,2024-11-15,清算の結了等,,,2020-07-09,1,,,,,シックツリーアンドルーツ,0
687,3210005004658,登記記録の閉鎖等,0,2024-11-25,2024-11-20,特定非営利活動法人エコグループ福井,,その他の設立登記法人,福井県,越前市,戸谷町第７５号１１番地,,18,209,9150003,,,2024-11-20,清算の結了等,,,2015-10-05,1,,,,,エコグループフクイ,0
702,3280001004473,登記記録の閉鎖等,0,2024-11-25,2024-11-22,株式会社かくれの里ゆかり,,株式会社,島根県,浜田市,旭町木田１００６番地１,,32,202,6970427,,,2024-11-22,清算の結了等,,,2015-10-05,1,,,,,カクレノサトユカリ,0
710,3290001099942,登記記録の閉鎖等,0,2024-11-25,2024-10-25,株式会社Ｘエンジニアリング,,株式会社,福岡県,福岡市博多区,博多駅前３丁目４番２５号アクロスキューブ博多駅前,,40,132,8120011,,,2024-10-25,清算の結了等,,,2022-12-16,1,,,,,エックスエンジニアリング,0
718,3290005007785,登記記録の閉鎖等,0,2024-11-25,2024-10-31,飯塚コスモスタンプ事業協同組合,,その他の設立登記法人,福岡県,飯塚市,飯塚１１番２０号,,40,205,8200041,,,2024-10-31,清算の結了等,,,2015-10-05,1,,,,,イイヅカコスモスタンプ,0
719,3290005015136,登記記録の閉鎖等,0,2024-11-25,2024-10-29,ＮＰＯ法人結いの郷,,その他の設立登記法人,福岡県,春日市,小倉４丁目１３４番地,,40,218,8160824,,,2024-10-29,清算の結了等,,,2015-10-05,1,,,,,,0
772,4010003034759,登記記録の閉鎖等,0,2024-11-25,2024-11-12,合同会社オルタナ４,,合同会社,東京都,千代田区,丸の内３丁目１番１号東京共同会計事務所内,,13,101,1000005,,,2024-11-12,清算の結了等,,,2021-05-06,1,,,,,オルタナフォー,0
779,4010401056801,登記記録の閉鎖等,0,2024-11-25,2024-11-14,伸誠ハウジング株式会社,,株式会社,東京都,豊島区,巣鴨３丁目３４番１０号イーグル巣鴨３０５,,13,116,1700002,,,2024-11-14,清算の結了等,,,2015-10-05,1,,,,,シンセイハウジング,0
781,4010401071206,登記記録の閉鎖等,0,2024-11-25,2024-11-08,株式会社ＷＯＲＬＤ　ＣＯＭ　ＪＡＰＡＮ,,株式会社,東京都,港区,東新橋２丁目１０番２号,,13,103,1050021,,,2024-11-08,清算の結了等,,,2015-10-05,1,,,,,,0
783,4010401126174,登記記録の閉鎖等,0,2024-11-25,2024-11-01,株式会社オルティック,,株式会社,東京都,渋谷区,代々木２丁目２３番１号,,13,113,1510053,,,2024-11-01,清算の結了等,,,2016-07-22,1,,,,,オルティック,0
790,4010405021280,登記記録の閉鎖等,0,2024-11-25,2024-11-07,特定目的会社カフー,,その他の設立登記法人,東京都,港区,西新橋１丁目２番９号メンターキャピタル税理士法人内,,13,103,1050003,,,2024-11-07,清算の結了等,,,2022-08-15,1,,,,,カフー,0
796,4010901003393,登記記録の閉鎖等,0,2024-11-25,2024-11-20,株式会社久保田プランニング,,株式会社,東京都,世田谷区,岡本１丁目７番１７号,,13,112,1570076,,,2024-11-20,清算の結了等,,,2015-10-05,1,,,,,クボタプランニング,0
801,4011001045590,登記記録の閉鎖等,0,2024-11-25,2024-11-01,株式会社ラウンジ,,株式会社,東京都,渋谷区,道玄坂２丁目１１番４号ストークビル道玄坂８階,,13,113,1500043,,,2024-11-01,清算の結了等,,,2015-10-05,1,,,,,ラウンジ,0
828,4012801021541,登記記録の閉鎖等,0,2024-11-25,2024-11-11,株式会社ＳＡＶＥＹ,,株式会社,東京都,国分寺市,西町３丁目１４番地７,,13,214,1850035,,,2024-11-11,清算の結了等,,,2022-05-09,1,,,,,セイヴィー,0
831,4020001013565,登記記録の閉鎖等,0,2024-11-25,2024-11-14,株式会社バローネ,,株式会社,神奈川県,横浜市南区,六ツ川１丁目６３１番地,,14,105,2320066,,,2024-11-14,清算の結了等,,,2015-10-05,1,,,,,バローネ,0
837,4020002076553,登記記録の閉鎖等,0,2024-11-25,2024-11-11,有限会社ｅｍ－Ｔｅｃｈ,,有限会社,神奈川県,横浜市都筑区,茅ケ崎南３丁目１８番２７－１号,,14,118,2240037,,,2024-11-11,清算の結了等,,,2015-10-05,1,,,,,エムテック,0
861,4040005005929,登記記録の閉鎖等,0,2024-11-25,2024-11-20,特定非営利活動法人ベトナム人材育成支援の会,,その他の設立登記法人,千葉県,松戸市,松戸１８３４番地の９株式会社ビナセーコー内,,12,207,2710092,,,2024-11-20,清算の結了等,,,2015-10-05,1,,,,,ベトナムジンザイイクセイシエンノカイ,0
864,4070001003140,登記記録の閉鎖等,0,2024-11-25,2024-11-21,株式会社みくに労務管理事務所,,株式会社,群馬県,前橋市,朝日町３丁目１２番２０号,,10,201,3710014,,,2024-11-21,清算の結了等,,,2015-10-05,1,,,,,ミクニロウムカンリジムショ,0
868,4080401003400,登記記録の閉鎖等,0,2024-11-25,2024-11-21,株式会社東海結婚情報サービス,,株式会社,静岡県,浜松市中央区,西伊場町２５番１５号,,22,138,4328038,,,2024-11-21,清算の結了等,,,2015-10-05,1,,,,,トウカイケッコンジョウホウサービス,0
877,4120001099776,登記記録の閉鎖等,0,2024-11-25,2024-11-18,株式会社ジョイフル,,株式会社,奈良県,奈良市,大宮町３丁目３番１２号,,29,201,6308115,,,2024-11-18,清算の結了等,,,2015-10-05,1,,,,,ジョイフル,0
891,4120002080776,登記記録の閉鎖等,0,2024-11-25,2024-11-21,有限会社古市研磨工業所,,有限会社,大阪府,守口市,南寺方東通５丁目２０番３３号,,27,209,5700043,,,2024-11-21,清算の結了等,,,2015-10-05,1,,,,,フルイチケンマコウギョウショ,0
898,4120102018544,登記記録の閉鎖等,0,2024-11-25,2024-11-20,有限会社押野包材,,有限会社,大阪府,藤井寺市,大井４丁目６番１４号,,27,226,5830008,,,2024-11-20,清算の結了等,,,2015-10-05,1,,,,,オシノホウザイ,0
910,4130001049391,登記記録の閉鎖等,0,2024-11-25,2024-11-19,株式会社矢野,,株式会社,京都府,与謝郡与謝野町,字岩滝１１８０番地,,26,465,6292262,,,2024-11-19,清算の結了等,,,2015-10-05,1,,,,,ヤノ,0
911,4130002001673,登記記録の閉鎖等,0,2024-11-25,2024-11-20,有限会社モモ,,有限会社,京都府,京都市右京区,西院高山寺町１２番地の９,,26,108,6150012,,,2024-11-20,清算の結了等,,,2015-10-05,1,,,,,モモ,0
915,4130005015761,登記記録の閉鎖等,0,2024-11-25,2024-11-19,一般社団法人北近畿無人航空機普及協会,,その他の設立登記法人,京都府,舞鶴市,字引土４２７番地の１７,,26,202,6240841,,,2024-11-19,清算の結了等,,,2019-11-29,1,,,,,キタキンキムジンコウクウキフキュウキョウカイ,0
928,4180001114307,登記記録の閉鎖等,0,2024-11-25,2024-11-15,株式会社青雲,,株式会社,愛知県,名古屋市東区,出来町２丁目８番８号,,23,102,4610032,,,2024-11-15,清算の結了等,,,2015-10-05,1,,,,,セイウン,0
935,4180002011148,登記記録の閉鎖等,0,2024-11-25,2024-11-14,有限会社角屋,,有限会社,愛知県,名古屋市北区,大曽根３丁目１４番４１号,,23,103,4620825,,,2024-11-14,清算の結了等,,,2015-10-05,1,,,,,カドヤ,0
939,4180301011658,登記記録の閉鎖等,0,2024-11-25,2024-11-18,株式会社楽建,,株式会社,愛知県,蒲郡市,中央本町１２番１６号,,23,214,4430057,,,2024-11-18,清算の結了等,,,2015-10-05,1,,,,,ラッケン,0
956,4290001018059,登記記録の閉鎖等,0,2024-11-25,2024-10-25,ヒューテック株式会社,,株式会社,福岡県,那珂川市,松木６丁目７番２８号,,40,231,8111251,,,2024-10-25,清算の結了等,,,2015-10-05,1,,,,,ヒューテック,0
992,4390002005962,登記記録の閉鎖等,0,2024-11-25,2024-11-18,有限会社ベル企画,,有限会社,山形県,東村山郡山辺町,大字山辺１２８３番地,,06,301,9900301,,,2024-11-18,清算の結了等,,,2015-10-05,1,,,,,ベルキカク,0
993,4400001004963,登記記録の閉鎖等,0,2024-11-25,2024-11-20,川目印刷株式会社,,株式会社,岩手県,盛岡市,西見前１８地割１２８番地４,,03,201,0200833,,,2024-11-20,清算の結了等,,,2015-10-05,1,,,,,カワメインサツ,0
1000,4460305000208,登記記録の閉鎖等,0,2024-11-25,2024-11-22,置戸町勤労者厚生企業組合,,その他の設立登記法人,北海道,常呂郡置戸町,字置戸１０番地,,01,550,0991100,,,2024-11-22,清算の結了等,,,2015-10-05,1,,,,,オケトチョウキンロウシャコウセイ,0
1010,5010001061614,登記記録の閉鎖等,0,2024-11-25,2024-11-12,東京プレシジョン株式会社,,株式会社,東京都,千代田区,内神田１丁目５番１６号,,13,101,1010047,,,2024-11-12,清算の結了等,,,2015-10-05,1,,,,,トウキョウプレシジョン,0
1021,5010101011592,登記記録の閉鎖等,0,2024-11-25,2024-11-20,株式会社コダマ建業,,株式会社,東京都,八王子市,中山８４４番地１２,,13,201,1920374,,,2024-11-20,清算の結了等,,,2015-10-05,1,,,,,コダマケンギョウ,0
1050,5011001155570,登記記録の閉鎖等,0,2024-11-25,2024-11-07,株式会社ｅｍｕ,,株式会社,東京都,目黒区,目黒本町４丁目２５番１９号,,13,110,1520002,,,2024-11-07,清算の結了等,,,2023-07-10,1,,,,,エム,0
1054,5011101045201,登記記録の閉鎖等,0,2024-11-25,2024-11-13,株式会社フウカ,,株式会社,東京都,新宿区,新宿１丁目１２番１号,,13,104,1600022,,,2024-11-13,清算の結了等,,,2015-10-05,1,,,,,フウカ,0
1075,5012401022550,登記記録の閉鎖等,0,2024-11-25,2024-11-20,株式会社龍慶,,株式会社,東京都,杉並区,今川３丁目３番７－６０１号,,13,115,1670035,,,2024-11-20,清算の結了等,,,2015-10-05,1,,,,,リュウケイ,0
1077,5012402008895,登記記録の閉鎖等,0,2024-11-25,2024-11-22,有限会社シーリングネットワーク,,有限会社,東京都,府中市,若松町１丁目１０番地の９メゾンワカバ１０５,,13,206,1830005,,,2024-11-22,清算の結了等,,,2015-10-05,1,,,,,,0
1078,5012402022525,登記記録の閉鎖等,0,2024-11-25,2024-11-22,有限会社いずみオフィス,,有限会社,東京都,府中市,若松町１丁目９番地の１１ベレーサ東府中３０５,,13,206,1830005,,,2024-11-22,清算の結了等,,,2015-10-05,1,,,,,,0
1091,5020002052909,登記記録の閉鎖等,0,2024-11-25,2024-11-13,有限会社マークス,,有限会社,神奈川県,横浜市青葉区,市ケ尾町１１５４－２市ヶ尾プラーザビル９０６,,14,117,2250024,,,2024-11-13,清算の結了等,,,2015-10-05,1,,,,,マークス,0
1102,5030002099759,登記記録の閉鎖等,0,2024-11-25,2024-11-21,有限会社青木鋳造所,,有限会社,埼玉県,川口市,上青木西３丁目１番２号,,11,203,3330845,,,2024-11-21,清算の結了等,,,2015-10-05,1,,,,,アオキチュウゾウショ,0
1108,5040001053609,登記記録の閉鎖等,0,2024-11-25,2024-11-19,株式会社イケシン,,株式会社,千葉県,市原市,五井８８５４番地,,12,219,2900056,,,2024-11-19,清算の結了等,,,2015-10-05,1,,,,,イケシン,0
1111,5040001105277,登記記録の閉鎖等,0,2024-11-25,2024-11-20,株式会社宮岡電気,,株式会社,千葉県,市原市,安久谷１０７番地１２,,12,219,2900509,,,2024-11-20,清算の結了等,,,2018-07-06,1,,,,,ミヤオカデンキ,0
1115,5040005020877,登記記録の閉鎖等,0,2024-11-25,2024-11-20,特定非営利活動法人まつど子どもの今と未来応援基金,,その他の設立登記法人,千葉県,松戸市,幸田３丁目１５８番地の２,,12,207,2700001,,,2024-11-20,清算の結了等,,,2020-07-28,1,,,,,マツドコドモノイマトミライオウエンキキン,0
1129,5080002015802,登記記録の閉鎖等,0,2024-11-25,2024-11-19,有限会社三盛工業,,有限会社,静岡県,焼津市,道原１２２８番地,,22,212,4250055,,,2024-11-19,清算の結了等,,,2015-10-05,1,,,,,サンセイコウギョウ,0
1132,5080401004521,登記記録の閉鎖等,0,2024-11-25,2024-11-20,株式会社ビジネスブレイン鈴木,,株式会社,静岡県,浜松市中央区,助信町２３番３６号,,22,138,4300903,,,2024-11-20,清算の結了等,,,2015-10-05,1,,,,,ビジネスブレインスズキ,0
1136,5080402003299,登記記録の閉鎖等,0,2024-11-25,2024-11-20,有限会社佐藤技研,,有限会社,静岡県,浜松市中央区,初生町４４４番地の４,,22,138,4338112,,,2024-11-20,清算の結了等,,,2015-10-05,1,,,,,サトウギケン,0
1137,5080402018751,登記記録の閉鎖等,0,2024-11-25,2024-11-20,有限会社藤原工務店,,有限会社,静岡県,菊川市,半済３１２８番地,,22,224,4390019,,,2024-11-20,清算の結了等,,,2015-10-05,1,,,,,フジワラコウムテン,0
1139,5100002004075,登記記録の閉鎖等,0,2024-11-25,2024-11-15,有限会社橋山商店,,有限会社,長野県,長野市,大字鶴賀上千歳町１４０９番地１,,20,201,3800821,,,2024-11-15,清算の結了等,,,2015-10-05,1,,,,,ハシヤマショウテン,0
1142,5120001159513,登記記録の閉鎖等,0,2024-11-25,2024-11-18,パナソニックエレクトリックワークスクリエイツ株式会社,,株式会社,大阪府,門真市,大字門真１０４８番地,,27,223,5710050,,,2024-11-18,清算の結了等,,,2015-10-05,1,,,,,パナソニックエレクトリックワークスクリエイツ,0
1143,5120001183703,登記記録の閉鎖等,0,2024-11-25,2024-11-21,株式会社東西設備工業,,株式会社,大阪府,寝屋川市,点野３丁目１２番２０号,,27,215,5720077,,,2024-11-21,清算の結了等,,,2015-10-05,1,,,,,トウザイセツビコウギョウ,0
1159,5122001017576,登記記録の閉鎖等,0,2024-11-25,2024-11-21,株式会社アクト,,株式会社,大阪府,八尾市,垣内１丁目６７番地,,27,212,5810881,,,2024-11-21,清算の結了等,,,2015-10-05,1,,,,,,0
1171,5160002010266,登記記録の閉鎖等,0,2024-11-25,2024-11-19,有限会社ミモザファーム,,有限会社,滋賀県,東近江市,小池町２４６番地,,25,213,5270121,,,2024-11-19,清算の結了等,,,2015-10-05,1,,,,,ミモザファーム,0
1173,5180001020306,登記記録の閉鎖等,0,2024-11-25,2024-11-14,鳥居電気工事株式会社,,株式会社,愛知県,名古屋市中川区,中島新町２丁目１５２１番地,,23,110,4540932,,,2024-11-14,清算の結了等,,,2015-10-05,1,,,,,トリイデンキコウジ,0
1175,5180001143172,登記記録の閉鎖等,0,2024-11-25,2024-11-15,株式会社丸昇,,株式会社,愛知県,名古屋市北区,楠２丁目３２０番地の１,,23,103,4620012,,,2024-11-15,清算の結了等,,,2020-10-08,1,,,,,マルショウ,0
1177,5180001155201,登記記録の閉鎖等,0,2024-11-25,2024-11-15,株式会社真鈴パーツ,,株式会社,愛知県,名古屋市名東区,猪子石２丁目１６１０番地,,23,115,4650021,,,2024-11-15,清算の結了等,,,2023-03-07,1,,,,,マリンパーツ,0
1196,5250001003088,登記記録の閉鎖等,0,2024-11-25,2024-11-21,小野田工業株式会社,,株式会社,山口県,宇部市,大字東須恵２５５５番地,,35,202,7590206,,,2024-11-21,清算の結了等,,,2015-10-05,1,,,,,オノダコウギョウ,0
1201,5290001014040,登記記録の閉鎖等,0,2024-11-25,2024-10-29,スリーアイ株式会社,,株式会社,福岡県,福岡市早良区,干隈６丁目１番９号,,40,137,8140163,,,2024-10-29,清算の結了等,,,2015-10-05,1,,,,,スリーアイ,0
1203,5290001048625,登記記録の閉鎖等,0,2024-11-25,2024-10-24,株式会社キュウシュウ機械,,株式会社,福岡県,久留米市,野中町７０７番地の１,,40,203,8390862,,,2024-10-24,清算の結了等,,,2015-10-05,1,,,,,キュウシュウキカイ,0
1204,5290001059531,登記記録の閉鎖等,0,2024-11-25,2024-10-30,株式会社大新建設,,株式会社,福岡県,福岡市南区,野間１丁目９番１９－１０１号,,40,134,8150041,,,2024-10-30,清算の結了等,,,2015-10-05,1,,,,,ダイシンケンセツ,0
1205,5290001066817,登記記録の閉鎖等,0,2024-11-25,2024-10-28,株式会社ＮＩＮＥ　ＦＡＶＯＲ,,株式会社,福岡県,福岡市中央区,地行１丁目１５番６号,,40,133,8100064,,,2024-10-28,清算の結了等,,,2015-10-05,1,,,,,ナインフェイバー,0
1218,5290002047840,登記記録の閉鎖等,0,2024-11-25,2024-10-24,有限会社大博工業,,有限会社,福岡県,八女市,蒲原１０５１番地の１,,40,210,8340064,,,2024-10-24,清算の結了等,,,2015-10-05,1,,,,,ダイハクコウギョウ,0
1229,5340001013326,登記記録の閉鎖等,0,2024-11-25,2024-11-19,株式会社ヤマグチ,,株式会社,鹿児島県,伊佐市,菱刈前目２４３７番地,,46,224,8952701,,,2024-11-19,清算の結了等,,,2015-10-05,1,,,,,ヤマグチ,0
1236,5360003007794,登記記録の閉鎖等,0,2024-11-25,2024-11-21,合同会社西崎陸運,,合同会社,沖縄県,糸満市,字潮平５９１番地の５,,47,210,9010302,,,2024-11-21,清算の結了等,,,2016-10-03,1,,,,,ニシザキリクウン,0
1237,5370001002251,登記記録の閉鎖等,0,2024-11-25,2024-11-18,株式会社三浦勇工務店,,株式会社,宮城県,仙台市太白区,秋保町湯元字石名坂１番地４,,04,104,9820241,,,2024-11-18,清算の結了等,,,2015-10-05,1,,,,,,0
1243,5380001027677,登記記録の閉鎖等,0,2024-11-25,2024-11-13,株式会社ＡＬＩＶＥ,,株式会社,福島県,郡山市,日和田町字原１２番地の３５グランドールステージ３０５号,,07,203,9630534,,,2024-11-13,清算の結了等,,,2017-01-17,1,,,,,,0
1246,5400602001409,登記記録の閉鎖等,0,2024-11-25,2024-11-15,有限会社鈴木建設,,有限会社,岩手県,奥州市,前沢字簾森３６番地９７,00112954,03,215,0294206,,,2024-11-15,清算の結了等,,,2015-10-05,1,,,,,スズキケンセツ,0
1262,5470001006762,登記記録の閉鎖等,0,2024-11-25,2024-11-20,株式会社ノリカ,,株式会社,香川県,木田郡三木町,大字下高岡１９６４番地４,,37,341,7610704,,,2024-11-20,清算の結了等,,,2015-10-05,1,,,,,ノリカ,0
1273,6010001094357,登記記録の閉鎖等,0,2024-11-25,2024-11-11,アイレックス株式会社,,株式会社,東京都,文京区,目白台２丁目１４番１５号,,13,105,1120015,,,2024-11-11,清算の結了等,,,2015-10-05,1,,,,,アイレックス,0
1278,6010001220904,登記記録の閉鎖等,0,2024-11-25,2024-11-12,株式会社メディカルサン,,株式会社,東京都,千代田区,九段南１丁目５番６号りそな九段ビル５Ｆ・ＫＳフロア,,13,101,1020074,,,2024-11-12,清算の結了等,,,2021-09-07,1,,,,,メディカルサン,0
1301,6010802012995,登記記録の閉鎖等,0,2024-11-25,2024-11-14,峰栄商事有限会社,,有限会社,東京都,大田区,西蒲田７丁目６４番８号,,13,111,1440051,,,2024-11-14,清算の結了等,,,2015-10-05,1,,,,,ホウエイショウジ,0
1310,6011001123865,登記記録の閉鎖等,0,2024-11-25,2024-11-05,ＡＳＯＬ　Ｐｒｏｐｅｒｔｙ株式会社,,株式会社,東京都,目黒区,目黒４丁目１８番１７－１１０号,,13,110,1530063,,,2024-11-05,清算の結了等,,,2018-08-21,1,,,,,アソールプロパティ,0
1322,6011201003264,登記記録の閉鎖等,0,2024-11-25,2024-11-25,株式会社棚橋モーター商会,00054184,株式会社,東京都,中野区,中央５丁目１０番４号,,13,114,1640011,,,2024-11-25,清算の結了等,,,2015-10-05,1,,,,,タナハシモーターショウカイ,0
1329,6011803003678,登記記録の閉鎖等,0,2024-11-25,2024-11-20,合同会社ローズエフォンティラプリマヴェーラ,,合同会社,東京都,足立区,西伊興３丁目７番１２号,,13,121,1210824,,,2024-11-20,清算の結了等,,,2019-04-16,1,,,,,ローズエフォンティラプリマヴェーラ,0
1332,6012803002950,登記記録の閉鎖等,0,2024-11-25,2024-11-08,ＬＡＮＴＥＲＮ合同会社,,合同会社,東京都,国立市,東１丁目３番地の５,,13,215,1860002,,,2024-11-08,清算の結了等,,,2023-01-12,1,,,,,ランタン,0
1342,6020003011219,登記記録の閉鎖等,0,2024-11-25,2024-11-14,ＹＥＳ合同会社,,合同会社,神奈川県,川崎市宮前区,菅生ケ丘４１－１鷲ヶ峰住宅４１７,,14,136,2160014,,,2024-11-14,清算の結了等,,,2016-04-22,1,,,,,イエス,0
1372,6060002003361,登記記録の閉鎖等,0,2024-11-25,2024-11-20,株式会社ＦＫＴＭ,,株式会社,栃木県,宇都宮市,滝谷町１番９号,,09,201,3200847,,,2024-11-20,清算の結了等,,,2015-10-05,1,,,,,エフケイティーエム,0
1373,6060002027501,登記記録の閉鎖等,0,2024-11-25,2024-11-19,キッチンスタジオフォレスト有限会社,,有限会社,栃木県,矢板市,木幡１３３７番地３３,,09,211,3292142,,,2024-11-19,清算の結了等,,,2015-10-05,1,,,,,キッチンスタジオフォレスト,0
1377,6070002009498,登記記録の閉鎖等,0,2024-11-25,2024-11-20,有限会社共栄クリーニング,,有限会社,群馬県,高崎市,八千代町１丁目１２番２４号,,10,202,3700861,,,2024-11-20,清算の結了等,,,2015-10-05,1,,,,,キョウエイクリーニング,0
1385,6110001031787,登記記録の閉鎖等,0,2024-11-25,2024-11-18,株式会社ＭＩＡ,,株式会社,新潟県,新潟市北区,横井１０７４番地４,,15,101,9503311,,,2024-11-18,清算の結了等,,,2016-09-06,1,,,,,エムアイエー,0
1387,6110002002168,登記記録の閉鎖等,0,2024-11-25,2024-11-18,有限会社ケイティ興産,,有限会社,新潟県,新潟市中央区,日の出１丁目１３番９号,,15,103,9500073,,,2024-11-18,清算の結了等,,,2015-10-05,1,,,,,ケイティコウサン,0
1388,6120001205324,登記記録の閉鎖等,0,2024-11-25,2024-11-21,トップイン産業株式会社,,株式会社,大阪府,堺市北区,北花田町３丁３５番地１０号,,27,146,5918002,,,2024-11-21,清算の結了等,,,2017-05-01,1,,,,,トップインサンギョウ,0
1425,6180001084325,登記記録の閉鎖等,0,2024-11-25,2024-11-18,東名工業株式会社,,株式会社,愛知県,一宮市,開明字蒲原２番地,,23,203,4940001,,,2024-11-18,清算の結了等,,,2015-10-05,1,,,,,トウメイコウギョウ,0
1428,6180001119436,登記記録の閉鎖等,0,2024-11-25,2024-11-15,光希建設株式会社,,株式会社,愛知県,東海市,大田町蟹田３番地の８レールサイド水谷２Ａ,,23,222,4770031,,,2024-11-15,清算の結了等,,,2015-10-05,1,,,,,コウキケンセツ,0
1430,6180001143394,登記記録の閉鎖等,0,2024-11-25,2024-11-18,株式会社ＴＨＲＥＥ　Ｓ,,株式会社,愛知県,名古屋市中区,栄４丁目８番２２号,,23,106,4600008,,,2024-11-18,清算の結了等,,,2020-10-28,1,,,,,スリーエス,0
1439,6180301025920,登記記録の閉鎖等,0,2024-11-25,2024-11-18,アルファトラスト株式会社,,株式会社,愛知県,刈谷市,泉田町城前１７５番地,,23,210,4480004,,,2024-11-18,清算の結了等,,,2015-10-05,1,,,,,アルファトラスト,0
1441,6190002013793,登記記録の閉鎖等,0,2024-11-25,2024-11-21,共栄重機有限会社,,有限会社,三重県,松阪市,日丘町１３６９番地２４,,24,204,5150835,,,2024-11-21,清算の結了等,,,2015-10-05,1,,,,,キョウエイジュウキ,0
1464,6280002002408,登記記録の閉鎖等,0,2024-11-25,2024-11-18,ヤナセ工業有限会社,,有限会社,島根県,松江市,大庭町２７９番地５,,32,201,6900033,,,2024-11-18,清算の結了等,,,2015-10-05,1,,,,,ヤナセコウギョウ,0
1467,6290001007968,登記記録の閉鎖等,0,2024-11-25,2024-10-25,株式会社新川興産,,株式会社,福岡県,福岡市中央区,平尾３丁目１番６号,,40,133,8100014,,,2024-10-25,清算の結了等,,,2024-02-22,1,,,,,シンカワコウサン,0
1475,6290001074372,登記記録の閉鎖等,0,2024-11-25,2024-11-14,株式会社エルエスプラス,,株式会社,福岡県,福岡市中央区,渡辺通２丁目２番１４号,,40,133,8100004,,,2024-11-14,清算の結了等,,,2016-06-28,1,,,,,エルエスプラス,0
1477,6290001090329,登記記録の閉鎖等,0,2024-11-25,2024-10-09,株式会社セシアテック,,株式会社,福岡県,みやま市,瀬高町上庄５４９番地２,,40,229,8350025,,,2024-10-09,清算の結了等,,,2020-09-29,1,,,,,セシアテック,0
1488,6300001012966,登記記録の閉鎖等,0,2024-11-25,2024-11-20,株式会社月塗,,株式会社,佐賀県,佐賀市,西田代２丁目２番１９号,,41,201,8400045,,,2024-11-20,清算の結了等,,,2022-06-14,1,,,,,ゲット,0
1499,6370301000301,登記記録の閉鎖等,0,2024-11-25,2024-11-15,株式会社おとこざわ,,株式会社,宮城県,石巻市,桃生町新田字東町３２番地,,04,202,9860321,,,2024-11-15,清算の結了等,,,2015-10-05,1,,,,,オトコザワ,0
1508,6420002002987,登記記録の閉鎖等,0,2024-11-25,2024-11-21,株式会社山崎商事,,株式会社,青森県,青森市,東大野１丁目２１番地９,,02,201,0300847,,,2024-11-21,清算の結了等,,,2015-10-05,1,,,,,ヤマザキショウジ,0
1510,6430003006912,登記記録の閉鎖等,0,2024-11-25,2024-11-20,徳田新聞店合同会社,,合同会社,北海道,日高郡新ひだか町,静内高砂町１丁目９番２０号,,01,610,0560022,,,2024-11-20,清算の結了等,,,2015-10-05,1,,,,,トクダシンブンテン,0
1522,7010001061637,登記記録の閉鎖等,0,2024-11-25,2024-11-20,東京ボントン株式会社,,株式会社,東京都,台東区,三筋１丁目９番３号山勝ビル,,13,106,1110055,,,2024-11-20,清算の結了等,,,2015-10-05,1,,,,,トウキョウボントン,0
1529,7010002039558,登記記録の閉鎖等,0,2024-11-25,2024-11-11,有限会社コウシビ,,有限会社,東京都,文京区,本郷５丁目１８番２号,,13,105,1130033,,,2024-11-11,清算の結了等,,,2015-10-05,1,,,,,コウシビ,0
1541,7010403026304,登記記録の閉鎖等,0,2024-11-25,2024-10-29,合同会社ＲＥＡＬＰＡＲＴＮＥＲＳ－０１,,合同会社,東京都,港区,虎ノ門２丁目６番１号,,13,103,1050001,,,2024-10-29,清算の結了等,,,2021-10-14,1,,,,,リアルパートナーズゼロワン,0
1544,7010405019314,登記記録の閉鎖等,0,2024-11-25,2024-11-08,特定目的会社ＬＣＪ愛西ＩＩ,00121537,その他の設立登記法人,東京都,港区,虎ノ門５丁目１番４号,,13,103,1050001,,,2024-11-08,清算の結了等,,,2020-12-07,1,,,,,エルシージェイアイサイツー,0
1580,7011101079585,登記記録の閉鎖等,0,2024-11-25,2024-11-13,株式会社Ｔｏｒｕｓ．ａｎｄ．ｉｓ．Ｂｅ,,株式会社,東京都,新宿区,西新宿１丁目１８番２号,,13,104,1600023,,,2024-11-13,清算の結了等,,,2017-02-17,1,,,,,,0
1583,7011103011315,登記記録の閉鎖等,0,2024-11-25,2024-11-13,合同会社ＰＯＮＯＡＨ,,合同会社,東京都,新宿区,矢来町４１番地ラヴィ神楽坂１０１,,13,104,1620805,,,2024-11-13,清算の結了等,,,2021-12-24,1,,,,,ポノア,0
1596,7020001024782,登記記録の閉鎖等,0,2024-11-25,2024-11-14,横浜計器メインテナンス株式会社,,株式会社,神奈川県,横浜市神奈川区,松本町１丁目３番地の１３号,,14,102,2210841,,,2024-11-14,清算の結了等,,,2015-10-05,1,,,,,ヨコハマケイキメインテナンス,0
1603,7020005005548,登記記録の閉鎖等,0,2024-11-25,2024-11-12,医療法人社団銀杏会,,その他の設立登記法人,神奈川県,横浜市神奈川区,上反町２丁目１６番５号,,14,102,2210831,,,2024-11-12,清算の結了等,,,2015-10-05,1,,,,,イチョウカイ,0
1610,7021002040967,登記記録の閉鎖等,0,2024-11-25,2024-11-21,有限会社坂本仮設,,有限会社,神奈川県,大和市,上和田３３６０番地１,,14,213,2420014,,,2024-11-21,清算の結了等,,,2015-10-05,1,,,,,サカモトカセツ,0
1611,7021002041222,登記記録の閉鎖等,0,2024-11-25,2024-11-22,有限会社湘南ひる川,,有限会社,神奈川県,大和市,桜森２丁目１０番１４号,,14,213,2420028,,,2024-11-22,清算の結了等,,,2015-10-05,1,,,,,,0
1639,7080102011906,登記記録の閉鎖等,0,2024-11-25,2024-11-21,有限会社ヤマシタエクステリア,,有限会社,静岡県,三島市,徳倉３丁目３１番２２号,,22,206,4110044,,,2024-11-21,清算の結了等,,,2015-10-05,1,,,,,ヤマシタエクステリア,0
1650,7120001057145,登記記録の閉鎖等,0,2024-11-25,2024-11-21,株式会社東亜電機製作所,,株式会社,大阪府,大阪市淀川区,野中南１丁目２番１１号,,27,123,5320022,,,2024-11-21,清算の結了等,,,2015-10-05,1,,,,,トウアデンキセイサクショ,0
1653,7120001142938,登記記録の閉鎖等,0,2024-11-25,2024-11-21,株式会社サンクスアース,,株式会社,大阪府,大阪市西区,九条２丁目７－１４,,27,106,5500027,,,2024-11-21,清算の結了等,,,2015-10-05,1,,,,,サンクスアース,0
1661,7120002050537,登記記録の閉鎖等,0,2024-11-25,2024-11-19,有限会社マロンファミリー,,有限会社,大阪府,松原市,天美西２丁目７番３３号,,27,217,5800034,,,2024-11-19,清算の結了等,,,2015-10-05,1,,,,,マロンファミリー,0
1670,7120901013511,登記記録の閉鎖等,0,2024-11-25,2024-11-19,株式会社パークテック,,株式会社,大阪府,茨木市,南春日丘７丁目１０番１－４１０号,,27,211,5670046,,,2024-11-19,清算の結了等,,,2015-10-05,1,,,,,パークテック,0
1680,7140001078916,登記記録の閉鎖等,0,2024-11-25,2024-11-21,前田建設株式会社,,株式会社,兵庫県,伊丹市,御願塚５丁目４番４号,,28,207,6640855,,,2024-11-21,清算の結了等,,,2015-10-05,1,,,,,マエダケンセツ,0
1692,7180001147980,登記記録の閉鎖等,0,2024-11-25,2024-10-28,株式会社ママ寄り添いゆめか,,株式会社,愛知県,東海市,加木屋町中井道６２番地の２,,23,222,4770032,,,2024-10-28,清算の結了等,,,2021-09-29,1,,,,,ママヨリソイユメカ,0
1703,7190001031275,登記記録の閉鎖等,0,2024-11-25,2024-11-20,株式会社ｔｅｓｈｉｍ,,株式会社,三重県,桑名市,大字和泉４１９番地４,,24,205,5110838,,,2024-11-20,清算の結了等,,,2024-04-17,1,,,,,テシム,0
1712,7290001037700,登記記録の閉鎖等,0,2024-11-25,2024-11-08,株式会社九州テクニカルセンター,,株式会社,福岡県,古賀市,青柳町３６８番地,,40,223,8113133,,,2024-11-08,清算の結了等,,,2015-10-05,1,,,,,キュウシュウテクニカルセンター,0
1714,7290001038302,登記記録の閉鎖等,0,2024-11-25,2024-10-29,株式会社サンセン,,株式会社,福岡県,糟屋郡粕屋町,駕与丁２丁目１８番１号,,40,349,8112309,,,2024-10-29,清算の結了等,,,2015-10-05,1,,,,,サンセン,0
1716,7290002010367,登記記録の閉鎖等,0,2024-11-25,2024-10-29,有限会社銀月堂菓子舗,,有限会社,福岡県,福岡市中央区,大手門３丁目５番８号,,40,133,8100074,,,2024-10-29,清算の結了等,,,2015-10-05,1,,,,,ギンゲツドウカシホ,0
1735,7370003004995,登記記録の閉鎖等,0,2024-11-25,2024-11-18,合同会社Ｇ．ｓ,,合同会社,宮城県,仙台市青葉区,鷺ケ森１丁目８番８号啓進ハイツ第ＩＩ－２０１,00121330,04,101,9810922,,,2024-11-18,清算の結了等,,,2020-11-13,1,,,,,ジース,0
1741,7380001021447,登記記録の閉鎖等,0,2024-11-25,2024-11-13,株式会社ＴＡＫＵＳＯ,,株式会社,福島県,郡山市,駅前１丁目１１番７号,,07,203,9638002,,,2024-11-13,清算の結了等,,,2015-10-05,1,,,,,,0
1748,7440002005392,登記記録の閉鎖等,0,2024-11-25,2024-11-21,有限会社渡辺青果店,,有限会社,北海道,函館市,西桔梗町５８９番地の２５,,01,202,0410824,,,2024-11-21,清算の結了等,,,2015-10-05,1,,,,,ワタナベセイカテン,0
1753,7500005005607,登記記録の閉鎖等,0,2024-11-25,2024-11-19,医療法人いのうえ産婦人科,,その他の設立登記法人,愛媛県,今治市,北日吉町１丁目１番１７号ポレスター北日吉７０２号,,38,202,7940054,,,2024-11-19,清算の結了等,,,2015-10-05,1,,,,,イノウエサンフジンカ,0
1785,8010405020980,登記記録の閉鎖等,0,2024-11-25,2024-11-07,ＥＳＲ２７・２一般社団法人,,その他の設立登記法人,東京都,港区,浜松町１丁目２０番１０号ライオネス浜松町５０６号室,,13,103,1050013,,,2024-11-07,清算の結了等,,,2022-05-11,1,,,,,イーエスアールニジュウナナニ,0
1798,8011001070800,登記記録の閉鎖等,0,2024-11-25,2024-10-28,株式会社ジャパン・トータルプラン,,株式会社,東京都,渋谷区,猿楽町１番３号代官山上新ビル２Ｆ,,13,113,1500033,,,2024-10-28,清算の結了等,,,2015-10-05,1,,,,,ジャパントータルプラン,0
1800,8011001116537,登記記録の閉鎖等,0,2024-11-25,2024-11-07,ｐｉｃｋｉ株式会社,,株式会社,東京都,渋谷区,道玄坂１丁目１０番８号渋谷道玄坂東急ビル２Ｆ－Ｃ,,13,113,1500043,,,2024-11-07,清算の結了等,,,2017-05-30,1,,,,,ピッキー,0
1801,8011001143028,登記記録の閉鎖等,0,2024-11-25,2024-11-20,ファストモバイル株式会社,,株式会社,東京都,渋谷区,代々木１丁目５番１３号,,13,113,1510053,,,2024-11-20,清算の結了等,,,2021-10-07,1,,,,,ファストモバイル,0
1835,8020003023170,登記記録の閉鎖等,0,2024-11-25,2024-11-11,アステリシアン合同会社,,合同会社,神奈川県,横浜市西区,高島２丁目１１－２スカイメナー横浜５１９,,14,103,2200011,,,2024-11-11,清算の結了等,,,2023-01-27,1,,,,,アステリシアン,0
1851,8030001123764,登記記録の閉鎖等,0,2024-11-25,2024-11-20,株式会社アドバンス,,株式会社,埼玉県,志木市,上宗岡３丁目２番９－１０３号,,11,228,3530001,,,2024-11-20,清算の結了等,,,2018-01-10,1,,,,,アドバンス,0
1857,8030002043615,登記記録の閉鎖等,0,2024-11-25,2024-11-20,有限会社オービーエス,,有限会社,埼玉県,草加市,柳島町１９９番地８,,11,221,3400033,,,2024-11-20,清算の結了等,,,2015-10-05,1,,,,,オービーエス,0
1859,8030005015792,登記記録の閉鎖等,0,2024-11-25,2024-11-07,一般社団法人ＴＥＲＡＣＯ舎,,その他の設立登記法人,東京都,港区,赤坂４丁目１４番３号,,13,103,1070052,,,2024-11-07,清算の結了等,,,2015-10-05,1,,,,,テラコヤ,0
1875,8050001021248,登記記録の閉鎖等,0,2024-11-25,2024-11-14,株式会社トップテクノ,,株式会社,茨城県,鹿嶋市,高天原１丁目４番６号,,08,222,3140005,,,2024-11-14,清算の結了等,,,2015-10-05,1,,,,,トップテクノ,0
1883,8080001015420,登記記録の閉鎖等,0,2024-11-25,2024-11-20,株式会社ライフ・サイクル,,株式会社,静岡県,焼津市,石津港町２３番地の１８,,22,212,4250042,,,2024-11-20,清算の結了等,,,2015-10-05,1,,,,,ライフサイクル,0
1886,8100002009897,登記記録の閉鎖等,0,2024-11-25,2024-11-18,有限会社飯島商事,,有限会社,長野県,千曲市,大字上山田４１７番地１,,20,218,3890822,,,2024-11-18,清算の結了等,,,2015-10-05,1,,,,,イイジマショウジ,0
1921,8130002011891,登記記録の閉鎖等,0,2024-11-25,2024-11-20,有限会社井原商店,,有限会社,京都府,京都市山科区,川田清水焼団地町７番地の３,,26,110,6078322,,,2024-11-20,清算の結了等,,,2015-10-05,1,,,,,イハラショウテン,0
1935,8150001014712,登記記録の閉鎖等,0,2024-11-25,2024-11-21,株式会社サンデサイ,,株式会社,奈良県,大和高田市,日之出町１９番３０－５号,,29,202,6350022,,,2024-11-21,清算の結了等,,,2015-10-05,1,,,,,サンデサイ,0
1941,8180001141446,登記記録の閉鎖等,0,2024-11-25,2024-11-18,株式会社Ａｉｒ　ｓｔｏｒｅ,,株式会社,愛知県,名古屋市中区,栄１丁目１６番１６号（チサンマンション栄５０９号）,,23,106,4600008,,,2024-11-18,清算の結了等,,,2020-06-05,1,,,,,エアストア,0
1950,8210001004442,登記記録の閉鎖等,0,2024-11-25,2024-11-20,吉川建設株式会社,,株式会社,福井県,坂井市,春江町正蓮花第７号２番地１,00077662,18,210,9190443,,,2024-11-20,清算の結了等,,,2015-10-05,1,,,,,ヨシカワケンセツ,0
1954,8220001012824,登記記録の閉鎖等,0,2024-11-25,2024-11-19,北陸積水樹脂株式会社,,株式会社,石川県,能美市,吉原釜屋町ロ１番地,,17,211,9290121,,,2024-11-19,合併による解散等,9120001059651,令和６年１１月１日大阪市北区西天満二丁目４番４号積水樹脂株式会社（9120001059651）に合併し解散,2015-10-05,1,,,,,,0
1959,8250002017621,登記記録の閉鎖等,0,2024-11-25,2024-11-20,有限会社アシスト,,有限会社,山口県,岩国市,御庄１丁目１０９－３,,35,208,7410083,,,2024-11-20,清算の結了等,,,2015-10-05,1,,,,,アシスト,0
1985,8330001002558,登記記録の閉鎖等,0,2024-11-25,2024-11-19,株式会社江原,,株式会社,熊本県,熊本市中央区,新大江２丁目２５番１１号,,43,101,8620972,,,2024-11-19,清算の結了等,,,2015-10-05,1,,,,,コウゲン,0
2004,8380002029785,登記記録の閉鎖等,0,2024-11-25,2024-11-11,有限会社阿部管工,,有限会社,福島県,双葉郡浪江町,大字川添字南大坂１９３番地の８,,07,547,9791531,,,2024-11-11,清算の結了等,,,2015-10-05,1,,,,,アベカンコウ,0
2014,8460002005043,登記記録の閉鎖等,0,2024-11-25,2024-11-20,有限会社芳井商会,,有限会社,北海道,川上郡弟子屈町,川湯温泉１丁目１番１７号,,01,665,0883465,,,2024-11-20,清算の結了等,,,2015-10-05,1,,,,,ヨシイショウカイ,0
2022,9010001063540,登記記録の閉鎖等,0,2024-11-25,2024-11-11,株式会社ＫＫＴ,,株式会社,東京都,千代田区,飯田橋１丁目１０番３号,,13,101,1020072,,,2024-11-11,清算の結了等,,,2015-10-05,1,,,,,ケーケーティー,0
2027,9010001164834,登記記録の閉鎖等,0,2024-11-25,2024-11-11,レックスファーム株式会社,,株式会社,東京都,千代田区,岩本町１丁目３番９号,,13,101,1010032,,,2024-11-11,清算の結了等,,,2015-10-05,1,,,,,レックスファーム,0
2030,9010001245642,登記記録の閉鎖等,0,2024-11-25,2024-11-11,ＫＨＤ株式会社,,株式会社,東京都,千代田区,有楽町１丁目１３番２号第一生命日比谷ファースト１８階,,13,101,1000006,,,2024-11-11,清算の結了等,,,2024-06-10,1,,,,,ケーエイチディー,0
2035,9010003035430,登記記録の閉鎖等,0,2024-11-25,2024-11-12,合同会社オルタナ５,,合同会社,東京都,千代田区,丸の内３丁目１番１号東京共同会計事務所内,,13,101,1000005,,,2024-11-12,清算の結了等,,,2021-08-03,1,,,,,オルタナファイブ,0
2050,9010405012143,登記記録の閉鎖等,0,2024-11-25,2024-11-05,一般社団法人日本の香り推進機構,,その他の設立登記法人,東京都,港区,南青山２丁目２番１５号ウィン青山１４０３,,13,103,1070062,,,2024-11-05,清算の結了等,,,2015-10-05,1,,,,,ニホンノカオリスイシンキコウ,0
2051,9010405019171,登記記録の閉鎖等,0,2024-11-25,2024-11-08,一般社団法人ＬＩＭ,,その他の設立登記法人,東京都,港区,虎ノ門５丁目１番４号,,13,103,1050001,,,2024-11-08,清算の結了等,,,2020-10-12,1,,,,,リム,0
2052,9010405020740,登記記録の閉鎖等,0,2024-11-25,2024-11-07,ＥＳＲ２７・１一般社団法人,,その他の設立登記法人,東京都,港区,浜松町１丁目２０番１０号ライオネス浜松町５０６号室,,13,103,1050013,,,2024-11-07,清算の結了等,,,2022-02-24,1,,,,,イーエスアールニジュウナナイチ,0
2053,9010405020773,登記記録の閉鎖等,0,2024-11-25,2024-11-07,ＥＳＲ２７特定目的会社,,その他の設立登記法人,東京都,港区,浜松町１丁目２０番１０号ライオネス浜松町５０６号室,,13,103,1050013,,,2024-11-07,清算の結了等,,,2022-03-02,1,,,,,イーエスアールニジュウナナ,0
2069,9011001139215,登記記録の閉鎖等,0,2024-11-25,2024-11-05,桂信貿易株式会社,,株式会社,東京都,目黒区,大橋１丁目３番８号ＢＮＤｂｌｄｇ．２階,,13,110,1530044,,,2024-11-05,清算の結了等,,,2021-03-19,1,,,,,ケイシンボウエキ,0
2078,9011501004083,登記記録の閉鎖等,0,2024-11-25,2024-11-19,株式会社フクシメディカル,,株式会社,東京都,北区,神谷２丁目２５番４号,,13,117,1150043,,,2024-11-19,合併による解散等,5010401134779,令和６年１１月１日東京都港区虎ノ門四丁目３番１号城山トラストタワー３７階クオール株式会社（5010401134779）に合併し解散,2015-10-05,1,,,,,フクシメディカル,0
2079,9011701026992,登記記録の閉鎖等,0,2024-11-25,2024-11-12,株式会社テックライト,,株式会社,東京都,千代田区,一ツ橋２丁目６番１３号－９０１号室,,13,101,1010003,,,2024-11-12,清算の結了等,,,2024-02-06,1,,,,,テックライト,0
2080,9011801020862,登記記録の閉鎖等,0,2024-11-25,2024-11-19,株式会社ＳＥＴ　ＵＰ,,株式会社,東京都,足立区,大谷田５丁目２２番６－３０１号,,13,121,1200001,,,2024-11-19,清算の結了等,,,2015-10-05,1,,,,,セットアップ,0
2091,9013303005813,登記記録の閉鎖等,0,2024-11-25,2024-11-05,合同会社ＬｉｖｅｌｙＣｒｅａ,,合同会社,東京都,渋谷区,渋谷２丁目１９－１５宮益坂ビルディング６０９,,13,113,1500002,,,2024-11-05,清算の結了等,,,2021-09-06,1,,,,,ライブリークリエ,0
2101,9020002068769,登記記録の閉鎖等,0,2024-11-25,2024-11-13,有限会社フジナ開発,,有限会社,神奈川県,横浜市鶴見区,駒岡４丁目５番１８号,,14,101,2300071,,,2024-11-13,清算の結了等,,,2015-10-05,1,,,,,フジナカイハツ,0
2105,9020005005703,登記記録の閉鎖等,0,2024-11-25,2024-11-08,特定非営利活動法人ひばり会,,その他の設立登記法人,神奈川県,横浜市磯子区,栗木３丁目３５番１７号,,14,107,2350041,,,2024-11-08,清算の結了等,,,2015-10-05,1,,,,,ヒバリカイ,0
2109,9021002035420,登記記録の閉鎖等,0,2024-11-25,2024-11-21,有限会社浜田七宝,,有限会社,神奈川県,伊勢原市,板戸７６９番地の４,,14,214,2591145,,,2024-11-21,清算の結了等,,,2015-10-05,1,,,,,,0
2122,9030002087256,登記記録の閉鎖等,0,2024-11-25,2024-11-20,有限会社鳥敬,,有限会社,埼玉県,越谷市,大沢１丁目３番２７号,,11,222,3430025,,,2024-11-20,清算の結了等,,,2015-10-05,1,,,,,トリケイ,0
2128,9040001006249,登記記録の閉鎖等,0,2024-11-25,2024-11-19,林板金株式会社,,株式会社,千葉県,千葉市中央区,生実町５１番地,,12,101,2600813,,,2024-11-19,清算の結了等,,,2015-10-05,1,,,,,ハヤシバンキン,0
2142,9060001011536,登記記録の閉鎖等,0,2024-11-25,2024-11-20,トーテックジャパン株式会社,,株式会社,栃木県,那須塩原市,鍋掛１１０２番地１５７,,09,213,3250013,,,2024-11-20,清算の結了等,,,2015-10-05,1,,,,,トーテックジャパン,0
2152,9080001023612,登記記録の閉鎖等,0,2024-11-25,2024-11-19,株式会社トクスル,,株式会社,静岡県,静岡市清水区,巴町６番２２号,,22,103,4240829,,,2024-11-19,清算の結了等,,,2020-07-06,1,,,,,トクスル,0
2157,9080403002197,登記記録の閉鎖等,0,2024-11-25,2024-11-20,合資会社三石屋商店,,合資会社,静岡県,浜松市浜名区,細江町気賀１０５番地の３,,22,139,4311305,,,2024-11-20,清算の結了等,,,2015-10-05,1,,,,,ミセキヤショウテン,0
2162,9100003004913,登記記録の閉鎖等,0,2024-11-25,2024-11-14,合同会社クリエイタス,,合同会社,長野県,長野市,青木島町大塚５７４番地１,,20,201,3812205,,,2024-11-14,清算の結了等,,,2018-02-28,1,,,,,クリエイタス,0
2164,9110001016711,登記記録の閉鎖等,0,2024-11-25,2024-11-19,サンセイテック株式会社,,株式会社,新潟県,三条市,金子新田乙４９７番地１４,,15,204,9550814,,,2024-11-19,清算の結了等,,,2015-10-05,1,,,,,サンセイテック,0
2165,9110001035629,登記記録の閉鎖等,0,2024-11-25,2024-11-19,株式会社ハセガワ,,株式会社,新潟県,新潟市東区,上木戸３丁目１０番１２号１,,15,102,9500891,,,2024-11-19,清算の結了等,,,2021-03-23,1,,,,,ハセガワ,0
2201,9180001090700,登記記録の閉鎖等,0,2024-11-25,2024-11-13,株式会社Ｓａｖｖｙ　Ｃｏｍｐａｎｙ,,株式会社,愛知県,名古屋市西区,江向町６丁目２８番地,,23,104,4510013,,,2024-11-13,清算の結了等,,,2015-10-05,1,,,,,サヴィーカンパニー,0
2209,9180002085377,登記記録の閉鎖等,0,2024-11-25,2024-11-14,有限会社斉藤モデル製作所,,有限会社,愛知県,知多郡東浦町,大字緒川字上高根台３０番地６,,23,442,4702102,,,2024-11-14,清算の結了等,,,2015-10-05,1,,,,,サイトウモデルセイサクショ,0
2224,9290001004921,登記記録の閉鎖等,0,2024-11-25,2024-10-30,株式会社朝日設備,,株式会社,福岡県,福岡市早良区,賀茂１丁目５番２２号,,40,137,8140164,,,2024-10-30,清算の結了等,,,2015-10-05,1,,,,,,0
2226,9290001044777,登記記録の閉鎖等,0,2024-11-25,2024-11-01,株式会社ウッドライフＫ,,株式会社,福岡県,宗像市,陵厳寺３丁目９番１４号,,40,220,8114145,,,2024-11-01,清算の結了等,,,2015-10-05,1,,,,,ウッドライフケイ,0
2240,9330002029260,登記記録の閉鎖等,0,2024-11-25,2024-11-18,有限会社山本商会,,有限会社,熊本県,上天草市,松島町今泉２０２７番地１０,,43,212,8616103,,,2024-11-18,清算の結了等,,,2015-10-05,1,,,,,ヤマモトショウカイ,0
2244,9330005010077,登記記録の閉鎖等,0,2024-11-25,2024-11-05,医療法人社団アルツ,,その他の設立登記法人,熊本県,人吉市,駒井田町２２４－３,,43,203,8680006,,,2024-11-05,清算の結了等,,,2019-08-29,1,,,,,シャダンアルツ,0
2248,9360002016033,登記記録の閉鎖等,0,2024-11-25,2024-11-21,有限会社新洋ホーム,,有限会社,沖縄県,宜野湾市,上原２丁目７番１１号,,47,205,9012204,,,2024-11-21,清算の結了等,,,2015-10-05,1,,,,,シンヨウホーム,0
2257,9420001011086,登記記録の閉鎖等,0,2024-11-25,2024-11-20,株式会社大伸,,株式会社,青森県,十和田市,大字相坂字相坂３５番地,,02,206,0340041,,,2024-11-20,清算の結了等,,,2015-10-05,1,,,,,ダイシン,0
2260,9420002001854,登記記録の閉鎖等,0,2024-11-25,2024-11-20,有限会社泰好,,有限会社,青森県,青森市,桂木３丁目５番地１８,,02,201,0300844,,,2024-11-20,清算の結了等,,,2015-10-05,1,,,,,タイコウ,0
2261,9430002038524,登記記録の閉鎖等,0,2024-11-25,2024-11-21,有限会社プロジェクトＺ,,有限会社,北海道,札幌市豊平区,平岸四条６丁目４番１号,,01,105,0620934,,,2024-11-21,清算の結了等,,,2015-10-05,1,,,,,プロジェクトゼット,0
