sequenceNumber,corporateNumber,process,correct,updateDate,changeDate,name,nameImageId,kind,prefectureName,cityName,streetNumber,addressImageId,prefectureCode,cityCode,postCode,addressOutside,addressOutsideImageId,closeDate,closeCause,successorCorporateNumber,changeCause,assignmentDate,latest,enName,enPrefectureName,enCityName,enAddressOutside,furigana,hihyoji
35,1010501041722,登記記録の閉鎖等,0,2022-03-15,2022-03-08,株式会社ベスト・トップ,,株式会社,大阪府,大阪市浪速区,大国２丁目６番２－４０３号,,27,111,5560014,,,2022-03-08,清算の結了等,,,2017-10-25,1,,,,,ベストトップ,0
46,1010903003634,登記記録の閉鎖等,0,2022-03-15,2022-03-11,合同会社ＳＲＴＭ,,合同会社,東京都,世田谷区,砧３丁目２５番１７号,,13,112,1570073,,,2022-03-11,清算の結了等,,,2017-05-09,1,,,,,エスアールティーエム,0
65,1011103010165,登記記録の閉鎖等,0,2022-03-15,2022-03-10,合同会社ヴェールフィーユ,,合同会社,東京都,千代田区,内神田２丁目７番８号第１５岡崎ビル４Ｆ,,13,101,1010047,,,2022-03-10,合併による解散等,7400003002137,令和４年３月１日岩手県一関市萩荘字栃倉南６０番４合同会社ヴェールフィーユ（7400003002137）に合併し解散,2020-11-09,1,,,,,ヴェールフィーユ,0
103,1021001015950,登記記録の閉鎖等,0,2022-03-15,2022-03-10,株式会社ボード・プランニング,,株式会社,神奈川県,相模原市中央区,田名１９０９番地３,,14,152,2520244,,,2022-03-10,清算の結了等,,,2015-10-05,1,,,,,ボードプランニング,0
112,1040001096421,登記記録の閉鎖等,0,2022-03-15,2022-03-08,多田築炉株式会社,,株式会社,千葉県,旭市,松ケ谷２０８７番地,,12,215,2892601,,,2022-03-08,清算の結了等,,,2016-08-04,1,,,,,,0
116,1050002044007,登記記録の閉鎖等,0,2022-03-15,2022-03-08,有限会社菊地ブロイラー農場,,有限会社,茨城県,桜川市,上野原地新田字上野原４４２番地,,08,231,3091226,,,2022-03-08,清算の結了等,,,2015-10-05,1,,,,,キクチブロイラーノウジョウ,0
117,1060001021393,登記記録の閉鎖等,0,2022-03-15,2022-03-10,株式会社珍竹林,,株式会社,栃木県,佐野市,山形町６４１番地１８,,09,204,3270324,,,2022-03-10,清算の結了等,,,2015-10-05,1,,,,,チンチクリン,0
173,1140001036177,登記記録の閉鎖等,0,2022-03-15,2022-03-11,株式会社カンリク神戸,,株式会社,兵庫県,三木市,別所町小林５９０番地の５,,28,215,6730434,,,2022-03-11,清算の結了等,,,2015-10-05,1,,,,,,0
195,1180002036081,登記記録の閉鎖等,0,2022-03-15,2022-03-10,有限会社無限コーポレーション,,有限会社,愛知県,名古屋市西区,花の木３丁目１２番１５－３Ｄ号,,23,104,4510062,,,2022-03-10,清算の結了等,,,2015-10-05,1,,,,,ムゲンコーポレーション,0
234,1290801016025,登記記録の閉鎖等,0,2022-03-15,2022-03-09,ＭＳ　ＨＯＬＤＩＮＧＳ株式会社,,株式会社,福岡県,久留米市,三潴町西牟田５２３５番地２,,40,203,8300111,,,2022-03-09,清算の結了等,,,2015-10-05,1,,,,,エムエスホールディングス,0
243,1340001001854,登記記録の閉鎖等,0,2022-03-15,2022-03-11,佐々木海運株式会社,,株式会社,鹿児島県,鹿児島市,住吉町１２番５号,,46,201,8920823,,,2022-03-11,清算の結了等,,,2015-10-05,1,,,,,ササキカイウン,0
261,1410003003577,登記記録の閉鎖等,0,2022-03-15,2022-03-09,合同会社トラストクオリティ,,合同会社,秋田県,秋田市,八橋イサノ１丁目３番９号,,05,201,0100961,,,2022-03-09,清算の結了等,,,2021-10-05,1,,,,,トラストクオリティ,0
327,2012802006246,登記記録の閉鎖等,0,2022-03-15,2022-03-10,有限会社ミナミ,,有限会社,東京都,東大和市,仲原３丁目１９番地の１４,,13,220,2070016,,,2022-03-10,清算の結了等,,,2015-10-05,1,,,,,,0
340,2020001119488,登記記録の閉鎖等,0,2022-03-15,2022-03-10,株式会社ＬｉｆｅＬａｂｏ,,株式会社,神奈川県,横浜市港北区,北新横浜１丁目２番地３三橋ビル１Ｆ,,14,109,2230059,,,2022-03-10,清算の結了等,,,2017-01-13,1,,,,,,0
357,2030002082263,登記記録の閉鎖等,0,2022-03-15,2022-03-11,有限会社ＴＫファクトリー,,有限会社,埼玉県,本庄市,緑２丁目８７７番３号,,11,211,3670043,,,2022-03-11,合併による解散等,2010001012074,令和４年３月１日東京都文京区西片一丁目１５番１５号株式会社トモズ（2010001012074）に合併し解散,2015-10-05,1,,,,,ティーケーファクトリー,0
394,2120001237255,登記記録の閉鎖等,0,2022-03-15,2022-03-07,株式会社ｂｅａｕｔｙｃｏｓｍｅ,,株式会社,大阪府,大阪市浪速区,日本橋４丁目５番１４号,,27,111,5560005,,,2022-03-07,合併による解散等,5120001228953,令和４年３月１日大阪市北区梅田一丁目２番２号大阪駅前第２ビル２階５－６号室株式会社コスメパーク（5120001228953）に合併し解散,2021-05-07,1,,,,,ビューティコスメ,0
425,2180001085582,登記記録の閉鎖等,0,2022-03-15,2022-03-08,株式会社愛知衛生サービス,,株式会社,愛知県,稲沢市,増田西町１４４番地,,23,220,4928429,,,2022-03-08,清算の結了等,,,2015-10-05,1,,,,,アイチエイセイサービス,0
428,2180001123565,登記記録の閉鎖等,0,2022-03-15,2022-03-10,ＧＯＴＯＫＵ工業株式会社,,株式会社,愛知県,名古屋市中川区,荒子町字塔堂屋敷１６番地の１,,23,110,4540861,,,2022-03-10,清算の結了等,,,2016-06-07,1,,,,,ゴトクコウギョウ,0
436,2200001030271,登記記録の閉鎖等,0,2022-03-15,2022-03-01,株式会社福祉施設研究所福寿の郷,,株式会社,岐阜県,羽島市,小熊町島５丁目１４番地,,21,209,5016264,,,2022-03-01,合併による解散等,5200001011178,令和４年３月１日岐阜県羽島市小熊町島五丁目１４番地大日産業株式会社（5200001011178）に合併し解散,2015-10-05,1,,,,,フクシシセツケンキュウジョフクジュノサト,0
458,2250002003858,登記記録の閉鎖等,0,2022-03-15,2022-03-11,有限会社山口保険プランニング,,有限会社,山口県,防府市,鋳物師町１２番１０号,,35,206,7470812,,,2022-03-11,清算の結了等,,,2015-10-05,1,,,,,ヤマグチホケンプランニング,0
469,2290001029173,登記記録の閉鎖等,0,2022-03-15,2022-03-10,株式会社華菱,,株式会社,福岡県,福岡市博多区,博多駅中央街２番１号,,40,132,8120012,,,2022-03-10,清算の結了等,,,2015-10-05,1,,,,,,0
478,2290802018069,登記記録の閉鎖等,0,2022-03-15,2022-03-09,有限会社なわた保険事務所,,有限会社,福岡県,北九州市八幡東区,東山２丁目７番１３号,,40,108,8050026,,,2022-03-09,清算の結了等,,,2015-10-05,1,,,,,ナワタホケンジムショ,0
490,2340001012504,登記記録の閉鎖等,0,2022-03-15,2022-03-11,大平澱粉工業株式会社,,株式会社,鹿児島県,南さつま市,大浦町１９１２番地,,46,220,8971201,,,2022-03-11,清算の結了等,,,2015-10-05,1,,,,,,0
532,3010001139560,登記記録の閉鎖等,0,2022-03-15,2022-03-09,山佐ＣＥＳ４リース株式会社,,株式会社,東京都,千代田区,丸の内３丁目１番１号東京共同会計事務所内,,13,101,1000005,,,2022-03-09,清算の結了等,,,2015-10-05,1,,,,,ヤマサシーイーエスフォーリース,0
588,3012301011317,登記記録の閉鎖等,0,2022-03-15,2022-03-10,株式会社Ｖａｌｕｅ　Ｃｒｅａｔｉｏｎ,,株式会社,東京都,八王子市,中野町２７４２－４,,13,201,1920015,,,2022-03-10,清算の結了等,,,2018-03-08,1,,,,,バリュークリエーション,0
597,3020002047043,登記記録の閉鎖等,0,2022-03-15,2022-03-07,山田商事有限会社,,有限会社,神奈川県,横浜市都筑区,早渕１丁目１８番１９号,,14,118,2240025,,,2022-03-07,清算の結了等,,,2021-02-26,1,,,,,ヤマダショウジ,0
624,3080002013279,登記記録の閉鎖等,0,2022-03-15,2022-03-14,有限会社桑原塗装,,有限会社,静岡県,静岡市清水区,由比町屋原３４８番地の５,,22,103,4213105,,,2022-03-14,清算の結了等,,,2015-10-05,1,,,,,クワハラトソウ,0
632,3110001033480,登記記録の閉鎖等,0,2022-03-15,2022-03-10,株式会社Ｌｉｆｅ　Ａｓｓｉｓｔ,,株式会社,新潟県,新潟市中央区,浜浦町１丁目８６番地,,15,103,9518151,,,2022-03-10,清算の結了等,,,2018-08-31,1,,,,,ライフアシスト,0
633,3110003000553,登記記録の閉鎖等,0,2022-03-15,2022-03-11,ＦＡ　ＳＯＬＵＴＩＯＮＳ合同会社,,合同会社,新潟県,新潟市東区,浜谷町１丁目９番４３号,,15,102,9500034,,,2022-03-11,清算の結了等,,,2015-10-05,1,,,,,エフエーソリューションズ,0
645,3120001097632,登記記録の閉鎖等,0,2022-03-15,2022-03-09,株式会社マルエイグループ,,株式会社,大阪府,大阪市西成区,花園北１丁目４番１７号,,27,122,5570016,,,2022-03-09,清算の結了等,,,2015-10-05,1,,,,,マルエイグループ,0
675,3140001092251,登記記録の閉鎖等,0,2022-03-15,2022-03-11,ヒラク管理株式会社,,株式会社,兵庫県,伊丹市,中央２丁目２番１６号,,28,207,6640851,,,2022-03-11,合併による解散等,6120001123369,令和４年３月１日大阪市中央区備後町二丁目４番１０号株式会社第一住建（6120001123369）に合併し解散,2015-10-05,1,,,,,,0
680,3150001001987,登記記録の閉鎖等,0,2022-03-15,2022-03-09,株式会社ヒロセ,,株式会社,大阪府,大阪市住吉区,万代２丁目１０番２１号,,27,120,5580055,,,2022-03-09,清算の結了等,,,2015-10-05,1,,,,,ヒロセ,0
688,3180001029324,登記記録の閉鎖等,0,2022-03-15,2022-03-08,株式会社ナゴヤ観光,,株式会社,愛知県,名古屋市中村区,名駅４丁目１４番１０号,,23,105,4500002,,,2022-03-08,清算の結了等,,,2015-10-05,1,,,,,ナゴヤカンコウ,0
696,3180305007447,登記記録の閉鎖等,0,2022-03-15,2022-03-14,一般財団法人家畜学研究所,,その他の設立登記法人,愛知県,北設楽郡設楽町,川向字タラノ木１番地,,23,561,4412433,,,2022-03-14,清算の結了等,,,2015-10-05,1,,,,,カチクガクケンキュウショ,0
709,3230002011226,登記記録の閉鎖等,0,2022-03-15,2022-03-10,有限会社新成技研サービス,,有限会社,富山県,高岡市,新成町２番４４号,,16,202,9330904,,,2022-03-10,清算の結了等,,,2015-10-05,1,,,,,シンセイギケンサービス,0
731,3290001074573,登記記録の閉鎖等,0,2022-03-15,2022-03-09,株式会社リッツトランスポート,,株式会社,福岡県,福岡市南区,大橋１丁目１７番１５号,,40,134,8150033,,,2022-03-09,清算の結了等,,,2016-07-19,1,,,,,リッツトランスポート,0
744,3290801018424,登記記録の閉鎖等,0,2022-03-15,2022-03-09,株式会社ヨシナガ,,株式会社,福岡県,田川市,大字伊田４４４４番地,,40,206,8250002,,,2022-03-09,清算の結了等,,,2015-10-05,1,,,,,ヨシナガ,0
750,3320002013568,登記記録の閉鎖等,0,2022-03-15,2022-03-14,有限会社つかさ,,有限会社,大分県,別府市,上人本町５番３号,,44,202,8740032,,,2022-03-14,清算の結了等,,,2015-10-05,1,,,,,ツカサ,0
765,3380002002227,登記記録の閉鎖等,0,2022-03-15,2022-03-10,有限会社玉根鉄工所,,有限会社,福島県,福島市,北矢野目字窪田１６番地の１,,07,201,9600113,,,2022-03-10,清算の結了等,,,2015-10-05,1,,,,,,0
774,3420001010102,登記記録の閉鎖等,0,2022-03-15,2022-03-07,株式会社ホクト,,株式会社,青森県,平川市,李平西豊田２７番地１,,02,210,0360201,,,2022-03-07,合併による解散等,1420001010087,令和４年２月２８日青森県平川市李平上安原２番地１９号株式会社木村食品工業（1420001010087）に合併し解散,2015-10-05,1,,,,,ホクト,0
779,3430002050724,登記記録の閉鎖等,0,2022-03-15,2022-03-09,有限会社むつみ屋,,有限会社,北海道,樺戸郡月形町,５８番地１,,01,430,0610500,,,2022-03-09,清算の結了等,,,2015-10-05,1,,,,,ムツミヤ,0
781,3470001009073,登記記録の閉鎖等,0,2022-03-15,2022-03-11,株式会社オオヤブ,,株式会社,香川県,丸亀市,三条町１５５２番地６,,37,202,7630094,,,2022-03-11,清算の結了等,,,2015-10-05,1,,,,,オオヤブ,0
788,4010001041220,登記記録の閉鎖等,0,2022-03-15,2022-03-01,株式会社銀座らん月,,株式会社,東京都,中央区,銀座３丁目５番８号,,13,102,1040061,,,2022-03-01,合併による解散等,4010001139270,令和４年３月１日東京都中央区銀座四丁目９番１号株式会社日本香堂（4010001139270）に合併し解散,2015-10-05,1,,,,,ギンザランゲツ,0
799,4010005024634,登記記録の閉鎖等,0,2022-03-15,2022-03-07,ＶＣＬ＆Ｈｕａｚｈｕ特定目的会社,,その他の設立登記法人,東京都,中央区,日本橋１丁目１３番１号日鉄日本橋ビル３階ファイブスター・パートナーズ株式会社内,,13,102,1030027,,,2022-03-07,清算の結了等,,,2015-11-18,1,,,,,ヴィシーエルアンドファーズー,0
800,4010005025351,登記記録の閉鎖等,0,2022-03-15,2022-03-09,一般社団法人映像配信高度化機構,,その他の設立登記法人,東京都,杉並区,高円寺南１丁目８番１５号,,13,115,1660003,,,2022-03-09,清算の結了等,,,2016-05-25,1,,,,,エイゾウハイシンコウドカキコウ,0
801,4010005029303,登記記録の閉鎖等,0,2022-03-15,2022-03-10,一般社団法人日本占いアカデミー協会,,その他の設立登記法人,東京都,中央区,銀座７丁目１５番８号タウンハイツ銀座４０６,,13,102,1040061,,,2022-03-10,清算の結了等,,,2018-11-05,1,,,,,ニホンウラナイアカデミーキョウカイ,0
805,4010401155545,登記記録の閉鎖等,0,2022-03-15,2022-03-09,株式会社ＪＴＢ訪日外貨両替,,株式会社,東京都,港区,港南１丁目６番３１号,,13,103,1080075,,,2022-03-09,合併による解散等,3010001221517,令和４年３月１日東京都文京区本郷三丁目２６番６号株式会社スマートヘルスネット（3010001221517）に合併し解散,2020-10-06,1,,,,,ジェイティービーホウニチガイカリョウガエ,0
844,4011701021643,登記記録の閉鎖等,0,2022-03-15,2022-03-08,株式会社ＢＡＳＥ,,株式会社,東京都,千代田区,永田町２丁目１４番３号東急不動産赤坂ビル１２階,,13,101,1000014,,,2022-03-08,清算の結了等,,,2018-04-02,1,,,,,ベース,0
875,4030005020391,登記記録の閉鎖等,0,2022-03-15,2022-03-14,一般社団法人現代ピアノ演奏法指導者協会,,その他の設立登記法人,埼玉県,戸田市,大字新曽４２２番１号,,11,224,3350021,,,2022-03-14,清算の結了等,,,2021-05-10,1,,,,,ゲンダイピアノエンソウホウシドウシャキョウカイ,0
881,4040002076270,登記記録の閉鎖等,0,2022-03-15,2022-03-07,有限会社珠太屋,,有限会社,千葉県,市原市,辰巳台東３丁目２７番地３カステル辰巳６０４号,,12,219,2900003,,,2022-03-07,清算の結了等,,,2015-10-05,1,,,,,タマタヤ,0
894,4100001025412,登記記録の閉鎖等,0,2022-03-15,2022-03-11,株式会社サン・トレード,,株式会社,長野県,安曇野市,堀金烏川５０１９番地２,,20,220,3998211,,,2022-03-11,清算の結了等,,,2015-10-05,1,,,,,サントレード,0
900,4120001068814,登記記録の閉鎖等,0,2022-03-15,2022-03-11,株式会社ノベラック,,株式会社,大阪府,大阪市北区,天満１丁目５番２号,,27,127,5300043,,,2022-03-11,合併による解散等,3010601024583,令和４年３月１日東京都墨田区両国三丁目２５番５号株式会社フルノシステムズ（3010601024583）に合併し解散,2015-10-05,1,,,,,,0
913,4120101041282,登記記録の閉鎖等,0,2022-03-15,2022-03-10,株式会社大鹿,,株式会社,大阪府,和泉市,伏屋町３丁目７番９号,,27,219,5940031,,,2022-03-10,清算の結了等,,,2022-02-02,1,,,,,オオカ,0
955,4180301011831,登記記録の閉鎖等,0,2022-03-15,2022-03-14,株式会社ティーミック,,株式会社,愛知県,豊川市,本野ケ原４丁目９番地２,,23,207,4420005,,,2022-03-14,清算の結了等,,,2015-10-05,1,,,,,ティーミック,0
962,4220001016936,登記記録の閉鎖等,0,2022-03-15,2022-03-07,株式会社中市鉄工所,,株式会社,石川県,珠洲市,野々江町ヒノ部３１番地の２,,17,205,9271213,,,2022-03-07,清算の結了等,,,2021-12-28,1,,,,,ナカイチテッコウジョ,0
982,4290003001310,登記記録の閉鎖等,0,2022-03-15,2022-03-09,合同会社ＯＦＦＩＣＥ　ＫＩＭＵＲＡ,,合同会社,福岡県,福岡市西区,今宿東３丁目１７番３－１４号,,40,135,8190161,,,2022-03-09,清算の結了等,,,2015-10-05,1,,,,,オフィスキムラ,0
984,4290005012859,登記記録の閉鎖等,0,2022-03-15,2022-03-04,特定非営利活動法人ふれあい自立舎,,その他の設立登記法人,福岡県,大牟田市,大字歴木９７６－２４,,40,202,8370924,,,2022-03-04,清算の結了等,,,2015-10-05,1,,,,,フレアイジリツシャ,0
988,4320002005481,登記記録の閉鎖等,0,2022-03-15,2022-03-14,有限会社ハマヤ水産,,有限会社,大分県,大分市,大道町５丁目２番２５号大道岩田ビル１０５,,44,201,8700822,,,2022-03-14,清算の結了等,,,2015-10-05,1,,,,,ハマヤスイサン,0
1017,4400501000264,登記記録の閉鎖等,0,2022-03-15,2022-03-11,株式会社フードパワーセンター・バリュー,,株式会社,岩手県,一関市,山目字前田７１番地１,,03,209,0210026,,,2022-03-11,合併による解散等,2220001008745,令和４年３月１日石川県白山市松本町２５１２番地株式会社クスリのアオキ（2220001008745）に合併し解散,2015-10-05,1,,,,,フードパワーセンターバリュー,0
1018,4400501000272,登記記録の閉鎖等,0,2022-03-15,2022-03-11,株式会社ホーマス・キリンヤ,,株式会社,岩手県,一関市,大町４番２１号,,03,209,0210881,,,2022-03-11,合併による解散等,2220001008745,令和４年３月１日石川県白山市松本町２５１２番地株式会社クスリのアオキ（2220001008745）に合併し解散,2015-10-05,1,,,,,ホーマスキリンヤ,0
1042,5010001139559,登記記録の閉鎖等,0,2022-03-15,2022-03-09,山佐ＣＥＳ３リース株式会社,,株式会社,東京都,千代田区,丸の内３丁目１番１号東京共同会計事務所内,,13,101,1000005,,,2022-03-09,清算の結了等,,,2015-10-05,1,,,,,ヤマサシーイーエススリーリース,0
1043,5010001144716,登記記録の閉鎖等,0,2022-03-15,2022-03-07,Ｍａｒｉｎ　Ｓｏｆｔｗａｒｅ株式会社,,株式会社,東京都,千代田区,丸の内１丁目６番５号丸の内北口ビルディング９階,,13,101,1000005,,,2022-03-07,清算の結了等,,,2015-10-05,1,,,,,マリンソフトウェア,0
1047,5010002010545,登記記録の閉鎖等,0,2022-03-15,2022-03-08,昭和運送有限会社,,有限会社,東京都,千代田区,神田神保町３丁目１１番１－２０７号,,13,101,1010051,,,2022-03-08,清算の結了等,,,2015-10-05,1,,,,,ショウワウンソウ,0
1048,5010003017572,登記記録の閉鎖等,0,2022-03-15,2022-03-04,兜町１２合同会社,,合同会社,東京都,千代田区,霞が関３丁目２番５号,,13,101,1000013,,,2022-03-04,合併による解散等,1010001034920,令和４年３月１日東京都中央区日本橋兜町１番１０号平和不動産株式会社（1010001034920）に合併し解散,2015-10-05,1,,,,,カブトチョウジュウニ,0
1050,5010003032761,登記記録の閉鎖等,0,2022-03-15,2022-03-11,ＳＭＦＬみらいパートナーズインベストメント１号合同会社,,合同会社,東京都,千代田区,丸の内１丁目３番２号,,13,101,1000005,,,2022-03-11,清算の結了等,,,2020-08-04,1,,,,,エスエムエフエルミライパートナーズインベストメントイチゴウ,0
1052,5010101013498,登記記録の閉鎖等,0,2022-03-15,2022-03-10,株式会社叶志,,株式会社,東京都,八王子市,弐分方町３８３番地１９,,13,201,1930822,,,2022-03-10,清算の結了等,,,2018-11-09,1,,,,,,0
1054,5010401025573,登記記録の閉鎖等,0,2022-03-15,2022-03-03,フィアットグループオートモービルズジャパン株式会社,,株式会社,東京都,港区,芝５丁目３６番７号,,13,103,1080014,,,2022-03-03,合併による解散等,9010401070863,令和４年３月２日東京都港区芝五丁目３６番７号Ｓｔｅｌｌａｎｔｉｓジャパン株式会社（9010401070863）に合併し解散,2015-10-05,1,,,,,フィアットグループオートモービルズジャパン,0
1129,5070001023063,登記記録の閉鎖等,0,2022-03-15,2022-03-10,フカツ塗装株式会社,,株式会社,群馬県,沼田市,町田町７４３番地の８,,10,206,3780062,,,2022-03-10,清算の結了等,,,2015-10-05,1,,,,,フカツトソウ,0
1131,5070002019663,登記記録の閉鎖等,0,2022-03-15,2022-03-10,有限会社藤田製作所,,有限会社,群馬県,伊勢崎市,波志江町４１３１番地７,,10,204,3720001,,,2022-03-10,清算の結了等,,,2015-10-05,1,,,,,フジタセイサクショ,0
1171,5140001098627,登記記録の閉鎖等,0,2022-03-15,2022-03-10,ヒラマツ薬局株式会社,,株式会社,兵庫県,伊丹市,中央２丁目８番２３号,,28,207,6640851,,,2022-03-10,清算の結了等,,,2015-10-05,1,,,,,ヒラマツヤッキョク,0
1190,5180001131945,登記記録の閉鎖等,0,2022-03-15,2022-03-10,株式会社ヨシヤスホールディングス,,株式会社,愛知県,名古屋市昭和区,南山町２０番地の１７,,23,107,4660835,,,2022-03-10,清算の結了等,,,2018-04-17,1,,,,,ヨシヤスホールディングス,0
1195,5180301010114,登記記録の閉鎖等,0,2022-03-15,2022-03-11,株式会社ナガイデンキ,,株式会社,愛知県,豊川市,千歳通２丁目３番地,,23,207,4420888,,,2022-03-11,清算の結了等,,,2015-10-05,1,,,,,ナガイデンキ,0
1205,5230001013089,登記記録の閉鎖等,0,2022-03-15,2022-03-10,株式会社優遊,,株式会社,富山県,射水市,緑町１１番２号,,16,211,9340014,,,2022-03-10,清算の結了等,,,2015-10-05,1,,,,,ユウユウ,0
1236,5330002003814,登記記録の閉鎖等,0,2022-03-15,2022-03-10,有限会社幸真商事,,有限会社,熊本県,熊本市中央区,帯山４丁目５１番４８号,,43,101,8620924,,,2022-03-10,清算の結了等,,,2015-10-05,1,,,,,コウシンショウジ,0
1240,5340001022104,登記記録の閉鎖等,0,2022-03-15,2022-03-02,サインポスト株式会社,,株式会社,鹿児島県,鹿児島市,桜ヶ丘８丁目３６番１－２０３号,,46,201,8900075,,,2022-03-02,清算の結了等,,,2019-07-05,1,,,,,サインポスト,0
1242,5350002005214,登記記録の閉鎖等,0,2022-03-15,2022-03-10,有限会社ライト薬局,,有限会社,宮崎県,宮崎市,大字小松１０９０番地１,,45,201,8802112,,,2022-03-10,合併による解散等,7430001069398,令和４年３月１日札幌市白石区東札幌五条二丁目４番３０号株式会社アインファーマシーズ（7430001069398）に合併し解散,2015-10-05,1,,,,,ライトヤッキョク,0
1249,5370201002530,登記記録の閉鎖等,0,2022-03-15,2022-03-10,古川ユースウェアサービス株式会社,,株式会社,宮城県,大崎市,古川鶴ケ埣字新江北１２５番地の１,,04,215,9896111,,,2022-03-10,清算の結了等,,,2015-10-05,1,,,,,フルカワユースウェアサービス,0
1251,5380001001748,登記記録の閉鎖等,0,2022-03-15,2022-03-08,株式会社山吉フーズ,,株式会社,福島県,伊達市,箱崎字上川原４１番地,,07,213,9600502,,,2022-03-08,合併による解散等,2380001002542,令和４年３月１日福島県伊達市箱崎字上川原４１番地山吉青果食品株式会社（2380001002542）に合併し解散,2015-10-05,1,,,,,,0
1257,5380005007766,登記記録の閉鎖等,0,2022-03-15,2022-03-10,双葉地区弁当協業組合,,その他の設立登記法人,福島県,双葉郡浪江町,大字権現堂字新町６５番地,,07,547,9791521,,,2022-03-10,清算の結了等,,,2015-10-05,1,,,,,フタバチクベントウ,0
1260,5430002001972,登記記録の閉鎖等,0,2022-03-15,2022-03-09,有限会社インテリア池田,,有限会社,北海道,札幌市手稲区,新発寒四条４丁目１番２１号,,01,109,0060804,,,2022-03-09,清算の結了等,,,2015-10-05,1,,,,,インテリアイケダ,0
1283,6010003018818,登記記録の閉鎖等,0,2022-03-15,2022-03-04,合同会社エルエー３,,合同会社,東京都,中央区,日本橋兜町５番１号兜町第１平和ビル７階レコルテ内,,13,102,1030026,,,2022-03-04,合併による解散等,1010001034920,令和４年３月１日東京都中央区日本橋兜町１番１０号平和不動産株式会社（1010001034920）に合併し解散,2015-10-05,1,,,,,エルエースリー,0
1335,6013301041474,登記記録の閉鎖等,0,2022-03-15,2022-03-07,株式会社オアシススタイルウェア,,株式会社,東京都,港区,北青山１丁目２番３号,,13,103,1070061,,,2022-03-07,合併による解散等,5013301040642,令和４年２月２８日東京都港区北青山一丁目２番３号株式会社オアシスライフスタイルグループ（5013301040642）に合併し解散,2017-12-08,1,,,,,オアシススタイルウェア,0
1346,6020002084744,登記記録の閉鎖等,0,2022-03-15,2022-03-09,有限会社西村建設,,有限会社,神奈川県,横浜市鶴見区,北寺尾５丁目９番１９号,,14,101,2300074,,,2022-03-09,清算の結了等,,,2015-10-05,1,,,,,,0
1378,6080002013904,登記記録の閉鎖等,0,2022-03-15,2022-03-07,有限会社細島屋,,有限会社,静岡県,島田市,栄町１番の９,,22,209,4270028,,,2022-03-07,清算の結了等,,,2015-10-05,1,,,,,ホソジマヤ,0
1390,6120001062600,登記記録の閉鎖等,0,2022-03-15,2022-03-10,ＮＢＳリアルエステート株式会社,,株式会社,大阪府,大阪市中央区,東心斎橋１丁目６番２７号,,27,128,5420083,,,2022-03-10,清算の結了等,,,2015-10-05,1,,,,,エヌビーエスリアルエステート,0
1409,6130005006684,登記記録の閉鎖等,0,2022-03-15,2022-03-10,一般社団法人ｉＰＳホールディングス,,その他の設立登記法人,京都府,京都市左京区,吉田牛ノ宮町４番地財団法人日本イタリア京都会館内２０３号,,26,103,6068302,,,2022-03-10,清算の結了等,,,2015-10-05,1,,,,,アイピーエスホールディングス,0
1413,6140001050735,登記記録の閉鎖等,0,2022-03-15,2022-03-10,株式会社阪神商会,,株式会社,兵庫県,尼崎市,昭和通１丁目１番地,,28,202,6600881,,,2022-03-10,清算の結了等,,,2015-10-05,1,,,,,ハンシンショウカイ,0
1423,6180001102656,登記記録の閉鎖等,0,2022-03-15,2022-03-09,株式会社樹屋田中造園,,株式会社,愛知県,日進市,岩崎町南口１４５番地１,,23,230,4700131,,,2022-03-09,清算の結了等,,,2015-10-05,1,,,,,ジュヤタナカゾウエン,0
1427,6180002058088,登記記録の閉鎖等,0,2022-03-15,2022-03-10,有限会社Ｅ・Ｐ・Ｓ,,有限会社,愛知県,名古屋市熱田区,伝馬２丁目７－７,,23,109,4560034,,,2022-03-10,清算の結了等,,,2015-10-05,1,,,,,イーピーエス,0
1520,7010001127644,登記記録の閉鎖等,0,2022-03-15,2022-03-07,株式会社ジョブダイレクト,,株式会社,東京都,中央区,銀座８丁目４番１７号,,13,102,1040061,,,2022-03-07,清算の結了等,,,2015-10-05,1,,,,,ジョブダイレクト,0
1597,7020001008307,登記記録の閉鎖等,0,2022-03-15,2022-03-09,株式会社エンジェリーベ,,株式会社,東京都,新宿区,北新宿２丁目２１番１号,,13,104,1690074,,,2022-03-09,合併による解散等,9120001213027,令和４年３月１日大阪市北区大淀中一丁目１番３０号マルコ株式会社（9120001213027）に合併し解散,2015-10-05,1,,,,,エンジェリーベ,0
1612,7030001093298,登記記録の閉鎖等,0,2022-03-15,2022-03-09,協同物産事業株式会社,,株式会社,東京都,中央区,八丁堀２丁目１９番８号日宝八丁堀ビル２階,,13,102,1040032,,,2022-03-09,合併による解散等,3340001003270,令和４年３月１日鹿児島市与次郎一丁目１０番２１号株式会社西原商会（3340001003270）に合併し解散,2015-10-05,1,,,,,キョウドウブッサンジギョウ,0
1619,7040001052567,登記記録の閉鎖等,0,2022-03-15,2022-03-07,株式会社大建,,株式会社,千葉県,木更津市,畑沢南４丁目１３番２２号,,12,206,2920826,,,2022-03-07,清算の結了等,,,2015-10-05,1,,,,,ダイケン,0
1620,7040001069966,登記記録の閉鎖等,0,2022-03-15,2022-03-08,株式会社育美,,株式会社,千葉県,柏市,高田１４６番地の１７,,12,217,2770861,,,2022-03-08,清算の結了等,,,2015-10-05,1,,,,,イクミ,0
1628,7080001023110,登記記録の閉鎖等,0,2022-03-15,2022-03-11,株式会社クレイワ,,株式会社,静岡県,牧之原市,須々木８６２番地２,,22,226,4210524,,,2022-03-11,合併による解散等,9080001014149,令和４年３月１１日静岡県牧之原市須々木８６２番地２株式会社カワムラ（9080001014149）に合併し解散,2019-09-26,1,,,,,クレイワ,0
1631,7080101008473,登記記録の閉鎖等,0,2022-03-15,2022-03-07,コーア資材株式会社,,株式会社,静岡県,富士市,比奈１２８６番地の２,,22,210,4170847,,,2022-03-07,清算の結了等,,,2015-10-05,1,,,,,コーアシザイ,0
1655,7120001139711,登記記録の閉鎖等,0,2022-03-15,2022-03-10,株式会社ティアッドデザイン,,株式会社,大阪府,堺市中区,深井中町６８０番地１－４０５号,,27,142,5998272,,,2022-03-10,清算の結了等,,,2015-10-05,1,,,,,ティアッドデザイン,0
1674,7122001004779,登記記録の閉鎖等,0,2022-03-15,2022-03-11,株式会社タツミ,,株式会社,大阪府,東大阪市,水走１丁目１５番１０号,,27,227,5780921,,,2022-03-11,合併による解散等,8120001017908,令和４年２月２８日大阪市生野区巽中三丁目５番３０号辰巳運輸株式会社（8120001017908）に合併し解散,2015-10-05,1,,,,,タツミ,0
1680,7130002001860,登記記録の閉鎖等,0,2022-03-15,2022-03-10,有限会社ワイズビジネスサポート,,有限会社,京都府,京都市下京区,稲荷町３３４番地３－７０１,,26,106,6008098,,,2022-03-10,清算の結了等,,,2015-10-05,1,,,,,ワイズビジネスサポート,0
1685,7140001078057,登記記録の閉鎖等,0,2022-03-15,2022-03-11,井戸容器株式会社,,株式会社,兵庫県,伊丹市,藤ノ木３丁目６番１４号,,28,207,6640847,,,2022-03-11,清算の結了等,,,2015-10-05,1,,,,,イドヨウキ,0
1698,7170005004196,登記記録の閉鎖等,0,2022-03-15,2022-03-09,美浜海産物協同組合,,その他の設立登記法人,和歌山県,日高郡美浜町,大字吉原９２２番地,,30,381,6440043,,,2022-03-09,清算の結了等,,,2015-10-05,1,,,,,,0
1714,7220001003394,登記記録の閉鎖等,0,2022-03-15,2022-03-11,株式会社昭光,,株式会社,石川県,金沢市,三馬２丁目９９番地,,17,201,9218162,,,2022-03-11,清算の結了等,,,2015-10-05,1,,,,,ショウコウ,0
1721,7240003001683,登記記録の閉鎖等,0,2022-03-15,2022-03-10,合資会社渡辺傳七商店,,合資会社,広島県,福山市,桜馬場町９番２１号,,34,207,7200051,,,2022-03-10,清算の結了等,,,2015-10-05,1,,,,,ワタナベデンシチショウテン,0
1731,7260005004880,登記記録の閉鎖等,0,2022-03-15,2022-03-14,特定非営利活動法人ももたろう海外友好協会,,その他の設立登記法人,岡山県,総社市,駅前１丁目３番３６号,,33,208,7191136,,,2022-03-14,清算の結了等,,,2015-10-05,1,,,,,,0
1734,7290001001739,登記記録の閉鎖等,0,2022-03-15,2022-03-09,株式会社デンサン,,株式会社,福岡県,福岡市南区,高宮１丁目１番２０号,,40,134,8150083,,,2022-03-09,清算の結了等,,,2015-10-05,1,,,,,デンサン,0
1780,8010001137213,登記記録の閉鎖等,0,2022-03-15,2022-03-09,株式会社エフエムシー・ツー,,株式会社,東京都,千代田区,外神田３丁目１２番８号,,13,101,1010021,,,2022-03-09,清算の結了等,,,2015-10-05,1,,,,,エフエムシーツー,0
1805,8010701010207,登記記録の閉鎖等,0,2022-03-15,2022-03-09,株式会社フィンチ,,株式会社,東京都,品川区,東五反田４丁目７番２７号,,13,109,1410022,,,2022-03-09,合併による解散等,9010701010206,令和４年３月９日東京都品川区東五反田四丁目７番２７号株式会社フィンチ・マネジメントサービス（9010701010206）に合併し解散,2015-10-05,1,,,,,フィンチ,0
1823,8011301024010,登記記録の閉鎖等,0,2022-03-15,2022-03-09,株式会社エニオット,,株式会社,東京都,杉並区,和田１丁目１９番１３号３０５,,13,115,1660012,,,2022-03-09,合併による解散等,1380002030469,令和４年３月１日福島県双葉郡浪江町大字幾世橋字田中前１８番地株式会社松原産業（1380002030469）に合併し解散,2018-03-30,1,,,,,エニオット,0
1824,8011501011733,登記記録の閉鎖等,0,2022-03-15,2022-03-09,株式会社アイリスアワードキャリー,,株式会社,東京都,北区,中十条３丁目２１番１１号,,13,117,1140032,,,2022-03-09,清算の結了等,,,2015-10-05,1,,,,,アイリスアワードキャリー,0
1841,8013401005666,登記記録の閉鎖等,0,2022-03-15,2022-03-02,株式会社ピー・イー・コンサルティング,,株式会社,東京都,多摩市,落合６丁目６番地４－４０１,,13,224,2060033,,,2022-03-02,清算の結了等,,,2015-10-05,1,,,,,ピーイーコンサルティング,0
1881,8110002019086,登記記録の閉鎖等,0,2022-03-15,2022-03-11,有限会社システムビジョン,,有限会社,新潟県,西蒲原郡弥彦村,大字麓６００５番地４,,15,342,9590318,,,2022-03-11,清算の結了等,,,2015-10-05,1,,,,,システムビジョン,0
1897,8120005020734,登記記録の閉鎖等,0,2022-03-15,2022-03-11,一般社団法人農商工連携推進協議会,,その他の設立登記法人,大阪府,大阪市北区,東天満２丁目６番５号Ｉ・Ｓ南森町ビル７Ｆ,,27,127,5300044,,,2022-03-11,清算の結了等,,,2019-02-22,1,,,,,ノウショウコウレンケイスイシンキョウギカイ,0
1923,8170002008802,登記記録の閉鎖等,0,2022-03-15,2022-03-11,有限会社サン・スポット,,有限会社,和歌山県,田辺市,東陽３８番１５号,,30,206,6460029,,,2022-03-11,清算の結了等,,,2015-10-05,1,,,,,サンスポット,0
1938,8230002001726,登記記録の閉鎖等,0,2022-03-15,2022-03-10,有限会社スギマサ洋装店,,有限会社,富山県,富山市,丸の内３丁目４番１４号,,16,201,9300085,,,2022-03-10,清算の結了等,,,2015-10-05,1,,,,,スギマサヨウソウテン,0
1965,8310002006700,登記記録の閉鎖等,0,2022-03-15,2022-03-14,有限会社ガイシステム,,有限会社,長崎県,長崎市,扇町１１番１４号,,42,201,8528132,,,2022-03-14,清算の結了等,,,2015-10-05,1,,,,,ガイシステム,0
1969,8320002003267,登記記録の閉鎖等,0,2022-03-15,2022-03-14,有限会社シエルブール製菓,,有限会社,大分県,大分市,錦町３丁目７番２２号,,44,201,8700024,,,2022-03-14,清算の結了等,,,2015-10-05,1,,,,,シエルブールセイカ,0
1976,8370101000202,登記記録の閉鎖等,0,2022-03-15,2022-03-07,株式会社フクシ薬品,,株式会社,宮城県,柴田郡大河原町,字南原町１１番地の１１,,04,321,9891235,,,2022-03-07,清算の結了等,,,2015-10-05,1,,,,,フクシヤクヒン,0
2005,9010101008809,登記記録の閉鎖等,0,2022-03-15,2022-03-10,ＣＲ株式会社,,株式会社,東京都,八王子市,上川町４０２２番地１,,13,201,1920151,,,2022-03-10,清算の結了等,,,2015-10-05,1,,,,,シーアール,0
2023,9010901037412,登記記録の閉鎖等,0,2022-03-15,2022-03-10,Ｄｉｓｃｏｖｅｒｉｎｇ　Ｊａｐａｎ株式会社,,株式会社,東京都,世田谷区,池尻４丁目２７番３２－２０４号,,13,112,1540001,,,2022-03-10,清算の結了等,,,2016-01-15,1,,,,,ディスカバリングジャパン,0
2040,9011403002986,登記記録の閉鎖等,0,2022-03-15,2022-03-09,合同会社セリーニ,,合同会社,東京都,板橋区,舟渡２丁目８番１０号９０２,,13,119,1740041,,,2022-03-09,清算の結了等,,,2020-04-20,1,,,,,セリーニ,0
2045,9011602002267,登記記録の閉鎖等,0,2022-03-15,2022-03-11,有限会社オノガミ,,有限会社,東京都,練馬区,練馬１丁目２２番１号,,13,120,1760001,,,2022-03-11,清算の結了等,,,2015-10-05,1,,,,,オノガミ,0
2081,9060002022912,登記記録の閉鎖等,0,2022-03-15,2022-03-09,有限会社青木モールディング,,有限会社,栃木県,那須郡那須町,大字蓑沢５５１番地,,09,407,3293437,,,2022-03-09,清算の結了等,,,2015-10-05,1,,,,,アオキモールディング,0
2094,9120001011001,登記記録の閉鎖等,0,2022-03-15,2022-03-10,株式会社トラスト,,株式会社,大阪府,大阪市中央区,中寺２丁目２番９号,,27,128,5420065,,,2022-03-10,清算の結了等,,,2015-10-05,1,,,,,トラスト,0
2096,9120001026123,登記記録の閉鎖等,0,2022-03-15,2022-03-10,永和観光株式会社,,株式会社,大阪府,大阪市此花区,春日出中２丁目５番１号,,27,104,5540022,,,2022-03-10,清算の結了等,,,2015-10-05,1,,,,,エイワカンコウ,0
2110,9120101008046,登記記録の閉鎖等,0,2022-03-15,2022-03-09,株式会社ランドハーモニー,,株式会社,大阪府,堺市北区,新金岡町３丁１番３－１０１号,,27,146,5918021,,,2022-03-09,清算の結了等,,,2015-10-05,1,,,,,ランドハーモニー,0
2115,9130001027566,登記記録の閉鎖等,0,2022-03-15,2022-03-10,秀栄商事株式会社,,株式会社,京都府,京都市西京区,大枝西新林町５丁目１３番地の９,,26,111,6101141,,,2022-03-10,清算の結了等,,,2015-10-05,1,,,,,シュウエイショウジ,0
2132,9180001082409,登記記録の閉鎖等,0,2022-03-15,2022-03-09,神田絣染工株式会社,,株式会社,愛知県,一宮市,八幡１丁目５番２０号,,23,203,4910903,,,2022-03-09,清算の結了等,,,2015-10-05,1,,,,,カンダカスリセンコウ,0
2135,9180001146766,登記記録の閉鎖等,0,2022-03-15,2022-03-09,株式会社ナカセツ,,株式会社,愛知県,名古屋市東区,泉１丁目１８番１０号エルザセンティア久屋２０７号,,23,102,4610001,,,2022-03-09,清算の結了等,,,2021-06-30,1,,,,,ナカセツ,0
2144,9180305004538,登記記録の閉鎖等,0,2022-03-15,2022-03-11,西三粘土協同組合,,その他の設立登記法人,愛知県,安城市,榎前町内畑７９番地９,,23,212,4441214,,,2022-03-11,清算の結了等,,,2015-10-05,1,,,,,セイサンネンド,0
2154,9230002000818,登記記録の閉鎖等,0,2022-03-15,2022-03-09,有限会社金尾シーリング,,有限会社,富山県,富山市,金山新１５４番地,,16,201,9302206,,,2022-03-09,清算の結了等,,,2015-10-05,1,,,,,カナオシーリング,0
2155,9240001044740,登記記録の閉鎖等,0,2022-03-15,2022-03-11,株式会社アルファトライブ,,株式会社,広島県,広島市佐伯区,五日市７丁目１４番１１号２Ｆ,,34,108,7315127,,,2022-03-11,清算の結了等,,,2015-10-05,1,,,,,アルファトライブ,0
2165,9260005006553,登記記録の閉鎖等,0,2022-03-15,2022-03-14,久米郡土地開発公社,,その他の設立登記法人,岡山県,久米郡美咲町,原田１７３５番地,,33,666,7093717,,,2022-03-14,清算の結了等,,,2015-10-05,1,,,,,クメグン,0
2166,9280003001083,登記記録の閉鎖等,0,2022-03-15,2022-03-11,合同会社家の女たち,,合同会社,島根県,大田市,三瓶町池田３２６８番地３,,32,205,6940223,,,2022-03-11,清算の結了等,,,2016-04-06,1,,,,,イエノオンナタチ,0
2192,9400002011962,登記記録の閉鎖等,0,2022-03-15,2022-03-11,有限会社佐々木農林,,有限会社,岩手県,上閉伊郡大槌町,須賀町１０番５号,,03,461,0281113,,,2022-03-11,清算の結了等,,,2015-10-05,1,,,,,ササキノウリン,0
