sequenceNumber,corporateNumber,process,correct,updateDate,changeDate,name,nameImageId,kind,prefectureName,cityName,streetNumber,addressImageId,prefectureCode,cityCode,postCode,addressOutside,addressOutsideImageId,closeDate,closeCause,successorCorporateNumber,changeCause,assignmentDate,latest,enName,enPrefectureName,enCityName,enAddressOutside,furigana,hihyoji
16,1010401162230,新規,0,2021-09-02,2021-09-02,株式会社ＫＭＲカンファレンス,,株式会社,東京都,港区,新橋６丁目２番６号,,13,103,1050004,,,,,,,2021-09-02,1,,,,,ケイエムアールカンファレンス,0
17,1010401162445,新規,0,2021-09-02,2021-09-02,株式会社トータルコンディショニング,,株式会社,東京都,港区,六本木７丁目７番７号Ｔｒｉ－ＳｅｖｅｎＲｏｐｐｏｎｇｉ８Ｆ,,13,103,1060032,,,,,,,2021-09-02,1,,,,,トータルコンディショニング,0
19,1010403026037,新規,0,2021-09-02,2021-09-02,合同会社マルベリーキャピタル,,合同会社,東京都,港区,白金台３丁目１６番２－３０７号,,13,103,1080071,,,,,,,2021-09-02,1,,,,,マルベリーキャピタル,0
21,1010503006368,新規,0,2021-09-02,2021-09-02,Ｌａｚｕｒｏ合同会社,,合同会社,東京都,台東区,台東２丁目２６－８若林ハイム２Ｆ,,13,106,1100016,,,,,,,2021-09-02,1,,,,,ラズロ,0
36,1011101096157,新規,0,2021-09-02,2021-09-02,株式会社アライブリース,,株式会社,東京都,新宿区,舟町１５番地,,13,104,1600006,,,,,,,2021-09-02,1,,,,,アライブリース,0
39,1011205002449,新規,0,2021-09-02,2021-09-02,一般社団法人建物調査診断受託センター,,その他の設立登記法人,東京都,中野区,新井１丁目３４番１４号,,13,114,1650026,,,,,,,2021-09-02,1,,,,,タテモノチョウサシンダンジュタクセンター,0
42,1011301027143,新規,0,2021-09-02,2021-09-02,ＦＯＳＫＩＡ　ｉｍａｇｅ株式会社,,株式会社,東京都,杉並区,永福４丁目９番１９号,,13,115,1680064,,,,,,,2021-09-02,1,,,,,フォスキアイメージ,0
47,1011801039646,新規,0,2021-09-02,2021-09-02,株式会社３Ｓ,,株式会社,東京都,葛飾区,南水元１丁目１２番１６号,,13,122,1250035,,,,,,,2021-09-02,1,,,,,スリーエス,0
52,1012701016644,新規,0,2021-09-02,2021-09-02,株式会社親和,,株式会社,東京都,清瀬市,松山３丁目１７番５号清瀬ダイヤビル２０１,,13,221,2040022,,,,,,,2021-09-02,1,,,,,シンワ,0
62,1020001142821,新規,0,2021-09-02,2021-09-02,株式会社三毛猫,,株式会社,神奈川県,川崎市多摩区,登戸２２０１番地３,,14,135,2140014,,,,,,,2021-09-02,1,,,,,ミケネコ,0
64,1020003020364,新規,0,2021-09-02,2021-09-02,合同会社ｗｉｔｈｆｌｏｗ,,合同会社,神奈川県,横浜市神奈川区,栄町５－１横浜クリエーションスクエア１４Ｆ,,14,102,2210052,,,,,,,2021-09-02,1,,,,,ウィズフロー,0
65,1020003020414,新規,0,2021-09-02,2021-09-02,合同会社ＴｉＫＳ,,合同会社,神奈川県,横浜市戸塚区,影取町２５８番地１０,,14,110,2450064,,,,,,,2021-09-02,1,,,,,ティックス,0
71,1021003010826,新規,0,2021-09-02,2021-09-02,合同会社いとへん,,合同会社,神奈川県,足柄下郡湯河原町,福浦４５１－１,,14,384,2590311,,,,,,,2021-09-02,1,,,,,イトヘン,0
77,1030001144032,新規,0,2021-09-02,2021-09-02,株式会社ＴＣクリエイティブ,,株式会社,埼玉県,鴻巣市,本町４丁目４番２３号,,11,217,3650038,,,,,,,2021-09-02,1,,,,,ティーシークリエイティブ,0
78,1030001144065,新規,0,2021-09-02,2021-09-02,聖心空調設備株式会社,,株式会社,埼玉県,川口市,上青木１丁目１１番２号,,11,203,3330844,,,,,,,2021-09-02,1,,,,,セイシンクウチョウセツビ,0
79,1030001144107,新規,0,2021-09-02,2021-09-02,ＰＭＰ株式会社,,株式会社,埼玉県,さいたま市大宮区,天沼町１丁目５２番地５,,11,103,3300834,,,,,,,2021-09-02,1,,,,,ピーエムピー,0
80,1030001144123,新規,0,2021-09-02,2021-09-02,ぱぁみぃ株式会社,,株式会社,埼玉県,川越市,新宿町６丁目１６番地２４,,11,201,3501124,,,,,,,2021-09-02,1,,,,,パァミィ,0
84,1030003017871,新規,0,2021-09-02,2021-09-02,合同会社Ｓｕｎｂｅａｍ　ａｕｔｏ,,合同会社,埼玉県,羽生市,大字上手子林字神明２６８４番地,,11,216,3480025,,,,,,,2021-09-02,1,,,,,サンビームオート,0
95,1040001119990,新規,0,2021-09-02,2021-09-02,コネクティシェア株式会社,,株式会社,千葉県,市原市,五井２２４４－１クレオ２１ビル１０６,,12,219,2900056,,,,,,,2021-09-02,1,,,,,コネクティシェア,0
97,1040003018415,新規,0,2021-09-02,2021-09-02,合同会社シマノキカク,,合同会社,千葉県,松戸市,松飛台１３９番地の１,,12,207,2702214,,,,,,,2021-09-02,1,,,,,シマノキカク,0
102,1060003003794,新規,0,2021-09-02,2021-09-02,合同会社ブルーコネクト,,合同会社,栃木県,足利市,鹿島町１７４番地７,,09,202,3260844,,,,,,,2021-09-02,1,,,,,ブルーコネクト,0
109,1080401025307,新規,0,2021-09-02,2021-09-02,株式会社ＦＵＫＵ,,株式会社,静岡県,浜松市中区,和合町２２０番地の５８１,,22,131,4338125,,,,,,,2021-09-02,1,,,,,フク,0
110,1090003001936,新規,0,2021-09-02,2021-09-02,合同会社富士山プロパティ,,合同会社,山梨県,南都留郡山中湖村,山中３７３－３,,19,425,4010501,,,,,,,2021-09-02,1,,,,,フジサンプロパティ,0
113,1100003006223,新規,0,2021-09-02,2021-09-02,合同会社ＨｉＤｅｎＢｏｘ,,合同会社,長野県,上高井郡小布施町,大字中松１３－３４,,20,541,3810209,,,,,,,2021-09-02,1,,,,,ヒデンボックス,0
130,1120001240078,新規,0,2021-09-02,2021-09-02,ＩＲアセットマネジメント株式会社,,株式会社,大阪府,大阪市淀川区,十三東１丁目１４番２３号大盛マンション１０２,,27,123,5320023,,,,,,,2021-09-02,1,,,,,アイアールアセットマネジメント,0
131,1120001240086,新規,0,2021-09-02,2021-09-02,株式会社ＫＩＬＡＶＩ,,株式会社,大阪府,大阪市淀川区,西中島６丁目２番１５－３０５号,,27,123,5320011,,,,,,,2021-09-02,1,,,,,キラビ,0
132,1120001240103,新規,0,2021-09-02,2021-09-02,株式会社ＮＺ,,株式会社,大阪府,大阪市生野区,生野西１丁目３－２５,,27,116,5440024,,,,,,,2021-09-02,1,,,,,エヌズ,0
133,1120001240152,新規,0,2021-09-02,2021-09-02,株式会社ｋｅｅｐ,,株式会社,大阪府,大阪市北区,梅田１丁目１１番４号大阪駅前第４ビル９階９２３－１６０２号,,27,127,5300001,,,,,,,2021-09-02,1,,,,,キープ,0
137,1120003020024,新規,0,2021-09-02,2021-09-02,合同会社ＧＥＴ,,合同会社,大阪府,大阪市北区,天神橋４丁目１０番１０号,,27,127,5300041,,,,,,,2021-09-02,1,,,,,ゲット,0
138,1120003020131,新規,0,2021-09-02,2021-09-02,合同会社Ｔ　ＢＯＮＥ,,合同会社,大阪府,大阪市平野区,加美北６丁目７番７号２階,,27,126,5470001,,,,,,,2021-09-02,1,,,,,ティーボーン,0
144,1120103004323,新規,0,2021-09-02,2021-09-02,合同会社ＩＮＦＩＮＩＴＹ,,合同会社,大阪府,泉南郡熊取町,若葉１丁目１番３号,,27,361,5900433,,,,,,,2021-09-02,1,,,,,インフィニティ,0
146,1120903003805,新規,0,2021-09-02,2021-09-02,なかせん興産合同会社,,合同会社,大阪府,豊中市,栗ケ丘町９番１１号,,27,203,5600016,,,,,,,2021-09-02,1,,,,,ナカセンコウサン,0
161,1140001122877,新規,0,2021-09-02,2021-09-02,株式会社イマジネーション,,株式会社,兵庫県,神戸市東灘区,渦森台４丁目１０番６号,,28,101,6580066,,,,,,,2021-09-02,1,,,,,イマジネーション,0
163,1140003016697,新規,0,2021-09-02,2021-09-02,合同会社ＦＯＲＫ,,合同会社,兵庫県,神戸市中央区,上筒井通３丁目２番２３－２号,,28,110,6510061,,,,,,,2021-09-02,1,,,,,フォーク,0
164,1140005025795,新規,0,2021-09-02,2021-09-02,一般社団法人絆,,その他の設立登記法人,兵庫県,神戸市中央区,北長狭通７丁目１番２５号,,28,110,6500012,,,,,,,2021-09-02,1,,,,,キズナ,0
166,1150001024890,新規,0,2021-09-02,2021-09-02,株式会社丸太建築舎,,株式会社,奈良県,奈良市,法蓮町９７５番地,,29,201,6308113,,,,,,,2021-09-02,1,,,,,マルタケンチクシャ,0
171,1160003002365,新規,0,2021-09-02,2021-09-02,ＧＫＣ合同会社,,合同会社,滋賀県,大津市,大萱４丁目８－１０,,25,201,5202144,,,,,,,2021-09-02,1,,,,,ジーケーシー,0
173,1170001016754,新規,0,2021-09-02,2021-09-02,株式会社スリーナインエキスプレス,,株式会社,和歌山県,和歌山市,寺内６１１番地１,,30,201,6408311,,,,,,,2021-09-02,1,,,,,スリーナインエキスプレス,0
174,1170001016762,新規,0,2021-09-02,2021-09-02,株式会社セイコーパーツ,,株式会社,和歌山県,和歌山市,鳴神７８８番地１２,,30,201,6408303,,,,,,,2021-09-02,1,,,,,セイコウパーツ,0
183,1180001147631,新規,0,2021-09-02,2021-09-02,株式会社エドギフト,,株式会社,愛知県,名古屋市中区,栄５丁目２６番３９号ＧＳ栄ビル３Ｆ,,23,106,4600008,,,,,,,2021-09-02,1,,,,,エドギフト,0
186,1180301035313,新規,0,2021-09-02,2021-09-02,株式会社ＳＥＪ弥富,,株式会社,愛知県,西尾市,徳次町上十五夜３６番地１,,23,213,4450072,,,,,,,2021-09-02,1,,,,,エスイージェイヤトミ,0
187,1180301035321,新規,0,2021-09-02,2021-09-02,株式会社ＩＮＷＩＴ,,株式会社,愛知県,西尾市,今川町池端３２番地１,,23,213,4450063,,,,,,,2021-09-02,1,,,,,インウィット,0
189,1180303005090,新規,0,2021-09-02,2021-09-02,合同会社ＫＵＧＯ,,合同会社,愛知県,豊田市,乙部ケ丘２丁目５番地１２,,23,211,4700346,,,,,,,2021-09-02,1,,,,,,0
201,1230001018959,新規,0,2021-09-02,2021-09-02,株式会社中田農園,,株式会社,富山県,富山市,関３７５番地,,16,201,9398123,,,,,,,2021-09-02,1,,,,,ナカダノウエン,0
210,1240001058517,新規,0,2021-09-02,2021-09-02,株式会社アースコネクト,,株式会社,広島県,大竹市,湯舟町４番８号,,34,211,7390655,,,,,,,2021-09-02,1,,,,,アースコネクト,0
216,1260001035919,新規,0,2021-09-02,2021-09-02,株式会社モールドオートメーション,,株式会社,岡山県,倉敷市,東粒浦１番１６号,,33,202,7100032,,,,,,,2021-09-02,1,,,,,モールドオートメーション,0
220,1260005010967,新規,0,2021-09-02,2021-09-02,弁護士法人財津総合法律事務所,,その他の設立登記法人,岡山県,岡山市北区,出石町１丁目２番１１号イマージュシャトー１階,,33,101,7000812,,,,,,,2021-09-02,1,,,,,ザイツソウゴウホウリツジムショ,0
225,1280003001529,新規,0,2021-09-02,2021-09-02,寿アグリ合同会社,,合同会社,島根県,松江市,東津田町２１６８番地６９,,32,201,6900011,,,,,,,2021-09-02,1,,,,,コトブキアグリ,0
241,1310001017457,新規,0,2021-09-02,2021-09-02,株式会社舞豚,,株式会社,長崎県,島原市,有明町大三東戊６６３番地３,,42,203,8591415,,,,,,,2021-09-02,1,,,,,マイトン,0
245,1330001028956,新規,0,2021-09-02,2021-09-02,株式会社前高農研,00124106,株式会社,熊本県,熊本市北区,植木町富応８８１番地８,,43,105,8610162,,,,,,,2021-09-02,1,,,,,マエタカノウケン,0
247,1340001024062,新規,0,2021-09-02,2021-09-02,株式会社薩喜物流,,株式会社,鹿児島県,鹿児島市,下福元町７４７３番地７,,46,201,8910144,,,,,,,2021-09-02,1,,,,,サツキブツリュウ,0
248,1340001024070,新規,0,2021-09-02,2021-09-02,株式会社日向開発興業,,株式会社,鹿児島県,鹿児島市,清和３丁目１４番３８号愛和マンション１０２号,,46,201,8910109,,,,,,,2021-09-02,1,,,,,ヒュウガカイハツコウギョウ,0
258,1350001017288,新規,0,2021-09-02,2021-09-02,株式会社谷岩茶舗,,株式会社,宮崎県,日向市,浜町１丁目９番地,,45,206,8830004,,,,,,,2021-09-02,1,,,,,タニイワチャホ,0
269,1390001016575,新規,0,2021-09-02,2021-09-02,おきたま新電力株式会社,,株式会社,山形県,米沢市,城西２丁目３番７２号ＭＨ東ビル１０２号室,,06,202,9920054,,,,,,,2021-09-02,1,,,,,オキタマシンデンリョク,0
272,1400003002828,新規,0,2021-09-02,2021-09-02,合同会社ウィズ北星,,合同会社,岩手県,盛岡市,羽場３地割１０９－１,,03,201,0200841,,,,,,,2021-09-02,1,,,,,ウィズホクセイ,0
281,1430001084865,新規,0,2021-09-02,2021-09-02,株式会社濱建,,株式会社,北海道,札幌市東区,北四十七条東１７丁目１番３２－５１１号,,01,103,0070847,,,,,,,2021-09-02,1,,,,,ハマケン,0
283,1430003013112,新規,0,2021-09-02,2021-09-02,合同会社希共会,,合同会社,北海道,札幌市東区,東雁来九条４丁目１９－１２,,01,103,0070829,,,,,,,2021-09-02,1,,,,,キキョウカイ,0
291,1700150104603,新規,0,2021-09-02,2021-09-02,ＫＩＡ　ＴＩＧＥＲＳ　ＣＯ．，ＬＴＤ．,,外国会社等,,,,,,,,２Ｆ　ＫＩＡ　ＴＩＧＥＲＳ，Ｇｗａｎｇｊｕ－ＫＩＡ　Ｃｈａｍｐｉｏｎｓ　Ｆｉｅｌｄ，１０，Ｓｅｏｒｉｍ－ｒｏ，Ｂｕｋ－ｇｕ，Ｇｗａｎｇｊｕ，ＫＯＲＥＡ,,,,,,2021-09-02,1,,,,,キアタイガース,0
292,1700150104611,新規,0,2021-09-02,2021-09-02,Ｌｅｇａｃｙ　Ｉｎｖｅｓｔｍｅｎｔｓ　Ｌｉｍｉｔｅｄ,,外国会社等,北海道,虻田郡倶知安町,字山田１６３－２０１,,01,400,0440081,中国，香港，ワンチャイ，トムソンロード１４１，タイイップビル１０階１００５,,,,,,2021-09-02,1,,,,,レガシーインベストメントリミテツド,0
299,2010001220833,新規,0,2021-09-02,2021-09-02,ＫＤＸ証券設立準備株式会社,,株式会社,東京都,千代田区,内幸町２丁目１番６号,,13,101,1000011,,,,,,,2021-09-02,1,,,,,ケーディーエックスショウケンセツリツジュンビ,0
311,2010401162444,新規,0,2021-09-02,2021-09-02,株式会社ＴＭＴ,,株式会社,東京都,港区,新橋２丁目８番１６号石田ビル４Ｆｃ,,13,103,1050004,,,,,,,2021-09-02,1,,,,,ティーエムティー,0
319,2010501047768,新規,0,2021-09-02,2021-09-02,株式会社シーソフトフェロー,,株式会社,東京都,台東区,雷門２丁目１９番１７号浅草雷一ビル４０１,,13,106,1110034,,,,,,,2021-09-02,1,,,,,シーソフトフェロー,0
331,2011005009197,新規,0,2021-09-02,2021-09-02,一般社団法人日本プロパーソナルトレーニング指導者協会,,その他の設立登記法人,東京都,目黒区,八雲１丁目７番２１号,,13,110,1520023,,,,,,,2021-09-02,1,,,,,ニホンプロパーソナルトレーニングシドウシャキョウカイ,0
340,2011601025366,新規,0,2021-09-02,2021-09-02,株式会社ＫＪビジネスサポート,,株式会社,東京都,練馬区,関町北４丁目１６番４５号,,13,120,1770051,,,,,,,2021-09-02,1,,,,,ケイジェイビジネスサポート,0
343,2011703002932,新規,0,2021-09-02,2021-09-02,合同会社Ｓａｎｔｉ,,合同会社,東京都,江戸川区,東小岩６丁目１０番１６号,,13,123,1330052,,,,,,,2021-09-02,1,,,,,シャンティ,0
346,2011801039661,新規,0,2021-09-02,2021-09-02,コネクター株式会社,,株式会社,東京都,足立区,南花畑２丁目１６番１号,,13,121,1210062,,,,,,,2021-09-02,1,,,,,コネクター,0
348,2011805003102,新規,0,2021-09-02,2021-09-02,一般社団法人Ｓ＆Ｔあんさんぶる,,その他の設立登記法人,東京都,足立区,千住柳町３７番７号,,13,121,1200032,,,,,,,2021-09-02,1,,,,,エスアンドティーアンサンブル,0
350,2012701016643,新規,0,2021-09-02,2021-09-02,株式会社セカンドトーン,,株式会社,東京都,小平市,上水本町６丁目１０番２７号,,13,211,1870022,,,,,,,2021-09-02,1,,,,,セカンドトーン,0
354,2013301047946,新規,0,2021-09-02,2021-09-02,株式会社日本人材育成センター,,株式会社,東京都,豊島区,東池袋１丁目３４番５号いちご東池袋ビル６Ｆ,,13,116,1700013,,,,,,,2021-09-02,1,,,,,ニホンジンザイイクセイセンター,0
358,2020001142829,新規,0,2021-09-02,2021-09-02,株式会社ＹＲ,,株式会社,神奈川県,川崎市多摩区,東三田３丁目１０番１号,,14,135,2140033,,,,,,,2021-09-02,1,,,,,ワイアール,0
359,2020001142837,新規,0,2021-09-02,2021-09-02,アペックス環境株式会社,,株式会社,神奈川県,横浜市中区,新山下２丁目４番３号,,14,104,2310801,,,,,,,2021-09-02,1,,,,,アペックスカンキョウ,0
368,2020003020371,新規,0,2021-09-02,2021-09-02,合同会社ＫＹＲＩＥ,,合同会社,神奈川県,川崎市多摩区,西生田１丁目１２－４－１０８,,14,135,2140037,,,,,,,2021-09-02,1,,,,,キリエ,0
370,2021001073824,新規,0,2021-09-02,2021-09-02,クラファーズ株式会社,,株式会社,神奈川県,平塚市,宮の前３番１９号,,14,203,2540035,,,,,,,2021-09-02,1,,,,,クラファーズ,0
381,2030001144106,新規,0,2021-09-02,2021-09-02,株式会社ＷｏｒｋＦｕｎ,,株式会社,埼玉県,戸田市,本町４丁目１１－１９パールステーション３０１,,11,224,3350023,,,,,,,2021-09-02,1,,,,,ワークファン,0
387,2030003017879,新規,0,2021-09-02,2021-09-02,旺暿合同会社,00124093,合同会社,埼玉県,川口市,並木４丁目３番２号,,11,203,3320034,,,,,,,2021-09-02,1,,,,,オウキ,0
388,2030003017904,新規,0,2021-09-02,2021-09-02,合同会社グルーヴクリエイト,,合同会社,埼玉県,越谷市,千間台西４丁目１５番地５,,11,222,3430041,,,,,,,2021-09-02,1,,,,,グルーヴクリエイト,0
391,2040001119973,新規,0,2021-09-02,2021-09-02,株式会社ＮＩ－ＮＡ,,株式会社,千葉県,市川市,大和田３丁目１３番２６号,,12,203,2720025,,,,,,,2021-09-02,1,,,,,ニーナ,0
392,2040001119998,新規,0,2021-09-02,2021-09-02,ＪＵＮＣＯ株式会社,,株式会社,千葉県,千葉市美浜区,中瀬１丁目９－１スターツ幕張ビル１２０４,,12,106,2610023,,,,,,,2021-09-02,1,,,,,ジュンコ,0
393,2040001120007,新規,0,2021-09-02,2021-09-02,株式会社榎本設備,,株式会社,千葉県,千葉市若葉区,大宮町１５９３番地５,,12,104,2640016,,,,,,,2021-09-02,1,,,,,エノモトセツビ,0
401,2060001009009,新規,0,2021-09-02,2021-09-02,株式会社山味亭こうわ,,株式会社,栃木県,日光市,川治温泉川治２２番地,,09,206,3212611,,,,,,,2021-09-02,1,,,,,サンミテイコウワ,0
405,2080001024410,新規,0,2021-09-02,2021-09-02,株式会社ｓｆｉｄａｎｔｅ,,株式会社,静岡県,静岡市葵区,梅屋町６番地の４ｈｅｒｏｋｗ１０２,,22,101,4200038,,,,,,,2021-09-02,1,,,,,スフィダンテ,0
408,2080401025297,新規,0,2021-09-02,2021-09-02,ＣＮＴ株式会社,,株式会社,静岡県,浜松市西区,雄踏町宇布見８４２６番地の１,,22,133,4310102,,,,,,,2021-09-02,1,,,,,シーエヌティ,0
409,2080401025306,新規,0,2021-09-02,2021-09-02,株式会社乗松農産,,株式会社,静岡県,磐田市,敷地４５６番地１,,22,211,4380106,,,,,,,2021-09-02,1,,,,,ノリマツノウサン,0
412,2090003001935,新規,0,2021-09-02,2021-09-02,リーガルハーベスト合同会社,,合同会社,山梨県,笛吹市,春日居町鎮目７７４番地,,19,211,4060015,,,,,,,2021-09-02,1,,,,,リーガルハーベスト,0
413,2100001034555,新規,0,2021-09-02,2021-09-02,株式会社イワタブルーム,,株式会社,長野県,上伊那郡飯島町,七久保４１３６番地２,,20,384,3993705,,,,,,,2021-09-02,1,,,,,イワタブルーム,0
416,2110003004563,新規,0,2021-09-02,2021-09-02,サヴィー妙高合同会社,,合同会社,新潟県,妙高市,大字関川２２４８番地４,,15,217,9492112,,,,,,,2021-09-02,1,,,,,サヴィーミョウコウ,0
423,2120001240069,新規,0,2021-09-02,2021-09-02,株式会社ジュノ,,株式会社,大阪府,大阪市福島区,福島１丁目１番１２号リバーレジデンス堂島５０２,,27,103,5530003,,,,,,,2021-09-02,1,,,,,ジュノ,0
424,2120001240077,新規,0,2021-09-02,2021-09-02,Ｉｕｇｅｎ株式会社,,株式会社,大阪府,大阪市北区,梅田１丁目２－２－２００号大阪駅前第２ビル２階３－１－２,,27,127,5300001,,,,,,,2021-09-02,1,,,,,イウゲン,0
425,2120001240085,新規,0,2021-09-02,2021-09-02,Ｇｏ　Ｔｅｃｈ株式会社,,株式会社,大阪府,大阪市西区,立売堀１丁目４番１２号立売堀スクエアビル８Ｆ,,27,106,5500012,,,,,,,2021-09-02,1,,,,,ゴーテック,0
426,2120001240102,新規,0,2021-09-02,2021-09-02,株式会社ヒハナ,,株式会社,大阪府,大阪市浪速区,恵美須西２丁目２番６号,,27,111,5560003,,,,,,,2021-09-02,1,,,,,ヒハナ,0
430,2120901044858,新規,0,2021-09-02,2021-09-02,ヤマデンクレーンサービス株式会社,,株式会社,大阪府,吹田市,藤白台３丁目５番２－５０７号,,27,205,5650873,,,,,,,2021-09-02,1,,,,,ヤマデンクレーンサービス,0
432,2122001035127,新規,0,2021-09-02,2021-09-02,株式会社ベストテクノサービス,,株式会社,大阪府,東大阪市,新庄３丁目１０番１５号,,27,227,5780963,,,,,,,2021-09-02,1,,,,,ベストテクノサービス,0
433,2122001035135,新規,0,2021-09-02,2021-09-02,株式会社Ｋ’ｓ　Ｇｉｆｔ,,株式会社,大阪府,東大阪市,加納８丁目１９番５号,,27,227,5780901,,,,,,,2021-09-02,1,,,,,ケーズギフト,0
434,2122003002166,新規,0,2021-09-02,2021-09-02,ＫｍＤ合同会社,,合同会社,大阪府,東大阪市,新家西町１５番４号,,27,227,5770028,,,,,,,2021-09-02,1,,,,,ケーエムディー,0
444,2130005016258,新規,0,2021-09-02,2021-09-02,一般社団法人Ｓｐａｃｅ　Ｔｗｅｅｄｉａ,,その他の設立登記法人,京都府,京都市下京区,室町通綾小路上る鶏鉾町４８０番地オフィスワン四条烏丸１３階,,26,106,6008491,,,,,,,2021-09-02,1,,,,,スペースツイーディア,0
451,2140001122843,新規,0,2021-09-02,2021-09-02,サトテル株式会社,,株式会社,兵庫県,西宮市,上大市１丁目６番２７号,,28,204,6638003,,,,,,,2021-09-02,1,,,,,サトテル,0
452,2140001122868,新規,0,2021-09-02,2021-09-02,イノベーションスカイ株式会社,,株式会社,兵庫県,姫路市,南町６３番地,,28,201,6700912,,,,,,,2021-09-02,1,,,,,イノベーションスカイ,0
457,2160001023602,新規,0,2021-09-02,2021-09-02,株式会社一級建築士事務所Ｒｏｏｔｓ,,株式会社,滋賀県,東近江市,八日市上之町２－７ウイング八日市３０３号室,,25,213,5270022,,,,,,,2021-09-02,1,,,,,イッキュウケンチクシジムショルーツ,0
459,2170001016753,新規,0,2021-09-02,2021-09-02,株式会社シンセイ,,株式会社,和歌山県,和歌山市,手平４丁目７番１７－３号モントレゾーＮ（Ｃ号）,,30,201,6408319,,,,,,,2021-09-02,1,,,,,シンセイ,0
469,2180301035320,新規,0,2021-09-02,2021-09-02,株式会社ＰＰＳ,,株式会社,愛知県,岡崎市,真伝町字鐘鋳１番地３２フォーブル真伝Ｂ１０１,,23,202,4443174,,,,,,,2021-09-02,1,,,,,ピーピーエス,0
470,2180301035337,新規,0,2021-09-02,2021-09-02,株式会社オーシャン,,株式会社,愛知県,豊橋市,野黒町７番地ＬＵＸＥ’Ｓ（Ａ号室）,,23,201,4418022,,,,,,,2021-09-02,1,,,,,,0
475,2200001039073,新規,0,2021-09-02,2021-09-02,株式会社本巣土質試験所,,株式会社,岐阜県,本巣市,根尾平野４６番地１の２,,21,218,5011526,,,,,,,2021-09-02,1,,,,,モトスドシツシケンジョ,0
476,2200001039081,新規,0,2021-09-02,2021-09-02,株式会社もんでこ,,株式会社,岐阜県,大垣市,上石津町上６３０番地２,,21,202,5031638,,,,,,,2021-09-02,1,,,,,モンデコ,0
477,2200003005296,新規,0,2021-09-02,2021-09-02,合同会社プロージット,,合同会社,岐阜県,岐阜市,長住町１丁目１４番地エスポワールＩＴＯ２Ａ,,21,201,5008175,,,,,,,2021-09-02,1,,,,,プロージット,0
484,2210001018588,新規,0,2021-09-02,2021-09-02,株式会社小野田建築,,株式会社,福井県,福井市,山室町第３８号１７番地,,18,201,9100108,,,,,,,2021-09-02,1,,,,,オノダケンチク,0
486,2230001018958,新規,0,2021-09-02,2021-09-02,株式会社ｉｂ‐Ｇａｒａｇｅ,,株式会社,富山県,富山市,山室３６番地１ＩＢビル２Ｆ,,16,201,9398006,,,,,,,2021-09-02,1,,,,,アイビーガレージ,0
501,2250003002891,新規,0,2021-09-02,2021-09-02,合同会社柚子,,合同会社,山口県,山口市,黒川２３１１番地１１,,35,203,7530851,,,,,,,2021-09-02,1,,,,,ユズ,0
505,2260001035918,新規,0,2021-09-02,2021-09-02,株式会社Ｇｒｉｔ,,株式会社,岡山県,岡山市北区,御津宇垣１５４番地２,,33,101,7092121,,,,,,,2021-09-02,1,,,,,グリット,0
506,2260001035926,新規,0,2021-09-02,2021-09-02,株式会社ＬＩＦＥＡＮＧＬＥ,,株式会社,岡山県,倉敷市,中庄２３５１番地６,,33,202,7100016,,,,,,,2021-09-02,1,,,,,ライフアングル,0
510,2260005010966,新規,0,2021-09-02,2021-09-02,一般社団法人ふたかわコスモヴィレッジ,,その他の設立登記法人,岡山県,真庭市,種８５６番地,,33,214,7170424,,,,,,,2021-09-02,1,,,,,フタカワコスモヴィレッジ,0
513,2280003001528,新規,0,2021-09-02,2021-09-02,合同会社ＦＫＴ,,合同会社,島根県,雲南市,加茂町岩倉３３番６地,,32,209,6991115,,,,,,,2021-09-02,1,,,,,エフケイティー,0
531,2310001017456,新規,0,2021-09-02,2021-09-02,株式会社ＫＯＡ,,株式会社,長崎県,南島原市,有家町蒲河１７２７番地４,,42,214,8592204,,,,,,,2021-09-02,1,,,,,コア,0
535,2330001028947,新規,0,2021-09-02,2021-09-02,幸南物産株式会社,,株式会社,熊本県,上益城郡山都町,今３６５番地４,,43,447,8613913,,,,,,,2021-09-02,1,,,,,コウナンブッサン,0
536,2330001028955,新規,0,2021-09-02,2021-09-02,株式会社アクト,,株式会社,熊本県,熊本市南区,日吉２丁目１１番４７－９０３号,,43,104,8614109,,,,,,,2021-09-02,1,,,,,アクト,0
542,2340003003534,新規,0,2021-09-02,2021-09-02,合同会社トータルプロキシー,,合同会社,鹿児島県,西之表市,桜が丘７７７９番地６３,,46,213,8913117,,,,,,,2021-09-02,1,,,,,トータルプロキシー,0
546,2360001029298,新規,0,2021-09-02,2021-09-02,株式会社ＯＫＩ　ＭＡＲＴ,,株式会社,沖縄県,沖縄市,胡屋５丁目１３番３号胡屋シティーハイツＢ－４,,47,211,9040021,,,,,,,2021-09-02,1,,,,,,0
547,2360003011403,新規,0,2021-09-02,2021-09-02,合同会社ｃｈｏｏｓｅ,,合同会社,沖縄県,那覇市,前島３丁目２５番２号泊ポートビル１階,,47,201,9000016,,,,,,,2021-09-02,1,,,,,チューズ,0
549,2370001047555,新規,0,2021-09-02,2021-09-02,大泉空調株式会社,,株式会社,宮城県,仙台市若林区,上飯田２丁目２０番７号,,04,103,9840838,,,,,,,2021-09-02,1,,,,,オオイズミクウチョウ,0
550,2370001047563,新規,0,2021-09-02,2021-09-02,株式会社グローライフ,,株式会社,宮城県,石巻市,蛇田字中埣３７番地１４,,04,202,9860861,,,,,,,2021-09-02,1,,,,,グローライフ,0
552,2370005010336,新規,0,2021-09-02,2021-09-02,一般社団法人気仙沼インドネシア友好協会,,その他の設立登記法人,宮城県,気仙沼市,笹が陣２番１８号,,04,205,9880073,,,,,,,2021-09-02,1,,,,,ケセンヌマインドネシアユウコウキョウカイ,0
567,2430001084856,新規,0,2021-09-02,2021-09-02,丸駒温泉旅館株式会社,,株式会社,北海道,千歳市,幌美内７番地,,01,224,0660287,,,,,,,2021-09-02,1,,,,,マルコマオンセンリョカン,0
571,2460001005586,新規,0,2021-09-02,2021-09-02,コムテック株式会社,,株式会社,北海道,釧路市,愛国西３丁目３４番２２号,,01,206,0850057,,,,,,,2021-09-02,1,,,,,コムテック,0
581,2700150104602,新規,0,2021-09-02,2021-09-02,ｋｔ　ｓｐｏｒｔｓ,,外国会社等,,,,,,,,８９３，Ｇｙｅｏｎｇｓｕ－ｄａｅｒｏ，Ｊａｎｇ－ａｎ－ｇｕ，Ｓｕｗｏｎ－ｓｉ，Ｇｙｅｏｎｇｇｉ－ｄｏ，ＫＯＲＥＡ,,,,,,2021-09-02,1,,,,,ケイテイスポーツ,0
582,2700150104610,新規,0,2021-09-02,2021-09-02,Ｅｐｉｃ！　Ｃｒｅａｔｉｏｎｓ，Ｉｎｃ,,外国会社等,,,,,,,,７０２　Ｍａｒｓｈａｌｌ　Ｓｔ．，Ｓｕｉｔｅ　２８０　Ｒｅｄ　Ｗｏｏｄ　Ｃｉｔｙ，ＣＡ　ＵＳＡ,,,,,,2021-09-02,1,,,,,エピツククリエーシヨンズインク,0
591,3010001220816,新規,0,2021-09-02,2021-09-02,株式会社ファイン,,株式会社,東京都,文京区,白山４丁目１７番６号,,13,105,1120001,,,,,,,2021-09-02,1,,,,,ファイン,0
596,3010005033883,新規,0,2021-09-02,2021-09-02,一般社団法人ＳＯＬＶＥ,,その他の設立登記法人,東京都,千代田区,二番町１－２番町ハイム１１０２,,13,101,1020084,,,,,,,2021-09-02,1,,,,,ソルブ,0
614,3010901049355,新規,0,2021-09-02,2021-09-02,株式会社ＰＡＵＬ．Ｋ,,株式会社,東京都,世田谷区,赤提四丁目４２番１９号,,13,112,1540000,,,,,,,2021-09-02,1,,,,,ポールケー,0
622,3011101096171,新規,0,2021-09-02,2021-09-02,株式会社Ｂｅｙｏｎｄ　ｔｈｅ　ｆｉｒｓｔ,,株式会社,東京都,新宿区,左門町２０番地ガーネットコート四谷１００２号室,,13,104,1600017,,,,,,,2021-09-02,1,,,,,ビヨンドザファースト,0
626,3011303004147,新規,0,2021-09-02,2021-09-02,合同会社陽光ライフ,,合同会社,東京都,杉並区,高円寺南４丁目２７番１７－７０４号,,13,115,1660003,,,,,,,2021-09-02,1,,,,,ヨウコウライフ,0
627,3011303004155,新規,0,2021-09-02,2021-09-02,合同会社ＣｏＣｏ,,合同会社,東京都,杉並区,下高井戸５丁目２番３号ＯＬＩＯ上北沢２０３,,13,115,1680073,,,,,,,2021-09-02,1,,,,,ココ,0
628,3011405002164,新規,0,2021-09-02,2021-09-02,一般社団法人ＩＴエンジニアサポート協会,,その他の設立登記法人,東京都,板橋区,清水町６番１０号,,13,119,1740053,,,,,,,2021-09-02,1,,,,,アイティーエンジニアサポートキョウカイ,0
636,3011801039636,新規,0,2021-09-02,2021-09-02,株式会社小松商事,,株式会社,東京都,葛飾区,東金町４丁目２３番１号１Ｆ,,13,122,1250041,,,,,,,2021-09-02,1,,,,,コマツショウジ,0
637,3011801039669,新規,0,2021-09-02,2021-09-02,株式会社みらいクレヨン,,株式会社,東京都,葛飾区,小菅１丁目３６番２－７１５号,,13,122,1240001,,,,,,,2021-09-02,1,,,,,ミライクレヨン,0
642,3020001142811,新規,0,2021-09-02,2021-09-02,Ｆｕｋｕｌａ株式会社,,株式会社,神奈川県,横浜市中区,桜木町２丁目２番地港陽ビル５Ｆ,,14,104,2310062,,,,,,,2021-09-02,1,,,,,フクラ,0
646,3020003020412,新規,0,2021-09-02,2021-09-02,合同会社ＫＨＳ,,合同会社,神奈川県,横浜市金沢区,柴町２６５番地,,14,108,2360012,,,,,,,2021-09-02,1,,,,,ケイエイチエス,0
658,3030001144096,新規,0,2021-09-02,2021-09-02,株式会社コーシン,,株式会社,埼玉県,さいたま市南区,松本１丁目１０番１５号,,11,108,3360035,,,,,,,2021-09-02,1,,,,,コーシン,0
659,3030001144121,新規,0,2021-09-02,2021-09-02,株式会社ベジタブルボーイズカンパニー,,株式会社,埼玉県,北足立郡伊奈町,大字小室９３５０番地２,,11,301,3620806,,,,,,,2021-09-02,1,,,,,ベジタブルボーイズカンパニー,0
666,3040001119989,新規,0,2021-09-02,2021-09-02,伊藤制作株式会社,,株式会社,千葉県,松戸市,馬橋１８９０番地の８マンション松戸ユーカリ１１０４号,,12,207,2710051,,,,,,,2021-09-02,1,,,,,イトウセイサク,0
667,3040001120006,新規,0,2021-09-02,2021-09-02,株式会社ＴＵＮＡＧＡＲＩ,,株式会社,千葉県,松戸市,河原塚４０３,,12,207,2702254,,,,,,,2021-09-02,1,,,,,ツナガリ,0
671,3040003018405,新規,0,2021-09-02,2021-09-02,Ｒｅｄｉｓｃｏｖｅｒ合同会社,,合同会社,千葉県,八千代市,緑が丘西１丁目４－１シティテラス八千代緑が丘ブリーズコート４０８,,12,221,2760040,,,,,,,2021-09-02,1,,,,,リディスカバー,0
675,3050003006053,新規,0,2021-09-02,2021-09-02,合同会社ＳＬＳ,,合同会社,茨城県,下妻市,長塚３２５番地１,,08,210,3040056,,,,,,,2021-09-02,1,,,,,,0
676,3060001034047,新規,0,2021-09-02,2021-09-02,蔵株式会社,,株式会社,栃木県,宇都宮市,西川田町４８２番地１１０みやのもりハイツＦ棟１０４号,,09,201,3210151,,,,,,,2021-09-02,1,,,,,ソウ,0
681,3070001038393,新規,0,2021-09-02,2021-09-02,株式会社Ｐｒｏｇｒｅｓｓ,,株式会社,群馬県,高崎市,三ツ寺町１１０１番地１０,,10,202,3703525,,,,,,,2021-09-02,1,,,,,プログレス,0
685,3080101022742,新規,0,2021-09-02,2021-09-02,株式会社シェア＆リスペクト,,株式会社,静岡県,賀茂郡南伊豆町,下賀茂８９９,,22,304,4150303,,,,,,,2021-09-02,1,,,,,シェアアンドリスペクト,0
686,3080401025296,新規,0,2021-09-02,2021-09-02,株式会社アークス,,株式会社,静岡県,浜松市東区,上西町３７番地の９,,22,132,4350048,,,,,,,2021-09-02,1,,,,,アークス,0
687,3080403004356,新規,0,2021-09-02,2021-09-02,合同会社あつみ,,合同会社,静岡県,浜松市西区,雄踏町宇布見９２２９番地の９,,22,133,4310102,,,,,,,2021-09-02,1,,,,,アツミ,0
689,3100001034570,新規,0,2021-09-02,2021-09-02,ナリタエンジニアーズ株式会社,,株式会社,長野県,長野市,川中島町原８４５番地１２,,20,201,3812224,,,,,,,2021-09-02,1,,,,,ナリタエンジニアーズ,0
694,3110003004562,新規,0,2021-09-02,2021-09-02,ＬＩＣ合同会社,,合同会社,新潟県,長岡市,寺宝町２３５番地,,15,202,9402057,,,,,,,2021-09-02,1,,,,,エルアイシー,0
704,3120001240092,新規,0,2021-09-02,2021-09-02,Ｇｒｏｗｉｎｇ株式会社,,株式会社,大阪府,大阪市北区,西天満４丁目１番２号（中之島日光ビル４０１号）,,27,127,5300047,,,,,,,2021-09-02,1,,,,,グローウィング,0
705,3120001240101,新規,0,2021-09-02,2021-09-02,株式会社Ｖｉｌｌａｇｅ　Ｐａｄｄｙ,,株式会社,大阪府,大阪市中央区,南船場１丁目１３番３０号６０１,,27,128,5420081,,,,,,,2021-09-02,1,,,,,ヴィレッジパディ,0
706,3120005022470,新規,0,2021-09-02,2021-09-02,一般社団法人ライフラインプランナー協会,,その他の設立登記法人,大阪府,大阪市中央区,本町４丁目５番地６号ＪＡＳＰＥＲ御堂筋本町１１０３,,27,128,5410053,,,,,,,2021-09-02,1,,,,,ライフラインプランナーキョウカイ,0
716,3130001070019,新規,0,2021-09-02,2021-09-02,株式会社長濵屋,00124102,株式会社,京都府,京都市中京区,二条下ル一之船入町３７６番地,,26,104,6040000,,,,,,,2021-09-02,1,,,,,ナガハマヤ,0
717,3130005016257,新規,0,2021-09-02,2021-09-02,特定非営利活動法人じんせい倶楽部ＤｏＬｉｆｅ,,その他の設立登記法人,京都府,相楽郡精華町,光台９丁目７番地１,,26,366,6190237,,,,,,,2021-09-02,1,,,,,ジンセイクラブドゥーライフ,0
720,3140001122867,新規,0,2021-09-02,2021-09-02,株式会社Ｘｅｆｉｎｏ,,株式会社,兵庫県,宝塚市,仁川旭ガ丘９番１２号,,28,214,6650065,,,,,,,2021-09-02,1,,,,,ゼフィノ,0
729,3160001023601,新規,0,2021-09-02,2021-09-02,株式会社Ｍａｃパートナーズ,,株式会社,滋賀県,彦根市,松原２丁目４番１０号,,25,202,5220002,,,,,,,2021-09-02,1,,,,,マックパートナーズ,0
733,3170001016752,新規,0,2021-09-02,2021-09-02,みなみ繊維株式会社,,株式会社,和歌山県,和歌山市,南畑７１０番地,,30,201,6400315,,,,,,,2021-09-02,1,,,,,ミナミセンイ,0
742,3180301035303,新規,0,2021-09-02,2021-09-02,株式会社Ｓｔａｉｒ,,株式会社,愛知県,岡崎市,南明大寺町５番地１Ｔｏｐレジャービル３階,,23,202,4440852,,,,,,,2021-09-02,1,,,,,ステア,0
744,3190001028647,新規,0,2021-09-02,2021-09-02,株式会社ホワイトクローバー,,株式会社,三重県,四日市市,幸町９番１７号,,24,202,5100069,,,,,,,2021-09-02,1,,,,,ホワイトクローバー,0
748,3200001039080,新規,0,2021-09-02,2021-09-02,株式会社鑫匯商事,00124097,株式会社,岐阜県,本巣市,数屋９６０番地１,,21,218,5010414,,,,,,,2021-09-02,1,,,,,シンカイショウジ,0
749,3200001039089,新規,0,2021-09-02,2021-09-02,野口社寺建匠株式会社,,株式会社,岐阜県,関市,迫間３１３２番地,,21,205,5013924,,,,,,,2021-09-02,1,,,,,ノグチシャジケンショウ,0
750,3200001039106,新規,0,2021-09-02,2021-09-02,株式会社トリプルウィンズ,,株式会社,岐阜県,多治見市,下沢町３丁目１６番地の４,,21,204,5070812,,,,,,,2021-09-02,1,,,,,トリプルウィンズ,0
751,3200003005295,新規,0,2021-09-02,2021-09-02,合同会社アグリツーリズム岐阜,,合同会社,岐阜県,岐阜市,香取町３丁目３８番地,,21,201,5008322,,,,,,,2021-09-02,1,,,,,アグリツーリズムギフ,0
759,3240001058515,新規,0,2021-09-02,2021-09-02,昭和塗装株式会社,,株式会社,広島県,広島市西区,古江東町１０番１２号,,34,104,7330872,,,,,,,2021-09-02,1,,,,,ショウワトソウ,0
769,3260003003665,新規,0,2021-09-02,2021-09-02,合同会社スリーアール,,合同会社,岡山県,倉敷市,福田町浦田２４６７番地３,,33,202,7128031,,,,,,,2021-09-02,1,,,,,スリーアール,0
773,3280003001527,新規,0,2021-09-02,2021-09-02,合同会社下山商店,,合同会社,島根県,松江市,東出雲町揖屋２１５２番地４,,32,201,6990101,,,,,,,2021-09-02,1,,,,,シモヤマショウテン,0
793,3310001017447,新規,0,2021-09-02,2021-09-02,株式会社名進設備,,株式会社,長崎県,長崎市,宿町５６０番地１サンフラワー宿町２０１号,,42,201,8510121,,,,,,,2021-09-02,1,,,,,メイシンセツビ,0
801,3340003003533,新規,0,2021-09-02,2021-09-02,合同会社アルバ,,合同会社,鹿児島県,鹿児島市,鴨池新町６番５号,,46,201,8900064,,,,,,,2021-09-02,1,,,,,アルバ,0
802,3340003003541,新規,0,2021-09-02,2021-09-02,合同会社アースソング,,合同会社,鹿児島県,奄美市,名瀬古田町１番３３号,,46,222,8940016,,,,,,,2021-09-02,1,,,,,アースソング,0
806,3350001017286,新規,0,2021-09-02,2021-09-02,株式会社祐建,,株式会社,宮崎県,延岡市,出北４丁目２４５５－１スカイフォーク３０３,,45,203,8820856,,,,,,,2021-09-02,1,,,,,ユウケン,0
807,3360001029306,新規,0,2021-09-02,2021-09-02,株式会社サキコーポレーション,,株式会社,沖縄県,中頭郡北谷町,字伊平４１１番地１,,47,326,9040102,,,,,,,2021-09-02,1,,,,,サキコーポレーション,0
809,3370001047538,新規,0,2021-09-02,2021-09-02,株式会社レイスカイ,,株式会社,宮城県,仙台市青葉区,本町１丁目５番２８号カーニープレイス仙台駅前通６０３号室,,04,101,9800014,,,,,,,2021-09-02,1,,,,,レイスカイ,0
810,3370001047562,新規,0,2021-09-02,2021-09-02,株式会社Ｎｅｋｏ,,株式会社,宮城県,仙台市青葉区,北山２丁目１４－４,,04,101,9810931,,,,,,,2021-09-02,1,,,,,ネコ,0
813,3380001032159,新規,0,2021-09-02,2021-09-02,かもめミライ水産株式会社,,株式会社,福島県,双葉郡浪江町,大字北幾世橋字北中谷地３２番２,,07,547,9791512,,,,,,,2021-09-02,1,,,,,カモメミライスイサン,0
818,3400003002826,新規,0,2021-09-02,2021-09-02,合同会社はなみち,,合同会社,岩手県,盛岡市,前九年２丁目１番７号小泉ビル１０１,,03,201,0200127,,,,,,,2021-09-02,1,,,,,ハナミチ,0
822,3430001084855,新規,0,2021-09-02,2021-09-02,株式会社ＭＡＭＩＹＡＳＵ,,株式会社,北海道,札幌市厚別区,上野幌二条５丁目１４番７号,,01,108,0040032,,,,,,,2021-09-02,1,,,,,マミヤス,0
825,3450001013465,新規,0,2021-09-02,2021-09-02,株式会社ダイテツ,,株式会社,北海道,旭川市,台場二条５丁目６番１４号,,01,204,0708072,,,,,,,2021-09-02,1,,,,,ダイテツ,0
827,3470001018685,新規,0,2021-09-02,2021-09-02,株式会社グリーン不動産,,株式会社,香川県,高松市,中野町２８番１６号,,37,201,7600008,,,,,,,2021-09-02,1,,,,,グリーンフドウサン,0
829,3470005006380,新規,0,2021-09-02,2021-09-02,医療法人まる耳鼻咽喉科,,その他の設立登記法人,香川県,高松市,多肥下町２４６番地１,,37,201,7618075,,,,,,,2021-09-02,1,,,,,マルジビインコウカ,0
830,3500001023665,新規,0,2021-09-02,2021-09-02,株式会社ＵＣＦ,,株式会社,愛媛県,宇和島市,津島町増穂戊７８８番地,,38,203,7983313,,,,,,,2021-09-02,1,,,,,ユーシーエフ,0
831,3700150104601,新規,0,2021-09-02,2021-09-02,佳仕騏投資股フン有限公司,,外国会社等,東京都,品川区,大崎２丁目９－２－１４１５号,,13,109,1410032,台湾新北市中和區建一路１７６＿９樓,00124103,,,,,2021-09-02,1,,,,,カシキトウシコフンユウゲンコウシ,0
843,4010001220831,新規,0,2021-09-02,2021-09-02,ヴィレッジホーム株式会社,,株式会社,東京都,文京区,音羽１丁目６番１－３０３号,,13,105,1120013,,,,,,,2021-09-02,1,,,,,ヴィレッジホーム,0
846,4010003035724,新規,0,2021-09-02,2021-09-02,合同会社ＫＡ,,合同会社,東京都,文京区,白山１丁目１２番４－２０３号,,13,105,1130001,,,,,,,2021-09-02,1,,,,,ケーエー,0
847,4010101014836,新規,0,2021-09-02,2021-09-02,シンクアクション株式会社,,株式会社,東京都,八王子市,旭町１０番３号,,13,201,1920083,,,,,,,2021-09-02,1,,,,,シンクアクション,0
854,4010401162434,新規,0,2021-09-02,2021-09-02,株式会社ＩＬ　ＧＡＬＡＮＴＥ,,株式会社,東京都,港区,南麻布１丁目１８番３号ラピス南麻布Ⅱ２０２,00124105,13,103,1060047,,,,,,,2021-09-02,1,,,,,イルガランテ,0
859,4010501047774,新規,0,2021-09-02,2021-09-02,株式会社ＹＹＧ,,株式会社,東京都,台東区,台東１丁目２９－３イースタンクロスアキバ３１５,,13,106,1100016,,,,,,,2021-09-02,1,,,,,ワイワイジー,0
861,4010601059835,新規,0,2021-09-02,2021-09-02,株式会社ＺＡＣ,,株式会社,東京都,江東区,亀戸２丁目２９番３号－１階,,13,108,1360071,,,,,,,2021-09-02,1,,,,,ザック,0
862,4010601059868,新規,0,2021-09-02,2021-09-02,ｄｏｔｚＥｒｏ株式会社,,株式会社,東京都,江東区,東陽７丁目４－２－５０３,,13,108,1350016,,,,,,,2021-09-02,1,,,,,ドットゼロ,0
863,4010601059876,新規,0,2021-09-02,2021-09-02,株式会社ハイレックスメディカル,,株式会社,東京都,墨田区,江東橋４丁目２４番３号,,13,107,1300022,,,,,,,2021-09-02,1,,,,,ハイレックスメディカル,0
875,4011001142529,新規,0,2021-09-02,2021-09-02,株式会社ｍｅｅｔＸ,,株式会社,東京都,渋谷区,大山町２番１０－８０８号,,13,113,1510065,,,,,,,2021-09-02,1,,,,,ミートエックス,0
876,4011001142611,新規,0,2021-09-02,2021-09-02,ＴＨＬ株式会社,,株式会社,東京都,渋谷区,道玄坂１丁目１８番３号プレミア道玄坂ビル７階,,13,113,1500043,,,,,,,2021-09-02,1,,,,,ティーエイチエル,0
879,4011003013281,新規,0,2021-09-02,2021-09-02,ｃａｎｎｅｌｅ合同会社,,合同会社,東京都,渋谷区,神宮前３丁目１８番４２号ル・シヤージュ神宮前２０４,,13,113,1500001,,,,,,,2021-09-02,1,,,,,カヌレ,0
880,4011005009187,新規,0,2021-09-02,2021-09-02,特定非営利活動法人Ｄｅｋｕ　Ａｒｔ　Ｆｏｒｕｍ,,その他の設立登記法人,東京都,渋谷区,神宮前６丁目２３番４号桑野ビル２階,,13,113,1500001,,,,,,,2021-09-02,1,,,,,デクアートフォーラム,0
885,4011105009954,新規,0,2021-09-02,2021-09-02,一般社団法人法勝寺内田家歴史文化研究機構,,その他の設立登記法人,東京都,新宿区,大久保３丁目１０番１－５３２号,,13,104,1690072,,,,,,,2021-09-02,1,,,,,ホッショウジウチダケレキシブンカケンキュウキコウ,0
891,4011401023642,新規,0,2021-09-02,2021-09-02,高達株式会社,,株式会社,東京都,板橋区,舟渡２丁目５番１号ＭＡＲＣＨＯＮＥビル,,13,119,1740041,,,,,,,2021-09-02,1,,,,,コウタツ,0
895,4011501027270,新規,0,2021-09-02,2021-09-02,株式会社ＰＯＳＳＩＢＬＥ,,株式会社,東京都,荒川区,西尾久５丁目１３番１号,,13,118,1160011,,,,,,,2021-09-02,1,,,,,ポッシブル,0
899,4011801039651,新規,0,2021-09-02,2021-09-02,アイアンガード・コーポレーション株式会社,,株式会社,東京都,足立区,足立４丁目３６番６号ＹＣビル２０２,,13,121,1200015,,,,,,,2021-09-02,1,,,,,アイアンガードコーポレーション,0
902,4012401038259,新規,0,2021-09-02,2021-09-02,アンカーホールディングス株式会社,,株式会社,東京都,府中市,宮町２丁目１５番地の１３,,13,206,1830023,,,,,,,2021-09-02,1,,,,,アンカーホールディングス,0
915,4013301047952,新規,0,2021-09-02,2021-09-02,株式会社グーフォ,,株式会社,東京都,豊島区,東池袋１丁目２２番５号サンケエビル８階,,13,116,1700013,,,,,,,2021-09-02,1,,,,,グーフォ,0
916,4013301047960,新規,0,2021-09-02,2021-09-02,ＳＫＬ株式会社,,株式会社,東京都,豊島区,池袋２丁目４７－３キウレイコンビル５Ｆ,,13,116,1710014,,,,,,,2021-09-02,1,,,,,エスケイエル,0
927,4021001073806,新規,0,2021-09-02,2021-09-02,株式会社Ｆｅｅｌ,,株式会社,神奈川県,相模原市南区,相模台４丁目１２番２号,,14,153,2520321,,,,,,,2021-09-02,1,,,,,フィール,0
932,4030001144070,新規,0,2021-09-02,2021-09-02,株式会社ライジングカーズ,,株式会社,埼玉県,桶川市,坂田西２丁目１９番地の７,,11,231,3630018,,,,,,,2021-09-02,1,,,,,ライジングカーズ,0
934,4030003017877,新規,0,2021-09-02,2021-09-02,合同会社ＩＳＭ,,合同会社,埼玉県,越谷市,レイクタウン７丁目２４－１－２０８,,11,222,3430828,,,,,,,2021-09-02,1,,,,,イズム,0
943,4040001119971,新規,0,2021-09-02,2021-09-02,株式会社ＡＭＵ,,株式会社,千葉県,船橋市,前原西８丁目１０番１３号パームツリーレジデンス１０２号,,12,204,2740825,,,,,,,2021-09-02,1,,,,,アム,0
944,4040001119988,新規,0,2021-09-02,2021-09-02,星辰株式会社,,株式会社,千葉県,習志野市,鷺沼台３丁目１７番２号ベルフラット１０１,,12,216,2750015,,,,,,,2021-09-02,1,,,,,セイシン,0
945,4040001119996,新規,0,2021-09-02,2021-09-02,株式会社チアキ,,株式会社,千葉県,柏市,豊四季７０９番地１４３,,12,217,2770863,,,,,,,2021-09-02,1,,,,,チアキ,0
954,4060001034038,新規,0,2021-09-02,2021-09-02,ＳＵＭＩＴＲＡ　ＴＲＡＤＩＮＧ株式会社,,株式会社,栃木県,足利市,伊勢町１丁目２番地２浜田ビル１Ｆ,,09,202,3260053,,,,,,,2021-09-02,1,,,,,スミタラトレーディング,0
960,4070003004211,新規,0,2021-09-02,2021-09-02,合同会社グローバルファーム,,合同会社,群馬県,吾妻郡長野原町,大字北軽井沢１９２４番地１６５９ベルフォーレ北軽井沢４０１,,10,424,3771412,,,,,,,2021-09-02,1,,,,,グローバルファーム,0
962,4080001024409,新規,0,2021-09-02,2021-09-02,株式会社ＪＵＮＫＯＨ,,株式会社,静岡県,静岡市葵区,大岩本町１１番１１号,,22,101,4200884,,,,,,,2021-09-02,1,,,,,ジュンコー,0
964,4080003002635,新規,0,2021-09-02,2021-09-02,Ｈａｇｏｔ合同会社,,合同会社,静岡県,焼津市,焼津２丁目１３番５号,,22,212,4250026,,,,,,,2021-09-02,1,,,,,ハゴット,0
966,4080401025295,新規,0,2021-09-02,2021-09-02,株式会社ｊａｍｍｙ　ｓｅｒｖｉｃｅ,,株式会社,静岡県,磐田市,小立野１５８番地４,,22,211,4380838,,,,,,,2021-09-02,1,,,,,ジャミーサービス,0
967,4080401025304,新規,0,2021-09-02,2021-09-02,株式会社ペットの気まぐれ,,株式会社,静岡県,湖西市,新所・岡崎・梅田入会地１９番地の１６７,,22,221,4310423,,,,,,,2021-09-02,1,,,,,ペットノキマグレ,0
969,4080403004355,新規,0,2021-09-02,2021-09-02,ｎａｄａｌａｎｄ合同会社,,合同会社,静岡県,浜松市北区,初生町４３０番地の２,,22,135,4338112,,,,,,,2021-09-02,1,,,,,ナダランド,0
976,4110001036004,新規,0,2021-09-02,2021-09-02,株式会社ＴＲＡＣＯ,,株式会社,新潟県,新潟市中央区,上大川前通５番町６３番地２３－１５０１,,15,103,9518068,,,,,,,2021-09-02,1,,,,,トラコ,0
984,4120001240075,新規,0,2021-09-02,2021-09-02,カンカラカン株式会社,,株式会社,大阪府,大阪市中央区,備後町４丁目２－３,,27,128,5410051,,,,,,,2021-09-02,1,,,,,カンカラカン,0
985,4120001240091,新規,0,2021-09-02,2021-09-02,夢の扉株式会社,,株式会社,大阪府,大阪市生野区,巽中３丁目１１番４号,00124108,27,116,5440013,,,,,,,2021-09-02,1,,,,,ユメノトビラ,0
988,4120003020129,新規,0,2021-09-02,2021-09-02,合同会社チャレンジ１,,合同会社,大阪府,大阪市西区,境川２丁目３番２６号,,27,106,5500024,,,,,,,2021-09-02,1,,,,,チャレンジワン,0
989,4120003020137,新規,0,2021-09-02,2021-09-02,合同会社こまち不動産,,合同会社,大阪府,大阪市天王寺区,細工谷１丁目３番２５－２００５号,,27,109,5430032,,,,,,,2021-09-02,1,,,,,コマチフドウサン,0
991,4120005022461,新規,0,2021-09-02,2021-09-02,特定非営利活動法人Ｍｉｃｈａｅｌ．Ｓｕｎｄｅｒｓ,,その他の設立登記法人,大阪府,大阪市天王寺区,上本町８丁目１番１４－１１０１号,,27,109,5430001,,,,,,,2021-09-02,1,,,,,ミッシェルサンダーズ,0
992,4120101064250,新規,0,2021-09-02,2021-09-02,株式会社ゆとり工務店,,株式会社,大阪府,藤井寺市,古室３丁目８番２１号,,27,226,5830013,,,,,,,2021-09-02,1,,,,,ユトリコウムテン,0
995,4120901044831,新規,0,2021-09-02,2021-09-02,株式会社栄和建設,,株式会社,大阪府,茨木市,東奈良１丁目７番１号,,27,211,5670861,,,,,,,2021-09-02,1,,,,,エイワケンセツ,0
997,4120903003802,新規,0,2021-09-02,2021-09-02,Ｌｉｎ．Ｋ－ｅｍｏｔｉｏｎＳ合同会社,,合同会社,大阪府,吹田市,千里丘中５５番５－１号,,27,205,5650812,,,,,,,2021-09-02,1,,,,,リンクエモーションズ,0
1003,4130001070018,新規,0,2021-09-02,2021-09-02,株式会社グリーンページ,,株式会社,京都府,京都市北区,紫野西泉堂町４２番地２,,26,101,6038246,,,,,,,2021-09-02,1,,,,,グリーンページ,0
1004,4130001070042,新規,0,2021-09-02,2021-09-02,株式会社林工務店,,株式会社,京都府,京都市右京区,梅津南町５９－１,,26,108,6150915,,,,,,,2021-09-02,1,,,,,ハヤシコウムテン,0
1007,4140001122791,新規,0,2021-09-02,2021-09-02,株式会社ＩＤＳ,,株式会社,兵庫県,西宮市,上甲子園２丁目１０番６号,,28,204,6638114,,,,,,,2021-09-02,1,,,,,アイディーエス,0
1008,4140001122866,新規,0,2021-09-02,2021-09-02,株式会社れいでん,,株式会社,兵庫県,神戸市西区,水谷１丁目５番１９号,,28,111,6512121,,,,,,,2021-09-02,1,,,,,レイデン,0
1009,4140001122874,新規,0,2021-09-02,2021-09-02,株式会社木内グリーンエステート,,株式会社,兵庫県,宝塚市,山手台東３丁目１９番２号,,28,214,6650887,,,,,,,2021-09-02,1,,,,,キウチグリーンエステート,0
1015,4160001023591,新規,0,2021-09-02,2021-09-02,株式会社ＫＵＲＯＦＵＮＥ　ＤＲＯＮＥ,,株式会社,滋賀県,長浜市,大戌亥町１２０７番地,,25,203,5260043,,,,,,,2021-09-02,1,,,,,クロフネドローン,0
1016,4160003002362,新規,0,2021-09-02,2021-09-02,合同会社Ｉｖｏｒｙ,,合同会社,滋賀県,栗東市,下戸山１０９７番地６３,,25,208,5203011,,,,,,,2021-09-02,1,,,,,アイボリー,0
1017,4180001147637,新規,0,2021-09-02,2021-09-02,株式会社ワイズ工業,,株式会社,愛知県,名古屋市天白区,向が丘２丁目９０１番地,,23,116,4680012,,,,,,,2021-09-02,1,,,,,ワイズコウギョウ,0
1018,4180001147645,新規,0,2021-09-02,2021-09-02,株式会社大咲ガーデン,,株式会社,愛知県,半田市,横川町１丁目４７番地の４,,23,205,4750005,,,,,,,2021-09-02,1,,,,,オオサキガーデン,0
1021,4180301035302,新規,0,2021-09-02,2021-09-02,スリーグッド株式会社,,株式会社,愛知県,豊橋市,西高師町字沢向１１９番地,,23,201,4418154,,,,,,,2021-09-02,1,,,,,スリーグッド,0
1029,4200001039063,新規,0,2021-09-02,2021-09-02,株式会社ｏｆｆｉｃｅ　ｓｏｇａ,,株式会社,岐阜県,土岐市,泉町大富１８５１番地の１４,,21,212,5095132,,,,,,,2021-09-02,1,,,,,オフィスソガ,0
1030,4200001039071,新規,0,2021-09-02,2021-09-02,株式会社ＰｏｌｙｇｏｎＣｏｎｎｅｃｔ,,株式会社,岐阜県,大垣市,笠木町２６９番地３惣武マンション３－Ａ,,21,202,5030023,,,,,,,2021-09-02,1,,,,,ポリゴンコネクト,0
1031,4200001039096,新規,0,2021-09-02,2021-09-02,クリエイト株式会社,,株式会社,岐阜県,岐阜市,城東通４丁目２９番地２,,21,201,5008441,,,,,,,2021-09-02,1,,,,,クリエイト,0
1035,4240001058514,新規,0,2021-09-02,2021-09-02,株式会社上岡創庭,,株式会社,広島県,広島市安佐北区,あさひが丘５丁目２番１８号,,34,106,7313361,,,,,,,2021-09-02,1,,,,,ウエオカソウテイ,0
1036,4240001058555,新規,0,2021-09-02,2021-09-02,株式会社アーツ,,株式会社,広島県,広島市西区,己斐本町１丁目１４－３Ｔ＆Ｙビル１０４号,,34,104,7330812,,,,,,,2021-09-02,1,,,,,アーツ,0
1041,4260001035916,新規,0,2021-09-02,2021-09-02,株式会社ティーワン,,株式会社,岡山県,岡山市南区,豊成３丁目２１番２５号,,33,104,7000942,,,,,,,2021-09-02,1,,,,,ティーワン,0
1042,4260003003664,新規,0,2021-09-02,2021-09-02,合同会社和やか農場,,合同会社,岡山県,久米郡美咲町,錦織５８９番地５,,33,666,7093701,,,,,,,2021-09-02,1,,,,,ナゴヤカノウジョウ,0
1055,4310003004153,新規,0,2021-09-02,2021-09-02,レジスト・カネガエ合同会社,,合同会社,長崎県,長崎市,ダイヤランド１丁目３番３号,,42,201,8500963,,,,,,,2021-09-02,1,,,,,レジストカネガエ,0
1064,4340001024068,新規,0,2021-09-02,2021-09-02,株式会社押川総合建設,,株式会社,鹿児島県,姶良市,平松６１８２番地２,,46,225,8995652,,,,,,,2021-09-02,1,,,,,オシカワソウゴウケンセツ,0
1067,4350001017277,新規,0,2021-09-02,2021-09-02,株式会社ＳＡＴＡＲＩ,,株式会社,宮崎県,宮崎市,清武町加納甲３３７７番地１５,,45,201,8891605,,,,,,,2021-09-02,1,,,,,サタリ,0
1069,4360001029305,新規,0,2021-09-02,2021-09-02,株式会社ワダチラボ,,株式会社,沖縄県,浦添市,勢理客４丁目１３－１浦添市産業振興センター結の街５０４号室,,47,208,9012122,,,,,,,2021-09-02,1,,,,,ワダチラボ,0
1072,4370001047561,新規,0,2021-09-02,2021-09-02,株式会社Ｇｌａｄ　ａｔｉｏｎ,,株式会社,宮城県,仙台市青葉区,二日町９番７号１階,,04,101,9800802,,,,,,,2021-09-02,1,,,,,グラッドエイション,0
1088,4400003002825,新規,0,2021-09-02,2021-09-02,アスクルオフィス合同会社,,合同会社,岩手県,陸前高田市,横田町字砂子田２７番地５,,03,210,0292202,,,,,,,2021-09-02,1,,,,,アスクルオフィス,0
1095,4430001084846,新規,0,2021-09-02,2021-09-02,羽幌工業株式会社,,株式会社,北海道,札幌市北区,新琴似三条２丁目１２番１５号１Ｆ,,01,102,0010903,,,,,,,2021-09-02,1,,,,,ハボロコウギョウ,0
1097,4430003013101,新規,0,2021-09-02,2021-09-02,ウェッジ合同会社,,合同会社,北海道,虻田郡倶知安町,北三条西１丁目１番地１フクイビル１階,,01,400,0440053,,,,,,,2021-09-02,1,,,,,ウェッジ,0
1099,4450001013464,新規,0,2021-09-02,2021-09-02,株式会社オグマ,,株式会社,北海道,旭川市,緑町１８丁目３０３４番地３８,,01,204,0700823,,,,,,,2021-09-02,1,,,,,オグマ,0
1101,4470001018684,新規,0,2021-09-02,2021-09-02,株式会社ＴＴＫ,,株式会社,香川県,高松市,多肥下町１５６３番地１エクセル太田南１０２号,,37,201,7618075,,,,,,,2021-09-02,1,,,,,ティティケイ,0
1103,4500001023664,新規,0,2021-09-02,2021-09-02,ＭＡＳＡ株式会社,,株式会社,愛媛県,松山市,柳井町２丁目１０番地２,,38,201,7900014,,,,,,,2021-09-02,1,,,,,マサ,0
1104,4700150104600,新規,0,2021-09-02,2021-09-02,Ｔｈｅ　Ｐｒｏａｃｔｉｖ　Ｃｏｍｐａｎｙ　Ｓａｒｌ,,外国会社等,,,,,,,,Ｒｕｅ　ｄ’Ｅｎｔｒｅ－ｄｅｕｘ－Ｖｉｌｌｅｓ　１０　１８１４　Ｌａ　Ｔｏｕｒ－ｄｅ－Ｐｅｉｌｚ　Ｓｗｉｔｚｅｒｌａｎｄ,,,,,,2021-09-02,1,,,,,ザプロアクテイブカンパニーサール,0
1105,4700150104609,新規,0,2021-09-02,2021-09-02,ＰＬＡＹＴＩＫＡ　ＳＡＮＴＡ　ＭＯＮＩＣＡ　ＬＬＣ,,外国会社等,,,,,,,,１６５０　１９ＴＨ　ＳＴＲＥＥＴ，ＳＡＮＴＡ　ＭＯＮＩＣＡ,,,,,,2021-09-02,1,,,,,プレイチカサンタモニカエルエルシー,0
1118,5010005033898,新規,0,2021-09-02,2021-09-02,一般社団法人次世代支援協会,,その他の設立登記法人,東京都,中央区,築地６丁目８番１０号,,13,102,1040045,,,,,,,2021-09-02,1,,,,,ジセダイシエンキョウカイ,0
1120,5010103001765,新規,0,2021-09-02,2021-09-02,極ソリューション合同会社,,合同会社,東京都,八王子市,子安町２丁目１３番６号プライムビル２０２号室,,13,201,1920904,,,,,,,2021-09-02,1,,,,,,0
1124,5010401162425,新規,0,2021-09-02,2021-09-02,株式会社ｄ．,,株式会社,東京都,港区,白金台５丁目１５番１号フォルマ白金４０１,,13,103,1080071,,,,,,,2021-09-02,1,,,,,ディードット,0
1125,5010401162499,新規,0,2021-09-02,2021-09-02,株式会社ＴＡＫＡＧＩパートナーズ,,株式会社,東京都,港区,麻布十番２丁目２０番７号,,13,103,1060045,,,,,,,2021-09-02,1,,,,,タカギパートナーズ,0
1131,5010403026041,新規,0,2021-09-02,2021-09-02,合同会社トーラス,,合同会社,東京都,港区,芝浦４丁目１９番１号,,13,103,1080023,,,,,,,2021-09-02,1,,,,,トーラス,0
1134,5010405020190,新規,0,2021-09-02,2021-09-02,ロッキー一般社団法人,,その他の設立登記法人,東京都,港区,虎ノ門４丁目３番１号城山トラストタワー２７階ＳａｎｎｅＧｒｏｕｐＪａｐａｎ株式会社内,,13,103,1050001,,,,,,,2021-09-02,1,,,,,ロッキー,0
1135,5010501047781,新規,0,2021-09-02,2021-09-02,株式会社毛毛,,株式会社,東京都,台東区,池之端３丁目３番９号花園アレイ１０５,,13,106,1100008,,,,,,,2021-09-02,1,,,,,ケケ,0
1152,5011101096161,新規,0,2021-09-02,2021-09-02,ＳＹアセット株式会社,,株式会社,東京都,新宿区,西新宿８丁目１４番１８号,,13,104,1600023,,,,,,,2021-09-02,1,,,,,エスワイアセット,0
1158,5011303004153,新規,0,2021-09-02,2021-09-02,合同会社Ｉｇｎｉｔｉｏｎ,,合同会社,東京都,杉並区,高円寺南１丁目１８番１３号,,13,115,1660003,,,,,,,2021-09-02,1,,,,,イグニッション,0
1160,5011401023641,新規,0,2021-09-02,2021-09-02,アイワトレーディング株式会社,,株式会社,東京都,板橋区,中丸町３１番６－９０３号,,13,119,1730026,,,,,,,2021-09-02,1,,,,,アイワトレーディング,0
1165,5011503004878,新規,0,2021-09-02,2021-09-02,合同会社フォンドマークス,,合同会社,東京都,荒川区,南千住３丁目４０番１０－１００５号,,13,118,1160003,,,,,,,2021-09-02,1,,,,,フォンドマークス,0
1166,5011601025371,新規,0,2021-09-02,2021-09-02,株式会社ＮＯＭＣＡ,,株式会社,東京都,練馬区,早宮１丁目４５－１０グリーンコート早宮１０１,,13,120,1790085,,,,,,,2021-09-02,1,,,,,ノムカ,0
1167,5011801039667,新規,0,2021-09-02,2021-09-02,株式会社ＳＰＥ,,株式会社,東京都,足立区,東綾瀬１丁目４番３－２０１号,,13,121,1200004,,,,,,,2021-09-02,1,,,,,エスピーイー,0
1173,5012701016649,新規,0,2021-09-02,2021-09-02,エーテック株式会社,,株式会社,東京都,小平市,小川町１丁目１１０７番地の１３１,,13,211,1870032,,,,,,,2021-09-02,1,,,,,エーテック,0
1174,5012703002300,新規,0,2021-09-02,2021-09-02,ａｇｉｉ合同会社,,合同会社,東京都,東久留米市,本町３丁目１－１マロニエヒルズ３０５,,13,222,2030053,,,,,,,2021-09-02,1,,,,,アジイ,0
1175,5012801021053,新規,0,2021-09-02,2021-09-02,株式会社マメハチドリ,,株式会社,東京都,東大和市,中央４丁目１０６１－３グリーンビル４Ｆ,,13,220,2070015,,,,,,,2021-09-02,1,,,,,マメハチドリ,0
1176,5012803002588,新規,0,2021-09-02,2021-09-02,ベネフィットコート合同会社,,合同会社,東京都,立川市,富士見町３丁目１４番７号,,13,202,1900013,,,,,,,2021-09-02,1,,,,,ベネフィットコート,0
1177,5013101008708,新規,0,2021-09-02,2021-09-02,イースター貿易株式会社,,株式会社,東京都,青梅市,河辺町５丁目２９番地１６,,13,205,1980036,,,,,,,2021-09-02,1,,,,,イースターボウエキ,0
1178,5013301047943,新規,0,2021-09-02,2021-09-02,株式会社ユメージ,,株式会社,東京都,豊島区,巣鴨１丁目１７番３号子野ビル,,13,116,1700002,,,,,,,2021-09-02,1,,,,,ユメージ,0
1186,5020001142834,新規,0,2021-09-02,2021-09-02,株式会社エイタックＳＳ,,株式会社,神奈川県,横浜市港北区,新羽町６２７,,14,109,2230057,,,,,,,2021-09-02,1,,,,,,0
1191,5021001073805,新規,0,2021-09-02,2021-09-02,株式会社相模パートナーズ,,株式会社,神奈川県,相模原市緑区,太井２４９番地１,,14,151,2520152,,,,,,,2021-09-02,1,,,,,サガミパートナーズ,0
1192,5021001073813,新規,0,2021-09-02,2021-09-02,５１Ａｌｌｉａｎｃｅ　Ｓｕｐｐｏｒｔ株式会社,,株式会社,神奈川県,秦野市,本町１丁目１番１号さがみビルド５０２,,14,211,2570035,,,,,,,2021-09-02,1,,,,,フィフティーワンアライアンスサポート,0
1203,5030001144061,新規,0,2021-09-02,2021-09-02,京川株式会社,,株式会社,埼玉県,戸田市,喜沢１丁目６－１７安斉ハイムＡ区１０１室,,11,224,3350013,,,,,,,2021-09-02,1,,,,,キョウカワ,0
1204,5030001144094,新規,0,2021-09-02,2021-09-02,アクア・エンジェル株式会社,,株式会社,埼玉県,越谷市,蒲生２丁目１２番５１号ベルソレーユ２０１号,,11,222,3430838,,,,,,,2021-09-02,1,,,,,アクアエンジェル,0
1205,5030001144128,新規,0,2021-09-02,2021-09-02,株式会社ＡＩＪＩ,,株式会社,埼玉県,戸田市,喜沢南１丁目４番１７－７１５号,,11,224,3350014,,,,,,,2021-09-02,1,,,,,エーアイジェーアイ,0
1206,5030001144144,新規,0,2021-09-02,2021-09-02,株式会社サイシンエンジニアリング,,株式会社,埼玉県,上尾市,大字平塚９２５番地１１,,11,219,3620011,,,,,,,2021-09-02,1,,,,,サイシンエンジニアリング,0
1208,5030003017876,新規,0,2021-09-02,2021-09-02,合同会社ＤＩＰＬＯ,,合同会社,埼玉県,狭山市,広瀬台１丁目５７番５号,,11,215,3501328,,,,,,,2021-09-02,1,,,,,ディプロ,0
1209,5030005020507,新規,0,2021-09-02,2021-09-02,一般社団法人クラセ・エール,,その他の設立登記法人,埼玉県,新座市,石神２丁目１２番１９－１１号,,11,230,3520033,,,,,,,2021-09-02,1,,,,,クラセエール,0
1223,5040001119970,新規,0,2021-09-02,2021-09-02,株式会社タイガートライ,,株式会社,千葉県,松戸市,六高台９丁目５８番地の２,,12,207,2702203,,,,,,,2021-09-02,1,,,,,タイガートライ,0
1224,5040001119979,新規,0,2021-09-02,2021-09-02,株式会社ＭＩＭ,,株式会社,千葉県,夷隅郡御宿町,御宿台１０７番地１,,12,443,2995112,,,,,,,2021-09-02,1,,,,,エムアイエム,0
1225,5040001119995,新規,0,2021-09-02,2021-09-02,株式会社大平商事,,株式会社,千葉県,八千代市,大和田新田４６９番地２４３,,12,221,2760046,,,,,,,2021-09-02,1,,,,,タイヘイショウジ,0
1237,5080001024408,新規,0,2021-09-02,2021-09-02,ビュートホーム株式会社,,株式会社,静岡県,静岡市葵区,瓦場町７５番地の８,,22,101,4200825,,,,,,,2021-09-02,1,,,,,ビュートホーム,0
1238,5080003002634,新規,0,2021-09-02,2021-09-02,ＮＷＵ合同会社,,合同会社,静岡県,静岡市葵区,紺屋町１７－１葵タワー１Ｆ,,22,101,4200852,,,,,,,2021-09-02,1,,,,,エヌダブリュユー,0
1239,5080101022740,新規,0,2021-09-02,2021-09-02,株式会社アグトラストＨＤ,,株式会社,静岡県,沼津市,原字東沖１８０４番地日建第二ビル２階,,22,203,4100312,,,,,,,2021-09-02,1,,,,,アグトラストホールディング,0
1242,5080401025303,新規,0,2021-09-02,2021-09-02,株式会社サトウ工業,,株式会社,静岡県,湖西市,白須賀３９８５番地の１８１,,22,221,4310451,,,,,,,2021-09-02,1,,,,,サトウコウギョウ,0
1243,5080401025311,新規,0,2021-09-02,2021-09-02,株式会社吹上工業,,株式会社,静岡県,浜松市中区,和合町２２０番地の２３６５アイリスパーク和合Ｂ,,22,131,4338125,,,,,,,2021-09-02,1,,,,,フキアゲコウギョウ,0
1261,5120001240066,新規,0,2021-09-02,2021-09-02,株式会社ＨＥＶＲＥＮ,,株式会社,大阪府,大阪市淀川区,西宮原２丁目５－３１,,27,123,5320004,,,,,,,2021-09-02,1,,,,,エブラン,0
1262,5120001240074,新規,0,2021-09-02,2021-09-02,株式会社Ｍａｒｇｉｎ・Ｃａｌｌ,,株式会社,大阪府,大阪市東淀川区,豊新５丁目１９番３号８０１,,27,114,5330014,,,,,,,2021-09-02,1,,,,,マージンコール,0
1263,5120001240108,新規,0,2021-09-02,2021-09-02,株式会社Ｌｕｎｅ　Ｂｌｅｕｅ,,株式会社,大阪府,大阪市福島区,吉野４丁目１０－１２－３０３,,27,103,5530006,,,,,,,2021-09-02,1,,,,,リュヌブルー,0
1269,5120003020128,新規,0,2021-09-02,2021-09-02,合同会社ＢＬＯＯＭＮＥＴ,,合同会社,大阪府,大阪市浪速区,恵美須西１丁目２番１号,,27,111,5560003,,,,,,,2021-09-02,1,,,,,ブルームネット,0
1272,5120005022469,新規,0,2021-09-02,2021-09-02,一般財団法人進藤記念財団,,その他の設立登記法人,大阪府,大阪市淀川区,宮原１丁目１番１号新大阪阪急ビル,,27,123,5320003,,,,,,,2021-09-02,1,,,,,シンドウキネンザイダン,0
1273,5120005022477,新規,0,2021-09-02,2021-09-02,税理士法人橋森パートナーズ,,その他の設立登記法人,大阪府,大阪市阿倍野区,西田辺町１丁目５番１７号,,27,119,5450014,,,,,,,2021-09-02,1,,,,,ハシモリパートナーズ,0
1274,5120101064217,新規,0,2021-09-02,2021-09-02,株式会社足速教室,,株式会社,大阪府,堺市南区,原山台５丁１３番３１号,,27,145,5900132,,,,,,,2021-09-02,1,,,,,アシハヤキョウシツ,0
1275,5120101064233,新規,0,2021-09-02,2021-09-02,株式会社高一組,00124096,株式会社,大阪府,泉佐野市,日根野３２７９番地の３,,27,213,5980021,,,,,,,2021-09-02,1,,,,,タカイチグミ,0
1279,5120105009440,新規,0,2021-09-02,2021-09-02,一般社団法人オークフォレスト,,その他の設立登記法人,大阪府,大阪狭山市,茱萸木８丁目１５９０番地の１（１－９０６）,,27,231,5890013,,,,,,,2021-09-02,1,,,,,オークフォレスト,0
1280,5120901044847,新規,0,2021-09-02,2021-09-02,ぜんつう株式会社,,株式会社,大阪府,高槻市,高西町１７番４号,,27,207,5690061,,,,,,,2021-09-02,1,,,,,ゼンツウ,0
1281,5120901044855,新規,0,2021-09-02,2021-09-02,株式会社ＴＫコーポレーション,,株式会社,大阪府,摂津市,鳥飼野々２丁目５番１２号,,27,224,5660053,,,,,,,2021-09-02,1,,,,,ティーケーコーポレーション,0
1285,5122001035132,新規,0,2021-09-02,2021-09-02,株式会社イシダメタル,,株式会社,大阪府,八尾市,太田新町５丁目９番地,,27,212,5810039,,,,,,,2021-09-02,1,,,,,イシダメタル,0
1289,5130003007454,新規,0,2021-09-02,2021-09-02,合同会社サンライフ８８,,合同会社,京都府,京都市右京区,西京極北裏町１３番地の６,,26,108,6150821,,,,,,,2021-09-02,1,,,,,サンライフハチジュウハチ,0
1310,5170001016759,新規,0,2021-09-02,2021-09-02,株式会社紀州精機,,株式会社,和歌山県,和歌山市,祢宜７０番地,,30,201,6400000,,,,,,,2021-09-02,1,,,,,キシュウセイキ,0
1315,5180001147628,新規,0,2021-09-02,2021-09-02,株式会社秀建,,株式会社,愛知県,海部郡大治町,大字砂子字馬捨場２３６番地の３,,23,424,4901143,,,,,,,2021-09-02,1,,,,,シュウケン,0
1318,5180301035326,新規,0,2021-09-02,2021-09-02,株式会社Ｍ＆Ｓ,,株式会社,愛知県,安城市,池浦町大山田上２番地４７５,,23,212,4460066,,,,,,,2021-09-02,1,,,,,エムアンドエス,0
1319,5180301035342,新規,0,2021-09-02,2021-09-02,株式会社ＤＥＡＮ,,株式会社,愛知県,岡崎市,美合町字沢渡５２番地１,,23,202,4440802,,,,,,,2021-09-02,1,,,,,ディーン,0
1322,5200001039079,新規,0,2021-09-02,2021-09-02,春日設備株式会社,,株式会社,岐阜県,岐阜市,日野西３丁目４番１６号,,21,201,5008213,,,,,,,2021-09-02,1,,,,,カスガセツビ,0
1325,5200003005293,新規,0,2021-09-02,2021-09-02,ミーツコーヒー合同会社,,合同会社,岐阜県,岐阜市,西河渡３丁目７８番１,,21,201,5010106,,,,,,,2021-09-02,1,,,,,ミーツコーヒー,0
1334,5240001058505,新規,0,2021-09-02,2021-09-02,株式会社泰成工業,,株式会社,広島県,福山市,南蔵王町３丁目５番３２号,,34,207,7210973,,,,,,,2021-09-02,1,,,,,タイセイコウギョウ,0
1335,5240001058521,新規,0,2021-09-02,2021-09-02,株式会社ヤクシン,,株式会社,広島県,東広島市,西条中央７丁目２１番２６号Ａ棟１０１号,,34,212,7390025,,,,,,,2021-09-02,1,,,,,ヤクシン,0
1336,5240001058538,新規,0,2021-09-02,2021-09-02,株式会社レガース,,株式会社,広島県,安芸郡海田町,東昭和町１番３２号,,34,304,7360063,,,,,,,2021-09-02,1,,,,,レガース,0
1355,5290001094462,新規,0,2021-09-02,2021-09-02,ＳＫライジン株式会社,,株式会社,福岡県,久留米市,野中町７８７番地１４,,40,203,8390862,,,,,,,2021-09-02,1,,,,,エスケイライジン,0
1362,5290003011572,新規,0,2021-09-02,2021-09-02,小樽第２バイオマス発電所合同会社,,合同会社,福岡県,福岡市早良区,百道浜２丁目４番２７号ＡＩビル６Ｆ,,40,137,8140001,,,,,,,2021-09-02,1,,,,,オタルダイニバイオマスハツデンショ,0
1370,5310001017445,新規,0,2021-09-02,2021-09-02,株式会社かど食品,,株式会社,長崎県,長崎市,愛宕２丁目９番１号,,42,201,8500822,,,,,,,2021-09-02,1,,,,,カドショクヒン,0
1374,5320001018566,新規,0,2021-09-02,2021-09-02,株式会社ＫＭフードシステム,,株式会社,大分県,大分市,城東町１２番７号,,44,201,8700153,,,,,,,2021-09-02,1,,,,,ケイエムフードシステム,0
1384,5360003011400,新規,0,2021-09-02,2021-09-02,合同会社ＣＧ　Ｈｕｂ,,合同会社,沖縄県,石垣市,字大川２７８番地ＴＡＭＡビルⅡ２Ｆ２０１,00124099,47,207,9070022,,,,,,,2021-09-02,1,,,,,シージーハブ,0
1404,5420003002376,新規,0,2021-09-02,2021-09-02,合同会社ｓｏｌａｒｅ,,合同会社,青森県,弘前市,大字五代字早稲田５６５番地１,,02,202,0361331,,,,,,,2021-09-02,1,,,,,ソラーレ,0
1408,5430001084861,新規,0,2021-09-02,2021-09-02,株式会社ファーストプロジェクト,,株式会社,北海道,札幌市西区,発寒五条３丁目２番７－１０２号,,01,107,0630825,,,,,,,2021-09-02,1,,,,,ファーストプロジェクト,0
1409,5430003013100,新規,0,2021-09-02,2021-09-02,合同会社Ｍｕｍ,,合同会社,北海道,千歳市,春日町１丁目４番９号,,01,224,0660065,,,,,,,2021-09-02,1,,,,,マム,0
1411,5450001013463,新規,0,2021-09-02,2021-09-02,株式会社Ｍ’ｓ　ｓｈｉｎｓａｋｕ,,株式会社,北海道,旭川市,東光四条８丁目１番１５号,,01,204,0788344,,,,,,,2021-09-02,1,,,,,,0
1415,5470001018683,新規,0,2021-09-02,2021-09-02,株式会社ＴＫ,,株式会社,香川県,高松市,檀紙町２２１３番地５,,37,201,7618041,,,,,,,2021-09-02,1,,,,,ティケイ,0
1416,5470003002025,新規,0,2021-09-02,2021-09-02,宅配ミックス合同会社,,合同会社,香川県,高松市,太田上町５０２番地１２,,37,201,7618074,,,,,,,2021-09-02,1,,,,,タクハイミックス,0
1417,5470005006379,新規,0,2021-09-02,2021-09-02,医療法人青空会,,その他の設立登記法人,香川県,高松市,岡本町１６７４番地３,,37,201,7618047,,,,,,,2021-09-02,1,,,,,アオゾラカイ,0
1419,5500001023655,新規,0,2021-09-02,2021-09-02,Ｍｉｋｅ　ｎａｔｕｒａｌ株式会社,,株式会社,愛媛県,松山市,正円寺２丁目５番２８号,,38,201,7900904,,,,,,,2021-09-02,1,,,,,ミケナチュラル,0
1421,5700150104590,新規,0,2021-09-02,2021-09-02,重慶神馳進出口貿易有限公司,,外国会社等,静岡県,磐田市,見付一番町７０,,22,211,4380086,中華人民共和国重慶市北碚区童家溪鎮同興北路２００号,,,,,,2021-09-02,1,,,,,ジユウケイシンチシンシユツコウボウエキユウゲンコウシ,0
1422,5700150104599,新規,0,2021-09-02,2021-09-02,ｔｏｕｇｈ　Ｌａｕｇｈ　ｐｌａｎｅｔ,,その他,東京都,清瀬市,野塩５丁目２３６番地１３,,13,221,2040004,,,,,,,2021-09-02,1,,,,,タフラフプラネット,0
1423,5700150104608,新規,0,2021-09-02,2021-09-02,Ｎｅｘｔｅｒｓ　Ｇｌｏｂａｌ　Ｌｉｍｉｔｅｄ,,外国会社等,,,,,,,,１０７　Ｆａｎｅｒｏｍｅｎｉｓ　Ａｖｅｎｕｅ，Ｌａｒｎａｃａ，６０３１，Ｃｙｐｒｕｓ,,,,,,2021-09-02,1,,,,,ネクスターズグローバルリミテツド,0
1431,6010001220838,新規,0,2021-09-02,2021-09-02,株式会社ＤＡＣＸ　ＮＵＵ,,株式会社,東京都,中央区,銀座１丁目１５－１３ＶＯＲＴ銀座ｒｅｓｉｄｅｎｃｅ３０６,,13,102,1040061,,,,,,,2021-09-02,1,,,,,ダックスヌー,0
1432,6010001220862,新規,0,2021-09-02,2021-09-02,株式会社ＴＡＯ,,株式会社,東京都,中央区,銀座５丁目６－１２ＭＩＹＵＫＩビル７Ｆ,,13,102,1040061,,,,,,,2021-09-02,1,,,,,タオ,0
1439,6010005033897,新規,0,2021-09-02,2021-09-02,ＮＰＯ法人ＰＤＤＳ,,その他の設立登記法人,東京都,中央区,築地１丁目１２番１３号,,13,102,1040045,,,,,,,2021-09-02,1,,,,,ピーディーディーエス,0
1452,6010405020157,新規,0,2021-09-02,2021-09-02,一般社団法人ボディアーツラボラトリー,,その他の設立登記法人,東京都,港区,芝浦２丁目４番１１－１００４号,,13,103,1080023,,,,,,,2021-09-02,1,,,,,ボディアーツラボラトリー,0
1453,6010601059866,新規,0,2021-09-02,2021-09-02,株式会社ＭＯＤ,,株式会社,東京都,墨田区,文花２丁目１０番３号,,13,107,1310044,,,,,,,2021-09-02,1,,,,,エムオーディー,0
1459,6010801032276,新規,0,2021-09-02,2021-09-02,株式会社再生設計,,株式会社,東京都,大田区,東矢口２丁目１５番１０－３１１号,,13,111,1460094,,,,,,,2021-09-02,1,,,,,サイセイセッケイ,0
1465,6010901049352,新規,0,2021-09-02,2021-09-02,株式会社オーガル,,株式会社,東京都,世田谷区,上北沢５丁目３７番１８号,,13,112,1560057,,,,,,,2021-09-02,1,,,,,オーガル,0
1476,6011001142568,新規,0,2021-09-02,2021-09-02,株式会社ＦＡＲＳＨＡＬＬ,,株式会社,東京都,渋谷区,松濤１丁目２８－２,,13,113,1500046,,,,,,,2021-09-02,1,,,,,ファーシャル,0
1482,6011101096136,新規,0,2021-09-02,2021-09-02,ＲｅｓｏｎｕｓＭＤ株式会社,,株式会社,東京都,新宿区,住吉町１５番１２号,,13,104,1620065,,,,,,,2021-09-02,1,,,,,リソナムスエムディー,0
1483,6011101096160,新規,0,2021-09-02,2021-09-02,株式会社ＲＥＣ,,株式会社,東京都,新宿区,西新宿８丁目１４番１８号,,13,104,1600023,,,,,,,2021-09-02,1,,,,,アールイーシー,0
1485,6011303004152,新規,0,2021-09-02,2021-09-02,Ｘｅｅｌｅ合同会社,,合同会社,東京都,杉並区,高井戸西１丁目９－１９ブルーエクセルＡ１０２,,13,115,1680071,,,,,,,2021-09-02,1,,,,,ゼーレ,0
1488,6011503004877,新規,0,2021-09-02,2021-09-02,ＡｄｏｒｅｒＶｅｒｔ合同会社,,合同会社,東京都,北区,赤羽西４丁目３５番６号,,13,117,1150055,,,,,,,2021-09-02,1,,,,,アドレヴェール,0
1490,6011703002929,新規,0,2021-09-02,2021-09-02,合同会社元,,合同会社,東京都,江戸川区,東小岩４丁目２７番２号,,13,123,1330052,,,,,,,2021-09-02,1,,,,,ゲン,0
1493,6011801039658,新規,0,2021-09-02,2021-09-02,キノドン株式会社,,株式会社,東京都,葛飾区,東金町４丁目３６番８号,,13,122,1250041,,,,,,,2021-09-02,1,,,,,キノドン,0
1497,6012801021052,新規,0,2021-09-02,2021-09-02,株式会社ＤＷＣライセンシング,,株式会社,東京都,立川市,曙町２丁目３９－３立川高島屋Ｓ．Ｃ．７階,,13,202,1900012,,,,,,,2021-09-02,1,,,,,ディーダブリューシーライセンシング,0
1498,6013301047950,新規,0,2021-09-02,2021-09-02,株式会社トータルサポートセンター,,株式会社,東京都,豊島区,高田３丁目６番８号野村マンション２０１号,,13,116,1710033,,,,,,,2021-09-02,1,,,,,トータルサポートセンター,0
1499,6013301047959,新規,0,2021-09-02,2021-09-02,株式会社セッション＆カンパニー,,株式会社,東京都,豊島区,東池袋２丁目６０－２池袋パークハイツ２階,,13,116,1700013,,,,,,,2021-09-02,1,,,,,セッションアンドカンパニー,0
1512,6021001073837,新規,0,2021-09-02,2021-09-02,株式会社湘南リユース,,株式会社,神奈川県,平塚市,平塚２丁目２番２１号,,14,203,2540052,,,,,,,2021-09-02,1,,,,,ショウナンリユース,0
1516,6021003010854,新規,0,2021-09-02,2021-09-02,合同会社ＭＧＭ,,合同会社,神奈川県,横須賀市,安浦町２丁目２０番７号,,14,201,2380012,,,,,,,2021-09-02,1,,,,,エムジーエム,0
1523,6030001143962,新規,0,2021-09-02,2021-09-02,アークブレーン株式会社,,株式会社,埼玉県,富士見市,ふじみ野西２丁目１番地１アイムふじみ野タワー西館１４０５,,11,235,3540035,,,,,,,2021-09-02,1,,,,,アークブレーン,0
1524,6030001144119,新規,0,2021-09-02,2021-09-02,ボスドット株式会社,,株式会社,埼玉県,さいたま市南区,文蔵３丁目２８－１１杉谷ビル３Ｆ,,11,108,3360025,,,,,,,2021-09-02,1,,,,,ボスドット,0
1525,6030001144127,新規,0,2021-09-02,2021-09-02,株式会社ウエダ,,株式会社,埼玉県,富士見市,西みずほ台１丁目２番地１１メゾンドコスモス３０２,,11,235,3540018,,,,,,,2021-09-02,1,,,,,ウエダ,0
1526,6030001144143,新規,0,2021-09-02,2021-09-02,株式会社ＬＹＩＮＥＳＴ,,株式会社,埼玉県,さいたま市北区,別所町５２番地１１,,11,102,3310821,,,,,,,2021-09-02,1,,,,,ライネスト,0
1546,6040003018419,新規,0,2021-09-02,2021-09-02,ＳＥＩ合同会社,,合同会社,千葉県,柏市,豊四季３８８番地５９,,12,217,2770863,,,,,,,2021-09-02,1,,,,,セイ,0
1547,6040005021346,新規,0,2021-09-02,2021-09-02,一般社団法人みんなのＢＵＫＡＴＳＵ,,その他の設立登記法人,千葉県,八千代市,大和田８９番地１２,,12,221,2760045,,,,,,,2021-09-02,1,,,,,ミンナノブカツ,0
1557,6080001024415,新規,0,2021-09-02,2021-09-02,株式会社大基,,株式会社,静岡県,静岡市葵区,吉津３７７番地の１,,22,101,4211223,,,,,,,2021-09-02,1,,,,,ダイキ,0
1558,6080101022731,新規,0,2021-09-02,2021-09-02,株式会社Ｒｅｌｉｅｖｅ,,株式会社,静岡県,駿東郡長泉町,竹原２４０番地の１エナジー高橋２０３号,,22,342,4110944,,,,,,,2021-09-02,1,,,,,リリーブ,0
1559,6080401025302,新規,0,2021-09-02,2021-09-02,株式会社八木工業,,株式会社,静岡県,浜松市東区,小池町１９５１番地の１ベルクソーレＡ１０３,,22,132,4350056,,,,,,,2021-09-02,1,,,,,ヤギコウギョウ,0
1561,6080403004353,新規,0,2021-09-02,2021-09-02,合同会社ＬＡＧＯＯＮ,,合同会社,静岡県,浜松市中区,高丘東４丁目１５番６号,,22,131,4338117,,,,,,,2021-09-02,1,,,,,ラグーン,0
1563,6100001034576,新規,0,2021-09-02,2021-09-02,株式会社北村商会,,株式会社,長野県,千曲市,大字土口５８２番地１,,20,218,3870002,,,,,,,2021-09-02,1,,,,,キタムラショウカイ,0
1572,6120001240073,新規,0,2021-09-02,2021-09-02,株式会社ストーンズ,,株式会社,大阪府,大阪市中央区,谷町５丁目６番９号,,27,128,5400012,,,,,,,2021-09-02,1,,,,,ストーンズ,0
1573,6120001240115,新規,0,2021-09-02,2021-09-02,アーバンクリーンサービス株式会社,,株式会社,大阪府,大阪市城東区,鴫野西５丁目１７番５号メゾン・ド・マリア１Ｆ,,27,118,5360014,,,,,,,2021-09-02,1,,,,,アーバンクリーンサービス,0
1580,6120101064216,新規,0,2021-09-02,2021-09-02,１ｕｐ　ｉｎｎｏｖａｔｉｏｎ株式会社,,株式会社,大阪府,堺市中区,東山９４３－２,,27,142,5998247,,,,,,,2021-09-02,1,,,,,ワンアップイノベーション,0
1581,6120103004310,新規,0,2021-09-02,2021-09-02,ぷくぷく合同会社,,合同会社,大阪府,羽曳野市,誉田３丁目１４番１６号,,27,222,5830857,,,,,,,2021-09-02,1,,,,,プクプク,0
1588,6130001070016,新規,0,2021-09-02,2021-09-02,株式会社ＮＯＶＡ,,株式会社,京都府,京都市山科区,上花山坂尻１００番地１マンション清２０１,,26,110,6078465,,,,,,,2021-09-02,1,,,,,ノヴァ,0
1589,6130001070040,新規,0,2021-09-02,2021-09-02,株式会社ｂｅａｔｕｓ,,株式会社,京都府,京都市中京区,木屋町通二条下る東生洲町４８４番地６大岩ビル２階,,26,104,6040922,,,,,,,2021-09-02,1,,,,,ビータス,0
1596,6140001122872,新規,0,2021-09-02,2021-09-02,株式会社ｓａｍｅｌｉｎｅ,,株式会社,兵庫県,神戸市中央区,海岸通８番神港ビルヂング５階５０９号,,28,110,6500024,,,,,,,2021-09-02,1,,,,,セイムライン,0
1598,6140003016676,新規,0,2021-09-02,2021-09-02,合同会社ｒｅｓｔｉｎａ,,合同会社,兵庫県,芦屋市,月若町３番８－１０３号,,28,206,6590084,,,,,,,2021-09-02,1,,,,,レスティナ,0
1619,6180301035300,新規,0,2021-09-02,2021-09-02,永光電設株式会社,,株式会社,愛知県,豊田市,荒井町下原３８８番地５,,23,211,4700333,,,,,,,2021-09-02,1,,,,,エイコウデンセツ,0
1620,6180301035317,新規,0,2021-09-02,2021-09-02,株式会社ココプロ,,株式会社,愛知県,岡崎市,池金町字下池田１０番地４,,23,202,4443501,,,,,,,2021-09-02,1,,,,,ココプロ,0
1621,6180301035341,新規,0,2021-09-02,2021-09-02,株式会社未来心,,株式会社,愛知県,岡崎市,明大寺町字耳取９６‐２,,23,202,4440864,,,,,,,2021-09-02,1,,,,,ミライシン,0
1631,6200001039086,新規,0,2021-09-02,2021-09-02,株式会社山竹自動車,,株式会社,岐阜県,関市,下有知１５１９番地１,,21,205,5013217,,,,,,,2021-09-02,1,,,,,ヤマタケジドウシャ,0
1635,6240001058520,新規,0,2021-09-02,2021-09-02,株式会社Ｎｅｘｔ　Ｐｅｒｓｐｅｃｔｉｖｅ,,株式会社,広島県,広島市南区,東雲３丁目６番１号,,34,103,7340022,,,,,,,2021-09-02,1,,,,,ネクストパースペクティブ,0
1636,6240001058537,新規,0,2021-09-02,2021-09-02,株式会社ＥＣ,,株式会社,広島県,安芸郡府中町,みくまり３丁目１６番１７号Ａ１０１,,34,302,7350003,,,,,,,2021-09-02,1,,,,,イーシー,0
1637,6240001058553,新規,0,2021-09-02,2021-09-02,晴建株式会社,,株式会社,広島県,広島市東区,中山上２丁目３９番１０号,,34,102,7320027,,,,,,,2021-09-02,1,,,,,ハルケン,0
1639,6240003005264,新規,0,2021-09-02,2021-09-02,合同会社ＤＡＧＬＩＧＨＴ　ＯＦ　ＴＨＥ　ＤＡＹ,,合同会社,広島県,安芸郡府中町,山田１丁目４番３４号,,34,302,7350004,,,,,,,2021-09-02,1,,,,,ダグライトオブザデイ,0
1641,6250001019083,新規,0,2021-09-02,2021-09-02,株式会社酒のバッカス下関,,株式会社,山口県,岩国市,下１４番地の５,,35,208,7400302,,,,,,,2021-09-02,1,,,,,サケノバッカスシモノセキ,0
1642,6260001035914,新規,0,2021-09-02,2021-09-02,株式会社グッドロック,,株式会社,岡山県,岡山市中区,赤田１６８番地８,,33,102,7038231,,,,,,,2021-09-02,1,,,,,グッドロック,0
1643,6260001035922,新規,0,2021-09-02,2021-09-02,株式会社ＫＴＫ,,株式会社,岡山県,倉敷市,水江８８５番地１１,,33,202,7100802,,,,,,,2021-09-02,1,,,,,ケーティーケー,0
1644,6260001035930,新規,0,2021-09-02,2021-09-02,株式会社エム・コーポレーション,,株式会社,岡山県,岡山市南区,泉田５丁目１０番２７号（１４０２号室）,,33,104,7000944,,,,,,,2021-09-02,1,,,,,エムコーポレーション,0
1665,6290003011571,新規,0,2021-09-02,2021-09-02,小樽第１バイオマス発電所合同会社,,合同会社,福岡県,福岡市早良区,百道浜２丁目４番２７号ＡＩビル６Ｆ,,40,137,8140001,,,,,,,2021-09-02,1,,,,,オタルダイイチバイオマスハツデンショ,0
1667,6300001012611,新規,0,2021-09-02,2021-09-02,株式会社８,,株式会社,佐賀県,唐津市,八幡町６３８番地１９１,,41,202,8470102,,,,,,,2021-09-02,1,,,,,エイト,0
1668,6310001017444,新規,0,2021-09-02,2021-09-02,株式会社茜水産,,株式会社,長崎県,諫早市,小長井町井崎１番地２,,42,204,8590166,,,,,,,2021-09-02,1,,,,,アカネスイサン,0
1673,6320003003607,新規,0,2021-09-02,2021-09-02,合同会社ＴＯＭＩ,,合同会社,大分県,大分市,三川上３丁目１番３号,,44,201,8700143,,,,,,,2021-09-02,1,,,,,トミ,0
1686,6350001017283,新規,0,2021-09-02,2021-09-02,株式会社ＴｓｕＤｅｎ宮崎,,株式会社,宮崎県,宮崎市,東宮１丁目３７５番地２,,45,201,8800928,,,,,,,2021-09-02,1,,,,,ツウデンミヤザキ,0
1702,6370003005375,新規,0,2021-09-02,2021-09-02,合同会社Ｃ．ｓｍｉｌｅ,,合同会社,宮城県,仙台市泉区,南光台６丁目２０番１２号,,04,105,9818003,,,,,,,2021-09-02,1,,,,,シースマイル,0
1705,6380001032156,新規,0,2021-09-02,2021-09-02,クライム株式会社,,株式会社,福島県,郡山市,横塚２丁目２４番１号,,07,203,9638803,,,,,,,2021-09-02,1,,,,,クライム,0
1709,6390001016579,新規,0,2021-09-02,2021-09-02,株式会社Ｙ，ｓ－Ｂｅａｕｔｙ－Ｌｏｕｎｇｅ,,株式会社,山形県,酒田市,若原町３番２６号,,06,204,9980833,,,,,,,2021-09-02,1,,,,,ワイズビューティラウンジ,0
1711,6400001015587,新規,0,2021-09-02,2021-09-02,株式会社上路商店,,株式会社,岩手県,下閉伊郡岩泉町,岩泉字三本松２１番地３,,03,483,0270501,,,,,,,2021-09-02,1,,,,,ジョウジショウテン,0
1724,6440001008942,新規,0,2021-09-02,2021-09-02,株式会社滝野電機,,株式会社,北海道,茅部郡鹿部町,字宮浜３８番地１,,01,343,0411403,,,,,,,2021-09-02,1,,,,,タキノデンキ,0
1728,6470001018682,新規,0,2021-09-02,2021-09-02,株式会社Ｔ－ＬＯＧＩＳＴＩＣＳ,,株式会社,香川県,高松市,御厩町１５６番地１,,37,201,7618042,,,,,,,2021-09-02,1,,,,,ティロジスティクス,0
1730,6470005006378,新規,0,2021-09-02,2021-09-02,一般社団法人エンづくり研究所,,その他の設立登記法人,香川県,東かがわ市,白鳥７８番地１,,37,207,7692705,,,,,,,2021-09-02,1,,,,,エンヅクリケンキュウショ,0
1732,6500001023662,新規,0,2021-09-02,2021-09-02,ＴＤｏｎｅ株式会社,,株式会社,愛媛県,松山市,溝辺町１０１３番地２,00124109,38,201,7910101,,,,,,,2021-09-02,1,,,,,ティーディーワン,0
1734,6700150104607,新規,0,2021-09-02,2021-09-02,ＳＡＭＳＵＮＧ　ＬＩＯＮＳ　ＣＯ．，ＬＴＤ,,外国会社等,,,,,,,,１９１，Ｇｏｓｅｏｎｇ－ｒｏ，Ｂｕｋ－ｇｕ，Ｄａｅｇｕ，ＫＯＲＥＡ,,,,,,2021-09-02,1,,,,,サムソンライオンズ,0
1743,7010001220770,新規,0,2021-09-02,2021-09-02,株式会社Ｊ・Ｒ・Ｆ,,株式会社,東京都,中央区,日本橋箱崎町１７番８号,,13,102,1030015,,,,,,,2021-09-02,1,,,,,ジェイアールエフ,0
1744,7010001220812,新規,0,2021-09-02,2021-09-02,株式会社ＡＳＡ,,株式会社,東京都,千代田区,九段南１丁目５番６号りそな九段ビル５Ｆ,,13,101,1020074,,,,,,,2021-09-02,1,,,,,アース,0
1745,7010001220845,新規,0,2021-09-02,2021-09-02,ラクビル株式会社,,株式会社,東京都,千代田区,神田美土代町７番地４,,13,101,1010053,,,,,,,2021-09-02,1,,,,,ラクビル,0
1760,7010603009133,新規,0,2021-09-02,2021-09-02,合同会社ときわ企画,,合同会社,東京都,江東区,常盤１丁目１０番１２号,,13,108,1350006,,,,,,,2021-09-02,1,,,,,トキワキカク,0
1761,7010701041442,新規,0,2021-09-02,2021-09-02,株式会社Ｔｒｉｇｇｅｒ,,株式会社,東京都,品川区,北品川１丁目１番１５号北品川２１ビル３Ｆ,,13,109,1400001,,,,,,,2021-09-02,1,,,,,トリガー,0
1771,7010905004195,新規,0,2021-09-02,2021-09-02,一般社団法人ワンネスフード協会,,その他の設立登記法人,東京都,世田谷区,東玉川１丁目９番９号,,13,112,1580084,,,,,,,2021-09-02,1,,,,,ワンネスフードキョウカイ,0
1781,7011201023220,新規,0,2021-09-02,2021-09-02,株式会社ＨＡＬＵ,,株式会社,東京都,中野区,東中野３丁目２３番８号オープンレジデンシア東中野パークサイド２０４,,13,114,1640003,,,,,,,2021-09-02,1,,,,,ハル,0
1782,7011203003633,新規,0,2021-09-02,2021-09-02,ミライエ合同会社,,合同会社,東京都,中野区,弥生町２丁目１５－２５,,13,114,1640013,,,,,,,2021-09-02,1,,,,,,0
1783,7011303004151,新規,0,2021-09-02,2021-09-02,合同会社エスアイジー,,合同会社,東京都,杉並区,阿佐谷北３丁目６番２号ハウスサガ２－Ａ,,13,115,1660001,,,,,,,2021-09-02,1,,,,,,0
1786,7011501027284,新規,0,2021-09-02,2021-09-02,株式会社ＲＥＮＯＴＩＯＮ,,株式会社,東京都,荒川区,西日暮里６丁目８－８,,13,118,1160013,,,,,,,2021-09-02,1,,,,,リノーション,0
1787,7011503004876,新規,0,2021-09-02,2021-09-02,合同会社けいゆ,,合同会社,東京都,荒川区,町屋３丁目１１番１０号,,13,118,1160001,,,,,,,2021-09-02,1,,,,,ケイユ,0
1791,7011801039649,新規,0,2021-09-02,2021-09-02,株式会社ワイケイサービス,,株式会社,東京都,足立区,六木４丁目８－１２,,13,121,1210052,,,,,,,2021-09-02,1,,,,,ワイケイサービス,0
1792,7011801039657,新規,0,2021-09-02,2021-09-02,Ｊａｐａｎ　Ｐｅｒｆｕｍｅ　Ｓｔｕｄｉｏ株式会社,,株式会社,東京都,葛飾区,立石８丁目４４番地１号,,13,122,1240012,,,,,,,2021-09-02,1,,,,,ジャパンパフュームスタジオ,0
1793,7011801039673,新規,0,2021-09-02,2021-09-02,株式会社ひろがる未来,,株式会社,東京都,葛飾区,立石１丁目９番６号プルミエール立石３０１号,,13,122,1240012,,,,,,,2021-09-02,1,,,,,ヒロガルミライ,0
1796,7012303001584,新規,0,2021-09-02,2021-09-02,合同会社ａ　ｓｔｅｐ,,合同会社,東京都,町田市,つくし野２丁目１０番地３４,,13,209,1940001,,,,,,,2021-09-02,1,,,,,エイステップ,0
1803,7012803002586,新規,0,2021-09-02,2021-09-02,合同会社ｂｅａｍ,,合同会社,東京都,国分寺市,北町１丁目１４番地１０,,13,214,1850001,,,,,,,2021-09-02,1,,,,,ビーム,0
1812,7020001142808,新規,0,2021-09-02,2021-09-02,株式会社エンドウ図案工場,,株式会社,神奈川県,横浜市港北区,大豆戸町７７２番地１－３０６,,14,109,2220032,,,,,,,2021-09-02,1,,,,,エンドウズアンコウジョウ,0
1813,7020001142824,新規,0,2021-09-02,2021-09-02,株式会社Ｂｅ　ｐｌｕｓ,,株式会社,神奈川県,川崎市宮前区,梶ケ谷１４５５番地２,,14,136,2160034,,,,,,,2021-09-02,1,,,,,ビープラス,0
1817,7020003020409,新規,0,2021-09-02,2021-09-02,合同会社ｗａｔｏｗａ,,合同会社,神奈川県,横浜市神奈川区,菅田町７３５,,14,102,2210864,,,,,,,2021-09-02,1,,,,,ワトワ,0
1818,7020003020417,新規,0,2021-09-02,2021-09-02,合同会社ＬＩＢＥＲ,,合同会社,神奈川県,横浜市青葉区,美しが丘１丁目１３番地１０吉村ビル１０７号,,14,117,2250002,,,,,,,2021-09-02,1,,,,,リーベル,0
1825,7021001073811,新規,0,2021-09-02,2021-09-02,ＩＫＤＯＦＦＩＣＥ株式会社,,株式会社,神奈川県,横須賀市,深田台３７番地３５,,14,201,2380016,,,,,,,2021-09-02,1,,,,,アイケイディーオフィス,0
1831,7030001144134,新規,0,2021-09-02,2021-09-02,株式会社土田建設,,株式会社,埼玉県,さいたま市北区,奈良町９５番地６,,11,102,3310822,,,,,,,2021-09-02,1,,,,,ツチダケンセツ,0
1834,7030003017874,新規,0,2021-09-02,2021-09-02,Ｋｅｙ　Ｃｏｎｓｕｌｔｉｎｇ＆Ａｓｓｏｃｉａｔｅｓ合同会社,,合同会社,埼玉県,北本市,緑２丁目２６３－２,,11,233,3640032,,,,,,,2021-09-02,1,,,,,キーコンサルティングアンドアソシエイツ,0
1838,7040001119936,新規,0,2021-09-02,2021-09-02,株式会社にじいろ,,株式会社,千葉県,東金市,田間２丁目３番地１８,,12,213,2830005,,,,,,,2021-09-02,1,,,,,ニジイロ,0
1839,7040001119969,新規,0,2021-09-02,2021-09-02,株式会社プレステージ,,株式会社,千葉県,松戸市,胡録台３６３番地の２,,12,207,2710075,,,,,,,2021-09-02,1,,,,,プレステージ,0
1846,7080001024406,新規,0,2021-09-02,2021-09-02,石橋防災システム株式会社,,株式会社,静岡県,静岡市駿河区,下島３９９番地の３,,22,102,4228037,,,,,,,2021-09-02,1,,,,,イシバシボウサイシステム,0
1847,7080001024414,新規,0,2021-09-02,2021-09-02,株式会社Ｎｉｃｏ動物病院,,株式会社,静岡県,静岡市清水区,北脇１２９番地の４１,,22,103,4240052,,,,,,,2021-09-02,1,,,,,ニコドウブツビョウイン,0
1848,7080401025301,新規,0,2021-09-02,2021-09-02,マルタ美掃株式会社,,株式会社,静岡県,袋井市,岡崎２２７０番地の１,,22,216,4371312,,,,,,,2021-09-02,1,,,,,マルタビソウ,0
1851,7080403004352,新規,0,2021-09-02,2021-09-02,合同会社タスカルサービス,,合同会社,静岡県,浜松市西区,入野町２０００７番地の１,,22,133,4328061,,,,,,,2021-09-02,1,,,,,タスカルサービス,0
1854,7100001034567,新規,0,2021-09-02,2021-09-02,株式会社マルシェ,,株式会社,長野県,上田市,殿城８１６番地１,,20,203,3860004,,,,,,,2021-09-02,1,,,,,マルシェ,0
1856,7110001036018,新規,0,2021-09-02,2021-09-02,株式会社フォンテパートナーズ,,株式会社,新潟県,新潟市江南区,二本木４丁目３番１５号,,15,104,9500207,,,,,,,2021-09-02,1,,,,,フォンテパートナーズ,0
1873,7120001240089,新規,0,2021-09-02,2021-09-02,Ｂｅｌｌｉｓｓｉｍｏ株式会社,,株式会社,大阪府,大阪市西区,北堀江１丁目２２番４－７０３号,,27,106,5500014,,,,,,,2021-09-02,1,,,,,ベリッシモ,0
1879,7120101064223,新規,0,2021-09-02,2021-09-02,株式会社ショアブレイク,,株式会社,大阪府,岸和田市,土生町２丁目２９番３号ステラビルディング３階,,27,202,5960825,,,,,,,2021-09-02,1,,,,,ショアブレイク,0
1880,7120901044845,新規,0,2021-09-02,2021-09-02,株式会社テイク,,株式会社,大阪府,茨木市,若園町３３番７号若園１１番館５０２号,,27,211,5670894,,,,,,,2021-09-02,1,,,,,テイク,0
1883,7122001035130,新規,0,2021-09-02,2021-09-02,株式会社コニシ精密,,株式会社,大阪府,東大阪市,森河内東２丁目１７番１２号,,27,227,5770062,,,,,,,2021-09-02,1,,,,,コニシセイミツ,0
1894,7140001122863,新規,0,2021-09-02,2021-09-02,株式会社喜屋,,株式会社,兵庫県,宝塚市,川面１丁目２番８号,,28,214,6650842,,,,,,,2021-09-02,1,,,,,キヤ,0
1896,7140003016683,新規,0,2021-09-02,2021-09-02,合同会社ウィズワン,,合同会社,兵庫県,神戸市灘区,篠原台１２番６号,,28,102,6570016,,,,,,,2021-09-02,1,,,,,ウィズワン,0
1898,7150001024893,新規,0,2021-09-02,2021-09-02,株式会社エフプラ,,株式会社,奈良県,桜井市,朝倉台東７丁目５９６番地の８４,,29,206,6330003,,,,,,,2021-09-02,1,,,,,エフプラ,0
1901,7170001016757,新規,0,2021-09-02,2021-09-02,株式会社中屋商店,,株式会社,和歌山県,紀の川市,貴志川町長原１１７７番地６,,30,208,6400415,,,,,,,2021-09-02,1,,,,,ナカヤショウテン,0
1914,7180301035299,新規,0,2021-09-02,2021-09-02,株式会社アイビー,,株式会社,愛知県,豊田市,東梅坪町９丁目８番地３,,23,211,4710071,,,,,,,2021-09-02,1,,,,,アイビー,0
1915,7180301035308,新規,0,2021-09-02,2021-09-02,株式会社ミライＫＵ,,株式会社,愛知県,碧南市,平七町４丁目５番地１９,,23,209,4470884,,,,,,,2021-09-02,1,,,,,ミライク,0
1916,7180301035316,新規,0,2021-09-02,2021-09-02,竹内エンジニア株式会社,,株式会社,愛知県,岡崎市,大平町字上下り２６番地２,,23,202,4440007,,,,,,,2021-09-02,1,,,,,タケウチエンジニア,0
1918,7190001028651,新規,0,2021-09-02,2021-09-02,株式会社大きな木,,株式会社,三重県,鈴鹿市,西条６丁目１０５番地,,24,207,5130809,,,,,,,2021-09-02,1,,,,,オオキナキ,0
1920,7200001039060,新規,0,2021-09-02,2021-09-02,株式会社Ｍ３,,株式会社,岐阜県,岐阜市,加納安良町４番地ビュータウン加納２０２号室,,21,201,5008422,,,,,,,2021-09-02,1,,,,,エムスリー,0
1921,7200001039077,新規,0,2021-09-02,2021-09-02,株式会社ＬＩＢＥＲＯ,,株式会社,岐阜県,関市,肥田瀬１０５３番地,,21,205,5013911,,,,,,,2021-09-02,1,,,,,リベロ,0
1922,7200001039085,新規,0,2021-09-02,2021-09-02,株式会社リーフ,,株式会社,岐阜県,可児市,塩１２４７番地２ハートフル春里８－１,,21,214,5090251,,,,,,,2021-09-02,1,,,,,リーフ,0
1926,7210001018583,新規,0,2021-09-02,2021-09-02,株式会社山口内装,,株式会社,福井県,福井市,下江守町第９号１０番地２２,,18,201,9188037,,,,,,,2021-09-02,1,,,,,ヤマグチナイソウ,0
1928,7210005009983,新規,0,2021-09-02,2021-09-02,一般社団法人まほうのたね,,その他の設立登記法人,福井県,鯖江市,丸山町４丁目２１９番－２,,18,207,9160019,,,,,,,2021-09-02,1,,,,,マホウノタネ,0
1929,7220001024399,新規,0,2021-09-02,2021-09-02,株式会社ＣＯＦ,,株式会社,石川県,白山市,竹松町１５７番地,,17,210,9240021,,,,,,,2021-09-02,1,,,,,コフ,0
1935,7240001058528,新規,0,2021-09-02,2021-09-02,株式会社イマズセイサクショ,,株式会社,広島県,広島市安佐北区,深川８丁目５番１２号,,34,106,7391751,,,,,,,2021-09-02,1,,,,,イマズセイサクショ,0
1936,7240001058536,新規,0,2021-09-02,2021-09-02,株式会社アパンネ,,株式会社,広島県,広島市安佐南区,祇園５丁目２６番２１－１８号,,34,105,7310138,,,,,,,2021-09-02,1,,,,,アパンネ,0
1939,7250003002887,新規,0,2021-09-02,2021-09-02,合同会社Ｍｅ　Ｙｏｕ,,合同会社,山口県,宇部市,草江２丁目８番１２号,,35,202,7550004,,,,,,,2021-09-02,1,,,,,ミーユー,0
1950,7290001094460,新規,0,2021-09-02,2021-09-02,株式会社マイ・コンセプト,,株式会社,福岡県,福岡市博多区,東比恵３丁目１９－１０モントーレ東比恵クレア１４０３号,,40,132,8120007,,,,,,,2021-09-02,1,,,,,マイコンセプト,0
1954,7290003011570,新規,0,2021-09-02,2021-09-02,岩内ＢＭ発電所合同会社,,合同会社,福岡県,福岡市早良区,百道浜２丁目４番２７号ＡＩビル６Ｆ,,40,137,8140001,,,,,,,2021-09-02,1,,,,,イワナイビーエムハツデンショ,0
1966,7320001018572,新規,0,2021-09-02,2021-09-02,株式会社フィールド,,株式会社,大分県,大分市,山津町１丁目１１番１３号,,44,201,8700136,,,,,,,2021-09-02,1,,,,,フィールド,0
1970,7320003003606,新規,0,2021-09-02,2021-09-02,合同会社さくら保育社,,合同会社,大分県,国東市,国東町田深５５７番地１,,44,214,8730502,,,,,,,2021-09-02,1,,,,,サクラホイクシャ,0
1992,7430001084851,新規,0,2021-09-02,2021-09-02,株式会社ＨＯＭＥ　ＢＵＩＬＤＥＲ‐Ｎ,,株式会社,北海道,札幌市北区,太平六条６丁目２番１－２０１号,,01,102,0028006,,,,,,,2021-09-02,1,,,,,ホームビルダーエヌ,0
1993,7430001084868,新規,0,2021-09-02,2021-09-02,ネットライフ株式会社,,株式会社,北海道,札幌市中央区,南一条西５丁目１６番地プレジデント松井ビル１００　７０１Ａ,,01,101,0600061,,,,,,,2021-09-02,1,,,,,ネットライフ,0
1994,7430001084884,新規,0,2021-09-02,2021-09-02,ノイシュロス・オペレーション株式会社,,株式会社,北海道,小樽市,祝津３丁目２８２番地２,,01,203,0470047,,,,,,,2021-09-02,1,,,,,ノイシュロスオペレーション,0
1995,7430001084892,新規,0,2021-09-02,2021-09-02,リヴァイブエステート株式会社,,株式会社,北海道,札幌市白石区,菊水元町九条２丁目３番１２号,,01,104,0030829,,,,,,,2021-09-02,1,,,,,リヴァイブエステート,0
1996,7430001084918,新規,0,2021-09-02,2021-09-02,Ｔ‐ＳＴＡＧＥ株式会社,,株式会社,北海道,札幌市東区,北十五条東１丁目１番１２号,,01,103,0650015,,,,,,,2021-09-02,1,,,,,ティーステージ,0
1999,7430003013098,新規,0,2021-09-02,2021-09-02,合同会社ＬＩＣａＳ,,合同会社,北海道,札幌市中央区,南一条西１６丁目１番地３２３春野ビル３Ｆ,,01,101,0600061,,,,,,,2021-09-02,1,,,,,ライキャス,0
2002,7470001018681,新規,0,2021-09-02,2021-09-02,株式会社ジャンボタン,,株式会社,香川県,高松市,六条町１１２３番地５,,37,201,7610303,,,,,,,2021-09-02,1,,,,,ジャンボタン,0
2005,7500001023653,新規,0,2021-09-02,2021-09-02,株式会社Ｄ・Ｃ・Ｓ,,株式会社,愛媛県,松山市,南高井町１９８２番地４,,38,201,7911112,,,,,,,2021-09-02,1,,,,,ディーシーエス,0
2006,7500001023661,新規,0,2021-09-02,2021-09-02,株式会社クック・ラック,,株式会社,愛媛県,松山市,古三津１丁目２５番２１号,,38,201,7918067,,,,,,,2021-09-02,1,,,,,クックラック,0
2009,7500003002688,新規,0,2021-09-02,2021-09-02,ＳＵＮ　ＳＭＩＬＥ合同会社,,合同会社,愛媛県,松山市,歩行町１丁目１３番３号,,38,201,7900801,,,,,,,2021-09-02,1,,,,,サンスマイル,0
2010,7700150104580,新規,0,2021-09-02,2021-09-02,ＪＴＢ　ＵＳＡ，Ｉｎｃ．,,外国会社等,東京都,品川区,東品川２丁目３－１１,,13,109,1400002,アメリカ合衆国カリフォルニア州トーランス市マリナー通り１９７００,,,,,,2021-09-02,1,,,,,ジエイテイービーユーエスエーインク,0
2011,7700150104606,新規,0,2021-09-02,2021-09-02,Ｂｕｓｉｎｅｓｓ　Ａｖｉａｔｉｏｎ　Ａｓｉａ　Ｌｔｄ．,,外国会社等,,,,,,,,６／Ｆ　Ｉｎｆｏｒｍａｔｉｏｎ　Ｂｕｉｌｄｉｎｇ　Ｂａｏ’ａｎ　Ｉｎｔｅｒｎａｔｉｏｎａｌ　Ａｉｒｐｏｒｔ　Ｓｈｅｎｚｈｅｎ　Ｃｈｉｎａ,,,,,,2021-09-02,1,,,,,ビジネスアビエーシヨンアジアリミテツド,0
2019,8010001220860,新規,0,2021-09-02,2021-09-02,ＴＡＵＲＵＳ株式会社,,株式会社,東京都,千代田区,丸の内３丁目４番１号新国際ビル６階,,13,101,1000005,,,,,,,2021-09-02,1,,,,,タウルス,0
2020,8010001220893,新規,0,2021-09-02,2021-09-02,株式会社アスヒラ,,株式会社,東京都,中央区,日本橋２丁目１番２１号第二東洋ビル５階,,13,102,1030027,,,,,,,2021-09-02,1,,,,,アスヒラ,0
2023,8010003035729,新規,0,2021-09-02,2021-09-02,合同会社ＶＳＡ,,合同会社,東京都,中央区,銀座１丁目１５番７号,,13,102,1040061,,,,,,,2021-09-02,1,,,,,ブイエスエー,0
2027,8010005033895,新規,0,2021-09-02,2021-09-02,一般社団法人ＶＥＲＥＤ１,,その他の設立登記法人,東京都,中央区,八丁堀４丁目２番１０号ＡＯＪ税理士法人内,,13,102,1040032,,,,,,,2021-09-02,1,,,,,ヴェレッドワン,0
2031,8010401162389,新規,0,2021-09-02,2021-09-02,株式会社ＷｏｒｌｄＡｒｃ,,株式会社,東京都,港区,南青山４丁目８番２０号マック青南マンション１０４,,13,103,1070062,,,,,,,2021-09-02,1,,,,,ワールドアーク,0
2032,8010401162439,新規,0,2021-09-02,2021-09-02,株式会社ウェルアウェイ,,株式会社,東京都,港区,赤坂６丁目４番１７号,,13,103,1070052,,,,,,,2021-09-02,1,,,,,ウェルアウェイ,0
2047,8010901049367,新規,0,2021-09-02,2021-09-02,株式会社Ｄｙｓａｎｉａ,,株式会社,東京都,世田谷区,成城５丁目１番１４号ザ・リーフィアレジデンス成城１０１,,13,112,1570066,,,,,,,2021-09-02,1,,,,,ダイサニア,0
2051,8011001142533,新規,0,2021-09-02,2021-09-02,マイクログリーン株式会社,,株式会社,東京都,渋谷区,渋谷２丁目７－１４,,13,113,1500002,,,,,,,2021-09-02,1,,,,,マイクログリーン,0
2052,8011101096159,新規,0,2021-09-02,2021-09-02,株式会社リアルアンドサン,,株式会社,東京都,新宿区,歌舞伎町２丁目４番１０号,,13,104,1600021,,,,,,,2021-09-02,1,,,,,リアルアンドサン,0
2057,8011303004150,新規,0,2021-09-02,2021-09-02,合同会社竹緑,,合同会社,東京都,杉並区,和田１丁目２５番１１号,,13,115,1660012,,,,,,,2021-09-02,1,,,,,,0
2058,8011305002763,新規,0,2021-09-02,2021-09-02,特定非営利活動法人ＤＨＡＤＩＮＧ　ＳＯＣＩＥＴＹ　ＪＡＰＡＮ,,その他の設立登記法人,東京都,杉並区,阿佐谷南１丁目１５番１２－３０６号大同マンション,,13,115,1660004,,,,,,,2021-09-02,1,,,,,ダーディングソシエティジャパン,0
2063,8011501027267,新規,0,2021-09-02,2021-09-02,株式会社ぱるすみーと,,株式会社,東京都,荒川区,西尾久２丁目２９番８号バックウィート中村１０１,,13,118,1160011,,,,,,,2021-09-02,1,,,,,パルスミート,0
2074,8011801039664,新規,0,2021-09-02,2021-09-02,Ｆａｎｇｏｒ　Ｉｎｎｏｖａｔｉｏｎ株式会社,,株式会社,東京都,足立区,扇２丁目４２番１５－４０７号,,13,121,1230873,,,,,,,2021-09-02,1,,,,,ファンガーイノベーション,0
2075,8012701016646,新規,0,2021-09-02,2021-09-02,エムズ株式会社,,株式会社,東京都,東久留米市,下里２丁目８番１２号,,13,222,2030043,,,,,,,2021-09-02,1,,,,,エムズ,0
2076,8012703002297,新規,0,2021-09-02,2021-09-02,ＥＶＥＲＥＳＴ合同会社,,合同会社,東京都,東村山市,廻田町３丁目８番地６ウィル武蔵大和２０２,,13,213,1890025,,,,,,,2021-09-02,1,,,,,エベレスト,0
2083,8020001142815,新規,0,2021-09-02,2021-09-02,ワイティーパートナーズ株式会社,,株式会社,神奈川県,横浜市中区,桜木町１丁目１０１番地１クロスゲート７階,,14,104,2310062,,,,,,,2021-09-02,1,,,,,ワイティーパートナーズ,0
2084,8020001142823,新規,0,2021-09-02,2021-09-02,株式会社興隆板金工業,,株式会社,神奈川県,横浜市泉区,中田南１丁目３６番２１号,,14,116,2450014,,,,,,,2021-09-02,1,,,,,コウリュウバンキンコウギョウ,0
2087,8021001073810,新規,0,2021-09-02,2021-09-02,清風商事株式会社,,株式会社,神奈川県,大和市,下和田２６２番地いちょう団地７７－５０６,,14,213,2420015,,,,,,,2021-09-02,1,,,,,セイフウショウジ,0
2088,8021001073819,新規,0,2021-09-02,2021-09-02,株式会社クラリスホーム,,株式会社,神奈川県,横須賀市,吉井３丁目４番１２号,,14,201,2390804,,,,,,,2021-09-02,1,,,,,クラリスホーム,0
2109,8030001144083,新規,0,2021-09-02,2021-09-02,株式会社輿図不動産,,株式会社,埼玉県,さいたま市浦和区,仲町２丁目１５番４号,,11,107,3300062,,,,,,,2021-09-02,1,,,,,ヨズフドウサン,0
2110,8030001144100,新規,0,2021-09-02,2021-09-02,株式会社Ｏｎｅ　Ｂｙ　Ｏｎｅ,,株式会社,埼玉県,川口市,坂下町３丁目２６番７号,,11,203,3340003,,,,,,,2021-09-02,1,,,,,ワンバイワン,0
2111,8030001144109,新規,0,2021-09-02,2021-09-02,株式会社メビウス,,株式会社,埼玉県,吉川市,中野３９番地１,,11,243,3420042,,,,,,,2021-09-02,1,,,,,メビウス,0
2112,8030001144133,新規,0,2021-09-02,2021-09-02,株式会社ＫＴＹ,,株式会社,埼玉県,さいたま市西区,大字内野本郷９９３番地３,,11,101,3310045,,,,,,,2021-09-02,1,,,,,ケーティワイ,0
2119,8040001119927,新規,0,2021-09-02,2021-09-02,株式会社ＬＥ．Ｏ,,株式会社,千葉県,柏市,逆井２丁目２８番５号,,12,217,2770042,,,,,,,2021-09-02,1,,,,,レオ,0
2120,8040001119943,新規,0,2021-09-02,2021-09-02,株式会社アクティブ,,株式会社,千葉県,柏市,豊四季４８５番地１８,,12,217,2770863,,,,,,,2021-09-02,1,,,,,アクティブ,0
2121,8040001119968,新規,0,2021-09-02,2021-09-02,株式会社ＳＴＲＡＴＯＳ,,株式会社,千葉県,柏市,若葉町２番１４号,,12,217,2770024,,,,,,,2021-09-02,1,,,,,ストラトス,0
2133,8060001034050,新規,0,2021-09-02,2021-09-02,株式会社みね動物病院,,株式会社,栃木県,真岡市,長田５丁目１８番地２１,,09,209,3214364,,,,,,,2021-09-02,1,,,,,ミネドウブツビョウイン,0
2137,8070003004216,新規,0,2021-09-02,2021-09-02,良辰合同会社,,合同会社,群馬県,邑楽郡大泉町,大字寄木戸１５９２－２,,10,524,3700535,,,,,,,2021-09-02,1,,,,,リョウシン,0
2138,8080001024405,新規,0,2021-09-02,2021-09-02,株式会社鈴木建設,,株式会社,静岡県,島田市,船木１９０９番地の８,,22,209,4270107,,,,,,,2021-09-02,1,,,,,スズキケンセツ,0
2139,8080001024413,新規,0,2021-09-02,2021-09-02,株式会社ＴｕｒｎＸ,,株式会社,静岡県,静岡市葵区,錦町２８番地９,,22,101,4200015,,,,,,,2021-09-02,1,,,,,ターンエックス,0
2145,8100001034582,新規,0,2021-09-02,2021-09-02,株式会社ぱそなか,,株式会社,長野県,千曲市,大字稲荷山８２４番地,,20,218,3870021,,,,,,,2021-09-02,1,,,,,パソナカ,0
2153,8110001036000,新規,0,2021-09-02,2021-09-02,株式会社グッデイ,,株式会社,新潟県,新潟市中央区,米山４丁目９番１７号プチハイムメモルⅢ１０２,00124098,15,103,9500916,,,,,,,2021-09-02,1,,,,,グッデイ,0
2169,8120003020133,新規,0,2021-09-02,2021-09-02,合同会社スモーク・ライド,,合同会社,大阪府,大阪市北区,梅田２丁目５番１３号桜橋第一ビル３０４号室,,27,127,5300001,,,,,,,2021-09-02,1,,,,,スモークライド,0
2172,8120101064214,新規,0,2021-09-02,2021-09-02,株式会社ＳＵＮＳＥＡＲＥＮ,,株式会社,大阪府,和泉市,太町２８２－１,,27,219,5940003,,,,,,,2021-09-02,1,,,,,サンシーレン,0
2173,8120101064239,新規,0,2021-09-02,2021-09-02,株式会社オウルアイ,,株式会社,大阪府,高石市,千代田２丁目２番１－３０１号,,27,225,5920005,,,,,,,2021-09-02,1,,,,,オウルアイ,0
2175,8120901044836,新規,0,2021-09-02,2021-09-02,株式会社Ｓｈａｌｏｍ,,株式会社,大阪府,吹田市,千里山松が丘１２番２０号,,27,205,5650843,,,,,,,2021-09-02,1,,,,,シャローム,0
2176,8120901044852,新規,0,2021-09-02,2021-09-02,株式会社眞野鈑金,,株式会社,大阪府,箕面市,箕面８丁目１３番２９号,,27,220,5620001,,,,,,,2021-09-02,1,,,,,マノバンキン,0
2179,8120903003807,新規,0,2021-09-02,2021-09-02,合同会社ウィリディスＭＥＰエンジニアリング,,合同会社,大阪府,高槻市,真上町１丁目８番１７号,,27,207,5691121,,,,,,,2021-09-02,1,,,,,ウィリディスエムイーピーエンジニアリング,0
2182,8130001070039,新規,0,2021-09-02,2021-09-02,株式会社ＦＩＬＯ,,株式会社,京都府,京都市伏見区,深草大亀谷岩山町１８５番地１,,26,109,6120833,,,,,,,2021-09-02,1,,,,,フィーロ,0
2186,8140001122870,新規,0,2021-09-02,2021-09-02,株式会社輝志建設,,株式会社,兵庫県,神崎郡市川町,西田中５０１番地の３,,28,442,6792313,,,,,,,2021-09-02,1,,,,,キシケンセツ,0
2191,8150003002475,新規,0,2021-09-02,2021-09-02,合同会社Ｃｒａｆｔ　Ｓａｕｎａ　Ｃｌｕｂ,,合同会社,奈良県,吉野郡川上村,大字中奥２３２,,29,452,6393633,,,,,,,2021-09-02,1,,,,,クラフトサウナクラブ,0
2193,8160001023596,新規,0,2021-09-02,2021-09-02,株式会社小野寺金属,,株式会社,滋賀県,高島市,今津町角川２２－１,,25,212,5201648,,,,,,,2021-09-02,1,,,,,オノデラキンゾク,0
2194,8160003002367,新規,0,2021-09-02,2021-09-02,合同会社ペガサス３７,,合同会社,滋賀県,栗東市,手原３丁目６番２７－１号,,25,208,5203047,,,,,,,2021-09-02,1,,,,,ペガサスサンナナ,0
2197,8170001016748,新規,0,2021-09-02,2021-09-02,株式会社本多工務店,,株式会社,和歌山県,和歌山市,朝日２０１番地９,,30,201,6400344,,,,,,,2021-09-02,1,,,,,ホンダコウムテン,0
2198,8170001016756,新規,0,2021-09-02,2021-09-02,株式会社Ｋロジスティクス,,株式会社,和歌山県,岩出市,北大池１１８番地（２０６号）,,30,209,6496219,,,,,,,2021-09-02,1,,,,,ケイロジスティクス,0
2199,8170003001624,新規,0,2021-09-02,2021-09-02,合同会社リープ,,合同会社,和歌山県,和歌山市,紀三井寺１番地２８－６－１０３,,30,201,6410012,,,,,,,2021-09-02,1,,,,,リープ,0
2207,8180001147617,新規,0,2021-09-02,2021-09-02,株式会社名古屋アミューズ,,株式会社,愛知県,名古屋市名東区,高針１丁目７０１番地,,23,115,4650061,,,,,,,2021-09-02,1,,,,,ナゴヤアミューズ,0
2211,8180301035298,新規,0,2021-09-02,2021-09-02,株式会社コネクト成田,,株式会社,愛知県,豊田市,森町８丁目２４番地,,23,211,4710806,,,,,,,2021-09-02,1,,,,,コネクトナリタ,0
2212,8180301035315,新規,0,2021-09-02,2021-09-02,株式会社前田設備,,株式会社,愛知県,豊橋市,牟呂町字郷社西３１番地,,23,201,4418087,,,,,,,2021-09-02,1,,,,,マエダセツビ,0
2213,8180301035331,新規,0,2021-09-02,2021-09-02,株式会社ＭＫｃｏｒｐｏｒａｔｈｉｏｎ,,株式会社,愛知県,安城市,東端町南用地２１番地１,,23,212,4441213,,,,,,,2021-09-02,1,,,,,,0
2221,8200001039084,新規,0,2021-09-02,2021-09-02,株式会社ｂ３,,株式会社,岐阜県,岐阜市,八代２丁目６番１３号,,21,201,5020812,,,,,,,2021-09-02,1,,,,,ビースリー,0
2225,8210001018590,新規,0,2021-09-02,2021-09-02,株式会社Ｉｎｏｕｅ,,株式会社,福井県,福井市,新田塚２丁目９６番１２号,,18,201,9100067,,,,,,,2021-09-02,1,,,,,イノウエ,0
2227,8210003001405,新規,0,2021-09-02,2021-09-02,合同会社ＦＵＪＩＯＮＥ,,合同会社,福井県,敦賀市,本町１丁目１４番２７号,,18,202,9140051,,,,,,,2021-09-02,1,,,,,フジオネ,0
2231,8230003001717,新規,0,2021-09-02,2021-09-02,Ｓｕｎｎｙ＆Ｇｒｅｅｎ合同会社,,合同会社,富山県,高岡市,能町７５０番地,,16,202,9330003,,,,,,,2021-09-02,1,,,,,サニーアンドグリーン,0
2237,8240001058519,新規,0,2021-09-02,2021-09-02,株式会社イーゼルスマークス,,株式会社,広島県,広島市中区,十日市町１丁目５番２８号２Ｆ,,34,101,7300805,,,,,,,2021-09-02,1,,,,,イーゼルスマークス,0
2238,8240001058527,新規,0,2021-09-02,2021-09-02,株式会社佐伯メンテナンス,,株式会社,広島県,広島市佐伯区,屋代２丁目３番２９号,,34,108,7315146,,,,,,,2021-09-02,1,,,,,サイキメンテナンス,0
2241,8240003005262,新規,0,2021-09-02,2021-09-02,合同会社ｐｉｃｏ,,合同会社,広島県,広島市安佐南区,山本９丁目２７番５０－１４－９号,,34,105,7310137,,,,,,,2021-09-02,1,,,,,ピコ,0
2244,8250003002886,新規,0,2021-09-02,2021-09-02,合同会社ＧＲＡＰＨ,,合同会社,山口県,下関市,岬之町９番６号杏林ビル１０３,,35,201,7500014,,,,,,,2021-09-02,1,,,,,グラフ,0
2248,8260005010969,新規,0,2021-09-02,2021-09-02,一般社団法人岡山県レクリエーション協会,,その他の設立登記法人,岡山県,岡山市北区,いずみ町２番１‐１１号陸上競技場１Ｆ,,33,101,7000012,,,,,,,2021-09-02,1,,,,,オカヤマケンレクリエーションキョウカイ,0
2249,8280001008503,新規,0,2021-09-02,2021-09-02,株式会社ケイプラント,,株式会社,島根県,邑智郡邑南町,日和１１６５番地,,32,449,6960104,,,,,,,2021-09-02,1,,,,,ケイプラント,0
2257,8290003011520,新規,0,2021-09-02,2021-09-02,合同会社手島工業,,合同会社,福岡県,福岡市博多区,板付５丁目３番２０号,,40,132,8120888,,,,,,,2021-09-02,1,,,,,テシマコウギョウ,0
2273,8330001028958,新規,0,2021-09-02,2021-09-02,株式会社トップホップ,,株式会社,熊本県,熊本市中央区,国府２丁目６番７９－５０５号,,43,101,8620949,,,,,,,2021-09-02,1,,,,,トップホップ,0
2276,8340001024064,新規,0,2021-09-02,2021-09-02,まつぼっくり株式会社,,株式会社,鹿児島県,大島郡知名町,大字芦清良８７８番地１,,46,534,8919211,,,,,,,2021-09-02,1,,,,,マツボックリ,0
2280,8350003003916,新規,0,2021-09-02,2021-09-02,合同会社Ｓ＆Ｎコーポレーション,,合同会社,宮崎県,宮崎市,永楽町１８４番地２西下コーポ２０３号室,,45,201,8800872,,,,,,,2021-09-02,1,,,,,エスアンドエヌコーポレーション,0
2284,8370001047566,新規,0,2021-09-02,2021-09-02,株式会社Ｋｕｒｏｋｏｄｉｌｅ,,株式会社,宮城県,仙台市若林区,五橋３丁目５番６５－６０５号,,04,103,9840022,,,,,,,2021-09-02,1,,,,,クロコダイル,0
2295,8430001084875,新規,0,2021-09-02,2021-09-02,株式会社インプルーブ,,株式会社,北海道,札幌市中央区,大通西１８丁目１番地４０,,01,101,0600042,,,,,,,2021-09-02,1,,,,,インプルーブ,0
2296,8430001084891,新規,0,2021-09-02,2021-09-02,テクノコネクト株式会社,,株式会社,北海道,札幌市白石区,菊水元町九条２丁目３番１２号,,01,104,0030829,,,,,,,2021-09-02,1,,,,,テクノコネクト,0
2298,8450001013460,新規,0,2021-09-02,2021-09-02,札幌エージェントファーム株式会社,,株式会社,北海道,中川郡美深町,字川西６９番地１,,01,469,0982204,,,,,,,2021-09-02,1,,,,,サッポロエージェントファーム,0
2300,8460003000860,新規,0,2021-09-02,2021-09-02,合同会社岩村会計事務所,,合同会社,北海道,釧路市,富士見１丁目７番１６号,,01,206,0850832,,,,,,,2021-09-02,1,,,,,イワムラカイケイジムショ,0
2304,8470001018680,新規,0,2021-09-02,2021-09-02,株式会社Ｒｏｏｔ　Ｒｉｖｅｒ,,株式会社,香川県,さぬき市,寒川町石田東甲５４６番地６,,37,206,7692321,,,,,,,2021-09-02,1,,,,,ルートリバー,0
2310,8490001009975,新規,0,2021-09-02,2021-09-02,株式会社譽,,株式会社,高知県,四万十市,不破４２２番地,,39,210,7870017,,,,,,,2021-09-02,1,,,,,ホマレ,0
2311,8500001023652,新規,0,2021-09-02,2021-09-02,株式会社佐藤電気設備,,株式会社,愛媛県,大洲市,西大洲甲５４７番地６,,38,207,7950013,,,,,,,2021-09-02,1,,,,,サトウデンキセツビ,0
2312,8700150104605,新規,0,2021-09-02,2021-09-02,ＤｏｏＳａｎ　ｂｅａｒｓ,,外国会社等,,,,,,,,２５　Ｏｌｙｍｐｉｃ－ｒｏ，Ｓｏｎｇｐａ－ｇｕ，Ｓｅｏｕｌ，Ｋｏｒｅａ,,,,,,2021-09-02,1,,,,,トウサンベアーズ,0
2324,9010001220843,新規,0,2021-09-02,2021-09-02,トランクノック株式会社,,株式会社,東京都,千代田区,東神田１丁目４番１１号,,13,101,1010031,,,,,,,2021-09-02,1,,,,,トランクノック,0
2332,9010401162454,新規,0,2021-09-02,2021-09-02,株式会社ｎｅｘｔ　ｓｔｅｐ,,株式会社,東京都,港区,南青山２丁目２番１５号ウィン青山９４２,,13,103,1070062,,,,,,,2021-09-02,1,,,,,ネクストステップ,0
2333,9010401162470,新規,0,2021-09-02,2021-09-02,プランプラン株式会社,,株式会社,東京都,港区,北青山２丁目１０－２６,,13,103,1070061,,,,,,,2021-09-02,1,,,,,プランプラン,0
2334,9010403026038,新規,0,2021-09-02,2021-09-02,合同会社８ｉＭ　ｅｎｔｅｒｔａｉｎｍｅｎｔ,,合同会社,東京都,港区,虎ノ門３丁目８－２５日総第２３ビル７０３,,13,103,1050001,,,,,,,2021-09-02,1,,,,,エイムエンターテイメント,0
2336,9010405020146,新規,0,2021-09-02,2021-09-02,一般社団法人Ｃｌｉｍａｔｅ　Ｉｎｔｅｇｒａｔｅ,,その他の設立登記法人,東京都,港区,芝４丁目７番１号西山ビル４階,,13,103,1080014,,,,,,,2021-09-02,1,,,,,クライメートインテグレート,0
2340,9010601059871,新規,0,2021-09-02,2021-09-02,株式会社Ｆｉｎｔ,,株式会社,東京都,墨田区,墨田１丁目１４－１,,13,107,1310031,,,,,,,2021-09-02,1,,,,,フィント,0
2345,9010701041449,新規,0,2021-09-02,2021-09-02,株式会社あちゃ,,株式会社,東京都,品川区,西品川１丁目２番１－２００９号,,13,109,1410033,,,,,,,2021-09-02,1,,,,,アチャ,0
2347,9010801032281,新規,0,2021-09-02,2021-09-02,株式会社ＪＳＫ,,株式会社,東京都,大田区,西蒲田４丁目１０番５号,,13,111,1440051,,,,,,,2021-09-02,1,,,,,ジェイエスケー,0
2348,9010803003875,新規,0,2021-09-02,2021-09-02,アライバル合同会社,,合同会社,東京都,大田区,大森東１丁目２６番２号,,13,111,1430012,,,,,,,2021-09-02,1,,,,,アライバル,0
2358,9011101096100,新規,0,2021-09-02,2021-09-02,株式会社ａｉｍ,,株式会社,東京都,新宿区,西新宿５丁目５番１－９１１号,,13,104,1600023,,,,,,,2021-09-02,1,,,,,エイム,0
2361,9011201023219,新規,0,2021-09-02,2021-09-02,ヒロソフト株式会社,,株式会社,東京都,中野区,大和町４丁目２番２号,,13,114,1650034,,,,,,,2021-09-02,1,,,,,ヒロソフト,0
2363,9011401023638,新規,0,2021-09-02,2021-09-02,株式会社クラフトアップ,,株式会社,東京都,板橋区,桜川３丁目２６番７号トップ上板橋Ｎｏ．１－２０１号室,,13,119,1740075,,,,,,,2021-09-02,1,,,,,クラフトアップ,0
2367,9011701024674,新規,0,2021-09-02,2021-09-02,株式会社Ｇ＆Ｇ,,株式会社,東京都,江戸川区,松島３丁目４１番１１号,,13,123,1320031,,,,,,,2021-09-02,1,,,,,ジーアンドジー,0
2368,9011801039655,新規,0,2021-09-02,2021-09-02,株式会社ＫＹ工業,,株式会社,東京都,葛飾区,西亀有４丁目２番３号,,13,122,1250002,,,,,,,2021-09-02,1,,,,,ケイワイコウギョウ,0
2370,9012403005005,新規,0,2021-09-02,2021-09-02,合同会社ｍａｔｔ,,合同会社,東京都,府中市,宮町１丁目３４番地１サンスクエアビル１０５,,13,206,1830023,,,,,,,2021-09-02,1,,,,,マット,0
2371,9012701016645,新規,0,2021-09-02,2021-09-02,株式会社ＡＮＧＥＬ　ＢＬＯＯＤ,,株式会社,東京都,東久留米市,ひばりが丘団地第７街区第２号棟第４０３号室,,13,222,2030022,,,,,,,2021-09-02,1,,,,,エンジェルブラッド,0
2375,9013301047948,新規,0,2021-09-02,2021-09-02,株式会社ＫＯ,,株式会社,東京都,豊島区,西池袋１丁目２９－１４オリエント池袋６０９号,,13,116,1710021,,,,,,,2021-09-02,1,,,,,ケーオー,0
2376,9013301047956,新規,0,2021-09-02,2021-09-02,株式会社ＴＯＫＡＧＥ　ＣＯＭＰＡＮＹ,,株式会社,東京都,豊島区,東池袋２丁目４５番８号エコービル７０１,,13,116,1700013,,,,,,,2021-09-02,1,,,,,トカゲカンパニー,0
2378,9013305003253,新規,0,2021-09-02,2021-09-02,医療法人社団ＭＴＣ,,その他の設立登記法人,東京都,豊島区,駒込１丁目３２番１号駒込富士ハイツ１０２号,,13,116,1700003,,,,,,,2021-09-02,1,,,,,エムティーシー,0
2381,9020001142822,新規,0,2021-09-02,2021-09-02,株式会社ＭａｉＳｔａｒ,,株式会社,神奈川県,横浜市保土ケ谷区,川島町１５５７番地９,,14,106,2400045,,,,,,,2021-09-02,1,,,,,マイスター,0
2383,9020003020415,新規,0,2021-09-02,2021-09-02,セカンドペンギン合同会社,,合同会社,神奈川県,横浜市神奈川区,羽沢南３丁目１－３,,14,102,2210866,,,,,,,2021-09-02,1,,,,,セカンドペンギン,0
2386,9021001073818,新規,0,2021-09-02,2021-09-02,株式会社新永,,株式会社,神奈川県,藤沢市,葛原２００１番地の２,,14,205,2520822,,,,,,,2021-09-02,1,,,,,シンエイ,0
2390,9021003010851,新規,0,2021-09-02,2021-09-02,合同会社Ｍａｎａ,,合同会社,神奈川県,中郡大磯町,国府本郷１３１０番地,,14,341,2590111,,,,,,,2021-09-02,1,,,,,マナ,0
2394,9030003017864,新規,0,2021-09-02,2021-09-02,ＡＣＲ　Ｐｌａｎｎｉｎｇ合同会社,,合同会社,埼玉県,富士見市,ふじみ野西１丁目２１番地５ケイアイふじみ野ビル１階Ｄ号室,,11,235,3540035,,,,,,,2021-09-02,1,,,,,エーシーアールプランニング,0
2395,9030005020494,新規,0,2021-09-02,2021-09-02,特定非営利活動法人エシカルプロジェクト,,その他の設立登記法人,埼玉県,本庄市,児玉町共栄５４９番地３ＩＳハイツ１Ｆ,,11,211,3670206,,,,,,,2021-09-02,1,,,,,エシカルプロジェクト,0
2398,9040001119942,新規,0,2021-09-02,2021-09-02,株式会社トラスト,,株式会社,千葉県,柏市,豊四季４８５番地１８,,12,217,2770863,,,,,,,2021-09-02,1,,,,,トラスト,0
2399,9040001119967,新規,0,2021-09-02,2021-09-02,テクノサービス株式会社,,株式会社,千葉県,柏市,手賀の杜５丁目２３番地３エレガントヒル１０１号,,12,217,2701447,,,,,,,2021-09-02,1,,,,,テクノサービス,0
2400,9040001119991,新規,0,2021-09-02,2021-09-02,株式会社アフリット,,株式会社,千葉県,木更津市,幸町１丁目１番６号,,12,206,2920803,,,,,,,2021-09-02,1,,,,,アフリット,0
2411,9050001049775,新規,0,2021-09-02,2021-09-02,カンボジャパン株式会社,,株式会社,茨城県,下妻市,古沢１１８４番地,,08,210,3040041,,,,,,,2021-09-02,1,,,,,カンボジャパン,0
2418,9070003004215,新規,0,2021-09-02,2021-09-02,ＭＨＩ合同会社,,合同会社,群馬県,太田市,新井町５５４番地１４,,10,205,3730852,,,,,,,2021-09-02,1,,,,,エムエイチアイ,0
2419,9080001024404,新規,0,2021-09-02,2021-09-02,株式会社ユーブレス,,株式会社,静岡県,藤枝市,下当間１９９番地の１,,22,214,4260003,,,,,,,2021-09-02,1,,,,,ユーブレス,0
2420,9080001024412,新規,0,2021-09-02,2021-09-02,株式会社Ｏ・Ｎ・Ｓ,,株式会社,静岡県,静岡市駿河区,中島４３０番地の９－３０２号,,22,102,4228046,,,,,,,2021-09-02,1,,,,,オーエヌエス,0
2421,9080001024420,新規,0,2021-09-02,2021-09-02,株式会社エム工業,,株式会社,静岡県,榛原郡吉田町,片岡１６１４番地の１８,,22,424,4210303,,,,,,,2021-09-02,1,,,,,エムコウギョウ,0
2436,9120001240079,新規,0,2021-09-02,2021-09-02,株式会社Ｊｏｅ　ａｓｓｅｔ　ｍａｎａｇｅｍｅｎｔ,,株式会社,大阪府,大阪市淀川区,十三東１丁目１４番２３号大盛マンション１０２,,27,123,5320023,,,,,,,2021-09-02,1,,,,,ジョーアセットマネジメント,0
2437,9120001240087,新規,0,2021-09-02,2021-09-02,子猫ラボ株式会社,,株式会社,大阪府,大阪市生野区,巽中３丁目１１番４号,00124107,27,116,5440013,,,,,,,2021-09-02,1,,,,,コネコラボ,0
2438,9120001240095,新規,0,2021-09-02,2021-09-02,株式会社たてうし,,株式会社,大阪府,大阪市北区,堂島１丁目２番７号,,27,127,5300003,,,,,,,2021-09-02,1,,,,,タテウシ,0
2443,9120003020132,新規,0,2021-09-02,2021-09-02,合同会社ティーエム工業,,合同会社,大阪府,門真市,四宮４丁目５番３９号,,27,223,5710017,,,,,,,2021-09-02,1,,,,,ティーエムコウギョウ,0
2444,9120003020140,新規,0,2021-09-02,2021-09-02,ＩＳ警備合同会社,,合同会社,大阪府,守口市,大日東町１５番８－２０３号,,27,209,5700016,,,,,,,2021-09-02,1,,,,,アイエスケイビ,0
2447,9120901044835,新規,0,2021-09-02,2021-09-02,株式会社アルティ,,株式会社,大阪府,高槻市,深沢本町２９番２５号,,27,207,5690033,,,,,,,2021-09-02,1,,,,,アルティ,0
2448,9120901044843,新規,0,2021-09-02,2021-09-02,株式会社プロンザ,,株式会社,大阪府,高槻市,三島江３丁目１番１０号,,27,207,5690835,,,,,,,2021-09-02,1,,,,,プロンザ,0
2451,9130001070013,新規,0,2021-09-02,2021-09-02,株式会社大,,株式会社,京都府,京都市西京区,川島調子町６８番地の４,,26,111,6158125,,,,,,,2021-09-02,1,,,,,ダイ,0
2455,9140001122853,新規,0,2021-09-02,2021-09-02,マルテンコーポレーション株式会社,,株式会社,兵庫県,姫路市,野里５０９番地６,,28,201,6700811,,,,,,,2021-09-02,1,,,,,マルテンコーポレーション,0
2456,9140001122861,新規,0,2021-09-02,2021-09-02,株式会社スリースタイル,,株式会社,兵庫県,豊岡市,日高町松岡８番地２,,28,209,6695307,,,,,,,2021-09-02,1,,,,,スリースタイル,0
2457,9140001122878,新規,0,2021-09-02,2021-09-02,アルワハーブ貿易株式会社,,株式会社,兵庫県,神戸市中央区,中山手通３丁目１４番１３－４０５号,,28,110,6500004,,,,,,,2021-09-02,1,,,,,アルワハーブボウエキ,0
2458,9140001122894,新規,0,2021-09-02,2021-09-02,株式会社フェリピープス,,株式会社,兵庫県,神戸市兵庫区,新開地６丁目１番５－７０５号,,28,105,6520811,,,,,,,2021-09-02,1,,,,,フェリピープス,0
2464,9160001023587,新規,0,2021-09-02,2021-09-02,株式会社ミナヅキ,,株式会社,滋賀県,愛知郡愛荘町,栗田２１６番地１,,25,425,5291225,,,,,,,2021-09-02,1,,,,,ミナヅキ,0
2465,9160001023595,新規,0,2021-09-02,2021-09-02,株式会社福田和也装蹄所,,株式会社,滋賀県,栗東市,林１３２番地２４,,25,208,5203043,,,,,,,2021-09-02,1,,,,,フクダカズヤソウテイジョ,0
2466,9160001023604,新規,0,2021-09-02,2021-09-02,株式会社Ｌａｋｅマリン,,株式会社,滋賀県,近江八幡市,中之庄町３４３番地,,25,204,5230807,,,,,,,2021-09-02,1,,,,,レークマリン,0
2467,9160003002366,新規,0,2021-09-02,2021-09-02,合同会社ｓｏｎｎａｒ,,合同会社,滋賀県,栗東市,小柿１丁目９番１２号,,25,208,5203024,,,,,,,2021-09-02,1,,,,,ソナー,0
2469,9170001016747,新規,0,2021-09-02,2021-09-02,華瀛株式会社,,株式会社,和歌山県,海南市,日方１２７１－２３,,30,202,6420002,,,,,,,2021-09-02,1,,,,,カエイ,0
2472,9180001147649,新規,0,2021-09-02,2021-09-02,株式会社パークエステート,,株式会社,愛知県,名古屋市西区,名駅２丁目３４番１７号セントラル名古屋７１０号室,,23,104,4510045,,,,,,,2021-09-02,1,,,,,パークエステート,0
2479,9180301035297,新規,0,2021-09-02,2021-09-02,株式会社輝,,株式会社,愛知県,豊田市,平芝町２丁目２番地６,,23,211,4710065,,,,,,,2021-09-02,1,,,,,テル,0
2483,9190001028658,新規,0,2021-09-02,2021-09-02,株式会社太田屋,,株式会社,三重県,鈴鹿市,南堀江２丁目２３番２８号,,24,207,5130046,,,,,,,2021-09-02,1,,,,,オオタヤ,0
2487,9200001039067,新規,0,2021-09-02,2021-09-02,株式会社さみどり,,株式会社,岐阜県,高山市,丹生川町下保７０８番地３,,21,203,5062135,,,,,,,2021-09-02,1,,,,,サミドリ,0
2488,9200001039091,新規,0,2021-09-02,2021-09-02,株式会社隆勝商事,,株式会社,岐阜県,岐阜市,加納竜興町２丁目１８番地,,21,201,5008469,,,,,,,2021-09-02,1,,,,,リュウショウショウジ,0
2507,9240001058518,新規,0,2021-09-02,2021-09-02,株式会社酒商山田ホールディングス,,株式会社,広島県,広島市南区,宇品海岸２丁目１０番７号,,34,103,7340011,,,,,,,2021-09-02,1,,,,,サケショウヤマダホールディングス,0
2516,9250001019089,新規,0,2021-09-02,2021-09-02,株式会社不二テント,,株式会社,山口県,下関市,細江町１丁目５番６号,,35,201,7500016,,,,,,,2021-09-02,1,,,,,フジテント,0
2519,9260005010968,新規,0,2021-09-02,2021-09-02,つなぐ社会保険労務士法人,,その他の設立登記法人,岡山県,倉敷市,玉島１３７５番地１みかげビル２Ｆ,,33,202,7138102,,,,,,,2021-09-02,1,,,,,ツナグ,0
2531,9320001018570,新規,0,2021-09-02,2021-09-02,株式会社Ｏ２　ＰＡＹＭＥＮＴ　ＳＹＳＴＥＭ,,株式会社,大分県,大分市,新町５番１４号－３０２,,44,201,8700028,,,,,,,2021-09-02,1,,,,,オーツーペイメントシステム,0
2534,9350001017280,新規,0,2021-09-02,2021-09-02,株式会社創克,,株式会社,宮崎県,宮崎市,大字跡江９１４番地１,,45,201,8802101,,,,,,,2021-09-02,1,,,,,ソウカツ,0
2535,9350001017289,新規,0,2021-09-02,2021-09-02,株式会社Ｐｌａｙ　Ｂａｃｋ,,株式会社,宮崎県,宮崎市,江平東町１番地２０,,45,201,8800817,,,,,,,2021-09-02,1,,,,,プレイバック,0
2538,9360001029300,新規,0,2021-09-02,2021-09-02,株式会社結建築,,株式会社,沖縄県,糸満市,潮崎町２丁目１番地の４Ｆステージ潮崎４０２号,,47,210,9010364,,,,,,,2021-09-02,1,,,,,,0
2539,9360003011405,新規,0,2021-09-02,2021-09-02,合同会社ラビット,,合同会社,沖縄県,那覇市,首里石嶺町１丁目１５８番地,,47,201,9030804,,,,,,,2021-09-02,1,,,,,ラビット,0
2542,9370005010338,新規,0,2021-09-02,2021-09-02,一般社団法人未来のタネ研究所,,その他の設立登記法人,宮城県,仙台市泉区,西中山２丁目２０番３号,,04,105,9813218,,,,,,,2021-09-02,1,,,,,ミライノタネケンキュウショ,0
2552,9430001084874,新規,0,2021-09-02,2021-09-02,株式会社木村電装店,,株式会社,北海道,札幌市東区,伏古一条３丁目４番５号,,01,103,0070861,,,,,,,2021-09-02,1,,,,,キムラデンソウテン,0
2553,9430001084916,新規,0,2021-09-02,2021-09-02,アトラストバンク株式会社,,株式会社,北海道,札幌市西区,八軒一条西１丁目１－２６,,01,107,0630841,,,,,,,2021-09-02,1,,,,,アトラストバンク,0
2556,9430003013105,新規,0,2021-09-02,2021-09-02,Ｉ　ｗｉｌｌ合同会社,,合同会社,北海道,札幌市清田区,里塚二条４丁目１１番１０号,,01,110,0040802,,,,,,,2021-09-02,1,,,,,アイウィル,0
2558,9460301005008,新規,0,2021-09-02,2021-09-02,株式会社道東ピコロ,,株式会社,北海道,北見市,端野町三区４７９番地１４,,01,208,0992103,,,,,,,2021-09-02,1,,,,,ドウトウピコロ,0
2559,9460401001229,新規,0,2021-09-02,2021-09-02,タクミ水産株式会社,,株式会社,北海道,根室市,穂香１３８番地,,01,223,0870037,,,,,,,2021-09-02,1,,,,,タクミスイサン,0
2562,9480001011469,新規,0,2021-09-02,2021-09-02,株式会社Ｙホールディングス,,株式会社,徳島県,徳島市,金沢１丁目３番３号,,36,201,7700871,,,,,,,2021-09-02,1,,,,,ワイホールディングス,0
2564,9700150104604,新規,0,2021-09-02,2021-09-02,Ｈｉｔａｃｈｉ　Ｔｒａｎｓｐｏｒｔ　Ｓｙｓｔｅｍ（Ｃｈｉｎａ），Ｌｔｄ．,,外国会社等,,,,,,,,６Ｆ，Ｗｅｓｔ　ＹａｎＡｎ　Ｒｏａｄ，Ｓｈａｎｇｈａｉ，ＣＨＩＮＡ,,,,,,2021-09-02,1,,,,,ヒタチトランスポートシステムチヤイナリミテツド,0
