sequenceNumber,corporateNumber,process,correct,updateDate,changeDate,name,nameImageId,kind,prefectureName,cityName,streetNumber,addressImageId,prefectureCode,cityCode,postCode,addressOutside,addressOutsideImageId,closeDate,closeCause,successorCorporateNumber,changeCause,assignmentDate,latest,enName,enPrefectureName,enCityName,enAddressOutside,furigana,hihyoji
15,1010001234909,新規,0,2023-05-08,2023-05-08,株式会社ネオユニヴァース,,株式会社,東京都,千代田区,丸の内１丁目９番２号グラントウキョウサウスタワー２０階,,13,101,1000005,,,,,,,2023-05-08,1,,,,,ネオユニヴァース,0
16,1010001234925,新規,0,2023-05-08,2023-05-08,ＥＩＲＯＮＮ株式会社,,株式会社,東京都,中央区,入船１丁目９－８,,13,102,1040042,,,,,,,2023-05-08,1,,,,,エリオン,0
17,1010001234999,新規,0,2023-05-08,2023-05-08,ＢｅｅＬｉｎｅ株式会社,,株式会社,東京都,千代田区,麹町２丁目４番１１号,,13,101,1020083,,,,,,,2023-05-08,1,,,,,ビーライン,0
20,1010003040512,新規,0,2023-05-08,2023-05-08,合同会社ＨｉＪｏＪｏ．ｃｏｍ９,,合同会社,東京都,千代田区,霞が関３丁目２番５号,,13,101,1000013,,,,,,,2023-05-08,1,,,,,ヒジョージョードットコムナイン,0
21,1010103002131,新規,0,2023-05-08,2023-05-08,合同会社ＮＥＡＲ,,合同会社,東京都,八王子市,犬目町９１５番地１レオネクストフロレゾンＢ１０９号,,13,201,1930802,,,,,,,2023-05-08,1,,,,,ニア,0
27,1010401174077,新規,0,2023-05-08,2023-05-08,株式会社ＰＩＰＩ　Ｓｔａｙ,,株式会社,東京都,港区,西新橋１丁目１８番６号クロスオフィス内幸町９０８号室,,13,103,1050003,,,,,,,2023-05-08,1,,,,,ピピステイ,0
28,1010401174143,新規,0,2023-05-08,2023-05-08,株式会社ＹＯＮ,,株式会社,東京都,港区,東麻布１丁目２５番２－６０３号,,13,103,1060044,,,,,,,2023-05-08,1,,,,,ヨン,0
29,1010403030055,新規,0,2023-05-08,2023-05-08,Ｍｅｄｉｃａｌ　ｃｈｅｃｋｕｐ　ｉｎ　Ｊａｐａｎ合同会社,,合同会社,東京都,港区,港南２丁目１６‐４品川グランドセントラルタワー８階,,13,103,1080075,,,,,,,2023-05-08,1,,,,,メディカルチェックアップインジャパン,0
39,1010803004534,新規,0,2023-05-08,2023-05-08,合同会社エムワイプランニング,,合同会社,東京都,大田区,上池台３丁目２７－３,,13,111,1450064,,,,,,,2023-05-08,1,,,,,エムワイプランニング,0
43,1010903008154,新規,0,2023-05-08,2023-05-08,Ｃｌｏｕｄｃａｐ・Ｌａｋｅ合同会社,,合同会社,東京都,世田谷区,新町２丁目９番２５号,,13,112,1540014,,,,,,,2023-05-08,1,,,,,クラウドキャップレイク,0
47,1011001154221,新規,0,2023-05-08,2023-05-08,株式会社建築ＦＭアシスト,,株式会社,東京都,目黒区,目黒４丁目１４番４２号,,13,110,1530063,,,,,,,2023-05-08,1,,,,,ケンチクエフエムアシスト,0
59,1011103013003,新規,0,2023-05-08,2023-05-08,合同会社ＭＫＭ総合,,合同会社,東京都,新宿区,富久町１２番１－５０５号,,13,104,1620067,,,,,,,2023-05-08,1,,,,,エムケーエムソウゴウ,0
64,1011201024620,新規,0,2023-05-08,2023-05-08,ＪＥＳＣＯエコシステム株式会社,,株式会社,東京都,中野区,中央４丁目３番４号,,13,114,1640011,,,,,,,2023-05-08,1,,,,,ジェスコエコシステム,0
66,1011401025105,新規,0,2023-05-08,2023-05-08,株式会社Ｈ・Ｊマテックス,,株式会社,東京都,板橋区,大山金井町４１番１１号１Ｆ,,13,119,1730024,,,,,,,2023-05-08,1,,,,,エイチジェイマテックス,0
67,1011401025113,新規,0,2023-05-08,2023-05-08,株式会社プルーカフェ,,株式会社,東京都,板橋区,大山東町４５番２号,,13,119,1730014,,,,,,,2023-05-08,1,,,,,プルーカフェ,0
70,1012301013430,新規,0,2023-05-08,2023-05-08,株式会社クロニクル,,株式会社,東京都,町田市,中町１丁目２８－８ＤＨＱスクエア,,13,209,1940021,,,,,,,2023-05-08,1,,,,,クロニクル,0
72,1012401040498,新規,0,2023-05-08,2023-05-08,株式会社友合,,株式会社,東京都,府中市,矢崎町２丁目１６番地の１４,,13,206,1830025,,,,,,,2023-05-08,1,,,,,ユウアイ,0
73,1012405004862,新規,0,2023-05-08,2023-05-08,一般社団法人こどもぶらんでぃんぐ・らぼ,,その他の設立登記法人,東京都,多摩市,落合１丁目４６－１ココリア多摩センター７階,,13,224,2060033,,,,,,,2023-05-08,1,,,,,コドモブランディングラボ,0
74,1012701017634,新規,0,2023-05-08,2023-05-08,株式会社ＨＡＷＬ,,株式会社,東京都,東村山市,栄町１丁目３番地６１ＴＫビル３階,,13,213,1890013,,,,,,,2023-05-08,1,,,,,ハウル,0
76,1013101009164,新規,0,2023-05-08,2023-05-08,株式会社カオスオンパレード,,株式会社,東京都,西多摩郡奥多摩町,日原８００－２,,13,308,1980211,,,,,,,2023-05-08,1,,,,,カオスオンパレード,0
80,1013301050694,新規,0,2023-05-08,2023-05-08,株式会社Ｇｅｒａｎｉ,,株式会社,東京都,豊島区,池袋本町４丁目４６－１１－４５４号,,13,116,1700011,,,,,,,2023-05-08,1,,,,,ジェラニー,0
81,1013301050703,新規,0,2023-05-08,2023-05-08,信友株式会社,,株式会社,東京都,豊島区,西池袋１丁目３１番５,,13,116,1710021,,,,,,,2023-05-08,1,,,,,シンユウ,0
93,1021001078873,新規,0,2023-05-08,2023-05-08,Ａｔｈａｎａｓｉａ株式会社,,株式会社,神奈川県,横須賀市,東逸見町２丁目８２番地,,14,201,2380045,,,,,,,2023-05-08,1,,,,,アタナシア,0
94,1021001078948,新規,0,2023-05-08,2023-05-08,株式会社コーダイグループ,,株式会社,神奈川県,藤沢市,本鵠沼２丁目１６番２５号,00130377,14,205,2510028,,,,,,,2023-05-08,1,,,,,コーダイグループ,0
98,1030001153628,新規,0,2023-05-08,2023-05-08,株式会社匠,,株式会社,埼玉県,越谷市,千間台西５丁目２５番地１２－１Ｆ,,11,222,3430041,,,,,,,2023-05-08,1,,,,,タクミ,0
106,1040001128208,新規,0,2023-05-08,2023-05-08,東京ＧＫＴ株式会社,,株式会社,千葉県,木更津市,かずさ鎌足１丁目１番地１,,12,206,2920818,,,,,,,2023-05-08,1,,,,,トウキョウジーケーティー,0
107,1040001128224,新規,0,2023-05-08,2023-05-08,ＮＡＭＹ株式会社,,株式会社,千葉県,長生郡長生村,一松戊３４０５番地,,12,423,2994323,,,,,,,2023-05-08,1,,,,,ナミー,0
109,1050001052778,新規,0,2023-05-08,2023-05-08,株式会社恵,,株式会社,茨城県,常陸大宮市,泉６５７番地２,,08,225,3192144,,,,,,,2023-05-08,1,,,,,メグミ,0
110,1050003007466,新規,0,2023-05-08,2023-05-08,ＧＬＯＢＡＬ　ＴＲＡＤＩＮＧ合同会社,,合同会社,茨城県,坂東市,寺久１２９８番地３８,,08,228,3060656,,,,,,,2023-05-08,1,,,,,グローバルトレーディング,0
111,1060001035963,新規,0,2023-05-08,2023-05-08,統音建設株式会社,,株式会社,栃木県,小山市,大字出井２１５１番地９,,09,208,3230808,,,,,,,2023-05-08,1,,,,,トウオンケンセツ,0
114,1060003004537,新規,0,2023-05-08,2023-05-08,ＳＡＲＡ　Ｉｎｔｅｒｎａｔｉｏｎａｌ合同会社,,合同会社,栃木県,栃木市,片柳町１丁目２番２８号１Ｆ,,09,203,3280053,,,,,,,2023-05-08,1,,,,,サラインターナショナル,0
117,1070001040384,新規,0,2023-05-08,2023-05-08,株式会社Ｊ‐ｓｅｒｖｉｃｅ,,株式会社,群馬県,甘楽郡甘楽町,大字福島９７３番地４,,10,384,3702212,,,,,,,2023-05-08,1,,,,,,0
120,1080001025590,新規,0,2023-05-08,2023-05-08,株式会社ニュースペース,,株式会社,静岡県,静岡市葵区,新間１０８９番地の２２１,,22,101,4211201,,,,,,,2023-05-08,1,,,,,ニュースペース,0
121,1080001025608,新規,0,2023-05-08,2023-05-08,ＷＥＬＡＧＲＥＥ株式会社,,株式会社,静岡県,静岡市駿河区,中原７１３番地,,22,102,4228058,,,,,,,2023-05-08,1,,,,,ウェラグリー,0
122,1080003002976,新規,0,2023-05-08,2023-05-08,ケーディーエス合同会社,,合同会社,静岡県,静岡市葵区,両替町２丁目４番地の５カリオビル１０１号室,,22,101,4200032,,,,,,,2023-05-08,1,,,,,ケーディーエス,0
123,1080101023973,新規,0,2023-05-08,2023-05-08,株式会社ＳＫ．ＨＯＵＳＥ,,株式会社,静岡県,富士市,津田町１０３番地,,22,210,4170035,,,,,,,2023-05-08,1,,,,,エスケイハウス,0
124,1080101023981,新規,0,2023-05-08,2023-05-08,株式会社Ａｎｇｅｌ　Ｃａｌｌ,,株式会社,静岡県,熱海市,上多賀８６３番地の１エンゼルシーサイド南熱海９２６,,22,205,4130101,,,,,,,2023-05-08,1,,,,,エンジェルコール,0
130,1090003002307,新規,0,2023-05-08,2023-05-08,合同会社タクト,,合同会社,山梨県,山梨市,小原西４６２番地２,,19,205,4050006,,,,,,,2023-05-08,1,,,,,タクト,0
134,1110001037500,新規,0,2023-05-08,2023-05-08,株式会社ＵＬＴＲＡ,,株式会社,新潟県,三条市,鶴田３丁目７番２４号,,15,204,9550051,,,,,,,2023-05-08,1,,,,,ウルトラ,0
137,1120001044883,新規,0,2023-05-08,2023-05-08,大鋼工業株式会社,,株式会社,大阪府,大阪市西区,南堀江２丁目１番３号,,27,106,5500015,,,,,,,2023-05-08,1,,,,,,0
147,1120001254516,新規,0,2023-05-08,2023-05-08,Ｐｌａｙｆｕｌ株式会社,,株式会社,大阪府,大阪市中央区,備後町１丁目４番６－２０５号,,27,128,5410051,,,,,,,2023-05-08,1,,,,,プレイフル,0
148,1120001254524,新規,0,2023-05-08,2023-05-08,株式会社ＨＯＲＵＳ,,株式会社,大阪府,大阪市北区,梅田２丁目５番８号,,27,127,5300001,,,,,,,2023-05-08,1,,,,,ホルス,0
149,1120001254549,新規,0,2023-05-08,2023-05-08,株式会社アオスイ,,株式会社,大阪府,大阪市住吉区,墨江３丁目４番１３号,,27,120,5580043,,,,,,,2023-05-08,1,,,,,アオスイ,0
150,1120001254607,新規,0,2023-05-08,2023-05-08,豊穣保険事務所株式会社,,株式会社,大阪府,大阪市西区,北堀江１丁目２番２２号,,27,106,5500014,,,,,,,2023-05-08,1,,,,,ホウジョウホケンジムショ,0
151,1120001254623,新規,0,2023-05-08,2023-05-08,株式会社ベステム,,株式会社,大阪府,枚方市,香里園山之手町８番８号,,27,210,5730087,,,,,,,2023-05-08,1,,,,,ベステム,0
152,1120001254631,新規,0,2023-05-08,2023-05-08,株式会社Ｔａｉｐｕｒｉｏｎ,,株式会社,大阪府,大阪市中央区,谷町２丁目９番３－１６０４号,,27,128,5400012,,,,,,,2023-05-08,1,,,,,タイプリオン,0
153,1120001254656,新規,0,2023-05-08,2023-05-08,株式会社ネクサス,,株式会社,大阪府,大阪市住吉区,我孫子西２丁目７番１１号－３０２号,,27,120,5580015,,,,,,,2023-05-08,1,,,,,ネクサス,0
154,1120001254664,新規,0,2023-05-08,2023-05-08,カインドエレベータ株式会社,,株式会社,大阪府,大阪市東淀川区,淡路２丁目３－３６ヴィラナリー淡路４１０,,27,114,5330032,,,,,,,2023-05-08,1,,,,,カインドエレベータ,0
155,1120001254672,新規,0,2023-05-08,2023-05-08,株式会社ｉｓｓｕｅ,,株式会社,大阪府,大阪市浪速区,難波中１丁目１８番３０号トーカイ難波ビル２階,,27,111,5560011,,,,,,,2023-05-08,1,,,,,イシュー,0
156,1120001254706,新規,0,2023-05-08,2023-05-08,キャドメカ株式会社,,株式会社,大阪府,守口市,藤田町５丁目１４番Ａ棟３０１号,,27,209,5700014,,,,,,,2023-05-08,1,,,,,キャドメカ,0
157,1120001254722,新規,0,2023-05-08,2023-05-08,ＨＩＫＡＲＩ株式会社,,株式会社,大阪府,大阪市中央区,松屋町住吉６番２６号,,27,128,5400017,,,,,,,2023-05-08,1,,,,,ヒカリ,0
160,1120101067487,新規,0,2023-05-08,2023-05-08,矢野造園株式会社,,株式会社,大阪府,松原市,上田８丁目４番２６号,,27,217,5800016,,,,,,,2023-05-08,1,,,,,ヤノゾウエン,0
161,1120101067495,新規,0,2023-05-08,2023-05-08,株式会社洌崎工業,,株式会社,大阪府,泉南郡熊取町,桜が丘１丁目１６番１４号,,27,361,5900413,,,,,,,2023-05-08,1,,,,,スザキコウギョウ,0
166,1120901047481,新規,0,2023-05-08,2023-05-08,伏尾建設工業株式会社,,株式会社,大阪府,豊中市,走井１丁目２１番７号,,27,203,5610891,,,,,,,2023-05-08,1,,,,,フシオケンセツコウギョウ,0
167,1122001036943,新規,0,2023-05-08,2023-05-08,エターナル株式会社,,株式会社,大阪府,東大阪市,角田１丁目５番４１号ルディシアコートＳ－１号室,,27,227,5780912,,,,,,,2023-05-08,1,,,,,エターナル,0
169,1122005003675,新規,0,2023-05-08,2023-05-08,特定非営利活動法人八尾地区ＢＢＳ会,,その他の設立登記法人,大阪府,八尾市,青山町１丁目６番５号,,27,212,5810018,,,,,,,2023-05-08,1,,,,,ヤオチクビービーエスカイ,0
173,1130001074228,新規,0,2023-05-08,2023-05-08,株式会社山久造園,,株式会社,京都府,京田辺市,大住岡村８４番地１,,26,211,6100343,,,,,,,2023-05-08,1,,,,,ヤマヒサゾウエン,0
174,1130001074236,新規,0,2023-05-08,2023-05-08,株式会社オーヤマ技検,,株式会社,京都府,亀岡市,南つつじケ丘桜台４丁目３番９号,,26,206,6210847,,,,,,,2023-05-08,1,,,,,オーヤマギケン,0
175,1130001074244,新規,0,2023-05-08,2023-05-08,株式会社千商,,株式会社,京都府,長岡京市,開田２丁目６番４号,,26,209,6170826,,,,,,,2023-05-08,1,,,,,センショウ,0
176,1130001074252,新規,0,2023-05-08,2023-05-08,ＮＨＣ近畿株式会社,,株式会社,京都府,京都市上京区,宮垣町９１番地まむあん荒神口１０２,,26,102,6020853,,,,,,,2023-05-08,1,,,,,エヌエイチシーキンキ,0
177,1130001074269,新規,0,2023-05-08,2023-05-08,株式会社果菜谷園,,株式会社,京都府,福知山市,駅前町４６２,,26,201,6200045,,,,,,,2023-05-08,1,,,,,カナタニエン,0
182,1130003008712,新規,0,2023-05-08,2023-05-08,合同会社らく,,合同会社,京都府,京都市右京区,嵯峨明星町５－４ボンエルフ嵐山１Ｆ,,26,108,6168337,,,,,,,2023-05-08,1,,,,,ラク,0
186,1140001129996,新規,0,2023-05-08,2023-05-08,株式会社かぁちゃん弁当,,株式会社,兵庫県,尼崎市,大西町１丁目２番２０号大塚マンション１－３,,28,202,6610023,,,,,,,2023-05-08,1,,,,,カァチャンベントウ,0
187,1140001130005,新規,0,2023-05-08,2023-05-08,株式会社ｏｆｆｉｃｅみかん,,株式会社,兵庫県,姫路市,久保町３２番地１４号,,28,201,6700916,,,,,,,2023-05-08,1,,,,,オフィスミカン,0
188,1140001130095,新規,0,2023-05-08,2023-05-08,株式会社クリア,,株式会社,兵庫県,川西市,南花屋敷１丁目２番８号２０２,,28,217,6660026,,,,,,,2023-05-08,1,,,,,クリア,0
190,1140005026612,新規,0,2023-05-08,2023-05-08,一般社団法人ＯＣＥＡＮ‐ＳＭＬ,,その他の設立登記法人,兵庫県,神戸市兵庫区,会下山町３丁目６番５６号リッチライフ松本ＳＴ２０１号,,28,105,6520043,,,,,,,2023-05-08,1,,,,,オーシャンエスエムエル,0
191,1150001026375,新規,0,2023-05-08,2023-05-08,株式会社イングッド,,株式会社,奈良県,生駒市,鹿ノ台東３丁目７番地１,,29,209,6300112,,,,,,,2023-05-08,1,,,,,イングッド,0
193,1150003002952,新規,0,2023-05-08,2023-05-08,コアリンク合同会社,,合同会社,奈良県,磯城郡田原本町,大字阪手２０８番地６,,29,363,6360247,,,,,,,2023-05-08,1,,,,,コアリンク,0
194,1160001025013,新規,0,2023-05-08,2023-05-08,ＳＡＴＵＫＩ株式会社,,株式会社,滋賀県,愛知郡愛荘町,栗田２１６番地１,,25,425,5291225,,,,,,,2023-05-08,1,,,,,サツキ,0
195,1160003002869,新規,0,2023-05-08,2023-05-08,Ｔｏｕｋ　Ｐｌａｎｎｉｎｇ合同会社,,合同会社,滋賀県,湖南市,サイドタウン３丁目１５番６号,,25,211,5203244,,,,,,,2023-05-08,1,,,,,トゥプランニング,0
207,1180001156112,新規,0,2023-05-08,2023-05-08,株式会社Ｙｏｕｔｈｆｕｌ　Ｐｌａｎｎｉｎｇ,,株式会社,愛知県,稲沢市,大塚南２丁目２１３番地,,23,220,4928214,,,,,,,2023-05-08,1,,,,,ユースフルプランニング,0
208,1180001156120,新規,0,2023-05-08,2023-05-08,株式会社松谷エンジニアリング,,株式会社,愛知県,半田市,白山町５丁目２１５番地の４,,23,205,4750912,,,,,,,2023-05-08,1,,,,,マツタニエンジニアリング,0
209,1180001156129,新規,0,2023-05-08,2023-05-08,株式会社エムサポート,,株式会社,愛知県,一宮市,深坪町３３番地２,,23,203,4910908,,,,,,,2023-05-08,1,,,,,エムサポート,0
210,1180001156145,新規,0,2023-05-08,2023-05-08,株式会社ダックス,,株式会社,愛知県,名古屋市西区,名駅３丁目７番９号サン名駅三丁目ビル７０１号,,23,104,4510045,,,,,,,2023-05-08,1,,,,,ダックス,0
211,1180001156153,新規,0,2023-05-08,2023-05-08,株式会社警備スターズ,,株式会社,愛知県,名古屋市名東区,香流１丁目１１１７番,,23,115,4650005,,,,,,,2023-05-08,1,,,,,ケイビスターズ,0
212,1180001156178,新規,0,2023-05-08,2023-05-08,株式会社ａＡＢｅｅ,,株式会社,愛知県,名古屋市緑区,鳥澄２丁目４０９番地,,23,114,4580025,,,,,,,2023-05-08,1,,,,,アービー,0
217,1180005020207,新規,0,2023-05-08,2023-05-08,特定非営利活動法人愛知こどもホスピスプロジェクト,,その他の設立登記法人,愛知県,名古屋市名東区,亀の井３丁目１８９,,23,115,4650094,,,,,,,2023-05-08,1,,,,,アイチコドモホスピスプロジェクト,0
221,1180301037359,新規,0,2023-05-08,2023-05-08,Ｍ＆Ｓサービス株式会社,,株式会社,愛知県,豊橋市,東小浜町１４番地７,,23,201,4418062,,,,,,,2023-05-08,1,,,,,エムアンドエスサービス,0
224,1200003005941,新規,0,2023-05-08,2023-05-08,合同会社丸正,,合同会社,岐阜県,関市,小瀬１０１３番地２,,21,205,5013265,,,,,,,2023-05-08,1,,,,,マルショウ,0
225,1220001025394,新規,0,2023-05-08,2023-05-08,株式会社ＫＯＴＯＢＵＫＩ,,株式会社,石川県,金沢市,片町１丁目５番２６号９０１,,17,201,9200981,,,,,,,2023-05-08,1,,,,,コトブキ,0
231,1230001019800,新規,0,2023-05-08,2023-05-08,上市織物株式会社,,株式会社,富山県,中新川郡上市町,旭町字定塚１９番地,00130322,16,322,9300331,,,,,,,2023-05-08,1,,,,,,0
232,1230001019825,新規,0,2023-05-08,2023-05-08,株式会社北陸住宅設備,,株式会社,富山県,高岡市,石瀬５１０番地６,,16,202,9330011,,,,,,,2023-05-08,1,,,,,ホクリクジュウタクセツビ,0
233,1230003002011,新規,0,2023-05-08,2023-05-08,Ｇクリーン合同会社,,合同会社,富山県,中新川郡上市町,若杉１丁目７３２番地,,16,322,9300314,,,,,,,2023-05-08,1,,,,,ジークリーン,0
234,1230005009302,新規,0,2023-05-08,2023-05-08,特定非営利活動法人ｉｄｅｎｇｒｏｗ,,その他の設立登記法人,富山県,黒部市,三日市３３３６番地,,16,207,9380031,,,,,,,2023-05-08,1,,,,,アイデングロウ,0
237,1240001061438,新規,0,2023-05-08,2023-05-08,株式会社ｃｌａｉｒｅ,,株式会社,広島県,広島市西区,己斐中３丁目２１番１号,,34,104,7330813,,,,,,,2023-05-08,1,,,,,クレール,0
238,1240001061446,新規,0,2023-05-08,2023-05-08,アンダンテ・パートナーズ株式会社,,株式会社,広島県,広島市安佐南区,山本新町２丁目８番２７号,,34,105,7310139,,,,,,,2023-05-08,1,,,,,アンダンテパートナーズ,0
239,1240001061454,新規,0,2023-05-08,2023-05-08,株式会社がーねっと,,株式会社,広島県,安芸郡熊野町,柿迫２１番３号,,34,307,7314228,,,,,,,2023-05-08,1,,,,,ガーネット,0
240,1240001061462,新規,0,2023-05-08,2023-05-08,藤原工業株式会社,,株式会社,広島県,福山市,新涯町４丁目２番３５－４０１号,,34,207,7210955,,,,,,,2023-05-08,1,,,,,フジワラコウギョウ,0
241,1240001061479,新規,0,2023-05-08,2023-05-08,株式会社栄真,,株式会社,広島県,東広島市,黒瀬町宗近柳国９５５番地７,,34,212,7392504,,,,,,,2023-05-08,1,,,,,エイシン,0
252,1290001101395,新規,0,2023-05-08,2023-05-08,株式会社ＴＯＮＡＫＡＩ,,株式会社,福岡県,福岡市早良区,室見２丁目６番２５号ＮｅｗディアスＭ１０２号,,40,137,8140015,,,,,,,2023-05-08,1,,,,,トナカイ,0
253,1290001101445,新規,0,2023-05-08,2023-05-08,株式会社あおば,,株式会社,福岡県,糸島市,浦志２丁目５番１１号,,40,230,8191112,,,,,,,2023-05-08,1,,,,,アオバ,0
255,1290005019031,新規,0,2023-05-08,2023-05-08,一般社団法人ＰＯＭＣ食養生薬膳協会,,その他の設立登記法人,福岡県,福岡市東区,若宮５丁目４番１３号,,40,131,8130036,,,,,,,2023-05-08,1,,,,,ピーオーエムシーショクヨウジョウヤクゼンキョウカイ,0
258,1310001018389,新規,0,2023-05-08,2023-05-08,株式会社橋口水産ホールディングス,,株式会社,長崎県,南松浦郡新上五島町,若松郷４０番地,,42,411,8532301,,,,,,,2023-05-08,1,,,,,ハシグチスイサンホールディングス,0
259,1310001018397,新規,0,2023-05-08,2023-05-08,株式会社田川組,,株式会社,長崎県,長崎市,豊洋台１丁目１６番１２号,,42,201,8512216,,,,,,,2023-05-08,1,,,,,タガワグミ,0
264,1330001030813,新規,0,2023-05-08,2023-05-08,株式会社インテグラル,,株式会社,熊本県,熊本市中央区,水前寺５丁目１６番２３号,,43,101,8620950,,,,,,,2023-05-08,1,,,,,インテグラル,0
265,1330001030821,新規,0,2023-05-08,2023-05-08,株式会社エフフォーリア,,株式会社,熊本県,阿蘇郡西原村,大字布田９４９番地,,43,432,8612403,,,,,,,2023-05-08,1,,,,,エフフォーリア,0
266,1330005010654,新規,0,2023-05-08,2023-05-08,医療法人徳裕会,,その他の設立登記法人,熊本県,熊本市南区,田迎５丁目１－５,,43,104,8620962,,,,,,,2023-05-08,1,,,,,トクユウカイ,0
267,1330005010662,新規,0,2023-05-08,2023-05-08,一般社団法人日本きもの着付け師育成会,,その他の設立登記法人,熊本県,宇土市,本町６丁目４７番地,,43,211,8690431,,,,,,,2023-05-08,1,,,,,ニホンキモノキツケシイクセイカイ,0
269,1340001025556,新規,0,2023-05-08,2023-05-08,進通商事株式会社,,株式会社,鹿児島県,姶良市,加治木町小山田８１９番地１,,46,225,8995203,,,,,,,2023-05-08,1,,,,,シンツウショウジ,0
271,1340005009596,新規,0,2023-05-08,2023-05-08,一般社団法人現の実,,その他の設立登記法人,鹿児島県,霧島市,国分上井２４４番地１,,46,218,8994313,,,,,,,2023-05-08,1,,,,,ウツツノミ,0
272,1350001018344,新規,0,2023-05-08,2023-05-08,株式会社未来建設,,株式会社,宮崎県,宮崎市,大字島之内７４５８番地８,,45,201,8800121,,,,,,,2023-05-08,1,,,,,ミライケンセツ,0
275,1370001049908,新規,0,2023-05-08,2023-05-08,株式会社Ｐｒｏｊｅｃｔ　Ｏｎｅ,,株式会社,宮城県,仙台市宮城野区,銀杏町２８－２６,,04,102,9830047,,,,,,,2023-05-08,1,,,,,プロジェクトワン,0
278,1370005010626,新規,0,2023-05-08,2023-05-08,農事組合法人美ファーム羽出庭,,その他の設立登記法人,宮城県,伊具郡丸森町,字火打石１番地,,04,341,9812185,,,,,,,2023-05-08,1,,,,,ビファームハデニワ,0
281,1380001033662,新規,0,2023-05-08,2023-05-08,株式会社ＳＫＩＬＬＦＵＬ,,株式会社,福島県,郡山市,富久山町久保田字南田２５番地の１－１０１号,,07,203,9638071,,,,,,,2023-05-08,1,,,,,スキルフル,0
284,1380003005453,新規,0,2023-05-08,2023-05-08,合同会社ユー,,合同会社,福島県,郡山市,駅前１丁目４番９号,,07,203,9638002,,,,,,,2023-05-08,1,,,,,ユー,0
285,1390001017251,新規,0,2023-05-08,2023-05-08,株式会社宏景,,株式会社,山形県,西村山郡河北町,谷地字布田ホ１０７２番地１,,06,321,9993511,,,,,,,2023-05-08,1,,,,,ヒロケイ,0
287,1390003002086,新規,0,2023-05-08,2023-05-08,合同会社Ｃｉｏｌｉ,,合同会社,山形県,酒田市,上安町１丁目１番地の２２,,06,204,9980011,,,,,,,2023-05-08,1,,,,,シオリ,0
288,1400003003074,新規,0,2023-05-08,2023-05-08,合同会社畠山建装,,合同会社,岩手県,八幡平市,松尾第１９地割１８番地,,03,214,0287305,,,,,,,2023-05-08,1,,,,,ハタケヤマケンソウ,0
289,1400005008328,新規,0,2023-05-08,2023-05-08,一般社団法人岩手県解体工事業協会,,その他の設立登記法人,岩手県,一関市,宮下町８番１１号,,03,209,0210013,,,,,,,2023-05-08,1,,,,,イワテケンカイタイコウジギョウキョウカイ,0
292,1420005007848,新規,0,2023-05-08,2023-05-08,協同組合青森ＳＲ経営労務センター,,その他の設立登記法人,青森県,青森市,本町５丁目５番６号,,02,201,0300802,,,,,,,2023-05-08,1,,,,,アオモリエスアールケイエイロウムセンター,0
294,1430001089006,新規,0,2023-05-08,2023-05-08,株式会社ＴＫ‐Ｅｍｏｔｉｏｎ,,株式会社,北海道,札幌市手稲区,西宮の沢六条１丁目１６番１６－１０１号,,01,109,0060006,,,,,,,2023-05-08,1,,,,,ティーケーエモーション,0
296,1430003014985,新規,0,2023-05-08,2023-05-08,Ｎ．ＰＬＡＹ合同会社,,合同会社,北海道,札幌市西区,平和一条３丁目６番１号,,01,107,0630021,,,,,,,2023-05-08,1,,,,,エヌプレイ,0
298,1470001019594,新規,0,2023-05-08,2023-05-08,株式会社中山カンパニー,,株式会社,香川県,高松市,花ノ宮町１丁目１番２７号,,37,201,7618063,,,,,,,2023-05-08,1,,,,,ナカヤマカンパニー,0
299,1480001012094,新規,0,2023-05-08,2023-05-08,株式会社ＮＬＣ,,株式会社,徳島県,徳島市,川内町富吉５５番地の５１,,36,201,7710112,,,,,,,2023-05-08,1,,,,,エヌエルシイ,0
300,1490001010469,新規,0,2023-05-08,2023-05-08,株式会社リンク,,株式会社,高知県,高知市,上町１丁目１番１９号,,39,201,7800901,,,,,,,2023-05-08,1,,,,,リンク,0
304,1700150115906,新規,0,2023-05-08,2023-05-08,Ｓｈｅｎ　Ｚｈｅｎ　Ｚｈｉ　Ｈａｎｇ　Ｓｈｉ　Ｄａｉ　Ｋｅ　Ｊｉ　Ｙｏｕ　Ｘｉａｎ　Ｇｏｎｇ　Ｓｉ,,外国会社等,,,,,,,,Ｌｏｎｇ　Ｈｕａ　Ｑｕ　Ｌｏｎｇ　Ｈｕａ　Ｊｉｅ　Ｄａｏ　Ｓａｎ　Ｌｉａｎ　Ｓｈｅ　Ｑｕ　Ｆｕ　Ｑｕａｎ　Ｘｉｎ　ＣｕｎＢｅｉ　Ｑｕ　Ｂａｏ　Ｌｉ　Ｙｕｅ　Ｄｕ　１，２　Ｄｏｎｇ　２　Ｄｏｎｇ　２　Ｄａｎ　Ｙｕａｎ　１００２Ｓｈｅｎ　Ｚｈｅｎ　Ｓｈｉ　Ｇｕａｎｇ　Ｄｏｎｇ　Ｓｈｅｎｇ　Ｃｈｉｎａ　５１８０００,,,,,,2023-05-08,1,,,,,シンセンチコウジダイテクノロジーユウゲンコウシ,0
305,1700150115914,新規,0,2023-05-08,2023-05-08,ｓｈｅｎｚｈｅｎｓｈｉｔｕｏｔｕｄｉａｎｚｉｓｈａｎｇｗｕｙｏｕｘｉａｎｇｏｎｇｓｉ,,外国会社等,,,,,,,,ｓｈｅｎｚｈｅｎｓｈｉｌｏｎｇｇａｎｇｑｕｐｉｎｇｈｕｊｉｅｄａｏｈｕａｎｑｉｕｗｕｌｉｕｚｈｏｎｇｘｉｎ１８１２　ｓｈｅｎｚｈｅｎｓｈｉ　ｇｕａｎｇｄｏｎｇｓｈｅｎｇ　５１８０００　ＣＮ,,,,,,2023-05-08,1,,,,,シンセンシトウトデンシシヨウムユウゲンコウシ,0
306,1700150115922,新規,0,2023-05-08,2023-05-08,ｆｕｚｈｏｕｈｕｉｈａｎｇｊｕｃａｉｓｈａｎｇｍａｏｙｏｕｘｉａｎｇｏｎｇｓｉ,,外国会社等,,,,,,,,ｆｕｊｉａｎｓｈｅｎｇｆｕｚｈｏｕｓｈｉｃａｎｇｓｈａｎｑｕｊｉａｎｘｉｎｚｈｅｎｌａｏｇｕａｎｇｃｕｎ１６ｈａｏ,,,,,,2023-05-08,1,,,,,フクシユウカイコウシユウザイシヨウボウユウゲンコウシ,0
307,1700150115930,新規,0,2023-05-08,2023-05-08,ｑｕａｎｚｈｏｕ　ｊｉｎｇｘｕａｎ　ｍａｏｙｉ　ｙｏｕｘｉａｎｇｏｎｇｓｉ,,外国会社等,,,,,,,,６１４　Ｙｉｎｇｂｉｎ　Ａｖｅｎｕｅ，Ｄｅｎｇｆｅｎｇ　Ｃｏｍｍｕｎｉｔｙ，Ｊｉａｎｇｎａｎ　Ｓｔｒｅｅｔ，Ｌｉｃｈｅｎｇ　Ｄｉｓｔｒｉｃｔ，Ｑｕａｎｚｈｏｕ　Ｃｉｔｙ，Ｆｕｊｉａｎ　Ｐｒｏｖｉｎｃｅ,,,,,,2023-05-08,1,,,,,センシユウシヨウゲンボウエキユウゲンコウシ,0
317,2010001235022,新規,0,2023-05-08,2023-05-08,株式会社コードクリエイト,,株式会社,東京都,中央区,銀座１丁目２２番１１号,,13,102,1040061,,,,,,,2023-05-08,1,,,,,コードクリエイト,0
318,2010001235055,新規,0,2023-05-08,2023-05-08,株式会社リクマ,,株式会社,東京都,中央区,銀座４丁目２番２号第１弥生ビルディング６階,,13,102,1040061,,,,,,,2023-05-08,1,,,,,リクマ,0
324,2010003040511,新規,0,2023-05-08,2023-05-08,合同会社真栄原城ホテルマネジメント,,合同会社,東京都,千代田区,九段南３丁目７番７号成和綜合会計事務所内,,13,101,1020074,,,,,,,2023-05-08,1,,,,,マエハラジョウホテルマネジメント,0
326,2010101015638,新規,0,2023-05-08,2023-05-08,株式会社マーケティングモンスター,,株式会社,東京都,八王子市,堀之内３丁目１１番地１８,,13,201,1920355,,,,,,,2023-05-08,1,,,,,マーケティングモンスター,0
327,2010103002130,新規,0,2023-05-08,2023-05-08,合同会社Ｏｚ,,合同会社,東京都,八王子市,暁町３丁目１９番１９号,,13,201,1920043,,,,,,,2023-05-08,1,,,,,オズ,0
332,2010501050391,新規,0,2023-05-08,2023-05-08,株式会社ＡＰＧ,,株式会社,東京都,台東区,東上野４丁目６番７号,,13,106,1100015,,,,,,,2023-05-08,1,,,,,エーピージー,0
333,2010501050409,新規,0,2023-05-08,2023-05-08,Ｆｕｌｍ株式会社,,株式会社,東京都,台東区,上野６丁目１番６号,,13,106,1100005,,,,,,,2023-05-08,1,,,,,ファルム,0
336,2010601063046,新規,0,2023-05-08,2023-05-08,株式会社Ｎｙｎｅ,,株式会社,東京都,江東区,常盤２丁目９番４－３０８号,,13,108,1350006,,,,,,,2023-05-08,1,,,,,ナイン,0
337,2010601063054,新規,0,2023-05-08,2023-05-08,ＳｔａｒｔＡＩ株式会社,,株式会社,東京都,江東区,有明３丁目７－２６有明フロンティアビルＢ棟９階,,13,108,1350063,,,,,,,2023-05-08,1,,,,,スタートエーアイ,0
339,2010603010129,新規,0,2023-05-08,2023-05-08,合同会社Ａ＆Ｋ,,合同会社,東京都,墨田区,墨田４丁目９番１７号,,13,107,1310031,,,,,,,2023-05-08,1,,,,,エーアンドケー,0
345,2010801033914,新規,0,2023-05-08,2023-05-08,株式会社ｓｅｒｅｎａ,,株式会社,東京都,大田区,羽田４丁目２２番２号,,13,111,1440043,,,,,,,2023-05-08,1,,,,,セレナ,0
346,2010801033930,新規,0,2023-05-08,2023-05-08,株式会社こころリアルティ,,株式会社,東京都,大田区,田園調布１丁目３３番１９号スティーラ田園調布Ｄ号,,13,111,1450071,,,,,,,2023-05-08,1,,,,,ココロリアルティ,0
348,2010805003021,新規,0,2023-05-08,2023-05-08,一般社団法人エネルギー消費者協会,,その他の設立登記法人,東京都,大田区,中馬込３丁目１５番４号,,13,111,1430027,,,,,,,2023-05-08,1,,,,,エネルギーショウヒシャキョウカイ,0
355,2011001153767,新規,0,2023-05-08,2023-05-08,ウィディア株式会社,,株式会社,東京都,渋谷区,広尾２丁目１－１８,,13,113,1500012,,,,,,,2023-05-08,1,,,,,ウィディア,0
356,2011001154071,新規,0,2023-05-08,2023-05-08,株式会社ＣＯＭｉＮＵＭ,,株式会社,東京都,渋谷区,恵比寿西１丁目１０番３号,,13,113,1500021,,,,,,,2023-05-08,1,,,,,コッミナム,0
357,2011001154170,新規,0,2023-05-08,2023-05-08,株式会社Ｓｃｏｏｔｅｒｓ　Ｆｏｒ　Ｐｅａｃｅ,,株式会社,東京都,渋谷区,神宮前２丁目１９番５号ＡＺＵＭＡビル１Ｆ,,13,113,1500001,,,,,,,2023-05-08,1,,,,,スクーターズフォーピース,0
358,2011001154179,新規,0,2023-05-08,2023-05-08,株式会社ＳＤＥＣ,,株式会社,東京都,渋谷区,桜丘町９番２０号３０１号室,,13,113,1500031,,,,,,,2023-05-08,1,,,,,エスディック,0
359,2011001154187,新規,0,2023-05-08,2023-05-08,コスメトラスト株式会社,,株式会社,東京都,渋谷区,神宮前６丁目２３番４号桑野ビル２階,,13,113,1500001,,,,,,,2023-05-08,1,,,,,コスメトラスト,0
360,2011001154220,新規,0,2023-05-08,2023-05-08,株式会社ｌｅｇａｍｅ,,株式会社,東京都,渋谷区,神宮前６丁目１０番９号原宿董友ビル４階,,13,113,1500001,,,,,,,2023-05-08,1,,,,,レガーメ,0
361,2011001154237,新規,0,2023-05-08,2023-05-08,株式会社いちか,,株式会社,東京都,渋谷区,渋谷２丁目１９番１５号宮益坂ビルディング６０９,,13,113,1500002,,,,,,,2023-05-08,1,,,,,イチカ,0
362,2011001154253,新規,0,2023-05-08,2023-05-08,桜丘ＳＡマネジメント株式会社,,株式会社,東京都,渋谷区,桜丘町３番３号,,13,113,1500031,,,,,,,2023-05-08,1,,,,,サクラガオカエスエーマネジメント,0
364,2011003016773,新規,0,2023-05-08,2023-05-08,ＡｉｒＴｒｕｎｋ　ＯＳＫ１合同会社,,合同会社,東京都,渋谷区,円山町３番６号Ｅ・スペースタワー,,13,113,1500044,,,,,,,2023-05-08,1,,,,,エアトランクオーエスケーワン,0
367,2011101102707,新規,0,2023-05-08,2023-05-08,株式会社ｏｆｆｉｃｅ．Ｇ,,株式会社,東京都,新宿区,百人町４丁目８番２号浅美ビル３階,,13,104,1690073,,,,,,,2023-05-08,1,,,,,オフィスジー,0
368,2011101102723,新規,0,2023-05-08,2023-05-08,株式会社かうにゃ,,株式会社,東京都,新宿区,西新宿３丁目３番１３号西新宿水間ビル２Ｆ,,13,104,1600023,,,,,,,2023-05-08,1,,,,,カウニャ,0
369,2011103013002,新規,0,2023-05-08,2023-05-08,合同会社Ｒａｎｔｏｐｕ,,合同会社,東京都,新宿区,西新宿１丁目１２－６－５階,,13,104,1600023,,,,,,,2023-05-08,1,,,,,ラントプ,0
376,2011303004742,新規,0,2023-05-08,2023-05-08,ウチュウニ合同会社,,合同会社,東京都,杉並区,高井戸東３丁目１番２３号,,13,115,1680072,,,,,,,2023-05-08,1,,,,,ウチュウニ,0
377,2011401025120,新規,0,2023-05-08,2023-05-08,株式会社諦愛４２０,,株式会社,東京都,板橋区,高島平８丁目３２番１４－２０９号ルーブル高島平,,13,119,1750082,,,,,,,2023-05-08,1,,,,,テイアイフォートゥエンティ,0
378,2011403003990,新規,0,2023-05-08,2023-05-08,合同会社Ｍｏｎ,,合同会社,東京都,板橋区,南常盤台２丁目２４－１３－２０３プレシス常盤台,,13,119,1740072,,,,,,,2023-05-08,1,,,,,モン,0
380,2011701026215,新規,0,2023-05-08,2023-05-08,株式会社アイエスディー,,株式会社,東京都,江戸川区,篠崎町１丁目１６番１号,,13,123,1330061,,,,,,,2023-05-08,1,,,,,アイエスディー,0
384,2012301013421,新規,0,2023-05-08,2023-05-08,成瀬仮設株式会社,,株式会社,東京都,町田市,成瀬台２丁目１８番地４０,,13,209,1940043,,,,,,,2023-05-08,1,,,,,ナルセカセツ,0
387,2012801022327,新規,0,2023-05-08,2023-05-08,株式会社Ｆｕｍｅｎｔ　Ｐａｒｔｎｅｒｓ,,株式会社,東京都,東大和市,芋窪６丁目１３６７番地の３,,13,220,2070033,,,,,,,2023-05-08,1,,,,,フューメントパートナーズ,0
394,2013301050702,新規,0,2023-05-08,2023-05-08,株式会社ＨＥＲＥＮＧＡ,,株式会社,東京都,豊島区,巣鴨３丁目１９番８号,,13,116,1700002,,,,,,,2023-05-08,1,,,,,ヘレンガ,0
399,2020001151466,新規,0,2023-05-08,2023-05-08,ミズタニ株式会社,,株式会社,神奈川県,横浜市神奈川区,松見町１丁目２１番地６,,14,102,2210005,,,,,,,2023-05-08,1,,,,,ミズタニ,0
400,2020001151474,新規,0,2023-05-08,2023-05-08,日昇株式会社,,株式会社,神奈川県,横浜市保土ケ谷区,川島町６５１番地ハイム向台７号棟４０６号,,14,106,2400045,,,,,,,2023-05-08,1,,,,,ニッショウ,0
401,2020001151482,新規,0,2023-05-08,2023-05-08,株式会社Ｌｏｍｍｉｃエンジニアリング,,株式会社,神奈川県,横浜市旭区,東希望が丘２３８番地８,,14,112,2410826,,,,,,,2023-05-08,1,,,,,ロミックエンジニアリング,0
403,2020003023861,新規,0,2023-05-08,2023-05-08,合同会社スマートエコ,,合同会社,神奈川県,横浜市南区,大岡１丁目１２－２３川原アパート２０１号,,14,105,2320061,,,,,,,2023-05-08,1,,,,,スマートエコ,0
404,2021001078947,新規,0,2023-05-08,2023-05-08,株式会社Ｌｅ　ｌｉｅｎ,,株式会社,神奈川県,三浦郡葉山町,堀内１２２７番地の４,,14,301,2400112,,,,,,,2023-05-08,1,,,,,ルリヤン,0
405,2021001078955,新規,0,2023-05-08,2023-05-08,株式会社ＴＮＭ設備,,株式会社,神奈川県,茅ヶ崎市,中島１３７９番地２－Ｃ－１２０７号ベルパーク湘南茅ヶ崎,,14,207,2530073,,,,,,,2023-05-08,1,,,,,ティーエヌエムセツビ,0
417,2040001128215,新規,0,2023-05-08,2023-05-08,株式会社ＨＩＳＡＮＡＧＡ,,株式会社,千葉県,鎌ケ谷市,初富８０１番地７３,,12,224,2730121,,,,,,,2023-05-08,1,,,,,ヒサナガ,0
418,2040003022556,新規,0,2023-05-08,2023-05-08,小池商会合同会社,,合同会社,千葉県,松戸市,上本郷２８８５－２－３０２室,,12,207,2710064,,,,,,,2023-05-08,1,,,,,コイケショウカイ,0
419,2050003007481,新規,0,2023-05-08,2023-05-08,ＢＯＳＳマーケティング合同会社,,合同会社,茨城県,笠間市,石井１５７０番地１‐コンフォート２１‐１０１,,08,216,3091613,,,,,,,2023-05-08,1,,,,,ボスマーケティング,0
420,2060001035962,新規,0,2023-05-08,2023-05-08,株式会社ココカンパニー,,株式会社,栃木県,鹿沼市,池ノ森３６７番地,,09,205,3220018,,,,,,,2023-05-08,1,,,,,ココカンパニー,0
421,2070001040391,新規,0,2023-05-08,2023-05-08,就労継続支援協会ナ・セバナス株式会社,,株式会社,群馬県,前橋市,六供町５４６番地２,,10,201,3710804,,,,,,,2023-05-08,1,,,,,シュウロウケイゾクシエンキョウカイナセバナス,0
422,2070001040425,新規,0,2023-05-08,2023-05-08,株式会社Ｅ・Ｍホールディングス,,株式会社,群馬県,高崎市,飯塚町１３１０番地３,,10,202,3700069,,,,,,,2023-05-08,1,,,,,イーエムホールディングス,0
425,2080001025607,新規,0,2023-05-08,2023-05-08,株式会社Ｉｎｆｉｎｉｔｙ,,株式会社,静岡県,焼津市,越後島４９５番地の１,,22,212,4250092,,,,,,,2023-05-08,1,,,,,インフィニティ,0
429,2080101023964,新規,0,2023-05-08,2023-05-08,株式会社サニーホーム,,株式会社,静岡県,富士宮市,万野原新田３４６１番地の１２,,22,207,4180001,,,,,,,2023-05-08,1,,,,,サニーホーム,0
430,2080101023972,新規,0,2023-05-08,2023-05-08,株式会社ａｄｖａｎｃｅ,,株式会社,静岡県,富士市,石坂５７９番地の１６１,,22,210,4170862,,,,,,,2023-05-08,1,,,,,アドバンス,0
431,2080101023980,新規,0,2023-05-08,2023-05-08,ユーコム株式会社,,株式会社,静岡県,沼津市,三園町１３番３５号,,22,203,4100833,,,,,,,2023-05-08,1,,,,,ユーコム,0
438,2100001036386,新規,0,2023-05-08,2023-05-08,株式会社ｆｉｎｏ,,株式会社,長野県,松本市,井川城３丁目３番３２号カーサメヌエットＢ２０１,,20,202,3900831,,,,,,,2023-05-08,1,,,,,フィノ,0
442,2110001037499,新規,0,2023-05-08,2023-05-08,株式会社ＳＨＩＮＤＥＮＫＯ,,株式会社,新潟県,新潟市西蒲区,赤鏥８３７番地４,,15,108,9530042,,,,,,,2023-05-08,1,,,,,シンデンコウ,0
446,2110005016945,新規,0,2023-05-08,2023-05-08,特定非営利活動法人こぱんだ,,その他の設立登記法人,新潟県,胎内市,羽黒１２３５番地,,15,227,9592624,,,,,,,2023-05-08,1,,,,,コパンダ,0
460,2120001254531,新規,0,2023-05-08,2023-05-08,株式会社小森工業,,株式会社,大阪府,大阪市大正区,三軒家西１丁目２５番６－７１１号,,27,108,5510001,,,,,,,2023-05-08,1,,,,,コモリコウギョウ,0
461,2120001254548,新規,0,2023-05-08,2023-05-08,株式会社グローバルプラスホールディングス,,株式会社,大阪府,大阪市西区,西本町１丁目５番３号扶桑ビル,,27,106,5500005,,,,,,,2023-05-08,1,,,,,グローバルプラスホールディングス,0
462,2120001254606,新規,0,2023-05-08,2023-05-08,ワイエキネイ株式会社,,株式会社,大阪府,大阪市東成区,中道４丁目８番２６号１０１室,,27,115,5370025,,,,,,,2023-05-08,1,,,,,ワイエキネイ,0
463,2120001254614,新規,0,2023-05-08,2023-05-08,株式会社ＳＨＯＵＥＩ,,株式会社,大阪府,大阪市平野区,長吉六反２丁目５番２号,,27,126,5470012,,,,,,,2023-05-08,1,,,,,ショウエイ,0
464,2120001254688,新規,0,2023-05-08,2023-05-08,マザー株式会社,,株式会社,大阪府,大阪市北区,浪花町３番６号,,27,127,5300022,,,,,,,2023-05-08,1,,,,,マザー,0
465,2120001254705,新規,0,2023-05-08,2023-05-08,株式会社オフィスＨＦ,,株式会社,大阪府,枚方市,中宮本町１番５－１０９号,,27,210,5731196,,,,,,,2023-05-08,1,,,,,オフィスエイチエフ,0
470,2120003023975,新規,0,2023-05-08,2023-05-08,合同会社ディープフィールド,,合同会社,大阪府,大阪市天王寺区,逢阪１丁目１番１－１００３号,00130367,27,109,5430062,,,,,,,2023-05-08,1,,,,,ディープフィールド,0
473,2120103005205,新規,0,2023-05-08,2023-05-08,ｈａｒｕｉｒｏ合同会社,,合同会社,大阪府,堺市西区,鳳東町２丁１９８番地,,27,144,5938324,,,,,,,2023-05-08,1,,,,,ハルイロ,0
481,2130001074219,新規,0,2023-05-08,2023-05-08,株式会社臥ＲＹＵ,,株式会社,京都府,京都市下京区,朱雀宝蔵町４４番地協栄ビル２階京都朱雀スタジオ,,26,106,6008846,,,,,,,2023-05-08,1,,,,,ガリュウ,0
482,2130001074227,新規,0,2023-05-08,2023-05-08,株式会社ＹＤＫ,,株式会社,京都府,福知山市,厚東町２０２番地タウンハウスナカジ１Ｆ,,26,201,6200059,,,,,,,2023-05-08,1,,,,,ワイディーケー,0
483,2130001074243,新規,0,2023-05-08,2023-05-08,株式会社ブレイヴ,,株式会社,京都府,長岡京市,開田２丁目６番４号,,26,209,6170826,,,,,,,2023-05-08,1,,,,,ブレイヴ,0
484,2130001074251,新規,0,2023-05-08,2023-05-08,株式会社丸喜建設,,株式会社,京都府,京都市東山区,清水１丁目２８８番地の１１,,26,105,6050862,,,,,,,2023-05-08,1,,,,,マルキケンセツ,0
485,2130001074268,新規,0,2023-05-08,2023-05-08,株式会社アルファ,,株式会社,京都府,京都市伏見区,竹田中川原町５８番地１８－３Ｆ,,26,109,6128412,,,,,,,2023-05-08,1,,,,,アルファ,0
486,2130003008703,新規,0,2023-05-08,2023-05-08,合同会社ｈａｋｏ,,合同会社,京都府,京都市中京区,六角通室町西入玉蔵町１３０番地スペリオン四条烏丸５０３,,26,104,6048211,,,,,,,2023-05-08,1,,,,,ハコ,0
497,2140001130004,新規,0,2023-05-08,2023-05-08,株式会社リ・テック,,株式会社,兵庫県,尼崎市,杭瀬南新町４丁目１０番７号,,28,202,6600822,,,,,,,2023-05-08,1,,,,,リテック,0
498,2140001130012,新規,0,2023-05-08,2023-05-08,オムド株式会社,,株式会社,兵庫県,神戸市中央区,海岸通２８番地ＢＥＬＩＳＴＡ神戸旧居留地４０５号,,28,110,6500024,,,,,,,2023-05-08,1,,,,,オムド,0
499,2140001130020,新規,0,2023-05-08,2023-05-08,株式会社まるまつ,,株式会社,兵庫県,丹波篠山市,今田町下立杭２２０番地,,28,221,6692141,,,,,,,2023-05-08,1,,,,,マルマツ,0
500,2140001130029,新規,0,2023-05-08,2023-05-08,株式会社大正商会,,株式会社,兵庫県,神戸市長田区,駒ケ林町１丁目１７番１５号,,28,106,6530043,,,,,,,2023-05-08,1,,,,,タイショウショウカイ,0
501,2140001130078,新規,0,2023-05-08,2023-05-08,株式会社ＨＩＲＯサービス,,株式会社,兵庫県,神戸市長田区,長田天神町２丁目３番１号,,28,106,6530882,,,,,,,2023-05-08,1,,,,,ヒロサービス,0
502,2140001130094,新規,0,2023-05-08,2023-05-08,株式会社サンセイエンジ,,株式会社,兵庫県,尼崎市,杭瀬北新町１丁目６－１０,,28,202,6600815,,,,,,,2023-05-08,1,,,,,サンセイエンジ,0
503,2140001130103,新規,0,2023-05-08,2023-05-08,株式会社春華通商,,株式会社,兵庫県,三田市,武庫が丘５丁目１番地,,28,219,6691544,,,,,,,2023-05-08,1,,,,,シュンカツウショウ,0
506,2150001026374,新規,0,2023-05-08,2023-05-08,株式会社セイル,,株式会社,奈良県,大和郡山市,西岡町２番３０号,,29,203,6391014,,,,,,,2023-05-08,1,,,,,セイル,0
510,2160001025020,新規,0,2023-05-08,2023-05-08,株式会社アクアネクスト,,株式会社,滋賀県,甲賀市,甲南町深川２４番地５２,,25,209,5203322,,,,,,,2023-05-08,1,,,,,アクアネクスト,0
511,2160003002868,新規,0,2023-05-08,2023-05-08,合同会社エムシープラス,,合同会社,滋賀県,草津市,西渋川２丁目１１番５６－６０６号,,25,206,5250025,,,,,,,2023-05-08,1,,,,,エムシープラス,0
523,2180001156094,新規,0,2023-05-08,2023-05-08,株式会社ＪＳＡ,,株式会社,愛知県,名古屋市中川区,応仁町１丁目３４番地,,23,110,4540042,,,,,,,2023-05-08,1,,,,,ジェイエスエー,0
524,2180001156128,新規,0,2023-05-08,2023-05-08,センテックホールディングス株式会社,,株式会社,愛知県,名古屋市北区,喜惣治１丁目２１３番地２,,23,103,4620065,,,,,,,2023-05-08,1,,,,,センテックホールディングス,0
525,2180001156136,新規,0,2023-05-08,2023-05-08,株式会社メディケアリンクス,,株式会社,愛知県,名古屋市北区,尾上町１番地の４メリアＤ棟５０２号,,23,103,4620863,,,,,,,2023-05-08,1,,,,,メディケアリンクス,0
526,2180001156169,新規,0,2023-05-08,2023-05-08,株式会社セントラルジャパンリアルエステート,,株式会社,愛知県,名古屋市千種区,池下町２丁目２８番,,23,101,4640066,,,,,,,2023-05-08,1,,,,,セントラルジャパンリアルエステート,0
527,2180001156210,新規,0,2023-05-08,2023-05-08,Ａｍｂｅｒ構造設計株式会社,,株式会社,愛知県,北名古屋市,鹿田３５１０番地７,,23,234,4810004,,,,,,,2023-05-08,1,,,,,アンバーコウゾウセッケイ,0
532,2180301037358,新規,0,2023-05-08,2023-05-08,村上断熱工業株式会社,,株式会社,愛知県,豊川市,八幡町新堀８番地２,,23,207,4420857,,,,,,,2023-05-08,1,,,,,ムラカミダンネツコウギョウ,0
533,2180305009477,新規,0,2023-05-08,2023-05-08,一般社団法人Ｍグローバル,,その他の設立登記法人,愛知県,田原市,江比間町二字郷中１９番地,,23,231,4413605,,,,,,,2023-05-08,1,,,,,エムグローバル,0
540,2200001041252,新規,0,2023-05-08,2023-05-08,株式会社五十番,,株式会社,岐阜県,中津川市,太田町２丁目２番１０号,,21,206,5080033,,,,,,,2023-05-08,1,,,,,ゴジュウバン,0
541,2200001041260,新規,0,2023-05-08,2023-05-08,株式会社アドマテックス美濃,,株式会社,岐阜県,可児市,二野字東段１９９０番地,,21,214,5090232,,,,,,,2023-05-08,1,,,,,アドマテックスミノ,0
542,2200003005940,新規,0,2023-05-08,2023-05-08,合同会社ＫＷＨ,,合同会社,岐阜県,岐阜市,加野１丁目２８番９号,,21,201,5013107,,,,,,,2023-05-08,1,,,,,ケイダブルエイチ,0
545,2230001019824,新規,0,2023-05-08,2023-05-08,株式会社竹林堂分家,,株式会社,富山県,富山市,旅籠町３番１５号,,16,201,9300069,,,,,,,2023-05-08,1,,,,,チクリンドウブンケ,0
546,2230003002010,新規,0,2023-05-08,2023-05-08,合同会社ＴＡＫＡＧＩ,,合同会社,富山県,中新川郡立山町,五百石１４４番地１,,16,323,9300214,,,,,,,2023-05-08,1,,,,,タカギ,0
547,2230005009301,新規,0,2023-05-08,2023-05-08,医療法人社団青空会,,その他の設立登記法人,富山県,富山市,堀１４１番地,,16,201,9398057,,,,,,,2023-05-08,1,,,,,アオゾラカイ,0
549,2240001061445,新規,0,2023-05-08,2023-05-08,株式会社Ｈ．ｏｎｅ,,株式会社,広島県,広島市安佐南区,大町西１丁目２０番１１号,,34,105,7310125,,,,,,,2023-05-08,1,,,,,エイチワン,0
550,2240001061478,新規,0,2023-05-08,2023-05-08,株式会社ポラリス,,株式会社,広島県,広島市安佐北区,深川４丁目２４番１０号,,34,106,7391751,,,,,,,2023-05-08,1,,,,,ポラリス,0
568,2290001101394,新規,0,2023-05-08,2023-05-08,株式会社本日もよろしく,,株式会社,福岡県,福岡市中央区,春吉３丁目１１番１９号パノラマスクエア博多２０８号,,40,133,8100003,,,,,,,2023-05-08,1,,,,,ホンジツモヨロシク,0
569,2290001101428,新規,0,2023-05-08,2023-05-08,株式会社コスモメンテナンス,,株式会社,福岡県,福岡市東区,奈多３丁目４番２７－１号,,40,131,8110204,,,,,,,2023-05-08,1,,,,,コスモメンテナンス,0
574,2290801029505,新規,0,2023-05-08,2023-05-08,Ａ３Ｍカンパニー株式会社,,株式会社,福岡県,北九州市小倉北区,片野２丁目２番１６号,,40,106,8020064,,,,,,,2023-05-08,1,,,,,エースリーエムカンパニー,0
580,2330001030812,新規,0,2023-05-08,2023-05-08,株式会社ハピネスガード,,株式会社,熊本県,熊本市東区,下江津６丁目１番２号,,43,102,8620960,,,,,,,2023-05-08,1,,,,,ハピネスガード,0
582,2340001025539,新規,0,2023-05-08,2023-05-08,株式会社ＳＲＡＹ,,株式会社,鹿児島県,姶良市,西餅田３５００番地３２,,46,225,8995431,,,,,,,2023-05-08,1,,,,,スレイ,0
583,2340001025555,新規,0,2023-05-08,2023-05-08,株式会社翔建工業,,株式会社,鹿児島県,薩摩川内市,高江町２０８番地１,,46,215,8950131,,,,,,,2023-05-08,1,,,,,ショウケンコウギョウ,0
588,2350001018327,新規,0,2023-05-08,2023-05-08,株式会社ＤＫ．ＬＡＵＬＥＡ,,株式会社,宮崎県,宮崎市,大島町原ノ前１４４５番地１７２,,45,201,8800824,,,,,,,2023-05-08,1,,,,,ディーケードットラウレア,0
592,2370001049915,新規,0,2023-05-08,2023-05-08,株式会社Ｓｍｉｌｅ,,株式会社,宮城県,大崎市,古川下中目字小袋３５番地１,,04,215,9896123,,,,,,,2023-05-08,1,,,,,スマイル,0
599,2400001016234,新規,0,2023-05-08,2023-05-08,株式会社後藤ホールディングス,,株式会社,岩手県,上閉伊郡大槌町,大槌第１２地割１６１番地２,,03,461,0281131,,,,,,,2023-05-08,1,,,,,ゴトウホールディングス,0
600,2400003003073,新規,0,2023-05-08,2023-05-08,合同会社盛佳ケア,,合同会社,岩手県,大船渡市,立根町字中野１８番地２０,,03,203,0220006,,,,,,,2023-05-08,1,,,,,モリカケア,0
601,2410001013478,新規,0,2023-05-08,2023-05-08,株式会社エムズ,,株式会社,秋田県,潟上市,天王字追分西２４番地２６,,05,211,0100101,,,,,,,2023-05-08,1,,,,,エムズ,0
606,2420001018245,新規,0,2023-05-08,2023-05-08,株式会社スミス,,株式会社,青森県,八戸市,南郷大字市野沢字黒坂２６番地,,02,203,0310111,,,,,,,2023-05-08,1,,,,,スミス,0
619,2480001012085,新規,0,2023-05-08,2023-05-08,岡田乳業株式会社,,株式会社,徳島県,阿南市,学原町居内３９番地,,36,204,7740014,,,,,,,2023-05-08,1,,,,,,0
620,2480001012093,新規,0,2023-05-08,2023-05-08,株式会社ＫＳＭＤ,,株式会社,徳島県,徳島市,論田町新開６６番地の９６,,36,201,7708011,,,,,,,2023-05-08,1,,,,,ケーエスエムディー,0
621,2480003001978,新規,0,2023-05-08,2023-05-08,ＭＭＧマネジメント合同会社,,合同会社,徳島県,徳島市,南前川町３丁目１０番地,,36,201,7700808,,,,,,,2023-05-08,1,,,,,,0
627,2500001024904,新規,0,2023-05-08,2023-05-08,株式会社渡部電気,,株式会社,愛媛県,西条市,丹原町池田６６０番地１,,38,206,7910508,,,,,,,2023-05-08,1,,,,,ワタナベデンキ,0
630,2700150115905,新規,0,2023-05-08,2023-05-08,ｓｈｅｎｚｈｅｎｓｈｉｋｕｗｅｉｐｕｄｉａｎｚｉｋｅｊｉｙｏｕｘｉａｎｇｏｎｇｓｉ,,外国会社等,,,,,,,,ｓｈｅｎｚｈｅｎｓｈｉｌｏｎｇｇａｎｇｑｕｌｏｎｇｇａｎｇｊｉｅｄａｏ，ｌｏｎｇｃｈｅｎｇｄａｄａｏ１６ｈａｏｃｈｅｎｇｎａｎｙａｚｈｕ９ｄｏｎｇ９０８，ｓｈｅｎｚｈｅｎｓｈｉ，ｇｕａｎｇｄｏｎｇｓｈｅｎｇ，５１８１１７，ＣＮ,,,,,,2023-05-08,1,,,,,シンセンシコクイフデンシカギユウゲンコウシ,0
631,2700150115913,新規,0,2023-05-08,2023-05-08,Ｓｈｅｎｚｈｅｎ　Ｖｓｔａｒｃａｍ　Ｔｅｃｈｎｏｌｏｇｙ　Ｃｏ．，Ｌｔｄ．,,外国会社等,,,,,,,,５ｔｈ　Ｆ　Ｂｕｉｌｄｉｎｇ，Ｊｉａｘｉａ　Ｋｅｊｉ　Ｐａｒｋ　Ｓｈｉｙａｎ　Ｔｏｗｎ，Ｂａｏａｎ　Ｓｈｅｎｚｈｅｎ　Ｇｕａｎｇｄｏｎｇ,,,,,,2023-05-08,1,,,,,シンセンウエスターカムテクノロジーカンパニーリミテツト,0
632,2700150115921,新規,0,2023-05-08,2023-05-08,ｆｕｚｈｏｕｈｏｎｇｓｉｙｕｄｉａｎｚｉｓｈａｎｇｗｕｙｏｕｘｉａｎｇｏｎｇｓｉ,,外国会社等,,,,,,,,ｃａｎｇｓｈａｎｑｕｊｉａｎｘｉｎｚｈｅｎｐａｎｙｕｌｕ３ｈａｏａｏｔｉｙａｎｇｇｕａｎｇｈｕａｙｕａｎｅｒｑｉＧ－５ｈａｏｌｏｕ１１ｃｅｎｇ３０ｂａｎｇｏｎｇｆｕｚｈｏｕｆｕｊｉａｎ,,,,,,2023-05-08,1,,,,,フクシユウシコウシウデンシシヨウムユウゲンコウシ,0
642,3010001234964,新規,0,2023-05-08,2023-05-08,株式会社プラスナイン,,株式会社,東京都,中央区,銀座８丁目４番２６号横須賀第６ビル２階,,13,102,1040061,,,,,,,2023-05-08,1,,,,,プラスナイン,0
643,3010001235038,新規,0,2023-05-08,2023-05-08,株式会社ＪＥＲＡ　Ｃｏｎｎｅｃｔ,,株式会社,東京都,中央区,日本橋２丁目５番１号,,13,102,1030027,,,,,,,2023-05-08,1,,,,,ジェラコネクト,0
644,3010001235054,新規,0,2023-05-08,2023-05-08,株式会社ブルキャリア・コンサルティング,,株式会社,東京都,千代田区,丸の内１丁目１１－１パシフィックセンチュリープレイスセンター１３階,,13,101,1000005,,,,,,,2023-05-08,1,,,,,ブルキャリアコンサルティング,0
645,3010001235070,新規,0,2023-05-08,2023-05-08,株式会社ＫＦＵ,,株式会社,東京都,中央区,銀座１丁目１２番４号Ｎ＆ＥＢＬＤ．６Ｆ,,13,102,1040061,,,,,,,2023-05-08,1,,,,,ケーエフユー,0
646,3010001235095,新規,0,2023-05-08,2023-05-08,株式会社プライムパーティクル,,株式会社,東京都,中央区,晴海２丁目３番３０－３７１４号,,13,102,1040053,,,,,,,2023-05-08,1,,,,,プライムパーティクル,0
649,3010003040493,新規,0,2023-05-08,2023-05-08,Ｆｉｒｓｔ　Ｔｒｕｓｔ　Ｊａｐａｎ合同会社,,合同会社,東京都,中央区,日本橋兜町６番５号ＦｉｎＧａｔｅＫＡＢＵＴＯ,,13,102,1030026,,,,,,,2023-05-08,1,,,,,ファーストトラストジャパン,0
655,3010405022032,新規,0,2023-05-08,2023-05-08,一般社団法人未来共創イノベーション,,その他の設立登記法人,東京都,港区,南青山２丁目２番１５号,,13,103,1070062,,,,,,,2023-05-08,1,,,,,ミライキョウソウイノベーション,0
656,3010501050399,新規,0,2023-05-08,2023-05-08,株式会社志來,,株式会社,東京都,台東区,竜泉３丁目２７－１０神谷ビルＩＩ２０２号,00130366,13,106,1100012,,,,,,,2023-05-08,1,,,,,シキ,0
657,3010501050408,新規,0,2023-05-08,2023-05-08,株式会社ディーリース,,株式会社,東京都,台東区,上野６丁目１番６号,,13,106,1100005,,,,,,,2023-05-08,1,,,,,ディーリース,0
660,3010601063037,新規,0,2023-05-08,2023-05-08,ヤマジテック株式会社,,株式会社,東京都,江東区,佐賀２丁目１０番２１－４１６号,,13,108,1350031,,,,,,,2023-05-08,1,,,,,ヤマジテック,0
663,3010701044192,新規,0,2023-05-08,2023-05-08,株式会社クロムテック,,株式会社,東京都,品川区,北品川２丁目３０番２１号,,13,109,1400001,,,,,,,2023-05-08,1,,,,,クロムテック,0
674,3011001154161,新規,0,2023-05-08,2023-05-08,株式会社ｐｏｎｏｗｅｌｌ,,株式会社,東京都,渋谷区,道玄坂１丁目１０番８号渋谷道玄坂東急ビル２Ｆ－Ｃ,,13,113,1500043,,,,,,,2023-05-08,1,,,,,ポノウェル,0
675,3011001154178,新規,0,2023-05-08,2023-05-08,ＳＨＡＲＩ株式会社,,株式会社,東京都,渋谷区,猿楽町２９番９号ヒルサイドテラスＤ２３,,13,113,1500033,,,,,,,2023-05-08,1,,,,,シャリ,0
676,3011001154186,新規,0,2023-05-08,2023-05-08,株式会社リミックスリー,,株式会社,東京都,渋谷区,広尾１丁目１０番８号クボタビル２階,,13,113,1500012,,,,,,,2023-05-08,1,,,,,リミックスリー,0
677,3011001154203,新規,0,2023-05-08,2023-05-08,株式会社イマーシブ・ラボ,,株式会社,東京都,渋谷区,道玄坂１丁目１０番８号渋谷道玄坂東急ビル２Ｆ－Ｃ,,13,113,1500043,,,,,,,2023-05-08,1,,,,,イマーシブラボ,0
679,3011003016723,新規,0,2023-05-08,2023-05-08,合同会社アシスト,,合同会社,東京都,渋谷区,道玄坂１丁目１０番８号渋谷道玄坂東急ビル２Ｆ－Ｃ,,13,113,1500043,,,,,,,2023-05-08,1,,,,,アシスト,0
680,3011003016764,新規,0,2023-05-08,2023-05-08,あやよし合同会社,,合同会社,東京都,渋谷区,神宮前６丁目２３番４号桑野ビル２階,,13,113,1500001,,,,,,,2023-05-08,1,,,,,アヤヨシ,0
681,3011003016772,新規,0,2023-05-08,2023-05-08,ＡｉｒＴｒｕｎｋ　Ｊａｐａｎ　Ｈｏｌｄｉｎｇ５合同会社,,合同会社,東京都,渋谷区,円山町３番６号Ｅ・スペースタワー,,13,113,1500044,,,,,,,2023-05-08,1,,,,,エアトランクジャパンホールディングファイブ,0
684,3011101102722,新規,0,2023-05-08,2023-05-08,株式会社ａｍｂｉｔｉｏｎ,,株式会社,東京都,新宿区,若葉１丁目１番１号若葉大原ビル３Ｆ,,13,104,1600011,,,,,,,2023-05-08,1,,,,,アンビション,0
688,3011105010649,新規,0,2023-05-08,2023-05-08,税理士法人首都圏ネットワーク,,その他の設立登記法人,東京都,新宿区,新宿４丁目３番１５－１２０１号,,13,104,1600022,,,,,,,2023-05-08,1,,,,,シュトケンネットワーク,0
690,3011401025103,新規,0,2023-05-08,2023-05-08,株式会社ＰＡＰコンサルティング,,株式会社,東京都,板橋区,小豆沢２丁目２０番２５号,,13,119,1740051,,,,,,,2023-05-08,1,,,,,ピーエーピーコンサルティング,0
691,3011401025111,新規,0,2023-05-08,2023-05-08,株式会社ｒｅｍｉｌｅ＆ｃｏ,,株式会社,東京都,板橋区,徳丸３丁目１７番５号,,13,119,1750083,,,,,,,2023-05-08,1,,,,,リマイルアンドシーオー,0
692,3011501029251,新規,0,2023-05-08,2023-05-08,株式会社三綱,,株式会社,東京都,北区,赤羽１丁目７番９号赤羽第一葉山ビル４Ｆ,,13,117,1150045,,,,,,,2023-05-08,1,,,,,ミツナ,0
695,3011605002518,新規,0,2023-05-08,2023-05-08,特定非営利活動法人日本Ｏｐｔｉｍｉｓｔ　Ｉｎｔｅｒｎａｔｉｏｎａｌ,,その他の設立登記法人,東京都,練馬区,北町８丁目５番２号２０７,,13,120,1790081,,,,,,,2023-05-08,1,,,,,ニホンオプティミストインターナショナル,0
696,3011703003459,新規,0,2023-05-08,2023-05-08,合同会社リジョイ,,合同会社,東京都,江戸川区,西一之江２丁目２２番１１号,,13,123,1320023,,,,,,,2023-05-08,1,,,,,リジョイ,0
697,3012301013420,新規,0,2023-05-08,2023-05-08,株式会社ＲＵＮＡ,,株式会社,東京都,町田市,南つくし野２丁目１番地３１,,13,209,1940002,,,,,,,2023-05-08,1,,,,,ルナ,0
698,3012301013429,新規,0,2023-05-08,2023-05-08,株式会社ＫＩＴ,,株式会社,東京都,町田市,小山町８９０番地６,,13,209,1940212,,,,,,,2023-05-08,1,,,,,ケイアイティー,0
699,3012703002698,新規,0,2023-05-08,2023-05-08,アトラス合同会社,,合同会社,東京都,東村山市,萩山町４丁目２番地２,,13,213,1890012,,,,,,,2023-05-08,1,,,,,アトラス,0
701,3012801022326,新規,0,2023-05-08,2023-05-08,株式会社フィットネスロジ,,株式会社,東京都,東大和市,清水３丁目７７２番地ウイングコート２０１,,13,220,2070004,,,,,,,2023-05-08,1,,,,,フィットネスロジ,0
702,3013101009162,新規,0,2023-05-08,2023-05-08,ドラゴンファクトリー株式会社,,株式会社,東京都,あきる野市,秋川３丁目６番地６,,13,228,1970804,,,,,,,2023-05-08,1,,,,,ドラゴンファクトリー,0
705,3013301050684,新規,0,2023-05-08,2023-05-08,株式会社ＯＣＳ,,株式会社,東京都,豊島区,北大塚２丁目１０－１細野ビル６０１,,13,116,1700004,,,,,,,2023-05-08,1,,,,,オーシーエス,0
706,3013301050701,新規,0,2023-05-08,2023-05-08,株式会社唐盛,,株式会社,東京都,豊島区,東池袋２丁目８番５号－１Ｆ,,13,116,1700013,,,,,,,2023-05-08,1,,,,,トウセイ,0
721,3020003023828,新規,0,2023-05-08,2023-05-08,ペコラビール合同会社,,合同会社,神奈川県,川崎市麻生区,上麻生２丁目６－２－２,,14,137,2150021,,,,,,,2023-05-08,1,,,,,ペコラビール,0
722,3020003023852,新規,0,2023-05-08,2023-05-08,合同会社ハマ設備,,合同会社,神奈川県,横浜市瀬谷区,阿久和東３丁目４番地７,,14,114,2460023,,,,,,,2023-05-08,1,,,,,ハマセツビ,0
723,3020003023860,新規,0,2023-05-08,2023-05-08,合同会社ＣｒｏｓｓＴｒａｎｓｐｏｒｔ,,合同会社,神奈川県,横浜市西区,北幸２丁目１０番地２８むつみビル３Ｆ,,14,103,2200004,,,,,,,2023-05-08,1,,,,,クロストランスポート,0
727,3021001078921,新規,0,2023-05-08,2023-05-08,株式会社ＴＨ企画,,株式会社,神奈川県,大和市,深見西２丁目６番２３－６０６号,,14,213,2420018,,,,,,,2023-05-08,1,,,,,ティーエイチキカク,0
728,3021001078938,新規,0,2023-05-08,2023-05-08,株式会社ことほぎ,,株式会社,神奈川県,藤沢市,片瀬海岸１丁目１３－１８ライオンズマンション片瀬江ノ島５０１号室,,14,205,2510035,,,,,,,2023-05-08,1,,,,,コトホギ,0
729,3021001078946,新規,0,2023-05-08,2023-05-08,株式会社Ｓｅｖｅｎｔｈ　Ｓｅｎｓｅ,,株式会社,神奈川県,藤沢市,南藤沢６番１５号,,14,205,2510055,,,,,,,2023-05-08,1,,,,,セブンスセンス,0
742,3040001128016,新規,0,2023-05-08,2023-05-08,株式会社ｌｏｏｓｅｃｏｆｆｅｅ,,株式会社,千葉県,船橋市,本町７丁目１２番８号船橋プラノービル２０２,,12,204,2730005,,,,,,,2023-05-08,1,,,,,ルースコーヒー,0
743,3040001128164,新規,0,2023-05-08,2023-05-08,株式会社グロウ,,株式会社,千葉県,船橋市,市場４丁目８番７号,,12,204,2730001,,,,,,,2023-05-08,1,,,,,グロウ,0
744,3040001128214,新規,0,2023-05-08,2023-05-08,ＭＦ‐Ｉｎｄ．株式会社,,株式会社,千葉県,千葉市花見川区,検見川町３丁目３３８番地２１,,12,102,2620023,,,,,,,2023-05-08,1,,,,,エムエフインダストリー,0
745,3040001128222,新規,0,2023-05-08,2023-05-08,株式会社ごましお,,株式会社,千葉県,市原市,国分寺台中央６丁目６番地１８,,12,219,2900073,,,,,,,2023-05-08,1,,,,,ゴマシオ,0
746,3040001128239,新規,0,2023-05-08,2023-05-08,株式会社Ｗｏｒｌｄ　Ｗａｔｃｈ　Ｔｒａｄｉｎｇ　Ｃｏｍｐａｎｙ,,株式会社,千葉県,富津市,岩瀬９３３番地４,,12,226,2930043,,,,,,,2023-05-08,1,,,,,ワールドウオッチトレーディングカンパニー,0
747,3040003022555,新規,0,2023-05-08,2023-05-08,合同会社スタイル,,合同会社,千葉県,いすみ市,岬町江場土４１９８,,12,238,2994612,,,,,,,2023-05-08,1,,,,,スタイル,0
748,3050001052776,新規,0,2023-05-08,2023-05-08,株式会社Ｈ＆Ｊ,,株式会社,茨城県,つくば市,竹園１丁目５番地３エスペリアつくば竹園１４０６号,,08,220,3050032,,,,,,,2023-05-08,1,,,,,エイチアンドジェー,0
749,3050001052784,新規,0,2023-05-08,2023-05-08,沓掛自動車株式会社,,株式会社,茨城県,坂東市,沓掛３９８０番地１,,08,228,3060515,,,,,,,2023-05-08,1,,,,,クツカケジドウシャ,0
750,3050001052792,新規,0,2023-05-08,2023-05-08,株式会社ＭＩＹＡＺＡＷＡ,,株式会社,茨城県,ひたちなか市,大字中根８８５－１ロッゼビル１Ｆ,,08,221,3120011,,,,,,,2023-05-08,1,,,,,ミヤザワ,0
751,3050003007464,新規,0,2023-05-08,2023-05-08,合同会社奈良江,,合同会社,茨城県,守谷市,百合ケ丘３丁目２７８９番地１４,,08,224,3020110,,,,,,,2023-05-08,1,,,,,ナラエ,0
754,3060001035961,新規,0,2023-05-08,2023-05-08,株式会社あおぞら,,株式会社,栃木県,小山市,乙女３丁目２７番１８号メゾン浅草１０３号,,09,208,3290214,,,,,,,2023-05-08,1,,,,,アオゾラ,0
755,3070001040390,新規,0,2023-05-08,2023-05-08,株式会社和香,,株式会社,群馬県,高崎市,上小塙町５１５番地２,,10,202,3700077,,,,,,,2023-05-08,1,,,,,ノドカ,0
756,3070001040399,新規,0,2023-05-08,2023-05-08,株式会社Ｂａｕｅｒ,,株式会社,群馬県,高崎市,下小鳥町８８番地２６,,10,202,3700074,,,,,,,2023-05-08,1,,,,,バウアー,0
757,3070001040416,新規,0,2023-05-08,2023-05-08,株式会社シマダ測量設計,,株式会社,群馬県,伊勢崎市,今泉町２丁目４１８番地１７,,10,204,3720031,,,,,,,2023-05-08,1,,,,,,0
762,3080001025597,新規,0,2023-05-08,2023-05-08,株式会社静岡フレーベル,,株式会社,静岡県,静岡市葵区,八千代町５０番地の１,,22,101,4200013,,,,,,,2023-05-08,1,,,,,シズオカフレーベル,0
763,3080001025606,新規,0,2023-05-08,2023-05-08,株式会社フュージョン,,株式会社,静岡県,静岡市葵区,両替町２丁目４番地の９,,22,101,4200032,,,,,,,2023-05-08,1,,,,,フュージョン,0
764,3080003002974,新規,0,2023-05-08,2023-05-08,合同会社千花,,合同会社,静岡県,静岡市葵区,安東１丁目１４番１８号,,22,101,4200882,,,,,,,2023-05-08,1,,,,,センカ,0
776,3100001036377,新規,0,2023-05-08,2023-05-08,株式会社ＡＳＣ,,株式会社,長野県,長野市,青木島町大塚８３６番地８,,20,201,3812205,,,,,,,2023-05-08,1,,,,,エイエスシー,0
779,3110001037507,新規,0,2023-05-08,2023-05-08,株式会社ＴＳメタル,,株式会社,新潟県,新潟市北区,太夫浜２４６９番地３８,,15,101,9503112,,,,,,,2023-05-08,1,,,,,ティーエスメタル,0
780,3110005016944,新規,0,2023-05-08,2023-05-08,一般社団法人新潟県漁業リース協会,,その他の設立登記法人,新潟県,新潟市中央区,万代島２番１号,,15,103,9500078,,,,,,,2023-05-08,1,,,,,ニイガタケンギョギョウリースキョウカイ,0
786,3120001254539,新規,0,2023-05-08,2023-05-08,株式会社アントクエステート,,株式会社,大阪府,大阪市中央区,高麗橋４丁目６番１４号,,27,128,5410043,,,,,,,2023-05-08,1,,,,,アントクエステート,0
787,3120001254547,新規,0,2023-05-08,2023-05-08,株式会社ＥＮＣＩＡＴＥ,,株式会社,大阪府,大阪市中央区,高津２丁目１番１９－４０１号,,27,128,5420072,,,,,,,2023-05-08,1,,,,,エンシエイト,0
788,3120001254596,新規,0,2023-05-08,2023-05-08,鴻順株式会社,,株式会社,大阪府,大阪市生野区,巽北１丁目２１番２９号生野ハイツ７１９号室,00130379,27,116,5440004,,,,,,,2023-05-08,1,,,,,コウジュン,0
789,3120001254638,新規,0,2023-05-08,2023-05-08,株式会社ＦＯＵＲ　ＣＡＰＩＴＡＬ,,株式会社,大阪府,大阪市中央区,上町Ｂ番８号クリエイト上町ビル２階,,27,128,5400005,,,,,,,2023-05-08,1,,,,,フォーキャピタル,0
790,3120001254670,新規,0,2023-05-08,2023-05-08,株式会社碧空,,株式会社,大阪府,大阪市中央区,難波４丁目１番１５号,,27,128,5420076,,,,,,,2023-05-08,1,,,,,ソラ,0
791,3120001254704,新規,0,2023-05-08,2023-05-08,株式会社ＳａｋｉｍｏｔｏＢａｋｅｒｙ,,株式会社,大阪府,大阪市浪速区,難波中２丁目３番１８号,,27,111,5560011,,,,,,,2023-05-08,1,,,,,サキモトベーカリー,0
792,3120001254720,新規,0,2023-05-08,2023-05-08,株式会社おきな,,株式会社,大阪府,守口市,大久保町１丁目４６番１０号,,27,209,5700012,,,,,,,2023-05-08,1,,,,,オキナ,0
793,3120001254737,新規,0,2023-05-08,2023-05-08,株式会社ＷｈｏｌｅＰｈａｒｍａ,,株式会社,大阪府,大阪市東淀川区,相川１丁目６番１２－１００９号,,27,114,5330007,,,,,,,2023-05-08,1,,,,,ホールファーマ,0
796,3120003023974,新規,0,2023-05-08,2023-05-08,合同会社ミニット,,合同会社,大阪府,大阪市東淀川区,菅原２丁目３番４－３２号,,27,114,5330022,,,,,,,2023-05-08,1,,,,,ミニット,0
797,3120003023999,新規,0,2023-05-08,2023-05-08,合同会社ＳＴＵＤＩＯ３,,合同会社,大阪府,大阪市北区,梅田１丁目２番２号大阪駅前第２ビル１２－１２,,27,127,5300001,,,,,,,2023-05-08,1,,,,,スタジオスリー,0
801,3120103005146,新規,0,2023-05-08,2023-05-08,ＮＴコンフィデンシャル合同会社,,合同会社,大阪府,岸和田市,沼町２２－２７,,27,202,5960053,,,,,,,2023-05-08,1,,,,,エヌティコンフィデンシャル,0
808,3130001074250,新規,0,2023-05-08,2023-05-08,岩橋経営株式会社,,株式会社,京都府,亀岡市,畑野町土ケ畑大タワ１番地１８８,,26,206,6210263,,,,,,,2023-05-08,1,,,,,イワハシケイエイ,0
809,3130001074267,新規,0,2023-05-08,2023-05-08,株式会社Ｍｙｎｄ,,株式会社,京都府,宇治市,伊勢田町大谷１番地の２０,,26,204,6110043,,,,,,,2023-05-08,1,,,,,マインド,0
810,3130001074275,新規,0,2023-05-08,2023-05-08,株式会社京阪物流,,株式会社,京都府,京都市伏見区,横大路中ノ島町２番地１,,26,109,6128287,,,,,,,2023-05-08,1,,,,,ケイハンブツリュウ,0
812,3130003008702,新規,0,2023-05-08,2023-05-08,リンデン・メディカルアドバイザーズ合同会社,,合同会社,京都府,京田辺市,松井ケ丘１丁目５番地８,,26,211,6100353,,,,,,,2023-05-08,1,,,,,リンデンメディカルアドバイザーズ,0
816,3140001130003,新規,0,2023-05-08,2023-05-08,株式会社ハピネス・ホールド,,株式会社,兵庫県,神戸市垂水区,千鳥が丘３丁目２３番１０号,,28,108,6550011,,,,,,,2023-05-08,1,,,,,ハピネスホールド,0
817,3140001130011,新規,0,2023-05-08,2023-05-08,Ｉ‐ＳＴＹＬＥ株式会社,,株式会社,兵庫県,川西市,けやき坂３丁目１９番地の１８,,28,217,6660145,,,,,,,2023-05-08,1,,,,,アイスタイル,0
818,3140001130085,新規,0,2023-05-08,2023-05-08,株式会社サンメリットプラス,,株式会社,兵庫県,神戸市兵庫区,水木通１丁目１番２号福田ビル３階北,,28,105,6520802,,,,,,,2023-05-08,1,,,,,サンメリットプラス,0
819,3140001130102,新規,0,2023-05-08,2023-05-08,株式会社オーキッドダイニング,,株式会社,兵庫県,神戸市東灘区,深江北町３丁目３－１７,,28,101,6580013,,,,,,,2023-05-08,1,,,,,オーキッドダイニング,0
822,3140005026610,新規,0,2023-05-08,2023-05-08,一般社団法人ＩＣＩ,,その他の設立登記法人,兵庫県,神戸市東灘区,向洋町中１丁目１８番地８０２,,28,101,6580032,,,,,,,2023-05-08,1,,,,,アイシーアイ,0
825,3150001026373,新規,0,2023-05-08,2023-05-08,株式会社イワイ不動産,,株式会社,奈良県,奈良市,三条宮前町１番３８－３０１号,,29,201,6308121,,,,,,,2023-05-08,1,,,,,イワイフドウサン,0
826,3160001025028,新規,0,2023-05-08,2023-05-08,株式会社大津電気サービス,,株式会社,滋賀県,大津市,穴太１丁目３番１４号,,25,201,5200114,,,,,,,2023-05-08,1,,,,,オオツデンキサービス,0
830,3170001017577,新規,0,2023-05-08,2023-05-08,株式会社笑園,,株式会社,和歌山県,和歌山市,屋形町２丁目５番地みきまちガーデンハイツ１Ｆ,,30,201,6408151,,,,,,,2023-05-08,1,,,,,エデン,0
843,3180001156069,新規,0,2023-05-08,2023-05-08,株式会社ＴＳＣ,,株式会社,愛知県,稲沢市,生出山田町３４番地１,,23,220,4928304,,,,,,,2023-05-08,1,,,,,ティーエスシー,0
844,3180001156110,新規,0,2023-05-08,2023-05-08,株式会社ＦＥＭ,,株式会社,愛知県,名古屋市北区,志賀本通１丁目３３番地（Ｃｅｒｅｓ志賀本通３０８号）,,23,103,4620853,,,,,,,2023-05-08,1,,,,,エフイーエム,0
845,3180001156119,新規,0,2023-05-08,2023-05-08,Ｓｋｙビルディングメンテナンス株式会社,,株式会社,愛知県,半田市,山代町１丁目１０６番地の６,,23,205,4750974,,,,,,,2023-05-08,1,,,,,スカイビルディングメンテナンス,0
846,3180001156135,新規,0,2023-05-08,2023-05-08,株式会社グローバルフォワード,,株式会社,愛知県,海部郡飛島村,大字新政成４丁目８番地の６,,23,427,4901443,,,,,,,2023-05-08,1,,,,,グローバルフォワード,0
847,3180001156143,新規,0,2023-05-08,2023-05-08,株式会社アイビー,,株式会社,愛知県,名古屋市守山区,元郷２丁目１０１４番地,,23,113,4630025,,,,,,,2023-05-08,1,,,,,アイビー,0
851,3180003025172,新規,0,2023-05-08,2023-05-08,合同会社ＳＡＴＩＯ,,合同会社,愛知県,名古屋市守山区,翠松園３丁目７０４－３,,23,113,4630010,,,,,,,2023-05-08,1,,,,,サティオ,0
852,3180003025189,新規,0,2023-05-08,2023-05-08,合同会社Ｏｆｆｉｃｅ　Ｄｕａｌ,,合同会社,愛知県,小牧市,市之久田１丁目１１９番地,,23,219,4850034,,,,,,,2023-05-08,1,,,,,オフィスデュアル,0
853,3180005020213,新規,0,2023-05-08,2023-05-08,行政書士法人亀井事務所,,その他の設立登記法人,愛知県,名古屋市昭和区,川原通５丁目６番地,,23,107,4660853,,,,,,,2023-05-08,1,,,,,カメイジムショ,0
857,3180301037357,新規,0,2023-05-08,2023-05-08,スロープフィールド株式会社,,株式会社,愛知県,知立市,牛田町地内５９番地,,23,225,4720007,,,,,,,2023-05-08,1,,,,,スロープフィールド,0
858,3180301037365,新規,0,2023-05-08,2023-05-08,株式会社ＳＴＥＬＬＡ　Ｋ,,株式会社,愛知県,豊橋市,松葉町１丁目４８番地３信玄ビル２Ｆ,,23,201,4400897,,,,,,,2023-05-08,1,,,,,ステラケイ,0
866,3210001019305,新規,0,2023-05-08,2023-05-08,株式会社ホープテラス,,株式会社,福井県,坂井市,春江町江留上新町３番地ホープテラス,,18,210,9190465,,,,,,,2023-05-08,1,,,,,ホープテラス,0
867,3210003001640,新規,0,2023-05-08,2023-05-08,合同会社ＲＴＢ,,合同会社,福井県,南条郡南越前町,西大道１９号１番地,,18,404,9190224,,,,,,,2023-05-08,1,,,,,アールティービー,0
870,3220001025384,新規,0,2023-05-08,2023-05-08,株式会社Ｃａｍｅｌ,,株式会社,石川県,能美市,旭台２丁目１３番地,,17,211,9231211,,,,,,,2023-05-08,1,,,,,キャメル,0
871,3220001025392,新規,0,2023-05-08,2023-05-08,株式会社高屋諭企画室,,株式会社,石川県,金沢市,山科町東７５番地,,17,201,9218174,,,,,,,2023-05-08,1,,,,,タカヤサトシキカクシツ,0
873,3220003003512,新規,0,2023-05-08,2023-05-08,合同会社Ａｒｔｉｚａｎ,,合同会社,石川県,白山市,日御子町６番地,,17,210,9202153,,,,,,,2023-05-08,1,,,,,アルチザン,0
876,3230001019823,新規,0,2023-05-08,2023-05-08,株式会社ＭＯＫＵＷＡ,,株式会社,富山県,高岡市,問屋町３５番地,,16,202,9330804,,,,,,,2023-05-08,1,,,,,モクワ,0
878,3240001061394,新規,0,2023-05-08,2023-05-08,株式会社神荒井工業,,株式会社,広島県,呉市,宮原３丁目３番１９号,,34,202,7370024,,,,,,,2023-05-08,1,,,,,カミアライコウギョウ,0
879,3240001061444,新規,0,2023-05-08,2023-05-08,設備ヨコイチ株式会社,,株式会社,広島県,安芸郡府中町,緑ケ丘６番２８号,,34,302,7350024,,,,,,,2023-05-08,1,,,,,セツビヨコイチ,0
887,3260001037921,新規,0,2023-05-08,2023-05-08,株式会社Ｚｅｒｏ．Ｓ,,株式会社,岡山県,倉敷市,児島下の町３丁目１４番１号,,33,202,7110906,,,,,,,2023-05-08,1,,,,,ゼロエス,0
888,3270001008772,新規,0,2023-05-08,2023-05-08,メカシステム株式会社,,株式会社,鳥取県,西伯郡大山町,末長２９６番地１６,,31,386,6893332,,,,,,,2023-05-08,1,,,,,メカシステム,0
896,3290001101435,新規,0,2023-05-08,2023-05-08,株式会社平楽道,,株式会社,福岡県,福岡市東区,箱崎１丁目４３番１８号,,40,131,8120053,,,,,,,2023-05-08,1,,,,,ヒラクドウ,0
897,3290001101443,新規,0,2023-05-08,2023-05-08,株式会社マキテック,,株式会社,福岡県,糸島市,志摩師吉４３５番地２６,,40,230,8191314,,,,,,,2023-05-08,1,,,,,マキテック,0
908,3310001018395,新規,0,2023-05-08,2023-05-08,株式会社ＮＢ,,株式会社,長崎県,大村市,本町５１１番地クラブハウスビル１階,,42,205,8560832,,,,,,,2023-05-08,1,,,,,エヌビー,0
909,3320005010067,新規,0,2023-05-08,2023-05-08,一般社団法人日田縣産業振興会,,その他の設立登記法人,大分県,日田市,豆田町７番２０号,,44,204,8770005,,,,,,,2023-05-08,1,,,,,ヒタケンサンギョウシンコウカイ,0
911,3340001025562,新規,0,2023-05-08,2023-05-08,株式会社志,,株式会社,鹿児島県,鹿児島市,皇徳寺台２丁目４５番１０号,,46,201,8910103,,,,,,,2023-05-08,1,,,,,ココロザシ,0
917,3350001018318,新規,0,2023-05-08,2023-05-08,大嶋ファーム株式会社,,株式会社,宮崎県,児湯郡新富町,大字日置上薗４４８１番地,,45,402,8891401,,,,,,,2023-05-08,1,,,,,オオシマファーム,0
918,3350001018334,新規,0,2023-05-08,2023-05-08,株式会社桜美林,,株式会社,宮崎県,都城市,千町４９５８番地３,,45,202,8850015,,,,,,,2023-05-08,1,,,,,オウビリン,0
923,3370001049922,新規,0,2023-05-08,2023-05-08,株式会社ティークラフト,,株式会社,宮城県,仙台市若林区,中倉３丁目７番２号,,04,103,9840821,,,,,,,2023-05-08,1,,,,,ティークラフト,0
926,3380001033652,新規,0,2023-05-08,2023-05-08,Ｌｉｆｉｘ　Ｊａｐａｎ株式会社,,株式会社,福島県,須賀川市,泉田字作田７３番地１,,07,207,9620046,,,,,,,2023-05-08,1,,,,,リフィックスジャパン,0
928,3380005012710,新規,0,2023-05-08,2023-05-08,社会保険労務士法人郡山労働法務事務所,,その他の設立登記法人,福島県,郡山市,朝日１丁目２０番８号バースランド朝日２０２号,,07,203,9638024,,,,,,,2023-05-08,1,,,,,コオリヤマロウドウホウムジムショ,0
930,3400001016233,新規,0,2023-05-08,2023-05-08,伊藤電気株式会社,,株式会社,岩手県,滝沢市,湯舟沢２２２番地８０３,,03,216,0200617,,,,,,,2023-05-08,1,,,,,イトウデンキ,0
931,3410001013477,新規,0,2023-05-08,2023-05-08,株式会社目黒工務店,,株式会社,秋田県,秋田市,豊岩石田坂字碇６８番地７,,05,201,0101651,,,,,,,2023-05-08,1,,,,,メグロコウムテン,0
932,3420001018244,新規,0,2023-05-08,2023-05-08,株式会社Ｌｉｌａｓ　Ｍａｉｓｏｎ,,株式会社,青森県,三沢市,松園町３丁目１番２０号松園オフィス４,,02,207,0330037,,,,,,,2023-05-08,1,,,,,リラメゾン,0
935,3430001088996,新規,0,2023-05-08,2023-05-08,株式会社アクアライズ,,株式会社,北海道,札幌市東区,北三十五条東５丁目２番２９号,,01,103,0070835,,,,,,,2023-05-08,1,,,,,アクアライズ,0
939,3450001013969,新規,0,2023-05-08,2023-05-08,株式会社緑十字産業,,株式会社,北海道,富良野市,栄町１５番３号,,01,229,0760023,,,,,,,2023-05-08,1,,,,,ミドリジュウジサンギョウ,0
940,3480001012092,新規,0,2023-05-08,2023-05-08,株式会社ＴＮ,,株式会社,徳島県,美馬市,美馬町字八幡６２番地４,,36,207,7712107,,,,,,,2023-05-08,1,,,,,ティーエヌ,0
944,3500001024911,新規,0,2023-05-08,2023-05-08,サンノー産業株式会社,,株式会社,愛媛県,新居浜市,阿島２丁目３番２４号,,38,205,7920896,,,,,,,2023-05-08,1,,,,,サンノーサンギョウ,0
945,3700150115508,新規,0,2023-05-08,2023-04-17,南アルプス市国際交流協会,,その他,山梨県,南アルプス市,小笠原４７１－８,,19,208,4000306,,,,,,,2023-04-17,1,,,,,ミナミアルプスシコクサイコウリユウキヨウカイ,0
946,3700150115912,新規,0,2023-05-08,2023-05-08,ｔａｉｍｏｋａｆｅｉ（ｓｈａｎｇｈａｉ）ｙｏｕｘｉａｎｇｏｎｇｓｉ,,外国会社等,,,,,,,,ｆｅｎｇｘｉａｎｑｕ　ｓｈｅｎｚｈｏｕｌｕ　７７７ｈａｏ２ｄｏｎｇ７ｃｅｎｇ７０１ｓｈｉ　ｓｈａｎｇｈａｉｓｈｉ　２０１４１１　ＣＮ,,,,,,2023-05-08,1,,,,,タイモコヒーシヤンハイユウゲンコウシ,0
947,3700150115920,新規,0,2023-05-08,2023-05-08,ｆｕｚｈｏｕｇｕａｎｇｒｕｎｍａｏｙｉｙｏｕｘｉａｎｇｏｎｇｓｉ,,外国会社等,,,,,,,,ｃａｎｇｓｈａｎｑｕｊｉｎｓｈａｎｊｉｅｄａｏｂｉｎｚｈｏｕｌｕ１５ｈａｏ　ｊｉｙｕａｎＡｚｕｔｕａｎ　１０ｈａｏ１＃０３－Ａ１　ｆｕｚｈｏｕ　ｆｕｊｉａｎ,,,,,,2023-05-08,1,,,,,フシヨウコウジヨンボウエキユウゲンコウシ,0
948,3700150115929,新規,0,2023-05-08,2023-05-08,Ｓｈｅｎ　ｚｈｅｎ　ｓｈｉ　Ｈｕａ　ｎｕｏ　Ｓｈｉ　ｔｉｎｇ　ｋｅ　ｊｉ　Ｙｏｕ　ｘｉａｎ　ｇｏｎｇ　ｓｉ,,外国会社等,,,,,,,,Ｒｏｏｍ　１６０１－Ｈ０１１，Ｙｏｕｓｕｏｗｅｉ　Ｂｕｉｌｄｉｎｇ，Ｎｏ．２０００，Ｊｉａｘｉａｎ　Ｒｏａｄ，Ｇａｎｇｔｏｕ　Ｃｏｍｍｕｎｉｔｙ，Ｂａｎｔｉａｎ　Ｓｔｒｅｅｔ，Ｌｏｎｇｇａｎｇ　Ｄｉｓｔｒｉｃｔ，Ｓｈｅｎｚｈｅｎ,,,,,,2023-05-08,1,,,,,シンセンシカノウシチンテクノロジーユウゲンコウシ,0
964,4010001234807,新規,0,2023-05-08,2023-05-08,ビスタトレード株式会社,,株式会社,東京都,文京区,水道２丁目１２番１２号ハイム１０３９・２０２,,13,105,1120005,,,,,,,2023-05-08,1,,,,,ビスタトレード,0
966,4010003040427,新規,0,2023-05-08,2023-05-08,フレンズ合同会社,,合同会社,東京都,中央区,銀座１丁目１２番４号Ｎ＆ＥＢＬＤ．６Ｆ,,13,102,1040061,,,,,,,2023-05-08,1,,,,,フレンズ,0
967,4010005036571,新規,0,2023-05-08,2023-05-08,大星ビル施設管理労働組合,,その他の設立登記法人,東京都,文京区,小石川４丁目２２番２号小石川四丁目ビル,,13,105,1120002,,,,,,,2023-05-08,1,,,,,タイセイビルシセツカンリ,0
968,4010005036613,新規,0,2023-05-08,2023-05-08,一般社団法人真栄原城,,その他の設立登記法人,東京都,千代田区,九段南３丁目７番７号成和綜合会計事務所内,,13,101,1020074,,,,,,,2023-05-08,1,,,,,マエハラジョウ,0
982,4010401174124,新規,0,2023-05-08,2023-05-08,Ｓｔａｒｌｅｙ株式会社,,株式会社,東京都,港区,南青山３丁目８－４０青山センタービル２Ｆ２０,,13,103,1070062,,,,,,,2023-05-08,1,,,,,スターレー,0
983,4010401174140,新規,0,2023-05-08,2023-05-08,ＥＲＭＩＴＡ　ＳＴＵＤＩＯ株式会社,,株式会社,東京都,港区,南青山２丁目２番８号ＤＦビル５Ｆオープンオフィス青山セントラル,,13,103,1070062,,,,,,,2023-05-08,1,,,,,エルミタスタジオ,0
985,4010403030052,新規,0,2023-05-08,2023-05-08,合同会社エプレ,,合同会社,東京都,港区,南麻布４丁目４番１０号グランスイート広尾１１２,,13,103,1060047,,,,,,,2023-05-08,1,,,,,エプレ,0
993,4010701044191,新規,0,2023-05-08,2023-05-08,株式会社Ｓ＆Ｅｒｅｌａｔｉｏｎｓｈｉｐ,,株式会社,東京都,品川区,大崎２丁目１１番２－２１０６号,,13,109,1410032,,,,,,,2023-05-08,1,,,,,エスアンドイーリレーションシップ,0
1005,4010803004531,新規,0,2023-05-08,2023-05-08,合同会社Ｅプラス,,合同会社,東京都,大田区,大森南３丁目２６番１６号ウエン・伊東２０７,,13,111,1430013,,,,,,,2023-05-08,1,,,,,イープラス,0
1011,4011001154177,新規,0,2023-05-08,2023-05-08,Ｓ＆Ｙ株式会社,,株式会社,東京都,渋谷区,代々木３丁目５９番１１－７０２号,,13,113,1510053,,,,,,,2023-05-08,1,,,,,エスアンドワイ,0
1012,4011003016763,新規,0,2023-05-08,2023-05-08,合同会社ムーンキャッスル,,合同会社,東京都,渋谷区,桜丘町２３番１７号シティコート桜丘４０８,,13,113,1500031,,,,,,,2023-05-08,1,,,,,ムーンキャッスル,0
1014,4011101102705,新規,0,2023-05-08,2023-05-08,株式会社エルミラインターナショナル,,株式会社,東京都,新宿区,百人町２丁目１５番９－２０３号,,13,104,1690073,,,,,,,2023-05-08,1,,,,,エルミラインターナショナル,0
1015,4011101102713,新規,0,2023-05-08,2023-05-08,株式会社ＯＷＬ,,株式会社,東京都,新宿区,新宿２丁目１６番地９新宿五城ビル７階,,13,104,1600022,,,,,,,2023-05-08,1,,,,,オウル,0
1016,4011201024626,新規,0,2023-05-08,2023-05-08,株式会社ＭＡＲＵＥＩ,,株式会社,東京都,中野区,弥生町３丁目１３番２号,,13,114,1640013,,,,,,,2023-05-08,1,,,,,マルエイ,0
1020,4011401025110,新規,0,2023-05-08,2023-05-08,株式会社フジタク,,株式会社,東京都,板橋区,大和町２３－４，アークステージ板橋本町ＩＩ１４０１,00130371,13,119,1730012,,,,,,,2023-05-08,1,,,,,フジタク,0
1029,4012301013428,新規,0,2023-05-08,2023-05-08,株式会社桜美建設,,株式会社,東京都,町田市,旭町１丁目６番４号,,13,209,1940023,,,,,,,2023-05-08,1,,,,,オウビケンセツ,0
1031,4012403005967,新規,0,2023-05-08,2023-05-08,合同会社Ｗｉｒｅ　Ｐｌａｎｔ　Ｄｅｓｉｇｎ,,合同会社,東京都,多摩市,豊ヶ丘１丁目１０番地の３３,,13,224,2060031,,,,,,,2023-05-08,1,,,,,ワイヤープラントデザイン,0
1032,4012803003075,新規,0,2023-05-08,2023-05-08,合同会社楓天堂企画,,合同会社,東京都,日野市,日野本町５丁目６番地の２２,,13,212,1910011,,,,,,,2023-05-08,1,,,,,フウテンドウキカク,0
1033,4013101009161,新規,0,2023-05-08,2023-05-08,株式会社川崎設備,,株式会社,東京都,あきる野市,小川５２４番地７,,13,228,1970821,,,,,,,2023-05-08,1,,,,,カワサキセツビ,0
1044,4020001151381,新規,0,2023-05-08,2023-05-08,相馨株式会社,,株式会社,神奈川県,横浜市都筑区,勝田町３６８番地１,,14,118,2240034,,,,,,,2023-05-08,1,,,,,ソウケイ,0
1045,4020001151407,新規,0,2023-05-08,2023-05-08,株式会社ＯＳＭＯ,,株式会社,神奈川県,横浜市港北区,新横浜２丁目５番１０号,,14,109,2220033,,,,,,,2023-05-08,1,,,,,オスモ,0
1046,4020001151448,新規,0,2023-05-08,2023-05-08,株式会社ＡＮＹ　ＭＯＲＥ,,株式会社,神奈川県,横浜市中区,野毛町１丁目３２番地,,14,104,2310064,,,,,,,2023-05-08,1,,,,,エニィモア,0
1049,4021001078920,新規,0,2023-05-08,2023-05-08,株式会社エムズブレイントラスト,,株式会社,神奈川県,鎌倉市,台１９８０番地７４,,14,204,2470061,,,,,,,2023-05-08,1,,,,,エムズブレイントラスト,0
1050,4021001078945,新規,0,2023-05-08,2023-05-08,株式会社あずき,,株式会社,神奈川県,藤沢市,亀井野３丁目１番地の５,,14,205,2520813,,,,,,,2023-05-08,1,,,,,アズキ,0
1052,4021003013058,新規,0,2023-05-08,2023-05-08,関東空き家リフォーム賃貸合同会社,,合同会社,神奈川県,横須賀市,森崎５丁目１番５号,,14,201,2380023,,,,,,,2023-05-08,1,,,,,カントウアキヤリフォームチンタイ,0
1061,4040001128213,新規,0,2023-05-08,2023-05-08,鳶八角株式会社,,株式会社,千葉県,松戸市,六高台９丁目５９番地２,,12,207,2702203,,,,,,,2023-05-08,1,,,,,トビハッカク,0
1062,4040001128221,新規,0,2023-05-08,2023-05-08,株式会社シルバード,,株式会社,千葉県,千葉市中央区,祐光４丁目７番５号－３Ｆ,,12,101,2600007,,,,,,,2023-05-08,1,,,,,シルバード,0
1063,4040001128238,新規,0,2023-05-08,2023-05-08,株式会社谷口工業,,株式会社,千葉県,松戸市,日暮２丁目３番地の８テックビル５０１号,,12,207,2702253,,,,,,,2023-05-08,1,,,,,タニグチコウギョウ,0
1064,4040001128287,新規,0,2023-05-08,2023-05-08,株式会社園田プロパティ,,株式会社,千葉県,八千代市,大和田新田９０５番地４６,,12,221,2760046,,,,,,,2023-05-08,1,,,,,ソノダプロパティ,0
1069,4050001052767,新規,0,2023-05-08,2023-05-08,株式会社ＣＪ商事,,株式会社,茨城県,東茨城郡茨城町,大字小幡１８番地２５,,08,302,3113157,,,,,,,2023-05-08,1,,,,,シージェイショウジ,0
1070,4050001052775,新規,0,2023-05-08,2023-05-08,ｓｔｕｄｉｏ　Ｏｚ株式会社,,株式会社,茨城県,つくば市,学園の森３丁目２９番地６ＲｕｐｏＡ棟－２Ｆ,,08,220,3050816,,,,,,,2023-05-08,1,,,,,スタジオオズ,0
1071,4050001052783,新規,0,2023-05-08,2023-05-08,株式会社雅住設,,株式会社,茨城県,日立市,川尻町５丁目２７番１号,,08,202,3191411,,,,,,,2023-05-08,1,,,,,ミヤビジュウセツ,0
1072,4050003007471,新規,0,2023-05-08,2023-05-08,合同会社Ｒフィールド,,合同会社,茨城県,古河市,南間中橋１３番地３０,,08,204,3060108,,,,,,,2023-05-08,1,,,,,アールフィールド,0
1074,4060001035977,新規,0,2023-05-08,2023-05-08,株式会社ＮｅＮｅＭｉ,,株式会社,栃木県,足利市,福居町１１７１番地２,,09,202,3260338,,,,,,,2023-05-08,1,,,,,ネネミ,0
1081,4080001025596,新規,0,2023-05-08,2023-05-08,利遠株式会社,,株式会社,静岡県,静岡市葵区,鷹匠１丁目９番６号渡辺ビル２Ｆ,,22,101,4200839,,,,,,,2023-05-08,1,,,,,リエン,0
1083,4080003002973,新規,0,2023-05-08,2023-05-08,合同会社ＣＯＯＳ,,合同会社,静岡県,静岡市葵区,桜町１丁目５番１４号,,22,101,4200945,,,,,,,2023-05-08,1,,,,,クース,0
1085,4080101023979,新規,0,2023-05-08,2023-05-08,逆転の不動産株式会社,,株式会社,静岡県,富士市,青島町２２８番地２Ｆ,,22,210,4170047,,,,,,,2023-05-08,1,,,,,ギャクテンノフドウサン,0
1086,4080101023987,新規,0,2023-05-08,2023-05-08,株式会社山下,,株式会社,静岡県,賀茂郡南伊豆町,上賀茂７１番地,,22,304,4150302,,,,,,,2023-05-08,1,,,,,ヤマシタ,0
1089,4080401026467,新規,0,2023-05-08,2023-05-08,株式会社山下メロン園,,株式会社,静岡県,御前崎市,池新田１１８番地の２,,22,223,4371612,,,,,,,2023-05-08,1,,,,,ヤマシタメロンエン,0
1090,4080403004784,新規,0,2023-05-08,2023-05-08,合同会社ＭＹＴＨ,,合同会社,静岡県,御前崎市,池新田２８１０番地の３７,,22,223,4371612,,,,,,,2023-05-08,1,,,,,ミィス,0
1094,4100001036376,新規,0,2023-05-08,2023-05-08,テクノアルプス株式会社,,株式会社,長野県,長野市,大岡中牧１７６６番地１、１３号棟,,20,201,3812701,,,,,,,2023-05-08,1,,,,,テクノアルプス,0
1095,4100001036384,新規,0,2023-05-08,2023-05-08,株式会社Ｐａｓｓ　Ｆｉｎｄｅｒ,,株式会社,長野県,長野市,大字南長野西後町６１０－１２Ｒ－Ｄｅｐｏｔ３階Ｎ－西,,20,201,3800845,,,,,,,2023-05-08,1,,,,,パスファインダー,0
1096,4110001037497,新規,0,2023-05-08,2023-05-08,株式会社ヴァリアントシェイプ,,株式会社,新潟県,新潟市東区,東明３丁目１３番地４,,15,102,9500853,,,,,,,2023-05-08,1,,,,,ヴァリアントシェイプ,0
1111,4120001254538,新規,0,2023-05-08,2023-05-08,株式会社ブランズ,,株式会社,大阪府,大阪市北区,梅田１丁目１１番４号大阪駅前第４ビル２２階,,27,127,5300001,,,,,,,2023-05-08,1,,,,,ブランズ,0
1112,4120001254554,新規,0,2023-05-08,2023-05-08,株式会社晴レノ日,,株式会社,大阪府,大阪市天王寺区,四天王寺１丁目５番３７号ハイツグレードワン２Ａ,,27,109,5430051,,,,,,,2023-05-08,1,,,,,ハレノヒ,0
1113,4120001254562,新規,0,2023-05-08,2023-05-08,Ｐ．Ｌ．Ｃ株式会社,,株式会社,大阪府,大阪市淀川区,東三国４丁目１０番２号ＥＧ新御堂５０１号,,27,123,5320002,,,,,,,2023-05-08,1,,,,,ピーエルシー,0
1114,4120001254595,新規,0,2023-05-08,2023-05-08,久一株式会社,,株式会社,大阪府,大阪市淀川区,田川北２丁目５－３４・Ｃ棟３０２号室,,27,123,5320021,,,,,,,2023-05-08,1,,,,,キュウイチ,0
1115,4120001254637,新規,0,2023-05-08,2023-05-08,株式会社だるま商店,,株式会社,大阪府,大阪市北区,梅田１丁目１番３号大阪駅前第３ビル２５階,,27,127,5300001,,,,,,,2023-05-08,1,,,,,ダルマショウテン,0
1116,4120001254661,新規,0,2023-05-08,2023-05-08,株式会社ＢＬＡＹＮ,,株式会社,大阪府,大阪市福島区,吉野３丁目１２番２１－１１０３号,,27,103,5530006,,,,,,,2023-05-08,1,,,,,ブレイン,0
1117,4120001254678,新規,0,2023-05-08,2023-05-08,株式会社スペシャルドリームス,,株式会社,大阪府,大阪市西区,北堀江２丁目８－１６,,27,106,5500014,,,,,,,2023-05-08,1,,,,,スペシャルドリームス,0
1118,4120001254686,新規,0,2023-05-08,2023-05-08,株式会社ＩＮＦＩＮＩＴＹ,,株式会社,大阪府,大阪市北区,梅田１丁目２番２号大阪駅前第２ビル１２－１２,,27,127,5300001,,,,,,,2023-05-08,1,,,,,インフィニティ,0
1122,4120003023949,新規,0,2023-05-08,2023-05-08,合同会社Ｋ２,,合同会社,大阪府,大阪市東淀川区,下新庄５丁目１０番１７‐４０２号,,27,114,5330021,,,,,,,2023-05-08,1,,,,,ケーツー,0
1123,4120003023973,新規,0,2023-05-08,2023-05-08,合同会社ささみメディカル,,合同会社,大阪府,大阪市阿倍野区,北畠１丁目３番２６号,,27,119,5450035,,,,,,,2023-05-08,1,,,,,ササミメディカル,0
1129,4120901047487,新規,0,2023-05-08,2023-05-08,株式会社健美,,株式会社,大阪府,高槻市,栄町２丁目５１番８号,,27,207,5690825,,,,,,,2023-05-08,1,,,,,ケンビ,0
1139,4130001074217,新規,0,2023-05-08,2023-05-08,株式会社岩田屋,,株式会社,京都府,久世郡久御山町,大橋辺９番地,,26,322,6130046,,,,,,,2023-05-08,1,,,,,イワタヤ,0
1140,4130001074241,新規,0,2023-05-08,2023-05-08,株式会社ビブロス住宅産業,,株式会社,京都府,京都市下京区,烏丸通綾小路下る二帖半敷町６４６四条烏丸下ル東側ダイマルヤビル８階,,26,106,6008412,,,,,,,2023-05-08,1,,,,,ビブロスジュウタクサンギョウ,0
1141,4130001074266,新規,0,2023-05-08,2023-05-08,株式会社ＬＩＮＧ,,株式会社,京都府,京都市伏見区,深草大亀谷大山町３０番地３６,,26,109,6120847,,,,,,,2023-05-08,1,,,,,リン,0
1142,4130001074274,新規,0,2023-05-08,2023-05-08,株式会社Ｎ‐Ｌｅａｐ,,株式会社,京都府,京都市伏見区,下鳥羽城ノ越町１２２番地１,,26,109,6128466,,,,,,,2023-05-08,1,,,,,エヌリープ,0
1143,4130003008701,新規,0,2023-05-08,2023-05-08,合同会社四つ葉クリエイト,,合同会社,京都府,京都市東山区,本町１８丁目３７８番地２,,26,105,6050981,,,,,,,2023-05-08,1,,,,,ヨツバクリエイト,0
1148,4140001130027,新規,0,2023-05-08,2023-05-08,シャノワール株式会社,,株式会社,兵庫県,神戸市中央区,磯辺通４丁目２番８号田嶋ビル８階,,28,110,6510084,,,,,,,2023-05-08,1,,,,,シャノワール,0
1149,4140001130035,新規,0,2023-05-08,2023-05-08,株式会社春秋,,株式会社,兵庫県,神戸市西区,枝吉２丁目１２４番地の３,,28,111,6512133,,,,,,,2023-05-08,1,,,,,シュンジュウ,0
1150,4140001130076,新規,0,2023-05-08,2023-05-08,ジーテック株式会社,,株式会社,兵庫県,明石市,貴崎１丁目１０番１０－１０５号,,28,203,6730037,,,,,,,2023-05-08,1,,,,,ジーテック,0
1151,4140001130084,新規,0,2023-05-08,2023-05-08,株式会社Ａｒｉｈ,,株式会社,兵庫県,西宮市,奥畑３－１－２１６,,28,204,6620022,,,,,,,2023-05-08,1,,,,,アリー,0
1152,4140001130092,新規,0,2023-05-08,2023-05-08,株式会社ＹＯＳＨＩＤＡ,,株式会社,兵庫県,神戸市北区,山田町衝原字道南１番地の９,,28,109,6511264,,,,,,,2023-05-08,1,,,,,ヨシダ,0
1155,4140005026592,新規,0,2023-05-08,2023-05-08,一般社団法人竹田川漁業組合,,その他の設立登記法人,兵庫県,丹波市,市島町上田４４８番地の１,,28,223,6694322,,,,,,,2023-05-08,1,,,,,タケダガワ,0
1156,4150001026372,新規,0,2023-05-08,2023-05-08,株式会社ＶＥＳＰＩＤ,,株式会社,奈良県,高市郡高取町,大字藤井３９８番地,,29,401,6350112,,,,,,,2023-05-08,1,,,,,ヴェスピッド,0
1157,4150001026380,新規,0,2023-05-08,2023-05-08,株式会社モデナ,,株式会社,奈良県,生駒市,俵口町１４５０番地５８,,29,209,6300243,,,,,,,2023-05-08,1,,,,,モデナ,0
1158,4160001025010,新規,0,2023-05-08,2023-05-08,株式会社ａｎｄ　ＢＲＩＤＧＥ,,株式会社,滋賀県,大津市,大江７丁目６番６号,,25,201,5202141,,,,,,,2023-05-08,1,,,,,アンドブリッジ,0
1159,4160001025027,新規,0,2023-05-08,2023-05-08,株式会社ＡＬＩＶＥＢＡＳＥ,,株式会社,滋賀県,彦根市,東沼波町８９６番地,,25,202,5220027,,,,,,,2023-05-08,1,,,,,アライヴベース,0
1164,4170003001867,新規,0,2023-05-08,2023-05-08,合同会社小澤農園,,合同会社,和歌山県,有田郡有田川町,大字田口１４１１番地,,30,366,6430846,,,,,,,2023-05-08,1,,,,,オザワノウエン,0
1168,4180001156076,新規,0,2023-05-08,2023-05-08,株式会社どない家,,株式会社,愛知県,名古屋市中村区,椿町８番７号,,23,105,4530015,,,,,,,2023-05-08,1,,,,,ドナイヤ,0
1169,4180001156101,新規,0,2023-05-08,2023-05-08,株式会社レイン工業,,株式会社,愛知県,長久手市,岩作高山６３番地２,,23,238,4801103,,,,,,,2023-05-08,1,,,,,レインコウギョウ,0
1170,4180001156118,新規,0,2023-05-08,2023-05-08,正技株式会社,,株式会社,愛知県,半田市,南本町１丁目７１番地,,23,205,4750882,,,,,,,2023-05-08,1,,,,,セイギ,0
1171,4180001156126,新規,0,2023-05-08,2023-05-08,株式会社トライズ,,株式会社,愛知県,名古屋市中川区,一色新町１丁目１３０４番地,,23,110,4540946,,,,,,,2023-05-08,1,,,,,トライズ,0
1172,4180001156134,新規,0,2023-05-08,2023-05-08,株式会社平井技建,,株式会社,愛知県,春日井市,春日井町字町５１番地リバティフォレストＩＩ２０５号,00130372,23,206,4860963,,,,,,,2023-05-08,1,,,,,ヒライギケン,0
1173,4180001156167,新規,0,2023-05-08,2023-05-08,株式会社ＳＭＩ,,株式会社,愛知県,名古屋市瑞穂区,東栄町７丁目７番地の１,,23,108,4670017,,,,,,,2023-05-08,1,,,,,エスエムアイ,0
1174,4180001156175,新規,0,2023-05-08,2023-05-08,株式会社アイエムケー,,株式会社,愛知県,名古屋市熱田区,明野町１６番１３号,,23,109,4560071,,,,,,,2023-05-08,1,,,,,アイエムケー,0
1175,4180001156200,新規,0,2023-05-08,2023-05-08,株式会社ＳｏｕＫｉ,,株式会社,愛知県,清須市,大嶋２丁目３番地７,,23,233,4520934,,,,,,,2023-05-08,1,,,,,ソウキ,0
1182,4180301037364,新規,0,2023-05-08,2023-05-08,株式会社ＲＯＬＥ　ＣＯＦＦＥＥ　ｒｅｌａｔｉｖｅ,,株式会社,愛知県,岡崎市,緑丘１丁目２８番地９,,23,202,4440806,,,,,,,2023-05-08,1,,,,,ロールコーヒーリレイティヴ,0
1184,4190001030338,新規,0,2023-05-08,2023-05-08,株式会社岡村サービス,,株式会社,三重県,四日市市,河原田町８６７－７,,24,202,5100874,,,,,,,2023-05-08,1,,,,,,0
1185,4190001030362,新規,0,2023-05-08,2023-05-08,株式会社太令産業,,株式会社,三重県,松阪市,五主町１８９１番地２,,24,204,5152102,,,,,,,2023-05-08,1,,,,,タイレイサンギョウ,0
1186,4190001030379,新規,0,2023-05-08,2023-05-08,株式会社アートトップ三重,,株式会社,三重県,亀山市,栄町１５０１番地１９,,24,210,5190111,,,,,,,2023-05-08,1,,,,,アートトップミエ,0
1190,4200001041259,新規,0,2023-05-08,2023-05-08,ＳＲカラリエイト株式会社,,株式会社,岐阜県,多治見市,昭栄町９０番地の１１０,,21,204,5070076,,,,,,,2023-05-08,1,,,,,エスアールカラリエイト,0
1191,4200001041267,新規,0,2023-05-08,2023-05-08,梶田創建株式会社,,株式会社,岐阜県,羽島市,小熊町内粟野３丁目３６番地１,,21,209,5016262,,,,,,,2023-05-08,1,,,,,カジタソウケン,0
1192,4200001041275,新規,0,2023-05-08,2023-05-08,株式会社まさご,,株式会社,岐阜県,高山市,有楽町３１番地３,,21,203,5060013,,,,,,,2023-05-08,1,,,,,マサゴ,0
1194,4200003005947,新規,0,2023-05-08,2023-05-08,合同会社Ｏｎｅ　Ｅｉｇｈｔ,,合同会社,岐阜県,高山市,朝日町１３番地,,21,203,5060017,,,,,,,2023-05-08,1,,,,,ワンエイト,0
1197,4220001025383,新規,0,2023-05-08,2023-05-08,ＡＫ‐ＥＸ株式会社,,株式会社,石川県,金沢市,武蔵町８番５号,,17,201,9200855,,,,,,,2023-05-08,1,,,,,エーケーイーエックス,0
1198,4220001025391,新規,0,2023-05-08,2023-05-08,株式会社福田設備,,株式会社,石川県,白山市,宮永町２９４番地,,17,210,9240017,,,,,,,2023-05-08,1,,,,,フクダセツビ,0
1207,4240001061451,新規,0,2023-05-08,2023-05-08,カネモトホールディングス株式会社,,株式会社,広島県,広島市安佐北区,大林町４４５番地,,34,106,7310202,,,,,,,2023-05-08,1,,,,,カネモトホールディングス,0
1209,4240003006124,新規,0,2023-05-08,2023-05-08,合同会社ＨｆＧ,,合同会社,広島県,廿日市市,河津原８４７番地３,,34,213,7380204,,,,,,,2023-05-08,1,,,,,エイチエフジー,0
1219,4280001008928,新規,0,2023-05-08,2023-05-08,株式会社みんなの事務局,,株式会社,島根県,仁多郡奥出雲町,三沢４９９番地,,32,343,6991513,,,,,,,2023-05-08,1,,,,,ミンナノジムキョク,0
1224,4290001101376,新規,0,2023-05-08,2023-05-08,ＮＶＬＯＡＨＯＴＥＬ株式会社,,株式会社,福岡県,福岡市中央区,天神２丁目２－１３－２Ｆ,,40,133,8100001,,,,,,,2023-05-08,1,,,,,ナロアホテル,0
1225,4290001101418,新規,0,2023-05-08,2023-05-08,ＦＬＡＢＯ株式会社,,株式会社,福岡県,福岡市博多区,祇園町７番３号,,40,132,8120038,,,,,,,2023-05-08,1,,,,,フラボ,0
1226,4290001101426,新規,0,2023-05-08,2023-05-08,ＣＲＧ株式会社,,株式会社,福岡県,福岡市南区,屋形原４丁目１５番１４号,,40,134,8111351,,,,,,,2023-05-08,1,,,,,シーアールジー,0
1227,4290001101450,新規,0,2023-05-08,2023-05-08,防犯カメラセキュリティサービス株式会社,,株式会社,福岡県,福岡市南区,向野２丁目１番１号大橋ＡＩビル３階,,40,134,8150035,,,,,,,2023-05-08,1,,,,,ボウハンカメラセキュリティサービス,0
1233,4290003013867,新規,0,2023-05-08,2023-05-08,合同会社デジタルクリエイト,,合同会社,福岡県,福岡市中央区,平尾５丁目４番１７－５０２号ピュアシティー南山荘通り,,40,133,8100014,,,,,,,2023-05-08,1,,,,,デジタルクリエイト,0
1234,4290003013875,新規,0,2023-05-08,2023-05-08,合同会社五月社,,合同会社,福岡県,春日市,春日原北町１丁目３番地５２パークハウス春日原ステーションレジデンス６０２号,,40,218,8160802,,,,,,,2023-05-08,1,,,,,サツキシャ,0
1235,4290003013883,新規,0,2023-05-08,2023-05-08,合同会社エフテム,,合同会社,福岡県,福岡市東区,和白丘２丁目１６番１２号,,40,131,8110213,,,,,,,2023-05-08,1,,,,,エフテム,0
1236,4290003013891,新規,0,2023-05-08,2023-05-08,合同会社Ｆｒｅｋｙｅ,,合同会社,福岡県,福岡市東区,青葉３丁目３５－１６,,40,131,8130025,,,,,,,2023-05-08,1,,,,,フレッキー,0
1249,4310005008680,新規,0,2023-05-08,2023-05-08,医療法人Ｕ’ｓ　ｃｒｅａｔｅ,,その他の設立登記法人,長崎県,佐世保市,大宮町１７番１６号,,42,202,8570841,,,,,,,2023-05-08,1,,,,,ユーズクリエイト,0
1250,4330001030819,新規,0,2023-05-08,2023-05-08,株式会社Ｍｅ・ｔｒｅｅ,,株式会社,熊本県,熊本市北区,植木町辺田野８１番地１,,43,105,8610146,,,,,,,2023-05-08,1,,,,,ミーツリー,0
1252,4340001025553,新規,0,2023-05-08,2023-05-08,株式会社コーキサーベイ,,株式会社,鹿児島県,鹿児島市,上福元町５６７１番地２７,,46,201,8910116,,,,,,,2023-05-08,1,,,,,コーキサーベイ,0
1260,4370001049905,新規,0,2023-05-08,2023-05-08,ヒューマンブリッヂ株式会社,,株式会社,宮城県,仙台市若林区,六丁の目西町８番２２号,,04,103,9840011,,,,,,,2023-05-08,1,,,,,ヒューマンブリッヂ,0
1263,4380001033651,新規,0,2023-05-08,2023-05-08,株式会社ｈｕｎｇｒｙ　ｓｐｉｒｉｔ,,株式会社,福島県,田村郡三春町,大字熊耳字上荒井２３番地の３,,07,521,9637704,,,,,,,2023-05-08,1,,,,,ハングリースピリット,0
1266,4400001016232,新規,0,2023-05-08,2023-05-08,株式会社ＢＲＯＯＫ　Ｍｏｔｏｒ　Ｐｓｙｃｈｏ,,株式会社,岩手県,花巻市,山の神７５１番地２,,03,205,0250024,,,,,,,2023-05-08,1,,,,,ブロックモーターサイコ,0
1275,4430005014709,新規,0,2023-05-08,2023-05-08,オーバル行政書士法人,,その他の設立登記法人,北海道,札幌市中央区,南一条西６丁目２１番地１,,01,101,0600061,,,,,,,2023-05-08,1,,,,,オーバル,0
1279,4480001012091,新規,0,2023-05-08,2023-05-08,株式会社Ｌｅｇａｍｅ会計,,株式会社,徳島県,徳島市,東出来島町２７番地の１,,36,201,7700822,,,,,,,2023-05-08,1,,,,,レガーメカイケイ,0
1284,4500001024910,新規,0,2023-05-08,2023-05-08,希翔工業株式会社,,株式会社,愛媛県,今治市,高部乙１９番地５３,,38,202,7992113,,,,,,,2023-05-08,1,,,,,キショウコウギョウ,0
1285,4500003003029,新規,0,2023-05-08,2023-05-08,塚本エージェンシー合同会社,,合同会社,愛媛県,今治市,山路町１丁目１番６６号,,38,202,7940071,,,,,,,2023-05-08,1,,,,,ツカモトエージェンシー,0
1286,4700150115267,新規,0,2023-05-08,2023-04-19,高槻シティハーフマラソン実行委員会,,その他,大阪府,高槻市,大手町３番４６号高槻商工会議所会館内,,27,207,5690078,,,,,,,2023-04-19,1,,,,,タカツキシテイハーフマラソンジツコウイインカイ,0
1287,4700150115911,新規,0,2023-05-08,2023-05-08,ＨＫ　ＶＥＺＺＥＲ　ＴＥＣＨＮＯＬＯＧＹ　ＬＩＭＩＴＥＤ,,外国会社等,,,,,,,,ＲＯＯＭ　０９－１８，２７／Ｆ，ＨＯ　ＫＩＮＧ　ＣＯＭＭＥＲＣＩＡＬ　ＣＥＮＴＲＥ，２－１６　ＦＡ　ＹＵＥＮ　ＳＴＲＥＥＴ，ＭＯＮＧＫＯＫ，ＫＯＷＬＯＯＮ　ＨＯＮＧ　ＫＯＮＧ,,,,,,2023-05-08,1,,,,,ホンコンウエザテクノロジーユウゲンコウシ,0
1288,4700150115928,新規,0,2023-05-08,2023-05-08,Ｎａｎｔｏｎｇ　ＺＹＤＺ　Ｅｌｅｃｔｒｏｎｉｃ　Ｃｏ．，Ｌｔｄ．,,外国会社等,,,,,,,,Ｒｏｏｍ　２０２，Ｂｌｏｃｋ　Ｆ，Ｎｏ　８６，Ｗａｉｈｕａｎ　Ｅａｓｔ　Ｒｏａｄ，Ｎａｎｔｏｎｇ　Ｃｉｔｙ,,,,,,2023-05-08,1,,,,,ナントウゼツトワイデイーゼツトカンパニーリミテツド,0
1299,5010001235052,新規,0,2023-05-08,2023-05-08,日本小林日用品株式会社,,株式会社,東京都,千代田区,神田佐久間町３丁目２８番地星野ビル５１５,,13,101,1010025,,,,,,,2023-05-08,1,,,,,,0
1300,5010001235069,新規,0,2023-05-08,2023-05-08,株式会社ＰｉｎｋＰａｄ,,株式会社,東京都,中央区,銀座１丁目１２番４号Ｎ＆ＥＢＬＤ．６Ｆ,,13,102,1040061,,,,,,,2023-05-08,1,,,,,ピンクパッド,0
1308,5010003040467,新規,0,2023-05-08,2023-05-08,合同会社若葉,,合同会社,東京都,中央区,日本橋室町１丁目１１番１２号日本橋水野ビル７階,,13,102,1030022,,,,,,,2023-05-08,1,,,,,ワカバ,0
1309,5010003040509,新規,0,2023-05-08,2023-05-08,合同会社ヴィソン・マナー,,合同会社,東京都,千代田区,丸の内２丁目２番２号,,13,101,1000005,,,,,,,2023-05-08,1,,,,,ヴィソンマナー,0
1312,5010005036604,新規,0,2023-05-08,2023-05-08,弁護士法人倉橋法律事務所,,その他の設立登記法人,東京都,千代田区,丸の内２丁目１番１号明治生命館８階,,13,101,1000005,,,,,,,2023-05-08,1,,,,,クラハシホウリツジムショ,0
1313,5010101015635,新規,0,2023-05-08,2023-05-08,株式会社ＫＳＢ,,株式会社,東京都,八王子市,楢原町６８１番地２７,,13,201,1930803,,,,,,,2023-05-08,1,,,,,ケーエスビー,0
1319,5010401173950,新規,0,2023-05-08,2023-05-08,豊将株式会社,,株式会社,東京都,港区,赤坂３丁目１－１６ＢＩビル,,13,103,1070052,,,,,,,2023-05-08,1,,,,,ホウショウ,0
1320,5010401174107,新規,0,2023-05-08,2023-05-08,株式会社ＦＵＪＩＨＡＲＵ　ＢＵＴＴＥＲ,,株式会社,東京都,港区,元麻布２丁目１番１７号１階,,13,103,1060046,,,,,,,2023-05-08,1,,,,,フジハルバター,0
1321,5010401174115,新規,0,2023-05-08,2023-05-08,Ｈｅｒｍｅｓ‐Ｅｐｉｔｅｋ　Ｊａｐａｎ株式会社,,株式会社,東京都,港区,赤坂２丁目８番１４－５０４号,,13,103,1070052,,,,,,,2023-05-08,1,,,,,ハーメスエピテックジャパン,0
1322,5010401174148,新規,0,2023-05-08,2023-05-08,Ｍｂｌｏｏｍ株式会社,,株式会社,東京都,港区,白金１丁目２番２号,,13,103,1080072,,,,,,,2023-05-08,1,,,,,エムブルーム,0
1328,5010501050406,新規,0,2023-05-08,2023-05-08,株式会社浅草忍家,,株式会社,東京都,台東区,雷門２丁目５番５号,,13,106,1110034,,,,,,,2023-05-08,1,,,,,アサクサシノビヤ,0
1347,5011001154176,新規,0,2023-05-08,2023-05-08,パーシモンキャピタル株式会社,,株式会社,東京都,目黒区,平町２丁目１２番４号,,13,110,1520032,,,,,,,2023-05-08,1,,,,,パーシモンキャピタル,0
1348,5011001154184,新規,0,2023-05-08,2023-05-08,株式会社ＭＡＮＩＭＡＬ,,株式会社,東京都,渋谷区,笹塚１丁目５７番１０号笹塚駅前ビル２Ｆ,,13,113,1510073,,,,,,,2023-05-08,1,,,,,マニマル,0
1349,5011001154192,新規,0,2023-05-08,2023-05-08,株式会社ＹＵＩＭＡ　ＮＡＫＡＺＡＴＯ　ＬＡＢＯＲＡＴＯＲＹ,,株式会社,東京都,渋谷区,桜丘町２６番１号セルリアンタワー１５階,,13,113,1500031,,,,,,,2023-05-08,1,,,,,ユイマナカザトラボラトリー,0
1350,5011001154201,新規,0,2023-05-08,2023-05-08,イクスコアクリエイティブ株式会社,,株式会社,東京都,渋谷区,南平台町１６番２８号Ｄａｉｗａ渋谷スクエア６階,,13,113,1500036,,,,,,,2023-05-08,1,,,,,イクスコアクリエイティブ,0
1355,5011003016762,新規,0,2023-05-08,2023-05-08,Ｅｎｊｏｙ　Ｐｌａｙ　Ｅｎｔｅｒｔａｉｎｍｅｎｔ合同会社,,合同会社,東京都,渋谷区,神宮前６丁目２３番４号桑野ビル２階,,13,113,1500001,,,,,,,2023-05-08,1,,,,,エンジョイプレイエンターテイメント,0
1362,5011103013016,新規,0,2023-05-08,2023-05-08,合同会社ハートゴールド,,合同会社,東京都,新宿区,高田馬場４丁目１６番１０号アーバンプレイス高田馬場ＶＩＩ１０２号,00130373,13,104,1690075,,,,,,,2023-05-08,1,,,,,ハートゴールド,0
1364,5011201024617,新規,0,2023-05-08,2023-05-08,株式会社マルキン,,株式会社,東京都,中野区,中野５丁目５２番１５号ブロードウェイＢ１Ｆ,,13,114,1640001,,,,,,,2023-05-08,1,,,,,マルキン,0
1365,5011503005595,新規,0,2023-05-08,2023-05-08,合同会社ＤＫ,,合同会社,東京都,北区,赤羽北２丁目３３－８－１２０１,,13,117,1150052,,,,,,,2023-05-08,1,,,,,デイケイ,0
1371,5011803005634,新規,0,2023-05-08,2023-05-08,荒木興業合同会社,,合同会社,東京都,葛飾区,東金町５丁目２９－３,,13,122,1250041,,,,,,,2023-05-08,1,,,,,アラキコウギョウ,0
1374,5012701017639,新規,0,2023-05-08,2023-05-08,株式会社ＵＣＴ,,株式会社,東京都,東村山市,栄町１丁目２４番２８号第３荒野ビル２階,,13,213,1890013,,,,,,,2023-05-08,1,,,,,ユーシーティー,0
1375,5012801022324,新規,0,2023-05-08,2023-05-08,株式会社ＣＯＰＬＡＴ,,株式会社,東京都,国分寺市,泉町３丁目２９番１２号,,13,214,1850024,,,,,,,2023-05-08,1,,,,,コプラット,0
1376,5012803003074,新規,0,2023-05-08,2023-05-08,合同会社レッドバロウ,,合同会社,東京都,国立市,中１丁目１０番４号,,13,215,1860004,,,,,,,2023-05-08,1,,,,,レッドバロウ,0
1382,5013301050699,新規,0,2023-05-08,2023-05-08,涌銘株式会社,,株式会社,東京都,豊島区,西池袋１丁目３１－５白井ビル３－１１号室,,13,116,1710021,,,,,,,2023-05-08,1,,,,,ヨウメイ,0
1383,5013301050708,新規,0,2023-05-08,2023-05-08,プロンプトテックスターズ株式会社,,株式会社,東京都,豊島区,千早２丁目１８番４号富有マンション１Ｆ,,13,116,1710044,,,,,,,2023-05-08,1,,,,,プロンプトテックスターズ,0
1388,5020001151389,新規,0,2023-05-08,2023-05-08,株式会社ＴＷＥＬＶＥ　ＲＥＧＵＬＡＲＩＴＹ,,株式会社,神奈川県,横浜市西区,浅間町１丁目４番３号ウィザードビル４０２,,14,103,2200072,,,,,,,2023-05-08,1,,,,,,0
1389,5020001151447,新規,0,2023-05-08,2023-05-08,株式会社小澤工建,,株式会社,神奈川県,横浜市瀬谷区,阿久和南２丁目２３番地２４,,14,114,2460026,,,,,,,2023-05-08,1,,,,,オザワコウケン,0
1390,5020001151455,新規,0,2023-05-08,2023-05-08,株式会社ＳＫサービス,,株式会社,神奈川県,横浜市青葉区,つつじが丘２３番地７ニック青葉台２０８,,14,117,2270055,,,,,,,2023-05-08,1,,,,,エスケーサービス,0
1396,5020003023867,新規,0,2023-05-08,2023-05-08,合同会社スビカ,,合同会社,神奈川県,横浜市保土ケ谷区,岩井町１１１番地１－２１１,,14,106,2400023,,,,,,,2023-05-08,1,,,,,スビカ,0
1397,5021001078928,新規,0,2023-05-08,2023-05-08,株式会社スカイアップ,,株式会社,神奈川県,横須賀市,津久井１丁目１０番７号ヴィラ津久井浜Ａー３,,14,201,2390843,,,,,,,2023-05-08,1,,,,,スカイアップ,0
1398,5021001078952,新規,0,2023-05-08,2023-05-08,株式会社ジャパンテニスラボラトリー,,株式会社,神奈川県,藤沢市,天神町１丁目２０番地の１,,14,205,2520814,,,,,,,2023-05-08,1,,,,,ジャパンテニスラボラトリー,0
1403,5030001153780,新規,0,2023-05-08,2023-05-08,インベストメント・ファシリティーズ株式会社,,株式会社,埼玉県,入間郡越生町,大字如意６８８番地,,11,327,3500413,,,,,,,2023-05-08,1,,,,,インベストメントファシリティーズ,0
1411,5040003022487,新規,0,2023-05-08,2023-05-08,信立合同会社,,合同会社,千葉県,鎌ケ谷市,佐津間１０４８番地８,,12,224,2730136,,,,,,,2023-05-08,1,,,,,シンリツ,0
1413,5050001052766,新規,0,2023-05-08,2023-05-08,株式会社ヒュースト,,株式会社,茨城県,龍ケ崎市,愛戸町８１番地２号,,08,208,3010838,,,,,,,2023-05-08,1,,,,,ヒュースト,0
1415,5060001035951,新規,0,2023-05-08,2023-05-08,株式会社Ｃ‐ＦＯＲＴＥ,,株式会社,栃木県,足利市,八幡町５１１番地１,,09,202,3260824,,,,,,,2023-05-08,1,,,,,シーフォルテ,0
1420,5070001040356,新規,0,2023-05-08,2023-05-08,サンスタッフ株式会社,,株式会社,群馬県,館林市,赤生田本町２６８６番地の１,,10,207,3740014,,,,,,,2023-05-08,1,,,,,サンスタッフ,0
1421,5070001040389,新規,0,2023-05-08,2023-05-08,株式会社Ｎ’ｓ　Ｃｏｍｐａｎｙ,,株式会社,群馬県,北群馬郡吉岡町,大字大久保３１４番地１１,,10,345,3703602,,,,,,,2023-05-08,1,,,,,エヌズカンパニー,0
1422,5070001040422,新規,0,2023-05-08,2023-05-08,株式会社シニアファースト,,株式会社,群馬県,太田市,大原町１０９番地３４,,10,205,3792304,,,,,,,2023-05-08,1,,,,,シニアファースト,0
1426,5080001025604,新規,0,2023-05-08,2023-05-08,株式会社タカノアセットマネジメント,,株式会社,静岡県,静岡市駿河区,豊田３丁目１０番１６号,,22,102,4228027,,,,,,,2023-05-08,1,,,,,タカノアセットマネジメント,0
1428,5080101023978,新規,0,2023-05-08,2023-05-08,株式会社ＡＢ　Ｅｎｔｅｒｔａｉｎｍｅｎｔ,,株式会社,静岡県,富士市,伝法１６９２番地の５,,22,210,4170061,,,,,,,2023-05-08,1,,,,,アベエンターテイメント,0
1429,5080101023986,新規,0,2023-05-08,2023-05-08,株式会社しスコんず．,,株式会社,静岡県,三島市,中７１番地の２,,22,206,4110833,,,,,,,2023-05-08,1,,,,,シスコンズドット,0
1430,5080103002798,新規,0,2023-05-08,2023-05-08,合同会社マービンズ,,合同会社,静岡県,沼津市,東熊堂２３番地の１,,22,203,4100013,,,,,,,2023-05-08,1,,,,,マービンズ,0
1440,5100005013008,新規,0,2023-05-08,2023-05-08,一般社団法人長野政策研究会,,その他の設立登記法人,長野県,長野市,鬼無里１６１５－３,,20,201,3814301,,,,,,,2023-05-08,1,,,,,ナガノセイサクケンキュウカイ,0
1456,5120001254545,新規,0,2023-05-08,2023-05-08,株式会社Ｓｈｉｓｙａｍｏ,,株式会社,大阪府,大阪市北区,鶴野町４番１１号朝日プラザ梅田６０６号,,27,127,5300014,,,,,,,2023-05-08,1,,,,,シシャモ,0
1457,5120001254553,新規,0,2023-05-08,2023-05-08,株式会社ＵＴＡＨＡ,,株式会社,大阪府,大阪市東住吉区,山坂５丁目２番１７号レジオン山坂１０１号室,,27,121,5460035,,,,,,,2023-05-08,1,,,,,ウタハ,0
1458,5120001254578,新規,0,2023-05-08,2023-05-08,株式会社ＭＳＳ,,株式会社,大阪府,大阪市北区,国分寺１丁目２番３１－１１１１号,,27,127,5310064,,,,,,,2023-05-08,1,,,,,エムエスエス,0
1459,5120001254628,新規,0,2023-05-08,2023-05-08,株式会社新富工業,,株式会社,大阪府,大阪市東成区,大今里南２丁目３番５号エイチ・ツーオー今里東８０１号,,27,115,5370013,,,,,,,2023-05-08,1,,,,,シントミコウギョウ,0
1460,5120001254644,新規,0,2023-05-08,2023-05-08,株式会社ジャパン,,株式会社,大阪府,大阪市生野区,巽東３丁目９－３１ルイシャトレ巽東７０８室,00130365,27,116,5440014,,,,,,,2023-05-08,1,,,,,ジャパン,0
1461,5120001254685,新規,0,2023-05-08,2023-05-08,株式会社ＦＲＥＥＶＥＮ,,株式会社,大阪府,大阪市中央区,西心斎橋１丁目６－２３サブリ南ビル２Ｆ,,27,128,5420086,,,,,,,2023-05-08,1,,,,,フリーブン,0
1462,5120001254702,新規,0,2023-05-08,2023-05-08,株式会社Ｒｅｇｒｏｗ,,株式会社,大阪府,大阪市天王寺区,寺田町２丁目４番１２号近畿第３ビル２階,,27,109,5430045,,,,,,,2023-05-08,1,,,,,リグロウ,0
1463,5120001254710,新規,0,2023-05-08,2023-05-08,株式会社エヌ電気,,株式会社,大阪府,大阪市住吉区,墨江４丁目９番８号,,27,120,5580043,,,,,,,2023-05-08,1,,,,,エヌデンキ,0
1467,5120003023972,新規,0,2023-05-08,2023-05-08,合同会社ＡＲＲＯＷＯＯＤ,,合同会社,大阪府,大阪市福島区,福島７丁目２０番１８－３２０６号,,27,103,5530003,,,,,,,2023-05-08,1,,,,,アローウッド,0
1468,5120003023980,新規,0,2023-05-08,2023-05-08,ウェブアソシエイト合同会社,,合同会社,大阪府,大阪市住吉区,苅田５丁目７番２４－４０１号,,27,120,5580011,,,,,,,2023-05-08,1,,,,,ウェブアソシエイト,0
1469,5120003023989,新規,0,2023-05-08,2023-05-08,プロジェクトパートナー合同会社,,合同会社,大阪府,大阪市北区,豊崎３丁目１５番５号ＴＫビル２階コモンルーム中津,,27,127,5310072,,,,,,,2023-05-08,1,,,,,プロジェクトパートナー,0
1470,5120003023997,新規,0,2023-05-08,2023-05-08,アクテン合同会社,,合同会社,大阪府,大阪市生野区,舎利寺３丁目１４－３０,,27,116,5440022,,,,,,,2023-05-08,1,,,,,アクテン,0
1471,5120005023599,新規,0,2023-05-08,2023-05-08,一般社団法人愛玩動物看護師歯科教育推進機構,,その他の設立登記法人,大阪府,大阪市東成区,中道３丁目８番１１号ＮＫビル４階,,27,115,5370025,,,,,,,2023-05-08,1,,,,,アイガンドウブツカンゴシシカキョウイクスイシンキコウ,0
1472,5120101067475,新規,0,2023-05-08,2023-05-08,株式会社東陽エナジー,,株式会社,大阪府,堺市堺区,中安井町３丁１番２４号,,27,141,5900063,,,,,,,2023-05-08,1,,,,,トウヨウエナジー,0
1475,5120901047486,新規,0,2023-05-08,2023-05-08,株式会社啓光,,株式会社,大阪府,茨木市,三島丘２丁目２１番３号,,27,211,5670021,,,,,,,2023-05-08,1,,,,,ケイコウ,0
1482,5130001074216,新規,0,2023-05-08,2023-05-08,株式会社トラストエージェント,,株式会社,京都府,宇治市,羽拍子町１－３３,,26,204,6110027,,,,,,,2023-05-08,1,,,,,トラストエージェント,0
1483,5130001074224,新規,0,2023-05-08,2023-05-08,株式会社ＵＴＯ,,株式会社,京都府,京都市下京区,平屋町４２０番地,,26,106,6008109,,,,,,,2023-05-08,1,,,,,ウト,0
1484,5130001074240,新規,0,2023-05-08,2023-05-08,まんぷく株式会社,,株式会社,京都府,福知山市,夜久野町千原５８８番地,,26,201,6291305,,,,,,,2023-05-08,1,,,,,マンプク,0
1485,5130001074249,新規,0,2023-05-08,2023-05-08,株式会社ＴＲＹＲＯＮ,,株式会社,京都府,京都市伏見区,深草西浦町８丁目４１－５,,26,109,6120029,,,,,,,2023-05-08,1,,,,,トライロン,0
1486,5130001074265,新規,0,2023-05-08,2023-05-08,株式会社ＣＡＢＣ,,株式会社,京都府,綴喜郡井手町,大字井手小字段ノ下１番地の４,,26,343,6100302,,,,,,,2023-05-08,1,,,,,シーエービーシー,0
1491,5130005016767,新規,0,2023-05-08,2023-05-08,一般社団法人脳疲労セラピスト協会,,その他の設立登記法人,京都府,京都市上京区,観三橘町５８５,,26,102,6020903,,,,,,,2023-05-08,1,,,,,ノウヒロウセラピストキョウカイ,0
1498,5140001130018,新規,0,2023-05-08,2023-05-08,株式会社ＫＣＳ,,株式会社,兵庫県,三木市,志染町青山２丁目９番地の９,,28,215,6730521,,,,,,,2023-05-08,1,,,,,ケーシーエス,0
1499,5140001130075,新規,0,2023-05-08,2023-05-08,直井商事株式会社,,株式会社,兵庫県,神戸市兵庫区,上沢通７丁目３番３号,,28,105,6520046,,,,,,,2023-05-08,1,,,,,ナオイショウジ,0
1500,5140001130091,新規,0,2023-05-08,2023-05-08,株式会社ＢＬＵＥＷＡＶＥ,,株式会社,兵庫県,西宮市,西宮浜４丁目８番７－１０５号,,28,204,6620934,,,,,,,2023-05-08,1,,,,,ブルーウェーブ,0
1501,5140001130100,新規,0,2023-05-08,2023-05-08,株式会社ＫＳイノベーション,,株式会社,兵庫県,加西市,山下町２３５４番地の１２,,28,220,6752354,,,,,,,2023-05-08,1,,,,,ケーエスイノベーション,0
1505,5140005026600,新規,0,2023-05-08,2023-05-08,一般社団法人ＩＣＥＲＣ　Ｊａｐａｎ,,その他の設立登記法人,兵庫県,明石市,大久保町西島１０５７－１,,28,203,6740065,,,,,,,2023-05-08,1,,,,,アイサーチジャパン,0
1509,5160001025018,新規,0,2023-05-08,2023-05-08,Ｋ’ｓ　ａｒｃｓ株式会社,,株式会社,滋賀県,長浜市,新庄寺町２８２番地８,,25,203,5260013,,,,,,,2023-05-08,1,,,,,ケーズアークス,0
1514,5180001004119,新規,0,2023-05-08,2023-05-08,サン都市開発株式会社,,株式会社,愛知県,名古屋市千種区,千種通７丁目２２番地１,,23,101,4640855,,,,,,,2023-05-08,1,,,,,サントシカイハツ,0
1517,5180001156018,新規,0,2023-05-08,2023-05-08,久遠株式会社,,株式会社,愛知県,名古屋市中村区,若宮町３丁目８番地オーラム第二若宮町３０３号,,23,105,4530023,,,,,,,2023-05-08,1,,,,,クオン,0
1518,5180001156075,新規,0,2023-05-08,2023-05-08,株式会社廉テック,,株式会社,愛知県,名古屋市南区,砂口町１４０番地の２,,23,112,4570054,,,,,,,2023-05-08,1,,,,,レンテック,0
1519,5180001156117,新規,0,2023-05-08,2023-05-08,株式会社フォーリング,,株式会社,愛知県,名古屋市守山区,大字吉根字太鼓ケ根３２１１番地の３３４,,23,113,4630004,,,,,,,2023-05-08,1,,,,,フォーリング,0
1520,5180001156133,新規,0,2023-05-08,2023-05-08,株式会社ＣＲＥＡＩＤ,,株式会社,愛知県,一宮市,浅野字寺西５９番地５,,23,203,4910871,,,,,,,2023-05-08,1,,,,,クリエイド,0
1521,5180001156141,新規,0,2023-05-08,2023-05-08,株式会社冨士木,,株式会社,愛知県,海部郡蟹江町,桜２丁目４３番地サンリットＩ２０２号,00130378,23,425,4970038,,,,,,,2023-05-08,1,,,,,フジキ,0
1522,5180001156182,新規,0,2023-05-08,2023-05-08,株式会社ソーボーズ,,株式会社,愛知県,名古屋市中区,千代田１丁目１０番１６号,,23,106,4600012,,,,,,,2023-05-08,1,,,,,ソーボーズ,0
1527,5180003025187,新規,0,2023-05-08,2023-05-08,合同会社Ｆｒｏｓｃｈ,,合同会社,愛知県,一宮市,松山町１番地２９,,23,203,4910085,,,,,,,2023-05-08,1,,,,,フロッシュ,0
1529,5180005020211,新規,0,2023-05-08,2023-05-08,一般社団法人Ｔｗｉｎｋｌｅ　Ｂｅｌｌｓ,,その他の設立登記法人,愛知県,稲沢市,稲島町洲原東４６３９番地３サンマンションアトレ国府宮４０４,,23,220,4928207,,,,,,,2023-05-08,1,,,,,トゥインクルベルズ,0
1531,5180301037355,新規,0,2023-05-08,2023-05-08,株式会社ＧＥＮＫＩ,,株式会社,愛知県,豊橋市,中岩田３丁目１３番地１５,,23,201,4400832,,,,,,,2023-05-08,1,,,,,ゲンキ,0
1532,5180301037363,新規,0,2023-05-08,2023-05-08,株式会社蒲郡工業,,株式会社,愛知県,蒲郡市,形原町西根崎２２番地８,,23,214,4430104,,,,,,,2023-05-08,1,,,,,ガマゴオリコウギョウ,0
1534,5180303005698,新規,0,2023-05-08,2023-05-08,合同会社ＳＥＬＥＣＴＩＯＮＩＮＴＥＲＩＯＲ,,合同会社,愛知県,西尾市,一色町一色塩浜２４－２５,,23,213,4440423,,,,,,,2023-05-08,1,,,,,セレクションインテリア,0
1539,5200001041167,新規,0,2023-05-08,2023-05-08,ＫＲＳホールディングス株式会社,,株式会社,岐阜県,土岐市,泉町大富９１６番地の３３,,21,212,5095132,,,,,,,2023-05-08,1,,,,,ケーアールエスホールディングス,0
1540,5200001041258,新規,0,2023-05-08,2023-05-08,株式会社ｉｔ,,株式会社,岐阜県,海津市,海津町松木６８１番地１,,21,221,5030601,,,,,,,2023-05-08,1,,,,,イット,0
1546,5220001025382,新規,0,2023-05-08,2023-05-08,株式会社萬屋商会,,株式会社,石川県,小松市,大和町８番地,,17,203,9230952,,,,,,,2023-05-08,1,,,,,ヨロヅヤショウカイ,0
1549,5220005008755,新規,0,2023-05-08,2023-05-08,医療法人社団ただ歯科クリニック,,その他の設立登記法人,石川県,金沢市,須崎町甲１７番地,,17,201,9200207,,,,,,,2023-05-08,1,,,,,タダシカクリニック,0
1551,5230003002008,新規,0,2023-05-08,2023-05-08,合同会社ｍｉｎｏ　ｒｕｓｈ,,合同会社,富山県,南砺市,松原１１番地,,16,210,9391518,,,,,,,2023-05-08,1,,,,,ミノラッシュ,0
1554,5240001061442,新規,0,2023-05-08,2023-05-08,広勝設備株式会社,,株式会社,広島県,広島市佐伯区,吉見園７番２７号１Ｆ,,34,108,7315132,,,,,,,2023-05-08,1,,,,,ヒロカツセツビ,0
1555,5240001061450,新規,0,2023-05-08,2023-05-08,株式会社ワキノ建装,,株式会社,広島県,広島市安佐南区,相田１丁目５番３号,,34,105,7310141,,,,,,,2023-05-08,1,,,,,ワキノケンソウ,0
1559,5260001037928,新規,0,2023-05-08,2023-05-08,株式会社ＨＫインフィニティ,,株式会社,岡山県,総社市,総社１丁目１７番６号,,33,208,7191126,,,,,,,2023-05-08,1,,,,,エイチケイインフィニティ,0
1569,5290001101350,新規,0,2023-05-08,2023-05-08,地道国際商事株式会社,,株式会社,福岡県,福岡市東区,香椎照葉７丁目１３番２９号,,40,131,8130017,,,,,,,2023-05-08,1,,,,,チドウコクサイショウジ,0
1570,5290001101400,新規,0,2023-05-08,2023-05-08,九商株式会社,,株式会社,福岡県,福岡市城南区,友丘６丁目１０番５号,,40,136,8140112,,,,,,,2023-05-08,1,,,,,キュウショウ,0
1571,5290001101417,新規,0,2023-05-08,2023-05-08,株式会社アンク,,株式会社,福岡県,福岡市博多区,上川端町１２番１号,,40,132,8120026,,,,,,,2023-05-08,1,,,,,アンク,0
1572,5290001101433,新規,0,2023-05-08,2023-05-08,株式会社ファイアワークス,,株式会社,福岡県,福岡市博多区,博多駅前３丁目１０番２－４０５号,,40,132,8120011,,,,,,,2023-05-08,1,,,,,ファイアワークス,0
1575,5290003013882,新規,0,2023-05-08,2023-05-08,合同会社いまむら,,合同会社,福岡県,福岡市中央区,渡辺通５丁目６番１８－４０４号,,40,133,8100004,,,,,,,2023-05-08,1,,,,,イマムラ,0
1577,5290005019036,新規,0,2023-05-08,2023-05-08,医療法人やまうちクリニック,,その他の設立登記法人,福岡県,福岡市早良区,重留７丁目１８番１号,,40,137,8111101,,,,,,,2023-05-08,1,,,,,ヤマウチクリニック,0
1580,5330001030818,新規,0,2023-05-08,2023-05-08,株式会社Ｄ＆Ｍ,,株式会社,熊本県,合志市,豊岡２５２７番地５９８,,43,216,8611115,,,,,,,2023-05-08,1,,,,,ディーアンドエム,0
1581,5330003009827,新規,0,2023-05-08,2023-05-08,合同会社ｒｙｍｏｆｆｉｃｅｗｏｒｋ,,合同会社,熊本県,熊本市東区,下江津１丁目１４番７号,,43,102,8620960,,,,,,,2023-05-08,1,,,,,リムオフィスワーク,0
1587,5350001018332,新規,0,2023-05-08,2023-05-08,株式会社Ｍ３,,株式会社,宮崎県,都城市,祝吉２丁目４番地２,,45,202,8850019,,,,,,,2023-05-08,1,,,,,エムスリー,0
1594,5360001031961,新規,0,2023-05-08,2023-05-08,ＳｕｎＨｏｍｅｓ株式会社,,株式会社,沖縄県,南城市,大里字仲間１０１９番地,,47,215,9011206,,,,,,,2023-05-08,1,,,,,サンホームズ,0
1596,5370003006119,新規,0,2023-05-08,2023-05-08,合同会社ＣＡＬＭ,,合同会社,宮城県,仙台市青葉区,中央１丁目７番４号宮城商事ビル４Ｆ,,04,101,9800021,,,,,,,2023-05-08,1,,,,,カーム,0
1601,5380001033650,新規,0,2023-05-08,2023-05-08,株式会社ネイズ,,株式会社,福島県,郡山市,富田町字坦ノ腰４５番地の１,,07,203,9638041,,,,,,,2023-05-08,1,,,,,ネイズ,0
1602,5380001033659,新規,0,2023-05-08,2023-05-08,株式会社ＬｅＦ,,株式会社,福島県,会津若松市,花見ケ丘２丁目１０番１２号,,07,202,9650822,,,,,,,2023-05-08,1,,,,,リーフ,0
1603,5380001033667,新規,0,2023-05-08,2023-05-08,福田塗装工業株式会社,,株式会社,福島県,いわき市,小名浜大原字芳原３８番地の７,,07,204,9718111,,,,,,,2023-05-08,1,,,,,フクダトソウコウギョウ,0
1607,5390001017248,新規,0,2023-05-08,2023-05-08,ＯｌｄＮｅｗ株式会社,,株式会社,山形県,米沢市,赤芝町１７８８番地の５,,06,202,9920075,,,,,,,2023-05-08,1,,,,,オールドニュー,0
1609,5400001016231,新規,0,2023-05-08,2023-05-08,株式会社シャイニングライフ,,株式会社,岩手県,盛岡市,中堤町３０番８号,,03,201,0200131,,,,,,,2023-05-08,1,,,,,シャイニングライフ,0
1625,5430001088994,新規,0,2023-05-08,2023-05-08,ｇｅｒａｌ株式会社,,株式会社,北海道,札幌市北区,北三十四条西５丁目１－２０－５１１,,01,102,0010034,,,,,,,2023-05-08,1,,,,,ジェラル,0
1626,5440001009256,新規,0,2023-05-08,2023-05-08,株式会社ｋａｍｅ‐ＩＣＴ,,株式会社,北海道,久遠郡せたな町,北檜山区北檜山６４番地２,,01,371,0494501,,,,,,,2023-05-08,1,,,,,カメアイシーティー,0
1627,5450001013975,新規,0,2023-05-08,2023-05-08,株式会社大一幸商,,株式会社,北海道,上川郡美瑛町,本町４丁目３番３号,,01,459,0710208,,,,,,,2023-05-08,1,,,,,ダイイチコウショウ,0
1632,5470001019590,新規,0,2023-05-08,2023-05-08,株式会社Ｍｉｙｏｓｈｉ’Ｓ,,株式会社,香川県,さぬき市,寒川町石田東甲５３４－１ロイヤルコート布勢Ａ１０３,,37,206,7692321,,,,,,,2023-05-08,1,,,,,,0
1633,5470001019599,新規,0,2023-05-08,2023-05-08,株式会社たかはし電設,,株式会社,香川県,東かがわ市,三本松１３１０番地１７,,37,207,7692601,,,,,,,2023-05-08,1,,,,,タカハシデンセツ,0
1634,5470003002413,新規,0,2023-05-08,2023-05-08,合同会社ＮＩＣＯＰＡＩＮ,,合同会社,香川県,東かがわ市,南野７８３番地１,,37,207,7692903,,,,,,,2023-05-08,1,,,,,ニコパン,0
1635,5480003001975,新規,0,2023-05-08,2023-05-08,合同会社Ｓ＆Ｔ,,合同会社,徳島県,徳島市,大原町内開８４番地の７,,36,201,7708012,,,,,,,2023-05-08,1,,,,,エスアンドティー,0
1639,5700150115910,新規,0,2023-05-08,2023-05-08,ｓｈｅｎｚｈｅｎｓｈｉｓｈｅｎｇｌｉｎｑｉｊｉｎｇｋｅｊｉｙｏｕｘｉａｎｇｏｎｇｓｉ,,外国会社等,,,,,,,,ｎａｎｓｈａｎｑｕｓｈａｈｅｊｉｅｄａｏｇｕａｎｇｈｕａｊｉｅｓｈｅｑｕｘｉａｎｇｓｈａｎｄｏｎｇｊｉｅ１ｈａｏｈｕａｑｉａｏｃｈｅｎｇｄｏｎｇｂｕｇｏｎｇｙｅｑｕＨ２ｄｏｎｇ３１４,,,,,,2023-05-08,1,,,,,シンセンシセイリンチキヨテクノロジーユウゲンコウシ,0
1640,5700150115919,新規,0,2023-05-08,2023-05-08,Ｘｕｄａｄａ　Ｉｎｔｅｒｎａｔｉｏｎａｌ　Ｔｒａｄｉｎｇ　Ｓｈｅｎｚｈｅｎ　Ｃｏ．，Ｌｔｄ,,外国会社等,,,,,,,,ｎａｎｆａｎｇｄａｓｈａ　４１８　ｓｈａｎｇｂｕｇｏｎｇｙｅｑｕ　Ｓｈｅｎｚｈｅｎ　ｆｕｔｉａｎ　Ｇｕａｎｇｄｏｎｇ，Ｃｈｉｎａ,,,,,,2023-05-08,1,,,,,ジヨダイダイインターナシヨナルトレーデイングシンセンカンパニーリミテツド,0
1641,5700150115927,新規,0,2023-05-08,2023-05-08,Ｓｈｅｎｚｈｅｎ　Ｈａｉｍａｉｔｉａｎｘｉａ　Ｅ－ｂｕｓｉｎｅｓｓ　Ｃｏ．，Ｌｔｄ．,,外国会社等,,,,,,,,Ｎｏ．１００５，Ｂｕｉｌｄｉｎｇ　Ｂ，Ｌｉａｎｈｕａ　Ｐｌａｚａ，Ｎｏ．３１８６　Ｎａｎｓｈａｎ　Ａｖｅｎｕｅ，Ｍａｊｉａｌｏｎｇ　Ｃｏｍｍｕｎｉｔｙ，Ｎａｎｔｏｕ　Ｓｔｒｅｅｔ，Ｎａｎｓｈａｎ　Ｄｉｓｔｒｉｃｔ，Ｓｈｅｎｚｈｅｎ　Ｃｉｔｙ，Ｇｕａｎｇｄｏｎｇ　Ｐｒｏｖｉｎｃｅ，Ｃｈｉｎａ,,,,,,2023-05-08,1,,,,,シンセンカイマイテンカイービジネスカンパニーリミテツド,0
1647,6010001234887,新規,0,2023-05-08,2023-05-08,株式会社Ｈｉｇｈ　Ｂｅａｔ,,株式会社,東京都,中央区,日本橋堀留町２丁目６－２パークハビオ６０７,,13,102,1030012,,,,,,,2023-05-08,1,,,,,ハイビート,0
1648,6010001235002,新規,0,2023-05-08,2023-05-08,株式会社リテールトランスフォーメーション,,株式会社,東京都,千代田区,大手町１丁目６番１号大手町ビル３階,,13,101,1000004,,,,,,,2023-05-08,1,,,,,リテールトランスフォーメーション,0
1649,6010001235043,新規,0,2023-05-08,2023-05-08,株式会社ＢＥＣＡＳＡ,,株式会社,東京都,中央区,勝どき６丁目３番２号ＴｈｅＴｏｋｙｏＴｏｗｅｒｓＭｉｄＴｏｗｅｒ４８２４,,13,102,1040054,,,,,,,2023-05-08,1,,,,,ビーカーサ,0
1650,6010001235068,新規,0,2023-05-08,2023-05-08,ＴＩＧ　Ｐｒｏｐｅｒｔｉｅｓ株式会社,,株式会社,東京都,中央区,日本橋室町１丁目２番６号日本橋大栄ビル７階,,13,102,1030022,,,,,,,2023-05-08,1,,,,,ティーアイジープロパティーズ,0
1655,6010003040508,新規,0,2023-05-08,2023-05-08,グレート・サークル・アドバイザーズ１号合同会社,,合同会社,東京都,千代田区,丸の内２丁目７番２号ＪＰタワー,,13,101,1000005,,,,,,,2023-05-08,1,,,,,グレートサークルアドバイザーズイチゴウ,0
1657,6010105002216,新規,0,2023-05-08,2023-05-08,一般社団法人Ｐｏｐ　ＬｉｆｅＷｏｒｋｓ,,その他の設立登記法人,東京都,八王子市,大和田町５丁目１６番６号,,13,201,1920045,,,,,,,2023-05-08,1,,,,,ポップライフワークス,0
1662,6010401174139,新規,0,2023-05-08,2023-05-08,ＩＢＵＫＩ株式会社,,株式会社,東京都,港区,芝浦１丁目６番４１－２９０５号,,13,103,1050023,,,,,,,2023-05-08,1,,,,,イブキ,0
1665,6010501050405,新規,0,2023-05-08,2023-05-08,株式会社Ｉｎｑｕｉｓｉｔｉｖｅ　ｅｙｅｌｉｓｔ,,株式会社,東京都,台東区,東上野４丁目２０－４ＳＩＤＥＰＬＡＣＥＵＥＮＯＥＡＳＴ４０１号室,,13,106,1100015,,,,,,,2023-05-08,1,,,,,インクィジティブアイリスト,0
1666,6010503006982,新規,0,2023-05-08,2023-05-08,合同会社ｓｔｅｌｌａ　ｇｒｏｕｐ,,合同会社,東京都,台東区,下谷１丁目５－２８メインテラス１２０４,,13,106,1100004,,,,,,,2023-05-08,1,,,,,ステラグループ,0
1667,6010601063042,新規,0,2023-05-08,2023-05-08,株式会社Ｔ＆Ｊ,,株式会社,東京都,墨田区,墨田４丁目２１番３号,,13,107,1310031,,,,,,,2023-05-08,1,,,,,ティーアンドジェイ,0
1671,6010801033910,新規,0,2023-05-08,2023-05-08,Ｃｕｒｉｏｕｓ　Ｌａｂ株式会社,,株式会社,東京都,大田区,仲池上２丁目２３番１７－５０７号,,13,111,1460081,,,,,,,2023-05-08,1,,,,,キュリオスラボ,0
1679,6010903008158,新規,0,2023-05-08,2023-05-08,合同会社ｂｉｂｉｔａｌ,,合同会社,東京都,世田谷区,大蔵６丁目１２番１５号,,13,112,1570074,,,,,,,2023-05-08,1,,,,,ビビタル,0
1685,6011001154209,新規,0,2023-05-08,2023-05-08,ＳＩＧ株式会社,,株式会社,東京都,渋谷区,宇田川町３番１４号１２０２号室,,13,113,1500042,,,,,,,2023-05-08,1,,,,,エスアイジー,0
1686,6011001154241,新規,0,2023-05-08,2023-05-08,Ｌｅｄｇｅ株式会社,,株式会社,東京都,渋谷区,恵比寿３丁目３８番１号,,13,113,1500013,,,,,,,2023-05-08,1,,,,,レッジ,0
1687,6011001154282,新規,0,2023-05-08,2023-05-08,株式会社セーズ,,株式会社,東京都,渋谷区,渋谷１丁目１７番６－３０６号,,13,113,1500002,,,,,,,2023-05-08,1,,,,,セーズ,0
1689,6011003016737,新規,0,2023-05-08,2023-05-08,合同会社ＦＵＮＬＡＮＤ,,合同会社,東京都,渋谷区,神宮前６丁目２３番４号桑野ビル２階,,13,113,1500001,,,,,,,2023-05-08,1,,,,,ファンランド,0
1692,6011101102728,新規,0,2023-05-08,2023-05-08,株式会社Ｌ＆Ｃ・ＩＮＶＥＳＴＭＥＮＴ,,株式会社,東京都,新宿区,大久保２丁目１９番１号セントラル大久保ビル２Ｇ,,13,104,1690072,,,,,,,2023-05-08,1,,,,,エルアンドシーインヴェストメント,0
1697,6011103013015,新規,0,2023-05-08,2023-05-08,合同会社南東京,,合同会社,東京都,新宿区,西新宿３丁目６－５トーカン新宿キャステール１３０３号,,13,104,1600023,,,,,,,2023-05-08,1,,,,,ミナミトウキョウ,0
1706,6012303001817,新規,0,2023-05-08,2023-05-08,合同会社ミチク,,合同会社,東京都,町田市,本町田２１４１番地２２,,13,209,1940032,,,,,,,2023-05-08,1,,,,,ミチク,0
1708,6012401040493,新規,0,2023-05-08,2023-05-08,株式会社千石,,株式会社,東京都,三鷹市,井の頭２丁目６番１２号,,13,204,1810001,,,,,,,2023-05-08,1,,,,,センゴク,0
1711,6012803003073,新規,0,2023-05-08,2023-05-08,合同会社ｅｌ,,合同会社,東京都,日野市,南平５丁目２０番地の６４クレアテージＡ２０２,,13,212,1910041,,,,,,,2023-05-08,1,,,,,エル,0
1714,6013301050707,新規,0,2023-05-08,2023-05-08,株式会社Ｎ‐Ｎｉｎｅ,,株式会社,東京都,豊島区,南池袋１丁目１６－１５ダイヤゲート池袋５階,,13,116,1710022,,,,,,,2023-05-08,1,,,,,エヌナイン,0
1723,6020001151421,新規,0,2023-05-08,2023-05-08,株式会社そーいんぐ見田,,株式会社,神奈川県,横浜市南区,前里町４丁目９７番地,,14,105,2320004,,,,,,,2023-05-08,1,,,,,ソーイングミタ,0
1729,6020003023858,新規,0,2023-05-08,2023-05-08,合同会社恵々,,合同会社,神奈川県,横浜市金沢区,瀬戸１番５号金沢八景共同ビル６０４,,14,108,2360027,,,,,,,2023-05-08,1,,,,,ケイケイ,0
1731,6021001078919,新規,0,2023-05-08,2023-05-08,株式会社龍生,,株式会社,神奈川県,平塚市,田村７丁目１７番１号,,14,203,2540013,,,,,,,2023-05-08,1,,,,,リュウセイ,0
1732,6021001078951,新規,0,2023-05-08,2023-05-08,株式会社佐藤電設工業,,株式会社,神奈川県,平塚市,東八幡４丁目２２番１２－２号,,14,203,2540016,,,,,,,2023-05-08,1,,,,,サトウデンセツコウギョウ,0
1739,6030003021679,新規,0,2023-05-08,2023-05-08,ＭＹ　Ｈｏ’ｏｋｉｐａ合同会社,,合同会社,埼玉県,草加市,谷塚町１３８０番地３,,11,221,3400023,,,,,,,2023-05-08,1,,,,,マイホオキパ,0
1741,6040001128228,新規,0,2023-05-08,2023-05-08,株式会社ＴＯＤＡＹ’Ｓ,,株式会社,千葉県,流山市,おおたかの森南２丁目２９番地の２６,,12,220,2700139,,,,,,,2023-05-08,1,,,,,トゥデイズ,0
1744,6040003022560,新規,0,2023-05-08,2023-05-08,合同会社Ｍ３ビジネスコンサルティングファームＧＫ,,合同会社,千葉県,鎌ケ谷市,鎌ケ谷３丁目３－３１,,12,224,2730105,,,,,,,2023-05-08,1,,,,,エムスリービジネスコンサルティングファームジーケー,0
1745,6050001052773,新規,0,2023-05-08,2023-05-08,ＦＳＣ株式会社,,株式会社,茨城県,下妻市,黒駒１０５３番地ノ内１,,08,210,3040007,,,,,,,2023-05-08,1,,,,,エフエスシー,0
1746,6050001052781,新規,0,2023-05-08,2023-05-08,株式会社コムロ,,株式会社,茨城県,桜川市,友部１４８０番地７,,08,231,3091453,,,,,,,2023-05-08,1,,,,,コムロ,0
1748,6050003007461,新規,0,2023-05-08,2023-05-08,合同会社東総プラント,,合同会社,茨城県,鹿嶋市,大字泉川２０２１,,08,222,3140015,,,,,,,2023-05-08,1,,,,,,0
1752,6070003004928,新規,0,2023-05-08,2023-05-08,合同会社長岡建装,,合同会社,群馬県,甘楽郡甘楽町,大字造石１３３番地,,10,384,3702215,,,,,,,2023-05-08,1,,,,,ナガオカケンソウ,0
1755,6080001025603,新規,0,2023-05-08,2023-05-08,株式会社Ｊｏｉｎｔ　Ｊｅｔ,,株式会社,静岡県,藤枝市,内瀬戸６１２番地の２,,22,214,4260076,,,,,,,2023-05-08,1,,,,,ジョイントジェット,0
1761,6080103002797,新規,0,2023-05-08,2023-05-08,合同会社ＹＵＫＩＣＨＩ,,合同会社,静岡県,富士市,森島２６３番地の９,,22,210,4160948,,,,,,,2023-05-08,1,,,,,ユキチ,0
1764,6110001037504,新規,0,2023-05-08,2023-05-08,株式会社Ａ‐ＳＴＡＲＴ,,株式会社,新潟県,三条市,東裏館１丁目１３番２０号,,15,204,9550081,,,,,,,2023-05-08,1,,,,,エースタート,0
1772,6120001254544,新規,0,2023-05-08,2023-05-08,株式会社ＢＯＲＮＺ,,株式会社,大阪府,大阪市城東区,東中浜５丁目７番２１号,,27,118,5360023,,,,,,,2023-05-08,1,,,,,ボーンズ,0
1773,6120001254552,新規,0,2023-05-08,2023-05-08,株式会社ＷＡＢＯＮ,,株式会社,大阪府,大阪市平野区,喜連西１丁目１６番１１,,27,126,5470026,,,,,,,2023-05-08,1,,,,,ワボン,0
1774,6120001254627,新規,0,2023-05-08,2023-05-08,ＨＲホーム株式会社,,株式会社,大阪府,大阪市城東区,放出西２丁目１番４６号,,27,118,5360011,,,,,,,2023-05-08,1,,,,,エイチアールホーム,0
1775,6120001254668,新規,0,2023-05-08,2023-05-08,株式会社トラストフローリング,,株式会社,大阪府,大阪市旭区,赤川４丁目２３番７号,,27,117,5350005,,,,,,,2023-05-08,1,,,,,トラストフローリング,0
1776,6120001254676,新規,0,2023-05-08,2023-05-08,東森株式会社,,株式会社,大阪府,大阪市中央区,宗右衛門町１－２８号富源ビル１Ｆ,,27,128,5420084,,,,,,,2023-05-08,1,,,,,ヒガシモリ,0
1777,6120001254726,新規,0,2023-05-08,2023-05-08,株式会社ピア・リュテス,,株式会社,大阪府,大阪市北区,大淀中１丁目１２番１２号,,27,127,5310076,,,,,,,2023-05-08,1,,,,,ピアリュテス,0
1779,6120003023971,新規,0,2023-05-08,2023-05-08,合同会社ＧＯＯＤＣＲＥＷ,,合同会社,大阪府,大阪市鶴見区,緑２丁目９番２２－１００４号,,27,124,5380054,,,,,,,2023-05-08,1,,,,,グッドクルー,0
1780,6120003023996,新規,0,2023-05-08,2023-05-08,アイクリエイツ合同会社,,合同会社,大阪府,大阪市北区,梅田１丁目２番２号大阪駅前第２ビル１２－１２,,27,127,5300001,,,,,,,2023-05-08,1,,,,,アイクリエイツ,0
1782,6120005023607,新規,0,2023-05-08,2023-05-08,特定非営利活動法人日本語教育国際協会,,その他の設立登記法人,大阪府,大阪市中央区,谷町３丁目４番５号,,27,128,5400012,,,,,,,2023-05-08,1,,,,,ニホンゴキョウイクコクサイキョウカイ,0
1786,6120901047485,新規,0,2023-05-08,2023-05-08,仁誠プレジール株式会社,,株式会社,大阪府,吹田市,春日１丁目１番１号,,27,205,5650853,,,,,,,2023-05-08,1,,,,,ジンセイプレジール,0
1787,6120903004625,新規,0,2023-05-08,2023-05-08,合同会社新興企画,,合同会社,大阪府,高槻市,三島江４丁目１８番１２号,,27,207,5690835,,,,,,,2023-05-08,1,,,,,シンコウキカク,0
1789,6130001074248,新規,0,2023-05-08,2023-05-08,株式会社フォレストワーク,,株式会社,京都府,南丹市,美山町鶴ケ岡溝ノ下１０－１,,26,213,6010762,,,,,,,2023-05-08,1,,,,,フォレストワーク,0
1792,6130003008708,新規,0,2023-05-08,2023-05-08,合同会社Ａｎｏｍａｌｙ,,合同会社,京都府,京都市下京区,朱雀宝蔵町４４番地協栄ビル２階京都朱雀スタジオ,,26,106,6008846,,,,,,,2023-05-08,1,,,,,アノマリー,0
1797,6140001130025,新規,0,2023-05-08,2023-05-08,西村工業株式会社,,株式会社,兵庫県,加古川市,山手１丁目１６５０番地４９,,28,210,6750002,,,,,,,2023-05-08,1,,,,,ニシムラコウギョウ,0
1798,6140001130033,新規,0,2023-05-08,2023-05-08,株式会社フラグシップ,,株式会社,兵庫県,西宮市,高畑町２番８２－４０２号,,28,204,6638202,,,,,,,2023-05-08,1,,,,,フラグシップ,0
1799,6140001130041,新規,0,2023-05-08,2023-05-08,株式会社ＬＩＦＥＳＨＯＴ,,株式会社,兵庫県,神戸市中央区,浪花町５６起業プラザひょうご内,,28,110,6500035,,,,,,,2023-05-08,1,,,,,ライフショット,0
1800,6140001130066,新規,0,2023-05-08,2023-05-08,Ｆｒｅｉｇｈｔｐｌｕｓ　Ｊａｐａｎ株式会社,,株式会社,兵庫県,芦屋市,平田町８番５－４０３号,,28,206,6590074,,,,,,,2023-05-08,1,,,,,フレートプラスジャパン,0
1801,6140001130090,新規,0,2023-05-08,2023-05-08,株式会社秋武工業,,株式会社,兵庫県,姫路市,勝原区下太田３２８番地１３,,28,201,6711201,,,,,,,2023-05-08,1,,,,,アキタケコウギョウ,0
1803,6140003019051,新規,0,2023-05-08,2023-05-08,合同会社ＴＴコンサルティング,,合同会社,兵庫県,西宮市,門戸荘１７番５５－１号,,28,204,6620825,,,,,,,2023-05-08,1,,,,,ティーティーコンサルティング,0
1804,6140005026608,新規,0,2023-05-08,2023-05-08,一般社団法人ひかりのパパ,,その他の設立登記法人,兵庫県,神戸市東灘区,御影３丁目２番１１－１７０号,,28,101,6580047,,,,,,,2023-05-08,1,,,,,ヒカリノパパ,0
1805,6150001026379,新規,0,2023-05-08,2023-05-08,株式会社ＷＡＶＥパートナーズ,,株式会社,奈良県,奈良市,油阪町４５６番地第２森田ビル４階,,29,201,6308247,,,,,,,2023-05-08,1,,,,,ウェーブパートナーズ,0
1808,6160001025009,新規,0,2023-05-08,2023-05-08,株式会社山野クレーン,,株式会社,滋賀県,湖南市,三雲１４６８番地２２,,25,211,5203221,,,,,,,2023-05-08,1,,,,,ヤマノクレーン,0
1809,6160001025025,新規,0,2023-05-08,2023-05-08,株式会社ＫＵＭＩＮＯ,,株式会社,滋賀県,東近江市,箕川町８７,,25,213,5270203,,,,,,,2023-05-08,1,,,,,クミノ,0
1810,6160003002872,新規,0,2023-05-08,2023-05-08,合同会社ハートフルケア,,合同会社,滋賀県,大津市,神領２丁目４０番８号,,25,201,5202132,,,,,,,2023-05-08,1,,,,,ハートフルケア,0
1813,6170001017582,新規,0,2023-05-08,2023-05-08,株式会社谷板金,,株式会社,和歌山県,田辺市,秋津町１７４３番地の１６,,30,206,6460005,,,,,,,2023-05-08,1,,,,,タニバンキン,0
1815,6170005007010,新規,0,2023-05-08,2023-05-08,スター手袋工業協業組合,,その他の設立登記法人,和歌山県,有田市,宮崎町５６１番地,,30,204,6490316,,,,,,,2023-05-08,1,,,,,スターテブクロコウギョウ,0
1824,6180001156116,新規,0,2023-05-08,2023-05-08,ＳＴＳ電気株式会社,,株式会社,愛知県,大府市,桃山町３丁目１４番地の１,,23,223,4740026,,,,,,,2023-05-08,1,,,,,エスティーエスデンキ,0
1825,6180001156124,新規,0,2023-05-08,2023-05-08,株式会社アキタテグ,,株式会社,愛知県,東海市,加木屋町御林１番地２０,,23,222,4770032,,,,,,,2023-05-08,1,,,,,アキタテグ,0
1826,6180001156132,新規,0,2023-05-08,2023-05-08,株式会社ＴｒａｂｉｚＪａｐａｎ,,株式会社,愛知県,春日井市,上条町２丁目１６２番地春日井駅南ハイツ１Ｆ西,,23,206,4860833,,,,,,,2023-05-08,1,,,,,トラビズジャパン,0
1827,6180001156149,新規,0,2023-05-08,2023-05-08,株式会社メイカン,,株式会社,愛知県,名古屋市港区,善進本町５１５番地,,23,111,4550813,,,,,,,2023-05-08,1,,,,,メイカン,0
1828,6180001156181,新規,0,2023-05-08,2023-05-08,株式会社マルミ,,株式会社,愛知県,名古屋市天白区,元八事２丁目１３８番地,,23,116,4680066,,,,,,,2023-05-08,1,,,,,マルミ,0
1834,6180003025186,新規,0,2023-05-08,2023-05-08,合同会社サンテクノ,,合同会社,愛知県,春日井市,長塚町１丁目１１１番地４,,23,206,4860934,,,,,,,2023-05-08,1,,,,,サンテクノ,0
1836,6180301037362,新規,0,2023-05-08,2023-05-08,株式会社Ｒｅｎｃｏｎｔｒｅ　Ｏｋａｙａｓｕ,,株式会社,愛知県,西尾市,末広町２番地,,23,213,4450844,,,,,,,2023-05-08,1,,,,,ラコンチュルオカヤス,0
1837,6180301037370,新規,0,2023-05-08,2023-05-08,株式会社マンダイディライト西日本,,株式会社,愛知県,豊田市,本地町４丁目２２番地１,,23,211,4710848,,,,,,,2023-05-08,1,,,,,,0
1843,6200001041257,新規,0,2023-05-08,2023-05-08,株式会社グロースラボ,,株式会社,岐阜県,本巣郡北方町,平成３丁目１５番地,,21,421,5010438,,,,,,,2023-05-08,1,,,,,グロースラボ,0
1844,6200001041273,新規,0,2023-05-08,2023-05-08,株式会社プルート,,株式会社,岐阜県,岐阜市,長森細畑３４４番地１,,21,201,5008247,,,,,,,2023-05-08,1,,,,,プルート,0
1845,6200001041281,新規,0,2023-05-08,2023-05-08,株式会社ディライトワークス,,株式会社,岐阜県,中津川市,苗木７４５６,,21,206,5080101,,,,,,,2023-05-08,1,,,,,ディライトワークス,0
1848,6220001025381,新規,0,2023-05-08,2023-05-08,株式会社奏凛,,株式会社,石川県,河北郡内灘町,字大根布７丁目５７番地,,17,365,9200266,,,,,,,2023-05-08,1,,,,,ソウリン,0
1855,6240001061441,新規,0,2023-05-08,2023-05-08,株式会社ＳＲシステム,,株式会社,広島県,山県郡北広島町,大朝５６５９－２,,34,369,7312104,,,,,,,2023-05-08,1,,,,,エスアールシステム,0
1856,6240001061482,新規,0,2023-05-08,2023-05-08,株式会社Ｋサンドリヨン,,株式会社,広島県,広島市東区,光町２丁目７番１号３０２,,34,102,7320052,,,,,,,2023-05-08,1,,,,,ケイサンドリヨン,0
1861,6240003006122,新規,0,2023-05-08,2023-05-08,アーク総合学院合同会社,,合同会社,広島県,福山市,南手城町２丁目１３番１９号,,34,207,7210963,,,,,,,2023-05-08,1,,,,,アークソウゴウガクイン,0
1868,6260003004297,新規,0,2023-05-08,2023-05-08,合同会社ＦＵＫＵＤＡ,,合同会社,岡山県,岡山市南区,藤田５６０番地４５９,,33,104,7010221,,,,,,,2023-05-08,1,,,,,フクダ,0
1875,6290001101399,新規,0,2023-05-08,2023-05-08,株式会社ＪＴＬ　ＡＵＣＴＩＯＮ,,株式会社,福岡県,福岡市中央区,白金１丁目５番２１－３０２号,,40,133,8100012,,,,,,,2023-05-08,1,,,,,ジェイティエルオークション,0
1876,6290001101408,新規,0,2023-05-08,2023-05-08,株式会社マチルダ,,株式会社,福岡県,福岡市東区,青葉５丁目６番１号,,40,131,8130025,,,,,,,2023-05-08,1,,,,,マチルダ,0
1877,6290001101416,新規,0,2023-05-08,2023-05-08,株式会社蓑毛ホールディングス,,株式会社,福岡県,福岡市西区,今宿上ノ原１７５番２７,,40,135,8190163,,,,,,,2023-05-08,1,,,,,ミノモホールディングス,0
1888,6330001030809,新規,0,2023-05-08,2023-05-08,ボヌール株式会社,,株式会社,熊本県,球磨郡湯前町,２２７０番地１,,43,506,8680600,,,,,,,2023-05-08,1,,,,,ボヌール,0
1894,6340005009600,新規,0,2023-05-08,2023-05-08,一般社団法人ＴＮプランニング,,その他の設立登記法人,鹿児島県,熊毛郡中種子町,野間５１７０番地２４,,46,501,8913604,,,,,,,2023-05-08,1,,,,,ティーエヌプランニング,0
1898,6350001018323,新規,0,2023-05-08,2023-05-08,株式会社Ｍｕｒａｔａ,,株式会社,宮崎県,宮崎市,大字本郷北方３２５１番地５,,45,201,8800925,,,,,,,2023-05-08,1,,,,,ムラタ,0
1899,6350001018331,新規,0,2023-05-08,2023-05-08,株式会社カンセイ,,株式会社,宮崎県,宮崎市,田野町甲２９５２番地１２,,45,201,8891701,,,,,,,2023-05-08,1,,,,,カンセイ,0
1900,6360001031952,新規,0,2023-05-08,2023-05-08,株式会社ＳＵＮＳＥＴ　ＩＮ,,株式会社,沖縄県,豊見城市,字豊崎１番地１１７５ジ・オーシャンテラス豊崎６１８号室,,47,212,9010225,,,,,,,2023-05-08,1,,,,,サンセットイン,0
1901,6360001031977,新規,0,2023-05-08,2023-05-08,株式会社ＨＯＭＥ　ＫＡＦＵＫＡ,,株式会社,沖縄県,那覇市,字上間２４０番地２,,47,201,9020073,,,,,,,2023-05-08,1,,,,,ホームカフカ,0
1906,6380001033658,新規,0,2023-05-08,2023-05-08,株式会社ＮＫ２,,株式会社,福島県,伊達市,保原町柱田字前田１０２番地,,07,213,9600662,,,,,,,2023-05-08,1,,,,,エヌケーツー,0
1907,6380001033674,新規,0,2023-05-08,2023-05-08,株式会社共建工業,,株式会社,福島県,福島市,蓬莱町６丁目１番１号,,07,201,9608157,,,,,,,2023-05-08,1,,,,,キョウケンコウギョウ,0
1909,6380003005457,新規,0,2023-05-08,2023-05-08,合同会社Ｆプラス,,合同会社,福島県,いわき市,小名浜花畑町１４番地の４高橋ビル２階,,07,204,9718162,,,,,,,2023-05-08,1,,,,,エフプラス,0
1911,6390001017247,新規,0,2023-05-08,2023-05-08,株式会社ＳＳエンジニアリング,,株式会社,山形県,鶴岡市,朝暘町３０番１４号,,06,203,9970024,,,,,,,2023-05-08,1,,,,,エスエスエンジニアリング,0
1915,6400001016230,新規,0,2023-05-08,2023-05-08,株式会社大翔工業,,株式会社,岩手県,岩手郡雫石町,長山極楽野２２５番地１５,,03,301,0200585,,,,,,,2023-05-08,1,,,,,ダイトコウギョウ,0
1916,6400001016239,新規,0,2023-05-08,2023-05-08,株式会社ＴＲＹ’ｓ,,株式会社,岩手県,盛岡市,中野１丁目１０－５べレオ・ミカＩＩ２０１,00130369,03,201,0200816,,,,,,,2023-05-08,1,,,,,トライズ,0
1917,6410002014075,新規,0,2023-05-08,2023-05-08,西根木材有限会社,,有限会社,秋田県,北秋田市,阿仁幸屋渡字高畑岱８６番地１,,05,213,0184742,,,,,,,2023-05-08,1,,,,,ニシネモクザイ,0
1920,6430001088993,新規,0,2023-05-08,2023-05-08,株式会社Ｎｉｎｅ　Ｍｕｓｅ,,株式会社,北海道,札幌市手稲区,稲穂一条５丁目２番１号,,01,109,0060031,,,,,,,2023-05-08,1,,,,,ナインミューズ,0
1921,6430001089067,新規,0,2023-05-08,2023-05-08,株式会社ｒｏａｃｈ　ｒｏａｓｔｅｒ,,株式会社,北海道,札幌市西区,西町南５丁目１番２３号,,01,107,0630062,,,,,,,2023-05-08,1,,,,,ローチロースター,0
1922,6430003014997,新規,0,2023-05-08,2023-05-08,合同会社オフィス本府,,合同会社,北海道,札幌市中央区,南二条西５丁目メゾン本府７０１,,01,101,0600062,,,,,,,2023-05-08,1,,,,,オフィスホンプ,0
1930,6470001019598,新規,0,2023-05-08,2023-05-08,ＴＵＴＯＲ株式会社,,株式会社,香川県,高松市,松縄町３４番地１３谷本ビル２Ｆ,,37,201,7600079,,,,,,,2023-05-08,1,,,,,チューター,0
1938,6700150047954,新規,0,2023-05-08,2015-10-09,岐阜県美術館後援会,,その他,岐阜県,岐阜市,宇佐４丁目１－２２,,21,201,5008368,,,,,,,2015-10-09,1,,,,,ギフケンビジユツカンコウエンカイ,0
1939,6700150115918,新規,0,2023-05-08,2023-05-08,ｗａｎｍｏｋｅｊｉｓｈｅｎｚｈｅｎｙｏｕｘｉａｎｇｏｎｇｓｉ,,外国会社等,,,,,,,,ｎａｎｓｈａｎｑｕｔａｏｙｕａｎｊｉｅｄａｏｆｕｇｕａｎｇｓｈｅｑｕｌｉｕｘｉａｎｄａｄａｏ３３３３ｈａｏ　ｔａｎｇｌａｎｇｃｈｅｎｇｇｕａｎｇｃｈａｎｇｘｉｑｕＡｚｕｏＢｚｕｏＣｚｕｏ３４０１ｓｈｅｎｚｈｅｎｓｈｉ　ｇｕａｎｇｄｏｎｇｓｈｅｎｇ,,,,,,2023-05-08,1,,,,,マンモクノロジーシンセンユウゲンコウシ,0
1940,6700150115926,新規,0,2023-05-08,2023-05-08,ＳＨＡＮＧＨＡＩ　ＳＡＫＥ　ＩＮＤＵＳＴＲＹ　ＡＮＤ　ＴＲＡＤＥ　Ｃｏ．，Ｌｔｄ,,外国会社等,,,,,,,,ＳＩＰＩＮＧＮＡＮ　ＬＵ　１９　ＨＡＯ　１　ＺＨＵＡＮＧ　Ｍ８２　ＳＨＩ　ＪＩＮＳＨＡＮ　ＱＵ　ＴＩＮＧＬＩＮ　ＺＨＥＮ　ＳＨＡＮＧＨＡＩ,,,,,,2023-05-08,1,,,,,シヤンハイサケインダストリアンドトレートカンパニーリミテツド,0
1941,6700150115934,新規,0,2023-05-08,2023-05-08,ｓｈｅｎｚｈｅｎｓｈｉｊｉｘｕａｎｄｉａｎｚｉｓｈａｎｇｗｕｙｏｕｘｉａｎｇｏｎｇｓｉ,,外国会社等,,,,,,,,ｓｈｅｎｚｈｅｎｓｈｉｂａｏａｎｑｕｓｏｎｇｇａｎｇｊｉｅｄａｏｔａｎｔｏｕｓｈｅｑｕｓｏｎｇｇａｎｇｄａｄａｏｄｏｎｇｃｅｈｕａｍｅｉｊｉｎｓｈｕｃａｉｌｉａｏｃｈａｎｙｅｙｕａｎｑｕｘｉｎｃａｉｌｉａｏｊｉｎｇｊｉａｇｏｎｇｃｈａｎｇｆａｎｇｓａｎｄａｎｙｕａｎ２０４,,,,,,2023-05-08,1,,,,,シンセンシジケンデンシシヨウムユウゲンコウシ,0
1952,7010001234993,新規,0,2023-05-08,2023-05-08,株式会社ハイトリンク,,株式会社,東京都,千代田区,神田和泉町１番地６－１６ヤマトビル４０５,,13,101,1010024,,,,,,,2023-05-08,1,,,,,ハイトリンク,0
1955,7010003040507,新規,0,2023-05-08,2023-05-08,合同会社ＣＣカンパニー,,合同会社,東京都,文京区,目白台２丁目１４番１６号,,13,105,1120015,,,,,,,2023-05-08,1,,,,,シーシーカンパニー,0
1959,7010005036610,新規,0,2023-05-08,2023-05-08,リブラホールディングス一般社団法人,,その他の設立登記法人,東京都,千代田区,九段南３丁目７番７号成和綜合会計事務所内,,13,101,1020074,,,,,,,2023-05-08,1,,,,,リブラホールディングス,0
1964,7010401173791,新規,0,2023-05-08,2023-05-08,株式会社ＴＬＥＯグループホールディングス,,株式会社,東京都,港区,西新橋１丁目２０番３号虎ノ門法曹ビル,,13,103,1050003,,,,,,,2023-05-08,1,,,,,ティーエルイーオーグループホールディングス,0
1965,7010401174138,新規,0,2023-05-08,2023-05-08,株式会社ＧＯＯＮｉｅ,,株式会社,東京都,港区,東麻布２丁目１７番３号ＣＡＳＡＢＩＥＮ４０２・３０２,,13,103,1060044,,,,,,,2023-05-08,1,,,,,グーニー,0
1968,7010501050395,新規,0,2023-05-08,2023-05-08,株式会社Ｓｔｕｄｉｏ　ＧＥＭ,,株式会社,東京都,台東区,根岸１丁目５番１７号,,13,106,1100003,,,,,,,2023-05-08,1,,,,,スタジオジェム,0
1969,7010501050404,新規,0,2023-05-08,2023-05-08,株式会社池川メンテナンス,,株式会社,東京都,台東区,千束４丁目２８番２号,,13,106,1110031,,,,,,,2023-05-08,1,,,,,イケガワメンテナンス,0
1971,7010601063041,新規,0,2023-05-08,2023-05-08,株式会社三一,,株式会社,東京都,江東区,牡丹３丁目９番７号コーピアス門前仲町１０２,,13,108,1350046,,,,,,,2023-05-08,1,,,,,ミカズ,0
1977,7010801033918,新規,0,2023-05-08,2023-05-08,株式会社日光・紫外線アレルギー研究所,,株式会社,東京都,大田区,仲池上２丁目９－１０ＪＣ西馬込５０３,,13,111,1460081,,,,,,,2023-05-08,1,,,,,ニッコウシガイセンアレルギーケンキュウジョ,0
1979,7010901052982,新規,0,2023-05-08,2023-05-08,株式会社ＴＥＮＨＯ,,株式会社,東京都,世田谷区,上馬４丁目３３番１３号リムテラス三軒茶屋１０８,,13,112,1540011,,,,,,,2023-05-08,1,,,,,テンホウ,0
1987,7011001153944,新規,0,2023-05-08,2023-05-08,ＭＡＳＡＡＫＩ　ＭＯＭＯＩ株式会社,,株式会社,東京都,渋谷区,本町１丁目４番１２－１０５号,,13,113,1510071,,,,,,,2023-05-08,1,,,,,マサアキモモイ,0
1988,7011001154216,新規,0,2023-05-08,2023-05-08,株式会社ＦＬＡＮ,,株式会社,東京都,渋谷区,富ヶ谷１丁目６番１０号代々木公園ビル２Ｆ,,13,113,1510063,,,,,,,2023-05-08,1,,,,,フラン,0
1989,7011001154281,新規,0,2023-05-08,2023-05-08,株式会社ＵＵ,,株式会社,東京都,渋谷区,渋谷３丁目６番２号エクラート渋谷５Ｆ,,13,113,1500002,,,,,,,2023-05-08,1,,,,,ユーユー,0
1990,7011003016645,新規,0,2023-05-08,2023-05-08,合同会社ロード,,合同会社,東京都,渋谷区,神宮前５丁目９－３,,13,113,1500001,,,,,,,2023-05-08,1,,,,,,0
1993,7011101102743,新規,0,2023-05-08,2023-05-08,株式会社Ｔ‐ｗｏｒｋｓ,,株式会社,東京都,新宿区,大久保１丁目１５番１５号,,13,104,1690072,,,,,,,2023-05-08,1,,,,,ティーワークス,0
1994,7011105010645,新規,0,2023-05-08,2023-05-08,一般社団法人ＳＮリビング１号,,その他の設立登記法人,東京都,新宿区,西新宿８丁目５番１号,,13,104,1600023,,,,,,,2023-05-08,1,,,,,エスエヌリビングイチゴウ,0
1995,7011201024623,新規,0,2023-05-08,2023-05-08,株式会社ＴＫＹ,,株式会社,東京都,中野区,沼袋４丁目２７番１５号,,13,114,1650025,,,,,,,2023-05-08,1,,,,,ティーケイワイ,0
1997,7011401025108,新規,0,2023-05-08,2023-05-08,株式会社ＤＤＨ,,株式会社,東京都,板橋区,舟渡１丁目１番２２－５０４号,,13,119,1740041,,,,,,,2023-05-08,1,,,,,ディーディーエイチ,0
1998,7011401025116,新規,0,2023-05-08,2023-05-08,株式会社ポコポコ,,株式会社,東京都,板橋区,中丸町５０番１号ラシクラス中丸町３０１号室,,13,119,1730026,,,,,,,2023-05-08,1,,,,,ポコポコ,0
1999,7011501029248,新規,0,2023-05-08,2023-05-08,株式会社プランドール,,株式会社,東京都,荒川区,東日暮里５丁目５０－１８第二松本ビル２階,,13,118,1160014,,,,,,,2023-05-08,1,,,,,プランドール,0
2000,7011601026789,新規,0,2023-05-08,2023-05-08,株式会社ＯＧ研究所,,株式会社,東京都,練馬区,上石神井４丁目２６－３４,,13,120,1770044,,,,,,,2023-05-08,1,,,,,オウゲイケンキュウショ,0
2002,7011703003463,新規,0,2023-05-08,2023-05-08,合同会社ＲＲＲ,,合同会社,東京都,江戸川区,上一色１丁目１３番１２－１１０５号,,13,123,1330041,,,,,,,2023-05-08,1,,,,,アールアールアール,0
2005,7012401040492,新規,0,2023-05-08,2023-05-08,株式会社Ｂｉ‐Ｓｃｅｎｔ,,株式会社,東京都,府中市,緑町１丁目２番地の１ＭＫＮＥＸＵＳ１０２号室,,13,206,1830006,,,,,,,2023-05-08,1,,,,,ビーセント,0
2007,7012701017637,新規,0,2023-05-08,2023-05-08,社会技術研究所株式会社,,株式会社,東京都,小平市,鈴木町１丁目１０４番地の９３,,13,211,1870011,,,,,,,2023-05-08,1,,,,,シャカイギジュツケンキュウショ,0
2008,7012705002354,新規,0,2023-05-08,2023-05-08,一般社団法人日中経済文化産業交流協会,,その他の設立登記法人,東京都,西東京市,向台町２丁目１１番１１号,,13,229,1880013,,,,,,,2023-05-08,1,,,,,ニッチュウケイザイブンカサンギョウコウリュウキョウカイ,0
2009,7012803003072,新規,0,2023-05-08,2023-05-08,合同会社ロージナ茶房,,合同会社,東京都,国立市,中１丁目９番地の４２,,13,215,1860004,,,,,,,2023-05-08,1,,,,,ロージナサボウ,0
2010,7013101009159,新規,0,2023-05-08,2023-05-08,村木建設株式会社,,株式会社,東京都,あきる野市,伊奈１５４８番地１,,13,228,1900142,,,,,,,2023-05-08,1,,,,,ムラキケンセツ,0
2015,7013301050697,新規,0,2023-05-08,2023-05-08,株式会社ナーレ,,株式会社,東京都,豊島区,上池袋１丁目２６番６号上池袋タワーレジデンス１９０１号,,13,116,1700012,,,,,,,2023-05-08,1,,,,,ナーレ,0
2023,7020001151412,新規,0,2023-05-08,2023-05-08,株式会社ＳＡＶＩＲＵ　ＮＩＨＯＮ,,株式会社,神奈川県,横浜市旭区,都岡町２２番地１８,,14,112,2410805,,,,,,,2023-05-08,1,,,,,サウィルニホン,0
2024,7020001151420,新規,0,2023-05-08,2023-05-08,株式会社黒須塗装,,株式会社,神奈川県,横浜市保土ケ谷区,仏向町４０３番地,,14,106,2400044,,,,,,,2023-05-08,1,,,,,クロストソウ,0
2025,7020001151437,新規,0,2023-05-08,2023-05-08,青山工業株式会社,,株式会社,神奈川県,川崎市幸区,南幸町３丁目８９番地ヴィラグランベール３０１,,14,132,2120016,,,,,,,2023-05-08,1,,,,,アオヤマコウギョウ,0
2028,7020003023849,新規,0,2023-05-08,2023-05-08,合同会社セレーノ,,合同会社,神奈川県,横浜市旭区,東希望が丘４６番地１４クレスト希望が丘１０２,,14,112,2410826,,,,,,,2023-05-08,1,,,,,セレーノ,0
2031,7021001078918,新規,0,2023-05-08,2023-05-08,相模原自動車株式会社,,株式会社,神奈川県,相模原市南区,大野台１丁目２５番１４号ハイツＵ２０３,,14,153,2520331,,,,,,,2023-05-08,1,,,,,サガミハラジドウシャ,0
2032,7021001078934,新規,0,2023-05-08,2023-05-08,株式会社フェニックスパートナーズ,,株式会社,神奈川県,藤沢市,渡内２丁目２２番３号バウムシュトラーセＢ－２,,14,205,2510011,,,,,,,2023-05-08,1,,,,,フェニックスパートナーズ,0
2033,7021001078942,新規,0,2023-05-08,2023-05-08,ファーストカラー株式会社,,株式会社,神奈川県,南足柄市,関本６４８番地２,,14,217,2500105,,,,,,,2023-05-08,1,,,,,ファーストカラー,0
2034,7021001078950,新規,0,2023-05-08,2023-05-08,株式会社ＭＪプランニング,,株式会社,神奈川県,茅ヶ崎市,堤７３番地８,,14,207,2530006,,,,,,,2023-05-08,1,,,,,エムジェイプランニング,0
2035,7021001078967,新規,0,2023-05-08,2023-05-08,株式会社ＭＩＮＴ,,株式会社,神奈川県,藤沢市,桜が岡一丁目１４番３号テラスフルール１０４号,,14,205,2510000,,,,,,,2023-05-08,1,,,,,ミント,0
2037,7021003013047,新規,0,2023-05-08,2023-05-08,ＤＪＢｒａｎｄｓ合同会社,,合同会社,神奈川県,藤沢市,鵠沼海岸３丁目６番２２号,,14,205,2510037,,,,,,,2023-05-08,1,,,,,ディージェーブランズ,0
2047,7040001128152,新規,0,2023-05-08,2023-05-08,Ｔｒａｎｓｉｅｎｔ株式会社,,株式会社,千葉県,千葉市中央区,新千葉１丁目７番５号,,12,101,2600031,,,,,,,2023-05-08,1,,,,,トランジェント,0
2048,7040001128177,新規,0,2023-05-08,2023-05-08,株式会社みらい環境設計,,株式会社,千葉県,千葉市美浜区,真砂２丁目１６番１棟１００７号,,12,106,2610011,,,,,,,2023-05-08,1,,,,,ミライカンキョウセッケイ,0
2049,7040001128210,新規,0,2023-05-08,2023-05-08,株式会社ｃａｒｏｃａｒｏ,,株式会社,千葉県,佐倉市,王子台５丁目３８番地３４,,12,212,2850837,,,,,,,2023-05-08,1,,,,,カロカロ,0
2056,7050001052772,新規,0,2023-05-08,2023-05-08,ＭＡＨＩ　ＴＲＡＤＩＮＧ株式会社,,株式会社,茨城県,坂東市,逆井３５３６番地大都ビル２０３,,08,228,3060501,,,,,,,2023-05-08,1,,,,,マヒトレーディング,0
2059,7070001040370,新規,0,2023-05-08,2023-05-08,株式会社アイプラン,,株式会社,群馬県,前橋市,川曲町３４８番地,,10,201,3710823,,,,,,,2023-05-08,1,,,,,アイプラン,0
2060,7070001040395,新規,0,2023-05-08,2023-05-08,株式会社東葛メディカル,,株式会社,群馬県,桐生市,相生町１丁目１４１番地の１,,10,203,3760011,,,,,,,2023-05-08,1,,,,,トウカツメディカル,0
2064,7080001025593,新規,0,2023-05-08,2023-05-08,株式会社ＭＫリノベーション,,株式会社,静岡県,藤枝市,清里２丁目１８番地の１,,22,214,4260223,,,,,,,2023-05-08,1,,,,,エムケーリノベーション,0
2065,7080001025602,新規,0,2023-05-08,2023-05-08,株式会社ＵＮＩＴ　Ｍ,,株式会社,静岡県,静岡市駿河区,向敷地２丁目８番２号駿河ベースＡ,,22,102,4210101,,,,,,,2023-05-08,1,,,,,ユニットエム,0
2069,7080101023976,新規,0,2023-05-08,2023-05-08,設備屋さんＨ＆Ｈ株式会社,,株式会社,静岡県,沼津市,下香貫藤井原１６４２番地１,,22,203,4100822,,,,,,,2023-05-08,1,,,,,セツビヤサンエッチアンドエッチ,0
2072,7080103002796,新規,0,2023-05-08,2023-05-08,合同会社Ａｎｄ・Ｇｒｏｕｐ,,合同会社,静岡県,富士市,大淵３６６１番地の８,,22,210,4170801,,,,,,,2023-05-08,1,,,,,アンドグループ,0
2076,7100001036381,新規,0,2023-05-08,2023-05-08,株式会社ＫＯＹ建築設計事務所,,株式会社,長野県,長野市,吉田１丁目１番２９号,,20,201,3810043,,,,,,,2023-05-08,1,,,,,ケーオーワイケンチクセッケイジムショ,0
2079,7110001037494,新規,0,2023-05-08,2023-05-08,株式会社ユースフルプレイス,,株式会社,新潟県,新潟市中央区,鳥屋野２丁目１１番１６号,,15,103,9500951,,,,,,,2023-05-08,1,,,,,ユースフルプレイス,0
2087,7120001254543,新規,0,2023-05-08,2023-05-08,株式会社三咲建工,,株式会社,大阪府,大阪市此花区,春日出中１丁目２番４号,,27,104,5540022,,,,,,,2023-05-08,1,,,,,ミサキケンコウ,0
2088,7120001254551,新規,0,2023-05-08,2023-05-08,株式会社ＮＫエステート,,株式会社,大阪府,大阪市中央区,難波千日前７番１０号,,27,128,5420075,,,,,,,2023-05-08,1,,,,,エヌケーエステート,0
2089,7120001254667,新規,0,2023-05-08,2023-05-08,株式会社さとなか,,株式会社,大阪府,大阪市東住吉区,杭全２丁目４番１３号,,27,121,5460002,,,,,,,2023-05-08,1,,,,,サトナカ,0
2090,7120003024011,新規,0,2023-05-08,2023-05-08,合同会社縁紡ぐ,,合同会社,大阪府,大阪市住之江区,粉浜西１丁目８番１号クラウンセゾン粉浜６０２,,27,125,5590007,,,,,,,2023-05-08,1,,,,,エンツムグ,0
2094,7120901047476,新規,0,2023-05-08,2023-05-08,株式会社Ａｌｐｓ,,株式会社,大阪府,高槻市,別所中の町１１番１号Ｄ－ｒｅｓｉｄｅｎｃｅ別所中の町２０３号,,27,207,5691113,,,,,,,2023-05-08,1,,,,,アルプス,0
2095,7120901047492,新規,0,2023-05-08,2023-05-08,株式会社Ｏｒｅ’ｖｅ,,株式会社,大阪府,豊中市,上野坂１丁目２１番１号,,27,203,5600012,,,,,,,2023-05-08,1,,,,,オリーブ,0
2096,7120903004624,新規,0,2023-05-08,2023-05-08,合同会社エール,,合同会社,大阪府,茨木市,駅前４丁目３番１４号,,27,211,5670888,,,,,,,2023-05-08,1,,,,,エール,0
2106,7130001074222,新規,0,2023-05-08,2023-05-08,Ｒｅ．ｂｏｒｎ株式会社,,株式会社,京都府,城陽市,枇杷庄知原２番地の１９,,26,207,6100117,,,,,,,2023-05-08,1,,,,,リボーン,0
2107,7130001074230,新規,0,2023-05-08,2023-05-08,株式会社ｎｏｍ　ｓｐａｃｅ,,株式会社,京都府,京都市伏見区,小栗栖森本町２０－２４９,,26,109,6011462,,,,,,,2023-05-08,1,,,,,ノンスペース,0
2108,7130001074263,新規,0,2023-05-08,2023-05-08,一級建築士事務所ロハスホーム株式会社,,株式会社,京都府,京都市伏見区,深草宝塔寺山町１３番地９,,26,109,6120885,,,,,,,2023-05-08,1,,,,,イッキュウケンチクシジムショロハスホーム,0
2113,7130003008698,新規,0,2023-05-08,2023-05-08,合同会社Ｒｅｓｔａ京から,,合同会社,京都府,京都市左京区,下鴨宮崎町２番地３,,26,103,6060802,,,,,,,2023-05-08,1,,,,,リスタキョウカラ,0
2120,7140001130008,新規,0,2023-05-08,2023-05-08,株式会社Ｒｉｓｅ,,株式会社,兵庫県,姫路市,大津区吉美８３２番地２,,28,201,6711133,,,,,,,2023-05-08,1,,,,,ライズ,0
2123,7140003019042,新規,0,2023-05-08,2023-05-08,合同会社＿宏,00130376,合同会社,兵庫県,神戸市東灘区,本山南町３丁目１０番３０－１１０８号,,28,101,6580015,,,,,,,2023-05-08,1,,,,,リコウ,0
2124,7140003019059,新規,0,2023-05-08,2023-05-08,そらまめ合同会社,,合同会社,兵庫県,宝塚市,野上６丁目１２番９号,,28,214,6650022,,,,,,,2023-05-08,1,,,,,ソラマメ,0
2127,7150001026378,新規,0,2023-05-08,2023-05-08,株式会社エムダブ,,株式会社,奈良県,奈良市,川上町８８番地の６,,29,201,6308202,,,,,,,2023-05-08,1,,,,,エムダブ,0
2131,7160003002871,新規,0,2023-05-08,2023-05-08,ＢＥＫＯ　ＪＡＰＡＮ合同会社,,合同会社,滋賀県,長浜市,公園町８番５４号,,25,203,5260065,,,,,,,2023-05-08,1,,,,,ベコジャパン,0
2136,7180001156081,新規,0,2023-05-08,2023-05-08,株式会社ジョブリリーフ,,株式会社,愛知県,名古屋市中村区,名駅４丁目２３番９号,,23,105,4500002,,,,,,,2023-05-08,1,,,,,ジョブリリーフ,0
2137,7180001156131,新規,0,2023-05-08,2023-05-08,株式会社Ｗｉｌｌ　Ｖｉｓｉｏｎ　Ｃｏｎｓｔｒｕｃｔ,,株式会社,愛知県,名古屋市緑区,文久山１１３７番地,,23,114,4598008,,,,,,,2023-05-08,1,,,,,ウィルヴィジョンコンストラクト,0
2138,7180001156148,新規,0,2023-05-08,2023-05-08,ＤＨサポート株式会社,,株式会社,愛知県,豊明市,沓掛町丘下１２番地１,,23,229,4701101,,,,,,,2023-05-08,1,,,,,ディーエイチサポート,0
2139,7180001156164,新規,0,2023-05-08,2023-05-08,株式会社こころメディカルサービス,,株式会社,愛知県,北名古屋市,鹿田清水４０番地１,,23,234,4810004,,,,,,,2023-05-08,1,,,,,ココロメディカルサービス,0
2140,7180001156172,新規,0,2023-05-08,2023-05-08,株式会社ＹＴ,,株式会社,愛知県,海部郡蟹江町,錦２丁目４９番地１,,23,425,4970054,,,,,,,2023-05-08,1,,,,,ワイティー,0
2141,7180001156189,新規,0,2023-05-08,2023-05-08,株式会社わらいば,,株式会社,愛知県,名古屋市南区,前浜通７丁目１番地の２,,23,112,4570058,,,,,,,2023-05-08,1,,,,,ワライバ,0
2147,7180003025185,新規,0,2023-05-08,2023-05-08,合同会社Ａｐｒｉｌ,,合同会社,愛知県,名古屋市西区,那古野１丁目１８番５号東棟２階,,23,104,4510042,,,,,,,2023-05-08,1,,,,,エイプリル,0
2150,7180301037353,新規,0,2023-05-08,2023-05-08,株式会社Ａ．Ｐ．Ｆ,,株式会社,愛知県,岡崎市,東大友町字稲葉１０５番地,,23,202,4440903,,,,,,,2023-05-08,1,,,,,エーピーエフ,0
2153,7190005011819,新規,0,2023-05-08,2023-05-08,行政書士法人みのり,,その他の設立登記法人,三重県,松阪市,市場庄町１１４７番地１,,24,204,5152121,,,,,,,2023-05-08,1,,,,,ミノリ,0
2157,7200001041264,新規,0,2023-05-08,2023-05-08,株式会社永嘉建築．,,株式会社,岐阜県,各務原市,小佐野町４丁目２４９番地１,,21,213,5040942,,,,,,,2023-05-08,1,,,,,ナガヨシケンチク,0
2164,7220003003509,新規,0,2023-05-08,2023-05-08,合同会社ＭＫＪ,,合同会社,石川県,金沢市,横川１丁目４９番地,,17,201,9218163,,,,,,,2023-05-08,1,,,,,エムケイジェイ,0
2171,7240001061440,新規,0,2023-05-08,2023-05-08,株式会社Ｊａｍ,,株式会社,広島県,福山市,東深津町５丁目１８－１５,,34,207,7210974,,,,,,,2023-05-08,1,,,,,ジャム,0
2172,7240001061457,新規,0,2023-05-08,2023-05-08,株式会社田原電工,,株式会社,広島県,広島市中区,江波南３丁目３番１６号,,34,101,7300835,,,,,,,2023-05-08,1,,,,,タハラデンコウ,0
2173,7240001061473,新規,0,2023-05-08,2023-05-08,株式会社クラリティ,,株式会社,広島県,広島市中区,八丁堀２番３１号広島鴻池ビル６０３,,34,101,7300013,,,,,,,2023-05-08,1,,,,,クラリティ,0
2178,7260001037926,新規,0,2023-05-08,2023-05-08,株式会社ＡＬＬ,,株式会社,岡山県,岡山市北区,幸町６番２３号ノースパーク幸町３Ｆ,,33,101,7000903,,,,,,,2023-05-08,1,,,,,オール,0
2179,7270001008769,新規,0,2023-05-08,2023-05-08,株式会社ＰＰＰプログレス江府２０２３,,株式会社,鳥取県,日野郡江府町,大字小江尾６５１番地５,,31,403,6894402,,,,,,,2023-05-08,1,,,,,ピーピーピープログレスコウフニーマルニーサン,0
2185,7290001101398,新規,0,2023-05-08,2023-05-08,株式会社ＪＴＬ　ＪＥＷＥＬＲＹ,,株式会社,福岡県,福岡市博多区,神屋町４－２－５０１号,,40,132,8120022,,,,,,,2023-05-08,1,,,,,ジェイティエルジュエリー,0
2186,7290001101407,新規,0,2023-05-08,2023-05-08,株式会社ＮＡ,,株式会社,福岡県,飯塚市,菰田東２丁目５番７０号１Ｆ,,40,205,8200016,,,,,,,2023-05-08,1,,,,,エヌエー,0
2187,7290001101464,新規,0,2023-05-08,2023-05-08,株式会社アントレウィズ,,株式会社,福岡県,福岡市早良区,西新３丁目７番１１号西南ハイツ１０５号,,40,137,8140002,,,,,,,2023-05-08,1,,,,,アントレウィズ,0
2192,7290003013880,新規,0,2023-05-08,2023-05-08,合同会社フォーライフファクトリー,,合同会社,福岡県,福岡市西区,小戸４丁目７番２７－１０１号,,40,135,8190001,,,,,,,2023-05-08,1,,,,,フォーライフファクトリー,0
2196,7290801029500,新規,0,2023-05-08,2023-05-08,株式会社ＧＳＩ地研,,株式会社,福岡県,北九州市小倉南区,守恒本町２丁目６番６号,,40,107,8020971,,,,,,,2023-05-08,1,,,,,ジーエスアイチケン,0
2199,7310003004563,新規,0,2023-05-08,2023-05-08,合同会社ＴＵＴＩＮ,,合同会社,長崎県,長崎市,十人町２番２号,,42,201,8500908,,,,,,,2023-05-08,1,,,,,,0
2200,7330001009257,新規,0,2023-05-08,2023-05-08,株式会社レキセイ,,株式会社,熊本県,菊池郡菊陽町,大字原水１３８５番地２,,43,404,8691102,,,,,,,2023-05-08,1,,,,,レキセイ,0
2201,7330001030840,新規,0,2023-05-08,2023-05-08,株式会社ＡＬＬ,,株式会社,熊本県,荒尾市,桜山町１丁目２番１８号,,43,204,8640022,,,,,,,2023-05-08,1,,,,,オール,0
2203,7330003009833,新規,0,2023-05-08,2023-05-08,くまもと建築鑑定合同会社,,合同会社,熊本県,熊本市東区,若葉３丁目１１番２号,,43,102,8620903,,,,,,,2023-05-08,1,,,,,クマモトケンチクカンテイ,0
2205,7330005010657,新規,0,2023-05-08,2023-05-08,一般社団法人みふね中山間地域定住支援センター,,その他の設立登記法人,熊本県,上益城郡御船町,大字上野５１０８番地,,43,441,8613322,,,,,,,2023-05-08,1,,,,,ミフネチュウサンカンチイキテイジュウシエンセンター,0
2208,7340003004115,新規,0,2023-05-08,2023-05-08,合同会社一凛,,合同会社,鹿児島県,出水市,米ノ津町９番１５号,,46,208,8990121,,,,,,,2023-05-08,1,,,,,イチリン,0
2209,7340005009599,新規,0,2023-05-08,2023-05-08,特定非営利活動法人かごしま救急災害教育研究支援ネットワーク,,その他の設立登記法人,鹿児島県,鹿児島市,桜ヶ丘８丁目３５番１号,,46,201,8900075,,,,,,,2023-05-08,1,,,,,カゴシマキュウキュウサイガイキョウイクケンキュウシエンネットワーク,0
2211,7350001018330,新規,0,2023-05-08,2023-05-08,ひので電工株式会社,,株式会社,宮崎県,串間市,大字北方５５１５番地１,,45,207,8880005,,,,,,,2023-05-08,1,,,,,ヒノデデンコウ,0
2212,7350001018347,新規,0,2023-05-08,2023-05-08,株式会社ｂｋｂｏａｔ,,株式会社,宮崎県,宮崎市,青島４丁目１４０番,,45,201,8892162,,,,,,,2023-05-08,1,,,,,ビーケーボート,0
2218,7380001033649,新規,0,2023-05-08,2023-05-08,ａＮＥＴ　ＺＥＲＯ株式会社,,株式会社,福島県,双葉郡浪江町,大字請戸字北迫１３８番地,,07,547,9791522,,,,,,,2023-05-08,1,,,,,エーネットゼロ,0
2219,7380001033673,新規,0,2023-05-08,2023-05-08,株式会社五光工業,,株式会社,福島県,須賀川市,古舘５番地２,,07,207,9620861,,,,,,,2023-05-08,1,,,,,ゴコウコウギョウ,0
2228,7390001017246,新規,0,2023-05-08,2023-05-08,株式会社ＭＫ工業,,株式会社,山形県,新庄市,中道町１３番地の４,,06,205,9960081,,,,,,,2023-05-08,1,,,,,エムケーコウギョウ,0
2229,7390001017254,新規,0,2023-05-08,2023-05-08,ＭＥＮＧＯＩＮＯ株式会社,,株式会社,山形県,酒田市,旭新町８－４４,,06,204,9980021,,,,,,,2023-05-08,1,,,,,メンゴイノ,0
2233,7400001016238,新規,0,2023-05-08,2023-05-08,株式会社千葉厩舎,,株式会社,岩手県,奥州市,水沢真城字川尻１５５番地１,,03,215,0230841,,,,,,,2023-05-08,1,,,,,チバキュウシャ,0
2245,7700150084014,新規,0,2023-05-08,2017-06-16,産直はまなす陸前高田直売組合,,その他,岩手県,陸前高田市,米崎町字川向１４６－１,,03,210,0292206,,,,,,,2017-06-16,1,,,,,サンチヨクハマナスリクゼンタカタチヨクバイクミアイ,0
2247,7700150115702,新規,0,2023-05-08,2023-04-25,コレギウムＳｐａｃｅ４１５,,その他,東京都,中野区,新井２丁目４８－１２,,13,114,1650026,,,,,,,2023-04-25,1,,,,,コレギウムスペースヨンイチゴ,0
2248,7700150115909,新規,0,2023-05-08,2023-05-08,Ｃｈａｎｇｓｈａ　Ｙｕｅｐｕ　Ｅｒｔｏｎｇ　Ｙｏｎｇｐｉｎ　Ｙｏｕｘｉａｎ　Ｇｏｎｇｓｉ,,外国会社等,,,,,,,,ＮＯ．７　Ｑｉａｎｊｉｎ　Ｒｏａｄ，Ｗｕｓｈａｎ　Ｓｔｒｅｅｔ，Ｗａｎｇｃｈｅｎｇ　Ｄｉｓｔｒｉｃｔ，Ｃｈａｎｇｓｈａ　Ｈｕｎａｎ,,,,,,2023-05-08,1,,,,,チヨウサヨプコトモヨウヒンユウゲンコウシ,0
2249,7700150115917,新規,0,2023-05-08,2023-05-08,Ｓｈｅｎ　Ｚｈｅｎ　Ｓｈｉ　Ｙｉ　Ｌｉａｎ　Ｄｕｏ　Ｋｅ　Ｊｉ　Ｙｏｕ　Ｘｉａｎ　Ｇｏｎｇ　Ｓｉ,,外国会社等,,,,,,,,Ｌｏｎｇ　Ｇａｎｇ　Ｑｕ　Ｂｕ　Ｊｉ　Ｊｉｅ　Ｄａｏ　Ｋｅ　Ｙｕａｎ　Ｓｈｅ　Ｑｕ　Ｂｕ　Ｓｈａ　Ｌｕ　２４５　Ｈａｏ　Ｍａｏ　Ｙｅ　Ｓｈｕ　Ｈｕａ　Ｊｉａｏ　Ｙｉ　Ｇｕａｎｇ　Ｃｈａｎｇ　５　Ｌｏｕ　５０１,,,,,,2023-05-08,1,,,,,シンセンシイチレンタテクノロジーユウゲンコウシ,0
2250,7700150115925,新規,0,2023-05-08,2023-05-08,ＣＨＥＮＧＢＡＮＧ　ＥＬＥＣＴＲＯＮＩＣ　ＬＩＭＩＴＥＤ,,外国会社等,,,,,,,,ＦｌａｔＢ，９／Ｆ，Ｔｈｏｍｓｏｎ　Ｃｏｍｍｅｒｃｉａｌ　Ｂｕｉｌｄｉｎｇ，８　Ｔｈｏｍｓｏｎ　Ｒｏａｄ，Ｗａｎ　Ｃｈａｉ，ＨＫ,,,,,,2023-05-08,1,,,,,セイバンデンシユウゲンコウシ,0
2251,7700150115933,新規,0,2023-05-08,2023-05-08,ＳｈｅｎＺｈｅｎＳｈｉＺｈｉＹｉＪｉａＪｕＹｏｕＸｉａｎＧｏｎｇＳｉ,,外国会社等,,,,,,,,Ｒｏｏｍ　６０１Ｐ，Ｘｕｙｕａｎ　Ｂｕｉｌｄｉｎｇ，Ｎｏ．５００３，Ｌｏｎｇｇａｎｇ　Ｒｏａｄ（Ｌｏｎｇｇａｎｇ　Ｓｅｃｔｉｏｎ），Ｎａｎｌｉａｎ　Ｃｏｍｍｕｎｉｔｙ，Ｌｏｎｇｇａｎｇ　Ｓｔｒｅｅｔ，Ｌｏｎｇｇａｎｇ　Ｄｉｓｔｒｉｃｔ，Ｓｈｅｎｚｈｅｎ,,,,,,2023-05-08,1,,,,,シンセンシチイカグユウゲンコウシ,0
2260,8010001235000,新規,0,2023-05-08,2023-05-08,株式会社Ｐｅｇ,,株式会社,東京都,中央区,銀座１丁目１５番４号銀座一丁目ビル７階,,13,102,1040061,,,,,,,2023-05-08,1,,,,,ペグ,0
2261,8010001235025,新規,0,2023-05-08,2023-05-08,アキラ株式会社,,株式会社,東京都,千代田区,大手町１丁目６番１号,,13,101,1000004,,,,,,,2023-05-08,1,,,,,アキラ,0
2262,8010001235033,新規,0,2023-05-08,2023-05-08,株式会社ＨＯＫＥＴ,,株式会社,東京都,千代田区,平河町１丁目３番６号ＢＩＺＭＡＲＫＳ麹町５階,,13,101,1020093,,,,,,,2023-05-08,1,,,,,ホケット,0
2263,8010001235090,新規,0,2023-05-08,2023-05-08,プラス情報株式会社,,株式会社,東京都,文京区,本郷４丁目１６番６号天翔オフィス後楽園１００３,,13,105,1130033,,,,,,,2023-05-08,1,,,,,プラスジョウホウ,0
2264,8010003040489,新規,0,2023-05-08,2023-05-08,合同会社ＭＧＴ＆ｃ,,合同会社,東京都,中央区,八重洲１丁目１番８号八重洲ＫＴビル５階,,13,102,1030028,,,,,,,2023-05-08,1,,,,,エムジーティーアンドシー,0
2265,8010003040497,新規,0,2023-05-08,2023-05-08,ＡＣ２６合同会社,,合同会社,東京都,千代田区,内神田２丁目２番６号５階あすな会計事務所内,,13,101,1010047,,,,,,,2023-05-08,1,,,,,エーシートゥエンティシックス,0
2266,8010003040506,新規,0,2023-05-08,2023-05-08,合同会社リブラ,,合同会社,東京都,千代田区,九段南３丁目７番７号成和綜合会計事務所内,,13,101,1020074,,,,,,,2023-05-08,1,,,,,リブラ,0
2267,8010105002214,新規,0,2023-05-08,2023-05-08,一般社団法人地域健康プロジェクト研究所ＳＴＡＲＴ８,,その他の設立登記法人,東京都,八王子市,南町４番１号テラグレイス金久４０３号,,13,201,1920072,,,,,,,2023-05-08,1,,,,,チイキケンコウプロジェクトケンキュウジョスタートハチオウジ,0
2276,8010501050386,新規,0,2023-05-08,2023-05-08,景恒商事株式会社,,株式会社,東京都,台東区,浅草橋５丁目１番３１ロッキービル３階ＤＡＯＳＰＡＣＥ浅草橋３０７号室,,13,106,1110053,,,,,,,2023-05-08,1,,,,,ケイコウショウジ,0
2277,8010501050403,新規,0,2023-05-08,2023-05-08,株式会社ネガティブデータシステム,,株式会社,東京都,台東区,上野６丁目１６番２２号,,13,106,1100005,,,,,,,2023-05-08,1,,,,,ネガティブデータシステム,0
2278,8010501050411,新規,0,2023-05-08,2023-05-08,株式会社基総,,株式会社,東京都,台東区,浅草２丁目２１番４号寿々喜ビル１Ｆ,,13,106,1110032,,,,,,,2023-05-08,1,,,,,キサト,0
2280,8010601063040,新規,0,2023-05-08,2023-05-08,株式会社Ｗｉｎｆｉｅｌｄ,,株式会社,東京都,墨田区,亀沢３丁目１４番１号,,13,107,1300014,,,,,,,2023-05-08,1,,,,,ウィンフィールド,0
2281,8010601063057,新規,0,2023-05-08,2023-05-08,東京コンテック株式会社,,株式会社,東京都,江東区,豊洲３丁目７番５号芝浦工業大学ＢＯｉＣＥインキュベーションスクエア,,13,108,1350061,,,,,,,2023-05-08,1,,,,,トウキョウコンテック,0
2283,8010603010131,新規,0,2023-05-08,2023-05-08,合同会社創家,,合同会社,東京都,江東区,亀戸４丁目１７番２８号ＫＤ亀戸２０１,,13,108,1360071,,,,,,,2023-05-08,1,,,,,ソウヤ,0
2285,8010801033917,新規,0,2023-05-08,2023-05-08,株式会社一粒万福,,株式会社,東京都,大田区,中馬込２丁目２０番８号メゾン堀切２０２,,13,111,1430027,,,,,,,2023-05-08,1,,,,,イチリュウマンプク,0
2286,8010801033925,新規,0,2023-05-08,2023-05-08,ビクトリアグローバルコンサルティング株式会社,,株式会社,東京都,大田区,田園調布１丁目２３番１６号コートデコ田園調布１０４号,,13,111,1450071,,,,,,,2023-05-08,1,,,,,ビクトリアグローバルコンサルティング,0
2287,8010803004536,新規,0,2023-05-08,2023-05-08,森事務所合同会社,,合同会社,東京都,大田区,久が原１丁目３８番１２号ベラコルテ５,,13,111,1460085,,,,,,,2023-05-08,1,,,,,モリジムショ,0
2292,8011101102718,新規,0,2023-05-08,2023-05-08,株式会社Ｐｒｅｔｔｙ　Ｇａｒｄｅｎ,,株式会社,東京都,新宿区,西新宿６丁目１２番６－７０７号,,13,104,1600023,,,,,,,2023-05-08,1,,,,,プリティガーデン,0
2293,8011101102742,新規,0,2023-05-08,2023-05-08,株式会社Ｍｅｄｉｔｅｄ,,株式会社,東京都,新宿区,西新宿３丁目３番１３号西新宿水間ビル２Ｆ,,13,104,1600023,,,,,,,2023-05-08,1,,,,,メディテッド,0
2295,8011103013013,新規,0,2023-05-08,2023-05-08,合同会社Ｔｏｐｉａ,,合同会社,東京都,新宿区,西新宿３丁目３番１３号西新宿水間ビル６階,,13,104,1600023,,,,,,,2023-05-08,1,,,,,トピア,0
2297,8011201024622,新規,0,2023-05-08,2023-05-08,株式会社店長道東京,,株式会社,東京都,中野区,中野２丁目３０番１４号多幸丸製粉内,,13,114,1640001,,,,,,,2023-05-08,1,,,,,テンチョウドウトウキョウ,0
2302,8011401025107,新規,0,2023-05-08,2023-05-08,株式会社暁,,株式会社,東京都,板橋区,大山町２４番１５号,,13,119,1730023,,,,,,,2023-05-08,1,,,,,アカツキ,0
2303,8011403003985,新規,0,2023-05-08,2023-05-08,合同会社ＭＥＴＡＬ　ＭＡＮ,,合同会社,東京都,板橋区,南常盤台１丁目１１番６号,,13,119,1740072,,,,,,,2023-05-08,1,,,,,メタルマン,0
2308,8011703003462,新規,0,2023-05-08,2023-05-08,エダマダカ合同会社,,合同会社,東京都,江戸川区,西葛西８丁目８番３号,,13,123,1340088,,,,,,,2023-05-08,1,,,,,エダマダカ,0
2310,8012303001815,新規,0,2023-05-08,2023-05-08,合同会社まるえん,,合同会社,東京都,町田市,小山ヶ丘１丁目１４番地６,,13,209,1940215,,,,,,,2023-05-08,1,,,,,マルエン,0
2311,8012701017636,新規,0,2023-05-08,2023-05-08,株式会社Ａｌｉｖｅ,,株式会社,東京都,清瀬市,中里４丁目１１５０番地２,,13,221,2040003,,,,,,,2023-05-08,1,,,,,アライブ,0
2317,8013301050713,新規,0,2023-05-08,2023-05-08,株式会社Ｓ‐ｍａｇｉｃ,,株式会社,東京都,豊島区,西池袋３丁目２５番１５号４階,,13,116,1710021,,,,,,,2023-05-08,1,,,,,エスマジック,0
2326,8020001151411,新規,0,2023-05-08,2023-05-08,株式会社１ｓｔ,,株式会社,神奈川県,横浜市西区,境之谷５３番地２３宮城ハイツ１０３号,,14,103,2200054,,,,,,,2023-05-08,1,,,,,ファースト,0
2327,8020001151444,新規,0,2023-05-08,2023-05-08,株式会社一心,,株式会社,神奈川県,横浜市鶴見区,駒岡２丁目６番８－１０３号,,14,101,2300071,,,,,,,2023-05-08,1,,,,,イッシン,0
2329,8020003023807,新規,0,2023-05-08,2023-05-08,合同会社Ｓｔｒｕｔ,,合同会社,神奈川県,川崎市中原区,下沼部１８９４番地２０ヨコミゾマンション２０１,,14,133,2110011,,,,,,,2023-05-08,1,,,,,ストラット,0
2330,8021001078933,新規,0,2023-05-08,2023-05-08,ウェルビーイング株式会社,,株式会社,神奈川県,藤沢市,辻堂西海岸３丁目１番２７－２０５号,,14,205,2510046,,,,,,,2023-05-08,1,,,,,ウェルビーイング,0
2331,8021001078974,新規,0,2023-05-08,2023-05-08,株式会社小野工務店,,株式会社,神奈川県,茅ヶ崎市,浜見平１３番６－１０１号,,14,207,2530062,,,,,,,2023-05-08,1,,,,,オノコウムテン,0
2333,8021003013054,新規,0,2023-05-08,2023-05-08,合同会社道観企画,,合同会社,神奈川県,厚木市,戸室５丁目１２番１７号（１０６）,,14,212,2430031,,,,,,,2023-05-08,1,,,,,ドウカンキカク,0
2349,8040001128242,新規,0,2023-05-08,2023-05-08,株式会社鳳重興,,株式会社,千葉県,松戸市,大橋９１番地の９,,12,207,2702224,,,,,,,2023-05-08,1,,,,,オオトリジュウコウ,0
2351,8040003022526,新規,0,2023-05-08,2023-05-08,合同会社瀧里,,合同会社,千葉県,山武市,富口３１２４番地１７,,12,237,2891323,,,,,,,2023-05-08,1,,,,,タキサト,0
2352,8040003022559,新規,0,2023-05-08,2023-05-08,合同会社ＳＮＥＴ,,合同会社,千葉県,印旛郡酒々井町,東酒々井３丁目３番１５（トゥ・セゾン１０２号）,,12,322,2850923,,,,,,,2023-05-08,1,,,,,エスネット,0
2353,8040005021996,新規,0,2023-05-08,2023-05-08,医療法人社団晴絢会,,その他の設立登記法人,千葉県,印西市,戸神６０４番地１６,,12,231,2701348,,,,,,,2023-05-08,1,,,,,セイケンカイ,0
2355,8050001052755,新規,0,2023-05-08,2023-05-08,株式会社やっほー,,株式会社,茨城県,水戸市,南町３丁目３番３５号,,08,201,3100021,,,,,,,2023-05-08,1,,,,,ヤッホー,0
2359,8070001040394,新規,0,2023-05-08,2023-05-08,株式会社Ｃ＆Ｇグループ,,株式会社,群馬県,渋川市,渋川８９８番地５３,,10,208,3770008,,,,,,,2023-05-08,1,,,,,,0
2360,8070001040411,新規,0,2023-05-08,2023-05-08,株式会社オハナサキ,,株式会社,群馬県,太田市,藤阿久町４８５番地２,,10,205,3730034,,,,,,,2023-05-08,1,,,,,オハナサキ,0
2361,8070001040428,新規,0,2023-05-08,2023-05-08,株式会社Ｋ‐ＴＥＣＨ,,株式会社,群馬県,前橋市,大利根町１丁目３８番地１２,,10,201,3710825,,,,,,,2023-05-08,1,,,,,ケーテック,0
2364,8080005007538,新規,0,2023-05-08,2023-05-08,医療法人社団彩朱会,,その他の設立登記法人,静岡県,榛原郡川根本町,千頭１１４７番地の１,,22,429,4280411,,,,,,,2023-05-08,1,,,,,サイシュカイ,0
2365,8080101023975,新規,0,2023-05-08,2023-05-08,株式会社ａｐｐｌａｕｓｅ,,株式会社,静岡県,富士宮市,小泉１３６４番地の８,,22,207,4180022,,,,,,,2023-05-08,1,,,,,アプローズ,0
2366,8080101023983,新規,0,2023-05-08,2023-05-08,株式会社ライフ１,,株式会社,静岡県,伊東市,富戸１３１７番地の２６３７,,22,208,4130231,,,,,,,2023-05-08,1,,,,,ライフワン,0
2367,8080401026471,新規,0,2023-05-08,2023-05-08,株式会社アメンド,,株式会社,静岡県,浜松市西区,入野町６３７６番地グラン・シェーヌ１０２,,22,133,4328061,,,,,,,2023-05-08,1,,,,,アメンド,0
2371,8090001018100,新規,0,2023-05-08,2023-05-08,株式会社ＤＥＳＫ,,株式会社,山梨県,南都留郡富士河口湖町,船津３６３９－２７,,19,430,4010301,,,,,,,2023-05-08,1,,,,,デスク,0
2374,8100003007000,新規,0,2023-05-08,2023-05-08,ＫＹ　ｉｎｓｉｇｈｔ合同会社,,合同会社,長野県,北安曇郡白馬村,大字北城９４６４番地９２,,20,485,3999301,,,,,,,2023-05-08,1,,,,,ケイワイインサイト,0
2387,8120001254542,新規,0,2023-05-08,2023-05-08,雨沁株式会社,,株式会社,大阪府,大阪市東住吉区,杭全１丁目１７番１７号２０１号室,,27,121,5460002,,,,,,,2023-05-08,1,,,,,ウシン,0
2388,8120001254550,新規,0,2023-05-08,2023-05-08,ＰＨＯＥＮＩＸ　ＢＲＵＳＨ株式会社,,株式会社,大阪府,大阪市東住吉区,南田辺１丁目８番４３号,,27,121,5460033,,,,,,,2023-05-08,1,,,,,フェニックスブラシ,0
2389,8120001254559,新規,0,2023-05-08,2023-05-08,株式会社サンシャイン,,株式会社,大阪府,大阪市大正区,三軒家西１丁目２４番６号,,27,108,5510001,,,,,,,2023-05-08,1,,,,,サンシャイン,0
2390,8120001254600,新規,0,2023-05-08,2023-05-08,東櫻商事株式会社,,株式会社,大阪府,大阪市西成区,聖天下２丁目１０番１３号,,27,122,5570012,,,,,,,2023-05-08,1,,,,,トウオウショウジ,0
2391,8120001254609,新規,0,2023-05-08,2023-05-08,株式会社ファーストテック,,株式会社,大阪府,大阪市東淀川区,豊里２丁目２０番１６号,,27,114,5330013,,,,,,,2023-05-08,1,,,,,ファーストテック,0
2392,8120001254617,新規,0,2023-05-08,2023-05-08,株式会社大世金属,00130370,株式会社,大阪府,大阪市西成区,南津守５丁目１０番２５号,,27,122,5570063,,,,,,,2023-05-08,1,,,,,タイセイキンゾク,0
2394,8120003023986,新規,0,2023-05-08,2023-05-08,ＺＥＮ合同会社,,合同会社,大阪府,大阪市中央区,安堂寺町２丁目７番２号朝日プラザ長堀東パサージュ３０３号,,27,128,5420061,,,,,,,2023-05-08,1,,,,,ゼン,0
2395,8120003024002,新規,0,2023-05-08,2023-05-08,合同会社ＧＯＯＤＤＡＹ,,合同会社,大阪府,大阪市港区,池島２丁目６番６－５１１号,,27,107,5520015,,,,,,,2023-05-08,1,,,,,グッドデイ,0
2398,8120005023605,新規,0,2023-05-08,2023-05-08,司法書士法人チェスター大阪,,その他の設立登記法人,大阪府,大阪市北区,中之島２丁目２番２号大阪中之島ビル１３階,,27,127,5300005,,,,,,,2023-05-08,1,,,,,チェスターオオサカ,0
2406,8122001036929,新規,0,2023-05-08,2023-05-08,株式会社みつばち,,株式会社,大阪府,東大阪市,横沼町１丁目８番１８号シャルムラシーネ２０２,,27,227,5770808,,,,,,,2023-05-08,1,,,,,ミツバチ,0
2413,8130001074213,新規,0,2023-05-08,2023-05-08,株式会社福優,,株式会社,京都府,木津川市,木津殿城９０番地６,,26,214,6190214,,,,,,,2023-05-08,1,,,,,フクユウ,0
2414,8130001074246,新規,0,2023-05-08,2023-05-08,株式会社京和不動産鑑定所,,株式会社,京都府,宇治市,槇島町三十五３１番地の３,,26,204,6110041,,,,,,,2023-05-08,1,,,,,キョウワフドウサンカンテイショ,0
2415,8130001074270,新規,0,2023-05-08,2023-05-08,リバーズコーポレーション株式会社,,株式会社,京都府,京都市伏見区,醍醐南里町５２番地の５,,26,109,6011352,,,,,,,2023-05-08,1,,,,,リバーズコーポレーション,0
2416,8130003008706,新規,0,2023-05-08,2023-05-08,合同会社Ｔｉｐ　Ｒｏｃｋ,,合同会社,京都府,京都市伏見区,深草西伊達町８７－９２,,26,109,6120876,,,,,,,2023-05-08,1,,,,,チップロック,0
2425,8140001130007,新規,0,2023-05-08,2023-05-08,株式会社新井工房,,株式会社,兵庫県,加古川市,志方町志方町６６６番地の１,,28,210,6750321,,,,,,,2023-05-08,1,,,,,アライコウボウ,0
2426,8140001130064,新規,0,2023-05-08,2023-05-08,株式会社１３３ｃｈ,,株式会社,兵庫県,神戸市中央区,中山手通１丁目１３番１０号,,28,110,6500004,,,,,,,2023-05-08,1,,,,,イサミッチ,0
2427,8140001130089,新規,0,2023-05-08,2023-05-08,株式会社令和ケミカル,,株式会社,兵庫県,加古川市,尾上町口里６２２番地の５,,28,210,6750022,,,,,,,2023-05-08,1,,,,,レイワケミカル,0
2430,8140003019058,新規,0,2023-05-08,2023-05-08,合同会社かちクリエイト,,合同会社,兵庫県,神戸市東灘区,魚崎南町５丁目５番１２－１１１２号,,28,101,6580025,,,,,,,2023-05-08,1,,,,,カチクリエイト,0
2433,8160001025023,新規,0,2023-05-08,2023-05-08,株式会社ブルーウッド,,株式会社,滋賀県,草津市,駒井沢町２４６番地２,,25,206,5250014,,,,,,,2023-05-08,1,,,,,ブルーウッド,0
2434,8160003002870,新規,0,2023-05-08,2023-05-08,モントリオー合同会社,,合同会社,滋賀県,彦根市,芹町８番３５号,,25,202,5220032,,,,,,,2023-05-08,1,,,,,モントリオー,0
2442,8180001156122,新規,0,2023-05-08,2023-05-08,ほしつき株式会社,,株式会社,愛知県,名古屋市中区,錦３丁目１８番１１号,,23,106,4600003,,,,,,,2023-05-08,1,,,,,ホシツキ,0
2443,8180001156139,新規,0,2023-05-08,2023-05-08,株式会社エイチ・エス・ティー,,株式会社,愛知県,名古屋市西区,城西２丁目４番９号,,23,104,4510031,,,,,,,2023-05-08,1,,,,,エイチエスティー,0
2444,8180001156147,新規,0,2023-05-08,2023-05-08,株式会社ａｎｏｗａＮＸ,,株式会社,愛知県,名古屋市中区,新栄２丁目３５番２１号,,23,106,4600007,,,,,,,2023-05-08,1,,,,,アノワネクスト,0
2445,8180001156163,新規,0,2023-05-08,2023-05-08,株式会社ＭＯＴＯＲＣＹＣＬＥ闇矢屋,,株式会社,愛知県,名古屋市中村区,亀島２丁目１８番７号,,23,105,4530013,,,,,,,2023-05-08,1,,,,,モーターサイクルヤミヤ,0
2446,8180001156171,新規,0,2023-05-08,2023-05-08,株式会社アイワークス,,株式会社,愛知県,名古屋市北区,西味鋺５丁目７２５番地の１,,23,103,4620016,,,,,,,2023-05-08,1,,,,,アイワークス,0
2447,8180001156188,新規,0,2023-05-08,2023-05-08,株式会社ジュノー,,株式会社,愛知県,名古屋市名東区,平和が丘４丁目２２６番地,,23,115,4650097,,,,,,,2023-05-08,1,,,,,ジュノー,0
2450,8180003025176,新規,0,2023-05-08,2023-05-08,合同会社ＡＷＥＳＯＭＥ　ＪＡＰＡＮ,,合同会社,愛知県,名古屋市東区,矢田２丁目１５番７号モアグレース大曽根東２０３号,,23,102,4610040,,,,,,,2023-05-08,1,,,,,オウサムジャパン,0
2451,8180003025192,新規,0,2023-05-08,2023-05-08,合同会社ルミエール,,合同会社,愛知県,名古屋市守山区,大字上志段味字東谷２０８０番地の１７９,,23,113,4630001,,,,,,,2023-05-08,1,,,,,ルミエール,0
2453,8180005020209,新規,0,2023-05-08,2023-05-08,一宮木曽川ＰＪ特定目的会社,,その他の設立登記法人,愛知県,名古屋市中区,新栄２丁目１１番２号,,23,106,4600007,,,,,,,2023-05-08,1,,,,,イチノミヤキソガワピージェイ,0
2457,8190005011818,新規,0,2023-05-08,2023-05-08,医療法人真正会,,その他の設立登記法人,三重県,亀山市,西丸町５３９番地,,24,210,5190159,,,,,,,2023-05-08,1,,,,,シンセイカイ,0
2459,8200001041255,新規,0,2023-05-08,2023-05-08,株式会社ファンライドモータース,,株式会社,岐阜県,安八郡安八町,城１丁目２５番地,,21,383,5030127,,,,,,,2023-05-08,1,,,,,ファンライドモータース,0
2460,8200001041263,新規,0,2023-05-08,2023-05-08,西濃土地企画株式会社,,株式会社,岐阜県,大垣市,中野町２丁目４４番地３,,21,202,5030022,,,,,,,2023-05-08,1,,,,,セイノウトチキカク,0
2465,8210003001644,新規,0,2023-05-08,2023-05-08,合同会社みずたま,,合同会社,福井県,三方上中郡若狭町,気山第２２９号７８番地の３,,18,501,9191301,,,,,,,2023-05-08,1,,,,,ミズタマ,0
2469,8230005009304,新規,0,2023-05-08,2023-05-08,医療法人社団黒田内科医院,,その他の設立登記法人,富山県,中新川郡立山町,米沢７番地１,,16,323,9303265,,,,,,,2023-05-08,1,,,,,クロダナイカイイン,0
2472,8240001061448,新規,0,2023-05-08,2023-05-08,株式会社Ｌｅａｄ　ｔｏ　ＪＡＰＡＮ,,株式会社,広島県,広島市中区,大手町２丁目６番１号ディアメゾン紙屋町８０２,,34,101,7300051,,,,,,,2023-05-08,1,,,,,リードトゥジャパン,0
2473,8240001061464,新規,0,2023-05-08,2023-05-08,リアンフーズ株式会社,,株式会社,広島県,広島市安佐南区,長楽寺１丁目８７番７号,,34,105,7310143,,,,,,,2023-05-08,1,,,,,リアンフーズ,0
2474,8240001061472,新規,0,2023-05-08,2023-05-08,株式会社エムズ,,株式会社,広島県,広島市安佐南区,西原９丁目１４番１２号,,34,105,7310113,,,,,,,2023-05-08,1,,,,,エムズ,0
2480,8250003003265,新規,0,2023-05-08,2023-05-08,ＮＥＸＴ３６９合同会社,,合同会社,山口県,防府市,大字上右田２７００番地の２,,35,206,7470062,,,,,,,2023-05-08,1,,,,,ネクストミロク,0
2484,8260001037925,新規,0,2023-05-08,2023-05-08,株式会社山陽ホーム工業,,株式会社,岡山県,岡山市南区,福浜町７－４,,33,104,7028035,,,,,,,2023-05-08,1,,,,,サンヨウホームコウギョウ,0
2492,8280001008932,新規,0,2023-05-08,2023-05-08,株式会社ＬＩＶＥＷＯＲＫ,,株式会社,島根県,出雲市,園町２５１番地,,32,203,6910076,,,,,,,2023-05-08,1,,,,,ライブワーク,0
2499,8290001101397,新規,0,2023-05-08,2023-05-08,株式会社ＦＭＯ,,株式会社,福岡県,福岡市博多区,井相田１丁目１３番２８－６０６号アンピール板付南,,40,132,8120881,,,,,,,2023-05-08,1,,,,,エフエムオー,0
2500,8290001101406,新規,0,2023-05-08,2023-05-08,株式会社Ｅ行,,株式会社,福岡県,小郡市,大崎８３１－９,,40,216,8380127,,,,,,,2023-05-08,1,,,,,イコウ,0
2501,8290001101439,新規,0,2023-05-08,2023-05-08,株式会社ラオン,,株式会社,福岡県,糟屋郡宇美町,貴船３丁目６番２７号,,40,341,8112131,,,,,,,2023-05-08,1,,,,,ラオン,0
2505,8290005019033,新規,0,2023-05-08,2023-05-08,医療法人ふじむら,,その他の設立登記法人,福岡県,朝倉市,甘木１８７７番地３,,40,228,8380068,,,,,,,2023-05-08,1,,,,,フジムラ,0
2506,8290801029508,新規,0,2023-05-08,2023-05-08,株式会社ＭＡＴＳＵＩ,,株式会社,福岡県,京都郡みやこ町,豊津７５４番地２０,,40,625,8240121,,,,,,,2023-05-08,1,,,,,マツイ,0
2512,8300001013285,新規,0,2023-05-08,2023-05-08,Ａ‐ｄｅｓｉｇｎ株式会社,,株式会社,佐賀県,西松浦郡有田町,下本乙２５７８－１番地,,41,401,8494172,,,,,,,2023-05-08,1,,,,,エーデザイン,0
2513,8300003001957,新規,0,2023-05-08,2023-05-08,合同会社ｇｒｏｗｔｈ,,合同会社,佐賀県,佐賀市,高木瀬西４丁目１０番６－２０５号,,41,201,8490921,,,,,,,2023-05-08,1,,,,,グロース,0
2520,8340001025566,新規,0,2023-05-08,2023-05-08,株式会社福岡ファーム,,株式会社,鹿児島県,鹿屋市,上祓川町７８８６番地,,46,203,8930027,,,,,,,2023-05-08,1,,,,,フクオカフアーム,0
2521,8340003004122,新規,0,2023-05-08,2023-05-08,合同会社Ｒｏｏｍ　ｏｆ　ｓｈｉｎｙ　ｏｒａｎｇｅ,,合同会社,鹿児島県,鹿児島市,西田３丁目２９番７号,,46,201,8900046,,,,,,,2023-05-08,1,,,,,ルームオブシャイニーオレンジ,0
2529,8390001017253,新規,0,2023-05-08,2023-05-08,大和総業株式会社,,株式会社,山形県,米沢市,金池１丁目２番１０号アーバンシティルピック１０１号室,,06,202,9920012,,,,,,,2023-05-08,1,,,,,ヤマトソウギョウ,0
2530,8390003002088,新規,0,2023-05-08,2023-05-08,合同会社Ｃ＆Ｈ,,合同会社,山形県,山形市,十日町２丁目２番５－２０７号,,06,201,9900031,,,,,,,2023-05-08,1,,,,,シーアンドエイチ,0
2531,8400001016229,新規,0,2023-05-08,2023-05-08,エハーサン貿易株式会社,,株式会社,岩手県,北上市,和賀町岩沢８地割８番地１００,,03,206,0240325,,,,,,,2023-05-08,1,,,,,エハーサンボウエキ,0
2532,8410001013472,新規,0,2023-05-08,2023-05-08,信興株式会社,,株式会社,秋田県,雄勝郡羽後町,林崎字三ツ盛２６番地９,,05,463,0121103,,,,,,,2023-05-08,1,,,,,シンコウ,0
2535,8410003003793,新規,0,2023-05-08,2023-05-08,合同会社Ｇｕｎｎｉｉ,,合同会社,秋田県,横手市,横手町字五ノ口３８番地１グロリアメンデル１　２０１号室,,05,203,0130061,,,,,,,2023-05-08,1,,,,,グニー,0
2537,8420003002720,新規,0,2023-05-08,2023-05-08,合同会社いつは,,合同会社,青森県,青森市,中佃３丁目２１番９号,,02,201,0300963,,,,,,,2023-05-08,1,,,,,,0
2542,8430001089008,新規,0,2023-05-08,2023-05-08,株式会社ｏｒｉｒｉ,,株式会社,北海道,札幌市豊平区,平岸六条１３丁目３番３０－４０６号,,01,105,0620936,,,,,,,2023-05-08,1,,,,,オリリ,0
2543,8430001089057,新規,0,2023-05-08,2023-05-08,株式会社Ａ　ｓｔａｇｅ,,株式会社,北海道,札幌市東区,北四十四条東１４丁目１番１８号,,01,103,0070844,,,,,,,2023-05-08,1,,,,,エーステージ,0
2549,8470001019596,新規,0,2023-05-08,2023-05-08,株式会社ｈｉｂｉ,,株式会社,香川県,綾歌郡宇多津町,浜四番丁４３番地１０,,37,386,7690204,,,,,,,2023-05-08,1,,,,,ヒビ,0
2556,8500001024915,新規,0,2023-05-08,2023-05-08,ＴＩＥＳ株式会社,,株式会社,愛媛県,松山市,福音寺町３０３番地２,,38,201,7900921,,,,,,,2023-05-08,1,,,,,タイズ,0
2559,8700150115908,新規,0,2023-05-08,2023-05-08,Ｈａｎｇｚｈｏｕ　ＹｕｅＦｕＳｉ　Ｓｕｐｐｌｙ　Ｃｈａｉｎ　Ｍａｎａｇｅｍｅｎｔ　Ｃｏ．，Ｌｔｄ．,,外国会社等,,,,,,,,Ｒｏｏｍ　１９０１，Ｂｕｉｌｄｉｎｇ　１，５６０　Ｙｕｅｍｉｎｇ　Ｒｏａｄ，Ｈａｎｇｚｈｏｕ，Ｚｈｅｊｉａｎｇ，Ｃｈｉｎａ,,,,,,2023-05-08,1,,,,,コウシユウヨウフスサプライチエーンマネジメントカンパニーリミテツド,0
2560,8700150115916,新規,0,2023-05-08,2023-05-08,Ｊｉｎ　ｈｕａ　ｌｉａｎ　ｗｕ　ｚｈｉ　ｄｉａｎ　ｚｉ　ｓｈａｎｇｗｕ　ｙｏｕｘｉａｎ　ｇｏｎｇｓｉ,,外国会社等,,,,,,,,Ｊｉｎ　ｄｏｎｇ　ｑｕ　ｊｉｎ　ｙｉ　ｄｕ　ｓｈｉ　ｘｉｎ　ｑｕ　ｇｕａｎｇ　ｑｕ　ｊｉｅ　１　ｈａｏ　１０　ｈａｏ　ｌｏｕ　００３　Ｚｈｅ　ｊｉａｎｇ　ｊｉｎ　ｈｕａ,,,,,,2023-05-08,1,,,,,キンカレンウシデンシシヨウムユウゲンコウシ,0
2561,8700150115924,新規,0,2023-05-08,2023-05-08,Ｇｕａｎｇｚｈｏｕ　Ｍａｔｃｈ　ｇａｒｍｅｎｔｓ　Ｃｏ．Ｌｔｄ,,外国会社等,,,,,,,,Ｇｕａｎｇｚｈｏｕｓｈｉ　Ｂａｉｙｕｎｑｕ　Ｙｕｎｃｈｅｎｇｄｏｎｇｌｕ　６５６ｈａｏｚｈｉｅｒｆａｎｇ,,,,,,2023-05-08,1,,,,,コウシユウマツチガーメントカンパニーリミテツド,0
2562,8700150115932,新規,0,2023-05-08,2023-05-08,ｗｕｈａｎｗｅｉｙｕｅｌａｎｓｈａｎｇｍａｏｙｏｕｘｉａｎｇｏｎｇｓｉ,,外国会社等,,,,,,,,Ｗｕｈａｎｓｈｉ　ｈｏｎｇｓｈａｑｕ　ｇｕａｎｓｈａｎｊｉｅ　ｌｕｍｏｌｕ１１８ｈａｏ　ｇｕｏｇｕａｎｇｄａｓｈａＢｚｕｏ５ｃｅｎｇ５０６ｓｈｉ－３,,,,,,2023-05-08,1,,,,,ブンカンイエツランシヨウボウユウゲンコウシ,0
2569,9010001235016,新規,0,2023-05-08,2023-05-08,株式会社保科,,株式会社,東京都,中央区,銀座７丁目１５番８号タウンハイツ銀座４０６,,13,102,1040061,,,,,,,2023-05-08,1,,,,,ホシナ,0
2570,9010001235024,新規,0,2023-05-08,2023-05-08,ＳＩＭホールディングス株式会社,,株式会社,東京都,中央区,築地２丁目１番２号,,13,102,1040045,,,,,,,2023-05-08,1,,,,,エスアイエムホールディングス,0
2571,9010001235040,新規,0,2023-05-08,2023-05-08,Ｙｏｌｎｉ株式会社,,株式会社,東京都,千代田区,神田練塀町３富士ソフト秋葉原ビル１２Ｆ,,13,101,1010022,,,,,,,2023-05-08,1,,,,,ヨルニ,0
2580,9010401174177,新規,0,2023-05-08,2023-05-08,株式会社ＧＰＴソリューションズ,,株式会社,東京都,港区,浜松町１丁目２３‐９,,13,103,1050013,,,,,,,2023-05-08,1,,,,,ジーピーティーソリューションズ,0
2587,9010601063048,新規,0,2023-05-08,2023-05-08,ＧＯＯＤ　ＳＵＣＣＥＳＳ株式会社,,株式会社,東京都,墨田区,押上１丁目１３番１０号,,13,107,1310045,,,,,,,2023-05-08,1,,,,,グッドサクセス,0
2588,9010601063056,新規,0,2023-05-08,2023-05-08,ＦＡＬ株式会社,,株式会社,東京都,江東区,住吉２丁目５番７号,,13,108,1350002,,,,,,,2023-05-08,1,,,,,エフエーエル,0
2590,9010603010130,新規,0,2023-05-08,2023-05-08,合同会社太太,,合同会社,東京都,墨田区,千歳１丁目１－１４アクシルコート新大橋９０１,,13,107,1300025,,,,,,,2023-05-08,1,,,,,オオタ,0
2598,9010903008155,新規,0,2023-05-08,2023-05-08,桜エイ・アンド・ピー・パートナーズ合同会社,,合同会社,東京都,世田谷区,奥沢３丁目１８―５,,13,112,1580083,,,,,,,2023-05-08,1,,,,,サクラエイアンドピーパートナーズ,0
2608,9011001154180,新規,0,2023-05-08,2023-05-08,株式会社Ｎ　Ｌｉｆｅ’ｓ,,株式会社,東京都,渋谷区,円山町５番５号,,13,113,1500044,,,,,,,2023-05-08,1,,,,,エヌライフズ,0
2609,9011001154206,新規,0,2023-05-08,2023-05-08,コロンビア・アセットマネジメント株式会社,,株式会社,東京都,渋谷区,渋谷３丁目２８番１５号,,13,113,1500002,,,,,,,2023-05-08,1,,,,,コロンビアアセットマネジメント,0
2611,9011003016750,新規,0,2023-05-08,2023-05-08,ＰＡＬＡＩＳ合同会社,,合同会社,東京都,目黒区,碑文谷３丁目１７番１２号,,13,110,1520003,,,,,,,2023-05-08,1,,,,,パレス,0
2614,9011101102741,新規,0,2023-05-08,2023-05-08,株式会社アルカディア,,株式会社,東京都,新宿区,百人町１丁目６番１２号コートＫ２０５,,13,104,1690073,,,,,,,2023-05-08,1,,,,,アルカディア,0
2619,9011201024621,新規,0,2023-05-08,2023-05-08,株式会社ＩＭＡ,,株式会社,東京都,中野区,中野５丁目５０番４号リカム１０ビル２Ｆ,,13,114,1640001,,,,,,,2023-05-08,1,,,,,イマ,0
2620,9011401025106,新規,0,2023-05-08,2023-05-08,さと建設株式会社,,株式会社,東京都,板橋区,常盤台１丁目３８番２号２０３,,13,119,1740071,,,,,,,2023-05-08,1,,,,,サトケンセツ,0
2621,9011401025114,新規,0,2023-05-08,2023-05-08,株式会社ＧｏｌｄＬｉｎｅ,,株式会社,東京都,板橋区,西台２丁目６－９,,13,119,1750045,,,,,,,2023-05-08,1,,,,,ゴールドライン,0
2622,9011401025122,新規,0,2023-05-08,2023-05-08,株式会社ＨＲＣ　ＪＡＰＡＮ,,株式会社,東京都,板橋区,赤塚４丁目２３番５号,,13,119,1750092,,,,,,,2023-05-08,1,,,,,エイチアールシージャパン,0
2626,9011701026209,新規,0,2023-05-08,2023-05-08,株式会社テン・ナイン,,株式会社,東京都,江戸川区,船堀１丁目４番１０号,,13,123,1340091,,,,,,,2023-05-08,1,,,,,テンナイン,0
2627,9011701026217,新規,0,2023-05-08,2023-05-08,株式会社ＢＬＵＥＣＯＲＡＬ,,株式会社,東京都,江戸川区,春江町２丁目３０番２号,,13,123,1320003,,,,,,,2023-05-08,1,,,,,ブルーコーラル,0
2629,9012301013431,新規,0,2023-05-08,2023-05-08,Ｔｏｐ　Ｎｏｔｅ株式会社,,株式会社,東京都,町田市,成瀬が丘３丁目２９－１０,,13,209,1940011,,,,,,,2023-05-08,1,,,,,トップノート,0
2632,9012403005962,新規,0,2023-05-08,2023-05-08,Ｍａｓｓｉｖｅ＆Ｃｒｅｗ合同会社,,合同会社,東京都,三鷹市,中原１丁目３番１７号,,13,204,1810005,,,,,,,2023-05-08,1,,,,,マッシブアンドクルー,0
2633,9012403005970,新規,0,2023-05-08,2023-05-08,合同会社ＲＥ‐ＲＯＯＭ,,合同会社,東京都,武蔵野市,西久保３丁目１３番１９号マンション三祥１０１,,13,203,1800013,,,,,,,2023-05-08,1,,,,,リルーム,0
2634,9012701017635,新規,0,2023-05-08,2023-05-08,株式会社Ｂｌｕｅ　Ｒｅｐｕｂｌｉｃ,,株式会社,東京都,小平市,鈴木町２丁目１７６番地の４ザ・パークハウス花小金井ガーデンＩ街区１１９号,,13,211,1870011,,,,,,,2023-05-08,1,,,,,ブルーリパブリック,0
2636,9012801022329,新規,0,2023-05-08,2023-05-08,株式会社国立ファーム,,株式会社,東京都,立川市,曙町２丁目２８番２６号,,13,202,1900012,,,,,,,2023-05-08,1,,,,,クニタチファーム,0
2637,9013101009157,新規,0,2023-05-08,2023-05-08,ＥＰＳ‐Ｅｈｒｈａｒｄｔ　Ｐａｒｔｎｅｒ　Ｓｏｌｕｔｉｏｎｓ株式会社,,株式会社,東京都,青梅市,吹上１７０番地の１,,13,205,1980015,,,,,,,2023-05-08,1,,,,,イーピーエスエアハルトパートナーソリューションズ,0
2638,9013101009165,新規,0,2023-05-08,2023-05-08,株式会社セルテック,,株式会社,東京都,羽村市,羽加美２丁目９－２,,13,227,2050016,,,,,,,2023-05-08,1,,,,,セルテック,0
2639,9013103001228,新規,0,2023-05-08,2023-05-08,建設業ＫＩＣＯＨ合同会社,,合同会社,東京都,青梅市,東青梅３丁目１７－７サンシャトー東青梅２０２,,13,205,1980042,,,,,,,2023-05-08,1,,,,,ケンセツギョウキコー,0
2650,9020001151377,新規,0,2023-05-08,2023-05-08,株式会社和和食品,,株式会社,神奈川県,川崎市川崎区,追分町１３番５号フローラハイツ１０３,,14,131,2100835,,,,,,,2023-05-08,1,,,,,ワワショクヒン,0
2651,9020001151410,新規,0,2023-05-08,2023-05-08,株式会社医想空間,,株式会社,神奈川県,横浜市栄区,上郷町１８１番地上郷表ハイツ１０１,,14,115,2470013,,,,,,,2023-05-08,1,,,,,イソウクウカン,0
2652,9020001151427,新規,0,2023-05-08,2023-05-08,ケイエー株式会社,,株式会社,神奈川県,横浜市瀬谷区,阿久和西２丁目２３番地６６,,14,114,2460025,,,,,,,2023-05-08,1,,,,,ケイエー,0
2653,9020001151435,新規,0,2023-05-08,2023-05-08,株式会社ＫＺＭ,,株式会社,神奈川県,横浜市鶴見区,下末吉１丁目９番７号２階,,14,101,2300012,,,,,,,2023-05-08,1,,,,,ケーゼットエム,0
2654,9020001151443,新規,0,2023-05-08,2023-05-08,株式会社エー・シー・エム,,株式会社,神奈川県,横浜市保土ケ谷区,桜ケ丘１丁目１８番２６号,,14,106,2400011,,,,,,,2023-05-08,1,,,,,エーシーエム,0
2655,9020001151476,新規,0,2023-05-08,2023-05-08,株式会社ティアンドエム,,株式会社,神奈川県,横浜市金沢区,富岡東１丁目７番１２号,,14,108,2360051,,,,,,,2023-05-08,1,,,,,ティアンドエム,0
2659,9020005015982,新規,0,2023-05-08,2023-05-08,一般社団法人かたわら,,その他の設立登記法人,神奈川県,横浜市港北区,日吉４丁目１０番６号パオ日吉１０３号,,14,109,2230061,,,,,,,2023-05-08,1,,,,,カタワラ,0
2662,9021001078924,新規,0,2023-05-08,2023-05-08,株式会社ＢＯＯＭ,,株式会社,神奈川県,大和市,福田１６００番地２アビテボナール１０２,,14,213,2420024,,,,,,,2023-05-08,1,,,,,ブーム,0
2663,9021001078940,新規,0,2023-05-08,2023-05-08,株式会社ＳＴ,,株式会社,神奈川県,綾瀬市,大上６丁目１３番１６号,,14,218,2521104,,,,,,,2023-05-08,1,,,,,エスティ,0
2681,9040001128167,新規,0,2023-05-08,2023-05-08,株式会社Ｗｉｓｔｅｒｉｖａ,,株式会社,千葉県,袖ケ浦市,奈良輪２丁目５－１０スズキビル１Ｆ,,12,229,2990263,,,,,,,2023-05-08,1,,,,,ウィステリバ,0
2682,9040001128217,新規,0,2023-05-08,2023-05-08,株式会社後藤瓦店,,株式会社,千葉県,銚子市,海鹿島町５３１５番地４,,12,202,2880005,,,,,,,2023-05-08,1,,,,,ゴトウカワラテン,0
2683,9040001128225,新規,0,2023-05-08,2023-05-08,株式会社山貴工業,,株式会社,千葉県,野田市,木間ケ瀬５３４５番地８,,12,208,2700222,,,,,,,2023-05-08,1,,,,,ヤマタカコウギョウ,0
2684,9040003022475,新規,0,2023-05-08,2023-05-08,合同会社ＯＰＴＩＭＵＳ　ＯＣＥＡＮ,,合同会社,千葉県,勝浦市,川津１８１１番地,,12,218,2995232,,,,,,,2023-05-08,1,,,,,オプティマスオーシャン,0
2685,9040003022558,新規,0,2023-05-08,2023-05-08,合同会社Ｌｅ　Ｖｉｎ,,合同会社,千葉県,船橋市,宮本３丁目８番２５号ハイツ宮本２０７号,,12,204,2730003,,,,,,,2023-05-08,1,,,,,ルヴァン,0
2687,9050001052820,新規,0,2023-05-08,2023-05-08,株式会社ＳＥＶＥＮ・ＳＴＡＲＳ・ＴＲＡＤＩＮＧ,,株式会社,茨城県,坂東市,岩井２７２０－４ハイツＭｔ．つくば１０３号室,,08,228,3060631,,,,,,,2023-05-08,1,,,,,セブンスターズトレーディング,0
2690,9050003007467,新規,0,2023-05-08,2023-05-08,合同会社Ｇ．Ｍ　ＥＮＴＥＲＰＲＩＳＥ,,合同会社,茨城県,稲敷市,羽賀２２６７番地１－５号棟,,08,229,3000525,,,,,,,2023-05-08,1,,,,,ジーエムエンタープライズ,0
2692,9060001035964,新規,0,2023-05-08,2023-05-08,株式会社兼正,,株式会社,栃木県,宇都宮市,西川田町１０００番地３４,,09,201,3210151,,,,,,,2023-05-08,1,,,,,カネマサ,0
2697,9080101023974,新規,0,2023-05-08,2023-05-08,株式会社天野工業,,株式会社,静岡県,伊東市,竹の内２丁目６番４０号,,22,208,4140027,,,,,,,2023-05-08,1,,,,,アマノコウギョウ,0
2698,9080101023982,新規,0,2023-05-08,2023-05-08,株式会社ラキシス,,株式会社,静岡県,熱海市,下多賀１００１番地の１８,,22,205,4130102,,,,,,,2023-05-08,1,,,,,ラキシス,0
2709,9110001037492,新規,0,2023-05-08,2023-05-08,株式会社丸山オートサービス,,株式会社,新潟県,南蒲原郡田上町,大字吉田新田乙３０番地１,,15,361,9591511,,,,,,,2023-05-08,1,,,,,マルヤマオートサービス,0
2710,9110003005043,新規,0,2023-05-08,2023-05-08,Ｋｎｏｔｓｄａｔａ合同会社,,合同会社,新潟県,新潟市中央区,天神１丁目１プラーカ３・２Ｆ,,15,103,9500917,,,,,,,2023-05-08,1,,,,,ノッツデータ,0
2718,9120001254517,新規,0,2023-05-08,2023-05-08,株式会社りーさ,,株式会社,大阪府,大阪市北区,梅田１丁目１－３大阪駅前第３ビル２９階１－１－１号室,,27,127,5300001,,,,,,,2023-05-08,1,,,,,リーサ,0
2719,9120001254541,新規,0,2023-05-08,2023-05-08,ＹＯＬＯ株式会社,,株式会社,大阪府,大阪市北区,松ケ枝町１番３６－１１０１号,,27,127,5300037,,,,,,,2023-05-08,1,,,,,ワイオーエルオー,0
2720,9120001254608,新規,0,2023-05-08,2023-05-08,ＭＯＭＯ株式会社,,株式会社,大阪府,大阪市西成区,長橋１丁目５－２７－１０１室,,27,122,5570025,,,,,,,2023-05-08,1,,,,,モモ,0
2721,9120001254632,新規,0,2023-05-08,2023-05-08,株式会社ＬａａＳ,,株式会社,大阪府,大阪市北区,梅田１丁目２番２号大阪駅前第２ビル１２－１２,,27,127,5300001,,,,,,,2023-05-08,1,,,,,ラース,0
2722,9120001254640,新規,0,2023-05-08,2023-05-08,株式会社哈可雅,,株式会社,大阪府,大阪市中央区,南船場２丁目１１番１３号福田ビルディング３階３０１号,,27,128,5420081,,,,,,,2023-05-08,1,,,,,ハクア,0
2723,9120001254707,新規,0,2023-05-08,2023-05-08,悟徳品質株式会社,,株式会社,大阪府,大阪市都島区,内代町２丁目２番２９－４０２号室,,27,102,5340013,,,,,,,2023-05-08,1,,,,,ゴトクヒンシツ,0
2724,9120001254715,新規,0,2023-05-08,2023-05-08,株式会社エルズ,,株式会社,大阪府,大阪市東淀川区,東中島１丁目１７番５－９０７号,,27,114,5330033,,,,,,,2023-05-08,1,,,,,エルズ,0
2730,9120003023985,新規,0,2023-05-08,2023-05-08,東凌合同会社,,合同会社,大阪府,大阪市旭区,新森５丁目３番２４号ヴィラース旭４０５号室,,27,117,5350022,,,,,,,2023-05-08,1,,,,,トウリョウ,0
2731,9120003023993,新規,0,2023-05-08,2023-05-08,三元貿易合同会社,,合同会社,大阪府,大阪市港区,磯路２丁目１０番１５号１Ｆ,,27,107,5520003,,,,,,,2023-05-08,1,,,,,ミツモトボウエキ,0
2732,9120005023595,新規,0,2023-05-08,2023-05-08,特定非営利活動法人わりばしの会,,その他の設立登記法人,大阪府,大阪市東淀川区,大桐５丁目１９番４４号サニーテラス２０２号,,27,114,5330011,,,,,,,2023-05-08,1,,,,,ワリバシノカイ,0
2739,9120901047482,新規,0,2023-05-08,2023-05-08,株式会社ＩＮＲ,,株式会社,大阪府,箕面市,彩都粟生南６丁目１６番２号,,27,220,5620028,,,,,,,2023-05-08,1,,,,,アイエヌアール,0
2743,9122001036944,新規,0,2023-05-08,2023-05-08,株式会社ｍｙｓ　ｐｌｕｓ,,株式会社,大阪府,東大阪市,横枕西１１番１０号,,27,227,5780956,,,,,,,2023-05-08,1,,,,,ミースプルス,0
2747,9130001074245,新規,0,2023-05-08,2023-05-08,株式会社丸田重量,,株式会社,京都府,長岡京市,今里川原７番地２３,,26,209,6170814,,,,,,,2023-05-08,1,,,,,マルタジュウリョウ,0
2752,9140001130063,新規,0,2023-05-08,2023-05-08,ＦＯＲ‐Ｕ株式会社,,株式会社,兵庫県,神戸市中央区,加納町６丁目３番１－１９０４号,,28,110,6500001,,,,,,,2023-05-08,1,,,,,フォーユー,0
2753,9140001130071,新規,0,2023-05-08,2023-05-08,株式会社網十,,株式会社,兵庫県,神戸市兵庫区,金平町１丁目６番３号,,28,105,6520873,,,,,,,2023-05-08,1,,,,,アミジュウ,0
2756,9140003019057,新規,0,2023-05-08,2023-05-08,合同会社ＰＩＮＮＡＣＬＥ,,合同会社,兵庫県,三木市,緑が丘町中２丁目１２番地１３,,28,215,6730532,,,,,,,2023-05-08,1,,,,,ピナクル,0
2757,9150001026376,新規,0,2023-05-08,2023-05-08,株式会社マサシ工務店,,株式会社,奈良県,奈良市,杏町１１５番地,,29,201,6308454,,,,,,,2023-05-08,1,,,,,マサシコウムテン,0
2758,9150005009476,新規,0,2023-05-08,2023-05-08,一般社団法人ＬｏｃａｌＣｏｏｐ大和高原,,その他の設立登記法人,奈良県,奈良市,月ヶ瀬尾山２３５０番地の１,,29,201,6302302,,,,,,,2023-05-08,1,,,,,ローカルコープヤマトコウゲン,0
2762,9160001025022,新規,0,2023-05-08,2023-05-08,株式会社オーミダクト,,株式会社,滋賀県,大津市,一里山４丁目２４番１３号,,25,201,5202153,,,,,,,2023-05-08,1,,,,,オーミダクト,0
2765,9170001017588,新規,0,2023-05-08,2023-05-08,株式会社Ｇｏｌｄ　Ｏｌｉｖｅ,,株式会社,和歌山県,海南市,小野田１５６４番地２９,,30,202,6420014,,,,,,,2023-05-08,1,,,,,ゴールドオリーブ,0
2775,9180001156113,新規,0,2023-05-08,2023-05-08,株式会社ＥＤＥＮ,,株式会社,愛知県,名古屋市中川区,元中野町４丁目８４番地の１バロンＫ２Ａ号,,23,110,4540048,,,,,,,2023-05-08,1,,,,,エデン,0
2776,9180001156146,新規,0,2023-05-08,2023-05-08,株式会社ＰＥＲＦＥＣＴ,,株式会社,愛知県,春日井市,藤山台８丁目４番地１,,23,206,4870035,,,,,,,2023-05-08,1,,,,,パーフェクト,0
2777,9180001156154,新規,0,2023-05-08,2023-05-08,株式会社プラットフォーム,,株式会社,愛知県,名古屋市中区,松原３丁目１２番５号,,23,106,4600017,,,,,,,2023-05-08,1,,,,,プラットフォーム,0
2778,9180001156162,新規,0,2023-05-08,2023-05-08,株式会社ＳＴＡＲＴ　ＫＮＯＣＫ,,株式会社,愛知県,名古屋市中区,栄３丁目１５番３３号栄ガスビル１３Ｆ,,23,106,4600008,,,,,,,2023-05-08,1,,,,,スタートノック,0
2779,9180001156170,新規,0,2023-05-08,2023-05-08,株式会社山末工業,,株式会社,愛知県,弥富市,佐古木７丁目３７番地１ドミール藤Ｂ－１０５,,23,235,4980006,,,,,,,2023-05-08,1,,,,,ヤマスエコウギョウ,0
2786,9180003025200,新規,0,2023-05-08,2023-05-08,合同会社ＡＬＲ,,合同会社,愛知県,名古屋市緑区,旭出２丁目２０１８番地,,23,114,4580031,,,,,,,2023-05-08,1,,,,,エーエルアール,0
2787,9180005020216,新規,0,2023-05-08,2023-05-08,一般社団法人東海建設躯体工業会,,その他の設立登記法人,愛知県,名古屋市熱田区,神宮３丁目９番１４号,,23,109,4560031,,,,,,,2023-05-08,1,,,,,トウカイケンセツクタイコウギョウカイ,0
2788,9180301037343,新規,0,2023-05-08,2023-05-08,株式会社まいん,,株式会社,愛知県,西尾市,錦城町１６３番地２ホワイトハウス,,23,213,4450864,,,,,,,2023-05-08,1,,,,,マイン,0
2789,9180301037368,新規,0,2023-05-08,2023-05-08,株式会社英雄会,,株式会社,愛知県,豊橋市,向山東町１０７番地,,23,201,4400863,,,,,,,2023-05-08,1,,,,,エイユウカイ,0
2793,9190001030374,新規,0,2023-05-08,2023-05-08,株式会社やってみなはれ,,株式会社,三重県,志摩市,阿児町国府１２８５番地８４,,24,215,5170506,,,,,,,2023-05-08,1,,,,,ヤッテミナハレ,0
2797,9200001041254,新規,0,2023-05-08,2023-05-08,株式会社ＯＧＡＷＡ,,株式会社,岐阜県,各務原市,鵜沼各務原町３丁目３１５番地,,21,213,5090141,,,,,,,2023-05-08,1,,,,,オガワ,0
2802,9230001019826,新規,0,2023-05-08,2023-05-08,株式会社トラスト設備,,株式会社,富山県,富山市,水橋稲荷町７２７番地,,16,201,9390000,,,,,,,2023-05-08,1,,,,,トラストセツビ,0
2805,9240001061447,新規,0,2023-05-08,2023-05-08,株式会社グローバル工業,,株式会社,広島県,広島市東区,福田８丁目４８番１４号,,34,102,7320029,,,,,,,2023-05-08,1,,,,,グローバルコウギョウ,0
2806,9240001061471,新規,0,2023-05-08,2023-05-08,株式会社水谷興業,,株式会社,広島県,福山市,坪生町４丁目７番８号,,34,207,7210903,,,,,,,2023-05-08,1,,,,,ミズタニコウギョウ,0
2819,9290001101388,新規,0,2023-05-08,2023-05-08,株式会社ＩＺＵＭＩ,,株式会社,福岡県,福岡市中央区,平尾４丁目４番１２－３０１号クレーネ平尾,,40,133,8100014,,,,,,,2023-05-08,1,,,,,イズミ,0
2820,9290001101405,新規,0,2023-05-08,2023-05-08,Ｒｅｖｅｕｒ株式会社,,株式会社,福岡県,福岡市博多区,博多駅前３丁目４番２５号,,40,132,8120011,,,,,,,2023-05-08,1,,,,,リヴェール,0
2822,9290003013846,新規,0,2023-05-08,2023-05-08,合同会社明成電工,,合同会社,福岡県,福岡市南区,長住６丁目１０番１－３０２号,,40,134,8111362,,,,,,,2023-05-08,1,,,,,メイセイデンコウ,0
2823,9290003013879,新規,0,2023-05-08,2023-05-08,合同会社ワイズ,,合同会社,福岡県,福岡市中央区,港２丁目５番３－１２０１号,,40,133,8100075,,,,,,,2023-05-08,1,,,,,ワイズ,0
2826,9290803004409,新規,0,2023-05-08,2023-05-08,合同会社りひと,,合同会社,福岡県,田川郡添田町,大字添田２３７２番地の４,,40,602,8240602,,,,,,,2023-05-08,1,,,,,リヒト,0
2828,9310001018398,新規,0,2023-05-08,2023-05-08,株式会社エーエムジェイ,,株式会社,長崎県,長崎市,小菅町１８番３３号,,42,201,8500934,,,,,,,2023-05-08,1,,,,,エーエムジェイ,0
2830,9330001030830,新規,0,2023-05-08,2023-05-08,株式会社オーシャンクラフト,,株式会社,熊本県,上天草市,姫戸町二間戸５９９５番地,,43,212,8660102,,,,,,,2023-05-08,1,,,,,オーシャンクラフト,0
2833,9340001025549,新規,0,2023-05-08,2023-05-08,株式会社ＢＯＸ　ＣＯＭＰＡＮＹ,,株式会社,鹿児島県,鹿屋市,向江町８番１０号,,46,203,8930006,,,,,,,2023-05-08,1,,,,,ボックスカンパニー,0
2834,9340001025557,新規,0,2023-05-08,2023-05-08,株式会社鵜木工業,,株式会社,鹿児島県,霧島市,国分湊１９番地,,46,218,8994315,,,,,,,2023-05-08,1,,,,,ウノキコウギョウ,0
2839,9350001018329,新規,0,2023-05-08,2023-05-08,巧メンテナンス工業株式会社,,株式会社,宮崎県,延岡市,古城町３丁目１８番地,,45,203,8820837,,,,,,,2023-05-08,1,,,,,タクミメンテナンスコウギョウ,0
2840,9350001018337,新規,0,2023-05-08,2023-05-08,株式会社向,,株式会社,宮崎県,都城市,甲斐元町２９街区１０号,,45,202,8850074,,,,,,,2023-05-08,1,,,,,ムカイ,0
2841,9360003012931,新規,0,2023-05-08,2023-05-08,合同会社Ｌ＆Ｖ　ＯＫＩＮＡＷＡ,,合同会社,沖縄県,沖縄市,古謝２丁目７番１９号,,47,211,9042161,,,,,,,2023-05-08,1,,,,,エルアンドブイオキナワ,0
2851,9400005008329,新規,0,2023-05-08,2023-05-08,一般財団法人ＴＲＣ,,その他の設立登記法人,岩手県,遠野市,中央通り５番３２号,,03,208,0280523,,,,,,,2023-05-08,1,,,,,ティアールシー,0
2852,9420001018247,新規,0,2023-05-08,2023-05-08,株式会社ａｎｎ　ｈｏｍｅ,,株式会社,青森県,弘前市,大字黒滝字二ノ川瀬１番地１０,,02,202,0361502,,,,,,,2023-05-08,1,,,,,アンホーム,0
2857,9430001088982,新規,0,2023-05-08,2023-05-08,ｃｒｅａｔｅ株式会社,,株式会社,北海道,千歳市,新富１丁目２１番地９,,01,224,0660037,,,,,,,2023-05-08,1,,,,,クリエイト,0
2858,9430001089007,新規,0,2023-05-08,2023-05-08,株式会社ＵＮＩＣＯ,,株式会社,北海道,札幌市中央区,宮の森二条１７丁目１７番１１号,,01,101,0640952,,,,,,,2023-05-08,1,,,,,ユニコ,0
2859,9430001089056,新規,0,2023-05-08,2023-05-08,株式会社北南レンタカー,,株式会社,北海道,札幌市中央区,南九条西７丁目１番１１号,,01,101,0640809,,,,,,,2023-05-08,1,,,,,ホクナンレンタカー,0
2864,9440003001521,新規,0,2023-05-08,2023-05-08,合同会社ＡＲＣＨ,,合同会社,北海道,二海郡八雲町,富士見町１６４番地,,01,346,0493106,,,,,,,2023-05-08,1,,,,,アーチ,0
2869,9480001012095,新規,0,2023-05-08,2023-05-08,株式会社イチマル,,株式会社,徳島県,徳島市,川内町平石流通団地３０番地,,36,201,7710138,,,,,,,2023-05-08,1,,,,,イチマル,0
2873,9700150115907,新規,0,2023-05-08,2023-05-08,ｓｉｃｈｕａｎｓｈｉａｎｘｉｎｌｕｎｓｈａｎｇｍａｏｙｏｕｘｉａｎｇｏｎｇｓｉ,,外国会社等,,,,,,,,ｓｉｃｈｕａｎｓｈｅｎｇｃｈｅｎｇｄｕｓｈｉｗｕｈｏｕｑｕｒｅｎｍｉｎｎａｎｌｕｓｉｄｕａｎ１ｈａｏ１ｚｈｕａｎｇ２７ｃｅｎｇ２７０５ｈａｏ,,,,,,2023-05-08,1,,,,,シセンセイアンキンレンシヨウボウユウゲンコウシ,0
2874,9700150115915,新規,0,2023-05-08,2023-05-08,Ｇｕｉ　Ｌｉｎ　Ｓｈｉ　Ｙｕａｎ　Ｘｉ　Ｋｅ　Ｊｉ　Ｃｏ．，Ｌｔｄ,,外国会社等,,,,,,,,ｑｉ　ｘｉｎｇ　ｑｕ　ｋｏｎｇ　ｍｉｎｇ　ｘｉ　ｌｕ　３６　ｈａｏ　１－３　ｈａｏ　Ｇｕｉ　Ｌｉｎ　Ｇｕａｎｇ　Ｘｉ,,,,,,2023-05-08,1,,,,,ケイリンシエンシテクノロジーカンパニーリミテツト,0
2875,9700150115923,新規,0,2023-05-08,2023-05-08,ｓｈｅｎｚｈｅｎｓｈｉｊｉｎｇｃｈｅｎｇｓｕｊｉａｏｗｕｊｉｎｚｈｉｐｉｎｙｏｕｘｉａｎｇｏｎｇｓｉ,,外国会社等,,,,,,,,ｇｕａｎｃｈａｏｊｉｅｄａｏｊｕｎｚｉｂｕｓｈｅｑｕｔｏｎｇｌｅｘｉａｎｃｕｎ３２ｈａｏｌｏｎｇｈｕａｘｉｎｑｕｓｈｅｎｚｈｅｎｓｈｉ３１１２１５ＣＮ,,,,,,2023-05-08,1,,,,,シンセンシセイセイプラスチツクキンブツセイヒンユウゲンコウシ,0
2876,9700150115931,新規,0,2023-05-08,2023-05-08,ｑｕａｎｚｈｏｕｃａｉｊｕｍｕｙｕｄｉａｎｚｉｓｈａｎｇｗｕｙｏｕｘｉａｎｇｏｎｇｓｉ,,外国会社等,,,,,,,,ｆｕｊｉａｎｓｈｅｎｇｑｕａｎｚｈｏｕｓｈｉｓｈｉｓｈｉｓｈｉｂａｏｇａｉｚｈｅｎｌｏｎｇｘｕｅｓｈｅｑｕｈｕｉｘｉｎｇｌｕ１５８ｈａｏｈｅｎｇｄａｍｉｎｇｄｕ１ｚｈｕａｎｇ２００５ｓｈｉ,,,,,,2023-05-08,1,,,,,センシユウザイシユウモクヨデンシシヨウムユウゲンコウシ,0
