sequenceNumber,corporateNumber,process,correct,updateDate,changeDate,name,nameImageId,kind,prefectureName,cityName,streetNumber,addressImageId,prefectureCode,cityCode,postCode,addressOutside,addressOutsideImageId,closeDate,closeCause,successorCorporateNumber,changeCause,assignmentDate,latest,enName,enPrefectureName,enCityName,enAddressOutside,furigana,hihyoji
17,1010001253470,新規,0,2025-03-28,2025-03-28,ＪＰＶ第３０号株式会社,,株式会社,東京都,千代田区,霞が関３丁目２番１号,,13,101,1000013,,,,,,,2025-03-28,1,,,,,ジェイピーブイダイサンジュウゴウ,0
18,1010001253479,新規,0,2025-03-28,2025-03-28,ＪＰＡ第３３０号株式会社,,株式会社,東京都,千代田区,霞が関３丁目２番１号,,13,101,1000013,,,,,,,2025-03-28,1,,,,,ジェイピーエーダイサンビャクサンジュウゴウ,0
19,1010001253487,新規,0,2025-03-28,2025-03-28,ＪＰＡ第３３８号株式会社,,株式会社,東京都,千代田区,霞が関３丁目２番１号,,13,101,1000013,,,,,,,2025-03-28,1,,,,,ジェイピーエーダイサンビャクサンジュウハチゴウ,0
20,1010001253644,新規,0,2025-03-28,2025-03-28,株式会社Ｓｃａｌｅｐａｔｈ,,株式会社,東京都,中央区,銀座１丁目１２－４Ｎ＆ＥＢＬＤ．７階,,13,102,1040061,,,,,,,2025-03-28,1,,,,,スケールパス,0
23,1010401189232,新規,0,2025-03-28,2025-03-28,株式会社ＳＳＮ,,株式会社,東京都,港区,西麻布１丁目８番１３号,,13,103,1060031,,,,,,,2025-03-28,1,,,,,エセエセエネ,0
24,1010403034691,新規,0,2025-03-28,2025-03-28,ＵＮＯＸ　Ｎｉｐｐｏｎ合同会社,,合同会社,東京都,港区,赤坂７丁目６番１５号赤坂ロイヤルビル５０１,,13,103,1070052,,,,,,,2025-03-28,1,,,,,ウノックスニッポン,0
35,1011001168279,新規,0,2025-03-28,2025-03-28,株式会社ＹＯＫＵＡＳＡ,,株式会社,東京都,渋谷区,渋谷２丁目１９‐１５宮益坂ビルディング６０９,,13,113,1500002,,,,,,,2025-03-28,1,,,,,ヨクアサ,0
36,1011001168568,新規,0,2025-03-28,2025-03-28,株式会社ＮＩＨＩＬＵＮＡ,,株式会社,東京都,渋谷区,神宮前６丁目２３番４号桑野ビル２階,,13,113,1500001,,,,,,,2025-03-28,1,,,,,ニヒルナ,0
37,1011001168592,新規,0,2025-03-28,2025-03-28,株式会社ビッグフリップボーイズ,,株式会社,東京都,渋谷区,神南１丁目１１番４号ＦＰＧリンクス神南５階,,13,113,1500041,,,,,,,2025-03-28,1,,,,,ビッグフリップボーイズ,0
43,1011101111106,新規,0,2025-03-28,2025-03-28,株式会社カスタネア,,株式会社,東京都,新宿区,若松町２９－８,,13,104,1620056,,,,,,,2025-03-28,1,,,,,カスタネア,0
44,1011101111114,新規,0,2025-03-28,2025-03-28,アートレイスタジオ株式会社,,株式会社,東京都,新宿区,早稲田鶴巻町５３２番地１２興和プラザビル２Ｆ,,13,104,1620041,,,,,,,2025-03-28,1,,,,,アートレイスタジオ,0
45,1011201026237,新規,0,2025-03-28,2025-03-28,株式会社Ｆａｎｔａｓｙ　ｐｌａｃｅ,,株式会社,東京都,中野区,上高田１丁目４０番１１号ＴａｎｄＦＮＡＫＡＮＯ．６－２０１佐藤方,,13,114,1640002,,,,,,,2025-03-28,1,,,,,ファンタジープレイス,0
47,1011501031861,新規,0,2025-03-28,2025-03-28,株式会社三好商事,,株式会社,東京都,北区,赤羽南１丁目３番７号長瀬ビル１階,,13,117,1150044,,,,,,,2025-03-28,1,,,,,ミヨシショウジ,0
49,1011503006465,新規,0,2025-03-28,2025-03-28,Ｓｋｙｇｏ合同会社,,合同会社,東京都,荒川区,東尾久６丁目１６番５－３０４号,,13,118,1160012,,,,,,,2025-03-28,1,,,,,スカイゴウ,0
53,1011601028527,新規,0,2025-03-28,2025-03-28,ハウスリフォーム東京株式会社,,株式会社,東京都,練馬区,練馬１丁目２０番８号日建練馬ビル２Ｆ,,13,120,1760001,,,,,,,2025-03-28,1,,,,,ハウスリフォームトウキョウ,0
56,1011701028204,新規,0,2025-03-28,2025-03-28,鳴奇株式会社,,株式会社,東京都,江戸川区,南葛西２丁目１－１０,,13,123,1340085,,,,,,,2025-03-28,1,,,,,メイキ,0
58,1011801045842,新規,0,2025-03-28,2025-03-28,株式会社Ｋ,,株式会社,東京都,葛飾区,西水元４丁目２番１０号,,13,122,1250031,,,,,,,2025-03-28,1,,,,,ケー,0
59,1011801045867,新規,0,2025-03-28,2025-03-28,ナインブロンズ株式会社,,株式会社,東京都,葛飾区,金町２丁目１２―１０,,13,122,1250042,,,,,,,2025-03-28,1,,,,,ナインブロンズ,0
61,1012301014313,新規,0,2025-03-28,2025-03-28,株式会社瀧音建築,,株式会社,東京都,町田市,小野路町１３９４－７,,13,209,1950064,,,,,,,2025-03-28,1,,,,,タキオトケンチク,0
69,1020001161994,新規,0,2025-03-28,2025-03-28,株式会社みちプロ,,株式会社,神奈川県,川崎市中原区,中丸子２３７番地プレインソフィア４１１,,14,133,2110012,,,,,,,2025-03-28,1,,,,,ミチプロ,0
72,1020003028143,新規,0,2025-03-28,2025-03-28,合同会社Ａ‐Ｒｅｘ,,合同会社,神奈川県,横浜市南区,堀ノ内町２丁目２３１番地５４－２０２号室,,14,105,2320042,,,,,,,2025-03-28,1,,,,,アレックス,0
73,1020005016740,新規,0,2025-03-28,2025-03-28,社会保険労務士法人日本労働教育総合研究所,,その他の設立登記法人,神奈川県,横浜市西区,戸部本町５１番１５‐３１６号,,14,103,2200041,,,,,,,2025-03-28,1,,,,,ニホンロウドウキョウイクソウゴウケンキュウショ,0
74,1020005016749,新規,0,2025-03-28,2025-03-28,医療法人樹生会,,その他の設立登記法人,神奈川県,横浜市中区,元町３丁目１３３番地９元町医療モール２階３階,,14,104,2310861,,,,,,,2025-03-28,1,,,,,キショウカイ,0
78,1030001165573,新規,0,2025-03-28,2025-03-28,ＴＵサービス株式会社,,株式会社,埼玉県,川越市,脇田町１７番地１ｊｏｙ０９ビルＡ館５階,,11,201,3501122,,,,,,,2025-03-28,1,,,,,ティーユーサービス,0
89,1040001138025,新規,0,2025-03-28,2025-03-28,株式会社ラヴィット,,株式会社,千葉県,市川市,行徳駅前２丁目６番３－７１１号（ザ・パークハビオ行徳駅前）,,12,203,2720133,,,,,,,2025-03-28,1,,,,,ラヴィット,0
90,1040001138033,新規,0,2025-03-28,2025-03-28,株式会社ＳＡＮＷＡ,,株式会社,千葉県,東金市,田間９３３番地１０,,12,213,2830005,,,,,,,2025-03-28,1,,,,,サンワ,0
93,1040003027151,新規,0,2025-03-28,2025-03-28,山久永華合同会社,,合同会社,千葉県,松戸市,松戸５９５－１８－２０３号室,,12,207,2710092,,,,,,,2025-03-28,1,,,,,ヤマヒサエイカ,0
99,1050001056390,新規,0,2025-03-28,2025-03-28,鼎源株式会社,,株式会社,茨城県,桜川市,真壁町東矢貝２０８番地５,,08,231,3004429,,,,,,,2025-03-28,1,,,,,テーエン,0
100,1050003009149,新規,0,2025-03-28,2025-03-28,合同会社すぺーす・ぺあ,,合同会社,茨城県,取手市,寺田３８８８番１５号,,08,217,3020021,,,,,,,2025-03-28,1,,,,,スペースペア,0
107,1090001019195,新規,0,2025-03-28,2025-03-28,株式会社リバーノ,,株式会社,山梨県,中央市,西花輪２６６７番地４,,19,214,4093843,,,,,,,2025-03-28,1,,,,,リバーノ,0
108,1100001038417,新規,0,2025-03-28,2025-03-28,農開ＣＮ株式会社,,株式会社,長野県,中野市,大字竹原１８１９番地１,,20,211,3830007,,,,,,,2025-03-28,1,,,,,ノウカイシーエヌ,0
128,1120001274002,新規,0,2025-03-28,2025-03-28,株式会社ＬｏｏＰ,,株式会社,大阪府,大阪市中央区,瓦町３丁目３－１６ＯＷＬ瓦町ビル４Ｆ,,27,128,5410048,,,,,,,2025-03-28,1,,,,,ループ,0
129,1120001274019,新規,0,2025-03-28,2025-03-28,株式会社Ｏｒａｎｇｅ　Ｗａｖｅ,,株式会社,大阪府,大阪市淀川区,十三本町１丁目９－２０３０７号室,,27,123,5320024,,,,,,,2025-03-28,1,,,,,オレンジウェーブ,0
130,1120001274068,新規,0,2025-03-28,2025-03-28,ロバスト株式会社,,株式会社,大阪府,大阪市東淀川区,淡路３丁目５番７号,,27,114,5330032,,,,,,,2025-03-28,1,,,,,ロバスト,0
134,1120003028950,新規,0,2025-03-28,2025-03-28,ナミ合同会社,,合同会社,大阪府,枚方市,大峰元町１丁目５番１４号,,27,210,5730146,,,,,,,2025-03-28,1,,,,,ナミ,0
135,1120003028959,新規,0,2025-03-28,2025-03-28,合同会社フロウシフト,,合同会社,大阪府,寝屋川市,木屋町５番１６号,,27,215,5720087,,,,,,,2025-03-28,1,,,,,フロウシフト,0
136,1120003028983,新規,0,2025-03-28,2025-03-28,合同会社ＡＮＤＥＥ,,合同会社,大阪府,大阪市北区,西天満２丁目３－６大阪法曹ビル２０２号,,27,127,5300047,,,,,,,2025-03-28,1,,,,,アンディー,0
143,1120101071332,新規,0,2025-03-28,2025-03-28,株式会社ＲＯＯＴ,,株式会社,大阪府,岸和田市,小松里町９１９番地２Ｆ,,27,202,5960821,,,,,,,2025-03-28,1,,,,,ルート,0
144,1120101071349,新規,0,2025-03-28,2025-03-28,株式会社中長,,株式会社,大阪府,堺市北区,黒土町２２７３番地１,,27,146,5918024,,,,,,,2025-03-28,1,,,,,ナカチョウ,0
162,1140001137883,新規,0,2025-03-28,2025-03-28,株式会社ＹＵＵ　ＰＬＡＮＮＩＮＧ,,株式会社,兵庫県,神戸市中央区,磯辺通１丁目１番１８号カサベラ国際プラザビル７０７号室,,28,110,6510084,,,,,,,2025-03-28,1,,,,,ユウプランニング,0
163,1140001137917,新規,0,2025-03-28,2025-03-28,インフラクト株式会社,,株式会社,兵庫県,加古川市,加古川町溝之口７６９番地ミキアネックスビル１Ｆ,,28,210,6750064,,,,,,,2025-03-28,1,,,,,インフラクト,0
166,1140003021854,新規,0,2025-03-28,2025-03-28,合同会社北神協立サービス,,合同会社,兵庫県,神戸市北区,有馬町１０５１番地,,28,109,6511401,,,,,,,2025-03-28,1,,,,,キタガミキョウリツサービス,0
174,1180001166020,新規,0,2025-03-28,2025-03-28,株式会社グランディール,,株式会社,愛知県,名古屋市緑区,万場山２丁目８１８番地万場山ハイツ１０３,,23,114,4580043,,,,,,,2025-03-28,1,,,,,グランディール,0
176,1180003028219,新規,0,2025-03-28,2025-03-28,ＤＵＹ　ＮＡＭ合同会社,,合同会社,愛知県,小牧市,曙町７番地北側,,23,219,4850047,,,,,,,2025-03-28,1,,,,,ズイナム,0
179,1180303006510,新規,0,2025-03-28,2025-03-28,合同会社ｄｏｌｌｈａｉｒ,,合同会社,愛知県,豊橋市,牛川町字西郷４０番地７,,23,201,4400016,,,,,,,2025-03-28,1,,,,,ドールヘアー,0
180,1180305009668,新規,0,2025-03-28,2025-03-28,医療法人藤桜会,,その他の設立登記法人,愛知県,安城市,昭和町１９番３５号,,23,212,4460063,,,,,,,2025-03-28,1,,,,,トウオウカイ,0
181,1190001032097,新規,0,2025-03-28,2025-03-28,アプリコット＆パートナーズ株式会社,,株式会社,三重県,鈴鹿市,南玉垣町６１５４－１３,,24,207,5130816,,,,,,,2025-03-28,1,,,,,アプリコットアンドパートナーズ,0
188,1240003007125,新規,0,2025-03-28,2025-03-28,たかしアセット合同会社,,合同会社,広島県,広島市安佐南区,長束２丁目２１番１９－２０３号,,34,105,7310135,,,,,,,2025-03-28,1,,,,,タカシアセット,0
189,1240005015919,新規,0,2025-03-28,2025-03-28,特定非営利活動法人ＬＥＧＡＲＥ　ＦＣ　ＨＩＲＯＳＨＩＭＡ,,その他の設立登記法人,広島県,広島市中区,榎町９番２５号,,34,101,7300851,,,,,,,2025-03-28,1,,,,,レガーレエフシーヒロシマ,0
205,1360003014794,新規,0,2025-03-28,2025-03-28,フードライフ合同会社,,合同会社,沖縄県,中頭郡西原町,字与那城３－３,,47,329,9030111,,,,,,,2025-03-28,1,,,,,フードライフ,0
209,1370001052382,新規,0,2025-03-28,2025-03-28,サングレース株式会社,,株式会社,宮城県,仙台市泉区,山の寺２丁目１１番２５号,,04,105,9813103,,,,,,,2025-03-28,1,,,,,サングレース,0
210,1370001052390,新規,0,2025-03-28,2025-03-28,株式会社翔海,,株式会社,宮城県,仙台市宮城野区,宮千代２丁目１番２－３０４号,,04,102,9830044,,,,,,,2025-03-28,1,,,,,,0
219,1430001094030,新規,0,2025-03-28,2025-03-28,ａｉ‐Ｘ株式会社,,株式会社,北海道,札幌市北区,北二十一条西１１丁目北海道大学フード＆メディカルイノベーション国際拠点１階ＨＸ内,,01,102,0010021,,,,,,,2025-03-28,1,,,,,エーアイクロス,0
225,1430003017451,新規,0,2025-03-28,2025-03-28,合同会社Ａ＆Ｈ,,合同会社,北海道,江別市,弥生町１４－１４,,01,217,0670073,,,,,,,2025-03-28,1,,,,,エーアンドエイチ,0
228,1450003002625,新規,0,2025-03-28,2025-03-28,合同会社ＢＩＺＥＸ,,合同会社,北海道,旭川市,永山六条２４丁目４番１２号,,01,204,0798416,,,,,,,2025-03-28,1,,,,,ビジックス,0
233,1470003002846,新規,0,2025-03-28,2025-03-28,合同会社グッドグリーンズグラウンド,,合同会社,香川県,丸亀市,津森町１１５９－４,,37,202,7630052,,,,,,,2025-03-28,1,,,,,グッドグリーンズグラウンド,0
235,1700150129749,新規,0,2025-03-28,2025-03-28,ＩＮＮＯＶＡＳＪＯＮ　ＮＯＲＧＥ,,外国会社等,,,,,,,,Ｇｒｅｖ　Ｗｅｄｅｌｓ　Ｐｌａｓｓ　９，０１５１　Ｏｓｌｏ，Ｎｏｒｗａｙ,,,,,,2025-03-28,1,,,,,イノベーシヨンノルウエー,0
236,1700150129757,新規,0,2025-03-28,2025-03-28,Ｄｏｏｓａｎ　Ｂｏｂｃａｔ　Ｓｉｎｇａｐｏｒｅ　Ｐｔｅ．Ｌｔｄ．,,外国会社等,神奈川県,横浜市港北区,新横浜３丁目１７－５,,14,109,2220033,１６　Ｒａｆｆｌｅｓ　Ｑｕａｙ，＃３３－０３，Ｈｏｎｇ　Ｌｅｏｎｇ　Ｂｕｉｌｄｉｎｇ，Ｓｉｎｇａｐｏｒｅ　０４８５８１,,,,,,2025-03-28,1,,,,,ドウサンボブキヤツトシンガポール,0
246,2010001253478,新規,0,2025-03-28,2025-03-28,ＪＰＡ第３２９号株式会社,,株式会社,東京都,千代田区,霞が関３丁目２番１号,,13,101,1000013,,,,,,,2025-03-28,1,,,,,ジェイピーエーダイサンビャクニジュウキュウゴウ,0
247,2010001253486,新規,0,2025-03-28,2025-03-28,ＪＰＡ第３３７号株式会社,,株式会社,東京都,千代田区,霞が関３丁目２番１号,,13,101,1000013,,,,,,,2025-03-28,1,,,,,ジェイピーエーダイサンビャクサンジュウナナゴウ,0
250,2010005039816,新規,0,2025-03-28,2025-03-28,一般社団法人ＫＲＦ１１４,,その他の設立登記法人,東京都,千代田区,内幸町２丁目１番６号,,13,101,1000011,,,,,,,2025-03-28,1,,,,,ケイアールエフヒャクジュウヨン,0
251,2010005039824,新規,0,2025-03-28,2025-03-28,ＭＴ‐ＶＰＰ一般社団法人,,その他の設立登記法人,東京都,中央区,京橋２丁目１２番６号ＡＯＪ税理士法人内,,13,102,1040031,,,,,,,2025-03-28,1,,,,,エムティーブイピーピー,0
252,2010005039832,新規,0,2025-03-28,2025-03-28,一般社団法人アムール・ワン,,その他の設立登記法人,東京都,千代田区,内幸町２丁目１番６号,,13,101,1000011,,,,,,,2025-03-28,1,,,,,アムールワン,0
257,2010501053849,新規,0,2025-03-28,2025-03-28,株式会社ＳＧ,,株式会社,東京都,台東区,東上野１丁目６番１２－７０２号ＫＷレジデンス東上野,,13,106,1100015,,,,,,,2025-03-28,1,,,,,エスジー,0
266,2010901057086,新規,0,2025-03-28,2025-03-28,株式会社３２５,,株式会社,東京都,世田谷区,太子堂４丁目１８番１５号マガザン三軒茶屋２、３Ｆ－３,,13,112,1540004,,,,,,,2025-03-28,1,,,,,サンニーゴ,0
278,2011001168328,新規,0,2025-03-28,2025-03-28,株式会社ティールリンク,,株式会社,東京都,渋谷区,神泉町１０番１５号アネックス神泉３０１,,13,113,1500045,,,,,,,2025-03-28,1,,,,,ティールリンク,0
279,2011001168451,新規,0,2025-03-28,2025-03-28,株式会社Ｎｕｍｂｅｒ５,,株式会社,東京都,目黒区,碑文谷４丁目４番１５－１０６号,,13,110,1520003,,,,,,,2025-03-28,1,,,,,ナンバーファイブ,0
284,2011003021014,新規,0,2025-03-28,2025-03-28,ミュラー合同会社,,合同会社,東京都,渋谷区,恵比寿西２丁目８番４号ＥＸ恵比寿西ビル５階,,13,113,1500021,,,,,,,2025-03-28,1,,,,,ミュラー,0
286,2011101111096,新規,0,2025-03-28,2025-03-28,株式会社ＡＥＣＯＯＬＹ,,株式会社,東京都,新宿区,新宿２丁目１３－１０エルハイム新宿４０７号室,,13,104,1600022,,,,,,,2025-03-28,1,,,,,エークーリー,0
287,2011101111113,新規,0,2025-03-28,2025-03-28,株式会社アトリエ引越センター,,株式会社,東京都,新宿区,西新宿７丁目９番１０号１階２階,,13,104,1600023,,,,,,,2025-03-28,1,,,,,アトリエヒッコシセンター,0
288,2011101111138,新規,0,2025-03-28,2025-03-28,株式会社ＪＷ,,株式会社,東京都,新宿区,山吹町３３３－１０－８０１,,13,104,1620801,,,,,,,2025-03-28,1,,,,,ジェーダブリュー,0
289,2011103015700,新規,0,2025-03-28,2025-03-28,合同会社４Ｍ,,合同会社,東京都,新宿区,歌舞伎町１丁目２－１８エコロ新宿第３ビル４階,,13,104,1600021,,,,,,,2025-03-28,1,,,,,フォーエム,0
300,2011801045858,新規,0,2025-03-28,2025-03-28,株式会社エムスリーアール,,株式会社,東京都,葛飾区,細田１丁目１０番７－２１０２号ランドマーク,,13,122,1240021,,,,,,,2025-03-28,1,,,,,エムスリーアール,0
301,2012301014312,新規,0,2025-03-28,2025-03-28,株式会社つむぎメモリアル,,株式会社,東京都,町田市,図師町１２３０番地７,,13,209,1940203,,,,,,,2025-03-28,1,,,,,ツムギメモリアル,0
302,2012401042923,新規,0,2025-03-28,2025-03-28,ＡｒｃＭａｎａｇｅｍｅｎｔ株式会社,,株式会社,東京都,武蔵野市,中町１丁目１２番１０‐１５０６号,,13,203,1800006,,,,,,,2025-03-28,1,,,,,アークマネジメント,0
315,2020003028142,新規,0,2025-03-28,2025-03-28,合同会社トラストコーポレーション,,合同会社,神奈川県,川崎市川崎区,池上新町３丁目３番１５号,,14,131,2100832,,,,,,,2025-03-28,1,,,,,トラストコーポレーション,0
316,2020003028159,新規,0,2025-03-28,2025-03-28,フレケンシー合同会社,,合同会社,神奈川県,横浜市都筑区,加賀原１丁目２４番１２－４０２号,,14,118,2240055,,,,,,,2025-03-28,1,,,,,フレケンシー,0
321,2021003015799,新規,0,2025-03-28,2025-03-28,ＡＡＦＩＹＡ　ＴＲＡＤＩＮＧ合同会社,,合同会社,神奈川県,相模原市緑区,若柳６３９番地２,,14,151,2520175,,,,,,,2025-03-28,1,,,,,アーフィヤトレーディング,0
326,2030001165606,新規,0,2025-03-28,2025-03-28,株式会社Ｈベルツリーブラザーズ,,株式会社,埼玉県,川口市,幸町１丁目４番１０号,,11,203,3320016,,,,,,,2025-03-28,1,,,,,エイチベルツリーブラザーズ,0
332,2040001137991,新規,0,2025-03-28,2025-03-28,ＣｏｒｅＴｅｃｈ　Ｊａｐａｎ株式会社,,株式会社,千葉県,千葉市若葉区,小倉町１７４７番地５５,,12,104,2640007,,,,,,,2025-03-28,1,,,,,コアテックジャパン,0
333,2040001138008,新規,0,2025-03-28,2025-03-28,株式会社一矢,,株式会社,千葉県,千葉市稲毛区,宮野木町８４９番地３フェリースＩＶ１０４号,00138483,12,103,2630054,,,,,,,2025-03-28,1,,,,,イッシ,0
334,2040001138032,新規,0,2025-03-28,2025-03-28,株式会社変わらない勇気,,株式会社,千葉県,我孫子市,東我孫子２丁目１３－９,,12,222,2701144,,,,,,,2025-03-28,1,,,,,カワラナイユウキ,0
335,2040001138065,新規,0,2025-03-28,2025-03-28,株式会社源興業,,株式会社,千葉県,市川市,欠真間１丁目３－４ローズマンションＡ３０－１０１号室,,12,203,2720142,,,,,,,2025-03-28,1,,,,,ゲンコウギョウ,0
337,2040003027233,新規,0,2025-03-28,2025-03-28,合同会社ＴＯＰＰＵ,,合同会社,千葉県,柏市,東柏１丁目２１番８号,,12,217,2770017,,,,,,,2025-03-28,1,,,,,トップウ,0
340,2050001056381,新規,0,2025-03-28,2025-03-28,株式会社ｆｅｌｉｃｅ,,株式会社,茨城県,日立市,弁天町１丁目３番６号シティハイツＭＪ１０１,,08,202,3170072,,,,,,,2025-03-28,1,,,,,フェリーチェ,0
341,2050001056398,新規,0,2025-03-28,2025-03-28,株式会社ｒｅａｌｉｚｅ,,株式会社,茨城県,筑西市,下中山６０７番地１エランドールＡ１０２,,08,227,3080825,,,,,,,2025-03-28,1,,,,,リアライズ,0
344,2050003009131,新規,0,2025-03-28,2025-03-28,水野学合同会社,,合同会社,茨城県,常総市,岡田５０６番地１,,08,211,3002743,,,,,,,2025-03-28,1,,,,,ミズノマナブ,0
345,2050003009148,新規,0,2025-03-28,2025-03-28,合同会社Ｃａｒｅ　Ｆｏｒ　Ｙｏｕ,,合同会社,茨城県,牛久市,小坂町１９１２番地８,,08,219,3001286,,,,,,,2025-03-28,1,,,,,ケアフォーユー,0
353,2090001019194,新規,0,2025-03-28,2025-03-28,株式会社Ｏｌｄ　Ｒｏｏｆ,,株式会社,山梨県,甲府市,丸の内１丁目１７番３号大池ビルＢ１Ｆ,,19,201,4000031,,,,,,,2025-03-28,1,,,,,オールドルーフ,0
356,2090003002784,新規,0,2025-03-28,2025-03-28,合同会社ロケーションラボラトリー,,合同会社,山梨県,甲斐市,中下条１６０６、２階,,19,210,4000124,,,,,,,2025-03-28,1,,,,,ロケーションラボラトリー,0
358,2110003005710,新規,0,2025-03-28,2025-03-28,Ｄａｊａ　Ｉｎｖｅｓｔｍｅｎｔｓ合同会社,,合同会社,新潟県,妙高市,大字田口１３９４番地Ｃａｎａｄｉａｎ・Ｈｏｕｓｅ,,15,217,9492106,,,,,,,2025-03-28,1,,,,,ダジャインベストメント,0
367,2120001274018,新規,0,2025-03-28,2025-03-28,新禾創動株式会社,,株式会社,大阪府,大阪市此花区,西九条１丁目１５－６－２階,,27,104,5540012,,,,,,,2025-03-28,1,,,,,シンカソウド,0
368,2120001274042,新規,0,2025-03-28,2025-03-28,恩存文化株式会社,,株式会社,大阪府,大阪市都島区,中野町４丁目３番６号Ｈ２Ｈ大阪桜之宮邸２Ａ－４,,27,102,5340027,,,,,,,2025-03-28,1,,,,,オンゾンブンカ,0
369,2120001274067,新規,0,2025-03-28,2025-03-28,ＪＹ株式会社,,株式会社,大阪府,大阪市中央区,松屋町住吉６番地８－２０２号,,27,128,5400017,,,,,,,2025-03-28,1,,,,,ジェイワイ,0
371,2120003028925,新規,0,2025-03-28,2025-03-28,合同会社ネイバーズ,,合同会社,大阪府,枚方市,新町１丁目７番２号枚新ビル４Ｆ,,27,210,5731191,,,,,,,2025-03-28,1,,,,,ネイバーズ,0
372,2120003028990,新規,0,2025-03-28,2025-03-28,ＢＢＱ．ｋｏｍ合同会社,,合同会社,大阪府,大阪市都島区,都島中通３丁目５－１１,,27,102,5340022,,,,,,,2025-03-28,1,,,,,ビービーキュードットケーオーエム,0
373,2120003029007,新規,0,2025-03-28,2025-03-28,スマイル・エイト合同会社,,合同会社,大阪府,大阪市北区,天満３丁目２番９－２０５号,,27,127,5300043,,,,,,,2025-03-28,1,,,,,スマイルエイト,0
378,2120101071331,新規,0,2025-03-28,2025-03-28,株式会社ｃｏｎｔｙ,,株式会社,大阪府,堺市中区,深井沢町３３２４番地ＦＵＫＡＩビル２Ｆ,,27,142,5998236,,,,,,,2025-03-28,1,,,,,コンティ,0
384,2122001039020,新規,0,2025-03-28,2025-03-28,Ｅａｃｈ　ｄａｙ　ｆｕｌｌｅｓｔ株式会社,,株式会社,大阪府,四條畷市,清滝新町２０番１３号,,27,229,5750062,,,,,,,2025-03-28,1,,,,,イーチデイフレスト,0
386,2130001079291,新規,0,2025-03-28,2025-03-28,株式会社つばめの巣,,株式会社,京都府,京都市山科区,御陵中内町３番地洛東館１Ｆ,,26,110,6078414,,,,,,,2025-03-28,1,,,,,ツバメノス,0
387,2130003010320,新規,0,2025-03-28,2025-03-28,Ｔ‐ＡＸ合同会社,,合同会社,京都府,京都市伏見区,竹田西内畑町３３ディアスリハチ１０３,,26,109,6128447,,,,,,,2025-03-28,1,,,,,ティーアックス,0
392,2140001137924,新規,0,2025-03-28,2025-03-28,株式会社３Ｃ,,株式会社,兵庫県,西宮市,今津出在家町６番１－３２０号,,28,204,6638227,,,,,,,2025-03-28,1,,,,,スリーシー,0
399,2180001166011,新規,0,2025-03-28,2025-03-28,株式会社ａｎｄ　ｙｏｕ,,株式会社,愛知県,稲沢市,緑町４丁目９－１,,23,220,4928252,,,,,,,2025-03-28,1,,,,,アンドユー,0
400,2180001166069,新規,0,2025-03-28,2025-03-28,Ｆ．ｃｏｎｎｅｃｔ株式会社,,株式会社,愛知県,名古屋市中区,錦９－３４第６グランビル３Ｆ,,23,106,4600000,,,,,,,2025-03-28,1,,,,,エフドットコネクト,0
403,2180003028201,新規,0,2025-03-28,2025-03-28,あたりまえ本舗合同会社,,合同会社,愛知県,名古屋市千種区,西崎町２丁目３１番地,,23,101,4640825,,,,,,,2025-03-28,1,,,,,アタリマエホンポ,0
406,2200003006749,新規,0,2025-03-28,2025-03-28,合同会社バナナトラップ,,合同会社,岐阜県,岐阜市,細畑５丁目４番８号,,21,201,5008238,,,,,,,2025-03-28,1,,,,,バナナトラップ,0
413,2240001064712,新規,0,2025-03-28,2025-03-28,株式会社ハ・ル・カビト,,株式会社,広島県,広島市西区,井口台１丁目１４番３１－２０２号,,34,104,7330844,,,,,,,2025-03-28,1,,,,,ハルカビト,0
418,2260001040042,新規,0,2025-03-28,2025-03-28,フィリーズ株式会社,,株式会社,岡山県,倉敷市,西阿知町１４番地１アンソレーヌＢ棟Ｂ１０１,,33,202,7100807,,,,,,,2025-03-28,1,,,,,フィリーズ,0
424,2290001109421,新規,0,2025-03-28,2025-03-28,ＳＡＫＵＲＡダイニング株式会社,,株式会社,福岡県,福岡市博多区,東那珂１丁目１４番２４－１１０６号,00138486,40,132,8120892,,,,,,,2025-03-28,1,,,,,サクラダイニング,0
427,2290005019690,新規,0,2025-03-28,2025-03-28,一般社団法人輝きの木,,その他の設立登記法人,福岡県,福岡市早良区,原８丁目３番３－２０６号,,40,137,8140022,,,,,,,2025-03-28,1,,,,,カガヤキノキ,0
431,2320003004609,新規,0,2025-03-28,2025-03-28,合同会社風月,,合同会社,大分県,別府市,南的ケ浜町５番２１号,,44,202,8740929,,,,,,,2025-03-28,1,,,,,フウゲツ,0
435,2360001034967,新規,0,2025-03-28,2025-03-28,株式会社ＨＯＵＳＥ　ＰＲＩＤＥ,,株式会社,沖縄県,中頭郡読谷村,字瀬名波２１６番地,,47,324,9040325,,,,,,,2025-03-28,1,,,,,ハウスプライド,0
437,2360003014802,新規,0,2025-03-28,2025-03-28,合同会社Ｋｙａｏｒｏｗ,,合同会社,沖縄県,那覇市,牧志２丁目１７番２７－４０１号,,47,201,9000013,,,,,,,2025-03-28,1,,,,,キャオロウ,0
438,2370003006996,新規,0,2025-03-28,2025-03-28,合同会社ＴＡＫＡＮＯ,,合同会社,宮城県,仙台市若林区,古城１丁目５番５－３０２号,,04,103,9840825,,,,,,,2025-03-28,1,,,,,タカノ,0
440,2380001035088,新規,0,2025-03-28,2025-03-28,株式会社スマイルラボ,,株式会社,福島県,会津若松市,上町４番３４号,,07,202,9650034,,,,,,,2025-03-28,1,,,,,スマイルラボ,0
451,2430003017450,新規,0,2025-03-28,2025-03-28,合同会社美沢ＡＰ,,合同会社,北海道,苫小牧市,字美沢２６１番地の５６,,01,213,0591361,,,,,,,2025-03-28,1,,,,,ミサワエーピー,0
454,2470003002845,新規,0,2025-03-28,2025-03-28,合同会社ＡＬＣＨＥＭＩＬＬＡ,,合同会社,香川県,坂出市,江尻町１６０６－１フローリー２０１,,37,203,7620011,,,,,,,2025-03-28,1,,,,,,0
461,2700150129756,新規,0,2025-03-28,2025-03-28,Ｈｉｎｇｅ，Ｉｎｃ．,,外国会社等,,,,,,,,Ｂ７５０　Ｎ　Ｃｅｎｔｒａｌ　Ｅｘｐｙ　Ｓｔｅ，１４００　Ｄａｌｌａｓ，ＴＸ　７５２３１－６４３５,,,,,,2025-03-28,1,,,,,ヒンジインク,0
468,3010001253469,新規,0,2025-03-28,2025-03-28,ＪＰＶ第２９号株式会社,,株式会社,東京都,千代田区,霞が関３丁目２番１号,,13,101,1000013,,,,,,,2025-03-28,1,,,,,ジェイピーブイダイニジュウキュウゴウ,0
469,3010001253477,新規,0,2025-03-28,2025-03-28,ＪＰＡ第３２８号株式会社,,株式会社,東京都,千代田区,霞が関３丁目２番１号,,13,101,1000013,,,,,,,2025-03-28,1,,,,,ジェイピーエーダイサンビャクニジュウハチゴウ,0
470,3010001253485,新規,0,2025-03-28,2025-03-28,ＪＰＡ第３３６号株式会社,,株式会社,東京都,千代田区,霞が関３丁目２番１号,,13,101,1000013,,,,,,,2025-03-28,1,,,,,ジェイピーエーダイサンビャクサンジュウロクゴウ,0
471,3010001253493,新規,0,2025-03-28,2025-03-28,ＪＰＡ第３４４号株式会社,,株式会社,東京都,千代田区,霞が関３丁目２番１号,,13,101,1000013,,,,,,,2025-03-28,1,,,,,ジェイピーエーダイサンビャクヨンジュウヨンゴウ,0
472,3010005039815,新規,0,2025-03-28,2025-03-28,一般社団法人ＫＲＦ１１３,,その他の設立登記法人,東京都,千代田区,内幸町２丁目１番６号,,13,101,1000011,,,,,,,2025-03-28,1,,,,,ケイアールエフヒャクジュウサン,0
474,3010105002334,新規,0,2025-03-28,2025-03-28,一般社団法人プロ・ファシリテーターズ・ユナイテッド,,その他の設立登記法人,東京都,八王子市,南大沢４丁目１５番地１－５０１,,13,201,1920364,,,,,,,2025-03-28,1,,,,,,0
483,3010403034707,新規,0,2025-03-28,2025-03-28,ＲＥＤ　Ｊａｐａｎ合同会社,,合同会社,東京都,港区,元麻布３丁目１番６号,,13,103,1060046,,,,,,,2025-03-28,1,,,,,レッドジャパン,0
484,3010501053848,新規,0,2025-03-28,2025-03-28,Ａｖａｎｔａ株式会社,,株式会社,東京都,台東区,松が谷２丁目１５番８号浅草Ｋ２ビル５０７号室,,13,106,1110036,,,,,,,2025-03-28,1,,,,,アヴァンタ,0
491,3010903009737,新規,0,2025-03-28,2025-03-28,合同会社ＫＡＮＡ,,合同会社,東京都,世田谷区,上馬４丁目１番１号マノワール駒沢７０１,,13,112,1540011,,,,,,,2025-03-28,1,,,,,カナ,0
500,3011001168426,新規,0,2025-03-28,2025-03-28,ＰＷＳＧＬＯＢＡＬ株式会社,,株式会社,東京都,渋谷区,初台１丁目５１番１号初台センタービル３２３号室,,13,113,1510061,,,,,,,2025-03-28,1,,,,,ピーダブリュエスグローバル,0
501,3011001168459,新規,0,2025-03-28,2025-03-28,株式会社カカオアイ,,株式会社,東京都,渋谷区,恵比寿西２丁目２０番７号２０３,,13,113,1500021,,,,,,,2025-03-28,1,,,,,カカオアイ,0
502,3011001168599,新規,0,2025-03-28,2025-03-28,株式会社ｎａｎｉａ,,株式会社,東京都,目黒区,東山３丁目１番１９号メゾン池尻大橋Ｍ．Ｉ．ＯＢｌｄｇ８０２号室,,13,110,1530043,,,,,,,2025-03-28,1,,,,,ナニア,0
504,3011003021228,新規,0,2025-03-28,2025-03-28,Ｃｈｅｖｅｒｅ合同会社,,合同会社,東京都,目黒区,上目黒５丁目１８－２０カーザ上目黒１０２,,13,110,1530051,,,,,,,2025-03-28,1,,,,,チェベレ,0
508,3011101111112,新規,0,2025-03-28,2025-03-28,さくらデジタル株式会社,,株式会社,東京都,新宿区,西新宿３丁目３番１３号西新宿水間ビル２Ｆ,,13,104,1600023,,,,,,,2025-03-28,1,,,,,サクラデジタル,0
520,3012803003670,新規,0,2025-03-28,2025-03-28,ＪＰ　ＢＲＥＥＺＥＲ合同会社,,合同会社,東京都,昭島市,美堀町１丁目１８－１２－１０５,,13,207,1960001,,,,,,,2025-03-28,1,,,,,ジェーピーブリーズ,0
537,3021005013313,新規,0,2025-03-28,2025-03-28,一般社団法人セーリングアスリートクラブ連盟,,その他の設立登記法人,神奈川県,藤沢市,片瀬海岸１丁目１２番４号,,14,205,2510035,,,,,,,2025-03-28,1,,,,,,0
543,3030001165464,新規,0,2025-03-28,2025-03-28,株式会社ミライビ,,株式会社,埼玉県,川口市,青木４丁目２１－２１－３０５号インプレスト川口青木,,11,203,3320031,,,,,,,2025-03-28,1,,,,,ミライビ,0
544,3030001165613,新規,0,2025-03-28,2025-03-28,株式会社ＣＧるうむ,,株式会社,埼玉県,新座市,東３丁目２０番１２号,,11,230,3520002,,,,,,,2025-03-28,1,,,,,シージールウム,0
550,3040001138048,新規,0,2025-03-28,2025-03-28,株式会社ＲＰＭ２５　Ｊａｐａｎ　Ｅｘｐｏｒｔ,,株式会社,千葉県,山武郡九十九里町,不動堂５８８番地２０,,12,403,2830113,,,,,,,2025-03-28,1,,,,,アールピーエムニジュウゴジャパンエクスポート,0
552,3040003027182,新規,0,2025-03-28,2025-03-28,合同会社ＣＳＬマネジメント,,合同会社,千葉県,松戸市,紙敷９５１－８,,12,207,2702221,,,,,,,2025-03-28,1,,,,,シーエスエルマネジメント,0
558,3050001056380,新規,0,2025-03-28,2025-03-28,株式会社Ｓｐａｎｎｅｒ,,株式会社,茨城県,筑西市,幸町１丁目２４番１６号,,08,227,3080848,,,,,,,2025-03-28,1,,,,,スパナ,0
559,3050001056389,新規,0,2025-03-28,2025-03-28,株式会社丸愛装業,,株式会社,茨城県,稲敷郡阿見町,大字上条８８８,,08,443,3000325,,,,,,,2025-03-28,1,,,,,マルアイソウギョウ,0
560,3050001056406,新規,0,2025-03-28,2025-03-28,廣瀬酒造株式会社,,株式会社,茨城県,石岡市,高浜８８０番地,,08,205,3150045,,,,,,,2025-03-28,1,,,,,ヒロセシュゾウ,0
561,3050003009139,新規,0,2025-03-28,2025-03-28,合同会社玉城塗装,,合同会社,茨城県,結城市,大字結城１１４９５番地３,,08,207,3070001,,,,,,,2025-03-28,1,,,,,タマシロトソウ,0
564,3060003005491,新規,0,2025-03-28,2025-03-28,ＳＴＡＲＴＩＣＳ合同会社,,合同会社,栃木県,小山市,大字小山２６４６番地８,,09,208,3230825,,,,,,,2025-03-28,1,,,,,スターティクス,0
565,3060005010317,新規,0,2025-03-28,2025-03-28,行政書士法人たかだ事務所,,その他の設立登記法人,栃木県,栃木市,都賀町平川２２１－２,,09,203,3280112,,,,,,,2025-03-28,1,,,,,タカダジムショ,0
571,3080105006493,新規,0,2025-03-28,2025-03-28,東神新機軸協同組合,,その他の設立登記法人,静岡県,三島市,富士見台１番地１０,,22,206,4110021,,,,,,,2025-03-28,1,,,,,トウシンシンキジク,0
574,3100003008036,新規,0,2025-03-28,2025-03-28,ときわ屋合同会社,,合同会社,長野県,松本市,野溝木工１丁目６番５９－１１号,,20,202,3990005,,,,,,,2025-03-28,1,,,,,トキワヤ,0
584,3120001273943,新規,0,2025-03-28,2025-03-28,信恒株式会社,,株式会社,大阪府,大阪市中央区,内本町２丁目４番１０－５１２号,,27,128,5400026,,,,,,,2025-03-28,1,,,,,シンコウ,0
585,3120001274017,新規,0,2025-03-28,2025-03-28,金樹株式会社,,株式会社,大阪府,大阪市西成区,鶴見橋１丁目１０番１４号２０５室,,27,122,5570031,,,,,,,2025-03-28,1,,,,,キンジュ,0
588,3120003028973,新規,0,2025-03-28,2025-03-28,Ｓｕｈａｎａ合同会社,,合同会社,大阪府,大阪市東住吉区,南田辺１丁目５番１８号１階,,27,121,5460033,,,,,,,2025-03-28,1,,,,,スハナ,0
589,3120003028981,新規,0,2025-03-28,2025-03-28,合同会社Ｍａｏｒｉｋａ,,合同会社,大阪府,大阪市西区,西本町１丁目１３－３８,,27,106,5500005,,,,,,,2025-03-28,1,,,,,マオリカ,0
591,3120101071330,新規,0,2025-03-28,2025-03-28,株式会社ｆｏｒｗａｒｄ,,株式会社,大阪府,泉南郡岬町,淡輪６８７番地の１６,,27,366,5990301,,,,,,,2025-03-28,1,,,,,フォワード,0
592,3120101071339,新規,0,2025-03-28,2025-03-28,株式会社ＣＯＣＯ,,株式会社,大阪府,羽曳野市,郡戸４０５番地の６,,27,222,5830874,,,,,,,2025-03-28,1,,,,,ココ,0
600,3140001137898,新規,0,2025-03-28,2025-03-28,株式会社東風吹かば,,株式会社,兵庫県,丹波篠山市,中５００番地,,28,221,6692601,,,,,,,2025-03-28,1,,,,,コチフカバ,0
606,3150003003536,新規,0,2025-03-28,2025-03-28,カラーバス・リペアズ合同会社,,合同会社,奈良県,奈良市,都祁馬場町７８４番地２,00138492,29,201,6320113,,,,,,,2025-03-28,1,,,,,カラーバスリペアズ,0
611,3180001166076,新規,0,2025-03-28,2025-03-28,株式会社ＦｉｎａｎｃｉａｌＣｒｅａｒｔ,,株式会社,愛知県,名古屋市中区,錦３丁目１０番１４号協和錦ビル２０３,,23,106,4600003,,,,,,,2025-03-28,1,,,,,ファイナンシャルクリアート,0
617,3180003028217,新規,0,2025-03-28,2025-03-28,ＩＡ　Ｇｒｏｕｐ合同会社,,合同会社,愛知県,名古屋市中村区,名駅５丁目４番１４号花車ビル北館,,23,105,4500002,,,,,,,2025-03-28,1,,,,,アイエーグループ,0
630,3240003007131,新規,0,2025-03-28,2025-03-28,合同会社ジェイサポート,,合同会社,広島県,廿日市市,四季が丘９丁目４番地２,,34,213,7380036,,,,,,,2025-03-28,1,,,,,ジェイサポート,0
640,3290003016598,新規,0,2025-03-28,2025-03-28,合同会社デジタルドリーム,,合同会社,福岡県,福岡市博多区,博多駅前１丁目２３番２号ＰａｒｋＦｒｏｎｔ博多駅前１丁目５Ｆ－Ｂ,,40,132,8120011,,,,,,,2025-03-28,1,,,,,デジタルドリーム,0
641,3290003016607,新規,0,2025-03-28,2025-03-28,軸合同会社,,合同会社,福岡県,福津市,宮司浜２丁目３５番２５号,,40,224,8113311,,,,,,,2025-03-28,1,,,,,ジク,0
646,3330001033005,新規,0,2025-03-28,2025-03-28,株式会社キムラジドウシャ,,株式会社,熊本県,阿蘇郡南阿蘇村,大字河陰３９６２番地１１,,43,433,8691411,,,,,,,2025-03-28,1,,,,,キムラジドウシャ,0
648,3350001019448,新規,0,2025-03-28,2025-03-28,株式会社翔徳林業,,株式会社,宮崎県,小林市,真方９３５番地１,,45,205,8860007,,,,,,,2025-03-28,1,,,,,ショウトクリンギョウ,0
651,3360001034966,新規,0,2025-03-28,2025-03-28,Ｒプロジェクト株式会社,,株式会社,沖縄県,うるま市,石川白浜２丁目１１番３号ＵｌｕＭｏａｎａ１号室,,47,213,9041105,,,,,,,2025-03-28,1,,,,,アールプロジェクト,0
660,3430001094029,新規,0,2025-03-28,2025-03-28,株式会社日本薬志,,株式会社,北海道,札幌市中央区,北一条西２丁目１番地,,01,101,0600001,,,,,,,2025-03-28,1,,,,,ニホンヤクシ,0
669,3500001026214,新規,0,2025-03-28,2025-03-28,株式会社ＷＩＭ,,株式会社,愛媛県,松山市,南久米町１９番地９,,38,201,7900924,,,,,,,2025-03-28,1,,,,,ダブリューアイエム,0
678,4010001253468,新規,0,2025-03-28,2025-03-28,ＪＰＶ第２８号株式会社,,株式会社,東京都,千代田区,霞が関３丁目２番１号,,13,101,1000013,,,,,,,2025-03-28,1,,,,,ジェイピーブイダイニジュウハチゴウ,0
679,4010001253476,新規,0,2025-03-28,2025-03-28,ＪＰＡ第３２７号株式会社,,株式会社,東京都,千代田区,霞が関３丁目２番１号,,13,101,1000013,,,,,,,2025-03-28,1,,,,,ジェイピーエーダイサンビャクニジュウナナゴウ,0
680,4010001253492,新規,0,2025-03-28,2025-03-28,ＪＰＡ第３４３号株式会社,,株式会社,東京都,千代田区,霞が関３丁目２番１号,,13,101,1000013,,,,,,,2025-03-28,1,,,,,ジェイピーエーダイサンビャクヨンジュウサンゴウ,0
687,4010005039822,新規,0,2025-03-28,2025-03-28,一般社団法人国際人工知能オリンピック日本委員会,,その他の設立登記法人,東京都,中央区,銀座１丁目１２番４号Ｎ＆ＥＢＬＤ．６Ｆ,,13,102,1040061,,,,,,,2025-03-28,1,,,,,コクサイジンコウチノウオリンピックニホンイインカイ,0
691,4010401189139,新規,0,2025-03-28,2025-03-28,株式会社赤髪,,株式会社,東京都,港区,北青山３丁目６番７号青山パラシオタワー１１階,,13,103,1070061,,,,,,,2025-03-28,1,,,,,アカガミ,0
693,4010501053839,新規,0,2025-03-28,2025-03-28,福澤株式会社,,株式会社,東京都,台東区,蔵前４丁目１６－６ストーク蔵前Ｍ＆Ｋ４階４０３,,13,106,1110051,,,,,,,2025-03-28,1,,,,,フクザワ,0
694,4010505003591,新規,0,2025-03-28,2025-03-28,一般社団法人全日本茶禅連合会,,その他の設立登記法人,東京都,台東区,上野３丁目１９－１ＨＢ御徒町３０１室,,13,106,1100005,,,,,,,2025-03-28,1,,,,,ゼンニッポンチャゼンレンゴウカイ,0
696,4010603011463,新規,0,2025-03-28,2025-03-28,合同会社クロゴス,,合同会社,東京都,江東区,豊洲３丁目６番８号－２８２１号,,13,108,1350061,,,,,,,2025-03-28,1,,,,,クロゴス,0
698,4010701047434,新規,0,2025-03-28,2025-03-28,ＬＡＮＤ　ＬｉＮＥ　ＷＯＲＫＳ株式会社,,株式会社,東京都,品川区,南品川１丁目８番９号,,13,109,1400004,,,,,,,2025-03-28,1,,,,,ランドラインワークス,0
703,4010901057092,新規,0,2025-03-28,2025-03-28,早森株式会社,,株式会社,東京都,世田谷区,奥沢４丁目２－１－Ｂ００１,,13,112,1580083,,,,,,,2025-03-28,1,,,,,ハヤモリ,0
704,4010903009802,新規,0,2025-03-28,2025-03-28,合同会社じがー,,合同会社,東京都,世田谷区,祖師谷３丁目３４番９号ＯＫビル２０１,,13,112,1570072,,,,,,,2025-03-28,1,,,,,ジガー,0
707,4011001168417,新規,0,2025-03-28,2025-03-28,株式会社デジタルインクルーシブ,,株式会社,東京都,渋谷区,渋谷２丁目１９－１５宮益坂ビルディング６０９,,13,113,1500002,,,,,,,2025-03-28,1,,,,,デジタルインクルーシブ,0
708,4011001168425,新規,0,2025-03-28,2025-03-28,５タイプ株式会社,,株式会社,東京都,渋谷区,渋谷２丁目１９－１５宮益坂ビルディング６０９,,13,113,1500002,,,,,,,2025-03-28,1,,,,,ファイブタイプ,0
713,4011101111136,新規,0,2025-03-28,2025-03-28,ｉＣｌｕｂ　Ｒｅｓｏｒｔ株式会社,,株式会社,東京都,新宿区,西新宿３丁目９番７－２３０７号,,13,104,1600023,,,,,,,2025-03-28,1,,,,,アイクラブリゾート,0
716,4011103015698,新規,0,2025-03-28,2025-03-28,アルシスケープ合同会社,,合同会社,東京都,新宿区,西新宿３丁目３番１３号西新宿水間ビル２Ｆ,,13,104,1600023,,,,,,,2025-03-28,1,,,,,アルシスケープ,0
717,4011201026234,新規,0,2025-03-28,2025-03-28,株式会社ＫＣインターナショナル,,株式会社,東京都,中野区,大和町１丁目６５番４号増田ビル,,13,114,1650034,,,,,,,2025-03-28,1,,,,,ケーシーインターナショナル,0
722,4011501031842,新規,0,2025-03-28,2025-03-28,株式会社ｉｔｏ,,株式会社,東京都,北区,浮間３丁目２９番１０号,,13,117,1150051,,,,,,,2025-03-28,1,,,,,イト,0
723,4011501031859,新規,0,2025-03-28,2025-03-28,株式会社Ｒｅｍｏｉ,,株式会社,東京都,北区,赤羽１丁目５９－８ヒノデビル４階,,13,117,1150045,,,,,,,2025-03-28,1,,,,,リモイ,0
725,4011601028532,新規,0,2025-03-28,2025-03-28,株式会社Ｌ．ＥＶＥＲ,,株式会社,東京都,練馬区,貫井４丁目４７番６０号,,13,120,1760021,,,,,,,2025-03-28,1,,,,,エルエバー,0
729,4011801045864,新規,0,2025-03-28,2025-03-28,株式会社馬券の用心棒,,株式会社,東京都,足立区,綾瀬１丁目３３番１４号,,13,121,1200005,,,,,,,2025-03-28,1,,,,,バケンノヨウジンボウ,0
730,4011803006757,新規,0,2025-03-28,2025-03-28,合同会社楽泳,,合同会社,東京都,足立区,東伊興２丁目４番１１－２０３号,,13,121,1210801,,,,,,,2025-03-28,1,,,,,ラクエイ,0
739,4013305003704,新規,0,2025-03-28,2025-03-28,社会保険労務士法人リッシュ・パートナーズ,,その他の設立登記法人,東京都,豊島区,池袋２丁目２６番８号,,13,116,1710014,,,,,,,2025-03-28,1,,,,,リッシュパートナーズ,0
740,4020001161991,新規,0,2025-03-28,2025-03-28,株式会社リネンゲームス,,株式会社,神奈川県,川崎市川崎区,下並木１１番地５川崎サイトシティ１番館３０４,,14,131,2100025,,,,,,,2025-03-28,1,,,,,リネンゲームス,0
741,4020001162008,新規,0,2025-03-28,2025-03-28,株式会社有志,,株式会社,神奈川県,川崎市川崎区,小田４丁目３８番１１号,,14,131,2100846,,,,,,,2025-03-28,1,,,,,ユウシ,0
742,4020001162049,新規,0,2025-03-28,2025-03-28,株式会社エンタープライズ,,株式会社,神奈川県,横浜市青葉区,美しが丘２丁目１１番地２セレアス美しが丘パティア３０６号,,14,117,2250002,,,,,,,2025-03-28,1,,,,,エンタープライズ,0
743,4020003028132,新規,0,2025-03-28,2025-03-28,合同会社Ｆカンパニー,,合同会社,神奈川県,川崎市宮前区,有馬７丁目１０番２０－１号,,14,136,2160003,,,,,,,2025-03-28,1,,,,,エフカンパニー,0
744,4020003028140,新規,0,2025-03-28,2025-03-28,合同会社Ｙｕｎｏ,,合同会社,神奈川県,川崎市高津区,久本３丁目１４番１－４１７号,,14,134,2130011,,,,,,,2025-03-28,1,,,,,ユノ,0
746,4020005016754,新規,0,2025-03-28,2025-03-28,特定非営利活動法人黒川岡上学生農場,,その他の設立登記法人,神奈川県,川崎市麻生区,岡上１１０７番地１,,14,137,2150027,,,,,,,2025-03-28,1,,,,,クロカワオカガミガクセイノウジョウ,0
749,4021003015797,新規,0,2025-03-28,2025-03-28,合同会社ＫＡＮＴＯ　ＴＲＡＤＩＮＧ,,合同会社,神奈川県,愛甲郡清川村,煤ヶ谷８６０番地１－２０３－Ｃ号,,14,402,2430112,,,,,,,2025-03-28,1,,,,,カントートレーディング,0
754,4030001165612,新規,0,2025-03-28,2025-03-28,ＮＯＮ‐Ｈ　ＤＥＳＩＧＮ株式会社,,株式会社,埼玉県,川口市,元郷２丁目５番７－８０１号サニーコート川口元郷第２,,11,203,3320011,,,,,,,2025-03-28,1,,,,,ノナッカデザイン,0
758,4030003026408,新規,0,2025-03-28,2025-03-28,合同会社ＰＴ　ＳＨＯＰ,,合同会社,埼玉県,戸田市,美女木１丁目１７－１４ライオンズマンション武蔵浦和第５－１０３号１,,11,224,3350031,,,,,,,2025-03-28,1,,,,,ピーティーショップ,0
759,4030003026432,新規,0,2025-03-28,2025-03-28,合同会社ＳＴ,,合同会社,埼玉県,川口市,上青木５丁目５番１０号プラセール１０７号,,11,203,3330844,,,,,,,2025-03-28,1,,,,,エスティー,0
766,4040001138039,新規,0,2025-03-28,2025-03-28,ＫＳ商事株式会社,,株式会社,千葉県,松戸市,竹ケ花西町３１１番地の４１,,12,207,2710071,,,,,,,2025-03-28,1,,,,,ケイエスショウジ,0
767,4040001138071,新規,0,2025-03-28,2025-03-28,株式会社プライムアセット,,株式会社,千葉県,市川市,鬼高２丁目９番１３号,,12,203,2720015,,,,,,,2025-03-28,1,,,,,プライムアセット,0
770,4040005022701,新規,0,2025-03-28,2025-03-28,一般社団法人生活と園藝舎,,その他の設立登記法人,千葉県,松戸市,松戸７２６番地の５クラフト４０１号,,12,207,2710092,,,,,,,2025-03-28,1,,,,,セイカツトエンゲイシャ,0
774,4050001056388,新規,0,2025-03-28,2025-03-28,株式会社ＮＭＷ,,株式会社,茨城県,水戸市,河和田町２３５番地の２,,08,201,3114153,,,,,,,2025-03-28,1,,,,,エヌエムダブリュウ,0
775,4050003009138,新規,0,2025-03-28,2025-03-28,合同会社Ｄｅｎｔａｌ　Ｃｒａｆｔ　Ｌａｂｏ,,合同会社,茨城県,神栖市,息栖２８２６番地１６８,,08,232,3140133,,,,,,,2025-03-28,1,,,,,デンタルクラフトラボ,0
776,4050003009146,新規,0,2025-03-28,2025-03-28,合同会社ハルノ,,合同会社,茨城県,つくばみらい市,富士見ヶ丘１丁目３４番地３,,08,235,3002417,,,,,,,2025-03-28,1,,,,,ハルノ,0
780,4070003005837,新規,0,2025-03-28,2025-03-28,ＹＡＳＩＲ　ＴＲＡＤＩＮＧ合同会社,,合同会社,群馬県,邑楽郡板倉町,大字西岡７４６番地の９,,10,521,3740107,,,,,,,2025-03-28,1,,,,,ヤスイルトレーディング,0
782,4080101025406,新規,0,2025-03-28,2025-03-28,株式会社キタジマ,,株式会社,静岡県,富士市,五貫島１６８番地の１,,22,210,4160946,,,,,,,2025-03-28,1,,,,,キタジマ,0
786,4100001038447,新規,0,2025-03-28,2025-03-28,Ｑ　Ａ　ＴＲＡＤＩＮＧ株式会社,,株式会社,長野県,埴科郡坂城町,大字網掛２８６４番地２,,20,521,3890604,,,,,,,2025-03-28,1,,,,,キューエートレーディング,0
797,4120001273686,新規,0,2025-03-28,2025-03-28,ＷＯＮＤＥＲＷＡＬＬ株式会社,,株式会社,大阪府,大阪市淀川区,宮原２丁目１４－８－３０５,,27,123,5320003,,,,,,,2025-03-28,1,,,,,ワンダーウォール,0
798,4120001273760,新規,0,2025-03-28,2025-03-28,株式会社ランラン,,株式会社,大阪府,大阪市西成区,萩之茶屋１丁目９番２９号,,27,122,5570004,,,,,,,2025-03-28,1,,,,,ランラン,0
799,4120001274016,新規,0,2025-03-28,2025-03-28,Ｅｎｉｇｍａ株式会社,,株式会社,大阪府,大阪市北区,梅田１丁目２番２号大阪駅前第２ビル１２－１２,,27,127,5300001,,,,,,,2025-03-28,1,,,,,エニグマ,0
800,4120001274040,新規,0,2025-03-28,2025-03-28,ｓｅｖｅｎｗｏｏｄ株式会社,,株式会社,大阪府,大阪市西成区,松１丁目１０番２９号、２０６号室,,27,122,5570034,,,,,,,2025-03-28,1,,,,,セブンウッド,0
801,4120001274057,新規,0,2025-03-28,2025-03-28,１８１９Ｊａｐａｎ　ｂｙ　Ｎｏａｈ株式会社,,株式会社,大阪府,大阪市北区,西天満３丁目５番１０号オフィスポート大阪４０８,,27,127,5300047,,,,,,,2025-03-28,1,,,,,エインティーンナインティーンジャパンバイノア,0
802,4120001274065,新規,0,2025-03-28,2025-03-28,株式会社ポクレルグループ,,株式会社,大阪府,大阪市旭区,高殿４丁目５－３０,,27,117,5350031,,,,,,,2025-03-28,1,,,,,ポクレルグループ,0
803,4120001274081,新規,0,2025-03-28,2025-03-28,瑞云堂株式会社,,株式会社,大阪府,大阪市住吉区,遠里小野３丁目６番１３号,,27,120,5580032,,,,,,,2025-03-28,1,,,,,ズイウンドウ,0
810,4120003028972,新規,0,2025-03-28,2025-03-28,ＰＬＡ合同会社,,合同会社,大阪府,大阪市生野区,桃谷５丁目７番３３号グランダム桃谷１０５号,,27,116,5440034,,,,,,,2025-03-28,1,,,,,ピーエルエー,0
818,4130001079281,新規,0,2025-03-28,2025-03-28,大成株式会社,,株式会社,京都府,京都市上京区,相国寺門前町６４７番地８烏丸ビル４階,,26,102,6020898,,,,,,,2025-03-28,1,,,,,タイセイ,0
821,4130003010319,新規,0,2025-03-28,2025-03-28,合同会社じゅぴた,,合同会社,京都府,京田辺市,薪城ノ内３４番地１,,26,211,6100341,,,,,,,2025-03-28,1,,,,,ジュピタ,0
828,4170005007144,新規,0,2025-03-28,2025-03-28,学校法人三木学園,,その他の設立登記法人,和歌山県,和歌山市,黒田４１番地の１,,30,201,6408341,,,,,,,2025-03-28,1,,,,,ミキガクエン,0
838,4180003028224,新規,0,2025-03-28,2025-03-28,合同会社セレクト・マスター,,合同会社,愛知県,名古屋市緑区,六田２丁目８８番地の１３,,23,114,4580036,,,,,,,2025-03-28,1,,,,,セレクトマスター,0
839,4180005021004,新規,0,2025-03-28,2025-03-28,なごやＳＫＹ　Ｉｎｔ協同組合,,その他の設立登記法人,愛知県,名古屋市守山区,長栄１３番１９号第１９オーシャンビル,,23,113,4630062,,,,,,,2025-03-28,1,,,,,ナゴヤスカイイント,0
848,4200005013741,新規,0,2025-03-28,2025-03-28,特定非営利活動法人こどもがセンターマハロ,,その他の設立登記法人,岐阜県,岐阜市,鍵屋西町２丁目５６番地４,,21,201,5008314,,,,,,,2025-03-28,1,,,,,コドモガセンターマハロ,0
853,4230001020805,新規,0,2025-03-28,2025-03-28,ＹＡＨＡＴＡ　ＬＯＧＩＳＴＩＣＳ株式会社,,株式会社,富山県,富山市,八幡４４番地１,,16,201,9302222,,,,,,,2025-03-28,1,,,,,ヤハタロジスティックス,0
858,4250001021058,新規,0,2025-03-28,2025-03-28,株式会社ＭＫＳＰＯＲＴＳ,,株式会社,山口県,山口市,糸米２丁目９番１０号,,35,203,7530079,,,,,,,2025-03-28,1,,,,,エムケイスポーツ,0
868,4290001109452,新規,0,2025-03-28,2025-03-28,キャンディファーム株式会社,,株式会社,福岡県,福岡市中央区,大名２丁目１０番３号Ｃ８０６,,40,133,8100041,,,,,,,2025-03-28,1,,,,,,0
870,4290005019689,新規,0,2025-03-28,2025-03-28,一般社団法人ゆりかもめ,,その他の設立登記法人,福岡県,福岡市早良区,野芥４丁目４５番５５号,,40,137,8140171,,,,,,,2025-03-28,1,,,,,ユリカモメ,0
874,4290803005007,新規,0,2025-03-28,2025-03-28,サービス四国合同会社,,合同会社,福岡県,北九州市小倉北区,重住二丁目６番５８号,,40,106,8020000,,,,,,,2025-03-28,1,,,,,サービスシコク,0
880,4360001034965,新規,0,2025-03-28,2025-03-28,株式会社ＫＪプランニング,,株式会社,沖縄県,那覇市,泉崎１丁目２２番２号マンションびせ２０１,,47,201,9000021,,,,,,,2025-03-28,1,,,,,ケージェイプランニング,0
881,4360001034973,新規,0,2025-03-28,2025-03-28,株式会社日本土地情報センター,,株式会社,沖縄県,宮古島市,平良字東仲宗根添１８８１番地１,,47,214,9060011,,,,,,,2025-03-28,1,,,,,ニホントチジョウホウセンター,0
884,4360003014800,新規,0,2025-03-28,2025-03-28,合同会社デイジー,,合同会社,沖縄県,沖縄市,胡屋６丁目１０－２６－３０２,,47,211,9040021,,,,,,,2025-03-28,1,,,,,デイジー,0
889,4380001035177,新規,0,2025-03-28,2025-03-28,株式会社相志工業,,株式会社,福島県,福島市,本内字南街道下２８番地の１,,07,201,9600103,,,,,,,2025-03-28,1,,,,,ソウシコウギョウ,0
896,4430001094028,新規,0,2025-03-28,2025-03-28,青謙美装株式会社,,株式会社,北海道,札幌市北区,新琴似八条１５丁目１０番６号,,01,102,0010908,,,,,,,2025-03-28,1,,,,,アオケンビソウ,0
897,4430003017449,新規,0,2025-03-28,2025-03-28,合同会社ＦＫＤ,,合同会社,北海道,札幌市厚別区,上野幌一条４丁目１番２５－１０２号,,01,108,0040031,,,,,,,2025-03-28,1,,,,,エフケイディ,0
898,4430005015194,新規,0,2025-03-28,2025-03-28,特定非営利活動法人札幌災害支援協力会,,その他の設立登記法人,北海道,札幌市中央区,北一条東１５丁目１４０公清企業ビル,,01,101,0600031,,,,,,,2025-03-28,1,,,,,サッポロサイガイシエンキョウリョクカイ,0
900,4460103001696,新規,0,2025-03-28,2025-03-28,合同会社ナイキ,,合同会社,北海道,中川郡幕別町,字千住４７４番地,,01,643,0890563,,,,,,,2025-03-28,1,,,,,ナイキ,0
901,4470001020640,新規,0,2025-03-28,2025-03-28,株式会社ＨＯＳＨＩＫＡＷＡ,,株式会社,香川県,観音寺市,池之尻町１１０１番地２４,,37,205,7680031,,,,,,,2025-03-28,1,,,,,ホシカワ,0
903,4470003002843,新規,0,2025-03-28,2025-03-28,合同会社ＫＯＮ,,合同会社,香川県,高松市,松縄町４１番地１－５０３号,,37,201,7600079,,,,,,,2025-03-28,1,,,,,ケーオーエヌ,0
922,5010001253467,新規,0,2025-03-28,2025-03-28,ＪＰＶ第２７号株式会社,,株式会社,東京都,千代田区,霞が関３丁目２番１号,,13,101,1000013,,,,,,,2025-03-28,1,,,,,ジェイピーブイダイニジュウナナゴウ,0
923,5010001253475,新規,0,2025-03-28,2025-03-28,ＪＰＡ第３２６号株式会社,,株式会社,東京都,千代田区,霞が関３丁目２番１号,,13,101,1000013,,,,,,,2025-03-28,1,,,,,ジェイピーエーダイサンビャクニジュウロクゴウ,0
924,5010001253483,新規,0,2025-03-28,2025-03-28,ＪＰＡ第３３４号株式会社,,株式会社,東京都,千代田区,霞が関３丁目２番１号,,13,101,1000013,,,,,,,2025-03-28,1,,,,,ジェイピーエーダイサンビャクサンジュウヨンゴウ,0
925,5010001253491,新規,0,2025-03-28,2025-03-28,ＪＰＡ第３４２号株式会社,,株式会社,東京都,千代田区,霞が関３丁目２番１号,,13,101,1000013,,,,,,,2025-03-28,1,,,,,ジェイピーエーダイサンビャクヨンジュウニゴウ,0
933,5010401189154,新規,0,2025-03-28,2025-03-28,Ｎｅｘｐｒｉｎｇ　Ｈｅａｌｔｈ　Ｊａｐａｎ株式会社,,株式会社,東京都,港区,海岸１丁目２番２０号汐留ビルディング３階,,13,103,1050022,,,,,,,2025-03-28,1,,,,,,0
934,5010401189179,新規,0,2025-03-28,2025-03-28,株式会社ＢｕｌｌＧｏｌｆ,,株式会社,東京都,港区,南青山２丁目２７番地７号南青山ＫビルＢ１,,13,103,1070062,,,,,,,2025-03-28,1,,,,,ブルゴルフ,0
935,5010401189237,新規,0,2025-03-28,2025-03-28,株式会社ｒａｉｒｉｓ,,株式会社,東京都,港区,芝５丁目３６番４号札ノ辻スクエア９階,,13,103,1080014,,,,,,,2025-03-28,1,,,,,レイリス,0
939,5010403034630,新規,0,2025-03-28,2025-03-28,ミモザジャパングループ合同会社,,合同会社,東京都,港区,北青山１丁目３番１号アールキューブ青山３階,,13,103,1070061,,,,,,,2025-03-28,1,,,,,ミモザジャパングループ,0
940,5010403034688,新規,0,2025-03-28,2025-03-28,ＢｒｉｇｈｔＳｔｅｐ合同会社,,合同会社,東京都,港区,南青山２丁目２番１５号,,13,103,1070062,,,,,,,2025-03-28,1,,,,,ブライトステップ,0
941,5010501053854,新規,0,2025-03-28,2025-03-28,ＵＤＬ株式会社,,株式会社,東京都,台東区,台東１丁目２４番９号ブライト秋葉原Ｂ１Ｆ,,13,106,1100016,,,,,,,2025-03-28,1,,,,,ユーディーエル,0
949,5011001168416,新規,0,2025-03-28,2025-03-28,株式会社ａｄｏｌｅｅｎ,,株式会社,東京都,渋谷区,神南１丁目１１－４ＦＰＧリンクス神南５階,,13,113,1500041,,,,,,,2025-03-28,1,,,,,アドレアン,0
950,5011001168449,新規,0,2025-03-28,2025-03-28,言の葉株式会社,,株式会社,東京都,渋谷区,道玄坂１丁目１６－６二葉ビル８ｂ,,13,113,1500043,,,,,,,2025-03-28,1,,,,,コトノハ,0
951,5011001168465,新規,0,2025-03-28,2025-03-28,株式会社Ｌｉｂｅｒａ,,株式会社,東京都,渋谷区,代々木１丁目４４番４号,,13,113,1510053,,,,,,,2025-03-28,1,,,,,リベラ,0
954,5011003021226,新規,0,2025-03-28,2025-03-28,合同会社Ｇｉｎａ　Ｃｒｅａｔｉｖｅ．,,合同会社,東京都,渋谷区,道玄坂１丁目１０番８号渋谷道玄坂東急ビル２Ｆ－Ｃ,,13,113,1500043,,,,,,,2025-03-28,1,,,,,ジーナクリエイティブ,0
955,5011003021259,新規,0,2025-03-28,2025-03-28,合同会社Ｊｏｙ　Ｇｒｏｅａｍｓ,,合同会社,東京都,渋谷区,千駄ヶ谷５丁目１６番１６号フラワーマンション１００３号室,,13,113,1510051,,,,,,,2025-03-28,1,,,,,ジョイグロームズ,0
957,5011101111102,新規,0,2025-03-28,2025-03-28,株式会社タロス,,株式会社,東京都,新宿区,高田馬場１丁目６－１６ユニオンビル８０１,,13,104,1690075,,,,,,,2025-03-28,1,,,,,タロス,0
958,5011103015607,新規,0,2025-03-28,2025-03-28,合同会社ＬＩＮＫ,,合同会社,東京都,新宿区,西新宿３丁目３番１３号西新宿水間ビル２Ｆ,,13,104,1600023,,,,,,,2025-03-28,1,,,,,リンク,0
959,5011103015714,新規,0,2025-03-28,2025-03-28,合同会社ＪＫＦ‐２,,合同会社,東京都,新宿区,下宮比町１番４号,,13,104,1620822,,,,,,,2025-03-28,1,,,,,ジェイケイエフツー,0
976,5011401026941,新規,0,2025-03-28,2025-03-28,ＭＭＯネットワーク株式会社,,株式会社,東京都,板橋区,坂下３丁目２７－２３蓮根ペガサスビル５０８,,13,119,1740043,,,,,,,2025-03-28,1,,,,,エムエムオーネットワーク,0
977,5011501031817,新規,0,2025-03-28,2025-03-28,北富士株式会社,,株式会社,東京都,北区,上十条２丁目２７番１－３２０３号ザ・タワー十条,,13,117,1140034,,,,,,,2025-03-28,1,,,,,キタフジ,0
989,5012703003232,新規,0,2025-03-28,2025-03-28,合同会社一芯,,合同会社,東京都,東久留米市,南沢４丁目１０番８号,,13,222,2030023,,,,,,,2025-03-28,1,,,,,イッシン,0
999,5020001162023,新規,0,2025-03-28,2025-03-28,株式会社ＺＥＮＰＨＡＲＭＡＣＹ,,株式会社,神奈川県,横浜市瀬谷区,三ツ境１番地５ヒルトップ壱番館２０１号室,,14,114,2460022,,,,,,,2025-03-28,1,,,,,ゼンファーマシー,0
1007,5021003015796,新規,0,2025-03-28,2025-03-28,合同会社Ｂｌｕｅ　Ｌｉｎｅ　Ｍｏｔｏｒｓ,,合同会社,神奈川県,愛甲郡清川村,煤ヶ谷８６０番地１－２０２－Ｂ号,,14,402,2430112,,,,,,,2025-03-28,1,,,,,ブルーラインモータース,0
1015,5030003026415,新規,0,2025-03-28,2025-03-28,輝星合同会社,,合同会社,埼玉県,志木市,上宗岡４丁目５－３０－３,,11,228,3530001,,,,,,,2025-03-28,1,,,,,ヒカリ,0
1016,5030003026431,新規,0,2025-03-28,2025-03-28,ＣＯＳＭＯＳ合同会社,,合同会社,埼玉県,熊谷市,宮本町２,,11,202,3600822,,,,,,,2025-03-28,1,,,,,コスモス,0
1027,5040001138013,新規,0,2025-03-28,2025-03-28,株式会社リ・エコテック,,株式会社,千葉県,松戸市,田中新田５１番地の８２,,12,207,2702255,,,,,,,2025-03-28,1,,,,,リエコテック,0
1028,5040001138038,新規,0,2025-03-28,2025-03-28,株式会社マルキ,,株式会社,千葉県,習志野市,実籾５丁目５番１６－１００３号,00138490,12,216,2750002,,,,,,,2025-03-28,1,,,,,マルキ,0
1032,5040003027148,新規,0,2025-03-28,2025-03-28,合同会社Ｓｐｒｏｕｔ　Ｒａｉｓｅ,,合同会社,千葉県,松戸市,古ケ崎４丁目３６１９番地の３,,12,207,2710068,,,,,,,2025-03-28,1,,,,,スプラウトレイズ,0
1033,5040003027189,新規,0,2025-03-28,2025-03-28,合同会社アオイベル,,合同会社,千葉県,柏市,あけぼの４丁目１０－２９,,12,217,2770841,,,,,,,2025-03-28,1,,,,,アオイベル,0
1034,5040003027197,新規,0,2025-03-28,2025-03-28,ＨＡＮＮＡ合同会社,,合同会社,千葉県,柏市,高田１２４２番地３サンヒルズ柏Ａ－２０２号,,12,217,2770861,,,,,,,2025-03-28,1,,,,,ハンナ,0
1041,5050001056395,新規,0,2025-03-28,2025-03-28,株式会社木内工業,,株式会社,茨城県,鹿嶋市,厨３丁目２番地１２,,08,222,3140030,,,,,,,2025-03-28,1,,,,,キウチコウギョウ,0
1042,5050003009145,新規,0,2025-03-28,2025-03-28,合同会社カネ久,,合同会社,茨城県,東茨城郡大洗町,大貫町４１６,,08,309,3111311,,,,,,,2025-03-28,1,,,,,カネキュウ,0
1043,5050003009153,新規,0,2025-03-28,2025-03-28,翔英巧業合同会社,,合同会社,茨城県,水戸市,末広町３丁目４－２０,,08,201,3100053,,,,,,,2025-03-28,1,,,,,ショウエイコウギョウ,0
1048,5070001042765,新規,0,2025-03-28,2025-03-28,株式会社Ｖｉｔａ,,株式会社,群馬県,安中市,松井田町入山３５９番地,,10,211,3790305,,,,,,,2025-03-28,1,,,,,ヴィータ,0
1049,5080001026833,新規,0,2025-03-28,2025-03-28,株式会社ｆｕｊｉｎｏｙａ　ｌｏｇｉｓｔｉｃｓ,,株式会社,静岡県,静岡市葵区,岳美５‐２６,,22,101,4200934,,,,,,,2025-03-28,1,,,,,フジノヤロジスティクス,0
1056,5100003008059,新規,0,2025-03-28,2025-03-28,合同会社Ｔ．Ｒ．Ｅ．,,合同会社,長野県,松本市,大字神林１５３１番地４,,20,202,3901243,,,,,,,2025-03-28,1,,,,,ティーアールイー,0
1066,5120001273999,新規,0,2025-03-28,2025-03-28,株式会社田口事務所,,株式会社,大阪府,大阪市北区,梅田１丁目１－３大阪駅前第３ビル２９階１－１－１号室,,27,127,5300001,,,,,,,2025-03-28,1,,,,,タグチジムショ,0
1067,5120001274015,新規,0,2025-03-28,2025-03-28,楚諾衆合株式会社,,株式会社,大阪府,大阪市東住吉区,矢田４丁目９番１５－４０３号,,27,121,5460023,,,,,,,2025-03-28,1,,,,,ソダクシュゴウ,0
1068,5120001274048,新規,0,2025-03-28,2025-03-28,長江株式会社,,株式会社,大阪府,大阪市淀川区,十三本町１丁目１８－７－６０２号室,,27,123,5320024,,,,,,,2025-03-28,1,,,,,チョウコウ,0
1077,5120101071337,新規,0,2025-03-28,2025-03-28,株式会社瀧本建装,,株式会社,大阪府,泉佐野市,鶴原３９３－６,,27,213,5980071,,,,,,,2025-03-28,1,,,,,タキモトケンソウ,0
1078,5120101071353,新規,0,2025-03-28,2025-03-28,株式会社エクリアス,,株式会社,大阪府,堺市堺区,熊野町東１丁１番２号,,27,141,5900946,,,,,,,2025-03-28,1,,,,,エクリアス,0
1079,5120103006340,新規,0,2025-03-28,2025-03-28,ＳＰＩＮＴＥＲＭ合同会社,,合同会社,大阪府,阪南市,尾崎町１９４番地２,,27,232,5990201,,,,,,,2025-03-28,1,,,,,スピンターム,0
1080,5120901050622,新規,0,2025-03-28,2025-03-28,モルニ株式会社,,株式会社,大阪府,茨木市,中村町１４番５号,,27,211,5670822,,,,,,,2025-03-28,1,,,,,モルニ,0
1089,5130003010318,新規,0,2025-03-28,2025-03-28,合同会社彰泰,,合同会社,京都府,京都市西京区,大枝東長町１番地２０６アンプルールフェールエビンルード１０３号,,26,111,6101111,,,,,,,2025-03-28,1,,,,,アキヤス,0
1090,5130003010326,新規,0,2025-03-28,2025-03-28,合同会社Ｐｌａｎ　ｂｏｎ　Ｓａｋａｔａ,,合同会社,京都府,京都市右京区,西院高田町４番地１プレミスト京都西院１１１号,,26,108,6150031,,,,,,,2025-03-28,1,,,,,プランボンサカタ,0
1094,5140001137913,新規,0,2025-03-28,2025-03-28,株式会社ＭＴ建設,,株式会社,兵庫県,姫路市,花田町勅旨１３０番地１,,28,201,6710254,,,,,,,2025-03-28,1,,,,,エムティーケンセツ,0
1095,5140001137921,新規,0,2025-03-28,2025-03-28,文野株式会社,,株式会社,兵庫県,神戸市兵庫区,上三条町１番２３号平野サンロイヤル２０３号室,,28,105,6520013,,,,,,,2025-03-28,1,,,,,ブンノ,0
1104,5180003028207,新規,0,2025-03-28,2025-03-28,合同会社ＴｏＭＡＳ,,合同会社,愛知県,名古屋市名東区,引山１丁目１２０５－３０３,,23,115,4650002,,,,,,,2025-03-28,1,,,,,トーマス,0
1109,5180301039649,新規,0,2025-03-28,2025-03-28,ＫＯＣＯＮＥＸ株式会社,,株式会社,愛知県,安城市,里町森６７番地１,,23,212,4460001,,,,,,,2025-03-28,1,,,,,ココネックス,0
1115,5210005010191,新規,0,2025-03-28,2025-03-28,一般社団法人福井県家庭養護推進ネットワーク,,その他の設立登記法人,福井県,福井市,板垣３丁目１３３３番地第２Ｍビル２Ｂ,,18,201,9188104,,,,,,,2025-03-28,1,,,,,フクイケンカテイヨウゴスイシンネットワーク,0
1121,5240001064718,新規,0,2025-03-28,2025-03-28,株式会社グラム,,株式会社,広島県,広島市中区,舟入川口町６番２８号,,34,101,7300845,,,,,,,2025-03-28,1,,,,,グラム,0
1125,5290001109468,新規,0,2025-03-28,2025-03-28,株式会社ＧＹ　Ｉｎｖｅｓｔｍｅｎｔ,,株式会社,福岡県,福岡市西区,愛宕浜４丁目７番１号,,40,135,8190013,,,,,,,2025-03-28,1,,,,,ジーワイインベストメント,0
1126,5290001109476,新規,0,2025-03-28,2025-03-28,株式会社ディスパ,,株式会社,福岡県,福岡市博多区,博多駅前１丁目２３番２号ＰａｒｋＦｒｏｎｔ博多駅前１丁目５Ｆ－Ｂ,,40,132,8120011,,,,,,,2025-03-28,1,,,,,ディスパ,0
1131,5290803005006,新規,0,2025-03-28,2025-03-28,合同会社ＲＡＢＩ．,,合同会社,福岡県,北九州市小倉北区,弁天町３番３０号,,40,106,8030856,,,,,,,2025-03-28,1,,,,,ラビ,0
1132,5320001021017,新規,0,2025-03-28,2025-03-28,株式会社ａｒｔ,,株式会社,大分県,杵築市,大字杵築６６５番地５６３グレイスフル服部５０２,,44,210,8730001,,,,,,,2025-03-28,1,,,,,エーアールティー,0
1154,5430001094027,新規,0,2025-03-28,2025-03-28,株式会社サンライズ,,株式会社,北海道,江別市,上江別東町２番地の２２Ｇ１ＡＰ１Ｃ,,01,217,0670061,,,,,,,2025-03-28,1,,,,,サンライズ,0
1158,5490001011001,新規,0,2025-03-28,2025-03-28,株式会社ＫＵＷＡＳＨＩＫＵ,,株式会社,高知県,香南市,香我美町下分５９５番１７号,,39,211,7815452,,,,,,,2025-03-28,1,,,,,,0
1160,5700150043715,新規,0,2025-03-28,2015-10-09,岡崎税務署管内青色申告会,,その他,愛知県,岡崎市,柱曙３丁目７－１２,,23,202,4440833,,,,,,,2015-10-09,1,,,,,オカザキゼイムシヨカンナイアオイロシンコクカイ,0
1161,5700150129761,新規,0,2025-03-28,2025-03-28,Ａｉｂｙ　Ｉｎｃ,,外国会社等,,,,,,,,４ｔｈ　Ｓｔｒｅｅｔ　Ｎ　Ｓｔｅ　４９１３　７９０１　３３７０２－４３０５　Ｓｔ　Ｐｅｔｅｒｓｂｕｒｇ，ＦＬ　ＵＳＡ,,,,,,2025-03-28,1,,,,,アイビーインク,0
1172,6010001253466,新規,0,2025-03-28,2025-03-28,ＪＰＶ第２６号株式会社,,株式会社,東京都,千代田区,霞が関３丁目２番１号,,13,101,1000013,,,,,,,2025-03-28,1,,,,,ジェイピーブイダイニジュウロクゴウ,0
1173,6010001253474,新規,0,2025-03-28,2025-03-28,ＪＰＡ第３２５号株式会社,,株式会社,東京都,千代田区,霞が関３丁目２番１号,,13,101,1000013,,,,,,,2025-03-28,1,,,,,ジェイピーエーダイサンビャクニジュウゴゴウ,0
1174,6010001253482,新規,0,2025-03-28,2025-03-28,ＪＰＡ第３３３号株式会社,,株式会社,東京都,千代田区,霞が関３丁目２番１号,,13,101,1000013,,,,,,,2025-03-28,1,,,,,ジェイピーエーダイサンビャクサンジュウサンゴウ,0
1175,6010001253490,新規,0,2025-03-28,2025-03-28,ＪＰＡ第３４１号株式会社,,株式会社,東京都,千代田区,霞が関３丁目２番１号,,13,101,1000013,,,,,,,2025-03-28,1,,,,,ジェイピーエーダイサンビャクヨンジュウイチゴウ,0
1180,6010005039812,新規,0,2025-03-28,2025-03-28,大阪城見特定目的会社,,その他の設立登記法人,東京都,千代田区,飯田橋４丁目７番１号結和税理士法人内,,13,101,1020072,,,,,,,2025-03-28,1,,,,,オオサカシロミ,0
1181,6010005039820,新規,0,2025-03-28,2025-03-28,ＴＯＫ１Ｇ特定目的会社,,その他の設立登記法人,東京都,千代田区,丸の内１丁目４番１号東京共同会計事務所内,,13,101,1000005,,,,,,,2025-03-28,1,,,,,トックワンジー,0
1188,6010401189186,新規,0,2025-03-28,2025-03-28,株式会社ＨＡＲＵＹＯＳＨＩ,,株式会社,東京都,港区,東麻布１丁目２８番１２号,,13,103,1060044,,,,,,,2025-03-28,1,,,,,ハルヨシ,0
1191,6010501053845,新規,0,2025-03-28,2025-03-28,株式会社サクラクリエイション,,株式会社,東京都,台東区,千束３丁目１１番５号,,13,106,1110031,,,,,,,2025-03-28,1,,,,,サクラクリエイション,0
1201,6010901057090,新規,0,2025-03-28,2025-03-28,株式会社Ａ,,株式会社,東京都,世田谷区,用賀３丁目２５番１８号グランフォート用賀３１３,,13,112,1580097,,,,,,,2025-03-28,1,,,,,エー,0
1202,6010905004758,新規,0,2025-03-28,2025-03-28,医療法人社団清弘会,,その他の設立登記法人,東京都,世田谷区,成城６丁目８番１号鎌倉ビル１－２階,,13,112,1570066,,,,,,,2025-03-28,1,,,,,セイコウカイ,0
1204,6011001168456,新規,0,2025-03-28,2025-03-28,株式会社ＩＮ　ＢＲＡＮＤ,,株式会社,東京都,渋谷区,神南１丁目１１－４ＦＰＧリンクス神南５階,,13,113,1500041,,,,,,,2025-03-28,1,,,,,インブランド,0
1205,6011001168588,新規,0,2025-03-28,2025-03-28,株式会社Ｌｉｎｋｕｓ　Ｅｎｔｅｒｔａｉｎｍｅｎｔ,,株式会社,東京都,渋谷区,道玄坂１丁目１０番８号渋谷道玄坂東急ビル２Ｆ－Ｃ,,13,113,1500043,,,,,,,2025-03-28,1,,,,,リンクスエンターテイメント,0
1212,6011101111101,新規,0,2025-03-28,2025-03-28,レイス株式会社,,株式会社,東京都,新宿区,西新宿３丁目３番１３号西新宿水間ビル２Ｆ,,13,104,1600023,,,,,,,2025-03-28,1,,,,,レイス,0
1213,6011101111118,新規,0,2025-03-28,2025-03-28,星海株式会社,,株式会社,東京都,新宿区,高田馬場２丁目８番２号６階,,13,104,1690075,,,,,,,2025-03-28,1,,,,,セイカイ,0
1214,6011101111126,新規,0,2025-03-28,2025-03-28,＿潔株式会社,00138491,株式会社,東京都,新宿区,下落合１丁目２番５号鈴木総合ビル３階Ｃ室,,13,104,1610033,,,,,,,2025-03-28,1,,,,,テキキョシ,0
1215,6011101111134,新規,0,2025-03-28,2025-03-28,飛耀株式会社,,株式会社,東京都,新宿区,百人町３丁目１５番８号１階,,13,104,1690073,,,,,,,2025-03-28,1,,,,,ヒヨウ,0
1216,6011103015696,新規,0,2025-03-28,2025-03-28,合同会社ミシャ,,合同会社,東京都,新宿区,西新宿３丁目３番１３号西新宿水間ビル２Ｆ,,13,104,1600023,,,,,,,2025-03-28,1,,,,,ミシャ,0
1227,6011703004173,新規,0,2025-03-28,2025-03-28,合同会社ＮＴＹ企画,,合同会社,東京都,江戸川区,北小岩４丁目４番２号,,13,123,1330051,,,,,,,2025-03-28,1,,,,,エヌティワイキカク,0
1232,6012803003676,新規,0,2025-03-28,2025-03-28,合同会社アシスト,,合同会社,東京都,立川市,一番町６丁目３番地の１立川一番町東５９棟５０６号,,13,202,1900033,,,,,,,2025-03-28,1,,,,,アシスト,0
1237,6013301054006,新規,0,2025-03-28,2025-03-28,ココアンジョウ株式会社,,株式会社,東京都,豊島区,巣鴨１丁目１７番３号子野ビル４０４号室,,13,116,1700002,,,,,,,2025-03-28,1,,,,,ココアンジョウ,0
1243,6020001162030,新規,0,2025-03-28,2025-03-28,株式会社Ｋ２,,株式会社,神奈川県,横浜市港北区,新横浜３丁目１番地２ＬＡ．ＰＲＹＬＥ新横浜２１７,,14,109,2220033,,,,,,,2025-03-28,1,,,,,ケイツー,0
1248,6020003028048,新規,0,2025-03-28,2025-03-28,合同会社ＡＩＰ,,合同会社,神奈川県,川崎市高津区,溝口６丁目８－７－４０６,,14,134,2130001,,,,,,,2025-03-28,1,,,,,エーアイピー,0
1249,6020005016760,新規,0,2025-03-28,2025-03-28,医療法人三道会,,その他の設立登記法人,神奈川県,横浜市中区,尾上町２丁目１８番地１ＹＳビル２Ｆ,,14,104,2310015,,,,,,,2025-03-28,1,,,,,サンドウカイ,0
1258,6021003015795,新規,0,2025-03-28,2025-03-28,ＲＫ　ＭＯＴＯＲＳ合同会社,,合同会社,神奈川県,愛甲郡清川村,煤ヶ谷８６０番地１－１０１－Ａ号,,14,402,2430112,,,,,,,2025-03-28,1,,,,,アールケーモータース,0
1265,6030003026422,新規,0,2025-03-28,2025-03-28,Ａｍｉｇｏ　Ｇｌｏｂａｌ合同会社,,合同会社,埼玉県,坂戸市,大字厚川５４番地３ＫＩＶオフィス一本松Ａ号室,,11,239,3500242,,,,,,,2025-03-28,1,,,,,アミゴグローバル,0
1267,6040001137996,新規,0,2025-03-28,2025-03-28,株式会社ＮＯＷイノベーションリーダー,,株式会社,千葉県,茂原市,高田５５４番地７,,12,210,2994116,,,,,,,2025-03-28,1,,,,,ナウイノベーションリーダー,0
1268,6040001138045,新規,0,2025-03-28,2025-03-28,株式会社ＰＳＡ　ＩＮＣＣ,,株式会社,千葉県,市川市,行徳駅前３丁目８番７号,,12,203,2720133,,,,,,,2025-03-28,1,,,,,ピーエスエーインク,0
1272,6040003027171,新規,0,2025-03-28,2025-03-28,レオサポート合同会社,,合同会社,千葉県,千葉市若葉区,加曽利町９４４番地４６,,12,104,2640017,,,,,,,2025-03-28,1,,,,,レオサポート,0
1273,6040003027188,新規,0,2025-03-28,2025-03-28,合同会社Ｂｌｕｅ　Ｆｌｏｗｅｒ,,合同会社,千葉県,習志野市,谷津７丁目６番１１－３号,,12,216,2750026,,,,,,,2025-03-28,1,,,,,ブルーフラワー,0
1278,6050001056386,新規,0,2025-03-28,2025-03-28,株式会社Ｉｒｉｅ,,株式会社,茨城県,かすみがうら市,稲吉東３丁目７番１５号,,08,230,3150053,,,,,,,2025-03-28,1,,,,,アイリー,0
1279,6050001056403,新規,0,2025-03-28,2025-03-28,株式会社ライブオークション,,株式会社,茨城県,小美玉市,上玉里１１２９番地３,,08,236,3113436,,,,,,,2025-03-28,1,,,,,ライブオークション,0
1281,6050003009136,新規,0,2025-03-28,2025-03-28,おこめ合同会社,,合同会社,茨城県,常総市,東野原１７８,,08,211,3002717,,,,,,,2025-03-28,1,,,,,オコメ,0
1285,6060001038053,新規,0,2025-03-28,2025-03-28,株式会社リプレイ,,株式会社,栃木県,宇都宮市,西川田南１丁目５番４号,,09,201,3210155,,,,,,,2025-03-28,1,,,,,リプレイ,0
1288,6080401027819,新規,0,2025-03-28,2025-03-28,株式会社イワセ,,株式会社,静岡県,浜松市中央区,青屋町６２５番地の５,,22,138,4350037,,,,,,,2025-03-28,1,,,,,イワセ,0
1296,6090003002789,新規,0,2025-03-28,2025-03-28,合同会社夏希,,合同会社,山梨県,富士吉田市,上暮地２丁目５番１５号,,19,202,4030001,,,,,,,2025-03-28,1,,,,,ナツキ,0
1308,6120001273767,新規,0,2025-03-28,2025-03-28,株式会社三輪,,株式会社,大阪府,大阪市東淀川区,相川２丁目１０番１７号,,27,114,5330007,,,,,,,2025-03-28,1,,,,,ミワ,0
1309,6120001273998,新規,0,2025-03-28,2025-03-28,株式会社リンク,,株式会社,大阪府,大阪市中央区,南船場２丁目３－６第一住建長堀橋駅前ビル２Ｆ,00138488,27,128,5420081,,,,,,,2025-03-28,1,,,,,リンク,0
1310,6120001274006,新規,0,2025-03-28,2025-03-28,大阪汲古美術商会株式会社,,株式会社,大阪府,大阪市東住吉区,北田辺４丁目３番５号,,27,121,5460044,,,,,,,2025-03-28,1,,,,,オオサカキュウコビジュツショウカイ,0
1311,6120001274055,新規,0,2025-03-28,2025-03-28,磊信株式会社,,株式会社,大阪府,大阪市住之江区,西加賀屋４丁目７－２３ベルコモンズ西加賀屋３０１号,,27,125,5590016,,,,,,,2025-03-28,1,,,,,ライシン,0
1314,6120003028954,新規,0,2025-03-28,2025-03-28,シマヅメディカル合同会社,,合同会社,大阪府,大阪市中央区,南船場１丁目１８番２４号９０２号室,,27,128,5420081,,,,,,,2025-03-28,1,,,,,シマヅメディカル,0
1315,6120003028962,新規,0,2025-03-28,2025-03-28,合同会社ＳＵＭＩＲＥ,,合同会社,大阪府,大阪市大正区,鶴町１丁目７番１０号,,27,108,5510023,,,,,,,2025-03-28,1,,,,,スミレ,0
1319,6120101071336,新規,0,2025-03-28,2025-03-28,株式会社ｍｏｎｏｍｏｎｏ,,株式会社,大阪府,岸和田市,尾生町５丁目２番４５号,,27,202,5960816,,,,,,,2025-03-28,1,,,,,モノモノ,0
1320,6120103006348,新規,0,2025-03-28,2025-03-28,出町柳ソフトウェアセーフティ合同会社,,合同会社,大阪府,堺市南区,槇塚台２丁３２番３号,,27,145,5900114,,,,,,,2025-03-28,1,,,,,デマチヤナギソフトウェアセーフティ,0
1324,6122003003152,新規,0,2025-03-28,2025-03-28,合同会社ＨＯＰＥ,,合同会社,大阪府,八尾市,南木の本８丁目１３５番地の３,,27,212,5810042,,,,,,,2025-03-28,1,,,,,ホープ,0
1327,6140001137920,新規,0,2025-03-28,2025-03-28,株式会社ｐｏｎｔｅｎ,,株式会社,兵庫県,神戸市長田区,海運町８丁目４番８号,,28,106,6530052,,,,,,,2025-03-28,1,,,,,ポンテン,0
1328,6170001018523,新規,0,2025-03-28,2025-03-28,長治商事株式会社,,株式会社,和歌山県,伊都郡かつらぎ町,大字窪字西前３７１番,,30,341,6497164,,,,,,,2025-03-28,1,,,,,チョウジショウジ,0
1330,6170005007142,新規,0,2025-03-28,2025-03-28,一般社団法人和歌山終活相談窓口,,その他の設立登記法人,和歌山県,和歌山市,八番丁９パーク県信ビル,,30,201,6408157,,,,,,,2025-03-28,1,,,,,ワカヤマシュウカツソウダンマドグチ,0
1334,6180003028214,新規,0,2025-03-28,2025-03-28,合同会社Ｈｅａｒｔ　Ｂｒｉｄｇｅ,,合同会社,愛知県,名古屋市緑区,桶狭間神明４０１６番地,,23,114,4580919,,,,,,,2025-03-28,1,,,,,ハートブリッジ,0
1335,6180003028222,新規,0,2025-03-28,2025-03-28,Ｔａｇａｍｉｘ合同会社,,合同会社,愛知県,名古屋市名東区,よもぎ台２丁目１１１２団ヨモギＤ棟,,23,115,4650091,,,,,,,2025-03-28,1,,,,,タガミックス,0
1336,6180005020994,新規,0,2025-03-28,2025-03-28,一般社団法人身体障がい美容セラピスト協会,,その他の設立登記法人,愛知県,名古屋市中村区,名駅４丁目２４番５号第２森ビル４０１,,23,105,4500002,,,,,,,2025-03-28,1,,,,,シンタイショウガイビヨウセラピストキョウカイ,0
1337,6180005021010,新規,0,2025-03-28,2025-03-28,さかもと社会保険労務士法人,,その他の設立登記法人,愛知県,名古屋市名東区,望が丘３１５番地の２,,23,115,4650046,,,,,,,2025-03-28,1,,,,,サカモト,0
1339,6200001043567,新規,0,2025-03-28,2025-03-28,株式会社Ｒｅスタート,,株式会社,岐阜県,多治見市,昭栄町３０番地の１２９,,21,204,5070076,,,,,,,2025-03-28,1,,,,,リスタート,0
1340,6210001020111,新規,0,2025-03-28,2025-03-28,株式会社アフロディテ,,株式会社,福井県,福井市,和田東１丁目２１０４番地,,18,201,9188237,,,,,,,2025-03-28,1,,,,,アフロディテ,0
1346,6230001020803,新規,0,2025-03-28,2025-03-28,株式会社吉田サラダ,,株式会社,富山県,氷見市,比美町３番１２号,,16,205,9350012,,,,,,,2025-03-28,1,,,,,ヨシダサラダ,0
1352,6260003005106,新規,0,2025-03-28,2025-03-28,合同会社北都,,合同会社,岡山県,岡山市北区,芳賀２８８９番地３,,33,101,7011221,,,,,,,2025-03-28,1,,,,,,0
1357,6290001109434,新規,0,2025-03-28,2025-03-28,株式会社ＨＹ・Ｘ‐ＺＥＵＳ,,株式会社,福岡県,飯塚市,相田２０３番地２０,,40,205,8200052,,,,,,,2025-03-28,1,,,,,エイチワイエグゼウス,0
1358,6290003016604,新規,0,2025-03-28,2025-03-28,合同会社ベアソムとナギ,,合同会社,福岡県,柳川市,上宮永町２６４－３０,,40,207,8320058,,,,,,,2025-03-28,1,,,,,ベアソムトナギ,0
1359,6290003016612,新規,0,2025-03-28,2025-03-28,合同会社ｎｕｍｂｅｒ,,合同会社,福岡県,久留米市,東櫛原町４２－３マンションＲ４０１,00138493,40,203,8300003,,,,,,,2025-03-28,1,,,,,ナンバー,0
1364,6290803005005,新規,0,2025-03-28,2025-03-28,ＧＯＡＬ合同会社,,合同会社,福岡県,田川市,大字弓削田３２６－４ベーシックＧ　Ｇ号室,,40,206,8260041,,,,,,,2025-03-28,1,,,,,ゴール,0
1365,6300003002255,新規,0,2025-03-28,2025-03-28,合同会社美創ａｌｌｉａｎｃｅ,,合同会社,佐賀県,小城市,小城町晴気２３７０－１３,,41,208,8450014,,,,,,,2025-03-28,1,,,,,ビソウアライアンス,0
1367,6320001021008,新規,0,2025-03-28,2025-03-28,株式会社べっぷまちカンパニー,,株式会社,大分県,別府市,田の湯町３番７号アライアンスタワーＺ４階,,44,202,8740909,,,,,,,2025-03-28,1,,,,,,0
1368,6330001033010,新規,0,2025-03-28,2025-03-28,株式会社あしながおじさん不動産,,株式会社,熊本県,熊本市北区,八景水谷３丁目５番１７号,,43,105,8618064,,,,,,,2025-03-28,1,,,,,アシナガオジサンフドウサン,0
1376,6360001034971,新規,0,2025-03-28,2025-03-28,株式会社スプロート,,株式会社,沖縄県,島尻郡八重瀬町,字港川１０８番地２,,47,362,9010511,,,,,,,2025-03-28,1,,,,,スプロート,0
1394,6390003002362,新規,0,2025-03-28,2025-03-28,合同会社覚右ｅ門ふぁーむ,,合同会社,山形県,東置賜郡川西町,大字吉田４８２番地,,06,382,9990214,,,,,,,2025-03-28,1,,,,,カクエモンファーム,0
1397,6410003004067,新規,0,2025-03-28,2025-03-28,合同会社オンザロード,,合同会社,秋田県,横手市,十文字町字大道東２０番地６,,05,203,0190527,,,,,,,2025-03-28,1,,,,,オンザロード,0
1401,6430001094026,新規,0,2025-03-28,2025-03-28,株式会社Ｗａｔｔ’ｓイベントシステム,,株式会社,北海道,札幌市豊平区,月寒中央通９丁目１番１０－１１０２号,,01,105,0620020,,,,,,,2025-03-28,1,,,,,ワッツイベントシステム,0
1402,6430003017439,新規,0,2025-03-28,2025-03-28,合同会社インシストベース,,合同会社,北海道,札幌市東区,北三十三条東１３丁目２番６－１０３号,,01,103,0650033,,,,,,,2025-03-28,1,,,,,インシストベース,0
1403,6430003017447,新規,0,2025-03-28,2025-03-28,合同会社ＷＥＺＥＮ,,合同会社,北海道,札幌市東区,中沼西二条１丁目１０番１５号,,01,103,0070892,,,,,,,2025-03-28,1,,,,,ウェズン,0
1404,6430005015192,新規,0,2025-03-28,2025-03-28,医療法人社団にひら歯科医院,,その他の設立登記法人,北海道,札幌市白石区,本通１１丁目南７－５セルシオ１１　１Ｆ,,01,104,0030026,,,,,,,2025-03-28,1,,,,,ニヒラシカイイン,0
1419,6700150129760,新規,0,2025-03-28,2025-03-28,ｊｉａｘｉｎｇ　ＫＵＰＯ　Ｔｒａｄｉｎｇ　ＣＯ．，Ｌｔｄ．,,外国会社等,,,,,,,,浙江省嘉興市南湖区東柵街道富潤路３００号４７０室,,,,,,2025-03-28,1,,,,,カコウコクハシヨウボウユウゲンコウシ,0
1433,7010001253465,新規,0,2025-03-28,2025-03-28,ＪＰＶ第２５号株式会社,,株式会社,東京都,千代田区,霞が関３丁目２番１号,,13,101,1000013,,,,,,,2025-03-28,1,,,,,ジェイピーブイダイニジュウゴゴウ,0
1434,7010001253473,新規,0,2025-03-28,2025-03-28,ＪＰＶ第３３号株式会社,,株式会社,東京都,千代田区,霞が関３丁目２番１号,,13,101,1000013,,,,,,,2025-03-28,1,,,,,ジェイピーブイダイサンジュウサンゴウ,0
1435,7010001253481,新規,0,2025-03-28,2025-03-28,ＪＰＡ第３３２号株式会社,,株式会社,東京都,千代田区,霞が関３丁目２番１号,,13,101,1000013,,,,,,,2025-03-28,1,,,,,ジェイピーエーダイサンビャクサンジュウニゴウ,0
1436,7010001253580,新規,0,2025-03-28,2025-03-28,ＳＭＣ０２０１株式会社,,株式会社,東京都,千代田区,丸の内１丁目１番２号,,13,101,1000005,,,,,,,2025-03-28,1,,,,,エスエムシーゼロニゼロイチ,0
1438,7010003046850,新規,0,2025-03-28,2025-03-28,合同会社ＨＵＢＥＸ秋葉原,,合同会社,東京都,千代田区,丸の内１丁目４番１号東京共同会計事務所内,,13,101,1000005,,,,,,,2025-03-28,1,,,,,ハベックスアキハバラ,0
1439,7010003046883,新規,0,2025-03-28,2025-03-28,Ｅｌｅｖｅｎ　Ｌａｂｓ　Ｊａｐａｎ合同会社,,合同会社,東京都,千代田区,丸の内１丁目６番５号,,13,101,1000005,,,,,,,2025-03-28,1,,,,,イレブンラボジャパン,0
1443,7010005039811,新規,0,2025-03-28,2025-03-28,一般社団法人日本役員アカデミー,,その他の設立登記法人,東京都,千代田区,大手町１丁目５番１号大手町ファーストスクエアイーストタワー４階,,13,101,1000004,,,,,,,2025-03-28,1,,,,,ニホンヤクインアカデミー,0
1447,7010403034703,新規,0,2025-03-28,2025-03-28,合同会社ボルステン,,合同会社,東京都,港区,南青山３丁目１番３６号青山丸竹ビル６Ｆ,,13,103,1070062,,,,,,,2025-03-28,1,,,,,ボルステン,0
1449,7010501053860,新規,0,2025-03-28,2025-03-28,株式会社ＢＯＮＤＳ,,株式会社,東京都,台東区,上野３丁目１４番２号ＵＥＮＯＹＯＵＲ２ｎｄ,,13,106,1100005,,,,,,,2025-03-28,1,,,,,ボンズ,0
1452,7010701047464,新規,0,2025-03-28,2025-03-28,Ｌａｍｐｓ　Ｐｉｘｅｌ株式会社,,株式会社,東京都,品川区,西品川１丁目１－１住友不動産大崎ガーデンタワー９階,,13,109,1410033,,,,,,,2025-03-28,1,,,,,ランプスピクセル,0
1454,7010901057081,新規,0,2025-03-28,2025-03-28,株式会社Ｒ,,株式会社,東京都,世田谷区,上馬２丁目３３番１号Ａスペース３０２,,13,112,1540011,,,,,,,2025-03-28,1,,,,,アール,0
1458,7011001166839,新規,0,2025-03-28,2025-03-28,フェリックステクノロジー株式会社,,株式会社,東京都,渋谷区,神宮前５丁目４６番１６号５階,,13,113,1500001,,,,,,,2025-03-28,1,,,,,フェリックステクノロジー,0
1459,7011001168422,新規,0,2025-03-28,2025-03-28,株式会社ソアー・マーケティング,,株式会社,東京都,渋谷区,渋谷２丁目１９－１５宮益坂ビルディング６０９,,13,113,1500002,,,,,,,2025-03-28,1,,,,,ソアーマーケティング,0
1460,7011001168463,新規,0,2025-03-28,2025-03-28,株式会社ｋｏｒｏｂｙｔｅ,,株式会社,東京都,渋谷区,道玄坂１丁目１０番８号渋谷道玄坂東急ビル２Ｆ－Ｃ,,13,113,1500043,,,,,,,2025-03-28,1,,,,,コロバイト,0
1461,7011001168488,新規,0,2025-03-28,2025-03-28,株式会社ＮＥＫＵＲＡ,,株式会社,東京都,渋谷区,道玄坂１丁目１０番８号渋谷道玄坂東急ビル２Ｆ－Ｃ,,13,113,1500043,,,,,,,2025-03-28,1,,,,,ネクラ,0
1471,7011101111100,新規,0,2025-03-28,2025-03-28,サン・グロウ株式会社,,株式会社,東京都,新宿区,西落合２丁目７番２２号,,13,104,1610031,,,,,,,2025-03-28,1,,,,,サングロウ,0
1472,7011101111109,新規,0,2025-03-28,2025-03-28,シルバートーン・アライアンス株式会社,,株式会社,東京都,新宿区,高田馬場４丁目４番２３－５０２号室,,13,104,1690075,,,,,,,2025-03-28,1,,,,,シルバートーンアライアンス,0
1473,7011101111133,新規,0,2025-03-28,2025-03-28,株式会社ｔｅｎｔｏ　ｓｔｒａｔｅｇｙ＆ｍａｎａｇｅｍｅｎｔ,,株式会社,東京都,新宿区,納戸町３８番地３,,13,104,1620837,,,,,,,2025-03-28,1,,,,,テントストラテジーアンドマネジメント,0
1485,7011801045861,新規,0,2025-03-28,2025-03-28,株式会社ＡＩＭＳ,,株式会社,東京都,葛飾区,お花茶屋３丁目３番１２号,,13,122,1240003,,,,,,,2025-03-28,1,,,,,エイムス,0
1489,7012403007044,新規,0,2025-03-28,2025-03-28,合同会社ヤンズ,,合同会社,東京都,多摩市,豊ヶ丘１丁目５３番地１－３０２,,13,224,2060031,,,,,,,2025-03-28,1,,,,,ヤンズ,0
1497,7020001162005,新規,0,2025-03-28,2025-03-28,株式会社プランターンエー,,株式会社,神奈川県,横浜市神奈川区,鶴屋町１丁目４１番地ＴＨＥＹＯＫＯＨＡＭＡＦＲＯＮＴ４２階,,14,102,2210835,,,,,,,2025-03-28,1,,,,,プランターンエー,0
1500,7021001084800,新規,0,2025-03-28,2025-03-28,株式会社ＧＳ２,,株式会社,神奈川県,相模原市南区,相模大野３丁目１５番２０号ロックス相模大野Ａ５０５,,14,153,2520303,,,,,,,2025-03-28,1,,,,,ジーエスツー,0
1501,7021001084817,新規,0,2025-03-28,2025-03-28,株式会社セーフティテクノ,,株式会社,神奈川県,相模原市南区,上鶴間本町５丁目１７番２１号,,14,153,2520318,,,,,,,2025-03-28,1,,,,,セーフティテクノ,0
1502,7021001084825,新規,0,2025-03-28,2025-03-28,Ａｒｃｅｓｔ株式会社,,株式会社,神奈川県,相模原市中央区,矢部１丁目１番１７－７０３号,,14,152,2520232,,,,,,,2025-03-28,1,,,,,アーセスト,0
1506,7030003026347,新規,0,2025-03-28,2025-03-28,合同会社三一五,,合同会社,埼玉県,春日部市,大場１４８７番地８,,11,214,3440021,,,,,,,2025-03-28,1,,,,,,0
1513,7040003027195,新規,0,2025-03-28,2025-03-28,ＨＩＪ合同会社,,合同会社,千葉県,市川市,菅野４丁目９番３号,,12,203,2720824,,,,,,,2025-03-28,1,,,,,エイチアイジェイ,0
1517,7050003009135,新規,0,2025-03-28,2025-03-28,Ｓａｋｕｒａ　Ｃｅｙｌｏｎ　Ｅｎｔｅｒｐｒｉｓｅｓ合同会社,,合同会社,茨城県,潮来市,日の出７丁目２番地３０,,08,223,3112423,,,,,,,2025-03-28,1,,,,,サクラセイロンエンタープライズ,0
1518,7050003009143,新規,0,2025-03-28,2025-03-28,ミライモータース合同会社,,合同会社,茨城県,石岡市,大砂１０２０９番地３５,,08,205,3150009,,,,,,,2025-03-28,1,,,,,ミライモータース,0
1520,7060003005488,新規,0,2025-03-28,2025-03-28,安全オート合同会社,,合同会社,栃木県,真岡市,熊倉３丁目３８番地５ホワイトヒルズＢ２０３号室,,09,209,3214369,,,,,,,2025-03-28,1,,,,,アンゼンオート,0
1524,7080001026831,新規,0,2025-03-28,2025-03-28,池田八株式会社,,株式会社,静岡県,静岡市葵区,上足洗１丁目７番２４－９号,,22,101,4200841,,,,,,,2025-03-28,1,,,,,イケダヤ,0
1526,7090003002788,新規,0,2025-03-28,2025-03-28,合同会社ＬＩＧ,,合同会社,山梨県,甲府市,貢川本町５番１０号,,19,201,4000048,,,,,,,2025-03-28,1,,,,,リグ,0
1530,7100003008057,新規,0,2025-03-28,2025-03-28,合同会社Ｎａｎａｌａ,,合同会社,長野県,長野市,三本柳東３丁目９３－１,,20,201,3812245,,,,,,,2025-03-28,1,,,,,ナナラ,0
1533,7110005017204,新規,0,2025-03-28,2025-03-28,特定非営利活動法人めぐる学園,,その他の設立登記法人,新潟県,村上市,二之町１３番９号,,15,212,9580835,,,,,,,2025-03-28,1,,,,,メグルガクエン,0
1544,7120001274021,新規,0,2025-03-28,2025-03-28,株式会社Ｏ‐ｒｉｓｅ,,株式会社,大阪府,大阪市東淀川区,東中島２丁目８番６号新大阪駅前ビル８０１号室,,27,114,5330033,,,,,,,2025-03-28,1,,,,,オーライズ,0
1545,7120001274046,新規,0,2025-03-28,2025-03-28,天府株式会社,,株式会社,大阪府,大阪市淀川区,十三本町１丁目１８－７－２０２号室,,27,123,5320024,,,,,,,2025-03-28,1,,,,,テンフ,0
1546,7120001274054,新規,0,2025-03-28,2025-03-28,株式会社エヴォファスト,,株式会社,大阪府,大阪市北区,梅田１丁目２番２号大阪駅前第２ビル１２－１２,,27,127,5300001,,,,,,,2025-03-28,1,,,,,エヴォファスト,0
1550,7120003028961,新規,0,2025-03-28,2025-03-28,Ｂｕｄｄｈａ’ｓ合同会社,,合同会社,大阪府,大阪市住吉区,苅田５丁目７番２３－３０３号,,27,120,5580011,,,,,,,2025-03-28,1,,,,,ブッダズ,0
1551,7120003028986,新規,0,2025-03-28,2025-03-28,龍豊合同会社,,合同会社,大阪府,大阪市北区,梅田１丁目２番２号大阪駅前第２ビル１２‐１２,,27,127,5300001,,,,,,,2025-03-28,1,,,,,リュウホウ,0
1554,7120101071335,新規,0,2025-03-28,2025-03-28,株式会社ｅｓ‐Ｃｏａｃｈ,,株式会社,大阪府,堺市堺区,三国ヶ丘御幸通１０－１三幸ビル５Ｆ－０２,,27,141,5900028,,,,,,,2025-03-28,1,,,,,エスコーチ,0
1559,7120103006355,新規,0,2025-03-28,2025-03-28,合同会社楽園,,合同会社,大阪府,堺市東区,日置荘西町７丁１２番－１２－２０２号,,27,143,5998114,,,,,,,2025-03-28,1,,,,,ラクエン,0
1561,7120901050629,新規,0,2025-03-28,2025-03-28,株式会社弥樹,,株式会社,大阪府,豊中市,服部元町２丁目２番１９号東星ビル２階西,,27,203,5610851,,,,,,,2025-03-28,1,,,,,ミキ,0
1563,7122001039016,新規,0,2025-03-28,2025-03-28,ＫＡＮＡコーポレーション株式会社,,株式会社,大阪府,大東市,氷野１丁目１１番２３号,,27,218,5740062,,,,,,,2025-03-28,1,,,,,カナコーポレーション,0
1570,7130003010308,新規,0,2025-03-28,2025-03-28,合同会社山科総合,,合同会社,京都府,京都市山科区,竹鼻竹ノ街道町１０番地山科セントラルビル４階,,26,110,6078080,,,,,,,2025-03-28,1,,,,,ヤマシナソウゴウ,0
1582,7140001137861,新規,0,2025-03-28,2025-03-28,マスタークリエイション株式会社,,株式会社,兵庫県,神戸市西区,学園西町７丁目３番地７０３－２０２号,,28,111,6512103,,,,,,,2025-03-28,1,,,,,マスタークリエイション,0
1590,7180001166072,新規,0,2025-03-28,2025-03-28,株式会社ジャパンオート,,株式会社,愛知県,春日井市,四ツ家町字四ツ家２５７番地３,,23,206,4860909,,,,,,,2025-03-28,1,,,,,ジャパンオート,0
1594,7180003028221,新規,0,2025-03-28,2025-03-28,合同会社帝国グループ,,合同会社,愛知県,名古屋市中区,栄３丁目１０番地１１号サントウビル５Ｆ,,23,106,4600008,,,,,,,2025-03-28,1,,,,,テイコクグループ,0
1596,7180303006513,新規,0,2025-03-28,2025-03-28,合同会社ｍａ　ｃｈｅｒｉｅ,,合同会社,愛知県,安城市,住吉町１丁目３番地１１ビアンコネロ２０２号室,,23,212,4460072,,,,,,,2025-03-28,1,,,,,マシェリ,0
1599,7190003004980,新規,0,2025-03-28,2025-03-28,合同会社東山情報企画,,合同会社,三重県,松阪市,田原町１８９番地２５,,24,204,5150032,,,,,,,2025-03-28,1,,,,,ヒガシヤマジョウホウキカク,0
1609,7280001009386,新規,0,2025-03-28,2025-03-28,株式会社宏美,,株式会社,島根県,松江市,嫁島町１５番１７号,,32,201,6900047,,,,,,,2025-03-28,1,,,,,コウミ,0
1617,7290001109466,新規,0,2025-03-28,2025-03-28,株式会社ＰＥＡＣＥ　ＧＲＯＵＰ,,株式会社,福岡県,福岡市博多区,博多駅東１丁目１７番２１号,,40,132,8120013,,,,,,,2025-03-28,1,,,,,ピースグループ,0
1618,7290001109474,新規,0,2025-03-28,2025-03-28,株式会社Ａｓｕｍ,,株式会社,福岡県,福岡市博多区,東月隈３丁目１８番３号,,40,132,8120854,,,,,,,2025-03-28,1,,,,,アスム,0
1620,7290003016603,新規,0,2025-03-28,2025-03-28,合同会社あいわ,,合同会社,福岡県,筑後市,大字山ノ井２０３番地２コスモ筑後８０７号,,40,211,8330031,,,,,,,2025-03-28,1,,,,,アイワ,0
1627,7320001021007,新規,0,2025-03-28,2025-03-28,株式会社ＮＡＲＡ,,株式会社,大分県,日田市,田島２丁目１０番１６号,,44,204,8770025,,,,,,,2025-03-28,1,,,,,エヌエーアールエー,0
1631,7350001019452,新規,0,2025-03-28,2025-03-28,株式会社エクセル宮崎,,株式会社,宮崎県,都城市,菓子野町１０３９８番地８,,45,202,8850111,,,,,,,2025-03-28,1,,,,,エクセルミヤザキ,0
1642,7380003006000,新規,0,2025-03-28,2025-03-28,アップライズ合同会社,,合同会社,福島県,いわき市,小川町柴原字永久保６４番地の１,,07,204,9793111,,,,,,,2025-03-28,1,,,,,アップライズ,0
1660,7430001094025,新規,0,2025-03-28,2025-03-28,株式会社ノットアテロワール,,株式会社,北海道,余市郡余市町,登町１８２４番地,,01,408,0460002,,,,,,,2025-03-28,1,,,,,ノットアテロワール,0
1665,7450003002628,新規,0,2025-03-28,2025-03-28,晶月商店合同会社,,合同会社,北海道,増毛郡増毛町,永寿町１丁目５番地,,01,481,0770201,,,,,,,2025-03-28,1,,,,,アヅキショウテン,0
1667,7470001020646,新規,0,2025-03-28,2025-03-28,株式会社エム企画,,株式会社,香川県,高松市,木太町４３２９番地５,,37,201,7600080,,,,,,,2025-03-28,1,,,,,エムキカク,0
1669,7470003002832,新規,0,2025-03-28,2025-03-28,ＡＳＴＲＯ　ＤＡＯ合同会社,,合同会社,香川県,高松市,上福岡町７０９番地４,,37,201,7600077,,,,,,,2025-03-28,1,,,,,,0
1682,8010001253464,新規,0,2025-03-28,2025-03-28,ＪＰＶ第２４号株式会社,,株式会社,東京都,千代田区,霞が関３丁目２番１号,,13,101,1000013,,,,,,,2025-03-28,1,,,,,ジェイピーブイダイニジュウヨンゴウ,0
1683,8010001253472,新規,0,2025-03-28,2025-03-28,ＪＰＶ第３２号株式会社,,株式会社,東京都,千代田区,霞が関３丁目２番１号,,13,101,1000013,,,,,,,2025-03-28,1,,,,,ジェイピーブイダイサンジュウニゴウ,0
1684,8010001253480,新規,0,2025-03-28,2025-03-28,ＪＰＡ第３３１号株式会社,,株式会社,東京都,千代田区,霞が関３丁目２番１号,,13,101,1000013,,,,,,,2025-03-28,1,,,,,ジェイピーエーダイサンビャクサンジュウイチゴウ,0
1685,8010001253489,新規,0,2025-03-28,2025-03-28,ＪＰＡ第３４０号株式会社,,株式会社,東京都,千代田区,霞が関３丁目２番１号,,13,101,1000013,,,,,,,2025-03-28,1,,,,,ジェイピーエーダイサンビャクヨンジュウゴウ,0
1690,8010005039810,新規,0,2025-03-28,2025-03-28,一般社団法人遊々会,,その他の設立登記法人,東京都,千代田区,神田佐久間町２丁目１８番地１秋葉原ＳＴＮフロント１１階,,13,101,1010025,,,,,,,2025-03-28,1,,,,,ユウユウカイ,0
1691,8010005039819,新規,0,2025-03-28,2025-03-28,ＴＯＫ１Ｆ特定目的会社,,その他の設立登記法人,東京都,千代田区,丸の内１丁目４番１号東京共同会計事務所内,,13,101,1000005,,,,,,,2025-03-28,1,,,,,トックワンエフ,0
1698,8010403034644,新規,0,2025-03-28,2025-03-28,Ｔｉｍｂｅｒ　Ｂａｓｅ合同会社,,合同会社,東京都,港区,麻布十番２丁目７－５カスタリア１００１,,13,103,1060045,,,,,,,2025-03-28,1,,,,,ティンバーベース,0
1699,8010403034743,新規,0,2025-03-28,2025-03-28,ＲＩＸ合同会社,,合同会社,東京都,港区,南青山３丁目１番３６号青山丸竹ビル６Ｆ,,13,103,1070062,,,,,,,2025-03-28,1,,,,,リックス,0
1708,8010601067033,新規,0,2025-03-28,2025-03-28,株式会社ミラレクト,,株式会社,東京都,墨田区,両国４丁目２３－５野崎ビル３Ｆ,00138485,13,107,1300026,,,,,,,2025-03-28,1,,,,,,0
1709,8010703007630,新規,0,2025-03-28,2025-03-28,Ｓｔｉｍｕｌｕｓ合同会社,,合同会社,東京都,品川区,東中延２丁目１番４－４０２号,,13,109,1420052,,,,,,,2025-03-28,1,,,,,スティミュラス,0
1714,8011001168149,新規,0,2025-03-28,2025-03-28,株式会社センティーレ,,株式会社,東京都,渋谷区,恵比寿南３丁目１番２６－２０１号,,13,113,1500022,,,,,,,2025-03-28,1,,,,,センティーレ,0
1715,8011001168355,新規,0,2025-03-28,2025-03-28,株式会社ＧＥＮＥＳＩＳ　ＯＮＥ　ＣＲＥＡＴＩＯＮ,,株式会社,東京都,渋谷区,恵比寿西２丁目４番８号ウィンド恵比寿ビル８Ｆ,,13,113,1500021,,,,,,,2025-03-28,1,,,,,ジェネシスワンクリエーション,0
1716,8011001168388,新規,0,2025-03-28,2025-03-28,株式会社ＳｏｕｎｄＢｒａｉｎ,,株式会社,東京都,渋谷区,代々木１丁目４４番４号,,13,113,1510053,,,,,,,2025-03-28,1,,,,,サウンドブレイン,0
1717,8011001168421,新規,0,2025-03-28,2025-03-28,４アウト株式会社,,株式会社,東京都,渋谷区,代々木１丁目１３番８号山野代々木ビル３階,,13,113,1510053,,,,,,,2025-03-28,1,,,,,,0
1719,8011101111090,新規,0,2025-03-28,2025-03-28,高勝国際技術株式会社,,株式会社,東京都,新宿区,百人町３丁目１６番９号,,13,104,1690073,,,,,,,2025-03-28,1,,,,,タカカツコクサイギジュツ,0
1720,8011101111132,新規,0,2025-03-28,2025-03-28,ＢＢＳ　ＴＥＣＨ　ＪＡＰＡＮ株式会社,,株式会社,東京都,新宿区,高田馬場４丁目９番１８号畔上セブンビル４階,,13,104,1690075,,,,,,,2025-03-28,1,,,,,ビービーエステックジャパン,0
1721,8011101111140,新規,0,2025-03-28,2025-03-28,Ｅｎｅｒｇｙ　Ｔｒａｄｉｎｇ　Ｉｎｓｉｇｈｔｓ株式会社,,株式会社,東京都,新宿区,新宿２丁目９番２２号３階,,13,104,1600022,,,,,,,2025-03-28,1,,,,,エナジートレーディングインサイツ,0
1729,8011401026930,新規,0,2025-03-28,2025-03-28,株式会社ＭＨＫ　Ｓｙｓｔｅｍｓ,,株式会社,東京都,板橋区,仲宿６３番７号,,13,119,1730005,,,,,,,2025-03-28,1,,,,,エムエイチケイシステムズ,0
1731,8011501031863,新規,0,2025-03-28,2025-03-28,旅とノンクロン株式会社,,株式会社,東京都,荒川区,町屋４丁目６－１１,,13,118,1160001,,,,,,,2025-03-28,1,,,,,タビトノンクロン,0
1735,8012401042926,新規,0,2025-03-28,2025-03-28,株式会社ｄｒｏｐ,,株式会社,東京都,武蔵野市,境南町３丁目１８－３－２０１,,13,203,1800023,,,,,,,2025-03-28,1,,,,,ドロップ,0
1737,8013103001427,新規,0,2025-03-28,2025-03-28,合同会社たま,,合同会社,東京都,あきる野市,小川東２丁目８－３８,,13,228,1970822,,,,,,,2025-03-28,1,,,,,タマ,0
1738,8020001161988,新規,0,2025-03-28,2025-03-28,株式会社日進メディカルカンパニー,,株式会社,神奈川県,横浜市泉区,緑園６丁目９番地１７,,14,116,2450002,,,,,,,2025-03-28,1,,,,,ニッシンメディカルカンパニー,0
1739,8020001162004,新規,0,2025-03-28,2025-03-28,株式会社ＧＡＯＧＡＯ,,株式会社,神奈川県,横浜市旭区,今宿南町１８１５番地３３,,14,112,2410034,,,,,,,2025-03-28,1,,,,,ガオガオ,0
1740,8020001162012,新規,0,2025-03-28,2025-03-28,株式会社ハウジングスローンズ,,株式会社,神奈川県,横浜市緑区,三保町２１５７番地３,,14,113,2260015,,,,,,,2025-03-28,1,,,,,ハウジングスローンズ,0
1741,8020001162029,新規,0,2025-03-28,2025-03-28,株式会社Ｍ４,,株式会社,神奈川県,川崎市高津区,子母口１５１番地１８,,14,134,2130023,,,,,,,2025-03-28,1,,,,,エムフォー,0
1753,8030003026412,新規,0,2025-03-28,2025-03-28,Ｋ＆Ｔ　Ｎｅｘｉｓ合同会社,,合同会社,埼玉県,鶴ヶ島市,松ヶ丘２丁目１６番２０号,,11,241,3502205,,,,,,,2025-03-28,1,,,,,ケイアンドティーネクシス,0
1754,8030005022095,新規,0,2025-03-28,2025-03-28,医療法人千恵雅会,,その他の設立登記法人,埼玉県,さいたま市北区,宮原町４丁目１３４番地２４,,11,102,3310812,,,,,,,2025-03-28,1,,,,,センケイガカイ,0
1763,8040001138019,新規,0,2025-03-28,2025-03-28,ＩＮＳＰＩＲＥ株式会社,,株式会社,千葉県,流山市,大字小屋８４４番地,,12,220,2700118,,,,,,,2025-03-28,1,,,,,インスパイア,0
1765,8040003027194,新規,0,2025-03-28,2025-03-28,合同会社Ｍｉｌｌｉｏｎｓ,,合同会社,千葉県,柏市,柏３丁目９－２０エクセラ・モン・ピエース４０３,,12,217,2770005,,,,,,,2025-03-28,1,,,,,ミリオンズ,0
1767,8050001056351,新規,0,2025-03-28,2025-03-28,株式会社ＷＭ　ＴＲＡＤＩＮＧ,,株式会社,茨城県,古河市,大和田１２６０番地８,,08,204,3060111,,,,,,,2025-03-28,1,,,,,ダブリューエムトレーディング,0
1770,8050003009134,新規,0,2025-03-28,2025-03-28,６８リサイクルショップ合同会社,,合同会社,茨城県,古河市,新久田１３１番地１９,,08,204,3060044,,,,,,,2025-03-28,1,,,,,ロクジュウハチリサイクルショップ,0
1771,8050003009150,新規,0,2025-03-28,2025-03-28,合同会社ＩＦＷ,,合同会社,茨城県,久慈郡大子町,大字袋田２１４０－８,,08,364,3193523,,,,,,,2025-03-28,1,,,,,アイエフダブリュウ,0
1776,8070001042762,新規,0,2025-03-28,2025-03-28,株式会社山田工業,,株式会社,群馬県,高崎市,中居町１丁目１８番地２４,,10,202,3700852,,,,,,,2025-03-28,1,,,,,ヤマダコウギョウ,0
1780,8080001026830,新規,0,2025-03-28,2025-03-28,株式会社リバーサル,,株式会社,静岡県,静岡市葵区,沓谷４丁目９－４５,,22,101,4200816,,,,,,,2025-03-28,1,,,,,リバーサル,0
1802,8120001273988,新規,0,2025-03-28,2025-03-28,大阪方舟文化株式会社,,株式会社,大阪府,大阪市住吉区,殿辻１丁目３番２１－４０５号,00138482,27,120,5580042,,,,,,,2025-03-28,1,,,,,オオサカホウシュウブンカ,0
1803,8120001274029,新規,0,2025-03-28,2025-03-28,栄勳株式会社,00138494,株式会社,大阪府,大阪市生野区,新今里５丁目１５番１７号４階４Ｄ号室,,27,116,5440001,,,,,,,2025-03-28,1,,,,,エイクン,0
1804,8120001274037,新規,0,2025-03-28,2025-03-28,瑞和株式会社,,株式会社,大阪府,大阪市浪速区,大国２丁目８番６－１０２号,,27,111,5560014,,,,,,,2025-03-28,1,,,,,ミズワ,0
1812,8120003028837,新規,0,2025-03-28,2025-03-28,里唐合同会社,,合同会社,大阪府,大阪市西成区,萩之茶屋１丁目１２－７万葉ビル,,27,122,5570004,,,,,,,2025-03-28,1,,,,,リトウ,0
1813,8120003028960,新規,0,2025-03-28,2025-03-28,合同会社ノヴァクレスト,,合同会社,大阪府,寝屋川市,木屋町５番１６号,,27,215,5720087,,,,,,,2025-03-28,1,,,,,ノヴァクレスト,0
1814,8120003028969,新規,0,2025-03-28,2025-03-28,合同会社ＡＸＩＳ,,合同会社,大阪府,大阪市淀川区,十三東１丁目１７番２１号ウインズビル４０２号,,27,123,5320023,,,,,,,2025-03-28,1,,,,,アクシス,0
1815,8120003028985,新規,0,2025-03-28,2025-03-28,琉溢合同会社,,合同会社,大阪府,大阪市東成区,大今里南１丁目１８番７号大宝今里ロイヤルハイツ４０７号室,,27,115,5370013,,,,,,,2025-03-28,1,,,,,リュウイツ,0
1816,8120003028993,新規,0,2025-03-28,2025-03-28,合同会社トイズ,,合同会社,大阪府,大阪市北区,梅田１丁目２番２号大阪駅前第２ビル１２－１２,,27,127,5300001,,,,,,,2025-03-28,1,,,,,トイズ,0
1819,8120101071334,新規,0,2025-03-28,2025-03-28,株式会社ダイエイ興業,,株式会社,大阪府,和泉市,光明台１丁目３４番８３号,,27,219,5941111,,,,,,,2025-03-28,1,,,,,ダイエイコウギョウ,0
1821,8122001039015,新規,0,2025-03-28,2025-03-28,株式会社Ｒｅｒｉｓｅ,,株式会社,大阪府,八尾市,田井中４丁目１７番地,,27,212,5810095,,,,,,,2025-03-28,1,,,,,リライズ,0
1823,8122003003150,新規,0,2025-03-28,2025-03-28,合同会社Ａｄｖａｎｃｅ　Ｓｅｌｅｃｔ,,合同会社,大阪府,東大阪市,長田東２丁目３番２２号長田東條ビル４Ｆ,,27,227,5770012,,,,,,,2025-03-28,1,,,,,アドヴァンスセレクト,0
1835,8180001166039,新規,0,2025-03-28,2025-03-28,株式会社ＧＡＲＮＥＴ,,株式会社,愛知県,名古屋市守山区,小幡北２４０３番地,,23,113,4630008,,,,,,,2025-03-28,1,,,,,ガーネット,0
1836,8180001166055,新規,0,2025-03-28,2025-03-28,株式会社ＦＯＬＫＥ,,株式会社,愛知県,名古屋市西区,那古野１丁目１９番４号,,23,104,4510042,,,,,,,2025-03-28,1,,,,,フォルケ,0
1837,8180001166088,新規,0,2025-03-28,2025-03-28,株式会社めいげつ,,株式会社,愛知県,名古屋市中区,丸の内３丁目２２番１２号,,23,106,4600002,,,,,,,2025-03-28,1,,,,,メイゲツ,0
1839,8180003028195,新規,0,2025-03-28,2025-03-28,合同会社愛会,,合同会社,愛知県,名古屋市中村区,名駅４丁目２４番５号第２森ビル４０１,,23,105,4500002,,,,,,,2025-03-28,1,,,,,アイカイ,0
1840,8180003028212,新規,0,2025-03-28,2025-03-28,合同会社シーザの手,,合同会社,愛知県,名古屋市中川区,花塚町１丁目９０番地,,23,110,4540052,,,,,,,2025-03-28,1,,,,,シーザノテ,0
1842,8180303006512,新規,0,2025-03-28,2025-03-28,合同会社ＭＯＮＤＩＳＭ,,合同会社,愛知県,豊田市,東梅坪町１０丁目４番地９,,23,211,4710071,,,,,,,2025-03-28,1,,,,,モンディズム,0
1852,8270003001721,新規,0,2025-03-28,2025-03-28,合同会社村上工業,,合同会社,鳥取県,米子市,淀江町中間３６７番地,,31,202,6893424,,,,,,,2025-03-28,1,,,,,ムラカミコウギョウ,0
1862,8310003004975,新規,0,2025-03-28,2025-03-28,合同会社エムズワン,,合同会社,長崎県,佐世保市,瀬戸越２丁目２８‐５川口ハイツ１０１号,,42,202,8570134,,,,,,,2025-03-28,1,,,,,エムズワン,0
1865,8370003006999,新規,0,2025-03-28,2025-03-28,合同会社ＴｅａｍＣＦＴ,,合同会社,宮城県,仙台市青葉区,一番町２丁目１番７号ＨＦ一番町レジデンス１Ｆ,,04,101,9800811,,,,,,,2025-03-28,1,,,,,チームシーエフティ,0
1869,8430001094032,新規,0,2025-03-28,2025-03-28,株式会社サイレンス,,株式会社,北海道,札幌市中央区,宮の森二条１５丁目５番１－５０１号,,01,101,0640952,,,,,,,2025-03-28,1,,,,,サイレンス,0
1875,8450001014566,新規,0,2025-03-28,2025-03-28,株式会社まえのファーム,,株式会社,北海道,増毛郡増毛町,信砂５８１番地の３５,,01,481,0770133,,,,,,,2025-03-28,1,,,,,マエノファーム,0
1885,8700150129759,新規,0,2025-03-28,2025-03-28,ＳｃｉＰｌａｙ　Ｇａｍｅｓ，ＬＬＣ,,外国会社等,,,,,,,,６６０１　Ｂｅｒｍｕｄａ　Ｒｏａｄ，Ｌａｓ　Ｖｅｇａｓ　ＮＶ　８９１１９　ＵＳＡ,,,,,,2025-03-28,1,,,,,サイプレイゲームスエルエルシー,0
1890,9010001253471,新規,0,2025-03-28,2025-03-28,ＪＰＶ第３１号株式会社,,株式会社,東京都,千代田区,霞が関３丁目２番１号,,13,101,1000013,,,,,,,2025-03-28,1,,,,,ジェイピーブイダイサンジュウイチゴウ,0
1891,9010001253488,新規,0,2025-03-28,2025-03-28,ＪＰＡ第３３９号株式会社,,株式会社,東京都,千代田区,霞が関３丁目２番１号,,13,101,1000013,,,,,,,2025-03-28,1,,,,,ジェイピーエーダイサンビャクサンジュウキュウゴウ,0
1893,9010005039818,新規,0,2025-03-28,2025-03-28,ＴＯＫ１ＡＥ特定目的会社,,その他の設立登記法人,東京都,千代田区,丸の内１丁目４番１号東京共同会計事務所内,,13,101,1000005,,,,,,,2025-03-28,1,,,,,トックワンエーイー,0
1894,9010005039826,新規,0,2025-03-28,2025-03-28,マカロン特定目的会社,,その他の設立登記法人,東京都,千代田区,丸の内１丁目４番１号東京共同会計事務所内,,13,101,1000005,,,,,,,2025-03-28,1,,,,,マカロン,0
1915,9010901057071,新規,0,2025-03-28,2025-03-28,株式会社ＷＯＲＬＥＮＴ,,株式会社,東京都,世田谷区,深沢４丁目２９番５号グレイス深沢２０５,,13,112,1580081,,,,,,,2025-03-28,1,,,,,ワーレント,0
1916,9010901057088,新規,0,2025-03-28,2025-03-28,株式会社ミノルルミ,,株式会社,東京都,世田谷区,代田２丁目１３番１０号,,13,112,1550033,,,,,,,2025-03-28,1,,,,,ミノルルミ,0
1921,9011001168494,新規,0,2025-03-28,2025-03-28,株式会社ＧＡＫＥ,,株式会社,東京都,目黒区,中目黒３丁目６－２ＦＳビル６Ｆ,,13,110,1530061,,,,,,,2025-03-28,1,,,,,ガケ,0
1922,9011001168602,新規,0,2025-03-28,2025-03-28,株式会社Ｕｎｌｏｃｋ,,株式会社,東京都,渋谷区,東１丁目２６番３０号ＫＴビル３階,,13,113,1500011,,,,,,,2025-03-28,1,,,,,アンロック,0
1925,9011003021321,新規,0,2025-03-28,2025-03-28,合同会社ＯｐｅｎＤｅｖ,,合同会社,東京都,渋谷区,神南１丁目１１‐４ＦＰＧリンクス神南５階,,13,113,1500041,,,,,,,2025-03-28,1,,,,,オープンディブ,0
1936,9011101111107,新規,0,2025-03-28,2025-03-28,リッキー株式会社,,株式会社,東京都,新宿区,西落合２丁目２２番１５号２０１室,,13,104,1610031,,,,,,,2025-03-28,1,,,,,リッキー,0
1939,9011201026238,新規,0,2025-03-28,2025-03-28,石焼ビビンバ株式会社,,株式会社,東京都,中野区,弥生町２丁目１５－２４アーバハイツ中野新橋３０６,,13,114,1640013,,,,,,,2025-03-28,1,,,,,イシヤキビビンバ,0
1947,9012301014314,新規,0,2025-03-28,2025-03-28,株式会社エレクラッセ,,株式会社,東京都,町田市,西成瀬１丁目５１番４０号,,13,209,1940046,,,,,,,2025-03-28,1,,,,,,0
1952,9012803003673,新規,0,2025-03-28,2025-03-28,ＯｃｔｏＳｐｈｅｒｅ合同会社,,合同会社,東京都,東大和市,狭山１丁目９０７番地５号,,13,220,2070003,,,,,,,2025-03-28,1,,,,,オクトスフィア,0
1957,9020001161970,新規,0,2025-03-28,2025-03-28,ＧＩＶＥＳ株式会社,,株式会社,神奈川県,横浜市神奈川区,栄町５番地１横浜クリエーションスクエア１４Ｆ,,14,102,2210052,,,,,,,2025-03-28,1,,,,,ギブズ,0
1958,9020001161979,新規,0,2025-03-28,2025-03-28,株式会社Ｆｒｉｅｎｄｓ,,株式会社,神奈川県,横浜市港南区,港南１丁目４番１２号ダイアパレス上大岡第３－３０５,,14,111,2330003,,,,,,,2025-03-28,1,,,,,フレンズ,0
1959,9020001162003,新規,0,2025-03-28,2025-03-28,株式会社ノアの方舟工房,,株式会社,神奈川県,横浜市西区,浅間町１丁目４番３号ウィザードビル４０２,,14,103,2200072,,,,,,,2025-03-28,1,,,,,ノアノハコブネコウボウ,0
1963,9020003028111,新規,0,2025-03-28,2025-03-28,合同会社Ｅｉｇｈｔ,,合同会社,神奈川県,横浜市神奈川区,台町８番１４号ベイシティ滝川９０３号,,14,102,2210834,,,,,,,2025-03-28,1,,,,,エイト,0
1964,9020003028128,新規,0,2025-03-28,2025-03-28,合同会社ＣＯＲＥ,,合同会社,神奈川県,川崎市高津区,北見方１丁目２６番１６号ドゥームメルンカ２０１,,14,134,2130005,,,,,,,2025-03-28,1,,,,,コア,0
1965,9020003028136,新規,0,2025-03-28,2025-03-28,合同会社ユニバーサルヒューマンリソース,,合同会社,神奈川県,横浜市西区,平沼１丁目２１番１５号高野ビル２０２,,14,103,2200023,,,,,,,2025-03-28,1,,,,,ユニバーサルヒューマンリソース,0
1971,9040001137969,新規,0,2025-03-28,2025-03-28,株式会社ＴＲＮ,,株式会社,千葉県,千葉市美浜区,打瀬２丁目２３番地パティオス１９番街１－３０３号,,12,106,2610013,,,,,,,2025-03-28,1,,,,,ティーアールエヌ,0
1972,9040001138018,新規,0,2025-03-28,2025-03-28,エターナルアセッツ株式会社,,株式会社,千葉県,千葉市美浜区,若葉３丁目１－１９幕張ベイパーククロスタワー＆レジデンス２１０１室,,12,106,2610014,,,,,,,2025-03-28,1,,,,,エターナルアセッツ,0
1973,9040001138042,新規,0,2025-03-28,2025-03-28,株式会社ＷＩＮ‐ｗｏｒｋｅｒ．,,株式会社,千葉県,千葉市若葉区,源町２２８番地１リリスコート１０５号,,12,104,2640037,,,,,,,2025-03-28,1,,,,,ウィンワーカー,0
1978,9040003027202,新規,0,2025-03-28,2025-03-28,合同会社Ｋ　ｓｔｙｌｅ,,合同会社,千葉県,四街道市,大日３５１番地２６（クレメントＳ１０１）,,12,228,2840001,,,,,,,2025-03-28,1,,,,,ケースタイル,0
1980,9050001056400,新規,0,2025-03-28,2025-03-28,ぎん．株式会社,,株式会社,茨城県,鉾田市,汲上１８０７番地１,,08,234,3112103,,,,,,,2025-03-28,1,,,,,ギンドット,0
1981,9050003009133,新規,0,2025-03-28,2025-03-28,Ｄ．Ｖ．Ｐ合同会社,,合同会社,茨城県,稲敷市,羽賀２２６７番地１－３号棟,,08,229,3000525,,,,,,,2025-03-28,1,,,,,ディーブイピー,0
1985,9080403005233,新規,0,2025-03-28,2025-03-28,ＨＵホールディングス合同会社,,合同会社,静岡県,浜松市中央区,高丘北１丁目４８番１８号ダイヤモンド寿泉３０２,,22,138,4338119,,,,,,,2025-03-28,1,,,,,エイチユーホールディングス,0
1989,9100003008055,新規,0,2025-03-28,2025-03-28,合同会社ＹＡＭＡＧＩＳＨＩ,,合同会社,長野県,上田市,長瀬３２５４－２９,,20,203,3860407,,,,,,,2025-03-28,1,,,,,ヤマギシ,0
1999,9120001274119,新規,0,2025-03-28,2025-03-28,株式会社シーズンド,,株式会社,大阪府,大阪市西区,江之子島２丁目２番２１号,,27,106,5500006,,,,,,,2025-03-28,1,,,,,シーズンド,0
2006,9120003028927,新規,0,2025-03-28,2025-03-28,Ａｕｒｏｒａ合同会社,,合同会社,大阪府,大阪市西成区,萩之茶屋１丁目１２－７万葉ビル２２号室,,27,122,5570004,,,,,,,2025-03-28,1,,,,,アウローラ,0
2007,9120003028943,新規,0,2025-03-28,2025-03-28,ビッグフィータス合同会社,,合同会社,大阪府,大阪市西成区,北開２丁目３番２３号,,27,122,5570021,,,,,,,2025-03-28,1,,,,,ビッグフィータス,0
2008,9120003028951,新規,0,2025-03-28,2025-03-28,合同会社ヒロネクスト,,合同会社,大阪府,大阪市平野区,加美北５丁目６番５２ユニハイム平野北４０２号,,27,126,5470001,,,,,,,2025-03-28,1,,,,,ヒロネクスト,0
2009,9120003028968,新規,0,2025-03-28,2025-03-28,合同会社ＴＩＰＴＯＰ　ＭＡＲＴ,,合同会社,大阪府,大阪市西成区,長橋１丁目３番１４号,,27,122,5570025,,,,,,,2025-03-28,1,,,,,ティップトップマート,0
2010,9120003028976,新規,0,2025-03-28,2025-03-28,合同会社レッサーパンダ,,合同会社,大阪府,大阪市住吉区,我孫子２丁目１番１２号ハーベスト我孫子２Ｄ,,27,120,5580014,,,,,,,2025-03-28,1,,,,,レッサーパンダ,0
2011,9120003028984,新規,0,2025-03-28,2025-03-28,ＳＵＮＮＥＳＴ合同会社,,合同会社,大阪府,大阪市北区,梅田１丁目２番２号大阪駅前ビル１２－１２,,27,127,5300001,,,,,,,2025-03-28,1,,,,,サンネスト,0
2014,9120103006345,新規,0,2025-03-28,2025-03-28,あけぼの恒産合同会社,,合同会社,大阪府,堺市堺区,東雲西町１丁５番２３号,,27,141,5900013,,,,,,,2025-03-28,1,,,,,アケボノコウサン,0
2017,9120901050635,新規,0,2025-03-28,2025-03-28,合勝社株式会社,,株式会社,大阪府,池田市,豊島南２丁目１１番１号,,27,204,5630035,,,,,,,2025-03-28,1,,,,,ゴウショウシャ,0
2019,9122001039014,新規,0,2025-03-28,2025-03-28,株式会社オーテック,,株式会社,大阪府,東大阪市,柏田西２丁目１８番９号,,27,227,5770835,,,,,,,2025-03-28,1,,,,,オーテック,0
2023,9130003010264,新規,0,2025-03-28,2025-03-28,クスキ合同会社,,合同会社,京都府,京都市中京区,西ノ京原町９７コスモ御池通２０７,,26,104,6048431,,,,,,,2025-03-28,1,,,,,クスキ,0
2026,9140001137918,新規,0,2025-03-28,2025-03-28,ロープアクセスジャッロ株式会社,,株式会社,兵庫県,明石市,東山町２８０４番地の９３,,28,203,6730868,,,,,,,2025-03-28,1,,,,,ロープアクセスジャッロ,0
2028,9140005027421,新規,0,2025-03-28,2025-03-28,医療法人社団はる皮フ科クリニック,,その他の設立登記法人,兵庫県,明石市,大久保町ゆりのき通２丁目２－１ＡＫＡＳＡＫＡＨＩＬＬＳＢ棟２Ｆ,,28,203,6740068,,,,,,,2025-03-28,1,,,,,ハルヒフカクリニック,0
2031,9170001018537,新規,0,2025-03-28,2025-03-28,ｔ＆ｔ株式会社,,株式会社,和歌山県,和歌山市,太田５４番地１２,,30,201,6408323,,,,,,,2025-03-28,1,,,,,ティーアンドティー,0
2038,9180001166079,新規,0,2025-03-28,2025-03-28,株式会社Ｌｉｔｔｌｅ　Ｙａｎｇｏｎ,,株式会社,愛知県,海部郡蟹江町,大字須成字奥ノ坊３３９番地１,,23,425,4970031,,,,,,,2025-03-28,1,,,,,リトルヤンゴン,0
2039,9180001166087,新規,0,2025-03-28,2025-03-28,株式会社十九,,株式会社,愛知県,弥富市,鯏浦町東気開３７番地３,,23,235,4980021,,,,,,,2025-03-28,1,,,,,ジュウク,0
2041,9180003028186,新規,0,2025-03-28,2025-03-28,合同会社ＡＸＩＯＮ,,合同会社,愛知県,名古屋市東区,葵１丁目２６－１０－９１７,,23,102,4610004,,,,,,,2025-03-28,1,,,,,アクシオン,0
2047,9200001043580,新規,0,2025-03-28,2025-03-28,Ｔａｋｅ工業株式会社,,株式会社,岐阜県,岐阜市,島栄町３丁目８番地１,,21,201,5020904,,,,,,,2025-03-28,1,,,,,テイクコウギョウ,0
2049,9210003001899,新規,0,2025-03-28,2025-03-28,合同会社Ｍａｒｅｖｉ,,合同会社,福井県,小浜市,高塚１８－１４,,18,204,9170014,,,,,,,2025-03-28,1,,,,,マレビィ,0
2053,9230003002400,新規,0,2025-03-28,2025-03-28,萬和合同会社,,合同会社,富山県,富山市,五福４１７８番地１０カレッジハイツレインボー１‐５,,16,201,9300887,,,,,,,2025-03-28,1,,,,,マンワ,0
2062,9290001109448,新規,0,2025-03-28,2025-03-28,株式会社シャイニングセルフ,,株式会社,福岡県,福岡市東区,香椎照葉７丁目５番３－１４０８号,,40,131,8130017,,,,,,,2025-03-28,1,,,,,シャイニングセルフ,0
2066,9320001021021,新規,0,2025-03-28,2025-03-28,株式会社ＴＡＫＥＴＥＮ,,株式会社,大分県,大分市,新町１１番１２号磯崎ビル１Ｆ,,44,201,8700028,,,,,,,2025-03-28,1,,,,,タケテン,0
2073,9360001034969,新規,0,2025-03-28,2025-03-28,株式会社はまもと不動産,,株式会社,沖縄県,那覇市,長田１丁目８番９号２階,,47,201,9020077,,,,,,,2025-03-28,1,,,,,ハマモトフドウサン,0
2083,9400001016979,新規,0,2025-03-28,2025-03-28,株式会社山ノ民,,株式会社,岩手県,盛岡市,上田３丁目１番４号,,03,201,0200066,,,,,,,2025-03-28,1,,,,,ヤマノタミ,0
2090,9470003002847,新規,0,2025-03-28,2025-03-28,合同会社Ｂｏａ,,合同会社,香川県,丸亀市,原田町１９１８番地２サントノーレ丸亀南１０２号,,37,202,7630074,,,,,,,2025-03-28,1,,,,,,0
2091,9480001012789,新規,0,2025-03-28,2025-03-28,アシスト・ホールディングス株式会社,,株式会社,徳島県,徳島市,北沖洲３丁目１０番１１－６号,,36,201,7700872,,,,,,,2025-03-28,1,,,,,アシストホールディングス,0
2097,9700150129758,新規,0,2025-03-28,2025-03-28,ＨＶ　Ｐｅｒｔｈ　ＬＬＣ,,外国会社等,,,,,,,,１２０９　Ｏｒａｎｇｅ　Ｓｔｒｅｅｔ　Ｗｉｌｍｉｎｇｔｏｎ，Ｎｅｗ　Ｃａｓｔｌｅ　Ｃｏｕｎｔｙ，ＤＥ　１９８０１　Ｕｎｉｔｅｄ　Ｓｔａｔｅｓ,,,,,,2025-03-28,1,,,,,エイチブイパースエルエルシー,0
