sequenceNumber,corporateNumber,process,correct,updateDate,changeDate,name,nameImageId,kind,prefectureName,cityName,streetNumber,addressImageId,prefectureCode,cityCode,postCode,addressOutside,addressOutsideImageId,closeDate,closeCause,successorCorporateNumber,changeCause,assignmentDate,latest,enName,enPrefectureName,enCityName,enAddressOutside,furigana,hihyoji
1,1010001002043,登記記録の閉鎖等,0,2022-06-10,2022-06-02,株式会社キタ・プリンティング,,株式会社,東京都,文京区,本郷２丁目１５番１２号,,13,105,1130033,,,2022-06-02,合併による解散等,2010001002042,令和４年５月３１日東京都文京区本郷二丁目１５番１２号株式会社キタ・メディア（2010001002042）に合併し解散,2015-10-05,1,,,,,キタプリンティング,0
26,1010605000731,登記記録の閉鎖等,0,2022-06-10,2022-05-20,東京東部たばこ商業協同組合,,その他の設立登記法人,東京都,墨田区,横川２丁目１２番５号,,13,107,1300003,,,2022-05-20,合併による解散等,5010805000404,令和４年３月１日東京都大田区大森西二丁目２番１０号大田たばこ商業協同組合（5010805000404）に合併し解散,2015-10-05,1,,,,,トウキョウトウブタバコショウギョウ,0
34,1010901010566,登記記録の閉鎖等,0,2022-06-10,2022-06-01,株式会社フジエンタープライズ,,株式会社,東京都,世田谷区,上馬３丁目１８番７号,,13,112,1540011,,,2022-06-01,合併による解散等,2010901018187,令和４年６月１日東京都世田谷区三軒茶屋二丁目２番１６号ＹＫビル３階株式会社イマックス（2010901018187）に合併し解散,2015-10-05,1,,,,,フジエンタープライズ,0
36,1011001068644,登記記録の閉鎖等,0,2022-06-10,2022-05-27,株式会社ＢＭＣ,,株式会社,東京都,渋谷区,道玄坂１丁目１６番５号,,13,113,1500043,,,2022-05-27,清算の結了等,,,2015-10-05,1,,,,,ビーエムシー,0
72,1013401001770,登記記録の閉鎖等,0,2022-06-10,2022-06-06,遠藤精機株式会社,,株式会社,東京都,稲城市,矢野口１７７３番地の１,,13,225,2060812,,,2022-06-06,清算の結了等,,,2015-10-05,1,,,,,エンドウセイキ,0
100,1030002117714,登記記録の閉鎖等,0,2022-06-10,2022-06-03,有限会社栗原電気商会,,有限会社,埼玉県,行田市,行田１３番１６号,,11,206,3610073,,,2022-06-03,清算の結了等,,,2015-10-05,1,,,,,クリハラデンキショウカイ,0
103,1040001024084,登記記録の閉鎖等,0,2022-06-10,2022-06-07,株式会社Ｆシード,,株式会社,東京都,江戸川区,西葛西６丁目１５番２０号２０１号室,,13,123,1340088,,,2022-06-07,清算の結了等,,,2015-10-05,1,,,,,エフシード,0
112,1040002024876,登記記録の閉鎖等,0,2022-06-10,2022-06-02,有限会社藤井工務店,,有限会社,千葉県,船橋市,新高根３丁目２０番１２号,,12,204,2740814,,,2022-06-02,清算の結了等,,,2015-10-05,1,,,,,フジイコウムテン,0
113,1040002076926,登記記録の閉鎖等,0,2022-06-10,2022-06-06,有限会社Ｋ－テック,,有限会社,千葉県,市原市,千種７丁目１５番地４,,12,219,2990109,,,2022-06-06,清算の結了等,,,2015-10-05,1,,,,,,0
117,1060002020634,登記記録の閉鎖等,0,2022-06-10,2022-05-30,有限会社中本商店,,有限会社,栃木県,鹿沼市,上野町１０５番地１,,09,205,3220021,,,2022-05-30,清算の結了等,,,2015-10-05,1,,,,,ナカモトショウテン,0
121,1070005000599,登記記録の閉鎖等,0,2022-06-10,2022-06-03,前橋麺類商協同組合,00026015,その他の設立登記法人,群馬県,前橋市,紅雲町１丁目２２番２号,,10,201,3710025,,,2022-06-03,清算の結了等,,,2015-10-05,1,,,,,マエバシメンルイショウ,0
125,1080102008065,登記記録の閉鎖等,0,2022-06-10,2022-06-09,有限会社植田企画,,有限会社,静岡県,伊豆市,松ケ瀬５８番地の１,,22,222,4103211,,,2022-06-09,清算の結了等,,,2015-10-05,1,,,,,ウエダキカク,0
132,1080405006658,登記記録の閉鎖等,0,2022-06-10,2022-06-06,特定非営利活動法人コラボりん湖西,,その他の設立登記法人,静岡県,湖西市,新居町中之郷４５１番地の１０,,22,221,4310301,,,2022-06-06,清算の結了等,,,2015-10-05,1,,,,,コラボリンコサイ,0
146,1120001236514,登記記録の閉鎖等,0,2022-06-10,2022-06-08,株式会社サポート,,株式会社,大阪府,大阪市城東区,中央２丁目１４番Ｃ－３１０３号,,27,118,5360005,,,2022-06-08,清算の結了等,,,2021-04-09,1,,,,,サポート,0
162,1120102001156,登記記録の閉鎖等,0,2022-06-10,2022-06-06,有限会社奥中工務店,,有限会社,大阪府,堺市西区,北条町１丁３０番５１号,,27,144,5938302,,,2022-06-06,清算の結了等,,,2015-10-05,1,,,,,オクナカコウムテン,0
164,1122002002671,登記記録の閉鎖等,0,2022-06-10,2022-06-06,有限会社瀬戸口建具店,,有限会社,大阪府,東大阪市,若江北町３丁目１番４３号,,27,227,5780945,,,2022-06-06,清算の結了等,,,2015-10-05,1,,,,,セトグチタテグテン,0
184,1150001012846,登記記録の閉鎖等,0,2022-06-10,2022-06-06,下田不動産株式会社,,株式会社,奈良県,香芝市,瓦口２１０２番地サンライト五位堂１階,,29,210,6390225,,,2022-06-06,清算の結了等,,,2015-10-05,1,,,,,シモダフドウサン,0
185,1150002003398,登記記録の閉鎖等,0,2022-06-10,2022-06-06,有限会社こもり,,有限会社,奈良県,奈良市,杉ヶ町３７番地,,29,201,6308357,,,2022-06-06,清算の結了等,,,2015-10-05,1,,,,,コモリ,0
199,1180001140495,登記記録の閉鎖等,0,2022-06-10,2022-06-06,株式会社ＳＵＲＡＤＯＭＥ,,株式会社,愛知県,名古屋市中村区,椿町１番３号チサンマンション第１名古屋８０８号室,,23,105,4530015,,,2022-06-06,清算の結了等,,,2020-03-23,1,,,,,スラドメ,0
209,1190002018723,登記記録の閉鎖等,0,2022-06-10,2022-06-06,有限会社セルフィング,,有限会社,三重県,いなべ市,大安町中央ヶ丘３丁目２９６９番地１３,,24,214,5110287,,,2022-06-06,清算の結了等,,,2015-10-05,1,,,,,セルフィング,0
213,1200001026758,登記記録の閉鎖等,0,2022-06-10,2022-06-08,オークリゾート株式会社,,株式会社,岐阜県,郡上市,高鷲町ひるがの４６７１番地１５,,21,219,5015301,,,2022-06-08,合併による解散等,5180301014247,令和４年６月１日愛知県刈谷市熊野町四丁目７５番地１ハタス株式会社（5180301014247）に合併し解散,2015-10-05,1,,,,,オークリゾート,0
236,1260001000988,登記記録の閉鎖等,0,2022-06-10,2022-06-08,岡山花き園芸資材株式会社,,株式会社,岡山県,岡山市南区,市場２丁目１番地,,33,104,7028052,,,2022-06-08,合併による解散等,7122001006560,令和４年６月１日大阪府東大阪市長堂三丁目２番２３号松村工芸株式会社（7122001006560）に合併し解散,2015-10-05,1,,,,,オカヤマカキエンゲイシザイ,0
260,1290802009341,登記記録の閉鎖等,0,2022-06-10,2022-06-08,有限会社グリーン,,有限会社,福岡県,北九州市門司区,大里戸ノ上２丁目５番１８号,,40,101,8000024,,,2022-06-08,清算の結了等,,,2015-10-05,1,,,,,グリーン,0
261,1300002006856,登記記録の閉鎖等,0,2022-06-10,2022-06-01,株式会社ピー・シー・ユー,,株式会社,佐賀県,鹿島市,大字高津原４１番地１２,,41,207,8491311,,,2022-06-01,合併による解散等,9300001004985,令和４年６月１日佐賀県鹿島市大字高津原４１番地３株式会社宮園電工（9300001004985）に合併し解散,2015-10-05,1,,,,,ピーシーユー,0
279,1350002011703,登記記録の閉鎖等,0,2022-06-10,2022-06-07,有限会社アート測量設計,,有限会社,宮崎県,西臼杵郡日之影町,大字七折１２７４番地,,45,442,8820401,,,2022-06-07,清算の結了等,,,2015-10-05,1,,,,,アートソクリョウセッケイ,0
283,1360001023632,登記記録の閉鎖等,0,2022-06-10,2022-05-12,株式会社ライフ２１,,株式会社,沖縄県,糸満市,字潮平７６７番地２ｎｉ－ｆｅよしだビル４階,,47,210,9010302,,,2022-05-12,合併による解散等,1360001005052,令和４年５月１日沖縄県那覇市首里末吉町三丁目１０９番地１２株式会社よしだ（1360001005052）に合併し解散,2018-03-02,1,,,,,ライフニジュウイチ,0
291,1380001000035,登記記録の閉鎖等,0,2022-06-10,2022-06-06,株式会社あかい,,株式会社,福島県,福島市,丸子字中町裏４１番地の２,,07,201,9600111,,,2022-06-06,清算の結了等,,,2015-10-05,1,,,,,アカイ,0
313,1480005004096,登記記録の閉鎖等,0,2022-06-10,2022-06-08,特定非営利活動法人人権ネットもったいない,,その他の設立登記法人,徳島県,鳴門市,鳴門町三ツ石字芙蓉山下１０５番地６,,36,202,7720052,,,2022-06-08,清算の結了等,,,2015-10-05,1,,,,,ジンケンネットモッタイナイ,0
324,2010001145535,登記記録の閉鎖等,0,2022-06-10,2022-06-09,株式会社エッセンス,,株式会社,東京都,江戸川区,小松川２丁目２番１号,,13,123,1320034,,,2022-06-09,清算の結了等,,,2015-10-05,1,,,,,エッセンス,0
333,2010403014461,登記記録の閉鎖等,0,2022-06-10,2022-05-27,合同会社ラスベンタス,,合同会社,東京都,港区,六本木５丁目５番１号ロアビル１階,,13,103,1060032,,,2022-05-27,清算の結了等,,,2016-02-25,1,,,,,ラスベンタス,0
337,2010601059556,登記記録の閉鎖等,0,2022-06-10,2022-06-02,株式会社ｎａｖｙ　ｆｒｅｅ,,株式会社,東京都,江東区,北砂６丁目１０番８号,,13,108,1360073,,,2022-06-02,清算の結了等,,,2021-06-25,1,,,,,ネイビーフリー,0
339,2010602026885,登記記録の閉鎖等,0,2022-06-10,2022-06-03,有限会社ケイズネット,,有限会社,東京都,江東区,扇橋２丁目１１番１４号,,13,108,1350011,,,2022-06-03,清算の結了等,,,2015-10-05,1,,,,,,0
344,2010801004527,登記記録の閉鎖等,0,2022-06-10,2022-06-02,株式会社三協電商,,株式会社,東京都,大田区,大森北６丁目１７番１１号,,13,111,1430016,,,2022-06-02,清算の結了等,,,2015-10-05,1,,,,,サンキョウデンショウ,0
397,2011701016166,登記記録の閉鎖等,0,2022-06-10,2022-06-01,株式会社ＩＤＯプランニング,,株式会社,東京都,江戸川区,平井４丁目２２－３,,13,123,1320035,,,2022-06-01,合併による解散等,9011701023180,令和４年６月１日東京都江戸川区平井七丁目４番２－９０８号株式会社ウェルサンズ（9011701023180）に合併し解散,2015-10-05,1,,,,,アイディーオープランニング,0
445,2030005017324,登記記録の閉鎖等,0,2022-06-10,2022-06-03,一般社団法人ＨＩＳＣＯ,,その他の設立登記法人,埼玉県,富士見市,大字勝瀬９１９番地６,,11,235,3540031,,,2022-06-03,清算の結了等,,,2015-10-05,1,,,,,ヒスコ,0
452,2040001115502,登記記録の閉鎖等,0,2022-06-10,2022-06-03,株式会社ジャスティン,,株式会社,千葉県,千葉市中央区,祐光１丁目４番１８号グリーンハイツ４０１号,,12,101,2600007,,,2022-06-03,清算の結了等,,,2020-10-14,1,,,,,ジャスティン,0
466,2090001004881,登記記録の閉鎖等,0,2022-06-10,2022-06-06,株式会社南湖中央青果地方卸売市場,00068714,株式会社,山梨県,南アルプス市,東南湖３２６８番地,,19,208,4000412,,,2022-06-06,清算の結了等,,,2015-10-05,1,,,,,ナンゴチュウオウセイカチホウオロシウリイチバ,0
468,2100001015563,登記記録の閉鎖等,0,2022-06-10,2022-06-06,株式会社カワカミ,,株式会社,長野県,塩尻市,大門八番町９番３６号,,20,215,3990737,,,2022-06-06,清算の結了等,,,2015-10-05,1,,,,,カワカミ,0
497,2120101059459,登記記録の閉鎖等,0,2022-06-10,2022-06-03,ビューティードア・ホールディングス株式会社,,株式会社,大阪府,富田林市,錦織東１丁目３番６号,,27,214,5840069,,,2022-06-03,合併による解散等,9120101031551,令和４年６月１日大阪府富田林市錦織東一丁目３番６号ビューティードア株式会社（9120101031551）に合併し解散,2019-02-25,1,,,,,ビューティードアホールディングス,0
503,2120902018943,登記記録の閉鎖等,0,2022-06-10,2022-06-02,有限会社タクト実業,,有限会社,大阪府,豊中市,岡町北１丁目１番４号小西商工ビル内,,27,203,5610884,,,2022-06-02,清算の結了等,,,2015-10-05,1,,,,,タクトジツギョウ,0
524,2180001103030,登記記録の閉鎖等,0,2022-06-10,2022-06-06,株式会社ワイズケミカル,,株式会社,愛知県,名古屋市南区,豊田３丁目８番２号,,23,112,4570841,,,2022-06-06,清算の結了等,,,2015-10-05,1,,,,,ワイズケミカル,0
548,2210002001262,登記記録の閉鎖等,0,2022-06-10,2022-06-03,有限会社コスモトラベル,,有限会社,福井県,福井市,二の宮５丁目１８番５号,,18,201,9100015,,,2022-06-03,清算の結了等,,,2015-10-05,1,,,,,コスモトラベル,0
561,2250005005439,登記記録の閉鎖等,0,2022-06-10,2022-05-24,天理教周城分教会,,その他の設立登記法人,山口県,周南市,大字須々万本郷８２９番地,,35,215,7450122,,,2022-05-24,合併による解散等,4250005005429,令和４年５月２４日山口県周南市遠石二丁目７番３４号天理教＿道分教会（4250005005429）に合併し解散,2015-10-05,1,,,,,テンリキョウシュウジョウブンキョウカイ,0
562,2260002018533,登記記録の閉鎖等,0,2022-06-10,2022-06-09,有限会社サンユタカ,,有限会社,岡山県,倉敷市,西阿知町西原７２８番地の３６,,33,202,7100806,,,2022-06-09,清算の結了等,,,2015-10-05,1,,,,,サンユタカ,0
580,2320005004714,登記記録の閉鎖等,0,2022-06-10,2022-05-25,天理教豊城分教会,,その他の設立登記法人,大分県,国東市,国東町鶴川２０４番地,,44,214,8730503,,,2022-05-25,合併による解散等,4250005005429,令和４年５月２４日山口県周南市遠石二丁目７番３４号天理教＿道分教会（4250005005429）に合併し解散,2015-10-05,1,,,,,テンリキョウホウジョウブンキョウカイ,0
581,2320005007725,登記記録の閉鎖等,0,2022-06-10,2022-05-25,天理教扇城分教会,,その他の設立登記法人,大分県,中津市,２４８９番地,,44,203,8710099,,,2022-05-25,合併による解散等,4250005005429,令和４年５月２４日山口県周南市遠石二丁目７番３４号天理教＿道分教会（4250005005429）に合併し解散,2015-10-05,1,,,,,,0
603,2430002002214,登記記録の閉鎖等,0,2022-06-10,2022-05-30,有限会社岩崎商事,,有限会社,北海道,札幌市北区,北二十五条西４丁目２２番地,,01,102,0010025,,,2022-05-30,清算の結了等,,,2015-10-05,1,,,,,イワサキショウジ,0
615,2480002012381,登記記録の閉鎖等,0,2022-06-10,2022-06-08,有限会社光誠空調,,有限会社,徳島県,板野郡北島町,太郎八須字西ノ瀬３６番地１１,,36,402,7710202,,,2022-06-08,清算の結了等,,,2015-10-05,1,,,,,コウセイクウチョウ,0
659,3010503006011,登記記録の閉鎖等,0,2022-06-10,2022-06-08,合同会社アルト,,合同会社,東京都,台東区,松が谷４丁目１４番２号,,13,106,1110036,,,2022-06-08,清算の結了等,,,2020-09-01,1,,,,,アルト,0
679,3011001102376,登記記録の閉鎖等,0,2022-06-10,2022-06-01,株式会社上上下下左右左右ＢＡ,,株式会社,茨城県,稲敷郡美浦村,大字舟子６３－１７,,08,442,3000428,,,2022-06-01,清算の結了等,,,2015-10-05,1,,,,,ウエウエシタシタヒダリミギミダリミギビーエー,0
693,3011103006310,登記記録の閉鎖等,0,2022-06-10,2022-05-27,Ｃｈｅｍｉｃａｌ－Ｇ合同会社,,合同会社,東京都,渋谷区,代官山町９－１０ＳＯＤＡＣＣＯ４Ｄ０８,,13,113,1500034,,,2022-05-27,清算の結了等,,,2016-05-31,1,,,,,ケミカルジー,0
701,3011401015046,登記記録の閉鎖等,0,2022-06-10,2022-06-08,株式会社タツクスフォトグラフィ,,株式会社,東京都,板橋区,中台３丁目２７番Ｅ－２１０号,,13,119,1740064,,,2022-06-08,清算の結了等,,,2015-10-05,1,,,,,タックスフォトグラフィ,0
702,3011501009567,登記記録の閉鎖等,0,2022-06-10,2022-06-06,株式会社日流プランニング,,株式会社,東京都,荒川区,町屋３丁目２番１号ライオンズプラザ町屋１１５,,13,118,1160001,,,2022-06-06,清算の結了等,,,2015-10-05,1,,,,,ニチリュウプランニング,0
704,3011502003874,登記記録の閉鎖等,0,2022-06-10,2022-06-07,有限会社塚田合金鋳造所,,有限会社,東京都,北区,豊島３丁目７番３号,,13,117,1140003,,,2022-06-07,清算の結了等,,,2015-10-05,1,,,,,ツカダゴウキンチュウゾウショ,0
706,3011801004821,登記記録の閉鎖等,0,2022-06-10,2022-06-02,武藤精工株式会社,,株式会社,東京都,葛飾区,立石７丁目１０番４号,,13,122,1240012,,,2022-06-02,清算の結了等,,,2015-10-05,1,,,,,ムトウセイコウ,0
709,3011802006263,登記記録の閉鎖等,0,2022-06-10,2022-06-02,有限会社濱田工務店,00057287,有限会社,東京都,葛飾区,立石７丁目３番１０号,,13,122,1240012,,,2022-06-02,清算の結了等,,,2015-10-05,1,,,,,ハマダコウムテン,0
737,3030001040485,登記記録の閉鎖等,0,2022-06-10,2022-06-06,株式会社トレンディック,,株式会社,埼玉県,八潮市,大字西袋１１５５番地１,,11,234,3400833,,,2022-06-06,清算の結了等,,,2015-10-05,1,,,,,トレンディック,0
738,3030001043991,登記記録の閉鎖等,0,2022-06-10,2022-06-06,ヘアーサロン・アップル株式会社,,株式会社,埼玉県,上尾市,愛宕１丁目１７番５号,,11,219,3620034,,,2022-06-06,清算の結了等,,,2015-10-05,1,,,,,ヘアーサロンアップル,0
741,3030001108134,登記記録の閉鎖等,0,2022-06-10,2022-06-03,東洋電子株式会社,,株式会社,東京都,世田谷区,千歳台６丁目１２番１６－２０７号,,13,112,1570071,,,2022-06-03,清算の結了等,,,2015-10-05,1,,,,,トウヨウデンシ,0
753,3040001065564,登記記録の閉鎖等,0,2022-06-10,2022-06-02,株式会社甲陽計測,,株式会社,千葉県,柏市,中原１丁目８番１号,,12,217,2770085,,,2022-06-02,清算の結了等,,,2015-10-05,1,,,,,コウヨウケイソク,0
758,3040002011138,登記記録の閉鎖等,0,2022-06-10,2022-06-06,有限会社ミエ総合企画,,有限会社,千葉県,千葉市中央区,新千葉３丁目１６番１１号,,12,101,2600031,,,2022-06-06,清算の結了等,,,2015-10-05,1,,,,,ミエソウゴウキカク,0
759,3040002047504,登記記録の閉鎖等,0,2022-06-10,2022-06-01,有限会社トキワジムキ,,有限会社,千葉県,松戸市,五香西２丁目５１番地の１１,,12,207,2702218,,,2022-06-01,清算の結了等,,,2015-10-05,1,,,,,トキワジムキ,0
760,3040002069242,登記記録の閉鎖等,0,2022-06-10,2022-06-03,有限会社渡辺水産,,有限会社,千葉県,木更津市,畔戸１３５０番地２８,,12,206,2920005,,,2022-06-03,清算の結了等,,,2015-10-05,1,,,,,,0
770,3070002031595,登記記録の閉鎖等,0,2022-06-10,2022-06-02,有限会社セントラルメディカルサービス,,有限会社,群馬県,邑楽郡大泉町,大字古氷４７４番地,,10,524,3700536,,,2022-06-02,清算の結了等,,,2015-10-05,1,,,,,セントラルメディカルサービス,0
771,3080001004163,登記記録の閉鎖等,0,2022-06-10,2022-06-08,株式会社野沢レストランシステムズ,,株式会社,静岡県,静岡市葵区,呉服町２丁目５番地の２１,,22,101,4200031,,,2022-06-08,清算の結了等,,,2015-10-05,1,,,,,ノザワレストランシステムズ,0
775,3080401016824,登記記録の閉鎖等,0,2022-06-10,2022-06-09,となりの建築工房株式会社,,株式会社,静岡県,浜松市東区,半田町１５８５番地の２,,22,132,4313124,,,2022-06-09,清算の結了等,,,2015-10-05,1,,,,,トナリノケンチクコウボウ,0
778,3100001016197,登記記録の閉鎖等,0,2022-06-10,2022-06-06,株式会社月光,,株式会社,長野県,松本市,大字里山辺１０５８番地１,,20,202,3900221,,,2022-06-06,清算の結了等,,,2015-10-05,1,,,,,ゲッコウ,0
801,3120003014445,登記記録の閉鎖等,0,2022-06-10,2022-06-08,合同会社未優,,合同会社,大阪府,大阪市西成区,天下茶屋北１丁目３番１２号,,27,122,5570003,,,2022-06-08,清算の結了等,,,2018-06-27,1,,,,,ミユ,0
806,3120101034642,登記記録の閉鎖等,0,2022-06-10,2022-06-07,峠本建設株式会社,,株式会社,大阪府,河内長野市,旭ケ丘１６番１４号,,27,216,5860084,,,2022-06-07,清算の結了等,,,2022-05-09,1,,,,,タオモトケンセツ,0
838,3140002028114,登記記録の閉鎖等,0,2022-06-10,2022-06-02,有限会社ケイティクス,,有限会社,兵庫県,神戸市東灘区,住吉本町２丁目２６番１２－２０３号,,28,101,6580051,,,2022-06-02,清算の結了等,,,2015-10-05,1,,,,,ケイティクス,0
857,3190001005794,登記記録の閉鎖等,0,2022-06-10,2022-06-06,大橋建設株式会社,,株式会社,三重県,鈴鹿市,三宅町３６８番地,,24,207,5100265,,,2022-06-06,清算の結了等,,,2015-10-05,1,,,,,オオハシケンセツ,0
863,3200001027036,登記記録の閉鎖等,0,2022-06-10,2022-06-10,株式会社スーパーホウゼンエイト,,株式会社,岐阜県,岐阜市,則武西１丁目６番７号,,21,201,5020939,,,2022-06-10,清算の結了等,,,2015-10-05,1,,,,,スーパーホウゼンエイト,0
874,3230002007653,登記記録の閉鎖等,0,2022-06-10,2022-06-06,有限会社シマズ,,有限会社,富山県,魚津市,六郎丸１３１３番地,,16,204,9370042,,,2022-06-06,清算の結了等,,,2015-10-05,1,,,,,シマズ,0
885,3250001010441,登記記録の閉鎖等,0,2022-06-10,2022-06-03,佐島工業株式会社,,株式会社,山口県,下松市,大字西豊井１３４０番地の５,,35,207,7440011,,,2022-06-03,清算の結了等,,,2015-10-05,1,,,,,,0
899,3290001097351,登記記録の閉鎖等,0,2022-06-10,2022-06-03,ナガタ・エンタープライズ株式会社,,株式会社,福岡県,福津市,４０２４番地,,40,224,8113213,,,2022-06-03,清算の結了等,,,2022-05-09,1,,,,,ナガタエンタープライズ,0
900,3290002003969,登記記録の閉鎖等,0,2022-06-10,2022-06-03,有限会社吉富住建,,有限会社,福岡県,福岡市南区,花畑１丁目１９番２０号,,40,134,8111356,,,2022-06-03,清算の結了等,,,2015-10-05,1,,,,,ヨシトミジュウケン,0
901,3290002014264,登記記録の閉鎖等,0,2022-06-10,2022-06-03,有限会社上村利生ビル,,有限会社,福岡県,福岡市博多区,上川端町１２番２０号,,40,132,8120026,,,2022-06-03,清算の結了等,,,2015-10-05,1,,,,,ウエムラトシオビル,0
904,3290802023043,登記記録の閉鎖等,0,2022-06-10,2022-06-09,有限会社山中青果,,有限会社,福岡県,京都郡苅田町,桜ヶ丘３番地の５,,40,621,8000357,,,2022-06-09,清算の結了等,,,2015-10-05,1,,,,,ヤマナカセイカ,0
918,3380002024824,登記記録の閉鎖等,0,2022-06-10,2022-06-02,有限会社千葉設計,,有限会社,福島県,いわき市,石森２丁目１番地の１３,,07,204,9708017,,,2022-06-02,清算の結了等,,,2015-10-05,1,,,,,チバセッケイ,0
945,4010001046954,登記記録の閉鎖等,0,2022-06-10,2022-05-25,株式会社シヤンテイ,,株式会社,東京都,港区,南青山５丁目４番３０号,,13,103,1070062,,,2022-05-25,清算の結了等,,,2015-10-05,1,,,,,シヤンテイ,0
977,4011001055961,登記記録の閉鎖等,0,2022-06-10,2022-06-03,へやナビ株式会社,,株式会社,埼玉県,草加市,氷川町２１０５番地５,,11,221,3400034,,,2022-06-03,清算の結了等,,,2015-10-05,1,,,,,ヘヤナビ,0
989,4011101094868,登記記録の閉鎖等,0,2022-06-10,2022-06-07,株式会社川越アセットマネジメント,,株式会社,東京都,新宿区,西新宿１丁目１８番２号晴花ビル４Ｆ,,13,104,1600023,,,2022-06-07,清算の結了等,,,2021-04-20,1,,,,,カワゴエアセットマネジメント,0
993,4011402015093,登記記録の閉鎖等,0,2022-06-10,2022-06-07,有限会社三五屋,,有限会社,東京都,板橋区,板橋１丁目１３番５号,,13,119,1730004,,,2022-06-07,清算の結了等,,,2015-10-05,1,,,,,サンゴヤ,0
1009,4012401035017,登記記録の閉鎖等,0,2022-06-10,2022-06-06,株式会社エクスリード,,株式会社,東京都,調布市,仙川町１丁目１４番２２号,,13,208,1820002,,,2022-06-06,清算の結了等,,,2019-03-08,1,,,,,エクスリード,0
1010,4012801000306,登記記録の閉鎖等,0,2022-06-10,2022-06-07,オリックス・エム・アイ・シー株式会社,,株式会社,東京都,港区,浜松町２丁目４番１号,,13,103,1050013,,,2022-06-07,清算の結了等,,,2015-10-05,1,,,,,オリックスエムアイシー,0
1036,4021001045607,登記記録の閉鎖等,0,2022-06-10,2022-06-06,株式会社トワードセントラル,,株式会社,神奈川県,愛甲郡愛川町,中津４０２０番地の５,,14,401,2430303,,,2022-06-06,合併による解散等,3300001006533,令和４年６月１日佐賀県神埼郡吉野ヶ里町三津１６６番地１３株式会社トワード（3300001006533）に合併し解散,2015-10-05,1,,,,,トワードセントラル,0
1053,4030003005122,登記記録の閉鎖等,0,2022-06-10,2022-06-02,合同会社ジェイ企画,,合同会社,埼玉県,草加市,栄町２丁目１１番９号,,11,221,3400011,,,2022-06-02,清算の結了等,,,2015-10-05,1,,,,,ジェイキカク,0
1056,4040001041556,登記記録の閉鎖等,0,2022-06-10,2022-06-01,株式会社コスメティックシンセンス,,株式会社,千葉県,松戸市,松飛台１５１番地１０,,12,207,2702214,,,2022-06-01,清算の結了等,,,2015-10-05,1,,,,,コスメティックシンセンス,0
1066,4060001007456,登記記録の閉鎖等,0,2022-06-10,2022-06-06,ＦＯＲＺＡジャパン株式会社,,株式会社,栃木県,宇都宮市,東町１５５番地６,,09,201,3210985,,,2022-06-06,清算の結了等,,,2015-10-05,1,,,,,フォルザジャパン,0
1077,4080401000620,登記記録の閉鎖等,0,2022-06-10,2022-06-09,株式会社アーキホーム,,株式会社,静岡県,浜松市中区,茄子町１２９番地,,22,131,4300912,,,2022-06-09,清算の結了等,,,2015-10-05,1,,,,,,0
1080,4080402003853,登記記録の閉鎖等,0,2022-06-10,2022-06-06,有限会社オフィスナガオ,,有限会社,静岡県,浜松市中区,東田町３６番地の９,,22,131,4300915,,,2022-06-06,清算の結了等,,,2015-10-05,1,,,,,オフィスナガオ,0
1085,4100002015692,登記記録の閉鎖等,0,2022-06-10,2022-06-06,有限会社おもだか屋,,有限会社,長野県,上田市,芳田１３８０番地１２６,,20,203,3860151,,,2022-06-06,清算の結了等,,,2015-10-05,1,,,,,オモダカヤ,0
1086,4100002039312,登記記録の閉鎖等,0,2022-06-10,2022-06-06,有限会社アズサプランニング,,有限会社,長野県,松本市,大手１丁目９番１５号,,20,202,3900874,,,2022-06-06,清算の結了等,,,2022-02-14,1,,,,,アズサプランニング,0
1087,4100003001386,登記記録の閉鎖等,0,2022-06-10,2022-06-06,合同会社やまもと,,合同会社,長野県,小県郡長和町,大門３０５３番地１,,20,350,3860601,,,2022-06-06,清算の結了等,,,2015-10-05,1,,,,,ヤマモト,0
1107,4120001227031,登記記録の閉鎖等,0,2022-06-10,2022-06-07,株式会社ゴールド,,株式会社,大阪府,大阪市西区,新町１丁目８番１号,,27,106,5500013,,,2022-06-07,清算の結了等,,,2020-02-07,1,,,,,ゴールド,0
1128,4140002018122,登記記録の閉鎖等,0,2022-06-10,2022-06-03,有限会社ハリマ産業,,有限会社,兵庫県,高砂市,時光寺町３番１号,,28,216,6760813,,,2022-06-03,清算の結了等,,,2015-10-05,1,,,,,ハリマサンギョウ,0
1139,4180001050758,登記記録の閉鎖等,0,2022-06-10,2022-06-08,株式会社ティ・ビィ・エィ,,株式会社,愛知県,名古屋市中区,松原３丁目１６番２１号,,23,106,4600017,,,2022-06-08,清算の結了等,,,2015-10-05,1,,,,,,0
1141,4180001087899,登記記録の閉鎖等,0,2022-06-10,2022-06-06,大和書店株式会社,,株式会社,愛知県,岩倉市,中本町西出口６４番地９,,23,228,4820042,,,2022-06-06,清算の結了等,,,2015-10-05,1,,,,,,0
1161,4210001008331,登記記録の閉鎖等,0,2022-06-10,2022-05-30,株式会社嵯峨,,株式会社,福井県,あわら市,二面４８号１０番地,,18,208,9104103,,,2022-05-30,清算の結了等,,,2015-10-05,1,,,,,サガ,0
1165,4220002012488,登記記録の閉鎖等,0,2022-06-10,2022-06-07,有限会社信愛プランニング,,有限会社,石川県,加賀市,松が丘１丁目２０番地の１６,,17,206,9220436,,,2022-06-07,清算の結了等,,,2015-10-05,1,,,,,シンアイプランニング,0
1176,4250005006773,登記記録の閉鎖等,0,2022-06-10,2022-05-24,天理教柳井分教会,,その他の設立登記法人,山口県,柳井市,姫田９番５号,,35,212,7420001,,,2022-05-24,合併による解散等,2140005006266,令和４年５月２３日兵庫県三木市吉川町鍛冶屋６番地の１天理教中吉川分教会（2140005006266）に合併し解散,2015-10-05,1,,,,,テンリキョウヤナイブンキョウカイ,0
1182,4290001052090,登記記録の閉鎖等,0,2022-06-10,2022-06-02,株式会社フジプランニング,,株式会社,福岡県,久留米市,国分町１３２４番地６,,40,203,8390863,,,2022-06-02,清算の結了等,,,2015-10-05,1,,,,,フジプランニング,0
1195,4320002013807,登記記録の閉鎖等,0,2022-06-10,2022-06-07,有限会社門脇整備,,有限会社,大分県,宇佐市,大字蜷木１１１２番地の１,,44,211,8720023,,,2022-06-07,清算の結了等,,,2015-10-05,1,,,,,,0
1211,4400001001655,登記記録の閉鎖等,0,2022-06-10,2022-06-07,盛信ビジネスサービス株式会社,,株式会社,岩手県,盛岡市,中ノ橋通１丁目４番６号,,03,201,0200871,,,2022-06-07,清算の結了等,,,2015-10-05,1,,,,,モリシンビジネスサービス,0
1242,5010003023827,登記記録の閉鎖等,0,2022-06-10,2022-06-02,合同会社ＫＳＤ,,合同会社,東京都,千代田区,内幸町２丁目１番６号,,13,101,1000011,,,2022-06-02,清算の結了等,,,2016-07-20,1,,,,,ケイエスディ,0
1246,5010401134837,登記記録の閉鎖等,0,2022-06-10,2022-06-02,株式会社フェリクスシステム,,株式会社,東京都,中央区,銀座７丁目１３番６号,,13,102,1040061,,,2022-06-02,清算の結了等,,,2017-11-08,1,,,,,フェリクスシステム,0
1266,5010702015397,登記記録の閉鎖等,0,2022-06-10,2022-06-08,有限会社千代恵,,有限会社,東京都,品川区,東五反田１丁目２番１５号,,13,109,1410022,,,2022-06-08,清算の結了等,,,2015-10-05,1,,,,,チヨエ,0
1288,5011103009435,登記記録の閉鎖等,0,2022-06-10,2022-06-06,合同会社エムトラスト,,合同会社,東京都,新宿区,百人町１丁目１１番７号,,13,104,1690073,,,2022-06-06,清算の結了等,,,2020-02-03,1,,,,,エムトラスト,0
1296,5011801012450,登記記録の閉鎖等,0,2022-06-10,2022-06-06,美家コーポレーション株式会社,,株式会社,千葉県,野田市,中野台８２０番１０号,,12,208,2780035,,,2022-06-06,清算の結了等,,,2015-10-05,1,,,,,ミヤコーポレーション,0
1316,5020002103182,登記記録の閉鎖等,0,2022-06-10,2022-06-06,有限会社ＦＰＤＣ,,有限会社,神奈川県,川崎市幸区,塚越３丁目３６７番地,,14,132,2120024,,,2022-06-06,清算の結了等,,,2015-10-05,1,,,,,エフピーディシー,0
1335,5030002094644,登記記録の閉鎖等,0,2022-06-10,2022-06-01,有限会社ケイアンドケイ,,有限会社,埼玉県,入間郡毛呂山町,岩井東１丁目１０番地４,,11,326,3500467,,,2022-06-01,清算の結了等,,,2015-10-05,1,,,,,ケイアンドケイ,0
1338,5040001002508,登記記録の閉鎖等,0,2022-06-10,2022-06-06,サンエー商事株式会社,,株式会社,千葉県,千葉市中央区,新千葉３丁目１６番１１号,,12,101,2600031,,,2022-06-06,清算の結了等,,,2015-10-05,1,,,,,サンエーショウジ,0
1340,5040001068276,登記記録の閉鎖等,0,2022-06-10,2022-06-02,株式会社ロータス,,株式会社,千葉県,柏市,箕輪新田５９番地２,,12,217,2770911,,,2022-06-02,清算の結了等,,,2015-10-05,1,,,,,ロータス,0
1349,5050001010914,登記記録の閉鎖等,0,2022-06-10,2022-06-01,ＫＳサービス株式会社,,株式会社,茨城県,土浦市,真鍋５丁目１７番２３号,,08,203,3000051,,,2022-06-01,清算の結了等,,,2015-10-05,1,,,,,ケイエスサービス,0
1350,5060001020697,登記記録の閉鎖等,0,2022-06-10,2022-06-03,株式会社安塚,,株式会社,栃木県,佐野市,若松町５１９番地１,,09,204,3270846,,,2022-06-03,清算の結了等,,,2015-10-05,1,,,,,ヤスヅカ,0
1376,5120001209838,登記記録の閉鎖等,0,2022-06-10,2022-06-08,株式会社フォーティーシステム,,株式会社,大阪府,大阪市天王寺区,石ケ辻町３番１３号,00112026,27,109,5430031,,,2022-06-08,合併による解散等,9150001024371,令和４年５月３１日奈良県生駒市谷田町８５１番地１株式会社フォーティハウス（9150001024371）に合併し解散,2017-12-13,1,,,,,,0
1413,5150005009042,登記記録の閉鎖等,0,2022-06-10,2022-06-06,一般社団法人ゼロ・キャンペーン事務局,,その他の設立登記法人,奈良県,磯城郡田原本町,大字千代８２８番地,,29,363,6360246,,,2022-06-06,清算の結了等,,,2019-01-23,1,,,,,ゼロキャンペーンジムキョク,0
1420,5180001126516,登記記録の閉鎖等,0,2022-06-10,2022-06-07,株式会社アローズ,,株式会社,愛知県,名古屋市西区,西原町３７番地,,23,104,4520848,,,2022-06-07,清算の結了等,,,2017-02-08,1,,,,,アローズ,0
1437,5220002016463,登記記録の閉鎖等,0,2022-06-10,2022-06-07,有限会社シオン,,有限会社,石川県,河北郡内灘町,字向粟崎５丁目５３番地,,17,365,9200274,,,2022-06-07,清算の結了等,,,2015-10-05,1,,,,,シオン,0
1450,5260001019190,登記記録の閉鎖等,0,2022-06-10,2022-06-06,株式会社中西工務店,,株式会社,岡山県,新見市,高尾２７６番地の１１,,33,210,7180003,,,2022-06-06,清算の結了等,,,2015-10-05,1,,,,,ナカニシコウムテン,0
1465,5300003001407,登記記録の閉鎖等,0,2022-06-10,2022-06-01,合同会社エネパークみやこ１,,合同会社,佐賀県,武雄市,朝日町大字甘久３５８９番地２,,41,206,8430001,,,2022-06-01,清算の結了等,,,2019-01-10,1,,,,,エネパークミヤコイチ,0
1503,5460102000509,登記記録の閉鎖等,0,2022-06-10,2022-06-06,有限会社小川工務店,,有限会社,北海道,帯広市,東八条南１９丁目１番地３,,01,207,0800808,,,2022-06-06,清算の結了等,,,2015-10-05,1,,,,,オガワコウムテン,0
1507,5500002023670,登記記録の閉鎖等,0,2022-06-10,2022-06-06,水野石油有限会社,,有限会社,愛媛県,北宇和郡松野町,大字松丸３５１番地,,38,484,7982101,,,2022-06-06,清算の結了等,,,2015-10-05,1,,,,,ミズノセキユ,0
1527,6010003019469,登記記録の閉鎖等,0,2022-06-10,2022-06-02,合同会社Ｆｅｌｌｏｗｓ,,合同会社,東京都,千代田区,九段南４丁目６番１０号,,13,101,1020074,,,2022-06-02,清算の結了等,,,2015-10-05,1,,,,,フェローズ,0
1543,6010505003103,登記記録の閉鎖等,0,2022-06-10,2022-06-07,一般社団法人ユニバーサル・アーツ・アカデミー,,その他の設立登記法人,東京都,台東区,西浅草２丁目１２番１ー３０５号日神デュオステージ浅草,,13,106,1110035,,,2022-06-07,清算の結了等,,,2020-02-20,1,,,,,ユニバーサルアーツアカデミー,0
1547,6010603004804,登記記録の閉鎖等,0,2022-06-10,2022-06-03,合同会社ＴＡＣデザイン,,合同会社,東京都,墨田区,錦糸１丁目２－１アルカセントラル１４Ｆ,,13,107,1300013,,,2022-06-03,清算の結了等,,,2015-10-05,1,,,,,タックデザイン,0
1586,6011802018504,登記記録の閉鎖等,0,2022-06-10,2022-06-07,堀田興業有限会社,,有限会社,東京都,台東区,東上野４丁目４番９－２０８号,,13,106,1100015,,,2022-06-07,清算の結了等,,,2015-10-05,1,,,,,ホッタコウギョウ,0
1595,6020001077427,登記記録の閉鎖等,0,2022-06-10,2022-06-06,株式会社中央デザイン,,株式会社,神奈川県,川崎市川崎区,殿町１丁目１９番５号,,14,131,2100821,,,2022-06-06,清算の結了等,,,2015-10-05,1,,,,,チュウオウデザイン,0
1600,6020002016037,登記記録の閉鎖等,0,2022-06-10,2022-06-07,有限会社アオイ商店,,有限会社,神奈川県,横浜市西区,御所山町１１番地,,14,103,2200043,,,2022-06-07,清算の結了等,,,2015-10-05,1,,,,,アオイショウテン,0
1623,6040001020517,登記記録の閉鎖等,0,2022-06-10,2022-06-06,株式会社ウエノ石材工業,,株式会社,千葉県,八千代市,吉橋１７６８番地,,12,221,2760047,,,2022-06-06,清算の結了等,,,2015-10-05,1,,,,,ウエノセキザイコウギョウ,0
1626,6040001091640,登記記録の閉鎖等,0,2022-06-10,2022-06-08,エコみらい日本株式会社,,株式会社,千葉県,八千代市,ゆりのき台８丁目２３番地１,,12,221,2760042,,,2022-06-08,清算の結了等,,,2015-10-05,1,,,,,エコミライニッポン,0
1637,6050002042187,登記記録の閉鎖等,0,2022-06-10,2022-06-01,杉山商事有限会社,,有限会社,茨城県,筑西市,西方１８１３番地の２５,,08,227,3080845,,,2022-06-01,清算の結了等,,,2015-10-05,1,,,,,スギヤマショウジ,0
1639,6060001033343,登記記録の閉鎖等,0,2022-06-10,2022-06-03,株式会社西仁技建,,株式会社,栃木県,宇都宮市,鶴田町１７４２番地８,,09,201,3200851,,,2022-06-03,清算の結了等,,,2021-01-19,1,,,,,ニシジンギケン,0
1643,6070002030157,登記記録の閉鎖等,0,2022-06-10,2022-06-02,東栄工業有限会社,,有限会社,群馬県,邑楽郡大泉町,大字古氷４７４番地,,10,524,3700536,,,2022-06-02,清算の結了等,,,2015-10-05,1,,,,,トウエイコウギョウ,0
1648,6080401010840,登記記録の閉鎖等,0,2022-06-10,2022-06-02,株式会社天竜,,株式会社,静岡県,浜松市天竜区,佐久間町浦川２３７５番地の１,,22,137,4313906,,,2022-06-02,清算の結了等,,,2015-10-05,1,,,,,テンリュウ,0
1651,6090001016089,登記記録の閉鎖等,0,2022-06-10,2022-06-03,株式会社ケアフォレスト,,株式会社,山梨県,甲府市,横根町１１７１番地２,,19,201,4000802,,,2022-06-03,清算の結了等,,,2019-07-02,1,,,,,ケアフォレスト,0
1653,6100001035194,登記記録の閉鎖等,0,2022-06-10,2022-06-01,株式会社エルピック,,株式会社,長野県,飯田市,松尾明７５２１番地１,,20,205,3950823,,,2022-06-01,清算の結了等,,,2022-04-05,1,,,,,エルピック,0
1654,6100003004387,登記記録の閉鎖等,0,2022-06-10,2022-06-02,合同会社らいふ,,合同会社,長野県,中野市,大字新野５９番地４,,20,211,3830034,,,2022-06-02,清算の結了等,,,2016-03-03,1,,,,,ライフ,0
1660,6120002002588,登記記録の閉鎖等,0,2022-06-10,2022-06-09,有限会社山口商店,,有限会社,大阪府,大阪市西成区,旭１丁目９番２５号,,27,122,5570032,,,2022-06-09,清算の結了等,,,2015-10-05,1,,,,,,0
1662,6120002076228,登記記録の閉鎖等,0,2022-06-10,2022-06-08,有限会社関西紙工,,有限会社,大阪府,枚方市,春日北町１丁目３８番１０号,,27,210,5730137,,,2022-06-08,清算の結了等,,,2015-10-05,1,,,,,カンサイシコウ,0
1696,6150005006014,登記記録の閉鎖等,0,2022-06-10,2022-05-13,天理教瑞里分教会,,その他の設立登記法人,奈良県,大和高田市,旭南町４番１号,,29,202,6350035,,,2022-05-13,合併による解散等,9150005006176,令和４年５月１３日奈良県大和高田市大字西坊城２３９番地天理教瑞原分教会（9150005006176）に合併し解散,2015-10-05,1,,,,,テンリキョウミズサトブンキョウカイ,0
1704,6180002065919,登記記録の閉鎖等,0,2022-06-10,2022-06-07,有限会社小境電気設備,,有限会社,愛知県,春日井市,柏原町１丁目２０８番地の１,,23,206,4860913,,,2022-06-07,清算の結了等,,,2015-10-05,1,,,,,コサカイデンキセツビ,0
1711,6200002024269,登記記録の閉鎖等,0,2022-06-10,2022-06-08,有限会社藤井建設,,有限会社,岐阜県,中津川市,高山１２２２番地の１,,21,206,5080204,,,2022-06-08,清算の結了等,,,2015-10-05,1,,,,,フジイケンセツ,0
1712,6210001016869,登記記録の閉鎖等,0,2022-06-10,2022-06-06,株式会社エムエム企画,,株式会社,神奈川県,川崎市幸区,南幸町３丁目１２６番１号川崎南部市場水産仲卸棟２階２４号,,14,132,2120016,,,2022-06-06,清算の結了等,,,2017-08-28,1,,,,,エムエムキカク,0
1725,6240002054452,登記記録の閉鎖等,0,2022-06-10,2022-06-08,有限会社吉川製作所,,有限会社,広島県,三原市,大和町上徳良６５８番地の１,,34,204,7291405,,,2022-06-08,清算の結了等,,,2015-10-05,1,,,,,キッカワセイサクショ,0
1730,6250005007159,登記記録の閉鎖等,0,2022-06-10,2022-05-24,天理教安下庄分教会,,その他の設立登記法人,山口県,大島郡周防大島町,大字西安下庄第１４７４番地,,35,305,7422806,,,2022-05-24,合併による解散等,2140005006266,令和４年５月２３日兵庫県三木市吉川町鍛治屋６番地の１天理教中吉川分教会（2140005006266）に合併し解散,2015-10-05,1,,,,,テンリキョウアゲノショウブンキョウカイ,0
1733,6260002029576,登記記録の閉鎖等,0,2022-06-10,2022-06-08,有限会社森建工業,,有限会社,岡山県,津山市,下高倉西２１７１番地,,33,203,7081123,,,2022-06-08,清算の結了等,,,2015-10-05,1,,,,,モリケンコウギョウ,0
1750,6320001009317,登記記録の閉鎖等,0,2022-06-10,2022-06-08,株式会社住まいの吉祥,,株式会社,大分県,佐伯市,中村北町５番３０号,,44,205,8760856,,,2022-06-08,清算の結了等,,,2015-10-05,1,,,,,スマイノキッショウ,0
1751,6320001011594,登記記録の閉鎖等,0,2022-06-10,2022-06-07,生活実感工房株式会社,,株式会社,大分県,中津市,豊田町三丁目８番１０号,,44,203,8710058,,,2022-06-07,合併による解散等,6122001027657,令和４年５月３１日大阪府東大阪市中鴻池町一丁目７番２号株式会社サンヨーマナベ（6122001027657）に合併し解散,2015-10-05,1,,,,,セイカツジッカンコウボウ,0
1766,6370402002007,登記記録の閉鎖等,0,2022-06-10,2022-06-01,有限会社東北穀物検査協会,,有限会社,宮城県,登米市,南方町原１０番地の１,,04,212,9870413,,,2022-06-01,合併による解散等,7370402001998,令和４年６月１日宮城県登米市南方町原１０番地１登米ライスサービス株式会社（7370402001998）に合併し解散,2015-10-05,1,,,,,トウホクコクモツケンサキョウカイ,0
1776,6430002050481,登記記録の閉鎖等,0,2022-06-10,2022-05-31,有限会社村田電気商会,,有限会社,北海道,三笠市,多賀町２番地,,01,222,0682152,,,2022-05-31,清算の結了等,,,2015-10-05,1,,,,,,0
1797,7010003029921,登記記録の閉鎖等,0,2022-06-10,2022-06-03,ＬａｉｄＢａｃｋ合同会社,,合同会社,東京都,大田区,多摩川１丁目３５－３,,13,111,1460095,,,2022-06-03,清算の結了等,,,2019-05-30,1,,,,,,0
1815,7010501022584,登記記録の閉鎖等,0,2022-06-10,2022-06-06,株式会社エス・アイ・シー,,株式会社,千葉県,柏市,篠籠田４５３番地６８,,12,217,2770862,,,2022-06-06,清算の結了等,,,2015-10-05,1,,,,,エスアイシー,0
1824,7010901005081,登記記録の閉鎖等,0,2022-06-10,2022-06-08,株式会社ジエイ・エス・テイートレーデイング,,株式会社,静岡県,田方郡函南町,柏谷７１２番地の１５,,22,325,4190112,,,2022-06-08,清算の結了等,,,2015-10-05,1,,,,,ジエイエステイートレーデイング,0
1825,7010901022515,登記記録の閉鎖等,0,2022-06-10,2022-05-24,株式会社ワールド・ビジネス・ネットワーク,,株式会社,東京都,港区,虎ノ門１丁目１番３号磯村ビル５階,,13,103,1050001,,,2022-05-24,清算の結了等,,,2015-10-05,1,,,,,,0
1839,7011101045018,登記記録の閉鎖等,0,2022-06-10,2022-06-06,株式会社和蘭西葡,,株式会社,東京都,新宿区,新宿１丁目１８番２号,,13,104,1600022,,,2022-06-06,清算の結了等,,,2015-10-05,1,,,,,ワランサイホウ,0
1858,7011802009510,登記記録の閉鎖等,0,2022-06-10,2022-06-03,有限会社池田自工,,有限会社,東京都,足立区,加平１丁目１番４号,,13,121,1210055,,,2022-06-03,清算の結了等,,,2015-10-05,1,,,,,イケダジコウ,0
1864,7013201017986,登記記録の閉鎖等,0,2022-06-10,2022-05-30,株式会社トフィーナッツ,,株式会社,東京都,目黒区,自由が丘２丁目１番２号,,13,110,1520035,,,2022-05-30,清算の結了等,,,2015-10-05,1,,,,,トフィーナッツ,0
1867,7013301032084,登記記録の閉鎖等,0,2022-06-10,2022-06-07,株式会社東京すがも園,,株式会社,東京都,豊島区,巣鴨３丁目２０番２０号,,13,116,1700002,,,2022-06-07,清算の結了等,,,2015-10-05,1,,,,,トウキョウスガモエン,0
1872,7013303001764,登記記録の閉鎖等,0,2022-06-10,2022-06-03,ＶＡＮ　ＳＱＵＡＲＥ合同会社,,合同会社,東京都,豊島区,東池袋３丁目１番４号,,13,116,1700013,,,2022-06-03,清算の結了等,,,2015-10-05,1,,,,,ヴァンスクエア,0
1875,7020001076691,登記記録の閉鎖等,0,2022-06-10,2022-06-03,住和美装サービス株式会社,,株式会社,神奈川県,川崎市高津区,梶ケ谷２丁目７番１７号,,14,134,2130015,,,2022-06-03,清算の結了等,,,2015-10-05,1,,,,,ジュウワビソウサービス,0
1886,7021002060593,登記記録の閉鎖等,0,2022-06-10,2022-06-03,有限会社デルフィーノ,,有限会社,神奈川県,足柄上郡中井町,井ノ口字的２７４８番地１,,14,361,2590151,,,2022-06-03,清算の結了等,,,2015-10-05,1,,,,,デルフィーノ,0
1891,7030001112966,登記記録の閉鎖等,0,2022-06-10,2022-05-27,株式会社ＮＡＯ,,株式会社,埼玉県,川口市,幸町１丁目７番１号,,11,203,3320016,,,2022-05-27,清算の結了等,,,2016-02-22,1,,,,,,0
1895,7030001136882,登記記録の閉鎖等,0,2022-06-10,2022-06-03,株式会社ブレイク,,株式会社,埼玉県,さいたま市浦和区,常盤９丁目１７番１５号鮎マンション３０２号室,,11,107,3300061,,,2022-06-03,清算の結了等,,,2020-06-11,1,,,,,ブレイク,0
1898,7030002037015,登記記録の閉鎖等,0,2022-06-10,2022-06-03,有限会社アンプレス・ジャパン,,有限会社,埼玉県,狭山市,富士見１丁目２２番２０号,,11,215,3501306,,,2022-06-03,清算の結了等,,,2015-10-05,1,,,,,アンプレスジャパン,0
1906,7040001007166,登記記録の閉鎖等,0,2022-06-10,2022-06-06,株式会社丸勝鉄工,,株式会社,千葉県,千葉市花見川区,大日町１３１４番地１,,12,102,2620004,,,2022-06-06,清算の結了等,,,2015-10-05,1,,,,,,0
1907,7040001026538,登記記録の閉鎖等,0,2022-06-10,2022-06-06,株式会社松楽,,株式会社,千葉県,市川市,大洲４丁目７番１１号,,12,203,2720032,,,2022-06-06,清算の結了等,,,2015-10-05,1,,,,,ショウラク,0
1919,7080103001708,登記記録の閉鎖等,0,2022-06-10,2022-06-08,オオツ合同会社,,合同会社,静岡県,伊東市,岡１２９４番地の７９,,22,208,4140055,,,2022-06-08,清算の結了等,,,2017-08-15,1,,,,,オオツ,0
1923,7100002019575,登記記録の閉鎖等,0,2022-06-10,2022-06-06,有限会社オムニ,,有限会社,長野県,松本市,波田４８２番地３,,20,202,3901401,,,2022-06-06,清算の結了等,,,2015-10-05,1,,,,,オムニ,0
1929,7120001091929,登記記録の閉鎖等,0,2022-06-10,2022-06-06,株式会社ハートス・テクニカルパートナーズ,,株式会社,大阪府,大阪市住之江区,南港東８丁目２番５６号,,27,125,5590031,,,2022-06-06,合併による解散等,7140001096158,令和４年６月１日兵庫県西宮市甲風園二丁目３番１７号株式会社ビーシャンズ（7140001096158）に合併し解散,2015-10-05,1,,,,,,0
1974,7180002059713,登記記録の閉鎖等,0,2022-06-10,2022-06-07,有限会社みなみツーリスト,,有限会社,愛知県,名古屋市緑区,南大高２丁目２０４番地,,23,114,4598016,,,2022-06-07,清算の結了等,,,2015-10-05,1,,,,,ミナミツーリスト,0
1977,7180002075462,登記記録の閉鎖等,0,2022-06-10,2022-06-01,アイコクアルファ運輸有限会社,,有限会社,愛知県,一宮市,萩原町萩原字松山５３１番地１０,,23,203,4910353,,,2022-06-01,合併による解散等,4180001085572,令和４年６月１日愛知県稲沢市祖父江町森上本郷十一、４番地１アイコクアルファ株式会社（4180001085572）に合併し解散,2015-10-05,1,,,,,アイコクアルファウンユ,0
1981,7180301017041,登記記録の閉鎖等,0,2022-06-10,2022-06-08,株式会社ノバテック,,株式会社,愛知県,刈谷市,桜町４丁目２４番地,,23,210,4480028,,,2022-06-08,合併による解散等,3180002058339,令和４年６月１日名古屋市名東区極楽一丁目２番地の１株式会社ノバデンタルラボラトリー（3180002058339）に合併し解散,2015-10-05,1,,,,,ノバテック,0
1985,7200001027305,登記記録の閉鎖等,0,2022-06-10,2022-06-09,吉村電設株式会社,,株式会社,岐阜県,岐阜市,若福町２２番５号,,21,201,5020811,,,2022-06-09,清算の結了等,,,2015-10-05,1,,,,,ヨシムラデンセツ,0
1998,7240002028001,登記記録の閉鎖等,0,2022-06-10,2022-06-06,坪郷電機有限会社,,有限会社,広島県,東広島市,豊栄町乃美２９１４番地の２,,34,212,7392311,,,2022-06-06,清算の結了等,,,2015-10-05,1,,,,,ツボゴウデンキ,0
2005,7260002020195,登記記録の閉鎖等,0,2022-06-10,2022-06-09,有限会社難波ビル管理,,有限会社,岡山県,倉敷市,阿知１丁目６番２８号,,33,202,7100055,,,2022-06-09,清算の結了等,,,2015-10-05,1,,,,,ナンバビルカンリ,0
2007,7260005010458,登記記録の閉鎖等,0,2022-06-10,2022-06-08,特定非営利活動法人シェアラボ,,その他の設立登記法人,岡山県,都窪郡早島町,前潟５９８番地１,,33,423,7010303,,,2022-06-08,清算の結了等,,,2018-06-06,1,,,,,シェアラボ,0
2031,7370003005531,登記記録の閉鎖等,0,2022-06-10,2022-06-03,合同会社質と縁,,合同会社,宮城県,仙台市宮城野区,福室２丁目８番１７号福室マンション３１４号,,04,102,9830005,,,2022-06-03,清算の結了等,,,2021-12-28,1,,,,,,0
2076,8010001216479,登記記録の閉鎖等,0,2022-06-10,2022-06-03,株式会社ＴＨＤレストランシステムズ,,株式会社,東京都,中央区,日本橋小伝馬町２番地５,,13,102,1030001,,,2022-06-03,合併による解散等,8010501026287,令和４年６月１日東京都中央区日本橋小伝馬町２番地５－９Ｆトレーラーハウスデベロップメント株式会社（8010501026287）に合併し解散,2021-03-10,1,,,,,ティーエイチディーレストランシステムズ,0
2112,8010801028132,登記記録の閉鎖等,0,2022-06-10,2022-06-03,株式会社イズミ,,株式会社,東京都,大田区,山王３丁目３２番１８号,,13,111,1430023,,,2022-06-03,清算の結了等,,,2017-09-06,1,,,,,,0
2132,8011102007131,登記記録の閉鎖等,0,2022-06-10,2022-06-08,有限会社精勝紙工,,有限会社,東京都,新宿区,山吹町３５３番地,,13,104,1620801,,,2022-06-08,清算の結了等,,,2015-10-05,1,,,,,,0
2161,8020003010160,登記記録の閉鎖等,0,2022-06-10,2022-06-06,合同会社フラットポイント,,合同会社,神奈川県,横浜市港北区,新吉田町４４６６番地,,14,109,2230056,,,2022-06-06,清算の結了等,,,2015-10-05,1,,,,,フラットポイント,0
2172,8030001137500,登記記録の閉鎖等,0,2022-06-10,2022-06-03,株式会社エコーオリエンタル,,株式会社,埼玉県,新座市,新堀２丁目１６番１８号アノンド清瀬２０５号室,,11,230,3520032,,,2022-06-03,清算の結了等,,,2020-07-28,1,,,,,エコーオリエンタル,0
2243,8122002009636,登記記録の閉鎖等,0,2022-06-10,2022-06-02,有限会社瀬戸鮨,,有限会社,大阪府,東大阪市,足代新町１０番１号,,27,227,5770057,,,2022-06-02,清算の結了等,,,2015-10-05,1,,,,,セトズシ,0
2257,8150005004610,登記記録の閉鎖等,0,2022-06-10,2022-06-06,地域・環境づくりＮＰＯ法人森の月人,,その他の設立登記法人,奈良県,宇陀市,菟田野岩端４３３番地,,29,212,6332214,,,2022-06-06,清算の結了等,,,2015-10-05,1,,,,,チイキカンキョウヅクリエヌピーオーホウジンモリノツキビト,0
2270,8180002073465,登記記録の閉鎖等,0,2022-06-10,2022-06-06,有限会社フジガラス,,有限会社,愛知県,尾張旭市,桜ケ丘町３丁目１５０番地,,23,226,4880859,,,2022-06-06,清算の結了等,,,2015-10-05,1,,,,,フジガラス,0
2291,8210002011289,登記記録の閉鎖等,0,2022-06-10,2022-06-03,有限会社フレア,,有限会社,福井県,三方上中郡若狭町,鳥浜第６０号１番地,,18,501,9191331,,,2022-06-03,清算の結了等,,,2015-10-05,1,,,,,フレア,0
2292,8220002001784,登記記録の閉鎖等,0,2022-06-10,2022-06-08,有限会社海光,,有限会社,石川県,金沢市,専光寺町ツ７９番地６,,17,201,9200356,,,2022-06-08,清算の結了等,,,2015-10-05,1,,,,,カイコウ,0
2297,8250002004454,登記記録の閉鎖等,0,2022-06-10,2022-06-07,有限会社大塚工業,,有限会社,山口県,宇部市,助田町５番１５号,,35,202,7550054,,,2022-06-07,清算の結了等,,,2015-10-05,1,,,,,,0
2304,8290002052508,登記記録の閉鎖等,0,2022-06-10,2022-06-03,有限会社古賀経営,,有限会社,福岡県,久留米市,山川町１４７９番地７,,40,203,8390817,,,2022-06-03,清算の結了等,,,2015-10-05,1,,,,,コガケイエイ,0
2322,8350002008263,登記記録の閉鎖等,0,2022-06-10,2022-06-07,有限会社エムズトン企画,,有限会社,宮崎県,宮崎市,大塚町大塩道下４７２４番地２号,,45,201,8800951,,,2022-06-07,清算の結了等,,,2015-10-05,1,,,,,エムズトンキカク,0
2347,8450005001957,登記記録の閉鎖等,0,2022-06-10,2022-06-09,忠和聖書バプテスト教会,,その他の設立登記法人,北海道,旭川市,忠和四条１丁目１番２３号,,01,204,0708044,,,2022-06-09,清算の結了等,,,2015-10-05,1,,,,,チュウワセイショバプテストキョウカイ,0
2358,9010001152541,登記記録の閉鎖等,0,2022-06-10,2022-06-02,セットクリエイト株式会社,,株式会社,東京都,千代田区,麹町３丁目７番７号,00060799,13,101,1020083,,,2022-06-02,清算の結了等,,,2015-10-05,1,,,,,セットクリエイト,0
2359,9010001153878,登記記録の閉鎖等,0,2022-06-10,2022-05-26,株式会社コスモ・キャピタル,,株式会社,東京都,港区,元赤坂１丁目１番８号株式会社赤坂国際会計内,,13,103,1070051,,,2022-05-26,清算の結了等,,,2015-10-05,1,,,,,コスモキャピタル,0
2383,9010801008819,登記記録の閉鎖等,0,2022-06-10,2022-06-03,南部商事株式会社,,株式会社,神奈川県,相模原市緑区,吉野１５８６番地,,14,151,2520183,,,2022-06-03,清算の結了等,,,2015-10-05,1,,,,,ナンブショウジ,0
2412,9011301021163,登記記録の閉鎖等,0,2022-06-10,2022-06-06,株式会社ビガーリブ,,株式会社,東京都,八王子市,千人町１丁目２番１５号ケイズ八王子９０３,,13,201,1930835,,,2022-06-06,清算の結了等,,,2015-10-05,1,,,,,ビガーリブ,0
2414,9011403003126,登記記録の閉鎖等,0,2022-06-10,2022-06-08,Ｋ＆Ｔ合同会社,,合同会社,東京都,板橋区,成増２丁目２９番３－３０２号コーポトヨシマ,,13,119,1750094,,,2022-06-08,清算の結了等,,,2020-10-07,1,,,,,ケイアンドティ,0
2416,9011501003242,登記記録の閉鎖等,0,2022-06-10,2022-06-06,東日電設工業株式会社,,株式会社,東京都,北区,豊島３丁目２５番１７号,,13,117,1140003,,,2022-06-06,清算の結了等,,,2015-10-05,1,,,,,トウニチデンセツコウギョウ,0
2431,9012403002654,登記記録の閉鎖等,0,2022-06-10,2022-06-06,中居企画合同会社,,合同会社,東京都,武蔵野市,桜堤３丁目３番１６号,,13,203,1800021,,,2022-06-06,清算の結了等,,,2016-02-24,1,,,,,ナカイキカク,0
2464,9040001003279,登記記録の閉鎖等,0,2022-06-10,2022-06-03,株式会社祥光,,株式会社,千葉県,千葉市花見川区,作新台６丁目１９番１６号,,12,102,2620045,,,2022-06-03,清算の結了等,,,2015-10-05,1,,,,,ショウコウ,0
2467,9040001077406,登記記録の閉鎖等,0,2022-06-10,2022-06-01,ブッシンコスメ株式会社,,株式会社,千葉県,松戸市,松飛台１５１番地１０,,12,207,2702214,,,2022-06-01,清算の結了等,,,2015-10-05,1,,,,,ブッシンコスメ,0
2471,9040002100546,登記記録の閉鎖等,0,2022-06-10,2022-06-02,木下林材有限会社,,有限会社,千葉県,南房総市,岩糸１７９７番地の２,,12,234,2992512,,,2022-06-02,清算の結了等,,,2015-10-05,1,,,,,キノシタリンザイ,0
2474,9050001005596,登記記録の閉鎖等,0,2022-06-10,2022-06-01,株式会社ソウジン,,株式会社,茨城県,水戸市,河和田町１１０９番地の１,,08,201,3114153,,,2022-06-01,清算の結了等,,,2015-10-05,1,,,,,ソウジン,0
2485,9080001001972,登記記録の閉鎖等,0,2022-06-10,2022-06-09,信正工業株式会社,,株式会社,静岡県,静岡市駿河区,中吉田７番１２号,,22,102,4228001,,,2022-06-09,清算の結了等,,,2015-10-05,1,,,,,,0
2495,9100002006274,登記記録の閉鎖等,0,2022-06-10,2022-06-06,有限会社千曲ガラス窓建,,有限会社,長野県,長野市,豊野町豊野４２８番地９,,20,201,3891105,,,2022-06-06,清算の結了等,,,2015-10-05,1,,,,,チクマガラスソウケン,0
2497,9110001033475,登記記録の閉鎖等,0,2022-06-10,2022-06-07,株式会社悠,,株式会社,新潟県,新潟市東区,岡山１８７番地３,,15,102,9500821,,,2022-06-07,清算の結了等,,,2018-08-24,1,,,,,ユウ,0
2531,9130002024463,登記記録の閉鎖等,0,2022-06-10,2022-06-06,有限会社コモコンサルタント,,有限会社,京都府,京都市左京区,聖護院山王町４３番２パレステート日生熊野１０９号,,26,103,6068392,,,2022-06-06,清算の結了等,,,2015-10-05,1,,,,,コモコンサルタント,0
2542,9140002046639,登記記録の閉鎖等,0,2022-06-10,2022-06-03,有限会社魚崎柔道接骨院,00041098,有限会社,兵庫県,豊岡市,日高町日置９６９番地,,28,209,6695311,,,2022-06-03,清算の結了等,,,2015-10-05,1,,,,,ウオサキジュウドウセッコツイン,0
2545,9150001022152,登記記録の閉鎖等,0,2022-06-10,2022-06-06,株式会社ｇｒｏｗ,,株式会社,奈良県,奈良市,後藤町７番地の１,,29,201,6308296,,,2022-06-06,清算の結了等,,,2018-03-16,1,,,,,グロー,0
2559,9180002031736,登記記録の閉鎖等,0,2022-06-10,2022-06-07,有限会社中日企画,,有限会社,愛知県,名古屋市中区,大須２丁目２１番２０号,,23,106,4600011,,,2022-06-07,清算の結了等,,,2015-10-05,1,,,,,チュウニチキカク,0
2579,9240002014131,登記記録の閉鎖等,0,2022-06-10,2022-06-06,有限会社富士商会,,有限会社,広島県,広島市中区,東白島町４番１５号,,34,101,7300004,,,2022-06-06,清算の結了等,,,2015-10-05,1,,,,,フジショウカイ,0
2619,9380002014506,登記記録の閉鎖等,0,2022-06-10,2022-06-01,有限会社北陽商事,,有限会社,福島県,郡山市,南２丁目９９番地,,07,203,9630115,,,2022-06-01,合併による解散等,8380002014507,令和４年６月１日福島県郡山市南二丁目９９番地株式会社ホクシン（8380002014507）に合併し解散,2015-10-05,1,,,,,ホクヨウショウジ,0
2624,9400002012192,登記記録の閉鎖等,0,2022-06-10,2022-06-03,有限会社梅木土地産業,,有限会社,岩手県,二戸市,石切所字荷渡２２番地１７,,03,213,0286103,,,2022-06-03,清算の結了等,,,2015-10-05,1,,,,,ウメキトチサンギョウ,0
