sequenceNumber,corporateNumber,process,correct,updateDate,changeDate,name,nameImageId,kind,prefectureName,cityName,streetNumber,addressImageId,prefectureCode,cityCode,postCode,addressOutside,addressOutsideImageId,closeDate,closeCause,successorCorporateNumber,changeCause,assignmentDate,latest,enName,enPrefectureName,enCityName,enAddressOutside,furigana,hihyoji
14,1010102011414,登記記録の閉鎖等,0,2022-04-20,2022-03-28,有限会社シエラ,,有限会社,東京都,八王子市,滝山町１丁目１１６番７号,,13,201,1920011,,,2022-03-28,清算の結了等,,,2015-10-05,1,,,,,,0
19,1010401137570,登記記録の閉鎖等,0,2022-04-20,2022-04-11,東京ガスパイプネットワーク株式会社,,株式会社,東京都,港区,海岸１丁目５番２０号,,13,103,1050022,,,2022-04-11,合併による解散等,1010401159334,令和４年４月１日東京都港区海岸一丁目５番２０号東京ガスネットワーク株式会社（1010401159334）に合併し解散,2018-04-06,1,,,,,トウキョウガスパイプネットワーク,0
20,1010401150870,登記記録の閉鎖等,0,2022-04-20,2022-04-11,ＴＧＥＳスマエネサービス株式会社,,株式会社,東京都,港区,海岸１丁目２番３号,,13,103,1050022,,,2022-04-11,合併による解散等,2010401079028,令和４年４月１日東京都港区海岸一丁目２番３号東京ガスエンジニアリングソリューションズ株式会社（2010401079028）に合併し解散,2020-02-07,1,,,,,ティージーズスマエネサービス,0
41,1010803003379,登記記録の閉鎖等,0,2022-04-20,2022-04-13,源泉合同会社,,合同会社,福島県,須賀川市,雨田字六拾田６６番地５,,07,207,9620721,,,2022-04-13,清算の結了等,,,2020-06-23,1,,,,,ゲンセン,0
90,1020001104441,登記記録の閉鎖等,0,2022-04-20,2022-04-11,エクスチャージ株式会社,,株式会社,神奈川県,横浜市中区,北仲通３丁目３３番地関内フューチャーセンター（ｍａｓｓ×ｍａｓｓ関内）＃１８０,,14,104,2310003,,,2022-04-11,清算の結了等,,,2015-10-05,1,,,,,エクスチャージ,0
91,1020001128003,登記記録の閉鎖等,0,2022-04-20,2022-04-11,株式会社ロジギアジャパン,,株式会社,東京都,新宿区,西新宿３丁目２０番２号,,13,104,1600023,,,2022-04-11,合併による解散等,4011101083391,令和４年４月１日東京都新宿区西新宿三丁目２０番２号株式会社ＡＧＥＳＴ（4011101083391）に合併し解散,2018-09-20,1,,,,,ロジギアジャパン,0
101,1030001045049,登記記録の閉鎖等,0,2022-04-20,2022-03-31,古屋測量設計株式会社,,株式会社,埼玉県,朝霞市,三原３丁目２０番１９号,,11,227,3510025,,,2022-03-31,清算の結了等,,,2015-10-05,1,,,,,フルヤソクリョウセッケイ,0
135,1090001004965,登記記録の閉鎖等,0,2022-04-20,2022-04-15,ＴＤＫ甲府株式会社,,株式会社,山梨県,南アルプス市,宮沢１６０,,19,208,4000415,,,2022-04-15,合併による解散等,2410001011374,令和４年４月１日秋田県由利本荘市万願寺１番地８ＴＤＫエレクトロニクスファクトリーズ株式会社（2410001011374）に合併し解散,2015-10-05,1,,,,,ティーディーケイコウフ,0
151,1120001162322,登記記録の閉鎖等,0,2022-04-20,2022-04-11,株式会社エース技建,,株式会社,大阪府,大阪市中央区,北久宝寺町４丁目３番８号本町アーバンライフ９１１号,,27,128,5410057,,,2022-04-11,清算の結了等,,,2015-10-05,1,,,,,,0
152,1120001163766,登記記録の閉鎖等,0,2022-04-20,2022-04-13,株式会社ハイスペック,,株式会社,山形県,鶴岡市,切添町２３番５号,,06,203,9970022,,,2022-04-13,清算の結了等,,,2015-10-05,1,,,,,ハイスペック,0
167,1120101052448,登記記録の閉鎖等,0,2022-04-20,2022-04-15,株式会社ＯＡＫ,,株式会社,大阪府,堺市堺区,材木町東３丁１番２５号,,27,141,5900942,,,2022-04-15,清算の結了等,,,2015-10-05,1,,,,,オオク,0
178,1130002001866,登記記録の閉鎖等,0,2022-04-20,2022-04-11,有限会社ワグネル,,有限会社,京都府,京都市右京区,西院久田町７３番地,,26,108,6150064,,,2022-04-11,清算の結了等,,,2015-10-05,1,,,,,ワグネル,0
181,1140001026186,登記記録の閉鎖等,0,2022-04-20,2022-04-05,株式会社ＴＨＥ　ＦＡＣＴＯＲＹ,,株式会社,兵庫県,神戸市長田区,長田町４丁目２番２４号,,28,106,6530812,,,2022-04-05,清算の結了等,,,2015-10-05,1,,,,,ザファクトリー,0
192,1140001115996,登記記録の閉鎖等,0,2022-04-20,2022-04-15,株式会社ナインコミュニティ,,株式会社,兵庫県,三田市,駅前町６番５－７０１号,,28,219,6691528,,,2022-04-15,清算の結了等,,,2020-01-07,1,,,,,ナインコミュニティ,0
220,1210001001594,登記記録の閉鎖等,0,2022-04-20,2022-04-12,昭栄商事株式会社,,株式会社,福井県,福井市,成和１丁目１５０３番地,,18,201,9188239,,,2022-04-12,合併による解散等,4010001142571,令和４年４月１日東京都中央区築地五丁目６番１０号渡辺パイプ株式会社（4010001142571）に合併し解散,2015-10-05,1,,,,,ショウエイショウジ,0
225,1240001028552,登記記録の閉鎖等,0,2022-04-20,2022-04-13,若初木材株式会社,,株式会社,広島県,大竹市,元町３丁目５番１号,,34,211,7390615,,,2022-04-13,清算の結了等,,,2015-10-05,1,,,,,ワカハツモクザイ,0
241,1290001050097,登記記録の閉鎖等,0,2022-04-20,2022-04-15,兼松ＢＤコミュニケーションズ株式会社,,株式会社,福岡県,久留米市,花畑２丁目１５番地２,,40,203,8300039,,,2022-04-15,合併による解散等,1011101031601,令和４年４月１日東京都渋谷区代々木三丁目２２番７号兼松コミュニケーションズ株式会社（1011101031601）に合併し解散,2015-10-05,1,,,,,カネマツビーディーコミュニケーションズ,0
245,1290002050162,登記記録の閉鎖等,0,2022-04-20,2022-04-12,有限会社村上工業,,有限会社,福岡県,久留米市,長門石５丁目７番２１－１号,,40,203,8300027,,,2022-04-12,清算の結了等,,,2015-10-05,1,,,,,ムラカミコウギョウ,0
246,1290002055260,登記記録の閉鎖等,0,2022-04-20,2022-04-12,有限会社サンフレーム工業,,有限会社,福岡県,大牟田市,宮原町１丁目２７８番地の１,,40,202,8360875,,,2022-04-12,清算の結了等,,,2015-10-05,1,,,,,サンフレームコウギョウ,0
250,1320001013463,登記記録の閉鎖等,0,2022-04-20,2022-04-12,イデア企画株式会社,,株式会社,大分県,大分市,大字辻２２５番地の５,00119780,44,201,8797871,,,2022-04-12,清算の結了等,,,2015-10-05,1,,,,,イデアキカク,0
267,1370001010984,登記記録の閉鎖等,0,2022-04-20,2022-04-14,株式会社仙台ニッカサービス,,株式会社,宮城県,仙台市青葉区,ニッカ１番地,,04,101,9800000,,,2022-04-14,合併による解散等,1430001051080,令和４年４月１日北海道余市郡余市町黒川町七丁目１３３番地ニッカディスティラリーサービス株式会社（1430001051080）に合併し解散,2015-10-05,1,,,,,,0
276,1410002007884,登記記録の閉鎖等,0,2022-04-20,2022-04-01,有限会社小川配送センター,,有限会社,秋田県,湯沢市,稲庭町字大森沢１４４番地,,05,207,0120107,,,2022-04-01,合併による解散等,5410001005761,令和４年４月１日秋田県湯沢市稲庭町字大森沢１４４番地株式会社稲庭うどん小川（5410001005761）に合併し解散,2015-10-05,1,,,,,オガワハイソウセンター,0
328,2010601058062,登記記録の閉鎖等,0,2022-04-20,2022-04-15,株式会社秀和システムホールディングス,,株式会社,東京都,江東区,東陽２丁目４番２号,,13,108,1350016,,,2022-04-15,合併による解散等,2122001015871,令和４年４月１日大阪府大東市中垣内七丁目７番１号船井電機株式会社（2122001015871）に合併し解散,2020-10-01,1,,,,,シュウワシステムホールディングス,0
336,2010801008726,登記記録の閉鎖等,0,2022-04-20,2022-04-13,株式会社中野設備工業,,株式会社,東京都,大田区,鵜の木２丁目３１番１３号,,13,111,1460091,,,2022-04-13,清算の結了等,,,2015-10-05,1,,,,,ナカノセツビコウギョウ,0
361,2011101089688,登記記録の閉鎖等,0,2022-04-20,2022-04-11,株式会社レッドチーム・テクノロジーズ,,株式会社,東京都,新宿区,西新宿３丁目２０番２号,,13,104,1600023,,,2022-04-11,合併による解散等,4011101083391,令和４年４月１日東京都新宿区西新宿三丁目２０番２号株式会社ＡＧＥＳＴ（4011101083391）に合併し解散,2019-11-27,1,,,,,レッドチームテクノロジーズ,0
365,2011402019195,登記記録の閉鎖等,0,2022-04-20,2022-04-18,有限会社環境クリエイティブ,,有限会社,東京都,板橋区,仲宿５９番１４－７０１号,,13,119,1730005,,,2022-04-18,清算の結了等,,,2015-10-05,1,,,,,カンキョウクリエイティブ,0
368,2011502002299,登記記録の閉鎖等,0,2022-04-20,2022-04-15,有限会社三和化成工業,,有限会社,東京都,北区,田端３丁目１０番１号,,13,117,1140014,,,2022-04-15,清算の結了等,,,2015-10-05,1,,,,,サンワカセイコウギョウ,0
370,2011701001366,登記記録の閉鎖等,0,2022-04-20,2022-04-13,株式会社アイ・エフ・エス,,株式会社,千葉県,市原市,能満２０８９番地２６,,12,219,2900011,,,2022-04-13,清算の結了等,,,2015-10-05,1,,,,,アイエフエス,0
382,2020001142556,登記記録の閉鎖等,0,2022-04-20,2022-04-12,株式会社Ｔｒａｄｅｒ＆Ｄｅｌｉｇｈｔ,,株式会社,神奈川県,横浜市港北区,篠原東２丁目１０番６号,,14,109,2220022,,,2022-04-12,清算の結了等,,,2021-08-18,1,,,,,トレーダーアンドデライト,0
408,2040001010554,登記記録の閉鎖等,0,2022-04-20,2022-04-18,三井不動産リアルティ千葉株式会社,,株式会社,千葉県,千葉市中央区,新宿２丁目５番９号,,12,101,2600021,,,2022-04-18,合併による解散等,8010001140514,令和４年４月１日東京都千代田区霞が関三丁目２番５号三井不動産リアルティ株式会社（8010001140514）に合併し解散,2015-10-05,1,,,,,ミツイフドウサンリアルティチバ,0
409,2040001020710,登記記録の閉鎖等,0,2022-04-20,2022-04-11,株式会社コスモ精工,,株式会社,千葉県,八千代市,大和田６０４番地４,,12,221,2760045,,,2022-04-11,清算の結了等,,,2015-10-05,1,,,,,コスモセイコウ,0
411,2040001114925,登記記録の閉鎖等,0,2022-04-20,2022-04-11,エースビジネスマネジメント株式会社,,株式会社,千葉県,浦安市,東野３丁目１８－１１,,12,227,2790042,,,2022-04-11,清算の結了等,,,2020-09-03,1,,,,,エースビジネスマネジメント,0
420,2060001017267,登記記録の閉鎖等,0,2022-04-20,2022-04-12,株式会社アーレスティダイモールド栃木,,株式会社,栃木県,下都賀郡壬生町,大字壬生乙４０６０番地,,09,361,3210215,,,2022-04-12,合併による解散等,3080401003806,令和４年４月１日浜松市西区桜台五丁目３番１０号株式会社アーレスティダイモールド浜松（3080401003806）に合併し解散,2015-10-05,1,,,,,アーレスティダイモールドトチギ,0
442,2120001013664,登記記録の閉鎖等,0,2022-04-20,2022-04-11,株式会社松屋装飾,,株式会社,大阪府,大阪市中央区,谷町６丁目２番３３－５０５号,,27,128,5420012,,,2022-04-11,清算の結了等,,,2015-10-05,1,,,,,,0
499,2180001062004,登記記録の閉鎖等,0,2022-04-20,2022-04-13,株式会社名古屋マリンサービス,,株式会社,愛知県,名古屋市港区,入船２丁目２番６号,,23,111,4550032,,,2022-04-13,合併による解散等,5010401052816,令和４年４月１日東京都港区海岸三丁目１番８号株式会社全検ソリューションズ（5010401052816）に合併し解散,2015-10-05,1,,,,,ナゴヤマリンサービス,0
514,2200002005124,登記記録の閉鎖等,0,2022-04-20,2022-04-14,有限会社ライト建設工業,,有限会社,岐阜県,岐阜市,石原３丁目２１９番地の１,,21,201,5012535,,,2022-04-14,清算の結了等,,,2015-10-05,1,,,,,ライトケンセツコウギョウ,0
526,2240001029459,登記記録の閉鎖等,0,2022-04-20,2022-04-13,株式会社金尾鉄工所,,株式会社,広島県,福山市,神辺町字東中條２１３番地,,34,207,7210000,,,2022-04-13,清算の結了等,,,2015-10-05,1,,,,,カナオテッコウショ,0
530,2260005003128,登記記録の閉鎖等,0,2022-04-20,2022-04-19,特定非営利活動法人口腔健康科学ネット,,その他の設立登記法人,岡山県,岡山市北区,津島西坂１丁目２番３０号,,33,101,7000086,,,2022-04-19,清算の結了等,,,2015-10-05,1,,,,,,0
545,2330002007082,登記記録の閉鎖等,0,2022-04-20,2022-04-08,有限会社テックアグリ,,有限会社,熊本県,熊本市東区,画図町大字重富６３８番地９０,,43,102,8620947,,,2022-04-08,清算の結了等,,,2015-10-05,1,,,,,テックアグリ,0
553,2340002019069,登記記録の閉鎖等,0,2022-04-20,2022-04-18,有限会社南日本ビジネスブレーン,,有限会社,鹿児島県,指宿市,山川岡児ケ水１７５９番地,,46,210,8910513,,,2022-04-18,清算の結了等,,,2015-10-05,1,,,,,ミナミニッポンビジネスブレーン,0
573,2430001039686,登記記録の閉鎖等,0,2022-04-20,2022-04-13,株式会社ニッコクトラスト北海道,,株式会社,北海道,札幌市北区,北七条西２丁目６番地,,01,102,0600807,,,2022-04-13,合併による解散等,3010001025934,令和４年４月１日東京都中央区日本橋堀留町二丁目４番３号株式会社ニッコクトラスト（3010001025934）に合併し解散,2015-10-05,1,,,,,ニッコクトラストホッカイドウ,0
592,3010001132061,登記記録の閉鎖等,0,2022-04-20,2022-04-11,株式会社エス・ビー・オー,,株式会社,東京都,千代田区,神田練塀町３００番地,,13,101,1010022,,,2022-04-11,合併による解散等,3011101060004,令和４年４月１日東京都千代田区神田練塀町３００番地株式会社オープンアップシステム（3011101060004）に合併し解散,2015-10-05,1,,,,,エスビーオー,0
617,3010501007556,登記記録の閉鎖等,0,2022-04-20,2022-04-19,株式会社サトウ,,株式会社,東京都,台東区,松が谷３丁目１３番２号,,13,106,1110036,,,2022-04-19,清算の結了等,,,2015-10-05,1,,,,,サトウ,0
620,3010701021200,登記記録の閉鎖等,0,2022-04-20,2022-04-12,株式会社学研ライツマネジメント,,株式会社,東京都,品川区,西五反田２丁目１１番８号,,13,109,1410031,,,2022-04-12,合併による解散等,2010701022777,令和４年４月１日東京都品川区西五反田二丁目１１番８号株式会社学研プラス（2010701022777）に合併し解散,2015-10-05,1,,,,,ガッケンライツマネジメント,0
634,3011001069211,登記記録の閉鎖等,0,2022-04-20,2022-04-13,Ｇ＆Ｈ株式会社,,株式会社,東京都,豊島区,東池袋１丁目１７番３号１００４号室,,13,116,1700013,,,2022-04-13,清算の結了等,,,2015-10-05,1,,,,,ジーアンドエイチ,0
638,3011101046201,登記記録の閉鎖等,0,2022-04-20,2022-04-14,サイファード株式会社,,株式会社,東京都,新宿区,新小川町６番２７号,,13,104,1620814,,,2022-04-14,清算の結了等,,,2015-10-05,1,,,,,サイファード,0
674,3020001121385,登記記録の閉鎖等,0,2022-04-20,2022-04-11,株式会社イエダン,,株式会社,神奈川県,横浜市南区,三春台１０６番地エステートピア春風１０３号,,14,105,2320002,,,2022-04-11,清算の結了等,,,2017-05-18,1,,,,,イエダン,0
685,3030001062216,登記記録の閉鎖等,0,2022-04-20,2022-04-11,株式会社アローインフォメーション,,株式会社,東京都,千代田区,神田練塀町３００番地,,13,101,1010022,,,2022-04-11,合併による解散等,3011101060004,令和４年４月１日東京都千代田区神田練塀町３００番地株式会社オープンアップシステム（3011101060004）に合併し解散,2015-10-05,1,,,,,アローインフォメーション,0
687,3030001073989,登記記録の閉鎖等,0,2022-04-20,2022-04-12,株式会社エヌ・エム・ティ,,株式会社,埼玉県,川口市,川口１丁目５番１４－１Ｃ号,,11,203,3320015,,,2022-04-12,清算の結了等,,,2015-10-05,1,,,,,エヌエムティ,0
695,3040001022152,登記記録の閉鎖等,0,2022-04-20,2022-04-12,株式会社技術情報サービス,,株式会社,千葉県,船橋市,田喜野井４丁目４番８号,,12,204,2740073,,,2022-04-12,清算の結了等,,,2015-10-05,1,,,,,ギジュツジョウホウサービス,0
697,3040001091503,登記記録の閉鎖等,0,2022-04-20,2022-04-12,株式会社ディープエモーション,,株式会社,千葉県,千葉市花見川区,朝日ケ丘５丁目１６－１３,,12,102,2620019,,,2022-04-12,清算の結了等,,,2015-10-05,1,,,,,ディープエモーション,0
702,3040002083045,登記記録の閉鎖等,0,2022-04-20,2022-04-12,有限会社米屋石油,,有限会社,千葉県,匝瑳市,吉崎７４番地１,,12,235,2892122,,,2022-04-12,清算の結了等,,,2015-10-05,1,,,,,コメヤセキユ,0
703,3040002085454,登記記録の閉鎖等,0,2022-04-20,2022-04-11,有限会社郷久兵衛商店,,有限会社,千葉県,銚子市,東町７番地の３,,12,202,2880053,,,2022-04-11,清算の結了等,,,2015-10-05,1,,,,,ゴウキュウベエショウテン,0
709,3060001014610,登記記録の閉鎖等,0,2022-04-20,2022-04-14,東日本鍛造株式会社,,株式会社,栃木県,小山市,城東４丁目５番１１号,,09,208,3230807,,,2022-04-14,合併による解散等,2010001154791,令和４年４月１日東京都千代田区大手町一丁目７番２号株式会社ＵＡＣＪ鋳鍛（2010001154791）に合併し解散,2015-10-05,1,,,,,ヒガシニホンタンゾウ,0
717,3080001016951,登記記録の閉鎖等,0,2022-04-20,2022-04-13,株式会社ミック,,株式会社,愛知県,名古屋市中村区,名駅３丁目２８番１２号,,23,105,4500002,,,2022-04-13,合併による解散等,8010001028040,令和４年４月１日東京都千代田区神田練塀町６８番地１ムラタヤビル３階株式会社ユニスマイル（8010001028040）に合併し解散,2015-10-05,1,,,,,ミック,0
783,3140005021529,登記記録の閉鎖等,0,2022-04-20,2022-04-18,特定非営利活動法人尼崎・スマイル,,その他の設立登記法人,兵庫県,西宮市,津門大箇町１１番２０号,,28,204,6638243,,,2022-04-18,清算の結了等,,,2015-10-05,1,,,,,アマガサキスマイル,0
790,3180001013658,登記記録の閉鎖等,0,2022-04-20,2022-04-11,メイリツコンポーネント株式会社,,株式会社,愛知県,名古屋市名東区,貴船３丁目１４０４番地,,23,115,4650058,,,2022-04-11,清算の結了等,,,2015-10-05,1,,,,,メイリツコンポーネント,0
811,3200001017409,登記記録の閉鎖等,0,2022-04-20,2022-04-15,株式会社古田オート,,株式会社,岐阜県,加茂郡東白川村,神土５８２番地の６,,21,507,5091302,,,2022-04-15,合併による解散等,1200002018358,令和４年４月１５日岐阜県加茂郡東白川村越原１００９番地２ウィズドライブ株式会社（1200002018358）に合併し解散,2015-10-05,1,,,,,フルタオート,0
844,3300002011045,登記記録の閉鎖等,0,2022-04-20,2022-04-11,有限会社玄海養魚,,有限会社,佐賀県,唐津市,鎮西町名護屋１３５１番地１７,,41,202,8470401,,,2022-04-11,合併による解散等,5340001006585,令和４年４月１日鹿児島市黒神町２５８７番地４３株式会社マルハニチロＡＱＵＡ（5340001006585）に合併し解散,2015-10-05,1,,,,,ゲンカイヨウギョ,0
853,3350001011330,登記記録の閉鎖等,0,2022-04-20,2022-04-14,自然素材主義株式会社,,株式会社,宮崎県,都城市,山田町中霧島４４８０番地１０,,45,202,8894602,,,2022-04-14,合併による解散等,9350001012100,令和４年４月１日宮崎県都城市山田町中霧島４４８０番地１０株式会社高千穂シラスアグリ研究所（9350001012100）に合併し解散,2015-10-05,1,,,,,シゼンソザイシュギ,0
870,3380001021260,登記記録の閉鎖等,0,2022-04-20,2022-04-14,ＭＩＹＡＤＥＮ株式会社,,株式会社,東京都,八王子市,元横山町３丁目１０番１８号,,13,201,1920063,,,2022-04-14,清算の結了等,,,2015-10-05,1,,,,,ミヤデン,0
872,3380002016202,登記記録の閉鎖等,0,2022-04-20,2022-04-14,有限会社菅野送電,,有限会社,福島県,二本松市,大壇１２１番地の２０,,07,210,9640891,,,2022-04-14,清算の結了等,,,2015-10-05,1,,,,,カンノソウデン,0
877,3400502001337,登記記録の閉鎖等,0,2022-04-20,2022-04-19,有限会社オートリーダーフラット,,有限会社,岩手県,一関市,室根町矢越字高沢２２６番地,,03,209,0291202,,,2022-04-19,清算の結了等,,,2015-10-05,1,,,,,,0
906,4010001125477,登記記録の閉鎖等,0,2022-04-20,2022-04-14,株式会社イチネンジコー,,株式会社,東京都,港区,芝浦４丁目２番８号,,13,103,1080023,,,2022-04-14,合併による解散等,6180001138700,令和４年４月１日名古屋市天白区道明町１５番地株式会社イチネン製作所（6180001138700）に合併し解散,2015-10-05,1,,,,,イチネンジコー,0
929,4010403016233,登記記録の閉鎖等,0,2022-04-20,2022-04-18,合同会社ファーストハウス,,合同会社,東京都,港区,南青山２丁目２番１５号,,13,103,1070062,,,2022-04-18,合併による解散等,2011003008580,令和４年４月１日東京都渋谷区渋谷三丁目１番９号合同会社セカンドハウス（2011003008580）に合併し解散,2017-03-03,1,,,,,,0
940,4010701001052,登記記録の閉鎖等,0,2022-04-20,2022-04-18,ＴＦトータルサービス株式会社,,株式会社,東京都,品川区,東五反田２丁目１４番１号,,13,109,1410022,,,2022-04-18,合併による解散等,1013201004024,令和４年４月１日東京都世田谷区用賀四丁目１０番２号東急プロパティマネジメント株式会社（1013201004024）に合併し解散,2015-10-05,1,,,,,ティーエフトータルサービス,0
946,4010801016900,登記記録の閉鎖等,0,2022-04-20,2022-04-13,株式会社Ａｓｓｉｓｔ．Ａ,,株式会社,東京都,大田区,山王２丁目１番２号,,13,111,1430023,,,2022-04-13,清算の結了等,,,2015-10-05,1,,,,,アシストエー,0
974,4011601003808,登記記録の閉鎖等,0,2022-04-20,2022-04-18,株式会社第一ファイナンス,,株式会社,東京都,練馬区,南大泉３丁目８番８号,,13,120,1780064,,,2022-04-18,清算の結了等,,,2015-10-05,1,,,,,ダイイチファイナンス,0
978,4011702004102,登記記録の閉鎖等,0,2022-04-20,2022-04-18,有限会社五一不動産,,有限会社,東京都,江戸川区,南小岩７丁目３０番７号,,13,123,1330056,,,2022-04-18,清算の結了等,,,2015-10-05,1,,,,,,0
983,4012401016388,登記記録の閉鎖等,0,2022-04-20,2022-04-07,株式会社クニガーデン,,株式会社,東京都,狛江市,元和泉２丁目１７番１７号,,13,219,2010013,,,2022-04-07,清算の結了等,,,2015-10-05,1,,,,,クニガーデン,0
994,4013302018721,登記記録の閉鎖等,0,2022-04-20,2022-04-13,有限会社石のオオヤマ,,有限会社,東京都,豊島区,千早１丁目２７番１号,,13,116,1710044,,,2022-04-13,清算の結了等,,,2021-06-29,1,,,,,イシノオオヤマ,0
1004,4020002088490,登記記録の閉鎖等,0,2022-04-20,2022-04-12,有限会社大塚電機,00011521,有限会社,神奈川県,川崎市高津区,梶ケ谷６丁目１３番地６,,14,134,2130015,,,2022-04-12,清算の結了等,,,2015-10-05,1,,,,,オオツカデンキ,0
1027,4050001014651,登記記録の閉鎖等,0,2022-04-20,2022-04-12,株式会社関東商事,,株式会社,茨城県,下妻市,大木１２５２番地３,,08,210,3040004,,,2022-04-12,清算の結了等,,,2015-10-05,1,,,,,カントウショウジ,0
1052,4120001097037,登記記録の閉鎖等,0,2022-04-20,2022-04-18,株式会社サポート・システム,,株式会社,大阪府,大阪市北区,曾根崎新地２丁目１番２３号,,27,127,5300002,,,2022-04-18,合併による解散等,3140001041142,令和４年４月１日東京都品川区東五反田一丁目１１番１５号ＵＴコネクト株式会社（3140001041142）に合併し解散,2015-10-05,1,,,,,サポートシステム,0
1053,4120001104965,登記記録の閉鎖等,0,2022-04-20,2022-04-11,株式会社Ｑｒｉｐｔ,,株式会社,大阪府,大阪市中央区,南船場３丁目７番２７号,,27,128,5420081,,,2022-04-11,合併による解散等,4120001130771,令和４年４月１日大阪市中央区南船場三丁目７番２７号株式会社Ｐｅｎｓｅｕｒ（4120001130771）に合併し解散,2015-10-05,1,,,,,クリプト,0
1063,4120001235455,登記記録の閉鎖等,0,2022-04-20,2022-04-11,株式会社ＢｕｚｚＴｕｂｅ,,株式会社,愛知県,清須市,助七１丁目１２５番４号,,23,233,4520903,,,2022-04-11,清算の結了等,,,2021-02-24,1,,,,,バズチューブ,0
1065,4120002062007,登記記録の閉鎖等,0,2022-04-20,2022-04-14,有限会社ライフサポート,,有限会社,大阪府,大阪市都島区,善源寺町１丁目１２番２２号,,27,102,5340015,,,2022-04-14,清算の結了等,,,2015-10-05,1,,,,,ライフサポート,0
1071,4120102005451,登記記録の閉鎖等,0,2022-04-20,2022-04-15,有限会社全生プラスチック,,有限会社,大阪府,高石市,綾園３丁目１５番１５号,,27,225,5920014,,,2022-04-15,清算の結了等,,,2015-10-05,1,,,,,マサキプラスチック,0
1085,4130003004089,登記記録の閉鎖等,0,2022-04-20,2022-04-07,合名会社津田不動産管理,,合名会社,京都府,京都市西京区,牛ケ瀬弥生町７２番地,,26,111,6158046,,,2022-04-07,清算の結了等,,,2015-10-05,1,,,,,ツダフドウサンカンリ,0
1088,4130005012825,登記記録の閉鎖等,0,2022-04-20,2022-04-07,一般財団法人京都府中小企業センター,,その他の設立登記法人,京都府,京都市下京区,四条通室町東入函谷鉾町７８番地,,26,106,6008009,,,2022-04-07,合併による解散等,7130005012500,令和４年４月１日京都市下京区中堂寺南町１３４番地公益財団法人京都産業２１（7130005012500）に合併し解散,2015-10-05,1,,,,,キョウトフチュウショウキギョウセンター,0
1091,4140001087366,登記記録の閉鎖等,0,2022-04-20,2022-04-14,株式会社ハート,,株式会社,兵庫県,尼崎市,額田町２番１７号エクセル山手１０２,,28,202,6610962,,,2022-04-14,清算の結了等,,,2015-10-05,1,,,,,ハート,0
1109,4180001039289,登記記録の閉鎖等,0,2022-04-20,2022-04-13,株式会社ナルネットコミュニケーションズ,,株式会社,愛知県,春日井市,下市場町５丁目１番地１６,,23,206,4860852,,,2022-04-13,合併による解散等,9010401147034,令和４年４月１日東京都港区虎ノ門一丁目２３番１号ジャフコグループ株式会社内株式会社ナルネットコミュニケーションズ（9010401147034）に合併し解散,2015-10-05,1,,,,,ナルネットコミュニケーションズ,0
1171,4370802001279,登記記録の閉鎖等,0,2022-04-20,2022-04-08,有限会社斎藤建材,,有限会社,宮城県,亘理郡亘理町,逢隈牛袋字南谷地添６番地の７,00082182,04,361,9892302,,,2022-04-08,清算の結了等,,,2015-10-05,1,,,,,サイトウケンザイ,0
1175,4380005011075,登記記録の閉鎖等,0,2022-04-20,2022-04-12,特定非営利活動法人湯田組,,その他の設立登記法人,福島県,岩瀬郡天栄村,大字湯本字居平４４番地,,07,344,9620621,,,2022-04-12,清算の結了等,,,2015-10-05,1,,,,,ユダクミ,0
1185,4430001022343,登記記録の閉鎖等,0,2022-04-20,2022-04-13,株式会社北海道日建設計,,株式会社,北海道,札幌市中央区,大通西８丁目２番地,,01,101,0600042,,,2022-04-13,合併による解散等,9010001006111,令和４年４月１日東京都千代田区飯田橋二丁目１８番３号株式会社日建設計（9010001006111）に合併し解散,2015-10-05,1,,,,,ホッカイドウニッケンセッケイ,0
1204,5010001195718,登記記録の閉鎖等,0,2022-04-20,2022-04-04,クリムヒルト・グレートヒェン・アンド・カンパニー株式会社,,株式会社,東京都,中央区,銀座７丁目１３番６号サガミビル２階,,13,102,1040061,,,2022-04-04,清算の結了等,,,2018-10-24,1,,,,,クリムヒルトグレートヒェンアンドカンパニー,0
1212,5010401159413,登記記録の閉鎖等,0,2022-04-20,2022-04-14,ゼクサスチェン株式会社,,株式会社,東京都,港区,東新橋２丁目３番１７号,,13,103,1050021,,,2022-04-14,合併による解散等,9010001221552,令和４年４月１日東京都千代田区丸の内三丁目４番１号ゼクサスチェン株式会社（9010001221552）に合併し解散,2021-04-08,1,,,,,ゼクサスチェン,0
1218,5010601033351,登記記録の閉鎖等,0,2022-04-20,2022-04-07,株式会社コンテック,,株式会社,東京都,墨田区,吾妻橋１丁目１０番４号,,13,107,1300001,,,2022-04-07,清算の結了等,,,2015-10-05,1,,,,,コンテック,0
1243,5011601015133,登記記録の閉鎖等,0,2022-04-20,2022-04-18,株式会社アクシス,,株式会社,東京都,練馬区,向山４丁目９番１５－２０７号,,13,120,1760022,,,2022-04-18,清算の結了等,,,2015-10-05,1,,,,,,0
1252,5013302018134,登記記録の閉鎖等,0,2022-04-20,2022-04-13,有限会社和吉,,有限会社,東京都,豊島区,西池袋２丁目３２番７号,,13,116,1710021,,,2022-04-13,清算の結了等,,,2015-10-05,1,,,,,,0
1255,5013305000601,登記記録の閉鎖等,0,2022-04-20,2022-04-13,池袋乱歩通り商店街振興組合,,その他の設立登記法人,東京都,豊島区,池袋２丁目２３番１号,,13,116,1710014,,,2022-04-13,清算の結了等,,,2015-10-05,1,,,,,イケブクロランポドオリ,0
1265,5021001067625,登記記録の閉鎖等,0,2022-04-20,2022-04-18,盛世株式会社,,株式会社,東京都,江戸川区,平井１丁目９番１５号,,13,123,1320035,,,2022-04-18,清算の結了等,,,2019-07-09,1,,,,,モリセイ,0
1271,5030001015618,登記記録の閉鎖等,0,2022-04-20,2022-04-13,ジェイ・キャピタル株式会社,,株式会社,埼玉県,さいたま市中央区,上落合６丁目５番１９号,,11,105,3380001,,,2022-04-13,清算の結了等,,,2015-10-05,1,,,,,,0
1287,5030003013537,登記記録の閉鎖等,0,2022-04-20,2022-04-12,合同会社ミカサ,,合同会社,埼玉県,草加市,新善町４７１番地２,,11,221,3400054,,,2022-04-12,清算の結了等,,,2019-05-16,1,,,,,ミカサ,0
1290,5040001011343,登記記録の閉鎖等,0,2022-04-20,2022-04-13,株式会社さくらソフト,,株式会社,千葉県,千葉市花見川区,検見川町３丁目３１６番２号２階,,12,102,2620023,,,2022-04-13,清算の結了等,,,2015-10-05,1,,,,,サクラソフト,0
1310,5080401014000,登記記録の閉鎖等,0,2022-04-20,2022-04-12,株式会社オーク,,株式会社,静岡県,浜松市浜北区,寺島２５８６番地の１,,22,136,4340035,,,2022-04-12,清算の結了等,,,2015-10-05,1,,,,,オーク,0
1312,5080405006266,登記記録の閉鎖等,0,2022-04-20,2022-04-11,そこがみそ原田企業組合,,その他の設立登記法人,静岡県,掛川市,原里１５２１番地,,22,213,4360105,,,2022-04-11,清算の結了等,,,2015-10-05,1,,,,,ソコガミソハラダ,0
1314,5100002001072,登記記録の閉鎖等,0,2022-04-20,2022-04-14,有限会社ケーアイエム,,有限会社,長野県,長野市,大字高田１２５６番地７,,20,201,3810034,,,2022-04-14,清算の結了等,,,2015-10-05,1,,,,,ケーアイエム,0
1325,5120001125358,登記記録の閉鎖等,0,2022-04-20,2022-04-18,株式会社エアーサプライ,,株式会社,大阪府,豊能郡豊能町,新光風台５丁目１１番地の１２,,27,321,5630105,,,2022-04-18,清算の結了等,,,2015-10-05,1,,,,,エアーサプライ,0
1335,5120003008718,登記記録の閉鎖等,0,2022-04-20,2022-04-11,合同会社ＵＪＩＴＡ,,合同会社,大阪府,枚方市,須山町４９番７号,,27,210,5731164,,,2022-04-11,清算の結了等,,,2015-10-05,1,,,,,,0
1355,5130002011143,登記記録の閉鎖等,0,2022-04-20,2022-04-13,有限会社匠,,有限会社,京都府,京都市南区,久世上久世町４４６番地,,26,107,6018212,,,2022-04-13,清算の結了等,,,2015-10-05,1,,,,,タクミ,0
1393,5210001010170,登記記録の閉鎖等,0,2022-04-20,2022-04-07,エコテック忠南株式会社,,株式会社,福井県,大野市,東大月第１４号２７番地２,,18,205,9120003,,,2022-04-07,清算の結了等,,,2015-10-05,1,,,,,エコテックチュウナン,0
1399,5230005000538,登記記録の閉鎖等,0,2022-04-20,2022-04-13,生活協同組合コープとやま,,その他の設立登記法人,富山県,富山市,堀川町２０６番地の５,,16,201,9398072,,,2022-04-13,合併による解散等,2230005000532,令和４年４月１日富山市金屋５５５番地富山県生活協同組合（2230005000532）に合併し解散,2015-10-05,1,,,,,,0
1400,5240001032245,登記記録の閉鎖等,0,2022-04-20,2022-04-18,株式会社マルビック,,株式会社,広島県,福山市,春日町６丁目２番１１号,,34,207,7210907,,,2022-04-18,清算の結了等,,,2015-10-05,1,,,,,,0
1404,5240002043142,登記記録の閉鎖等,0,2022-04-20,2022-04-13,有限会社丸晶,,有限会社,広島県,福山市,駅家町大字弥生ケ丘１０番地の８２３,,34,207,7201135,,,2022-04-13,清算の結了等,,,2015-10-05,1,,,,,マルショウ,0
1407,5260002000158,登記記録の閉鎖等,0,2022-04-20,2022-04-18,有限会社アオバ,,有限会社,岡山県,岡山市南区,妹尾５０１番地の１,,33,104,7010205,,,2022-04-18,清算の結了等,,,2015-10-05,1,,,,,アオバ,0
1409,5270001000182,登記記録の閉鎖等,0,2022-04-20,2022-04-07,協洋化成工業株式会社,,株式会社,鳥取県,鳥取市,南栄町３３番地２０,,31,201,6891121,,,2022-04-07,清算の結了等,,,2015-10-05,1,,,,,キョウヨウカセイコウギョウ,0
1430,5350002011682,登記記録の閉鎖等,0,2022-04-20,2022-04-15,有限会社あさひ印刷,,有限会社,宮崎県,延岡市,出北３丁目３７番１７号,,45,203,8820856,,,2022-04-15,清算の結了等,,,2015-10-05,1,,,,,アサヒインサツ,0
1455,5430001067734,登記記録の閉鎖等,0,2022-04-20,2022-04-18,株式会社アセット・デザイン,,株式会社,北海道,札幌市東区,東苗穂十五条１丁目３番１３号,,01,103,0070815,,,2022-04-18,清算の結了等,,,2015-10-05,1,,,,,アセットデザイン,0
1498,6010401117452,登記記録の閉鎖等,0,2022-04-20,2022-04-14,ガストロノミー・パートナーズ株式会社,,株式会社,東京都,港区,南青山３丁目４番４号－３０２号,,13,103,1070062,,,2022-04-14,合併による解散等,8010001179437,令和４年４月１日東京都千代田区大手町一丁目１番３号株式会社ＯＮＯＤＥＲＡホールディングス（8010001179437）に合併し解散,2015-10-05,1,,,,,ガストロノミーパートナーズ,0
1503,6010601050577,登記記録の閉鎖等,0,2022-04-20,2022-04-01,大和リビングステイ株式会社,,株式会社,東京都,新宿区,西新宿６丁目１１番３号,,13,104,1600023,,,2022-04-01,合併による解散等,5010601042427,令和４年４月１日東京都新宿区西新宿六丁目１１番３号大和リビング株式会社（5010601042427）に合併し解散,2016-10-26,1,,,,,ダイワリビングステイ,0
1530,6011301021249,登記記録の閉鎖等,0,2022-04-20,2022-04-06,株式会社Ｓｙｎｆｏｎｉａ　Ｇｒａｐｈｉｃｓ,,株式会社,東京都,杉並区,荻窪５丁目１４番５号ワコーレ荻窪３０２号室,,13,115,1670051,,,2022-04-06,清算の結了等,,,2015-10-05,1,,,,,シンフォニアグラフィックス,0
1535,6011601015173,登記記録の閉鎖等,0,2022-04-20,2022-04-06,株式会社ビジネスアプリケーション,,株式会社,東京都,豊島区,南池袋１丁目１３番２３号,,13,116,1710022,,,2022-04-06,合併による解散等,6011101029839,令和４年４月１日東京都豊島区南池袋一丁目１３番２３号株式会社ヒューアップテクノロジー（6011101029839）に合併し解散,2015-10-05,1,,,,,ビジネスアプリケーション,0
1542,6011803004643,登記記録の閉鎖等,0,2022-04-20,2022-04-13,合同会社エーアール,,合同会社,東京都,葛飾区,立石６丁目１０番３号,,13,122,1240012,,,2022-04-13,清算の結了等,,,2021-06-08,1,,,,,エーアール,0
1553,6013303004578,登記記録の閉鎖等,0,2022-04-20,2022-04-12,合同会社ＹＵＴＨＯＭＡＳ　ＦＡＭＩＬＹ　ＦＵＮＤ,,合同会社,東京都,豊島区,東池袋４丁目２１番１－５００９号,,13,116,1700013,,,2022-04-12,清算の結了等,,,2019-04-04,1,,,,,ユウトーマスファミリーファンド,0
1561,6021001017018,登記記録の閉鎖等,0,2022-04-20,2022-04-12,ロバスト・セキュリティ・デザイン株式会社,,株式会社,神奈川県,相模原市中央区,相生３丁目１０番１１号,,14,152,2520235,,,2022-04-12,清算の結了等,,,2015-10-05,1,,,,,ロバストセキュリティデザイン,0
1579,6040001017694,登記記録の閉鎖等,0,2022-04-20,2022-04-15,株式会社総合パーキングサービス,,株式会社,千葉県,船橋市,本町７丁目１番１号,,12,204,2730005,,,2022-04-15,合併による解散等,3013301009326,令和４年４月１日東京都豊島区西池袋一丁目１番３０号日本パーキングビルサービス株式会社（3013301009326）に合併し解散,2015-10-05,1,,,,,ソウゴウパーキングサービス,0
1600,6060002037938,登記記録の閉鎖等,0,2022-04-20,2022-04-13,有限会社萩原興業,,有限会社,栃木県,足利市,堀込町１２６番地８,,09,202,3260831,,,2022-04-13,清算の結了等,,,2015-10-05,1,,,,,ハギワラコウギョウ,0
1605,6070001021041,登記記録の閉鎖等,0,2022-04-20,2022-04-08,株式会社サンエンジニアリング,,株式会社,群馬県,太田市,亀岡町６６５番地３,,10,205,3700411,,,2022-04-08,清算の結了等,,,2015-10-05,1,,,,,サンエンジニアリング,0
1623,6090001001834,登記記録の閉鎖等,0,2022-04-20,2022-04-14,株式会社ファセラ宮川,,株式会社,山梨県,甲府市,幸町２番１３号,,19,201,4000857,,,2022-04-14,清算の結了等,,,2015-10-05,1,,,,,ファセラミヤガワ,0
1679,6170003000529,登記記録の閉鎖等,0,2022-04-20,2022-04-15,合資会社コスモテック,,合資会社,和歌山県,橋本市,神野々１０２０－１３,,30,203,6480086,,,2022-04-15,清算の結了等,,,2015-10-05,1,,,,,コスモテック,0
1699,6230001015431,登記記録の閉鎖等,0,2022-04-20,2022-04-13,宇奈月ホテル株式会社,,株式会社,富山県,黒部市,宇奈月温泉３５２番地７,,16,207,9380282,,,2022-04-13,合併による解散等,5010401037412,令和４年４月１日東京都港区浜松町二丁目３番１号オリックス不動産株式会社（5010401037412）に合併し解散,2015-10-05,1,,,,,,0
1705,6240001050717,登記記録の閉鎖等,0,2022-04-20,2022-04-18,株式会社ｓｈｉｅｎｏｒｉ,,株式会社,広島県,広島市中区,中町１番１３号２階,,34,101,7300037,,,2022-04-18,清算の結了等,,,2017-03-03,1,,,,,,0
1706,6240001055278,登記記録の閉鎖等,0,2022-04-20,2022-04-15,株式会社ＭＯＣ,,株式会社,広島県,廿日市市,地御前北３丁目２７番１３号,,34,213,7380043,,,2022-04-15,清算の結了等,,,2019-11-21,1,,,,,モック,0
1723,6290005017377,登記記録の閉鎖等,0,2022-04-20,2022-04-15,一般社団法人旧頴田町地域活性化協議会,,その他の設立登記法人,福岡県,飯塚市,勢田１２７９番地９,,40,205,8201111,,,2022-04-15,清算の結了等,,,2019-07-05,1,,,,,キュウカイタチョウチイキカッセイカキョウギカイ,0
1725,6290801019931,登記記録の閉鎖等,0,2022-04-20,2022-04-13,株式会社シゲマツ,,株式会社,福岡県,北九州市八幡西区,永犬丸東町２丁目１３番１５号,,40,109,8070842,,,2022-04-13,清算の結了等,,,2015-10-05,1,,,,,シゲマツ,0
1735,6310002014985,登記記録の閉鎖等,0,2022-04-20,2022-04-13,有限会社エイシン,,有限会社,長崎県,諫早市,小船越町１０９６番地３,,42,204,8540062,,,2022-04-13,清算の結了等,,,2015-10-05,1,,,,,エイシン,0
1768,6430002036539,登記記録の閉鎖等,0,2022-04-20,2022-04-11,有限会社ナフダ,,有限会社,北海道,札幌市南区,石山一条３丁目１番３８号,,01,106,0050841,,,2022-04-11,清算の結了等,,,2015-10-05,1,,,,,ナフダ,0
1776,6480002007262,登記記録の閉鎖等,0,2022-04-20,2022-04-18,有限会社エムエイト,,有限会社,徳島県,吉野川市,鴨島町知恵島１５８６－３,,36,205,7760014,,,2022-04-18,清算の結了等,,,2015-10-05,1,,,,,エムエイト,0
1778,6500001004555,登記記録の閉鎖等,0,2022-04-20,2022-04-12,四国エンジニアリングサービス株式会社,,株式会社,愛媛県,松山市,土居田町３３６番地１,,38,201,7900056,,,2022-04-12,合併による解散等,1010801018437,令和４年４月１日東京都港区港南一丁目７番１８号水ｉｎｇ株式会社（1010801018437）に合併し解散,2015-10-05,1,,,,,シコクエンジニアリングサービス,0
1793,7010401081193,登記記録の閉鎖等,0,2022-04-20,2022-04-11,東京ガスパイプライン株式会社,,株式会社,東京都,港区,海岸１丁目５番２０号,,13,103,1050022,,,2022-04-11,合併による解散等,1010401159334,令和４年４月１日東京都港区海岸一丁目５番２０号東京ガスネットワーク株式会社（1010401159334）に合併し解散,2015-10-05,1,,,,,トウキョウガスパイプライン,0
1796,7010401099368,登記記録の閉鎖等,0,2022-04-20,2022-04-04,クルール株式会社,,株式会社,東京都,中央区,八丁堀４丁目１４番７号,,13,102,1040032,,,2022-04-04,清算の結了等,,,2015-10-05,1,,,,,クルール,0
1800,7010401117534,登記記録の閉鎖等,0,2022-04-20,2022-04-15,株式会社ＴＯＫＡＩホームガス,,株式会社,東京都,港区,海岸１丁目９番１号浜離宮インターシティ,,13,103,1050022,,,2022-04-15,合併による解散等,7080001001735,令和４年４月１日静岡市葵区常磐町二丁目６番地の８株式会社ザ・トーカイ（7080001001735）に合併し解散,2015-10-05,1,,,,,トーカイホームガス,0
1801,7010401119794,登記記録の閉鎖等,0,2022-04-20,2022-04-14,ＲＥＸＡ株式会社,,株式会社,東京都,港区,虎ノ門３丁目４番７号,,13,103,1050001,,,2022-04-14,清算の結了等,,,2015-10-05,1,,,,,レクサ,0
1803,7010401143670,登記記録の閉鎖等,0,2022-04-20,2022-04-14,エムスリークリニックエステート株式会社,,株式会社,東京都,港区,赤坂１丁目１１番４４号,,13,103,1070052,,,2022-04-14,清算の結了等,,,2019-02-07,1,,,,,エムスリークリニックエステート,0
1811,7010601034694,登記記録の閉鎖等,0,2022-04-20,2022-04-14,とうけん不動産株式会社,,株式会社,東京都,港区,新橋５丁目２８番７号,,13,103,1050004,,,2022-04-14,合併による解散等,4010001023838,令和４年４月１日東京都千代田区神田三崎町二丁目２０番４号テクオス株式会社（4010001023838）に合併し解散,2015-10-05,1,,,,,トウケンフドウサン,0
1929,7070001021040,登記記録の閉鎖等,0,2022-04-20,2022-04-08,株式会社シンセン,,株式会社,群馬県,太田市,亀岡町６６５番地の３,,10,205,3700411,,,2022-04-08,清算の結了等,,,2015-10-05,1,,,,,シンセン,0
1943,7110002009872,登記記録の閉鎖等,0,2022-04-20,2022-04-13,有限会社ミッキー・ハウス,,有限会社,新潟県,新潟市秋葉区,新栄町２９番１１号,,15,105,9560033,,,2022-04-13,清算の結了等,,,2015-10-05,1,,,,,ミッキーハウス,0
1945,7110002034482,登記記録の閉鎖等,0,2022-04-20,2022-04-14,有限会社佐渡ソーイング,,有限会社,新潟県,佐渡市,新穂大野１８１０番地１,,15,224,9520109,,,2022-04-14,清算の結了等,,,2015-10-05,1,,,,,サドソーイング,0
1955,7120001237242,登記記録の閉鎖等,0,2022-04-20,2022-04-11,山田マーケティング株式会社,,株式会社,大阪府,大阪市城東区,今福西２丁目１１番１７号,,27,118,5360004,,,2022-04-11,合併による解散等,4120001014561,令和４年４月１日大阪市城東区新喜多二丁目６番１４号カーディナル株式会社（4120001014561）に合併し解散,2021-05-10,1,,,,,ヤマダマーケティング,0
1980,7140001032187,登記記録の閉鎖等,0,2022-04-20,2022-04-18,Ｆレンタカー兵庫株式会社,,株式会社,兵庫県,神戸市中央区,神戸空港３番地４,,28,110,6500048,,,2022-04-18,合併による解散等,6120001165246,令和４年４月１日大阪市浪速区桜川二丁目１１番１０号Ｆレンタカー株式会社（6120001165246）に合併し解散,2015-10-05,1,,,,,エフレンタカーヒョウゴ,0
1992,7150001009721,登記記録の閉鎖等,0,2022-04-20,2022-04-14,角俵造林株式会社,,株式会社,奈良県,吉野郡東吉野村,大字狹戸２０３番地,,29,453,6332441,,,2022-04-14,清算の結了等,,,2015-10-05,1,,,,,カクヒョウゾウリン,0
2003,7190005011372,登記記録の閉鎖等,0,2022-04-20,2022-04-08,特定非営利活動法人未来への扉,,その他の設立登記法人,三重県,北牟婁郡紀北町,東長島３４５０番地１,,24,543,5193204,,,2022-04-08,清算の結了等,,,2019-11-01,1,,,,,ミライヘノトビラ,0
2008,7220005004389,登記記録の閉鎖等,0,2022-04-20,2022-04-12,特定非営利活動法人Ｉ　Ｌｏｖｅ　加賀ネット,,その他の設立登記法人,石川県,加賀市,伊切町に１０６－１ピープデザイン株式会社内,,17,206,9220406,,,2022-04-12,清算の結了等,,,2015-10-05,1,,,,,アイラブカガネット,0
2023,7260005008948,登記記録の閉鎖等,0,2022-04-20,2022-04-19,特定非営利活動法人ヘルスサイエンス地域国際センター,,その他の設立登記法人,岡山県,岡山市北区,津島西坂１丁目２番３０号,,33,101,7000086,,,2022-04-19,清算の結了等,,,2015-10-05,1,,,,,ヘルスサイエンスチイキコクサイセンター,0
2058,7370001024351,登記記録の閉鎖等,0,2022-04-20,2022-04-08,株式会社グランツ,,株式会社,宮城県,仙台市青葉区,片平１丁目２番２７－７０２号,,04,101,9800812,,,2022-04-08,清算の結了等,,,2015-10-05,1,,,,,グランツ,0
2060,7370005002353,登記記録の閉鎖等,0,2022-04-20,2022-04-11,特定非営利活動法人小規模多機能型生活支援室エポック,,その他の設立登記法人,宮城県,仙台市宮城野区,福室７丁目１５番１６号,,04,102,9830005,,,2022-04-11,清算の結了等,,,2015-10-05,1,,,,,ショウキボタキノウガタセイカツシエンシツエポック,0
2065,7380002027220,登記記録の閉鎖等,0,2022-04-20,2022-04-13,有限会社隆起エンジニアリング,,有限会社,福島県,いわき市,小名浜林城字西町６番地の２０,,07,204,9718122,,,2022-04-13,清算の結了等,,,2015-10-05,1,,,,,リュウキエンジニアリング,0
2074,7430001047718,登記記録の閉鎖等,0,2022-04-20,2022-04-18,夕張リゾート株式会社,,株式会社,北海道,夕張市,末広２丁目４番地,,01,209,0680411,,,2022-04-18,清算の結了等,,,2015-10-05,1,,,,,ユウバリリゾート,0
2078,7430002011953,登記記録の閉鎖等,0,2022-04-20,2022-04-11,有限会社高木不動産,00089073,有限会社,北海道,札幌市南区,川沿十二条１丁目１番８４号,,01,106,0050812,,,2022-04-11,清算の結了等,,,2015-10-05,1,,,,,タカギフドウサン,0
2092,8010001008430,登記記録の閉鎖等,0,2022-04-20,2022-04-04,株式会社柳京印刷所,,株式会社,東京都,文京区,西片１丁目１９番１号,,13,105,1130024,,,2022-04-04,清算の結了等,,,2015-10-05,1,,,,,リュウキョウインサツジョ,0
2127,8010801023125,登記記録の閉鎖等,0,2022-04-20,2022-04-12,株式会社ＩＣＳ,,株式会社,東京都,大田区,大森西４丁目１７番７号,,13,111,1430015,,,2022-04-12,清算の結了等,,,2015-10-05,1,,,,,,0
2150,8011803003395,登記記録の閉鎖等,0,2022-04-20,2022-04-04,合同会社グッドライフ・ディスカバリー,,合同会社,千葉県,松戸市,松戸新田５０１番地の３１,,12,207,2702241,,,2022-04-04,清算の結了等,,,2018-08-08,1,,,,,グッドライフディスカバリー,0
2153,8012401038676,登記記録の閉鎖等,0,2022-04-20,2022-04-12,株式会社コーラル,,株式会社,東京都,多摩市,聖ヶ丘１丁目２８番地の２６,,13,224,2060022,,,2022-04-12,清算の結了等,,,2021-12-20,1,,,,,コーラル,0
2155,8012405002678,登記記録の閉鎖等,0,2022-04-20,2022-04-18,特定非営利活動法人ツーバイフォー住宅管理サービス,,その他の設立登記法人,東京都,世田谷区,奥沢３丁目２９番５号,,13,112,1580083,,,2022-04-18,清算の結了等,,,2015-10-05,1,,,,,ツーバイフォージュウタクカンリサービス,0
2157,8013101000686,登記記録の閉鎖等,0,2022-04-20,2022-04-19,トキオ精工株式会社,,株式会社,東京都,羽村市,神明台４丁目８番地４２,,13,227,2050023,,,2022-04-19,合併による解散等,9060001000613,令和４年４月１日栃木県宇都宮市雀宮町５８５番地株式会社ジェイテクトファインテック（9060001000613）に合併し解散,2015-10-05,1,,,,,トキオセイコウ,0
2197,8040001021042,登記記録の閉鎖等,0,2022-04-20,2022-04-11,那須鋼板株式会社,,株式会社,千葉県,八千代市,吉橋１０８５番地５,,12,221,2760047,,,2022-04-11,合併による解散等,1040001021040,令和４年４月１日千葉県八千代市吉橋１０８５番地５那須工業株式会社（1040001021040）に合併し解散,2015-10-05,1,,,,,ナスコウハン,0
2223,8080001017540,登記記録の閉鎖等,0,2022-04-20,2022-04-18,株式会社空,,株式会社,静岡県,静岡市葵区,呉服町２丁目３番１１－５０１号,,22,101,4200031,,,2022-04-18,清算の結了等,,,2015-10-05,1,,,,,ソラ,0
2233,8100002023980,登記記録の閉鎖等,0,2022-04-20,2022-04-14,有限会社藤善,,有限会社,長野県,安曇野市,豊科５９４４番地,,20,220,3998205,,,2022-04-14,清算の結了等,,,2015-10-05,1,,,,,フジゼン,0
2240,8120001137276,登記記録の閉鎖等,0,2022-04-20,2022-04-11,株式会社三友エージェンシー,,株式会社,大阪府,大阪市中央区,南船場３丁目７番２７号,,27,128,5420081,,,2022-04-11,合併による解散等,4120001130771,令和４年４月１日大阪市中央区南船場三丁目７番２７号株式会社Ｐｅｎｓｅｕｒ（4120001130771）に合併し解散,2015-10-05,1,,,,,サンユウエージェンシー,0
2248,8120101025406,登記記録の閉鎖等,0,2022-04-20,2022-04-14,株式会社タカハシ,,株式会社,大阪府,松原市,一津屋４丁目２０番１１号,,27,217,5800003,,,2022-04-14,清算の結了等,,,2015-10-05,1,,,,,タカハシ,0
2283,8200002000945,登記記録の閉鎖等,0,2022-04-20,2022-04-19,有限会社角栄浅野屋商店,,有限会社,岐阜県,岐阜市,渋谷町１番地の５,,21,201,5008423,,,2022-04-19,清算の結了等,,,2015-10-05,1,,,,,カクエイアサノヤショウテン,0
2297,8240002044113,登記記録の閉鎖等,0,2022-04-20,2022-04-13,有限会社広島イオス,,有限会社,広島県,福山市,駅家町大字法成寺２６１８番地の３,,34,207,7202413,,,2022-04-13,清算の結了等,,,2015-10-05,1,,,,,ヒロシマイオス,0
2303,8260001015906,登記記録の閉鎖等,0,2022-04-20,2022-04-18,山陽美工株式会社,,株式会社,岡山県,総社市,門田３７６番地,,33,208,7191156,,,2022-04-18,清算の結了等,,,2015-10-05,1,,,,,サンヨウビコウ,0
2306,8270002010062,登記記録の閉鎖等,0,2022-04-20,2022-04-05,有限会社サンエス商会,,有限会社,鳥取県,倉吉市,中河原３９３番地１,,31,203,6820856,,,2022-04-05,清算の結了等,,,2015-10-05,1,,,,,サンエスショウカイ,0
2332,8330003005617,登記記録の閉鎖等,0,2022-04-20,2022-04-08,合同会社介護サポートなでしこ,,合同会社,熊本県,菊池市,小木２２５番地,,43,210,8611673,,,2022-04-08,清算の結了等,,,2015-10-05,1,,,,,カイゴサポートナデシコ,0
2337,8360001020508,登記記録の閉鎖等,0,2022-04-20,2022-04-08,株式会社アウル,,株式会社,沖縄県,那覇市,松山１丁目１３番８号,,47,201,9000032,,,2022-04-08,清算の結了等,,,2016-02-25,1,,,,,,0
2338,8360001021233,登記記録の閉鎖等,0,2022-04-20,2022-04-14,タカマブラザーズ株式会社,,株式会社,沖縄県,那覇市,久米１丁目３番５号レキオビル３階,,47,201,9000033,,,2022-04-14,合併による解散等,3010401081577,令和４年４月１日横浜市中区山手町１０９番地株式会社スクール（3010401081577）に合併し解散,2016-08-23,1,,,,,,0
2360,8460302004380,登記記録の閉鎖等,0,2022-04-20,2022-04-18,有限会社竹中製麺,,有限会社,北海道,網走市,北三条西７丁目４番地６,,01,211,0930073,,,2022-04-18,清算の結了等,,,2015-10-05,1,,,,,タケナカセイメン,0
2362,8470002017418,登記記録の閉鎖等,0,2022-04-20,2022-04-15,有限会社エムドットコム,,有限会社,香川県,観音寺市,大野原町大野原１８６０番地１,,37,205,7691611,,,2022-04-15,清算の結了等,,,2015-10-05,1,,,,,エムドットコム,0
2368,8490005005707,登記記録の閉鎖等,0,2022-04-20,2022-04-12,室戸黒潮協同組合,,その他の設立登記法人,高知県,室戸市,室戸岬町６８１０番地１５２,,39,202,7817101,,,2022-04-12,清算の結了等,,,2015-10-05,1,,,,,ムロトクロシオ,0
2389,9010401074352,登記記録の閉鎖等,0,2022-04-20,2022-04-05,株式会社エスピー企画,,株式会社,東京都,港区,赤坂４丁目４番１６号フォーレスト赤坂３階,,13,103,1070052,,,2022-04-05,清算の結了等,,,2015-10-05,1,,,,,エスピーキカク,0
2437,9011702012463,登記記録の閉鎖等,0,2022-04-20,2022-04-18,有限会社ラッキーラック,,有限会社,東京都,江戸川区,東小岩１丁目１９番１９号,,13,123,1330052,,,2022-04-18,清算の結了等,,,2015-10-05,1,,,,,ラッキーラック,0
2438,9011702016596,登記記録の閉鎖等,0,2022-04-20,2022-04-19,有限会社朝日工業,,有限会社,東京都,江戸川区,中央３丁目２４番１５号,,13,123,1320021,,,2022-04-19,清算の結了等,,,2015-10-05,1,,,,,アサヒコウギョウ,0
2453,9020001043896,登記記録の閉鎖等,0,2022-04-20,2022-04-12,株式会社南州ソフトウェア,,株式会社,神奈川県,横浜市港南区,港南台８丁目１１番５号,,14,111,2340054,,,2022-04-12,清算の結了等,,,2015-10-05,1,,,,,ナンシュウソフトウェア,0
2478,9040002004235,登記記録の閉鎖等,0,2022-04-20,2022-04-12,有限会社金剛,,有限会社,千葉県,千葉市花見川区,幕張本郷５丁目１９番１７号,,12,102,2620033,,,2022-04-12,清算の結了等,,,2015-10-05,1,,,,,コンゴウ,0
2517,9120002035791,登記記録の閉鎖等,0,2022-04-20,2022-04-14,坂田興産有限会社,,有限会社,大阪府,大阪市中央区,島之内１丁目１１番３２号,,27,128,5420082,,,2022-04-14,清算の結了等,,,2015-10-05,1,,,,,サカタコウサン,0
2549,9150001012186,登記記録の閉鎖等,0,2022-04-20,2022-03-25,株式会社ＫＥＩオート,,株式会社,奈良県,橿原市,光陽町９７番地の３,,29,205,6340827,,,2022-03-25,清算の結了等,,,2015-10-05,1,,,,,ケイオート,0
2553,9150005008494,登記記録の閉鎖等,0,2022-04-20,2022-04-15,一般社団法人シェアホテルズ研究会,,その他の設立登記法人,大阪府,大阪市平野区,長吉出戸４丁目５番３０－５０２号,,27,126,5470011,,,2022-04-15,清算の結了等,,,2015-10-05,1,,,,,シェアホテルズケンキュウカイ,0
2556,9180001140653,登記記録の閉鎖等,0,2022-04-20,2022-04-14,株式会社フルックス東海,,株式会社,愛知県,愛西市,赤目町山之神７３番地,,23,232,4968046,,,2022-04-14,合併による解散等,5150001005986,令和４年４月１日奈良県大和郡山市池沢町２３０番地株式会社フルックス（5150001005986）に合併し解散,2020-04-08,1,,,,,フルックストウカイ,0
2568,9210001014721,登記記録の閉鎖等,0,2022-04-20,2022-04-08,株式会社エムアール物産,,株式会社,福井県,大野市,春日１丁目５番１４号,,18,205,9120053,,,2022-04-08,清算の結了等,,,2015-10-05,1,,,,,エムアールブッサン,0
2582,9290001012214,登記記録の閉鎖等,0,2022-04-20,2022-04-12,株式会社環境セキュリティ・システム研究所,,株式会社,福岡県,福岡市博多区,博多駅前２丁目１１番２２号,,40,132,8120011,,,2022-04-12,清算の結了等,,,2015-10-05,1,,,,,カンキョウセキュリティシステムケンキュウショ,0
2586,9290001064008,登記記録の閉鎖等,0,2022-04-20,2022-03-28,株式会社天領観光,,株式会社,福岡県,福岡市博多区,東平尾１丁目１０番１号,,40,132,8120853,,,2022-03-28,合併による解散等,1320001010568,令和４年３月２６日福岡市博多区東平尾一丁目１０番１号株式会社天領バス（1320001010568）に合併し解散,2015-10-05,1,,,,,テンリョウカンコウ,0
2600,9340001000337,登記記録の閉鎖等,0,2022-04-20,2022-04-15,株式会社アトラス,,株式会社,鹿児島県,鹿児島市,山田町３５１３番地,,46,201,8910104,,,2022-04-15,清算の結了等,,,2015-10-05,1,,,,,アトラス,0
2602,9360005004522,登記記録の閉鎖等,0,2022-04-20,2022-04-06,特定非営利活動法人エスペーロ,,その他の設立登記法人,沖縄県,那覇市,壺川２丁目７番７号,,47,201,9000025,,,2022-04-06,清算の結了等,,,2015-10-05,1,,,,,エスペーロ,0
2636,9470002002798,登記記録の閉鎖等,0,2022-04-20,2022-04-13,有限会社コスモゼット,,有限会社,香川県,高松市,多賀町２丁目１８番１０号,,37,201,7600063,,,2022-04-13,清算の結了等,,,2015-10-05,1,,,,,コスモゼット,0
