sequenceNumber,corporateNumber,process,correct,updateDate,changeDate,name,nameImageId,kind,prefectureName,cityName,streetNumber,addressImageId,prefectureCode,cityCode,postCode,addressOutside,addressOutsideImageId,closeDate,closeCause,successorCorporateNumber,changeCause,assignmentDate,latest,enName,enPrefectureName,enCityName,enAddressOutside,furigana,hihyoji
7,1010001252010,新規,0,2025-02-05,2025-02-05,株式会社ａｌｐｈａ,,株式会社,東京都,文京区,千駄木３丁目３７番７－１０１号,,13,105,1130022,,,,,,,2025-02-05,1,,,,,アルファ,0
8,1010001252019,新規,0,2025-02-05,2025-02-05,株式会社ＩＰｉｓｍ,,株式会社,東京都,中央区,月島１丁目８番１－９１２号,,13,102,1040052,,,,,,,2025-02-05,1,,,,,アイピーイズム,0
22,1010401187979,新規,0,2025-02-05,2025-02-05,ＬＳ‐ＳＨＩＰ第７１号株式会社,,株式会社,東京都,港区,六本木１丁目６番１号,,13,103,1060032,,,,,,,2025-02-05,1,,,,,エルエスシップダイナナジュウイチゴウ,0
23,1010401188011,新規,0,2025-02-05,2025-02-05,株式会社東京ＴＨＡＮＫ,,株式会社,東京都,港区,虎ノ門３丁目１８－６朝日虎ノ門マンション２０９号,,13,103,1050001,,,,,,,2025-02-05,1,,,,,トウキョウサンク,0
24,1010401188052,新規,0,2025-02-05,2025-02-05,株式会社未来,,株式会社,東京都,港区,南青山３丁目１番３６号,,13,103,1070062,,,,,,,2025-02-05,1,,,,,ミライ,0
29,1010603011367,新規,0,2025-02-05,2025-02-05,合同会社キズナ,,合同会社,東京都,江東区,豊洲６丁目２番１１－３０８号,,13,108,1350061,,,,,,,2025-02-05,1,,,,,キズナ,0
37,1010803005268,新規,0,2025-02-05,2025-02-05,合同会社ロップイヤー,,合同会社,東京都,大田区,久が原１丁目１８番１３号,,13,111,1460085,,,,,,,2025-02-05,1,,,,,ロップイヤー,0
41,1010901056774,新規,0,2025-02-05,2025-02-05,ゼニスソリューションズ株式会社,,株式会社,東京都,世田谷区,弦巻５丁目１７番１２,,13,112,1540016,,,,,,,2025-02-05,1,,,,,ゼニスソリューションズ,0
56,1011101110355,新規,0,2025-02-05,2025-02-05,株式会社Ｆｉｎａｎｃｉａｌ　Ｌｕｘｕｒｙ,,株式会社,東京都,新宿区,新宿２丁目５番１２号フォーキャスト新宿アベニュー６階,,13,104,1600022,,,,,,,2025-02-05,1,,,,,ファイナンシャルラグジュアリー,0
57,1011101110504,新規,0,2025-02-05,2025-02-05,東葉財託株式会社,,株式会社,東京都,新宿区,百人町１丁目１８－８大久保カドビルＥ０２,,13,104,1690073,,,,,,,2025-02-05,1,,,,,トウヨウザイタク,0
58,1011101110512,新規,0,2025-02-05,2025-02-05,株式会社Ｄｅｅｐ　Ｇｒｏｏｖｅ,,株式会社,東京都,新宿区,荒木町１３番３５号,,13,104,1600007,,,,,,,2025-02-05,1,,,,,ディープグルーブ,0
59,1011401026788,新規,0,2025-02-05,2025-02-05,林盛株式会社,,株式会社,東京都,板橋区,成増３丁目４３番１０号パワーバンクビル成増２０２号,,13,119,1750094,,,,,,,2025-02-05,1,,,,,リンセイ,0
60,1011501031655,新規,0,2025-02-05,2025-02-05,株式会社大和,,株式会社,東京都,荒川区,東尾久４丁目１２番８号,,13,118,1160012,,,,,,,2025-02-05,1,,,,,ヤマト,0
65,1011801045561,新規,0,2025-02-05,2025-02-05,ＣＨＫ株式会社,,株式会社,東京都,足立区,西伊興１丁目１３－８,,13,121,1210824,,,,,,,2025-02-05,1,,,,,シーエイチケー,0
66,1011803006677,新規,0,2025-02-05,2025-02-05,合同会社ハッピーライフ,,合同会社,東京都,足立区,千住河原町３５番１８号ＳＵＮＲＩＳＥ・ＴＡＣＨＩＺＡＷＡ３０１,,13,121,1200037,,,,,,,2025-02-05,1,,,,,ハッピーライフ,0
68,1012401042742,新規,0,2025-02-05,2025-02-05,株式会社ｅｍｂｒ．,,株式会社,東京都,武蔵野市,吉祥寺本町２丁目８番４号コスモス吉祥寺ビル２Ｆ,,13,203,1800004,,,,,,,2025-02-05,1,,,,,エンバー,0
77,1013303007528,新規,0,2025-02-05,2025-02-05,ＶＩＳＩＯＮ合同会社,,合同会社,東京都,豊島区,池袋本町４丁目２６番１０号ライフピアエクセル１０５号室,,13,116,1700011,,,,,,,2025-02-05,1,,,,,ビジョン,0
85,1020001161144,新規,0,2025-02-05,2025-02-05,レリーブドタイム株式会社,,株式会社,神奈川県,横浜市戸塚区,上矢部町１７５４－８７,,14,110,2450053,,,,,,,2025-02-05,1,,,,,レリーブドタイム,0
86,1020001161152,新規,0,2025-02-05,2025-02-05,株式会社エフ・リアルエステート,,株式会社,神奈川県,横浜市磯子区,森６丁目１６番２,,14,107,2350023,,,,,,,2025-02-05,1,,,,,エフリアルエステート,0
90,1020003027715,新規,0,2025-02-05,2025-02-05,合同会社駿藤,,合同会社,神奈川県,川崎市幸区,大宮町１４番地５,,14,132,2120014,,,,,,,2025-02-05,1,,,,,シュントウ,0
94,1021001084392,新規,0,2025-02-05,2025-02-05,株式会社プリズムデザイン,,株式会社,神奈川県,相模原市中央区,小町通１丁目２番１３号,,14,152,2520217,,,,,,,2025-02-05,1,,,,,プリズムデザイン,0
95,1021001084401,新規,0,2025-02-05,2025-02-05,株式会社ＢＩＧＲＩＶＥＲ,,株式会社,神奈川県,相模原市緑区,中野１４９番地６,,14,151,2520157,,,,,,,2025-02-05,1,,,,,ビッグリバー,0
101,1030001164765,新規,0,2025-02-05,2025-02-05,株式会社イロドリプラス,,株式会社,埼玉県,東松山市,大字石橋１００４番地１,,11,212,3550072,,,,,,,2025-02-05,1,,,,,イロドリプラス,0
116,1040001137290,新規,0,2025-02-05,2025-02-05,タクミカクテクノロジー株式会社,,株式会社,千葉県,流山市,東初石２丁目７５番地の６６,,12,220,2700114,,,,,,,2025-02-05,1,,,,,タクミカクテクノロジー,0
123,1050001056102,新規,0,2025-02-05,2025-02-05,株式会社Ｋ＆Ｓ,,株式会社,茨城県,つくば市,西高野９１３,,08,220,3002613,,,,,,,2025-02-05,1,,,,,ケイアンドエス,0
128,1060001037877,新規,0,2025-02-05,2025-02-05,凱旋資源株式会社,,株式会社,栃木県,栃木市,薗部町４丁目１７,,09,203,3280074,,,,,,,2025-02-05,1,,,,,ガイセンシゲン,0
130,1080001026746,新規,0,2025-02-05,2025-02-05,シャインテクノ株式会社,,株式会社,静岡県,藤枝市,堀之内１丁目１１番地の９,,22,214,4260088,,,,,,,2025-02-05,1,,,,,シャインテクノ,0
133,1080101025292,新規,0,2025-02-05,2025-02-05,株式会社伊東動物愛護病院,,株式会社,静岡県,伊東市,末広町２番４号,,22,208,4140015,,,,,,,2025-02-05,1,,,,,イトウドウブツアイゴビョウイン,0
137,1080403005199,新規,0,2025-02-05,2025-02-05,合同会社ヴァサレパリー,,合同会社,静岡県,浜松市中央区,大平台４丁目２６番２５号,,22,138,4328068,,,,,,,2025-02-05,1,,,,,ヴァサレパリー,0
140,1100003007980,新規,0,2025-02-05,2025-02-05,ｃｌｅａｎ商事合同会社,,合同会社,長野県,上田市,上野５３９番地１６,,20,203,3860003,,,,,,,2025-02-05,1,,,,,クリーンショウジ,0
142,1110001039026,新規,0,2025-02-05,2025-02-05,ふるさと介護株式会社,,株式会社,新潟県,東蒲原郡阿賀町,吉津３７２９番地２,,15,385,9594625,,,,,,,2025-02-05,1,,,,,フルサトカイゴ,0
143,1110001039034,新規,0,2025-02-05,2025-02-05,株式会社玄匠,,株式会社,新潟県,新潟市北区,川西１丁目７番１号,,15,101,9503341,,,,,,,2025-02-05,1,,,,,ゲンショウ,0
144,1110003005653,新規,0,2025-02-05,2025-02-05,合同会社Ｌｕｃｋ,,合同会社,新潟県,新潟市東区,一日市９１２番地,,15,102,9500802,,,,,,,2025-02-05,1,,,,,ラック,0
158,1120001272352,新規,0,2025-02-05,2025-02-05,リズムテクノロジー株式会社,,株式会社,大阪府,大阪市中央区,谷町７丁目３－４新谷町第３ビル３階,,27,128,5420012,,,,,,,2025-02-05,1,,,,,リズムテクノロジー,0
159,1120001272427,新規,0,2025-02-05,2025-02-05,株式会社ＫＡＮＥＫＩＹＯ．ＨＤ,,株式会社,大阪府,大阪市福島区,野田２丁目１６番３号,,27,103,5530005,,,,,,,2025-02-05,1,,,,,カネキヨホールディングス,0
160,1120001272567,新規,0,2025-02-05,2025-02-05,日豊株式会社,,株式会社,大阪府,大阪市中央区,島之内２丁目５番１５号メロンハウス３０２号室,,27,128,5420082,,,,,,,2025-02-05,1,,,,,ニチホウ,0
161,1120001272583,新規,0,2025-02-05,2025-02-05,株式会社ｐｅｎ．,,株式会社,大阪府,大阪市中央区,本町４丁目８番９号ＲＥ０２２－２０１,,27,128,5410053,,,,,,,2025-02-05,1,,,,,ペン,0
162,1120001272591,新規,0,2025-02-05,2025-02-05,ミュゲホールディングス株式会社,,株式会社,大阪府,大阪市天王寺区,上本町２丁目１番１４号,,27,109,5430001,,,,,,,2025-02-05,1,,,,,ミュゲホールディングス,0
163,1120001272682,新規,0,2025-02-05,2025-02-05,ＫｉｎｇＰａｎ株式会社,,株式会社,大阪府,大阪市西成区,鶴見橋１丁目１０番１４号２０１室,,27,122,5570031,,,,,,,2025-02-05,1,,,,,,0
168,1120003028538,新規,0,2025-02-05,2025-02-05,合同会社ｏｆｆｉｃｅＡｌａｉｎ,,合同会社,大阪府,大阪市北区,曾根崎新地１丁目７番６号谷安セストビル１階Ｃ号室,,27,127,5300002,,,,,,,2025-02-05,1,,,,,オフィスアラン,0
179,1122001038857,新規,0,2025-02-05,2025-02-05,株式会社ＲＩＣＫ,,株式会社,大阪府,八尾市,八尾木北２丁目１１３－４,,27,212,5810016,,,,,,,2025-02-05,1,,,,,リック,0
180,1122001038865,新規,0,2025-02-05,2025-02-05,株式会社ピュット,,株式会社,大阪府,八尾市,光南町１丁目２番９号２Ｆ,,27,212,5810007,,,,,,,2025-02-05,1,,,,,ピュット,0
181,1122003003108,新規,0,2025-02-05,2025-02-05,合同会社エーアンドエー,,合同会社,大阪府,八尾市,志紀町西４丁目１９番地の２３,,27,212,5810094,,,,,,,2025-02-05,1,,,,,エーアンドエー,0
184,1130001078930,新規,0,2025-02-05,2025-02-05,株式会社Ｍｏｌｅｎ,,株式会社,京都府,京都市中京区,御倉町６４番地ＫＢアネックス三条５Ｆ,,26,104,6048166,,,,,,,2025-02-05,1,,,,,モーレン,0
185,1130001078955,新規,0,2025-02-05,2025-02-05,ｏｏｋｉｎｉ株式会社,,株式会社,京都府,京都市伏見区,深草稲荷中之町５３－２Ｆ,,26,109,6120807,,,,,,,2025-02-05,1,,,,,オオキニ,0
194,1140003021615,新規,0,2025-02-05,2025-02-05,Ｌａｃｅｒ合同会社,,合同会社,兵庫県,西宮市,相生町７－２６夙川チェリーハウス２０１号室,,28,204,6620063,,,,,,,2025-02-05,1,,,,,レーサー,0
197,1150003003488,新規,0,2025-02-05,2025-02-05,合同会社アプラス,,合同会社,奈良県,御所市,大字柳原２６３番地の１,,29,208,6392201,,,,,,,2025-02-05,1,,,,,アプラス,0
199,1160001026523,新規,0,2025-02-05,2025-02-05,株式会社ＹＤＫ,,株式会社,滋賀県,甲賀市,水口町城内１番２８－１０１号,,25,209,5280027,,,,,,,2025-02-05,1,,,,,ワイディケイ,0
204,1170005007130,新規,0,2025-02-05,2025-02-05,一般社団法人あたらしいふるさと下里,,その他の設立登記法人,和歌山県,東牟婁郡那智勝浦町,大字下里２７２７番地７,,30,421,6495142,,,,,,,2025-02-05,1,,,,,アタラシイフルサトシモサト,0
210,1180001165237,新規,0,2025-02-05,2025-02-05,東海リビングサポート株式会社,,株式会社,愛知県,名古屋市東区,泉１丁目１８番３号泉ステイトリービル８０１号室,,23,102,4610001,,,,,,,2025-02-05,1,,,,,トウカイリビングサポート,0
211,1180001165294,新規,0,2025-02-05,2025-02-05,ＲＰ建設株式会社,,株式会社,愛知県,愛西市,勝幡町萩原１５５８番地１０,,23,232,4968001,,,,,,,2025-02-05,1,,,,,アールピーケンセツ,0
212,1180001165303,新規,0,2025-02-05,2025-02-05,シンクロ株式会社,,株式会社,愛知県,名古屋市中区,錦１丁目２０番１２号伏見ビル,,23,106,4600003,,,,,,,2025-02-05,1,,,,,シンクロ,0
215,1180003027963,新規,0,2025-02-05,2025-02-05,合同会社Ｒｅ,,合同会社,愛知県,名古屋市南区,芝町９７番地の２,,23,112,4570023,,,,,,,2025-02-05,1,,,,,アールイー,0
227,1200001043415,新規,0,2025-02-05,2025-02-05,株式会社ＢｌｉｓｓＣｏｎｎｅｃｔ,,株式会社,岐阜県,羽島郡岐南町,上印食３丁目１７８番地,,21,302,5016001,,,,,,,2025-02-05,1,,,,,ブリスコネクト,0
231,1230001020733,新規,0,2025-02-05,2025-02-05,株式会社古いち堂,,株式会社,富山県,射水市,土合１２５８番地１,,16,211,9390251,,,,,,,2025-02-05,1,,,,,フルイチドウ,0
239,1240001064498,新規,0,2025-02-05,2025-02-05,株式会社Ａｃｅ‐ｃｒａｆｔ,,株式会社,広島県,福山市,蔵王町１６１番地１５０,,34,207,7210971,,,,,,,2025-02-05,1,,,,,エースクラフト,0
244,1250001020995,新規,0,2025-02-05,2025-02-05,株式会社ｓｏｌｕｔ,,株式会社,山口県,長門市,三隅下１００８番地２,,35,211,7593803,,,,,,,2025-02-05,1,,,,,ソルト,0
247,1260003005052,新規,0,2025-02-05,2025-02-05,合同会社ダブルシンク,,合同会社,岡山県,倉敷市,昭和１丁目１‐３８,,33,202,7100057,,,,,,,2025-02-05,1,,,,,ダブルシンク,0
254,1290801031247,新規,0,2025-02-05,2025-02-05,株式会社福徳建設,,株式会社,福岡県,田川郡大任町,大字今任原９９２番地１,,40,608,8240511,,,,,,,2025-02-05,1,,,,,フクトクケンセツ,0
258,1300001014075,新規,0,2025-02-05,2025-02-05,スタートアップフーズ株式会社,,株式会社,佐賀県,三養基郡みやき町,大字中津隈３４１２番地３,,41,346,8490114,,,,,,,2025-02-05,1,,,,,スタートアップフーズ,0
261,1330003010788,新規,0,2025-02-05,2025-02-05,合同会社Ｉ　ｃａｎ,,合同会社,熊本県,熊本市東区,保田窪３丁目３番５２号,,43,102,8620926,,,,,,,2025-02-05,1,,,,,アイキャン,0
267,1360003014662,新規,0,2025-02-05,2025-02-05,合同会社ａ．ｔ．ｅ,,合同会社,沖縄県,沖縄市,泡瀬４丁目３６－３・２階,,47,211,9042172,,,,,,,2025-02-05,1,,,,,アテ,0
272,1380001035072,新規,0,2025-02-05,2025-02-05,株式会社クラッチワークス,,株式会社,福島県,郡山市,大町２丁目２０－１０サンパティック大町３０３,,07,203,9638001,,,,,,,2025-02-05,1,,,,,クラッチワークス,0
273,1380001035080,新規,0,2025-02-05,2025-02-05,株式会社コウケン,,株式会社,福島県,福島市,西中央５丁目３５番地１０,,07,201,9608074,,,,,,,2025-02-05,1,,,,,コウケン,0
274,1380003005940,新規,0,2025-02-05,2025-02-05,合同会社星降る夜に想いを馳せて,,合同会社,福島県,郡山市,安積荒井３丁目１１２番地,,07,203,9630117,,,,,,,2025-02-05,1,,,,,ホシフルヨルニオモイヲハセテ,0
275,1380003005949,新規,0,2025-02-05,2025-02-05,合同会社平安,,合同会社,福島県,いわき市,遠野町入遠野字東山１２８番地,,07,204,9720251,,,,,,,2025-02-05,1,,,,,ヘイアン,0
276,1390001017870,新規,0,2025-02-05,2025-02-05,株式会社ＲＵＬＩ,,株式会社,山形県,山形市,松波４丁目１４－１０ダイヤモンドメゾン松波Ｂー２０２号,,06,201,9900023,,,,,,,2025-02-05,1,,,,,ルリ,0
281,1410001014056,新規,0,2025-02-05,2025-02-05,株式会社豪造園,,株式会社,秋田県,秋田市,八橋本町２丁目１２番４０号,,05,201,0100973,,,,,,,2025-02-05,1,,,,,ゴウゾウエン,0
283,1420001019005,新規,0,2025-02-05,2025-02-05,株式会社Ｌｅａ　ｌｅａ,,株式会社,青森県,つがる市,牛潟町鷲野沢１６８番地１,,02,209,0383305,,,,,,,2025-02-05,1,,,,,リアリア,0
289,1430001093643,新規,0,2025-02-05,2025-02-05,株式会社Ａｋｉ‐ｏｔｏ‐ｒａｉｌ,,株式会社,北海道,札幌市北区,新琴似一条１０丁目７－３,,01,102,0010901,,,,,,,2025-02-05,1,,,,,アキオトレイル,0
290,1430003017237,新規,0,2025-02-05,2025-02-05,合同会社Ｆ‐ｃａｒｅ,,合同会社,北海道,札幌市厚別区,厚別中央一条２丁目１３番２３号サンル－ミナスビル１Ｆ,,01,108,0040051,,,,,,,2025-02-05,1,,,,,エフケア,0
291,1430005015148,新規,0,2025-02-05,2025-02-05,一般社団法人ＺＥＴＡ　ＰＬＡＣＥ,,その他の設立登記法人,北海道,札幌市南区,藤野三条１丁目２番１号はまなすビル２階,,01,106,0612283,,,,,,,2025-02-05,1,,,,,ゼータプレイス,0
293,1470001020569,新規,0,2025-02-05,2025-02-05,株式会社アジアコピー,,株式会社,香川県,高松市,多賀町１丁目６番２０号インフィールドビル２Ｆ,,37,201,7600063,,,,,,,2025-02-05,1,,,,,アジアコピー,0
295,1480001012739,新規,0,2025-02-05,2025-02-05,株式会社燎産業,,株式会社,徳島県,吉野川市,鴨島町喜来３２３番地８,,36,205,7760005,,,,,,,2025-02-05,1,,,,,カガリビサンギョウ,0
300,1500003003428,新規,0,2025-02-05,2025-02-05,合同会社鈴木林業,,合同会社,愛媛県,伊予郡砥部町,北川毛２９０－３,,38,402,7912131,,,,,,,2025-02-05,1,,,,,スズキリンギョウ,0
306,2010001251993,新規,0,2025-02-05,2025-02-05,株式会社ＥＮＳＨＯ　Ｈｏｍｅ,,株式会社,東京都,文京区,湯島２丁目３１番１７号,,13,105,1130034,,,,,,,2025-02-05,1,,,,,エンショウホーム,0
316,2010003046285,新規,0,2025-02-05,2025-02-05,ＬＯＦＴＥＶＥＲＹＴＨＩＮＧ合同会社,,合同会社,東京都,千代田区,平河町１丁目９番８－２０３号,,13,101,1020093,,,,,,,2025-02-05,1,,,,,ロフトエブリシング,0
317,2010003046335,新規,0,2025-02-05,2025-02-05,ソーラーコルタ合同会社,,合同会社,東京都,千代田区,紀尾井町４番１号ニューオータニガーデンコート１９階フィンポート税理士法人内,,13,101,1020094,,,,,,,2025-02-05,1,,,,,ソーラーコルタ,0
319,2010005039510,新規,0,2025-02-05,2025-02-05,弁護士法人神田お玉ヶ池法律事務所,,その他の設立登記法人,東京都,千代田区,岩本町２丁目１１番７号,,13,101,1010032,,,,,,,2025-02-05,1,,,,,カンダオタマガイケホウリツジムショ,0
324,2010401187895,新規,0,2025-02-05,2025-02-05,株式会社ＷＥＡＶＥＲＹ,,株式会社,東京都,港区,南青山３丁目１番３６号青山丸竹ビル６Ｆ,,13,103,1070062,,,,,,,2025-02-05,1,,,,,ウィーバリー,0
325,2010401187929,新規,0,2025-02-05,2025-02-05,株式会社オフィス山口,,株式会社,東京都,港区,麻布十番２丁目８番５－５０１号,,13,103,1060045,,,,,,,2025-02-05,1,,,,,オフィスヤマグチ,0
326,2010401187986,新規,0,2025-02-05,2025-02-05,株式会社ｐｌｕｓ,,株式会社,東京都,港区,北青山１丁目３番１号アールキューブ青山３階,,13,103,1070061,,,,,,,2025-02-05,1,,,,,プラス,0
330,2010405024013,新規,0,2025-02-05,2025-02-05,Ｍａｃａｎ一般社団法人,,その他の設立登記法人,東京都,港区,虎ノ門２丁目６番１号,,13,103,1050001,,,,,,,2025-02-05,1,,,,,マカン,0
331,2010405024062,新規,0,2025-02-05,2025-02-05,一般社団法人Ｙｉｎｘｉｎｇ,,その他の設立登記法人,東京都,港区,虎ノ門１丁目１番１８号ヒューリック虎ノ門ビル９階Ｌ＆Ｐ司法書士法人内,,13,103,1050001,,,,,,,2025-02-05,1,,,,,インシン,0
337,2010701047196,新規,0,2025-02-05,2025-02-05,株式会社ＨＡＫＫＯＵ　ＪＡＰＡＮ,,株式会社,東京都,品川区,西五反田１丁目２６番２号五反田サンハイツ９１１,,13,109,1410031,,,,,,,2025-02-05,1,,,,,ハッコウジャパン,0
338,2010701047213,新規,0,2025-02-05,2025-02-05,株式会社ＢＩＢＩＴ,,株式会社,東京都,品川区,東品川１丁目３５番１０号,,13,109,1400002,,,,,,,2025-02-05,1,,,,,ビビ,0
349,2011001167610,新規,0,2025-02-05,2025-02-05,株式会社ＺＥＮＫＡＩ　ＰＬＵＳ,,株式会社,東京都,渋谷区,広尾５丁目４－１６・ＥＡＴ・ＰＬＡＹ・ＷＯＲＫＳ・３Ｆ,,13,113,1500012,,,,,,,2025-02-05,1,,,,,ゼンカイプラス,0
357,2011201026104,新規,0,2025-02-05,2025-02-05,株式会社ＫＡＩＴＯ,,株式会社,東京都,中野区,中野３丁目１０番７号ＥＳＴ－ＮＩＩＩ４０１,00137894,13,114,1640001,,,,,,,2025-02-05,1,,,,,カイト,0
364,2011503006415,新規,0,2025-02-05,2025-02-05,合同会社茶々,,合同会社,東京都,荒川区,西日暮里１丁目１２番１４号,,13,118,1160013,,,,,,,2025-02-05,1,,,,,チャチャ,0
372,2011801045585,新規,0,2025-02-05,2025-02-05,株式会社ＭＹＳ,,株式会社,東京都,足立区,東和２丁目１５番６号,,13,121,1200003,,,,,,,2025-02-05,1,,,,,エムワイエス,0
375,2012401042733,新規,0,2025-02-05,2025-02-05,株式会社ＴＥＲＲＡＩＳＥ,,株式会社,東京都,三鷹市,上連雀１丁目１２－１７三鷹ビジネスパークＢ１Ｆ,,13,204,1810012,,,,,,,2025-02-05,1,,,,,テライズ,0
376,2012401042741,新規,0,2025-02-05,2025-02-05,株式会社エゾンス,,株式会社,東京都,調布市,染地２丁目８番地２１９パークホームズ調布桜堤通り７３６,,13,208,1820023,,,,,,,2025-02-05,1,,,,,エゾンス,0
382,2013303007527,新規,0,2025-02-05,2025-02-05,合同会社ＴＫ,,合同会社,東京都,豊島区,西池袋１丁目２９番１４号,,13,116,1710021,,,,,,,2025-02-05,1,,,,,ティーケー,0
390,2020001161151,新規,0,2025-02-05,2025-02-05,株式会社Ｒ５Ｂ,,株式会社,神奈川県,横浜市西区,西平沼町１番２７－２０５号,,14,103,2200024,,,,,,,2025-02-05,1,,,,,アールファイブビー,0
391,2020003027697,新規,0,2025-02-05,2025-02-05,合同会社ＹＴプロモーション,,合同会社,神奈川県,横浜市西区,みなとみらい４丁目１０番３－Ｗ７０１号,,14,103,2200012,,,,,,,2025-02-05,1,,,,,ワイティープロモーション,0
396,2021001084367,新規,0,2025-02-05,2025-02-05,Ｂｌｏｏｍ株式会社,,株式会社,神奈川県,茅ヶ崎市,出口町４番６６－２号,,14,207,2530028,,,,,,,2025-02-05,1,,,,,ブルーム,0
397,2021001084391,新規,0,2025-02-05,2025-02-05,ａｍｅｔｕｃｈｉ株式会社,,株式会社,神奈川県,鎌倉市,浄明寺４丁目２２番９号,,14,204,2480003,,,,,,,2025-02-05,1,,,,,アメツチ,0
398,2021001084400,新規,0,2025-02-05,2025-02-05,株式会社プロショップエクセル,,株式会社,神奈川県,厚木市,中荻野６１９番３号,,14,212,2430202,,,,,,,2025-02-05,1,,,,,プロショップエクセル,0
399,2021001084409,新規,0,2025-02-05,2025-02-05,株式会社Ｎｅｗ　Ａｉｌｅ,,株式会社,神奈川県,横須賀市,追浜東町２丁目３―１,,14,201,2370063,,,,,,,2025-02-05,1,,,,,ニューエール,0
405,2030001164707,新規,0,2025-02-05,2025-02-05,株式会社４ＹＯＵ,,株式会社,埼玉県,北葛飾郡杉戸町,杉戸２丁目７番１３号,,11,464,3450036,,,,,,,2025-02-05,1,,,,,フォーユー,0
406,2030001164731,新規,0,2025-02-05,2025-02-05,株式会社縁,,株式会社,埼玉県,蕨市,錦町５丁目４番７号,,11,223,3350005,,,,,,,2025-02-05,1,,,,,エン,0
408,2030003026005,新規,0,2025-02-05,2025-02-05,Ａ＆Ｃイベント合同会社,,合同会社,埼玉県,春日部市,本田町２丁目５３番地２オーベルジュ１０３,,11,214,3440016,,,,,,,2025-02-05,1,,,,,エーアンドシーイベント,0
409,2030003026062,新規,0,2025-02-05,2025-02-05,合同会社ＦＭＣ,,合同会社,埼玉県,飯能市,大字双柳６１７－２,,11,209,3570021,,,,,,,2025-02-05,1,,,,,エフエムシー,0
416,2040001136721,新規,0,2025-02-05,2025-02-05,フロンティア内装株式会社,,株式会社,千葉県,市川市,大野町４丁目３１１６番地１,,12,203,2720805,,,,,,,2025-02-05,1,,,,,フロンティアナイソウ,0
417,2040001137240,新規,0,2025-02-05,2025-02-05,株式会社シンセアルファ,,株式会社,千葉県,千葉市中央区,中央２丁目２番１６号エクセレントザタワー７０１号,,12,101,2600013,,,,,,,2025-02-05,1,,,,,シンセアルファ,0
418,2040001137257,新規,0,2025-02-05,2025-02-05,佳瑞株式会社,,株式会社,千葉県,船橋市,湊町１丁目２１番２０号,,12,204,2730011,,,,,,,2025-02-05,1,,,,,カズイ,0
419,2040001137265,新規,0,2025-02-05,2025-02-05,株式会社あおい,,株式会社,千葉県,柏市,小青田３丁目１４番地２６,,12,217,2770803,,,,,,,2025-02-05,1,,,,,アオイ,0
420,2040001137273,新規,0,2025-02-05,2025-02-05,株式会社リンクマン,,株式会社,千葉県,千葉市稲毛区,小仲台２丁目６番１号京成稲毛ビル２Ｆ３１号室,,12,103,2630043,,,,,,,2025-02-05,1,,,,,リンクマン,0
421,2040001137307,新規,0,2025-02-05,2025-02-05,株式会社ＫＩＣＫＥＲ　ＤＲＯＰＳ,,株式会社,千葉県,白井市,富塚１１２７―４,,12,232,2701405,,,,,,,2025-02-05,1,,,,,キッカードロップス,0
427,2050001056126,新規,0,2025-02-05,2025-02-05,株式会社ムギワラプロジェクト,,株式会社,茨城県,かすみがうら市,安食３００６番地２,,08,230,3000205,,,,,,,2025-02-05,1,,,,,ムギワラプロジェクト,0
428,2050001056142,新規,0,2025-02-05,2025-02-05,株式会社広茂,,株式会社,茨城県,龍ケ崎市,城ノ内３丁目８番１－１階,,08,208,3010847,,,,,,,2025-02-05,1,,,,,ヒロシゲ,0
430,2060001037884,新規,0,2025-02-05,2025-02-05,株式会社Ｃｏｚｙ,,株式会社,栃木県,鹿沼市,板荷４６９番地４,,09,205,3211111,,,,,,,2025-02-05,1,,,,,コージー,0
436,2080001026745,新規,0,2025-02-05,2025-02-05,Ｗｏｎｄｅｒ　Ｓｋｅｔｃｈ株式会社,,株式会社,静岡県,静岡市駿河区,下島３２４番地,,22,102,4228037,,,,,,,2025-02-05,1,,,,,ワンダースケッチ,0
443,2110001039033,新規,0,2025-02-05,2025-02-05,ホンマルオートロジスティクス株式会社,,株式会社,新潟県,新発田市,城北町２丁目１１‐３５,,15,206,9570051,,,,,,,2025-02-05,1,,,,,ホンマルオートロジスティクス,0
452,2120001272327,新規,0,2025-02-05,2025-02-05,株式会社Ｋ．Ｉ．Ｄ,,株式会社,大阪府,大阪市福島区,玉川４丁目１２番１１号玉川ビル３階,,27,103,5530004,,,,,,,2025-02-05,1,,,,,ケイアイディ,0
453,2120001272574,新規,0,2025-02-05,2025-02-05,株式会社ＳＷＡＧ,,株式会社,大阪府,大阪市東成区,中道３丁目４－２４－９０４,,27,115,5370025,,,,,,,2025-02-05,1,,,,,スワッグ,0
454,2120001272590,新規,0,2025-02-05,2025-02-05,安喜フードシステム株式会社,,株式会社,大阪府,大阪市住吉区,苅田７丁目１２番２８号常盤ビル１階,,27,120,5580011,,,,,,,2025-02-05,1,,,,,アキフードシステム,0
455,2120001272616,新規,0,2025-02-05,2025-02-05,株式会社Ｇ．Ｎスタイル,,株式会社,大阪府,大阪市平野区,長吉出戸７丁目４番２４号,,27,126,5470011,,,,,,,2025-02-05,1,,,,,ジーエヌスタイル,0
456,2120001272624,新規,0,2025-02-05,2025-02-05,ＬＹＹＲ株式会社,,株式会社,大阪府,大阪市港区,市岡１丁目１２番１３号１０１号室,,27,107,5520012,,,,,,,2025-02-05,1,,,,,エルワイワイアール,0
457,2120001272657,新規,0,2025-02-05,2025-02-05,株式会社Ｂｏｎｏｂｏ,,株式会社,大阪府,大阪市鶴見区,今津北２丁目５番３４号,,27,124,5380041,,,,,,,2025-02-05,1,,,,,ボノボ,0
461,2120003028504,新規,0,2025-02-05,2025-02-05,合同会社ａｃｅ　ｐｒｅｓｅｎｔｓ,,合同会社,大阪府,大阪市北区,本庄西２丁目２２－１６－１３０４,,27,127,5310073,,,,,,,2025-02-05,1,,,,,エースプレゼンツ,0
463,2120005024781,新規,0,2025-02-05,2025-02-05,蜂の巣労働者協同組合,,その他の設立登記法人,大阪府,大阪市西区,靱本町２丁目６番１号中野ビル３０１,,27,106,5500004,,,,,,,2025-02-05,1,,,,,ハチノス,0
465,2120901050402,新規,0,2025-02-05,2025-02-05,株式会社ゆりえ不動産,,株式会社,大阪府,箕面市,白島２丁目１７番３７号,,27,220,5620012,,,,,,,2025-02-05,1,,,,,ユリエフドウサン,0
469,2122001038864,新規,0,2025-02-05,2025-02-05,政興株式会社,,株式会社,大阪府,東大阪市,六万寺町１丁目２０番２２号,,27,227,5798061,,,,,,,2025-02-05,1,,,,,セイコウ,0
471,2130001078954,新規,0,2025-02-05,2025-02-05,株式会社悠沙製作所,,株式会社,京都府,京都市西京区,山田弦馳町４２番地１１,,26,111,6158271,,,,,,,2025-02-05,1,,,,,ハルサセイサクショ,0
476,2140001137305,新規,0,2025-02-05,2025-02-05,ＨＥＷＳ株式会社,,株式会社,兵庫県,姫路市,網干区浜田１６３２番地１,,28,201,6711242,,,,,,,2025-02-05,1,,,,,ヒュース,0
477,2140003021614,新規,0,2025-02-05,2025-02-05,ＯＲＭエンジニアリング合同会社,,合同会社,兵庫県,姫路市,町坪３６８番地,,28,201,6700984,,,,,,,2025-02-05,1,,,,,オーアールエムエンジニアリング,0
480,2160001026522,新規,0,2025-02-05,2025-02-05,株式会社でんえん,,株式会社,滋賀県,甲賀市,甲南町新治１６１８番地,,25,209,5203313,,,,,,,2025-02-05,1,,,,,デンエン,0
492,2180301039494,新規,0,2025-02-05,2025-02-05,株式会社ＧＯＡＬ‐Ｍｅ,,株式会社,愛知県,安城市,横山町八左２５番地３,,23,212,4460045,,,,,,,2025-02-05,1,,,,,ゴルミー,0
495,2190001031973,新規,0,2025-02-05,2025-02-05,株式会社トリプル薬局,,株式会社,三重県,鈴鹿市,石薬師町２０８６番地３,,24,207,5130012,,,,,,,2025-02-05,1,,,,,トリプルヤッキョク,0
498,2200001043389,新規,0,2025-02-05,2025-02-05,山田設備工業株式会社,,株式会社,岐阜県,羽島市,竹鼻町駒塚６４４番地の２,00137822,21,209,5016241,,,,,,,2025-02-05,1,,,,,ヤマダセツビコウギョウ,0
501,2210001020049,新規,0,2025-02-05,2025-02-05,ＹＯＵ＆ｉインポート株式会社,,株式会社,福井県,福井市,新保町第２６号４４番地,,18,201,9100832,,,,,,,2025-02-05,1,,,,,ユーアンドアイインポート,0
511,2260001039885,新規,0,2025-02-05,2025-02-05,株式会社ももたろう動物病院,,株式会社,岡山県,岡山市南区,大福３０７番地１０,,33,104,7010204,,,,,,,2025-02-05,1,,,,,モモタロウドウブツビョウイン,0
518,2290003016376,新規,0,2025-02-05,2025-02-05,Ｎ＆Ｍ合同会社,,合同会社,福岡県,三潴郡大木町,大字横溝６番地６,,40,522,8300405,,,,,,,2025-02-05,1,,,,,エヌアンドエム,0
526,2320005010225,新規,0,2025-02-05,2025-02-05,コア・サポべっぷ協同組合,,その他の設立登記法人,大分県,別府市,大字北石垣２５番地の３桜ケ丘フラット２号,,44,202,8740000,,,,,,,2025-02-05,1,,,,,コアサポベップ,0
527,2330001032874,新規,0,2025-02-05,2025-02-05,エブリパレス株式会社,,株式会社,熊本県,熊本市北区,八景水谷３丁目１２番２３号,,43,105,8618064,,,,,,,2025-02-05,1,,,,,エブリパレス,0
532,2360001034744,新規,0,2025-02-05,2025-02-05,株式会社ＢＬＵＥ　ＣＯＲＮＥＲ,,株式会社,沖縄県,浦添市,西原５丁目１番２－１３０２号,,47,208,9012101,,,,,,,2025-02-05,1,,,,,ブルーコーナー,0
533,2360003014661,新規,0,2025-02-05,2025-02-05,合同会社Ｈｏｔ＆Ｓａｎｄ,,合同会社,沖縄県,那覇市,字安里６４番地９,,47,201,9020067,,,,,,,2025-02-05,1,,,,,ホットアンドサンド,0
535,2370001052209,新規,0,2025-02-05,2025-02-05,株式会社ｆｕｗａｎｓ,,株式会社,宮城県,仙台市太白区,長町南３丁目８番２８号,,04,104,9820012,,,,,,,2025-02-05,1,,,,,フワンス,0
539,2410001014055,新規,0,2025-02-05,2025-02-05,株式会社ＶＥＲＩＡＣＴ,,株式会社,秋田県,秋田市,将軍野東１丁目７番２０号２階,,05,201,0110931,,,,,,,2025-02-05,1,,,,,ヴェリアクト,0
540,2420001019004,新規,0,2025-02-05,2025-02-05,株式会社エアプロ,,株式会社,青森県,弘前市,大字百石町３８番地１株式会社コンシス１階,,02,202,0368035,,,,,,,2025-02-05,1,,,,,エアプロ,0
544,2430001093618,新規,0,2025-02-05,2025-02-05,株式会社ＹＧ,,株式会社,北海道,石狩市,花川南十条２丁目１２７番地,,01,235,0613210,,,,,,,2025-02-05,1,,,,,ワイジー,0
545,2430001093626,新規,0,2025-02-05,2025-02-05,株式会社ベネフィットソリューション,,株式会社,北海道,岩見沢市,幌向南二条２丁目２０５－６４,,01,210,0690372,,,,,,,2025-02-05,1,,,,,ベネフィットソリューション,0
546,2430001093634,新規,0,2025-02-05,2025-02-05,株式会社北商総業,,株式会社,北海道,札幌市中央区,北十四条西１５丁目１－２２カルミア桑園４０６,,01,101,0600014,,,,,,,2025-02-05,1,,,,,ホクショウソウギョウ,0
547,2430001093642,新規,0,2025-02-05,2025-02-05,株式会社Ｃｒａｆｔ,,株式会社,北海道,北広島市,大曲中央１丁目７番地２,,01,234,0611271,,,,,,,2025-02-05,1,,,,,クラフト,0
552,2430003017236,新規,0,2025-02-05,2025-02-05,千歳ＺＥＲＯ運送合同会社,,合同会社,北海道,千歳市,錦町１丁目７番地の３,,01,224,0660064,,,,,,,2025-02-05,1,,,,,チトセゼロウンソウ,0
553,2430003017244,新規,0,2025-02-05,2025-02-05,合同会社ゴトー農場,,合同会社,北海道,空知郡奈井江町,字奈江原野４０８１番地２,,01,424,0790300,,,,,,,2025-02-05,1,,,,,ゴトーノウジョウ,0
554,2430003017252,新規,0,2025-02-05,2025-02-05,合同会社Ｔ２８,,合同会社,北海道,千歳市,幸福３丁目１１番１４号,,01,224,0660082,,,,,,,2025-02-05,1,,,,,ティーニジュウハチ,0
558,2470001020568,新規,0,2025-02-05,2025-02-05,株式会社Ｎ．Ｓ．ｗｏｒｋｓ,,株式会社,香川県,善通寺市,原田町８１５番地９,,37,204,7650032,,,,,,,2025-02-05,1,,,,,エヌエスワークス,0
562,2500001026124,新規,0,2025-02-05,2025-02-05,株式会社アトリエ工房薬師,,株式会社,愛媛県,東温市,田窪１５０４番地,,38,215,7910212,,,,,,,2025-02-05,1,,,,,アトリエコウボウヤクシ,0
576,3010001251951,新規,0,2025-02-05,2025-02-05,株式会社エクラド,,株式会社,東京都,千代田区,神田須田町１丁目７－８ＶＯＲＴ秋葉原４－２Ｆ,,13,101,1010041,,,,,,,2025-02-05,1,,,,,エクラド,0
583,3010003046334,新規,0,2025-02-05,2025-02-05,ソーラーテレシー合同会社,,合同会社,東京都,千代田区,紀尾井町４番１号ニューオータニガーデンコート１９階フィンポート税理士法人内,,13,101,1020094,,,,,,,2025-02-05,1,,,,,ソーラーテレシー,0
590,3010401187845,新規,0,2025-02-05,2025-02-05,盛実株式会社,,株式会社,東京都,港区,西新橋１丁目２番９号日比谷セントラルビル１４階,,13,103,1050003,,,,,,,2025-02-05,1,,,,,セイジツ,0
591,3010401187928,新規,0,2025-02-05,2025-02-05,株式会社ＤＯＧＵＥＳ,,株式会社,東京都,港区,北青山１丁目３番１号アールキューブ青山３階,,13,103,1070061,,,,,,,2025-02-05,1,,,,,ドーグス,0
592,3010401187969,新規,0,2025-02-05,2025-02-05,Ｂａｃｏｎ＆Ｕｍｅｓｈｕ株式会社,,株式会社,東京都,港区,東麻布１丁目２３番５号ＰＭＣビル２Ｆ,,13,103,1060044,,,,,,,2025-02-05,1,,,,,ベーコンアンドウメシュ,0
593,3010401188001,新規,0,2025-02-05,2025-02-05,株式会社ＲＢＳ,,株式会社,東京都,港区,白金台５丁目１８番１２号,,13,103,1080071,,,,,,,2025-02-05,1,,,,,アールビーエス,0
594,3010403034244,新規,0,2025-02-05,2025-02-05,合同会社湧‐ｗａｋｕ,,合同会社,東京都,港区,新橋４丁目１４番１新橋ＡＵＮＢＬＤＧ４階,,13,103,1050004,,,,,,,2025-02-05,1,,,,,ワクワク,0
595,3010403034260,新規,0,2025-02-05,2025-02-05,Ｐｉｎｇ　Ｃｏｎｓｕｌｔｉｎｇ合同会社,,合同会社,東京都,港区,赤坂２丁目１７番５０－２７０４号,,13,103,1070052,,,,,,,2025-02-05,1,,,,,ピンコンサルティング,0
596,3010403034327,新規,0,2025-02-05,2025-02-05,ＡＬＥＳ合同会社,,合同会社,東京都,港区,南麻布１丁目２１番１号,,13,103,1060047,,,,,,,2025-02-05,1,,,,,アレス,0
598,3010405024061,新規,0,2025-02-05,2025-02-05,一般社団法人Ｋｏｎｇ‐ｒｅｙ,,その他の設立登記法人,東京都,港区,虎ノ門１丁目１番１８号ヒューリック虎ノ門ビル９階Ｌ＆Ｐ司法書士法人内,,13,103,1050001,,,,,,,2025-02-05,1,,,,,コンレイ,0
608,3010701047195,新規,0,2025-02-05,2025-02-05,ＳＵ　ＨＴＯＯ　ＳＡＮ株式会社,,株式会社,東京都,品川区,東五反田１丁目２５番１９号,,13,109,1410022,,,,,,,2025-02-05,1,,,,,ストゥーサン,0
611,3010901056681,新規,0,2025-02-05,2025-02-05,医康Ｌｉｆｅ株式会社,,株式会社,東京都,世田谷区,北烏山１丁目３２―１３,,13,112,1570061,,,,,,,2025-02-05,1,,,,,イコーライフ,0
627,3011103015501,新規,0,2025-02-05,2025-02-05,合同会社ノイリヒト,,合同会社,東京都,新宿区,西新宿６丁目５番１号新宿アイランドタワー２階,,13,104,1600023,,,,,,,2025-02-05,1,,,,,ノイリヒト,0
635,3011603004598,新規,0,2025-02-05,2025-02-05,ディオニュソス合同会社,,合同会社,東京都,練馬区,旭町１丁目１５番３０号伊藤ビル５０１,,13,120,1790071,,,,,,,2025-02-05,1,,,,,ディオニュソス,0
636,3011801045584,新規,0,2025-02-05,2025-02-05,株式会社Ｈｕｒｒａｙ,,株式会社,東京都,足立区,皿沼２丁目１１番３号,,13,121,1230862,,,,,,,2025-02-05,1,,,,,フレイ,0
640,3011803006675,新規,0,2025-02-05,2025-02-05,ＮＡＰＯＲＵ合同会社,,合同会社,東京都,足立区,保木間１丁目１番３号東潤ビル,,13,121,1210064,,,,,,,2025-02-05,1,,,,,ナポル,0
641,3012401042740,新規,0,2025-02-05,2025-02-05,株式会社Ｐｒｉｓｍ,,株式会社,東京都,府中市,朝日町２丁目２０番地の４５,,13,206,1830003,,,,,,,2025-02-05,1,,,,,プリズム,0
645,3012801023737,新規,0,2025-02-05,2025-02-05,株式会社カトーリアルエステート,,株式会社,東京都,昭島市,宮沢町１丁目１番５号,,13,207,1960024,,,,,,,2025-02-05,1,,,,,カトーリアルエステート,0
659,3020001161150,新規,0,2025-02-05,2025-02-05,ＹＨコンサルティング株式会社,,株式会社,神奈川県,横浜市中区,花咲町１丁目４８－３,,14,104,2310063,,,,,,,2025-02-05,1,,,,,,0
663,3020003027688,新規,0,2025-02-05,2025-02-05,合同会社スピカ,,合同会社,神奈川県,横浜市鶴見区,東寺尾６丁目２３番６号サンライズ東寺尾ＩＩＩ２０２号,00137898,14,101,2300077,,,,,,,2025-02-05,1,,,,,スピカ,0
664,3020003027696,新規,0,2025-02-05,2025-02-05,合同会社ファインズライフ,,合同会社,神奈川県,横浜市都筑区,荏田東２丁目１４番２８号,,14,118,2240006,,,,,,,2025-02-05,1,,,,,ファインズライフ,0
665,3020003027705,新規,0,2025-02-05,2025-02-05,合同会社浅井組,,合同会社,神奈川県,川崎市高津区,久末２７９番地１５,,14,134,2130026,,,,,,,2025-02-05,1,,,,,アサイグミ,0
669,3021001084399,新規,0,2025-02-05,2025-02-05,株式会社エム・スタイルズ,,株式会社,神奈川県,平塚市,西八幡１丁目１１番１３－３号,,14,203,2540073,,,,,,,2025-02-05,1,,,,,エムスタイルズ,0
672,3021003015550,新規,0,2025-02-05,2025-02-05,合同会社ＡＬＯＨＡ,,合同会社,神奈川県,大和市,大和南１丁目５番５号Ｃ．Ｌ．Ａ－ＹＡＭＡＴＯ２０１,,14,213,2420016,,,,,,,2025-02-05,1,,,,,アロハ,0
675,3030001164664,新規,0,2025-02-05,2025-02-05,Ｓａｋｅ　Ｅｕｒｏｐｅ株式会社,,株式会社,埼玉県,さいたま市大宮区,桜木町１丁目３６６番地９オープンオフィス大宮駅西口ビル１Ｆ－５Ｆ,,11,103,3300854,,,,,,,2025-02-05,1,,,,,サケヨーロッパ,0
676,3030001164714,新規,0,2025-02-05,2025-02-05,株式会社ＵＲＡＣＨＡＣＨＡ,,株式会社,埼玉県,川口市,末広１丁目１６番７－３１１号リビオシティ川口元郷,,11,203,3320006,,,,,,,2025-02-05,1,,,,,ウラチャチャ,0
677,3030001164722,新規,0,2025-02-05,2025-02-05,Ｔｏｋｙｏ　Ｒａｉｎｌｉｎｅ株式会社,,株式会社,埼玉県,羽生市,大字羽生１４７－１－３０２,,11,216,3480055,,,,,,,2025-02-05,1,,,,,トウキョウレインライン,0
681,3030003025963,新規,0,2025-02-05,2025-02-05,Ｓｕｐｒｅｍ　Ｔｒａｄｉｎｇ　Ｊａｐａｎ合同会社,,合同会社,埼玉県,川口市,弥平２丁目１２番２９号,,11,203,3320002,,,,,,,2025-02-05,1,,,,,シュプリームトレーディングジャパン,0
682,3030003026029,新規,0,2025-02-05,2025-02-05,一ノ送電合同会社,,合同会社,埼玉県,上尾市,大字上１９６番地８,,11,219,3620001,,,,,,,2025-02-05,1,,,,,イチノソウデン,0
692,3040001137272,新規,0,2025-02-05,2025-02-05,株式会社ｃｌｏｖｅｒ,,株式会社,千葉県,木更津市,港南台４丁目８番地６,,12,206,2920827,,,,,,,2025-02-05,1,,,,,クローバー,0
693,3040003026762,新規,0,2025-02-05,2025-02-05,飛翔合同会社,,合同会社,千葉県,印西市,高花５丁目１４番地８,,12,231,2701342,,,,,,,2025-02-05,1,,,,,ヒショウ,0
695,3050001056125,新規,0,2025-02-05,2025-02-05,株式会社コラボレーションズ,,株式会社,茨城県,結城市,大字結城１３４３５番地グランド・ドリームビル２０４号,,08,207,3070001,,,,,,,2025-02-05,1,,,,,コラボレーションズ,0
696,3050001056133,新規,0,2025-02-05,2025-02-05,株式会社石田商会,,株式会社,茨城県,ひたちなか市,湊中原１２５９６番地４,,08,221,3111268,,,,,,,2025-02-05,1,,,,,イシダショウカイ,0
697,3050001056141,新規,0,2025-02-05,2025-02-05,Ｇｌｏｒａ株式会社,,株式会社,茨城県,稲敷市,下太田５５９番地１,,08,229,3001424,,,,,,,2025-02-05,1,,,,,グローラ,0
713,3080401027730,新規,0,2025-02-05,2025-02-05,株式会社Ｒｅｖｉｖｅ,,株式会社,静岡県,袋井市,川井４００番地の２,,22,216,4370064,,,,,,,2025-02-05,1,,,,,リバイブ,0
739,3120001272235,新規,0,2025-02-05,2025-02-05,ＡｍｏｒｇｏｓＰａｖｉｌｉｏｎ忠貞家宝株式会社,,株式会社,大阪府,大阪市北区,西天満２丁目６番８号堂島ビルヂング６Ｆ新東京国際リーガル内,,27,127,5300047,,,,,,,2025-02-05,1,,,,,アモルゴスパビリオンチュウチンカホ,0
740,3120001272540,新規,0,2025-02-05,2025-02-05,株式会社ナンバーゼロ,,株式会社,大阪府,大阪市大正区,三軒家東１丁目１２番５－７０３号,,27,108,5510002,,,,,,,2025-02-05,1,,,,,ナンバーゼロ,0
741,3120001272598,新規,0,2025-02-05,2025-02-05,東翔株式会社,,株式会社,大阪府,大阪市淀川区,東三国４丁目２１番１１－２０１号,,27,123,5320002,,,,,,,2025-02-05,1,,,,,トウショウ,0
742,3120001272607,新規,0,2025-02-05,2025-02-05,雋君株式会社,,株式会社,大阪府,大阪市天王寺区,伶人町２－３１ＳｔａｒＯｆｆｉｃｅ大阪天王寺北６０８号室,,27,109,5430061,,,,,,,2025-02-05,1,,,,,シュンクン,0
743,3120001272615,新規,0,2025-02-05,2025-02-05,株式会社ＲｅＢＩＢＬＥ,,株式会社,大阪府,大阪市天王寺区,勝山２丁目１番２６号１０２号室,,27,109,5430043,,,,,,,2025-02-05,1,,,,,リバイブル,0
744,3120001272697,新規,0,2025-02-05,2025-02-05,株式会社Ｒｅ’Ｎｅｗ,,株式会社,大阪府,大阪市平野区,長吉出戸１丁目１１番５５号,,27,126,5470011,,,,,,,2025-02-05,1,,,,,リニュー,0
748,3120003028544,新規,0,2025-02-05,2025-02-05,合同会社ｅｓｅｎｃｉａ,,合同会社,大阪府,大阪市北区,梅田１丁目２番２号大阪駅前第２ビル１２－１２,,27,127,5300001,,,,,,,2025-02-05,1,,,,,エッセンシア,0
749,3120005024780,新規,0,2025-02-05,2025-02-05,税理士法人ＬａｐｉｓＮｏｖａ,,その他の設立登記法人,大阪府,大阪市西区,江戸堀１丁目１５番１０号,,27,106,5500002,,,,,,,2025-02-05,1,,,,,ラピスノヴァ,0
752,3120101070828,新規,0,2025-02-05,2025-02-05,株式会社Ｓｕｐｅｒ　Ｃａｔ,,株式会社,大阪府,泉佐野市,南中樫井５１７番地の３,,27,213,5980035,,,,,,,2025-02-05,1,,,,,スーパーキャット,0
756,3120903005535,新規,0,2025-02-05,2025-02-05,インフィニット合同会社,,合同会社,大阪府,高槻市,紫町３番１‐２０２号,,27,207,5691125,,,,,,,2025-02-05,1,,,,,インフィニット,0
757,3122001038855,新規,0,2025-02-05,2025-02-05,株式会社ロジカルネクステージ,,株式会社,大阪府,東大阪市,長田東１丁目６番３８－３０２号,,27,227,5770012,,,,,,,2025-02-05,1,,,,,ロジカルネクステージ,0
759,3130001078920,新規,0,2025-02-05,2025-02-05,グリッターランド株式会社,,株式会社,京都府,京都市下京区,河原町通正面下る万屋町３４２番地ガーデンコート河原町６０５号,,26,106,6008199,,,,,,,2025-02-05,1,,,,,グリッターランド,0
760,3130001078929,新規,0,2025-02-05,2025-02-05,株式会社京和ホーム,,株式会社,京都府,京都市南区,吉祥院中島町１５番地１ジェイグラン京都西大路１０５室,,26,107,6018313,,,,,,,2025-02-05,1,,,,,キョウワホーム,0
761,3130001078945,新規,0,2025-02-05,2025-02-05,ＮＥＷ　ＣＨＯＩＣＥ　Ｍ＆Ａ株式会社,,株式会社,京都府,京都市北区,大宮中総門口町１５番地２－２３号,,26,101,6038834,,,,,,,2025-02-05,1,,,,,ニューチョイスエムアンドエー,0
764,3130003010195,新規,0,2025-02-05,2025-02-05,ユナイティア合同会社,,合同会社,京都府,京都市下京区,室町通四条下る鶏鉾町４９３番地,,26,106,6008491,,,,,,,2025-02-05,1,,,,,ユナイティア,0
769,3140001137304,新規,0,2025-02-05,2025-02-05,六甲株式会社,,株式会社,兵庫県,神戸市中央区,磯辺通１丁目１番１８号カサベラ国際プラザビル７０７,,28,110,6510084,,,,,,,2025-02-05,1,,,,,ロッコウ,0
770,3140001137312,新規,0,2025-02-05,2025-02-05,株式会社ＨＩＣＡＳＡ,,株式会社,兵庫県,宝塚市,野上１丁目１番８号,,28,214,6650022,,,,,,,2025-02-05,1,,,,,ヒカサ,0
773,3140003021605,新規,0,2025-02-05,2025-02-05,たんば商業合同会社,,合同会社,兵庫県,丹波市,柏原町母坪３３５番地１,,28,223,6693311,,,,,,,2025-02-05,1,,,,,タンバショウギョウ,0
775,3150001027859,新規,0,2025-02-05,2025-02-05,株式会社ケアパートナー,,株式会社,奈良県,天理市,杉本町１８４番地２０,,29,204,6320078,,,,,,,2025-02-05,1,,,,,ケアパートナー,0
778,3160001026521,新規,0,2025-02-05,2025-02-05,Ｌｏｃａｌｓｔａｙ　Ｊａｐａｎ株式会社,,株式会社,滋賀県,近江八幡市,仲屋町中１２番地スワイビル２Ｆ,,25,204,5230862,,,,,,,2025-02-05,1,,,,,ローカルステイジャパン,0
779,3170001018484,新規,0,2025-02-05,2025-02-05,株式会社井上工作所,,株式会社,和歌山県,海草郡紀美野町,長谷４０７番地１,,30,304,6401101,,,,,,,2025-02-05,1,,,,,イノウエコウサクショ,0
789,3180001165301,新規,0,2025-02-05,2025-02-05,株式会社ＶＥＲＴＡ,,株式会社,愛知県,名古屋市中村区,則武２丁目１４番１１号,,23,105,4530014,,,,,,,2025-02-05,1,,,,,ヴェルタ,0
790,3180001165318,新規,0,2025-02-05,2025-02-05,株式会社ＯＮＥＳＴＯＰ,,株式会社,愛知県,名古屋市名東区,上社１丁目６０５番地アマノマンション１－１０２,,23,115,4650025,,,,,,,2025-02-05,1,,,,,ワンストップ,0
791,3180001165350,新規,0,2025-02-05,2025-02-05,株式会社ＨＩＥＳＨＩＭＡパートナーズ,,株式会社,愛知県,名古屋市昭和区,阿由知通２丁目４番地－８０１号,,23,107,4660027,,,,,,,2025-02-05,1,,,,,ヒエシマパートナーズ,0
792,3180301039493,新規,0,2025-02-05,2025-02-05,リーンモビリティ株式会社,,株式会社,愛知県,豊田市,西広瀬町川原田５１９番地２,,23,211,4700309,,,,,,,2025-02-05,1,,,,,リーンモビリティ,0
796,3180303006450,新規,0,2025-02-05,2025-02-05,合同会社Ｄ４Ｗｏｒｋｓ,,合同会社,愛知県,岡崎市,井ノ口町字楼６７番地１０５,,23,202,4442133,,,,,,,2025-02-05,1,,,,,ディーフォーワークス,0
806,3210001020048,新規,0,2025-02-05,2025-02-05,株式会社ＤＡＩＴＯ,,株式会社,福井県,福井市,島山梨子町第２１号１７番地４,,18,201,9103111,,,,,,,2025-02-05,1,,,,,ダイトウ,0
809,3230001020731,新規,0,2025-02-05,2025-02-05,株式会社瓦の桃花,,株式会社,富山県,南砺市,山下３２１５番地,,16,210,9320215,,,,,,,2025-02-05,1,,,,,カワラノモモカ,0
811,3240005015891,新規,0,2025-02-05,2025-02-05,広島県交通誘導業務協同組合,,その他の設立登記法人,広島県,広島市南区,西霞町２－３１ＳＫビル３０１,,34,103,7340044,,,,,,,2025-02-05,1,,,,,ヒロシマケンコウツウユウドウギョウム,0
814,3260005011443,新規,0,2025-02-05,2025-02-05,一般社団法人大福,,その他の設立登記法人,岡山県,倉敷市,西中新田４番地１０Ａ棟,,33,202,7100833,,,,,,,2025-02-05,1,,,,,ダイフク,0
828,3300001014073,新規,0,2025-02-05,2025-02-05,株式会社ＢＲＯＴＨＥＲＳ,,株式会社,佐賀県,嬉野市,嬉野町大字下宿甲１９１番地Ｙ－ＨＯＵＳＥ３０３号,,41,209,8430301,,,,,,,2025-02-05,1,,,,,ブラザーズ,0
831,3320005010224,新規,0,2025-02-05,2025-02-05,税理士法人渡辺経理事務所,,その他の設立登記法人,大分県,中津市,中央町２丁目８番６号,,44,203,8710024,,,,,,,2025-02-05,1,,,,,ワタナベケイリジムショ,0
837,3360003014660,新規,0,2025-02-05,2025-02-05,うむしぃぬ合同会社,,合同会社,沖縄県,宮古島市,平良字久貝７８７番地１,,47,214,9060015,,,,,,,2025-02-05,1,,,,,ウムシイヌ,0
844,3400001016935,新規,0,2025-02-05,2025-02-05,株式会社ｕｎｉｃｏ,,株式会社,岩手県,盛岡市,下米内１丁目１番２６号,,03,201,0200003,,,,,,,2025-02-05,1,,,,,ユニコ,0
849,3430001093625,新規,0,2025-02-05,2025-02-05,株式会社ＴＡＫＵｂｅｉ,,株式会社,北海道,樺戸郡新十津川町,字弥生１１３０番地,,01,432,0731104,,,,,,,2025-02-05,1,,,,,タクベイ,0
853,3430003017235,新規,0,2025-02-05,2025-02-05,Ｊｏｈｎｓｏｎ　Ｆｉｖｅ合同会社,,合同会社,北海道,虻田郡倶知安町,北四条西２丁目５番地１２,,01,400,0440054,,,,,,,2025-02-05,1,,,,,ジョンソンファイブ,0
854,3430003017251,新規,0,2025-02-05,2025-02-05,合同会社ナガタ工務店,,合同会社,北海道,小樽市,松ケ枝１丁目２２－１４,,01,203,0470022,,,,,,,2025-02-05,1,,,,,ナガタコウムテン,0
857,3450003002598,新規,0,2025-02-05,2025-02-05,万代管理センター合同会社,,合同会社,北海道,旭川市,四条西６丁目１番１０号アレナＯＶＥＳＴ１０１号,,01,204,0700054,,,,,,,2025-02-05,1,,,,,マンダイカンリセンター,0
858,3460101007663,新規,0,2025-02-05,2025-02-05,ＺＡＭＡＮ　ＴＲＡＤＩＮＧ株式会社,,株式会社,北海道,帯広市,大正町東４線１０９番地３,,01,207,0891242,,,,,,,2025-02-05,1,,,,,ザマントレーディング,0
860,3470001020567,新規,0,2025-02-05,2025-02-05,株式会社アールエス電気,,株式会社,香川県,坂出市,林田町１７９１番地１,,37,203,7620012,,,,,,,2025-02-05,1,,,,,アールエスデンキ,0
875,4010001252024,新規,0,2025-02-05,2025-02-05,株式会社ルコフレ,,株式会社,東京都,中央区,日本橋浜町２丁目２５番１号,,13,102,1030007,,,,,,,2025-02-05,1,,,,,ルコフレ,0
877,4010003046333,新規,0,2025-02-05,2025-02-05,ソーラーモルト合同会社,,合同会社,東京都,千代田区,紀尾井町４番１号ニューオータニガーデンコート１９階フィンポート税理士法人内,,13,101,1020094,,,,,,,2025-02-05,1,,,,,ソーラーモルト,0
885,4010401187893,新規,0,2025-02-05,2025-02-05,Ｚｅｎ　Ｎａｔｉｏｎａｌ　Ｊａｐａｎ株式会社,,株式会社,東京都,港区,虎ノ門５丁目１３－１－７３８,,13,103,1050001,,,,,,,2025-02-05,1,,,,,ゼンナショナルジャパン,0
886,4010401187902,新規,0,2025-02-05,2025-02-05,株式会社ＧＪ３,,株式会社,東京都,港区,虎ノ門１丁目３番１号,,13,103,1050001,,,,,,,2025-02-05,1,,,,,ジージェーサン,0
887,4010401187992,新規,0,2025-02-05,2025-02-05,株式会社プレティアジャパン,,株式会社,東京都,港区,新橋３丁目９－１０天翔新橋ビル３階３０７号室,,13,103,1050004,,,,,,,2025-02-05,1,,,,,プレティアジャパン,0
892,4010403034326,新規,0,2025-02-05,2025-02-05,合同会社Ｓｉｒ　Ｂａｒｔｏｎ,,合同会社,東京都,港区,虎ノ門１丁目１番１８号ヒューリック虎ノ門ビル９階Ｌ＆Ｐ司法書士法人内,,13,103,1050001,,,,,,,2025-02-05,1,,,,,サーバートン,0
905,4010601066716,新規,0,2025-02-05,2025-02-05,株式会社Ｄ・Ｈ・Ｒ,,株式会社,東京都,江東区,亀戸３丁目６２番１０号ＳＡＮビル２０９号室,,13,108,1360071,,,,,,,2025-02-05,1,,,,,ディーエイチアール,0
911,4010901056771,新規,0,2025-02-05,2025-02-05,株式会社Ｔ＆Ｓ,,株式会社,東京都,世田谷区,宮坂１丁目９番１号,,13,112,1560051,,,,,,,2025-02-05,1,,,,,ティーアンドエス,0
919,4011001167550,新規,0,2025-02-05,2025-02-05,株式会社ターフレディース,,株式会社,東京都,渋谷区,神宮前３丁目６番２１号,,13,113,1500001,,,,,,,2025-02-05,1,,,,,ターフレディース,0
926,4011101110468,新規,0,2025-02-05,2025-02-05,宇宙株式会社,,株式会社,東京都,新宿区,北新宿４丁目３０番８号中野ビル１階,,13,104,1690074,,,,,,,2025-02-05,1,,,,,ウチュウ,0
927,4011101110518,新規,0,2025-02-05,2025-02-05,株式会社日本政策研究所,,株式会社,東京都,新宿区,市谷八幡町１－１新高ビル８０１号室,,13,104,1620844,,,,,,,2025-02-05,1,,,,,ニホンセイサクケンキュウジョ,0
931,4011105011324,新規,0,2025-02-05,2025-02-05,一般社団法人住宅みらい会議,,その他の設立登記法人,東京都,新宿区,西新宿６丁目１２番４号コイトビル５０１号室,,13,104,1600023,,,,,,,2025-02-05,1,,,,,ジュウタクミライカイギ,0
932,4011201026102,新規,0,2025-02-05,2025-02-05,株式会社今川設備,,株式会社,東京都,中野区,鷺宮２丁目１１番８号グランドパレス中野２０１,,13,114,1650032,,,,,,,2025-02-05,1,,,,,イマガワセツビ,0
933,4011303005409,新規,0,2025-02-05,2025-02-05,合同会社ＥＸＯＳＥＬＦ,,合同会社,東京都,杉並区,成田東４丁目１４番５号,,13,115,1660015,,,,,,,2025-02-05,1,,,,,エクソセルフ,0
946,4011701028044,新規,0,2025-02-05,2025-02-05,信源株式会社,,株式会社,東京都,江戸川区,松島１丁目３６番１号・１Ｆ,,13,123,1320031,,,,,,,2025-02-05,1,,,,,シンゲン,0
948,4011801045591,新規,0,2025-02-05,2025-02-05,株式会社清建,,株式会社,東京都,足立区,西新井４丁目３１番２号,,13,121,1230841,,,,,,,2025-02-05,1,,,,,セイケン,0
951,4011803006674,新規,0,2025-02-05,2025-02-05,なるみや合同会社,,合同会社,東京都,足立区,舎人４丁目１番１７号グリーンパーク二ツ橋１０３,,13,121,1210831,,,,,,,2025-02-05,1,,,,,ナルミヤ,0
953,4012701018687,新規,0,2025-02-05,2025-02-05,Ｎｕｔｎｕｔ株式会社,,株式会社,東京都,東久留米市,東本町４番１０－２０１号,,13,222,2030014,,,,,,,2025-02-05,1,,,,,ナットナット,0
966,4021001084407,新規,0,2025-02-05,2025-02-05,株式会社アイランド,,株式会社,神奈川県,愛甲郡愛川町,中津２２３１番地,,14,401,2430303,,,,,,,2025-02-05,1,,,,,アイランド,0
971,4030001164705,新規,0,2025-02-05,2025-02-05,株式会社和フォーラム３６９上里,,株式会社,埼玉県,児玉郡上里町,大字嘉美２２１番地１,,11,385,3690307,,,,,,,2025-02-05,1,,,,,ヤワラギフォーラムミロクカミサト,0
972,4030001164713,新規,0,2025-02-05,2025-02-05,株式会社ＹＨＣＢ,,株式会社,埼玉県,さいたま市大宮区,三橋４丁目９３９番地１ライオンズマンション大宮南２０３,,11,103,3300856,,,,,,,2025-02-05,1,,,,,ワイエイチシービー,0
973,4030001164721,新規,0,2025-02-05,2025-02-05,株式会社シー・ティー・シー,,株式会社,埼玉県,秩父市,大野原２１１４番地５,,11,207,3680005,,,,,,,2025-02-05,1,,,,,シーティーシー,0
982,4030003026028,新規,0,2025-02-05,2025-02-05,ＯＢＥＩ合同会社,,合同会社,埼玉県,さいたま市緑区,大字下野田１４６番地クレア美園３０４号室,,11,109,3360962,,,,,,,2025-02-05,1,,,,,オベイ,0
983,4030003026060,新規,0,2025-02-05,2025-02-05,シーズ・プランニング合同会社,,合同会社,埼玉県,さいたま市見沼区,春野１丁目３番１－７０９号,,11,104,3370002,,,,,,,2025-02-05,1,,,,,シーズプランニング,0
994,4040001137255,新規,0,2025-02-05,2025-02-05,株式会社みのり,,株式会社,千葉県,市川市,曽谷８丁目１６番３号,,12,203,2720832,,,,,,,2025-02-05,1,,,,,ミノリ,0
999,4040003026778,新規,0,2025-02-05,2025-02-05,Ｌｉｎｃａｇｅ合同会社,,合同会社,千葉県,船橋市,西船１丁目２０番１８－３０７号,,12,204,2730031,,,,,,,2025-02-05,1,,,,,リンケージ,0
1002,4050001056124,新規,0,2025-02-05,2025-02-05,脳フィットネスリサーチ＆コンサルティング株式会社,,株式会社,茨城県,つくば市,小田２５２２番地１,,08,220,3004223,,,,,,,2025-02-05,1,,,,,ノウフィットネスリサーチアンドコンサルティング,0
1003,4050001056140,新規,0,2025-02-05,2025-02-05,株式会社もみの木,,株式会社,茨城県,取手市,新町６丁目２２番２０－２０４号,,08,217,3020024,,,,,,,2025-02-05,1,,,,,モミノキ,0
1005,4060001037890,新規,0,2025-02-05,2025-02-05,株式会社タカノ．Ｆ,,株式会社,栃木県,那須烏山市,谷浅見１１６番地,,09,215,3210603,,,,,,,2025-02-05,1,,,,,タカノドットエフ,0
1006,4060005010299,新規,0,2025-02-05,2025-02-05,税理士法人藤沼会計,,その他の設立登記法人,栃木県,大田原市,中央２丁目１６番２７号,,09,210,3240056,,,,,,,2025-02-05,1,,,,,フジヌマカイケイ,0
1017,4100001038273,新規,0,2025-02-05,2025-02-05,株式会社貝友グローバル,,株式会社,長野県,上田市,中之条４３０番地１フォレシティ上田南２０３号,,20,203,3860034,,,,,,,2025-02-05,1,,,,,バイユウグローバル,0
1030,4120001272390,新規,0,2025-02-05,2025-02-05,Ｅａｓｔ　Ａｓｉａ　Ｍｅｔａｌ　Ｉｎｔｅｒｎａｔｉｏｎａｌ株式会社,,株式会社,大阪府,大阪市西成区,聖天下１丁目４－２９－１０５号,,27,122,5570012,,,,,,,2025-02-05,1,,,,,イーストアジアメタルインターナショナル,0
1031,4120001272473,新規,0,2025-02-05,2025-02-05,株式会社ＧＳ貿易,,株式会社,大阪府,大阪市浪速区,木津川２丁目４番５７号３階,,27,111,5560027,,,,,,,2025-02-05,1,,,,,ジーエスボウエキ,0
1032,4120001272564,新規,0,2025-02-05,2025-02-05,李寧氏株式会社,,株式会社,大阪府,大阪市中央区,島之内２丁目５番１５号メロンハウス２０５号室,,27,128,5420082,,,,,,,2025-02-05,1,,,,,リネイシ,0
1033,4120001272572,新規,0,2025-02-05,2025-02-05,ＷＭＩ株式会社,,株式会社,大阪府,大阪市浪速区,湊町２丁目１番３４－７１２号,,27,111,5560017,,,,,,,2025-02-05,1,,,,,ダブルエムアイ,0
1034,4120001272589,新規,0,2025-02-05,2025-02-05,やまと結び株式会社,,株式会社,大阪府,大阪市鶴見区,横堤４丁目１０番１７－１０７号,,27,124,5380052,,,,,,,2025-02-05,1,,,,,ヤマトムスビ,0
1035,4120001272614,新規,0,2025-02-05,2025-02-05,春上株式会社,,株式会社,大阪府,大阪市天王寺区,伶人町２－３１ＳｔａｒＯｆｆｉｃｅ大阪天王寺北８０９号室,,27,109,5430061,,,,,,,2025-02-05,1,,,,,ハルカミ,0
1036,4120001272639,新規,0,2025-02-05,2025-02-05,株式会社Ｍｏｌｔ,,株式会社,大阪府,大阪市中央区,森ノ宮中央２丁目４番６号亀井ビル３階,,27,128,5400003,,,,,,,2025-02-05,1,,,,,モルト,0
1037,4120001272663,新規,0,2025-02-05,2025-02-05,アデッセ株式会社,,株式会社,大阪府,大阪市北区,西天満５丁目１－１５西天満パークビル２号館６Ｆ,,27,127,5300047,,,,,,,2025-02-05,1,,,,,アデッセ,0
1054,4140001137303,新規,0,2025-02-05,2025-02-05,株式会社ＢＩＧ　ＧＡＴＥ,,株式会社,兵庫県,西宮市,甲子園口北町２１－１３,,28,204,6638112,,,,,,,2025-02-05,1,,,,,ビッグゲート,0
1055,4140001137336,新規,0,2025-02-05,2025-02-05,株式会社ふじた楽農,,株式会社,兵庫県,加東市,藤田１７９５番地７,,28,228,6731462,,,,,,,2025-02-05,1,,,,,フジタラクノウ,0
1059,4140003021612,新規,0,2025-02-05,2025-02-05,合同会社川田興業,,合同会社,兵庫県,神戸市北区,藤原台南町１丁目２５番２０号,,28,109,6511303,,,,,,,2025-02-05,1,,,,,カワタコウギョウ,0
1060,4140003021629,新規,0,2025-02-05,2025-02-05,合同会社エフ工房,,合同会社,兵庫県,明石市,大久保町西島１２９番地,,28,203,6740065,,,,,,,2025-02-05,1,,,,,エフコウボウ,0
1062,4150001027858,新規,0,2025-02-05,2025-02-05,株式会社カーエコテック,,株式会社,奈良県,北葛城郡上牧町,大字上牧２５７１番地１,,29,424,6390214,,,,,,,2025-02-05,1,,,,,カーエコテック,0
1065,4160003003393,新規,0,2025-02-05,2025-02-05,クラフトマン合同会社,,合同会社,滋賀県,大津市,稲津１丁目６番３３号,,25,201,5202271,,,,,,,2025-02-05,1,,,,,クラフトマン,0
1073,4180001165291,新規,0,2025-02-05,2025-02-05,株式会社イースリー,,株式会社,愛知県,名古屋市中区,大須３丁目１２番２６号グランドメゾン大須ザ・タワー７０３号,,23,106,4600011,,,,,,,2025-02-05,1,,,,,イースリー,0
1074,4180001165309,新規,0,2025-02-05,2025-02-05,株式会社ＡＩＵ,,株式会社,愛知県,日進市,岩崎台３丁目２０２２番地,,23,230,4700135,,,,,,,2025-02-05,1,,,,,エーアイユー,0
1080,4180301039492,新規,0,2025-02-05,2025-02-05,株式会社２ＶＡＮ　ＥＸＰＲＥＳＳ,,株式会社,愛知県,豊橋市,多米西町２丁目４番地２１,,23,201,4400026,,,,,,,2025-02-05,1,,,,,ニバンエクスプレス,0
1089,4200001043412,新規,0,2025-02-05,2025-02-05,ＮＮＫ株式会社,,株式会社,岐阜県,多治見市,奥川町４９番地,,21,204,5070822,,,,,,,2025-02-05,1,,,,,エヌエヌケー,0
1091,4200005013717,新規,0,2025-02-05,2025-02-05,特定非営利活動法人つきの家,,その他の設立登記法人,岐阜県,本巣市,三橋鶴舞２５番地,,21,218,5010400,,,,,,,2025-02-05,1,,,,,ツキノイエ,0
1093,4210001020047,新規,0,2025-02-05,2025-02-05,株式会社まちＵＰエナジー,,株式会社,福井県,今立郡池田町,稲荷第３６号２５番地１,,18,382,9102512,,,,,,,2025-02-05,1,,,,,マチアップエナジー,0
1095,4220005008921,新規,0,2025-02-05,2025-02-05,一般社団法人ＩｎｎｏｖＥｄ,,その他の設立登記法人,石川県,羽咋郡志賀町,直海ホ－４０,,17,384,9250372,,,,,,,2025-02-05,1,,,,,イノベッド,0
1101,4240001064495,新規,0,2025-02-05,2025-02-05,株式会社ＢＡＵＨＡＵＳマネジメント,,株式会社,広島県,広島市中区,平野町２番３１号ＢＡＵＨＡＵＳビル１Ｆ,,34,101,7300047,,,,,,,2025-02-05,1,,,,,バウハウスマネジメント,0
1102,4240003007048,新規,0,2025-02-05,2025-02-05,ＲＡＮＲＩＮ合同会社,,合同会社,広島県,福山市,南松永町３丁目９番１１号,,34,207,7290105,,,,,,,2025-02-05,1,,,,,ランリン,0
1106,4260001039883,新規,0,2025-02-05,2025-02-05,株式会社Ａ．ＤＭＳ,,株式会社,岡山県,玉野市,宇野１丁目４２番２５号,,33,204,7060011,,,,,,,2025-02-05,1,,,,,アダムス,0
1109,4290001108801,新規,0,2025-02-05,2025-02-05,小山田木材工業株式会社,,株式会社,福岡県,福岡市博多区,吉塚８丁目１番７号,,40,132,8120041,,,,,,,2025-02-05,1,,,,,,0
1110,4290001108859,新規,0,2025-02-05,2025-02-05,ＳＩＯＮ　ＴＥＣＨ株式会社,,株式会社,福岡県,八女市,室岡２９４番地３岩本インタービル２Ｆ,,40,210,8340066,,,,,,,2025-02-05,1,,,,,シオンテック,0
1111,4290001108867,新規,0,2025-02-05,2025-02-05,ＵＮＩＴＥＤ　ＰＬＡＮＮＩＮＧ株式会社,,株式会社,福岡県,福岡市中央区,赤坂１丁目１５番２１号宝ビル６Ｆ,,40,133,8100042,,,,,,,2025-02-05,1,,,,,ユナイテッドプランニング,0
1121,4300001014072,新規,0,2025-02-05,2025-02-05,株式会社オンオクリ,,株式会社,佐賀県,佐賀市,大和町大字尼寺２８８９番地２,,41,201,8400201,,,,,,,2025-02-05,1,,,,,オンオクリ,0
1123,4320001020928,新規,0,2025-02-05,2025-02-05,株式会社ＪａＭｉｔｓ,,株式会社,大分県,竹田市,直入町大字長湯７７１５番地１,,44,208,8780402,,,,,,,2025-02-05,1,,,,,ジャミッツ,0
1124,4320005010223,新規,0,2025-02-05,2025-02-05,医療法人Ｏｒｉｏｎ,,その他の設立登記法人,大分県,日田市,三本松１丁目８番２８号,,44,204,8770016,,,,,,,2025-02-05,1,,,,,オリオン,0
1125,4340001027112,新規,0,2025-02-05,2025-02-05,株式会社アンジュ,,株式会社,鹿児島県,鹿児島市,下伊敷１丁目５４番１８－８０１号,,46,201,8900005,,,,,,,2025-02-05,1,,,,,アンジュ,0
1133,4370001052198,新規,0,2025-02-05,2025-02-05,株式会社ラディックス,,株式会社,宮城県,仙台市太白区,郡山７丁目１２番１２号,,04,104,9820003,,,,,,,2025-02-05,1,,,,,ラディックス,0
1134,4370003006929,新規,0,2025-02-05,2025-02-05,合同会社ＭｉｒａｉＷｏｒｋｓ,,合同会社,宮城県,仙台市若林区,土樋５０クレセント土樋３０４,,04,103,9840065,,,,,,,2025-02-05,1,,,,,ミライワークス,0
1138,4400001016934,新規,0,2025-02-05,2025-02-05,株式会社ポラルクス,,株式会社,岩手県,滝沢市,黒沢１２５番地１２,,03,216,0200646,,,,,,,2025-02-05,1,,,,,ポラルクス,0
1141,4410001014053,新規,0,2025-02-05,2025-02-05,株式会社朝岡ファーム,,株式会社,秋田県,由利本荘市,西目町沼田字内高土９８番地２,,05,210,0180604,,,,,,,2025-02-05,1,,,,,アサオカファーム,0
1142,4410003004044,新規,0,2025-02-05,2025-02-05,ＳＣＦＯ合同会社,,合同会社,秋田県,男鹿市,船川港船川字新浜町７番地コーポなつい２０１,,05,206,0100511,,,,,,,2025-02-05,1,,,,,エスシーエフオー,0
1145,4430001093624,新規,0,2025-02-05,2025-02-05,株式会社Ｃｏｎｎｅｃｔ,,株式会社,北海道,札幌市北区,北三十三条西２丁目１－１５ＫＡＮＴＩＮＥ,,01,102,0010033,,,,,,,2025-02-05,1,,,,,コネクト,0
1146,4430001093632,新規,0,2025-02-05,2025-02-05,株式会社蒔喜出版,,株式会社,北海道,札幌市中央区,大通西８丁目１番８,,01,101,0600042,,,,,,,2025-02-05,1,,,,,シキシュッパン,0
1147,4430001093640,新規,0,2025-02-05,2025-02-05,株式会社Ｔｏｐ　Ｍｅｄｉａ,,株式会社,北海道,札幌市豊平区,月寒東五条１８丁目７番７号,,01,105,0620055,,,,,,,2025-02-05,1,,,,,トップメディア,0
1149,4430003017250,新規,0,2025-02-05,2025-02-05,合同会社ＦＡＣＥ,,合同会社,北海道,札幌市中央区,南七条西２３丁目２番２０号,,01,101,0640807,,,,,,,2025-02-05,1,,,,,フェイス,0
1150,4440001009562,新規,0,2025-02-05,2025-02-05,株式会社はるかぜ,,株式会社,北海道,函館市,新川町２３番２２号,,01,202,0400032,,,,,,,2025-02-05,1,,,,,ハルカゼ,0
1151,4450003002597,新規,0,2025-02-05,2025-02-05,合同会社桃井機械設計,,合同会社,北海道,旭川市,東光六条２丁目４番７号,,01,204,0788346,,,,,,,2025-02-05,1,,,,,モモイキカイセッケイ,0
1152,4462501001022,新規,0,2025-02-05,2025-02-05,株式会社ｐｅｋｏ,,株式会社,北海道,野付郡別海町,中西別１１５番地１８,,01,691,0860345,,,,,,,2025-02-05,1,,,,,ペコ,0
1154,4470001020566,新規,0,2025-02-05,2025-02-05,株式会社さぬきスクールランチパートナーズ,,株式会社,香川県,さぬき市,津田町津田２８８０番地３４,,37,206,7692401,,,,,,,2025-02-05,1,,,,,サヌキスクールランチパートナーズ,0
1174,5010003046200,新規,0,2025-02-05,2025-02-05,合同会社ＴＯＣＨＩＮＯＫＩ,,合同会社,東京都,千代田区,富士見２丁目１２番１３号フィル・パーク飯田橋１階,,13,101,1020071,,,,,,,2025-02-05,1,,,,,トチノキ,0
1175,5010005039524,新規,0,2025-02-05,2025-02-05,一般社団法人ＧＡＬＬＡＧＨＥＲ,,その他の設立登記法人,東京都,中央区,新川１丁目１７番１８号,,13,102,1040033,,,,,,,2025-02-05,1,,,,,ギャラガー,0
1176,5010105002324,新規,0,2025-02-05,2025-02-05,一般社団法人いきいきライフ協会八王子東,,その他の設立登記法人,東京都,八王子市,大塚８８番地,,13,201,1920352,,,,,,,2025-02-05,1,,,,,イキイキライフキョウカイハチオウジヒガシ,0
1180,5010401187827,新規,0,2025-02-05,2025-02-05,ＧｅｅＸ株式会社,,株式会社,東京都,港区,北青山１丁目３番１号アールキューブ青山３階,,13,103,1070061,,,,,,,2025-02-05,1,,,,,ギークス,0
1181,5010401187901,新規,0,2025-02-05,2025-02-05,ＫＨコンサルティング株式会社,,株式会社,東京都,港区,南青山３丁目１－３６アオヤママルタケビル６Ｆ,,13,103,1070062,,,,,,,2025-02-05,1,,,,,ケーエイチコンサルティング,0
1182,5010401187918,新規,0,2025-02-05,2025-02-05,株式会社ＳＡＢＯＴＥＮ,,株式会社,東京都,港区,南青山３丁目１番３６号青山丸竹ビル６Ｆ,,13,103,1070062,,,,,,,2025-02-05,1,,,,,サボテン,0
1183,5010403034300,新規,0,2025-02-05,2025-02-05,ウェイブテクノロジーズジャパン合同会社,,合同会社,東京都,港区,元麻布３丁目１番６号,,13,103,1060046,,,,,,,2025-02-05,1,,,,,ウェイブテクノロジーズジャパン,0
1184,5010403034325,新規,0,2025-02-05,2025-02-05,合同会社Ｒｅｇｒｅｔ,,合同会社,東京都,港区,虎ノ門１丁目１番１８号ヒューリック虎ノ門ビル９階Ｌ＆Ｐ司法書士法人内,,13,103,1050001,,,,,,,2025-02-05,1,,,,,リグレット,0
1185,5010403034333,新規,0,2025-02-05,2025-02-05,合同会社サポートＨ,,合同会社,東京都,港区,赤坂２丁目１７番５０－３２１１号,,13,103,1070052,,,,,,,2025-02-05,1,,,,,サポートエイチ,0
1190,5010601066707,新規,0,2025-02-05,2025-02-05,三界農業株式会社,,株式会社,東京都,江東区,北砂４丁目２４番６号,,13,108,1360073,,,,,,,2025-02-05,1,,,,,サンカイノウギョウ,0
1191,5010603011371,新規,0,2025-02-05,2025-02-05,Ｌａ　Ｃｉｇｏｇｎｅ　Ｃｏｎｓｕｌｔｉｎｇ合同会社,,合同会社,東京都,江東区,新砂１丁目７番２８－１１０８号,,13,108,1360075,,,,,,,2025-02-05,1,,,,,ラシゴーニュコンサルティング,0
1195,5010901056770,新規,0,2025-02-05,2025-02-05,株式会社アームロック,,株式会社,東京都,世田谷区,三軒茶屋１丁目３５番２号大島ビル１階,,13,112,1540024,,,,,,,2025-02-05,1,,,,,アームロック,0
1199,5011003020871,新規,0,2025-02-05,2025-02-05,合同会社イコールスタディ,,合同会社,東京都,渋谷区,渋谷２丁目１９番１５号宮益坂ビルディング６０９,,13,113,1500002,,,,,,,2025-02-05,1,,,,,イコールスタディ,0
1210,5011303005408,新規,0,2025-02-05,2025-02-05,合同会社Ｈｕｌｋ,,合同会社,東京都,杉並区,永福４丁目１９番２２－４号,,13,115,1680064,,,,,,,2025-02-05,1,,,,,ハルク,0
1212,5011401026792,新規,0,2025-02-05,2025-02-05,ＦｕｓｉｏｎＭｉｎｄソフト株式会社,,株式会社,東京都,板橋区,舟渡１丁目１３番１０号アイ・タワー２Ｆ,,13,119,1740041,,,,,,,2025-02-05,1,,,,,フュージョンマインドソフト,0
1216,5011603004596,新規,0,2025-02-05,2025-02-05,合同会社ＵＤ　ＪＡＰＡＮ　ＴＲＡＤＩＮＧ,,合同会社,東京都,練馬区,旭町１丁目３４－１１,,13,120,1790071,,,,,,,2025-02-05,1,,,,,ユーディージャパントレーディング,0
1218,5011801045582,新規,0,2025-02-05,2025-02-05,株式会社ガルテック,,株式会社,東京都,足立区,綾瀬５丁目１１番６号,,13,121,1200005,,,,,,,2025-02-05,1,,,,,ガルテック,0
1221,5012401042747,新規,0,2025-02-05,2025-02-05,衣服造形所ｍｅｒｇｅｎ株式会社,,株式会社,東京都,武蔵野市,境南町３丁目１０番６号,,13,203,1800023,,,,,,,2025-02-05,1,,,,,イフクゾウケイジョメルゲン,0
1228,5013301053751,新規,0,2025-02-05,2025-02-05,ＣＡＳＴ株式会社,,株式会社,東京都,豊島区,西巣鴨１丁目１９－１８ナニワビルディング３階,,13,116,1700001,,,,,,,2025-02-05,1,,,,,キャスト,0
1235,5020001161215,新規,0,2025-02-05,2025-02-05,株式会社ヤマテラス,,株式会社,神奈川県,川崎市高津区,千年９０４番地２,,14,134,2130022,,,,,,,2025-02-05,1,,,,,ヤマテラス,0
1245,5020003027694,新規,0,2025-02-05,2025-02-05,ＲＵＢＹ　Ｐｉｃｔｕｒｅｓ合同会社,,合同会社,神奈川県,横浜市都筑区,中川中央１丁目２２番１３号和田ビルセンター北３０１,,14,118,2240003,,,,,,,2025-02-05,1,,,,,ルービーピクチャーズ,0
1246,5020003027703,新規,0,2025-02-05,2025-02-05,Ｋ２合同会社,,合同会社,神奈川県,横浜市泉区,和泉が丘３丁目２３－１１,,14,116,2450022,,,,,,,2025-02-05,1,,,,,ケーツー,0
1263,5030001164720,新規,0,2025-02-05,2025-02-05,ミツホ株式会社,,株式会社,埼玉県,新座市,栗原４丁目４番３号,,11,230,3520035,,,,,,,2025-02-05,1,,,,,ミツホ,0
1276,5040001137089,新規,0,2025-02-05,2025-02-05,多亮多通商株式会社,,株式会社,千葉県,千葉市花見川区,浪８７１－２,,12,102,2620000,,,,,,,2025-02-05,1,,,,,タリョウタツウショウ,0
1277,5040001137246,新規,0,2025-02-05,2025-02-05,株式会社丸裕,,株式会社,千葉県,大網白里市,柿餅１７３番地２,,12,239,2993264,,,,,,,2025-02-05,1,,,,,マルユウ,0
1278,5040001137254,新規,0,2025-02-05,2025-02-05,株式会社関東電気,,株式会社,千葉県,市川市,平田３丁目１番８号,,12,203,2720031,,,,,,,2025-02-05,1,,,,,カントウデンキ,0
1285,5040003026769,新規,0,2025-02-05,2025-02-05,ＮＡＺＥＥＨＡ　ＥＮＴＥＲＰＲＩＳＥＳ合同会社,,合同会社,千葉県,八街市,東吉田２３０番地９,,12,230,2891114,,,,,,,2025-02-05,1,,,,,ナジーハエンタープライズ,0
1288,5050001056123,新規,0,2025-02-05,2025-02-05,ＥＧＡ　Ｈｏｌｄｉｎｇｓ株式会社,,株式会社,茨城県,つくば市,田倉５１８９番地１９,,08,220,3002615,,,,,,,2025-02-05,1,,,,,エーガーホールディングス,0
1289,5050003009005,新規,0,2025-02-05,2025-02-05,合同会社ヴィアクレシス,,合同会社,茨城県,ひたちなか市,大字稲田１０４８－８２,,08,221,3120061,,,,,,,2025-02-05,1,,,,,ヴィアクレシス,0
1297,5080101025289,新規,0,2025-02-05,2025-02-05,株式会社白壁,,株式会社,静岡県,伊豆市,湯ケ島１５９４番地,,22,222,4103206,,,,,,,2025-02-05,1,,,,,シラカベ,0
1298,5080101025297,新規,0,2025-02-05,2025-02-05,株式会社Ｋ．Ｋサービス,,株式会社,静岡県,熱海市,清水町１１番５号,,22,205,4130021,,,,,,,2025-02-05,1,,,,,ケーケーサービス,0
1303,5100005013288,新規,0,2025-02-05,2025-02-05,一般社団法人信州無何有の里,,その他の設立登記法人,長野県,松本市,五常４５６３番地５,,20,202,3997401,,,,,,,2025-02-05,1,,,,,シンシュウムカウノサト,0
1314,5120001272530,新規,0,2025-02-05,2025-02-05,澤祐株式会社,,株式会社,大阪府,大阪市西成区,南津守６丁目３番７３－Ｂ棟２０２Ａ号,,27,122,5570063,,,,,,,2025-02-05,1,,,,,サワユウ,0
1315,5120001272571,新規,0,2025-02-05,2025-02-05,Ｍステージ株式会社,,株式会社,大阪府,大阪市此花区,島屋６丁目２番１４－２００６号,,27,104,5540024,,,,,,,2025-02-05,1,,,,,エムステージ,0
1316,5120001272588,新規,0,2025-02-05,2025-02-05,株式会社ＫＵＲＡ　ＳＥＬＥＣＴ,,株式会社,大阪府,大阪市中央区,北久宝寺町１丁目７－１０アトリウム４ｃ,,27,128,5410057,,,,,,,2025-02-05,1,,,,,クラセレクト,0
1317,5120001272596,新規,0,2025-02-05,2025-02-05,株式会社ＳＨＡＨＥＤ,,株式会社,大阪府,大阪市西成区,鶴見橋１丁目１番８号４階４Ｂ号室,,27,122,5570031,,,,,,,2025-02-05,1,,,,,シャヘド,0
1318,5120001272613,新規,0,2025-02-05,2025-02-05,和心文創株式会社,,株式会社,大阪府,大阪市天王寺区,伶人町２－３１ＳｔａｒＯｆｆｉｃｅ大阪天王寺北９０３号室,,27,109,5430061,,,,,,,2025-02-05,1,,,,,ワゴコロブンソウ,0
1319,5120001272695,新規,0,2025-02-05,2025-02-05,吉興株式会社,,株式会社,大阪府,大阪市東成区,中道２丁目１５番２号１Ｆ,,27,115,5370025,,,,,,,2025-02-05,1,,,,,ヨシコウ,0
1324,5120003028550,新規,0,2025-02-05,2025-02-05,ＳＯＬ　ＯＲＩＥＮＳ合同会社,,合同会社,大阪府,大阪市西区,北堀江１丁目２２－３マインズ北堀江Ｗ１０,,27,106,5500014,,,,,,,2025-02-05,1,,,,,ソールオリエンス,0
1328,5120005024779,新規,0,2025-02-05,2025-02-05,一般社団法人ＶＪＣＰ,,その他の設立登記法人,大阪府,大阪市浪速区,日本橋３丁目５番２９号２Ｆ,,27,111,5560005,,,,,,,2025-02-05,1,,,,,ブイジェイシーピー,0
1334,5120901050408,新規,0,2025-02-05,2025-02-05,クルーエンス株式会社,,株式会社,大阪府,箕面市,森町中３丁目７番２３号,,27,220,5630257,,,,,,,2025-02-05,1,,,,,クルーエンス,0
1335,5122003003104,新規,0,2025-02-05,2025-02-05,東瀛商事合同会社,,合同会社,大阪府,東大阪市,新喜多２丁目６－２７朝日プラザ小阪３０１２,,27,227,5770052,,,,,,,2025-02-05,1,,,,,トウエイショウジ,0
1338,5130001078951,新規,0,2025-02-05,2025-02-05,株式会社Ｔａｋｅ　ｉｎ　Ａｕｔｏ,,株式会社,京都府,京都市伏見区,横大路千両松町６７番地１Ｂ棟,,26,109,6128244,,,,,,,2025-02-05,1,,,,,テイクインオート,0
1340,5130003010193,新規,0,2025-02-05,2025-02-05,綺絵堂合同会社,,合同会社,京都府,京都市左京区,岩倉花園町４８４－２０,,26,103,6060024,,,,,,,2025-02-05,1,,,,,キエドウ,0
1348,5140001137335,新規,0,2025-02-05,2025-02-05,株式会社ｂｏｕｌｄｅｒ,,株式会社,兵庫県,神戸市垂水区,泉が丘５丁目１番２０号,,28,108,6550885,,,,,,,2025-02-05,1,,,,,ボルダー,0
1349,5140003021611,新規,0,2025-02-05,2025-02-05,合同会社つなぐ,,合同会社,兵庫県,神戸市長田区,二番町４丁目３２番地サンライズ長田８０１号,,28,106,6530012,,,,,,,2025-02-05,1,,,,,ツナグ,0
1352,5160001026528,新規,0,2025-02-05,2025-02-05,株式会社ハート産業医パートナーズ,,株式会社,滋賀県,米原市,梓河内２０５,,25,214,5210211,,,,,,,2025-02-05,1,,,,,ハートサンギョウイパートナーズ,0
1359,5180001165299,新規,0,2025-02-05,2025-02-05,ミソノサービス株式会社,,株式会社,愛知県,名古屋市中区,丸の内３丁目６番３３号２１０４,,23,106,4600002,,,,,,,2025-02-05,1,,,,,ミソノサービス,0
1360,5180001165308,新規,0,2025-02-05,2025-02-05,株式会社ＲＥＶ,,株式会社,愛知県,江南市,木賀町定和２４番地２,,23,217,4838255,,,,,,,2025-02-05,1,,,,,アールイーブイ,0
1365,5180301039500,新規,0,2025-02-05,2025-02-05,株式会社ＫＫ,,株式会社,愛知県,豊橋市,老津町字岩塚２２番地,,23,201,4413301,,,,,,,2025-02-05,1,,,,,ケーケー,0
1368,5200003006663,新規,0,2025-02-05,2025-02-05,エクリュ合同会社,,合同会社,岐阜県,羽島市,福寿町本郷１５４９番地１２,,21,209,5016254,,,,,,,2025-02-05,1,,,,,エクリュ,0
1369,5220003003948,新規,0,2025-02-05,2025-02-05,合同会社旅と能登,,合同会社,石川県,七尾市,御祓町１パトリア一階うめのみや,,17,202,9260811,,,,,,,2025-02-05,1,,,,,タビトノト,0
1371,5230003002370,新規,0,2025-02-05,2025-02-05,合同会社吉峰地所,,合同会社,富山県,中新川郡立山町,栃津７番地２,,16,323,9301363,,,,,,,2025-02-05,1,,,,,ヨシミネジショ,0
1378,5250003003648,新規,0,2025-02-05,2025-02-05,合同会社イシモト,,合同会社,山口県,防府市,大字浜方２５番地の１,,35,206,7470833,,,,,,,2025-02-05,1,,,,,イシモト,0
1380,5260001039882,新規,0,2025-02-05,2025-02-05,株式会社ライフデザインパートナーズ,,株式会社,岡山県,岡山市南区,妹尾２４０７番地９４,,33,104,7010205,,,,,,,2025-02-05,1,,,,,ライフデザインパートナーズ,0
1393,5300001014071,新規,0,2025-02-05,2025-02-05,株式会社ＡＧＣＯＮ,,株式会社,佐賀県,佐賀市,大和町大字尼寺２８８９番地２,,41,201,8400201,,,,,,,2025-02-05,1,,,,,エイジコン,0
1397,5320001020927,新規,0,2025-02-05,2025-02-05,株式会社ＥＶＯ,,株式会社,大分県,大分市,大字下郡６７０番地６２,,44,201,8700951,,,,,,,2025-02-05,1,,,,,エボ,0
1398,5330001032871,新規,0,2025-02-05,2025-02-05,株式会社Ｓａｌｍｏｎ,,株式会社,熊本県,熊本市中央区,水前寺公園２番８－１１０２号,,43,101,8620956,,,,,,,2025-02-05,1,,,,,サーモン,0
1399,5330003010792,新規,0,2025-02-05,2025-02-05,合同会社一二三ブライト,,合同会社,熊本県,熊本市西区,花園３丁目４－１６・１０１号,,43,103,8600072,,,,,,,2025-02-05,1,,,,,ヒフミブライト,0
1417,5370001052214,新規,0,2025-02-05,2025-02-05,カラフルバード株式会社,,株式会社,宮城県,仙台市太白区,あすと長町４丁目２番３８－２２０６号,,04,104,9820007,,,,,,,2025-02-05,1,,,,,カラフルバード,0
1437,5430001093607,新規,0,2025-02-05,2025-02-05,匠栄工業株式会社,,株式会社,北海道,登別市,新生町２丁目４９番地７,,01,230,0590032,,,,,,,2025-02-05,1,,,,,ショウエイコウギョウ,0
1438,5430001093615,新規,0,2025-02-05,2025-02-05,北海道フード・プラン株式会社,,株式会社,北海道,札幌市西区,西町北２０丁目２番１８－１２０３号,,01,107,0630061,,,,,,,2025-02-05,1,,,,,ホッカイドウフードプラン,0
1439,5430003017241,新規,0,2025-02-05,2025-02-05,合同会社啓塗装,,合同会社,北海道,江別市,高砂町９番地の６,,01,217,0670074,,,,,,,2025-02-05,1,,,,,ヒロトソウ,0
1442,5450003002596,新規,0,2025-02-05,2025-02-05,合同会社ＢｕｃｋＷｈｅａｔ,,合同会社,北海道,旭川市,六条西４丁目２番２０号,,01,204,0700056,,,,,,,2025-02-05,1,,,,,バックウィート,0
1443,5460005001587,新規,0,2025-02-05,2025-02-05,一般社団法人くしろアカデミー,,その他の設立登記法人,北海道,釧路市,駒場町３番３５号,,01,206,0850048,,,,,,,2025-02-05,1,,,,,クシロアカデミー,0
1444,5460301005275,新規,0,2025-02-05,2025-02-05,株式会社文化屋,,株式会社,北海道,北見市,北進町２丁目１０番９号,,01,208,0900052,,,,,,,2025-02-05,1,,,,,ブンカヤ,0
1445,5462501001021,新規,0,2025-02-05,2025-02-05,株式会社Ｗｏｏｄｌａｎｄ,,株式会社,北海道,標津郡中標津町,計根別北一条東４丁目５番地,,01,692,0882682,,,,,,,2025-02-05,1,,,,,ウッドランド,0
1468,6010001251998,新規,0,2025-02-05,2025-02-05,株式会社Ｇ’Ｄ,,株式会社,東京都,千代田区,神田駿河台３丁目３番地３Ｋ＆Ｔ．Ｔ駿河台ビルディング２階,,13,101,1010062,,,,,,,2025-02-05,1,,,,,ジーディー,0
1469,6010001252014,新規,0,2025-02-05,2025-02-05,衆信株式会社,,株式会社,東京都,千代田区,岩本町１丁目１２番１１号５０１号Ｂ室,,13,101,1010032,,,,,,,2025-02-05,1,,,,,シュウシン,0
1470,6010001252030,新規,0,2025-02-05,2025-02-05,株式会社ＧＡＬＬＥＲＹ・２,,株式会社,東京都,千代田区,神田錦町３丁目２０番地錦町トラッドスクエア１２階,,13,101,1010054,,,,,,,2025-02-05,1,,,,,ギャラリーツー,0
1473,6010003046232,新規,0,2025-02-05,2025-02-05,Ｖｅｎｔｕｒｅ　Ｏｕｔ合同会社,,合同会社,東京都,中央区,日本橋室町１丁目１１番１２号日本橋水野ビル７階,,13,102,1030022,,,,,,,2025-02-05,1,,,,,ベンチャーアウト,0
1475,6010005039523,新規,0,2025-02-05,2025-02-05,弁護士法人ＳＯＬＬＩＥＶＯ,,その他の設立登記法人,東京都,千代田区,九段南２丁目３番２６号井関ビル６階,,13,101,1020074,,,,,,,2025-02-05,1,,,,,ソリエボ,0
1480,6010401187883,新規,0,2025-02-05,2025-02-05,株式会社Ａｍｗａｌ,,株式会社,東京都,港区,浜松町２丁目２番１５号浜松町ダイヤビル２Ｆ,,13,103,1050013,,,,,,,2025-02-05,1,,,,,アムワール,0
1481,6010401187933,新規,0,2025-02-05,2025-02-05,株式会社Ｆコンサルティング,,株式会社,東京都,港区,新橋４丁目１４番１,,13,103,1050004,,,,,,,2025-02-05,1,,,,,エフコンサルティング,0
1482,6010401187999,新規,0,2025-02-05,2025-02-05,株式会社ＲＩＮＧ,,株式会社,東京都,港区,新橋３丁目３番３号新橋パイオニアビル４階,,13,103,1050004,,,,,,,2025-02-05,1,,,,,リング,0
1483,6010401188048,新規,0,2025-02-05,2025-02-05,株式会社ＡＰ８３ホールディングス,,株式会社,東京都,港区,虎ノ門４丁目１番２８号虎ノ門タワーズオフィス１７階,,13,103,1050001,,,,,,,2025-02-05,1,,,,,エーピーハチジュウサンホールディングス,0
1485,6010403034299,新規,0,2025-02-05,2025-02-05,羽光合同会社,,合同会社,東京都,港区,三田５丁目１番２号２Ｆ,,13,103,1080073,,,,,,,2025-02-05,1,,,,,ワコウ,0
1486,6010403034308,新規,0,2025-02-05,2025-02-05,Ｎｏｒｓｔａｒ　Ｇｌｏｂａｌ　Ｒｅｃｒｕｉｔｍｅｎｔ　Ｊａｐａｎ合同会社,,合同会社,東京都,港区,虎ノ門３丁目１８番１２号ステュディオ虎ノ門６０７,,13,103,1050001,,,,,,,2025-02-05,1,,,,,ノルスターグローバルリクルートメントジャパン,0
1487,6010403034324,新規,0,2025-02-05,2025-02-05,合同会社ギフトルーム,,合同会社,東京都,港区,港南４丁目１－６,,13,103,1080075,,,,,,,2025-02-05,1,,,,,ギフトルーム,0
1488,6010403034365,新規,0,2025-02-05,2025-02-05,合同会社メドリエスト,,合同会社,東京都,港区,芝浦３丁目１７番１１号,,13,103,1080023,,,,,,,2025-02-05,1,,,,,メドリエスト,0
1490,6010405023993,新規,0,2025-02-05,2025-02-05,一般社団法人地域戦略研究所,,その他の設立登記法人,東京都,港区,新橋５丁目２９番６号,,13,103,1050004,,,,,,,2025-02-05,1,,,,,チイキセンリャクケンキュウジョ,0
1496,6010601066730,新規,0,2025-02-05,2025-02-05,株式会社野口寝具製作所,,株式会社,東京都,江東区,亀戸７丁目２４番７号,,13,108,1360071,,,,,,,2025-02-05,1,,,,,ノグチシングセイサクショ,0
1498,6010801035824,新規,0,2025-02-05,2025-02-05,ＴＯＫＹＯ　ＢＡＹコンサルティング株式会社,,株式会社,東京都,大田区,羽田５丁目１２番６号,,13,111,1440043,,,,,,,2025-02-05,1,,,,,トウキョウベイコンサルティング,0
1500,6011001167094,新規,0,2025-02-05,2025-02-05,株式会社Ｍｙｃａｔ,,株式会社,東京都,目黒区,三田２丁目７番２２号,,13,110,1530062,,,,,,,2025-02-05,1,,,,,マイキャット,0
1501,6011001167342,新規,0,2025-02-05,2025-02-05,Ｕｎｏ　Ａｄｖｉｓｏｒｙ株式会社,,株式会社,東京都,渋谷区,神南１丁目１１番４号ＦＰＧリンクス神南５階,,13,113,1500041,,,,,,,2025-02-05,1,,,,,ウーノアドバイザリー,0
1505,6011003020945,新規,0,2025-02-05,2025-02-05,合同会社シラカバ,,合同会社,東京都,目黒区,大橋２丁目１６ー３３ー１０２,,13,110,1530044,,,,,,,2025-02-05,1,,,,,シラカバ,0
1512,6011101110524,新規,0,2025-02-05,2025-02-05,株式会社Ｂｏｙｐｌｕｓ,,株式会社,東京都,新宿区,西新宿３丁目３番１３号西新宿水間ビル６階,,13,104,1600023,,,,,,,2025-02-05,1,,,,,ボーイプラス,0
1518,6011201026100,新規,0,2025-02-05,2025-02-05,株式会社ＬａｇｈＬｅｉｍ,,株式会社,東京都,中野区,新井１丁目３番１５－８０５号パークハウス中野アーバンス,,13,114,1650026,,,,,,,2025-02-05,1,,,,,ラフレイム,0
1531,6011703004116,新規,0,2025-02-05,2025-02-05,合同会社ＶＩＤＥＯ　ＣＲＡＦＴ,,合同会社,東京都,江戸川区,松島４丁目３１番１２号ＯＫ・Ｒｅｓｉｄｅｎｃｅ新小岩２０２,,13,123,1320031,,,,,,,2025-02-05,1,,,,,ビデオクラフト,0
1533,6011803006672,新規,0,2025-02-05,2025-02-05,合同会社ＲＥＫ,,合同会社,東京都,葛飾区,鎌倉１丁目２２番３号,,13,122,1250053,,,,,,,2025-02-05,1,,,,,レック,0
1536,6012401042746,新規,0,2025-02-05,2025-02-05,Ｎｉｃｅ　Ｄａｙ株式会社,,株式会社,東京都,三鷹市,牟礼７丁目３番５号,,13,204,1810002,,,,,,,2025-02-05,1,,,,,ナイスデイ,0
1540,6012801023734,新規,0,2025-02-05,2025-02-05,株式会社Ｓ・Ｌｉｍｉｔキッチン,,株式会社,東京都,日野市,栄町１丁目２番地の１,,13,212,1910001,,,,,,,2025-02-05,1,,,,,,0
1543,6013101009622,新規,0,2025-02-05,2025-02-05,株式会社ｕｎＦｉｘ‐Ｄｅｓｉｇｎ,,株式会社,東京都,青梅市,長淵５丁目６２５番地の１４,,13,205,1980052,,,,,,,2025-02-05,1,,,,,アンフィックスデザイン,0
1545,6013301053750,新規,0,2025-02-05,2025-02-05,日誠株式会社,,株式会社,東京都,豊島区,千早１丁目１７番１４号,,13,116,1710044,,,,,,,2025-02-05,1,,,,,ニッセイ,0
1554,6020001161180,新規,0,2025-02-05,2025-02-05,株式会社２２１,,株式会社,神奈川県,横浜市西区,浅間町１丁目４番３号ウィザードビル４０２,,14,103,2200072,,,,,,,2025-02-05,1,,,,,ニニイチ,0
1560,6020003027710,新規,0,2025-02-05,2025-02-05,ＫＡＹ　ｒｅｌａｔｉｏｎｓ合同会社,,合同会社,神奈川県,川崎市麻生区,上麻生４丁目１１番５号,,14,137,2150021,,,,,,,2025-02-05,1,,,,,ケイリレーションズ,0
1566,6021001084405,新規,0,2025-02-05,2025-02-05,株式会社Ｒｅｆｌｕａ,,株式会社,神奈川県,藤沢市,大庭５５５９－２－Ａ２０２,,14,205,2510861,,,,,,,2025-02-05,1,,,,,リフルア,0
1568,6021003015548,新規,0,2025-02-05,2025-02-05,ＳＲＣ湘南合同会社,,合同会社,神奈川県,藤沢市,天神町２丁目２６番地の２,,14,205,2520814,,,,,,,2025-02-05,1,,,,,エスアールシーショウナン,0
1576,6030001164728,新規,0,2025-02-05,2025-02-05,株式会社Ｋ’ｓＲｕｎ,,株式会社,埼玉県,さいたま市見沼区,深作１丁目１５－８,,11,104,3370003,,,,,,,2025-02-05,1,,,,,ケーズラン,0
1580,6030003026034,新規,0,2025-02-05,2025-02-05,ＲＩＣＨＥＲＳ合同会社,,合同会社,埼玉県,越谷市,越ヶ谷３丁目３－１６,,11,222,3430813,,,,,,,2025-02-05,1,,,,,リッチャーズ,0
1581,6030003026050,新規,0,2025-02-05,2025-02-05,合同会社はじめ,,合同会社,埼玉県,朝霞市,岡１丁目１３番３３号,,11,227,3510007,,,,,,,2025-02-05,1,,,,,ハジメ,0
1586,6040001137286,新規,0,2025-02-05,2025-02-05,株式会社Ｈｅａｄｓ　ｕｐ,,株式会社,千葉県,船橋市,芝山３丁目２６番１－８０４号,,12,204,2740816,,,,,,,2025-02-05,1,,,,,ヘッズアップ,0
1589,6040003026776,新規,0,2025-02-05,2025-02-05,アーキビルド合同会社,,合同会社,千葉県,館山市,亀ケ原１０４３番地の２,,12,205,2940052,,,,,,,2025-02-05,1,,,,,アーキビルド,0
1594,6050001056130,新規,0,2025-02-05,2025-02-05,株式会社一縁,,株式会社,茨城県,水戸市,内原町１４９７－２２９,,08,201,3190315,,,,,,,2025-02-05,1,,,,,ヒトエ,0
1597,6060001037880,新規,0,2025-02-05,2025-02-05,株式会社コネクトガーデン,,株式会社,栃木県,宇都宮市,下田原町３２４５番地,,09,201,3291115,,,,,,,2025-02-05,1,,,,,コネクトガーデン,0
1598,6060001037889,新規,0,2025-02-05,2025-02-05,ワンフェリーチェ株式会社,,株式会社,栃木県,足利市,福富町１１３５番地４,,09,202,3260331,,,,,,,2025-02-05,1,,,,,ワンフェリーチェ,0
1599,6080101025296,新規,0,2025-02-05,2025-02-05,株式会社ＳＯＬＩＤ,,株式会社,静岡県,駿東郡清水町,八幡４５－１ＪＳＱＵＡＲＥ静岡４Ｆ,,22,341,4110906,,,,,,,2025-02-05,1,,,,,,0
1609,6100003007984,新規,0,2025-02-05,2025-02-05,合同会社ありがた屋,,合同会社,長野県,長野市,新諏訪１丁目８番４４号,,20,201,3800873,,,,,,,2025-02-05,1,,,,,アリガタヤ,0
1619,6120001272570,新規,0,2025-02-05,2025-02-05,大阪円澤株式会社,,株式会社,大阪府,大阪市西淀川区,姫島２丁目４番１０号パークアベニュー２階Ａ室,,27,113,5550033,,,,,,,2025-02-05,1,,,,,オオサカエンタク,0
1620,6120001272579,新規,0,2025-02-05,2025-02-05,株式会社ＫｉｎｄＭａｔｅ,,株式会社,大阪府,大阪市西区,江之子島２丁目１番３７－３９１２号,,27,106,5500006,,,,,,,2025-02-05,1,,,,,カインドメイト,0
1621,6120001272595,新規,0,2025-02-05,2025-02-05,株式会社にしなかエステート,,株式会社,大阪府,大阪市淀川区,西中島５丁目８番２９号,,27,123,5320011,,,,,,,2025-02-05,1,,,,,ニシナカエステート,0
1622,6120001272612,新規,0,2025-02-05,2025-02-05,株式会社石頭門坎,,株式会社,大阪府,大阪市中央区,南船場１丁目１０番１６号－８０３号室,,27,128,5420081,,,,,,,2025-02-05,1,,,,,イシトウモンカン,0
1623,6120001272629,新規,0,2025-02-05,2025-02-05,エヌエステート株式会社,,株式会社,大阪府,大阪市中央区,瓦町４丁目３番６号,,27,128,5410048,,,,,,,2025-02-05,1,,,,,エヌエステート,0
1627,6120003028517,新規,0,2025-02-05,2025-02-05,Ａ　ｐｌｕｓ　Ｂ合同会社,,合同会社,大阪府,大阪市生野区,鶴橋５丁目３－９,,27,116,5440031,,,,,,,2025-02-05,1,,,,,エープラスビー,0
1628,6120003028541,新規,0,2025-02-05,2025-02-05,合同会社ＫＴＬ,,合同会社,大阪府,大阪市北区,大淀南２丁目６番１８号,,27,127,5310075,,,,,,,2025-02-05,1,,,,,ケーティーエル,0
1631,6130001078926,新規,0,2025-02-05,2025-02-05,株式会社デザインテーレ,,株式会社,京都府,京都市左京区,岩倉花園町４９７番地６,,26,103,6060024,,,,,,,2025-02-05,1,,,,,デザインテーレ,0
1632,6130001078959,新規,0,2025-02-05,2025-02-05,株式会社日創京都,,株式会社,京都府,京都市中京区,西ノ京伯楽町１８番地８,,26,104,6048452,,,,,,,2025-02-05,1,,,,,ニッソウキョウト,0
1634,6130003010184,新規,0,2025-02-05,2025-02-05,東幸ワークス合同会社,,合同会社,京都府,京都市山科区,東野舞台町５７番地７,,26,110,6078146,,,,,,,2025-02-05,1,,,,,トウコウワークス,0
1645,6140003021610,新規,0,2025-02-05,2025-02-05,合同会社カワセミワークス,,合同会社,兵庫県,神戸市北区,泉台４丁目６番地の１１,,28,109,6511141,,,,,,,2025-02-05,1,,,,,カワセミワークス,0
1662,6180301039490,新規,0,2025-02-05,2025-02-05,株式会社藁,,株式会社,愛知県,みよし市,三好町平池５３番地１,,23,236,4700224,,,,,,,2025-02-05,1,,,,,ワラ,0
1664,6190003004932,新規,0,2025-02-05,2025-02-05,合同会社Ｎａｉｎ,,合同会社,三重県,四日市市,鵜の森２丁目３番１４号,,24,202,5100074,,,,,,,2025-02-05,1,,,,,ナイン,0
1667,6210001020045,新規,0,2025-02-05,2025-02-05,先義後利株式会社,,株式会社,福井県,福井市,運動公園１丁目１６１２番地,,18,201,9188046,,,,,,,2025-02-05,1,,,,,センギコウリ,0
1673,6230005009438,新規,0,2025-02-05,2025-02-05,一般社団法人アグリエイト,,その他の設立登記法人,富山県,砺波市,中野８２３番地,,16,208,9391322,,,,,,,2025-02-05,1,,,,,アグリエイト,0
1675,6240001064485,新規,0,2025-02-05,2025-02-05,ＥｎｊｏｙＣａｆｅＣｏｍｐａｎｙ株式会社,,株式会社,広島県,三原市,和田１丁目７番３３号エステート住栄３０１,,34,204,7230041,,,,,,,2025-02-05,1,,,,,エンジョイカフェカンパニー,0
1688,6290801031242,新規,0,2025-02-05,2025-02-05,ティーエスデザイン株式会社,,株式会社,福岡県,北九州市小倉南区,若園２丁目１３番２４－３０２号,,40,107,8020816,,,,,,,2025-02-05,1,,,,,ティーエスデザイン,0
1689,6290801031250,新規,0,2025-02-05,2025-02-05,ＬＩＦＩＸ株式会社,,株式会社,福岡県,北九州市小倉南区,北方３丁目５３番１３号,,40,107,8020841,,,,,,,2025-02-05,1,,,,,リフィックス,0
1694,6330001032854,新規,0,2025-02-05,2025-02-05,ディーティーシージャパン株式会社,,株式会社,熊本県,合志市,豊岡２０５４番地８２,,43,216,8611115,,,,,,,2025-02-05,1,,,,,ディーティーシージャパン,0
1695,6330005010864,新規,0,2025-02-05,2025-02-05,一般社団法人ｃｈａｎｇｅ　ｔｈｅ　ｗｏｒｌｄ,,その他の設立登記法人,熊本県,熊本市北区,植木町内６６１－１,,43,105,8610102,,,,,,,2025-02-05,1,,,,,チェンジザワールド,0
1699,6350001019387,新規,0,2025-02-05,2025-02-05,白栄舎株式会社,,株式会社,宮崎県,延岡市,新小路２丁目１５５１番地,,45,203,8820835,,,,,,,2025-02-05,1,,,,,ハクエイシャ,0
1706,6370003006927,新規,0,2025-02-05,2025-02-05,合同会社ＡＣｚ,,合同会社,宮城県,仙台市青葉区,小田原６丁目４番２１号グリンゲイブル小田原１０１,,04,101,9800003,,,,,,,2025-02-05,1,,,,,エーシーズ,0
1711,6390005009100,新規,0,2025-02-05,2025-02-05,一般社団法人ＨＡＴＡむすび,,その他の設立登記法人,山形県,東置賜郡高畠町,大字時沢１２５６番地の１,,06,381,9920341,,,,,,,2025-02-05,1,,,,,ハタムスビ,0
1712,6400003003391,新規,0,2025-02-05,2025-02-05,合同会社Ｏ．Ｓｔｙｌｅ,,合同会社,岩手県,北上市,鳩岡崎３地割６番地２,,03,206,0240076,,,,,,,2025-02-05,1,,,,,オースタイル,0
1717,6430001093606,新規,0,2025-02-05,2025-02-05,余市Ｋプロジェクト株式会社,,株式会社,北海道,余市郡余市町,黒川町１２丁目８０番地　センターコートＩ　７０３号室,00137896,01,408,0460003,,,,,,,2025-02-05,1,,,,,ヨイチケイプロジェクト,0
1720,6430003017232,新規,0,2025-02-05,2025-02-05,合同会社ＦＥＮＲＩＲ　ＢＥＶＥＲＡＧＥ,,合同会社,北海道,札幌市手稲区,前田七条１０丁目１１－１９,,01,109,0060817,,,,,,,2025-02-05,1,,,,,フェンリルビバレッジ,0
1721,6430003017240,新規,0,2025-02-05,2025-02-05,合同会社宮田,,合同会社,北海道,有珠郡壮瞥町,字南久保内１４４番地１８,,01,575,0520116,,,,,,,2025-02-05,1,,,,,ミヤタ,0
1722,6430003017249,新規,0,2025-02-05,2025-02-05,合同会社Ｌ＆Ｌ,,合同会社,北海道,札幌市中央区,南十二条西１５丁目２番２１号,,01,101,0640912,,,,,,,2025-02-05,1,,,,,エルアンドエル,0
1732,6500001026129,新規,0,2025-02-05,2025-02-05,株式会社ＣＯＦ,,株式会社,愛媛県,松山市,小坂５丁目４番１６号第八中村ビル２０３,,38,201,7900963,,,,,,,2025-02-05,1,,,,,シーオーエフ,0
1741,7010001252013,新規,0,2025-02-05,2025-02-05,未来橋オーロラ株式会社,,株式会社,東京都,千代田区,岩本町１丁目１２番１１号５０１号Ａ室,,13,101,1010032,,,,,,,2025-02-05,1,,,,,ミライバシオーロラ,0
1742,7010001252087,新規,0,2025-02-05,2025-02-05,株式会社Ｒｅｌａｘ　Ｌｉｆｅ,,株式会社,東京都,中央区,銀座１丁目１２－４Ｎ＆Ｅ－ＢＬＤ．７階,,13,102,1040061,,,,,,,2025-02-05,1,,,,,リラックスライフ,0
1744,7010005039522,新規,0,2025-02-05,2025-02-05,一般社団法人クスノキ伏見,,その他の設立登記法人,東京都,千代田区,神田神保町１丁目１１番地さくら綜合事務所内,,13,101,1010051,,,,,,,2025-02-05,1,,,,,クスノキフシミ,0
1745,7010101016508,新規,0,2025-02-05,2025-02-05,株式会社ジーネクスト,,株式会社,東京都,八王子市,北野町５５７番地４マイキャッスル八王子北野４０４号,,13,201,1920906,,,,,,,2025-02-05,1,,,,,ジーネクスト,0
1752,7010401187924,新規,0,2025-02-05,2025-02-05,ＰＲＯＭＩＸＡ株式会社,,株式会社,東京都,港区,西麻布４丁目８番２７号,,13,103,1060031,,,,,,,2025-02-05,1,,,,,プロミクサ,0
1753,7010401187981,新規,0,2025-02-05,2025-02-05,ＬＳ‐ＳＨＩＰ第７３号株式会社,,株式会社,東京都,港区,六本木１丁目６番１号,,13,103,1060032,,,,,,,2025-02-05,1,,,,,エルエスシップダイナナジュウサンゴウ,0
1754,7010401188006,新規,0,2025-02-05,2025-02-05,株式会社７２８,,株式会社,東京都,港区,南青山３丁目１５番２号今竹ビル２Ｆ,,13,103,1070062,,,,,,,2025-02-05,1,,,,,ナツヤ,0
1760,7010605004405,新規,0,2025-02-05,2025-02-05,一般社団法人日本地球あそび振興協会,,その他の設立登記法人,東京都,墨田区,錦糸１丁目２番１号１４階,,13,107,1300013,,,,,,,2025-02-05,1,,,,,ニホンチキュウアソビシンコウキョウカイ,0
1768,7010903009683,新規,0,2025-02-05,2025-02-05,合同会社橘屋,,合同会社,東京都,世田谷区,大蔵１丁目７―１７,,13,112,1570074,,,,,,,2025-02-05,1,,,,,タチバナヤ,0
1780,7011103015489,新規,0,2025-02-05,2025-02-05,合同会社Ｐｌｕｓ５,,合同会社,東京都,新宿区,歌舞伎町２丁目１１番４号Ｌｅｅ３ビル７階,,13,104,1600021,,,,,,,2025-02-05,1,,,,,プラスファイブ,0
1782,7011201026099,新規,0,2025-02-05,2025-02-05,Ｌｏｇｓｉｇｎ株式会社,,株式会社,東京都,中野区,南台１丁目４番７－Ｐｒｅｍｉｅｒ西新宿１００２,,13,114,1640014,,,,,,,2025-02-05,1,,,,,ログイン,0
1786,7011301030331,新規,0,2025-02-05,2025-02-05,株式会社ソーサリーエンターテインメント,,株式会社,東京都,杉並区,高円寺南１丁目２８番７号１０１号室,,13,115,1660003,,,,,,,2025-02-05,1,,,,,ソーサリーエンターテインメント,0
1794,7011701028009,新規,0,2025-02-05,2025-02-05,株式会社鹿鳴,,株式会社,東京都,江戸川区,南小岩５丁目１番１８号大宝ビル３階,,13,123,1330056,,,,,,,2025-02-05,1,,,,,カメイ,0
1800,7012401042729,新規,0,2025-02-05,2025-02-05,株式会社キムコ・インターナショナル,,株式会社,東京都,武蔵野市,吉祥寺本町１丁目２０番１号吉祥寺永谷シティプラザ１００２,,13,203,1800004,,,,,,,2025-02-05,1,,,,,キムコインターナショナル,0
1802,7013101009621,新規,0,2025-02-05,2025-02-05,株式会社Ｔ＆Ｍいろは,,株式会社,東京都,あきる野市,五日市７２４番地,,13,228,1900164,,,,,,,2025-02-05,1,,,,,ティーアンドエムイロハ,0
1805,7013303007530,新規,0,2025-02-05,2025-02-05,Ｂ‐ｌｉｆｅ合同会社,,合同会社,東京都,豊島区,西巣鴨１丁目１４番３－３０５号,,13,116,1700001,,,,,,,2025-02-05,1,,,,,ビーライフ,0
1814,7020003027668,新規,0,2025-02-05,2025-02-05,合同会社エコフュージョン,,合同会社,神奈川県,横浜市西区,浅間町１丁目４番３号ウィザードビル４０２,,14,103,2200072,,,,,,,2025-02-05,1,,,,,エコフュージョン,0
1815,7020003027726,新規,0,2025-02-05,2025-02-05,合同会社三友会,,合同会社,神奈川県,横浜市青葉区,あざみ野３丁目１４番地２,,14,117,2250011,,,,,,,2025-02-05,1,,,,,サンユウカイ,0
1817,7021001084395,新規,0,2025-02-05,2025-02-05,株式会社翔,,株式会社,神奈川県,横須賀市,佐野町６丁目１番地,,14,201,2380052,,,,,,,2025-02-05,1,,,,,カケル,0
1819,7021003015547,新規,0,2025-02-05,2025-02-05,ファミリー葬祭合同会社,,合同会社,神奈川県,座間市,相模が丘５丁目４－１８,,14,216,2520001,,,,,,,2025-02-05,1,,,,,ファミリーソウサイ,0
1823,7030001164719,新規,0,2025-02-05,2025-02-05,株式会社雅エステート,,株式会社,埼玉県,さいたま市大宮区,桜木町３丁目１１５番地,,11,103,3300854,,,,,,,2025-02-05,1,,,,,ミヤビエステート,0
1824,7030001164768,新規,0,2025-02-05,2025-02-05,株式会社エヌエスジャパン,,株式会社,埼玉県,三郷市,新和３丁目３２２番地,,11,237,3410034,,,,,,,2025-02-05,1,,,,,エヌエスジャパン,0
1825,7030001164776,新規,0,2025-02-05,2025-02-05,株式会社ｎｅｋｏｎａｔａ,,株式会社,埼玉県,桶川市,朝日３丁目１６－３８,,11,231,3630023,,,,,,,2025-02-05,1,,,,,ネコナータ,0
1827,7030003026041,新規,0,2025-02-05,2025-02-05,合同会社花水木居宅介護支援事業所,,合同会社,埼玉県,さいたま市桜区,大字五関１９２番地４,,11,106,3380815,,,,,,,2025-02-05,1,,,,,ハナミズキキョタクカイゴシエンジギョウショ,0
1831,7040001137260,新規,0,2025-02-05,2025-02-05,株式会社スライビング,,株式会社,千葉県,佐倉市,城１８８番地９８,,12,212,2850815,,,,,,,2025-02-05,1,,,,,スライビング,0
1832,7040001137277,新規,0,2025-02-05,2025-02-05,株式会社ひるひなた,,株式会社,千葉県,南房総市,白浜町白浜２８８７番地４,,12,234,2950102,,,,,,,2025-02-05,1,,,,,ヒルヒナタ,0
1834,7040003026767,新規,0,2025-02-05,2025-02-05,園田合同会社,,合同会社,千葉県,千葉市花見川区,幕張本郷３丁目１１番１号ダイアパレス幕張本郷６０２号,,12,102,2620033,,,,,,,2025-02-05,1,,,,,ソノダ,0
1835,7040003026775,新規,0,2025-02-05,2025-02-05,合同会社ジェイウッド,,合同会社,千葉県,八街市,山田台５４３番地１,,12,230,2891124,,,,,,,2025-02-05,1,,,,,ジェイウッド,0
1838,7050003008995,新規,0,2025-02-05,2025-02-05,合同会社ヴィックドック,,合同会社,茨城県,取手市,寺田字原谷６３４０番地３,,08,217,3020021,,,,,,,2025-02-05,1,,,,,ヴィックドック,0
1839,7050003009003,新規,0,2025-02-05,2025-02-05,合同会社とりゆら,,合同会社,茨城県,ひたちなか市,表町３－８、１階,,08,221,3120047,,,,,,,2025-02-05,1,,,,,トリユラ,0
1840,7050003009011,新規,0,2025-02-05,2025-02-05,合同会社悠桃工業,,合同会社,茨城県,鹿嶋市,大字港ケ丘２７３番地１８５,,08,222,3140011,,,,,,,2025-02-05,1,,,,,,0
1841,7060001037888,新規,0,2025-02-05,2025-02-05,株式会社ｍｏｌａ,,株式会社,栃木県,宇都宮市,今泉町３０２０番地１,,09,201,3210962,,,,,,,2025-02-05,1,,,,,モラ,0
1842,7060003005414,新規,0,2025-02-05,2025-02-05,トモニナス合同会社,,合同会社,栃木県,那須郡那須町,大字高久乙３３６９番地８２,,09,407,3250303,,,,,,,2025-02-05,1,,,,,トモニナス,0
1843,7080103003217,新規,0,2025-02-05,2025-02-05,合同会社８の巣,,合同会社,静岡県,富士市,松岡１１６番地１２,,22,210,4160909,,,,,,,2025-02-05,1,,,,,,0
1844,7090001019124,新規,0,2025-02-05,2025-02-05,株式会社ＶＥＲＩＴＡＳ　ＴＲＡＤＩＮＧ,,株式会社,山梨県,甲府市,高畑１丁目１２番１０号,,19,201,4000042,,,,,,,2025-02-05,1,,,,,ヴェリタストレイディング,0
1863,7120001272529,新規,0,2025-02-05,2025-02-05,株式会社ＥＣアセットマネジメント,,株式会社,大阪府,大阪市中央区,今橋４丁目５番２０号淀屋橋竹村ビル４階,,27,128,5410042,,,,,,,2025-02-05,1,,,,,イーシーアセットマネジメント,0
1864,7120001272553,新規,0,2025-02-05,2025-02-05,吉欣成株式会社,,株式会社,大阪府,大阪市西成区,萩之茶屋１丁目１２番７号万葉ビル５８号室,,27,122,5570004,,,,,,,2025-02-05,1,,,,,キッキンセイ,0
1865,7120001272561,新規,0,2025-02-05,2025-02-05,日新商事株式会社,,株式会社,大阪府,守口市,藤田町１丁目３番７号ロイヤルオーディン藤田町３０２号室,,27,209,5700014,,,,,,,2025-02-05,1,,,,,ニッシンショウジ,0
1866,7120001272578,新規,0,2025-02-05,2025-02-05,株式会社共栄商事,,株式会社,大阪府,大阪市中央区,本町２丁目３番４号４階,,27,128,5410053,,,,,,,2025-02-05,1,,,,,キョウエイショウジ,0
1867,7120001272586,新規,0,2025-02-05,2025-02-05,株式会社ａｌｌｕ,,株式会社,大阪府,大阪市中央区,北久宝寺町１丁目７番７－９０４号,,27,128,5410057,,,,,,,2025-02-05,1,,,,,アル,0
1868,7120001272594,新規,0,2025-02-05,2025-02-05,株式会社ＨＯＫＵＴＯ　ＨＯＲＩＺＯＮ,,株式会社,大阪府,大阪市都島区,大東町１丁目１０－３７－４０５,,27,102,5340002,,,,,,,2025-02-05,1,,,,,ホクトホライズン,0
1869,7120001272628,新規,0,2025-02-05,2025-02-05,株式会社クローバー,,株式会社,大阪府,大阪市中央区,日本橋１丁目２５番２５号ル・グラン琴３０７号,,27,128,5420073,,,,,,,2025-02-05,1,,,,,クローバー,0
1872,7120003028549,新規,0,2025-02-05,2025-02-05,合同会社Ｌｕｍｏｒａ,,合同会社,大阪府,大阪市福島区,海老江１丁目５番３０‐１３１号,,27,103,5530001,,,,,,,2025-02-05,1,,,,,ルモラ,0
1873,7120003028557,新規,0,2025-02-05,2025-02-05,合同会社Ｍ＆Ｋ,,合同会社,大阪府,大阪市浪速区,大国３丁目８番１８号エレガント光ビル３０１,,27,111,5560014,,,,,,,2025-02-05,1,,,,,エムアンドケイ,0
1876,7120101070997,新規,0,2025-02-05,2025-02-05,株式会社スタジオロジコ,,株式会社,大阪府,大阪狭山市,西山台３丁目８番９号,,27,231,5890022,,,,,,,2025-02-05,1,,,,,スタジオロジコ,0
1877,7120901050406,新規,0,2025-02-05,2025-02-05,ＤＧフォークリフト株式会社,,株式会社,大阪府,茨木市,耳原２丁目２４番１０号,,27,211,5670006,,,,,,,2025-02-05,1,,,,,ディージーフォークリフト,0
1882,7130001078941,新規,0,2025-02-05,2025-02-05,株式会社立夏,,株式会社,京都府,京都市北区,大宮上ノ岸町１３番地,,26,101,6038401,,,,,,,2025-02-05,1,,,,,リッカ,0
1884,7130003010191,新規,0,2025-02-05,2025-02-05,合同会社健幸ｓｍｉｌｅ,,合同会社,京都府,京都市下京区,仏光寺通堀川西入晒屋町６４４番地２,,26,106,6008394,,,,,,,2025-02-05,1,,,,,ケンコウスマイル,0
1889,7140001137300,新規,0,2025-02-05,2025-02-05,株式会社ｎａｍ,,株式会社,兵庫県,神戸市長田区,宮川町１丁目１６番地の１,,28,106,6530813,,,,,,,2025-02-05,1,,,,,ナム,0
1890,7140001137309,新規,0,2025-02-05,2025-02-05,株式会社アキュレティック,,株式会社,兵庫県,神戸市中央区,港島南町１丁目５番２神戸キメックセンタービル５Ｆ,,28,110,6500047,,,,,,,2025-02-05,1,,,,,アキュレティック,0
1891,7140001137341,新規,0,2025-02-05,2025-02-05,株式会社優松ロジテム,,株式会社,兵庫県,加古川市,別府町新野辺１３０２番地の４,,28,210,6750131,,,,,,,2025-02-05,1,,,,,ユウショウロジテム,0
1894,7140003021592,新規,0,2025-02-05,2025-02-05,合同会社神戸建物リサーチ,,合同会社,兵庫県,神戸市東灘区,田中町３丁目１２番５号,,28,101,6580081,,,,,,,2025-02-05,1,,,,,コウベタテモノリサーチ,0
1895,7150003003490,新規,0,2025-02-05,2025-02-05,合同会社ＨＴＹ,,合同会社,奈良県,香芝市,旭ケ丘３丁目８番地８,,29,210,6390266,,,,,,,2025-02-05,1,,,,,エッチティワイ,0
1905,7180001165297,新規,0,2025-02-05,2025-02-05,株式会社キャリーエステート,,株式会社,愛知県,名古屋市東区,泉１丁目３番４１号,,23,102,4610001,,,,,,,2025-02-05,1,,,,,キャリーエステート,0
1906,7180001165306,新規,0,2025-02-05,2025-02-05,株式会社スタントギア,,株式会社,愛知県,名古屋市中川区,大塩町２丁目１１０番地,,23,110,4540863,,,,,,,2025-02-05,1,,,,,スタントギア,0
1907,7180001165330,新規,0,2025-02-05,2025-02-05,株式会社エムエムシー,,株式会社,愛知県,名古屋市中区,錦３丁目３番２５号宮町ビル１０１,,23,106,4600003,,,,,,,2025-02-05,1,,,,,エムエムシー,0
1912,7180301039507,新規,0,2025-02-05,2025-02-05,株式会社ＬｉＧ,,株式会社,愛知県,岡崎市,舳越町字地蔵２８,,23,202,4440902,,,,,,,2025-02-05,1,,,,,リグ,0
1913,7180303006447,新規,0,2025-02-05,2025-02-05,合同会社アロブロ,,合同会社,愛知県,豊川市,御津町大草新田３６番地１,,23,207,4410315,,,,,,,2025-02-05,1,,,,,アロブロ,0
1919,7190001031977,新規,0,2025-02-05,2025-02-05,志摩の結株式会社,,株式会社,三重県,志摩市,磯部町下之郷２３０番地１,,24,215,5170207,,,,,,,2025-02-05,1,,,,,シマノユイ,0
1920,7190005012016,新規,0,2025-02-05,2025-02-05,特定非営利活動法人薦原地域づくり委員会,,その他の設立登記法人,三重県,名張市,薦生１６０７番地,,24,208,5180606,,,,,,,2025-02-05,1,,,,,コモハラチイキヅクリイインカイ,0
1924,7230001020728,新規,0,2025-02-05,2025-02-05,株式会社ＳＡＫＵＬＩ,,株式会社,富山県,富山市,新屋１６６番地１,,16,201,9300822,,,,,,,2025-02-05,1,,,,,サクリ,0
1929,7240001064476,新規,0,2025-02-05,2025-02-05,株式会社祐健,,株式会社,広島県,廿日市市,深江１丁目９番１０－２号,,34,213,7390421,,,,,,,2025-02-05,1,,,,,ユウケン,0
1930,7240001064484,新規,0,2025-02-05,2025-02-05,株式会社横田福松園,,株式会社,広島県,福山市,瀬戸町大字山北４５６番地２,,34,207,7200838,,,,,,,2025-02-05,1,,,,,ヨコタフクショウエン,0
1932,7240003007053,新規,0,2025-02-05,2025-02-05,合同会社たびたす,,合同会社,広島県,尾道市,瀬戸田町瀬戸田２３１－４,,34,205,7222411,,,,,,,2025-02-05,1,,,,,タビタス,0
1947,7320001020925,新規,0,2025-02-05,2025-02-05,ＤＬｏｐ株式会社,,株式会社,大分県,佐伯市,城下東町４番３号,,44,205,8760848,,,,,,,2025-02-05,1,,,,,ドロップ,0
1951,7330001032853,新規,0,2025-02-05,2025-02-05,株式会社絢陽,,株式会社,熊本県,熊本市北区,黒髪４－４３６－１－１０２,,43,105,8610000,,,,,,,2025-02-05,1,,,,,アヤヒナ,0
1952,7330003010790,新規,0,2025-02-05,2025-02-05,黒木コアアセット合同会社,,合同会社,熊本県,熊本市東区,健軍本町８番７－２号,,43,102,8620910,,,,,,,2025-02-05,1,,,,,クロキコアアセット,0
1958,7360001034673,新規,0,2025-02-05,2025-02-05,株式会社ジュピター・ＫＥＹ,,株式会社,沖縄県,豊見城市,字豊見城４８番地アルファステイツ豊見城城址公園５１０号,,47,212,9010241,,,,,,,2025-02-05,1,,,,,ジュピターキー,0
1961,7370003006918,新規,0,2025-02-05,2025-02-05,合同会社Ｃｒｅｓｖｉａ,,合同会社,宮城県,大崎市,古川大宮６丁目９番２４号,,04,215,9896221,,,,,,,2025-02-05,1,,,,,クレスヴィア,0
1962,7370003006926,新規,0,2025-02-05,2025-02-05,合同会社ｍｉｉｎｉ,,合同会社,宮城県,仙台市青葉区,旭ケ丘２丁目２７番３－４０５号,,04,101,9810904,,,,,,,2025-02-05,1,,,,,ミーニ,0
1963,7380001035075,新規,0,2025-02-05,2025-02-05,テクニカルサービス株式会社,,株式会社,福島県,福島市,蓬莱町二丁目１０１番地の５,00137906,07,201,9600000,,,,,,,2025-02-05,1,,,,,テクニカルサービス,0
1972,7430001093638,新規,0,2025-02-05,2025-02-05,株式会社Ｋｏｍｕｇｉ　Ｆｏｏｄｓ,,株式会社,北海道,札幌市中央区,北五条東２丁目６番地ザ・サッポロレジデンス６０８号,,01,101,0600035,,,,,,,2025-02-05,1,,,,,コムギフーズ,0
1975,7430003017248,新規,0,2025-02-05,2025-02-05,合同会社大翔運輸,,合同会社,北海道,石狩市,親船町２５番９号,,01,235,0613377,,,,,,,2025-02-05,1,,,,,ダイトウンユ,0
1976,7430005015150,新規,0,2025-02-05,2025-02-05,一般社団法人ウェルビー推進機構,,その他の設立登記法人,北海道,札幌市中央区,南十三条西１８丁目２番１５号,,01,101,0640913,,,,,,,2025-02-05,1,,,,,ウェルビースイシンキコウ,0
1989,8010001251996,新規,0,2025-02-05,2025-02-05,株式会社ワンウェイホールディングス,,株式会社,東京都,中央区,銀座７丁目１３番２１号銀座ｓｉｎｒｏｋｕｓｙｕビル２階,,13,102,1040061,,,,,,,2025-02-05,1,,,,,ワンウェイホールディングス,0
1998,8010003046271,新規,0,2025-02-05,2025-02-05,合同会社セキュリティコンサルタンツ,,合同会社,東京都,中央区,新川１丁目７－１天翔日本橋茅場町ビル１０１,,13,102,1040033,,,,,,,2025-02-05,1,,,,,セキュリティコンサルタンツ,0
1999,8010003046288,新規,0,2025-02-05,2025-02-05,合同会社ＴｗｉｓｔＨｅａｄ,,合同会社,東京都,中央区,銀座１丁目２２番１１号銀座大竹ビジデンス２Ｆ,,13,102,1040061,,,,,,,2025-02-05,1,,,,,ツイストヘッド,0
2006,8010401187923,新規,0,2025-02-05,2025-02-05,株式会社スマックス,,株式会社,東京都,港区,港南２丁目３番１号大信秋山ビル３階,,13,103,1080075,,,,,,,2025-02-05,1,,,,,スマックス,0
2007,8010401187980,新規,0,2025-02-05,2025-02-05,ＬＳ‐ＳＨＩＰ第７２号株式会社,,株式会社,東京都,港区,六本木１丁目６番１号,,13,103,1060032,,,,,,,2025-02-05,1,,,,,エルエスシップダイナナジュウニゴウ,0
2008,8010403034280,新規,0,2025-02-05,2025-02-05,つなぐ合同会社,,合同会社,東京都,港区,海岸１丁目２－１－１６０１,,13,103,1050022,,,,,,,2025-02-05,1,,,,,ツナグ,0
2009,8010403034322,新規,0,2025-02-05,2025-02-05,Ｋｏｄａｉ合同会社,,合同会社,東京都,港区,西新橋１丁目１番１号ＷｅＷｏｒｋ日比谷フォートタワー１０階０９－１４３,,13,103,1050003,,,,,,,2025-02-05,1,,,,,コダイ,0
2010,8010405023983,新規,0,2025-02-05,2025-02-05,一般財団法人Ｔｈｒｅｅ　Ａｒｒｏｗｓ　Ｆｏｕｎｄａｔｉｏｎ,,その他の設立登記法人,東京都,港区,赤坂７丁目５番１－４０５号,,13,103,1070052,,,,,,,2025-02-05,1,,,,,スリーアローズファウンデーション,0
2012,8010601066729,新規,0,2025-02-05,2025-02-05,株式会社Ｓｅｌｅｃｔｉｏｎ,,株式会社,東京都,江東区,住吉１丁目２番２６号－サンモールビル３０１,,13,108,1350002,,,,,,,2025-02-05,1,,,,,セレクション,0
2015,8010701047216,新規,0,2025-02-05,2025-02-05,株式会社ア・テンポ,,株式会社,東京都,品川区,西五反田４丁目３２番１２号,,13,109,1410031,,,,,,,2025-02-05,1,,,,,アテンポ,0
2019,8010803005278,新規,0,2025-02-05,2025-02-05,合同会社Ｗｉｎｋｎｅｅ,,合同会社,東京都,大田区,蒲田５丁目２８番３号まるいちビル３階,,13,111,1440052,,,,,,,2025-02-05,1,,,,,ウインニー,0
2023,8011001167605,新規,0,2025-02-05,2025-02-05,株式会社サモエドカフェｍｏｆｆｕ,,株式会社,東京都,渋谷区,渋谷２丁目２４番１２号渋谷スクランブルスクエア３９階,,13,113,1500002,,,,,,,2025-02-05,1,,,,,サモエドカフェモフ,0
2035,8011101110225,新規,0,2025-02-05,2025-02-05,株式会社デンエン,,株式会社,東京都,新宿区,西落合１丁目２１番１２号ＣＡＳＡＰＩＡＺＺＡ新宿西落合１０２,,13,104,1610031,,,,,,,2025-02-05,1,,,,,デンエン,0
2036,8011101110506,新規,0,2025-02-05,2025-02-05,新宿ＦＡＳ株式会社,,株式会社,東京都,新宿区,新宿３丁目１９番７号新宿らんざんビル,,13,104,1600022,,,,,,,2025-02-05,1,,,,,シンジュクエフエーエス,0
2037,8011101110514,新規,0,2025-02-05,2025-02-05,株式会社ＺＥＮ　ＦＬＯＷ,,株式会社,東京都,新宿区,新宿６丁目２７番２９－１２１０号,,13,104,1600022,,,,,,,2025-02-05,1,,,,,ゼンフロウ,0
2038,8011103015496,新規,0,2025-02-05,2025-02-05,Ｉｄｅａｐｐ合同会社,,合同会社,東京都,新宿区,西新宿３丁目３番１３号西新宿水間ビル２Ｆ,,13,104,1600023,,,,,,,2025-02-05,1,,,,,アイディアップ,0
2039,8011301030330,新規,0,2025-02-05,2025-02-05,エムコンサルティング株式会社,,株式会社,東京都,杉並区,下高井戸３丁目７番５号,,13,115,1680073,,,,,,,2025-02-05,1,,,,,エムコンサルティング,0
2040,8011403004612,新規,0,2025-02-05,2025-02-05,日本会計アドバイザリー合同会社,,合同会社,東京都,板橋区,小茂根１丁目１－４１－１２６,,13,119,1730037,,,,,,,2025-02-05,1,,,,,ニホンカイケイアドバイザリー,0
2042,8011601028405,新規,0,2025-02-05,2025-02-05,アサホーム株式会社,,株式会社,東京都,練馬区,早宮１丁目６－１－１０６,,13,120,1790085,,,,,,,2025-02-05,1,,,,,アサホーム,0
2050,8012705002444,新規,0,2025-02-05,2025-02-05,一般社団法人みみプラネット,,その他の設立登記法人,東京都,東久留米市,金山町１丁目１１番１５号,,13,222,2030003,,,,,,,2025-02-05,1,,,,,ミミプラネット,0
2052,8013301053749,新規,0,2025-02-05,2025-02-05,株式会社ベイスリー,,株式会社,東京都,豊島区,巣鴨５丁目２７番７号ウインベル巣鴨４０８,,13,116,1700002,,,,,,,2025-02-05,1,,,,,ベイスリー,0
2058,8020001161146,新規,0,2025-02-05,2025-02-05,グリーンウッズ株式会社,,株式会社,神奈川県,横浜市都筑区,牛久保東２丁目５番１－６１０号,,14,118,2240014,,,,,,,2025-02-05,1,,,,,グリーンウッズ,0
2059,8020001161195,新規,0,2025-02-05,2025-02-05,Ａ．Ｍ．Ｆ株式会社,,株式会社,神奈川県,横浜市戸塚区,平戸町２０９番地７平戸町ハイツ３０４号,,14,110,2440803,,,,,,,2025-02-05,1,,,,,エーエムエフ,0
2066,8020003027691,新規,0,2025-02-05,2025-02-05,オーケーサイン合同会社,,合同会社,神奈川県,横浜市西区,浅間町１丁目４番地３ウィザードビル４０２,,14,103,2200072,,,,,,,2025-02-05,1,,,,,オーケーサイン,0
2067,8020003027700,新規,0,2025-02-05,2025-02-05,Ａｉｓｍａ　Ｄｅｓｉｇｎ合同会社,,合同会社,神奈川県,横浜市西区,平沼１丁目１９番１８,,14,103,2200023,,,,,,,2025-02-05,1,,,,,アイスマデザイン,0
2068,8020003027709,新規,0,2025-02-05,2025-02-05,合同会社エムワン,,合同会社,神奈川県,川崎市中原区,木月１丁目７番３－２号,,14,133,2110025,,,,,,,2025-02-05,1,,,,,エムワン,0
2069,8020003027741,新規,0,2025-02-05,2025-02-05,合同会社鴫,,合同会社,神奈川県,横浜市中区,矢口台９１番地ユニーブル横浜山手１０９号,,14,104,2310831,,,,,,,2025-02-05,1,,,,,シギ,0
2071,8021001084394,新規,0,2025-02-05,2025-02-05,株式会社Ｊ．Ｃ．Ｃ,,株式会社,神奈川県,相模原市緑区,橋本２丁目６番２号,,14,151,2520143,,,,,,,2025-02-05,1,,,,,ジェーシーシー,0
2072,8021001084403,新規,0,2025-02-05,2025-02-05,株式会社ＧＩＲＩＳ,,株式会社,神奈川県,厚木市,下荻野１２８９番地７,,14,212,2430203,,,,,,,2025-02-05,1,,,,,ジーリス,0
2074,8021003015546,新規,0,2025-02-05,2025-02-05,カジュアミネラル合同会社,,合同会社,神奈川県,南足柄市,和田河原４９７番地１,,14,217,2500112,,,,,,,2025-02-05,1,,,,,カジュアミネラル,0
2077,8030001164718,新規,0,2025-02-05,2025-02-05,株式会社つなぐ,,株式会社,埼玉県,さいたま市浦和区,瀬ヶ崎５丁目１４番地２１号,,11,107,3300044,,,,,,,2025-02-05,1,,,,,ツナグ,0
2082,8030003026049,新規,0,2025-02-05,2025-02-05,合同会社ＴＨＩＮＫ　ＯＦ　ＹＯＵ,,合同会社,埼玉県,朝霞市,岡１丁目１３番３３号,,11,227,3510007,,,,,,,2025-02-05,1,,,,,シンクオブユー,0
2086,8040001137243,新規,0,2025-02-05,2025-02-05,株式会社Ｈａｋｕ,,株式会社,千葉県,旭市,ロの６８３番地４,,12,215,2892516,,,,,,,2025-02-05,1,,,,,ハク,0
2090,8040003026741,新規,0,2025-02-05,2025-02-05,リバイバル合同会社,,合同会社,千葉県,船橋市,習志野台５丁目３６番２５号,,12,204,2740063,,,,,,,2025-02-05,1,,,,,リバイバル,0
2095,8060001037879,新規,0,2025-02-05,2025-02-05,株式会社Ｒｅｏ,,株式会社,栃木県,日光市,今市本町１９番地７永岡ビル１Ｆ,,09,206,3211272,,,,,,,2025-02-05,1,,,,,レオ,0
2096,8060001037887,新規,0,2025-02-05,2025-02-05,株式会社ｈａｒｅｙａｋａ,,株式会社,栃木県,宇都宮市,東宝木町９番２０号レジデンス東宝木１０３,,09,201,3200062,,,,,,,2025-02-05,1,,,,,ハレヤカ,0
2106,8070005010352,新規,0,2025-02-05,2025-02-05,群馬県たばこ販売協同組合,,その他の設立登記法人,群馬県,太田市,沖之郷町８５７番地１,,10,205,3730804,,,,,,,2025-02-05,1,,,,,グンマケンタバコハンバイ,0
2109,8080101025294,新規,0,2025-02-05,2025-02-05,福七株式会社,,株式会社,静岡県,富士市,青島町２２８番地２Ｆ,,22,210,4170047,,,,,,,2025-02-05,1,,,,,フクシチ,0
2112,8090001019123,新規,0,2025-02-05,2025-02-05,株式会社フォワード,,株式会社,山梨県,甲府市,中央１丁目２０番３号２階,,19,201,4000032,,,,,,,2025-02-05,1,,,,,フォワード,0
2128,8120001272552,新規,0,2025-02-05,2025-02-05,永利株式会社,,株式会社,大阪府,大阪市中央区,島之内２丁目１０－１２－７１１号室,,27,128,5420082,,,,,,,2025-02-05,1,,,,,エイリ,0
2129,8120001272560,新規,0,2025-02-05,2025-02-05,連合互力株式会社,,株式会社,大阪府,大阪市住之江区,御崎１丁目１１番１９号インキュセンタービル３１１号室,,27,125,5590013,,,,,,,2025-02-05,1,,,,,レンゴウゴリキ,0
2130,8120001272585,新規,0,2025-02-05,2025-02-05,源軒合一株式会社,,株式会社,大阪府,大阪市福島区,玉川３丁目３番４１号,,27,103,5530004,,,,,,,2025-02-05,1,,,,,ゲンケンゴウイツ,0
2131,8120001272593,新規,0,2025-02-05,2025-02-05,夢限商事株式会社,,株式会社,大阪府,大阪市港区,弁天１丁目６番５号,,27,107,5520007,,,,,,,2025-02-05,1,,,,,ムゲンショウジ,0
2132,8120001272619,新規,0,2025-02-05,2025-02-05,Ｐ　ｕｐ　Ｃ株式会社,,株式会社,大阪府,大阪市中央区,南船場３丁目２番２２号おおきに南船場ビル２０５号,,27,128,5420081,,,,,,,2025-02-05,1,,,,,ピーアップシー,0
2133,8120001272627,新規,0,2025-02-05,2025-02-05,株式会社セレンゲティ,,株式会社,大阪府,大阪市阿倍野区,阪南町４丁目４番１２号,,27,119,5450021,,,,,,,2025-02-05,1,,,,,セレンゲティ,0
2137,8120003028515,新規,0,2025-02-05,2025-02-05,合同会社ＥＸ　ｌａｂ,,合同会社,大阪府,大阪市住之江区,住之江１丁目１－２１メゾン住之江２０３,,27,125,5590004,,,,,,,2025-02-05,1,,,,,イーエックスラボ,0
2138,8120005024776,新規,0,2025-02-05,2025-02-05,一般社団法人日本江蘇経済貿易促進会,,その他の設立登記法人,大阪府,大阪市中央区,北久宝寺町４丁目３番８号,,27,128,5410057,,,,,,,2025-02-05,1,,,,,ニホンコウソケイザイボウエキソクシンカイ,0
2144,8120903005539,新規,0,2025-02-05,2025-02-05,サン・アクセル合同会社,,合同会社,大阪府,箕面市,森町中３丁目９番１８号,,27,220,5630257,,,,,,,2025-02-05,1,,,,,サンアクセル,0
2148,8130001078916,新規,0,2025-02-05,2025-02-05,株式会社アズール・ＩＴセールス,,株式会社,京都府,京都市中京区,壬生仙念町１０番地ルミエール四条５０１号,,26,104,6048854,,,,,,,2025-02-05,1,,,,,アズールアイティーセールス,0
2149,8130001078932,新規,0,2025-02-05,2025-02-05,株式会社蒼天,,株式会社,京都府,京都市左京区,浄土寺西田町２９番地２,,26,103,6068417,,,,,,,2025-02-05,1,,,,,ソウテン,0
2158,8140001137340,新規,0,2025-02-05,2025-02-05,株式会社つなぐ,,株式会社,兵庫県,神戸市西区,伊川谷町長坂９４３－２９,,28,111,6512104,,,,,,,2025-02-05,1,,,,,ツナグ,0
2173,8180001165313,新規,0,2025-02-05,2025-02-05,株式会社まるみ,,株式会社,愛知県,津島市,今市場町４丁目４７番地２,,23,208,4960803,,,,,,,2025-02-05,1,,,,,マルミ,0
2178,8180301039489,新規,0,2025-02-05,2025-02-05,アヴニール７８株式会社,,株式会社,愛知県,豊田市,明和町２丁目４番地１,,23,211,4710825,,,,,,,2025-02-05,1,,,,,アヴニールセブンエイト,0
2179,8180301039497,新規,0,2025-02-05,2025-02-05,株式会社フェザー,,株式会社,愛知県,豊橋市,西幸町字東脇２１１番地の８,,23,201,4418113,,,,,,,2025-02-05,1,,,,,フェザー,0
2190,8200001043409,新規,0,2025-02-05,2025-02-05,株式会社ＢＲＯＴＨＥＲＨＯＯＤ,,株式会社,岐阜県,大野郡白川村,大字鳩谷３２９番地１,,21,604,5015629,,,,,,,2025-02-05,1,,,,,ブラザーフッド,0
2193,8210001020051,新規,0,2025-02-05,2025-02-05,株式会社インテリアＴｉｅ,,株式会社,福井県,吉田郡永平寺町,中島第１０号１３番地３,,18,322,9101301,,,,,,,2025-02-05,1,,,,,インテリアティー,0
2203,8240001064491,新規,0,2025-02-05,2025-02-05,株式会社ＫＩＲＡＲＡ,,株式会社,広島県,廿日市市,住吉１丁目７番７号,,34,213,7380014,,,,,,,2025-02-05,1,,,,,キララ,0
2217,8290801031249,新規,0,2025-02-05,2025-02-05,ブローザ・ベスト株式会社,,株式会社,福岡県,行橋市,中央１丁目３番５号Ｏ′ｓビル２階,,40,213,8240005,,,,,,,2025-02-05,1,,,,,ブローザベスト,0
2218,8290801031257,新規,0,2025-02-05,2025-02-05,株式会社Ａｌｐｈａ,,株式会社,福岡県,築上郡築上町,大字上深野７７０－１,,40,647,8290115,,,,,,,2025-02-05,1,,,,,アルファ,0
2220,8290803004962,新規,0,2025-02-05,2025-02-05,合同会社ＯＫＡＫＡＥ,,合同会社,福岡県,北九州市小倉南区,下曽根３丁目１０番４号,,40,107,8000217,,,,,,,2025-02-05,1,,,,,オカカエ,0
2223,8330001032869,新規,0,2025-02-05,2025-02-05,株式会社Ｂ＆Ｍ,,株式会社,熊本県,熊本市中央区,新市街６番２６号ＭＯＶＥ　ＢＬＤ２階,,43,101,8600803,,,,,,,2025-02-05,1,,,,,ビイアンドエム,0
2225,8330003010781,新規,0,2025-02-05,2025-02-05,合同会社ＨＡＮＡＹＵ,,合同会社,熊本県,熊本市北区,植木町鐙田５２３番地９号,,43,105,8610142,,,,,,,2025-02-05,1,,,,,ハナユウ,0
2226,8340001027109,新規,0,2025-02-05,2025-02-05,ＥＮＩＩ株式会社,,株式会社,鹿児島県,薩摩郡さつま町,平川２０１８番地１,,46,392,8951807,,,,,,,2025-02-05,1,,,,,エニー,0
2227,8340003004741,新規,0,2025-02-05,2025-02-05,ＳＡＺＯエンジニアリング合同会社,,合同会社,鹿児島県,鹿児島市,東佐多町２１０８番地,,46,201,8911302,,,,,,,2025-02-05,1,,,,,サゾーエンジニアリング,0
2228,8350001019385,新規,0,2025-02-05,2025-02-05,株式会社Ｂ,,株式会社,宮崎県,宮崎市,阿波岐原町前浜４２７６番地８２２,,45,201,8800835,,,,,,,2025-02-05,1,,,,,ビー,0
2233,8370001052211,新規,0,2025-02-05,2025-02-05,ＧＧＳ株式会社,,株式会社,宮城県,岩沼市,南長谷字角方７８番地の６,,04,211,9892454,,,,,,,2025-02-05,1,,,,,ジージーエス,0
2234,8370003006925,新規,0,2025-02-05,2025-02-05,合同会社ａｉｓＡＩ,,合同会社,宮城県,仙台市泉区,南中山６丁目１１番地の５,,04,105,9813213,,,,,,,2025-02-05,1,,,,,アイズエーアイ,0
2236,8370005010909,新規,0,2025-02-05,2025-02-05,一般社団法人片倉病院,,その他の設立登記法人,宮城県,大崎市,古川浦町１番３７号,,04,215,9896173,,,,,,,2025-02-05,1,,,,,カタクラビョウイン,0
2238,8380001035074,新規,0,2025-02-05,2025-02-05,株式会社ヨシエンジニアリング,,株式会社,福島県,いわき市,平赤井字深田２７番地の４－１階,,07,204,9793131,,,,,,,2025-02-05,1,,,,,ヨシエンジニアリング,0
2239,8380003005950,新規,0,2025-02-05,2025-02-05,合同会社龍虎,,合同会社,福島県,郡山市,駅前２丁目６番５号マルマビル１階,,07,203,9638002,,,,,,,2025-02-05,1,,,,,リュウコ,0
2245,8420001019007,新規,0,2025-02-05,2025-02-05,事業承継コンサルティング株式会社,,株式会社,青森県,青森市,大字大矢沢字里見５６番地,,02,201,0300123,,,,,,,2025-02-05,1,,,,,ジギョウショウケイコンサルティング,0
2246,8420003003066,新規,0,2025-02-05,2025-02-05,合同会社ホーミー,,合同会社,青森県,八戸市,類家５丁目２６番１０号,,02,203,0310001,,,,,,,2025-02-05,1,,,,,ホーミー,0
2247,8430001093629,新規,0,2025-02-05,2025-02-05,株式会社ｍｕｕ,,株式会社,北海道,滝川市,江部乙町西１２丁目１番２５号,,01,225,0790462,,,,,,,2025-02-05,1,,,,,ムー,0
2248,8430001093645,新規,0,2025-02-05,2025-02-05,株式会社松永工業,,株式会社,北海道,札幌市北区,新琴似六条４丁目１番１９－２号,,01,102,0010906,,,,,,,2025-02-05,1,,,,,マツナガコウギョウ,0
2252,8430003017247,新規,0,2025-02-05,2025-02-05,合同会社大翔不動産,,合同会社,北海道,石狩市,親船町２５番９号,,01,235,0613377,,,,,,,2025-02-05,1,,,,,ダイトフドウサン,0
2255,8470001020570,新規,0,2025-02-05,2025-02-05,株式会社ネクストベース,,株式会社,香川県,丸亀市,飯野町東二１７２１番地１１,,37,202,7630084,,,,,,,2025-02-05,1,,,,,ネクストベース,0
2257,8480001012740,新規,0,2025-02-05,2025-02-05,株式会社ＳＯＵＴＨ　ＰＡＲＫ,,株式会社,徳島県,板野郡上板町,西分字馬道１番地３,,36,405,7711330,,,,,,,2025-02-05,1,,,,,サウスパーク,0
2261,8490001010958,新規,0,2025-02-05,2025-02-05,株式会社Ｓｍｉｌｅ　ｈｏｍｅ,,株式会社,高知県,高知市,北竹島町６番地９,,39,201,7808019,,,,,,,2025-02-05,1,,,,,スマイルホーム,0
2263,8500001026127,新規,0,2025-02-05,2025-02-05,株式会社ヒデ電設,,株式会社,愛媛県,今治市,東村３丁目１０番５６号,,38,202,7991506,,,,,,,2025-02-05,1,,,,,ヒデデンセツ,0
2272,9010001251946,新規,0,2025-02-05,2025-02-05,株式会社クレスト,,株式会社,東京都,中央区,日本橋兜町１７番１－７０６号日本橋ロイヤルプラザ,,13,102,1030026,,,,,,,2025-02-05,1,,,,,クレスト,0
2273,9010001251995,新規,0,2025-02-05,2025-02-05,大洋通商株式会社,,株式会社,東京都,文京区,本郷２丁目１９番７号ブルービルディング６階,,13,105,1130033,,,,,,,2025-02-05,1,,,,,タイヨウツウショウ,0
2274,9010001252028,新規,0,2025-02-05,2025-02-05,ＧＶホールディングス株式会社,,株式会社,東京都,中央区,八丁堀３丁目１２番８号ＨＦ八丁堀ビルディング８Ｆ,,13,102,1040032,,,,,,,2025-02-05,1,,,,,ジーブイホールディングス,0
2278,9010005039495,新規,0,2025-02-05,2025-02-05,一般社団法人ＪＡＢＡ関東地区連盟,,その他の設立登記法人,東京都,中央区,銀座１丁目１２番４号Ｎ＆ＥＢＬＤ．７階,,13,102,1040061,,,,,,,2025-02-05,1,,,,,ジャバカントウチクレンメイ,0
2279,9010005039512,新規,0,2025-02-05,2025-02-05,一般社団法人百年ソーラー九州,,その他の設立登記法人,東京都,文京区,本郷７丁目３番１号,,13,105,1130033,,,,,,,2025-02-05,1,,,,,ヒャクネンソーラーキュウシュウ,0
2283,9010401187906,新規,0,2025-02-05,2025-02-05,株式会社Ｉ’ｍ　ｊｏｂ,,株式会社,東京都,港区,南青山３丁目１番３６号青山丸竹ビル６Ｆ,,13,103,1070062,,,,,,,2025-02-05,1,,,,,アイムジョブ,0
2284,9010401187930,新規,0,2025-02-05,2025-02-05,株式会社Ｐｉｎｔｅｒｎｅｔ　Ｗｏｒｋｓ,,株式会社,東京都,港区,北青山１丁目３番１号アールキューブ青山３階,,13,103,1070061,,,,,,,2025-02-05,1,,,,,ピンターネットワークス,0
2285,9010403034305,新規,0,2025-02-05,2025-02-05,合同会社Ｇａｌａｘｙ,,合同会社,東京都,港区,南青山３丁目１番３６号,,13,103,1070062,,,,,,,2025-02-05,1,,,,,ギャラクシー,0
2293,9010801035788,新規,0,2025-02-05,2025-02-05,Ｂｏｘ　Ｍｏｕｎｔａｉｎ株式会社,,株式会社,東京都,大田区,大森東５丁目２８番５号,,13,111,1430012,,,,,,,2025-02-05,1,,,,,ボックスマウンテン,0
2294,9010801035813,新規,0,2025-02-05,2025-02-05,澤一優品株式会社,,株式会社,東京都,大田区,西蒲田３丁目２２番１３号,,13,111,1440051,,,,,,,2025-02-05,1,,,,,サワイチユウヒン,0
2302,9011001167380,新規,0,2025-02-05,2025-02-05,株式会社ＶｉｒｔｕａｌＨａｔｃｈ,,株式会社,東京都,渋谷区,神南１丁目１１番４号ＦＰＧリンクス神南５階,,13,113,1500041,,,,,,,2025-02-05,1,,,,,バーチャルハッチ,0
2303,9011001167612,新規,0,2025-02-05,2025-02-05,株式会社サニーフォース,,株式会社,東京都,渋谷区,神南１丁目１２－１４渋谷宮田ビル,,13,113,1500041,,,,,,,2025-02-05,1,,,,,サニーフォース,0
2311,9011303005412,新規,0,2025-02-05,2025-02-05,アクセルリー合同会社,,合同会社,東京都,杉並区,成田西１丁目１６－４７,,13,115,1660016,,,,,,,2025-02-05,1,,,,,アクセルリー,0
2321,9011801045604,新規,0,2025-02-05,2025-02-05,Ｌｉｎｋｗａｒｅ株式会社,,株式会社,東京都,足立区,千住緑町１丁目２番１―１３１７号,,13,121,1200044,,,,,,,2025-02-05,1,,,,,リンクウェア,0
2322,9011803006678,新規,0,2025-02-05,2025-02-05,合同会社ライフエステート,,合同会社,東京都,足立区,中央本町１丁目４番１号,,13,121,1200011,,,,,,,2025-02-05,1,,,,,ライフエステート,0
2323,9012401042727,新規,0,2025-02-05,2025-02-05,株式会社ＲｅｖｅｒｓｅＣｏｎｃｅｐｔ,,株式会社,東京都,調布市,深大寺東町６丁目１３－２６,,13,208,1820012,,,,,,,2025-02-05,1,,,,,リバースコンセプト,0
2324,9012401042743,新規,0,2025-02-05,2025-02-05,日本総合マーケティング株式会社,,株式会社,東京都,三鷹市,新川６丁目３８番２－３０３号,,13,204,1810004,,,,,,,2025-02-05,1,,,,,ニホンソウゴウマーケティング,0
2332,9013301053748,新規,0,2025-02-05,2025-02-05,千葉太陽光管理株式会社,,株式会社,東京都,豊島区,南池袋３丁目６－５プラーズ南池袋１０１号室,,13,116,1710022,,,,,,,2025-02-05,1,,,,,チバタイヨウコウカンリ,0
2333,9013303007529,新規,0,2025-02-05,2025-02-05,ＡＩＯ合同会社,,合同会社,東京都,豊島区,南池袋１丁目９番１８号３３３号室,,13,116,1710022,,,,,,,2025-02-05,1,,,,,エーアイオー,0
2336,9020001161153,新規,0,2025-02-05,2025-02-05,株式会社ゴールドＡＤソリューションズ,,株式会社,神奈川県,川崎市多摩区,中野島３丁目５－２４－２０８号,,14,135,2140012,,,,,,,2025-02-05,1,,,,,,0
2341,9020003027690,新規,0,2025-02-05,2025-02-05,Ｔａｔｖａｓｏｆｔ　Ｊａｐａｎ合同会社,,合同会社,神奈川県,川崎市川崎区,宮前町８－１５パールビルディング９０２,,14,131,2100012,,,,,,,2025-02-05,1,,,,,タトヴァソフトジャパン,0
2342,9020003027724,新規,0,2025-02-05,2025-02-05,ＳＴＲＡＩＧＨＴ合同会社,,合同会社,神奈川県,川崎市多摩区,南生田５丁目１３番１７号,,14,135,2140036,,,,,,,2025-02-05,1,,,,,ストレート,0
2343,9020003027740,新規,0,2025-02-05,2025-02-05,バンソナー合同会社,,合同会社,神奈川県,横浜市都筑区,中川３丁目５番３７号,,14,118,2240001,,,,,,,2025-02-05,1,,,,,バンソナー,0
2352,9021001084393,新規,0,2025-02-05,2025-02-05,株式会社タレント・エンパワーメント,,株式会社,神奈川県,鎌倉市,御成町１１番８号,,14,204,2480012,,,,,,,2025-02-05,1,,,,,タレントエンパワーメント,0
2356,9021003015545,新規,0,2025-02-05,2025-02-05,合同会社ナガシマ,,合同会社,神奈川県,茅ヶ崎市,堤１１番地８,,14,207,2530006,,,,,,,2025-02-05,1,,,,,ナガシマ,0
2365,9030003026048,新規,0,2025-02-05,2025-02-05,ハヤテ合同会社,,合同会社,埼玉県,春日部市,内牧３１１５番地２,,11,214,3440051,,,,,,,2025-02-05,1,,,,,ハヤテ,0
2368,9040001137242,新規,0,2025-02-05,2025-02-05,株式会社ＫＹＫ,,株式会社,千葉県,市川市,市川１丁目２４番８号,,12,203,2720034,,,,,,,2025-02-05,1,,,,,ケーワイケー,0
2369,9040001137267,新規,0,2025-02-05,2025-02-05,株式会社アステック,,株式会社,千葉県,山武郡横芝光町,新島１４６４番地６,,12,410,2891736,,,,,,,2025-02-05,1,,,,,アステック,0
2370,9040001137275,新規,0,2025-02-05,2025-02-05,株式会社ハッピードーナツ,,株式会社,千葉県,茂原市,東部台３丁目７番地１３,,12,210,2970015,,,,,,,2025-02-05,1,,,,,ハッピードーナツ,0
2371,9040001137283,新規,0,2025-02-05,2025-02-05,イリオス株式会社,,株式会社,千葉県,松戸市,東松戸２丁目９番地の１５リヴェック東松戸３０３号,,12,207,2702225,,,,,,,2025-02-05,1,,,,,イリオス,0
2377,9050001056094,新規,0,2025-02-05,2025-02-05,株式会社ＥＡＧＬＥ,,株式会社,茨城県,つくば市,二の宮１丁目１３番地４シーズつくばＩＩ、１Ｆ,00137900,08,220,3050051,,,,,,,2025-02-05,1,,,,,イーグル,0
2381,9060001037886,新規,0,2025-02-05,2025-02-05,Ｖｉｅ　Ｒｏｍａｎｃｅ株式会社,,株式会社,栃木県,小山市,本郷町２丁目７番３８号,,09,208,3230026,,,,,,,2025-02-05,1,,,,,ヴィーロマンス,0
2383,9060003005412,新規,0,2025-02-05,2025-02-05,Ｐｅａｃｅ＆Ｊｏｙ合同会社,,合同会社,栃木県,那須塩原市,本郷町３－１４パラダイスビル３Ｆ,,09,213,3250053,,,,,,,2025-02-05,1,,,,,ピースアンドジョイ,0
2389,9080003003380,新規,0,2025-02-05,2025-02-05,合同会社ＳｗｏｒｋＳ,,合同会社,静岡県,焼津市,中新田２３２‐１１,,22,212,4250068,,,,,,,2025-02-05,1,,,,,エスワークス,0
2390,9080101025293,新規,0,2025-02-05,2025-02-05,伊豆総株式会社,,株式会社,静岡県,伊東市,富戸１３１７番地の２５４９,,22,208,4130231,,,,,,,2025-02-05,1,,,,,イズソウ,0
2391,9080103003248,新規,0,2025-02-05,2025-02-05,ＮＪＫＣｏｏｒｄｉｎａｔｅＯｆｆｉｃｅ合同会社,,合同会社,静岡県,沼津市,五月町３－２０－２,,22,203,4100044,,,,,,,2025-02-05,1,,,,,,0
2393,9090001019122,新規,0,2025-02-05,2025-02-05,ＵＮＩＣＯＲＮ株式会社,,株式会社,山梨県,甲府市,国母４丁目１番１３号,,19,201,4000043,,,,,,,2025-02-05,1,,,,,ユニコン,0
2397,9100003007981,新規,0,2025-02-05,2025-02-05,合同会社鶴昌,,合同会社,長野県,東筑摩郡山形村,７９７７番地,,20,450,3901301,,,,,,,2025-02-05,1,,,,,ツルマサ,0
2417,9120001272527,新規,0,2025-02-05,2025-02-05,大有株式会社,,株式会社,大阪府,大阪市中央区,大手通１丁目３番９号ＴＯＭＯＢＬＤＧ２０２号,,27,128,5400021,,,,,,,2025-02-05,1,,,,,ダイユウ,0
2418,9120001272568,新規,0,2025-02-05,2025-02-05,日翔商事株式会社,,株式会社,大阪府,大阪市中央区,北久宝寺町１丁目５番６－９０４号,,27,128,5410057,,,,,,,2025-02-05,1,,,,,ニッショウショウジ,0
2419,9120001272601,新規,0,2025-02-05,2025-02-05,株式会社カナタラ,,株式会社,大阪府,大阪市生野区,中川西１丁目１０番１０号,,27,116,5440032,,,,,,,2025-02-05,1,,,,,カナタラ,0
2420,9120001272634,新規,0,2025-02-05,2025-02-05,株式会社ＴＣスクエア,,株式会社,大阪府,大阪市淀川区,西中島６丁目１０－１－２０５,,27,123,5320011,,,,,,,2025-02-05,1,,,,,ティーシースクエア,0
2421,9120001272642,新規,0,2025-02-05,2025-02-05,株式会社ＤＡＴＡＸＥＥＤ,,株式会社,大阪府,大阪市中央区,本町４丁目２－１２,,27,128,5410053,,,,,,,2025-02-05,1,,,,,データシード,0
2422,9120001272691,新規,0,2025-02-05,2025-02-05,株式会社リスクレス・ワン,,株式会社,大阪府,大阪市北区,梅田１丁目１番３号大阪駅前第三ビル２９階１－１－１号室,,27,127,5300001,,,,,,,2025-02-05,1,,,,,リスクレスワン,0
2428,9120003028506,新規,0,2025-02-05,2025-02-05,合同会社レイス,,合同会社,大阪府,大阪市平野区,背戸口４丁目７番４号,,27,126,5470034,,,,,,,2025-02-05,1,,,,,レイス,0
2429,9120003028539,新規,0,2025-02-05,2025-02-05,合同会社トライスター,,合同会社,大阪府,大阪市淀川区,西中島６丁目２番３－６１１号,,27,123,5320011,,,,,,,2025-02-05,1,,,,,トライスター,0
2430,9120003028563,新規,0,2025-02-05,2025-02-05,合同会社スプリングバンク,,合同会社,大阪府,守口市,本町２丁目１番２４－１６０２号,,27,209,5700028,,,,,,,2025-02-05,1,,,,,スプリングバンク,0
2437,9120901050404,新規,0,2025-02-05,2025-02-05,株式会社プラス,,株式会社,大阪府,箕面市,粟生間谷東１丁目３３番３号,,27,220,5620022,,,,,,,2025-02-05,1,,,,,プラス,0
2441,9130001078915,新規,0,2025-02-05,2025-02-05,株式会社京都堀川リゾート,,株式会社,京都府,京都市中京区,柳馬場通御池下る柳八幡町７５番地６,,26,104,6048101,,,,,,,2025-02-05,1,,,,,キョウトホリカワリゾート,0
2448,9140001137307,新規,0,2025-02-05,2025-02-05,株式会社Ｐｏｒｔ１１Ｖｉｓｉｏｎ,,株式会社,兵庫県,神戸市中央区,磯辺通１丁目１番１８号カサベラ国際プラザビル７０７号室,,28,110,6510084,,,,,,,2025-02-05,1,,,,,ポートイレブンビジョン,0
2449,9140001137315,新規,0,2025-02-05,2025-02-05,株式会社Ｔｓｕｍｕｇｉ電業,,株式会社,兵庫県,神戸市西区,池上２丁目１２番地の９,,28,111,6512111,,,,,,,2025-02-05,1,,,,,ツムギデンギョウ,0
2451,9150001027861,新規,0,2025-02-05,2025-02-05,Ｆｉｒｓｔ　Ｓｔｅｐ株式会社,,株式会社,奈良県,北葛城郡広陵町,大字三吉４７８－１,,29,426,6350823,,,,,,,2025-02-05,1,,,,,ファーストステップ,0
2452,9150003003489,新規,0,2025-02-05,2025-02-05,合同会社Ｉｄａｒｅ,,合同会社,奈良県,奈良市,学園朝日元町２丁目５８４番地の１７,,29,201,6310015,,,,,,,2025-02-05,1,,,,,アイデア,0
2453,9160001026524,新規,0,2025-02-05,2025-02-05,株式会社Ｔｏｐ　Ｓｔｙｌｅ,,株式会社,滋賀県,栗東市,下戸山１１６９番地１,,25,208,5203011,,,,,,,2025-02-05,1,,,,,トップスタイル,0
2454,9170005007131,新規,0,2025-02-05,2025-02-05,医療法人森歯科医院,,その他の設立登記法人,和歌山県,橋本市,慶賀野２８０－１森ビル１Ｆ,,30,203,6480093,,,,,,,2025-02-05,1,,,,,モリシカイイン,0
2460,9180001165337,新規,0,2025-02-05,2025-02-05,株式会社ＯＲＥ,,株式会社,愛知県,名古屋市瑞穂区,彌富通５丁目１７番地の２,,23,108,4670064,,,,,,,2025-02-05,1,,,,,オレ,0
2469,9180003027964,新規,0,2025-02-05,2025-02-05,合同会社ノワールブラン,,合同会社,愛知県,江南市,高屋町清水１３番地５,,23,217,4838061,,,,,,,2025-02-05,1,,,,,ノワールブラン,0
2470,9180301039496,新規,0,2025-02-05,2025-02-05,野安株式会社,,株式会社,愛知県,高浜市,田戸町２丁目２番地４４,,23,227,4441323,,,,,,,2025-02-05,1,,,,,ノヤス,0
2475,9190001031975,新規,0,2025-02-05,2025-02-05,株式会社つばめ不動産,,株式会社,三重県,鈴鹿市,長太旭町２丁目１４番３９号,,24,207,5130042,,,,,,,2025-02-05,1,,,,,ツバメフドウサン,0
2481,9200001043408,新規,0,2025-02-05,2025-02-05,株式会社奥村商店,,株式会社,岐阜県,加茂郡八百津町,八百津４３１６番地１,,21,505,5050301,,,,,,,2025-02-05,1,,,,,オクムラショウテン,0
2489,9240001064482,新規,0,2025-02-05,2025-02-05,株式会社ホットスタッフ廿日市,,株式会社,広島県,廿日市市,宮内４丁目１０番９号,,34,213,7380034,,,,,,,2025-02-05,1,,,,,ホットスタッフハツカイチ,0
2490,9240001064490,新規,0,2025-02-05,2025-02-05,株式会社広島楽友協会,,株式会社,広島県,広島市中区,鉄砲町４番１６号,,34,101,7300017,,,,,,,2025-02-05,1,,,,,ヒロシマガクユウキョウカイ,0
2495,9250003003644,新規,0,2025-02-05,2025-02-05,合同会社ＥＭＡ,,合同会社,山口県,下関市,竹崎町１丁目１５番３３号ポラスタービル５階,,35,201,7500025,,,,,,,2025-02-05,1,,,,,エマ,0
2497,9260001039879,新規,0,2025-02-05,2025-02-05,ＫＴグループ株式会社,,株式会社,岡山県,岡山市北区,野田屋町１丁目１－１４久永ビル１Ｆ,,33,101,7000815,,,,,,,2025-02-05,1,,,,,ケーティーグループ,0
2502,9290003016329,新規,0,2025-02-05,2025-02-05,合同会社スズラン,,合同会社,福岡県,福岡市城南区,友丘２丁目７－３,,40,136,8140112,,,,,,,2025-02-05,1,,,,,スズラン,0
2509,9320001020931,新規,0,2025-02-05,2025-02-05,株式会社アイシンテック,,株式会社,大分県,大分市,汐見２丁目１番２７号,,44,201,8700253,,,,,,,2025-02-05,1,,,,,アイシンテック,0
2511,9330003010780,新規,0,2025-02-05,2025-02-05,合同会社梓,,合同会社,熊本県,熊本市西区,沖新町４７１１番地１,,43,103,8615273,,,,,,,2025-02-05,1,,,,,アズサ,0
2515,9340001027090,新規,0,2025-02-05,2025-02-05,株式会社ＳＰ,,株式会社,鹿児島県,大島郡瀬戸内町,大字古仁屋字春日１２番地７,,46,525,8941504,,,,,,,2025-02-05,1,,,,,エスピー,0
2516,9340001027108,新規,0,2025-02-05,2025-02-05,株式会社ＴＥＡ　ＵＰ　ＡＧＲＩ,,株式会社,鹿児島県,曽於市,財部町下財部４６７２番地,,46,217,8994103,,,,,,,2025-02-05,1,,,,,ティーアップアグリ,0
2518,9350001019384,新規,0,2025-02-05,2025-02-05,株式会社Ａ,,株式会社,宮崎県,宮崎市,阿波岐原町前浜４２７６番地８２２,,45,201,8800835,,,,,,,2025-02-05,1,,,,,エー,0
2520,9350003004830,新規,0,2025-02-05,2025-02-05,合同会社シーサイドスカイ,,合同会社,宮崎県,児湯郡都農町,大字川北１１８４－１２ＲｉｎｋＷｏｒｋｓＢ,,45,406,8891201,,,,,,,2025-02-05,1,,,,,シーサイドスカイ,0
2522,9360001034754,新規,0,2025-02-05,2025-02-05,匠福建設株式会社,,株式会社,沖縄県,那覇市,字上之屋４１１番地２サンスーシマンション６－Ｃ,,47,201,9000011,,,,,,,2025-02-05,1,,,,,ショウフクケンセツ,0
2523,9360003014663,新規,0,2025-02-05,2025-02-05,合同会社正屋,,合同会社,沖縄県,那覇市,若狭２丁目４番１号М．Ｈ．М８０１,,47,201,9000031,,,,,,,2025-02-05,1,,,,,マサヤ,0
2525,9370001052219,新規,0,2025-02-05,2025-02-05,株式会社Ｍａｒｃｏ．,,株式会社,宮城県,仙台市泉区,上谷刈７－４アステラス八乙女２０２号室,,04,105,9813121,,,,,,,2025-02-05,1,,,,,マルコ,0
2543,9430001093611,新規,0,2025-02-05,2025-02-05,株式会社ＲＥＣＯＲＥ,,株式会社,北海道,札幌市北区,新川三条４丁目２番３号,,01,102,0010923,,,,,,,2025-02-05,1,,,,,リコア,0
2544,9430001093636,新規,0,2025-02-05,2025-02-05,ＨＹマネジメント株式会社,,株式会社,北海道,夕張郡長沼町,北町２丁目２番３号,,01,428,0691347,,,,,,,2025-02-05,1,,,,,エイチワイマネジメント,0
2546,9430003017246,新規,0,2025-02-05,2025-02-05,合同会社ＦｏｕｒＬｅａｆ　Ｓａｐｐｏｒｏ,,合同会社,北海道,札幌市中央区,北三条東２丁目２－３６デイ．オークスビル１Ｆ,,01,101,0600033,,,,,,,2025-02-05,1,,,,,フォーリーフサッポロ,0
2559,9500003003429,新規,0,2025-02-05,2025-02-05,カイジョー合同会社,,合同会社,愛媛県,今治市,松本町１丁目２番１０,,38,202,7940041,,,,,,,2025-02-05,1,,,,,カイジョー,0
