sequenceNumber,corporateNumber,process,correct,updateDate,changeDate,name,nameImageId,kind,prefectureName,cityName,streetNumber,addressImageId,prefectureCode,cityCode,postCode,addressOutside,addressOutsideImageId,closeDate,closeCause,successorCorporateNumber,changeCause,assignmentDate,latest,enName,enPrefectureName,enCityName,enAddressOutside,furigana,hihyoji
3,1010001242531,新規,0,2024-02-22,2024-02-22,ギャラクシィホールディングス株式会社,,株式会社,東京都,文京区,大塚５丁目３番１３号,00133830,13,105,1120012,,,,,,,2024-02-22,1,,,,,ギャラクシィホールディングス,0
4,1010001242556,新規,0,2024-02-22,2024-02-22,株式会社ｅｓｐｏｉｒ,,株式会社,東京都,中央区,湊２丁目１１番１－９０８号,,13,102,1040043,,,,,,,2024-02-22,1,,,,,エスポア,0
7,1010003043011,新規,0,2024-02-22,2024-02-22,合同会社川崎鋼管通開発ツープロジェクト,,合同会社,東京都,千代田区,平河町１丁目６番１５号シルスフィア会計事務所内,,13,101,1020093,,,,,,,2024-02-22,1,,,,,カワサキコウカンドオリカイハツツープロジェクト,0
14,1010401180174,新規,0,2024-02-22,2024-02-22,ＶＡＬＵＥ　ＳＥＳ株式会社,,株式会社,東京都,港区,北青山１丁目３番１号アールキューブ青山３階,,13,103,1070061,,,,,,,2024-02-22,1,,,,,バリューエスイーエス,0
15,1010401180455,新規,0,2024-02-22,2024-02-22,Ｊｉｓｓｅｎ　Ｌａｂ．Ｉｎｉｔｉａｔｉｖｅ株式会社,,株式会社,東京都,港区,北青山１丁目３番１号アールキューブ青山３階,,13,103,1070061,,,,,,,2024-02-22,1,,,,,ジッセンラボイニチアチブ,0
16,1010401180562,新規,0,2024-02-22,2024-02-22,株式会社Ｉｎｉｔｉａｌ　Ｅｎｇｉｎｅ,,株式会社,東京都,港区,六本木３丁目８－５,,13,103,1060032,,,,,,,2024-02-22,1,,,,,イニシャルエンジン,0
17,1010401180570,新規,0,2024-02-22,2024-02-22,株式会社ジュエルボックス,,株式会社,東京都,港区,北青山１丁目３番１号アールキューブ青山３階,,13,103,1070061,,,,,,,2024-02-22,1,,,,,ジュエルボックス,0
21,1010403032027,新規,0,2024-02-22,2024-02-22,合同会社ディメンション,,合同会社,東京都,港区,南青山２丁目２番１５号ウィン青山１２１４号,,13,103,1070062,,,,,,,2024-02-22,1,,,,,ディメンション,0
25,1010501051812,新規,0,2024-02-22,2024-02-22,ＴＣホールディングス株式会社,,株式会社,東京都,台東区,清川１丁目２１－５ＷＡＬＬａｐａｒｔｍｅｎｔ５階大区画号室,,13,106,1110022,,,,,,,2024-02-22,1,,,,,ティーシーホールディングス,0
26,1010501051820,新規,0,2024-02-22,2024-02-22,株式会社葵,,株式会社,東京都,台東区,上野７丁目１１番７号川村ビル４０２号室,,13,106,1100005,,,,,,,2024-02-22,1,,,,,アオイ,0
27,1010601064697,新規,0,2024-02-22,2024-02-22,株式会社しまだ軽急便,,株式会社,東京都,墨田区,菊川３丁目６番６－２０５号藤和菊川ホームズ,,13,107,1300024,,,,,,,2024-02-22,1,,,,,シマダケイキュウビン,0
30,1010901054745,新規,0,2024-02-22,2024-02-22,株式会社ＹＲＲ,,株式会社,東京都,世田谷区,南烏山６丁目２番３号スバルビル２Ｆ,,13,112,1570062,,,,,,,2024-02-22,1,,,,,イール,0
31,1010901054753,新規,0,2024-02-22,2024-02-22,ＣｏｄｅＣｉａｏ株式会社,,株式会社,東京都,世田谷区,玉堤１丁目１６番２３－４０３号,,13,112,1580087,,,,,,,2024-02-22,1,,,,,コードチャオ,0
32,1010903008848,新規,0,2024-02-22,2024-02-22,合同会社Ｌｕｏｍｉｎｅｎ　Ｌａｂ,,合同会社,東京都,世田谷区,千歳台２丁目１９番７号,,13,112,1570071,,,,,,,2024-02-22,1,,,,,ルオミネンラボ,0
40,1011003018548,新規,0,2024-02-22,2024-02-22,ジュキホールディングス合同会社,,合同会社,東京都,渋谷区,神泉町１０番１５号アネックス神泉３０１,,13,113,1500045,,,,,,,2024-02-22,1,,,,,ジュキホールディングス,0
44,1011203004307,新規,0,2024-02-22,2024-02-22,合同会社Ｂｉｇ　Ｂｕｔｔｅｒｆｌｙ,,合同会社,東京都,中野区,弥生町４丁目７番１６号,,13,114,1640013,,,,,,,2024-02-22,1,,,,,ビッグバタフライ,0
50,1011701027040,新規,0,2024-02-22,2024-02-22,株式会社サロンスポット,,株式会社,東京都,江戸川区,南小岩５丁目１７番２０号,,13,123,1330056,,,,,,,2024-02-22,1,,,,,サロンスポット,0
51,1011701027049,新規,0,2024-02-22,2024-02-22,エコファームジャパン株式会社,,株式会社,東京都,江戸川区,西小岩１丁目２０番８号,,13,123,1330057,,,,,,,2024-02-22,1,,,,,エコファームジャパン,0
52,1011703003758,新規,0,2024-02-22,2024-02-22,合同会社Ｚｅａｌ　Ｏｐｔｉｍａ,,合同会社,東京都,江戸川区,東葛西５丁目１２－６カワマンビル２階,,13,123,1340084,,,,,,,2024-02-22,1,,,,,ジールオプティマ,0
63,1013301052105,新規,0,2024-02-22,2024-02-22,株式会社兆穂,,株式会社,東京都,豊島区,池袋２丁目５２番３号ルミナリータワー池袋１４０３号,,13,116,1710014,,,,,,,2024-02-22,1,,,,,ヨシホ,0
77,1020001155906,新規,0,2024-02-22,2024-02-22,株式会社７２３,,株式会社,神奈川県,横浜市港北区,日吉本町２丁目３－１－１モンテラードＡ１０３,,14,109,2230062,,,,,,,2024-02-22,1,,,,,ナナニイサン,0
78,1020001155947,新規,0,2024-02-22,2024-02-22,株式会社Ｎｅｘｔ　Ｉｎｎｏｖａｔｉｏｎ,,株式会社,神奈川県,横浜市保土ケ谷区,峰沢町２６７フォレナ羽沢横浜国大１０７,,14,106,2400061,,,,,,,2024-02-22,1,,,,,ネクストイノベーション,0
83,1020003025578,新規,0,2024-02-22,2024-02-22,合同会社Ｏ．Ｓ．Ｋ,,合同会社,神奈川県,横浜市神奈川区,金港町５番１４号クアドリフォリオ８階,,14,102,2210056,,,,,,,2024-02-22,1,,,,,オーエスーケー,0
84,1020003025594,新規,0,2024-02-22,2024-02-22,合同会社ＣｌｅａｎＵｐ,,合同会社,神奈川県,横浜市西区,浅間町１丁目４－３ウィザードビル４０２,,14,103,2200072,,,,,,,2024-02-22,1,,,,,,0
87,1021001081530,新規,0,2024-02-22,2024-02-22,株式会社ｎｏｋｉｔｅｎ,,株式会社,神奈川県,茅ヶ崎市,芹沢１００３番地,,14,207,2530008,,,,,,,2024-02-22,1,,,,,ノキテン,0
88,1021001081539,新規,0,2024-02-22,2024-02-22,株式会社ステイブル,,株式会社,神奈川県,相模原市中央区,星が丘１丁目１５番５号,,14,152,2520238,,,,,,,2024-02-22,1,,,,,ステイブル,0
101,1030001158593,新規,0,2024-02-22,2024-02-22,株式会社正晃電気,,株式会社,埼玉県,上尾市,向山３丁目４５－２０,,11,219,3620045,,,,,,,2024-02-22,1,,,,,ショウコウデンキ,0
102,1030001158817,新規,0,2024-02-22,2024-02-22,デキントス株式会社,,株式会社,埼玉県,草加市,原町２丁目９番５１号,,11,221,3400048,,,,,,,2024-02-22,1,,,,,デキントス,0
112,1050001054329,新規,0,2024-02-22,2024-02-22,ティンク株式会社,,株式会社,茨城県,ひたちなか市,大字高場１４８８番地１２,,08,221,3120062,,,,,,,2024-02-22,1,,,,,,0
113,1050001054345,新規,0,2024-02-22,2024-02-22,ＨＡＨ　ＧＲＯＵＰ株式会社,,株式会社,茨城県,古河市,西牛谷９００番地７,,08,204,3060233,,,,,,,2024-02-22,1,,,,,エイチエーエイチグループ,0
118,1050003008150,新規,0,2024-02-22,2024-02-22,ＭＲＳ　ＪＡＰＡＮ合同会社,,合同会社,茨城県,結城市,大字大木２４０３番地４７,,08,207,3070031,,,,,,,2024-02-22,1,,,,,エムアールエスジャパン,0
119,1060001036854,新規,0,2024-02-22,2024-02-22,株式会社共進,,株式会社,栃木県,真岡市,長沼１０３５番地１,,09,209,3214539,,,,,,,2024-02-22,1,,,,,キョウシン,0
120,1060003004925,新規,0,2024-02-22,2024-02-22,ＫＳＡ　Ｃｏｒｐｏｒａｔｉｏｎ合同会社,,合同会社,栃木県,小山市,大字横倉新田１７２番地１２０,,09,208,3230819,,,,,,,2024-02-22,1,,,,,ケイエスエーコーポレーション,0
121,1070003005286,新規,0,2024-02-22,2024-02-22,合同会社ゆいの家,,合同会社,群馬県,高崎市,菊地町１８４－３,,10,202,3700084,,,,,,,2024-02-22,1,,,,,ユイノイエ,0
122,1080401027014,新規,0,2024-02-22,2024-02-22,ＡＣＣＯＵＮＴ　ＢＡＳＥ株式会社,,株式会社,静岡県,浜松市中央区,佐鳴台５丁目２８番３号,,22,138,4328021,,,,,,,2024-02-22,1,,,,,アカウントベース,0
135,1120001262551,新規,0,2024-02-22,2024-02-22,株式会社トリニク,,株式会社,大阪府,大阪市北区,梅田１丁目２番２号大阪駅前第２ビル１２－１２,,27,127,5300001,,,,,,,2024-02-22,1,,,,,トリニク,0
136,1120001262584,新規,0,2024-02-22,2024-02-22,ダイヤダス株式会社,,株式会社,大阪府,大阪市東淀川区,淡路４丁目３２番９号,,27,114,5330032,,,,,,,2024-02-22,1,,,,,ダイヤダス,0
137,1120001262601,新規,0,2024-02-22,2024-02-22,株式会社トライアンフカンパニー,,株式会社,大阪府,大阪市浪速区,難波中１丁目３番１７号,,27,111,5560011,,,,,,,2024-02-22,1,,,,,トライアンフカンパニー,0
141,1120003025881,新規,0,2024-02-22,2024-02-22,合同会社アシーブ,,合同会社,大阪府,大阪市北区,西天満６丁目２－３ユーアイビル１０５号室,,27,127,5300047,,,,,,,2024-02-22,1,,,,,アシーブ,0
142,1120003025997,新規,0,2024-02-22,2024-02-22,合同会社ＡＫ,,合同会社,大阪府,寝屋川市,点野１丁目２３番１－５０２号,,27,215,5720077,,,,,,,2024-02-22,1,,,,,エーケー,0
150,1122001037850,新規,0,2024-02-22,2024-02-22,株式会社ここから,,株式会社,大阪府,柏原市,安堂町１１番９号,,27,221,5820016,,,,,,,2024-02-22,1,,,,,ココカラ,0
154,1130001076422,新規,0,2024-02-22,2024-02-22,株式会社Ｗｏｒｌｄ　Ｇｒｅｅｔｉｎｇ　ＪＡＰＡＮ,,株式会社,京都府,京都市東山区,本町８丁目８６番地,,26,105,6050981,,,,,,,2024-02-22,1,,,,,ワールドグリーティングジャパン,0
160,1140001133395,新規,0,2024-02-22,2024-02-22,株式会社リベラルコンサル,,株式会社,兵庫県,神戸市西区,北別府５丁目１１番地の９,,28,111,6512117,,,,,,,2024-02-22,1,,,,,リベラルコンサル,0
165,1150001027092,新規,0,2024-02-22,2024-02-22,株式会社エイティーン,,株式会社,奈良県,奈良市,富雄元町２丁目５番３号,,29,201,6310078,,,,,,,2024-02-22,1,,,,,エイティーン,0
166,1150005009558,新規,0,2024-02-22,2024-02-22,一般社団法人奈良西ライフチャーチ,,その他の設立登記法人,奈良県,大和郡山市,城町１０７０,,29,203,6391051,,,,,,,2024-02-22,1,,,,,ナラニシライフチャーチ,0
176,1180001160254,新規,0,2024-02-22,2024-02-22,株式会社ＣｌｏｙＥｙｅｓ,,株式会社,愛知県,名古屋市中村区,太閤３丁目９－３Ｗｈｉｔｅ　Ｈｉｌｌｓ　Ｅａｓｔ２０３号室,,23,105,4530801,,,,,,,2024-02-22,1,,,,,クロイアイズ,0
179,1180003026404,新規,0,2024-02-22,2024-02-22,ＲＥ合同会社,,合同会社,愛知県,名古屋市中村区,名駅４丁目２４番５号第２森ビル４０１,,23,105,4500002,,,,,,,2024-02-22,1,,,,,アールイー,0
180,1180003026412,新規,0,2024-02-22,2024-02-22,合同会社キャッスルリアルエステート,,合同会社,愛知県,名古屋市東区,葵３丁目２５番５号,,23,102,4610004,,,,,,,2024-02-22,1,,,,,キャッスルリアルエステート,0
184,1180301038349,新規,0,2024-02-22,2024-02-22,株式会社リタ・ホールディングス,,株式会社,愛知県,豊田市,栄町６丁目６番地７ステージ栄１０２号,,23,211,4710066,,,,,,,2024-02-22,1,,,,,リタホールディングス,0
190,1200003006238,新規,0,2024-02-22,2024-02-22,Ｓ　Ｎ　Ｔｒａｄｉｎｇ　Ｉｎｔｅｒｎａｔｉｏｎａｌ合同会社,,合同会社,岐阜県,恵那市,山岡町久保原１７４１番地１,,21,210,5097601,,,,,,,2024-02-22,1,,,,,エスエヌトレーディングインターナショナル,0
193,1220001025832,新規,0,2024-02-22,2024-02-22,株式会社ｒｉａｎ,,株式会社,石川県,金沢市,片町２丁目２９番地６号,,17,201,9200981,,,,,,,2024-02-22,1,,,,,リアン,0
201,1260003004582,新規,0,2024-02-22,2024-02-22,合同会社アクセスセフティ,,合同会社,岡山県,岡山市中区,浜６０４番地３ＢＩＯ原尾島オフィスＡ‐５,,33,102,7038256,,,,,,,2024-02-22,1,,,,,アクセスセフティ,0
205,1290001104794,新規,0,2024-02-22,2024-02-22,株式会社Ｒ‐工房,,株式会社,福岡県,糸島市,二丈深江２０８３番地,,40,230,8191601,,,,,,,2024-02-22,1,,,,,アールコウボウ,0
206,1290001104803,新規,0,2024-02-22,2024-02-22,株式会社ハイフォース,,株式会社,福岡県,福岡市早良区,有田４丁目３５番４号ロイヤルハウス副田１０２号,,40,137,8140033,,,,,,,2024-02-22,1,,,,,ハイフォース,0
207,1290001104811,新規,0,2024-02-22,2024-02-22,株式会社ＲＩＯＣＬＥ,,株式会社,福岡県,福岡市早良区,原８丁目２５番１７－１号,,40,137,8140022,,,,,,,2024-02-22,1,,,,,リオクル,0
209,1290005019304,新規,0,2024-02-22,2024-02-22,医療法人相北会,,その他の設立登記法人,福岡県,朝倉市,杷木久喜宮１０４７番地１,,40,228,8381514,,,,,,,2024-02-22,1,,,,,ソウホクカイ,0
212,1290803004622,新規,0,2024-02-22,2024-02-22,合同会社リノア,,合同会社,福岡県,田川市,大字伊田２７３９番地三井伊田団地店舗９００４号,,40,206,8250002,,,,,,,2024-02-22,1,,,,,リノア,0
213,1320003004295,新規,0,2024-02-22,2024-02-22,合同会社ＬＣライラック,,合同会社,大分県,別府市,駅前本町９番７号コモールカフェ別府７２５,,44,202,8740934,,,,,,,2024-02-22,1,,,,,,0
215,1340001026298,新規,0,2024-02-22,2024-02-22,株式会社ｗｉｔｈ　ｍａｔｅ,,株式会社,鹿児島県,霧島市,隼人町姫城３丁目１５８番地１,,46,218,8995111,,,,,,,2024-02-22,1,,,,,ウィズメイト,0
216,1340003004376,新規,0,2024-02-22,2024-02-22,合同会社鳥の巣,,合同会社,鹿児島県,霧島市,国分下井１４６０番地１,,46,218,8994463,,,,,,,2024-02-22,1,,,,,トリノス,0
221,1370001050964,新規,0,2024-02-22,2024-02-22,株式会社コウシンマエ,,株式会社,宮城県,仙台市宮城野区,二の森２番３３号,,04,102,9830838,,,,,,,2024-02-22,1,,,,,コウシンマエ,0
228,1380001034314,新規,0,2024-02-22,2024-02-22,Ｈａｎａｎ　ｃｏｒｐｏｒａｔｉｏｎ株式会社,,株式会社,福島県,二本松市,板目沢４２番地Ｂ棟１号室,,07,210,9640015,,,,,,,2024-02-22,1,,,,,ハナンコーポレーション,0
234,1430001091143,新規,0,2024-02-22,2024-02-22,株式会社Ｆｉｒｓｔ　Ｌｅａｐ,,株式会社,北海道,札幌市中央区,大通西３丁目６番地,,01,101,0600042,,,,,,,2024-02-22,1,,,,,ファーストリープ,0
245,1700150123578,新規,0,2024-02-22,2024-02-22,ＳｍａｌｌＲｉｇ　Ｔｅｃｈｎｏｌｏｇｙ（ＨＫ）Ｌｉｍｉｔｅｄ,,外国会社等,,,,,,,,１９Ｈ　ＭＡＸＧＲＡＮＤ　ＰＬＡＺＡ　ＮＯ．３　ＴＡＩ　ＹＡＵ　ＳＴＲＥＥＴ　ＳＡＮ　ＰＯ　ＫＯＮＧ　ＫＬ,,,,,,2024-02-22,1,,,,,スーモーゴーコージーシヤンガンヨウシエンゴンスー,0
246,1700150123586,新規,0,2024-02-22,2024-02-22,ＪｉＬｉｎＳｈｅｎｇＺｈａｏＹｕＢｏＤｉａｎＺｉＳｈａｎｇＷｕＹｏｕＸｉａｎＧｏｎｇＳｉ,,外国会社等,,,,,,,,ＣｈａｎｇＣｈｕｎＳｈｉ　ＬｖＹｕａｎＱｕ　ＪｉｎＸｉＬｕ１７７７ＨａｏＺｈｏｎｇＨｅＪｉａＹｕａｎ８Ｄｏｎｇ１ＤａｎＹｕａｎ３０１,,,,,,2024-02-22,1,,,,,ジーリンシヨンジヤオイーボーデイエンズーシヤンウーヨウシエンゴンスー,0
247,1700150123594,新規,0,2024-02-22,2024-02-22,Ｈｕｎａｎ　Ｑｉｚｅｘｉ　ｔｒａｄｉｎｇ　Ｃｏ．，ＬＴＤ,,外国会社等,,,,,,,,Ｎｏ．１０５６，１ｓｔ　Ｆｌｏｏｒ，Ｂｕｉｌｄｉｎｇ　０２１，Ｒｅｎｍｉｎ　Ｎｅｗ　Ｖｉｌｌａｇｅ，Ｃｈａｏｙａｎｇ　Ｓｔｒｅｅｔ，Ｆｕｒｏｎｇ　Ｄｉｓｔｒｉｃｔ，Ｃｈａｎｇｓｈａ　Ｃｉｔｙ，Ｈｕｎａｎ　Ｐｒｏｖｉｎｃｅ,,,,,,2024-02-22,1,,,,,フーナンチーゾーシーシヤンマオヨウシエンゴンスー,0
254,2010001242489,新規,0,2024-02-22,2024-02-22,株式会社Ｕｍｉｎｏ,,株式会社,東京都,中央区,日本橋横山町３番４－９１０号,,13,102,1030003,,,,,,,2024-02-22,1,,,,,ウミノ,0
255,2010001242547,新規,0,2024-02-22,2024-02-22,株式会社オプトキカイ,,株式会社,東京都,中央区,日本橋茅場町２丁目８－１,,13,102,1030025,,,,,,,2024-02-22,1,,,,,オプトキカイ,0
258,2010003043010,新規,0,2024-02-22,2024-02-22,合同会社シェアードオフィサ,,合同会社,東京都,千代田区,九段南１丁目５番６号りそな九段ビル５階ＫＳフロア,,13,101,1020074,,,,,,,2024-02-22,1,,,,,シェアードオフィサ,0
259,2010003043019,新規,0,2024-02-22,2024-02-22,麹町リース４合同会社,,合同会社,東京都,千代田区,麹町１丁目４番地半蔵門ファーストビル５階株式会社ファンドクリエーション内,,13,101,1020083,,,,,,,2024-02-22,1,,,,,コウジマチリースヨン,0
269,2010401180495,新規,0,2024-02-22,2024-02-22,株式会社エンセルテックバイオＪａｐａｎ,,株式会社,東京都,港区,南青山５丁目６番２４号Ｂａｒｂｉｚｏｎ２３－２階,,13,103,1070062,,,,,,,2024-02-22,1,,,,,エンセルテックバイオジャパン,0
270,2010401180561,新規,0,2024-02-22,2024-02-22,株式会社ＬＥＭＯＮＡＤＥ,,株式会社,東京都,港区,北青山１丁目３番１１号アールキューブ青山３階,,13,103,1070061,,,,,,,2024-02-22,1,,,,,レモネード,0
273,2010403032034,新規,0,2024-02-22,2024-02-22,合同会社エスアイファン,,合同会社,東京都,港区,南青山３丁目１番３６号青山丸竹ビル６Ｆ,,13,103,1070062,,,,,,,2024-02-22,1,,,,,エスアイファン,0
277,2010501051803,新規,0,2024-02-22,2024-02-22,東京貴陶貿易株式会社,,株式会社,東京都,台東区,浅草４丁目２１－４,,13,106,1110032,,,,,,,2024-02-22,1,,,,,トウキョウキトウボウエキ,0
279,2010503007349,新規,0,2024-02-22,2024-02-22,大塚合同会社,00133815,合同会社,東京都,台東区,鳥越１丁目３０番８－１４０２号クレヴィア新御徒町,,13,106,1110054,,,,,,,2024-02-22,1,,,,,オオツカ,0
280,2010601064705,新規,0,2024-02-22,2024-02-22,Ａ．Ｉ．Ｉ株式会社,,株式会社,東京都,江東区,豊洲６丁目２番３１－２２１９号,,13,108,1350061,,,,,,,2024-02-22,1,,,,,エイアイアイ,0
282,2010701045596,新規,0,2024-02-22,2024-02-22,株式会社ヒルクレスト,,株式会社,東京都,品川区,東五反田５丁目６番１１－１０４号,,13,109,1410022,,,,,,,2024-02-22,1,,,,,ヒルクレスト,0
291,2010903008822,新規,0,2024-02-22,2024-02-22,合同会社ＫＩＳＡ,,合同会社,東京都,世田谷区,北烏山９丁目２８番２号１Ｆ,,13,112,1570061,,,,,,,2024-02-22,1,,,,,キサ,0
297,2011001160078,新規,0,2024-02-22,2024-02-22,メディテック株式会社,,株式会社,東京都,渋谷区,渋谷２丁目１９番１５号宮益坂ビルディング６０９,,13,113,1500002,,,,,,,2024-02-22,1,,,,,メディテック,0
298,2011001160136,新規,0,2024-02-22,2024-02-22,株式会社ＶＯＬＡ,,株式会社,東京都,目黒区,東山２丁目１４－５Ｗｈｉｔｅｈｏｕｓｅ,,13,110,1530043,,,,,,,2024-02-22,1,,,,,ボラ,0
299,2011001160193,新規,0,2024-02-22,2024-02-22,株式会社コーストライフ,,株式会社,東京都,渋谷区,代々木５丁目７番５号,,13,113,1510053,,,,,,,2024-02-22,1,,,,,コーストライフ,0
300,2011001160219,新規,0,2024-02-22,2024-02-22,株式会社渋谷ビール,,株式会社,東京都,渋谷区,桜丘町１番４号,,13,113,1500031,,,,,,,2024-02-22,1,,,,,シブヤビール,0
302,2011003018539,新規,0,2024-02-22,2024-02-22,合同会社Ｓｈｙｕｉｎ,,合同会社,東京都,目黒区,緑が丘１丁目７番２５号セゾンガーデン自由が丘１０３,,13,110,1520034,,,,,,,2024-02-22,1,,,,,シューイン,0
307,2011101106154,新規,0,2024-02-22,2024-02-22,劇門星株式会社,,株式会社,東京都,新宿区,新宿２丁目１５－２５カテリーナ御苑６０２号室,,13,104,1600022,,,,,,,2024-02-22,1,,,,,ゲキモンセイ,0
308,2011101106286,新規,0,2024-02-22,2024-02-22,ＴＫ株式会社,,株式会社,東京都,新宿区,内藤町１番地２,,13,104,1600014,,,,,,,2024-02-22,1,,,,,ティーケー,0
312,2011201025262,新規,0,2024-02-22,2024-02-22,株式会社Ｃｏｈａｃ,,株式会社,東京都,中野区,中野３丁目２８番１８号ウィステリアステージ１－５０４,,13,114,1640001,,,,,,,2024-02-22,1,,,,,コハク,0
315,2011303005063,新規,0,2024-02-22,2024-02-22,キャップロック合同会社,,合同会社,東京都,杉並区,高井戸東３丁目９番１０－１１８号ファミールグラン高井戸デュープレックス,,13,115,1680072,,,,,,,2024-02-22,1,,,,,キャップロック,0
318,2011601027552,新規,0,2024-02-22,2024-02-22,株式会社ＭＡＳＡＲＵ,,株式会社,東京都,練馬区,光が丘３丁目８番９号３０２室,,13,120,1790072,,,,,,,2024-02-22,1,,,,,マサル,0
322,2011602024796,新規,0,2024-02-22,2024-02-22,有限会社飯島運送店,,有限会社,東京都,練馬区,練馬１丁目２番５号,,13,120,1760001,,,,,,,2024-02-22,1,,,,,イイジマウンソウテン,0
326,2011603004252,新規,0,2024-02-22,2024-02-22,合同会社おふく舎,,合同会社,東京都,練馬区,貫井４丁目１４番２５号Ｂ１,,13,120,1760021,,,,,,,2024-02-22,1,,,,,オフクシャ,0
334,2012401041537,新規,0,2024-02-22,2024-02-22,株式会社アリア,,株式会社,東京都,府中市,白糸台３丁目１番地の１,,13,206,1830011,,,,,,,2024-02-22,1,,,,,アリア,0
335,2012401041561,新規,0,2024-02-22,2024-02-22,株式会社ＢＯＴＴＯ,,株式会社,東京都,調布市,緑ケ丘２丁目６０－８三和ビルＡ棟１階,,13,208,1820001,,,,,,,2024-02-22,1,,,,,ボットー,0
337,2013101009353,新規,0,2024-02-22,2024-02-22,株式会社ピーアンドエー,,株式会社,東京都,青梅市,新町７丁目６３番地の６エルベール新町Ｉ号館３０７,00133831,13,205,1980024,,,,,,,2024-02-22,1,,,,,ピーアンドエー,0
341,2013301052120,新規,0,2024-02-22,2024-02-22,ＵＩＮ　Ａｒｔ　Ｔｒａｖｅｌ　Ｓｈｏｅｓ　Ｊａｐａｎ株式会社,,株式会社,東京都,豊島区,池袋２丁目３７番１０－４０２号,,13,116,1710014,,,,,,,2024-02-22,1,,,,,ユインアートトラベルシューズジャパン,0
342,2013303007015,新規,0,2024-02-22,2024-02-22,合同会社秀舟,,合同会社,東京都,豊島区,千早４丁目３５番４号,,13,116,1710044,,,,,,,2024-02-22,1,,,,,シュウセン,0
343,2013305003573,新規,0,2024-02-22,2024-02-22,特定非営利活動法人Ｈｕｇｅ　Ｃｏｍｍａ　Ｄｅｓｉｇｎ,,その他の設立登記法人,東京都,豊島区,南池袋２丁目４７番７－４０４号,,13,116,1710022,,,,,,,2024-02-22,1,,,,,フュージカンマデザイン,0
349,2020001155896,新規,0,2024-02-22,2024-02-22,株式会社ＣＯＬ　ＪＡＰＡＮ,,株式会社,神奈川県,横浜市西区,みなとみらい３丁目７番１号８Ｆ,,14,103,2200012,,,,,,,2024-02-22,1,,,,,シーオーエルジャパン,0
350,2020001155905,新規,0,2024-02-22,2024-02-22,株式会社ＬＡＮＴＥＲＮ,,株式会社,神奈川県,横浜市鶴見区,元宮１丁目７－７－４０３,,14,101,2300004,,,,,,,2024-02-22,1,,,,,ランターン,0
354,2020003025593,新規,0,2024-02-22,2024-02-22,合同会社ファイナンシャルフリーダム,,合同会社,神奈川県,横浜市中区,相生町４丁目６４関内馬車道ｃｏｒｋビル,,14,104,2310012,,,,,,,2024-02-22,1,,,,,ファイナンシャルフリーダム,0
359,2021001081513,新規,0,2024-02-22,2024-02-22,株式会社司,,株式会社,神奈川県,平塚市,八千代町１２－３,,14,203,2540032,,,,,,,2024-02-22,1,,,,,ツカサ,0
360,2021001081538,新規,0,2024-02-22,2024-02-22,株式会社Ｖｉｔａ　Ｒｉｃｃａ,,株式会社,神奈川県,大和市,下鶴間７０８番地５０,,14,213,2420001,,,,,,,2024-02-22,1,,,,,ヴィータリッカ,0
366,2030001158790,新規,0,2024-02-22,2024-02-22,株式会社トライアタック,,株式会社,埼玉県,朝霞市,泉水２丁目７番９号３０３,,11,227,3510024,,,,,,,2024-02-22,1,,,,,トライアタック,0
367,2030001158824,新規,0,2024-02-22,2024-02-22,株式会社ＳＨＯＫＡ,,株式会社,埼玉県,川越市,南大塚４丁目２番地５,,11,201,3501162,,,,,,,2024-02-22,1,,,,,ショウカ,0
372,2030003023662,新規,0,2024-02-22,2024-02-22,合同会社クロ,,合同会社,埼玉県,朝霞市,溝沼４丁目６番１７号アンシェルＦ,,11,227,3510023,,,,,,,2024-02-22,1,,,,,クロ,0
380,2040001132316,新規,0,2024-02-22,2024-02-22,株式会社ＯＵＧＩレンタル,,株式会社,千葉県,八街市,大木６４１番地４７,,12,230,2891111,,,,,,,2024-02-22,1,,,,,オウギレンタル,0
381,2040001132324,新規,0,2024-02-22,2024-02-22,株式会社日進エステート,,株式会社,千葉県,千葉市中央区,鶴沢町２０番１６号,,12,101,2600003,,,,,,,2024-02-22,1,,,,,ニッシンエステート,0
387,2050001054328,新規,0,2024-02-22,2024-02-22,株式会社ミナミル,,株式会社,茨城県,守谷市,薬師台６丁目９番地３,,08,224,3020105,,,,,,,2024-02-22,1,,,,,,0
388,2050001054344,新規,0,2024-02-22,2024-02-22,株式会社ＵＳ・ＭＯＴＯＲ,,株式会社,茨城県,取手市,宮和田６０８番地１６,,08,217,3001514,,,,,,,2024-02-22,1,,,,,ユーエスモーター,0
393,2050003008158,新規,0,2024-02-22,2024-02-22,合同会社ＳＯＬ　ｍｅｒｃｕｒｙ,,合同会社,茨城県,取手市,白山６丁目４番４号,,08,217,3020023,,,,,,,2024-02-22,1,,,,,ソルマーキュリー,0
396,2080103002990,新規,0,2024-02-22,2024-02-22,アライブ合同会社,,合同会社,静岡県,富士市,伝法２４０１番地の２エンゼルハイム伝法５０１号,,22,210,4170061,,,,,,,2024-02-22,1,,,,,アライブ,0
397,2080401027013,新規,0,2024-02-22,2024-02-22,株式会社広栄荷役,,株式会社,静岡県,浜松市浜名区,三ヶ日町都筑９００番地の２,,22,139,4311402,,,,,,,2024-02-22,1,,,,,コウエイニヤク,0
398,2080401027021,新規,0,2024-02-22,2024-02-22,ＩＫＩＭＯＮ株式会社,,株式会社,静岡県,浜松市中央区,若林町２５８４番地の６リューレント１０３,,22,138,4328051,,,,,,,2024-02-22,1,,,,,イキモン,0
402,2110001038200,新規,0,2024-02-22,2024-02-22,Ｈｕｍａｎ　Ｆｉｒｓｔ株式会社,,株式会社,新潟県,新潟市中央区,天神１丁目１番地,,15,103,9500917,,,,,,,2024-02-22,1,,,,,ヒューマンファースト,0
413,2120001262484,新規,0,2024-02-22,2024-02-22,株式会社プラスト,,株式会社,大阪府,大阪市淀川区,西中島３丁目１２番１５号５０１,,27,123,5320011,,,,,,,2024-02-22,1,,,,,プラスト,0
414,2120001262526,新規,0,2024-02-22,2024-02-22,株式会社サンフラワー,,株式会社,大阪府,大阪市福島区,吉野１丁目２１番１４号,,27,103,5530006,,,,,,,2024-02-22,1,,,,,サンフラワー,0
415,2120001262567,新規,0,2024-02-22,2024-02-22,順安科技株式会社,,株式会社,大阪府,大阪市淀川区,木川西１丁目６番２７号５階５０５Ａ,,27,123,5320013,,,,,,,2024-02-22,1,,,,,ジュンアンカギ,0
416,2120001262583,新規,0,2024-02-22,2024-02-22,ＴＫ株式会社,,株式会社,大阪府,大阪市浪速区,恵美須西２丁目９－３ラパンジール恵美須ＩＩＩ９０５号室,00133817,27,111,5560003,,,,,,,2024-02-22,1,,,,,ティーケイ,0
421,2120101069094,新規,0,2024-02-22,2024-02-22,ＮＭＨカンパニー株式会社,,株式会社,大阪府,堺市東区,草尾３１２番地１４,,27,143,5998127,,,,,,,2024-02-22,1,,,,,エヌエムエイチカンパニー,0
424,2120901048792,新規,0,2024-02-22,2024-02-22,株式会社ＬＩＦＡＣＴ,,株式会社,大阪府,池田市,住吉２丁目１１－２２,,27,204,5630033,,,,,,,2024-02-22,1,,,,,リファクト,0
430,2122003002802,新規,0,2024-02-22,2024-02-22,平宏貿易合同会社,,合同会社,大阪府,八尾市,曙町３丁目２０７番,,27,212,5810026,,,,,,,2024-02-22,1,,,,,ヒラヒロボウエキ,0
436,2130001076396,新規,0,2024-02-22,2024-02-22,暮念熙株式会社,,株式会社,京都府,京都市下京区,河原町通四条下る順風町３１１番地エスリード四条河原町１２０８号,,26,106,6008021,,,,,,,2024-02-22,1,,,,,ムネンキ,0
438,2130003009313,新規,0,2024-02-22,2024-02-22,オリーブストリート合同会社,,合同会社,京都府,京都市下京区,波止土濃町３６２番地５,,26,106,6008113,,,,,,,2024-02-22,1,,,,,オリーブストリート,0
439,2130005017009,新規,0,2024-02-22,2024-02-22,一般社団法人子どもアドボカシーセンターＫＹＯＴＯ,,その他の設立登記法人,京都府,南丹市,園部町船岡長畑５２－３,,26,213,6220031,,,,,,,2024-02-22,1,,,,,コドモアドボカシーセンターキョウト,0
441,2140001133428,新規,0,2024-02-22,2024-02-22,株式会社Ｔｗｅｎｔｙ,,株式会社,兵庫県,たつの市,誉田町福田２３０番地１,,28,229,6794132,,,,,,,2024-02-22,1,,,,,トゥエンティ,0
444,2150005009557,新規,0,2024-02-22,2024-02-22,一般社団法人福祉叶えるセンター,,その他の設立登記法人,奈良県,生駒郡斑鳩町,阿波１丁目２番２７号,,29,344,6360122,,,,,,,2024-02-22,1,,,,,フクシカナエルセンター,0
458,2180001160212,新規,0,2024-02-22,2024-02-22,株式会社まるま,,株式会社,愛知県,名古屋市中村区,名駅５丁目４番１４号,,23,105,4500002,,,,,,,2024-02-22,1,,,,,マルマ,0
459,2180001160261,新規,0,2024-02-22,2024-02-22,株式会社川崎技術研究所,,株式会社,愛知県,名古屋市西区,名駅２丁目３４番１７号,,23,104,4510045,,,,,,,2024-02-22,1,,,,,カワサキギジュツケンキュウショ,0
460,2180001160286,新規,0,2024-02-22,2024-02-22,株式会社ドッド,,株式会社,愛知県,名古屋市南区,大堀町３番７号,,23,112,4570002,,,,,,,2024-02-22,1,,,,,ドッド,0
465,2180003026361,新規,0,2024-02-22,2024-02-22,合同会社ＨＡＫＯＢＩＴＯ,,合同会社,愛知県,津島市,東中地町２丁目４１－３,,23,208,4960846,,,,,,,2024-02-22,1,,,,,ハコビト,0
466,2180003026386,新規,0,2024-02-22,2024-02-22,合同会社ＫＡＮＡＥ,,合同会社,愛知県,瀬戸市,東古瀬戸町７１番地の２親和荘２－５,,23,204,4890037,,,,,,,2024-02-22,1,,,,,カナエ,0
469,2180301038348,新規,0,2024-02-22,2024-02-22,株式会社Ｇｌｏｗ　Ｕｐ,,株式会社,愛知県,豊橋市,石巻本町字重行２２番地３,,23,201,4411115,,,,,,,2024-02-22,1,,,,,グローアップ,0
473,2200001042192,新規,0,2024-02-22,2024-02-22,株式会社宝商事,,株式会社,岐阜県,岐阜市,加納水野町１丁目３３番地,,21,201,5008477,,,,,,,2024-02-22,1,,,,,タカラショウジ,0
488,2290001104769,新規,0,2024-02-22,2024-02-22,株式会社ランゲージコネクションズ,,株式会社,福岡県,福岡市博多区,春町１丁目６番１４号,,40,132,8120872,,,,,,,2024-02-22,1,,,,,ランゲージコネクションズ,0
489,2290001104777,新規,0,2024-02-22,2024-02-22,株式会社きい,,株式会社,福岡県,福岡市中央区,天神２丁目２番１２号Ｔ＆Ｊビルディング７Ｆ,,40,133,8100001,,,,,,,2024-02-22,1,,,,,キイ,0
490,2290001104785,新規,0,2024-02-22,2024-02-22,株式会社ライフエイド,,株式会社,福岡県,福岡市中央区,六本松３丁目１－５８リード桜坂,,40,133,8100044,,,,,,,2024-02-22,1,,,,,ライフエイド,0
491,2290001104793,新規,0,2024-02-22,2024-02-22,株式会社福岡インター不動産,,株式会社,福岡県,糟屋郡粕屋町,花ヶ浦２丁目１１番１８号,,40,349,8112310,,,,,,,2024-02-22,1,,,,,フクオカインターフドウサン,0
492,2290001104802,新規,0,2024-02-22,2024-02-22,株式会社山田技建,,株式会社,福岡県,福岡市博多区,東那珂２丁目１０番２５－７０７号,00133819,40,132,8120892,,,,,,,2024-02-22,1,,,,,ヤマダギケン,0
493,2290001104810,新規,0,2024-02-22,2024-02-22,株式会社バディ・ネオ,,株式会社,福岡県,福岡市博多区,東那珂３丁目６番１６号,00133820,40,132,8120892,,,,,,,2024-02-22,1,,,,,バディネオ,0
494,2290003014999,新規,0,2024-02-22,2024-02-22,Ｒｅｂｅｃｃａ合同会社,,合同会社,福岡県,福岡市中央区,警固１丁目５番１号ＳＫビル１０１,,40,133,8100023,,,,,,,2024-02-22,1,,,,,レベッカ,0
497,2320001020310,新規,0,2024-02-22,2024-02-22,株式会社ラグレス,,株式会社,大分県,大分市,政所１丁目２番１０号ＰＲＩＮＣＥＩＩＥ,00133826,44,201,8700268,,,,,,,2024-02-22,1,,,,,ラグレス,0
498,2330003010226,新規,0,2024-02-22,2024-02-22,合同会社アビリード,,合同会社,熊本県,熊本市北区,龍田７丁目２０番１３号クイーンズシャトレー１０３号室,,43,105,8618006,,,,,,,2024-02-22,1,,,,,アビリード,0
504,2380003005691,新規,0,2024-02-22,2024-02-22,合同会社すまいる,,合同会社,福島県,郡山市,安積３丁目１６５,,07,203,9630107,,,,,,,2024-02-22,1,,,,,スマイル,0
505,2400001016564,新規,0,2024-02-22,2024-02-22,Ｃｕｂｅ　Ｄ，Ｄ株式会社,,株式会社,岩手県,北上市,相去町上大谷地３３番地１１,,03,206,0240051,,,,,,,2024-02-22,1,,,,,キューブディーディー,0
518,2700150124146,新規,0,2024-02-22,2024-02-22,ＭＩＪ　ＢＧ２　Ｌｉｍｉｔｅｄ　Ｐａｒｔｎｅｒｓｈｉｐ,,外国会社等,東京都,港区,赤坂１丁目１１番２８号,,13,103,1070052,Ｗａｌｋｅｒｓ　Ｃｏｒｐｏｒａｔｅ　Ｌｉｍｉｔｅｄ，１９０　Ｅｌｇｉｎ　Ａｖｅｎｕｅ，Ｇｅｏｒｇｅ　Ｔｏｗｎ，Ｇｒａｎｄ　Ｃａｙｍａｎ　ＫＹ１－９００８，ＣａｙｍａｎＩｓｌａｎｄｓ,,,,,,2024-02-22,1,,,,,エムアイジエイビージーツーリミテツドパートナーシツプ,0
526,3010001242463,新規,0,2024-02-22,2024-02-22,株式会社ココナッツエンターテインメント,,株式会社,東京都,文京区,本駒込２丁目２６番１０号中嶋ビル１０２,,13,105,1130021,,,,,,,2024-02-22,1,,,,,ココナッツエンターテインメント,0
527,3010001242505,新規,0,2024-02-22,2024-02-22,株式会社いずみ,,株式会社,東京都,中央区,新富２丁目５－１０新富ビル６Ｆ,,13,102,1040041,,,,,,,2024-02-22,1,,,,,イズミ,0
528,3010003043018,新規,0,2024-02-22,2024-02-22,麹町リース５合同会社,,合同会社,東京都,千代田区,麹町１丁目４番地半蔵門ファーストビル５階株式会社ファンドクリエーション内,,13,101,1020083,,,,,,,2024-02-22,1,,,,,コウジマチリースゴ,0
529,3010003043026,新規,0,2024-02-22,2024-02-22,合同会社三久プロパティーズ,,合同会社,東京都,千代田区,丸の内３丁目１番１号東京共同会計事務所内,,13,101,1000005,,,,,,,2024-02-22,1,,,,,サンキュウプロパティーズ,0
538,3010401180032,新規,0,2024-02-22,2024-02-22,ターンクラウドジャパン株式会社,,株式会社,東京都,港区,浜松町２丁目４番１号世界貿易センタービルディング南１７階,,13,103,1050013,,,,,,,2024-02-22,1,,,,,ターンクラウドジャパン,0
539,3010401180511,新規,0,2024-02-22,2024-02-22,株式会社タイラ企画,,株式会社,東京都,港区,高輪３丁目１番１７,,13,103,1080074,,,,,,,2024-02-22,1,,,,,,0
540,3010401180577,新規,0,2024-02-22,2024-02-22,ＦＬＡＷＬＥＳＳ株式会社,,株式会社,東京都,港区,赤坂６丁目６－１９メゾンドヴィレ赤坂１ＦＡ号室,,13,103,1070052,,,,,,,2024-02-22,1,,,,,フローレス,0
541,3010403031976,新規,0,2024-02-22,2024-02-22,合同会社ＧＬｙ　Ｊａｐａｎ,,合同会社,東京都,港区,虎ノ門２丁目９番１号虎ノ門ヒルズ江戸見坂テラス１０階,,13,103,1050001,,,,,,,2024-02-22,1,,,,,ジーエルワイジャパン,0
543,3010503007348,新規,0,2024-02-22,2024-02-22,合同会社ＲＥＪＩＹＵ,,合同会社,東京都,台東区,駒形２丁目５番８号,,13,106,1110043,,,,,,,2024-02-22,1,,,,,リジユー,0
549,3010701045587,新規,0,2024-02-22,2024-02-22,株式会社Ｋｉｎｉｒｉ,,株式会社,東京都,品川区,小山２丁目６－１７－２０２,,13,109,1420062,,,,,,,2024-02-22,1,,,,,キニリ,0
553,3010901054751,新規,0,2024-02-22,2024-02-22,株式会社Ａｕｔｕｍｎ　Ｗｉｎｄ,,株式会社,東京都,世田谷区,三軒茶屋１丁目３２番１７号ＦＡＣＥ三軒茶屋Ｂ１,,13,112,1540024,,,,,,,2024-02-22,1,,,,,オータムウインド,0
554,3010901054768,新規,0,2024-02-22,2024-02-22,株式会社ＭＤＳＴ　ＰＲＯＤＵＣＴＩＯＮＳ,,株式会社,東京都,世田谷区,三宿１丁目２９－１ルラックサンアイ４０１,,13,112,1540005,,,,,,,2024-02-22,1,,,,,エムディーエスティープロダクションズ,0
556,3010903008846,新規,0,2024-02-22,2024-02-22,合同会社イリマ,,合同会社,東京都,世田谷区,深沢２丁目１番１３号,,13,112,1580081,,,,,,,2024-02-22,1,,,,,イリマ,0
570,3011001160184,新規,0,2024-02-22,2024-02-22,ｓｆｊ株式会社,,株式会社,東京都,目黒区,目黒１丁目４番１６号目黒Ｇビル５階,,13,110,1530063,,,,,,,2024-02-22,1,,,,,エスエフジェイ,0
571,3011001160192,新規,0,2024-02-22,2024-02-22,ＲＦホールディングス株式会社,,株式会社,東京都,渋谷区,道玄坂２丁目２０番２６－２０６号,,13,113,1500043,,,,,,,2024-02-22,1,,,,,アールエフホールディングス,0
572,3011001160201,新規,0,2024-02-22,2024-02-22,ウーヴンメイド株式会社,,株式会社,東京都,渋谷区,神宮前３丁目２７番１５号ＦＬＡＧ３Ｍ,,13,113,1500001,,,,,,,2024-02-22,1,,,,,ウーヴンメイド,0
574,3011003018538,新規,0,2024-02-22,2024-02-22,合同会社Ｎｏａ,,合同会社,東京都,渋谷区,恵比寿西２丁目４番８号ウィンド恵比寿ビル８Ｆ,,13,113,1500021,,,,,,,2024-02-22,1,,,,,ノア,0
575,3011005010377,新規,0,2024-02-22,2024-02-22,一般社団法人ＣＲＥＡＴＩＶＥ　ＳＨＥＲＰＡ匠の森,,その他の設立登記法人,東京都,渋谷区,道玄坂１丁目１０番８号渋谷道玄坂東急ビル２Ｆ－Ｃ,,13,113,1500043,,,,,,,2024-02-22,1,,,,,クリエイティブシェルパタクミノモリ,0
581,3011103014098,新規,0,2024-02-22,2024-02-22,合同会社橋渡し,,合同会社,東京都,新宿区,西新宿３丁目３番１３号西新宿水間ビル２Ｆ,,13,104,1600023,,,,,,,2024-02-22,1,,,,,ハシワタシ,0
585,3011301029427,新規,0,2024-02-22,2024-02-22,中集国際貿易株式会社,,株式会社,東京都,杉並区,成田西２丁目１番１１号Ｃ号棟,,13,115,1660016,,,,,,,2024-02-22,1,,,,,チュウシュウコクサイボウエキ,0
592,3011501030358,新規,0,2024-02-22,2024-02-22,東旦株式会社,,株式会社,東京都,荒川区,荒川６丁目４番９－５０４号,,13,118,1160002,,,,,,,2024-02-22,1,,,,,トウタン,0
593,3011503005969,新規,0,2024-02-22,2024-02-22,合同会社Ｓｐｒｉｎｇ　Ｂｅａｒ,,合同会社,東京都,北区,志茂２丁目４８－１４後上店舗２号室,,13,117,1150042,,,,,,,2024-02-22,1,,,,,スプリングベアー,0
596,3011803006106,新規,0,2024-02-22,2024-02-22,合同会社マツオ,,合同会社,東京都,葛飾区,東堀切３丁目２３番６号シントミプラザ綾瀬２０３号室,,13,122,1240004,,,,,,,2024-02-22,1,,,,,マツオ,0
599,3012803003324,新規,0,2024-02-22,2024-02-22,合同会社ＧＯＬＤＥＮ　ＦＯＲＥＳＴ,,合同会社,東京都,昭島市,つつじが丘３丁目５番地,,13,207,1960012,,,,,,,2024-02-22,1,,,,,ゴールデンフォレスト,0
602,3013303007006,新規,0,2024-02-22,2024-02-22,合同会社Ｈａｒｂｉｒｄ,,合同会社,東京都,豊島区,池袋１丁目１２－１４リアレスト池袋１０４,,13,116,1700014,,,,,,,2024-02-22,1,,,,,ハーバード,0
607,3020001155912,新規,0,2024-02-22,2024-02-22,株式会社Ｌａｎｄｅｌ,,株式会社,神奈川県,川崎市中原区,新丸子東３丁目１２０４－１９０１,,14,133,2110004,,,,,,,2024-02-22,1,,,,,ランデル,0
613,3021001081529,新規,0,2024-02-22,2024-02-22,株式会社大矢商事,,株式会社,神奈川県,座間市,栗原中央３丁目３１番３２号,,14,216,2520014,,,,,,,2024-02-22,1,,,,,オオヤショウジ,0
618,3030001158583,新規,0,2024-02-22,2024-02-22,株式会社ＪＳ,,株式会社,埼玉県,上尾市,柏座２丁目６－２５－１０１,,11,219,3620075,,,,,,,2024-02-22,1,,,,,ジェイエス,0
619,3030001158757,新規,0,2024-02-22,2024-02-22,日新テック株式会社,,株式会社,埼玉県,深谷市,常盤町５４－２９,,11,218,3660034,,,,,,,2024-02-22,1,,,,,ニッシンテック,0
620,3030001158823,新規,0,2024-02-22,2024-02-22,株式会社たけしコーポレーション,,株式会社,埼玉県,草加市,松原２丁目４番１７－８１０号,,11,221,3400041,,,,,,,2024-02-22,1,,,,,タケシコーポレーション,0
629,3030003023686,新規,0,2024-02-22,2024-02-22,合同会社ＡｉＯ,,合同会社,埼玉県,川口市,本蓮１丁目２番１７号,00133829,11,203,3340076,,,,,,,2024-02-22,1,,,,,エーアイオー,0
638,3040005022297,新規,0,2024-02-22,2024-02-22,一般社団法人アールイーエル,,その他の設立登記法人,千葉県,船橋市,前貝塚町１００８番地７,,12,204,2730042,,,,,,,2024-02-22,1,,,,,アールイーエル,0
642,3050003008149,新規,0,2024-02-22,2024-02-22,ＩＨＳＡＮ　ＴＲＡＤＩＮＧ合同会社,,合同会社,茨城県,猿島郡境町,大字大歩３１３番地１ダークブルーＢ１０２号,,08,546,3060415,,,,,,,2024-02-22,1,,,,,イハサントレーディング,0
643,3070001041397,新規,0,2024-02-22,2024-02-22,株式会社ｊ．ｗｈｉｔｅ,,株式会社,群馬県,邑楽郡明和町,下江黒５６０番地１,,10,522,3700703,,,,,,,2024-02-22,1,,,,,ジェイホワイト,0
644,3070001041422,新規,0,2024-02-22,2024-02-22,株式会社Ｌａ・Ｈｉ・Ｎａ,,株式会社,群馬県,前橋市,上新田町１２０７番地９,,10,201,3710821,,,,,,,2024-02-22,1,,,,,ラヒナ,0
646,3070003005284,新規,0,2024-02-22,2024-02-22,ジャパンリサイクルパワー合同会社,,合同会社,群馬県,館林市,赤生田町９５８番地,,10,207,3740013,,,,,,,2024-02-22,1,,,,,ジャパンリサイクルパワー,0
648,3080401027020,新規,0,2024-02-22,2024-02-22,株式会社Ｗｅｌｌｉｆｅ,,株式会社,静岡県,湖西市,鷲津６９４番地の１４フォンターネ２０２,,22,221,4310431,,,,,,,2024-02-22,1,,,,,ウェライフ,0
657,3110001038199,新規,0,2024-02-22,2024-02-22,株式会社ＫＹＭホールディングス,,株式会社,新潟県,新潟市北区,島見町２４３４番地２６,,15,101,9503102,,,,,,,2024-02-22,1,,,,,ケーワイエムホールディングス,0
670,3120001262509,新規,0,2024-02-22,2024-02-22,株式会社ダパン,,株式会社,大阪府,大阪市東住吉区,山坂４丁目１７番３号ミーツ山坂１０１号,,27,121,5460035,,,,,,,2024-02-22,1,,,,,ダパン,0
671,3120001262525,新規,0,2024-02-22,2024-02-22,株式会社ＥＳＳＥＮＣＥ,,株式会社,大阪府,大阪市北区,中津４丁目６番２１－９０４号,,27,127,5310071,,,,,,,2024-02-22,1,,,,,エッセンス,0
672,3120001262558,新規,0,2024-02-22,2024-02-22,山下信株式会社,,株式会社,大阪府,大阪市城東区,東中浜６丁目１０番２３号,,27,118,5360023,,,,,,,2024-02-22,1,,,,,ヤマシタシン,0
673,3120001262590,新規,0,2024-02-22,2024-02-22,ＶＣＰ株式会社,,株式会社,大阪府,寝屋川市,寿町２８番１号,,27,215,5720029,,,,,,,2024-02-22,1,,,,,ヴィシーピー,0
683,3120901048775,新規,0,2024-02-22,2024-02-22,株式会社エコプロ,,株式会社,大阪府,高槻市,奈佐原２丁目７番１－３０１号,,27,207,5691041,,,,,,,2024-02-22,1,,,,,エコプロ,0
684,3120901048791,新規,0,2024-02-22,2024-02-22,株式会社Ｌｉｎｋ,,株式会社,大阪府,吹田市,日の出町１８番１１号,,27,205,5640023,,,,,,,2024-02-22,1,,,,,リンク,0
686,3122001037849,新規,0,2024-02-22,2024-02-22,株式会社伸和フロッキープリント,,株式会社,大阪府,柏原市,大正２丁目２番１７号,,27,221,5820009,,,,,,,2024-02-22,1,,,,,シンワフロッキープリント,0
694,3140001133402,新規,0,2024-02-22,2024-02-22,株式会社しごろく,,株式会社,兵庫県,伊丹市,車塚２丁目１－４０５号,,28,207,6640872,,,,,,,2024-02-22,1,,,,,シゴロク,0
695,3140001133427,新規,0,2024-02-22,2024-02-22,株式会社ＪＵＮ,,株式会社,兵庫県,神戸市中央区,八幡通４丁目１－３７－１２０６,,28,110,6510085,,,,,,,2024-02-22,1,,,,,ジュン,0
696,3140001133435,新規,0,2024-02-22,2024-02-22,株式会社Ｙｕｉ,,株式会社,兵庫県,川西市,花屋敷２丁目４番１５－５０４号,,28,217,6660035,,,,,,,2024-02-22,1,,,,,ユイ,0
710,3180001160203,新規,0,2024-02-22,2024-02-22,株式会社アールペイント,,株式会社,愛知県,一宮市,奥町字加古穂９番地１,,23,203,4910201,,,,,,,2024-02-22,1,,,,,アールペイント,0
711,3180001160211,新規,0,2024-02-22,2024-02-22,ゆめ株式会社,,株式会社,愛知県,愛西市,町方町南堤外１番地１４,,23,232,4968014,,,,,,,2024-02-22,1,,,,,ユメ,0
712,3180001160252,新規,0,2024-02-22,2024-02-22,株式会社ＲＡＶＩＥ,,株式会社,愛知県,半田市,出口町１丁目２１５番地５,,23,205,4750903,,,,,,,2024-02-22,1,,,,,ラヴィエ,0
713,3180001160260,新規,0,2024-02-22,2024-02-22,株式会社アスク,,株式会社,愛知県,名古屋市中区,栄３丁目１４番１５号,,23,106,4600008,,,,,,,2024-02-22,1,,,,,アスク,0
714,3180001160285,新規,0,2024-02-22,2024-02-22,明匯食品株式会社,00133818,株式会社,愛知県,名古屋市中区,松原２丁目２－３３桐美ビル５Ａ号室,,23,106,4600017,,,,,,,2024-02-22,1,,,,,メイカイショクヒン,0
715,3180001160293,新規,0,2024-02-22,2024-02-22,霧島設備株式会社,,株式会社,愛知県,北名古屋市,六ツ師松戸８０番地２,,23,234,4810001,,,,,,,2024-02-22,1,,,,,キリシマセツビ,0
723,3180003026360,新規,0,2024-02-22,2024-02-22,合同会社ＪＡＤＥ,,合同会社,愛知県,名古屋市千種区,宮根台２丁目８番２２号－１,,23,101,4640008,,,,,,,2024-02-22,1,,,,,ジェイド,0
724,3180003026377,新規,0,2024-02-22,2024-02-22,ゆふえふ合同会社,,合同会社,愛知県,名古屋市中村区,名駅５丁目８番３号,,23,105,4500002,,,,,,,2024-02-22,1,,,,,ユフエフ,0
725,3180005020527,新規,0,2024-02-22,2024-02-22,特定非営利活動法人ランプ,,その他の設立登記法人,愛知県,名古屋市中村区,名駅南３丁目３番２４号,,23,105,4500003,,,,,,,2024-02-22,1,,,,,ランプ,0
728,3180301038347,新規,0,2024-02-22,2024-02-22,株式会社ＬＩＢ,,株式会社,愛知県,豊川市,下長山町中屋敷８５番地１,,23,207,4420824,,,,,,,2024-02-22,1,,,,,リブ,0
729,3190001031130,新規,0,2024-02-22,2024-02-22,ＳＨＪ株式会社,,株式会社,三重県,四日市市,午起１丁目６番１２号,,24,202,5100023,,,,,,,2024-02-22,1,,,,,エスエイチジェイ,0
733,3200001042183,新規,0,2024-02-22,2024-02-22,株式会社ＴＵＫＵＲＩＴＥ,,株式会社,岐阜県,岐阜市,岩地２丁目２番地５,,21,201,5008225,,,,,,,2024-02-22,1,,,,,ツクリテ,0
734,3210005010136,新規,0,2024-02-22,2024-02-22,一般社団法人クリエイティブＡＳＵＷＡ,,その他の設立登記法人,福井県,福井市,生部町第９号８番地,,18,201,9190314,,,,,,,2024-02-22,1,,,,,クリエイティブアスワ,0
737,3220001025830,新規,0,2024-02-22,2024-02-22,株式会社Ｂｅｔｔｓ,,株式会社,石川県,白山市,横江町５２６６番地,,17,210,9240011,,,,,,,2024-02-22,1,,,,,ベッツ,0
745,3290001104702,新規,0,2024-02-22,2024-02-22,株式会社クラックス,,株式会社,福岡県,福岡市博多区,東比恵３丁目１－２,,40,132,8120007,,,,,,,2024-02-22,1,,,,,クラックス,0
746,3290003014998,新規,0,2024-02-22,2024-02-22,合同会社あさいろ,,合同会社,福岡県,八女市,馬場４８８番地１０,,40,210,8340023,,,,,,,2024-02-22,1,,,,,アサイロ,0
747,3300001013604,新規,0,2024-02-22,2024-02-22,ＳＫ株式会社,,株式会社,佐賀県,佐賀市,大財３丁目１番１２号,,41,201,8400811,,,,,,,2024-02-22,1,,,,,エスケー,0
753,3310003004732,新規,0,2024-02-22,2024-02-22,ＰＡＵＤＥＬ　ＧＲＯＵＰ合同会社,,合同会社,長崎県,諫早市,高来町溝口１４５ー２,,42,204,8590144,,,,,,,2024-02-22,1,,,,,パウデルグループ,0
755,3330001031776,新規,0,2024-02-22,2024-02-22,株式会社ルナエトワール,,株式会社,熊本県,熊本市北区,高平１丁目１番１２－１号,,43,105,8600085,,,,,,,2024-02-22,1,,,,,ルナエトワール,0
763,3360001033225,新規,0,2024-02-22,2024-02-22,南の国ファーム株式会社,,株式会社,沖縄県,国頭郡東村,字有銘１１１５－３２－８,,47,303,9051206,,,,,,,2024-02-22,1,,,,,ミナミノクニファーム,0
764,3370003006491,新規,0,2024-02-22,2024-02-22,合同会社Ｈａｎｅｋｏ,,合同会社,宮城県,仙台市太白区,富沢西１丁目２番地の１５,,04,104,9820037,,,,,,,2024-02-22,1,,,,,ハネコ,0
774,3430005014899,新規,0,2024-02-22,2024-02-22,一般社団法人国際和装・美容普及協会,,その他の設立登記法人,北海道,札幌市中央区,南一条西２５丁目２番１８号,,01,101,0640801,,,,,,,2024-02-22,1,,,,,コクサイワソウビヨウフキュウキョウカイ,0
776,3460305002007,新規,0,2024-02-22,2024-02-22,一般社団法人日本総合能力支援協会,,その他の設立登記法人,北海道,北見市,寿町１丁目１番５号,,01,208,0900065,,,,,,,2024-02-22,1,,,,,ニホンソウゴウノウリョクシエンキョウカイ,0
778,3470003002588,新規,0,2024-02-22,2024-02-22,合同会社つつみ,,合同会社,香川県,高松市,高松町２５８番地１１,,37,201,7610104,,,,,,,2024-02-22,1,,,,,ツツミ,0
781,3700150123403,新規,0,2024-02-22,2024-02-22,ｈａｎｇ　ｚｈｏｕ　ｄｅ　ｙｕ　ｓｈａｎｇ　ｍａｏ　ｙｏｕ　ｘｉａｎ　ｇｏｎｇ　ｓｉ,,外国会社等,,,,,,,,Ｒｏｏｍ　３５５８９，３ｒｄ　ｆｌｏｏｒ，Ｎｏ．１０４０　Ｙｕｅｍｉｎｇ　Ｒｏａｄ，Ｃｈａｎｇｈｅ　Ｓｔｒｅｅｔ　ｈａｎｇｚｈｏｕ　ｚｈｅｊｉａｎｇ　３１００５１　ＣＮ,,,,,,2024-02-22,1,,,,,ハーンジヨウドーアユイシヤーンマオヨウシエンゴーンスー,0
782,3700150123568,新規,0,2024-02-22,2024-02-22,Ｐｉｃｏ　Ｉｍｍｅｒｓｉｖｅ　Ｐｔｅ．Ｌｔｄ．,,外国会社等,,,,,,,,１　Ｒａｆｆｌｅｓ　Ｑｕａｙ，＃２６－１０，Ｓｏｕｔｈ　Ｔｏｗｅｒ，Ｓｉｎｇａｐｏｒｅ　０４８５８３,,,,,,2024-02-22,1,,,,,ピコイマーシブプライベートリミテツド,0
783,3700150123584,新規,0,2024-02-22,2024-02-22,Ｎｉｎｇｂｏｔｕｏｌｉｋｅｊｉｙｏｕｘｉａｎｇｏｎｇｓｉ,,外国会社等,,,,,,,,Ｒｏｏｍ　９０３－１３，Ｎｏ．７５７，Ｒｉｌｉ　Ｍｉｄｄｌｅ　Ｒｏａｄ，Ｓｈｏｕｎａｎ　Ｓｔｒｅｅｔ，Ｙｉｎｚｈｏｕ　Ｄｉｓｔｒｉｃｔ，Ｎｉｎｇｂｏ，Ｚｈｅｊｉａｎｇ,,,,,,2024-02-22,1,,,,,ニンボートウオリーコージーヨウシエンゴンスー,0
784,3700150124145,新規,0,2024-02-22,2024-02-22,ＮＥＷ　ＷＯＲＬＤ　ＶＩＳＩＯＮ　ＬＴＤ,,外国会社等,,,,,,,,９Ｆ（２）ＭＡＩＮ　ＯＦＦＩＣＥ　ＴＯＷＥＲ　ＦＩＮＡＮＣＩＡＬ　ＰＡＲＫ　ＬＡＢＵＡＮ，ＪＡＬＡＮ　ＭＡＬＡＹＳＩＡ,,,,,,2024-02-22,1,,,,,ニユーワールドヴイジヨン,0
788,4010001241811,新規,0,2024-02-22,2024-02-22,ＴＨＣａｐｉｔａｌ株式会社,,株式会社,東京都,千代田区,麹町３丁目５番２号ビュレックス麹町７１１号室,,13,101,1020083,,,,,,,2024-02-22,1,,,,,ティーエイチキャピタル,0
789,4010001242470,新規,0,2024-02-22,2024-02-22,株式会社Ｈ２スマートテックジャパン,,株式会社,東京都,中央区,日本橋１丁目１３番１号,,13,102,1030027,,,,,,,2024-02-22,1,,,,,エイチツースマートテックジャパン,0
790,4010001242504,新規,0,2024-02-22,2024-02-22,レッツ・カンパイ株式会社,,株式会社,東京都,文京区,関口１丁目２８－１２,,13,105,1120014,,,,,,,2024-02-22,1,,,,,レッツカンパイ,0
791,4010001242537,新規,0,2024-02-22,2024-02-22,Ｈｅｓｕｎｇ　Ｉｎｎｏｖａｔｉｏｎ株式会社,,株式会社,東京都,中央区,日本橋本町３丁目３－６ワカ末ビル７階,,13,102,1030023,,,,,,,2024-02-22,1,,,,,ヒサンイノベーション,0
792,4010003043000,新規,0,2024-02-22,2024-02-22,Ｓｈｅ　ｋｎｏｗｓ合同会社,,合同会社,東京都,中央区,日本橋室町１丁目１１番１２号日本橋水野ビル７階,,13,102,1030022,,,,,,,2024-02-22,1,,,,,シーノゥズ,0
793,4010003043017,新規,0,2024-02-22,2024-02-22,麹町リース６合同会社,,合同会社,東京都,千代田区,麹町１丁目４番地半蔵門ファーストビル５階株式会社ファンドクリエーション内,,13,101,1020083,,,,,,,2024-02-22,1,,,,,コウジマチリースロク,0
796,4010005037925,新規,0,2024-02-22,2024-02-22,一般社団法人ＭＲＰＯ,,その他の設立登記法人,東京都,千代田区,内神田１丁目３番７号４０１あすな会計事務所内,,13,101,1010047,,,,,,,2024-02-22,1,,,,,エムアールピーオー,0
797,4010005037933,新規,0,2024-02-22,2024-02-22,一般社団法人三久プロパティーズ,,その他の設立登記法人,東京都,千代田区,丸の内３丁目１番１号東京共同会計事務所内,,13,101,1000005,,,,,,,2024-02-22,1,,,,,サンキュウプロパティーズ,0
805,4010401180568,新規,0,2024-02-22,2024-02-22,株式会社Ｔｈｅ　Ｂｒｉｄｇｅ,,株式会社,東京都,港区,南青山３丁目１番３６号,,13,103,1070062,,,,,,,2024-02-22,1,,,,,ザブリッジ,0
806,4010401180576,新規,0,2024-02-22,2024-02-22,ブランニューアンドカンパニー株式会社,,株式会社,東京都,港区,南青山３丁目１番３６号青山丸竹ビル６Ｆ,,13,103,1070062,,,,,,,2024-02-22,1,,,,,ブランニューアンドカンパニー,0
807,4010401180584,新規,0,2024-02-22,2024-02-22,ＩＦＪ株式会社,,株式会社,東京都,港区,北青山２丁目５番１号,,13,103,1070061,,,,,,,2024-02-22,1,,,,,アイエフジェイ,0
810,4010403032024,新規,0,2024-02-22,2024-02-22,へろーみかん合同会社,,合同会社,東京都,港区,南青山１丁目２０－２乃木坂ビジネスコート１Ｆ・２Ｆ・３Ｆ,,13,103,1070062,,,,,,,2024-02-22,1,,,,,ヘローミカン,0
820,4010701045594,新規,0,2024-02-22,2024-02-22,ｓａｌｕｔｅ株式会社,,株式会社,東京都,品川区,南大井３丁目２０－１１伊藤ビル５０２,,13,109,1400013,,,,,,,2024-02-22,1,,,,,サルート,0
823,4010901054742,新規,0,2024-02-22,2024-02-22,株式会社よつば堂,,株式会社,東京都,世田谷区,代田６丁目２７番３号,,13,112,1550033,,,,,,,2024-02-22,1,,,,,ヨツバドウ,0
835,4011003018529,新規,0,2024-02-22,2024-02-22,合同会社ビッグバン,,合同会社,東京都,渋谷区,西原２丁目１４－８,,13,113,1510066,,,,,,,2024-02-22,1,,,,,ビッグバン,0
836,4011003018545,新規,0,2024-02-22,2024-02-22,東西プロダクション合同会社,,合同会社,東京都,渋谷区,東１丁目２９番３号渋谷ＢｒｉｄｇｅＢ棟,,13,113,1500011,,,,,,,2024-02-22,1,,,,,トウザイプロダクション,0
840,4011101106292,新規,0,2024-02-22,2024-02-22,株式会社フォーラム,,株式会社,東京都,新宿区,歌舞伎町１丁目１８番１０号吉川ビル２階,,13,104,1600021,,,,,,,2024-02-22,1,,,,,フォーラム,0
844,4011103014122,新規,0,2024-02-22,2024-02-22,合同会社エアリーズ,,合同会社,東京都,新宿区,歌舞伎町２丁目３８番１１号スカイラークビル３階Ａ号室,,13,104,1600021,,,,,,,2024-02-22,1,,,,,エアリーズ,0
845,4011201025260,新規,0,2024-02-22,2024-02-22,株式会社プロシード,,株式会社,東京都,中野区,中央５丁目３３番１２－５０７号,,13,114,1640011,,,,,,,2024-02-22,1,,,,,プロシード,0
849,4011401025878,新規,0,2024-02-22,2024-02-22,株式会社ＬＩＢＥＩＬ,,株式会社,東京都,板橋区,中丸町２１－４ルリオンプレズン西池袋３１０,,13,119,1730026,,,,,,,2024-02-22,1,,,,,リベイル,0
850,4011501030357,新規,0,2024-02-22,2024-02-22,埼京通商株式会社,,株式会社,東京都,荒川区,町屋３丁目２番１号Ｂ１Ｆ,,13,118,1160001,,,,,,,2024-02-22,1,,,,,サイキョウツウショウ,0
851,4011505002609,新規,0,2024-02-22,2024-02-22,一般社団法人日本無牧教会宣教会,,その他の設立登記法人,東京都,荒川区,西日暮里２丁目４９－９石橋ビル３階,,13,118,1160013,,,,,,,2024-02-22,1,,,,,ニホンムボクキョウカイセンキョウカイ,0
860,4012303001942,新規,0,2024-02-22,2024-02-22,合同会社Ｐ＆Ｐ,,合同会社,東京都,町田市,中町１丁目３－１小田桐ビル５０４,,13,209,1940021,,,,,,,2024-02-22,1,,,,,ピーアンドピー,0
863,4012801022977,新規,0,2024-02-22,2024-02-22,株式会社Ｄｏｂｌｅ‐Ｔ＆ｃｏ．,,株式会社,東京都,日野市,豊田３丁目２８番地の３,,13,212,1910053,,,,,,,2024-02-22,1,,,,,ドブレーテアンドコー,0
864,4013301052093,新規,0,2024-02-22,2024-02-22,アニュラス株式会社,,株式会社,東京都,豊島区,東池袋５丁目７番３号東池袋五丁目ビル２階１１号室,,13,116,1700013,,,,,,,2024-02-22,1,,,,,アニュラス,0
867,4020001155911,新規,0,2024-02-22,2024-02-22,株式会社ＨＹプランニング,,株式会社,神奈川県,横浜市中区,山下町２００番地１２－１階,,14,104,2310023,,,,,,,2024-02-22,1,,,,,エイチワイプランニング,0
878,4030001158698,新規,0,2024-02-22,2024-02-22,株式会社逸品レール,,株式会社,埼玉県,朝霞市,幸町１丁目１２－８,,11,227,3510015,,,,,,,2024-02-22,1,,,,,イッピンレール,0
879,4030001158780,新規,0,2024-02-22,2024-02-22,エルセラ株式会社,,株式会社,埼玉県,入間郡毛呂山町,岩井東１丁目８番地２５サングリーンＩＩ２０２号,00133810,11,326,3500467,,,,,,,2024-02-22,1,,,,,エルセラ,0
886,4030003023685,新規,0,2024-02-22,2024-02-22,ＲＳＰＫ合同会社,,合同会社,埼玉県,白岡市,小久喜７３３－４,,11,246,3490217,,,,,,,2024-02-22,1,,,,,アールエスピーケイ,0
890,4040001131951,新規,0,2024-02-22,2024-02-22,株式会社ｆｏｒＹｏｕｔｈ,,株式会社,千葉県,長生郡一宮町,一宮９９５３－８,,12,421,2994301,,,,,,,2024-02-22,1,,,,,フォーユース,0
891,4040001132306,新規,0,2024-02-22,2024-02-22,株式会社エスディーサポート,,株式会社,千葉県,野田市,上花輪８１６番地の４,,12,208,2780033,,,,,,,2024-02-22,1,,,,,エスディーサポート,0
895,4040003024344,新規,0,2024-02-22,2024-02-22,スマイル合同会社,,合同会社,千葉県,野田市,瀬戸７２４番地,,12,208,2780012,,,,,,,2024-02-22,1,,,,,スマイル,0
896,4040003024369,新規,0,2024-02-22,2024-02-22,合同会社えん,,合同会社,千葉県,船橋市,本郷町５９８番地１－４０６号,,12,204,2730033,,,,,,,2024-02-22,1,,,,,エン,0
899,4050001054342,新規,0,2024-02-22,2024-02-22,Ｂ‐Ｌｉｎｅ株式会社,,株式会社,茨城県,牛久市,小坂町１９３０番地の６４,,08,219,3001286,,,,,,,2024-02-22,1,,,,,ビーライン,0
901,4060001036851,新規,0,2024-02-22,2024-02-22,株式会社共栄商事,,株式会社,栃木県,宇都宮市,簗瀬３丁目２６番９－２号,,09,201,3210934,,,,,,,2024-02-22,1,,,,,キョウエイショウジ,0
902,4060003004922,新規,0,2024-02-22,2024-02-22,ＰＮＫ合同会社,,合同会社,栃木県,下野市,大松山１丁目２番２０－Ｂ１０１号,,09,216,3290519,,,,,,,2024-02-22,1,,,,,ピーエヌケー,0
904,4070003005283,新規,0,2024-02-22,2024-02-22,合同会社ＣＨＥＲＩＳＨ,,合同会社,群馬県,藤岡市,中６９０番地５,,10,209,3750005,,,,,,,2024-02-22,1,,,,,チェリッシュ,0
905,4080001026140,新規,0,2024-02-22,2024-02-22,株式会社建水管工,,株式会社,静岡県,静岡市清水区,伊佐布３３９番地１の１,,22,103,4240112,,,,,,,2024-02-22,1,,,,,ケンスイカンコウ,0
907,4080103002989,新規,0,2024-02-22,2024-02-22,合同会社フロンティア・カサイ,,合同会社,静岡県,富士宮市,原１１７９番地の１,,22,207,4180105,,,,,,,2024-02-22,1,,,,,フロンティアカサイ,0
928,4090003002502,新規,0,2024-02-22,2024-02-22,ＡＮＨＬＯＣ合同会社,,合同会社,山梨県,甲府市,宮原町２５９番地１スカイハイツ４０３,,19,201,4000058,,,,,,,2024-02-22,1,,,,,アインロック,0
933,4110003005295,新規,0,2024-02-22,2024-02-22,合同会社こくわ屋,,合同会社,新潟県,新潟市中央区,幸町１３番１２号ＳｔａｇｅＲ幸町３０１,,15,103,9500907,,,,,,,2024-02-22,1,,,,,コクワヤ,0
945,4120001262565,新規,0,2024-02-22,2024-02-22,株式会社リアンフォール,,株式会社,大阪府,大阪市浪速区,木津川２丁目５番１２号,,27,111,5560027,,,,,,,2024-02-22,1,,,,,リアンフォール,0
946,4120001262607,新規,0,2024-02-22,2024-02-22,株式会社アドマイア,,株式会社,大阪府,大阪市城東区,中央２丁目１１番２３－９０２号,,27,118,5360005,,,,,,,2024-02-22,1,,,,,アドマイア,0
949,4120003025978,新規,0,2024-02-22,2024-02-22,合同会社ＰＨＯＮＶＩＮＨ,,合同会社,大阪府,大阪市生野区,新今里３丁目１９－７相愛マンション１２号室,,27,116,5440001,,,,,,,2024-02-22,1,,,,,フォンヴィン,0
950,4120003025994,新規,0,2024-02-22,2024-02-22,合同会社ＡＬＬＹ　ＨＯＭＥ,,合同会社,大阪府,大阪市中央区,内平野町２丁目３－７－１００３号,,27,128,5400037,,,,,,,2024-02-22,1,,,,,アリーホーム,0
951,4120003026002,新規,0,2024-02-22,2024-02-22,合同会社寿栄紘,,合同会社,大阪府,大阪市西成区,千本中１丁目１５番９号,,27,122,5570054,,,,,,,2024-02-22,1,,,,,スエヒロ,0
952,4120101069101,新規,0,2024-02-22,2024-02-22,株式会社ワーク・ワン,,株式会社,大阪府,堺市中区,八田寺町２３番地３０,,27,142,5998267,,,,,,,2024-02-22,1,,,,,ワークワン,0
956,4120901048799,新規,0,2024-02-22,2024-02-22,ヒイラギ商店株式会社,,株式会社,大阪府,池田市,城南１丁目９番２２号ＡＸＩＳ池田グリーンプラザ１、６－Ｃ,,27,204,5630025,,,,,,,2024-02-22,1,,,,,ヒイラギショウテン,0
963,4130005017015,新規,0,2024-02-22,2024-02-22,ＮＰＯ法人ももやま東,,その他の設立登記法人,京都府,京都市伏見区,桃山町西町１２番地西町集会室内,,26,109,6128013,,,,,,,2024-02-22,1,,,,,モモヤマヒガシ,0
974,4180001160227,新規,0,2024-02-22,2024-02-22,株式会社ｎｅｉｌｓ,,株式会社,愛知県,名古屋市西区,花の木１丁目１０番１２号サンプラーザ花の木２０２号,,23,104,4510062,,,,,,,2024-02-22,1,,,,,ニールズ,0
975,4180001160251,新規,0,2024-02-22,2024-02-22,大和商事株式会社,,株式会社,愛知県,海部郡飛島村,大字渚５丁目２６番地,,23,427,4901433,,,,,,,2024-02-22,1,,,,,ダイワショウジ,0
976,4180001160268,新規,0,2024-02-22,2024-02-22,株式会社レバディー,,株式会社,愛知県,東海市,富木島町新藤塚８７番地,,23,222,4760011,,,,,,,2024-02-22,1,,,,,レバディー,0
977,4180001160292,新規,0,2024-02-22,2024-02-22,スマイルアセット株式会社,,株式会社,愛知県,名古屋市中区,栄１丁目６番１５号,,23,106,4600008,,,,,,,2024-02-22,1,,,,,スマイルアセット,0
978,4180003026376,新規,0,2024-02-22,2024-02-22,合同会社Ｅ‐ｖａｌｕｅ,,合同会社,愛知県,日進市,竹の山３丁目１６０７番地日進市竹の山テラスハウスＢ,,23,230,4700136,,,,,,,2024-02-22,1,,,,,イーバリュウ,0
979,4180003026392,新規,0,2024-02-22,2024-02-22,合同会社双鷹ゴルフ旅行社,,合同会社,愛知県,名古屋市東区,徳川１丁目１７番２４号,,23,102,4610025,,,,,,,2024-02-22,1,,,,,ソウユウゴルフリョコウシャ,0
980,4180003026401,新規,0,2024-02-22,2024-02-22,合同会社ｔａｋｕｃａｎ３７,,合同会社,愛知県,名古屋市西区,新道２丁目１２番１０号サンモール菊井７０１号,,23,104,4510043,,,,,,,2024-02-22,1,,,,,タクチャンサンナナ,0
983,4180301038346,新規,0,2024-02-22,2024-02-22,ライズシード株式会社,,株式会社,愛知県,田原市,福江町白石５９番地,,23,231,4413617,,,,,,,2024-02-22,1,,,,,ライズシード,0
990,4230003002157,新規,0,2024-02-22,2024-02-22,合同会社福祥来,,合同会社,富山県,南砺市,上津８００番地,,16,210,9391551,,,,,,,2024-02-22,1,,,,,フクショウライ,0
993,4280003001815,新規,0,2024-02-22,2024-02-22,合同会社ローカルシード,,合同会社,島根県,大田市,波根町１７０８,,32,205,6992211,,,,,,,2024-02-22,1,,,,,ローカルシード,0
996,4290001104783,新規,0,2024-02-22,2024-02-22,株式会社Ｒｅａｌｉｓｅ,,株式会社,福岡県,福岡市中央区,舞鶴１丁目４番３０－６０３号ＴＭ３６ビル,,40,133,8100073,,,,,,,2024-02-22,1,,,,,リアリス,0
997,4290001104791,新規,0,2024-02-22,2024-02-22,株式会社ＨＵｇＥ,,株式会社,福岡県,福岡市中央区,今泉１丁目１７番２１－３０２号,,40,133,8100021,,,,,,,2024-02-22,1,,,,,ヒュージ,0
1009,4330003010232,新規,0,2024-02-22,2024-02-22,Ｃ＆Ｍ合同会社,,合同会社,熊本県,熊本市中央区,渡鹿７丁目１５番３９号グランパーク渡鹿９０４号,,43,101,8620970,,,,,,,2024-02-22,1,,,,,シーアンドエム,0
1016,4360003013736,新規,0,2024-02-22,2024-02-22,ＣＯＲＡＬ　ＩＳＬＡＮＤ合同会社,,合同会社,沖縄県,名護市,宮里１丁目２８番８号南西ビル２Ｆ,,47,209,9050011,,,,,,,2024-02-22,1,,,,,コーラルアイランド,0
1025,4430001091116,新規,0,2024-02-22,2024-02-22,株式会社ＬＥＧＥＮＤ,,株式会社,北海道,札幌市中央区,南六条西４丁目５番地１０第２１桂和ビルＢ１Ｆ,,01,101,0640806,,,,,,,2024-02-22,1,,,,,レジェンド,0
1026,4430001091140,新規,0,2024-02-22,2024-02-22,ＳＹＣ株式会社,,株式会社,北海道,札幌市手稲区,前田一条９丁目４番１号,,01,109,0060811,,,,,,,2024-02-22,1,,,,,エスワイシー,0
1029,4480001012397,新規,0,2024-02-22,2024-02-22,ＣＲＥＥＰ株式会社,,株式会社,徳島県,吉野川市,山川町川田５６１番地,,36,205,7793404,,,,,,,2024-02-22,1,,,,,クリープ,0
1031,4500005008678,新規,0,2024-02-22,2024-02-22,一般社団法人チャレンジドシップ,,その他の設立登記法人,愛媛県,西条市,飯岡２７１０番地９,,38,206,7930010,,,,,,,2024-02-22,1,,,,,チャレンジドシップ,0
1033,4700150122478,新規,0,2024-02-22,2024-02-22,ｑｕａｎｚｈｏｕｓｈｉａｉｌｅｗｅｉｓｈｅｎｇｙｏｎｇｐｉｎｇｙｏｕｘｉａｎｇｏｎｇｓｉ,,外国会社等,,,,,,,,ｍｅｉｌｉｎｚｈｅｎｍｅｉｔｉｎｇｇｏｎｇｙｅｑｕｎａｎａｎｆｕｊｉａｎＣｈｉｎａ３６２３００,,,,,,2024-02-22,1,,,,,チユエンジヨウシアイロアウエイシユヨンヨンピンヨウシエンゴンス,0
1034,4700150123575,新規,0,2024-02-22,2024-02-22,Ｈｕｎａｎ　Ｚｉｙｕｅ　ｔｒａｄｉｎｇ　Ｃｏ．，ＬＴＤ,,外国会社等,,,,,,,,Ｓｏｕｔｈ　Ｃｈａｎｇｑｉｎｇ　Ｍｉｄｄｌｅ　Ｓｔｒｅｅｔ，Ｌｏｕｘｉｎｇ　Ｄｉｓｔｒｉｃｔ，Ｌｏｕｄｉ　Ｃｉｔｙ，Ｈｕｎａｎ　Ｐｒｏｖｉｎｃｅ　Ｓｉｄｅ（Ｌｏｎｇｔａｉ　Ｓｈａｎｇｐｉｎ）００２８　ｂｕｉｌｄｉｎｇ　Ｎｏ．１１５,,,,,,2024-02-22,1,,,,,フーナンズーユエマオイーヨウシエンゴンスー,0
1035,4700150123583,新規,0,2024-02-22,2024-02-22,Ｈｕｎａｎ　Ｙｉｎｇｘｕ　ｅｃｏｍｍｅｒｃｅ　Ｃｏ．，ＬＴＤ,,外国会社等,,,,,,,,Ｒｏｏｍ　１３０７，Ｒｏｏｍ　３，１３ｔｈ　Ｆｌｏｏｒ，Ｆｉｌｍ　ａｎｄ　Ｔｅｌｅｖｉｓｉｏｎ　Ｉｎｔｅｒｎａｔｉｏｎａｌ　Ｂｕｓｉｎｅｓｓ　Ｃｅｎｔｅｒ　Ｂｕｉｌｄｉｎｇ，Ｓｈｕｉｄｕ　Ｍｉｄｄｌｅ　Ｒｏａｄ，Ｌｅｎｇｓｈｕｉｊｉａｎｇ　Ｓｔｒｅｅｔ，Ｌｏｕｄｉ　Ｃｉｔｙ，Ｈｕｎａｎ　Ｐｒｏｖｉｎｃｅ,,,,,,2024-02-22,1,,,,,フーナンシヨンインシーデイエンズーシヤンウーヨウシエンゴンスー,0
1036,4700150123591,新規,0,2024-02-22,2024-02-22,Ｈｕｎａｎ　Ｘｉｎｆｕ　ｅｌｅｃｔｒｏｎｉｃ　Ｔｅｃｈｎｏｌｏｇｙ　Ｃｏ．，ＬＴＤ,,外国会社等,,,,,,,,Ｎｏ．５４３，Ｃ，Ｒｏｏｍ　１９０８，１９０９，１９１０，Ｋｕａｎｙｕ　Ｂｕｉｌｄｉｎｇ，Ｎｏ．１３９，Ｗａｎｌｉ　Ｍｉｄｄｌｅ　Ｒｏａｄ，Ｄｏｎｇｔｕｎｄｕ　Ｓｔｒｅｅｔ，Ｆｕｒｏｎｇ　Ｄｉｓｔｒｉｃｔ，Ｃｈａｎｇｓｈａ　Ｃｉｔｙ，Ｈｕｎａｎ　Ｐｒｏｖｉｎｃｅ,,,,,,2024-02-22,1,,,,,フーナンハンシンフーデイエンズーコージーヨウシエンゴンスー,0
1037,4700150123600,新規,0,2024-02-22,2024-02-22,Ｈｕｎａｎ　Ｑｉｓｉ　ｅｘｐａｎｓｉｏｎ　ｔｒａｄｉｎｇ　Ｃｏ．，ＬＴＤ,,外国会社等,,,,,,,,Ｎｏ．１００２，１ｓｔ　Ｆｌｏｏｒ，Ｂｕｉｌｄｉｎｇ　０２１，Ｒｅｎｍｉｎ　Ｎｅｗ　Ｖｉｌｌａｇｅ，Ｃｈａｏｙａｎｇ　Ｓｔｒｅｅｔ，Ｆｕｒｏｎｇ　Ｄｉｓｔｒｉｃｔ，Ｃｈａｎｇｓｈａ　Ｃｉｔｙ，Ｈｕｎａｎ　Ｐｒｏｖｉｎｃｅ,,,,,,2024-02-22,1,,,,,フーナンチースークオシヤンマオヨウシエンゴンスー,0
1038,4700150123666,新規,0,2024-02-22,2024-02-22,Ｈｅｃｎｙ　Ｔｒａｎｓｐｏｒｔａｔｉｏｎ　Ｌｔｄ．,,外国会社等,,,,,,,,５／Ｆ．，Ｈｅｎｃｎｙ　Ｃｅｎｔｒｅ．１１１Ｗａｉ　Ｙｉｐ　Ｓｔｒｅｅｔ，Ｋｗｕｎ　Ｔｏｎｇ，Ｋｏｗｌｏｏｎ，Ｈｏｎｇ　Ｋｏｎｇ,,,,,,2024-02-22,1,,,,,ヘクニートランスポーテーシヨン,0
1039,4700150124144,新規,0,2024-02-22,2024-02-22,マグネックス株式会社日本支店,,外国会社等,埼玉県,ふじみ野市,亀久保２丁目９－３２,,11,245,3560051,大韓民国忠清北道清州市興徳区ガポサン路１２４－１,,,,,,2024-02-22,1,,,,,マグネツクスカブシキガイシヤニホンシテン,0
1049,5010001242445,新規,0,2024-02-22,2024-02-22,日本美大森田株式会社,,株式会社,東京都,文京区,千石４丁目１４番９号,,13,105,1120011,,,,,,,2024-02-22,1,,,,,ニホンビダイモリタ,0
1050,5010001242486,新規,0,2024-02-22,2024-02-22,株式会社ランチンター,,株式会社,東京都,千代田区,神田錦町１丁目１５番地５,,13,101,1010054,,,,,,,2024-02-22,1,,,,,ランチンター,0
1051,5010001242494,新規,0,2024-02-22,2024-02-22,株式会社ＳＡＭｓ　ｕｐ　ＶＥＴｓ,,株式会社,東京都,中央区,銀座１丁目１２－４Ｎ＆Ｅ・ＢＬＤ．７階,,13,102,1040061,,,,,,,2024-02-22,1,,,,,サムズアップベッツ,0
1052,5010001242536,新規,0,2024-02-22,2024-02-22,Ｂｌａｃｋ　Ｓｔａｒ株式会社,,株式会社,東京都,中央区,勝どき６丁目３番２－９１７号,,13,102,1040054,,,,,,,2024-02-22,1,,,,,ブラックスター,0
1054,5010003043016,新規,0,2024-02-22,2024-02-22,合同会社ＺＥＨ南九州ファンド１号,,合同会社,東京都,中央区,銀座４丁目６番１号三幸アセットマネジメント株式会社内,,13,102,1040061,,,,,,,2024-02-22,1,,,,,ゼッチミナミキュウシュウファンドイチゴウ,0
1055,5010005037932,新規,0,2024-02-22,2024-02-22,特定非営利活動法人ソーシャル・アントレプレナー,,その他の設立登記法人,東京都,中央区,日本橋蛎殻町１丁目２４番４号井川ビル２Ｆ,,13,102,1030014,,,,,,,2024-02-22,1,,,,,ソーシャルアントレプレナー,0
1060,5010401180559,新規,0,2024-02-22,2024-02-22,株式会社ＣｏｎｎｅｃｔＳｐｈｅｒｅ,,株式会社,東京都,港区,北青山１丁目３番１号アールキューブ青山３階,,13,103,1070061,,,,,,,2024-02-22,1,,,,,コネクトスフィア,0
1061,5010401180591,新規,0,2024-02-22,2024-02-22,ＳＩ　ｈｏｌｄｉｎｇｓ株式会社,,株式会社,東京都,港区,南麻布３丁目１１番７号ロイヤルシーズン南麻布ヒルサイド４０１,,13,103,1060047,,,,,,,2024-02-22,1,,,,,エスアイホールディングス,0
1062,5010401180600,新規,0,2024-02-22,2024-02-22,ＡＧＵＡ株式会社,,株式会社,東京都,港区,赤坂３丁目７番１１－３階,,13,103,1070052,,,,,,,2024-02-22,1,,,,,アグア,0
1068,5010601064660,新規,0,2024-02-22,2024-02-22,株式会社ＭＯＶＥ,,株式会社,東京都,江東区,亀戸５丁目５番４号２階,,13,108,1360071,,,,,,,2024-02-22,1,,,,,ムーヴ,0
1078,5011001160174,新規,0,2024-02-22,2024-02-22,株式会社Ｒｅｖｉａｓ,,株式会社,東京都,渋谷区,神宮前６丁目２３番４号桑野ビル２階,,13,113,1500001,,,,,,,2024-02-22,1,,,,,レヴィアス,0
1079,5011001160182,新規,0,2024-02-22,2024-02-22,株式会社Ｔ．Ｂ．Ｉｎｄｕｓｔｒｉｅｓ,,株式会社,東京都,渋谷区,宇田川町３６番６号ワールド宇田川ビル６Ｆ,,13,113,1500042,,,,,,,2024-02-22,1,,,,,ティービーインダストリーズ,0
1080,5011001160199,新規,0,2024-02-22,2024-02-22,株式会社エアレーザー,,株式会社,東京都,渋谷区,東３丁目１４番１５号,,13,113,1500011,,,,,,,2024-02-22,1,,,,,エアレーザー,0
1085,5011101106176,新規,0,2024-02-22,2024-02-22,株式会社Ｏｌｉｖｅ　ｃａｒｅ,,株式会社,東京都,新宿区,西新宿１丁目４番１１号全研プラザＳＰＡＣＥＳ新宿,,13,104,1600023,,,,,,,2024-02-22,1,,,,,オリーブケア,0
1086,5011101106226,新規,0,2024-02-22,2024-02-22,株式会社ハイレゾ香川,,株式会社,東京都,新宿区,市谷田町３丁目２４番１号,,13,104,1620843,,,,,,,2024-02-22,1,,,,,ハイレゾカガワ,0
1087,5011101106291,新規,0,2024-02-22,2024-02-22,株式会社エムワード,,株式会社,東京都,新宿区,百人町１丁目２３番２６号みなみビル２Ｆ－Ｂ号室,,13,104,1690073,,,,,,,2024-02-22,1,,,,,エムワード,0
1092,5011105010952,新規,0,2024-02-22,2024-02-22,一般社団法人ジェイ・エイチ・キュー,,その他の設立登記法人,東京都,新宿区,下宮比町１番４号,,13,104,1620822,,,,,,,2024-02-22,1,,,,,ジェイエイチキュー,0
1095,5011401025877,新規,0,2024-02-22,2024-02-22,株式会社ウエストアライグループ,,株式会社,東京都,板橋区,三園２丁目１４番１７号,,13,119,1750091,,,,,,,2024-02-22,1,,,,,ウエストアライグループ,0
1099,5012303001941,新規,0,2024-02-22,2024-02-22,ＩＢＨ　Ｊａｐａｎ合同会社,,合同会社,東京都,町田市,原町田２丁目４番１号,,13,209,1940013,,,,,,,2024-02-22,1,,,,,インターナショナルブランドハンドルジャパン,0
1107,5013303007012,新規,0,2024-02-22,2024-02-22,合同会社Ｔｏｐ　Ｑｕａｌｉｔｙ　Ａｓｓｏｃｉａｔｅｓ,,合同会社,東京都,豊島区,南池袋１丁目１１番１９－１３１１号,,13,116,1710022,,,,,,,2024-02-22,1,,,,,トップクオリティアソシエイツ,0
1113,5020001155910,新規,0,2024-02-22,2024-02-22,株式会社ＫＧＧ　ＳＰＣ１,,株式会社,神奈川県,横浜市都筑区,東山田町３５１－１番地,,14,118,2240024,,,,,,,2024-02-22,1,,,,,ケージージーエスピーシーワン,0
1114,5020003025599,新規,0,2024-02-22,2024-02-22,合同会社エステートプランニング,,合同会社,神奈川県,横浜市青葉区,新石川４丁目１４番地３６メゾンＩ－４０１,00133811,14,117,2250003,,,,,,,2024-02-22,1,,,,,エステートプランニング,0
1116,5021001081519,新規,0,2024-02-22,2024-02-22,株式会社ＨＯＬＹ．Ｌｏｇｉｓｔｉｃｓ,,株式会社,神奈川県,相模原市中央区,上溝２７３番地１,,14,152,2520243,,,,,,,2024-02-22,1,,,,,ホーリーロジスティクス,0
1117,5021001081527,新規,0,2024-02-22,2024-02-22,株式会社グラビファイ,,株式会社,神奈川県,藤沢市,亀井野４丁目９番地の３,,14,205,2520813,,,,,,,2024-02-22,1,,,,,グラビファイ,0
1120,5030001158788,新規,0,2024-02-22,2024-02-22,株式会社大室自動車整備工場,,株式会社,埼玉県,上尾市,大字今泉１０１番地,,11,219,3620047,,,,,,,2024-02-22,1,,,,,オオムロジドウシャセイビコウジョウ,0
1122,5030003023668,新規,0,2024-02-22,2024-02-22,合同会社ガジュマルＬｏｇｉｓｋｙ,,合同会社,埼玉県,川口市,大字里１３１２番地の５,,11,203,3340005,,,,,,,2024-02-22,1,,,,,ガジュマルロジスカイ,0
1127,5040001132305,新規,0,2024-02-22,2024-02-22,株式会社潤鳴農場,,株式会社,千葉県,君津市,大中３３４番地,,12,225,2920522,,,,,,,2024-02-22,1,,,,,ジュンメイノウジョウ,0
1128,5040001132346,新規,0,2024-02-22,2024-02-22,株式会社アイキョーホールディングス,,株式会社,千葉県,千葉市中央区,松波２丁目２１番１２号,,12,101,2600044,,,,,,,2024-02-22,1,,,,,アイキョーホールディングス,0
1133,5040003024335,新規,0,2024-02-22,2024-02-22,Ｎ美プロジェクト合同会社,,合同会社,千葉県,柏市,高柳１３３５番地２４,,12,217,2770941,,,,,,,2024-02-22,1,,,,,エヌミプロジェクト,0
1137,5050003008155,新規,0,2024-02-22,2024-02-22,合同会社キュアリンダ,,合同会社,茨城県,水戸市,千波町２４９１番地の２,,08,201,3100851,,,,,,,2024-02-22,1,,,,,キュアリンダ,0
1140,5060003004913,新規,0,2024-02-22,2024-02-22,合同会社オウルブルー,,合同会社,栃木県,佐野市,植上町１５６０番地１,,09,204,3270832,,,,,,,2024-02-22,1,,,,,オウルブルー,0
1141,5070003005274,新規,0,2024-02-22,2024-02-22,合同会社Ｔ．Ｍ．Ｅｖｏｌｕｔｉｏｎ,,合同会社,群馬県,吾妻郡草津町,大字草津４６４－１０７４,,10,426,3771711,,,,,,,2024-02-22,1,,,,,ティーエムエヴォリューション,0
1154,5080401027019,新規,0,2024-02-22,2024-02-22,株式会社テイクルーフ,,株式会社,静岡県,浜松市中央区,江之島町１１４３番地の１ＤＵＮＥ江之島Ａ１号室,,22,138,4300844,,,,,,,2024-02-22,1,,,,,テイクルーフ,0
1167,5120001262531,新規,0,2024-02-22,2024-02-22,本願株式会社,,株式会社,大阪府,大阪市中央区,内本町２丁目２番２号２４０４号室,,27,128,5400026,,,,,,,2024-02-22,1,,,,,ホンガン,0
1168,5120001262564,新規,0,2024-02-22,2024-02-22,株式会社ジャパンレジャー,,株式会社,大阪府,大阪市浪速区,木津川２丁目５番１２号,,27,111,5560027,,,,,,,2024-02-22,1,,,,,ジャパンレジャー,0
1169,5120001262572,新規,0,2024-02-22,2024-02-22,株式会社ＷＡＭＣ,,株式会社,大阪府,大阪市鶴見区,放出東２丁目２０番１７号,,27,124,5380044,,,,,,,2024-02-22,1,,,,,ワンク,0
1170,5120001262589,新規,0,2024-02-22,2024-02-22,株式会社ゼロイチ,,株式会社,大阪府,大阪市淀川区,新高６丁目４番１２－３０１号,,27,123,5320033,,,,,,,2024-02-22,1,,,,,ゼロイチ,0
1171,5120001262606,新規,0,2024-02-22,2024-02-22,株式会社ひなた,,株式会社,大阪府,大阪市東住吉区,北田辺１丁目１２番２１号,,27,121,5460044,,,,,,,2024-02-22,1,,,,,ヒナタ,0
1175,5120003026001,新規,0,2024-02-22,2024-02-22,アークス合同会社,,合同会社,大阪府,大阪市中央区,島之内１丁目１６番１８－２０４号,,27,128,5420082,,,,,,,2024-02-22,1,,,,,アークス,0
1177,5120101069091,新規,0,2024-02-22,2024-02-22,株式会社ジンエイト,,株式会社,大阪府,堺市西区,鳳西町３丁６８０番地,,27,144,5938326,,,,,,,2024-02-22,1,,,,,ジンエイト,0
1178,5120903005054,新規,0,2024-02-22,2024-02-22,ｍａｎａｂｕ合同会社,,合同会社,大阪府,豊中市,緑丘４丁目３５－２８－２０５,,27,203,5600002,,,,,,,2024-02-22,1,,,,,マナブ,0
1179,5120905006570,新規,0,2024-02-22,2024-02-22,一般社団法人ピアノスカラーシップ大阪,,その他の設立登記法人,大阪府,箕面市,桜４丁目１８番１４－１０４号,,27,220,5620041,,,,,,,2024-02-22,1,,,,,ピアノスカラーシップオオサカ,0
1184,5130001076410,新規,0,2024-02-22,2024-02-22,株式会社コストルイレ,,株式会社,京都府,京都市伏見区,向島庚申町８８番地６,,26,109,6128122,,,,,,,2024-02-22,1,,,,,コストルイレ,0
1189,5160001025703,新規,0,2024-02-22,2024-02-22,株式会社スタイル,,株式会社,滋賀県,草津市,追分南３丁目７番３号,,25,206,5250048,,,,,,,2024-02-22,1,,,,,スタイル,0
1198,5180001160250,新規,0,2024-02-22,2024-02-22,株式会社平手石油ホールディングス,,株式会社,愛知県,小牧市,大字岩崎３７４番地,,23,219,4850011,,,,,,,2024-02-22,1,,,,,ヒラテセキユホールディングス,0
1211,5220001025829,新規,0,2024-02-22,2024-02-22,株式会社かわ,,株式会社,石川県,金沢市,長土塀２丁目７番７号,,17,201,9200867,,,,,,,2024-02-22,1,,,,,カワ,0
1213,5230003002156,新規,0,2024-02-22,2024-02-22,合同会社Ｓｈｏｔ,,合同会社,富山県,富山市,中市２丁目９番１７－１０３号Ｒｉｔｚ,,16,201,9398005,,,,,,,2024-02-22,1,,,,,ショット,0
1219,5250003003441,新規,0,2024-02-22,2024-02-22,合同会社大深屋,,合同会社,山口県,下関市,川中豊町５丁目２－１５,,35,201,7510853,,,,,,,2024-02-22,1,,,,,オオフカヤ,0
1220,5260001038777,新規,0,2024-02-22,2024-02-22,株式会社板米屋,,株式会社,岡山県,倉敷市,上東５７６番地,,33,202,7010111,,,,,,,2024-02-22,1,,,,,イタマイヤ,0
1222,5290001104790,新規,0,2024-02-22,2024-02-22,Ｂｅｓｔ　ａｌｌ　Ｃｒｅａｔｉｏｎｓ株式会社,,株式会社,福岡県,宗像市,自由ヶ丘１０丁目２２番地１０,,40,220,8114163,,,,,,,2024-02-22,1,,,,,ベストオールクリエイションズ,0
1223,5290001104808,新規,0,2024-02-22,2024-02-22,株式会社富紀,,株式会社,福岡県,福岡市中央区,平尾３丁目１７番７号,,40,133,8100014,,,,,,,2024-02-22,1,,,,,フウキ,0
1224,5290001104824,新規,0,2024-02-22,2024-02-22,ＧＵＤＥＮＧ株式会社,,株式会社,福岡県,福岡市博多区,博多駅東２丁目５番１９号サンライフ第３ビル,,40,132,8120013,,,,,,,2024-02-22,1,,,,,グーデン,0
1230,5310001018872,新規,0,2024-02-22,2024-02-22,株式会社ファームガイダンス,,株式会社,長崎県,佐世保市,大岳台町２９番９号,,42,202,8571163,,,,,,,2024-02-22,1,,,,,ファームガイダンス,0
1232,5320001020308,新規,0,2024-02-22,2024-02-22,株式会社Ｊ．Ｏ．Ｃ,,株式会社,大分県,大分市,高江南３丁目３６番地の４,,44,201,8701118,,,,,,,2024-02-22,1,,,,,ジェーオーシー,0
1245,5360001033207,新規,0,2024-02-22,2024-02-22,株式会社キムラ工業,,株式会社,沖縄県,中頭郡北谷町,字桑江３６９番地３３,,47,326,9040103,,,,,,,2024-02-22,1,,,,,キムラコウギョウ,0
1246,5360001033223,新規,0,2024-02-22,2024-02-22,株式会社ＬＯＶＩＴＴ．,,株式会社,沖縄県,那覇市,壺川１丁目７番地１,,47,201,9000025,,,,,,,2024-02-22,1,,,,,ラヴィト,0
1253,5410003003895,新規,0,2024-02-22,2024-02-22,合同会社うさぎ,,合同会社,秋田県,大館市,沼館字藤蕪６,,05,204,0170057,,,,,,,2024-02-22,1,,,,,ウサギ,0
1260,5430001091049,新規,0,2024-02-22,2024-02-22,株式会社ＡＲＲＯＬ,,株式会社,北海道,札幌市中央区,北四条西１１丁目２３－１Ｎ４ＳＴＡＹ３階,,01,101,0600004,,,,,,,2024-02-22,1,,,,,アロル,0
1261,5430001091156,新規,0,2024-02-22,2024-02-22,株式会社上野建築事務所,,株式会社,北海道,札幌市豊平区,平岸四条１３丁目４番３０－３０４号,,01,105,0620934,,,,,,,2024-02-22,1,,,,,ウエノケンチクジムショ,0
1264,5480001012396,新規,0,2024-02-22,2024-02-22,株式会社ＳＡＴ,,株式会社,徳島県,吉野川市,山川町三島３２１番１,,36,205,7793403,,,,,,,2024-02-22,1,,,,,サット,0
1269,5500005008677,新規,0,2024-02-22,2024-02-22,一般社団法人ｅｎ　ｊａｐａｎ,,その他の設立登記法人,愛媛県,四国中央市,土居町上野甲６７９番地,,38,213,7990721,,,,,,,2024-02-22,1,,,,,エンジャパン,0
1272,5700150122477,新規,0,2024-02-22,2024-02-22,ｗｕｙｉｓｈａｎｓｈｉｂａｏｓｈｕｄｉａｎｚｉｓｈａｎｇｗｕｙｏｕｘｉａｎｇｏｎｇｓｉ,,外国会社等,,,,,,,,ｄｕｊｉａｑｕｘｉａｎｇｕａｎｌｕ２－５ｈａｏ１ｃｅｎｇｗｕｙｉｓｈａｎｆｕｊｉａｎ３５４３００ＣＮ,,,,,,2024-02-22,1,,,,,ウイシヤンシバオシユウデイエンズシヤーンウヨウシエンゴンス,0
1273,5700150123401,新規,0,2024-02-22,2024-02-22,ｄｏｎｇｇｕａｎｓｈｉａｎｑｕａｎｓｈｉｄｉａｎｚｉｓｈａｎｇｗｕｙｏｕｘｉａｎｇｏｎｇｓｉ,,外国会社等,,,,,,,,Ｒｏｏｍ　１００６，Ｂｕｉｌｄｉｎｇ　４，Ｎｏ．２　Ｒ＆Ｄ　Ｆｉｆｔｈ　Ｒｏａｄ，Ｓｏｎｇｓｈａｎ　Ｌａｋｅ　Ｐａｒｋ，Ｄｏｎｇｇｕａｎ　Ｃｉｔｙ，Ｇｕａｎｇｄｏｎｇ　Ｐｒｏｖｉｎｃｅ,,,,,,2024-02-22,1,,,,,トウカンシアンゼンシイーコマースカンパニリミテツド,0
1274,5700150123566,新規,0,2024-02-22,2024-02-22,Ｂｌａｄｅ　Ｐａｒｔｎｅｒｓ　Ｅｕｒｏｐｅ　Ａ／Ｓ,,外国会社等,,,,,,,,Ｋｌｏｅｖｅｒｖａｅｎｇｅｔ　２６，６１００　Ｈａｄｅｒｓｌｅｖ，Ｄｅｎｍａｒｋ,,,,,,2024-02-22,1,,,,,ブレードパートナーズヨーロツパエーエス,0
1275,5700150123582,新規,0,2024-02-22,2024-02-22,Ｈｕｎａｎ　Ｘｉａｎｇｌｅｉ　ｅｌｅｃｔｒｏｎｉｃ　ｃｏｍｍｅｒｃｅ　Ｃｏ．，ＬＴＤ,,外国会社等,,,,,,,,Ｒｏｏｍ　１３１３－８，１３ｔｈ　Ｆｌｏｏｒ，Ｆｉｌｍ　ａｎｄ　Ｔｅｌｅｖｉｓｉｏｎ　Ｉｎｔｅｒｎａｔｉｏｎａｌ　Ｂｕｓｉｎｅｓｓ　Ｃｅｎｔｅｒ　Ｂｕｉｌｄｉｎｇ，Ｓｔｉｉｄｕ　Ｍｉｄｄｌｅ　Ｒｏａｄ，　Ｌｅｎｇｓｈｕｉｊｉａｎｇ　Ｓｔｒｅｅｔ，Ｌｅｎｇｓｈｕｉｊｉａｎｇ　Ｃｉｔｙ,,,,,,2024-02-22,1,,,,,フーナンシヨンシヤンレイデイエンズーシヤンウーヨウシエンゴンスー,0
1276,5700150123590,新規,0,2024-02-22,2024-02-22,Ｈｕｎａｎ　ｔｒａｎｓｆｅｒ　ｔｏ　Ｈｕａｉ　ｔｒａｄｉｎｇ　Ｃｏ．，ＬＴＤ,,外国会社等,,,,,,,,Ｎｏ．５６７，Ｃ，Ｒｏｏｍ　１９０８，１９０９，１９１０，Ｋｕａｎｙｕ　Ｂｕｉｌｄｉｎｇ，Ｎｏ．１３９，Ｗａｎｌｉ　Ｍｉｄｄｌｅ　Ｒｏａｄ，Ｄｏｎｇｔｕｎｄｕ　Ｓｔｒｅｅｔ，Ｆｕｒｏｎｇ　Ｄｉｓｔｒｉｃｔ，Ｃｈａｎｇｓｈａ　Ｃｉｔｙ，Ｈｕｎａｎ，Ｐｒｏｖｉｎｃｅ,,,,,,2024-02-22,1,,,,,フーナンチエンジユワンフワイシヤンマオヨウシエンゴンスー,0
1277,5700150123599,新規,0,2024-02-22,2024-02-22,ｇａｏｍｉｙｕｅｃｈｕａｎｆａｎｇｈｕｋｅｊｉｙｏｕｘｉａｎｇｏｎｇｓｉ,,外国会社等,,,,,,,,ｓｈａｎｄｏｎｇｓｈｅｎｇ　ｗｅｉｆａｎｇｓｈｉ　ｇａｏｍｉｓｈｉ　ｃｈａｏｙａｎｇｊｉｅｄａｏ　ｈｕａｎｇｊｉａｚｈｕａｎｇｃｕｎ　２５１ｈａｏ,,,,,,2024-02-22,1,,,,,ガオミーユエチユワンフアンフーコージーヨウシエンゴンスー,0
1278,5700150123665,新規,0,2024-02-22,2024-02-22,Ｓｕｎ　Ｏｎ　Ｆｉｎａｎｃｉａｌ　Ｌｉｍｉｔｅｄ,,外国会社等,,,,,,,,Ｓｅａ　Ｍｅａｄｏｗ　Ｈｏｕｓｅ，Ｂｌａｃｋｂｕｒｎｅ　Ｈｉｇｈｗａｙ，Ｒｏａｄ　Ｔｏｗｎ，Ｔｏｒｔｏｌａ，Ｂｒｉｔｉｓｈ　Ｖｉｒｇｉｎ　Ｉｓｌａｎｄｓ,,,,,,2024-02-22,1,,,,,サンオンフアイナンシヤルリミテツド,0
1279,5700150124127,新規,0,2024-02-22,2024-02-22,Ｄｉｒａｃ　Ｊａｐａｎ,,外国会社等,東京都,港区,六本木１丁目１０番３－９０１号,,13,103,1060032,Ｓｔａｔｉｏｎｓｇａｔａｎ　２３－２５，７５３　４０　Ｕｐｐｓａｌａ，Ｓｗｅｄｅｎ,,,,,,2024-02-22,1,,,,,デイラツクジヤパン,0
1290,6010001242304,新規,0,2024-02-22,2024-02-22,ＧＯＴＯ　Ｒｅｓｅａｒｃｈ株式会社,,株式会社,東京都,千代田区,神田和泉町１番地６－１６ヤマトビル４０５,,13,101,1010024,,,,,,,2024-02-22,1,,,,,ゴートゥーリサーチ,0
1291,6010001242477,新規,0,2024-02-22,2024-02-22,株式会社メディリズム,,株式会社,東京都,中央区,銀座１丁目１２番４号Ｎ＆ＥＢＬＤ．６Ｆ,,13,102,1040061,,,,,,,2024-02-22,1,,,,,メディリズム,0
1292,6010003042966,新規,0,2024-02-22,2024-02-22,ＳＴＲＡＴＯ’ＳＥＲＶＩＣＥ合同会社,,合同会社,東京都,千代田区,神田佐久間町２丁目１８番地１秋葉原ＳＴＮフロント１０階,,13,101,1010025,,,,,,,2024-02-22,1,,,,,ストラトサービス,0
1293,6010003043015,新規,0,2024-02-22,2024-02-22,合同会社Ｈｏｒｓ　Ｎｏｒｍｅｓ,,合同会社,東京都,中央区,銀座７丁目６番１９号ソワレ・ド銀座弥生ビル４階,,13,102,1040061,,,,,,,2024-02-22,1,,,,,オールノルム,0
1294,6010003043023,新規,0,2024-02-22,2024-02-22,ブラーン合同会社,,合同会社,東京都,中央区,銀座１丁目１２番４号Ｎ＆ＥＢＬＤ．６Ｆ,,13,102,1040061,,,,,,,2024-02-22,1,,,,,ブラーン,0
1300,6010401180574,新規,0,2024-02-22,2024-02-22,コンフォートワン株式会社,,株式会社,東京都,港区,浜松町２丁目２番１５号浜松町ダイヤビル２Ｆ,,13,103,1050013,,,,,,,2024-02-22,1,,,,,コンフォートワン,0
1301,6010401180582,新規,0,2024-02-22,2024-02-22,Ｂｏｎ　Ｐｒｏｄｕｃｔｉｏｎ　Ｊａｐａｎ株式会社,,株式会社,東京都,港区,南青山４丁目１８－１１フォレストヒルズイーストウィング２Ｆ,,13,103,1070062,,,,,,,2024-02-22,1,,,,,ボンプロダクションジャパン,0
1302,6010401180608,新規,0,2024-02-22,2024-02-22,株式会社Ｍａｏ’ｓ,,株式会社,東京都,港区,六本木５丁目２番１号ほうらいやビル８階,,13,103,1060032,,,,,,,2024-02-22,1,,,,,エムエーオーズ,0
1307,6010403032022,新規,0,2024-02-22,2024-02-22,Ｗｅ　Ｌｏｄｇｅ　Ｊａｐａｎ合同会社,,合同会社,東京都,港区,赤坂１丁目１１番４４号赤坂インターシティ５階Ｍａｚａｒｓ・Ｊａｐａｎ株式会社内,,13,103,1070052,,,,,,,2024-02-22,1,,,,,ウィーロッジジャパン,0
1310,6010501051824,新規,0,2024-02-22,2024-02-22,株式会社浅江,,株式会社,東京都,台東区,西浅草１丁目４番８号プラーザ西浅草１Ｆ,,13,106,1110035,,,,,,,2024-02-22,1,,,,,アサエ,0
1311,6010601064610,新規,0,2024-02-22,2024-02-22,ＪＡＣ株式会社,,株式会社,東京都,江東区,牡丹２丁目９番地１６号門前仲町東豊エステート５０５号室,,13,108,1350046,,,,,,,2024-02-22,1,,,,,ジェイエーシー,0
1312,6010601064684,新規,0,2024-02-22,2024-02-22,株式会社Ｒａｃｃｏｔ,,株式会社,東京都,墨田区,文花１丁目１８－１３,,13,107,1310044,,,,,,,2024-02-22,1,,,,,ラコット,0
1319,6010903008851,新規,0,2024-02-22,2024-02-22,あつみ合同会社,,合同会社,東京都,世田谷区,上祖師谷６丁目２番５号,,13,112,1570065,,,,,,,2024-02-22,1,,,,,アツミ,0
1326,6011001160198,新規,0,2024-02-22,2024-02-22,株式会社ＧＡＭ００９,,株式会社,東京都,渋谷区,千駄ヶ谷２丁目３０番１号,,13,113,1510051,,,,,,,2024-02-22,1,,,,,ジーエーエムゼロゼロキュウ,0
1327,6011001160215,新規,0,2024-02-22,2024-02-22,株式会社ＦＡＲＭＥＲ　ＹＯＵ,,株式会社,東京都,渋谷区,恵比寿４丁目２０番４号,,13,113,1500013,,,,,,,2024-02-22,1,,,,,ファーマーユー,0
1328,6011003018493,新規,0,2024-02-22,2024-02-22,合同会社ＳＯＬ,,合同会社,東京都,渋谷区,道玄坂２丁目８番８号,,13,113,1500043,,,,,,,2024-02-22,1,,,,,ソル,0
1329,6011003018502,新規,0,2024-02-22,2024-02-22,Ｒｅｓｏｕｒｃｅ　Ｌｉｎｋ合同会社,,合同会社,東京都,渋谷区,渋谷２丁目１９－１５宮益坂ビルディング６０９,,13,113,1500002,,,,,,,2024-02-22,1,,,,,リソースリンク,0
1330,6011003018535,新規,0,2024-02-22,2024-02-22,合同会社ＥｉＥＮ,,合同会社,東京都,渋谷区,道玄坂２丁目１５－１ノア道玄坂５２６,,13,113,1500043,,,,,,,2024-02-22,1,,,,,エイエン,0
1334,6011101106282,新規,0,2024-02-22,2024-02-22,株式会社ＨＫＫエンターテイメント,,株式会社,東京都,新宿区,新宿５丁目１７番２号ＹＭビル３０１,,13,104,1600022,,,,,,,2024-02-22,1,,,,,エイチケーケーエンターテイメント,0
1335,6011101106290,新規,0,2024-02-22,2024-02-22,株式会社ＴＳコンサルティング,,株式会社,東京都,新宿区,百人町１丁目２３番２６号みなみビル１Ｆ－Ａ号室,,13,104,1690073,,,,,,,2024-02-22,1,,,,,ティーエスコンサルティング,0
1336,6011101106308,新規,0,2024-02-22,2024-02-22,株式会社Ｃｏｇｒｅｓｓ,,株式会社,東京都,新宿区,西新宿３丁目３番１３号西新宿水間ビル６階,,13,104,1600023,,,,,,,2024-02-22,1,,,,,コグレス,0
1337,6011105010951,新規,0,2024-02-22,2024-02-22,一般社団法人戸建住宅塗装協会,,その他の設立登記法人,東京都,新宿区,西新宿３丁目３番１３号西新宿水間ビル６Ｆ,,13,104,1600023,,,,,,,2024-02-22,1,,,,,コダテジュウタクトソウキョウカイ,0
1341,6011303005068,新規,0,2024-02-22,2024-02-22,合同会社ｇｒｕｕ,,合同会社,東京都,杉並区,和田３丁目５３番１０号ｋｉｔｃｈｅｎＢＡＳＥ高円寺３０５,,13,115,1660012,,,,,,,2024-02-22,1,,,,,グルー,0
1342,6011401025876,新規,0,2024-02-22,2024-02-22,株式会社ｄｏｔ,,株式会社,東京都,板橋区,東坂下１丁目１９－１レクシオ志村坂上３０３,,13,119,1740042,,,,,,,2024-02-22,1,,,,,ドット,0
1348,6011701027052,新規,0,2024-02-22,2024-02-22,株式会社ヘルム,,株式会社,東京都,江戸川区,平井４丁目２９番１６－５０２号,,13,123,1320035,,,,,,,2024-02-22,1,,,,,ヘルム,0
1349,6011703003737,新規,0,2024-02-22,2024-02-22,和潤合同会社,,合同会社,東京都,江戸川区,本一色２丁目１８－２,,13,123,1330044,,,,,,,2024-02-22,1,,,,,ワジュン,0
1351,6011801043825,新規,0,2024-02-22,2024-02-22,株式会社古市出版,,株式会社,東京都,葛飾区,奥戸５丁目７番８号,,13,122,1240022,,,,,,,2024-02-22,1,,,,,フルイチシュッパン,0
1352,6011801043833,新規,0,2024-02-22,2024-02-22,株式会社ハースアプリケーションズ,,株式会社,東京都,葛飾区,東金町６丁目２７番２５－１０１号,,13,122,1250041,,,,,,,2024-02-22,1,,,,,ハースアプリケーションズ,0
1354,6012403006427,新規,0,2024-02-22,2024-02-22,ＡＩＭ合同会社,,合同会社,東京都,調布市,深大寺南町５丁目５０番地１,,13,208,1820013,,,,,,,2024-02-22,1,,,,,エイム,0
1368,6020001155926,新規,0,2024-02-22,2024-02-22,３ｒｄＢＡＳＥ株式会社,,株式会社,神奈川県,横浜市青葉区,大場町３５２－１,,14,117,2250023,,,,,,,2024-02-22,1,,,,,サードベース,0
1381,6021001081526,新規,0,2024-02-22,2024-02-22,株式会社たずみホールディングス,,株式会社,神奈川県,綾瀬市,吉岡７０９番地,,14,218,2521124,,,,,,,2024-02-22,1,,,,,タズミホールディングス,0
1382,6021001081534,新規,0,2024-02-22,2024-02-22,株式会社Ｃｌｅａｒ,,株式会社,神奈川県,大和市,下鶴間６２９番地１,,14,213,2420001,,,,,,,2024-02-22,1,,,,,クリア,0
1398,6030003023667,新規,0,2024-02-22,2024-02-22,合同会社デラトーレ,,合同会社,埼玉県,狭山市,富士見１丁目２７番地２５号アマン富士見２０３号室,,11,215,3501306,,,,,,,2024-02-22,1,,,,,デラトーレ,0
1400,6040001132287,新規,0,2024-02-22,2024-02-22,東宇国際株式会社,,株式会社,千葉県,鎌ケ谷市,東鎌ケ谷２丁目７番８９号,,12,224,2730104,,,,,,,2024-02-22,1,,,,,トウウコクサイ,0
1403,6040003024359,新規,0,2024-02-22,2024-02-22,ＫＯＹＯ　ＩＮＴＥＲＮＡＴＩＯＮＡＬ合同会社,,合同会社,千葉県,山武市,麻生新田１５４番地５８,,12,237,2891203,,,,,,,2024-02-22,1,,,,,コーヨーインターナショナル,0
1407,6070001041411,新規,0,2024-02-22,2024-02-22,株式会社スンバーレジェキ,,株式会社,群馬県,高崎市,田町１１９番地１シティハイム田町１０４号,,10,202,3700824,,,,,,,2024-02-22,1,,,,,スンバーレジェキ,0
1426,6120001262522,新規,0,2024-02-22,2024-02-22,株式会社ＫＯＴＯＢＵＫＩ,,株式会社,大阪府,大阪市西区,新町３丁目６番１９－９０４号,,27,106,5500013,,,,,,,2024-02-22,1,,,,,コトブキ,0
1427,6120001262530,新規,0,2024-02-22,2024-02-22,蓉遥株式会社,,株式会社,大阪府,大阪市大正区,三軒家西３丁目４番１６号中山ビル２０２Ａ,,27,108,5510001,,,,,,,2024-02-22,1,,,,,ヨウヨウ,0
1428,6120001262588,新規,0,2024-02-22,2024-02-22,株式会社ＭｏｄｕＭ,,株式会社,大阪府,大阪市北区,南森町２丁目３番１３号,,27,127,5300054,,,,,,,2024-02-22,1,,,,,モーダム,0
1432,6120003025984,新規,0,2024-02-22,2024-02-22,ＫＹＫアセットコンサルティング合同会社,,合同会社,大阪府,大阪市淀川区,三国本町２丁目１３番１７－４０２号,,27,123,5320005,,,,,,,2024-02-22,1,,,,,ケーワイケーアセットコンサルティング,0
1433,6120005024175,新規,0,2024-02-22,2024-02-22,ＨＡＳＬ協同組合,,その他の設立登記法人,大阪府,大阪市西区,新町４丁目２１番７号児玉ビル４階,,27,106,5500013,,,,,,,2024-02-22,1,,,,,ハスル,0
1440,6130003009276,新規,0,2024-02-22,2024-02-22,合同会社ｓｌｅｅｐｙ　ｅｙｅｓ,,合同会社,京都府,京都市下京区,七条通油小路東入大黒町２２７番地第２キョートビル４０２,,26,106,6008223,,,,,,,2024-02-22,1,,,,,スリーピーアイズ,0
1441,6130005017013,新規,0,2024-02-22,2024-02-22,一般社団法人ＶＩＶＴＯＰＥ,,その他の設立登記法人,京都府,京都市左京区,吉田上大路町１９番地６,,26,103,6068312,,,,,,,2024-02-22,1,,,,,ヴィヴトープ,0
1443,6140001133408,新規,0,2024-02-22,2024-02-22,株式会社ＡＫＯＮＩＲ・ＣＯＳＭＥＴＩＣＳ,,株式会社,兵庫県,姫路市,北条８８４番地２,,28,201,6700947,,,,,,,2024-02-22,1,,,,,アコニルコスメティックス,0
1444,6140001133416,新規,0,2024-02-22,2024-02-22,株式会社フォルトナ,,株式会社,兵庫県,神戸市須磨区,多井畑南町３番地の５デルフィオーレ須磨６０１,,28,107,6540132,,,,,,,2024-02-22,1,,,,,フォルトナ,0
1445,6140001133424,新規,0,2024-02-22,2024-02-22,株式会社Ｋｉｃｈｏ,,株式会社,兵庫県,神戸市中央区,琴ノ緒町４丁目８番７号,,28,110,6510094,,,,,,,2024-02-22,1,,,,,キチョウ,0
1446,6140003020190,新規,0,2024-02-22,2024-02-22,合同会社吉本畜産,00133816,合同会社,兵庫県,三田市,長坂６２７番地５,,28,219,6691355,,,,,,,2024-02-22,1,,,,,ホンチクサン,0
1447,6150001027096,新規,0,2024-02-22,2024-02-22,ＴＳＵＮＡＧＵ株式会社,,株式会社,奈良県,香芝市,上中３０６番地１,,29,210,6390265,,,,,,,2024-02-22,1,,,,,ツナグ,0
1448,6150003003186,新規,0,2024-02-22,2024-02-22,合同会社サウスコーポ,,合同会社,奈良県,香芝市,磯壁１丁目９１６番地１,,29,210,6390236,,,,,,,2024-02-22,1,,,,,サウスコーポ,0
1450,6170003001989,新規,0,2024-02-22,2024-02-22,合同会社はなむけ,,合同会社,和歌山県,田辺市,新庄町１８８６－７,,30,206,6460011,,,,,,,2024-02-22,1,,,,,ハナムケ,0
1453,6180001159894,新規,0,2024-02-22,2024-02-22,株式会社ＫＴＳ,,株式会社,愛知県,名古屋市港区,九番町５丁目２、エミール１ｓｔ４０５号,,23,111,4550008,,,,,,,2024-02-22,1,,,,,ケーティーエス,0
1454,6180001160233,新規,0,2024-02-22,2024-02-22,ＢＲＡＩＮ　ＤＩＶＥ株式会社,,株式会社,愛知県,名古屋市中村区,名駅３丁目４番１０号アルティメイト名駅１ｓｔ　２階,,23,105,4500002,,,,,,,2024-02-22,1,,,,,ブレインダイブ,0
1458,6180003026358,新規,0,2024-02-22,2024-02-22,合同会社Ｐ‐ＳＴＹＬＥ,,合同会社,愛知県,名古屋市熱田区,千年１丁目２３番２４号グランレジデンス熱田の宮４０５号,,23,109,4560054,,,,,,,2024-02-22,1,,,,,ピースタイル,0
1459,6180003026399,新規,0,2024-02-22,2024-02-22,ＰｈｏＳｅｖｅｎ合同会社,,合同会社,愛知県,小牧市,小牧５丁目７０３番地,,23,219,4850041,,,,,,,2024-02-22,1,,,,,フォーセブン,0
1464,6190001031128,新規,0,2024-02-22,2024-02-22,株式会社リーセンス,,株式会社,三重県,三重郡菰野町,大字下村１７９番地３,,24,341,5101225,,,,,,,2024-02-22,1,,,,,リーセンス,0
1465,6190003004593,新規,0,2024-02-22,2024-02-22,合同会社清光,,合同会社,三重県,四日市市,諏訪栄町４番１０号アピカビル３Ｆ,,24,202,5100086,,,,,,,2024-02-22,1,,,,,セイコウ,0
1466,6200001042189,新規,0,2024-02-22,2024-02-22,ｔ‐ｗｏｏｄｓ．株式会社,,株式会社,岐阜県,加茂郡川辺町,下吉田７４３－２,,21,503,5090311,,,,,,,2024-02-22,1,,,,,ティーウッズ,0
1471,6250003003440,新規,0,2024-02-22,2024-02-22,合同会社みや,,合同会社,山口県,宇部市,黒石北２丁目１番地３４号,,35,202,7590213,,,,,,,2024-02-22,1,,,,,ミヤ,0
1477,6260005011317,新規,0,2024-02-22,2024-02-22,特定非営利活動法人ふいご,,その他の設立登記法人,岡山県,真庭郡新庄村,１０９９番地３,,33,586,7170201,,,,,,,2024-02-22,1,,,,,フイゴ,0
1480,6290001007968,新規,0,2024-02-22,2024-02-22,株式会社新川興産,,株式会社,福岡県,福岡市中央区,平尾３丁目１番６号,,40,133,8100014,,,,,,,2024-02-22,1,,,,,,0
1483,6290001104773,新規,0,2024-02-22,2024-02-22,株式会社ＫＳマネジメント,,株式会社,福岡県,福岡市博多区,祇園町８番１２号,,40,132,8120038,,,,,,,2024-02-22,1,,,,,ケーエスマネジメント,0
1484,6290001104798,新規,0,2024-02-22,2024-02-22,株式会社ｓｏｕ,,株式会社,福岡県,福岡市博多区,博多駅東２丁目４－１７第６岡部ビル５－Ａ,,40,132,8120013,,,,,,,2024-02-22,1,,,,,ソウ,0
1485,6290001104815,新規,0,2024-02-22,2024-02-22,ａｒａｒａｔｏ株式会社,,株式会社,福岡県,福岡市博多区,博多駅東１丁目１番３３号はかた近代ビル,,40,132,8120013,,,,,,,2024-02-22,1,,,,,アララト,0
1488,6290003014987,新規,0,2024-02-22,2024-02-22,合同会社ｐｒｏｊｅｃｔ　ＧＵＭＰＴＩＯＮＳ,,合同会社,福岡県,福岡市東区,香椎４丁目１５番２１香椎宮前ビル３階,,40,131,8130011,,,,,,,2024-02-22,1,,,,,プロジェクトガンプションズ,0
1489,6290801030343,新規,0,2024-02-22,2024-02-22,株式会社ＦａｉＲＥＥ,,株式会社,福岡県,北九州市小倉北区,浅野３丁目８番１号ＡＩＭビル６階,,40,106,8020001,,,,,,,2024-02-22,1,,,,,ファイリー,0
1492,6310001018871,新規,0,2024-02-22,2024-02-22,株式会社ｍｉｓｏｌａ　ｐｈａｒｍａｃｙ,,株式会社,長崎県,大村市,坂口町８０３番地２,,42,205,8560028,,,,,,,2024-02-22,1,,,,,ミソラファーマシー,0
1497,6340001026310,新規,0,2024-02-22,2024-02-22,株式会社福永家畜医院,,株式会社,鹿児島県,鹿屋市,輝北町市成１１４６番地３,,46,203,8998511,,,,,,,2024-02-22,1,,,,,フクナガカチクイイン,0
1503,6350005006217,新規,0,2024-02-22,2024-02-22,都農町ひょうすんぼ協同組合,,その他の設立登記法人,宮崎県,児湯郡都農町,大字川北３７６４,,45,406,8891201,,,,,,,2024-02-22,1,,,,,ツノチョウヒョウスンボ,0
1504,6360001033222,新規,0,2024-02-22,2024-02-22,株式会社ｃｌｕｂ　ＮＡＨＡ,,株式会社,沖縄県,那覇市,松山１丁目５番１号,,47,201,9000032,,,,,,,2024-02-22,1,,,,,クラブナハ,0
1514,6400003003219,新規,0,2024-02-22,2024-02-22,北岩手夢あかり合同会社,,合同会社,岩手県,盛岡市,下田字古河川原４４８番地１,,03,201,0284134,,,,,,,2024-02-22,1,,,,,キタイワテユメアカリ,0
1515,6400005008397,新規,0,2024-02-22,2024-02-22,一般財団法人橋市三恩育英会,,その他の設立登記法人,岩手県,盛岡市,夕顔瀬町９番１７号,,03,201,0200032,,,,,,,2024-02-22,1,,,,,ハシイチサンオンイクエイカイ,0
1520,6460105002278,新規,0,2024-02-22,2024-02-22,農事組合法人グロウサポート,,その他の設立登記法人,北海道,帯広市,東十四条南６丁目１－９,,01,207,0800814,,,,,,,2024-02-22,1,,,,,グロウサポート,0
1523,6470003002585,新規,0,2024-02-22,2024-02-22,アヴェック合同会社,,合同会社,香川県,高松市,西ハゼ町４６番地３,,37,201,7618053,,,,,,,2024-02-22,1,,,,,アヴェック,0
1524,6700150122476,新規,0,2024-02-22,2024-02-22,Ｓｈｅｎｚｈｅｎｓｈｉａｉｐａｉｓｈｅｇｕａｎｇｄｉａｎｋｅｊｉｙｏｕｘｉａｎｇｏｎｇｓｉ,,外国会社等,,,,,,,,Ｒｏｏｍ　５０３，Ｕｎｉｔ　２，５ＦＬ　Ｂｕｉｌｄｉｎｇ　２，Ｇｕａｎｇ　ｈｕｉ　ｋｅ　ｊｉ　ｙｕａｎ　Ｍｉｎ　ｑｉｎｇ　Ｒｏａｄ，Ｆｕ　ｋａｎｇ　ｓｈｅ　ｑｕ　ｌｏｎｇ　ｈｕａ　Ｓｔｒｅｅｔ　Ｌｏｎｇｈｕａ　Ｓｈｅｎｚｈｅｎ　Ｇｕｎｇｄｏｎｇ,,,,,,2024-02-22,1,,,,,シエンジエンシアイパイシヨアグワンデイエンコアジヨウシエンゴンス,0
1525,6700150123573,新規,0,2024-02-22,2024-02-22,Ｓｈｅｎｚｈｅｎ　Ｒｕｉｆｅｎｇｃｈｅｎ　Ｔｅｃｈｎｏｌｏｇｙ　Ｃｏ．，Ｌｔｄ．,,外国会社等,,,,,,,,４ｔｈ　ｆｌｏｏｒ　Ｃ７２，Ｌｉａｎｈｕｉ　Ｂｕｉｌｄｉｎｇ，Ｎｏ．５，Ｘｉｎｗａｎ　Ｖｉｌｌａｇｅ，Ｓａｎｌｉａｎ　Ｃｏｍｍｕｎｉｔｙ，Ｌｏｎｇｈｕａ　Ｓｔｒｅｅｔ，Ｌｏｎｇｈｕａ　Ｄｉｓｔｒｉｃｔ，Ｓｈｅｎｚｈｅｎ,,,,,,2024-02-22,1,,,,,シエンジエンシールイフオンチエンコージーヨウシエンゴンスー,0
1526,6700150123581,新規,0,2024-02-22,2024-02-22,Ｈｕｎａｎ　Ｐｒｏｖｉｎｃｅ　Ｃｈｕａｎｇｎｕｏ　ｅｃｏｍｍｅｒｃｅ　ＣＯ．，ＬＴＤ,,外国会社等,,,,,,,,Ｌｅｎｇｓｈｕｉｊｉａｎｇ　Ｃｉｔｙ　Ｌｅｎｇｓｈｕｉｊｉａｎｇ　Ｓｔｒｅｅｔ　Ａｎｔｉｍｏｎｙ　Ｄｕｚｈｏｎｇ　ｒｏａｄ　ｆｉｌｍ　ａｎｄ　ｔｅｌｅｖｉｓｉｏｎ　ｉｎｔｅｒｎａｔｉｏｎａｌ　ｂｕｓｉｎｅｓｓ　Ｒｏｏｍ　１３０９，１３ｔｈ　ｆｌｏｏｒ，Ｃｅｎｔｅｒ　Ｂｕｉｌｄｉｎｇ　－　Ｚｏｎｅ　８,,,,,,2024-02-22,1,,,,,フーナンシヨンチユワンヌオデイエンズーシヤンウーヨウシエンゴンスー,0
1527,6700150123722,新規,0,2024-02-22,2024-02-22,Ｔｏｗｅｎ　Ｃｏ．，Ｌｔｄ．,,外国会社等,,,,,,,,Ｎｏ．２３，Ｓｅｃ．２，Ｙａｎｈａｉ　Ｒｄ．Ｆｕｘｉｎｇ　ＴｏｗｎｓｈｉｐＣｈａｎｇｈｕａ　Ｃｏｕｎｔｙ５０６４５ＴＷ,,,,,,2024-02-22,1,,,,,ロンジエンコージーヨウシエンゴンスー,0
1528,6700150124126,新規,0,2024-02-22,2024-02-22,オブデュキャット　ジャパン,,外国会社等,東京都,港区,六本木１丁目１０番３－９０１号,,13,103,1060032,Ｎｙｔａｎｋａｒｇａｔａｎ　４，ＳＥ－２２３　６３　Ｌｕｎｄ，Ｓｗｅｄｅｎ,,,,,,2024-02-22,1,,,,,オブデユキヤツトジヤパン,0
1536,7010001242468,新規,0,2024-02-22,2024-02-22,ＥＮＥＯＳアメニティ株式会社,,株式会社,東京都,千代田区,大手町１丁目５番１号大手町ファーストスクエアイーストタワー４階,,13,101,1000004,,,,,,,2024-02-22,1,,,,,エネオスアメニティ,0
1537,7010001242501,新規,0,2024-02-22,2024-02-22,ＤＡＹＳパートナー株式会社,,株式会社,東京都,千代田区,大手町１丁目９番６号,,13,101,1000004,,,,,,,2024-02-22,1,,,,,デイズパートナー,0
1538,7010001242526,新規,0,2024-02-22,2024-02-22,株式会社マンション共創コンサルタンツ,,株式会社,東京都,千代田区,神田佐久間町３丁目２７番地３,,13,101,1010025,,,,,,,2024-02-22,1,,,,,マンションキョウソウコンサルタンツ,0
1539,7010001242542,新規,0,2024-02-22,2024-02-22,ホノルル・イーストサイド・アセット・マネジメント株式会社,,株式会社,東京都,千代田区,三番町３０番地６－６０６,,13,101,1020075,,,,,,,2024-02-22,1,,,,,ホノルルイーストサイドアセットマネジメント,0
1540,7010001242559,新規,0,2024-02-22,2024-02-22,株式会社アクト,,株式会社,東京都,文京区,湯島４丁目６－１２－１０１８,,13,105,1130034,,,,,,,2024-02-22,1,,,,,アクト,0
1541,7010001242583,新規,0,2024-02-22,2024-02-22,株式会社ライズホールディングス,,株式会社,東京都,千代田区,一番町５番地アトラスビル,,13,101,1020082,,,,,,,2024-02-22,1,,,,,ライズホールディングス,0
1545,7010003043006,新規,0,2024-02-22,2024-02-22,合同会社デジカケ,,合同会社,東京都,千代田区,神田和泉町１番地６－１６ヤマトビル４０５,,13,101,1010024,,,,,,,2024-02-22,1,,,,,デジカケ,0
1546,7010003043022,新規,0,2024-02-22,2024-02-22,アマリリス合同会社,,合同会社,東京都,中央区,東日本橋１丁目２番１０号,,13,102,1030004,,,,,,,2024-02-22,1,,,,,アマリリス,0
1547,7010003043030,新規,0,2024-02-22,2024-02-22,合同会社Ｇ‐ＬＩＡＩＳＯＮ,,合同会社,東京都,中央区,日本橋室町１丁目１１－１２日本橋水野ビル７階,,13,102,1030022,,,,,,,2024-02-22,1,,,,,ジーリエゾン,0
1548,7010101016020,新規,0,2024-02-22,2024-02-22,株式会社ＨＯＮＥＳＴ,,株式会社,東京都,八王子市,富士見町２０番１６号２,,13,201,1920044,,,,,,,2024-02-22,1,,,,,オネスト,0
1553,7010401180540,新規,0,2024-02-22,2024-02-22,Ｌｏｇｔｅｃ　Ｊａｐａｎ　Ｌｉｍｉｔｅｄ株式会社,,株式会社,東京都,港区,元麻布３丁目１番６号,,13,103,1060046,,,,,,,2024-02-22,1,,,,,ログテックジャパンリミテッド,0
1554,7010401180549,新規,0,2024-02-22,2024-02-22,株式会社ｓｅｉ　ｓｅｍｐｒｅ　ｓｕｌ　ｐｅｚｚｏ,,株式会社,東京都,港区,北青山３丁目６番７号青山パラシオタワー１１階,,13,103,1070061,,,,,,,2024-02-22,1,,,,,セイセンプレスペッツォ,0
1555,7010401180598,新規,0,2024-02-22,2024-02-22,株式会社ＴＬＡ,,株式会社,東京都,港区,六本木７丁目７番７号ＴＲＩ－ＳＥＶＥＮＲＯＰＰＯＮＧＩ８Ｆ,,13,103,1060032,,,,,,,2024-02-22,1,,,,,ティーエルエイ,0
1556,7010401180607,新規,0,2024-02-22,2024-02-22,東東株式会社,,株式会社,東京都,港区,三田２丁目１番２８号,,13,103,1080073,,,,,,,2024-02-22,1,,,,,トウトウ,0
1562,7010501051831,新規,0,2024-02-22,2024-02-22,株式会社ヒヲトモス,,株式会社,東京都,台東区,浅草１丁目１３番５号,,13,106,1110032,,,,,,,2024-02-22,1,,,,,ヒヲトモス,0
1565,7010503007352,新規,0,2024-02-22,2024-02-22,Ｔｒａｎｓ　ｃｒｅａｔｉｏｎ合同会社,,合同会社,東京都,台東区,元浅草４丁目３番１３号クラヴィール上野田原町１０３号室,,13,106,1110041,,,,,,,2024-02-22,1,,,,,トランスクリエーション,0
1570,7010703007061,新規,0,2024-02-22,2024-02-22,ＲＤＶ　Ｋｙｏｔｏ合同会社,,合同会社,東京都,品川区,上大崎１丁目１１番７号,,13,109,1410021,,,,,,,2024-02-22,1,,,,,アールディーブイキョウト,0
1571,7010803004859,新規,0,2024-02-22,2024-02-22,合同会社ＴＯＭコンサル,,合同会社,東京都,大田区,羽田３丁目１２番１７号コーポ羽田１０３,,13,111,1440043,,,,,,,2024-02-22,1,,,,,トムコンサル,0
1576,7010901054756,新規,0,2024-02-22,2024-02-22,株式会社ａｉａｉｏｈ,,株式会社,東京都,世田谷区,弦巻４丁目２７番５号,,13,112,1540016,,,,,,,2024-02-22,1,,,,,エイエイオー,0
1577,7010903008842,新規,0,2024-02-22,2024-02-22,合同会社Ｓｔｒｏｎｇｈｏｌｄ＆Ｆｒｉｅｎｄｓ,,合同会社,東京都,世田谷区,上用賀６丁目７番１５号,,13,112,1580098,,,,,,,2024-02-22,1,,,,,ストロングホールドアンドフレンズ,0
1583,7011001160065,新規,0,2024-02-22,2024-02-22,株式会社ＩＭＫ　Ｒｕｓｓｅｌｌ,,株式会社,東京都,渋谷区,神宮前５丁目５０番５号,,13,113,1500001,,,,,,,2024-02-22,1,,,,,アイエムケーラッセル,0
1584,7011001160148,新規,0,2024-02-22,2024-02-22,Ｌｅａｐｉｆｙ株式会社,,株式会社,東京都,渋谷区,道玄坂１丁目１０番８号渋谷道玄坂東急ビル２Ｆ－Ｃ,,13,113,1500043,,,,,,,2024-02-22,1,,,,,リーピファイ,0
1585,7011001160189,新規,0,2024-02-22,2024-02-22,東京易和順株式会社,,株式会社,東京都,渋谷区,代々木４丁目２３番５号,,13,113,1510053,,,,,,,2024-02-22,1,,,,,トウキョウイワジュン,0
1591,7011003018492,新規,0,2024-02-22,2024-02-22,合同会社Ｍｉｌｌｉｏｎ　Ｄｏｌｌａｒ　Ｈｅｒｏｅｓ,,合同会社,東京都,渋谷区,神泉町１０番１５号アネックス神泉３０１,,13,113,1500045,,,,,,,2024-02-22,1,,,,,ミリオンダラーヒーローズ,0
1592,7011003018534,新規,0,2024-02-22,2024-02-22,合同会社ＫＦＭ,,合同会社,東京都,渋谷区,代々木４丁目３０番５号フェニックス西参道タワー１９０４,,13,113,1510053,,,,,,,2024-02-22,1,,,,,,0
1597,7011101106257,新規,0,2024-02-22,2024-02-22,株式会社ノートエンド,,株式会社,東京都,新宿区,西新宿３丁目３番１３号西新宿水間ビル６階,,13,104,1600023,,,,,,,2024-02-22,1,,,,,ノートエンド,0
1598,7011101106281,新規,0,2024-02-22,2024-02-22,Ｚｅｒｏ　Ｓｐａｃｅ株式会社,,株式会社,東京都,新宿区,西新宿８丁目１１番１０号星野ビル３階,,13,104,1600023,,,,,,,2024-02-22,1,,,,,ゼロスペース,0
1599,7011103014111,新規,0,2024-02-22,2024-02-22,芝浦ホテルマネジメント合同会社,,合同会社,東京都,新宿区,西新宿１丁目２６番２号,,13,104,1600023,,,,,,,2024-02-22,1,,,,,シバウラホテルマネジメント,0
1605,7011303005067,新規,0,2024-02-22,2024-02-22,高田商店合同会社,,合同会社,東京都,杉並区,荻窪３丁目７番５０号シティテラス荻窪エアーズコート２１２,,13,115,1670051,,,,,,,2024-02-22,1,,,,,タカダショウテン,0
1607,7011501030362,新規,0,2024-02-22,2024-02-22,万住研株式会社,,株式会社,東京都,北区,上十条４丁目２番１６－７０８号ハイホーム十条ヴェルデ館,,13,117,1140034,,,,,,,2024-02-22,1,,,,,マンジュウケン,0
1612,7011801043824,新規,0,2024-02-22,2024-02-22,株式会社ＹＩＬＴＩＺ,,株式会社,東京都,足立区,新田３丁目３７番１１－２２９号,,13,121,1230865,,,,,,,2024-02-22,1,,,,,イリテズ,0
1616,7012401041540,新規,0,2024-02-22,2024-02-22,株式会社マーコールライフ,,株式会社,東京都,武蔵野市,境南町３丁目２番１３号,,13,203,1800023,,,,,,,2024-02-22,1,,,,,マーコールライフ,0
1617,7012401041565,新規,0,2024-02-22,2024-02-22,株式会社ＤＣ‐ｓｕｐｐｏｒｔ,,株式会社,東京都,武蔵野市,吉祥寺本町１丁目１３番２号シラカバビル５階,,13,203,1800004,,,,,,,2024-02-22,1,,,,,ディーシーサポート,0
1618,7013103001312,新規,0,2024-02-22,2024-02-22,合同会社ＫＵＲＥＮＡＩＰｒｏｄｕｃｔｉｏｎ,,合同会社,東京都,青梅市,大門３丁目１１－４９,,13,205,1980014,,,,,,,2024-02-22,1,,,,,,0
1626,7020001155900,新規,0,2024-02-22,2024-02-22,株式会社Ｒｅｆｉｎｅ,,株式会社,神奈川県,横浜市磯子区,中原３丁目１１番３４号,,14,107,2350036,,,,,,,2024-02-22,1,,,,,リファイン,0
1630,7020003025597,新規,0,2024-02-22,2024-02-22,合同会社ＬＥＧＡＬＩＳＳ,,合同会社,神奈川県,川崎市中原区,井田２丁目７番４３号ジョイフルオークラＮＯ．２７－１０１,,14,133,2110035,,,,,,,2024-02-22,1,,,,,レガリス,0
1631,7020003025606,新規,0,2024-02-22,2024-02-22,合同会社３６５ｄｅｓｉｇｎｓｔｕｄｉｏ,,合同会社,神奈川県,横浜市都筑区,中川中央１丁目３０番１号,,14,118,2240003,,,,,,,2024-02-22,1,,,,,サンロクゴデザインスタジオ,0
1636,7021003014177,新規,0,2024-02-22,2024-02-22,合同会社やゆよ,,合同会社,神奈川県,鎌倉市,稲村ガ崎４丁目４番１０号,,14,204,2480024,,,,,,,2024-02-22,1,,,,,ヤユヨ,0
1637,7021005013029,新規,0,2024-02-22,2024-02-22,一般社団法人いざなぎ会,,その他の設立登記法人,神奈川県,相模原市緑区,橋本８丁目２２番１３号,,14,151,2520143,,,,,,,2024-02-22,1,,,,,イザナギカイ,0
1644,7030001158803,新規,0,2024-02-22,2024-02-22,株式会社あさひ新日本ホールディングス,,株式会社,埼玉県,春日部市,大沼４丁目１番地,,11,214,3440038,,,,,,,2024-02-22,1,,,,,アサヒシンニホンホールディングス,0
1645,7030001158844,新規,0,2024-02-22,2024-02-22,明心コンサルティング株式会社,,株式会社,埼玉県,さいたま市中央区,鈴谷４丁目１９番２０号びゅうパルク南与野弐番館１０１号,,11,105,3380013,,,,,,,2024-02-22,1,,,,,メイシンコンサルティング,0
1646,7030001158852,新規,0,2024-02-22,2024-02-22,株式会社金弘産業,,株式会社,埼玉県,北本市,石戸宿５丁目１８１番地１,,11,233,3640025,,,,,,,2024-02-22,1,,,,,カネヒロサンギョウ,0
1649,7030003023682,新規,0,2024-02-22,2024-02-22,合同会社なお会計サービス,,合同会社,埼玉県,さいたま市大宮区,桜木町１丁目３７８番地６Ｆ－２５,,11,103,3300854,,,,,,,2024-02-22,1,,,,,ナオカイケイサービス,0
1661,7040003024325,新規,0,2024-02-22,2024-02-22,吉栄合同会社,00133812,合同会社,千葉県,市川市,曽谷６丁目３番１０号,,12,203,2720832,,,,,,,2024-02-22,1,,,,,ヨシエイ,0
1663,7050001054331,新規,0,2024-02-22,2024-02-22,株式会社根本薬局,,株式会社,茨城県,牛久市,南２丁目１番地１１,,08,219,3001222,,,,,,,2024-02-22,1,,,,,ネモトヤッキョク,0
1664,7050003008153,新規,0,2024-02-22,2024-02-22,日本バルブ＆フィッティング合同会社,,合同会社,茨城県,龍ケ崎市,白羽１丁目１２番地１１,,08,208,3010841,,,,,,,2024-02-22,1,,,,,ニホンバルブアンドフィッティング,0
1668,7070001041427,新規,0,2024-02-22,2024-02-22,株式会社スリーサムパートナーズ,,株式会社,群馬県,前橋市,樋越町７８６番地６,,10,201,3710221,,,,,,,2024-02-22,1,,,,,スリーサムパートナーズ,0
1669,7080001026138,新規,0,2024-02-22,2024-02-22,日洋国際貿易株式会社,,株式会社,静岡県,静岡市清水区,江尻東２丁目２番２４号,,22,103,4240815,,,,,,,2024-02-22,1,,,,,ニチヨウコクサイボウエキ,0
1676,7110003005301,新規,0,2024-02-22,2024-02-22,合同会社吉神,,合同会社,新潟県,新潟市西蒲区,間瀬６１５番地６,,15,108,9530105,,,,,,,2024-02-22,1,,,,,キッシン,0
1687,7120001262331,新規,0,2024-02-22,2024-02-22,株式会社アベルテ,,株式会社,大阪府,大阪市阿倍野区,西田辺町１丁目２０番９号パルティール２０２号,,27,119,5450014,,,,,,,2024-02-22,1,,,,,アベルテ,0
1689,7120001262546,新規,0,2024-02-22,2024-02-22,天辰株式会社,,株式会社,大阪府,大阪市旭区,生江３丁目４－２０－３Ｃ,,27,117,5350004,,,,,,,2024-02-22,1,,,,,アマタツ,0
1690,7120001262579,新規,0,2024-02-22,2024-02-22,株式会社Ｒａｉｌｙ．,,株式会社,大阪府,大阪市住之江区,御崎５丁目１０番９号,,27,125,5590013,,,,,,,2024-02-22,1,,,,,レイリードット,0
1691,7120001262604,新規,0,2024-02-22,2024-02-22,株式会社Ｉｎｄｉｖｉｄｕａｌ　Ｑ,,株式会社,大阪府,大阪市西区,京町堀１丁目８－２４－６０１,,27,106,5500003,,,,,,,2024-02-22,1,,,,,インディビジュアルキュー,0
1698,7122003002806,新規,0,2024-02-22,2024-02-22,合同会社Ｌ,,合同会社,大阪府,四條畷市,岡山東３丁目７番９号,,27,229,5750003,,,,,,,2024-02-22,1,,,,,エル,0
1703,7130001076375,新規,0,2024-02-22,2024-02-22,株式会社ＪＥＷＥＬ,,株式会社,京都府,京都市左京区,粟田口鳥居町４６番１,,26,103,6068436,,,,,,,2024-02-22,1,,,,,ジュエル,0
1710,7160001025701,新規,0,2024-02-22,2024-02-22,株式会社ＬＧＯ,,株式会社,滋賀県,彦根市,大藪町６７番地９,,25,202,5220053,,,,,,,2024-02-22,1,,,,,エルジーオー,0
1711,7170003001988,新規,0,2024-02-22,2024-02-22,合同会社ＹＫコーポレーション,,合同会社,和歌山県,和歌山市,有本５８２番地１、１１１号,,30,201,6408390,,,,,,,2024-02-22,1,,,,,ワイケイコーポレーション,0
1717,7180001160208,新規,0,2024-02-22,2024-02-22,株式会社ＴＳＳ,,株式会社,愛知県,半田市,長根町１丁目２６番地の１,,23,205,4750074,,,,,,,2024-02-22,1,,,,,ティーエスエス,0
1718,7180001160249,新規,0,2024-02-22,2024-02-22,株式会社アクシュ,,株式会社,愛知県,豊明市,三崎町ゆたか台１９番地１４,,23,229,4701127,,,,,,,2024-02-22,1,,,,,アクシュ,0
1719,7180001160257,新規,0,2024-02-22,2024-02-22,株式会社ｇｒａｔｉａ,,株式会社,愛知県,清須市,寺野元町２１５番地１,,23,233,4520908,,,,,,,2024-02-22,1,,,,,グラーティア,0
1720,7180001160273,新規,0,2024-02-22,2024-02-22,株式会社ＭｉｅｕｘＸ,,株式会社,愛知県,名古屋市昭和区,緑町１丁目７番地,,23,107,4660013,,,,,,,2024-02-22,1,,,,,ミューズ,0
1724,7180003026407,新規,0,2024-02-22,2024-02-22,合同会社Ｊｕｂｉｌａｎｔ,,合同会社,愛知県,江南市,赤童子町福住１８２番地ゴールドハイツ２０２号,,23,217,4838165,,,,,,,2024-02-22,1,,,,,ジュビラント,0
1725,7180003026415,新規,0,2024-02-22,2024-02-22,合同会社ワイズワン愛知,,合同会社,愛知県,名古屋市中区,栄２丁目３番１号名古屋広小路ビルヂング１７階,,23,106,4600008,,,,,,,2024-02-22,1,,,,,ワイズワンアイチ,0
1730,7190003004592,新規,0,2024-02-22,2024-02-22,ＴＥＳ合同会社,,合同会社,三重県,四日市市,日永３丁目７番２３号,,24,202,5100885,,,,,,,2024-02-22,1,,,,,ティーイーエス,0
1732,7200001042188,新規,0,2024-02-22,2024-02-22,株式会社ａｆｔｃｒａｆｔ,,株式会社,岐阜県,大垣市,割田２丁目１３３番地２,,21,202,5030953,,,,,,,2024-02-22,1,,,,,アフトクラフト,0
1739,7230001020224,新規,0,2024-02-22,2024-02-22,株式会社Ｆ＆Ｌ,,株式会社,富山県,富山市,桜橋通り３番１号富山電気ビル本館２階,,16,201,9300004,,,,,,,2024-02-22,1,,,,,エフアンドエル,0
1742,7240003006550,新規,0,2024-02-22,2024-02-22,合同会社桜,,合同会社,広島県,江田島市,能美町高田４０３３番地５,,34,215,7372303,,,,,,,2024-02-22,1,,,,,サクラ,0
1743,7260002028040,新規,0,2024-02-22,2024-02-22,有限会社片山食品,,有限会社,岡山県,久米郡久米南町,神目中２２５番地,,33,663,7093627,,,,,,,2024-02-22,1,,,,,カタヤマショクヒン,0
1768,7290001104698,新規,0,2024-02-22,2024-02-22,株式会社ＨＭ　ｐｌｕｓ,,株式会社,福岡県,福岡市南区,塩原１丁目２０番３０号１Ｆ,,40,134,8150032,,,,,,,2024-02-22,1,,,,,エイチエムプラス,0
1769,7290001104780,新規,0,2024-02-22,2024-02-22,株式会社中谷ＨＤ,,株式会社,福岡県,福岡市博多区,山王１丁目１５番２２号,,40,132,8120015,,,,,,,2024-02-22,1,,,,,ナカタニエイチディ,0
1770,7290001104797,新規,0,2024-02-22,2024-02-22,株式会社丸山設備,,株式会社,福岡県,久留米市,大善寺町夜明１１５６番地２,,40,203,8300074,,,,,,,2024-02-22,1,,,,,マルヤマセツビ,0
1772,7300001013625,新規,0,2024-02-22,2024-02-22,山下農畜株式会社,,株式会社,佐賀県,杵島郡江北町,大字八町１７３８番地,,41,424,8490504,,,,,,,2024-02-22,1,,,,,ヤマシタノウチク,0
1773,7310003004720,新規,0,2024-02-22,2024-02-22,合同会社ＪＢｅａｕｔｙＧｏｏｄｓ,,合同会社,長崎県,佐世保市,棚方町１２０番地８６,,42,202,8580907,,,,,,,2024-02-22,1,,,,,ジェイビューティーグッズ,0
1775,7320001020306,新規,0,2024-02-22,2024-02-22,株式会社三坂,,株式会社,大分県,豊後大野市,三重町百枝２９１３番地１,,44,212,8797152,,,,,,,2024-02-22,1,,,,,ミサカ,0
1776,7330001031780,新規,0,2024-02-22,2024-02-22,株式会社ＭＡＲＵＧＯ,,株式会社,熊本県,合志市,幾久富１８６６番地１７２３,,43,216,8611112,,,,,,,2024-02-22,1,,,,,マルゴ,0
1780,7360005006990,新規,0,2024-02-22,2024-02-22,宗教法人那覇福音自由教会,,その他の設立登記法人,沖縄県,那覇市,首里桃原町１丁目９番地球陽マンション首里ハイツ１階,,47,201,9030822,,,,,,,2024-02-22,1,,,,,ナハフクインジユウキョウカイ,0
1781,7370001050950,新規,0,2024-02-22,2024-02-22,株式会社マノ,,株式会社,宮城県,大崎市,三本木字しらとり９番地４,,04,215,9896321,,,,,,,2024-02-22,1,,,,,マノ,0
1789,7420001018604,新規,0,2024-02-22,2024-02-22,株式会社ＫＣエレコン,,株式会社,青森県,上北郡野辺地町,字石神裏１４番地７７,,02,401,0393111,,,,,,,2024-02-22,1,,,,,ケーシーエレコン,0
1792,7430001091138,新規,0,2024-02-22,2024-02-22,株式会社ＢＲＡＶＥ　ＣＯＭＰＡＮＹ,,株式会社,北海道,札幌市東区,北二十八条東５丁目２番２２－２０３号,,01,103,0650028,,,,,,,2024-02-22,1,,,,,ブレイブカンパニー,0
1796,7430005014904,新規,0,2024-02-22,2024-02-22,農事組合法人アグリ札幌,,その他の設立登記法人,北海道,札幌市中央区,北三条西３０丁目１－１６ブローニュ宮の森３０１,,01,101,0640823,,,,,,,2024-02-22,1,,,,,アグリサッポロ,0
1801,7460105002277,新規,0,2024-02-22,2024-02-22,農事組合法人ＫＭＩ,,その他の設立登記法人,北海道,帯広市,東十四条南６丁目１－９,,01,207,0800814,,,,,,,2024-02-22,1,,,,,ケイエムアイ,0
1802,7470001020043,新規,0,2024-02-22,2024-02-22,ＧＯＯＤＬＩＮＫＳ　ＪＡＰＡＮ株式会社,,株式会社,香川県,仲多度郡多度津町,大字葛原７番地,,37,404,7640028,,,,,,,2024-02-22,1,,,,,グッドリンクスジャパン,0
1805,7480001012394,新規,0,2024-02-22,2024-02-22,株式会社うだつ観光バス,,株式会社,徳島県,美馬市,脇町馬木８５０番地,,36,207,7793620,,,,,,,2024-02-22,1,,,,,ウダツカンコウバス,0
1810,7500005008675,新規,0,2024-02-22,2024-02-22,一般社団法人愛媛労務協会,,その他の設立登記法人,愛媛県,今治市,東村５丁目８番３５号,,38,202,7991506,,,,,,,2024-02-22,1,,,,,エヒメロウムキョウカイ,0
1811,7700150123572,新規,0,2024-02-22,2024-02-22,ＳｈｅｎｚｈｅｎｙｕｎｃｈｅｎｇｈｕｉｚｈａｎＴｅｃｈＣｏ．，Ｌｔｄ,,外国会社等,,,,,,,,Ｎｏ　７０２　ｂｕｉｌｄｉｎｇ　５，ｓｔａｇｅ　１，Ｖａｎｋｅ　ｙｕｎｃｈｅｎｇ，Ｘｉ　ｌｉ　ｃｏｍｍｕｎｉｔｙ，Ｘｉ　ｌｉ　ｓｔｒｅｅｔ，Ｎａｎｓｈａｎ　Ｄｉｓｔｒｉｃｔ　Ｓｈｅｎｚｈｅｎ　ＧｕａｎｇＤｏｎｇ　５１８０５５　ＣＮ,,,,,,2024-02-22,1,,,,,シエンジエンシーインチヨンフイジヤンコージーヨウシエンゴンスー,0
1812,7700150123580,新規,0,2024-02-22,2024-02-22,Ｓｈｉｊｉａｚｈｕａｎｇ　Ｃｈｅｎｇｙｏｎｇ　Ｙｕｎｑｉｎｇ　Ｅｃｏｍｍｅｒｃｅ　ＣＯ．，Ｌｔｄ,,外国会社等,,,,,,,,Ｒｏｏｍ　５０８，Ｕｎｉｔ　２，Ｂｕｉｌｄｉｎｇ　１０，Ｒｕｎｊｉａｎｇ　Ｈｅａｄｑｕａｒｔｅｒｓ　Ｉｎｔｅｒｎａｔｉｏｎａｌ，Ｎｏ．１１６　Ｃｈａｎｇｊｉａｎｇ　Ａｖｅｎｕｅ　Ｓｈｉｊｉａｚｈｕａｎｇ　Ｈｉｇｈｔｅｃｈ　Ｚｏｎｅ　０５００００　ＣＮ,,,,,,2024-02-22,1,,,,,シージヤージユワンチヨンヨンインチンデイエンズーシヤンウーヨウシエンゴンスー,0
1813,7700150123597,新規,0,2024-02-22,2024-02-22,Ｈｕｎａｎ　ｔｏ　Ｋａｎｄａｒ　ｔｒａｄｉｎｇ　Ｃｏ．，ＬＴＤ,,外国会社等,,,,,,,,Ｎｏ．５２１，Ｃ，Ｒｏｏｍ　１９０８，１９０９，１９１０，Ｋｕａｎｙｕ　Ｂｕｉｌｄｉｎｇ，Ｎｏ．１３９，Ｗａｎｌｉ　Ｍｉｄｄｌｅ　Ｒｏａｄ，Ｄｏｎｇｔｕｎｄｕ　Ｓｔｒｅｅｔ，Ｆｕｒｏｎｇ　Ｄｉｓｔｒｉｃｔ，Ｃｈａｎｇｓｈａ　Ｃｉｔｙ，Ｈｕｎａｎ，Ｐｒｏｖｉｎｃｅ,,,,,,2024-02-22,1,,,,,フーナンシヤンカンダーシヤンマオヨウシエンゴンスー,0
1823,8010001242459,新規,0,2024-02-22,2024-02-22,株式会社エムケイプランニング,,株式会社,東京都,千代田区,神田小川町３丁目２８番地５,,13,101,1010052,,,,,,,2024-02-22,1,,,,,エムケイプランニング,0
1824,8010001242509,新規,0,2024-02-22,2024-02-22,株式会社エスイーエヌ,,株式会社,東京都,文京区,千駄木４丁目１番２１号アレックス千駄木３０２,,13,105,1130022,,,,,,,2024-02-22,1,,,,,エスイーエヌ,0
1825,8010001242525,新規,0,2024-02-22,2024-02-22,株式会社エスエムイーマネジメント,,株式会社,東京都,千代田区,神田駿河台２丁目１１番７号ＵＰオフィス水道橋４０３号室,,13,101,1010062,,,,,,,2024-02-22,1,,,,,エスエムイーマネジメント,0
1826,8010001242533,新規,0,2024-02-22,2024-02-22,株式会社ｂｅｅｔｓ,,株式会社,東京都,中央区,銀座７丁目１４－１４銀座セブンビルＢ１,,13,102,1040061,,,,,,,2024-02-22,1,,,,,ビーツ,0
1827,8010003042997,新規,0,2024-02-22,2024-02-22,合同会社Ｂｏｎｅ,,合同会社,東京都,千代田区,神田須田町１丁目１４番１号ヒューリック神田須田町ビル１階－４階,,13,101,1010041,,,,,,,2024-02-22,1,,,,,ボーン,0
1830,8010401180589,新規,0,2024-02-22,2024-02-22,株式会社Ｐｒｏｓｐｅｒｉｔｙ,,株式会社,東京都,港区,麻布十番２丁目１６－８－２Ｆ,,13,103,1060045,,,,,,,2024-02-22,1,,,,,プロスペリティ,0
1832,8010501051814,新規,0,2024-02-22,2024-02-22,匠心国旅株式会社,,株式会社,東京都,台東区,上野５丁目１２－９第三江波戸ビル５０２,,13,106,1100005,,,,,,,2024-02-22,1,,,,,ショウシンコクリョ,0
1833,8010501051822,新規,0,2024-02-22,2024-02-22,語和語株式会社,,株式会社,東京都,台東区,蔵前３丁目１３－１２蔵前ハイム２０４－３,,13,106,1110051,,,,,,,2024-02-22,1,,,,,ウワウ,0
1839,8010701045590,新規,0,2024-02-22,2024-02-22,株式会社コムコホールディングス,,株式会社,東京都,品川区,東五反田３丁目２０番１４号,,13,109,1410022,,,,,,,2024-02-22,1,,,,,コムコホールディングス,0
1847,8011001160188,新規,0,2024-02-22,2024-02-22,株式会社ゲームベースドラーニング,,株式会社,東京都,渋谷区,代々木２丁目２６番２号第二桑野ビル５Ａ,,13,113,1510053,,,,,,,2024-02-22,1,,,,,ゲームベースドラーニング,0
1848,8011001160205,新規,0,2024-02-22,2024-02-22,株式会社ＢＥＡＵＢＵＳ,,株式会社,東京都,渋谷区,代々木１丁目１５番７号,,13,113,1510053,,,,,,,2024-02-22,1,,,,,ビューバス,0
1849,8011001160213,新規,0,2024-02-22,2024-02-22,株式会社ＹＯＵＲＳ,,株式会社,東京都,渋谷区,代々木２丁目４１番２－１１１号,,13,113,1510053,,,,,,,2024-02-22,1,,,,,ユアーズ,0
1851,8011003018525,新規,0,2024-02-22,2024-02-22,ワンテラス合同会社,,合同会社,東京都,渋谷区,千駄ヶ谷５丁目２１番７号,,13,113,1510051,,,,,,,2024-02-22,1,,,,,ワンテラス,0
1852,8011003018533,新規,0,2024-02-22,2024-02-22,合同会社ＩＧＮＩＴＨ,,合同会社,東京都,目黒区,中目黒１丁目４番１３－１０７号ＡＩＦＬＡＴＮＡＫＡＭＥＧＵＲＯ,,13,110,1530061,,,,,,,2024-02-22,1,,,,,イグニス,0
1857,8011101106264,新規,0,2024-02-22,2024-02-22,株式会社ｎａｉｍ,,株式会社,東京都,新宿区,若葉２丁目１１番地３ザ・パークハウス四谷若葉レジデンス６０３,,13,104,1600011,,,,,,,2024-02-22,1,,,,,ナイム,0
1859,8011103014135,新規,0,2024-02-22,2024-02-22,合同会社ジェイ・イー・ティー,,合同会社,東京都,新宿区,下宮比町１番４号,,13,104,1620822,,,,,,,2024-02-22,1,,,,,ジェイイーティー,0
1869,8012401041564,新規,0,2024-02-22,2024-02-22,株式会社Ｕｒｂａｎ,,株式会社,東京都,武蔵野市,関前１丁目１番１号,,13,203,1800014,,,,,,,2024-02-22,1,,,,,アーバン,0
1873,8012403006425,新規,0,2024-02-22,2024-02-22,合同会社ｓｔｉｒ,,合同会社,東京都,武蔵野市,境５丁目１－３ショコラ１０２,,13,203,1800022,,,,,,,2024-02-22,1,,,,,ステア,0
1874,8012801022981,新規,0,2024-02-22,2024-02-22,株式会社ＥＳＰＯＩＲ,,株式会社,東京都,東大和市,上北台３丁目３４４番地の６５,,13,220,2070023,,,,,,,2024-02-22,1,,,,,エスポワール,0
1877,8020001155908,新規,0,2024-02-22,2024-02-22,株式会社Ｃｏｄｉ,,株式会社,神奈川県,横浜市西区,浅間町１丁目４番３号ウィザードビル４０２,,14,103,2200072,,,,,,,2024-02-22,1,,,,,コーディ,0
1878,8020001155932,新規,0,2024-02-22,2024-02-22,株式会社影山設備,,株式会社,神奈川県,横浜市磯子区,峰町５０１番地の２,,14,107,2350044,,,,,,,2024-02-22,1,,,,,カゲヤマセツビ,0
1886,8021001081524,新規,0,2024-02-22,2024-02-22,株式会社ＳＷＤ,,株式会社,神奈川県,大和市,深見西３丁目２番２７号,,14,213,2420018,,,,,,,2024-02-22,1,,,,,サワディー,0
1888,8021003014184,新規,0,2024-02-22,2024-02-22,合同会社蓮和,,合同会社,神奈川県,大和市,福田２１８５番地１１,,14,213,2420024,,,,,,,2024-02-22,1,,,,,ハスワ,0
1890,8021005013028,新規,0,2024-02-22,2024-02-22,一般社団法人日本美容開発協会,,その他の設立登記法人,神奈川県,厚木市,恩名１丁目１８番２８－３０７号,,14,212,2430032,,,,,,,2024-02-22,1,,,,,ニホンビヨウカイハツキョウカイ,0
1896,8030003023665,新規,0,2024-02-22,2024-02-22,合同会社纏,,合同会社,埼玉県,北足立郡伊奈町,大字小室５４２６番地１,,11,301,3620806,,,,,,,2024-02-22,1,,,,,マトイ,0
1904,8040003024373,新規,0,2024-02-22,2024-02-22,合同会社佐倉高崎蓄電所,,合同会社,千葉県,木更津市,かずさ鎌足１丁目８番地１,,12,206,2920818,,,,,,,2024-02-22,1,,,,,サクラタカサキチクデンショ,0
1908,8050001054297,新規,0,2024-02-22,2024-02-22,株式会社ＤＲＡＭＡＴＩＫＳ,,株式会社,茨城県,土浦市,右籾２７１９番,,08,203,3000837,,,,,,,2024-02-22,1,,,,,ドラマティクス,0
1909,8060001036848,新規,0,2024-02-22,2024-02-22,資源ファクトリー株式会社,,株式会社,栃木県,下野市,柴１１３２番地６,,09,216,3290412,,,,,,,2024-02-22,1,,,,,シゲンファクトリー,0
1912,8070001041426,新規,0,2024-02-22,2024-02-22,株式会社縁,,株式会社,群馬県,邑楽郡邑楽町,大字篠塚３９１９－１,00133813,10,525,3700615,,,,,,,2024-02-22,1,,,,,エニシ,0
1919,8080101024552,新規,0,2024-02-22,2024-02-22,株式会社誠修,,株式会社,静岡県,沼津市,鳥谷１５４番地の２,,22,203,4100305,,,,,,,2024-02-22,1,,,,,セイシュウ,0
1924,8100001037230,新規,0,2024-02-22,2024-02-22,株式会社バンブー,,株式会社,長野県,下高井郡野沢温泉村,大字豊郷９４３１番地３,,20,563,3892502,,,,,,,2024-02-22,1,,,,,バンブー,0
1928,8110003005300,新規,0,2024-02-22,2024-02-22,合同会社はなや,,合同会社,新潟県,上越市,大貫１丁目１５番１４号,,15,222,9430893,,,,,,,2024-02-22,1,,,,,ハナヤ,0
1937,8120001262529,新規,0,2024-02-22,2024-02-22,宏偉株式会社,,株式会社,大阪府,大阪市都島区,中野町４丁目３番６号Ｈ２Ｈ大阪桜之宮邸２Ａ－４,,27,102,5340027,,,,,,,2024-02-22,1,,,,,コウイ,0
1938,8120001262545,新規,0,2024-02-22,2024-02-22,大阪カプリ株式会社,,株式会社,大阪府,大阪市北区,長柄中２丁目５番３０号,,27,127,5310062,,,,,,,2024-02-22,1,,,,,オオサカカプリ,0
1939,8120001262553,新規,0,2024-02-22,2024-02-22,株式会社ＭＡＭＯ大阪,,株式会社,大阪府,大阪市北区,松ケ枝町８番１５－６０１号,,27,127,5300037,,,,,,,2024-02-22,1,,,,,マモオオサカ,0
1940,8120001262594,新規,0,2024-02-22,2024-02-22,株式会社Ｕｉｄｅａ,,株式会社,大阪府,大阪市西区,江戸堀２丁目１番１号江戸堀センタービルＢ１Ｆ,,27,106,5500002,,,,,,,2024-02-22,1,,,,,ユーアイディア,0
1947,8122003002805,新規,0,2024-02-22,2024-02-22,ＢＩＧ　ＥＡＳＴ合同会社,,合同会社,大阪府,東大阪市,今米１丁目６番３３号,,27,227,5780903,,,,,,,2024-02-22,1,,,,,ビッグイースト,0
1952,8130001076390,新規,0,2024-02-22,2024-02-22,株式会社Ｎ‐ｌｉｇｈｔ,,株式会社,京都府,八幡市,男山笹谷７番地－３０８－４０４,,26,210,6148372,,,,,,,2024-02-22,1,,,,,エヌライト,0
1956,8130003009316,新規,0,2024-02-22,2024-02-22,Ｒａ‐Ｔｙ合同会社,,合同会社,京都府,京都市山科区,勧修寺柴山８番地２１９,,26,110,6078242,,,,,,,2024-02-22,1,,,,,ラティ,0
1958,8140001133439,新規,0,2024-02-22,2024-02-22,株式会社エンヤコラ,,株式会社,兵庫県,神戸市中央区,国香通５丁目２－２２－５０３,,28,110,6510066,,,,,,,2024-02-22,1,,,,,エンヤコラ,0
1962,8160001025700,新規,0,2024-02-22,2024-02-22,株式会社池田ポンプ,,株式会社,滋賀県,守山市,川田町１６０３番地１,,25,207,5240001,,,,,,,2024-02-22,1,,,,,イケダポンプ,0
1963,8170003001987,新規,0,2024-02-22,2024-02-22,合同会社ＡＴマネージメント,,合同会社,和歌山県,和歌山市,有本５８２番地１、１１１号,,30,201,6408390,,,,,,,2024-02-22,1,,,,,エーティーマネージメント,0
1972,8180001160140,新規,0,2024-02-22,2024-02-22,ＨＡＳＳＡＮ　ＴＲＡＤＩＮＧ株式会社,,株式会社,愛知県,名古屋市中川区,富田町大字千音寺字仏供田３０９７シュタットハイム２０３,,23,110,4540971,,,,,,,2024-02-22,1,,,,,ハッサントレーディング,0
1973,8180001160256,新規,0,2024-02-22,2024-02-22,株式会社ＳＩＣ,,株式会社,愛知県,一宮市,西大海道字柏木３番地,,23,203,4910005,,,,,,,2024-02-22,1,,,,,エスアイシー,0
1974,8180001160272,新規,0,2024-02-22,2024-02-22,株式会社光ヶ丘地所,,株式会社,愛知県,小牧市,光ケ丘４丁目３番地６,,23,219,4850811,,,,,,,2024-02-22,1,,,,,ヒカリガオカジショ,0
1975,8180001160289,新規,0,2024-02-22,2024-02-22,トラベル・サポート・サービス株式会社,,株式会社,愛知県,瀬戸市,やまて坂２丁目２０番地,,23,204,4890980,,,,,,,2024-02-22,1,,,,,トラベルサポートサービス,0
1977,8180003026397,新規,0,2024-02-22,2024-02-22,ＨＱ　ＧＲＯＵＰ合同会社,,合同会社,愛知県,小牧市,大字北外山字宮ノ腰５６番地１,,23,219,4850023,,,,,,,2024-02-22,1,,,,,エイチキューグループ,0
1978,8180005020530,新規,0,2024-02-22,2024-02-22,一般社団法人日本女性ホームインスペクション協会,,その他の設立登記法人,愛知県,名古屋市東区,代官町４０番１５号,,23,102,4610002,,,,,,,2024-02-22,1,,,,,ニホンジョセイホームインスペクションキョウカイ,0
1983,8200001042187,新規,0,2024-02-22,2024-02-22,株式会社Ａｎｅｎｔａｌ,,株式会社,岐阜県,岐阜市,七軒町２５番地１１,,21,201,5008074,,,,,,,2024-02-22,1,,,,,アネンタル,0
1985,8220001025834,新規,0,2024-02-22,2024-02-22,ＨＥＤ株式会社,,株式会社,石川県,金沢市,堀川新町５番１号アリマビル３Ｆ,,17,201,9200849,,,,,,,2024-02-22,1,,,,,ヘッド,0
1988,8250001020527,新規,0,2024-02-22,2024-02-22,株式会社共栄,,株式会社,山口県,周南市,大字久米７１８番地の１,,35,215,7450801,,,,,,,2024-02-22,1,,,,,キョウエイ,0
1995,8290001104796,新規,0,2024-02-22,2024-02-22,株式会社ピボーテ,,株式会社,福岡県,福岡市博多区,博多駅東１丁目１２番１７号,,40,132,8120013,,,,,,,2024-02-22,1,,,,,ピボーテ,0
1996,8290001104821,新規,0,2024-02-22,2024-02-22,株式会社とまとリビング,,株式会社,福岡県,福岡市中央区,赤坂３丁目１３番３号,,40,133,8100042,,,,,,,2024-02-22,1,,,,,トマトリビング,0
1997,8290003014993,新規,0,2024-02-22,2024-02-22,合同会社Ｈ＆Ｒ,,合同会社,福岡県,三潴郡大木町,大字侍島３１１－２,,40,522,8300412,,,,,,,2024-02-22,1,,,,,エイチアンドアール,0
1999,8290801030333,新規,0,2024-02-22,2024-02-22,株式会社ＭａｓｈＵｐ,,株式会社,福岡県,直方市,大字感田２１５８番地６ダイワーズ感田ベースＩ１号室,00133832,40,204,8220001,,,,,,,2024-02-22,1,,,,,マッシュアップ,0
2013,8350001018800,新規,0,2024-02-22,2024-02-22,橘エステート株式会社,,株式会社,宮崎県,宮崎市,橘通東２丁目７番４号,,45,201,8800805,,,,,,,2024-02-22,1,,,,,タチバナエステート,0
2017,8370001050966,新規,0,2024-02-22,2024-02-22,株式会社ＦｏｏｔＲｅｃｏ,,株式会社,宮城県,仙台市青葉区,国分町１丁目４－９ｅｎｓｐａｃｅ,,04,101,9800803,,,,,,,2024-02-22,1,,,,,フットレコ,0
2018,8370003006495,新規,0,2024-02-22,2024-02-22,合同会社ＲＥＳＴ,,合同会社,宮城県,仙台市泉区,桂３丁目１８番地の１６,,04,105,9813134,,,,,,,2024-02-22,1,,,,,レスト,0
2024,8380005012796,新規,0,2024-02-22,2024-02-22,一般社団法人すずかけ学童クラブ,,その他の設立登記法人,福島県,いわき市,平字作町三丁目４番地の２,,07,204,9708026,,,,,,,2024-02-22,1,,,,,スズカケガクドウクラブ,0
2028,8420001018603,新規,0,2024-02-22,2024-02-22,株式会社ＣＯＬＡＰＩＳ,,株式会社,青森県,弘前市,大字銅屋町８番地メゾン・ド・ＦＯＲ・Ｓ２０１号室,,02,202,0368196,,,,,,,2024-02-22,1,,,,,コラピス,0
2038,8430003015969,新規,0,2024-02-22,2024-02-22,合同会社かくはなす,,合同会社,北海道,札幌市中央区,南一条西１６丁目１番地３２３春野ビル３Ｆ,,01,101,0600061,,,,,,,2024-02-22,1,,,,,カクハナス,0
2039,8430003015977,新規,0,2024-02-22,2024-02-22,合同会社ＺｅｓｔＵｐ,,合同会社,北海道,札幌市北区,北二十三条西５丁目１－１８Ｄｉｏ２３ビル３階Ｂ室,,01,102,0010023,,,,,,,2024-02-22,1,,,,,ゼストアップ,0
2048,8700150122474,新規,0,2024-02-22,2024-02-22,Ｈａｎｇｚｈｏｕ　ｔｉｙｉｈｕ　ｋｅｊｉ　ｙｏｕｘｉａｎｇｏｎｇｓｉ,,外国会社等,,,,,,,,Ｊｉａｎｇｈｏｎｇ　Ｒｏａｄ　Ｎｏ．３３３　Ｃｈａｎｇｈｅ　Ｓｔｒｅｅｔ　Ｂｉｎｊｉａｎｇ　Ｄｉｓｔｒｉｃｔ　Ｙａｎｘｉａｎｇ　Ｔｅｃｈｎｏｌｏｇｙ　Ｂｕｉｌｄｉｎｇ　Ｂ，Ｒｏｏｍ　７１０　Ｈａｎｇｚｈｏｕ　Ｚｈｅｊｉａｎｇ　３１００５１　ＣＮ,,,,,,2024-02-22,1,,,,,ハンジヨウテイイホウコアジヨウシエンゴンス,0
2049,8700150123563,新規,0,2024-02-22,2024-02-22,Ｐｏｌｙｍｅｔｒｉｘ　ＡＧ,,外国会社等,,,,,,,,Ｓａｎｄａｃｋｅｒｓｔｒａｓｓｅ　２４，９２４５，Ｏｂｅｒｂｕｒｅｎ，Ｓｗｉｔｚｅｒｌａｎｄ,,,,,,2024-02-22,1,,,,,ポリメトリツクスアーゲー,0
2050,8700150123571,新規,0,2024-02-22,2024-02-22,Ｓｈｅｎｚｈｅｎ　Ｎｉｌｌｋｉｎ　Ｔｅｃｈｎｏｌｏｇｙ　Ｃｏ．，ＬＴＤ,,外国会社等,,,,,,,,Ｌｏｎｇｈｕａｘｉｎｑｕｇｕａｎｌａｎｚｈａｎｇｇｅｓｈｅｑｕｇｕｉｙｕｅｌｕｇｕｉｇｕｄｏｎｇｌｉｄｉｔａｎｋｅｊｉｓｈｉｆａｎｙｕａｎ（ｘｉｎｇｈｅｇｏｎｇｙｅｙｕａｎ）Ａ９ｄｏｎｇ２ｌｏｕ　Ｓｈｅｎｚｈｅｎ　Ｇｕａｎｇｄｏｎｇ　５１８１１０　ＣＮ,,,,,,2024-02-22,1,,,,,シエンジエンシーナイアージンコージーヨウシエンゴンスー,0
2051,8700150123588,新規,0,2024-02-22,2024-02-22,Ｈｕｎａｎ　Ｆａｎ　Ｑｉｎ　ａｉ　ｅｌｅｃｔｒｏｎｉｃ　ｔｅｃｈｎｏｌｏｇｙ　Ｃｏ．，ＬＴＤ,,外国会社等,,,,,,,,Ｎｏ．１０９６，１ｓｔ　Ｆｌｏｏｒ，Ｂｕｉｌｄｉｎｇ　０２１，Ｒｅｎｍｉｎ　Ｎｅｗ　Ｖｉｌｌａｇｅ，Ｃｈａｏｙａｎｇ　Ｓｔｒｅｅｔ，Ｆｕｒｏｎｇ　Ｄｉｓｔｒｉｃｔ，Ｃｈａｎｇｓｈａ　Ｃｉｔｙ，Ｈｕｎａｎ　Ｐｒｏｖｉｎｃｅ,,,,,,2024-02-22,1,,,,,フーナンフアンチンアイデイエンズーコージーヨウシエンゴンスー,0
2052,8700150123596,新規,0,2024-02-22,2024-02-22,Ｈｕｎａｎ　Ｑｉｎｇｗｕｋｉ　ｅｌｅｃｔｒｏｎｉｃ　Ｔｅｃｈｎｏｌｏｇｙ　Ｃｏ．，ＬＴＤ,,外国会社等,,,,,,,,Ｎｏ．１０２５，１ｓｔ　Ｆｌｏｏｒ，Ｂｕｉｌｄｉｎｇ　０２１，Ｒｅｎｍｉｎ　Ｎｅｗ　Ｖｉｌｌａｇｅ，Ｃｈａｏｙａｎｇ　Ｓｔｒｅｅｔ，Ｆｕｒｏｎｇ　Ｄｉｓｔｒｉｃｔ，Ｃｈａｎｇｓｈａ　Ｃｉｔｙ，Ｈｕｎａｎ　Ｐｒｏｖｉｎｃｅ,,,,,,2024-02-22,1,,,,,フーナンチンウーシーデイエンズーコージーヨウシエンゴンスー,0
2059,9010001242508,新規,0,2024-02-22,2024-02-22,株式会社ＢｉｏＢｅａｕｔｅ,,株式会社,東京都,千代田区,神田司町２丁目１３－２－３１２,,13,101,1010048,,,,,,,2024-02-22,1,,,,,バイオボーテ,0
2060,9010001242516,新規,0,2024-02-22,2024-02-22,株式会社ＷｉｓｅＭｉｎｄ,,株式会社,東京都,千代田区,丸の内２丁目５番２号９階,,13,101,1000005,,,,,,,2024-02-22,1,,,,,ワイズマインド,0
2061,9010001242524,新規,0,2024-02-22,2024-02-22,株式会社ＡＣＴ,,株式会社,東京都,千代田区,有楽町１丁目５番２号,,13,101,1000006,,,,,,,2024-02-22,1,,,,,アクト,0
2062,9010001242557,新規,0,2024-02-22,2024-02-22,ＴＴホールディングス株式会社,,株式会社,東京都,千代田区,平河町２丁目１６番９号永田町グラスゲート６階ＡＣＡ株式会社内,,13,101,1020093,,,,,,,2024-02-22,1,,,,,ティーティーホールディングス,0
2065,9010003042947,新規,0,2024-02-22,2024-02-22,筑前インベストメント合同会社,,合同会社,東京都,千代田区,霞が関３丁目２番５号,,13,101,1000013,,,,,,,2024-02-22,1,,,,,チクゼンインベストメント,0
2066,9010003043012,新規,0,2024-02-22,2024-02-22,合同会社西国立ブリッジプロジェクト,,合同会社,東京都,千代田区,平河町１丁目６番１５号シルスフィア会計事務所内,,13,101,1020093,,,,,,,2024-02-22,1,,,,,ニシクニタチブリッジプロジェクト,0
2070,9010401180539,新規,0,2024-02-22,2024-02-22,Ｔｅｃｈａｒｙ　Ｏｐｅｒａｔｉｏｎｓ　Ｊａｐａｎ株式会社,,株式会社,東京都,港区,元麻布３丁目１番６号,,13,103,1060046,,,,,,,2024-02-22,1,,,,,テカリーオペレーションズジャパン,0
2071,9010401180571,新規,0,2024-02-22,2024-02-22,株式会社ＡＭＧ,,株式会社,東京都,港区,虎ノ門１丁目１６番９号双葉ビル２０３,,13,103,1050001,,,,,,,2024-02-22,1,,,,,エーエムジー,0
2072,9010403032036,新規,0,2024-02-22,2024-02-22,合同会社ＭＳＦＲ,,合同会社,東京都,港区,西新橋３丁目５番２号,,13,103,1050003,,,,,,,2024-02-22,1,,,,,エムエスエフアール,0
2076,9010501051821,新規,0,2024-02-22,2024-02-22,池勝株式会社,,株式会社,東京都,台東区,台東３丁目１１番１０－３０２号室,,13,106,1100016,,,,,,,2024-02-22,1,,,,,チショウ,0
2082,9010503007342,新規,0,2024-02-22,2024-02-22,Ｎ１Ｉｎｔｅｒｎａｔｉｏｎａｌ合同会社,,合同会社,東京都,台東区,小島２丁目１０番１号,,13,106,1110056,,,,,,,2024-02-22,1,,,,,エヌワンインターナショナル,0
2083,9010503007350,新規,0,2024-02-22,2024-02-22,ジールアクアニッポン合同会社,,合同会社,東京都,台東区,台東３丁目４３―１０ー６１１,,13,106,1100016,,,,,,,2024-02-22,1,,,,,ジールアクアニッポン,0
2085,9010603010667,新規,0,2024-02-22,2024-02-22,合同会社ＨＳ,,合同会社,東京都,江東区,有明１丁目６番３０－１５０４号,,13,108,1350063,,,,,,,2024-02-22,1,,,,,エイチエス,0
2087,9010801034798,新規,0,2024-02-22,2024-02-22,ＪＡＣＬＡ株式会社,,株式会社,東京都,大田区,東馬込２丁目７番３－４０６号,,13,111,1430022,,,,,,,2024-02-22,1,,,,,ジャクラ,0
2091,9010901054754,新規,0,2024-02-22,2024-02-22,株式会社ＫＩＩＺＮＡ,,株式会社,東京都,世田谷区,等々力５丁目１６番１６号,,13,112,1580082,,,,,,,2024-02-22,1,,,,,キズナ,0
2092,9010903008849,新規,0,2024-02-22,2024-02-22,合同会社９パーセント,,合同会社,東京都,世田谷区,砧６丁目２２番３号オーキッド３００２,,13,112,1570073,,,,,,,2024-02-22,1,,,,,キューパーセント,0
2096,9011001160121,新規,0,2024-02-22,2024-02-22,株式会社ＬｉｖｅＰｅａｃｅ,,株式会社,東京都,渋谷区,渋谷３丁目１３－５,,13,113,1500002,,,,,,,2024-02-22,1,,,,,リヴピース,0
2097,9011001160170,新規,0,2024-02-22,2024-02-22,株式会社ＵＮＭＵＴＥ,,株式会社,東京都,渋谷区,桜丘町１８番４号二宮ビル１Ｆ‐４４,,13,113,1500031,,,,,,,2024-02-22,1,,,,,アンミュート,0
2098,9011001160179,新規,0,2024-02-22,2024-02-22,ＳＯＵ株式会社,,株式会社,東京都,渋谷区,道玄坂１丁目１０番８号,,13,113,1500043,,,,,,,2024-02-22,1,,,,,ソウ,0
2099,9011001160195,新規,0,2024-02-22,2024-02-22,Ａｒｔｒｉｐ　Ｊａｐａｎ株式会社,,株式会社,東京都,渋谷区,恵比寿４丁目３番５－１４０１号クレヴィア恵比寿,,13,113,1500013,,,,,,,2024-02-22,1,,,,,アートリップジャパン,0
2106,9011105010949,新規,0,2024-02-22,2024-02-22,一般社団法人世界中華青年連合会,,その他の設立登記法人,東京都,新宿区,西早稲田１丁目１１番６号１０２号室,,13,104,1690051,,,,,,,2024-02-22,1,,,,,セカイチュウカセイネンレンゴウカイ,0
2109,9011301029438,新規,0,2024-02-22,2024-02-22,株式会社アラウンドゥニム,,株式会社,東京都,杉並区,阿佐谷北３丁目１４－１４,,13,115,1660001,,,,,,,2024-02-22,1,,,,,アラウンドゥニム,0
2110,9011303005065,新規,0,2024-02-22,2024-02-22,二兎合同会社,,合同会社,東京都,杉並区,井草１丁目１３－３,,13,115,1670021,,,,,,,2024-02-22,1,,,,,ニト,0
2114,9011603004238,新規,0,2024-02-22,2024-02-22,合同会社Ｇｏｏｄ　ｆｏｒ　ｙｏｕ,,合同会社,東京都,練馬区,西大泉６丁目２４－１９,,13,120,1780065,,,,,,,2024-02-22,1,,,,,グッドフォーユー,0
2119,9013101009355,新規,0,2024-02-22,2024-02-22,日本ウェルミックス株式会社,,株式会社,東京都,羽村市,富士見平２丁目８番地３,,13,227,2050013,,,,,,,2024-02-22,1,,,,,ニホンウェルミックス,0
2125,9013301052114,新規,0,2024-02-22,2024-02-22,株式会社ｈｏｔ　ｌｉｐ．,,株式会社,東京都,豊島区,長崎６丁目２番１３号スプリングハイツ１Ｆ,,13,116,1710051,,,,,,,2024-02-22,1,,,,,ホットリップ,0
2126,9013305003575,新規,0,2024-02-22,2024-02-22,一般社団法人新日本音楽振興会,,その他の設立登記法人,東京都,豊島区,南池袋２丁目２４番５号加藤ビル２０１号,,13,116,1710022,,,,,,,2024-02-22,1,,,,,シンニホンオンガクシンコウカイ,0
2130,9020001155915,新規,0,2024-02-22,2024-02-22,株式会社ノーサイド,,株式会社,神奈川県,横浜市鶴見区,梶山２丁目３２番１２号,,14,101,2300072,,,,,,,2024-02-22,1,,,,,ノーサイド,0
2131,9020003025612,新規,0,2024-02-22,2024-02-22,合同会社大朗,,合同会社,神奈川県,川崎市中原区,下小田中６丁目２１番２５号,,14,133,2110041,,,,,,,2024-02-22,1,,,,,ダイロウ,0
2135,9021001081523,新規,0,2024-02-22,2024-02-22,株式会社清心堂,,株式会社,神奈川県,鎌倉市,腰越２丁目４番８号,,14,204,2480033,,,,,,,2024-02-22,1,,,,,セイシンドウ,0
2145,9030001158784,新規,0,2024-02-22,2024-02-22,縁株式会社,,株式会社,埼玉県,八潮市,大字西袋６７６－２２,,11,234,3400833,,,,,,,2024-02-22,1,,,,,エン,0
2146,9030001158801,新規,0,2024-02-22,2024-02-22,株式会社真皇,,株式会社,埼玉県,志木市,中宗岡４丁目１１番１８号,,11,228,3530002,,,,,,,2024-02-22,1,,,,,シンコウ,0
2160,9040003024389,新規,0,2024-02-22,2024-02-22,かすみ物流合同会社,,合同会社,千葉県,千葉市稲毛区,小仲台８丁目１６－１－２階,,12,103,2630043,,,,,,,2024-02-22,1,,,,,カスミブツリュウ,0
2161,9040005022291,新規,0,2024-02-22,2024-02-22,一般社団法人優心会,,その他の設立登記法人,千葉県,市川市,行徳駅前２丁目２５番７号エンゼルハイム中島１０１号室,,12,203,2720133,,,,,,,2024-02-22,1,,,,,ユウシンカイ,0
2163,9050001054321,新規,0,2024-02-22,2024-02-22,株式会社ＬＥＬＯＮＤ,,株式会社,茨城県,つくば市,花畑１丁目１３番地１１,,08,220,3003261,,,,,,,2024-02-22,1,,,,,リロンド,0
2165,9050003008151,新規,0,2024-02-22,2024-02-22,合同会社シュリーズポット,,合同会社,茨城県,常総市,水海道川又町３９４番地,,08,211,3030032,,,,,,,2024-02-22,1,,,,,シュリーズポット,0
2168,9070001041425,新規,0,2024-02-22,2024-02-22,高崎溶材株式会社,,株式会社,群馬県,高崎市,中豊岡町５３８番地９,,10,202,3700874,,,,,,,2024-02-22,1,,,,,タカサキヨウザイ,0
2169,9070003005287,新規,0,2024-02-22,2024-02-22,ＫＡＩＲＯＢ　ＨＯＬＤＩＮＧＳ合同会社,,合同会社,群馬県,伊勢崎市,境女塚１２４番地４,00133814,10,204,3700121,,,,,,,2024-02-22,1,,,,,カイロブホールディングス,0
2185,9120001262528,新規,0,2024-02-22,2024-02-22,株式会社シバタシステム,,株式会社,大阪府,大阪市北区,菅栄町２番地１８号,,27,127,5300031,,,,,,,2024-02-22,1,,,,,シバタシステム,0
2186,9120001262544,新規,0,2024-02-22,2024-02-22,株式会社Ｐ・Ｄｅｓｉｇｎ,,株式会社,大阪府,枚方市,星丘２丁目２６－３ＳｂａｃｃｏＣ棟１０１号室,,27,210,5730013,,,,,,,2024-02-22,1,,,,,ピーデザイン,0
2187,9120001262577,新規,0,2024-02-22,2024-02-22,株式会社ＴＡＫＡＤＡアセット・マネジメント,,株式会社,大阪府,大阪市西淀川区,竹島５丁目４番４３号,,27,113,5550011,,,,,,,2024-02-22,1,,,,,タカダアセットマネジメント,0
2189,9120003025998,新規,0,2024-02-22,2024-02-22,合同会社ｍｏｍｏｔａｎ,,合同会社,大阪府,大阪市阿倍野区,天王寺町北１丁目８番４７－４２３号,,27,119,5450001,,,,,,,2024-02-22,1,,,,,モモタン,0
2191,9120101069088,新規,0,2024-02-22,2024-02-22,Ｂアシストパートナーズ株式会社,,株式会社,大阪府,和泉市,和田町２９０番地の６,,27,219,5941102,,,,,,,2024-02-22,1,,,,,ビーアシストパートナーズ,0
2192,9120101069096,新規,0,2024-02-22,2024-02-22,株式会社玉川商店,,株式会社,大阪府,堺市堺区,春日通１丁６番地ジュネス春日２０２号,,27,141,5900827,,,,,,,2024-02-22,1,,,,,タマガワショウテン,0
2198,9120901048786,新規,0,2024-02-22,2024-02-22,株式会社大国塗装,,株式会社,大阪府,高槻市,北大樋町１２番６号,00133809,27,207,5690041,,,,,,,2024-02-22,1,,,,,ダイコクトソウ,0
2199,9122001037851,新規,0,2024-02-22,2024-02-22,株式会社Ｍｏｎ・Ｎａｐｏ,,株式会社,大阪府,八尾市,山本町南１丁目１１番２２号,,27,212,5810013,,,,,,,2024-02-22,1,,,,,モンナポ,0
2205,9130001076407,新規,0,2024-02-22,2024-02-22,ＳＣＩ株式会社,,株式会社,京都府,城陽市,平川指月５８番地の２田辺ビル２階,,26,207,6100101,,,,,,,2024-02-22,1,,,,,エスシーアイ,0
2206,9130001076415,新規,0,2024-02-22,2024-02-22,株式会社１ｓｔＤ‐ＬＩＧＨＴ,,株式会社,京都府,京都市伏見区,深草直違橋南１丁目５２２番地１５,,26,109,6120868,,,,,,,2024-02-22,1,,,,,ファーストディライト,0
2209,9130003009323,新規,0,2024-02-22,2024-02-22,合同会社ＮＯＶＡ,,合同会社,京都府,京都市中京区,烏丸通六角下る七観音町６３４ＯＮＥＳＴ京都烏丸スクエア５Ｆ,,26,104,6048162,,,,,,,2024-02-22,1,,,,,ノヴァ,0
2212,9140001133405,新規,0,2024-02-22,2024-02-22,株式会社壽,,株式会社,兵庫県,西宮市,名塩赤坂１２番３３号,,28,204,6691149,,,,,,,2024-02-22,1,,,,,コトブキ,0
2215,9140005026951,新規,0,2024-02-22,2024-02-22,一般社団法人岡本支援会,,その他の設立登記法人,兵庫県,神戸市東灘区,岡本３丁目９番２０－２０７号,,28,101,6580072,,,,,,,2024-02-22,1,,,,,オカモトシエンカイ,0
2216,9150001027093,新規,0,2024-02-22,2024-02-22,株式会社建築塗装・桐山,,株式会社,奈良県,磯城郡田原本町,大字笠形５３番地の２,,29,363,6360244,,,,,,,2024-02-22,1,,,,,ケンチクトソウキリヤマ,0
2229,9180001160247,新規,0,2024-02-22,2024-02-22,株式会社ＡＰＳ,,株式会社,愛知県,春日井市,美濃町２丁目６５番地,,23,206,4860917,,,,,,,2024-02-22,1,,,,,エーピーエス,0
2230,9180001160255,新規,0,2024-02-22,2024-02-22,サイエステート株式会社,,株式会社,愛知県,名古屋市天白区,表山３丁目２００３番地,,23,116,4680069,,,,,,,2024-02-22,1,,,,,サイエステート,0
2231,9180001160263,新規,0,2024-02-22,2024-02-22,株式会社ＣＣＲ,,株式会社,愛知県,名古屋市中村区,名駅２丁目４０－１６名駅野村ビル７階,,23,105,4500002,,,,,,,2024-02-22,1,,,,,シーシーアール,0
2232,9180001160288,新規,0,2024-02-22,2024-02-22,株式会社ケイエステック,,株式会社,愛知県,名古屋市中区,錦３丁目４番６号桜通大津第一生命ビル４階,,23,106,4600003,,,,,,,2024-02-22,1,,,,,ケイエステック,0
2236,9180003026396,新規,0,2024-02-22,2024-02-22,合同会社つばめ,,合同会社,愛知県,日進市,米野木台５丁目２１１番地ソレイユ米野木Ｃ棟,,23,230,4700118,,,,,,,2024-02-22,1,,,,,ツバメ,0
2237,9180003026405,新規,0,2024-02-22,2024-02-22,合同会社ｄｏｔｔｅｃｈ,,合同会社,愛知県,名古屋市瑞穂区,雁道町３丁目２１番地の７,,23,108,4670877,,,,,,,2024-02-22,1,,,,,ドットテック,0
2247,9230001020222,新規,0,2024-02-22,2024-02-22,株式会社ナイン,,株式会社,富山県,砺波市,太田３０５番地,,16,208,9391315,,,,,,,2024-02-22,1,,,,,ナイン,0
2253,9250005008897,新規,0,2024-02-22,2024-02-22,特定非営利活動法人堀越涼南会,,その他の設立登記法人,山口県,美祢市,伊佐町奥万倉２４９５番地２堀越コミュニティセンター,,35,213,7592223,,,,,,,2024-02-22,1,,,,,ホリコシリョウナンカイ,0
2261,9290001104754,新規,0,2024-02-22,2024-02-22,ＮＦジャパン株式会社,,株式会社,福岡県,福岡市東区,青葉３丁目３２番１２号,,40,131,8130025,,,,,,,2024-02-22,1,,,,,エヌエフジャパン,0
2262,9290001104795,新規,0,2024-02-22,2024-02-22,ＱＤＫ株式会社,,株式会社,福岡県,春日市,須玖北９丁目５４番地,,40,218,8160864,,,,,,,2024-02-22,1,,,,,キューディーケー,0
2264,9290801030332,新規,0,2024-02-22,2024-02-22,Ｓプロパティマネジメント株式会社,,株式会社,福岡県,中間市,東中間２丁目１９番２８号,,40,215,8090019,,,,,,,2024-02-22,1,,,,,エスプロパティマネジメント,0
2268,9310003004735,新規,0,2024-02-22,2024-02-22,合同会社はれてひなた,,合同会社,長崎県,雲仙市,国見町土黒己５７番地２,,42,213,8591316,,,,,,,2024-02-22,1,,,,,ハレテヒナタ,0
2278,9370003006494,新規,0,2024-02-22,2024-02-22,日本エナジック合同会社,,合同会社,宮城県,仙台市若林区,若林２丁目５番５号,,04,103,9840826,,,,,,,2024-02-22,1,,,,,ニホンエナジック,0
2287,9420001018602,新規,0,2024-02-22,2024-02-22,株式会社武田,,株式会社,青森県,青森市,富田５丁目３０番２８号,,02,201,0380004,,,,,,,2024-02-22,1,,,,,タケダ,0
2290,9430001091103,新規,0,2024-02-22,2024-02-22,クールフュージョン株式会社,,株式会社,北海道,札幌市北区,北十二条西４丁目１番１５号スリーシステムビル６Ｆ,,01,102,0010012,,,,,,,2024-02-22,1,,,,,クールフュージョン,0
2291,9430001091128,新規,0,2024-02-22,2024-02-22,株式会社蝦夷や,,株式会社,北海道,札幌市中央区,南十一条西１２丁目２－１７－４０２,,01,101,0640811,,,,,,,2024-02-22,1,,,,,エゾヤ,0
2293,9450001014235,新規,0,2024-02-22,2024-02-22,株式会社ＳｏＬＡ,,株式会社,北海道,旭川市,神居八条５丁目１番５号,,01,204,0708018,,,,,,,2024-02-22,1,,,,,ソラ,0
2294,9460001005869,新規,0,2024-02-22,2024-02-22,株式会社さいわい,,株式会社,北海道,釧路市,幸町１２丁目２番地１８プレシャスワタナベ１０２号室,,01,206,0850017,,,,,,,2024-02-22,1,,,,,サイワイ,0
2304,9700150123323,新規,0,2024-02-22,2024-02-22,ＢｅａｕＴｅｃｈ　Ｐｏｗｅｒ　Ｓｙｓｔｅｍｓ．ＬＬＣ,,外国会社等,,,,,,,,２００１　Ｒｏｓｓ　Ａｖｅｎｕｅ，Ｓｕｉｔｅ　４６５０，Ｄａｌｌａｓ，ＴＸ　７５２０１，ＵＳＡ,,,,,,2024-02-22,1,,,,,ビユーテツクパワーシステムズ,0
2305,9700150123579,新規,0,2024-02-22,2024-02-22,Ｙｉｗｕ　Ｚｈｏｕｑｉ　Ｔｒａｄｉｎｇ　Ｃｏ．，Ｌｔｄ．,,外国会社等,,,,,,,,Ｒｏｏｍ　３１２，３ｒｄ　Ｆｌｏｏｒ，Ｕｎｉｔ　３，Ｂｕｉｌｄｉｎｇ　６５，Ｈｅ　Ｍａ　Ｃｈｅ　Ｄｉｓｔｒｉｃｔ　Ｊｉｎｈｕａ　Ｃｉｔｙ　Ｙｉｗｕｓｈｉ　Ｚｈｅｊｉａｎｇ　Ｐｒｏｖｉｎｃｅ　３２２０００ＣＮ　,,,,,,2024-02-22,1,,,,,イーウーシージヨウチーマオイーヨウシエンゴンスー,0
2306,9700150123595,新規,0,2024-02-22,2024-02-22,Ｈｕｎａｎ　Ｈａｏｓｈｕｏ　ｅｃｏｍｍｅｒｃｅ　Ｃｏ．，ＬＴＤ,,外国会社等,,,,,,,,Ｒｏｏｍ　１３０５－２，１３ｔｈ　Ｆｌｏｏｒ，Ｆｉｌｍ　ａｎｄ　Ｔｅｌｅｖｉｓｉｏｎ　Ｉｎｔｅｒｎａｔｉｏｎａｌ　Ｂｕｓｉｎｅｓｓ　Ｃｅｎｔｅｒ　Ｂｕｉｌｄｉｎｇ，Ｓｔｉｉｄｕ　Ｍｉｄｄｌｅ　Ｒｏａｄ，Ｌｅｎｇｓｈｕｉｊｉａｎｇ　Ｓｔｒｅｅｔ，Ｌｅｎｇｓｈｕｉｊｉａｎｇ　Ｃｉｔｙ,,,,,,2024-02-22,1,,,,,フーナンシヨンハオシユオデイエンズーシヤンウーヨウシエンゴンスー,0
