sequenceNumber,corporateNumber,process,correct,updateDate,changeDate,name,nameImageId,kind,prefectureName,cityName,streetNumber,addressImageId,prefectureCode,cityCode,postCode,addressOutside,addressOutsideImageId,closeDate,closeCause,successorCorporateNumber,changeCause,assignmentDate,latest,enName,enPrefectureName,enCityName,enAddressOutside,furigana,hihyoji
14,1010005006668,登記記録の閉鎖等,0,2025-09-29,2025-09-16,税理士法人坂上奥津会計事務所,,その他の設立登記法人,東京都,文京区,小石川５丁目２９番９号坂上ビル,,13,105,1120002,,,2025-09-16,清算の結了等,,,2015-10-05,1,,,,,サカガミオクツカイケイジムショ,0
37,1011003004234,登記記録の閉鎖等,0,2025-09-29,2025-09-10,合同会社リフレーム,,合同会社,大阪府,池田市,旭丘３丁目１０番８号,,27,204,5630022,,,2025-09-10,清算の結了等,,,2015-10-05,1,,,,,リフレーム,0
56,1011702016067,登記記録の閉鎖等,0,2025-09-29,2025-09-17,有限会社プラス・１,,有限会社,東京都,江戸川区,南篠崎町２丁目３７番１７－９０３号ローレルコート瑞江パークステージ,,13,123,1330065,,,2025-09-17,清算の結了等,,,2015-10-05,1,,,,,プラスワン,0
61,1012401002639,登記記録の閉鎖等,0,2025-09-29,2025-09-09,株式会社武蔵設備工業,,株式会社,東京都,国分寺市,西元町３丁目１４番１２号,,13,214,1850023,,,2025-09-09,清算の結了等,,,2015-10-05,1,,,,,ムサシセツビコウギョウ,0
64,1013401001878,登記記録の閉鎖等,0,2025-09-29,2025-09-17,シーグ株式会社,,株式会社,東京都,稲城市,東長沼１７０番地,,13,225,2060802,,,2025-09-17,清算の結了等,,,2015-10-05,1,,,,,シーグ,0
79,1030002109694,登記記録の閉鎖等,0,2025-09-29,2025-09-16,有限会社井出工建,,有限会社,埼玉県,川口市,柳根町２６番２号,,11,203,3330864,,,2025-09-16,清算の結了等,,,2015-10-05,1,,,,,イデコウケン,0
87,1040002043018,登記記録の閉鎖等,0,2025-09-29,2025-09-22,有限会社フリーノート,,有限会社,東京都,品川区,西五反田７丁目２２－１７ＴＯＣビル７Ｆ－４０,,13,109,1410031,,,2025-09-22,清算の結了等,,,2015-10-05,1,,,,,,0
88,1040002074459,登記記録の閉鎖等,0,2025-09-29,2025-09-01,有限会社外山商店,,有限会社,千葉県,市原市,馬立１１８５番地,,12,219,2900221,,,2025-09-01,清算の結了等,,,2015-10-05,1,,,,,トヤマショウテン,0
95,1050002031260,登記記録の閉鎖等,0,2025-09-29,2025-09-18,日立ダイプランニング有限会社,,有限会社,茨城県,日立市,城南町１丁目２番７号,,08,202,3170077,,,2025-09-18,清算の結了等,,,2015-10-05,1,,,,,ヒタチダイプランニング,0
104,1090002007463,登記記録の閉鎖等,0,2025-09-29,2025-09-19,有限会社太陽ライン,,有限会社,山梨県,南アルプス市,寺部９６４番地１,,19,208,4000337,,,2025-09-19,清算の結了等,,,2015-10-05,1,,,,,タイヨウライン,0
151,1140001033942,登記記録の閉鎖等,0,2025-09-29,2025-09-22,株式会社コトブキフーズ,,株式会社,兵庫県,神戸市中央区,元町通２丁目７番７号,,28,110,6500022,,,2025-09-22,清算の結了等,,,2015-10-05,1,,,,,コトブキフーズ,0
155,1150001008506,登記記録の閉鎖等,0,2025-09-29,2025-09-24,ＪＲ奈良駅前ホテル開発株式会社,,株式会社,奈良県,奈良市,三条大宮町５番２３号,,29,201,6308123,,,2025-09-24,清算の結了等,,,2015-10-05,1,,,,,ジェイアールナラエキマエホテルカイハツ,0
159,1180001052476,登記記録の閉鎖等,0,2025-09-29,2025-08-29,金城紙工株式会社,,株式会社,愛知県,西春日井郡豊山町,大字豊場字志水７５番地の１,,23,342,4800202,,,2025-08-29,清算の結了等,,,2025-08-18,1,,,,,キンジョウシコウ,0
176,1220005005806,登記記録の閉鎖等,0,2025-09-29,2025-09-22,輪島市商店連盟協同組合,,その他の設立登記法人,石川県,輪島市,河井町２０部１番地１,,17,204,9280001,,,2025-09-22,清算の結了等,,,2015-10-05,1,,,,,,0
177,1220005008016,登記記録の閉鎖等,0,2025-09-29,2025-09-24,一般社団法人日本治療食協会,,その他の設立登記法人,石川県,金沢市,三社町１番２５号,,17,201,9200861,,,2025-09-24,清算の結了等,,,2015-10-05,1,,,,,ニホンチリョウショクキョウカイ,0
182,1240001045283,登記記録の閉鎖等,0,2025-09-29,2025-09-11,オリーブ株式会社,,株式会社,広島県,広島市中区,国泰寺町２丁目１番２４－１００１号,,34,101,7300042,,,2025-09-11,清算の結了等,,,2015-10-05,1,,,,,オリーブ,0
183,1260002011456,登記記録の閉鎖等,0,2025-09-29,2025-09-11,有限会社クリエイティブオフィス・ケイツー,,有限会社,岡山県,岡山市南区,泉田３丁目３番１５号,,33,104,7000944,,,2025-09-11,清算の結了等,,,2015-10-05,1,,,,,クリエイティブオフィスケイツー,0
184,1280005004430,登記記録の閉鎖等,0,2025-09-29,2025-09-24,特定非営利活動法人あいの会,,その他の設立登記法人,島根県,浜田市,三隅町三隅３７０番地３,,32,202,6993211,,,2025-09-24,清算の結了等,,,2015-10-05,1,,,,,アイノカイ,0
206,1340001014765,登記記録の閉鎖等,0,2025-09-29,2025-09-18,株式会社大谷五郎治,,株式会社,鹿児島県,鹿屋市,上谷町６番１８号,,46,203,8930061,,,2025-09-18,清算の結了等,,,2015-10-05,1,,,,,オオタニゴロウジ,0
208,1370001003261,登記記録の閉鎖等,0,2025-09-29,2025-09-11,株式会社鈴木繁夫商店,,株式会社,宮城県,仙台市若林区,木ノ下４丁目６番１２号,,04,103,9840047,,,2025-09-11,清算の結了等,,,2015-10-05,1,,,,,スズキシゲオショウテン,0
246,2010401011683,登記記録の閉鎖等,0,2025-09-29,2025-08-27,株式会社三福電機,,株式会社,東京都,港区,白金５丁目１２番１７号,,13,103,1080072,,,2025-08-27,清算の結了等,,,2015-10-05,1,,,,,サンプクデンキ,0
256,2010405017289,登記記録の閉鎖等,0,2025-09-29,2025-09-22,一般社団法人ｓｈｉｒｏｋｕｒｏ,,その他の設立登記法人,群馬県,伊勢崎市,宮子町３００４番地１,,10,204,3720801,,,2025-09-22,清算の結了等,,,2018-12-17,1,,,,,シロクロ,0
261,2010802020630,登記記録の閉鎖等,0,2025-09-29,2025-09-16,有限会社ＩＷＡＭＡ,,有限会社,東京都,大田区,大森北１丁目２６番９号,,13,111,1430016,,,2025-09-16,清算の結了等,,,2015-10-05,1,,,,,イワマ,0
290,2013101007043,登記記録の閉鎖等,0,2025-09-29,2025-09-26,杉浦衣料株式会社,,株式会社,東京都,青梅市,梅郷２丁目４１７番地の１,,13,205,1980063,,,2025-09-26,清算の結了等,,,2015-10-05,1,,,,,スギウライリョウ,0
307,2030002089564,登記記録の閉鎖等,0,2025-09-29,2025-09-17,有限会社鈴浩工務店,,有限会社,埼玉県,北葛飾郡松伏町,大字築比地５７３番地２,,11,465,3430102,,,2025-09-17,清算の結了等,,,2015-10-05,1,,,,,スズヒロコウムテン,0
316,2040002062594,登記記録の閉鎖等,0,2025-09-29,2025-08-29,有限会社大日ハウジング,,有限会社,千葉県,四街道市,大日緑ヶ丘３６０番地３,,12,228,2840001,,,2025-08-29,清算の結了等,,,2015-10-05,1,,,,,ダイニチハウジング,0
333,2080402000266,登記記録の閉鎖等,0,2025-09-29,2025-09-19,有限会社アクトプラニング,,有限会社,静岡県,浜松市中央区,三方原町１５９番地の２,,22,138,4338105,,,2025-09-19,清算の結了等,,,2015-10-05,1,,,,,アクトプラニング,0
399,2250001017660,登記記録の閉鎖等,0,2025-09-29,2025-09-25,株式会社オフィスＴ．ｏ．Ｉ,,株式会社,山口県,周南市,周陽２丁目７番１０号,,35,215,7450823,,,2025-09-25,清算の結了等,,,2019-04-11,1,,,,,オフィスティーオーアイ,0
401,2250002016827,登記記録の閉鎖等,0,2025-09-29,2025-09-25,有限会社明和設備工業,,有限会社,山口県,周南市,大字樋口第１１４番地,00002785,35,215,7450622,,,2025-09-25,清算の結了等,,,2015-10-05,1,,,,,メイワセツビコウギョウ,0
412,2290001073114,登記記録の閉鎖等,0,2025-09-29,2025-09-01,福山ビジネスネットワーク株式会社,,株式会社,福岡県,福岡市博多区,博多駅東３丁目６番１８号,,40,132,8120013,,,2025-09-01,合併による解散等,5290001016276,令和７年８月３１日福岡市博多区博多駅東三丁目６番１８号株式会社福山コンサルタント（5290001016276）に合併し解散,2016-03-07,1,,,,,フクヤマビジネスネットワーク,0
421,2300001007202,登記記録の閉鎖等,0,2025-09-29,2025-09-25,佐賀ダイキュー運輸株式会社,,株式会社,佐賀県,唐津市,久里字古賀鶴３００３番１,,41,202,8470033,,,2025-09-25,清算の結了等,,,2015-10-05,1,,,,,サガダイキューウンユ,0
423,2310001009528,登記記録の閉鎖等,0,2025-09-29,2025-09-24,株式会社ＴＡＹＡ,,株式会社,福岡県,北九州市戸畑区,新川町６番１９－１１０２号,,40,105,8040065,,,2025-09-24,清算の結了等,,,2015-10-05,1,,,,,タヤ,0
439,2380002028066,登記記録の閉鎖等,0,2025-09-29,2025-09-11,有限会社アクア機工,,有限会社,福島県,南相馬市,原町区上高平字芦ノ口前１１４番地の５,00084051,07,212,9750026,,,2025-09-11,清算の結了等,,,2015-10-05,1,,,,,アクアキコウ,0
441,2380005007315,登記記録の閉鎖等,0,2025-09-29,2025-09-12,宗教法人水神宮教会,,その他の設立登記法人,福島県,相馬市,原釜字大津２３９番地,,07,209,9760021,,,2025-09-12,清算の結了等,,,2015-10-05,1,,,,,,0
442,2402702000219,登記記録の閉鎖等,0,2025-09-29,2025-09-12,有限会社シード,,有限会社,岩手県,大船渡市,立根町字猫足２０番地４７,,03,203,0220006,,,2025-09-12,清算の結了等,,,2015-10-05,1,,,,,シード,0
445,2420002017840,登記記録の閉鎖等,0,2025-09-29,2025-09-09,有限会社ニーズ,,有限会社,青森県,上北郡六戸町,大字犬落瀬字権現沢５４番地２００,,02,405,0330071,,,2025-09-09,清算の結了等,,,2015-10-05,1,,,,,ニーズ,0
450,2450002011766,登記記録の閉鎖等,0,2025-09-29,2025-09-22,有限会社太田産業,,有限会社,北海道,留萌市,千鳥町１丁目４５番地,,01,212,0770024,,,2025-09-22,清算の結了等,,,2015-10-05,1,,,,,オオタサンギョウ,0
471,3010005022952,登記記録の閉鎖等,0,2025-09-29,2025-09-16,一般社団法人中小企業支援機構,,その他の設立登記法人,東京都,千代田区,飯田橋１丁目８番９号,,13,101,1020072,,,2025-09-16,清算の結了等,,,2015-10-05,1,,,,,チュウショウキギョウシエンキコウ,0
499,3011301003927,登記記録の閉鎖等,0,2025-09-29,2025-09-18,株式会社泰来,,株式会社,東京都,杉並区,荻窪５丁目２５番１号サザンハウス６階,,13,115,1670051,,,2025-09-18,清算の結了等,,,2015-10-05,1,,,,,タイライ,0
505,3011802015834,登記記録の閉鎖等,0,2025-09-29,2025-09-24,有限会社土屋コンサルタンツ,,有限会社,東京都,足立区,加平３丁目３番１７号,,13,121,1210055,,,2025-09-24,清算の結了等,,,2015-10-05,1,,,,,ツチヤコンサルタンツ,0
539,3040001067577,登記記録の閉鎖等,0,2025-09-29,2025-08-29,上垣商事株式会社,,株式会社,千葉県,柏市,篠籠田１３９６番地８,,12,217,2770862,,,2025-08-29,清算の結了等,,,2015-10-05,1,,,,,カミガキショウジ,0
550,3050002018297,登記記録の閉鎖等,0,2025-09-29,2025-09-17,有限会社アオキ事務所,,有限会社,茨城県,猿島郡境町,大字塚崎２７６２番地１３,,08,546,3060405,,,2025-09-17,清算の結了等,,,2015-10-05,1,,,,,アオキジムショ,0
551,3050002035318,登記記録の閉鎖等,0,2025-09-29,2025-09-12,有限会社生田目商店,,有限会社,茨城県,常陸太田市,上深荻町２２４番地,,08,212,3110509,,,2025-09-12,清算の結了等,,,2015-10-05,1,,,,,ナマタメショウテン,0
557,3080402003945,登記記録の閉鎖等,0,2025-09-29,2025-09-19,有限会社スーパー大崎屋,,有限会社,静岡県,浜松市中央区,中田島町１６５２番地,,22,138,4300845,,,2025-09-19,清算の結了等,,,2015-10-05,1,,,,,スーパーオオサキヤ,0
558,3080402018860,登記記録の閉鎖等,0,2025-09-29,2025-09-22,有限会社沢入石油,,有限会社,静岡県,御前崎市,御前崎１１１番地の６,,22,223,4371621,,,2025-09-22,清算の結了等,,,2015-10-05,1,,,,,サワイリセキユ,0
593,3150005007221,登記記録の閉鎖等,0,2025-09-29,2025-09-24,中吉野木材市売協同組合,,その他の設立登記法人,奈良県,吉野郡大淀町,大字佐名伝６４１番地の２,,29,442,6380831,,,2025-09-24,清算の結了等,,,2015-10-05,1,,,,,ナカヨシノモクザイイチウリ,0
597,3160005009836,登記記録の閉鎖等,0,2025-09-29,2025-09-24,特定非営利活動法人Ｒｉｂｂｏｎ　Ｒｉｎｇ,,その他の設立登記法人,滋賀県,高島市,マキノ町西浜７０４番地１,,25,212,5201812,,,2025-09-24,清算の結了等,,,2015-10-05,1,,,,,リボンリング,0
602,3180002019027,登記記録の閉鎖等,0,2025-09-29,2025-09-02,有限会社白光電気工事,,有限会社,愛知県,名古屋市中川区,戸田１丁目２６０９番地の１,,23,110,4540962,,,2025-09-02,清算の結了等,,,2015-10-05,1,,,,,ハクコウデンキコウジ,0
603,3180002038687,登記記録の閉鎖等,0,2025-09-29,2025-09-02,有限会社かれん,,有限会社,愛知県,一宮市,浅野字駒寄１２番地１,,23,203,4910871,,,2025-09-02,清算の結了等,,,2015-10-05,1,,,,,カレン,0
604,3180002073767,登記記録の閉鎖等,0,2025-09-29,2025-09-03,有限会社デジグラフィック,,有限会社,愛知県,尾張旭市,長坂町南山２８７４番地１４５,,23,226,4880821,,,2025-09-03,清算の結了等,,,2015-10-05,1,,,,,デジグラフィック,0
608,3180301021427,登記記録の閉鎖等,0,2025-09-29,2025-09-05,株式会社アキラス,,株式会社,愛知県,みよし市,三好町上１６番地,,23,236,4700224,,,2025-09-05,清算の結了等,,,2015-10-05,1,,,,,アキラス,0
622,3260002023409,登記記録の閉鎖等,0,2025-09-29,2025-09-12,有限会社こにし美容室,,有限会社,岡山県,総社市,駅前１丁目８番４３号,,33,208,7191136,,,2025-09-12,清算の結了等,,,2015-10-05,1,,,,,コニシビヨウシツ,0
660,3430001004425,登記記録の閉鎖等,0,2025-09-29,2025-09-18,株式会社北野建設,,株式会社,北海道,札幌市清田区,北野三条２丁目１１番１５号,,01,110,0040863,,,2025-09-18,清算の結了等,,,2015-10-05,1,,,,,キタノケンセツ,0
682,4010003013028,登記記録の閉鎖等,0,2025-09-29,2025-08-27,合同会社公民連携推進協会,,合同会社,千葉県,八千代市,大和田新田１０２番地３３,,12,221,2760046,,,2025-08-27,清算の結了等,,,2015-10-05,1,,,,,コウミンレンケイスイシンキョウカイ,0
684,4010101013210,登記記録の閉鎖等,0,2025-09-29,2025-09-26,株式会社Ｓｅｌｅｃｔｉｏｎ,,株式会社,東京都,八王子市,寺田町４３２番地グリーンヒル寺田１０５－１１０３,,13,201,1930943,,,2025-09-26,清算の結了等,,,2018-03-05,1,,,,,,0
691,4010402003629,登記記録の閉鎖等,0,2025-09-29,2025-09-04,有限会社要商事,,有限会社,東京都,港区,南麻布１丁目６番４－５０１号,,13,103,1060047,,,2025-09-04,清算の結了等,,,2015-10-05,1,,,,,カナメショウジ,0
710,4010902006420,登記記録の閉鎖等,0,2025-09-29,2025-09-24,有限会社榊原商店,,有限会社,東京都,世田谷区,桜丘２丁目２１番８号,,13,112,1560054,,,2025-09-24,清算の結了等,,,2015-10-05,1,,,,,サカキバラショウテン,0
715,4011001154053,登記記録の閉鎖等,0,2025-09-29,2025-08-28,株式会社ｓｕｋｉ,,株式会社,東京都,渋谷区,宇田川町１番１２－１６０５号,,13,113,1500042,,,2025-08-28,清算の結了等,,,2023-04-26,1,,,,,スキ,0
763,4020002012079,登記記録の閉鎖等,0,2025-09-29,2025-09-05,菅原商事有限会社,,有限会社,神奈川県,横浜市戸塚区,前田町３５番地,,14,110,2440804,,,2025-09-05,清算の結了等,,,2015-10-05,1,,,,,スガワラショウジ,0
764,4020002097764,登記記録の閉鎖等,0,2025-09-29,2025-09-08,有限会社高橋信雄電機商会,,有限会社,神奈川県,川崎市川崎区,出来野１２番１８号,,14,131,2100825,,,2025-09-08,清算の結了等,,,2015-10-05,1,,,,,タカハシノブオデンキショウカイ,0
780,4030003020303,登記記録の閉鎖等,0,2025-09-29,2025-09-16,イニシエイトワークス合同会社,,合同会社,埼玉県,さいたま市桜区,西堀４丁目１番１号,,11,106,3380832,,,2025-09-16,清算の結了等,,,2022-10-04,1,,,,,イニシエイトワークス,0
782,4040001014537,登記記録の閉鎖等,0,2025-09-29,2025-09-01,株式会社瑞宝堂,,株式会社,千葉県,習志野市,東習志野１丁目１１番２４号,,12,216,2750001,,,2025-09-01,清算の結了等,,,2015-10-05,1,,,,,ズイホウドウ,0
804,4080402004190,登記記録の閉鎖等,0,2025-09-29,2025-09-19,有限会社スヤマサービス,,有限会社,静岡県,浜松市中央区,西山町２２３１番地の１,,22,138,4328001,,,2025-09-19,清算の結了等,,,2015-10-05,1,,,,,スヤマサービス,0
814,4120001079869,登記記録の閉鎖等,0,2025-09-29,2025-09-16,サス株式会社,,株式会社,大阪府,大阪市西区,靱本町１丁目５番１５号第二富士ビル２階,,27,106,5500004,,,2025-09-16,清算の結了等,,,2015-10-05,1,,,,,サス,0
818,4120001221868,登記記録の閉鎖等,0,2025-09-29,2025-09-18,ＳＨＩＭＺＧＲＯＵＰ株式会社,,株式会社,大阪府,大阪市北区,大淀南２丁目６番１６号ＮＩＳＨＩＫＥＮビル３Ｆ,,27,127,5310075,,,2025-09-18,清算の結了等,,,2019-06-20,1,,,,,シミズグループ,0
819,4120001237823,登記記録の閉鎖等,0,2025-09-29,2025-09-16,株式会社エコハウスサポート,,株式会社,大阪府,大阪市淀川区,西中島６丁目７番１１号小谷第一ビル８Ｆ,,27,123,5320011,,,2025-09-16,清算の結了等,,,2021-06-01,1,,,,,エコハウスサポート,0
820,4120001242055,登記記録の閉鎖等,0,2025-09-29,2025-09-19,株式会社櫻花,,株式会社,大阪府,大阪市北区,中崎西２丁目６－３パステルワンビル４０１,,27,127,5300015,,,2025-09-19,清算の結了等,,,2021-11-22,1,,,,,オウカ,0
821,4120001258919,登記記録の閉鎖等,0,2025-09-29,2025-09-16,株式会社ＩＴＯ　ＴＰ,,株式会社,大阪府,大阪市西成区,花園南１丁目８番９号,,27,122,5570015,,,2025-09-16,清算の結了等,,,2023-10-20,1,,,,,アイティオーティーピー,0
865,4180001135179,登記記録の閉鎖等,0,2025-09-29,2025-09-02,株式会社サクラードクリエーション,,株式会社,愛知県,名古屋市中区,栄３丁目１２番６号,,23,106,4600008,,,2025-09-02,清算の結了等,,,2019-01-22,1,,,,,サクラードクリエーション,0
875,4200005000509,登記記録の閉鎖等,0,2025-09-29,2025-09-24,円成寺,,その他の設立登記法人,岐阜県,岐阜市,洞１０７３番地,,21,201,5011128,,,2025-09-24,清算の結了等,,,2015-10-05,1,,,,,エンジョウジ,0
877,4210003001870,登記記録の閉鎖等,0,2025-09-29,2025-09-19,合同会社インテグラル櫛川,,合同会社,福井県,敦賀市,山泉７号１５番地３,,18,202,9140035,,,2025-09-19,清算の結了等,,,2025-01-17,1,,,,,インテグラルクシカワ,0
888,4280001006056,登記記録の閉鎖等,0,2025-09-29,2025-09-25,島根ルート配送株式会社,,株式会社,島根県,出雲市,高松町１３３１番地１,,32,203,6930053,,,2025-09-25,清算の結了等,,,2015-10-05,1,,,,,シマネルートハイソウ,0
919,4330002031064,登記記録の閉鎖等,0,2025-09-29,2025-09-17,有限会社人吉無線サービス,,有限会社,熊本県,球磨郡湯前町,１７１１番地,,43,506,8680600,,,2025-09-17,清算の結了等,,,2015-10-05,1,,,,,ヒトヨシムセンサービス,0
953,5010001211053,登記記録の閉鎖等,0,2025-09-29,2025-09-18,株式会社プロモア,,株式会社,東京都,品川区,東五反田１丁目６－３いちご東五反田ビル３階プレミアムオフィス五反田３２８,,13,109,1410022,,,2025-09-18,清算の結了等,,,2020-07-21,1,,,,,プロモア,0
976,5010703006800,登記記録の閉鎖等,0,2025-09-29,2025-09-22,合同会社ＺｅｎＡＩ,,合同会社,東京都,品川区,西品川３丁目２１番１号ビクトリアプレイス３０８号,,13,109,1410033,,,2025-09-22,清算の結了等,,,2023-08-01,1,,,,,ゼナイ,0
999,5011102005765,登記記録の閉鎖等,0,2025-09-29,2025-09-02,有限会社ジェイ・ティー・アイ,,有限会社,東京都,新宿区,東榎町１１番地,,13,104,1620807,,,2025-09-02,合併による解散等,2011102004555,令和７年９月２日東京都新宿区東榎町１１番地株式会社晃明社（2011102004555）に合併し解散,2015-10-05,1,,,,,ジェイティーアイ,0
1019,5020001072957,登記記録の閉鎖等,0,2025-09-29,2025-09-24,参武興業株式会社,,株式会社,東京都,世田谷区,砧８丁目７番１６号コスモレジア世田谷砧３０３,,13,112,1570073,,,2025-09-24,清算の結了等,,,2015-10-05,1,,,,,サンブコウギョウ,0
1029,5030001107852,登記記録の閉鎖等,0,2025-09-29,2025-09-10,丸武冷鮮株式会社,,株式会社,埼玉県,さいたま市岩槻区,大字岩槻６９１９番地１,,11,110,3390061,,,2025-09-10,清算の結了等,,,2015-10-05,1,,,,,マルタケレイセン,0
1033,5030002035508,登記記録の閉鎖等,0,2025-09-29,2025-09-17,高庄織物有限会社,,有限会社,埼玉県,入間市,大字新久５８２番地１,,11,225,3580031,,,2025-09-17,清算の結了等,,,2015-10-05,1,,,,,タカショウオリモノ,0
1037,5040001016805,登記記録の閉鎖等,0,2025-09-29,2025-09-02,株式会社エイコー,,株式会社,千葉県,千葉市花見川区,幕張町３丁目１４６３番地６,,12,102,2620032,,,2025-09-02,合併による解散等,4040001129962,令和７年９月１日千葉県千葉市花見川区幕張町三丁目１４６３番地６株式会社Ａ（4040001129962）に合併し解散,2015-10-05,1,,,,,エイコー,0
1043,5050001020681,登記記録の閉鎖等,0,2025-09-29,2025-09-18,タイヨー工業株式会社,,株式会社,茨城県,神栖市,日川１９１８番地１２７,,08,232,3140114,,,2025-09-18,清算の結了等,,,2015-10-05,1,,,,,タイヨーコウギョウ,0
1083,5120902014304,登記記録の閉鎖等,0,2025-09-29,2025-09-11,有限会社アキモト,,有限会社,大阪府,池田市,住吉２丁目１４番１０号,,27,204,5630033,,,2025-09-11,清算の結了等,,,2015-10-05,1,,,,,アキモト,0
1087,5130001048319,登記記録の閉鎖等,0,2025-09-29,2025-09-25,株式会社シンワ・コーポレーション,,株式会社,京都府,八幡市,下奈良中ノ坪１３番地７,,26,210,6148134,,,2025-09-25,清算の結了等,,,2015-10-05,1,,,,,シンワコーポレーション,0
1103,5160003003459,登記記録の閉鎖等,0,2025-09-29,2025-09-24,合同会社さくら,,合同会社,滋賀県,甲賀市,土山町北土山５３６番地,,25,209,5280211,,,2025-09-24,清算の結了等,,,2025-05-09,1,,,,,サクラ,0
1118,5200003001400,登記記録の閉鎖等,0,2025-09-29,2025-09-22,合名会社西垣商店,,合名会社,岐阜県,羽島市,上中町長間８９４番地の２,,21,209,5016311,,,2025-09-22,清算の結了等,,,2015-10-05,1,,,,,ニシガキショウテン,0
1122,5230005005280,登記記録の閉鎖等,0,2025-09-29,2025-09-19,一般財団法人五箇山合掌の里,,その他の設立登記法人,富山県,南砺市,菅沼８５５番地,,16,210,9391973,,,2025-09-19,清算の結了等,,,2015-10-05,1,,,,,ゴカヤマガッショウノサト,0
1128,5280002001591,登記記録の閉鎖等,0,2025-09-29,2025-09-24,有限会社内藤薬品,,有限会社,島根県,松江市,朝日町４９９番地１,,32,201,6900003,,,2025-09-24,清算の結了等,,,2015-10-05,1,,,,,ナイトウヤクヒン,0
1134,5290001099668,登記記録の閉鎖等,0,2025-09-29,2025-08-29,西日本総合サービス株式会社,,株式会社,福岡県,福岡市博多区,博多駅南６丁目１１番３－９０６号,,40,132,8120016,,,2025-08-29,清算の結了等,,,2022-11-24,1,,,,,ニシニホンソウゴウサービス,0
1161,5390002012545,登記記録の閉鎖等,0,2025-09-29,2025-09-19,有限会社アド研究所,,有限会社,山形県,米沢市,中央５丁目３番４７号,,06,202,9920045,,,2025-09-19,清算の結了等,,,2015-10-05,1,,,,,,0
1203,6010701041492,登記記録の閉鎖等,0,2025-09-29,2025-09-19,レナトゥス株式会社,,株式会社,東京都,品川区,西五反田１丁目３３番１０号西五反田サインタワー９Ｆ,,13,109,1410031,,,2025-09-19,清算の結了等,,,2021-09-13,1,,,,,レナトゥス,0
1253,6013302000685,登記記録の閉鎖等,0,2025-09-29,2025-09-10,有限会社アド・フオト・クリエイテイブ,,有限会社,東京都,豊島区,上池袋４丁目１１番９号,,13,116,1700012,,,2025-09-10,清算の結了等,,,2015-10-05,1,,,,,アドフォトクリエイティブ,0
1254,6020001012540,登記記録の閉鎖等,0,2025-09-29,2025-09-05,株式会社五十嵐測量設計事務所,,株式会社,神奈川県,横浜市南区,吉野町４丁目１８番地,,14,105,2320014,,,2025-09-05,清算の結了等,,,2015-10-05,1,,,,,イガラシソクリョウセッケイジムショ,0
1258,6020001106202,登記記録の閉鎖等,0,2025-09-29,2025-09-08,株式会社セブンシーリフォーム,,株式会社,神奈川県,横浜市戸塚区,東俣野町１０７番地７,,14,110,2450065,,,2025-09-08,清算の結了等,,,2015-10-05,1,,,,,セブンシーリフォーム,0
1259,6020001126621,登記記録の閉鎖等,0,2025-09-29,2025-09-08,株式会社ＥＮマネージメント,,株式会社,神奈川県,横浜市瀬谷区,中屋敷２丁目３２番地１２,,14,114,2460004,,,2025-09-08,清算の結了等,,,2018-06-06,1,,,,,イーエヌマネージメント,0
1263,6020002017828,登記記録の閉鎖等,0,2025-09-29,2025-09-04,有限会社ワールド・ウイング・コーポレーション,,有限会社,神奈川県,横浜市西区,中央１丁目３２番１３号,,14,103,2200051,,,2025-09-04,清算の結了等,,,2015-10-05,1,,,,,ワールドウィングコーポレーション,0
1356,6200001039664,登記記録の閉鎖等,0,2025-09-29,2025-09-24,株式会社アクセル羽島,,株式会社,岐阜県,安八郡安八町,東結９５２番地の１０１,,21,383,5030112,,,2025-09-24,清算の結了等,,,2022-01-18,1,,,,,アクセルハシマ,0
1367,6240002032986,登記記録の閉鎖等,0,2025-09-29,2025-09-22,有限会社秀英商事,,有限会社,広島県,呉市,東中央２丁目４番２１号,,34,202,7370052,,,2025-09-22,清算の結了等,,,2015-10-05,1,,,,,シュウエイショウジ,0
1372,6260001021484,登記記録の閉鎖等,0,2025-09-29,2025-09-16,ウエストジヤパン興業株式会社,,株式会社,岡山県,岡山市中区,清水４１８番地,,33,102,7038243,,,2025-09-16,合併による解散等,6013301019628,令和７年８月３１日東京都豊島区南大塚三丁目４６番３号株式会社勝英自動車学校（6013301019628）に合併し解散,2015-10-05,1,,,,,ウエストジャパンコウギョウ,0
1373,6260001026649,登記記録の閉鎖等,0,2025-09-29,2025-09-17,株式会社ＬＵＭＯ,,株式会社,岡山県,岡山市北区,下伊福上町４－３－４０３,,33,101,7000051,,,2025-09-17,清算の結了等,,,2015-10-05,1,,,,,ルーモ,0
1380,6270002007102,登記記録の閉鎖等,0,2025-09-29,2025-09-25,有限会社ミキコーポレーション,,有限会社,鳥取県,米子市,旗ヶ崎２丁目１３番２号,,31,202,6830845,,,2025-09-25,清算の結了等,,,2015-10-05,1,,,,,ミキコーポレーション,0
1382,6280002009790,登記記録の閉鎖等,0,2025-09-29,2025-09-24,有限会社アルソアユキ,,有限会社,島根県,益田市,東町２番３３号,,32,204,6980004,,,2025-09-24,清算の結了等,,,2015-10-05,1,,,,,アルソアユキ,0
1389,6320002018192,登記記録の閉鎖等,0,2025-09-29,2025-09-19,有限会社あいざわ,,有限会社,大分県,豊後大野市,三重町赤嶺１９６４番地,,44,212,8797111,,,2025-09-19,清算の結了等,,,2015-10-05,1,,,,,アイザワ,0
1414,6430003004775,登記記録の閉鎖等,0,2025-09-29,2025-08-07,合同会社ＡＱＵＡＲＩＵＳ,,合同会社,北海道,札幌市中央区,大通西２１丁目１番１２号,,01,101,0640820,,,2025-08-07,合併による解散等,5430001062867,令和７年８月１日札幌市中央区大通西二十一丁目１番１２号合同会社サンタクロース（5430001062867）に合併し解散,2015-10-05,1,,,,,アクエリアス,0
1415,6430003015153,登記記録の閉鎖等,0,2025-09-29,2025-09-05,合同会社ユニオン,,合同会社,北海道,札幌市中央区,南二条東１丁目１番１２号,,01,101,0600052,,,2025-09-05,清算の結了等,,,2023-06-14,1,,,,,ユニオン,0
1437,7010102006656,登記記録の閉鎖等,0,2025-09-29,2025-09-25,有限会社みちのく,,有限会社,東京都,八王子市,万町１０番地の２,,13,201,1920903,,,2025-09-25,清算の結了等,,,2015-10-05,1,,,,,,0
1438,7010401076805,登記記録の閉鎖等,0,2025-09-29,2025-08-27,ＧＢ株式会社,,株式会社,東京都,港区,南青山１丁目１番１号,,13,103,1070062,,,2025-08-27,清算の結了等,,,2015-10-05,1,,,,,ジービー,0
1446,7010602007468,登記記録の閉鎖等,0,2025-09-29,2025-09-18,有限会社藤鋼,,有限会社,東京都,江東区,森下３丁目１０番１５号,,13,108,1350004,,,2025-09-18,清算の結了等,,,2015-10-05,1,,,,,フジコウ,0
1453,7010802010668,登記記録の閉鎖等,0,2025-09-29,2025-09-17,有限会社ナガツ放電,,有限会社,東京都,大田区,羽田１丁目８番２号,,13,111,1440043,,,2025-09-17,清算の結了等,,,2015-10-05,1,,,,,ナガツホウデン,0
1478,7012802001358,登記記録の閉鎖等,0,2025-09-29,2025-09-10,有限会社多摩電装,,有限会社,東京都,立川市,砂川町７丁目３７番地の６,,13,202,1900031,,,2025-09-10,清算の結了等,,,2015-10-05,1,,,,,タマデンソウ,0
1484,7020001105698,登記記録の閉鎖等,0,2025-09-29,2025-09-08,株式会社志喜屋組,,株式会社,神奈川県,川崎市幸区,古市場２丁目９５番地２４,,14,132,2120052,,,2025-09-08,清算の結了等,,,2015-10-05,1,,,,,シキヤグミ,0
1491,7021001004477,登記記録の閉鎖等,0,2025-09-29,2025-09-03,株式会社成和,,株式会社,神奈川県,横浜市保土ケ谷区,上菅田町８３０番地,,14,106,2400051,,,2025-09-03,合併による解散等,4020001009877,令和７年９月１日横浜市保土ケ谷区上菅田町８３０番地株式会社アイビー・ガーデン（4020001009877）に合併し解散,2015-10-05,1,,,,,セイワ,0
1492,7021001069818,登記記録の閉鎖等,0,2025-09-29,2025-09-05,株式会社Ａｌｌｕｒｅ,,株式会社,神奈川県,厚木市,恩名３丁目１１番４５号,,14,212,2430032,,,2025-09-05,清算の結了等,,,2020-04-22,1,,,,,アリュール,0
1502,7040001025382,登記記録の閉鎖等,0,2025-09-29,2025-08-29,株式会社アーバンヒルズ,,株式会社,千葉県,市川市,市川４丁目１０番２８号,,12,203,2720034,,,2025-08-29,清算の結了等,,,2015-10-05,1,,,,,アーバンヒルズ,0
1523,7090002012813,登記記録の閉鎖等,0,2025-09-29,2025-09-19,有限会社山崎保険企画,,有限会社,山梨県,富士吉田市,中曽根２丁目１３番１２号,,19,202,4030007,,,2025-09-19,清算の結了等,,,2015-10-05,1,,,,,ヤマザキホケンキカク,0
1529,7100002018569,登記記録の閉鎖等,0,2025-09-29,2025-09-25,有限会社志賀板金工業所,,有限会社,長野県,下高井郡山ノ内町,大字平穏２７９０番地の２,,20,561,3810401,,,2025-09-25,清算の結了等,,,2015-10-05,1,,,,,シガバンキンコウギョウショ,0
1533,7120001229074,登記記録の閉鎖等,0,2025-09-29,2025-09-18,ＩＮＮＯＶＡＴＩＯＮ　ＬＡＢＳ　ＪＡＰＡＮ株式会社,,株式会社,大阪府,大阪市中央区,平野町２丁目５－８平野町センチュリービル３Ｆ,,27,128,5410046,,,2025-09-18,清算の結了等,,,2020-05-15,1,,,,,イノベーションラボジャパン,0
1543,7120003008451,登記記録の閉鎖等,0,2025-09-29,2025-09-17,合同会社ＲＥ,,合同会社,大阪府,大阪市住之江区,粉浜２丁目１０番４６号２Ｆ,,27,125,5590001,,,2025-09-17,清算の結了等,,,2015-10-05,1,,,,,アールイー,0
1555,7130002009012,登記記録の閉鎖等,0,2025-09-29,2025-09-16,有限会社タマイ商事,,有限会社,京都府,京都市西京区,山田北山田町１６番地,,26,111,6158267,,,2025-09-16,清算の結了等,,,2015-10-05,1,,,,,タマイショウジ,0
1557,7140001011298,登記記録の閉鎖等,0,2025-09-29,2025-09-22,株式会社メディアフォーラムジャパン,,株式会社,兵庫県,神戸市中央区,浜辺通５丁目１番１４号,,28,110,6510083,,,2025-09-22,清算の結了等,,,2015-10-05,1,,,,,メディアフォーラムジャパン,0
1558,7140001014929,登記記録の閉鎖等,0,2025-09-29,2025-09-22,株式会社木戸ビル,,株式会社,兵庫県,神戸市北区,鈴蘭台東町１丁目１２番１６号,,28,109,6511112,,,2025-09-22,清算の結了等,,,2015-10-05,1,,,,,キドビル,0
1561,7140001044785,登記記録の閉鎖等,0,2025-09-29,2025-09-22,株式会社加古川運動公園市民スポーツサービス,,株式会社,兵庫県,加古川市,別府町新野辺１５２５番地２,,28,210,6750131,,,2025-09-22,清算の結了等,,,2015-10-05,1,,,,,カコガワウンドウコウエンシミンスポーツサービス,0
1572,7170002002640,登記記録の閉鎖等,0,2025-09-29,2025-09-24,有限会社鳥居鈑金,,有限会社,和歌山県,和歌山市,福島４３４番地,,30,201,6408401,,,2025-09-24,清算の結了等,,,2015-10-05,1,,,,,トリイバンキン,0
1590,7250003001724,登記記録の閉鎖等,0,2025-09-29,2025-09-24,ａｋｍＬＬＣ合同会社,,合同会社,山口県,山口市,上竪小路４５番地５,,35,203,7530035,,,2025-09-24,清算の結了等,,,2015-10-05,1,,,,,エイケイエムエルエルシー,0
1596,7280001004899,登記記録の閉鎖等,0,2025-09-29,2025-09-24,株式会社赤井保険事務所,,株式会社,島根県,安来市,安来町８１５番地３,,32,206,6920011,,,2025-09-24,清算の結了等,,,2015-10-05,1,,,,,アカイホケンジムショ,0
1604,7290003013971,登記記録の閉鎖等,0,2025-09-29,2025-08-29,ＡＳＡＧＯＵＳＨＩ合同会社,,合同会社,福岡県,福岡市東区,東浜１丁目９－２７,,40,131,8120055,,,2025-08-29,清算の結了等,,,2023-05-31,1,,,,,アサゴウシ,0
1626,7370003006273,登記記録の閉鎖等,0,2025-09-29,2025-09-11,イーアンドベイ合同会社,,合同会社,宮城県,栗原市,瀬峰長者原３８－２０,,04,213,9894516,,,2025-09-11,清算の結了等,,,2023-09-05,1,,,,,イーアンドベイ,0
1627,7370805000531,登記記録の閉鎖等,0,2025-09-29,2025-09-11,一般社団法人亘理町木造災害公営住宅建設推進協議会,,その他の設立登記法人,宮城県,亘理郡亘理町,逢隈上郡字若宮１９番地１,00123747,04,361,9892381,,,2025-09-11,清算の結了等,,,2015-10-05,1,,,,,ワタリチョウモクゾウサイガイコウエイジュウタクケンセツスイシンキョウギカイ,0
1639,7470002004284,登記記録の閉鎖等,0,2025-09-29,2025-09-25,有限会社タイヨウ繊維,,有限会社,香川県,高松市,新田町甲２０７４番地６,,37,201,7610102,,,2025-09-25,清算の結了等,,,2015-10-05,1,,,,,タイヨウセンイ,0
1661,8010401163420,登記記録の閉鎖等,0,2025-09-29,2025-08-27,株式会社ＫＭＳ,,株式会社,東京都,港区,赤坂２丁目２３番１号アークヒルズフロントタワーＲｏＰ９０４号室,,13,103,1070052,,,2025-08-27,清算の結了等,,,2021-10-27,1,,,,,ケーエムエス,0
1666,8010403032441,登記記録の閉鎖等,0,2025-09-29,2025-08-27,ＫＫＲ　ＪＲＥＰ　Ｆｅｅｄｅｒ　ＧＰ合同会社,,合同会社,東京都,港区,六本木１丁目９番１０号アークヒルズ仙石山森タワー４０階,,13,103,1060032,,,2025-08-27,清算の結了等,,,2024-04-18,1,,,,,ケーケーアールジェーレップフィーダージーピー,0
1677,8010801009504,登記記録の閉鎖等,0,2025-09-29,2025-09-16,株式会社ネクスト,,株式会社,東京都,大田区,矢口３丁目２８番８－８１３号,,13,111,1460093,,,2025-09-16,清算の結了等,,,2015-10-05,1,,,,,ネクスト,0
1709,8011801043732,登記記録の閉鎖等,0,2025-09-29,2025-09-24,新境株式会社,,株式会社,東京都,葛飾区,東金町３丁目１７番１０号ＫＢＳ・Ａ－３号,,13,122,1250041,,,2025-09-24,清算の結了等,,,2024-02-07,1,,,,,シンキョウカブシキガシャ,0
1713,8012702013007,登記記録の閉鎖等,0,2025-09-29,2025-09-24,有限会社Ａ・Ｚ・Ｍ,,有限会社,東京都,東村山市,本町１丁目６番地４８,,13,213,1890014,,,2025-09-24,清算の結了等,,,2015-10-05,1,,,,,エーゼットエム,0
1733,8030002086911,登記記録の閉鎖等,0,2025-09-29,2025-09-17,有限会社高田型枠,,有限会社,埼玉県,越谷市,川柳町１丁目２１６番地１,,11,222,3430827,,,2025-09-17,清算の結了等,,,2015-10-05,1,,,,,,0
1734,8030002093296,登記記録の閉鎖等,0,2025-09-29,2025-09-16,有限会社後藤設計,,有限会社,埼玉県,鶴ヶ島市,大字脚折字北口２７番地４,,11,241,3502213,,,2025-09-16,清算の結了等,,,2015-10-05,1,,,,,ゴトウセッケイ,0
1752,8050002033853,登記記録の閉鎖等,0,2025-09-29,2025-09-17,有限会社若泉工務店,,有限会社,茨城県,稲敷郡河内町,源清田１１０１番地,,08,447,3001324,,,2025-09-17,清算の結了等,,,2015-10-05,1,,,,,ワカイズミコウムテン,0
1761,8100001035226,登記記録の閉鎖等,0,2025-09-29,2025-09-24,株式会社インターワークス,,株式会社,長野県,北佐久郡軽井沢町,軽井沢東２５３番地,,20,321,3890104,,,2025-09-24,清算の結了等,,,2022-04-05,1,,,,,インターワークス,0
1764,8120001031883,登記記録の閉鎖等,0,2025-09-29,2025-09-16,株式会社ヨシムラ,,株式会社,大阪府,大阪市住之江区,新北島７丁目２番２－９０７号,,27,125,5590024,,,2025-09-16,清算の結了等,,,2015-10-05,1,,,,,ヨシムラ,0
1784,8120901016109,登記記録の閉鎖等,0,2025-09-29,2025-09-17,株式会社ティ・エス・テクノ,,株式会社,大阪府,大阪市中央区,博労町４丁目６番１７号第三丸米ビル３１２号,,27,128,5410059,,,2025-09-17,清算の結了等,,,2015-10-05,1,,,,,ティエステクノ,0
1800,8140001049734,登記記録の閉鎖等,0,2025-09-29,2025-09-19,株式会社ダイハン書房,,株式会社,兵庫県,尼崎市,東園田町９丁目１６番地の８,,28,202,6610953,,,2025-09-19,清算の結了等,,,2015-10-05,1,,,,,ダイハンショボウ,0
1810,8180001145538,登記記録の閉鎖等,0,2025-09-29,2025-09-02,デジテックワン株式会社,,株式会社,愛知県,名古屋市千種区,今池南３０番２号,,23,101,4640851,,,2025-09-02,清算の結了等,,,2021-04-07,1,,,,,デジテックワン,0
1825,8220001019530,登記記録の閉鎖等,0,2025-09-29,2025-09-22,株式会社ブランダート,,株式会社,石川県,金沢市,入江１丁目１５７番地,,17,201,9218011,,,2025-09-22,合併による解散等,6220001005268,令和７年９月２１日石川県金沢市森戸二丁目１番地１株式会社箔一（6220001005268）に合併し解散,2015-10-05,1,,,,,ブランダート,0
1836,8270002010723,登記記録の閉鎖等,0,2025-09-29,2025-09-25,有限会社井田建装,,有限会社,鳥取県,東伯郡三朝町,大字本泉３５１番地の１,,31,364,6820152,,,2025-09-25,清算の結了等,,,2015-10-05,1,,,,,イダケンソウ,0
1837,8270003000863,登記記録の閉鎖等,0,2025-09-29,2025-09-25,合同会社森岡通商,,合同会社,鳥取県,境港市,朝日町５９番地,,31,204,6840013,,,2025-09-25,清算の結了等,,,2015-10-05,1,,,,,モリオカツウショウ,0
1850,8290002036956,登記記録の閉鎖等,0,2025-09-29,2025-09-02,有限会社ファースト・アイ,,有限会社,福岡県,糟屋郡須惠町,大字佐谷３１番地の１,,40,344,8112115,,,2025-09-02,清算の結了等,,,2015-10-05,1,,,,,ファーストアイ,0
1853,8290002040529,登記記録の閉鎖等,0,2025-09-29,2025-09-01,有限会社明日香食品,,有限会社,福岡県,春日市,星見ヶ丘６丁目２番地,,40,218,8160849,,,2025-09-01,合併による解散等,5290002041166,令和７年９月１日福岡県春日市星見ヶ丘六丁目２番地株式会社豊州（5290002041166）に合併し解散,2015-10-05,1,,,,,アスカショクヒン,0
1854,8290002040933,登記記録の閉鎖等,0,2025-09-29,2025-09-01,有限会社大豊工業,,有限会社,福岡県,那珂川市,大字上梶原１００８番８３,,40,231,8111223,,,2025-09-01,合併による解散等,5290002041166,令和７年９月１日福岡県春日市星見ヶ丘六丁目２番地株式会社豊州（5290002041166）に合併し解散,2015-10-05,1,,,,,タイホウコウギョウ,0
1861,8340005002017,登記記録の閉鎖等,0,2025-09-29,2025-09-17,西海漁業生産組合,,その他の設立登記法人,鹿児島県,日置市,東市来町伊作田１６４６番地４,,46,216,8992203,,,2025-09-17,清算の結了等,,,2015-10-05,1,,,,,セイカイギョギョウ,0
1866,8370001042014,登記記録の閉鎖等,0,2025-09-29,2025-09-22,株式会社鈴与カーゴサービス東北,,株式会社,宮城県,仙台市宮城野区,苦竹３丁目４番１０号,,04,102,9830036,,,2025-09-22,合併による解散等,1030001124653,令和７年９月１日埼玉県日高市高萩９９３番地７株式会社鈴与カーゴサービス北関東（1030001124653）に合併し解散,2017-09-07,1,,,,,スズヨカーゴサービストウホク,0
1874,8430001048839,登記記録の閉鎖等,0,2025-09-29,2025-09-05,株式会社レビオ,,株式会社,北海道,滝川市,泉町１丁目１番２１号,,01,225,0730042,,,2025-09-05,清算の結了等,,,2015-10-05,1,,,,,レビオ,0
1904,9010005019448,登記記録の閉鎖等,0,2025-09-29,2025-08-08,一般社団法人アジアの絆,,その他の設立登記法人,千葉県,柏市,柏６丁目１番１号,,12,217,2770005,,,2025-08-08,清算の結了等,,,2015-10-05,1,,,,,アジアノキズナ,0
1908,9010401136631,登記記録の閉鎖等,0,2025-09-29,2025-08-27,株式会社Ｔａｘ　Ｒｅｆｕｎｄ　ＥＸｐｒｅｓｓ,,株式会社,東京都,港区,麻布十番１丁目２番７号,,13,103,1060045,,,2025-08-27,清算の結了等,,,2018-02-09,1,,,,,タックスリファウンドエクスプレス,0
1910,9010401170283,登記記録の閉鎖等,0,2025-09-29,2025-09-19,株式会社のぞみＣｏ,,株式会社,東京都,品川区,西五反田１丁目９番３号リバーライトビル３階,,13,109,1410031,,,2025-09-19,清算の結了等,,,2022-10-17,1,,,,,ノゾミコ,0
1990,9040001131427,登記記録の閉鎖等,0,2025-09-29,2025-08-29,竹南株式会社,,株式会社,千葉県,印旛郡栄町,酒直１２６番地,,12,329,2701513,,,2025-08-29,清算の結了等,,,2023-12-22,1,,,,,チクナン,0
1994,9040002075441,登記記録の閉鎖等,0,2025-09-29,2025-08-29,有限会社矢上塗装,,有限会社,千葉県,市原市,畑木４２番地２,,12,219,2990112,,,2025-08-29,清算の結了等,,,2015-10-05,1,,,,,ヤガミトソウ,0
1997,9050002020371,登記記録の閉鎖等,0,2025-09-29,2025-09-16,ハナンオールウェーズ株式会社,,株式会社,茨城県,坂東市,小泉９０４番地の８,,08,228,3060635,,,2025-09-16,清算の結了等,,,2015-10-05,1,,,,,ハナンオールウェーズ,0
1998,9050002036962,登記記録の閉鎖等,0,2025-09-29,2025-09-17,有限会社サミット・アールアンドディー,,有限会社,茨城県,守谷市,松ケ丘４丁目６番地５,,08,224,3020127,,,2025-09-17,清算の結了等,,,2015-10-05,1,,,,,サミットアールアンドディー,0
2001,9060002023274,登記記録の閉鎖等,0,2025-09-29,2025-09-19,有限会社ボルケーノ企画,,有限会社,栃木県,那須郡那須町,大字高久乙７９５番地１７,,09,407,3250303,,,2025-09-19,清算の結了等,,,2015-10-05,1,,,,,ボルケーノキカク,0
2003,9080001005560,登記記録の閉鎖等,0,2025-09-29,2025-09-19,株式会社米澤商店,,株式会社,静岡県,静岡市葵区,上桶屋町３４番地,,22,101,4200014,,,2025-09-19,清算の結了等,,,2015-10-05,1,,,,,ヨネザワショウテン,0
2037,9120901031313,登記記録の閉鎖等,0,2025-09-29,2025-09-10,株式会社植松エステート,,株式会社,大阪府,吹田市,江坂町１丁目２３番１０１号,,27,205,5640063,,,2025-09-10,清算の結了等,,,2015-10-05,1,,,,,ウエマツエステート,0
2042,9130002006016,登記記録の閉鎖等,0,2025-09-29,2025-09-19,有限会社飛鳥井企画,,有限会社,京都府,京都市左京区,松ケ崎呼返町１４番地,,26,103,6060912,,,2025-09-19,清算の結了等,,,2015-10-05,1,,,,,アスカイキカク,0
2057,9180002049159,登記記録の閉鎖等,0,2025-09-29,2025-09-08,有限会社トーホー調剤薬局,,有限会社,愛知県,名古屋市西区,中小田井５丁目２７４番地の１０,,23,104,4520822,,,2025-09-08,清算の結了等,,,2015-10-05,1,,,,,トーホーチョウザイヤッキョク,0
2059,9180002064091,登記記録の閉鎖等,0,2025-09-29,2025-09-09,有限会社大三住設工業,,有限会社,愛知県,豊明市,新田町広長２４番地の１３,,23,229,4701114,,,2025-09-09,清算の結了等,,,2015-10-05,1,,,,,ダイサンジュウセツコウギョウ,0
2072,9220002013102,登記記録の閉鎖等,0,2025-09-29,2025-09-25,有限会社クラフト斉久,,有限会社,石川県,加賀市,山中温泉上原町イ８１番地,,17,206,9220106,,,2025-09-25,清算の結了等,,,2015-10-05,1,,,,,クラフトサイキュウ,0
2086,9290001004070,登記記録の閉鎖等,0,2025-09-29,2025-09-02,丸東印刷株式会社,,株式会社,福岡県,福岡市東区,和白丘１丁目８番２７号,,40,131,8110213,,,2025-09-02,合併による解散等,5290001050416,令和７年９月１日福岡県小郡市干潟８９２番地１丸東産業株式会社（5290001050416）に合併し解散,2015-10-05,1,,,,,マルトウインサツ,0
2092,9300001005637,登記記録の閉鎖等,0,2025-09-29,2025-09-25,株式会社松尾薬局,,株式会社,佐賀県,伊万里市,立花町２７４９番地４,,41,205,8480027,,,2025-09-25,合併による解散等,4290001042983,令和７年９月１日福岡県春日市春日原北町二丁目２番１号ＨＹＵＧＡ　ＰＲＩＭＡＲＹ　ＣＡＲＥ株式会社（4290001042983）に合併し解散,2015-10-05,1,,,,,マツオヤッキョク,0
2093,9300005002779,登記記録の閉鎖等,0,2025-09-29,2025-09-29,農事組合法人平野花卉温室組合,,その他の設立登記法人,佐賀県,佐賀市,大和町大字東山田４０１３番地,,41,201,8400211,,,2025-09-29,清算の結了等,,,2015-10-05,1,,,,,ヒラノカキオンシツクミアイ,0
2116,9500002005046,登記記録の閉鎖等,0,2025-09-29,2025-09-25,錦電設有限会社,,有限会社,愛媛県,松山市,太山寺町２４９２番地１,,38,201,7992662,,,2025-09-25,清算の結了等,,,2015-10-05,1,,,,,ニシキデンセツ,0
