sequenceNumber,corporateNumber,process,correct,updateDate,changeDate,name,nameImageId,kind,prefectureName,cityName,streetNumber,addressImageId,prefectureCode,cityCode,postCode,addressOutside,addressOutsideImageId,closeDate,closeCause,successorCorporateNumber,changeCause,assignmentDate,latest,enName,enPrefectureName,enCityName,enAddressOutside,furigana,hihyoji
26,1011001153982,登記記録の閉鎖等,0,2024-09-18,2024-09-11,株式会社ＳＥＶＥＮＲＩＣＨ　Ｓｏｍｅｎ,,株式会社,東京都,渋谷区,渋谷３丁目１９番１号,,13,113,1500002,,,2024-09-11,合併による解散等,1150001009537,令和６年９月１日奈良県桜井市大字芝３７４番地の１株式会社マル勝高田商店（1150001009537）に合併し解散,2023-04-26,1,,,,,セブンリッチソウメン,0
37,1011402003968,登記記録の閉鎖等,0,2024-09-18,2024-09-11,有限会社佐藤商店,,有限会社,東京都,板橋区,舟渡２丁目２９番１７号,,13,119,1740041,,,2024-09-11,清算の結了等,,,2015-10-05,1,,,,,サトウショウテン,0
38,1011501020591,登記記録の閉鎖等,0,2024-09-18,2024-09-13,株式会社一馬力,,株式会社,東京都,北区,上十条１丁目９番１１号,,13,117,1140034,,,2024-09-13,清算の結了等,,,2015-10-05,1,,,,,,0
42,1012402014278,登記記録の閉鎖等,0,2024-09-18,2024-09-10,有限会社タイホー設備,,有限会社,東京都,国分寺市,西町１丁目１１番地４４,,13,214,1850035,,,2024-09-10,清算の結了等,,,2015-10-05,1,,,,,タイホーセツビ,0
43,1012402023304,登記記録の閉鎖等,0,2024-09-18,2024-09-18,有限会社シオン．Ｏ・Ｍ・Ｔ,,有限会社,東京都,武蔵野市,吉祥寺北町３丁目５番８号,,13,203,1800001,,,2024-09-18,清算の結了等,,,2015-10-05,1,,,,,シオンオーエムティー,0
50,1013401007033,登記記録の閉鎖等,0,2024-09-18,2024-09-13,株式会社フロントマシンテック,,株式会社,東京都,多摩市,関戸２丁目６７番地の４,,13,224,2060011,,,2024-09-13,清算の結了等,,,2015-10-05,1,,,,,フロントマシンテック,0
52,1020001030613,登記記録の閉鎖等,0,2024-09-18,2024-09-03,野村工業株式会社,,株式会社,神奈川県,横浜市神奈川区,松本町３丁目２７番地３,,14,102,2210841,,,2024-09-03,清算の結了等,,,2015-10-05,1,,,,,ノムラコウギョウ,0
63,1021001021189,登記記録の閉鎖等,0,2024-09-18,2024-09-13,株式会社茶加藤,,株式会社,神奈川県,伊勢原市,伊勢原２丁目９番３３号,,14,214,2591131,,,2024-09-13,清算の結了等,,,2015-10-05,1,,,,,チャカトウ,0
75,1030001077950,登記記録の閉鎖等,0,2024-09-18,2024-09-10,日東テクノ工業株式会社,,株式会社,埼玉県,川口市,大字木曽呂８８８番地７,,11,203,3330831,,,2024-09-10,清算の結了等,,,2015-10-05,1,,,,,ニットウテクノコウギョウ,0
81,1040002058734,登記記録の閉鎖等,0,2024-09-18,2024-09-04,有限会社光曜,,有限会社,千葉県,白井市,冨士１７番地の３１,,12,232,2701432,,,2024-09-04,清算の結了等,,,2015-10-05,1,,,,,コウヨウ,0
84,1050002043215,登記記録の閉鎖等,0,2024-09-18,2024-09-10,有限会社アサヒジャパントレーディングカンパニー,,有限会社,茨城県,筑西市,乙３７８番地,,08,227,3080041,,,2024-09-10,清算の結了等,,,2015-10-05,1,,,,,アサヒジャパントレーディングカンパニー,0
89,1070001013935,登記記録の閉鎖等,0,2024-09-18,2024-09-12,中島建設株式会社,,株式会社,群馬県,伊勢崎市,西久保町２丁目２４３番地の１,,10,204,3792204,,,2024-09-12,清算の結了等,,,2015-10-05,1,,,,,ナカジマケンセツ,0
91,1100001030935,登記記録の閉鎖等,0,2024-09-18,2024-09-06,リノセスタジオ株式会社,,株式会社,長野県,長野市,大字南長野南県町１０３２番地１、１１０４,,20,201,3800836,,,2024-09-06,清算の結了等,,,2018-01-29,1,,,,,リノセスタジオ,0
96,1100003006826,登記記録の閉鎖等,0,2024-09-18,2024-09-05,ＡＳＪ白馬合同会社,,合同会社,長野県,北安曇郡白馬村,大字北城３０２０番地８３７,,20,485,3999301,,,2024-09-05,清算の結了等,,,2023-01-10,1,,,,,エイエスジェイハクバ,0
97,1110002028127,登記記録の閉鎖等,0,2024-09-18,2024-09-11,有限会社高橋不動産,,有限会社,新潟県,長岡市,山田２丁目２番８号,,15,202,9400097,,,2024-09-11,清算の結了等,,,2015-10-05,1,,,,,タカハシフドウサン,0
99,1110005012284,登記記録の閉鎖等,0,2024-09-18,2024-09-10,ＵＡゼンセン栃尾繊維労働組合,,その他の設立登記法人,新潟県,長岡市,新栄町２丁目３番２１号,,15,202,9400204,,,2024-09-10,清算の結了等,,,2015-10-05,1,,,,,ユーエーゼンセントチオセンイ,0
111,1120002041194,登記記録の閉鎖等,0,2024-09-18,2024-09-13,有限会社イナガ美術印刷,,有限会社,大阪府,大阪市東成区,中本３丁目９番２０－１１０４,,27,115,5370022,,,2024-09-13,清算の結了等,,,2015-10-05,1,,,,,イナガビジュツインサツ,0
139,1160001006129,登記記録の閉鎖等,0,2024-09-18,2024-09-13,株式会社サンエス,,株式会社,滋賀県,湖南市,岩根南山田１６２２－８,,25,211,5203252,,,2024-09-13,清算の結了等,,,2015-10-05,1,,,,,サンエス,0
144,1180001005913,登記記録の閉鎖等,0,2024-09-18,2024-09-06,株式会社渡辺材木店,,株式会社,愛知県,名古屋市千種区,北千種１丁目４番８号,,23,101,4640083,,,2024-09-06,清算の結了等,,,2015-10-05,1,,,,,ワタナベザイモクテン,0
151,1180005007096,登記記録の閉鎖等,0,2024-09-18,2024-09-12,特定非営利活動法人日本移植未来プロジェクト,,その他の設立登記法人,愛知県,名古屋市中区,大須２丁目１０番４５号,,23,106,4600011,,,2024-09-12,清算の結了等,,,2015-10-05,1,,,,,ニホンイショクミライプロジェクト,0
161,1240001046406,登記記録の閉鎖等,0,2024-09-18,2024-09-13,株式会社ぐろうす,,株式会社,広島県,広島市中区,東白島町１０番８号アミティ白島３０２,,34,101,7300004,,,2024-09-13,清算の結了等,,,2015-10-05,1,,,,,,0
180,1290003013408,登記記録の閉鎖等,0,2024-09-18,2024-08-08,合同会社絆,,合同会社,福岡県,久留米市,天神町１５２番地４第６富太屋ビル１Ｆ,,40,203,8300033,,,2024-08-08,清算の結了等,,,2023-01-12,1,,,,,キズナ,0
194,1360001007271,登記記録の閉鎖等,0,2024-09-18,2024-09-13,沖縄基礎株式会社,,株式会社,沖縄県,沖縄市,美里２丁目１１番４号,,47,211,9042153,,,2024-09-13,清算の結了等,,,2015-10-05,1,,,,,オキナワキソ,0
196,1410001008041,登記記録の閉鎖等,0,2024-09-18,2024-09-11,林工務店株式会社,,株式会社,秋田県,仙北郡美郷町,六郷字本道町６５番地１,,05,434,0191404,,,2024-09-11,清算の結了等,,,2015-10-05,1,,,,,ハヤシコウムテン,0
197,1410002000749,登記記録の閉鎖等,0,2024-09-18,2024-09-10,有限会社羽後オーエーセンター,,有限会社,秋田県,秋田市,飯島川端２丁目２番３２号,,05,201,0110912,,,2024-09-10,清算の結了等,,,2015-10-05,1,,,,,ウゴオーエーセンター,0
199,1420002002562,登記記録の閉鎖等,0,2024-09-18,2024-09-06,有限会社ぺんてる小野商店,,有限会社,青森県,青森市,大字油川字大浜６１番地,,02,201,0380059,,,2024-09-06,清算の結了等,,,2015-10-05,1,,,,,ペンテルオノショウテン,0
207,1480002004883,登記記録の閉鎖等,0,2024-09-18,2024-09-17,有限会社宮雅,,有限会社,徳島県,徳島市,沖浜１丁目１２番地,,36,201,7708052,,,2024-09-17,清算の結了等,,,2015-10-05,1,,,,,ミヤガ,0
212,1500002006266,登記記録の閉鎖等,0,2024-09-18,2024-09-12,有限会社万起商事,,有限会社,愛媛県,松山市,湯渡町５番４２号,,38,201,7900862,,,2024-09-12,清算の結了等,,,2015-10-05,1,,,,,マキショウジ,0
217,2010001235781,登記記録の閉鎖等,0,2024-09-18,2024-09-03,麻瑞株式会社,,株式会社,東京都,千代田区,九段南１丁目５番６号りそな九段ビル５階ＫＳフロア,,13,101,1020074,,,2024-09-03,清算の結了等,,,2023-06-05,1,,,,,アサミズ,0
233,2010401144946,登記記録の閉鎖等,0,2024-09-18,2024-08-26,ＡｕｔｏＧｒｉｄ　Ｓｙｓｔｅｍｓ　Ｊａｐａｎ株式会社,,株式会社,東京都,港区,赤坂２丁目１４番５号Ｄａｉｗａ赤坂ビル４階,,13,103,1070052,,,2024-08-26,清算の結了等,,,2019-04-11,1,,,,,オートグリッドシステムズジャパン,0
239,2010501017531,登記記録の閉鎖等,0,2024-09-18,2024-09-13,株式会社ケーディーエス,,株式会社,東京都,台東区,東上野２丁目１８番７号,,13,106,1100015,,,2024-09-13,清算の結了等,,,2015-10-05,1,,,,,ケーディーエス,0
244,2010703003296,登記記録の閉鎖等,0,2024-09-18,2024-09-09,合同会社ポラリス,,合同会社,東京都,杉並区,久我山４丁目３８－１５,,13,115,1680082,,,2024-09-09,清算の結了等,,,2016-10-13,1,,,,,ポラリス,0
246,2010901037030,登記記録の閉鎖等,0,2024-09-18,2024-08-28,株式会社ｎｅｘｔ　ｌｅｖｅｌ,,株式会社,東京都,渋谷区,桜丘町２３番１７号シティコート桜丘４０８号,,13,113,1500031,,,2024-08-28,清算の結了等,,,2015-11-10,1,,,,,ネクストレベル,0
270,2011101069236,登記記録の閉鎖等,0,2024-09-18,2024-08-20,ＡＮＫＨ株式会社,,株式会社,東京都,新宿区,西早稲田２丁目２０番１５号高田馬場アクセス３Ｆ,,13,104,1690051,,,2024-08-20,合併による解散等,8011101052839,令和６年８月２０日東京都新宿区西早稲田二丁目２０番１５号高田馬場アクセス３Ｆ株式会社Ｋ＆Ｃファクトリー（8011101052839）に合併し解散,2015-10-05,1,,,,,アンク,0
281,2011801018252,登記記録の閉鎖等,0,2024-09-18,2024-09-13,株式会社大東鐵工,,株式会社,東京都,足立区,入谷４丁目１９番５号,,13,121,1210836,,,2024-09-13,清算の結了等,,,2015-10-05,1,,,,,ダイトウテツコウ,0
297,2020002061053,登記記録の閉鎖等,0,2024-09-18,2024-09-03,有限会社エムエスメディカル,,有限会社,神奈川県,横浜市磯子区,磯子３丁目１３番Ｋ－８０８号,,14,107,2350016,,,2024-09-03,清算の結了等,,,2015-10-05,1,,,,,エムエスメディカル,0
310,2021005004338,登記記録の閉鎖等,0,2024-09-18,2024-09-11,医療法人社団岩垣小児科医院,,その他の設立登記法人,神奈川県,秦野市,南矢名４丁目５番１４号,,14,211,2570003,,,2024-09-11,清算の結了等,,,2015-10-05,1,,,,,イワガキショウニカイイン,0
317,2030002046441,登記記録の閉鎖等,0,2024-09-18,2024-09-10,有限会社アライ工業,,有限会社,埼玉県,八潮市,大字中馬場２６番地,,11,234,3400812,,,2024-09-10,清算の結了等,,,2015-10-05,1,,,,,アライコウギョウ,0
323,2030005017423,登記記録の閉鎖等,0,2024-09-18,2024-09-10,特定非営利活動法人ピークトゥピーク,,その他の設立登記法人,埼玉県,所沢市,大字下安松９０１番地の２,,11,208,3590024,,,2024-09-10,清算の結了等,,,2015-10-05,1,,,,,ピークトゥピーク,0
326,2040001040163,登記記録の閉鎖等,0,2024-09-18,2024-09-11,株式会社ＭＴグループ,,株式会社,千葉県,松戸市,八ケ崎５丁目１番地の２７,,12,207,2700023,,,2024-09-11,清算の結了等,,,2015-10-05,1,,,,,エムティーグループ,0
335,2060001033909,登記記録の閉鎖等,0,2024-09-18,2024-09-13,信栄保険サービス株式会社,,株式会社,栃木県,栃木市,大町２６－１６,,09,203,3280071,,,2024-09-13,合併による解散等,3010001200727,令和６年９月１日東京都江東区豊洲三丁目２番２４号信栄保険サービス株式会社（3010001200727）に合併し解散,2021-07-14,1,,,,,シンエイホケンサービス,0
337,2080001014683,登記記録の閉鎖等,0,2024-09-18,2024-09-10,株式会社ウエダ,,株式会社,静岡県,焼津市,焼津５丁目１０番１６号,,22,212,4250026,,,2024-09-10,清算の結了等,,,2015-10-05,1,,,,,ウエダ,0
339,2080002014658,登記記録の閉鎖等,0,2024-09-18,2024-09-09,有限会社東海器工,,有限会社,静岡県,榛原郡吉田町,片岡６４４番地の１,,22,424,4210303,,,2024-09-09,清算の結了等,,,2015-10-05,1,,,,,トウカイキコウ,0
341,2080401025743,登記記録の閉鎖等,0,2024-09-18,2024-09-10,ＡＧ‐ＴｒａｎＳ株式会社,,株式会社,静岡県,菊川市,高橋１０６５番地の１,,22,224,4371505,,,2024-09-10,清算の結了等,,,2022-04-11,1,,,,,エージートランス,0
354,2120001166603,登記記録の閉鎖等,0,2024-09-18,2024-09-12,株式会社大翔,,株式会社,大阪府,大阪市生野区,巽北３丁目２番２号,00114885,27,116,5440004,,,2024-09-12,清算の結了等,,,2015-10-05,1,,,,,ダイショウ,0
363,2120002082221,登記記録の閉鎖等,0,2024-09-18,2024-09-12,有限会社コスモシステマ,,有限会社,大阪府,大阪市淀川区,西宮原１丁目７番３６－１１１０号,,27,123,5320004,,,2024-09-12,清算の結了等,,,2015-10-05,1,,,,,コスモシステマ,0
368,2120105003512,登記記録の閉鎖等,0,2024-09-18,2024-09-13,特定非営利活動法人南大阪地域大学コンソーシアム,,その他の設立登記法人,大阪府,堺市北区,長曽根町１３０番地の４２さかい新事業創造センター,,27,146,5918025,,,2024-09-13,清算の結了等,,,2015-10-05,1,,,,,ミナミオオサカチイキダイガクコンソーシアム,0
390,2180001095978,登記記録の閉鎖等,0,2024-09-18,2024-09-05,株式会社ふじやフード,,株式会社,愛知県,東海市,加木屋町東峰松２７番地,,23,222,4770032,,,2024-09-05,清算の結了等,,,2015-10-05,1,,,,,フジヤフード,0
415,2260001033302,登記記録の閉鎖等,0,2024-09-18,2024-09-11,株式会社ｌｏｔｏ,,株式会社,岡山県,真庭市,台金屋１７番地５,,33,214,7193227,,,2024-09-11,清算の結了等,,,2019-07-05,1,,,,,ロート,0
418,2280001003328,登記記録の閉鎖等,0,2024-09-18,2024-09-17,宮本食品株式会社,,株式会社,島根県,出雲市,上塩冶町２７８５番地,,32,203,6930022,,,2024-09-17,清算の結了等,,,2015-10-05,1,,,,,ミヤモトショクヒン,0
419,2290001034124,登記記録の閉鎖等,0,2024-09-18,2024-08-20,株式会社アイエンゼル,,株式会社,福岡県,福岡市早良区,小田部７丁目７番２２－１０３号,,40,137,8140032,,,2024-08-20,清算の結了等,,,2015-10-05,1,,,,,アイエンゼル,0
427,2290801025132,登記記録の閉鎖等,0,2024-09-18,2024-09-13,エイエム企画株式会社,,株式会社,福岡県,中間市,中尾２丁目２番８号,,40,215,8090032,,,2024-09-13,清算の結了等,,,2018-12-03,1,,,,,エイエムキカク,0
428,2290805008926,登記記録の閉鎖等,0,2024-09-18,2024-09-05,特定非営利活動法人心義會,,その他の設立登記法人,福岡県,北九州市門司区,上藤松２丁目２番８号,,40,101,8000044,,,2024-09-05,清算の結了等,,,2016-11-24,1,,,,,シンギカイ,0
434,2330002025217,登記記録の閉鎖等,0,2024-09-18,2024-09-10,有限会社ケイ、ロード,,有限会社,熊本県,下益城郡美里町,原町１９１番地,,43,348,8614727,,,2024-09-10,清算の結了等,,,2015-10-05,1,,,,,ケイロード,0
451,2400002012422,登記記録の閉鎖等,0,2024-09-18,2024-09-04,有限会社肉のつきのき,,有限会社,岩手県,二戸市,石切所字荒瀬５５番地１０,,03,213,0286103,,,2024-09-04,清算の結了等,,,2015-10-05,1,,,,,ニクノツキノキ,0
454,2420002006364,登記記録の閉鎖等,0,2024-09-18,2024-09-05,有限会社二ツ家調剤薬局,,有限会社,青森県,八戸市,大字沢里字二ツ屋１番地の９２,,02,203,0391167,,,2024-09-05,清算の結了等,,,2015-10-05,1,,,,,フタツヤチョウザイヤッキョック,0
460,2430001079740,登記記録の閉鎖等,0,2024-09-18,2024-09-10,琉璃鯨株式会社,,株式会社,北海道,札幌市中央区,南一条西１６丁目１番地３２３春野ビル３Ｆ,,01,101,0600061,,,2024-09-10,清算の結了等,,,2019-09-03,1,,,,,ルリクジラ,0
466,2470002016128,登記記録の閉鎖等,0,2024-09-18,2024-09-12,花コンタクト有限会社,,有限会社,香川県,観音寺市,柞田町甲１８８８番地１,,37,205,7680040,,,2024-09-12,清算の結了等,,,2015-10-05,1,,,,,ハナコンタクト,0
470,3010001085094,登記記録の閉鎖等,0,2024-09-18,2024-09-10,株式会社フクベル,,株式会社,千葉県,柏市,高南台３丁目７番地１６,,12,217,2770942,,,2024-09-10,清算の結了等,,,2015-10-05,1,,,,,フクベル,0
473,3010001125932,登記記録の閉鎖等,0,2024-09-18,2024-09-03,株式会社ソニック,,株式会社,東京都,中央区,新川１丁目３番２号ナックスビル６階,,13,102,1040033,,,2024-09-03,清算の結了等,,,2015-10-05,1,,,,,ソニック,0
482,3010005026012,登記記録の閉鎖等,0,2024-09-18,2024-09-13,一般財団法人木もれ陽の郷,,その他の設立登記法人,東京都,中央区,入船２丁目４番４号今村ビル３０１号室,,13,102,1040042,,,2024-09-13,清算の結了等,,,2016-11-16,1,,,,,コモレビノサト,0
491,3010403025813,登記記録の閉鎖等,0,2024-09-18,2024-08-27,ＲＢソーラーエメラルド合同会社,,合同会社,東京都,港区,虎ノ門３丁目２２番１０－２０１号,,13,103,1050001,,,2024-08-27,清算の結了等,,,2021-08-02,1,,,,,アールビーソーラーエメラルド,0
493,3010405010284,登記記録の閉鎖等,0,2024-09-18,2024-09-13,パシモン特定目的会社,,その他の設立登記法人,東京都,千代田区,丸の内３丁目１番１号東京共同会計事務所内,,13,101,1000005,,,2024-09-13,清算の結了等,,,2015-10-05,1,,,,,パシモン,0
494,3010405016059,登記記録の閉鎖等,0,2024-09-18,2024-08-26,一般社団法人ゲートシティ,,その他の設立登記法人,東京都,港区,虎ノ門３丁目１８番１２－５０２号株式会社虎ノ門会計神谷町分室内,,13,103,1050001,,,2024-08-26,清算の結了等,,,2017-09-08,1,,,,,ゲートシティ,0
495,3010501017555,登記記録の閉鎖等,0,2024-09-18,2024-09-13,ジィー・ティー・シィー・株式会社,,株式会社,東京都,荒川区,東日暮里１丁目１７番６号,,13,118,1160014,,,2024-09-13,清算の結了等,,,2015-10-05,1,,,,,,0
502,3010702009343,登記記録の閉鎖等,0,2024-09-18,2024-09-11,Ｍ＆Ｃ株式会社,,株式会社,東京都,品川区,大井１丁目２３番７号,,13,109,1400014,,,2024-09-11,合併による解散等,9011001044051,令和６年８月３０日東京都品川区大井一丁目２３番７号ネイルパートナー株式会社（9011001044051）に合併し解散,2015-10-05,1,,,,,エムアンドシー,0
507,3011001073147,登記記録の閉鎖等,0,2024-09-18,2024-09-03,株式会社ＹＳ　ｃｏｌｌａｂｏｒａｔｉｏｎ,,株式会社,神奈川県,横浜市港北区,菊名６丁目２１番３０号ＲＥＵＧＥＮＯＩＲ２０２,,14,109,2220011,,,2024-09-03,清算の結了等,,,2015-10-05,1,,,,,ワイエスコラボレーション,0
520,3011303001532,登記記録の閉鎖等,0,2024-09-18,2024-09-06,合同会社三角江,,合同会社,東京都,杉並区,方南２丁目２番地１１号タバタハイツ２０１,,13,115,1680062,,,2024-09-06,清算の結了等,,,2015-10-05,1,,,,,サンカクコウ,0
522,3011501007050,登記記録の閉鎖等,0,2024-09-18,2024-09-13,株式会社スーペリア・メソッド・リサーチ,,株式会社,東京都,荒川区,西日暮里５丁目１４番１０号,,13,118,1160013,,,2024-09-13,清算の結了等,,,2015-10-05,1,,,,,,0
527,3011801005547,登記記録の閉鎖等,0,2024-09-18,2024-09-13,株式会社エイトワン,,株式会社,東京都,足立区,西新井６丁目２番１８号,,13,121,1230841,,,2024-09-13,清算の結了等,,,2015-10-05,1,,,,,エイトワン,0
533,3012701004754,登記記録の閉鎖等,0,2024-09-18,2024-09-06,株式会社ルート,,株式会社,東京都,東村山市,青葉町１丁目１８番地２,,13,213,1890002,,,2024-09-06,清算の結了等,,,2015-10-05,1,,,,,ルート,0
536,3012703002500,登記記録の閉鎖等,0,2024-09-18,2024-09-09,アクミル合同会社,,合同会社,東京都,小平市,上水本町６丁目１０番２７号,,13,211,1870022,,,2024-09-09,清算の結了等,,,2022-07-26,1,,,,,アクミル,0
563,3060001036712,登記記録の閉鎖等,0,2024-09-18,2024-09-04,株式会社ロボット,,株式会社,東京都,中央区,日本橋馬喰町１丁目８番４号,,13,102,1030002,,,2024-09-04,合併による解散等,7021001009963,令和６年９月１日東京都中央区日本橋馬喰町一丁目８番４号株式会社ＳＨＩＦＦＯＮ（7021001009963）に合併し解散,2024-01-10,1,,,,,ロボット,0
565,3060002031662,登記記録の閉鎖等,0,2024-09-18,2024-09-06,有限会社内山エージェンシー,,有限会社,栃木県,栃木市,泉町１２番２号,,09,203,3280014,,,2024-09-06,清算の結了等,,,2015-10-05,1,,,,,ウチヤマエージェンシー,0
572,3120001018844,登記記録の閉鎖等,0,2024-09-18,2024-09-13,株式会社マルイ商店,,株式会社,大阪府,大阪市生野区,生野西４丁目１８番１２号,,27,116,5440024,,,2024-09-13,清算の結了等,,,2015-10-05,1,,,,,マルイショウテン,0
603,3180001015514,登記記録の閉鎖等,0,2024-09-18,2024-09-06,株式会社まつばら,,株式会社,愛知県,名古屋市南区,六条町４丁目７２番地の１,,23,112,4570853,,,2024-09-06,清算の結了等,,,2015-10-05,1,,,,,マツバラ,0
604,3180001058117,登記記録の閉鎖等,0,2024-09-18,2024-09-06,株式会社エレサーチコミュニケーション,,株式会社,愛知県,名古屋市中区,新栄２丁目８番２３号,,23,106,4600007,,,2024-09-06,清算の結了等,,,2015-10-05,1,,,,,エレサーチコミュニケーション,0
608,3180001103046,登記記録の閉鎖等,0,2024-09-18,2024-09-09,株式会社元花園,,株式会社,愛知県,名古屋市昭和区,広路本町５丁目４６番地,,23,107,4660841,,,2024-09-09,清算の結了等,,,2015-10-05,1,,,,,ゲンカエン,0
622,3220005002520,登記記録の閉鎖等,0,2024-09-18,2024-09-10,医療法人社団はせがわ歯科・矯正歯科,,その他の設立登記法人,石川県,野々市市,押越１丁目５０２番地,,17,212,9218803,,,2024-09-10,清算の結了等,,,2015-10-05,1,,,,,ハセガワシカキョウセイシカ,0
626,3230005005613,登記記録の閉鎖等,0,2024-09-18,2024-09-10,協同組合三豊繊維,,その他の設立登記法人,富山県,南砺市,細木１３１５番地,,16,210,9391841,,,2024-09-10,清算の結了等,,,2015-10-05,1,,,,,サンポウセンイ,0
627,3240001002448,登記記録の閉鎖等,0,2024-09-18,2024-09-10,河野幌内張株式会社,,株式会社,広島県,広島市西区,中広町２丁目１０番１８号,,34,104,7330012,,,2024-09-10,清算の結了等,,,2015-10-05,1,,,,,コウノホロウチバリ,0
628,3240001039829,登記記録の閉鎖等,0,2024-09-18,2024-09-11,株式会社三原給食センター,,株式会社,広島県,三原市,宮浦４丁目１番４号,,34,204,7230051,,,2024-09-11,清算の結了等,,,2015-10-05,1,,,,,ミハラキュウショクセンター,0
630,3240001046833,登記記録の閉鎖等,0,2024-09-18,2024-09-11,株式会社Ｇａｒａｋｕｔａ　Ｘｉｎｇ,,株式会社,広島県,尾道市,高須町９３８番地１,,34,205,7290141,,,2024-09-11,清算の結了等,,,2015-10-05,1,,,,,,0
640,3290001066298,登記記録の閉鎖等,0,2024-09-18,2024-08-13,株式会社悠プランニング,,株式会社,福岡県,福岡市中央区,笹丘１丁目３２番３－４１０号,,40,133,8100034,,,2024-08-13,清算の結了等,,,2015-10-05,1,,,,,ユウプランニング,0
658,3370001005470,登記記録の閉鎖等,0,2024-09-18,2024-09-06,ダイシン冷材株式会社,,株式会社,宮城県,仙台市宮城野区,宮千代１丁目１２番３号,,04,102,9830044,,,2024-09-06,清算の結了等,,,2015-10-05,1,,,,,ダイシンレイザイ,0
670,3430001017567,登記記録の閉鎖等,0,2024-09-18,2024-09-11,山森乾物株式会社,,株式会社,北海道,札幌市南区,石山５８３番地３９,,01,106,0050849,,,2024-09-11,清算の結了等,,,2015-10-05,1,,,,,ヤマモリカンブツ,0
673,3470001003175,登記記録の閉鎖等,0,2024-09-18,2024-09-13,日本浄化槽株式会社,,株式会社,香川県,高松市,一宮町８４２番地２,,37,201,7618084,,,2024-09-13,清算の結了等,,,2015-10-05,1,,,,,ニホンジョウカソウ,0
674,3490002000500,登記記録の閉鎖等,0,2024-09-18,2024-09-13,有限会社バービープロ,,有限会社,高知県,高知市,横浜新町３丁目２２５番地,,39,201,7810241,,,2024-09-13,清算の結了等,,,2015-10-05,1,,,,,バービープロ,0
689,4010401023124,登記記録の閉鎖等,0,2024-09-18,2024-09-10,株式会社日本ビジネスクラブ,,株式会社,千葉県,佐倉市,ユーカリが丘１丁目３６番１５号,,12,212,2850858,,,2024-09-10,清算の結了等,,,2015-10-05,1,,,,,ニホンビジネスクラブ,0
694,4010405010283,登記記録の閉鎖等,0,2024-09-18,2024-09-13,マンゴスチン特定目的会社,,その他の設立登記法人,東京都,千代田区,丸の内３丁目１番１号東京共同会計事務所内,,13,101,1000005,,,2024-09-13,清算の結了等,,,2015-10-05,1,,,,,マンゴスチン,0
696,4010405014862,登記記録の閉鎖等,0,2024-09-18,2024-08-26,ＧＲＥＦ　Ｊａｐａｎ１特定目的会社,,その他の設立登記法人,東京都,港区,赤坂２丁目１０番５号税理士法人赤坂国際会計事務所内,,13,103,1070052,,,2024-08-26,清算の結了等,,,2016-06-08,1,,,,,ジーアールイーエフジャパンワン,0
714,4011201019329,登記記録の閉鎖等,0,2024-09-18,2024-09-17,株式会社Ｊｓｙｎｅｒｇｙ,,株式会社,東京都,中野区,東中野４丁目３０番６－１００３号,,13,114,1640003,,,2024-09-17,清算の結了等,,,2016-08-22,1,,,,,ジェイシナジー,0
726,4012401001456,登記記録の閉鎖等,0,2024-09-18,2024-09-18,不二薬品株式会社,,株式会社,東京都,府中市,美好町２丁目３４番地の３,,13,206,1830045,,,2024-09-18,清算の結了等,,,2015-10-05,1,,,,,フジヤクヒン,0
735,4020001069161,登記記録の閉鎖等,0,2024-09-18,2024-09-03,協栄自動車株式会社,,株式会社,神奈川県,川崎市中原区,井田中ノ町３０番１０号,,14,133,2110034,,,2024-09-03,清算の結了等,,,2015-10-05,1,,,,,キョウエイジドウシャ,0
736,4020001089317,登記記録の閉鎖等,0,2024-09-18,2024-09-04,株式会社ジー・デザイン,,株式会社,神奈川県,横浜市港北区,小机町１７５番地９サニーウェル泉谷Ｂ－３０５,,14,109,2220036,,,2024-09-04,清算の結了等,,,2015-10-05,1,,,,,ジーデザイン,0
744,4020002016682,登記記録の閉鎖等,0,2024-09-18,2024-09-03,有限会社サンワハウス,,有限会社,神奈川県,横浜市鶴見区,小野町１７番地,,14,101,2300046,,,2024-09-03,清算の結了等,,,2015-10-05,1,,,,,サンワハウス,0
747,4021002011806,登記記録の閉鎖等,0,2024-09-18,2024-09-17,有限会社パシフィック・エージェンシー,,有限会社,神奈川県,茅ヶ崎市,円蔵３７０番地,,14,207,2530084,,,2024-09-17,清算の結了等,,,2015-10-05,1,,,,,パシフィックエージェンシー,0
749,4030001048197,登記記録の閉鎖等,0,2024-09-18,2024-09-10,株式会社八重山建設,,株式会社,埼玉県,朝霞市,栄町２丁目５番４０号,,11,227,3510012,,,2024-09-10,清算の結了等,,,2015-10-05,1,,,,,ヤエヤマケンセツ,0
750,4030001050789,登記記録の閉鎖等,0,2024-09-18,2024-09-09,株式会社いちこし,,株式会社,埼玉県,春日部市,大枝４６８番地,,11,214,3440023,,,2024-09-09,清算の結了等,,,2015-10-05,1,,,,,イチコシ,0
757,4040001043585,登記記録の閉鎖等,0,2024-09-18,2024-09-11,アシストテクノ株式会社,,株式会社,千葉県,印西市,木下東１丁目１２番地５,,12,231,2701323,,,2024-09-11,清算の結了等,,,2015-10-05,1,,,,,アシストテクノ,0
767,4050005009012,登記記録の閉鎖等,0,2024-09-18,2024-09-09,社会福祉法人ひかり福祉会,,その他の設立登記法人,茨城県,牛久市,遠山町一ノ久保７６４番地の１,,08,219,3001215,,,2024-09-09,清算の結了等,,,2015-10-05,1,,,,,,0
772,4060002013750,登記記録の閉鎖等,0,2024-09-18,2024-09-06,有限会社ウスイ技工,,有限会社,栃木県,那須郡那珂川町,小川６７２番地６,,09,411,3240501,,,2024-09-06,清算の結了等,,,2015-10-05,1,,,,,ウスイギコウ,0
786,4120001056406,登記記録の閉鎖等,0,2024-09-18,2024-09-13,株式会社田村工業,,株式会社,大阪府,大阪市淀川区,十三東３丁目５番９号,,27,123,5320023,,,2024-09-13,清算の結了等,,,2015-10-05,1,,,,,タムラコウギョウ,0
788,4120001259058,登記記録の閉鎖等,0,2024-09-18,2024-09-04,ＮＢＳ株式会社,,株式会社,大阪府,大阪市生野区,桃谷１丁目１１番２２－３０１号,,27,116,5440034,,,2024-09-04,清算の結了等,,,2023-10-24,1,,,,,エヌビーエス,0
807,4140002006928,登記記録の閉鎖等,0,2024-09-18,2024-09-13,有限会社浅田,,有限会社,兵庫県,神戸市須磨区,北町３丁目２番９号,,28,107,6540064,,,2024-09-13,清算の結了等,,,2015-10-05,1,,,,,アサダ,0
811,4150005001066,登記記録の閉鎖等,0,2024-09-18,2024-09-17,医療法人光久会,,その他の設立登記法人,京都府,京田辺市,山手中央３番２,,26,211,6100356,,,2024-09-17,清算の結了等,,,2015-10-05,1,,,,,コウキュウカイ,0
831,4260002025445,登記記録の閉鎖等,0,2024-09-18,2024-09-09,三浦造林有限会社,,有限会社,岡山県,笠岡市,甲弩１２１番地,,33,205,7140002,,,2024-09-09,清算の結了等,,,2015-10-05,1,,,,,ミウラゾウリン,0
840,4290005010929,登記記録の閉鎖等,0,2024-09-18,2024-07-23,久留米地区コンクリート製品協同組合,,その他の設立登記法人,福岡県,久留米市,諏訪野町２３７８番地,,40,203,8300037,,,2024-07-23,清算の結了等,,,2015-10-05,1,,,,,クルメチクコンクリートセイヒン,0
854,4350002004530,登記記録の閉鎖等,0,2024-09-18,2024-09-11,有限会社みつや地建,,有限会社,宮崎県,宮崎市,大字本郷南方２９９２番地３,,45,201,8800921,,,2024-09-11,清算の結了等,,,2015-10-05,1,,,,,ミツヤチケン,0
862,4420002007666,登記記録の閉鎖等,0,2024-09-18,2024-09-06,有限会社高橋電子製作所,,有限会社,青森県,八戸市,八太郎２丁目９番６７号,,02,203,0391168,,,2024-09-06,清算の結了等,,,2015-10-05,1,,,,,タカハシデンシセイサクジョ,0
864,4430001007451,登記記録の閉鎖等,0,2024-09-18,2024-09-10,株式会社システム防災設備,,株式会社,北海道,札幌市東区,北六条東７丁目１２番地９,,01,103,0600906,,,2024-09-10,清算の結了等,,,2015-10-05,1,,,,,システムボウサイセツビ,0
871,4480001008577,登記記録の閉鎖等,0,2024-09-18,2024-09-17,株式会社ヨシダホールディングス,,株式会社,徳島県,徳島市,佐古五番町１１番２０号,,36,201,7700025,,,2024-09-17,清算の結了等,,,2015-10-05,1,,,,,ヨシダホールディングス,0
872,4480002004658,登記記録の閉鎖等,0,2024-09-18,2024-09-17,有限会社マルヨシ酒類販売,,有限会社,徳島県,徳島市,佐古五番町１１番２０号,,36,201,7700025,,,2024-09-17,清算の結了等,,,2015-10-05,1,,,,,,0
885,5010003035021,登記記録の閉鎖等,0,2024-09-18,2024-08-23,合同会社日本橋金市屋,,合同会社,東京都,中央区,日本橋浜町２丁目５５番８号,,13,102,1030007,,,2024-08-23,合併による解散等,5011103006589,令和６年６月１日東京都中央区日本橋浜町二丁目５５番８号合同会社金市屋（5011103006589）に合併し解散,2021-06-09,1,,,,,ニホンバシカネイチヤ,0
931,5012705001449,登記記録の閉鎖等,0,2024-09-18,2024-09-09,特定非営利活動法人どらやき,,その他の設立登記法人,東京都,東大和市,向原１丁目７番１２,,13,220,2070013,,,2024-09-09,清算の結了等,,,2015-10-05,1,,,,,ドラヤキ,0
952,5021001053006,登記記録の閉鎖等,0,2024-09-18,2024-09-13,あいかわ茶株式会社,,株式会社,神奈川県,愛甲郡愛川町,中津７４７番地,,14,401,2430303,,,2024-09-13,清算の結了等,,,2015-10-05,1,,,,,アイカワチャ,0
986,5080101013806,登記記録の閉鎖等,0,2024-09-18,2024-09-12,株式会社三角,,株式会社,静岡県,伊東市,川奈１２１９番地の８,,22,208,4140044,,,2024-09-12,清算の結了等,,,2015-10-05,1,,,,,ミスミ,0
987,5080401016913,登記記録の閉鎖等,0,2024-09-18,2024-09-09,オールマイティ工房株式会社,,株式会社,静岡県,磐田市,富丘５０番地５,,22,211,4380803,,,2024-09-09,清算の結了等,,,2015-10-05,1,,,,,オールマイティコウボウ,0
989,5080401022738,登記記録の閉鎖等,0,2024-09-18,2024-09-13,株式会社ＦＳＳ,,株式会社,大阪府,大阪市中央区,宗右衛門町４番９号キャナルプラザ２階,,27,128,5420084,,,2024-09-13,清算の結了等,,,2018-02-20,1,,,,,エフエスエス,0
992,5100001011790,登記記録の閉鎖等,0,2024-09-18,2024-09-06,株式会社ヒューマンセキュリティー浅間,,株式会社,長野県,上田市,古里２７番地１,,20,203,3860005,,,2024-09-06,清算の結了等,,,2015-10-05,1,,,,,ヒューマンセキュリティーアサマ,0
997,5120001019725,登記記録の閉鎖等,0,2024-09-18,2024-09-13,株式会社尾崎製作所,,株式会社,大阪府,大阪市平野区,加美東３丁目１７番５号,,27,126,5470002,,,2024-09-13,清算の結了等,,,2015-10-05,1,,,,,オザキセイサクショ,0
999,5120001090296,登記記録の閉鎖等,0,2024-09-18,2024-08-30,ミキゴルフ株式会社,,株式会社,大阪府,大阪市中央区,東心斎橋１丁目２０番１６号,,27,128,5420083,,,2024-08-30,清算の結了等,,,2015-10-05,1,,,,,ミキゴルフ,0
1026,5130001010674,登記記録の閉鎖等,0,2024-09-18,2024-09-13,株式会社坂本ガスコーポレーション,,株式会社,京都府,京都市南区,久世中久世町３丁目７６番地４,,26,107,6018213,,,2024-09-13,清算の結了等,,,2015-10-05,1,,,,,サカモトガスコーポレーション,0
1038,5170002006024,登記記録の閉鎖等,0,2024-09-18,2024-09-17,有限会社ＫアンドＫプランニング,,有限会社,和歌山県,和歌山市,小雑賀１３０番地,,30,201,6410007,,,2024-09-17,清算の結了等,,,2015-10-05,1,,,,,ケイアンドケイプランニング,0
1040,5180001049931,登記記録の閉鎖等,0,2024-09-18,2024-09-06,海山建設株式会社,,株式会社,愛知県,名古屋市緑区,東神の倉３丁目２５１５番地,,23,114,4580808,,,2024-09-06,清算の結了等,,,2015-10-05,1,,,,,ミヤマケンセツ,0
1058,5200002026563,登記記録の閉鎖等,0,2024-09-18,2024-09-10,有限会社ティ・ティ・エヌ,,有限会社,岐阜県,高山市,奥飛騨温泉郷平湯１３８番地,00081074,21,203,5061433,,,2024-09-10,清算の結了等,,,2015-10-05,1,,,,,ティティエヌ,0
1059,5210002008874,登記記録の閉鎖等,0,2024-09-18,2024-09-12,有限会社三愛,,有限会社,福井県,吉田郡永平寺町,松岡春日３丁目７９番地の１,,18,322,9101133,,,2024-09-12,清算の結了等,,,2015-10-05,1,,,,,サンアイ,0
1064,5230002012908,登記記録の閉鎖等,0,2024-09-18,2024-09-13,有限会社菖池商店,,有限会社,富山県,氷見市,栄町１０番６２号,,16,205,9350005,,,2024-09-13,清算の結了等,,,2015-10-05,1,,,,,ショウブイケショウテン,0
1065,5240001000152,登記記録の閉鎖等,0,2024-09-18,2024-09-10,株式会社アースコンサルタント,,株式会社,広島県,広島市中区,広瀬北町５番７号,,34,101,7300803,,,2024-09-10,清算の結了等,,,2015-10-05,1,,,,,アースコンサルタント,0
1070,5290002056404,登記記録の閉鎖等,0,2024-09-18,2024-08-09,有限会社ゆずりはの樹,,有限会社,福岡県,大牟田市,正山町７１番地３,,40,202,8360845,,,2024-08-09,清算の結了等,,,2015-10-05,1,,,,,ユズリハノキ,0
1078,5320002012130,登記記録の閉鎖等,0,2024-09-18,2024-09-17,有限会社林測量設計事務所,,有限会社,大分県,別府市,船小路町１番３３号,,44,202,8740922,,,2024-09-17,清算の結了等,,,2015-10-05,1,,,,,,0
1082,5340005008149,登記記録の閉鎖等,0,2024-09-18,2024-09-11,医療法人前薗歯科,,その他の設立登記法人,鹿児島県,いちき串木野市,東島平町２４２番地,,46,219,8960031,,,2024-09-11,清算の結了等,,,2015-10-05,1,,,,,マエゾノシカ,0
1092,5490002004540,登記記録の閉鎖等,0,2024-09-18,2024-09-12,有限会社藤義工務店,00006574,有限会社,高知県,高知市,神田６３５番地５,,39,201,7808040,,,2024-09-12,清算の結了等,,,2015-10-05,1,,,,,,0
1093,5490002011388,登記記録の閉鎖等,0,2024-09-18,2024-09-13,有限会社丸文産業,,有限会社,高知県,香美市,土佐山田町植２３７番地,,39,212,7820054,,,2024-09-13,清算の結了等,,,2015-10-05,1,,,,,マルブンサンギョウ,0
1094,5500001011734,登記記録の閉鎖等,0,2024-09-18,2024-09-12,正和汽船株式会社,,株式会社,愛媛県,今治市,波止浜２丁目７番１４号,,38,202,7992112,,,2024-09-12,清算の結了等,,,2015-10-05,1,,,,,セイワキセン,0
1103,6010005028253,登記記録の閉鎖等,0,2024-09-18,2024-09-13,一般社団法人サポートホールディングス２９号,,その他の設立登記法人,東京都,千代田区,丸の内３丁目１番１号東京共同会計事務所内,,13,101,1000005,,,2024-09-13,清算の結了等,,,2018-03-14,1,,,,,サポートホールディングスニジュウキュウゴウ,0
1112,6010405019199,登記記録の閉鎖等,0,2024-09-18,2024-09-12,ＡＰ　Ｒｅｓｉｄｅｎｃｅ　Ｏｎｅ一般社団法人,,その他の設立登記法人,東京都,中央区,日本橋３丁目９番１号日本橋三丁目スクエア１１階,,13,102,1030027,,,2024-09-12,清算の結了等,,,2020-10-27,1,,,,,エーピーレジデンスワン,0
1117,6010702005109,登記記録の閉鎖等,0,2024-09-18,2024-09-10,有限会社谷岸商店,,有限会社,東京都,品川区,戸越５丁目１９番１号,,13,109,1420041,,,2024-09-10,清算の結了等,,,2015-10-05,1,,,,,タニギシショウテン,0
1133,6011101063193,登記記録の閉鎖等,0,2024-09-18,2024-09-09,トータルインベストメント株式会社,,株式会社,東京都,板橋区,東山町１０番６号ホワイトヴィレッジ１０２,,13,119,1740073,,,2024-09-09,清算の結了等,,,2015-10-05,1,,,,,トータルインベストメント,0
1138,6011505001229,登記記録の閉鎖等,0,2024-09-18,2024-09-13,特定非営利活動法人全国不登校新聞社,,その他の設立登記法人,東京都,中央区,東日本橋２丁目２８番４号日本橋ＣＥＴビル２階,,13,102,1030004,,,2024-09-13,清算の結了等,,,2015-10-05,1,,,,,ゼンコクフトウコウシンブンシャ,0
1139,6011505002334,登記記録の閉鎖等,0,2024-09-18,2024-07-25,一般社団法人プロミス・オブ・エイジング,,その他の設立登記法人,東京都,北区,東十条３丁目１３－１７,,13,117,1140001,,,2024-07-25,清算の結了等,,,2020-06-12,1,,,,,プロミスオブエイジング,0
1141,6011601018713,登記記録の閉鎖等,0,2024-09-18,2024-09-02,株式会社プロデュース・アクティビスト,,株式会社,東京都,千代田区,紀尾井町３番８号第２紀尾井町ビル３Ｆ,,13,101,1020094,,,2024-09-02,合併による解散等,6010401169626,令和６年９月１日東京都千代田区紀尾井町３番８号第２紀尾井町ビル３Ｆ株式会社ハッピーズ（6010401169626）に合併し解散,2015-10-05,1,,,,,プロデュースアクティビスト,0
1144,6011801025872,登記記録の閉鎖等,0,2024-09-18,2024-09-13,株式会社大志,,株式会社,東京都,足立区,江北１丁目２０番３号,,13,121,1230872,,,2024-09-13,清算の結了等,,,2015-10-05,1,,,,,ダイシ,0
1148,6011801033446,登記記録の閉鎖等,0,2024-09-18,2024-09-13,ＯＴＡＢＥ商事株式会社,,株式会社,東京都,足立区,梅島１丁目３１番１１号,,13,121,1210816,,,2024-09-13,清算の結了等,,,2017-06-07,1,,,,,オタベショウジ,0
1165,6020003004866,登記記録の閉鎖等,0,2024-09-18,2024-09-03,合同会社リズム,,合同会社,神奈川県,横浜市中区,吉浜町１－９エトアール吉浜３０５,,14,104,2310024,,,2024-09-03,清算の結了等,,,2015-10-05,1,,,,,リズム,0
1166,6020003021044,登記記録の閉鎖等,0,2024-09-18,2024-09-03,合同会社グローイング・シー,,合同会社,神奈川県,横浜市栄区,公田町１６３８－１２－１０１,,14,115,2470014,,,2024-09-03,清算の結了等,,,2022-01-05,1,,,,,グローイングシー,0
1179,6030001087086,登記記録の閉鎖等,0,2024-09-18,2024-09-10,マックテクニカルシステムズ株式会社,,株式会社,埼玉県,行田市,谷郷２丁目１番５号,,11,206,3610062,,,2024-09-10,清算の結了等,,,2015-10-05,1,,,,,マックテクニカルシステムズ,0
1185,6030002009345,登記記録の閉鎖等,0,2024-09-18,2024-09-09,有限会社哲宝,,有限会社,埼玉県,さいたま市西区,大字指扇１３２６番地の６,,11,101,3310047,,,2024-09-09,清算の結了等,,,2015-10-05,1,,,,,テッポウ,0
1189,6030005000722,登記記録の閉鎖等,0,2024-09-18,2024-09-10,埼玉県中央市場協同組合,,その他の設立登記法人,埼玉県,さいたま市桜区,桜田３丁目３番１号,,11,106,3380833,,,2024-09-10,清算の結了等,,,2015-10-05,1,,,,,サイタマケンチュウオウイチバ,0
1192,6040002000195,登記記録の閉鎖等,0,2024-09-18,2024-09-11,有限会社アイプロセス,,有限会社,千葉県,千葉市若葉区,桜木北３丁目７番４８号,,12,104,2640029,,,2024-09-11,清算の結了等,,,2015-10-05,1,,,,,アイプロセス,0
1201,6060002017304,登記記録の閉鎖等,0,2024-09-18,2024-09-09,昭栄金型有限会社,,有限会社,栃木県,真岡市,寺内１３８３番地７,,09,209,3214345,,,2024-09-09,清算の結了等,,,2015-10-05,1,,,,,ショウエイカナガタ,0
1210,6100001007714,登記記録の閉鎖等,0,2024-09-18,2024-09-06,株式会社丸タ魚市場,,株式会社,長野県,佐久市,野沢７４番地,,20,217,3850053,,,2024-09-06,清算の結了等,,,2015-10-05,1,,,,,マルタウオイチバ,0
1213,6100001020386,登記記録の閉鎖等,0,2024-09-18,2024-09-06,株式会社わしょく亭宮,,株式会社,長野県,岡谷市,御倉町８番３号,,20,204,3940043,,,2024-09-06,清算の結了等,,,2015-10-05,1,,,,,ワショクテイグウ,0
1215,6120001076237,登記記録の閉鎖等,0,2024-09-18,2024-09-11,大原ビル株式会社,,株式会社,大阪府,大阪市中央区,瓦町１丁目６番１－１００４号,,27,128,5410048,,,2024-09-11,清算の結了等,,,2015-10-05,1,,,,,オオハラビル,0
1216,6120001077912,登記記録の閉鎖等,0,2024-09-18,2024-09-17,久宝株式会社,,株式会社,大阪府,大阪市中央区,内平野町２丁目１番１３号,,27,128,5400037,,,2024-09-17,清算の結了等,,,2015-10-05,1,,,,,キュウホウ,0
1230,6120101065957,登記記録の閉鎖等,0,2024-09-18,2024-08-27,ＩＣテクノロジー株式会社,,株式会社,大阪府,大阪市北区,西天満４丁目３番１１号西天満ＦＵＫＵＥＢＬＤ５０１号室,,27,127,5300047,,,2024-08-27,清算の結了等,,,2022-07-26,1,,,,,アイシーテクノロジー,0
1231,6120102004625,登記記録の閉鎖等,0,2024-09-18,2024-09-12,有限会社マルコー,,有限会社,大阪府,堺市北区,金岡町２１１０番地,,27,146,5918022,,,2024-09-12,清算の結了等,,,2015-10-05,1,,,,,マルコー,0
1255,6150003002485,登記記録の閉鎖等,0,2024-09-18,2024-09-12,合同会社ならビズ,,合同会社,奈良県,奈良市,東城戸町３２番地,,29,201,6308344,,,2024-09-12,清算の結了等,,,2021-09-15,1,,,,,ナラビズ,0
1267,6200002027412,登記記録の閉鎖等,0,2024-09-18,2024-09-10,有限会社モリケン産業,,有限会社,岐阜県,下呂市,幸田１１７４番地の１,,21,220,5092206,,,2024-09-10,清算の結了等,,,2015-10-05,1,,,,,モリケンサンギョウ,0
1279,6240005009049,登記記録の閉鎖等,0,2024-09-18,2024-09-12,備後絣協同組合,,その他の設立登記法人,広島県,福山市,新市町大字新市４３４番地の２,,34,207,7293103,,,2024-09-12,清算の結了等,,,2015-10-05,1,,,,,ビンゴカスリ,0
1283,6260001002773,登記記録の閉鎖等,0,2024-09-18,2024-09-13,株式会社さい花,,株式会社,岡山県,岡山市南区,並木町１丁目１７番１２号,,33,104,7028058,,,2024-09-13,清算の結了等,,,2015-10-05,1,,,,,サイカ,0
1305,6370201000046,登記記録の閉鎖等,0,2024-09-18,2024-09-02,株式会社エム・ケイゴールド,,株式会社,宮城県,遠田郡美里町,関根字道明５８番地,,04,505,9870006,,,2024-09-02,清算の結了等,,,2015-10-05,1,,,,,エムケイゴールド,0
1312,6400001015793,登記記録の閉鎖等,0,2024-09-18,2024-09-04,株式会社アドバンスサービス,,株式会社,岩手県,盛岡市,みたけ３丁目２２番５７号,,03,201,0200122,,,2024-09-04,清算の結了等,,,2022-03-03,1,,,,,アドバンスサービス,0
1313,6400601000261,登記記録の閉鎖等,0,2024-09-18,2024-09-03,株式会社羽田技建,,株式会社,岩手県,奥州市,水沢羽田町字明正１２５番地１１,,03,215,0230132,,,2024-09-03,清算の結了等,,,2015-10-05,1,,,,,ハダギケン,0
1320,6430005004030,登記記録の閉鎖等,0,2024-09-18,2024-09-11,特定非営利活動法人北海道ＵＲ総合研究所,,その他の設立登記法人,北海道,札幌市中央区,北五条西１１丁目８ＳＡＣＲＡビル３Ｆ,,01,101,0600005,,,2024-09-11,清算の結了等,,,2015-10-05,1,,,,,ホッカイドウユーアールソウゴウケンキュウジョ,0
1327,6480001002834,登記記録の閉鎖等,0,2024-09-18,2024-09-17,株式会社リッシドー,,株式会社,徳島県,徳島市,佐古三番町１番１６号,,36,201,7700023,,,2024-09-17,清算の結了等,,,2015-10-05,1,,,,,リッシドー,0
1331,6500002006600,登記記録の閉鎖等,0,2024-09-18,2024-09-13,有限会社三津浜設計,,有限会社,愛媛県,松山市,高浜町６丁目２２４８番地３,,38,201,7918081,,,2024-09-13,清算の結了等,,,2015-10-05,1,,,,,ミツハマセッケイ,0
1338,7010001214434,登記記録の閉鎖等,0,2024-09-18,2024-09-03,英時株式会社,,株式会社,東京都,文京区,関口３丁目１４番７号,,13,105,1120014,,,2024-09-03,清算の結了等,,,2020-12-16,1,,,,,エイジ,0
1351,7010405014439,登記記録の閉鎖等,0,2024-09-18,2024-09-13,オレンジ特定目的会社,,その他の設立登記法人,東京都,千代田区,丸の内３丁目１番１号東京共同会計事務所内,,13,101,1000005,,,2024-09-13,清算の結了等,,,2015-12-21,1,,,,,オレンジ,0
1386,7020002046090,登記記録の閉鎖等,0,2024-09-18,2024-09-03,有限会社リカーズナイトウ,,有限会社,神奈川県,横浜市中区,太田町２丁目３１番地１号,,14,104,2310011,,,2024-09-03,清算の結了等,,,2015-10-05,1,,,,,リカーズナイトウ,0
1397,7021001022850,登記記録の閉鎖等,0,2024-09-18,2024-09-11,株式会社森建設興業,,株式会社,神奈川県,秦野市,平沢２５６番地,,14,211,2570015,,,2024-09-11,清算の結了等,,,2015-10-05,1,,,,,モリケンセツコウギョウ,0
1405,7030002028609,登記記録の閉鎖等,0,2024-09-18,2024-09-09,有限会社大野石油,,有限会社,埼玉県,所沢市,中富南２丁目１５番地３,,11,208,3590003,,,2024-09-09,清算の結了等,,,2015-10-05,1,,,,,オオノセキユ,0
1406,7030002047138,登記記録の閉鎖等,0,2024-09-18,2024-09-09,有限会社正栄運輸,,有限会社,埼玉県,八潮市,大字浮塚８９６番地２,,11,234,3400835,,,2024-09-09,清算の結了等,,,2015-10-05,1,,,,,ショウエイウンユ,0
1428,7080105004849,登記記録の閉鎖等,0,2024-09-18,2024-09-12,特定非営利活動法人下田にぎわい社中,,その他の設立登記法人,静岡県,下田市,吉佐美５５２番地,,22,219,4150028,,,2024-09-12,清算の結了等,,,2015-10-05,1,,,,,シモダニギワイシャチュウ,0
1442,7120001217789,登記記録の閉鎖等,0,2024-09-18,2024-09-12,株式会社丸豊,,株式会社,香川県,高松市,鶴市町２０３２番地５,,37,201,7618032,,,2024-09-12,清算の結了等,,,2018-12-17,1,,,,,マルトヨ,0
1446,7120001225081,登記記録の閉鎖等,0,2024-09-18,2024-09-13,マスターズコンフォート株式会社,,株式会社,大阪府,大阪市中央区,博労町２丁目２番１３号大阪堺筋ビル,,27,128,5410059,,,2024-09-13,清算の結了等,,,2019-11-13,1,,,,,マスターズコンフォート,0
1456,7120003024688,登記記録の閉鎖等,0,2024-09-18,2024-09-13,コムリド合同会社,,合同会社,大阪府,大阪市住之江区,新北島６丁目１番５－１２０５号,,27,125,5590024,,,2024-09-13,清算の結了等,,,2023-08-15,1,,,,,コムリド,0
1485,7170005001078,登記記録の閉鎖等,0,2024-09-18,2024-09-13,医療法人石井内科,,その他の設立登記法人,和歌山県,和歌山市,栄谷２５４番地,,30,201,6408441,,,2024-09-13,清算の結了等,,,2015-10-05,1,,,,,イシイナイカ,0
1502,7180302003800,登記記録の閉鎖等,0,2024-09-18,2024-09-11,有限会社やすらぎや,,有限会社,愛知県,岡崎市,田口町字水戸野田２０番地７,,23,202,4443172,,,2024-09-11,清算の結了等,,,2015-10-05,1,,,,,ヤスラギヤ,0
1505,7190005004558,登記記録の閉鎖等,0,2024-09-18,2024-09-05,特定非営利活動法人サイエンズ研究所,,その他の設立登記法人,三重県,鈴鹿市,阿古曽町２６番１０号エスポア３Ｄ,,24,207,5130828,,,2024-09-05,清算の結了等,,,2015-10-05,1,,,,,サイエンズケンキュウジョ,0
1510,7240002018852,登記記録の閉鎖等,0,2024-09-18,2024-09-10,有限会社ティ・エフシステム,,有限会社,広島県,広島市中区,西川口町８番２４号,,34,101,7300846,,,2024-09-10,清算の結了等,,,2015-10-05,1,,,,,ティエフシステム,0
1512,7240003003184,登記記録の閉鎖等,0,2024-09-18,2024-09-10,ティークラブ合同会社,,合同会社,広島県,広島市中区,大手町５丁目２０番１７号,,34,101,7300051,,,2024-09-10,清算の結了等,,,2016-01-21,1,,,,,ティークラブ,0
1521,7290001080329,登記記録の閉鎖等,0,2024-09-18,2024-08-07,アスタラビスタサービス株式会社,,株式会社,福岡県,三潴郡大木町,大字高橋５１３番地,,40,522,8300422,,,2024-08-07,合併による解散等,2290001053157,令和６年８月１日福岡県三潴郡大木町大字高橋５１８番地株式会社アスタラビスタ（2290001053157）に合併し解散,2018-01-26,1,,,,,アスタラビスタサービス,0
1528,7290005014126,登記記録の閉鎖等,0,2024-09-18,2024-07-22,協同組合創建築設計集団,,その他の設立登記法人,福岡県,福岡市中央区,薬院４丁目４番１０－２０１号,,40,133,8100022,,,2024-07-22,清算の結了等,,,2015-10-05,1,,,,,ソウケンチクセッケイシュウダン,0
1544,7360005006768,登記記録の閉鎖等,0,2024-09-18,2024-09-10,特定非営利活動法人フクシカケル,,その他の設立登記法人,沖縄県,那覇市,首里石嶺町４丁目２２４番地マルＫアパート２０２,,47,201,9030804,,,2024-09-10,清算の結了等,,,2023-01-11,1,,,,,フクシカケル,0
1552,7390002012824,登記記録の閉鎖等,0,2024-09-18,2024-09-06,有限会社近野燃料店,,有限会社,山形県,米沢市,矢来３丁目２番２４号,,06,202,9920074,,,2024-09-06,清算の結了等,,,2015-10-05,1,,,,,コンノネンリョウテン,0
1556,7410003000833,登記記録の閉鎖等,0,2024-09-18,2024-09-11,合名会社八紘漁業,,合名会社,秋田県,男鹿市,北浦北浦字北浦１２６番地,,05,206,0100683,,,2024-09-11,清算の結了等,,,2015-10-05,1,,,,,ハチコウギョギョウ,0
1571,7490002012789,登記記録の閉鎖等,0,2024-09-18,2024-09-11,有限会社川村水道設備,,有限会社,高知県,安芸郡田野町,３７４９番地９,,39,303,7816410,,,2024-09-11,清算の結了等,,,2015-10-05,1,,,,,カワムラスイドウセツビ,0
1575,8010001040499,登記記録の閉鎖等,0,2024-09-18,2024-09-03,海洋開発コンサルタント株式会社,,株式会社,東京都,千代田区,岩本町２丁目４番２号,,13,101,1010032,,,2024-09-03,合併による解散等,9010001061230,令和６年９月１日東京都千代田区岩本町二丁目４番２号株式会社東京久栄（9010001061230）に合併し解散,2015-10-05,1,,,,,カイヨウカイハツコンサルタント,0
1576,8010001142246,登記記録の閉鎖等,0,2024-09-18,2024-08-26,株式会社Ｅｘｐｅｃｔ　Ｂｒａｉｎ,,株式会社,東京都,港区,赤坂３丁目１１番１４号,,13,103,1070052,,,2024-08-26,清算の結了等,,,2015-10-05,1,,,,,,0
1606,8011001061337,登記記録の閉鎖等,0,2024-09-18,2024-08-27,株式会社マーベリック,,株式会社,東京都,港区,南青山５丁目４番５１号,,13,103,1070062,,,2024-08-27,清算の結了等,,,2015-10-05,1,,,,,マーベリック,0
1613,8011002026438,登記記録の閉鎖等,0,2024-09-18,2024-08-28,有限会社ブイシートレード,,有限会社,東京都,渋谷区,上原３丁目１５番６－１０３,,13,113,1510064,,,2024-08-28,清算の結了等,,,2015-10-05,1,,,,,ブイシートレード,0
1614,8011002036197,登記記録の閉鎖等,0,2024-09-18,2024-08-28,有限会社ゴーイチマル,,有限会社,東京都,渋谷区,渋谷２丁目２番４－７０９号,,13,113,1500002,,,2024-08-28,清算の結了等,,,2015-10-05,1,,,,,ゴーイチマル,0
1616,8011101044737,登記記録の閉鎖等,0,2024-09-18,2024-08-20,株式会社ＮＴＲＵＳＴ,,株式会社,東京都,新宿区,西早稲田２丁目２０番１５号高田馬場アクセス３Ｆ,,13,104,1690051,,,2024-08-20,合併による解散等,8011101052839,令和６年８月２０日東京都新宿区西早稲田二丁目２０番１５号高田馬場アクセス３Ｆ株式会社Ｋ＆Ｃファクトリー（8011101052839）に合併し解散,2015-10-05,1,,,,,エヌトラスト,0
1626,8011401013210,登記記録の閉鎖等,0,2024-09-18,2024-09-11,トウシン出版株式会社,,株式会社,東京都,板橋区,東新町１丁目４０番１１号,,13,119,1740074,,,2024-09-11,清算の結了等,,,2015-10-05,1,,,,,トウシンシュッパン,0
1627,8011401013854,登記記録の閉鎖等,0,2024-09-18,2024-09-11,アールジェイシー株式会社,,株式会社,東京都,板橋区,高島平１丁目３番２号,,13,119,1750082,,,2024-09-11,清算の結了等,,,2015-10-05,1,,,,,アールジェイシー,0
1628,8011402018514,登記記録の閉鎖等,0,2024-09-18,2024-09-04,有限会社エンデュオン,,有限会社,東京都,板橋区,中丸町２７番５号,,13,119,1730026,,,2024-09-04,清算の結了等,,,2015-10-05,1,,,,,エンデュオン,0
1630,8011502000933,登記記録の閉鎖等,0,2024-09-18,2024-09-12,有限会社エヌアイシステム,,有限会社,東京都,北区,中里３丁目１０番１１－６０２号,,13,117,1140015,,,2024-09-12,清算の結了等,,,2015-10-05,1,,,,,エヌアイシステム,0
1639,8013201011360,登記記録の閉鎖等,0,2024-09-18,2024-09-17,エム・トレーディング株式会社,,株式会社,東京都,目黒区,東山２丁目７番５号,,13,110,1530043,,,2024-09-17,清算の結了等,,,2015-10-05,1,,,,,エムトレーディング,0
1647,8020005013780,登記記録の閉鎖等,0,2024-09-18,2024-09-03,特定非営利活動法人東中田小ふれあいキッズクラブ,,その他の設立登記法人,神奈川県,横浜市泉区,中田東４丁目５７番７号,,14,116,2450013,,,2024-09-03,清算の結了等,,,2018-07-24,1,,,,,ヒガシナカダショウフレアイキッズクラブ,0
1652,8021002037310,登記記録の閉鎖等,0,2024-09-18,2024-09-12,有限会社亀屋洋品店,,有限会社,神奈川県,秦野市,栄町６番１５号,,14,211,2570043,,,2024-09-12,清算の結了等,,,2015-10-05,1,,,,,カメヤヨウヒンテン,0
1655,8021002069221,登記記録の閉鎖等,0,2024-09-18,2024-09-13,ビジネスツール有限会社,,有限会社,神奈川県,横須賀市,湘南鷹取４丁目２４番８号,,14,201,2370066,,,2024-09-13,清算の結了等,,,2015-10-05,1,,,,,ビジネスツール,0
1657,8030001026240,登記記録の閉鎖等,0,2024-09-18,2024-09-10,株式会社クリーンオート販売,,株式会社,埼玉県,狭山市,大字笹井２６２１番地の１,,11,215,3501327,,,2024-09-10,清算の結了等,,,2015-10-05,1,,,,,クリーンオートハンバイ,0
1658,8030001030366,登記記録の閉鎖等,0,2024-09-18,2024-09-13,羽鳥コーポレーション株式会社,,株式会社,神奈川県,厚木市,温水２２２５番地１,,14,212,2430033,,,2024-09-13,清算の結了等,,,2015-10-05,1,,,,,ハトリコーポレーション,0
1667,8030002038375,登記記録の閉鎖等,0,2024-09-18,2024-09-10,有限会社松本ビル管理,,有限会社,埼玉県,久喜市,久喜東２丁目３８番１３号,,11,232,3460016,,,2024-09-10,清算の結了等,,,2015-10-05,1,,,,,マツモトビルカンリ,0
1668,8030003000152,登記記録の閉鎖等,0,2024-09-18,2024-09-10,合名会社平岩印舗,,合名会社,埼玉県,さいたま市浦和区,高砂２丁目６番１５号,,11,107,3300063,,,2024-09-10,清算の結了等,,,2015-10-05,1,,,,,ヒライワインポ,0
1670,8040001112304,登記記録の閉鎖等,0,2024-09-18,2024-09-11,セコロ株式会社,,株式会社,千葉県,浦安市,富士見２丁目１番１号,,12,227,2790043,,,2024-09-11,清算の結了等,,,2020-01-27,1,,,,,セコロ,0
1675,8040002094442,登記記録の閉鎖等,0,2024-09-18,2024-09-11,有限会社ナイセス,,有限会社,千葉県,柏市,東中新宿４丁目６番２７号,,12,217,2770061,,,2024-09-11,清算の結了等,,,2015-10-05,1,,,,,ナイセス,0
1684,8080102006822,登記記録の閉鎖等,0,2024-09-18,2024-09-12,有限会社梶工務店,,有限会社,静岡県,駿東郡小山町,用沢６９１番地,,22,344,4101326,,,2024-09-12,清算の結了等,,,2015-10-05,1,,,,,カジコウムテン,0
1696,8120001082299,登記記録の閉鎖等,0,2024-09-18,2024-09-11,日鉄興産株式会社,,株式会社,大阪府,大阪市中央区,北浜４丁目５番３３号,,27,128,5410041,,,2024-09-11,清算の結了等,,,2015-10-05,1,,,,,ニッテツコウサン,0
1700,8120002011356,登記記録の閉鎖等,0,2024-09-18,2024-09-13,有限会社スバル建築デザイン,,有限会社,大阪府,大阪市平野区,平野馬場２丁目２番１８号,,27,126,5470048,,,2024-09-13,清算の結了等,,,2015-10-05,1,,,,,スバルケンチクデザイン,0
1715,8140001118555,登記記録の閉鎖等,0,2024-09-18,2024-09-03,アースコアサービス株式会社,,株式会社,東京都,中央区,日本橋兜町１７番２号兜町第６葉山ビル４階,,13,102,1030026,,,2024-09-03,清算の結了等,,,2020-09-01,1,,,,,アースコアサービス,0
1725,8180001049664,登記記録の閉鎖等,0,2024-09-18,2024-09-06,株式会社セレソン,,株式会社,愛知県,名古屋市緑区,鳴海町字前之輪２１４番地の２,,23,114,4580834,,,2024-09-06,清算の結了等,,,2015-10-05,1,,,,,セレソン,0
1728,8180002040003,登記記録の閉鎖等,0,2024-09-18,2024-09-06,有限会社日吉飯田新聞店,,有限会社,愛知県,名古屋市中村区,鳥居西通２丁目４７番地,,23,105,4530054,,,2024-09-06,清算の結了等,,,2015-10-05,1,,,,,ヒヨシイイダシンブンテン,0
1732,8180302015472,登記記録の閉鎖等,0,2024-09-18,2024-09-10,有限会社柴田商会,,有限会社,愛知県,蒲郡市,竹谷町井ノ上２８番地の６,,23,214,4430046,,,2024-09-10,清算の結了等,,,2015-10-05,1,,,,,シバタショウカイ,0
1733,8180302023038,登記記録の閉鎖等,0,2024-09-18,2024-09-09,有限会社西三河通信,,有限会社,愛知県,豊田市,神明町１丁目６０番地ＴＯＷＥＲＴＨＥＴＯＹＯＴＡ１１０７号,,23,211,4710028,,,2024-09-09,清算の結了等,,,2015-10-05,1,,,,,ニシミカワツウシン,0
1734,8190002006085,登記記録の閉鎖等,0,2024-09-18,2024-09-13,有限会社大久保,,有限会社,三重県,鈴鹿市,道伯町１８９０番地の５,,24,207,5130824,,,2024-09-13,清算の結了等,,,2015-10-05,1,,,,,オオクボ,0
1745,8240001059426,登記記録の閉鎖等,0,2024-09-18,2024-09-11,アサヒウォーター株式会社,,株式会社,広島県,尾道市,向島町５９４７番地８,,34,205,7220073,,,2024-09-11,清算の結了等,,,2022-03-07,1,,,,,アサヒウォーター,0
1757,8290003008104,登記記録の閉鎖等,0,2024-09-18,2024-08-01,合同会社ライフマイニング,,合同会社,福岡県,宗像市,自由ヶ丘２丁目８８２番地１３,,40,220,8114163,,,2024-08-01,合併による解散等,3290003007135,令和６年８月１日福岡市博多区博多駅前三丁目７番３５号博多ハイテックビル５０５アイ・レジデンシャル合同会社（3290003007135）に合併し解散,2018-05-23,1,,,,,ライフマイニング,0
1759,8300002000134,登記記録の閉鎖等,0,2024-09-18,2024-09-12,有限会社内田信測量設計,,有限会社,佐賀県,佐賀市,兵庫北７丁目２２番１８号,,41,201,8490919,,,2024-09-12,清算の結了等,,,2015-10-05,1,,,,,ウチダシンソクリョウセッケイ,0
1770,8350002010046,登記記録の閉鎖等,0,2024-09-18,2024-09-12,有限会社芦辺運送,00100805,有限会社,宮崎県,児湯郡新富町,大字上富田６７１９番地,,45,402,8891403,,,2024-09-12,清算の結了等,,,2015-10-05,1,,,,,アシナベウンソウ,0
1783,8450002006422,登記記録の閉鎖等,0,2024-09-18,2024-09-09,有限会社フタバ堂,,有限会社,北海道,旭川市,旭町二条１０丁目１２８番地２３８,,01,204,0700832,,,2024-09-09,合併による解散等,8140002033092,令和６年９月１日東京都品川区北品川五丁目３番１号パークシティ大崎ザタワー２９Ｆ１３号株式会社ファブール（8140002033092）に合併し解散,2015-10-05,1,,,,,フタバドウ,0
1785,8460102006478,登記記録の閉鎖等,0,2024-09-18,2024-09-12,有限会社エス・ケー・ワイ,,有限会社,北海道,中川郡池田町,字旭町２丁目１２番地３,,01,644,0830001,,,2024-09-12,清算の結了等,,,2015-10-05,1,,,,,エスケーワイ,0
1792,9010001086590,登記記録の閉鎖等,0,2024-09-18,2024-09-03,西豪州エル・エヌ・ジー輸入サービス株式会社,,株式会社,東京都,千代田区,神田神保町３丁目３番地,,13,101,1010051,,,2024-09-03,清算の結了等,,,2015-10-05,1,,,,,ニシゴウシュウエルエヌジーユニュウサービス,0
1801,9010005016965,登記記録の閉鎖等,0,2024-09-18,2024-09-12,特定非営利活動法人都市型市場を通じた未来づくりを考える全国会議,,その他の設立登記法人,東京都,千代田区,有楽町１丁目１番３号,,13,101,1000006,,,2024-09-12,清算の結了等,,,2015-10-05,1,,,,,トシガタシジョウヲツウジタミライヅクリヲカンガエルゼンコクカイギ,0
1803,9010101012026,登記記録の閉鎖等,0,2024-09-18,2024-09-17,株式会社アステック,,株式会社,東京都,八王子市,絹ケ丘３丁目３０番９号,,13,201,1920912,,,2024-09-17,清算の結了等,,,2015-10-20,1,,,,,アステック,0
1808,9010403028240,登記記録の閉鎖等,0,2024-09-18,2024-08-26,合同会社Ｐ‐ｌｉｖｅ,,合同会社,東京都,港区,浜松町２丁目２番１５号浜松町ダイヤビル２階,,13,103,1050013,,,2024-08-26,清算の結了等,,,2022-08-12,1,,,,,ピーライブ,0
1811,9010405010287,登記記録の閉鎖等,0,2024-09-18,2024-09-13,ドリアン特定目的会社,,その他の設立登記法人,東京都,千代田区,丸の内３丁目１番１号東京共同会計事務所内,,13,101,1000005,,,2024-09-13,清算の結了等,,,2015-10-05,1,,,,,ドリアン,0
1825,9011001116156,登記記録の閉鎖等,0,2024-09-18,2024-08-26,株式会社かつよし,,株式会社,東京都,港区,六本木７丁目１８番１５号,,13,103,1060032,,,2024-08-26,清算の結了等,,,2017-05-10,1,,,,,,0
1852,9021001025208,登記記録の閉鎖等,0,2024-09-18,2024-09-11,株式会社こだま補聴器,,株式会社,神奈川県,大和市,大和東１丁目４番１９号,,14,213,2420017,,,2024-09-11,清算の結了等,,,2015-10-05,1,,,,,,0
1853,9021001030380,登記記録の閉鎖等,0,2024-09-18,2024-09-17,Ｍ＆Ｅフーズ株式会社,,株式会社,神奈川県,大和市,深見３９１９番地３イサミビル１Ｆ,,14,213,2420011,,,2024-09-17,清算の結了等,,,2015-10-05,1,,,,,,0
1854,9021002003617,登記記録の閉鎖等,0,2024-09-18,2024-09-17,有限会社冨田商会,,有限会社,神奈川県,藤沢市,遠藤３２１７番地,,14,205,2520816,,,2024-09-17,清算の結了等,,,2015-10-05,1,,,,,トミタショウカイ,0
1866,9030002021207,登記記録の閉鎖等,0,2024-09-18,2024-09-09,有限会社新月,,有限会社,埼玉県,さいたま市岩槻区,本町６丁目５番５号,,11,110,3390057,,,2024-09-09,清算の結了等,,,2015-10-05,1,,,,,シンゲツ,0
1867,9030002115553,登記記録の閉鎖等,0,2024-09-18,2024-09-10,有限会社福田工業,,有限会社,埼玉県,深谷市,折之口３２２番地３,,11,218,3660812,,,2024-09-10,清算の結了等,,,2015-10-05,1,,,,,フクダコウギョウ,0
1868,9030003019852,登記記録の閉鎖等,0,2024-09-18,2024-09-10,会津ウィンドファーム合同会社,,合同会社,埼玉県,川口市,栄町１丁目７番１４号２Ｆ,,11,203,3320017,,,2024-09-10,清算の結了等,,,2022-07-27,1,,,,,アイヅウィンドファーム,0
1876,9040002003781,登記記録の閉鎖等,0,2024-09-18,2024-09-11,有限会社ケン・エンジニアリング,,有限会社,千葉県,千葉市美浜区,磯辺１丁目４０番１５号,,12,106,2610012,,,2024-09-11,清算の結了等,,,2015-10-05,1,,,,,ケンエンジニアリング,0
1878,9040002072793,登記記録の閉鎖等,0,2024-09-18,2024-09-09,有限会社門倉商店,,有限会社,千葉県,市原市,牛久１１８４番地,,12,219,2900225,,,2024-09-09,清算の結了等,,,2015-10-05,1,,,,,カドクラショウテン,0
1884,9050005012300,登記記録の閉鎖等,0,2024-09-18,2024-09-03,特定非営利活動法人花蜂福祉会,,その他の設立登記法人,茨城県,守谷市,立沢９５０番地１,,08,224,3020118,,,2024-09-03,清算の結了等,,,2018-04-04,1,,,,,カホウフクシカイ,0
1890,9070001034949,登記記録の閉鎖等,0,2024-09-18,2024-09-13,株式会社星野建工,,株式会社,群馬県,桐生市,相生町２丁目２５５番地の５,,10,203,3760011,,,2024-09-13,清算の結了等,,,2018-08-03,1,,,,,ホシノケンコウ,0
1895,9080101016400,登記記録の閉鎖等,0,2024-09-18,2024-09-09,株式会社Ｄａｙｓ,,株式会社,静岡県,焼津市,三ケ名５７１番地の２ＰｒｅｃｉｏｕｓＩＩ５０３,00122887,22,212,4250071,,,2024-09-09,清算の結了等,,,2015-10-05,1,,,,,デイズ,0
1910,9120001233933,登記記録の閉鎖等,0,2024-09-18,2024-09-12,株式会社ムウ,,株式会社,大阪府,大阪市福島区,福島７丁目６番９号アレックスビル２Ｆ,,27,103,5530003,,,2024-09-12,清算の結了等,,,2020-12-21,1,,,,,ムウ,0
1916,9120102000803,登記記録の閉鎖等,0,2024-09-18,2024-09-13,有限会社エムケイ商会,,有限会社,大阪府,堺市堺区,大浜北町２丁５－１２,,27,141,5900974,,,2024-09-13,清算の結了等,,,2015-10-05,1,,,,,,0
1920,9120902018029,登記記録の閉鎖等,0,2024-09-18,2024-09-09,門興産有限会社,,有限会社,大阪府,豊中市,北桜塚３丁目５番２９号,,27,203,5600022,,,2024-09-09,清算の結了等,,,2015-10-05,1,,,,,カドコウサン,0
1923,9130001032070,登記記録の閉鎖等,0,2024-09-18,2024-09-13,株式会社ヴァロール,,株式会社,京都府,京都市下京区,東塩小路町６０７番地辰巳ビル６Ａ,,26,106,6008216,,,2024-09-13,清算の結了等,,,2015-10-05,1,,,,,,0
1924,9130001044603,登記記録の閉鎖等,0,2024-09-18,2024-09-13,株式会社コーエーソービ,,株式会社,京都府,京都市伏見区,深草馬谷町３４番地１３,,26,109,6120816,,,2024-09-13,清算の結了等,,,2015-10-05,1,,,,,コーエーソービ,0
1934,9140001118505,登記記録の閉鎖等,0,2024-09-18,2024-09-11,株式会社明翔,,株式会社,兵庫県,明石市,大久保町大窪３１５３番地８,,28,203,6740051,,,2024-09-11,清算の結了等,,,2020-08-27,1,,,,,メイショウ,0
1936,9140002031938,登記記録の閉鎖等,0,2024-09-18,2024-09-11,有限会社龍野建設,,有限会社,兵庫県,たつの市,揖西町清水７７番地の２,,28,229,6794005,,,2024-09-11,清算の結了等,,,2015-10-05,1,,,,,タツノケンセツ,0
1950,9220001011156,登記記録の閉鎖等,0,2024-09-18,2024-09-10,株式会社エムテック,,株式会社,石川県,白山市,福留町１０３８番地２,,17,210,9240051,,,2024-09-10,清算の結了等,,,2015-10-05,1,,,,,エムテック,0
1985,9390001001479,登記記録の閉鎖等,0,2024-09-18,2024-09-09,株式会社日医工山形,,株式会社,山形県,山形市,下条町３丁目８番１０号,,06,201,9900823,,,2024-09-09,合併による解散等,6380001001045,令和６年９月１日福島県郡山市安積町荒井字大久保４２番地１株式会社東北メディカル（6380001001045）に合併し解散,2015-10-05,1,,,,,ニチイコウヤマガタ,0
1991,9430001050249,登記記録の閉鎖等,0,2024-09-18,2024-09-11,株式会社鳥たつ,,株式会社,北海道,小樽市,花園３丁目１２番７号,,01,203,0470024,,,2024-09-11,清算の結了等,,,2015-10-05,1,,,,,トリタツ,0
1999,9490002009924,登記記録の閉鎖等,0,2024-09-18,2024-09-13,有限会社桜美学院,,有限会社,高知県,高岡郡佐川町,甲４１９番地４,,39,402,7891201,,,2024-09-13,清算の結了等,,,2015-10-05,1,,,,,オウビガクイン,0
