sequenceNumber,corporateNumber,process,correct,updateDate,changeDate,name,nameImageId,kind,prefectureName,cityName,streetNumber,addressImageId,prefectureCode,cityCode,postCode,addressOutside,addressOutsideImageId,closeDate,closeCause,successorCorporateNumber,changeCause,assignmentDate,latest,enName,enPrefectureName,enCityName,enAddressOutside,furigana,hihyoji
2,1010001008965,登記記録の閉鎖等,0,2024-11-06,2024-11-01,旭フアイナンス株式会社,,株式会社,東京都,千代田区,有楽町１丁目１番２号,,13,101,1000006,,,2024-11-01,合併による解散等,5120001059606,令和６年１１月１日東京都千代田区有楽町一丁目１番２号旭化成株式会社（5120001059606）に合併し解散,2015-10-05,1,,,,,アサヒファイナンス,0
4,1010001150379,登記記録の閉鎖等,0,2024-11-06,2024-10-31,ＮＯＡ・スクエア・ソリューションズ株式会社,,株式会社,東京都,杉並区,桃井３丁目６番１－２１４号,,13,115,1670034,,,2024-10-31,清算の結了等,,,2015-10-05,1,,,,,ノアスクエアソリューションズ,0
7,1010001222533,登記記録の閉鎖等,0,2024-11-06,2024-10-31,ＡＭＴエステート株式会社,,株式会社,東京都,中央区,日本橋本町２丁目６番１号日本橋本町プラザビル２Ｆ,,13,102,1030023,,,2024-10-31,合併による解散等,2011001130535,令和６年９月６日東京都港区南青山一丁目１番１号新青山ビル東館１５階サン共同Ｍ＆Ａ株式会社（2011001130535）に合併し解散,2021-11-29,1,,,,,エーエムティーエステート,0
32,1010403022333,登記記録の閉鎖等,0,2024-11-06,2024-10-21,合同会社ベンチャーＢ,,合同会社,東京都,港区,虎ノ門３丁目２２番１０－２０１号,,13,103,1050001,,,2024-10-21,清算の結了等,,,2020-02-14,1,,,,,ベンチャービー,0
38,1010601037521,登記記録の閉鎖等,0,2024-11-06,2024-10-29,ＫＥＹＥＡＳＴ　ＥＳＴＡＴＥ株式会社,,株式会社,東京都,江東区,塩浜２丁目２９番１６号１７０７号室,,13,108,1350043,,,2024-10-29,清算の結了等,,,2015-10-05,1,,,,,キーイーストエステート,0
53,1010902004237,登記記録の閉鎖等,0,2024-11-06,2024-10-30,有限会社鎌田デザインワークス,,有限会社,東京都,世田谷区,南烏山２丁目２８番９号,,13,112,1570062,,,2024-10-30,清算の結了等,,,2015-10-05,1,,,,,カマタデザインワークス,0
63,1011002014473,登記記録の閉鎖等,0,2024-11-06,2024-10-09,有限会社東藤,,有限会社,東京都,渋谷区,円山町３番２号,,13,113,1500044,,,2024-10-09,清算の結了等,,,2015-10-05,1,,,,,トウトウ,0
76,1011802028425,登記記録の閉鎖等,0,2024-11-06,2024-10-30,有限会社正光電線,,有限会社,東京都,足立区,加平３丁目１０番１５－４０２号,,13,121,1210055,,,2024-10-30,清算の結了等,,,2015-10-05,1,,,,,セイコウデンセン,0
94,1021002041302,登記記録の閉鎖等,0,2024-11-06,2024-11-01,有限会社すし一番,,有限会社,神奈川県,大和市,西鶴間１丁目７番８号,,14,213,2420005,,,2024-11-01,清算の結了等,,,2015-10-05,1,,,,,スシイチバン,0
101,1030001110174,登記記録の閉鎖等,0,2024-11-06,2024-10-31,株式会社陣見の里,,株式会社,埼玉県,児玉郡美里町,大字白石１９１８番地,,11,381,3670117,,,2024-10-31,清算の結了等,,,2015-10-05,1,,,,,ジンミノサト,0
107,1030002028622,登記記録の閉鎖等,0,2024-11-06,2024-10-30,有限会社荻島鐵工所,,有限会社,埼玉県,所沢市,大字亀ケ谷１３３番地の３,,11,208,3590014,,,2024-10-30,清算の結了等,,,2015-10-05,1,,,,,オギシマテッコウジョ,0
108,1030002081530,登記記録の閉鎖等,0,2024-11-06,2024-10-31,有限会社虎屋商店,,有限会社,埼玉県,児玉郡神川町,大字渡瀬６５６番地１,,11,383,3670301,,,2024-10-31,清算の結了等,,,2015-10-05,1,,,,,トラヤショウテン,0
114,1040001053967,登記記録の閉鎖等,0,2024-11-06,2024-10-31,株式会社サカモト呉服店,,株式会社,千葉県,市原市,五井中央西２丁目２４番地４、１１０５,,12,219,2900081,,,2024-10-31,清算の結了等,,,2015-10-05,1,,,,,,0
119,1040002088905,登記記録の閉鎖等,0,2024-11-06,2024-10-31,有限会社一柳企画,,有限会社,千葉県,柏市,南柏１丁目３番５号,,12,217,2770855,,,2024-10-31,清算の結了等,,,2015-10-05,1,,,,,イチリュウキカク,0
122,1050002010495,登記記録の閉鎖等,0,2024-11-06,2024-10-28,有限会社レディスショップカトレヤ,,有限会社,茨城県,笠間市,東平２丁目５－５,,08,216,3091705,,,2024-10-28,清算の結了等,,,2015-10-05,1,,,,,レディスショップカトレヤ,0
160,1122001015518,登記記録の閉鎖等,0,2024-11-06,2024-10-31,株式会社田島製作所,,株式会社,大阪府,大東市,新田本町１２番１８号,,27,218,5740055,,,2024-10-31,清算の結了等,,,2015-10-05,1,,,,,タジマセイサクショ,0
167,1140001073575,登記記録の閉鎖等,0,2024-11-06,2024-10-30,芝田産業株式会社,,株式会社,兵庫県,西宮市,門戸岡田町２番３９号,,28,204,6620826,,,2024-10-30,清算の結了等,,,2015-10-05,1,,,,,シバタサンギョウ,0
200,1190001005103,登記記録の閉鎖等,0,2024-11-06,2024-11-01,株式会社鈴鹿水道,,株式会社,三重県,鈴鹿市,野辺２丁目６番１６号,,24,207,5130024,,,2024-11-01,清算の結了等,,,2015-10-05,1,,,,,スズカスイドウ,0
202,1190002013996,登記記録の閉鎖等,0,2024-11-06,2024-10-31,有限会社スピード・コーポレーション,,有限会社,三重県,松阪市,五反田町２丁目１１１３番地,,24,204,5150064,,,2024-10-31,清算の結了等,,,2015-10-05,1,,,,,スピードコーポレーション,0
213,1220002010172,登記記録の閉鎖等,0,2024-11-06,2024-10-31,有限会社新井材木店,,有限会社,石川県,小松市,大領町つ３７番地１,,17,203,9230854,,,2024-10-31,清算の結了等,,,2015-10-05,1,,,,,アライザイモクテン,0
242,1310003001574,登記記録の閉鎖等,0,2024-11-06,2024-11-01,株式会社ナカムラ,,株式会社,長崎県,諫早市,福田町２番２２号,,42,204,8540001,,,2024-11-01,清算の結了等,,,2015-10-05,1,,,,,ナカムラ,0
245,1330002029227,登記記録の閉鎖等,0,2024-11-06,2024-10-30,山口工務塗装有限会社,,有限会社,熊本県,天草市,牛深町１５３５番地３９,,43,215,8631901,,,2024-10-30,清算の結了等,,,2015-10-05,1,,,,,ヤマグチコウムトソウ,0
259,1380002000744,登記記録の閉鎖等,0,2024-11-06,2024-10-28,有限会社オグラジ,,有限会社,福島県,福島市,小倉寺字中田２５番地,,07,201,9608142,,,2024-10-28,清算の結了等,,,2015-10-05,1,,,,,,0
276,1430005014240,登記記録の閉鎖等,0,2024-11-06,2024-11-01,特定非営利活動法人おひたし,,その他の設立登記法人,北海道,札幌市東区,北三十八条東８丁目１番６号パーサビル,,01,103,0070838,,,2024-11-01,清算の結了等,,,2021-08-11,1,,,,,オヒタシ,0
278,1460005001145,登記記録の閉鎖等,0,2024-11-06,2024-11-01,標茶駅前商店街協同組合,,その他の設立登記法人,北海道,川上郡標茶町,旭２丁目５番２３号,,01,664,0882301,,,2024-11-01,清算の結了等,,,2015-10-05,1,,,,,シベチャエキマエショウテンガイ,0
279,1470001009942,登記記録の閉鎖等,0,2024-11-06,2024-10-30,かんしんビジネスサポート株式会社,,株式会社,香川県,観音寺市,観音寺町甲３３７７番地３,,37,205,7680060,,,2024-10-30,清算の結了等,,,2015-10-05,1,,,,,カンシンビジネスサポート,0
281,1470002016789,登記記録の閉鎖等,0,2024-11-06,2024-10-30,有限会社関空調工業所,,有限会社,香川県,三豊市,山本町神田３７６６番地１,,37,208,7680104,,,2024-10-30,清算の結了等,,,2015-10-05,1,,,,,セキクウチョウコウギョウショ,0
294,2010002002413,登記記録の閉鎖等,0,2024-11-06,2024-10-23,有限会社コマ製作所,,有限会社,東京都,文京区,目白台２丁目７番１８号,,13,105,1120015,,,2024-10-23,清算の結了等,,,2015-10-05,1,,,,,コマセイサクショ,0
295,2010003022567,登記記録の閉鎖等,0,2024-11-06,2024-10-22,合同会社アコード,,合同会社,東京都,中央区,新川２丁目２７番１号,,13,102,1040033,,,2024-10-22,清算の結了等,,,2015-10-22,1,,,,,アコード,0
296,2010003037103,登記記録の閉鎖等,0,2024-11-06,2024-10-22,合同会社ＮＲＴグロース１８,,合同会社,東京都,中央区,八丁堀４丁目２番１０号ＡＯＪ税理士法人内,,13,102,1040032,,,2024-10-22,清算の結了等,,,2022-03-02,1,,,,,エヌアールティグロースエイティーン,0
335,2011801003898,登記記録の閉鎖等,0,2024-11-06,2024-10-31,白電工熱株式会社,,株式会社,東京都,葛飾区,東金町７丁目３０番１２号,,13,122,1250041,,,2024-10-31,清算の結了等,,,2015-10-05,1,,,,,ハクデンコウネツ,0
338,2011801028821,登記記録の閉鎖等,0,2024-11-06,2024-11-05,株式会社ｅｐｉｃ,,株式会社,東京都,墨田区,吾妻橋２丁目１８－１１－１Ｆ,,13,107,1300001,,,2024-11-05,清算の結了等,,,2015-10-05,1,,,,,,0
342,2012401004915,登記記録の閉鎖等,0,2024-11-06,2024-11-01,株式会社ファーマ,,株式会社,東京都,調布市,富士見町４丁目２７番地１,,13,208,1820033,,,2024-11-01,合併による解散等,4012401007172,令和６年１１月１日東京都調布市富士見町四丁目２５番地１１株式会社アーク・システム（4012401007172）に合併し解散,2015-10-05,1,,,,,ファーマ,0
351,2020003016023,登記記録の閉鎖等,0,2024-11-06,2024-10-15,レイワ合同会社,,合同会社,神奈川県,横浜市緑区,長津田５丁目４番３０号,,14,113,2260027,,,2024-10-15,清算の結了等,,,2019-05-14,1,,,,,レイワ,0
359,2021002057850,登記記録の閉鎖等,0,2024-11-06,2024-11-01,有限会社斎藤登商店,00013745,有限会社,神奈川県,平塚市,東八幡４丁目４番１号,,14,203,2540016,,,2024-11-01,清算の結了等,,,2015-10-05,1,,,,,サイトウノボルショウテン,0
361,2030001044966,登記記録の閉鎖等,0,2024-11-06,2024-10-30,株式会社中村機器,,株式会社,埼玉県,朝霞市,幸町１丁目２番１８号,,11,227,3510015,,,2024-10-30,清算の結了等,,,2015-10-05,1,,,,,ナカムラキキ,0
363,2030001118183,登記記録の閉鎖等,0,2024-11-06,2024-10-21,株式会社みそのミラクル,,株式会社,東京都,国立市,青柳３丁目２３番３２号,,13,215,1860013,,,2024-10-21,清算の結了等,,,2017-01-18,1,,,,,ミソノミラクル,0
381,2040002098589,登記記録の閉鎖等,0,2024-11-06,2024-10-30,有限会社ウッディーハウス,,有限会社,千葉県,野田市,木野崎２３８０番地の１６,,12,208,2780002,,,2024-10-30,清算の結了等,,,2015-10-05,1,,,,,ウッディーハウス,0
386,2040005020533,登記記録の閉鎖等,0,2024-11-06,2024-10-23,農事組合法人江田,,その他の設立登記法人,千葉県,館山市,竹原３１８番地の２,,12,205,2940001,,,2024-10-23,清算の結了等,,,2019-09-05,1,,,,,エダ,0
395,2080001016267,登記記録の閉鎖等,0,2024-11-06,2024-10-31,株式会社岩崎製紐,00067362,株式会社,静岡県,藤枝市,茶町２丁目３番１６号,,22,214,4260023,,,2024-10-31,清算の結了等,,,2015-10-05,1,,,,,イワサキセイチュウ,0
397,2080401001793,登記記録の閉鎖等,0,2024-11-06,2024-10-31,株式会社コムニテ,,株式会社,静岡県,浜松市中央区,栄町２３番地,,22,138,4328025,,,2024-10-31,清算の結了等,,,2015-10-05,1,,,,,コムニテ,0
412,2120001156232,登記記録の閉鎖等,0,2024-11-06,2024-11-05,株式会社ガードシステム,,株式会社,大阪府,門真市,殿島町８番１－７０７号,,27,223,5710045,,,2024-11-05,清算の結了等,,,2015-10-05,1,,,,,ガアドシステム,0
432,2120902020346,登記記録の閉鎖等,0,2024-11-06,2024-10-31,有限会社アイフォユー,,有限会社,大阪府,豊中市,東豊中町２丁目１０番４３号,,27,203,5600003,,,2024-10-31,清算の結了等,,,2015-10-05,1,,,,,アイフォユー,0
447,2140001110666,登記記録の閉鎖等,0,2024-11-06,2024-10-31,株式会社ＭＳＣｒｅａｔｏｒｓ,,株式会社,兵庫県,川西市,けやき坂１丁目１８番地の１－１１８,,28,217,6660145,,,2024-10-31,清算の結了等,,,2018-07-10,1,,,,,,0
460,2180001014129,登記記録の閉鎖等,0,2024-11-06,2024-10-31,株式会社宇津美スポーツ,,株式会社,愛知県,名古屋市南区,明治２丁目２０番５号,,23,112,4570861,,,2024-10-31,清算の結了等,,,2015-10-05,1,,,,,ウツミスポーツ,0
463,2180001083264,登記記録の閉鎖等,0,2024-11-06,2024-10-30,戸本サンウッド株式会社,,株式会社,愛知県,一宮市,島崎１丁目１０番２５号,,23,203,4910834,,,2024-10-30,清算の結了等,,,2015-10-05,1,,,,,トモトサンウッド,0
472,2180002025496,登記記録の閉鎖等,0,2024-11-06,2024-10-30,有限会社梶原商事,,有限会社,愛知県,名古屋市緑区,大将ケ根２丁目５２０番地,,23,114,4580822,,,2024-10-30,清算の結了等,,,2015-10-05,1,,,,,カジワラショウジ,0
474,2180002040883,登記記録の閉鎖等,0,2024-11-06,2024-10-25,有限会社尾張中央タイムズ社,,有限会社,愛知県,北名古屋市,西之保深坪５７番地,,23,234,4810033,,,2024-10-25,清算の結了等,,,2015-10-05,1,,,,,オワリチュウオウタイムズシャ,0
475,2180002068413,登記記録の閉鎖等,0,2024-11-06,2024-10-30,有限会社インスクレア,,有限会社,愛知県,春日井市,東野町８丁目１番地の１,,23,206,4860817,,,2024-10-30,清算の結了等,,,2015-10-05,1,,,,,インスクレア,0
477,2180002086332,登記記録の閉鎖等,0,2024-11-06,2024-10-30,有限会社モリタ,,有限会社,愛知県,常滑市,大谷字鴨４０番地の７,,23,216,4790806,,,2024-10-30,清算の結了等,,,2015-10-05,1,,,,,モリタ,0
478,2180003005118,登記記録の閉鎖等,0,2024-11-06,2024-10-24,合資会社小山商会,,合資会社,愛知県,名古屋市中区,大須１丁目１８番５４号,,23,106,4600011,,,2024-10-24,清算の結了等,,,2015-10-05,1,,,,,コヤマショウカイ,0
481,2180303006294,登記記録の閉鎖等,0,2024-11-06,2024-11-01,合資会社太田薬店,,合資会社,愛知県,岡崎市,美合町字生田８０番地,,23,202,4440804,,,2024-11-01,清算の結了等,,,2024-10-16,1,,,,,オオタヤクテン,0
508,2320002006903,登記記録の閉鎖等,0,2024-11-06,2024-11-05,有限会社森田鉄筋,,有限会社,大分県,大分市,大字森町７９９番地の６,,44,201,8700127,,,2024-11-05,清算の結了等,,,2015-10-05,1,,,,,,0
509,2320005008252,登記記録の閉鎖等,0,2024-11-06,2024-11-01,農事組合法人大根川,,その他の設立登記法人,大分県,宇佐市,大字大根川３７６番地,,44,211,8790232,,,2024-11-01,清算の結了等,,,2015-10-05,1,,,,,オオネガワ,0
511,2330002008485,登記記録の閉鎖等,0,2024-11-06,2024-10-31,有限会社原田商店,,有限会社,熊本県,熊本市西区,田崎町４８４番地,,43,103,8600058,,,2024-10-31,清算の結了等,,,2015-10-05,1,,,,,ハラダショウテン,0
517,2360002012328,登記記録の閉鎖等,0,2024-11-06,2024-11-01,有限会社双和建設,,有限会社,沖縄県,沖縄市,与儀２丁目４番１３号ミドリアパート３Ａ,,47,211,9042174,,,2024-11-01,清算の結了等,,,2015-10-05,1,,,,,フタワケンセツ,0
530,2400001004222,登記記録の閉鎖等,0,2024-11-06,2024-10-24,株式会社藤技空,,株式会社,岩手県,盛岡市,前九年２丁目７番５号,,03,201,0200127,,,2024-10-24,清算の結了等,,,2015-10-05,1,,,,,フジギクウ,0
533,2430001078528,登記記録の閉鎖等,0,2024-11-06,2024-11-01,株式会社Ｌｉｌｙ　Ｇａｒｄｅｎ,,株式会社,北海道,札幌市中央区,北四条東２丁目８番地６－３０５,,01,101,0600034,,,2024-11-01,合併による解散等,5430001074656,令和６年１１月１日札幌市中央区北四条東二丁目８番地６サッポロユニオンハイツ３０５号株式会社Ｈｏｍｅ　Ｖｉｌｌａｇｅ（5430001074656）に合併し解散,2019-03-18,1,,,,,リリーガーデン,0
543,2450003001403,登記記録の閉鎖等,0,2024-11-06,2024-10-31,合同会社たかすの丘どうぶつ診療所,,合同会社,北海道,上川郡鷹栖町,１６線九号２番地,,01,452,0711256,,,2024-10-31,清算の結了等,,,2015-10-05,1,,,,,タカスノオカドウブツシンリョウジョ,0
547,2500005008597,登記記録の閉鎖等,0,2024-11-06,2024-11-01,特定非営利活動法人小田川自然ミュージアム,,その他の設立登記法人,愛媛県,喜多郡内子町,内子１００１番地,,38,422,7913301,,,2024-11-01,清算の結了等,,,2023-04-06,1,,,,,オダガワシゼンミュージアム,0
564,3010101003781,登記記録の閉鎖等,0,2024-11-06,2024-11-01,美ささ商事株式会社,,株式会社,東京都,八王子市,元横山町１丁目１４番１６号,,13,201,1920063,,,2024-11-01,清算の結了等,,,2015-10-05,1,,,,,ミササショウジ,0
577,3010405016694,登記記録の閉鎖等,0,2024-11-06,2024-10-21,ＥＳＲ愛西特定目的会社,,その他の設立登記法人,東京都,港区,赤坂２丁目１０番５号税理士法人赤坂国際会計事務所内,,13,103,1070052,,,2024-10-21,清算の結了等,,,2018-05-01,1,,,,,イーエスアールアイサイ,0
579,3010405020449,登記記録の閉鎖等,0,2024-11-06,2024-10-18,ＲＢソーラーパッション５ホールディングス一般社団法人,,その他の設立登記法人,東京都,港区,虎ノ門３丁目２２番１０－２０１号,,13,103,1050001,,,2024-10-18,清算の結了等,,,2021-11-24,1,,,,,アールビーソーラーパッションファイブホールディングス,0
583,3010601055026,登記記録の閉鎖等,0,2024-11-06,2024-10-31,ＬＥＮＮＳＰＯ株式会社,,株式会社,東京都,江東区,富岡２丁目２番６－７０１号,,13,108,1350047,,,2024-10-31,清算の結了等,,,2019-02-13,1,,,,,レンスポ,0
587,3011003016814,登記記録の閉鎖等,0,2024-11-06,2024-10-07,合同会社ｋａｋｅｎａｒｉ,,合同会社,東京都,渋谷区,東２丁目１８番６号松岡ビル２０２号,,13,113,1500011,,,2024-10-07,清算の結了等,,,2023-05-12,1,,,,,カケナリ,0
633,3021001000364,登記記録の閉鎖等,0,2024-11-06,2024-11-05,株式会社太富設備,,株式会社,神奈川県,藤沢市,柄沢２丁目１６番地の２３,,14,205,2510003,,,2024-11-05,清算の結了等,,,2015-10-05,1,,,,,ダイトミセツビ,0
642,3030001036467,登記記録の閉鎖等,0,2024-11-06,2024-10-30,株式会社和宝,,株式会社,埼玉県,八潮市,大瀬３丁目４番地１,,11,234,3400822,,,2024-10-30,清算の結了等,,,2015-10-05,1,,,,,ワホウ,0
643,3030001048875,登記記録の閉鎖等,0,2024-11-06,2024-10-18,株式会社チアキ,,株式会社,埼玉県,志木市,中宗岡２丁目１２番１１号,,11,228,3530002,,,2024-10-18,清算の結了等,,,2015-10-05,1,,,,,チアキ,0
649,3030001112219,登記記録の閉鎖等,0,2024-11-06,2024-10-31,株式会社Ｐｒｏｐ,,株式会社,埼玉県,深谷市,上柴町西４丁目６番地６ビューウエストタウン２０１号,,11,218,3660052,,,2024-10-31,清算の結了等,,,2016-01-07,1,,,,,プロップ,0
668,3040002019404,登記記録の閉鎖等,0,2024-11-06,2024-10-30,有限会社プロペラ広告,,有限会社,千葉県,船橋市,東船橋３丁目２３番１９－３０３号,,12,204,2730002,,,2024-10-30,清算の結了等,,,2015-10-05,1,,,,,プロペラコウコク,0
683,3120001016435,登記記録の閉鎖等,0,2024-11-06,2024-11-01,ヤナセ産業株式会社,,株式会社,大阪府,大阪市城東区,関目４丁目８番１９号,,27,118,5360008,,,2024-11-01,清算の結了等,,,2015-10-05,1,,,,,ヤナセサンギョウ,0
702,3120101021673,登記記録の閉鎖等,0,2024-11-06,2024-10-30,株式会社ナカセ鉄工建設,,株式会社,大阪府,堺市美原区,菅生１７２４番地,,27,147,5870041,,,2024-10-30,清算の結了等,,,2015-10-05,1,,,,,ナカセテッコウケンセツ,0
705,3120901042472,登記記録の閉鎖等,0,2024-11-06,2024-11-01,株式会社トライスト,,株式会社,大阪府,豊中市,永楽荘３丁目９番５３号,,27,203,5600051,,,2024-11-01,清算の結了等,,,2020-03-03,1,,,,,トライスト,0
715,3140001101202,登記記録の閉鎖等,0,2024-11-06,2024-10-31,さくらアセットマネジメント株式会社,,株式会社,兵庫県,西宮市,仁川町４丁目６番１０号,,28,204,6620811,,,2024-10-31,清算の結了等,,,2016-03-04,1,,,,,サクラアセットマネジメント,0
726,3170002005911,登記記録の閉鎖等,0,2024-11-06,2024-11-01,有限会社Ｋ－ＬＩＮＥ,,有限会社,和歌山県,和歌山市,砂山南４丁目３番４号,,30,201,6408272,,,2024-11-01,清算の結了等,,,2015-10-05,1,,,,,,0
730,3180001110356,登記記録の閉鎖等,0,2024-11-06,2024-10-31,株式会社オオノホールディング,,株式会社,愛知県,名古屋市西区,比良４丁目１２５番地,,23,104,4520802,,,2024-10-31,清算の結了等,,,2015-10-05,1,,,,,オオノホールディング,0
731,3180001144783,登記記録の閉鎖等,0,2024-11-06,2024-10-28,株式会社ＥＬＢＥＴＴＥ,,株式会社,愛知県,長久手市,久保山１６０１番地３,,23,238,4801151,,,2024-10-28,清算の結了等,,,2021-02-12,1,,,,,エルベッテ,0
733,3180002041022,登記記録の閉鎖等,0,2024-11-06,2024-10-25,有限会社中日プロダクト,,有限会社,愛知県,北名古屋市,西之保深坪５７番地,,23,234,4810033,,,2024-10-25,清算の結了等,,,2015-10-05,1,,,,,チュウニチプロダクト,0
734,3180002058149,登記記録の閉鎖等,0,2024-11-06,2024-10-25,有限会社ルーポ・アルジェント,,有限会社,愛知県,名古屋市中川区,明徳町３丁目１０番地の１,,23,110,4540857,,,2024-10-25,清算の結了等,,,2015-10-05,1,,,,,ルーポアルジェント,0
735,3180002059394,登記記録の閉鎖等,0,2024-11-06,2024-10-29,有限会社みやび,,有限会社,愛知県,名古屋市天白区,島田２丁目３０１番地,,23,116,4680056,,,2024-10-29,清算の結了等,,,2015-10-05,1,,,,,ミヤビ,0
736,3180301010181,登記記録の閉鎖等,0,2024-11-06,2024-10-31,株式会社府中家具,,株式会社,愛知県,豊川市,行明町山伏７番地４,,23,207,4420822,,,2024-10-31,清算の結了等,,,2015-10-05,1,,,,,フチュウカグ,0
744,3200002022333,登記記録の閉鎖等,0,2024-11-06,2024-10-31,有限会社テクノボーイ,,有限会社,岐阜県,多治見市,笠原町９５２番地の１４,,21,204,5070901,,,2024-10-31,清算の結了等,,,2015-10-05,1,,,,,テクノボーイ,0
747,3220002004718,登記記録の閉鎖等,0,2024-11-06,2024-10-31,株式会社花みやび佳,,株式会社,石川県,金沢市,本町１丁目５番１号,,17,201,9200853,,,2024-10-31,清算の結了等,,,2015-10-05,1,,,,,ハナミヤビウツクシ,0
757,3250002001786,登記記録の閉鎖等,0,2024-11-06,2024-10-31,有限会社領家,,有限会社,山口県,山口市,大内御堀４丁目１５番１５号,,35,203,7530214,,,2024-10-31,清算の結了等,,,2015-10-05,1,,,,,リョウケ,0
792,3370201003786,登記記録の閉鎖等,0,2024-11-06,2024-10-28,フラップ総合株式会社,,株式会社,宮城県,栗原市,志波姫南伊豆野２３番地５,,04,213,9872200,,,2024-10-28,清算の結了等,,,2015-10-05,1,,,,,フラップソウゴウ,0
798,3380002033585,登記記録の閉鎖等,0,2024-11-06,2024-10-25,有限会社アルパ,,有限会社,福島県,会津若松市,上町１番１２号朝日第一ビル３階,,07,202,9650034,,,2024-10-25,清算の結了等,,,2015-10-05,1,,,,,アルパ,0
816,4010002000712,登記記録の閉鎖等,0,2024-11-06,2024-10-31,有限会社稲村製本所,,有限会社,千葉県,浦安市,北栄３丁目２２番５－２０５号,,12,227,2790002,,,2024-10-31,清算の結了等,,,2015-10-05,1,,,,,イナムラセイホンショ,0
837,4010402002143,登記記録の閉鎖等,0,2024-11-06,2024-10-30,有限会社エス．ケー．デザイン事務所,,有限会社,東京都,練馬区,北町１丁目４６番１２号,,13,120,1790081,,,2024-10-30,清算の結了等,,,2015-10-05,1,,,,,エスケーデザインジムショ,0
839,4010405015027,登記記録の閉鎖等,0,2024-11-06,2024-10-17,Ｎｉｓｅｋｏ　Ａｌｐｉｎｅ　Ｒｅｓｏｒｔｓ　Ｈｏｌｄｉｎｇｓ１一般社団法人,,その他の設立登記法人,東京都,港区,虎ノ門３丁目２２番１０－２０１号,,13,103,1050001,,,2024-10-17,清算の結了等,,,2016-08-12,1,,,,,ニセコアルパインリゾーツホールディングスワン,0
846,4010901039074,登記記録の閉鎖等,0,2024-11-06,2024-11-05,株式会社有明清算,,株式会社,東京都,江東区,有明１丁目３番３３号,,13,108,1350063,,,2024-11-05,清算の結了等,,,2016-11-15,1,,,,,アリアケセイサン,0
849,4011001060400,登記記録の閉鎖等,0,2024-11-06,2024-10-30,アンドロイダー株式会社,,株式会社,東京都,渋谷区,渋谷２丁目１０番１５号,,13,113,1500002,,,2024-10-30,合併による解散等,9010001173637,令和６年１０月１日東京都千代田区外神田四丁目１４番２－３６０１号株式会社ＳＫＤ（9010001173637）に合併し解散,2015-10-05,1,,,,,アンドロイダー,0
870,4011401014550,登記記録の閉鎖等,0,2024-11-06,2024-10-28,株式会社トランス・ピュアレント,,株式会社,東京都,練馬区,東大泉２丁目４２番８号,,13,120,1780063,,,2024-10-28,清算の結了等,,,2015-10-05,1,,,,,トランスピュアレント,0
876,4011802009166,登記記録の閉鎖等,0,2024-11-06,2024-10-31,有限会社東商会,,有限会社,東京都,足立区,花畑４丁目３８番５号,,13,121,1210061,,,2024-10-31,清算の結了等,,,2015-10-05,1,,,,,アズマショウカイ,0
877,4011802011444,登記記録の閉鎖等,0,2024-11-06,2024-10-29,有限会社カネ大商店,,有限会社,東京都,足立区,千住橋戸町５０番地,,13,121,1200038,,,2024-10-29,清算の結了等,,,2015-10-05,1,,,,,カネダイショウテン,0
881,4012402002478,登記記録の閉鎖等,0,2024-11-06,2024-10-31,有限会社ボヌール,,有限会社,東京都,府中市,府中町２丁目７番地２,,13,206,1830055,,,2024-10-31,清算の結了等,,,2015-10-05,1,,,,,ボヌール,0
897,4021002044104,登記記録の閉鎖等,0,2024-11-06,2024-11-05,有限会社パルテック,,有限会社,神奈川県,座間市,ひばりが丘２丁目３８番３１号,,14,216,2520003,,,2024-11-05,清算の結了等,,,2015-10-05,1,,,,,パルテック,0
901,4021005001333,登記記録の閉鎖等,0,2024-11-06,2024-11-01,税理士法人雪風,,その他の設立登記法人,神奈川県,藤沢市,藤沢３４番地の２ライオンズプラザ藤沢２１３,,14,205,2510052,,,2024-11-01,清算の結了等,,,2015-10-05,1,,,,,ユキカゼ,0
908,4030002024189,登記記録の閉鎖等,0,2024-11-06,2024-10-30,有限会社小林設備工業,,有限会社,埼玉県,戸田市,大字新曽字柳原３５３番２,,11,224,3350021,,,2024-10-30,清算の結了等,,,2015-10-05,1,,,,,コバヤシセツビコウギョウ,0
909,4030002081164,登記記録の閉鎖等,0,2024-11-06,2024-10-31,有限会社童夢,,有限会社,埼玉県,児玉郡上里町,大字七本木３０５０番地８,,11,385,3690306,,,2024-10-31,清算の結了等,,,2015-10-05,1,,,,,ドウム,0
919,4040002101136,登記記録の閉鎖等,0,2024-11-06,2024-10-31,有限会社若松屋洋品店,,有限会社,千葉県,鴨川市,横渚６８６番地,,12,223,2960001,,,2024-10-31,清算の結了等,,,2015-10-05,1,,,,,ワカマツヤヨウヒンテン,0
923,4050002017059,登記記録の閉鎖等,0,2024-11-06,2024-10-28,有限会社染谷本店,,有限会社,茨城県,下妻市,下木戸３６８番地,,08,210,3040028,,,2024-10-28,清算の結了等,,,2015-10-05,1,,,,,ソメヤホンテン,0
924,4050002045282,登記記録の閉鎖等,0,2024-11-06,2024-10-25,有限会社大谷津電機商会,,有限会社,茨城県,結城市,大字結城７５番地の４,,08,207,3070001,,,2024-10-25,清算の結了等,,,2015-10-05,1,,,,,オオヤツデンキショウカイ,0
929,4080102012139,登記記録の閉鎖等,0,2024-11-06,2024-11-01,有限会社アートヒルズ・トスカーナ,,有限会社,静岡県,駿東郡長泉町,東野６０８番地の１１２,,22,342,4110931,,,2024-11-01,清算の結了等,,,2015-10-05,1,,,,,アートヒルズトスカーナ,0
932,4110001013515,登記記録の閉鎖等,0,2024-11-06,2024-10-30,株式会社デバイステック,,株式会社,新潟県,新発田市,天王６５７番地,,15,206,9592325,,,2024-10-30,清算の結了等,,,2015-10-05,1,,,,,デバイステック,0
933,4110002000859,登記記録の閉鎖等,0,2024-11-06,2024-10-30,有限会社一黒屋,,有限会社,新潟県,新潟市中央区,関屋田町２丁目３３４番地,,15,103,9518136,,,2024-10-30,清算の結了等,,,2015-10-05,1,,,,,イチコクヤ,0
935,4110002003507,登記記録の閉鎖等,0,2024-11-06,2024-10-30,有限会社西都,,有限会社,新潟県,新潟市南区,高井東２丁目９番２０号,,15,106,9501236,,,2024-10-30,清算の結了等,,,2015-10-05,1,,,,,セイト,0
939,4120001122273,登記記録の閉鎖等,0,2024-11-06,2024-10-31,株式会社ローズ・ファンファンインターナショナル,,株式会社,大阪府,吹田市,南高浜町２８番９号,,27,205,5640025,,,2024-10-31,清算の結了等,,,2015-10-05,1,,,,,ローズファンファンインターナショナル,0
947,4120001227799,登記記録の閉鎖等,0,2024-11-06,2024-11-01,Ｒ－ＴＥＣＨ株式会社,,株式会社,大阪府,大阪市鶴見区,今津中３丁目４番２４号,,27,124,5380042,,,2024-11-01,清算の結了等,,,2020-03-13,1,,,,,アールテック,0
963,4120902006145,登記記録の閉鎖等,0,2024-11-06,2024-11-01,有限会社鋼建エムワイ,,有限会社,大阪府,吹田市,江坂町２丁目１４番６号,,27,205,5640063,,,2024-11-01,清算の結了等,,,2015-10-05,1,,,,,コウケンエムワイ,0
988,4180001006215,登記記録の閉鎖等,0,2024-11-06,2024-10-23,カービュウティシャン株式会社,,株式会社,愛知県,名古屋市港区,木場町１番地の３,,23,111,4550021,,,2024-10-23,清算の結了等,,,2015-10-05,1,,,,,カービュウティシャン,0
990,4180001029595,登記記録の閉鎖等,0,2024-11-06,2024-10-29,エサキ・エステイト・アンド・ワイン株式会社,,株式会社,愛知県,名古屋市中川区,二女子町３丁目１５番地,,23,110,4540036,,,2024-10-29,清算の結了等,,,2015-10-05,1,,,,,エサキエステイトアンドワイン,0
991,4180001062274,登記記録の閉鎖等,0,2024-11-06,2024-10-28,タイレックス工業株式会社,,株式会社,愛知県,名古屋市中村区,名駅３丁目２番４号,,23,105,4500002,,,2024-10-28,清算の結了等,,,2015-10-05,1,,,,,タイレックスコウギョウ,0
993,4180001138792,登記記録の閉鎖等,0,2024-11-06,2024-10-31,株式会社ｅｎ　ｃｏｕｎｔｅｒ,,株式会社,愛知県,豊明市,三崎町中ノ坪９番１０ＶｉｖｒｅＮ３０２号,,23,229,4701125,,,2024-10-31,清算の結了等,,,2019-11-08,1,,,,,エンカウンター,0
994,4180001150236,登記記録の閉鎖等,0,2024-11-06,2024-10-30,ティーエス株式会社,,株式会社,愛知県,春日井市,東野町１０丁目１４番地４コアビル３Ａ,,23,206,4860817,,,2024-10-30,清算の結了等,,,2022-03-07,1,,,,,ティーエス,0
998,4180002029041,登記記録の閉鎖等,0,2024-11-06,2024-10-22,有限会社松井設計,,有限会社,愛知県,名古屋市中村区,則武１丁目１０番６号側島ビル内,,23,105,4530014,,,2024-10-22,清算の結了等,,,2015-10-05,1,,,,,マツイセッケイ,0
999,4180002056201,登記記録の閉鎖等,0,2024-11-06,2024-10-23,有限会社日本インプラントシステム,,有限会社,愛知県,名古屋市千種区,星ケ丘２丁目２２番地,,23,101,4640801,,,2024-10-23,清算の結了等,,,2015-10-05,1,,,,,ニホンインプラントシステム,0
1003,4180002090472,登記記録の閉鎖等,0,2024-11-06,2024-10-23,有限会社丸一機材,,有限会社,愛知県,名古屋市西区,枇杷島３丁目１７番１３号,,23,104,4510053,,,2024-10-23,清算の結了等,,,2015-10-05,1,,,,,マルイチキザイ,0
1011,4200002013554,登記記録の閉鎖等,0,2024-11-06,2024-11-01,有限会社ハヤシ製菓,,有限会社,岐阜県,安八郡神戸町,大字丈六道１１６７番地,,21,381,5032304,,,2024-11-01,清算の結了等,,,2015-10-05,1,,,,,ハヤシセイカ,0
1015,4240001014970,登記記録の閉鎖等,0,2024-11-06,2024-11-01,株式会社広島労住,,株式会社,広島県,広島市南区,比治山町２番５号,,34,103,7320817,,,2024-11-01,合併による解散等,7240001009670,令和６年１１月１日広島市南区比治山町２番５号株式会社ロウジュウコミュニティー（7240001009670）に合併し解散,2015-10-05,1,,,,,ヒロシマロウジュウ,0
1059,4370002016607,登記記録の閉鎖等,0,2024-11-06,2024-10-25,有限会社日新工業,,有限会社,宮城県,仙台市宮城野区,燕沢東３丁目２１番２１号,,04,102,9830822,,,2024-10-25,清算の結了等,,,2015-10-05,1,,,,,,0
1061,4402701000044,登記記録の閉鎖等,0,2024-11-06,2024-10-24,大船渡ガス株式会社,,株式会社,岩手県,大船渡市,大船渡町字野々田１１番地２６,,03,203,0220002,,,2024-10-24,清算の結了等,,,2015-10-05,1,,,,,オオフナトガス,0
1062,4402702000373,登記記録の閉鎖等,0,2024-11-06,2024-10-23,有限会社松沢水産,,有限会社,岩手県,大船渡市,大船渡町字明神前２０番地８,,03,203,0220002,,,2024-10-23,清算の結了等,,,2015-10-05,1,,,,,マツザワスイサン,0
1068,4420005004231,登記記録の閉鎖等,0,2024-11-06,2024-10-30,特定非営利活動法人津軽にやきもの産地をつくる会,,その他の設立登記法人,青森県,五所川原市,大字金山字千代鶴５番地７９,,02,205,0370011,,,2024-10-30,清算の結了等,,,2015-10-05,1,,,,,ツガルニヤキモノサンチヲツクルカイ,0
1080,4490002012651,登記記録の閉鎖等,0,2024-11-06,2024-11-05,有限会社ダイヤ機工,,有限会社,高知県,南国市,東崎７２１番地２０,,39,204,7830024,,,2024-11-05,清算の結了等,,,2015-10-05,1,,,,,,0
1082,5010001204593,登記記録の閉鎖等,0,2024-11-06,2024-10-08,ヴィーダ株式会社,,株式会社,東京都,渋谷区,恵比寿１丁目１０番６号清園ビル５階,,13,113,1500013,,,2024-10-08,清算の結了等,,,2019-10-15,1,,,,,ヴィーダ,0
1091,5010005005492,登記記録の閉鎖等,0,2024-11-06,2024-10-21,特定非営利活動法人ギャラクシー・ブライト,,その他の設立登記法人,神奈川県,横浜市戸塚区,品濃町１番地１シャトレ―戸塚ガーデン１０１,,14,110,2440801,,,2024-10-21,清算の結了等,,,2015-10-05,1,,,,,ギャラクシーブライト,0
1114,5010403024953,登記記録の閉鎖等,0,2024-11-06,2024-10-18,合同会社ヲリケル,,合同会社,東京都,港区,南青山２丁目２番１５号ウィン青山９４２,,13,103,1070062,,,2024-10-18,清算の結了等,,,2021-03-23,1,,,,,ヲリケル,0
1116,5010505002799,登記記録の閉鎖等,0,2024-11-06,2024-10-29,一般社団法人ＮＫ６号,,その他の設立登記法人,東京都,台東区,台東４丁目２９番１３－８０２号,,13,106,1100016,,,2024-10-29,清算の結了等,,,2017-07-14,1,,,,,エヌケーロクゴウ,0
1123,5010801010885,登記記録の閉鎖等,0,2024-11-06,2024-10-28,北斗電気株式会社,,株式会社,東京都,大田区,南六郷２丁目２３番１６号,,13,111,1440045,,,2024-10-28,清算の結了等,,,2015-10-05,1,,,,,ホクトデンキ,0
1128,5010902026079,登記記録の閉鎖等,0,2024-11-06,2024-10-31,有限会社ジュネス,,有限会社,東京都,世田谷区,砧８丁目２番２６号中野ビル,,13,112,1570073,,,2024-10-31,清算の結了等,,,2015-10-05,1,,,,,ジュネス,0
1142,5011101095915,登記記録の閉鎖等,0,2024-11-06,2024-10-28,ｎｉｖｅｌ株式会社,,株式会社,東京都,新宿区,新宿１丁目３６番２号新宿第七葉山ビル３階,,13,104,1600022,,,2024-10-28,清算の結了等,,,2021-08-04,1,,,,,ニベル,0
1146,5011301015160,登記記録の閉鎖等,0,2024-11-06,2024-10-31,株式会社高屋アカウンティング,,株式会社,東京都,杉並区,西荻北２丁目６番１２－７０２号,,13,115,1670042,,,2024-10-31,清算の結了等,,,2015-10-05,1,,,,,タカヤアカウンティング,0
1153,5012303001421,登記記録の閉鎖等,0,2024-11-06,2024-10-28,ＳＡＴ合同会社,,合同会社,東京都,町田市,本町田２９０１番地２５,,13,209,1940032,,,2024-10-28,清算の結了等,,,2020-07-09,1,,,,,サット,0
1164,5013301042416,登記記録の閉鎖等,0,2024-11-06,2024-10-24,ＬＢＭデータ株式会社,,株式会社,東京都,豊島区,東池袋３丁目２０－３,,13,116,1700013,,,2024-10-24,合併による解散等,6013301021138,令和６年１０月１日東京都豊島区東池袋三丁目２０番３号ＰＯＰＣＨＡＴ株式会社（6013301021138）に合併し解散,2018-06-20,1,,,,,エルビーエムデータ,0
1170,5020003018735,登記記録の閉鎖等,0,2024-11-06,2024-10-21,合同会社小川プランニング,,合同会社,神奈川県,川崎市麻生区,虹ケ丘１丁目７－３３,,14,137,2150015,,,2024-10-21,合併による解散等,1020001145221,令和６年１０月１日神奈川県川崎市麻生区虹ケ丘１－７－３３オリバーホーム株式会社（1020001145221）に合併し解散,2020-11-02,1,,,,,オガワプランニング,0
1181,5030005019672,登記記録の閉鎖等,0,2024-11-06,2024-10-11,特定非営利活動法人こどもわくわく教室士気,,その他の設立登記法人,埼玉県,新座市,西堀１丁目４番地１６の６号,,11,230,3520031,,,2024-10-11,清算の結了等,,,2019-11-06,1,,,,,コドモワクワクキョウシツシキ,0
1183,5040001034749,登記記録の閉鎖等,0,2024-11-06,2024-10-30,旭運輸株式会社,,株式会社,千葉県,松戸市,南花島向町３１２番地,,12,207,2710065,,,2024-10-30,清算の結了等,,,2015-10-05,1,,,,,アサヒウンユ,0
1186,5040001087326,登記記録の閉鎖等,0,2024-11-06,2024-10-31,株式会社ＶＩＮＣＵＬ,,株式会社,千葉県,市川市,市川１丁目１６番２０号,,12,203,2720034,,,2024-10-31,清算の結了等,,,2015-10-05,1,,,,,ヴィンクル,0
1213,5110001002062,登記記録の閉鎖等,0,2024-11-06,2024-10-30,株式会社佐藤七組,,株式会社,新潟県,新潟市東区,石山１丁目２番４０号,,15,102,9500852,,,2024-10-30,清算の結了等,,,2015-10-05,1,,,,,サトウナナクミ,0
1217,5110002034526,登記記録の閉鎖等,0,2024-11-06,2024-10-31,西花味噌有限会社,00071204,有限会社,新潟県,佐渡市,羽茂大橋１５３５の１番地,,15,224,9520512,,,2024-10-31,清算の結了等,,,2015-10-05,1,,,,,サイカミソ,0
1268,5170002005868,登記記録の閉鎖等,0,2024-11-06,2024-11-05,有限会社紀乃水,,有限会社,和歌山県,和歌山市,楠本２４０番地の１３,,30,201,6496313,,,2024-11-05,清算の結了等,,,2015-10-05,1,,,,,キノミズ,0
1270,5180001078377,登記記録の閉鎖等,0,2024-11-06,2024-10-24,株式会社富士創建,,株式会社,愛知県,春日井市,妙慶町３丁目５８番地,,23,206,4860928,,,2024-10-24,清算の結了等,,,2015-10-05,1,,,,,フジソウケン,0
1272,5180001085687,登記記録の閉鎖等,0,2024-11-06,2024-10-24,大崎情報システム株式会社,,株式会社,愛知県,一宮市,妙興寺１丁目６番２８号,,23,203,4910921,,,2024-10-24,清算の結了等,,,2015-10-05,1,,,,,オオサキジョウホウシステム,0
1279,5180002075340,登記記録の閉鎖等,0,2024-11-06,2024-10-23,有限会社アスカ,,有限会社,愛知県,犬山市,字下榎島１０番地２,,23,215,4840965,,,2024-10-23,清算の結了等,,,2015-10-05,1,,,,,アスカ,0
1281,5180005006937,登記記録の閉鎖等,0,2024-11-06,2024-10-31,一般社団法人名古屋シネマテーク,,その他の設立登記法人,愛知県,名古屋市千種区,今池１丁目６番１３号,,23,101,4640850,,,2024-10-31,清算の結了等,,,2015-10-05,1,,,,,ナゴヤシネマテーク,0
1282,5180005018585,登記記録の閉鎖等,0,2024-11-06,2024-10-24,一般社団法人日本福祉フォーラム,,その他の設立登記法人,愛知県,名古屋市守山区,川西１丁目２２１番地の２,,23,113,4630080,,,2024-10-24,清算の結了等,,,2019-12-24,1,,,,,ニホンフクシフォーラム,0
1296,5230002009771,登記記録の閉鎖等,0,2024-11-06,2024-10-31,有限会社吉田商事,,有限会社,富山県,南砺市,福光３６番地の１,,16,210,9391610,,,2024-10-31,清算の結了等,,,2015-10-05,1,,,,,ヨシダショウジ,0
1304,5240003002642,登記記録の閉鎖等,0,2024-11-06,2024-10-28,合同会社ＨＡＮＡＫＯＦＸ,,合同会社,広島県,広島市西区,井口５丁目１６番１０－８０２号,,34,104,7330842,,,2024-10-28,清算の結了等,,,2015-10-05,1,,,,,,0
1308,5270001008119,登記記録の閉鎖等,0,2024-11-06,2024-10-25,株式会社アールデザインプロダクツ,,株式会社,鳥取県,境港市,竹内団地２７８番地７,,31,204,6840046,,,2024-10-25,合併による解散等,8270003000797,令和６年１０月１日鳥取県倉吉市上井町一丁目３７０番地合同会社ごっつお（8270003000797）に合併し解散,2020-10-12,1,,,,,アールデザインプロダクツ,0
1330,5320001009895,登記記録の閉鎖等,0,2024-11-06,2024-11-05,ゆふいんＡＰ株式会社,,株式会社,大分県,由布市,湯布院町塚原字鶴見嶽１２３９番地１３５,,44,213,8795101,,,2024-11-05,清算の結了等,,,2015-10-05,1,,,,,ユフインエーピー,0
1338,5370001003159,登記記録の閉鎖等,0,2024-11-06,2024-11-01,株式会社ＳＴ商店,,株式会社,埼玉県,さいたま市南区,南浦和２丁目４番１４号,,11,108,3360017,,,2024-11-01,清算の結了等,,,2015-10-05,1,,,,,エスティーショウテン,0
1340,5380003001184,登記記録の閉鎖等,0,2024-11-06,2024-10-24,合資会社二戸商店,,合資会社,福島県,いわき市,岩間町上山２７９番地,,07,204,9748222,,,2024-10-24,清算の結了等,,,2015-10-05,1,,,,,ニトショウテン,0
1349,5420002009414,登記記録の閉鎖等,0,2024-11-06,2024-11-01,有限会社大井運送,,有限会社,青森県,三戸郡階上町,大字道仏字耳ケ吠３番地３９８,,02,446,0391201,,,2024-11-01,清算の結了等,,,2015-10-05,1,,,,,オオイウンソウ,0
1364,6010001208032,登記記録の閉鎖等,0,2024-11-06,2024-10-31,株式会社地球の彫刻家ホールディングス,,株式会社,東京都,港区,高輪２丁目１５番３１－４０２号,,13,103,1080074,,,2024-10-31,合併による解散等,2290001002254,令和６年１０月１８日福岡市中央区白金一丁目２番２１号株式会社地域みらいグループ（2290001002254）に合併し解散,2020-03-06,1,,,,,チキュウノチョウコクカホールディングス,0
1393,6010403026585,登記記録の閉鎖等,0,2024-11-06,2024-10-18,ＲＢソーラーパッション５合同会社,,合同会社,東京都,港区,虎ノ門３丁目２２番１０－２０１号,,13,103,1050001,,,2024-10-18,清算の結了等,,,2021-11-24,1,,,,,アールビーソーラーパッションファイブ,0
1397,6010505000959,登記記録の閉鎖等,0,2024-11-06,2024-10-29,アサヒ商店街振興組合,,その他の設立登記法人,東京都,台東区,清川１丁目３３番５号,,13,106,1110022,,,2024-10-29,清算の結了等,,,2015-10-05,1,,,,,アサヒ,0
1430,6011101062518,登記記録の閉鎖等,0,2024-11-06,2024-10-28,株式会社華輪,,株式会社,東京都,新宿区,西新宿３丁目５番３号西新宿ダイヤモンドパレス２１１号,,13,104,1600023,,,2024-10-28,清算の結了等,,,2015-10-05,1,,,,,カリン,0
1438,6011303001950,登記記録の閉鎖等,0,2024-11-06,2024-11-05,エグランティーヌ合同会社,,合同会社,大分県,大分市,勢家町４丁目５－２０－１３０３号,,44,201,8700031,,,2024-11-05,清算の結了等,,,2015-10-05,1,,,,,エグランティーヌ,0
1447,6012401024331,登記記録の閉鎖等,0,2024-11-06,2024-11-06,株式会社アドモ,,株式会社,東京都,調布市,調布ケ丘１丁目１３番地９,,13,208,1820021,,,2024-11-06,清算の結了等,,,2015-10-05,1,,,,,,0
1456,6013301019900,登記記録の閉鎖等,0,2024-11-06,2024-10-24,日本アルテミス株式会社,,株式会社,東京都,豊島区,東池袋３丁目２０番３号,,13,116,1700013,,,2024-10-24,合併による解散等,6013301021138,令和６年１０月１日東京都豊島区東池袋三丁目２０番３号ＰＯＰＣＨＡＴ株式会社（6013301021138）に合併し解散,2015-10-05,1,,,,,ニホンアルテミス,0
1472,6021002037584,登記記録の閉鎖等,0,2024-11-06,2024-10-29,有限会社尾登商店,,有限会社,神奈川県,秦野市,曽屋１丁目１番１３号,,14,211,2570031,,,2024-10-29,清算の結了等,,,2015-10-05,1,,,,,オノボリショウテン,0
1477,6030001012060,登記記録の閉鎖等,0,2024-11-06,2024-11-01,株式会社スマイル管理,,株式会社,埼玉県,さいたま市見沼区,大字東門前４３６番地１,,11,104,3370016,,,2024-11-01,清算の結了等,,,2015-10-05,1,,,,,スマイルカンリ,0
1481,6030001133765,登記記録の閉鎖等,0,2024-11-06,2024-11-01,ａｎｄＭ株式会社,,株式会社,埼玉県,川越市,藤倉２丁目２５番３７,,11,201,3501166,,,2024-11-01,清算の結了等,,,2019-11-13,1,,,,,アンドエム,0
1487,6030002116892,登記記録の閉鎖等,0,2024-11-06,2024-10-31,有限会社装喜,,有限会社,埼玉県,深谷市,栄町１０番５８号,,11,218,3660827,,,2024-10-31,清算の結了等,,,2015-10-05,1,,,,,ソウキ,0
1491,6040001037949,登記記録の閉鎖等,0,2024-11-06,2024-10-30,株式会社開成建具ガラス店,,株式会社,千葉県,流山市,江戸川台東２丁目１３１番地,,12,220,2700111,,,2024-10-30,清算の結了等,,,2015-10-05,1,,,,,カイセイタテグガラステン,0
1508,6070001022270,登記記録の閉鎖等,0,2024-11-06,2024-10-31,株式会社ＳＡＭ・クロート,,株式会社,群馬県,館林市,堀工町１０９５番地９,,10,207,3740033,,,2024-10-31,清算の結了等,,,2015-10-05,1,,,,,サムクロート,0
1514,6080403004840,登記記録の閉鎖等,0,2024-11-06,2024-10-31,合同会社京極,,合同会社,静岡県,浜松市中央区,元魚町１６０番地の１１ヴィラハナヤシキ４－Ｄ,,22,138,4328026,,,2024-10-31,清算の結了等,,,2023-08-01,1,,,,,キョウゴク,0
1518,6100002031795,登記記録の閉鎖等,0,2024-11-06,2024-10-29,有限会社丸寿宮坂,,有限会社,長野県,岡谷市,東銀座２丁目８番４号,,20,204,3940023,,,2024-10-29,清算の結了等,,,2015-10-05,1,,,,,マルスミヤサカ,0
1521,6110002017439,登記記録の閉鎖等,0,2024-11-06,2024-10-31,有限会社ナカノ,,有限会社,新潟県,三条市,西四日町４丁目６番１０号,,15,204,9550851,,,2024-10-31,清算の結了等,,,2015-10-05,1,,,,,ナカノ,0
1522,6110002023370,登記記録の閉鎖等,0,2024-11-06,2024-10-31,有限会社藤井製＿所,00070935,有限会社,新潟県,上越市,大字向橋字島崎１１５０番地５,,15,222,9430888,,,2024-10-31,清算の結了等,,,2015-10-05,1,,,,,フジイセイアンショ,0
1523,6110002025400,登記記録の閉鎖等,0,2024-11-06,2024-10-31,有限会社江泉,,有限会社,新潟県,十日町市,新座甲６９３番地２,,15,210,9480000,,,2024-10-31,清算の結了等,,,2015-10-05,1,,,,,エイズミ,0
1526,6120001037528,登記記録の閉鎖等,0,2024-11-06,2024-10-31,株式会社遠州屋六文銭,,株式会社,大阪府,大阪市浪速区,日本橋東３丁目３番２５号,,27,111,5560006,,,2024-10-31,清算の結了等,,,2015-10-05,1,,,,,エンシュウヤロクモンセン,0
1551,6130001066096,登記記録の閉鎖等,0,2024-11-06,2024-10-31,ＹＭ興産株式会社,,株式会社,京都府,京都市右京区,嵯峨天龍寺椎野町２２番地の１,,26,108,6168357,,,2024-10-31,合併による解散等,7130001045710,令和６年１０月３１日京都市右京区嵯峨天龍寺椎野町２２番地の１株式会社アクト（7130001045710）に合併し解散,2020-01-10,1,,,,,ワイエムコウサン,0
1568,6150001021990,登記記録の閉鎖等,0,2024-11-06,2024-11-05,オランジェ株式会社,,株式会社,奈良県,香芝市,真美ヶ丘１丁目１０番１８号,,29,210,6390223,,,2024-11-05,清算の結了等,,,2017-12-18,1,,,,,オランジェ,0
1572,6170001008953,登記記録の閉鎖等,0,2024-11-06,2024-10-29,株式会社山口電化,,株式会社,和歌山県,田辺市,秋津町４０９番地の７,,30,206,6460005,,,2024-10-29,清算の結了等,,,2015-10-05,1,,,,,ヤマグチデンカ,0
1574,6180001009819,登記記録の閉鎖等,0,2024-11-06,2024-10-28,アルプステック株式会社,,株式会社,愛知県,名古屋市瑞穂区,白砂町１丁目５３番地,,23,108,4670056,,,2024-10-28,清算の結了等,,,2015-10-05,1,,,,,アルプステック,0
1578,6180001097979,登記記録の閉鎖等,0,2024-11-06,2024-11-01,株式会社ヒラザワ,,株式会社,愛知県,あま市,下萱津池端３８番,,23,237,4901114,,,2024-11-01,清算の結了等,,,2015-10-05,1,,,,,ヒラザワ,0
1587,6190002009189,登記記録の閉鎖等,0,2024-11-06,2024-10-29,有限会社出口木工,,有限会社,三重県,伊勢市,下野町１番地１,,24,203,5160003,,,2024-10-29,清算の結了等,,,2015-10-05,1,,,,,デグチモッコウ,0
1592,6200003001366,登記記録の閉鎖等,0,2024-11-06,2024-10-29,合名会社浅野屋,,合名会社,岐阜県,羽島市,江吉良町１９４番地の３,,21,209,5016236,,,2024-10-29,清算の結了等,,,2015-10-05,1,,,,,アサノヤ,0
1595,6220005001370,登記記録の閉鎖等,0,2024-11-06,2024-11-01,国土開発協同組合,,その他の設立登記法人,石川県,白山市,八束穂３丁目７番地,,17,210,9240838,,,2024-11-01,清算の結了等,,,2015-10-05,1,,,,,,0
1605,6240002013045,登記記録の閉鎖等,0,2024-11-06,2024-10-31,有限会社ＤＰＬソリューションズ,,有限会社,広島県,東広島市,入野中山台３丁目５番１１号,,34,212,7392209,,,2024-10-31,清算の結了等,,,2015-10-05,1,,,,,ディーピーエルソリューションズ,0
1608,6250001009282,登記記録の閉鎖等,0,2024-11-06,2024-10-31,株式会社松重,,株式会社,山口県,周南市,若宮町１丁目３４番地,,35,215,7450016,,,2024-10-31,清算の結了等,,,2015-10-05,1,,,,,マツシゲ,0
1631,6310005008563,登記記録の閉鎖等,0,2024-11-06,2024-10-30,ながさき家電協同組合,,その他の設立登記法人,長崎県,西彼杵郡時津町,浜田郷３８番地６,,42,308,8512102,,,2024-10-30,清算の結了等,,,2021-11-10,1,,,,,ナガサキカデン,0
1634,6320005009800,登記記録の閉鎖等,0,2024-11-06,2024-11-01,ＮＰＯ法人青い森,,その他の設立登記法人,大分県,大分市,顕徳町１丁目１２番２３号,,44,201,8700025,,,2024-11-01,清算の結了等,,,2020-05-15,1,,,,,アオイモリ,0
1638,6330002029065,登記記録の閉鎖等,0,2024-11-06,2024-10-29,有限会社前田建設工業,,有限会社,熊本県,天草市,栖本町打田３９７番地の３,,43,215,8616301,,,2024-10-29,清算の結了等,,,2015-10-05,1,,,,,マエダケンセツコウギョウ,0
1653,6420002000578,登記記録の閉鎖等,0,2024-11-06,2024-10-30,有限会社エイトータル,,有限会社,青森県,青森市,大字幸畑字阿部野１２の８２,,02,201,0300943,,,2024-10-30,清算の結了等,,,2015-10-05,1,,,,,エイトータル,0
1654,6420002014405,登記記録の閉鎖等,0,2024-11-06,2024-10-31,有限会社メディカル・ポイント,,有限会社,青森県,弘前市,大字西茂森２丁目２１番地５８,,02,202,0368273,,,2024-10-31,清算の結了等,,,2015-10-05,1,,,,,メディカルポイント,0
1661,6430002037512,登記記録の閉鎖等,0,2024-11-06,2024-11-01,有限会社ベーシック,,有限会社,北海道,札幌市白石区,菊水上町一条１丁目１００番地１,,01,104,0030811,,,2024-11-01,合併による解散等,1430001003049,令和６年１１月１日札幌市白石区米里二条三丁目３番３６号株式会社アートリンク（1430001003049）に合併し解散,2015-10-05,1,,,,,ベーシック,0
1683,7010003040432,登記記録の閉鎖等,0,2024-11-06,2024-10-24,合同会社Ｃｏｚｎｏｒｉａｒｚ,,合同会社,東京都,千代田区,九段南１丁目５番６号りそな九段ビル５階ＫＳフロア,,13,101,1020074,,,2024-10-24,清算の結了等,,,2023-04-25,1,,,,,コズノリアーズ,0
1707,7010403018722,登記記録の閉鎖等,0,2024-11-06,2024-10-21,ＥＳＲ愛西合同会社,,合同会社,東京都,港区,赤坂２丁目１０番５号税理士法人赤坂国際会計事務所内,,13,103,1070052,,,2024-10-21,清算の結了等,,,2018-06-12,1,,,,,イーエスアールアイサイ,0
1708,7010403022906,登記記録の閉鎖等,0,2024-11-06,2024-10-21,ＰＩＴ合同会社,,合同会社,東京都,港区,新橋２丁目１２番５号９Ｆ,,13,103,1050004,,,2024-10-21,清算の結了等,,,2020-04-30,1,,,,,ピーアイティー,0
1723,7011001160544,登記記録の閉鎖等,0,2024-11-06,2024-10-09,株式会社ＰＷＣ,,株式会社,東京都,目黒区,自由が丘１丁目５番２号コープ自由ヶ丘１０４,,13,110,1520035,,,2024-10-09,清算の結了等,,,2024-03-26,1,,,,,ピーダブリューシー,0
1733,7011502009620,登記記録の閉鎖等,0,2024-11-06,2024-11-01,有限会社高橋勝司商店,,有限会社,東京都,荒川区,東日暮里１丁目３９番１２号,,13,118,1160014,,,2024-11-01,清算の結了等,,,2015-10-05,1,,,,,タカハシカツジショウテン,0
1741,7012801020656,登記記録の閉鎖等,0,2024-11-06,2024-10-18,株式会社Ｄａｒｍ,,株式会社,東京都,立川市,柴崎町３丁目２番１４号ＨＫビル２Ｆ,,13,202,1900023,,,2024-10-18,清算の結了等,,,2021-02-15,1,,,,,ダーム,0
1752,7021001070040,登記記録の閉鎖等,0,2024-11-06,2024-10-23,株式会社マイナスコスメティックス,,株式会社,愛知県,名古屋市西区,上名古屋４丁目１２番１４号,,23,104,4510025,,,2024-10-23,清算の結了等,,,2020-05-28,1,,,,,マイナスコスメティックス,0
1758,7030001028808,登記記録の閉鎖等,0,2024-11-06,2024-11-01,株式会社秋山工房,,株式会社,埼玉県,入間市,大字中神１０９０番地,,11,225,3580035,,,2024-11-01,清算の結了等,,,2015-10-05,1,,,,,アキヤマコウボウ,0
1761,7030001059431,登記記録の閉鎖等,0,2024-11-06,2024-10-30,株式会社オーキッドシステム,,株式会社,埼玉県,富士見市,大字勝瀬１０７８番地,,11,235,3540031,,,2024-10-30,清算の結了等,,,2015-10-05,1,,,,,オーキッドシステム,0
1794,7070003001866,登記記録の閉鎖等,0,2024-11-06,2024-10-29,合同会社帝国商事,,合同会社,群馬県,太田市,飯田町８８４番地笹川ビル２０１,,10,205,3730851,,,2024-10-29,清算の結了等,,,2015-10-05,1,,,,,テイコクショウジ,0
1801,7100002013322,登記記録の閉鎖等,0,2024-11-06,2024-10-29,有限会社フジテック,,有限会社,長野県,北佐久郡軽井沢町,大字長倉５６９３番地,,20,321,3890111,,,2024-10-29,清算の結了等,,,2015-10-05,1,,,,,フジテック,0
1802,7100002023255,登記記録の閉鎖等,0,2024-11-06,2024-10-24,有限会社浅川建設,,有限会社,長野県,安曇野市,穂高牧１８５０番地５,,20,220,3998305,,,2024-10-24,清算の結了等,,,2015-10-05,1,,,,,アサカワケンセツ,0
1806,7120001016539,登記記録の閉鎖等,0,2024-11-06,2024-11-01,株式会社吉村製作所,00027174,株式会社,大阪府,大阪市城東区,今福西３丁目１３番１２号,,27,118,5360004,,,2024-11-01,清算の結了等,,,2015-10-05,1,,,,,ヨシムラセイサクショ,0
1829,7120102004293,登記記録の閉鎖等,0,2024-11-06,2024-11-01,有限会社ぶんぶく寿司,,有限会社,大阪府,堺市中区,深井中町１９６４番地６,,27,142,5998272,,,2024-11-01,清算の結了等,,,2015-10-05,1,,,,,ブンブクスシ,0
1833,7130001016851,登記記録の閉鎖等,0,2024-11-06,2024-10-31,株式会社勝村松風苑,,株式会社,京都府,京都市下京区,富小路通高辻上る筋屋町１５１番地,00035567,26,106,6008061,,,2024-10-31,清算の結了等,,,2015-10-05,1,,,,,カツムラショウフウエン,0
1839,7130002007263,登記記録の閉鎖等,0,2024-11-06,2024-10-31,有限会社松扇堂,,有限会社,京都府,京都市下京区,麸屋町通松原上ル鍵屋町２０１番地の１,,26,106,6000000,,,2024-10-31,清算の結了等,,,2015-10-05,1,,,,,ショウセンドウ,0
1847,7140001108664,登記記録の閉鎖等,0,2024-11-06,2024-10-31,株式会社ＩＲ建築,,株式会社,兵庫県,神戸市西区,大津和１丁目２－２０パルシオン１０６,,28,111,6512112,,,2024-10-31,清算の結了等,,,2018-01-10,1,,,,,アイアールケンチク,0
1859,7180001064821,登記記録の閉鎖等,0,2024-11-06,2024-10-23,株式会社コイデ,,株式会社,愛知県,名古屋市北区,山田２丁目２番４号Ｙ’ｓＡｇｒｉ１階,,23,103,4620810,,,2024-10-23,清算の結了等,,,2015-10-05,1,,,,,コイデ,0
1862,7180001127710,登記記録の閉鎖等,0,2024-11-06,2024-10-28,株式会社クエストライフ,,株式会社,東京都,新宿区,新宿３丁目１２番４号新宿Ｎタウンプラザ３０９号,,13,104,1600022,,,2024-10-28,清算の結了等,,,2017-05-11,1,,,,,クエストライフ,0
1867,7180301033501,登記記録の閉鎖等,0,2024-11-06,2024-10-31,株式会社万源企画,,株式会社,愛知県,岡崎市,六名南２丁目１番地７・３Ｆ,,23,202,4440845,,,2024-10-31,清算の結了等,,,2020-03-10,1,,,,,マンゲンキカク,0
1869,7180302019672,登記記録の閉鎖等,0,2024-11-06,2024-10-31,有限会社マルカ工業,,有限会社,愛知県,知立市,西町本田１３番地４,,23,225,4720023,,,2024-10-31,清算の結了等,,,2015-10-05,1,,,,,マルカコウギョウ,0
1873,7190002001649,登記記録の閉鎖等,0,2024-11-06,2024-10-31,有限会社山田組,,有限会社,三重県,津市,雲出本郷町茶ノ木原４８４番地の１,,24,201,5140304,,,2024-10-31,清算の結了等,,,2015-10-05,1,,,,,ヤマダグミ,0
1879,7210002002966,登記記録の閉鎖等,0,2024-11-06,2024-11-01,有限会社ビューテムタキガワ,,有限会社,福井県,福井市,城東２丁目１５番２１号,,18,201,9100853,,,2024-11-01,清算の結了等,,,2015-10-05,1,,,,,ビューテムタキガワ,0
1886,7240002010537,登記記録の閉鎖等,0,2024-11-06,2024-11-01,有限会社ツーワンエンジニアリング,,有限会社,広島県,広島市安佐南区,上安４丁目８番１０号,,34,105,7310154,,,2024-11-01,清算の結了等,,,2015-10-05,1,,,,,ツーワンエンジニアリング,0
1893,7280002009253,登記記録の閉鎖等,0,2024-11-06,2024-11-01,有限会社トーヨー,,有限会社,島根県,江津市,和木町１１６６番地３,,32,207,6950017,,,2024-11-01,清算の結了等,,,2015-10-05,1,,,,,トーヨー,0
1920,7310003004150,登記記録の閉鎖等,0,2024-11-06,2024-10-30,合同会社サニー,,合同会社,長崎県,長崎市,昭和２丁目７－１７,,42,201,8528145,,,2024-10-30,清算の結了等,,,2021-09-01,1,,,,,サニー,0
1945,7380001030092,登記記録の閉鎖等,0,2024-11-06,2024-10-23,未来ゴム工業株式会社,,株式会社,福島県,南会津郡南会津町,田島字田部原２５２番地６,,07,368,9670004,,,2024-10-23,清算の結了等,,,2019-06-10,1,,,,,ミライゴムコウギョウ,0
1946,7380002000565,登記記録の閉鎖等,0,2024-11-06,2024-10-25,有限会社越後屋そば店,,有限会社,福島県,福島市,上町５番１７号,,07,201,9608101,,,2024-10-25,清算の結了等,,,2015-10-05,1,,,,,エチゴヤソバテン,0
1951,7410005002712,登記記録の閉鎖等,0,2024-11-06,2024-10-31,湯雄繊維協同組合,,その他の設立登記法人,秋田県,湯沢市,金谷字樋口２８６番地,00087143,05,207,0120005,,,2024-10-31,清算の結了等,,,2015-10-05,1,,,,,トウユウセンイ,0
1952,7420003001161,登記記録の閉鎖等,0,2024-11-06,2024-10-31,ＤｒｅａｍｓＳＱＵＡＲＥ合同会社,,合同会社,青森県,青森市,岡造道２丁目１１番１１号,,02,201,0300914,,,2024-10-31,清算の結了等,,,2015-10-05,1,,,,,ドリームズスクエア,0
1964,7470001007668,登記記録の閉鎖等,0,2024-11-06,2024-10-31,丸蒲食品株式会社,,株式会社,香川県,丸亀市,土器町東８丁目６４番地,,37,202,7630082,,,2024-10-31,清算の結了等,,,2015-10-05,1,,,,,マルカマショクヒン,0
1969,7500001010420,登記記録の閉鎖等,0,2024-11-06,2024-11-01,株式会社ハイロング,,株式会社,愛媛県,西条市,福武甲６４０番地４,,38,206,7930035,,,2024-11-01,清算の結了等,,,2015-10-05,1,,,,,ハイロング,0
1976,8010002025350,登記記録の閉鎖等,0,2024-11-06,2024-10-22,有限会社正木工業所,,有限会社,東京都,中央区,勝どき３丁目９番１２号,,13,102,1040054,,,2024-10-22,清算の結了等,,,2015-10-05,1,,,,,マサキコウギョウショ,0
1980,8010005018120,登記記録の閉鎖等,0,2024-11-06,2024-10-30,特定非営利活動法人あしたばの会,,その他の設立登記法人,東京都,大島町,差木地字クダッチ,,13,361,1000211,,,2024-10-30,清算の結了等,,,2015-10-05,1,,,,,アシタバノカイ,0
1981,8010005032245,登記記録の閉鎖等,0,2024-11-06,2024-10-30,ガンマ特定目的会社,,その他の設立登記法人,東京都,千代田区,丸の内３丁目１番１号東京共同会計事務所内,,13,101,1000005,,,2024-10-30,清算の結了等,,,2020-09-08,1,,,,,ガンマ,0
1996,8010101010641,登記記録の閉鎖等,0,2024-11-06,2024-10-31,株式会社伊東管理,,株式会社,東京都,八王子市,下柚木２丁目３１番地１１,,13,201,1920372,,,2024-10-31,清算の結了等,,,2015-10-05,1,,,,,イトウカンリ,0
2000,8010405016780,登記記録の閉鎖等,0,2024-11-06,2024-10-21,ＥＳＲ愛西１一般社団法人,,その他の設立登記法人,東京都,港区,赤坂２丁目１０番５号税理士法人赤坂国際会計事務所内,,13,103,1070052,,,2024-10-21,清算の結了等,,,2018-06-08,1,,,,,イーエスアールアイサイイチ,0
2001,8010405018042,登記記録の閉鎖等,0,2024-11-06,2024-10-21,ＥＳＲ愛西２一般社団法人,,その他の設立登記法人,東京都,港区,赤坂２丁目１０番５号税理士法人赤坂国際会計事務所内,,13,103,1070052,,,2024-10-21,清算の結了等,,,2019-09-02,1,,,,,イーエスアールアイサイニ,0
2002,8010405020056,登記記録の閉鎖等,0,2024-11-06,2024-10-30,一般財団法人ＡＲＩＧＡＴＯ,,その他の設立登記法人,東京都,千代田区,麹町６丁目６番２号番町麹町ビルディングＷｅＷｏｒｋ麹町,00125972,13,101,1020083,,,2024-10-30,清算の結了等,,,2021-08-02,1,,,,,アリガトウ,0
2005,8010602031236,登記記録の閉鎖等,0,2024-11-06,2024-11-05,有限会社ウッドワン・サトウ,,有限会社,東京都,江東区,南砂１丁目３番１４号,,13,108,1360076,,,2024-11-05,清算の結了等,,,2015-10-05,1,,,,,,0
2011,8010802017324,登記記録の閉鎖等,0,2024-11-06,2024-10-29,有限会社エスエル自動車,,有限会社,東京都,大田区,大森北１丁目２１番１号５０３ＶＩＰ大森,,13,111,1430016,,,2024-10-29,清算の結了等,,,2015-10-05,1,,,,,エスエルジドウシャ,0
2021,8011001056403,登記記録の閉鎖等,0,2024-11-06,2024-10-28,株式会社プランニングカフェ,,株式会社,東京都,新宿区,西新宿５丁目５番１－２０１０号,,13,104,1600023,,,2024-10-28,清算の結了等,,,2015-10-05,1,,,,,プランニングカフェ,0
2022,8011001140256,登記記録の閉鎖等,0,2024-11-06,2024-10-07,株式会社ヒトサシユビ,,株式会社,東京都,渋谷区,渋谷１丁目４番１‐３０１号,,13,113,1500002,,,2024-10-07,清算の結了等,,,2021-05-18,1,,,,,ヒトサシユビ,0
2029,8011005007237,登記記録の閉鎖等,0,2024-11-06,2024-10-25,一般社団法人ＦＫアドリアジャパン,,その他の設立登記法人,東京都,渋谷区,千駄ヶ谷４丁目１番８号Ｂ０４,,13,113,1510051,,,2024-10-25,清算の結了等,,,2017-06-20,1,,,,,エフケーアドリアジャパン,0
2032,8011101024788,登記記録の閉鎖等,0,2024-11-06,2024-10-25,アクト情報サービス株式会社,,株式会社,東京都,新宿区,大久保２丁目４番１２号,,13,104,1690072,,,2024-10-25,清算の結了等,,,2015-10-05,1,,,,,アクトジョウホウサービス,0
2034,8011101033921,登記記録の閉鎖等,0,2024-11-06,2024-10-25,三基システムエンジニアリング株式会社,,株式会社,東京都,新宿区,新宿１丁目３６番７号,,13,104,1600022,,,2024-10-25,清算の結了等,,,2015-10-05,1,,,,,サンキシステムエンジニアリング,0
2040,8011105000785,登記記録の閉鎖等,0,2024-11-06,2024-10-28,医療法人社団剛英会,,その他の設立登記法人,東京都,新宿区,住吉町６番６号日本メータービル２階,,13,104,1620065,,,2024-10-28,清算の結了等,,,2015-10-05,1,,,,,ゴウエイカイ,0
2054,8012405004220,登記記録の閉鎖等,0,2024-11-06,2024-10-31,一般社団法人日本女性管理者支援協会,,その他の設立登記法人,愛知県,常滑市,住吉町１丁目１２３番地,,23,216,4790864,,,2024-10-31,清算の結了等,,,2018-08-14,1,,,,,ニホンジョセイカンリシャシエンキョウカイ,0
2070,8021001069833,登記記録の閉鎖等,0,2024-11-06,2024-11-05,株式会社鎌倉ハムホールディングス,,株式会社,神奈川県,厚木市,岡田３丁目１４番５号,,14,212,2430021,,,2024-11-05,清算の結了等,,,2020-04-24,1,,,,,,0
2078,8030002003767,登記記録の閉鎖等,0,2024-11-06,2024-10-31,有限会社河合電機,,有限会社,埼玉県,さいたま市北区,日進町２丁目７８８番地,,11,102,3310823,,,2024-10-31,清算の結了等,,,2015-10-05,1,,,,,カワイデンキ,0
2081,8030002092777,登記記録の閉鎖等,0,2024-11-06,2024-10-31,有限会社梅泉堂,,有限会社,埼玉県,坂戸市,日の出町９番２１号,,11,239,3500225,,,2024-10-31,清算の結了等,,,2015-10-05,1,,,,,バイセンドウ,0
2082,8030002093858,登記記録の閉鎖等,0,2024-11-06,2024-10-31,有限会社鈴木木工所,,有限会社,埼玉県,入間郡越生町,大字小杉２９２番地,,11,327,3500422,,,2024-10-31,清算の結了等,,,2015-10-05,1,,,,,スズキモッコウショ,0
2083,8030002097495,登記記録の閉鎖等,0,2024-11-06,2024-10-31,有限会社宝紙業,,有限会社,埼玉県,比企郡小川町,大字小川４６６番地１２,,11,343,3550321,,,2024-10-31,清算の結了等,,,2015-10-05,1,,,,,タカラシギョウ,0
2084,8030003019176,登記記録の閉鎖等,0,2024-11-06,2024-10-31,合同会社フアマーレ,,合同会社,埼玉県,鶴ヶ島市,大字藤金８７３番地２レクセル若葉６０１号,,11,241,3502206,,,2024-10-31,清算の結了等,,,2022-04-08,1,,,,,フアマーレ,0
2091,8040002044281,登記記録の閉鎖等,0,2024-11-06,2024-10-30,有限会社イシダ塗装,,有限会社,千葉県,松戸市,八ケ崎６丁目２３番地の２３,,12,207,2700023,,,2024-10-30,清算の結了等,,,2015-10-05,1,,,,,イシダトソウ,0
2095,8040003017253,登記記録の閉鎖等,0,2024-11-06,2024-10-28,合同会社Ｌｉｍ,,合同会社,千葉県,柏市,ひばりが丘１９番３－１０３号,,12,217,2770088,,,2024-10-28,清算の結了等,,,2021-03-15,1,,,,,リム,0
2110,8080101013927,登記記録の閉鎖等,0,2024-11-06,2024-10-31,株式会社サクラ電気,,株式会社,静岡県,伊東市,荻５６１番地の３７,,22,208,4140053,,,2024-10-31,清算の結了等,,,2015-10-05,1,,,,,サクラデンキ,0
2111,8080102007572,登記記録の閉鎖等,0,2024-11-06,2024-10-29,有限会社山下組,,有限会社,静岡県,御殿場市,塚原１２７８番地の９,00079438,22,215,4120017,,,2024-10-29,清算の結了等,,,2015-10-05,1,,,,,ヤマシタグミ,0
2122,8120001031553,登記記録の閉鎖等,0,2024-11-06,2024-10-31,双葉自動車株式会社,,株式会社,大阪府,大阪市住之江区,南港東２丁目３番６３号,,27,125,5590031,,,2024-10-31,清算の結了等,,,2015-10-05,1,,,,,フタバジドウシャ,0
2141,8120901036560,登記記録の閉鎖等,0,2024-11-06,2024-11-01,株式会社ｅホーム・サービス,,株式会社,大阪府,豊能郡能勢町,宿野５９８番地の５,,27,322,5630341,,,2024-11-01,清算の結了等,,,2016-02-23,1,,,,,,0
2159,8170001005016,登記記録の閉鎖等,0,2024-11-06,2024-11-01,カナヤベンダー株式会社,,株式会社,和歌山県,和歌山市,六十谷１７５番地の３０,,30,201,6408482,,,2024-11-01,清算の結了等,,,2015-10-05,1,,,,,カナヤベンダー,0
2161,8170005002323,登記記録の閉鎖等,0,2024-11-06,2024-11-01,特定非営利活動法人和歌山盲ろう者友の会,,その他の設立登記法人,和歌山県,和歌山市,美園町５丁目５番地の１,,30,201,6408331,,,2024-11-01,清算の結了等,,,2015-10-05,1,,,,,ワカヤマモウロウシャトモノカイ,0
2175,8180302022601,登記記録の閉鎖等,0,2024-11-06,2024-11-01,有限会社高木電気設備工業所,,有限会社,愛知県,豊田市,四郷町天道９９番地１０３,,23,211,4700373,,,2024-11-01,清算の結了等,,,2015-10-05,1,,,,,タカギデンキセツビコウギョウショ,0
2180,8200003003947,登記記録の閉鎖等,0,2024-11-06,2024-10-30,こころみ屋合同会社,,合同会社,岐阜県,岐阜市,西鶉１丁目３１番地,,21,201,5008286,,,2024-10-30,清算の結了等,,,2017-03-10,1,,,,,ココロミヤ,0
2207,8290802002174,登記記録の閉鎖等,0,2024-11-06,2024-10-31,有限会社ケイ・アンド・ケイ,,有限会社,福岡県,北九州市小倉北区,赤坂５丁目２番８号,,40,106,8020032,,,2024-10-31,清算の結了等,,,2015-10-05,1,,,,,ケイアンドケイ,0
2216,8310002009141,登記記録の閉鎖等,0,2024-11-06,2024-10-17,有限会社イソノ,,有限会社,長崎県,東彼杵郡波佐見町,井石郷２１７４番地２,,42,323,8593711,,,2024-10-17,清算の結了等,,,2015-10-05,1,,,,,イソノ,0
2260,8470001000696,登記記録の閉鎖等,0,2024-11-06,2024-10-31,株式会社エコライフ,,株式会社,香川県,高松市,成合町５５９番地８,,37,201,7618081,,,2024-10-31,清算の結了等,,,2015-10-05,1,,,,,エコライフ,0
2264,8500001008777,登記記録の閉鎖等,0,2024-11-06,2024-11-01,株式会社Ｔ＆Ｔフードサービス,,株式会社,愛媛県,松山市,空港通６丁目１２番３号,,38,201,7910054,,,2024-11-01,清算の結了等,,,2015-10-05,1,,,,,,0
2311,9010501045815,登記記録の閉鎖等,0,2024-11-06,2024-10-30,酷奇株式会社,,株式会社,東京都,台東区,上野３丁目１１番５号,,13,106,1100005,,,2024-10-30,清算の結了等,,,2020-06-04,1,,,,,コクキ,0
2312,9010502009703,登記記録の閉鎖等,0,2024-11-06,2024-10-31,有限会社富士薬局,,有限会社,東京都,台東区,浅草３丁目２７番１０号,,13,106,1110032,,,2024-10-31,清算の結了等,,,2015-10-05,1,,,,,フジヤッキョク,0
2317,9010901001871,登記記録の閉鎖等,0,2024-11-06,2024-10-30,遠藤都イメージコーポレイション株式会社,,株式会社,東京都,世田谷区,代沢４丁目２６番７号,,13,112,1550032,,,2024-10-30,清算の結了等,,,2015-10-05,1,,,,,エンドウミヤコイメージコーポレイション,0
2335,9011501001097,登記記録の閉鎖等,0,2024-11-06,2024-10-31,協和自動車販売株式会社,,株式会社,東京都,北区,豊島１丁目２３番９号,,13,117,1140003,,,2024-10-31,清算の結了等,,,2015-10-05,1,,,,,キョウワジドウシャハンバイ,0
2341,9012402004180,登記記録の閉鎖等,0,2024-11-06,2024-09-27,有限会社フローラルメディカルサービス,,有限会社,東京都,国分寺市,戸倉３丁目１５番地１５,,13,214,1850003,,,2024-09-27,清算の結了等,,,2015-10-05,1,,,,,フローラルメディカルサービス,0
2362,9021002012642,登記記録の閉鎖等,0,2024-11-06,2024-11-01,有限会社コスモ・ブレイン,,有限会社,神奈川県,茅ヶ崎市,出口町１２番１５号,,14,207,2530028,,,2024-11-01,清算の結了等,,,2015-10-05,1,,,,,コスモブレイン,0
2364,9030001007082,登記記録の閉鎖等,0,2024-11-06,2024-10-31,株式会社美健,,株式会社,埼玉県,さいたま市西区,大字佐知川７０５番地,,11,101,3310064,,,2024-10-31,清算の結了等,,,2015-10-05,1,,,,,ビケン,0
2372,9030002087710,登記記録の閉鎖等,0,2024-11-06,2024-10-29,不二ブロック工業有限会社,,有限会社,埼玉県,越谷市,蒲生東町１１番５号,,11,222,3430841,,,2024-10-29,清算の結了等,,,2015-10-05,1,,,,,フジブロックコウギョウ,0
2373,9030002118151,登記記録の閉鎖等,0,2024-11-06,2024-10-31,有限会社富士強力,,有限会社,埼玉県,行田市,大字埼玉２７８番地,,11,206,3610025,,,2024-10-31,清算の結了等,,,2015-10-05,1,,,,,フジゴウリキ,0
2374,9030003001579,登記記録の閉鎖等,0,2024-11-06,2024-10-31,合資会社松本洋品店,,合資会社,埼玉県,白岡市,小久喜１１５２番地,,11,246,3490217,,,2024-10-31,清算の結了等,,,2015-10-05,1,,,,,マツモトヨウヒンテン,0
2380,9040001005390,登記記録の閉鎖等,0,2024-11-06,2024-10-31,東葉住販株式会社,,株式会社,千葉県,千葉市中央区,松波４丁目２０番１１号,,12,101,2600044,,,2024-10-31,清算の結了等,,,2015-10-05,1,,,,,トウヨウジュウハン,0
2381,9040001033813,登記記録の閉鎖等,0,2024-11-06,2024-10-30,株式会社ア・イ・コ　ジャパン,,株式会社,千葉県,市川市,八幡４丁目４番１８号,,12,203,2720021,,,2024-10-30,清算の結了等,,,2015-10-05,1,,,,,アイコジャパン,0
2385,9040002075879,登記記録の閉鎖等,0,2024-11-06,2024-10-31,有限会社ケイティ企画,,有限会社,千葉県,市原市,新生４６９番地,,12,219,2900257,,,2024-10-31,清算の結了等,,,2015-10-05,1,,,,,ケイティキカク,0
2397,9070002028768,登記記録の閉鎖等,0,2024-11-06,2024-11-01,有限会社川島鈑金工業所,,有限会社,群馬県,邑楽郡大泉町,日の出１８番７号,,10,524,3700525,,,2024-11-01,清算の結了等,,,2015-10-05,1,,,,,カワシマバンキンコウギョウショ,0
2411,9110001000888,登記記録の閉鎖等,0,2024-11-06,2024-10-31,オービーデイー新潟株式会社,,株式会社,新潟県,新潟市中央区,信濃町２番１１号,,15,103,9518152,,,2024-10-31,清算の結了等,,,2015-10-05,1,,,,,オービーデイーニイガタ,0
2413,9110001012454,登記記録の閉鎖等,0,2024-11-06,2024-10-31,株式会社生駒商会,,株式会社,新潟県,新発田市,大手町２丁目１番１２号,,15,206,9570052,,,2024-10-31,清算の結了等,,,2015-10-05,1,,,,,イコマショウカイ,0
2419,9110005002897,登記記録の閉鎖等,0,2024-11-06,2024-10-31,特定非営利活動法人新潟中小企業再生支援センター,,その他の設立登記法人,新潟県,新潟市中央区,西堀前通６番町８９７番地１,,15,103,9518062,,,2024-10-31,清算の結了等,,,2015-10-05,1,,,,,ニイガタチュウショウキギョウサイセイシエンセンター,0
2420,9120001006629,登記記録の閉鎖等,0,2024-11-06,2024-10-31,株式会社山田工業所,,株式会社,大阪府,泉大津市,宮町九丁目４６番地,,27,206,5950013,,,2024-10-31,清算の結了等,,,2015-10-05,1,,,,,ヤマダコウギョウショ,0
2429,9120001187270,登記記録の閉鎖等,0,2024-11-06,2024-11-01,株式会社イミテーション,,株式会社,大阪府,大阪市阿倍野区,阪南町５丁目２３番１１号,,27,119,5450021,,,2024-11-01,合併による解散等,9120001187931,令和６年１１月１日大阪市中央区博労町一丁目８番１号株式会社フィオティビータ（9120001187931）に合併し解散,2015-10-05,1,,,,,イミテーション,0
2435,9120001227910,登記記録の閉鎖等,0,2024-11-06,2024-10-30,株式会社パークアベニュー,,株式会社,大阪府,大阪市都島区,都島中通３丁目４番１５号６０１,,27,102,5340022,,,2024-10-30,清算の結了等,,,2020-03-19,1,,,,,パークアベニュー,0
2436,9120001256182,登記記録の閉鎖等,0,2024-11-06,2024-10-31,辻商事株式会社,00131067,株式会社,大阪府,大阪市西淀川区,姫島３丁目１番４７号,,27,113,5550033,,,2024-10-31,合併による解散等,3120001050129,令和６年１０月３１日大阪市西淀川区姫島三丁目１番４７号辻不動産株式会社（3120001050129）に合併し解散,2023-07-05,1,,,,,ツジショウジ,0
2452,9130001026106,登記記録の閉鎖等,0,2024-11-06,2024-10-31,ジオテク・トランスファー株式会社,,株式会社,京都府,京都市下京区,東塩小路向畑町２０－１３プレサンス京都駅前５０２号室,,26,106,6008213,,,2024-10-31,清算の結了等,,,2015-10-05,1,,,,,ジオテクトランスファー,0
2471,9160003001905,登記記録の閉鎖等,0,2024-11-06,2024-11-01,合同会社美鈴建装,,合同会社,滋賀県,高島市,安曇川町田中３７３３番地２９,,25,212,5201217,,,2024-11-01,清算の結了等,,,2019-09-05,1,,,,,ミスズケンソウ,0
2477,9180001118039,登記記録の閉鎖等,0,2024-11-06,2024-10-31,株式会社清親,,株式会社,愛知県,名古屋市瑞穂区,市丘町２丁目５１番地,,23,108,4670063,,,2024-10-31,清算の結了等,,,2015-10-05,1,,,,,セイシン,0
2483,9180005019943,登記記録の閉鎖等,0,2024-11-06,2024-10-31,一般社団法人保育士ネイル協会,,その他の設立登記法人,愛知県,常滑市,住吉町１丁目９３番地,,23,216,4790864,,,2024-10-31,清算の結了等,,,2022-09-26,1,,,,,ホイクシネイルキョウカイ,0
2492,9220001025255,登記記録の閉鎖等,0,2024-11-06,2024-10-29,北陸総合建設株式会社,,株式会社,石川県,金沢市,諸江町２７番地９ＨＯＲＩビル１階,,17,201,9200014,,,2024-10-29,清算の結了等,,,2023-02-06,1,,,,,ホクリクソウゴウケンセツ,0
2503,9250002006202,登記記録の閉鎖等,0,2024-11-06,2024-11-01,有限会社中央縫製,,有限会社,山口県,山陽小野田市,新沖７５１５番地３１,,35,216,7560000,,,2024-11-01,清算の結了等,,,2015-10-05,1,,,,,チュウオウホウセイ,1
2536,9350003002099,登記記録の閉鎖等,0,2024-11-06,2024-11-01,合同会社フレンドハウジング,,合同会社,宮崎県,宮崎市,新城町４１番地２デタント新城１０２号,,45,201,8800845,,,2024-11-01,合併による解散等,3350001012295,令和６年１１月１日宮崎市新城町４２番地１株式会社アンティ（3350001012295）に合併し解散,2015-10-05,1,,,,,フレンドハウジング,0
2545,9410001007878,登記記録の閉鎖等,0,2024-11-06,2024-10-31,大曲土建株式会社,,株式会社,秋田県,大仙市,大曲飯田町２２番２号,,05,212,0140068,,,2024-10-31,清算の結了等,,,2015-10-05,1,,,,,オオマガリドケン,0
2556,9460302004149,登記記録の閉鎖等,0,2024-11-06,2024-11-05,有限会社網走自動車板金工業,,有限会社,北海道,網走市,鱒浦１丁目５番２号,,01,211,0993119,,,2024-11-05,清算の結了等,,,2015-10-05,1,,,,,アバシリジドウシャバンキンコウギョウ,0
