sequenceNumber,corporateNumber,process,correct,updateDate,changeDate,name,nameImageId,kind,prefectureName,cityName,streetNumber,addressImageId,prefectureCode,cityCode,postCode,addressOutside,addressOutsideImageId,closeDate,closeCause,successorCorporateNumber,changeCause,assignmentDate,latest,enName,enPrefectureName,enCityName,enAddressOutside,furigana,hihyoji
5,1010001227441,新規,0,2022-06-16,2022-06-16,株式会社ＲＩＮＧＢＥＬＬ,,株式会社,東京都,中央区,銀座１丁目２２－１１銀座大竹ビジデンス２階,,13,102,1040061,,,,,,,2022-06-16,1,,,,,リングベル,0
9,1010003037896,新規,0,2022-06-16,2022-06-16,ＡＳＴ合同会社,,合同会社,東京都,中央区,築地１丁目９番１１号ムルーエ築地９０２号,,13,102,1040045,,,,,,,2022-06-16,1,,,,,エイエスティ,0
10,1010003037913,新規,0,2022-06-16,2022-06-16,合同会社サクロ,,合同会社,東京都,千代田区,三番町５番地１１パークハウス三番町１２０３号,,13,101,1020075,,,,,,,2022-06-16,1,,,,,サクロ,0
17,1010401167758,新規,0,2022-06-16,2022-06-16,株式会社シークェンスホールディングス,,株式会社,東京都,港区,六本木６丁目１０番１号六本木ヒルズ森タワー３７Ｆ,,13,103,1060032,,,,,,,2022-06-16,1,,,,,シークェンスホールディングス,0
18,1010401168038,新規,0,2022-06-16,2022-06-16,株式会社ＡＰ７４,,株式会社,東京都,港区,虎ノ門４丁目１番２８号虎ノ門タワーズオフィス１７階,,13,103,1050001,,,,,,,2022-06-16,1,,,,,エイピーナナジュウヨン,0
21,1010403027877,新規,0,2022-06-16,2022-06-16,合同会社アルトルイス,,合同会社,東京都,港区,南青山２丁目２番１５号,,13,103,1070062,,,,,,,2022-06-16,1,,,,,アルトルイス,0
22,1010403027902,新規,0,2022-06-16,2022-06-16,合同会社ｌｏｔｉｏｎ’ｓｉｎｔｅｒｎａｔｉｏｎａｌ,,合同会社,東京都,港区,南青山２丁目２番１５号ウィン青山９４２,,13,103,1070062,,,,,,,2022-06-16,1,,,,,ローションズインターナショナル,0
25,1010603009576,新規,0,2022-06-16,2022-06-16,東京石鹸堂合同会社,,合同会社,東京都,墨田区,押上１丁目１７－７コーポぷりむら１０１号,,13,107,1310045,,,,,,,2022-06-16,1,,,,,トウキョウセッケンドウ,0
27,1010701042826,新規,0,2022-06-16,2022-06-16,株式会社常陸スマイルコーポレーション,,株式会社,東京都,品川区,東五反田５丁目２１番１３号新池田山マンション１４０１号室,,13,109,1410022,,,,,,,2022-06-16,1,,,,,ヒタチスマイルコーポレーション,0
31,1010901051008,新規,0,2022-06-16,2022-06-16,株式会社ＳＴＯＲＹ,,株式会社,東京都,世田谷区,経堂５丁目２１番８号,,13,112,1560052,,,,,,,2022-06-16,1,,,,,ストーリー,0
32,1010901051040,新規,0,2022-06-16,2022-06-16,株式会社梅田工業,,株式会社,東京都,世田谷区,上北沢５丁目１０番１３号,,13,112,1560057,,,,,,,2022-06-16,1,,,,,ウメダコウギョウ,0
33,1010901051049,新規,0,2022-06-16,2022-06-16,株式会社ＮＷ３,,株式会社,東京都,世田谷区,南烏山２丁目２－１７,,13,112,1570062,,,,,,,2022-06-16,1,,,,,エヌダブリュースリー,0
34,1010901051057,新規,0,2022-06-16,2022-06-16,株式会社ｆｉｆＴＹ,,株式会社,東京都,世田谷区,代沢３丁目１４番４号ＣＯＭＳＤＡＩＺＡＷＡ３Ｗ,,13,112,1550032,,,,,,,2022-06-16,1,,,,,フィフティー,0
35,1010901051065,新規,0,2022-06-16,2022-06-16,株式会社１０１,,株式会社,東京都,世田谷区,成城２丁目３５－１８,,13,112,1570066,,,,,,,2022-06-16,1,,,,,ワンオーワン,0
38,1010903007445,新規,0,2022-06-16,2022-06-16,合同会社まつざわ商店,,合同会社,東京都,世田谷区,砧８丁目８番２１号松澤ビル,,13,112,1570073,,,,,,,2022-06-16,1,,,,,マツザワショウテン,0
43,1011001148074,新規,0,2022-06-16,2022-06-16,株式会社ガラコレクション,,株式会社,東京都,渋谷区,渋谷１丁目３番９号,,13,113,1500002,,,,,,,2022-06-16,1,,,,,ガラコレクション,0
44,1011001148082,新規,0,2022-06-16,2022-06-16,株式会社ＹＯＵＮＧ，ＷＩＬＤ＆ＦＲＥＥ,,株式会社,東京都,渋谷区,神宮前１丁目２１番１０号新清マンション３１,,13,113,1500001,,,,,,,2022-06-16,1,,,,,ヤングワイルドアンドフリー,0
45,1011001148090,新規,0,2022-06-16,2022-06-16,株式会社ＥＮＴＩＣＡ,,株式会社,東京都,渋谷区,神宮前６丁目２３番４号桑野ビル２階,,13,113,1500001,,,,,,,2022-06-16,1,,,,,エンティカ,0
46,1011001148099,新規,0,2022-06-16,2022-06-16,グランツ株式会社,,株式会社,東京都,目黒区,駒場１丁目９番６号斉藤方,,13,110,1530041,,,,,,,2022-06-16,1,,,,,グランツ,0
47,1011001148108,新規,0,2022-06-16,2022-06-16,株式会社ＴＳＵＹＯＴＳＵＹＯ,,株式会社,東京都,目黒区,中目黒３丁目６番１号千陽アポロンビル９階,,13,110,1530061,,,,,,,2022-06-16,1,,,,,ツヨツヨ,0
48,1011001148116,新規,0,2022-06-16,2022-06-16,ガヴェル株式会社,,株式会社,東京都,目黒区,上目黒１丁目５番１０号中目黒マンション４１３,,13,110,1530051,,,,,,,2022-06-16,1,,,,,ガヴェル,0
59,1011101099250,新規,0,2022-06-16,2022-06-16,株式会社Ｒ‐ＮＥＴ‐ＳＹＳＴＥＭＳ,,株式会社,東京都,新宿区,余丁町８番１２号,,13,104,1620055,,,,,,,2022-06-16,1,,,,,アールネットシステムズ,0
60,1011101099259,新規,0,2022-06-16,2022-06-16,株式会社フォーケイ,,株式会社,東京都,新宿区,新宿２丁目１２番１３号,,13,104,1600022,,,,,,,2022-06-16,1,,,,,フォーケイ,0
64,1011501028148,新規,0,2022-06-16,2022-06-16,株式会社日和,,株式会社,東京都,荒川区,南千住１丁目４５番８－４０３号Ｈ,,13,118,1160003,,,,,,,2022-06-16,1,,,,,ニチワ,0
69,1011603003627,新規,0,2022-06-16,2022-06-16,合同会社リンク,,合同会社,東京都,練馬区,中村南２丁目２番１７号,,13,120,1760025,,,,,,,2022-06-16,1,,,,,リンク,0
74,1012703002477,新規,0,2022-06-16,2022-06-16,合同会社ＳＵＳＫ,,合同会社,東京都,東村山市,富士見町５丁目９番地５８パストラル八坂Ｂ－１０８,,13,213,1890024,,,,,,,2022-06-16,1,,,,,サスク,0
81,1013303006199,新規,0,2022-06-16,2022-06-16,帰去来文化教育合同会社,,合同会社,東京都,豊島区,池袋３丁目５０番７号二村ビル２０３号,,13,116,1710014,,,,,,,2022-06-16,1,,,,,キキョライブンカキョウイク,0
87,1020001146954,新規,0,2022-06-16,2022-06-16,株式会社あたま,,株式会社,神奈川県,横浜市鶴見区,東寺尾２丁目１８－７－１,,14,101,2300077,,,,,,,2022-06-16,1,,,,,アタマ,0
88,1020001146962,新規,0,2022-06-16,2022-06-16,株式会社Ｉ・Ａ　ＨＯＭＥ,,株式会社,神奈川県,川崎市川崎区,田島町１７－１０飯野ハイツ３０２号,,14,131,2100853,,,,,,,2022-06-16,1,,,,,アイエーホーム,0
91,1020003021957,新規,0,2022-06-16,2022-06-16,ケーシン合同会社,,合同会社,神奈川県,川崎市高津区,末長１丁目２４番２４号,,14,134,2130013,,,,,,,2022-06-16,1,,,,,ケーシン,0
97,1021001076233,新規,0,2022-06-16,2022-06-16,株式会社フィル,,株式会社,神奈川県,茅ヶ崎市,円蔵１丁目２１番６０号ジェントル湘南２０１,,14,207,2530084,,,,,,,2022-06-16,1,,,,,フィル,0
98,1021001076258,新規,0,2022-06-16,2022-06-16,株式会社Ｙ’ｓＦｌａｇ,,株式会社,神奈川県,藤沢市,藤沢５４５番地の１６６,,14,205,2510052,,,,,,,2022-06-16,1,,,,,ワイズフラッグ,0
99,1021001076266,新規,0,2022-06-16,2022-06-16,株式会社ブルーフ,,株式会社,神奈川県,秦野市,南矢名４丁目１３番１１号,,14,211,2570003,,,,,,,2022-06-16,1,,,,,ブルーフ,0
105,1030001148693,新規,0,2022-06-16,2022-06-16,株式会社プラスケアライフ,,株式会社,埼玉県,春日部市,南中曽根４３０番地１３,,11,214,3440048,,,,,,,2022-06-16,1,,,,,プラスケアライフ,0
106,1030001148710,新規,0,2022-06-16,2022-06-16,弘栄株式会社,,株式会社,埼玉県,さいたま市桜区,道場２丁目１番１－５５０号,,11,106,3380835,,,,,,,2022-06-16,1,,,,,,0
109,1030003019595,新規,0,2022-06-16,2022-06-16,利美合同会社,,合同会社,埼玉県,北本市,深井４丁目４２番地２１,,11,233,3640001,,,,,,,2022-06-16,1,,,,,トシミ,0
110,1030003019612,新規,0,2022-06-16,2022-06-16,合同会社みんなの庭,,合同会社,埼玉県,北葛飾郡杉戸町,高野台西３丁目１番地１クレインフォレスト１０３,,11,464,3450045,,,,,,,2022-06-16,1,,,,,ミンナノニワ,0
113,1040001123828,新規,0,2022-06-16,2022-06-16,株式会社新陽,,株式会社,千葉県,匝瑳市,飯高８３０番地,,12,235,2892173,,,,,,,2022-06-16,1,,,,,シンヨウ,0
114,1040001123836,新規,0,2022-06-16,2022-06-16,株式会社ＨＡＳ,,株式会社,千葉県,山武市,松ヶ谷ロ３１２５番地,,12,237,2891303,,,,,,,2022-06-16,1,,,,,ハズ,0
115,1040001123869,新規,0,2022-06-16,2022-06-16,Ｃａｒｒｙ　Ｗｏｒｋｓ株式会社,,株式会社,千葉県,野田市,岩名１丁目７３番地の２４,,12,208,2780055,,,,,,,2022-06-16,1,,,,,キャリーワークス,0
118,1040003020271,新規,0,2022-06-16,2022-06-16,合同会社ＣＥＡＣＨ,,合同会社,千葉県,千葉市美浜区,磯辺５丁目１番２号ザ・レジデンス検見川浜ガーデンズ２１７号室,,12,106,2610012,,,,,,,2022-06-16,1,,,,,シーチ,0
121,1050001051235,新規,0,2022-06-16,2022-06-16,株式会社ＮＴリアルエステート,,株式会社,茨城県,古河市,上和田５番３,,08,204,3060122,,,,,,,2022-06-16,1,,,,,エヌティーリアルエステート,0
122,1050005013090,新規,0,2022-06-16,2022-06-16,農事組合法人丸林商事,,その他の設立登記法人,茨城県,石岡市,下林４２２番地,,08,205,3150131,,,,,,,2022-06-16,1,,,,,マルバヤシショウジ,0
126,1060003004108,新規,0,2022-06-16,2022-06-16,合同会社はちぽち,,合同会社,栃木県,那須塩原市,寺子２２９６番地２９,,09,213,3250011,,,,,,,2022-06-16,1,,,,,ハチポチ,0
129,1070001039336,新規,0,2022-06-16,2022-06-16,株式会社帋屋,,株式会社,群馬県,利根郡昭和村,大字糸井３７８番地１,,10,448,3791203,,,,,,,2022-06-16,1,,,,,カミヤ,0
140,1100001035430,新規,0,2022-06-16,2022-06-16,ふるさとファーム信州株式会社,,株式会社,長野県,松本市,波田１４０３番地４,,20,202,3901401,,,,,,,2022-06-16,1,,,,,フルサトファームシンシュウ,0
142,1100003006586,新規,0,2022-06-16,2022-06-16,合同会社ＪＳコーポレーション,,合同会社,長野県,松本市,波田１５２９番地２９,,20,202,3901401,,,,,,,2022-06-16,1,,,,,ジェイエスコーポレーション,0
151,1120001246579,新規,0,2022-06-16,2022-06-16,株式会社ＣＨＥＭＩＣＡＳＴ,,株式会社,大阪府,大阪市中央区,南船場３丁目２番２８号日宝タイヨービル３０１号室,,27,128,5420081,,,,,,,2022-06-16,1,,,,,ケミキャスト,0
152,1120001246612,新規,0,2022-06-16,2022-06-16,株式会社ディマディ管理,,株式会社,大阪府,大阪市西区,新町３丁目８番１０－３０２号,,27,106,5500013,,,,,,,2022-06-16,1,,,,,ディマディカンリ,0
153,1120001246620,新規,0,2022-06-16,2022-06-16,Ｔｉｇｒｅ株式会社,,株式会社,大阪府,大阪市西区,北堀江４丁目１２番１０－１１２７号,,27,106,5500014,,,,,,,2022-06-16,1,,,,,ティグレ,0
154,1120001246694,新規,0,2022-06-16,2022-06-16,株式会社Ｌａｇｏｍｌｉｖ,,株式会社,大阪府,大阪市中央区,南本町２丁目３番１２号ＥＤＧＥ本町３Ｆ００１,,27,128,5410054,,,,,,,2022-06-16,1,,,,,ラゴムリヴ,0
155,1120001246736,新規,0,2022-06-16,2022-06-16,株式会社リーブ,,株式会社,大阪府,大阪市大正区,北村１丁目２番７号,,27,108,5510032,,,,,,,2022-06-16,1,,,,,リーブ,0
157,1120003021880,新規,0,2022-06-16,2022-06-16,合同会社香造,,合同会社,大阪府,枚方市,南中振１丁目２１番２号,,27,210,5730094,,,,,,,2022-06-16,1,,,,,カゾウ,0
160,1120005023000,新規,0,2022-06-16,2022-06-16,田中精之税理士法人,,その他の設立登記法人,大阪府,大阪市中央区,石町２丁目１番７天満橋グリーンコーポラス６０９号,,27,128,5400033,,,,,,,2022-06-16,1,,,,,タナカキヨユキ,0
170,1120905006335,新規,0,2022-06-16,2022-06-16,一般社団法人保育ＩＣＴ　ａｄｖａｎｃｅ,,その他の設立登記法人,大阪府,吹田市,広芝町１０番２５号第２池上ビル１階,,27,205,5640052,,,,,,,2022-06-16,1,,,,,ホイクアイシーティーアドバンス,0
178,1130003007994,新規,0,2022-06-16,2022-06-16,合同会社ＫｉｍｉＬａｂ,,合同会社,京都府,京都市左京区,松ケ崎木ノ本町６番地５,,26,103,6060952,,,,,,,2022-06-16,1,,,,,キミラボ,0
179,1130003008002,新規,0,2022-06-16,2022-06-16,合同会社ｌａｃｌｅｆ,,合同会社,京都府,京都市下京区,七条御所ノ内本町６８番地２,,26,106,6008863,,,,,,,2022-06-16,1,,,,,ラクレ,0
188,1140003017794,新規,0,2022-06-16,2022-06-16,ＡＳＥＮＤＥＲ合同会社,,合同会社,兵庫県,西宮市,丸橋町４番２０号,,28,204,6620831,,,,,,,2022-06-16,1,,,,,アセンダー,0
193,1160003002596,新規,0,2022-06-16,2022-06-16,合同会社ミナクサ商会,,合同会社,滋賀県,草津市,野路２丁目１４番１２号,,25,206,5250059,,,,,,,2022-06-16,1,,,,,ミナクサショウカイ,0
197,1180001151732,新規,0,2022-06-16,2022-06-16,株式会社ＮＥＸＴ　ＳＴＡＧＥ,,株式会社,愛知県,一宮市,木曽川町里小牧字本茅場９９番地８,,23,203,4930005,,,,,,,2022-06-16,1,,,,,ネクストステージ,0
198,1180003023954,新規,0,2022-06-16,2022-06-16,合同会社一枠,,合同会社,愛知県,名古屋市港区,新船町４丁目２番地の２８,,23,111,4550071,,,,,,,2022-06-16,1,,,,,ヒトワク,0
200,1180301036328,新規,0,2022-06-16,2022-06-16,ナミテック株式会社,,株式会社,愛知県,豊田市,市木町９丁目１６番地１,,23,211,4710006,,,,,,,2022-06-16,1,,,,,ナミテック,0
204,1200001040164,新規,0,2022-06-16,2022-06-16,Ｏｎｃｅ株式会社,,株式会社,岐阜県,高山市,上岡本町５丁目５７９番地,,21,203,5060055,,,,,,,2022-06-16,1,,,,,ワンス,0
212,1240001059952,新規,0,2022-06-16,2022-06-16,株式会社ＮＭＴ,,株式会社,広島県,広島市中区,三川町１０番２７号,,34,101,7300029,,,,,,,2022-06-16,1,,,,,エヌエムティ,0
213,1250003003098,新規,0,2022-06-16,2022-06-16,合同会社Ｎｅｗ　Ｄａｙｓ,,合同会社,山口県,宇部市,西平原２丁目４－１５－１２号室,,35,202,7550808,,,,,,,2022-06-16,1,,,,,ニューデイズ,0
227,1290001097898,新規,0,2022-06-16,2022-06-16,株式会社五三九,,株式会社,福岡県,古賀市,青柳５３９番地,,40,223,8113134,,,,,,,2022-06-16,1,,,,,ゴサンキュウ,0
228,1290001097964,新規,0,2022-06-16,2022-06-16,株式会社グランリールス,,株式会社,福岡県,糸島市,前原西４丁目３番９号,,40,230,8191117,,,,,,,2022-06-16,1,,,,,グランリールス,0
229,1290001097972,新規,0,2022-06-16,2022-06-16,株式会社ＬＡＲＲＹ,,株式会社,福岡県,福岡市西区,愛宕浜２丁目３番７号,,40,135,8190013,,,,,,,2022-06-16,1,,,,,ラリー,0
238,1300001012970,新規,0,2022-06-16,2022-06-16,株式会社ＳＥＲＡ,,株式会社,佐賀県,佐賀市,兵庫町大字渕４３１２番地３シャーメゾンＭ＆ＹＡ棟,,41,201,8490913,,,,,,,2022-06-16,1,,,,,セラ,0
249,1350003004103,新規,0,2022-06-16,2022-06-16,エターナルアドバンス合同会社,,合同会社,宮崎県,宮崎市,大字小松１３４８番地１３,,45,201,8802112,,,,,,,2022-06-16,1,,,,,エターナルアドバンス,0
256,1380001032895,新規,0,2022-06-16,2022-06-16,株式会社マザーソリューション,,株式会社,福島県,福島市,泉字弐斗蒔２番地の４,,07,201,9608253,,,,,,,2022-06-16,1,,,,,マザーソリューション,0
258,1380003005197,新規,0,2022-06-16,2022-06-16,合同会社テリーナテリーナ,,合同会社,福島県,郡山市,方八町三丁目５番１６号ＮＯＶＡ東口ビル３０１号,,07,203,9630000,,,,,,,2022-06-16,1,,,,,テリーナテリーナ,0
273,1430001086861,新規,0,2022-06-16,2022-06-16,Ｎｏｗｚｅ株式会社,,株式会社,北海道,札幌市中央区,南一条西１６丁目１番地３２３春野ビル３Ｆ,,01,101,0600061,,,,,,,2022-06-16,1,,,,,ナウゼ,0
276,1430003014011,新規,0,2022-06-16,2022-06-16,合同会社Ｆｏｒｅｓｔａ,,合同会社,北海道,札幌市豊平区,平岸四条７丁目１番１－１５０２号,,01,105,0620934,,,,,,,2022-06-16,1,,,,,フォレスタ,0
278,1460105002241,新規,0,2022-06-16,2022-06-16,税理士法人富士道会計事務所,,その他の設立登記法人,北海道,帯広市,西八条南３０丁目５番地２,,01,207,0800018,,,,,,,2022-06-16,1,,,,,フジミチカイケイジムショ,0
286,2010001227390,新規,0,2022-06-16,2022-06-16,株式会社ボラム,,株式会社,東京都,中央区,銀座７丁目１３番６号サガミビル２階,,13,102,1040061,,,,,,,2022-06-16,1,,,,,ボラム,0
287,2010001227481,新規,0,2022-06-16,2022-06-16,株式会社ＨＳＪ,,株式会社,東京都,千代田区,神田佐久間町１丁目９番地,,13,101,1010025,,,,,,,2022-06-16,1,,,,,エイチエスジェイ,0
299,2010401167922,新規,0,2022-06-16,2022-06-16,株式会社ｃｏｓｍｉｃ　ｅａｒｔｈ,,株式会社,東京都,港区,白金５丁目６番７号エスセナーリオ白金４０１号,,13,103,1080072,,,,,,,2022-06-16,1,,,,,コスミックアース,0
300,2010401167988,新規,0,2022-06-16,2022-06-16,株式会社希喜,,株式会社,東京都,港区,南青山２丁目２番１５号,,13,103,1070062,,,,,,,2022-06-16,1,,,,,キキ,0
304,2010501048964,新規,0,2022-06-16,2022-06-16,株式会社ＡＴマネジメント,,株式会社,東京都,台東区,東上野２丁目１番１３号６０２,,13,106,1100015,,,,,,,2022-06-16,1,,,,,エーティーマネジメント,0
306,2010601061330,新規,0,2022-06-16,2022-06-16,株式会社Ｂｌｕｅ　Ｉｎｃ．,,株式会社,東京都,江東区,永代２丁目１９番１０号梶岡ビル３０１,,13,108,1350034,,,,,,,2022-06-16,1,,,,,ブルーインク,0
307,2010601061339,新規,0,2022-06-16,2022-06-16,株式会社ｏｍｏｃｈｉ,,株式会社,東京都,江東区,佐賀１丁目５番２号,,13,108,1350031,,,,,,,2022-06-16,1,,,,,オモチ,0
308,2010601061347,新規,0,2022-06-16,2022-06-16,株式会社りあん,,株式会社,東京都,江東区,亀戸６丁目６０番４号,,13,108,1360071,,,,,,,2022-06-16,1,,,,,リアン,0
310,2010603009591,新規,0,2022-06-16,2022-06-16,ＡＣＣＥＬ合同会社,,合同会社,東京都,江東区,千石１丁目１３番１５－１２０４号,,13,108,1350015,,,,,,,2022-06-16,1,,,,,アクセル,0
311,2010701042825,新規,0,2022-06-16,2022-06-16,チャラン株式会社,,株式会社,東京都,品川区,西五反田１丁目１番８号,,13,109,1410031,,,,,,,2022-06-16,1,,,,,チャラン,0
316,2010903007469,新規,0,2022-06-16,2022-06-16,合同会社睦月商会,,合同会社,東京都,世田谷区,松原３丁目３０番１０号２Ｆ,,13,112,1560043,,,,,,,2022-06-16,1,,,,,ムツキショウカイ,0
322,2011001148049,新規,0,2022-06-16,2022-06-16,株式会社Ｐａｓｓｉｏｎ,,株式会社,東京都,渋谷区,松濤１丁目２８番２号,,13,113,1500046,,,,,,,2022-06-16,1,,,,,パッション,0
323,2011001148065,新規,0,2022-06-16,2022-06-16,株式会社Ｒｅｐｌｉｋａ,,株式会社,東京都,渋谷区,神宮前６丁目２３番４号桑野ビル２階,,13,113,1500001,,,,,,,2022-06-16,1,,,,,レプリカ,0
324,2011001148073,新規,0,2022-06-16,2022-06-16,株式会社ＢｏＨｅＭｉＡｎ,,株式会社,東京都,渋谷区,恵比寿４丁目７番１号恵比寿ＴＯＷＡビル３０１,,13,113,1500013,,,,,,,2022-06-16,1,,,,,ボヘミアン,0
325,2011001148081,新規,0,2022-06-16,2022-06-16,株式会社ＳＥシェア,,株式会社,東京都,渋谷区,神宮前５丁目２０番１号モデリアブリュット表参道３０２号,,13,113,1500001,,,,,,,2022-06-16,1,,,,,エスイーシェア,0
326,2011001148115,新規,0,2022-06-16,2022-06-16,株式会社ＣＯＣＲＩＥ,,株式会社,東京都,目黒区,八雲４丁目１６番１３号,,13,110,1520023,,,,,,,2022-06-16,1,,,,,コクリエ,0
327,2011001148156,新規,0,2022-06-16,2022-06-16,株式会社ＭＬＭＣ,,株式会社,東京都,渋谷区,渋谷２丁目１９番１５号,,13,113,1500002,,,,,,,2022-06-16,1,,,,,エムエルエムシー,0
328,2011003014868,新規,0,2022-06-16,2022-06-16,Ｉ‐ＥＩＧＨＴ合同会社,,合同会社,東京都,渋谷区,神宮前５丁目１９番１号,,13,113,1500001,,,,,,,2022-06-16,1,,,,,アイエイト,0
329,2011003014876,新規,0,2022-06-16,2022-06-16,合同会社Ｉｎｆｉｎｉｔｙ　Ｗｅｌｌ‐Ｂｅｉｎｇ,,合同会社,東京都,目黒区,上目黒２丁目３６番６号,,13,110,1530051,,,,,,,2022-06-16,1,,,,,インフィニティウェルビーイング,0
333,2011101099241,新規,0,2022-06-16,2022-06-16,株式会社Ｈ．Ｉ．Ｊ　ｃｏｍｐａｎｙ,,株式会社,東京都,新宿区,西新宿３丁目３番１３号西新宿水間ビル６階,,13,104,1600023,,,,,,,2022-06-16,1,,,,,エイチアイジェイカンパニー,0
334,2011101099266,新規,0,2022-06-16,2022-06-16,愛田観光株式会社,,株式会社,東京都,新宿区,歌舞伎町２丁目２２番５号,,13,104,1600021,,,,,,,2022-06-16,1,,,,,,0
350,2012403005432,新規,0,2022-06-16,2022-06-16,合同会社くまの配達やさん,,合同会社,東京都,小金井市,東町４丁目３５番２０号,,13,210,1840011,,,,,,,2022-06-16,1,,,,,クマノハイタツヤサン,0
363,2020001076176,新規,0,2022-06-16,2022-06-16,プランツ株式会社,,株式会社,神奈川県,川崎市幸区,北加瀬１丁目７番１１号,,14,132,2120057,,,,,,,2022-06-16,1,,,,,プランツ,0
373,2021001076182,新規,0,2022-06-16,2022-06-16,株式会社ドミンゴキッチン,,株式会社,神奈川県,足柄下郡湯河原町,土肥４丁目８－１４,,14,384,2590303,,,,,,,2022-06-16,1,,,,,ドミンゴキッチン,0
374,2021001076224,新規,0,2022-06-16,2022-06-16,株式会社べにりずむ,,株式会社,神奈川県,小田原市,多古３３１番地の１ラ・リヴィエールＩＩＩ１０３,00126902,14,206,2500054,,,,,,,2022-06-16,1,,,,,ベニリズム,0
375,2021001076257,新規,0,2022-06-16,2022-06-16,株式会社ビーユアセルフ,,株式会社,神奈川県,綾瀬市,早川城山３丁目１４番２３号,,14,218,2521127,,,,,,,2022-06-16,1,,,,,ビーユアセルフ,0
376,2021001076265,新規,0,2022-06-16,2022-06-16,株式会社ＡＵＳＬＥＳＥ,,株式会社,神奈川県,厚木市,長谷７９８番地３厚木三番館１０２,,14,212,2430036,,,,,,,2022-06-16,1,,,,,アウスレーゼ,0
377,2021001076273,新規,0,2022-06-16,2022-06-16,ＯＳＫ株式会社,,株式会社,神奈川県,座間市,小松原２丁目４４番１号,,14,216,2520002,,,,,,,2022-06-16,1,,,,,オーエスケー,0
379,2021003011831,新規,0,2022-06-16,2022-06-16,合同会社ＳＩＮＫＥＮ,,合同会社,神奈川県,海老名市,門沢橋５丁目１３番８号,,14,215,2430426,,,,,,,2022-06-16,1,,,,,シンケン,0
385,2030001148692,新規,0,2022-06-16,2022-06-16,Ｓ‐Ｌｉｎｅ株式会社,,株式会社,埼玉県,久喜市,西大輪２０１２番地１,,11,232,3400206,,,,,,,2022-06-16,1,,,,,エスライン,0
386,2030001148734,新規,0,2022-06-16,2022-06-16,株式会社コミヤ,,株式会社,埼玉県,さいたま市桜区,大字上大久保４９５番地１ー４０４,,11,106,3380824,,,,,,,2022-06-16,1,,,,,コミヤ,0
387,2030001148742,新規,0,2022-06-16,2022-06-16,株式会社三高ｅｓｔａｔｅ,,株式会社,埼玉県,戸田市,上戸田４丁目１６番１３号,,11,224,3350022,,,,,,,2022-06-16,1,,,,,サンコウエステート,0
394,2030003019611,新規,0,2022-06-16,2022-06-16,合同会社ローズケア,,合同会社,埼玉県,春日部市,小渕１０７１番地６,,11,214,3440007,,,,,,,2022-06-16,1,,,,,ローズケア,0
399,2040001123884,新規,0,2022-06-16,2022-06-16,株式会社ＷＯＮＴ,,株式会社,千葉県,松戸市,二十世紀が丘中松町１０番地の２,,12,207,2710085,,,,,,,2022-06-16,1,,,,,ウォント,0
404,2040003020238,新規,0,2022-06-16,2022-06-16,合同会社ＹＯＲＯＣＯＢＩ　Ｄｅｓｉｇｎ　Ｌａｂｓ,,合同会社,千葉県,松戸市,常盤平７丁目７番地の２９,,12,207,2702261,,,,,,,2022-06-16,1,,,,,ヨロコビデザインラボ,0
405,2040003020246,新規,0,2022-06-16,2022-06-16,合同会社Ｗｏｒｌｄ　Ａｃｔｉｖｅ　Ｌｉｆｅ,,合同会社,千葉県,成田市,江弁須２１１番地８,,12,211,2860047,,,,,,,2022-06-16,1,,,,,,0
406,2040003020270,新規,0,2022-06-16,2022-06-16,ＡＭＡＩＲＡＨ　ＨＯＬＤＩＮＧ合同会社,,合同会社,千葉県,山武市,松尾町高富２５９番地１４,,12,237,2891522,,,,,,,2022-06-16,1,,,,,アマイラーホールディング,0
414,2070001039343,新規,0,2022-06-16,2022-06-16,株式会社庭助,,株式会社,群馬県,伊勢崎市,韮塚町３０１番地１,,10,204,3720813,,,,,,,2022-06-16,1,,,,,ニワスケ,0
417,2080101023361,新規,0,2022-06-16,2022-06-16,株式会社オリーブ,,株式会社,静岡県,富士市,中野６１４番地１４,,22,210,4170809,,,,,,,2022-06-16,1,,,,,オリーブ,0
421,2080401025891,新規,0,2022-06-16,2022-06-16,株式会社Ｐｅｃｏｌｉｔａ,,株式会社,静岡県,浜松市東区,天王町２１０番地,,22,132,4350052,,,,,,,2022-06-16,1,,,,,ペコリータ,0
422,2090003002108,新規,0,2022-06-16,2022-06-16,合同会社デジタルるつぼ,,合同会社,山梨県,甲府市,山宮町１０１４番１２号コンフォートハイツ斉藤１０５号,,19,201,4000075,,,,,,,2022-06-16,1,,,,,デジタルルツボ,0
435,2120001246660,新規,0,2022-06-16,2022-06-16,継彰株式会社,,株式会社,大阪府,大阪市東成区,神路４丁目３－１０スターレジデンス新深江５０１号室,,27,115,5370003,,,,,,,2022-06-16,1,,,,,ケイショウ,0
436,2120001246669,新規,0,2022-06-16,2022-06-16,重啓株式会社,,株式会社,大阪府,大阪市中央区,高津３丁目８－１９スターレジデンス黒門９０２号室,,27,128,5420072,,,,,,,2022-06-16,1,,,,,ジュウケイ,0
437,2120001246710,新規,0,2022-06-16,2022-06-16,株式会社ＰａＬ,,株式会社,大阪府,大阪市東成区,東中本２丁目１番２１号,,27,115,5370021,,,,,,,2022-06-16,1,,,,,パル,0
438,2120001246719,新規,0,2022-06-16,2022-06-16,添銘株式会社,,株式会社,大阪府,大阪市中央区,島之内１丁目１２番１２号スカイビル４階,,27,128,5420082,,,,,,,2022-06-16,1,,,,,テンメイ,0
439,2120001246727,新規,0,2022-06-16,2022-06-16,株式会社Ｇｌｏｒｙ　Ｇａｔｅ,,株式会社,大阪府,大阪市中央区,平野町２丁目２番９号,,27,128,5410046,,,,,,,2022-06-16,1,,,,,グローリーゲイト,0
442,2120003021888,新規,0,2022-06-16,2022-06-16,合同会社Ｈ　ｃｏｍｐａｎｙ,,合同会社,大阪府,大阪市西区,西本町１丁目８番２号三晃ビル４０８,,27,106,5500005,,,,,,,2022-06-16,1,,,,,エイチカンパニー,0
451,2130001071967,新規,0,2022-06-16,2022-06-16,株式会社照音,,株式会社,京都府,京都市下京区,玉津島町２９４,,26,106,6008427,,,,,,,2022-06-16,1,,,,,ショウオン,0
461,2150001025624,新規,0,2022-06-16,2022-06-16,株式会社中西造園,,株式会社,奈良県,桜井市,大字出雲４１４番地,,29,206,6330122,,,,,,,2022-06-16,1,,,,,ナカニシゾウエン,0
468,2180001151731,新規,0,2022-06-16,2022-06-16,株式会社ＳＴＡＲ,,株式会社,愛知県,大府市,中央町６丁目９８番地,,23,223,4740025,,,,,,,2022-06-16,1,,,,,スター,0
469,2180001151756,新規,0,2022-06-16,2022-06-16,Ｇｏｅｎｓ株式会社,,株式会社,愛知県,名古屋市西区,名駅２丁目３４番１７号セントラル名古屋１１０１号,,23,104,4510045,,,,,,,2022-06-16,1,,,,,ゴエンズ,0
470,2180001151764,新規,0,2022-06-16,2022-06-16,株式会社ジーエステート,,株式会社,愛知県,名古屋市北区,如意１丁目１６０番地の５,,23,103,4620007,,,,,,,2022-06-16,1,,,,,ジーエステート,0
471,2180001151789,新規,0,2022-06-16,2022-06-16,株式会社Ａｎｇｒａ　Ｙ’ｓ,,株式会社,愛知県,清須市,下河原９０９番地３,,23,233,4520916,,,,,,,2022-06-16,1,,,,,アングラワイズ,0
489,2200005013355,新規,0,2022-06-16,2022-06-16,特定非営利活動法人幼稚舎サンタセシリア,,その他の設立登記法人,岐阜県,岐阜市,蔵前６丁目１７番１４号,,21,201,5008233,,,,,,,2022-06-16,1,,,,,ヨウチシャサンタセシリア,0
498,2250003003097,新規,0,2022-06-16,2022-06-16,合同会社伊藤家三男一女,,合同会社,山口県,宇部市,中央町２丁目４番１０－１号,,35,202,7550045,,,,,,,2022-06-16,1,,,,,イトウケサンナンイチジョ,0
509,2290001097897,新規,0,2022-06-16,2022-06-16,三金花株式会社,,株式会社,福岡県,糟屋郡粕屋町,大字江辻１番１号,,40,349,8112313,,,,,,,2022-06-16,1,,,,,サンキンカ,0
510,2290001097939,新規,0,2022-06-16,2022-06-16,株式会社ＡｓＯｎｅ,,株式会社,福岡県,福岡市早良区,原７丁目１１番８号,,40,137,8140022,,,,,,,2022-06-16,1,,,,,アズワン,0
511,2290001097971,新規,0,2022-06-16,2022-06-16,株式会社ＣＢＭエクスプレス,,株式会社,福岡県,福岡市博多区,美野島４丁目１番３－１３０９号パロスリバーコート博多参番館,,40,132,8120017,,,,,,,2022-06-16,1,,,,,シービーエムエクスプレス,0
518,2310001017910,新規,0,2022-06-16,2022-06-16,株式会社ＫＩＫ,,株式会社,長崎県,長崎市,今博多町２２番地,,42,201,8500025,,,,,,,2022-06-16,1,,,,,ケーアイケー,0
523,2320001019138,新規,0,2022-06-16,2022-06-16,株式会社ＭｃＵｐ,,株式会社,大分県,大分市,府内町２丁目５番３号,,44,201,8700021,,,,,,,2022-06-16,1,,,,,マックアップ,0
530,2360003012079,新規,0,2022-06-16,2022-06-16,合同会社ＯＹＭ,,合同会社,沖縄県,宮古島市,平良字東仲宗根２２４番地,,47,214,9060007,,,,,,,2022-06-16,1,,,,,オーワイエム,0
540,2400001015913,新規,0,2022-06-16,2022-06-16,株式会社山ちゃん建装,,株式会社,岩手県,盛岡市,大館町１６－１,,03,201,0200147,,,,,,,2022-06-16,1,,,,,,0
552,2430001086836,新規,0,2022-06-16,2022-06-16,株式会社Ｐｏｎｏ　Ｐｌｕｓ,,株式会社,北海道,苫小牧市,豊川町３丁目１０番１９－２号,,01,213,0530831,,,,,,,2022-06-16,1,,,,,ポノプラス,0
555,2430003014019,新規,0,2022-06-16,2022-06-16,ループ・クリエイティブ合同会社,,合同会社,北海道,札幌市北区,北三十二条西５丁目３番２８号ＳＡＫＵＲＡ‐Ｎ３２,,01,102,0010032,,,,,,,2022-06-16,1,,,,,ループクリエイティブ,0
556,2430003014043,新規,0,2022-06-16,2022-06-16,合同会社オフィスＫ,,合同会社,北海道,札幌市東区,北七条東３丁目１５番地３０ＳＡＫＵＲＡ－Ｎ７,,01,103,0600907,,,,,,,2022-06-16,1,,,,,オフィスケイ,0
561,2700150109857,新規,0,2022-06-16,2022-06-16,給田北住宅マンション建替組合,,その他,東京都,千代田区,神田神保町１丁目１０５番地旭化成不動産レジデンス株式会社内,,13,101,1010051,,,,,,,2022-06-16,1,,,,,キユウデンキタジユウタクマンシヨンタテカエクミアイ,0
562,2700150109964,新規,0,2022-06-16,2022-06-16,白金台パークハウスマンション建替組合,,その他,東京都,千代田区,神田神保町１丁目１０５番地旭化成不動産レジデンス株式会社　開発営業本部内,,13,101,1010051,,,,,,,2022-06-16,1,,,,,シロカネダイパークハウスマンシヨンタテカエクミアイ,0
563,2700150109972,新規,0,2022-06-16,2022-06-16,ガウラブ・サービス・プライベート・リミテッド,,外国会社等,埼玉県,日高市,大字高萩８０９－８,,11,242,3501213,ネパール連邦民主共和国カトマンズ市第２区ガエリダーラ,,,,,,2022-06-16,1,,,,,ガウラブサービスプライベートリミテツド,0
571,3010001227340,新規,0,2022-06-16,2022-06-16,株式会社ＳＦＤ,,株式会社,東京都,千代田区,内幸町１丁目３番３号内幸町ダイビル,,13,101,1000011,,,,,,,2022-06-16,1,,,,,エスエフディー,0
572,3010001227357,新規,0,2022-06-16,2022-06-16,株式会社Ｂａｃｈａｍｅ,,株式会社,東京都,中央区,銀座６丁目１３番１６号銀座ＷａｌｌビルＵＣＦ５０１,,13,102,1040061,,,,,,,2022-06-16,1,,,,,バチャメ,0
573,3010001227480,新規,0,2022-06-16,2022-06-16,スマートサウンドデザイン株式会社,,株式会社,東京都,中央区,銀座１丁目１２－４Ｎ＆ＥＢＬＤ．７階,,13,102,1040061,,,,,,,2022-06-16,1,,,,,スマートサウンドデザイン,0
585,3010401167938,新規,0,2022-06-16,2022-06-16,株式会社マグノリア,,株式会社,東京都,港区,南麻布４丁目１３番６号,,13,103,1060047,,,,,,,2022-06-16,1,,,,,マグノリア,0
586,3010401167970,新規,0,2022-06-16,2022-06-16,株式会社３Ｄ　Ｐｈａｎｔｏｍ,,株式会社,東京都,港区,海岸１丁目４－２２・１０階,,13,103,1050022,,,,,,,2022-06-16,1,,,,,スリーディーファントム,0
587,3010401167979,新規,0,2022-06-16,2022-06-16,株式会社ｇｗａｋｅ,,株式会社,東京都,港区,南青山２丁目２番１５号,,13,103,1070062,,,,,,,2022-06-16,1,,,,,ジーウェイク,0
595,3010703006281,新規,0,2022-06-16,2022-06-16,合同会社メタナレッジ,,合同会社,東京都,品川区,西五反田１丁目２番地２号，１２０６,,13,109,1410031,,,,,,,2022-06-16,1,,,,,メタナレッジ,0
601,3010901051039,新規,0,2022-06-16,2022-06-16,株式会社フィラガッティ研究所,,株式会社,東京都,世田谷区,砧２丁目１１番１８－１００２号,,13,112,1570073,,,,,,,2022-06-16,1,,,,,フィラガッティケンキュウジョ,0
602,3010901051055,新規,0,2022-06-16,2022-06-16,株式会社ケーツー・ジョイフル,,株式会社,東京都,世田谷区,北烏山１丁目５５番５号,,13,112,1570061,,,,,,,2022-06-16,1,,,,,ケーツージョイフル,0
603,3010901051063,新規,0,2022-06-16,2022-06-16,株式会社インビテーションビューティー,,株式会社,東京都,世田谷区,深沢２丁目１－１１－１０２号,,13,112,1580081,,,,,,,2022-06-16,1,,,,,インビテーションビューティー,0
605,3010903007451,新規,0,2022-06-16,2022-06-16,ドムスオルティ合同会社,,合同会社,東京都,世田谷区,三軒茶屋２丁目２９番２－３０１号,,13,112,1540024,,,,,,,2022-06-16,1,,,,,ドムスオルティ,0
613,3011001147941,新規,0,2022-06-16,2022-06-16,株式会社Ｓｕｎ＆Ｍｏｏｎ,,株式会社,東京都,渋谷区,恵比寿西１丁目３番５－６０６号,,13,113,1500021,,,,,,,2022-06-16,1,,,,,サンアンドムーン,0
614,3011001148056,新規,0,2022-06-16,2022-06-16,株式会社アバター,,株式会社,東京都,渋谷区,千駄ヶ谷３丁目３番２３号,,13,113,1510051,,,,,,,2022-06-16,1,,,,,アバター,0
615,3011001148072,新規,0,2022-06-16,2022-06-16,エーアンドエイチプロモーション株式会社,,株式会社,東京都,渋谷区,富ヶ谷１丁目４８番２号,,13,113,1510063,,,,,,,2022-06-16,1,,,,,エーアンドエイチプロモーション,0
616,3011001148089,新規,0,2022-06-16,2022-06-16,株式会社Ｕ,,株式会社,東京都,目黒区,中央町２丁目２５番５－２０７号イルミナーレ学大,,13,110,1520001,,,,,,,2022-06-16,1,,,,,ユー,0
617,3011001148097,新規,0,2022-06-16,2022-06-16,Ｉ’ｓ　ｆａｃｔｏｒｙ株式会社,,株式会社,東京都,渋谷区,恵比寿４丁目１２番１３号,,13,113,1500013,,,,,,,2022-06-16,1,,,,,アイズファクトリー,0
618,3011001148106,新規,0,2022-06-16,2022-06-16,株式会社Ｏｚ,,株式会社,東京都,渋谷区,渋谷２丁目１９番１５号宮益坂ビルディング６０９,,13,113,1500002,,,,,,,2022-06-16,1,,,,,オズ,0
626,3011301027819,新規,0,2022-06-16,2022-06-16,４６株式会社,,株式会社,東京都,杉並区,永福２丁目４２番４号,,13,115,1680064,,,,,,,2022-06-16,1,,,,,ヨンロク,0
630,3011801040866,新規,0,2022-06-16,2022-06-16,ウィナーリンクス株式会社,,株式会社,東京都,足立区,宮城１丁目３－２３グランドリーヴァ田端１００４号,,13,121,1200047,,,,,,,2022-06-16,1,,,,,ウィナーリンクス,0
636,3020001146928,新規,0,2022-06-16,2022-06-16,株式会社眞如,,株式会社,神奈川県,横浜市戸塚区,戸塚町４１７０－１Ｆ,,14,110,2440003,,,,,,,2022-06-16,1,,,,,シンニョ,0
640,3020003021947,新規,0,2022-06-16,2022-06-16,合同会社リバー,,合同会社,神奈川県,横浜市中区,初音町２丁目４１－２プレール・ドゥーク横浜ＳＯＵＴＨＭａｉｓｏｎＬｏｉｒｅ６０２号室,,14,104,2310053,,,,,,,2022-06-16,1,,,,,リバー,0
651,3030001148725,新規,0,2022-06-16,2022-06-16,株式会社ＲＯＶＥＲ,,株式会社,埼玉県,新座市,東北１丁目１４番１号志幸３０ＳＥＡＳＯＮ５０１,,11,230,3520001,,,,,,,2022-06-16,1,,,,,ローバー,0
652,3030001148741,新規,0,2022-06-16,2022-06-16,Ｈｅｌｌｏ　Ｗｏｒｋ株式会社,,株式会社,埼玉県,吉川市,美南２丁目１０番地８,,11,243,3420038,,,,,,,2022-06-16,1,,,,,ハローワーク,0
656,3030003019602,新規,0,2022-06-16,2022-06-16,合同会社価値づくり共働社,,合同会社,埼玉県,さいたま市浦和区,仲町２丁目５番１号地下１階Ｍｉｏ浦和,,11,107,3300062,,,,,,,2022-06-16,1,,,,,カチヅクリキョウドウシャ,0
667,3040001123784,新規,0,2022-06-16,2022-06-16,株式会社スリーエス,,株式会社,千葉県,松戸市,大金平４丁目２７９－１０５,,12,207,2700006,,,,,,,2022-06-16,1,,,,,スリーエス,0
668,3040001123842,新規,0,2022-06-16,2022-06-16,株式会社ｐｏｏｌ　ｂｉｔ　ｄｅｓｉｇｎ,,株式会社,千葉県,松戸市,新松戸７丁目２６１番地の２,,12,207,2700034,,,,,,,2022-06-16,1,,,,,プールビットデザイン,0
669,3040001123875,新規,0,2022-06-16,2022-06-16,株式会社ヤマスエ水産,,株式会社,千葉県,船橋市,市場１丁目８番１号,,12,204,2730001,,,,,,,2022-06-16,1,,,,,ヤマスエスイサン,0
674,3040003020237,新規,0,2022-06-16,2022-06-16,合同会社タク動物病院,,合同会社,千葉県,木更津市,清川１丁目４番１５号,,12,206,2920051,,,,,,,2022-06-16,1,,,,,タクドウブツビョウイン,0
675,3040003020245,新規,0,2022-06-16,2022-06-16,ちなじゅん合同会社,,合同会社,千葉県,千葉市若葉区,桜木北１丁目３番４４号,,12,104,2640029,,,,,,,2022-06-16,1,,,,,チナジュン,0
678,3050001051241,新規,0,2022-06-16,2022-06-16,株式会社ハナスタイル,,株式会社,茨城県,取手市,新町１丁目９番１号５０１区画,,08,217,3020024,,,,,,,2022-06-16,1,,,,,ハナスタイル,0
679,3050003006607,新規,0,2022-06-16,2022-06-16,合同会社Ｑｕｉｄ　ｑｕｉｄ,,合同会社,茨城県,土浦市,木田余東台２丁目２０番２号,,08,203,3000027,,,,,,,2022-06-16,1,,,,,クイッドクイッド,0
680,3050003006615,新規,0,2022-06-16,2022-06-16,合同会社福,,合同会社,茨城県,取手市,井野１５２４番地３,,08,217,3020011,,,,,,,2022-06-16,1,,,,,フク,0
681,3050003006623,新規,0,2022-06-16,2022-06-16,ＳＵＮＮＹＳ合同会社,,合同会社,茨城県,石岡市,三村３０９３番地３,,08,205,3150048,,,,,,,2022-06-16,1,,,,,サニーズ,0
687,3080101023344,新規,0,2022-06-16,2022-06-16,富士ハウジング株式会社,,株式会社,静岡県,田方郡函南町,上沢９５６番地の１,,22,325,4190122,,,,,,,2022-06-16,1,,,,,フジハウジング,0
706,3120001246585,新規,0,2022-06-16,2022-06-16,株式会社ｌｉｋｅｓ,,株式会社,大阪府,大阪市北区,豊崎２丁目４番１３号プログレスコート梅田北１階,,27,127,5310072,,,,,,,2022-06-16,1,,,,,ライクス,0
707,3120001246610,新規,0,2022-06-16,2022-06-16,株式会社Ｈ,,株式会社,大阪府,大阪市住吉区,帝塚山東４丁目８番１３号,,27,120,5580054,,,,,,,2022-06-16,1,,,,,エイチ,0
708,3120001246619,新規,0,2022-06-16,2022-06-16,株式会社ＡＲＡＳＨＩ,,株式会社,大阪府,大阪市淀川区,十三元今里３丁目２番１号２Ｆ,,27,123,5320028,,,,,,,2022-06-16,1,,,,,アラシ,0
709,3120001246651,新規,0,2022-06-16,2022-06-16,Ａ＆Ｃ株式会社,,株式会社,大阪府,大阪市浪速区,恵美須西２丁目１１番１７号ＬＡＮＤＭＡＲＫＮＡＭＢＡＥＢＩＳＵＣＨＯ４０１号,,27,111,5560003,,,,,,,2022-06-16,1,,,,,エーアンドシー,0
710,3120001246668,新規,0,2022-06-16,2022-06-16,三嘉株式会社,,株式会社,大阪府,大阪市東成区,神路４丁目３－１０スターレジデンス新深江２０６号室,,27,115,5370003,,,,,,,2022-06-16,1,,,,,ミカ,0
711,3120001246676,新規,0,2022-06-16,2022-06-16,楚熹霖株式会社,,株式会社,大阪府,大阪市東成区,神路４丁目３－１０、４０５号室,,27,115,5370003,,,,,,,2022-06-16,1,,,,,ソウキリン,0
712,3120001246718,新規,0,2022-06-16,2022-06-16,翰林斉家株式会社,,株式会社,大阪府,大阪市中央区,本町橋６番２１号シャンボール内本町３０２号室,,27,128,5400029,,,,,,,2022-06-16,1,,,,,カンリンサイカ,0
713,3120001246750,新規,0,2022-06-16,2022-06-16,株式会社日積商事,,株式会社,大阪府,大阪市淀川区,西三国１丁目１１番２－３０２号,,27,123,5320006,,,,,,,2022-06-16,1,,,,,ニッセキショウジ,0
716,3120101065761,新規,0,2022-06-16,2022-06-16,株式会社グロウ,,株式会社,大阪府,岸和田市,流木町６９８－４,,27,202,5960835,,,,,,,2022-06-16,1,,,,,グロウ,0
718,3120105009574,新規,0,2022-06-16,2022-06-16,一般社団法人堺の力,,その他の設立登記法人,大阪府,堺市中区,深井沢町３３０１番地,,27,142,5998236,,,,,,,2022-06-16,1,,,,,サカイノチカラ,0
721,3122001035968,新規,0,2022-06-16,2022-06-16,株式会社彩,,株式会社,大阪府,八尾市,桜ヶ丘１丁目２５番地エスリード八尾桜ヶ丘５０４号,,27,212,5810869,,,,,,,2022-06-16,1,,,,,アヤ,0
743,3150003002703,新規,0,2022-06-16,2022-06-16,合同会社Ｂａｍｂｏｏｋ,,合同会社,奈良県,奈良市,西ノ京町２４番地の１２,,29,201,6308042,,,,,,,2022-06-16,1,,,,,バンブーク,0
748,3180001151788,新規,0,2022-06-16,2022-06-16,栄伸観光株式会社,,株式会社,愛知県,稲沢市,長束町観音寺田１９４番,,23,220,4928167,,,,,,,2022-06-16,1,,,,,エイシンカンコウ,0
758,3180301036342,新規,0,2022-06-16,2022-06-16,株式会社雄大,,株式会社,愛知県,豊橋市,神野新田町字アノ割１７番地８,,23,201,4418077,,,,,,,2022-06-16,1,,,,,ユウダイ,0
764,3200001040187,新規,0,2022-06-16,2022-06-16,株式会社トライアングル,,株式会社,岐阜県,美濃加茂市,前平町２丁目７２－２アプローズＢ１０１号,,21,211,5050037,,,,,,,2022-06-16,1,,,,,トライアングル,0
769,3200005013354,新規,0,2022-06-16,2022-06-16,特定非営利活動法人美谷喜インターナショナルアンドユニバーサルデザイン,,その他の設立登記法人,岐阜県,岐阜市,春近古市場南１００番地,,21,201,5012525,,,,,,,2022-06-16,1,,,,,ミタニヨシインターナショナルアンドユニバーサルデザイン,0
778,3240001059950,新規,0,2022-06-16,2022-06-16,株式会社ＨＡＧＡＫＵＲＥ,,株式会社,広島県,呉市,川尻町西１丁目２２番２８号,,34,202,7372603,,,,,,,2022-06-16,1,,,,,ハガクレ,0
783,3240003005655,新規,0,2022-06-16,2022-06-16,合同会社ビジュー,,合同会社,広島県,広島市中区,西平塚町１番２－９０１号,,34,101,7300024,,,,,,,2022-06-16,1,,,,,ビジュー,0
786,3250003003096,新規,0,2022-06-16,2022-06-16,長州社中合同会社,,合同会社,山口県,山口市,前町７番１４号ハイツ前町２０１号,,35,203,7530057,,,,,,,2022-06-16,1,,,,,チョウシュウシャチュウ,0
797,3290001097888,新規,0,2022-06-16,2022-06-16,ＧＰ　Ｅｎｅｒｇｙ株式会社,,株式会社,福岡県,福岡市博多区,西月隈５丁目１８－４３,,40,132,8120857,,,,,,,2022-06-16,1,,,,,ジーピーエナジー,0
798,3290001097896,新規,0,2022-06-16,2022-06-16,株式会社ならっきい,,株式会社,福岡県,福岡市東区,香椎照葉７丁目６番８号,,40,131,8130017,,,,,,,2022-06-16,1,,,,,ナラッキイ,0
799,3290001097962,新規,0,2022-06-16,2022-06-16,ｅｃｏハウス株式会社,,株式会社,福岡県,福岡市中央区,平尾２丁目１６番３２号,,40,133,8100014,,,,,,,2022-06-16,1,,,,,エコハウス,0
802,3290003012639,新規,0,2022-06-16,2022-06-16,Ｃｏｄｅ　Ｇｙｍ合同会社,,合同会社,福岡県,福岡市中央区,大名２丁目６番１１号Ｃｏｄｅ　Ｇｙｍ,,40,133,8100041,,,,,,,2022-06-16,1,,,,,コードジム,0
803,3290005018725,新規,0,2022-06-16,2022-06-16,一般社団法人国際音楽文化振興協会,,その他の設立登記法人,福岡県,久留米市,高良内町８３番地,,40,203,8390852,,,,,,,2022-06-16,1,,,,,コクサイオンガクブンカシンコウキョウカイ,0
813,3330001029845,新規,0,2022-06-16,2022-06-16,株式会社ＴＡＴＳＵＭＩ,,株式会社,熊本県,熊本市北区,弓削１丁目２番７４号,,43,105,8618002,,,,,,,2022-06-16,1,,,,,タツミ,0
814,3330003009416,新規,0,2022-06-16,2022-06-16,合同会社アーシア,,合同会社,熊本県,玉名市,片諏訪８７番地片諏訪ハイツ２号,,43,206,8650044,,,,,,,2022-06-16,1,,,,,アーシア,0
821,3360003012094,新規,0,2022-06-16,2022-06-16,合同会社ネコロボ,,合同会社,沖縄県,那覇市,久茂地１丁目１番１号９階,,47,201,9000015,,,,,,,2022-06-16,1,,,,,ネコロボ,0
822,3370001048684,新規,0,2022-06-16,2022-06-16,ネクステージ・インターナショナル株式会社,,株式会社,宮城県,仙台市青葉区,一番町４丁目６番１号,,04,101,9800811,,,,,,,2022-06-16,1,,,,,ネクステージインターナショナル,0
840,3410001013213,新規,0,2022-06-16,2022-06-16,株式会社二大建設,,株式会社,秋田県,秋田市,新屋前野町１５番３２号,,05,201,0101635,,,,,,,2022-06-16,1,,,,,ニダイケンセツ,0
851,3450003002219,新規,0,2022-06-16,2022-06-16,合同会社むらなか,,合同会社,北海道,士別市,多寄町三十六線西２０番地,,01,220,0980475,,,,,,,2022-06-16,1,,,,,,0
854,3470003002200,新規,0,2022-06-16,2022-06-16,合同会社中村,,合同会社,香川県,高松市,川部町１５７６番地２７,,37,201,7618046,,,,,,,2022-06-16,1,,,,,ナカムラ,0
864,3700150109880,新規,0,2022-06-16,2022-06-16,６５ＤＫＺ　Ｊａｐａｎ，ＬＬＣ,,外国会社等,東京都,千代田区,丸の内１丁目８番３号丸の内トラストタワー本館２６階,,13,101,1000005,アメリカ合衆国デラウエア州ウィルミントン、オレンジ・ストリート１２０９、ナショナル・レジスタード・エージェント・インク内,,,,,,2022-06-16,1,,,,,シツクステイーフアイブデイーケーゼツトジヤパンエルエルシー,0
876,4010001227265,新規,0,2022-06-16,2022-06-16,七匹の小熊株式会社,,株式会社,東京都,千代田区,神田三崎町２丁目１０－１１Ｐｅｇビル,,13,101,1010061,,,,,,,2022-06-16,1,,,,,ナナヒキノコグマ,0
877,4010001227397,新規,0,2022-06-16,2022-06-16,ＮＵＳＳＮＥＬ株式会社,,株式会社,東京都,中央区,日本橋蛎殻町１丁目１９番１号４Ｆ,,13,102,1030014,,,,,,,2022-06-16,1,,,,,ナスネル,0
878,4010001227422,新規,0,2022-06-16,2022-06-16,株式会社Ｃｌｏｕｄ　Ｌａｂ,,株式会社,東京都,千代田区,内幸町２丁目１番４号,,13,101,1000011,,,,,,,2022-06-16,1,,,,,クラウドラボ,0
879,4010001227447,新規,0,2022-06-16,2022-06-16,株式会社ブルウシャイニング,,株式会社,東京都,中央区,日本橋人形町２丁目１番９号日本橋Ｔビル４０１,,13,102,1030013,,,,,,,2022-06-16,1,,,,,ブルウシャイニング,0
880,4010001227471,新規,0,2022-06-16,2022-06-16,ＳＫ＆Ｃｏ．株式会社,,株式会社,東京都,中央区,銀座６丁目１３－１６,,13,102,1040061,,,,,,,2022-06-16,1,,,,,エスケーアンドコー,0
882,4010003037902,新規,0,2022-06-16,2022-06-16,合同会社エミオンズ,,合同会社,東京都,中央区,銀座４丁目８番２号三福ビル３　Ｆ,,13,102,1040061,,,,,,,2022-06-16,1,,,,,エミオンズ,0
883,4010005035144,新規,0,2022-06-16,2022-06-16,一般社団法人運用１７号,,その他の設立登記法人,東京都,千代田区,飯田橋１丁目３番２号曙杉館４階ＲＳＭ清和コンサルティング株式会社内,,13,101,1020072,,,,,,,2022-06-16,1,,,,,ウンヨウジュウナナゴウ,0
891,4010401167912,新規,0,2022-06-16,2022-06-16,株式会社Ｔｅｃｈ　Ｂｅａｃｈ,,株式会社,東京都,港区,南青山２丁目２番１５号ウィン青山９４２,,13,103,1070062,,,,,,,2022-06-16,1,,,,,テックビーチ,0
892,4010401167929,新規,0,2022-06-16,2022-06-16,株式会社Ａｗａｋｅ,,株式会社,東京都,港区,南麻布１丁目８番２１－９０８号,,13,103,1060047,,,,,,,2022-06-16,1,,,,,アウェイク,0
893,4010401167961,新規,0,2022-06-16,2022-06-16,株式会社Ｈｙｂｎｅｔ,,株式会社,東京都,港区,南麻布３丁目２０番１号ＤＡＩＷＡ麻布テラス５階,,13,103,1060047,,,,,,,2022-06-16,1,,,,,ハイブネット,0
894,4010401167986,新規,0,2022-06-16,2022-06-16,株式会社ｅｎｕｃｏｌｏｒ,,株式会社,東京都,港区,南青山３丁目３番３号リビエラ南青山ビル,,13,103,1070062,,,,,,,2022-06-16,1,,,,,エヌカラー,0
895,4010401167994,新規,0,2022-06-16,2022-06-16,株式会社キャタライズグループ,,株式会社,東京都,港区,虎ノ門５丁目１３番１号虎ノ門４０МＴビル７階,,13,103,1050001,,,,,,,2022-06-16,1,,,,,キャタライズグループ,0
896,4010403027874,新規,0,2022-06-16,2022-06-16,オリーブルーム合同会社,,合同会社,東京都,港区,高輪４丁目４－１３ガーデン高輪５０６,,13,103,1080074,,,,,,,2022-06-16,1,,,,,オリーブルーム,0
897,4010403027916,新規,0,2022-06-16,2022-06-16,レオ合同会社,,合同会社,東京都,港区,虎ノ門３丁目２２番１０－２０１号,,13,103,1050001,,,,,,,2022-06-16,1,,,,,レオ,0
898,4010405021116,新規,0,2022-06-16,2022-06-16,Ｓｈｉｊｏ一般社団法人,,その他の設立登記法人,東京都,港区,虎ノ門３丁目２２番１０－２０１号,,13,103,1050001,,,,,,,2022-06-16,1,,,,,シジョウ,0
905,4010601061329,新規,0,2022-06-16,2022-06-16,Ｉｒｉｓ　ｃａｒｅｅｒ株式会社,,株式会社,東京都,江東区,海辺２２番３号,,13,108,1350012,,,,,,,2022-06-16,1,,,,,アイリスキャリア,0
906,4010601061337,新規,0,2022-06-16,2022-06-16,豊田国際株式会社,,株式会社,東京都,江東区,北砂３丁目２８番１－４０７号,,13,108,1360073,,,,,,,2022-06-16,1,,,,,トヨダコクサイ,0
909,4010703006280,新規,0,2022-06-16,2022-06-16,合同会社ＨＹＩＮＣ．,,合同会社,東京都,品川区,西五反田２丁目１５－１０グリンデル五反田６０１,,13,109,1410031,,,,,,,2022-06-16,1,,,,,エイチワイインク,0
920,4010901051038,新規,0,2022-06-16,2022-06-16,株式会社吉熊,,株式会社,東京都,世田谷区,粕谷３丁目１２－１８,,13,112,1570063,,,,,,,2022-06-16,1,,,,,ヨシクマ,0
921,4010901051046,新規,0,2022-06-16,2022-06-16,ｃｏｄｅｘ株式会社,,株式会社,東京都,世田谷区,三宿１丁目１４番８号三宿バドスクエア２１０,,13,112,1540005,,,,,,,2022-06-16,1,,,,,コーデックス,0
922,4010901051062,新規,0,2022-06-16,2022-06-16,深沢松本株式会社,,株式会社,東京都,世田谷区,深沢７丁目１３番１１号,,13,112,1580081,,,,,,,2022-06-16,1,,,,,フカサワマツモト,0
926,4011001148088,新規,0,2022-06-16,2022-06-16,株式会社マジカルビューティーアカデミー,,株式会社,東京都,渋谷区,神宮前６丁目２３番４号,,13,113,1500001,,,,,,,2022-06-16,1,,,,,マジカルビューティーアカデミー,0
930,4011003014866,新規,0,2022-06-16,2022-06-16,合同会社サパン,,合同会社,東京都,渋谷区,渋谷２丁目１９番１５号宮益坂ビルディング６０９,,13,113,1500002,,,,,,,2022-06-16,1,,,,,サパン,0
948,4011701025388,新規,0,2022-06-16,2022-06-16,株式会社醍醐,,株式会社,東京都,江戸川区,春江町５丁目１８番地５５号,,13,123,1340003,,,,,,,2022-06-16,1,,,,,ダイゴ,0
950,4011801040857,新規,0,2022-06-16,2022-06-16,株式会社和むら,,株式会社,東京都,足立区,佐野２丁目３０番７号,,13,121,1210053,,,,,,,2022-06-16,1,,,,,カズムラ,0
951,4011803005131,新規,0,2022-06-16,2022-06-16,合同会社ｓｉｇｎ,,合同会社,東京都,足立区,綾瀬４丁目３１番１５号サンヒルズ大室４０２号,,13,121,1200005,,,,,,,2022-06-16,1,,,,,サイン,0
955,4013101008948,新規,0,2022-06-16,2022-06-16,フジホーム株式会社,,株式会社,東京都,青梅市,河辺町９丁目１番地の１サンハイツ清峰１０６号室,,13,205,1980036,,,,,,,2022-06-16,1,,,,,フジホーム,0
967,4020001146919,新規,0,2022-06-16,2022-06-16,ＰＩＳＥＮ　ＪＡＰＡＮ株式会社,,株式会社,神奈川県,横浜市旭区,二俣川１丁目４６番１１号,,14,112,2410821,,,,,,,2022-06-16,1,,,,,ピセンジャパン,0
968,4020001146968,新規,0,2022-06-16,2022-06-16,株式会社イリス,,株式会社,神奈川県,横浜市都筑区,牛久保西３丁目８番１１号,,14,118,2240015,,,,,,,2022-06-16,1,,,,,イリス,0
972,4021003011838,新規,0,2022-06-16,2022-06-16,合同会社グッディー,,合同会社,神奈川県,三浦市,三崎町小網代１２０２番地３,,14,210,2380225,,,,,,,2022-06-16,1,,,,,グッディー,0
975,4030001148690,新規,0,2022-06-16,2022-06-16,株式会社楠山,,株式会社,埼玉県,さいたま市南区,白幡２丁目１０番２１号,,11,108,3360022,,,,,,,2022-06-16,1,,,,,クスヤマ,0
976,4030001148699,新規,0,2022-06-16,2022-06-16,ＴＭアシスト株式会社,,株式会社,埼玉県,入間市,宮寺５０５番地３,,11,225,3580014,,,,,,,2022-06-16,1,,,,,ティエムアシスト,0
977,4030001148724,新規,0,2022-06-16,2022-06-16,株式会社Ｒｅ．ｓｔａｒｔ．,,株式会社,埼玉県,川口市,大字石神１６４８番地の５,,11,203,3330823,,,,,,,2022-06-16,1,,,,,リスタート,0
978,4030001148740,新規,0,2022-06-16,2022-06-16,株式会社ＭＡＭＯＲＵ,,株式会社,埼玉県,北本市,東間７丁目８７番地２,,11,233,3640007,,,,,,,2022-06-16,1,,,,,マモル,0
979,4030001148749,新規,0,2022-06-16,2022-06-16,ＳＫ株式会社,,株式会社,埼玉県,越谷市,蒲生旭町１－５０,,11,222,3430842,,,,,,,2022-06-16,1,,,,,エスケー,0
983,4030003019618,新規,0,2022-06-16,2022-06-16,カニス合同会社,,合同会社,埼玉県,越谷市,東町２丁目２６６番地１０６,,11,222,3430826,,,,,,,2022-06-16,1,,,,,カニス,0
991,4040001123833,新規,0,2022-06-16,2022-06-16,株式会社シグナル,,株式会社,千葉県,柏市,若柴１７８番地４柏の葉キャンパス１４８街区２ショップ＆オフィス棟６Ｆ,,12,217,2770871,,,,,,,2022-06-16,1,,,,,シグナル,0
992,4040001123841,新規,0,2022-06-16,2022-06-16,株式会社ｂｌｕｅｅｅｅｍ,,株式会社,千葉県,柏市,末広町４－５金子ビル,,12,217,2770842,,,,,,,2022-06-16,1,,,,,ブルーム,0
993,4040001123882,新規,0,2022-06-16,2022-06-16,青い虎株式会社,,株式会社,千葉県,松戸市,上矢切１０１７番地の１－２Ｆ,,12,207,2710094,,,,,,,2022-06-16,1,,,,,アオイトラ,0
994,4040001123899,新規,0,2022-06-16,2022-06-16,株式会社ＬＯＷＤＥＤ,,株式会社,千葉県,白井市,中１６７番地１,,12,232,2701406,,,,,,,2022-06-16,1,,,,,ローデッド,0
1000,4040003020269,新規,0,2022-06-16,2022-06-16,合同会社エイト・パターカー,,合同会社,千葉県,市原市,八幡２３８４番地６４,,12,219,2900062,,,,,,,2022-06-16,1,,,,,エイトパターカー,0
1001,4040003020277,新規,0,2022-06-16,2022-06-16,ＲＫスタイル合同会社,,合同会社,千葉県,八千代市,八千代台西９丁目２３－５－１０６,,12,221,2760034,,,,,,,2022-06-16,1,,,,,アールケースタイル,0
1006,4060001034995,新規,0,2022-06-16,2022-06-16,株式会社デーリィーファーム富士山,,株式会社,栃木県,大田原市,小滝５９４番地３,,09,210,3240003,,,,,,,2022-06-16,1,,,,,デーリィーファームフジヤマ,0
1008,4060003004105,新規,0,2022-06-16,2022-06-16,合同会社富士見町訪問看護ステーション,,合同会社,栃木県,栃木市,富士見町１３番１７号サンライズアイ２０３,,09,203,3280044,,,,,,,2022-06-16,1,,,,,フジミチョウホウモンカンゴステーション,0
1014,4080001025019,新規,0,2022-06-16,2022-06-16,ジャパンベジタブル株式会社,,株式会社,静岡県,牧之原市,静波５５０番１,,22,226,4210422,,,,,,,2022-06-16,1,,,,,ジャパンベジタブル,0
1021,4100001035444,新規,0,2022-06-16,2022-06-16,和田ホールディングス株式会社,,株式会社,長野県,長野市,大字北長池字南長池境２０５５番地１,,20,201,3810025,,,,,,,2022-06-16,1,,,,,ワダホールディングス,0
1025,4100003006583,新規,0,2022-06-16,2022-06-16,ＮＮＡオーストラリア・コンサルティング合同会社,,合同会社,長野県,須坂市,墨坂３丁目５番２号,,20,207,3820099,,,,,,,2022-06-16,1,,,,,エヌエヌエーオーストラリアコンサルティング,0
1049,4120001246584,新規,0,2022-06-16,2022-06-16,タママネージメント株式会社,,株式会社,大阪府,大阪市阿倍野区,松崎町２丁目１番３６－１９０７号,,27,119,5450053,,,,,,,2022-06-16,1,,,,,タママネージメント,0
1050,4120001246659,新規,0,2022-06-16,2022-06-16,普瑞堂株式会社,,株式会社,大阪府,大阪市東成区,神路４丁目３－１０スターレジデンス新深江４０３号室,,27,115,5370003,,,,,,,2022-06-16,1,,,,,フズイドウ,0
1051,4120001246667,新規,0,2022-06-16,2022-06-16,一璽堂株式会社,,株式会社,大阪府,大阪市中央区,高津３丁目８－１９スターレジデンス黒門４０１号室,,27,128,5420072,,,,,,,2022-06-16,1,,,,,イチジドウ,0
1052,4120001246675,新規,0,2022-06-16,2022-06-16,徳永株式会社,,株式会社,大阪府,大阪市東成区,神路４丁目３－１０スターレジデンス新深江２０５号室,,27,115,5370003,,,,,,,2022-06-16,1,,,,,トクナガ,0
1053,4120001246709,新規,0,2022-06-16,2022-06-16,Ａ株式会社,,株式会社,大阪府,大阪市北区,南森町１丁目３番９号柏尾ビル３００号,,27,127,5300054,,,,,,,2022-06-16,1,,,,,エース,0
1054,4120001246717,新規,0,2022-06-16,2022-06-16,モノアジア株式会社,,株式会社,大阪府,大阪市中央区,島之内２丁目１５番１６号堺筋道頓堀グリーンコーポラス４１２号室,,27,128,5420082,,,,,,,2022-06-16,1,,,,,モノアジア,0
1055,4120001246741,新規,0,2022-06-16,2022-06-16,株式会社ＰＯＳＴ,,株式会社,大阪府,大阪市福島区,福島３丁目１番６８号,,27,103,5530003,,,,,,,2022-06-16,1,,,,,ポスト,0
1060,4120003021886,新規,0,2022-06-16,2022-06-16,合同会社Ｌｕａｎａ,,合同会社,大阪府,大阪市西区,新町２丁目５番１－２１０１号,,27,106,5500013,,,,,,,2022-06-16,1,,,,,ルアナ,0
1064,4120901046118,新規,0,2022-06-16,2022-06-16,株式会社ＣＬＩＰ,,株式会社,大阪府,豊中市,大島町３丁目５－２６－３０１,,27,203,5610824,,,,,,,2022-06-16,1,,,,,クリップ,0
1066,4130001071949,新規,0,2022-06-16,2022-06-16,Ｌｅ　ｍｉｅｎ株式会社,,株式会社,京都府,宇治市,寺山台２丁目７番地の１４,,26,204,6110032,,,,,,,2022-06-16,1,,,,,,0
1067,4130001071973,新規,0,2022-06-16,2022-06-16,株式会社ローテス,,株式会社,京都府,京都市中京区,新町通三条上る町頭町１１２番地,,26,104,6048206,,,,,,,2022-06-16,1,,,,,ローテス,0
1075,4140001126371,新規,0,2022-06-16,2022-06-16,ロクデン株式会社,,株式会社,兵庫県,神戸市中央区,相生町５丁目１７－１２－６０５,,28,110,6500025,,,,,,,2022-06-16,1,,,,,ロクデン,0
1080,4150001025622,新規,0,2022-06-16,2022-06-16,東山工業株式会社,,株式会社,奈良県,奈良市,南京終町７丁目５７５番地１,,29,201,6308141,,,,,,,2022-06-16,1,,,,,ヒガシヤマコウギョウ,0
1082,4160001024292,新規,0,2022-06-16,2022-06-16,株式会社マガ,,株式会社,滋賀県,大津市,瀬田２丁目１３番４４号,,25,201,5202134,,,,,,,2022-06-16,1,,,,,マガ,0
1083,4160003002593,新規,0,2022-06-16,2022-06-16,Ａｒｎｙ　Ａｕｓｔｉｎ合同会社,,合同会社,滋賀県,草津市,矢橋町１３１番地１２,,25,206,5250066,,,,,,,2022-06-16,1,,,,,アーニーオースティン,0
1095,4180301036333,新規,0,2022-06-16,2022-06-16,恋する株式会社,,株式会社,愛知県,安城市,御幸本町１０番１５号マンション御幸１０１,,23,212,4460032,,,,,,,2022-06-16,1,,,,,コイスル,0
1097,4180303005360,新規,0,2022-06-16,2022-06-16,Ｌｕｃｋｙ‐Ｖｉｌｌａｇｅ合同会社,,合同会社,愛知県,豊川市,伊奈町南山新田５０１番地,,23,207,4410105,,,,,,,2022-06-16,1,,,,,ラッキービレッジ,0
1103,4210003001524,新規,0,2022-06-16,2022-06-16,ＦＳアシスタンス合同会社,,合同会社,福井県,福井市,高柳２丁目６０３,,18,201,9100837,,,,,,,2022-06-16,1,,,,,エフエスアシスタンス,0
1114,4290001097895,新規,0,2022-06-16,2022-06-16,ヤスナガ製作所株式会社,,株式会社,福岡県,糟屋郡新宮町,下府４丁目９番８号,,40,345,8110112,,,,,,,2022-06-16,1,,,,,ヤスナガセイサクショ,0
1115,4290001097945,新規,0,2022-06-16,2022-06-16,Ｃｏｌｌｅｃｔｉｏｎ株式会社,,株式会社,福岡県,福岡市博多区,中洲２丁目３番５号中洲会館地下１階Ｂ１０１,,40,132,8100801,,,,,,,2022-06-16,1,,,,,コレクション,0
1116,4290001097961,新規,0,2022-06-16,2022-06-16,株式会社ＭＵＹ　ＢＩＥＮ,,株式会社,福岡県,福岡市中央区,大名２丁目１１番１９号,,40,133,8100041,,,,,,,2022-06-16,1,,,,,ムイビエン,0
1117,4290001097978,新規,0,2022-06-16,2022-06-16,株式会社黒よし,,株式会社,福岡県,福岡市博多区,上牟田１丁目１４番８号,,40,132,8120006,,,,,,,2022-06-16,1,,,,,クロヨシ,0
1120,4290005018724,新規,0,2022-06-16,2022-06-16,特定非営利活動法人ももち浜ユニバーサルビーチプロジェクト,,その他の設立登記法人,福岡県,福岡市中央区,渡辺通５丁目２４番３号東カン福岡第一ビル５階,,40,133,8100004,,,,,,,2022-06-16,1,,,,,モモチハマユニバーサルビーチプロジェクト,0
1122,4320001019144,新規,0,2022-06-16,2022-06-16,ＳＫコーポレーション株式会社,,株式会社,大分県,臼杵市,野津町大字八里合２１９６番地,,44,206,8750213,,,,,,,2022-06-16,1,,,,,エスケイコーポレーション,0
1123,4320003003831,新規,0,2022-06-16,2022-06-16,合同会社ｋｕｒｏｃｏｎｔｅｎｔｓ,,合同会社,大分県,大分市,城崎町３丁目２番２８号親和ビル１階,,44,201,8700045,,,,,,,2022-06-16,1,,,,,クロコンテンツ,0
1141,4360003012077,新規,0,2022-06-16,2022-06-16,ＡＳＯＫＡ　Ｗｅｌｌｎｅｓｓ合同会社,,合同会社,沖縄県,那覇市,久茂地１丁目１番１号９Ｆ,,47,201,9000015,,,,,,,2022-06-16,1,,,,,アソカウェルネス,0
1142,4360005006671,新規,0,2022-06-16,2022-06-16,一般社団法人島門中,,その他の設立登記法人,沖縄県,島尻郡八重瀬町,字新城８６８番地１,,47,362,9010503,,,,,,,2022-06-16,1,,,,,シマモンチュウ,0
1145,4370001048675,新規,0,2022-06-16,2022-06-16,スカイウォーカーセールスパートナーズ株式会社,,株式会社,宮城県,仙台市青葉区,木町通２丁目３番１９号,,04,101,9800801,,,,,,,2022-06-16,1,,,,,スカイウォーカーセールスパートナーズ,0
1149,4390003001969,新規,0,2022-06-16,2022-06-16,合同会社渡辺事務所,,合同会社,山形県,山形市,あかねケ丘１丁目３番２８号,,06,201,9902481,,,,,,,2022-06-16,1,,,,,ワタナベジムショ,0
1155,4430001086842,新規,0,2022-06-16,2022-06-16,株式会社Ｆａｉｔｈ　Ｉｎｖｅｓｔ,,株式会社,北海道,札幌市中央区,北一条西３丁目３番２７号札幌北１条駅前通りビル９階,,01,101,0600001,,,,,,,2022-06-16,1,,,,,,0
1156,4430001086850,新規,0,2022-06-16,2022-06-16,株式会社ネクステージ,,株式会社,北海道,札幌市東区,北二十五条東１２丁目２番６号,,01,103,0650025,,,,,,,2022-06-16,1,,,,,ネクステージ,0
1158,4430003014009,新規,0,2022-06-16,2022-06-16,合同会社高橋ファーム,00126892,合同会社,北海道,夕張郡栗山町,字継立３５８番地１,,01,429,0680353,,,,,,,2022-06-16,1,,,,,タカハシファーム,0
1168,4700150109979,新規,0,2022-06-16,2022-06-16,藤枝地域活性化推進協議会,,その他,静岡県,藤枝市,藤枝２丁目６番２６号,,22,214,4260025,,,,,,,2022-06-16,1,,,,,フジエダチイキカッセイカスイシンキョウギカイ,0
1176,5010001227405,新規,0,2022-06-16,2022-06-16,株式会社はやぶさ２,,株式会社,東京都,千代田区,平河町１丁目７番２０号,,13,101,1020093,,,,,,,2022-06-16,1,,,,,ハヤブサツー,0
1177,5010001227446,新規,0,2022-06-16,2022-06-16,株式会社インフォフリー,,株式会社,東京都,中央区,銀座１丁目２２番１１号銀座大竹ビジデンス２階,,13,102,1040061,,,,,,,2022-06-16,1,,,,,インフォフリー,0
1180,5010003037843,新規,0,2022-06-16,2022-06-16,合同会社ＨＬＮパートナーズ,,合同会社,東京都,中央区,晴海２丁目３－２・１１０１号室,,13,102,1040053,,,,,,,2022-06-16,1,,,,,エイチエルエヌパートナーズ,0
1181,5010003037901,新規,0,2022-06-16,2022-06-16,よつば合同会社,,合同会社,東京都,中央区,勝どき２丁目１８番１－１１１１号,,13,102,1040054,,,,,,,2022-06-16,1,,,,,ヨツバ,0
1182,5010003037918,新規,0,2022-06-16,2022-06-16,Ｋ．Ｓ．ＴＥＲＭＩＮＡＬＳ　ＪＡＰＡＮ合同会社,,合同会社,東京都,中央区,日本橋本石町４丁目６番７号日本橋日銀通りビル５階,,13,102,1030021,,,,,,,2022-06-16,1,,,,,ケイエスターミナルズジャパン,0
1183,5010005035151,新規,0,2022-06-16,2022-06-16,ＴＨＧホールディングス１一般社団法人,,その他の設立登記法人,東京都,千代田区,丸の内３丁目１番１号東京共同会計事務所内,,13,101,1000005,,,,,,,2022-06-16,1,,,,,ティーエイチジーホールディングスワン,0
1191,5010401167928,新規,0,2022-06-16,2022-06-16,株式会社わかもと年金プロダクション,,株式会社,東京都,港区,三田５丁目１番１２－１０１号,,13,103,1080073,,,,,,,2022-06-16,1,,,,,ワカモトネンキンプロダクション,0
1192,5010401167960,新規,0,2022-06-16,2022-06-16,ｌｅｓｓ　ｉｓ　ｍｏｒｅ株式会社,,株式会社,東京都,港区,白金台５丁目２番２５号白金ビル５０６,,13,103,1080071,,,,,,,2022-06-16,1,,,,,レスイズモア,0
1193,5010401167977,新規,0,2022-06-16,2022-06-16,Ｄ　Ｃａｐｉｔａｌ　Ｄｅｌｔａ株式会社,,株式会社,東京都,港区,南青山３丁目１番３号スプライン青山東急ビル３階,,13,103,1070062,,,,,,,2022-06-16,1,,,,,ディーキャピタルデルタ,0
1194,5010401167993,新規,0,2022-06-16,2022-06-16,Ｊｅｙ‐Ｊｅｙ　Ｇｌｏｂａｌ　Ｉｎｎｏｖａｔｉｏｎ　Ｃｏｍｐａｎｙ株式会社,,株式会社,東京都,港区,赤坂７丁目５番４６号かなりマンション３０６,,13,103,1070052,,,,,,,2022-06-16,1,,,,,ジェイジェイグローバルイノベーションカンパニー,0
1198,5010403027865,新規,0,2022-06-16,2022-06-16,白金台湾豆乳合同会社,,合同会社,東京都,港区,白金台５丁目１８番７号ダイヤビル１Ｆ,,13,103,1080071,,,,,,,2022-06-16,1,,,,,シロカネタイワントウニュウ,0
1199,5010403027881,新規,0,2022-06-16,2022-06-16,Ｃｌａｓｓｉｃ＆Ｄｅｓｉｇｎ合同会社,,合同会社,東京都,港区,六本木４丁目１２番８号１Ｆ,,13,103,1060032,,,,,,,2022-06-16,1,,,,,クラシックアンドデザイン,0
1200,5010405021115,新規,0,2022-06-16,2022-06-16,Ｓｈｉｊｏ　Ｒｅａｌ　Ｅｓｔａｔｅ特定目的会社,,その他の設立登記法人,東京都,港区,虎ノ門３丁目２２番１０－２０１号,,13,103,1050001,,,,,,,2022-06-16,1,,,,,シジョウリアルエステート,0
1204,5010603009589,新規,0,2022-06-16,2022-06-16,Ｓｐｒｙ合同会社,,合同会社,東京都,江東区,白河２丁目２２番１－４０２号,,13,108,1350021,,,,,,,2022-06-16,1,,,,,スプライ,0
1211,5010901051029,新規,0,2022-06-16,2022-06-16,株式会社神楽,,株式会社,東京都,世田谷区,世田谷４丁目５番４号ゼスティー松陰神社ＩＩ２０３,00126891,13,112,1540017,,,,,,,2022-06-16,1,,,,,カグラ,0
1212,5010901051037,新規,0,2022-06-16,2022-06-16,Ｂｌｅｓｓ株式会社,,株式会社,東京都,世田谷区,上野毛４丁目１１番９－３０２号,,13,112,1580093,,,,,,,2022-06-16,1,,,,,ブレス,0
1213,5010901051045,新規,0,2022-06-16,2022-06-16,ＧｒｏｗＭｅ株式会社,,株式会社,東京都,世田谷区,太子堂３丁目３８番１号－３２０,,13,112,1540004,,,,,,,2022-06-16,1,,,,,,0
1214,5010901051053,新規,0,2022-06-16,2022-06-16,株式会社ＫＮ　Ｖｉｄｅｏ　Ｐｒｏｄｕｃｔｉｏｎ,,株式会社,東京都,世田谷区,駒沢２丁目１８番１０－１０９号,,13,112,1540012,,,,,,,2022-06-16,1,,,,,ケーエヌビデオプロダクション,0
1215,5010901051061,新規,0,2022-06-16,2022-06-16,株式会社と未来,,株式会社,東京都,世田谷区,北沢２丁目３０番１１号,,13,112,1550031,,,,,,,2022-06-16,1,,,,,トミライ,0
1217,5010903007466,新規,0,2022-06-16,2022-06-16,合同会社ティーエヌ中根,,合同会社,東京都,世田谷区,奥沢１丁目１４番１９号,,13,112,1580083,,,,,,,2022-06-16,1,,,,,ティーエヌナカネ,0
1220,5011001148070,新規,0,2022-06-16,2022-06-16,ＡＷＢＣ株式会社,,株式会社,東京都,渋谷区,松濤１丁目２８番２号ＷＯＲＫＣＯＵＲＴ渋谷松濤,,13,113,1500046,,,,,,,2022-06-16,1,,,,,エーダブルビーシー,0
1221,5011001148112,新規,0,2022-06-16,2022-06-16,株式会社Ｇｏｌｄｅｎ　Ｃｌｏｓｅｔ,,株式会社,東京都,渋谷区,神宮前６丁目２３番４号,,13,113,1500001,,,,,,,2022-06-16,1,,,,,ゴールデンクローゼット,0
1222,5011001148145,新規,0,2022-06-16,2022-06-16,株式会社ＢＩＧ　ＶＩＳＩＯＮ,,株式会社,東京都,渋谷区,東１丁目２番２０－１６０４号ラ・トゥール渋谷,,13,113,1500011,,,,,,,2022-06-16,1,,,,,ビッグビジョン,0
1224,5011003014865,新規,0,2022-06-16,2022-06-16,合同会社みもっと,,合同会社,東京都,目黒区,目黒１丁目２４番７号,,13,110,1530063,,,,,,,2022-06-16,1,,,,,ミモット,0
1230,5011101099206,新規,0,2022-06-16,2022-06-16,株式会社ＯＮＳ　Ａｐａｒｔｍｅｎｔ,,株式会社,東京都,新宿区,西新宿３丁目３番１３号西新宿水間ビル６階,,13,104,1600023,,,,,,,2022-06-16,1,,,,,オンズアパートメント,0
1231,5011101099239,新規,0,2022-06-16,2022-06-16,レイワセダ株式会社,,株式会社,東京都,新宿区,高田馬場１丁目３２番地１０号,,13,104,1690075,,,,,,,2022-06-16,1,,,,,レイワセダ,0
1232,5011101099247,新規,0,2022-06-16,2022-06-16,株式会社世潤,,株式会社,東京都,新宿区,中落合１丁目７番１９号Ｋ’ｓ中落合３０１,,13,104,1610032,,,,,,,2022-06-16,1,,,,,セジュン,0
1233,5011101099271,新規,0,2022-06-16,2022-06-16,株式会社ＲＥＡＬ　ＳＴＹＬＥ,,株式会社,東京都,新宿区,百人町２丁目４番５号ライオンズマンション新大久保８０４,,13,104,1690073,,,,,,,2022-06-16,1,,,,,リアルスタイル,0
1234,5011103011861,新規,0,2022-06-16,2022-06-16,合同会社ルミライズ,,合同会社,東京都,新宿区,若葉３丁目１０番地,,13,104,1600011,,,,,,,2022-06-16,1,,,,,ルミライズ,0
1239,5011201023890,新規,0,2022-06-16,2022-06-16,株式会社オッケーテラバイト,,株式会社,東京都,中野区,本町４丁目２７番７－１０２号,,13,114,1640012,,,,,,,2022-06-16,1,,,,,オッケーテラバイト,0
1244,5011403003690,新規,0,2022-06-16,2022-06-16,合同会社ヴィジョンリバース,,合同会社,東京都,板橋区,蓮沼町２番３－１０２,,13,119,1740052,,,,,,,2022-06-16,1,,,,,ヴィジョンリバース,0
1251,5011803005130,新規,0,2022-06-16,2022-06-16,合同会社バンド・オブ・ブラザーズ,,合同会社,東京都,足立区,扇１丁目２７番２３号,,13,121,1230873,,,,,,,2022-06-16,1,,,,,バンドオブブラザーズ,0
1267,5013303006195,新規,0,2022-06-16,2022-06-16,合同会社高須賀,00126895,合同会社,東京都,豊島区,池袋本町３丁目１７番１６号,,13,116,1700011,,,,,,,2022-06-16,1,,,,,タカスガ,0
1275,5020003021904,新規,0,2022-06-16,2022-06-16,合同会社北海道マルシェジャパン,,合同会社,神奈川県,横浜市西区,北幸１丁目１１番１号水信ビル７階,,14,103,2200004,,,,,,,2022-06-16,1,,,,,ホッカイドウマルシェジャパン,0
1279,5021001076262,新規,0,2022-06-16,2022-06-16,株式会社コンサルティング,,株式会社,神奈川県,小田原市,栄町２丁目１２番２２号ヒロハイツＡ,,14,206,2500011,,,,,,,2022-06-16,1,,,,,コンサルティング,0
1280,5021001076270,新規,0,2022-06-16,2022-06-16,株式会社イマミライ,,株式会社,神奈川県,鎌倉市,御成町４－１５みゆきビル２Ｆ,,14,204,2480012,,,,,,,2022-06-16,1,,,,,イマミライ,0
1283,5021005012544,新規,0,2022-06-16,2022-06-16,一般社団法人神奈川園芸花き組合,,その他の設立登記法人,神奈川県,藤沢市,用田２６８５,,14,205,2520821,,,,,,,2022-06-16,1,,,,,カナガワエンゲイカキクミアイ,0
1290,5030001148698,新規,0,2022-06-16,2022-06-16,株式会社Ｊｅｎｎｙの庭と子供たち,,株式会社,埼玉県,深谷市,本田３５８６番地２,,11,218,3691105,,,,,,,2022-06-16,1,,,,,ジェニーノニワトコドモタチ,0
1291,5030001148715,新規,0,2022-06-16,2022-06-16,株式会社ネクステラインターナショナル,,株式会社,埼玉県,久喜市,菖蒲町下栢間３２５５番地２,,11,232,3460113,,,,,,,2022-06-16,1,,,,,ネクステラインターナショナル,0
1292,5030001148723,新規,0,2022-06-16,2022-06-16,株式会社アテルイ企画,,株式会社,埼玉県,坂戸市,薬師町１０番地２,,11,239,3500229,,,,,,,2022-06-16,1,,,,,アテルイキカク,0
1297,5030003019559,新規,0,2022-06-16,2022-06-16,合同会社Ｌｉｎｋ．ｓ,,合同会社,埼玉県,深谷市,上野台３０４３番地１,,11,218,3660801,,,,,,,2022-06-16,1,,,,,リンクス,0
1298,5030003019609,新規,0,2022-06-16,2022-06-16,ＡｄｄＰｒｏｄｕｃｔｉｏｎ合同会社,,合同会社,埼玉県,さいたま市緑区,大字大門８７８番地４,,11,109,3360963,,,,,,,2022-06-16,1,,,,,アドプロダクション,0
1299,5030003019617,新規,0,2022-06-16,2022-06-16,合同会社キャクタス,,合同会社,埼玉県,さいたま市桜区,大字上大久保９０４番地１８,,11,106,3380824,,,,,,,2022-06-16,1,,,,,キャクタス,0
1302,5040001123774,新規,0,2022-06-16,2022-06-16,株式会社福来,,株式会社,千葉県,船橋市,浜町３丁目２番３,,12,204,2730012,,,,,,,2022-06-16,1,,,,,フクライ,0
1303,5040001123816,新規,0,2022-06-16,2022-06-16,ズッキープロダクション株式会社,,株式会社,千葉県,流山市,南流山２丁目１３番地の９,,12,220,2700163,,,,,,,2022-06-16,1,,,,,ズッキープロダクション,0
1304,5040001123840,新規,0,2022-06-16,2022-06-16,株式会社ＧＡＬＡ,,株式会社,千葉県,松戸市,本町２０番地３,,12,207,2710091,,,,,,,2022-06-16,1,,,,,ガラ,0
1305,5040001123865,新規,0,2022-06-16,2022-06-16,千田鉄工株式会社,,株式会社,千葉県,匝瑳市,高３２８０番地,,12,235,2892132,,,,,,,2022-06-16,1,,,,,センダテッコウ,0
1306,5040001123881,新規,0,2022-06-16,2022-06-16,安利商事株式会社,,株式会社,千葉県,松戸市,上矢切１０１７番地の１－３０１号,,12,207,2710094,,,,,,,2022-06-16,1,,,,,アンリショウジ,0
1310,5040005021652,新規,0,2022-06-16,2022-06-16,アジア共生事業協同組合,,その他の設立登記法人,千葉県,市川市,末広２丁目５番１７号クレストパレス行徳１０２号,,12,203,2720121,,,,,,,2022-06-16,1,,,,,アジアキョウセイジギョウ,0
1312,5050001051223,新規,0,2022-06-16,2022-06-16,株式会社清和企画,,株式会社,茨城県,古河市,東本町３丁目７番９号,,08,204,3060013,,,,,,,2022-06-16,1,,,,,セイワキカク,0
1313,5050001051248,新規,0,2022-06-16,2022-06-16,株式会社ｐｏｎｏＮ,,株式会社,茨城県,つくば市,二の宮１丁目２番地２,,08,220,3050051,,,,,,,2022-06-16,1,,,,,ポノン,0
1316,5060001034994,新規,0,2022-06-16,2022-06-16,株式会社Ｔｈｅ　Ｆｏｒｍ,,株式会社,栃木県,矢板市,富田５３１番地１０,,09,211,3292145,,,,,,,2022-06-16,1,,,,,ザフォーム,0
1329,5110001036738,新規,0,2022-06-16,2022-06-16,株式会社ＮＩＪＩＫＡＷＡ　ＪＡＰＡＮ,,株式会社,新潟県,小千谷市,大字千谷甲２１３７番地１,,15,208,9470052,,,,,,,2022-06-16,1,,,,,ニジカワジャパン,0
1340,5120001246658,新規,0,2022-06-16,2022-06-16,天野株式会社,,株式会社,大阪府,大阪市東成区,神路４丁目３－１０スターレジデンス新深江８０７号室,,27,115,5370003,,,,,,,2022-06-16,1,,,,,アマノ,0
1341,5120001246674,新規,0,2022-06-16,2022-06-16,亘株式会社,,株式会社,大阪府,大阪市東成区,神路４丁目３－１０スターレジデンス新深江６０２号室,,27,115,5370003,,,,,,,2022-06-16,1,,,,,ワタル,0
1342,5120001246690,新規,0,2022-06-16,2022-06-16,株式会社ぐり,,株式会社,大阪府,大阪市福島区,海老江３丁目１４番１４号,,27,103,5530001,,,,,,,2022-06-16,1,,,,,グリ,0
1343,5120001246708,新規,0,2022-06-16,2022-06-16,朗日テクノロジー株式会社,,株式会社,大阪府,大阪市西区,九条南２丁目１６番１３号九条南ビル３０１号室,,27,106,5500025,,,,,,,2022-06-16,1,,,,,ロウニチテクノロジー,0
1344,5120001246716,新規,0,2022-06-16,2022-06-16,ＧＣＪ株式会社,,株式会社,大阪府,大阪市阿倍野区,昭和町２丁目１番２６号新栄プロパティー昭和町６Ａ,,27,119,5450011,,,,,,,2022-06-16,1,,,,,ジーシージェイ,0
1346,5120003021919,新規,0,2022-06-16,2022-06-16,合同会社ワンダーグラフィ,,合同会社,大阪府,大阪市中央区,南本町２丁目３番１２号ＥＤＧＥ本町３Ｆ,,27,128,5410054,,,,,,,2022-06-16,1,,,,,ワンダーグラフィ,0
1350,5120101065768,新規,0,2022-06-16,2022-06-16,株式会社Ｒ．Ｋ．Ｓ,,株式会社,大阪府,泉南郡熊取町,大久保中２丁目１０－３６,,27,361,5900403,,,,,,,2022-06-16,1,,,,,アールケイエス,0
1351,5120901046083,新規,0,2022-06-16,2022-06-16,株式会社ＳＨＩＮＳＥＩ,,株式会社,大阪府,豊中市,熊野町３丁目１６番２４号,,27,203,5600014,,,,,,,2022-06-16,1,,,,,シンセイ,0
1353,5122001035966,新規,0,2022-06-16,2022-06-16,株式会社ＩＤＥＡＣ,,株式会社,大阪府,八尾市,東久宝寺３丁目３番１３号,,27,212,5810002,,,,,,,2022-06-16,1,,,,,イデアック,0
1355,5130003007982,新規,0,2022-06-16,2022-06-16,合同会社ユーラシアンネットワーク,,合同会社,京都府,京都市中京区,角倉町２２３大原マンション４０２号室,,26,104,6040913,,,,,,,2022-06-16,1,,,,,ユーラシアンネットワーク,0
1365,5140001126362,新規,0,2022-06-16,2022-06-16,株式会社ＳＥＩＣＨＩ　ＫＯＢＥ,,株式会社,兵庫県,神戸市中央区,中山手通２丁目４番２２－５０１号,,28,110,6500004,,,,,,,2022-06-16,1,,,,,セイチコウベ,0
1366,5140001126370,新規,0,2022-06-16,2022-06-16,株式会社前川石材,,株式会社,兵庫県,伊丹市,緑ケ丘６丁目３３番地,,28,207,6640012,,,,,,,2022-06-16,1,,,,,マエカワセキザイ,0
1376,5150001025621,新規,0,2022-06-16,2022-06-16,株式会社Ｂｕｚｚｌｏｇｉｃ,,株式会社,奈良県,香芝市,穴虫３１２９－１２１,,29,210,6390252,,,,,,,2022-06-16,1,,,,,バズロジック,0
1377,5150003002701,新規,0,2022-06-16,2022-06-16,ＳｋｙＭ合同会社,,合同会社,奈良県,葛城市,南花内２２９番地,,29,211,6392126,,,,,,,2022-06-16,1,,,,,スカイム,0
1380,5160001024291,新規,0,2022-06-16,2022-06-16,株式会社Ｈｅｉａｎ,,株式会社,滋賀県,野洲市,小篠原３６５番地,,25,210,5202331,,,,,,,2022-06-16,1,,,,,ヘイアン,0
1390,5180001151737,新規,0,2022-06-16,2022-06-16,株式会社平山工業,,株式会社,愛知県,北名古屋市,弥勒寺西３丁目４５番地,,23,234,4810032,,,,,,,2022-06-16,1,,,,,ヒラヤマコウギョウ,0
1391,5180001151745,新規,0,2022-06-16,2022-06-16,株式会社ＲｅｅｄＷｅｌｌ,,株式会社,愛知県,春日井市,西尾町３５３番地９６,,23,206,4800302,,,,,,,2022-06-16,1,,,,,リードウェル,0
1392,5180001151778,新規,0,2022-06-16,2022-06-16,株式会社サンライズ,,株式会社,愛知県,名古屋市熱田区,三本松町１３番１９号ホワイトシャトー熱田３０６号,,23,109,4560032,,,,,,,2022-06-16,1,,,,,サンライズ,0
1393,5180001151794,新規,0,2022-06-16,2022-06-16,株式会社Ｖｉｓｉｏｎ,,株式会社,愛知県,名古屋市東区,泉１丁目１４番１号泉久屋サンコービル３Ｆ,,23,102,4610001,,,,,,,2022-06-16,1,,,,,ヴィジョン,0
1397,5180003023926,新規,0,2022-06-16,2022-06-16,ＬＴＶ特許合同会社,,合同会社,愛知県,大府市,吉田町１丁目５７番地の１,,23,223,4740048,,,,,,,2022-06-16,1,,,,,エルティブイトッキョ,0
1399,5180301036332,新規,0,2022-06-16,2022-06-16,株式会社ベジライフ,,株式会社,愛知県,豊川市,諏訪４丁目８８番地,,23,207,4420068,,,,,,,2022-06-16,1,,,,,ベジライフ,0
1401,5190001029528,新規,0,2022-06-16,2022-06-16,三和商事株式会社,,株式会社,三重県,鈴鹿市,住吉３丁目３０－２６森ビル２－Ｂ号室,,24,207,5130826,,,,,,,2022-06-16,1,,,,,サンワショウジ,0
1403,5200001040185,新規,0,2022-06-16,2022-06-16,ＹＵＲＩ’Ｓ　ＴＲＡＤＩＮＧ株式会社,,株式会社,岐阜県,瑞穂市,穂積５３７番地１,,21,216,5010223,,,,,,,2022-06-16,1,,,,,ユリズトレーディング,0
1408,5230003001868,新規,0,2022-06-16,2022-06-16,合同会社Ａｍｏｕｒ,,合同会社,富山県,富山市,太郎丸西町２丁目８番地１０タウンハウス８８－１０５号室,,16,201,9398271,,,,,,,2022-06-16,1,,,,,アムール,0
1418,5260001036938,新規,0,2022-06-16,2022-06-16,株式会社Ｆｉｓｔ　ｂｕｍｐ,,株式会社,岡山県,倉敷市,福田町福田２３００番地１６,,33,202,7128041,,,,,,,2022-06-16,1,,,,,フィストバンプ,0
1420,5260003003944,新規,0,2022-06-16,2022-06-16,合名会社プレシャス,,合名会社,岡山県,総社市,清音上中島３３６番地１,,33,208,7191175,,,,,,,2022-06-16,1,,,,,プレシャス,0
1421,5270001008556,新規,0,2022-06-16,2022-06-16,まる結び株式会社,,株式会社,鳥取県,東伯郡琴浦町,大字八橋７７５番地８４,,31,371,6892301,,,,,,,2022-06-16,1,,,,,マルムスビ,0
1423,5290001097952,新規,0,2022-06-16,2022-06-16,株式会社久伸土木建設,,株式会社,福岡県,久留米市,山本町豊田１２３５－１,,40,203,8390827,,,,,,,2022-06-16,1,,,,,キュウシンドボクケンセツ,0
1424,5290001097977,新規,0,2022-06-16,2022-06-16,株式会社オフィスアーリィ,,株式会社,福岡県,福岡市中央区,赤坂３丁目４番２２－１５０２号コアマンションけやき通りプレジオ,,40,133,8100042,,,,,,,2022-06-16,1,,,,,オフィスアーリィ,0
1430,5290003012629,新規,0,2022-06-16,2022-06-16,合同会社プエス,,合同会社,福岡県,福岡市中央区,荒戸３丁目３番１９号,,40,133,8100062,,,,,,,2022-06-16,1,,,,,プエス,0
1431,5290005018723,新規,0,2022-06-16,2022-06-16,一般社団法人日本研修機構,,その他の設立登記法人,福岡県,福岡市中央区,六本松４丁目９番１０号,,40,133,8100044,,,,,,,2022-06-16,1,,,,,ニッポンケンシュウキコウ,0
1435,5330003009422,新規,0,2022-06-16,2022-06-16,ＤＮＭ貿易合同会社,,合同会社,熊本県,熊本市東区,御領２丁目１６番７１－１０３号,,43,102,8618035,,,,,,,2022-06-16,1,,,,,ディーエヌエムボウエキ,0
1447,5380001032900,新規,0,2022-06-16,2022-06-16,株式会社大軌社,,株式会社,福島県,いわき市,小名浜林城字柳町１１番地の１２,,07,204,9718122,,,,,,,2022-06-16,1,,,,,タイキシャ,0
1450,5390001016935,新規,0,2022-06-16,2022-06-16,高伸株式会社,00126903,株式会社,山形県,西置賜郡白鷹町,大字畔藤６４７番地２９,,06,402,9920841,,,,,,,2022-06-16,1,,,,,コウシン,0
1461,5430003014024,新規,0,2022-06-16,2022-06-16,合同会社ここから,,合同会社,北海道,札幌市西区,八軒八条東５丁目５番１２号プランドールＤ号,,01,107,0630868,,,,,,,2022-06-16,1,,,,,ココカラ,0
1472,5500001024281,新規,0,2022-06-16,2022-06-16,株式会社Ｃｈｅｓｔｎｕｔ,,株式会社,愛媛県,松山市,来住町１４９０番地１２アルファスマート久米９０３号,,38,201,7911102,,,,,,,2022-06-16,1,,,,,チェスナット,0
1479,5700150109978,新規,0,2022-06-16,2022-06-16,根尾地域活性化推進協議会,,その他,岐阜県,本巣市,根尾樽見２７番地の７,,21,218,5011522,,,,,,,2022-06-16,1,,,,,ネオチイキカッセイカスイシンキョウギカイ,0
1489,6010001227387,新規,0,2022-06-16,2022-06-16,株式会社ＳＯＮＯＳＡＫＩ,,株式会社,東京都,千代田区,九段南１丁目５番６号りそな九段ビル５Ｆ・ＫＳフロア,,13,101,1020074,,,,,,,2022-06-16,1,,,,,ソノサキ,0
1490,6010001227445,新規,0,2022-06-16,2022-06-16,大山投資株式会社,,株式会社,東京都,中央区,晴海３丁目１３番１号,,13,102,1040053,,,,,,,2022-06-16,1,,,,,オオヤマトウシ,0
1491,6010001227478,新規,0,2022-06-16,2022-06-16,株式会社シエルブルー,,株式会社,東京都,中央区,日本橋２丁目２番３号ＲＩＳＨＥビルＵＣＦ４０２,,13,102,1030027,,,,,,,2022-06-16,1,,,,,シエルブルー,0
1493,6010003037917,新規,0,2022-06-16,2022-06-16,合同会社ワイズリビング,,合同会社,東京都,千代田区,神田小川町３丁目１１－２インペリアルお茶の水１２５号室,,13,101,1010052,,,,,,,2022-06-16,1,,,,,ワイズリビング,0
1494,6010005035150,新規,0,2022-06-16,2022-06-16,一般社団法人ビジネスと人権対話救済機構,,その他の設立登記法人,東京都,千代田区,大手町１丁目１番３号,,13,101,1000004,,,,,,,2022-06-16,1,,,,,ビジネストジンケンタイワキュウサイキコウ,0
1495,6010401031067,新規,0,2022-06-16,2022-06-16,株式会社若菜,,株式会社,東京都,港区,芝大門２丁目１番８号,,13,103,1050012,,,,,,,2022-06-16,1,,,,,ワカナ,0
1500,6010401167968,新規,0,2022-06-16,2022-06-16,株式会社ＭＹ,,株式会社,東京都,港区,海岸１丁目４－２２・１０階,,13,103,1050022,,,,,,,2022-06-16,1,,,,,エムワイ,0
1501,6010401167976,新規,0,2022-06-16,2022-06-16,株式会社ＣＨＡＩＲ　ＭＡＮ,,株式会社,東京都,港区,南青山２丁目２番１５号,,13,103,1070062,,,,,,,2022-06-16,1,,,,,チェアマン,0
1502,6010401167992,新規,0,2022-06-16,2022-06-16,株式会社１０１,,株式会社,東京都,港区,南青山５丁目１７番２号,,13,103,1070062,,,,,,,2022-06-16,1,,,,,ワンオーワン,0
1504,6010403027567,新規,0,2022-06-16,2022-06-16,Ｃｏｍｍｏｎｓ合同会社,,合同会社,東京都,港区,浜松町２丁目２番１５号浜松町ダイヤビル２Ｆ,,13,103,1050013,,,,,,,2022-06-16,1,,,,,コモンズ,0
1505,6010403027880,新規,0,2022-06-16,2022-06-16,Ｃｌａｓｓｉｃ＆Ｏｒｇａｎｉｚｅ合同会社,,合同会社,東京都,港区,六本木４丁目１２番８号１Ｆ,,13,103,1060032,,,,,,,2022-06-16,1,,,,,クラシックアンドオーガナイズ,0
1507,6010601061343,新規,0,2022-06-16,2022-06-16,株式会社ＢＯＷ,,株式会社,東京都,江東区,亀戸７丁目３７番１５号クレストフォルム亀戸ビュータワー９０２,,13,108,1360071,,,,,,,2022-06-16,1,,,,,ボウ,0
1508,6010601061351,新規,0,2022-06-16,2022-06-16,株式会社セルプラージュ,,株式会社,東京都,江東区,塩浜２丁目１２番１０号,,13,108,1350043,,,,,,,2022-06-16,1,,,,,セルプラージュ,0
1509,6010602013657,新規,0,2022-06-16,2022-06-16,有限会社日神,,有限会社,東京都,墨田区,江東橋２丁目２３番５号,,13,107,1300022,,,,,,,2022-06-16,1,,,,,,0
1518,6010901051036,新規,0,2022-06-16,2022-06-16,ヘルシーパイレーツ株式会社,,株式会社,東京都,世田谷区,深沢５丁目１３番１０号,,13,112,1580081,,,,,,,2022-06-16,1,,,,,ヘルシーパイレーツ,0
1520,6011001148078,新規,0,2022-06-16,2022-06-16,株式会社Ｎｅｘｔ　Ｐａｒａｄｉｇｍ２,,株式会社,東京都,目黒区,洗足１丁目２６番１－２０２号,,13,110,1520012,,,,,,,2022-06-16,1,,,,,ネクストパラダイムツー,0
1521,6011001148103,新規,0,2022-06-16,2022-06-16,株式会社アッシュ会計パートナーズ,,株式会社,東京都,渋谷区,神宮前６丁目２８番９号東武ビル５０４,,13,113,1500001,,,,,,,2022-06-16,1,,,,,,0
1524,6011101099254,新規,0,2022-06-16,2022-06-16,株式会社Ｖｉｖｉ　Ｌｕｋｅ,,株式会社,東京都,新宿区,下宮比町２番６号５階,,13,104,1620822,,,,,,,2022-06-16,1,,,,,ビビルーク,0
1526,6011301003346,新規,0,2022-06-16,2022-06-16,ジョインズ株式会社,,株式会社,東京都,杉並区,高円寺北１丁目９番１２号,,13,115,1660002,,,,,,,2022-06-16,1,,,,,ジョインズ,0
1537,6013303006194,新規,0,2022-06-16,2022-06-16,マルベリーワークス合同会社,,合同会社,東京都,豊島区,巣鴨４丁目２２番２号,,13,116,1700002,,,,,,,2022-06-16,1,,,,,マルベリーワークス,0
1545,6020001146974,新規,0,2022-06-16,2022-06-16,株式会社アンビエントプロパティ,,株式会社,神奈川県,横浜市戸塚区,平戸４丁目１６番１２－５号,,14,110,2440802,,,,,,,2022-06-16,1,,,,,アンビエントプロパティ,0
1547,6020003021944,新規,0,2022-06-16,2022-06-16,ＢｌｕｅＳｔａｒ　ｈａｐｐｉｎｅｓｓ合同会社,,合同会社,神奈川県,川崎市中原区,上小田中３丁目２９番２,,14,133,2110053,,,,,,,2022-06-16,1,,,,,ブルースターハピネス,0
1550,6021001076253,新規,0,2022-06-16,2022-06-16,株式会社ディスイズミー,,株式会社,神奈川県,藤沢市,藤沢５４５番６９,,14,205,2510052,,,,,,,2022-06-16,1,,,,,ディスイズミー,0
1555,6030001148689,新規,0,2022-06-16,2022-06-16,株式会社ガレアス,,株式会社,埼玉県,川口市,安行出羽２丁目５番９号,,11,203,3340052,,,,,,,2022-06-16,1,,,,,ガレアス,0
1556,6030001148697,新規,0,2022-06-16,2022-06-16,株式会社Ａ・ＬＩＦＥ,,株式会社,埼玉県,さいたま市中央区,八王子３丁目３０番９－６号,,11,105,3380006,,,,,,,2022-06-16,1,,,,,エーライフ,0
1557,6030001148706,新規,0,2022-06-16,2022-06-16,株式会社フライオープン,,株式会社,埼玉県,さいたま市北区,土呂町１丁目２４－１５西口高安ビル３Ｆ,00126896,11,102,3310804,,,,,,,2022-06-16,1,,,,,フライオープン,0
1558,6030001148722,新規,0,2022-06-16,2022-06-16,株式会社無敵時間,,株式会社,埼玉県,本庄市,けや木１丁目２１番１号,,11,211,3670042,,,,,,,2022-06-16,1,,,,,ムテキジカン,0
1559,6030001148739,新規,0,2022-06-16,2022-06-16,城北ホールディングス株式会社,,株式会社,埼玉県,東松山市,大字新郷４０１番地,,11,212,3550071,,,,,,,2022-06-16,1,,,,,ジョウホクホールディングス,0
1563,6030003019616,新規,0,2022-06-16,2022-06-16,ＭＹ　Ｃａｐｉｔａｌ　ＬＬＣ合同会社,,合同会社,埼玉県,さいたま市中央区,新中里４丁目１５番２－２０７号,,11,105,3380011,,,,,,,2022-06-16,1,,,,,マイキャピタルエルエルシー,0
1573,6040001123897,新規,0,2022-06-16,2022-06-16,ライノ商事株式会社,,株式会社,千葉県,白井市,冨士１５１－２－５２０,,12,232,2701432,,,,,,,2022-06-16,1,,,,,ライノショウジ,0
1574,6040001123914,新規,0,2022-06-16,2022-06-16,株式会社ＦＩＲＥ,,株式会社,千葉県,松戸市,馬橋１９０４番地プロミネント松戸８０１号,,12,207,2710051,,,,,,,2022-06-16,1,,,,,ファイア,0
1575,6040003020242,新規,0,2022-06-16,2022-06-16,合同会社ＭＩＫＡＤＯ　ＴＯＫＹＯ,,合同会社,千葉県,柏市,若柴１７８番地４柏の葉キャンパス１４８街区２ショップ＆オフィス棟６１２号,,12,217,2770871,,,,,,,2022-06-16,1,,,,,ミカドトウキョウ,0
1585,6080001025017,新規,0,2022-06-16,2022-06-16,株式会社ティフォンケアアシスト,,株式会社,静岡県,静岡市葵区,駒形通２丁目５番１６号,,22,101,4200042,,,,,,,2022-06-16,1,,,,,ティフォンケアアシスト,0
1589,6080101023358,新規,0,2022-06-16,2022-06-16,株式会社シュウガ建装,,株式会社,静岡県,沼津市,下香貫猪沼１０９７番地の２ソシアルコート２－１０２,,22,203,4100822,,,,,,,2022-06-16,1,,,,,シュウガケンソウ,0
1591,6100001035450,新規,0,2022-06-16,2022-06-16,トリプルストック株式会社,,株式会社,長野県,松本市,北深志１丁目４番２３号,,20,202,3900872,,,,,,,2022-06-16,1,,,,,トリプルストック,0
1593,6100002039327,新規,0,2022-06-16,2022-06-16,有限会社加藤綿店,,有限会社,長野県,長野市,大字鶴賀田町２４１７番地,,20,201,3800815,,,,,,,2022-06-16,1,,,,,カトウワタテン,0
1603,6120001246608,新規,0,2022-06-16,2022-06-16,株式会社ビコダ,,株式会社,大阪府,大阪市住吉区,遠里小野３丁目１０番９－３２号,,27,120,5580032,,,,,,,2022-06-16,1,,,,,ビコダ,0
1604,6120001246649,新規,0,2022-06-16,2022-06-16,株式会社Ａ’ｓ,,株式会社,大阪府,大阪市中央区,法円坂１丁目１番４０号,,27,128,5400006,,,,,,,2022-06-16,1,,,,,エース,0
1605,6120001246673,新規,0,2022-06-16,2022-06-16,雅士株式会社,,株式会社,大阪府,大阪市東成区,神路４丁目３－１０スターレジデンス新深江５０６号室,,27,115,5370003,,,,,,,2022-06-16,1,,,,,ガシ,0
1608,6120003021901,新規,0,2022-06-16,2022-06-16,エープラス合同会社,,合同会社,大阪府,大阪市北区,梅田２丁目２－２－１９階,,27,127,5300001,,,,,,,2022-06-16,1,,,,,エープラス,0
1618,6122001035949,新規,0,2022-06-16,2022-06-16,株式会社水道救急センター,,株式会社,大阪府,四條畷市,岡山２丁目１番１０号,,27,229,5750002,,,,,,,2022-06-16,1,,,,,スイドウキュウキュウセンター,0
1619,6122001035965,新規,0,2022-06-16,2022-06-16,株式会社ハオ・コミュニケーションズ,,株式会社,大阪府,八尾市,永畑町１丁目２番４３号,,27,212,5810083,,,,,,,2022-06-16,1,,,,,ハオコミュニケーションズ,0
1629,6130001071971,新規,0,2022-06-16,2022-06-16,株式会社Ｋ’ｓ　Ｓｔｙｌｅ,,株式会社,京都府,京都市山科区,大宅細田町８６番地,,26,110,6078189,,,,,,,2022-06-16,1,,,,,ケーズスタイル,0
1630,6130001071988,新規,0,2022-06-16,2022-06-16,株式会社アトリエ欅舎,,株式会社,京都府,京都市北区,小山上総町１７番地,,26,101,6038143,,,,,,,2022-06-16,1,,,,,アトリエケヤキシャ,0
1635,6130005016502,新規,0,2022-06-16,2022-06-16,小規模保全技術研究所一般社団法人,,その他の設立登記法人,京都府,京都市西京区,御陵大原１番地３９京大桂ベンチャープラザ南館２１０７号室,,26,111,6158245,,,,,,,2022-06-16,1,,,,,ショウキボホゼンギジュツケンキュウジョ,0
1645,6160003002591,新規,0,2022-06-16,2022-06-16,合同会社まほろば,,合同会社,滋賀県,彦根市,京町３丁目８番７－Ｄ号,,25,202,5220081,,,,,,,2022-06-16,1,,,,,マホロバ,0
1653,6180001151744,新規,0,2022-06-16,2022-06-16,株式会社Ｍ＆Ｙ,,株式会社,愛知県,名古屋市緑区,相原郷２丁目５１８番地,,23,114,4580033,,,,,,,2022-06-16,1,,,,,エムアンドワイ,0
1664,6180301036331,新規,0,2022-06-16,2022-06-16,株式会社ＤＩＧＳＡＷ　ＥＮＴＥＲＴＡＩＮＭＥＮＴ,,株式会社,愛知県,岡崎市,不吹町一丁目１７４番地　ＳＯＬＩＤビル３０１号室,,23,202,4440817,,,,,,,2022-06-16,1,,,,,ジグソーエンターテイメント,0
1665,6180303005359,新規,0,2022-06-16,2022-06-16,合同会社Ｂｅｅ　Ａｆｆｅｃｔ　Ｊａｐａｎ　ＴＳ,,合同会社,愛知県,豊田市,永覚町宮西３９番地８,,23,211,4701205,,,,,,,2022-06-16,1,,,,,ビーアフェクトジャパンティーエス,0
1677,6230003001867,新規,0,2022-06-16,2022-06-16,合同会社一華,,合同会社,富山県,富山市,太郎丸西町２丁目８番地１０タウンハウス８８－２０５号室,,16,201,9398271,,,,,,,2022-06-16,1,,,,,イチカ,0
1695,6290001097877,新規,0,2022-06-16,2022-06-16,株式会社Ｃｏｍｐａｓｓ,,株式会社,福岡県,福岡市中央区,渡辺通１丁目１番１号,,40,133,8100004,,,,,,,2022-06-16,1,,,,,コンパス,0
1696,6290001097935,新規,0,2022-06-16,2022-06-16,株式会社Ｒ’ｅａｌｉｓｅｒ,,株式会社,福岡県,糟屋郡粕屋町,大字仲原２９２４番地１７（３階）,,40,349,8112304,,,,,,,2022-06-16,1,,,,,レゼリア,0
1697,6290001097943,新規,0,2022-06-16,2022-06-16,株式会社河津左官業,,株式会社,福岡県,大野城市,大城１丁目３番２号,,40,219,8160911,,,,,,,2022-06-16,1,,,,,カワヅサカンギョウ,0
1700,6290003012636,新規,0,2022-06-16,2022-06-16,ＴＫＲプロモーション合同会社,,合同会社,福岡県,福岡市中央区,渡辺通４丁目１番１号,,40,133,8100004,,,,,,,2022-06-16,1,,,,,ティーケーアールプロモーション,0
1703,6330003009421,新規,0,2022-06-16,2022-06-16,合同会社みはな水産,,合同会社,熊本県,八代市,本町１丁目４番５号,,43,202,8660861,,,,,,,2022-06-16,1,,,,,ミハナスイサン,0
1709,6370001048657,新規,0,2022-06-16,2022-06-16,株式会社まるごとや,,株式会社,宮城県,亘理郡山元町,鷲足字中道４－２３,,04,362,9892204,,,,,,,2022-06-16,1,,,,,マルゴトヤ,0
1710,6380001032908,新規,0,2022-06-16,2022-06-16,株式会社鹿鳴興産,,株式会社,福島県,福島市,上名倉字儘上２２番地の１,,07,201,9602155,,,,,,,2022-06-16,1,,,,,ロクメイコウサン,0
1720,6420001017895,新規,0,2022-06-16,2022-06-16,ＳｔａｒＦｉｓｈ株式会社,,株式会社,青森県,三沢市,下久保３丁目７－６,,02,207,0330023,,,,,,,2022-06-16,1,,,,,スターフィッシュ,0
1725,6430001086857,新規,0,2022-06-16,2022-06-16,株式会社フェリックスエステート,,株式会社,北海道,岩見沢市,北三条西４丁目２番１４号,,01,210,0680043,,,,,,,2022-06-16,1,,,,,フェリックスエステート,0
1730,6430003014023,新規,0,2022-06-16,2022-06-16,カプリチオーソ・エンタープライズ合同会社,,合同会社,北海道,石狩市,厚田区望来５４－６,,01,235,0613523,,,,,,,2022-06-16,1,,,,,カプリチオーソエンタープライズ,0
1737,6480003001842,新規,0,2022-06-16,2022-06-16,合同会社大橋,,合同会社,徳島県,阿南市,那賀川町大京原１５８番地１,,36,204,7791233,,,,,,,2022-06-16,1,,,,,オオハシ,0
1739,6700150109977,新規,0,2022-06-16,2022-06-16,田賀区,,その他,岡山県,和気郡和気町,田賀７２番地１田賀公民館,,33,346,7090524,,,,,,,2022-06-16,1,,,,,タガク,0
1748,7010001227444,新規,0,2022-06-16,2022-06-16,岳人株式会社,,株式会社,東京都,中央区,日本橋兜町１５－１２兜町ＭＯＣビル７Ｆ,,13,102,1030026,,,,,,,2022-06-16,1,,,,,ガクト,0
1751,7010003037924,新規,0,2022-06-16,2022-06-16,ＴＨＧホールディングス１合同会社,,合同会社,東京都,千代田区,丸の内３丁目１番１号東京共同会計事務所内,,13,101,1000005,,,,,,,2022-06-16,1,,,,,ティーエイチジーホールディングスワン,0
1754,7010005035141,新規,0,2022-06-16,2022-06-16,一般社団法人ブリッジ３号,,その他の設立登記法人,東京都,中央区,日本橋１丁目４番１号日本橋一丁目ビルディング,,13,102,1030027,,,,,,,2022-06-16,1,,,,,ブリッジサンゴウ,0
1755,7010101015220,新規,0,2022-06-16,2022-06-16,株式会社パマ・エンタープライズ,,株式会社,東京都,八王子市,諏訪町２８２番地１,,13,201,1930812,,,,,,,2022-06-16,1,,,,,パマエンタープライズ,0
1761,7010401167975,新規,0,2022-06-16,2022-06-16,株式会社ＡＮＤＢＯＤＹ,,株式会社,東京都,港区,六本木７丁目１５番１７号,,13,103,1060032,,,,,,,2022-06-16,1,,,,,アンドボディ,0
1762,7010401168016,新規,0,2022-06-16,2022-06-16,マウンテンビュー株式会社,,株式会社,東京都,港区,浜松町２丁目２番１５号浜松町ダイヤビル２階,,13,103,1050013,,,,,,,2022-06-16,1,,,,,マウンテンビュー,0
1763,7010403027905,新規,0,2022-06-16,2022-06-16,合同会社ＺＥＮＩＮ,,合同会社,東京都,港区,赤坂９丁目１番９号,,13,103,1070052,,,,,,,2022-06-16,1,,,,,ゼンイン,0
1766,7010601061342,新規,0,2022-06-16,2022-06-16,株式会社ｃｈａｒｍ,,株式会社,東京都,江東区,亀戸２丁目２４番１号ポゾビアンカＩＩ３０１,00126901,13,108,1360071,,,,,,,2022-06-16,1,,,,,チャーム,0
1768,7010603009587,新規,0,2022-06-16,2022-06-16,合同会社ヴォーグ・イースト,,合同会社,東京都,江東区,北砂３丁目５番５号ゴイブチビル別館１階,,13,108,1360073,,,,,,,2022-06-16,1,,,,,ヴォーグイースト,0
1773,7010703006278,新規,0,2022-06-16,2022-06-16,沖成合同会社,,合同会社,東京都,品川区,上大崎４丁目５番２６－５－８０２号,,13,109,1410021,,,,,,,2022-06-16,1,,,,,オキナリ,0
1779,7010901051035,新規,0,2022-06-16,2022-06-16,株式会社マサ不動産,,株式会社,東京都,世田谷区,桜上水２丁目７番１７号,,13,112,1560045,,,,,,,2022-06-16,1,,,,,マサフドウサン,0
1780,7010901051051,新規,0,2022-06-16,2022-06-16,株式会社Ｂｅ　ｔｈｒｅｅ,,株式会社,東京都,世田谷区,三軒茶屋２丁目２４番８－１０４号,,13,112,1540024,,,,,,,2022-06-16,1,,,,,ビースリー,0
1781,7010903007456,新規,0,2022-06-16,2022-06-16,とぶとりっぷ合同会社,,合同会社,東京都,世田谷区,代田２丁目１番１９号世田谷代田レジデンス３０１,,13,112,1550033,,,,,,,2022-06-16,1,,,,,トブトリップ,0
1782,7010903007464,新規,0,2022-06-16,2022-06-16,ヴヴヴ合同会社,,合同会社,東京都,世田谷区,北沢２丁目９番２５号下北沢ビル３階,,13,112,1550031,,,,,,,2022-06-16,1,,,,,ヴヴヴ,0
1786,7011001148085,新規,0,2022-06-16,2022-06-16,株式会社Ｒｉｖｅｒ　Ｆｉｇｈｔ,,株式会社,東京都,目黒区,下目黒６丁目５番２１－４４２号,,13,110,1530064,,,,,,,2022-06-16,1,,,,,リバーファイト,0
1794,7011101099237,新規,0,2022-06-16,2022-06-16,ＭＩＳＡＷＡ　ＲＥＮＯＶＡＴＩＯＮ株式会社,,株式会社,東京都,新宿区,西新宿７丁目５番６号新宿ダイカンプラザ７５６－８０５号,,13,104,1600023,,,,,,,2022-06-16,1,,,,,ミサワリノベーション,0
1795,7011101099245,新規,0,2022-06-16,2022-06-16,株式会社Ａｗａｋｅ,,株式会社,東京都,新宿区,西新宿７丁目７番地３３号新銘ビル４階,,13,104,1600023,,,,,,,2022-06-16,1,,,,,アウェイク,0
1799,7011401024332,新規,0,2022-06-16,2022-06-16,株式会社グロイル,,株式会社,東京都,板橋区,大山東町５８番５号,,13,119,1730014,,,,,,,2022-06-16,1,,,,,グロイル,0
1802,7011801040862,新規,0,2022-06-16,2022-06-16,株式会社さくら総建,,株式会社,東京都,足立区,千住１丁目３番３号トリヴァンベール千住１０１号,,13,121,1200034,,,,,,,2022-06-16,1,,,,,サクラソウケン,0
1809,7012401039295,新規,0,2022-06-16,2022-06-16,株式会社ハレバレ,,株式会社,東京都,武蔵野市,吉祥寺南町１丁目２７－１,,13,203,1800003,,,,,,,2022-06-16,1,,,,,ハレバレ,0
1814,7012403005436,新規,0,2022-06-16,2022-06-16,合同会社エムエイチ,,合同会社,東京都,調布市,調布ケ丘３丁目４７番地１６グランヒルズ調布ケ丘ブローディア４０６,,13,208,1820021,,,,,,,2022-06-16,1,,,,,エムエイチ,0
1822,7020005015571,新規,0,2022-06-16,2022-06-16,一般社団法人ＳＰＡＣＥ,,その他の設立登記法人,神奈川県,川崎市高津区,溝口６丁目２２番１５号むつみハイツ２・１０２,,14,134,2130001,,,,,,,2022-06-16,1,,,,,スペース,0
1824,7021001076252,新規,0,2022-06-16,2022-06-16,株式会社リエルホーム,,株式会社,神奈川県,藤沢市,鵠沼橘１丁目１７番１１号順天ビル３０２,,14,205,2510024,,,,,,,2022-06-16,1,,,,,リエルホーム,0
1825,7021001076269,新規,0,2022-06-16,2022-06-16,株式会社ネクスアイズ,,株式会社,神奈川県,相模原市南区,南台５丁目１１番１９－２６０４号,,14,153,2520314,,,,,,,2022-06-16,1,,,,,ネクスアイズ,0
1826,7021003011827,新規,0,2022-06-16,2022-06-16,オハナはうす合同会社,,合同会社,神奈川県,相模原市緑区,千木良７６７番地,,14,151,2520174,,,,,,,2022-06-16,1,,,,,オハナハウス,0
1831,7030001148688,新規,0,2022-06-16,2022-06-16,株式会社ＷｉｔｈＬｉｎｋｓ,,株式会社,埼玉県,さいたま市見沼区,東大宮２丁目７番地１７,,11,104,3370051,,,,,,,2022-06-16,1,,,,,ウィズリンクス,0
1832,7030001148696,新規,0,2022-06-16,2022-06-16,株式会社ＷｏｒｋＳｔｙｌｅ,,株式会社,埼玉県,新座市,野寺２丁目１１－１１,,11,230,3520034,,,,,,,2022-06-16,1,,,,,ワークスタイル,0
1833,7030001148713,新規,0,2022-06-16,2022-06-16,大谷メタル株式会社,,株式会社,埼玉県,北本市,本町８丁目６７番地,,11,233,3640033,,,,,,,2022-06-16,1,,,,,,0
1834,7030001148721,新規,0,2022-06-16,2022-06-16,株式会社いも子のやきいも阿佐美や,,株式会社,埼玉県,戸田市,喜沢南２丁目６番２３号,,11,224,3350014,,,,,,,2022-06-16,1,,,,,イモコノヤキイモアサミヤ,0
1838,7030003019615,新規,0,2022-06-16,2022-06-16,合同会社３５８,,合同会社,埼玉県,所沢市,旭町４番１８号,,11,208,3590036,,,,,,,2022-06-16,1,,,,,サンゴウハチ,0
1854,7040003020241,新規,0,2022-06-16,2022-06-16,ＢｒｉｄｇｅＯｖｅｒ合同会社,,合同会社,千葉県,松戸市,上本郷４４７８番地の１,,12,207,2710064,,,,,,,2022-06-16,1,,,,,ブリッジオーバー,0
1859,7050003006628,新規,0,2022-06-16,2022-06-16,フミエりん合同会社,,合同会社,茨城県,日立市,相田町３丁目２４番２０号,,08,202,3191415,,,,,,,2022-06-16,1,,,,,フミエリン,0
1862,7060001034992,新規,0,2022-06-16,2022-06-16,株式会社ＮＳ,,株式会社,栃木県,那須塩原市,西岩崎２１,,09,213,3250101,,,,,,,2022-06-16,1,,,,,エヌエス,0
1867,7060003004110,新規,0,2022-06-16,2022-06-16,合同会社ハート・ライン,,合同会社,栃木県,足利市,田島町２３１,,09,202,3260061,,,,,,,2022-06-16,1,,,,,ハートライン,0
1869,7070001039347,新規,0,2022-06-16,2022-06-16,株式会社奏建設,,株式会社,群馬県,伊勢崎市,境女塚１３４番地３１,,10,204,3700121,,,,,,,2022-06-16,1,,,,,カナデケンセツ,0
1881,7080103002607,新規,0,2022-06-16,2022-06-16,ＹｕｕＭｅｅ合同会社,,合同会社,静岡県,伊東市,湯田町３番３号,,22,208,4140031,,,,,,,2022-06-16,1,,,,,ユーミー,0
1885,7080403004567,新規,0,2022-06-16,2022-06-16,合同会社Ｂｕｌｌ　ｓｈｏｔ,,合同会社,静岡県,浜松市浜北区,於呂４３７４番地,,22,136,4340015,,,,,,,2022-06-16,1,,,,,ブルショット,0
1888,7090001017615,新規,0,2022-06-16,2022-06-16,株式会社ＫＡファームファクトリー,,株式会社,山梨県,笛吹市,御坂町井之上１３９７番地,,19,211,4060803,,,,,,,2022-06-16,1,,,,,ケーエーファームファクトリー,0
1904,7120001246573,新規,0,2022-06-16,2022-06-16,神農株式会社,,株式会社,大阪府,大阪市西区,本田３丁目７番６号３０２号,,27,106,5500022,,,,,,,2022-06-16,1,,,,,シンノウ,0
1905,7120001246672,新規,0,2022-06-16,2022-06-16,株式会社Ｍｉｒａｃｌｅ,,株式会社,大阪府,大阪市東成区,神路４丁目３－１０スターレジデンス新深江４０６号室,,27,115,5370003,,,,,,,2022-06-16,1,,,,,ミラクル,0
1906,7120001246722,新規,0,2022-06-16,2022-06-16,林産業株式会社,,株式会社,大阪府,守口市,八雲西町２丁目１番９号,,27,209,5700006,,,,,,,2022-06-16,1,,,,,ハヤシサンギョウ,0
1907,7120001246739,新規,0,2022-06-16,2022-06-16,株式会社ＫＭＣＩプロジェクト,,株式会社,大阪府,大阪市西区,江戸堀１丁目２５番１９－１２０１号,,27,106,5500002,,,,,,,2022-06-16,1,,,,,ケイエムシーアイプロジェクト,0
1911,7120101065741,新規,0,2022-06-16,2022-06-16,株式会社南大阪警備保障,,株式会社,大阪府,藤井寺市,林２丁目１０番１５―７号,,27,226,5830007,,,,,,,2022-06-16,1,,,,,ミナミオオサカケイビホショウ,0
1915,7120103004739,新規,0,2022-06-16,2022-06-16,合同会社Ｑｌｕｅ,,合同会社,大阪府,河内長野市,清見台５丁目５番１６号,,27,216,5860043,,,,,,,2022-06-16,1,,,,,クルー,0
1918,7120901046115,新規,0,2022-06-16,2022-06-16,株式会社マリノデザイン,,株式会社,大阪府,吹田市,広芝町１４番３－５０２号,,27,205,5640052,,,,,,,2022-06-16,1,,,,,マリノデザイン,0
1920,7122001035964,新規,0,2022-06-16,2022-06-16,株式会社ｍｏａｎａ,,株式会社,大阪府,東大阪市,南荘町８番２９－２０６号,,27,227,5798024,,,,,,,2022-06-16,1,,,,,モアナ,0
1921,7122001035980,新規,0,2022-06-16,2022-06-16,株式会社美創メンテ,,株式会社,大阪府,東大阪市,長田西２丁目５番２４－８０２号,,27,227,5770016,,,,,,,2022-06-16,1,,,,,ビソウメンテ,0
1928,7130001072011,新規,0,2022-06-16,2022-06-16,スタア・ホールディングス株式会社,,株式会社,京都府,京都市伏見区,下鳥羽上三栖町１６９番地,,26,109,6128248,,,,,,,2022-06-16,1,,,,,スタアホールディングス,0
1931,7130003007989,新規,0,2022-06-16,2022-06-16,合同会社あおぞら労務研究所,,合同会社,京都府,京都市下京区,七条御所ノ内北町５２番地２,,26,106,6008861,,,,,,,2022-06-16,1,,,,,アオゾラロウムケンキュウショ,0
1975,7290001097950,新規,0,2022-06-16,2022-06-16,株式会社結リノベデザイン,,株式会社,福岡県,福岡市早良区,南庄５丁目４番２８－４０２号,,40,137,8140031,,,,,,,2022-06-16,1,,,,,ユイリノベデザイン,0
1976,7290001097967,新規,0,2022-06-16,2022-06-16,株式会社Ｆｏｏｄ　Ｃｒａｆｔ　Ｊａｐａｎ,,株式会社,福岡県,福岡市中央区,清川１丁目１２番４号,,40,133,8100005,,,,,,,2022-06-16,1,,,,,フードクラフトジャパン,0
1979,7290003012643,新規,0,2022-06-16,2022-06-16,合同会社マウスル,,合同会社,福岡県,福岡市中央区,天神１丁目９番１７福岡天神フコク生命ビル１５階,,40,133,8100001,,,,,,,2022-06-16,1,,,,,マウスル,0
1987,7330001029841,新規,0,2022-06-16,2022-06-16,株式会社旭志トランスポート,,株式会社,熊本県,菊池市,旭志尾足２０８番地,,43,210,8691203,,,,,,,2022-06-16,1,,,,,キョクシトランスポート,0
1988,7330003009420,新規,0,2022-06-16,2022-06-16,合同会社Ｒｏｋｋａ,,合同会社,熊本県,熊本市西区,城山大塘１丁目２０番１６号,,43,103,8600067,,,,,,,2022-06-16,1,,,,,ロッカ,0
1995,7360001030565,新規,0,2022-06-16,2022-06-16,株式会社ＴｉＢｅｅ,,株式会社,沖縄県,那覇市,牧志２丁目２２番３１号パラティーノ牧志３０５,,47,201,9000013,,,,,,,2022-06-16,1,,,,,ティビー,0
2000,7370001048689,新規,0,2022-06-16,2022-06-16,株式会社大友商会,,株式会社,宮城県,名取市,愛島台６丁目５番地の１０,,04,207,9811251,,,,,,,2022-06-16,1,,,,,オオトモショウカイ,0
2003,7380001032898,新規,0,2022-06-16,2022-06-16,株式会社Ｆｕｋｕｓｈｉｍａ　Ｓｔｅｅｌ　Ｅｎｇ,,株式会社,福島県,福島市,春日町１４番３０－１１号,,07,201,9608116,,,,,,,2022-06-16,1,,,,,フクシマスチールエンジ,0
2013,7420001017894,新規,0,2022-06-16,2022-06-16,株式会社ｓｉｆ,,株式会社,青森県,弘前市,大字徒町１６－１第八狩野弘前ビル１０１号,,02,202,0368034,,,,,,,2022-06-16,1,,,,,シフ,0
2024,7430003014039,新規,0,2022-06-16,2022-06-16,合同会社フォーリーフ,,合同会社,北海道,札幌市厚別区,厚別西三条１丁目４番５号,,01,108,0040063,,,,,,,2022-06-16,1,,,,,フォーリーフ,0
2032,7490001010208,新規,0,2022-06-16,2022-06-16,株式会社柴田ケイコｉｌｌｕｓｔｒａｔｉｏｎ,,株式会社,高知県,高知市,春野町弘岡下１３８２番地７,,39,201,7810303,,,,,,,2022-06-16,1,,,,,シバタケイコイラストレーション,0
2034,7700150109860,新規,0,2022-06-16,2022-06-16,Ｎ．Ｓ．Ｐ．ＥＮＧＩＮＥＥＲＩＮＧＳ,,外国会社等,茨城県,土浦市,常名８１８番地８,,08,203,3000065,スリランカ民主社会主義共和国、ラスマハラ、ジャナパダヤ、アルスワラ３７－３０,,,,,,2022-06-16,1,,,,,エヌエスピーエンジニアリング,0
2043,8010001227443,新規,0,2022-06-16,2022-06-16,株式会社ＭＡＲ,,株式会社,東京都,文京区,小石川１丁目５番１－２９０３号,,13,105,1120002,,,,,,,2022-06-16,1,,,,,エムエーアール,0
2052,8010401167966,新規,0,2022-06-16,2022-06-16,ＧＲｅｅＥＮ株式会社,,株式会社,東京都,港区,浜松町２丁目２番１５号,,13,103,1050013,,,,,,,2022-06-16,1,,,,,グリーン,0
2053,8010401168023,新規,0,2022-06-16,2022-06-16,株式会社ジェネバ,,株式会社,東京都,港区,三田２丁目７番９号,,13,103,1080073,,,,,,,2022-06-16,1,,,,,ジェネバ,0
2056,8010403027879,新規,0,2022-06-16,2022-06-16,Ｃｌａｓｓｉｃ＆Ｔｒａｄｅ合同会社,,合同会社,東京都,港区,六本木４丁目１２番８号１Ｆ,,13,103,1060032,,,,,,,2022-06-16,1,,,,,クラシックアンドトレード,0
2072,8010901051067,新規,0,2022-06-16,2022-06-16,株式会社ｂｅ,,株式会社,東京都,世田谷区,玉川３丁目２９番６号,,13,112,1580094,,,,,,,2022-06-16,1,,,,,ビー,0
2081,8011001148068,新規,0,2022-06-16,2022-06-16,株式会社ＪＩＮＮ,,株式会社,東京都,渋谷区,神宮前６丁目１２番３号原宿アーバンビル３０１,,13,113,1500001,,,,,,,2022-06-16,1,,,,,ジン,0
2082,8011001148076,新規,0,2022-06-16,2022-06-16,株式会社直,,株式会社,東京都,渋谷区,神宮前１丁目１４番８号加茂原宿ビル３Ｆ,,13,113,1500001,,,,,,,2022-06-16,1,,,,,チョク,0
2083,8011001148150,新規,0,2022-06-16,2022-06-16,こぐまの家株式会社,,株式会社,東京都,渋谷区,初台１丁目４５番６号,,13,113,1510061,,,,,,,2022-06-16,1,,,,,コグマノイエ,0
2086,8011005009605,新規,0,2022-06-16,2022-06-16,ＴＲ社会保険労務士法人,,その他の設立登記法人,東京都,渋谷区,東３丁目１６番３号（株式会社トライアンフ内）,,13,113,1500011,,,,,,,2022-06-16,1,,,,,ティアール,0
2090,8011101099236,新規,0,2022-06-16,2022-06-16,Ｌａｆｒａｎｃｅ株式会社,,株式会社,東京都,新宿区,西新宿５丁目５－１ザ・パークハウス西新宿タワー６０、２９０４号,,13,104,1600023,,,,,,,2022-06-16,1,,,,,ラフランス,0
2091,8011101099277,新規,0,2022-06-16,2022-06-16,株式会社ライフワーク,,株式会社,東京都,新宿区,西新宿３丁目３番１３号西新宿水間ビル６階,,13,104,1600023,,,,,,,2022-06-16,1,,,,,ライフワーク,0
2098,8011403003688,新規,0,2022-06-16,2022-06-16,合同会社ＷＡ,,合同会社,東京都,板橋区,板橋１丁目１３番８号,,13,119,1730004,,,,,,,2022-06-16,1,,,,,ワ,0
2099,8011505002472,新規,0,2022-06-16,2022-06-16,一般社団法人Ｂ‐ｃｌｅ,,その他の設立登記法人,東京都,荒川区,町屋１丁目１番８号オリエントビル２Ｆ,,13,118,1160001,,,,,,,2022-06-16,1,,,,,ビークル,0
2103,8011703003173,新規,0,2022-06-16,2022-06-16,合同会社ＦＴＭＨプランニング,,合同会社,東京都,江戸川区,平井４丁目２０番１５－１１９号,,13,123,1320035,,,,,,,2022-06-16,1,,,,,エフティエムエイチプランニング,0
2104,8011801040861,新規,0,2022-06-16,2022-06-16,アユーステット株式会社,,株式会社,東京都,足立区,足立３丁目１３－８ライオンズマンション五反野第６、２０７号室,,13,121,1200015,,,,,,,2022-06-16,1,,,,,アユーステット,0
2109,8012403005435,新規,0,2022-06-16,2022-06-16,金山合同会社,,合同会社,東京都,調布市,国領町５丁目１３－２３,,13,208,1820022,,,,,,,2022-06-16,1,,,,,カナヤマ,0
2113,8013301049235,新規,0,2022-06-16,2022-06-16,株式会社バードテイク・ソリューション,,株式会社,東京都,豊島区,池袋２丁目３６番１号,,13,116,1710014,,,,,,,2022-06-16,1,,,,,バードテイクソリューション,0
2129,8021003011826,新規,0,2022-06-16,2022-06-16,合同会社うさぎ組,,合同会社,神奈川県,相模原市中央区,富士見１丁目８番８号矢部トップヒルズ１０３,,14,152,2520236,,,,,,,2022-06-16,1,,,,,ウサギグミ,0
2137,8030001148679,新規,0,2022-06-16,2022-06-16,株式会社智皓コンサルタント,,株式会社,埼玉県,和光市,丸山台２丁目９番１号,,11,229,3510112,,,,,,,2022-06-16,1,,,,,チヒロコンサルタント,0
2138,8030001148687,新規,0,2022-06-16,2022-06-16,株式会社Ｒｏｏｔｆｏｒ,,株式会社,埼玉県,さいたま市緑区,大字中尾１０４番地２２,,11,109,3360932,,,,,,,2022-06-16,1,,,,,,0
2139,8030001148695,新規,0,2022-06-16,2022-06-16,株式会社Ｍ，ｓファクトリー,,株式会社,埼玉県,さいたま市大宮区,仲町１丁目８７番地３第５ヨシケンビル４階,,11,103,3300845,,,,,,,2022-06-16,1,,,,,,0
2140,8030001148704,新規,0,2022-06-16,2022-06-16,株式会社ＳＫＭ,,株式会社,埼玉県,さいたま市大宮区,吉敷町１丁目６４番地１－６０９号,,11,103,3300843,,,,,,,2022-06-16,1,,,,,エスケーエム,0
2141,8030001148712,新規,0,2022-06-16,2022-06-16,株式会社Ｔｒｉ　Ｉｎｖｅｓｔｍｅｎｔ,,株式会社,埼玉県,さいたま市南区,辻１丁目４番１９号１０３,00126897,11,108,3360026,,,,,,,2022-06-16,1,,,,,トライインベストメント,0
2151,8040001123838,新規,0,2022-06-16,2022-06-16,株式会社アムス,,株式会社,千葉県,松戸市,常盤平６丁目８番地の６,,12,207,2702261,,,,,,,2022-06-16,1,,,,,アムス,0
2152,8040001123846,新規,0,2022-06-16,2022-06-16,株式会社パートマイスター,,株式会社,千葉県,山武郡横芝光町,横芝２１７１番地,,12,410,2891732,,,,,,,2022-06-16,1,,,,,パートマイスター,0
2153,8040001123887,新規,0,2022-06-16,2022-06-16,スタートアップキャピタル株式会社,,株式会社,千葉県,佐倉市,染井野１丁目２０番地１３,,12,212,2850831,,,,,,,2022-06-16,1,,,,,スタートアップキャピタル,0
2157,8050001051237,新規,0,2022-06-16,2022-06-16,株式会社きおら,,株式会社,茨城県,つくばみらい市,城中２１６番地,,08,235,3002314,,,,,,,2022-06-16,1,,,,,キオラ,0
2158,8050003006627,新規,0,2022-06-16,2022-06-16,ワールドトイタ合同会社,,合同会社,茨城県,常陸大宮市,宇留野４８６番地の１,,08,225,3192145,,,,,,,2022-06-16,1,,,,,ワールドトイタ,0
2160,8060001034975,新規,0,2022-06-16,2022-06-16,大周汽＿工業株式会社,00126846,株式会社,栃木県,小山市,天神町１丁目３番３０号,,09,208,3230032,,,,,,,2022-06-16,1,,,,,タイシュウキカンコウギョウ,0
2164,8070001039263,新規,0,2022-06-16,2022-06-16,株式会社ＤＳＫ,,株式会社,群馬県,太田市,大原町７９０番地６,,10,205,3792304,,,,,,,2022-06-16,1,,,,,ディーエスケー,0
2165,8070001039346,新規,0,2022-06-16,2022-06-16,株式会社大正工業,,株式会社,群馬県,伊勢崎市,境伊与久１６７５番地９,,10,204,3700105,,,,,,,2022-06-16,1,,,,,タイセイコウギョウ,0
2169,8080401025894,新規,0,2022-06-16,2022-06-16,ダーティー・ボーイ株式会社,,株式会社,静岡県,浜松市中区,広沢１丁目７番１４号,,22,131,4328013,,,,,,,2022-06-16,1,,,,,ダーティーボーイ,0
2173,8080403004566,新規,0,2022-06-16,2022-06-16,合同会社Ｌｉｂｅｒｔａｓ,,合同会社,静岡県,浜松市浜北区,於呂４３７４番地,,22,136,4340015,,,,,,,2022-06-16,1,,,,,リベルタス,0
2174,8090001017622,新規,0,2022-06-16,2022-06-16,株式会社はぐみ,,株式会社,山梨県,甲府市,下石田２丁目１７番２０号,,19,201,4000046,,,,,,,2022-06-16,1,,,,,ハグミ,0
2188,8120001246580,新規,0,2022-06-16,2022-06-16,株式会社セカンド,,株式会社,大阪府,大阪市北区,南森町２丁目２番９号南森町八千代ビル８Ｆ,,27,127,5300054,,,,,,,2022-06-16,1,,,,,セカンド,0
2189,8120001246671,新規,0,2022-06-16,2022-06-16,倚正株式会社,,株式会社,大阪府,大阪市東成区,神路４丁目３－１０スターレジデンス新深江６０４号室,,27,115,5370003,,,,,,,2022-06-16,1,,,,,イセイ,0
2193,8120103004738,新規,0,2022-06-16,2022-06-16,合同会社エムケイケイ,,合同会社,大阪府,貝塚市,清児６６５番地３－１－１００４,,27,208,5970041,,,,,,,2022-06-16,1,,,,,エムケイケイ,0
2202,8130003008004,新規,0,2022-06-16,2022-06-16,合同会社ｉｍｍｏｒｔａｌ,,合同会社,京都府,京都市左京区,鹿ケ谷上宮ノ前町５４－７,,26,103,6068447,,,,,,,2022-06-16,1,,,,,イモータル,0
2226,8180001151750,新規,0,2022-06-16,2022-06-16,株式会社エイテック,,株式会社,愛知県,春日井市,篠木町４丁目８番地,,23,206,4860851,,,,,,,2022-06-16,1,,,,,エイテック,0
2227,8180001151775,新規,0,2022-06-16,2022-06-16,株式会社ＲＤＨ,,株式会社,愛知県,名古屋市中村区,名駅５丁目３１番１１号,,23,105,4500002,,,,,,,2022-06-16,1,,,,,アールディーエイチ,0
2229,8180005019804,新規,0,2022-06-16,2022-06-16,一般社団法人ｍｉｒａｉｉ,,その他の設立登記法人,愛知県,名古屋市瑞穂区,彌富通４丁目３０番地第２ナカクニビル４０１号,,23,108,4670064,,,,,,,2022-06-16,1,,,,,ミライ,0
2237,8220003003301,新規,0,2022-06-16,2022-06-16,ＣＴＫ合同会社,,合同会社,石川県,白山市,橋爪町４７８番地１３,,17,210,9240812,,,,,,,2022-06-16,1,,,,,シィティーケー,0
2249,8250001019619,新規,0,2022-06-16,2022-06-16,株式会社あいおい不動産,,株式会社,山口県,周南市,大字徳山字田中３３９５番地１００１号,,35,215,7450851,,,,,,,2022-06-16,1,,,,,アイオイフドウサン,0
2253,8270001008561,新規,0,2022-06-16,2022-06-16,株式会社Ｒｉｋｕ,,株式会社,鳥取県,鳥取市,賀露町南１丁目４番３８号,,31,201,6800909,,,,,,,2022-06-16,1,,,,,リク,0
2257,8290001097900,新規,0,2022-06-16,2022-06-16,株式会社三陽通商九州,,株式会社,福岡県,古賀市,花見南２丁目３番１号,,40,223,8113111,,,,,,,2022-06-16,1,,,,,サンヨウツウショウキュウシュウ,0
2258,8290001097974,新規,0,2022-06-16,2022-06-16,ＬｉｎＤｏ株式会社,,株式会社,福岡県,福岡市早良区,祖原１７番１,,40,137,8140005,,,,,,,2022-06-16,1,,,,,リンドウ,0
2268,8290801028625,新規,0,2022-06-16,2022-06-16,株式会社Ａｒｓ,,株式会社,福岡県,北九州市八幡西区,さつき台１丁目１１番１号,,40,109,8070868,,,,,,,2022-06-16,1,,,,,アルス,0
2270,8300003001858,新規,0,2022-06-16,2022-06-16,シロクマシェルパ合同会社,,合同会社,佐賀県,佐賀市,西与賀町大字厘外１５７７番地５,,41,201,8400034,,,,,,,2022-06-16,1,,,,,シロクマシェルパ,0
2271,8320001019132,新規,0,2022-06-16,2022-06-16,株式会社大宝興産,,株式会社,大分県,宇佐市,大字閤４００番地,,44,211,8790455,,,,,,,2022-06-16,1,,,,,タイホウコウサン,0
2281,8350003004105,新規,0,2022-06-16,2022-06-16,合同会社ＡＴＯＲＩ,,合同会社,宮崎県,宮崎市,大字芳士６２３番地１,,45,201,8800123,,,,,,,2022-06-16,1,,,,,アトリ,0
2284,8370005010495,新規,0,2022-06-16,2022-06-16,医療法人ＯＲＳ,,その他の設立登記法人,宮城県,仙台市若林区,卸町３丁目１番地２卸町コミュニティプラザ２階,,04,103,9840015,,,,,,,2022-06-16,1,,,,,オーアールエス,0
2287,8380003005199,新規,0,2022-06-16,2022-06-16,合同会社Ｎ．Ｙ工業,,合同会社,福島県,郡山市,日和田町字蛇ケ森４８番地の１,,07,203,9630534,,,,,,,2022-06-16,1,,,,,エヌワイコウギョウ,0
2307,8490001010207,新規,0,2022-06-16,2022-06-16,りあんふらん株式会社,,株式会社,高知県,高知市,行川１０５７番地４,,39,201,7800992,,,,,,,2022-06-16,1,,,,,リアンフラン,0
2310,8700150109892,新規,0,2022-06-16,2022-06-16,ＩＮＤＩＫＡ　ＭＯＴＯＲＳ,,外国会社等,群馬県,前橋市,粕川町女渕１４７４－６,,10,201,3710214,スリランカ民主社会主義共和国サバラガムワ州ケーガッラ県ワラカポラ町レイルウェイステーションロード,,,,,,2022-06-16,1,,,,,インデイカモータース,0
2311,8700150109975,新規,0,2022-06-16,2022-06-16,ＡＡＳＩＦ　ＳＡＪＡ　ＰＲＩＶＡＴＥ　ＬＩＭＩＴＥＤ,,外国会社等,神奈川県,綾瀬市,綾西５丁目１７－６ヒューマンレジデンスＩＩＩ－１０１号室,00126843,14,218,2521126,スリランカ民主社会主義共和国、キャンディー、ジョージジディシルワロード、１０６番,,,,,,2022-06-16,1,,,,,アーシフサジヤプライベートリミテツド,0
2323,9010001227450,新規,0,2022-06-16,2022-06-16,ＴＥＴＯＴＥ株式会社,,株式会社,東京都,中央区,銀座５丁目６番１４号,,13,102,1040061,,,,,,,2022-06-16,1,,,,,テトテ,0
2324,9010001227459,新規,0,2022-06-16,2022-06-16,株式会社日本農業資金支援協会,,株式会社,東京都,千代田区,神田駿河台１丁目２番地５駿河台ビル５階,,13,101,1010062,,,,,,,2022-06-16,1,,,,,ニホンノウギョウシキンシエンキョウカイ,0
2332,9010003037906,新規,0,2022-06-16,2022-06-16,合同会社運用１７号,,合同会社,東京都,千代田区,飯田橋１丁目３番２号曙杉館４階ＲＳＭ清和コンサルティング株式会社内,,13,101,1020072,,,,,,,2022-06-16,1,,,,,ウンヨウジュウナナゴウ,0
2333,9010003037922,新規,0,2022-06-16,2022-06-16,名寄バイオマス発電合同会社,,合同会社,東京都,千代田区,丸の内３丁目１番１号,,13,101,1000005,,,,,,,2022-06-16,1,,,,,ナヨロバイオマスハツデン,0
2342,9010401167916,新規,0,2022-06-16,2022-06-16,ｉＡ　ＰＲコンサルティング株式会社,,株式会社,東京都,港区,北青山３丁目６番７号青山パラシオタワー１１階,,13,103,1070061,,,,,,,2022-06-16,1,,,,,アイエーピーアールコンサルティング,0
2343,9010401167924,新規,0,2022-06-16,2022-06-16,株式会社Ｒｏｂｕｒｏｎｅ１９７７,,株式会社,東京都,港区,南麻布４丁目２番４９号麻布サンパレス２０３,,13,103,1060047,,,,,,,2022-06-16,1,,,,,ロブローネ,0
2344,9010401167981,新規,0,2022-06-16,2022-06-16,Ａｇｅｌｅｓｓ　Ｓｃｉｅｎｃｅ株式会社,,株式会社,東京都,港区,白金台３丁目１６番１０－６０４号,,13,103,1080071,,,,,,,2022-06-16,1,,,,,エイジレスサイエンス,0
2345,9010401167998,新規,0,2022-06-16,2022-06-16,Ｐｈｉｌｉａ株式会社,,株式会社,東京都,港区,西新橋１丁目１８－６,,13,103,1050003,,,,,,,2022-06-16,1,,,,,フィリア,0
2346,9010401168030,新規,0,2022-06-16,2022-06-16,株式会社ＮＭＫ,,株式会社,東京都,港区,芝５丁目２番１２号,,13,103,1080014,,,,,,,2022-06-16,1,,,,,エヌエムケイ,0
2347,9010403027878,新規,0,2022-06-16,2022-06-16,Ｃｌａｓｓｉｃ合同会社,,合同会社,東京都,港区,六本木４丁目１２番８号１Ｆ,,13,103,1060032,,,,,,,2022-06-16,1,,,,,クラシック,0
2348,9010403027886,新規,0,2022-06-16,2022-06-16,ｔｈｒｅｅ　ｏｖｅｒ合同会社,,合同会社,東京都,港区,麻布十番２丁目２０番１２－５０２号,,13,103,1060045,,,,,,,2022-06-16,1,,,,,スリーオーバー,0
2349,9010403027903,新規,0,2022-06-16,2022-06-16,合同会社ＳＢ　ＩＮＮＯＶＡＴＩＯＮＳ　ＩＮＣ．,,合同会社,東京都,港区,南麻布４丁目２番４２－６０２号,,13,103,1060047,,,,,,,2022-06-16,1,,,,,エスビーイノベーションズ,0
2351,9010601061332,新規,0,2022-06-16,2022-06-16,株式会社ＴＭＳ,,株式会社,東京都,墨田区,菊川２丁目１５番１号,,13,107,1300024,,,,,,,2022-06-16,1,,,,,ティーエムエス,0
2352,9010601061340,新規,0,2022-06-16,2022-06-16,ＩＬＩＦＥ株式会社,,株式会社,東京都,墨田区,立花２丁目２５番３号,,13,107,1310043,,,,,,,2022-06-16,1,,,,,アイライフ,0
2361,9010901051041,新規,0,2022-06-16,2022-06-16,株式会社ＲＥＭＥＬ　ＯＮＥ,,株式会社,東京都,世田谷区,松原２丁目３２番２１号,,13,112,1560043,,,,,,,2022-06-16,1,,,,,リメルワン,0
2362,9010901051066,新規,0,2022-06-16,2022-06-16,株式会社ＲＩＳＥアセット,,株式会社,東京都,世田谷区,桜１丁目１０番５号,,13,112,1560053,,,,,,,2022-06-16,1,,,,,ライズアセット,0
2363,9010901051074,新規,0,2022-06-16,2022-06-16,株式会社オールアウト・ホールディングス,,株式会社,東京都,世田谷区,三軒茶屋２丁目１０－９－１号室,,13,112,1540024,,,,,,,2022-06-16,1,,,,,オールアウトホールディングス,0
2364,9010903007446,新規,0,2022-06-16,2022-06-16,合同会社ＳＩＳＴＥＲ　ＭＡＲＫＥＴ,,合同会社,東京都,世田谷区,砧３丁目５番１３号ハウス２１－１０１,,13,112,1570073,,,,,,,2022-06-16,1,,,,,シスターマーケット,0
2365,9010903007454,新規,0,2022-06-16,2022-06-16,合同会社テーブルー,,合同会社,東京都,世田谷区,奥沢７丁目２４番３－６０４号,,13,112,1580083,,,,,,,2022-06-16,1,,,,,テーブルー,0
2373,9011001148083,新規,0,2022-06-16,2022-06-16,株式会社ｃｏｒｃａｃｏ,,株式会社,東京都,目黒区,目黒本町１丁目１６番１９－５０７号ピアース学芸大学,,13,110,1520002,,,,,,,2022-06-16,1,,,,,コルカコ,0
2374,9011001148109,新規,0,2022-06-16,2022-06-16,株式会社ＴＥＮＴＥＩ,,株式会社,東京都,渋谷区,恵比寿西１丁目３０番１号シーズ代官山Ｂ１,,13,113,1500021,,,,,,,2022-06-16,1,,,,,テンテイ,0
2376,9011003014886,新規,0,2022-06-16,2022-06-16,Ｔ＆Ｃ合同会社,,合同会社,東京都,渋谷区,渋谷２丁目１９―１５宮益坂ビルディング６０９,,13,113,1500002,,,,,,,2022-06-16,1,,,,,ティーアンドシー,0
2395,9011801040869,新規,0,2022-06-16,2022-06-16,メディカルシーズ株式会社,,株式会社,東京都,足立区,千住２丁目２７番地ＦＲＩＥＤＥＮＢＥＲＧ５０１,,13,121,1200034,,,,,,,2022-06-16,1,,,,,メディカルシーズ,0
2397,9011803005127,新規,0,2022-06-16,2022-06-16,明戸コンサルティング事務所合同会社,,合同会社,東京都,足立区,千住３丁目６番地ツォード千住壱番館１００３号,,13,121,1200034,,,,,,,2022-06-16,1,,,,,アケトコンサルティングジムショ,0
2401,9012703002478,新規,0,2022-06-16,2022-06-16,合同会社防災ＤＸ,,合同会社,東京都,西東京市,向台町４丁目５番１４号,,13,229,1880013,,,,,,,2022-06-16,1,,,,,ボウサイディーエックス,0
2409,9020001146955,新規,0,2022-06-16,2022-06-16,株式会社Ｅｄｇｅ　Ｌｉｎｋｓ,,株式会社,神奈川県,川崎市麻生区,黒川２０－１,,14,137,2150035,,,,,,,2022-06-16,1,,,,,エッジリンクス,0
2421,9021001076283,新規,0,2022-06-16,2022-06-16,株式会社湘南水産,,株式会社,神奈川県,平塚市,菫平９番９号西海岸ハイツ２０８,,14,203,2540822,,,,,,,2022-06-16,1,,,,,ショウナンスイサン,0
2422,9021003011825,新規,0,2022-06-16,2022-06-16,合同会社いわさき商店,,合同会社,神奈川県,鎌倉市,大船１丁目２０－１４三友ビル１Ｆ,,14,204,2470056,,,,,,,2022-06-16,1,,,,,イワサキショウテン,0
2430,9030001148579,新規,0,2022-06-16,2022-06-16,ＮＴＫ株式会社,,株式会社,埼玉県,草加市,両新田西町２０２番地１４,,11,221,3400027,,,,,,,2022-06-16,1,,,,,エヌテイーケイ,0
2431,9030001148694,新規,0,2022-06-16,2022-06-16,株式会社アポロトリフォ,,株式会社,埼玉県,ふじみ野市,北野２丁目７番５号ベルフルール２－Ｂ,,11,245,3560007,,,,,,,2022-06-16,1,,,,,アポロトリフォ,0
2432,9030001148703,新規,0,2022-06-16,2022-06-16,株式会社さんぽ,,株式会社,埼玉県,川口市,大字安行領家１１９番地１,,11,203,3340058,,,,,,,2022-06-16,1,,,,,サンポ,0
2435,9030003019596,新規,0,2022-06-16,2022-06-16,合同会社ＫｙＡＮ,,合同会社,埼玉県,富士見市,関沢２丁目１８番５号,,11,235,3540025,,,,,,,2022-06-16,1,,,,,,0
2436,9030003019605,新規,0,2022-06-16,2022-06-16,オンアティック合同会社,,合同会社,埼玉県,草加市,氷川町２１１１番地６レーベンハイム草加ステーションビュー１０４号,,11,221,3400034,,,,,,,2022-06-16,1,,,,,オンアティック,0
2437,9030003019613,新規,0,2022-06-16,2022-06-16,ＢＬＡＸ合同会社,,合同会社,埼玉県,鴻巣市,宮前５３番地３,,11,217,3650051,,,,,,,2022-06-16,1,,,,,ブラックス,0
2438,9030003019621,新規,0,2022-06-16,2022-06-16,個人個人が横に繋がる合同会社,,合同会社,埼玉県,川口市,青木４丁目１９番３号,,11,203,3320031,,,,,,,2022-06-16,1,,,,,コジンコジンガヨコニツナガル,0
2439,9030005020890,新規,0,2022-06-16,2022-06-16,一般社団法人日中医学交流協議会,,その他の設立登記法人,埼玉県,川口市,本町４丁目６番１０－２２０３号,,11,203,3320012,,,,,,,2022-06-16,1,,,,,ニッチュウイガクコウリュウキョウギカイ,0
2442,9040001123845,新規,0,2022-06-16,2022-06-16,株式会社小春,,株式会社,千葉県,流山市,東初石３丁目９６番地の３９,,12,220,2700114,,,,,,,2022-06-16,1,,,,,コハル,0
2450,9050003006626,新規,0,2022-06-16,2022-06-16,スカイトップ合同会社,,合同会社,茨城県,ひたちなか市,大字中根３３３７番地２１３,,08,221,3120011,,,,,,,2022-06-16,1,,,,,スカイトップ,0
2457,9070001039320,新規,0,2022-06-16,2022-06-16,株式会社ネスル,,株式会社,群馬県,前橋市,千代田町１丁目３番１２号,,10,201,3710022,,,,,,,2022-06-16,1,,,,,ネスル,0
2458,9070001039337,新規,0,2022-06-16,2022-06-16,株式会社ダイケン,,株式会社,群馬県,渋川市,赤城町三原田６１８番地２２,,10,208,3791126,,,,,,,2022-06-16,1,,,,,ダイケン,0
2459,9070001039345,新規,0,2022-06-16,2022-06-16,株式会社ミライヲ,,株式会社,群馬県,佐波郡玉村町,大字福島１２０２番地２,,10,464,3701105,,,,,,,2022-06-16,1,,,,,ミライヲ,0
2464,9080401025893,新規,0,2022-06-16,2022-06-16,ティアークシー株式会社,,株式会社,静岡県,周智郡森町,森１４１３－１,,22,461,4370215,,,,,,,2022-06-16,1,,,,,ティアークシー,0
2489,9120001246654,新規,0,2022-06-16,2022-06-16,サクッと開業株式会社,,株式会社,大阪府,大阪市北区,梅田１丁目２番２－１００号,,27,127,5300001,,,,,,,2022-06-16,1,,,,,サクットカイギョウ,0
2490,9120001246737,新規,0,2022-06-16,2022-06-16,株式会社ネックスレボ,,株式会社,大阪府,大阪市此花区,朝日２丁目１８番８号３Ｆ－６３０,,27,104,5540011,,,,,,,2022-06-16,1,,,,,ネックスレボ,0
2492,9120003021840,新規,0,2022-06-16,2022-06-16,澤村合同会社,,合同会社,大阪府,大阪市浪速区,敷津西１丁目１－１３プレサンス難波フィネスト９０１,,27,111,5560015,,,,,,,2022-06-16,1,,,,,サワムラ,0
2493,9120003021873,新規,0,2022-06-16,2022-06-16,合同会社Ｃｏｃｏｉｒｏ,,合同会社,大阪府,大阪市大正区,鶴町３丁目１９番５号,,27,108,5510023,,,,,,,2022-06-16,1,,,,,ココイロ,0
2494,9120003021907,新規,0,2022-06-16,2022-06-16,長辰合同会社,,合同会社,大阪府,大阪市東淀川区,東中島４丁目１番２９－２０２号,,27,114,5330033,,,,,,,2022-06-16,1,,,,,ナガタツ,0
2495,9120003021923,新規,0,2022-06-16,2022-06-16,合同会社ワタナベオプト,,合同会社,大阪府,大阪市旭区,高殿３丁目２３番３－３０９号,,27,117,5350031,,,,,,,2022-06-16,1,,,,,ワタナベオプト,0
2500,9120101065772,新規,0,2022-06-16,2022-06-16,吉村貿易株式会社,,株式会社,大阪府,泉南郡熊取町,朝代西３丁目６４２番地の３４,,27,361,5900458,,,,,,,2022-06-16,1,,,,,ヨシムラボウエキ,0
2509,9122003002358,新規,0,2022-06-16,2022-06-16,合同会社Ｍｆｏｏｄｓ,,合同会社,大阪府,八尾市,沼４丁目５,,27,212,5810036,,,,,,,2022-06-16,1,,,,,エムフーズ,0
2511,9130001071952,新規,0,2022-06-16,2022-06-16,ＮＯＤＯＫＡ　ＲＥＬＩＦＥ株式会社,,株式会社,京都府,亀岡市,河原林町河原尻綾垣内６０,,26,206,6210007,,,,,,,2022-06-16,1,,,,,ノドカリライフ,0
2512,9130001071985,新規,0,2022-06-16,2022-06-16,アイワ・コンサルタント株式会社,,株式会社,京都府,京都市山科区,東野森野町１－３１,,26,110,6078147,,,,,,,2022-06-16,1,,,,,アイワコンサルタント,0
2529,9150005009402,新規,0,2022-06-16,2022-06-16,一般社団法人高取ニューツーリズム協会,,その他の設立登記法人,奈良県,高市郡高取町,大字上土佐５８－１,,29,401,6350152,,,,,,,2022-06-16,1,,,,,タカトリニューツーリズムキョウカイ,0
2530,9170003001739,新規,0,2022-06-16,2022-06-16,Ｈｉｇｈケア合同会社,,合同会社,和歌山県,橋本市,向副１５５番地の１４,,30,203,6480025,,,,,,,2022-06-16,1,,,,,ハイケア,0
2534,9180001151717,新規,0,2022-06-16,2022-06-16,株式会社コールス,,株式会社,愛知県,名古屋市南区,西桜町１０４番地,,23,112,4570039,,,,,,,2022-06-16,1,,,,,コールス,0
2535,9180001151766,新規,0,2022-06-16,2022-06-16,株式会社エフシールホールディングス,,株式会社,愛知県,名古屋市中区,丸の内３丁目６番２７号,,23,106,4600002,,,,,,,2022-06-16,1,,,,,エフシールホールディングス,0
2539,9180301036337,新規,0,2022-06-16,2022-06-16,株式会社アークス,,株式会社,愛知県,豊川市,蔵子５丁目２番地１,,23,207,4420842,,,,,,,2022-06-16,1,,,,,アークス,0
2540,9180301036345,新規,0,2022-06-16,2022-06-16,Ｗａｓｈｉｎ株式会社,,株式会社,愛知県,豊田市,大林町１０丁目２０－１２,,23,211,4730902,,,,,,,2022-06-16,1,,,,,ワシン,0
2542,9180305009355,新規,0,2022-06-16,2022-06-16,土地家屋調査士法人トータルネットワークサービス,,その他の設立登記法人,愛知県,豊橋市,つつじが丘３丁目４番地の１,,23,201,4400858,,,,,,,2022-06-16,1,,,,,トータルネットワークサービス,0
2544,9200001040181,新規,0,2022-06-16,2022-06-16,株式会社エース,,株式会社,岐阜県,安八郡安八町,東結１５４３番地の１,,21,383,5030112,,,,,,,2022-06-16,1,,,,,エース,0
2553,9250001019618,新規,0,2022-06-16,2022-06-16,Ｔｅｋ株式会社,,株式会社,山口県,下関市,綾羅木本町８丁目６番１７号,,35,201,7510849,,,,,,,2022-06-16,1,,,,,,0
2554,9250003003099,新規,0,2022-06-16,2022-06-16,合同会社原田銃砲火薬店,,合同会社,山口県,周南市,大字鹿野上３２４９番地,,35,215,7450302,,,,,,,2022-06-16,1,,,,,ハラダジュウホウカヤクテン,0
2558,9260001036959,新規,0,2022-06-16,2022-06-16,株式会社ＯＤＭ,,株式会社,岡山県,和気郡和気町,日笠上１２１７番地１,,33,346,7090402,,,,,,,2022-06-16,1,,,,,オーディーエム,0
2569,9290001097932,新規,0,2022-06-16,2022-06-16,株式会社ごはんとうつわ,,株式会社,福岡県,福岡市城南区,長尾３丁目２２番２５－２０２号,,40,136,8140123,,,,,,,2022-06-16,1,,,,,ゴハントウツワ,0
2573,9290003012633,新規,0,2022-06-16,2022-06-16,合同会社ＭＡＫＩ,,合同会社,福岡県,福岡市城南区,別府６丁目６番２６－５１３号,,40,136,8140104,,,,,,,2022-06-16,1,,,,,マキ,0
2575,9290801028624,新規,0,2022-06-16,2022-06-16,株式会社ＲＳＮ築炉,,株式会社,福岡県,北九州市小倉北区,京町２丁目４番９号白頭山京町ビル２階,,40,106,8020002,,,,,,,2022-06-16,1,,,,,アールエスエヌチクロ,0
2576,9290805009562,新規,0,2022-06-16,2022-06-16,一般社団法人ライフサポート,,その他の設立登記法人,福岡県,田川市,大字川宮１５１２番地２８,,40,206,8260042,,,,,,,2022-06-16,1,,,,,ライフサポート,0
2579,9310003004388,新規,0,2022-06-16,2022-06-16,合同会社Ｂａｇｈａ,,合同会社,長崎県,長崎市,多以良町２１５３番地７,,42,201,8512213,,,,,,,2022-06-16,1,,,,,バーグ,0
2585,9360001030547,新規,0,2022-06-16,2022-06-16,株式会社ＹＴＭコーポレーション,,株式会社,沖縄県,宮古島市,平良字下里７６０番地３カーサビアンカ１０３,,47,214,9060013,,,,,,,2022-06-16,1,,,,,ワイティーエムコーポレーション,0
2586,9360001030555,新規,0,2022-06-16,2022-06-16,ラクビア・グローバル・マネジメント株式会社,,株式会社,沖縄県,那覇市,真嘉比２丁目１９番２２号,,47,201,9020068,,,,,,,2022-06-16,1,,,,,ラクビアグローバルマネジメント,0
2589,9360005006667,新規,0,2022-06-16,2022-06-16,一般社団法人あいわ福祉会,,その他の設立登記法人,沖縄県,中頭郡読谷村,字古堅６４１番地１,,47,324,9040314,,,,,,,2022-06-16,1,,,,,アイワフクシカイ,0
2596,9380005012597,新規,0,2022-06-16,2022-06-16,福島県地中熱協同組合,,その他の設立登記法人,福島県,郡山市,田村町上行合字下川原１０２番地,,07,203,9630724,,,,,,,2022-06-16,1,,,,,フクシマケンチチュウネツ,0
2600,9400001015915,新規,0,2022-06-16,2022-06-16,株式会社ＬＧＭ,,株式会社,岩手県,盛岡市,向中野５丁目６番１１号,,03,201,0200851,,,,,,,2022-06-16,1,,,,,エルジーエム,0
2604,9410005006471,新規,0,2022-06-16,2022-06-16,一般社団法人寿喜会,,その他の設立登記法人,秋田県,にかほ市,平沢字平石３番地１１,,05,214,0180402,,,,,,,2022-06-16,1,,,,,コトブキカイ,0
2605,9420001017901,新規,0,2022-06-16,2022-06-16,株式会社木村板金工業,,株式会社,青森県,青森市,大字筒井字八ツ橋６２番地１４,,02,201,0300944,,,,,,,2022-06-16,1,,,,,キムラバンキンコウギョウ,0
2613,9430001086846,新規,0,2022-06-16,2022-06-16,株式会社ＰＡＲＡＢＯ,,株式会社,北海道,札幌市北区,北二十六条西１４丁目５番１５号,,01,102,0010026,,,,,,,2022-06-16,1,,,,,パラボ,0
2614,9430001086870,新規,0,2022-06-16,2022-06-16,株式会社クリプトラボ,,株式会社,北海道,札幌市中央区,南三条東２丁目１５番地１グランドタワー２２０２号,,01,101,0600053,,,,,,,2022-06-16,1,,,,,クリプトラボ,0
2615,9430001086904,新規,0,2022-06-16,2022-06-16,株式会社Ｏ,,株式会社,北海道,札幌市西区,発寒一条３丁目５番１１号,,01,107,0630821,,,,,,,2022-06-16,1,,,,,オー,0
2619,9450001013724,新規,0,2022-06-16,2022-06-16,ＭＨＡコネクト株式会社,,株式会社,北海道,旭川市,東旭川北一条１丁目２番４号,,01,204,0788251,,,,,,,2022-06-16,1,,,,,エムエッチエーコネクト,0
2622,9500003002851,新規,0,2022-06-16,2022-06-16,合同会社ひなた,,合同会社,愛媛県,松山市,山越１丁目４－２５シェブー１０２号,,38,201,7918013,,,,,,,2022-06-16,1,,,,,ヒナタ,0
2624,9700150109834,新規,0,2022-06-16,2022-06-16,吉岡共有地組合,,その他,長崎県,佐世保市,吉岡町１４１４,,42,202,8570143,,,,,,,2022-06-16,1,,,,,ヨシオカキヨウユウチクミアイ,0
2625,9700150109966,新規,0,2022-06-16,2022-06-16,自由が丘一丁目２９番地区市街地再開発組合,,その他,東京都,目黒区,自由が丘１丁目２９－１６自由が丘会館２階,,13,110,1520035,,,,,,,2022-06-16,1,,,,,ジユウガオカイツチヨウメニジユウキユウバンチクシガイチサイカイハツクミアイ,0
