sequenceNumber,corporateNumber,process,correct,updateDate,changeDate,name,nameImageId,kind,prefectureName,cityName,streetNumber,addressImageId,prefectureCode,cityCode,postCode,addressOutside,addressOutsideImageId,closeDate,closeCause,successorCorporateNumber,changeCause,assignmentDate,latest,enName,enPrefectureName,enCityName,enAddressOutside,furigana,hihyoji
4,1010001230230,登記記録の閉鎖等,0,2025-06-23,2025-06-16,Ｓｐａｃｅ　ＤＣ　Ｊａｐａｎ株式会社,,株式会社,埼玉県,熊谷市,佐谷田１６３１番地,,11,202,3600023,,,2025-06-16,清算の結了等,,,2022-10-17,1,,,,,スペースディーシージャパン,0
13,1010403026870,登記記録の閉鎖等,0,2025-06-23,2025-05-30,ジー・ジェイ・レジデンス・エイト合同会社,,合同会社,東京都,港区,六本木１丁目９番１０号アークヒルズ仙石山森タワー４０階,,13,103,1060032,,,2025-05-30,清算の結了等,,,2022-01-18,1,,,,,ジージェイレジデンスエイト,0
18,1010405019419,登記記録の閉鎖等,0,2025-06-23,2025-05-30,一般社団法人フラッグ,,その他の設立登記法人,東京都,港区,虎ノ門３丁目２２番１０－２０１号,,13,103,1050001,,,2025-05-30,清算の結了等,,,2021-01-21,1,,,,,フラッグ,0
23,1010601049459,登記記録の閉鎖等,0,2025-06-23,2025-06-17,トーエイ株式会社,,株式会社,東京都,江東区,大島２丁目９番１０－１００４号,,13,108,1360072,,,2025-06-17,清算の結了等,,,2016-03-30,1,,,,,トーエイ,0
39,1011003016287,登記記録の閉鎖等,0,2025-06-23,2025-05-28,ＥＣ　ＧＲＯＵＰ合同会社,,合同会社,東京都,渋谷区,恵比寿西１丁目２－１エビスマンション３０６,,13,113,1500021,,,2025-05-28,清算の結了等,,,2023-02-16,1,,,,,イーシーグループ,0
42,1011101105025,登記記録の閉鎖等,0,2025-06-23,2025-06-13,株式会社ニューライフサポート,,株式会社,東京都,新宿区,西新宿２丁目１番１号新宿三井ビルディング３７階,,13,104,1600023,,,2025-06-13,清算の結了等,,,2023-11-07,1,,,,,ニューライフサポート,0
44,1011201020000,登記記録の閉鎖等,0,2025-06-23,2025-06-18,Ｍｏｏｉ・Ｊａｐａｎ株式会社,,株式会社,東京都,中野区,中野５丁目６７番６号１００２号室,,13,114,1640001,,,2025-06-18,清算の結了等,,,2017-07-05,1,,,,,モーイジャパン,0
52,1013102003760,登記記録の閉鎖等,0,2025-06-23,2025-06-13,有限会社サライ,,有限会社,東京都,福生市,大字熊川５０８番地,,13,218,1970003,,,2025-06-13,清算の結了等,,,2015-10-05,1,,,,,サライ,0
69,1020003023656,登記記録の閉鎖等,0,2025-06-23,2025-06-05,合同会社ＵＮＩＬＩＮＥ,,合同会社,神奈川県,横浜市旭区,上白根１丁目２番１－５０３号,,14,112,2410002,,,2025-06-05,清算の結了等,,,2023-04-13,1,,,,,ユニライン,0
92,1040001122111,登記記録の閉鎖等,0,2025-06-23,2025-06-05,株式会社ｆｕｔｕｒｅ,,株式会社,千葉県,富津市,富津１５３９－２,,12,226,2930021,,,2025-06-05,清算の結了等,,,2022-02-03,1,,,,,フューチャー,0
98,1040002017384,登記記録の閉鎖等,0,2025-06-23,2025-06-05,有限会社キャロットサービス,,有限会社,千葉県,千葉市中央区,新浜町１番地,,12,101,2600826,,,2025-06-05,清算の結了等,,,2015-10-05,1,,,,,キャロットサービス,0
100,1040003014083,登記記録の閉鎖等,0,2025-06-23,2025-06-05,合同会社モートピュア,,合同会社,千葉県,柏市,若柴１７８番地４柏の葉キャンパス１４８街区１パークシティ柏の葉キャンパスザ・ゲートタワーウェスト３階Ｖ１０８,,12,217,2770871,,,2025-06-05,清算の結了等,,,2019-09-27,1,,,,,モートピュア,0
119,1120001018185,登記記録の閉鎖等,0,2025-06-23,2025-06-17,株式会社鶴橋卸売市場,,株式会社,大阪府,大阪市東成区,東小橋３丁目２０番１１号近畿ビル３１１号,,27,115,5370024,,,2025-06-17,清算の結了等,,,2015-10-05,1,,,,,ツルハシオロシウリイチバ,0
121,1120001171661,登記記録の閉鎖等,0,2025-06-23,2025-06-19,株式会社リメイクイングス,,株式会社,大阪府,大阪市鶴見区,鶴見３丁目２番２２号,,27,124,5380053,,,2025-06-19,清算の結了等,,,2015-10-05,1,,,,,,0
149,1150001014792,登記記録の閉鎖等,0,2025-06-23,2025-06-20,株式会社カワムラ企画,,株式会社,奈良県,大和高田市,大字池田２２０番４,,29,202,6350077,,,2025-06-20,清算の結了等,,,2015-10-05,1,,,,,カワムラキカク,0
152,1180001092811,登記記録の閉鎖等,0,2025-06-23,2025-06-16,株式会社新潟屋,,株式会社,愛知県,知多郡東浦町,大字緒川字屋敷弐区６４番地,,23,442,4702102,,,2025-06-16,清算の結了等,,,2015-10-05,1,,,,,ニイガタヤ,0
166,1230002008315,登記記録の閉鎖等,0,2025-06-23,2025-06-18,有限会社新光エンジニアリング,,有限会社,富山県,下新川郡入善町,青木２５１１番地の２,,16,342,9390643,,,2025-06-18,清算の結了等,,,2015-10-05,1,,,,,シンコウエンジニアリング,0
172,1260001001838,登記記録の閉鎖等,0,2025-06-23,2025-06-16,株式会社金岡物産圃,,株式会社,岡山県,岡山市北区,兵団１番１９号,,33,101,7000805,,,2025-06-16,清算の結了等,,,2015-10-05,1,,,,,カナオカブッサンポ,0
178,1290001054742,登記記録の閉鎖等,0,2025-06-23,2025-06-04,九セラ株式会社,,株式会社,福岡県,大牟田市,大字手鎌３１８番地の２,,40,202,8360004,,,2025-06-04,合併による解散等,3290001053783,令和７年６月１日福岡県大牟田市不知火町二丁目５番地１シーザリオン２階九州セラミックス工業株式会社（3290001053783）に合併し解散,2015-10-05,1,,,,,キュウセラ,0
181,1290001102063,登記記録の閉鎖等,0,2025-06-23,2025-06-09,株式会社ＵｐＲｉｖｅｒ,,株式会社,福岡県,小郡市,大保１３９９番地１－１０１号室,,40,216,8380115,,,2025-06-09,清算の結了等,,,2023-06-27,1,,,,,アップリバー,0
191,1290801006439,登記記録の閉鎖等,0,2025-06-23,2025-06-19,株式会社エフエルシー,,株式会社,山口県,宇部市,大字山中字甲石７００番８,,35,202,7590132,,,2025-06-19,清算の結了等,,,2015-10-05,1,,,,,エフエルシー,0
192,1290801015893,登記記録の閉鎖等,0,2025-06-23,2025-06-19,株式会社アクセス,,株式会社,福岡県,行橋市,行事３丁目２９番１号,,40,213,8240001,,,2025-06-19,清算の結了等,,,2015-10-05,1,,,,,アクセス,0
196,1320002008165,登記記録の閉鎖等,0,2025-06-23,2025-06-13,有限会社清華園,,有限会社,大分県,大分市,大字三芳９３９番地の１５,,44,201,8700030,,,2025-06-13,清算の結了等,,,2015-10-05,1,,,,,セイカエン,0
200,1350001008163,登記記録の閉鎖等,0,2025-06-23,2025-06-12,株式会社Ｎ商事,,株式会社,宮崎県,都城市,松元町３街区２０号,,45,202,8850077,,,2025-06-12,清算の結了等,,,2015-10-05,1,,,,,エヌショウジ,0
209,1370001010084,登記記録の閉鎖等,0,2025-06-23,2025-05-30,株式会社八丁堀商事,,株式会社,東京都,中央区,八丁堀１丁目５番２号はごろもビル２階,,13,102,1040032,,,2025-05-30,清算の結了等,,,2015-10-05,1,,,,,ハッチョウボリショウジ,0
214,1390001011568,登記記録の閉鎖等,0,2025-06-23,2025-06-11,オーガニックライティング株式会社,,株式会社,山形県,寒河江市,大字柴橋字台下７３４番地１,,06,206,9910063,,,2025-06-11,清算の結了等,,,2015-10-05,1,,,,,オーガニックライティング,0
215,1410001004197,登記記録の閉鎖等,0,2025-06-23,2025-06-18,株式会社パラダイスファーム,,株式会社,秋田県,南秋田郡大潟村,字南１丁目２１番地,,05,368,0100444,,,2025-06-18,清算の結了等,,,2015-10-05,1,,,,,パラダイスファーム,0
225,1490001010931,登記記録の閉鎖等,0,2025-06-23,2025-06-20,株式会社朝倉テクノサポート,,株式会社,高知県,高知市,鴨部２丁目２番４１号,,39,201,7808052,,,2025-06-20,清算の結了等,,,2024-12-26,1,,,,,アサクラテクノサポート,0
227,1490005003576,登記記録の閉鎖等,0,2025-06-23,2025-06-20,土佐市ドラゴンカード協同組合,,その他の設立登記法人,高知県,土佐市,高岡町乙３５３８番地１９,,39,205,7811102,,,2025-06-20,清算の結了等,,,2015-10-05,1,,,,,トサシドラゴンカード,0
231,1500002021331,登記記録の閉鎖等,0,2025-06-23,2025-06-12,有限会社宮崎酒米穀店,,有限会社,愛媛県,四国中央市,寒川町３９５１番地の４,,38,213,7990431,,,2025-06-12,清算の結了等,,,2015-10-05,1,,,,,ミヤザキシュベイコクテン,0
244,2010003035437,登記記録の閉鎖等,0,2025-06-23,2025-06-02,ＧＰＤかもめ合同会社,,合同会社,東京都,千代田区,一ツ橋２丁目５番５号,,13,101,1010003,,,2025-06-02,清算の結了等,,,2021-08-02,1,,,,,ジーピーディーカモメ,0
260,2010702007174,登記記録の閉鎖等,0,2025-06-23,2025-06-16,有限会社藤西製作所,,有限会社,東京都,品川区,二葉４丁目６番６号,,13,109,1420043,,,2025-06-16,清算の結了等,,,2015-10-05,1,,,,,フジニシセイサクショ,0
275,2011203004009,登記記録の閉鎖等,0,2025-06-23,2025-06-19,ＳＡＮＫＯＦＡ合同会社,,合同会社,東京都,中野区,中央５丁目４８番地５号シャンポール中野１０４,,13,114,1640011,,,2025-06-19,清算の結了等,,,2023-02-24,1,,,,,サンコファ,0
310,2030001153461,登記記録の閉鎖等,0,2025-06-23,2025-06-17,ＵｌｔｉｍａｔｅＭａｔｅｒｉａｌｓ株式会社,,株式会社,埼玉県,さいたま市緑区,原山２丁目１４番１０－１号,,11,109,3360931,,,2025-06-17,清算の結了等,,,2023-04-18,1,,,,,アルティメットマテリアルズ,0
314,2030002017120,登記記録の閉鎖等,0,2025-06-23,2025-06-16,有限会社福永不動産鑑定事務所,,有限会社,埼玉県,さいたま市大宮区,桜木町１丁目３０３番,,11,103,3300854,,,2025-06-16,清算の結了等,,,2015-10-05,1,,,,,フクナガフドウサンカンテイジムショ,0
341,2120001072636,登記記録の閉鎖等,0,2025-06-23,2025-06-19,株式会社大阪フェルナンデス,,株式会社,大阪府,大阪市北区,中津６丁目４番５号,,27,127,5310071,,,2025-06-19,清算の結了等,,,2015-10-05,1,,,,,,0
342,2120001194967,登記記録の閉鎖等,0,2025-06-23,2025-06-16,株式会社ＢｅＡＬＴ,,株式会社,大阪府,大阪市中央区,博労町４丁目２－３伊藤ビル３０２,,27,128,5410059,,,2025-06-16,清算の結了等,,,2015-12-07,1,,,,,ビーアルト,0
353,2122001004429,登記記録の閉鎖等,0,2025-06-23,2025-06-16,大精商事株式会社,,株式会社,大阪府,東大阪市,中石切町５丁目７番５９号,,27,227,5798014,,,2025-06-16,清算の結了等,,,2015-10-05,1,,,,,ダイセイショウジ,0
361,2140001106045,登記記録の閉鎖等,0,2025-06-23,2025-06-16,株式会社キズカ,,株式会社,兵庫県,神戸市東灘区,御影２丁目８番１１－３０１号,,28,101,6580047,,,2025-06-16,清算の結了等,,,2017-05-08,1,,,,,キズカ,0
376,2180301030965,登記記録の閉鎖等,0,2025-06-23,2025-06-19,株式会社テックサポート,,株式会社,愛知県,豊橋市,新栄町字南小向１３２番地の２,,23,201,4418016,,,2025-06-19,清算の結了等,,,2017-11-20,1,,,,,,0
379,2190002000878,登記記録の閉鎖等,0,2025-06-23,2025-06-16,有限会社ダイチョウ,,有限会社,三重県,津市,野田２１番地の７８９,,24,201,5140826,,,2025-06-16,清算の結了等,,,2015-10-05,1,,,,,ダイチョウ,0
380,2190002014408,登記記録の閉鎖等,0,2025-06-23,2025-06-13,有限会社まことや,,有限会社,三重県,松阪市,日野町５８９番地の１,,24,204,5150084,,,2025-06-13,清算の結了等,,,2015-10-05,1,,,,,マコトヤ,0
386,2200002011700,登記記録の閉鎖等,0,2025-06-23,2025-06-18,有限会社アイテック,,有限会社,岐阜県,羽島郡岐南町,若宮地３丁目２０番地１,,21,302,5016005,,,2025-06-18,清算の結了等,,,2015-10-05,1,,,,,アイテック,0
388,2210001004225,登記記録の閉鎖等,0,2025-06-23,2025-06-18,ヤスヒロ商事株式会社,,株式会社,福井県,福井市,中央２丁目７番１９号,,18,201,9100006,,,2025-06-18,清算の結了等,,,2015-10-05,1,,,,,ヤスヒロショウジ,0
389,2210001014496,登記記録の閉鎖等,0,2025-06-23,2025-06-18,スィートホーム株式会社,,株式会社,福井県,敦賀市,山泉２８号２番地の１４,,18,202,9140035,,,2025-06-18,清算の結了等,,,2015-10-05,1,,,,,スィートホーム,0
391,2230002007332,登記記録の閉鎖等,0,2025-06-23,2025-06-05,有限会社大黒堂,,有限会社,富山県,中新川郡立山町,寺田ことぶき町５７番地,,16,323,9300209,,,2025-06-05,清算の結了等,,,2015-10-05,1,,,,,ダイコクドウ,0
401,2270002009663,登記記録の閉鎖等,0,2025-06-23,2025-06-16,浜本建築有限会社,,有限会社,鳥取県,東伯郡北栄町,由良宿８２３番地１,,31,372,6892221,,,2025-06-16,清算の結了等,,,2015-10-05,1,,,,,ハマモトケンチク,0
415,2290803004695,登記記録の閉鎖等,0,2025-06-23,2025-06-17,豊前ため池太陽光発電合同会社,,合同会社,福岡県,豊前市,大字大村１１５０番,,40,214,8280066,,,2025-06-17,清算の結了等,,,2024-04-17,1,,,,,ブゼンタメイケタイヨウコウハツデン,0
416,2300001011848,登記記録の閉鎖等,0,2025-06-23,2025-06-19,フォース株式会社,,株式会社,佐賀県,杵島郡白石町,大字深浦８８番地,,41,425,8491207,,,2025-06-19,清算の結了等,,,2019-10-11,1,,,,,フォース,0
427,2360003011543,登記記録の閉鎖等,0,2025-06-23,2025-06-13,合同会社ゆい,,合同会社,沖縄県,糸満市,字潮平７５４－１、１階,,47,210,9010302,,,2025-06-13,清算の結了等,,,2021-11-12,1,,,,,ユイ,0
443,2430002044727,登記記録の閉鎖等,0,2025-06-23,2025-06-10,有限会社イーテック,,有限会社,北海道,北広島市,北の里３４１番地４,,01,234,0611111,,,2025-06-10,清算の結了等,,,2015-10-05,1,,,,,イーテック,0
452,2480002013867,登記記録の閉鎖等,0,2025-06-23,2025-06-16,有限会社リスクマネージメントオフィス,,有限会社,徳島県,阿南市,橘町東中浜１６５番地１,,36,204,7740023,,,2025-06-16,清算の結了等,,,2015-10-05,1,,,,,リスクマネージメントオフィス,0
453,2480003001334,登記記録の閉鎖等,0,2025-06-23,2025-06-17,渦潮ライン１号合同会社,,合同会社,徳島県,徳島市,佐古四番町１３番７号,,36,201,7700024,,,2025-06-17,清算の結了等,,,2019-03-06,1,,,,,ウズシオラインイチゴウ,0
454,2490002012273,登記記録の閉鎖等,0,2025-06-23,2025-06-20,有限会社野木,,有限会社,高知県,香南市,野市町東野字ツノ丸１２３７番地１,,39,211,7815213,,,2025-06-20,清算の結了等,,,2015-10-05,1,,,,,ノギ,0
490,3010403007786,登記記録の閉鎖等,0,2025-06-23,2025-05-26,下曽根商業開発合同会社,,合同会社,東京都,港区,赤坂２丁目１７番７号赤坂溜池タワー９階,,13,103,1070052,,,2025-05-26,清算の結了等,,,2015-10-05,1,,,,,シモソネショウギョウカイハツ,0
503,3010902004053,登記記録の閉鎖等,0,2025-06-23,2025-06-19,有限会社カトーリーガルシステム,,有限会社,東京都,世田谷区,野沢３丁目２５番１５号,,13,112,1540003,,,2025-06-19,清算の結了等,,,2015-10-05,1,,,,,カトーリーガルシステム,0
510,3011001130229,登記記録の閉鎖等,0,2025-06-23,2025-06-10,株式会社プレシード・ストアズ,,株式会社,東京都,品川区,上大崎３丁目１番１号,,13,109,1410021,,,2025-06-10,合併による解散等,9010701045920,令和７年６月１日東京都品川区上大崎三丁目１番１号カルチュア・エンタテインメント株式会社（9010701045920）に合併し解散,2019-10-08,1,,,,,プレシードストアズ,0
542,3013101007372,登記記録の閉鎖等,0,2025-06-23,2025-06-16,株式会社グランツ,,株式会社,東京都,あきる野市,雨間１００４番地８,,13,228,1970825,,,2025-06-16,清算の結了等,,,2016-07-08,1,,,,,グランツ,0
552,3020002015966,登記記録の閉鎖等,0,2025-06-23,2025-06-17,有限会社浅野解体,,有限会社,神奈川県,横浜市戸塚区,川上町７３２番地５,,14,110,2440805,,,2025-06-17,清算の結了等,,,2015-10-05,1,,,,,アサノカイタイ,0
557,3021002050846,登記記録の閉鎖等,0,2025-06-23,2025-06-18,有限会社朝日屋奥津商店,,有限会社,神奈川県,小田原市,栄町３丁目１１番２４号,,14,206,2500011,,,2025-06-18,清算の結了等,,,2015-10-05,1,,,,,アサヒヤオクツショウテン,0
560,3030001011932,登記記録の閉鎖等,0,2025-06-23,2025-06-16,株式会社ウイングプラン,,株式会社,埼玉県,さいたま市見沼区,東大宮５丁目４９番１７号金子マンション２０３,,11,104,3370051,,,2025-06-16,清算の結了等,,,2015-10-05,1,,,,,ウイングプラン,0
562,3030001063271,登記記録の閉鎖等,0,2025-06-23,2025-06-16,株式会社ウェルテック,,株式会社,埼玉県,さいたま市見沼区,春野３丁目１８番３－１０７号,,11,104,3370002,,,2025-06-16,清算の結了等,,,2015-10-05,1,,,,,ウェルテック,0
594,3070001029921,登記記録の閉鎖等,0,2025-06-23,2025-06-17,株式会社Ｃ＆Ｐ,,株式会社,群馬県,太田市,石橋町９９番地３,,10,205,3730007,,,2025-06-17,清算の結了等,,,2015-10-05,1,,,,,シーアンドピー,0
595,3080002003230,登記記録の閉鎖等,0,2025-06-23,2025-06-16,静岡燐寸商事有限会社,,有限会社,静岡県,静岡市葵区,春日３丁目４番３６号,,22,101,4200823,,,2025-06-16,清算の結了等,,,2015-10-05,1,,,,,シズオカマッチショウジ,0
603,3100001019019,登記記録の閉鎖等,0,2025-06-23,2025-06-17,株式会社サニーライフ,,株式会社,長野県,茅野市,ちの３１１６番地１,,20,214,3910001,,,2025-06-17,清算の結了等,,,2015-10-05,1,,,,,サニーライフ,0
606,3100003007351,登記記録の閉鎖等,0,2025-06-23,2025-06-17,合名会社村山商店,,合名会社,長野県,松本市,大字神林１８９８番地,,20,202,3901243,,,2025-06-17,清算の結了等,,,2024-01-24,1,,,,,ムラヤマショウテン,0
607,3100005004446,登記記録の閉鎖等,0,2025-06-23,2025-06-16,特定非営利活動法人いしがらみ,,その他の設立登記法人,長野県,上田市,天神４丁目２５番７号,,20,203,3860025,,,2025-06-16,清算の結了等,,,2015-10-05,1,,,,,イシガラミ,0
612,3120001029338,登記記録の閉鎖等,0,2025-06-23,2025-06-20,田村鍛造株式会社,,株式会社,大阪府,大阪市港区,田中２丁目５番７号,,27,107,5520005,,,2025-06-20,清算の結了等,,,2015-10-05,1,,,,,タムラタンゾウ,0
613,3120001034767,登記記録の閉鎖等,0,2025-06-23,2025-06-16,アドデジタル株式会社,,株式会社,大阪府,大阪市福島区,福島６丁目１３番７号,,27,103,5530003,,,2025-06-16,合併による解散等,8120001097974,令和７年６月１６日大阪市福島区福島六丁目１３番６号アイブリッジ株式会社（8120001097974）に合併し解散,2015-10-05,1,,,,,アドデジタル,0
635,3120103004461,登記記録の閉鎖等,0,2025-06-23,2025-06-17,合同会社２ＲＣ,,合同会社,大阪府,堺市北区,野遠町５６８番地,,27,146,5918013,,,2025-06-17,清算の結了等,,,2021-11-30,1,,,,,セカンドレンタカー,0
651,3140002028106,登記記録の閉鎖等,0,2025-06-23,2025-06-17,有限会社マイティー,,有限会社,兵庫県,神戸市北区,桂木２丁目５番地の１９,,28,109,6511223,,,2025-06-17,清算の結了等,,,2015-10-05,1,,,,,マイティー,0
652,3140002051586,登記記録の閉鎖等,0,2025-06-23,2025-06-17,有限会社ワカバ印刷,,有限会社,兵庫県,姫路市,書写２３０７番地,,28,201,6712201,,,2025-06-17,清算の結了等,,,2015-10-05,1,,,,,ワカバインサツ,0
663,3180302016806,登記記録の閉鎖等,0,2025-06-23,2025-06-12,有限会社鈴木建築,,有限会社,愛知県,安城市,柿碕町勘定９番地,,23,212,4460003,,,2025-06-12,清算の結了等,,,2015-10-05,1,,,,,スズキケンチク,0
686,3290002033256,登記記録の閉鎖等,0,2025-06-23,2025-06-13,有限会社笑顔,,有限会社,福岡県,糸島市,前原西２丁目１５番５号,,40,230,8191117,,,2025-06-13,清算の結了等,,,2015-10-05,1,,,,,エガオ,0
692,3330002021149,登記記録の閉鎖等,0,2025-06-23,2025-06-10,有限会社早野動物病院,,有限会社,熊本県,玉名市,六田２０番地１４,,43,206,8650058,,,2025-06-10,清算の結了等,,,2015-10-05,1,,,,,ハヤノドウブツビョウイン,0
696,3340002018425,登記記録の閉鎖等,0,2025-06-23,2025-06-12,有限会社みやんじょ薬局,,有限会社,鹿児島県,薩摩郡さつま町,船木１６２番地１,,46,392,8951804,,,2025-06-12,清算の結了等,,,2015-10-05,1,,,,,ミヤンジョヤッキョク,0
699,3350001012196,登記記録の閉鎖等,0,2025-06-23,2025-06-13,株式会社お菓子の昭栄堂,,株式会社,宮崎県,都城市,甲斐元町１街区２８号,,45,202,8850074,,,2025-06-13,合併による解散等,8350001019212,令和７年６月１日宮崎県都城市甲斐元町１街区２８号株式会社お菓子の昭栄堂（8350001019212）に合併し解散,2015-10-05,1,,,,,オカシノショウエイドウ,0
707,3390002000857,登記記録の閉鎖等,0,2025-06-23,2025-06-11,有限会社喰道楽いばら木,,有限会社,山形県,山形市,荒楯町１丁目１７番１４号Ｅｃｏ、ｈｏｕｓｅ、ｄｕｅｔ荒楯１０３号,,06,201,9902432,,,2025-06-11,清算の結了等,,,2015-10-05,1,,,,,クイドウラクイバラキ,0
712,3420001006315,登記記録の閉鎖等,0,2025-06-23,2025-06-06,株式会社八石,,株式会社,青森県,八戸市,吹上６丁目１番１号,,02,203,0310003,,,2025-06-06,合併による解散等,9420005003014,令和７年６月１日青森県八戸市吹上六丁目１番１号八戸石材株式会社（9420005003014）に合併し解散,2015-10-05,1,,,,,ハッセキ,0
715,3430001026452,登記記録の閉鎖等,0,2025-06-23,2025-06-10,株式会社鎌田建設,,株式会社,北海道,札幌市白石区,栄通２１丁目２１番１号,,01,104,0030021,,,2025-06-10,清算の結了等,,,2015-10-05,1,,,,,カマタケンセツ,0
724,3460303000846,登記記録の閉鎖等,0,2025-06-23,2025-06-20,合同会社アキアッキー,,合同会社,北海道,網走郡美幌町,字福住４２番地の４,,01,543,0920024,,,2025-06-20,清算の結了等,,,2024-12-10,1,,,,,アキアッキー,0
727,3500002023219,登記記録の閉鎖等,0,2025-06-23,2025-06-16,有限会社森川工務店,,有限会社,愛媛県,宇和島市,恵美須町２丁目４番２２号,,38,203,7980032,,,2025-06-16,清算の結了等,,,2015-10-05,1,,,,,モリカワコウムテン,0
733,4010001166158,登記記録の閉鎖等,0,2025-06-23,2025-05-28,株式会社ＣＩＮＺＡ,,株式会社,東京都,渋谷区,千駄ヶ谷５丁目３３番１６号,,13,113,1510051,,,2025-05-28,清算の結了等,,,2015-10-05,1,,,,,シンザ,0
736,4010001212829,登記記録の閉鎖等,0,2025-06-23,2025-06-02,株式会社セールドハーツ,,株式会社,東京都,千代田区,麹町４丁目５番２０号,,13,101,1020083,,,2025-06-02,清算の結了等,,,2020-10-08,1,,,,,セールドハーツ,0
754,4010601055495,登記記録の閉鎖等,0,2025-06-23,2025-06-18,Ａ．Ｊ．ＢＲＩＤＧＥ株式会社,,株式会社,東京都,墨田区,東向島４丁目３２番６号,,13,107,1310032,,,2025-06-18,清算の結了等,,,2019-05-23,1,,,,,エージェーブリッジ,0
764,4010905004388,登記記録の閉鎖等,0,2025-06-23,2025-06-19,特定非営利活動法人塚原体操センター,,その他の設立登記法人,東京都,世田谷区,北烏山７丁目３２番１０号,,13,112,1570061,,,2025-06-19,清算の結了等,,,2022-10-28,1,,,,,ツカハラタイソウセンター,0
768,4011101015460,登記記録の閉鎖等,0,2025-06-23,2025-06-02,株式会社ナスカ,,株式会社,東京都,新宿区,新宿１丁目１１番１３号,,13,104,1600022,,,2025-06-02,清算の結了等,,,2015-10-05,1,,,,,ナスカ,0
769,4011101075538,登記記録の閉鎖等,0,2025-06-23,2025-06-02,株式会社ＡＬＬ　ＷＡＹ,,株式会社,東京都,新宿区,西新宿４丁目５番１０－１４０２号,,13,104,1600023,,,2025-06-02,清算の結了等,,,2015-12-28,1,,,,,オールウェイ,0
775,4011401025804,登記記録の閉鎖等,0,2025-06-23,2025-06-09,株式会社Ｍｕｓｉｃａｄｅｎｃｅ,,株式会社,東京都,板橋区,徳丸２丁目７－２６シルクハイツ徳丸２０２,,13,119,1750083,,,2025-06-09,清算の結了等,,,2024-01-24,1,,,,,ミュージックケイデンス,0
803,4021002032133,登記記録の閉鎖等,0,2025-06-23,2025-06-18,有限会社スパークリング,,有限会社,神奈川県,厚木市,温水１９８０番地の１２,,14,212,2430033,,,2025-06-18,清算の結了等,,,2015-10-05,1,,,,,スパークリング,0
813,4030002080620,登記記録の閉鎖等,0,2025-06-23,2025-06-16,有限会社米の郷サイベイ,,有限会社,埼玉県,本庄市,本庄３丁目１０番２２号,,11,211,3670051,,,2025-06-16,清算の結了等,,,2015-10-05,1,,,,,コメノサトサイベイ,0
818,4040001100452,登記記録の閉鎖等,0,2025-06-23,2025-06-05,株式会社オルターナサービス,,株式会社,千葉県,船橋市,湊町２丁目１２番２４号湊町日本橋ビル６Ｆ,,12,204,2730011,,,2025-06-05,清算の結了等,,,2017-06-05,1,,,,,オルターナサービス,0
833,4070002025233,登記記録の閉鎖等,0,2025-06-23,2025-06-16,アイティーサポート有限会社,,有限会社,群馬県,桐生市,錦町３丁目１１番６号,,10,203,3760023,,,2025-06-16,清算の結了等,,,2015-10-05,1,,,,,アイティーサポート,0
837,4080003002767,登記記録の閉鎖等,0,2025-06-23,2025-06-16,メンタルシード合同会社,,合同会社,静岡県,静岡市葵区,人宿町１丁目１番地１０ＳＯＺＯＳＹＡＭビル３Ｆ,,22,101,4200037,,,2025-06-16,清算の結了等,,,2022-03-29,1,,,,,メンタルシード,0
838,4080005006130,登記記録の閉鎖等,0,2025-06-23,2025-06-16,一般社団法人静岡県地域女性団体連絡協議会,,その他の設立登記法人,静岡県,静岡市駿河区,馬渕１丁目１７番１号,,22,102,4228063,,,2025-06-16,清算の結了等,,,2015-10-05,1,,,,,シズオカケンチイキジョセイダンタイレンラクキョウギカイ,0
839,4080102021420,登記記録の閉鎖等,0,2025-06-23,2025-04-25,有限会社森彦商店,,有限会社,静岡県,賀茂郡東伊豆町,片瀬１８５番地の８,,22,301,4130303,,,2025-04-25,清算の結了等,,,2015-10-05,1,,,,,モリヒコショウテン,0
843,4100003007490,登記記録の閉鎖等,0,2025-06-23,2025-06-17,合同会社ＤＡＯデザイナーハル,,合同会社,長野県,長野市,南千歳１丁目２２番地６,,20,201,3800823,,,2025-06-17,清算の結了等,,,2024-04-03,1,,,,,ダオデザイナーハル,0
850,4120001168630,登記記録の閉鎖等,0,2025-06-23,2025-06-16,ニュートン・エナジーズ株式会社,,株式会社,大阪府,大阪市中央区,安土町２丁目３番１３号,,27,128,5410052,,,2025-06-16,清算の結了等,,,2015-10-05,1,,,,,,0
856,4120001188802,登記記録の閉鎖等,0,2025-06-23,2025-06-17,株式会社Ｎｅｘｔ　ｌｅｖｅｌ,,株式会社,大阪府,箕面市,森町中３丁目１６番７号,,27,220,5630257,,,2025-06-17,清算の結了等,,,2015-10-05,1,,,,,,0
858,4120001231066,登記記録の閉鎖等,0,2025-06-23,2025-06-16,株式会社ＬＩＺＥ,,株式会社,大阪府,大阪市平野区,長吉出戸３丁目１番４４号,,27,126,5470011,,,2025-06-16,清算の結了等,,,2020-08-17,1,,,,,ライズ,0
862,4120001265790,登記記録の閉鎖等,0,2025-06-23,2025-06-19,＿栄株式会社,00135116,株式会社,大阪府,大阪市住吉区,殿辻１丁目２番２６－５０３号,00135117,27,120,5580042,,,2025-06-19,清算の結了等,,,2024-06-12,1,,,,,イウロン,0
863,4120001266509,登記記録の閉鎖等,0,2025-06-23,2025-06-18,株式会社キシモト工務店,,株式会社,大阪府,大阪市淀川区,東三国５丁目２番２０号,,27,123,5320002,,,2025-06-18,清算の結了等,,,2024-07-12,1,,,,,キシモトコウムテン,0
864,4120001267242,登記記録の閉鎖等,0,2025-06-23,2025-06-20,株式会社ＳｅｅＤｅｖｉｃｅ　Ｊａｐａｎ,,株式会社,大阪府,大阪市淀川区,西中島７丁目１番２６号,,27,123,5320011,,,2025-06-20,合併による解散等,7120901019095,令和７年６月２０日大阪市淀川区西中島七丁目１番２６号株式会社テクノロジーハブ（7120901019095）に合併し解散,2024-07-30,1,,,,,シーデバイスジャパン,0
874,4120002062452,登記記録の閉鎖等,0,2025-06-23,2025-06-16,有限会社割烹堂島,,有限会社,大阪府,大阪市北区,堂島１丁目４番２４号,,27,127,5300003,,,2025-06-16,清算の結了等,,,2015-10-05,1,,,,,カッポウドウジマ,0
881,4120901021995,登記記録の閉鎖等,0,2025-06-23,2025-06-12,株式会社ケイ・ジェイ・ワークス,,株式会社,大阪府,箕面市,彩都粟生南１丁目１６番２９号,,27,220,5620028,,,2025-06-12,清算の結了等,,,2015-10-05,1,,,,,,0
883,4122001012685,登記記録の閉鎖等,0,2025-06-23,2025-06-12,大阪ラベル株式会社,,株式会社,大阪府,東大阪市,西石切町２丁目１０番２８号,,27,227,5798013,,,2025-06-12,清算の結了等,,,2015-10-05,1,,,,,オオサカラベル,0
894,4140001072913,登記記録の閉鎖等,0,2025-06-23,2025-06-17,株式会社タイヨー建設,,株式会社,兵庫県,西宮市,甲子園五番町１５番１３号,,28,204,6638175,,,2025-06-17,清算の結了等,,,2015-10-05,1,,,,,,0
895,4140001097332,登記記録の閉鎖等,0,2025-06-23,2025-06-16,株式会社建物サービス,,株式会社,兵庫県,尼崎市,食満１丁目８番１３号,,28,202,6610982,,,2025-06-16,清算の結了等,,,2015-10-05,1,,,,,タテモノサービス,0
900,4140002061849,登記記録の閉鎖等,0,2025-06-23,2025-06-18,有限会社シュンドウ,,有限会社,兵庫県,西脇市,大野５４２番地の９,,28,213,6770025,,,2025-06-18,清算の結了等,,,2015-10-05,1,,,,,,0
913,4190001031303,登記記録の閉鎖等,0,2025-06-23,2025-06-16,株式会社ＫＣライセ,,株式会社,三重県,津市,藤方１２３８番地ゴールドオルカサウス２０１,,24,201,5140815,,,2025-06-16,清算の結了等,,,2024-04-26,1,,,,,ケイシライセ,0
915,4200001031581,登記記録の閉鎖等,0,2025-06-23,2025-06-18,株式会社Ｉ・Ｍ商会,,株式会社,岐阜県,多治見市,滝呂町７丁目５０番地の１,,21,204,5070813,,,2025-06-18,清算の結了等,,,2015-10-05,1,,,,,アイエムショウカイ,0
917,4200002008166,登記記録の閉鎖等,0,2025-06-23,2025-06-17,有限会社明光,,有限会社,岐阜県,各務原市,那加前洞新町４丁目１２６番地,,21,213,5040021,,,2025-06-17,清算の結了等,,,2015-10-05,1,,,,,メイコウ,0
923,4250002006685,登記記録の閉鎖等,0,2025-06-23,2025-06-18,有限会社千代田テクノシステム,,有限会社,山口県,山陽小野田市,大学通２丁目３番３３号,,35,216,7560884,,,2025-06-18,清算の結了等,,,2015-10-05,1,,,,,チヨダテクノシステム,0
932,4290002023289,登記記録の閉鎖等,0,2025-06-23,2025-06-13,有限会社ミヨシツーリスト,,有限会社,福岡県,福岡市中央区,黒門８番２号,,40,133,8100055,,,2025-06-13,清算の結了等,,,2015-10-05,1,,,,,ミヨシツーリスト,0
935,4290005003858,登記記録の閉鎖等,0,2025-06-23,2025-06-12,特定非営利活動法人文化施設支援機構,,その他の設立登記法人,福岡県,福岡市西区,橋本２丁目１６番１１号,,40,135,8190031,,,2025-06-12,清算の結了等,,,2015-10-05,1,,,,,ブンカシセツシエンキコウ,0
956,4370202000220,登記記録の閉鎖等,0,2025-06-23,2025-06-11,有限会社カトウ薬局,,有限会社,宮城県,大崎市,古川新堀字旭町４３番地,,04,215,9896214,,,2025-06-11,清算の結了等,,,2015-10-05,1,,,,,カトウヤッキョク,0
961,4390003001647,登記記録の閉鎖等,0,2025-06-23,2025-06-09,合同会社さかた男塾,,合同会社,山形県,酒田市,中町２丁目４番５号,,06,204,9980044,,,2025-06-09,清算の結了等,,,2019-08-15,1,,,,,サカタオトコジュク,0
962,4390005002494,登記記録の閉鎖等,0,2025-06-23,2025-06-11,協同組合上山専門店会,,その他の設立登記法人,山形県,上山市,十日町８番１４号,,06,207,9993153,,,2025-06-11,清算の結了等,,,2015-10-05,1,,,,,カミノヤマセンモンテンカイ,0
966,4420001000589,登記記録の閉鎖等,0,2025-06-23,2025-06-12,オリエント商会株式会社,,株式会社,青森県,青森市,第二問屋町３丁目６番８号,,02,201,0300113,,,2025-06-12,清算の結了等,,,2015-10-05,1,,,,,オリエントショウカイ,0
974,4460102003215,登記記録の閉鎖等,0,2025-06-23,2025-06-19,有限会社丸誠市川工務店,,有限会社,北海道,帯広市,西六条南３丁目１番地,,01,207,0800016,,,2025-06-19,清算の結了等,,,2015-10-05,1,,,,,マルセイイチカワコウムテン,0
989,5010001181321,登記記録の閉鎖等,0,2025-06-23,2025-06-06,株式会社ＳＭＩＬＥ,,株式会社,東京都,新宿区,市谷本村町７番４－２８０７号,,13,104,1620845,,,2025-06-06,清算の結了等,,,2017-02-09,1,,,,,スマイル,0
994,5010003035442,登記記録の閉鎖等,0,2025-06-23,2025-06-02,ＧＰＤあかつき合同会社,,合同会社,東京都,千代田区,一ツ橋２丁目５番５号,,13,101,1010003,,,2025-06-02,清算の結了等,,,2021-08-02,1,,,,,ジーピーディーアカツキ,0
1002,5010405021692,登記記録の閉鎖等,0,2025-06-23,2025-05-30,ジー・ジェイ・レジデンス・エイト特定目的会社,,その他の設立登記法人,東京都,港区,六本木１丁目９番１０号アークヒルズ仙石山森タワー４０階,,13,103,1060032,,,2025-05-30,清算の結了等,,,2023-01-04,1,,,,,ジージェイレジデンスエイト,0
1009,5010901041046,登記記録の閉鎖等,0,2025-06-23,2025-06-04,株式会社Ｈｏｎｅｙ　Ｃｒｏｗｎ,,株式会社,千葉県,柏市,塚崎１１４５番地９,,12,217,2770923,,,2025-06-04,清算の結了等,,,2017-11-08,1,,,,,ハニークラウン,0
1037,5020001004679,登記記録の閉鎖等,0,2025-06-23,2025-06-13,株式会社アクタス,,株式会社,神奈川県,横浜市旭区,上白根２丁目５番２３号,,14,112,2410002,,,2025-06-13,清算の結了等,,,2015-10-05,1,,,,,アクタス,0
1063,5030001106466,登記記録の閉鎖等,0,2025-06-23,2025-06-16,株式会社Ｒａｉｎｂｏｗ,,株式会社,埼玉県,比企郡嵐山町,大字川島１８８２番地３２,,11,342,3550213,,,2025-06-16,清算の結了等,,,2015-10-05,1,,,,,,0
1072,5040001082913,登記記録の閉鎖等,0,2025-06-23,2025-06-04,株式会社グラティア,,株式会社,千葉県,香取市,みずほ台２丁目９９１番地１１６,,12,236,2870064,,,2025-06-04,清算の結了等,,,2015-10-05,1,,,,,グラティア,0
1074,5040001113206,登記記録の閉鎖等,0,2025-06-23,2025-06-04,株式会社福本設計,,株式会社,千葉県,松戸市,五香南１丁目２４番地の１１,,12,207,2702212,,,2025-06-04,清算の結了等,,,2020-04-07,1,,,,,フクモトセッケイ,0
1079,5040003020301,登記記録の閉鎖等,0,2025-06-23,2025-06-02,合同会社ホットスタッフ,,合同会社,千葉県,印西市,竹袋１９７番地１,,12,231,2701325,,,2025-06-02,合併による解散等,1040001044768,令和７年６月１日千葉県印西市竹袋１９７番地１株式会社アートオート（1040001044768）に合併し解散,2022-06-21,1,,,,,ホットスタッフ,0
1102,5100005012645,登記記録の閉鎖等,0,2025-06-23,2025-06-11,一般社団法人木曽アーツ,,その他の設立登記法人,長野県,木曽郡木祖村,大字薮原１０６７番地,,20,425,3996201,,,2025-06-11,清算の結了等,,,2020-12-10,1,,,,,キソアーツ,0
1107,5120001157442,登記記録の閉鎖等,0,2025-06-23,2025-06-13,コトブキ運送株式会社,,株式会社,大阪府,門真市,東田町７番１６号,,27,223,5710034,,,2025-06-13,清算の結了等,,,2015-10-05,1,,,,,コトブキウンソウ,0
1109,5120001241956,登記記録の閉鎖等,0,2025-06-23,2025-06-16,Ｆｒｅｅ　ａｓ　ａ　ｂｉｒｄ株式会社,,株式会社,大阪府,大阪市中央区,徳井町２丁目１－１５第二共栄ビル８号室,,27,128,5400025,,,2025-06-16,清算の結了等,,,2021-11-19,1,,,,,フリーアズアバード,0
1120,5120002024427,登記記録の閉鎖等,0,2025-06-23,2025-06-19,有限会社吉川工務店,00030741,有限会社,大阪府,大阪市西淀川区,花川１丁目８番１９号,,27,113,5550023,,,2025-06-19,清算の結了等,,,2015-10-05,1,,,,,ヨシカワコウムテン,0
1138,5130001056973,登記記録の閉鎖等,0,2025-06-23,2025-06-16,株式会社Ｔ．ＷＡＶＥ,,株式会社,兵庫県,芦屋市,高浜町１５番２号,,28,206,6590033,,,2025-06-16,清算の結了等,,,2016-03-04,1,,,,,ティーウェイブ,0
1151,5140003015811,登記記録の閉鎖等,0,2025-06-23,2025-06-16,レジリ合同会社,,合同会社,兵庫県,丹波市,氷上町石生１５８３番地１,,28,223,6693464,,,2025-06-16,清算の結了等,,,2021-01-13,1,,,,,レジリ,0
1158,5180001045617,登記記録の閉鎖等,0,2025-06-23,2025-06-16,株式会社シンユー,,株式会社,愛知県,清須市,西枇杷島町地領１丁目８番地の３,,23,233,4520008,,,2025-06-16,清算の結了等,,,2015-10-05,1,,,,,シンユー,0
1165,5190001006535,登記記録の閉鎖等,0,2025-06-23,2025-06-13,大屋タクシー株式会社,,株式会社,三重県,伊勢市,神社港３００番地の２,,24,203,5160004,,,2025-06-13,清算の結了等,,,2015-10-05,1,,,,,オオヤタクシー,0
1176,5240001045420,登記記録の閉鎖等,0,2025-06-23,2025-06-16,株式会社アサヒコンサルタント,,株式会社,広島県,東広島市,黒瀬町上保田６４－１－１０５,,34,212,7392625,,,2025-06-16,清算の結了等,,,2015-10-05,1,,,,,カブシキガシャアサヒコンサルタント,0
1177,5240002013657,登記記録の閉鎖等,0,2025-06-23,2025-06-18,有限会社広島駅前チャンスセンター,,有限会社,広島県,広島市南区,旭１丁目５番２８号,,34,103,7340036,,,2025-06-18,清算の結了等,,,2015-10-05,1,,,,,ヒロシマエキマエチャンスセンター,0
1181,5250001017864,登記記録の閉鎖等,0,2025-06-23,2025-06-19,株式会社ＫＴＩ,,株式会社,山口県,下関市,綾羅木本町３丁目４番２５号,,35,201,7510849,,,2025-06-19,清算の結了等,,,2019-09-17,1,,,,,ケイティアイ,0
1201,5290801002780,登記記録の閉鎖等,0,2025-06-23,2025-06-20,日研精工株式会社,,株式会社,福岡県,北九州市小倉北区,中井５丁目１９番２７号,,40,106,8030836,,,2025-06-20,清算の結了等,,,2015-10-05,1,,,,,ニッケンセイコウ,0
1207,5320001004500,登記記録の閉鎖等,0,2025-06-23,2025-06-13,株式会社麗昇,,株式会社,大分県,大分市,横塚２丁目２０７番地,,44,201,8700254,,,2025-06-13,清算の結了等,,,2015-10-05,1,,,,,,0
1208,5320001016330,登記記録の閉鎖等,0,2025-06-23,2025-06-13,株式会社リアースエナジー,,株式会社,大分県,大分市,下郡東１丁目４番１５号セピアＮＯＤＡ１０５号室,,44,201,8700953,,,2025-06-13,清算の結了等,,,2018-04-19,1,,,,,リアースエナジー,0
1216,5330005003448,登記記録の閉鎖等,0,2025-06-23,2025-06-12,農事組合法人木の子苑,,その他の設立登記法人,熊本県,山鹿市,方保田８５６番地の３,,43,208,8610382,,,2025-06-12,清算の結了等,,,2015-10-05,1,,,,,キノコエン,0
1230,5410001007551,登記記録の閉鎖等,0,2025-06-23,2025-06-16,株式会社里山村,,株式会社,秋田県,山本郡三種町,志戸橋字大木台１２５番地５,,05,348,0182301,,,2025-06-16,清算の結了等,,,2015-10-05,1,,,,,サトヤマムラ,0
1243,5460101000633,登記記録の閉鎖等,0,2025-06-23,2025-06-16,坂本ビル株式会社,,株式会社,北海道,帯広市,西六条南１４丁目１１番地,,01,207,0800016,,,2025-06-16,清算の結了等,,,2015-10-05,1,,,,,サカモトビル,0
1275,6010405018878,登記記録の閉鎖等,0,2025-06-23,2025-05-30,一般社団法人日本オラクルカードリーディング協会,,その他の設立登記法人,東京都,港区,浜松町２丁目２番１５号浜松町ダイヤビル２Ｆ,,13,103,1050013,,,2025-05-30,清算の結了等,,,2020-07-13,1,,,,,ニホンオラクルカードリーディングキョウカイ,0
1289,6011101080032,登記記録の閉鎖等,0,2025-06-23,2025-06-02,株式会社ＣＨＡＩＮ,,株式会社,東京都,新宿区,新宿２丁目２番４号,,13,104,1600022,,,2025-06-02,清算の結了等,,,2017-03-30,1,,,,,チェイン,0
1291,6011201005789,登記記録の閉鎖等,0,2025-06-23,2025-06-16,和興建設コンサルタント株式会社,,株式会社,東京都,中野区,本町５丁目１７番１３号,,13,114,1640012,,,2025-06-16,清算の結了等,,,2024-11-22,1,,,,,,0
1296,6011801038222,登記記録の閉鎖等,0,2025-06-23,2025-06-16,株式会社Ｅｄｅｎ,,株式会社,埼玉県,川口市,江戸袋１丁目１５番５号,,11,203,3340075,,,2025-06-16,清算の結了等,,,2020-10-12,1,,,,,エデン,0
1303,6012802006787,登記記録の閉鎖等,0,2025-06-23,2025-06-12,有限会社アーキテック,,有限会社,東京都,昭島市,郷地町２丁目３５番１号,,13,207,1960032,,,2025-06-12,清算の結了等,,,2015-10-05,1,,,,,アーキテック,0
1317,6020001158763,登記記録の閉鎖等,0,2025-06-23,2025-06-13,株式会社Ｓｅａ　Ｐｌａｎｎｉｎｇ,,株式会社,神奈川県,川崎市中原区,上小田中６丁目１０番１号,,14,133,2110053,,,2025-06-13,清算の結了等,,,2024-08-13,1,,,,,シープランニング,0
1323,6020002083812,登記記録の閉鎖等,0,2025-06-23,2025-06-17,有限会社粧ハウス・ケイアンドケイ,,有限会社,神奈川県,川崎市中原区,新城１丁目１５番９号,,14,133,2110044,,,2025-06-17,清算の結了等,,,2015-10-05,1,,,,,ショウハウスケイアンドケイ,0
1345,6040001068531,登記記録の閉鎖等,0,2025-06-23,2025-06-05,株式会社カミング,,株式会社,千葉県,我孫子市,我孫子３丁目７番９号,,12,222,2701166,,,2025-06-05,清算の結了等,,,2015-10-05,1,,,,,カミング,0
1346,6040001121174,登記記録の閉鎖等,0,2025-06-23,2025-06-17,辰株式会社,,株式会社,東京都,港区,浜松町２丁目２番１５号浜松町ダイヤビル２Ｆ,,13,103,1050013,,,2025-06-17,清算の結了等,,,2021-11-29,1,,,,,タツミ,0
1350,6040003005763,登記記録の閉鎖等,0,2025-06-23,2025-06-02,合同会社はばかりねっと,,合同会社,千葉県,香取市,小見川２０７９番地４,,12,236,2890313,,,2025-06-02,清算の結了等,,,2015-10-05,1,,,,,ハバカリネット,0
1357,6050002044588,登記記録の閉鎖等,0,2025-06-23,2025-06-10,有限会社小林燃料,,有限会社,茨城県,結城市,大字結城１１９７２番地,,08,207,3070001,,,2025-06-10,清算の結了等,,,2015-10-05,1,,,,,コバヤシネンリョウ,0
1364,6080102003747,登記記録の閉鎖等,0,2025-06-23,2025-06-16,有限会社ユーアイエスコーポレーション,,有限会社,静岡県,沼津市,三枚橋町５番１１号,,22,203,4100037,,,2025-06-16,清算の結了等,,,2015-10-05,1,,,,,,0
1371,6100001020840,登記記録の閉鎖等,0,2025-06-23,2025-06-17,日通伊那運輸株式会社,,株式会社,長野県,伊那市,中の原８２２８番地１６７,,20,209,3960031,,,2025-06-17,清算の結了等,,,2015-10-05,1,,,,,ニッツウイナウンユ,0
1380,6120001248133,登記記録の閉鎖等,0,2025-06-23,2025-06-16,株式会社ＶＥＮＵＳ　ＢＲＩＤＧＥ,,株式会社,大阪府,大阪市港区,弁天５丁目６番６号,,27,107,5520007,,,2025-06-16,清算の結了等,,,2022-08-16,1,,,,,ヴィーナスブリッジ,0
1400,6130001063143,登記記録の閉鎖等,0,2025-06-23,2025-06-17,株式会社山兵,,株式会社,京都府,京都市下京区,中堂寺南町１３４番地,,26,106,6008813,,,2025-06-17,清算の結了等,,,2018-10-18,1,,,,,ヤマヒョウ,0
1401,6130002033129,登記記録の閉鎖等,0,2025-06-23,2025-06-18,有限会社中島工業,,有限会社,京都府,福知山市,土師宮町１丁目６０番地の９,,26,201,6200856,,,2025-06-18,清算の結了等,,,2015-10-05,1,,,,,ナカジマコウギョウ,0
1407,6140003008839,登記記録の閉鎖等,0,2025-06-23,2025-06-19,合同会社エスアンドエフ,,合同会社,兵庫県,川西市,加茂２丁目２０番２０号,,28,217,6660025,,,2025-06-19,清算の結了等,,,2015-10-05,1,,,,,,0
1409,6140003020637,登記記録の閉鎖等,0,2025-06-23,2025-06-16,合同会社みこえ,,合同会社,兵庫県,神戸市北区,幸陽町１丁目１８番地エスペランス幸陽台７１３号,,28,109,6511203,,,2025-06-16,清算の結了等,,,2024-06-03,1,,,,,ミコエ,0
1418,6180005014419,登記記録の閉鎖等,0,2025-06-23,2025-06-19,一般社団法人福祉・介護移送ネットワークＡＣＴ,,その他の設立登記法人,愛知県,名古屋市中区,栄４丁目１６番２９号中統奨学館ビル８０２,,23,106,4600008,,,2025-06-19,清算の結了等,,,2015-10-05,1,,,,,フクシカイゴイソウネットワークアクト,0
1428,6220003003600,登記記録の閉鎖等,0,2025-06-23,2025-06-19,わこころ合同会社,,合同会社,石川県,金沢市,角間町ヌ７番地金沢大学ベンチャー・ビジネス・ラボラトリー,,17,201,9201164,,,2025-06-19,清算の結了等,,,2023-10-05,1,,,,,ワココロ,0
1436,6280002009972,登記記録の閉鎖等,0,2025-06-23,2025-06-20,有限会社三陽,,有限会社,島根県,益田市,木部町イ１３３０番地１,,32,204,6993502,,,2025-06-20,清算の結了等,,,2015-10-05,1,,,,,サンヨウ,0
1450,6330001012476,登記記録の閉鎖等,0,2025-06-23,2025-06-17,株式会社蘇生堂,,株式会社,京都府,京都市左京区,修学院開根坊町８番地１,,26,103,6068036,,,2025-06-17,清算の結了等,,,2015-10-05,1,,,,,ソセイドウ,0
1451,6330001018143,登記記録の閉鎖等,0,2025-06-23,2025-06-13,共生薬品株式会社,,株式会社,熊本県,熊本市南区,川尻４丁目１３番３５号,,43,104,8614115,,,2025-06-13,清算の結了等,,,2015-10-05,1,,,,,キョウセイヤクヒン,0
1458,6400001014028,登記記録の閉鎖等,0,2025-06-23,2025-06-06,株式会社千葉也商会,,株式会社,岩手県,大船渡市,立根町字前谷地１８番地３５,,03,203,0220006,,,2025-06-06,清算の結了等,,,2018-02-05,1,,,,,,0
1473,6500002006542,登記記録の閉鎖等,0,2025-06-23,2025-06-17,有限会社ミカワ開発,,有限会社,愛媛県,松山市,南久米町５１３番地１,,38,201,7900924,,,2025-06-17,清算の結了等,,,2015-10-05,1,,,,,ミカワカイハツ,0
1484,7010003035556,登記記録の閉鎖等,0,2025-06-23,2025-06-02,ＧＰＤかえで合同会社,,合同会社,東京都,千代田区,一ツ橋２丁目５番５号,,13,101,1010003,,,2025-06-02,清算の結了等,,,2021-08-10,1,,,,,ジーピーディーカエデ,0
1521,7011001099931,登記記録の閉鎖等,0,2025-06-23,2025-06-10,株式会社プレシード・パートナーズ,,株式会社,東京都,品川区,上大崎３丁目１番１号,,13,109,1410021,,,2025-06-10,合併による解散等,9010701045920,令和７年６月１日東京都品川区上大崎三丁目１番１号カルチュア・エンタテインメント株式会社（9010701045920）に合併し解散,2015-10-05,1,,,,,プレシードパートナーズ,0
1523,7011001137996,登記記録の閉鎖等,0,2025-06-23,2025-06-03,Ｗ８ｌｅｓｓ　Ｊａｐａｎ株式会社,,株式会社,東京都,文京区,湯島３丁目２８番１８号,,13,105,1130034,,,2025-06-03,清算の結了等,,,2021-01-18,1,,,,,ウエイトレスジャパン,0
1537,7011702006962,登記記録の閉鎖等,0,2025-06-23,2025-06-13,有限会社タイヨー営繕センター,,有限会社,東京都,江戸川区,北小岩７丁目２６番７号,,13,123,1330051,,,2025-06-13,清算の結了等,,,2015-10-05,1,,,,,,0
1550,7021001034177,登記記録の閉鎖等,0,2025-06-23,2025-06-06,佐藤工業株式会社,,株式会社,神奈川県,足柄上郡山北町,山北２５５６番地,,14,364,2580113,,,2025-06-06,清算の結了等,,,2015-10-05,1,,,,,サトウコウギョウ,0
1554,7030001049135,登記記録の閉鎖等,0,2025-06-23,2025-06-17,株式会社エアーテック,,株式会社,埼玉県,和光市,南１丁目１１番１７号,,11,229,3510104,,,2025-06-17,清算の結了等,,,2015-10-05,1,,,,,エアーテック,0
1564,7030002084115,登記記録の閉鎖等,0,2025-06-23,2025-06-17,有限会社アイ・アール,,有限会社,埼玉県,鴻巣市,糠田１５２５番地６,,11,217,3650059,,,2025-06-17,清算の結了等,,,2015-10-05,1,,,,,アイアール,0
1565,7030002119705,登記記録の閉鎖等,0,2025-06-23,2025-06-16,有限会社西尾工業,,有限会社,埼玉県,飯能市,大字岩沢６番地３,,11,209,3570023,,,2025-06-16,清算の結了等,,,2015-10-05,1,,,,,ニシオコウギョウ,0
1569,7040001011861,登記記録の閉鎖等,0,2025-06-23,2025-06-05,海洋技建システム株式会社,,株式会社,千葉県,千葉市緑区,大木戸町２１２番地１０２,,12,105,2670057,,,2025-06-05,清算の結了等,,,2015-10-05,1,,,,,カイヨウギケンシステム,0
1580,7060002026510,登記記録の閉鎖等,0,2025-06-23,2025-06-16,有限会社陽,,有限会社,栃木県,宇都宮市,清原工業団地２１番地１６,,09,201,3213231,,,2025-06-16,清算の結了等,,,2015-10-05,1,,,,,ヒナタ,0
1582,7080005007332,登記記録の閉鎖等,0,2025-06-23,2025-06-16,特定非営利活動法人ＩＢＵＫＩ,,その他の設立登記法人,静岡県,静岡市駿河区,西島６４５番地の１,,22,102,4228045,,,2025-06-16,清算の結了等,,,2021-01-29,1,,,,,イブキ,0
1584,7080402005566,登記記録の閉鎖等,0,2025-06-23,2025-06-18,有限会社豊中電線工業所,,有限会社,静岡県,浜松市中央区,中野町７１３番地,,22,138,4350004,,,2025-06-18,清算の結了等,,,2015-10-05,1,,,,,トヨナカデンセンコウギョウショ,0
1596,7120001247571,登記記録の閉鎖等,0,2025-06-23,2025-06-13,東花園ＰＪ株式会社,,株式会社,大阪府,大阪市西区,江戸堀１丁目２５番３０号,,27,106,5500002,,,2025-06-13,清算の結了等,,,2022-07-25,1,,,,,ヒガシハナゾノピージェイ,0
1610,7120901022578,登記記録の閉鎖等,0,2025-06-23,2025-06-17,株式会社アーク,,株式会社,兵庫県,西宮市,甲陽園目神山町３１番１３４号,,28,204,6620011,,,2025-06-17,清算の結了等,,,2015-10-05,1,,,,,アーク,0
1627,7150001021263,登記記録の閉鎖等,0,2025-06-23,2025-06-20,株式会社ＳＵＮＥＮ,,株式会社,奈良県,奈良市,元林院町１８番地,,29,201,6308221,,,2025-06-20,清算の結了等,,,2017-02-03,1,,,,,サンエン,0
1637,7190001007738,登記記録の閉鎖等,0,2025-06-23,2025-06-05,株式会社盛商,,株式会社,三重県,伊勢市,二見町西１００４番地１８２,,24,203,5190607,,,2025-06-05,清算の結了等,,,2015-10-05,1,,,,,モリショウ,0
1639,7190002015582,登記記録の閉鎖等,0,2025-06-23,2025-06-16,有限会社カドヤ,,有限会社,三重県,多気郡大台町,新田５７６番地７,,24,443,5192423,,,2025-06-16,清算の結了等,,,2015-10-05,1,,,,,,0
1644,7240001008532,登記記録の閉鎖等,0,2025-06-23,2025-06-17,株式会社日進タクシー,,株式会社,広島県,広島市東区,山根町１７番３－６０４号,,34,102,7320048,,,2025-06-17,清算の結了等,,,2015-10-05,1,,,,,ニッシンタクシー,0
1652,7250001011378,登記記録の閉鎖等,0,2025-06-23,2025-06-11,山陽開発株式会社,,株式会社,山口県,岩国市,今津町４丁目６番４号,,35,208,7400017,,,2025-06-11,清算の結了等,,,2015-10-05,1,,,,,サンヨウカイハツ,0
1653,7260002032307,登記記録の閉鎖等,0,2025-06-23,2025-06-16,有限会社ポスト,,有限会社,岡山県,備前市,穂浪３９９番地,,33,211,7050033,,,2025-06-16,清算の結了等,,,2015-10-05,1,,,,,ポスト,0
1658,7290001053367,登記記録の閉鎖等,0,2025-06-23,2025-06-06,株式会社平川建設,,株式会社,福岡県,柳川市,大和町栄７３０番地１,,40,207,8390252,,,2025-06-06,清算の結了等,,,2015-10-05,1,,,,,,0
1691,7380001026454,登記記録の閉鎖等,0,2025-06-23,2025-06-11,株式会社梁川建成工業,,株式会社,福島県,伊達市,箱崎字原４７番地１,,07,213,9600502,,,2025-06-11,清算の結了等,,,2016-02-09,1,,,,,,0
1696,7400005008297,登記記録の閉鎖等,0,2025-06-23,2025-06-05,一般社団法人ふぁいる,,その他の設立登記法人,岩手県,北上市,稲瀬町上台２０５番地,,03,206,0240041,,,2025-06-05,清算の結了等,,,2023-02-08,1,,,,,ファイル,0
1701,7480002012906,登記記録の閉鎖等,0,2025-06-23,2025-06-16,有限会社喜久屋住宅設備工事店,,有限会社,徳島県,阿南市,新野町東馬場１９－５．１９－６,,36,204,7791510,,,2025-06-16,清算の結了等,,,2015-10-05,1,,,,,キクヤジュウタクセツビコウジテン,0
1716,8010002001608,登記記録の閉鎖等,0,2025-06-23,2025-06-04,有限会社加文字工業所,,有限会社,東京都,文京区,本駒込４丁目２４番２号,,13,105,1130021,,,2025-06-04,清算の結了等,,,2015-10-05,1,,,,,カモンジコウギョウショ,0
1717,8010003035555,登記記録の閉鎖等,0,2025-06-23,2025-06-02,ＧＰＤはやて合同会社,,合同会社,東京都,千代田区,一ツ橋２丁目５番５号,,13,101,1010003,,,2025-06-02,清算の結了等,,,2021-08-10,1,,,,,ジーピーディーハヤテ,0
1731,8010401085862,登記記録の閉鎖等,0,2025-06-23,2025-06-05,榮光ライフケアサポート株式会社,,株式会社,東京都,港区,三田５丁目１６番３号,,13,103,1080073,,,2025-06-05,清算の結了等,,,2015-10-05,1,,,,,エイコウライフケアサポート,0
1736,8010403031212,登記記録の閉鎖等,0,2025-06-23,2025-05-30,合同会社ＥＶＯＫＥ８１,,合同会社,東京都,港区,芝公園２丁目１１番１３－５０６号,,13,103,1050011,,,2025-05-30,清算の結了等,,,2023-10-23,1,,,,,エヴォークエイティワン,0
1752,8010902019971,登記記録の閉鎖等,0,2025-06-23,2025-06-20,有限会社リンクス,,有限会社,東京都,世田谷区,三軒茶屋１丁目３５番４号,,13,112,1540024,,,2025-06-20,清算の結了等,,,2015-10-05,1,,,,,リンクス,0
1756,8011003012123,登記記録の閉鎖等,0,2025-06-23,2025-05-27,合同会社ａｍｉｌｉ,,合同会社,東京都,渋谷区,神宮前６丁目９番６号１階,,13,113,1500001,,,2025-05-27,清算の結了等,,,2021-01-18,1,,,,,アミリ,0
1763,8011301000102,登記記録の閉鎖等,0,2025-06-23,2025-06-18,株式会社愛典福島屋,,株式会社,東京都,杉並区,荻窪２丁目２３番１２号,,13,115,1670051,,,2025-06-18,合併による解散等,4070001003272,令和７年５月３１日群馬県前橋市大友町一丁目２番１１号株式会社メモリードグループ（4070001003272）に合併し解散,2015-10-05,1,,,,,アイテンフクシマヤ,0
1781,8012801000830,登記記録の閉鎖等,0,2025-06-23,2025-06-17,株式会社立川総合ケアセンター,,株式会社,東京都,立川市,富士見町１丁目１９番８号,,13,202,1900013,,,2025-06-17,清算の結了等,,,2015-10-05,1,,,,,タチカワソウゴウケアセンター,0
1786,8020001060414,登記記録の閉鎖等,0,2025-06-23,2025-06-13,株式会社信和,,株式会社,神奈川県,横浜市鶴見区,駒岡５丁目１３番２４号,,14,101,2300071,,,2025-06-13,清算の結了等,,,2015-10-05,1,,,,,シンワ,0
1790,8020001114863,登記記録の閉鎖等,0,2025-06-23,2025-06-17,株式会社夢空想,,株式会社,神奈川県,横浜市南区,通町３丁目７２番地１,,14,105,2320056,,,2025-06-17,合併による解散等,4020001034289,令和７年５月２９日横浜市西区高島２－１０－１３横浜東口ビル１Ｆ株式会社夢人（4020001034289）に合併し解散,2016-02-19,1,,,,,ユメクウソウ,0
1799,8020003012512,登記記録の閉鎖等,0,2025-06-23,2025-06-16,合同会社ジャンジャリー,,合同会社,神奈川県,横浜市都筑区,東方町８９９番地,,14,118,2240045,,,2025-06-16,清算の結了等,,,2017-03-21,1,,,,,ジャンジャリー,0
1807,8021003014085,登記記録の閉鎖等,0,2025-06-23,2025-06-06,合同会社サンクリーン,,合同会社,神奈川県,座間市,栗原中央５丁目７番１７号,,14,216,2520014,,,2025-06-06,清算の結了等,,,2024-01-30,1,,,,,サンクリーン,0
1826,8040001026462,登記記録の閉鎖等,0,2025-06-23,2025-06-04,株式会社信成,,株式会社,千葉県,市川市,北国分４丁目１番１８号,,12,203,2720836,,,2025-06-04,清算の結了等,,,2015-10-05,1,,,,,シンセイ,0
1844,8100001023024,登記記録の閉鎖等,0,2025-06-23,2025-06-16,河野木材株式会社,,株式会社,長野県,下伊那郡豊丘村,大字河野１６４３番地,,20,416,3993201,,,2025-06-16,清算の結了等,,,2015-10-05,1,,,,,コウノモクザイ,0
1853,8120001250905,登記記録の閉鎖等,0,2025-06-23,2025-06-11,株式会社コネクト,,株式会社,大阪府,大阪市中央区,南本町１丁目５－１５,,27,128,5410054,,,2025-06-11,清算の結了等,,,2022-12-08,1,,,,,コネクト,0
1862,8120901018559,登記記録の閉鎖等,0,2025-06-23,2025-06-13,株式会社ベルジャンチョコレートジャパン,,株式会社,大阪府,茨木市,東太田２丁目４番２４号,,27,211,5670012,,,2025-06-13,清算の結了等,,,2015-10-05,1,,,,,ベルジャンチョコレートジャパン,0
1881,8140001124297,登記記録の閉鎖等,0,2025-06-23,2025-06-13,株式会社Ｎｅ,,株式会社,兵庫県,神戸市中央区,中山手通１丁目５番８号イナバビル５Ｆ,,28,110,6500004,,,2025-06-13,清算の結了等,,,2022-01-05,1,,,,,エヌイー,0
1884,8140002047258,登記記録の閉鎖等,0,2025-06-23,2025-06-13,有限会社あさだ,,有限会社,兵庫県,姫路市,豊富町御蔭２１５０番地の１８,,28,201,6792122,,,2025-06-13,清算の結了等,,,2015-10-05,1,,,,,アサダ,0
1900,8220005002895,登記記録の閉鎖等,0,2025-06-23,2025-06-18,農事組合法人松南園芸組合,,その他の設立登記法人,石川県,白山市,向島町４９３番地３,,17,210,9240833,,,2025-06-18,清算の結了等,,,2015-10-05,1,,,,,ショウナンエンゲイクミアイ,0
1907,8250002003621,登記記録の閉鎖等,0,2025-06-23,2025-06-20,有限会社レーベン中山,,有限会社,山口県,防府市,大字牟礼７４８番地の１１,,35,206,7470004,,,2025-06-20,清算の結了等,,,2015-10-05,1,,,,,,0
1911,8290001032584,登記記録の閉鎖等,0,2025-06-23,2025-06-16,株式会社ＮＢＣ,,株式会社,福岡県,福岡市博多区,東那珂１丁目９番７号,,40,132,8120892,,,2025-06-16,清算の結了等,,,2015-10-05,1,,,,,エヌビーシー,0
1941,8410003003629,登記記録の閉鎖等,0,2025-06-23,2025-06-16,合同会社創林,,合同会社,秋田県,湯沢市,皆瀬字上貝沼４５番地５,,05,207,0120183,,,2025-06-16,清算の結了等,,,2022-03-22,1,,,,,ソウリン,0
1954,8470005005808,登記記録の閉鎖等,0,2025-06-23,2025-06-13,一般社団法人仕事図鑑,,その他の設立登記法人,香川県,高松市,桜町２丁目１４番１４号,,37,201,7600074,,,2025-06-13,清算の結了等,,,2015-10-05,1,,,,,シゴトズカン,0
1961,9010001053228,登記記録の閉鎖等,0,2025-06-23,2025-06-04,日誠広告株式会社,,株式会社,東京都,中央区,東日本橋３丁目１２番１１号,,13,102,1030004,,,2025-06-04,清算の結了等,,,2015-10-05,1,,,,,ニッセイコウコク,0
1969,9010003035554,登記記録の閉鎖等,0,2025-06-23,2025-06-02,ＧＰＤわかば合同会社,,合同会社,東京都,千代田区,一ツ橋２丁目５番５号,,13,101,1010003,,,2025-06-02,清算の結了等,,,2021-08-10,1,,,,,ジーピーディーワカバ,0
1970,9010101000880,登記記録の閉鎖等,0,2025-06-23,2025-06-17,株式会社雅邦,,株式会社,東京都,八王子市,川口町１６９０番地の５３,,13,201,1930801,,,2025-06-17,清算の結了等,,,2015-10-05,1,,,,,ガホウ,0
1971,9010401023573,登記記録の閉鎖等,0,2025-06-23,2025-06-02,株式会社ノーマ・ジーン,,株式会社,東京都,港区,南麻布４丁目２番４９号,,13,103,1060047,,,2025-06-02,合併による解散等,4010401097507,令和７年６月１日東京都港区南麻布四丁目２番４９号株式会社モンジー（4010401097507）に合併し解散,2015-10-05,1,,,,,ノーマジーン,0
1974,9010401188210,登記記録の閉鎖等,0,2025-06-23,2025-05-30,エスケイ株式会社,,株式会社,東京都,港区,浜松町２丁目２番１５号浜松町ダイヤビル２階,,13,103,1050013,,,2025-05-30,清算の結了等,,,2025-02-14,1,,,,,エスケイ,0
1987,9010703004726,登記記録の閉鎖等,0,2025-06-23,2025-05-30,アシュトンジャパン合同会社,,合同会社,東京都,港区,元麻布２丁目１４番３６号Ｃ,,13,103,1060046,,,2025-05-30,清算の結了等,,,2019-04-01,1,,,,,アシュトンジャパン,0
1998,9011001126436,登記記録の閉鎖等,0,2025-06-23,2025-05-28,株式会社ＦＩＮＯ　ＡＬＬＡ　ＦＩＮＥ,,株式会社,東京都,渋谷区,松濤２丁目１７番１２号八木原第２ビル４０２,,13,113,1500046,,,2025-05-28,清算の結了等,,,2019-02-06,1,,,,,フィーノアラフィーネ,0
2024,9013301042924,登記記録の閉鎖等,0,2025-06-23,2025-06-13,ＫｉｎＹｉｐ　Ｔｅｃｈｎｏｌｏｇｙ　Ｅｌｅｃｔｒｏｎｉｃｓ　ＪＡＰＡＮ株式会社,,株式会社,埼玉県,さいたま市大宮区,天沼町１丁目１９７番地２,,11,103,3300834,,,2025-06-13,清算の結了等,,,2018-10-16,1,,,,,キンイップテクノロジーエレクトロニクスジャパン,0
2028,9020001094337,登記記録の閉鎖等,0,2025-06-23,2025-06-13,株式会社松電社大場店,,株式会社,神奈川県,横浜市青葉区,大場町２５４番地,,14,117,2250023,,,2025-06-13,清算の結了等,,,2015-10-05,1,,,,,ショウデンシャオオバテン,0
2036,9020002103039,登記記録の閉鎖等,0,2025-06-23,2025-06-18,有限会社黒川製作所,,有限会社,神奈川県,川崎市麻生区,黒川４８２番地,,14,137,2150035,,,2025-06-18,清算の結了等,,,2015-10-05,1,,,,,クロカワセイサクショ,0
2041,9030001084460,登記記録の閉鎖等,0,2025-06-23,2025-06-16,株式会社猪股工業,00015452,株式会社,埼玉県,熊谷市,上之５５０番地３,,11,202,3600012,,,2025-06-16,清算の結了等,,,2015-10-05,1,,,,,イノマタコウギョウ,0
2042,9030001150527,登記記録の閉鎖等,0,2025-06-23,2025-06-17,ＮＮＤ株式会社,,株式会社,神奈川県,横浜市西区,浅間町１丁目４番３号ウィザードビル４０２,,14,103,2200072,,,2025-06-17,清算の結了等,,,2022-10-12,1,,,,,エヌエヌディー,0
2074,9090002003769,登記記録の閉鎖等,0,2025-06-23,2025-06-12,有限会社正伸精機製作所,,有限会社,山梨県,甲斐市,西八幡４０７４番地,,19,210,4000117,,,2025-06-12,清算の結了等,,,2015-10-05,1,,,,,セイシンセイキサイサクショ,0
2085,9120001257775,登記記録の閉鎖等,0,2025-06-23,2025-06-19,Ｂｅｒｅｎｄ株式会社,,株式会社,大阪府,大阪市大正区,三軒家西３丁目４番１６号中山ビル１０２９,,27,108,5510001,,,2025-06-19,清算の結了等,,,2023-09-08,1,,,,,ベレント,0
2093,9122001001460,登記記録の閉鎖等,0,2025-06-23,2025-06-19,株式会社キンキ,,株式会社,大阪府,東大阪市,長田東２丁目２番３号２０２,,27,227,5770012,,,2025-06-19,清算の結了等,,,2015-10-05,1,,,,,キンキ,0
2111,9150001022508,登記記録の閉鎖等,0,2025-06-23,2025-06-20,株式会社ウィズ,,株式会社,奈良県,奈良市,中山町１５５８番地の３,,29,201,6310012,,,2025-06-20,清算の結了等,,,2018-09-12,1,,,,,ウィズ,0
2129,9250001012993,登記記録の閉鎖等,0,2025-06-23,2025-06-16,株式会社プランエイド山口,,株式会社,山口県,熊毛郡平生町,大字平生村６番地８,,35,344,7421102,,,2025-06-16,清算の結了等,,,2015-10-05,1,,,,,プランエイドヤマグチ,0
2137,9280002000730,登記記録の閉鎖等,0,2025-06-23,2025-06-20,有限会社ＡＢＥメディカルサポート,,有限会社,島根県,松江市,砂子町２１１番地１－６０７号,,32,201,6900878,,,2025-06-20,清算の結了等,,,2015-10-05,1,,,,,アベメディカルサポート,0
2148,9320003003109,登記記録の閉鎖等,0,2025-06-23,2025-06-13,合同会社ほほえみ,,合同会社,大分県,別府市,西野口町１４番１１号,,44,202,8740931,,,2025-06-13,清算の結了等,,,2019-10-31,1,,,,,ホホエミ,0
2162,9390001002502,登記記録の閉鎖等,0,2025-06-23,2025-06-10,株式会社最上ブロツク工業所,,株式会社,山形県,東村山郡中山町,大字長崎３０６３番地の３,,06,302,9900401,,,2025-06-10,清算の結了等,,,2015-10-05,1,,,,,モガミブロックコウギョウショ,0
2163,9390002006551,登記記録の閉鎖等,0,2025-06-23,2025-06-11,有限会社大戸建築,,有限会社,山形県,山形市,吉原１丁目１番６号,,06,201,9902451,,,2025-06-11,清算の結了等,,,2015-10-05,1,,,,,オオトケンチク,0
