sequenceNumber,corporateNumber,process,correct,updateDate,changeDate,name,nameImageId,kind,prefectureName,cityName,streetNumber,addressImageId,prefectureCode,cityCode,postCode,addressOutside,addressOutsideImageId,closeDate,closeCause,successorCorporateNumber,changeCause,assignmentDate,latest,enName,enPrefectureName,enCityName,enAddressOutside,furigana,hihyoji
8,1010001258569,新規,0,2025-10-03,2025-10-03,株式会社アーツ,,株式会社,東京都,中央区,銀座７丁目１３－２０銀座ＴＨビル９階,,13,102,1040061,,,,,,,2025-10-03,1,,,,,アーツ,0
10,1010001258882,新規,0,2025-10-03,2025-10-03,株式会社ＭＹＣ,,株式会社,東京都,千代田区,平河町２丁目７番５号,,13,101,1020093,,,,,,,2025-10-03,1,,,,,エムワイシー,0
11,1010001259047,新規,0,2025-10-03,2025-10-03,ＫＡＰＰＩ株式会社,,株式会社,東京都,千代田区,神田須田町１丁目７番地８ＶＯＲＴ秋葉原ＩＶ２Ｆ,00140929,13,101,1010041,,,,,,,2025-10-03,1,,,,,カッピ,0
20,1010003048885,新規,0,2025-10-03,2025-10-03,合同会社翡翠,,合同会社,東京都,千代田区,神田和泉町１番地６－１６ヤマトビル４０５,,13,101,1010024,,,,,,,2025-10-03,1,,,,,ヒスイ,0
21,1010003048919,新規,0,2025-10-03,2025-10-03,合同会社ＬＱ１号,,合同会社,東京都,中央区,日本橋１丁目４番１号日本橋一丁目ビルディング,,13,102,1030027,,,,,,,2025-10-03,1,,,,,エルキューイチゴウ,0
22,1010003048927,新規,0,2025-10-03,2025-10-03,合同会社コスモスギャラリー,,合同会社,東京都,中央区,銀座１丁目２２－１１銀座大竹ビジデンス２階,,13,102,1040061,,,,,,,2025-10-03,1,,,,,コスモスギャラリー,0
29,1010401193341,新規,0,2025-10-03,2025-10-03,株式会社ＦＹＴ,,株式会社,東京都,港区,新橋２丁目２０－１５新橋駅前ビル１号館６階,,13,103,1050004,,,,,,,2025-10-03,1,,,,,エフワイティー,0
30,1010401193556,新規,0,2025-10-03,2025-10-03,Ｗｉｉｌｌｏｗ　Ｊａｐａｎ株式会社,,株式会社,東京都,港区,港南２丁目１６番１号品川イーストワンタワー４階,,13,103,1080075,,,,,,,2025-10-03,1,,,,,ウィーロージャパン,0
31,1010403036135,新規,0,2025-10-03,2025-10-03,企業価値向上研究所合同会社,,合同会社,東京都,港区,南青山３丁目１番３６号青山丸竹ビル６Ｆ,,13,103,1070062,,,,,,,2025-10-03,1,,,,,キギョウカチコウジョウケンキュウショ,0
34,1010405024749,新規,0,2025-10-03,2025-10-03,行政書士法人ＺＥＮＺＡＩ　Ｉｎｔｅｒｎａｔｉｏｎａｌ,,その他の設立登記法人,東京都,港区,港南１丁目９－３６アレア品川１３階,,13,103,1080075,,,,,,,2025-10-03,1,,,,,ゼンザイインターナショナル,0
39,1010601068062,新規,0,2025-10-03,2025-10-03,株式会社サンクポート,,株式会社,東京都,墨田区,横川２丁目３番７号,,13,107,1300003,,,,,,,2025-10-03,1,,,,,サンクポート,0
41,1010801036661,新規,0,2025-10-03,2025-10-03,子安商事株式会社,,株式会社,東京都,大田区,蒲田本町１丁目３番１－４０４号,,13,111,1440053,,,,,,,2025-10-03,1,,,,,コヤスショウジ,0
61,1011103016443,新規,0,2025-10-03,2025-10-03,リアノヴァ合同会社,,合同会社,東京都,新宿区,新宿３丁目１２番４号新宿Ｎタウンプラザ３０９号,,13,104,1600022,,,,,,,2025-10-03,1,,,,,リアノヴァ,0
69,1011305003074,新規,0,2025-10-03,2025-10-03,一般社団法人ＡＬＯＡ,,その他の設立登記法人,東京都,杉並区,西荻南１丁目１番１号メディカルモール西荻南３階,,13,115,1670053,,,,,,,2025-10-03,1,,,,,アロア,0
71,1011401027456,新規,0,2025-10-03,2025-10-03,株式会社ハジメ,,株式会社,東京都,板橋区,三園１丁目２７番７号サンパール３０６,,13,119,1750091,,,,,,,2025-10-03,1,,,,,ハジメ,0
72,1011401027464,新規,0,2025-10-03,2025-10-03,株式会社ＭＩＮＡＭＯＴ,,株式会社,東京都,板橋区,加賀１丁目２１番１号,,13,119,1730003,,,,,,,2025-10-03,1,,,,,ミナモト,0
73,1011603004880,新規,0,2025-10-03,2025-10-03,ソラニアス合同会社,,合同会社,東京都,練馬区,高野台２丁目１１番１５－７０１号,,13,120,1770033,,,,,,,2025-10-03,1,,,,,ソラニアス,0
80,1012401043666,新規,0,2025-10-03,2025-10-03,株式会社ＴＨＲＥＥ,,株式会社,東京都,調布市,布田５丁目２３番地３,,13,208,1820024,,,,,,,2025-10-03,1,,,,,スリー,0
86,1013301055066,新規,0,2025-10-03,2025-10-03,株式会社ジョブオール,,株式会社,東京都,豊島区,東池袋３丁目１－１サンシャイン６０－１２Ｆ,,13,116,1700013,,,,,,,2025-10-03,1,,,,,ジョブオール,0
92,1020001165161,新規,0,2025-10-03,2025-10-03,株式会社トラストリング,,株式会社,神奈川県,横浜市神奈川区,反町１丁目５番地１３,,14,102,2210825,,,,,,,2025-10-03,1,,,,,トラストリング,0
93,1021001086364,新規,0,2025-10-03,2025-10-03,株式会社Ｒｅｍｅｍｏｒｙ,,株式会社,神奈川県,伊勢原市,桜台４丁目１０番１７号,,14,214,2591132,,,,,,,2025-10-03,1,,,,,リメモリー,0
94,1021003016617,新規,0,2025-10-03,2025-10-03,合同会社テクノジャパン,,合同会社,神奈川県,相模原市南区,東林間３丁目１番１６号けやきハウス２０５号,,14,153,2520311,,,,,,,2025-10-03,1,,,,,テクノジャパン,0
101,1030001168923,新規,0,2025-10-03,2025-10-03,Ｓｋｙ　Ｗｏｒｋｓ株式会社,,株式会社,埼玉県,さいたま市南区,南浦和３丁目１８番２号,,11,108,3360017,,,,,,,2025-10-03,1,,,,,スカイワークス,0
105,1040001140724,新規,0,2025-10-03,2025-10-03,株式会社ＥＬＳＴＲＥＮ,,株式会社,千葉県,柏市,豊四季６７８番地６３レジデンス柏４０２号,,12,217,2770863,,,,,,,2025-10-03,1,,,,,エルストレン,0
107,1040003028620,新規,0,2025-10-03,2025-10-03,合同会社ＡＲＴＥＬＩＡ,,合同会社,千葉県,浦安市,日の出５丁目６番地,,12,227,2790013,,,,,,,2025-10-03,1,,,,,アーテリア,0
108,1040003028645,新規,0,2025-10-03,2025-10-03,ＨＡＭＤＩ　ＭＯＴＯＲＳ合同会社,,合同会社,千葉県,山武郡横芝光町,屋形１５８８番地１１,,12,410,2891735,,,,,,,2025-10-03,1,,,,,ハムディモータース,0
115,1050001057356,新規,0,2025-10-03,2025-10-03,株式会社ＲＯＺＡ　ＩＮＴＥＲＮＡＴＩＯＮＡＬ,,株式会社,茨城県,下妻市,桐ケ瀬９８番地,,08,210,3040073,,,,,,,2025-10-03,1,,,,,ロザインターナショナル,0
119,1060001038644,新規,0,2025-10-03,2025-10-03,建築工房もくれん株式会社,,株式会社,栃木県,宇都宮市,六道町３番７号,,09,201,3200841,,,,,,,2025-10-03,1,,,,,ケンチクコウボウモクレン,0
120,1070001043404,新規,0,2025-10-03,2025-10-03,株式会社Ｋｉｎｇ＆Ｑｕｅｅｎ’ｓ　Ｂａｎｋ,,株式会社,群馬県,高崎市,栄町１６番１１号,,10,202,3700841,,,,,,,2025-10-03,1,,,,,キングアンドクイーンズバンク,0
122,1080001027182,新規,0,2025-10-03,2025-10-03,株式会社ｋｕｒｏｎｅｋｏ　Ｌａｂｏ,,株式会社,静岡県,静岡市駿河区,西脇１１１０番地の１,,22,102,4228044,,,,,,,2025-10-03,1,,,,,クロネコラボ,0
123,1080001027190,新規,0,2025-10-03,2025-10-03,株式会社Ｂｕｌｌｅｔｓ　Ｄｅｓｉｇｎ,,株式会社,静岡県,静岡市葵区,御幸町７番１５号ＭＡＲＩ７・２階,,22,101,4200857,,,,,,,2025-10-03,1,,,,,バレッツデザイン,0
129,1080401028193,新規,0,2025-10-03,2025-10-03,株式会社Ｋｕｒｏｖｉａ,,株式会社,静岡県,浜松市中央区,市野町１２５１番地,,22,138,4350051,,,,,,,2025-10-03,1,,,,,クロヴィア,0
130,1100001039010,新規,0,2025-10-03,2025-10-03,株式会社ＷａｙＫｅ,,株式会社,長野県,長野市,大字稲葉２７７番地８,,20,201,3800911,,,,,,,2025-10-03,1,,,,,ウェイク,0
146,1120001280223,新規,0,2025-10-03,2025-10-03,株式会社ＢＧＨａｓｈ　Ｔｅｃｈｎｏｌｏｇｙ,,株式会社,大阪府,大阪市住吉区,長居４丁目１１－２５タケ＆ハルビル第１、６階,,27,120,5580003,,,,,,,2025-10-03,1,,,,,ビージーハッシュテクノロジー,0
147,1120001280248,新規,0,2025-10-03,2025-10-03,裕玖株式会社,,株式会社,大阪府,枚方市,都丘町２０－９,,27,210,5731165,,,,,,,2025-10-03,1,,,,,ユウキュウ,0
148,1120001280264,新規,0,2025-10-03,2025-10-03,日本佳節株式会社,,株式会社,大阪府,大阪市阿倍野区,丸山通１丁目５－２－３０１号室,,27,119,5450042,,,,,,,2025-10-03,1,,,,,ニホンカセツ,0
149,1120001280355,新規,0,2025-10-03,2025-10-03,株式会社雲鶴商事,,株式会社,大阪府,大阪市港区,弁天４丁目１０番２１号オーシャンハイツ弁天４０１,,27,107,5520007,,,,,,,2025-10-03,1,,,,,ウンカクショウジ,0
150,1120001280545,新規,0,2025-10-03,2025-10-03,吉澤創業株式会社,,株式会社,大阪府,大阪市中央区,東平２丁目２番１１号オリオンハイム上六７０１号,,27,128,5420063,,,,,,,2025-10-03,1,,,,,ヨシザワソウギョウ,0
151,1120001280710,新規,0,2025-10-03,2025-10-03,フラットホーム株式会社,,株式会社,大阪府,大阪市西区,靱本町１丁目１８番１０－１８０５号,,27,106,5500004,,,,,,,2025-10-03,1,,,,,フラットホーム,0
152,1120001280784,新規,0,2025-10-03,2025-10-03,ＱＵＮＯＺ株式会社,,株式会社,大阪府,大阪市港区,築港２丁目２番２０号,,27,107,5520021,,,,,,,2025-10-03,1,,,,,クノズ,0
156,1120003030766,新規,0,2025-10-03,2025-10-03,Ｍｏｃｈｉ合同会社,,合同会社,大阪府,大阪市淀川区,十三本町２丁目３－１５藤マンション２０１,,27,123,5320024,,,,,,,2025-10-03,1,,,,,モチ,0
157,1120003030774,新規,0,2025-10-03,2025-10-03,Ｔｉ　ＦＯＲＷＡＲＤＩＮＧ合同会社,,合同会社,大阪府,大阪市北区,梅田１丁目２番２号大阪駅前第２ビル１２－１２,,27,127,5300001,,,,,,,2025-10-03,1,,,,,ティーアイフォワーディング,0
158,1120003030799,新規,0,2025-10-03,2025-10-03,ＨＤ合同会社,,合同会社,大阪府,大阪市西成区,鶴見橋３丁目１番１３号,,27,122,5570031,,,,,,,2025-10-03,1,,,,,エッチディー,0
159,1120003030898,新規,0,2025-10-03,2025-10-03,合同会社Ｏｆｆｉｃｅ１９２３,,合同会社,大阪府,大阪市東成区,深江南３丁目１１番２１号,,27,115,5370002,,,,,,,2025-10-03,1,,,,,オフィスイチキュウニイサン,0
161,1120101072529,新規,0,2025-10-03,2025-10-03,森住株式会社,,株式会社,大阪府,泉佐野市,高松東２丁目１－１２プロスピリティー関空ゲートＢＬＤ４Ｆ,,27,213,5980012,,,,,,,2025-10-03,1,,,,,モリズミ,0
162,1120101072537,新規,0,2025-10-03,2025-10-03,月白株式会社,,株式会社,大阪府,高石市,綾園１丁目１１番２４－２０３号,,27,225,5920014,,,,,,,2025-10-03,1,,,,,ゲッパク,0
163,1120901051558,新規,0,2025-10-03,2025-10-03,Ａｎｙｍｉｃｓ株式会社,,株式会社,大阪府,茨木市,彩都あさぎ７丁目７番２０号,,27,211,5670085,,,,,,,2025-10-03,1,,,,,エニミクス,0
164,1120901051566,新規,0,2025-10-03,2025-10-03,ＳＭＧサービス株式会社,,株式会社,大阪府,吹田市,千里山西１丁目１５番３７号,,27,205,5650851,,,,,,,2025-10-03,1,,,,,エスエムジーサービス,0
165,1120901051574,新規,0,2025-10-03,2025-10-03,株式会社コエリホールディングス,,株式会社,大阪府,茨木市,総持寺１丁目６番３０号,,27,211,5670801,,,,,,,2025-10-03,1,,,,,コエリホールディングス,0
171,1130001080655,新規,0,2025-10-03,2025-10-03,みやこ経営株式会社,,株式会社,京都府,長岡京市,開田１丁目３番４号,,26,209,6170826,,,,,,,2025-10-03,1,,,,,ミヤコケイエイ,0
176,1140001140193,新規,0,2025-10-03,2025-10-03,株式会社ポールエステート,,株式会社,兵庫県,西宮市,二見町４番２５号コンフォール甲子園口２階,,28,204,6638111,,,,,,,2025-10-03,1,,,,,ポールエステート,0
177,1140001140243,新規,0,2025-10-03,2025-10-03,ツカサ電設工業株式会社,,株式会社,兵庫県,神戸市西区,玉津町今津１３５番地の４,,28,111,6512128,,,,,,,2025-10-03,1,,,,,ツカサデンセツコウギョウ,0
179,1140005027643,新規,0,2025-10-03,2025-10-03,一般社団法人ｍｕｓｕｂｉ,,その他の設立登記法人,兵庫県,神戸市西区,櫨谷町友清２６０番地,,28,111,6512232,,,,,,,2025-10-03,1,,,,,ムスビ,0
180,1150003003711,新規,0,2025-10-03,2025-10-03,合同会社ＤＥＵＸ,,合同会社,奈良県,北葛城郡広陵町,馬見北２丁目８番２号,,29,426,6350831,,,,,,,2025-10-03,1,,,,,ドゥ,0
182,1170001018817,新規,0,2025-10-03,2025-10-03,株式会社ホームパントリー,,株式会社,和歌山県,有田市,糸我町西１９３番地,,30,204,6490422,,,,,,,2025-10-03,1,,,,,ホームパントリー,0
183,1170005007171,新規,0,2025-10-03,2025-10-03,一般社団法人新塗装工業会,,その他の設立登記法人,和歌山県,新宮市,三輪崎２丁目１９番３１号,,30,207,6470061,,,,,,,2025-10-03,1,,,,,シントソウコウギョウカイ,0
192,1180001168842,新規,0,2025-10-03,2025-10-03,株式会社タイニーウェア,,株式会社,愛知県,名古屋市中村区,名駅４丁目２４番５号第２森ビル４０１,,23,105,4500002,,,,,,,2025-10-03,1,,,,,タイニーウェア,0
195,1180003029134,新規,0,2025-10-03,2025-10-03,合同会社アユミアカデミー,,合同会社,愛知県,名古屋市中村区,名駅南３丁目１１番１５号グランシャリオ名駅南１１Ｂ号,,23,105,4500003,,,,,,,2025-10-03,1,,,,,アユミアカデミー,0
196,1180003029142,新規,0,2025-10-03,2025-10-03,Ｌａｚａｒｕｓ合同会社,,合同会社,愛知県,名古屋市中村区,名駅３丁目２８番１２号大名古屋ビルヂング１１５０号,,23,105,4500002,,,,,,,2025-10-03,1,,,,,ラザロ,0
199,1180005021254,新規,0,2025-10-03,2025-10-03,税理士法人ブライト会計,,その他の設立登記法人,愛知県,名古屋市天白区,原３丁目３０４番地１Ｔ＆Ｌビル１階Ａ号室,,23,116,4680015,,,,,,,2025-10-03,1,,,,,ブライトカイケイ,0
202,1180301040255,新規,0,2025-10-03,2025-10-03,Ｈｉｔｏ　Ｇｌｏｂａｌ株式会社,,株式会社,愛知県,岡崎市,竜美台１丁目８番地１９,,23,202,4440873,,,,,,,2025-10-03,1,,,,,ヒトグローバル,0
208,1210001020339,新規,0,2025-10-03,2025-10-03,株式会社木創匠建,,株式会社,福井県,丹生郡越前町,佐々生第２７号５１番地,,18,423,9160144,,,,,,,2025-10-03,1,,,,,モクソウケン,0
211,1220001026954,新規,0,2025-10-03,2025-10-03,株式会社マニカ,,株式会社,石川県,金沢市,専光寺町ニ２０１番地２,,17,201,9200356,,,,,,,2025-10-03,1,,,,,マニカ,0
212,1220003004132,新規,0,2025-10-03,2025-10-03,合同会社Ｔ．Ｇｒｏｗｔｈ,,合同会社,石川県,白山市,千代野西３丁目５番地１０,,17,210,9240072,,,,,,,2025-10-03,1,,,,,ティーグロース,0
214,1230001021120,新規,0,2025-10-03,2025-10-03,ＡＲ　ＨＡＭＮＡインタープライス株式会社,,株式会社,富山県,射水市,作道２１４０番地１グローバルマンション４０３,,16,211,9340042,,,,,,,2025-10-03,1,,,,,エーアールハンナインタープライス,0
219,1240001065570,新規,0,2025-10-03,2025-10-03,株式会社ＴｏｍｏｒｒｏｗＺＥＲＯ,,株式会社,広島県,廿日市市,佐方３丁目１１番５５号,,34,213,7380001,,,,,,,2025-10-03,1,,,,,トゥモローゼロ,0
220,1240001065579,新規,0,2025-10-03,2025-10-03,株式会社ＩＫＯＮＩ,,株式会社,広島県,広島市中区,本通７番２９号,,34,101,7300035,,,,,,,2025-10-03,1,,,,,アイコニ,0
221,1240001065587,新規,0,2025-10-03,2025-10-03,株式会社ホワイトキー,,株式会社,広島県,東広島市,西条中央３丁目４－２,,34,212,7390025,,,,,,,2025-10-03,1,,,,,ホワイトキー,0
222,1240001065595,新規,0,2025-10-03,2025-10-03,ＴＲＩＦＯＲＣＥ株式会社,,株式会社,広島県,呉市,川尻町東３丁目１２番７号,,34,202,7372607,,,,,,,2025-10-03,1,,,,,トライフォース,0
223,1240001065604,新規,0,2025-10-03,2025-10-03,株式会社ＳＵＩ,,株式会社,広島県,広島市西区,中広町１丁目１８番２２号メゾン瀬川１Ｆ,,34,104,7330012,,,,,,,2025-10-03,1,,,,,スイ,0
225,1240005015992,新規,0,2025-10-03,2025-10-03,一般社団法人鹿Ｒｏｋｕプロジェクト,,その他の設立登記法人,広島県,福山市,南本庄５丁目３番２７号,,34,207,7200077,,,,,,,2025-10-03,1,,,,,ロクロクプロジェクト,0
228,1260001040596,新規,0,2025-10-03,2025-10-03,南庭株式会社,,株式会社,岡山県,岡山市北区,建部町中田３９０番地３,,33,101,7093132,,,,,,,2025-10-03,1,,,,,ナンテイ,0
229,1260001040621,新規,0,2025-10-03,2025-10-03,株式会社亜瑞花,,株式会社,岡山県,玉野市,八浜町八浜５９９番地１ドリームハイツ１０２号,,33,204,7060221,,,,,,,2025-10-03,1,,,,,アスカ,0
231,1270005005660,新規,0,2025-10-03,2025-10-03,特定非営利活動法人ひとしずく,,その他の設立登記法人,鳥取県,鳥取市,川端３丁目１１７番地,,31,201,6800036,,,,,,,2025-10-03,1,,,,,ヒトシズク,0
236,1290001111717,新規,0,2025-10-03,2025-10-03,株式会社ＢＩＫＡ福岡,,株式会社,福岡県,福岡市南区,皿山４丁目１番８－５号,,40,134,8111365,,,,,,,2025-10-03,1,,,,,ビカフクオカ,0
240,1290805009867,新規,0,2025-10-03,2025-10-03,一般社団法人ＹＭＣＨプロジェクト,,その他の設立登記法人,福岡県,北九州市小倉北区,中井５丁目４番２６号,,40,106,8030836,,,,,,,2025-10-03,1,,,,,ワイエムシーエイチプロジェクト,0
242,1300001014364,新規,0,2025-10-03,2025-10-03,オプティリード株式会社,,株式会社,佐賀県,伊万里市,波多津町辻９１９番地１,,41,205,8480101,,,,,,,2025-10-03,1,,,,,オプティリード,0
250,1320001021367,新規,0,2025-10-03,2025-10-03,株式会社アンジュ,,株式会社,大分県,速見郡日出町,大字豊岡６０６０番地３２,,44,341,8791507,,,,,,,2025-10-03,1,,,,,アンジュ,0
251,1320001021375,新規,0,2025-10-03,2025-10-03,Ｓｕｎｎｙ　Ｌｏｏｐ株式会社,,株式会社,大分県,大分市,要町３番３２－１００１号ＲＪＲプレシア大分駅前ＩＩＩ,00140926,44,201,8700831,,,,,,,2025-10-03,1,,,,,サニーループ,0
254,1320003004790,新規,0,2025-10-03,2025-10-03,合同会社クライム,,合同会社,大分県,大分市,大字迫２４５番地の１４,,44,201,8700272,,,,,,,2025-10-03,1,,,,,クライム,0
255,1330001033626,新規,0,2025-10-03,2025-10-03,株式会社野白,,株式会社,熊本県,熊本市中央区,島崎１丁目１０番２９号,,43,101,8600073,,,,,,,2025-10-03,1,,,,,ノジロ,0
256,1330001033642,新規,0,2025-10-03,2025-10-03,株式会社いちよう,,株式会社,熊本県,宇城市,三角町波多２８７５番地６,,43,213,8693205,,,,,,,2025-10-03,1,,,,,イチヨウ,0
259,1330003011241,新規,0,2025-10-03,2025-10-03,合同会社創生企画,,合同会社,熊本県,宇城市,豊野町安見１６８９番地,,43,213,8614306,,,,,,,2025-10-03,1,,,,,ソウセイキカク,0
261,1340001027692,新規,0,2025-10-03,2025-10-03,株式会社プラスターウォール,,株式会社,鹿児島県,鹿児島市,本名町１２０３番地２,,46,201,8911304,,,,,,,2025-10-03,1,,,,,プラスターウォール,0
262,1340001027701,新規,0,2025-10-03,2025-10-03,株式会社Ａｙｍｓ,,株式会社,鹿児島県,鹿児島市,鴨池２丁目１１番１３号シャトー鴨池５０１号,,46,201,8900063,,,,,,,2025-10-03,1,,,,,アイムス,0
268,1370001053091,新規,0,2025-10-03,2025-10-03,株式会社ぴーの,,株式会社,宮城県,柴田郡柴田町,船岡西１丁目９番１９－２号,,04,323,9891603,,,,,,,2025-10-03,1,,,,,ピーノ,0
269,1370001053100,新規,0,2025-10-03,2025-10-03,株式会社阿部ホールディング,,株式会社,宮城県,仙台市太白区,鈎取本町１丁目１番６号,,04,104,9820805,,,,,,,2025-10-03,1,,,,,アベホールディング,0
274,1390001018126,新規,0,2025-10-03,2025-10-03,ｍｉｃｈｉ株式会社,,株式会社,山形県,天童市,駅西２丁目８番２９号,,06,210,9940047,,,,,,,2025-10-03,1,,,,,ミチ,0
282,1430001095284,新規,0,2025-10-03,2025-10-03,株式会社ＧＡＫＵ,,株式会社,北海道,苫小牧市,北栄町４丁目１４番３０号,,01,213,0591304,,,,,,,2025-10-03,1,,,,,ガク,0
283,1430001095383,新規,0,2025-10-03,2025-10-03,株式会社ダイトウ北海道,,株式会社,北海道,札幌市手稲区,金山一条１丁目１０番７号,,01,109,0060041,,,,,,,2025-10-03,1,,,,,ダイトウホッカイドウ,0
288,1430003018144,新規,0,2025-10-03,2025-10-03,ヴェラ合同会社,,合同会社,北海道,札幌市手稲区,稲穂一条２丁目６番７－２０６号,,01,109,0060031,,,,,,,2025-10-03,1,,,,,ヴェラ,0
289,1450001014746,新規,0,2025-10-03,2025-10-03,株式会社Ｍ’ｓ　Ｔｒａｄｅ,,株式会社,北海道,天塩郡豊富町,字豊富東一条３丁目,,01,516,0984121,,,,,,,2025-10-03,1,,,,,エムズトレード,0
293,1470001020916,新規,0,2025-10-03,2025-10-03,株式会社ＴＳＵＴＳＵＭＩ,,株式会社,香川県,高松市,大工町７番地１５アカネビル２階,,37,201,7600042,,,,,,,2025-10-03,1,,,,,ツツミ,0
296,1700150008738,新規,0,2025-10-03,2015-10-09,日本スノーボード協会,,その他,東京都,豊島区,巣鴨５丁目１４番６号,,13,116,1700002,,,,,,,2015-10-09,1,,,,,ニホンスノーボードキヨウカイ,0
303,2010001258857,新規,0,2025-10-03,2025-10-03,株式会社Ｌｅｒｎｉｔｙ,,株式会社,東京都,中央区,日本橋室町１丁目１１番１２号日本橋水野ビル７階,,13,102,1030022,,,,,,,2025-10-03,1,,,,,ラーニティ,0
304,2010003048843,新規,0,2025-10-03,2025-10-03,合同会社ＲｉｓｅＣｏｒｅ,,合同会社,東京都,千代田区,神田東松下町３７番地２加瀬ビル１３０－３１５号室,,13,101,1010042,,,,,,,2025-10-03,1,,,,,ライズコア,0
305,2010003048892,新規,0,2025-10-03,2025-10-03,Ｋｒｙｐｔｏｎ１２合同会社,,合同会社,東京都,文京区,白山１丁目６番４－２０６号,,13,105,1130001,,,,,,,2025-10-03,1,,,,,クリプトントゥエルブ,0
310,2010401193480,新規,0,2025-10-03,2025-10-03,ジャングルドナーブスジャパン株式会社,,株式会社,東京都,港区,六本木７丁目２番８号,,13,103,1060032,,,,,,,2025-10-03,1,,,,,ジャングルドナーブスジャパン,0
311,2010401193563,新規,0,2025-10-03,2025-10-03,株式会社ＡＫＢＴ,,株式会社,東京都,港区,虎ノ門３丁目２０番５号,,13,103,1050001,,,,,,,2025-10-03,1,,,,,エーケービーティー,0
312,2010403036200,新規,0,2025-10-03,2025-10-03,合同会社ＮＳＩＰ２０２５,,合同会社,東京都,港区,芝浦１丁目１番１号,,13,103,1050023,,,,,,,2025-10-03,1,,,,,エヌシップニーゼロニーゴー,0
315,2010603011829,新規,0,2025-10-03,2025-10-03,合同会社哲学舎,,合同会社,東京都,江東区,大島８丁目３３番３０号,,13,108,1360072,,,,,,,2025-10-03,1,,,,,テツガクシャ,0
316,2010701048392,新規,0,2025-10-03,2025-10-03,株式会社銀河劇場,,株式会社,東京都,品川区,東品川２丁目３番１６号シーフォートスクエア２階,,13,109,1400002,,,,,,,2025-10-03,1,,,,,ギンガゲキジョウ,0
318,2010801036660,新規,0,2025-10-03,2025-10-03,ジェネシスセラ株式会社,,株式会社,東京都,大田区,東嶺町４番３号,,13,111,1450074,,,,,,,2025-10-03,1,,,,,ジェネシスセラ,0
325,2011003022490,新規,0,2025-10-03,2025-10-03,合同会社ＬＩＦＥ　Ｂｌｏｏｍｉｎｇ,,合同会社,東京都,渋谷区,道玄坂１丁目１０番８号渋谷道玄坂東急ビル２Ｆ－Ｃ,,13,113,1500043,,,,,,,2025-10-03,1,,,,,ライフブルーミング,0
329,2011101113381,新規,0,2025-10-03,2025-10-03,星月株式会社,,株式会社,東京都,新宿区,愛住町６－１ラティエラ四谷４０６,,13,104,1600005,,,,,,,2025-10-03,1,,,,,ホシヅキ,0
331,2011201026657,新規,0,2025-10-03,2025-10-03,株式会社エフイーワークス,,株式会社,東京都,中野区,中野３丁目３６番１１号レジディア中野８０２号,,13,114,1640001,,,,,,,2025-10-03,1,,,,,エフイーワークス,0
333,2011301030947,新規,0,2025-10-03,2025-10-03,株式会社Ａｎｚ　ｆｉｌｍ,,株式会社,東京都,杉並区,堀ノ内２丁目２７番１２号パレドール方南町１０１号室,,13,115,1660013,,,,,,,2025-10-03,1,,,,,アンズフィルム,0
334,2011303005740,新規,0,2025-10-03,2025-10-03,ｓｍａｖｉｒａ合同会社,,合同会社,東京都,杉並区,井草２丁目２８番１２号,,13,115,1670021,,,,,,,2025-10-03,1,,,,,スマヴィラ,0
337,2011503006712,新規,0,2025-10-03,2025-10-03,合同会社Ｄｒｙｍｏｎｓｔｅｒ,,合同会社,東京都,荒川区,町屋５丁目１９－３富島ビル４階,,13,118,1160001,,,,,,,2025-10-03,1,,,,,ドライモンスター,0
340,2011701028797,新規,0,2025-10-03,2025-10-03,株式会社７０２,,株式会社,東京都,江戸川区,春江町２丁目１５番１４号,,13,123,1320003,,,,,,,2025-10-03,1,,,,,ナナゼロニ,0
341,2012301014551,新規,0,2025-10-03,2025-10-03,株式会社Ｔ‐Ｒｉｓｅ　Ａｘｉｓ,,株式会社,東京都,町田市,高ヶ坂４丁目１７番１８号,,13,209,1940014,,,,,,,2025-10-03,1,,,,,ティーライズアクシス,0
345,2012403007362,新規,0,2025-10-03,2025-10-03,合同会社タカアキカクセイサクジョ,,合同会社,東京都,小金井市,貫井南町５丁目２１－３１－３０２,,13,210,1840014,,,,,,,2025-10-03,1,,,,,タカアキカクセイサクジョ,0
346,2012701019118,新規,0,2025-10-03,2025-10-03,Ｒ４株式会社,,株式会社,東京都,西東京市,柳沢５丁目１１―２２,,13,229,2020022,,,,,,,2025-10-03,1,,,,,アールフォー,0
349,2012801024281,新規,0,2025-10-03,2025-10-03,株式会社鮮岳,,株式会社,東京都,昭島市,松原町５丁目１－２２ＡＬＰＨＡビルＢ１Ｆ,,13,207,1960003,,,,,,,2025-10-03,1,,,,,センガク,0
371,2020001164906,新規,0,2025-10-03,2025-10-03,株式会社ジムドット,,株式会社,神奈川県,川崎市宮前区,南野川２丁目５９番２３号,,14,136,2160042,,,,,,,2025-10-03,1,,,,,ジムドット,0
377,2021001086495,新規,0,2025-10-03,2025-10-03,株式会社ＮＡＶＹ　ＶＡＬＬＥＹ,,株式会社,神奈川県,茅ヶ崎市,萩園１２６３番地５,,14,207,2530071,,,,,,,2025-10-03,1,,,,,ネイビーバレー,0
378,2021003016665,新規,0,2025-10-03,2025-10-03,Ｔｒｉｎｉｔｙ　Ｈｏｕｓｅ　Ｏｓａｋａ合同会社,,合同会社,神奈川県,藤沢市,湘南台３丁目５番地の２,,14,205,2520804,,,,,,,2025-10-03,1,,,,,トリニティハウスオオサカ,0
381,2030001168922,新規,0,2025-10-03,2025-10-03,株式会社ＭＮレンタリース,,株式会社,埼玉県,さいたま市桜区,町谷４丁目４番６号,,11,106,3380836,,,,,,,2025-10-03,1,,,,,,0
382,2030001168930,新規,0,2025-10-03,2025-10-03,株式会社ＴＡＮＥＢＩ,,株式会社,埼玉県,蕨市,中央２丁目１５番２号,,11,223,3350004,,,,,,,2025-10-03,1,,,,,タネビ,0
391,2040001140731,新規,0,2025-10-03,2025-10-03,株式会社ひのよし屋,,株式会社,千葉県,柏市,東中新宿４丁目７番４－１０６号,,12,217,2770061,,,,,,,2025-10-03,1,,,,,ヒノヨシヤ,0
399,2050001057355,新規,0,2025-10-03,2025-10-03,ＧＯＮＤＡＬ　ＴＲＡＤＩＮＧ株式会社,,株式会社,茨城県,坂東市,寺久１０７９番地２の１階,,08,228,3060656,,,,,,,2025-10-03,1,,,,,ゴンダルトレーディング,0
400,2050003009627,新規,0,2025-10-03,2025-10-03,Ｎｏｖａ　Ｔｒａｄｉｎｇ　Ｃｏｍｐａｎｙ合同会社,,合同会社,茨城県,坂東市,辺田１０８５番地１コーポアルフィー１０５,,08,228,3060632,,,,,,,2025-10-03,1,,,,,ノヴァトレーディングカンパニー,0
402,2060001038643,新規,0,2025-10-03,2025-10-03,株式会社トヨグチ工業,,株式会社,栃木県,宇都宮市,富士見が丘４丁目２７番２３号,,09,201,3200011,,,,,,,2025-10-03,1,,,,,トヨグチコウギョウ,0
424,2120001280189,新規,0,2025-10-03,2025-10-03,Ｏｎｅ　Ｐｕｌｓｅ　Ｇｒｏｕｐ　Ｊａｐａｎ株式会社,,株式会社,大阪府,大阪市東住吉区,矢田１丁目２０－１７ハイツワールド３Ｊ－２号室,,27,121,5460023,,,,,,,2025-10-03,1,,,,,ワンパルスグループジャパン,0
425,2120001280197,新規,0,2025-10-03,2025-10-03,信航株式会社,,株式会社,大阪府,門真市,四宮３丁目２－３８－３０８室,,27,223,5710017,,,,,,,2025-10-03,1,,,,,シンコウ,0
426,2120001280214,新規,0,2025-10-03,2025-10-03,株式会社Ｅ‐ｃｏｎｎｅｃｔ,,株式会社,大阪府,大阪市阿倍野区,阿倍野筋２丁目４番３７－８１２号,,27,119,5450052,,,,,,,2025-10-03,1,,,,,イーコネクト,0
427,2120001280263,新規,0,2025-10-03,2025-10-03,古名軒株式会社,,株式会社,大阪府,大阪市生野区,林寺６丁目３番２３号,,27,116,5440023,,,,,,,2025-10-03,1,,,,,コメイケン,0
428,2120001280296,新規,0,2025-10-03,2025-10-03,和楽貿易株式会社,,株式会社,大阪府,大阪市淀川区,三津屋南２丁目５番１５号,,27,123,5320035,,,,,,,2025-10-03,1,,,,,ワラクボウエキ,0
429,2120001280453,新規,0,2025-10-03,2025-10-03,星辰躍株式会社,,株式会社,大阪府,大阪市西成区,山王２丁目５番４－１０１号,,27,122,5570001,,,,,,,2025-10-03,1,,,,,セイシンヤク,0
433,2120003030781,新規,0,2025-10-03,2025-10-03,合同会社ＥＭＥＲＡＬＤ　ＯＣＥＡＮ,,合同会社,大阪府,大阪市西成区,千本北２丁目１６－３－２０４号,,27,122,5570053,,,,,,,2025-10-03,1,,,,,エメラルドオーシャン,0
435,2120101072528,新規,0,2025-10-03,2025-10-03,株式会社アスタリスク,,株式会社,大阪府,堺市北区,百舌鳥梅北町２丁５６番地Ｂ,,27,146,5918031,,,,,,,2025-10-03,1,,,,,アスタリスク,0
436,2120901051557,新規,0,2025-10-03,2025-10-03,マッシュＨＤ株式会社,,株式会社,大阪府,吹田市,古江台５丁目１番１号,,27,205,5650874,,,,,,,2025-10-03,1,,,,,マッシュホールディングス,0
437,2120903005882,新規,0,2025-10-03,2025-10-03,合同会社大治エステート,,合同会社,大阪府,箕面市,桜ケ丘２丁目１０番２９号,,27,220,5620046,,,,,,,2025-10-03,1,,,,,オオジエステート,0
438,2122001039714,新規,0,2025-10-03,2025-10-03,株式会社白虎,,株式会社,大阪府,東大阪市,荒川１丁目１６番１０号リバーライズ布施ＩＩ３０５号,00140906,27,227,5770843,,,,,,,2025-10-03,1,,,,,ビャッコ,0
451,2140001140192,新規,0,2025-10-03,2025-10-03,株式会社橘,,株式会社,兵庫県,神戸市中央区,日暮通２丁目２番１３号大生樓１０２号室,,28,110,6510077,,,,,,,2025-10-03,1,,,,,タチバナ,0
454,2140003022645,新規,0,2025-10-03,2025-10-03,ＡＵＴＯＷＩＮ　ＧＲＯＵＰ　ＣＯＲＰＯＲＡＴＩＯＮ合同会社,,合同会社,兵庫県,加東市,秋津２００１番地３４３,,28,228,6731302,,,,,,,2025-10-03,1,,,,,オートウィングループコーポレーション,0
455,2140003022653,新規,0,2025-10-03,2025-10-03,ＡＵＲＡ　ＳＰＡ合同会社,,合同会社,兵庫県,神戸市長田区,梅ケ香町２丁目４－５－３Ｆ,,28,106,6530021,,,,,,,2025-10-03,1,,,,,アウラスパ,0
466,2180001168825,新規,0,2025-10-03,2025-10-03,株式会社ＢＡＬＣＩ,,株式会社,愛知県,名古屋市中川区,新家１丁目９０５番地,,23,110,4540972,,,,,,,2025-10-03,1,,,,,バルチ,0
467,2180001168858,新規,0,2025-10-03,2025-10-03,株式会社ＳＫイノベーション,,株式会社,愛知県,名古屋市中区,大須２丁目３０－１４櫻井ビル６Ｆ,,23,106,4600011,,,,,,,2025-10-03,1,,,,,エスケーイノベーション,0
471,2180003029141,新規,0,2025-10-03,2025-10-03,合同会社ＫＪＲ,,合同会社,愛知県,名古屋市中村区,名駅４丁目２４番５号第２森ビル４０１,,23,105,4500002,,,,,,,2025-10-03,1,,,,,ケージェイアール,0
472,2180005021261,新規,0,2025-10-03,2025-10-03,医療法人翠心会,,その他の設立登記法人,愛知県,名古屋市千種区,今池４丁目１１－１８フェリシダ千種１Ｆ,,23,101,4640850,,,,,,,2025-10-03,1,,,,,スイシンカイ,0
473,2180301040279,新規,0,2025-10-03,2025-10-03,株式会社ＳＫＤ設計,,株式会社,愛知県,岡崎市,二軒屋町１丁目１番地７,,23,202,4440222,,,,,,,2025-10-03,1,,,,,エスケーディー,0
474,2180301040304,新規,0,2025-10-03,2025-10-03,スズキガラス株式会社,,株式会社,愛知県,岡崎市,中園町字忠田１１番地７,,23,202,4440942,,,,,,,2025-10-03,1,,,,,スズキガラス,0
477,2190001032567,新規,0,2025-10-03,2025-10-03,株式会社おごそ田中屋,,株式会社,三重県,四日市市,小古曽２丁目２２番５号,,24,202,5100958,,,,,,,2025-10-03,1,,,,,オゴソタナカヤ,0
478,2190001032583,新規,0,2025-10-03,2025-10-03,ノーススターフーズ株式会社,,株式会社,三重県,桑名市,相川町３８番地,,24,205,5110052,,,,,,,2025-10-03,1,,,,,ノーススターフーズ,0
482,2200001044288,新規,0,2025-10-03,2025-10-03,ＣＨＥＥＭＡ　ＩＮＴＥＲＮＡＴＩＯＮＡＬ株式会社,,株式会社,岐阜県,岐阜市,折立６７４番地,,21,201,5011132,,,,,,,2025-10-03,1,,,,,チーマインターナショナル,0
485,2210001020346,新規,0,2025-10-03,2025-10-03,Ｓｔｏｃｋ　ｗｉｔｈ株式会社,,株式会社,福井県,福井市,日之出５丁目１５番１１号,,18,201,9100859,,,,,,,2025-10-03,1,,,,,ストックウィズ,0
489,2220001026945,新規,0,2025-10-03,2025-10-03,株式会社金沢エレベーターサービス,,株式会社,石川県,白山市,藤波２丁目１番地４,,17,210,9240831,,,,,,,2025-10-03,1,,,,,カナザワエレベーターサービス,0
491,2220005009005,新規,0,2025-10-03,2025-10-03,社会保険労務士法人スマイルワークス,,その他の設立登記法人,石川県,金沢市,新神田２丁目１３番２１号,,17,201,9218013,,,,,,,2025-10-03,1,,,,,スマイルワークス,0
494,2240001065594,新規,0,2025-10-03,2025-10-03,株式会社ＫＡＭＩＴＡ,,株式会社,広島県,廿日市市,地御前北３丁目１２番８号,,34,213,7380043,,,,,,,2025-10-03,1,,,,,カミタ,0
496,2250001021357,新規,0,2025-10-03,2025-10-03,株式会社Ｓｈａｒｅｆｕｌ,,株式会社,山口県,山口市,宮野上８６番地１,,35,203,7530001,,,,,,,2025-10-03,1,,,,,シェアフル,0
499,2260001040612,新規,0,2025-10-03,2025-10-03,株式会社竹林寺山ネイチャーファーム,,株式会社,岡山県,小田郡矢掛町,南山田６４８番地１,,33,461,7141214,,,,,,,2025-10-03,1,,,,,チクリンジサンネイチャーファーム,0
504,2290001111542,新規,0,2025-10-03,2025-10-03,隠悦株式会社,,株式会社,福岡県,福岡市西区,豊浜２丁目１４番９号,,40,135,8190014,,,,,,,2025-10-03,1,,,,,インエツ,0
505,2290001111674,新規,0,2025-10-03,2025-10-03,株式会社とまとＡＨ,,株式会社,福岡県,春日市,紅葉ヶ丘西３丁目１０５番地,,40,218,8160832,,,,,,,2025-10-03,1,,,,,トマトエーエイチ,0
506,2290801031881,新規,0,2025-10-03,2025-10-03,株式会社Ｃｕｒｔａｉｎ　ＡＬＬ,,株式会社,福岡県,北九州市小倉南区,上石田４丁目１２番３号,,40,107,8020833,,,,,,,2025-10-03,1,,,,,カーテンオール,0
509,2300001014363,新規,0,2025-10-03,2025-10-03,株式会社ベルデ,,株式会社,佐賀県,佐賀市,鍋島６丁目１１番２４号,,41,201,8490937,,,,,,,2025-10-03,1,,,,,ベルデ,0
513,2320001021374,新規,0,2025-10-03,2025-10-03,エナジェクステクノ株式会社,,株式会社,大分県,別府市,大字南立石１８５１番地の３１,,44,202,8740000,,,,,,,2025-10-03,1,,,,,エナジェクステクノ,0
515,2330001033617,新規,0,2025-10-03,2025-10-03,Ｓｏｌａ株式会社,,株式会社,熊本県,熊本市西区,出町７番５４号スペースＨＡＹＡＭＡ２Ｆ,,43,103,8600074,,,,,,,2025-10-03,1,,,,,ソラ,0
516,2330001033625,新規,0,2025-10-03,2025-10-03,株式会社なかむら,,株式会社,熊本県,菊池市,龍門３９３番地３,,43,210,8611672,,,,,,,2025-10-03,1,,,,,ナカムラ,0
520,2340001027691,新規,0,2025-10-03,2025-10-03,さこ電空工業株式会社,,株式会社,鹿児島県,霧島市,隼人町姫城２５６８番地１,,46,218,8995111,,,,,,,2025-10-03,1,,,,,サコデンクウコウギョウ,0
524,2350001019746,新規,0,2025-10-03,2025-10-03,株式会社内田ガレージサービス,,株式会社,宮崎県,串間市,大字奈留６５８５番地,,45,207,8893531,,,,,,,2025-10-03,1,,,,,ウチダガレージサービス,0
526,2360001035817,新規,0,2025-10-03,2025-10-03,株式会社ＬＡＧＯＭ,,株式会社,沖縄県,沖縄市,比屋根７丁目２７－３８,,47,211,9042173,,,,,,,2025-10-03,1,,,,,ラゴム,0
527,2360001035841,新規,0,2025-10-03,2025-10-03,ミキ・アセットマネジメント株式会社,,株式会社,沖縄県,糸満市,西川町１番１－６０２号プラウディアコート糸満西川,,47,210,9010304,,,,,,,2025-10-03,1,,,,,ミキアセットマネジメント,0
529,2370001053099,新規,0,2025-10-03,2025-10-03,株式会社フェニックスワン,,株式会社,宮城県,仙台市泉区,泉中央３丁目３６番地の６ＳＨＤビル３Ｆ,,04,105,9813133,,,,,,,2025-10-03,1,,,,,フェニックスワン,0
530,2370001053108,新規,0,2025-10-03,2025-10-03,株式会社アドフラッグ,,株式会社,宮城県,仙台市泉区,八乙女４丁目１０番１号ナイスアーバン八乙女ＩＩ２０１,00140910,04,105,9813112,,,,,,,2025-10-03,1,,,,,アドフラッグ,0
533,2380003006145,新規,0,2025-10-03,2025-10-03,合同会社ブルーム,,合同会社,福島県,福島市,岡部字大旦１２３番地の５,,07,201,9608204,,,,,,,2025-10-03,1,,,,,ブルーム,0
534,2390001018125,新規,0,2025-10-03,2025-10-03,株式会社山口自動車,,株式会社,山形県,山形市,富の中３丁目６番２９号,,06,201,9902463,,,,,,,2025-10-03,1,,,,,,0
537,2400001017199,新規,0,2025-10-03,2025-10-03,細田商事株式会社,,株式会社,岩手県,盛岡市,青山３丁目４番５号,,03,201,0200133,,,,,,,2025-10-03,1,,,,,ホソダショウジ,0
542,2430001095309,新規,0,2025-10-03,2025-10-03,Ａｒｔ　ａｄｖａｎｃｅ株式会社,,株式会社,北海道,札幌市清田区,平岡八条３丁目８番１８号,,01,110,0040878,,,,,,,2025-10-03,1,,,,,アートアドバンス,0
547,2430003018184,新規,0,2025-10-03,2025-10-03,合同会社ＡＳＨライフサポート,,合同会社,北海道,札幌市中央区,南二条西５丁目３１‐１ＲＭＢｌｄ．７０１,,01,101,0600062,,,,,,,2025-10-03,1,,,,,エーエスエイチライフサポート,0
548,2450003002723,新規,0,2025-10-03,2025-10-03,新日本酵素合同会社,,合同会社,北海道,旭川市,工業団地五条３丁目５番１５号,,01,204,0788275,,,,,,,2025-10-03,1,,,,,シンニホンコウソ,0
552,2470001020915,新規,0,2025-10-03,2025-10-03,株式会社Ｓｏａｒ,,株式会社,香川県,高松市,松縄町１０２２番地４ビューティーリゾートアイリス２階,,37,201,7600079,,,,,,,2025-10-03,1,,,,,ソア,0
557,2500001026545,新規,0,2025-10-03,2025-10-03,井上板金工業株式会社,,株式会社,愛媛県,西条市,朔日市７９１番地５９,,38,206,7930027,,,,,,,2025-10-03,1,,,,,イノウエバンキンコウギョウ,0
558,2500001026553,新規,0,2025-10-03,2025-10-03,株式会社いしづち事業再生債権回収,,株式会社,愛媛県,松山市,二番町４丁目５番地１,,38,201,7900002,,,,,,,2025-10-03,1,,,,,イシヅチジギョウサイセイサイケンカイシュウ,0
569,3010001258757,新規,0,2025-10-03,2025-10-03,株式会社ｓｏｆｔｐｒｏｍｅｔ,,株式会社,東京都,中央区,日本橋小網町１８－１７ＴＲＵＳＴＶＡＬＵＥ日本橋小網町７Ｆ,,13,102,1030016,,,,,,,2025-10-03,1,,,,,ソフトプロメット,0
570,3010001258781,新規,0,2025-10-03,2025-10-03,ブルック・キャリア株式会社,,株式会社,東京都,中央区,築地４丁目３番４号,,13,102,1040045,,,,,,,2025-10-03,1,,,,,ブルックキャリア,0
571,3010001258798,新規,0,2025-10-03,2025-10-03,ＬＥＡＰＩＮ　ＧＬＯＢＡＬ　ＪＡＰＡＮ株式会社,,株式会社,東京都,中央区,日本橋大伝馬町４番１号福原ビル５階,,13,102,1030011,,,,,,,2025-10-03,1,,,,,リーピングローバルジャパン,0
572,3010001258807,新規,0,2025-10-03,2025-10-03,株式会社Ａｒｃｈ　Ｒｉｓｅ,,株式会社,東京都,中央区,日本橋室町１丁目１１番１２号日本橋水野ビル７階,,13,102,1030022,,,,,,,2025-10-03,1,,,,,アーチライズ,0
573,3010001258856,新規,0,2025-10-03,2025-10-03,株式会社オー・エム・コミュニティ,,株式会社,東京都,千代田区,神田須田町１丁目２６番地松浦ビル８階,,13,101,1010041,,,,,,,2025-10-03,1,,,,,オーエムコミュニティ,0
574,3010001258955,新規,0,2025-10-03,2025-10-03,ＬＶＪホールディングス１株式会社,,株式会社,東京都,千代田区,丸の内２丁目１番１号,,13,101,1000005,,,,,,,2025-10-03,1,,,,,エルブイジェイホールディングスワン,0
575,3010001258963,新規,0,2025-10-03,2025-10-03,ＱＩＮＥ株式会社,,株式会社,東京都,文京区,千石４丁目１４番９号,,13,105,1120011,,,,,,,2025-10-03,1,,,,,キネ,0
576,3010001258996,新規,0,2025-10-03,2025-10-03,株式会社浜の宮,,株式会社,東京都,中央区,日本橋浜町３丁目３番１号,,13,102,1030007,,,,,,,2025-10-03,1,,,,,ハマノミヤ,0
577,3010001259086,新規,0,2025-10-03,2025-10-03,株式会社ケーアイ,,株式会社,東京都,文京区,本郷３丁目３８番５－８０３号,,13,105,1130033,,,,,,,2025-10-03,1,,,,,,0
581,3010003048867,新規,0,2025-10-03,2025-10-03,合同会社マキャヴェリ,,合同会社,東京都,文京区,湯島３丁目２１－８－１４０１,,13,105,1130034,,,,,,,2025-10-03,1,,,,,マキャヴェリ,0
586,3010401193471,新規,0,2025-10-03,2025-10-03,株式会社ひとり社長の左腕,,株式会社,東京都,港区,北青山２丁目１２番８号,,13,103,1070061,,,,,,,2025-10-03,1,,,,,ヒトリシャチョウノヒダリウデ,0
587,3010401193496,新規,0,2025-10-03,2025-10-03,ＳＦＣホールディングス株式会社,,株式会社,東京都,港区,浜松町１丁目９番９号,,13,103,1050013,,,,,,,2025-10-03,1,,,,,エスエフシーホールディングス,0
589,3010403036199,新規,0,2025-10-03,2025-10-03,日本山主ふくおか合同会社,,合同会社,東京都,港区,虎ノ門４丁目１番２８号虎ノ門タワーズオフィス１７階,,13,103,1050001,,,,,,,2025-10-03,1,,,,,ニホンヤマヌシフクオカ,0
592,3010601068052,新規,0,2025-10-03,2025-10-03,株式会社ＫＡＳＨＩＹＡ,,株式会社,東京都,墨田区,向島４丁目１４番２５号,,13,107,1310033,,,,,,,2025-10-03,1,,,,,カシヤ,0
593,3010601068077,新規,0,2025-10-03,2025-10-03,株式会社Ｍｏｎｔｒｏｓｅ,,株式会社,東京都,江東区,東陽１丁目１７番８号,,13,108,1350016,,,,,,,2025-10-03,1,,,,,モントローズ,0
594,3010603011828,新規,0,2025-10-03,2025-10-03,合同会社エム・ブリッジ,,合同会社,東京都,江東区,千石１丁目１３番１５－１２０３号,,13,108,1350015,,,,,,,2025-10-03,1,,,,,エムブリッジ,0
595,3010605004508,新規,0,2025-10-03,2025-10-03,医療法人社団鉄愛会,,その他の設立登記法人,東京都,江東区,北砂４丁目６番２０号シティークリエーシォン砂町１階,,13,108,1360073,,,,,,,2025-10-03,1,,,,,テツアイカイ,0
597,3010703007940,新規,0,2025-10-03,2025-10-03,合同会社Ｄｏｄｏ,,合同会社,東京都,品川区,南大井４丁目１３－１３アビティ南大井１、３０４,,13,109,1400013,,,,,,,2025-10-03,1,,,,,ドゥードゥー,0
610,3011001172329,新規,0,2025-10-03,2025-10-03,株式会社ＪＺｉｎｔｅｇｒａｌ,,株式会社,東京都,渋谷区,道玄坂１丁目１０番８号渋谷道玄坂東急ビル２Ｆ－Ｃ,,13,113,1500043,,,,,,,2025-10-03,1,,,,,ジェイジーインテグラル,0
611,3011001172337,新規,0,2025-10-03,2025-10-03,ＮＲ２株式会社,,株式会社,東京都,渋谷区,渋谷２丁目１９－１５宮益坂ビルディング６０９,,13,113,1500002,,,,,,,2025-10-03,1,,,,,エヌアールツー,0
612,3011001172378,新規,0,2025-10-03,2025-10-03,株式会社ＰｏｎＭａｒｔｓ,,株式会社,東京都,目黒区,下目黒１丁目１番１４号コノトラビル７Ｆ,,13,110,1530064,,,,,,,2025-10-03,1,,,,,ポンマーツ,0
618,3011103016375,新規,0,2025-10-03,2025-10-03,合同会社Ｔｒｕｓｔｆｏｌｉｏ,,合同会社,東京都,新宿区,西新宿３丁目９－２イマス西新宿第一ビル３Ｆ－Ｂ,,13,104,1600023,,,,,,,2025-10-03,1,,,,,トラストフォリオ,0
619,3011103016490,新規,0,2025-10-03,2025-10-03,ＢＬＯＯＭ合同会社,,合同会社,東京都,新宿区,西新宿３丁目３番１３号西新宿水間ビル２Ｆ,,13,104,1600023,,,,,,,2025-10-03,1,,,,,ブルーム,0
620,3011201026672,新規,0,2025-10-03,2025-10-03,清河株式会社,,株式会社,東京都,中野区,中野５丁目６７番６号ビジネスハイツ中野６０２,,13,114,1640001,,,,,,,2025-10-03,1,,,,,セイカ,0
622,3011203004841,新規,0,2025-10-03,2025-10-03,合同会社Ｕｒｕｌｉｓｔａ,,合同会社,東京都,中野区,中野４丁目１０番２号,,13,114,1640001,,,,,,,2025-10-03,1,,,,,ウルリスタ,0
627,3011401027446,新規,0,2025-10-03,2025-10-03,オルゼウ株式会社,,株式会社,東京都,板橋区,成増３丁目３番７号サアラ成増２０Ｂ,,13,119,1750094,,,,,,,2025-10-03,1,,,,,オルゼウ,0
634,3011701028796,新規,0,2025-10-03,2025-10-03,株式会社丸山アセット,,株式会社,東京都,江戸川区,西瑞江４丁目１５番地２－４０８号,,13,123,1340015,,,,,,,2025-10-03,1,,,,,マルヤマアセット,0
638,3011801046847,新規,0,2025-10-03,2025-10-03,株式会社ＭｏｏＮ,,株式会社,東京都,葛飾区,東立石２丁目８番３号,,13,122,1240013,,,,,,,2025-10-03,1,,,,,ムーン,0
640,3012401043631,新規,0,2025-10-03,2025-10-03,株式会社さとのか,,株式会社,東京都,武蔵野市,中町２丁目２８－８,,13,203,1800006,,,,,,,2025-10-03,1,,,,,サトノカ,0
641,3012405005173,新規,0,2025-10-03,2025-10-03,一般社団法人すごいじゃん，わたし,,その他の設立登記法人,東京都,多摩市,鶴牧３丁目２番地ブリリア多摩センター９０４,,13,224,2060034,,,,,,,2025-10-03,1,,,,,スゴイジャンワタシ,0
651,3020001165093,新規,0,2025-10-03,2025-10-03,株式会社ＮＡＨＤ,,株式会社,神奈川県,横浜市中区,石川町１丁目１３番地２エネクル横浜元町テラス１Ｆ,,14,104,2310868,,,,,,,2025-10-03,1,,,,,エヌエーエイチディー,0
652,3020001165110,新規,0,2025-10-03,2025-10-03,株式会社かいとりん,,株式会社,神奈川県,横浜市栄区,飯島町１６８１番地１フローレンスパレス本郷台ヒルズ７０６,,14,115,2440842,,,,,,,2025-10-03,1,,,,,カイトリン,0
655,3020003029503,新規,0,2025-10-03,2025-10-03,合同会社ＮＫＹ２企画,,合同会社,神奈川県,横浜市青葉区,美しが丘西２丁目２５番地２１,,14,117,2250001,,,,,,,2025-10-03,1,,,,,エヌケーワイツーキカク,0
660,3021003016615,新規,0,2025-10-03,2025-10-03,合同会社Ｇｌｉｆｔｅｒ,,合同会社,神奈川県,厚木市,飯山南２丁目１８番３７号,,14,212,2430218,,,,,,,2025-10-03,1,,,,,グリフター,0
674,3030001168863,新規,0,2025-10-03,2025-10-03,サイディー株式会社,,株式会社,埼玉県,草加市,八幡町１０８番地５サンハイムＩＩＩ－３０２号,00140911,11,221,3400006,,,,,,,2025-10-03,1,,,,,サイディー,0
675,3030001168987,新規,0,2025-10-03,2025-10-03,Ｓｕｎｆｌｏｗｅｒ株式会社,,株式会社,埼玉県,狭山市,新狭山２丁目８番地の４寿ビル３０１号室,,11,215,3501331,,,,,,,2025-10-03,1,,,,,サンフラワー,0
685,3040001140656,新規,0,2025-10-03,2025-10-03,株式会社隆栄総業,,株式会社,千葉県,市原市,青柳１７３７番地１グレイスレジデンス２０２,,12,219,2990102,,,,,,,2025-10-03,1,,,,,リュウエイソウギョウ,0
687,3040003028627,新規,0,2025-10-03,2025-10-03,鹿児島県指宿蓄電所１号合同会社,,合同会社,千葉県,八千代市,緑が丘１丁目２番地１,,12,221,2760049,,,,,,,2025-10-03,1,,,,,カゴシマケンイブスキチクデンショイチゴウ,0
688,3040003028668,新規,0,2025-10-03,2025-10-03,Ｈ＆Ｔ合同会社,,合同会社,千葉県,千葉市花見川区,こてはし台２丁目４番２号,,12,102,2620005,,,,,,,2025-10-03,1,,,,,エイチアンドティー,0
689,3040003028676,新規,0,2025-10-03,2025-10-03,合同会社Ｒｉｍｉ．Ｋａｉ,,合同会社,千葉県,柏市,大室１丁目３番地３,,12,217,2770813,,,,,,,2025-10-03,1,,,,,リミカイ,0
694,3050001057362,新規,0,2025-10-03,2025-10-03,Ｈ＆Ｔ　ｃａｒｓ株式会社,,株式会社,茨城県,土浦市,中村南１丁目７番１１号,,08,203,3000843,,,,,,,2025-10-03,1,,,,,エチアンドティカーズ,0
695,3050001057370,新規,0,2025-10-03,2025-10-03,株式会社Ｓｕｎｎｙ　ｓｉｄｅ,,株式会社,茨城県,つくばみらい市,陽光台３丁目３９番地６,,08,235,3002358,,,,,,,2025-10-03,1,,,,,サニーサイド,0
700,3070001043393,新規,0,2025-10-03,2025-10-03,林翔株式会社,,株式会社,群馬県,邑楽郡千代田町,大字昭和２番２,,10,523,3700723,,,,,,,2025-10-03,1,,,,,リンショウ,0
701,3070001043402,新規,0,2025-10-03,2025-10-03,株式会社Ｌｕａｎａ,,株式会社,群馬県,前橋市,前箱田町３３６番地３,,10,201,3710835,,,,,,,2025-10-03,1,,,,,ルアナ,0
703,3070003006126,新規,0,2025-10-03,2025-10-03,ＤＥＦＹ　ＡＵＴＯ合同会社,,合同会社,群馬県,富岡市,七日市１２６８番地６,,10,210,3702343,,,,,,,2025-10-03,1,,,,,ディファイオート,0
710,3100001039017,新規,0,2025-10-03,2025-10-03,株式会社システムソイル,,株式会社,長野県,長野市,安茂里小市１丁目２２番１２号,,20,201,3800961,,,,,,,2025-10-03,1,,,,,システムソイル,0
711,3110001039602,新規,0,2025-10-03,2025-10-03,ビルドリンク株式会社,,株式会社,新潟県,新潟市中央区,鳥屋野１丁目２２番２９号,,15,103,9500951,,,,,,,2025-10-03,1,,,,,ビルドリンク,0
714,3110003005890,新規,0,2025-10-03,2025-10-03,合同会社リフレクト,,合同会社,新潟県,新潟市東区,牡丹山１丁目２８－１６,,15,102,9500872,,,,,,,2025-10-03,1,,,,,リフレクト,0
715,3110003005908,新規,0,2025-10-03,2025-10-03,合同会社シャイヤントレーディング,,合同会社,新潟県,北蒲原郡聖籠町,大字大夫興野字金清水山２８６２番地９,,15,307,9570126,,,,,,,2025-10-03,1,,,,,シャイヤントレーディング,0
731,3120001280188,新規,0,2025-10-03,2025-10-03,まいにち株式会社,,株式会社,大阪府,大阪市都島区,内代町３丁目１０－１６エムロード都島５０７号,,27,102,5340013,,,,,,,2025-10-03,1,,,,,マイニチ,0
732,3120001280295,新規,0,2025-10-03,2025-10-03,沐霖株式会社,,株式会社,大阪府,大阪市住吉区,山之内４丁目１５番１１－３０３室,,27,120,5580023,,,,,,,2025-10-03,1,,,,,シンリン,0
733,3120001280485,新規,0,2025-10-03,2025-10-03,梧桐閣株式会社,,株式会社,大阪府,大阪市北区,天神橋２丁目１番１８号シャトーＮＴ４０１号,,27,127,5300041,,,,,,,2025-10-03,1,,,,,ゴドウカク,0
734,3120001280659,新規,0,2025-10-03,2025-10-03,株式会社京スペＴＳソリューション,,株式会社,大阪府,大阪市淀川区,西中島５丁目１１番１０号第３中島ビル,,27,123,5320011,,,,,,,2025-10-03,1,,,,,キョウスペティーエスソリューション,0
739,3120003030764,新規,0,2025-10-03,2025-10-03,ミナミ８６合同会社,,合同会社,大阪府,守口市,大庭町１丁目４番１９号Ａ－６,,27,209,5700009,,,,,,,2025-10-03,1,,,,,ミナミハチロク,0
740,3120003030822,新規,0,2025-10-03,2025-10-03,合同会社Ｆ５Ｃｅｎｔｅｒ,,合同会社,大阪府,大阪市平野区,喜連西５丁目９８９番１４－２０１室,,27,126,5470026,,,,,,,2025-10-03,1,,,,,エフファイブセンター,0
744,3120101072510,新規,0,2025-10-03,2025-10-03,ＪＮ　ＴＲＡＤＩＮＧ株式会社,,株式会社,大阪府,河内長野市,天野町２９６番地の３－５,,27,216,5860086,,,,,,,2025-10-03,1,,,,,ジェイエヌトレーディング,0
745,3120101072535,新規,0,2025-10-03,2025-10-03,ＺＡＩＮ　ＴＲＡＤＩＮＧ株式会社,,株式会社,大阪府,和泉市,春木町２０３－１０１号室,,27,219,5941141,,,,,,,2025-10-03,1,,,,,ザイントレーディング,0
746,3120103006755,新規,0,2025-10-03,2025-10-03,合同会社０１,,合同会社,大阪府,泉佐野市,長滝４０６２番地の８,,27,213,5980034,,,,,,,2025-10-03,1,,,,,ゼロワン,0
748,3120901051564,新規,0,2025-10-03,2025-10-03,株式会社トライムベース,,株式会社,大阪府,茨木市,山手台新町３丁目６－１５,,27,211,5670010,,,,,,,2025-10-03,1,,,,,トライムベース,0
749,3122001039688,新規,0,2025-10-03,2025-10-03,株式会社ＳＫＮ,,株式会社,大阪府,東大阪市,水走２丁目１４番１１号ザ・サウス１０２号,,27,227,5780921,,,,,,,2025-10-03,1,,,,,エスケイエヌ,0
757,3140001140175,新規,0,2025-10-03,2025-10-03,株式会社ＦＩＮ,,株式会社,兵庫県,神戸市中央区,古湊通１丁目２－５,,28,110,6500026,,,,,,,2025-10-03,1,,,,,フィン,0
758,3140001140266,新規,0,2025-10-03,2025-10-03,株式会社グランディ,,株式会社,兵庫県,西宮市,城山５番２５号,,28,204,6620023,,,,,,,2025-10-03,1,,,,,グランディ,0
759,3140005027641,新規,0,2025-10-03,2025-10-03,行政書士法人Ｓ＆Ｓ,,その他の設立登記法人,兵庫県,尼崎市,開明町２丁目１１番,,28,202,6600862,,,,,,,2025-10-03,1,,,,,エスアンドエス,0
760,3150001028444,新規,0,2025-10-03,2025-10-03,株式会社まどか工務店,,株式会社,奈良県,香芝市,別所３５５番地８,,29,210,6390224,,,,,,,2025-10-03,1,,,,,マドカコウムテン,0
763,3170001018807,新規,0,2025-10-03,2025-10-03,株式会社水永,,株式会社,和歌山県,田辺市,中万呂９番地の６,,30,206,6460003,,,,,,,2025-10-03,1,,,,,ミズナガ,0
772,3180001168766,新規,0,2025-10-03,2025-10-03,フロンティア株式会社,,株式会社,愛知県,大府市,中央町６丁目１２０番地ハートヒルズ大府中央１０Ｃ号,,23,223,4740025,,,,,,,2025-10-03,1,,,,,フロンティア,0
773,3180001168816,新規,0,2025-10-03,2025-10-03,株式会社チガヤ,,株式会社,愛知県,大府市,横根町山ノ後６９番地の５,,23,223,4740011,,,,,,,2025-10-03,1,,,,,チガヤ,0
774,3180001168824,新規,0,2025-10-03,2025-10-03,株式会社ＨＫ　Ｒｉｓｅ　Ｈｏｌｄｉｎｇｓ,,株式会社,愛知県,名古屋市中村区,名駅３丁目４番１０号アルティメイト名駅１ｓｔ２階,,23,105,4500002,,,,,,,2025-10-03,1,,,,,エイチケイライズホールディングス,0
775,3180001168832,新規,0,2025-10-03,2025-10-03,株式会社シトラス,,株式会社,愛知県,名古屋市中区,大須３丁目４２番３２号渋谷ビル２階,,23,106,4600011,,,,,,,2025-10-03,1,,,,,シトラス,0
776,3180001168849,新規,0,2025-10-03,2025-10-03,株式会社ＫＥＮＡＮ,,株式会社,愛知県,海部郡大治町,大字馬島字山西４７番地,,23,424,4901141,,,,,,,2025-10-03,1,,,,,ケナン,0
777,3180001168923,新規,0,2025-10-03,2025-10-03,タケヒロ木曽崎株式会社,00140915,株式会社,愛知県,名古屋市中区,松原２丁目２番２５号,,23,106,4600017,,,,,,,2025-10-03,1,,,,,タケヒロキソザキ,0
780,3180003029140,新規,0,2025-10-03,2025-10-03,いろどり合同会社,,合同会社,愛知県,瀬戸市,西山町２丁目３２番地,,23,204,4890987,,,,,,,2025-10-03,1,,,,,イロドリ,0
782,3180301040303,新規,0,2025-10-03,2025-10-03,株式会社イソムラホームサービス,,株式会社,愛知県,豊橋市,弥生町字東豊和１０番地６,,23,201,4418106,,,,,,,2025-10-03,1,,,,,イソムラホームサービス,0
787,3200001044287,新規,0,2025-10-03,2025-10-03,株式会社無人の窓口,,株式会社,岐阜県,揖斐郡大野町,大字加納１２１５番地の１,,21,403,5010535,,,,,,,2025-10-03,1,,,,,ムジンノマドグチ,0
788,3200003007085,新規,0,2025-10-03,2025-10-03,合同会社中敬,,合同会社,岐阜県,関市,市平賀３６７番地４,,21,205,5013822,,,,,,,2025-10-03,1,,,,,ナカケイ,0
790,3210001020337,新規,0,2025-10-03,2025-10-03,株式会社みさきモータース,,株式会社,福井県,福井市,花堂東２丁目１３０１番地２,,18,201,9188013,,,,,,,2025-10-03,1,,,,,ミサキモータース,0
791,3210001020345,新規,0,2025-10-03,2025-10-03,ふくい観光イノベーション株式会社,,株式会社,福井県,勝山市,元町１丁目１１番１号,,18,206,9110804,,,,,,,2025-10-03,1,,,,,フクイカンコウイノベーション,0
793,3220001026944,新規,0,2025-10-03,2025-10-03,株式会社宮下宏画商会,,株式会社,石川県,小松市,符津町ソ５３番地３,,17,203,9230302,,,,,,,2025-10-03,1,,,,,ミヤシタヒロカショウカイ,0
797,3240003007429,新規,0,2025-10-03,2025-10-03,ＭＲＧ合同会社,,合同会社,広島県,広島市東区,福田６丁目２２３６番地,,34,102,7320029,,,,,,,2025-10-03,1,,,,,エムアールジー,0
799,3260001040603,新規,0,2025-10-03,2025-10-03,株式会社ＡＳＫ,,株式会社,岡山県,真庭市,鹿田７８６番地１,,33,214,7193152,,,,,,,2025-10-03,1,,,,,エーエスケイ,0
800,3260001040611,新規,0,2025-10-03,2025-10-03,シンニチロホールディングス株式会社,,株式会社,岡山県,岡山市北区,西古松３２４番地１０７,,33,101,7000927,,,,,,,2025-10-03,1,,,,,シンニチロホールディングス,0
802,3270003001800,新規,0,2025-10-03,2025-10-03,ゴールドコースト合同会社,,合同会社,鳥取県,米子市,三旗町４番２７号,,31,202,6830843,,,,,,,2025-10-03,1,,,,,ゴールドコースト,0
804,3290001111533,新規,0,2025-10-03,2025-10-03,株式会社タイヤー,,株式会社,福岡県,福岡市博多区,山王１丁目１番１５－２０３号,,40,132,8120015,,,,,,,2025-10-03,1,,,,,タイヤー,0
810,3290801031872,新規,0,2025-10-03,2025-10-03,株式会社ＩＣＨＩＫＯ,,株式会社,福岡県,北九州市小倉北区,紺屋町１３番１号２階　北九州商工会議所内,,40,106,8020081,,,,,,,2025-10-03,1,,,,,イチコー,0
811,3290801031914,新規,0,2025-10-03,2025-10-03,株式会社宮若冷機,,株式会社,福岡県,宮若市,沼口９８２番地,,40,226,8220152,,,,,,,2025-10-03,1,,,,,ミヤワカレイキ,0
814,3290805009865,新規,0,2025-10-03,2025-10-03,一般社団法人マーラプア,,その他の設立登記法人,福岡県,北九州市八幡西区,黒崎３丁目６番６号,,40,109,8060021,,,,,,,2025-10-03,1,,,,,マーラプア,0
815,3310001019807,新規,0,2025-10-03,2025-10-03,株式会社Ｄ‐セブン,,株式会社,長崎県,長崎市,豊洋台２丁目６番３５号,,42,201,8512216,,,,,,,2025-10-03,1,,,,,ディーセブン,0
823,3330001033632,新規,0,2025-10-03,2025-10-03,株式会社九州健康経営ラボ,,株式会社,熊本県,熊本市中央区,練兵町１番地,,43,101,8600017,,,,,,,2025-10-03,1,,,,,キュウシュウケンコウケイエイラボ,0
824,3330001033640,新規,0,2025-10-03,2025-10-03,株式会社オープンフィールズ,,株式会社,熊本県,熊本市北区,大窪４丁目１－２６ヒカリハイツＢ１０５号,,43,105,8600083,,,,,,,2025-10-03,1,,,,,オープンフィールズ,0
829,3360001035816,新規,0,2025-10-03,2025-10-03,株式会社Ｇ‐ＭＩＧＨＴＮｅｘｕｓ,,株式会社,沖縄県,沖縄市,比屋根７丁目２７－３８,,47,211,9042173,,,,,,,2025-10-03,1,,,,,ジーマイトネクサス,0
830,3360001035865,新規,0,2025-10-03,2025-10-03,株式会社Ｌｕｃｋｙ　Ｃｌｏｖｅｒ,,株式会社,沖縄県,那覇市,松尾１丁目１３番５号松尾タウンビル５０１,,47,201,9000014,,,,,,,2025-10-03,1,,,,,ラッキークローバー,0
832,3370001053107,新規,0,2025-10-03,2025-10-03,株式会社たすくの杜,,株式会社,宮城県,仙台市太白区,緑ケ丘２丁目１８番１８号,,04,104,9820021,,,,,,,2025-10-03,1,,,,,タスクノモリ,0
835,3390001018124,新規,0,2025-10-03,2025-10-03,株式会社ＨＥＡＲＴＳ,,株式会社,山形県,山形市,小白川町１丁目２番２号,,06,201,9900021,,,,,,,2025-10-03,1,,,,,,0
846,3430001095241,新規,0,2025-10-03,2025-10-03,株式会社リアライズ,,株式会社,北海道,札幌市中央区,南四条西６丁目８番地３晴ばれビル３０４号室,,01,101,0640804,,,,,,,2025-10-03,1,,,,,リアライズ,0
847,3430001095324,新規,0,2025-10-03,2025-10-03,Ｋ＆Ｊ株式会社,,株式会社,北海道,札幌市白石区,菊水元町三条５丁目１番７号,,01,104,0030823,,,,,,,2025-10-03,1,,,,,ケーアンドジェー,0
861,4010001258731,新規,0,2025-10-03,2025-10-03,Ｆｕｓｉｏｎ　Ｊａｐａｎ株式会社,,株式会社,東京都,千代田区,日比谷公園１番３号市政会館１階,,13,101,1000012,,,,,,,2025-10-03,1,,,,,フュージョンジャパン,0
862,4010001258764,新規,0,2025-10-03,2025-10-03,株式会社ＧＥＮＥＳＩＳ,,株式会社,東京都,千代田区,九段南１丁目５番６号りそな九段ビル５階ＫＳフロア,,13,101,1020074,,,,,,,2025-10-03,1,,,,,ジェネシス,0
863,4010001258962,新規,0,2025-10-03,2025-10-03,Ｖｅｒｉｌｉｎｋ株式会社,,株式会社,東京都,文京区,千石４丁目１４番９号,,13,105,1120011,,,,,,,2025-10-03,1,,,,,ベリリンク,0
864,4010001258970,新規,0,2025-10-03,2025-10-03,株式会社ジーエイシージャパンＩＴ,,株式会社,東京都,千代田区,九段南３丁目９番１１－２０１号マートルコート麹町,00140907,13,101,1020074,,,,,,,2025-10-03,1,,,,,ジーエイシージャパンアイティー,0
865,4010001259028,新規,0,2025-10-03,2025-10-03,株式会社Ｔｈｙｒａ,,株式会社,東京都,中央区,銀座６丁目１３番１６号銀座ＷａｌｌビルＵＣＦ５階,,13,102,1040061,,,,,,,2025-10-03,1,,,,,シーラ,0
870,4010003048866,新規,0,2025-10-03,2025-10-03,合同会社ＦＲＳ,,合同会社,東京都,千代田区,神田須田町１丁目７番８号ＶＯＲＴ秋葉原ＩＶ２Ｆ,00140924,13,101,1010041,,,,,,,2025-10-03,1,,,,,エフアールエス,0
871,4010003048899,新規,0,2025-10-03,2025-10-03,ブルーオークアドバイザリー合同会社,,合同会社,東京都,中央区,日本橋３丁目２番１４号新槇町ビル別館第一２階,,13,102,1030027,,,,,,,2025-10-03,1,,,,,ブルーオークアドバイザリー,0
872,4010003048908,新規,0,2025-10-03,2025-10-03,ＡＢＦ　Ｉｎｇｒｅｄｉｅｎｔｓ　Ｊａｐａｎ合同会社,,合同会社,東京都,中央区,日本橋３丁目９番１号日本橋三丁目スクエア１１階,,13,102,1030027,,,,,,,2025-10-03,1,,,,,エービーエフイングリディエンツジャパン,0
873,4010003048924,新規,0,2025-10-03,2025-10-03,合同会社Ｌｕｍｉｒａ,,合同会社,東京都,中央区,八丁堀３丁目１番６－７０２号,,13,102,1040032,,,,,,,2025-10-03,1,,,,,ルミラ,0
876,4010005040730,新規,0,2025-10-03,2025-10-03,神田司町二丁目特定目的会社,,その他の設立登記法人,東京都,千代田区,内神田１丁目３番７号４０１あすな会計事務所内,,13,101,1010047,,,,,,,2025-10-03,1,,,,,カンダツカサマチニチョウメ,0
880,4010401193446,新規,0,2025-10-03,2025-10-03,株式会社Ａｌｔａｓ,,株式会社,東京都,港区,芝３丁目３２番１４号ＭｉｔａＶｉｌｌａ１Ｆ,,13,103,1050014,,,,,,,2025-10-03,1,,,,,アルタス,0
881,4010401193487,新規,0,2025-10-03,2025-10-03,シントロニックス株式会社,,株式会社,東京都,港区,新橋６丁目６番４号ＤＩＫ新橋４１７号室,,13,103,1050004,,,,,,,2025-10-03,1,,,,,シントロニックス,0
882,4010401193561,新規,0,2025-10-03,2025-10-03,株式会社ジーヤマエンターテイメント,,株式会社,東京都,港区,虎ノ門４丁目２番３号,,13,103,1050001,,,,,,,2025-10-03,1,,,,,ジーヤマエンターテイメント,0
883,4010401193594,新規,0,2025-10-03,2025-10-03,ＣａｒｅｅｒＳｙｎｃ株式会社,,株式会社,東京都,港区,北青山１丁目３－３三橋ビル３階,,13,103,1070061,,,,,,,2025-10-03,1,,,,,キャリアシンク,0
892,4010701048390,新規,0,2025-10-03,2025-10-03,株式会社大和未来,,株式会社,東京都,品川区,東五反田１丁目７番１１号,,13,109,1410022,,,,,,,2025-10-03,1,,,,,ヤマトミライ,0
895,4010801036650,新規,0,2025-10-03,2025-10-03,株式会社ＨＡＪＩ,,株式会社,東京都,大田区,東六郷２丁目８番１０号２階,,13,111,1440046,,,,,,,2025-10-03,1,,,,,ハジ,0
896,4010801036659,新規,0,2025-10-03,2025-10-03,株式会社４１０ＳＴＵＤＩＯ,,株式会社,東京都,大田区,西蒲田７丁目４－４小山第二ビル６Ｆ,,13,111,1440051,,,,,,,2025-10-03,1,,,,,シトウスタジオ,0
901,4011001172294,新規,0,2025-10-03,2025-10-03,クラトスヘルス株式会社,,株式会社,東京都,渋谷区,道玄坂１丁目１０番８号渋谷道玄坂東急ビル２階－Ｃ,,13,113,1500043,,,,,,,2025-10-03,1,,,,,クラトスヘルス,0
902,4011001172352,新規,0,2025-10-03,2025-10-03,株式会社Ｂｒｙｔｅｒ　ｄｅｓｉｇｎ　ｓｔｕｄｉｏ,,株式会社,東京都,渋谷区,恵比寿西２丁目４番８号ウィンド恵比寿ビル８Ｆ,,13,113,1500021,,,,,,,2025-10-03,1,,,,,ブライターデザインスタジオ,0
903,4011001172377,新規,0,2025-10-03,2025-10-03,株式会社メディカルビジョン,,株式会社,東京都,渋谷区,神宮前６丁目２３番４号桑野ビル２階,,13,113,1500001,,,,,,,2025-10-03,1,,,,,メディカルビジョン,0
904,4011001172385,新規,0,2025-10-03,2025-10-03,株式会社ビック,,株式会社,東京都,渋谷区,上原２丁目３８番１３号上原スタイル,,13,113,1510064,,,,,,,2025-10-03,1,,,,,ビック,0
905,4011001172922,新規,0,2025-10-03,2025-10-03,Ｓｐｒａｎｉｘ株式会社,,株式会社,東京都,目黒区,下目黒１丁目１番１４号コノトラビル７Ｆ,,13,110,1530064,,,,,,,2025-10-03,1,,,,,スプラニクス,0
911,4011103016465,新規,0,2025-10-03,2025-10-03,合同会社ＳＣＣクリーニング,,合同会社,東京都,新宿区,余丁町８番２７号ルネサンスコート東新宿４０２,,13,104,1620055,,,,,,,2025-10-03,1,,,,,エスシーシークリーニング,0
912,4011303005739,新規,0,2025-10-03,2025-10-03,ＡＲＴＩＳＡＮ　ＲＰＧ合同会社,,合同会社,東京都,杉並区,成田東４丁目３４番１３－５０２号,,13,115,1660015,,,,,,,2025-10-03,1,,,,,アーティザンアールピージー,0
914,4011403004888,新規,0,2025-10-03,2025-10-03,合同会社ＦｉｔＰｉｅｃｅ,,合同会社,東京都,板橋区,中台３丁目２６番２２号,,13,119,1740064,,,,,,,2025-10-03,1,,,,,フィットピース,0
920,4011701028804,新規,0,2025-10-03,2025-10-03,ＦＯＧ株式会社,,株式会社,東京都,江戸川区,瑞江２丁目５番３グレイス瑞江２階Ｃ－２４,,13,123,1320011,,,,,,,2025-10-03,1,,,,,エフオージー,0
921,4011701028820,新規,0,2025-10-03,2025-10-03,株式会社アストテック,,株式会社,東京都,江戸川区,一之江５丁目１６番２１号,,13,123,1320024,,,,,,,2025-10-03,1,,,,,アストテック,0
926,4011801046854,新規,0,2025-10-03,2025-10-03,株式会社ｅｃｌａｔ,,株式会社,東京都,足立区,千住中居町２６番１０ｔｒｉａｓ．ｋ１０２号,,13,121,1200035,,,,,,,2025-10-03,1,,,,,エクラ,0
930,4012401043655,新規,0,2025-10-03,2025-10-03,株式会社渡邉建築事務所,,株式会社,東京都,小金井市,貫井南町１丁目１０番７号,,13,210,1840014,,,,,,,2025-10-03,1,,,,,ワタナベケンチクジムショ,0
936,4012803003884,新規,0,2025-10-03,2025-10-03,合同会社山冷設備,,合同会社,東京都,武蔵村山市,中原１丁目２９番地の７６,,13,223,2080035,,,,,,,2025-10-03,1,,,,,サンレイセツビ,0
939,4020001164937,新規,0,2025-10-03,2025-10-03,株式会社ＧＯＯＤ　ＦＥＬＬＯＷＳ,,株式会社,神奈川県,川崎市多摩区,菅仙谷４丁目１番地５号よみうりランドクリニックモール,,14,135,2140006,,,,,,,2025-10-03,1,,,,,グッドフェローズ,0
940,4020003029428,新規,0,2025-10-03,2025-10-03,合同会社ナギサキャピタル,,合同会社,神奈川県,横浜市西区,北幸２丁目１０番４８号むつみビル３階,,14,103,2200004,,,,,,,2025-10-03,1,,,,,ナギサキャピタル,0
943,4021001086477,新規,0,2025-10-03,2025-10-03,株式会社秦野ベース,,株式会社,神奈川県,秦野市,水神町１０番２０号,,14,211,2570047,,,,,,,2025-10-03,1,,,,,ハダノベース,0
948,4030001168879,新規,0,2025-10-03,2025-10-03,幸手総合企画株式会社,,株式会社,埼玉県,草加市,新善町３２７番地５,,11,221,3400054,,,,,,,2025-10-03,1,,,,,サッテソウゴウキカク,0
949,4030001168912,新規,0,2025-10-03,2025-10-03,株式会社ひじり建設事務所,,株式会社,埼玉県,さいたま市北区,吉野町１丁目３９０番地２セントエルモ大宮吉野町４０６,,11,102,3310811,,,,,,,2025-10-03,1,,,,,ヒジリケンセツジムショ,0
956,4040001140721,新規,0,2025-10-03,2025-10-03,株式会社ＮｏｂｉｌｉｓＦｏｒｍａ,,株式会社,千葉県,柏市,柏１丁目５番１１号柏ＮＫビル５階,,12,217,2770005,,,,,,,2025-10-03,1,,,,,ノビリスフォルマ,0
960,4040003028650,新規,0,2025-10-03,2025-10-03,合同会社ＢＯＡ　ＳＯＲＴＥ,,合同会社,千葉県,千葉市稲毛区,天台５丁目１４番１号インプレスト稲毛１００３号,,12,103,2630016,,,,,,,2025-10-03,1,,,,,ボアソルチ,0
961,4040003028675,新規,0,2025-10-03,2025-10-03,ＪＡＰＡＮ　ＨＡＲＶＥＳＴ　ＨＵＢ合同会社,,合同会社,千葉県,野田市,木間ケ瀬１７５３番地７,,12,208,2700222,,,,,,,2025-10-03,1,,,,,ジャパンハーベストハブ,0
962,4040003028709,新規,0,2025-10-03,2025-10-03,ＫＩＮＫＯ　ＪＡＰＡＮ合同会社,,合同会社,千葉県,山武郡横芝光町,牛熊８８２番地１,,12,410,2891742,,,,,,,2025-10-03,1,,,,,キンコジャパン,0
964,4040005022890,新規,0,2025-10-03,2025-10-03,特定非営利活動法人やちこ・やちよこどもまんなかネットワーク,,その他の設立登記法人,千葉県,八千代市,島田台７６４番地,,12,221,2760004,,,,,,,2025-10-03,1,,,,,ヤチコヤチヨコドモマンナカネットワーク,0
968,4050001057361,新規,0,2025-10-03,2025-10-03,ＭＵＧＤＨＯ　ＩＮＴＥＲＮＡＴＩＯＮＡＬ株式会社,,株式会社,茨城県,坂東市,馬立１３７４番地１,,08,228,3060605,,,,,,,2025-10-03,1,,,,,ムグドインターナショナル,0
973,4050003009641,新規,0,2025-10-03,2025-10-03,合同会社ＨＯＲＳＴ,,合同会社,茨城県,つくば市,竹園１丁目２番地１レーベンつくばＣＯＲＩＳ４１０号,,08,220,3050032,,,,,,,2025-10-03,1,,,,,ホルスト,0
975,4060001038633,新規,0,2025-10-03,2025-10-03,株式会社Ｖｅｔ’ｓ　ｔｒｅｅ,,株式会社,栃木県,小山市,大字外城１６８番地４,,09,208,3230042,,,,,,,2025-10-03,1,,,,,ベッツツリー,0
976,4060001038641,新規,0,2025-10-03,2025-10-03,Ｙｏ株式会社,,株式会社,栃木県,鹿沼市,深津１９２４番地１,,09,205,3220013,,,,,,,2025-10-03,1,,,,,ヨー,0
984,4080401028190,新規,0,2025-10-03,2025-10-03,株式会社ｃｏｃｏｈａｒｅｔｅ,,株式会社,静岡県,浜松市浜名区,三ヶ日町福長４９０番地の３,,22,139,4311411,,,,,,,2025-10-03,1,,,,,ココハレテ,0
986,4100001039008,新規,0,2025-10-03,2025-10-03,ＩＰＤホールディングス株式会社,,株式会社,長野県,東御市,加沢１２２番地１５,,20,219,3890514,,,,,,,2025-10-03,1,,,,,アイピーディーホールディングス,0
989,4110001039601,新規,0,2025-10-03,2025-10-03,アジアシーク株式会社,,株式会社,新潟県,新潟市中央区,上大川前通７番町１２３０番地７ストークビル鏡橋７階７１７号室,,15,103,9518068,,,,,,,2025-10-03,1,,,,,アジアシーク,0
991,4110003005898,新規,0,2025-10-03,2025-10-03,合同会社和ケア,,合同会社,新潟県,長岡市,蓮潟２丁目５－１１－２０６,,15,202,9402023,,,,,,,2025-10-03,1,,,,,ナゴミケア,0
992,4110003005907,新規,0,2025-10-03,2025-10-03,ＥＫＩＨＯＵＳＥ合同会社,,合同会社,新潟県,南魚沼郡湯沢町,大字神立３７５－１１ドゥマン石白１０１号,,15,461,9496102,,,,,,,2025-10-03,1,,,,,エキハウス,0
1002,4120001280229,新規,0,2025-10-03,2025-10-03,株式会社セブン,,株式会社,大阪府,大阪市西区,本田４丁目６－２０ラパンジール本田２－９１０号室,,27,106,5500022,,,,,,,2025-10-03,1,,,,,セブン,0
1003,4120001280550,新規,0,2025-10-03,2025-10-03,華奇株式会社,,株式会社,大阪府,大阪市生野区,巽北３丁目４番６号,00140925,27,116,5440004,,,,,,,2025-10-03,1,,,,,カキ,0
1004,4120001280559,新規,0,2025-10-03,2025-10-03,株式会社Ｔスマイル,,株式会社,大阪府,寝屋川市,木屋元町５番２－８０２号,,27,215,5720088,,,,,,,2025-10-03,1,,,,,ティスマイル,0
1008,4120003030755,新規,0,2025-10-03,2025-10-03,Ｖｉｅｔ合同会社,,合同会社,大阪府,大阪市東住吉区,湯里２丁目１３－２－３０５号,,27,121,5460013,,,,,,,2025-10-03,1,,,,,ヴィエット,0
1009,4120003030771,新規,0,2025-10-03,2025-10-03,合同会社ソーシャルリンク,,合同会社,大阪府,大阪市中央区,南船場１丁目１６番２３パレロワイヤル順慶町５０８号,,27,128,5420081,,,,,,,2025-10-03,1,,,,,ソーシャルリンク,0
1010,4120003030813,新規,0,2025-10-03,2025-10-03,Ｂｅｙｏｎｄ　Ｊａｐａｎ　Ｔｏｕｒｓ合同会社,,合同会社,大阪府,枚方市,山之上西町２８番２３号アモールビル４０２号室,,27,210,5730048,,,,,,,2025-10-03,1,,,,,ビヨンドジャパンツアー,0
1011,4120003030821,新規,0,2025-10-03,2025-10-03,合同会社ＭＥＩＳＨＩＮ　ＧＲＯＵＰ,,合同会社,大阪府,大阪市西成区,出城１丁目６番１４－５０６号,,27,122,5570024,,,,,,,2025-10-03,1,,,,,メイシングループ,0
1012,4120101072518,新規,0,2025-10-03,2025-10-03,ＡＬ　ＨＡＤＩ　ＧＲＯＵＰ株式会社,,株式会社,大阪府,和泉市,大野町７７３,,27,219,5941134,,,,,,,2025-10-03,1,,,,,アルハディグループ,0
1013,4120101072534,新規,0,2025-10-03,2025-10-03,株式会社ＢＫ．Ｃｏｍ,,株式会社,大阪府,和泉市,大野町６８５番地,,27,219,5941134,,,,,,,2025-10-03,1,,,,,ビーケードットコム,0
1014,4120103006762,新規,0,2025-10-03,2025-10-03,合同会社沖野,,合同会社,大阪府,泉南郡熊取町,つばさが丘西２丁目２２番１６号,,27,361,5900443,,,,,,,2025-10-03,1,,,,,オキノ,0
1015,4120103006770,新規,0,2025-10-03,2025-10-03,合同会社Ｍ　ＳＴＹＬＥ,,合同会社,大阪府,堺市堺区,浅香山町３丁３番２０号,,27,141,5900012,,,,,,,2025-10-03,1,,,,,エムスタイル,0
1020,4130001080702,新規,0,2025-10-03,2025-10-03,オート機工株式会社,,株式会社,京都府,京都市山科区,小野葛籠尻町２２番地,,26,110,6078259,,,,,,,2025-10-03,1,,,,,オートキコウ,0
1022,4140001140190,新規,0,2025-10-03,2025-10-03,株式会社紙舟,,株式会社,兵庫県,加古川市,東神吉町西井ノ口３７－１,,28,210,6750055,,,,,,,2025-10-03,1,,,,,カミフネ,0
1026,4150001028443,新規,0,2025-10-03,2025-10-03,株式会社ナカツジ,,株式会社,奈良県,吉野郡下市町,大字阿知賀４３０番地の４,,29,443,6380001,,,,,,,2025-10-03,1,,,,,ナカツジ,0
1032,4170001018806,新規,0,2025-10-03,2025-10-03,株式会社ＨＡｒＡＮ,,株式会社,和歌山県,田辺市,高雄３丁目１４番１１号,,30,206,6460028,,,,,,,2025-10-03,1,,,,,ハラン,0
1033,4170001018814,新規,0,2025-10-03,2025-10-03,株式会社ＨＹＣ,,株式会社,和歌山県,和歌山市,木ノ本９５２番地５,,30,201,6408453,,,,,,,2025-10-03,1,,,,,エイチワイシー,0
1040,4180001168823,新規,0,2025-10-03,2025-10-03,株式会社バヤジット,,株式会社,愛知県,津島市,牛田町字入先５９番地,,23,208,4960018,,,,,,,2025-10-03,1,,,,,バヤジット,0
1041,4180001168889,新規,0,2025-10-03,2025-10-03,株式会社東起,,株式会社,愛知県,名古屋市北区,如意５丁目２５１番地の４,,23,103,4620007,,,,,,,2025-10-03,1,,,,,トオキ,0
1047,4180003029156,新規,0,2025-10-03,2025-10-03,合同会社はばたき,,合同会社,愛知県,名古屋市緑区,水広３丁目５０２,,23,114,4580848,,,,,,,2025-10-03,1,,,,,ハバタキ,0
1048,4180005021251,新規,0,2025-10-03,2025-10-03,一般社団法人ＢＮＡ,,その他の設立登記法人,愛知県,名古屋市千種区,若水３丁目３０番２号みずのビル１Ｆ,,23,101,4640071,,,,,,,2025-10-03,1,,,,,ビーエヌエー,0
1053,4200001044294,新規,0,2025-10-03,2025-10-03,株式会社かなで,,株式会社,岐阜県,岐阜市,東鶉７丁目９０番地,,21,201,5008281,,,,,,,2025-10-03,1,,,,,カナデ,0
1054,4200001044311,新規,0,2025-10-03,2025-10-03,株式会社インテックス,,株式会社,岐阜県,岐阜市,岩地２丁目１２番２０号,,21,201,5008225,,,,,,,2025-10-03,1,,,,,インテックス,0
1055,4200003007076,新規,0,2025-10-03,2025-10-03,Ｍ　ＢＯＯＴＡ　ＴＲＡＤＩＮＧ合同会社,,合同会社,岐阜県,岐阜市,折立１３０－１千万アパート西棟へ－４９,,21,201,5011132,,,,,,,2025-10-03,1,,,,,エムブータトレーディング,0
1056,4200003007084,新規,0,2025-10-03,2025-10-03,ＭＹＳＨＡ　ＭＯＴＯＲＳ合同会社,,合同会社,岐阜県,安八郡安八町,大野３７番地の１－１号棟１４６号室,,21,383,5030128,,,,,,,2025-10-03,1,,,,,マイシャモータース,0
1057,4210001020328,新規,0,2025-10-03,2025-10-03,割谷川小水力株式会社,,株式会社,福井県,今立郡池田町,稲荷第３５号５番地,,18,382,9102512,,,,,,,2025-10-03,1,,,,,ワリタニガワショウスイリョク,0
1058,4210001020336,新規,0,2025-10-03,2025-10-03,株式会社木幡橋梁調査設計,,株式会社,福井県,福井市,上森田３丁目１２１８番地,,18,201,9100142,,,,,,,2025-10-03,1,,,,,コハタキョウリョウチョウサセッケイ,0
1068,4240001065592,新規,0,2025-10-03,2025-10-03,株式会社ＤＥＡＬ,,株式会社,広島県,広島市南区,段原３丁目２１番１５号,,34,103,7320811,,,,,,,2025-10-03,1,,,,,ディール,0
1069,4240001065601,新規,0,2025-10-03,2025-10-03,株式会社ライフデザインラボ,,株式会社,広島県,広島市安佐南区,中筋３丁目２９番２３－２０１号,,34,105,7310122,,,,,,,2025-10-03,1,,,,,ライフデザインラボ,0
1070,4250001021363,新規,0,2025-10-03,2025-10-03,株式会社きくや,,株式会社,山口県,光市,大字立野１４０３番地の１,,35,210,7430062,,,,,,,2025-10-03,1,,,,,キクヤ,0
1079,4290003017471,新規,0,2025-10-03,2025-10-03,合同会社ｍｏｃｃａ１,,合同会社,福岡県,福岡市中央区,天神２丁目２番１２号Ｔ＆Ｊビルディング７Ｆ,,40,133,8100001,,,,,,,2025-10-03,1,,,,,モッカワン,0
1085,4290801031896,新規,0,2025-10-03,2025-10-03,Ｉ．Ｓカンパニー株式会社,,株式会社,福岡県,北九州市小倉南区,津田１丁目１１－１,,40,107,8000242,,,,,,,2025-10-03,1,,,,,アイエスカンパニー,0
1086,4290803005171,新規,0,2025-10-03,2025-10-03,リアン合同会社,,合同会社,福岡県,北九州市若松区,北湊町５番５０－６０１号,,40,103,8080027,,,,,,,2025-10-03,1,,,,,リアン,0
1087,4310001019806,新規,0,2025-10-03,2025-10-03,株式会社Ｏｆｆｉｃｅ　Ｓａｄａ,,株式会社,長崎県,西彼杵郡長与町,高田郷１０３番地,,42,307,8512127,,,,,,,2025-10-03,1,,,,,オフィスサダ,0
1089,4310003005102,新規,0,2025-10-03,2025-10-03,合同会社ＡＲＡＴＡＮＡ,,合同会社,長崎県,大村市,水計町９１７番地１,,42,205,8560034,,,,,,,2025-10-03,1,,,,,アラタナ,0
1090,4320001021372,新規,0,2025-10-03,2025-10-03,株式会社Ｏｕｒ　ＬＩＦＥ,,株式会社,大分県,大分市,長浜町１丁目４番１号１階,,44,201,8700023,,,,,,,2025-10-03,1,,,,,アワーライフ,0
1091,4330001033631,新規,0,2025-10-03,2025-10-03,株式会社アルファ＆オメガ,,株式会社,熊本県,熊本市東区,東町３丁目２番３号,,43,102,8620901,,,,,,,2025-10-03,1,,,,,アルファアンドオメガ,0
1098,4340003004968,新規,0,2025-10-03,2025-10-03,プレムローゾ合同会社,,合同会社,鹿児島県,霧島市,隼人町真孝７１２番地,,46,218,8995102,,,,,,,2025-10-03,1,,,,,プレムローゾ,0
1103,4360001035848,新規,0,2025-10-03,2025-10-03,株式会社誰とも被りたくない,,株式会社,沖縄県,那覇市,牧志３丁目３番１号ＴＨＥＳＯＵＴＨ,,47,201,9000013,,,,,,,2025-10-03,1,,,,,ダレトモカブリタクナイ,0
1105,4370003007299,新規,0,2025-10-03,2025-10-03,東北自動車合同会社,,合同会社,宮城県,角田市,角田字泉町３２ファミーユ幸１０５号,,04,208,9811505,,,,,,,2025-10-03,1,,,,,トウホクジドウシャ,0
1107,4380001035607,新規,0,2025-10-03,2025-10-03,株式会社虎徹,,株式会社,福島県,いわき市,平沼ノ内字諏訪原一丁目８番地の２,,07,204,9700222,,,,,,,2025-10-03,1,,,,,コテツ,0
1109,4390005009135,新規,0,2025-10-03,2025-10-03,オルウェーブ税理士法人,,その他の設立登記法人,山形県,山形市,流通センター２丁目１２番１号,,06,201,9900071,,,,,,,2025-10-03,1,,,,,オルウェーブ,0
1117,4430001095307,新規,0,2025-10-03,2025-10-03,株式会社ラクノワ,,株式会社,北海道,札幌市西区,西野七条７丁目５番８号,,01,107,0630037,,,,,,,2025-10-03,1,,,,,ラクノワ,0
1118,4430001095315,新規,0,2025-10-03,2025-10-03,株式会社ＹＳＳ　ＢＵＳＩＮＥＳＳ,,株式会社,北海道,江別市,角山４４９番地の８５,,01,217,0670052,,,,,,,2025-10-03,1,,,,,ワイエスエスビジネス,0
1120,4470001020913,新規,0,2025-10-03,2025-10-03,四電Ｔ＆Ｄサービス株式会社,,株式会社,香川県,高松市,屋島西町１８５８番地,,37,201,7610113,,,,,,,2025-10-03,1,,,,,ヨンデンティーアンドディーサービス,0
1123,4480001012967,新規,0,2025-10-03,2025-10-03,株式会社ＨＡＭＥＥＤ　ＴＲＡＤＩＮＧ,,株式会社,徳島県,阿南市,下大野町渡り上り５３０番地,,36,204,7740047,,,,,,,2025-10-03,1,,,,,ハミードトレーディング,0
1125,4500001026535,新規,0,2025-10-03,2025-10-03,株式会社玉商,,株式会社,愛媛県,西条市,三津屋６５９番地８,,38,206,7991351,,,,,,,2025-10-03,1,,,,,ギョクショウ,0
1126,4500001026543,新規,0,2025-10-03,2025-10-03,株式会社ひまわり塗想,,株式会社,愛媛県,松山市,安城寺町１３４番地８,,38,201,7918006,,,,,,,2025-10-03,1,,,,,ヒマワリトソウ,0
1128,4500003003607,新規,0,2025-10-03,2025-10-03,合同会社猫と船,,合同会社,愛媛県,越智郡上島町,弓削上弓削３１３番地,,38,356,7942503,,,,,,,2025-10-03,1,,,,,ネコトフネ,0
1129,4500005008819,新規,0,2025-10-03,2025-10-03,一般社団法人Ｇｅｎｅｒａｔｉｏｎ　Ｌｉｎｋ,,その他の設立登記法人,愛媛県,松山市,井門町４８９番地１大久保ビル２０１号,,38,201,7911114,,,,,,,2025-10-03,1,,,,,ジェネレーションリンク,0
1133,5010001258854,新規,0,2025-10-03,2025-10-03,株式会社エムフロントローディング,,株式会社,東京都,中央区,日本橋室町１丁目１１番１２号日本橋水野ビル７階,,13,102,1030022,,,,,,,2025-10-03,1,,,,,エムフロントローディング,0
1134,5010001258870,新規,0,2025-10-03,2025-10-03,株式会社ＳＴＯＣＫ１８７,,株式会社,東京都,千代田区,永田町２丁目１２番４号,,13,101,1000014,,,,,,,2025-10-03,1,,,,,ストックヒャクハチジュウナナ,0
1135,5010001258895,新規,0,2025-10-03,2025-10-03,株式会社光命,,株式会社,東京都,中央区,日本橋浜町３丁目３９番１１号グレース日本橋２０２,,13,102,1030007,,,,,,,2025-10-03,1,,,,,コウメイ,0
1136,5010001258945,新規,0,2025-10-03,2025-10-03,セラファ・バイオサイエンス株式会社,,株式会社,東京都,中央区,日本橋本町２丁目５番１号,,13,102,1030023,,,,,,,2025-10-03,1,,,,,セラファバイオサイエンス,0
1137,5010001259101,新規,0,2025-10-03,2025-10-03,株式会社再生建築計画研究所,,株式会社,東京都,千代田区,神田神保町２丁目１４番地１１,,13,101,1010051,,,,,,,2025-10-03,1,,,,,サイセイケンチクケイカクケンキュウショ,0
1142,5010003048881,新規,0,2025-10-03,2025-10-03,合同会社ＴＫセンター,,合同会社,東京都,千代田区,岩本町３丁目７番１５号ＶＯＲＴ秋葉原ＶＩＩ５階,00140909,13,101,1010032,,,,,,,2025-10-03,1,,,,,ティーケーセンター,0
1143,5010003048907,新規,0,2025-10-03,2025-10-03,合同会社ＪＳＹ,,合同会社,東京都,千代田区,九段南１丁目５番６号５階,,13,101,1020074,,,,,,,2025-10-03,1,,,,,ジェイエスワイ,0
1151,5010401193503,新規,0,2025-10-03,2025-10-03,株式会社コスモスイニシア不動産投資顧問,,株式会社,東京都,港区,東新橋１丁目５番２号,,13,103,1050021,,,,,,,2025-10-03,1,,,,,コスモスイニシアフドウサントウシコモン,0
1154,5010403036164,新規,0,2025-10-03,2025-10-03,ＭＭパワー合同会社,,合同会社,東京都,港区,虎ノ門１丁目２番６号,,13,103,1050001,,,,,,,2025-10-03,1,,,,,エムエムパワー,0
1160,5010503008030,新規,0,2025-10-03,2025-10-03,合同会社ＺＥＵＳ,,合同会社,東京都,台東区,池之端１丁目４番３３－１２０１号ブリリアタワー,,13,106,1100008,,,,,,,2025-10-03,1,,,,,ゼウス,0
1162,5010601068042,新規,0,2025-10-03,2025-10-03,株式会社ｓｉｍｐａｔｉａ,,株式会社,東京都,墨田区,江東橋２丁目１１番１３号ＣＫビル４Ｆ,,13,107,1300022,,,,,,,2025-10-03,1,,,,,シンパティア,0
1164,5010701048398,新規,0,2025-10-03,2025-10-03,Ａｒｃｈｉ　Ｂｒｉｄｇｅ株式会社,,株式会社,東京都,品川区,上大崎２丁目２番１６－２０５号,,13,109,1410021,,,,,,,2025-10-03,1,,,,,アーキブリッジ,0
1165,5010701048407,新規,0,2025-10-03,2025-10-03,株式会社Ｙ’ｓ　ｃｏｎｎｅｃｔｉｏｎ,,株式会社,東京都,品川区,中延５丁目１４－２６－１０２,,13,109,1420053,,,,,,,2025-10-03,1,,,,,ワイズコネクション,0
1166,5010703007939,新規,0,2025-10-03,2025-10-03,合同会社ＮＡパートナーズ,,合同会社,東京都,品川区,大井３丁目２番２号,,13,109,1400014,,,,,,,2025-10-03,1,,,,,エヌエーパートナーズ,0
1167,5010801036666,新規,0,2025-10-03,2025-10-03,株式会社ＭＥＣメディカルコンサルティング,,株式会社,東京都,大田区,上池台５丁目２７番５号,,13,111,1450064,,,,,,,2025-10-03,1,,,,,エムイーシーメディカルコンサルティング,0
1171,5011001172302,新規,0,2025-10-03,2025-10-03,ＢＥＡＵＴＲＯＩＤ株式会社,,株式会社,東京都,渋谷区,広尾５丁目１９番１０号ＷＩＬＬ・ＨＡＧＩＹＡ・ＢＵＩＬＤＩＮＧ４階,,13,113,1500012,,,,,,,2025-10-03,1,,,,,ビュートロイド,0
1172,5011001172351,新規,0,2025-10-03,2025-10-03,ＡＬＬ‐ＩＮ株式会社,,株式会社,東京都,渋谷区,笹塚２丁目４番１－１２０７号,,13,113,1510073,,,,,,,2025-10-03,1,,,,,オールイン,0
1174,5011003022505,新規,0,2025-10-03,2025-10-03,合同会社エイト,,合同会社,東京都,渋谷区,神宮前６丁目２３番４号,,13,113,1500001,,,,,,,2025-10-03,1,,,,,エイト,0
1180,5011301030944,新規,0,2025-10-03,2025-10-03,株式会社ＡＫＩＭＡ,,株式会社,東京都,杉並区,井草３丁目９番６号Ｌｏｔｕｓ１０５号室,,13,115,1670021,,,,,,,2025-10-03,1,,,,,アキマ,0
1182,5011401027452,新規,0,2025-10-03,2025-10-03,Ｐｒｉｎｃｅ　Ｔｒａｄｉｎｇ株式会社,,株式会社,東京都,板橋区,若木２丁目１３番１－１４７号,,13,119,1740065,,,,,,,2025-10-03,1,,,,,プリンストレーディング,0
1184,5011403004821,新規,0,2025-10-03,2025-10-03,合同会社Ｆ．Ｏ．Ｒ,,合同会社,東京都,板橋区,大和町１３番１６号ＫＤＸレジデンス板橋本町１１０２,,13,119,1730012,,,,,,,2025-10-03,1,,,,,エフオーアール,0
1185,5011403004887,新規,0,2025-10-03,2025-10-03,リライズ合同会社,,合同会社,東京都,板橋区,仲町３６－６－２０３パサニアハイツ小宮,,13,119,1730022,,,,,,,2025-10-03,1,,,,,,0
1186,5011501032625,新規,0,2025-10-03,2025-10-03,美翔インベストメント株式会社,,株式会社,東京都,北区,浮間１丁目１－１４－３０５,,13,117,1150051,,,,,,,2025-10-03,1,,,,,ビショウインベストメント,0
1187,5011505002707,新規,0,2025-10-03,2025-10-03,一般社団法人Ａｚｉｔａｍａ,,その他の設立登記法人,東京都,荒川区,荒川１丁目４９番２－７０１号,,13,118,1160002,,,,,,,2025-10-03,1,,,,,アジタマ,0
1190,5011701028803,新規,0,2025-10-03,2025-10-03,株式会社佳貴総業,,株式会社,東京都,江戸川区,篠崎町１丁目２８番７号シャーメゾンＧＬＯＲＹ３０１,,13,123,1330061,,,,,,,2025-10-03,1,,,,,ヨシキソウギョウ,0
1194,5012401043654,新規,0,2025-10-03,2025-10-03,株式会社Ｂｅｙｏｎｄｓ,,株式会社,東京都,調布市,多摩川３丁目２６番地１０,,13,208,1820025,,,,,,,2025-10-03,1,,,,,ビヨンズ,0
1195,5012701019098,新規,0,2025-10-03,2025-10-03,株式会社くすのき,,株式会社,東京都,西東京市,北原町１丁目３７番３号,,13,229,1880003,,,,,,,2025-10-03,1,,,,,クスノキ,0
1197,5012803003883,新規,0,2025-10-03,2025-10-03,ＶＩＳＩＯＮ　ＣＯＲＰＯＲＡＴＩＯＮ合同会社,,合同会社,東京都,昭島市,東町４丁目８番４号,,13,207,1960033,,,,,,,2025-10-03,1,,,,,ビジョンコーポレーション,0
1201,5020001164911,新規,0,2025-10-03,2025-10-03,株式会社未来港,,株式会社,神奈川県,横浜市戸塚区,吉田町１１１０番地１４,,14,110,2440817,,,,,,,2025-10-03,1,,,,,ミライコウ,0
1202,5020001164960,新規,0,2025-10-03,2025-10-03,グリースデザイン株式会社,,株式会社,神奈川県,横浜市西区,北幸２丁目１０番４８号むつみビル３階,,14,103,2200004,,,,,,,2025-10-03,1,,,,,グリースデザイン,0
1203,5020001165125,新規,0,2025-10-03,2025-10-03,株式会社ドリブンテクノロジーズ,,株式会社,神奈川県,横浜市神奈川区,金港町１番地７,,14,102,2210056,,,,,,,2025-10-03,1,,,,,ドリブンテクノロジーズ,0
1204,5020001165141,新規,0,2025-10-03,2025-10-03,株式会社ＴＡＩＫＡＮ,,株式会社,神奈川県,横浜市西区,北幸１丁目１１番１号水信ビル７階,,14,103,2200004,,,,,,,2025-10-03,1,,,,,タイカン,0
1218,5030001168886,新規,0,2025-10-03,2025-10-03,株式会社ｉｒｏ,,株式会社,埼玉県,さいたま市南区,曲本５丁目９番２３号Ｍ－Ｇｒａｃｅ２０１,,11,108,3360033,,,,,,,2025-10-03,1,,,,,イロ,0
1219,5030001168928,新規,0,2025-10-03,2025-10-03,株式会社住宅設備,,株式会社,埼玉県,さいたま市南区,辻８丁目１９番１２号エルセリートビル３階,,11,108,3360026,,,,,,,2025-10-03,1,,,,,ジュウタクセツビ,0
1225,5040001140638,新規,0,2025-10-03,2025-10-03,豊道株式会社,,株式会社,千葉県,船橋市,印内２丁目３番１５号ＴＯＰ西船橋第一１０６,,12,204,2730039,,,,,,,2025-10-03,1,,,,,ホウドウ,0
1231,5040003028666,新規,0,2025-10-03,2025-10-03,ＤＥＥＮＳＨＡ　ＨＯＬＤＩＮＧＳ合同会社,,合同会社,千葉県,東金市,川場７０８番地５クレスト東金２０１号,,12,213,2830064,,,,,,,2025-10-03,1,,,,,ディーンシャホールディングス,0
1235,5050003009624,新規,0,2025-10-03,2025-10-03,ＭＩＳＷＡＮ　ＩＮＴＥＲＮＡＴＩＯＮＡＬ合同会社,,合同会社,茨城県,坂東市,岩井４４８１番地３レフィナード２０６,,08,228,3060631,,,,,,,2025-10-03,1,,,,,ミスワンインターナショナル,0
1236,5050003009649,新規,0,2025-10-03,2025-10-03,ＭＭ　ＩＮＴＥＲＮＡＴＩＯＮＡＬ　ＴＲＡＤＥＲＳ合同会社,,合同会社,茨城県,筑西市,玉戸１３０９番地５５大吉亭１０１号,,08,227,3080847,,,,,,,2025-10-03,1,,,,,エムエムインターナショナルトレーダース,0
1237,5050003009673,新規,0,2025-10-03,2025-10-03,Ｃａｎａｄａ　Ｇｌｏｂａｌ合同会社,,合同会社,茨城県,稲敷市,神宮寺４３９番地,,08,229,3000622,,,,,,,2025-10-03,1,,,,,カナダグローバル,0
1242,5060003005795,新規,0,2025-10-03,2025-10-03,合同会社ラムの木,,合同会社,栃木県,宇都宮市,元今泉５丁目１３番１４号パークイースト１階,,09,201,3210954,,,,,,,2025-10-03,1,,,,,ラムノキ,0
1245,5070003006132,新規,0,2025-10-03,2025-10-03,合同会社Ｈｉｋａｒｕ,,合同会社,群馬県,前橋市,表町１丁目８番３号,,10,201,3710024,,,,,,,2025-10-03,1,,,,,ヒカウ,0
1247,5080001027179,新規,0,2025-10-03,2025-10-03,株式会社ＳＥＥＤ,,株式会社,静岡県,静岡市清水区,八木間町１１１１番地の７,,22,103,4240212,,,,,,,2025-10-03,1,,,,,シード,0
1248,5080001027187,新規,0,2025-10-03,2025-10-03,株式会社Ａ・Ｋ・Ｉ,,株式会社,静岡県,静岡市葵区,鷹匠２丁目４番８－５０８号,,22,101,4200839,,,,,,,2025-10-03,1,,,,,エイケイアイ,0
1250,5080005007730,新規,0,2025-10-03,2025-10-03,医療法人社団静鈴,,その他の設立登記法人,静岡県,静岡市清水区,楠新田２５３番地の２,,22,103,4240882,,,,,,,2025-10-03,1,,,,,セイリン,0
1252,5080101025818,新規,0,2025-10-03,2025-10-03,株式会社平田造園土木,,株式会社,静岡県,伊豆の国市,宗光寺６６２番地の７４,,22,225,4102302,,,,,,,2025-10-03,1,,,,,ヒラタゾウエンドボク,0
1274,5120001280038,新規,0,2025-10-03,2025-10-03,桜織株式会社,,株式会社,大阪府,大阪市西成区,南津守６丁目３番７１－２０１号,,27,122,5570063,,,,,,,2025-10-03,1,,,,,サオリ,0
1275,5120001280211,新規,0,2025-10-03,2025-10-03,椿上株式会社,,株式会社,大阪府,大阪市西成区,松１丁目８番３３号ハイツ真弓３０２号室,,27,122,5570034,,,,,,,2025-10-03,1,,,,,チンジョウ,0
1276,5120001280723,新規,0,2025-10-03,2025-10-03,株式会社ｓｍｏｋｙ　ｍａｔｅｒｉａｌ,,株式会社,大阪府,大阪市中央区,宗右衛門町７番１６号３Ｆ,,27,128,5420084,,,,,,,2025-10-03,1,,,,,スモーキーマテリアル,0
1278,5120003030787,新規,0,2025-10-03,2025-10-03,雲星創研合同会社,,合同会社,大阪府,大阪市旭区,大宮４丁目４－７、３０３号室,,27,117,5350002,,,,,,,2025-10-03,1,,,,,ウンセイソウケン,0
1279,5120003030804,新規,0,2025-10-03,2025-10-03,蘇豪合同会社,,合同会社,大阪府,大阪市東住吉区,北田辺４丁目１７－１４、４Ｂ号室,,27,121,5460044,,,,,,,2025-10-03,1,,,,,ソゴウ,0
1280,5120101072517,新規,0,2025-10-03,2025-10-03,徳信株式会社,,株式会社,大阪府,阪南市,貝掛６３番３号シーサイド貝掛Ｂ棟１０７号室,,27,232,5990231,,,,,,,2025-10-03,1,,,,,トクシン,0
1281,5120101072541,新規,0,2025-10-03,2025-10-03,株式会社Ａｒｃａｎａ　Ｇａｒａｇｅ,,株式会社,大阪府,泉南郡岬町,深日９９４番地の６７,,27,366,5990303,,,,,,,2025-10-03,1,,,,,アルカナガレージ,0
1283,5120103006745,新規,0,2025-10-03,2025-10-03,ＤＫ　ＪＡＰＡＮ合同会社,,合同会社,大阪府,和泉市,父鬼町２３４番地の１－２号室,,27,219,5941132,,,,,,,2025-10-03,1,,,,,ディーケージャパン,0
1284,5120103006753,新規,0,2025-10-03,2025-10-03,Ｐ　ＪＡＰＡＮ合同会社,,合同会社,大阪府,松原市,東新町５丁目５－７,,27,217,5800024,,,,,,,2025-10-03,1,,,,,ピージャパン,0
1288,5120901051570,新規,0,2025-10-03,2025-10-03,株式会社キープビルド,,株式会社,大阪府,高槻市,芥川町２丁目２４番５号,,27,207,5691123,,,,,,,2025-10-03,1,,,,,キープビルド,0
1289,5122001039694,新規,0,2025-10-03,2025-10-03,株式会社ＩＳＤ,,株式会社,大阪府,八尾市,太田１丁目１１１番地４号,,27,212,5810037,,,,,,,2025-10-03,1,,,,,アイエスディー,0
1296,5130001080643,新規,0,2025-10-03,2025-10-03,Ｓ‐ｋｒａｆｔｉｘ株式会社,,株式会社,京都府,京都市伏見区,久我御旅町４番地８８,,26,109,6128493,,,,,,,2025-10-03,1,,,,,エスクラフティックス,0
1309,5140001140181,新規,0,2025-10-03,2025-10-03,ＥｖｅｒＧｒｏｗ株式会社,,株式会社,兵庫県,神戸市兵庫区,永沢町４丁目４番１４－７０６号,,28,105,6520816,,,,,,,2025-10-03,1,,,,,エバーグロー,0
1314,5150001028442,新規,0,2025-10-03,2025-10-03,株式会社葛城農園,00140927,株式会社,奈良県,北葛城郡広陵町,大字大野７番地５,,29,426,6350803,,,,,,,2025-10-03,1,,,,,カツラギノウエン,0
1328,5180001168797,新規,0,2025-10-03,2025-10-03,ＫＡＭＩＮＡＲＩ　ＢＥＡＵＴＹ株式会社,,株式会社,愛知県,名古屋市中区,栄３丁目１１番１６号ＳＯＫ住吉ビル４Ａ,,23,106,4600008,,,,,,,2025-10-03,1,,,,,カミナリビューティー,0
1329,5180001168814,新規,0,2025-10-03,2025-10-03,株式会社ウェーブスリー,,株式会社,愛知県,名古屋市南区,赤坪町１９４番地の５,,23,112,4570024,,,,,,,2025-10-03,1,,,,,ウェーブスリー,0
1334,5180003029163,新規,0,2025-10-03,2025-10-03,ＶＨＣＰ合同会社,,合同会社,愛知県,名古屋市天白区,元八事４丁目１８４シティライフ八事ＩＩ－１Ｄ号室,,23,116,4680066,,,,,,,2025-10-03,1,,,,,ヴィエイチシーピー,0
1335,5180005021259,新規,0,2025-10-03,2025-10-03,行政書士法人ＭＡＲＫコンサルタンツ,,その他の設立登記法人,愛知県,名古屋市中区,栄４丁目１４番３１号栄オークリッジ４階,,23,106,4600008,,,,,,,2025-10-03,1,,,,,マークコンサルタンツ,0
1339,5200001044285,新規,0,2025-10-03,2025-10-03,株式会社ネコリパートナーズ,,株式会社,岐阜県,飛騨市,古川町金森町１５番地３６,,21,217,5094225,,,,,,,2025-10-03,1,,,,,ネコリパートナーズ,0
1340,5200001044293,新規,0,2025-10-03,2025-10-03,株式会社トトの部屋,,株式会社,岐阜県,大垣市,林町７丁目２４０番地２,,21,202,5030015,,,,,,,2025-10-03,1,,,,,トトノヘヤ,0
1342,5200003007075,新規,0,2025-10-03,2025-10-03,フル・マックス合同会社,,合同会社,岐阜県,岐阜市,打越１５番地１,,21,201,5020802,,,,,,,2025-10-03,1,,,,,フルマックス,0
1350,5230001021117,新規,0,2025-10-03,2025-10-03,濱本重機工業株式会社,,株式会社,富山県,魚津市,大光寺１０１番地,,16,204,9370807,,,,,,,2025-10-03,1,,,,,ハマモトジュウキコウギョウ,0
1356,5240001065567,新規,0,2025-10-03,2025-10-03,株式会社ＭｉｕＮｏ,,株式会社,広島県,廿日市市,上平良１２２４番地１Ｃ,,34,213,7380026,,,,,,,2025-10-03,1,,,,,ミューノ,0
1357,5240001065600,新規,0,2025-10-03,2025-10-03,株式会社Ｒａｂｂｉｔｓ,,株式会社,広島県,広島市中区,薬研堀６番７号２階,,34,101,7300027,,,,,,,2025-10-03,1,,,,,ラビッツ,0
1358,5240003007427,新規,0,2025-10-03,2025-10-03,合同会社オールズ,,合同会社,広島県,広島市中区,大手町３丁目１番３号,,34,101,7300051,,,,,,,2025-10-03,1,,,,,オールズ,0
1359,5250001021370,新規,0,2025-10-03,2025-10-03,株式会社ブランメゾン,,株式会社,山口県,山口市,小郡みらい町１丁目１番１０号,,35,203,7540032,,,,,,,2025-10-03,1,,,,,ブランメゾン,0
1361,5260003005370,新規,0,2025-10-03,2025-10-03,ＳＴＩ合同会社,,合同会社,岡山県,岡山市南区,あけぼの町２０番６号,,33,104,7028057,,,,,,,2025-10-03,1,,,,,エスティアイ,0
1373,5290001111580,新規,0,2025-10-03,2025-10-03,東美株式会社,,株式会社,福岡県,福岡市博多区,博多駅中央街５番１１号,,40,132,8120012,,,,,,,2025-10-03,1,,,,,トウミ,0
1379,5290801031895,新規,0,2025-10-03,2025-10-03,株式会社九広ソリューションズ,,株式会社,福岡県,北九州市小倉北区,堅町一丁目６番７号,,40,106,8020000,,,,,,,2025-10-03,1,,,,,キュウヒロソリューションズ,0
1380,5290801031912,新規,0,2025-10-03,2025-10-03,株式会社福島リフト,,株式会社,福岡県,田川郡福智町,神崎１６６８番地２,,40,610,8221202,,,,,,,2025-10-03,1,,,,,フクシマリフト,0
1381,5300001014369,新規,0,2025-10-03,2025-10-03,株式会社ＹＡＳＥＩＫＡＩ,,株式会社,佐賀県,佐賀市,巨勢町大字牛島７８番地３２,,41,201,8400008,,,,,,,2025-10-03,1,,,,,ヤセイカイ,0
1382,5310001019796,新規,0,2025-10-03,2025-10-03,株式会社Ｃｒａｆｔｉｆｙ,,株式会社,長崎県,諫早市,貝津町４５３番地３１,,42,204,8540063,,,,,,,2025-10-03,1,,,,,クラフティファイ,0
1383,5310001019805,新規,0,2025-10-03,2025-10-03,株式会社出口アルミ工業,,株式会社,長崎県,西彼杵郡長与町,吉無田郷１４８９番地１７２,,42,307,8512126,,,,,,,2025-10-03,1,,,,,デグチアルミコウギョウ,0
1390,5330001033622,新規,0,2025-10-03,2025-10-03,株式会社Ｋ‐ＴＥＣ,,株式会社,熊本県,熊本市東区,健軍本町２８番５０号ボヌールシャトー健軍６０６,,43,102,8620910,,,,,,,2025-10-03,1,,,,,ケイテック,0
1391,5330001033630,新規,0,2025-10-03,2025-10-03,株式会社碧天,,株式会社,熊本県,菊池郡大津町,大字室９５９番地,,43,403,8691235,,,,,,,2025-10-03,1,,,,,ヘキテン,0
1394,5330003011254,新規,0,2025-10-03,2025-10-03,合同会社くやまメディカル,,合同会社,熊本県,熊本市西区,田崎１丁目３番７６号,,43,103,8600053,,,,,,,2025-10-03,1,,,,,クヤマメディカル,0
1396,5340001027697,新規,0,2025-10-03,2025-10-03,株式会社キャンパスプラス,,株式会社,鹿児島県,鹿児島市,東千石町１番２６号フォリス観光ビル天文館５階Ａ室,,46,201,8920842,,,,,,,2025-10-03,1,,,,,キャンパスプラス,0
1403,5370001053071,新規,0,2025-10-03,2025-10-03,株式会社佐藤工務所,,株式会社,宮城県,仙台市青葉区,荒巻字木蔵前５番地の１,,04,101,9800845,,,,,,,2025-10-03,1,,,,,サトウコウムショ,0
1404,5370003007273,新規,0,2025-10-03,2025-10-03,合同会社ＫＡＮＺＡＫＩ,,合同会社,宮城県,仙台市青葉区,国分町２丁目１２－２３小川原ビル１階,,04,101,9800803,,,,,,,2025-10-03,1,,,,,カンザキ,0
1407,5380001035606,新規,0,2025-10-03,2025-10-03,株式会社夏目,,株式会社,福島県,福島市,飯坂町字湯沢２９,,07,201,9600201,,,,,,,2025-10-03,1,,,,,ナツメ,0
1410,5390005009134,新規,0,2025-10-03,2025-10-03,一般社団法人山形大学ふすま同窓会,,その他の設立登記法人,山形県,山形市,東原町１丁目９番４号,,06,201,9900034,,,,,,,2025-10-03,1,,,,,ヤマガタダイガクフスマドウソウカイ,0
1412,5400001017188,新規,0,2025-10-03,2025-10-03,株式会社ＲＫ,,株式会社,岩手県,紫波郡紫波町,上平沢字南馬場３番地１２,,03,321,0283441,,,,,,,2025-10-03,1,,,,,アールケー,0
1418,5430001095314,新規,0,2025-10-03,2025-10-03,ＡＫ　ＴＲＡＤＩＮＧ株式会社,,株式会社,北海道,岩見沢市,幌向南二条５丁目３９０番地７,,01,210,0690372,,,,,,,2025-10-03,1,,,,,エイケートレーディング,0
1419,5430001095396,新規,0,2025-10-03,2025-10-03,横内設備株式会社,,株式会社,北海道,室蘭市,知利別町３丁目３番９号,,01,205,0500076,,,,,,,2025-10-03,1,,,,,ヨコウチセツビ,0
1421,5430003018132,新規,0,2025-10-03,2025-10-03,合同会社ＳａｐＷｏｒｋｓ,,合同会社,北海道,札幌市中央区,南一条西１６丁目１番地３２３春野ビル３Ｆ,,01,101,0600061,,,,,,,2025-10-03,1,,,,,サップワークス,0
1422,5430003018140,新規,0,2025-10-03,2025-10-03,合同会社Ｚｓｓ,,合同会社,北海道,札幌市北区,新琴似十条１丁目２番３６－１号,,01,102,0010910,,,,,,,2025-10-03,1,,,,,ゼットエスエス,0
1423,5470001020912,新規,0,2025-10-03,2025-10-03,ギビングバック株式会社,,株式会社,香川県,高松市,花ノ宮町３丁目４番２７号シャーメゾンエバーグリーン２０５,,37,201,7618063,,,,,,,2025-10-03,1,,,,,ギビングバック,0
1424,5470001020920,新規,0,2025-10-03,2025-10-03,古川工業株式会社,,株式会社,香川県,丸亀市,川西町北３９４番地５,,37,202,7630091,,,,,,,2025-10-03,1,,,,,フルカワコウギョウ,0
1426,5480001012966,新規,0,2025-10-03,2025-10-03,株式会社ＨＢ　Ｔｒａｄｉｎｇ,,株式会社,徳島県,阿南市,下大野町渡り上り５３０番地,,36,204,7740047,,,,,,,2025-10-03,1,,,,,エイチビートレーディング,0
1428,5490001011158,新規,0,2025-10-03,2025-10-03,株式会社龍馬貿易,,株式会社,高知県,土佐市,新居６８７番地１,,39,205,7811154,,,,,,,2025-10-03,1,,,,,リョウマボウエキ,0
1429,5500001026542,新規,0,2025-10-03,2025-10-03,株式会社公装,,株式会社,愛媛県,松山市,市坪北１丁目６番１号,,38,201,7900946,,,,,,,2025-10-03,1,,,,,キミソウ,0
1430,5500001026559,新規,0,2025-10-03,2025-10-03,株式会社エレクトロサービス,,株式会社,愛媛県,松山市,北斎院町１０１３番地２,,38,201,7918031,,,,,,,2025-10-03,1,,,,,エレクトロサービス,0
1439,6010001258746,新規,0,2025-10-03,2025-10-03,みらくる株式会社,,株式会社,東京都,千代田区,神田和泉町１番地６－１６ヤマトビル４０５,,13,101,1010024,,,,,,,2025-10-03,1,,,,,ミラクル,0
1440,6010001258977,新規,0,2025-10-03,2025-10-03,株式会社ＭＡＹ,,株式会社,東京都,千代田区,外神田２丁目１７番６－１４０２号,,13,101,1010021,,,,,,,2025-10-03,1,,,,,エムエーワイ,0
1443,6010003048872,新規,0,2025-10-03,2025-10-03,合同会社ＥＩＷＡ　ＥＮＥＲＧＹ　ＯＮＥ,,合同会社,東京都,千代田区,内神田２丁目７番４号,,13,101,1010047,,,,,,,2025-10-03,1,,,,,エイワエナジーワン,0
1444,6010003048897,新規,0,2025-10-03,2025-10-03,ＬＶＪホールディングス２合同会社,,合同会社,東京都,千代田区,丸の内２丁目１番１号,,13,101,1000005,,,,,,,2025-10-03,1,,,,,エルブイジェイホールディングスツー,0
1449,6010005040737,新規,0,2025-10-03,2025-10-03,一般社団法人Ｋｎｏｔ　Ａｌｌｉａｎｃｅ,,その他の設立登記法人,東京都,千代田区,平河町２丁目５番３号,,13,101,1020093,,,,,,,2025-10-03,1,,,,,ノットアライアンス,0
1451,6010103002663,新規,0,2025-10-03,2025-10-03,Ｈａｒｕｋａ　Ｇｒｏｕｐ合同会社,,合同会社,東京都,八王子市,長沼町１３４－３３４－２０１,,13,201,1920907,,,,,,,2025-10-03,1,,,,,ハルカグループ,0
1458,6010401193403,新規,0,2025-10-03,2025-10-03,株式会社Ｎｅｘｔｇｅｎ　Ｃａｐｉｔａｌ　Ｐａｒｔｎｅｒ,,株式会社,東京都,港区,虎ノ門５丁目１３番１号虎ノ門４０ＭＴビル７Ｆ,,13,103,1050001,,,,,,,2025-10-03,1,,,,,ネクストジェンキャピタルパートナー,0
1459,6010401193436,新規,0,2025-10-03,2025-10-03,株式会社ハイシー,,株式会社,東京都,港区,新橋３丁目１６番９号エムエービルＩＩ２階,00140908,13,103,1050004,,,,,,,2025-10-03,1,,,,,ハイシー,0
1460,6010401193469,新規,0,2025-10-03,2025-10-03,ピークヒル株式会社,,株式会社,東京都,港区,港南２丁目１６番７－２６０１号,,13,103,1080075,,,,,,,2025-10-03,1,,,,,ピークヒル,0
1461,6010403036147,新規,0,2025-10-03,2025-10-03,Ｌｉｎｋ　ｓｅｅｄ合同会社,,合同会社,東京都,港区,浜松町２丁目２番１５号浜松町ダイヤビル２Ｆ,,13,103,1050013,,,,,,,2025-10-03,1,,,,,リンクシード,0
1462,6010403036196,新規,0,2025-10-03,2025-10-03,ジー・エイ・ワン・レジデンス・トゥエルブ合同会社,,合同会社,東京都,港区,虎ノ門５丁目１番４号,,13,103,1050001,,,,,,,2025-10-03,1,,,,,ジーエイワンレジデンストゥエルブ,0
1463,6010405024835,新規,0,2025-10-03,2025-10-03,ジー・エイ・ワン・レジデンス・トゥエルブ一般社団法人,,その他の設立登記法人,東京都,港区,虎ノ門５丁目１番４号,,13,103,1050001,,,,,,,2025-10-03,1,,,,,ジーエイワンレジデンストゥエルブ,0
1466,6010601068058,新規,0,2025-10-03,2025-10-03,株式会社ＶＩＥＮＴＯ,,株式会社,東京都,墨田区,千歳１丁目３－７プレディアコート森下テラス９０４,,13,107,1300025,,,,,,,2025-10-03,1,,,,,ビエント,0
1470,6010803005569,新規,0,2025-10-03,2025-10-03,合同会社エヌ企画,,合同会社,東京都,大田区,大森北２丁目１３番３１－１８１３号,,13,111,1430016,,,,,,,2025-10-03,1,,,,,エヌキカク,0
1473,6010901058196,新規,0,2025-10-03,2025-10-03,倉田猫吉商店株式会社,,株式会社,東京都,世田谷区,上用賀４丁目８番１１号,,13,112,1580098,,,,,,,2025-10-03,1,,,,,クラタネコキチショウテン,0
1480,6011001172318,新規,0,2025-10-03,2025-10-03,株式会社アスリード,,株式会社,東京都,渋谷区,道玄坂１丁目１０番８号渋谷道玄坂東急ビル２Ｆ－Ｃ,,13,113,1500043,,,,,,,2025-10-03,1,,,,,アスリード,0
1481,6011001172334,新規,0,2025-10-03,2025-10-03,株式会社ＯＰＵＳＩＡ　ＴＥＣＨ,,株式会社,東京都,目黒区,下目黒２丁目１１番６号ルネサンスコート目黒２０３,,13,110,1530064,,,,,,,2025-10-03,1,,,,,オプシアテック,0
1482,6011001172359,新規,0,2025-10-03,2025-10-03,株式会社ＴＯＨＡＫＵ,,株式会社,東京都,目黒区,自由が丘２丁目１６番１２号ＲＪ３,,13,110,1520035,,,,,,,2025-10-03,1,,,,,トハク,0
1483,6011001172367,新規,0,2025-10-03,2025-10-03,株式会社ＡＩＴＥＲＡ,,株式会社,東京都,渋谷区,恵比寿１丁目１９番１９号１０階,,13,113,1500013,,,,,,,2025-10-03,1,,,,,アイテラ,0
1484,6011001172383,新規,0,2025-10-03,2025-10-03,ＤＡＶＡ株式会社,,株式会社,東京都,渋谷区,恵比寿４丁目６番１０号,,13,113,1500013,,,,,,,2025-10-03,1,,,,,ダヴァ,0
1491,6011101113452,新規,0,2025-10-03,2025-10-03,ミヤマ株式会社,,株式会社,東京都,新宿区,西新宿３丁目９番２号イマス西新宿第一ビル西新宿ライズオフィス３ｒｄ１６号室,,13,104,1600023,,,,,,,2025-10-03,1,,,,,ミヤマ,0
1499,6011301030943,新規,0,2025-10-03,2025-10-03,株式会社ＬＴ　ＳＥＲＶＩＣＥ,,株式会社,東京都,杉並区,和泉３丁目６１番３３号第三正吉マンション１階店舗,,13,115,1680063,,,,,,,2025-10-03,1,,,,,エルティーサービス,0
1501,6011303005729,新規,0,2025-10-03,2025-10-03,合同会社ＡＹＡ,,合同会社,東京都,杉並区,久我山５丁目３１番７号,,13,115,1680082,,,,,,,2025-10-03,1,,,,,アヤ,0
1502,6011303005737,新規,0,2025-10-03,2025-10-03,合同会社アセンション,,合同会社,東京都,杉並区,宮前３丁目８番１１号,,13,115,1680081,,,,,,,2025-10-03,1,,,,,アセンション,0
1505,6011501032574,新規,0,2025-10-03,2025-10-03,株式会社Ａ．Ｂ．Ｃ,,株式会社,東京都,荒川区,町屋６丁目１５－５－３０３ライオンズシティ町屋,,13,118,1160001,,,,,,,2025-10-03,1,,,,,エービーシー,0
1508,6011601029025,新規,0,2025-10-03,2025-10-03,越蒙株式会社,,株式会社,東京都,練馬区,関町北５丁目１３番２５－２－Ｋ号室,,13,120,1770051,,,,,,,2025-10-03,1,,,,,エツモウ,0
1511,6011701028802,新規,0,2025-10-03,2025-10-03,Ｕｎｉｓｕｎ　Ｅｎｅｒｇｙ　Ｊａｐａｎ　Ｉｎｖｅｓｔｍｅｎｔｓ株式会社,,株式会社,東京都,江戸川区,東小岩６丁目３３番１８号,,13,123,1330052,,,,,,,2025-10-03,1,,,,,ユニサンエナジージャパンインベストメンツ,0
1512,6011703004405,新規,0,2025-10-03,2025-10-03,合同会社Ｃｒｙｓｔａｌ　Ｐｕｒｉｔ,,合同会社,東京都,江戸川区,南小岩１丁目１５番１０号,,13,123,1330056,,,,,,,2025-10-03,1,,,,,クリスタルピュリティ,0
1515,6012401043637,新規,0,2025-10-03,2025-10-03,株式会社未来談義,,株式会社,東京都,武蔵野市,吉祥寺南町３丁目２８番６号リーセント・ハウス１０１,,13,203,1800003,,,,,,,2025-10-03,1,,,,,ミライダンギ,0
1520,6021001086392,新規,0,2025-10-03,2025-10-03,健防災設備株式会社,,株式会社,神奈川県,相模原市中央区,水郷田名２丁目１３番３９号,,14,152,2520246,,,,,,,2025-10-03,1,,,,,ケンボウサイセツビ,0
1522,6021003016612,新規,0,2025-10-03,2025-10-03,Ａｆｔｅｒｎｏｏｎ合同会社,,合同会社,神奈川県,横須賀市,日の出町１丁目６リアライズ横須賀ＢＩＺｃｏｍｆｏｒｔ横須賀中央３階２７号室,,14,201,2380006,,,,,,,2025-10-03,1,,,,,アフターヌーン,0
1529,6030005022287,新規,0,2025-10-03,2025-10-03,土地家屋調査士法人奏,,その他の設立登記法人,埼玉県,上尾市,春日２丁目２番２号恵恒産ビル２Ａ,,11,219,3620074,,,,,,,2025-10-03,1,,,,,カナデ,0
1534,6040001140694,新規,0,2025-10-03,2025-10-03,株式会社Ｒａｄｉｃａｌ,,株式会社,千葉県,我孫子市,根戸８９３番地の１１・３号,,12,222,2701168,,,,,,,2025-10-03,1,,,,,ラディカル,0
1535,6040001140703,新規,0,2025-10-03,2025-10-03,株式会社ＳＫ,,株式会社,千葉県,市川市,国分１丁目２番４号,,12,203,2720834,,,,,,,2025-10-03,1,,,,,エスケー,0
1536,6040001140711,新規,0,2025-10-03,2025-10-03,マックス商事株式会社,,株式会社,千葉県,千葉市若葉区,上泉町６６６番地,,12,104,2650045,,,,,,,2025-10-03,1,,,,,マックスショウジ,0
1538,6040003028657,新規,0,2025-10-03,2025-10-03,合同会社ＭＹＢａｓｅ,,合同会社,千葉県,市川市,湊新田１丁目６番１１－４０１号（ポルテール行徳）,,12,203,2720132,,,,,,,2025-10-03,1,,,,,マイベース,0
1539,6040003028673,新規,0,2025-10-03,2025-10-03,ＲＦ　ＭＯＴＯＲＳ合同会社,,合同会社,千葉県,山武市,横田５１８番地３２,,12,237,2891226,,,,,,,2025-10-03,1,,,,,アールエフモータース,0
1540,6040003028698,新規,0,2025-10-03,2025-10-03,合同会社ヒルケン,,合同会社,千葉県,安房郡鋸南町,竜島９０５番地２,,12,463,2992118,,,,,,,2025-10-03,1,,,,,ヒルケン,0
1541,6040003028707,新規,0,2025-10-03,2025-10-03,ＮＩＡＺ　ＪＡＰＡＮ　ＴＲＡＤＩＮＧ合同会社,,合同会社,千葉県,市原市,馬立１９０８番地１７,,12,219,2900221,,,,,,,2025-10-03,1,,,,,ニアズジャパントレーディング,0
1543,6050003009631,新規,0,2025-10-03,2025-10-03,合同会社ｃｏｎｎｅｃｔｉｏｎ,,合同会社,茨城県,猿島郡境町,２１２１番地４ウエストフジナミ２０７号,,08,546,3060433,,,,,,,2025-10-03,1,,,,,コネクション,0
1547,6060001038631,新規,0,2025-10-03,2025-10-03,株式会社ワタナベ,,株式会社,栃木県,真岡市,大谷台町５１番地４,,09,209,3214338,,,,,,,2025-10-03,1,,,,,ワタナベ,0
1549,6070001043390,新規,0,2025-10-03,2025-10-03,株式会社ラホール貿易,,株式会社,群馬県,邑楽郡千代田町,大字赤岩３１０６番地１３,,10,523,3700503,,,,,,,2025-10-03,1,,,,,ラホールボウエキ,0
1550,6070001043399,新規,0,2025-10-03,2025-10-03,株式会社信栄電設工業,,株式会社,群馬県,高崎市,中尾町７６７番地５,,10,202,3700001,,,,,,,2025-10-03,1,,,,,シンエイデンセツコウギョウ,0
1551,6070003006123,新規,0,2025-10-03,2025-10-03,ＳＡＫＵＲＡ合同会社,,合同会社,群馬県,太田市,岩瀬川町１８２番地６,,10,205,3730841,,,,,,,2025-10-03,1,,,,,サクラ,0
1552,6070003006131,新規,0,2025-10-03,2025-10-03,合同会社蒼和,,合同会社,群馬県,北群馬郡榛東村,大字長岡４３７番地１コンフォート長岡Ａ１０２,,10,344,3703501,,,,,,,2025-10-03,1,,,,,ソウワ,0
1553,6070005010429,新規,0,2025-10-03,2025-10-03,ＮＰＯ法人Ｅｔｗｉｎ,,その他の設立登記法人,群馬県,前橋市,堀越町８０６番地９,,10,201,3710231,,,,,,,2025-10-03,1,,,,,エトゥイン,0
1554,6080001027186,新規,0,2025-10-03,2025-10-03,市川創建株式会社,,株式会社,静岡県,静岡市葵区,西千代田町２９番１４－２号,,22,101,4200847,,,,,,,2025-10-03,1,,,,,イチカワソウケン,0
1555,6080003003573,新規,0,2025-10-03,2025-10-03,合同会社ケイ・エム・エス・インターナショナル,,合同会社,静岡県,静岡市葵区,新間４６番地の１,,22,101,4211201,,,,,,,2025-10-03,1,,,,,ケイエムエスインターナショナル,0
1558,6080101025817,新規,0,2025-10-03,2025-10-03,株式会社スピリット・エス,,株式会社,静岡県,沼津市,江原町１１番１５号,,22,203,4100049,,,,,,,2025-10-03,1,,,,,スピリットエス,0
1563,6100001038957,新規,0,2025-10-03,2025-10-03,株式会社Ｎｏａｈ,,株式会社,長野県,岡谷市,湖畔２丁目５－１０,,20,204,3940034,,,,,,,2025-10-03,1,,,,,ノア,0
1564,6100001039014,新規,0,2025-10-03,2025-10-03,株式会社鈴木設備,,株式会社,長野県,諏訪郡下諏訪町,４３８７番地７,,20,361,3930000,,,,,,,2025-10-03,1,,,,,スズキセツビ,0
1567,6100005013394,新規,0,2025-10-03,2025-10-03,税理士法人北アルプス会計,,その他の設立登記法人,長野県,大町市,大町３８１２番地１,,20,212,3980002,,,,,,,2025-10-03,1,,,,,キタアルプスカイケイ,0
1570,6110003005905,新規,0,2025-10-03,2025-10-03,合同会社いちき商店,,合同会社,新潟県,新潟市中央区,上大川前通７番町１１６９番地２Ｆ,,15,103,9518068,,,,,,,2025-10-03,1,,,,,イチキショウテン,0
1580,6120001280144,新規,0,2025-10-03,2025-10-03,株式会社ＲＹＵ‐ＳＥＩ,,株式会社,大阪府,大阪市福島区,海老江３丁目１８－５,,27,103,5530001,,,,,,,2025-10-03,1,,,,,リュウセイ,0
1581,6120001280680,新規,0,2025-10-03,2025-10-03,小林漢方千草株式会社,,株式会社,大阪府,大阪市住吉区,東粉浜２丁目９番１３号,,27,120,5580051,,,,,,,2025-10-03,1,,,,,コバヤシカンポウチグサ,0
1589,6120003030803,新規,0,2025-10-03,2025-10-03,合同会社舒心家,,合同会社,大阪府,大阪市東成区,中道４丁目１６－２１山上ビル４１６号室,,27,115,5370025,,,,,,,2025-10-03,1,,,,,ショシンヤ,0
1590,6120101072516,新規,0,2025-10-03,2025-10-03,暁丸株式会社,,株式会社,大阪府,阪南市,貝掛６３番３号シーサイド貝掛Ｂ棟１１０号室,,27,232,5990231,,,,,,,2025-10-03,1,,,,,アカツキマル,0
1591,6120101072573,新規,0,2025-10-03,2025-10-03,株式会社ＬＩＢＥＲＡ,,株式会社,大阪府,和泉市,はつが野３丁目２３番１５号,,27,219,5941106,,,,,,,2025-10-03,1,,,,,リベラ,0
1592,6120103006760,新規,0,2025-10-03,2025-10-03,Ｕ２ＥＳＰＯＲＴＳ合同会社,,合同会社,大阪府,松原市,岡２丁目１番２２号,,27,217,5800014,,,,,,,2025-10-03,1,,,,,ユーツーイースポーツ,0
1594,6120903005862,新規,0,2025-10-03,2025-10-03,合同会社ＳＴＡＭＰＥＲ　ＯＩＬ,,合同会社,大阪府,高槻市,東上牧２丁目１５番８号,,27,207,5690002,,,,,,,2025-10-03,1,,,,,スタンパーオイル,0
1597,6122001039693,新規,0,2025-10-03,2025-10-03,Ｙｏｕｒ　Ｐａｒｔｎｅｒホールディングス株式会社,,株式会社,大阪府,大東市,太子田３丁目１－１８ライゼホビー６号,,27,218,5740045,,,,,,,2025-10-03,1,,,,,ユアーパートナーホールディングス,0
1598,6122001039735,新規,0,2025-10-03,2025-10-03,ビューティーファクトリーズ株式会社,,株式会社,大阪府,大東市,赤井１丁目１５番２１号住道グランドビル９階,,27,218,5740046,,,,,,,2025-10-03,1,,,,,ビューティーファクトリーズ,0
1606,6130001080659,新規,0,2025-10-03,2025-10-03,株式会社トラスト・コア,,株式会社,京都府,宇治市,五ケ庄新開１５番地の６０,,26,204,6110011,,,,,,,2025-10-03,1,,,,,トラストコア,0
1609,6140001140247,新規,0,2025-10-03,2025-10-03,ハッピースーベニア株式会社,,株式会社,兵庫県,明石市,西明石町５丁目１４番８号３階西,,28,203,6730011,,,,,,,2025-10-03,1,,,,,ハッピースーベニア,0
1610,6140001140321,新規,0,2025-10-03,2025-10-03,ウェルド・ワールド・ジャパン株式会社,,株式会社,兵庫県,神戸市中央区,磯上通４丁目１番１４号三宮スカイビル７階,,28,110,6510086,,,,,,,2025-10-03,1,,,,,ウェルドワールドジャパン,0
1613,6140003022633,新規,0,2025-10-03,2025-10-03,スクエアプラス合同会社,,合同会社,兵庫県,西宮市,生瀬町１丁目１９－１９,,28,204,6691102,,,,,,,2025-10-03,1,,,,,スクエアプラス,0
1614,6140005027647,新規,0,2025-10-03,2025-10-03,一般社団法人神戸航空イノベーション研究会,,その他の設立登記法人,兵庫県,神戸市長田区,西尻池町１丁目２番３号,,28,106,6530031,,,,,,,2025-10-03,1,,,,,コウベコウクウイノベーションケンキュウカイ,0
1615,6150001028441,新規,0,2025-10-03,2025-10-03,株式会社岩谷ボックスラボ,,株式会社,奈良県,桜井市,大字山田１９４４番地,,29,206,6330045,,,,,,,2025-10-03,1,,,,,イワタニボックスラボ,0
1622,6170001018812,新規,0,2025-10-03,2025-10-03,株式会社宮本農園,,株式会社,和歌山県,西牟婁郡上富田町,岡１９６４番地の３１,,30,404,6492101,,,,,,,2025-10-03,1,,,,,ミヤモトノウエン,0
1630,6180001168805,新規,0,2025-10-03,2025-10-03,株式会社正林,,株式会社,愛知県,常滑市,塩田町４丁目３６番地の２,,23,216,4790813,,,,,,,2025-10-03,1,,,,,ショウリン,0
1631,6180001168920,新規,0,2025-10-03,2025-10-03,株式会社Ｎ＆Ｒ,,株式会社,愛知県,名古屋市昭和区,高峯町１４３番地の８,,23,107,4660811,,,,,,,2025-10-03,1,,,,,エヌアンドアール,0
1633,6180003029162,新規,0,2025-10-03,2025-10-03,ＭＬ　ＨＯＬＤＩＮＧＳ合同会社,,合同会社,愛知県,名古屋市港区,小賀須１０１３－１クリスタルガーデン２０１号室,,23,111,4550000,,,,,,,2025-10-03,1,,,,,エムエルホールディングス,0
1634,6180301040283,新規,0,2025-10-03,2025-10-03,株式会社ＩＴＯＸ,,株式会社,愛知県,岡崎市,若松町字宮前２３番地６２,,23,202,4440826,,,,,,,2025-10-03,1,,,,,イトックス,0
1635,6180303006761,新規,0,2025-10-03,2025-10-03,合同会社ＫＴ,,合同会社,愛知県,蒲郡市,形原町南新田３６番地１,,23,214,4430104,,,,,,,2025-10-03,1,,,,,ケーティー,0
1638,6200001044284,新規,0,2025-10-03,2025-10-03,中山製陶所株式会社,,株式会社,岐阜県,多治見市,平井町６丁目１５番地の１,,21,204,5070058,,,,,,,2025-10-03,1,,,,,ナカヤマセイトウショ,0
1640,6220003004136,新規,0,2025-10-03,2025-10-03,Ｋａｎｏａ合同会社,,合同会社,石川県,加賀市,山代温泉カ６番地キオンビル１Ｃ,,17,206,9220242,,,,,,,2025-10-03,1,,,,,カノア,0
1642,6230001021116,新規,0,2025-10-03,2025-10-03,株式会社岩林構造設計,,株式会社,富山県,富山市,花園町３丁目６番２２号,,16,201,9398201,,,,,,,2025-10-03,1,,,,,イワバヤシコウゾウセッケイ,0
1645,6240001065574,新規,0,2025-10-03,2025-10-03,ＯｈａｉＡｌｉｉ株式会社,,株式会社,広島県,広島市中区,江波南１丁目８番２４－１号,,34,101,7300835,,,,,,,2025-10-03,1,,,,,オハイアリイ,0
1646,6240001065599,新規,0,2025-10-03,2025-10-03,株式会社Ｓｔａｙ　Ｇｏｌｄ,,株式会社,広島県,広島市中区,薬研堀６番７号２階,,34,101,7300027,,,,,,,2025-10-03,1,,,,,ステイゴールド,0
1649,6260001040609,新規,0,2025-10-03,2025-10-03,株式会社オークスビルテクノ,,株式会社,岡山県,倉敷市,新田２４０５番地２２,,33,202,7100038,,,,,,,2025-10-03,1,,,,,オークスビルテクノ,0
1654,6290001111547,新規,0,2025-10-03,2025-10-03,株式会社ａｔｅｌｉｅｒ４０７,,株式会社,福岡県,小郡市,寺福童９９４番地１,,40,216,8380138,,,,,,,2025-10-03,1,,,,,アトリエヨンマルナナ,0
1655,6290001111712,新規,0,2025-10-03,2025-10-03,株式会社ニューシティ開発,,株式会社,福岡県,福津市,東福間６丁目７番９号,,40,224,8113225,,,,,,,2025-10-03,1,,,,,ニューシティカイハツ,0
1658,6290003017478,新規,0,2025-10-03,2025-10-03,合同会社ミライト,,合同会社,福岡県,福岡市東区,和白３丁目２７－３７,,40,131,8110202,,,,,,,2025-10-03,1,,,,,ミライト,0
1659,6290801031894,新規,0,2025-10-03,2025-10-03,株式会社松本商会,,株式会社,福岡県,北九州市八幡西区,御開４丁目１０番３４号,,40,109,8070806,,,,,,,2025-10-03,1,,,,,マツモトショウカイ,0
1660,6290801031911,新規,0,2025-10-03,2025-10-03,株式会社バイネスト,,株式会社,福岡県,北九州市門司区,東馬寄１番１９－１０２号,,40,101,8000052,,,,,,,2025-10-03,1,,,,,バイネスト,0
1666,6330003011253,新規,0,2025-10-03,2025-10-03,合同会社コースイ,,合同会社,熊本県,熊本市南区,土河原町６２６番地２,,43,104,8615252,,,,,,,2025-10-03,1,,,,,コースイ,0
1669,6340001027688,新規,0,2025-10-03,2025-10-03,株式会社豊永,,株式会社,鹿児島県,熊毛郡屋久島町,安房２３８７番地１８,,46,505,8914311,,,,,,,2025-10-03,1,,,,,ホウエイ,0
1672,6360001035854,新規,0,2025-10-03,2025-10-03,株式会社ホウオウボク,,株式会社,沖縄県,名護市,宮里３丁目１番２０号,,47,209,9050011,,,,,,,2025-10-03,1,,,,,ホウオウボク,0
1677,6360003015301,新規,0,2025-10-03,2025-10-03,合同会社チームラボ,,合同会社,沖縄県,那覇市,首里金城町４丁目７０番地４,,47,201,9030815,,,,,,,2025-10-03,1,,,,,チームラボ,0
1679,6370001053087,新規,0,2025-10-03,2025-10-03,株式会社ハリーズ,,株式会社,宮城県,宮城郡松島町,磯崎字華園４５番地ボヌールパルク華園１０３号,,04,401,9810212,,,,,,,2025-10-03,1,,,,,ハリーズ,0
1681,6370005011009,新規,0,2025-10-03,2025-10-03,農事組合法人きよみず,,その他の設立登記法人,宮城県,加美郡色麻町,清水字田中北８番地,,04,444,9814101,,,,,,,2025-10-03,1,,,,,キヨミズ,0
1683,6380001035605,新規,0,2025-10-03,2025-10-03,株式会社伊東稲荷丸,,株式会社,福島県,相馬市,尾浜字細田２１１ー１８,,07,209,9760022,,,,,,,2025-10-03,1,,,,,イトウイナリマル,0
1697,6430001095288,新規,0,2025-10-03,2025-10-03,株式会社児玉食堂,,株式会社,北海道,札幌市中央区,南五条西１５丁目２－３　５０３,,01,101,0640805,,,,,,,2025-10-03,1,,,,,コダマショクドウ,0
1698,6430001095313,新規,0,2025-10-03,2025-10-03,株式会社ＨＥＡＲＴ,,株式会社,北海道,小樽市,朝里川温泉１丁目２１９番地１,,01,203,0470154,,,,,,,2025-10-03,1,,,,,ハート,0
1709,6490001011173,新規,0,2025-10-03,2025-10-03,株式会社Ｌｅ　Ｌｉｅｎ,,株式会社,高知県,高知市,中須賀町１３７番地６,,39,201,7800937,,,,,,,2025-10-03,1,,,,,ルリアン,0
1711,6500001026558,新規,0,2025-10-03,2025-10-03,伊予鉄セキュリティ株式会社,,株式会社,愛媛県,松山市,湊町６丁目６番地１,,38,201,7900012,,,,,,,2025-10-03,1,,,,,イヨテツセキュリティ,0
1712,6500003003605,新規,0,2025-10-03,2025-10-03,合同会社訪問看護ステーションゆう,,合同会社,愛媛県,松山市,西石井５丁目８番１１号,,38,201,7900931,,,,,,,2025-10-03,1,,,,,ホウモンカンゴステーションユウ,0
1719,7010001258919,新規,0,2025-10-03,2025-10-03,株式会社ファーストコネクション,,株式会社,東京都,中央区,銀座７丁目１７番１８号,,13,102,1040061,,,,,,,2025-10-03,1,,,,,ファーストコネクション,0
1720,7010001259000,新規,0,2025-10-03,2025-10-03,株式会社カスタマーリレーションズ推進機構,,株式会社,東京都,中央区,日本橋蛎殻町１丁目１７番２－１００２号,,13,102,1030014,,,,,,,2025-10-03,1,,,,,カスタマーリレーションズスイシンキコウ,0
1721,7010001259116,新規,0,2025-10-03,2025-10-03,株式会社極,,株式会社,東京都,中央区,築地３丁目１７番１０号ＢＡＮＨＯＴＥＬ１Ｆ,,13,102,1040045,,,,,,,2025-10-03,1,,,,,ゴク,0
1723,7010003048888,新規,0,2025-10-03,2025-10-03,合同会社ｓｔｕｄｉｏ　ＢＹ,,合同会社,東京都,中央区,銀座１丁目１２－４Ｎ＆ＥＢＬＤ．７階,,13,102,1040061,,,,,,,2025-10-03,1,,,,,スタジオバイ,0
1730,7010401193212,新規,0,2025-10-03,2025-10-03,ＣＬＵＢ’８２株式会社,,株式会社,東京都,港区,麻布十番１丁目３番地８号エフプラザ２０２号室,,13,103,1060045,,,,,,,2025-10-03,1,,,,,クラブエイティーツー,0
1731,7010401193369,新規,0,2025-10-03,2025-10-03,株式会社ＮＥＳＴ,,株式会社,東京都,港区,南麻布２丁目８番１号,,13,103,1060047,,,,,,,2025-10-03,1,,,,,ネスト,0
1736,7010601068081,新規,0,2025-10-03,2025-10-03,株式会社ファブレクス,,株式会社,東京都,墨田区,東墨田２丁目１７番１４－２０３号エルカーサＨＤＫ,,13,107,1310042,,,,,,,2025-10-03,1,,,,,ファブレクス,0
1747,7011001172358,新規,0,2025-10-03,2025-10-03,株式会社ネクストリンク,,株式会社,東京都,渋谷区,道玄坂１丁目１０番８号渋谷道玄坂東急ビル２Ｆ－Ｃ,,13,113,1500043,,,,,,,2025-10-03,1,,,,,ネクストリンク,0
1748,7011005011173,新規,0,2025-10-03,2025-10-03,一般社団法人グリーンスローモビリティ協議会,,その他の設立登記法人,東京都,渋谷区,千駄ヶ谷３丁目１５番３号,,13,113,1510051,,,,,,,2025-10-03,1,,,,,グリーンスローモビリティキョウギカイ,0
1757,7011301030926,新規,0,2025-10-03,2025-10-03,デンソンホールディング株式会社,,株式会社,東京都,杉並区,井草２丁目１９番１６号,,13,115,1670021,,,,,,,2025-10-03,1,,,,,デンソンホールディング,0
1760,7011401027459,新規,0,2025-10-03,2025-10-03,株式会社ＣＯＣＯＬＯ,,株式会社,東京都,板橋区,大山西町６５－２,,13,119,1730033,,,,,,,2025-10-03,1,,,,,ココロ,0
1761,7011401027467,新規,0,2025-10-03,2025-10-03,株式会社Ｗｉｎｔａｇｅ　Ｊａｐａｎ,,株式会社,東京都,板橋区,氷川町３２－８,,13,119,1730013,,,,,,,2025-10-03,1,,,,,ウィンテージジャパン,0
1762,7011601029024,新規,0,2025-10-03,2025-10-03,ＣＯ‐ＭＡＤＥ株式会社,,株式会社,東京都,練馬区,関町北５丁目１３番２５－２－Ｊ号室,,13,120,1770051,,,,,,,2025-10-03,1,,,,,コーメイド,0
1765,7011701028784,新規,0,2025-10-03,2025-10-03,株式会社ＲｏｏｏｏＭ,,株式会社,東京都,江戸川区,南篠崎町１丁目２６番２４号,,13,123,1330065,,,,,,,2025-10-03,1,,,,,ルーム,0
1766,7011701028801,新規,0,2025-10-03,2025-10-03,株式会社Ｋテック,,株式会社,東京都,江戸川区,松島３丁目４６番２号,,13,123,1320031,,,,,,,2025-10-03,1,,,,,ケイテック,0
1771,7011803007125,新規,0,2025-10-03,2025-10-03,合同会社ＣＲＯＷ,,合同会社,東京都,足立区,弘道２丁目１７番３－１０１号,,13,121,1200013,,,,,,,2025-10-03,1,,,,,クロウ,0
1772,7012301014547,新規,0,2025-10-03,2025-10-03,ＴＲＵＳＴ　ＢＵＩＬＤ　ＪＡＰＡＮ株式会社,,株式会社,東京都,町田市,金森東３丁目１４番２７号シティーハイム２１・４０７号室,,13,209,1940015,,,,,,,2025-10-03,1,,,,,トラストビルドジャパン,0
1773,7012401043636,新規,0,2025-10-03,2025-10-03,株式会社アクアエアー,,株式会社,東京都,三鷹市,中原４丁目３４－８,,13,204,1810005,,,,,,,2025-10-03,1,,,,,アクアエアー,0
1774,7012703003379,新規,0,2025-10-03,2025-10-03,合同会社フェリチータクッチーナ,,合同会社,東京都,西東京市,芝久保町４丁目１２番５９号コーポ８６、１０２号,,13,229,1880014,,,,,,,2025-10-03,1,,,,,フェリチータクッチーナ,0
1778,7020001165008,新規,0,2025-10-03,2025-10-03,株式会社Ａｎｏｒｍｏ,,株式会社,神奈川県,横浜市中区,元町１丁目１３番地５,,14,104,2310861,,,,,,,2025-10-03,1,,,,,アノルモ,0
1779,7020001165065,新規,0,2025-10-03,2025-10-03,株式会社ほとぎ堂,,株式会社,神奈川県,横浜市西区,浅間町１丁目４番３号ウィザードビル４０２,,14,103,2200072,,,,,,,2025-10-03,1,,,,,ホトギドウ,0
1780,7020001165148,新規,0,2025-10-03,2025-10-03,望稀商事株式会社,,株式会社,神奈川県,横浜市鶴見区,矢向４丁目２８－４第２ｋｋｆハイツ２０１,,14,101,2300001,,,,,,,2025-10-03,1,,,,,ミキショウジ,0
1781,7020001165156,新規,0,2025-10-03,2025-10-03,株式会社レトラス,,株式会社,神奈川県,横浜市金沢区,六浦南４丁目２０番３－４１５号,,14,108,2360038,,,,,,,2025-10-03,1,,,,,レトラス,0
1786,7021003016594,新規,0,2025-10-03,2025-10-03,Ｂｌｏｏｍｉｘ合同会社,,合同会社,神奈川県,藤沢市,辻堂元町２丁目１７番２２号,,14,205,2510043,,,,,,,2025-10-03,1,,,,,ブルーミックス,0
1787,7021003016611,新規,0,2025-10-03,2025-10-03,合同会社Ｂｌｏｗｆｉｓｈ,,合同会社,神奈川県,秦野市,曽屋７３５番地の２リヴァーサ暖井２０１号,,14,211,2570031,,,,,,,2025-10-03,1,,,,,ブロウフィッシュ,0
1791,7030001168876,新規,0,2025-10-03,2025-10-03,ネストリクス株式会社,,株式会社,埼玉県,新座市,東１丁目１２番１９号,,11,230,3520002,,,,,,,2025-10-03,1,,,,,ネストリクス,0
1792,7030001168918,新規,0,2025-10-03,2025-10-03,株式会社デコォ,,株式会社,埼玉県,本庄市,銀座３丁目１番１２号ユニオンビル３Ｆ,,11,211,3670052,,,,,,,2025-10-03,1,,,,,デコォ,0
1793,7030001168967,新規,0,2025-10-03,2025-10-03,株式会社ヒビスクス,,株式会社,埼玉県,さいたま市大宮区,仲町１丁目９７番地第二ヨシケンビル５階,,11,103,3300845,,,,,,,2025-10-03,1,,,,,ヒビスクス,0
1803,7050001057359,新規,0,2025-10-03,2025-10-03,株式会社ＡＫトレーディング,,株式会社,茨城県,坂東市,生子２００７番地２すずらん荘１,,08,228,3060504,,,,,,,2025-10-03,1,,,,,エーケートレーディング,0
1804,7050001057367,新規,0,2025-10-03,2025-10-03,株式会社Ｇｒｅｅｎ　Ｓｏｌｕｔｉｏｎ,,株式会社,茨城県,笠間市,稲田３８８８番地３,,08,216,3091635,,,,,,,2025-10-03,1,,,,,グリーンソリューション,0
1805,7050003009630,新規,0,2025-10-03,2025-10-03,合同会社スマイル・キッズ,,合同会社,茨城県,龍ケ崎市,直鮒７５３２番地の５,,08,208,3010815,,,,,,,2025-10-03,1,,,,,スマイルキッズ,0
1806,7050003009647,新規,0,2025-10-03,2025-10-03,ＡＭＩＮＯＶＡ　ＴＲＤ合同会社,,合同会社,茨城県,結城郡八千代町,大字東蕗田６８４－４－２０２号,,08,521,3003545,,,,,,,2025-10-03,1,,,,,アミノバティーアールディー,0
1810,7060001038630,新規,0,2025-10-03,2025-10-03,株式会社ルミナス,,株式会社,栃木県,日光市,芹沼１４４４番地１,,09,206,3212405,,,,,,,2025-10-03,1,,,,,ルミナス,0
1816,7070003006130,新規,0,2025-10-03,2025-10-03,ＳＫＹ　ＴＲＡＤＩＮＧ合同会社,,合同会社,群馬県,太田市,新田反町町３５２番地３,,10,205,3700313,,,,,,,2025-10-03,1,,,,,スカイトレーディング,0
1818,7080001027169,新規,0,2025-10-03,2025-10-03,株式会社葵エナジー,,株式会社,静岡県,静岡市葵区,大岩２丁目２９番１８号２階,,22,101,4200886,,,,,,,2025-10-03,1,,,,,アオイエナジー,0
1819,7080001027185,新規,0,2025-10-03,2025-10-03,株式会社Ｂｒｏｔｈｅｒｓ,,株式会社,静岡県,焼津市,利右衛門６９番地の２,,22,212,4210212,,,,,,,2025-10-03,1,,,,,ブラザー,0
1821,7080002005280,新規,0,2025-10-03,2025-10-03,ホゼン商事有限会社,,有限会社,静岡県,静岡市葵区,鷹匠２丁目２３番９号,,22,101,4200839,,,,,,,2025-10-03,1,,,,,ホゼンショウジ,0
1824,7080101025799,新規,0,2025-10-03,2025-10-03,武吉株式会社,,株式会社,静岡県,田方郡函南町,平井１７５３番１０４３ラッキークレスト２０４室,,22,325,4190107,,,,,,,2025-10-03,1,,,,,タケヨシ,0
1825,7080101025816,新規,0,2025-10-03,2025-10-03,株式会社勝又不動産,,株式会社,静岡県,御殿場市,新橋１２７番地,,22,215,4120043,,,,,,,2025-10-03,1,,,,,カツマタフドウサン,0
1828,7100001039013,新規,0,2025-10-03,2025-10-03,株式会社クラウドエアー,,株式会社,長野県,安曇野市,豊科高家２０９０番地１,,20,220,3998204,,,,,,,2025-10-03,1,,,,,クラウドエアー,0
1841,7120001279862,新規,0,2025-10-03,2025-10-03,日本壮品投資株式会社,,株式会社,大阪府,大阪市港区,港晴４丁目１３番４号,,27,107,5520023,,,,,,,2025-10-03,1,,,,,ニホンソウヒントウシ,0
1842,7120001280184,新規,0,2025-10-03,2025-10-03,晴和株式会社,,株式会社,大阪府,大阪市東淀川区,菅原２丁目５－７１マンションのぞみ３０１号,,27,114,5330022,,,,,,,2025-10-03,1,,,,,セイワ,0
1843,7120001280325,新規,0,2025-10-03,2025-10-03,天恩株式会社,,株式会社,大阪府,大阪市平野区,瓜破２丁目１番５０号アビタシオン２３－３０５号室,,27,126,5470024,,,,,,,2025-10-03,1,,,,,テンオン,0
1844,7120001280358,新規,0,2025-10-03,2025-10-03,栄美株式会社,,株式会社,大阪府,大阪市住之江区,御崎１丁目６－１０ハイツ御崎館４階４Ｂ号室,,27,125,5590013,,,,,,,2025-10-03,1,,,,,エミ,0
1845,7120001280432,新規,0,2025-10-03,2025-10-03,株式会社Ｗ‐Ｖｏｌａｎｔｅ,,株式会社,大阪府,大阪市中央区,淡路町３丁目５番１３号創建御堂筋ビル４階,,27,128,5410047,,,,,,,2025-10-03,1,,,,,ダブルボランチ,0
1846,7120001280738,新規,0,2025-10-03,2025-10-03,Ｉｎｄｉｇｏ　Ｎｅｘｕｓ株式会社,,株式会社,大阪府,大阪市西区,立売堀４丁目５番３６号３階,,27,106,5500012,,,,,,,2025-10-03,1,,,,,インディゴネクサス,0
1847,7120001280762,新規,0,2025-10-03,2025-10-03,株式会社潤七,,株式会社,大阪府,大阪市北区,西天満４丁目６番２４号,,27,127,5300047,,,,,,,2025-10-03,1,,,,,ジュンシチ,0
1849,7120003030934,新規,0,2025-10-03,2025-10-03,合同会社スマイルラブキャット,,合同会社,大阪府,大阪市中央区,南船場３丁目２番２２号おおきに南船場ビル２０５,,27,128,5420081,,,,,,,2025-10-03,1,,,,,スマイルラブキャット,0
1850,7120101072523,新規,0,2025-10-03,2025-10-03,Ｆ＆Ｆ株式会社,,株式会社,大阪府,堺市西区,築港新町２丁６番１３,,27,144,5928331,,,,,,,2025-10-03,1,,,,,エフアンドエフ,0
1851,7120101072564,新規,0,2025-10-03,2025-10-03,株式会社ＪＡＢＲＯ．,,株式会社,大阪府,堺市中区,福田１１３１,,27,142,5998241,,,,,,,2025-10-03,1,,,,,ジャブロ,0
1852,7120101072572,新規,0,2025-10-03,2025-10-03,株式会社ＨａｒｕＨａｒｕ,,株式会社,大阪府,高石市,綾園７丁目４－１５,,27,225,5920014,,,,,,,2025-10-03,1,,,,,ハルハル,0
1853,7120103006768,新規,0,2025-10-03,2025-10-03,ＮＡＱＥＥＢ　ＴＲＡＤＩＮＧ合同会社,,合同会社,大阪府,藤井寺市,小山１丁目４－１０グレード小山２０１号,,27,226,5830033,,,,,,,2025-10-03,1,,,,,ナキーブトレーディング,0
1860,7122001039692,新規,0,2025-10-03,2025-10-03,株式会社ｕｄａｒｕｍａ,,株式会社,大阪府,東大阪市,横沼町３丁目１４番１５号,,27,227,5770808,,,,,,,2025-10-03,1,,,,,ウダルマ,0
1861,7122003003325,新規,0,2025-10-03,2025-10-03,合同会社紡,,合同会社,大阪府,東大阪市,長堂２丁目１－２３,,27,227,5770056,,,,,,,2025-10-03,1,,,,,ツムグ,0
1865,7130001080658,新規,0,2025-10-03,2025-10-03,ＭＡ株式会社,,株式会社,京都府,京都市中京区,西ノ京星池町２０－５２,,26,104,6048416,,,,,,,2025-10-03,1,,,,,エムエー,0
1866,7130003010828,新規,0,2025-10-03,2025-10-03,日本サンド合同会社,,合同会社,京都府,京都市北区,衣笠総門町１０番地２,,26,101,6038363,,,,,,,2025-10-03,1,,,,,ニホンサンド,0
1870,7140003022665,新規,0,2025-10-03,2025-10-03,合同会社ＨＲＧ,,合同会社,兵庫県,南あわじ市,阿那賀１６２９－２７８,,28,224,6560661,,,,,,,2025-10-03,1,,,,,エイチアールジー,0
1872,7150001028449,新規,0,2025-10-03,2025-10-03,株式会社４７スポーツ,,株式会社,奈良県,大和高田市,東中２丁目６番３９号,,29,202,6350065,,,,,,,2025-10-03,1,,,,,ヨンナナスポーツ,0
1873,7160001027086,新規,0,2025-10-03,2025-10-03,株式会社ＥＰＩＣ　ＦＡＣＴＯＲＹ,,株式会社,滋賀県,守山市,小島町１８４７番地４,,25,207,5240002,,,,,,,2025-10-03,1,,,,,エピックファクトリー,0
1874,7160001027094,新規,0,2025-10-03,2025-10-03,朝日株式会社,,株式会社,滋賀県,長浜市,勝町１１５番地松風ビル１Ｆ・１０１号,,25,203,5260042,,,,,,,2025-10-03,1,,,,,アサヒ,0
1875,7160003003614,新規,0,2025-10-03,2025-10-03,Ｄｉｇｎｅｙ合同会社,,合同会社,滋賀県,高島市,安曇川町田中３１８番地４,,25,212,5201217,,,,,,,2025-10-03,1,,,,,ディグニー,0
1876,7170001018811,新規,0,2025-10-03,2025-10-03,株式会社ライブリート,,株式会社,和歌山県,和歌山市,西庄５０７番地３,,30,201,6400112,,,,,,,2025-10-03,1,,,,,ライブリート,0
1882,7180001168762,新規,0,2025-10-03,2025-10-03,和ｍｕｓｕｂｉ　Ｍａｉｓｏｎ株式会社,,株式会社,愛知県,名古屋市中区,丸の内３丁目２０－２０チサンマンション丸の内第三３０３号室,,23,106,4600002,,,,,,,2025-10-03,1,,,,,ワムスビメゾン,0
1883,7180001168795,新規,0,2025-10-03,2025-10-03,株式会社ＳＵＢＨＡＲＡＭＢＡ　ＩＮＴＥＲＮＡＴＩＯＮＡＬ,,株式会社,愛知県,春日井市,気噴町北１丁目１６０番地,,23,206,4870015,,,,,,,2025-10-03,1,,,,,スバランバインターナショナル,0
1884,7180001168804,新規,0,2025-10-03,2025-10-03,株式会社Ｃ‐ＢＡｓ,,株式会社,愛知県,名古屋市千種区,東明町５丁目３８番地,,23,101,4640028,,,,,,,2025-10-03,1,,,,,シーバス,0
1885,7180001168829,新規,0,2025-10-03,2025-10-03,日本興隆商会株式会社,,株式会社,愛知県,名古屋市東区,泉２丁目２８番２４号東和高岳ビル６０３号室,,23,102,4610001,,,,,,,2025-10-03,1,,,,,ニホンコウリュウショウカイ,0
1886,7180001168837,新規,0,2025-10-03,2025-10-03,ＨＺ　ＴＲＡＤＩＮＧ株式会社,,株式会社,愛知県,弥富市,鎌島７丁目１００番地,,23,235,4980035,,,,,,,2025-10-03,1,,,,,エイチゼットトレーディング,0
1892,7180003029153,新規,0,2025-10-03,2025-10-03,邑龍合同会社,,合同会社,愛知県,名古屋市東区,白壁３丁目３番３０号ラ・モヴェール白壁鈴木４０５号室,,23,102,4610011,,,,,,,2025-10-03,1,,,,,ユウリュウ,0
1893,7180003029161,新規,0,2025-10-03,2025-10-03,ＲＡＹＡＮ　ＩＮＴＥＲＮＡＴＩＯＮＡＬ合同会社,,合同会社,愛知県,豊明市,新栄町４丁目１４６－２志水荘第１－２０８,,23,229,4701154,,,,,,,2025-10-03,1,,,,,ライヤンインターナショナル,0
1894,7180005021257,新規,0,2025-10-03,2025-10-03,税理士法人レクサー,,その他の設立登記法人,愛知県,名古屋市中村区,名駅３丁目２５番３号大橋ビル１２階,,23,105,4500002,,,,,,,2025-10-03,1,,,,,レクサー,0
1895,7180301040282,新規,0,2025-10-03,2025-10-03,株式会社エヌエスエンジニアリング,,株式会社,愛知県,岡崎市,下青野町字祐知７０番地７,,23,202,4440244,,,,,,,2025-10-03,1,,,,,エヌエスエンジニアリング,0
1896,7180303006760,新規,0,2025-10-03,2025-10-03,ｓｅａ　ｃｌｅａｎ合同会社,,合同会社,愛知県,蒲郡市,形原町南辻３番地１,00140928,23,214,4430104,,,,,,,2025-10-03,1,,,,,シークリーン,0
1905,7200001044291,新規,0,2025-10-03,2025-10-03,株式会社みらい,,株式会社,岐阜県,下呂市,萩原町尾崎１８５８番地,,21,220,5092508,,,,,,,2025-10-03,1,,,,,ミライ,0
1906,7220001026949,新規,0,2025-10-03,2025-10-03,株式会社ＰＩＴＢＯＸ,,株式会社,石川県,白山市,知気寺町ぬ１２９番地３４,,17,210,9202155,,,,,,,2025-10-03,1,,,,,ピットボックス,0
1907,7220003004135,新規,0,2025-10-03,2025-10-03,合同会社ＳＨＡＮＴＩ　ＥＳＴＡＴＥ,,合同会社,石川県,金沢市,幸町２４番１０号,,17,201,9200968,,,,,,,2025-10-03,1,,,,,シャンティエステート,0
1910,7240001065540,新規,0,2025-10-03,2025-10-03,ＴＯＰＳＯＮ　ＪＡＰＡＮ株式会社,,株式会社,広島県,尾道市,因島重井町２７４８番地,,34,205,7222102,,,,,,,2025-10-03,1,,,,,トップソンジャパン,0
1911,7240001065573,新規,0,2025-10-03,2025-10-03,株式会社みのり工務店,,株式会社,広島県,広島市安佐北区,亀山８丁目９番４－３号,,34,106,7310231,,,,,,,2025-10-03,1,,,,,ミノリコウムテン,0
1912,7240001065581,新規,0,2025-10-03,2025-10-03,株式会社ＣＩＴＲＵＳ,,株式会社,広島県,安芸郡海田町,三迫２丁目８番４７－１８号,,34,304,7360014,,,,,,,2025-10-03,1,,,,,シトラス,0
1913,7240001065598,新規,0,2025-10-03,2025-10-03,株式会社アシスト,,株式会社,広島県,広島市中区,榎町１番２３号ファイブコーポ５０４,,34,101,7300851,,,,,,,2025-10-03,1,,,,,アシスト,0
1914,7240001065607,新規,0,2025-10-03,2025-10-03,株式会社エヌエーキャピタル,,株式会社,広島県,広島市安佐北区,三入１丁目７番５号,,34,106,7310211,,,,,,,2025-10-03,1,,,,,エヌエーキャピタル,0
1916,7240003007425,新規,0,2025-10-03,2025-10-03,合同会社ＯＲＵＴＥ,,合同会社,広島県,広島市安佐南区,大町東３丁目２２番１２－６号,,34,105,7310124,,,,,,,2025-10-03,1,,,,,オルート,0
1917,7250001021352,新規,0,2025-10-03,2025-10-03,株式会社ＥｎＢｌｏｏｍ,,株式会社,山口県,下関市,一の宮町１丁目４番２７－４０５号,,35,201,7510806,,,,,,,2025-10-03,1,,,,,エンブルーム,0
1918,7250001021360,新規,0,2025-10-03,2025-10-03,株式会社有中電空,,株式会社,山口県,下松市,大字河内５８４番地７,,35,207,7440061,,,,,,,2025-10-03,1,,,,,アリナカデンクウ,0
1920,7260003005369,新規,0,2025-10-03,2025-10-03,合同会社Ｌｉｎｋ,,合同会社,岡山県,岡山市中区,高島新屋敷７１２番地１１,,33,102,7038241,,,,,,,2025-10-03,1,,,,,リンク,0
1923,7290001111546,新規,0,2025-10-03,2025-10-03,株式会社シンガリンク,,株式会社,福岡県,福岡市中央区,春吉３丁目２番地３－５号,,40,133,8100003,,,,,,,2025-10-03,1,,,,,シンガリンク,0
1924,7290001111645,新規,0,2025-10-03,2025-10-03,株式会社器ホールディングス,,株式会社,福岡県,福岡市東区,箱崎４丁目５－１５,,40,131,8120053,,,,,,,2025-10-03,1,,,,,ウツワホールディングス,0
1928,7290003017477,新規,0,2025-10-03,2025-10-03,立徳合同会社,,合同会社,福岡県,福岡市中央区,天神３丁目１０－３２ロゼ天神１００４号,,40,133,8100001,,,,,,,2025-10-03,1,,,,,リットク,0
1929,7290801031902,新規,0,2025-10-03,2025-10-03,株式会社アリペア,,株式会社,福岡県,北九州市小倉南区,横代南町１丁目９番１７号,,40,107,8020826,,,,,,,2025-10-03,1,,,,,アリペア,0
1932,7310001019811,新規,0,2025-10-03,2025-10-03,テクノオン株式会社,,株式会社,長崎県,大村市,池田１丁目１３４０番地５,,42,205,8560026,,,,,,,2025-10-03,1,,,,,テクノオン,0
1935,7330001033612,新規,0,2025-10-03,2025-10-03,株式会社井上商店,,株式会社,熊本県,人吉市,鍛冶屋町６４番,,43,203,8680001,,,,,,,2025-10-03,1,,,,,イノウエショウテン,0
1936,7330001033645,新規,0,2025-10-03,2025-10-03,株式会社ＣＲＡＳ,,株式会社,熊本県,熊本市中央区,本荘５丁目１０番１８号,,43,101,8600811,,,,,,,2025-10-03,1,,,,,クラス,0
1940,7330003011244,新規,0,2025-10-03,2025-10-03,Ｗａｂｕ　Ｗｏｒｋｓ　Ｗｉｎｇ合同会社,,合同会社,熊本県,熊本市中央区,水前寺１丁目２２番１５－４０７号,,43,101,8620950,,,,,,,2025-10-03,1,,,,,ワブワークスウイング,0
1943,7340001027695,新規,0,2025-10-03,2025-10-03,株式会社ＶｅｒｕｓＫｒａｆｔ,,株式会社,鹿児島県,鹿児島市,伊敷台３丁目１３番１４－１号,,46,201,8900007,,,,,,,2025-10-03,1,,,,,ヴェルスクラフト,0
1945,7350001019741,新規,0,2025-10-03,2025-10-03,Ｒｅヨンシントレーラー株式会社,,株式会社,宮崎県,日南市,南郷町贄波７３９番地,,45,204,8893211,,,,,,,2025-10-03,1,,,,,リヨンシントレーラー,0
1946,7360001035853,新規,0,2025-10-03,2025-10-03,株式会社フロクス,,株式会社,沖縄県,中頭郡読谷村,字長浜１５６２番地５,,47,324,9040324,,,,,,,2025-10-03,1,,,,,フロクス,0
1947,7370001053078,新規,0,2025-10-03,2025-10-03,株式会社ガードハーツ,,株式会社,宮城県,仙台市泉区,天神沢１丁目１６番３３号,,04,105,9813105,,,,,,,2025-10-03,1,,,,,ガードハーツ,0
1948,7370001053111,新規,0,2025-10-03,2025-10-03,想株式会社,,株式会社,宮城県,仙台市青葉区,中央２丁目２－１０仙都会館ビル５階,,04,101,9800021,,,,,,,2025-10-03,1,,,,,ソウ,0
1949,7370003007313,新規,0,2025-10-03,2025-10-03,ＲＰＢ合同会社,,合同会社,宮城県,仙台市宮城野区,榴岡４丁目１３番１７号,,04,102,9830852,,,,,,,2025-10-03,1,,,,,アールピービー,0
1950,7370005011008,新規,0,2025-10-03,2025-10-03,協同組合燈,,その他の設立登記法人,宮城県,登米市,南方町原１０番地１,,04,212,9870413,,,,,,,2025-10-03,1,,,,,アカリ,0
1956,7390003002452,新規,0,2025-10-03,2025-10-03,合同会社ヨシカゲ,,合同会社,山形県,山形市,飯田５丁目１８番２０リカーヴ２０３号,,06,201,9902332,,,,,,,2025-10-03,1,,,,,ヨシカゲ,0
1959,7410005006663,新規,0,2025-10-03,2025-10-03,ＮＰＯ法人ウォランタス,,その他の設立登記法人,秋田県,仙北郡美郷町,六郷字宝門清水７２－２フラワータウン１Ｆ,,05,434,0191404,,,,,,,2025-10-03,1,,,,,,0
1965,7430001095072,新規,0,2025-10-03,2025-10-03,イケダカンパニー株式会社,,株式会社,北海道,札幌市中央区,北四条西１４丁目１番２,,01,101,0600004,,,,,,,2025-10-03,1,,,,,イケダカンパニー,0
1966,7430001095304,新規,0,2025-10-03,2025-10-03,ＳＮＯＷＢＥＡＴ株式会社,,株式会社,北海道,札幌市北区,北九条西４丁目１９番地１カルム札幌駅前５０３号,,01,102,0600809,,,,,,,2025-10-03,1,,,,,スノービート,0
1971,7430003018147,新規,0,2025-10-03,2025-10-03,Ｅｑｕｉ　Ｉｎｎｏｖａｔｉｏｎ　Ｌａｂ合同会社,,合同会社,北海道,札幌市中央区,南二条西５丁目３１番地１ＲＭＢｌｄ．７０１,,01,101,0600062,,,,,,,2025-10-03,1,,,,,エクイイノベーションラボ,0
1972,7430003018171,新規,0,2025-10-03,2025-10-03,合同会社風子堂,,合同会社,北海道,札幌市北区,北二十五条西４丁目３‐６,,01,102,0010025,,,,,,,2025-10-03,1,,,,,フウコドウ,0
1975,7440003001713,新規,0,2025-10-03,2025-10-03,合同会社ＬＥＡＰ　Ａｍｂｉｔｉｏｎ,,合同会社,北海道,函館市,本通３丁目９番１２号,,01,202,0410851,,,,,,,2025-10-03,1,,,,,リープアンビション,0
1982,7470003002989,新規,0,2025-10-03,2025-10-03,合同会社ユアーズプランニング,,合同会社,香川県,高松市,国分寺町国分２２９８番地１３,,37,201,7690102,,,,,,,2025-10-03,1,,,,,ユアーズプランニング,0
1983,7480001012964,新規,0,2025-10-03,2025-10-03,株式会社バンビ,,株式会社,徳島県,名西郡神山町,神領字本野間５４番１,,36,342,7713311,,,,,,,2025-10-03,1,,,,,バンビ,0
1995,8010001258620,新規,0,2025-10-03,2025-10-03,株式会社日本フーズパートナーズ,,株式会社,東京都,中央区,銀座６丁目６番１号,,13,102,1040061,,,,,,,2025-10-03,1,,,,,ニホンフーズパートナーズ,0
1996,8010001258645,新規,0,2025-10-03,2025-10-03,株式会社Ｋ＆Ｋエージェント,,株式会社,東京都,中央区,銀座１丁目１２－４Ｎ＆ＥＢＬＤ．７階,,13,102,1040061,,,,,,,2025-10-03,1,,,,,ケーアンドケーエージェント,0
1997,8010001258703,新規,0,2025-10-03,2025-10-03,株式会社Ｑｕａｎｔａ　Ｒｅａｌｔｙ,,株式会社,東京都,中央区,銀座７丁目１３番６号サガミビル２階,,13,102,1040061,,,,,,,2025-10-03,1,,,,,クォンタリアリティ,0
1998,8010001258711,新規,0,2025-10-03,2025-10-03,ＥｖｅｒｙｏｎｅｓＡＩ株式会社,,株式会社,東京都,中央区,日本橋室町１丁目１１番１２号日本橋水野ビル７階,,13,102,1030022,,,,,,,2025-10-03,1,,,,,エブリワンズエーアイ,0
1999,8010001258835,新規,0,2025-10-03,2025-10-03,株式会社銀座池田,,株式会社,東京都,中央区,銀座８丁目５番２号オサダビル５階,,13,102,1040061,,,,,,,2025-10-03,1,,,,,ギンザイケダ,0
2000,8010001259098,新規,0,2025-10-03,2025-10-03,株式会社Ｓｏｕｎｄ　Ｍｅｄｉａ　Ｃｒｅａｔｉｏｎ,,株式会社,東京都,千代田区,一番町６番地相模屋本社ビル７Ｆ,,13,101,1020082,,,,,,,2025-10-03,1,,,,,サウンドメディアクリエイション,0
2009,8010003048887,新規,0,2025-10-03,2025-10-03,合同会社いちからアカウンティング,,合同会社,東京都,千代田区,内神田３丁目１７番８号,,13,101,1010047,,,,,,,2025-10-03,1,,,,,イチカラアカウンティング,0
2010,8010003048912,新規,0,2025-10-03,2025-10-03,小林マネジメントＨＤ合同会社,,合同会社,東京都,中央区,銀座１丁目１２番４号Ｎ＆Ｅ．６Ｆ,,13,102,1040061,,,,,,,2025-10-03,1,,,,,コバヤシマネジメントエイチディ,0
2011,8010003048920,新規,0,2025-10-03,2025-10-03,ＬＣＣ合同会社,,合同会社,東京都,千代田区,神田須田町１丁目７－８ＶＯＲＴ秋葉原ＩＶ２Ｆ,00140905,13,101,1010041,,,,,,,2025-10-03,1,,,,,エルシーシー,0
2013,8010005040743,新規,0,2025-10-03,2025-10-03,一般社団法人健幸会,,その他の設立登記法人,東京都,千代田区,神田神保町１丁目３番地１,,13,101,1010051,,,,,,,2025-10-03,1,,,,,ケンコウカイ,0
2014,8010101016886,新規,0,2025-10-03,2025-10-03,株式会社ＭＥＳＴＩＺＯ,,株式会社,東京都,八王子市,上野町２８番地９ティアナＣ９号,,13,201,1920902,,,,,,,2025-10-03,1,,,,,メスティーゾ,0
2024,8010401193418,新規,0,2025-10-03,2025-10-03,株式会社坂井哲也建築設計事務所,,株式会社,東京都,港区,南青山３丁目３番１０号南青山３ハウス２０１号室,,13,103,1070062,,,,,,,2025-10-03,1,,,,,サカイテツヤケンチクセッケイジムショ,0
2025,8010401193467,新規,0,2025-10-03,2025-10-03,Ｗｏｒｋ　Ｂｒｉｄｇｅ株式会社,,株式会社,東京都,港区,元麻布３丁目１番６号,,13,103,1060046,,,,,,,2025-10-03,1,,,,,ワークブリッジ,0
2026,8010401193475,新規,0,2025-10-03,2025-10-03,ＴＫＳ　ＨＤ株式会社,,株式会社,東京都,港区,元赤坂１丁目１番７－１２０９号株式会社赤坂国際会計内,,13,103,1070051,,,,,,,2025-10-03,1,,,,,ティーケイエスホールディングス,0
2027,8010401193558,新規,0,2025-10-03,2025-10-03,株式会社ジーヤマｔｖ,,株式会社,東京都,港区,虎ノ門４丁目２番３号,,13,103,1050001,,,,,,,2025-10-03,1,,,,,ジーヤマティービー,0
2034,8010601068031,新規,0,2025-10-03,2025-10-03,株式会社Ｓｋｉｐ　Ｉｔ,,株式会社,東京都,墨田区,緑４丁目３番７－７０４号,,13,107,1300021,,,,,,,2025-10-03,1,,,,,スキップイット,0
2036,8010603011831,新規,0,2025-10-03,2025-10-03,合同会社リプレイスメンツ,,合同会社,東京都,江東区,冬木９－１２ペリグリン・クリフ門前仲町２０２,,13,108,1350041,,,,,,,2025-10-03,1,,,,,リプレイスメンツ,0
2039,8010703007936,新規,0,2025-10-03,2025-10-03,ＴＥＮＴＯ合同会社,,合同会社,東京都,品川区,小山台１丁目１番５号１０号室,,13,109,1420061,,,,,,,2025-10-03,1,,,,,テント,0
2040,8010801036655,新規,0,2025-10-03,2025-10-03,中越国際株式会社,,株式会社,東京都,大田区,新蒲田１丁目２０番２号,,13,111,1440054,,,,,,,2025-10-03,1,,,,,チュウエツコクサイ,0
2050,8011005011180,新規,0,2025-10-03,2025-10-03,医療法人社団シーズデルマ,,その他の設立登記法人,東京都,渋谷区,恵比寿１丁目９番４号２階,,13,113,1500013,,,,,,,2025-10-03,1,,,,,シーズデルマ,0
2057,8011303005735,新規,0,2025-10-03,2025-10-03,合同会社不動産法務研究所,,合同会社,東京都,杉並区,堀ノ内３丁目４９番３－２０３号,,13,115,1660013,,,,,,,2025-10-03,1,,,,,フドウサンホウムケンキュウジョ,0
2060,8011601029023,新規,0,2025-10-03,2025-10-03,Ｗａｎｇ　Ｇｌｏｂａｌ　Ｔｒａｄｅ株式会社,,株式会社,東京都,練馬区,関町北５丁目１３番２５－２Ｌ号室,,13,120,1770051,,,,,,,2025-10-03,1,,,,,ワングローバルトレード,0
2066,8011701028809,新規,0,2025-10-03,2025-10-03,株式会社ＮＳ,,株式会社,東京都,江戸川区,南小岩６丁目１５番１７号,,13,123,1330056,,,,,,,2025-10-03,1,,,,,エヌエス,0
2074,8011801046818,新規,0,2025-10-03,2025-10-03,株式会社スマート,,株式会社,東京都,葛飾区,東堀切１丁目１１番６号３０４号室,,13,122,1240004,,,,,,,2025-10-03,1,,,,,スマート,0
2077,8013101009827,新規,0,2025-10-03,2025-10-03,株式会社ＳＨＩＢＡＨＵ　Ｌａｂ．,,株式会社,東京都,青梅市,新町９丁目７７２番地の５,,13,205,1980024,,,,,,,2025-10-03,1,,,,,シバフラボ,0
2078,8013301055019,新規,0,2025-10-03,2025-10-03,如意棒株式会社,,株式会社,東京都,豊島区,長崎３丁目３番１６号,,13,116,1710051,,,,,,,2025-10-03,1,,,,,ニョイボウ,0
2091,8020001164966,新規,0,2025-10-03,2025-10-03,株式会社ＳｃａｌｅＡｇｅｎｔ,,株式会社,神奈川県,横浜市青葉区,榎が丘２０－４５,,14,117,2270063,,,,,,,2025-10-03,1,,,,,スケールエージェント,0
2092,8020001165130,新規,0,2025-10-03,2025-10-03,株式会社ＲｅＮｅｃｔ,,株式会社,神奈川県,横浜市西区,北幸２丁目１０番４８号むつみビル３階,,14,103,2200004,,,,,,,2025-10-03,1,,,,,リネクト,0
2095,8020003029515,新規,0,2025-10-03,2025-10-03,合同会社ミライノネ,,合同会社,神奈川県,横浜市西区,みなとみらい４丁目７番１－３０２１号,,14,103,2200012,,,,,,,2025-10-03,1,,,,,ミライノネ,0
2097,8021001086358,新規,0,2025-10-03,2025-10-03,株式会社アクアワークス,,株式会社,神奈川県,座間市,南栗原５丁目１０番２７－１号,,14,216,2520015,,,,,,,2025-10-03,1,,,,,アクアワークス,0
2098,8021001086374,新規,0,2025-10-03,2025-10-03,株式会社丸長建設,,株式会社,神奈川県,小田原市,中里３５９番地の１２,,14,206,2500872,,,,,,,2025-10-03,1,,,,,マルチョウケンセツ,0
2099,8021003016619,新規,0,2025-10-03,2025-10-03,合同会社ｓ’ｍｏｒｅ,,合同会社,神奈川県,横須賀市,安浦町２丁目１６番地,,14,201,2380012,,,,,,,2025-10-03,1,,,,,スモア,0
2103,8030001168917,新規,0,2025-10-03,2025-10-03,株式会社天導ソリューションズ,,株式会社,埼玉県,新座市,栗原５丁目６番１２号第一光進マンション３０１号室,,11,230,3520035,,,,,,,2025-10-03,1,,,,,テンドウソリューションズ,0
2104,8030001168925,新規,0,2025-10-03,2025-10-03,株式会社ササガワ電気,,株式会社,埼玉県,越谷市,蒲生西町１丁目６－５３－２,,11,222,3430835,,,,,,,2025-10-03,1,,,,,ササガワデンキ,0
2107,8040001140742,新規,0,2025-10-03,2025-10-03,株式会社美和ホールディングス,,株式会社,千葉県,市川市,真間１丁目３番１６号,,12,203,2720826,,,,,,,2025-10-03,1,,,,,ミワホールディングス,0
2108,8040003028498,新規,0,2025-10-03,2025-10-03,合同会社ナチュリア,,合同会社,千葉県,印旛郡栄町,安食台２丁目２７－２１鈴木ビル２Ａ,,12,329,2701515,,,,,,,2025-10-03,1,,,,,ナチュリア,0
2109,8040003028655,新規,0,2025-10-03,2025-10-03,合同会社ウィル,,合同会社,千葉県,松戸市,東平賀２３４－１ルフォン松戸北小金５０９,,12,207,2700003,,,,,,,2025-10-03,1,,,,,ウィル,0
2110,8040003028671,新規,0,2025-10-03,2025-10-03,Ａｒｔｉｓａｎ　Ｓｌｅｅｋ合同会社,,合同会社,千葉県,船橋市,習志野台３丁目８番１１－１号,,12,204,2740063,,,,,,,2025-10-03,1,,,,,アーチザンスリーク,0
2113,8050001057309,新規,0,2025-10-03,2025-10-03,株式会社Ｋ＆Ｔビジネスデザイン,,株式会社,茨城県,つくばみらい市,紫峰ヶ丘２丁目２３番地３２,,08,235,3002359,,,,,,,2025-10-03,1,,,,,ケーアンドティービジネスデザイン,0
2115,8050003009646,新規,0,2025-10-03,2025-10-03,ＫＡＩＴＯ合同会社,,合同会社,茨城県,下妻市,中居指３１４－１,,08,210,3040054,,,,,,,2025-10-03,1,,,,,カイト,0
2119,8060001038638,新規,0,2025-10-03,2025-10-03,株式会社和菓子石川や,,株式会社,栃木県,佐野市,栃本町１７７３番地,,09,204,3270312,,,,,,,2025-10-03,1,,,,,ワガシイシカワヤ,0
2124,8070001043389,新規,0,2025-10-03,2025-10-03,ＮＯＯＲ　ＴＲＡＤＩＮＧ株式会社,,株式会社,群馬県,伊勢崎市,境伊与久４６７番地３,,10,204,3700105,,,,,,,2025-10-03,1,,,,,ヌールトレーディング,0
2125,8070001043397,新規,0,2025-10-03,2025-10-03,株式会社ＭＲコーポレーション,,株式会社,群馬県,前橋市,住吉町２丁目３番１９号,,10,201,3710021,,,,,,,2025-10-03,1,,,,,エムアールコーポレーション,0
2126,8080001027184,新規,0,2025-10-03,2025-10-03,株式会社ＤｅｓＡｉｌｅｓ,,株式会社,静岡県,島田市,東町１１番地の４コーポラス翔Ａ２０１,,22,209,4270011,,,,,,,2025-10-03,1,,,,,デゼル,0
2128,8080101025815,新規,0,2025-10-03,2025-10-03,株式会社盛和興,,株式会社,静岡県,沼津市,高沢町１０番１号セルシー高沢１－Ｂ,,22,203,4100057,,,,,,,2025-10-03,1,,,,,セイワコウ,0
2130,8080401028195,新規,0,2025-10-03,2025-10-03,株式会社英興業,,株式会社,静岡県,浜松市浜名区,沼１４番地の３,,22,139,4340037,,,,,,,2025-10-03,1,,,,,ハナブサコウギョウ,0
2131,8090005007743,新規,0,2025-10-03,2025-10-03,一般社団法人ＦＣ‐Ｃｕｂｉｃ,,その他の設立登記法人,山梨県,甲府市,下向山町３１４７番地次世代エネルギーシステム研究開発ビレッジ内,,19,201,4001507,,,,,,,2025-10-03,1,,,,,エフシーキュービック,0
2133,8100001038996,新規,0,2025-10-03,2025-10-03,北陽ホールディングス株式会社,,株式会社,長野県,大町市,社５３７７番地,,20,212,3980003,,,,,,,2025-10-03,1,,,,,ホクヨウホールディングス,0
2141,8120001280282,新規,0,2025-10-03,2025-10-03,江戸株式会社,,株式会社,大阪府,大阪市生野区,田島６丁目２－２８,,27,116,5440011,,,,,,,2025-10-03,1,,,,,エド,0
2142,8120001280324,新規,0,2025-10-03,2025-10-03,安栄株式会社,,株式会社,大阪府,大阪市淀川区,加島１丁目５９－１１－２０２,,27,123,5320031,,,,,,,2025-10-03,1,,,,,ヤスエイ,0
2143,8120001280365,新規,0,2025-10-03,2025-10-03,悠藝株式会社,,株式会社,大阪府,大阪市平野区,平野上町１丁目６番５号３０３号室,,27,126,5470045,,,,,,,2025-10-03,1,,,,,ユウゲイ,0
2144,8120001280456,新規,0,2025-10-03,2025-10-03,輝鋭株式会社,,株式会社,大阪府,大阪市淀川区,三津屋北２丁目１１番８－１０７号,,27,123,5320032,,,,,,,2025-10-03,1,,,,,キエイ,0
2147,8120003030768,新規,0,2025-10-03,2025-10-03,ＧＵＲＵＮＧ　ＧＬＯＢＡＬ合同会社,,合同会社,大阪府,守口市,寺方元町１丁目１２番２３号,,27,209,5700047,,,,,,,2025-10-03,1,,,,,グルングローバル,0
2148,8120003030933,新規,0,2025-10-03,2025-10-03,Ｔ＆Ｓ合同会社,,合同会社,大阪府,大阪市北区,梅田１丁目２番２号大阪駅前第２ビル１２‐１２,,27,127,5300001,,,,,,,2025-10-03,1,,,,,ティーアンドエス,0
2150,8120101072480,新規,0,2025-10-03,2025-10-03,ルミエール株式会社,,株式会社,大阪府,堺市堺区,甲斐町西３丁２－８シルフィード堺３０１号,,27,141,5900950,,,,,,,2025-10-03,1,,,,,ルミエール,0
2151,8120101072506,新規,0,2025-10-03,2025-10-03,大北莉株式会社,,株式会社,大阪府,河内長野市,西之山町１番１５号,,27,216,5860024,,,,,,,2025-10-03,1,,,,,オオキタレイ,0
2152,8120101072522,新規,0,2025-10-03,2025-10-03,株式会社ＥＶＴホーム,,株式会社,大阪府,堺市堺区,宿院町東３丁１番２４号ＥＶＴビル２階,,27,141,5900955,,,,,,,2025-10-03,1,,,,,イーブイティーホーム,0
2153,8120103006726,新規,0,2025-10-03,2025-10-03,合同会社七福神訪問介護ヘルパーステーション苺,,合同会社,大阪府,堺市西区,上野芝向ヶ丘町４丁１番６号,,27,144,5938303,,,,,,,2025-10-03,1,,,,,シチフクジンホウモンカイゴヘルパーステーションイチゴ,0
2154,8120103006750,新規,0,2025-10-03,2025-10-03,合同会社Ｕ‐ＮＯ,,合同会社,大阪府,堺市北区,金岡町２０１６番地１モアクレスト白鷺ＩＩ－２０３号,00140916,27,146,5918022,,,,,,,2025-10-03,1,,,,,ウーノ,0
2155,8120103006759,新規,0,2025-10-03,2025-10-03,合同会社和健,,合同会社,大阪府,羽曳野市,誉田３丁目２０番５－２０６号アーバンハイツ,,27,222,5830857,,,,,,,2025-10-03,1,,,,,ワケン,0
2156,8120103006767,新規,0,2025-10-03,2025-10-03,合同会社Ｔｅｍｏｃｈｉｃ,,合同会社,大阪府,松原市,一津屋６丁目８番１７号,,27,217,5800003,,,,,,,2025-10-03,1,,,,,テモシック,0
2159,8120901051469,新規,0,2025-10-03,2025-10-03,株式会社ＭＭＡ・ホールディングス,,株式会社,大阪府,茨木市,松ケ本町１番１２－９０８号,,27,211,5670033,,,,,,,2025-10-03,1,,,,,エムエムエーホールディングス,0
2164,8130001080665,新規,0,2025-10-03,2025-10-03,株式会社ＣＪフードサービス,,株式会社,京都府,京都市上京区,大宮通上立売上る西入伊佐町１９６－３,,26,102,6028407,,,,,,,2025-10-03,1,,,,,シージェーフードサービス,0
2171,8140001140204,新規,0,2025-10-03,2025-10-03,友基サービス株式会社,,株式会社,兵庫県,川辺郡猪名川町,つつじが丘５丁目２７番地４,,28,301,6660245,,,,,,,2025-10-03,1,,,,,ユウキサービス,0
2172,8140001140237,新規,0,2025-10-03,2025-10-03,株式会社キーホーム,,株式会社,兵庫県,西宮市,高座町８番１１号,,28,204,6620872,,,,,,,2025-10-03,1,,,,,キーホーム,0
2177,8150001028448,新規,0,2025-10-03,2025-10-03,吉森吉三商店株式会社,,株式会社,奈良県,五條市,出屋敷町１６２番２,,29,207,6370011,,,,,,,2025-10-03,1,,,,,ヨシモリキチゾウショウテン,0
2179,8150003003713,新規,0,2025-10-03,2025-10-03,合同会社Ｃａｒｅ　Ｐｌｕｓ,,合同会社,奈良県,奈良市,左京２丁目２番地２２７,,29,201,6310801,,,,,,,2025-10-03,1,,,,,ケアプラス,0
2182,8170001018819,新規,0,2025-10-03,2025-10-03,株式会社タカダ事務所,,株式会社,和歌山県,海南市,椋木９７番地２,,30,202,6401173,,,,,,,2025-10-03,1,,,,,タカダジムショ,0
2188,8180001168828,新規,0,2025-10-03,2025-10-03,株式会社大輝,,株式会社,愛知県,瀬戸市,原山町２４６番地の１,,23,204,4890889,,,,,,,2025-10-03,1,,,,,ダイキ,0
2189,8180001168877,新規,0,2025-10-03,2025-10-03,Ａｓｐｈｉｒａ　Ｊａｐａｎ株式会社,,株式会社,愛知県,岩倉市,下本町真光寺７３番地２,,23,228,4820005,,,,,,,2025-10-03,1,,,,,アスパイラジャパン,0
2192,8180003029144,新規,0,2025-10-03,2025-10-03,合同会社Ｇ‐ＬＩＦＥ,,合同会社,愛知県,名古屋市中川区,野田２丁目４３７番地アクティブ梅村Ｂ号,,23,110,4540912,,,,,,,2025-10-03,1,,,,,ジーライフ,0
2193,8180003029152,新規,0,2025-10-03,2025-10-03,ＳＡＬＩＭ　ＴＲＡＤＩＮＧ合同会社,,合同会社,愛知県,名古屋市港区,明正１丁目７番地グリーンパーク１０２号室,,23,111,4550806,,,,,,,2025-10-03,1,,,,,サリムトレーディング,0
2194,8180003029169,新規,0,2025-10-03,2025-10-03,合同会社ＴＳＫ,,合同会社,愛知県,一宮市,小信中島字郷中９２番地１,,23,203,4940007,,,,,,,2025-10-03,1,,,,,ティーエスケイ,0
2195,8180301040224,新規,0,2025-10-03,2025-10-03,焜馳自動車日本株式会社,,株式会社,愛知県,豊田市,上丘町海老池２番地,,23,211,4730931,,,,,,,2025-10-03,1,,,,,コンチジドウシャニホン,0
2196,8180301040273,新規,0,2025-10-03,2025-10-03,株式会社Ｍテック,,株式会社,愛知県,岡崎市,東大友町字位式７５番地１アリエッタ１０２,,23,202,4440903,,,,,,,2025-10-03,1,,,,,エムテック,0
2202,8190003005202,新規,0,2025-10-03,2025-10-03,ＳＨＭ　Ｔｒａｄｉｎｇ合同会社,,合同会社,三重県,津市,栗真町屋町１０２７番地ハートピアツインズＥＡＳＴ１２７,,24,201,5140102,,,,,,,2025-10-03,1,,,,,エスエイチエムトレーディング,0
2212,8220003004134,新規,0,2025-10-03,2025-10-03,合同会社禄光旅館,,合同会社,石川県,珠洲市,狼煙町ヘ部９７番地８,,17,205,9271441,,,,,,,2025-10-03,1,,,,,ロッコウリョカン,0
2214,8230001021114,新規,0,2025-10-03,2025-10-03,ＩＭＡＡＮ　ＴＲＡＤＩＮＧ株式会社,,株式会社,富山県,富山市,布目２２９１番地５,,16,201,9302233,,,,,,,2025-10-03,1,,,,,イマーントレーディング,0
2219,8240001065589,新規,0,2025-10-03,2025-10-03,株式会社百川,,株式会社,広島県,広島市中区,千田町３丁目９番７号千田マンション２０２号,,34,101,7300052,,,,,,,2025-10-03,1,,,,,ヒャクセン,0
2220,8240001065606,新規,0,2025-10-03,2025-10-03,Ｓａ．Ｌｕｎａ株式会社,,株式会社,広島県,広島市中区,河原町３番２４－２０２号門本マンション,,34,101,7300856,,,,,,,2025-10-03,1,,,,,サルーナ,0
2223,8250001021368,新規,0,2025-10-03,2025-10-03,Ｒ．Ｋ．Ａ株式会社,,株式会社,山口県,下関市,長府才川２丁目２９番１－５０２号,,35,201,7520928,,,,,,,2025-10-03,1,,,,,アールケーエー,0
2227,8260001040598,新規,0,2025-10-03,2025-10-03,株式会社フジモト,,株式会社,岡山県,津山市,加茂町知和４６７番地５,,33,203,7093914,,,,,,,2025-10-03,1,,,,,フジモト,0
2229,8260003005368,新規,0,2025-10-03,2025-10-03,合同会社ＬＡＶｉＡ,,合同会社,岡山県,倉敷市,酒津２４８５番地５,,33,202,7100801,,,,,,,2025-10-03,1,,,,,ラヴィア,0
2237,8290801031918,新規,0,2025-10-03,2025-10-03,株式会社車屋ダックス,,株式会社,福岡県,北九州市小倉南区,湯川１丁目５番８号,,40,107,8000257,,,,,,,2025-10-03,1,,,,,クルマヤダックス,0
2238,8300001014366,新規,0,2025-10-03,2025-10-03,株式会社アラタ工業,,株式会社,佐賀県,唐津市,町田２丁目２番６－２号,,41,202,8470821,,,,,,,2025-10-03,1,,,,,アラタコウギョウ,0
2240,8310001019810,新規,0,2025-10-03,2025-10-03,文碩株式会社,,株式会社,長崎県,長崎市,出島町１２番１号ひまわりビル２階,,42,201,8500862,,,,,,,2025-10-03,1,,,,,ブンセキ,0
2243,8310005008875,新規,0,2025-10-03,2025-10-03,医療法人宏加会,,その他の設立登記法人,長崎県,島原市,柏野町１４７２番,,42,203,8550064,,,,,,,2025-10-03,1,,,,,コウカカイ,0
2250,8330001033636,新規,0,2025-10-03,2025-10-03,株式会社丈山社,,株式会社,熊本県,熊本市西区,上代９丁目２番２０号,,43,103,8600068,,,,,,,2025-10-03,1,,,,,ジョウザンシャ,0
2251,8330001033644,新規,0,2025-10-03,2025-10-03,株式会社カーズリペアサービス,,株式会社,熊本県,上益城郡御船町,大字辺田見１３０１番地１,,43,441,8613206,,,,,,,2025-10-03,1,,,,,カーズリペアサービス,0
2253,8330005010953,新規,0,2025-10-03,2025-10-03,一般社団法人ＮＥＸＴ　ＦＯＲＭ,,その他の設立登記法人,熊本県,熊本市東区,尾ノ上４丁目１１番２５１号,,43,102,8620913,,,,,,,2025-10-03,1,,,,,ネクストフォーム,0
2255,8340001027694,新規,0,2025-10-03,2025-10-03,株式会社いぶき,,株式会社,鹿児島県,指宿市,西方５０３０番地,,46,210,8910311,,,,,,,2025-10-03,1,,,,,イブキ,0
2257,8340005009912,新規,0,2025-10-03,2025-10-03,社会保険労務士法人ＴＯＷＡパートナーズ,,その他の設立登記法人,鹿児島県,鹿児島市,草牟田２丁目１４番２１号,,46,201,8900014,,,,,,,2025-10-03,1,,,,,トワパートナーズ,0
2259,8360003015299,新規,0,2025-10-03,2025-10-03,合同会社Ｒ．ｅｓｔａｔｅ,,合同会社,沖縄県,中頭郡北谷町,美浜２丁目５番地４ライオンズヴィラ美浜６０５,,47,326,9040115,,,,,,,2025-10-03,1,,,,,アールエステート,0
2260,8360005007294,新規,0,2025-10-03,2025-10-03,社会福祉法人勇和福祉会,,その他の設立登記法人,沖縄県,中頭郡読谷村,字座喜味２９７６番地１,,47,324,9040301,,,,,,,2025-10-03,1,,,,,ユウワフクシカイ,0
2266,8400001017185,新規,0,2025-10-03,2025-10-03,株式会社小笠原住設,,株式会社,岩手県,紫波郡矢巾町,大字西徳田第６地割１９０番地２,,03,322,0283603,,,,,,,2025-10-03,1,,,,,オガサワラジュウセツ,0
2270,8410005006662,新規,0,2025-10-03,2025-10-03,社会保険労務士法人清和浅利事務所,,その他の設立登記法人,秋田県,大館市,根下戸町２番１号,,05,204,0170863,,,,,,,2025-10-03,1,,,,,セイワアサリジムショ,0
2275,8430001095311,新規,0,2025-10-03,2025-10-03,株式会社ＯＭＥＤＥＴＯＵ　ＴＯＫＹＯ,,株式会社,北海道,虻田郡倶知安町,字出雲２１５番地２,,01,400,0440064,,,,,,,2025-10-03,1,,,,,オメデトウトウキョウ,0
2283,8470003002988,新規,0,2025-10-03,2025-10-03,レアス合同会社,,合同会社,香川県,高松市,多肥上町１７１８番地１,,37,201,7618076,,,,,,,2025-10-03,1,,,,,レアス,0
2285,8480003002327,新規,0,2025-10-03,2025-10-03,ＨＡ　ＭＯＴＯＲＳ合同会社,,合同会社,徳島県,阿波市,吉野町西条字庄境１１番地１２,,36,206,7711402,,,,,,,2025-10-03,1,,,,,エイチエーモータース,0
2289,8500001026548,新規,0,2025-10-03,2025-10-03,株式会社家庭教師紹介センター,,株式会社,愛媛県,松山市,千舟町６丁目１番地３,,38,201,7900011,,,,,,,2025-10-03,1,,,,,カテイキョウシショウカイセンター,0
2296,9010001258677,新規,0,2025-10-03,2025-10-03,青空株式会社,,株式会社,東京都,中央区,日本橋馬喰町２丁目６番１０号スズビル６階Ｂ号室,,13,102,1030002,,,,,,,2025-10-03,1,,,,,アオゾラ,0
2297,9010001258727,新規,0,2025-10-03,2025-10-03,グラティアート株式会社,,株式会社,東京都,文京区,本駒込２丁目１９－４－１００４,,13,105,1130021,,,,,,,2025-10-03,1,,,,,グラティアート,0
2298,9010001258842,新規,0,2025-10-03,2025-10-03,株式会社ｆｏｒｅｓｔ　ｋｉｎｇ　ｆｏｏｄ,,株式会社,東京都,千代田区,内幸町２丁目１－４日比谷中日ビル４階ＢｌｕｅＣｒｏｓｓＭｅｄ内,,13,101,1000011,,,,,,,2025-10-03,1,,,,,フォレストキングフード,0
2299,9010001258867,新規,0,2025-10-03,2025-10-03,株式会社ＳＮＫ,,株式会社,東京都,千代田区,神田須田町２丁目６番地１坂下ビル２０７号,,13,101,1010041,,,,,,,2025-10-03,1,,,,,エスエヌケー,0
2300,9010001258900,新規,0,2025-10-03,2025-10-03,株式会社サンブリッジシステムズ,,株式会社,東京都,中央区,日本橋室町１丁目１１－１２日本橋水野ビル７階,,13,102,1030022,,,,,,,2025-10-03,1,,,,,サンブリッジシステムズ,0
2301,9010001258917,新規,0,2025-10-03,2025-10-03,株式会社Ｔｈｒｅｅ　Ｓ,,株式会社,東京都,中央区,銀座１丁目１６－７銀座大栄ビル５Ｆ,,13,102,1040061,,,,,,,2025-10-03,1,,,,,スリーエス,0
2302,9010001258982,新規,0,2025-10-03,2025-10-03,株式会社メーター,,株式会社,東京都,中央区,日本橋室町１丁目１１番１２号日本橋水野ビル７階,,13,102,1030022,,,,,,,2025-10-03,1,,,,,メーター,0
2305,9010003048878,新規,0,2025-10-03,2025-10-03,合同会社ＣＳ,,合同会社,東京都,千代田区,丸の内１丁目６番１号,,13,101,1000005,,,,,,,2025-10-03,1,,,,,シーエス,0
2317,9010401193573,新規,0,2025-10-03,2025-10-03,株式会社青山アセットリアルティ,,株式会社,東京都,港区,南青山３丁目１０番４１号,,13,103,1070062,,,,,,,2025-10-03,1,,,,,アオヤマアセットリアルティ,0
2319,9010403036177,新規,0,2025-10-03,2025-10-03,Ｃａｒｔａｇｏ　Ｆｏｏｄ＆Ｔｒａｄｅ合同会社,,合同会社,東京都,港区,高輪３丁目１０番２号グラスプラス高輪４１０号室,,13,103,1080074,,,,,,,2025-10-03,1,,,,,カルタゴフードアンドトレード,0
2321,9010601068030,新規,0,2025-10-03,2025-10-03,株式会社三和ホールディングス,,株式会社,東京都,墨田区,業平２丁目８番７号３階,,13,107,1300002,,,,,,,2025-10-03,1,,,,,サンワホールディングス,0
2324,9010701048378,新規,0,2025-10-03,2025-10-03,鉅洋株式会社,,株式会社,東京都,品川区,上大崎２丁目６番１６号,,13,109,1410021,,,,,,,2025-10-03,1,,,,,ジューヤン,0
2325,9010803005566,新規,0,2025-10-03,2025-10-03,合同会社ＫＲＦ,,合同会社,東京都,大田区,久が原６丁目７番２５号,,13,111,1460085,,,,,,,2025-10-03,1,,,,,ケーアールエフ,0
2330,9011001172356,新規,0,2025-10-03,2025-10-03,株式会社Ｐｈａｒｍａｉｄ,,株式会社,東京都,渋谷区,道玄坂１丁目１０番８号渋谷道玄坂東急ビル２Ｆ－Ｃ,,13,113,1500043,,,,,,,2025-10-03,1,,,,,ファルメイド,0
2342,9011101113359,新規,0,2025-10-03,2025-10-03,明豊株式会社,,株式会社,東京都,新宿区,大久保２丁目１０番１１－１０５,,13,104,1690072,,,,,,,2025-10-03,1,,,,,メイホウ,0
2343,9011101113458,新規,0,2025-10-03,2025-10-03,なつゆき株式会社,,株式会社,東京都,新宿区,百人町２丁目５－４土屋ビル２Ｆ,,13,104,1690073,,,,,,,2025-10-03,1,,,,,ナツユキ,0
2347,9011301030949,新規,0,2025-10-03,2025-10-03,総武建設株式会社,,株式会社,東京都,杉並区,大宮２丁目５番９号ＵＲＢＡＮＷＯＯＤＡＰＡＲＴＭＥＮＴ２,,13,115,1680061,,,,,,,2025-10-03,1,,,,,ソウブケンセツ,0
2348,9011303005734,新規,0,2025-10-03,2025-10-03,合同会社エーエスパーク,,合同会社,東京都,杉並区,高円寺北３丁目２５番２４号２０１号室,,13,115,1660002,,,,,,,2025-10-03,1,,,,,エーエスパーク,0
2349,9011401027449,新規,0,2025-10-03,2025-10-03,株式会社頼電,,株式会社,東京都,板橋区,徳丸７丁目６番１２－３０４号,,13,119,1750083,,,,,,,2025-10-03,1,,,,,ライデン,0
2351,9011601029022,新規,0,2025-10-03,2025-10-03,ＬＥＯＮＡ株式会社,,株式会社,東京都,練馬区,関町北３丁目４２番４号,,13,120,1770051,,,,,,,2025-10-03,1,,,,,レオナ,0
2354,9011801046858,新規,0,2025-10-03,2025-10-03,ＲＥＶＩＶＥＲ株式会社,,株式会社,東京都,葛飾区,東立石１丁目３番６－２０４号,,13,122,1240013,,,,,,,2025-10-03,1,,,,,リバイバー,0
2355,9011803007123,新規,0,2025-10-03,2025-10-03,合同会社タイタン,,合同会社,東京都,葛飾区,青戸６丁目２６番６号,,13,122,1250062,,,,,,,2025-10-03,1,,,,,タイタン,0
2356,9012301014553,新規,0,2025-10-03,2025-10-03,ＨＪ株式会社,,株式会社,東京都,町田市,原町田６丁目１４番１５号ヴィンテージビル６階,,13,209,1940013,,,,,,,2025-10-03,1,,,,,エイチジェー,0
2359,9012403007372,新規,0,2025-10-03,2025-10-03,合同会社Ｓｅｇｅｌ成城,,合同会社,東京都,狛江市,岩戸南２丁目２３番地１９号パークアームス３０６号室,,13,219,2010005,,,,,,,2025-10-03,1,,,,,セガールセイジョウ,0
2361,9012803003888,新規,0,2025-10-03,2025-10-03,合同会社サンライズ,,合同会社,東京都,国分寺市,泉町３丁目１７番７号オリーヴマーム２０１号室,,13,214,1850024,,,,,,,2025-10-03,1,,,,,サンライズ,0
2362,9013101009826,新規,0,2025-10-03,2025-10-03,サンリット株式会社,,株式会社,東京都,西多摩郡瑞穂町,大字箱根ケ崎９７番地,,13,303,1901221,,,,,,,2025-10-03,1,,,,,サンリット,0
2370,9020001165179,新規,0,2025-10-03,2025-10-03,株式会社Ｌｕｎｏａ,,株式会社,神奈川県,川崎市川崎区,四谷上町１１番１３－２０１号,,14,131,2100828,,,,,,,2025-10-03,1,,,,,ルノア,0
2374,9021001086365,新規,0,2025-10-03,2025-10-03,株式会社ちょこまたハニー,,株式会社,神奈川県,相模原市中央区,上溝３９０２番地６,,14,152,2520243,,,,,,,2025-10-03,1,,,,,チョコマタハニー,0
2383,9030001168759,新規,0,2025-10-03,2025-10-03,株式会社長和,,株式会社,埼玉県,川口市,大字安行小山４１０番地の３０,,11,203,3340055,,,,,,,2025-10-03,1,,,,,ナガワ,0
2384,9030001168899,新規,0,2025-10-03,2025-10-03,株式会社ＫＯＢＵＳＨＩ,,株式会社,埼玉県,越谷市,レイクタウン６丁目５番地９－２Ｆ,,11,222,3430828,,,,,,,2025-10-03,1,,,,,コブシ,0
2385,9030001168924,新規,0,2025-10-03,2025-10-03,株式会社ｌｏｏｐ,,株式会社,埼玉県,戸田市,大字新曽２５９２番地,,11,224,3350021,,,,,,,2025-10-03,1,,,,,ループ,0
2390,9030003027723,新規,0,2025-10-03,2025-10-03,合同会社あゆみ,,合同会社,埼玉県,深谷市,小前田１８２１番地５,,11,218,3691246,,,,,,,2025-10-03,1,,,,,アユミ,0
2391,9030003027780,新規,0,2025-10-03,2025-10-03,源森合同会社,,合同会社,埼玉県,川口市,西川口１丁目６番１７号西川口駅前扶桑ビル,,11,203,3320021,,,,,,,2025-10-03,1,,,,,ゲンモリ,0
2395,9040001140691,新規,0,2025-10-03,2025-10-03,乾塘科技株式会社,,株式会社,千葉県,野田市,大殿井２６７番地の２５,,12,208,2780017,,,,,,,2025-10-03,1,,,,,カントウカギ,0
2396,9040001140700,新規,0,2025-10-03,2025-10-03,ＨＺ　ＴＯＫＹＯ　ＡＵＴＯ　ＰＡＲＴＳ株式会社,,株式会社,千葉県,野田市,木間ケ瀬３８８３－１５,,12,208,2700222,,,,,,,2025-10-03,1,,,,,エイチゼットオートパーツ,0
2397,9040001140709,新規,0,2025-10-03,2025-10-03,株式会社ＴＲＥＥ,,株式会社,千葉県,松戸市,古ケ崎２丁目３２６６番地３,,12,207,2710068,,,,,,,2025-10-03,1,,,,,ツリー,0
2401,9040003028646,新規,0,2025-10-03,2025-10-03,ＡＫ　ＴＲＡＤＩＮＧ合同会社,,合同会社,千葉県,野田市,吉春８４５－１,,12,208,2780042,,,,,,,2025-10-03,1,,,,,エーケートレーディング,0
2402,9040003028670,新規,0,2025-10-03,2025-10-03,ＡＳＲ　ＴＲＡＤＩＮＧ合同会社,,合同会社,千葉県,野田市,岡田２８０番地２１－１階,,12,208,2700223,,,,,,,2025-10-03,1,,,,,エーエスアールトレーディング,0
2405,9050001057357,新規,0,2025-10-03,2025-10-03,アスドリームＨＤ株式会社,,株式会社,茨城県,鹿嶋市,港ケ丘１丁目１番３６号,,08,222,3140011,,,,,,,2025-10-03,1,,,,,アスドリームホールディングス,0
2406,9050001057365,新規,0,2025-10-03,2025-10-03,株式会社アイスレンタカーゴ,,株式会社,茨城県,東茨城郡茨城町,大字上石崎４６５０－６,,08,302,3113122,,,,,,,2025-10-03,1,,,,,アイスレンタカーゴ,0
2408,9050003009629,新規,0,2025-10-03,2025-10-03,ＩＪＡＺ＆ＳＯＮＳ　ＴＲＡＤＩＮＧ合同会社,,合同会社,茨城県,桜川市,真壁町古城３２１番地２,,08,231,3004407,,,,,,,2025-10-03,1,,,,,イザズアンドソンストレーディング,0
2412,9060001038629,新規,0,2025-10-03,2025-10-03,株式会社ＦＲＯＺＥＮ　ＢＥＲＲＹ　ＵＥＮＯ,,株式会社,栃木県,河内郡上三川町,大字五分一９２番地,,09,301,3290614,,,,,,,2025-10-03,1,,,,,フローズンベリーウエノ,0
2413,9060001038637,新規,0,2025-10-03,2025-10-03,株式会社ピリナ,,株式会社,栃木県,下野市,緑１丁目４番地４,,09,216,3290433,,,,,,,2025-10-03,1,,,,,ピリナ,0
2414,9060003005791,新規,0,2025-10-03,2025-10-03,ＰＲＩＭＥ　ＳＯＬＵＴＩＯＮＳ合同会社,,合同会社,栃木県,小山市,大字大行寺１１４８－１５モンパレス小山第一１号館１０２号室,,09,208,3230041,,,,,,,2025-10-03,1,,,,,プライムソリューションズ,0
2415,9070001043413,新規,0,2025-10-03,2025-10-03,株式会社木和,,株式会社,群馬県,前橋市,小坂子町１４５４番地３,,10,201,3710122,,,,,,,2025-10-03,1,,,,,キワ,0
2416,9070003006129,新規,0,2025-10-03,2025-10-03,合同会社甘実,,合同会社,群馬県,高崎市,中泉町６６７番地５,,10,202,3703524,,,,,,,2025-10-03,1,,,,,カンミ,0
2418,9080101025814,新規,0,2025-10-03,2025-10-03,株式会社市川工業,,株式会社,静岡県,富士宮市,山本７４６番地の６,,22,207,4180023,,,,,,,2025-10-03,1,,,,,イチカワコウギョウ,0
2419,9080401028186,新規,0,2025-10-03,2025-10-03,株式会社シーストレージ,,株式会社,静岡県,浜松市中央区,初生町３１４番地の１３,,22,138,4338112,,,,,,,2025-10-03,1,,,,,シーストレージ,0
2420,9080401028194,新規,0,2025-10-03,2025-10-03,株式会社ＨＡＭＡＴＯＭＯホールディングス,,株式会社,静岡県,浜松市中央区,砂山町３３１番地の２１,,22,138,4300926,,,,,,,2025-10-03,1,,,,,ハマトモホールディングス,0
2421,9080403005357,新規,0,2025-10-03,2025-10-03,ｓｅｌｅｓｔｅ合同会社,,合同会社,静岡県,浜松市中央区,住吉２丁目１４番２７号東伸ビル１階１０２号,,22,138,4300906,,,,,,,2025-10-03,1,,,,,セレスト,0
2439,9120001280356,新規,0,2025-10-03,2025-10-03,嘉宇株式会社,,株式会社,大阪府,大阪市港区,港晴４丁目１４－５港晴パールシティビル６Ｆ,,27,107,5520023,,,,,,,2025-10-03,1,,,,,カウ,0
2442,9120003030809,新規,0,2025-10-03,2025-10-03,盛通合同会社,,合同会社,大阪府,大阪市此花区,春日出南２丁目５番３１号,,27,104,5540023,,,,,,,2025-10-03,1,,,,,セイツウ,0
2443,9120101072521,新規,0,2025-10-03,2025-10-03,ハレルヤホールディングス株式会社,,株式会社,大阪府,堺市西区,上野芝町６丁１１番７－２０３号,,27,144,5938301,,,,,,,2025-10-03,1,,,,,ハレルヤホールディングス,0
2446,9120901051559,新規,0,2025-10-03,2025-10-03,美創株式会社,,株式会社,大阪府,豊中市,千成町３丁目９－１,,27,203,5610829,,,,,,,2025-10-03,1,,,,,ビソウ,0
2447,9120901051567,新規,0,2025-10-03,2025-10-03,千里ランドロード株式会社,,株式会社,大阪府,豊中市,上新田２丁目４番３３号,,27,203,5600085,,,,,,,2025-10-03,1,,,,,センリランドロード,0
2454,9130001080631,新規,0,2025-10-03,2025-10-03,株式会社フィールコンテンツ,,株式会社,京都府,京都市左京区,聖護院円頓美町１１－５１,,26,103,6068323,,,,,,,2025-10-03,1,,,,,フィールコンテンツ,0
2462,9140001140145,新規,0,2025-10-03,2025-10-03,株式会社Ｅｓｓｅｎｃｅ,,株式会社,兵庫県,明石市,藤が丘１丁目１７－８,,28,203,6730046,,,,,,,2025-10-03,1,,,,,エッセンス,0
2463,9140001140228,新規,0,2025-10-03,2025-10-03,株式会社インテリックス神戸みなと,,株式会社,兵庫県,神戸市中央区,多聞通２丁目１番２号,,28,110,6500015,,,,,,,2025-10-03,1,,,,,インテリックスコウベミナト,0
2465,9140005027652,新規,0,2025-10-03,2025-10-03,はまだ税理士法人,,その他の設立登記法人,兵庫県,神戸市中央区,御幸通４丁目１－１０ＹＡＹＡビル,,28,110,6510087,,,,,,,2025-10-03,1,,,,,ハマダ,0
2468,9170001018818,新規,0,2025-10-03,2025-10-03,株式会社丸亀水産,,株式会社,和歌山県,東牟婁郡那智勝浦町,大字下里１７４１番地２５,,30,421,6495142,,,,,,,2025-10-03,1,,,,,マルカメスイサン,0
2469,9170003002316,新規,0,2025-10-03,2025-10-03,合同会社Ｐａｒａｄｉｓｅ　Ｅｃｈｏ,,合同会社,和歌山県,西牟婁郡白浜町,２９２７番地の６１４パールシャトー４１２号,,30,401,6492211,,,,,,,2025-10-03,1,,,,,パラダイスエコー,0
2479,9180001168819,新規,0,2025-10-03,2025-10-03,ＲＩＶＡＡＮ株式会社,,株式会社,愛知県,名古屋市天白区,向が丘２丁目６１２番地ＮＴビル平針１階Ｂ号室,,23,116,4680012,,,,,,,2025-10-03,1,,,,,リヴァン,0
2480,9180001168827,新規,0,2025-10-03,2025-10-03,ＪＵＳＴ株式会社,,株式会社,愛知県,名古屋市中村区,佐古前町１６番２２号円山ハイツ５０３号,,23,105,4530018,,,,,,,2025-10-03,1,,,,,ジャスト,0
2481,9180001168835,新規,0,2025-10-03,2025-10-03,株式会社継,,株式会社,愛知県,名古屋市千種区,城木町３丁目４９番地ダイアパレス千種城木７０２号,,23,101,4640846,,,,,,,2025-10-03,1,,,,,ケイ,0
2484,9180005021255,新規,0,2025-10-03,2025-10-03,一般財団法人八千代財団,,その他の設立登記法人,愛知県,名古屋市中区,丸の内２丁目１３番１６号－２,,23,106,4600002,,,,,,,2025-10-03,1,,,,,ヤチヨザイダン,0
2485,9180301040264,新規,0,2025-10-03,2025-10-03,株式会社ぜんり,,株式会社,愛知県,岡崎市,六名本町１６番地１７,,23,202,4440854,,,,,,,2025-10-03,1,,,,,ゼンリ,0
2487,9180303006759,新規,0,2025-10-03,2025-10-03,合同会社有凪,,合同会社,愛知県,豊橋市,宮下町７２番地の２,,23,201,4400044,,,,,,,2025-10-03,1,,,,,,0
2488,9180305009735,新規,0,2025-10-03,2025-10-03,一般社団法人はるかぜの会,,その他の設立登記法人,愛知県,高浜市,論地町２丁目２番地２７１,,23,227,4441314,,,,,,,2025-10-03,1,,,,,ハルカゼノカイ,0
2491,9190001032569,新規,0,2025-10-03,2025-10-03,株式会社ＡＲＣＯ,,株式会社,三重県,三重郡菰野町,大字潤田１０９１番地,,24,341,5101253,,,,,,,2025-10-03,1,,,,,アルコ,0
2496,9200001044298,新規,0,2025-10-03,2025-10-03,株式会社ＭＫ,,株式会社,岐阜県,安八郡安八町,北今ケ渕３２９番地の１,,21,383,5030113,,,,,,,2025-10-03,1,,,,,エムケー,0
2499,9220003004133,新規,0,2025-10-03,2025-10-03,合同会社よし鮨,,合同会社,石川県,小松市,福乃宮町１丁目１０６番地,,17,203,9230865,,,,,,,2025-10-03,1,,,,,ヨシズシ,0
2505,9250001021367,新規,0,2025-10-03,2025-10-03,株式会社清響,,株式会社,山口県,下関市,王喜本町５丁目４番１号,,35,201,7501114,,,,,,,2025-10-03,1,,,,,セイキョウ,0
2506,9260001040589,新規,0,2025-10-03,2025-10-03,株式会社きになるかぞく,,株式会社,岡山県,岡山市北区,駅元町３１番１号,,33,101,7000024,,,,,,,2025-10-03,1,,,,,キニナルカゾク,0
2507,9260001040597,新規,0,2025-10-03,2025-10-03,株式会社倉敷玉島学校給食サービス,,株式会社,岡山県,倉敷市,西中新田６３２番地１,,33,202,7100833,,,,,,,2025-10-03,1,,,,,クラシキタマシマガッコウキュウショクサービス,0
2508,9260001040606,新規,0,2025-10-03,2025-10-03,株式会社ＴＳ,,株式会社,岡山県,総社市,中央５丁目８番地１０１,,33,208,7191131,,,,,,,2025-10-03,1,,,,,ティーエス,0
2518,9290003017475,新規,0,2025-10-03,2025-10-03,萬品合同会社,,合同会社,福岡県,福岡市東区,松島２丁目１－５Ｊ－ＰＬＡＮＺ松島４０２号室,,40,131,8120062,,,,,,,2025-10-03,1,,,,,マンヒン,0
2519,9290801031891,新規,0,2025-10-03,2025-10-03,株式会社ＶＥＬＬＵＴＯ,,株式会社,福岡県,直方市,大字感田２０５９番地,,40,204,8220001,,,,,,,2025-10-03,1,,,,,ヴェルート,0
2520,9290801031917,新規,0,2025-10-03,2025-10-03,株式会社ソロベース,,株式会社,福岡県,北九州市小倉南区,中曽根東１丁目２番１号曽根スカイマンション１階,,40,107,8000213,,,,,,,2025-10-03,1,,,,,ソロベース,0
2522,9290803005175,新規,0,2025-10-03,2025-10-03,合同会社ＯＨＡ,,合同会社,福岡県,北九州市八幡西区,中の原２丁目１９番１号,,40,109,8070078,,,,,,,2025-10-03,1,,,,,オーハ,0
2523,9300001014357,新規,0,2025-10-03,2025-10-03,株式会社タクト,,株式会社,佐賀県,唐津市,中町１５１３番地の５・１階,,41,202,8470051,,,,,,,2025-10-03,1,,,,,タクト,0
2524,9300001014373,新規,0,2025-10-03,2025-10-03,株式会社Ｒ＆Ｌ　Ｄｅｎｔ．,,株式会社,佐賀県,佐賀市,与賀町１番２１号デュオヒルズ城内５０１,,41,201,8400047,,,,,,,2025-10-03,1,,,,,アールアンドエルデント,0
2525,9310001019801,新規,0,2025-10-03,2025-10-03,株式会社トギツシャリョウ,,株式会社,長崎県,西彼杵郡時津町,左底郷１８２６番地,,42,308,8512106,,,,,,,2025-10-03,1,,,,,トキヅシャリョウ,0
2527,9320001021376,新規,0,2025-10-03,2025-10-03,株式会社リベロ,,株式会社,大分県,大分市,高城本町３番１１－１２０４号,,44,201,8700157,,,,,,,2025-10-03,1,,,,,リベロ,0
2528,9320003004791,新規,0,2025-10-03,2025-10-03,合同会社ぷるとわ,,合同会社,大分県,佐伯市,弥生大字上小倉６２９番地１,,44,205,8760112,,,,,,,2025-10-03,1,,,,,プルトワ,0
2530,9330003011242,新規,0,2025-10-03,2025-10-03,合同会社ヒマラヤ,,合同会社,熊本県,球磨郡多良木町,大字多良木１０１５番地３,,43,505,8680501,,,,,,,2025-10-03,1,,,,,ヒマラヤ,0
2533,9340001027685,新規,0,2025-10-03,2025-10-03,株式会社ＹＤ,,株式会社,鹿児島県,鹿児島市,光山２丁目１３番１３号ウイングハイツ１０２号,,46,201,8910151,,,,,,,2025-10-03,1,,,,,ワイディー,0
2534,9340003004963,新規,0,2025-10-03,2025-10-03,合同会社ＫＤＦＳｍｉｌｅＬｉｎｋ,,合同会社,鹿児島県,志布志市,有明町蓬原８２４番地７,00140930,46,221,8997503,,,,,,,2025-10-03,1,,,,,ケーディーエフスマイルリンク,0
2539,9360003015307,新規,0,2025-10-03,2025-10-03,合同会社哲弥,,合同会社,沖縄県,島尻郡八重瀬町,字大頓１４０２番地,,47,362,9010502,,,,,,,2025-10-03,1,,,,,テツヤ,0
2545,9400001017184,新規,0,2025-10-03,2025-10-03,ハイレジリエンスメディカル株式会社,,株式会社,岩手県,盛岡市,北飯岡３丁目１５番４３号,,03,201,0200857,,,,,,,2025-10-03,1,,,,,ハイレジリエンスメディカル,0
2551,9430003018194,新規,0,2025-10-03,2025-10-03,ＨＩ‐ＴＯ‐ＭＩ合同会社,,合同会社,北海道,札幌市中央区,南五条西１５丁目２‐３‐５０３,,01,101,0640805,,,,,,,2025-10-03,1,,,,,ヒトミ,0
2552,9430005015314,新規,0,2025-10-03,2025-10-03,一般社団法人シネマ・ノース,,その他の設立登記法人,北海道,札幌市中央区,南二条東２丁目７番４号ビルセススクエア大通４０４号,,01,101,0600052,,,,,,,2025-10-03,1,,,,,シネマノース,0
2554,9470001020917,新規,0,2025-10-03,2025-10-03,株式会社栄和建設,,株式会社,香川県,木田郡三木町,大字井上３１０２番地１８,,37,341,7610705,,,,,,,2025-10-03,1,,,,,エイワケンセツ,0
2558,9500005008822,新規,0,2025-10-03,2025-10-03,企業組合かりエンジョイ,,その他の設立登記法人,愛媛県,西予市,明浜町狩浜３番耕地２０２番地第７,,38,214,7970113,,,,,,,2025-10-03,1,,,,,カリエンジョイ,0
