sequenceNumber,corporateNumber,process,correct,updateDate,changeDate,name,nameImageId,kind,prefectureName,cityName,streetNumber,addressImageId,prefectureCode,cityCode,postCode,addressOutside,addressOutsideImageId,closeDate,closeCause,successorCorporateNumber,changeCause,assignmentDate,latest,enName,enPrefectureName,enCityName,enAddressOutside,furigana,hihyoji
8,1010101015911,新規,0,2023-12-08,2023-12-08,株式会社ブリッヂング,,株式会社,東京都,八王子市,元八王子町２丁目１００１番地２,,13,201,1930826,,,,,,,2023-12-08,1,,,,,,0
16,1010405022769,新規,0,2023-12-08,2023-12-08,一般社団法人沼津地所,,その他の設立登記法人,東京都,港区,元赤坂１丁目１番８号赤坂コミュニティビル４階,,13,103,1070051,,,,,,,2023-12-08,1,,,,,ヌマヅジショ,0
18,1010501051481,新規,0,2023-12-08,2023-12-08,高栗国際株式会社,,株式会社,東京都,台東区,北上野２丁目２５番７号利達ビル２０３号室,,13,106,1100014,,,,,,,2023-12-08,1,,,,,タカクリコクサイ,0
19,1010601064276,新規,0,2023-12-08,2023-12-08,澤祐株式会社,,株式会社,東京都,墨田区,本所３丁目４番１０号・３０１,,13,107,1300004,,,,,,,2023-12-08,1,,,,,サワユウ,0
25,1010901054282,新規,0,2023-12-08,2023-12-08,株式会社ＲＡＣＳ,,株式会社,東京都,世田谷区,下馬５丁目７番１４号サン・アベニュー下馬５０１,,13,112,1540002,,,,,,,2023-12-08,1,,,,,ラックス,0
32,1011001158602,新規,0,2023-12-08,2023-12-08,株式会社Ｍｅｌｏｎ　Ｔｅｃｈｎｏｌｏｇｉｅｓ,,株式会社,東京都,渋谷区,恵比寿４丁目２０番３号恵比寿ガーデンプレイスタワー１８階,,13,113,1500013,,,,,,,2023-12-08,1,,,,,メロンテクノロジーズ,0
33,1011001158651,新規,0,2023-12-08,2023-12-08,株式会社ｐｕｍｐ,,株式会社,東京都,渋谷区,渋谷２丁目１９－１５宮益坂ビルディング６０９,,13,113,1500002,,,,,,,2023-12-08,1,,,,,パンプ,0
36,1011003018044,新規,0,2023-12-08,2023-12-08,合同会社富士サポート,,合同会社,東京都,渋谷区,恵比寿西２丁目８番４号ＥＸ恵比寿西ビル５階,,13,113,1500021,,,,,,,2023-12-08,1,,,,,フジサポート,0
37,1011003018060,新規,0,2023-12-08,2023-12-08,アグリソーラーパーク合同会社,,合同会社,東京都,渋谷区,渋谷３丁目１９番１号オミビル７Ｆ,,13,113,1500002,,,,,,,2023-12-08,1,,,,,アグリソーラーパーク,0
48,1011101105339,新規,0,2023-12-08,2023-12-08,株式会社Ｍｉｄｖｉｌｌａｇｅ,,株式会社,東京都,新宿区,神楽坂６丁目８番地,,13,104,1620825,,,,,,,2023-12-08,1,,,,,ミッドビレッジ,0
49,1011101105371,新規,0,2023-12-08,2023-12-08,株式会社吉井企画,,株式会社,東京都,新宿区,新宿２丁目１６番８号新宿北斗ビル３階,,13,104,1600022,,,,,,,2023-12-08,1,,,,,ヨシイキカク,0
50,1011101105388,新規,0,2023-12-08,2023-12-08,Ａｇｅｎｔ　Ｃｏｎｎｅｃｔ株式会社,,株式会社,東京都,新宿区,市谷台町４番２号,,13,104,1620066,,,,,,,2023-12-08,1,,,,,エージェントコネクト,0
51,1011101105413,新規,0,2023-12-08,2023-12-08,ＪＰ明光株式会社,,株式会社,東京都,新宿区,北新宿１丁目７－２０プロスペリタ新宿４０１,,13,104,1690074,,,,,,,2023-12-08,1,,,,,ジェーピーメイコウ,0
58,1011401025674,新規,0,2023-12-08,2023-12-08,株式会社トライワークス,,株式会社,東京都,板橋区,板橋４丁目５５番２４号,,13,119,1730004,,,,,,,2023-12-08,1,,,,,トライワークス,0
60,1011501030087,新規,0,2023-12-08,2023-12-08,株式会社マイプレジャア,,株式会社,東京都,荒川区,荒川７丁目３６番３号,,13,118,1160002,,,,,,,2023-12-08,1,,,,,マイプレジャア,0
67,1011701026835,新規,0,2023-12-08,2023-12-08,アイセット株式会社,,株式会社,東京都,江戸川区,中葛西４丁目９―１８ｉ・ｅビル８階,,13,123,1340083,,,,,,,2023-12-08,1,,,,,アイセット,0
68,1011701026843,新規,0,2023-12-08,2023-12-08,株式会社グリズリーズ,,株式会社,東京都,江戸川区,北小岩１丁目２６－６,,13,123,1330051,,,,,,,2023-12-08,1,,,,,グリズリーズ,0
69,1011703003683,新規,0,2023-12-08,2023-12-08,アレクシス合同会社,,合同会社,東京都,江戸川区,北小岩１丁目１８番１８号,,13,123,1330051,,,,,,,2023-12-08,1,,,,,アレクシス,0
72,1012301013678,新規,0,2023-12-08,2023-12-08,株式会社ＮＥｉＧＨＢＯＲ　ＦＬＯＷ,,株式会社,東京都,町田市,金森東２丁目１２番６号,,13,209,1940015,,,,,,,2023-12-08,1,,,,,,0
73,1012301013694,新規,0,2023-12-08,2023-12-08,株式会社ＴＲＥＳ　ＧＬＡＤＥＡ,,株式会社,東京都,町田市,原町田４丁目１１番１３号天野ビル４Ｆ,,13,209,1940013,,,,,,,2023-12-08,1,,,,,トレスグラディア,0
74,1012401041298,新規,0,2023-12-08,2023-12-08,株式会社匠楓,,株式会社,東京都,稲城市,平尾２丁目５５番地の２１,,13,225,2060823,,,,,,,2023-12-08,1,,,,,ショウカ,0
75,1012403006308,新規,0,2023-12-08,2023-12-08,レイスレス合同会社,,合同会社,東京都,調布市,菊野台１丁目１７－５ＢＲＥＶ５０１号,,13,208,1820007,,,,,,,2023-12-08,1,,,,,レイスレス,0
80,1012801022815,新規,0,2023-12-08,2023-12-08,株式会社Ｊ‐ＲＳ,,株式会社,東京都,立川市,一番町４丁目３４番３号ＴＯＰビル２ＦＢ,,13,202,1900033,,,,,,,2023-12-08,1,,,,,ジェイアールエス,0
82,1013301051742,新規,0,2023-12-08,2023-12-08,株式会社ＦＩＪＩ,,株式会社,東京都,豊島区,西池袋５丁目１８番１１号第３愛和ビル５階,,13,116,1710021,,,,,,,2023-12-08,1,,,,,エフアイジェイアイ,0
91,1020001154800,新規,0,2023-12-08,2023-12-08,株式会社ＡＡＲＹＡ,,株式会社,神奈川県,川崎市多摩区,堰２丁目７番４号ルーバーイン元町２０１,,14,135,2140022,,,,,,,2023-12-08,1,,,,,アーリヤ,0
92,1020001154817,新規,0,2023-12-08,2023-12-08,株式会社今総,,株式会社,神奈川県,横浜市青葉区,たちばな台１丁目１９番地７,,14,117,2270046,,,,,,,2023-12-08,1,,,,,イマソウ,0
97,1020003025124,新規,0,2023-12-08,2023-12-08,合同会社ＢＡＭＦＩＥ,,合同会社,神奈川県,川崎市宮前区,宮崎２丁目３番地２８ハッピーマンション１Ｆ,,14,136,2160033,,,,,,,2023-12-08,1,,,,,バンフィ,0
98,1020003025149,新規,0,2023-12-08,2023-12-08,合同会社たかはし庭園,,合同会社,神奈川県,川崎市多摩区,宿河原６丁目２１番８号,,14,135,2140021,,,,,,,2023-12-08,1,,,,,タカハシテイエン,0
99,1020005016212,新規,0,2023-12-08,2023-12-08,医療法人社団ＮＥＸＴ５０,,その他の設立登記法人,神奈川県,川崎市川崎区,駅前本町１４番地６マーヴェル川崎２階,,14,131,2100007,,,,,,,2023-12-08,1,,,,,ネクストゴジュウ,0
105,1021003013886,新規,0,2023-12-08,2023-12-08,合同会社ＡＡＰＳ,,合同会社,神奈川県,伊勢原市,高森台３丁目１１－９,,14,214,2591115,,,,,,,2023-12-08,1,,,,,アープス,0
115,1030001157570,新規,0,2023-12-08,2023-12-08,ＬＢＣ株式会社,,株式会社,埼玉県,川越市,月吉町４２番地１６,,11,201,3500825,,,,,,,2023-12-08,1,,,,,エルビーシー,0
116,1030001157579,新規,0,2023-12-08,2023-12-08,Ａ＆Ｍ株式会社,,株式会社,埼玉県,久喜市,久喜東５丁目３０番１４号,,11,232,3460016,,,,,,,2023-12-08,1,,,,,エーアンドエム,0
120,1030003023119,新規,0,2023-12-08,2023-12-08,合同会社結縁地,,合同会社,埼玉県,越谷市,レイクタウン７丁目１４番地７ＬａｋｅＣｏｎｆｏｒｔ２０５,,11,222,3430828,,,,,,,2023-12-08,1,,,,,ユウエンチ,0
121,1030003023176,新規,0,2023-12-08,2023-12-08,合同会社喜わ,00132930,合同会社,埼玉県,川口市,大字西新井宿４４０番１号２Ｆ,,11,203,3330833,,,,,,,2023-12-08,1,,,,,キワ,0
122,1030005021491,新規,0,2023-12-08,2023-12-08,一般社団法人音楽詩劇研究所,,その他の設立登記法人,埼玉県,蕨市,中央１丁目３５番１１号,,11,223,3350004,,,,,,,2023-12-08,1,,,,,オンガクシゲキケンキュウジョ,0
127,1040001130725,新規,0,2023-12-08,2023-12-08,株式会社Ｙｏｕ＆Ｍｅ,,株式会社,千葉県,松戸市,松戸新田３－３－４２７,,12,207,2702241,,,,,,,2023-12-08,1,,,,,ユーアンドミー,0
128,1040001131269,新規,0,2023-12-08,2023-12-08,株式会社ｔａｒｔｌｉｅｒ,,株式会社,千葉県,市川市,八幡４丁目４番６号,,12,203,2720021,,,,,,,2023-12-08,1,,,,,タルトリエ,0
132,1050001053925,新規,0,2023-12-08,2023-12-08,株式会社サカイファーミング,,株式会社,茨城県,常陸太田市,東染町３３１４番地,,08,212,3130211,,,,,,,2023-12-08,1,,,,,サカイファーミング,0
133,1060001036607,新規,0,2023-12-08,2023-12-08,株式会社モミの木企画,,株式会社,栃木県,足利市,県町１４７７番地１,,09,202,3260328,,,,,,,2023-12-08,1,,,,,モミノキキカク,0
137,1070001041151,新規,0,2023-12-08,2023-12-08,株式会社クレアス,,株式会社,群馬県,伊勢崎市,堤下町６５番地４,,10,204,3720004,,,,,,,2023-12-08,1,,,,,クレアス,0
144,1090001018453,新規,0,2023-12-08,2023-12-08,株式会社大河ファーム,,株式会社,山梨県,山梨市,牧丘町倉科７２１１番地３,,19,205,4040003,,,,,,,2023-12-08,1,,,,,タイガファーム,0
149,1100001037039,新規,0,2023-12-08,2023-12-08,株式会社ＤＳダイニング,,株式会社,長野県,上田市,中央１丁目３－９、２－２号室,,20,203,3860012,,,,,,,2023-12-08,1,,,,,ディーエスダイニング,0
152,1100003007295,新規,0,2023-12-08,2023-12-08,ｅｆ．合同会社,,合同会社,長野県,諏訪市,大手２丁目１１番８号,,20,206,3920026,,,,,,,2023-12-08,1,,,,,エフ,0
163,1120001260407,新規,0,2023-12-08,2023-12-08,株式会社維大国際物流,,株式会社,大阪府,大阪市北区,天神橋３丁目５番３号,,27,127,5300041,,,,,,,2023-12-08,1,,,,,イダイコクサイブツリュウ,0
164,1120001260423,新規,0,2023-12-08,2023-12-08,ＸＹ観瀾株式会社,,株式会社,大阪府,大阪市住之江区,安立２丁目１０番１４号三坂ビル２０４号室,,27,125,5590003,,,,,,,2023-12-08,1,,,,,エックスワイカンラン,0
165,1120001260448,新規,0,2023-12-08,2023-12-08,株式会社Ｒａｋｕ　Ｆｏｏｄｓ,,株式会社,大阪府,大阪市阿倍野区,万代１丁目３番－１４－３０１ベルメゾン万代,,27,119,5450036,,,,,,,2023-12-08,1,,,,,ラクフーズ,0
166,1120001260472,新規,0,2023-12-08,2023-12-08,益和株式会社,,株式会社,大阪府,大阪市天王寺区,生玉町７番１８号,,27,109,5430071,,,,,,,2023-12-08,1,,,,,エキワ,0
167,1120001260480,新規,0,2023-12-08,2023-12-08,株式会社ブラック企業にようこそ,,株式会社,大阪府,大阪市中央区,瓦町２丁目３－１４,,27,128,5410048,,,,,,,2023-12-08,1,,,,,ブラックカンパニーニヨウコソ,0
168,1120001260506,新規,0,2023-12-08,2023-12-08,株式会社ゼクス,,株式会社,大阪府,大阪市東住吉区,山坂２丁目２１番２号,,27,121,5460035,,,,,,,2023-12-08,1,,,,,ゼクス,0
169,1120001260514,新規,0,2023-12-08,2023-12-08,株式会社トライング,,株式会社,大阪府,大阪市北区,曾根崎２丁目１０番２２号,,27,127,5300057,,,,,,,2023-12-08,1,,,,,トライング,0
171,1120003025452,新規,0,2023-12-08,2023-12-08,合同会社華成,,合同会社,大阪府,大阪市東成区,大今里南１丁目１８番７号大宝今里ロイヤルハイツ３０３号室,,27,115,5370013,,,,,,,2023-12-08,1,,,,,カセイ,0
172,1120003025460,新規,0,2023-12-08,2023-12-08,合同会社ホームケア・ダイイチ,,合同会社,大阪府,枚方市,伊加賀西町３３番７１－３０７号,,27,210,5730066,,,,,,,2023-12-08,1,,,,,ホームケアダイイチ,0
176,1120901048455,新規,0,2023-12-08,2023-12-08,株式会社ＨＹＵＧＥＬ,,株式会社,大阪府,豊中市,東豊中町１丁目１番３６号,,27,203,5600003,,,,,,,2023-12-08,1,,,,,ヒューゲル,0
183,1130001075861,新規,0,2023-12-08,2023-12-08,株式会社ロルエフェクト,,株式会社,京都府,京都市下京区,立売東町２４番地２階,,26,106,6008005,,,,,,,2023-12-08,1,,,,,ロルエフェクト,0
191,1160003003058,新規,0,2023-12-08,2023-12-08,合同会社北村,,合同会社,滋賀県,米原市,宇賀野７２９番地５,,25,214,5210062,,,,,,,2023-12-08,1,,,,,キタムラ,0
194,1180001159180,新規,0,2023-12-08,2023-12-08,株式会社エトマティー,,株式会社,愛知県,名古屋市瑞穂区,村上町３丁目２２番地の４,,23,108,4670008,,,,,,,2023-12-08,1,,,,,エトマティー,0
195,1180001159197,新規,0,2023-12-08,2023-12-08,大川商事株式会社,,株式会社,愛知県,一宮市,北方町北方字宝江新田２１番地６,,23,203,4938001,,,,,,,2023-12-08,1,,,,,オオカワショウジ,0
207,1240001062436,新規,0,2023-12-08,2023-12-08,株式会社ＳＥ‐Ｃｏｎｎｅｃｔ,,株式会社,広島県,廿日市市,宮園８丁目２番地１,,34,213,7380035,,,,,,,2023-12-08,1,,,,,エスイーコネクト,0
215,1290001103986,新規,0,2023-12-08,2023-12-08,株式会社ＫＥＮＭＥＩ,,株式会社,福岡県,福岡市中央区,六本松３丁目１３番２９号,,40,133,8100044,,,,,,,2023-12-08,1,,,,,ケンメイ,0
217,1290003014703,新規,0,2023-12-08,2023-12-08,合同会社ＨＭ５４６,,合同会社,福岡県,福岡市東区,馬出６丁目１番２２－８０３号,,40,131,8120054,,,,,,,2023-12-08,1,,,,,エチエムゴウヨンロク,0
218,1290003014711,新規,0,2023-12-08,2023-12-08,彩夏ｃｏｌｏｒ　ｓａｌｏｎ合同会社,,合同会社,福岡県,糟屋郡志免町,王子４丁目３番１５号,,40,343,8112209,,,,,,,2023-12-08,1,,,,,サイカカラーサロン,0
225,1350005006196,新規,0,2023-12-08,2023-12-08,社会保険労務士法人ステラ,,その他の設立登記法人,宮崎県,宮崎市,大島町馬場尻１８８７番地１５,,45,201,8800824,,,,,,,2023-12-08,1,,,,,ステラ,0
230,1370001050700,新規,0,2023-12-08,2023-12-08,株式会社ＳＰＡＤＥ　Ｐｒｏｊｅｃｔ,,株式会社,宮城県,仙台市宮城野区,榴岡４丁目１２番７号６Ｆ,,04,102,9830852,,,,,,,2023-12-08,1,,,,,スペードプロジェクト,0
232,1370005010717,新規,0,2023-12-08,2023-12-08,一般社団法人Ｈｅｒｏｅｓ育成奨学基金,,その他の設立登記法人,宮城県,仙台市若林区,石名坂２７番地の４,,04,103,9840063,,,,,,,2023-12-08,1,,,,,ヒーローズイクセイショウガクキキン,0
235,1400001016474,新規,0,2023-12-08,2023-12-08,株式会社たけまさ,,株式会社,岩手県,花巻市,東和町土沢８区１１５番地－１０１号,,03,205,0280114,,,,,,,2023-12-08,1,,,,,タケマサ,0
246,1430001090590,新規,0,2023-12-08,2023-12-08,ノースワークライン株式会社,,株式会社,北海道,札幌市手稲区,前田四条１１丁目６番１０号ハイツまえだ２０３,,01,109,0060814,,,,,,,2023-12-08,1,,,,,ノースワークライン,0
254,1480001012318,新規,0,2023-12-08,2023-12-08,株式会社百々ボディー,,株式会社,徳島県,海部郡海陽町,久保字板取２４３番地５１,,36,388,7750502,,,,,,,2023-12-08,1,,,,,ドドボディー,0
260,1500003003147,新規,0,2023-12-08,2023-12-08,Ａｓｓｉｓｔ合同会社,,合同会社,愛媛県,四国中央市,川之江町１８４５番地アークマンション４１６号,,38,213,7990101,,,,,,,2023-12-08,1,,,,,アシスト,0
271,2010003042383,新規,0,2023-12-08,2023-12-08,合同会社カーチスファンド８号,,合同会社,東京都,千代田区,六番町２番地８番町Ｍビル３Ｆ,,13,101,1020085,,,,,,,2023-12-08,1,,,,,カーチスファンドハチゴウ,0
273,2010005037563,新規,0,2023-12-08,2023-12-08,リバレイト・パートナーズ税理士法人,,その他の設立登記法人,東京都,千代田区,有楽町２丁目７番１号有楽町イトシアビル１２Ｆ,,13,101,1000006,,,,,,,2023-12-08,1,,,,,リバレイトパートナーズ,0
274,2010005037613,新規,0,2023-12-08,2023-12-08,一般社団法人宮崎国際バレエコンペティション,,その他の設立登記法人,東京都,文京区,小石川４丁目１６番１３－３０１号,,13,105,1120002,,,,,,,2023-12-08,1,,,,,ミヤザキコクサイバレエコンペティション,0
275,2010101015910,新規,0,2023-12-08,2023-12-08,株式会社ＡＤ３Ｋ,,株式会社,東京都,八王子市,館町１５６８番地５,,13,201,1930944,,,,,,,2023-12-08,1,,,,,エーディースリーケー,0
289,2010501051480,新規,0,2023-12-08,2023-12-08,株式会社更＿,00132918,株式会社,東京都,台東区,橋場１丁目３４番２号,,13,106,1110023,,,,,,,2023-12-08,1,,,,,サラケイ,0
290,2010605004269,新規,0,2023-12-08,2023-12-08,一般社団法人アーバンデザインセンターすみだ,,その他の設立登記法人,東京都,墨田区,文花１丁目１９番１号千葉大学墨田サテライトキャンパス１階,,13,107,1310044,,,,,,,2023-12-08,1,,,,,アーバンデザインセンタースミダ,0
291,2010701045241,新規,0,2023-12-08,2023-12-08,インテリゴージャパン株式会社,,株式会社,東京都,品川区,東五反田１丁目６番３号いちご東五反田ビル３階３１８号室,,13,109,1410022,,,,,,,2023-12-08,1,,,,,インテリゴージャパン,0
298,2010901054281,新規,0,2023-12-08,2023-12-08,株式会社Ｉｎｔｅｒｔｅｘｔ,,株式会社,東京都,世田谷区,玉川３丁目９番１０号４０３号室,,13,112,1580094,,,,,,,2023-12-08,1,,,,,インターテキスト,0
299,2010903008640,新規,0,2023-12-08,2023-12-08,合同会社スキラ,,合同会社,東京都,世田谷区,瀬田１丁目３番１７－４０１号,,13,112,1580095,,,,,,,2023-12-08,1,,,,,スキラ,0
305,2011001158667,新規,0,2023-12-08,2023-12-08,株式会社ルーペ,,株式会社,東京都,渋谷区,道玄坂１丁目１０番８号渋谷道玄坂東急ビル２Ｆ－Ｃ,,13,113,1500043,,,,,,,2023-12-08,1,,,,,ルーペ,0
311,2011101105370,新規,0,2023-12-08,2023-12-08,ＯＳＥＲＭ株式会社,,株式会社,東京都,新宿区,榎町３４－３榎町ビル５階－１４室,,13,104,1620806,,,,,,,2023-12-08,1,,,,,オセラム,0
312,2011101105404,新規,0,2023-12-08,2023-12-08,株式会社ワン・プロパティ保証,,株式会社,東京都,新宿区,西新宿３丁目９番２号,,13,104,1600023,,,,,,,2023-12-08,1,,,,,ワンプロパティホショウ,0
313,2011101105420,新規,0,2023-12-08,2023-12-08,株式会社ＭＳＰＪ,,株式会社,東京都,新宿区,西新宿６丁目６番２号,,13,104,1600023,,,,,,,2023-12-08,1,,,,,エムエスピージェイ,0
318,2011203004248,新規,0,2023-12-08,2023-12-08,ＡＧＴ合同会社,,合同会社,東京都,中野区,中野３丁目３４番１９号,,13,114,1640001,,,,,,,2023-12-08,1,,,,,エージィーティー,0
324,2011401025673,新規,0,2023-12-08,2023-12-08,俊英館ホールディングス株式会社,,株式会社,東京都,板橋区,小茂根４丁目９番２号,,13,119,1730037,,,,,,,2023-12-08,1,,,,,シュンエイカンホールディングス,0
325,2011403004196,新規,0,2023-12-08,2023-12-08,Ｋ‐Ａｓｓｉｓｔ合同会社,,合同会社,東京都,板橋区,清水町６３－１３,,13,119,1740053,,,,,,,2023-12-08,1,,,,,ケイアシスト,0
333,2011801043449,新規,0,2023-12-08,2023-12-08,株式会社３Ｄａｙｓ　Ｂｕｉｌｄｅｒ,,株式会社,東京都,葛飾区,東金町１丁目４４番１号金町ＴＶビル２階,,13,122,1250041,,,,,,,2023-12-08,1,,,,,スリーデイズビルダー,0
334,2011801043465,新規,0,2023-12-08,2023-12-08,株式会社凝愛,,株式会社,東京都,葛飾区,金町５丁目２３番８号,,13,122,1250042,,,,,,,2023-12-08,1,,,,,ギョウアイ,0
335,2011803005975,新規,0,2023-12-08,2023-12-08,合同会社ＴＲＵＯＮＧ　ＴＨＡＮＨ,,合同会社,東京都,葛飾区,新小岩１丁目２２－１０トーアファンシービル５０３号室,,13,122,1240024,,,,,,,2023-12-08,1,,,,,チュオンタイン,0
352,2013301051733,新規,0,2023-12-08,2023-12-08,株式会社マイロードホールディングス,,株式会社,東京都,豊島区,南池袋１丁目１９番４号幸伸ビル９Ｆ,,13,116,1710022,,,,,,,2023-12-08,1,,,,,マイロードホールディングス,0
353,2013301051741,新規,0,2023-12-08,2023-12-08,株式会社ＳＤＲ,,株式会社,東京都,豊島区,南大塚１丁目６０番２０号,,13,116,1700005,,,,,,,2023-12-08,1,,,,,エスディーアール,0
365,2020001154766,新規,0,2023-12-08,2023-12-08,株式会社やまでら屋,,株式会社,神奈川県,横浜市神奈川区,金港町５番地１４クアドリフォリオ８階,,14,102,2210056,,,,,,,2023-12-08,1,,,,,ヤマデラヤ,0
366,2020001154816,新規,0,2023-12-08,2023-12-08,株式会社キャラメル,,株式会社,神奈川県,横浜市西区,みなとみらい６丁目３番４－２４０６号,,14,103,2200012,,,,,,,2023-12-08,1,,,,,キャラメル,0
376,2020003025148,新規,0,2023-12-08,2023-12-08,合同会社アソビ人間製作所,,合同会社,神奈川県,横浜市青葉区,美しが丘西３丁目６３番地ルネたまプラーザＤ－６２８,,14,117,2250001,,,,,,,2023-12-08,1,,,,,アソビニンゲンセイサクショ,0
377,2020003025156,新規,0,2023-12-08,2023-12-08,合同会社豊亜コンサルティング,,合同会社,神奈川県,川崎市中原区,木月大町１６番１２－５０３号,,14,133,2110031,,,,,,,2023-12-08,1,,,,,ホウアコンサルティング,0
382,2021003013885,新規,0,2023-12-08,2023-12-08,合同会社福,,合同会社,神奈川県,綾瀬市,落合南１丁目６番１９号,,14,218,2521115,,,,,,,2023-12-08,1,,,,,フク,0
386,2030001157487,新規,0,2023-12-08,2023-12-08,株式会社はっぴーはんど,,株式会社,埼玉県,幸手市,中３丁目２番３号,,11,240,3400115,,,,,,,2023-12-08,1,,,,,ハッピーハンド,0
387,2030001157578,新規,0,2023-12-08,2023-12-08,株式会社松栄,,株式会社,埼玉県,さいたま市大宮区,仲町３丁目９１フローラムハイム１０２,,11,103,3300845,,,,,,,2023-12-08,1,,,,,マツエイ,0
394,2030003023159,新規,0,2023-12-08,2023-12-08,合同会社八翔,,合同会社,埼玉県,さいたま市南区,大字大谷口３０１９番地エスポワールヨシダ２０１,,11,108,3360042,,,,,,,2023-12-08,1,,,,,ハッショウ,0
395,2030003023167,新規,0,2023-12-08,2023-12-08,有田興業合同会社,,合同会社,埼玉県,蕨市,中央４丁目２１番３号,,11,223,3350004,,,,,,,2023-12-08,1,,,,,アリタコウギョウ,0
399,2040001131276,新規,0,2023-12-08,2023-12-08,株式会社ワイズファクトリー,,株式会社,千葉県,浦安市,当代島１丁目２番２５号,,12,227,2790001,,,,,,,2023-12-08,1,,,,,ワイズファクトリー,0
403,2040003023876,新規,0,2023-12-08,2023-12-08,合同会社クリアリンク,,合同会社,千葉県,松戸市,上矢切１６２９－１,,12,207,2710094,,,,,,,2023-12-08,1,,,,,クリアリンク,0
404,2040003023892,新規,0,2023-12-08,2023-12-08,合同会社ＹＴＮ,,合同会社,千葉県,習志野市,実籾５丁目８番６－２０１号,,12,216,2750002,,,,,,,2023-12-08,1,,,,,ワイティーエヌ,0
407,2050001053916,新規,0,2023-12-08,2023-12-08,株式会社Ｔｏｗｅｒ　Ｃｒａｆｔ,,株式会社,茨城県,石岡市,上林６３０番地,,08,205,3150138,,,,,,,2023-12-08,1,,,,,タワークラフト,0
408,2050003007993,新規,0,2023-12-08,2023-12-08,ＣＨＡＮＤ　ＩＮＴＥＲＮＡＴＩＯＮＡＬ　ＴＲＡＤＩＮＧ　ＣＯ．合同会社,,合同会社,茨城県,結城市,大字鹿窪１６番地２,,08,207,3070015,,,,,,,2023-12-08,1,,,,,チャンドインターナショナルトレーディングシーオー,0
410,2070001041150,新規,0,2023-12-08,2023-12-08,株式会社やさしいちから,,株式会社,群馬県,伊勢崎市,宮子町３５５５番地３,,10,204,3720801,,,,,,,2023-12-08,1,,,,,ヤサシイチカラ,0
420,2110001038019,新規,0,2023-12-08,2023-12-08,ＧＳＥ株式会社,,株式会社,新潟県,新潟市東区,山木戸３丁目７番９号,,15,102,9500871,,,,,,,2023-12-08,1,,,,,ジーエスイー,0
432,2120001260348,新規,0,2023-12-08,2023-12-08,Ｑｕａｎｔｕｍ　Ｉｎｔｅｌｌｉｇｅｎｃｅ株式会社,,株式会社,大阪府,大阪市城東区,永田３丁目１４番２２号,,27,118,5360022,,,,,,,2023-12-08,1,,,,,クアンタムインテリジェンス,0
433,2120001260455,新規,0,2023-12-08,2023-12-08,チャトラ株式会社,,株式会社,大阪府,大阪市西区,江之子島１丁目１番９－１１１号,,27,106,5500006,,,,,,,2023-12-08,1,,,,,チャトラ,0
434,2120001260488,新規,0,2023-12-08,2023-12-08,株式会社菌茶製造所,,株式会社,大阪府,大阪市西区,南堀江４丁目３０番２１号,,27,106,5500015,,,,,,,2023-12-08,1,,,,,キンチャセイゾウショ,0
435,2120001260521,新規,0,2023-12-08,2023-12-08,株式会社ＵＰエンターテイメント,,株式会社,大阪府,大阪市此花区,四貫島２丁目３番５号角市ビル３０２号室,,27,104,5540014,,,,,,,2023-12-08,1,,,,,アップエンターテイメント,0
437,2120003025451,新規,0,2023-12-08,2023-12-08,合同会社泉立,,合同会社,大阪府,大阪市東成区,大今里南１丁目１８番７号大宝今里ロイヤルハイツ２０１号室,,27,115,5370013,,,,,,,2023-12-08,1,,,,,センリツ,0
438,2120003025468,新規,0,2023-12-08,2023-12-08,ＳＵＮＧ　ＥＵＮＧ　ＣＯＳＭＥＴＩＣＳ　ＪＡＰＡＮ合同会社,,合同会社,大阪府,大阪市北区,梅田１丁目２番２号大阪駅前第２ビル１２－１２,,27,127,5300001,,,,,,,2023-12-08,1,,,,,ソンウンコスメティクスジャパン,0
439,2120003025476,新規,0,2023-12-08,2023-12-08,ＳＧトレーディング合同会社,,合同会社,大阪府,寝屋川市,寝屋１丁目３２番２０号,,27,215,5720801,,,,,,,2023-12-08,1,,,,,エスジートレーディング,0
440,2120003025484,新規,0,2023-12-08,2023-12-08,合同会社こころ,,合同会社,大阪府,大阪市淀川区,西中島７丁目１－３－１２０９,,27,123,5320011,,,,,,,2023-12-08,1,,,,,ココロ,0
444,2120101068666,新規,0,2023-12-08,2023-12-08,ツクルアンド株式会社,,株式会社,大阪府,堺市美原区,北余部４０番地１０,,27,147,5870051,,,,,,,2023-12-08,1,,,,,ツクルアンド,0
460,2130001075852,新規,0,2023-12-08,2023-12-08,ＧＯＯＤ　ＫＩＮＤ　ＪＡＰＡＮ株式会社,,株式会社,京都府,京都市下京区,朱雀分木町２６番地,,26,106,6008847,,,,,,,2023-12-08,1,,,,,グッドカインドジャパン,0
461,2130001075869,新規,0,2023-12-08,2023-12-08,ＫＡＧＡＭＡＥ株式会社,,株式会社,京都府,京都市下京区,麩屋町通高辻下る鍵屋町２１４番地,00132929,26,106,6008057,,,,,,,2023-12-08,1,,,,,カガマエ,0
462,2130001075877,新規,0,2023-12-08,2023-12-08,ニシブチ株式会社,,株式会社,京都府,京都市東山区,下河原通八坂鳥居前下る上弁天町４４４番地２,,26,105,6050822,,,,,,,2023-12-08,1,,,,,ニシブチ,0
463,2130001075885,新規,0,2023-12-08,2023-12-08,株式会社Ｎアドバイザリー,,株式会社,京都府,京都市上京区,黒門通下長者町下る吉野町７０３番地,,26,102,6028117,,,,,,,2023-12-08,1,,,,,エヌアドバイザリー,0
469,2140003019889,新規,0,2023-12-08,2023-12-08,ＷＡＴＡＮＡＢＥ国際貿易合同会社,,合同会社,兵庫県,姫路市,豊富町豊富３９０３番地１１３,,28,201,6792123,,,,,,,2023-12-08,1,,,,,ワタナベコクサイボウエキ,0
470,2140003019906,新規,0,2023-12-08,2023-12-08,合同会社ＩＧＵ,,合同会社,兵庫県,神戸市灘区,箕岡通２丁目１－３１,,28,102,6570812,,,,,,,2023-12-08,1,,,,,イグ,0
473,2150001026928,新規,0,2023-12-08,2023-12-08,株式会社ｎｅｘｔ,,株式会社,奈良県,奈良市,林小路町２３番地の１いそかわビル１階,,29,201,6308227,,,,,,,2023-12-08,1,,,,,ネクスト,0
476,2160001025549,新規,0,2023-12-08,2023-12-08,株式会社中嶋菓子店,,株式会社,滋賀県,長浜市,北船町４番１９号,,25,203,5260057,,,,,,,2023-12-08,1,,,,,ナカジマカシテン,0
482,2180001159196,新規,0,2023-12-08,2023-12-08,株式会社ａｎ,,株式会社,愛知県,名古屋市天白区,土原１丁目６１８番地,,23,116,4680026,,,,,,,2023-12-08,1,,,,,アン,0
483,2180001159205,新規,0,2023-12-08,2023-12-08,ＧＲＥＡＴ　ＪＡＰＡＮ株式会社,,株式会社,愛知県,名古屋市港区,野跡４丁目２番２－６０４号（みなと荘）,,23,111,4550845,,,,,,,2023-12-08,1,,,,,グレートジャパン,0
484,2180001159246,新規,0,2023-12-08,2023-12-08,株式会社みろく,,株式会社,愛知県,清須市,西枇杷島町南大和４０番地,,23,233,4520013,,,,,,,2023-12-08,1,,,,,ミロク,0
486,2180301038100,新規,0,2023-12-08,2023-12-08,トヨタクレーンリース株式会社,,株式会社,愛知県,豊田市,河合町３丁目６４番地,,23,211,4710824,,,,,,,2023-12-08,1,,,,,トヨタクレーンリース,0
496,2220001025724,新規,0,2023-12-08,2023-12-08,株式会社パルファンカルム,,株式会社,石川県,金沢市,駅西新町３丁目１１番１０号（リライフパレス２０６号室）,,17,201,9200027,,,,,,,2023-12-08,1,,,,,パルファンカルム,0
499,2230003002118,新規,0,2023-12-08,2023-12-08,合同会社Ｂｌｏｏｍｉｎｇ,,合同会社,富山県,射水市,七美２丁目１２番地２６,,16,211,9330252,,,,,,,2023-12-08,1,,,,,ブルーミング,0
514,2290001103960,新規,0,2023-12-08,2023-12-08,株式会社Ａｕｇｕｒｉｚｍ,,株式会社,福岡県,福岡市西区,野方３丁目１５番２３号,,40,135,8190043,,,,,,,2023-12-08,1,,,,,アウグリズム,0
526,2330005010728,新規,0,2023-12-08,2023-12-08,一般社団法人くくり,,その他の設立登記法人,熊本県,熊本市南区,出仲間８丁目２番５２号マノアールウエスト３０２,,43,104,8620963,,,,,,,2023-12-08,1,,,,,ククリ,0
530,2360001032913,新規,0,2023-12-08,2023-12-08,ＰＯＴＡＭＡ　ＯＫＩＮＡＷＡ株式会社,,株式会社,沖縄県,那覇市,松尾２丁目８番３５号,,47,201,9000014,,,,,,,2023-12-08,1,,,,,ポータマオキナワ,0
535,2370001050699,新規,0,2023-12-08,2023-12-08,株式会社夢限トラスト,,株式会社,宮城県,仙台市泉区,将監１０丁目３１番４号,,04,105,9813132,,,,,,,2023-12-08,1,,,,,ムゲントラスト,0
542,2380003005634,新規,0,2023-12-08,2023-12-08,合同会社ノースライト４１,,合同会社,福島県,福島市,陣場町６番１４号,,07,201,9608032,,,,,,,2023-12-08,1,,,,,ノースライトヨンジュウイチ,0
544,2400001016481,新規,0,2023-12-08,2023-12-08,株式会社ＤＥＮＰＡＣＴ,,株式会社,岩手県,盛岡市,本宮２丁目１６番１号小泉産業ビル２階,,03,201,0200866,,,,,,,2023-12-08,1,,,,,デンパクト,0
556,2470001019932,新規,0,2023-12-08,2023-12-08,株式会社グリーンコネクト,,株式会社,香川県,高松市,松縄町４９番地１ロイヤルガーデン松縄パークロード１１０２,,37,201,7600079,,,,,,,2023-12-08,1,,,,,グリーンコネクト,0
560,2500001025349,新規,0,2023-12-08,2023-12-08,株式会社徳山石材,,株式会社,愛媛県,西予市,宇和町新城９１８番地,,38,214,7970006,,,,,,,2023-12-08,1,,,,,トクヤマセキザイ,0
572,3010001240517,新規,0,2023-12-08,2023-12-08,株式会社ＣＧＥｎｇｉｎｅ,,株式会社,東京都,中央区,新川１丁目２８番２５号東京ダイヤビルディング３号館１１階,,13,102,1040033,,,,,,,2023-12-08,1,,,,,シージーエンジン,0
573,3010001240616,新規,0,2023-12-08,2023-12-08,株式会社Ｄｅｅｐｃｒａｆｔ,,株式会社,東京都,文京区,本郷６丁目２５番１４号,,13,105,1130033,,,,,,,2023-12-08,1,,,,,ディープクラフト,0
576,3010003042382,新規,0,2023-12-08,2023-12-08,合同会社ｒｉｃｃｏ,,合同会社,東京都,中央区,銀座８丁目７番２号永寿ビル５階,,13,102,1040061,,,,,,,2023-12-08,1,,,,,リッコ,0
580,3010405022767,新規,0,2023-12-08,2023-12-08,Ｍｏｍｉｊｉ　Ｌｏｇｉｓｔｉｃｓ特定目的会社,,その他の設立登記法人,東京都,港区,六本木１丁目９番１０号アークヒルズ仙石山森タワー４０階,,13,103,1060032,,,,,,,2023-12-08,1,,,,,モミジロジスティックス,0
582,3010501051414,新規,0,2023-12-08,2023-12-08,芝崎商会株式会社,,株式会社,東京都,台東区,千束３丁目２３－１１,,13,106,1110031,,,,,,,2023-12-08,1,,,,,シバザキショウカイ,0
587,3010601064274,新規,0,2023-12-08,2023-12-08,アレシア不動産株式会社,,株式会社,東京都,墨田区,東墨田１丁目７番４号２Ｆ,,13,107,1310042,,,,,,,2023-12-08,1,,,,,アレシアフドウサン,0
588,3010601064282,新規,0,2023-12-08,2023-12-08,Ｆｉｓｋ　Ｊａｐａｎ株式会社,,株式会社,東京都,江東区,有明３丁目７番１１号有明パークビル２０階,,13,108,1350063,,,,,,,2023-12-08,1,,,,,フィスクジャパン,0
590,3010603010516,新規,0,2023-12-08,2023-12-08,合同会社ＢＦＣ,,合同会社,東京都,墨田区,業平２丁目１６－１０イットービル３０１,,13,107,1300002,,,,,,,2023-12-08,1,,,,,ビーエフシー,0
598,3010701045240,新規,0,2023-12-08,2023-12-08,ななばんしぼり株式会社,,株式会社,東京都,品川区,北品川１丁目２３番２４号上矢ビル１Ｆ,,13,109,1400001,,,,,,,2023-12-08,1,,,,,ナナバンシボリ,0
603,3010901054314,新規,0,2023-12-08,2023-12-08,株式会社ＡＴＬＡＳ,,株式会社,東京都,世田谷区,砧６丁目３番７－２０４号,,13,112,1570073,,,,,,,2023-12-08,1,,,,,アトラス,0
614,3011001158600,新規,0,2023-12-08,2023-12-08,株式会社サキミエ,,株式会社,東京都,渋谷区,道玄坂１丁目１０番８号渋谷道玄坂東急ビル２Ｆ－Ｃ,,13,113,1500043,,,,,,,2023-12-08,1,,,,,サキミエ,0
615,3011001158633,新規,0,2023-12-08,2023-12-08,楽しい株式会社,,株式会社,東京都,渋谷区,恵比寿西１丁目４番１号,,13,113,1500021,,,,,,,2023-12-08,1,,,,,タノシイ,0
616,3011001158666,新規,0,2023-12-08,2023-12-08,株式会社Ｌｉｎｅｓ,,株式会社,東京都,渋谷区,道玄坂１丁目１２番１号渋谷マークシティウエスト１６Ｆ,,13,113,1500043,,,,,,,2023-12-08,1,,,,,ラインズ,0
617,3011005010303,新規,0,2023-12-08,2023-12-08,一般社団法人ＡＧＡライズクリニック,,その他の設立登記法人,東京都,渋谷区,代々木２丁目１１番２０号新宿成和ビル９階,,13,113,1510053,,,,,,,2023-12-08,1,,,,,エージーエーライズクリニック,0
619,3011101105403,新規,0,2023-12-08,2023-12-08,株式会社ワン・プロパティ,,株式会社,東京都,新宿区,西新宿３丁目９番２号,,13,104,1600023,,,,,,,2023-12-08,1,,,,,ワンプロパティ,0
624,3011103013827,新規,0,2023-12-08,2023-12-08,合同会社ＣａｐｅＴｅｋ,,合同会社,東京都,新宿区,納戸町１５－９武石ビル３Ｆ,,13,104,1620837,,,,,,,2023-12-08,1,,,,,チャペテク,0
625,3011201025096,新規,0,2023-12-08,2023-12-08,株式会社ＦＩＴＮＥＳＳ　ＣＯＮＳＵＬＴＩＮＧ,,株式会社,東京都,中野区,新井１丁目１０－１２中野８８ビル２Ｆ,,13,114,1650026,,,,,,,2023-12-08,1,,,,,フィットネスコンサルティング,0
629,3011301029245,新規,0,2023-12-08,2023-12-08,株式会社ｆｒｅａｋ,,株式会社,東京都,杉並区,阿佐谷北１丁目３３番１６号,,13,115,1660001,,,,,,,2023-12-08,1,,,,,フリーク,0
639,3011701026841,新規,0,2023-12-08,2023-12-08,株式会社ｃｋエステート,,株式会社,東京都,江戸川区,南小岩４丁目１３番１０号ｃｋ小岩３０１,,13,123,1330056,,,,,,,2023-12-08,1,,,,,シーケーエステート,0
644,3011803005974,新規,0,2023-12-08,2023-12-08,Ｂｕｉｌｄｅｒ合同会社,,合同会社,東京都,足立区,南花畑２丁目３２番１６－３０１号,,13,121,1210062,,,,,,,2023-12-08,1,,,,,ビルダー,0
645,3012305002072,新規,0,2023-12-08,2023-12-08,一般社団法人相原プロレス,,その他の設立登記法人,東京都,町田市,相原町１６６７番地１木下アパート１０２号,,13,209,1940211,,,,,,,2023-12-08,1,,,,,アイハラプロレス,0
660,3020003025139,新規,0,2023-12-08,2023-12-08,合同会社ばんない,,合同会社,神奈川県,横浜市神奈川区,羽沢南４丁目１０番１７号,,14,102,2210866,,,,,,,2023-12-08,1,,,,,バンナイ,0
661,3020005016210,新規,0,2023-12-08,2023-12-08,医療法人社団ＫＥＹ,,その他の設立登記法人,神奈川県,横浜市鶴見区,豊岡町１４番３１号１階,,14,101,2300062,,,,,,,2023-12-08,1,,,,,ケーイーワイ,0
671,3021005012959,新規,0,2023-12-08,2023-12-08,医療法人社団いとう会,,その他の設立登記法人,神奈川県,厚木市,旭町２丁目１２番１５号１階,,14,212,2430014,,,,,,,2023-12-08,1,,,,,イトウカイ,0
682,3030001157577,新規,0,2023-12-08,2023-12-08,株式会社ＰＲＥＴｉＡ,,株式会社,埼玉県,加須市,花崎北１丁目１８番１号杉田ビル２階,,11,210,3470016,,,,,,,2023-12-08,1,,,,,プリティア,0
697,3040003023883,新規,0,2023-12-08,2023-12-08,合同会社Ｆｉｒｓｔ　Ｓｔｅｐ,,合同会社,千葉県,習志野市,東習志野５丁目６番１２－４０２号,,12,216,2750001,,,,,,,2023-12-08,1,,,,,ファーストステップ,0
698,3040003023891,新規,0,2023-12-08,2023-12-08,ハートロック合同会社,,合同会社,千葉県,千葉市中央区,長洲１丁目２４番９号竹島店舗,,12,101,2600854,,,,,,,2023-12-08,1,,,,,ハートロック,0
701,3050003007992,新規,0,2023-12-08,2023-12-08,Ｄ　ＧＲＯＵＰ合同会社,,合同会社,茨城県,筑西市,藤ケ谷２０９１番地ロマ１０３号,,08,227,3080112,,,,,,,2023-12-08,1,,,,,ディーグループ,0
703,3070001041125,新規,0,2023-12-08,2023-12-08,片岡物産株式会社,,株式会社,群馬県,高崎市,片岡町２丁目３３－３,,10,202,3700862,,,,,,,2023-12-08,1,,,,,,0
704,3070001041158,新規,0,2023-12-08,2023-12-08,アジア人材開発機構株式会社,,株式会社,群馬県,沼田市,上沼須町１０７番地２,,10,206,3780011,,,,,,,2023-12-08,1,,,,,アジアジンザイカイハツキコウ,0
708,3090001018451,新規,0,2023-12-08,2023-12-08,ＷＥＥＤ株式会社,,株式会社,山梨県,甲斐市,西八幡２７０５番地１－２０２,,19,210,4000117,,,,,,,2023-12-08,1,,,,,ウィード,0
711,3100003007302,新規,0,2023-12-08,2023-12-08,合同会社加美,,合同会社,長野県,下伊那郡喬木村,２５３７番地,,20,415,3951100,,,,,,,2023-12-08,1,,,,,カミ,0
721,3120001258878,新規,0,2023-12-08,2023-12-08,ＲＨ株式会社,,株式会社,大阪府,大阪市大正区,千島１丁目１０番１０号エスポワール４３,,27,108,5510003,,,,,,,2023-12-08,1,,,,,アールエッチ,0
722,3120001260454,新規,0,2023-12-08,2023-12-08,Ｓ．Ｆトレーディング株式会社,,株式会社,大阪府,大阪市北区,梅田１丁目１－３大阪駅前第３ビル２９階１－１－１号室,,27,127,5300001,,,,,,,2023-12-08,1,,,,,エスエフトレーディング,0
725,3120003025450,新規,0,2023-12-08,2023-12-08,＿梧合同会社,00132919,合同会社,大阪府,大阪市城東区,今福南４丁目６番５９号Ｊａｃ．’ｓＨｏｕｓｅ１Ｆ－Ａ号室,,27,118,5360003,,,,,,,2023-12-08,1,,,,,シンゴ,0
735,3120901048461,新規,0,2023-12-08,2023-12-08,株式会社関西ＫＡＬＢＡＮ,,株式会社,大阪府,摂津市,新在家１丁目２７番３号,,27,224,5660055,,,,,,,2023-12-08,1,,,,,カンサイカルバン,0
736,3122001037642,新規,0,2023-12-08,2023-12-08,サービス管理責任者求人求職株式会社,,株式会社,大阪府,大東市,太子田１丁目４－２８,,27,218,5740045,,,,,,,2023-12-08,1,,,,,サービスカンリセキニンシャキュウジンキュウショク,0
740,3130001075876,新規,0,2023-12-08,2023-12-08,株式会社ハウジー,,株式会社,京都府,長岡京市,開田２丁目８番１０号,,26,209,6170826,,,,,,,2023-12-08,1,,,,,ハウジー,0
748,3140001132511,新規,0,2023-12-08,2023-12-08,株式会社歯ＥＮ,,株式会社,兵庫県,西脇市,西脇３２８番地,,28,213,6770015,,,,,,,2023-12-08,1,,,,,シエン,0
749,3140001132593,新規,0,2023-12-08,2023-12-08,株式会社ＬＥＧＡＣＹ,,株式会社,兵庫県,丹波市,氷上町稲畑３４３番地１,,28,223,6693581,,,,,,,2023-12-08,1,,,,,レガシィ,0
755,3140003019905,新規,0,2023-12-08,2023-12-08,合同会社ｂａｓｅ　ａｊｉｔｏ,,合同会社,兵庫県,丹波篠山市,西古佐１４８－７,,28,221,6692221,,,,,,,2023-12-08,1,,,,,ベースアジト,0
756,3140005026825,新規,0,2023-12-08,2023-12-08,一般社団法人兵庫県クレー射撃協会,,その他の設立登記法人,兵庫県,神戸市須磨区,鷹取町２丁目１番１２号１０１,,28,107,6540039,,,,,,,2023-12-08,1,,,,,,0
763,3160003003056,新規,0,2023-12-08,2023-12-08,ハヤザキファーム合同会社,,合同会社,滋賀県,長浜市,早崎町１１２４番地,,25,203,5260124,,,,,,,2023-12-08,1,,,,,ハヤザキファーム,0
769,3180001159195,新規,0,2023-12-08,2023-12-08,Ｎｅｓｔ　Ｌｉｎｋｓ株式会社,,株式会社,愛知県,名古屋市港区,名四町１８８番地,,23,111,4550053,,,,,,,2023-12-08,1,,,,,ネストリンクス,0
770,3180001159237,新規,0,2023-12-08,2023-12-08,株式会社Ｋ‐ＵＰ,,株式会社,愛知県,常滑市,森西町２丁目４６番地,,23,216,4790845,,,,,,,2023-12-08,1,,,,,ケーアップ,0
774,3180303005931,新規,0,2023-12-08,2023-12-08,合同会社ｐｉａｃｅｒｅ,,合同会社,愛知県,豊田市,和会町南山４５番地２,,23,211,4701216,,,,,,,2023-12-08,1,,,,,ピアチェーレ,0
775,3190001030941,新規,0,2023-12-08,2023-12-08,株式会社イチハル,,株式会社,三重県,志摩市,阿児町鵜方２８８４番地５,,24,215,5170501,,,,,,,2023-12-08,1,,,,,,0
779,3190003004530,新規,0,2023-12-08,2023-12-08,ＨＡＡＤＨＩ　ＭＯＴＯＲＳ合同会社,,合同会社,三重県,鈴鹿市,岡田２丁目４番２０号パレスＳＳ・Ａ－１Ｃ,,24,207,5130027,,,,,,,2023-12-08,1,,,,,ハアディモータース,0
782,3220001025723,新規,0,2023-12-08,2023-12-08,株式会社Ｍ‐ＴＥＣＨ,,株式会社,石川県,かほく市,浜北壱号１番地１３,,17,209,9291174,,,,,,,2023-12-08,1,,,,,エムテック,0
803,3290001103968,新規,0,2023-12-08,2023-12-08,株式会社メディカルジャパン,,株式会社,福岡県,春日市,須玖北５丁目１７４番地ライトパープル南３０１号,,40,218,8160864,,,,,,,2023-12-08,1,,,,,,0
825,3380001034171,新規,0,2023-12-08,2023-12-08,いわきタイヤ販売株式会社,,株式会社,福島県,いわき市,平字下川原５番地の１リバーサイドＳ１０１,,07,204,9708026,,,,,,,2023-12-08,1,,,,,イワキタイヤハンバイ,0
832,3430001090614,新規,0,2023-12-08,2023-12-08,株式会社ｒｕＮｅ,,株式会社,北海道,札幌市清田区,北野七条４丁目１１番２０号,,01,110,0040867,,,,,,,2023-12-08,1,,,,,ルーン,0
834,3430003015734,新規,0,2023-12-08,2023-12-08,合同会社ソバチョウヒューマンリソース,,合同会社,北海道,札幌市中央区,大通西１１丁目４番地,,01,101,0600042,,,,,,,2023-12-08,1,,,,,ソバチョウヒューマンリソース,0
837,3480001012316,新規,0,2023-12-08,2023-12-08,阿讃資源開発株式会社,,株式会社,徳島県,板野郡上板町,引野字前坂口３２番地２,,36,405,7711311,,,,,,,2023-12-08,1,,,,,アサンシゲンカイハツ,0
839,3500001025348,新規,0,2023-12-08,2023-12-08,温熱考房株式会社,,株式会社,愛媛県,松山市,正円寺１丁目１番２１号,,38,201,7900904,,,,,,,2023-12-08,1,,,,,オンネツコウボウ,0
847,4010001240615,新規,0,2023-12-08,2023-12-08,株式会社ＱｕａｃｋＳｈｉｆｔ,,株式会社,東京都,文京区,本郷６丁目２５番１４号,,13,105,1130033,,,,,,,2023-12-08,1,,,,,クアックシフト,0
856,4010401178950,新規,0,2023-12-08,2023-12-08,株式会社バッテリープラス,,株式会社,東京都,港区,海岸１丁目４番２２号ＳＮビル８－１０Ｆ,,13,103,1050022,,,,,,,2023-12-08,1,,,,,バッテリープラス,0
857,4010401178975,新規,0,2023-12-08,2023-12-08,株式会社ベルナベウ,,株式会社,東京都,港区,虎ノ門３丁目１８番６号朝日虎ノ門マンション内,,13,103,1050001,,,,,,,2023-12-08,1,,,,,ベルナベウ,0
858,4010401179032,新規,0,2023-12-08,2023-12-08,マネックスホールディングス株式会社,,株式会社,東京都,港区,赤坂１丁目１２番３２号,,13,103,1070052,,,,,,,2023-12-08,1,,,,,マネックスホールディングス,0
882,4010903008630,新規,0,2023-12-08,2023-12-08,合同会社アイリー,,合同会社,東京都,世田谷区,八幡山３丁目３５番２３号バンデューセン１１０,,13,112,1560056,,,,,,,2023-12-08,1,,,,,アイリー,0
883,4010903008639,新規,0,2023-12-08,2023-12-08,合同会社ジルカエイト,,合同会社,東京都,世田谷区,池尻４丁目２９番１９号山内ハイツ３０１,,13,112,1540001,,,,,,,2023-12-08,1,,,,,ジルカエイト,0
888,4011001158681,新規,0,2023-12-08,2023-12-08,株式会社葵華,,株式会社,東京都,渋谷区,神宮前３丁目１８番１６号,,13,113,1500001,,,,,,,2023-12-08,1,,,,,アイカ,0
890,4011005010293,新規,0,2023-12-08,2023-12-08,行政書士法人オーシャン国際事務所,,その他の設立登記法人,東京都,目黒区,目黒１丁目２４番１８号福山ビル８階,,13,110,1530063,,,,,,,2023-12-08,1,,,,,オーシャンコクサイジムショ,0
896,4011101105369,新規,0,2023-12-08,2023-12-08,株式会社ＡＣＣＯＲＤ,,株式会社,東京都,新宿区,西新宿７丁目４番７号イマス浜田ビル３Ｆ－Ｂ,,13,104,1600023,,,,,,,2023-12-08,1,,,,,アコード,0
897,4011203004246,新規,0,2023-12-08,2023-12-08,合同会社ｈａｓｈｉｍｏｔｏ,,合同会社,東京都,中野区,南台２丁目３９番１１号イリス南台１０１,,13,114,1640014,,,,,,,2023-12-08,1,,,,,ハシモト,0
902,4011601027360,新規,0,2023-12-08,2023-12-08,アエラス・アドバイザーズ株式会社,,株式会社,東京都,練馬区,南大泉２丁目２－１２,,13,120,1780064,,,,,,,2023-12-08,1,,,,,アエラスアドバイザーズ,0
904,4012305002071,新規,0,2023-12-08,2023-12-08,一般社団法人上野山の会,,その他の設立登記法人,東京都,町田市,大蔵町２０５２番地１,,13,209,1950062,,,,,,,2023-12-08,1,,,,,ウエノヤマノカイ,0
921,4020001154797,新規,0,2023-12-08,2023-12-08,株式会社オブジェクト,,株式会社,神奈川県,横浜市西区,北幸２丁目１０番地４８むつみビル３Ｆ,,14,103,2200004,,,,,,,2023-12-08,1,,,,,オブジェクト,0
923,4020003025121,新規,0,2023-12-08,2023-12-08,合同会社横浜青葉経営コンサルティング,,合同会社,神奈川県,横浜市青葉区,奈良５丁目２２番１号３１２号室,,14,117,2270038,,,,,,,2023-12-08,1,,,,,ヨコハマアオバケイエイコンサルティング,0
929,4021001080918,新規,0,2023-12-08,2023-12-08,株式会社吉瑞総建,,株式会社,神奈川県,平塚市,根坂間２５８－１睦,,14,203,2540904,,,,,,,2023-12-08,1,,,,,キチズイソウケン,0
930,4021003013883,新規,0,2023-12-08,2023-12-08,合同会社Ｆｒｅｅ,,合同会社,神奈川県,海老名市,杉久保北２丁目９番５－６号,,14,215,2430410,,,,,,,2023-12-08,1,,,,,フリー,0
939,4030001157527,新規,0,2023-12-08,2023-12-08,株式会社ワールドキリ,,株式会社,埼玉県,さいたま市大宮区,桜木町４丁目１６９番地２第１５ユーセードムス大宮３０５号室,,11,103,3300854,,,,,,,2023-12-08,1,,,,,ワールドキリ,0
955,4040001131258,新規,0,2023-12-08,2023-12-08,株式会社Ｓｅｒｒａ,,株式会社,千葉県,千葉市美浜区,打瀬１丁目６番地４ファーストウイングＡ－３０５号,,12,106,2610013,,,,,,,2023-12-08,1,,,,,セラ,0
960,4040003023882,新規,0,2023-12-08,2023-12-08,Ｇｅｍｉｎｉ合同会社,,合同会社,千葉県,千葉市美浜区,稲毛海岸５丁目２７番９号,,12,106,2610005,,,,,,,2023-12-08,1,,,,,ジェミニ,0
995,4120001260362,新規,0,2023-12-08,2023-12-08,株式会社ＫＮｉＴ,,株式会社,大阪府,大阪市中央区,南本町２丁目１番１号本町サザンビルＴＤフロア１Ｆ,,27,128,5410054,,,,,,,2023-12-08,1,,,,,ニット,0
996,4120001260503,新規,0,2023-12-08,2023-12-08,ＸＹＫ株式会社,,株式会社,大阪府,大阪市北区,梅田１丁目２番２号大阪駅前第２ビル１２－１２,,27,127,5300001,,,,,,,2023-12-08,1,,,,,エックスワイケー,0
997,4120001260528,新規,0,2023-12-08,2023-12-08,東馬株式会社,,株式会社,大阪府,大阪市住吉区,万代東１丁目３番２２－１１１号,,27,120,5580056,,,,,,,2023-12-08,1,,,,,トウマ,0
999,4120003025466,新規,0,2023-12-08,2023-12-08,合同会社播磨,,合同会社,大阪府,大阪市西成区,太子１丁目１３番２８号,,27,122,5570002,,,,,,,2023-12-08,1,,,,,ハリマ,0
1000,4120003025482,新規,0,2023-12-08,2023-12-08,合同会社ｔｗｏＡＣＥ,,合同会社,大阪府,大阪市北区,梅田１丁目２番２号大阪駅前第２ビル１２－１２,,27,127,5300001,,,,,,,2023-12-08,1,,,,,ツーエース,0
1002,4120005024037,新規,0,2023-12-08,2023-12-08,税理士法人ＢＬＴ,,その他の設立登記法人,大阪府,大阪市中央区,平野町２丁目４番１１号,,27,128,5410046,,,,,,,2023-12-08,1,,,,,ビーエルティ,0
1003,4120101068615,新規,0,2023-12-08,2023-12-08,ＵＰ　ＷＥＳＴ株式会社,,株式会社,大阪府,羽曳野市,伊賀１丁目１６番１７号,,27,222,5830876,,,,,,,2023-12-08,1,,,,,アップウェスト,0
1005,4120103005566,新規,0,2023-12-08,2023-12-08,合同会社Ｍａｒｉｏ,,合同会社,大阪府,羽曳野市,伊賀６丁目６番２－２１０号,,27,222,5830876,,,,,,,2023-12-08,1,,,,,マリオ,0
1010,4120901048460,新規,0,2023-12-08,2023-12-08,株式会社高槻の納豆屋,,株式会社,大阪府,高槻市,奈佐原１丁目６番１４号,,27,207,5691041,,,,,,,2023-12-08,1,,,,,タカツキノナットウヤ,0
1014,4120903004949,新規,0,2023-12-08,2023-12-08,スクレテール合同会社,,合同会社,大阪府,箕面市,箕面２丁目１２－３６－１０,,27,220,5620001,,,,,,,2023-12-08,1,,,,,スクレテール,0
1020,4130001075850,新規,0,2023-12-08,2023-12-08,ツカキ・ログノート・ジャパン株式会社,,株式会社,京都府,京都市下京区,烏丸通仏光寺上る二帖半敷町６６１番地,,26,106,6008412,,,,,,,2023-12-08,1,,,,,ツカキログノートジャパン,0
1021,4130001075875,新規,0,2023-12-08,2023-12-08,三宝株式会社,,株式会社,京都府,京都市伏見区,深草西浦町８丁目４５番地６、２０３号室,,26,109,6120029,,,,,,,2023-12-08,1,,,,,サンポウ,0
1032,4140001132618,新規,0,2023-12-08,2023-12-08,株式会社そらしま,,株式会社,兵庫県,宝塚市,雲雀丘１丁目２番１１号,,28,214,6650805,,,,,,,2023-12-08,1,,,,,ソラシマ,0
1034,4150001026926,新規,0,2023-12-08,2023-12-08,株式会社ｓｅｅｎｅｓｓ,,株式会社,奈良県,天理市,庵治町２０９番地８,,29,204,6320086,,,,,,,2023-12-08,1,,,,,シーネス,0
1038,4160001025530,新規,0,2023-12-08,2023-12-08,株式会社ＴＣＬ,,株式会社,滋賀県,野洲市,小篠原１１１１－１－２０３,,25,210,5202331,,,,,,,2023-12-08,1,,,,,ティーシーエル,0
1044,4180001159252,新規,0,2023-12-08,2023-12-08,株式会社ＡＳＲｉＺＥ,,株式会社,愛知県,東海市,名和町三番割上３１番地,,23,222,4760002,,,,,,,2023-12-08,1,,,,,アスライズ,0
1045,4180001159260,新規,0,2023-12-08,2023-12-08,株式会社ＬＩＦＩＸ,,株式会社,愛知県,名古屋市北区,柳原４丁目７－２３ＭＯＤＵＬＯＲ名城公園２０３,,23,103,4620845,,,,,,,2023-12-08,1,,,,,リフィックス,0
1050,4180303005930,新規,0,2023-12-08,2023-12-08,合同会社Ｗｉｚ,,合同会社,愛知県,岡崎市,東大友町字西浦１４番地１,,23,202,4440903,,,,,,,2023-12-08,1,,,,,ウィズ,0
1059,4240001062524,新規,0,2023-12-08,2023-12-08,株式会社ＴＥＲＲＡＣＥ,,株式会社,広島県,広島市佐伯区,海老園４丁目２番１８号,,34,108,7315135,,,,,,,2023-12-08,1,,,,,テラス,0
1061,4240003006446,新規,0,2023-12-08,2023-12-08,いしうちマネジメント合同会社,,合同会社,広島県,広島市中区,上八丁堀４番１号,,34,101,7300012,,,,,,,2023-12-08,1,,,,,イシウチマネジメント,0
1069,4260003004514,新規,0,2023-12-08,2023-12-08,ＧＲＥＥＮ合同会社,,合同会社,岡山県,岡山市北区,島田本町２丁目２番２５号２０１号室,,33,101,7000033,,,,,,,2023-12-08,1,,,,,グリーン,0
1073,4290001103959,新規,0,2023-12-08,2023-12-08,株式会社友野,,株式会社,福岡県,久留米市,西町１１１番地８,,40,203,8300038,,,,,,,2023-12-08,1,,,,,トモノ,0
1074,4290001103983,新規,0,2023-12-08,2023-12-08,株式会社トランポリンハウスａｍ．ｅｘ,,株式会社,福岡県,大野城市,御笠川４丁目５番８号,,40,219,8160912,,,,,,,2023-12-08,1,,,,,トランポリンハウスアメックス,0
1075,4290005019210,新規,0,2023-12-08,2023-12-08,ＮＰＯ法人ＢＲＡＮＤＥＸ０４,,その他の設立登記法人,福岡県,那珂川市,松木４丁目１番７－３１３号（サンリヤン博多南）,,40,231,8111251,,,,,,,2023-12-08,1,,,,,,0
1077,4290801030114,新規,0,2023-12-08,2023-12-08,株式会社北九州テクニカルサービス,,株式会社,福岡県,北九州市戸畑区,土取町１３番１３号,,40,105,8040014,,,,,,,2023-12-08,1,,,,,キタキュウシュウテクニカルサービス,0
1080,4300001013545,新規,0,2023-12-08,2023-12-08,株式会社ＹＯＳＨＩＤＡ．,,株式会社,佐賀県,三養基郡基山町,大字小倉１３０番地３モンテ・リーヴルＢ棟１０６号室,,41,341,8410201,,,,,,,2023-12-08,1,,,,,ヨシダ,0
1083,4320005010116,新規,0,2023-12-08,2023-12-08,一般社団法人夢プロジェクト,,その他の設立登記法人,大分県,中津市,大字蛎瀬７７０番地,,44,203,8710007,,,,,,,2023-12-08,1,,,,,ユメプロジェクト,0
1093,4370005010714,新規,0,2023-12-08,2023-12-08,特定非営利活動法人仙塩広域連携ランドバンク,,その他の設立登記法人,宮城県,塩竈市,新浜町１丁目２０番４８号,,04,203,9850001,,,,,,,2023-12-08,1,,,,,センエンコウイキレンケイランドバンク,0
1107,4430003015733,新規,0,2023-12-08,2023-12-08,スターク合同会社,,合同会社,北海道,札幌市東区,伏古十条４丁目２番２号,,01,103,0070870,,,,,,,2023-12-08,1,,,,,スターク,0
1112,4500001025347,新規,0,2023-12-08,2023-12-08,億昇科技日本株式会社,,株式会社,愛媛県,東温市,志津川南１丁目３番地９,,38,215,7910206,,,,,,,2023-12-08,1,,,,,オクショウカギニホン,0
1122,5010001240507,新規,0,2023-12-08,2023-12-08,Ａ＆Ｅ株式会社,,株式会社,東京都,中央区,日本橋蛎殻町１丁目４番６号,,13,102,1030014,,,,,,,2023-12-08,1,,,,,エーアンドイー,0
1123,5010001240647,新規,0,2023-12-08,2023-12-08,株式会社ＬｉｎｅＦｅｅｄ,,株式会社,東京都,中央区,銀座１丁目１２番４号Ｎ＆ＥＢＬＤ．６Ｆ,,13,102,1040061,,,,,,,2023-12-08,1,,,,,ラインフィード,0
1124,5010001240655,新規,0,2023-12-08,2023-12-08,株式会社エンノンテクノロジー,,株式会社,東京都,千代田区,神田須田町１丁目３番９号,,13,101,1010041,,,,,,,2023-12-08,1,,,,,エンノンテクノロジー,0
1140,5010401178933,新規,0,2023-12-08,2023-12-08,Ｎａｕｔｉｃａ　Ｓｈｉｐｐｉｎｇ＆Ｌｏｇｉｓｔｉｃｓ　Ｊａｐａｎ株式会社,,株式会社,東京都,港区,西新橋３丁目２４番８号山内ビル３階,,13,103,1050003,,,,,,,2023-12-08,1,,,,,ノーティカシッピングアンドロジスティクスジャパン,0
1141,5010401179007,新規,0,2023-12-08,2023-12-08,株式会社全力ドローン,,株式会社,東京都,港区,西新橋１丁目１１番８号安井ビル３階,,13,103,1050003,,,,,,,2023-12-08,1,,,,,ゼンリョクドローン,0
1146,5010501051461,新規,0,2023-12-08,2023-12-08,株式会社ＡＳＡ,,株式会社,東京都,台東区,蔵前３丁目１１番９号,,13,106,1110051,,,,,,,2023-12-08,1,,,,,エーエスエー,0
1147,5010501051478,新規,0,2023-12-08,2023-12-08,株式会社北斗建設,,株式会社,東京都,台東区,柳橋１丁目７－１,,13,106,1110052,,,,,,,2023-12-08,1,,,,,ホクトケンセツ,0
1151,5010601064272,新規,0,2023-12-08,2023-12-08,株式会社ＧＡＯ,,株式会社,東京都,墨田区,菊川３丁目９－６シャンボール菊川４０２号室,,13,107,1300024,,,,,,,2023-12-08,1,,,,,ジーエーオー,0
1153,5010603010514,新規,0,2023-12-08,2023-12-08,プラナカン・シンガポール料理合同会社,,合同会社,東京都,江東区,大島８丁目３番４号シャトレハタノ２０３,,13,108,1360072,,,,,,,2023-12-08,1,,,,,プラナカンシンガポールリョウリ,0
1155,5010703006981,新規,0,2023-12-08,2023-12-08,Ｔｈｉｒｄｔｅｃｈ合同会社,,合同会社,東京都,品川区,上大崎２丁目６番２５－４１４号コンフォリア目黒長者丸,,13,109,1410021,,,,,,,2023-12-08,1,,,,,サードテック,0
1158,5010801034587,新規,0,2023-12-08,2023-12-08,株式会社ＢａｒａｎｓＵ,,株式会社,東京都,大田区,大森西３丁目２０番９号フォレストコート２０１,,13,111,1430015,,,,,,,2023-12-08,1,,,,,バランス,0
1168,5011001158623,新規,0,2023-12-08,2023-12-08,株式会社ビーズホールディングス,,株式会社,東京都,目黒区,東山１丁目１番２号,,13,110,1530043,,,,,,,2023-12-08,1,,,,,ビーズホールディングス,0
1169,5011001158672,新規,0,2023-12-08,2023-12-08,株式会社Ｐｅａｒｌ　Ａｇｅｎｃｙ,,株式会社,東京都,渋谷区,恵比寿南１丁目２０番６号第２１荒井ビル４階,,13,113,1500022,,,,,,,2023-12-08,1,,,,,パールエージェンシー,0
1171,5011003018016,新規,0,2023-12-08,2023-12-08,Ｇｌｏｂａｌ　Ｃｉｔｉｚｅｎ　Ｈｕｂ合同会社,,合同会社,東京都,渋谷区,広尾２丁目１番１８号イソベコーポ１０１,,13,113,1500012,,,,,,,2023-12-08,1,,,,,グローバルシチズンハブ,0
1172,5011003018040,新規,0,2023-12-08,2023-12-08,総和経営管理合同会社,,合同会社,東京都,渋谷区,渋谷３丁目１５番３号８Ｆ,,13,113,1500002,,,,,,,2023-12-08,1,,,,,ソウワケイエイカンリ,0
1180,5011101105426,新規,0,2023-12-08,2023-12-08,株式会社キセル,,株式会社,東京都,新宿区,西新宿３丁目３番１３号西新宿水間ビル２Ｆ,,13,104,1600023,,,,,,,2023-12-08,1,,,,,キセル,0
1181,5011103013825,新規,0,2023-12-08,2023-12-08,レグアップ合同会社,,合同会社,東京都,新宿区,西新宿３丁目３番１３号西新宿水間ビル２Ｆ,,13,104,1600023,,,,,,,2023-12-08,1,,,,,レグアップ,0
1187,5011401025670,新規,0,2023-12-08,2023-12-08,株式会社ミチハル,,株式会社,東京都,板橋区,高島平２丁目２１番１－５０２号,,13,119,1750082,,,,,,,2023-12-08,1,,,,,ミチハル,0
1188,5011401025679,新規,0,2023-12-08,2023-12-08,株式会社福ねこ,,株式会社,東京都,板橋区,上板橋３丁目２番１号,,13,119,1740076,,,,,,,2023-12-08,1,,,,,フクネコ,0
1191,5011501030018,新規,0,2023-12-08,2023-12-08,株式会社Ｐｌｕｓ　ｓｈｉｎｅ,,株式会社,東京都,北区,神谷１丁目１１番１１－１３０３号,,13,117,1150043,,,,,,,2023-12-08,1,,,,,プラスシャイン,0
1192,5011503005876,新規,0,2023-12-08,2023-12-08,ＱＵＹＮＨ　ＴＨＵ合同会社,,合同会社,東京都,荒川区,西日暮里４丁目２３－３きずなビル４Ｂ号室,,13,118,1160013,,,,,,,2023-12-08,1,,,,,クイントウ,0
1199,5011803005980,新規,0,2023-12-08,2023-12-08,ＧＹＡＧＹＡＧＹＡＧＡＬＬＥＲＹ合同会社,,合同会社,東京都,足立区,中川２丁目１２‐１０,,13,121,1200002,,,,,,,2023-12-08,1,,,,,ギャギャギャギャラリー,0
1202,5012305002070,新規,0,2023-12-08,2023-12-08,一般社団法人グランディール,,その他の設立登記法人,東京都,町田市,三輪緑山１丁目７番地４,,13,209,1950055,,,,,,,2023-12-08,1,,,,,グランディール,0
1215,5020001154813,新規,0,2023-12-08,2023-12-08,株式会社エスライズ,,株式会社,神奈川県,横浜市緑区,十日市場町１４８１番地３ドレッセ横浜十日市場Ｌ４０９号,,14,113,2260025,,,,,,,2023-12-08,1,,,,,エスライズ,0
1218,5020003025145,新規,0,2023-12-08,2023-12-08,合同会社ＬＩＦＩＸ,,合同会社,神奈川県,川崎市川崎区,浜町１丁目２１番５－５０２号リュエル川崎パラッツォ,,14,131,2100851,,,,,,,2023-12-08,1,,,,,リフィックス,0
1222,5021001080917,新規,0,2023-12-08,2023-12-08,株式会社Ｓｈｏｎａｎ　Ｄｅｓｉｇｎ,,株式会社,神奈川県,藤沢市,大庭５６８３－２駒寄９－２０２,,14,205,2510861,,,,,,,2023-12-08,1,,,,,ショウナンデザイン,0
1223,5021001080933,新規,0,2023-12-08,2023-12-08,株式会社研相,,株式会社,神奈川県,足柄上郡大井町,金子１７５９番地５,,14,362,2580019,,,,,,,2023-12-08,1,,,,,ケンソウ,0
1227,5021005012957,新規,0,2023-12-08,2023-12-08,医療法人社団蒼天会,,その他の設立登記法人,神奈川県,藤沢市,大庭５５６０番地の１ユーミーメディカルタウン大庭１階１号室,,14,205,2510861,,,,,,,2023-12-08,1,,,,,ソウテンカイ,0
1236,5030001157550,新規,0,2023-12-08,2023-12-08,株式会社濱島興業,,株式会社,埼玉県,三郷市,戸ケ崎３丁目４０５番地６,,11,237,3410044,,,,,,,2023-12-08,1,,,,,ハマシマコウギョウ,0
1237,5030001157559,新規,0,2023-12-08,2023-12-08,株式会社ＭＲコーポレーション,,株式会社,埼玉県,本庄市,四季の里２丁目２番７号１０１,,11,211,3670039,,,,,,,2023-12-08,1,,,,,エムアールコーポレーション,0
1240,5030003023123,新規,0,2023-12-08,2023-12-08,万達豊洲合同会社,,合同会社,埼玉県,川口市,北原台１丁目１５番４－１０２号,,11,203,3330815,,,,,,,2023-12-08,1,,,,,バンタツホウシュウ,0
1241,5030003023164,新規,0,2023-12-08,2023-12-08,合同会社ワークミラクル,,合同会社,埼玉県,越谷市,北越谷２丁目４２番１２号久保ビル１０２,,11,222,3430026,,,,,,,2023-12-08,1,,,,,ワークミラクル,0
1242,5030003023172,新規,0,2023-12-08,2023-12-08,合同会社プロスペラス,,合同会社,埼玉県,志木市,本町５丁目２４番２１号ＳＨＩＫＩＳＭ４Ｆ,,11,228,3530004,,,,,,,2023-12-08,1,,,,,プロスペラス,0
1243,5030003023189,新規,0,2023-12-08,2023-12-08,合同会社Ｄｉｎｅｔｔｅ,,合同会社,埼玉県,三郷市,早稲田２丁目２８－３５,,11,237,3410018,,,,,,,2023-12-08,1,,,,,ディネット,0
1249,5040001131257,新規,0,2023-12-08,2023-12-08,株式会社星陽商事,,株式会社,千葉県,松戸市,小金原６丁目９番地の１６－４０４号,,12,207,2700021,,,,,,,2023-12-08,1,,,,,セイヨウショウジ,0
1250,5040001131265,新規,0,2023-12-08,2023-12-08,ＫＩＫＯプライベートコンサルティング株式会社,,株式会社,千葉県,船橋市,浜町１丁目５番３棟２１８号,,12,204,2730012,,,,,,,2023-12-08,1,,,,,キコプライベートコンサルティング,0
1251,5040001131273,新規,0,2023-12-08,2023-12-08,株式会社リプロブレイン,,株式会社,千葉県,佐倉市,井野１５５７知脇ビル２階,,12,212,2850855,,,,,,,2023-12-08,1,,,,,リプロブレイン,0
1257,5040005022221,新規,0,2023-12-08,2023-12-08,一般社団法人ＳＯＤＯ,,その他の設立登記法人,千葉県,印西市,小林１５３８番地１,,12,231,2701318,,,,,,,2023-12-08,1,,,,,ソド,0
1259,5050001053921,新規,0,2023-12-08,2023-12-08,株式会社あかりや,,株式会社,茨城県,東茨城郡茨城町,大字大戸１７８２番地６,,08,302,3113114,,,,,,,2023-12-08,1,,,,,アカリヤ,0
1272,5100003007300,新規,0,2023-12-08,2023-12-08,合同会社Ｃ＆Ｍ,,合同会社,長野県,上高井郡小布施町,大字福原１０７番地,,20,541,3810202,,,,,,,2023-12-08,1,,,,,シーアンドエム,0
1282,5120001260436,新規,0,2023-12-08,2023-12-08,和福瑞華株式会社,,株式会社,大阪府,大阪市平野区,加美正覚寺３丁目１番１０号,,27,126,5470006,,,,,,,2023-12-08,1,,,,,ワフクスイカ,0
1283,5120001260444,新規,0,2023-12-08,2023-12-08,ＲＩＴＡＣＯＤＥ株式会社,,株式会社,大阪府,大阪市浪速区,日本橋４丁目３－１３プランドール難波１１０４,,27,111,5560005,,,,,,,2023-12-08,1,,,,,リタコード,0
1284,5120001260460,新規,0,2023-12-08,2023-12-08,羽豊株式会社,,株式会社,大阪府,大阪市生野区,巽北１丁目２１番２９号,00132917,27,116,5440004,,,,,,,2023-12-08,1,,,,,ハネトヨ,0
1285,5120001260469,新規,0,2023-12-08,2023-12-08,株式会社ハルウエ,,株式会社,大阪府,大阪市中央区,北久宝寺町１丁目５番６号堺筋本町アーバンライフ５０２号室,,27,128,5410057,,,,,,,2023-12-08,1,,,,,ハルウエ,0
1286,5120001260477,新規,0,2023-12-08,2023-12-08,株式会社マルイチビル,,株式会社,大阪府,大阪市中央区,博労町３丁目４番１３号,,27,128,5410059,,,,,,,2023-12-08,1,,,,,マルイチビル,0
1287,5120001260519,新規,0,2023-12-08,2023-12-08,株式会社エスアンドパナックスジャパン,,株式会社,大阪府,大阪市生野区,中川西３丁目６番２６号,,27,116,5440032,,,,,,,2023-12-08,1,,,,,エスアンドパナックスジャパン,0
1289,5120003025449,新規,0,2023-12-08,2023-12-08,Ｆｉｒｓｔ　Ｗｏｏｄ合同会社,,合同会社,大阪府,大阪市城東区,今福南４丁目６番５８号Ｊａｃ．’ｓＩＩＨｏｕｓｅ１Ｆ－Ａ号室,00132920,27,118,5360003,,,,,,,2023-12-08,1,,,,,ファーストウッド,0
1300,5120901048451,新規,0,2023-12-08,2023-12-08,ハイウエア株式会社,,株式会社,大阪府,茨木市,下穂積１丁目３番１０５号,,27,211,5670041,,,,,,,2023-12-08,1,,,,,ハイウエア,0
1303,5122001037632,新規,0,2023-12-08,2023-12-08,株式会社ｓｏｌｕａ,,株式会社,大阪府,東大阪市,吉田１丁目１番２６号,,27,227,5780924,,,,,,,2023-12-08,1,,,,,ソルア,0
1314,5140001132625,新規,0,2023-12-08,2023-12-08,株式会社養生ｌｉｆｅ研究所,,株式会社,兵庫県,神戸市中央区,国香通６丁目３番２８号人見文化２０１,,28,110,6510066,,,,,,,2023-12-08,1,,,,,ヨウジョウライフケンキュウショ,0
1315,5140003019894,新規,0,2023-12-08,2023-12-08,合同会社セーフティライフサポート２４,,合同会社,兵庫県,宝塚市,山手台東２丁目１４番２号,,28,214,6650887,,,,,,,2023-12-08,1,,,,,セーフティライフサポートニジュウヨン,0
1320,5170001017914,新規,0,2023-12-08,2023-12-08,株式会社ゆりす,,株式会社,和歌山県,新宮市,船町１丁目１番地の１８,,30,207,6470002,,,,,,,2023-12-08,1,,,,,ユリス,0
1321,5170003001957,新規,0,2023-12-08,2023-12-08,合同会社Ｒｉｌｙ,,合同会社,和歌山県,岩出市,森１２０シャワーガレージテナント,,30,209,6496205,,,,,,,2023-12-08,1,,,,,リリー,0
1323,5180001159219,新規,0,2023-12-08,2023-12-08,株式会社ピカピカ東海,,株式会社,愛知県,清須市,西田中白山１３４番地１,,23,233,4520933,,,,,,,2023-12-08,1,,,,,ピカピカトウカイ,0
1324,5180001159251,新規,0,2023-12-08,2023-12-08,株式会社あきつ,,株式会社,愛知県,知多市,新知台２丁目９番２０号,,23,224,4780064,,,,,,,2023-12-08,1,,,,,アキツ,0
1325,5180003026086,新規,0,2023-12-08,2023-12-08,合同会社ナゴヤキネマ・ノイ,,合同会社,愛知県,名古屋市千種区,今池１丁目６番１３号,,23,101,4640850,,,,,,,2023-12-08,1,,,,,ナゴヤキネマノイ,0
1326,5180003026094,新規,0,2023-12-08,2023-12-08,ソノキセキ合同会社,,合同会社,愛知県,尾張旭市,東印場町２丁目１０番地９,,23,226,4880830,,,,,,,2023-12-08,1,,,,,ソノキセキ,0
1331,5190003004529,新規,0,2023-12-08,2023-12-08,ＡＥＲＯ　ＳＰＥＣ合同会社,,合同会社,三重県,亀山市,菅内町１１９６番地,,24,210,5190132,,,,,,,2023-12-08,1,,,,,エアロスペック,0
1332,5200001041943,新規,0,2023-12-08,2023-12-08,株式会社チェックハウスデジタルソリューション,,株式会社,岐阜県,揖斐郡大野町,大字黒野２０６４番地１,,21,403,5010521,,,,,,,2023-12-08,1,,,,,チェックハウスデジタルソリューション,0
1338,5250001020422,新規,0,2023-12-08,2023-12-08,株式会社ｇｒｏｗｔｈ,,株式会社,山口県,下関市,豊前田町２丁目１番１３号三慶ビル２階,,35,201,7500018,,,,,,,2023-12-08,1,,,,,グロース,0
1347,5290001103958,新規,0,2023-12-08,2023-12-08,株式会社ＧＴＯ,,株式会社,福岡県,飯塚市,大分９７６番地１,,40,205,8200712,,,,,,,2023-12-08,1,,,,,ジーティーオー,0
1348,5290001103974,新規,0,2023-12-08,2023-12-08,株式会社クリア,,株式会社,福岡県,福岡市西区,下山門３丁目７番２号,,40,135,8190052,,,,,,,2023-12-08,1,,,,,クリア,0
1349,5290001103982,新規,0,2023-12-08,2023-12-08,株式会社ＬＡＵＧＨＴＡＬＥ２４,,株式会社,福岡県,福岡市中央区,警固３丁目３番９－５０１号,,40,133,8100023,,,,,,,2023-12-08,1,,,,,ラフテルニジュウヨン,0
1353,5290003014716,新規,0,2023-12-08,2023-12-08,合同会社ＴＲＮ,,合同会社,福岡県,春日市,須玖南１丁目１４９番地アール春日１００２号,,40,218,8160863,,,,,,,2023-12-08,1,,,,,ティーアールエヌ,0
1361,5350003004520,新規,0,2023-12-08,2023-12-08,合同会社グッバイ,,合同会社,宮崎県,小林市,野尻町東麓１２９６番地２,,45,205,8860212,,,,,,,2023-12-08,1,,,,,グッバイ,0
1377,5430001090612,新規,0,2023-12-08,2023-12-08,株式会社エスエービー,,株式会社,北海道,札幌市東区,北二十一条東１５丁目４番１－２０４号,,01,103,0650021,,,,,,,2023-12-08,1,,,,,エスエービー,0
1380,5470003002529,新規,0,2023-12-08,2023-12-08,合同会社りあん,,合同会社,香川県,高松市,牟礼町牟礼２５４６番地１１,,37,201,7610121,,,,,,,2023-12-08,1,,,,,リアン,0
1412,6010401178981,新規,0,2023-12-08,2023-12-08,株式会社Ｏｆｆｉｃｅ　Ｋ,,株式会社,東京都,港区,六本木７丁目１７番２０号六本木明泉ビル５０１,,13,103,1060032,,,,,,,2023-12-08,1,,,,,オフィスケー,0
1427,6011001158614,新規,0,2023-12-08,2023-12-08,株式会社エメラルドプロダクション,,株式会社,東京都,渋谷区,円山町５番５号Ｎａｖｉ渋谷Ｖ３階,,13,113,1500044,,,,,,,2023-12-08,1,,,,,エメラルドプロダクション,0
1428,6011001158622,新規,0,2023-12-08,2023-12-08,株式会社ＤＡＴＡＳＵＣＣＥＳＳ,,株式会社,東京都,目黒区,下目黒１丁目１番１４号コノトラビル７Ｆ,,13,110,1530064,,,,,,,2023-12-08,1,,,,,データサクセス,0
1429,6011001158630,新規,0,2023-12-08,2023-12-08,株式会社ＰＰＫ,,株式会社,東京都,渋谷区,本町２丁目２８番４－１０２号,,13,113,1510071,,,,,,,2023-12-08,1,,,,,ピーピーケー,0
1437,6011101105409,新規,0,2023-12-08,2023-12-08,アセットウェブサービス株式会社,,株式会社,東京都,新宿区,西新宿３丁目３番１３号西新宿水間ビル６階,,13,104,1600023,,,,,,,2023-12-08,1,,,,,アセットウェブサービス,0
1443,6011301029226,新規,0,2023-12-08,2023-12-08,株式会社クモ,,株式会社,東京都,杉並区,本天沼２丁目３２番２２号,,13,115,1670031,,,,,,,2023-12-08,1,,,,,クモ,0
1455,6012401041285,新規,0,2023-12-08,2023-12-08,株式会社ｍｉｘｘｍｏｏｎ,,株式会社,東京都,多摩市,関戸１丁目２０番地の１－３２０６号,,13,224,2060011,,,,,,,2023-12-08,1,,,,,ミックスムーン,0
1456,6012401041302,新規,0,2023-12-08,2023-12-08,株式会社Ｈａｒａｄａ企画,,株式会社,東京都,稲城市,矢野口８００番地,,13,225,2060812,,,,,,,2023-12-08,1,,,,,ハラダキカク,0
1457,6012403006311,新規,0,2023-12-08,2023-12-08,合同会社ＮｅｘｔＧｅｎＧｉｆｔｓ,,合同会社,東京都,狛江市,和泉本町３丁目７番１２号,,13,219,2010003,,,,,,,2023-12-08,1,,,,,ネクストジェンギフツ,0
1466,6020001154787,新規,0,2023-12-08,2023-12-08,株式会社Ｃ．Ｍ,,株式会社,神奈川県,横浜市南区,宿町１丁目２８第２住吉ビル,,14,105,2320017,,,,,,,2023-12-08,1,,,,,シーエム,0
1467,6020001154804,新規,0,2023-12-08,2023-12-08,株式会社ｂｏｋｕｎｏ,,株式会社,神奈川県,横浜市金沢区,谷津町１３番地ミルモディ金沢文庫２０１号,,14,108,2360016,,,,,,,2023-12-08,1,,,,,ボクノ,0
1468,6020001154820,新規,0,2023-12-08,2023-12-08,株式会社田中屋,,株式会社,神奈川県,横浜市泉区,和泉町５６２６番地２スプリングスプラザいずみ野１１２号室,,14,116,2450016,,,,,,,2023-12-08,1,,,,,タナカヤ,0
1471,6020003025152,新規,0,2023-12-08,2023-12-08,城喜元合同会社,,合同会社,神奈川県,横浜市栄区,飯島町１２８５番地１８,,14,115,2440842,,,,,,,2023-12-08,1,,,,,ジョウキゲン,0
1472,6020003025160,新規,0,2023-12-08,2023-12-08,シェアル合同会社,,合同会社,神奈川県,横浜市神奈川区,金港町５番地１４クアドリフォリオ８階,,14,102,2210056,,,,,,,2023-12-08,1,,,,,シェアル,0
1473,6020005016208,新規,0,2023-12-08,2023-12-08,医療法人アクアファミリー歯科,,その他の設立登記法人,神奈川県,横浜市旭区,上白根３丁目４１番１号横浜四季の森フォレオ３階,,14,112,2410002,,,,,,,2023-12-08,1,,,,,アクアファミリーシカ,0
1477,6021001080932,新規,0,2023-12-08,2023-12-08,株式会社Ｇｒｉｎｏａ,,株式会社,神奈川県,横須賀市,小川町１０番地１バウス横須賀中央１００１,,14,201,2380004,,,,,,,2023-12-08,1,,,,,グリノア,0
1487,6030001157541,新規,0,2023-12-08,2023-12-08,株式会社アトラクションホーム,,株式会社,埼玉県,さいたま市緑区,美園３丁目１９番２２号レ・ユノディエールＵｒａｗａＡ－００３号室,,11,109,3360967,,,,,,,2023-12-08,1,,,,,アトラクションホーム,0
1488,6030001157608,新規,0,2023-12-08,2023-12-08,グリーン環境株式会社,,株式会社,埼玉県,さいたま市桜区,大字五関１５０番地２,,11,106,3380815,,,,,,,2023-12-08,1,,,,,グリーンカンキョウ,0
1492,6030003023130,新規,0,2023-12-08,2023-12-08,Ｎ．Ｃ　ＧＲＯＵＰ合同会社,,合同会社,埼玉県,蕨市,南町３丁目２８番１０号南町ハイツ３０１号室,,11,223,3350003,,,,,,,2023-12-08,1,,,,,エヌシーグループ,0
1502,6040001131272,新規,0,2023-12-08,2023-12-08,株式会社Ｓｅｃｏｎｄ　ｂａｓｅ,,株式会社,千葉県,市原市,深城６１０－１,,12,219,2990123,,,,,,,2023-12-08,1,,,,,セカンドベース,0
1508,6040003023872,新規,0,2023-12-08,2023-12-08,合同会社ＳＫＮ,,合同会社,千葉県,市原市,五井中央西２丁目２番地３五井駅前店舗２階,,12,219,2900081,,,,,,,2023-12-08,1,,,,,エスケイエヌ,0
1509,6040003023889,新規,0,2023-12-08,2023-12-08,ＳＧＰ　ＩＴソリューションズ合同会社,,合同会社,千葉県,市川市,島尻２番３４－８１０号,,12,203,2720145,,,,,,,2023-12-08,1,,,,,エスジーピーアイティソリューションズ,0
1515,6060001036610,新規,0,2023-12-08,2023-12-08,東栄株式会社,,株式会社,栃木県,鹿沼市,亀和田町９２５番地１９,,09,205,3220534,,,,,,,2023-12-08,1,,,,,トウエイ,0
1519,6070001041163,新規,0,2023-12-08,2023-12-08,Ｆｒａｎｋ　Ｆｌａｔ株式会社,,株式会社,群馬県,伊勢崎市,波志江町３６２１番地１,,10,204,3720001,,,,,,,2023-12-08,1,,,,,フランクフラット,0
1522,6080101024389,新規,0,2023-12-08,2023-12-08,マイクロアナライズ株式会社,,株式会社,静岡県,伊東市,赤沢３５４－４３,,22,208,4130233,,,,,,,2023-12-08,1,,,,,マイクロアナライズ,0
1523,6080103002938,新規,0,2023-12-08,2023-12-08,合同会社ブランシュ,,合同会社,静岡県,富士市,松岡１３５番地の６,,22,210,4160909,,,,,,,2023-12-08,1,,,,,ブランシュ,0
1538,6120001260476,新規,0,2023-12-08,2023-12-08,株式会社ミライエプラス,,株式会社,大阪府,大阪市中央区,平野町３丁目１番８号,,27,128,5410046,,,,,,,2023-12-08,1,,,,,ミライエプラス,0
1539,6120001260484,新規,0,2023-12-08,2023-12-08,蒲公英花芸設計株式会社,,株式会社,大阪府,大阪市浪速区,難波中２丁目８－９５はるさわビル２階２０１号室,,27,111,5560011,,,,,,,2023-12-08,1,,,,,タンポポカゲイセッケイ,0
1540,6120001260518,新規,0,2023-12-08,2023-12-08,株式会社ＬＵＣＩＡＺ,,株式会社,大阪府,大阪市北区,鶴野町２－２５セイワパレス３０２号室,,27,127,5300014,,,,,,,2023-12-08,1,,,,,ルシアス,0
1545,6120101068662,新規,0,2023-12-08,2023-12-08,株式会社ベイコスメティックス,,株式会社,大阪府,泉佐野市,下瓦屋３丁目３番２７号,,27,213,5980062,,,,,,,2023-12-08,1,,,,,ベイコスメティックス,0
1548,6120103005572,新規,0,2023-12-08,2023-12-08,合同会社縁,,合同会社,大阪府,堺市南区,高倉台４丁２３番１１号,,27,145,5900117,,,,,,,2023-12-08,1,,,,,エニシ,0
1557,6130001075849,新規,0,2023-12-08,2023-12-08,株式会社Ｋコーポレーション,,株式会社,京都府,宇治市,神明石塚５４番地の１３,,26,204,6110025,,,,,,,2023-12-08,1,,,,,ケイコーポレーション,0
1558,6130001075873,新規,0,2023-12-08,2023-12-08,株式会社虎偉,,株式会社,京都府,京都市下京区,寺町通松原上る京極町４９７番地ＫｙｏｔｏＳａｍｕｒａｉＳｏｈｏＦ,,26,106,6008035,,,,,,,2023-12-08,1,,,,,トライ,0
1566,6140001132517,新規,0,2023-12-08,2023-12-08,株式会社リオファクトリー,,株式会社,兵庫県,明石市,東仲ノ町３－３３まありお９８－４０２号室,,28,203,6730886,,,,,,,2023-12-08,1,,,,,リオファクトリー,0
1567,6140003019893,新規,0,2023-12-08,2023-12-08,フェリーチェ合同会社,,合同会社,兵庫県,神戸市灘区,都通５丁目３番１－１２０３号,,28,102,6570844,,,,,,,2023-12-08,1,,,,,フェリーチェ,0
1569,6170001017913,新規,0,2023-12-08,2023-12-08,株式会社ＥＮＩＳＨＩ,,株式会社,和歌山県,西牟婁郡白浜町,１１６５－１,,30,401,6492211,,,,,,,2023-12-08,1,,,,,エニシ,0
1578,6180001159218,新規,0,2023-12-08,2023-12-08,株式会社ｄａｙ‐Ｇ,,株式会社,愛知県,名古屋市緑区,篠の風２丁目２５１番地,,23,114,4580015,,,,,,,2023-12-08,1,,,,,デイジー,0
1579,6180001159226,新規,0,2023-12-08,2023-12-08,株式会社ネクストホライゾン,,株式会社,愛知県,名古屋市東区,泉１丁目１０番２３号,,23,102,4610001,,,,,,,2023-12-08,1,,,,,ネクストホライゾン,0
1580,6180001159275,新規,0,2023-12-08,2023-12-08,株式会社グットカンパニー,,株式会社,愛知県,名古屋市中区,大須３丁目３２番１１号,,23,106,4600011,,,,,,,2023-12-08,1,,,,,グッドカンパニー,0
1581,6180001159283,新規,0,2023-12-08,2023-12-08,株式会社仕掛人,,株式会社,愛知県,北名古屋市,沖村岡西２４番地２,,23,234,4810043,,,,,,,2023-12-08,1,,,,,シカケニン,0
1595,6200001041950,新規,0,2023-12-08,2023-12-08,グラストップ株式会社,,株式会社,岐阜県,本巣市,浅木９９番地２の１,,21,218,5010475,,,,,,,2023-12-08,1,,,,,グラストップ,0
1617,6260001038537,新規,0,2023-12-08,2023-12-08,株式会社御幸鉄工所,,株式会社,岡山県,笠岡市,入江１１４番の１,,33,205,7140041,,,,,,,2023-12-08,1,,,,,ミユキテッコウショ,0
1618,6280001009081,新規,0,2023-12-08,2023-12-08,株式会社しまとり商店,,株式会社,島根県,松江市,上乃木９丁目１２番１７号,,32,201,6900015,,,,,,,2023-12-08,1,,,,,シマトリショウテン,0
1627,6290001103949,新規,0,2023-12-08,2023-12-08,株式会社ＡＴＯＬＡ,,株式会社,福岡県,福岡市東区,唐原７丁目１８番２号,,40,131,8130001,,,,,,,2023-12-08,1,,,,,アトラ,0
1628,6290001103957,新規,0,2023-12-08,2023-12-08,株式会社ＴＳＵ,,株式会社,福岡県,柳川市,三橋町江曲１６５番地,,40,207,8320825,,,,,,,2023-12-08,1,,,,,ティーエスーユー,0
1629,6290003014707,新規,0,2023-12-08,2023-12-08,合同会社Ｇｒｏｗｔｈ,,合同会社,福岡県,春日市,平田台４丁目３６番地シティベール平田台１０２号,,40,218,8160812,,,,,,,2023-12-08,1,,,,,,0
1634,6290801030112,新規,0,2023-12-08,2023-12-08,株式会社緒方建設,,株式会社,福岡県,遠賀郡岡垣町,吉木東２丁目１９番７号コーポＳＥＮ３号,,40,383,8114241,,,,,,,2023-12-08,1,,,,,オガタケンセツ,0
1667,6430001090545,新規,0,2023-12-08,2023-12-08,株式会社ＭＩＬＴＯ,,株式会社,北海道,石狩市,花川南一条５丁目２２８番地,,01,235,0613201,,,,,,,2023-12-08,1,,,,,ミルト,0
1685,7010001240513,新規,0,2023-12-08,2023-12-08,株式会社ＧＲＩＦＦＹ,,株式会社,東京都,千代田区,内神田２丁目１２番６号,,13,101,1010047,,,,,,,2023-12-08,1,,,,,グリフィー,0
1686,7010001240546,新規,0,2023-12-08,2023-12-08,ＪＣ　ＳＨＩＮＩＮＧ株式会社,,株式会社,東京都,千代田区,岩本町３丁目１０番７号東自機ビル７階イーオフィスＡＫＩＢＡ５番館８号室,,13,101,1010032,,,,,,,2023-12-08,1,,,,,ジェイシーシャイニング,0
1687,7010001240554,新規,0,2023-12-08,2023-12-08,株式会社Ｒｅｓｋｉｌｌ　Ｊａｐａｎ,,株式会社,東京都,中央区,銀座７丁目１３番２０号銀座ＴＨビル９階,,13,102,1040061,,,,,,,2023-12-08,1,,,,,リスキルジャパン,0
1688,7010001240620,新規,0,2023-12-08,2023-12-08,株式会社ＨＲサポート,,株式会社,東京都,文京区,千駄木４丁目１２番３－１３０２号,,13,105,1130022,,,,,,,2023-12-08,1,,,,,エッチアールサポート,0
1700,7010401179005,新規,0,2023-12-08,2023-12-08,ＢｌｕｅＲｅ株式会社,,株式会社,東京都,港区,赤坂１丁目１２番３２号アーク森ビル２４階,,13,103,1070052,,,,,,,2023-12-08,1,,,,,ブルーレイ,0
1701,7010401179013,新規,0,2023-12-08,2023-12-08,株式会社ブルーエディション,,株式会社,東京都,港区,虎ノ門１丁目１６番６号ＵＣＦ７０３,,13,103,1050001,,,,,,,2023-12-08,1,,,,,ブルーエディション,0
1706,7010501051476,新規,0,2023-12-08,2023-12-08,ライブホース株式会社,,株式会社,東京都,台東区,柳橋２丁目１番１０号,,13,106,1110052,,,,,,,2023-12-08,1,,,,,ライブホース,0
1710,7010601064287,新規,0,2023-12-08,2023-12-08,株式会社ラトシエ,,株式会社,東京都,墨田区,江東橋５丁目２番１２－６０１号ルイシャトレ錦糸町,,13,107,1300022,,,,,,,2023-12-08,1,,,,,ラトシエ,0
1711,7010601064304,新規,0,2023-12-08,2023-12-08,株式会社安心頼ホームＥＡＳＴ,,株式会社,東京都,墨田区,江東橋１丁目９－６桂昇ビル８階,,13,107,1300022,,,,,,,2023-12-08,1,,,,,アンシンライホームイースト,0
1712,7010603010512,新規,0,2023-12-08,2023-12-08,合同会社ピア・ラプソディー,,合同会社,東京都,墨田区,文花１丁目１７番１６号,,13,107,1310044,,,,,,,2023-12-08,1,,,,,ピアラプソディー,0
1713,7010701045229,新規,0,2023-12-08,2023-12-08,奥思朶株式会社,,株式会社,東京都,品川区,東大井２丁目２３番１号名人亭ビル２階,,13,109,1400011,,,,,,,2023-12-08,1,,,,,オシド,0
1726,7011001158613,新規,0,2023-12-08,2023-12-08,株式会社箱,,株式会社,東京都,渋谷区,広尾５丁目１４番２号,,13,113,1500012,,,,,,,2023-12-08,1,,,,,ハコ,0
1727,7011001158646,新規,0,2023-12-08,2023-12-08,株式会社マサモリ,,株式会社,東京都,目黒区,南２丁目８－３－２０８,,13,110,1520013,,,,,,,2023-12-08,1,,,,,マサモリ,0
1728,7011001158654,新規,0,2023-12-08,2023-12-08,株式会社ジャンシュウェット,,株式会社,東京都,渋谷区,渋谷３丁目２番４号,,13,113,1500002,,,,,,,2023-12-08,1,,,,,ジャンシュウェット,0
1729,7011001158687,新規,0,2023-12-08,2023-12-08,株式会社テレグラフ,,株式会社,東京都,目黒区,南２丁目８番１０－６０７号パラッツォ碑文谷,,13,110,1520013,,,,,,,2023-12-08,1,,,,,テレグラフ,0
1732,7011003018039,新規,0,2023-12-08,2023-12-08,合同会社ＢＥＬＦＯＲＴＳ,,合同会社,東京都,渋谷区,渋谷２丁目１９－１５宮益坂ビルディング６０９,,13,113,1500002,,,,,,,2023-12-08,1,,,,,ベルフォーツ,0
1733,7011003018047,新規,0,2023-12-08,2023-12-08,エイトアセットマネジメント合同会社,,合同会社,東京都,渋谷区,本町２丁目３２－１４,,13,113,1510071,,,,,,,2023-12-08,1,,,,,エイトアセットマネジメント,0
1738,7011101105399,新規,0,2023-12-08,2023-12-08,株式会社Ｄｉｇｉｔａｌ　Ｌａｇｏｏｎ,,株式会社,東京都,新宿区,原町３丁目４－６－５０２,,13,104,1620053,,,,,,,2023-12-08,1,,,,,デジタルラグーン,0
1739,7011101105408,新規,0,2023-12-08,2023-12-08,株式会社ノスタルジーク,,株式会社,東京都,新宿区,西新宿３丁目３番１３号西新宿水間ビル６階,,13,104,1600023,,,,,,,2023-12-08,1,,,,,ノスタルジーク,0
1740,7011101105416,新規,0,2023-12-08,2023-12-08,株式会社職業，キレイ,,株式会社,東京都,新宿区,富久町１５番１－２５０３号,,13,104,1620067,,,,,,,2023-12-08,1,,,,,ショクギョウキレイ,0
1741,7011101105424,新規,0,2023-12-08,2023-12-08,株式会社ＤＫｍ,,株式会社,東京都,新宿区,新宿７丁目１２番１号新宿平和ビル１階,,13,104,1600022,,,,,,,2023-12-08,1,,,,,ディーケーエム,0
1742,7011103013807,新規,0,2023-12-08,2023-12-08,合同会社レヴェランス,,合同会社,東京都,新宿区,西新宿３丁目３番１３号西新宿水間ビル６階,,13,104,1600023,,,,,,,2023-12-08,1,,,,,レヴェランス,0
1747,7011303004993,新規,0,2023-12-08,2023-12-08,Ｃｈｅｒｉｓｈ　Ｃｈｉｌｄｃａｒｅ合同会社,,合同会社,東京都,杉並区,清水３丁目１５番７号,,13,115,1670033,,,,,,,2023-12-08,1,,,,,チェリッシュチャイルドケア,0
1753,7011501030081,新規,0,2023-12-08,2023-12-08,イズ・クリエイティブコンサルティング株式会社,,株式会社,東京都,北区,田端新町２丁目２番１０－３０５号,,13,117,1140012,,,,,,,2023-12-08,1,,,,,イズクリエイティブコンサルティング,0
1760,7012401041301,新規,0,2023-12-08,2023-12-08,株式会社プリサニー,,株式会社,東京都,三鷹市,下連雀９丁目９番５－３１１号,,13,204,1810013,,,,,,,2023-12-08,1,,,,,プリサニー,0
1778,7020005016207,新規,0,2023-12-08,2023-12-08,医療法人沙桜会,,その他の設立登記法人,神奈川県,横浜市港南区,日限山２丁目１番３３号日限山開成ビル３Ｆ,,14,111,2330015,,,,,,,2023-12-08,1,,,,,サクラカイ,0
1779,7020005016215,新規,0,2023-12-08,2023-12-08,医療法人スマイルアース,,その他の設立登記法人,神奈川県,川崎市宮前区,鷺沼１丁目１８番地１０フレンドベース４階,,14,136,2160004,,,,,,,2023-12-08,1,,,,,スマイルアース,0
1786,7030003023162,新規,0,2023-12-08,2023-12-08,合同会社ＵＧＡＫＵ,,合同会社,埼玉県,さいたま市緑区,美園２丁目１５番９,,11,109,3360967,,,,,,,2023-12-08,1,,,,,ユウガク,0
1787,7030003023170,新規,0,2023-12-08,2023-12-08,合同会社ＯＲＩＫＡ‐織花,,合同会社,埼玉県,富士見市,水谷１丁目１３番地１ブライトコート２０１,,11,235,3540014,,,,,,,2023-12-08,1,,,,,オリカ,0
1788,7030003023204,新規,0,2023-12-08,2023-12-08,合同会社桑島技術士事務所,,合同会社,埼玉県,蕨市,錦町１丁目２番１８号,,11,223,3350005,,,,,,,2023-12-08,1,,,,,クワシマギジュツシジムショ,0
1797,7040001131189,新規,0,2023-12-08,2023-12-08,森潤株式会社,,株式会社,千葉県,松戸市,栄町西５丁目１３２５番地の４,,12,207,2710061,,,,,,,2023-12-08,1,,,,,モリジュン,0
1798,7040001131263,新規,0,2023-12-08,2023-12-08,株式会社Ａｃｔ,,株式会社,千葉県,富里市,七栄６５４番地６８０,,12,233,2860221,,,,,,,2023-12-08,1,,,,,アクト,0
1799,7040001131271,新規,0,2023-12-08,2023-12-08,株式会社ミライグレース,,株式会社,千葉県,佐倉市,栄町１２番地１－１０７,,12,212,2850014,,,,,,,2023-12-08,1,,,,,ミライグレース,0
1805,7040003023863,新規,0,2023-12-08,2023-12-08,合同会社寅丸フーズ,,合同会社,千葉県,市川市,福栄３丁目６番２号,,12,203,2720137,,,,,,,2023-12-08,1,,,,,トラマルフーズ,0
1815,7070005010205,新規,0,2023-12-08,2023-12-08,特定非営利活動法人生物循環活用研究会,,その他の設立登記法人,群馬県,前橋市,三俣町１丁目４３番地５,,10,201,3710018,,,,,,,2023-12-08,1,,,,,,0
1822,7080403004922,新規,0,2023-12-08,2023-12-08,久遠合同会社,,合同会社,静岡県,浜松市中区,板屋町６１２番地メゾンセントラル１１０２号,,22,131,4300928,,,,,,,2023-12-08,1,,,,,クオン,0
1825,7090001018448,新規,0,2023-12-08,2023-12-08,株式会社バレルベース,,株式会社,山梨県,南都留郡道志村,１１１５５番地３,,19,422,4020200,,,,,,,2023-12-08,1,,,,,バレルベース,0
1836,7120001260434,新規,0,2023-12-08,2023-12-08,焔遇株式会社,,株式会社,大阪府,大阪市住吉区,遠里小野３丁目３－２５ロイヤル遠里小野３０３号,,27,120,5580032,,,,,,,2023-12-08,1,,,,,エングウ,0
1837,7120001260475,新規,0,2023-12-08,2023-12-08,株式会社ＧＳＰＯ,,株式会社,大阪府,大阪市西区,立売堀４丁目４番２３号,,27,106,5500012,,,,,,,2023-12-08,1,,,,,ジーエスピーオー,0
1838,7120001260500,新規,0,2023-12-08,2023-12-08,株式会社セレクトマネジメント,,株式会社,大阪府,大阪市中央区,南船場４丁目１０番４－５０３号,,27,128,5420081,,,,,,,2023-12-08,1,,,,,セレクトマネジメント,0
1839,7120001260525,新規,0,2023-12-08,2023-12-08,株式会社ＧＡＮＥ　ＴＴＣ,,株式会社,大阪府,大阪市浪速区,日本橋５丁目１３番３号,,27,111,5560005,,,,,,,2023-12-08,1,,,,,ガネティーティーシー,0
1845,7120003025455,新規,0,2023-12-08,2023-12-08,合同会社トリップサポートジャパン,,合同会社,大阪府,大阪市天王寺区,四天王寺１丁目２番１４－１３０３号,,27,109,5430051,,,,,,,2023-12-08,1,,,,,トリップサポートジャパン,0
1850,7120101068653,新規,0,2023-12-08,2023-12-08,ヤマカツ株式会社,,株式会社,大阪府,岸和田市,下野町５丁目１３番３号,,27,202,5960041,,,,,,,2023-12-08,1,,,,,ヤマカツ,0
1851,7120101068661,新規,0,2023-12-08,2023-12-08,株式会社ＣＬＥＡＲ,,株式会社,大阪府,堺市南区,逆瀬川８４４番地８７,,27,145,5900123,,,,,,,2023-12-08,1,,,,,クリア,0
1877,7140001132615,新規,0,2023-12-08,2023-12-08,株式会社ＪＣＳ,,株式会社,兵庫県,西宮市,大浜町１番５８－３１２号,,28,204,6620957,,,,,,,2023-12-08,1,,,,,ジェイシーエス,0
1881,7170003001955,新規,0,2023-12-08,2023-12-08,ＪＵＫＵ　ＨＯＵＳＥ合同会社,,合同会社,和歌山県,新宮市,王子町３丁目９番２３号,,30,207,6470032,,,,,,,2023-12-08,1,,,,,ジュークハウス,0
1886,7180001159183,新規,0,2023-12-08,2023-12-08,株式会社リーガルコンサルタント,,株式会社,愛知県,名古屋市千種区,桜が丘６０番地,,23,101,4640025,,,,,,,2023-12-08,1,,,,,リーガルコンサルタント,0
1887,7180001159200,新規,0,2023-12-08,2023-12-08,株式会社エイチスリー,,株式会社,愛知県,名古屋市中川区,澄池町１３番２５号,,23,110,4540806,,,,,,,2023-12-08,1,,,,,エイチスリー,0
1888,7180001159225,新規,0,2023-12-08,2023-12-08,株式会社モロオカ事務所,,株式会社,愛知県,稲沢市,平和町前平２０番地１,,23,220,4901323,,,,,,,2023-12-08,1,,,,,モロオカジムショ,0
1889,7180001159241,新規,0,2023-12-08,2023-12-08,株式会社グランヴィア,,株式会社,愛知県,名古屋市中区,錦２丁目５－５八木兵伝馬町ビル３Ｆ,,23,106,4600003,,,,,,,2023-12-08,1,,,,,グランヴィア,0
1890,7180001159258,新規,0,2023-12-08,2023-12-08,株式会社ＹＳＫメンテナンス,,株式会社,愛知県,名古屋市北区,西味鋺２丁目２１７番地,,23,103,4620016,,,,,,,2023-12-08,1,,,,,ワイエスケイメンテナンス,0
1892,7180003026084,新規,0,2023-12-08,2023-12-08,ＢＯＯＭ　ＲＯＯＭ合同会社,,合同会社,愛知県,尾張旭市,狩宿町３丁目１７７番地５,,23,226,4880021,,,,,,,2023-12-08,1,,,,,ブームルーム,0
1896,7180303005928,新規,0,2023-12-08,2023-12-08,エクステリアｗｉｔｈ合同会社,,合同会社,愛知県,田原市,豊島町前田１４１番地,,23,231,4413417,,,,,,,2023-12-08,1,,,,,エクステリアウィズ,0
1906,7260001038528,新規,0,2023-12-08,2023-12-08,株式会社玉川,,株式会社,岡山県,岡山市北区,平野１７０番地,,33,101,7010151,,,,,,,2023-12-08,1,,,,,タマガワ,0
1907,7260001038536,新規,0,2023-12-08,2023-12-08,株式会社Ｌ＆Ｒ,,株式会社,岡山県,倉敷市,白楽町３８２番地３,,33,202,7100824,,,,,,,2023-12-08,1,,,,,エルアンドアール,0
1920,7290805009688,新規,0,2023-12-08,2023-12-08,一般社団法人愛の手,,その他の設立登記法人,福岡県,田川郡川崎町,大字田原２２３１番地１,,40,605,8270004,,,,,,,2023-12-08,1,,,,,アイノテ,0
1929,7360001032909,新規,0,2023-12-08,2023-12-08,株式会社グレース・トリップ,,株式会社,沖縄県,豊見城市,字豊崎１番地２１９,,47,212,9010225,,,,,,,2023-12-08,1,,,,,グレーストリップ,0
1931,7370001050711,新規,0,2023-12-08,2023-12-08,Ｓコーポレート株式会社,,株式会社,宮城県,名取市,上余田字千刈田２番地,,04,207,9811222,,,,,,,2023-12-08,1,,,,,エスコーポレート,0
1935,7410001013663,新規,0,2023-12-08,2023-12-08,株式会社ｇｉｖｅｒ,,株式会社,秋田県,秋田市,川尻総社町１－６三浦ビル１階,,05,201,0100946,,,,,,,2023-12-08,1,,,,,ギバー,0
1946,7430003015730,新規,0,2023-12-08,2023-12-08,合同会社Ｙ’ｓ　ｃｏｒｐｏｒａｔｉｏｎ,,合同会社,北海道,札幌市東区,北丘珠二条１丁目１番１１号,,01,103,0070882,,,,,,,2023-12-08,1,,,,,ワイズコーポレーション,0
1961,8010001240603,新規,0,2023-12-08,2023-12-08,株式会社ＨＥＮＵＳＹＳ,,株式会社,東京都,千代田区,神田和泉町１番地６の１６ヤマトビル４０５,,13,101,1010024,,,,,,,2023-12-08,1,,,,,ヘヌシス,0
1962,8010001240611,新規,0,2023-12-08,2023-12-08,株式会社ルスツ開発,,株式会社,東京都,中央区,月島３丁目２６番８号,,13,102,1040052,,,,,,,2023-12-08,1,,,,,ルスツカイハツ,0
1963,8010001240644,新規,0,2023-12-08,2023-12-08,株式会社シンイチ,,株式会社,東京都,千代田区,有楽町２丁目１０番１号,,13,101,1000006,,,,,,,2023-12-08,1,,,,,シンイチ,0
1971,8010003042386,新規,0,2023-12-08,2023-12-08,ジャパンメガソーラーエステート合同会社,,合同会社,東京都,中央区,日本橋１丁目４番１号,,13,102,1030027,,,,,,,2023-12-08,1,,,,,ジャパンメガソーラーエステート,0
1975,8010005037608,新規,0,2023-12-08,2023-12-08,一般社団法人７Ｃ,,その他の設立登記法人,東京都,千代田区,霞が関３丁目２番５号,,13,101,1000013,,,,,,,2023-12-08,1,,,,,セブンシー,0
1980,8010401179020,新規,0,2023-12-08,2023-12-08,株式会社縁の下の力持ち,,株式会社,東京都,港区,南青山３丁目１５番１３号青山グリーンヒルズ２階,,13,103,1070062,,,,,,,2023-12-08,1,,,,,エンノシタノチカラモチ,0
1987,8010601064286,新規,0,2023-12-08,2023-12-08,株式会社福助商店,,株式会社,東京都,江東区,富岡１丁目４番１２号Ｋ２ビル１Ｂ号室,,13,108,1350047,,,,,,,2023-12-08,1,,,,,フクスケショウテン,0
1998,8011001158612,新規,0,2023-12-08,2023-12-08,株式会社ＨＥＹ,,株式会社,東京都,渋谷区,代々木１丁目４３－１１,,13,113,1510053,,,,,,,2023-12-08,1,,,,,ヘイ,0
1999,8011001158620,新規,0,2023-12-08,2023-12-08,Ｒｏｏｔ　Ｉｎｖｅｓｔｍｅｎｔ株式会社,,株式会社,東京都,目黒区,原町２丁目７番１２号,,13,110,1520011,,,,,,,2023-12-08,1,,,,,ルートインベストメント,0
2000,8011001158694,新規,0,2023-12-08,2023-12-08,株式会社オールイン,,株式会社,東京都,渋谷区,道玄坂１丁目１０番８号渋谷道玄坂東急ビル２Ｆ－Ｃ,,13,113,1500043,,,,,,,2023-12-08,1,,,,,オールイン,0
2001,8011001158711,新規,0,2023-12-08,2023-12-08,株式会社ＡＪ２４,,株式会社,東京都,渋谷区,神南１丁目１６番７号,,13,113,1500041,,,,,,,2023-12-08,1,,,,,エージェイトゥエンティフォー,0
2002,8011003018046,新規,0,2023-12-08,2023-12-08,リンクキャスト合同会社,,合同会社,東京都,目黒区,下目黒２丁目１７番１８号,,13,110,1530064,,,,,,,2023-12-08,1,,,,,リンクキャスト,0
2003,8011003018062,新規,0,2023-12-08,2023-12-08,ＢＩＧＦＯＯＴ合同会社,,合同会社,東京都,渋谷区,道玄坂１丁目１０番８号渋谷道玄坂東急ビル２Ｆ－Ｃ,,13,113,1500043,,,,,,,2023-12-08,1,,,,,ビッグフット,0
2008,8011101105373,新規,0,2023-12-08,2023-12-08,株式会社Ｇプランニング,,株式会社,東京都,新宿区,下落合３丁目１１番１８号,,13,104,1610033,,,,,,,2023-12-08,1,,,,,ジープランニング,0
2009,8011101105415,新規,0,2023-12-08,2023-12-08,株式会社クライマー,,株式会社,東京都,新宿区,西新宿３丁目３番１３号西新宿水間ビル２Ｆ,,13,104,1600023,,,,,,,2023-12-08,1,,,,,クライマー,0
2010,8011103013822,新規,0,2023-12-08,2023-12-08,合同会社エンプライス,,合同会社,東京都,新宿区,西新宿７丁目５番５号Ｐｌａｚａ西新宿ＵＣＦ４０６,,13,104,1600023,,,,,,,2023-12-08,1,,,,,エンプライス,0
2015,8011401025676,新規,0,2023-12-08,2023-12-08,方圓国際株式会社,,株式会社,東京都,板橋区,徳丸１丁目２３番地１３,,13,119,1750083,,,,,,,2023-12-08,1,,,,,ホウエンコクサイ,0
2016,8011501030089,新規,0,2023-12-08,2023-12-08,株式会社ＨＯＵＧＡ,,株式会社,東京都,荒川区,西尾久７丁目１３番２－１０１号,,13,118,1160011,,,,,,,2023-12-08,1,,,,,ホウガ,0
2023,8012401041300,新規,0,2023-12-08,2023-12-08,株式会社わ,,株式会社,東京都,調布市,小島町３丁目４７番地１４,,13,208,1820026,,,,,,,2023-12-08,1,,,,,ワ,0
2024,8012703002867,新規,0,2023-12-08,2023-12-08,合同会社おひさま,,合同会社,東京都,東村山市,多摩湖町４丁目２２―５,,13,213,1890026,,,,,,,2023-12-08,1,,,,,オヒサマ,0
2028,8013402000848,新規,0,2023-12-08,2023-12-08,有限会社多摩薬局,,有限会社,東京都,日野市,日野本町３丁目１２番地の１０,,13,212,1910011,,,,,,,2023-12-08,1,,,,,タマヤッキョク,0
2037,8020001154802,新規,0,2023-12-08,2023-12-08,株式会社ＡＩｔｏＡｒｔ　Ｗｏｒｋｓ,,株式会社,神奈川県,横浜市中区,花咲町１丁目４８番３号ロゼ桜木町４０６号,,14,104,2310063,,,,,,,2023-12-08,1,,,,,エーアイトゥアートワークス,0
2038,8020001154819,新規,0,2023-12-08,2023-12-08,株式会社ＳＴＥＭ,,株式会社,神奈川県,川崎市中原区,今井南町３１番４号,,14,133,2110064,,,,,,,2023-12-08,1,,,,,ステム,0
2043,8020003025126,新規,0,2023-12-08,2023-12-08,合同会社ノールベル,,合同会社,神奈川県,横浜市西区,みなとみらい６丁目３番４－６０５号,,14,103,2200012,,,,,,,2023-12-08,1,,,,,ノールベル,0
2044,8020005016214,新規,0,2023-12-08,2023-12-08,医療法人社団翠青会,,その他の設立登記法人,神奈川県,横浜市港北区,篠原町３０１４番地３東急新横浜南ビル４階Ａ区画５階Ｃ区画,,14,109,2220026,,,,,,,2023-12-08,1,,,,,スイセイカイ,0
2048,8021001080922,新規,0,2023-12-08,2023-12-08,株式会社Ｒｕｆｆ　ｃｕｔｔｅｒｓ,,株式会社,神奈川県,相模原市南区,上鶴間本町４丁目３４番７号町田グリーンハイツ１０２,,14,153,2520318,,,,,,,2023-12-08,1,,,,,ラフカッターズ,0
2058,8030001157473,新規,0,2023-12-08,2023-12-08,株式会社ＰｅＲｓ．,,株式会社,埼玉県,戸田市,喜沢１丁目２６－２３,,11,224,3350013,,,,,,,2023-12-08,1,,,,,パース,0
2059,8030001157564,新規,0,2023-12-08,2023-12-08,アステル株式会社,,株式会社,埼玉県,朝霞市,根岸台２丁目１２番１５－４号,,11,227,3510005,,,,,,,2023-12-08,1,,,,,アステル,0
2060,8030001157614,新規,0,2023-12-08,2023-12-08,株式会社ＧＬＡＤ　ＧＡＲＤＥＮ,,株式会社,埼玉県,深谷市,畠山３０８番地２,,11,218,3691107,,,,,,,2023-12-08,1,,,,,グラッドガーデン,0
2068,8040001131238,新規,0,2023-12-08,2023-12-08,９０００ＭＡＬＬ株式会社,,株式会社,千葉県,山武市,松尾町八田８７－２,,12,237,2891512,,,,,,,2023-12-08,1,,,,,キュウセンモール,0
2069,8040001131262,新規,0,2023-12-08,2023-12-08,株式会社アキヤマ,,株式会社,千葉県,流山市,駒木５７３番地の５,,12,220,2700132,,,,,,,2023-12-08,1,,,,,アキヤマ,0
2074,8040003023870,新規,0,2023-12-08,2023-12-08,ＦＦＵ合同会社,,合同会社,千葉県,千葉市稲毛区,稲毛３丁目７番８号新富稲毛アパート第二２０５号室,,12,103,2630034,,,,,,,2023-12-08,1,,,,,エフエフユー,0
2075,8040003023887,新規,0,2023-12-08,2023-12-08,合同会社ＴＲＯＮ,,合同会社,千葉県,流山市,おおたかの森西１丁目２番地の５ｐｉｐｉｔｏ５Ｆ,,12,220,2700128,,,,,,,2023-12-08,1,,,,,トロン,0
2077,8050003007996,新規,0,2023-12-08,2023-12-08,合同会社Ｎ‐Ｓｙｓｔｅｍ,,合同会社,茨城県,牛久市,上柏田３丁目５８－２１,,08,219,3001232,,,,,,,2023-12-08,1,,,,,,0
2081,8070001041161,新規,0,2023-12-08,2023-12-08,株式会社ｅｉ．,,株式会社,群馬県,館林市,東美園町１７番地の２２美生愛帯津ビル１Ｆ,,10,207,3740031,,,,,,,2023-12-08,1,,,,,エイドット,0
2082,8080001026021,新規,0,2023-12-08,2023-12-08,株式会社ＲｅＡｃｔ,,株式会社,静岡県,静岡市清水区,船原１丁目１９５番地の３,,22,103,4240845,,,,,,,2023-12-08,1,,,,,リアクト,0
2107,8120001260433,新規,0,2023-12-08,2023-12-08,株式会社Ｌｏｖｅ　Ｃｅｌａｖｉ,,株式会社,大阪府,大阪市中央区,東心斎橋１丁目８番１１－２４０１号,,27,128,5420083,,,,,,,2023-12-08,1,,,,,ラヴセラヴィ,0
2108,8120003025454,新規,0,2023-12-08,2023-12-08,合同会社ウィステリア,,合同会社,大阪府,守口市,梶町３丁目１７番１５号,,27,209,5700015,,,,,,,2023-12-08,1,,,,,ウィステリア,0
2109,8120003025487,新規,0,2023-12-08,2023-12-08,合同会社グリーンフォレスト,,合同会社,大阪府,大阪市東淀川区,東中島１丁目１７番５号ステュディオ新大阪１１２０号,,27,114,5330033,,,,,,,2023-12-08,1,,,,,グリーンフォレスト,0
2110,8120005024041,新規,0,2023-12-08,2023-12-08,一般財団法人日本創造制作機構,,その他の設立登記法人,大阪府,大阪市中央区,平野町２丁目２－１２,,27,128,5410046,,,,,,,2023-12-08,1,,,,,ニホンソウゾウセイサクキコウ,0
2114,8120103005570,新規,0,2023-12-08,2023-12-08,合同会社しまたに,,合同会社,大阪府,松原市,阿保２丁目５０番地の１０,,27,217,5800043,,,,,,,2023-12-08,1,,,,,シマタニ,0
2118,8130001075855,新規,0,2023-12-08,2023-12-08,株式会社ソアリス,,株式会社,京都府,京都市中京区,東夷川町６３６番地４池ビル１Ｆ,,26,104,6040083,,,,,,,2023-12-08,1,,,,,ソアリス,0
2126,8140001132597,新規,0,2023-12-08,2023-12-08,株式会社Ｔｅｃｔ,,株式会社,兵庫県,西宮市,上大市２丁目９番２６号,,28,204,6638003,,,,,,,2023-12-08,1,,,,,テクト,0
2127,8140001132606,新規,0,2023-12-08,2023-12-08,百祥公司株式会社,,株式会社,兵庫県,神戸市中央区,下山手通３丁目３番１－４０２号,,28,110,6500011,,,,,,,2023-12-08,1,,,,,ヒャクショウコウシ,0
2139,8180001159174,新規,0,2023-12-08,2023-12-08,株式会社ミラニティエステート,,株式会社,愛知県,名古屋市中村区,黄金通２丁目６０番地の２,,23,105,4530804,,,,,,,2023-12-08,1,,,,,ミラニティエステート,0
2140,8180001159232,新規,0,2023-12-08,2023-12-08,オティ株式会社,,株式会社,愛知県,知多市,八幡字森之前５９番地の７,,23,224,4780001,,,,,,,2023-12-08,1,,,,,オティ,0
2146,8180005020448,新規,0,2023-12-08,2023-12-08,ＮＰＯ法人韓国語・韓国文化交流会,,その他の設立登記法人,愛知県,日進市,折戸町定納１７２番地４,,23,230,4700115,,,,,,,2023-12-08,1,,,,,カンコクゴカンコクブンカコウリュウカイ,0
2148,8180303005927,新規,0,2023-12-08,2023-12-08,大山電機合同会社,,合同会社,愛知県,豊田市,足助町宮平５５番地４,,23,211,4442424,,,,,,,2023-12-08,1,,,,,オオヤマデンキ,0
2161,8250005008881,新規,0,2023-12-08,2023-12-08,特定非営利活動法人ｍｉ＆ｇｏ,,その他の設立登記法人,山口県,萩市,大字椿東平方２９１７番地,,35,204,7580011,,,,,,,2023-12-08,1,,,,,ミーゴ,0
2172,8290001103955,新規,0,2023-12-08,2023-12-08,株式会社Ｙ’ｓ,,株式会社,福岡県,福岡市博多区,神屋町５－５,,40,132,8120022,,,,,,,2023-12-08,1,,,,,ワイズ,0
2173,8290001103971,新規,0,2023-12-08,2023-12-08,株式会社ＱｕａｒＫ,,株式会社,福岡県,福岡市中央区,鳥飼３丁目１２番２６－２０４号,,40,133,8100053,,,,,,,2023-12-08,1,,,,,クアーク,0
2177,8290005019215,新規,0,2023-12-08,2023-12-08,一般社団法人男子プロゴルフを勝手に応援する会,,その他の設立登記法人,福岡県,福岡市博多区,博多駅東２丁目１０番１号,,40,132,8120013,,,,,,,2023-12-08,1,,,,,ダンシプロゴルフヲカッテニオウエンスルカイ,0
2179,8300005007168,新規,0,2023-12-08,2023-12-08,医療法人夏秋レディースクリニック,,その他の設立登記法人,佐賀県,唐津市,南城内２番８号,,41,202,8470013,,,,,,,2023-12-08,1,,,,,ナツアキレディースクリニック,0
2180,8320003004248,新規,0,2023-12-08,2023-12-08,Ｅａｇａｌｅ　ｖｉｎａ合同会社,,合同会社,大分県,中津市,大字島田２０７－２０,,44,203,8710033,,,,,,,2023-12-08,1,,,,,エアグレヒナ,0
2187,8350001018701,新規,0,2023-12-08,2023-12-08,まちのもと株式会社,,株式会社,宮崎県,串間市,大字西方１４７６９番地,,45,207,8880001,,,,,,,2023-12-08,1,,,,,マチノモト,0
2193,8360005006949,新規,0,2023-12-08,2023-12-08,Ａｓｉａ琉球事業協同組合,,その他の設立登記法人,沖縄県,沖縄市,比屋根２丁目８番３１号,,47,211,9042173,,,,,,,2023-12-08,1,,,,,アジアリュウキュウ,0
2194,8370001050660,新規,0,2023-12-08,2023-12-08,株式会社Ｓａｌｅｓ　Ｄｒｉｖｅｎ,,株式会社,宮城県,仙台市青葉区,柏木１丁目１番１－１６０８号,,04,101,9810933,,,,,,,2023-12-08,1,,,,,セールスドリブン,0
2196,8380001034175,新規,0,2023-12-08,2023-12-08,株式会社ＳＨＩＦＵＫＵ,,株式会社,福島県,白河市,小田川小田ノ里７２番地,,07,205,9610001,,,,,,,2023-12-08,1,,,,,シフク,0
2202,8420001018504,新規,0,2023-12-08,2023-12-08,株式会社ワールド緑化,,株式会社,青森県,南津軽郡大鰐町,大字唐牛字沼田１４８番地２,,02,362,0380204,,,,,,,2023-12-08,1,,,,,ワールドリョクカ,0
2203,8420003002844,新規,0,2023-12-08,2023-12-08,合同会社シャリ,,合同会社,青森県,弘前市,大字広野２丁目２８番地４,,02,202,0368115,,,,,,,2023-12-08,1,,,,,シャリ,0
2207,8430001090601,新規,0,2023-12-08,2023-12-08,株式会社スズキ,,株式会社,北海道,札幌市北区,北三十三条西７丁目２番１－７１２号,,01,102,0010033,,,,,,,2023-12-08,1,,,,,スズキ,0
2208,8430001090618,新規,0,2023-12-08,2023-12-08,株式会社ティーワイコーポレーション,,株式会社,北海道,石狩市,八幡４丁目１番地,,01,235,0613361,,,,,,,2023-12-08,1,,,,,ティーワイコーポレーション,0
2222,9010001240593,新規,0,2023-12-08,2023-12-08,株式会社カーヤ・ジャパン,,株式会社,東京都,文京区,本郷３丁目２１番８号,,13,105,1130033,,,,,,,2023-12-08,1,,,,,カーヤジャパン,0
2230,9010003042402,新規,0,2023-12-08,2023-12-08,合同会社伽藍洞,,合同会社,東京都,中央区,日本橋室町１丁目１１番１２号日本橋水野ビル７階,,13,102,1030022,,,,,,,2023-12-08,1,,,,,ガランドウ,0
2241,9010401179011,新規,0,2023-12-08,2023-12-08,クレアシオン・アセットマネジメント株式会社,,株式会社,東京都,港区,赤坂９丁目７番１号,,13,103,1070052,,,,,,,2023-12-08,1,,,,,クレアシオンアセットマネジメント,0
2256,9010903008642,新規,0,2023-12-08,2023-12-08,合同会社ＬＵＰＯ,,合同会社,東京都,世田谷区,尾山台２丁目３２番１０号アークファイブ尾山台４Ｆ,,13,112,1580086,,,,,,,2023-12-08,1,,,,,ルポ,0
2260,9011001158644,新規,0,2023-12-08,2023-12-08,株式会社シップアンドガズルホールディングス,,株式会社,東京都,渋谷区,神南１丁目９番４号,,13,113,1500041,,,,,,,2023-12-08,1,,,,,シップアンドガズルホールディングス,0
2261,9011003018045,新規,0,2023-12-08,2023-12-08,ＳｏＫｅｉ　ｃｒｅａｔｉｖｅ合同会社,,合同会社,東京都,渋谷区,渋谷２丁目１９番１５号宮益坂ビルディング６０９,,13,113,1500002,,,,,,,2023-12-08,1,,,,,ソウケイクリエイティブ,0
2262,9011003018061,新規,0,2023-12-08,2023-12-08,ＥＩＧＨＴ　ＫＮＯＴ合同会社,,合同会社,東京都,渋谷区,恵比寿１丁目３１番２－３０４号,,13,113,1500013,,,,,,,2023-12-08,1,,,,,エイトノット,0
2269,9011101105372,新規,0,2023-12-08,2023-12-08,Ｒｅ　Ｆｏｒｃｅ　Ｇｏｌｆ株式会社,,株式会社,東京都,新宿区,西新宿６丁目１１－３－２７１４号,,13,104,1600023,,,,,,,2023-12-08,1,,,,,リフォースゴルフ,0
2270,9011101105414,新規,0,2023-12-08,2023-12-08,株式会社ウィライフ,,株式会社,東京都,新宿区,高田馬場１丁目２７番１３号,,13,104,1690075,,,,,,,2023-12-08,1,,,,,ウィライフ,0
2299,9020001154792,新規,0,2023-12-08,2023-12-08,株式会社クロステクノロジー,,株式会社,神奈川県,横浜市港北区,高田東４丁目２１番２２号ハイホーム綱島２０１,,14,109,2230065,,,,,,,2023-12-08,1,,,,,クロステクノロジー,0
2307,9021001080913,新規,0,2023-12-08,2023-12-08,エネクレッド株式会社,,株式会社,神奈川県,藤沢市,鵠沼松が岡３丁目２２番２０号マリン・コア１０２,,14,205,2510038,,,,,,,2023-12-08,1,,,,,エネクレッド,0
2308,9021001080921,新規,0,2023-12-08,2023-12-08,株式会社ＳｙｎｃＷａｖｅ,,株式会社,神奈川県,茅ヶ崎市,平和町５番１１－６号,,14,207,2530024,,,,,,,2023-12-08,1,,,,,シンクウェーブ,0
2316,9030001157588,新規,0,2023-12-08,2023-12-08,株式会社ほけん広場,,株式会社,埼玉県,川口市,川口６丁目５－２５オリーブ１Ｆ,,11,203,3320015,,,,,,,2023-12-08,1,,,,,ホケンヒロバ,0
2322,9030003023103,新規,0,2023-12-08,2023-12-08,合同会社Ｈ＆Ｃ　Ｌｏｇｉｓｔｉｃｓ,,合同会社,埼玉県,草加市,吉町３丁目６－４６,,11,221,3400017,,,,,,,2023-12-08,1,,,,,エイチアンドシーロジスティクス,0
2323,9030003023160,新規,0,2023-12-08,2023-12-08,合同会社ヤマダコンサルティング,,合同会社,埼玉県,さいたま市見沼区,東大宮７丁目９番地８,,11,104,3370051,,,,,,,2023-12-08,1,,,,,ヤマダコンサルティング,0
2324,9030003023169,新規,0,2023-12-08,2023-12-08,Ｋ　ＳＴＹＬＥ合同会社,,合同会社,埼玉県,上尾市,二ツ宮８０８番地１サンモールＩＩＡ１０１,00132922,11,219,3620017,,,,,,,2023-12-08,1,,,,,ケースタイル,0
2325,9030005021492,新規,0,2023-12-08,2023-12-08,一般社団法人シルバーライフサポートひまわり,,その他の設立登記法人,埼玉県,越谷市,大字増森１７５１番地１,,11,222,3430012,,,,,,,2023-12-08,1,,,,,シルバーライフサポートヒマワリ,0
2333,9040001131162,新規,0,2023-12-08,2023-12-08,株式会社ニケ,,株式会社,千葉県,香取郡神崎町,神崎本宿２１２０,,12,342,2890221,,,,,,,2023-12-08,1,,,,,ニケ,0
2334,9040001131245,新規,0,2023-12-08,2023-12-08,株式会社高野産業,,株式会社,千葉県,いすみ市,岬町桑田２１４番地２４,,12,238,2994504,,,,,,,2023-12-08,1,,,,,タカノサンギョウ,0
2339,9040003023853,新規,0,2023-12-08,2023-12-08,合同会社ハートフル,,合同会社,千葉県,市原市,鶴舞４５１－２,,12,219,2900512,,,,,,,2023-12-08,1,,,,,ハートフル,0
2340,9040003023886,新規,0,2023-12-08,2023-12-08,ＡＳＭ合同会社,,合同会社,千葉県,四街道市,みそら４丁目２番６号,,12,228,2840023,,,,,,,2023-12-08,1,,,,,エイエスエム,0
2343,9070001041152,新規,0,2023-12-08,2023-12-08,株式会社福や,,株式会社,群馬県,前橋市,笂井町８５１番地８,,10,201,3792115,,,,,,,2023-12-08,1,,,,,フクヤ,0
2344,9070001041160,新規,0,2023-12-08,2023-12-08,ＭＡＦＡＺ株式会社,,株式会社,群馬県,伊勢崎市,境８１９番地８ぐんぱつ境コーポ１０１,,10,204,3700124,,,,,,,2023-12-08,1,,,,,,0
2350,9080403004920,新規,0,2023-12-08,2023-12-08,ＴＫ合同会社,,合同会社,静岡県,浜松市西区,雄踏２丁目１９番２５号,,22,133,4310103,,,,,,,2023-12-08,1,,,,,ティーケイ,0
2354,9100003007305,新規,0,2023-12-08,2023-12-08,合同会社Ｔｅｎｍｕｇｉ,,合同会社,長野県,長野市,門沢５２７４番地１,,20,201,3800881,,,,,,,2023-12-08,1,,,,,テンムギ,0
2355,9110001038020,新規,0,2023-12-08,2023-12-08,株式会社ＮＩＣＣＯ,,株式会社,新潟県,長岡市,猫興野字村浦１６２番１,,15,202,9540123,,,,,,,2023-12-08,1,,,,,ニッコー,0
2369,9120001260341,新規,0,2023-12-08,2023-12-08,徳基株式会社,00132916,株式会社,大阪府,大阪市西成区,松１丁目２番８－２０６号,,27,122,5570034,,,,,,,2023-12-08,1,,,,,トクキ,0
2370,9120001260449,新規,0,2023-12-08,2023-12-08,株式会社グリスンアドバイザリー,,株式会社,大阪府,守口市,大宮通２丁目１３番１０号,,27,209,5700033,,,,,,,2023-12-08,1,,,,,グリスンアドバイザリー,0
2373,9120003025478,新規,0,2023-12-08,2023-12-08,ＰＬＥＩＫＵ　ＴＲＡＤＩＮＧ合同会社,,合同会社,大阪府,大阪市西淀川区,出来島２丁目８番１号１階,,27,113,5550031,,,,,,,2023-12-08,1,,,,,プレイクトレーディング,0
2381,9120903004952,新規,0,2023-12-08,2023-12-08,誠メンテナンス合同会社,,合同会社,大阪府,摂津市,千里丘東２丁目５番１０－３０３号,,27,224,5660011,,,,,,,2023-12-08,1,,,,,マコトメンテナンス,0
2386,9130001075879,新規,0,2023-12-08,2023-12-08,株式会社ｐｒｕｇｎａ,,株式会社,京都府,京都市上京区,仁和寺街道御前西入下横町２１０番地２０,,26,102,6020000,,,,,,,2023-12-08,1,,,,,プルーニャ,0
2392,9140003019890,新規,0,2023-12-08,2023-12-08,合同会社セルクル,,合同会社,兵庫県,西宮市,上ケ原七番町２番６４号,,28,204,6620881,,,,,,,2023-12-08,1,,,,,セルクル,0
2403,9180001159231,新規,0,2023-12-08,2023-12-08,株式会社ＮＹＣ,,株式会社,愛知県,岩倉市,稲荷町羽根１２番地６,,23,228,4820006,,,,,,,2023-12-08,1,,,,,エヌワイシー,0
2404,9180001159264,新規,0,2023-12-08,2023-12-08,株式会社ＭＤＲ,,株式会社,愛知県,名古屋市瑞穂区,井戸田町１丁目９４番地,,23,108,4670835,,,,,,,2023-12-08,1,,,,,エムディーアール,0
2407,9180005020447,新規,0,2023-12-08,2023-12-08,一般社団法人リボルビングドア,,その他の設立登記法人,愛知県,犬山市,天神町４丁目５７番地,,23,215,4840073,,,,,,,2023-12-08,1,,,,,リボルビングドア,0
2410,9180303005926,新規,0,2023-12-08,2023-12-08,合同会社マニャーナ,,合同会社,愛知県,豊橋市,小池町字角田５番地,,23,201,4418042,,,,,,,2023-12-08,1,,,,,マニャーナ,0
2434,9290001103888,新規,0,2023-12-08,2023-12-08,株式会社ｎａｎａｍｉｄｉｎｉｎｇ,,株式会社,福岡県,糟屋郡志免町,別府北３丁目８番１６号,,40,343,8112233,,,,,,,2023-12-08,1,,,,,ナナミダイニング,0
2435,9290001103962,新規,0,2023-12-08,2023-12-08,株式会社Ｆｌａｎ　ｎｅｗ　Ｄａｙｓ,,株式会社,福岡県,福岡市東区,筥松２丁目２２番２０号１Ｆ,,40,131,8120061,,,,,,,2023-12-08,1,,,,,フランニューデイズ,0
2436,9290001103970,新規,0,2023-12-08,2023-12-08,株式会社Ｈ　Ｔｅｃｈ,,株式会社,福岡県,太宰府市,国分１丁目１６番７号,,40,221,8180132,,,,,,,2023-12-08,1,,,,,エイチテック,0
2443,9300005007167,新規,0,2023-12-08,2023-12-08,医療法人望雄会横尾クリニック,,その他の設立登記法人,佐賀県,佐賀市,長瀬町７番２３号の１,,41,201,8400853,,,,,,,2023-12-08,1,,,,,ホウユウカイヨコオクリニック,0
2454,9360001032907,新規,0,2023-12-08,2023-12-08,頭にケチャップ株式会社,,株式会社,沖縄県,宜野湾市,伊佐３丁目２３番１５号・２０１,,47,205,9012221,,,,,,,2023-12-08,1,,,,,アタマニケチャップ,0
2456,9360003013533,新規,0,2023-12-08,2023-12-08,合同会社誠,,合同会社,沖縄県,那覇市,字天久８８３番地２シービューグランデＩＩ４０２,00132921,47,201,9000005,,,,,,,2023-12-08,1,,,,,マコト,0
2468,9430001090575,新規,0,2023-12-08,2023-12-08,株式会社大川豊碩,,株式会社,北海道,札幌市中央区,宮の森三条５丁目６番１３号,,01,101,0640953,,,,,,,2023-12-08,1,,,,,オオカワホウセキ,0
2472,9430003015737,新規,0,2023-12-08,2023-12-08,日興物産合同会社,,合同会社,北海道,札幌市手稲区,富丘四条４丁目２番１号,,01,109,0060014,,,,,,,2023-12-08,1,,,,,ニッコウブッサン,0
