sequenceNumber,corporateNumber,process,correct,updateDate,changeDate,name,nameImageId,kind,prefectureName,cityName,streetNumber,addressImageId,prefectureCode,cityCode,postCode,addressOutside,addressOutsideImageId,closeDate,closeCause,successorCorporateNumber,changeCause,assignmentDate,latest,enName,enPrefectureName,enCityName,enAddressOutside,furigana,hihyoji
50,1011103012616,登記記録の閉鎖等,0,2024-12-16,2024-11-14,Ｂｅｅ合同会社,,合同会社,東京都,新宿区,矢来町４７番地,,13,104,1620805,,,2024-11-14,清算の結了等,,,2023-01-23,1,,,,,ビー,0
76,1020003011058,登記記録の閉鎖等,0,2024-12-16,2024-12-04,キュービックアシスト合同会社,,合同会社,神奈川県,横浜市青葉区,藤が丘２丁目２０番７ガーデン青葉台３０４,,14,117,2270043,,,2024-12-04,清算の結了等,,,2016-03-15,1,,,,,キュービックアシスト,0
83,1021002044461,登記記録の閉鎖等,0,2024-12-16,2024-12-13,有限会社ロウテック,,有限会社,神奈川県,座間市,東原４丁目１３番２１号,,14,216,2520004,,,2024-12-13,清算の結了等,,,2015-10-05,1,,,,,ロウテック,0
87,1030001064040,登記記録の閉鎖等,0,2024-12-16,2024-12-11,株式会社三盛不動産,,株式会社,埼玉県,越谷市,赤山町３丁目１５６番地７,,11,222,3430807,,,2024-12-11,清算の結了等,,,2015-10-05,1,,,,,サンセイフドウサン,0
93,1030002097361,登記記録の閉鎖等,0,2024-12-16,2024-12-10,有限会社門倉測量,,有限会社,埼玉県,比企郡小川町,大字角山２７０番地６,,11,343,3550316,,,2024-12-10,清算の結了等,,,2015-10-05,1,,,,,カドクラソクリョウ,0
110,1040003008622,登記記録の閉鎖等,0,2024-12-16,2024-12-09,合同会社ＪＯＹ　ＰＬＡＮ,,合同会社,千葉県,千葉市緑区,おゆみ野１丁目２５番地２Ｓ－１－１１７,,12,105,2660031,,,2024-12-09,清算の結了等,,,2016-05-23,1,,,,,ジョイプラン,0
120,1060003002763,登記記録の閉鎖等,0,2024-12-16,2024-12-02,合同会社ＳＭＥパートナーズ,,合同会社,東京都,中央区,銀座１丁目２２番１１号銀座大竹ビジデンス２Ｆ,,13,102,1040061,,,2024-12-02,清算の結了等,,,2018-02-16,1,,,,,エスエムイーパートナーズ,0
122,1070001029080,登記記録の閉鎖等,0,2024-12-16,2024-12-10,株式会社スマイルケア,,株式会社,群馬県,館林市,大街道１丁目７番４０号,,10,207,3740066,,,2024-12-10,清算の結了等,,,2015-10-05,1,,,,,スマイルケア,0
123,1070001031755,登記記録の閉鎖等,0,2024-12-16,2024-12-11,株式会社アールアンドエス,,株式会社,群馬県,太田市,大原町２２２５番４１,,10,205,3792304,,,2024-12-11,清算の結了等,,,2016-01-14,1,,,,,アールアンドエス,0
125,1070002012259,登記記録の閉鎖等,0,2024-12-16,2024-12-04,有限会社緑電子システムズ,,有限会社,東京都,練馬区,大泉学園町３丁目１番３２号Ｔ＆Ｋ大泉学園３０１号室,,13,120,1780061,,,2024-12-04,清算の結了等,,,2015-10-05,1,,,,,ミドリデンシシステムズ,0
130,1110001031742,登記記録の閉鎖等,0,2024-12-16,2024-12-06,株式会社角田設計室,,株式会社,新潟県,新潟市南区,木滑１０３６番地,,15,106,9501311,,,2024-12-06,清算の結了等,,,2016-08-12,1,,,,,カクダセッケイシツ,0
145,1120002007212,登記記録の閉鎖等,0,2024-12-16,2024-12-12,有限会社ハイキャッスル,,有限会社,大阪府,大阪市東成区,中道４丁目６番５号,,27,115,5370025,,,2024-12-12,清算の結了等,,,2015-10-05,1,,,,,ハイキャッスル,0
152,1120901001389,登記記録の閉鎖等,0,2024-12-16,2024-12-10,株式会社辻博建設,00033264,株式会社,大阪府,茨木市,西河原１丁目８番３８号,,27,211,5670023,,,2024-12-10,清算の結了等,,,2015-10-05,1,,,,,ツジヒロケンセツ,0
153,1120901030124,登記記録の閉鎖等,0,2024-12-16,2024-12-06,株式会社住まい創造舎,,株式会社,大阪府,豊能郡能勢町,野間出野７１番地の２,,27,322,5630134,,,2024-12-06,清算の結了等,,,2015-10-05,1,,,,,,0
176,1140002033099,登記記録の閉鎖等,0,2024-12-16,2024-12-10,有限会社ビバおやけ,,有限会社,兵庫県,たつの市,龍野町富永７１９番地,,28,229,6794167,,,2024-12-10,清算の結了等,,,2015-10-05,1,,,,,ビバオヤケ,0
190,1180001160948,登記記録の閉鎖等,0,2024-12-16,2024-12-03,株式会社Ｓｕｐｅｒ　ｎｏｖａ,,株式会社,愛知県,名古屋市中区,栄３丁目３１番８号モリダイヤハイツ栄２０５,,23,106,4600008,,,2024-12-03,清算の結了等,,,2024-04-17,1,,,,,スーパーノヴァ,0
194,1180301011801,登記記録の閉鎖等,0,2024-12-16,2024-12-10,株式会社ワイアンドワイ,,株式会社,愛知県,豊川市,伊奈町北村１３８番地２,,23,207,4410105,,,2024-12-10,清算の結了等,,,2015-10-05,1,,,,,ワイアンドワイ,0
202,1200002011107,登記記録の閉鎖等,0,2024-12-16,2024-12-11,株式会社まほろば,,株式会社,岐阜県,羽島郡笠松町,北及１７４番地,,21,303,5016064,,,2024-12-11,清算の結了等,,,2015-10-05,1,,,,,マホロバ,0
211,1240001054227,登記記録の閉鎖等,0,2024-12-16,2024-12-11,株式会社古都葉,,株式会社,広島県,広島市安佐南区,八木２丁目６番３９－７号,,34,105,7310101,,,2024-12-11,清算の結了等,,,2019-04-16,1,,,,,コトハ,0
214,1260002019739,登記記録の閉鎖等,0,2024-12-16,2024-12-06,有限会社ティ・アンド・ティ建設,,有限会社,岡山県,倉敷市,粒江６１０番地,,33,202,7100034,,,2024-12-06,清算の結了等,,,2015-10-05,1,,,,,ティアンドティケンセツ,0
227,1340002010441,登記記録の閉鎖等,0,2024-12-16,2024-12-12,有限会社良明建設,,有限会社,鹿児島県,鹿児島市,下荒田３丁目４番２号,,46,201,8900056,,,2024-12-12,清算の結了等,,,2015-10-05,1,,,,,リョウメイケンセツ,0
232,1380002004563,登記記録の閉鎖等,0,2024-12-16,2024-12-03,有限会社ティアールシー,,有限会社,福島県,福島市,大波字菖蒲沢７９番地,,07,201,9600811,,,2024-12-03,清算の結了等,,,2015-10-05,1,,,,,ティアールシー,0
251,1500005004663,登記記録の閉鎖等,0,2024-12-16,2024-12-10,特定非営利活動法人西条加茂蕎麦くらぶ,,その他の設立登記法人,愛媛県,西条市,下島山甲２２０番地１８３,,38,206,7930006,,,2024-12-10,清算の結了等,,,2015-10-05,1,,,,,サイジョウカモソバクラブ,0
283,2010601036547,登記記録の閉鎖等,0,2024-12-16,2024-12-10,株式会社グローバル・ドア,,株式会社,東京都,新宿区,西新宿６丁目２番３号,,13,104,1600023,,,2024-12-10,清算の結了等,,,2015-10-05,1,,,,,グローバルドア,0
301,2011301001849,登記記録の閉鎖等,0,2024-12-16,2024-12-11,株式会社キムラハウジング,,株式会社,東京都,杉並区,堀ノ内１丁目２番１０号,,13,115,1660013,,,2024-12-11,清算の結了等,,,2015-10-05,1,,,,,キムラハウジング,0
339,2030002031419,登記記録の閉鎖等,0,2024-12-16,2024-12-10,有限会社村山工務店,,有限会社,埼玉県,所沢市,大字荒幡４９７番地の９,,11,208,3591133,,,2024-12-10,清算の結了等,,,2015-10-05,1,,,,,ムラヤマコウムテン,0
341,2030002044321,登記記録の閉鎖等,0,2024-12-16,2024-12-10,有限会社三徳,,有限会社,埼玉県,草加市,青柳７丁目４番２号,,11,221,3400002,,,2024-12-10,清算の結了等,,,2015-10-05,1,,,,,サントク,0
360,2060001006443,登記記録の閉鎖等,0,2024-12-16,2024-12-11,株式会社インフィニティ,,株式会社,栃木県,宇都宮市,平出町３７６１番地３,,09,201,3210901,,,2024-12-11,清算の結了等,,,2015-10-05,1,,,,,インフィニティ,0
363,2060002020823,登記記録の閉鎖等,0,2024-12-16,2024-12-10,有限会社藤木工,,有限会社,栃木県,鹿沼市,茂呂２６１１番地３７,,09,205,3220026,,,2024-12-10,清算の結了等,,,2015-10-05,1,,,,,フジモッコウ,0
366,2070001009552,登記記録の閉鎖等,0,2024-12-16,2024-12-13,株式会社柳澤,00025205,株式会社,群馬県,高崎市,金古町２５７７番地,,10,202,3703511,,,2024-12-13,清算の結了等,,,2015-10-05,1,,,,,ヤナギサワ,0
371,2080101009204,登記記録の閉鎖等,0,2024-12-16,2024-12-03,株式会社中島鉄工所,,株式会社,静岡県,富士市,蓼原４５番地の２,,22,210,4160931,,,2024-12-03,清算の結了等,,,2015-10-05,1,,,,,ナカジマテッコウジョ,0
373,2080401023714,登記記録の閉鎖等,0,2024-12-16,2024-12-12,株式会社Ｎ－ＴＲＩＢＥ,,株式会社,静岡県,浜松市中央区,若林町３６０番地の６恵三コーポ３０２号室,,22,138,4328051,,,2024-12-12,清算の結了等,,,2019-07-01,1,,,,,エヌトライブ,0
382,2120001180934,登記記録の閉鎖等,0,2024-12-16,2024-12-09,ＪＩＴ株式会社,,株式会社,大阪府,摂津市,千里丘新町５－２２－１８２７,,27,224,5660002,,,2024-12-09,清算の結了等,,,2015-10-05,1,,,,,ジェイアイティ,0
399,2122003001523,登記記録の閉鎖等,0,2024-12-16,2024-12-10,合同会社由亜,,合同会社,大阪府,東大阪市,西鴻池町１丁目１４－２,,27,227,5780976,,,2024-12-10,清算の結了等,,,2018-07-05,1,,,,,ユア,0
410,2140001106821,登記記録の閉鎖等,0,2024-12-16,2024-12-09,空間計画株式会社,,株式会社,兵庫県,神戸市灘区,城内通５丁目５番３－２０２号,,28,102,6570836,,,2024-12-09,清算の結了等,,,2017-07-07,1,,,,,クウカンケイカク,0
416,2140002061207,登記記録の閉鎖等,0,2024-12-16,2024-12-11,有限会社豊崎呉服店,00041394,有限会社,兵庫県,加東市,新定１１５８番地,,28,228,6731324,,,2024-12-11,清算の結了等,,,2015-10-05,1,,,,,トヨサキゴフクテン,0
442,2280005000379,登記記録の閉鎖等,0,2024-12-16,2024-12-13,協同組合エヌジェーケー島根,,その他の設立登記法人,島根県,松江市,西津田５丁目１番７号,,32,201,6900017,,,2024-12-13,清算の結了等,,,2015-10-05,1,,,,,エヌジェーケーシマネ,0
446,2290001041806,登記記録の閉鎖等,0,2024-12-16,2024-11-21,株式会社おり萬,,株式会社,福岡県,筑紫野市,大字原田１８１２番地の１,,40,217,8180024,,,2024-11-21,清算の結了等,,,2015-10-05,1,,,,,,0
453,2290002005883,登記記録の閉鎖等,0,2024-12-16,2024-11-21,フジノ商事有限会社,,有限会社,福岡県,福岡市東区,若宮４丁目１２番２６号,,40,131,8130036,,,2024-11-21,清算の結了等,,,2015-10-05,1,,,,,フジノショウジ,0
456,2290802013739,登記記録の閉鎖等,0,2024-12-16,2024-12-13,有限会社狩尾観光,,有限会社,福岡県,北九州市八幡西区,大字本城３０２４番地の１,,40,109,8070801,,,2024-12-13,清算の結了等,,,2015-10-05,1,,,,,カリオカンコウ,0
460,2320002021324,登記記録の閉鎖等,0,2024-12-16,2024-12-12,太陽興産有限会社,,有限会社,大分県,中津市,本耶馬渓町多志田２８２番地,,44,203,8710203,,,2024-12-12,清算の結了等,,,2015-10-05,1,,,,,,0
476,2380001032705,登記記録の閉鎖等,0,2024-12-16,2024-12-03,株式会社阿部建設,,株式会社,福島県,南会津郡下郷町,大字落合字下川原２２２番地,,07,362,9695343,,,2024-12-03,清算の結了等,,,2022-04-06,1,,,,,アベケンセツ,0
480,2380002024809,登記記録の閉鎖等,0,2024-12-16,2024-12-04,田山運送株式会社,,株式会社,福島県,いわき市,泉町滝尻字松原９１番地,,07,204,9718182,,,2024-12-04,清算の結了等,,,2015-10-05,1,,,,,,0
482,2390001013497,登記記録の閉鎖等,0,2024-12-16,2024-12-11,株式会社菅井工房,,株式会社,山形県,西村山郡朝日町,大字宮宿１８３番地４,,06,323,9901442,,,2024-12-11,清算の結了等,,,2015-10-05,1,,,,,スガイコウボウ,0
485,2400002011606,登記記録の閉鎖等,0,2024-12-16,2024-12-05,有限会社佐々由商店,,有限会社,岩手県,釜石市,小川町５丁目３番１号,,03,211,0260045,,,2024-12-05,清算の結了等,,,2015-10-05,1,,,,,ササヨシショウテン,0
487,2400003003148,登記記録の閉鎖等,0,2024-12-16,2024-12-02,岩手動画ＰＲ合同会社,,合同会社,岩手県,盛岡市,中央通１丁目７－３５コアフィールドモリオカ１階,,03,201,0200021,,,2024-12-02,清算の結了等,,,2023-09-21,1,,,,,イワテドウガピーアール,0
498,2470002003613,登記記録の閉鎖等,0,2024-12-16,2024-12-13,有限会社新名青果,,有限会社,香川県,高松市,新北町２９番２１－７０３号,,37,201,7600001,,,2024-12-13,清算の結了等,,,2015-10-05,1,,,,,シンミョウセイカ,0
537,3010801023617,登記記録の閉鎖等,0,2024-12-16,2024-12-05,前澤亜衣子パフォーミングアーツジャパン株式会社,,株式会社,東京都,大田区,久が原４丁目１９番７号,,13,111,1460085,,,2024-12-05,清算の結了等,,,2015-10-05,1,,,,,マエザワアイコパフォーミングアーツジャパン,0
547,3011101061290,登記記録の閉鎖等,0,2024-12-16,2024-12-04,株式会社グランクリュ,,株式会社,東京都,千代田区,内神田２丁目１０番１０号,,13,101,1010047,,,2024-12-04,清算の結了等,,,2015-10-05,1,,,,,グランクリュ,0
548,3011101064351,登記記録の閉鎖等,0,2024-12-16,2024-12-02,カラーズ株式会社,,株式会社,東京都,中央区,月島４丁目３番７号,,13,102,1040052,,,2024-12-02,清算の結了等,,,2015-10-05,1,,,,,カラーズ,0
553,3011103012291,登記記録の閉鎖等,0,2024-12-16,2024-12-06,恒予商貿合同会社,,合同会社,東京都,新宿区,百人町４丁目９番７号新宿ユー・エストビル９０１,,13,104,1690073,,,2024-12-06,清算の結了等,,,2022-10-21,1,,,,,コウヨショウボウ,0
577,3021001062017,登記記録の閉鎖等,0,2024-12-16,2024-12-12,ジェダーウィンコンサルティング株式会社,,株式会社,神奈川県,足柄上郡中井町,比奈窪４５番地,,14,361,2590153,,,2024-12-12,清算の結了等,,,2017-05-09,1,,,,,ジェダーウィンコンサルティング,0
605,3040002039922,登記記録の閉鎖等,0,2024-12-16,2024-12-09,有限会社パルプラニング,,有限会社,千葉県,市川市,行徳駅前１丁目９番１９号１Ｆ－Ｄ,,12,203,2720133,,,2024-12-09,清算の結了等,,,2015-10-05,1,,,,,パルプラニング,0
607,3060001017209,登記記録の閉鎖等,0,2024-12-16,2024-12-12,株式会社かじや,,株式会社,栃木県,下都賀郡壬生町,幸町３丁目４番７号,,09,361,3210203,,,2024-12-12,清算の結了等,,,2015-10-05,1,,,,,カジヤ,0
614,3080001002745,登記記録の閉鎖等,0,2024-12-16,2024-12-10,静岡生化学株式会社,,株式会社,静岡県,静岡市駿河区,下島７４番地の１,,22,102,4228037,,,2024-12-10,合併による解散等,7180001034007,令和６年１２月１日名古屋市中区錦一丁目２番７号天野エンザイム株式会社（7180001034007）に合併し解散,2015-10-05,1,,,,,シズオカセイカガク,0
615,3080002003899,登記記録の閉鎖等,0,2024-12-16,2024-12-10,築地硝子有限会社,,有限会社,静岡県,静岡市駿河区,小黒１丁目１番３０－２号,,22,102,4228072,,,2024-12-10,清算の結了等,,,2015-10-05,1,,,,,ツキジガラス,0
616,3080401023325,登記記録の閉鎖等,0,2024-12-16,2024-12-02,株式会社アドバンク,,株式会社,東京都,中央区,銀座１丁目２２番１１号銀座大竹ビジデンス２Ｆ,,13,102,1040061,,,2024-12-02,清算の結了等,,,2018-12-07,1,,,,,アドバンク,0
619,3090002010060,登記記録の閉鎖等,0,2024-12-16,2024-12-09,有限会社アマノ製作所,,有限会社,山梨県,都留市,上谷１５２３番地,,19,204,4020053,,,2024-12-09,清算の結了等,,,2015-10-05,1,,,,,アマノセイサクショ,0
624,3100001031436,登記記録の閉鎖等,0,2024-12-16,2024-12-09,株式会社Ｕｎｉｖｅｒｓａｌ　Ｃｏｍｍｕｎｉｃａｔｉｏｎｓ,,株式会社,長野県,松本市,大手２丁目１番６号スカイＧ大手ビル３階,,20,202,3900874,,,2024-12-09,清算の結了等,,,2018-07-17,1,,,,,ユニバーサルコミュニケーションズ,0
625,3100002003161,登記記録の閉鎖等,0,2024-12-16,2024-12-10,有限会社ツーアンドフオー長野,,有限会社,長野県,長野市,大字南長池５４９番地１,,20,201,3810024,,,2024-12-10,清算の結了等,,,2015-10-05,1,,,,,ツーアンドフオーナガノ,0
628,3120001203322,登記記録の閉鎖等,0,2024-12-16,2024-12-10,株式会社アイエスイー・スタッフ,,株式会社,大阪府,東大阪市,若江本町１丁目２番４１号Ｔ．Ｋスカイハイツ２Ｃ号室,,27,227,5780942,,,2024-12-10,清算の結了等,,,2017-01-26,1,,,,,アイエスイースタッフ,0
638,3120101066041,登記記録の閉鎖等,0,2024-12-16,2024-12-13,ＭＳＬＩＮＥ株式会社,,株式会社,大阪府,松原市,田井城１丁目１２２－１０,,27,217,5800044,,,2024-12-13,清算の結了等,,,2022-08-12,1,,,,,エムエスライン,0
641,3120901020180,登記記録の閉鎖等,0,2024-12-16,2024-12-09,アンビエンテテクニカ株式会社,,株式会社,大阪府,箕面市,白島２丁目１９番９号,,27,220,5620012,,,2024-12-09,清算の結了等,,,2015-10-05,1,,,,,アンビエンテテクニカ,0
648,3130002011525,登記記録の閉鎖等,0,2024-12-16,2024-12-12,有限会社丸勝広業所,,有限会社,京都府,京都市南区,久世中久町６７７番地,,26,107,6018207,,,2024-12-12,清算の結了等,,,2015-10-05,1,,,,,マルカツコウギョウショ,0
649,3140001018966,登記記録の閉鎖等,0,2024-12-16,2024-12-11,株式会社神戸設備,,株式会社,兵庫県,神戸市垂水区,星陵台８丁目１３番５号,,28,108,6550038,,,2024-12-11,清算の結了等,,,2015-10-05,1,,,,,コウベセツビ,0
653,3140001106259,登記記録の閉鎖等,0,2024-12-16,2024-12-09,株式会社Ｒ＆Ｇ,,株式会社,大阪府,池田市,石橋１丁目１２番１２－２０３号,,27,204,5630032,,,2024-12-09,清算の結了等,,,2017-05-25,1,,,,,アールアンドジー,0
657,3140001125449,登記記録の閉鎖等,0,2024-12-16,2024-12-10,株式会社中井建設,,株式会社,兵庫県,姫路市,御立東３丁目２１番２７号,,28,201,6700072,,,2024-12-10,清算の結了等,,,2022-04-06,1,,,,,ナカイケンセツ,0
663,3140002060463,登記記録の閉鎖等,0,2024-12-16,2024-12-04,有限会社悠花,,有限会社,兵庫県,西宮市,一里山町１０番２５－１０２号,,28,204,6638002,,,2024-12-04,清算の結了等,,,2015-10-05,1,,,,,ユウカ,0
676,3180001154171,登記記録の閉鎖等,0,2024-12-16,2024-12-05,住装あいち株式会社,,株式会社,愛知県,名古屋市名東区,神月町２０３番地,,23,115,4650006,,,2024-12-05,清算の結了等,,,2022-12-12,1,,,,,ジュウソウアイチ,0
680,3180301002757,登記記録の閉鎖等,0,2024-12-16,2024-12-11,日通三河運輸株式会社,,株式会社,愛知県,岡崎市,大平町字欠下５１番地,,23,202,4440007,,,2024-12-11,清算の結了等,,,2015-10-05,1,,,,,ニッツウミカワウンユ,0
689,3240001054225,登記記録の閉鎖等,0,2024-12-16,2024-12-11,株式会社エムリス,,株式会社,広島県,広島市安佐南区,八木２丁目６番３９－７号,,34,105,7310101,,,2024-12-11,清算の結了等,,,2019-04-16,1,,,,,エムリス,0
691,3260001022015,登記記録の閉鎖等,0,2024-12-16,2024-12-10,アクア住設株式会社,,株式会社,岡山県,備前市,新庄１２４６番地２,,33,211,7050014,,,2024-12-10,清算の結了等,,,2015-10-05,1,,,,,アクアジュウセツ,0
694,3290001074367,登記記録の閉鎖等,0,2024-12-16,2024-12-06,株式会社ポリランド,,株式会社,東京都,台東区,浅草橋２丁目２６－１２,,13,106,1110053,,,2024-12-06,清算の結了等,,,2016-06-27,1,,,,,ポリランド,0
698,3290002038643,登記記録の閉鎖等,0,2024-12-16,2024-11-19,有限会社インテリアウインド,,有限会社,福岡県,太宰府市,大佐野３丁目１９番２０号,,40,221,8180134,,,2024-11-19,清算の結了等,,,2015-10-05,1,,,,,インテリアウインド,0
699,3290002045235,登記記録の閉鎖等,0,2024-12-16,2024-11-15,有限会社飯塚コクラヤ眼鏡店,,有限会社,福岡県,飯塚市,片島２丁目２１番２３号,,40,205,8200068,,,2024-11-15,清算の結了等,,,2015-10-05,1,,,,,イイヅカコクラヤメガネテン,0
718,3390001010122,登記記録の閉鎖等,0,2024-12-16,2024-12-10,株式会社マルナカ実業,,株式会社,山形県,米沢市,大町２丁目２番３９号,,06,202,9920031,,,2024-12-10,清算の結了等,,,2015-10-05,1,,,,,マルナカジツギョウ,0
719,3390001016581,登記記録の閉鎖等,0,2024-12-16,2024-12-11,株式会社ｓｔｕｄｉｏ　ＦＬＡＳＨＹ,,株式会社,山形県,山形市,松栄１丁目３番８号,,06,201,9902473,,,2024-12-11,清算の結了等,,,2021-09-06,1,,,,,スタジオフラッシー,0
728,3440002004654,登記記録の閉鎖等,0,2024-12-16,2024-12-12,有限会社丸山,,有限会社,北海道,函館市,石川町３２０番８,,01,202,0410802,,,2024-12-12,清算の結了等,,,2015-10-05,1,,,,,マルヤマ,0
746,4010002018291,登記記録の閉鎖等,0,2024-12-16,2024-12-02,有限会社オークトン,,有限会社,東京都,中央区,八重洲２丁目１１番７号,,13,102,1040028,,,2024-12-02,清算の結了等,,,2015-10-05,1,,,,,オークトン,0
748,4010003029692,登記記録の閉鎖等,0,2024-12-16,2024-12-02,合同会社ポルックス１６５,,合同会社,東京都,中央区,日本橋１丁目４番１号,,13,102,1030027,,,2024-12-02,清算の結了等,,,2019-04-19,1,,,,,ポルックスイチロクゴ,0
750,4010005033552,登記記録の閉鎖等,0,2024-12-16,2024-12-12,一般社団法人ＣＲＥＭＬファンド３,,その他の設立登記法人,東京都,中央区,京橋１丁目１４番９号株式会社えいえん堂内,,13,102,1040031,,,2024-12-12,清算の結了等,,,2021-06-25,1,,,,,シーアールイーエムエルファンドスリー,0
767,4010501029401,登記記録の閉鎖等,0,2024-12-16,2024-12-09,株式会社東京寺内,,株式会社,茨城県,龍ケ崎市,藤ケ丘５丁目１５番地２,,08,208,3010855,,,2024-12-09,清算の結了等,,,2015-10-05,1,,,,,トウキョウテラウチ,0
781,4010901010002,登記記録の閉鎖等,0,2024-12-16,2024-12-09,ピー・プランニング株式会社,,株式会社,東京都,世田谷区,上馬４丁目１１番２６号,,13,112,1540011,,,2024-12-09,清算の結了等,,,2015-10-05,1,,,,,ピープランニング,0
796,4011301028337,登記記録の閉鎖等,0,2024-12-16,2024-12-12,有方株式会社,,株式会社,東京都,杉並区,梅里２丁目２５番１３号高円寺プラザ,,13,115,1660011,,,2024-12-12,清算の結了等,,,2022-12-26,1,,,,,ユウホウ,0
800,4011502012676,登記記録の閉鎖等,0,2024-12-16,2024-12-06,有限会社エフステップ,,有限会社,東京都,北区,西ケ原３丁目２３番２０号,,13,117,1140024,,,2024-12-06,清算の結了等,,,2015-10-05,1,,,,,エフステップ,0
805,4011802019826,登記記録の閉鎖等,0,2024-12-16,2024-12-10,有限会社山下工業所,,有限会社,東京都,足立区,東保木間２丁目１２番４号,,13,121,1210063,,,2024-12-10,清算の結了等,,,2015-10-05,1,,,,,ヤマシタコウギョウショ,0
810,4013101004575,登記記録の閉鎖等,0,2024-12-16,2024-12-10,株式会社クライオトランシス,,株式会社,東京都,青梅市,末広町１丁目７番地の６,,13,205,1980025,,,2024-12-10,清算の結了等,,,2015-10-05,1,,,,,クライオトランシス,0
811,4013102001984,登記記録の閉鎖等,0,2024-12-16,2024-12-11,有限会社サクセスアート,,有限会社,東京都,あきる野市,留原８５３番地１,,13,228,1900152,,,2024-12-11,清算の結了等,,,2015-10-05,1,,,,,サクセスアート,0
812,4013103001265,登記記録の閉鎖等,0,2024-12-16,2024-12-11,ゴールドリバー合同会社,,合同会社,東京都,あきる野市,雨間３８３番地２３,,13,228,1970825,,,2024-12-11,清算の結了等,,,2023-09-21,1,,,,,ゴールドリバー,0
816,4013302019331,登記記録の閉鎖等,0,2024-12-16,2024-12-06,有限会社岩夢,,有限会社,東京都,豊島区,高田３丁目５番１０号,,13,116,1710033,,,2024-12-06,清算の結了等,,,2015-10-05,1,,,,,,0
822,4020003022003,登記記録の閉鎖等,0,2024-12-16,2024-11-29,合同会社ＰＴＧトレーディング,,合同会社,神奈川県,横浜市神奈川区,羽沢南２丁目２番１号,,14,102,2210866,,,2024-11-29,清算の結了等,,,2022-06-27,1,,,,,ピーティージートレーディング,0
830,4030001138816,登記記録の閉鎖等,0,2024-12-16,2024-12-10,キーグロウイングス株式会社,,株式会社,埼玉県,所沢市,上新井４丁目６１番地の１,,11,208,3591142,,,2024-12-10,清算の結了等,,,2020-10-19,1,,,,,キーグロウイングス,0
833,4030002053535,登記記録の閉鎖等,0,2024-12-16,2024-12-10,有限会社神田製作所,,有限会社,埼玉県,上尾市,大字上尾下字上原１０３１番地４,,11,219,3620025,,,2024-12-10,清算の結了等,,,2015-10-05,1,,,,,カンダセイサクショ,0
835,4030003015591,登記記録の閉鎖等,0,2024-12-16,2024-12-11,合同会社Ｌｉｅｎ,,合同会社,埼玉県,所沢市,西所沢１丁目１２番４号西所沢駅前ビル２階Ｂ号,,11,208,3591144,,,2024-12-11,清算の結了等,,,2020-07-27,1,,,,,リアン,0
847,4060002009848,登記記録の閉鎖等,0,2024-12-16,2024-12-10,有限会社ろうざき住宅設備,,有限会社,栃木県,宇都宮市,越戸町３４３番地３,,09,201,3210951,,,2024-12-10,清算の結了等,,,2015-10-05,1,,,,,ロウザキジュウタクセツビ,0
859,4070002033599,登記記録の閉鎖等,0,2024-12-16,2024-12-12,株式会社タテノ精工,,株式会社,群馬県,館林市,近藤町字亀甲３１８番地８,,10,207,3740042,,,2024-12-12,清算の結了等,,,2015-10-05,1,,,,,タテノセイコウ,0
869,4110002016418,登記記録の閉鎖等,0,2024-12-16,2024-12-11,有限会社コヤマ,,有限会社,新潟県,新発田市,真野原外３５５０番地１,,15,206,9570232,,,2024-12-11,清算の結了等,,,2015-10-05,1,,,,,コヤマ,0
872,4120001061810,登記記録の閉鎖等,0,2024-12-16,2024-12-12,株式会社エフ,,株式会社,大阪府,大阪市北区,梅田１丁目２番２－Ｂ２００号,,27,127,5300001,,,2024-12-12,清算の結了等,,,2015-10-05,1,,,,,エフ,0
873,4120001091865,登記記録の閉鎖等,0,2024-12-16,2024-12-12,株式会社エーピーアイコーポレーション,,株式会社,福岡県,築上郡吉富町,大字小祝９５５番地,,40,642,8710801,,,2024-12-12,合併による解散等,2250001002992,令和６年１２月１日山口県宇部市大字小串１９７８番地の９６ＵＢＥ株式会社（2250001002992）に合併し解散,2015-10-05,1,,,,,エーピーアイコーポレーション,0
877,4120001256229,登記記録の閉鎖等,0,2024-12-16,2024-12-12,株式会社リュウゴリース,,株式会社,大阪府,大阪市西区,阿波座２丁目２番１８号いちご西本町ビル９Ｆ,,27,106,5500011,,,2024-12-12,清算の結了等,,,2023-07-05,1,,,,,リュウゴリース,0
919,4180002080399,登記記録の閉鎖等,0,2024-12-16,2024-12-10,有限会社イナバ薬局,,有限会社,愛知県,稲沢市,大塚北９丁目７９番地３,,23,220,4928215,,,2024-12-10,合併による解散等,7430001069398,令和６年１２月１日札幌市白石区東札幌五条二丁目４番３０号株式会社アインファーマシーズ（7430001069398）に合併し解散,2015-10-05,1,,,,,イナバヤッキョク,0
920,4180003024090,登記記録の閉鎖等,0,2024-12-16,2024-12-11,合同会社ブリッジ,,合同会社,愛知県,春日井市,高蔵寺町北４丁目１番１５,,23,206,4870016,,,2024-12-11,合併による解散等,1180301038596,令和６年１２月１日愛知県岡崎市大平町字天神前８番地１株式会社アース（1180301038596）に合併し解散,2022-07-28,1,,,,,ブリッジ,0
926,4200001015196,登記記録の閉鎖等,0,2024-12-16,2024-12-11,株式会社健コンサルタント事務所,,株式会社,岐阜県,大垣市,禾森町２丁目３０番地,,21,202,5030852,,,2024-12-11,清算の結了等,,,2015-10-05,1,,,,,ケンコンサルタントジムショ,0
940,4290002024502,登記記録の閉鎖等,0,2024-12-16,2024-11-27,有限会社西日本新聞エリアセンター周船寺駅南,,有限会社,福岡県,福岡市西区,大字周船寺３０９番１号,,40,135,8190373,,,2024-11-27,清算の結了等,,,2015-10-05,1,,,,,ニシニホンシンブンエリアセンタースセンジエキミナミ,0
945,4340002002089,登記記録の閉鎖等,0,2024-12-16,2024-12-10,有限会社大園青果,,有限会社,鹿児島県,鹿児島市,東開町１１番１,,46,201,8910115,,,2024-12-10,清算の結了等,,,2015-10-05,1,,,,,オオゾノセイカ,0
952,4370202004774,登記記録の閉鎖等,0,2024-12-16,2024-12-09,有限会社ワタナベ食品,,有限会社,宮城県,栗原市,栗駒稲屋敷大鳥西側１４番地,,04,213,9895341,,,2024-12-09,清算の結了等,,,2015-10-05,1,,,,,,0
958,4390002013932,登記記録の閉鎖等,0,2024-12-16,2024-12-09,有限会社新和建設,,有限会社,山形県,東置賜郡高畠町,大字福沢６３３番地３,,06,381,9992174,,,2024-12-09,清算の結了等,,,2015-10-05,1,,,,,シンワケンセツ,0
980,4500002018960,登記記録の閉鎖等,0,2024-12-16,2024-12-10,有限会社檜垣富三商店,,有限会社,愛媛県,今治市,拝志２番６号,,38,202,7991504,,,2024-12-10,清算の結了等,,,2015-10-05,1,,,,,ヒガキトミゾウショウテン,0
1007,5010403020184,登記記録の閉鎖等,0,2024-12-16,2024-12-04,Ｏｒｌｅａｎ合同会社,,合同会社,東京都,中央区,銀座１丁目１２－４Ｎ＆ＥＢＬＤ．７階,,13,102,1040061,,,2024-12-04,清算の結了等,,,2019-02-14,1,,,,,オルレアン,0
1011,5010603009366,登記記録の閉鎖等,0,2024-12-16,2024-12-11,合同会社ファンタジスタ,,合同会社,東京都,墨田区,太平４丁目２３番２号,,13,107,1300012,,,2024-12-11,清算の結了等,,,2022-01-31,1,,,,,ファンタジスタ,0
1043,5020001004365,登記記録の閉鎖等,0,2024-12-16,2024-12-04,ヒートパック株式会社,,株式会社,神奈川県,横浜市港南区,港南台６丁目３３番２６号,,14,111,2340054,,,2024-12-04,清算の結了等,,,2015-10-05,1,,,,,ヒートパック,0
1058,5021002056800,登記記録の閉鎖等,0,2024-12-16,2024-12-13,有限会社イッコウ,,有限会社,神奈川県,平塚市,平塚３丁目１６番５号,,14,203,2540052,,,2024-12-13,清算の結了等,,,2015-10-05,1,,,,,イッコウ,0
1062,5030001072295,登記記録の閉鎖等,0,2024-12-16,2024-12-11,ケーアール企画株式会社,,株式会社,埼玉県,比企郡ときがわ町,大字関堀２０２番地６,,11,349,3550356,,,2024-12-11,清算の結了等,,,2015-10-05,1,,,,,ケーアールキカク,0
1093,5060002004047,登記記録の閉鎖等,0,2024-12-16,2024-12-10,有限会社産経新聞栃木広告社,,有限会社,栃木県,宇都宮市,中今泉３丁目２１番４号,,09,201,3210968,,,2024-12-10,清算の結了等,,,2015-10-05,1,,,,,サンケイシンブントチギコウコクシャ,0
1100,5070002005829,登記記録の閉鎖等,0,2024-12-16,2024-12-09,有限会社渡辺農産,,有限会社,群馬県,前橋市,粕川町稲里４００番地の２,,10,201,3710207,,,2024-12-09,清算の結了等,,,2015-10-05,1,,,,,ワタナベノウサン,0
1101,5070002010556,登記記録の閉鎖等,0,2024-12-16,2024-12-11,有限会社成進システム,,有限会社,群馬県,高崎市,箕郷町上芝４５１番地８,,10,202,3703104,,,2024-12-11,清算の結了等,,,2015-10-05,1,,,,,セイシンシステム,0
1103,5070003004251,登記記録の閉鎖等,0,2024-12-16,2024-12-11,Ｍ＆Ｓ合同会社,,合同会社,群馬県,沼田市,町田町１３２３番地１,,10,206,3780062,,,2024-12-11,清算の結了等,,,2021-10-05,1,,,,,エムアンドエス,0
1106,5080001013443,登記記録の閉鎖等,0,2024-12-16,2024-12-09,株式会社丸栄製茶,,株式会社,静岡県,島田市,菊川６７番地の２,,22,209,4280037,,,2024-12-09,清算の結了等,,,2015-10-05,1,,,,,マルエイセイチャ,0
1108,5080102005050,登記記録の閉鎖等,0,2024-12-16,2024-12-11,有限会社メイク・エンタープライズ,,有限会社,東京都,福生市,南田園２丁目２番地３０,,13,218,1970004,,,2024-12-11,清算の結了等,,,2015-10-05,1,,,,,メイクエンタープライズ,0
1109,5080103002666,登記記録の閉鎖等,0,2024-12-16,2024-12-11,合同会社アルファ,,合同会社,静岡県,沼津市,大手町１丁目１番３号,,22,203,4100801,,,2024-12-11,合併による解散等,1180301038596,令和６年１２月１日愛知県岡崎市大平町字天神前８番地１株式会社アース（1180301038596）に合併し解散,2022-10-07,1,,,,,アルファ,0
1112,5090005004553,登記記録の閉鎖等,0,2024-12-16,2024-12-11,農事組合法人甲斐きのこ組合,,その他の設立登記法人,山梨県,韮崎市,円野町上円井１８９１番地,,19,207,4070051,,,2024-12-11,清算の結了等,,,2015-10-05,1,,,,,カイキノコクミアイ,0
1140,5140002058712,登記記録の閉鎖等,0,2024-12-16,2024-12-02,有限会社ハセガワメディカルサービス,,有限会社,大阪府,箕面市,牧落３丁目３番２５－４０９号,,27,220,5620004,,,2024-12-02,清算の結了等,,,2015-10-05,1,,,,,ハセガワメディカルサービス,0
1152,5180003019107,登記記録の閉鎖等,0,2024-12-16,2024-12-05,３８１ＣＡＲ’ｓ合同会社,,合同会社,愛知県,瀬戸市,西米泉町２６番地の４,,23,204,4890943,,,2024-12-05,清算の結了等,,,2018-07-11,1,,,,,サンハチイチカーズ,0
1165,5220002006175,登記記録の閉鎖等,0,2024-12-16,2024-12-12,有限会社八日市サッシ工業,,有限会社,石川県,金沢市,八日市３丁目５３４番地,,17,201,9218064,,,2024-12-12,清算の結了等,,,2015-10-05,1,,,,,ヨウカイチサッシコウギョウ,0
1168,5260001002808,登記記録の閉鎖等,0,2024-12-16,2024-12-09,株式会社西大寺天満屋,,株式会社,岡山県,岡山市東区,西大寺中１丁目１４番２０号,,33,103,7048116,,,2024-12-09,清算の結了等,,,2015-10-05,1,,,,,サイダイジテンマヤ,0
1169,5260001009423,登記記録の閉鎖等,0,2024-12-16,2024-12-10,株式会社繁栄,,株式会社,岡山県,岡山市南区,植松４番地１３,,33,104,7100151,,,2024-12-10,清算の結了等,,,2015-10-05,1,,,,,ハンエイ,0
1189,5330002010629,登記記録の閉鎖等,0,2024-12-16,2024-12-10,有限会社メディアウェーブ,,有限会社,熊本県,八代市,横手新町９号３番地１０,,43,202,8660875,,,2024-12-10,清算の結了等,,,2015-10-05,1,,,,,メディアウェーブ,0
1190,5330003008011,登記記録の閉鎖等,0,2024-12-16,2024-12-09,合同会社ジョイリンクアルファ,,合同会社,熊本県,熊本市中央区,水前寺４丁目８番１０号,,43,101,8620950,,,2024-12-09,清算の結了等,,,2019-07-24,1,,,,,ジョイリンクアルファ,0
1194,5360001017977,登記記録の閉鎖等,0,2024-12-16,2024-12-13,株式会社ディーマジュエリー,,株式会社,沖縄県,沖縄市,泡瀬５丁目３３番４号,,47,211,9042172,,,2024-12-13,清算の結了等,,,2015-10-05,1,,,,,ディーマジュエリー,0
1221,5490005002780,登記記録の閉鎖等,0,2024-12-16,2024-12-06,企業組合丸福百貨ストアー,,その他の設立登記法人,高知県,宿毛市,中央５丁目２番２１号,,39,208,7880001,,,2024-12-06,清算の結了等,,,2015-10-05,1,,,,,マルフクヒャッカストアー,0
1224,6010001027721,登記記録の閉鎖等,0,2024-12-16,2024-12-02,株式会社富士マーク製作所,,株式会社,東京都,千代田区,外神田３丁目８番７号,,13,101,1010021,,,2024-12-02,清算の結了等,,,2015-10-05,1,,,,,フジマークセイサクショ,0
1227,6010001136836,登記記録の閉鎖等,0,2024-12-16,2024-12-11,サンエーカガク印刷株式会社,,株式会社,東京都,台東区,上野３丁目２４番６号,,13,106,1100005,,,2024-12-11,合併による解散等,3013301011273,令和６年１２月１日東京都豊島区東池袋一丁目４４番２号株式会社ポパル（3013301011273）に合併し解散,2015-10-05,1,,,,,,0
1235,6010003025723,登記記録の閉鎖等,0,2024-12-16,2024-12-02,ＯＮＥ　ＴＲＵＳＴ合同会社,,合同会社,東京都,中央区,日本橋小舟町１２－１２日本橋中屋ビル３Ｆ,,13,102,1030024,,,2024-12-02,清算の結了等,,,2017-07-25,1,,,,,ワントラスト,0
1236,6010003027645,登記記録の閉鎖等,0,2024-12-16,2024-12-02,ＫＪＭ合同会社,,合同会社,東京都,中央区,八丁堀４丁目２番１０号ＡＯＪ税理士法人内,,13,102,1040032,,,2024-12-02,清算の結了等,,,2018-05-30,1,,,,,ケイジェイエム,0
1264,6011101082739,登記記録の閉鎖等,0,2024-12-16,2024-12-02,株式会社ＤＰＳ,,株式会社,東京都,港区,南青山１丁目２番６号ラティス青山スクエア２階,,13,103,1070062,,,2024-12-02,合併による解散等,6011001091526,令和６年１２月１日東京都港区南青山一丁目２番６号ラティス青山スクエア２階株式会社ＤＰＧ（6011001091526）に合併し解散,2018-01-09,1,,,,,ディーピーエス,0
1268,6011105008806,登記記録の閉鎖等,0,2024-12-16,2024-12-09,一般社団法人アジア留学協会,,その他の設立登記法人,東京都,新宿区,新宿２丁目１２番１３号新宿アントレサロンビル２階,,13,104,1600022,,,2024-12-09,清算の結了等,,,2019-05-14,1,,,,,アジアリュウガクキョウカイ,0
1287,6020001053840,登記記録の閉鎖等,0,2024-12-16,2024-12-04,和興産業株式会社,,株式会社,神奈川県,横浜市瀬谷区,二ツ橋町３０７番地１－３０３号,,14,114,2460021,,,2024-12-04,清算の結了等,,,2015-10-05,1,,,,,,0
1290,6020002018693,登記記録の閉鎖等,0,2024-12-16,2024-12-03,有限会社さおり,,有限会社,神奈川県,横浜市港南区,港南２丁目２７番２５号,,14,111,2330003,,,2024-12-03,合併による解散等,3020002018738,令和６年１２月１日横浜市港南区港南二丁目２７番２５号さいき宅建株式会社（3020002018738）に合併し解散,2015-10-05,1,,,,,サオリ,0
1297,6021005009886,登記記録の閉鎖等,0,2024-12-16,2024-12-09,特定非営利活動法人ＤＮＡＪ,,その他の設立登記法人,神奈川県,相模原市南区,相模台２丁目１２番１７号,,14,153,2520321,,,2024-12-09,清算の結了等,,,2015-10-05,1,,,,,ディーエヌエージェイ,0
1298,6030001035359,登記記録の閉鎖等,0,2024-12-16,2024-12-10,株式会社栃久保製作所,,株式会社,埼玉県,草加市,苗塚町２４７番地,,11,221,3400036,,,2024-12-10,清算の結了等,,,2015-10-05,1,,,,,トチクボセイサクショ,0
1315,6040001104716,登記記録の閉鎖等,0,2024-12-16,2024-12-09,株式会社ＳＡＮＬＩＺＥ,,株式会社,千葉県,八千代市,上高野１３５３番地２５,,12,221,2760022,,,2024-12-09,合併による解散等,2040001020768,令和６年１２月１日千葉県八千代市上高野１３５３番地２５株式会社サンリツ（2040001020768）に合併し解散,2018-05-22,1,,,,,サンライズ,0
1317,6040002024236,登記記録の閉鎖等,0,2024-12-16,2024-12-09,有限会社永山重機,,有限会社,千葉県,船橋市,習志野５丁目３番１５号,,12,204,2740071,,,2024-12-09,清算の結了等,,,2015-10-05,1,,,,,ナガヤマジュウキ,0
1318,6040002035588,登記記録の閉鎖等,0,2024-12-16,2024-12-09,有限会社冨田,,有限会社,千葉県,市川市,若宮３丁目２０番７号,,12,203,2720812,,,2024-12-09,清算の結了等,,,2015-10-05,1,,,,,トミタ,0
1319,6040002063779,登記記録の閉鎖等,0,2024-12-16,2024-12-06,有限会社宮野工務店,,有限会社,千葉県,八街市,富山自１３１４至１３４３番地合併１２７３,,12,230,2891141,,,2024-12-06,清算の結了等,,,2015-10-05,1,,,,,ミヤノコウムテン,0
1326,6060001030919,登記記録の閉鎖等,0,2024-12-16,2024-12-09,株式会社ワンライズ,,株式会社,栃木県,那須塩原市,北栄町４９３番地１７,,09,213,3250039,,,2024-12-09,清算の結了等,,,2018-09-26,1,,,,,ワンライズ,0
1330,6070001026932,登記記録の閉鎖等,0,2024-12-16,2024-12-11,株式会社Ｋ・クリーン工房,,株式会社,群馬県,高崎市,金古町２０９０番地１４,,10,202,3703511,,,2024-12-11,清算の結了等,,,2015-10-05,1,,,,,ケイクリーンコウボウ,0
1350,6120003016364,登記記録の閉鎖等,0,2024-12-16,2024-12-09,リグホールディングス合同会社,,合同会社,兵庫県,西宮市,一里山町２－８,,28,204,6638002,,,2024-12-09,清算の結了等,,,2019-10-04,1,,,,,リグホールディングス,0
1375,6130005003913,登記記録の閉鎖等,0,2024-12-16,2024-12-12,医療法人静仁会堀井医院,,その他の設立登記法人,京都府,京都市東山区,下河原通八坂鳥居前下る上弁天町４３９番地,,26,105,6050822,,,2024-12-12,清算の結了等,,,2015-10-05,1,,,,,セイジンカイホリイイイン,0
1385,6140002064346,登記記録の閉鎖等,0,2024-12-16,2024-12-10,有限会社大澤商店,,有限会社,兵庫県,川西市,加茂５丁目３番３号,,28,217,6660025,,,2024-12-10,清算の結了等,,,2015-10-05,1,,,,,オオサワショウテン,0
1395,6180001105527,登記記録の閉鎖等,0,2024-12-16,2024-12-11,株式会社エムワンリンク,,株式会社,愛知県,名古屋市西区,大金町１丁目５４番地,,23,104,4510082,,,2024-12-11,合併による解散等,3180001060659,令和６年１２月７日三重県四日市市広永町１１４４番地１株式会社Ｔ－Ｌｏｇｉｐ（3180001060659）に合併し解散,2015-10-05,1,,,,,エムワンリンク,0
1402,6180002067007,登記記録の閉鎖等,0,2024-12-16,2024-12-05,有限会社花,,有限会社,愛知県,春日井市,ことぶき町７番地の７,,23,206,4860831,,,2024-12-05,清算の結了等,,,2015-10-05,1,,,,,ハナ,0
1428,6290003010953,登記記録の閉鎖等,0,2024-12-16,2024-11-26,合同会社福祉専門便利屋木蓮,,合同会社,福岡県,大牟田市,黄金町２丁目４９番地,,40,202,8360872,,,2024-11-26,清算の結了等,,,2021-03-04,1,,,,,フクシセンモンベンリヤモクレン,0
1433,6300001012834,登記記録の閉鎖等,0,2024-12-16,2024-12-02,株式会社不二,,株式会社,福岡県,大川市,大字向島１９６６番地５,,40,212,8310005,,,2024-12-02,合併による解散等,9290001097973,令和６年１２月１日福岡県大川市大字向島７３８番地１１宝頼株式会社（9290001097973）に合併し解散,2022-03-07,1,,,,,フジ,0
1436,6330001022946,登記記録の閉鎖等,0,2024-12-16,2024-12-10,株式会社Ｋ．Ｐ．Ｏ．Ｏ,,株式会社,熊本県,熊本市中央区,内坪井町１番６７号ホルンハイツ１０３,,43,101,8600077,,,2024-12-10,清算の結了等,,,2016-07-12,1,,,,,ケイピーオーオー,0
1458,6430001056414,登記記録の閉鎖等,0,2024-12-16,2024-12-10,小川トレーディング株式会社,,株式会社,北海道,伊達市,弄月町４２番地５３,,01,233,0520013,,,2024-12-10,清算の結了等,,,2015-10-05,1,,,,,オガワトレーディング,0
1459,6430002045201,登記記録の閉鎖等,0,2024-12-16,2024-12-11,有限会社大雪フォーレスト,,有限会社,北海道,札幌市豊平区,西岡四条１４丁目７番８号,,01,105,0620034,,,2024-12-11,清算の結了等,,,2015-10-05,1,,,,,タイセツフォーレスト,0
1469,6490002004374,登記記録の閉鎖等,0,2024-12-16,2024-12-11,有限会社弘島自動車整備工場,,有限会社,高知県,高知市,朝倉西町１丁目８番２４号,,39,201,7808077,,,2024-12-11,清算の結了等,,,2015-10-05,1,,,,,ヒロシマジドウシャセイビコウジョウ,0
1485,7010001198479,登記記録の閉鎖等,0,2024-12-16,2024-12-02,株式会社ＣＨＣＰ－ＰＰ,,株式会社,東京都,千代田区,丸の内１丁目８番１号,,13,101,1000005,,,2024-12-02,合併による解散等,8010001191524,令和６年１２月１日東京都千代田区丸の内一丁目８番１号株式会社フィールドファーマシー（8010001191524）に合併し解散,2019-02-14,1,,,,,シーエイチシーピーピーピー,0
1486,7010001232898,登記記録の閉鎖等,0,2024-12-16,2024-12-03,株式会社ＣＥＣ,,株式会社,東京都,中央区,佃１丁目１１番７号,,13,102,1040051,,,2024-12-03,清算の結了等,,,2023-02-09,1,,,,,シーイーシー,0
1493,7010401047178,登記記録の閉鎖等,0,2024-12-16,2024-12-09,日本シーガテック株式会社,,株式会社,兵庫県,神戸市中央区,北本町通４丁目２番１０号ダイドーメゾン三宮東１０２号,,28,110,6510075,,,2024-12-09,清算の結了等,,,2015-10-05,1,,,,,ニホンシーガテック,0
1507,7010602020173,登記記録の閉鎖等,0,2024-12-16,2024-12-11,有限会社信和,,有限会社,東京都,江東区,高橋１０番５号,,13,108,1350005,,,2024-12-11,清算の結了等,,,2015-10-05,1,,,,,シンワ,0
1509,7010605004248,登記記録の閉鎖等,0,2024-12-16,2024-12-10,一般社団法人ライフスタイルサポート,,その他の設立登記法人,東京都,江東区,深川１丁目１番２号,,13,108,1350033,,,2024-12-10,清算の結了等,,,2023-10-06,1,,,,,ライフスタイルサポート,0
1514,7011001155156,登記記録の閉鎖等,0,2024-12-16,2024-12-10,ＧＥＭＳ株式会社,,株式会社,東京都,江戸川区,北小岩６丁目３－９サンクレイドル北小岩３０４,,13,123,1330051,,,2024-12-10,清算の結了等,,,2023-06-21,1,,,,,ジェムズ,0
1530,7011601001718,登記記録の閉鎖等,0,2024-12-16,2024-12-04,株式会社吟水園,,株式会社,東京都,練馬区,石神井町３丁目２５番４－２０３号,,13,120,1770041,,,2024-12-04,清算の結了等,,,2015-10-05,1,,,,,,0
1533,7011601027382,登記記録の閉鎖等,0,2024-12-16,2024-12-04,株式会社パインネクスト,,株式会社,東京都,練馬区,関町北２丁目１番６－５０２号,,13,120,1770051,,,2024-12-04,清算の結了等,,,2023-12-19,1,,,,,パインネクスト,0
1535,7011602003184,登記記録の閉鎖等,0,2024-12-16,2024-12-04,有限会社久保田メディカル,,有限会社,東京都,練馬区,東大泉３丁目２９番１３号,,13,120,1780063,,,2024-12-04,清算の結了等,,,2015-10-05,1,,,,,クボタメディカル,0
1570,7021002004815,登記記録の閉鎖等,0,2024-12-16,2024-12-13,光岡電機工業有限会社,,有限会社,神奈川県,藤沢市,長後８４３番地,,14,205,2520801,,,2024-12-13,清算の結了等,,,2015-10-05,1,,,,,ミツオカデンキコウギョウ,0
1582,7030003002240,登記記録の閉鎖等,0,2024-12-16,2024-12-11,井下田合名会社,,合名会社,埼玉県,志木市,本町５丁目２６番１５号,,11,228,3530004,,,2024-12-11,清算の結了等,,,2015-10-05,1,,,,,イゲタ,0
1620,7120005009299,登記記録の閉鎖等,0,2024-12-16,2024-12-12,特定非営利活動法人ＤｒｅａｍＣｏｍｅＴｒｕｅ,,その他の設立登記法人,大阪府,大阪市東淀川区,東中島１丁目２０番１２号ユニゾーン新大阪１１０９,,27,114,5330033,,,2024-12-12,清算の結了等,,,2015-10-05,1,,,,,ドリームカムトゥルー,0
1636,7130005012715,登記記録の閉鎖等,0,2024-12-16,2024-12-12,特定非営利活動法人らいふわーく,,その他の設立登記法人,京都府,京都市左京区,浄土寺上馬場町１１７番地ファーイースト白川通１階,,26,103,6068416,,,2024-12-12,清算の結了等,,,2015-10-05,1,,,,,ライフワーク,0
1648,7180001107522,登記記録の閉鎖等,0,2024-12-16,2024-12-06,コルミオ株式会社,,株式会社,愛知県,名古屋市熱田区,横田１丁目１番５２号,,23,109,4560022,,,2024-12-06,清算の結了等,,,2015-10-05,1,,,,,コルミオ,0
1666,7180302007801,登記記録の閉鎖等,0,2024-12-16,2024-12-10,有限会社下山建設,,有限会社,愛知県,豊橋市,野田町字野田２６９番地の１,,23,201,4418001,,,2024-12-10,清算の結了等,,,2015-10-05,1,,,,,シモヤマケンセツ,0
1679,7260002024279,登記記録の閉鎖等,0,2024-12-16,2024-12-10,有限会社ケーテム,,有限会社,岡山県,倉敷市,連島町亀島新田４８３番地,,33,202,7128002,,,2024-12-10,清算の結了等,,,2015-10-05,1,,,,,ケーテム,0
1681,7270002007968,登記記録の閉鎖等,0,2024-12-16,2024-12-12,有限会社みなと家旅館,,有限会社,鳥取県,境港市,大正町８０番地,,31,204,6840004,,,2024-12-12,清算の結了等,,,2015-10-05,1,,,,,ミナトヤリョカン,0
1684,7290001060479,登記記録の閉鎖等,0,2024-12-16,2024-11-21,オンリード株式会社,,株式会社,福岡県,福岡市博多区,博多駅前２丁目５番８号,,40,132,8120011,,,2024-11-21,清算の結了等,,,2015-10-05,1,,,,,オンリード,0
1690,7290001104145,登記記録の閉鎖等,0,2024-12-16,2024-11-21,株式会社ＬＵＸ,,株式会社,福岡県,福岡市中央区,天神１丁目９番１７号福岡天神フコク生命ビル１５階,,40,133,8100001,,,2024-11-21,清算の結了等,,,2023-12-21,1,,,,,ラグ,0
1699,7290002042047,登記記録の閉鎖等,0,2024-12-16,2024-11-19,有限会社アイソーイング,,有限会社,福岡県,太宰府市,大佐野３丁目１９番２０号,,40,221,8180134,,,2024-11-19,清算の結了等,,,2015-10-05,1,,,,,アイソーイング,0
1704,7320002002765,登記記録の閉鎖等,0,2024-12-16,2024-12-13,有限会社コダマ時計眼鏡店,,有限会社,大分県,大分市,中鶴崎２丁目５番１８号,,44,201,8700101,,,2024-12-13,清算の結了等,,,2015-10-05,1,,,,,,0
1713,7370601000082,登記記録の閉鎖等,0,2024-12-16,2024-12-02,株式会社エイビイシイ,,株式会社,宮城県,仙台市青葉区,本町２丁目１９番１８号,,04,101,9800014,,,2024-12-02,合併による解散等,4370002009726,令和６年１２月１日仙台市青葉区本町二丁目１９番１８号株式会社岩本企業（4370002009726）に合併し解散,2015-10-05,1,,,,,エイビイシイ,0
1719,7380002029522,登記記録の閉鎖等,0,2024-12-16,2024-12-04,有限会社竹内建材,,有限会社,福島県,南相馬市,原町区上高平字前明３６－１,,07,212,9750026,,,2024-12-04,清算の結了等,,,2015-10-05,1,,,,,タケウチケンザイ,0
1720,7380002031271,登記記録の閉鎖等,0,2024-12-16,2024-12-04,有限会社鵜川測量設計事務所,,有限会社,福島県,会津若松市,町北町大字藤室字藤室１７８番地９,,07,202,9650057,,,2024-12-04,清算の結了等,,,2015-10-05,1,,,,,ウカワソクリョウセッケイジムショ,0
1724,7430001039013,登記記録の閉鎖等,0,2024-12-16,2024-12-10,マチュア株式会社,,株式会社,北海道,札幌市中央区,大通東１０丁目１５番地５５－３０２,,01,101,0600041,,,2024-12-10,清算の結了等,,,2015-10-05,1,,,,,マチュア,0
1728,7440002002324,登記記録の閉鎖等,0,2024-12-16,2024-12-12,有限会社青函フェリー,,有限会社,北海道,函館市,浅野町５番２２号,,01,202,0400076,,,2024-12-12,清算の結了等,,,2015-10-05,1,,,,,セイカンフェリー,0
1730,7460002000029,登記記録の閉鎖等,0,2024-12-16,2024-12-12,有限会社アオキ産業,,有限会社,北海道,釧路市,緑ケ岡６丁目１番１２号,,01,206,0850814,,,2024-12-12,清算の結了等,,,2015-10-05,1,,,,,アオキサンギョウ,0
1731,7470002015736,登記記録の閉鎖等,0,2024-12-16,2024-12-11,有限会社アーバン物流,,有限会社,香川県,三豊市,高瀬町佐股乙３７９番地１,,37,208,7670021,,,2024-12-11,清算の結了等,,,2015-10-05,1,,,,,アーバンブツリュウ,0
1748,8010101003810,登記記録の閉鎖等,0,2024-12-16,2024-12-13,株式会社みどり地所,,株式会社,東京都,八王子市,横川町７８３番地,,13,201,1930823,,,2024-12-13,清算の結了等,,,2015-10-05,1,,,,,ミドリジショ,0
1760,8010601015529,登記記録の閉鎖等,0,2024-12-16,2024-12-10,株式会社前田美術印刷,,株式会社,東京都,墨田区,石原１丁目３４番４号,,13,107,1300011,,,2024-12-10,清算の結了等,,,2015-10-05,1,,,,,,0
1769,8010901024790,登記記録の閉鎖等,0,2024-12-16,2024-12-09,株式会社ケン・コーポレーション,,株式会社,東京都,世田谷区,野沢１丁目９番２０号,,13,112,1540003,,,2024-12-09,清算の結了等,,,2015-10-05,1,,,,,ケンコーポレーション,0
1788,8011505000922,登記記録の閉鎖等,0,2024-12-16,2024-12-11,マルヨネマンション管理組合法人,,その他の設立登記法人,東京都,北区,神谷２丁目４１番８号,,13,117,1150043,,,2024-12-11,清算の結了等,,,2015-10-05,1,,,,,マルヨネマンション,0
1794,8012401024206,登記記録の閉鎖等,0,2024-12-16,2024-12-02,株式会社ゆろろん,,株式会社,東京都,国立市,東１丁目４番地の２０,,13,215,1860002,,,2024-12-02,清算の結了等,,,2015-10-05,1,,,,,ユロロン,0
1795,8012401038544,登記記録の閉鎖等,0,2024-12-16,2024-12-05,株式会社ハプア,,株式会社,東京都,狛江市,中和泉３丁目３２番２９号,,13,219,2010012,,,2024-12-05,清算の結了等,,,2021-11-16,1,,,,,ハプア,0
1802,8020001138854,登記記録の閉鎖等,0,2024-12-16,2024-12-09,株式会社アンカープライド港南台,,株式会社,神奈川県,川崎市多摩区,宿河原３丁目２３番４０号,,14,135,2140021,,,2024-12-09,清算の結了等,,,2020-12-02,1,,,,,アンカープライドコウナンダイ,0
1813,8021003003856,登記記録の閉鎖等,0,2024-12-16,2024-12-13,うたし合同会社,,合同会社,神奈川県,横須賀市,馬堀町２丁目１８番１４号,,14,201,2390802,,,2024-12-13,清算の結了等,,,2015-10-05,1,,,,,ウタシ,0
1815,8030001028930,登記記録の閉鎖等,0,2024-12-16,2024-12-11,株式会社狭山学校給食サービス,,株式会社,埼玉県,狭山市,狭山２８番１４号,,11,215,3501334,,,2024-12-11,清算の結了等,,,2015-10-05,1,,,,,サヤマガッコウキュウショクサービス,0
1816,8030001043847,登記記録の閉鎖等,0,2024-12-16,2024-12-06,株式会社ハーツ,,株式会社,東京都,豊島区,池袋３丁目６０番５号フェイヴァーフィールド池袋３０１,,13,116,1710014,,,2024-12-06,清算の結了等,,,2015-10-05,1,,,,,ハーツ,0
1824,8030002024879,登記記録の閉鎖等,0,2024-12-16,2024-12-12,有限会社永井鉄工所,,有限会社,埼玉県,戸田市,下前２丁目８番８号,,11,224,3350016,,,2024-12-12,清算の結了等,,,2015-10-05,1,,,,,ナガイテッコウジョ,0
1826,8030002064693,登記記録の閉鎖等,0,2024-12-16,2024-12-10,有限会社すずらんケアサポート,,有限会社,埼玉県,志木市,館１丁目５番１号,,11,228,3530006,,,2024-12-10,清算の結了等,,,2015-10-05,1,,,,,スズランケアサポート,0
1836,8040003017526,登記記録の閉鎖等,0,2024-12-16,2024-12-09,ＳｔｕｄｙＭｅ合同会社,,合同会社,千葉県,八千代市,大和田新田４８３－５６,,12,221,2760046,,,2024-12-09,清算の結了等,,,2021-04-14,1,,,,,スタディミー,0
1839,8060001011751,登記記録の閉鎖等,0,2024-12-16,2024-12-10,株式会社那須野,,株式会社,栃木県,那須郡那須町,大字高久乙５８６番地２０,,09,407,3250303,,,2024-12-10,清算の結了等,,,2015-10-05,1,,,,,ナスノ,0
1851,8090001002368,登記記録の閉鎖等,0,2024-12-16,2024-12-05,株式会社山一鋼材,,株式会社,山梨県,甲府市,北口１丁目６番２号,,19,201,4000024,,,2024-12-05,清算の結了等,,,2015-10-05,1,,,,,ヤマイチコウザイ,0
1863,8120001222292,登記記録の閉鎖等,0,2024-12-16,2024-12-10,株式会社Ｒｅ－ｗｏｒＱ,,株式会社,大阪府,大阪市北区,芝田１丁目１０番１０号,,27,127,5300012,,,2024-12-10,清算の結了等,,,2019-07-05,1,,,,,リワーク,0
1864,8120001255565,登記記録の閉鎖等,0,2024-12-16,2024-12-12,アキラ株式会社,,株式会社,大阪府,大阪市北区,同心２丁目３番１３号,,27,127,5300035,,,2024-12-12,清算の結了等,,,2023-06-13,1,,,,,アキラ,0
1880,8120902006240,登記記録の閉鎖等,0,2024-12-16,2024-12-09,有限会社サンエービルト,,有限会社,大阪府,摂津市,鶴野２丁目９番２－４０３号,,27,224,5660035,,,2024-12-09,清算の結了等,,,2015-10-05,1,,,,,サンエービルト,0
1881,8120902017543,登記記録の閉鎖等,0,2024-12-16,2024-12-10,有限会社石川鉄工所,,有限会社,大阪府,豊中市,走井２丁目１４番２２号,,27,203,5610891,,,2024-12-10,清算の結了等,,,2015-10-05,1,,,,,イシカワテッコウショ,0
1887,8140001102229,登記記録の閉鎖等,0,2024-12-16,2024-12-09,株式会社辰商会,,株式会社,兵庫県,宍粟市,山崎町中比地５４５番地,,28,227,6712557,,,2024-12-09,清算の結了等,,,2016-06-01,1,,,,,タツショウカイ,0
1889,8140003018935,登記記録の閉鎖等,0,2024-12-16,2024-12-10,合同会社ＩＤＣＰサポート,,合同会社,兵庫県,神戸市北区,鹿の子台南町４丁目３８番１２号,,28,109,6511514,,,2024-12-10,清算の結了等,,,2023-04-10,1,,,,,アイディーシーピーサポート,0
1897,8180303004136,登記記録の閉鎖等,0,2024-12-16,2024-12-10,合同会社ＭＭ,,合同会社,愛知県,蒲郡市,三谷町東前６１番地,,23,214,4430021,,,2024-12-10,清算の結了等,,,2018-08-17,1,,,,,エムエム,0
1903,8190005000366,登記記録の閉鎖等,0,2024-12-16,2024-12-12,協同組合津新町通り駐車場,,その他の設立登記法人,三重県,津市,南丸之内２０番１０号,,24,201,5140034,,,2024-12-12,清算の結了等,,,2015-10-05,1,,,,,ツシンマチドオリチュウシャジョウ,0
1912,8240005014625,登記記録の閉鎖等,0,2024-12-16,2024-12-10,一般社団法人産業振興支援センターおなし福寿畑,,その他の設立登記法人,広島県,竹原市,小梨町１０４７１番地,,34,203,7250011,,,2024-12-10,清算の結了等,,,2018-07-03,1,,,,,サンギョウシンコウシエンセンターオナシフクジュバタケ,0
1914,8260001013604,登記記録の閉鎖等,0,2024-12-16,2024-12-09,株式会社春陽堂,,株式会社,広島県,広島市佐伯区,五日市１丁目８番２９号,,34,108,7315127,,,2024-12-09,清算の結了等,,,2015-10-05,1,,,,,シュンヨウドウ,0
1933,8320005007612,登記記録の閉鎖等,0,2024-12-16,2024-12-12,蓮正寺,00097238,その他の設立登記法人,大分県,中津市,７１２番地,,44,203,8710099,,,2024-12-12,清算の結了等,,,2015-10-05,1,,,,,,0
1940,8370001046907,登記記録の閉鎖等,0,2024-12-16,2024-12-03,株式会社アグリサポートセンター石巻,,株式会社,宮城県,石巻市,小船越字一番江１番地１,,04,202,9860132,,,2024-12-03,清算の結了等,,,2021-04-09,1,,,,,アグリサポートセンターイシノマキ,0
1987,9010502019280,登記記録の閉鎖等,0,2024-12-16,2024-12-10,有限会社ＴＯＹＯ,,有限会社,埼玉県,さいたま市南区,根岸５丁目１８番１５号４０１,,11,108,3360024,,,2024-12-10,清算の結了等,,,2015-10-05,1,,,,,トヨ,0
1997,9010901044342,登記記録の閉鎖等,0,2024-12-16,2024-12-09,株式会社ｐｌａｔ　ｍａｒａｉｓ,,株式会社,東京都,世田谷区,上用賀６丁目１８番２０号,,13,112,1580098,,,2024-12-09,清算の結了等,,,2019-06-12,1,,,,,プラマレ,0
2006,9011101091183,登記記録の閉鎖等,0,2024-12-16,2024-12-09,株式会社Ｓｈｏｒｔｅｎ,,株式会社,東京都,新宿区,新宿３丁目５－６キュープラザ新宿三丁目６階,,13,104,1600022,,,2024-12-09,清算の結了等,,,2020-05-12,1,,,,,ショーテン,0
2019,9011602002135,登記記録の閉鎖等,0,2024-12-16,2024-12-04,有限会社大鷲駐車場,,有限会社,東京都,練馬区,石神井町３丁目２５番２６号,,13,120,1770041,,,2024-12-04,清算の結了等,,,2015-10-05,1,,,,,,0
2027,9013102006525,登記記録の閉鎖等,0,2024-12-16,2024-12-10,有限会社西村屋本店,,有限会社,東京都,青梅市,新町５丁目１８番地９,,13,205,1980024,,,2024-12-10,清算の結了等,,,2015-10-05,1,,,,,ニシムラヤホンテン,0
2031,9013301019674,登記記録の閉鎖等,0,2024-12-16,2024-12-05,株式会社国英データサービス,,株式会社,東京都,豊島区,東池袋４丁目２６番１３号,,13,116,1700013,,,2024-12-05,清算の結了等,,,2015-10-05,1,,,,,コクエイデータサービス,0
2052,9030002045882,登記記録の閉鎖等,0,2024-12-16,2024-12-12,丸八燃料有限会社,,有限会社,埼玉県,草加市,神明１丁目２番２８号,,11,221,3400012,,,2024-12-12,清算の結了等,,,2015-10-05,1,,,,,マルハチネンリョウ,0
2054,9030002077653,登記記録の閉鎖等,0,2024-12-16,2024-12-12,有限会社野口教材,,有限会社,埼玉県,比企郡川島町,大字加胡５番地,,11,346,3500107,,,2024-12-12,清算の結了等,,,2015-10-05,1,,,,,ノグチキョウザイ,0
2059,9040001014350,登記記録の閉鎖等,0,2024-12-16,2024-12-06,株式会社開賀商店,,株式会社,千葉県,習志野市,東習志野６丁目１２番１９号,,12,216,2750001,,,2024-12-06,清算の結了等,,,2015-10-05,1,,,,,カイガショウテン,0
2062,9040001071524,登記記録の閉鎖等,0,2024-12-16,2024-12-05,株式会社マルユーエッグ,,株式会社,千葉県,野田市,目吹１５３１番地７,,12,208,2780001,,,2024-12-05,清算の結了等,,,2015-10-05,1,,,,,マルユーエッグ,0
2064,9040001094871,登記記録の閉鎖等,0,2024-12-16,2024-12-09,株式会社アットワーク,,株式会社,千葉県,市川市,行徳駅前１丁目９番１９号,,12,203,2720133,,,2024-12-09,清算の結了等,,,2016-04-18,1,,,,,アットワーク,0
2066,9050001021783,登記記録の閉鎖等,0,2024-12-16,2024-12-11,浅倉建設株式会社,,株式会社,茨城県,鉾田市,子生１２９番地の１,,08,234,3111414,,,2024-12-11,清算の結了等,,,2015-10-05,1,,,,,アサクラケンセツ,0
2068,9060002012401,登記記録の閉鎖等,0,2024-12-16,2024-12-10,有限会社池田自動車整備工場,,有限会社,栃木県,塩谷郡高根沢町,大字上高根沢２７５０番地３,,09,386,3291224,,,2024-12-10,清算の結了等,,,2015-10-05,1,,,,,イケダジドウシャセイビコウジョウ,0
2073,9080002016615,登記記録の閉鎖等,0,2024-12-16,2024-12-09,有限会社丸清共同施設,,有限会社,静岡県,焼津市,利右衛門２６１４番地,,22,212,4210212,,,2024-12-09,清算の結了等,,,2015-10-05,1,,,,,マルセイキョウドウシセツ,0
2080,9100002021678,登記記録の閉鎖等,0,2024-12-16,2024-12-10,有限会社マルタミ,,有限会社,長野県,松本市,大字島立２１３番地２,,20,202,3900852,,,2024-12-10,清算の結了等,,,2015-10-05,1,,,,,マルタミ,0
2092,9120901016090,登記記録の閉鎖等,0,2024-12-16,2024-12-09,株式会社みやび石材,,株式会社,大阪府,吹田市,清和園町２７番８号,,27,205,5640039,,,2024-12-09,清算の結了等,,,2015-10-05,1,,,,,ミヤビセキザイ,0
2097,9122003000122,登記記録の閉鎖等,0,2024-12-16,2024-12-11,合資会社ウッディ家,,合資会社,大阪府,東大阪市,俊徳町２丁目２番４号プレアール俊徳道１０５号,,27,227,5770831,,,2024-12-11,清算の結了等,,,2015-10-05,1,,,,,ウッディケ,0
2106,9140001002576,登記記録の閉鎖等,0,2024-12-16,2024-12-09,株式会社御影電化センター,,株式会社,兵庫県,神戸市東灘区,御影中町１丁目１３番１４号,,28,101,6580054,,,2024-12-09,清算の結了等,,,2015-10-05,1,,,,,ミカゲデンカセンター,0
2112,9140002034486,登記記録の閉鎖等,0,2024-12-16,2024-12-11,近畿石材産業有限会社,,有限会社,兵庫県,丹波市,山南町金屋７２番地,,28,223,6693128,,,2024-12-11,清算の結了等,,,2015-10-05,1,,,,,キンキセキザイサンギョウ,0
2119,9180001116323,登記記録の閉鎖等,0,2024-12-16,2024-12-04,ジュエル・ブライド株式会社,,株式会社,愛知県,名古屋市千種区,山門二丁目１３番地カーサタカミ覚王山３Ａ,,23,101,4640000,,,2024-12-04,清算の結了等,,,2015-10-05,1,,,,,ジュエルブライド,0
2126,9200002015026,登記記録の閉鎖等,0,2024-12-16,2024-12-11,有限会社Ｆｉｔ,,有限会社,岐阜県,大垣市,東町１丁目１９５番地,,21,202,5030802,,,2024-12-11,清算の結了等,,,2015-10-05,1,,,,,フィット,0
2127,9210002009646,登記記録の閉鎖等,0,2024-12-16,2024-12-10,有限会社丸高商店,,有限会社,福井県,大野市,本町１０番７号,,18,205,9120025,,,2024-12-10,清算の結了等,,,2015-10-05,1,,,,,マルタカショウテン,0
2133,9260002011440,登記記録の閉鎖等,0,2024-12-16,2024-12-09,オーチャードツーリスト有限会社,,有限会社,岡山県,岡山市北区,菅野２８７１番地の３,,33,101,7011141,,,2024-12-09,清算の結了等,,,2015-10-05,1,,,,,オーチャードツーリスト,0
2137,9290001063331,登記記録の閉鎖等,0,2024-12-16,2024-11-19,株式会社さくらや,,株式会社,福岡県,大川市,大字上白垣１７７番地２,,40,212,8310012,,,2024-11-19,清算の結了等,,,2015-10-05,1,,,,,サクラヤ,0
2138,9290001079856,登記記録の閉鎖等,0,2024-12-16,2024-11-21,株式会社シーエムシー,,株式会社,福岡県,糟屋郡須惠町,大字旅石１１５番地１５５,,40,344,8112221,,,2024-11-21,清算の結了等,,,2017-12-08,1,,,,,,0
2139,9290001094616,登記記録の閉鎖等,0,2024-12-16,2024-11-25,ナノステック株式会社,,株式会社,福岡県,大野城市,川久保１丁目１９番１０号,,40,219,8160905,,,2024-11-25,清算の結了等,,,2021-09-14,1,,,,,ナノステック,0
2145,9290002037532,登記記録の閉鎖等,0,2024-12-16,2024-12-03,有限会社ミロ,,有限会社,福岡県,糟屋郡志免町,王子２丁目２番１４号,,40,343,8112209,,,2024-12-03,清算の結了等,,,2015-10-05,1,,,,,ミロ,0
2146,9290002056185,登記記録の閉鎖等,0,2024-12-16,2024-11-05,有限会社コンドー設備,,有限会社,福岡県,大牟田市,花園町２番地３,,40,202,8360867,,,2024-11-05,清算の結了等,,,2015-10-05,1,,,,,コンドーセツビ,0
2150,9290801009970,登記記録の閉鎖等,0,2024-12-16,2024-12-13,鋼和ルーフ株式会社,,株式会社,福岡県,北九州市八幡西区,木屋瀬１丁目１６番１５号,,40,109,8071261,,,2024-12-13,清算の結了等,,,2015-10-05,1,,,,,コウワルーフ,0
2157,9320002001823,登記記録の閉鎖等,0,2024-12-16,2024-12-12,有限会社鶴洋工業,,有限会社,大分県,大分市,大字常行４７８番地の７２伸晃マンション弐番館１０７,,44,201,8700116,,,2024-12-12,清算の結了等,,,2015-10-05,1,,,,,カクヨウコウギョウ,0
2158,9330005008476,登記記録の閉鎖等,0,2024-12-16,2024-12-06,高橋・徳永税理士法人,00121069,その他の設立登記法人,熊本県,上益城郡益城町,大字惣領９１０番地１,,43,443,8612233,,,2024-12-06,清算の結了等,,,2015-10-05,1,,,,,タカハシトクナガ,0
2166,9400001008885,登記記録の閉鎖等,0,2024-12-16,2024-12-05,株式会社慧信,,株式会社,岩手県,盛岡市,手代森１４地割１６番地２３１,,03,201,0200401,,,2024-12-05,清算の結了等,,,2015-10-05,1,,,,,ケイシン,0
2177,9440001001317,登記記録の閉鎖等,0,2024-12-16,2024-12-11,寺田株式会社,,株式会社,北海道,函館市,西桔梗町５８９番地の５６,,01,202,0410824,,,2024-12-11,合併による解散等,9430001016101,令和６年１２月１日札幌市厚別区厚別東四条七丁目３６番３号株式会社松井（9430001016101）に合併し解散,2015-10-05,1,,,,,テラダ,0
2179,9460301000306,登記記録の閉鎖等,0,2024-12-16,2024-12-13,北見日通運輸株式会社,,株式会社,北海道,北見市,東相内町１０８番３２,,01,208,0990878,,,2024-12-13,清算の結了等,,,2015-10-05,1,,,,,キタミニッツウウンユ,0
2184,9490002003464,登記記録の閉鎖等,0,2024-12-16,2024-12-12,有限会社データサポート高知,,有限会社,高知県,高知市,十津１丁目３６３４番地５６,,39,201,7810114,,,2024-12-12,清算の結了等,,,2015-10-05,1,,,,,データサポートコウチ,0
2185,9500002020342,登記記録の閉鎖等,0,2024-12-16,2024-12-11,有限会社佐七屋,,有限会社,愛媛県,今治市,宮窪町宮窪２９６３番地１,,38,202,7942203,,,2024-12-11,清算の結了等,,,2015-10-05,1,,,,,サヒチヤ,0
