sequenceNumber,corporateNumber,process,correct,updateDate,changeDate,name,nameImageId,kind,prefectureName,cityName,streetNumber,addressImageId,prefectureCode,cityCode,postCode,addressOutside,addressOutsideImageId,closeDate,closeCause,successorCorporateNumber,changeCause,assignmentDate,latest,enName,enPrefectureName,enCityName,enAddressOutside,furigana,hihyoji
17,1010003039447,登記記録の閉鎖等,0,2025-08-21,2025-08-06,ＧＲＥ　Ｉｎｔｅｒｎａｔｉｏｎａｌ合同会社,,合同会社,東京都,千代田区,外神田３丁目１２番８号,,13,101,1010021,,,2025-08-06,合併による解散等,4010001018053,令和７年７月３１日東京都千代田区外神田三丁目１２番８号株式会社サードウェーブ（4010001018053）に合併し解散,2022-12-28,1,,,,,ジーアールイーインターナショナル,0
18,1010005026988,登記記録の閉鎖等,0,2025-08-21,2025-07-28,一般社団法人日本風呂敷マスター協会,,その他の設立登記法人,東京都,中央区,銀座６丁目１３番１６号銀座ＷａｌｌビルＵＣＦ５階,,13,102,1040061,,,2025-07-28,清算の結了等,,,2017-06-19,1,,,,,ニホンフロシキマスターキョウカイ,0
22,1010401017062,登記記録の閉鎖等,0,2025-08-21,2025-07-23,株式会社ティエヌ・マネジメントコンサルティング,,株式会社,東京都,港区,新橋２丁目１６番１号,,13,103,1050004,,,2025-07-23,清算の結了等,,,2015-10-05,1,,,,,ティエヌマネジメントコンサルティング,0
29,1010403019511,登記記録の閉鎖等,0,2025-08-21,2025-07-15,合同会社ｅｆｆｅｃｔ,,合同会社,東京都,港区,高輪３丁目１０番７－１０４号,,13,103,1080074,,,2025-07-15,清算の結了等,,,2018-10-17,1,,,,,エフェクト,0
45,1010901006597,登記記録の閉鎖等,0,2025-08-21,2025-08-20,株式会社壯宗,,株式会社,東京都,世田谷区,世田谷１丁目１０番１５号,,13,112,1540017,,,2025-08-20,清算の結了等,,,2015-10-05,1,,,,,ソウソウ,0
46,1010901054638,登記記録の閉鎖等,0,2025-08-21,2025-08-18,クリア株式会社,,株式会社,東京都,世田谷区,代田１丁目４７番２号,,13,112,1550033,,,2025-08-18,合併による解散等,6380001010194,令和７年７月３０日福島県白河市高山８６番地２０７号桜乳業株式会社（6380001010194）に合併し解散,2024-01-31,1,,,,,クリア,0
63,1011801019268,登記記録の閉鎖等,0,2025-08-21,2025-08-18,株式会社三協樹脂工作所,,株式会社,東京都,足立区,入谷９丁目１５番１３号,,13,121,1210836,,,2025-08-18,清算の結了等,,,2015-10-05,1,,,,,サンコウジュシコウサクジョ,0
65,1011801032980,登記記録の閉鎖等,0,2025-08-21,2025-08-19,株式会社スタイルコピーカット,,株式会社,東京都,葛飾区,水元３丁目８番１６号,,13,122,1250032,,,2025-08-19,清算の結了等,,,2017-03-06,1,,,,,スタイルコピーカット,0
78,1013301019748,登記記録の閉鎖等,0,2025-08-21,2025-07-29,株式会社ヴァスト,,株式会社,東京都,豊島区,池袋２丁目５１番１４号飛翔ビル８Ｆ,,13,116,1710014,,,2025-07-29,清算の結了等,,,2015-10-05,1,,,,,ヴァスト,0
82,1013301045042,登記記録の閉鎖等,0,2025-08-21,2025-08-04,株式会社ＮＥＸＴ,,株式会社,東京都,豊島区,東池袋１丁目４２番１２号,,13,116,1700013,,,2025-08-04,清算の結了等,,,2020-01-15,1,,,,,ネクスト,0
112,1060002034213,登記記録の閉鎖等,0,2025-08-21,2025-08-13,有限会社岡田建装,,有限会社,栃木県,下都賀郡壬生町,大字壬生丁１４４番地１９,,09,361,3210216,,,2025-08-13,清算の結了等,,,2015-10-05,1,,,,,オカダケンソウ,0
114,1070003003884,登記記録の閉鎖等,0,2025-08-21,2025-08-18,合同会社Ｒａｄｉａｎｔ,,合同会社,群馬県,高崎市,問屋町西１丁目９番地８ル・プランタン２－Ｅ,,10,202,3700007,,,2025-08-18,清算の結了等,,,2020-10-19,1,,,,,,0
115,1080002004180,登記記録の閉鎖等,0,2025-08-21,2025-08-18,登龍商事有限会社,,有限会社,静岡県,静岡市葵区,川辺町１丁目１番２０号,,22,101,4200043,,,2025-08-18,清算の結了等,,,2015-10-05,1,,,,,トウリュウショウジ,0
125,1100002030785,登記記録の閉鎖等,0,2025-08-21,2025-08-18,有限会社ネイチャーハウス,,有限会社,長野県,諏訪郡原村,１６２６７番地１９１８,,20,363,3910100,,,2025-08-18,清算の結了等,,,2015-10-05,1,,,,,ネイチャーハウス,0
130,1110002011207,登記記録の閉鎖等,0,2025-08-21,2025-08-01,有限会社川多津,,有限会社,新潟県,新潟市西蒲区,今井７番地３,,15,108,9590515,,,2025-08-01,清算の結了等,,,2015-10-05,1,,,,,カワタツ,0
155,1130001060731,登記記録の閉鎖等,0,2025-08-21,2025-08-04,株式会社ｉｃプロデュース,,株式会社,京都府,京都市中京区,三条町３３２,,26,104,6048205,,,2025-08-04,清算の結了等,,,2017-10-16,1,,,,,アイシープロデュース,0
156,1130001064492,登記記録の閉鎖等,0,2025-08-21,2025-08-04,株式会社莉桜,,株式会社,京都府,京都市中京区,壬生中川町１０番地６川島ビル３階３０１号室,,26,104,6048863,,,2025-08-04,清算の結了等,,,2019-05-15,1,,,,,リオ,0
163,1140001119436,登記記録の閉鎖等,0,2025-08-21,2025-08-18,ファーマシーインベストメント株式会社,,株式会社,兵庫県,尼崎市,御園町２４番地尼崎第一ビル４０２号,,28,202,6600861,,,2025-08-18,合併による解散等,8050001031651,令和７年８月１日茨城県筑西市幸町三丁目５番１８号株式会社マイドラッグ（8050001031651）に合併し解散,2020-11-16,1,,,,,ファーマシーインベストメント,0
164,1140001132744,登記記録の閉鎖等,0,2025-08-21,2025-08-12,株式会社ＳＯ,,株式会社,兵庫県,伊丹市,春日丘３丁目６２－１－３０２,,28,207,6640893,,,2025-08-12,清算の結了等,,,2024-01-05,1,,,,,エスオー,0
167,1150001005742,登記記録の閉鎖等,0,2025-08-21,2025-08-13,株式会社グリーンハウス,,株式会社,奈良県,大和郡山市,泉原町２番地の５,,29,203,6391056,,,2025-08-13,清算の結了等,,,2015-10-05,1,,,,,グリーンハウス,0
177,1240005014318,登記記録の閉鎖等,0,2025-08-21,2025-08-19,一般社団法人ロハスピープル協会,,その他の設立登記法人,広島県,広島市東区,牛田早稲田４丁目７番１２号,,34,102,7320062,,,2025-08-19,清算の結了等,,,2017-02-03,1,,,,,,0
182,1260002011118,登記記録の閉鎖等,0,2025-08-21,2025-07-30,有限会社タックコンサルタント,,有限会社,岡山県,赤磐市,桜が丘西６丁目２８番７号,,33,213,7090802,,,2025-07-30,清算の結了等,,,2015-10-05,1,,,,,タックコンサルタント,0
195,1320001004719,登記記録の閉鎖等,0,2025-08-21,2025-08-12,株式会社アイテック,,株式会社,大分県,大分市,三佐３丁目１番３号２０２,,44,201,8700108,,,2025-08-12,清算の結了等,,,2015-10-05,1,,,,,アイテック,0
197,1320002004602,登記記録の閉鎖等,0,2025-08-21,2025-08-12,有限会社鶴見シヤリング,,有限会社,大分県,大分市,弁天２丁目５番３３号,,44,201,8700017,,,2025-08-12,清算の結了等,,,2015-10-05,1,,,,,ツルミシヤリング,0
198,1320002019600,登記記録の閉鎖等,0,2025-08-21,2025-08-08,有限会社信栄林産,,有限会社,大分県,日田市,上津江町上野田１２５０番地の１,,44,204,8770312,,,2025-08-08,清算の結了等,,,2015-10-05,1,,,,,シンエイリンサン,0
208,1380005002770,登記記録の閉鎖等,0,2025-08-21,2025-08-01,医療法人苅部歯科医院,,その他の設立登記法人,福島県,郡山市,日和田町字日向８３番地,,07,203,9630534,,,2025-08-01,清算の結了等,,,2015-10-05,1,,,,,カルベシカイイン,0
217,1470002017044,登記記録の閉鎖等,0,2025-08-21,2025-08-08,有限会社瀬戸大橋レンターリース,,有限会社,香川県,三豊市,詫間町詫間２１１２番地１１１,,37,208,7691101,,,2025-08-08,合併による解散等,9470001010562,令和７年７月２８日香川県三豊市詫間町詫間２１１２番地１６８大成生コン株式会社（9470001010562）に合併し解散,2015-10-05,1,,,,,セトオオハシレンターリース,0
230,2010001233934,登記記録の閉鎖等,0,2025-08-21,2025-07-23,株式会社ヘイムダル,,株式会社,東京都,中央区,日本橋蛎殻町１丁目１３番１号ユニゾ蛎殻町北島ビルＢ１Ｆ,,13,102,1030014,,,2025-07-23,清算の結了等,,,2023-04-12,1,,,,,ヘイムダル,0
242,2010003036897,登記記録の閉鎖等,0,2025-08-21,2025-07-24,ジェイコアレジ５合同会社１７,,合同会社,東京都,千代田区,丸の内１丁目４番１号東京共同会計事務所内,,13,101,1000005,,,2025-07-24,清算の結了等,,,2022-02-02,1,,,,,ジェイコアレジファイブイチナナ,0
264,2010802014649,登記記録の閉鎖等,0,2025-08-21,2025-08-12,有限会社森伸製作所,,有限会社,東京都,大田区,西六郷３丁目１３番２号,,13,111,1440056,,,2025-08-12,清算の結了等,,,2015-10-05,1,,,,,モリシンセイサクショ,0
270,2011001115189,登記記録の閉鎖等,0,2025-08-21,2025-08-18,株式会社キューボ,,株式会社,東京都,渋谷区,渋谷１丁目２番５号ＭＦＰＲ渋谷ビル,,13,113,1500002,,,2025-08-18,合併による解散等,2011101052670,令和７年７月１日東京都世田谷区太子堂四丁目１番１号キャロットタワー株式会社キャリア（2011101052670）に合併し解散,2017-03-08,1,,,,,キューボ,0
271,2011001130816,登記記録の閉鎖等,0,2025-08-21,2025-07-18,ＰＬＡＹＨＥＲＡ　ＪＡＰＡＮ株式会社,,株式会社,東京都,渋谷区,渋谷２丁目２４番１２号,,13,113,1500002,,,2025-07-18,清算の結了等,,,2019-11-12,1,,,,,プレイヘラジャパン,0
272,2011001133637,登記記録の閉鎖等,0,2025-08-21,2025-07-18,株式会社ＯＥＮ,,株式会社,東京都,渋谷区,宇田川町４０番１号,,13,113,1500042,,,2025-07-18,清算の結了等,,,2020-05-13,1,,,,,オーイーエヌ,0
280,2011202005511,登記記録の閉鎖等,0,2025-08-21,2025-08-04,有限会社ホリコシ,,有限会社,東京都,練馬区,谷原２丁目５番２８号,,13,120,1770032,,,2025-08-04,清算の結了等,,,2015-10-05,1,,,,,ホリコシ,0
285,2012401013230,登記記録の閉鎖等,0,2025-08-21,2025-08-18,株式会社ジャストニット,,株式会社,東京都,三鷹市,井の頭５丁目１１番３号,,13,204,1810001,,,2025-08-18,清算の結了等,,,2015-10-05,1,,,,,ジャストニット,0
286,2012401032073,登記記録の閉鎖等,0,2025-08-21,2025-08-14,株式会社北三ＳＯＵＮＤ研究所,,株式会社,東京都,三鷹市,下連雀９丁目２番２－４０１号,,13,204,1810013,,,2025-08-14,清算の結了等,,,2016-11-18,1,,,,,ホクサンサウンドケンキュウジョ,0
309,2030001042227,登記記録の閉鎖等,0,2025-08-21,2025-08-12,秋田マメトラ株式会社,,株式会社,埼玉県,桶川市,西２丁目９番３７号,,11,231,3630017,,,2025-08-12,合併による解散等,6030001157748,令和７年８月１日埼玉県桶川市西二丁目９番３７号マメトラ株式会社（6030001157748）に合併し解散,2015-10-05,1,,,,,アキタマメトラ,0
311,2030001108077,登記記録の閉鎖等,0,2025-08-21,2025-08-12,株式会社力興業,,株式会社,埼玉県,朝霞市,田島１丁目１２番１０号,,11,227,3510032,,,2025-08-12,清算の結了等,,,2015-10-05,1,,,,,チカラコウギョウ,0
324,2040003022853,登記記録の閉鎖等,0,2025-08-21,2025-07-18,Ｆａｍｉｌｙ合同会社,,合同会社,千葉県,柏市,東柏１丁目２３番２３号,,12,217,2770017,,,2025-07-18,清算の結了等,,,2023-06-27,1,,,,,ファミリー,0
359,2130001008977,登記記録の閉鎖等,0,2025-08-21,2025-08-06,株式会社足立顔料店,,株式会社,京都府,京都市東山区,松原通大和大路東入２丁目轆轤町９８番地,,26,105,6050813,,,2025-08-06,清算の結了等,,,2015-10-05,1,,,,,アダチガンリョウテン,0
365,2140001122868,登記記録の閉鎖等,0,2025-08-21,2025-08-06,無人航空機登録講習機関監査協会株式会社,,株式会社,兵庫県,姫路市,御立中４丁目６番５号,,28,201,6700073,,,2025-08-06,清算の結了等,,,2021-09-02,1,,,,,ムジンコウクウキトウロクコウシュウキカンカンサキョウカイ,0
375,2180302006295,登記記録の閉鎖等,0,2025-08-21,2025-07-31,有限会社アントウ整備,,有限会社,愛知県,豊橋市,飯村町字西山１番１,,23,201,4400833,,,2025-07-31,清算の結了等,,,2015-10-05,1,,,,,アントウセイビ,0
390,2250002010037,登記記録の閉鎖等,0,2025-08-21,2025-08-19,有限会社デリカ榊原,00002667,有限会社,山口県,下関市,向洋町３丁目１１番１３号,,35,201,7500041,,,2025-08-19,清算の結了等,,,2015-10-05,1,,,,,デリカサカキバラ,0
391,2260001003222,登記記録の閉鎖等,0,2025-08-21,2025-07-31,株式会社重近管財,,株式会社,岡山県,岡山市北区,伊島町１丁目３番４４号,,33,101,7000016,,,2025-07-31,清算の結了等,,,2015-10-05,1,,,,,シゲチカカンザイ,0
392,2260001010870,登記記録の閉鎖等,0,2025-08-21,2025-08-01,株式会社プロス,,株式会社,岡山県,岡山市中区,国富１０３５番地８,,33,102,7038236,,,2025-08-01,清算の結了等,,,2015-10-05,1,,,,,プロス,0
393,2260001015960,登記記録の閉鎖等,0,2025-08-21,2025-07-30,タカウエデンキ株式会社,,株式会社,岡山県,総社市,美袋１７２４番の１地,,33,208,7191311,,,2025-07-30,清算の結了等,,,2015-10-05,1,,,,,タカウエデンキ,0
395,2260002001679,登記記録の閉鎖等,0,2025-08-21,2025-07-31,有限会社岡山こどものとも社,,有限会社,岡山県,岡山市中区,中納言町６番３０号,,33,102,7038292,,,2025-07-31,清算の結了等,,,2015-10-05,1,,,,,オカヤマコドモノトモシャ,0
399,2270005003291,登記記録の閉鎖等,0,2025-08-21,2025-08-20,米子魚市場仲買協同組合,,その他の設立登記法人,鳥取県,米子市,旗ヶ崎２１０１番地,,31,202,6830845,,,2025-08-20,清算の結了等,,,2015-10-05,1,,,,,,0
410,2340002009854,登記記録の閉鎖等,0,2025-08-21,2025-08-06,有限会社保崎労務管理センター,00099170,有限会社,鹿児島県,鹿児島市,城西１丁目２４番８号,,46,201,8900041,,,2025-08-06,清算の結了等,,,2015-10-05,1,,,,,ヤスザキロウムカンリセンター,0
421,2380001001932,登記記録の閉鎖等,0,2025-08-21,2025-08-01,株式会社エルティリゾートやまがた,,株式会社,福島県,福島市,野田町１丁目１０番４１号,,07,201,9608055,,,2025-08-01,合併による解散等,6380001000179,令和７年８月１日福島市野田町一丁目１０番４１号株式会社ウェディングエルティ（6380001000179）に合併し解散,2015-10-05,1,,,,,エルティリゾートヤマガタ,0
428,2430001022816,登記記録の閉鎖等,0,2025-08-21,2025-07-29,丸一三興産業株式会社,,株式会社,北海道,札幌市北区,北三十七条西３丁目２番３６－７０１号,,01,102,0010037,,,2025-07-29,清算の結了等,,,2015-10-05,1,,,,,マルイチサンコウサンギョウ,0
439,2460302004106,登記記録の閉鎖等,0,2025-08-21,2025-08-19,有限会社Ｃｒｅｓｃｅｎｔ,,有限会社,北海道,北見市,川東５６番地１６５,,01,208,0900807,,,2025-08-19,清算の結了等,,,2015-10-05,1,,,,,,0
442,2500001022511,登記記録の閉鎖等,0,2025-08-21,2025-08-15,コーロク株式会社,,株式会社,愛媛県,西宇和郡伊方町,大江９３番地１,,38,442,7960503,,,2025-08-15,清算の結了等,,,2020-02-06,1,,,,,コーロク,0
444,3010001116840,登記記録の閉鎖等,0,2025-08-21,2025-08-18,株式会社ＪＯＩＮ,,株式会社,東京都,世田谷区,代田５丁目２８番７－２０２号,,13,112,1550033,,,2025-08-18,清算の結了等,,,2015-10-05,1,,,,,ジョイン,0
456,3010003021007,登記記録の閉鎖等,0,2025-08-21,2025-07-24,日光１７９レスカール幸町合同会社,,合同会社,東京都,千代田区,丸の内１丁目４番１号東京共同会計事務所内,,13,101,1000005,,,2025-07-24,清算の結了等,,,2015-10-05,1,,,,,ニッコウワンハンドレッドセブンティーナインレスカールサイワイチョウ,0
458,3010401146108,登記記録の閉鎖等,0,2025-08-21,2025-07-03,株式会社ＳＴホールディングス,,株式会社,東京都,港区,虎ノ門１丁目１６番４号,,13,103,1050001,,,2025-07-03,合併による解散等,7010401080212,令和７年７月１日東京都港区虎ノ門一丁目１６番４号株式会社東京アセットソリューション（7010401080212）に合併し解散,2019-06-06,1,,,,,エスティーホールディングス,0
483,3011003017119,登記記録の閉鎖等,0,2025-08-21,2025-07-22,合同会社ＳＨＩＮＥ　ＦＡＳＨＩＯＮ　０,,合同会社,東京都,目黒区,五本木３丁目２６－１,,13,110,1530053,,,2025-07-22,清算の結了等,,,2023-07-27,1,,,,,シャインファッションゼロ,0
518,3021001070787,登記記録の閉鎖等,0,2025-08-21,2025-08-18,株式会社おだわらコンサルティング,,株式会社,神奈川県,小田原市,城山１丁目４番１号,,14,206,2500045,,,2025-08-18,合併による解散等,2013402006438,令和７年７月２９日東京都多摩市鶴牧三丁目１２番地の１０ＵＲＪ株式会社（2013402006438）に合併し解散,2020-09-16,1,,,,,オダワラコンサルティング,0
526,3021003009718,登記記録の閉鎖等,0,2025-08-21,2025-08-05,合同会社あずさ,,合同会社,神奈川県,小田原市,久野３０２番地７,,14,206,2500055,,,2025-08-05,清算の結了等,,,2020-09-18,1,,,,,アズサ,0
527,3021005008585,登記記録の閉鎖等,0,2025-08-21,2025-07-30,ＮＰＯ法人みうら映画舎,,その他の設立登記法人,神奈川県,三浦市,三崎５丁目３番１号,,14,210,2380243,,,2025-07-30,清算の結了等,,,2015-10-05,1,,,,,ミウラエイガシャ,0
531,3030001107821,登記記録の閉鎖等,0,2025-08-21,2025-08-12,株式会社Ｋ－ＬＩＮＫ,,株式会社,埼玉県,川口市,坂下町２丁目４番１５号,,11,203,3340003,,,2025-08-12,清算の結了等,,,2015-10-05,1,,,,,ケーリンク,0
550,3070001043179,登記記録の閉鎖等,0,2025-08-21,2025-08-13,株式会社榛名製作所,,株式会社,群馬県,高崎市,高浜町４１１番地の２１,,10,202,3703333,,,2025-08-13,清算の結了等,,,2025-08-01,1,,,,,ハルナセイサクショ,0
569,3110002013333,登記記録の閉鎖等,0,2025-08-21,2025-08-01,有限会社ナルミ,,有限会社,新潟県,阿賀野市,久保１３８６番地,,15,223,9592212,,,2025-08-01,清算の結了等,,,2015-10-05,1,,,,,ナルミ,0
581,3120002012482,登記記録の閉鎖等,0,2025-08-21,2025-08-08,有限会社石野富紙工所,,有限会社,大阪府,大阪市天王寺区,清水谷町８番９号,,27,109,5430011,,,2025-08-08,清算の結了等,,,2015-10-05,1,,,,,イシノトミシコウショ,0
588,3120102019799,登記記録の閉鎖等,0,2025-08-21,2025-08-12,有限会社クレアル,,有限会社,大阪府,河内長野市,原町１丁目１７番１６号,,27,216,5860021,,,2025-08-12,清算の結了等,,,2015-10-05,1,,,,,クレアル,0
589,3122001005863,登記記録の閉鎖等,0,2025-08-21,2025-08-05,株式会社乘本金属製作所,,株式会社,大阪府,東大阪市,菱江３丁目２番２８号,,27,227,5780984,,,2025-08-05,清算の結了等,,,2015-10-05,1,,,,,ノリモトキンゾクセイサクショ,0
611,3180301033562,登記記録の閉鎖等,0,2025-08-21,2025-08-05,株式会社ＩＳＨＩＫＵＲＡ,,株式会社,愛知県,岡崎市,江口１丁目３番地２,,23,202,4440843,,,2025-08-05,清算の結了等,,,2020-04-06,1,,,,,イシクラ,0
612,3180303006384,登記記録の閉鎖等,0,2025-08-21,2025-08-06,合同会社Ｌａｎｄ　Ｃｏｍｐｕｔｉｎｇ,,合同会社,愛知県,豊田市,小坂本町１丁目４９－１パークホームズ豊田小坂本町１２０４号,,23,211,4710034,,,2025-08-06,清算の結了等,,,2025-01-10,1,,,,,ランドコンピューティング,0
613,3190001020678,登記記録の閉鎖等,0,2025-08-21,2025-08-14,株式会社Ｇ・Ｅ・Ｍ,,株式会社,三重県,四日市市,楠町南五味塚１０６１番地,,24,202,5100104,,,2025-08-14,清算の結了等,,,2015-10-05,1,,,,,ジーイーエム,0
614,3190003003185,登記記録の閉鎖等,0,2025-08-21,2025-08-04,シージェイマネジメント合同会社,,合同会社,三重県,四日市市,中部１３番７号,,24,202,5100082,,,2025-08-04,清算の結了等,,,2019-08-28,1,,,,,シージェイマネジメント,0
621,3240002028681,登記記録の閉鎖等,0,2025-08-21,2025-08-15,有限会社大英建設,,有限会社,広島県,東広島市,河内町戸野７７１７番地,,34,212,7392205,,,2025-08-15,清算の結了等,,,2015-10-05,1,,,,,,0
626,3250001010086,登記記録の閉鎖等,0,2025-08-21,2025-08-18,株式会社藤本縫工所,,株式会社,山口県,周南市,浜田１丁目２番７号,,35,215,7460026,,,2025-08-18,清算の結了等,,,2015-10-05,1,,,,,,0
627,3250003002949,登記記録の閉鎖等,0,2025-08-21,2025-08-08,合同会社うさぎの森,,合同会社,山口県,防府市,戎町１丁目９番１７号,,35,206,7470036,,,2025-08-08,清算の結了等,,,2021-12-07,1,,,,,ウサギノモリ,0
632,3260002009432,登記記録の閉鎖等,0,2025-08-21,2025-07-31,有限会社間野メデイカルコンタクト,,有限会社,岡山県,岡山市北区,絵図町５番１号,,33,101,7000028,,,2025-07-31,清算の結了等,,,2015-10-05,1,,,,,マノメデイカルコンタクト,0
633,3260002025322,登記記録の閉鎖等,0,2025-08-21,2025-07-31,有限会社東測量設計,,有限会社,岡山県,笠岡市,神島３１０９番地の２,,33,205,7140044,,,2025-07-31,清算の結了等,,,2015-10-05,1,,,,,ヒガシソクリョウセッケイ,0
634,3270002001553,登記記録の閉鎖等,0,2025-08-21,2025-08-20,有限会社トーキューハウジング,,有限会社,鳥取県,鳥取市,秋里８８４番地１,,31,201,6800902,,,2025-08-20,清算の結了等,,,2015-10-05,1,,,,,トーキューハウジング,0
646,3290803003003,登記記録の閉鎖等,0,2025-08-21,2025-08-19,Ａｎｏｔｈｅｒ　Ｌｉｎｋｓ合同会社,,合同会社,福岡県,北九州市門司区,黄金町１１番３４号,,40,101,8000027,,,2025-08-19,清算の結了等,,,2017-10-05,1,,,,,アナザーリンクス,0
655,3420002010522,登記記録の閉鎖等,0,2025-08-21,2025-08-06,大石冷機システム有限会社,,有限会社,青森県,八戸市,大字沢里字下沢内５９番地,,02,203,0391167,,,2025-08-06,清算の結了等,,,2015-10-05,1,,,,,オオイシレイキシステム,0
692,4010002044668,登記記録の閉鎖等,0,2025-08-21,2025-07-22,有限会社電脳工房ジェイ・ファクトリ,,有限会社,東京都,千代田区,神田多町２丁目２番地,,13,101,1010046,,,2025-07-22,清算の結了等,,,2015-10-05,1,,,,,デンノウコウボウジェイファクトリ,0
735,4011603000217,登記記録の閉鎖等,0,2025-08-21,2025-08-04,合資会社留吉,,合資会社,東京都,練馬区,旭丘１丁目７１番２号,,13,120,1760005,,,2025-08-04,合併による解散等,7011601000356,令和７年８月１日東京都練馬区旭丘一丁目６８番地株式会社アデガワ（7011601000356）に合併し解散,2015-10-05,1,,,,,トメキチ,0
736,4011701018788,登記記録の閉鎖等,0,2025-08-21,2025-07-28,株式会社ＤＲＥＡＭ,,株式会社,千葉県,松戸市,西馬橋広手町８番地の１サンパラッツォ馬橋５０４,,12,207,2710048,,,2025-07-28,清算の結了等,,,2015-10-05,1,,,,,ドリーム,0
738,4011801000142,登記記録の閉鎖等,0,2025-08-21,2025-08-18,株式会社あきよし電器,,株式会社,東京都,葛飾区,東金町２丁目１９番１７号,,13,122,1250041,,,2025-08-18,清算の結了等,,,2015-10-05,1,,,,,アキヨシデンキ,0
750,4020001131400,登記記録の閉鎖等,0,2025-08-21,2025-08-01,株式会社エブリッジ,,株式会社,神奈川県,川崎市多摩区,宿河原２丁目２８番２２号,,14,135,2140021,,,2025-08-01,清算の結了等,,,2019-06-05,1,,,,,エブリッジ,0
764,4040001007862,登記記録の閉鎖等,0,2025-08-21,2025-07-28,株式会社ラインコンサルタンツ,,株式会社,千葉県,千葉市若葉区,桜木北２丁目１１番１１号,,12,104,2640029,,,2025-07-28,清算の結了等,,,2015-10-05,1,,,,,ラインコンサルタンツ,0
798,4120002052040,登記記録の閉鎖等,0,2025-08-21,2025-08-01,有限会社ニューマネジメント,,有限会社,大阪府,大阪市西淀川区,姫里２丁目１５番５号,,27,113,5550025,,,2025-08-01,清算の結了等,,,2015-10-05,1,,,,,ニューマネジメント,0
800,4120003013388,登記記録の閉鎖等,0,2025-08-21,2025-08-08,合同会社ＳＳＰＪ,,合同会社,大阪府,大阪市東淀川区,下新庄５丁目１３番１６号,,27,114,5330021,,,2025-08-08,清算の結了等,,,2017-10-06,1,,,,,エスエスピージェイ,0
824,4180301008679,登記記録の閉鎖等,0,2025-08-21,2025-08-06,株式会社巧将,,株式会社,愛知県,豊橋市,大岩町字小山塚１０２番地８,,23,201,4413131,,,2025-08-06,清算の結了等,,,2015-10-05,1,,,,,コウショウ,0
832,4200001012350,登記記録の閉鎖等,0,2025-08-21,2025-08-18,米野産業株式会社,,株式会社,岐阜県,羽島郡笠松町,米野３２番地,,21,303,5016031,,,2025-08-18,清算の結了等,,,2015-10-05,1,,,,,コメノサンギョウ,0
837,4240001002843,登記記録の閉鎖等,0,2025-08-21,2025-08-20,株式会社クンジョウ,,株式会社,広島県,広島市中区,舟入本町１０番４号,,34,101,7300843,,,2025-08-20,清算の結了等,,,2015-10-05,1,,,,,クンジョウ,0
840,4240002042137,登記記録の閉鎖等,0,2025-08-21,2025-08-19,有限会社二一物語,,有限会社,広島県,福山市,昭和町１０番１０号,,34,207,7200808,,,2025-08-19,清算の結了等,,,2015-10-05,1,,,,,ニイチモノガタリ,0
842,4250001019630,登記記録の閉鎖等,0,2025-08-21,2025-08-18,株式会社美令,,株式会社,山口県,柳井市,南町３丁目８番４－１０１号,,35,212,7420031,,,2025-08-18,清算の結了等,,,2022-06-29,1,,,,,ミレイ,0
845,4270002007145,登記記録の閉鎖等,0,2025-08-21,2025-08-20,有限会社ミヤハラ鉄筋,,有限会社,鳥取県,米子市,和田町１２９０番地１,,31,202,6830102,,,2025-08-20,清算の結了等,,,2015-10-05,1,,,,,ミヤハラテッキン,0
859,4310002014483,登記記録の閉鎖等,0,2025-08-21,2025-08-14,有限会社祝部工務店,,有限会社,長崎県,南松浦郡新上五島町,奈摩郷８１４番地１,,42,411,8574402,,,2025-08-14,清算の結了等,,,2015-10-05,1,,,,,ホウリコウムテン,0
894,5010001052357,登記記録の閉鎖等,0,2025-08-21,2025-07-23,株式会社トータルビューティークリエーション,,株式会社,東京都,港区,芝浦４丁目９番１８－７０８号,,13,103,1080023,,,2025-07-23,清算の結了等,,,2015-10-05,1,,,,,トータルビューティークリエーション,0
915,5010101003012,登記記録の閉鎖等,0,2025-08-21,2025-08-01,株式会社ニュートップ,,株式会社,東京都,八王子市,千人町２丁目３番１７号,,13,201,1930835,,,2025-08-01,合併による解散等,6010101007680,令和７年８月１日東京都八王子市千人町二丁目３番１７号株式会社ＰＤＣ（6010101007680）に合併し解散,2015-10-05,1,,,,,ニュートップ,0
932,5010602022601,登記記録の閉鎖等,0,2025-08-21,2025-08-01,エス・テイ・アイ・システム有限会社,,有限会社,神奈川県,横浜市青葉区,鉄町１２２８番地金子ハウス４号室,,14,117,2250025,,,2025-08-01,清算の結了等,,,2015-10-05,1,,,,,エステイアイシステム,0
939,5010901035592,登記記録の閉鎖等,0,2025-08-21,2025-08-15,エスタシア株式会社,,株式会社,東京都,世田谷区,等々力３丁目２２番７号,,13,112,1580082,,,2025-08-15,清算の結了等,,,2015-10-05,1,,,,,エスタシア,0
940,5010901040485,登記記録の閉鎖等,0,2025-08-21,2025-07-11,株式会社ＤｒｅａｍＦｌｙ,,株式会社,東京都,渋谷区,千駄ヶ谷２丁目２番８号,,13,113,1510051,,,2025-07-11,清算の結了等,,,2017-07-14,1,,,,,ドリームフライ,0
943,5010903005569,登記記録の閉鎖等,0,2025-08-21,2025-07-24,合同会社ペンタス,,合同会社,東京都,新宿区,歌舞伎町２丁目２５番２号,,13,104,1600021,,,2025-07-24,清算の結了等,,,2020-03-13,1,,,,,ペンタス,0
944,5011001007895,登記記録の閉鎖等,0,2025-08-21,2025-08-04,光和工業株式会社,,株式会社,東京都,練馬区,大泉学園町４丁目９番２９－３０８号,,13,120,1780061,,,2025-08-04,清算の結了等,,,2015-10-05,1,,,,,コウワコウギョウ,0
970,5012802005138,登記記録の閉鎖等,0,2025-08-21,2025-08-07,有限会社森田工業,,有限会社,東京都,武蔵村山市,伊奈平２丁目８６番地２７,,13,223,2080023,,,2025-08-07,清算の結了等,,,2015-10-05,1,,,,,モリタコウギョウ,0
971,5012802007489,登記記録の閉鎖等,0,2025-08-21,2025-08-05,有限会社オニオン,,有限会社,東京都,武蔵村山市,残堀４丁目１１５番地の３１,,13,223,2080034,,,2025-08-05,清算の結了等,,,2015-10-05,1,,,,,オニオン,0
993,5030001086163,登記記録の閉鎖等,0,2025-08-21,2025-08-18,株式会社飯島商店,,株式会社,埼玉県,深谷市,西島４丁目２番８号,,11,218,3660824,,,2025-08-18,合併による解散等,2010401076867,令和７年７月１日東京都港区海岸一丁目２番２０号株式会社エネサンス関東（2010401076867）に合併し解散,2015-10-05,1,,,,,イイジマショウテン,0
1002,5030002046802,登記記録の閉鎖等,0,2025-08-21,2025-08-12,有限会社木下工務店,,有限会社,埼玉県,八潮市,大字南川崎３１２番地８,,11,234,3400814,,,2025-08-12,清算の結了等,,,2015-10-05,1,,,,,キノシタコウムテン,0
1005,5040001062808,登記記録の閉鎖等,0,2025-08-21,2025-07-22,株式会社グッドパワー,,株式会社,東京都,千代田区,内神田２丁目１２番１２号,,13,101,1010047,,,2025-07-22,清算の結了等,,,2015-10-05,1,,,,,グッドパワー,0
1015,5050005002882,登記記録の閉鎖等,0,2025-08-21,2025-08-06,日立土浦事業者協同組合,,その他の設立登記法人,茨城県,土浦市,神立町６０３番地,,08,203,3000013,,,2025-08-06,清算の結了等,,,2015-10-05,1,,,,,ヒタチツチウラジギョウシャ,0
1023,5070001032312,登記記録の閉鎖等,0,2025-08-21,2025-08-18,株式会社ＳＴ　Ｒｏｏｍ,,株式会社,群馬県,利根郡みなかみ町,相俣１３５４番地１,,10,449,3791404,,,2025-08-18,清算の結了等,,,2016-06-22,1,,,,,,0
1038,5120002021820,登記記録の閉鎖等,0,2025-08-21,2025-08-08,有限会社こうはら昆布店,,有限会社,大阪府,大阪市西区,九条２丁目１６番９号,,27,106,5500027,,,2025-08-08,清算の結了等,,,2015-10-05,1,,,,,コウハラコンブテン,0
1039,5120002043352,登記記録の閉鎖等,0,2025-08-21,2025-08-12,有限会社ティー・ケー,,有限会社,大阪府,大阪市浪速区,稲荷２丁目６番１６号,,27,111,5560023,,,2025-08-12,清算の結了等,,,2015-10-05,1,,,,,ティーケー,0
1062,5140002013634,登記記録の閉鎖等,0,2025-08-21,2025-08-08,有限会社極東物産,,有限会社,兵庫県,神戸市中央区,御幸通３丁目１番１号,,28,110,6510087,,,2025-08-08,清算の結了等,,,2015-10-05,1,,,,,キョクトウブッサン,0
1071,5150003002602,登記記録の閉鎖等,0,2025-08-21,2025-07-31,合同会社昌勝,,合同会社,奈良県,大和郡山市,小泉町２９９９番地４５,,29,203,6391042,,,2025-07-31,清算の結了等,,,2022-01-19,1,,,,,マサショウ,0
1088,5230002003080,登記記録の閉鎖等,0,2025-08-21,2025-08-20,有限会社プリントメディア富山,,有限会社,富山県,富山市,西中野町１丁目２番１７号,,16,201,9398084,,,2025-08-20,清算の結了等,,,2015-10-05,1,,,,,プリントメディアトヤマ,0
1097,5260002000950,登記記録の閉鎖等,0,2025-08-21,2025-07-30,有限会社いまむら,,有限会社,岡山県,岡山市北区,中山下１丁目５番４１号,,33,101,7000821,,,2025-07-30,清算の結了等,,,2015-10-05,1,,,,,イマムラ,0
1110,5290801009322,登記記録の閉鎖等,0,2025-08-21,2025-08-18,株式会社トランスポートオーイシ,,株式会社,福岡県,北九州市八幡東区,槻田２丁目２番２６号,,40,108,8050031,,,2025-08-18,清算の結了等,,,2015-10-05,1,,,,,トランスポートオーイシ,0
1118,5330002005273,登記記録の閉鎖等,0,2025-08-21,2025-08-05,有限会社ハニカム,,有限会社,熊本県,熊本市南区,薄場３丁目３番５号,,43,104,8614131,,,2025-08-05,清算の結了等,,,2015-10-05,1,,,,,,0
1121,5340001011040,登記記録の閉鎖等,0,2025-08-21,2025-08-01,株式会社比友建設,,株式会社,鹿児島県,大島郡喜界町,大字赤連２８９８番地,,46,529,8916201,,,2025-08-01,合併による解散等,4340001011033,令和７年８月１日鹿児島県大島郡喜界町赤連２８９６番地の１２株式会社比嘉建設（4340001011033）に合併し解散,2015-10-05,1,,,,,ヒユウケンセツ,0
1130,5380002012422,登記記録の閉鎖等,0,2025-08-21,2025-08-01,有限会社丸辰結城興業,,有限会社,福島県,郡山市,湖南町福良字樋ノ口８０８５番地,,07,203,9631633,,,2025-08-01,清算の結了等,,,2015-10-05,1,,,,,マルタツユウキコウギョウ,0
1138,5470002002067,登記記録の閉鎖等,0,2025-08-21,2025-08-20,神本物産有限会社,,有限会社,香川県,高松市,御厩町６６０番地,00005246,37,201,7618042,,,2025-08-20,清算の結了等,,,2015-10-05,1,,,,,カンモトブッサン,0
1141,5500001019026,登記記録の閉鎖等,0,2025-08-21,2025-08-19,株式会社ヤマモト,,株式会社,愛媛県,松山市,宮田町１０４番地２,,38,201,7900066,,,2025-08-19,清算の結了等,,,2015-10-05,1,,,,,ヤマモト,0
1153,6010002053205,登記記録の閉鎖等,0,2025-08-21,2025-07-28,有限会社編集会議,,有限会社,千葉県,船橋市,習志野台４丁目９番１８－３０５号,,12,204,2740063,,,2025-07-28,清算の結了等,,,2015-10-05,1,,,,,ヘンシュウカイギ,0
1154,6010003021020,登記記録の閉鎖等,0,2025-08-21,2025-07-24,日光１９２円山北町合同会社,,合同会社,東京都,千代田区,丸の内１丁目４番１号東京共同会計事務所内,,13,101,1000005,,,2025-07-24,清算の結了等,,,2015-10-05,1,,,,,ニッコウワンハンドレッドナイティーツーマルヤマキタマチ,0
1155,6010003028916,登記記録の閉鎖等,0,2025-08-21,2025-07-24,ジェイコアレジ合同会社２,,合同会社,東京都,千代田区,丸の内１丁目４番１号東京共同会計事務所内,,13,101,1000005,,,2025-07-24,清算の結了等,,,2018-12-13,1,,,,,ジェイコアレジニ,0
1161,6010405022186,登記記録の閉鎖等,0,2025-08-21,2025-07-22,ＳＣＧ６２一般社団法人,,その他の設立登記法人,東京都,港区,虎ノ門２丁目６番１号,,13,103,1050001,,,2025-07-22,清算の結了等,,,2023-05-30,1,,,,,エスシージーシックスティツー,0
1166,6010605003580,登記記録の閉鎖等,0,2025-08-21,2025-08-08,一般社団法人福祉保育教育機構,,その他の設立登記法人,東京都,墨田区,京島３丁目３９番８号,,13,107,1310046,,,2025-08-08,清算の結了等,,,2018-09-04,1,,,,,フクシホイクキョウイクキコウ,0
1167,6010702008656,登記記録の閉鎖等,0,2025-08-21,2025-08-18,株式会社雄則社,00139331,株式会社,東京都,品川区,旗の台２丁目４番５号,,13,109,1420064,,,2025-08-18,合併による解散等,1010801011318,令和７年８月１日東京都大田区鵜の木二丁目４０番５号丸澤機工株式会社（1010801011318）に合併し解散,2015-10-05,1,,,,,ユウソクシャ,0
1185,6011301012990,登記記録の閉鎖等,0,2025-08-21,2025-08-15,株式会社メディカルイメージング凛,,株式会社,東京都,杉並区,高円寺南５丁目１１番２０号,,13,115,1660003,,,2025-08-15,清算の結了等,,,2015-10-05,1,,,,,メディカルイメージングリン,0
1187,6011402008062,登記記録の閉鎖等,0,2025-08-21,2025-08-18,有限会社ホタカ製作所,,有限会社,東京都,板橋区,蓮根１丁目５番２号,00055352,13,119,1740046,,,2025-08-18,清算の結了等,,,2015-10-05,1,,,,,ホタカセイサクショ,0
1200,6011803004172,登記記録の閉鎖等,0,2025-08-21,2025-07-24,Ｌｅｅ＆Ｃｏｍｐａｎｙ合同会社,,合同会社,東京都,港区,南麻布４丁目１２－２５－４０４,,13,103,1060047,,,2025-07-24,清算の結了等,,,2020-06-10,1,,,,,リーアンドカンパニー,0
1214,6020002030657,登記記録の閉鎖等,0,2025-08-21,2025-08-01,有限会社田中時計店,,有限会社,神奈川県,横浜市南区,通町４丁目９３番地,,14,105,2320056,,,2025-08-01,清算の結了等,,,2015-10-05,1,,,,,タナカトケイテン,0
1218,6021001013735,登記記録の閉鎖等,0,2025-08-21,2025-08-08,株式会社富士光電,,株式会社,神奈川県,相模原市南区,相南３丁目３８番３号,,14,153,2520312,,,2025-08-08,清算の結了等,,,2015-10-05,1,,,,,フジコウデン,0
1219,6021001026217,登記記録の閉鎖等,0,2025-08-21,2025-08-05,太田緑園株式会社,,株式会社,神奈川県,相模原市南区,南台３丁目２０番１－５０８号,,14,153,2520314,,,2025-08-05,清算の結了等,,,2015-10-05,1,,,,,オオタリョクエン,0
1228,6030001092160,登記記録の閉鎖等,0,2025-08-21,2025-08-12,株式会社１０００リーブスダイニング,,株式会社,埼玉県,さいたま市岩槻区,大字鹿室４５７番地１,,11,110,3390001,,,2025-08-12,清算の結了等,,,2015-10-05,1,,,,,イチレイレイレイリーブスダイニング,0
1243,6050001010970,登記記録の閉鎖等,0,2025-08-21,2025-08-06,株式会社つくば研究開発支援機構,,株式会社,茨城県,土浦市,上高津１５８８番地,,08,203,3000811,,,2025-08-06,清算の結了等,,,2015-10-05,1,,,,,ツクバケンキュウカイハツシエンキコウ,0
1247,6060001007371,登記記録の閉鎖等,0,2025-08-21,2025-08-12,株式会社ファイナンス企画,,株式会社,栃木県,宇都宮市,中央２丁目５番１２号,,09,201,3200806,,,2025-08-12,清算の結了等,,,2015-10-05,1,,,,,ファイナンスキカク,0
1257,6080101000844,登記記録の閉鎖等,0,2025-08-21,2025-08-18,株式会社鈴木衣裳店,,株式会社,静岡県,沼津市,八幡町９５番地,,22,203,4100881,,,2025-08-18,清算の結了等,,,2015-10-05,1,,,,,スズキイショウテン,0
1259,6080102020882,登記記録の閉鎖等,0,2025-08-21,2025-08-19,有限会社インテリア多々,,有限会社,静岡県,下田市,旧岡方村６９２番地の５７,,22,219,4150027,,,2025-08-19,清算の結了等,,,2015-10-05,1,,,,,インテリアタダ,0
1281,6120002011952,登記記録の閉鎖等,0,2025-08-21,2025-08-08,有限会社フレンド建物管理,,有限会社,大阪府,大阪市平野区,流町２丁目６番１４号,,27,126,5470032,,,2025-08-08,清算の結了等,,,2015-10-05,1,,,,,フレンドタテモノカンリ,0
1289,6130001004262,登記記録の閉鎖等,0,2025-08-21,2025-08-05,株式会社浅野左官建設工業,,株式会社,京都府,京都市北区,紫野東泉堂町１３番地,,26,101,6038241,,,2025-08-05,清算の結了等,,,2015-10-05,1,,,,,アサノサカンケンセツコウギョウ,0
1305,6180005005979,登記記録の閉鎖等,0,2025-08-21,2025-08-18,特定非営利活動法人みずほ,,その他の設立登記法人,愛知県,名古屋市瑞穂区,下坂町４丁目１８番地,,23,108,4670827,,,2025-08-18,清算の結了等,,,2015-10-05,1,,,,,ミズホ,0
1307,6180302019260,登記記録の閉鎖等,0,2025-08-21,2025-08-05,有限会社エーチーム,,有限会社,愛知県,知立市,南陽１丁目１３２番地,,23,225,4720004,,,2025-08-05,清算の結了等,,,2015-10-05,1,,,,,エーチーム,0
1318,6230001014029,登記記録の閉鎖等,0,2025-08-21,2025-08-18,知財サイクル株式会社,,株式会社,富山県,砺波市,鷹栖１１番地６,,16,208,9391335,,,2025-08-18,清算の結了等,,,2015-10-05,1,,,,,チザイサイクル,0
1326,6260005007190,登記記録の閉鎖等,0,2025-08-21,2025-07-24,司法書士法人藤原事務所,,その他の設立登記法人,岡山県,津山市,上河原２２８番地６,,33,203,7080002,,,2025-07-24,清算の結了等,,,2015-10-05,1,,,,,フジワラジムショ,0
1336,6300003001406,登記記録の閉鎖等,0,2025-08-21,2025-07-17,朝日Ｉ＆Ｒエナジー合同会社,,合同会社,東京都,港区,虎ノ門３丁目２２番１０－２０１号,,13,103,1050001,,,2025-07-17,清算の結了等,,,2019-01-10,1,,,,,アサヒアイアンドアールエナジー,0
1337,6310001007123,登記記録の閉鎖等,0,2025-08-21,2025-08-18,株式会社グレープ,,株式会社,長崎県,佐世保市,権常寺町１４２９番地３３,,42,202,8593213,,,2025-08-18,清算の結了等,,,2015-10-05,1,,,,,グレープ,0
1343,6330002028216,登記記録の閉鎖等,0,2025-08-21,2025-08-04,有限会社インテリアアトム,,有限会社,熊本県,天草市,亀場町食場９８１番地１９,,43,215,8630046,,,2025-08-04,清算の結了等,,,2015-10-05,1,,,,,アトム,0
1347,6340002026292,登記記録の閉鎖等,0,2025-08-21,2025-08-06,有限会社Ｋ・Ｔ　ＮＥＴ,,有限会社,鹿児島県,鹿屋市,札元２丁目３６８３番地１,,46,203,8930013,,,2025-08-06,清算の結了等,,,2015-10-05,1,,,,,ケイティネット,0
1350,6350001008968,登記記録の閉鎖等,0,2025-08-21,2025-08-12,株式会社アドバンス,,株式会社,宮崎県,都城市,大王町６街区１１号,,45,202,8850026,,,2025-08-12,清算の結了等,,,2015-10-05,1,,,,,アドバンス,0
1369,6470003001265,登記記録の閉鎖等,0,2025-08-21,2025-08-19,合同会社フレックス,,合同会社,香川県,高松市,古馬場町８番地３０松本ビル５階,,37,201,7600045,,,2025-08-19,清算の結了等,,,2017-08-08,1,,,,,フレックス,0
1384,7010001237625,登記記録の閉鎖等,0,2025-08-21,2025-05-23,Ｒｏｏｍｚ株式会社,,株式会社,東京都,千代田区,岩本町３丁目８－８中和秋葉原ビル,,13,101,1010032,,,2025-05-23,清算の結了等,,,2023-08-14,1,,,,,ルームズ,0
1389,7010003026308,登記記録の閉鎖等,0,2025-08-21,2025-07-18,合同会社はやぶさホテル札幌,,合同会社,東京都,千代田区,平河町１丁目６番１５号シルスフィア会計事務所内,,13,101,1020093,,,2025-07-18,清算の結了等,,,2017-10-24,1,,,,,ハヤブサホテルサッポロ,0
1410,7010601010051,登記記録の閉鎖等,0,2025-08-21,2025-08-12,株式会社カテリーナ,,株式会社,東京都,墨田区,両国２丁目３番１６号,,13,107,1300026,,,2025-08-12,清算の結了等,,,2015-10-05,1,,,,,カテリーナ,0
1417,7010801034263,登記記録の閉鎖等,0,2025-08-21,2025-08-12,株式会社シールド,,株式会社,東京都,大田区,東六郷１丁目２３番２－１０２号,,13,111,1440046,,,2025-08-12,清算の結了等,,,2023-08-21,1,,,,,シールド,0
1429,7011302016494,登記記録の閉鎖等,0,2025-08-21,2025-08-14,有限会社増井祐子事務所,,有限会社,東京都,杉並区,久我山３丁目３０番５号,,13,115,1680082,,,2025-08-14,清算の結了等,,,2015-10-05,1,,,,,マスイユウコジムショ,0
1431,7011501016139,登記記録の閉鎖等,0,2025-08-21,2025-07-22,株式会社プラスアルファ,,株式会社,東京都,千代田区,外神田４丁目６番２号いすゞビル,,13,101,1010021,,,2025-07-22,清算の結了等,,,2015-10-05,1,,,,,プラスアルファ,0
1437,7011602001411,登記記録の閉鎖等,0,2025-08-21,2025-08-01,有限会社Ｙｓ,,有限会社,神奈川県,横浜市旭区,今宿東町７７１番地７,,14,112,2410032,,,2025-08-01,清算の結了等,,,2015-10-05,1,,,,,ワイズ,0
1438,7012403001022,登記記録の閉鎖等,0,2025-08-21,2025-08-08,合同会社Ｓ＆Ｋ,,合同会社,東京都,府中市,住吉町３丁目９番地の１モンテリッシュＡ２０３,,13,206,1830034,,,2025-08-08,清算の結了等,,,2015-10-05,1,,,,,,0
1441,7013301026937,登記記録の閉鎖等,0,2025-08-21,2025-08-04,株式会社ジーフォー,,株式会社,東京都,豊島区,東池袋１丁目３９番１５号,,13,116,1700013,,,2025-08-04,清算の結了等,,,2015-10-05,1,,,,,ジーフォー,0
1463,7021002041602,登記記録の閉鎖等,0,2025-08-21,2025-07-28,有限会社田中リーファース,,有限会社,神奈川県,大和市,中央林間４丁目７番１２－２０３号,,14,213,2420007,,,2025-07-28,清算の結了等,,,2015-10-05,1,,,,,タナカリーファース,0
1466,7030001147079,登記記録の閉鎖等,0,2025-08-21,2025-08-12,株式会社ニューロクリエイター,,株式会社,埼玉県,熊谷市,星川２丁目６番地,,11,202,3600043,,,2025-08-12,清算の結了等,,,2022-03-04,1,,,,,ニューロクリエイター,0
1472,7040001074025,登記記録の閉鎖等,0,2025-08-21,2025-07-28,新勝工業株式会社,,株式会社,千葉県,安房郡鋸南町,下佐久間３５５２番地,,12,463,2992115,,,2025-07-28,清算の結了等,,,2015-10-05,1,,,,,シンショウコウギョウ,0
1485,7070003003722,登記記録の閉鎖等,0,2025-08-21,2025-08-13,合同会社ＳｔｏｒｙＴａｉｌｏｒ,,合同会社,群馬県,前橋市,朝倉町２丁目３番地７,,10,201,3710811,,,2025-08-13,清算の結了等,,,2020-04-07,1,,,,,ストーリーテイラー,0
1488,7100002016060,登記記録の閉鎖等,0,2025-08-21,2025-08-18,有限会社信州うえだ住宅,,有限会社,長野県,上田市,下武石１６４１番地２,,20,203,3860503,,,2025-08-18,清算の結了等,,,2015-10-05,1,,,,,シンシュウウエダジュウタク,0
1492,7120001106975,登記記録の閉鎖等,0,2025-08-21,2025-08-01,千住建設株式会社,,株式会社,大阪府,大阪市天王寺区,逢阪１丁目３番３号,00139330,27,109,5430062,,,2025-08-01,清算の結了等,,,2025-06-02,1,,,,,,0
1504,7120003016009,登記記録の閉鎖等,0,2025-08-21,2025-08-07,ＮＡＧＯ　ＣＥＭＯＨＩＮＯＤＥ合同会社,,合同会社,大阪府,大阪市西区,南堀江１丁目１１番２１号,,27,106,5500015,,,2025-08-07,清算の結了等,,,2019-07-19,1,,,,,ナゴセモヒノデ,0
1530,7170001006915,登記記録の閉鎖等,0,2025-08-21,2025-08-19,株式会社アイ・ディ・エス,,株式会社,和歌山県,和歌山市,紀三井寺７９８番地の７,,30,201,6410012,,,2025-08-19,清算の結了等,,,2015-10-05,1,,,,,アイディエス,0
1550,7240001025610,登記記録の閉鎖等,0,2025-08-21,2025-08-19,株式会社オキタ,,株式会社,広島県,呉市,広町字若宮２３４５番地の３,,34,202,7370115,,,2025-08-19,清算の結了等,,,2015-10-05,1,,,,,オキタ,0
1555,7260002026465,登記記録の閉鎖等,0,2025-08-21,2025-08-01,有限会社レオナ,,有限会社,岡山県,笠岡市,笠岡５０７番地の６８,,33,205,7140081,,,2025-08-01,合併による解散等,2260001017825,令和７年８月１日岡山県笠岡市笠岡２３２５番地株式会社戸田商店（2260001017825）に合併し解散,2015-10-05,1,,,,,レオナ,0
1562,7290002043202,登記記録の閉鎖等,0,2025-08-21,2025-07-25,有限会社恵成運輸,,有限会社,福岡県,大野城市,畑ケ坂１丁目１１０番,,40,219,8160982,,,2025-07-25,清算の結了等,,,2015-10-05,1,,,,,,0
1565,7290801023445,登記記録の閉鎖等,0,2025-08-21,2025-08-19,株式会社大河電業,,株式会社,福岡県,北九州市八幡西区,鷹見台２丁目１０番３号,,40,109,8070853,,,2025-08-19,清算の結了等,,,2017-04-06,1,,,,,オオカワデンギョウ,0
1568,7320002003929,登記記録の閉鎖等,0,2025-08-21,2025-08-12,外堀印刷有限会社,,有限会社,大分県,大分市,顕徳町１丁目１０番２１号,,44,201,8700025,,,2025-08-12,清算の結了等,,,2015-10-05,1,,,,,ソトボリインサツ,0
1569,7320002008762,登記記録の閉鎖等,0,2025-08-21,2025-08-20,有限会社バイオトランスポート,,有限会社,大分県,由布市,挾間町古野字塚ノ久保１１００番地３,,44,213,8795511,,,2025-08-20,清算の結了等,,,2015-10-05,1,,,,,バイオトランスポート,0
1571,7340001023546,登記記録の閉鎖等,0,2025-08-21,2025-08-07,株式会社ＬＲ,,株式会社,鹿児島県,霧島市,国分野口西２４番８－３号,,46,218,8994343,,,2025-08-07,清算の結了等,,,2021-03-12,1,,,,,エルアール,0
1574,7370002012108,登記記録の閉鎖等,0,2025-08-21,2025-07-31,有限会社高藤,,有限会社,宮城県,仙台市青葉区,本町１丁目１４番１５号,,04,101,9800014,,,2025-07-31,清算の結了等,,,2015-10-05,1,,,,,タカトウ,0
1575,7370005003459,登記記録の閉鎖等,0,2025-08-21,2025-08-19,一般社団法人みやぎ医療福祉情報ネットワーク協議会,,その他の設立登記法人,宮城県,仙台市青葉区,一番町１丁目１５番１９号,,04,101,9800811,,,2025-08-19,清算の結了等,,,2015-10-05,1,,,,,ミヤギイリョウフクシジョウホウネットワークキョウギカイ,0
1576,7380001021208,登記記録の閉鎖等,0,2025-08-21,2025-08-06,株式会社大槻木材センター,,株式会社,茨城県,かすみがうら市,柏崎８７２番地,,08,230,3000201,,,2025-08-06,清算の結了等,,,2015-10-05,1,,,,,オオツキモクザイセンター,0
1577,7380002011843,登記記録の閉鎖等,0,2025-08-21,2025-08-01,冨士興業有限会社,,有限会社,福島県,郡山市,湖南町福良字山崎８８６１番地,,07,203,9631633,,,2025-08-01,清算の結了等,,,2015-10-05,1,,,,,フジコウギョウ,0
1589,7470002001315,登記記録の閉鎖等,0,2025-08-21,2025-08-19,株式会社エクス,,株式会社,香川県,高松市,福岡町４丁目１８番１５号,,37,201,7600066,,,2025-08-19,清算の結了等,,,2015-10-05,1,,,,,エクス,0
1593,7500001006609,登記記録の閉鎖等,0,2025-08-21,2025-08-20,四国ビジネスサポート株式会社,,株式会社,愛媛県,松山市,築山町１２番２５号エース松山ビル３階,,38,201,7900864,,,2025-08-20,清算の結了等,,,2015-10-05,1,,,,,シコクビジネスサポート,0
1614,8010005026494,登記記録の閉鎖等,0,2025-08-21,2025-07-28,一般社団法人環境事業支援機構,,その他の設立登記法人,東京都,中央区,八丁堀３丁目１２番８号,,13,102,1040032,,,2025-07-28,清算の結了等,,,2017-03-03,1,,,,,カンキョウジギョウシエンキコウ,0
1616,8010102003157,登記記録の閉鎖等,0,2025-08-21,2025-08-19,有限会社シーアンドエー,,有限会社,東京都,八王子市,日吉町９番１４号,,13,201,1930836,,,2025-08-19,清算の結了等,,,2015-10-05,1,,,,,シーアンドエー,0
1622,8010501045023,登記記録の閉鎖等,0,2025-08-21,2025-08-20,株式会社ｗａｂｉｓａｂｉ,,株式会社,神奈川県,藤沢市,鵠沼橘１丁目１番１５号,,14,205,2510024,,,2025-08-20,清算の結了等,,,2019-12-10,1,,,,,ワビサビ,0
1641,8011002025002,登記記録の閉鎖等,0,2025-08-21,2025-07-22,有限会社レインボーコート,,有限会社,東京都,渋谷区,代々木４丁目１１番３号,,13,113,1510053,,,2025-07-22,清算の結了等,,,2015-10-05,1,,,,,,0
1686,8021003014523,登記記録の閉鎖等,0,2025-08-21,2025-08-05,合同会社ＲＥＮＯＪＩ,,合同会社,神奈川県,藤沢市,亀井野１４１８番４号,,14,205,2520813,,,2025-08-05,清算の結了等,,,2024-05-24,1,,,,,レノジ,0
1696,8030003015299,登記記録の閉鎖等,0,2025-08-21,2025-08-07,計測しあん合同会社,,合同会社,茨城県,牛久市,さくら台３丁目１３－１３,,08,219,3001217,,,2025-08-07,清算の結了等,,,2020-05-21,1,,,,,ケイソクシアン,0
1701,8040001099426,登記記録の閉鎖等,0,2025-08-21,2025-07-28,株式会社ピー・エス・ジー,,株式会社,千葉県,松戸市,五香西２丁目３番３４号,,12,207,2702218,,,2025-07-28,清算の結了等,,,2017-03-23,1,,,,,ピーエスジー,0
1703,8040002053704,登記記録の閉鎖等,0,2025-08-21,2025-07-28,有限会社スティル,,有限会社,千葉県,松戸市,南花島４丁目６８番地,,12,207,2710065,,,2025-07-28,清算の結了等,,,2015-10-05,1,,,,,スティル,0
1710,8050002042598,登記記録の閉鎖等,0,2025-08-21,2025-08-07,有限会社わたなべ酒店,,有限会社,茨城県,筑西市,下中山５５８番地,,08,227,3080825,,,2025-08-07,清算の結了等,,,2015-10-05,1,,,,,ワタナベサケテン,0
1712,8060001007816,登記記録の閉鎖等,0,2025-08-21,2025-08-12,株式会社ｎｏｉｒ,,株式会社,栃木県,宇都宮市,さつき２丁目５番３号,,09,201,3210141,,,2025-08-12,清算の結了等,,,2015-10-05,1,,,,,ノアール,0
1713,8060001026460,登記記録の閉鎖等,0,2025-08-21,2025-08-07,アイシーエクスネット株式会社,,株式会社,栃木県,下野市,緑５丁目３３番地３,,09,216,3290433,,,2025-08-07,清算の結了等,,,2015-10-05,1,,,,,アイシーエクスネット,0
1718,8060002019785,登記記録の閉鎖等,0,2025-08-21,2025-08-12,大貫燃料有限会社,,有限会社,栃木県,鹿沼市,東末広町１１３５番地８,,09,205,3220039,,,2025-08-12,清算の結了等,,,2015-10-05,1,,,,,オオヌキネンリョウ,0
1724,8080102009206,登記記録の閉鎖等,0,2025-08-21,2025-08-18,有限会社エイコウ,,有限会社,静岡県,伊豆の国市,奈古谷２２０３番地の３６４,,22,225,4102132,,,2025-08-18,清算の結了等,,,2015-10-05,1,,,,,エイコウ,0
1739,8120001229461,登記記録の閉鎖等,0,2025-08-21,2025-08-05,株式会社Ｆｕｊｉ,,株式会社,大阪府,大阪市鶴見区,今津中４丁目４番３６号,,27,124,5380042,,,2025-08-05,清算の結了等,,,2020-06-05,1,,,,,フジ,0
1750,8120102011446,登記記録の閉鎖等,0,2025-08-21,2025-08-15,有限会社岡薬局,,有限会社,大阪府,堺市中区,深阪１丁１０番３９号,,27,142,5998253,,,2025-08-15,合併による解散等,2120901017021,令和７年８月１日大阪府吹田市千里山西四丁目９番２２号株式会社メディサーブ（2120901017021）に合併し解散,2015-10-05,1,,,,,オカヤッキョク,0
1760,8140001101016,登記記録の閉鎖等,0,2025-08-21,2025-08-15,株式会社パシオネ,,株式会社,兵庫県,加古川市,尾上町安田１９９番地１,,28,210,6750021,,,2025-08-15,清算の結了等,,,2016-02-16,1,,,,,パシオネ,0
1767,8170001007020,登記記録の閉鎖等,0,2025-08-21,2025-08-19,株式会社サウスコア,,株式会社,和歌山県,和歌山市,新高町３番２３号,,30,201,6410034,,,2025-08-19,清算の結了等,,,2015-10-05,1,,,,,サウスコア,0
1801,8340001026597,登記記録の閉鎖等,0,2025-08-21,2025-08-06,株式会社オフィスＫ．Ｔ,,株式会社,鹿児島県,鹿児島市,西田２丁目１５番２１号,,46,201,8900046,,,2025-08-06,清算の結了等,,,2024-06-26,1,,,,,オフィスケーティー,0
1803,8340002019740,登記記録の閉鎖等,0,2025-08-21,2025-08-06,有限会社みすみ塗装防水,,有限会社,鹿児島県,鹿児島市,慈眼寺町２１番２０号,,46,201,8910146,,,2025-08-06,清算の結了等,,,2015-10-05,1,,,,,ミスミトソウボウスイ,0
1808,8370001008808,登記記録の閉鎖等,0,2025-08-21,2025-08-01,株式会社日本病理研究所,,株式会社,宮城県,仙台市青葉区,二日町１３番２２号カルコスビル２階,,04,101,9800802,,,2025-08-01,清算の結了等,,,2015-10-05,1,,,,,ニホンビョウリケンキュウショ,0
1809,8370602001533,登記記録の閉鎖等,0,2025-08-21,2025-08-01,有限会社日野不動産,,有限会社,宮城県,塩竈市,港町１丁目２番２号,,04,203,9850016,,,2025-08-01,清算の結了等,,,2015-10-05,1,,,,,ヒノフドウサン,0
1813,8430001010906,登記記録の閉鎖等,0,2025-08-21,2025-08-01,北海道東リ・ソーイング株式会社,,株式会社,北海道,札幌市豊平区,旭町３丁目１番７号,,01,105,0620911,,,2025-08-01,清算の結了等,,,2015-10-05,1,,,,,ホッカイドウトウリソーイング,0
1821,8480002001049,登記記録の閉鎖等,0,2025-08-21,2025-08-20,共友産業有限会社,,有限会社,徳島県,徳島市,住吉２丁目６番６号,,36,201,7700861,,,2025-08-20,清算の結了等,,,2015-10-05,1,,,,,キョウユウサンギョウ,0
1824,9010001019963,登記記録の閉鎖等,0,2025-08-21,2025-07-24,ジョーウイダーオリンピアンズ株式会社,,株式会社,東京都,千代田区,紀尾井町３番１９号,,13,101,1020094,,,2025-07-24,清算の結了等,,,2015-10-05,1,,,,,ジョーウイダーオリンピアンズ,0
1833,9010001181391,登記記録の閉鎖等,0,2025-08-21,2025-07-25,株式会社クロナス九州,,株式会社,福岡県,福岡市中央区,清川２丁目１３番３４号,,40,133,8100005,,,2025-07-25,清算の結了等,,,2017-02-13,1,,,,,クロナスキュウシュウ,0
1845,9010003021109,登記記録の閉鎖等,0,2025-08-21,2025-07-24,日光１５７コンダクト福岡東合同会社,,合同会社,東京都,千代田区,丸の内１丁目４番１号東京共同会計事務所内,,13,101,1000005,,,2025-07-24,清算の結了等,,,2015-10-05,1,,,,,ニッコウワンハンドレッドフィフティーセブンコンダクトフクオカヒガシ,0
1848,9010005006974,登記記録の閉鎖等,0,2025-08-21,2025-07-30,医療法人社団協立歯科クリニークデュボワ,,その他の設立登記法人,東京都,千代田区,内幸町１丁目１番１号帝国ホテルタワー４階,,13,101,1000011,,,2025-07-30,清算の結了等,,,2015-10-05,1,,,,,キョウリツシカクリニークデュボワ,0
1850,9010102003817,登記記録の閉鎖等,0,2025-08-21,2025-08-19,有限会社セントラルフーズネットワーク,,有限会社,東京都,八王子市,狭間町１３８９番地１４８,,13,201,1930941,,,2025-08-19,清算の結了等,,,2015-10-05,1,,,,,セントラルフーズネットワーク,0
1867,9010905000572,登記記録の閉鎖等,0,2025-08-21,2025-08-19,医療法人社団あおば会,,その他の設立登記法人,東京都,世田谷区,中町２丁目３番６号地上１階地下１階,,13,112,1580091,,,2025-08-19,清算の結了等,,,2015-10-05,1,,,,,アオバカイ,0
1868,9011001145774,登記記録の閉鎖等,0,2025-08-21,2025-07-18,株式会社ＰＡＯＮ,,株式会社,東京都,渋谷区,神宮前２丁目１８番７号外苑ビル２階,,13,113,1500001,,,2025-07-18,清算の結了等,,,2022-02-28,1,,,,,パオン,0
1872,9011002035470,登記記録の閉鎖等,0,2025-08-21,2025-07-18,株式会社ゆう共済,,株式会社,東京都,渋谷区,宇田川町１４番１３号３階,,13,113,1500042,,,2025-07-18,清算の結了等,,,2015-10-05,1,,,,,ユウキョウサイ,0
1873,9011005009991,登記記録の閉鎖等,0,2025-08-21,2025-07-22,弁理士法人福柳国際特許事務所,,その他の設立登記法人,東京都,渋谷区,渋谷１丁目１番３号,,13,113,1500002,,,2025-07-22,清算の結了等,,,2023-03-15,1,,,,,フクリュウコクサイトッキョジムショ,0
1881,9011501006674,登記記録の閉鎖等,0,2025-08-21,2025-08-13,株式会社佐藤敏,,株式会社,東京都,荒川区,東日暮里３丁目２８番３号,,13,118,1160014,,,2025-08-13,清算の結了等,,,2015-10-05,1,,,,,サトウビン,0
1911,9030001153777,登記記録の閉鎖等,0,2025-08-21,2025-08-12,株式会社大島商事,,株式会社,埼玉県,三郷市,戸ケ崎２９２３－５,,11,237,3410044,,,2025-08-12,清算の結了等,,,2023-05-12,1,,,,,オオシマショウジ,0
1933,9060001007815,登記記録の閉鎖等,0,2025-08-21,2025-08-12,株式会社ｕｎｄｅｒ－ｇｒｏｕｎｄ,,株式会社,栃木県,宇都宮市,さつき２丁目５番３号,,09,201,3210141,,,2025-08-12,清算の結了等,,,2015-10-05,1,,,,,アンダーグラウンド,0
1934,9060001016130,登記記録の閉鎖等,0,2025-08-21,2025-08-13,ラテラル株式会社,,株式会社,栃木県,小山市,粟宮１丁目１３番３２号,,09,208,3290201,,,2025-08-13,清算の結了等,,,2015-10-05,1,,,,,ラテラル,0
1935,9060001034768,登記記録の閉鎖等,0,2025-08-21,2025-08-12,Ｒｅｌａ株式会社,,株式会社,栃木県,宇都宮市,清原台２丁目７番６号,,09,201,3213223,,,2025-08-12,清算の結了等,,,2022-04-18,1,,,,,リーレ,0
1937,9060002003367,登記記録の閉鎖等,0,2025-08-21,2025-08-08,有限会社グローバランス,,有限会社,栃木県,宇都宮市,野沢町６０２番地９,,09,201,3200071,,,2025-08-08,清算の結了等,,,2015-10-05,1,,,,,グローバランス,0
1939,9060002035212,登記記録の閉鎖等,0,2025-08-21,2025-08-12,有限会社赤坂製作所,,有限会社,栃木県,足利市,稲岡町４５９番地,,09,202,3294212,,,2025-08-12,清算の結了等,,,2015-10-05,1,,,,,アカサカセイサクショ,0
1954,9120002079896,登記記録の閉鎖等,0,2025-08-21,2025-08-01,有限会社竹岡タイル,,有限会社,大阪府,門真市,三ツ島４丁目１２番６号,,27,223,5710015,,,2025-08-01,清算の結了等,,,2015-10-05,1,,,,,,0
1956,9120102018960,登記記録の閉鎖等,0,2025-08-21,2025-08-15,有限会社オオサカ薬局,,有限会社,大阪府,藤井寺市,小山藤の里町１４－１藤の里ハイツ１０１,,27,226,5830034,,,2025-08-15,合併による解散等,2120901017021,令和７年８月１日大阪府吹田市千里山西四丁目９番２２号株式会社メディサーブ（2120901017021）に合併し解散,2015-10-05,1,,,,,オオサカヤッキョク,0
1974,9180302010844,登記記録の閉鎖等,0,2025-08-21,2025-08-04,ビジネスホテル・スマイル有限会社,,有限会社,愛知県,田原市,吉胡町木綿台１番地,,23,231,4413402,,,2025-08-04,清算の結了等,,,2015-10-05,1,,,,,ビジネスホテルスマイル,0
1975,9190005011809,登記記録の閉鎖等,0,2025-08-21,2025-08-19,医療法人西井会,,その他の設立登記法人,三重県,松阪市,高町１９２番５号,,24,204,5150011,,,2025-08-19,清算の結了等,,,2023-04-11,1,,,,,ニシイカイ,0
1988,9260002027544,登記記録の閉鎖等,0,2025-08-21,2025-07-31,有限会社グレート・ピープル,,有限会社,岡山県,新見市,長屋１２８９番地,,33,210,7180014,,,2025-07-31,清算の結了等,,,2015-10-05,1,,,,,グレートピープル,0
1991,9290001003857,登記記録の閉鎖等,0,2025-08-21,2025-07-25,株式会社ヒントシステム,,株式会社,福岡県,福岡市東区,和白丘３丁目２５番８号,,40,131,8110213,,,2025-07-25,清算の結了等,,,2015-10-05,1,,,,,ヒントシステム,0
1992,9290001045214,登記記録の閉鎖等,0,2025-08-21,2025-07-23,株式会社中村呉服店,,株式会社,福岡県,嘉麻市,上山田１４２０番地,,40,227,8210012,,,2025-07-23,清算の結了等,,,2015-10-05,1,,,,,ナカムラゴフクテン,0
1993,9290001085747,登記記録の閉鎖等,0,2025-08-21,2025-07-25,株式会社アールヤマサキ,,株式会社,福岡県,福岡市西区,今宿東１丁目１９番１４号,,40,135,8190161,,,2025-07-25,清算の結了等,,,2019-07-03,1,,,,,アールヤマサキ,0
1999,9290802024085,登記記録の閉鎖等,0,2025-08-21,2025-08-18,有限会社クロイタ運送,,有限会社,福岡県,田川市,大字川宮１４５６番地の１,,40,206,8260042,,,2025-08-18,清算の結了等,,,2015-10-05,1,,,,,クロイタウンソウ,0
2000,9330001010337,登記記録の閉鎖等,0,2025-08-21,2025-08-06,株式会社山鹿興建,,株式会社,熊本県,山鹿市,山鹿１１７番地,,43,208,8610501,,,2025-08-06,清算の結了等,,,2015-10-05,1,,,,,ヤマガコウケン,0
2003,9330005003246,登記記録の閉鎖等,0,2025-08-21,2025-08-08,山鹿青果食品商業協同組合,,その他の設立登記法人,熊本県,山鹿市,南島６８８番地,,43,208,8610535,,,2025-08-08,清算の結了等,,,2015-10-05,1,,,,,ヤマガセイカショクヒンショウギョウ,0
2012,9360002009144,登記記録の閉鎖等,0,2025-08-21,2025-07-22,有限会社湘南技術サービス,,有限会社,沖縄県,糸満市,字真栄里１４３０番地の１フォレスター５０１号,,47,210,9010362,,,2025-07-22,清算の結了等,,,2015-10-05,1,,,,,ショウナンギジュツサービス,0
2016,9380001031808,登記記録の閉鎖等,0,2025-08-21,2025-08-04,株式会社グリーンデジタル,,株式会社,神奈川県,横浜市中区,海岸通４丁目１７番,,14,104,2310002,,,2025-08-04,清算の結了等,,,2021-04-23,1,,,,,グリーンデジタル,0
2019,9400001004604,登記記録の閉鎖等,0,2025-08-21,2025-08-14,東杜産業株式会社,,株式会社,岩手県,滝沢市,篠木明法１３３番地１,,03,216,0200731,,,2025-08-14,合併による解散等,1120101034223,令和７年８月１日大阪府富田林市大字甘南備９０１番地３原田工業株式会社（1120101034223）に合併し解散,2015-10-05,1,,,,,トウトサンギョウ,0
2024,9430002065345,登記記録の閉鎖等,0,2025-08-21,2025-07-31,有限会社佐野塗装,,有限会社,北海道,登別市,若草町６丁目２０番地７,,01,230,0590035,,,2025-07-31,清算の結了等,,,2015-10-05,1,,,,,サノトソウ,0
2026,9440002005184,登記記録の閉鎖等,0,2025-08-21,2025-08-18,有限会社吉浦電機商会,,有限会社,北海道,函館市,花園町１１番２７号,,01,202,0410843,,,2025-08-18,清算の結了等,,,2015-10-05,1,,,,,ヨシウラデンキショウカイ,0
