sequenceNumber,corporateNumber,process,correct,updateDate,changeDate,name,nameImageId,kind,prefectureName,cityName,streetNumber,addressImageId,prefectureCode,cityCode,postCode,addressOutside,addressOutsideImageId,closeDate,closeCause,successorCorporateNumber,changeCause,assignmentDate,latest,enName,enPrefectureName,enCityName,enAddressOutside,furigana,hihyoji
9,1010005035725,新規,0,2022-10-31,2022-10-31,一般社団法人オルタナ１９,,その他の設立登記法人,東京都,千代田区,丸の内３丁目１番１号東京共同会計事務所内,,13,101,1000005,,,,,,,2022-10-31,1,,,,,オルタナナインティーン,0
21,1010505003355,新規,0,2022-10-31,2022-10-31,一般社団法人メグ,,その他の設立登記法人,東京都,台東区,雷門２丁目１９番１４号ユーフォート浅草雷門９０５,,13,106,1110034,,,,,,,2022-10-31,1,,,,,メグ,0
25,1010703006416,新規,0,2022-10-31,2022-10-31,合同会社ＴＡＢＢＹ　ＬＡＢＯＳ,,合同会社,東京都,品川区,大井２丁目３番２０号５０３号室,,13,109,1400014,,,,,,,2022-10-31,1,,,,,タビーラボ,0
26,1010801033394,新規,0,2022-10-31,2022-10-31,株式会社ＨＩＫＡＲＩ　ＷＯＲＫＳ,,株式会社,東京都,大田区,大森中２丁目２番１４号２Ｆ,,13,111,1430014,,,,,,,2022-10-31,1,,,,,ヒカリワークス,0
29,1010901051866,新規,0,2022-10-31,2022-10-31,株式会社インフォミティ,,株式会社,東京都,世田谷区,祖師谷５丁目３１番２３号,,13,112,1570072,,,,,,,2022-10-31,1,,,,,インフォミティ,0
45,1011101100686,新規,0,2022-10-31,2022-10-31,株式会社ランドリーｄｅｌｔａ,,株式会社,東京都,新宿区,神楽坂３丁目４番地神楽坂山本ビル６階,,13,104,1620825,,,,,,,2022-10-31,1,,,,,ランドリーデルタ,0
52,1011303004561,新規,0,2022-10-31,2022-10-31,合同会社Ｃ．Ｋ．Ｂｒｉｇｈｔｏｎ,,合同会社,東京都,杉並区,久我山４丁目４３番２４号ヴェール久我山３１４,,13,115,1680082,,,,,,,2022-10-31,1,,,,,,0
55,1011501028602,新規,0,2022-10-31,2022-10-31,株式会社ディベロップメントＲＳＪ,,株式会社,東京都,北区,西が丘１丁目４１－１６星野荘３号室,,13,117,1150056,,,,,,,2022-10-31,1,,,,,ディベロップメントアールエスジェー,0
56,1011501028610,新規,0,2022-10-31,2022-10-31,株式会社イズベスト,,株式会社,東京都,北区,浮間４丁目１９番２７－３０４号メイツ浮間舟渡,,13,117,1150051,,,,,,,2022-10-31,1,,,,,イズベスト,0
58,1011801041478,新規,0,2022-10-31,2022-10-31,アール＆エス人材開発株式会社,,株式会社,東京都,足立区,中川４丁目８番１号,,13,121,1200002,,,,,,,2022-10-31,1,,,,,アールアンドエスジンザイカイハツ,0
59,1011801041486,新規,0,2022-10-31,2022-10-31,アサヒドー不動産株式会社,,株式会社,東京都,足立区,江北３丁目２３番１号,,13,121,1230872,,,,,,,2022-10-31,1,,,,,アサヒドーフドウサン,0
77,1020001148728,新規,0,2022-10-31,2022-10-31,株式会社ボニータ,,株式会社,神奈川県,横浜市磯子区,磯子台２６番１号,,14,107,2350019,,,,,,,2022-10-31,1,,,,,ボニータ,0
78,1020001148736,新規,0,2022-10-31,2022-10-31,株式会社アップストーンホールディングス,,株式会社,神奈川県,横浜市中区,住吉町２丁目２１番１号フレックスタワー横浜関内５０１号室,,14,104,2310013,,,,,,,2022-10-31,1,,,,,アップストーンホールディングス,0
79,1020001148744,新規,0,2022-10-31,2022-10-31,株式会社ａｃアドバイザリー,,株式会社,神奈川県,横浜市港北区,新吉田東８丁目４１番２０－６１３号,,14,109,2230058,,,,,,,2022-10-31,1,,,,,エーシーアドバイザリー,0
83,1020003022633,新規,0,2022-10-31,2022-10-31,ＳＭＢＰ合同会社,,合同会社,神奈川県,川崎市幸区,幸町３丁目５４７番地１グレイスガーデン多摩川６０３,,14,132,2120011,,,,,,,2022-10-31,1,,,,,,0
89,1021001077272,新規,0,2022-10-31,2022-10-31,アルティザン株式会社,,株式会社,神奈川県,横須賀市,若松町１丁目１２小瀬村若松ビル４０１,,14,201,2380007,,,,,,,2022-10-31,1,,,,,アルティザン,0
90,1021001077314,新規,0,2022-10-31,2022-10-31,株式会社ＬｏｖｅＵ,,株式会社,神奈川県,相模原市中央区,上溝１８６３番地２５,,14,152,2520243,,,,,,,2022-10-31,1,,,,,ラブユー,0
91,1021001077322,新規,0,2022-10-31,2022-10-31,株式会社シャルピネ,,株式会社,神奈川県,高座郡寒川町,宮山３６０５番地,,14,321,2530106,,,,,,,2022-10-31,1,,,,,シャルピネ,0
99,1030001150749,新規,0,2022-10-31,2022-10-31,株式会社レオナコーポレーション,,株式会社,埼玉県,越谷市,東大沢２丁目４番地１７,,11,222,3430022,,,,,,,2022-10-31,1,,,,,レオナコーポレーション,0
100,1030001150765,新規,0,2022-10-31,2022-10-31,株式会社ジェイエスプラン,,株式会社,埼玉県,久喜市,菖蒲町菖蒲５０１３番地１３６,,11,232,3460106,,,,,,,2022-10-31,1,,,,,,0
101,1030001150773,新規,0,2022-10-31,2022-10-31,株式会社リブコンテンツ,,株式会社,埼玉県,川越市,南台２丁目６番地１４第２原ビル１０１号室,,11,201,3501165,,,,,,,2022-10-31,1,,,,,リブコンテンツ,0
102,1030001150807,新規,0,2022-10-31,2022-10-31,株式会社オプチカルジャパン,,株式会社,埼玉県,坂戸市,柳町１番１号,,11,239,3500216,,,,,,,2022-10-31,1,,,,,オプチカルジャパン,0
120,1040003021162,新規,0,2022-10-31,2022-10-31,合同会社オフィスＫＭＴ,,合同会社,千葉県,千葉市美浜区,真砂５丁目４番１３号,,12,106,2610011,,,,,,,2022-10-31,1,,,,,オフィスケイエムティ,0
121,1040003021170,新規,0,2022-10-31,2022-10-31,合同会社灯知,,合同会社,千葉県,柏市,小青田５丁目１２番ＫＴプロムナードＡ棟１０２,,12,217,2770803,,,,,,,2022-10-31,1,,,,,トウチ,0
122,1040005021796,新規,0,2022-10-31,2022-10-31,一般社団法人国府台相談支援事業所,,その他の設立登記法人,千葉県,市川市,国府台５丁目２０番２３号,,12,203,2720827,,,,,,,2022-10-31,1,,,,,コウノダイソウダンシエンジギョウショ,0
127,1060001035393,新規,0,2022-10-31,2022-10-31,ＬＩＢＲＡＮＤＹ株式会社,,株式会社,栃木県,那須塩原市,太夫塚１丁目１９５番地渡辺住宅団地４号,,09,213,3292735,,,,,,,2022-10-31,1,,,,,リブランディ,0
132,1070001039765,新規,0,2022-10-31,2022-10-31,株式会社博明,,株式会社,群馬県,太田市,新田市野井町１０６１番地５レディアンス太田１０５号,,10,205,3700314,,,,,,,2022-10-31,1,,,,,ヒロアキ,0
154,1120001249854,新規,0,2022-10-31,2022-10-31,株式会社ＨＡＬＥ,,株式会社,大阪府,大阪市北区,大淀中２丁目３番２１号ラルジュメゾン２０２号室,,27,127,5310076,,,,,,,2022-10-31,1,,,,,ハレ,0
155,1120001249862,新規,0,2022-10-31,2022-10-31,株式会社カドルシア,,株式会社,大阪府,大阪市中央区,南船場３丁目１１番１０号心斎橋大陽ビルＢ１Ｆ,,27,128,5420081,,,,,,,2022-10-31,1,,,,,カドルシア,0
156,1120001249887,新規,0,2022-10-31,2022-10-31,株式会社ＬＤＭ,,株式会社,大阪府,大阪市西区,北堀江１丁目３番１０－４０１号,,27,106,5500014,,,,,,,2022-10-31,1,,,,,エルディーエム,0
162,1120103004901,新規,0,2022-10-31,2022-10-31,合同会社ＬＬＣ　ＮＯＲＴＨ　ＨＩＬＬ,,合同会社,大阪府,泉南市,男里３丁目１０番２９号,,27,228,5900526,,,,,,,2022-10-31,1,,,,,エルエルシーノースヒル,0
163,1120901046649,新規,0,2022-10-31,2022-10-31,株式会社ＭＩＲＡＩ,,株式会社,大阪府,吹田市,円山町５２番８５号,,27,205,5640061,,,,,,,2022-10-31,1,,,,,ミライ,0
165,1122001036349,新規,0,2022-10-31,2022-10-31,株式会社ＯＲＴＵＳ,,株式会社,大阪府,東大阪市,金岡４丁目１３番２－８０６号リバーサイド金岡５番館,,27,227,5770823,,,,,,,2022-10-31,1,,,,,オータス,0
173,1140001127793,新規,0,2022-10-31,2022-10-31,株式会社めぐる,,株式会社,兵庫県,神戸市北区,道場町日下部１０４８番地４,,28,109,6511505,,,,,,,2022-10-31,1,,,,,メグル,0
178,1140003018289,新規,0,2022-10-31,2022-10-31,合同会社輝,,合同会社,兵庫県,明石市,二見町西二見１２７３番地の１０,,28,203,6740094,,,,,,,2022-10-31,1,,,,,ヒカリ,0
179,1140005026356,新規,0,2022-10-31,2022-10-31,一般社団法人カワイク介護,,その他の設立登記法人,兵庫県,芦屋市,宮川町７番１８号楠本ビル３階,,28,206,6590063,,,,,,,2022-10-31,1,,,,,カワイクカイゴ,0
189,1180001153514,新規,0,2022-10-31,2022-10-31,株式会社ＴＯＵＲＵ,,株式会社,愛知県,名古屋市昭和区,広路町字隼人１７番地の１,,23,107,4660834,,,,,,,2022-10-31,1,,,,,トウル,0
190,1180001153571,新規,0,2022-10-31,2022-10-31,株式会社幸和,,株式会社,愛知県,愛西市,北一色町証文１４１番地１,,23,232,4960905,,,,,,,2022-10-31,1,,,,,コウワ,0
202,1240001060571,新規,0,2022-10-31,2022-10-31,株式会社レンタバンク,,株式会社,広島県,廿日市市,友田１２３５番地６,,34,213,7380203,,,,,,,2022-10-31,1,,,,,レンタバンク,0
204,1250001019823,新規,0,2022-10-31,2022-10-31,とも株式会社,,株式会社,山口県,山口市,泉都町８番１５号,,35,203,7530076,,,,,,,2022-10-31,1,,,,,トモ,0
211,1280001008807,新規,0,2022-10-31,2022-10-31,株式会社大森会計事務所,,株式会社,島根県,松江市,西茶町４０番地１,,32,201,6900845,,,,,,,2022-10-31,1,,,,,オオモリカイケイジムショ,0
217,1290001099382,新規,0,2022-10-31,2022-10-31,株式会社アリアナライン,,株式会社,福岡県,福岡市博多区,大博町９番５号,,40,132,8120033,,,,,,,2022-10-31,1,,,,,アリアナライン,0
219,1290003013110,新規,0,2022-10-31,2022-10-31,福岡ファミリー商事合同会社,,合同会社,福岡県,福岡市南区,井尻５丁目９番８号,,40,134,8111302,,,,,,,2022-10-31,1,,,,,フクオカファミリーショウジ,0
220,1290003013119,新規,0,2022-10-31,2022-10-31,合同会社Ｊａｙ,,合同会社,福岡県,筑後市,大字下妻５１８番地２,,40,211,8330021,,,,,,,2022-10-31,1,,,,,ジェイ,0
223,1290801028994,新規,0,2022-10-31,2022-10-31,株式会社エステートタケダ,,株式会社,福岡県,北九州市八幡東区,石坪町１番２７号,,40,108,8050021,,,,,,,2022-10-31,1,,,,,エステートタケダ,0
227,1330003009566,新規,0,2022-10-31,2022-10-31,合同会社勢力丸,,合同会社,熊本県,上天草市,松島町合津６１７２番地１,,43,212,8616102,,,,,,,2022-10-31,1,,,,,セイリキマル,0
228,1340003003948,新規,0,2022-10-31,2022-10-31,合同会社南西環境保全,,合同会社,鹿児島県,大島郡与論町,大字茶花９１３番地１,,46,535,8919301,,,,,,,2022-10-31,1,,,,,ナンセイカンキョウホゼン,0
229,1350001018006,新規,0,2022-10-31,2022-10-31,フルーツデザイン株式会社,,株式会社,宮崎県,宮崎市,鶴島２丁目１６番１５号,,45,201,8800014,,,,,,,2022-10-31,1,,,,,フルーツデザイン,0
232,1370001049189,新規,0,2022-10-31,2022-10-31,ＭＢ‐ＴＲＡＤＩＮＧ株式会社,,株式会社,宮城県,栗原市,高清水台町６８番地１,,04,213,9872144,,,,,,,2022-10-31,1,,,,,エムビートレーディング,0
244,1420001018056,新規,0,2022-10-31,2022-10-31,株式会社スタジオＲ,,株式会社,青森県,三沢市,東町３丁目９番地７号,,02,207,0330034,,,,,,,2022-10-31,1,,,,,スタジオアール,0
250,1500001024558,新規,0,2022-10-31,2022-10-31,株式会社豆愛,,株式会社,愛媛県,伊予市,下吾川１８６２番地１,,38,210,7993111,,,,,,,2022-10-31,1,,,,,マメアイ,0
262,2010001230444,新規,0,2022-10-31,2022-10-31,株式会社Ｄｈａｒｍａ,,株式会社,東京都,中央区,銀座１丁目１２番４号Ｎ＆ＥＢＬＤ．７階,,13,102,1040061,,,,,,,2022-10-31,1,,,,,ダルマ,0
263,2010001230452,新規,0,2022-10-31,2022-10-31,ＧＩＧ　Ｅｎｅｒｇｙ　Ｓｔｏｒａｇｅ　Ｊａｐａｎ　Ｏｐｅｒａｔｉｏｎｓ株式会社,,株式会社,東京都,千代田区,紀尾井町４番１号ニューオータニガーデンコート,,13,101,1020094,,,,,,,2022-10-31,1,,,,,ジーアイジーエナジーストレージジャパンオペレーションズ,0
267,2010005035724,新規,0,2022-10-31,2022-10-31,一般社団法人オルタナ２０,,その他の設立登記法人,東京都,千代田区,丸の内３丁目１番１号東京共同会計事務所内,,13,101,1000005,,,,,,,2022-10-31,1,,,,,オルタナトゥウェンティ,0
271,2010401170488,新規,0,2022-10-31,2022-10-31,株式会社エキスパーツ,,株式会社,東京都,港区,赤坂３丁目１１番１４－７１１号,,13,103,1070052,,,,,,,2022-10-31,1,,,,,エキスパーツ,0
272,2010401170538,新規,0,2022-10-31,2022-10-31,株式会社Ｊ‐Ｗｅｌｆａｒｅ,,株式会社,東京都,港区,芝浦１丁目６－４１グローバルフロントタワー２５０２,,13,103,1050023,,,,,,,2022-10-31,1,,,,,ジェイウェルファ,0
277,2010601062072,新規,0,2022-10-31,2022-10-31,株式会社ＤＭＫ　ＳＴＥＬＬＡ,,株式会社,東京都,江東区,潮見２丁目８番１４－８１４号,,13,108,1350052,,,,,,,2022-10-31,1,,,,,ディーエムケーステラ,0
279,2010701043393,新規,0,2022-10-31,2022-10-31,株式会社オフィスサイトウ,,株式会社,東京都,品川区,豊町４丁目１８番７号,,13,109,1420042,,,,,,,2022-10-31,1,,,,,オフィスサイトウ,0
289,2011001150599,新規,0,2022-10-31,2022-10-31,株式会社Ｆｌｕｔｔｅｒ　Ｄｅｓｉｇｎ　Ｉｎｃ,,株式会社,東京都,渋谷区,神宮前６丁目９－１０メゾン神宮前１０２,,13,113,1500001,,,,,,,2022-10-31,1,,,,,フラッターデザインインク,0
298,2011101100603,新規,0,2022-10-31,2022-10-31,Ｊ‐ＯＮＥ株式会社,,株式会社,東京都,新宿区,高田馬場２丁目１９番７－８０５号,,13,104,1690075,,,,,,,2022-10-31,1,,,,,ジェイワン,0
299,2011101100677,新規,0,2022-10-31,2022-10-31,株式会社ｋｏｋｏｋｕｒｏ,,株式会社,東京都,新宿区,西落合１丁目２番１７号,,13,104,1610031,,,,,,,2022-10-31,1,,,,,ココクロ,0
300,2011101100685,新規,0,2022-10-31,2022-10-31,中島東洋株式会社,,株式会社,東京都,新宿区,百人町２丁目１番４５号赤煉瓦２２７,,13,104,1690073,,,,,,,2022-10-31,1,,,,,ナカジマトウヨウ,0
305,2011201024198,新規,0,2022-10-31,2022-10-31,株式会社ベターライフ,,株式会社,東京都,中野区,大和町４丁目２０－４ヴィラ中野１０２,,13,114,1650034,,,,,,,2022-10-31,1,,,,,ベターライフ,0
306,2011203003935,新規,0,2022-10-31,2022-10-31,東中野ヤナセビル合同会社,,合同会社,東京都,中野区,東中野４丁目３番１号ヤナセビル,,13,114,1640003,,,,,,,2022-10-31,1,,,,,ヒガシナカノヤナセビル,0
307,2011401024634,新規,0,2022-10-31,2022-10-31,株式会社ボードブリッジ,,株式会社,東京都,板橋区,宮本町５６番２－４０４号,,13,119,1740054,,,,,,,2022-10-31,1,,,,,ボードブリッジ,0
308,2011501028618,新規,0,2022-10-31,2022-10-31,０ＸＡホールディングス株式会社,,株式会社,東京都,荒川区,町屋３丁目１－１３,,13,118,1160001,,,,,,,2022-10-31,1,,,,,レイエクスエイホールディングス,0
310,2011503005342,新規,0,2022-10-31,2022-10-31,エラリ合同会社,,合同会社,東京都,北区,田端２丁目１番２０号,,13,117,1140014,,,,,,,2022-10-31,1,,,,,エラリ,0
314,2011703003286,新規,0,2022-10-31,2022-10-31,合同会社Ｔ’ｓ,,合同会社,東京都,江戸川区,平井１丁目２番１１－４０８号シャルマンコーポ平井,,13,123,1320035,,,,,,,2022-10-31,1,,,,,ティース,0
317,2011801041477,新規,0,2022-10-31,2022-10-31,株式会社ＯＬＤＥ,,株式会社,東京都,葛飾区,亀有３丁目２６番２号,,13,122,1250061,,,,,,,2022-10-31,1,,,,,オールド,0
325,2013103001176,新規,0,2022-10-31,2022-10-31,昭島石材合同会社,,合同会社,東京都,あきる野市,草花７６９番地８,,13,228,1970802,,,,,,,2022-10-31,1,,,,,アキシマセキザイ,0
326,2013301049868,新規,0,2022-10-31,2022-10-31,株式会社Ｋ８１２,,株式会社,東京都,豊島区,西池袋１丁目４番１０号,,13,116,1710021,,,,,,,2022-10-31,1,,,,,ケーハチイチニ,0
330,2020001148719,新規,0,2022-10-31,2022-10-31,株式会社アローズ,,株式会社,神奈川県,横浜市港北区,篠原町１００５番地１スカイタウン新横浜１０６,,14,109,2220026,,,,,,,2022-10-31,1,,,,,アローズ,0
331,2020001148727,新規,0,2022-10-31,2022-10-31,Ｃ‐ＴＥＣＨ株式会社,,株式会社,神奈川県,横浜市神奈川区,反町３丁目２３番地９－６０３号室,,14,102,2210825,,,,,,,2022-10-31,1,,,,,シーテック,0
332,2020001148735,新規,0,2022-10-31,2022-10-31,オーエス貿易株式会社,,株式会社,神奈川県,横浜市泉区,緑園２丁目１８番地２,,14,116,2450002,,,,,,,2022-10-31,1,,,,,オーエスボウエキ,0
333,2020001148743,新規,0,2022-10-31,2022-10-31,株式会社ふるさと村工房,,株式会社,神奈川県,横浜市青葉区,寺家町６０３番地２,,14,117,2270031,,,,,,,2022-10-31,1,,,,,フルサトムラコウボウ,0
334,2020001148751,新規,0,2022-10-31,2022-10-31,株式会社廣徳,00128306,株式会社,神奈川県,横浜市中区,山下町１２９番地世貿ビル５０１号,,14,104,2310023,,,,,,,2022-10-31,1,,,,,コウトク,0
341,2021001077313,新規,0,2022-10-31,2022-10-31,株式会社堀之上電気,,株式会社,神奈川県,相模原市中央区,上溝３９２８番地３,,14,152,2520243,,,,,,,2022-10-31,1,,,,,ホリノウエデンキ,0
354,2030001150780,新規,0,2022-10-31,2022-10-31,株式会社ｏｌｕｏｌｕ,,株式会社,埼玉県,春日部市,増富６４８番地１１,,11,214,3440041,,,,,,,2022-10-31,1,,,,,オルオル,0
364,2040001125617,新規,0,2022-10-31,2022-10-31,ＲＳジャパン株式会社,,株式会社,千葉県,松戸市,上本郷２８９９番地の３グリーンテラス３号,,12,207,2710064,,,,,,,2022-10-31,1,,,,,アールエスジャパン,0
365,2040001125633,新規,0,2022-10-31,2022-10-31,株式会社関根農園,,株式会社,千葉県,野田市,目吹２１７１番地,,12,208,2780001,,,,,,,2022-10-31,1,,,,,セキネノウエン,0
372,2060001035392,新規,0,2022-10-31,2022-10-31,株式会社イン・ベース,,株式会社,栃木県,真岡市,下高間木２丁目１２－４－２Ｆ,,09,209,3214335,,,,,,,2022-10-31,1,,,,,インベース,0
378,2070003004675,新規,0,2022-10-31,2022-10-31,東西合同会社,,合同会社,群馬県,北群馬郡榛東村,大字山子田１８１番地,,10,344,3703502,,,,,,,2022-10-31,1,,,,,トウセイ,0
403,2120001249630,新規,0,2022-10-31,2022-10-31,株式会社ノアレア,,株式会社,大阪府,大阪市中央区,西心斎橋１丁目１０番１７号ポポロビル４階Ｓ号,,27,128,5420086,,,,,,,2022-10-31,1,,,,,ノアレア,0
404,2120001249829,新規,0,2022-10-31,2022-10-31,株式会社ＷＥＥＳ,,株式会社,大阪府,大阪市北区,天神橋３丁目８－１５プレサンス扇町駅前２０９号室,,27,127,5300041,,,,,,,2022-10-31,1,,,,,ウィース,0
405,2120001249861,新規,0,2022-10-31,2022-10-31,結Ｈｅａｌｔｈ株式会社,,株式会社,大阪府,寝屋川市,木田町２番１１号,,27,215,5720836,,,,,,,2022-10-31,1,,,,,ユイヘルス,0
406,2120003022738,新規,0,2022-10-31,2022-10-31,合同会社ＵＴＳ,,合同会社,大阪府,大阪市中央区,上汐２丁目１番１０号３０２,,27,128,5420064,,,,,,,2022-10-31,1,,,,,ユーティエス,0
408,2120101066439,新規,0,2022-10-31,2022-10-31,日本騰龍株式会社,,株式会社,大阪府,堺市中区,辻之１１７１－７－１階,00128300,27,142,5998245,,,,,,,2022-10-31,1,,,,,ニッポントウリュウ,0
412,2120901046656,新規,0,2022-10-31,2022-10-31,株式会社ＬｉＴ,,株式会社,大阪府,豊中市,上野東１丁目２０番１４号,,27,203,5600013,,,,,,,2022-10-31,1,,,,,リット,0
413,2120901046664,新規,0,2022-10-31,2022-10-31,株式会社Ｍａｔｓｕｄａ　Ｏｆｆｉｃｅ,,株式会社,大阪府,豊中市,寺内１丁目４番１０－２０２号,,27,203,5610872,,,,,,,2022-10-31,1,,,,,マツダオフィス,0
414,2120905006391,新規,0,2022-10-31,2022-10-31,司法書士法人和み,,その他の設立登記法人,大阪府,高槻市,南芥川町８番３２号ニューサンハイツ２０３,,27,207,5691124,,,,,,,2022-10-31,1,,,,,ナゴミ,0
431,2140001127834,新規,0,2022-10-31,2022-10-31,株式会社ＶＡＬＥＮＴＩＡ,,株式会社,兵庫県,西宮市,笠屋町９番６号,,28,204,6638136,,,,,,,2022-10-31,1,,,,,バレンティア,0
434,2140003018288,新規,0,2022-10-31,2022-10-31,合同会社ＳＡＮＴＡＫＵ,,合同会社,兵庫県,宝塚市,高司３丁目２番２３－２号,,28,214,6650051,,,,,,,2022-10-31,1,,,,,サンタク,0
435,2140005026355,新規,0,2022-10-31,2022-10-31,無量寺,,その他の設立登記法人,兵庫県,宝塚市,安倉中５丁目２４番６号,,28,214,6650822,,,,,,,2022-10-31,1,,,,,,0
436,2150001025913,新規,0,2022-10-31,2022-10-31,株式会社はらだ,,株式会社,奈良県,奈良市,押熊町２３２９番地の２３,,29,201,6310011,,,,,,,2022-10-31,1,,,,,ハラダ,0
449,2180001153538,新規,0,2022-10-31,2022-10-31,株式会社８８ｗｏｒｋｓ,,株式会社,愛知県,春日井市,東山町２丁目２番２５号,,23,206,4860811,,,,,,,2022-10-31,1,,,,,ハチハチワークス,0
450,2180001153562,新規,0,2022-10-31,2022-10-31,轟レーシング株式会社,,株式会社,愛知県,西春日井郡豊山町,大字青山字東栄１１３番地,,23,342,4800201,,,,,,,2022-10-31,1,,,,,トドロキレーシング,0
451,2180001153570,新規,0,2022-10-31,2022-10-31,株式会社アビリディー,,株式会社,愛知県,名古屋市天白区,高島１丁目１２２番地の１,,23,116,4680022,,,,,,,2022-10-31,1,,,,,アビリディー,0
452,2180001153579,新規,0,2022-10-31,2022-10-31,株式会社Ｂｅ　ａｃｔｉｖｅ,,株式会社,愛知県,小牧市,外堀１丁目３番地３,,23,219,4850039,,,,,,,2022-10-31,1,,,,,ビーアクティブ,0
453,2180001153587,新規,0,2022-10-31,2022-10-31,株式会社ＡＬＢＡ,,株式会社,愛知県,一宮市,明地字寺前９３番地,,23,203,4940012,,,,,,,2022-10-31,1,,,,,アルバ,0
464,2220001025105,新規,0,2022-10-31,2022-10-31,株式会社アースベンチャー,,株式会社,石川県,河北郡津幡町,字太田ち２１番地２２,,17,361,9290345,,,,,,,2022-10-31,1,,,,,アースベンチャー,0
468,2250001019822,新規,0,2022-10-31,2022-10-31,株式会社ＹＳＴＫ,,株式会社,山口県,下関市,豊北町大字粟野３５５５番地,,35,201,7595101,,,,,,,2022-10-31,1,,,,,ワイエスティーケー,0
470,2280001008806,新規,0,2022-10-31,2022-10-31,有福コトつくり株式会社,,株式会社,島根県,江津市,有福温泉町１１２３番地１２,,32,207,6950156,,,,,,,2022-10-31,1,,,,,アリフクコトツクリ,0
477,2290003013118,新規,0,2022-10-31,2022-10-31,Ｄ＆Ｐ合同会社,,合同会社,福岡県,福岡市南区,那の川１丁目１１番２－１０３号,,40,134,8150081,,,,,,,2022-10-31,1,,,,,ディーアンドピー,0
484,2340001025118,新規,0,2022-10-31,2022-10-31,株式会社シーズファーム,,株式会社,鹿児島県,熊毛郡南種子町,平山９１９番１,,46,502,8913702,,,,,,,2022-10-31,1,,,,,シーズファーム,0
495,2400001016044,新規,0,2022-10-31,2022-10-31,株式会社ひみつきち,,株式会社,岩手県,陸前高田市,高田町字太田７０６番地２,,03,210,0292205,,,,,,,2022-10-31,1,,,,,ヒミツキチ,0
496,2400003002991,新規,0,2022-10-31,2022-10-31,合同会社リプレイスメント,,合同会社,岩手県,盛岡市,上ノ橋町１番５０号,,03,201,0200887,,,,,,,2022-10-31,1,,,,,リプレイスメント,0
503,2430001087677,新規,0,2022-10-31,2022-10-31,株式会社ＢＥＳ,,株式会社,北海道,札幌市中央区,北四条西１６丁目１番地,,01,101,0600004,,,,,,,2022-10-31,1,,,,,ベス,0
509,2500001024557,新規,0,2022-10-31,2022-10-31,株式会社ＺＥＮＴＥＣＨ,,株式会社,愛媛県,西条市,大町２６５－１,,38,206,7930030,,,,,,,2022-10-31,1,,,,,ゼンテック,0
512,2700150111771,新規,0,2022-10-31,2022-09-21,日本ＭＲＳ水素科学技術連携研究会,,その他,宮城県,仙台市青葉区,片平２丁目１－１東北大学金属材料研究所４号館４１１号室　折茂研究室,,04,101,9800812,,,,,,,2022-09-21,1,,,,,ニホンエムアールエススイソカガクギジユツレンケイケンキユウカイ,0
513,2700150112423,新規,0,2022-10-31,2022-10-31,Ｍａｋｅｒ　ｈａｒｔ　Ｉｎｄｕｓｔｒｙ　Ｃｏｒｐ．,,外国会社等,,,,,,,,Ｎｏ．３２，ｋｅｊｉ　１ｓｔ　Ｒｄ．，Ｇｕｉｓｈａｎ　Ｔｏｗｎｓｈｉｐ，Ｔａｏｙｕａｎ　Ｃｉｔｙ　Ｔａｏｙｕａｎ　Ｔａｉｗａｎ　３３３８３,,,,,,2022-10-31,1,,,,,メイカーハートインダストリーコーポレーシヨン,0
540,3010403028799,新規,0,2022-10-31,2022-10-31,合同会社新東京リサーチ,,合同会社,東京都,港区,愛宕１丁目３－２,,13,103,1050002,,,,,,,2022-10-31,1,,,,,シントウキョウリサーチ,0
552,3011001150607,新規,0,2022-10-31,2022-10-31,テクスタ株式会社,,株式会社,東京都,渋谷区,渋谷２丁目１９－１５宮益坂ビルディング６０９,,13,113,1500002,,,,,,,2022-10-31,1,,,,,テクスタ,0
559,3011005009799,新規,0,2022-10-31,2022-10-31,一般社団法人パワード・バイ・アールイー認定委員会,,その他の設立登記法人,東京都,渋谷区,神宮前４丁目１８番６号,,13,113,1500001,,,,,,,2022-10-31,1,,,,,パワードバイアールイーニンテイイインカイ,0
566,3011101100676,新規,0,2022-10-31,2022-10-31,あったかライフパートナーズ株式会社,,株式会社,東京都,新宿区,西新宿７丁目２２番９－１０１号,,13,104,1600023,,,,,,,2022-10-31,1,,,,,アッタカライフパートナーズ,0
567,3011103012317,新規,0,2022-10-31,2022-10-31,インハウスパートナーズ合同会社,,合同会社,東京都,新宿区,西新宿３丁目３－１３西新宿水間ビル６階,,13,104,1600023,,,,,,,2022-10-31,1,,,,,インハウスパートナーズ,0
577,3011501028617,新規,0,2022-10-31,2022-10-31,株式会社喜丸商事,,株式会社,東京都,北区,浮間５丁目３番４３－１１０３号,,13,117,1150051,,,,,,,2022-10-31,1,,,,,キマルショウジ,0
578,3011503005341,新規,0,2022-10-31,2022-10-31,敬天三愛堂合同会社,,合同会社,東京都,荒川区,東日暮里５丁目２２番９号,,13,118,1160014,,,,,,,2022-10-31,1,,,,,ケイテンサンアイドウ,0
587,3011801041468,新規,0,2022-10-31,2022-10-31,Ｄａｙｓ　ｒｉｇｈｔ　ｃａｒｅ株式会社,,株式会社,東京都,葛飾区,西新小岩４丁目３９番２８号,,13,122,1240025,,,,,,,2022-10-31,1,,,,,デイズライトケア,0
588,3011801041476,新規,0,2022-10-31,2022-10-31,ひかり工業株式会社,,株式会社,東京都,足立区,千住大川町３８番７号メゾン宮崎２０１,,13,121,1200031,,,,,,,2022-10-31,1,,,,,,0
590,3011803005339,新規,0,2022-10-31,2022-10-31,Ｄｒｅａｍ　Ａｎｇｅｌ合同会社,,合同会社,東京都,葛飾区,南水元２丁目１０番８号,,13,122,1250035,,,,,,,2022-10-31,1,,,,,ドリームエンジェル,0
595,3012701017319,新規,0,2022-10-31,2022-10-31,株式会社サンバ,,株式会社,東京都,小平市,小川町１丁目４４５－１ガーデンハイツ小平３－３０４,,13,211,1870032,,,,,,,2022-10-31,1,,,,,サンバ,0
596,3012801021922,新規,0,2022-10-31,2022-10-31,株式会社インターリーブス,,株式会社,東京都,国分寺市,富士本１丁目２６番地５８,,13,214,1850031,,,,,,,2022-10-31,1,,,,,インターリーブス,0
610,3020001148701,新規,0,2022-10-31,2022-10-31,クアイト株式会社,,株式会社,神奈川県,川崎市宮前区,有馬１丁目９－１－４０２,,14,136,2160003,,,,,,,2022-10-31,1,,,,,クアイト,0
611,3020001148718,新規,0,2022-10-31,2022-10-31,華一株式会社,,株式会社,神奈川県,横浜市中区,山下町１番地シルクセンター９２１,,14,104,2310023,,,,,,,2022-10-31,1,,,,,ハナイチ,0
612,3020003022623,新規,0,2022-10-31,2022-10-31,合同会社ＡＲＯＵＮＤ,,合同会社,神奈川県,横浜市南区,南太田４丁目２番３号サンパティーク３０３,,14,105,2320006,,,,,,,2022-10-31,1,,,,,アラウンド,0
617,3021001077304,新規,0,2022-10-31,2022-10-31,株式会社オフィスブリトー,,株式会社,神奈川県,鎌倉市,七里ガ浜２丁目１９番１５号,,14,204,2480026,,,,,,,2022-10-31,1,,,,,オフィスブリトー,0
618,3021001077320,新規,0,2022-10-31,2022-10-31,株式会社ｍｅｎｓｕｓ,,株式会社,神奈川県,藤沢市,辻堂元町２丁目１０番３６～３０３号,,14,205,2510043,,,,,,,2022-10-31,1,,,,,メンサス,0
619,3021003012300,新規,0,2022-10-31,2022-10-31,合同会社Ｔｏｗａｎｅｙ,,合同会社,神奈川県,相模原市緑区,二本松３丁目１５番１０号,,14,151,2520137,,,,,,,2022-10-31,1,,,,,トワニー,0
620,3021003012309,新規,0,2022-10-31,2022-10-31,合同会社Ｎａｔｕｒｅ　Ｓａｕｎａ,,合同会社,神奈川県,鎌倉市,大町２丁目９番７－２０６号,,14,204,2480007,,,,,,,2022-10-31,1,,,,,ネイチャーサウナ,0
628,3030001150788,新規,0,2022-10-31,2022-10-31,ダイワ不動産リアルティ株式会社,,株式会社,埼玉県,久喜市,本町６丁目１３番１１号,,11,232,3460005,,,,,,,2022-10-31,1,,,,,ダイワフドウサンリアルティ,0
629,3030001150796,新規,0,2022-10-31,2022-10-31,ＨＫ株式会社,,株式会社,埼玉県,川口市,並木３丁目１３－４号ダイトービル弐番館５０８,,11,203,3320034,,,,,,,2022-10-31,1,,,,,エイチケイ,0
635,3030003020485,新規,0,2022-10-31,2022-10-31,合同会社リトルアイランド,,合同会社,埼玉県,越谷市,東大沢４丁目１６番地８リビエールセレナ１０１,,11,222,3430022,,,,,,,2022-10-31,1,,,,,リトルアイランド,0
643,3040001125608,新規,0,2022-10-31,2022-10-31,ＹＫマネジメント株式会社,,株式会社,千葉県,木更津市,東中央２丁目１０番２０号大東ビル３０１,,12,206,2920057,,,,,,,2022-10-31,1,,,,,ワイケイマネジメント,0
644,3040001125616,新規,0,2022-10-31,2022-10-31,ナミカタエンジニアリング株式会社,,株式会社,千葉県,松戸市,松飛台５９４番地７,,12,207,2702214,,,,,,,2022-10-31,1,,,,,ナミカタエンジニアリング,0
645,3040001125624,新規,0,2022-10-31,2022-10-31,株式会社ｉｃｈｉｚｅｎ,,株式会社,千葉県,千葉市稲毛区,園生町２３５番地５,,12,103,2630051,,,,,,,2022-10-31,1,,,,,イチゼン,0
646,3040001125640,新規,0,2022-10-31,2022-10-31,株式会社ＲＩＳＥ,,株式会社,千葉県,市原市,磯ケ谷１３０２番地２,,12,219,2900204,,,,,,,2022-10-31,1,,,,,ライズ,0
657,3040003021160,新規,0,2022-10-31,2022-10-31,合同会社ＹＵＫＡＩ,,合同会社,千葉県,木更津市,清見台南２丁目４番６号Ａ１０２,,12,206,2920042,,,,,,,2022-10-31,1,,,,,ユカイ,0
670,3070001039763,新規,0,2022-10-31,2022-10-31,株式会社エンジョイ,,株式会社,群馬県,高崎市,柳川町１番地３カナルハイツ４０２号,,10,202,3700815,,,,,,,2022-10-31,1,,,,,エンジョイ,0
675,3070005010051,新規,0,2022-10-31,2022-10-31,特定非営利活動法人Ｐｌａｙｆｕｌ　Ｌｅａｒｎｉｎｇ　Ｄｅｓｉｇｎ　Ｌａｂ．,,その他の設立登記法人,群馬県,みどり市,笠懸町鹿３６１６番地１,,10,212,3792313,,,,,,,2022-10-31,1,,,,,プレイフルラーニングデザインラボ,0
683,3100005012936,新規,0,2022-10-31,2022-10-31,一般社団法人こどものポッケ,,その他の設立登記法人,長野県,長野市,大字上ケ屋２４７１番地３５２９,,20,201,3800888,,,,,,,2022-10-31,1,,,,,コドモノポッケ,0
691,3120001249860,新規,0,2022-10-31,2022-10-31,株式会社ＤＥＳＴＩＮＯ,,株式会社,大阪府,大阪市北区,西天満６丁目２番３号ユーアイビル２０８,,27,127,5300047,,,,,,,2022-10-31,1,,,,,ディスティーノ,0
692,3120001249869,新規,0,2022-10-31,2022-10-31,Ｋ‐ＮＥＸＴ株式会社,,株式会社,大阪府,大阪市西区,立売堀４丁目７番１５号奥内立売堀ビル８０６,,27,106,5500012,,,,,,,2022-10-31,1,,,,,ケイネクスト,0
693,3120001249877,新規,0,2022-10-31,2022-10-31,株式会社ランカー住設,,株式会社,大阪府,大阪市生野区,中川６丁目１２番２１号,,27,116,5440005,,,,,,,2022-10-31,1,,,,,ランカージュウセツ,0
694,3120001249885,新規,0,2022-10-31,2022-10-31,株式会社柳商会,00128308,株式会社,大阪府,大阪市阿倍野区,王子町１丁目９番１３号,,27,119,5450023,,,,,,,2022-10-31,1,,,,,ヤナギショウカイ,0
695,3120001249893,新規,0,2022-10-31,2022-10-31,株式会社ＩＺＡ,,株式会社,大阪府,大阪市西区,北堀江１丁目２３－９ルクレ北堀江１４０５,,27,106,5500014,,,,,,,2022-10-31,1,,,,,イザ,0
696,3120001249902,新規,0,2022-10-31,2022-10-31,株式会社ＦＰＡ,,株式会社,大阪府,大阪市阿倍野区,松崎町４丁目１１番２３－１３０１号,,27,119,5450053,,,,,,,2022-10-31,1,,,,,エフピーエー,0
702,3130001072931,新規,0,2022-10-31,2022-10-31,株式会社コメミノル,,株式会社,京都府,京都市南区,吉祥院西ノ茶屋町６８番地,,26,107,6018381,,,,,,,2022-10-31,1,,,,,コメミノル,0
713,3140005026354,新規,0,2022-10-31,2022-10-31,一般社団法人スティールパンパートナーズ,,その他の設立登記法人,兵庫県,神戸市垂水区,狩口台４丁目２６番３０６号,,28,108,6550049,,,,,,,2022-10-31,1,,,,,スティールパンパートナーズ,0
714,3150001025912,新規,0,2022-10-31,2022-10-31,Ｍ．Ｄ．Ｓ株式会社,,株式会社,奈良県,奈良市,あやめ池北１丁目１番２－２号,,29,201,6310032,,,,,,,2022-10-31,1,,,,,エムディーエス,0
733,3180001153553,新規,0,2022-10-31,2022-10-31,株式会社Ｎｅｗ　Ａｇｅ,,株式会社,愛知県,春日井市,細木町１丁目２７番地１プラシード細木Ａ１０１号,,23,206,4860937,,,,,,,2022-10-31,1,,,,,ニューエイジ,0
734,3180001153561,新規,0,2022-10-31,2022-10-31,株式会社ＪＫ　Ｐｌａｎｎｉｎｇ,,株式会社,愛知県,一宮市,萩原町西御堂字虫祭２－７－６０３,,23,203,4910365,,,,,,,2022-10-31,1,,,,,ジェイケイプランニング,0
735,3180001153594,新規,0,2022-10-31,2022-10-31,株式会社池田設備工業,,株式会社,愛知県,名古屋市港区,油屋町１丁目２９番地の７,,23,111,4550815,,,,,,,2022-10-31,1,,,,,イケダセツビコウギョウ,0
737,3180003024414,新規,0,2022-10-31,2022-10-31,合同会社ＳＴＵＤＩＯ　ＰＯＭ,,合同会社,愛知県,日進市,五色園４丁目１００９番地,,23,230,4700105,,,,,,,2022-10-31,1,,,,,スタジオポム,0
738,3180003024422,新規,0,2022-10-31,2022-10-31,合同会社ＥＶＥＲＥＳＴ,,合同会社,愛知県,名古屋市中村区,亀島１丁目９番９号,,23,105,4530013,,,,,,,2022-10-31,1,,,,,エベレスト,0
739,3180301036763,新規,0,2022-10-31,2022-10-31,株式会社龍興,,株式会社,愛知県,豊川市,東曙町２７５,,23,207,4420011,,,,,,,2022-10-31,1,,,,,リュウコウ,0
740,3180303005485,新規,0,2022-10-31,2022-10-31,合同会社ＥＬＩＡＳＣＯＭＰＡＮＹ,,合同会社,愛知県,岡崎市,田口町字若草１番地１８,,23,202,4443172,,,,,,,2022-10-31,1,,,,,エリアスコンパニ,0
757,3240005015479,新規,0,2022-10-31,2022-10-31,一般社団法人ナノカ,,その他の設立登記法人,広島県,福山市,手城町４丁目７番２－２０３号,,34,207,7210966,,,,,,,2022-10-31,1,,,,,ナノカ,0
768,3290001099356,新規,0,2022-10-31,2022-10-31,株式会社モリノキ,,株式会社,福岡県,太宰府市,宰府５丁目２６番３３号,,40,221,8180117,,,,,,,2022-10-31,1,,,,,モリノキ,0
769,3290001099372,新規,0,2022-10-31,2022-10-31,株式会社ＮＩＬＥ　ＰＲＯＭＯＴＩＯＮ,,株式会社,福岡県,福岡市中央区,赤坂３丁目９番２４号,,40,133,8100042,,,,,,,2022-10-31,1,,,,,ナイルプロモーション,0
773,3290003013117,新規,0,2022-10-31,2022-10-31,ＨＴ合同会社,,合同会社,福岡県,福岡市博多区,千代４丁目１１番２９－３０１号,,40,132,8120044,,,,,,,2022-10-31,1,,,,,エイチティー,0
778,3290803004240,新規,0,2022-10-31,2022-10-31,合同会社Ｍ．Ｍ．ｃｏｒｐｏｒａｔｉｏｎ,,合同会社,福岡県,京都郡苅田町,大字与原１９４５番地１９,,40,621,8000323,,,,,,,2022-10-31,1,,,,,エムエムコーポレーション,0
784,3350003004209,新規,0,2022-10-31,2022-10-31,合同会社シークラウン,,合同会社,宮崎県,都城市,蓑原町１８４１番地１ひかりタウンＬ棟,,45,202,8850095,,,,,,,2022-10-31,1,,,,,シークラウン,0
785,3360005006739,新規,0,2022-10-31,2022-10-31,一般社団法人絆,,その他の設立登記法人,沖縄県,那覇市,字小禄７８１番地５Ｓ・Ｋパレス３－Ａ,,47,201,9010152,,,,,,,2022-10-31,1,,,,,キズナ,0
797,3380001033215,新規,0,2022-10-31,2022-10-31,株式会社拓寿会,,株式会社,福島県,いわき市,植田町東荒田３５番地の６,,07,204,9748261,,,,,,,2022-10-31,1,,,,,タクジュカイ,0
800,3390003002010,新規,0,2022-10-31,2022-10-31,ＹＡＭＡＧＩＮｃｏｒｐｏｒａｔｉｏｎ合同会社,,合同会社,山形県,新庄市,金沢１０７３番地の２,,06,205,9960002,,,,,,,2022-10-31,1,,,,,ヤマギンコーポレーション,0
819,3480003001886,新規,0,2022-10-31,2022-10-31,ＫＥＮ合同会社,,合同会社,徳島県,徳島市,北佐古二番町５番３０号,,36,201,7700012,,,,,,,2022-10-31,1,,,,,ケン,0
832,3700150112414,新規,0,2022-10-31,2022-10-31,ＢＨＡＲＡＴ　ＳＥＡＴＳ　ＬＩＭＩＴＥＤ,,外国会社等,静岡県,浜松市中区,東伊場１丁目１９番１６号土屋ビル１階,,22,131,4328036,インド１１００７０ニューデリー、バサント・クンジ、ネルソン・マンデラ・ロード１,,,,,,2022-10-31,1,,,,,バハラツトシートリミテツド,0
839,4010001230442,新規,0,2022-10-31,2022-10-31,株式会社ｓｉｎｃｅｒｉｔｙ,,株式会社,東京都,中央区,日本橋蛎殻町１丁目３２番２号,,13,102,1030014,,,,,,,2022-10-31,1,,,,,シンスリティ,0
843,4010401170387,新規,0,2022-10-31,2022-10-31,Ｈ２ソリューション株式会社,,株式会社,東京都,港区,港南２丁目１６番２号太陽生命品川ビル２８階,,13,103,1080075,,,,,,,2022-10-31,1,,,,,エイチツーソリューション,0
849,4010405021479,新規,0,2022-10-31,2022-10-31,一般社団法人海と日本プロジェクトｉｎ東京,,その他の設立登記法人,東京都,港区,虎ノ門４丁目３番１２号日経虎ノ門別館３Ｆ株式会社テレビ東京ダイレクト内,,13,103,1050001,,,,,,,2022-10-31,1,,,,,ウミトニッポンプロジェクトイントウキョウ,0
853,4010601062070,新規,0,2022-10-31,2022-10-31,株式会社ＴｕｒｔｏＮ,,株式会社,東京都,江東区,有明１丁目４番２０－３２９号,,13,108,1350063,,,,,,,2022-10-31,1,,,,,タートン,0
854,4010601062079,新規,0,2022-10-31,2022-10-31,９ＣＯＬＯＲＳ株式会社,,株式会社,東京都,江東区,東陽２丁目５番１５－６０６号セイワマンション,,13,108,1350016,,,,,,,2022-10-31,1,,,,,ナインカラーズ,0
866,4010901051871,新規,0,2022-10-31,2022-10-31,株式会社ｔｏｉｓ,,株式会社,東京都,世田谷区,北沢２丁目２７番９号いいオフィス下北沢,,13,112,1550031,,,,,,,2022-10-31,1,,,,,トイス,0
867,4010903007748,新規,0,2022-10-31,2022-10-31,ｔｅｒｒａ　ｎｏｔｅ合同会社,,合同会社,東京都,世田谷区,代田４丁目２番２６号,,13,112,1550033,,,,,,,2022-10-31,1,,,,,テラノーテ,0
883,4011103012316,新規,0,2022-10-31,2022-10-31,Ｑｕｅｅｎ　Ｂｅｅ合同会社,,合同会社,東京都,新宿区,新小川町９番１０－１０４号,,13,104,1620814,,,,,,,2022-10-31,1,,,,,クイーンビー,0
892,4011801041475,新規,0,2022-10-31,2022-10-31,株式会社ＧＮＫ,,株式会社,東京都,葛飾区,四つ木４丁目１５番１６号,,13,122,1240011,,,,,,,2022-10-31,1,,,,,ジーエヌケイ,0
897,4011805003216,新規,0,2022-10-31,2022-10-31,新井＆パートナーズ社会保険労務士法人,,その他の設立登記法人,東京都,足立区,西新井栄町１丁目１８－３３－７１７,,13,121,1230843,,,,,,,2022-10-31,1,,,,,アライアンドパートナーズ,0
901,4013301049866,新規,0,2022-10-31,2022-10-31,株式会社ＩＣＯ,,株式会社,東京都,豊島区,東池袋１丁目３３－４ニュー池袋ハイツ６０２,,13,116,1700013,,,,,,,2022-10-31,1,,,,,アイシーオー,0
913,4020001148691,新規,0,2022-10-31,2022-10-31,株式会社ベストマッチング,,株式会社,神奈川県,川崎市多摩区,枡形６丁目１８番６３号,,14,135,2140032,,,,,,,2022-10-31,1,,,,,ベストマッチング,0
916,4021001077303,新規,0,2022-10-31,2022-10-31,株式会社拓磨,,株式会社,神奈川県,小田原市,扇町４丁目２番５号,,14,206,2500001,,,,,,,2022-10-31,1,,,,,タクマ,0
917,4021001077311,新規,0,2022-10-31,2022-10-31,株式会社ＵＫＩＷＡ,,株式会社,神奈川県,茅ヶ崎市,浜竹１丁目５番２１－２号プランドール湘南Ｂ棟１号室,,14,207,2530021,,,,,,,2022-10-31,1,,,,,ウキワ,0
928,4030001150795,新規,0,2022-10-31,2022-10-31,ワイアードデザイン株式会社,,株式会社,埼玉県,上尾市,大字原市２９番地１０,,11,219,3620021,,,,,,,2022-10-31,1,,,,,ワイアードデザイン,0
938,4040001125607,新規,0,2022-10-31,2022-10-31,株式会社シャインロジス,,株式会社,千葉県,袖ケ浦市,南袖１０番地,,12,229,2990268,,,,,,,2022-10-31,1,,,,,シャインロジス,0
939,4040001125623,新規,0,2022-10-31,2022-10-31,株式会社ジースペック,,株式会社,千葉県,市川市,稲荷木２丁目１７番６号,,12,203,2720024,,,,,,,2022-10-31,1,,,,,ジースペック,0
940,4040001125631,新規,0,2022-10-31,2022-10-31,株式会社Ｈａｉｒ　Ｃｈｉｃ　ｗｅｂ,,株式会社,千葉県,市川市,南八幡３丁目５番８号,,12,203,2720023,,,,,,,2022-10-31,1,,,,,ヘアシックウェブ,0
957,4090005007524,新規,0,2022-10-31,2022-10-31,一般社団法人海と日本プロジェクトｉｎやまなし,,その他の設立登記法人,山梨県,甲府市,北口２丁目６番１０号,,19,201,4000024,,,,,,,2022-10-31,1,,,,,ウミトニッポンプロジェクトインヤマナシ,0
960,4110003004900,新規,0,2022-10-31,2022-10-31,合同会社ＨｉｙｏｒｉＮ,,合同会社,新潟県,三条市,桜木町１６番２６号ラ・テルベール桜木Ａ棟１０２,,15,204,9550844,,,,,,,2022-10-31,1,,,,,ヒヨリン,0
966,4120001249868,新規,0,2022-10-31,2022-10-31,株式会社オフィスｐｉｔｏ,,株式会社,大阪府,大阪市淀川区,十八条１丁目１番３２－１２０１号,,27,123,5320001,,,,,,,2022-10-31,1,,,,,オフィスピト,0
967,4120001249918,新規,0,2022-10-31,2022-10-31,株式会社ねこねこネットワーク,,株式会社,大阪府,大阪市北区,梅田１丁目１１番４号大阪駅前第４ビル９階９２３－１６４３号,,27,127,5300001,,,,,,,2022-10-31,1,,,,,ネコネコネットワーク,0
975,4130001072930,新規,0,2022-10-31,2022-10-31,株式会社ｅｎｎｎ,,株式会社,京都府,京都市上京区,相国寺門前町６４３－６風良都館３階,,26,102,6020898,,,,,,,2022-10-31,1,,,,,エン,0
980,4170003001784,新規,0,2022-10-31,2022-10-31,合同会社ほのぼの,,合同会社,和歌山県,橋本市,三石台３丁目２７番地の９－５１２,,30,203,6480094,,,,,,,2022-10-31,1,,,,,ホノボノ,0
990,4180001153560,新規,0,2022-10-31,2022-10-31,株式会社Ａｕｂｅ,,株式会社,愛知県,一宮市,今伊勢町本神戸字中町３１番地１,,23,203,4910053,,,,,,,2022-10-31,1,,,,,オーブ,0
991,4180001153569,新規,0,2022-10-31,2022-10-31,志水アセットマネジメント株式会社,,株式会社,愛知県,一宮市,明地字南古城５番地１,,23,203,4940012,,,,,,,2022-10-31,1,,,,,シミズアセットマネジメント,0
996,4200001040590,新規,0,2022-10-31,2022-10-31,株式会社ＳＩＢ製薬,,株式会社,岐阜県,羽島市,舟橋町出須賀１丁目２７番地,,21,209,5016304,,,,,,,2022-10-31,1,,,,,エスアイビイセイヤク,0
1013,4270003001452,新規,0,2022-10-31,2022-10-31,合同会社鳥取匠クリエイター,,合同会社,鳥取県,鳥取市,鹿野町鹿野２５４８－４,,31,201,6890405,,,,,,,2022-10-31,1,,,,,トットリタクミクリエイター,0
1024,4290001099289,新規,0,2022-10-31,2022-10-31,藤青株式会社,,株式会社,福岡県,福岡市早良区,城西３丁目１３番１６－６０２号,,40,137,8140003,,,,,,,2022-10-31,1,,,,,フジショウ,0
1025,4290001099355,新規,0,2022-10-31,2022-10-31,嘉通商事株式会社,,株式会社,福岡県,福岡市早良区,星の原団地５８番,,40,137,8140162,,,,,,,2022-10-31,1,,,,,カツウショウジ,0
1026,4290001099371,新規,0,2022-10-31,2022-10-31,株式会社はんだや,,株式会社,福岡県,那珂川市,片縄西４丁目５番９号,,40,231,8111202,,,,,,,2022-10-31,1,,,,,ハンダヤ,0
1030,4290801028983,新規,0,2022-10-31,2022-10-31,株式会社ｓｏｕｋｉ,,株式会社,福岡県,北九州市小倉北区,篠崎１丁目３番１－２０４号,,40,106,8030861,,,,,,,2022-10-31,1,,,,,ソウキ,0
1037,4340003003945,新規,0,2022-10-31,2022-10-31,合同会社ＵＰＦＵＬ,,合同会社,鹿児島県,霧島市,隼人町真孝７８３番地３,,46,218,8995102,,,,,,,2022-10-31,1,,,,,アップフル,0
1039,4360001031129,新規,0,2022-10-31,2022-10-31,株式会社Ｔ’ｓ,,株式会社,沖縄県,糸満市,潮崎町４丁目１２番地の３,,47,210,9010364,,,,,,,2022-10-31,1,,,,,ティーズ,0
1050,4400005008275,新規,0,2022-10-31,2022-10-31,一般社団法人Ｎａｔｕｒｅ　Ｌｉｆｅ,,その他の設立登記法人,岩手県,下閉伊郡岩泉町,岩泉字和川原１２－１１Ａ－１,,03,483,0270501,,,,,,,2022-10-31,1,,,,,ネイチャーライフ,0
1051,4410001013311,新規,0,2022-10-31,2022-10-31,株式会社Ｉ・Ｃｏｒｐｏｒａｔｉｏｎ,,株式会社,秋田県,由利本荘市,岩渕下１１７番地５,,05,210,0150834,,,,,,,2022-10-31,1,,,,,アイコーポレーション,0
1053,4420005007829,新規,0,2022-10-31,2022-10-31,一般社団法人海と日本プロジェクトｉｎ青森県,,その他の設立登記法人,青森県,青森市,松森１丁目４番８号,,02,201,0300965,,,,,,,2022-10-31,1,,,,,ウミトニッポンプロジェクトインアオモリケン,0
1060,4500001024555,新規,0,2022-10-31,2022-10-31,株式会社光咲,,株式会社,愛媛県,西条市,中野甲１４３２番地１,,38,206,7930054,,,,,,,2022-10-31,1,,,,,ミサキ,0
1065,4500003002914,新規,0,2022-10-31,2022-10-31,合同会社ＬＩＦＥ　ＥＡＴＳ,,合同会社,愛媛県,新居浜市,東雲町３丁目２番４９号,,38,205,7920864,,,,,,,2022-10-31,1,,,,,,0
1070,4700150112421,新規,0,2022-10-31,2022-10-31,Ｃｉｔａｄｅｌ　Ｊａｐａｎ　Ｐｔｅ．Ｌｉｍｉｔｅｄ,,外国会社等,東京都,千代田区,丸の内３丁目２番２号丸の内二重橋ビル３階,,13,101,1000005,シンガポール共和国０１８９６１マリーナ・ビュー１２、アジア・スクエア・タワー２、＃２２－０１／０２,,,,,,2022-10-31,1,,,,,シタデルジヤパンピーテイーイーリミテツド,0
1089,5010401170502,新規,0,2022-10-31,2022-10-31,ナウナウジャパン株式会社,,株式会社,東京都,港区,赤坂１丁目１４番１５号,,13,103,1070052,,,,,,,2022-10-31,1,,,,,ナウナウジャパン,0
1098,5010501049563,新規,0,2022-10-31,2022-10-31,株式会社池之端アカウンティングセンター,,株式会社,東京都,台東区,池之端４丁目２３番２－６０５号,,13,106,1100008,,,,,,,2022-10-31,1,,,,,イケノハタアカウンティングセンター,0
1102,5010603009812,新規,0,2022-10-31,2022-10-31,Ｈ＆Ｙ合同会社,,合同会社,東京都,墨田区,江東橋５丁目６番１３,,13,107,1300022,,,,,,,2022-10-31,1,,,,,エイチアンドワイ,0
1107,5010901051870,新規,0,2022-10-31,2022-10-31,株式会社ｓｔａｒ　ｔｒｅｅ,,株式会社,東京都,世田谷区,奥沢６丁目１６番３号,,13,112,1580083,,,,,,,2022-10-31,1,,,,,,0
1117,5011001150555,新規,0,2022-10-31,2022-10-31,株式会社ＳＡＫＥ‐ＩＲＯＤＯＲＩ,,株式会社,東京都,渋谷区,上原１丁目３番９号,,13,113,1510064,,,,,,,2022-10-31,1,,,,,サケイロドリ,0
1118,5011001150605,新規,0,2022-10-31,2022-10-31,株式会社綾川,,株式会社,東京都,渋谷区,恵比寿１丁目２１番１８号,,13,113,1500013,,,,,,,2022-10-31,1,,,,,アヤガワ,0
1120,5011003015608,新規,0,2022-10-31,2022-10-31,合同会社ｌｉｍ　ｆｏｒｃｅ,,合同会社,東京都,渋谷区,神宮前６丁目２３番４号桑野ビル２階,,13,113,1500001,,,,,,,2022-10-31,1,,,,,リムフォース,0
1121,5011101100666,新規,0,2022-10-31,2022-10-31,株式会社シリアスカンパニー,,株式会社,東京都,新宿区,山吹町３４２－１２－８０１,,13,104,1620801,,,,,,,2022-10-31,1,,,,,シリアスカンパニー,0
1122,5011101100682,新規,0,2022-10-31,2022-10-31,株式会社大建,,株式会社,東京都,新宿区,大久保１丁目２番１号,,13,104,1690072,,,,,,,2022-10-31,1,,,,,ダイケン,0
1124,5011201024195,新規,0,2022-10-31,2022-10-31,Ｓ．ｔ．ａ．ｃ．ｋ空調株式会社,,株式会社,東京都,中野区,江原町２丁目３１番２号,,13,114,1650023,,,,,,,2022-10-31,1,,,,,スタッククウチョウ,0
1125,5011301028220,新規,0,2022-10-31,2022-10-31,株式会社ＫＮＡｎｃｈｏｒ,,株式会社,東京都,杉並区,上荻２丁目２番９号フリーディオ上荻２０４,,13,115,1670043,,,,,,,2022-10-31,1,,,,,ケーエヌアンカー,0
1127,5011303004566,新規,0,2022-10-31,2022-10-31,Ｔｒｅａｓｕｒｅ　Ｈｕｎｔｉｎｇ４７合同会社,,合同会社,東京都,杉並区,成田東５丁目３９番１２－４０６号グローリーハイツ南阿佐ケ谷,,13,115,1660015,,,,,,,2022-10-31,1,,,,,トレジャーハンティングフォーティーセブン,0
1128,5011401024631,新規,0,2022-10-31,2022-10-31,株式会社ＴＳＵＹＯＳＨＩ,,株式会社,東京都,板橋区,前野町４丁目４９番８号,,13,119,1740063,,,,,,,2022-10-31,1,,,,,ツヨシ,0
1129,5011501028607,新規,0,2022-10-31,2022-10-31,三岩電子株式会社,,株式会社,東京都,荒川区,東日暮里３丁目２８番５号ＣｒｙｓｔａｌＢｕｉｌｄｉｎｇ１Ｆ,,13,118,1160014,,,,,,,2022-10-31,1,,,,,ミツイワデンシ,0
1130,5011501028615,新規,0,2022-10-31,2022-10-31,株式会社ＢＯＤＨＩ,,株式会社,東京都,北区,赤羽北２丁目１３番１５号２０１室,,13,117,1150052,,,,,,,2022-10-31,1,,,,,ボダイ,0
1136,5011801041458,新規,0,2022-10-31,2022-10-31,Ｍｕｇｅｎｆｕｅｌ株式会社,,株式会社,東京都,足立区,西新井本町４丁目２番１０号３０４号,,13,121,1230845,,,,,,,2022-10-31,1,,,,,ムゲンプユル,0
1137,5011803005337,新規,0,2022-10-31,2022-10-31,ＹＡＭＡＧＩＮ０１合同会社,,合同会社,東京都,葛飾区,東新小岩５丁目１４番１６号,,13,122,1240023,,,,,,,2022-10-31,1,,,,,ヤマギンゼロイチ,0
1138,5012301013187,新規,0,2022-10-31,2022-10-31,株式会社Ｍｉｓｔｙ,,株式会社,東京都,町田市,原町田４丁目１番３号第３丸町ビルＢ１,,13,209,1940013,,,,,,,2022-10-31,1,,,,,ミスティー,0
1139,5012303001735,新規,0,2022-10-31,2022-10-31,合同会社デイサービス花の歌,,合同会社,東京都,町田市,下小山田町１番地７,,13,209,1940202,,,,,,,2022-10-31,1,,,,,デイサービスハナノウタ,0
1144,5012401039792,新規,0,2022-10-31,2022-10-31,株式会社エフティ企画,,株式会社,東京都,小金井市,貫井南町５丁目５番１９号,,13,210,1840014,,,,,,,2022-10-31,1,,,,,エフティキカク,0
1146,5012403005644,新規,0,2022-10-31,2022-10-31,ｅｒｆｅｎｉｓ合同会社,,合同会社,東京都,三鷹市,井の頭５丁目１６－９－４,,13,204,1810001,,,,,,,2022-10-31,1,,,,,エルフェニス,0
1149,5012703002564,新規,0,2022-10-31,2022-10-31,合同会社エーズテック,,合同会社,東京都,東村山市,野口町１丁目２６－２９－１０３,,13,213,1890022,,,,,,,2022-10-31,1,,,,,エーズテック,0
1151,5012801021920,新規,0,2022-10-31,2022-10-31,株式会社ＡＲＥＣＳ,,株式会社,東京都,立川市,上砂町５丁目７１番１１号,,13,202,1900032,,,,,,,2022-10-31,1,,,,,アレクス,0
1159,5013301049865,新規,0,2022-10-31,2022-10-31,株式会社ＳＭＴ,,株式会社,東京都,豊島区,南池袋４丁目８番４－１０２号,,13,116,1710022,,,,,,,2022-10-31,1,,,,,エスエムティー,0
1171,5021001077302,新規,0,2022-10-31,2022-10-31,株式会社スローモーション,,株式会社,神奈川県,小田原市,栄町１丁目１６番１９号,,14,206,2500011,,,,,,,2022-10-31,1,,,,,スローモーション,0
1172,5021001077310,新規,0,2022-10-31,2022-10-31,株式会社Ｒａｖｖｉｖａ,,株式会社,神奈川県,小田原市,鴨宮８０９番地の１１,,14,206,2500874,,,,,,,2022-10-31,1,,,,,,0
1178,5030001150761,新規,0,2022-10-31,2022-10-31,ＢＬＡＳＴ　ＧＡＲＡＧＥ株式会社,,株式会社,埼玉県,春日部市,内牧４８１０番地,,11,214,3440051,,,,,,,2022-10-31,1,,,,,ブラストガレージ,0
1179,5030001150778,新規,0,2022-10-31,2022-10-31,株式会社Ａｊａ　Ｓｔａｔｅ,,株式会社,埼玉県,和光市,新倉１丁目８番７－２号,,11,229,3510115,,,,,,,2022-10-31,1,,,,,アジャステイト,0
1182,5040001125606,新規,0,2022-10-31,2022-10-31,ＵＫＧ株式会社,,株式会社,千葉県,長生郡白子町,浜宿２４３８番地２,,12,424,2994201,,,,,,,2022-10-31,1,,,,,ユーケージー,0
1183,5040001125622,新規,0,2022-10-31,2022-10-31,ＳＨＯＷＢＩＺ　ＩＮＴＥＲＮＡＴＩＯＮＡＬ　ＪＡＰＡＮ株式会社,,株式会社,千葉県,松戸市,八ケ崎４丁目１８番地の３メゾンド松戸２０１号,,12,207,2700023,,,,,,,2022-10-31,1,,,,,ショウビズインターナショナルジャパン,0
1184,5040001125639,新規,0,2022-10-31,2022-10-31,株式会社千秋エージェンシー,,株式会社,千葉県,印西市,滝野６丁目６番９号,,12,231,2702329,,,,,,,2022-10-31,1,,,,,センシュウエージェンシー,0
1191,5040003021159,新規,0,2022-10-31,2022-10-31,合同会社ハンチャンコーポレート,,合同会社,千葉県,市原市,西五所２番地の１１,,12,219,2900065,,,,,,,2022-10-31,1,,,,,ハンチャンコーポレート,0
1192,5040003021167,新規,0,2022-10-31,2022-10-31,合同会社Ｎ‐Ｓｔｙｌｅ,,合同会社,千葉県,柏市,青葉台１丁目１２番１６号,,12,217,2770055,,,,,,,2022-10-31,1,,,,,エヌスタイル,0
1195,5050001051867,新規,0,2022-10-31,2022-10-31,Ｇｌｏｂａｌ　Ｅｑｕｅｓｔｒｉａｎ　Ａｃｔｉｏｎ　Ｔｅａｍ株式会社,,株式会社,茨城県,つくば市,妻木２５０４番地３,,08,220,3050028,,,,,,,2022-10-31,1,,,,,グローバルエクエストリアンアクションチーム,0
1196,5050001051875,新規,0,2022-10-31,2022-10-31,株式会社筑波石工,,株式会社,茨城県,つくばみらい市,東栗山１４１０番地,,08,235,3002313,,,,,,,2022-10-31,1,,,,,ツクバセッコウ,0
1201,5080001025265,新規,0,2022-10-31,2022-10-31,株式会社けいしん個別指導学院,,株式会社,静岡県,静岡市清水区,船原２丁目２１３番地の４船原ビル１０２号,,22,103,4240845,,,,,,,2022-10-31,1,,,,,ケイシンコベツシドウガクイン,0
1225,5120001249784,新規,0,2022-10-31,2022-10-31,株式会社フクレイ,,株式会社,大阪府,大阪市生野区,勝山北２丁目４番２１号,,27,116,5440033,,,,,,,2022-10-31,1,,,,,フクレイ,0
1226,5120001249834,新規,0,2022-10-31,2022-10-31,株式会社ＢＷ,,株式会社,大阪府,大阪市中央区,高津２丁目１番８号,,27,128,5420072,,,,,,,2022-10-31,1,,,,,ビーダブリュー,0
1227,5120001249842,新規,0,2022-10-31,2022-10-31,株式会社ＴＭＨホールディングス,,株式会社,大阪府,大阪市西区,靭本町一丁目４番１６号,,27,106,5500000,,,,,,,2022-10-31,1,,,,,ティーエムエッチホールディングス,0
1228,5120001249850,新規,0,2022-10-31,2022-10-31,株式会社ジャストライトサービス,,株式会社,大阪府,大阪市東淀川区,大桐４丁目４番６７－Ａ３０１号,,27,114,5330011,,,,,,,2022-10-31,1,,,,,ジャストライトサービス,0
1229,5120001249859,新規,0,2022-10-31,2022-10-31,株式会社トライプラス,,株式会社,大阪府,大阪市鶴見区,今津中１丁目３番２０号,,27,124,5380042,,,,,,,2022-10-31,1,,,,,トライプラス,0
1230,5120001249891,新規,0,2022-10-31,2022-10-31,Ｃｏｎ　Ｆｏｒｃｅ株式会社,,株式会社,大阪府,大阪市北区,天満１丁目１番１０号,,27,127,5300043,,,,,,,2022-10-31,1,,,,,コンフォース,0
1231,5120001249900,新規,0,2022-10-31,2022-10-31,株式会社ＡＡ,,株式会社,大阪府,大阪市中央区,西心斎橋１丁目６番２２号大石ビル,,27,128,5420086,,,,,,,2022-10-31,1,,,,,エーエー,0
1232,5120003022727,新規,0,2022-10-31,2022-10-31,合同会社ポーポーインベストメント,,合同会社,大阪府,大阪市城東区,鴫野東２丁目１９番１６号,,27,118,5360013,,,,,,,2022-10-31,1,,,,,ポーポーインベストメント,0
1249,5140001127831,新規,0,2022-10-31,2022-10-31,株式会社ＡＰＭ,,株式会社,兵庫県,尼崎市,尾浜町１丁目３１番２６号３Ｆ,,28,202,6610022,,,,,,,2022-10-31,1,,,,,エーピーエム,0
1250,5140001127864,新規,0,2022-10-31,2022-10-31,株式会社リール,,株式会社,兵庫県,尼崎市,椎堂１丁目２２番２９号,,28,202,6610952,,,,,,,2022-10-31,1,,,,,リール,0
1253,5150001025910,新規,0,2022-10-31,2022-10-31,株式会社松縁,,株式会社,奈良県,大和郡山市,池之内町４６２番地,,29,203,6391027,,,,,,,2022-10-31,1,,,,,ショウエン,0
1264,5180001153519,新規,0,2022-10-31,2022-10-31,株式会社ＯｖｅｒＷｒｉｔｅ,,株式会社,愛知県,名古屋市熱田区,伝馬３丁目８番８号（アジュール伝馬町１００３号）,,23,109,4560034,,,,,,,2022-10-31,1,,,,,オーバーライト,0
1265,5180001153568,新規,0,2022-10-31,2022-10-31,株式会社ＤＫヤマモト,,株式会社,愛知県,名古屋市南区,呼続３丁目１０番１９号,,23,112,4570014,,,,,,,2022-10-31,1,,,,,ディーケーヤマモト,0
1271,5180301036761,新規,0,2022-10-31,2022-10-31,株式会社ＲＣ,,株式会社,愛知県,碧南市,伊勢町１丁目１００番地,,23,209,4470837,,,,,,,2022-10-31,1,,,,,アールシー,0
1278,5230005009265,新規,0,2022-10-31,2022-10-31,一般社団法人ＲＩＫＵＹＯＵ,,その他の設立登記法人,富山県,高岡市,福岡町福岡１２１０番地,,16,202,9390111,,,,,,,2022-10-31,1,,,,,リクヨウ,0
1287,5290001099354,新規,0,2022-10-31,2022-10-31,株式会社ＦＲＡＭＥＷＯＲＫ,,株式会社,福岡県,福岡市博多区,祇園町６－２６,,40,132,8120038,,,,,,,2022-10-31,1,,,,,フレームワーク,0
1288,5290001099362,新規,0,2022-10-31,2022-10-31,株式会社ＬｉＬｉａｌ,,株式会社,福岡県,福岡市博多区,竹下５丁目７番１７－１１０３号リーベスト竹下駅前,,40,132,8120895,,,,,,,2022-10-31,1,,,,,リリアル,0
1289,5290001099370,新規,0,2022-10-31,2022-10-31,民間救急サービス九州桃梨株式会社,,株式会社,福岡県,太宰府市,宰府５丁目２６番１７号パディ・ハウス三浦２‐１０３号,,40,221,8180117,,,,,,,2022-10-31,1,,,,,ミンカンキュウキュウサービスキュウシュウトウリ,0
1290,5290003013115,新規,0,2022-10-31,2022-10-31,合同会社縁,,合同会社,福岡県,福岡市博多区,比恵町１０番３２－１０１号,,40,132,8120014,,,,,,,2022-10-31,1,,,,,エニシ,0
1329,5700150110515,新規,0,2022-10-31,2022-06-28,アホウキ芸術協会,,その他,神奈川県,横浜市港北区,大曽根３丁目２１－１５－４０１,,14,109,2220003,,,,,,,2022-06-28,1,,,,,アホウキゲイジユツキヨウカイ,0
1330,5700150112255,新規,0,2022-10-31,2022-10-26,分子科学会,,その他,東京都,新宿区,山吹町３５８－５アカデミーセンター,,13,104,1620801,,,,,,,2022-10-26,1,,,,,ブンシカガクカイ,0
1348,6010401170402,新規,0,2022-10-31,2022-10-31,ブラウンフォーマンジャパン株式会社,,株式会社,東京都,港区,芝公園１丁目６番７号住友不動産ランドマークプラザ９階,,13,103,1050011,,,,,,,2022-10-31,1,,,,,ブラウンフォーマンジャパン,0
1349,6010601062069,新規,0,2022-10-31,2022-10-31,株式会社ＣＹＫＰ,,株式会社,東京都,墨田区,太平３丁目１１番２号赤井ビル３０３号室,,13,107,1300012,,,,,,,2022-10-31,1,,,,,シーワイケーピー,0
1350,6010601062077,新規,0,2022-10-31,2022-10-31,株式会社ＨＯＵＳＥ　ＬＡＢＯ,,株式会社,東京都,墨田区,立川２丁目１１番６号,,13,107,1300023,,,,,,,2022-10-31,1,,,,,ハウスラボ,0
1358,6010901051837,新規,0,2022-10-31,2022-10-31,株式会社リルエフォート,,株式会社,東京都,世田谷区,池尻３丁目１６番２４－３０２号,,13,112,1540001,,,,,,,2022-10-31,1,,,,,リルエフォート,0
1359,6010901051878,新規,0,2022-10-31,2022-10-31,株式会社ＹＤＫ,,株式会社,東京都,世田谷区,羽根木１丁目２５番８号,,13,112,1560042,,,,,,,2022-10-31,1,,,,,ワイディーケー,0
1367,6011001150538,新規,0,2022-10-31,2022-10-31,ＹＯＳＨＩ株式会社,,株式会社,東京都,渋谷区,渋谷２丁目１９－１５宮益坂ビルディング６０９,,13,113,1500002,,,,,,,2022-10-31,1,,,,,ヨシ,0
1379,6011103012314,新規,0,2022-10-31,2022-10-31,ＫＥＩ　ＧＲＯＵＰ合同会社,,合同会社,東京都,新宿区,新宿５丁目１１番１３号富士新宿ビル４階,,13,104,1600022,,,,,,,2022-10-31,1,,,,,ケイグループ,0
1381,6011201024194,新規,0,2022-10-31,2022-10-31,株式会社Ｋ．Ｄ．Ｓ,,株式会社,東京都,中野区,上鷺宮１丁目８番６号,,13,114,1650031,,,,,,,2022-10-31,1,,,,,ケーディーエス,0
1386,6011401024639,新規,0,2022-10-31,2022-10-31,株式会社千田工業,,株式会社,東京都,板橋区,中台２丁目１９番３号,,13,119,1740064,,,,,,,2022-10-31,1,,,,,チダコウギョウ,0
1387,6011501028606,新規,0,2022-10-31,2022-10-31,株式会社ＧＲＯＷ,,株式会社,東京都,北区,栄町４番１３号,,13,117,1140005,,,,,,,2022-10-31,1,,,,,グロウ,0
1388,6011501028614,新規,0,2022-10-31,2022-10-31,株式会社＿氏囲碁,00128296,株式会社,東京都,荒川区,西尾久８丁目４４番３０－１１０６号,,13,118,1160011,,,,,,,2022-10-31,1,,,,,リュウシイゴ,0
1398,6012301013186,新規,0,2022-10-31,2022-10-31,株式会社Ｍｉｓ．Ｃｈｉｅｆ,,株式会社,東京都,町田市,原町田１丁目７番２号ヴェルデ町田１４０３,,13,209,1940013,,,,,,,2022-10-31,1,,,,,ミスチーフ,0
1400,6012401039800,新規,0,2022-10-31,2022-10-31,株式会社シエスタ,,株式会社,東京都,多摩市,落合１丁目４６番地１ココリア多摩センター７階,,13,224,2060033,,,,,,,2022-10-31,1,,,,,シエスタ,0
1401,6012403005643,新規,0,2022-10-31,2022-10-31,ＥＮｉｓｈｉ合同会社,,合同会社,東京都,調布市,多摩川５丁目２５番地５,,13,208,1820025,,,,,,,2022-10-31,1,,,,,エニシ,0
1404,6012705002330,新規,0,2022-10-31,2022-10-31,特定非営利活動法人街と共存するロングスケートボード協会,,その他の設立登記法人,東京都,東久留米市,前沢３丁目１０番２８号ＮｉｃｅＭａｋｅ内,,13,222,2030032,,,,,,,2022-10-31,1,,,,,マチトキョウゾンスルロングスケートボードキョウカイ,0
1406,6013101009044,新規,0,2022-10-31,2022-10-31,Ｋ＆Ｐシステム株式会社,,株式会社,東京都,あきる野市,瀬戸岡５１６番地１２メゾンドコリーヌ２０２,,13,228,1970803,,,,,,,2022-10-31,1,,,,,ケイアンドピーシステム,0
1410,6013301049864,新規,0,2022-10-31,2022-10-31,美良株式会社,,株式会社,東京都,豊島区,池袋１丁目１６番２０号－３０２号室,,13,116,1700014,,,,,,,2022-10-31,1,,,,,ミラ,0
1411,6013303006351,新規,0,2022-10-31,2022-10-31,合同会社グリーンアライアンス,,合同会社,東京都,豊島区,南池袋３丁目８番３号池袋クラウンハイツ６０４,,13,116,1710022,,,,,,,2022-10-31,1,,,,,グリーンアライアンス,0
1412,6020001148707,新規,0,2022-10-31,2022-10-31,株式会社ネクサム,,株式会社,神奈川県,川崎市宮前区,鷺沼４丁目１－８０,,14,136,2160004,,,,,,,2022-10-31,1,,,,,ネクサム,0
1417,6021005012650,新規,0,2022-10-31,2022-10-31,一般社団法人トンガリーズ,,その他の設立登記法人,神奈川県,秦野市,入船町８番３号,,14,211,2570041,,,,,,,2022-10-31,1,,,,,トンガリーズ,0
1421,6030001150785,新規,0,2022-10-31,2022-10-31,株式会社勝組,,株式会社,埼玉県,蕨市,中央３丁目１８番５号ネベル蕨中央１４０４号,,11,223,3350004,,,,,,,2022-10-31,1,,,,,カツグミ,0
1426,6030003020482,新規,0,2022-10-31,2022-10-31,アンドビー合同会社,,合同会社,埼玉県,上尾市,大字大谷本郷１５７番地１２,,11,219,3620044,,,,,,,2022-10-31,1,,,,,アンドビー,0
1433,6040001125613,新規,0,2022-10-31,2022-10-31,Ｇｒｅｓｓ株式会社,,株式会社,千葉県,柏市,柏１丁目１番１０号ＫＡＳＨＩ－ＷＯＲＫビル,,12,217,2770005,,,,,,,2022-10-31,1,,,,,グレス,0
1434,6040001125621,新規,0,2022-10-31,2022-10-31,ＭＭＫ株式会社,,株式会社,千葉県,習志野市,大久保１丁目１７番９号,,12,216,2750011,,,,,,,2022-10-31,1,,,,,エムエムケイ,0
1435,6040001125638,新規,0,2022-10-31,2022-10-31,株式会社モニア,,株式会社,千葉県,松戸市,西馬橋相川町２１１番地の１,,12,207,2710045,,,,,,,2022-10-31,1,,,,,モニア,0
1437,6040003021166,新規,0,2022-10-31,2022-10-31,合同会社ＴＯＫＹＯ　ＭＡＲＫＥＴＩＮＧ,,合同会社,千葉県,浦安市,明海４丁目２－１１－４０５,,12,227,2790014,,,,,,,2022-10-31,1,,,,,トーキョーマーケティング,0
1455,6120001249791,新規,0,2022-10-31,2022-10-31,株式会社ｂｕｌｌ　ｔｉｅｓ,,株式会社,大阪府,大阪市阿倍野区,播磨町３丁目６－１０ウエリス阿倍野１１０６,,27,119,5450022,,,,,,,2022-10-31,1,,,,,ブルタイズ,0
1456,6120001249841,新規,0,2022-10-31,2022-10-31,株式会社Ｃ．ｃｏｃｏ,,株式会社,大阪府,大阪市天王寺区,上本町６丁目２番２６号大和上六ビル７０１,,27,109,5430001,,,,,,,2022-10-31,1,,,,,ココ,0
1457,6120001249858,新規,0,2022-10-31,2022-10-31,株式会社Ｍａｎａ‐Ｏｎｅ,,株式会社,大阪府,大阪市中央区,瓦町３丁目１番３号クレヴィアタワー大阪本町１８０６,,27,128,5410048,,,,,,,2022-10-31,1,,,,,マナワン,0
1458,6120001249866,新規,0,2022-10-31,2022-10-31,株式会社Ｇｅｒｂｅｒａ,,株式会社,大阪府,大阪市淀川区,木川東４丁目１６番１１－９０１号,,27,123,5320012,,,,,,,2022-10-31,1,,,,,ガーベラ,0
1459,6120001249890,新規,0,2022-10-31,2022-10-31,株式会社Ｍ・Ａエール,,株式会社,大阪府,守口市,金下町２丁目１２番１０号,,27,209,5700079,,,,,,,2022-10-31,1,,,,,エムエーエール,0
1460,6120001249899,新規,0,2022-10-31,2022-10-31,ＳＮＳマイスター株式会社,,株式会社,大阪府,大阪市北区,梅田１丁目１番３号大阪駅前第３ビル２９階１－１－１号室,,27,127,5300001,,,,,,,2022-10-31,1,,,,,エスエヌエスマイスター,0
1462,6120101066435,新規,0,2022-10-31,2022-10-31,株式会社近藤電気,,株式会社,大阪府,堺市中区,楢葉１６番地１０,,27,142,5998252,,,,,,,2022-10-31,1,,,,,コンドウデンキ,0
1471,6122003002443,新規,0,2022-10-31,2022-10-31,合同会社ねこの手,,合同会社,大阪府,柏原市,大正２丁目４番２１号プレジール２１－２０２号,,27,221,5820009,,,,,,,2022-10-31,1,,,,,ネコノテ,0
1473,6130001072937,新規,0,2022-10-31,2022-10-31,株式会社Ｏｆｆｉｃｅ　Ｕｎｕｓ,,株式会社,京都府,京都市右京区,谷口園町５番地８,,26,108,6168015,,,,,,,2022-10-31,1,,,,,オフィスウーヌス,0
1480,6140001127839,新規,0,2022-10-31,2022-10-31,株式会社ＫＳ開発,,株式会社,兵庫県,姫路市,青山西４丁目１４番２－１,,28,201,6712224,,,,,,,2022-10-31,1,,,,,ケイエスカイハツ,0
1481,6140001127855,新規,0,2022-10-31,2022-10-31,ＳＫＹＬＡＢ株式会社,,株式会社,兵庫県,姫路市,香寺町恒屋１０４６番地１,,28,201,6792165,,,,,,,2022-10-31,1,,,,,スカイラボ,0
1493,6180001153518,新規,0,2022-10-31,2022-10-31,ペルシアグループ株式会社,,株式会社,愛知県,名古屋市中川区,大塩町３丁目３６番地クレセール紗音２０２,,23,110,4540863,,,,,,,2022-10-31,1,,,,,ペルシアグループ,0
1494,6180001153567,新規,0,2022-10-31,2022-10-31,株式会社ＴＰＳ,,株式会社,愛知県,名古屋市熱田区,金山町１丁目１０番１号,,23,109,4560002,,,,,,,2022-10-31,1,,,,,ティーピーエス,0
1495,6180001153575,新規,0,2022-10-31,2022-10-31,株式会社ライトーレ,,株式会社,愛知県,あま市,七宝町桂薮之内１９番地ウイングヒルヤマダ－２０３号,,23,237,4970004,,,,,,,2022-10-31,1,,,,,ライトーレ,0
1496,6180001153591,新規,0,2022-10-31,2022-10-31,株式会社Ｔｈｅ　Ｂｒｉｄｇｅ,,株式会社,愛知県,一宮市,木曽川町門間字東大坪１７番地２,,23,203,4930002,,,,,,,2022-10-31,1,,,,,ザブリッジ,0
1501,6180003024403,新規,0,2022-10-31,2022-10-31,合同会社菊井製作所,,合同会社,愛知県,名古屋市西区,菊井１丁目１９番２７号,,23,104,4510044,,,,,,,2022-10-31,1,,,,,キクイセイサクジョ,0
1502,6180301036760,新規,0,2022-10-31,2022-10-31,株式会社マキタ,,株式会社,愛知県,みよし市,三好町西荒田１９番地１,,23,236,4700224,,,,,,,2022-10-31,1,,,,,マキタ,0
1509,6220003003385,新規,0,2022-10-31,2022-10-31,グルース合同会社,,合同会社,石川県,白山市,下野町ロ２０２番地,,17,210,9202374,,,,,,,2022-10-31,1,,,,,グルース,0
1513,6240001060567,新規,0,2022-10-31,2022-10-31,株式会社ＨＦＰ,,株式会社,広島県,福山市,神辺町字道上８７５番地１１,,34,207,7202104,,,,,,,2022-10-31,1,,,,,エイチエフピー,0
1516,6260003004082,新規,0,2022-10-31,2022-10-31,合同会社あおば地所,,合同会社,岡山県,岡山市南区,東畦１６４番地１,,33,104,7010211,,,,,,,2022-10-31,1,,,,,アオバジショ,0
1517,6280005007511,新規,0,2022-10-31,2022-10-31,ジャパン企画協同組合,,その他の設立登記法人,島根県,松江市,南田町２１－１（２Ｆ）,,32,201,6900884,,,,,,,2022-10-31,1,,,,,ジャパンキカク,0
1522,6290001099361,新規,0,2022-10-31,2022-10-31,株式会社Ｋ．Ｉ,,株式会社,福岡県,福岡市博多区,浦田１丁目３０番２７号,,40,132,8120861,,,,,,,2022-10-31,1,,,,,ケーアイ,0
1523,6290001099378,新規,0,2022-10-31,2022-10-31,株式会社ＩＯＲＩ,,株式会社,福岡県,福岡市博多区,東月隈５丁目３番３号,,40,132,8120854,,,,,,,2022-10-31,1,,,,,イオリ,0
1529,6330001030230,新規,0,2022-10-31,2022-10-31,株式会社ひごモッコス,,株式会社,熊本県,熊本市中央区,帯山４丁目１３番２６号,,43,101,8620924,,,,,,,2022-10-31,1,,,,,ヒゴモッコス,0
1553,6700150035323,新規,0,2022-10-31,2015-10-09,南知床標津町観光協会,,その他,北海道,標津郡標津町,南三条西１丁目１－６,,01,693,0861653,,,,,,,2015-10-09,1,,,,,ミナミシレトコシベツチヨウカンコウキヨウカイ,0
1554,6700150108616,新規,0,2022-10-31,2022-05-11,附けの會,,その他,東京都,中央区,日本橋蛎殻町２丁目１２－２－１００４,,13,102,1030014,,,,,,,2022-05-11,1,,,,,ツケノカイ,0
1555,6700150111660,新規,0,2022-10-31,2022-09-09,トイロカンパニー,,その他,東京都,大田区,南馬込５丁目１９－２２－１０２,,13,111,1430025,,,,,,,2022-09-09,1,,,,,トイロカンパニー,0
1556,6700150112122,新規,0,2022-10-31,2022-10-13,阿中学区明るく住みよい地域をつくる会,,その他,茨城県,ひたちなか市,阿字ケ浦町６１０番地,,08,221,3111201,,,,,,,2022-10-13,1,,,,,アチユウガツクアカルクスミヨイチイキヲツクルカイ,0
1575,7010401170343,新規,0,2022-10-31,2022-10-31,株式会社ＷＯＯＺ,,株式会社,東京都,港区,南青山４丁目１７番３３号２Ｆ,,13,103,1070062,,,,,,,2022-10-31,1,,,,,ウーズ,0
1579,7010501049561,新規,0,2022-10-31,2022-10-31,ツカサインターナショナル株式会社,,株式会社,東京都,台東区,秋葉原１番１号,,13,106,1100006,,,,,,,2022-10-31,1,,,,,ツカサインターナショナル,0
1590,7010901051869,新規,0,2022-10-31,2022-10-31,株式会社Ｋ＆Ｋ,,株式会社,東京都,世田谷区,上野毛１丁目２１番１３号,,13,112,1580093,,,,,,,2022-10-31,1,,,,,ケーアンドケー,0
1596,7011001150537,新規,0,2022-10-31,2022-10-31,株式会社ドーナツプール,,株式会社,東京都,渋谷区,代官山町１７番１－１６０８号アドレス・ザ・タワー,,13,113,1500034,,,,,,,2022-10-31,1,,,,,ドーナツプール,0
1597,7011001150594,新規,0,2022-10-31,2022-10-31,株式会社ＰＧインターナショナル,,株式会社,東京都,渋谷区,富ヶ谷１丁目１４番１４号４階,,13,113,1510063,,,,,,,2022-10-31,1,,,,,ピージーインターナショナル,0
1604,7011103012321,新規,0,2022-10-31,2022-10-31,合同会社すぬ,,合同会社,東京都,新宿区,西新宿３丁目３番１３号,,13,104,1600023,,,,,,,2022-10-31,1,,,,,スヌ,0
1608,7011501028605,新規,0,2022-10-31,2022-10-31,株式会社一見,,株式会社,東京都,荒川区,東日暮里１丁目２７番４－２０２号岡本マンション,,13,118,1160014,,,,,,,2022-10-31,1,,,,,イッケン,0
1615,7011801041464,新規,0,2022-10-31,2022-10-31,株式会社バケツパレット,,株式会社,東京都,葛飾区,新小岩３丁目２８番１８号コーポぴいぷる２０２,,13,122,1240024,,,,,,,2022-10-31,1,,,,,バケツパレット,0
1616,7011801041472,新規,0,2022-10-31,2022-10-31,株式会社Ｖｉｃｔｏｒｙ,,株式会社,東京都,葛飾区,奥戸８丁目１４番１７号,,13,122,1240022,,,,,,,2022-10-31,1,,,,,ヴィクトリー,0
1617,7012401039799,新規,0,2022-10-31,2022-10-31,株式会社ｃｈｉｙｏｎｉｙａ,,株式会社,東京都,武蔵野市,吉祥寺本町２丁目１４番２８号,,13,203,1800004,,,,,,,2022-10-31,1,,,,,チヨニヤ,0
1618,7012405004799,新規,0,2022-10-31,2022-10-31,一般社団法人アスヒロ,,その他の設立登記法人,東京都,武蔵野市,関前５丁目５番２３号桜橋コートＢ２０２,,13,203,1800014,,,,,,,2022-10-31,1,,,,,アスヒロ,0
1619,7012703002562,新規,0,2022-10-31,2022-10-31,偉興工業合同会社,,合同会社,東京都,西東京市,田無町４丁目１２番３号,,13,229,1880011,,,,,,,2022-10-31,1,,,,,イコウコウギョウ,0
1621,7012801021919,新規,0,2022-10-31,2022-10-31,株式会社Ｓ＆Ｒ,,株式会社,東京都,東大和市,奈良橋５丁目８０３番地,,13,220,2070031,,,,,,,2022-10-31,1,,,,,エスアンドアール,0
1622,7012803002909,新規,0,2022-10-31,2022-10-31,合同会社Ｈａｐｐｙｃｅｌｌ,,合同会社,東京都,立川市,上砂町５丁目５７番地の２アーバンヒルズ武蔵砂川４０１号,,13,202,1900032,,,,,,,2022-10-31,1,,,,,ハッピーセル,0
1633,7020001148739,新規,0,2022-10-31,2022-10-31,Ｒｉｓｅ株式会社,,株式会社,神奈川県,横浜市緑区,北八朔町１４９５番地モンシャトーＥ１０１,,14,113,2260021,,,,,,,2022-10-31,1,,,,,ライズ,0
1635,7020003022628,新規,0,2022-10-31,2022-10-31,合同会社ＭＴ　Ｎｅｔ’ｓ,,合同会社,神奈川県,横浜市都筑区,牛久保東２丁目７－１－２０１,,14,118,2240014,,,,,,,2022-10-31,1,,,,,エムティネッツ,0
1639,7021001077291,新規,0,2022-10-31,2022-10-31,株式会社クリエイティブエイト,,株式会社,神奈川県,厚木市,下川入８６７－１,,14,212,2430206,,,,,,,2022-10-31,1,,,,,クリエイティブエイト,0
1650,7030001150784,新規,0,2022-10-31,2022-10-31,株式会社ＮＥＸＴ　ＴＲＹ,,株式会社,埼玉県,熊谷市,上之１９８２番地５藤の宮桜井マンション東館２０２,,11,202,3600012,,,,,,,2022-10-31,1,,,,,ネクストトライ,0
1653,7030003020473,新規,0,2022-10-31,2022-10-31,ＲＡＩ　ＣＯＲＰＯＲＡＴＩＯＮ合同会社,,合同会社,埼玉県,川口市,戸塚南５丁目２３番２４号,,11,203,3330817,,,,,,,2022-10-31,1,,,,,ライコーポレーション,0
1656,7030005021049,新規,0,2022-10-31,2022-10-31,入間インター物流協同組合,,その他の設立登記法人,埼玉県,入間市,大字狭山台１８番地２,,11,225,3580033,,,,,,,2022-10-31,1,,,,,イルマインターブツリュウ,0
1663,7040001125604,新規,0,2022-10-31,2022-10-31,株式会社未来ロボット,,株式会社,千葉県,習志野市,津田沼２丁目１７番１号,,12,216,2750016,,,,,,,2022-10-31,1,,,,,ミライロボット,0
1664,7040001125612,新規,0,2022-10-31,2022-10-31,株式会社猫ノ手ゆずう,00128297,株式会社,千葉県,千葉市花見川区,横戸町１５６９番地２,,12,102,2620001,,,,,,,2022-10-31,1,,,,,ネコノテユズウ,0
1665,7040001125620,新規,0,2022-10-31,2022-10-31,株式会社エルモクライム,,株式会社,千葉県,山武郡横芝光町,宮川１２１１６番地４,,12,410,2891727,,,,,,,2022-10-31,1,,,,,エルモクライム,0
1666,7040001125629,新規,0,2022-10-31,2022-10-31,ＰａｒｔｎｅｒＨｕｂ株式会社,,株式会社,千葉県,千葉市中央区,中央２丁目８－２ヒューリックレジデンス千葉中央５０５,,12,101,2600013,,,,,,,2022-10-31,1,,,,,パートナーハブ,0
1675,7040005021799,新規,0,2022-10-31,2022-10-31,協同組合空港圏サポート,,その他の設立登記法人,千葉県,山武郡芝山町,宝馬６９番地６,,12,409,2891622,,,,,,,2022-10-31,1,,,,,クウコウケンサポート,0
1679,7050001051873,新規,0,2022-10-31,2022-10-31,株式会社ガザン,,株式会社,茨城県,石岡市,国府４丁目２番２４号,,08,205,3150014,,,,,,,2022-10-31,1,,,,,ガザン,0
1681,7050003006966,新規,0,2022-10-31,2022-10-31,合同会社縁和,,合同会社,茨城県,水戸市,住吉町６２－１４,,08,201,3100844,,,,,,,2022-10-31,1,,,,,エンワ,0
1682,7060003004283,新規,0,2022-10-31,2022-10-31,合同会社ＳＳサポート,,合同会社,栃木県,小山市,大字横倉５５１番地,,09,208,3230813,,,,,,,2022-10-31,1,,,,,エスエスサポート,0
1695,7110005016866,新規,0,2022-10-31,2022-10-31,一般社団法人新潟錦鯉水槽飼育検定協会,,その他の設立登記法人,新潟県,新潟市東区,空港西１丁目１５番８号,,15,102,9500036,,,,,,,2022-10-31,1,,,,,ニイガタニシキゴイスイソウシイクケンテイキョウカイ,0
1704,7120001249849,新規,0,2022-10-31,2022-10-31,株式会社カツオザブリッチ,,株式会社,大阪府,大阪市中央区,南本町２丁目１－１本町サザンビル１ＦＴｈｅＤＥＣＫ内,,27,128,5410054,,,,,,,2022-10-31,1,,,,,カツオザブリッチ,0
1705,7120001249857,新規,0,2022-10-31,2022-10-31,株式会社Ｇｒｅａｔ,,株式会社,大阪府,大阪市大正区,泉尾１丁目３９番９号,,27,108,5510031,,,,,,,2022-10-31,1,,,,,グレイト,0
1706,7120001249865,新規,0,2022-10-31,2022-10-31,株式会社ＭＩＲＡＩＲＩＳ,,株式会社,大阪府,大阪市北区,梅田１丁目１番３号大阪駅前第３ビル２９階１－１－１号室,,27,127,5300001,,,,,,,2022-10-31,1,,,,,ミライリス,0
1707,7120001249873,新規,0,2022-10-31,2022-10-31,ＢＩＧ　ＲＯＯＦ株式会社,,株式会社,大阪府,大阪市淀川区,東三国６丁目８番４号,,27,123,5320002,,,,,,,2022-10-31,1,,,,,ビックルーフ,0
1708,7120001249881,新規,0,2022-10-31,2022-10-31,株式会社コンサルティングファーム,,株式会社,大阪府,大阪市天王寺区,大道１丁目１１番９号,,27,109,5430052,,,,,,,2022-10-31,1,,,,,コンサルティングファーム,0
1709,7120001249907,新規,0,2022-10-31,2022-10-31,北浜ビジネスコンサルタント株式会社,,株式会社,大阪府,大阪市中央区,北浜２丁目１番３号北浜清友会館ビル,,27,128,5410041,,,,,,,2022-10-31,1,,,,,キタハマビジネスコンサルタント,0
1711,7120101066434,新規,0,2022-10-31,2022-10-31,株式会社ＮＯＭＡＮＥ　Ｆａｃｔｏｒｙ,,株式会社,大阪府,堺市西区,草部１２０３番地４,,27,144,5938312,,,,,,,2022-10-31,1,,,,,ノマネファクトリー,0
1716,7130003008269,新規,0,2022-10-31,2022-10-31,合同会社啓斗,,合同会社,京都府,京都市下京区,仏光寺通柳馬場西入東前町４０８番地の１,,26,106,6008074,,,,,,,2022-10-31,1,,,,,ケイト,0
1720,7140001127821,新規,0,2022-10-31,2022-10-31,日本シルバー企画株式会社,,株式会社,兵庫県,三田市,駅前町６番１８号,,28,219,6691528,,,,,,,2022-10-31,1,,,,,ニホンシルバーキカク,0
1724,7160001024595,新規,0,2022-10-31,2022-10-31,株式会社Ｓ．Ｃｏｎｃｅｐｔ,,株式会社,滋賀県,大津市,松陽３丁目９番５号,,25,201,5202135,,,,,,,2022-10-31,1,,,,,エスコンセプト,0
1731,7180001153541,新規,0,2022-10-31,2022-10-31,大永興産株式会社,,株式会社,愛知県,日進市,岩崎町神明１４４番地２８,,23,230,4700131,,,,,,,2022-10-31,1,,,,,ダイエイコウサン,0
1732,7180001153558,新規,0,2022-10-31,2022-10-31,株式会社リード,,株式会社,愛知県,一宮市,今伊勢町馬寄字北塚本１２番地３,,23,203,4910051,,,,,,,2022-10-31,1,,,,,リード,0
1733,7180001153566,新規,0,2022-10-31,2022-10-31,株式会社Ｍ＆Ｈ,,株式会社,愛知県,名古屋市中区,橘１丁目２８番１６号,,23,106,4600016,,,,,,,2022-10-31,1,,,,,エムアンドエイチ,0
1734,7180001153574,新規,0,2022-10-31,2022-10-31,株式会社ＡＨシーリング,,株式会社,愛知県,名古屋市西区,野南町１２９番地,,23,104,4520847,,,,,,,2022-10-31,1,,,,,エーエイチシーリング,0
1735,7180001153590,新規,0,2022-10-31,2022-10-31,株式会社テンコート,,株式会社,愛知県,稲沢市,下津北山１丁目３番地プレミアムフォート稲沢８１５号,,23,220,4928094,,,,,,,2022-10-31,1,,,,,テンコート,0
1738,7180003024410,新規,0,2022-10-31,2022-10-31,ＡＳＥＭ合同会社,,合同会社,愛知県,小牧市,城山１丁目６番地３,,23,219,4850812,,,,,,,2022-10-31,1,,,,,アセム,0
1739,7180003024419,新規,0,2022-10-31,2022-10-31,合同会社ＫＦＫ,,合同会社,愛知県,名古屋市昭和区,陶生町１丁目１２－２,,23,107,4660026,,,,,,,2022-10-31,1,,,,,ケーエフケー,0
1748,7230003001924,新規,0,2022-10-31,2022-10-31,ＴＵＹＥＮ　ＱＵＡＮＧ　ＳＨＯＰ合同会社,,合同会社,富山県,富山市,荒川新町１番７９－１０４号ビレッジハウス荒川１棟,,16,201,9300984,,,,,,,2022-10-31,1,,,,,トゥエンクアンショップ,0
1757,7290001099360,新規,0,2022-10-31,2022-10-31,株式会社＿,00128295,株式会社,福岡県,福岡市東区,下原４丁目５－８－３１２号,,40,131,8130002,,,,,,,2022-10-31,1,,,,,シン,0
1758,7290001099369,新規,0,2022-10-31,2022-10-31,徳住工業株式会社,00128294,株式会社,福岡県,八女市,今福１０５７番地６,,40,210,8340061,,,,,,,2022-10-31,1,,,,,トクズミコウギョウ,0
1759,7290001099377,新規,0,2022-10-31,2022-10-31,株式会社グリーンハート,,株式会社,福岡県,朝倉市,中原３８７番地３,,40,228,8380056,,,,,,,2022-10-31,1,,,,,グリーンハート,0
1762,7290003013121,新規,0,2022-10-31,2022-10-31,合同会社桃太郎,,合同会社,福岡県,糟屋郡新宮町,湊坂５丁目２－９,,40,345,8110114,,,,,,,2022-10-31,1,,,,,モモタロウ,0
1763,7290801028997,新規,0,2022-10-31,2022-10-31,株式会社佐伯コーポレーション,,株式会社,福岡県,北九州市若松区,大池町７番２号,,40,103,8080061,,,,,,,2022-10-31,1,,,,,サエキコーポレーション,0
1775,7370001049183,新規,0,2022-10-31,2022-10-31,株式会社２ｓｉｂ,,株式会社,宮城県,仙台市宮城野区,自由ケ丘５番２１号,,04,102,9830831,,,,,,,2022-10-31,1,,,,,ツーシブ,0
1783,7380001033211,新規,0,2022-10-31,2022-10-31,株式会社ＳＯＲＡ,,株式会社,福島県,福島市,飯坂町平野字北原５番地の１９,,07,201,9600231,,,,,,,2022-10-31,1,,,,,ソラ,0
1786,7380003005308,新規,0,2022-10-31,2022-10-31,合同会社暮らしＰＬＵＳ,,合同会社,福島県,福島市,中荒子３６番地の１４,,07,201,9608216,,,,,,,2022-10-31,1,,,,,,0
1790,7420001018050,新規,0,2022-10-31,2022-10-31,株式会社スマートほけんサービス,,株式会社,青森県,むつ市,中央２丁目３０番１９号,,02,208,0350073,,,,,,,2022-10-31,1,,,,,スマートホケンサービス,0
1806,7700150112146,新規,0,2022-10-31,2022-10-14,子どもアドボカシー学会,,その他,大阪府,堺市堺区,新町２番４号小山電ビル２Ｆ,,27,141,5900079,,,,,,,2022-10-14,1,,,,,コドモアドボカシーガツカイ,0
1827,8010101015384,新規,0,2022-10-31,2022-10-31,株式会社巒アセットサービス,,株式会社,東京都,八王子市,元横山町２丁目７番１７号マンション上原２０１号,,13,201,1920063,,,,,,,2022-10-31,1,,,,,ランアセットサービス,0
1833,8010401170508,新規,0,2022-10-31,2022-10-31,株式会社ヒャクジュウ,,株式会社,東京都,港区,東新橋２丁目７番３号昭和アステック１号館,,13,103,1050021,,,,,,,2022-10-31,1,,,,,ヒャクジュウ,0
1840,8010801033396,新規,0,2022-10-31,2022-10-31,株式会社オン・ユア・キャンバス,,株式会社,東京都,大田区,田園調布２丁目１１番１７号,,13,111,1450071,,,,,,,2022-10-31,1,,,,,オンユアキャンバス,0
1855,8011001150560,新規,0,2022-10-31,2022-10-31,日本豐匯ホールディングス株式会社,,株式会社,東京都,渋谷区,神宮前５丁目１８番１３号２Ｆ,,13,113,1500001,,,,,,,2022-10-31,1,,,,,ニホンホウカイホールディングス,0
1856,8011001150577,新規,0,2022-10-31,2022-10-31,Ｎｕｉ株式会社,,株式会社,東京都,渋谷区,道玄坂１丁目１０番８号渋谷道玄坂東急ビル２Ｆ－Ｃ,,13,113,1500043,,,,,,,2022-10-31,1,,,,,ヌイ,0
1866,8011105010454,新規,0,2022-10-31,2022-10-31,ＮＰＯ法人ＷｉｓＨ,,その他の設立登記法人,東京都,新宿区,西新宿３丁目３番１３号西新宿水間ビル６階,,13,104,1600023,,,,,,,2022-10-31,1,,,,,ウィッシュ,0
1871,8011303004563,新規,0,2022-10-31,2022-10-31,ＵＴＥＸ合同会社,,合同会社,東京都,杉並区,浜田山３丁目１５番１６号,,13,115,1680065,,,,,,,2022-10-31,1,,,,,ユーテックス,0
1875,8011501028612,新規,0,2022-10-31,2022-10-31,株式会社クリーンパートナース,,株式会社,東京都,荒川区,西尾久６丁目６番１１号,,13,118,1160011,,,,,,,2022-10-31,1,,,,,クリーンパートナース,0
1879,8011603003736,新規,0,2022-10-31,2022-10-31,合同会社おんくま,,合同会社,東京都,練馬区,桜台４丁目４番１１号,,13,120,1760002,,,,,,,2022-10-31,1,,,,,オンクマ,0
1887,8012401039798,新規,0,2022-10-31,2022-10-31,株式会社森田悠紀建築設計事務所,,株式会社,東京都,調布市,若葉町１丁目３１番地２２－２０２,,13,208,1820003,,,,,,,2022-10-31,1,,,,,モリタユウキケンチクセッケイジムショ,0
1890,8012403005641,新規,0,2022-10-31,2022-10-31,Ｈコーポレーション合同会社,,合同会社,東京都,小金井市,東町４丁目１３－６Ｎステージ４０１,,13,210,1840011,,,,,,,2022-10-31,1,,,,,エイチコーポレーション,0
1896,8013105001813,新規,0,2022-10-31,2022-10-31,一般社団法人消防救助技術開発,,その他の設立登記法人,東京都,あきる野市,牛沼５２０番地８,,13,228,1970826,,,,,,,2022-10-31,1,,,,,ショウボウキュウジョギジュツカイハツ,0
1900,8020001148721,新規,0,2022-10-31,2022-10-31,株式会社オンタイマッサージインターナショナル,,株式会社,神奈川県,横浜市中区,伊勢佐木町５丁目１３０,,14,104,2310045,,,,,,,2022-10-31,1,,,,,オンタイマッサージインターナショナル,0
1901,8020001148746,新規,0,2022-10-31,2022-10-31,株式会社ＭＫＹ,,株式会社,神奈川県,川崎市川崎区,観音２丁目７番１１号,,14,131,2100831,,,,,,,2022-10-31,1,,,,,エムケイワイ,0
1916,8021003012304,新規,0,2022-10-31,2022-10-31,イマイ・デザイン合同会社,,合同会社,神奈川県,相模原市緑区,大島４０３―４,,14,151,2520135,,,,,,,2022-10-31,1,,,,,イマイデザイン,0
1918,8021005012624,新規,0,2022-10-31,2022-10-31,一般社団法人日本天文学オリンピック委員会,,その他の設立登記法人,神奈川県,平塚市,浅間町１２－４１平塚市博物館,,14,203,2540041,,,,,,,2022-10-31,1,,,,,ニホンテンモンガクオリンピックイインカイ,0
1927,8030001150767,新規,0,2022-10-31,2022-10-31,株式会社川原設備,,株式会社,埼玉県,日高市,大字旭ケ丘２５９番地２２,,11,242,3501203,,,,,,,2022-10-31,1,,,,,カワハラセツビ,0
1928,8030001150775,新規,0,2022-10-31,2022-10-31,株式会社たあそび,,株式会社,埼玉県,川越市,松江町１丁目２番地２５,,11,201,3500056,,,,,,,2022-10-31,1,,,,,タアソビ,0
1929,8030001150783,新規,0,2022-10-31,2022-10-31,株式会社オリザ,,株式会社,埼玉県,東松山市,大字西本宿１９７９番地４,,11,212,3550062,,,,,,,2022-10-31,1,,,,,オリザ,0
1930,8030001150791,新規,0,2022-10-31,2022-10-31,株式会社ル・シエル,,株式会社,埼玉県,さいたま市見沼区,深作２丁目２７番地５,,11,104,3370003,,,,,,,2022-10-31,1,,,,,ルシエル,0
1931,8030001150800,新規,0,2022-10-31,2022-10-31,株式会社ＩＳＫ．,,株式会社,埼玉県,さいたま市大宮区,櫛引町１丁目４６８番地１・１Ｆ,,11,103,3300851,,,,,,,2022-10-31,1,,,,,アイエスケー,0
1933,8030003020472,新規,0,2022-10-31,2022-10-31,合同会社高橋化工,,合同会社,埼玉県,坂戸市,大字赤尾８６７番地４,,11,239,3500201,,,,,,,2022-10-31,1,,,,,タカハシカコウ,0
1936,8040001125611,新規,0,2022-10-31,2022-10-31,株式会社クレシア,,株式会社,千葉県,鎌ケ谷市,鎌ケ谷９丁目５番４１号レフィナード２０１,,12,224,2730105,,,,,,,2022-10-31,1,,,,,クレシア,0
1937,8040001125636,新規,0,2022-10-31,2022-10-31,株式会社エス,,株式会社,千葉県,柏市,旭町１丁目１１番４号３Ｆ,,12,217,2770852,,,,,,,2022-10-31,1,,,,,エス,0
1946,8050001051872,新規,0,2022-10-31,2022-10-31,株式会社塙組,,株式会社,茨城県,水戸市,大町３丁目１番２３号,,08,201,3100062,,,,,,,2022-10-31,1,,,,,ハナワグミ,0
1948,8060001035395,新規,0,2022-10-31,2022-10-31,株式会社那須デベロップメント,,株式会社,栃木県,那須塩原市,板室８４１番地１４,,09,213,3250111,,,,,,,2022-10-31,1,,,,,ナスデベロップメント,0
1951,8080103002671,新規,0,2022-10-31,2022-10-31,合同会社にじ,,合同会社,静岡県,富士市,岩本２１０８番地,,22,210,4160901,,,,,,,2022-10-31,1,,,,,ニジ,0
1967,8120001249848,新規,0,2022-10-31,2022-10-31,株式会社コウイチ・ファインアーツ,,株式会社,大阪府,大阪市西区,江戸堀１丁目２番１１号大同生命南館１階,,27,106,5500002,,,,,,,2022-10-31,1,,,,,コウイチファインアーツ,0
1968,8120001249856,新規,0,2022-10-31,2022-10-31,株式会社Ｗ．Ｓ．Ｃ,,株式会社,大阪府,大阪市平野区,西脇２丁目７番２５号フジパレス３０２号,,27,126,5470035,,,,,,,2022-10-31,1,,,,,ダブリューエスシー,0
1969,8120001249864,新規,0,2022-10-31,2022-10-31,株式会社プランズ,,株式会社,大阪府,大阪市中央区,安土町２丁目４番１１－４０１６号,,27,128,5410052,,,,,,,2022-10-31,1,,,,,プランズ,0
1970,8120001249872,新規,0,2022-10-31,2022-10-31,株式会社ＮｉｉＱ,,株式会社,大阪府,大阪市浪速区,日本橋５丁目７番１７－１３０１号,,27,111,5560005,,,,,,,2022-10-31,1,,,,,ニーク,0
1971,8120001249880,新規,0,2022-10-31,2022-10-31,Ｂｅｅｍｓ株式会社,,株式会社,大阪府,大阪市中央区,久太郎町４丁目２番１号本町イシカワビル６階,,27,128,5410056,,,,,,,2022-10-31,1,,,,,ビームズ,0
1972,8120001249897,新規,0,2022-10-31,2022-10-31,株式会社木村商事,,株式会社,大阪府,大阪市西区,本田２丁目６番１０号,,27,106,5500022,,,,,,,2022-10-31,1,,,,,キムラショウジ,0
1973,8120003022716,新規,0,2022-10-31,2022-10-31,ＯＳＵＮＡ合同会社,,合同会社,大阪府,大阪市阿倍野区,阿倍野筋４丁目１８番４－１０１号,,27,119,5450052,,,,,,,2022-10-31,1,,,,,オスナ,0
1975,8120103004903,新規,0,2022-10-31,2022-10-31,ＮＨ合同会社,,合同会社,大阪府,堺市南区,新檜尾台３丁６番６号,,27,145,5900143,,,,,,,2022-10-31,1,,,,,エヌエイチ,0
1982,8130001072927,新規,0,2022-10-31,2022-10-31,株式会社堀京,,株式会社,京都府,八幡市,美濃山中尾５２番地,,26,210,6148275,,,,,,,2022-10-31,1,,,,,ホリキョウ,0
1986,8140001127779,新規,0,2022-10-31,2022-10-31,株式会社ＯＣＥＡＮ・ＪＡＰＡＮ・ＣＯＭＰＡＮＹ,,株式会社,兵庫県,尼崎市,武庫之荘１丁目２０番３号ソリオ武庫之荘１０４号,,28,202,6610035,,,,,,,2022-10-31,1,,,,,オーシャンジャパンカンパニー,0
1987,8140001127837,新規,0,2022-10-31,2022-10-31,株式会社空都,,株式会社,兵庫県,明石市,藤江９７７番地４,,28,203,6730044,,,,,,,2022-10-31,1,,,,,クートン,0
1988,8140001127861,新規,0,2022-10-31,2022-10-31,株式会社アスカ,,株式会社,兵庫県,姫路市,飾磨区恵美酒８９番地１０ミストラルビル３Ｆ,,28,201,6728057,,,,,,,2022-10-31,1,,,,,アスカ,0
1991,8140003018290,新規,0,2022-10-31,2022-10-31,合同会社しなやか,,合同会社,兵庫県,西宮市,門戸東町６番１０－１０１号,,28,204,6620824,,,,,,,2022-10-31,1,,,,,シナヤカ,0
1994,8160001024594,新規,0,2022-10-31,2022-10-31,株式会社ＦＫＭ,,株式会社,滋賀県,大津市,大江２丁目１７番３０号アイビーハイツ１階,,25,201,5202141,,,,,,,2022-10-31,1,,,,,エフケーエム,0
2011,8180001153557,新規,0,2022-10-31,2022-10-31,株式会社ＫＡＮＡＤＥ設計,,株式会社,愛知県,名古屋市中村区,烏森町６丁目１９９番地,,23,105,4530855,,,,,,,2022-10-31,1,,,,,カナデセッケイ,0
2012,8180001153565,新規,0,2022-10-31,2022-10-31,株式会社ニューメイク,,株式会社,愛知県,名古屋市千種区,清住町１丁目７１番地リバティパレス３Ｃ,,23,101,4640034,,,,,,,2022-10-31,1,,,,,ニューメイク,0
2013,8180001153573,新規,0,2022-10-31,2022-10-31,株式会社リ・コーディア,,株式会社,愛知県,岩倉市,宮前町２丁目７６番地,,23,228,4820044,,,,,,,2022-10-31,1,,,,,リコーディア,0
2014,8180001153598,新規,0,2022-10-31,2022-10-31,望月塗工株式会社,,株式会社,愛知県,名古屋市中村区,北浦町３４番地の１,,23,105,4530824,,,,,,,2022-10-31,1,,,,,モチヅキトコウ,0
2019,8180003024418,新規,0,2022-10-31,2022-10-31,Ｂ＆Ｂ　ＰＡＫＩＳＴＡＮ合同会社,,合同会社,愛知県,名古屋市天白区,島田３丁目１０２番地ウイング島田２Ｂ号室,,23,116,4680056,,,,,,,2022-10-31,1,,,,,ビーアンドビーパキスタン,0
2021,8180301036759,新規,0,2022-10-31,2022-10-31,株式会社ｃｏｍｑｕｄａ,,株式会社,愛知県,高浜市,向山町１丁目２１０番地１５,,23,227,4441313,,,,,,,2022-10-31,1,,,,,コンクーダ,0
2048,8290001099368,新規,0,2022-10-31,2022-10-31,水川株式会社,,株式会社,福岡県,福岡市博多区,堅粕５丁目７番２２号,,40,132,8120043,,,,,,,2022-10-31,1,,,,,ミズカワ,0
2049,8290001099376,新規,0,2022-10-31,2022-10-31,株式会社オフィス・リーガル・Ｋ,,株式会社,福岡県,福岡市中央区,天神４丁目６－２８天神ファーストビル７階,,40,133,8100001,,,,,,,2022-10-31,1,,,,,オフィスリーガルケー,0
2051,8290003013112,新規,0,2022-10-31,2022-10-31,ｏｆｆｉｃｅ　ＦＬＯＷ合同会社,,合同会社,福岡県,福岡市博多区,店屋町２番２９号ｉＧＳ博多ビル７０１,,40,132,8120025,,,,,,,2022-10-31,1,,,,,オフィスフロー,0
2052,8290005018844,新規,0,2022-10-31,2022-10-31,一般社団法人樋口式サイエンスバクテリア研究所,,その他の設立登記法人,福岡県,うきは市,浮羽町妹川３１５５番地１,,40,225,8391415,,,,,,,2022-10-31,1,,,,,ヒグチシキサイエンスバクテリアケンキュウジョ,0
2079,8380003005307,新規,0,2022-10-31,2022-10-31,合同会社ＣａｎｄｙＥｎｔｅｒｐｒｉｓｅ,,合同会社,福島県,郡山市,喜久田町字菖蒲池２２－１０８,,07,203,9630551,,,,,,,2022-10-31,1,,,,,キャンディエンタープライズ,0
2088,8470001019308,新規,0,2022-10-31,2022-10-31,ＲＥＫＵＲＡＳＹ株式会社,,株式会社,香川県,高松市,サンポート２－１高松シンボルタワー棟４階・５階情報通信交流館内,,37,201,7600019,,,,,,,2022-10-31,1,,,,,リクラシィ,0
2091,8500001024543,新規,0,2022-10-31,2022-10-31,上甲建設株式会社,,株式会社,愛媛県,大洲市,菅田町大竹甲１０８９番地１,,38,207,7950083,,,,,,,2022-10-31,1,,,,,ジョウコウケンセツ,0
2093,8700150112104,新規,0,2022-10-31,2022-10-31,Ｆｕｇｒｏ　Ｓｉｎｇａｐｏｒｅ　Ｍａｒｉｎｅ　Ｐｔｅ　Ｌｔｄ,,外国会社等,,,,,,,,３５　ＬＯＹＡＮＧ　ＣＲＥＳＣＥＮＴ　ＦＵＧＲＯ　ＨＯＵＳＥ　ＳＩＮＧＡＰＯＲＥ（５０９０１２）,,,,,,2022-10-31,1,,,,,フグロシンガポールマリーンピーテイーイーリミテツド,0
2098,9010001230438,新規,0,2022-10-31,2022-10-31,株式会社アークレム,,株式会社,東京都,中央区,日本橋茅場町１丁目９番２号,,13,102,1030025,,,,,,,2022-10-31,1,,,,,アークレム,0
2099,9010001230446,新規,0,2022-10-31,2022-10-31,徳慧株式会社,00128301,株式会社,東京都,文京区,水道２丁目８番１号ハウザス小日向３０２,,13,105,1120005,,,,,,,2022-10-31,1,,,,,トクエ,0
2100,9010001230470,新規,0,2022-10-31,2022-10-31,Ｂｅｙｏｎｄ　Ｍａｔｅｒｉａｌｓ株式会社,,株式会社,東京都,千代田区,丸の内２丁目３番１号,,13,101,1000005,,,,,,,2022-10-31,1,,,,,ビヨンドマテリアルズ,0
2106,9010005035726,新規,0,2022-10-31,2022-10-31,一般社団法人オルタナ１８,,その他の設立登記法人,東京都,千代田区,丸の内３丁目１番１号東京共同会計事務所内,,13,101,1000005,,,,,,,2022-10-31,1,,,,,オルタナエイティーン,0
2129,9010801033387,新規,0,2022-10-31,2022-10-31,ｉｏｉ．ＦＩＲＳＴ株式会社,,株式会社,東京都,大田区,仲六郷２丁目２３番１号,,13,111,1440055,,,,,,,2022-10-31,1,,,,,アイオーアイファースト,0
2141,9011001150527,新規,0,2022-10-31,2022-10-31,株式会社サンセットプロパティ,,株式会社,東京都,渋谷区,道玄坂２丁目１８番１１号サンモール道玄坂２０３号室,,13,113,1500043,,,,,,,2022-10-31,1,,,,,サンセットプロパティ,0
2142,9011001150551,新規,0,2022-10-31,2022-10-31,株式会社ＨＵＭＰＤＡＹＳ,,株式会社,東京都,渋谷区,神宮前３丁目２５番６号神宮前ウィンテルビル２階,,13,113,1500001,,,,,,,2022-10-31,1,,,,,ハンプデイズ,0
2152,9011101100563,新規,0,2022-10-31,2022-10-31,株式会社ＳｅｔＵＲ,,株式会社,東京都,新宿区,新宿２丁目９番２２号,,13,104,1600022,,,,,,,2022-10-31,1,,,,,セチュア,0
2153,9011101100571,新規,0,2022-10-31,2022-10-31,株式会社Ｐ＆Ｐコンサルティング,,株式会社,東京都,新宿区,西新宿３丁目３番１３号西新宿水間ビル６階,,13,104,1600023,,,,,,,2022-10-31,1,,,,,ピーアンドピーコンサルティング,0
2154,9011101100670,新規,0,2022-10-31,2022-10-31,株式会社Ｑｕａｎｍａｔｉｃ,,株式会社,東京都,新宿区,西早稲田１丁目２２番３号,,13,104,1690051,,,,,,,2022-10-31,1,,,,,クオンマティク,0
2155,9011101100679,新規,0,2022-10-31,2022-10-31,ＮＰＳ株式会社,,株式会社,東京都,新宿区,荒木町１０番地１４伍番館ビル２Ｆ,,13,104,1600007,,,,,,,2022-10-31,1,,,,,ナプス,0
2156,9011101100687,新規,0,2022-10-31,2022-10-31,株式会社ランドリーライズ,,株式会社,東京都,新宿区,神楽坂３丁目４番地神楽坂山本ビル６階,,13,104,1620825,,,,,,,2022-10-31,1,,,,,ランドリーライズ,0
2159,9011303004562,新規,0,2022-10-31,2022-10-31,合同会社メゾン・エ・アッシュ,,合同会社,東京都,杉並区,高円寺北２丁目２番２５号,,13,115,1660002,,,,,,,2022-10-31,1,,,,,メゾンエアッシュ,0
2163,9011701025739,新規,0,2022-10-31,2022-10-31,シンライ株式会社,,株式会社,東京都,江戸川区,平井６丁目５番１５号大熊ビル４０１号室,,13,123,1320035,,,,,,,2022-10-31,1,,,,,シンライ,0
2165,9011801041470,新規,0,2022-10-31,2022-10-31,株式会社リクー,,株式会社,東京都,足立区,新田３丁目３６番３１－１２０２号,,13,121,1230865,,,,,,,2022-10-31,1,,,,,リクー,0
2171,9013301049861,新規,0,2022-10-31,2022-10-31,株式会社グリーンハウス,,株式会社,東京都,豊島区,南池袋３丁目８－１ニックハイム南池袋２０３号,,13,116,1710022,,,,,,,2022-10-31,1,,,,,グリーンハウス,0
2172,9013305003385,新規,0,2022-10-31,2022-10-31,一般社団法人日本アルベルゲ協会,,その他の設立登記法人,東京都,豊島区,千早３丁目３７番２号,,13,116,1710044,,,,,,,2022-10-31,1,,,,,ニホンアルベルゲキョウカイ,0
2177,9020001148720,新規,0,2022-10-31,2022-10-31,ＤｒｅａｍＶｅｒｓｅ　ＪＡＰＡＮ株式会社,,株式会社,神奈川県,川崎市中原区,新丸子町７３３番地シャンテ美里５０１,,14,133,2110005,,,,,,,2022-10-31,1,,,,,ドリームバースジャパン,0
2187,9021001077307,新規,0,2022-10-31,2022-10-31,株式会社カミーノ,,株式会社,神奈川県,大和市,つきみ野１丁目２番地５８,,14,213,2420002,,,,,,,2022-10-31,1,,,,,カミーノ,0
2188,9021001077315,新規,0,2022-10-31,2022-10-31,株式会社スローライフ,,株式会社,神奈川県,藤沢市,本町４丁目７－２５ココナッツ湘南１０１,,14,205,2510053,,,,,,,2022-10-31,1,,,,,スローライフ,0
2192,9021003012303,新規,0,2022-10-31,2022-10-31,合同会社佐々木総合建設,,合同会社,神奈川県,平塚市,土屋１８７８番地の３０,,14,203,2591205,,,,,,,2022-10-31,1,,,,,ササキソウゴウケンセツ,0
2203,9030001150790,新規,0,2022-10-31,2022-10-31,株式会社ＭＳＹ,,株式会社,埼玉県,川越市,霞ケ関東４丁目１１番地１７,,11,201,3501103,,,,,,,2022-10-31,1,,,,,エムエスワイ,0
2214,9040001125602,新規,0,2022-10-31,2022-10-31,株式会社ＷＩＮＢＥ,,株式会社,千葉県,八千代市,八千代台東４丁目２１－３－１０２,,12,221,2760032,,,,,,,2022-10-31,1,,,,,ウィンビー,0
2215,9040001125610,新規,0,2022-10-31,2022-10-31,株式会社フロイデＤａｎｋｅ,,株式会社,千葉県,習志野市,奏の杜１丁目３番１１号,,12,216,2750028,,,,,,,2022-10-31,1,,,,,フロイデダンケ,0
2216,9040001125627,新規,0,2022-10-31,2022-10-31,株式会社響,,株式会社,千葉県,千葉市中央区,矢作町２０９番地,,12,101,2600851,,,,,,,2022-10-31,1,,,,,ヒビキ,0
2217,9040001125635,新規,0,2022-10-31,2022-10-31,株式会社ＭＧ　ＭＮＢ,,株式会社,千葉県,四街道市,大日１９１番地１２,,12,228,2840001,,,,,,,2022-10-31,1,,,,,エムジーエムエヌビー,0
2219,9040003021171,新規,0,2022-10-31,2022-10-31,フォーザワールド合同会社,,合同会社,千葉県,船橋市,坪井東５丁目２０－１４,,12,204,2740060,,,,,,,2022-10-31,1,,,,,フォーザワールド,0
2223,9050003006948,新規,0,2022-10-31,2022-10-31,鮮友合同会社,,合同会社,茨城県,古河市,駒込３３２番地２,,08,204,3060121,,,,,,,2022-10-31,1,,,,,セントモ,0
2230,9060001035394,新規,0,2022-10-31,2022-10-31,ＧＡＺＩ　ＴＲＡＤＩＮＧ株式会社,,株式会社,栃木県,栃木市,大平町富田１９４番地２ファミール樹Ｂ－１０３号室,,09,203,3294404,,,,,,,2022-10-31,1,,,,,ガジトレーディング,0
2232,9060003004281,新規,0,2022-10-31,2022-10-31,Ａ・Ｎ・Ｈ・ＴＲＡＤＩＮＧ合同会社,,合同会社,栃木県,足利市,鹿島町５５６－２ツルガイハイツ２０６,,09,202,3260844,,,,,,,2022-10-31,1,,,,,エーエヌエイチトレーディング,0
2254,9120001249657,新規,0,2022-10-31,2022-10-31,株式会社ピースタウン,,株式会社,大阪府,大阪市東淀川区,西淡路３丁目５番８号,,27,114,5330031,,,,,,,2022-10-31,1,,,,,ピースタウン,0
2255,9120001249847,新規,0,2022-10-31,2022-10-31,株式会社ｍａｒｌ,,株式会社,大阪府,大阪市中央区,南船場４丁目１３番８号エステート心斎橋２０２,,27,128,5420081,,,,,,,2022-10-31,1,,,,,マール,0
2256,9120001249855,新規,0,2022-10-31,2022-10-31,株式会社Ｄｅｒｉｓｗｅｒ,,株式会社,大阪府,大阪市中央区,森ノ宮中央２丁目１３番３５－７１６号,,27,128,5400003,,,,,,,2022-10-31,1,,,,,ディライサー,0
2257,9120001249863,新規,0,2022-10-31,2022-10-31,株式会社リセット,,株式会社,大阪府,大阪市鶴見区,横堤４丁目１５番１号,,27,124,5380052,,,,,,,2022-10-31,1,,,,,リセット,0
2258,9120001249871,新規,0,2022-10-31,2022-10-31,株式会社三陽紡日本科技,,株式会社,大阪府,大阪市西区,新町４丁目１番１１号,,27,106,5500013,,,,,,,2022-10-31,1,,,,,サンヨウボウニホンカギ,0
2259,9120001249888,新規,0,2022-10-31,2022-10-31,峰傑株式会社,,株式会社,大阪府,大阪市浪速区,下寺３丁目１－１４エクレール夕陽ケ丘５号２０８号室,,27,111,5560001,,,,,,,2022-10-31,1,,,,,ホウケツ,0
2260,9120001249896,新規,0,2022-10-31,2022-10-31,株式会社ＯＮＥ　ＡＳＩＡ,,株式会社,大阪府,大阪市中央区,久太郎町３丁目４番３０－９０８号,,27,128,5410056,,,,,,,2022-10-31,1,,,,,ワンアジア,0
2273,9130001072876,新規,0,2022-10-31,2022-10-31,皮斯塔＿株式会社,00128299,株式会社,京都府,京都市伏見区,醍醐上ノ山町２１番地４醍醐上ノ山団地Ｃ２－１棟１０２号室,,26,109,6011371,,,,,,,2022-10-31,1,,,,,ピスタチ,0
2283,9140001127720,新規,0,2022-10-31,2022-10-31,株式会社ＢａｔｈＴｉｍｅＦｉｓｈ,,株式会社,兵庫県,神戸市長田区,西山町３丁目３番１３号,,28,106,6530862,,,,,,,2022-10-31,1,,,,,バスタイムフィッシュ,0
2284,9140001127836,新規,0,2022-10-31,2022-10-31,株式会社ぷらんねる,,株式会社,兵庫県,神戸市中央区,浜辺通４丁目１番２３号三宮ベンチャービル６０２号室,,28,110,6510083,,,,,,,2022-10-31,1,,,,,プランネル,0
2285,9140001127860,新規,0,2022-10-31,2022-10-31,株式会社山の厨,,株式会社,兵庫県,朝来市,和田山町東谷３丁目２６番地,,28,225,6695202,,,,,,,2022-10-31,1,,,,,ヤマノクリヤ,0
2289,9140003018298,新規,0,2022-10-31,2022-10-31,明海商事合同会社,,合同会社,兵庫県,明石市,小久保６丁目１２－１０マンションビクトリーＶ－３,,28,203,6730005,,,,,,,2022-10-31,1,,,,,メイカイショウジ,0
2291,9150003002805,新規,0,2022-10-31,2022-10-31,合同会社インパルスエナジー,,合同会社,奈良県,奈良市,西千代ヶ丘３丁目２６番３０号,,29,201,6310046,,,,,,,2022-10-31,1,,,,,インパルスエナジー,0
2292,9160001024593,新規,0,2022-10-31,2022-10-31,株式会社Ｍａｏｌｉ,,株式会社,滋賀県,甲賀市,水口町朝日が丘６－１７,,25,209,5280072,,,,,,,2022-10-31,1,,,,,マオリ,0
2299,9180001153523,新規,0,2022-10-31,2022-10-31,株式会社ＡＪテクノロジーズ,,株式会社,愛知県,名古屋市中区,栄２丁目２番２３号アーク白川公園ビルディング本館０７０１,,23,106,4600008,,,,,,,2022-10-31,1,,,,,エージェイテクノロジーズ,0
2300,9180001153564,新規,0,2022-10-31,2022-10-31,株式会社ＰａｎＵｐ,,株式会社,愛知県,名古屋市中区,新栄町２丁目４番地,,23,106,4600004,,,,,,,2022-10-31,1,,,,,パンナップ,0
2301,9180001153572,新規,0,2022-10-31,2022-10-31,株式会社ＮＩＰＰＯＮ　ＷＯＲＫＳ,,株式会社,愛知県,名古屋市西区,名駅２丁目３４番１７号,,23,104,4510045,,,,,,,2022-10-31,1,,,,,ニッポンワークス,0
2302,9180001153580,新規,0,2022-10-31,2022-10-31,株式会社ＴＭＡＹＫＥＲ,,株式会社,愛知県,名古屋市昭和区,松風町２丁目１番地の１,,23,107,4660035,,,,,,,2022-10-31,1,,,,,ティーメイカー,0
2303,9180001153589,新規,0,2022-10-31,2022-10-31,山本工業株式会社,,株式会社,愛知県,清須市,桃栄４丁目３９番地,,23,233,4520918,,,,,,,2022-10-31,1,,,,,ヤマモトコウギョウ,0
2309,9180003024409,新規,0,2022-10-31,2022-10-31,ＹＩＹＩＴＴＯ合同会社,,合同会社,愛知県,小牧市,城山１丁目６番地１,,23,219,4850812,,,,,,,2022-10-31,1,,,,,イイット,0
2317,9230001019561,新規,0,2022-10-31,2022-10-31,沼部興業株式会社,,株式会社,富山県,滑川市,上小泉２６８２番地４,,16,206,9360053,,,,,,,2022-10-31,1,,,,,ヌマベコウギョウ,0
2320,9290001099375,新規,0,2022-10-31,2022-10-31,株式会社ＭＮＮ,,株式会社,福岡県,筑後市,大字山ノ井２４０番地１エイルヴィラ羽犬塚駅前プレステージ７０２号,,40,211,8330031,,,,,,,2022-10-31,1,,,,,エムエヌエヌ,0
2321,9290001099383,新規,0,2022-10-31,2022-10-31,ライズトレーディング株式会社,,株式会社,福岡県,福岡市博多区,博多駅東２丁目４－６,,40,132,8120013,,,,,,,2022-10-31,1,,,,,ライズトレーディング,0
2325,9290801028995,新規,0,2022-10-31,2022-10-31,株式会社アイル,,株式会社,福岡県,北九州市八幡西区,則松５丁目１０番３０号,,40,109,8070831,,,,,,,2022-10-31,1,,,,,アイル,0
2331,9320005010029,新規,0,2022-10-31,2022-10-31,特定非営利活動法人のや里山舎,,その他の設立登記法人,大分県,玖珠郡九重町,大字野上２６６８番地の１,,44,461,8794802,,,,,,,2022-10-31,1,,,,,,0
2334,9340003003940,新規,0,2022-10-31,2022-10-31,合同会社ヘヴン,,合同会社,鹿児島県,熊毛郡中種子町,納官５４２９,,46,501,8913601,,,,,,,2022-10-31,1,,,,,ヘヴン,0
2339,9360001031074,新規,0,2022-10-31,2022-10-31,株式会社ホルミシスルーム沖縄,,株式会社,沖縄県,宜野湾市,真志喜１丁目１番３－１０３号サンフラワーマンション,,47,205,9012224,,,,,,,2022-10-31,1,,,,,ホルミシスルームオキナワ,0
2340,9360001031124,新規,0,2022-10-31,2022-10-31,株式会社Ａｉ,,株式会社,沖縄県,宮古島市,平良字西里１１３７番地２,,47,214,9060012,,,,,,,2022-10-31,1,,,,,アイ,0
2348,9380003005306,新規,0,2022-10-31,2022-10-31,Ｂａｓｉｑ合同会社,,合同会社,福島県,西白河郡西郷村,大字小田倉字大平３５－７,,07,461,9618061,,,,,,,2022-10-31,1,,,,,ベーシック,0
2353,9420003002595,新規,0,2022-10-31,2022-10-31,合同会社キムラＯＡ,,合同会社,青森県,上北郡東北町,字上笹橋４番地,,02,408,0392661,,,,,,,2022-10-31,1,,,,,キムラオーエー,0
2360,9430005014588,新規,0,2022-10-31,2022-10-31,一般社団法人全国精神障害者福祉事業者協会,,その他の設立登記法人,北海道,苫小牧市,日吉町４丁目１番８号,,01,213,0530816,,,,,,,2022-10-31,1,,,,,ゼンコクセイシンショウガイシャフクシジギョウシャキョウカイ,0
2365,9490001010313,新規,0,2022-10-31,2022-10-31,株式会社Ｒｅａｄｉｎｅｓｓ,,株式会社,高知県,高知市,梅ノ辻１６番２４号,00128307,39,201,7808011,,,,,,,2022-10-31,1,,,,,レディネス,0
2367,9500001024559,新規,0,2022-10-31,2022-10-31,株式会社ｎｏｍａｄ’ｓ,,株式会社,愛媛県,松山市,宮田町１３１番地１クラースタワー松山駅前６０１号,,38,201,7900066,,,,,,,2022-10-31,1,,,,,ノマズ,0
2372,9700150109173,新規,0,2022-10-31,2022-06-01,Ｒｅｃ,,その他,大阪府,大阪市西成区,南開１丁目２－２２,,27,122,5570023,,,,,,,2022-06-01,1,,,,,レツク,0
