sequenceNumber,corporateNumber,process,correct,updateDate,changeDate,name,nameImageId,kind,prefectureName,cityName,streetNumber,addressImageId,prefectureCode,cityCode,postCode,addressOutside,addressOutsideImageId,closeDate,closeCause,successorCorporateNumber,changeCause,assignmentDate,latest,enName,enPrefectureName,enCityName,enAddressOutside,furigana,hihyoji
77,1011301004233,登記記録の閉鎖等,0,2022-04-11,2022-04-05,株式会社タップ,,株式会社,東京都,杉並区,荻窪１丁目３３番２号,,13,115,1670051,,,2022-04-05,清算の結了等,,,2015-10-05,1,,,,,タップ,0
101,1012401029582,登記記録の閉鎖等,0,2022-04-11,2022-04-04,株式会社飯田産業エンジニアリング,,株式会社,東京都,武蔵野市,境南町３丁目１３番１４号,,13,203,1800023,,,2022-04-04,清算の結了等,,,2015-10-05,1,,,,,イイダサンギョウエンジニアリング,0
143,1030002093666,登記記録の閉鎖等,0,2022-04-11,2022-04-01,有限会社柳沼商会,,有限会社,埼玉県,鶴ヶ島市,大字藤金字久保６７番地１４,,11,241,3502206,,,2022-04-01,清算の結了等,,,2015-10-05,1,,,,,,0
178,1080102007488,登記記録の閉鎖等,0,2022-04-11,2022-04-06,有限会社萬年堂,,有限会社,静岡県,御殿場市,川島田６４４番地の１,,22,215,4120045,,,2022-04-06,清算の結了等,,,2015-10-05,1,,,,,,0
214,1120101037151,登記記録の閉鎖等,0,2022-04-11,2022-03-31,辻興業株式会社,00032417,株式会社,大阪府,岸和田市,土生町３丁目１５番２２－４０１号,,27,202,5960825,,,2022-03-31,清算の結了等,,,2015-10-05,1,,,,,ツジコウギョウ,0
226,1120105007893,登記記録の閉鎖等,0,2022-04-11,2022-04-06,特定非営利活動法人野に咲く花,,その他の設立登記法人,大阪府,河内長野市,小山田町２３７３番地の４,,27,216,5860094,,,2022-04-06,清算の結了等,,,2015-10-05,1,,,,,ノニサクハナ,0
270,1180002075410,登記記録の閉鎖等,0,2022-04-11,2022-04-01,有限会社やしろ調剤薬局,,有限会社,愛知県,丹羽郡扶桑町,大字高雄字下山１３７番地,,23,362,4800102,,,2022-04-01,合併による解散等,9180002082011,令和４年４月１日愛知県丹羽郡扶桑町大字高雄字下山１３７番地株式会社大幸堂薬局（9180002082011）に合併し解散,2015-10-05,1,,,,,ヤシロチョウザイヤッキョク,0
275,1180301026659,登記記録の閉鎖等,0,2022-04-11,2022-04-01,深津架設株式会社,,株式会社,愛知県,安城市,東端町稲荷１２２番地１,,23,212,4441213,,,2022-04-01,清算の結了等,,,2015-10-05,1,,,,,フカツカセツ,0
282,1190002017320,登記記録の閉鎖等,0,2022-04-11,2022-03-31,有限会社行秀,,有限会社,三重県,桑名市,大字星川７０２番地,,24,205,5110912,,,2022-03-31,清算の結了等,,,2015-10-05,1,,,,,ユキヒデ,0
310,1290002043604,登記記録の閉鎖等,0,2022-04-11,2022-04-01,有限会社しもかわ,,有限会社,福岡県,朝倉郡東峰村,大字宝珠山６３１１番地の５,,40,448,8381701,,,2022-04-01,清算の結了等,,,2015-10-05,1,,,,,シモカワ,0
322,1300002009231,登記記録の閉鎖等,0,2022-04-11,2022-04-01,有限会社万洋商事,,有限会社,佐賀県,鳥栖市,松原町１７６４番地１,,41,203,8410027,,,2022-04-01,合併による解散等,3300001007127,令和４年４月１日佐賀県唐津市鏡２５４５番地１梅田産業株式会社（3300001007127）に合併し解散,2015-10-05,1,,,,,マンヨウショウジ,0
356,1390002003548,登記記録の閉鎖等,0,2022-04-11,2022-04-01,有限会社東パック,,有限会社,山形県,山形市,立谷川３丁目１１２３番地の１,,06,201,9902251,,,2022-04-01,合併による解散等,4390001002102,令和４年４月１日山形市立谷川三丁目１１６３番地山形木工株式会社（4390001002102）に合併し解散,2015-10-05,1,,,,,トウパック,0
372,1470001006898,登記記録の閉鎖等,0,2022-04-11,2022-04-01,株式会社瀬戸内エンジニアリング,,株式会社,香川県,綾歌郡綾川町,羽床上１５５０番地１,,37,387,7612207,,,2022-04-01,合併による解散等,4470001014997,令和４年４月１日香川県高松市郷東町７９２番地１０５株式会社フソウメンテック（4470001014997）に合併し解散,2015-10-05,1,,,,,セトウチエンジニアリング,0
380,1500001020243,登記記録の閉鎖等,0,2022-04-11,2022-04-05,株式会社中予開発,,株式会社,愛媛県,伊予市,宮下１２８０番地１,,38,210,7993102,,,2022-04-05,清算の結了等,,,2016-12-02,1,,,,,チュウヨカイハツ,0
394,2010003012873,登記記録の閉鎖等,0,2022-04-11,2022-03-31,合同会社タワーコート北品川,,合同会社,東京都,港区,新橋１丁目１８番１号,,13,103,1050004,,,2022-03-31,清算の結了等,,,2015-10-05,1,,,,,タワーコートキタシナガワ,0
408,2010401132629,登記記録の閉鎖等,0,2022-04-11,2022-03-31,Ｑｏｎｉａｃ　Ｊａｐａｎ株式会社,,株式会社,東京都,港区,六本木６丁目１０番１号,,13,103,1060032,,,2022-03-31,清算の結了等,,,2017-07-24,1,,,,,キュオニアックジャパン,0
424,2010602022587,登記記録の閉鎖等,0,2022-04-11,2022-03-31,有限会社都市土木,,有限会社,東京都,江東区,東雲２丁目１番７号,,13,108,1350062,,,2022-03-31,清算の結了等,,,2015-10-05,1,,,,,トシドボク,0
427,2010701028238,登記記録の閉鎖等,0,2022-04-11,2022-04-01,株式会社明電Ｏ＆Ｍ,,株式会社,東京都,品川区,大崎３丁目７番９号,,13,109,1410032,,,2022-04-01,合併による解散等,4010701009640,令和４年４月１日東京都品川区大崎二丁目１番１号株式会社明電舎（4010701009640）に合併し解散,2015-10-05,1,,,,,メイデンオーアンドエム,0
437,2010902009557,登記記録の閉鎖等,0,2022-04-11,2022-04-04,有限会社立山商会,,有限会社,東京都,世田谷区,弦巻３丁目１４番５号,,13,112,1540016,,,2022-04-04,清算の結了等,,,2015-10-05,1,,,,,タテヤマショウカイ,0
452,2011101014943,登記記録の閉鎖等,0,2022-04-11,2022-04-05,株式会社東京こども教育センター教室,,株式会社,東京都,新宿区,高田馬場４丁目４－１８工藤ビル２階２０１,,13,104,1690075,,,2022-04-05,清算の結了等,,,2015-10-05,1,,,,,トウキョウコドモキョウイクセンターキョウシツ,0
453,2011101018622,登記記録の閉鎖等,0,2022-04-11,2022-04-01,ふそうビルサービス株式会社,,株式会社,東京都,文京区,湯島３丁目２４番１１号,,13,105,1130034,,,2022-04-01,合併による解散等,4010001132985,令和４年４月１日東京都中央区築地一丁目１３番１０号株式会社ザイマックスサラ（4010001132985）に合併し解散,2015-10-05,1,,,,,フソウビルサービス,0
482,2013301028368,登記記録の閉鎖等,0,2022-04-11,2022-04-01,株式会社イチゲン,,株式会社,東京都,豊島区,要町３丁目１番１３－１１３号,,13,116,1710043,,,2022-04-01,合併による解散等,2013301001102,令和４年４月１日東京都豊島区要町三丁目４番１０号一元製薬株式会社（2013301001102）に合併し解散,2015-10-05,1,,,,,イチゲン,0
510,2030001049973,登記記録の閉鎖等,0,2022-04-11,2022-03-31,株式会社メダカすみよい事務所,,株式会社,埼玉県,和光市,新倉２丁目４番５４－３０３号,,11,229,3510115,,,2022-03-31,清算の結了等,,,2015-10-05,1,,,,,メダカスミヨイジムショ,0
512,2030001093740,登記記録の閉鎖等,0,2022-04-11,2022-04-01,アークリンク株式会社,,株式会社,埼玉県,八潮市,伊草２丁目１４番地４,,11,234,3400806,,,2022-04-01,合併による解散等,7030001006846,令和４年４月１日埼玉県さいたま市緑区東大門三丁目６番地２株式会社花前商店（7030001006846）に合併し解散,2015-10-05,1,,,,,アークリンク,0
514,2030001123092,登記記録の閉鎖等,0,2022-04-11,2022-04-01,マナブ・エンドレス・プレート株式会社,,株式会社,埼玉県,三郷市,鷹野１丁目９０番地１,,11,237,3410035,,,2022-04-01,合併による解散等,4030001037035,令和４年４月１日埼玉県三郷市鷹野一丁目９０番地１ＭＣＰ株式会社（4030001037035）に合併し解散,2017-11-22,1,,,,,マナブエンドレスプレート,0
531,2040002029890,登記記録の閉鎖等,0,2022-04-11,2022-04-01,有限会社バツカス美好,,有限会社,千葉県,八千代市,八千代台西１丁目１番１０号,,12,221,2760034,,,2022-04-01,清算の結了等,,,2015-10-05,1,,,,,バツカスミヨシ,0
539,2040005009139,登記記録の閉鎖等,0,2022-04-11,2022-04-01,協同組合シー・ティー・ティー,,その他の設立登記法人,千葉県,市原市,八幡海岸通７番地,,12,219,2900067,,,2022-04-01,清算の結了等,,,2015-10-05,1,,,,,シーティーティー,0
610,2130001034098,登記記録の閉鎖等,0,2022-04-11,2022-04-01,南部生コン販売株式会社,,株式会社,京都府,城陽市,長池北清水１００番地の１７,,26,207,6100112,,,2022-04-01,清算の結了等,,,2015-10-05,1,,,,,ナンブナマコンハンバイ,0
611,2130001036895,登記記録の閉鎖等,0,2022-04-11,2022-04-01,星ケ浦産業株式会社,,株式会社,京都府,木津川市,鹿背山梶ケ谷６６番地,,26,214,6190211,,,2022-04-01,合併による解散等,7130001036924,令和４年４月１日京都府木津川市加茂町観音寺大田山１７５番地株式会社美加ノ原カンツリークラブ（7130001036924）に合併し解散,2015-10-05,1,,,,,ホシガウラサンギョウ,0
612,2130001036937,登記記録の閉鎖等,0,2022-04-11,2022-04-01,株式会社美加ノ原ジーアール,,株式会社,京都府,木津川市,加茂町観音寺大田山１００番地,,26,214,6191143,,,2022-04-01,合併による解散等,7130001036924,令和４年４月１日京都府木津川市加茂町観音寺大田山１７５番地株式会社美加ノ原カンツリークラブ（7130001036924）に合併し解散,2015-10-05,1,,,,,ミカノハラジーアール,0
629,2140001084877,登記記録の閉鎖等,0,2022-04-11,2022-04-01,株式会社フーヅテック,,株式会社,兵庫県,洲本市,大野６６８番地の７,,28,205,6560055,,,2022-04-01,清算の結了等,,,2015-10-05,1,,,,,フーヅテック,0
631,2140001087129,登記記録の閉鎖等,0,2022-04-11,2022-04-01,株式会社日経神戸販売,,株式会社,兵庫県,神戸市中央区,中山手通６丁目１番３３号,,28,110,6500004,,,2022-04-01,清算の結了等,,,2015-10-05,1,,,,,ニッケイコウベハンバイ,0
643,2180001017222,登記記録の閉鎖等,0,2022-04-11,2022-04-04,東海釣魚堂株式会社,,株式会社,愛知県,名古屋市千種区,希望ケ丘２丁目２番１９号,,23,101,4640016,,,2022-04-04,清算の結了等,,,2015-10-05,1,,,,,トウカイチョウギョドウ,0
655,2180003017204,登記記録の閉鎖等,0,2022-04-11,2022-04-01,合同会社カーザ・ボーノ,,合同会社,愛知県,名古屋市北区,楠４丁目１４２番地,,23,103,4620012,,,2022-04-01,合併による解散等,9180003017338,令和４年４月１日名古屋市北区楠四丁目１４２番地合同会社レガーミ（9180003017338）に合併し解散,2016-07-01,1,,,,,カーザボーノ,0
677,2220002015294,登記記録の閉鎖等,0,2022-04-11,2022-04-04,有限会社宮本建設,,有限会社,石川県,羽咋市,千里浜町ソ１０番地３,,17,207,9250054,,,2022-04-04,清算の結了等,,,2015-10-05,1,,,,,ミヤモトケンセツ,0
680,2230001001930,登記記録の閉鎖等,0,2022-04-11,2022-04-01,株式会社トヨタレンタリース富山,,株式会社,富山県,富山市,千歳町２丁目５番２６号,,16,201,9300018,,,2022-04-01,合併による解散等,1230001002145,令和４年４月１日富山市千歳町二丁目５番２６号トヨタモビリティ富山株式会社（1230001002145）に合併し解散,2015-10-05,1,,,,,トヨタレンタリーストヤマ,0
685,2240001022942,登記記録の閉鎖等,0,2022-04-11,2022-04-01,東洋化成工業株式会社,,株式会社,広島県,東広島市,志和町別府１３６６番地の１,,34,212,7390267,,,2022-04-01,合併による解散等,3120001168326,令和４年４月１日広島県三原市八幡町垣内９３番地ＮＣＴフロンティア株式会社（3120001168326）に合併し解散,2015-10-05,1,,,,,トウヨウカセイコウギョウ,0
694,2290005013933,登記記録の閉鎖等,0,2022-04-11,2022-04-05,ロマネスク東町管理組合法人,,その他の設立登記法人,福岡県,久留米市,東町４０２番２,,40,203,8300032,,,2022-04-05,清算の結了等,,,2015-10-05,1,,,,,ロマネスクヒガシマチ,0
698,2310002015764,登記記録の閉鎖等,0,2022-04-11,2022-04-01,有限会社サンライズ建設,,有限会社,長崎県,雲仙市,愛野町乙１５７３番地１,,42,213,8540302,,,2022-04-01,合併による解散等,2310001008232,令和４年４月１日長崎県雲仙市愛野町乙１４７９番地１株式会社寺尾建設（2310001008232）に合併し解散,2015-10-05,1,,,,,サンライズケンセツ,0
708,2350002018441,登記記録の閉鎖等,0,2022-04-11,2022-04-07,農業生産法人有限会社井園ファーム,,有限会社,宮崎県,えびの市,大字西長江浦５４９番地２,,45,209,8894232,,,2022-04-07,清算の結了等,,,2015-10-05,1,,,,,ノウギョウセイサンホウジンイゾノファーム,0
732,2430001027030,登記記録の閉鎖等,0,2022-04-11,2022-04-07,株式会社英和コーポレーション,,株式会社,北海道,札幌市手稲区,富丘二条２丁目９番１５号,,01,109,0060012,,,2022-04-07,合併による解散等,7430001002210,令和４年３月３１日札幌市手稲区富丘二条二丁目９番１４号英和工業株式会社（7430001002210）に合併し解散,2015-10-05,1,,,,,エイワコーポレーション,0
745,2470003001285,登記記録の閉鎖等,0,2022-04-11,2022-04-04,合同会社アンビット四国,,合同会社,香川県,高松市,観光通１丁目１番１６号,,37,201,7600055,,,2022-04-04,清算の結了等,,,2017-09-26,1,,,,,アンビットシコク,0
751,2480002001797,登記記録の閉鎖等,0,2022-04-11,2022-04-06,有限会社五分利堂,,有限会社,徳島県,徳島市,国府町和田字表１８番地６,,36,201,7793121,,,2022-04-06,清算の結了等,,,2015-10-05,1,,,,,ゴブリドウ,0
802,3010702007207,登記記録の閉鎖等,0,2022-04-11,2022-04-01,有限会社フタバ教育社,,有限会社,東京都,品川区,大井４丁目１７番１４号,,13,109,1400014,,,2022-04-01,清算の結了等,,,2015-10-05,1,,,,,フタバキョウイクシャ,0
804,3010703004153,登記記録の閉鎖等,0,2022-04-11,2022-04-01,合同会社アールシー・スポット,,合同会社,東京都,品川区,大崎３丁目１番３号,,13,109,1410032,,,2022-04-01,合併による解散等,8010703003836,令和４年４月１日東京都品川区大崎三丁目１番３号合同会社アールシー・ディレクト（8010703003836）に合併し解散,2018-03-15,1,,,,,アールシースポット,0
827,3011101068740,登記記録の閉鎖等,0,2022-04-11,2022-04-01,ＥＰクルーズ株式会社,,株式会社,東京都,新宿区,新小川町６番２９号,,13,104,1620814,,,2022-04-01,合併による解散等,1011101070467,令和４年４月１日東京都新宿区下宮比町２番２３号イーピーエス株式会社（1011101070467）に合併し解散,2015-10-05,1,,,,,イーピークルーズ,0
838,3011301024155,登記記録の閉鎖等,0,2022-04-11,2022-04-01,株式会社ｔｉｌｄｅ,,株式会社,東京都,武蔵野市,吉祥寺南町３丁目２７番２２号,,13,203,1800003,,,2022-04-01,合併による解散等,2011301020989,令和４年４月１日東京都武蔵野市吉祥寺南町三丁目２７番２２号株式会社ｋｏｕｊｉｔｓｕ（2011301020989）に合併し解散,2018-05-23,1,,,,,チルダ,0
869,3013301008542,登記記録の閉鎖等,0,2022-04-11,2022-04-07,東武食品サービス株式会社,,株式会社,東京都,豊島区,西池袋１丁目１番２５号,,13,116,1710021,,,2022-04-07,合併による解散等,4010601029887,令和４年４月１日東京都墨田区向島一丁目３３番１２号東武商事株式会社（4010601029887）に合併し解散,2015-10-05,1,,,,,トウブショクヒンサービス,0
874,3013302008418,登記記録の閉鎖等,0,2022-04-11,2022-03-31,富士管財不動産有限会社,,有限会社,東京都,豊島区,西池袋３丁目３０番４号,,13,116,1710021,,,2022-03-31,合併による解散等,8013302003331,令和４年３月３１日東京都豊島区西池袋三丁目３０番４号株式会社山栄管財（8013302003331）に合併し解散,2015-10-05,1,,,,,フジカンザイフドウサン,0
878,3020001004268,登記記録の閉鎖等,0,2022-04-11,2022-04-01,中村建設株式会社,,株式会社,神奈川県,横浜市港南区,上永谷１丁目１番１８号,,14,111,2330012,,,2022-04-01,清算の結了等,,,2015-10-05,1,,,,,ナカムラケンセツ,0
899,3021002032794,登記記録の閉鎖等,0,2022-04-11,2022-04-01,有限会社パンチング神奈川,,有限会社,神奈川県,厚木市,下川入８６４番地,,14,212,2430206,,,2022-04-01,清算の結了等,,,2015-10-05,1,,,,,パンチングカナガワ,0
945,3110001017269,登記記録の閉鎖等,0,2022-04-11,2022-04-04,北日本羽黒食品株式会社,,株式会社,新潟県,柏崎市,駅前１丁目３番１号,,15,205,9450055,,,2022-04-04,合併による解散等,6110001017563,令和４年４月１日新潟県柏崎市駅前一丁目３番１号株式会社ブルボン（6110001017563）に合併し解散,2015-10-05,1,,,,,キタニホンハグロショクヒン,0
947,3110002015635,登記記録の閉鎖等,0,2022-04-11,2022-04-01,有限会社吉田ビニール工業,,有限会社,新潟県,新発田市,島潟２０３番地１,,15,206,9570011,,,2022-04-01,清算の結了等,,,2015-10-05,1,,,,,ヨシダビニールコウギョウ,0
948,3110002025502,登記記録の閉鎖等,0,2022-04-11,2022-04-01,有限会社グルメッシュ野上,,有限会社,新潟県,十日町市,高島甲２９１番地５,,15,210,9480107,,,2022-04-01,清算の結了等,,,2015-10-05,1,,,,,グルメッシュノガミ,0
951,3110002029214,登記記録の閉鎖等,0,2022-04-11,2022-04-01,有限会社丸仲産業,,有限会社,新潟県,長岡市,三ツ郷屋２丁目５番地２,,15,202,9402111,,,2022-04-01,清算の結了等,,,2015-10-05,1,,,,,マルナカサンギョウ,0
972,3120002055127,登記記録の閉鎖等,0,2022-04-11,2022-04-05,エイワフーズ有限会社,,有限会社,大阪府,豊中市,新千里南町２丁目６番１２号第２トーエイビル２階２０２号室,,27,203,5600084,,,2022-04-05,清算の結了等,,,2015-10-05,1,,,,,エイワフーズ,0
975,3120101022861,登記記録の閉鎖等,0,2022-04-11,2022-04-04,株式会社笑顔,,株式会社,大阪府,堺市堺区,住吉橋町１丁５番５号,,27,141,5900973,,,2022-04-04,清算の結了等,,,2015-10-05,1,,,,,エガオ,0
984,3122001003727,登記記録の閉鎖等,0,2022-04-11,2022-04-04,株式会社スペース観光,,株式会社,大阪府,東大阪市,長田西４丁目２番２９号,,27,227,5770016,,,2022-04-04,清算の結了等,,,2015-10-05,1,,,,,スペースカンコウ,0
993,3130002007597,登記記録の閉鎖等,0,2022-04-11,2022-04-04,有限会社何含利,,有限会社,京都府,京都市下京区,朱雀北ノ口町１番地,,26,106,6008845,,,2022-04-04,清算の結了等,,,2015-10-05,1,,,,,ナゴリ,0
995,3140001015971,登記記録の閉鎖等,0,2022-04-11,2022-04-01,株式会社キョーエイ開発,,株式会社,兵庫県,神戸市須磨区,平田町２丁目２番６号,,28,107,6540021,,,2022-04-01,合併による解散等,9140001017938,令和４年４月１日神戸市須磨区平田町二丁目２番６号株式会社松山工務店（9140001017938）に合併し解散,2015-10-05,1,,,,,キョーエイカイハツ,0
1000,3140001095188,登記記録の閉鎖等,0,2022-04-11,2022-04-01,株式会社コーディアルエステート,,株式会社,兵庫県,神戸市須磨区,平田町２丁目２番６号,,28,107,6540021,,,2022-04-01,合併による解散等,9140001017938,令和４年４月１日神戸市須磨区平田町二丁目２番６号株式会社松山工務店（9140001017938）に合併し解散,2015-10-05,1,,,,,コーディアルエステート,0
1001,3140001108577,登記記録の閉鎖等,0,2022-04-11,2022-03-31,上村アドバンスド・テクノロジー株式会社,,株式会社,兵庫県,神戸市西区,見津が丘５丁目３番１号,,28,111,6512228,,,2022-03-31,合併による解散等,6140001034564,令和４年３月３１日兵庫県明石市貴崎五丁目１０番３７号上村航機株式会社（6140001034564）に合併し解散,2017-12-20,1,,,,,ウエムラアドバンスドテクノロジー,0
1050,3230001003711,登記記録の閉鎖等,0,2022-04-11,2022-04-01,エスピー商事株式会社,,株式会社,富山県,富山市,高木３０００番地,,16,201,9300106,,,2022-04-01,合併による解散等,2230001001443,令和４年４月１日富山市高木３０００番地株式会社大栄（2230001001443）に合併し解散,2015-10-05,1,,,,,エスピーショウジ,0
1071,3310003004022,登記記録の閉鎖等,0,2022-04-11,2022-04-01,合同会社ＴＡＫＥＹＡ,,合同会社,長崎県,南松浦郡新上五島町,三日ノ浦郷５５番地１５,,42,411,8574412,,,2022-04-01,合併による解散等,5310001011729,令和４年４月１日長崎県南松浦郡新上五島町奈摩郷３７９番地５株式会社新上五島在宅ケアセンター（5310001011729）に合併し解散,2021-03-15,1,,,,,タケヤ,0
1108,3390001012110,登記記録の閉鎖等,0,2022-04-11,2022-04-06,東北興業株式会社,,株式会社,山形県,西村山郡西川町,大字間沢３５１番地２,,06,322,9900703,,,2022-04-06,合併による解散等,9040001059263,令和４年３月３０日千葉県茂原市大芝４４０番１１綜合開発株式会社（9040001059263）に合併し解散,2015-10-05,1,,,,,トウホクコウギョウ,0
1112,3410002004351,登記記録の閉鎖等,0,2022-04-11,2022-04-01,有限会社秋田リビングライフ,,有限会社,秋田県,秋田市,泉一ノ坪４番３６号,,05,201,0100813,,,2022-04-01,清算の結了等,,,2015-10-05,1,,,,,アキタリビングライフ,0
1117,3430002019694,登記記録の閉鎖等,0,2022-04-11,2022-04-01,株式会社ミロク,,株式会社,北海道,札幌市北区,北三十二条西５丁目１番２３号ビアンノース１Ｆ,,01,102,0010032,,,2022-04-01,合併による解散等,3430001028663,令和４年４月１日札幌市北区北三十二条西五丁目１番２３号ビアンノース１階コアファルマ株式会社（3430001028663）に合併し解散,2015-10-05,1,,,,,ミロク,0
1124,3450001004547,登記記録の閉鎖等,0,2022-04-11,2022-03-31,株式会社ビジネス保険クラブ,,株式会社,北海道,旭川市,錦町１５丁目２９６３番地の１,,01,204,0700824,,,2022-03-31,合併による解散等,4450001006848,令和４年３月３１日北海道旭川市錦町十五丁目２９６３番地の１株式会社パーソナルベスト（4450001006848）に合併し解散,2015-10-05,1,,,,,ビジネスホケンクラブ,0
1130,3470002018668,登記記録の閉鎖等,0,2022-04-11,2022-04-04,有限会社森興業,,有限会社,香川県,東かがわ市,水主４５５番地,,37,207,7692606,,,2022-04-04,清算の結了等,,,2015-10-05,1,,,,,モリコウギョウ,0
1140,4010001033341,登記記録の閉鎖等,0,2022-04-11,2022-04-04,日本セラミツクエンジニヤリング株式会社,,株式会社,東京都,千代田区,神田錦町３丁目１６番地,,13,101,1010054,,,2022-04-04,合併による解散等,5200001021920,令和４年４月１日岐阜県瑞浪市寺河戸町７１９番地美濃窯業株式会社（5200001021920）に合併し解散,2015-10-05,1,"JAPAN CERAMIC ENGINEERING CO., LTD.",,,,ニホンセラミックエンジニヤリング,0
1163,4010401113809,登記記録の閉鎖等,0,2022-04-11,2022-04-05,楽天アドロール株式会社,,株式会社,東京都,世田谷区,玉川１丁目１４番１号,,13,112,1580094,,,2022-04-05,清算の結了等,,,2015-10-05,1,,,,,ラクテンアドロール,0
1180,4010602000574,登記記録の閉鎖等,0,2022-04-11,2022-03-31,有限会社エーコ,,有限会社,東京都,江東区,南砂５丁目２３番９号,,13,108,1360076,,,2022-03-31,清算の結了等,,,2015-10-05,1,,,,,エーコ,0
1193,4010903004778,登記記録の閉鎖等,0,2022-04-11,2022-04-04,リアン合同会社,,合同会社,東京都,世田谷区,南烏山２丁目３６番１号スクエアサイド芦花公園３０２,00115674,13,112,1570062,,,2022-04-04,清算の結了等,,,2019-02-05,1,,,,,リアン,0
1211,4011103008925,登記記録の閉鎖等,0,2022-04-11,2022-04-01,合同会社トモインターチェンジ,,合同会社,東京都,新宿区,西新宿７丁目４－７イマス浜田ビル５階,,13,104,1600023,,,2022-04-01,清算の結了等,,,2019-07-12,1,,,,,トモインターチェンジ,0
1225,4011702003302,登記記録の閉鎖等,0,2022-04-11,2022-04-05,有限会社君塚パッキング製作所,,有限会社,東京都,江戸川区,西小松川町２７番１９号,,13,123,1320032,,,2022-04-05,清算の結了等,,,2015-10-05,1,,,,,キミツカパッキングセイサクジョ,0
1234,4012401022114,登記記録の閉鎖等,0,2022-04-11,2022-03-31,株式会社い志井,,株式会社,東京都,調布市,上石原１丁目３２番地６,,13,208,1820035,,,2022-03-31,合併による解散等,3012401022115,令和４年３月３１日東京都調布市上石原一丁目３２番地６株式会社エムファクトリー（3012401022115）に合併し解散,2015-10-05,1,,,,,イシイ,0
1239,4013201003808,登記記録の閉鎖等,0,2022-04-11,2022-03-31,株式会社デザインサークル,,株式会社,東京都,目黒区,青葉台４丁目６番１７－６０２号,,13,110,1530042,,,2022-03-31,清算の結了等,,,2015-10-05,1,,,,,デザインサークル,0
1251,4020001118694,登記記録の閉鎖等,0,2022-04-11,2022-04-01,株式会社アービッツ,,株式会社,神奈川県,横浜市港北区,新横浜３丁目１７番地６,,14,109,2220033,,,2022-04-01,合併による解散等,5020001086288,令和４年４月１日横浜市港北区新横浜三丁目１７番地６株式会社アーゼスト（5020001086288）に合併し解散,2016-11-16,1,,,,,アービッツ,0
1288,4030002110666,登記記録の閉鎖等,0,2022-04-11,2022-03-31,有限会社広栄製作所,,有限会社,埼玉県,川口市,弥平３丁目３番１号,,11,203,3320002,,,2022-03-31,清算の結了等,,,2015-10-05,1,,,,,ヒロエイセイサクショ,0
1295,4040001013019,登記記録の閉鎖等,0,2022-04-11,2022-04-01,サカイ物流株式会社,,株式会社,千葉県,千葉市美浜区,新港１６９番地,,12,106,2610002,,,2022-04-01,合併による解散等,7040001002976,令和４年４月１日千葉市中央区本千葉町９番２１号シーエヌサービス株式会社（7040001002976）に合併し解散,2015-10-05,1,,,,,サカイブツリュウ,0
1314,4050002013883,登記記録の閉鎖等,0,2022-04-11,2022-04-01,有限会社半田屋,,有限会社,茨城県,土浦市,天川２丁目６番５号,,08,203,3000818,,,2022-04-01,清算の結了等,,,2015-10-05,1,,,,,ハンダヤ,0
1339,4110001004002,登記記録の閉鎖等,0,2022-04-11,2022-04-01,新潟トラック運送株式会社,,株式会社,新潟県,新潟市西区,流通センター６丁目３番地５,,15,107,9502031,,,2022-04-01,合併による解散等,3110001005281,令和４年４月１日新潟市西区流通センター六丁目２番地３丸運輸送株式会社（3110001005281）に合併し解散,2015-10-05,1,,,,,ニイガタトラックウンソウ,0
1344,4120001091064,登記記録の閉鎖等,0,2022-04-11,2022-04-01,森田ビル管理株式会社,,株式会社,大阪府,大阪市中央区,備後町２丁目４番６号,,27,128,5410051,,,2022-04-01,合併による解散等,2120001021007,令和４年４月１日大阪市中央区備後町二丁目４番６号東洋テックビルサービス株式会社（2120001021007）に合併し解散,2015-10-05,1,,,,,モリタビルカンリ,0
1384,4140001092952,登記記録の閉鎖等,0,2022-04-11,2022-04-01,神戸エステート株式会社,,株式会社,兵庫県,神戸市中央区,元町通４丁目６番１８号,,28,110,6500022,,,2022-04-01,合併による解散等,4140001024402,令和４年４月１日神戸市中央区下山手通二丁目１番１３号株式会社エル・ビー（4140001024402）に合併し解散,2015-10-05,1,,,,,コウベエステート,0
1390,4140002040456,登記記録の閉鎖等,0,2022-04-11,2022-04-06,有限会社金子組,,有限会社,兵庫県,尼崎市,東難波町３丁目１２番１号,,28,202,6600892,,,2022-04-06,清算の結了等,,,2015-10-05,1,,,,,カネコグミ,0
1421,4190002020437,登記記録の閉鎖等,0,2022-04-11,2022-04-01,新栄機設有限会社,,有限会社,三重県,鈴鹿市,平野町７７４４番地の１０,,24,207,5130835,,,2022-04-01,合併による解散等,5190001019314,令和４年４月１日三重県鈴鹿市国府町２６６番地３寺前エンジニアリング株式会社（5190001019314）に合併し解散,2015-10-05,1,,,,,シンエイキセツ,0
1437,4260001018103,登記記録の閉鎖等,0,2022-04-11,2022-04-07,美星化工株式会社,,株式会社,岡山県,井原市,美星町三山４３６６番地,,33,207,7141406,,,2022-04-07,清算の結了等,,,2015-10-05,1,,,,,ビセイカコウ,0
1442,4280002011872,登記記録の閉鎖等,0,2022-04-11,2022-04-07,有限会社富士石油,,有限会社,島根県,飯石郡飯南町,頓原２２６２番地３,,32,386,6903207,,,2022-04-07,清算の結了等,,,2015-10-05,1,,,,,フジセキユ,0
1452,4290801010784,登記記録の閉鎖等,0,2022-04-11,2022-03-28,有栄建設株式会社,,株式会社,福岡県,北九州市八幡西区,陣山２丁目８番７号,,40,109,8060012,,,2022-03-28,清算の結了等,,,2015-10-05,1,,,,,,0
1494,4470003002091,登記記録の閉鎖等,0,2022-04-11,2022-03-31,水野合名会社,,合名会社,香川県,小豆郡小豆島町,西村甲１８３１番地,,37,324,7614434,,,2022-03-31,清算の結了等,,,2021-12-28,1,,,,,ミズノ,0
1575,5011101069506,登記記録の閉鎖等,0,2022-04-11,2022-03-31,株式会社万象学学舎,,株式会社,東京都,新宿区,西新宿８丁目４番２号野村不動産西新宿ビル４階,,13,104,1600023,,,2022-03-31,清算の結了等,,,2015-10-05,1,,,,,バンショウガクガクシャ,0
1585,5011301023064,登記記録の閉鎖等,0,2022-04-11,2022-04-01,株式会社グリーンホールディングス,,株式会社,東京都,杉並区,堀ノ内３丁目５２番１４号湯浅ビル,,13,115,1660013,,,2022-04-01,合併による解散等,5011301025556,令和４年４月１日東京都杉並区梅里一丁目７番７号新高円寺ツインビルグリーンネクスト株式会社（5011301025556）に合併し解散,2017-04-11,1,,,,,グリーンホールディングス,0
1617,5021001051711,登記記録の閉鎖等,0,2022-04-11,2022-04-01,湘南介護株式会社,,株式会社,神奈川県,茅ヶ崎市,十間坂２丁目２番３３号,,14,207,2530045,,,2022-04-01,合併による解散等,5021001059473,令和４年４月１日神奈川県茅ヶ崎市萩園２７６７番地湘南ライフケア株式会社（5021001059473）に合併し解散,2015-10-05,1,,,,,ショウナンカイゴ,0
1651,5040002071849,登記記録の閉鎖等,0,2022-04-11,2022-04-01,良品住宅株式会社,,株式会社,神奈川県,横浜市港南区,日限山１丁目５２番１号,,14,111,2330015,,,2022-04-01,清算の結了等,,,2015-10-05,1,,,,,リョウヒンジュウタク,0
1675,5070002029571,登記記録の閉鎖等,0,2022-04-11,2022-04-01,有限会社昭和産業,,有限会社,群馬県,邑楽郡大泉町,坂田４丁目１１番３２号,,10,524,3700532,,,2022-04-01,清算の結了等,,,2015-10-05,1,,,,,ショウワサンギョウ,0
1680,5080101020439,登記記録の閉鎖等,0,2022-04-11,2022-04-07,株式会社ＳＮ静岡,,株式会社,静岡県,三島市,東本町２丁目１番１４号,,22,206,4110831,,,2022-04-07,合併による解散等,1090001015525,令和４年４月１日山梨県甲府市徳行一丁目４番５号サニービルド２Ｆ株式会社学習空間（1090001015525）に合併し解散,2018-04-25,1,,,,,エスエヌシズオカ,0
1690,5110001036168,登記記録の閉鎖等,0,2022-04-11,2022-04-01,株式会社ＩＤＳ,,株式会社,新潟県,新潟市東区,岡山１４７番地１,,15,102,9500821,,,2022-04-01,清算の結了等,,,2021-11-04,1,,,,,アイディーエス,0
1694,5120001005147,登記記録の閉鎖等,0,2022-04-11,2022-04-01,共同総合サービス株式会社,,株式会社,大阪府,大阪市阿倍野区,阿倍野筋３丁目１０－１,,27,119,5450052,,,2022-04-01,合併による解散等,2120001021007,令和４年４月１日大阪市中央区備後町二丁目４番６号東洋テックビルサービス株式会社（2120001021007）に合併し解散,2015-10-05,1,,,,,キョウドウソウゴウサービス,0
1713,5120101020797,登記記録の閉鎖等,0,2022-04-11,2022-04-01,株式会社ウィンズコーポレーション,,株式会社,大阪府,高石市,綾園７丁目５番４７号,,27,225,5920014,,,2022-04-01,合併による解散等,2120101048882,令和４年４月１日大阪府高石市綾園七丁目５番４７号株式会社藤井（2120101048882）に合併し解散,2015-10-05,1,,,,,ウィンズコーポレーション,0
1716,5120901027546,登記記録の閉鎖等,0,2022-04-11,2022-04-06,株式会社ホンダドリーム近畿,,株式会社,大阪府,豊中市,曽根西町２丁目１９番２０号,,27,203,5610801,,,2022-04-06,合併による解散等,1011801020861,令和４年４月１日東京都葛飾区柴又二丁目２１番１１号株式会社ホンダドリームジャパン（1011801020861）に合併し解散,2015-10-05,1,,,,,ホンダドリームキンキ,0
1726,5140001014220,登記記録の閉鎖等,0,2022-04-11,2022-04-01,マルア商事株式会社,,株式会社,兵庫県,神戸市兵庫区,南仲町１番５号,,28,105,6520841,,,2022-04-01,合併による解散等,2140001013332,令和４年４月１日神戸市兵庫区中之島一丁目１番１号株式会社鈴木商店（2140001013332）に合併し解散,2015-10-05,1,,,,,マルアショウジ,0
1741,5140002068983,登記記録の閉鎖等,0,2022-04-11,2022-04-04,有限会社早田自動車整備工場,,有限会社,兵庫県,洲本市,桑間５４４番地の１,,28,205,6560014,,,2022-04-04,清算の結了等,,,2015-10-05,1,,,,,ハヤタジドウシャセイビコウジョウ,0
1769,5190001016526,登記記録の閉鎖等,0,2022-04-11,2022-04-01,株式会社宮崎商會,00075744,株式会社,三重県,四日市市,楠町南五味塚９７２番地,,24,202,5100104,,,2022-04-01,合併による解散等,4190001016527,令和４年４月１日三重県四日市市楠町南五味塚９７２番地株式会社宮崎本店（4190001016527）に合併し解散,2015-10-05,1,,,,,ミヤザキショウカイ,0
1784,5240001006158,登記記録の閉鎖等,0,2022-04-11,2022-04-07,太陽シヤーリング株式会社,,株式会社,広島県,広島市中区,江波南２丁目１５番３４号,,34,101,7300835,,,2022-04-07,合併による解散等,9470001009002,令和４年４月１日香川県坂出市江尻町４８３番地の１８太陽サカコー株式会社（9470001009002）に合併し解散,2015-10-05,1,,,,,タイヨウシャーリング,0
1789,5240005012771,登記記録の閉鎖等,0,2022-04-11,2022-04-01,一般社団法人三次市観光協会,,その他の設立登記法人,広島県,三次市,十日市南１丁目２番２３号三次市交通観光センター１階,,34,209,7280014,,,2022-04-01,合併による解散等,7240005014527,令和４年４月１日広島県三次市三次町１６９１番地４一般社団法人三次観光推進機構（7240005014527）に合併し解散,2015-10-05,1,,,,,ミヨシシカンコウキョウカイ,0
1790,5250001009291,登記記録の閉鎖等,0,2022-04-11,2022-04-01,東洋測量株式会社,,株式会社,山口県,周南市,中央町６番８号,,35,215,7460016,,,2022-04-01,合併による解散等,7250001015957,令和４年４月１日山口県光市大字小周防１５２３番地１株式会社ＳＵＲＤＥＣ（7250001015957）に合併し解散,2015-10-05,1,,,,,トウヨウソクリョウ,0
1816,5350001001882,登記記録の閉鎖等,0,2022-04-11,2022-04-06,宮崎ニチレキ株式会社,,株式会社,宮崎県,宮崎市,佐土原町下那珂７３７３番地１,,45,201,8800212,,,2022-04-06,合併による解散等,8290001002901,令和４年４月１日福岡市東区香椎浜ふ頭二丁目３番１７号九州ニチレキ工事株式会社（8290001002901）に合併し解散,2015-10-05,1,,,,,ミヤザキニチレキ,0
1836,5430001042729,登記記録の閉鎖等,0,2022-04-11,2022-04-01,株式会社こんもく,,株式会社,北海道,札幌市東区,東苗穂三条１丁目１２番１８号,,01,103,0070803,,,2022-04-01,合併による解散等,6430001007656,令和４年４月１日札幌市東区東苗穂三条一丁目１２番１８号株式会社柴田ベニヤ商会（6430001007656）に合併し解散,2015-10-05,1,,,,,コンモク,0
1840,5440002008686,登記記録の閉鎖等,0,2022-04-11,2022-04-01,有限会社ロッキーヒル,,有限会社,北海道,二海郡八雲町,黒岩３５０番地,,01,346,0493341,,,2022-04-01,清算の結了等,,,2015-10-05,1,,,,,ロッキーヒル,0
1848,5480001008254,登記記録の閉鎖等,0,2022-04-11,2022-04-06,株式会社ＮＥＯ設計,,株式会社,徳島県,徳島市,大原町広裏５－１１,,36,201,7708012,,,2022-04-06,清算の結了等,,,2015-10-05,1,,,,,ネオセッケイ,0
1865,6010001022359,登記記録の閉鎖等,0,2022-04-11,2022-04-01,タイメイテツク株式会社,,株式会社,東京都,千代田区,外神田２丁目１８番１２号,,13,101,1010021,,,2022-04-01,合併による解散等,6010001021996,令和４年４月１日東京都千代田区外神田二丁目１８番１２号大明金属工業株式会社（6010001021996）に合併し解散,2015-10-05,1,,,,,タイメイテック,0
1892,6010401145123,登記記録の閉鎖等,0,2022-04-11,2022-03-31,株式会社ＧＯＣＯＯ,,株式会社,東京都,港区,六本木１丁目４番５号アークヒルズサウスタワー１６階,,13,103,1060032,,,2022-03-31,合併による解散等,2010401124576,令和４年３月３１日東京都港区六本木一丁目４番５号株式会社ＦｉｖｅＨａｎｇｏｕｔｓ（2010401124576）に合併し解散,2019-04-17,1,,,,,ゴクー,0
1922,6011001025129,登記記録の閉鎖等,0,2022-04-11,2022-04-01,株式会社リマコーポレーション,,株式会社,東京都,目黒区,東山３丁目１番６号,,13,110,1530043,,,2022-04-01,合併による解散等,7011001065545,令和４年４月１日東京都目黒区東山三丁目１番６号オーサワジャパン株式会社（7011001065545）に合併し解散,2015-10-05,1,,,,,リマコーポレーション,0
1968,6013301008390,登記記録の閉鎖等,0,2022-04-11,2022-04-07,株式会社東武セキュリティ,,株式会社,東京都,豊島区,西池袋１丁目１番２５号,,13,116,1710021,,,2022-04-07,合併による解散等,6010601014516,令和４年４月１日東京都墨田区押上一丁目１番２号東武ビルマネジメント株式会社（6010601014516）に合併し解散,2015-10-05,1,,,,,トウブセキュリティ,0
1976,6013401000149,登記記録の閉鎖等,0,2022-04-11,2022-04-01,株式会社温泉協会,,株式会社,東京都,日野市,多摩平３丁目５番地の３,,13,212,1910062,,,2022-04-01,清算の結了等,,,2015-10-05,1,,,,,オンセンキョウカイ,0
1979,6020001051241,登記記録の閉鎖等,0,2022-04-11,2022-04-01,株式会社クラウン建装,,株式会社,神奈川県,横浜市神奈川区,泉町１７番地１０,,14,102,2210842,,,2022-04-01,清算の結了等,,,2015-10-05,1,,,,,クラウンケンソウ,0
1990,6021002034235,登記記録の閉鎖等,0,2022-04-11,2022-04-01,有限会社中津ミート,,有限会社,神奈川県,愛甲郡愛川町,三増１２２８番地,,14,401,2430308,,,2022-04-01,合併による解散等,2021002033884,令和４年４月１日神奈川県愛甲郡愛川町三増１２２８番地１海老名畜産株式会社（2021002033884）に合併し解散,2015-10-05,1,,,,,ナカツミート,0
2027,6050005007179,登記記録の閉鎖等,0,2022-04-11,2022-03-30,医療法人小泉チルドレンズクリニック,,その他の設立登記法人,茨城県,日立市,鮎川町３丁目１番２１号,,08,202,3160036,,,2022-03-30,清算の結了等,,,2015-10-05,1,,,,,コイズミチルドレン,0
2052,6120001177539,登記記録の閉鎖等,0,2022-04-11,2022-04-04,ジャパンパレタス株式会社,,株式会社,神奈川県,鎌倉市,御成町１５番７号樹々ビル２階,,14,204,2480012,,,2022-04-04,清算の結了等,,,2015-10-05,1,,,,,ジャパンパレタス,0
2063,6120101049051,登記記録の閉鎖等,0,2022-04-11,2022-04-01,株式会社ＴＫリアルエステート,,株式会社,大阪府,堺市美原区,太井５７８番地２,,27,147,5870062,,,2022-04-01,合併による解散等,9120101022807,令和４年４月１日大阪府堺市美原区太井５７８番地２株式会社哲建（9120101022807）に合併し解散,2015-10-05,1,,,,,ティーケーリアルエステート,0
2066,6120901020830,登記記録の閉鎖等,0,2022-04-11,2022-04-07,林建設株式会社,,株式会社,大阪府,箕面市,今宮１丁目７番１７号,,27,220,5620033,,,2022-04-07,清算の結了等,,,2015-10-05,1,,,,,ハヤシケンセツ,0
2108,6180002038008,登記記録の閉鎖等,0,2022-04-11,2022-04-04,有限会社コスモテック,,有限会社,愛知県,名古屋市昭和区,桜山町６丁目１０５番地の２,,23,107,4660044,,,2022-04-04,清算の結了等,,,2015-10-05,1,,,,,コスモテック,0
2118,6190002008579,登記記録の閉鎖等,0,2022-04-11,2022-03-31,有限会社河本商会,,有限会社,三重県,伊勢市,朝熊町２６０２番地６０,,24,203,5160021,,,2022-03-31,清算の結了等,,,2015-10-05,1,,,,,カワモトショウカイ,0
2128,6240001042821,登記記録の閉鎖等,0,2022-04-11,2022-04-05,中国三建サービス株式会社,,株式会社,広島県,広島市中区,白島中町７番１７号,,34,101,7300002,,,2022-04-05,合併による解散等,7290001006952,令和４年４月１日福岡市中央区舞鶴二丁目４番５号西日本三建サービス株式会社（7290001006952）に合併し解散,2015-10-05,1,,,,,チュウゴクサンケンサービス,0
2177,6380003001183,登記記録の閉鎖等,0,2022-04-11,2022-04-01,合資会社日東電機工業所,,合資会社,福島県,いわき市,小名浜字辰巳町３２番地の２,,07,204,9718101,,,2022-04-01,清算の結了等,,,2015-10-05,1,,,,,,0
2201,7010001062544,登記記録の閉鎖等,0,2022-04-11,2022-04-01,株式会社日本メディカル,,株式会社,東京都,中央区,銀座３丁目１１番８号,,13,102,1040061,,,2022-04-01,清算の結了等,,,2015-10-05,1,,,,,ニホンメディカル,0
2203,7010001098043,登記記録の閉鎖等,0,2022-04-11,2022-04-01,株式会社シーケム,,株式会社,東京都,中央区,日本橋１丁目１３番１号,,13,102,1030027,,,2022-04-01,合併による解散等,9010001098041,令和４年４月１日東京都中央区日本橋一丁目１３番１号日鉄ケミカル＆マテリアル株式会社（9010001098041）に合併し解散,2015-10-05,1,,,,,シーケム,0
2204,7010001124889,登記記録の閉鎖等,0,2022-04-11,2022-03-31,合泰株式会社,,株式会社,東京都,港区,赤坂６丁目１９番５４号,,13,103,1070052,,,2022-03-31,清算の結了等,,,2015-10-05,1,,,,,ゴウタイ,0
2207,7010001150737,登記記録の閉鎖等,0,2022-04-11,2022-04-05,株式会社愛のキューピッド東京,,株式会社,東京都,新宿区,西新宿８丁目１１番１０号,,13,104,1600023,,,2022-04-05,清算の結了等,,,2015-10-05,1,,,,,アイノキューピッドトウキョウ,0
2219,7010003016589,登記記録の閉鎖等,0,2022-04-11,2022-04-04,合同会社レイクプロパティ,,合同会社,東京都,新宿区,歌舞伎町２丁目２５番８号,,13,104,1600021,,,2022-04-04,清算の結了等,,,2015-10-05,1,,,,,レイクプロパティ,0
2268,7011101059505,登記記録の閉鎖等,0,2022-04-11,2022-04-05,株式会社ＯＫＫ,,株式会社,東京都,新宿区,西新宿３丁目７番２６号ハイネスロワイヤル８階,,13,104,1600023,,,2022-04-05,清算の結了等,,,2015-10-05,1,,,,,オーケーケー,0
2292,7013301032514,登記記録の閉鎖等,0,2022-04-11,2022-03-22,株式会社リヒト,,株式会社,東京都,豊島区,池袋２丁目６２番１－６０４号,,13,116,1710014,,,2022-03-22,清算の結了等,,,2015-10-05,1,,,,,リヒト,0
2296,7020001043642,登記記録の閉鎖等,0,2022-04-11,2022-04-01,エヌヴイ・コミュニケーションズ株式会社,,株式会社,神奈川県,横浜市鶴見区,鶴見中央４丁目３６番１号,,14,101,2300051,,,2022-04-01,合併による解散等,4020001032838,令和４年４月１日横浜市鶴見区鶴見中央四丁目３６番１号株式会社日本アシスト（4020001032838）に合併し解散,2015-10-05,1,,,,,エヌヴイコミュニケーションズ,0
2298,7020001117933,登記記録の閉鎖等,0,2022-04-11,2022-03-31,株式会社下元工業,,株式会社,神奈川県,川崎市川崎区,観音２丁目１２番４号サニーハイツＣ棟１０６号,,14,131,2100831,,,2022-03-31,清算の結了等,,,2016-09-21,1,,,,,シモモトコウギョウ,0
2301,7020002012316,登記記録の閉鎖等,0,2022-04-11,2022-03-31,有限会社グラン・プラス,,有限会社,神奈川県,大和市,中央林間西１丁目１４番２４号ロイヤルクレスト２０２,,14,213,2420008,,,2022-03-31,清算の結了等,,,2015-10-05,1,,,,,グランプラス,0
2308,7021001046890,登記記録の閉鎖等,0,2022-04-11,2022-04-01,株式会社ファーストリンク,,株式会社,神奈川県,横浜市中区,海岸通４丁目２０番１－４０１号,,14,104,2310002,,,2022-04-01,清算の結了等,,,2015-10-05,1,,,,,ファーストリンク,0
2318,7030001040556,登記記録の閉鎖等,0,2022-04-11,2022-04-01,株式会社ヨシトク,,株式会社,埼玉県,草加市,北谷２丁目３２番３８号,,11,221,3400046,,,2022-04-01,清算の結了等,,,2015-10-05,1,,,,,ヨシトク,0
2339,7040003016636,登記記録の閉鎖等,0,2022-04-11,2022-04-04,合同会社きらめきワールド,,合同会社,千葉県,木更津市,港南台３丁目９番地２,,12,206,2920827,,,2022-04-04,清算の結了等,,,2020-12-14,1,,,,,キラメキワールド,0
2349,7060001029068,登記記録の閉鎖等,0,2022-04-11,2022-04-04,株式会社３６５,,株式会社,栃木県,宇都宮市,駅前通り３丁目４番５号Ｕ－ＳＱＵＡＲＥ４Ｆ,,09,201,3210964,,,2022-04-04,清算の結了等,,,2017-02-08,1,,,,,サンロクゴ,0
2366,7120001165360,登記記録の閉鎖等,0,2022-04-11,2022-03-31,株式会社ダイナミック,,株式会社,大阪府,大阪市平野区,長吉六反３丁目５番５１号,,27,126,5470012,,,2022-03-31,清算の結了等,,,2015-10-05,1,,,,,ダイナミック,0
2388,7122001014695,登記記録の閉鎖等,0,2022-04-11,2022-04-01,大八工業株式会社,,株式会社,大阪府,東大阪市,水走２丁目２番２７号,,27,227,5780921,,,2022-04-01,合併による解散等,5122001004285,令和４年４月１日大阪府東大阪市水走二丁目２番２７号大和精工株式会社（5122001004285）に合併し解散,2015-10-05,1,,,,,ダイハチコウギョウ,0
2401,7140001031932,登記記録の閉鎖等,0,2022-04-11,2022-04-05,株式会社アスペン,,株式会社,東京都,新宿区,市谷薬王寺町７０番５－６０３号,,13,104,1620063,,,2022-04-05,清算の結了等,,,2015-10-05,1,,,,,アスペン,0
2409,7140002058982,登記記録の閉鎖等,0,2022-04-11,2022-04-01,有限会社つる家食品,,有限会社,兵庫県,西宮市,鳴尾浜１丁目６番３０号,,28,204,6638142,,,2022-04-01,合併による解散等,8140001069468,令和４年４月１日兵庫県西宮市鳴尾浜一丁目６番３０号株式会社ティーケーシン（8140001069468）に合併し解散,2015-10-05,1,,,,,ツルヤショクヒン,0
2434,7190001016524,登記記録の閉鎖等,0,2022-04-11,2022-04-01,宮崎造酢株式会社,00075743,株式会社,三重県,四日市市,楠町南五味塚９７２番地,,24,202,5100104,,,2022-04-01,合併による解散等,4190001016527,令和４年４月１日三重県四日市市楠町南五味塚９７２番地株式会社宮崎本店（4190001016527）に合併し解散,2015-10-05,1,,,,,ミヤザキゾウス,0
2446,7220001020217,登記記録の閉鎖等,0,2022-04-11,2022-04-04,株式会社カワヨシ,,株式会社,石川県,金沢市,高柳町５の２４番地１７,,17,201,9200005,,,2022-04-04,清算の結了等,,,2015-10-05,1,,,,,カワヨシ,0
2449,7240001032631,登記記録の閉鎖等,0,2022-04-11,2022-04-01,株式会社福山魚市場,,株式会社,広島県,福山市,引野町１丁目１番１号,,34,207,7210942,,,2022-04-01,合併による解散等,8240001032754,令和４年４月１日広島県福山市引野町一丁目１番１号株式会社福山地方卸売市場（8240001032754）に合併し解散,2015-10-05,1,,,,,フクヤマウオイチバ,0
2462,7280001002366,登記記録の閉鎖等,0,2022-04-11,2022-04-01,株式会社まちラボ,,株式会社,島根県,松江市,殿町６３番地,,32,201,6900887,,,2022-04-01,合併による解散等,5270001003994,令和４年４月１日島根県松江市殿町６３番地株式会社今井書店（5270001003994）に合併し解散,2015-10-05,1,,,,,マチラボ,0
2485,7330002025732,登記記録の閉鎖等,0,2022-04-11,2022-04-01,有限会社久木田モータース,,有限会社,熊本県,八代市,高下西町１３７１番地の３,00097896,43,202,8660072,,,2022-04-01,清算の結了等,,,2015-10-05,1,,,,,クキタモータース,0
2516,7430002062071,登記記録の閉鎖等,0,2022-04-11,2022-04-01,有限会社どるふぃん,,有限会社,北海道,新冠郡新冠町,字北星町１番地の２,,01,604,0592403,,,2022-04-01,合併による解散等,1430001055305,令和４年４月１日北海道新冠郡新冠町字北星町１番地の２中山石油株式会社（1430001055305）に合併し解散,2015-10-05,1,,,,,ドルフィン,0
2522,7470002006438,登記記録の閉鎖等,0,2022-04-11,2022-04-04,有限会社ホワイトリステッド,,有限会社,香川県,高松市,観光通１丁目１番１６号,,37,201,7600055,,,2022-04-04,清算の結了等,,,2015-10-05,1,,,,,ホワイトリステッド,0
2537,8010001179032,登記記録の閉鎖等,0,2022-04-11,2022-04-01,豊前バイオマスセンター株式会社,,株式会社,東京都,中央区,京橋２丁目２番１号,,13,102,1040031,,,2022-04-01,合併による解散等,2010001066839,令和４年４月１日東京都中央区京橋二丁目２番１号イーレックス株式会社（2010001066839）に合併し解散,2016-10-19,1,,,,,ブゼンバイオマスセンター,0
2540,8010001215860,登記記録の閉鎖等,0,2022-04-11,2022-04-05,エイドコンサルティング株式会社,,株式会社,東京都,千代田区,神田岩本町４番地５都築ビル６階,,13,101,1010033,,,2022-04-05,合併による解散等,2030001094648,令和４年３月３１日東京都荒川区西日暮里五丁目６番１０号ｇｒａｎ＋ＮＩＳＨＩＮＩＰＰＯＲＩ４階ティースリー株式会社（2030001094648）に合併し解散,2021-02-24,1,,,,,エイドコンサルティング,0
2547,8010003031414,登記記録の閉鎖等,0,2022-04-11,2022-04-01,イーレックス・ビジネスサービス合同会社,,合同会社,東京都,中央区,京橋２丁目２番１号,,13,102,1040031,,,2022-04-01,合併による解散等,2010001066839,令和４年４月１日東京都中央区京橋二丁目２番１号イーレックス株式会社（2010001066839）に合併し解散,2020-01-14,1,,,,,イーレックスビジネスサービス,0
2548,8010003032957,登記記録の閉鎖等,0,2022-04-11,2022-03-30,株式会社アコーディア・ゴルフ・マネジメント,,株式会社,東京都,品川区,東品川４丁目１２番４号,,13,109,1400002,,,2022-03-30,合併による解散等,8010001212024,令和４年３月３０日東京都品川区東品川四丁目１２番４号株式会社アコーディア・ゴルフ（8010001212024）に合併し解散,2020-09-03,1,,,,,アコーディアゴルフマネジメント,0
2582,8010502007419,登記記録の閉鎖等,0,2022-04-11,2022-04-01,有限会社寺島商店,,有限会社,東京都,台東区,千束４丁目３６番２号,,13,106,1110031,,,2022-04-01,合併による解散等,1010501002848,令和４年４月１日東京都台東区千束四丁目３６番２号筧興業株式会社（1010501002848）に合併し解散,2015-10-05,1,,,,,テラシマショウテン,0
2598,8010901030013,登記記録の閉鎖等,0,2022-04-11,2022-04-04,株式会社ＳＹＣ,,株式会社,東京都,世田谷区,中町１丁目１７番３号,,13,112,1580091,,,2022-04-04,清算の結了等,,,2015-10-05,1,,,,,エスワイシー,0
2629,8011103009069,登記記録の閉鎖等,0,2022-04-11,2022-04-01,合同会社ＥＳ３６,,合同会社,東京都,新宿区,下宮比町１番４号,,13,104,1620822,,,2022-04-01,清算の結了等,,,2019-08-28,1,,,,,イーエスサンジュウロク,0
2630,8011105003185,登記記録の閉鎖等,0,2022-04-11,2022-04-05,医療法人社団医幸会,,その他の設立登記法人,東京都,新宿区,西新宿２丁目４番１号新宿ＮＳビル４階,,13,104,1600023,,,2022-04-05,清算の結了等,,,2015-10-05,1,,,,,イコウカイ,0
2642,8011501011080,登記記録の閉鎖等,0,2022-04-11,2022-04-05,三起株式会社,,株式会社,東京都,北区,浮間４丁目３２番２６号,,13,117,1150051,,,2022-04-05,清算の結了等,,,2015-10-05,1,,,,,サンキ,0
2662,8020001117461,登記記録の閉鎖等,0,2022-04-11,2022-04-01,株式会社ファーストステージ,,株式会社,神奈川県,横浜市中区,海岸通４丁目２０番１－４０１号,,14,104,2310002,,,2022-04-01,清算の結了等,,,2016-08-15,1,,,,,ファーストステージ,0
2683,8030001116693,登記記録の閉鎖等,0,2022-04-11,2022-04-01,株式会社ティーアイ・プロ,,株式会社,埼玉県,さいたま市北区,東大成町１丁目４６０番地,,11,102,3310814,,,2022-04-01,合併による解散等,2030001011859,令和４年４月１日埼玉県さいたま市北区東大成町一丁目４６０番地ランスタッフ株式会社（2030001011859）に合併し解散,2016-10-12,1,,,,,ティーアイプロ,0
2696,8040001047401,登記記録の閉鎖等,0,2022-04-11,2022-04-01,ＣＮカーメイク株式会社,,株式会社,千葉県,千葉市美浜区,新港１８４番地,,12,106,2610002,,,2022-04-01,合併による解散等,7040001002976,令和４年４月１日千葉市中央区本千葉町９番２１号シーエヌサービス株式会社（7040001002976）に合併し解散,2015-10-05,1,,,,,シーエヌカーメイク,0
2711,8040005009141,登記記録の閉鎖等,0,2022-04-11,2022-04-01,送変電機器千葉協同組合,,その他の設立登記法人,千葉県,市原市,八幡海岸通７番地,,12,219,2900067,,,2022-04-01,清算の結了等,,,2015-10-05,1,,,,,ソウヘンデンキキチバ,0
2715,8050001021578,登記記録の閉鎖等,0,2022-04-11,2022-04-01,株式会社富士屋ホテル,,株式会社,茨城県,潮来市,潮来１０２番地,,08,223,3112424,,,2022-04-01,清算の結了等,,,2015-10-05,1,,,,,フジヤホテル,0
2719,8050002032467,登記記録の閉鎖等,0,2022-04-11,2022-04-01,有限会社鈴興建設,,有限会社,茨城県,北茨城市,平潟町１２８６番地,,08,215,3191701,,,2022-04-01,清算の結了等,,,2015-10-05,1,,,,,スズコウケンセツ,0
2720,8050002044330,登記記録の閉鎖等,0,2022-04-11,2022-04-01,秋元観光有限会社,,有限会社,茨城県,結城市,大字小森３２２番地,,08,207,3070011,,,2022-04-01,清算の結了等,,,2015-10-05,1,,,,,アキモト,0
2736,8100002022272,登記記録の閉鎖等,0,2022-04-11,2022-04-05,有限会社丸山百貨店,,有限会社,長野県,松本市,梓川倭７６５番地,,20,202,3901701,,,2022-04-05,清算の結了等,,,2015-10-05,1,,,,,マルヤマヒャッカテン,0
2739,8100002036009,登記記録の閉鎖等,0,2022-04-11,2022-04-05,有限会社小笠原鋼業,,有限会社,長野県,飯田市,上久堅７０６番地１,,20,205,3992611,,,2022-04-05,清算の結了等,,,2015-10-05,1,,,,,オガサワラコウギョウ,0
2742,8120001025299,登記記録の閉鎖等,0,2022-04-11,2022-04-01,堀内通商株式会社,,株式会社,大阪府,大阪市住之江区,平林北２丁目７番２７号,,27,125,5590026,,,2022-04-01,合併による解散等,9120001025298,令和４年４月１日大阪市天王寺区大道一丁目７番１５号堀内運送株式会社（9120001025298）に合併し解散,2015-10-05,1,,,,,ホリウチツウショウ,0
2779,8140001108201,登記記録の閉鎖等,0,2022-04-11,2022-04-07,株式会社パークリソシア,,株式会社,兵庫県,尼崎市,水堂町３丁目１番２１号,,28,202,6610026,,,2022-04-07,合併による解散等,3120001021410,令和４年４月１日大阪市平野区長吉出戸六丁目１４番３０号株式会社ビティー（3120001021410）に合併し解散,2017-11-15,1,,,,,パークリソシア,0
2791,8150002010751,登記記録の閉鎖等,0,2022-04-11,2022-04-04,有限会社ヒューマンマネージメント,,有限会社,奈良県,北葛城郡広陵町,大字三吉７１７番地１３,,29,426,6350823,,,2022-04-04,清算の結了等,,,2015-10-05,1,,,,,ヒューマンマネージマント,0
2796,8180001006995,登記記録の閉鎖等,0,2022-04-11,2022-04-01,株式会社土古センター,,株式会社,愛知県,名古屋市港区,小碓３丁目１１２番地,,23,111,4550801,,,2022-04-01,合併による解散等,6180001006527,令和４年４月１日名古屋市港区小碓三丁目１１２番地三立興業株式会社（6180001006527）に合併し解散,2015-10-05,1,,,,,ドンコセンター,0
2799,8180001033692,登記記録の閉鎖等,0,2022-04-11,2022-04-01,アオイ技建工業株式会社,,株式会社,愛知県,名古屋市北区,苗田町１５番地,,23,103,4620009,,,2022-04-01,合併による解散等,5180001013276,令和４年４月１日名古屋市北区苗田町１６番地株式会社ビルメン（5180001013276）に合併し解散,2015-10-05,1,,,,,アオイギケンコウギョウ,0
2825,8200002015670,登記記録の閉鎖等,0,2022-04-11,2022-04-06,有限会社ピュア,,有限会社,岐阜県,揖斐郡池田町,草深１２７番地の２,,21,404,5032418,,,2022-04-06,清算の結了等,,,2015-10-05,1,,,,,ピュア,0
2826,8200003003930,登記記録の閉鎖等,0,2022-04-11,2022-04-07,ＫＹＵＥＮＤＯ合同会社,,合同会社,岐阜県,美濃加茂市,深田町３丁目３番２２号,,21,211,5050043,,,2022-04-07,清算の結了等,,,2017-02-06,1,,,,,キューエンドウ,0
2827,8220001005126,登記記録の閉鎖等,0,2022-04-11,2022-04-04,日本システム通信特機株式会社,,株式会社,石川県,金沢市,増泉３丁目１４番３３号,,17,201,9218025,,,2022-04-04,清算の結了等,,,2015-10-05,1,,,,,ニホンシステムツウシントッキ,0
2831,8240001032738,登記記録の閉鎖等,0,2022-04-11,2022-04-01,福山大同青果株式会社,,株式会社,広島県,福山市,引野町１丁目１番１号,,34,207,7210942,,,2022-04-01,合併による解散等,8240001032754,令和４年４月１日広島県福山市引野町一丁目１番１号株式会社福山地方卸売市場（8240001032754）に合併し解散,2015-10-05,1,,,,,フクヤマダイドウセイカ,0
2858,8290801016349,登記記録の閉鎖等,0,2022-04-11,2022-04-05,株式会社サンウエックス,,株式会社,福岡県,田川市,大字川宮１２００番地,,40,206,8260042,,,2022-04-05,合併による解散等,6290001056024,令和４年４月１日福岡市博多区千代一丁目１番５号太陽セランドホールディングス株式会社（6290001056024）に合併し解散,2015-10-05,1,,,,,サンウエックス,0
2863,8300001000639,登記記録の閉鎖等,0,2022-04-11,2022-04-01,ネッツトヨタ佐賀株式会社,,株式会社,佐賀県,佐賀市,新栄西２丁目６番７号,,41,201,8400859,,,2022-04-01,合併による解散等,4300001000527,令和４年４月１日佐賀市嘉瀬町大字扇町２４８０番地佐賀トヨタ自動車株式会社（4300001000527）に合併し解散,2015-10-05,1,,,,,ネッツトヨタサガ,0
2870,8330001000322,登記記録の閉鎖等,0,2022-04-11,2022-04-01,株式会社インターライフ,,株式会社,熊本県,熊本市中央区,萩原町１２番１６号,,43,101,8600832,,,2022-04-01,合併による解散等,7330001007426,令和４年４月１日熊本市東区長嶺南七丁目８番５号西部ガスリアルライフ熊本株式会社（7330001007426）に合併し解散,2015-10-05,1,,,,,インターライフ,0
2897,8390002011016,登記記録の閉鎖等,0,2022-04-11,2022-04-01,有限会社マルサ住宅設備,,有限会社,山形県,新庄市,住吉町８番３号,,06,205,9960022,,,2022-04-01,清算の結了等,,,2015-10-05,1,,,,,マルサジュウタクセツビ,0
2902,8430001037247,登記記録の閉鎖等,0,2022-04-11,2022-04-01,札幌白洋舍株式会社,,株式会社,北海道,札幌市西区,山の手六条１丁目３番３４号,,01,107,0630006,,,2022-04-01,合併による解散等,9430001032627,令和４年４月１日札幌市白石区東札幌一条一丁目１番２０号白洋舍北海道リネンサプライ株式会社（9430001032627）に合併し解散,2015-10-05,1,,,,,サッポロハクヨウシャ,0
2924,9010001211363,登記記録の閉鎖等,0,2022-04-11,2022-04-01,ＳＭＦＬみらいパートナーズインベストメント２号株式会社,,株式会社,東京都,千代田区,丸の内１丁目３番２号,,13,101,1000005,,,2022-04-01,合併による解散等,5010001195354,令和４年４月１日東京都千代田区丸の内一丁目３番２号ＳＭＦＬみらいパートナーズ株式会社（5010001195354）に合併し解散,2020-08-04,1,,,,,エスエムエフエルミライパートナーズインベストメントニゴウ,0
2945,9010403024256,登記記録の閉鎖等,0,2022-04-11,2022-03-30,合同会社ＤＡヘルスケア８,,合同会社,東京都,港区,元赤坂１丁目１番７号,,13,103,1070051,,,2022-03-30,清算の結了等,,,2020-12-04,1,,,,,ディーエイヘルスケアエイト,0
2959,9010702000750,登記記録の閉鎖等,0,2022-04-11,2022-04-06,有限会社井出興産,,有限会社,東京都,品川区,南大井５丁目２６番１号,,13,109,1400013,,,2022-04-06,清算の結了等,,,2015-10-05,1,,,,,イデコウサン,0
2965,9011001065510,登記記録の閉鎖等,0,2022-04-11,2022-04-01,株式会社フローラ,,株式会社,東京都,目黒区,東山３丁目１番６号,,13,110,1530043,,,2022-04-01,合併による解散等,7011001065545,令和４年４月１日東京都目黒区東山三丁目１番６号オーサワジャパン株式会社（7011001065545）に合併し解散,2015-10-05,1,,,,,フローラ,0
2997,9011802020044,登記記録の閉鎖等,0,2022-04-11,2022-04-04,有限会社ユタカオート興業,,有限会社,東京都,足立区,江北７丁目２２番１０号,,13,121,1230872,,,2022-04-04,清算の結了等,,,2015-10-05,1,,,,,ユタカオートコウギョウ,0
3005,9020001086391,登記記録の閉鎖等,0,2022-04-11,2022-04-01,株式会社キャピタルプロパティーズ,,株式会社,神奈川県,横浜市西区,北幸２丁目９番１４号,,14,103,2200004,,,2022-04-01,合併による解散等,1020001016323,令和４年４月１日横浜市西区南幸二丁目１番２２号株式会社相鉄アーバンクリエイツ（1020001016323）に合併し解散,2015-10-05,1,,,,,キャピタルプロパティーズ,0
3037,9040001099581,登記記録の閉鎖等,0,2022-04-11,2022-04-01,小川重機運輸株式会社,,株式会社,千葉県,佐倉市,上志津１０６８番地３８,,12,212,2850846,,,2022-04-01,清算の結了等,,,2017-04-05,1,,,,,,0
3040,9040002024464,登記記録の閉鎖等,0,2022-04-11,2022-04-01,有限会社野村興業,,有限会社,千葉県,船橋市,藤原６丁目７番２３号,,12,204,2730047,,,2022-04-01,清算の結了等,,,2015-10-05,1,,,,,ノムラコウギョウ,0
3053,9060003002459,登記記録の閉鎖等,0,2022-04-11,2022-04-04,ファイブファースト合同会社,,合同会社,栃木県,栃木市,樋ノ口町３９６番地１６,,09,203,3280024,,,2022-04-04,清算の結了等,,,2017-01-04,1,,,,,ファイブファースト,0
3075,9120001073669,登記記録の閉鎖等,0,2022-04-11,2022-04-01,アスペック株式会社,,株式会社,大阪府,大阪市中央区,南船場１丁目１０番２号,,27,128,5420081,,,2022-04-01,清算の結了等,,,2015-10-05,1,,,,,アスペック,0
3110,9122005002496,登記記録の閉鎖等,0,2022-04-11,2022-04-04,特定非営利活動法人かがやきＳＩＴＡ,,その他の設立登記法人,大阪府,八尾市,堤町２丁目７番地の５２,,27,212,5810832,,,2022-04-04,清算の結了等,,,2015-10-05,1,,,,,カガヤキサイタ,0
3120,9140001095001,登記記録の閉鎖等,0,2022-04-11,2022-03-31,キーズ・プランニング株式会社,,株式会社,兵庫県,尼崎市,西難波町１丁目３３番１７号,,28,202,6600893,,,2022-03-31,清算の結了等,,,2015-10-05,1,,,,,キーズプランニング,0
3140,9180001081666,登記記録の閉鎖等,0,2022-04-11,2022-04-01,株式会社ファンタジア,,株式会社,愛知県,丹羽郡扶桑町,大字高雄字下山１３７番地,,23,362,4800102,,,2022-04-01,合併による解散等,9180002082011,令和４年４月１日愛知県丹羽郡扶桑町大字高雄字下山１３７番地株式会社大幸堂薬局（9180002082011）に合併し解散,2015-10-05,1,,,,,ファンタジア,0
3153,9180002075304,登記記録の閉鎖等,0,2022-04-11,2022-04-01,有限会社アフロディーテ,,有限会社,愛知県,丹羽郡扶桑町,大字高雄字下山１３７番地,,23,362,4800102,,,2022-04-01,合併による解散等,9180002082011,令和４年４月１日愛知県丹羽郡扶桑町大字高雄字下山１３７番地株式会社大幸堂薬局（9180002082011）に合併し解散,2015-10-05,1,,,,,アフロディーテ,0
3163,9190001001037,登記記録の閉鎖等,0,2022-04-11,2022-04-01,三重ＮＤＳ株式会社,,株式会社,三重県,津市,あのつ台２丁目２番４号,,24,201,5140131,,,2022-04-01,合併による解散等,3190001015091,令和４年４月１日三重県松阪市嬉野一志町字口山田９５５番地７株式会社シーキューブ三重（3190001015091）に合併し解散,2015-10-05,1,,,,,ミエエヌディーエス,0
3179,9240001029163,登記記録の閉鎖等,0,2022-04-11,2022-04-05,株式会社ライフ・サポート,,株式会社,広島県,廿日市市,前空１丁目１０番１６号,,34,213,7390424,,,2022-04-05,清算の結了等,,,2015-10-05,1,,,,,ライフサポート,0
3181,9240001031078,登記記録の閉鎖等,0,2022-04-11,2022-04-01,株式会社瀬尾,,株式会社,広島県,福山市,引野町３丁目３７番２７号,,34,207,7210942,,,2022-04-01,清算の結了等,,,2015-10-05,1,,,,,セオ,0
3192,9290001023905,登記記録の閉鎖等,0,2022-04-11,2022-04-06,株式会社ホンダドリーム九州,,株式会社,福岡県,福岡市博多区,博多駅南３丁目１９番３号,,40,132,8120016,,,2022-04-06,合併による解散等,1011801020861,令和４年４月１日東京都葛飾区柴又二丁目２１番１１号株式会社ホンダドリームジャパン（1011801020861）に合併し解散,2015-10-05,1,,,,,ホンダドリームキュウシュウ,0
3195,9290001081861,登記記録の閉鎖等,0,2022-04-11,2022-04-01,若杉向ノ山土地管理株式会社,,株式会社,福岡県,糟屋郡篠栗町,大字若杉５８３番地,,40,342,8112411,,,2022-04-01,清算の結了等,,,2018-06-18,1,,,,,ワカスギムカイノヤマトチカンリ,0
3204,9310001001965,登記記録の閉鎖等,0,2022-04-11,2022-04-06,株式会社ホンダ四輪販売長崎,,株式会社,長崎県,長崎市,田中町２３４番地２,,42,201,8510134,,,2022-04-06,合併による解散等,2290001016634,令和４年４月１日福岡市中央区赤坂一丁目１３番１２号株式会社ホンダ四輪販売九州北（2290001016634）に合併し解散,2015-10-05,1,,,,,ホンダヨンリンハンバイナガサキ,0
3213,9350001006804,登記記録の閉鎖等,0,2022-04-11,2022-04-05,旭化成オフィスワン株式会社,,株式会社,宮崎県,延岡市,旭町２丁目１番地３,,45,203,8820847,,,2022-04-05,合併による解散等,5120001059606,令和４年４月１日東京都千代田区有楽町一丁目１番２号旭化成株式会社（5120001059606）に合併し解散,2015-10-05,1,,,,,アサヒカセイオフィスワン,0
3225,9370002017022,登記記録の閉鎖等,0,2022-04-11,2022-04-01,有限会社えん,,有限会社,宮城県,仙台市青葉区,上愛子字蛇台原６１番地の４,,04,101,9893124,,,2022-04-01,合併による解散等,1370001010431,令和４年４月１日仙台市青葉区上愛子字蛇台原６１番地の４株式会社丸丙（1370001010431）に合併し解散,2015-10-05,1,,,,,エン,0
3236,9380002030107,登記記録の閉鎖等,0,2022-04-11,2022-04-04,有限会社末永商事,,有限会社,福島県,双葉郡富岡町,大字小良ケ浜字市の沢７番地,,07,543,9791101,,,2022-04-04,清算の結了等,,,2015-10-05,1,,,,,スエナガショウジ,0
3243,9400502001587,登記記録の閉鎖等,0,2022-04-11,2022-04-07,有限会社フオーメンズ,,有限会社,岩手県,一関市,大東町摺沢字荒屋敷３０番地６,00105996,03,209,0290523,,,2022-04-07,清算の結了等,,,2015-10-05,1,,,,,フオーメンズ,0
3251,9420002000922,登記記録の閉鎖等,0,2022-04-11,2022-04-04,有限会社恊利行,,有限会社,青森県,青森市,安方２丁目１７番１５号,,02,201,0300803,,,2022-04-04,清算の結了等,,,2015-10-05,1,,,,,キョウリコウ,0
