sequenceNumber,corporateNumber,process,correct,updateDate,changeDate,name,nameImageId,kind,prefectureName,cityName,streetNumber,addressImageId,prefectureCode,cityCode,postCode,addressOutside,addressOutsideImageId,closeDate,closeCause,successorCorporateNumber,changeCause,assignmentDate,latest,enName,enPrefectureName,enCityName,enAddressOutside,furigana,hihyoji
8,1010001251961,新規,0,2025-02-04,2025-02-04,ＩＣＯ株式会社,,株式会社,東京都,千代田区,外神田２丁目１番８号スクエア秋葉原１１０号室,,13,101,1010021,,,,,,,2025-02-04,1,,,,,アイシーオー,0
9,1010001251986,新規,0,2025-02-04,2025-02-04,株式会社女神ホーム,,株式会社,東京都,中央区,銀座１丁目１２番４号Ｎ＆ＥＢＬＤ．６Ｆ,,13,102,1040061,,,,,,,2025-02-04,1,,,,,メガミホーム,0
10,1010001252084,新規,0,2025-02-04,2025-02-04,株式会社ＮＥＭＯＲＹ,,株式会社,東京都,文京区,湯島３丁目１９－１１湯島ファーストビル２Ｆ,,13,105,1130034,,,,,,,2025-02-04,1,,,,,ニモリ,0
13,1010003046286,新規,0,2025-02-04,2025-02-04,ＩｎＳｈｉｆｔ合同会社,,合同会社,東京都,中央区,日本橋室町１丁目１１番１２号日本橋水野ビル７階,,13,102,1030022,,,,,,,2025-02-04,1,,,,,インシフト,0
14,1010101016505,新規,0,2025-02-04,2025-02-04,ＪＩＳＵＬＩＦＥ　ＴＥＣＨＮＯＬＯＧＹ株式会社,,株式会社,東京都,八王子市,元横山町２丁目１番８－４０３号,,13,201,1920063,,,,,,,2025-02-04,1,,,,,ジスライフテクノロジー,0
16,1010401187987,新規,0,2025-02-04,2025-02-04,ミライリンク株式会社,,株式会社,東京都,港区,虎ノ門３丁目１番１号虎ノ門三丁目ビルディング２階Ｑｕｅｓｔ虎ノ門,,13,103,1050001,,,,,,,2025-02-04,1,,,,,ミライリンク,0
18,1010403034304,新規,0,2025-02-04,2025-02-04,ＫＩＳＥ合同会社,,合同会社,東京都,港区,南青山２丁目４－１２南青山アサヒビル天翔オフィス南青山ＡＮＮＥＸ地下１階００２号室,,13,103,1070062,,,,,,,2025-02-04,1,,,,,キセ,0
21,1010405023998,新規,0,2025-02-04,2025-02-04,弁護士法人トリニティ法律事務所,,その他の設立登記法人,東京都,港区,虎ノ門１丁目１２番１２号高宮ビル３階,00137890,13,103,1050001,,,,,,,2025-02-04,1,,,,,トリニティホウリツジムショ,0
23,1010503007721,新規,0,2025-02-04,2025-02-04,ノバシス合同会社,,合同会社,東京都,台東区,小島２丁目１１－１１ＬＩＧビル,,13,106,1110056,,,,,,,2025-02-04,1,,,,,ノバシス,0
30,1010701047206,新規,0,2025-02-04,2025-02-04,バイタリティ株式会社,,株式会社,東京都,品川区,東品川４丁目１２番８号品川シーサイドイーストタワー１５Ｆ,,13,109,1400002,,,,,,,2025-02-04,1,,,,,バイタリティ,0
31,1010703007554,新規,0,2025-02-04,2025-02-04,電脳空間合同会社,,合同会社,東京都,品川区,西五反田２丁目１８番３－７０９号,,13,109,1410031,,,,,,,2025-02-04,1,,,,,デンノウクウカン,0
37,1010901056758,新規,0,2025-02-04,2025-02-04,ＩＮＦＩＮＩＸ株式会社,,株式会社,東京都,世田谷区,上野毛１丁目９番６－２Ｆ,,13,112,1580093,,,,,,,2025-02-04,1,,,,,インフィニックス,0
38,1010901056766,新規,0,2025-02-04,2025-02-04,株式会社ＰｅＡＲ,,株式会社,東京都,世田谷区,池尻３丁目１６番７号ドルチェ池尻１０３,,13,112,1540001,,,,,,,2025-02-04,1,,,,,ペア,0
48,1011001167529,新規,0,2025-02-04,2025-02-04,ゆたか株式会社,,株式会社,東京都,渋谷区,神南１丁目１１番４号ＦＰＧリンクス神南５階,,13,113,1500041,,,,,,,2025-02-04,1,,,,,ユタカ,0
49,1011005010882,新規,0,2025-02-04,2025-02-04,司法書士法人油田事務所,,その他の設立登記法人,東京都,渋谷区,代々木３丁目２６番２号,,13,113,1510053,,,,,,,2025-02-04,1,,,,,アブラダジムショ,0
55,1011105011327,新規,0,2025-02-04,2025-02-04,社会保険労務士法人新宿御苑事務所,,その他の設立登記法人,東京都,新宿区,新宿２丁目１５番２号岩本和裁ビル３Ｆ,,13,104,1600022,,,,,,,2025-02-04,1,,,,,シンジュクギョエンジムショ,0
60,1011701028030,新規,0,2025-02-04,2025-02-04,ワイディーズ株式会社,,株式会社,東京都,江戸川区,船堀７丁目１２番２０号,,13,123,1340091,,,,,,,2025-02-04,1,,,,,ワイディーズ,0
62,1011801045578,新規,0,2025-02-04,2025-02-04,株式会社ＢＲＵＳＨ‐ＵＰ　ＷＯＲＫＳ,,株式会社,東京都,葛飾区,新宿６丁目３番１号,,13,122,1250051,,,,,,,2025-02-04,1,,,,,ブラッシュアップワークス,0
64,1012401042734,新規,0,2025-02-04,2025-02-04,株式会社ＳＹＮＮＣＡ,,株式会社,東京都,三鷹市,上連雀１丁目１２－１７三鷹ビジネスパーク１号館Ｂ１Ｆ、ＭｕｓａｓｈｉｎｏＶａｌｌｅｙ,,13,204,1810012,,,,,,,2025-02-04,1,,,,,シンカ,0
66,1012701018681,新規,0,2025-02-04,2025-02-04,株式会社シャイニングスター,,株式会社,東京都,東村山市,栄町２丁目２７番地５砂川ビル３０２,,13,213,1890013,,,,,,,2025-02-04,1,,,,,シャイニングスター,0
74,1020001161111,新規,0,2025-02-04,2025-02-04,徳田機設株式会社,,株式会社,神奈川県,横浜市鶴見区,北寺尾６丁目２４番１４号,,14,101,2300074,,,,,,,2025-02-04,1,,,,,トクダキセツ,0
75,1020001161136,新規,0,2025-02-04,2025-02-04,株式会社リユース企画,,株式会社,神奈川県,横浜市瀬谷区,阿久和南２丁目５番地４マイキャッスル三ツ境ＩＩ６１２,00137877,14,114,2460026,,,,,,,2025-02-04,1,,,,,リユースキカク,0
78,1020003027640,新規,0,2025-02-04,2025-02-04,家の管理屋合同会社,,合同会社,神奈川県,川崎市多摩区,中野島３丁目５－２１－４０２,,14,135,2140012,,,,,,,2025-02-04,1,,,,,イエノカンリヤ,0
79,1020003027723,新規,0,2025-02-04,2025-02-04,合同会社ライフサポート,,合同会社,神奈川県,横浜市西区,北幸２丁目１０番４８号むつみビル３階,,14,103,2200004,,,,,,,2025-02-04,1,,,,,ライフサポート,0
80,1020003027731,新規,0,2025-02-04,2025-02-04,ＮＡＫＡＴＵＥ　Ｆｏｒｅｓｔ合同会社,,合同会社,神奈川県,横浜市神奈川区,鶴屋町３丁目３３番２０号若葉ビル２階,,14,102,2210835,,,,,,,2025-02-04,1,,,,,ナカツエフォレスト,0
84,1021003015536,新規,0,2025-02-04,2025-02-04,合同会社トラストコンサルティング,,合同会社,神奈川県,逗子市,沼間１丁目１２－１０,,14,208,2490004,,,,,,,2025-02-04,1,,,,,,0
88,1030001164682,新規,0,2025-02-04,2025-02-04,成田産業株式会社,,株式会社,埼玉県,北足立郡伊奈町,栄４丁目６９番地１,,11,301,3620805,,,,,,,2025-02-04,1,,,,,,0
89,1030001164732,新規,0,2025-02-04,2025-02-04,株式会社宮前製作所,,株式会社,埼玉県,さいたま市南区,文蔵５丁目６番６号,,11,108,3360025,,,,,,,2025-02-04,1,,,,,ミヤマエセイサクジョ,0
102,1040001137217,新規,0,2025-02-04,2025-02-04,株式会社ＪＹ,,株式会社,千葉県,柏市,明原１丁目１１番１１号,,12,217,2770843,,,,,,,2025-02-04,1,,,,,ジェイワイ,0
103,1040001137241,新規,0,2025-02-04,2025-02-04,東邦商工株式会社,,株式会社,千葉県,船橋市,湊町２丁目１１番３号ＡＳ湊町ビル４Ｆ,,12,204,2730011,,,,,,,2025-02-04,1,,,,,トウホウショウコウ,0
104,1040001137266,新規,0,2025-02-04,2025-02-04,株式会社リノアクト,,株式会社,千葉県,市川市,市川南１丁目４番２１－５０１号市川ＤＡＩＫＩＣＨＩＢｌｄｇ．,,12,203,2720033,,,,,,,2025-02-04,1,,,,,リノアクト,0
108,1040003026731,新規,0,2025-02-04,2025-02-04,合同会社そよかぜ,,合同会社,千葉県,松戸市,西馬橋蔵元町１３－５０１,,12,207,2710046,,,,,,,2025-02-04,1,,,,,ソヨカゼ,0
109,1040003026756,新規,0,2025-02-04,2025-02-04,合同会社ＭＡＰ,,合同会社,千葉県,習志野市,香澄２丁目４番２４号,,12,216,2750022,,,,,,,2025-02-04,1,,,,,マップ,0
113,1050003008992,新規,0,2025-02-04,2025-02-04,合同会社ＳＰＩＣＡ,,合同会社,茨城県,石岡市,三村５７８０番地２,,08,205,3150048,,,,,,,2025-02-04,1,,,,,スピカ,0
114,1050003009000,新規,0,2025-02-04,2025-02-04,合同会社セカンドオフィス,,合同会社,茨城県,日立市,大みか町３丁目１２,,08,202,3191221,,,,,,,2025-02-04,1,,,,,セカンドオフィス,0
115,1070001042604,新規,0,2025-02-04,2025-02-04,株式会社Ｅデジタルサービス,,株式会社,群馬県,藤岡市,上大塚１２３０番地１,,10,209,3750054,,,,,,,2025-02-04,1,,,,,イーデジタルサービス,0
119,1080101025284,新規,0,2025-02-04,2025-02-04,株式会社ＷｉＲＥ,,株式会社,静岡県,沼津市,高砂町２番地の１,,22,203,4100016,,,,,,,2025-02-04,1,,,,,ワイヤー,0
121,1080401027724,新規,0,2025-02-04,2025-02-04,株式会社ＪＯＩＮ　ＴＥＣＨ,,株式会社,静岡県,浜松市中央区,高丘西３丁目２５番３８号,,22,138,4338118,,,,,,,2025-02-04,1,,,,,ジョインテック,0
122,1080403005190,新規,0,2025-02-04,2025-02-04,飛鷹合同会社,,合同会社,静岡県,掛川市,駅前１２番地の２ステーションホテル２、１階東,,22,213,4360077,,,,,,,2025-02-04,1,,,,,アスカ,0
125,1100005013291,新規,0,2025-02-04,2025-02-04,一般社団法人暮らすｒｏｏｍ’ｓ,,その他の設立登記法人,長野県,飯田市,鼎上山２６３５番地１０,,20,205,3950806,,,,,,,2025-02-04,1,,,,,クラスルームズ,0
134,1120001272476,新規,0,2025-02-04,2025-02-04,潤福株式会社,,株式会社,大阪府,大阪市大正区,三軒家西３丁目４番１６号中山ビル３０９Ｄ,,27,108,5510001,,,,,,,2025-02-04,1,,,,,ジュンフク,0
135,1120001272492,新規,0,2025-02-04,2025-02-04,清泉株式会社,,株式会社,大阪府,大阪市西成区,鶴見橋１丁目１０番１４号１０９室,,27,122,5570031,,,,,,,2025-02-04,1,,,,,セイセン,0
136,1120001272501,新規,0,2025-02-04,2025-02-04,昭明家和株式会社,,株式会社,大阪府,大阪市西淀川区,姫島２丁目４番１０号パークアベニュー２階Ａ室,,27,113,5550033,,,,,,,2025-02-04,1,,,,,ショウメイカワ,0
137,1120001272600,新規,0,2025-02-04,2025-02-04,株式会社ＴＡＹＵグループ,,株式会社,大阪府,大阪市淀川区,三津屋北１丁目２４－２３,,27,123,5320032,,,,,,,2025-02-04,1,,,,,タユグループ,0
138,1120001272609,新規,0,2025-02-04,2025-02-04,ＹＵＩアドバイザリー株式会社,,株式会社,大阪府,大阪市中央区,南本町２丁目３－１２エッジ本町,,27,128,5410054,,,,,,,2025-02-04,1,,,,,,0
140,1120003028546,新規,0,2025-02-04,2025-02-04,合同会社ネクストメディア,,合同会社,大阪府,大阪市西区,北堀江２丁目８－２,,27,106,5500014,,,,,,,2025-02-04,1,,,,,ネクストメディア,0
144,1120101070986,新規,0,2025-02-04,2025-02-04,株式会社斉＿,00137872,株式会社,大阪府,大阪狭山市,今熊２丁目１８２３狭山ヒルズＡ棟２０８室,,27,231,5890021,,,,,,,2025-02-04,1,,,,,サイキン,0
151,1120901050378,新規,0,2025-02-04,2025-02-04,株式会社ＣｏＣｏクオレ,,株式会社,大阪府,豊中市,夕日丘３丁目５番１６号,,27,203,5610864,,,,,,,2025-02-04,1,,,,,ココクオレ,0
152,1120901050386,新規,0,2025-02-04,2025-02-04,株式会社グローバル人財サポート,,株式会社,大阪府,吹田市,千里丘下２０－１６,,27,205,5650813,,,,,,,2025-02-04,1,,,,,グローバルジンザイサポート,0
153,1120903005537,新規,0,2025-02-04,2025-02-04,合同会社ＴｎｅｗＴ,,合同会社,大阪府,豊中市,中桜塚５丁目７－４９,,27,203,5610881,,,,,,,2025-02-04,1,,,,,ニューティー,0
159,1130001078889,新規,0,2025-02-04,2025-02-04,ＧＯ酒株式会社,,株式会社,京都府,京都市下京区,四条通室町東入函谷鉾町１０１番地アーバンネット四条烏丸ビル６Ｆ・７Ｆ,,26,106,6008009,,,,,,,2025-02-04,1,,,,,ゴーシュ,0
160,1130001078947,新規,0,2025-02-04,2025-02-04,株式会社堀田商店,,株式会社,京都府,城陽市,久世下大谷２１番地の３５,,26,207,6100102,,,,,,,2025-02-04,1,,,,,ホッタショウテン,0
163,1130003010189,新規,0,2025-02-04,2025-02-04,合同会社いちだ,,合同会社,京都府,京都市右京区,西院六反田町２アメニティ二番館１２号室,,26,108,6150047,,,,,,,2025-02-04,1,,,,,イチダ,0
171,1140001137289,新規,0,2025-02-04,2025-02-04,コネクト株式会社,,株式会社,兵庫県,伊丹市,瑞穂町１丁目８２番地カーサ瑞苑２０４号,,28,207,6640013,,,,,,,2025-02-04,1,,,,,コネクト,0
177,1150001027852,新規,0,2025-02-04,2025-02-04,テカポホーム株式会社,,株式会社,奈良県,生駒郡斑鳩町,龍田南５丁目７番３８号,00137879,29,344,6360153,,,,,,,2025-02-04,1,,,,,テカポホーム,0
178,1170001018478,新規,0,2025-02-04,2025-02-04,株式会社村上環境,,株式会社,和歌山県,和歌山市,打越町５番２５号,,30,201,6410053,,,,,,,2025-02-04,1,,,,,ムラカミカンキョウ,0
199,1180005020941,新規,0,2025-02-04,2025-02-04,特定非営利活動法人Ｃｏｍｅ　Ｏｎ　ＮＡＧＯＹＡ　Ａｒｅａ,,その他の設立登記法人,愛知県,瀬戸市,仲切町３番地,,23,204,4890042,,,,,,,2025-02-04,1,,,,,カモンナゴヤエリア,0
208,1200001043407,新規,0,2025-02-04,2025-02-04,株式会社冨田板金,,株式会社,岐阜県,岐阜市,折立６０１番地２,,21,201,5011132,,,,,,,2025-02-04,1,,,,,トミダバンキン,0
217,1240003007050,新規,0,2025-02-04,2025-02-04,合同会社５０９,,合同会社,広島県,広島市中区,舟入南３丁目１番４－３０２号,,34,101,7300847,,,,,,,2025-02-04,1,,,,,ゴーマルキュー,0
224,1290001108804,新規,0,2025-02-04,2025-02-04,株式会社成起,,株式会社,福岡県,久留米市,野中町９５４番地１２,,40,203,8390862,,,,,,,2025-02-04,1,,,,,ナルキ,0
225,1290001108829,新規,0,2025-02-04,2025-02-04,株式会社ＸＩＮ,,株式会社,福岡県,福岡市博多区,美野島３丁目２０番１０－４０６号,,40,132,8120017,,,,,,,2025-02-04,1,,,,,シン,0
226,1290001108845,新規,0,2025-02-04,2025-02-04,株式会社オレンジ,,株式会社,福岡県,福岡市中央区,平尾３丁目２０番２号,,40,133,8100014,,,,,,,2025-02-04,1,,,,,オレンジ,0
232,1290003016360,新規,0,2025-02-04,2025-02-04,ブンゴホット合同会社,,合同会社,福岡県,福岡市中央区,大名２丁目１１番２１号,,40,133,8100041,,,,,,,2025-02-04,1,,,,,ブンゴホット,0
238,1310001019437,新規,0,2025-02-04,2025-02-04,株式会社ＰＢコーポレーション,,株式会社,長崎県,諫早市,多良見町化屋８１４番地５－２階,,42,204,8590401,,,,,,,2025-02-04,1,,,,,ピービーコーポレーション,0
250,1340001027107,新規,0,2025-02-04,2025-02-04,株式会社Ｋ’Ｈｏｕｚｚ,,株式会社,鹿児島県,鹿児島市,吉野町５１６８番地５,,46,201,8920871,,,,,,,2025-02-04,1,,,,,ケーハウズ,0
252,1360001034753,新規,0,2025-02-04,2025-02-04,株式会社天凰,,株式会社,沖縄県,那覇市,東町２０－１４メゾン岩立１－ｂ,,47,201,9000034,,,,,,,2025-02-04,1,,,,,テンオウ,0
254,1360003014654,新規,0,2025-02-04,2025-02-04,合同会社Ｍａｒｉｎｅ　Ｄｉａ,,合同会社,沖縄県,宮古島市,平良字東仲宗根５８６番地１カンセイホーム東仲宗根ＩＩ１０３,00137886,47,214,9060007,,,,,,,2025-02-04,1,,,,,マリンダイヤ,0
267,1430001093593,新規,0,2025-02-04,2025-02-04,株式会社ＫＳ通信,,株式会社,北海道,札幌市中央区,南六条西１２丁目７６３番地９カーサベリタス２０２号,,01,101,0640806,,,,,,,2025-02-04,1,,,,,ケーエスツウシン,0
268,1430001093610,新規,0,2025-02-04,2025-02-04,株式会社ＳＳＫ,,株式会社,北海道,石狩市,厚田区厚田１０６０番地１,,01,235,0613601,,,,,,,2025-02-04,1,,,,,エスエスケー,0
269,1430001093635,新規,0,2025-02-04,2025-02-04,ＰＴＰ株式会社,,株式会社,北海道,札幌市白石区,北郷二条８丁目２番１９号,,01,104,0030832,,,,,,,2025-02-04,1,,,,,ピーティーピー,0
274,1450001014523,新規,0,2025-02-04,2025-02-04,シノリト株式会社,,株式会社,北海道,宗谷郡猿払村,浜鬼志別３４６７番地２７,,01,511,0986222,,,,,,,2025-02-04,1,,,,,シノリト,0
279,1500001026125,新規,0,2025-02-04,2025-02-04,株式会社ＳｋｉｌｌＰｏｒＴ,,株式会社,愛媛県,松山市,衣山５丁目１５３５番地１６,,38,201,7918025,,,,,,,2025-02-04,1,,,,,スキルポート,0
281,1700150129055,新規,0,2025-02-04,2025-02-04,Ｒｅｐｏｌｅ　Ｓｔａｂｌｅ，Ｉｎｃ．,,外国会社等,,,,,,,,４７０５　Ｓ．Ａｐｏｐｋａ　Ｖｉｎｅｌａｎｄ　Ｒｏａｄ，Ｓｕｉｔｅ　２０６，Ｏｒｌａｎｄｏ，ＦＬ　３２８１９，ＵＳＡ,,,,,,2025-02-04,1,,,,,リポールステーブルインク,0
290,2010001251977,新規,0,2025-02-04,2025-02-04,Ｖｏｌａｎｓ株式会社,,株式会社,東京都,千代田区,岩本町２丁目１７番４号泰合ビルＩＩ４０５号室,00137874,13,101,1010032,,,,,,,2025-02-04,1,,,,,ボランス,0
291,2010001251985,新規,0,2025-02-04,2025-02-04,ＮＹＣＩ１４ＨＤ株式会社,,株式会社,東京都,中央区,新川１丁目６番１１号,,13,102,1040033,,,,,,,2025-02-04,1,,,,,エヌワイシーアイフォーティーンエイチディー,0
292,2010001252034,新規,0,2025-02-04,2025-02-04,株式会社ＣａｔｃｈＯｎ,,株式会社,東京都,中央区,銀座１丁目１５番４号ヒューリック銀座一丁目昭和通りビル７階,,13,102,1040061,,,,,,,2025-02-04,1,,,,,キャッチオン,0
296,2010005039519,新規,0,2025-02-04,2025-02-04,ソーラーコルタホールディングス一般社団法人,,その他の設立登記法人,東京都,千代田区,紀尾井町４番１号ニューオータニガーデンコート１９階フィンポート税理士法人内,,13,101,1020094,,,,,,,2025-02-04,1,,,,,ソーラーコルタホールディングス,0
308,2010401187920,新規,0,2025-02-04,2025-02-04,株式会社Ｕｎｉｖｅｒｓａｌ　ＪＡＭ　Ｐｒｏｄｕｃｔｉｏｎ,,株式会社,東京都,港区,白金台３丁目１６番２０号,,13,103,1080071,,,,,,,2025-02-04,1,,,,,ユニバーサルジャムプロダクション,0
309,2010403034352,新規,0,2025-02-04,2025-02-04,フロムエヌ合同会社,,合同会社,東京都,港区,新橋４丁目１４番１新橋ＡＵＮＢＬＤＧ４階,,13,103,1050004,,,,,,,2025-02-04,1,,,,,フロムエヌ,0
313,2010501053535,新規,0,2025-02-04,2025-02-04,ＨＮＲＸＭ株式会社,,株式会社,東京都,台東区,台東２丁目６－６,,13,106,1100016,,,,,,,2025-02-04,1,,,,,エイチエヌアールエックスエム,0
314,2010601066726,新規,0,2025-02-04,2025-02-04,株式会社アイトルム,,株式会社,東京都,墨田区,江東橋４丁目２７番１４号,,13,107,1300022,,,,,,,2025-02-04,1,,,,,アイトルム,0
319,2010703007553,新規,0,2025-02-04,2025-02-04,合同会社地域みらいサポート,,合同会社,東京都,品川区,西五反田３丁目２番１３号ヴァン・デスポワール目黒７０４,,13,109,1410031,,,,,,,2025-02-04,1,,,,,チイキミライサポート,0
321,2010803005259,新規,0,2025-02-04,2025-02-04,合同会社ヒロタ,,合同会社,東京都,大田区,下丸子４丁目２７番２－８０３号,,13,111,1460092,,,,,,,2025-02-04,1,,,,,ヒロタ,0
325,2010901056765,新規,0,2025-02-04,2025-02-04,株式会社Ｊｉｒｉｔｓｕ,,株式会社,東京都,世田谷区,桜新町１丁目４０番８号クリニックモール７階,,13,112,1540015,,,,,,,2025-02-04,1,,,,,ジリツ,0
331,2011003020882,新規,0,2025-02-04,2025-02-04,Ｊｕｊｕ　Ｈｏｌｄｉｎｇｓ合同会社,,合同会社,東京都,渋谷区,円山町５番５号Ｎａｖｉ渋谷Ｖ３階,,13,113,1500044,,,,,,,2025-02-04,1,,,,,ジュジュホールディングス,0
333,2011101110494,新規,0,2025-02-04,2025-02-04,株式会社ＷＩＴＨ　ＬＥＭＯＮ,,株式会社,東京都,新宿区,西新宿６丁目１５番１－３９０１号,,13,104,1600023,,,,,,,2025-02-04,1,,,,,ウィズレモン,0
334,2011101110503,新規,0,2025-02-04,2025-02-04,株式会社エンビジョン,,株式会社,東京都,新宿区,歌舞伎町１丁目２番３号レオ新宿６０２,,13,104,1600021,,,,,,,2025-02-04,1,,,,,エンビジョン,0
336,2011301030328,新規,0,2025-02-04,2025-02-04,ｉＹｉ株式会社,,株式会社,東京都,杉並区,高円寺北１丁目２１番５号ｐｉｎｏ１Ｆ,,13,115,1660002,,,,,,,2025-02-04,1,,,,,アイワイアイ,0
340,2011501031662,新規,0,2025-02-04,2025-02-04,東和ＧＲＯＵＰ株式会社,,株式会社,東京都,荒川区,町屋７丁目２０－８町屋ハイム３０２号室,,13,118,1160001,,,,,,,2025-02-04,1,,,,,トウワグループ,0
344,2011801045569,新規,0,2025-02-04,2025-02-04,鵬丞株式会社,,株式会社,東京都,足立区,西新井本町３丁目１１番１１号,,13,121,1230845,,,,,,,2025-02-04,1,,,,,ホウジョウ,0
345,2011801045577,新規,0,2025-02-04,2025-02-04,株式会社ＳＨＩＶＡＭ,,株式会社,東京都,足立区,梅田１丁目１３番６号,,13,121,1230851,,,,,,,2025-02-04,1,,,,,シワム,0
360,2020001161135,新規,0,2025-02-04,2025-02-04,株式会社ＧＥＮＴＬＥ　ＦＬＯＷＥＲ,,株式会社,神奈川県,横浜市西区,みなとみらい４丁目９番２－Ｃ６１０号,,14,103,2200012,,,,,,,2025-02-04,1,,,,,ジェントルフラワー,0
362,2021001084359,新規,0,2025-02-04,2025-02-04,株式会社ａｒｔ　ｃｒａｔ．,,株式会社,神奈川県,鎌倉市,長谷５丁目１３―２８―Ａ２０２,,14,204,2480016,,,,,,,2025-02-04,1,,,,,アートクラット,0
365,2021003015543,新規,0,2025-02-04,2025-02-04,合同会社Ｎｅｗ　Ｍｅｔａ,,合同会社,神奈川県,藤沢市,辻堂元町２丁目１２番１０～５号,,14,205,2510043,,,,,,,2025-02-04,1,,,,,ニューメタ,0
374,2030003026021,新規,0,2025-02-04,2025-02-04,宏恩合同会社,,合同会社,埼玉県,蕨市,塚越６丁目１６－１６,,11,223,3350002,,,,,,,2025-02-04,1,,,,,コウオン,0
380,2040001137224,新規,0,2025-02-04,2025-02-04,株式会社兼松,,株式会社,千葉県,木更津市,清見台２丁目２０番３号,,12,206,2920045,,,,,,,2025-02-04,1,,,,,カネマツ,0
386,2070001042603,新規,0,2025-02-04,2025-02-04,タムラ総業株式会社,,株式会社,群馬県,利根郡みなかみ町,羽場２７１番地２,,10,449,3791412,,,,,,,2025-02-04,1,,,,,タムラソウギョウ,0
387,2080401027723,新規,0,2025-02-04,2025-02-04,Ｓ＆Ｔ株式会社,,株式会社,静岡県,浜松市中央区,佐鳴台６丁目５番３号,,22,138,4328021,,,,,,,2025-02-04,1,,,,,エスアンドティ,0
390,2080403005198,新規,0,2025-02-04,2025-02-04,合同会社浜松人材センター,,合同会社,静岡県,浜松市中央区,幸４丁目３２番１１号,,22,138,4338123,,,,,,,2025-02-04,1,,,,,ハママツジンザイセンター,0
392,2090001019120,新規,0,2025-02-04,2025-02-04,株式会社タケシン,,株式会社,山梨県,韮崎市,穴山町１２９５番地１,,19,207,4070263,,,,,,,2025-02-04,1,,,,,タケシン,0
395,2110001039025,新規,0,2025-02-04,2025-02-04,さくらやＬＵＺ株式会社,,株式会社,新潟県,上越市,大字土橋７０２番地,,15,222,9430821,,,,,,,2025-02-04,1,,,,,サクラヤルース,0
396,2110003005652,新規,0,2025-02-04,2025-02-04,合同会社堤農園,,合同会社,新潟県,新潟市南区,味方１２５番地,,15,106,9501261,,,,,,,2025-02-04,1,,,,,ツツミノウエン,0
412,2120001272475,新規,0,2025-02-04,2025-02-04,ミズユタカ株式会社,,株式会社,大阪府,大阪市生野区,新今里３丁目４番１７号ＯＧビル１０１Ｂ,,27,116,5440001,,,,,,,2025-02-04,1,,,,,ミズユタカ,0
413,2120001272533,新規,0,2025-02-04,2025-02-04,ＭＪＣキャピタル株式会社,,株式会社,大阪府,大阪市北区,本庄東１丁目４番１７号３Ｆ,,27,127,5310074,,,,,,,2025-02-04,1,,,,,エムジェイシーキャピタル,0
414,2120001272541,新規,0,2025-02-04,2025-02-04,株式会社Ｋ‐ｃｏｎｎｅｃｔ,,株式会社,大阪府,寝屋川市,田井町１１番１－１００５号,,27,215,5720021,,,,,,,2025-02-04,1,,,,,ケーコネクト,0
417,2120003028520,新規,0,2025-02-04,2025-02-04,合同会社ゆきだるま,,合同会社,大阪府,大阪市浪速区,大国２丁目１６番１２号１Ｆ,,27,111,5560014,,,,,,,2025-02-04,1,,,,,ユキダルマ,0
418,2120003028529,新規,0,2025-02-04,2025-02-04,ＶＩＥＴＬＩＮＨ　ＭＡＲＴ合同会社,,合同会社,大阪府,大阪市西成区,鶴見橋３丁目２番２３号２０１号室,,27,122,5570031,,,,,,,2025-02-04,1,,,,,ベトリンマート,0
419,2120003028537,新規,0,2025-02-04,2025-02-04,合同会社ＭＩＵ,,合同会社,大阪府,大阪市北区,国分寺２丁目２番１７－３０８号,,27,127,5310064,,,,,,,2025-02-04,1,,,,,エムアイユー,0
425,2120101071001,新規,0,2025-02-04,2025-02-04,志建設株式会社,,株式会社,大阪府,堺市東区,草尾７６８番地３オニシビル３０３号,,27,143,5998127,,,,,,,2025-02-04,1,,,,,ココロザシケンセツ,0
432,2130001078913,新規,0,2025-02-04,2025-02-04,ｃｏｌｏｒｆｕｌｐａｌｌｅｔ株式会社,,株式会社,京都府,京都市下京区,朱雀宝蔵町４４番地協栄ビル２階京都朱雀スタジオ,,26,106,6008846,,,,,,,2025-02-04,1,,,,,カラフルパレット,0
433,2130001078946,新規,0,2025-02-04,2025-02-04,株式会社ＯＭＳ,,株式会社,京都府,京都市左京区,北白川小倉町５０番地１３９,,26,103,6068264,,,,,,,2025-02-04,1,,,,,オーエムエス,0
435,2130003010188,新規,0,2025-02-04,2025-02-04,合同会社堅,,合同会社,京都府,京都市下京区,七条通油小路東入大黒町２２７第二キョートビル４０２,,26,106,6008223,,,,,,,2025-02-04,1,,,,,ケン,0
459,2180001165236,新規,0,2025-02-04,2025-02-04,ワイズ株式会社,,株式会社,愛知県,名古屋市北区,敷島町１４,,23,103,4620045,,,,,,,2025-02-04,1,,,,,ワイズ,0
460,2180001165244,新規,0,2025-02-04,2025-02-04,株式会社サミット,,株式会社,愛知県,名古屋市西区,菊井２丁目１９番２号,,23,104,4510044,,,,,,,2025-02-04,1,,,,,サミット,0
461,2180001165285,新規,0,2025-02-04,2025-02-04,株式会社ライフドゥ・リーシング,,株式会社,愛知県,江南市,宮後町天神２８番地,,23,217,4838044,,,,,,,2025-02-04,1,,,,,ライフドゥリーシング,0
462,2180001165293,新規,0,2025-02-04,2025-02-04,株式会社ＡＬＴＥＲＡＧＥ,,株式会社,愛知県,名古屋市中区,橘１丁目２４－２,,23,106,4600016,,,,,,,2025-02-04,1,,,,,アルトレイジ,0
465,2180005020940,新規,0,2025-02-04,2025-02-04,一般社団法人ステッキハピネス,,その他の設立登記法人,愛知県,春日井市,大留町７丁目６番地２１,,23,206,4870024,,,,,,,2025-02-04,1,,,,,ステッキハピネス,0
470,2200001043406,新規,0,2025-02-04,2025-02-04,プレスト株式会社,,株式会社,岐阜県,本巣市,十四条１０４６番地１,,21,218,5010464,,,,,,,2025-02-04,1,,,,,プレスト,0
473,2220005008923,新規,0,2025-02-04,2025-02-04,ＮＰＯ法人ＫＩＺＵＮＡ,,その他の設立登記法人,石川県,鳳珠郡能登町,字宇出津山分２字９３番地,,17,463,9270431,,,,,,,2025-02-04,1,,,,,キズナ,0
475,2240001064480,新規,0,2025-02-04,2025-02-04,テンションリンク株式会社,,株式会社,広島県,尾道市,正徳町１２－２２,,34,205,7220004,,,,,,,2025-02-04,1,,,,,テンションリンク,0
476,2240001064489,新規,0,2025-02-04,2025-02-04,株式会社ケアドライブソリューション,,株式会社,広島県,広島市佐伯区,美鈴が丘南４丁目１０番２２号,,34,108,7315112,,,,,,,2025-02-04,1,,,,,ケアドライブソリューション,0
482,2250005008978,新規,0,2025-02-04,2025-02-04,一般社団法人アジア太平洋再建マイクロサージャリー学会連合会,,その他の設立登記法人,山口県,宇部市,大字西岐波区宇部臨空頭脳パーク３番,,35,202,7550151,,,,,,,2025-02-04,1,,,,,アジアタイヘイヨウサイケンマイクロサージャリーガッカイレンゴウカイ,0
485,2260001039869,新規,0,2025-02-04,2025-02-04,株式会社常世の里,,株式会社,岡山県,倉敷市,西坂１０８８番地,,33,202,7100004,,,,,,,2025-02-04,1,,,,,トコヨノサト,0
487,2260003005051,新規,0,2025-02-04,2025-02-04,中島農園２合同会社,,合同会社,岡山県,岡山市中区,中島２６２番地２,,33,102,7038252,,,,,,,2025-02-04,1,,,,,ナカシマノウエンツー,0
488,2280001009341,新規,0,2025-02-04,2025-02-04,株式会社Ｃｏｎｎｅｃｔｉｎｇ　ｔｈｅ　Ｄｏｔｓ,,株式会社,島根県,松江市,八雲町日吉３番地２４,,32,201,6902101,,,,,,,2025-02-04,1,,,,,コネクティングザドッツ,0
493,2290001108836,新規,0,2025-02-04,2025-02-04,株式会社ＶＯＴＡＮ　ｅｙｅ,,株式会社,福岡県,福岡市中央区,大名１丁目１２番６６号,,40,133,8100041,,,,,,,2025-02-04,1,,,,,ボタンアイ,0
494,2290001108852,新規,0,2025-02-04,2025-02-04,株式会社ＯＴＷ,,株式会社,福岡県,福岡市博多区,住吉２丁目１４番１９号ＡＶＥＲＩＯ住吉６０１,,40,132,8120018,,,,,,,2025-02-04,1,,,,,オーティーダブリュー,0
496,2290005019641,新規,0,2025-02-04,2025-02-04,医療法人輝彰会,,その他の設立登記法人,福岡県,福岡市中央区,渡辺通４丁目１番３６号Ｂｉｖｉ福岡１Ｆ,,40,133,8100004,,,,,,,2025-02-04,1,,,,,,0
497,2290801031246,新規,0,2025-02-04,2025-02-04,株式会社圭ＫＯＵＢＯＵ,,株式会社,福岡県,北九州市小倉南区,下曽根１丁目１０番１８－５０４号,,40,107,8000217,,,,,,,2025-02-04,1,,,,,ケイコウボウ,0
498,2290801031254,新規,0,2025-02-04,2025-02-04,株式会社ハイロードトランス,,株式会社,福岡県,築上郡築上町,大字西八田３８７番地,,40,647,8290343,,,,,,,2025-02-04,1,,,,,ハイロードトランス,0
503,2320001020921,新規,0,2025-02-04,2025-02-04,株式会社日出浄化槽管理システム,,株式会社,大分県,速見郡日出町,大字大神３０７６番地２２,,44,341,8791504,,,,,,,2025-02-04,1,,,,,ヒジジョウカソウカンリシステム,0
510,2340001027106,新規,0,2025-02-04,2025-02-04,古川建設株式会社,,株式会社,鹿児島県,鹿児島市,平川町１０８５番地,,46,201,8910133,,,,,,,2025-02-04,1,,,,,フルカワケンセツ,0
528,2430001093592,新規,0,2025-02-04,2025-02-04,株式会社カクタ運送,,株式会社,北海道,江別市,元江別本町３番地の８,,01,217,0670041,,,,,,,2025-02-04,1,,,,,カクタウンソウ,0
530,2450001014522,新規,0,2025-02-04,2025-02-04,ＰＳ不動産＆コンサル株式会社,,株式会社,北海道,旭川市,東六条１丁目３番１４－３号,,01,204,0700026,,,,,,,2025-02-04,1,,,,,ピーエスフドウサンアンドコンサル,0
531,2460101007664,新規,0,2025-02-04,2025-02-04,株式会社Ｐ２Ｕ,,株式会社,北海道,河東郡音更町,字東和東１線１９番地,,01,631,0800151,,,,,,,2025-02-04,1,,,,,,0
533,2460401001268,新規,0,2025-02-04,2025-02-04,株式会社ＡＩ根室,,株式会社,北海道,根室市,光洋町４丁目４９番地１８,,01,223,0870004,,,,,,,2025-02-04,1,,,,,エーアイネムロ,0
535,2500003003427,新規,0,2025-02-04,2025-02-04,アド・ギミック合同会社,,合同会社,愛媛県,松山市,福音寺町８番地１エコール久米２０９号,,38,201,7900921,,,,,,,2025-02-04,1,,,,,アドギミック,0
536,2700150129054,新規,0,2025-02-04,2025-02-04,ＣＪＷ　Ｃｏｌｌｅｃｔｉｏｎ　ＩＩ　Ｌｉｍｉｔｅｄ,00137849,外国会社等,,,,,,,,Ｗｉｃｋｈａｍｓ　ＣａｙＩＩ，Ｒｏａｄ　Ｔｏｗｎ，Ｔｏｒｔｏｌａ，ＶＧ１１１０，Ｂｒｉｔｉｓｈ　Ｖｉｒｇｉｎ　Ｉｓｌａｎｄｓ,00137850,,,,,2025-02-04,1,,,,,シージエイダブリユーコレクシヨンツーリミテツド,0
542,3010001251712,新規,0,2025-02-04,2025-02-04,Ａｓｃｅｎｄ株式会社,,株式会社,東京都,中央区,銀座１丁目１２番４号Ｎ＆ＥＢＬＤ．６Ｆ,,13,102,1040061,,,,,,,2025-02-04,1,,,,,アセンド,0
543,3010001251984,新規,0,2025-02-04,2025-02-04,ＮＹＣＩ１４株式会社,,株式会社,東京都,中央区,新川１丁目６番１１号,,13,102,1040033,,,,,,,2025-02-04,1,,,,,エヌワイシーアイフォーティーン,0
547,3010003046284,新規,0,2025-02-04,2025-02-04,合同会社ＨＹ０２,,合同会社,東京都,千代田区,丸の内１丁目１１番１号パシフィックセンチュリープレイス丸の内２８階,,13,101,1000005,,,,,,,2025-02-04,1,,,,,エイチワイゼロニ,0
548,3010005039501,新規,0,2025-02-04,2025-02-04,一般社団法人Ｋ＆Ｍ,,その他の設立登記法人,東京都,文京区,大塚２丁目１５番６号,,13,105,1120012,,,,,,,2025-02-04,1,,,,,ケイアンドエム,0
549,3010005039518,新規,0,2025-02-04,2025-02-04,ソーラーテレシーホールディングス一般社団法人,,その他の設立登記法人,東京都,千代田区,紀尾井町４番１号ニューオータニガーデンコート１９階フィンポート税理士法人内,,13,101,1020094,,,,,,,2025-02-04,1,,,,,ソーラーテレシーホールディングス,0
560,3010401187878,新規,0,2025-02-04,2025-02-04,ＫＩＳ株式会社,,株式会社,東京都,港区,麻布台１丁目３番１号,,13,103,1060041,,,,,,,2025-02-04,1,,,,,ケイアイエス,0
561,3010401187903,新規,0,2025-02-04,2025-02-04,ケンタウロス株式会社,,株式会社,東京都,港区,白金台５丁目２番５号,,13,103,1080071,,,,,,,2025-02-04,1,,,,,ケンタウロス,0
562,3010401187911,新規,0,2025-02-04,2025-02-04,シバホールディングス株式会社,,株式会社,東京都,港区,虎ノ門１丁目１７番１号虎ノ門ヒルズビジネスタワー１５階,,13,103,1050001,,,,,,,2025-02-04,1,,,,,シバホールディングス,0
564,3010403034285,新規,0,2025-02-04,2025-02-04,合同会社ソフト,,合同会社,東京都,港区,南青山２丁目２番１５－５３１号,,13,103,1070062,,,,,,,2025-02-04,1,,,,,ソフト,0
565,3010405023996,新規,0,2025-02-04,2025-02-04,一般社団法人空き家対策協議会,,その他の設立登記法人,東京都,港区,赤坂７丁目６番５号,,13,103,1070052,,,,,,,2025-02-04,1,,,,,アキヤタイサクキョウギカイ,0
568,3010601066717,新規,0,2025-02-04,2025-02-04,Ｔｏｋｉ株式会社,,株式会社,東京都,墨田区,江東橋５丁目８番１２－４０２号,,13,107,1300022,,,,,,,2025-02-04,1,,,,,トキ,0
570,3010701047212,新規,0,2025-02-04,2025-02-04,株式会社Ａｕｒｏｒａ　Ｐｉｃｔｕｒｅｓ,,株式会社,東京都,品川区,東五反田５丁目２２番３７号,,13,109,1410022,,,,,,,2025-02-04,1,,,,,オーロラピクチャーズ,0
576,3010901056756,新規,0,2025-02-04,2025-02-04,アキヤス株式会社,,株式会社,東京都,世田谷区,大蔵５丁目２０―１コモレビ大藏Ｆ１０１,,13,112,1570074,,,,,,,2025-02-04,1,,,,,アキヤス,0
577,3010901056764,新規,0,2025-02-04,2025-02-04,株式会社ＷｉｔＢｌｏｏｍ　Ｐａｒｔｎｅｒｓ,,株式会社,東京都,世田谷区,上祖師谷５丁目２１番１４ー４０５号,,13,112,1570065,,,,,,,2025-02-04,1,,,,,ウィットブルームパートナーズ,0
578,3010903009687,新規,0,2025-02-04,2025-02-04,合同会社ＫＬＡＳＳＥＮ,,合同会社,東京都,世田谷区,深沢３丁目２５－６マシェルカ＃１０１,,13,112,1580081,,,,,,,2025-02-04,1,,,,,クラッセン,0
586,3011001167007,新規,0,2025-02-04,2025-02-04,朝倉マネジメント株式会社,,株式会社,東京都,渋谷区,猿楽町２９番１８号,,13,113,1500033,,,,,,,2025-02-04,1,,,,,アサクラマネジメント,0
587,3011001167592,新規,0,2025-02-04,2025-02-04,株式会社Ｐ．Ｏ．Ｓ．Ｔ　ｓｔｕｄｉｏ,,株式会社,東京都,目黒区,青葉台３丁目３番１１号,,13,110,1530042,,,,,,,2025-02-04,1,,,,,ポストスタジオ,0
593,3011101110493,新規,0,2025-02-04,2025-02-04,ＧＱ商事株式会社,,株式会社,東京都,新宿区,西新宿３丁目３番１３号西新宿水間ビル２Ｆ,,13,104,1600023,,,,,,,2025-02-04,1,,,,,ジーキューショウジ,0
594,3011101110502,新規,0,2025-02-04,2025-02-04,株式会社アップデート・ミュージック,,株式会社,東京都,新宿区,西新宿３丁目３番１３号西新宿水間ビル６Ｆ,,13,104,1600023,,,,,,,2025-02-04,1,,,,,アップデートミュージック,0
596,3011103015492,新規,0,2025-02-04,2025-02-04,合同会社山本エンタープライズ,,合同会社,東京都,新宿区,上落合１丁目３０番１５－２１２号,,13,104,1610034,,,,,,,2025-02-04,1,,,,,ヤマモトエンタープライズ,0
605,3011601028401,新規,0,2025-02-04,2025-02-04,日中経済文化科技促進株式会社,,株式会社,東京都,練馬区,関町北５丁目１３番２５－Ｂ１－Ａ,,13,120,1770051,,,,,,,2025-02-04,1,,,,,ニッチュウケイザイブンカカギソクシン,0
606,3011801045568,新規,0,2025-02-04,2025-02-04,株式会社カスミ防災,,株式会社,東京都,足立区,梅田３丁目２３番８号,,13,121,1230851,,,,,,,2025-02-04,1,,,,,カスミボウサイ,0
619,3013303007526,新規,0,2025-02-04,2025-02-04,ｉｍｔｈｒｅｅ合同会社,,合同会社,東京都,豊島区,池袋２丁目５８番２－４０１号,,13,116,1710014,,,,,,,2025-02-04,1,,,,,アイムスリー,0
624,3020001161134,新規,0,2025-02-04,2025-02-04,株式会社Ｃｌｅａｎ　Ｎｅｘｔ,,株式会社,神奈川県,横浜市泉区,岡津町１５２番地ＢＬＥＳＳ戸塚弥生台３０２号,00137871,14,116,2450003,,,,,,,2025-02-04,1,,,,,クリーンネクスト,0
625,3020001161191,新規,0,2025-02-04,2025-02-04,株式会社ＭｏｂｉＳａｖｉ,,株式会社,神奈川県,横浜市西区,高島１丁目２番５号,,14,103,2200011,,,,,,,2025-02-04,1,,,,,モビサビ,0
626,3021001084382,新規,0,2025-02-04,2025-02-04,エクスライフプランニング株式会社,,株式会社,神奈川県,横須賀市,池田町３丁目２６番１８号,,14,201,2390806,,,,,,,2025-02-04,1,,,,,エクスライフプランニング,0
635,3030003026004,新規,0,2025-02-04,2025-02-04,ＴＭＲＲプロパティパートナーズ合同会社,,合同会社,埼玉県,富士見市,鶴瀬東２丁目１９番３０－３号,,11,235,3540024,,,,,,,2025-02-04,1,,,,,ティーエムアールアールプロパティパートナーズ,0
636,3030003026037,新規,0,2025-02-04,2025-02-04,合同会社ｔｏ　ｅａｔ＆ｃｏ．,,合同会社,埼玉県,新座市,野火止８丁目４番３９－３号,,11,230,3520011,,,,,,,2025-02-04,1,,,,,トゥーイートアンドカンパニー,0
639,3040001137198,新規,0,2025-02-04,2025-02-04,株式会社ＡＢＥＧＲＯＵＰ,,株式会社,千葉県,船橋市,大穴北７丁目９番３号,,12,204,2740068,,,,,,,2025-02-04,1,,,,,アベグループ,0
640,3040001137223,新規,0,2025-02-04,2025-02-04,ＫＯＳＬＡ株式会社,,株式会社,千葉県,八街市,吉倉６２９番地５,,12,230,2891133,,,,,,,2025-02-04,1,,,,,コスラ,0
641,3040001137280,新規,0,2025-02-04,2025-02-04,きっずラボグループ株式会社,,株式会社,千葉県,木更津市,新田１丁目４番４号ラッシングビル２階,,12,206,2920832,,,,,,,2025-02-04,1,,,,,キッズラボグループ,0
643,3040003026374,新規,0,2025-02-04,2025-02-04,合同会社海馬コーポレーション,,合同会社,千葉県,千葉市中央区,中央３丁目１５番６号,,12,101,2600013,,,,,,,2025-02-04,1,,,,,カイバコーポレーション,0
648,3050001056117,新規,0,2025-02-04,2025-02-04,株式会社ＷａｔｅｒＲａｉｓｉｎｇ,,株式会社,茨城県,筑西市,市野辺１７５番地１,,08,227,3080827,,,,,,,2025-02-04,1,,,,,ウォーターライジング,0
652,3080001026744,新規,0,2025-02-04,2025-02-04,株式会社齊藤工業,,株式会社,静岡県,静岡市清水区,岡町１２番１１号,,22,103,4240931,,,,,,,2025-02-04,1,,,,,サイトウコウギョウ,0
654,3080101025290,新規,0,2025-02-04,2025-02-04,株式会社ＡＰＰＳＹＳ,,株式会社,静岡県,三島市,初音台１４番２０号,,22,206,4110018,,,,,,,2025-02-04,1,,,,,アップシス,0
658,3080401027722,新規,0,2025-02-04,2025-02-04,株式会社ワイズエース,,株式会社,静岡県,浜松市中央区,葵西２丁目２５番２２号,,22,138,4338111,,,,,,,2025-02-04,1,,,,,ワイズエース,0
660,3080403005197,新規,0,2025-02-04,2025-02-04,合同会社ＣＲＥＺＡＳ,,合同会社,静岡県,浜松市中央区,篠ケ瀬町３５３番地の４Ｃｏｍｆｏｒｔ２０３,,22,138,4350042,,,,,,,2025-02-04,1,,,,,クレザス,0
670,3110001039024,新規,0,2025-02-04,2025-02-04,７Ａ　Ｇｌｏｂａｌ株式会社,,株式会社,新潟県,新潟市中央区,米山３丁目７番３号１０２,,15,103,9500916,,,,,,,2025-02-04,1,,,,,セブンエーグローバル,0
672,3110005017182,新規,0,2025-02-04,2025-02-04,農事組合法人稲荷ファーム,,その他の設立登記法人,新潟県,上越市,大字稲荷９４２番地,,15,222,9430874,,,,,,,2025-02-04,1,,,,,イナリファーム,0
679,3120001272508,新規,0,2025-02-04,2025-02-04,株式会社ＳＨＩＮＣＨＩ,,株式会社,大阪府,大阪市北区,梅田１丁目２番２号大阪駅前第２ビル１２－１２,,27,127,5300001,,,,,,,2025-02-04,1,,,,,シンチ,0
680,3120001272565,新規,0,2025-02-04,2025-02-04,月亮株式会社,,株式会社,大阪府,大阪市北区,天満４丁目５番３号,,27,127,5300043,,,,,,,2025-02-04,1,,,,,ゲツリョウ,0
681,3120001272623,新規,0,2025-02-04,2025-02-04,株式会社ＳＯＲＡコーポレーション,,株式会社,大阪府,大阪市東成区,大今里３丁目１５番２３号岸田ビル４階,,27,115,5370012,,,,,,,2025-02-04,1,,,,,ソラコーポレーション,0
685,3120101071000,新規,0,2025-02-04,2025-02-04,松澤株式会社,,株式会社,大阪府,松原市,天美北２丁目３番４号,,27,217,5800031,,,,,,,2025-02-04,1,,,,,マツサワ,0
689,3120901050401,新規,0,2025-02-04,2025-02-04,株式会社バトンタッチ,,株式会社,大阪府,茨木市,本町１－６,,27,211,5670818,,,,,,,2025-02-04,1,,,,,バトンタッチ,0
692,3122001038839,新規,0,2025-02-04,2025-02-04,株式会社Ｎｅｅｒ,,株式会社,大阪府,東大阪市,長堂３丁目１７番３５号,,27,227,5770056,,,,,,,2025-02-04,1,,,,,ニア,0
693,3122003003106,新規,0,2025-02-04,2025-02-04,天為合同会社,,合同会社,大阪府,東大阪市,水走１丁目３－４５－３０１室,,27,227,5780921,,,,,,,2025-02-04,1,,,,,テンイ,0
696,3130003010187,新規,0,2025-02-04,2025-02-04,合同会社１ＨＢ２,,合同会社,京都府,京都市伏見区,深草車阪町２０番地４３,,26,109,6120803,,,,,,,2025-02-04,1,,,,,ワンエイチビーツー,0
704,3140001137262,新規,0,2025-02-04,2025-02-04,セカンドビート株式会社,,株式会社,兵庫県,西宮市,段上町２丁目６番９号ハイムボヌールＩＩ３号室,00137873,28,204,6638006,,,,,,,2025-02-04,1,,,,,セカンドビート,0
707,3140003021621,新規,0,2025-02-04,2025-02-04,合同会社Ｍｉｌｙ　Ｆａｍｉｌｙ,,合同会社,兵庫県,神戸市須磨区,戎町３丁目１番８号,,28,107,6540023,,,,,,,2025-02-04,1,,,,,ミリィファミリィ,0
713,3160003003394,新規,0,2025-02-04,2025-02-04,Ｍｏｎｓｉｅｕｒ　Ａ合同会社,,合同会社,滋賀県,大津市,杉浦町２２－２５,,25,201,5200836,,,,,,,2025-02-04,1,,,,,ムッシュア,0
725,3180003027937,新規,0,2025-02-04,2025-02-04,合同会社ｒａｍｏ,,合同会社,愛知県,春日井市,高蔵寺町北２丁目１９９４番地,,23,206,4870016,,,,,,,2025-02-04,1,,,,,ラモ,0
726,3180003027945,新規,0,2025-02-04,2025-02-04,合同会社オープンサポート,,合同会社,愛知県,名古屋市西区,庄内通５丁目７番地の９,,23,104,4510016,,,,,,,2025-02-04,1,,,,,オープンサポート,0
727,3180003027953,新規,0,2025-02-04,2025-02-04,ＭＣＦ　Ｍｅｄｉａ合同会社,,合同会社,愛知県,名古屋市天白区,中平１丁目１０３番地アピエス原１００２号,,23,116,4680014,,,,,,,2025-02-04,1,,,,,エムシーエフメディア,0
737,3240001064488,新規,0,2025-02-04,2025-02-04,株式会社オカモトホーム,,株式会社,広島県,広島市安佐南区,安東４丁目３３番３号,,34,105,7310153,,,,,,,2025-02-04,1,,,,,オカモトホーム,0
740,3250001020993,新規,0,2025-02-04,2025-02-04,株式会社Ｏｎｅ．Ｈｅａｒｔ,,株式会社,山口県,山口市,大内御堀３４４２番地２Ａ－１０３,,35,203,7530214,,,,,,,2025-02-04,1,,,,,ワンハート,0
742,3260001039876,新規,0,2025-02-04,2025-02-04,株式会社Ｓｈｅｒａｚ　Ｔｒａｄｅｒｓ,,株式会社,岡山県,岡山市中区,浜１丁目６番１５号メゾン司Ｂ１０２,,33,102,7038256,,,,,,,2025-02-04,1,,,,,シェラーズトレーダーズ,0
743,3260001039884,新規,0,2025-02-04,2025-02-04,株式会社リアルネット,,株式会社,岡山県,岡山市北区,北長瀬表町３丁目９番２５号,,33,101,7000962,,,,,,,2025-02-04,1,,,,,リアルネット,0
749,3290001108819,新規,0,2025-02-04,2025-02-04,株式会社ルポシエール,,株式会社,福岡県,宗像市,野坂３１０３番地,,40,220,8113423,,,,,,,2025-02-04,1,,,,,ルポシエール,0
750,3290001108827,新規,0,2025-02-04,2025-02-04,株式会社ＷａＹ,,株式会社,福岡県,飯塚市,伊岐須３２２－３,,40,205,8200053,,,,,,,2025-02-04,1,,,,,,0
751,3290001108835,新規,0,2025-02-04,2025-02-04,ＶＯＴＡＮ株式会社,,株式会社,福岡県,福岡市中央区,大名１丁目１２番６６号,,40,133,8100041,,,,,,,2025-02-04,1,,,,,ボタン,0
752,3290001108851,新規,0,2025-02-04,2025-02-04,株式会社令和ハウジング,,株式会社,福岡県,那珂川市,片縄北７丁目１７番１１号,,40,231,8111203,,,,,,,2025-02-04,1,,,,,レイワハウジング,0
755,3290003016350,新規,0,2025-02-04,2025-02-04,ＬＥＨＡ合同会社,,合同会社,福岡県,福岡市博多区,博多駅前４丁目１５番７－７０２号,,40,132,8120011,,,,,,,2025-02-04,1,,,,,レーハ,0
756,3290003016359,新規,0,2025-02-04,2025-02-04,松坂マネジメントコンサルティング合同会社,,合同会社,福岡県,福岡市中央区,草香江２丁目１８－２７,,40,133,8100045,,,,,,,2025-02-04,1,,,,,マツサカマネジメントコンサルティング,0
757,3290801031245,新規,0,2025-02-04,2025-02-04,株式会社光技術,,株式会社,福岡県,北九州市八幡西区,相生町１６番１１号,,40,109,8060044,,,,,,,2025-02-04,1,,,,,ヒカルギジュツ,0
760,3310001019435,新規,0,2025-02-04,2025-02-04,株式会社Ｃａｄｅａｕ　ｄｅ　ｃｈｏｃｏｌａｔ,,株式会社,長崎県,西彼杵郡時津町,西時津郷１７番地２,,42,308,8512101,,,,,,,2025-02-04,1,,,,,キャドドゥショコラ,0
762,3330001032857,新規,0,2025-02-04,2025-02-04,株式会社ＨＩＧＨＴＩＤＥ,,株式会社,熊本県,宇城市,三角町戸馳２６１４番地６,,43,213,8693203,,,,,,,2025-02-04,1,,,,,ハイタイド,0
763,3330003010786,新規,0,2025-02-04,2025-02-04,合同会社麗美,,合同会社,熊本県,熊本市北区,植木町植木４７６,,43,105,8610132,,,,,,,2025-02-04,1,,,,,レイビ,0
765,3340001027096,新規,0,2025-02-04,2025-02-04,株式会社ワイズホールディングス,,株式会社,鹿児島県,鹿児島市,中央町１９番地４０ザ・パークハウス鹿児島中央タワー１４１３号,,46,201,8900053,,,,,,,2025-02-04,1,,,,,ワイズホールディングス,0
767,3360001034751,新規,0,2025-02-04,2025-02-04,株式会社オートワーク,,株式会社,沖縄県,南城市,大里字大城２３２１番地８,,47,215,9011203,,,,,,,2025-02-04,1,,,,,オートワーク,0
769,3370001052199,新規,0,2025-02-04,2025-02-04,株式会社大空,,株式会社,宮城県,仙台市泉区,南中山３丁目３５番地の２,,04,105,9813213,,,,,,,2025-02-04,1,,,,,オオゾラ,0
775,3410001014054,新規,0,2025-02-04,2025-02-04,株式会社蓮,,株式会社,秋田県,秋田市,南ケ丘２丁目３番８号,,05,201,0101409,,,,,,,2025-02-04,1,,,,,レン,0
776,3420005007945,新規,0,2025-02-04,2025-02-04,医療法人社団鶴陽会,,その他の設立登記法人,青森県,北津軽郡鶴田町,大字鶴田字鷹ノ尾９番地７,,02,384,0383503,,,,,,,2025-02-04,1,,,,,カクヨウカイ,0
783,3430001093609,新規,0,2025-02-04,2025-02-04,株式会社尾崎保険サービス,,株式会社,北海道,札幌市東区,苗穂町４丁目３番２３号,,01,103,0650043,,,,,,,2025-02-04,1,,,,,オザキホケンサービス,0
784,3430001093617,新規,0,2025-02-04,2025-02-04,株式会社Ｏｒａｎｇｅ,,株式会社,北海道,札幌市西区,二十四軒三条４丁目６番７号,,01,107,0630803,,,,,,,2025-02-04,1,,,,,オレンジ,0
786,3430003017243,新規,0,2025-02-04,2025-02-04,えんじん合同会社,,合同会社,北海道,虻田郡ニセコ町,字本通１０７番地７,,01,395,0481502,,,,,,,2025-02-04,1,,,,,エンジン,0
796,3700150129053,新規,0,2025-02-04,2025-02-04,Ｐｒｅｍｉａ　Ｃｏｒｐｏｒａｔｅ　Ｎａｍｅ（３）Ｌｉｍｉｔｅｄ,,外国会社等,東京都,千代田区,霞が関３丁目２－６　東京倶楽部ビルディング６階,,13,101,1000013,Ｏｎｅ　Ｌｉｍｅ　Ｓｔｒｅｅｔ，Ｌｏｎｄｏｎ　ＥＣ３Ｍ　７ＨＡ　ＵＫ,,,,,,2025-02-04,1,,,,,プレミアコーポレートネームスリーリミテツド,0
805,4010001251959,新規,0,2025-02-04,2025-02-04,株式会社エイトウィル,,株式会社,東京都,中央区,銀座１丁目１２番４号Ｎ＆ＥＢＬＤ．７階,,13,102,1040061,,,,,,,2025-02-04,1,,,,,エイトウィル,0
806,4010001251991,新規,0,2025-02-04,2025-02-04,株式会社ｍｉｌｋｉｓｓｉｍｏ　ｊａｐａｎ,,株式会社,東京都,千代田区,丸の内１丁目１１－１パシフィックセンチュリープレイス丸の内１３階,,13,101,1000005,,,,,,,2025-02-04,1,,,,,ミルキッシモジャパン,0
810,4010005039517,新規,0,2025-02-04,2025-02-04,一般社団法人ＨＣ　ＴＵＲＦ,,その他の設立登記法人,東京都,千代田区,内神田１丁目３番７号４０１あすな会計事務所内,,13,101,1010047,,,,,,,2025-02-04,1,,,,,エイチシーターフ,0
816,4010401187588,新規,0,2025-02-04,2025-02-04,申請サポートセンター株式会社,,株式会社,東京都,港区,六本木７丁目２１－２４－６０２,,13,103,1060032,,,,,,,2025-02-04,1,,,,,シンセイサポートセンター,0
817,4010401187877,新規,0,2025-02-04,2025-02-04,株式会社スゴイステイ,,株式会社,東京都,港区,東麻布３丁目６番１１号,,13,103,1060044,,,,,,,2025-02-04,1,,,,,スゴイステイ,0
818,4010401187910,新規,0,2025-02-04,2025-02-04,株式会社ＡＺＡＢＵ,,株式会社,東京都,港区,白金６丁目１６番２５－２４１０号,,13,103,1080072,,,,,,,2025-02-04,1,,,,,アザブ,0
819,4010401187968,新規,0,2025-02-04,2025-02-04,株式会社ＭＡ　ＭＵＳＩＣ,,株式会社,東京都,港区,西麻布１丁目８番１２号ＡＲＩＳＴＯ西麻布３Ｆ,,13,103,1060031,,,,,,,2025-02-04,1,,,,,エムエーミュージック,0
820,4010401188074,新規,0,2025-02-04,2025-02-04,株式会社アントレダモーレ,,株式会社,東京都,港区,南青山３丁目１番３６号青山丸竹ビル６Ｆ,,13,103,1070062,,,,,,,2025-02-04,1,,,,,アントレダモーレ,0
822,4010403034268,新規,0,2025-02-04,2025-02-04,合同会社Ｌ＆Ｓ,,合同会社,東京都,港区,高輪４丁目２１番２３号,,13,103,1080074,,,,,,,2025-02-04,1,,,,,エルアンドエス,0
829,4010701047211,新規,0,2025-02-04,2025-02-04,株式会社ＣＯＭＭＯＮＧＲＯＵＮＤ,,株式会社,東京都,品川区,南品川４丁目１７番４号ＷＩＳＴＥＲＩＡ３０１,,13,109,1400004,,,,,,,2025-02-04,1,,,,,コモングラウンド,0
831,4010803005273,新規,0,2025-02-04,2025-02-04,Ｊａｐａｎ　Ｃｒａｆｔ合同会社,,合同会社,東京都,大田区,大森北３丁目１番１０号,,13,111,1430016,,,,,,,2025-02-04,1,,,,,ジャパンクラフト,0
834,4010903009686,新規,0,2025-02-04,2025-02-04,合同会社ＹＳ,,合同会社,東京都,世田谷区,赤堤１丁目１４番５号,,13,112,1560044,,,,,,,2025-02-04,1,,,,,ワイエス,0
843,4011001167435,新規,0,2025-02-04,2025-02-04,恵比寿くらしと相続サポート窓口株式会社,,株式会社,東京都,渋谷区,恵比寿南１丁目１番１号ヒューマックス恵比寿ビル８階,,13,113,1500022,,,,,,,2025-02-04,1,,,,,エビスクラシトソウゾクサポートマドグチ,0
844,4011001167559,新規,0,2025-02-04,2025-02-04,株式会社ｎｅｗｈｏｒｉｚｏｎ,,株式会社,東京都,渋谷区,神泉町１０番１５号アネックス神泉３０１,,13,113,1500045,,,,,,,2025-02-04,1,,,,,ニューホライズン,0
846,4011003020897,新規,0,2025-02-04,2025-02-04,アドベント・インターナショナル・ジャパン合同会社,,合同会社,東京都,渋谷区,桜丘町２６番１号,,13,113,1500031,,,,,,,2025-02-04,1,,,,,アドベントインターナショナルジャパン,0
868,4011501031660,新規,0,2025-02-04,2025-02-04,株式会社ＥＧＧＳ,,株式会社,東京都,荒川区,荒川３丁目６２－３－６０３,,13,118,1160002,,,,,,,2025-02-04,1,,,,,イーグス,0
881,4020001161125,新規,0,2025-02-04,2025-02-04,千業礼株式会社,,株式会社,神奈川県,川崎市幸区,小倉５丁目１番５０号,,14,132,2120054,,,,,,,2025-02-04,1,,,,,センギョウレイ,0
882,4020001161133,新規,0,2025-02-04,2025-02-04,株式会社ＰＣＳ,,株式会社,神奈川県,横浜市金沢区,瀬戸１７番１８－５１２号,,14,108,2360027,,,,,,,2025-02-04,1,,,,,ピーシーエス,0
887,4021003015541,新規,0,2025-02-04,2025-02-04,ＫＩＭＩ　ＳＰＯＲＴＳ合同会社,,合同会社,神奈川県,茅ヶ崎市,菱沼１丁目７番３７号,,14,207,2530011,,,,,,,2025-02-04,1,,,,,キミスポーツ,0
890,4030001164696,新規,0,2025-02-04,2025-02-04,株式会社Ｋｇｒｏｕｐ,,株式会社,埼玉県,上尾市,東町２丁目５番１０号,,11,219,3620031,,,,,,,2025-02-04,1,,,,,ケーグループ,0
891,4030003025987,新規,0,2025-02-04,2025-02-04,合同会社ＸｕＬｙ　ＮａＬｕ　ＸｕＲｙ,,合同会社,埼玉県,川口市,芝新町２－９ミナミビル６Ｆ,,11,203,3330851,,,,,,,2025-02-04,1,,,,,クスリナラクスリー,0
892,4030003026036,新規,0,2025-02-04,2025-02-04,ＲＦＢ合同会社,,合同会社,埼玉県,川口市,榛松３丁目３１－３サンプラザ２１－２０２号,,11,203,3340062,,,,,,,2025-02-04,1,,,,,アールエフビー,0
898,4040001137271,新規,0,2025-02-04,2025-02-04,株式会社まごころクリーン,,株式会社,千葉県,柏市,しいの木台４丁目３５番地１,,12,217,2770945,,,,,,,2025-02-04,1,,,,,マゴコロクリーン,0
906,4070001042601,新規,0,2025-02-04,2025-02-04,東信株式会社,,株式会社,群馬県,邑楽郡邑楽町,大字石打１２２６番地,,10,525,3700604,,,,,,,2025-02-04,1,,,,,トウシン,0
912,4080001026743,新規,0,2025-02-04,2025-02-04,株式会社ＹＮＣユイット,,株式会社,静岡県,焼津市,南小川２丁目２１番地の２０,,22,212,4250037,,,,,,,2025-02-04,1,,,,,ワイエヌシーユイット,0
914,4080401027721,新規,0,2025-02-04,2025-02-04,ｓｔｙｌｅ株式会社,,株式会社,静岡県,湖西市,吉美３０３３番地,,22,221,4310441,,,,,,,2025-02-04,1,,,,,スタイル,0
915,4080403005196,新規,0,2025-02-04,2025-02-04,合同会社スリーグランツ,,合同会社,静岡県,浜松市中央区,三島町１４４７番地フェリス三島Ｄ,,22,138,4300853,,,,,,,2025-02-04,1,,,,,スリーグランツ,0
917,4090003002733,新規,0,2025-02-04,2025-02-04,依田精密合同会社,,合同会社,山梨県,中央市,浅利３５３７番地,,19,214,4001514,,,,,,,2025-02-04,1,,,,,ヨダセイミツ,0
921,4110001039023,新規,0,2025-02-04,2025-02-04,株式会社目崎ホールディングス,,株式会社,新潟県,長岡市,希望が丘南５丁目１１－１１フォレージュ内山６号室,,15,202,9402125,,,,,,,2025-02-04,1,,,,,メサキホールディングス,0
922,4110005017181,新規,0,2025-02-04,2025-02-04,一般社団法人メディカルサイエンスアカデミー,,その他の設立登記法人,新潟県,新潟市中央区,山二ツ５丁目６番２４号５,,15,103,9500922,,,,,,,2025-02-04,1,,,,,メディカルサイエンスアカデミー,0
932,4120001272465,新規,0,2025-02-04,2025-02-04,志誠商事株式会社,,株式会社,大阪府,大阪市東住吉区,照ケ丘矢田１丁目３番１４号ライズワン東住吉ＩＩ４０１号,00137880,27,121,5460021,,,,,,,2025-02-04,1,,,,,シセイショウジ,0
933,4120001272523,新規,0,2025-02-04,2025-02-04,銀騰商事株式会社,,株式会社,大阪府,大阪市住吉区,長居４丁目１２番２１号ドージマ長居ビル２０２,,27,120,5580003,,,,,,,2025-02-04,1,,,,,ギントウショウジ,0
934,4120001272548,新規,0,2025-02-04,2025-02-04,株式会社ＴＥＴＯＴＥ,,株式会社,大阪府,大阪市中央区,島之内２丁目１３番２９号３Ｆ,,27,128,5420082,,,,,,,2025-02-04,1,,,,,テトテ,0
935,4120001272556,新規,0,2025-02-04,2025-02-04,株式会社礎,,株式会社,大阪府,大阪市天王寺区,清水谷町１３番５－６０１号,,27,109,5430011,,,,,,,2025-02-04,1,,,,,イシズエ,0
938,4120003028519,新規,0,2025-02-04,2025-02-04,円縁合同会社,,合同会社,大阪府,枚方市,岡本町７番１号,,27,210,5730031,,,,,,,2025-02-04,1,,,,,エンエン,0
939,4120003028543,新規,0,2025-02-04,2025-02-04,合同会社ＹＵＫＩＳＹ,,合同会社,大阪府,大阪市北区,豊崎３丁目１１番１－６０６号,,27,127,5310072,,,,,,,2025-02-04,1,,,,,ユキシー,0
945,4120101070991,新規,0,2025-02-04,2025-02-04,株式会社未来の子ども,,株式会社,大阪府,堺市堺区,甲斐町東２丁１番６号,,27,141,5900953,,,,,,,2025-02-04,1,,,,,ミライノコドモ,0
946,4120901050391,新規,0,2025-02-04,2025-02-04,株式会社Ｓｏｌａｌａ,,株式会社,大阪府,豊中市,小曽根３丁目１１番８号,,27,203,5610813,,,,,,,2025-02-04,1,,,,,ソララ,0
955,4130001078911,新規,0,2025-02-04,2025-02-04,株式会社ｉｎｋ,,株式会社,京都府,京都市中京区,錦小路通高倉東入中魚屋町５１０番地１－２階,,26,104,6048125,,,,,,,2025-02-04,1,,,,,インク,0
956,4130001078928,新規,0,2025-02-04,2025-02-04,ｍａｄｏｒｏｍｉ株式会社,,株式会社,京都府,京都市下京区,七条通油小路東入大黒町２２７番地第２キョートビル４０２,,26,106,6008223,,,,,,,2025-02-04,1,,,,,マドロミ,0
957,4130001078944,新規,0,2025-02-04,2025-02-04,株式会社ＫＡＲＡＡＧＥ,,株式会社,京都府,京都市左京区,岡崎北御所町３５－９,,26,103,6068336,,,,,,,2025-02-04,1,,,,,カラアゲ,0
958,4130003010186,新規,0,2025-02-04,2025-02-04,マウントＭＧ合同会社,,合同会社,京都府,京都市上京区,上長者町通千本東入愛染寺町４８３番地１,,26,102,6028278,,,,,,,2025-02-04,1,,,,,マウントエムジー,0
961,4130005017279,新規,0,2025-02-04,2025-02-04,一般社団法人命名言霊学協会,,その他の設立登記法人,京都府,京都市上京区,宮垣町９１まむあん荒神口１０２,,26,102,6020853,,,,,,,2025-02-04,1,,,,,メイメイコトダマガクキョウカイ,0
965,4140001137278,新規,0,2025-02-04,2025-02-04,株式会社Ｆｓｔｕｄｉｏ,,株式会社,兵庫県,洲本市,本町６丁目３番９号,,28,205,6560025,,,,,,,2025-02-04,1,,,,,エフスタジオ,0
975,4180001165300,新規,0,2025-02-04,2025-02-04,株式会社ｅ’ｘｉｔｏ,,株式会社,愛知県,名古屋市港区,小碓４丁目３１１番地,,23,111,4550801,,,,,,,2025-02-04,1,,,,,エクシト,0
976,4180001165317,新規,0,2025-02-04,2025-02-04,株式会社ＫＯＨＡＲＵ,,株式会社,愛知県,瀬戸市,萩山台２丁目１７０番地,,23,204,4890886,,,,,,,2025-02-04,1,,,,,コハル,0
980,4190001031971,新規,0,2025-02-04,2025-02-04,株式会社Ｈ・Ｆ．ｃｏｍｐａｎｙ,,株式会社,三重県,四日市市,日永５丁目１番３１号,,24,202,5100885,,,,,,,2025-02-04,1,,,,,エイチエフカンパニー,0
990,4240001064479,新規,0,2025-02-04,2025-02-04,株式会社ＲＣＵ,,株式会社,広島県,広島市中区,東平塚町７番１２－１００４号,,34,101,7300025,,,,,,,2025-02-04,1,,,,,アールシーユー,0
991,4240001064487,新規,0,2025-02-04,2025-02-04,株式会社ＤＸパートナー,,株式会社,広島県,広島市西区,己斐西町２７番１３－２０２号,,34,104,7330814,,,,,,,2025-02-04,1,,,,,ディーエックスパートナー,0
994,4250001020984,新規,0,2025-02-04,2025-02-04,Ａｌｌ　ｚｅｒｏ株式会社,,株式会社,山口県,山口市,平井５７５番地１Ｎ－ＢＡＳＥ１０４,,35,203,7530831,,,,,,,2025-02-04,1,,,,,オールゼロ,0
999,4260001039875,新規,0,2025-02-04,2025-02-04,株式会社ＮＥＰＯＣ,,株式会社,岡山県,倉敷市,茶屋町６９９番地３,,33,202,7101101,,,,,,,2025-02-04,1,,,,,ネポック,0
1004,4290001108826,新規,0,2025-02-04,2025-02-04,ＺＥＲＯＣＯＮＮＥＣＴ株式会社,,株式会社,福岡県,福岡市博多区,空港前５丁目２番２５－２０２号ベレオ博多の森,,40,132,8120002,,,,,,,2025-02-04,1,,,,,ゼロコネクト,0
1011,4290003016374,新規,0,2025-02-04,2025-02-04,合同会社サーニ,,合同会社,福岡県,宗像市,日の里１丁目２８―１０５―８０,,40,220,8113425,,,,,,,2025-02-04,1,,,,,サーニ,0
1016,4290805009807,新規,0,2025-02-04,2025-02-04,一般社団法人ＤＤレスキュー,,その他の設立登記法人,福岡県,遠賀郡遠賀町,遠賀川１丁目６番５号,,40,384,8114307,,,,,,,2025-02-04,1,,,,,ディディレスキュー,0
1027,4340001027104,新規,0,2025-02-04,2025-02-04,株式会社スカイビジョン,,株式会社,鹿児島県,薩摩川内市,隈之城町１４７５番地９,,46,215,8950041,,,,,,,2025-02-04,1,,,,,スカイビジョン,0
1028,4340003004737,新規,0,2025-02-04,2025-02-04,合同会社まほろば,,合同会社,鹿児島県,鹿児島市,加治屋町１５番２０号２階,,46,201,8920846,,,,,,,2025-02-04,1,,,,,マホロバ,0
1031,4360001034742,新規,0,2025-02-04,2025-02-04,メルセンヌプラン株式会社,,株式会社,沖縄県,浦添市,牧港４丁目２５番１－６０２号エンズマリンハーバー牧港,,47,208,9012131,,,,,,,2025-02-04,1,,,,,メルセンヌプラン,0
1051,4400005008465,新規,0,2025-02-04,2025-02-04,一般社団法人岩手県バレーボール協会,,その他の設立登記法人,岩手県,盛岡市,みたけ４丁目１１番５５号２号,,03,201,0200122,,,,,,,2025-02-04,1,,,,,イワテケンバレーボールキョウカイ,0
1056,4430001093590,新規,0,2025-02-04,2025-02-04,株式会社動画編集ビジネスプロ,,株式会社,北海道,札幌市厚別区,上野幌二条６丁目１０番２７号,,01,108,0040032,,,,,,,2025-02-04,1,,,,,ドウガヘンシュウビジネスプロ,0
1057,4430001093608,新規,0,2025-02-04,2025-02-04,合本株式会社,,株式会社,北海道,札幌市中央区,南二条西５丁目３１－１ＲＭＢｌｄ．７０１,,01,101,0600062,,,,,,,2025-02-04,1,,,,,ガッポン,0
1058,4430001093616,新規,0,2025-02-04,2025-02-04,株式会社アイシージー,,株式会社,北海道,札幌市中央区,南十五条西７丁目２番１１－３０１号,,01,101,0640915,,,,,,,2025-02-04,1,,,,,アイシージー,0
1060,4430003017226,新規,0,2025-02-04,2025-02-04,合同会社すずらん,,合同会社,北海道,札幌市東区,東苗穂七条１丁目１番５５号,,01,103,0070807,,,,,,,2025-02-04,1,,,,,スズラン,0
1061,4430003017242,新規,0,2025-02-04,2025-02-04,合同会社グロウループ,,合同会社,北海道,札幌市中央区,南二条西５丁目３１番地１ＲＭＢｌｄ．７０１,,01,101,0600062,,,,,,,2025-02-04,1,,,,,グロウループ,0
1067,4700150129052,新規,0,2025-02-04,2025-02-04,ＮＡＭＥＣＯ（ＮＯ．９９２）ＬＩＭＩＴＥＤ,,外国会社等,東京都,千代田区,霞が関３丁目２－６　東京倶楽部ビルディング６階,,13,101,1000013,Ｏｎｅ　Ｌｉｍｅ　Ｓｔｒｅｅｔ，Ｌｏｎｄｏｎ　ＥＣ３Ｍ　７ＨＡ　ＵＫ,,,,,,2025-02-04,1,,,,,ネームコナンバーナインナインツーリミテツド,0
1068,4700150129060,新規,0,2025-02-04,2025-02-04,ＣＥＹＬＯＮ　ＳＴＡＲ　ＡＵＴＯ　ＴＲＡＤＩＮＧ,,外国会社等,千葉県,山武市,大木６５０番地９オフィス２,,12,237,2891211,スリランカ民主社会主義共和国、アクラナ、マタレロード、Ｎｏ．２９４／１,,,,,,2025-02-04,1,,,,,セイロンスターオートトレーデイング,0
1069,4700150129077,新規,0,2025-02-04,2025-02-04,Ｃａｔａｗｉｋｉ　Ｂ．Ｖ．,,外国会社等,東京都,品川区,東品川４丁目１２番８号品川シーサイドイーストタワー１５階,,13,109,1400002,オランダ王国、アムステルダム、シントヨリス通２,,,,,,2025-02-04,1,,,,,カタウイキビーブイ,0
1078,5010001252048,新規,0,2025-02-04,2025-02-04,株式会社ユニグループテクノロジー,,株式会社,東京都,千代田区,丸の内２丁目２番１号岸本ビル７階,,13,101,1000005,,,,,,,2025-02-04,1,,,,,ユニグループテクノロジー,0
1079,5010001252064,新規,0,2025-02-04,2025-02-04,株式会社響亮,,株式会社,東京都,千代田区,神田神保町１丁目４１－３駿河台下ＭＫビル７Ｆ,,13,101,1010051,,,,,,,2025-02-04,1,,,,,キョウリョウ,0
1082,5010005039516,新規,0,2025-02-04,2025-02-04,一般社団法人ＰＪＧ１,,その他の設立登記法人,東京都,千代田区,内神田１丁目３番７号４０１あすな会計事務所内,,13,101,1010047,,,,,,,2025-02-04,1,,,,,ピージェイジーワン,0
1087,5010401187868,新規,0,2025-02-04,2025-02-04,株式会社ＳＨＡＰＥ　Ｓｐｏｒｔｓ,,株式会社,東京都,港区,南青山５丁目１３番１号,,13,103,1070062,,,,,,,2025-02-04,1,,,,,シェイプスポーツ,0
1088,5010403034283,新規,0,2025-02-04,2025-02-04,アークキャピタル合同会社,,合同会社,東京都,港区,麻布台１丁目２番１－３９０７号,,13,103,1060041,,,,,,,2025-02-04,1,,,,,アークキャピタル,0
1091,5010501053532,新規,0,2025-02-04,2025-02-04,Ｗｏｎｄｅｒ　Ｊ株式会社,,株式会社,東京都,台東区,寿３丁目１６－１５－６０１,,13,106,1110042,,,,,,,2025-02-04,1,,,,,ワンダージェイ,0
1092,5010501053557,新規,0,2025-02-04,2025-02-04,レジー株式会社,,株式会社,東京都,台東区,千束３丁目２１－１２キートスビル４０２,,13,106,1110031,,,,,,,2025-02-04,1,,,,,レジー,0
1093,5010501053573,新規,0,2025-02-04,2025-02-04,Ａｌｐｈａ　Ｔｅｃｈ　Ｊａｐａｎ株式会社,,株式会社,東京都,台東区,東上野３丁目１５番１３号スエヒロビル６階,,13,106,1100015,,,,,,,2025-02-04,1,,,,,アルファテックジャパン,0
1098,5010901056754,新規,0,2025-02-04,2025-02-04,クラウドＡＩジャパン株式会社,,株式会社,東京都,世田谷区,深沢８丁目６番６号,,13,112,1580081,,,,,,,2025-02-04,1,,,,,クラウドエーアイジャパン,0
1099,5010903009685,新規,0,2025-02-04,2025-02-04,合同会社ちゃのみ企画,,合同会社,東京都,世田谷区,砧５丁目２３番８号板倉ハイツ１Ｆ（旧板倉書店）,,13,112,1570073,,,,,,,2025-02-04,1,,,,,チャノミキカク,0
1109,5011001167450,新規,0,2025-02-04,2025-02-04,Ｎ３株式会社,,株式会社,東京都,渋谷区,広尾１丁目５番９号ミドルリバー広尾１０２,,13,113,1500012,,,,,,,2025-02-04,1,,,,,エヌスリー,0
1110,5011001167491,新規,0,2025-02-04,2025-02-04,ＴＥＮＫＥＹ株式会社,,株式会社,東京都,目黒区,鷹番１丁目１－７,,13,110,1520004,,,,,,,2025-02-04,1,,,,,テンキー,0
1114,5011003020888,新規,0,2025-02-04,2025-02-04,合同会社ｎ＆ｙ,,合同会社,東京都,渋谷区,代々木４丁目２４番５－２１０号,,13,113,1510053,,,,,,,2025-02-04,1,,,,,エヌアンドワイ,0
1115,5011003020913,新規,0,2025-02-04,2025-02-04,合同会社Ｐｏｎｄ　Ｗｏｒｋｓ,,合同会社,東京都,渋谷区,渋谷２丁目１９―１５宮益坂ビルディング６０９,,13,113,1500002,,,,,,,2025-02-04,1,,,,,ポンドワークス,0
1117,5011005010846,新規,0,2025-02-04,2025-02-04,一般財団法人ライジング・サン・オペラ・ファウンデーション,,その他の設立登記法人,東京都,渋谷区,道玄坂２丁目１５番１－４０７号,,13,113,1500043,,,,,,,2025-02-04,1,,,,,ライジングサンオペラファウンデーション,0
1120,5011101110302,新規,0,2025-02-04,2025-02-04,株式会社アガルートＭ＆Ａ,,株式会社,東京都,新宿区,新小川町５番５号,,13,104,1620814,,,,,,,2025-02-04,1,,,,,アガルートエムアンドエー,0
1125,5011201026101,新規,0,2025-02-04,2025-02-04,株式会社ユーピーピー,,株式会社,東京都,中野区,南台４丁目１１‐２‐２,,13,114,1640014,,,,,,,2025-02-04,1,,,,,ユーピーピー,0
1130,5011401026751,新規,0,2025-02-04,2025-02-04,Ｃｈｒｉｓ　Ｐｙｒａｔｅ　Ａｎｄ　Ｆｒｉｅｎｄｓ　Ｊａｐａｎ株式会社,,株式会社,東京都,板橋区,上板橋２丁目１２－５ヴィアロウ上板橋レジデンス１０３,,13,119,1740076,,,,,,,2025-02-04,1,,,,,クリスピレートアンドフレンズジャパン,0
1132,5011503006412,新規,0,2025-02-04,2025-02-04,合同会社エイケン,,合同会社,東京都,荒川区,東日暮里１丁目２８番１１号,,13,118,1160014,,,,,,,2025-02-04,1,,,,,エイケン,0
1136,5011801045434,新規,0,2025-02-04,2025-02-04,株式会社ＮＧＸＹ,,株式会社,東京都,足立区,鹿浜８丁目２９番１５号,,13,121,1230864,,,,,,,2025-02-04,1,,,,,エヌジーエックスワイ,0
1137,5011801045574,新規,0,2025-02-04,2025-02-04,株式会社ＡｄＷｏｒｋ,,株式会社,東京都,葛飾区,新小岩１丁目１７－１３ＳＥＥＬＥ新小岩２０１,,13,122,1240024,,,,,,,2025-02-04,1,,,,,アドワーク,0
1138,5011803006673,新規,0,2025-02-04,2025-02-04,合同会社ＲＥＳＥＴ,,合同会社,東京都,足立区,梅島１丁目１４番２０号２０２号室,,13,121,1210816,,,,,,,2025-02-04,1,,,,,リセット,0
1139,5012301014251,新規,0,2025-02-04,2025-02-04,Ｂｅｌｌｅ株式会社,,株式会社,東京都,町田市,成瀬台４丁目５番地４,,13,209,1940043,,,,,,,2025-02-04,1,,,,,ベル,0
1140,5012303002106,新規,0,2025-02-04,2025-02-04,合同会社Ｔｉｍｅｓ,,合同会社,東京都,町田市,山崎町２１３０番地山崎団地７－２９－３０４,,13,209,1950074,,,,,,,2025-02-04,1,,,,,タイムズ,0
1144,5012701018694,新規,0,2025-02-04,2025-02-04,株式会社理系ｇａｍｅｓ,,株式会社,東京都,小平市,美園町２丁目３番２１号,,13,211,1870041,,,,,,,2025-02-04,1,,,,,リケイゲームズ,0
1146,5013301053743,新規,0,2025-02-04,2025-02-04,株式会社ＮＥＯＲＩＳ,,株式会社,東京都,豊島区,西池袋１丁目１１番１号メトロポリタンプラザ１４Ｆ,,13,116,1710021,,,,,,,2025-02-04,1,,,,,ネオリス,0
1151,5020001161099,新規,0,2025-02-04,2025-02-04,ヒューマンネイチャー株式会社,,株式会社,神奈川県,川崎市川崎区,殿町３丁目１３番７号,,14,131,2100821,,,,,,,2025-02-04,1,,,,,ヒューマンネイチャー,0
1152,5020001161116,新規,0,2025-02-04,2025-02-04,株式会社ＢＩＣＨＯ,,株式会社,神奈川県,横浜市瀬谷区,橋戸３丁目３４番地４ネイヴィーフィールド瀬谷０３２号,,14,114,2460037,,,,,,,2025-02-04,1,,,,,ビチョ,0
1153,5020001161124,新規,0,2025-02-04,2025-02-04,株式会社藤増,,株式会社,神奈川県,横浜市瀬谷区,相沢１丁目１番地９,,14,114,2460013,,,,,,,2025-02-04,1,,,,,,0
1154,5020001161132,新規,0,2025-02-04,2025-02-04,株式会社タツマキライド,,株式会社,神奈川県,横浜市西区,北幸１丁目１１番１号ミズノブビル７階,,14,103,2200004,,,,,,,2025-02-04,1,,,,,タマツキライド,0
1155,5020001161198,新規,0,2025-02-04,2025-02-04,マイルドホールディングス株式会社,,株式会社,神奈川県,横浜市都筑区,中川中央１丁目２８番１１号,,14,118,2240003,,,,,,,2025-02-04,1,,,,,マイルドホールディングス,0
1156,5020003027678,新規,0,2025-02-04,2025-02-04,合同会社こころマネジメント,,合同会社,神奈川県,川崎市宮前区,西野川３丁目２番１４号,,14,136,2160044,,,,,,,2025-02-04,1,,,,,ココロマネジメント,0
1161,5021001084380,新規,0,2025-02-04,2025-02-04,株式会社ＳＫＰ,,株式会社,神奈川県,小田原市,千代８８８番地の２,,14,206,2500215,,,,,,,2025-02-04,1,,,,,エスケーピー,0
1186,5050001056115,新規,0,2025-02-04,2025-02-04,株式会社たべあるき,,株式会社,茨城県,取手市,新町１丁目９番１号５０１区画,,08,217,3020024,,,,,,,2025-02-04,1,,,,,タベアルキ,0
1197,5110001039022,新規,0,2025-02-04,2025-02-04,Ｚｉｔｏｘ株式会社,,株式会社,新潟県,新潟市中央区,女池北１丁目３番地３号,,15,103,9500947,,,,,,,2025-02-04,1,,,,,ジトックス,0
1208,5120001272539,新規,0,2025-02-04,2025-02-04,ＵＰ妍株式会社,,株式会社,大阪府,大阪市生野区,新今里３丁目１０－８ワコー新今里１０１号,,27,116,5440001,,,,,,,2025-02-04,1,,,,,ユーピーケン,0
1209,5120001272555,新規,0,2025-02-04,2025-02-04,株式会社基,,株式会社,大阪府,大阪市天王寺区,清水谷町１３番５－６０１号,,27,109,5430011,,,,,,,2025-02-04,1,,,,,モトイ,0
1210,5120001272563,新規,0,2025-02-04,2025-02-04,松葉商事株式会社,,株式会社,大阪府,大阪市生野区,巽中２丁目４－１５－３０４号,,27,116,5440013,,,,,,,2025-02-04,1,,,,,マツバショウジ,0
1215,5120003028534,新規,0,2025-02-04,2025-02-04,合同会社グリフォン,,合同会社,大阪府,大阪市東成区,中本５丁目１３番１０－６０７号,,27,115,5370022,,,,,,,2025-02-04,1,,,,,グリフォン,0
1216,5120003028542,新規,0,2025-02-04,2025-02-04,合同会社ライトハーベスト会計,,合同会社,大阪府,大阪市住之江区,南港中５丁目６番２１－８２２号,,27,125,5590033,,,,,,,2025-02-04,1,,,,,ライトハーベストカイケイ,0
1218,5120101070999,新規,0,2025-02-04,2025-02-04,佳友居株式会社,,株式会社,大阪府,阪南市,貝掛６３番３号シーサイド貝掛Ｂ棟１０８号室,,27,232,5990231,,,,,,,2025-02-04,1,,,,,カユウキョ,0
1220,5120901050390,新規,0,2025-02-04,2025-02-04,株式会社ティーエス・ユーズ,,株式会社,大阪府,豊中市,利倉２丁目２１‐２６,,27,203,5610845,,,,,,,2025-02-04,1,,,,,ティーエスユーズ,0
1221,5120901050399,新規,0,2025-02-04,2025-02-04,株式会社ｚｅｎ,,株式会社,大阪府,吹田市,千里山松が丘７番２２－２０３号,,27,205,5650843,,,,,,,2025-02-04,1,,,,,ゼン,0
1222,5120903005533,新規,0,2025-02-04,2025-02-04,合同会社ＥＩＧＨＴ,,合同会社,大阪府,茨木市,玉島２丁目１１番８号レジデンスジュメーラオアシス２０２号,,27,211,5670846,,,,,,,2025-02-04,1,,,,,エイト,0
1226,5130001078927,新規,0,2025-02-04,2025-02-04,チーバック産業株式会社,,株式会社,京都府,木津川市,兜台６丁目１４番地１０,,26,214,6190224,,,,,,,2025-02-04,1,,,,,チーバックサンギョウ,0
1229,5130003010185,新規,0,2025-02-04,2025-02-04,合同会社ヤンメイ,,合同会社,京都府,京都市左京区,浄土寺上南田町３３番地４,,26,103,6068405,,,,,,,2025-02-04,1,,,,,ヤンメイ,0
1232,5140001137260,新規,0,2025-02-04,2025-02-04,藤吉企画株式会社,,株式会社,兵庫県,姫路市,網干区高田３６５番地５、２Ｆ,,28,201,6711226,,,,,,,2025-02-04,1,,,,,フジヨシキカク,0
1233,5140001137285,新規,0,2025-02-04,2025-02-04,株式会社コアリーフ,,株式会社,兵庫県,神戸市長田区,大橋町４丁目４番１７号,,28,106,6530037,,,,,,,2025-02-04,1,,,,,コアリーフ,0
1234,5140003021586,新規,0,2025-02-04,2025-02-04,合同会社Ｃｏｍｍｐｒｏ,,合同会社,兵庫県,加古川市,平岡町一色６３１番１１,,28,210,6750115,,,,,,,2025-02-04,1,,,,,コムプロ,0
1236,5150001027857,新規,0,2025-02-04,2025-02-04,株式会社スリーアイズ,,株式会社,奈良県,生駒市,鹿ノ台南１丁目８番地３４,,29,209,6300113,,,,,,,2025-02-04,1,,,,,スリーアイズ,0
1239,5160003003392,新規,0,2025-02-04,2025-02-04,レアルスマイル合同会社,,合同会社,滋賀県,大津市,雄琴５丁目７－９,,25,201,5200101,,,,,,,2025-02-04,1,,,,,レアルスマイル,0
1240,5170001018482,新規,0,2025-02-04,2025-02-04,株式会社ＬＯＣＡＬ　ＦＩＴ,,株式会社,和歌山県,田辺市,湊１２番３１号,,30,206,6460031,,,,,,,2025-02-04,1,,,,,ローカルフィット,0
1252,5180001165290,新規,0,2025-02-04,2025-02-04,ＯｐｅｎＢｒｉｄｇｅ株式会社,,株式会社,愛知県,名古屋市中村区,名駅３丁目２０番２０号名駅錦ビル６Ｆ,,23,105,4500002,,,,,,,2025-02-04,1,,,,,オープンブリッジ,0
1256,5180003027951,新規,0,2025-02-04,2025-02-04,ＦＬＹＢＩＲＤ合同会社,,合同会社,愛知県,名古屋市瑞穂区,日向町４丁目４５番地の１,,23,108,4670047,,,,,,,2025-02-04,1,,,,,フライバード,0
1261,5190001031970,新規,0,2025-02-04,2025-02-04,株式会社垣本園,,株式会社,三重県,名張市,青蓮寺１６２４番地,,24,208,5180443,,,,,,,2025-02-04,1,,,,,カキモトエン,0
1263,5210001020038,新規,0,2025-02-04,2025-02-04,テック若狭株式会社,,株式会社,福井県,大飯郡高浜町,中津海第２４号１８番地８,,18,481,9192211,,,,,,,2025-02-04,1,,,,,テックワカサ,0
1267,5240001064478,新規,0,2025-02-04,2025-02-04,株式会社ＧＳＢ,,株式会社,広島県,山県郡北広島町,都志見３６１７番地,,34,369,7311712,,,,,,,2025-02-04,1,,,,,ジーエスビー,0
1268,5240001064486,新規,0,2025-02-04,2025-02-04,株式会社ＶＥＥＴＨマーケティング,,株式会社,広島県,広島市中区,大手町２丁目２番９号ビル博丈大手町２Ｆ,,34,101,7300051,,,,,,,2025-02-04,1,,,,,ヴェースマーケティング,0
1273,5260001039874,新規,0,2025-02-04,2025-02-04,株式会社ＩＭＵＡ,,株式会社,岡山県,倉敷市,林１５８３番地,,33,202,7100142,,,,,,,2025-02-04,1,,,,,イムア,0
1275,5280001009347,新規,0,2025-02-04,2025-02-04,株式会社晃悠舎,,株式会社,島根県,松江市,乃白町６８２番地,,32,201,6900045,,,,,,,2025-02-04,1,,,,,コウユウシャ,0
1281,5290001108809,新規,0,2025-02-04,2025-02-04,株式会社悠翔,,株式会社,福岡県,福岡市東区,香椎照葉７丁目１番２４号,,40,131,8130017,,,,,,,2025-02-04,1,,,,,ユウショウ,0
1282,5290001108833,新規,0,2025-02-04,2025-02-04,株式会社うるま,,株式会社,福岡県,福岡市博多区,月隈２丁目５番４３号,,40,132,8120858,,,,,,,2025-02-04,1,,,,,ウルマ,0
1285,5290003016357,新規,0,2025-02-04,2025-02-04,合同会社ＯＭＫｅｖｅ,,合同会社,福岡県,福岡市中央区,薬院３丁目１２番１６－７０１号エンクレスト薬院ＮＯＢＬＥ,,40,133,8100022,,,,,,,2025-02-04,1,,,,,オーエムケーイヴ,0
1286,5290003016373,新規,0,2025-02-04,2025-02-04,合同会社ＳＨＯＷ,,合同会社,福岡県,福岡市博多区,住吉５丁目１０番７号,,40,132,8120018,,,,,,,2025-02-04,1,,,,,ショウ,0
1289,5310003004937,新規,0,2025-02-04,2025-02-04,合同会社ＮＪＨ,,合同会社,長崎県,長崎市,古川町９番７号３０１,,42,201,8500851,,,,,,,2025-02-04,1,,,,,エヌジェーエイチ,0
1290,5320005010222,新規,0,2025-02-04,2025-02-04,一般社団法人つながる剣道教室,,その他の設立登記法人,大分県,別府市,石垣西６丁目３番９号,,44,202,8740910,,,,,,,2025-02-04,1,,,,,ツナガルケンドウキョウシツ,0
1293,5330003010784,新規,0,2025-02-04,2025-02-04,合同会社一晴舎,,合同会社,熊本県,熊本市中央区,新屋敷２丁目２－２６プチフォーラム８－２０１号室,,43,101,8620975,,,,,,,2025-02-04,1,,,,,イッセイシャ,0
1296,5360003014659,新規,0,2025-02-04,2025-02-04,合同会社Ａｉｄ　Ｃａｒｅ,,合同会社,沖縄県,中頭郡北中城村,字熱田２０５,,47,327,9012313,,,,,,,2025-02-04,1,,,,,エイドケア,0
1298,5370001052206,新規,0,2025-02-04,2025-02-04,株式会社零進,,株式会社,宮城県,塩竈市,中の島１－２１,,04,203,9850015,,,,,,,2025-02-04,1,,,,,レイシン,0
1307,5410001014052,新規,0,2025-02-04,2025-02-04,やまだ建築工房株式会社,,株式会社,秋田県,秋田市,新屋栗田町１３番６０号,,05,201,0101621,,,,,,,2025-02-04,1,,,,,ヤマダケンチクコウボウ,0
1332,6010001251767,新規,0,2025-02-04,2025-02-04,株式会社ＯＭＯＲＯ　ｎｏ　ＷＡ,,株式会社,東京都,中央区,銀座６丁目６番１号銀座風月堂ビル５階,,13,102,1040061,,,,,,,2025-02-04,1,,,,,オモロノワ,0
1333,6010001252088,新規,0,2025-02-04,2025-02-04,株式会社ピクセルブリッジ,,株式会社,東京都,中央区,銀座１丁目１２―４Ｎ＆ＥＢＬＤ．６Ｆ,,13,102,1040061,,,,,,,2025-02-04,1,,,,,ピクセルブリッジ,0
1335,6010003046257,新規,0,2025-02-04,2025-02-04,ＭＡＡ　Ｍａｒｉｎａ合同会社,,合同会社,東京都,中央区,日本橋兜町９番１号,,13,102,1030026,,,,,,,2025-02-04,1,,,,,エムエーエーマリーナ,0
1337,6010005039515,新規,0,2025-02-04,2025-02-04,一般社団法人ＨＭインベストメント,,その他の設立登記法人,東京都,千代田区,丸の内１丁目４番１号東京共同会計事務所内,,13,101,1000005,,,,,,,2025-02-04,1,,,,,エイチエムインベストメント,0
1340,6010401187842,新規,0,2025-02-04,2025-02-04,株式会社ＶＩＴＡＬ　ＤＥＳＩＧＮ,,株式会社,東京都,港区,南青山３丁目１番３６号青山丸竹ビル６Ｆ,,13,103,1070062,,,,,,,2025-02-04,1,,,,,バイタルデザイン,0
1341,6010401187875,新規,0,2025-02-04,2025-02-04,ファングループ株式会社,,株式会社,東京都,港区,海岸１丁目１番１－１９０５,,13,103,1050022,,,,,,,2025-02-04,1,,,,,ファングループ,0
1342,6010403034266,新規,0,2025-02-04,2025-02-04,タイワンホットニュース合同会社,,合同会社,東京都,港区,高輪３丁目２５番２２号高輪カネオビル３階,,13,103,1080074,,,,,,,2025-02-04,1,,,,,タイワンホットニュース,0
1343,6010403034274,新規,0,2025-02-04,2025-02-04,合同会社ＨＯＣＵＳ　ＰＯＣＵＳ,,合同会社,東京都,港区,南麻布２丁目１５番５号,,13,103,1060047,,,,,,,2025-02-04,1,,,,,ホーカスポーカス,0
1347,6010601066722,新規,0,2025-02-04,2025-02-04,株式会社Ｐａｇｅ　Ｃｒａｆｔ,,株式会社,東京都,墨田区,東向島３丁目３９－５ライオンズ墨田曳舟８０２号,,13,107,1310032,,,,,,,2025-02-04,1,,,,,ページクラフト,0
1350,6010801035816,新規,0,2025-02-04,2025-02-04,安信株式会社,,株式会社,東京都,大田区,東馬込１丁目９番１１号,,13,111,1430022,,,,,,,2025-02-04,1,,,,,アンシン,0
1351,6010803005271,新規,0,2025-02-04,2025-02-04,合同会社くらたや,,合同会社,東京都,大田区,矢口１丁目２２－２０,,13,111,1460093,,,,,,,2025-02-04,1,,,,,クラタヤ,0
1360,6011001167557,新規,0,2025-02-04,2025-02-04,株式会社りょうまい,,株式会社,東京都,渋谷区,渋谷２丁目１９番１５－６０９号宮益坂ビルディング,,13,113,1500002,,,,,,,2025-02-04,1,,,,,リョウマイ,0
1362,6011003020887,新規,0,2025-02-04,2025-02-04,合同会社Ｍｏｏｎ　Ｌａｎｄｓｃａｐｅ,,合同会社,東京都,渋谷区,円山町５－５Ｎａｖｉ渋谷Ｖ３階,,13,113,1500044,,,,,,,2025-02-04,1,,,,,ムーンランドスケープ,0
1363,6011003020904,新規,0,2025-02-04,2025-02-04,合同会社ＴｉｅｒＯｎｅ,,合同会社,東京都,目黒区,下目黒１丁目５―２１―５０１,,13,110,1530064,,,,,,,2025-02-04,1,,,,,ティアワン,0
1366,6011105011322,新規,0,2025-02-04,2025-02-04,一般社団法人印度人の集い,,その他の設立登記法人,東京都,新宿区,西新宿３丁目５番３－１４０２号,,13,104,1600023,,,,,,,2025-02-04,1,,,,,インドジンノツドイ,0
1371,6011603004595,新規,0,2025-02-04,2025-02-04,合同会社ＢＬＦ,,合同会社,東京都,練馬区,大泉学園町１丁目１７番１３号,,13,120,1780061,,,,,,,2025-02-04,1,,,,,ビーエルエフ,0
1373,6012301014250,新規,0,2025-02-04,2025-02-04,株式会社ＬＥ　ＳＴＵＤＩＯ　ＶＩＣＥ,,株式会社,東京都,町田市,大蔵町２９４６番地５,,13,209,1950062,,,,,,,2025-02-04,1,,,,,レスタジオビセ,0
1376,6012801023726,新規,0,2025-02-04,2025-02-04,株式会社弘國,,株式会社,東京都,立川市,一番町５丁目５番地の３,,13,202,1900033,,,,,,,2025-02-04,1,,,,,ヒロクニ,0
1377,6012803003619,新規,0,2025-02-04,2025-02-04,合同会社００８０,,合同会社,東京都,国分寺市,東恋ヶ窪３丁目１６番地８３,,13,214,1850014,,,,,,,2025-02-04,1,,,,,ダブルオーエイティ,0
1380,6020001161115,新規,0,2025-02-04,2025-02-04,株式会社Ａｄａｓｔｒｏｎ,,株式会社,神奈川県,川崎市宮前区,宮前平１丁目９番地１５パラッシオ宮前平２０４,,14,136,2160006,,,,,,,2025-02-04,1,,,,,アダストロン,0
1381,6020001161123,新規,0,2025-02-04,2025-02-04,株式会社ジョイナリー,,株式会社,神奈川県,川崎市多摩区,南生田５丁目１４番１８号ライトアップヒルＡ－１０１,,14,135,2140036,,,,,,,2025-02-04,1,,,,,ジョイナリー,0
1382,6020001161197,新規,0,2025-02-04,2025-02-04,株式会社ＭＫ．ＡＳＭＵＩ,,株式会社,神奈川県,川崎市川崎区,大島２丁目７番１２号,,14,131,2100834,,,,,,,2025-02-04,1,,,,,エムケーアシムイ,0
1383,6020001161206,新規,0,2025-02-04,2025-02-04,株式会社ヴェーダＨＤ,,株式会社,神奈川県,川崎市中原区,下小田中２丁目１２番８号武蔵中原ビル５階,,14,133,2110041,,,,,,,2025-02-04,1,,,,,ヴェーダエイチディー,0
1384,6020003027727,新規,0,2025-02-04,2025-02-04,オフィス孝合同会社,,合同会社,神奈川県,横浜市青葉区,しらとり台２－３１ハイム青葉台,,14,117,2270054,,,,,,,2025-02-04,1,,,,,オフィスタカ,0
1390,6021001084355,新規,0,2025-02-04,2025-02-04,秦田太郎株式会社,,株式会社,神奈川県,秦野市,南矢名２２２３番地の４東海ビル２０７Ａ,,14,211,2570003,,,,,,,2025-02-04,1,,,,,シンダタロウ,0
1391,6021001084371,新規,0,2025-02-04,2025-02-04,株式会社相模リペア,,株式会社,神奈川県,相模原市緑区,東橋本１丁目１５番２３号,,14,151,2520144,,,,,,,2025-02-04,1,,,,,サガミリペア,0
1392,6021001084388,新規,0,2025-02-04,2025-02-04,株式会社ＶＩＮＯＮ,,株式会社,神奈川県,逗子市,新宿１丁目３－４グランツオーベル逗子海岸２０５号,,14,208,2490007,,,,,,,2025-02-04,1,,,,,ヴィノン,0
1394,6021003015440,新規,0,2025-02-04,2025-02-04,合同会社ＦＵＪＩＩ,,合同会社,神奈川県,茅ヶ崎市,白浜町３―７,,14,207,2530036,,,,,,,2025-02-04,1,,,,,フジイ,0
1395,6021005013269,新規,0,2025-02-04,2025-02-04,特定非営利活動法人むすびぃと,,その他の設立登記法人,神奈川県,横須賀市,根岸町５丁目７番２８号,,14,201,2390807,,,,,,,2025-02-04,1,,,,,ムスビィト,0
1401,6030001164703,新規,0,2025-02-04,2025-02-04,株式会社テトネ,,株式会社,埼玉県,さいたま市見沼区,東大宮４丁目６９番地２０,,11,104,3370051,,,,,,,2025-02-04,1,,,,,テトネ,0
1402,6030001164744,新規,0,2025-02-04,2025-02-04,株式会社コイズミ,,株式会社,埼玉県,越谷市,大字恩間４７４番地２,,11,222,3430033,,,,,,,2025-02-04,1,,,,,コイズミ,0
1405,6030003026026,新規,0,2025-02-04,2025-02-04,合同会社Ｋ＆Ａｒｃｈアソシエイツ,,合同会社,埼玉県,川越市,東田町４番地３１５,,11,201,3501114,,,,,,,2025-02-04,1,,,,,ケーアンドアーチアソシエイツ,0
1416,6050001056114,新規,0,2025-02-04,2025-02-04,株式会社ミラス,,株式会社,茨城県,坂東市,岩井４５７３番地１,,08,228,3060631,,,,,,,2025-02-04,1,,,,,ミラス,0
1421,6070001042599,新規,0,2025-02-04,2025-02-04,株式会社ルフレ,,株式会社,群馬県,邑楽郡大泉町,仙石３丁目３１番２０号,,10,524,3700533,,,,,,,2025-02-04,1,,,,,ルフレ,0
1425,6080001026741,新規,0,2025-02-04,2025-02-04,株式会社Ｓａｎｄｉｑｕｅ,,株式会社,静岡県,牧之原市,勝俣１４５２－１,,22,226,4210414,,,,,,,2025-02-04,1,,,,,,0
1428,6110001039021,新規,0,2025-02-04,2025-02-04,株式会社ＳＡＬＯＮ　ＤＥ　Ｋ,,株式会社,新潟県,新潟市秋葉区,新津本町２丁目３番４号,,15,105,9560864,,,,,,,2025-02-04,1,,,,,サロンドケイ,0
1437,6120001272422,新規,0,2025-02-04,2025-02-04,ＦＯＮＣＴＩＯＮ　ＣＬＯＴＨＩＮＧ株式会社,,株式会社,大阪府,大阪市住之江区,安立４丁目１番１８号アンビエント安立１階,,27,125,5590003,,,,,,,2025-02-04,1,,,,,フォンクションクロージング,0
1438,6120001272505,新規,0,2025-02-04,2025-02-04,ＭＩＮＴ株式会社,,株式会社,大阪府,大阪市西成区,南津守７丁目６番２１号,,27,122,5570063,,,,,,,2025-02-04,1,,,,,ミント,0
1439,6120001272546,新規,0,2025-02-04,2025-02-04,株式会社ＫＡＩ,,株式会社,大阪府,大阪市中央区,安土町３丁目４－９クレヴィアタワー御堂筋本町２３０５,,27,128,5410052,,,,,,,2025-02-04,1,,,,,カイ,0
1440,6120001272587,新規,0,2025-02-04,2025-02-04,株式会社大西フューチャービューティー,,株式会社,大阪府,大阪市都島区,高倉町３丁目１５番１５号１Ｆ,,27,102,5340011,,,,,,,2025-02-04,1,,,,,オオニシフューチャービューティー,0
1447,6120003028533,新規,0,2025-02-04,2025-02-04,宮藏合同会社,,合同会社,大阪府,大阪市西成区,萩之茶屋２丁目５番４号,,27,122,5570004,,,,,,,2025-02-04,1,,,,,ミヤクラ,0
1448,6120005024737,新規,0,2025-02-04,2025-02-04,一般社団法人キャリア共育プロジェクト,,その他の設立登記法人,大阪府,大阪市中央区,大手通２丁目３番１４号,,27,128,5400021,,,,,,,2025-02-04,1,,,,,キャリアキョウイクプロジェクト,0
1462,6130001078934,新規,0,2025-02-04,2025-02-04,株式会社エム・エス・エス・オレンジキューブ,,株式会社,京都府,城陽市,中芦原５５Ｆ棟,,26,207,6100113,,,,,,,2025-02-04,1,,,,,エムエスエスオレンジキューブ,0
1469,6140001137276,新規,0,2025-02-04,2025-02-04,株式会社Ｔｒｉ‐Ｄ　Ｔｒｙ,,株式会社,兵庫県,宝塚市,中野町６番５－５０２号,,28,214,6650056,,,,,,,2025-02-04,1,,,,,トライディトライ,0
1473,6160001026527,新規,0,2025-02-04,2025-02-04,株式会社ＹＯＬＯＢＵ,,株式会社,滋賀県,大津市,末広町３番１号,,25,201,5200056,,,,,,,2025-02-04,1,,,,,ヨロブ,0
1474,6160003003391,新規,0,2025-02-04,2025-02-04,合同会社ゆうき農園,,合同会社,滋賀県,長浜市,湖北今町２８２番地,,25,203,5290333,,,,,,,2025-02-04,1,,,,,ユウキノウエン,0
1475,6170001018481,新規,0,2025-02-04,2025-02-04,黒崎ヴィレッジ株式会社,,株式会社,和歌山県,西牟婁郡すさみ町,周参見４３３番２,,30,406,6492621,,,,,,,2025-02-04,1,,,,,クロサキヴィレッジ,0
1481,6180001165174,新規,0,2025-02-04,2025-02-04,株式会社ファンシード,,株式会社,愛知県,小牧市,若草町６４番地１,,23,219,4850031,,,,,,,2025-02-04,1,,,,,ファンシード,0
1482,6180001165281,新規,0,2025-02-04,2025-02-04,株式会社Ｌｏｙａｌ　ｓｕｐｐｏｒｔ,,株式会社,愛知県,名古屋市中村区,元中村町１丁目９９―１　Ｃｈｅｒｉｍ元中村　１０３号,,23,105,4530047,,,,,,,2025-02-04,1,,,,,ロイヤルサポート,0
1483,6180001165298,新規,0,2025-02-04,2025-02-04,ＫＥＮＤＥＮＫＩ株式会社,,株式会社,愛知県,一宮市,西五城字杁先南３番地１,,23,203,4940005,,,,,,,2025-02-04,1,,,,,ケンデンキ,0
1486,6180003027942,新規,0,2025-02-04,2025-02-04,合同会社ピオニエ,,合同会社,愛知県,知多郡東浦町,大字緒川字於大が丘１７２番地グレイスエーリ１０６号,,23,442,4702102,,,,,,,2025-02-04,1,,,,,ピオニエ,0
1492,6200003006687,新規,0,2025-02-04,2025-02-04,合同会社きりび,,合同会社,岐阜県,各務原市,鵜沼東町２丁目１６１番地,,21,213,5090126,,,,,,,2025-02-04,1,,,,,キリビ,0
1496,6240001064469,新規,0,2025-02-04,2025-02-04,株式会社プライム企画,,株式会社,広島県,福山市,三吉町４丁目３番１６－６０１号,,34,207,7200031,,,,,,,2025-02-04,1,,,,,プライムキカク,0
1497,6240001064477,新規,0,2025-02-04,2025-02-04,株式会社ａｌｌｙ,,株式会社,広島県,三原市,和田２丁目２９番６号,,34,204,7230041,,,,,,,2025-02-04,1,,,,,アリー,0
1502,6250001020990,新規,0,2025-02-04,2025-02-04,株式会社ラフレンダリング,,株式会社,山口県,岩国市,牛野谷町２丁目２３番９－１号,,35,208,7410071,,,,,,,2025-02-04,1,,,,,ラフレンダリング,0
1505,6260001039873,新規,0,2025-02-04,2025-02-04,株式会社ＡＬＯＨＡＮＡ　Ｐｌｕｓ,,株式会社,岡山県,岡山市南区,福田２２７番地２８,,33,104,7028021,,,,,,,2025-02-04,1,,,,,アロハナプラス,0
1509,6280001009346,新規,0,2025-02-04,2025-02-04,共生ＦＰ事務所株式会社,,株式会社,島根県,松江市,法吉町３０番地４８,,32,201,6900861,,,,,,,2025-02-04,1,,,,,キョウセイエフピージムショ,0
1515,6290003016348,新規,0,2025-02-04,2025-02-04,合同会社天空海,,合同会社,福岡県,春日市,平田台４丁目５６番地セジュールプロプル２０６号室,,40,218,8160812,,,,,,,2025-02-04,1,,,,,アクア,0
1516,6290003016356,新規,0,2025-02-04,2025-02-04,東盛合同会社,,合同会社,福岡県,福岡市西区,石丸２丁目２２番３３号,,40,135,8190025,,,,,,,2025-02-04,1,,,,,トウセイ,0
1517,6290003016372,新規,0,2025-02-04,2025-02-04,ＶＩＣａｒ合同会社,,合同会社,福岡県,福岡市博多区,博多駅南３丁目１５番３０－４０８,,40,132,8120016,,,,,,,2025-02-04,1,,,,,ヴイカー,0
1518,6290803004964,新規,0,2025-02-04,2025-02-04,ＴＳコンサル合同会社,,合同会社,福岡県,北九州市小倉北区,高尾１丁目１５番３号,,40,106,8030853,,,,,,,2025-02-04,1,,,,,ティーエスコンサル,0
1519,6310003004936,新規,0,2025-02-04,2025-02-04,合同会社新道,,合同会社,長崎県,長崎市,籠町２番２０－８０３号,,42,201,8500905,,,,,,,2025-02-04,1,,,,,シンドウ,0
1520,6320001020926,新規,0,2025-02-04,2025-02-04,株式会社平野電計工業,,株式会社,大分県,別府市,大字北石垣７５１番地の２９,,44,202,8740000,,,,,,,2025-02-04,1,,,,,ヒラノデンケイコウギョウ,0
1523,6360001034740,新規,0,2025-02-04,2025-02-04,株式会社川電機システム,,株式会社,沖縄県,沖縄市,古謝津嘉山町３４番１８号,,47,211,9042166,,,,,,,2025-02-04,1,,,,,カワデンキシステム,0
1525,6360003014600,新規,0,2025-02-04,2025-02-04,ノーリミット合同会社,,合同会社,沖縄県,沖縄市,山内２丁目８番１３号,,47,211,9040034,,,,,,,2025-02-04,1,,,,,ノーリミット,0
1526,6360003014658,新規,0,2025-02-04,2025-02-04,ＮＮＭ合同会社,,合同会社,沖縄県,中頭郡北中城村,字渡口４５６番地２,,47,327,9012302,,,,,,,2025-02-04,1,,,,,エヌエヌエム,0
1531,6370001052205,新規,0,2025-02-04,2025-02-04,株式会社エス・ネット,,株式会社,宮城県,仙台市青葉区,北根１丁目１９―１８―１０２,,04,101,9810902,,,,,,,2025-02-04,1,,,,,エスネット,0
1548,6700150129059,新規,0,2025-02-04,2025-02-04,ＭＥＴＲＯ　ＴＲＡＤＩＮＧ　ＣＯＭＰＡＮＹ　ＥＮＴＥＲＰＲＩＳＥ,,外国会社等,千葉県,八街市,東吉田７２５番地ビジネスオフィス３４号,,12,230,2891114,スリランカ民主社会主義共和国、ディックウェラ、ドマンパハラ、ティシャニ、Ｎｏ．１Ａ,,,,,,2025-02-04,1,,,,,メトロトレーデイングカンパニーエンタープライズ,0
1549,6700150129075,新規,0,2025-02-04,2025-02-04,Ｇａｉｎｔｅｃｈ　Ｃｏ．Ｌｉｍｉｔｅｄ,,外国会社等,,,,,,,,Ｔｈｅ　Ｇｒａｎｄ　Ｐａｖｉｌｉｏｎ　Ｃｏｍｍｅｒｃｉａｌ　Ｃｅｎｔｅｒ，Ｏｌｅａｎｄｅｒ　Ｗａｙ，８０２　Ｗｅｓｔ　Ｂａｙ　Ｒｏａｄ，Ｐ．Ｏ．Ｂｏｘ　３２０５２，Ｇｒａｎｄ　Ｃａｙｍａｎ，ＫＹ１－１２０８，Ｃａｙｍａｎ　Ｉｓｌａｎｄｓ,,,,,,2025-02-04,1,,,,,ゲインテツクシーオードツトリミテツド,0
1558,7010001251997,新規,0,2025-02-04,2025-02-04,株式会社Ａｍｕｙ,,株式会社,東京都,中央区,銀座１丁目１２番４号Ｎ＆ＥＢＬＤ．６Ｆ,,13,102,1040061,,,,,,,2025-02-04,1,,,,,アミュー,0
1559,7010001252046,新規,0,2025-02-04,2025-02-04,ＶｉｒｔｕＡｒｃ株式会社,,株式会社,東京都,中央区,銀座１丁目２２番１１号銀座大竹ビジデンス２Ｆ,,13,102,1040061,,,,,,,2025-02-04,1,,,,,バーチャルアーク,0
1563,7010003046280,新規,0,2025-02-04,2025-02-04,合同会社エネテク太陽光ファンド１号,,合同会社,東京都,中央区,八重洲２丁目１１番２号,,13,102,1040028,,,,,,,2025-02-04,1,,,,,エネテクタイヨウコウファンドイチゴウ,0
1568,7010401187882,新規,0,2025-02-04,2025-02-04,株式会社ゼロスインフィニティ,,株式会社,東京都,港区,南青山３丁目１番３６号,,13,103,1070062,,,,,,,2025-02-04,1,,,,,ゼロスインフィニティ,0
1569,7010401187908,新規,0,2025-02-04,2025-02-04,株式会社Ｈ＆Ｎ,,株式会社,東京都,港区,西新橋２丁目９番６号,,13,103,1050003,,,,,,,2025-02-04,1,,,,,エイチアンドエヌ,0
1571,7010403034265,新規,0,2025-02-04,2025-02-04,Ｓｙｎｅｒｇｙ　ＴＡＫＥ合同会社,,合同会社,東京都,港区,浜松町２丁目２番１５号,,13,103,1050013,,,,,,,2025-02-04,1,,,,,シナジーテイク,0
1572,7010403034273,新規,0,2025-02-04,2025-02-04,合同会社シマネット,,合同会社,東京都,港区,高輪１丁目２３番－２３－１５０５号,,13,103,1080074,,,,,,,2025-02-04,1,,,,,シマネット,0
1573,7010403034298,新規,0,2025-02-04,2025-02-04,ＬＳ‐ＡＦＲ第１３号合同会社,,合同会社,東京都,港区,六本木１丁目６番１号,,13,103,1060032,,,,,,,2025-02-04,1,,,,,エルエスエーエフアールダイジュウサンゴウ,0
1574,7010403034348,新規,0,2025-02-04,2025-02-04,合同会社ＹＦＪ　Ｃａｐｉｔａｌ,,合同会社,東京都,港区,北青山１丁目３番１号アールキューブ青山３階,,13,103,1070061,,,,,,,2025-02-04,1,,,,,ワイエフジェーキャピタル,0
1576,7010601066688,新規,0,2025-02-04,2025-02-04,株式会社Ｒｅｇｌｕｓ,,株式会社,東京都,墨田区,亀沢２丁目１４―７ステージファースト両国東６０１,,13,107,1300014,,,,,,,2025-02-04,1,,,,,レグルス,0
1592,7011001167606,新規,0,2025-02-04,2025-02-04,株式会社エムアイスリー,,株式会社,東京都,渋谷区,神宮前６丁目３３番１１号ヴィラ・ハタ１０１号,,13,113,1500001,,,,,,,2025-02-04,1,,,,,エムアイスリー,0
1593,7011003020886,新規,0,2025-02-04,2025-02-04,ネクストイノベーションジャパン合同会社,,合同会社,東京都,渋谷区,道玄坂１丁目１０番８号渋谷道玄坂東急ビル２Ｆ－Ｃ,,13,113,1500043,,,,,,,2025-02-04,1,,,,,ネクストイノベーションジャパン,0
1599,7011101110498,新規,0,2025-02-04,2025-02-04,株式会社いろは,,株式会社,東京都,新宿区,西新宿３丁目３番１３号西新宿水間ビル２Ｆ,,13,104,1600023,,,,,,,2025-02-04,1,,,,,イロハ,0
1603,7011501031633,新規,0,2025-02-04,2025-02-04,雲天ジャパン株式会社,,株式会社,東京都,北区,赤羽３丁目２４－１５レクセルマンション３０６号,,13,117,1150045,,,,,,,2025-02-04,1,,,,,ウンテン,0
1604,7011603004594,新規,0,2025-02-04,2025-02-04,合同会社ＢＲＳＥＣ,,合同会社,東京都,練馬区,大泉学園町１丁目１７－１３,,13,120,1780061,,,,,,,2025-02-04,1,,,,,ビーアールエスイーシー,0
1605,7011701028017,新規,0,2025-02-04,2025-02-04,株式会社沐軒,,株式会社,東京都,江戸川区,上一色３丁目１９番１４号,,13,123,1330041,,,,,,,2025-02-04,1,,,,,モッケン,0
1607,7012401042745,新規,0,2025-02-04,2025-02-04,株式会社ＫＯＪＩＳＴＯＣＫ,,株式会社,東京都,三鷹市,井の頭２丁目１８番２２号コクーンテラス井の頭２：２０８,,13,204,1810001,,,,,,,2025-02-04,1,,,,,コウジストック,0
1610,7012801023733,新規,0,2025-02-04,2025-02-04,株式会社ディーサーフェス,,株式会社,東京都,昭島市,宮沢町２丁目２番２４号,,13,207,1960024,,,,,,,2025-02-04,1,,,,,ディーサーフェス,0
1614,7020001161130,新規,0,2025-02-04,2025-02-04,株式会社ＯＨＹＡ,,株式会社,神奈川県,川崎市川崎区,東田町１１番地５,,14,131,2100005,,,,,,,2025-02-04,1,,,,,オオヤ,0
1615,7020003027684,新規,0,2025-02-04,2025-02-04,合同会社麻生訪問,,合同会社,神奈川県,川崎市麻生区,上麻生６丁目３３－１０－２１０,,14,137,2150021,,,,,,,2025-02-04,1,,,,,アサオホウモン,0
1624,7030001164693,新規,0,2025-02-04,2025-02-04,ほりおレンタル株式会社,,株式会社,埼玉県,熊谷市,押切２６２８番地１５,,11,202,3600111,,,,,,,2025-02-04,1,,,,,ホリオレンタル,0
1625,7030001164727,新規,0,2025-02-04,2025-02-04,株式会社ＳＯＫＡ建装,,株式会社,埼玉県,草加市,松江３丁目２４番１２号,,11,221,3400013,,,,,,,2025-02-04,1,,,,,ソウカケンソウ,0
1629,7030003025984,新規,0,2025-02-04,2025-02-04,合同会社ヤサイロファーム,,合同会社,埼玉県,熊谷市,別府３丁目７７番地１,,11,202,3600856,,,,,,,2025-02-04,1,,,,,ヤサイロファーム,0
1630,7030003025992,新規,0,2025-02-04,2025-02-04,合同会社讃香,,合同会社,埼玉県,さいたま市北区,東大成町１丁目４１３番地４,,11,102,3310814,,,,,,,2025-02-04,1,,,,,サンカ,0
1633,7040001137228,新規,0,2025-02-04,2025-02-04,株式会社松本防水工業,,株式会社,千葉県,野田市,春日町３番地の５春日レジデンス１０２,,12,208,2780052,,,,,,,2025-02-04,1,,,,,マツモトボウスイコウギョウ,0
1634,7040001137252,新規,0,2025-02-04,2025-02-04,ＮＡＲＩＴＡ株式会社,,株式会社,千葉県,市川市,南行徳４丁目１番２０号,,12,203,2720138,,,,,,,2025-02-04,1,,,,,ナリタ,0
1641,7050001056113,新規,0,2025-02-04,2025-02-04,株式会社Ｐａｉｐｅａ,,株式会社,茨城県,つくば市,館野５番地１,,08,220,3050067,,,,,,,2025-02-04,1,,,,,パイピー,0
1646,7080003003382,新規,0,2025-02-04,2025-02-04,合同会社エーゴーＦｕｌｆｉｌｌ,,合同会社,静岡県,静岡市葵区,緑町１０番２８－７０２号,,22,101,4200844,,,,,,,2025-02-04,1,,,,,エーゴーフルフィル,0
1647,7080101025295,新規,0,2025-02-04,2025-02-04,株式会社勝吉建設,00137888,株式会社,静岡県,御殿場市,中山４７０番地の６,,22,215,4120035,,,,,,,2025-02-04,1,,,,,カツキチケンセツ,0
1664,7120001272545,新規,0,2025-02-04,2025-02-04,株式会社光輝郷,,株式会社,大阪府,大阪市生野区,勝山南１丁目２番５号,,27,116,5440021,,,,,,,2025-02-04,1,,,,,コウキゴウ,0
1665,7120001272611,新規,0,2025-02-04,2025-02-04,株式会社クリアスタイル,,株式会社,大阪府,大阪市西区,江戸堀２丁目７番３２号,,27,106,5500002,,,,,,,2025-02-04,1,,,,,クリアスタイル,0
1675,7120101070989,新規,0,2025-02-04,2025-02-04,株式会社Ｈｉポス,,株式会社,大阪府,堺市堺区,出島町５丁２番７号,,27,141,5900834,,,,,,,2025-02-04,1,,,,,ハイポス,0
1676,7120103006264,新規,0,2025-02-04,2025-02-04,合同会社Ｅｓｔａｂｕｌｏ　Ｔ　Ｎｉｐｐｏｎ,,合同会社,大阪府,堺市南区,豊田１６８２番地１,,27,145,5900106,,,,,,,2025-02-04,1,,,,,エスターブロティニッポン,0
1680,7120901050380,新規,0,2025-02-04,2025-02-04,株式会社ＦＢＳ,,株式会社,大阪府,豊中市,東豊中町３丁目３１番５０号,,27,203,5600003,,,,,,,2025-02-04,1,,,,,エフビーエス,0
1684,7130001078909,新規,0,2025-02-04,2025-02-04,株式会社こころ,,株式会社,京都府,京都市西京区,樫原角田町１番地６５,,26,111,6158145,,,,,,,2025-02-04,1,,,,,ココロ,0
1685,7130001078925,新規,0,2025-02-04,2025-02-04,ＥａｎｄＹ　ｍｅｄｉｃａｌ株式会社,,株式会社,京都府,京都市西京区,桂南巽町１５４番地３ホッホラントビル,,26,111,6158074,,,,,,,2025-02-04,1,,,,,エアンディメディカル,0
1692,7140003021626,新規,0,2025-02-04,2025-02-04,合同会社イチョウ並木,,合同会社,兵庫県,加古川市,加古川町本町３１０番地,,28,210,6750037,,,,,,,2025-02-04,1,,,,,イチョウナミキ,0
1695,7180001165264,新規,0,2025-02-04,2025-02-04,株式会社ＦＯＲＥＳＴ,,株式会社,愛知県,名古屋市名東区,上社３丁目１０１番地,,23,115,4650025,,,,,,,2025-02-04,1,,,,,フォレスト,0
1696,7180001165272,新規,0,2025-02-04,2025-02-04,Ｋ２不動産株式会社,,株式会社,愛知県,名古屋市中区,大須４丁目５番１９－７０９号,,23,106,4600011,,,,,,,2025-02-04,1,,,,,ケーツーフドウサン,0
1697,7180003027933,新規,0,2025-02-04,2025-02-04,ＥＳＰＥＲＡＮＺＡ合同会社,,合同会社,愛知県,稲沢市,日下部南町４丁目２７番地１０,,23,220,4928183,,,,,,,2025-02-04,1,,,,,エスペランサ,0
1702,7180005020944,新規,0,2025-02-04,2025-02-04,一般社団法人ひととき,,その他の設立登記法人,愛知県,名古屋市守山区,桔梗平１丁目１５０２番地,,23,113,4630814,,,,,,,2025-02-04,1,,,,,ヒトトキ,0
1709,7190001031969,新規,0,2025-02-04,2025-02-04,株式会社悠幸,,株式会社,三重県,四日市市,笹川１丁目２７６番地２,,24,202,5100944,,,,,,,2025-02-04,1,,,,,ユウコウ,0
1710,7190003004923,新規,0,2025-02-04,2025-02-04,合同会社５１４,,合同会社,三重県,津市,北丸之内２０４,,24,201,5140031,,,,,,,2025-02-04,1,,,,,ゴーイチヨン,0
1711,7190003004931,新規,0,2025-02-04,2025-02-04,風伝まさだ合同会社,,合同会社,三重県,南牟婁郡御浜町,大字栗須１８６３番地５,,24,561,5195326,,,,,,,2025-02-04,1,,,,,フウデンマサダ,0
1714,7200005013714,新規,0,2025-02-04,2025-02-04,一般社団法人児遊会,,その他の設立登記法人,岐阜県,羽島市,江吉良町１５７７番地７,,21,209,5016236,,,,,,,2025-02-04,1,,,,,ジユウカイ,0
1715,7210001020036,新規,0,2025-02-04,2025-02-04,Ｒｅｃｒｕｉｔ　Ｃｏｎｓｕｌｔｉｎｇ株式会社,,株式会社,福井県,福井市,中央１丁目３番５号,,18,201,9100006,,,,,,,2025-02-04,1,,,,,リクルートコンサルティング,0
1717,7220003003946,新規,0,2025-02-04,2025-02-04,金沢市設備管理合同会社,,合同会社,石川県,金沢市,昭和町１２番６号,,17,201,9200856,,,,,,,2025-02-04,1,,,,,カナザワシセツビカンリ,0
1721,7240001064492,新規,0,2025-02-04,2025-02-04,株式会社学翠舎,,株式会社,広島県,広島市東区,若草町１４番２８号,,34,102,7320053,,,,,,,2025-02-04,1,,,,,ガクスイシャ,0
1726,7240005015888,新規,0,2025-02-04,2025-02-04,一般社団法人ファーム憧れ,,その他の設立登記法人,広島県,三次市,甲奴町小童４０１２番地３,,34,209,7294103,,,,,,,2025-02-04,1,,,,,ファームアコガレ,0
1727,7250003003646,新規,0,2025-02-04,2025-02-04,合同会社エコ換,,合同会社,山口県,山口市,平井５００番地１４レジデンス泉１０２,,35,203,7530831,,,,,,,2025-02-04,1,,,,,エコカン,0
1729,7260001039872,新規,0,2025-02-04,2025-02-04,株式会社ＴＯＭＯＮｉＳ,,株式会社,岡山県,岡山市北区,本町６－３６第一セントラルビル４Ｆ,,33,101,7000901,,,,,,,2025-02-04,1,,,,,トモニス,0
1730,7260001039880,新規,0,2025-02-04,2025-02-04,株式会社ｃｈａｒｍｅ,,株式会社,岡山県,岡山市中区,祇園１０番地４,00137889,33,102,7038207,,,,,,,2025-02-04,1,,,,,シャルム,0
1741,7290001108823,新規,0,2025-02-04,2025-02-04,株式会社ＢｅｔＢｏｏｓｔ,,株式会社,福岡県,福岡市博多区,博多駅東３丁目９－１７,,40,132,8120013,,,,,,,2025-02-04,1,,,,,ベットブースト,0
1746,7290003016355,新規,0,2025-02-04,2025-02-04,ビッグウィン合同会社,,合同会社,福岡県,福岡市中央区,天神４丁目６－２８天神ファーストビル７階,,40,133,8100001,,,,,,,2025-02-04,1,,,,,ビッグウィン,0
1750,7290803004963,新規,0,2025-02-04,2025-02-04,合同会社ビズユー,,合同会社,福岡県,北九州市小倉北区,砂津３丁目２番１８－７０７号,,40,106,8020014,,,,,,,2025-02-04,1,,,,,ビズユー,0
1761,7320003004570,新規,0,2025-02-04,2025-02-04,合同会社ＴＴ２８,,合同会社,大分県,別府市,大字鶴見２７９０番地の２,,44,202,8740840,,,,,,,2025-02-04,1,,,,,ティーティーニジュウハチ,0
1765,7330003010782,新規,0,2025-02-04,2025-02-04,ＥＭＩＸＩＡ合同会社,,合同会社,熊本県,熊本市中央区,水前寺公園２８番４５号プラッツＳ１０３,,43,101,8620956,,,,,,,2025-02-04,1,,,,,エミシア,0
1766,7330005010871,新規,0,2025-02-04,2025-02-04,一般社団法人重富農事実行組合研究会,,その他の設立登記法人,熊本県,熊本市東区,画図町大字重富１９５番地,,43,102,8620947,,,,,,,2025-02-04,1,,,,,シゲトミノウジジッコウクミアイケンキュウカイ,0
1768,7340003004734,新規,0,2025-02-04,2025-02-04,合同会社松神,,合同会社,鹿児島県,曽於郡大崎町,假宿１９９５番地３,,46,468,8997305,,,,,,,2025-02-04,1,,,,,マツガミ,0
1795,7430001093613,新規,0,2025-02-04,2025-02-04,株式会社ヤマモリ,,株式会社,北海道,札幌市北区,新川三条４丁目６番１号,,01,102,0010923,,,,,,,2025-02-04,1,,,,,ヤマモリ,0
1800,7700150129058,新規,0,2025-02-04,2025-02-04,ＶＩＥＴ　ＤＲＥＡＭＳ,,外国会社等,京都府,京都市上京区,大宮通元誓願寺下る北之御門町５７３番,,26,102,6028214,５３　Ｐａｒｋ　Ｇｒｏｔｏｎ　Ｐｌ．Ｓａｎ　Ｊｏｓｅ，Ｃａｌｉｆｏｒｎｉａ　９５１３６　Ｕｎｉｔｅｄ　Ｓｔａｔｅｓ　ｏｆ　Ａｍｅｒｉｃａ,,,,,,2025-02-04,1,,,,,ヴイエトドリームズ,0
1801,7700150129074,新規,0,2025-02-04,2025-02-04,Ｍｅｔｉｓ　Ｉｎｔｅｒｎａｔｉｏｎａｌ　Ｈｏｌｄｉｎｇｓ　Ｌｉｍｉｔｅｄ,,外国会社等,,,,,,,,Ｕｎｉｔ　Ａ，１６／Ｆ．，Ｗｉｎｇ　Ｓｉｎｇ　Ｃｏｍｍｅｒｃｉａｌ　Ｃｅｎｔｒｅ，１２－１６　Ｗｉｎｇ　Ｌｏｋ　Ｓｔｒｅｅｔ，Ｓｈｅｕｎｇ　Ｗａｎ，Ｈｏｎｇ　Ｋｏｎｇ,,,,,,2025-02-04,1,,,,,メテイスインターナシヨナルホールデイングスリミテツド,0
1804,8010001251831,新規,0,2025-02-04,2025-02-04,株式会社ほの香Ｐｌｕｓ,,株式会社,東京都,千代田区,神田須田町１丁目７番８号ＶＯＲＴ秋葉原ＩＶ２Ｆ,00137875,13,101,1010041,,,,,,,2025-02-04,1,,,,,ホノカプラス,0
1805,8010001251947,新規,0,2025-02-04,2025-02-04,イノベーティブクラウドソリューションズ株式会社,,株式会社,東京都,千代田区,神田佐久間町１丁目８番４号アルテール秋葉原７０８,,13,101,1010025,,,,,,,2025-02-04,1,,,,,イノベーティブクラウドソリューションズ,0
1806,8010001251963,新規,0,2025-02-04,2025-02-04,ＳＤＪ株式会社,,株式会社,東京都,千代田区,外神田２丁目１番８号,,13,101,1010021,,,,,,,2025-02-04,1,,,,,エスディージェー,0
1807,8010001252004,新規,0,2025-02-04,2025-02-04,株式会社グレイスヒストリー,,株式会社,東京都,千代田区,丸の内２丁目３番２号丸の内税理士法人内,,13,101,1000005,,,,,,,2025-02-04,1,,,,,グレイスヒストリー,0
1808,8010001252012,新規,0,2025-02-04,2025-02-04,株式会社コピア,,株式会社,東京都,中央区,日本橋２丁目２番３号ＲＩＳＨＥビルＵＣＦ４０２,,13,102,1030027,,,,,,,2025-02-04,1,,,,,コピア,0
1811,8010003046247,新規,0,2025-02-04,2025-02-04,合同会社ＳＫＩ,,合同会社,東京都,中央区,月島２丁目１３－１１－２０４,,13,102,1040052,,,,,,,2025-02-04,1,,,,,エスケーアイ,0
1813,8010005039521,新規,0,2025-02-04,2025-02-04,ソーラーモルトホールディングス一般社団法人,,その他の設立登記法人,東京都,千代田区,紀尾井町４番１号ニューオータニガーデンコート１９階フィンポート税理士法人内,,13,101,1020094,,,,,,,2025-02-04,1,,,,,ソーラーモルトホールディングス,0
1814,8010103002505,新規,0,2025-02-04,2025-02-04,合同会社えい２,,合同会社,東京都,八王子市,子安町１丁目３２番地１４号,,13,201,1920904,,,,,,,2025-02-04,1,,,,,エイツー,0
1817,8010401187799,新規,0,2025-02-04,2025-02-04,株式会社アドバンスト・リジェンテック,,株式会社,東京都,港区,麻布十番１丁目７番１１号,,13,103,1060045,,,,,,,2025-02-04,1,,,,,アドバンストリジェンテック,0
1818,8010401187865,新規,0,2025-02-04,2025-02-04,株式会社Ｔｏｒｒｅｎｔ,,株式会社,東京都,港区,海岸２丁目５番１号ローレルタワールネ浜松町２００１号室,,13,103,1050022,,,,,,,2025-02-04,1,,,,,トレント,0
1819,8010401187873,新規,0,2025-02-04,2025-02-04,株式会社田部耀一朗事務所,,株式会社,東京都,港区,北青山１丁目３番１号アールキューブ青山３階,,13,103,1070061,,,,,,,2025-02-04,1,,,,,タベヨウイチロウジムショ,0
1820,8010401187907,新規,0,2025-02-04,2025-02-04,株式会社ａｋｍ,,株式会社,東京都,港区,海岸１丁目１３番１５－１２０９号,,13,103,1050022,,,,,,,2025-02-04,1,,,,,エーケーエム,0
1821,8010401188005,新規,0,2025-02-04,2025-02-04,ＢＡＣ横浜株式会社,,株式会社,東京都,港区,赤坂１丁目１２番３２号,,13,103,1070052,,,,,,,2025-02-04,1,,,,,ビーエーシーヨコハマ,0
1824,8010403034297,新規,0,2025-02-04,2025-02-04,ＬＳ‐ＡＦＲ第１２号合同会社,,合同会社,東京都,港区,六本木１丁目６番１号,,13,103,1060032,,,,,,,2025-02-04,1,,,,,エルエスエーエフアールダイジュウニゴウ,0
1830,8010901056751,新規,0,2025-02-04,2025-02-04,株式会社モリネ,,株式会社,東京都,世田谷区,上野毛１丁目２９番７号菅田ビル２０２,,13,112,1580093,,,,,,,2025-02-04,1,,,,,モリネ,0
1831,8010901056768,新規,0,2025-02-04,2025-02-04,株式会社ＯＰＵＳ　ＬＡＢ,,株式会社,東京都,世田谷区,池尻２丁目９－８エンドウビル２Ｆ,,13,112,1540001,,,,,,,2025-02-04,1,,,,,オーパスラボ,0
1832,8010903009682,新規,0,2025-02-04,2025-02-04,合同会社ウッズ,,合同会社,東京都,世田谷区,玉川３丁目２０番２号マノア玉川第３ビル５０１号室,,13,112,1580094,,,,,,,2025-02-04,1,,,,,ウッズ,0
1833,8010903009690,新規,0,2025-02-04,2025-02-04,合同会社ワナクメーネ,,合同会社,東京都,世田谷区,太子堂４丁目１８番１５号マガザン三軒茶屋２―３Ｆ―３,,13,112,1540004,,,,,,,2025-02-04,1,,,,,ワナクメーネ,0
1838,8011003020885,新規,0,2025-02-04,2025-02-04,トライ合同会社,,合同会社,東京都,渋谷区,千駄ヶ谷５丁目２１－５,,13,113,1510051,,,,,,,2025-02-04,1,,,,,トライ,0
1846,8011101110290,新規,0,2025-02-04,2025-02-04,ＩＰＯパートナーズ株式会社,,株式会社,東京都,新宿区,西早稲田３丁目１２番５－６０１号,,13,104,1690051,,,,,,,2025-02-04,1,,,,,アイピーオーパートナーズ,0
1847,8011101110497,新規,0,2025-02-04,2025-02-04,株式会社Ｄｒｅａｍ　Ｓｉｇｎａｌ,,株式会社,東京都,新宿区,新宿６丁目２７番２９－１５１０号,,13,104,1600022,,,,,,,2025-02-04,1,,,,,ドリームシグナル,0
1855,8011603004593,新規,0,2025-02-04,2025-02-04,合同会社ＩＫＬＯ,,合同会社,東京都,練馬区,大泉学園町１丁目１７－１３,,13,120,1780061,,,,,,,2025-02-04,1,,,,,アイケーエルオー,0
1860,8011801045571,新規,0,2025-02-04,2025-02-04,ＧｌｏｂｅＰｌａｙ株式会社,,株式会社,東京都,葛飾区,立石１丁目１５－１０－３Ｆ,,13,122,1240012,,,,,,,2025-02-04,1,,,,,グロウブプレイ,0
1861,8012301014249,新規,0,2025-02-04,2025-02-04,株式会社ＢＡＳＥ,,株式会社,東京都,町田市,図師町６１２番地１９Ｋハイム１０１,,13,209,1940203,,,,,,,2025-02-04,1,,,,,ベース,0
1864,8012801023708,新規,0,2025-02-04,2025-02-04,ＴＦＳ株式会社,,株式会社,東京都,国立市,西２丁目２０番地１０,,13,215,1860005,,,,,,,2025-02-04,1,,,,,ティーエフエス,0
1869,8013301053716,新規,0,2025-02-04,2025-02-04,株式会社Ｂ・アップ,,株式会社,東京都,豊島区,南大塚２丁目１８番２９号,,13,116,1700005,,,,,,,2025-02-04,1,,,,,ビーアップ,0
1871,8013303007521,新規,0,2025-02-04,2025-02-04,プロセスリンク合同会社,,合同会社,東京都,豊島区,西池袋２丁目３８－６－２０４,,13,116,1710021,,,,,,,2025-02-04,1,,,,,プロセスリンク,0
1874,8020001161096,新規,0,2025-02-04,2025-02-04,株式会社建創,,株式会社,神奈川県,川崎市麻生区,王禅寺東５丁目４３番地６号,,14,137,2150018,,,,,,,2025-02-04,1,,,,,ケンソウ,0
1875,8020001161121,新規,0,2025-02-04,2025-02-04,株式会社ネクスト,,株式会社,神奈川県,川崎市川崎区,新川通１１番１５号,,14,131,2100013,,,,,,,2025-02-04,1,,,,,ネクスト,0
1876,8020001161179,新規,0,2025-02-04,2025-02-04,ＢＡＳＥＳ株式会社,,株式会社,神奈川県,横浜市鶴見区,栄町通３丁目２７番地１－６０２号,,14,101,2300038,,,,,,,2025-02-04,1,,,,,ベーシス,0
1877,8020001161212,新規,0,2025-02-04,2025-02-04,株式会社ＶＩＣＬＡ,,株式会社,神奈川県,川崎市川崎区,伊勢町１３番７－７号,,14,131,2100805,,,,,,,2025-02-04,1,,,,,ヴィクラ,0
1880,8020003027683,新規,0,2025-02-04,2025-02-04,合同会社エースカンパニー,,合同会社,神奈川県,横浜市港北区,菊名４丁目８番１２号ハイツプリーナ２０３号,,14,109,2220011,,,,,,,2025-02-04,1,,,,,エースカンパニー,0
1897,8030003025983,新規,0,2025-02-04,2025-02-04,合同会社Ｌｏｎｇ　ｐｒｏｔｅｃｔ,,合同会社,埼玉県,越谷市,大字大吉６０４番地５,,11,222,3430008,,,,,,,2025-02-04,1,,,,,ロングプロテクト,0
1898,8030003026032,新規,0,2025-02-04,2025-02-04,合同会社アイティーオー,,合同会社,埼玉県,さいたま市南区,曲本５丁目７番１２号３０４,,11,108,3360033,,,,,,,2025-02-04,1,,,,,アイティーオー,0
1899,8030003026040,新規,0,2025-02-04,2025-02-04,合同会社ケアオフィスわかば,,合同会社,埼玉県,さいたま市大宮区,櫛引町１丁目５１４番地２,,11,103,3300851,,,,,,,2025-02-04,1,,,,,ケアオフィスワカバ,0
1909,8040003026700,新規,0,2025-02-04,2025-02-04,合同会社フュージョンライン・パートナーズ,,合同会社,千葉県,千葉市美浜区,真砂２丁目１４－２－９３４,,12,106,2610011,,,,,,,2025-02-04,1,,,,,フュージョンラインパートナーズ,0
1917,8070003005775,新規,0,2025-02-04,2025-02-04,合同会社ｍｅｅｋ,,合同会社,群馬県,伊勢崎市,連取元町１１８番地６Ａ,,10,204,3720818,,,,,,,2025-02-04,1,,,,,ミーク,0
1918,8080003003381,新規,0,2025-02-04,2025-02-04,合同会社ＯＲＫＳ,,合同会社,静岡県,静岡市葵区,紺屋町１７番地の１葵タワー１階,,22,101,4200852,,,,,,,2025-02-04,1,,,,,オークス,0
1920,8080401027718,新規,0,2025-02-04,2025-02-04,株式会社ロービーツ,,株式会社,静岡県,浜松市中央区,上島５丁目１５番３号サンコーポ上島４０６号,,22,138,4338122,,,,,,,2025-02-04,1,,,,,ロービーツ,0
1924,8090003002738,新規,0,2025-02-04,2025-02-04,合同会社ヴェレゾン豊国,,合同会社,山梨県,山梨市,鴨居寺４１０番地,,19,205,4050013,,,,,,,2025-02-04,1,,,,,ヴェレゾントヨクニ,0
1943,8120001272461,新規,0,2025-02-04,2025-02-04,株式会社Ａｘｅ　Ｃａｐｉｔａｌ,,株式会社,大阪府,大阪市北区,太融寺町２番１７号太融寺ビル７Ｆ,,27,127,5300051,,,,,,,2025-02-04,1,,,,,アックスキャピタル,0
1944,8120001272478,新規,0,2025-02-04,2025-02-04,正豊株式会社,,株式会社,大阪府,大阪市大正区,三軒家西３丁目４番１６号中山ビル２０１Ｂ,,27,108,5510001,,,,,,,2025-02-04,1,,,,,セイホウ,0
1945,8120001272536,新規,0,2025-02-04,2025-02-04,株式会社ＥＶＥＲ　ＹＯＵＲＳ,,株式会社,大阪府,大阪市北区,中之島３丁目５番２１号,,27,127,5300005,,,,,,,2025-02-04,1,,,,,エバーユアーズ,0
1946,8120001272544,新規,0,2025-02-04,2025-02-04,株式会社Ｍ‐ｃｏｍｐａｎｙ,,株式会社,大阪府,大阪市東淀川区,菅原２丁目１３番９号,,27,114,5330022,,,,,,,2025-02-04,1,,,,,エムカンパニー,0
1947,8120001272577,新規,0,2025-02-04,2025-02-04,株式会社デコバブー,,株式会社,大阪府,大阪市中央区,森ノ宮中央２丁目８番２－４０４号,,27,128,5400003,,,,,,,2025-02-04,1,,,,,デコバブー,0
1952,8120003028548,新規,0,2025-02-04,2025-02-04,合同会社植田,,合同会社,大阪府,大阪市北区,梅田１丁目１－３大阪駅前第３ビル２９階１－１－１号室,,27,127,5300001,,,,,,,2025-02-04,1,,,,,ウエダ,0
1955,8120103006263,新規,0,2025-02-04,2025-02-04,合同会社グランド,,合同会社,大阪府,堺市堺区,東雲西町２丁２番３４－２１２号,,27,141,5900013,,,,,,,2025-02-04,1,,,,,グランド,0
1956,8120901050388,新規,0,2025-02-04,2025-02-04,株式会社ポンパニー,,株式会社,大阪府,摂津市,東別府２丁目１２番２－１号,,27,224,5660042,,,,,,,2025-02-04,1,,,,,ポンパニー,0
1957,8120901050396,新規,0,2025-02-04,2025-02-04,株式会社Ａｃｃｕ　Ｃｅｌｌ,,株式会社,大阪府,高槻市,紺屋町７番１８号シティハイツ高槻１階,,27,207,5690804,,,,,,,2025-02-04,1,,,,,アキュセル,0
1962,8130001078940,新規,0,2025-02-04,2025-02-04,株式会社Ｍ・Ａ・Ｓ,,株式会社,京都府,京都市西京区,御陵峰ケ堂町１丁目１２番地１,,26,111,6101103,,,,,,,2025-02-04,1,,,,,エムエーエス,0
1969,8140001137290,新規,0,2025-02-04,2025-02-04,株式会社パワーズリンク,,株式会社,兵庫県,姫路市,飾東町八重畑５５８－２,,28,201,6710208,,,,,,,2025-02-04,1,,,,,パワーズリンク,0
1971,8140003021600,新規,0,2025-02-04,2025-02-04,ＱＵＡＮ合同会社,,合同会社,兵庫県,姫路市,四郷町山脇４５０番地４,,28,201,6710248,,,,,,,2025-02-04,1,,,,,クアン,0
1983,8180001165288,新規,0,2025-02-04,2025-02-04,株式会社ＩＣＯＮＩＣ,,株式会社,愛知県,大府市,共和町茶屋１６４番地,,23,223,4740057,,,,,,,2025-02-04,1,,,,,アイコニック,0
1984,8180001165296,新規,0,2025-02-04,2025-02-04,株式会社マストセーフティ,,株式会社,愛知県,名古屋市守山区,守牧町６９番地の１,,23,113,4630073,,,,,,,2025-02-04,1,,,,,マストセーフティ,0
1989,8180305009653,新規,0,2025-02-04,2025-02-04,一般社団法人ＴｅａｍＭＡＭＡ,,その他の設立登記法人,愛知県,安城市,三河安城南町１丁目１５番地８サンテラス三河安城ビル６Ｆ,,23,212,4460058,,,,,,,2025-02-04,1,,,,,チームママ,0
1992,8220001026477,新規,0,2025-02-04,2025-02-04,株式会社へそ天,,株式会社,石川県,白山市,横江町５２５０番地,,17,210,9240011,,,,,,,2025-02-04,1,,,,,ヘソテン,0
1994,8220003003945,新規,0,2025-02-04,2025-02-04,山河合同会社,,合同会社,石川県,金沢市,東蚊爪町ホ１８番地１,,17,201,9200209,,,,,,,2025-02-04,1,,,,,サンガ,0
1995,8230001020727,新規,0,2025-02-04,2025-02-04,株式会社ＩＭＡＩ,,株式会社,富山県,南砺市,百町１１４番地,,16,210,9391517,,,,,,,2025-02-04,1,,,,,イマイ,0
2005,8260005011439,新規,0,2025-02-04,2025-02-04,一般社団法人いきいきライフ協会岡山東,,その他の設立登記法人,岡山県,岡山市中区,中井４丁目１２番２０号,,33,102,7038205,,,,,,,2025-02-04,1,,,,,イキイキライフキョウカイオカヤマヒガシ,0
2017,8290001108814,新規,0,2025-02-04,2025-02-04,東楽商旅株式会社,,株式会社,福岡県,福岡市西区,本岡８９８－１－Ｂ号室,,40,135,8190000,,,,,,,2025-02-04,1,,,,,トウラクショウリョ,0
2018,8290001108822,新規,0,2025-02-04,2025-02-04,株式会社シスウェルサポートファーム,,株式会社,福岡県,福岡市博多区,南八幡町２丁目７番２１－６０１号アルカンシェル２５,,40,132,8120886,,,,,,,2025-02-04,1,,,,,シスウェルサポートファーム,0
2019,8290001108839,新規,0,2025-02-04,2025-02-04,株式会社エースカーソリューションズ,,株式会社,福岡県,糟屋郡新宮町,大字原上１７３７－１,,40,345,8110101,,,,,,,2025-02-04,1,,,,,エースカーソリューションズ,0
2021,8290003016354,新規,0,2025-02-04,2025-02-04,蘭英合同会社,,合同会社,福岡県,福岡市博多区,比恵町１０番１号ロータリープラザ博多駅東２０２号,,40,132,8120014,,,,,,,2025-02-04,1,,,,,ランエイ,0
2022,8290003016362,新規,0,2025-02-04,2025-02-04,合同会社ｍｅｌｏｄｙ,,合同会社,福岡県,糟屋郡宇美町,貴船１丁目２４－４０,,40,341,8112131,,,,,,,2025-02-04,1,,,,,メロディー,0
2023,8290003016370,新規,0,2025-02-04,2025-02-04,ｍａｒｕｔｔｏ合同会社,,合同会社,福岡県,福岡市博多区,博多駅前１丁目２３番２号ＰａｒｋＦｒｏｎｔ博多駅前１丁目５Ｆ－Ｂ,,40,132,8120011,,,,,,,2025-02-04,1,,,,,マルット,0
2033,8340001027100,新規,0,2025-02-04,2025-02-04,ＷＩＴＨＤＯＭ　Ｋａｇｏｓｈｉｍａ株式会社,,株式会社,鹿児島県,鹿児島市,武１丁目２番１０号,,46,201,8900045,,,,,,,2025-02-04,1,,,,,ウィズダムカゴシマ,0
2038,8370001052203,新規,0,2025-02-04,2025-02-04,株式会社サニーアプリコット,,株式会社,宮城県,名取市,愛島郷１丁目５番地の４,,04,207,9811240,,,,,,,2025-02-04,1,,,,,サニーアプリコット,0
2052,8430001093612,新規,0,2025-02-04,2025-02-04,ファーストテイクス株式会社,,株式会社,北海道,札幌市白石区,南郷通２１丁目南２番５号,,01,104,0030022,,,,,,,2025-02-04,1,,,,,ファーストテイクス,0
2053,8430001093620,新規,0,2025-02-04,2025-02-04,株式会社ａｎｄ,,株式会社,北海道,札幌市中央区,南一条西２２丁目１－１７－１００３,,01,101,0640801,,,,,,,2025-02-04,1,,,,,アンド,0
2058,8440001009559,新規,0,2025-02-04,2025-02-04,株式会社サカイオート,,株式会社,北海道,函館市,昭和３丁目９番２４号,,01,202,0410812,,,,,,,2025-02-04,1,,,,,サカイオート,0
2061,8700150129057,新規,0,2025-02-04,2025-02-04,Ｓｔｅｐｈａｎｉｅ＆ＤａｎｉｅｌＳＭＳＦＰｔｙＬｔｄ,,外国会社等,,,,,,,,１３／１　Ｍｉｌｒａｙ　Ｓｔｒｅｅｔ　Ｌｉｎｄｆｉｅｌｄ　ＮＳＷ　２０７０　Ａｕｓｔｒａｌｉａ,,,,,,2025-02-04,1,,,,,ステフアンアンドダニエルエスエムエスエフピーテイーワイリミテツド,0
2070,9010001251962,新規,0,2025-02-04,2025-02-04,株式会社トラスポ,,株式会社,東京都,中央区,新川１丁目７番１号,,13,102,1040033,,,,,,,2025-02-04,1,,,,,トラスポ,0
2071,9010001252044,新規,0,2025-02-04,2025-02-04,望通株式会社,,株式会社,東京都,千代田区,外神田２丁目１－８スクエア秋葉原１２３号室,,13,101,1010021,,,,,,,2025-02-04,1,,,,,ノゾミドオリ,0
2076,9010003046254,新規,0,2025-02-04,2025-02-04,太田興産合同会社,,合同会社,東京都,文京区,本駒込４丁目４６番７号,,13,105,1130021,,,,,,,2025-02-04,1,,,,,オオタコウサン,0
2077,9010003046279,新規,0,2025-02-04,2025-02-04,合同会社ＡｓｐｉｒａＸｉｏｎ,,合同会社,東京都,中央区,日本橋浜町３丁目３３－４－１００２,,13,102,1030007,,,,,,,2025-02-04,1,,,,,アスピラクション,0
2078,9010003046295,新規,0,2025-02-04,2025-02-04,合同会社ＪＲＰＦ根岸,,合同会社,東京都,千代田区,丸の内１丁目４番１号東京共同会計事務所内,,13,101,1000005,,,,,,,2025-02-04,1,,,,,ジェイアールピーエフネギシ,0
2080,9010005039520,新規,0,2025-02-04,2025-02-04,ソーラーマディラホールディングス一般社団法人,,その他の設立登記法人,東京都,千代田区,紀尾井町４番１号ニューオータニガーデンコート１９階フィンポート税理士法人内,,13,101,1020094,,,,,,,2025-02-04,1,,,,,ソーラーマディラホールディングス,0
2081,9010101016506,新規,0,2025-02-04,2025-02-04,株式会社やさしいロボット研究所,,株式会社,東京都,八王子市,下恩方町９２２－５４,,13,201,1920154,,,,,,,2025-02-04,1,,,,,ヤサシイロボットケンキュウジョ,0
2082,9010103002495,新規,0,2025-02-04,2025-02-04,合同会社ＴＬＣ,,合同会社,東京都,八王子市,明神町４丁目１０番１４号,,13,201,1920046,,,,,,,2025-02-04,1,,,,,ティーエルシー,0
2088,9010401187823,新規,0,2025-02-04,2025-02-04,株式会社やまとなでしこ,,株式会社,東京都,港区,六本木３丁目３－２８マノア六本木１０３号室,,13,103,1060032,,,,,,,2025-02-04,1,,,,,ヤマトナデシコ,0
2089,9010401187872,新規,0,2025-02-04,2025-02-04,株式会社ＭＩＣＨＩ,,株式会社,東京都,港区,北青山１丁目３番１号アールキューブ青山３階,,13,103,1070061,,,,,,,2025-02-04,1,,,,,ミチ,0
2093,9010403034271,新規,0,2025-02-04,2025-02-04,Ａ．ＳＨＩＭＵＳ　ＪＡＰＡＮ合同会社,,合同会社,東京都,港区,六本木４丁目３番３５－２０５号,,13,103,1060032,,,,,,,2025-02-04,1,,,,,エイシムスジャパン,0
2094,9010403034296,新規,0,2025-02-04,2025-02-04,ＴＡＦＦＥ合同会社,,合同会社,東京都,港区,東麻布３丁目５番１１－３０１号,,13,103,1060044,,,,,,,2025-02-04,1,,,,,タフィ,0
2096,9010501053553,新規,0,2025-02-04,2025-02-04,株式会社ＡＳＫ,,株式会社,東京都,台東区,台東１丁目１０番６号,,13,106,1100016,,,,,,,2025-02-04,1,,,,,アスク,0
2100,9010603011368,新規,0,2025-02-04,2025-02-04,Ｓｔｕｄｉｏ　Ｖｅｒｄｅ合同会社,,合同会社,東京都,墨田区,業平１丁目６－３,,13,107,1300002,,,,,,,2025-02-04,1,,,,,スタジオヴェルデ,0
2102,9010701047215,新規,0,2025-02-04,2025-02-04,ＡＫ商事株式会社,,株式会社,東京都,品川区,西五反田３丁目２番８号,,13,109,1410031,,,,,,,2025-02-04,1,,,,,エーケーショウジ,0
2109,9011001167546,新規,0,2025-02-04,2025-02-04,株式会社フードテック・ソリューションズ,,株式会社,東京都,渋谷区,道玄坂１丁目１９番９号第一暁ビル６Ｆ,,13,113,1500043,,,,,,,2025-02-04,1,,,,,フードテックソリューションズ,0
2110,9011003020884,新規,0,2025-02-04,2025-02-04,ＵＮＯ合同会社,,合同会社,東京都,渋谷区,南平台町１５－１ライオンズマンション南平台７０２,,13,113,1500036,,,,,,,2025-02-04,1,,,,,ウノ,0
2113,9011101110397,新規,0,2025-02-04,2025-02-04,Ａｒｔｉｔａｙａｏｎｕｍａ株式会社,,株式会社,東京都,新宿区,新宿５丁目１５番１４号,,13,104,1600022,,,,,,,2025-02-04,1,,,,,アーティタヤオヌマ,0
2119,9011501031656,新規,0,2025-02-04,2025-02-04,株式会社ＪＵＮＥＮＡ　ＧＲＯＵＰ,,株式会社,東京都,北区,田端３丁目１５番３－４０８号コンドミニアム駒込動坂,,13,117,1140014,,,,,,,2025-02-04,1,,,,,ジュンエナグループ,0
2120,9011501031664,新規,0,2025-02-04,2025-02-04,株式会社Ｔスマイル,,株式会社,東京都,北区,田端１丁目１２番１８号高橋ハウス１０３号,,13,117,1140014,,,,,,,2025-02-04,1,,,,,ティースマイル,0
2122,9011801045570,新規,0,2025-02-04,2025-02-04,株式会社ウエコー,,株式会社,東京都,葛飾区,青戸３丁目２３番１２号,,13,122,1250062,,,,,,,2025-02-04,1,,,,,ウエコー,0
2124,9012301014248,新規,0,2025-02-04,2025-02-04,株式会社ブルーウィン,,株式会社,東京都,町田市,鶴間４丁目１８番１－１３７号,,13,209,1940004,,,,,,,2025-02-04,1,,,,,ブルーウィン,0
2126,9012401042735,新規,0,2025-02-04,2025-02-04,株式会社ＬＩＯＮ,,株式会社,東京都,多摩市,永山１丁目９番地の１２,,13,224,2060025,,,,,,,2025-02-04,1,,,,,ライオン,0
2127,9012801023723,新規,0,2025-02-04,2025-02-04,日本鉄人商事株式会社,,株式会社,東京都,国立市,富士見台１丁目１３番地の９,,13,215,1860003,,,,,,,2025-02-04,1,,,,,ニホンテツジンショウジ,0
2128,9012801023731,新規,0,2025-02-04,2025-02-04,株式会社ライフワンホーム,,株式会社,東京都,日野市,三沢３丁目７番地の３,,13,212,1910032,,,,,,,2025-02-04,1,,,,,ライフワンホーム,0
2129,9012803003590,新規,0,2025-02-04,2025-02-04,合同会社華嶽,,合同会社,東京都,国立市,中３丁目１１－１－１００４,,13,215,1860004,,,,,,,2025-02-04,1,,,,,カガク,0
2136,9020001161104,新規,0,2025-02-04,2025-02-04,株式会社ＭＡＲＱ‐Ｉ,,株式会社,神奈川県,横浜市西区,北幸２丁目１０－４８,,14,103,2200004,,,,,,,2025-02-04,1,,,,,マークアイ,0
2140,9020003027682,新規,0,2025-02-04,2025-02-04,合同会社ＯｎＣａｒｒｙ,,合同会社,神奈川県,川崎市川崎区,駅前本町１１番地２川崎フロンティアビル４階,,14,131,2100007,,,,,,,2025-02-04,1,,,,,オンキャリー,0
2141,9020003027699,新規,0,2025-02-04,2025-02-04,合同会社ＳＷＧ管理,,合同会社,神奈川県,横浜市神奈川区,鶴屋町２丁目１２番１号横浜カリオカビル５Ｆ,,14,102,2210835,,,,,,,2025-02-04,1,,,,,エスダブリュージーカンリ,0
2142,9020005016709,新規,0,2025-02-04,2025-02-04,司法書士法人ＹＬＯ．ｎｅｘｔ,,その他の設立登記法人,神奈川県,横浜市西区,北幸１丁目４番１号,,14,103,2200004,,,,,,,2025-02-04,1,,,,,ワイエルオーネクスト,0
2146,9021001084377,新規,0,2025-02-04,2025-02-04,株式会社ＧＲＯＷＩＮＧ,,株式会社,神奈川県,足柄上郡大井町,金子１１３２番地６,,14,362,2580019,,,,,,,2025-02-04,1,,,,,グローウィング,0
2158,9030003026015,新規,0,2025-02-04,2025-02-04,錦華合同会社,,合同会社,埼玉県,坂戸市,末広町８－１８,,11,239,3500272,,,,,,,2025-02-04,1,,,,,キンカ,0
2167,9040003026773,新規,0,2025-02-04,2025-02-04,合同会社花田,,合同会社,千葉県,習志野市,東習志野２丁目１８番５５―１２０４号,,12,216,2750001,,,,,,,2025-02-04,1,,,,,ハナダ,0
2171,9050003009001,新規,0,2025-02-04,2025-02-04,合同会社ＧｒｅｅｎＡｇｅｎｔ,,合同会社,茨城県,水戸市,ちとせ２丁目１６２６番地の５,,08,201,3100051,,,,,,,2025-02-04,1,,,,,グリーンエージェント,0
2176,9070001042605,新規,0,2025-02-04,2025-02-04,株式会社ＳｉＸ　Ｇ　Ｓｔｕｄｉｏ,,株式会社,群馬県,高崎市,上並榎町５９５番地１２オオサキビル３Ｆ,,10,202,3700801,,,,,,,2025-02-04,1,,,,,シックスジースタジオ,0
2177,9070003005774,新規,0,2025-02-04,2025-02-04,ＡＭＡＬ商会合同会社,,合同会社,群馬県,太田市,新田嘉祢町２６番地２赤石ハイツ２０２号,,10,205,3700352,,,,,,,2025-02-04,1,,,,,アマルショウカイ,0
2183,9090003002737,新規,0,2025-02-04,2025-02-04,清澄合同会社,,合同会社,山梨県,上野原市,上野原５６６番地５,,19,212,4090112,,,,,,,2025-02-04,1,,,,,キヨスミ,0
2191,9120001272535,新規,0,2025-02-04,2025-02-04,株式会社ｍｏｎｏｇａｔａｒｉ,,株式会社,大阪府,大阪市北区,梅田１丁目２番２号大阪駅前第２ビル１２－１２,,27,127,5300001,,,,,,,2025-02-04,1,,,,,モノガタリ,0
2192,9120001272551,新規,0,2025-02-04,2025-02-04,Ｔｈｅ　Ｍｕ　ＪＡＰＡＮ株式会社,,株式会社,大阪府,大阪市中央区,南本町２丁目１－１,,27,128,5410054,,,,,,,2025-02-04,1,,,,,ザムージャパン,0
2194,9120003028530,新規,0,2025-02-04,2025-02-04,合同会社Ｔ＆Ｃ,,合同会社,大阪府,大阪市西成区,花園北１丁目５番２７号トライアングルＥＭ６０３号室,,27,122,5570016,,,,,,,2025-02-04,1,,,,,ティーアンドシー,0
2195,9120003028547,新規,0,2025-02-04,2025-02-04,合同会社ＸＵＡＮ　ＳＯＮ,,合同会社,大阪府,大阪市東住吉区,湯里２丁目１３番地２－４０１号室,,27,121,5460013,,,,,,,2025-02-04,1,,,,,スアンソン,0
2208,9122001038866,新規,0,2025-02-04,2025-02-04,エヌケー工業株式会社,,株式会社,大阪府,八尾市,西山本町１丁目２番３８－５０３号,,27,212,5810868,,,,,,,2025-02-04,1,,,,,エヌケーコウギョウ,0
2209,9122003003109,新規,0,2025-02-04,2025-02-04,合同会社一,,合同会社,大阪府,東大阪市,稲田本町２丁目２６－１０,,27,227,5770007,,,,,,,2025-02-04,1,,,,,ハジメ,0
2212,9130001078923,新規,0,2025-02-04,2025-02-04,ファクトベース株式会社,,株式会社,京都府,京都市西京区,桂上野中町２０８番１Ｆ,,26,111,6158002,,,,,,,2025-02-04,1,,,,,ファクトベース,0
2213,9130005017282,新規,0,2025-02-04,2025-02-04,一般財団法人藤岡記念教育財団,,その他の設立登記法人,京都府,京都市南区,西九条蔵王町６２番地,,26,107,6018414,,,,,,,2025-02-04,1,,,,,フジオカキネンキョウイクザイダン,0
2218,9140001137273,新規,0,2025-02-04,2025-02-04,福成商事株式会社,,株式会社,兵庫県,姫路市,城東町清水１２番地京口団地９号棟２０１,,28,201,6700843,,,,,,,2025-02-04,1,,,,,フクセイショウジ,0
2220,9140005027371,新規,0,2025-02-04,2025-02-04,一般社団法人淳信会,,その他の設立登記法人,兵庫県,三田市,大原３９１－１,,28,219,6691515,,,,,,,2025-02-04,1,,,,,ジュンシンカイ,0
2221,9150001027853,新規,0,2025-02-04,2025-02-04,株式会社サンコープラスチック取得会社,,株式会社,奈良県,吉野郡下市町,大字新住１１１８番地,,29,443,6380045,,,,,,,2025-02-04,1,,,,,サンコープラスチックシュトクガイシャ,0
2235,9180001165254,新規,0,2025-02-04,2025-02-04,ミズカミ株式会社,,株式会社,愛知県,北名古屋市,西之保青野６８番地サンライズ２１－４０１号,,23,234,4810033,,,,,,,2025-02-04,1,,,,,ミズカミ,0
2242,9180003027931,新規,0,2025-02-04,2025-02-04,合同会社オレンジボックス,,合同会社,愛知県,瀬戸市,白山町１丁目６番地ネオハイツ瀬戸２０３,,23,204,4890876,,,,,,,2025-02-04,1,,,,,オレンジボックス,0
2243,9180003027948,新規,0,2025-02-04,2025-02-04,合同会社じゃじゃぼじゃ,,合同会社,愛知県,名古屋市守山区,茶臼前１９番３号パールマンション喜多山２０２号室,,23,113,4630012,,,,,,,2025-02-04,1,,,,,ジャジャボジャ,0
2247,9210001020050,新規,0,2025-02-04,2025-02-04,ＡＬＰアライアンス株式会社,,株式会社,福井県,福井市,町屋３丁目１７番６号メゾンイレブン１階,,18,201,9100002,,,,,,,2025-02-04,1,,,,,エーエルピーアライアンス,0
2255,9240003007051,新規,0,2025-02-04,2025-02-04,合同会社新倉,,合同会社,広島県,三原市,新倉１丁目１８番７号,,34,204,7230134,,,,,,,2025-02-04,1,,,,,シンクラ,0
2258,9260003005053,新規,0,2025-02-04,2025-02-04,合同会社迦楼羅,,合同会社,岡山県,津山市,新野東１７８３－２７ライフステージＳ１Ｆ,,33,203,7081205,,,,,,,2025-02-04,1,,,,,カルラ,0
2262,9290001108838,新規,0,2025-02-04,2025-02-04,３７ｄｅｇｒｅｅｓ　Ｅｎｔｅｒｔａｉｎｍｅｎｔ株式会社,,株式会社,福岡県,福岡市博多区,博多駅中央街１－１アミュプラザ博多地下１階Ｑ,,40,132,8120012,,,,,,,2025-02-04,1,,,,,サーティセブンディグリーズエンターテイメント,0
2266,9290003016337,新規,0,2025-02-04,2025-02-04,合同会社３ピース,,合同会社,福岡県,福岡市早良区,野芥６丁目２番６号,,40,137,8140171,,,,,,,2025-02-04,1,,,,,スリーピース,0
2267,9290003016353,新規,0,2025-02-04,2025-02-04,合同会社利建,,合同会社,福岡県,福岡市中央区,春吉３丁目１５番３５－３０２号,,40,133,8100003,,,,,,,2025-02-04,1,,,,,トシケン,0
2268,9290003016361,新規,0,2025-02-04,2025-02-04,ブロックダンス合同会社,,合同会社,福岡県,福岡市中央区,大名２丁目６番１１号,,40,133,8100041,,,,,,,2025-02-04,1,,,,,,0
2269,9290801031248,新規,0,2025-02-04,2025-02-04,株式会社ｅ‐ｐｌｕｓ,,株式会社,福岡県,北九州市小倉南区,朽網西１丁目７番１号,,40,107,8000233,,,,,,,2025-02-04,1,,,,,イープラス,0
2277,9350003004839,新規,0,2025-02-04,2025-02-04,合同会社叶乙,,合同会社,宮崎県,宮崎市,村角町宮崎牟田６５番地１４,,45,201,8800837,,,,,,,2025-02-04,1,,,,,カナト,0
2281,9360001034746,新規,0,2025-02-04,2025-02-04,株式会社Ｒｅｎｏｖａ,,株式会社,沖縄県,那覇市,首里汀良町３丁目１０９番地１、２階,,47,201,9030806,,,,,,,2025-02-04,1,,,,,レノバ,0
2282,9360003014647,新規,0,2025-02-04,2025-02-04,合同会社Ｑｔｏｐｉａ,,合同会社,沖縄県,那覇市,小禄１丁目４番１号,,47,201,9010152,,,,,,,2025-02-04,1,,,,,キュートピア,0
2287,9370001052193,新規,0,2025-02-04,2025-02-04,株式会社ＣＯＮＮＥＣＴ,,株式会社,宮城県,仙台市宮城野区,榴岡１丁目６番３７号,,04,102,9830852,,,,,,,2025-02-04,1,,,,,コネクト,0
2288,9370003006924,新規,0,2025-02-04,2025-02-04,ＭＵＲＡＹＡＭＡ合同会社,,合同会社,宮城県,仙台市青葉区,一番町３丁目３－１クラックス仙台４階,,04,101,9800811,,,,,,,2025-02-04,1,,,,,ムラヤマ,0
2294,9410001014049,新規,0,2025-02-04,2025-02-04,ルーフマスター株式会社,,株式会社,秋田県,鹿角市,十和田草木字大畑６０番地７,,05,209,0185422,,,,,,,2025-02-04,1,,,,,ルーフマスター,0
2298,9430001093628,新規,0,2025-02-04,2025-02-04,株式会社とくせん真木,,株式会社,北海道,札幌市中央区,南二条西５丁目１０番地２,,01,101,0600062,,,,,,,2025-02-04,1,,,,,トクセンマキ,0
2300,9440003001661,新規,0,2025-02-04,2025-02-04,マニフィック・マルシェ合同会社,,合同会社,北海道,函館市,昭和４丁目１８番１２号,,01,202,0410812,,,,,,,2025-02-04,1,,,,,マニフィックマルシェ,0
2306,9700150128974,新規,0,2025-02-04,2025-02-04,ＦＵＲＡＮＯ　ＦＩＲＳＴ　ＴＲＡＣＫＳ　ＰＴＹ　ＬＴＤ,,外国会社等,,,,,,,,オーストラリア連邦、西オーストラリア州、ノースクージー、バロークレセント１３、ライフディメンションズ,,,,,,2025-02-04,1,,,,,フラノフアーストトラツクスピーテイーワイリミテツド,0
2307,9700150129056,新規,0,2025-02-04,2025-02-04,ＳＡＦＦＲＯＮ　ＨＩＬＬ　ＡＳＳＥＴ　ＩＮＶＥＳＴＭＥＮＴ　ＬＩＭＩＴＥＤ,,外国会社等,,,,,,,,ＯＭＣ　Ｃｈａｍｂｅｒｓ，Ｗｉｃｋｈａｍｓ　Ｃａｙ　１，Ｒｏａｄ　Ｔｏｗｎ，Ｔｏｒｔｏｌａ，Ｂｒｉｔｉｓｈ　Ｖｉｒｇｉｎ　Ｉｓｌａｎｄｓ,,,,,,2025-02-04,1,,,,,サフロンヒルアセツトインベストメントリミテツド,0
