sequenceNumber,corporateNumber,process,correct,updateDate,changeDate,name,nameImageId,kind,prefectureName,cityName,streetNumber,addressImageId,prefectureCode,cityCode,postCode,addressOutside,addressOutsideImageId,closeDate,closeCause,successorCorporateNumber,changeCause,assignmentDate,latest,enName,enPrefectureName,enCityName,enAddressOutside,furigana,hihyoji
9,1010002037823,登記記録の閉鎖等,0,2022-02-15,2022-02-08,有限会社ゼネラル出版,,有限会社,東京都,中央区,湊３丁目９番１号民衆堂ビル３階,,13,102,1040043,,,2022-02-08,清算の結了等,,,2015-10-05,1,,,,,ゼネラルシュッパン,0
14,1010102007049,登記記録の閉鎖等,0,2022-02-15,2022-02-10,両満織物有限会社,,有限会社,東京都,八王子市,平岡町４番２号,,13,201,1920061,,,2022-02-10,清算の結了等,,,2015-10-05,1,,,,,,0
37,1011001007932,登記記録の閉鎖等,0,2022-02-15,2022-01-28,株式会社イー・エス・ジー,,株式会社,東京都,渋谷区,松濤２丁目２０番６号,,13,113,1500046,,,2022-01-28,清算の結了等,,,2015-10-05,1,,,,,イーエスジー,0
51,1011702017420,登記記録の閉鎖等,0,2022-02-15,2022-02-09,有限会社高石工務店,,有限会社,東京都,江戸川区,北小岩８丁目６番１８号,,13,123,1330051,,,2022-02-09,清算の結了等,,,2015-10-05,1,,,,,タカイシコウムテン,0
60,1013302003494,登記記録の閉鎖等,0,2022-02-15,2022-02-07,有限会社コンセプトメディオスリー,,有限会社,東京都,千代田区,富士見１丁目３番１号上田富士見ビル２階１０号室,,13,101,1020071,,,2022-02-07,清算の結了等,,,2015-10-05,1,,,,,コンセプトメディオスリー,0
63,1020001019912,登記記録の閉鎖等,0,2022-02-15,2022-02-09,キクデン株式会社,,株式会社,神奈川県,横浜市港北区,錦が丘１番２６号,,14,109,2220013,,,2022-02-09,合併による解散等,8020001019914,令和４年２月１日千葉県木更津市真里谷２０７８番地キクナ電子株式会社（8020001019914）に合併し解散,2015-10-05,1,,,,,キクデン,0
67,1020002055270,登記記録の閉鎖等,0,2022-02-15,2022-02-10,有限会社インフォテクノ,,有限会社,神奈川県,横浜市鶴見区,北寺尾３丁目１０番１３－１００２号,,14,101,2300074,,,2022-02-10,清算の結了等,,,2015-10-05,1,,,,,インフォテクノ,0
72,1020005006295,登記記録の閉鎖等,0,2022-02-15,2022-02-10,特定非営利活動法人ＭＩＺＵ,,その他の設立登記法人,神奈川県,横浜市青葉区,奈良１丁目１５番地１１,,14,117,2270038,,,2022-02-10,清算の結了等,,,2015-10-05,1,,,,,ミズ,0
79,1030001050362,登記記録の閉鎖等,0,2022-02-15,2022-02-08,株式会社興建,,株式会社,埼玉県,朝霞市,東弁財２丁目１２番２－３０５号,,11,227,3510022,,,2022-02-08,清算の結了等,,,2015-10-05,1,,,,,コウケン,0
118,1100001003998,登記記録の閉鎖等,0,2022-02-15,2022-02-09,株式会社サンデープラニング,,株式会社,長野県,上水内郡信濃町,大字野尻字狐久保３７９番２,,20,583,3891303,,,2022-02-09,清算の結了等,,,2015-10-05,1,,,,,サンデープラニング,0
122,1110002004879,登記記録の閉鎖等,0,2022-02-15,2022-02-10,有限会社新潟日報女池販売センター,,有限会社,新潟県,新潟市中央区,女池２丁目２番１５号,,15,103,9500941,,,2022-02-10,清算の結了等,,,2015-10-05,1,,,,,ニイガタニッポウメイケハンバイセンター,0
133,1120002017327,登記記録の閉鎖等,0,2022-02-15,2022-02-14,有限会社おおた,,有限会社,大阪府,大阪市住吉区,万代６丁目１５番３号,,27,120,5580055,,,2022-02-14,清算の結了等,,,2015-10-05,1,,,,,オオタ,0
144,1130001008342,登記記録の閉鎖等,0,2022-02-15,2022-02-10,株式会社総本家八百松老舗,,株式会社,京都府,京都市西京区,御陵大枝山町５丁目２２番地１０,,26,111,6101102,,,2022-02-10,清算の結了等,,,2015-10-05,1,,,,,ソウホンケヤオマツロウホ,0
159,1150005003684,登記記録の閉鎖等,0,2022-02-15,2022-02-10,特定非営利活動法人うぶすな企画,,その他の設立登記法人,奈良県,生駒郡平群町,大字椿井１３６０番地,,29,342,6360911,,,2022-02-10,清算の結了等,,,2015-10-05,1,,,,,ウブスナキカク,0
169,1180301010134,登記記録の閉鎖等,0,2022-02-15,2022-02-10,株式会社西村,,株式会社,愛知県,豊川市,白鳥町穴田６５番地,,23,207,4420848,,,2022-02-10,合併による解散等,7290001048730,令和４年２月１日福岡県久留米市山川神代一丁目４番３１号株式会社みらいふ（7290001048730）に合併し解散,2015-10-05,1,,,,,ニシムラ,0
181,1240002052956,登記記録の閉鎖等,0,2022-02-15,2022-02-09,有限会社イトー,,有限会社,広島県,三原市,東町２丁目１番３号,,34,204,7230011,,,2022-02-09,清算の結了等,,,2015-10-05,1,,,,,イトー,0
202,1320002017983,登記記録の閉鎖等,0,2022-02-15,2022-02-08,有限会社ナカジョウ,,有限会社,大分県,竹田市,大字竹田町１３８番地,,44,208,8780012,,,2022-02-08,清算の結了等,,,2015-10-05,1,,,,,ナカジョウ,0
221,1470002003746,登記記録の閉鎖等,0,2022-02-15,2022-02-10,有限会社白川設計事務所,,有限会社,香川県,高松市,浜ノ町６０番２５－８０５号,,37,201,7600011,,,2022-02-10,清算の結了等,,,2015-10-05,1,,,,,シラカワセッケイジムショ,0
244,2010401079639,登記記録の閉鎖等,0,2022-02-15,2022-02-09,ステビアインターナショナル株式会社,,株式会社,東京都,港区,赤坂４丁目１３番５号赤坂オフィスハイツ１３５,,13,103,1070052,,,2022-02-09,清算の結了等,,,2015-10-05,1,,,,,,0
270,2011001131847,登記記録の閉鎖等,0,2022-02-15,2022-01-31,株式会社ＯＫＰＲ,,株式会社,東京都,渋谷区,道玄坂１丁目２１番１号渋谷ソラスタ１５階,,13,113,1500043,,,2022-01-31,合併による解散等,8011001056816,令和４年１月１日東京都渋谷区道玄坂一丁目２１番１号渋谷ソラスタ１５階株式会社ｆｌｕｃｔ（8011001056816）に合併し解散,2020-01-17,1,,,,,オーケーピーアール,0
297,2020002009556,登記記録の閉鎖等,0,2022-02-15,2022-02-10,河本測量有限会社,,有限会社,神奈川県,横浜市港南区,最戸１丁目２１番３号,,14,111,2330008,,,2022-02-10,清算の結了等,,,2015-10-05,1,,,,,カワモトソクリョウ,0
298,2020002025603,登記記録の閉鎖等,0,2022-02-15,2022-02-10,有限会社魚勝商店,,有限会社,神奈川県,横浜市神奈川区,栄町２０番地の２,,14,102,2210052,,,2022-02-10,清算の結了等,,,2015-10-05,1,,,,,ウオカツショウテン,0
344,2080102012776,登記記録の閉鎖等,0,2022-02-15,2022-02-10,有限会社角田,,有限会社,静岡県,駿東郡長泉町,上土狩４５５番地の４ラフォーレくらばＩＩ２０２号,00109857,22,342,4110941,,,2022-02-10,清算の結了等,,,2015-10-05,1,,,,,カクダ,0
346,2090001000377,登記記録の閉鎖等,0,2022-02-15,2022-02-09,株式会社長田電業社,,株式会社,山梨県,甲府市,七沢町５０２番地１７,,19,201,4000825,,,2022-02-09,清算の結了等,,,2015-10-05,1,,,,,オサダデンギョウシャ,0
360,2120002008069,登記記録の閉鎖等,0,2022-02-15,2022-02-08,コスモセレモニー有限会社,,有限会社,大阪府,大阪市城東区,中浜３丁目９番２号,,27,118,5360024,,,2022-02-08,清算の結了等,,,2015-10-05,1,,,,,コスモセレモニー,0
364,2120101025089,登記記録の閉鎖等,0,2022-02-15,2022-02-09,株式会社岡上工業,,株式会社,大阪府,松原市,松ケ丘４丁目３番２号,,27,217,5800042,,,2022-02-09,清算の結了等,,,2015-10-05,1,,,,,オカウエコウギョウ,0
374,2140001020808,登記記録の閉鎖等,0,2022-02-15,2022-02-08,カゼミチ株式会社,,株式会社,兵庫県,神戸市中央区,三宮町３丁目９番１５号,,28,110,6500021,,,2022-02-08,合併による解散等,1040001028424,令和４年２月１日千葉県市川市南行徳一丁目１６番２２号株式会社ウェブ（1040001028424）に合併し解散,2015-10-05,1,,,,,カゼミチ,0
382,2150001011260,登記記録の閉鎖等,0,2022-02-15,2022-02-09,株式会社奈良松葉,,株式会社,奈良県,橿原市,醍醐町２８３番地の１,,29,205,6340072,,,2022-02-09,合併による解散等,1120001047531,令和４年２月１日大阪市西区北堀江二丁目１６番１８号株式会社松葉（1120001047531）に合併し解散,2015-10-05,1,,,,,,0
389,2180001107865,登記記録の閉鎖等,0,2022-02-15,2022-02-01,イオンフレックスリサーチ株式会社,,株式会社,愛知県,名古屋市中区,丸の内２丁目１６番３号丸の内Ａ・Ｔビル８階,,23,106,4600002,,,2022-02-01,合併による解散等,9180001070719,令和４年２月１日名古屋市中区丸の内二丁目１６番３号丸の内Ａ・Ｔビル８階株式会社イオン・フレックス（9180001070719）に合併し解散,2015-10-05,1,,,,,イオンフレックスリサーチ,0
397,2180301031699,登記記録の閉鎖等,0,2022-02-15,2022-02-14,株式会社ＷＯＲＫＯＵＴ　ＪＡＰＡＮ,,株式会社,愛知県,安城市,古井町三ツ塚１９番地１,,23,212,4460025,,,2022-02-14,清算の結了等,,,2018-07-19,1,,,,,ワークアウトジャパン,0
423,2300001006088,登記記録の閉鎖等,0,2022-02-15,2022-02-10,株式会社ＯＳＡ,,株式会社,佐賀県,伊万里市,松島町９３０番地,,41,205,8480045,,,2022-02-10,清算の結了等,,,2015-10-05,1,,,,,オーエスエー,0
425,2310002001797,登記記録の閉鎖等,0,2022-02-15,2022-02-10,有限会社古賀会計事務所,,有限会社,長崎県,長崎市,馬町１２番地３,,42,201,8500022,,,2022-02-10,清算の結了等,,,2015-10-05,1,,,,,コガカイケイジュムショ,0
428,2320001014816,登記記録の閉鎖等,0,2022-02-15,2022-02-08,株式会社ひまわりエコふぁーむ,,株式会社,大分県,国東市,国東町浜崎３２３０番地２,,44,214,8730644,,,2022-02-08,清算の結了等,,,2016-03-24,1,,,,,ヒマワリエコファーム,0
440,2350001012890,登記記録の閉鎖等,0,2022-02-15,2022-02-10,株式会社グリーン・郷,,株式会社,宮崎県,小林市,野尻町三ケ野山１６８８番地２,,45,205,8860213,,,2022-02-10,清算の結了等,,,2015-10-05,1,,,,,グリーンサト,0
448,2380002028363,登記記録の閉鎖等,0,2022-02-15,2022-02-10,有限会社サントップ珈琲店,,有限会社,福島県,相馬市,中村字桜ケ丘２９番地,,07,209,9760042,,,2022-02-10,清算の結了等,,,2015-10-05,1,,,,,,0
458,2430005005255,登記記録の閉鎖等,0,2022-02-15,2022-02-08,特定非営利活動法人いれ歯サポートセンター,,その他の設立登記法人,北海道,札幌市東区,北三十三条東１丁目１番７号,,01,103,0650033,,,2022-02-08,清算の結了等,,,2015-10-05,1,,,,,イレバサポートセンター,0
472,3010001119018,登記記録の閉鎖等,0,2022-02-15,2022-02-09,宏和エンジニヤリング株式会社,,株式会社,東京都,国分寺市,東元町２丁目１９番６号,,13,214,1850022,,,2022-02-09,清算の結了等,,,2015-10-05,1,,,,,コウワエンジニヤリング,0
475,3010001164633,登記記録の閉鎖等,0,2022-02-15,2022-02-07,株式会社ＨＡＲＭＡＴＴＡＮ,,株式会社,東京都,文京区,小石川５丁目２４番５－２０１号,,13,105,1120002,,,2022-02-07,清算の結了等,,,2015-10-05,1,,,,,ハーマッタン,0
576,3030002107473,登記記録の閉鎖等,0,2022-02-15,2022-02-08,有限会社湊電業社,,有限会社,埼玉県,川口市,大字新井宿１０７５番地,,11,203,3330826,,,2022-02-08,清算の結了等,,,2015-10-05,1,,,,,ミナトデンギョウシャ,0
598,3100001034595,登記記録の閉鎖等,0,2022-02-15,2022-02-10,株式会社エーエスロジスティックス,,株式会社,長野県,北安曇郡松川村,７０６６番地１７,,20,482,3998501,,,2022-02-10,清算の結了等,,,2021-09-09,1,,,,,エーエスロジステックス,0
602,3120001023778,登記記録の閉鎖等,0,2022-02-15,2022-02-08,株式会社尚美社,,株式会社,大阪府,大阪市中央区,法円坂１丁目２番７号,,27,128,5400006,,,2022-02-08,清算の結了等,,,2015-10-05,1,,,,,ショウビシャ,0
625,3120002038528,登記記録の閉鎖等,0,2022-02-15,2022-02-09,宝進建設有限会社,,有限会社,大阪府,大阪市中央区,玉造１丁目３番１９号,,27,128,5400004,,,2022-02-09,清算の結了等,,,2015-10-05,1,,,,,ホウシンケンセツ,0
627,3120101008175,登記記録の閉鎖等,0,2022-02-15,2022-02-09,大美野実業株式会社,,株式会社,大阪府,高石市,綾園６丁目１６番２９号,,27,225,5920014,,,2022-02-09,清算の結了等,,,2015-10-05,1,,,,,オオミノジツギョウ,0
630,3120101056281,登記記録の閉鎖等,0,2022-02-15,2022-02-07,株式会社ｄｏｄａｉ,,株式会社,大阪府,和泉市,青葉台２丁目２６番１号,,27,219,5941153,,,2022-02-07,清算の結了等,,,2017-04-07,1,,,,,ドダイ,0
669,3180002062943,登記記録の閉鎖等,0,2022-02-15,2022-02-08,有限会社高橋テニス企画,00073274,有限会社,愛知県,愛知郡東郷町,大字春木字追分１１５番地,,23,302,4700162,,,2022-02-08,清算の結了等,,,2015-10-05,1,,,,,タカハシテニスキカク,0
683,3210001008555,登記記録の閉鎖等,0,2022-02-15,2022-02-10,Ｍ２ＴＲＡＮＳ株式会社,,株式会社,福井県,福井市,飯塚町第６号７番地,,18,201,9188067,,,2022-02-10,清算の結了等,,,2015-10-05,1,,,,,,0
685,3210003000898,登記記録の閉鎖等,0,2022-02-15,2022-02-07,合同会社ＭＯＴＯＫＵＮＩ,,合同会社,福井県,敦賀市,中央町１丁目１０－１１,,18,202,9140811,,,2022-02-07,清算の結了等,,,2015-10-19,1,,,,,モトクニ,0
707,3320005009877,登記記録の閉鎖等,0,2022-02-15,2022-02-15,一般社団法人いきいきライフ協会大分中央,,その他の設立登記法人,大分県,大分市,中春日町１２番３０号エクセル中春日ビル３０１,,44,201,8700039,,,2022-02-15,清算の結了等,,,2021-03-23,1,,,,,イキイキライフキョウカイオオイタチュウオウ,0
721,3370003004644,登記記録の閉鎖等,0,2022-02-15,2022-02-07,なち企画合同会社,,合同会社,宮城県,登米市,中田町浅水字新田７８番地,,04,212,9870611,,,2022-02-07,清算の結了等,,,2019-12-06,1,,,,,ナチキカク,0
743,3500001011257,登記記録の閉鎖等,0,2022-02-15,2022-02-10,エバグリーン株式会社,,株式会社,愛媛県,今治市,土橋町２丁目５番１２号,,38,202,7940815,,,2022-02-10,清算の結了等,,,2015-10-05,1,,,,,エバグリーン,0
798,4011502001448,登記記録の閉鎖等,0,2022-02-15,2022-02-10,有限会社勝部橋梁設計事務所,,有限会社,東京都,北区,神谷２丁目４１番７号ヴェラハイツ赤羽１０４,,13,117,1150043,,,2022-02-10,清算の結了等,,,2015-10-05,1,,,,,,0
803,4012401000771,登記記録の閉鎖等,0,2022-02-15,2022-02-09,上明商事株式会社,,株式会社,東京都,府中市,南町２丁目２７番地の１６,,13,206,1830026,,,2022-02-09,清算の結了等,,,2015-10-05,1,,,,,ジョウミョウショウジ,0
804,4012401015761,登記記録の閉鎖等,0,2022-02-15,2022-02-09,株式会社ａｍｐｅｒｓａｎｄ,,株式会社,東京都,武蔵野市,吉祥寺北町４丁目１番２４－３０８号,,13,203,1800001,,,2022-02-09,清算の結了等,,,2015-10-05,1,,,,,アンパーサンド,0
806,4012801010387,登記記録の閉鎖等,0,2022-02-15,2022-02-09,株式会社Ｒｅｓｔ　Ｕｐ,,株式会社,東京都,武蔵村山市,学園４丁目１６番地の２２,,13,223,2080011,,,2022-02-09,清算の結了等,,,2015-10-05,1,,,,,レストアップ,0
818,4020001068114,登記記録の閉鎖等,0,2022-02-15,2022-02-10,千代田商事株式会社,,株式会社,神奈川県,川崎市宮前区,水沢１丁目１番１号,,14,136,2160012,,,2022-02-10,清算の結了等,,,2015-10-05,1,,,,,チヨダショウジ,0
849,4040002010238,登記記録の閉鎖等,0,2022-02-15,2022-02-07,有限会社仏蘭西屋,,有限会社,千葉県,千葉市中央区,長洲１丁目２３番２号,,12,101,2600854,,,2022-02-07,清算の結了等,,,2015-10-05,1,,,,,フランスヤ,0
888,4120005019664,登記記録の閉鎖等,0,2022-02-15,2022-02-09,特定非営利活動法人国際和装文化実践協会,,その他の設立登記法人,大阪府,大阪市都島区,片町２丁目９－１７グランドピア京橋５０３,,27,102,5340025,,,2022-02-09,清算の結了等,,,2017-08-22,1,,,,,コクサイワソウブンカジッセンキョウカイ,0
930,4180001016494,登記記録の閉鎖等,0,2022-02-15,2022-02-08,協栄石材株式会社,,株式会社,愛知県,名古屋市東区,東桜２丁目１７番４０号,,23,102,4610005,,,2022-02-08,清算の結了等,,,2015-10-05,1,,,,,キョウエイセキザイ,0
934,4180003020420,登記記録の閉鎖等,0,2022-02-15,2022-02-04,合同会社ＭＩＮＥＲＶＡ,,合同会社,愛知県,春日井市,藤山台３丁目１番３号,,23,206,4870035,,,2022-02-04,清算の結了等,,,2019-10-08,1,,,,,ミネルヴァ,0
937,4200002019709,登記記録の閉鎖等,0,2022-02-15,2022-02-10,有限会社ＤＲＩＶＥ,,有限会社,岐阜県,関市,下有知４２７０番地１,,21,205,5013217,,,2022-02-10,清算の結了等,,,2015-10-05,1,,,,,ドライブ,0
953,4280001004051,登記記録の閉鎖等,0,2022-02-15,2022-02-08,株式会社鍋物処石さん,,株式会社,東京都,杉並区,高井戸東１丁目２７番１０号,,13,115,1680072,,,2022-02-08,清算の結了等,,,2015-10-05,1,,,,,ナベモノドコロイシサン,0
958,4290001067394,登記記録の閉鎖等,0,2022-02-15,2022-02-08,株式会社博多防水,,株式会社,福岡県,糟屋郡粕屋町,大字内橋３８１番地１,,40,349,8112308,,,2022-02-08,清算の結了等,,,2015-10-05,1,,,,,ハカタボウスイ,0
967,4290002036951,登記記録の閉鎖等,0,2022-02-15,2022-02-08,有限会社古屋製作所,,有限会社,福岡県,糟屋郡志免町,南里７丁目７番１１号,,40,343,8112207,,,2022-02-08,清算の結了等,,,2015-10-05,1,,,,,フルヤセイサクショ,0
976,4340001023227,登記記録の閉鎖等,0,2022-02-15,2022-02-10,株式会社プロモート,,株式会社,鹿児島県,鹿屋市,王子町４３９６番地,,46,203,8930012,,,2022-02-10,清算の結了等,,,2020-10-29,1,,,,,プロモート,0
998,4430002022879,登記記録の閉鎖等,0,2022-02-15,2022-02-08,有限会社サンフレンズ,,有限会社,北海道,札幌市西区,琴似三条２丁目８番１１号,,01,107,0630813,,,2022-02-08,清算の結了等,,,2015-10-05,1,,,,,サンフレンズ,0
1000,4450002011384,登記記録の閉鎖等,0,2022-02-15,2022-02-10,有限会社サロベツ商事,,有限会社,北海道,天塩郡幌延町,三条南２丁目５番地,,01,520,0983213,,,2022-02-10,清算の結了等,,,2015-10-05,1,,,,,サロベツショウジ,0
1001,4450003001418,登記記録の閉鎖等,0,2022-02-15,2022-02-08,合同会社ティーテック,,合同会社,北海道,旭川市,東鷹栖二条４丁目６３８番地３３４,,01,204,0718102,,,2022-02-08,清算の結了等,,,2015-10-05,1,,,,,ティーテック,0
1017,5010401082417,登記記録の閉鎖等,0,2022-02-15,2022-02-08,株式会社ＴＡＧＧＹ,,株式会社,東京都,港区,北青山２丁目７番２６号,,13,103,1070061,,,2022-02-08,清算の結了等,,,2015-10-05,1,,,,,タギー,0
1020,5010401154026,登記記録の閉鎖等,0,2022-02-15,2022-02-08,ＧＯＧＤＡＴＡ株式会社,,株式会社,東京都,港区,浜松町２丁目２番１５号浜松町ダイヤビル２Ｆ,,13,103,1050013,,,2022-02-08,清算の結了等,,,2020-07-15,1,,,,,ジーオージーデータ,0
1040,5011101090412,登記記録の閉鎖等,0,2022-02-15,2022-01-31,ＭＥＧＵＬＵ株式会社,,株式会社,東京都,目黒区,中目黒２丁目８番５号ＥＸＡＭＮＡＫＡＭＥＧＵＲＯ３０２号,,13,110,1530061,,,2022-01-31,清算の結了等,,,2020-02-14,1,,,,,メグル,0
1046,5011403002643,登記記録の閉鎖等,0,2022-02-15,2022-02-07,合同会社Ｅｖｏｌｍｉｉ,,合同会社,東京都,中央区,八丁堀２丁目２９－１３－３０４,,13,102,1040032,,,2022-02-07,清算の結了等,,,2019-03-28,1,,,,,エボルミイ,0
1048,5011601020109,登記記録の閉鎖等,0,2022-02-15,2022-01-28,ディー・エル・マーケット株式会社,,株式会社,東京都,渋谷区,恵比寿南１丁目１５番１号,,13,113,1500022,,,2022-01-28,清算の結了等,,,2015-10-05,1,,,,,ディーエルマーケット,0
1053,5012305001221,登記記録の閉鎖等,0,2022-02-15,2022-02-02,特定非営利活動法人境川緑のルネッサンス,,その他の設立登記法人,東京都,町田市,鶴間４丁目８番１－２１０号,,13,209,1940004,,,2022-02-02,清算の結了等,,,2015-10-05,1,,,,,サカイガワミドリノルネッサンス,0
1066,5020002104577,登記記録の閉鎖等,0,2022-02-15,2022-02-10,有限会社さんぺい,,有限会社,神奈川県,川崎市川崎区,殿町１丁目２２番１２号,,14,131,2100821,,,2022-02-10,清算の結了等,,,2015-10-05,1,,,,,サンペイ,0
1083,5030001126043,登記記録の閉鎖等,0,2022-02-15,2022-02-09,ガードウィルジャパンネクスト株式会社,,株式会社,埼玉県,所沢市,東所沢和田２丁目２６番地の６パークハイム１０１,,11,208,3590023,,,2022-02-09,清算の結了等,,,2018-06-07,1,,,,,ガードウィルジャパンネクスト,0
1089,5030002077582,登記記録の閉鎖等,0,2022-02-15,2022-02-08,有限会社鈴岡組工業,,有限会社,埼玉県,比企郡川島町,大字東大塚３６番地,,11,346,3500114,,,2022-02-08,清算の結了等,,,2015-10-05,1,,,,,スズオカグミコウギョウ,0
1109,5080001003865,登記記録の閉鎖等,0,2022-02-15,2022-02-10,株式会社中野園,,株式会社,静岡県,静岡市葵区,若松町１２４番地,,22,101,4200006,,,2022-02-10,清算の結了等,,,2015-10-05,1,,,,,ナカノエン,0
1117,5100002030220,登記記録の閉鎖等,0,2022-02-15,2022-02-09,ティダダイヤモンド有限会社,,有限会社,長野県,茅野市,中大塩７番地６９,,20,214,3910215,,,2022-02-09,清算の結了等,,,2015-10-05,1,,,,,ティダダイヤモンド,0
1120,5110002024816,登記記録の閉鎖等,0,2022-02-15,2022-02-10,有限会社あらい真野石材,,有限会社,新潟県,妙高市,大字梨木字山崎６２番地１,,15,217,9440077,,,2022-02-10,清算の結了等,,,2015-10-05,1,,,,,アライマノセキザイ,0
1144,5130002010434,登記記録の閉鎖等,0,2022-02-15,2022-02-14,有限会社アポロ染研,,有限会社,京都府,京都市南区,吉祥院石原開町８番地,,26,107,6018365,,,2022-02-14,清算の結了等,,,2015-10-05,1,,,,,アポロセンケン,0
1152,5140005004622,登記記録の閉鎖等,0,2022-02-15,2022-02-01,特定非営利活動法人須磨歴史倶楽部,,その他の設立登記法人,兵庫県,神戸市須磨区,神撫町１丁目３番１１－２０２号,,28,107,6540003,,,2022-02-01,清算の結了等,,,2015-10-05,1,,,,,スマレキシクラブ,0
1156,5160002008285,登記記録の閉鎖等,0,2022-02-15,2022-02-10,有限会社タカダ,,有限会社,滋賀県,彦根市,正法寺町３０番地の３,,25,202,5220024,,,2022-02-10,清算の結了等,,,2015-10-05,1,,,,,タカダ,0
1166,5180002050327,登記記録の閉鎖等,0,2022-02-15,2022-02-03,有限会社あいきょう,,有限会社,愛知県,名古屋市天白区,音聞山１０７番地の２,,23,116,4680063,,,2022-02-03,清算の結了等,,,2015-10-05,1,,,,,アイキョウ,0
1170,5180303002753,登記記録の閉鎖等,0,2022-02-15,2022-02-14,合資会社杉萬織布工場,,合資会社,愛知県,西尾市,住吉町１丁目２５番地,,23,213,4450851,,,2022-02-14,清算の結了等,,,2015-10-05,1,,,,,スギマンショクフコウジョウ,0
1181,5240002048018,登記記録の閉鎖等,0,2022-02-15,2022-02-14,有限会社クラウンデンタルサプライ,,有限会社,広島県,安芸郡坂町,坂東１丁目７番１２号,,34,309,7314313,,,2022-02-14,清算の結了等,,,2015-10-05,1,,,,,クラウンデンタルサプライ,0
1182,5240002051921,登記記録の閉鎖等,0,2022-02-15,2022-02-10,有限会社タブチ,,有限会社,広島県,尾道市,栗原町５５６０番地２,,34,205,7220022,,,2022-02-10,清算の結了等,,,2015-10-05,1,,,,,タブチ,0
1184,5240002052564,登記記録の閉鎖等,0,2022-02-15,2022-02-10,有限会社和泉工務店,,有限会社,広島県,世羅郡世羅町,大字西上原４８２番地４,,34,462,7221121,,,2022-02-10,清算の結了等,,,2015-10-05,1,,,,,イズミコウムテン,0
1198,5290801016896,登記記録の閉鎖等,0,2022-02-15,2022-02-07,株式会社徳野,,株式会社,福岡県,田川郡川崎町,大字川崎４１７番地の３,,40,605,8270003,,,2022-02-07,清算の結了等,,,2015-10-05,1,,,,,トクノ,0
1220,5460402000101,登記記録の閉鎖等,0,2022-02-15,2022-02-14,有限会社金森漁業,,有限会社,北海道,根室市,温根元１１１番地１,,01,223,0870166,,,2022-02-14,清算の結了等,,,2015-10-05,1,,,,,カナモリギョギョウ,0
1237,6010002000082,登記記録の閉鎖等,0,2022-02-15,2022-02-01,アイダ有限会社,,有限会社,東京都,文京区,千石３丁目１４番５－４０３号,,13,105,1120011,,,2022-02-01,清算の結了等,,,2015-10-05,1,,,,,アイダ,0
1239,6010005023964,登記記録の閉鎖等,0,2022-02-15,2022-02-08,Ｋｕｎｏ　Ｓｏｌａｒ一般社団法人,,その他の設立登記法人,東京都,港区,芝公園１丁目２番９号花井ビルディング５階,,13,103,1050011,,,2022-02-08,清算の結了等,,,2015-10-05,1,,,,,クノソーラー,0
1285,6012702010113,登記記録の閉鎖等,0,2022-02-15,2022-02-10,有限会社武蔵野エンタープライズ,,有限会社,東京都,小平市,花小金井６丁目３番７－３０１号,,13,211,1870002,,,2022-02-10,清算の結了等,,,2015-10-05,1,,,,,ムサシノエンタープライズ,0
1318,6030002054639,登記記録の閉鎖等,0,2022-02-15,2022-02-08,有限会社野口設計事務所,,有限会社,埼玉県,上尾市,井戸木４丁目６番地の９,,11,219,3620071,,,2022-02-08,清算の結了等,,,2015-10-05,1,,,,,ノグチセッケイジムショ,0
1341,6080401022927,登記記録の閉鎖等,0,2022-02-15,2022-02-14,株式会社ＡＫＩＲＡ,,株式会社,静岡県,掛川市,細田１９５番地の１,,22,213,4360048,,,2022-02-14,清算の結了等,,,2018-05-17,1,,,,,アキラ,0
1349,6120001091129,登記記録の閉鎖等,0,2022-02-15,2022-02-08,株式会社ヤスダ,,株式会社,大阪府,大阪市中央区,南久宝寺町１丁目６番６号,,27,128,5410058,,,2022-02-08,清算の結了等,,,2015-10-05,1,,,,,ヤスダ,0
1371,6120901020657,登記記録の閉鎖等,0,2022-02-15,2022-02-10,株式会社タカムラ,,株式会社,大阪府,箕面市,箕面６丁目１番１２号,,27,220,5620001,,,2022-02-10,清算の結了等,,,2015-10-05,1,,,,,,0
1375,6122002001108,登記記録の閉鎖等,0,2022-02-15,2022-02-10,有限会社海光堂,,有限会社,大阪府,東大阪市,弥生町３番３７号,,27,227,5798026,,,2022-02-10,清算の結了等,,,2015-10-05,1,,,,,カイコウドウ,0
1383,6130002016950,登記記録の閉鎖等,0,2022-02-15,2022-02-09,有限会社土肥,,有限会社,京都府,京都市中京区,西ノ京北壺井町８３番地,,26,104,6048472,,,2022-02-09,清算の結了等,,,2015-10-05,1,,,,,ドヒ,0
1390,6170001002535,登記記録の閉鎖等,0,2022-02-15,2022-02-10,株式会社日成ビル,,株式会社,和歌山県,和歌山市,元寺町西ノ丁１５番地,,30,201,6408007,,,2022-02-10,清算の結了等,,,2015-10-05,1,,,,,ニッセイビル,0
1397,6200001025441,登記記録の閉鎖等,0,2022-02-15,2022-02-08,株式会社ドライブ・イン高山,,株式会社,愛知県,名古屋市千種区,向陽町３丁目１９番地,,23,101,4640062,,,2022-02-08,清算の結了等,,,2015-10-05,1,,,,,ドライブインタカヤマ,0
1402,6240001018169,登記記録の閉鎖等,0,2022-02-15,2022-02-10,株式会社エーユー,,株式会社,広島県,広島市安佐北区,三入東１丁目３４番３７号,,34,106,7310212,,,2022-02-10,清算の結了等,,,2015-10-05,1,,,,,エーユー,0
1440,6370001010468,登記記録の閉鎖等,0,2022-02-15,2022-02-10,株式会社ミロ・インテリア商会,,株式会社,宮城県,仙台市青葉区,東勝山３丁目１９番２３号,,04,101,9810923,,,2022-02-10,清算の結了等,,,2015-10-05,1,,,,,ミロインテリアショウカイ,0
1443,6370002007612,登記記録の閉鎖等,0,2022-02-15,2022-02-08,有限会社新栄サービス,,有限会社,宮城県,栗原市,金成上町６４番地,,04,213,9895154,,,2022-02-08,清算の結了等,,,2015-10-05,1,,,,,シンエイサービス,0
1445,6380001018015,登記記録の閉鎖等,0,2022-02-15,2022-02-09,福島日紅株式会社,,株式会社,福島県,大沼郡会津美里町,字宮里１９番地の４,,07,447,9696207,,,2022-02-09,合併による解散等,4410001008864,令和４年２月１日秋田県横手市平鹿町上吉田字車長根８３番地東北日紅株式会社（4410001008864）に合併し解散,2015-10-05,1,,,,,フクシマニッコウ,0
1479,7010001177160,登記記録の閉鎖等,0,2022-02-15,2022-02-08,株式会社ポートエフ,,株式会社,東京都,中央区,勝どき１丁目８番１－３１０７号,,13,102,1040054,,,2022-02-08,清算の結了等,,,2016-07-27,1,,,,,ポートエフ,0
1507,7011001031860,登記記録の閉鎖等,0,2022-02-15,2022-01-31,株式会社エイ・エム・シー,,株式会社,東京都,渋谷区,千駄ヶ谷３丁目２８番１号,,13,113,1510051,,,2022-01-31,合併による解散等,1011001012627,令和４年１月３１日東京都渋谷区千駄ケ谷三丁目２８番１号株式会社セラビ（1011001012627）に合併し解散,2015-10-05,1,,,,,エイエムシー,0
1567,7080102009355,登記記録の閉鎖等,0,2022-02-15,2022-02-14,有限会社阿部製作所,,有限会社,静岡県,駿東郡長泉町,下土狩１０４７番地,,22,342,4110943,,,2022-02-14,清算の結了等,,,2015-10-05,1,,,,,アベセイサクショ,0
1614,7140002011578,登記記録の閉鎖等,0,2022-02-15,2022-02-07,有限会社誠和事務センター,,有限会社,兵庫県,神戸市兵庫区,浜中町２丁目１２番３－７０２号,,28,105,6520875,,,2022-02-07,清算の結了等,,,2015-10-05,1,,,,,セイワジムセンター,0
1629,7180301000897,登記記録の閉鎖等,0,2022-02-15,2022-02-14,株式会社ハラダ建工,,株式会社,愛知県,岡崎市,真伝１丁目１１番地１６,,23,202,4443175,,,2022-02-14,清算の結了等,,,2015-10-05,1,,,,,,0
1630,7180301023114,登記記録の閉鎖等,0,2022-02-15,2022-02-10,元進綱業株式会社,,株式会社,愛知県,西尾市,東幡豆町堂ノ上５７番地,,23,213,4440701,,,2022-02-10,清算の結了等,,,2015-10-05,1,,,,,モトシンコウギョウ,0
1637,7240001005232,登記記録の閉鎖等,0,2022-02-15,2022-02-10,株式会社スタッフ,,株式会社,広島県,広島市中区,千田町２丁目８番８号,,34,101,7300052,,,2022-02-10,清算の結了等,,,2015-10-05,1,,,,,スタッフ,0
1654,7290001068902,登記記録の閉鎖等,0,2022-02-15,2022-02-08,株式会社リラメディケーション,,株式会社,福岡県,福岡市中央区,長浜３丁目１６－２－９１３,,40,133,8100072,,,2022-02-08,清算の結了等,,,2015-10-05,1,,,,,リラメディケーション,0
1682,7370002015671,登記記録の閉鎖等,0,2022-02-15,2022-02-08,有限会社情報教育研究所,,有限会社,宮城県,仙台市青葉区,一番町１丁目１７番２７号,,04,101,9800811,,,2022-02-08,清算の結了等,,,2015-10-05,1,,,,,ジョウホウキョウイクケンキュウショ,0
1701,7460002003824,登記記録の閉鎖等,0,2022-02-15,2022-02-10,有限会社小嶋技建,,有限会社,北海道,釧路市,昭和南５丁目２０番１６号,,01,206,0840909,,,2022-02-10,清算の結了等,,,2015-10-05,1,,,,,コジマギケン,0
1803,8020002007975,登記記録の閉鎖等,0,2022-02-15,2022-02-10,有限会社ケイツウプロ,,有限会社,神奈川県,横浜市金沢区,釜利谷東２丁目１９番４４号,,14,108,2360042,,,2022-02-10,清算の結了等,,,2015-10-05,1,,,,,ケイツウプロ,0
1809,8021002016330,登記記録の閉鎖等,0,2022-02-15,2022-02-09,有限会社ホビーホース,,有限会社,神奈川県,鎌倉市,稲村ガ崎２丁目１１番１５号,,14,204,2480024,,,2022-02-09,清算の結了等,,,2015-10-05,1,,,,,ホビーホース,0
1810,8021002023153,登記記録の閉鎖等,0,2022-02-15,2022-02-10,有限会社日豊エージエンシー,,有限会社,神奈川県,相模原市中央区,矢部１丁目８番１８号,,14,152,2520232,,,2022-02-10,清算の結了等,,,2015-10-05,1,,,,,ニッポウエージエンシー,0
1821,8030001144323,登記記録の閉鎖等,0,2022-02-15,2022-02-09,株式会社麗装寿,,株式会社,埼玉県,川口市,弥平２丁目７番７号,,11,203,3320002,,,2022-02-09,清算の結了等,,,2021-09-15,1,,,,,レイショウコトブキ,0
1823,8030002011051,登記記録の閉鎖等,0,2022-02-15,2022-02-10,有限会社林薬局,,有限会社,埼玉県,さいたま市西区,大字宝来１７２２番地の３,,11,101,3310074,,,2022-02-10,清算の結了等,,,2015-10-05,1,,,,,ハヤシヤッキョク,0
1829,8040001078157,登記記録の閉鎖等,0,2022-02-15,2022-02-02,アイケー工業株式会社,,株式会社,千葉県,流山市,富士見台２丁目５番地の８・１－１０６,,12,220,2700127,,,2022-02-02,清算の結了等,,,2015-10-05,1,,,,,アイケーコウギョウ,0
1889,8160001003689,登記記録の閉鎖等,0,2022-02-15,2022-02-10,株式会社木村設計工業,,株式会社,滋賀県,大津市,大石東３丁目１１番１６号,,25,201,5202264,,,2022-02-10,清算の結了等,,,2015-10-05,1,,,,,キムラセッケイコウギョウ,0
1891,8160002002376,登記記録の閉鎖等,0,2022-02-15,2022-02-15,有限会社ユーイー,,有限会社,滋賀県,大津市,晴嵐２丁目３番１３号,,25,201,5200833,,,2022-02-15,清算の結了等,,,2015-10-05,1,,,,,ユーイー,0
1897,8180002003463,登記記録の閉鎖等,0,2022-02-15,2022-02-08,有限会社アイズディレクターズコーポレイション,,有限会社,愛知県,春日井市,二子町１丁目５番１３号,,23,206,4860955,,,2022-02-08,清算の結了等,,,2015-10-05,1,,,,,アイズディレクターズコーポレイション,0
1898,8180002082326,登記記録の閉鎖等,0,2022-02-15,2022-02-08,有限会社岩倉包材産業,,有限会社,愛知県,岩倉市,北島町１３２７番地,,23,228,4820017,,,2022-02-08,清算の結了等,,,2015-10-05,1,,,,,イワクラホウザイサンギョウ,0
1901,8180301024862,登記記録の閉鎖等,0,2022-02-15,2022-02-14,吉野新聞販売株式会社,,株式会社,愛知県,安城市,東栄町１丁目１２番２号,,23,212,4460007,,,2022-02-14,清算の結了等,,,2015-10-05,1,,,,,,0
1912,8260001010031,登記記録の閉鎖等,0,2022-02-15,2022-02-14,ＪＧＣ技術株式会社,,株式会社,岡山県,岡山市中区,門田本町１丁目８番２８－１号,,33,102,7038274,,,2022-02-14,清算の結了等,,,2015-10-05,1,,,,,ジエイジーシーギジュツ,0
1954,8430003010516,登記記録の閉鎖等,0,2022-02-15,2022-02-10,合同会社はれうた,,合同会社,北海道,札幌市西区,八軒一条西１丁目２番５－３０２号,,01,107,0630841,,,2022-02-10,清算の結了等,,,2019-06-11,1,,,,,ハレウタ,0
1968,9010001005286,登記記録の閉鎖等,0,2022-02-15,2022-02-08,東京縫製株式会社,,株式会社,東京都,文京区,白山１丁目３１番７号,,13,105,1130001,,,2022-02-08,清算の結了等,,,2015-10-05,1,,,,,トウキョウホウセイ,0
1974,9010101012109,登記記録の閉鎖等,0,2022-02-15,2022-02-08,株式会社グランリーブ,,株式会社,東京都,八王子市,三崎町４－８ア－バン橋本ビル６階,,13,201,1920084,,,2022-02-08,清算の結了等,,,2015-12-10,1,,,,,グランリーブ,0
1979,9010401116617,登記記録の閉鎖等,0,2022-02-15,2022-02-09,パナソニックプロイエサービス株式会社,,株式会社,東京都,港区,東新橋１丁目５番１号,,13,103,1050021,,,2022-02-09,清算の結了等,,,2015-10-05,1,,,,,パナソニックプロイエサービス,0
1990,9010602005949,登記記録の閉鎖等,0,2022-02-15,2022-02-07,有限会社望栄,,有限会社,東京都,江東区,冬木２１番２５－３０１号,,13,108,1350041,,,2022-02-07,清算の結了等,,,2015-10-05,1,,,,,ボウエイ,0
2027,9020001142319,登記記録の閉鎖等,0,2022-02-15,2022-02-09,エコトライ株式会社,,株式会社,神奈川県,横浜市西区,みなとみらい３丁目７－１,,14,103,2200012,,,2022-02-09,清算の結了等,,,2021-07-26,1,,,,,エコトライ,0
2038,9030001022882,登記記録の閉鎖等,0,2022-02-15,2022-02-09,株式会社リフォームビルダー建築事務所,,株式会社,埼玉県,戸田市,笹目南町１番２号コーポブリッジＩＩＩ－１０１,00014715,11,224,3350035,,,2022-02-09,清算の結了等,,,2015-10-05,1,,,,,リフォームビルダーケンチクジムショ,0
2048,9040001000862,登記記録の閉鎖等,0,2022-02-15,2022-02-03,栄和興業株式会社,,株式会社,千葉県,千葉市花見川区,幕張町５丁目４１７番の４,,12,102,2620032,,,2022-02-03,清算の結了等,,,2015-10-05,1,,,,,エイワコウギョウ,0
2061,9060001005430,登記記録の閉鎖等,0,2022-02-15,2022-02-09,杉山商事株式会社,,株式会社,栃木県,河内郡上三川町,大字梁３９８番地４,,09,301,3290523,,,2022-02-09,清算の結了等,,,2015-10-05,1,,,,,スギヤマショウジ,0
2072,9110001028558,登記記録の閉鎖等,0,2022-02-15,2022-02-08,株式会社オーエム興業,,株式会社,新潟県,柏崎市,大字堀１３９４番地２０,,15,205,9451111,,,2022-02-08,清算の結了等,,,2015-10-05,1,,,,,オーエムコウギョウ,0
2076,9120001030364,登記記録の閉鎖等,0,2022-02-15,2022-02-10,株式会社エスケイトレーディング,,株式会社,大阪府,大阪市住之江区,柴谷２丁目８番９１号,,27,125,5590021,,,2022-02-10,清算の結了等,,,2015-10-05,1,,,,,,0
2077,9120001056599,登記記録の閉鎖等,0,2022-02-15,2022-02-09,大門塗装工業株式会社,,株式会社,大阪府,大阪市淀川区,塚本５丁目６番９号,,27,123,5320026,,,2022-02-09,清算の結了等,,,2015-10-05,1,,,,,ダイモントソウコウギョウ,0
2102,9130005001724,登記記録の閉鎖等,0,2022-02-15,2022-02-09,欣求庵,,その他の設立登記法人,京都府,京都市西京区,桂朝日町４７番地の２,,26,111,6158027,,,2022-02-09,清算の結了等,,,2015-10-05,1,,,,,ゴングアン,0
2118,9180001006648,登記記録の閉鎖等,0,2022-02-15,2022-02-09,株式会社青竜社,,株式会社,愛知県,名古屋市港区,十一屋３丁目１７９番地,,23,111,4550831,,,2022-02-09,清算の結了等,,,2015-10-05,1,,,,,セイリュウシャ,0
2138,9180301025182,登記記録の閉鎖等,0,2022-02-15,2022-02-10,株式会社西村ホールディングス,,株式会社,愛知県,豊川市,白鳥町穴田６５番地,,23,207,4420848,,,2022-02-10,合併による解散等,7290001048730,令和４年２月１日福岡県久留米市山川神代一丁目４番３１号株式会社みらいふ（7290001048730）に合併し解散,2015-10-05,1,,,,,,0
2143,9190002023996,登記記録の閉鎖等,0,2022-02-15,2022-02-09,有限会社湯の山水産センター,,有限会社,三重県,三重郡菰野町,大字神森１８６番地,,24,341,5101231,,,2022-02-09,清算の結了等,,,2015-10-05,1,,,,,ユノヤマスイサンセンター,0
2168,9290801022957,登記記録の閉鎖等,0,2022-02-15,2022-02-10,株式会社ハルヤマ機工,,株式会社,福岡県,北九州市八幡西区,別当町３０番３号,,40,109,8060062,,,2022-02-10,清算の結了等,,,2016-10-14,1,,,,,ハルヤマキコウ,0
2182,9330001024535,登記記録の閉鎖等,0,2022-02-15,2022-02-09,永青養殖株式会社,,株式会社,熊本県,天草市,新和町大多尾２１２９番地２４,,43,215,8630102,,,2022-02-09,清算の結了等,,,2017-09-26,1,,,,,エイセイヨウショク,0
2185,9330002026497,登記記録の閉鎖等,0,2022-02-15,2022-02-10,株式会社グリーン・クラブ,,株式会社,熊本県,八代市,新浜町１番１号,,43,202,8660031,,,2022-02-10,清算の結了等,,,2015-10-05,1,,,,,グリーンクラブ,0
2195,9370202004019,登記記録の閉鎖等,0,2022-02-15,2022-02-09,有限会社Ｒｅ＆Ｌｉ,,有限会社,宮城県,大崎市,古川駅東２丁目１０番３１号,,04,215,9896115,,,2022-02-09,清算の結了等,,,2015-10-05,1,,,,,リーアンドリー,0
2199,9430002018757,登記記録の閉鎖等,0,2022-02-15,2022-02-09,有限会社マキノ実印堂,,有限会社,北海道,札幌市中央区,南六条西１４丁目２番２５－１０２号,,01,101,0640806,,,2022-02-09,清算の結了等,,,2015-10-05,1,,,,,マキノジツインドウ,0
2209,9470002004002,登記記録の閉鎖等,0,2022-02-15,2022-02-10,瀬戸電測有限会社,,有限会社,香川県,高松市,木太町１７３０番地１７,,37,201,7600080,,,2022-02-10,清算の結了等,,,2015-10-05,1,,,,,セトデンソク,0
