sequenceNumber,corporateNumber,process,correct,updateDate,changeDate,name,nameImageId,kind,prefectureName,cityName,streetNumber,addressImageId,prefectureCode,cityCode,postCode,addressOutside,addressOutsideImageId,closeDate,closeCause,successorCorporateNumber,changeCause,assignmentDate,latest,enName,enPrefectureName,enCityName,enAddressOutside,furigana,hihyoji
7,1010001246978,新規,0,2024-08-07,2024-08-07,ＤａＳｈｉｎｇ株式会社,,株式会社,東京都,千代田区,一番町２０－５Ｂｒｉｌｌｉａ一番町１７０４号室,,13,101,1020082,,,,,,,2024-08-07,1,,,,,ダッシング,0
8,1010001246994,新規,0,2024-08-07,2024-08-07,株式会社Ｂｕｓｉｎｅｓｓ　Ｓｃｉｅｎｃｅ　Ｊａｐａｎ,,株式会社,東京都,千代田区,九段南１丁目５番６号りそな九段ビル５階ＫＳフロア,,13,101,1020074,,,,,,,2024-08-07,1,,,,,ビジネスサイエンスジャパン,0
9,1010001247092,新規,0,2024-08-07,2024-08-07,株式会社ＢｒｏｔｈｅｒＳｈｉｐ,,株式会社,東京都,中央区,日本橋横山町６番１４号１Ｆ,,13,102,1030003,,,,,,,2024-08-07,1,,,,,ブラザーシップ,0
10,1010001247134,新規,0,2024-08-07,2024-08-07,株式会社ＳＡＰＯ,,株式会社,東京都,中央区,銀座１丁目１２番４号Ｎ＆ＥＢＬＤ．７階,,13,102,1040061,,,,,,,2024-08-07,1,,,,,サポー,0
11,1010001247274,新規,0,2024-08-07,2024-08-07,株式会社ＰＧソリューションズ,,株式会社,東京都,千代田区,神田神保町２丁目２０番地１２第二冨士ビル４Ｆ,,13,101,1010051,,,,,,,2024-08-07,1,,,,,ピージーソリューションズ,0
15,1010003044562,新規,0,2024-08-07,2024-08-07,合同会社エピックフォージ,,合同会社,東京都,千代田区,神田和泉町１番地６－１６ヤマトビル４０５,,13,101,1010024,,,,,,,2024-08-07,1,,,,,エピックフォージ,0
20,1010005038595,新規,0,2024-08-07,2024-08-07,一般社団法人エムアンドアイ,,その他の設立登記法人,東京都,千代田区,神田和泉町１番地６号の１６ヤマトビル４０５,,13,101,1010024,,,,,,,2024-08-07,1,,,,,エムアンドアイ,0
26,1010403033149,新規,0,2024-08-07,2024-08-07,合同会社Ｅｎｒｉｃｈ．Ｔｅｃｈｎｉｃｉａｎ,,合同会社,東京都,港区,赤坂４丁目８番１９号赤坂フロントタウン３階,,13,103,1070052,,,,,,,2024-08-07,1,,,,,エンリッチテクニシャン,0
27,1010403033173,新規,0,2024-08-07,2024-08-07,巴町マネジメントコンサルティング合同会社,,合同会社,東京都,港区,虎ノ門３丁目１６番６－５０３号,,13,103,1050001,,,,,,,2024-08-07,1,,,,,トモエマチマネジメントコンサルティング,0
43,1010903009268,新規,0,2024-08-07,2024-08-07,合同会社ＴＭＫ,,合同会社,東京都,世田谷区,用賀４丁目２４番８号,,13,112,1580097,,,,,,,2024-08-07,1,,,,,ティーエムケー,0
49,1011001163817,新規,0,2024-08-07,2024-08-07,株式会社Ｂｅ‐Ｓｔｙｌｅ　Ｗｅｄｄｉｎｇ,,株式会社,東京都,渋谷区,道玄坂１丁目１０番８号渋谷道玄坂東急ビル２Ｆ－Ｃ,,13,113,1500043,,,,,,,2024-08-07,1,,,,,ビースタイルウエディング,0
50,1011001163841,新規,0,2024-08-07,2024-08-07,株式会社根本事務所,,株式会社,東京都,目黒区,鷹番３丁目２２番２１号,,13,110,1520004,,,,,,,2024-08-07,1,,,,,ネモトジムショ,0
51,1011001163858,新規,0,2024-08-07,2024-08-07,株式会社ＡＩ　ＨＹＶＥ,,株式会社,東京都,渋谷区,恵比寿１丁目１０番６号清園ビル４Ｆ,,13,113,1500013,,,,,,,2024-08-07,1,,,,,エーアイハイブ,0
54,1011003019612,新規,0,2024-08-07,2024-08-07,合同会社ＧＡＫＵＢＡＲＩ,,合同会社,東京都,渋谷区,千駄ヶ谷３丁目３２－４ｇｒａｎ＋ＨＡＲＡＪＵＫＵ３Ｆ,,13,113,1510051,,,,,,,2024-08-07,1,,,,,ガクバリ,0
55,1011003019736,新規,0,2024-08-07,2024-08-07,合同会社ｋｏｐｆ,,合同会社,東京都,渋谷区,千駄ヶ谷５丁目３０－１２ｇｒｅｅｎ新宿御苑５ｆ,,13,113,1510051,,,,,,,2024-08-07,1,,,,,コップフ,0
59,1011101108192,新規,0,2024-08-07,2024-08-07,株式会社ＪＤＹ　ＧＬＯＢＡＬ　ＪＡＰＡＮ,,株式会社,東京都,新宿区,百人町１丁目７番５号座Ｋｕｒａ２階,,13,104,1690073,,,,,,,2024-08-07,1,,,,,ジェイディワイグローバルジャパン,0
60,1011101108283,新規,0,2024-08-07,2024-08-07,株式会社Ｃｒｅａｔｉｖｅ　Ｂｒｉｄｇｅ,,株式会社,東京都,新宿区,下落合１丁目１４－４スワンレイクリバーサイド１０１号,,13,104,1610033,,,,,,,2024-08-07,1,,,,,クリエイティブブリッジ,0
61,1011101108309,新規,0,2024-08-07,2024-08-07,ＭＳＱ　Ｔｏｋｙｏ株式会社,,株式会社,東京都,新宿区,西新宿７丁目１８番１６号トーシンハイム新宿９０３号,,13,104,1600023,,,,,,,2024-08-07,1,,,,,エムエスキュウトウキョウ,0
67,1011501031011,新規,0,2024-08-07,2024-08-07,株式会社赤羽エンタープライズ,,株式会社,東京都,北区,赤羽南１丁目３番７号,,13,117,1150044,,,,,,,2024-08-07,1,,,,,アカバネエンタープライズ,0
68,1011801044638,新規,0,2024-08-07,2024-08-07,株式会社Ｗｉｎエンタープライズ,,株式会社,東京都,足立区,栗原３丁目２３番６号オリエント第３ビル１Ｆ,,13,121,1230842,,,,,,,2024-08-07,1,,,,,ウィンエンタープライズ,0
69,1011801044646,新規,0,2024-08-07,2024-08-07,株式会社Ａｌｐｈａ,,株式会社,東京都,葛飾区,青戸６丁目２０番５－１１０２号ウィステリア青砥,,13,122,1250062,,,,,,,2024-08-07,1,,,,,アルファ,0
73,1012401042164,新規,0,2024-08-07,2024-08-07,株式会社Ｄ．ｓｐｉｎ,,株式会社,東京都,小金井市,貫井南町１丁目７番４号,,13,210,1840014,,,,,,,2024-08-07,1,,,,,ディースピン,0
76,1012801023383,新規,0,2024-08-07,2024-08-07,株式会社アリスト,,株式会社,東京都,国分寺市,東恋ヶ窪４丁目１１番地１４,,13,214,1850014,,,,,,,2024-08-07,1,,,,,アリスト,0
80,1020001158339,新規,0,2024-08-07,2024-08-07,株式会社ＮＲ,,株式会社,神奈川県,川崎市中原区,今井南町１８番２６号シャトレー今井南町４－Ｂ,,14,133,2110064,,,,,,,2024-08-07,1,,,,,エヌアール,0
81,1020001158347,新規,0,2024-08-07,2024-08-07,ｓ’ｍｏｒｅ　ｗｏｒｋｓ株式会社,,株式会社,神奈川県,横浜市神奈川区,金港町５－１４クアドリフォリオ８階,,14,102,2210056,,,,,,,2024-08-07,1,,,,,スモアワークス,0
82,1020001158371,新規,0,2024-08-07,2024-08-07,株式会社Ｔｈｉｒｄ　Ｓｔａｇｅ,,株式会社,神奈川県,横浜市神奈川区,羽沢南２丁目３６番８－５０４号,,14,102,2210866,,,,,,,2024-08-07,1,,,,,サードステージ,0
89,1020003026601,新規,0,2024-08-07,2024-08-07,合同会社Ｈａｒｖｅｓｔ,,合同会社,神奈川県,川崎市宮前区,潮見台８番２９号１０４,,14,136,2160013,,,,,,,2024-08-07,1,,,,,ハーベスト,0
93,1021001082900,新規,0,2024-08-07,2024-08-07,株式会社スマイル,,株式会社,神奈川県,厚木市,下川入２８６番地１－２０１,,14,212,2430206,,,,,,,2024-08-07,1,,,,,スマイル,0
94,1021001082909,新規,0,2024-08-07,2024-08-07,株式会社ラーテル,,株式会社,神奈川県,横須賀市,三春町２丁目１番地４第一大谷ビル２Ｆ,,14,201,2380014,,,,,,,2024-08-07,1,,,,,ラーテル,0
95,1021001082925,新規,0,2024-08-07,2024-08-07,株式会社秋谷国際学園運営会社,,株式会社,神奈川県,横須賀市,秋谷４３２１番地,,14,201,2400105,,,,,,,2024-08-07,1,,,,,アキヤコクサイガクエンウンエイガイシャ,0
101,1021003014868,新規,0,2024-08-07,2024-08-07,合同会社オーバーラップ,,合同会社,神奈川県,平塚市,紅谷町８－１６サニープラザ平塚３Ｆ,,14,203,2540043,,,,,,,2024-08-07,1,,,,,オーバーラップ,0
107,1030001161795,新規,0,2024-08-07,2024-08-07,株式会社ロトエンジニアリング,,株式会社,埼玉県,川口市,大字里９９１番地の２朝日プラザ鳩ケ谷クレセント１２０号,,11,203,3340005,,,,,,,2024-08-07,1,,,,,ロトエンジニアリング,0
108,1030001161812,新規,0,2024-08-07,2024-08-07,オレンジ薬局株式会社,,株式会社,埼玉県,東松山市,大字高坂１９６１番地２,,11,212,3550047,,,,,,,2024-08-07,1,,,,,オレンジヤッキョク,0
109,1030001161820,新規,0,2024-08-07,2024-08-07,株式会社神楽エンジニアリング,,株式会社,埼玉県,川口市,赤井１丁目３４番２１号,,11,203,3340073,,,,,,,2024-08-07,1,,,,,カグラエンジニアリング,0
110,1030001161845,新規,0,2024-08-07,2024-08-07,株式会社ＫＵＭＡＧＡＩ,,株式会社,埼玉県,戸田市,氷川町１丁目８番１６号（アーク・アムールヴィラ３０１号室）,,11,224,3350027,,,,,,,2024-08-07,1,,,,,クマガイ,0
112,1030003024876,新規,0,2024-08-07,2024-08-07,合同会社Ｐａｓｓｉｏｎ,,合同会社,埼玉県,川口市,西川口１丁目３０－２０泰合ビル４０１号,,11,203,3320021,,,,,,,2024-08-07,1,,,,,パッション,0
125,1040001134858,新規,0,2024-08-07,2024-08-07,株式会社ＵＧＬＡＹＡ,,株式会社,千葉県,松戸市,平賀１４８番地の２シーアイハイツ北小金Ｅ棟３０４号,,12,207,2700002,,,,,,,2024-08-07,1,,,,,ウグラヤ,0
126,1040001134890,新規,0,2024-08-07,2024-08-07,株式会社えにし企画,,株式会社,千葉県,袖ケ浦市,長浦駅前７丁目１３番地２長浦パークハウスＣ８,,12,229,2990246,,,,,,,2024-08-07,1,,,,,エニシキカク,0
128,1040003025527,新規,0,2024-08-07,2024-08-07,合同会社ＰＭＧコンサルティング,,合同会社,千葉県,松戸市,栄町西２丁目８８８－２,,12,207,2710061,,,,,,,2024-08-07,1,,,,,ピーエムジーコンサルティング,0
129,1040003025535,新規,0,2024-08-07,2024-08-07,ＬｉＲｉｃｈ合同会社,,合同会社,千葉県,千葉市美浜区,打瀬１丁目２番地３セントラルパーク・ウエストシータワー７０２号,,12,106,2610013,,,,,,,2024-08-07,1,,,,,リリッチ,0
130,1040003025576,新規,0,2024-08-07,2024-08-07,合同会社マル,,合同会社,千葉県,松戸市,千駄堀２４３番地,,12,207,2702252,,,,,,,2024-08-07,1,,,,,マル,0
135,1050001055186,新規,0,2024-08-07,2024-08-07,株式会社石平,,株式会社,茨城県,常総市,水海道栄町２６４８番地,,08,211,3030024,,,,,,,2024-08-07,1,,,,,イシヘイ,0
140,1060001037373,新規,0,2024-08-07,2024-08-07,株式会社イシモクコーポレーション,,株式会社,栃木県,栃木市,大平町横堀１番地１,,09,203,3294411,,,,,,,2024-08-07,1,,,,,イシモクコーポレーション,0
141,1060001037381,新規,0,2024-08-07,2024-08-07,株式会社Ｕｎｉｖｅｒｓａｌ　Ｙａｒｄ,,株式会社,栃木県,栃木市,木野地町６３８番地,,09,203,3280122,,,,,,,2024-08-07,1,,,,,ユニバーサルヤード,0
144,1060005010236,新規,0,2024-08-07,2024-08-07,税理士法人ＷＡＴＡＮＡＢＥ　ＭＣ＆パートナーズ,,その他の設立登記法人,栃木県,那須塩原市,扇町１番２８号,,09,213,3292726,,,,,,,2024-08-07,1,,,,,ワタナベエムシーアンドパートナーズ,0
148,1080001026424,新規,0,2024-08-07,2024-08-07,株式会社ミレ,,株式会社,静岡県,静岡市清水区,新緑町４番３３－４号,,22,103,4240927,,,,,,,2024-08-07,1,,,,,ミレ,0
149,1080003003272,新規,0,2024-08-07,2024-08-07,合同会社アシスト,,合同会社,静岡県,静岡市駿河区,有東２丁目１６番１６号,,22,102,4228032,,,,,,,2024-08-07,1,,,,,アシスト,0
151,1080005007635,新規,0,2024-08-07,2024-08-07,弁護士法人山田法律事務所,,その他の設立登記法人,静岡県,静岡市駿河区,南町１０番６号村上駅南ビル５階,,22,102,4228067,,,,,,,2024-08-07,1,,,,,ヤマダホウリツジムショ,0
160,1100001037699,新規,0,2024-08-07,2024-08-07,中屋住建株式会社,,株式会社,長野県,佐久市,下平尾４６２番地１,,20,217,3850003,,,,,,,2024-08-07,1,,,,,ナカヤジュウケン,0
161,1100001037740,新規,0,2024-08-07,2024-08-07,宮澤造園株式会社,,株式会社,長野県,北佐久郡軽井沢町,大字発地１３９８番地８０,,20,321,3890113,,,,,,,2024-08-07,1,,,,,ミヤザワゾウエン,0
174,1120001267377,新規,0,2024-08-07,2024-08-07,株式会社泉,,株式会社,大阪府,大阪市中央区,道頓堀１丁目東５番１９号花昭ビル,,27,128,5420071,,,,,,,2024-08-07,1,,,,,イズミ,0
175,1120001267476,新規,0,2024-08-07,2024-08-07,川力株式会社,,株式会社,大阪府,大阪市生野区,生野西２丁目１番３３－２０５号,,27,116,5440024,,,,,,,2024-08-07,1,,,,,センリキ,0
176,1120001267534,新規,0,2024-08-07,2024-08-07,株式会社Ｆｕｔｏｍａｋｉ,,株式会社,大阪府,交野市,私部４丁目７６番１１号,,27,230,5760052,,,,,,,2024-08-07,1,,,,,フトマキ,0
177,1120001267575,新規,0,2024-08-07,2024-08-07,株式会社無人のアイス屋さん,,株式会社,大阪府,大阪市淀川区,十三東５丁目１－６２サントピア淀川１１７号,,27,123,5320023,,,,,,,2024-08-07,1,,,,,ムジンノアイスヤサン,0
179,1120003027226,新規,0,2024-08-07,2024-08-07,合同会社ＴＡＫＡＲＡＺＡ,,合同会社,大阪府,大阪市東淀川区,東中島１丁目１７番５号ステュディオ新大阪１０３０,,27,114,5330033,,,,,,,2024-08-07,1,,,,,タカラザ,0
180,1120005024469,新規,0,2024-08-07,2024-08-07,社会保険労務士法人じんざいポータル,,その他の設立登記法人,大阪府,大阪市北区,梅田１丁目１２番１２号東京建物梅田ビル１２階,,27,127,5300001,,,,,,,2024-08-07,1,,,,,ジンザイポータル,0
181,1120005024477,新規,0,2024-08-07,2024-08-07,一般社団法人オンブズパーソンＨＯＮＥＳＴＹ,,その他の設立登記法人,大阪府,大阪市西区,京町堀１丁目１０番８号,,27,106,5500003,,,,,,,2024-08-07,1,,,,,オンブズパーソンオネスティ,0
182,1120005024485,新規,0,2024-08-07,2024-08-07,一般社団法人宗右衛門町不動産管理協会,,その他の設立登記法人,大阪府,大阪市中央区,高津２丁目３番２０号,,27,128,5420072,,,,,,,2024-08-07,1,,,,,ソウエモンチョウフドウサンカンリキョウカイ,0
183,1120105009898,新規,0,2024-08-07,2024-08-07,弁理士法人嶋田特許商標事務所,,その他の設立登記法人,大阪府,高石市,綾園６丁目１番２２号,,27,225,5920014,,,,,,,2024-08-07,1,,,,,シマダトッキョショウヒョウジムショ,0
185,1120901049560,新規,0,2024-08-07,2024-08-07,酒井建築株式会社,,株式会社,大阪府,豊中市,西泉丘２丁目２４３８番地の１（Ａ－６０７号）,,27,203,5610862,,,,,,,2024-08-07,1,,,,,サカイケンチク,0
186,1120901049569,新規,0,2024-08-07,2024-08-07,株式会社Ｖｉｖｉｔ　Ｗｏｒｋｓ,,株式会社,大阪府,茨木市,主原町１３番６号,,27,211,5670897,,,,,,,2024-08-07,1,,,,,ヴィヴットワークス,0
187,1120903005297,新規,0,2024-08-07,2024-08-07,合同会社さちや商会,,合同会社,大阪府,箕面市,船場西２丁目２３番７－６２２号,,27,220,5620036,,,,,,,2024-08-07,1,,,,,サチヤショウカイ,0
193,1130001077643,新規,0,2024-08-07,2024-08-07,株式会社クリエイト,,株式会社,京都府,京都市伏見区,横大路富ノ森町７０番地３７,,26,109,6128257,,,,,,,2024-08-07,1,,,,,クリエイト,0
201,1140001135391,新規,0,2024-08-07,2024-08-07,株式会社ＧＹＯＰＬＡＮ,,株式会社,兵庫県,尼崎市,塚口町１丁目２７番地の５,,28,202,6610002,,,,,,,2024-08-07,1,,,,,ジーワイオープラン,0
202,1140001135400,新規,0,2024-08-07,2024-08-07,株式会社今井ＣＴ,,株式会社,兵庫県,姫路市,広畑区才６１２番地５,,28,201,6711104,,,,,,,2024-08-07,1,,,,,イマイシーティ,0
203,1140001135409,新規,0,2024-08-07,2024-08-07,ＦＬＡＳＨホールディングス株式会社,,株式会社,兵庫県,神戸市中央区,加納町６丁目３番１－１８０９号,,28,110,6500001,,,,,,,2024-08-07,1,,,,,フラッシュホールディングス,0
204,1140001135441,新規,0,2024-08-07,2024-08-07,株式会社ＭＨＡ,,株式会社,兵庫県,神戸市中央区,磯辺通１丁目１番１８号カサベラ国際プラザビル７０７,,28,110,6510084,,,,,,,2024-08-07,1,,,,,エムエイチエー,0
208,1140003020930,新規,0,2024-08-07,2024-08-07,ＣＡＲ　ＰＲＯ　ＴＲＡＤＩＮＧ合同会社,,合同会社,兵庫県,神戸市長田区,寺池町２丁目２－２－１０３号,,28,106,6530804,,,,,,,2024-08-07,1,,,,,カープロトレーディング,0
210,1140005027180,新規,0,2024-08-07,2024-08-07,一般社団法人いながわクラブ,,その他の設立登記法人,兵庫県,川辺郡猪名川町,上野字北畑１１－１,,28,301,6660244,,,,,,,2024-08-07,1,,,,,イナガワクラブ,0
212,1160003003264,新規,0,2024-08-07,2024-08-07,合同会社未来グループ,,合同会社,滋賀県,近江八幡市,上田町１８１番地４,,25,204,5230015,,,,,,,2024-08-07,1,,,,,ミライグループ,0
218,1180001162589,新規,0,2024-08-07,2024-08-07,株式会社アンビテーナ,,株式会社,愛知県,名古屋市北区,平安２丁目２３番２２号（グリーンシティタクト４０１号）,,23,103,4620819,,,,,,,2024-08-07,1,,,,,アンビテーナ,0
219,1180001162738,新規,0,2024-08-07,2024-08-07,株式会社トラスト設計,,株式会社,愛知県,春日井市,春日井町字黒鉾９番地１４,,23,206,4860963,,,,,,,2024-08-07,1,,,,,トラストセッケイ,0
220,1180001162754,新規,0,2024-08-07,2024-08-07,株式会社朝見工業,,株式会社,愛知県,名古屋市守山区,吉根２丁目２００１番地の３,,23,113,4630004,,,,,,,2024-08-07,1,,,,,アサミコウギョウ,0
221,1180001162779,新規,0,2024-08-07,2024-08-07,３ａｒｒｏｗ株式会社,,株式会社,愛知県,名古屋市中区,伊勢山２丁目７番２号,,23,106,4600026,,,,,,,2024-08-07,1,,,,,トリプルアロー,0
232,1180301038935,新規,0,2024-08-07,2024-08-07,株式会社Ｈｉｇｈ　ｌａｎｄ,,株式会社,愛知県,岡崎市,竜美南４丁目８番地１０,,23,202,4440874,,,,,,,2024-08-07,1,,,,,ハイランド,0
233,1180301038943,新規,0,2024-08-07,2024-08-07,株式会社はぢむ,,株式会社,愛知県,岡崎市,羽根西２丁目３番地１,,23,202,4440838,,,,,,,2024-08-07,1,,,,,ハヂム,0
234,1180301038951,新規,0,2024-08-07,2024-08-07,株式会社アレグロッチャ,,株式会社,愛知県,西尾市,桜町中新田１５番地１２,,23,213,4450803,,,,,,,2024-08-07,1,,,,,アレグロッチャ,0
236,1180303006221,新規,0,2024-08-07,2024-08-07,合同会社ＡＫマネジメント,,合同会社,愛知県,西尾市,吉良町吉田東中浜５１番地１２５,,23,213,4440516,,,,,,,2024-08-07,1,,,,,エーケイマネジメント,0
243,1240001063649,新規,0,2024-08-07,2024-08-07,平山タイヤサービス株式会社,,株式会社,広島県,福山市,大門町３丁目２４番３０号,,34,207,7210926,,,,,,,2024-08-07,1,,,,,ヒラヤマタイヤサービス,0
244,1240001063657,新規,0,2024-08-07,2024-08-07,株式会社ｍａｔｓｕｔｅｃ,,株式会社,広島県,福山市,明神町１丁目１４－５０－１０１号,,34,207,7210961,,,,,,,2024-08-07,1,,,,,マツテック,0
245,1240001063673,新規,0,2024-08-07,2024-08-07,株式会社ＢＥＮＩ,,株式会社,広島県,府中市,府川町１４３番地１,,34,208,7260004,,,,,,,2024-08-07,1,,,,,ベニ,0
249,1260001039300,新規,0,2024-08-07,2024-08-07,ブライダル株式会社備南いしかわ,,株式会社,岡山県,倉敷市,児島小川１丁目１番１１号,,33,202,7110911,,,,,,,2024-08-07,1,,,,,ブライダルビナンイシカワ,0
250,1260001039358,新規,0,2024-08-07,2024-08-07,株式会社ｒｅｖｅｎｓｅＭ,,株式会社,岡山県,玉野市,宇野８丁目１番１号１階,,33,204,7060011,,,,,,,2024-08-07,1,,,,,レベンセム,0
251,1280003001875,新規,0,2024-08-07,2024-08-07,ハートフルライフ合同会社,,合同会社,島根県,益田市,遠田町１３９６,,32,204,6993676,,,,,,,2024-08-07,1,,,,,ハートフルライフ,0
256,1290001106642,新規,0,2024-08-07,2024-08-07,株式会社Ｍｉｃｈｉエステート,,株式会社,福岡県,福岡市南区,高宮５丁目５番１３号,,40,134,8150083,,,,,,,2024-08-07,1,,,,,ミチエステート,0
262,1290801030752,新規,0,2024-08-07,2024-08-07,株式会社ＷＩＮＷＯＲＫＳ,,株式会社,福岡県,北九州市八幡西区,黒崎２丁目１０番１号芳賀ビル黒崎ふれあい会館３階,,40,109,8060021,,,,,,,2024-08-07,1,,,,,ウィンワークス,0
268,1330001032330,新規,0,2024-08-07,2024-08-07,株式会社サウス,,株式会社,熊本県,熊本市東区,京塚本町２２番１３号,,43,102,8620952,,,,,,,2024-08-07,1,,,,,サウス,0
271,1340001026728,新規,0,2024-08-07,2024-08-07,ウェルネス桜島株式会社,,株式会社,鹿児島県,鹿児島市,南郡元町１８番８号,,46,201,8900069,,,,,,,2024-08-07,1,,,,,ウェルネスサクラジマ,0
272,1340003004566,新規,0,2024-08-07,2024-08-07,合同会社はまだ経営,,合同会社,鹿児島県,鹿児島市,薬師２丁目９番１１号,,46,201,8900042,,,,,,,2024-08-07,1,,,,,ハマダケイエイ,0
282,1370001051599,新規,0,2024-08-07,2024-08-07,株式会社ＴＳ‐Ａｇｅｎｔ,,株式会社,宮城県,仙台市太白区,西多賀２丁目２番５９号,,04,104,9820034,,,,,,,2024-08-07,1,,,,,ティーエスエージェント,0
291,1390001017706,新規,0,2024-08-07,2024-08-07,株式会社嘉左エ門,,株式会社,山形県,鶴岡市,日枝甲４０番地,,06,203,9970824,,,,,,,2024-08-07,1,,,,,カザエモン,0
301,1430001092380,新規,0,2024-08-07,2024-08-07,株式会社三木里,,株式会社,北海道,札幌市北区,新琴似六条１２丁目４番２６号,,01,102,0010906,,,,,,,2024-08-07,1,,,,,ミキリ,0
302,1430001092422,新規,0,2024-08-07,2024-08-07,株式会社セレク,,株式会社,北海道,札幌市南区,石山一条２丁目４番６５－７０６号,,01,106,0050841,,,,,,,2024-08-07,1,,,,,セレク,0
308,1430003016651,新規,0,2024-08-07,2024-08-07,Ｏｍｎｉ　Ｗｏｒｋｓ合同会社,,合同会社,北海道,虻田郡倶知安町,字山田３４番地７４,,01,400,0440081,,,,,,,2024-08-07,1,,,,,オムニワークス,0
310,1460101007590,新規,0,2024-08-07,2024-08-07,株式会社ｃｕｂｉｏ,,株式会社,北海道,帯広市,東一条南５丁目２番地,,01,207,0800801,,,,,,,2024-08-07,1,,,,,キュビオ,0
312,1470001020338,新規,0,2024-08-07,2024-08-07,サイファーデザイン株式会社,,株式会社,香川県,高松市,亀井町８番地１　４階,,37,201,7600050,,,,,,,2024-08-07,1,,,,,サイファーデザイン,0
317,1500001025804,新規,0,2024-08-07,2024-08-07,株式会社十亀建設工業,,株式会社,愛媛県,西条市,大野３６８番地３,,38,206,7991312,,,,,,,2024-08-07,1,,,,,ソガメケンセツコウギョウ,0
324,2010001246523,新規,0,2024-08-07,2024-08-07,株式会社オンズ,,株式会社,東京都,中央区,晴海３丁目１３－１ドゥトゥールイーストタワー４８１８,,13,102,1040053,,,,,,,2024-08-07,1,,,,,オンズ,0
325,2010001246985,新規,0,2024-08-07,2024-08-07,ＦＫ株式会社,,株式会社,東京都,千代田区,丸の内２丁目１番１号明治安田生命ビル１１階,,13,101,1000005,,,,,,,2024-08-07,1,,,,,エフケー,0
326,2010001247042,新規,0,2024-08-07,2024-08-07,株式会社フェッド,,株式会社,東京都,千代田区,神田多町２丁目１神田東山ビル７Ｆ／８Ｆ,,13,101,1010046,,,,,,,2024-08-07,1,,,,,フェッド,0
327,2010001247166,新規,0,2024-08-07,2024-08-07,株式会社ＩｎｔｅｒＬｉｎｋ　Ｇｕｉｌｄ,,株式会社,東京都,中央区,銀座７丁目１３番２０号銀座ＴＨビル９階,,13,102,1040061,,,,,,,2024-08-07,1,,,,,インターリンクギルド,0
328,2010001247224,新規,0,2024-08-07,2024-08-07,株式会社Ｔｈｉｒｔｙ‐Ｓｅｖｅｎ,,株式会社,東京都,中央区,銀座１丁目２２番１１号銀座大竹ビジデンス２Ｆ,,13,102,1040061,,,,,,,2024-08-07,1,,,,,サーティセブン,0
329,2010001247249,新規,0,2024-08-07,2024-08-07,株式会社Ｓｐａｒｋ　Ｖｉｓｉｏｎ,,株式会社,東京都,文京区,千駄木４丁目２０番５号Ｇｌａｎｚ文京千駄木２０１,,13,105,1130022,,,,,,,2024-08-07,1,,,,,スパアクビジョン,0
330,2010001247257,新規,0,2024-08-07,2024-08-07,ＹＥＪＩＡ光学技術株式会社,,株式会社,東京都,千代田区,外神田４丁目１４番２号東京タイムズタワー９０１号室,,13,101,1010021,,,,,,,2024-08-07,1,,,,,イェジャコウガクギジュツ,0
331,2010001247265,新規,0,2024-08-07,2024-08-07,株式会社ファン,,株式会社,東京都,中央区,銀座１丁目１２番４号Ｎ＆ＥＢＬＤ．６Ｆ,,13,102,1040061,,,,,,,2024-08-07,1,,,,,ファン,0
332,2010003044520,新規,0,2024-08-07,2024-08-07,ＳｔａｒＰａｔｈ合同会社,,合同会社,東京都,中央区,日本橋室町１丁目１１番１２号日本橋水野ビル７階,,13,102,1030022,,,,,,,2024-08-07,1,,,,,スターパース,0
333,2010003044537,新規,0,2024-08-07,2024-08-07,合同会社川崎拓也事務所,00135846,合同会社,東京都,中央区,銀座１丁目１２番４号Ｎ＆ＥＢＬＤ．７階,,13,102,1040061,,,,,,,2024-08-07,1,,,,,カワサキタクヤジムショ,0
335,2010101016248,新規,0,2024-08-07,2024-08-07,青禾国際株式会社,,株式会社,東京都,八王子市,東中野２０００－４,,13,201,1920351,,,,,,,2024-08-07,1,,,,,セイカコクサイ,0
336,2010101016256,新規,0,2024-08-07,2024-08-07,株式会社関山,,株式会社,東京都,八王子市,万町８２番地,,13,201,1920903,,,,,,,2024-08-07,1,,,,,セキヤマ,0
346,2010401184190,新規,0,2024-08-07,2024-08-07,美容Ｍ＆Ａキャピタル株式会社,,株式会社,東京都,港区,六本木７丁目７番７号Ｔｒｉ－ＳｅｖｅｎＲｏｐｐｏｎｇｉ８階,,13,103,1060032,,,,,,,2024-08-07,1,,,,,ビヨウエムアンドエーキャピタル,0
347,2010401184257,新規,0,2024-08-07,2024-08-07,株式会社グレックス・エナジー,,株式会社,東京都,港区,西麻布３丁目１９番２２号,,13,103,1060031,,,,,,,2024-08-07,1,,,,,グレックスエナジー,0
349,2010403033164,新規,0,2024-08-07,2024-08-07,あん癒合同会社,,合同会社,東京都,港区,南麻布４丁目５番４８号フォーサイト南麻布４Ｆ,,13,103,1060047,,,,,,,2024-08-07,1,,,,,アンユ,0
352,2010503007522,新規,0,2024-08-07,2024-08-07,合同会社ＴＡＭＵＲＡ,,合同会社,東京都,台東区,浅草６丁目２４番４－５０５号プラウドフラット浅草ディアージュ,,13,106,1110032,,,,,,,2024-08-07,1,,,,,タムラ,0
353,2010701046371,新規,0,2024-08-07,2024-08-07,株式会社ＨａｒｅＨａｌｅ,,株式会社,東京都,品川区,小山４丁目１６番７号,,13,109,1420062,,,,,,,2024-08-07,1,,,,,ハレハレ,0
357,2010801035308,新規,0,2024-08-07,2024-08-07,ＴＳＰ工業株式会社,,株式会社,東京都,大田区,西六郷３丁目１０番１８号,,13,111,1440056,,,,,,,2024-08-07,1,,,,,ティーエスピーコウギョウ,0
358,2010803005052,新規,0,2024-08-07,2024-08-07,合同会社オカポン,,合同会社,東京都,大田区,池上２丁目２０番１８号,,13,111,1460082,,,,,,,2024-08-07,1,,,,,オカポン,0
361,2010901055767,新規,0,2024-08-07,2024-08-07,株式会社オシクル,,株式会社,東京都,世田谷区,船橋７丁目７－９,,13,112,1560055,,,,,,,2024-08-07,1,,,,,オシクル,0
362,2010903009259,新規,0,2024-08-07,2024-08-07,Ｐ＆Ｐ　ＩＮＴＥＲＮＡＴＩＯＮＡＬ合同会社,,合同会社,東京都,世田谷区,松原２丁目１７番１４号メゾン・ド・セレスト２０１号室,,13,112,1560043,,,,,,,2024-08-07,1,,,,,ピーアンドピーインターナショナル,0
366,2011001163535,新規,0,2024-08-07,2024-08-07,株式会社ＰＧエンタープライズ,,株式会社,東京都,渋谷区,富ヶ谷１丁目１４番１４号４階,,13,113,1510063,,,,,,,2024-08-07,1,,,,,ピージーエンタプライズ,0
367,2011001163857,新規,0,2024-08-07,2024-08-07,株式会社Ｎｏｄｏ,,株式会社,東京都,渋谷区,道玄坂１丁目１０番８号渋谷道玄坂東急ビル２Ｆ－Ｃ,,13,113,1500043,,,,,,,2024-08-07,1,,,,,ノド,0
370,2011005010634,新規,0,2024-08-07,2024-08-07,一般社団法人Ｎ２８,,その他の設立登記法人,東京都,渋谷区,恵比寿４丁目２３番６号グランメゾン恵比寿の杜１８０４号,,13,113,1500013,,,,,,,2024-08-07,1,,,,,エヌニジュウハチ,0
373,2011101108258,新規,0,2024-08-07,2024-08-07,立信株式会社,,株式会社,東京都,新宿区,百人町１丁目２１番１号,,13,104,1690073,,,,,,,2024-08-07,1,,,,,リッシン,0
374,2011101108299,新規,0,2024-08-07,2024-08-07,株式会社オレンジ,,株式会社,東京都,新宿区,新宿３丁目１２番４号,,13,104,1600022,,,,,,,2024-08-07,1,,,,,オレンジ,0
375,2011201025700,新規,0,2024-08-07,2024-08-07,ＴＲＩＧＧＥＲ株式会社,,株式会社,東京都,中野区,中野２丁目２９番６号リカム８ビル３階,,13,114,1640001,,,,,,,2024-08-07,1,,,,,トリガー,0
379,2011503006167,新規,0,2024-08-07,2024-08-07,合同会社ＭＥＬＯＤＹ　ＬＡＮＤ,,合同会社,東京都,荒川区,町屋１丁目２番１１号,,13,118,1160001,,,,,,,2024-08-07,1,,,,,メロディランド,0
380,2011503006175,新規,0,2024-08-07,2024-08-07,合同会社ぱんだ,,合同会社,東京都,北区,中十条４丁目１番１０号福寿ハイム２０１号,,13,117,1140032,,,,,,,2024-08-07,1,,,,,パンダ,0
398,2012801023382,新規,0,2024-08-07,2024-08-07,橘株式会社,,株式会社,東京都,日野市,旭が丘２丁目１５番地の５エクセル豊田２１５号,,13,212,1910065,,,,,,,2024-08-07,1,,,,,タチバナ,0
403,2013301052962,新規,0,2024-08-07,2024-08-07,ＭｏｏｎＲｉｖｅｒ株式会社,,株式会社,東京都,豊島区,長崎５丁目３番１０－３０８号,,13,116,1710051,,,,,,,2024-08-07,1,,,,,ムーンリバー,0
408,2020001158362,新規,0,2024-08-07,2024-08-07,株式会社Ｒａｄｉａ,,株式会社,神奈川県,川崎市多摩区,登戸２５００番地ＷＥＡＶＥＲＰＡＬＡＣＥ５０２,,14,135,2140014,,,,,,,2024-08-07,1,,,,,ラディア,0
409,2020001158370,新規,0,2024-08-07,2024-08-07,株式会社ｔａｐｐｉ．ｌａｂ,,株式会社,神奈川県,川崎市川崎区,駅前本町１１番地２号,,14,131,2100007,,,,,,,2024-08-07,1,,,,,タッピラボ,0
410,2020001158379,新規,0,2024-08-07,2024-08-07,株式会社オンマティック,,株式会社,神奈川県,横浜市中区,山下町１００－３－６０１,,14,104,2310023,,,,,,,2024-08-07,1,,,,,オンマティック,0
422,2021001082899,新規,0,2024-08-07,2024-08-07,株式会社栗原電工,,株式会社,神奈川県,平塚市,中原３丁目６番９号,,14,203,2540075,,,,,,,2024-08-07,1,,,,,クリハラデンコウ,0
423,2021001082916,新規,0,2024-08-07,2024-08-07,株式会社ＫｍＭ,,株式会社,神奈川県,足柄下郡箱根町,仙石原３７２番地の１,,14,382,2500631,,,,,,,2024-08-07,1,,,,,ケイエムエム,0
424,2021001082924,新規,0,2024-08-07,2024-08-07,株式会社佐久間自動車,,株式会社,神奈川県,藤沢市,長後２７１８番地１５,,14,205,2520801,,,,,,,2024-08-07,1,,,,,サクマジドウシャ,0
425,2021001082932,新規,0,2024-08-07,2024-08-07,株式会社ＯＮＹＸ　ＲＥＡＬ　ＥＳＴＡＴＥ,,株式会社,神奈川県,座間市,相模が丘３丁目７０番６号ブライト相模が丘２０１,,14,216,2520001,,,,,,,2024-08-07,1,,,,,オニキスリアルエステート,0
426,2021001082940,新規,0,2024-08-07,2024-08-07,シコニア・バイオベンチャーズ株式会社,,株式会社,神奈川県,藤沢市,村岡東２丁目２６番地の１,,14,205,2510012,,,,,,,2024-08-07,1,,,,,シコニアバイオベンチャーズ,0
428,2021003014875,新規,0,2024-08-07,2024-08-07,合同会社こむぎネイチャー,,合同会社,神奈川県,足柄上郡開成町,吉田島２４８７番地１２,,14,366,2580021,,,,,,,2024-08-07,1,,,,,コムギネイチャー,0
441,2030001161828,新規,0,2024-08-07,2024-08-07,株式会社リバーストンＣＬ志木,,株式会社,埼玉県,川越市,中台１丁目８番地１,,11,201,3501159,,,,,,,2024-08-07,1,,,,,リバーストンシーエルシキ,0
442,2030001161844,新規,0,2024-08-07,2024-08-07,株式会社爽やかクリーンメンテナンス,,株式会社,埼玉県,鴻巣市,東１丁目１番２１号,,11,217,3650039,,,,,,,2024-08-07,1,,,,,サワヤカクリーンメンテナンス,0
448,2030003024859,新規,0,2024-08-07,2024-08-07,合同会社りてん,,合同会社,埼玉県,草加市,松江３丁目１５番６２号,,11,221,3400013,,,,,,,2024-08-07,1,,,,,リテン,0
452,2040001134840,新規,0,2024-08-07,2024-08-07,株式会社武田設備,,株式会社,千葉県,千葉市中央区,大森町１３４番地２９,,12,101,2600811,,,,,,,2024-08-07,1,,,,,タケダセツビ,0
453,2040001134849,新規,0,2024-08-07,2024-08-07,東金重機サービス株式会社,,株式会社,千葉県,東金市,東中９１６番地,,12,213,2830021,,,,,,,2024-08-07,1,,,,,トウガネジュウキサービス,0
454,2040001134865,新規,0,2024-08-07,2024-08-07,株式会社ＧｒｏｗＢｕｄｄｙ,,株式会社,千葉県,市川市,南行徳４丁目１４番１４－２０６号（アルカス）,,12,203,2720138,,,,,,,2024-08-07,1,,,,,グロウバディ,0
455,2040001134907,新規,0,2024-08-07,2024-08-07,山嶺商会株式会社,,株式会社,千葉県,千葉市美浜区,幸町２丁目１３街区５号棟３０４号室,,12,106,2610001,,,,,,,2024-08-07,1,,,,,サンレイショウカイ,0
459,2040003025559,新規,0,2024-08-07,2024-08-07,合同会社スーリオンニ,,合同会社,千葉県,船橋市,金杉９丁目１８番１号,,12,204,2730853,,,,,,,2024-08-07,1,,,,,スーリオンニ,0
460,2040003025575,新規,0,2024-08-07,2024-08-07,合同会社ｋｉｋｉｎｎｉ,,合同会社,千葉県,野田市,七光台２９９番地の８,,12,208,2780051,,,,,,,2024-08-07,1,,,,,キキンニ,0
461,2040003025583,新規,0,2024-08-07,2024-08-07,合同会社ＩＳＭ,,合同会社,千葉県,千葉市中央区,富士見２丁目７－９富士見ビル６０９号,,12,101,2600015,,,,,,,2024-08-07,1,,,,,イズム,0
472,2060001037380,新規,0,2024-08-07,2024-08-07,株式会社橙和,,株式会社,栃木県,栃木市,藤岡町大前６５０番地１,,09,203,3231101,,,,,,,2024-08-07,1,,,,,トウワ,0
473,2060002041241,新規,0,2024-08-07,2024-08-07,有限会社宇都宮浄化槽整備新井衛生社,,有限会社,栃木県,宇都宮市,旭２丁目４番１号,,09,201,3200818,,,,,,,2024-08-07,1,,,,,ウツノミヤジョウカソウセイビアライエイセイシャ,0
474,2070001042066,新規,0,2024-08-07,2024-08-07,株式会社レイズ,,株式会社,群馬県,伊勢崎市,連取町１７７４－６リシュブールＢ,,10,204,3720812,,,,,,,2024-08-07,1,,,,,レイズ,0
478,2100001037698,新規,0,2024-08-07,2024-08-07,宝倹堂株式会社,,株式会社,長野県,上田市,天神３丁目６番３５号,,20,203,3860025,,,,,,,2024-08-07,1,,,,,ホウケンドウ,0
479,2100003007716,新規,0,2024-08-07,2024-08-07,合同会社鉄匠,,合同会社,長野県,茅野市,本町西１７番３５－１号,,20,214,3910003,,,,,,,2024-08-07,1,,,,,テッショウ,0
487,2120001267392,新規,0,2024-08-07,2024-08-07,株式会社ＹＤ　ＬＡＢＯ,,株式会社,大阪府,大阪市中央区,谷町４丁目４番１７号,,27,128,5400012,,,,,,,2024-08-07,1,,,,,ワイディーラボ,0
488,2120001267558,新規,0,2024-08-07,2024-08-07,一申堂株式会社,,株式会社,大阪府,大阪市城東区,関目５丁目１９番９号関目花博公館５０１Ａ,,27,118,5360008,,,,,,,2024-08-07,1,,,,,イチシンドウ,0
489,2120001267574,新規,0,2024-08-07,2024-08-07,株式会社ＲＳＫ,,株式会社,大阪府,大阪市中央区,南船場２丁目７番６－１１１９号,,27,128,5420081,,,,,,,2024-08-07,1,,,,,アールエスケー,0
490,2120001267582,新規,0,2024-08-07,2024-08-07,ブレスド株式会社,,株式会社,大阪府,大阪市中央区,島之内２丁目８番２９－２０２号,,27,128,5420082,,,,,,,2024-08-07,1,,,,,ブレスド,0
494,2120003027191,新規,0,2024-08-07,2024-08-07,合同会社ぶんぶん,,合同会社,大阪府,大阪市淀川区,新北野３丁目５－２０,,27,123,5320025,,,,,,,2024-08-07,1,,,,,ブンブン,0
495,2120003027258,新規,0,2024-08-07,2024-08-07,合同会社ＯＮＩＳＨＩ,,合同会社,大阪府,枚方市,牧野阪３丁目１９番１１－２３号,,27,210,5731146,,,,,,,2024-08-07,1,,,,,オニシ,0
501,2120903005296,新規,0,2024-08-07,2024-08-07,ＫＦ合同会社,,合同会社,大阪府,豊中市,新千里北町２丁目１番１４号,,27,203,5600081,,,,,,,2024-08-07,1,,,,,ケイエフ,0
502,2122003002959,新規,0,2024-08-07,2024-08-07,ＷＩＴ合同会社,,合同会社,大阪府,東大阪市,横小路町５丁目２番２５－２０２号,,27,227,5798063,,,,,,,2024-08-07,1,,,,,ダブリューアイティ,0
505,2130001077519,新規,0,2024-08-07,2024-08-07,株式会社サインポスト,,株式会社,京都府,京都市中京区,姥柳町２０３パラドール烏丸ビル５１３,,26,104,6048213,,,,,,,2024-08-07,1,,,,,サインポスト,0
506,2130001077592,新規,0,2024-08-07,2024-08-07,株式会社ＭＹ　ＪＡＭ,,株式会社,京都府,八幡市,八幡高坊２５番地,,26,210,6148005,,,,,,,2024-08-07,1,,,,,マイジャム,0
507,2130001077626,新規,0,2024-08-07,2024-08-07,株式会社京都丹後企画,,株式会社,京都府,与謝郡与謝野町,字下山田１３４２番地１,,26,465,6292302,,,,,,,2024-08-07,1,,,,,キョウトタンゴキカク,0
516,2140001135408,新規,0,2024-08-07,2024-08-07,栗山牧場株式会社,,株式会社,兵庫県,洲本市,五色町広石下１１２３番地１,,28,205,6561335,,,,,,,2024-08-07,1,,,,,クリヤマボクジョウ,0
517,2140001135432,新規,0,2024-08-07,2024-08-07,株式会社鋼吉,,株式会社,兵庫県,三田市,駅前町三丁目１０番ルネ三田駅前ハートシティ１－１０２Ｂ,,28,219,6691528,,,,,,,2024-08-07,1,,,,,コウキ,0
518,2140001135440,新規,0,2024-08-07,2024-08-07,Ｈａｎａライフ株式会社,,株式会社,兵庫県,宝塚市,月見山２丁目３番４３－９０６号,,28,214,6650002,,,,,,,2024-08-07,1,,,,,ハナライフ,0
532,2180001162646,新規,0,2024-08-07,2024-08-07,株式会社エクストラ,,株式会社,愛知県,名古屋市中区,錦２丁目７番７号プラウドタワー名古屋錦２９０４,,23,106,4600003,,,,,,,2024-08-07,1,,,,,エクストラ,0
541,2180301038934,新規,0,2024-08-07,2024-08-07,株式会社たけもと,,株式会社,愛知県,豊川市,国府町薮下１４番地の２２,,23,207,4420854,,,,,,,2024-08-07,1,,,,,タケモト,0
542,2180301038942,新規,0,2024-08-07,2024-08-07,株式会社ＳＡＹＵＲＩ,,株式会社,愛知県,岡崎市,東蔵前１丁目５番地１０,,23,202,4442145,,,,,,,2024-08-07,1,,,,,サユリ,0
543,2180301038950,新規,0,2024-08-07,2024-08-07,株式会社コンフィア,,株式会社,愛知県,豊田市,浄水町伊保原３８２番地１,,23,211,4700343,,,,,,,2024-08-07,1,,,,,コンフィア,0
545,2180303006220,新規,0,2024-08-07,2024-08-07,合同会社ＭＡＸ・ＴＡＫＡＨＡＳＨＩ,,合同会社,愛知県,刈谷市,松栄町１丁目３番地３エクセレント東山２０１号,,23,210,4480806,,,,,,,2024-08-07,1,,,,,マックスタカハシ,0
546,2190001031503,新規,0,2024-08-07,2024-08-07,１ＴＡＳＴＥ株式会社,,株式会社,三重県,四日市市,大字塩浜９４番地４,,24,202,5100863,,,,,,,2024-08-07,1,,,,,ワンテイスト,0
551,2200001042787,新規,0,2024-08-07,2024-08-07,株式会社道家新聞店,,株式会社,岐阜県,不破郡垂井町,２３１１番地の２７,,21,361,5032121,,,,,,,2024-08-07,1,,,,,ドウケシンブンテン,0
552,2200003006443,新規,0,2024-08-07,2024-08-07,合同会社ごもく,,合同会社,岐阜県,高山市,国府町広瀬町７３２番地１,,21,203,5094119,,,,,,,2024-08-07,1,,,,,ゴモク,0
555,2220005008873,新規,0,2024-08-07,2024-08-07,一般社団法人グランディール能登スポーツクラブ,,その他の設立登記法人,石川県,羽咋市,立開町ニ９番地８,,17,207,9250041,,,,,,,2024-08-07,1,,,,,グランディールノトスポーツクラブ,0
558,2230001020476,新規,0,2024-08-07,2024-08-07,彼谷工機株式会社,,株式会社,富山県,高岡市,能町１４７９番地,,16,202,9330003,,,,,,,2024-08-07,1,,,,,カヤコウキ,0
568,2260001039357,新規,0,2024-08-07,2024-08-07,株式会社Ｓｍｉｌｅｙ　Ｐｒｏｊｅｃｔ,,株式会社,岡山県,岡山市北区,天瀬１番８号（３０１）,,33,101,7000833,,,,,,,2024-08-07,1,,,,,スマイリープロジェクト,0
572,2290001106625,新規,0,2024-08-07,2024-08-07,ＮＯＥＵＤ株式会社,,株式会社,福岡県,福岡市中央区,六本松３丁目６－６ＭＯＤＥＲＮＡＳＰＩＲＡＴＩＯＮ六本松ヒルズ１０１,,40,133,8100044,,,,,,,2024-08-07,1,,,,,ヌー,0
576,2290801030776,新規,0,2024-08-07,2024-08-07,ＡＣＭ　ＪＡＰＡＮ株式会社,,株式会社,福岡県,北九州市小倉北区,馬借１丁目３番９号,,40,106,8020077,,,,,,,2024-08-07,1,,,,,エイシーエムジャパン,0
582,2300001013869,新規,0,2024-08-07,2024-08-07,株式会社シンエイ,,株式会社,佐賀県,西松浦郡有田町,南原丁５５番地２,,41,401,8440027,,,,,,,2024-08-07,1,,,,,シンエイ,0
584,2330001032338,新規,0,2024-08-07,2024-08-07,株式会社ｅｓ,,株式会社,熊本県,阿蘇郡小国町,大字黒渕６０５９番地,,43,424,8692502,,,,,,,2024-08-07,1,,,,,エス,0
585,2340001026719,新規,0,2024-08-07,2024-08-07,株式会社ゼノライド,,株式会社,鹿児島県,鹿児島市,中山町５１１８番地１,,46,201,8910105,,,,,,,2024-08-07,1,,,,,ゼノライド,0
587,2350001019127,新規,0,2024-08-07,2024-08-07,河野商事株式会社,,株式会社,宮崎県,延岡市,下伊形町８２９５番地７５,,45,203,8890504,,,,,,,2024-08-07,1,,,,,カワノショウジ,0
588,2360001034034,新規,0,2024-08-07,2024-08-07,株式会社Ｗａｎ　Ｓｔｙｌｅ　Ｒａｐｐｏｒｔ,,株式会社,沖縄県,沖縄市,泡瀬４丁目２１番１７号,,47,211,9042172,,,,,,,2024-08-07,1,,,,,ワンスタイルラポール,0
589,2360001034042,新規,0,2024-08-07,2024-08-07,琉球昆虫株式会社,,株式会社,沖縄県,うるま市,勝連浜１９番地浜比嘉島地域交流拠点施設ＨＡＭＡＣＨ＿２Ｆシェアオフィス,00135866,47,213,9042315,,,,,,,2024-08-07,1,,,,,リュウキュウコンチュウ,0
605,2390001017705,新規,0,2024-08-07,2024-08-07,株式会社エフティー物産,,株式会社,山形県,寒河江市,中央工業団地１５９番１８,,06,206,9910061,,,,,,,2024-08-07,1,,,,,エフティーブッサン,0
617,2430001092371,新規,0,2024-08-07,2024-08-07,小天馬工業株式会社,,株式会社,北海道,札幌市手稲区,西宮の沢三条１丁目１１番３４号メゾンＳＳ２０３,,01,109,0060003,,,,,,,2024-08-07,1,,,,,コテンマコウギョウ,0
618,2430001092421,新規,0,2024-08-07,2024-08-07,北海道リアルエステート株式会社,,株式会社,北海道,札幌市中央区,南一条西１０丁目３番地,,01,101,0600061,,,,,,,2024-08-07,1,,,,,ホッカイドウリアルエステート,0
621,2430005015048,新規,0,2024-08-07,2024-08-07,一般社団法人ネパール・サマジ北海道,,その他の設立登記法人,北海道,札幌市北区,北二十一条西４丁目１番１５号４Ｆ,,01,102,0010021,,,,,,,2024-08-07,1,,,,,ネパールサマジホッカイドウ,0
626,2500001025803,新規,0,2024-08-07,2024-08-07,株式会社清水農園,,株式会社,愛媛県,八幡浜市,保内町宮内４番耕地１４４番地,,38,204,7960202,,,,,,,2024-08-07,1,,,,,シミズノウエン,0
630,2500003003303,新規,0,2024-08-07,2024-08-07,ブルーベリル合同会社,,合同会社,愛媛県,東温市,北方２５０２,,38,215,7910303,,,,,,,2024-08-07,1,,,,,ブルーベリル,0
632,2700150126662,新規,0,2024-08-07,2024-08-05,ＸＧモバイル推進フォーラム,,その他,東京都,千代田区,霞が関１丁目４番１号,,13,101,1000013,,,,,,,2024-08-05,1,,,,,エツクスジーモバイルスイシンフオーラム,0
633,2700150126679,新規,0,2024-08-07,2024-08-07,Ｓｈｅｎｚｈｅｎ　Ｍａｉｄｉａｎｄｉａｎ　Ｅ－ｃｏｍｍｅｒｃｅ　Ｃｏ．，Ｌｔｄ,,外国会社等,,,,,,,,ｓｈｅｎｚｈｅｎｓｈｉ　ｌｏｎｇｇａｎｇｑｕ　ｌｏｎｇｃｈｅｎｇｊｉｅｄａｏ　ｈｕａｎｇｇｅｋｅｎｇｓｈｅｑｕ　ｈｕａｎｇｇｅｂｅｉｌｕ　４４９ｈａｏ　ｌｏｎｇｇａｎｇｔｉａｎａｎｓｈｕｍａｃｈｕａｎｇｘｉｎｙｕａｎ　ｓａｎｈａｏｃｈａｎｇｆａｎｇＡ５１７－５,,,,,,2024-08-07,1,,,,,シンセンシマイテンテンデンシショウムユウゲンコウシ,0
644,3010001247090,新規,0,2024-08-07,2024-08-07,ＥＮｌｉｇｈｔｅｎｍｅｎｔ株式会社,,株式会社,東京都,中央区,日本橋堀留町１丁目１０－１カクタビル２Ｆ,,13,102,1030012,,,,,,,2024-08-07,1,,,,,エンライトメント,0
645,3010001247223,新規,0,2024-08-07,2024-08-07,広川株式会社,,株式会社,東京都,千代田区,神田神保町２丁目３４番地１号鳴海ビル２階,,13,101,1010051,,,,,,,2024-08-07,1,,,,,ヒロカワ,0
646,3010001247248,新規,0,2024-08-07,2024-08-07,豊楊投資株式会社,,株式会社,東京都,千代田区,四番町４－９－４Ｆ,,13,101,1020081,,,,,,,2024-08-07,1,,,,,ホウヨウトウシ,0
647,3010001247264,新規,0,2024-08-07,2024-08-07,東京セル医科学株式会社,,株式会社,東京都,中央区,晴海２丁目５－２４晴海センタービル３階,,13,102,1040053,,,,,,,2024-08-07,1,,,,,トウキョウセルイカガク,0
650,3010003044478,新規,0,2024-08-07,2024-08-07,合同会社Ａｓｈａ,,合同会社,東京都,中央区,銀座３丁目１１番１９,,13,102,1040061,,,,,,,2024-08-07,1,,,,,エーシャ,0
651,3010003044511,新規,0,2024-08-07,2024-08-07,合同会社ＴＯＫＹＯ　ＧＥＴＡＷＡＹ,,合同会社,東京都,中央区,晴海５丁目５番２－１２１１号,,13,102,1040053,,,,,,,2024-08-07,1,,,,,トウキョウゲットアウェイ,0
652,3010003044536,新規,0,2024-08-07,2024-08-07,合同会社トレマ,,合同会社,東京都,中央区,東日本橋３丁目２番５号アスコットパーク日本橋コモド１Ｆ,,13,102,1030004,,,,,,,2024-08-07,1,,,,,トレマ,0
653,3010003044544,新規,0,2024-08-07,2024-08-07,合同会社Ｓｕｍｉｉ,,合同会社,東京都,千代田区,霞が関３丁目２番５号,,13,101,1000013,,,,,,,2024-08-07,1,,,,,スミイ,0
655,3010005038635,新規,0,2024-08-07,2024-08-07,一般社団法人越谷ラディ,,その他の設立登記法人,東京都,千代田区,丸の内１丁目４番１号東京共同会計事務所内,,13,101,1000005,,,,,,,2024-08-07,1,,,,,コシガヤラディ,0
660,3010401184198,新規,0,2024-08-07,2024-08-07,株式会社ＡＷ企画,,株式会社,東京都,港区,北青山１丁目３番１号－３階,,13,103,1070061,,,,,,,2024-08-07,1,,,,,エーダブルキカク,0
661,3010401184207,新規,0,2024-08-07,2024-08-07,株式会社ｐｉｖｏｔ,,株式会社,東京都,港区,南青山２丁目２番１５号,,13,103,1070062,,,,,,,2024-08-07,1,,,,,ピボット,0
662,3010401184289,新規,0,2024-08-07,2024-08-07,メトレック株式会社,,株式会社,東京都,港区,芝公園２丁目４番１号Ａ－２階,,13,103,1050011,,,,,,,2024-08-07,1,,,,,メトレック,0
667,3010501052734,新規,0,2024-08-07,2024-08-07,株式会社ｆｏｒｅｓｔｆｒｅｅ,,株式会社,東京都,台東区,北上野１丁目９番２号ＳＫビル１０１号,,13,106,1100014,,,,,,,2024-08-07,1,,,,,フォレストフリー,0
673,3010601065710,新規,0,2024-08-07,2024-08-07,株式会社ＰＯＵＲ,,株式会社,東京都,墨田区,東駒形３丁目１番４－２０３号,,13,107,1300005,,,,,,,2024-08-07,1,,,,,プアー,0
677,3010703007288,新規,0,2024-08-07,2024-08-07,合同会社Ａ．Ｎ,,合同会社,東京都,品川区,上大崎１丁目１７－５－４０９,,13,109,1410021,,,,,,,2024-08-07,1,,,,,エーエヌ,0
681,3010803005051,新規,0,2024-08-07,2024-08-07,ＧＯＮＧ合同会社,,合同会社,東京都,大田区,蒲田２丁目１８番１４号－５０２,,13,111,1440052,,,,,,,2024-08-07,1,,,,,ゴング,0
684,3010901055758,新規,0,2024-08-07,2024-08-07,株式会社Ｐｅａｓ,,株式会社,東京都,世田谷区,経堂５丁目３８番２９－５０８号,,13,112,1560052,,,,,,,2024-08-07,1,,,,,ピース,0
685,3010901055774,新規,0,2024-08-07,2024-08-07,財前樹脂株式会社,,株式会社,東京都,世田谷区,大原１丁目４６番７号,,13,112,1560041,,,,,,,2024-08-07,1,,,,,ザイゼンジュシ,0
690,3011001163864,新規,0,2024-08-07,2024-08-07,ｓｔｅｌｌａｚ株式会社,,株式会社,東京都,渋谷区,桜丘町２３番１７号シティコート桜丘４０８,,13,113,1500031,,,,,,,2024-08-07,1,,,,,ステラズ,0
693,3011003019668,新規,0,2024-08-07,2024-08-07,合同会社ＫＣ,,合同会社,東京都,渋谷区,神宮前６丁目２３番４号桑野ビル２階,,13,113,1500001,,,,,,,2024-08-07,1,,,,,ケーシー,0
694,3011005010609,新規,0,2024-08-07,2024-08-07,一般社団法人あんしん健診協会,,その他の設立登記法人,東京都,渋谷区,千駄ヶ谷５丁目２７番５号リンクスクエア新宿３０１,,13,113,1510051,,,,,,,2024-08-07,1,,,,,アンシンケンシンキョウカイ,0
701,3011103014759,新規,0,2024-08-07,2024-08-07,合同会社星音,,合同会社,東京都,新宿区,若松町７番１－１００８号,,13,104,1620056,,,,,,,2024-08-07,1,,,,,シオン,0
704,3011401026316,新規,0,2024-08-07,2024-08-07,近海海運株式会社,,株式会社,東京都,板橋区,舟渡２丁目２３－７－２０１,,13,119,1740041,,,,,,,2024-08-07,1,,,,,キンカイカイウン,0
705,3011401026332,新規,0,2024-08-07,2024-08-07,君祥株式会社,,株式会社,東京都,板橋区,大和町６番１２号,,13,119,1730012,,,,,,,2024-08-07,1,,,,,クンショウ,0
711,3011801044660,新規,0,2024-08-07,2024-08-07,株式会社超陽,,株式会社,東京都,足立区,栗原２丁目７番地４－１０６,,13,121,1230842,,,,,,,2024-08-07,1,,,,,チョウヨウ,0
712,3011801044669,新規,0,2024-08-07,2024-08-07,株式会社ｗｅｌＳＯＬ,,株式会社,東京都,葛飾区,高砂２丁目４番１８号ボヌールアカネ２０１号室,,13,122,1250054,,,,,,,2024-08-07,1,,,,,ウェルソル,0
713,3011803006378,新規,0,2024-08-07,2024-08-07,合同会社ヒレカン,,合同会社,東京都,足立区,島根２丁目２番１３－６０１号,,13,121,1210815,,,,,,,2024-08-07,1,,,,,ヒレカン,0
714,3011803006386,新規,0,2024-08-07,2024-08-07,博洋合同会社,,合同会社,東京都,葛飾区,新宿１丁目１８番２号,,13,122,1250051,,,,,,,2024-08-07,1,,,,,ヒロト,0
721,3012801023381,新規,0,2024-08-07,2024-08-07,株式会社中島屋,,株式会社,東京都,武蔵村山市,中央１丁目５９番地の１,,13,223,2080003,,,,,,,2024-08-07,1,,,,,ナカシマヤ,0
722,3013101009484,新規,0,2024-08-07,2024-08-07,株式会社ＰＡＴＨＩＶＡＲＡ,,株式会社,東京都,羽村市,小作台１丁目７番２東海ビル１Ｆ,,13,227,2050001,,,,,,,2024-08-07,1,,,,,,0
727,3013301052945,新規,0,2024-08-07,2024-08-07,株式会社ｍｅｍｏｒｙ　ｃｒｅａｔｉｏｎ,,株式会社,東京都,豊島区,南池袋１丁目２６番６号,,13,116,1710022,,,,,,,2024-08-07,1,,,,,メモリークリエーション,0
732,3020001158361,新規,0,2024-08-07,2024-08-07,株式会社ＡＳＯＮＤ,,株式会社,神奈川県,横浜市神奈川区,金港町５－１４クアドリフォリオ８階,,14,102,2210056,,,,,,,2024-08-07,1,,,,,アソンデ,0
735,3020003026582,新規,0,2024-08-07,2024-08-07,Ｅｎｒｉｃｈｉｎｇ　Ｈｅａｌｔｈ合同会社,,合同会社,神奈川県,川崎市高津区,北見方２丁目６番２２－６２８号,,14,134,2130005,,,,,,,2024-08-07,1,,,,,,0
744,3021001082898,新規,0,2024-08-07,2024-08-07,株式会社ブレーメンズ,,株式会社,神奈川県,相模原市中央区,田名３１４３－３,,14,152,2520244,,,,,,,2024-08-07,1,,,,,ブレーメンズ,0
745,3021001082907,新規,0,2024-08-07,2024-08-07,株式会社今右衛門,,株式会社,神奈川県,藤沢市,川名１丁目１１番３２号,,14,205,2510015,,,,,,,2024-08-07,1,,,,,イマエモン,0
746,3021001082948,新規,0,2024-08-07,2024-08-07,株式会社ひより,,株式会社,神奈川県,座間市,立野台２丁目１６－２７リシェス立野台２－Ｃ号室,,14,216,2520023,,,,,,,2024-08-07,1,,,,,ヒヨリ,0
748,3021003014858,新規,0,2024-08-07,2024-08-07,合同会社庭ふじ木,,合同会社,神奈川県,鎌倉市,笛田６丁目１６番６号,,14,204,2480027,,,,,,,2024-08-07,1,,,,,ニワフジキ,0
749,3021003014866,新規,0,2024-08-07,2024-08-07,合同会社ＳＳＮ,,合同会社,神奈川県,相模原市南区,相模大野９丁目２－１,,14,153,2520303,,,,,,,2024-08-07,1,,,,,エスエスエヌ,0
754,3030001161777,新規,0,2024-08-07,2024-08-07,株式会社ＮＯＺＯＭＩ,,株式会社,埼玉県,北足立郡伊奈町,西小針１丁目７３番地３３,,11,301,3620811,,,,,,,2024-08-07,1,,,,,ノゾミ,0
755,3030001161785,新規,0,2024-08-07,2024-08-07,株式会社ブルーアシスト,,株式会社,埼玉県,行田市,持田１丁目１２番３号,,11,206,3610056,,,,,,,2024-08-07,1,,,,,ブルーアシスト,0
756,3030001161793,新規,0,2024-08-07,2024-08-07,株式会社マルダイ,,株式会社,埼玉県,狭山市,大字北入曽１３５２番地,,11,215,3501315,,,,,,,2024-08-07,1,,,,,マルダイ,0
757,3030001161810,新規,0,2024-08-07,2024-08-07,株式会社ＲＥＭＩＯ,,株式会社,埼玉県,川口市,大字安行小山４１１番地の１シャルマンハイツ３０２号,,11,203,3340055,,,,,,,2024-08-07,1,,,,,レミオ,0
758,3030001161819,新規,0,2024-08-07,2024-08-07,株式会社悟,,株式会社,埼玉県,草加市,中根２丁目２４番１９号,,11,221,3400005,,,,,,,2024-08-07,1,,,,,サトル,0
759,3030001161827,新規,0,2024-08-07,2024-08-07,株式会社リバーストンＣＬ川越,,株式会社,埼玉県,川越市,中台１丁目８番地１,,11,201,3501159,,,,,,,2024-08-07,1,,,,,リバーストンシーエルカワゴエ,0
760,3030001161843,新規,0,2024-08-07,2024-08-07,Ｐｉｋａｍｏｆｆ株式会社,,株式会社,埼玉県,川口市,幸町３丁目１１番１２－１０４号川口パーク・ホームズ,,11,203,3320016,,,,,,,2024-08-07,1,,,,,ピカモフ,0
767,3030005021787,新規,0,2024-08-07,2024-08-07,一般社団法人日本創生実行委員会,,その他の設立登記法人,埼玉県,川口市,大字安行領家１８９６番地,,11,203,3340058,,,,,,,2024-08-07,1,,,,,ニホンソウセイジッコウイインカイ,0
770,3040001134848,新規,0,2024-08-07,2024-08-07,株式会社さくら企画,,株式会社,千葉県,千葉市中央区,椿森１丁目１１番２号－１０３,,12,101,2600042,,,,,,,2024-08-07,1,,,,,サクラキカク,0
771,3040001134856,新規,0,2024-08-07,2024-08-07,ＣＬＡＭ株式会社,,株式会社,千葉県,船橋市,宮本６丁目２８番１２号リラフォート１０１号,,12,204,2730003,,,,,,,2024-08-07,1,,,,,クラム,0
772,3040001134864,新規,0,2024-08-07,2024-08-07,株式会社ＪＩＮエデュケーション,,株式会社,千葉県,成田市,中台２丁目４番地１,,12,211,2860015,,,,,,,2024-08-07,1,,,,,ジンエデュケーション,0
773,3040003025558,新規,0,2024-08-07,2024-08-07,オフィス・ネド合同会社,,合同会社,千葉県,船橋市,二宮１丁目１番１８号,,12,204,2740823,,,,,,,2024-08-07,1,,,,,オフィスネド,0
774,3040003025582,新規,0,2024-08-07,2024-08-07,合同会社勇愼,,合同会社,千葉県,八街市,八街ほ３４７番地２,,12,230,2891115,,,,,,,2024-08-07,1,,,,,ユウシン,0
775,3050001055192,新規,0,2024-08-07,2024-08-07,ＴＵＳＨＩＧ株式会社,,株式会社,茨城県,稲敷市,浮島字前浦６９７７－５９－３号室,,08,229,3000641,,,,,,,2024-08-07,1,,,,,トシック,0
777,3050003008594,新規,0,2024-08-07,2024-08-07,遠洋合同会社,,合同会社,茨城県,つくば市,上横場３５１番地１,,08,220,3050854,,,,,,,2024-08-07,1,,,,,エンヨウ,0
780,3070001042049,新規,0,2024-08-07,2024-08-07,Ｒａｅ　Ｓｏｕｒｉｒｅ株式会社,,株式会社,群馬県,太田市,龍舞町１７７２番地１,,10,205,3730806,,,,,,,2024-08-07,1,,,,,レイスリール,0
782,3080005007633,新規,0,2024-08-07,2024-08-07,一般社団法人総合型地域スポーツクラブみんなのＡＳＯＢＩ,,その他の設立登記法人,静岡県,藤枝市,田沼３丁目１４番２３号ヴィヴァン・ショコラ１０２号,,22,214,4260061,,,,,,,2024-08-07,1,,,,,ソウゴウガタチイキスポーツクラブミンナノアソビ,0
801,3100005013208,新規,0,2024-08-07,2024-08-07,税理士法人やまゆり,,その他の設立登記法人,長野県,北佐久郡御代田町,大字御代田１９７２番地１,,20,323,3890206,,,,,,,2024-08-07,1,,,,,ヤマユリ,0
805,3110001038620,新規,0,2024-08-07,2024-08-07,株式会社そうぞう,,株式会社,新潟県,新潟市中央区,弁天橋通３丁目８－５スモールランド２１－１０３,,15,103,9500925,,,,,,,2024-08-07,1,,,,,ソウゾウ,0
807,3110003005478,新規,0,2024-08-07,2024-08-07,合同会社ラボうおぬま,,合同会社,新潟県,魚沼市,本町１丁目２松原ビル１階,,15,225,9460041,,,,,,,2024-08-07,1,,,,,ラボウオヌマ,0
815,3120001266625,新規,0,2024-08-07,2024-08-07,株式会社ＫｙｏＭａｃｈｉｙａ,,株式会社,大阪府,大阪市中央区,島之内２丁目１０－１２－７Ｆ,,27,128,5420082,,,,,,,2024-08-07,1,,,,,キョウマチヤ,0
816,3120001267490,新規,0,2024-08-07,2024-08-07,株式会社セイリュウラボ,,株式会社,大阪府,寝屋川市,国松町２０番２１号,,27,215,5720016,,,,,,,2024-08-07,1,,,,,セイリュウラボ,0
817,3120001267516,新規,0,2024-08-07,2024-08-07,株式会社Ｋ‐ＬＡＶＡＮ,,株式会社,大阪府,大阪市浪速区,難波中１丁目３－１ＲＥ－０１６、６０２号,,27,111,5560011,,,,,,,2024-08-07,1,,,,,ケーラバン,0
818,3120001267573,新規,0,2024-08-07,2024-08-07,株式会社ＲｅＳｈａｐｅ,,株式会社,大阪府,大阪市中央区,南本町２丁目３番１２号ＥＤＧＥ本町３Ｆ,,27,128,5410054,,,,,,,2024-08-07,1,,,,,リシェイプ,0
819,3120001267581,新規,0,2024-08-07,2024-08-07,東渡株式会社,,株式会社,大阪府,大阪市中央区,島之内２丁目８番２９－４０３号,,27,128,5420082,,,,,,,2024-08-07,1,,,,,トウト,0
827,3120003027224,新規,0,2024-08-07,2024-08-07,Ｚｈｏｕ’ｓ合同会社,,合同会社,大阪府,大阪市北区,梅田１丁目１－３大阪駅前第３ビル２９階１－１－１号室,,27,127,5300001,,,,,,,2024-08-07,1,,,,,ジョウズ,0
828,3120003027257,新規,0,2024-08-07,2024-08-07,合同会社アユート,,合同会社,大阪府,大阪市淀川区,三国本町１丁目１４番３２－１２０１号,,27,123,5320005,,,,,,,2024-08-07,1,,,,,アユート,0
832,3120101070118,新規,0,2024-08-07,2024-08-07,株式会社アップマーケット,,株式会社,大阪府,羽曳野市,はびきの２丁目１－２,,27,222,5830872,,,,,,,2024-08-07,1,,,,,アップマーケット,0
834,3120901049567,新規,0,2024-08-07,2024-08-07,株式会社グリシーヌ,,株式会社,大阪府,高槻市,西面南４丁目１番１号,,27,207,5690847,,,,,,,2024-08-07,1,,,,,グリシーヌ,0
836,3122001038343,新規,0,2024-08-07,2024-08-07,株式会社ｇａｗ,,株式会社,大阪府,東大阪市,上小阪１丁目２番１６号,,27,227,5770806,,,,,,,2024-08-07,1,,,,,ガウ,0
839,3130001077591,新規,0,2024-08-07,2024-08-07,アオキフードマネジメント株式会社,,株式会社,京都府,亀岡市,篠町見晴１丁目７番１号,,26,206,6210824,,,,,,,2024-08-07,1,,,,,アオキフードマネジメント,0
841,3130005017156,新規,0,2024-08-07,2024-08-07,一般社団法人ナチュラルホルモンビューティー協会,,その他の設立登記法人,京都府,京都市西京区,下津林芝ノ宮町１７番地,,26,111,6158035,,,,,,,2024-08-07,1,,,,,ナチュラルホルモンビューティーキョウカイ,0
846,3140001135398,新規,0,2024-08-07,2024-08-07,株式会社Ｍｔｅｃ．,,株式会社,兵庫県,尼崎市,若王寺２丁目１７番１５－６０２号,,28,202,6610974,,,,,,,2024-08-07,1,,,,,エムテック,0
847,3140001135407,新規,0,2024-08-07,2024-08-07,株式会社Ｔ‐ｄａ工房,,株式会社,兵庫県,尼崎市,東難波町３丁目１番３１号,,28,202,6600892,,,,,,,2024-08-07,1,,,,,ティーダコウボウ,0
848,3140001135448,新規,0,2024-08-07,2024-08-07,株式会社ＥＸＣＩＡ,,株式会社,兵庫県,神戸市中央区,北長狭通４丁目２番１９号アムズ元町ビル１Ｆ・４Ｆ,,28,110,6500012,,,,,,,2024-08-07,1,,,,,エクシア,0
852,3140003020937,新規,0,2024-08-07,2024-08-07,ｓｍｉｌｅ　ｐｏｗｅｒ合同会社,,合同会社,兵庫県,神戸市北区,鈴蘭台西町２丁目１番１２号,,28,109,6511114,,,,,,,2024-08-07,1,,,,,スマイルパワー,0
862,3180001162661,新規,0,2024-08-07,2024-08-07,株式会社ＤＲＡＦＴ,,株式会社,愛知県,名古屋市瑞穂区,白砂町３丁目４８番地８,,23,108,4670056,,,,,,,2024-08-07,1,,,,,ドラフト,0
864,3180003027193,新規,0,2024-08-07,2024-08-07,合同会社暁,,合同会社,愛知県,名古屋市北区,若鶴町１８８番地ベルメゾンＩＩＩ２０１号,00135853,23,103,4620006,,,,,,,2024-08-07,1,,,,,アカツキ,0
867,3180005020717,新規,0,2024-08-07,2024-08-07,一般社団法人リデザインプロジェクト,,その他の設立登記法人,愛知県,あま市,七宝町遠島泉水８１６番地,,23,237,4970002,,,,,,,2024-08-07,1,,,,,リデザインプロジェクト,0
869,3180301038941,新規,0,2024-08-07,2024-08-07,株式会社ベルマウント,,株式会社,愛知県,豊橋市,野田町字野田２５番地の１,,23,201,4418001,,,,,,,2024-08-07,1,,,,,ベルマウント,0
876,3200001042786,新規,0,2024-08-07,2024-08-07,株式会社自治体経営戦略研究所,,株式会社,岐阜県,岐阜市,柳津町東塚４丁目１５番地２,,21,201,5016102,,,,,,,2024-08-07,1,,,,,ジチタイケイエイセンリャクケンキュウジョ,0
877,3220001026143,新規,0,2024-08-07,2024-08-07,ベイ株式会社,,株式会社,石川県,金沢市,三社町７番８号,,17,201,9200861,,,,,,,2024-08-07,1,,,,,ベイ,0
880,3240001063647,新規,0,2024-08-07,2024-08-07,株式会社コウノメンテ,,株式会社,広島県,安芸郡府中町,本町１丁目２番３４－１号,,34,302,7350006,,,,,,,2024-08-07,1,,,,,コウノメンテメンテ,0
881,3240001063655,新規,0,2024-08-07,2024-08-07,株式会社平本商店,,株式会社,広島県,東広島市,安芸津町木谷８２２番地１,,34,212,7392401,,,,,,,2024-08-07,1,,,,,ヒラモトショウテン,0
882,3240001063671,新規,0,2024-08-07,2024-08-07,株式会社アロー,,株式会社,広島県,呉市,海岸２丁目１２番１８号,,34,202,7370823,,,,,,,2024-08-07,1,,,,,アロー,0
884,3240003006793,新規,0,2024-08-07,2024-08-07,虚無ホタル合同会社,,合同会社,広島県,広島市南区,皆実町４丁目２３番８－７０２号,,34,103,7340007,,,,,,,2024-08-07,1,,,,,キョムホタル,0
887,3290001106558,新規,0,2024-08-07,2024-08-07,ラブタス株式会社,,株式会社,福岡県,福岡市博多区,吉塚本町９番１５号福岡県中小企業振興センタービル５０４号室,,40,132,8120046,,,,,,,2024-08-07,1,,,,,ラブタス,0
888,3290001106789,新規,0,2024-08-07,2024-08-07,株式会社サンピース,,株式会社,福岡県,福岡市南区,老司１丁目２７番３号,,40,134,8111346,,,,,,,2024-08-07,1,,,,,サンピース,0
889,3290001106797,新規,0,2024-08-07,2024-08-07,株式会社ハローズアーク,,株式会社,福岡県,春日市,星見ヶ丘３丁目１８５番地,,40,218,8160849,,,,,,,2024-08-07,1,,,,,ハローズアーク,0
890,3290005019434,新規,0,2024-08-07,2024-08-07,一般社団法人ワンヘルス温熱療術師会,,その他の設立登記法人,福岡県,福岡市城南区,別府２丁目１５番３号,,40,136,8140104,,,,,,,2024-08-07,1,,,,,ワンヘルスオンネツリョウジュツシカイ,0
891,3290801030775,新規,0,2024-08-07,2024-08-07,長野興産株式会社,,株式会社,福岡県,田川郡香春町,大字中津原１５４８番地８,,40,601,8221405,,,,,,,2024-08-07,1,,,,,ナガノコウサン,0
892,3290803004810,新規,0,2024-08-07,2024-08-07,合同会社ビジョンクリエイト,,合同会社,福岡県,北九州市八幡西区,幸神２丁目８番６号Ｃ１０２,,40,109,8060055,,,,,,,2024-08-07,1,,,,,ビジョンクリエイト,0
900,3330001032337,新規,0,2024-08-07,2024-08-07,株式会社Ａ‐ｓｔｙｌｅ,,株式会社,熊本県,熊本市西区,春日７丁目２７番８５号２Ｆ,,43,103,8600047,,,,,,,2024-08-07,1,,,,,エースタイル,0
905,3340001026726,新規,0,2024-08-07,2024-08-07,株式会社ｋａｅｒｕカンパニー,,株式会社,鹿児島県,鹿児島市,花野光ヶ丘２丁目２番１２号,,46,201,8911204,,,,,,,2024-08-07,1,,,,,カエルカンパニー,0
912,3370001051564,新規,0,2024-08-07,2024-08-07,ＲＩＶＡ　Ｅｎｔｅｒｐｒｉｓｅ株式会社,,株式会社,宮城県,塩竈市,港町２丁目１０番１０号,,04,203,9850016,,,,,,,2024-08-07,1,,,,,リーヴァエンタープライズ,0
913,3370001051622,新規,0,2024-08-07,2024-08-07,株式会社榮冨電氣,,株式会社,宮城県,登米市,中田町石森字加賀野田中８２番地１０,,04,212,9870601,,,,,,,2024-08-07,1,,,,,エイトデンキ,0
922,3390001017704,新規,0,2024-08-07,2024-08-07,株式会社コヤマホールディングス,,株式会社,山形県,山形市,宮町４丁目２１番１２号,,06,201,9900057,,,,,,,2024-08-07,1,,,,,コヤマホールディングス,0
929,3430001092404,新規,0,2024-08-07,2024-08-07,株式会社ＨＭＦａｉｔｈ,,株式会社,北海道,虻田郡倶知安町,北三条西２丁目９番地５,,01,400,0440053,,,,,,,2024-08-07,1,,,,,エイチエムフェイス,0
930,3430001092437,新規,0,2024-08-07,2024-08-07,北海道資源貿易株式会社,,株式会社,北海道,苫小牧市,日新町２丁目４番３３号,,01,213,0530833,,,,,,,2024-08-07,1,,,,,ホッカイドウシゲンボウエキ,0
933,3430003016666,新規,0,2024-08-07,2024-08-07,合同会社ＮＡＢＥ,,合同会社,北海道,北広島市,大曲光３丁目８番地５,,01,234,0611277,,,,,,,2024-08-07,1,,,,,ナベ,0
934,3430005015047,新規,0,2024-08-07,2024-08-07,石山通り行政書士法人,,その他の設立登記法人,北海道,札幌市中央区,南十条西１０丁目１番２０号,,01,101,0640810,,,,,,,2024-08-07,1,,,,,イシヤマドオリ,0
937,3460003001005,新規,0,2024-08-07,2024-08-07,合同会社ＹＯＳＨＩＺＵＭＩ,,合同会社,北海道,釧路市,文苑４丁目５１番１６号,,01,206,0850063,,,,,,,2024-08-07,1,,,,,ヨシズミ,0
941,3470003002695,新規,0,2024-08-07,2024-08-07,合同会社恩,,合同会社,香川県,高松市,元山町４７３番地１０,,37,201,7610311,,,,,,,2024-08-07,1,,,,,オン,0
944,3500001025802,新規,0,2024-08-07,2024-08-07,株式会社東清水果樹園,,株式会社,愛媛県,八幡浜市,保内町宮内６番耕地３７３番地１,,38,204,7960202,,,,,,,2024-08-07,1,,,,,ヒガシシミズカジュエン,0
947,3700150126678,新規,0,2024-08-07,2024-08-07,ｆｕｚｈｏｕｓｈｉｋｅｂｅｉｒｕｉｍａｏｙｉｙｏｕｘｉａｎｚｅｒｅｎｇｏｎｇｓｉ,,外国会社等,,,,,,,,ｆｕｑｉｎｇｓｈｉｃｈｅｎｇｔｏｕｚｈｅｎｈｏｕｆｅｎｇｃｕｎｄｏｎｇ９７ｈａｏ－３，ｆｕｚｈｏｕ，ｆｕｊｉａｎ,,,,,,2024-08-07,1,,,,,フクシュウシコクカイズイボウエキユウゲンセキニンコウシ,0
955,4010001247073,新規,0,2024-08-07,2024-08-07,株式会社玉手箱,,株式会社,東京都,千代田区,内神田３丁目１２番４号第一岸ビル５階,,13,101,1010047,,,,,,,2024-08-07,1,,,,,タマテバコ,0
956,4010001247239,新規,0,2024-08-07,2024-08-07,日興株式会社,,株式会社,東京都,中央区,日本橋小伝馬町７番１２号セントラルビル１０１,,13,102,1030001,,,,,,,2024-08-07,1,,,,,ニッコウ,0
957,4010001247247,新規,0,2024-08-07,2024-08-07,株式会社コーチングフォワード,,株式会社,東京都,中央区,日本橋２丁目１番１７号,,13,102,1030027,,,,,,,2024-08-07,1,,,,,,0
958,4010001247255,新規,0,2024-08-07,2024-08-07,株式会社Ｃｒｅｓｃｅｎｄｏ＆Ｃｏ．,,株式会社,東京都,中央区,日本橋小伝馬町２－５,,13,102,1030001,,,,,,,2024-08-07,1,,,,,クレッシェンドアンドコ,0
959,4010001247263,新規,0,2024-08-07,2024-08-07,Ｚｅｐｐ　Ｊａｐａｎ株式会社,,株式会社,東京都,千代田区,神田佐久間町３丁目２８番星野ビル５１８,,13,101,1010025,,,,,,,2024-08-07,1,,,,,ゼップジャパン,0
960,4010001247296,新規,0,2024-08-07,2024-08-07,株式会社ＫＳＦＲ１３,,株式会社,東京都,千代田区,内幸町２丁目１番６号,,13,101,1000011,,,,,,,2024-08-07,1,,,,,ケイエスエフアールサーティーン,0
961,4010003044519,新規,0,2024-08-07,2024-08-07,ＧｏｌｄｅｎＷａｙ合同会社,,合同会社,東京都,千代田区,神田須田町１丁目７番８号ＶＯＲＴ秋葉原ＩＶ２Ｆ,00135848,13,101,1010041,,,,,,,2024-08-07,1,,,,,ゴールデンウェイ,0
962,4010003044535,新規,0,2024-08-07,2024-08-07,合同会社ＲＳプロパティーズ２,,合同会社,東京都,千代田区,大手町１丁目５番１号,,13,101,1000004,,,,,,,2024-08-07,1,,,,,アールエスプロパティーズツー,0
963,4010003044551,新規,0,2024-08-07,2024-08-07,合同会社オパールプロダクション,,合同会社,東京都,中央区,勝どき５丁目３番１－４４１３号,,13,102,1040054,,,,,,,2024-08-07,1,,,,,オパールプロダクション,0
971,4010501052725,新規,0,2024-08-07,2024-08-07,株式会社シトラス,,株式会社,東京都,台東区,根岸３丁目４番９号,,13,106,1100003,,,,,,,2024-08-07,1,,,,,シトラス,0
975,4010701046378,新規,0,2024-08-07,2024-08-07,いと株式会社,,株式会社,東京都,品川区,北品川５丁目２０番８号,,13,109,1410001,,,,,,,2024-08-07,1,,,,,イト,0
980,4010901055757,新規,0,2024-08-07,2024-08-07,株式会社加賀谷組,,株式会社,東京都,世田谷区,桜新町１丁目８番１７号,,13,112,1540015,,,,,,,2024-08-07,1,,,,,カガヤグミ,0
981,4010901055765,新規,0,2024-08-07,2024-08-07,ＹＷ株式会社,,株式会社,東京都,世田谷区,野毛３丁目２０番地１５号,,13,112,1580092,,,,,,,2024-08-07,1,,,,,ワイダブリュー,0
982,4010901055773,新規,0,2024-08-07,2024-08-07,株式会社まねたく,,株式会社,東京都,世田谷区,梅丘１丁目２１番５号,,13,112,1540022,,,,,,,2024-08-07,1,,,,,マネタク,0
987,4011001163772,新規,0,2024-08-07,2024-08-07,株式会社Ｂｌｕｅｆｉｎ　ｔｕｎａ,,株式会社,東京都,目黒区,下目黒２丁目２番８号メディアビル２階,,13,110,1530064,,,,,,,2024-08-07,1,,,,,ブルーフィンツナ,0
988,4011001163921,新規,0,2024-08-07,2024-08-07,株式会社ＷｏｎｄｅｒＲｏｏｍ,,株式会社,東京都,渋谷区,東２丁目２４番３号,,13,113,1500011,,,,,,,2024-08-07,1,,,,,ワンダールーム,0
993,4011301029905,新規,0,2024-08-07,2024-08-07,株式会社スペースヘッジホッグ,,株式会社,東京都,杉並区,上荻４丁目２４－１グランシャリオ２０２号,,13,115,1670043,,,,,,,2024-08-07,1,,,,,,0
995,4011403004467,新規,0,2024-08-07,2024-08-07,合同会社ＴＮｃｏｎｆｉｄｅｎｃｅ,,合同会社,東京都,板橋区,大山金井町９番７号旭ビル５０２,,13,119,1730024,,,,,,,2024-08-07,1,,,,,ティーエヌコンフィデンス,0
1000,4011803006377,新規,0,2024-08-07,2024-08-07,レイ・オム合同会社,,合同会社,東京都,足立区,宮城１丁目１番２３－８１５号,,13,121,1200047,,,,,,,2024-08-07,1,,,,,レイオム,0
1005,4012801023380,新規,0,2024-08-07,2024-08-07,Ｙ’ｓプロパティマネジメント株式会社,,株式会社,東京都,武蔵村山市,中藤１丁目１番地,,13,223,2080001,,,,,,,2024-08-07,1,,,,,ワイズプロパティマネジメント,0
1006,4013101009483,新規,0,2024-08-07,2024-08-07,株式会社リンクグッド,,株式会社,東京都,福生市,大字熊川１８６番地２,,13,218,1970003,,,,,,,2024-08-07,1,,,,,リンクグッド,0
1015,4020001158360,新規,0,2024-08-07,2024-08-07,株式会社エスレーヴ,,株式会社,神奈川県,横浜市中区,伊勢佐木町２丁目６６番地満利屋ビル８Ｆ－Ｃ号室,,14,104,2310045,,,,,,,2024-08-07,1,,,,,エスレーヴ,0
1016,4020001158377,新規,0,2024-08-07,2024-08-07,ＹＭ株式会社,,株式会社,神奈川県,横浜市神奈川区,西寺尾１丁目２－１６,,14,102,2210001,,,,,,,2024-08-07,1,,,,,ワイエム,0
1017,4020001158476,新規,0,2024-08-07,2024-08-07,株式会社ＴＫ電気,,株式会社,神奈川県,横浜市鶴見区,向井町３丁目８１番地２９,,14,101,2300037,,,,,,,2024-08-07,1,,,,,ティーケーデンキ,0
1018,4020001158641,新規,0,2024-08-07,2024-08-07,株式会社メリウステック,,株式会社,神奈川県,横浜市西区,北幸１丁目１１番１号水信ビル７階,,14,103,2200004,,,,,,,2024-08-07,1,,,,,メリウステック,0
1022,4020003026581,新規,0,2024-08-07,2024-08-07,オートサービスＫ合同会社,,合同会社,神奈川県,横浜市金沢区,釜利谷西６丁目４番３号,,14,108,2360046,,,,,,,2024-08-07,1,,,,,オートサービスケイ,0
1023,4020003026706,新規,0,2024-08-07,2024-08-07,合同会社トータルライフサポート,,合同会社,神奈川県,横浜市西区,北幸２丁目１３番５－６０３号,,14,103,2200004,,,,,,,2024-08-07,1,,,,,トータルライフサポート,0
1025,4021001082906,新規,0,2024-08-07,2024-08-07,カナエリテ株式会社,,株式会社,神奈川県,藤沢市,本鵠沼２丁目４番１８－１０４号,,14,205,2510028,,,,,,,2024-08-07,1,,,,,カナエリテ,0
1026,4021001082914,新規,0,2024-08-07,2024-08-07,株式会社Ｗｅｌｌｎｅｓｓ　Ａｓｓｉｓｔ,,株式会社,神奈川県,平塚市,城所１２６１番地,,14,203,2540005,,,,,,,2024-08-07,1,,,,,ウェルネスアシスト,0
1027,4021001082930,新規,0,2024-08-07,2024-08-07,株式会社ネクスト,,株式会社,神奈川県,相模原市中央区,横山台１丁目３３－８,,14,152,2520241,,,,,,,2024-08-07,1,,,,,ネクスト,0
1028,4021001082947,新規,0,2024-08-07,2024-08-07,株式会社ラバーテクニカ,,株式会社,神奈川県,秦野市,戸川１２２番地の２３,,14,211,2591306,,,,,,,2024-08-07,1,,,,,ラバーテクニカ,0
1032,4021003014840,新規,0,2024-08-07,2024-08-07,合同会社Ｕｉ,,合同会社,神奈川県,相模原市中央区,上溝２２２１－５コンテらすＢＡＮＤＡ－Ｃ棟,,14,152,2520243,,,,,,,2024-08-07,1,,,,,ウイ,0
1037,4030001161693,新規,0,2024-08-07,2024-08-07,株式会社ＴＥＮＳＥＩ　ＷＯＲＬＤ,,株式会社,埼玉県,さいたま市大宮区,桜木町１丁目３７８番地,,11,103,3300854,,,,,,,2024-08-07,1,,,,,テンセイワールド,0
1038,4030001161818,新規,0,2024-08-07,2024-08-07,あさか株式会社,,株式会社,埼玉県,川口市,西川口１丁目６番１号小野田ビル８０５号,,11,203,3320021,,,,,,,2024-08-07,1,,,,,アサカ,0
1039,4030001161826,新規,0,2024-08-07,2024-08-07,株式会社ＴＲＡＩＮ,,株式会社,埼玉県,新座市,新座１丁目３番２号Ａ棟,,11,230,3520006,,,,,,,2024-08-07,1,,,,,トレイン,0
1040,4030001161834,新規,0,2024-08-07,2024-08-07,かすかべ商事株式会社,,株式会社,埼玉県,春日部市,飯沼９８番地,,11,214,3440125,,,,,,,2024-08-07,1,,,,,カスカベショウジ,0
1044,4030003024832,新規,0,2024-08-07,2024-08-07,ＬＣＭ合同会社,,合同会社,埼玉県,比企郡ときがわ町,大字五明８４７－１,,11,349,3550343,,,,,,,2024-08-07,1,,,,,エルシーエム,0
1045,4030003024873,新規,0,2024-08-07,2024-08-07,合同会社ＮＳサービス,,合同会社,埼玉県,蓮田市,大字貝塚３１２番地２,,11,238,3490132,,,,,,,2024-08-07,1,,,,,エヌエスサービス,0
1049,4040001134797,新規,0,2024-08-07,2024-08-07,株式会社士魂商才,,株式会社,千葉県,千葉市中央区,富士見２丁目１６番４号三社プラザ６０２,,12,101,2600015,,,,,,,2024-08-07,1,,,,,シコンショウサイ,0
1050,4040001134905,新規,0,2024-08-07,2024-08-07,株式会社川江貿易,,株式会社,千葉県,千葉市若葉区,加曽利町１４４６番地,,12,104,2640017,,,,,,,2024-08-07,1,,,,,カワエボウエキ,0
1058,4050001055200,新規,0,2024-08-07,2024-08-07,株式会社みらいとプランニング,,株式会社,茨城県,古河市,横山町１丁目２番３８号,,08,204,3060022,,,,,,,2024-08-07,1,,,,,,0
1059,4050001055209,新規,0,2024-08-07,2024-08-07,株式会社ダルマ,,株式会社,茨城県,水戸市,千波町４６４番地５３,,08,201,3100851,,,,,,,2024-08-07,1,,,,,ダルマ,0
1060,4050001055217,新規,0,2024-08-07,2024-08-07,株式会社緑創園,,株式会社,茨城県,結城郡八千代町,大字瀬戸井１１５４番地１,,08,521,3003511,,,,,,,2024-08-07,1,,,,,リョクソウエン,0
1064,4060001037354,新規,0,2024-08-07,2024-08-07,株式会社下倉総業,,株式会社,栃木県,鹿沼市,千渡１０２５番地１９,,09,205,3220002,,,,,,,2024-08-07,1,,,,,シモクラソウギョウ,0
1065,4060003005177,新規,0,2024-08-07,2024-08-07,合同会社栃木Ｖｅｇｅｔａｂｌｅｓ　Ｎｅｔｗｏｒｋ,,合同会社,栃木県,宇都宮市,一ノ沢町２６３番地２９,,09,201,3200049,,,,,,,2024-08-07,1,,,,,トチギベジタブルネットワーク,0
1073,4080005007632,新規,0,2024-08-07,2024-08-07,一般社団法人ＨＡＧＵ．ｉｓｍ,,その他の設立登記法人,静岡県,静岡市駿河区,高松２９６３番地の１ラフォーレビラ高松３０８号,,22,102,4228034,,,,,,,2024-08-07,1,,,,,ハグイズム,0
1077,4080103003112,新規,0,2024-08-07,2024-08-07,合同会社ＫＧＯ,,合同会社,静岡県,裾野市,岩波２５２番地４,,22,220,4101101,,,,,,,2024-08-07,1,,,,,ケージーオー,0
1082,4090001018839,新規,0,2024-08-07,2024-08-07,幸せの丘・ありあんす株式会社,,株式会社,山梨県,甲府市,上曽根４０１１番地,,19,201,4000000,,,,,,,2024-08-07,1,,,,,シアワセノオカアリアンス,0
1084,4100001037746,新規,0,2024-08-07,2024-08-07,株式会社Ｔ２‐ＢＡＳＥ,,株式会社,長野県,北佐久郡御代田町,大字御代田１８６５番地１,,20,323,3890206,,,,,,,2024-08-07,1,,,,,ティーツーベース,0
1089,4100003007697,新規,0,2024-08-07,2024-08-07,合同会社８ＨＩＬＬＳ,,合同会社,長野県,埴科郡坂城町,大字坂城７０１３番地６,,20,521,3890601,,,,,,,2024-08-07,1,,,,,エイトヒルズ,0
1090,4100005013207,新規,0,2024-08-07,2024-08-07,税理士法人柴田・水城会計,,その他の設立登記法人,長野県,松本市,大字島立９５６番地１３,,20,202,3900852,,,,,,,2024-08-07,1,,,,,シバタミズシロカイケイ,0
1104,4120001267201,新規,0,2024-08-07,2024-08-07,株式会社アートオブライフ,,株式会社,大阪府,大阪市平野区,長吉長原西２丁目１０番３７号,,27,126,5470015,,,,,,,2024-08-07,1,,,,,アートオブライフ,0
1105,4120001267531,新規,0,2024-08-07,2024-08-07,株式会社スタリアスライフ,,株式会社,大阪府,大阪市阿倍野区,阪南町１丁目２３番３６－４０２号,,27,119,5450021,,,,,,,2024-08-07,1,,,,,スタリアスライフ,0
1106,4120001267564,新規,0,2024-08-07,2024-08-07,株式会社ＫＯＵＳＥＩ,,株式会社,大阪府,大阪市生野区,巽東４丁目７番３５号,00135842,27,116,5440014,,,,,,,2024-08-07,1,,,,,コウセイ,0
1107,4120001267597,新規,0,2024-08-07,2024-08-07,株式会社ブライトルーク,,株式会社,大阪府,大阪市東淀川区,淡路５丁目１１番３号,,27,114,5330032,,,,,,,2024-08-07,1,,,,,ブライトルーク,0
1108,4120001267606,新規,0,2024-08-07,2024-08-07,金陽株式会社,,株式会社,大阪府,大阪市此花区,春日出中１丁目９番１３号,,27,104,5540022,,,,,,,2024-08-07,1,,,,,キンヨウ,0
1113,4120003027248,新規,0,2024-08-07,2024-08-07,合同会社関西キャピタル,,合同会社,大阪府,大阪市中央区,日本橋１丁目４番１２号,,27,128,5420073,,,,,,,2024-08-07,1,,,,,カンサイキャピタル,0
1114,4120003027256,新規,0,2024-08-07,2024-08-07,ＬＵＣＫＹ　ＣＬＯＶＥＲ合同会社,,合同会社,大阪府,枚方市,菊丘町１番３５号,,27,210,5730091,,,,,,,2024-08-07,1,,,,,ラッキークローバー,0
1117,4120101070117,新規,0,2024-08-07,2024-08-07,アイエスルブ株式会社,,株式会社,大阪府,貝塚市,澤９９４番地９,,27,208,5970062,,,,,,,2024-08-07,1,,,,,アイエスルブ,0
1118,4120103006003,新規,0,2024-08-07,2024-08-07,合同会社三方良,,合同会社,大阪府,堺市中区,小阪２０４番地１０,,27,142,5998276,,,,,,,2024-08-07,1,,,,,ミカタヤ,0
1121,4122001038342,新規,0,2024-08-07,2024-08-07,株式会社イミノス,,株式会社,大阪府,大東市,野崎３丁目１０－１６,,27,218,5740015,,,,,,,2024-08-07,1,,,,,イミノス,0
1124,4130001077640,新規,0,2024-08-07,2024-08-07,ＳＯＹＯＧＯ株式会社,,株式会社,京都府,京都市右京区,嵯峨天龍寺造路町６－１５,,26,108,6168384,,,,,,,2024-08-07,1,,,,,ソヨゴ,0
1126,4140001135397,新規,0,2024-08-07,2024-08-07,株式会社ＮＢ工業,,株式会社,兵庫県,明石市,林２丁目１８番２３号,,28,203,6730034,,,,,,,2024-08-07,1,,,,,エヌビーコウギョウ,0
1127,4140001135406,新規,0,2024-08-07,2024-08-07,株式会社Ｈａｎａ　Ｂａｎ,,株式会社,兵庫県,姫路市,網干区福井８番地,,28,201,6711225,,,,,,,2024-08-07,1,,,,,ハナバン,0
1128,4140001135439,新規,0,2024-08-07,2024-08-07,株式会社サンリアルティ,,株式会社,兵庫県,丹波市,氷上町三方６９４番地,,28,223,6693624,,,,,,,2024-08-07,1,,,,,サンリアルティ,0
1133,4140003020936,新規,0,2024-08-07,2024-08-07,Ｃｒｅａｔｉｎｇ　Ｂｅａｕｔｙ　６合同会社,,合同会社,兵庫県,尼崎市,東難波町４丁目６番１４号ホークマンション３０１号,,28,202,6600892,,,,,,,2024-08-07,1,,,,,クリエイティングビューティシックス,0
1135,4170001018260,新規,0,2024-08-07,2024-08-07,株式会社チーム柳生,,株式会社,和歌山県,和歌山市,内原４７９番地３,,30,201,6410013,,,,,,,2024-08-07,1,,,,,チームヤギュウ,0
1143,4180001162578,新規,0,2024-08-07,2024-08-07,服部昇機株式会社,,株式会社,愛知県,名古屋市熱田区,六番１丁目７番２５号,,23,109,4560058,,,,,,,2024-08-07,1,,,,,ハットリショウキ,0
1144,4180001162660,新規,0,2024-08-07,2024-08-07,株式会社クオレ,,株式会社,愛知県,名古屋市北区,金城町３丁目１１番地２Ｆ,,23,103,4620047,,,,,,,2024-08-07,1,,,,,クオレ,0
1145,4180001162768,新規,0,2024-08-07,2024-08-07,ＹＡスタッフ株式会社,,株式会社,愛知県,大府市,高丘町３丁目３５７番地,,23,223,4740042,,,,,,,2024-08-07,1,,,,,ワイエースタッフ,0
1153,4180003027119,新規,0,2024-08-07,2024-08-07,ＮＤＣ合同会社,,合同会社,愛知県,名古屋市西区,中小田井２丁目４４４番地,,23,104,4520822,,,,,,,2024-08-07,1,,,,,エヌディーシー,0
1154,4180003027143,新規,0,2024-08-07,2024-08-07,オパール合同会社,,合同会社,愛知県,春日井市,堀ノ内町４丁目３番地１６プランドール・メゾン１０２号室,,23,206,4860829,,,,,,,2024-08-07,1,,,,,オパール,0
1156,4180005020716,新規,0,2024-08-07,2024-08-07,一般社団法人ここあっぷる,,その他の設立登記法人,愛知県,名古屋市中村区,名駅３丁目４番１０号アルティメイト名駅１ｓｔ２階,,23,105,4500002,,,,,,,2024-08-07,1,,,,,ココアップル,0
1157,4180301038949,新規,0,2024-08-07,2024-08-07,株式会社ＹｕｋｉＦａｃｔｏｒｙ,,株式会社,愛知県,西尾市,一色町一色未荒子６２－３,,23,213,4440423,,,,,,,2024-08-07,1,,,,,ユキファクトリー,0
1159,4190001031542,新規,0,2024-08-07,2024-08-07,株式会社たんぽぽワークス,,株式会社,三重県,四日市市,久保田２丁目１０番１３号,,24,202,5100821,,,,,,,2024-08-07,1,,,,,タンポポワークス,0
1169,4200001042785,新規,0,2024-08-07,2024-08-07,株式会社藤屋,,株式会社,岐阜県,大垣市,小野４丁目１番地３,,21,202,5030803,,,,,,,2024-08-07,1,,,,,フジヤ,0
1170,4200001042793,新規,0,2024-08-07,2024-08-07,株式会社スリーストライク,,株式会社,岐阜県,安八郡神戸町,大字丈六道４４７番地の６,,21,381,5032304,,,,,,,2024-08-07,1,,,,,スリーストライク,0
1171,4200001042802,新規,0,2024-08-07,2024-08-07,株式会社Ｆｏｏｄｉｅ　Ｂｕｄｄｙ,,株式会社,岐阜県,岐阜市,下奈良１丁目１番８,,21,201,5008385,,,,,,,2024-08-07,1,,,,,フディバディ,0
1177,4220001026142,新規,0,2024-08-07,2024-08-07,株式会社ＮＯＷ　ＡＮＤ　ＴＨＥＮ,,株式会社,石川県,金沢市,安江町１９番６号,,17,201,9200854,,,,,,,2024-08-07,1,,,,,ナウアンドゼン,0
1182,4240001063670,新規,0,2024-08-07,2024-08-07,株式会社ｎｅｘｔ　ｓｅｒｖｉｃｅ,,株式会社,広島県,尾道市,平原４丁目１０番９号,,34,205,7220018,,,,,,,2024-08-07,1,,,,,ネクストサービス,0
1183,4240001063679,新規,0,2024-08-07,2024-08-07,カノフレックス株式会社,,株式会社,広島県,広島市安佐南区,山本新町３丁目４０番１６号,,34,105,7310139,,,,,,,2024-08-07,1,,,,,カノフレックス,0
1185,4240003006801,新規,0,2024-08-07,2024-08-07,合同会社マキヤマショウシャ,,合同会社,広島県,府中市,鵜飼町２０７番地１,,34,208,7260002,,,,,,,2024-08-07,1,,,,,マキヤマショウシャ,0
1190,4290001106730,新規,0,2024-08-07,2024-08-07,株式会社ＳＵＮＳＥＤＡＩ,,株式会社,福岡県,福岡市中央区,天神１丁目４番１－１６階,,40,133,8100001,,,,,,,2024-08-07,1,,,,,サンセダイ,0
1191,4290001106763,新規,0,2024-08-07,2024-08-07,株式会社ＧＬＯＲＹ,,株式会社,福岡県,福岡市博多区,東那珂１丁目１４番４６号,,40,132,8120892,,,,,,,2024-08-07,1,,,,,グローリー,0
1199,4310003004830,新規,0,2024-08-07,2024-08-07,合同会社冨永自動車整備工場,,合同会社,長崎県,長崎市,多以良町２２０９番地２,,42,201,8512213,,,,,,,2024-08-07,1,,,,,トミナガジドウシャセイビコウジョウ,0
1204,4350001019125,新規,0,2024-08-07,2024-08-07,株式会社ＰＺ,,株式会社,宮崎県,延岡市,南一ケ岡４丁目６番５号,,45,203,8890506,,,,,,,2024-08-07,1,,,,,ピーゼット,0
1207,4360001034049,新規,0,2024-08-07,2024-08-07,株式会社沖琉交通サービス,,株式会社,沖縄県,糸満市,潮崎町４丁目１０番地の４,,47,210,9010364,,,,,,,2024-08-07,1,,,,,オキリュウコウツウサービス,0
1212,4370001051588,新規,0,2024-08-07,2024-08-07,株式会社Ｙｕｍａｈｉｏ,,株式会社,宮城県,仙台市青葉区,台原４丁目５番９号,,04,101,9810911,,,,,,,2024-08-07,1,,,,,ユマヒオ,0
1224,4430005015046,新規,0,2024-08-07,2024-08-07,一般社団法人ちばりプロジェクト,,その他の設立登記法人,北海道,江別市,新栄台８９番地の６,,01,217,0690806,,,,,,,2024-08-07,1,,,,,チバリプロジェクト,0
1236,4700150126677,新規,0,2024-08-07,2024-08-07,ｓｈｅｎｚｈｅｎｓｈｉｊｉａｌｉｌｕｅｊｉｑｉｒｅｎｙｏｕｘｉａｎｇｏｎｇｓｉ,,外国会社等,,,,,,,,Ｌｏｎｇｈｕａ　Ｄｉｓｔｒｉｃｔ，Ｍｉｎｚｈｉ　Ｓｔｒｅｅｔ　Ｍｉｎｚｈｉ　Ｃｏｍｍｕｎｉｔｙ，Ｘｉｎ　Ｙｕａｎ　２，Ｂｕｉｌｄｉｎｇ　３，Ｒｏｏｍ　６０１　Ｓｈｅｎｚｈｅｎ　Ｇｕａｎｇｄｏｎｇ,,,,,,2024-08-07,1,,,,,シンセンシカリリャクロボットユウゲンコウシ,0
1246,5010001247205,新規,0,2024-08-07,2024-08-07,株式会社Ｈｉｒｏ,,株式会社,東京都,中央区,湊２丁目１１番１号シティタワー銀座東８２０号室,,13,102,1040043,,,,,,,2024-08-07,1,,,,,ヒロ,0
1247,5010001247246,新規,0,2024-08-07,2024-08-07,株式会社ランディ,,株式会社,東京都,文京区,大塚４丁目４３番６号,,13,105,1120012,,,,,,,2024-08-07,1,,,,,ランディ,0
1248,5010001247270,新規,0,2024-08-07,2024-08-07,株式会社ａｃｏ,,株式会社,東京都,中央区,銀座７丁目４番６号ＡＣＮ銀座７ビルディング７階,,13,102,1040061,,,,,,,2024-08-07,1,,,,,アコ,0
1251,5010003044550,新規,0,2024-08-07,2024-08-07,合同会社ハートリー,,合同会社,東京都,千代田区,神田神保町３丁目９番地２メインステージ九段下１２０１号,,13,101,1010051,,,,,,,2024-08-07,1,,,,,ハートリー,0
1252,5010003044559,新規,0,2024-08-07,2024-08-07,マウイＮｏ．１合同会社,,合同会社,東京都,千代田区,丸の内１丁目９番２号グラントウキョウサウスタワー１７階１７０５区,,13,101,1000005,,,,,,,2024-08-07,1,,,,,マウイナンバーワン,0
1254,5010005038633,新規,0,2024-08-07,2024-08-07,ＥＳネクスト税理士法人,,その他の設立登記法人,東京都,中央区,日本橋２丁目１２番９号日本橋グレイスビル８Ｆ,,13,102,1030027,,,,,,,2024-08-07,1,,,,,イーエスネクスト,0
1264,5010405023474,新規,0,2024-08-07,2024-08-07,Ｉｃｈｉｇａｙａ一般社団法人,,その他の設立登記法人,東京都,港区,西新橋１丁目２２番５号６階,,13,103,1050003,,,,,,,2024-08-07,1,,,,,イチガヤ,0
1266,5010701046377,新規,0,2024-08-07,2024-08-07,株式会社ＡＲＫ,,株式会社,東京都,品川区,上大崎２丁目２４番１１号目黒西口マンション２号館１００４号室,,13,109,1410021,,,,,,,2024-08-07,1,,,,,アーク,0
1270,5010901055764,新規,0,2024-08-07,2024-08-07,＿東株式会社,00135849,株式会社,東京都,世田谷区,上北沢４丁目１６－７上北沢グリーンコーポ９０２室,,13,112,1560057,,,,,,,2024-08-07,1,,,,,キントウ,0
1272,5011001163846,新規,0,2024-08-07,2024-08-07,株式会社アドバンテッジメディカル,,株式会社,東京都,目黒区,上目黒２丁目１番１号,,13,110,1530051,,,,,,,2024-08-07,1,,,,,アドバンテッジメディカル,0
1273,5011001163870,新規,0,2024-08-07,2024-08-07,株式会社西大,,株式会社,東京都,目黒区,鷹番２丁目８番４号,,13,110,1520004,,,,,,,2024-08-07,1,,,,,ニシダイ,0
1275,5011005010631,新規,0,2024-08-07,2024-08-07,一般社団法人中華茶講師協会,,その他の設立登記法人,東京都,渋谷区,道玄坂１丁目１８番６号３Ｆ,,13,113,1500043,,,,,,,2024-08-07,1,,,,,チュウカチャコウシキョウカイ,0
1278,5011101108362,新規,0,2024-08-07,2024-08-07,株式会社Ｃｏｔｏｂｉｔｏ,,株式会社,東京都,新宿区,新宿５丁目１４番１２号天翔オフィス新宿三丁目４０９,,13,104,1600022,,,,,,,2024-08-07,1,,,,,コトビト,0
1279,5011103014757,新規,0,2024-08-07,2024-08-07,合同会社Ｓｐｉｃｅｆｕｌ　Ｃｏ．,,合同会社,東京都,新宿区,北新宿４丁目３番２号山本ビル３０１,,13,104,1690074,,,,,,,2024-08-07,1,,,,,スパイスフルコー,0
1280,5011103014765,新規,0,2024-08-07,2024-08-07,ＡＤＡＭＡＳ合同会社,,合同会社,東京都,新宿区,原町１丁目４０番１号マンション牛込３０１号室,,13,104,1620053,,,,,,,2024-08-07,1,,,,,アダマス,0
1284,5011303005250,新規,0,2024-08-07,2024-08-07,ｏｕ合同会社,,合同会社,東京都,杉並区,浜田山３丁目３３番１６号２階,,13,115,1680065,,,,,,,2024-08-07,1,,,,,オーユー,0
1285,5011501031016,新規,0,2024-08-07,2024-08-07,株式会社パウラ,,株式会社,東京都,北区,西が丘１丁目６番７号,,13,117,1150056,,,,,,,2024-08-07,1,,,,,パウラ,0
1286,5011503006172,新規,0,2024-08-07,2024-08-07,ＰＲＪ合同会社,,合同会社,東京都,北区,田端新町３丁目７－６中田第３ビル４０３,,13,117,1140012,,,,,,,2024-08-07,1,,,,,ピーアールジェー,0
1288,5011801044634,新規,0,2024-08-07,2024-08-07,ＣＡＴ　ＮＥＴＷＯＲＫ株式会社,,株式会社,東京都,葛飾区,柴又１丁目３２－７,,13,122,1250052,,,,,,,2024-08-07,1,,,,,キャットネットワーク,0
1294,5012701018397,新規,0,2024-08-07,2024-08-07,株式会社ＡＺ‐ＯＮＥ,,株式会社,東京都,西東京市,中町４丁目３番２２号,,13,229,2020013,,,,,,,2024-08-07,1,,,,,アズワン,0
1307,5020001158368,新規,0,2024-08-07,2024-08-07,株式会社サカマキ,,株式会社,神奈川県,川崎市川崎区,藤崎３丁目１番１－３０１号,,14,131,2100804,,,,,,,2024-08-07,1,,,,,サカマキ,0
1311,5020003026580,新規,0,2024-08-07,2024-08-07,合同会社神山,,合同会社,神奈川県,横浜市戸塚区,原宿３丁目５７番１－１２－２０２号,,14,110,2450063,,,,,,,2024-08-07,1,,,,,カミヤマ,0
1312,5020003026705,新規,0,2024-08-07,2024-08-07,トゥデイテクノロジー合同会社,,合同会社,神奈川県,横浜市西区,北幸２丁目１０番４８号,,14,103,2200004,,,,,,,2024-08-07,1,,,,,トゥデイテクノロジー,0
1315,5021001082896,新規,0,2024-08-07,2024-08-07,石井工業株式会社,,株式会社,神奈川県,大和市,西鶴間４丁目１２番２５号小林ハイツＩＩ２０１,00135844,14,213,2420005,,,,,,,2024-08-07,1,,,,,イシイコウギョウ,0
1316,5021001082905,新規,0,2024-08-07,2024-08-07,株式会社厚木設備,,株式会社,神奈川県,厚木市,小野６０３番地１,,14,212,2430125,,,,,,,2024-08-07,1,,,,,アツギセツビ,0
1317,5021001082913,新規,0,2024-08-07,2024-08-07,ビー・ハイブ株式会社,,株式会社,神奈川県,横須賀市,長坂３丁目９番３７号,,14,201,2400101,,,,,,,2024-08-07,1,,,,,ビーハイブ,0
1318,5021001082921,新規,0,2024-08-07,2024-08-07,株式会社Ａｌｓａｐ,,株式会社,神奈川県,茅ヶ崎市,東海岸南３丁目２番２８号,,14,207,2530054,,,,,,,2024-08-07,1,,,,,アルサップ,0
1321,5021003014856,新規,0,2024-08-07,2024-08-07,合同会社アライズ,,合同会社,神奈川県,秦野市,立野台３丁目５番地の２グリーンヒルＩ３０１号,00135868,14,211,2570017,,,,,,,2024-08-07,1,,,,,アライズ,0
1327,5030001161676,新規,0,2024-08-07,2024-08-07,株式会社ピダン,,株式会社,埼玉県,さいたま市中央区,上峰１丁目１１番２１号,,11,105,3380014,,,,,,,2024-08-07,1,,,,,ピダン,0
1328,5030001161817,新規,0,2024-08-07,2024-08-07,株式会社クリーンラボＦＤ,,株式会社,埼玉県,春日部市,備後東２丁目８番１０号,,11,214,3440032,,,,,,,2024-08-07,1,,,,,クリーンラボエフディー,0
1329,5030001161833,新規,0,2024-08-07,2024-08-07,株式会社スタジオおいすたあ,,株式会社,埼玉県,越谷市,東越谷３丁目５番地９ヴァルゴ３０１,,11,222,3430023,,,,,,,2024-08-07,1,,,,,スタジオオイスタア,0
1334,5030003024856,新規,0,2024-08-07,2024-08-07,デュアル合同会社,,合同会社,埼玉県,本庄市,児玉町児玉１４１５番地,,11,211,3670212,,,,,,,2024-08-07,1,,,,,デュアル,0
1335,5030003024880,新規,0,2024-08-07,2024-08-07,関谷インダストリー合同会社,,合同会社,埼玉県,鴻巣市,大間３丁目１０番１号,,11,217,3650054,,,,,,,2024-08-07,1,,,,,セキヤインダストリー,0
1339,5040001134846,新規,0,2024-08-07,2024-08-07,株式会社ＲＯＭＥＮ,,株式会社,千葉県,船橋市,湊町３丁目２２番３号,,12,204,2730011,,,,,,,2024-08-07,1,,,,,ロメン,0
1340,5040001134904,新規,0,2024-08-07,2024-08-07,株式会社ドリルロケット,,株式会社,千葉県,流山市,おおたかの森西２丁目６－７,,12,220,2700128,,,,,,,2024-08-07,1,,,,,ドリルロケット,0
1345,5040003025548,新規,0,2024-08-07,2024-08-07,合同会社光,,合同会社,千葉県,市川市,新井１丁目６－２４,,12,203,2720144,,,,,,,2024-08-07,1,,,,,ヒカリ,0
1347,5040005022460,新規,0,2024-08-07,2024-08-07,みんなのための労働者協同組合,,その他の設立登記法人,千葉県,船橋市,浜町１丁目６番５－１０１号,,12,204,2730012,,,,,,,2024-08-07,1,,,,,ミンナノタメノ,0
1349,5050001055190,新規,0,2024-08-07,2024-08-07,菅野商事株式会社,,株式会社,茨城県,古河市,諸川１１１５番地４,,08,204,3060126,,,,,,,2024-08-07,1,,,,,カンノショウジ,0
1353,5060001037378,新規,0,2024-08-07,2024-08-07,エトワール株式会社,,株式会社,栃木県,小山市,大字向野３２６番地８,,09,208,3230805,,,,,,,2024-08-07,1,,,,,エトワール,0
1356,5070001042055,新規,0,2024-08-07,2024-08-07,株式会社ＩＳＨＩＷＡＴＡ　ＶＩＮＥＹＡＲＤ,,株式会社,群馬県,桐生市,東４丁目１０番１７号,,10,203,3760034,,,,,,,2024-08-07,1,,,,,イシワタヴィンヤード,0
1357,5070003005530,新規,0,2024-08-07,2024-08-07,合同会社クオンツ,,合同会社,群馬県,高崎市,小八木町１２０２番地１,,10,202,3700071,,,,,,,2024-08-07,1,,,,,クオンツ,0
1363,5100001037745,新規,0,2024-08-07,2024-08-07,株式会社周作ファーム,,株式会社,長野県,小県郡青木村,大字沓掛１３５１番地２,,20,349,3861606,,,,,,,2024-08-07,1,,,,,シュウサクファーム,0
1366,5110001038619,新規,0,2024-08-07,2024-08-07,株式会社ｏｄｄ　ｌａｎｄ．,,株式会社,新潟県,新潟市東区,秋葉１丁目３１番２７号,,15,102,9500054,,,,,,,2024-08-07,1,,,,,オッドランド,0
1367,5110001038627,新規,0,2024-08-07,2024-08-07,株式会社やわらぎ林業,,株式会社,新潟県,北蒲原郡聖籠町,大字藤寄３２５番地８,,15,307,9570127,,,,,,,2024-08-07,1,,,,,ヤワラギリンギョウ,0
1368,5110003005476,新規,0,2024-08-07,2024-08-07,合同会社ホエールクラウド,,合同会社,新潟県,柏崎市,東港町６番４７－１号,,15,205,9450068,,,,,,,2024-08-07,1,,,,,ホエールクラウド,0
1375,5120001267563,新規,0,2024-08-07,2024-08-07,嘉宝株式会社,,株式会社,大阪府,大阪市城東区,関目５丁目１９番９号関目花博公館６１１Ｂ,,27,118,5360008,,,,,,,2024-08-07,1,,,,,カホウ,0
1376,5120001267571,新規,0,2024-08-07,2024-08-07,超翔株式会社,,株式会社,大阪府,大阪市西成区,長橋３丁目６番１９号長橋ハイツ３０１号室,,27,122,5570025,,,,,,,2024-08-07,1,,,,,チョウショウ,0
1384,5120101070099,新規,0,2024-08-07,2024-08-07,株式会社ＮＡＧＯＭＩ,,株式会社,大阪府,羽曳野市,尺度１９５番地の５,,27,222,5830862,,,,,,,2024-08-07,1,,,,,ナゴミ,0
1385,5120101070108,新規,0,2024-08-07,2024-08-07,株式会社泉大津不動産販売,,株式会社,大阪府,泉大津市,我孫子２７番地の３,,27,206,5950031,,,,,,,2024-08-07,1,,,,,イズミオオツフドウサンハンバイ,0
1388,5120103005961,新規,0,2024-08-07,2024-08-07,合同会社ゴリラタスク,,合同会社,大阪府,松原市,天美南６丁目７番１０号,,27,217,5800033,,,,,,,2024-08-07,1,,,,,ゴリラタスク,0
1389,5120103005994,新規,0,2024-08-07,2024-08-07,合同会社Ｎ,,合同会社,大阪府,堺市北区,新金岡町２丁５番３号,,27,146,5918021,,,,,,,2024-08-07,1,,,,,エヌ,0
1390,5120103006002,新規,0,2024-08-07,2024-08-07,合同会社ＭＩＮＡＭＩ,,合同会社,大阪府,松原市,高見の里５丁目４５６番地の２６,,27,217,5800021,,,,,,,2024-08-07,1,,,,,ミナミ,0
1391,5120901049549,新規,0,2024-08-07,2024-08-07,株式会社Ｏｎｅ　Ｓｔｅｐ．,,株式会社,大阪府,吹田市,江坂町１丁目１２番５５－２０８号,,27,205,5640063,,,,,,,2024-08-07,1,,,,,ワンステップ,0
1392,5120903005269,新規,0,2024-08-07,2024-08-07,合同会社Ｏｋｒａ　Ｃｏｌｌｅｃｔｉｖｅ,,合同会社,大阪府,豊中市,西泉丘１丁目３－７－６２８,,27,203,5610862,,,,,,,2024-08-07,1,,,,,オクラコレクティブ,0
1393,5122001038341,新規,0,2024-08-07,2024-08-07,株式会社Ｙ・Ｋ,,株式会社,大阪府,八尾市,本町７丁目１１番１１号八尾本町大発マンション４０２号室,,27,212,5810003,,,,,,,2024-08-07,1,,,,,ワイケイ,0
1398,5130001077607,新規,0,2024-08-07,2024-08-07,株式会社Ｍｙｔａｇ　Ｃｒｅａｔｉｖｅ,,株式会社,京都府,宇治市,寺山台１丁目２番地の１０,,26,204,6110032,,,,,,,2024-08-07,1,,,,,マイタグクリエイティブ,0
1400,5140001135396,新規,0,2024-08-07,2024-08-07,株式会社ハントレス,,株式会社,兵庫県,神戸市中央区,中山手通１丁目２３番１６号シャンティビル１階,,28,110,6500004,,,,,,,2024-08-07,1,,,,,ハントレス,0
1401,5140001135405,新規,0,2024-08-07,2024-08-07,株式会社Ｖｉｔａｍｅｄｕｘ,,株式会社,兵庫県,三田市,学園６丁目５番地３,,28,219,6691337,,,,,,,2024-08-07,1,,,,,ヴィータメドックス,0
1402,5140001135454,新規,0,2024-08-07,2024-08-07,株式会社Ｔｗｉｎｋｌｅ,,株式会社,兵庫県,神戸市東灘区,岡本１丁目６番１４号,,28,101,6580072,,,,,,,2024-08-07,1,,,,,トゥインクル,0
1409,5140003020877,新規,0,2024-08-07,2024-08-07,合同会社ワンダーボーイ,,合同会社,兵庫県,神戸市兵庫区,荒田町３丁目４２番１２号,,28,105,6520032,,,,,,,2024-08-07,1,,,,,ワンダーボーイ,0
1410,5140003020935,新規,0,2024-08-07,2024-08-07,合同会社ＮＮ‐Ｐａｒｔｎｅｒｓ,,合同会社,兵庫県,神戸市中央区,多聞通３丁目３番７－９０３号,,28,110,6500015,,,,,,,2024-08-07,1,,,,,エヌエヌパートナーズ,0
1412,5150001027485,新規,0,2024-08-07,2024-08-07,株式会社ダリア,,株式会社,奈良県,奈良市,中登美ヶ丘３丁目５番地,,29,201,6310003,,,,,,,2024-08-07,1,,,,,ダリア,0
1419,5180001162585,新規,0,2024-08-07,2024-08-07,株式会社Ｔｏｍｏｗ,,株式会社,愛知県,知多郡南知多町,大字大井字五郎ケ奥１５番地の３、１１０３,,23,445,4703501,,,,,,,2024-08-07,1,,,,,トモウ,0
1420,5180001162651,新規,0,2024-08-07,2024-08-07,株式会社Ｄｉｃｅ　Ｆｉｅｌｄ,,株式会社,愛知県,名古屋市緑区,鳴海町字中汐田９５番地の１３,,23,114,4580801,,,,,,,2024-08-07,1,,,,,ダイスフィールド,0
1421,5180001162775,新規,0,2024-08-07,2024-08-07,株式会社ＣＨＡＭＰＳ,,株式会社,愛知県,江南市,上奈良町郷２６１,,23,217,4838258,,,,,,,2024-08-07,1,,,,,チャンプス,0
1425,5180003027191,新規,0,2024-08-07,2024-08-07,合同会社ビーワンコマース,,合同会社,愛知県,海部郡飛島村,元起１丁目２６番地,,23,427,4901437,,,,,,,2024-08-07,1,,,,,ビーワンコマース,0
1427,5180301038931,新規,0,2024-08-07,2024-08-07,株式会社ルリエ,,株式会社,愛知県,豊橋市,東幸町字大山２３８番地３,,23,201,4400843,,,,,,,2024-08-07,1,,,,,ルリエ,0
1440,5240001063661,新規,0,2024-08-07,2024-08-07,株式会社ＫＭＳ,,株式会社,広島県,広島市佐伯区,三筋２丁目１０番１６－１７号,,34,108,7315144,,,,,,,2024-08-07,1,,,,,ケイエムエス,0
1441,5240001063678,新規,0,2024-08-07,2024-08-07,株式会社ツクルート,,株式会社,広島県,尾道市,向島町５５３４－３２,,34,205,7220073,,,,,,,2024-08-07,1,,,,,ツクルート,0
1443,5240003006791,新規,0,2024-08-07,2024-08-07,合同会社オフィス六望,,合同会社,広島県,広島市中区,東白島町１６－２５,,34,101,7300004,,,,,,,2024-08-07,1,,,,,オフィスロクボウ,0
1445,5260001039338,新規,0,2024-08-07,2024-08-07,株式会社フォルテ,,株式会社,岡山県,岡山市東区,升田５３７番地１,,33,103,7048163,,,,,,,2024-08-07,1,,,,,フォルテ,0
1447,5280002000247,新規,0,2024-08-07,2024-08-07,有限会社井上時計店,,有限会社,島根県,松江市,竪町６９番地５,,32,201,6900052,,,,,,,2024-08-07,1,,,,,イノウエトケイテン,0
1449,5290001106721,新規,0,2024-08-07,2024-08-07,株式会社ｉｎａｓｅ,,株式会社,福岡県,福岡市南区,長丘３丁目６番７号,,40,134,8150075,,,,,,,2024-08-07,1,,,,,イナセ,0
1451,5310001019160,新規,0,2024-08-07,2024-08-07,株式会社マルイ,,株式会社,長崎県,佐世保市,俵ケ浦町３０番地１,,42,202,8571235,,,,,,,2024-08-07,1,,,,,マルイ,0
1454,5320001020654,新規,0,2024-08-07,2024-08-07,株式会社梅装,,株式会社,大分県,大分市,大字三芳１３５７番地の２２,,44,201,8700030,,,,,,,2024-08-07,1,,,,,ウメソウ,0
1459,5340001026716,新規,0,2024-08-07,2024-08-07,株式会社イースト,,株式会社,鹿児島県,指宿市,山川岡児ケ水１１６８番地１,,46,210,8910513,,,,,,,2024-08-07,1,,,,,イースト,0
1460,5340001026724,新規,0,2024-08-07,2024-08-07,株式会社ＭＶＩ,,株式会社,鹿児島県,鹿児島市,千日町９番１号紫明ビルＢ１Ｆ,,46,201,8920843,,,,,,,2024-08-07,1,,,,,エムブイアイ,0
1464,5350001019132,新規,0,2024-08-07,2024-08-07,株式会社ナチュレ・ファーム,,株式会社,宮崎県,東諸県郡国富町,大字本庄４２５０番地３,,45,382,8801101,,,,,,,2024-08-07,1,,,,,ナチュレファーム,0
1467,5360001034031,新規,0,2024-08-07,2024-08-07,株式会社久高クレーン,00135865,株式会社,沖縄県,中頭郡中城村,字北上原１１２６番地１,,47,328,9012423,,,,,,,2024-08-07,1,,,,,クダカクレーン,0
1477,5380005012857,新規,0,2024-08-07,2024-08-07,相馬港利活用事業協同組合,,その他の設立登記法人,福島県,相馬市,程田字形部田３６番地１,,07,209,9760035,,,,,,,2024-08-07,1,,,,,ソウマコウリカツヨウ,0
1478,5390001017702,新規,0,2024-08-07,2024-08-07,株式会社フライズ,,株式会社,山形県,東置賜郡川西町,大字下奥田１０２２番地１,,06,382,9990145,,,,,,,2024-08-07,1,,,,,フライズ,0
1490,5430001092435,新規,0,2024-08-07,2024-08-07,株式会社Ｌｉｂｅｒｔｅ,,株式会社,北海道,恵庭市,島松寿町１丁目８番地７,,01,231,0611355,,,,,,,2024-08-07,1,,,,,リベルテ,0
1496,5430003016656,新規,0,2024-08-07,2024-08-07,合同会社ディープ,,合同会社,北海道,千歳市,真々地４丁目８番２号,,01,224,0660045,,,,,,,2024-08-07,1,,,,,ディープ,0
1497,5430003016664,新規,0,2024-08-07,2024-08-07,合同会社ＬＩＦＩＸ,,合同会社,北海道,札幌市白石区,米里二条４丁目４番８号,,01,104,0030872,,,,,,,2024-08-07,1,,,,,リフィックス,0
1499,5450005004418,新規,0,2024-08-07,2024-08-07,一般社団法人咲蔵商事,,その他の設立登記法人,北海道,旭川市,流通団地四条５丁目２１番地１１,,01,204,0798444,,,,,,,2024-08-07,1,,,,,サクラショウジ,0
1500,5462505000291,新規,0,2024-08-07,2024-08-07,特定非営利活動法人別海町文化財ネットワーク,,その他の設立登記法人,北海道,野付郡別海町,別海旭町１５０番地の４,,01,691,0860202,,,,,,,2024-08-07,1,,,,,ベッカイチョウブンカザイネットワーク,0
1506,5700150126676,新規,0,2024-08-07,2024-08-07,Ｒｏｕｎｄ　Ｏｎｅ　Ｅｎｔｅｒｔａｉｎｍｅｎｔ　Ｉｎｃ．,,外国会社等,大阪府,大阪市中央区,難波５丁目１番６０号,,27,128,5420076,アメリカ合衆国カリフォルニア州ブレア、サターンストリート３０７０、２００,,,,,,2024-08-07,1,,,,,ラウンドワンエンターテイメントインク,0
1513,6010001247063,新規,0,2024-08-07,2024-08-07,灯火ソリューションズ株式会社,,株式会社,東京都,中央区,東日本橋１丁目５番６号,,13,102,1030004,,,,,,,2024-08-07,1,,,,,トモシビソリューションズ,0
1514,6010001247179,新規,0,2024-08-07,2024-08-07,株式会社フォレステック,,株式会社,東京都,千代田区,外神田２丁目７番１号,,13,101,1010021,,,,,,,2024-08-07,1,,,,,フォレステック,0
1515,6010001247220,新規,0,2024-08-07,2024-08-07,株式会社ＧｒｅｅｎＳｔｏｒｅ,,株式会社,東京都,千代田区,大手町１丁目７番２号東京サンケイビル２７階,,13,101,1000004,,,,,,,2024-08-07,1,,,,,グリーンストア,0
1516,6010001247245,新規,0,2024-08-07,2024-08-07,株式会社丸紅経済研究所,,株式会社,東京都,千代田区,大手町１丁目４番２号,,13,101,1000004,,,,,,,2024-08-07,1,,,,,マルベニケイザイケンキュウジョ,0
1517,6010001247294,新規,0,2024-08-07,2024-08-07,株式会社Ｐｕｂｌｉｃ　Ｌｅａｄｅｒｓ,,株式会社,東京都,千代田区,平河町１丁目３番１３号,,13,101,1020093,,,,,,,2024-08-07,1,,,,,パブリックリーダーズ,0
1519,6010003044541,新規,0,2024-08-07,2024-08-07,ぴーち合同会社,,合同会社,東京都,千代田区,神田須田町１丁目７番８号ＶＯＲＴ秋葉原ＩＶ２Ｆ,00135854,13,101,1010041,,,,,,,2024-08-07,1,,,,,ピーチ,0
1520,6010003044558,新規,0,2024-08-07,2024-08-07,モアナＮｏ．１合同会社,,合同会社,東京都,千代田区,丸の内１丁目９番２号グラントウキョウサウスタワー１７階１７０５区,,13,101,1000005,,,,,,,2024-08-07,1,,,,,モアナナンバーワン,0
1521,6010005038566,新規,0,2024-08-07,2024-08-07,税理士法人シグナス,,その他の設立登記法人,東京都,文京区,小石川１丁目９番１４－１２０１号,,13,105,1120002,,,,,,,2024-08-07,1,,,,,シグナス,0
1522,6010005038590,新規,0,2024-08-07,2024-08-07,一般社団法人ＤＡＰ普及協会,,その他の設立登記法人,東京都,文京区,本郷５丁目１番３号,,13,105,1130033,,,,,,,2024-08-07,1,,,,,ディーエーピーフキュウキョウカイ,0
1528,6010401184294,新規,0,2024-08-07,2024-08-07,株式会社ＴＯＹＯ,,株式会社,東京都,港区,芝浦３丁目１４番５号テクス芝浦ビルＢ１,,13,103,1080023,,,,,,,2024-08-07,1,,,,,トウヨウ,0
1529,6010401184369,新規,0,2024-08-07,2024-08-07,ＶＡＭＯＳＺ株式会社,,株式会社,東京都,港区,西麻布１丁目４番４０号西麻布ＳＨＩＮＯビル４階,,13,103,1060031,,,,,,,2024-08-07,1,,,,,バモス,0
1534,6010403033160,新規,0,2024-08-07,2024-08-07,ＳＫＥＹ合同会社,,合同会社,東京都,港区,赤坂７丁目５番２７号赤坂パインクレスト３０３,,13,103,1070052,,,,,,,2024-08-07,1,,,,,エスキー,0
1543,6010801035312,新規,0,2024-08-07,2024-08-07,株式会社サンキュー美装,,株式会社,東京都,大田区,下丸子４丁目２１番１２－３０５号,,13,111,1460092,,,,,,,2024-08-07,1,,,,,サンキュービソウ,0
1549,6010901055755,新規,0,2024-08-07,2024-08-07,タカハシ空調株式会社,,株式会社,東京都,世田谷区,羽根木２丁目３５番１８号,,13,112,1560042,,,,,,,2024-08-07,1,,,,,タカハシクウチョウ,0
1555,6011001163845,新規,0,2024-08-07,2024-08-07,株式会社リタハーツ,,株式会社,東京都,目黒区,大橋２丁目１６番２９号クレデウス第１ビル,,13,110,1530044,,,,,,,2024-08-07,1,,,,,リタハーツ,0
1557,6011003019673,新規,0,2024-08-07,2024-08-07,Ｇｅｋｋａｆｉｌｍ合同会社,,合同会社,東京都,渋谷区,渋谷２丁目１９番地１５号宮益坂ビルディング６０９,,13,113,1500002,,,,,,,2024-08-07,1,,,,,ゲッカフィルム,0
1558,6011003019698,新規,0,2024-08-07,2024-08-07,ｆｅａ合同会社,,合同会社,東京都,渋谷区,道玄坂１丁目１０番８号渋谷道玄坂東急ビル２Ｆ－Ｃ,,13,113,1500043,,,,,,,2024-08-07,1,,,,,フィー,0
1561,6011101108279,新規,0,2024-08-07,2024-08-07,ＳｕｐｒａｔｉＯ株式会社,,株式会社,東京都,新宿区,西新宿３丁目３番１３号西新宿水間ビル２Ｆ,,13,104,1600023,,,,,,,2024-08-07,1,,,,,スープラティオ,0
1571,6011801044641,新規,0,2024-08-07,2024-08-07,株式会社ピュア会,,株式会社,東京都,葛飾区,金町４丁目２３番１１号ビバハイツ金町２０２,,13,122,1250042,,,,,,,2024-08-07,1,,,,,ピュアカイ,0
1577,6012701018396,新規,0,2024-08-07,2024-08-07,株式会社Ｌａｕｇｈ　Ｔａｌｅ,,株式会社,東京都,西東京市,柳沢５丁目８番地１３号,,13,229,2020022,,,,,,,2024-08-07,1,,,,,ラフテル,0
1578,6012703003066,新規,0,2024-08-07,2024-08-07,リバーマウス合同会社,,合同会社,東京都,西東京市,向台町３丁目１番３３号,,13,229,1880013,,,,,,,2024-08-07,1,,,,,リバーマウス,0
1579,6012803003478,新規,0,2024-08-07,2024-08-07,合同会社Ｍａｐｉｌｉａ,,合同会社,東京都,国分寺市,西元町４丁目５番２号,,13,214,1850023,,,,,,,2024-08-07,1,,,,,マピリア,0
1584,6020001158326,新規,0,2024-08-07,2024-08-07,株式会社沙羽ＪＡＰＡＮ,,株式会社,神奈川県,川崎市川崎区,浜町１丁目６番１－３０１号Ｋ・Ｓビル,,14,131,2100851,,,,,,,2024-08-07,1,,,,,,0
1588,6021001082887,新規,0,2024-08-07,2024-08-07,株式会社エスアールテック,,株式会社,神奈川県,横須賀市,衣笠町２０番１０号,,14,201,2380025,,,,,,,2024-08-07,1,,,,,エスアールテック,0
1589,6021001082895,新規,0,2024-08-07,2024-08-07,株式会社シエルグラン,,株式会社,神奈川県,厚木市,森の里３丁目６番７号,,14,212,2430122,,,,,,,2024-08-07,1,,,,,シエルグラン,0
1590,6021001082904,新規,0,2024-08-07,2024-08-07,株式会社ＫＡＲＩＹＡＤＯ,,株式会社,神奈川県,三浦郡葉山町,上山口１４６３番地の１１,,14,301,2400115,,,,,,,2024-08-07,1,,,,,カリヤド,0
1591,6021001082920,新規,0,2024-08-07,2024-08-07,株式会社湘南・リベルラ,,株式会社,神奈川県,藤沢市,宮前５６９番地,,14,205,2510014,,,,,,,2024-08-07,1,,,,,ショウナンリベルラ,0
1592,6021001082937,新規,0,2024-08-07,2024-08-07,有村電機株式会社,,株式会社,神奈川県,藤沢市,鵠沼海岸５丁目１番１６～３１５号,00135845,14,205,2510037,,,,,,,2024-08-07,1,,,,,アリムラデンキ,0
1593,6021001082953,新規,0,2024-08-07,2024-08-07,株式会社時凪,,株式会社,神奈川県,藤沢市,本鵠沼５丁目１４番５０－３０５号,,14,205,2510028,,,,,,,2024-08-07,1,,,,,トキナギ,0
1594,6021003014855,新規,0,2024-08-07,2024-08-07,Ｋ．Ｋエクステリア合同会社,,合同会社,神奈川県,小田原市,高田６５７番地１０,,14,206,2500216,,,,,,,2024-08-07,1,,,,,ケーケーエクステリア,0
1595,6021003014863,新規,0,2024-08-07,2024-08-07,合同会社ＬＩＺＵ,,合同会社,神奈川県,茅ヶ崎市,東海岸北１丁目５番４－２０３号サザングランドハイツ,,14,207,2530053,,,,,,,2024-08-07,1,,,,,リズ,0
1596,6021003014871,新規,0,2024-08-07,2024-08-07,Ｐｌａｙ　Ｍｕｓｉｃ合同会社,,合同会社,神奈川県,大和市,中央林間６丁目１番１５号ファーストピア２０４,,14,213,2420007,,,,,,,2024-08-07,1,,,,,プレイミュージック,0
1605,6030001161816,新規,0,2024-08-07,2024-08-07,株式会社松工,,株式会社,埼玉県,熊谷市,三ヶ尻３８３０番地,,11,202,3600843,,,,,,,2024-08-07,1,,,,,マツコウ,0
1606,6030001161840,新規,0,2024-08-07,2024-08-07,岩興業株式会社,,株式会社,埼玉県,川口市,芝園町３番９－１２１５号,,11,203,3330853,,,,,,,2024-08-07,1,,,,,イワコウギョウ,0
1607,6030001161857,新規,0,2024-08-07,2024-08-07,株式会社ル・クッチーナ,,株式会社,埼玉県,川口市,東領家２丁目１７番１０号,,11,203,3320003,,,,,,,2024-08-07,1,,,,,ルクッチーナ,0
1613,6030003024871,新規,0,2024-08-07,2024-08-07,Ｍ，ｓカンパニー合同会社,,合同会社,埼玉県,上尾市,大字上尾村４９８番地４,,11,219,3620013,,,,,,,2024-08-07,1,,,,,エムズカンパニー,0
1620,6040001134845,新規,0,2024-08-07,2024-08-07,株式会社Ｅｎｄｌｅｓｓ　Ｔｒｕｓｔ,,株式会社,千葉県,市川市,大野町２丁目１８７３番地６０－２０５,,12,203,2720805,,,,,,,2024-08-07,1,,,,,エンドレストラスト,0
1621,6040001134853,新規,0,2024-08-07,2024-08-07,株式会社トヤマ,,株式会社,千葉県,千葉市中央区,春日２丁目２５番６号,,12,101,2600033,,,,,,,2024-08-07,1,,,,,トヤマ,0
1622,6040001134861,新規,0,2024-08-07,2024-08-07,株式会社ＨＩＧＨ‐ＭＩＮＤ,,株式会社,千葉県,八千代市,村上南１丁目２１番地５キャッスル１階,,12,221,2760029,,,,,,,2024-08-07,1,,,,,ハイマインド,0
1623,6040001134903,新規,0,2024-08-07,2024-08-07,ＡＨＹＨ株式会社,,株式会社,千葉県,茂原市,西野２７７番地１,,12,210,2994112,,,,,,,2024-08-07,1,,,,,エイエイチワイエイチ,0
1631,6050001055198,新規,0,2024-08-07,2024-08-07,株式会社Ｆｅｅｌ　ｗａｙ,,株式会社,茨城県,那珂郡東海村,東海２丁目９番１９号,,08,341,3191117,,,,,,,2024-08-07,1,,,,,フィールウェイ,0
1638,6060001037377,新規,0,2024-08-07,2024-08-07,株式会社リエンド,,株式会社,栃木県,宇都宮市,南大通り１丁目１番１６号エルアベニュー２０１号室,,09,201,3210963,,,,,,,2024-08-07,1,,,,,リエンド,0
1642,6080001026428,新規,0,2024-08-07,2024-08-07,株式会社Ｌ＆Ｍ,,株式会社,静岡県,静岡市葵区,七間町６番地の５石上ビル１・２階,,22,101,4200035,,,,,,,2024-08-07,1,,,,,エルアンドエム,0
1643,6080001026436,新規,0,2024-08-07,2024-08-07,株式会社杉山不動産,,株式会社,静岡県,静岡市駿河区,広野４丁目８番１５号,,22,102,4210121,,,,,,,2024-08-07,1,,,,,スギヤマフドウサン,0
1649,6080401027356,新規,0,2024-08-07,2024-08-07,ＳＵｉＣＴＥ株式会社,,株式会社,静岡県,浜松市中央区,城北３丁目５番１号光創起イノベーション研究拠点３０５号室,,22,138,4328011,,,,,,,2024-08-07,1,,,,,スイクト,0
1650,6080403005079,新規,0,2024-08-07,2024-08-07,合同会社ＧＥ,,合同会社,静岡県,浜松市中央区,西伊場町５６番地第一ビレッタ浜松５０６号,,22,138,4328038,,,,,,,2024-08-07,1,,,,,ジーイー,0
1663,6120001267538,新規,0,2024-08-07,2024-08-07,株式会社千載,,株式会社,大阪府,大阪市浪速区,恵美須西１丁目２番５号,,27,111,5560003,,,,,,,2024-08-07,1,,,,,センザイ,0
1664,6120001267546,新規,0,2024-08-07,2024-08-07,ＪＳＰ株式会社,,株式会社,大阪府,大阪市西区,立売堀１丁目６－１３－３０２号室,,27,106,5500012,,,,,,,2024-08-07,1,,,,,ジェーエスピー,0
1665,6120001267562,新規,0,2024-08-07,2024-08-07,器和株式会社,,株式会社,大阪府,大阪市生野区,新今里３丁目４番１７号ＯＧビル４０５Ｂ,,27,116,5440001,,,,,,,2024-08-07,1,,,,,キワ,0
1666,6120001267587,新規,0,2024-08-07,2024-08-07,ＹＫ国際株式会社,,株式会社,大阪府,大阪市住之江区,南加賀屋３丁目４番１,,27,125,5590015,,,,,,,2024-08-07,1,,,,,ワイケーコクサイ,0
1667,6120003027238,新規,0,2024-08-07,2024-08-07,まちへん合同会社,,合同会社,大阪府,大阪市中央区,久太郎町１丁目９番７号,,27,128,5410056,,,,,,,2024-08-07,1,,,,,マチヘン,0
1670,6120101070081,新規,0,2024-08-07,2024-08-07,株式会社舩本工業,,株式会社,大阪府,堺市中区,辻之３７９－１番地,00135852,27,142,5998245,,,,,,,2024-08-07,1,,,,,フナモトコウギョウ,0
1671,6120901049564,新規,0,2024-08-07,2024-08-07,株式会社十間,,株式会社,大阪府,箕面市,粟生間谷東２丁目２４番５号２０２号室,,27,220,5620022,,,,,,,2024-08-07,1,,,,,ジュッケン,0
1677,6130001077589,新規,0,2024-08-07,2024-08-07,エンリンクス株式会社,,株式会社,京都府,京都市右京区,太秦安井池田町１０－１エレガンス２１－１０７号室,,26,108,6168081,,,,,,,2024-08-07,1,,,,,エンリンクス,0
1678,6130001077597,新規,0,2024-08-07,2024-08-07,株式会社マグノリア,,株式会社,京都府,木津川市,吐師松葉２３番地,,26,214,6190221,,,,,,,2024-08-07,1,,,,,マグノリア,0
1685,6140001135379,新規,0,2024-08-07,2024-08-07,ＡＺ日本ＡＩロボット株式会社,,株式会社,兵庫県,神戸市東灘区,向洋町中１丁目１７番地アジア・ワン・センター,,28,101,6580032,,,,,,,2024-08-07,1,,,,,エーゼットニホンエーアイロボット,0
1686,6140001135404,新規,0,2024-08-07,2024-08-07,株式会社Ｓｐａｒｅ,,株式会社,兵庫県,西宮市,山口町名来２丁目１０番２４号,,28,204,6511411,,,,,,,2024-08-07,1,,,,,スペア,0
1687,6140001135412,新規,0,2024-08-07,2024-08-07,株式会社Ｍ．Ｌ,,株式会社,兵庫県,尼崎市,立花町１丁目９－２２－３０４,,28,202,6610025,,,,,,,2024-08-07,1,,,,,エムエル,0
1688,6140001135420,新規,0,2024-08-07,2024-08-07,ＭｕＳｕＢｕわーく株式会社,,株式会社,兵庫県,尼崎市,大庄中通４丁目２番地の１,,28,202,6600075,,,,,,,2024-08-07,1,,,,,ムスブワーク,0
1689,6140001135445,新規,0,2024-08-07,2024-08-07,株式会社ムーフ,,株式会社,兵庫県,神戸市北区,上津台２丁目３０番８号,,28,109,6511515,,,,,,,2024-08-07,1,,,,,ムーフ,0
1690,6140001135453,新規,0,2024-08-07,2024-08-07,株式会社Ａｍａｔａ,,株式会社,兵庫県,尼崎市,名神町１丁目１８番２５号,,28,202,6610021,,,,,,,2024-08-07,1,,,,,アマタ,0
1696,6150001027484,新規,0,2024-08-07,2024-08-07,株式会社旬の駅,,株式会社,奈良県,奈良市,奈良阪町２６２６番地２,,29,201,6308104,,,,,,,2024-08-07,1,,,,,シュンノエキ,0
1715,6180301038930,新規,0,2024-08-07,2024-08-07,吉八製工株式会社,,株式会社,愛知県,みよし市,東陣取山１３番地１,,23,236,4700222,,,,,,,2024-08-07,1,,,,,キッパチセイコウ,0
1716,6180301038939,新規,0,2024-08-07,2024-08-07,株式会社エムエスディ,,株式会社,愛知県,岡崎市,明大寺町字奈良井３番地１０,,23,202,4440864,,,,,,,2024-08-07,1,,,,,エムエスディ,0
1717,6180301038947,新規,0,2024-08-07,2024-08-07,株式会社ドレント,,株式会社,愛知県,豊橋市,つつじが丘２丁目１５番地の１３,,23,201,4400858,,,,,,,2024-08-07,1,,,,,ドレント,0
1718,6180303006217,新規,0,2024-08-07,2024-08-07,合同会社ひかり,,合同会社,愛知県,豊橋市,飯村南３丁目１０番地１０,,23,201,4400835,,,,,,,2024-08-07,1,,,,,ヒカリ,0
1723,6200001042791,新規,0,2024-08-07,2024-08-07,株式会社庭晴造園,,株式会社,岐阜県,羽島市,上中町長間１３１２番地,,21,209,5016311,,,,,,,2024-08-07,1,,,,,ニワハルゾウエン,0
1725,6230001020480,新規,0,2024-08-07,2024-08-07,株式会社ＦＬＡＧＳ１,,株式会社,富山県,富山市,田中町１丁目６‐５９‐２０７,,16,201,9300985,,,,,,,2024-08-07,1,,,,,フラッグスワン,0
1732,6240001063644,新規,0,2024-08-07,2024-08-07,株式会社ウメダタイヤサービス,,株式会社,広島県,東広島市,志和町別府２５３０番地１,,34,212,7390267,,,,,,,2024-08-07,1,,,,,ウメダタイヤサービス,0
1736,6240003006799,新規,0,2024-08-07,2024-08-07,合同会社ＰＭＣＪ,,合同会社,広島県,広島市中区,八丁堀１－１２－４０１,,34,101,7300013,,,,,,,2024-08-07,1,,,,,ピーエムシージェイ,0
1737,6250001020768,新規,0,2024-08-07,2024-08-07,株式会社Ａｃｅ,,株式会社,山口県,岩国市,錦見６丁目１４番６号,,35,208,7410061,,,,,,,2024-08-07,1,,,,,エース,0
1745,6280001009230,新規,0,2024-08-07,2024-08-07,株式会社スイセン,,株式会社,島根県,松江市,玉湯町湯町１６２５番地,,32,201,6990202,,,,,,,2024-08-07,1,,,,,スイセン,0
1754,6290003015647,新規,0,2024-08-07,2024-08-07,合同会社桐竹,,合同会社,福岡県,那珂川市,大字山田９８番１４,,40,231,8111244,,,,,,,2024-08-07,1,,,,,トウチク,0
1756,6320001020637,新規,0,2024-08-07,2024-08-07,株式会社ウォーターバレー,,株式会社,大分県,中津市,大字犬丸１６７２番地１,,44,203,8790105,,,,,,,2024-08-07,1,,,,,ウォーターバレー,0
1758,6330003010511,新規,0,2024-08-07,2024-08-07,合同会社アウトライン,,合同会社,熊本県,熊本市東区,新南部５丁目５番５３号,,43,102,8618028,,,,,,,2024-08-07,1,,,,,アウトライン,0
1761,6340005009765,新規,0,2024-08-07,2024-08-07,一般社団法人日本万書筆文字協会,,その他の設立登記法人,鹿児島県,鹿児島市,南林寺町１９番３号第１トーカン１－Ｇ,,46,201,8920834,,,,,,,2024-08-07,1,,,,,ニホンヨロズショフデモジキョウカイ,0
1762,6350001019123,新規,0,2024-08-07,2024-08-07,株式会社ウェルスチール,,株式会社,宮崎県,西都市,大字下三財７７８４番地１,,45,208,8810113,,,,,,,2024-08-07,1,,,,,ウェルスチール,0
1765,6370003006712,新規,0,2024-08-07,2024-08-07,合同会社ＯＷＮＥＲ,,合同会社,宮城県,仙台市太白区,八木山東１丁目６番１６号,,04,104,9820802,,,,,,,2024-08-07,1,,,,,オーナー,0
1777,6380005012856,新規,0,2024-08-07,2024-08-07,企業組合スカイブルー土湯,,その他の設立登記法人,福島県,福島市,土湯温泉町字横道７０番地の１,,07,201,9602157,,,,,,,2024-08-07,1,,,,,スカイブルーツチユ,0
1779,6390001017701,新規,0,2024-08-07,2024-08-07,株式会社エネロ,,株式会社,山形県,最上郡最上町,大字本城３９６番地２,,06,362,9996104,,,,,,,2024-08-07,1,,,,,エネロ,0
1792,6430001092426,新規,0,2024-08-07,2024-08-07,株式会社タナカ,,株式会社,北海道,札幌市豊平区,美園四条６丁目１番２８－２０１号,,01,105,0620004,,,,,,,2024-08-07,1,,,,,タナカ,0
1795,6430003016647,新規,0,2024-08-07,2024-08-07,Ｔａｃｏｄａｋｅ合同会社,,合同会社,北海道,虻田郡倶知安町,北三条西１丁目１１番地１４ザ・レジェンドニセコ,,01,400,0440053,,,,,,,2024-08-07,1,,,,,タコダケ,0
1801,6500003003299,新規,0,2024-08-07,2024-08-07,合同会社ｓａｎｔｅ　ａｐｐｅｌ,,合同会社,愛媛県,新居浜市,松原町２番７６号,,38,205,7920828,,,,,,,2024-08-07,1,,,,,サンテアペル,0
1802,6700150126675,新規,0,2024-08-07,2024-08-07,ＺＩＳＵ　ＣＯＭＰＡＮＹ　ＬＩＭＩＴＥＤ,,外国会社等,,,,,,,,ＲＯＯＭ　１６０２　１６Ｆ　ＬＵＣＫＹ　ＣＥＮＴＥＲ　ＮＯ．１６５－１７１　ＷＡＮ　ＣＨＩ　ＲＯＡＤ　ＷＡＮ　ＣＨＩ　ＨＫ,,,,,,2024-08-07,1,,,,,シシュカギユウゲンコウシ,0
1808,7010001247244,新規,0,2024-08-07,2024-08-07,虹＿貿易株式会社,00135850,株式会社,東京都,中央区,京橋１丁目６番１３号金葉ビル９Ｆ,,13,102,1040031,,,,,,,2024-08-07,1,,,,,コウキボウエキ,0
1809,7010001247319,新規,0,2024-08-07,2024-08-07,株式会社サウネージ,,株式会社,東京都,中央区,日本橋浜町２丁目３０－９－６０１,,13,102,1030007,,,,,,,2024-08-07,1,,,,,サウネージ,0
1811,7010003044409,新規,0,2024-08-07,2024-08-07,ＹＦ　ＪＲＥ　Ｄ合同会社,,合同会社,東京都,千代田区,霞が関３丁目２番５号,,13,101,1000013,,,,,,,2024-08-07,1,,,,,ワイエフジェーアールイーディー,0
1812,7010003044508,新規,0,2024-08-07,2024-08-07,合同会社日の丸応援隊,,合同会社,東京都,千代田区,神田須田町１丁目７番８号ＶＯＲＴ秋葉原ＩＶ２Ｆ,00135847,13,101,1010041,,,,,,,2024-08-07,1,,,,,ヒノマルオウエンタイ,0
1813,7010003044540,新規,0,2024-08-07,2024-08-07,ＬＩＧＨＴ　ＲＡＩＬ　ＴＲＡＮＳＩＴ　ＯＮＥ　ＰＡＲＴＮＥＲＳ合同会社,,合同会社,東京都,千代田区,大手町２丁目３番２号,,13,101,1000004,,,,,,,2024-08-07,1,,,,,ライトレールトランジットワンパートナーズ,0
1814,7010003044565,新規,0,2024-08-07,2024-08-07,Ｌｅｔｔｕｃｅ　Ｌｅａｒｎ合同会社,,合同会社,東京都,中央区,銀座１丁目１２－４Ｎ＆ＥＢＬＤ,,13,102,1040061,,,,,,,2024-08-07,1,,,,,レタスラーン,0
1816,7010101016243,新規,0,2024-08-07,2024-08-07,株式会社ＢｅｌｌｅＨｏｍｅ,,株式会社,東京都,八王子市,下柚木３丁目１０５７－３７,,13,201,1920372,,,,,,,2024-08-07,1,,,,,ベルホーム,0
1824,7010401184277,新規,0,2024-08-07,2024-08-07,マネーフォワードホーム株式会社,,株式会社,東京都,港区,芝浦３丁目１番２１号,,13,103,1080023,,,,,,,2024-08-07,1,,,,,マネーフォワードホーム,0
1825,7010403033168,新規,0,2024-08-07,2024-08-07,合同会社わらしべＴｅｃｈ,,合同会社,東京都,港区,浜松町２丁目２番１５号浜松町ダイヤビル２Ｆ,,13,103,1050013,,,,,,,2024-08-07,1,,,,,ワラシベテック,0
1828,7010801035311,新規,0,2024-08-07,2024-08-07,株式会社ＬＡＲＧＯ．,,株式会社,東京都,大田区,多摩川２丁目２７番６－５０２号,,13,111,1460095,,,,,,,2024-08-07,1,,,,,ラルゴドット,0
1830,7010901055770,新規,0,2024-08-07,2024-08-07,株式会社シンゴ玉,,株式会社,東京都,世田谷区,池尻３丁目２７番３０号,,13,112,1540001,,,,,,,2024-08-07,1,,,,,シンゴダマ,0
1832,7010903009270,新規,0,2024-08-07,2024-08-07,合同会社Ｐ＆Ｂ,,合同会社,東京都,世田谷区,玉川田園調布２丁目１３番１号アビターレ玉川田園調布１０１,,13,112,1580085,,,,,,,2024-08-07,1,,,,,ピーアンドビー,0
1834,7011001163836,新規,0,2024-08-07,2024-08-07,株式会社トリドリＩＳ,,株式会社,東京都,渋谷区,円山町２８番１号,,13,113,1500044,,,,,,,2024-08-07,1,,,,,トリドリアイエス,0
1835,7011001163860,新規,0,2024-08-07,2024-08-07,株式会社ＯＸ８１,,株式会社,東京都,渋谷区,恵比寿西２丁目４番８号ウィンド恵比寿ビル８Ｆ,,13,113,1500021,,,,,,,2024-08-07,1,,,,,オーエックスエイトワン,0
1836,7011001163885,新規,0,2024-08-07,2024-08-07,株式会社ＳＭＡＲＴＦＣ,,株式会社,東京都,渋谷区,神宮前６丁目２３番４号桑野ビル２階,,13,113,1500001,,,,,,,2024-08-07,1,,,,,スマートエフシー,0
1837,7011003019697,新規,0,2024-08-07,2024-08-07,合同会社オグラヒサシ企画,,合同会社,東京都,渋谷区,渋谷２丁目１９－１５宮益坂ビルディング６０９,,13,113,1500002,,,,,,,2024-08-07,1,,,,,オグラヒサシキカク,0
1838,7011003019788,新規,0,2024-08-07,2024-08-07,合同会社Ｐｉｇｎｏｎ,,合同会社,東京都,渋谷区,神宮前６丁目２３番４号桑野ビル２階,,13,113,1500001,,,,,,,2024-08-07,1,,,,,ピニョン,0
1839,7011101108278,新規,0,2024-08-07,2024-08-07,株式会社Ｐａｔｒｉａ,,株式会社,東京都,新宿区,新宿１丁目３６－２新宿第七葉山ビル３Ｆ,,13,104,1600022,,,,,,,2024-08-07,1,,,,,パトリア,0
1841,7011103014730,新規,0,2024-08-07,2024-08-07,ｄｕｏ合同会社,,合同会社,東京都,新宿区,下落合２丁目１０－１０－３１０,,13,104,1610033,,,,,,,2024-08-07,1,,,,,ドオ,0
1842,7011105011115,新規,0,2024-08-07,2024-08-07,一般社団法人ＳＰＲ２号,,その他の設立登記法人,東京都,新宿区,四谷２丁目９番地１５東京ユナイテッド綜合事務所内,,13,104,1600004,,,,,,,2024-08-07,1,,,,,エスピーアールニゴウ,0
1846,7011401026329,新規,0,2024-08-07,2024-08-07,株式会社フォース,,株式会社,東京都,板橋区,仲町２８番７号,,13,119,1730022,,,,,,,2024-08-07,1,,,,,フォース,0
1848,7011501031014,新規,0,2024-08-07,2024-08-07,スカイライン株式会社,,株式会社,東京都,荒川区,南千住１丁目４５番８－１０３号Ｅ,,13,118,1160003,,,,,,,2024-08-07,1,,,,,スカイライン,0
1849,7011703003934,新規,0,2024-08-07,2024-08-07,合同会社絆,,合同会社,東京都,江戸川区,西小岩４丁目１２番１号信田ビル１Ｆ－Ｂ,,13,123,1330057,,,,,,,2024-08-07,1,,,,,キズナ,0
1852,7011801044632,新規,0,2024-08-07,2024-08-07,株式会社ノックアウトフーズ,,株式会社,東京都,足立区,花畑３丁目１７番５－２０６号,,13,121,1210061,,,,,,,2024-08-07,1,,,,,ノックアウトフーズ,0
1853,7011801044640,新規,0,2024-08-07,2024-08-07,株式会社笹峯工業,,株式会社,東京都,足立区,扇１丁目２４番１６－２０４号,,13,121,1230873,,,,,,,2024-08-07,1,,,,,ササミネコウギョウ,0
1862,7020001158358,新規,0,2024-08-07,2024-08-07,株式会社東易,,株式会社,神奈川県,川崎市川崎区,大師駅前１丁目１番５－１０１号Ｃ号室,,14,131,2100802,,,,,,,2024-08-07,1,,,,,トウイ,0
1868,7020003026587,新規,0,2024-08-07,2024-08-07,合同会社Ｔ＆Ｙ,,合同会社,神奈川県,川崎市麻生区,千代ケ丘７丁目１９番地２６,,14,137,2150005,,,,,,,2024-08-07,1,,,,,ティーアンドワイ,0
1869,7020003026595,新規,0,2024-08-07,2024-08-07,合同会社ボステリファンズ,,合同会社,神奈川県,横浜市戸塚区,柏尾町１１９３番地１戸塚タウンハウス斉藤Ａ棟２－５,,14,110,2440812,,,,,,,2024-08-07,1,,,,,ボステリファンズ,0
1875,7021001082894,新規,0,2024-08-07,2024-08-07,株式会社Ｇｅｏｒｇｅ　Ｈｏｍｅ,,株式会社,神奈川県,茅ヶ崎市,浜之郷２２９番地７,,14,207,2530086,,,,,,,2024-08-07,1,,,,,ジョージホーム,0
1876,7021001082903,新規,0,2024-08-07,2024-08-07,株式会社ＧＯＬＤ　ＷＯＯＤＳ,,株式会社,神奈川県,茅ヶ崎市,東海岸北２丁目１１番３９号,,14,207,2530053,,,,,,,2024-08-07,1,,,,,ゴールドウッズ,0
1877,7021001082911,新規,0,2024-08-07,2024-08-07,株式会社くぼた不動産,,株式会社,神奈川県,平塚市,西八幡２丁目５番１２号,,14,203,2540073,,,,,,,2024-08-07,1,,,,,クボタフドウサン,0
1878,7021001082928,新規,0,2024-08-07,2024-08-07,株式会社ＴＡＴＥＲＵＮＯ,,株式会社,神奈川県,相模原市緑区,大島１００８番地２９,,14,151,2520135,,,,,,,2024-08-07,1,,,,,タテルノ,0
1879,7021001082936,新規,0,2024-08-07,2024-08-07,株式会社三晃堂,,株式会社,神奈川県,相模原市南区,相模大野５丁目４番１号,,14,153,2520303,,,,,,,2024-08-07,1,,,,,サンコウドウ,0
1880,7021001082944,新規,0,2024-08-07,2024-08-07,株式会社アート美装,,株式会社,神奈川県,座間市,ひばりが丘１丁目３０番２６号コーポひばり２０１号,,14,216,2520003,,,,,,,2024-08-07,1,,,,,アートビソウ,0
1881,7021001082952,新規,0,2024-08-07,2024-08-07,株式会社森石鹸,,株式会社,神奈川県,茅ヶ崎市,本宿町４番１１号,,14,207,2530014,,,,,,,2024-08-07,1,,,,,モリセッケン,0
1882,7021003014862,新規,0,2024-08-07,2024-08-07,合同会社ｔｓｕｎａｇｕみうら,,合同会社,神奈川県,三浦市,海外町１１－１４,,14,210,2380245,,,,,,,2024-08-07,1,,,,,ツナグミウラ,0
1883,7021003014870,新規,0,2024-08-07,2024-08-07,ＲＩＣＯＬＬＯ合同会社,,合同会社,神奈川県,藤沢市,鵠沼松が岡４丁目１０―１０,,14,205,2510038,,,,,,,2024-08-07,1,,,,,リコロ,0
1886,7030001161773,新規,0,2024-08-07,2024-08-07,株式会社ｎｅｃｏｎｏ,,株式会社,埼玉県,川口市,領家２丁目２０番６号よろずいちマンション２０３号,,11,203,3320004,,,,,,,2024-08-07,1,,,,,ネコノ,0
1887,7030001161848,新規,0,2024-08-07,2024-08-07,株式会社出川組,,株式会社,埼玉県,川越市,広栄町１０番地５,,11,201,3501117,,,,,,,2024-08-07,1,,,,,デガワグミ,0
1895,7040001134860,新規,0,2024-08-07,2024-08-07,株式会社Ｓｏｕｌａｇｅ,,株式会社,千葉県,柏市,南増尾８丁目７番６１号,,12,217,2770054,,,,,,,2024-08-07,1,,,,,スラージュ,0
1896,7040001134885,新規,0,2024-08-07,2024-08-07,株式会社ＧＬＯＷ　ＭＧＬ,,株式会社,千葉県,成田市,中台３丁目３番地２－９０２,,12,211,2860015,,,,,,,2024-08-07,1,,,,,グローエムジーエル,0
1905,7050001055197,新規,0,2024-08-07,2024-08-07,株式会社ＭＡＲＪＡＮ　ＴＲＡＤＩＮＧ,,株式会社,茨城県,坂東市,内野山４９４番地１,,08,228,3060514,,,,,,,2024-08-07,1,,,,,マルジャントレイディング,0
1908,7060001037376,新規,0,2024-08-07,2024-08-07,株式会社オープランズ,,株式会社,栃木県,小山市,大字千駄塚２３５番地１３,,09,208,3290202,,,,,,,2024-08-07,1,,,,,オープランズ,0
1909,7060001037384,新規,0,2024-08-07,2024-08-07,株式会社ＪＯＹＮＴ,,株式会社,栃木県,下野市,柴８３０番地６,,09,216,3290412,,,,,,,2024-08-07,1,,,,,ジョイント,0
1914,7070001042053,新規,0,2024-08-07,2024-08-07,株式会社ミツギロジスティクス北関東,,株式会社,群馬県,太田市,吉沢町１２０４番地１,,10,205,3730019,,,,,,,2024-08-07,1,,,,,ミツギロジスティクスキタカントウ,0
1917,7080001026427,新規,0,2024-08-07,2024-08-07,株式会社ＳＯＡＲＩＮ,,株式会社,静岡県,静岡市葵区,上足洗４丁目１番２１号１０１,,22,101,4200841,,,,,,,2024-08-07,1,,,,,ソアリン,0
1918,7080001026435,新規,0,2024-08-07,2024-08-07,株式会社ＪｉＬ,,株式会社,静岡県,静岡市葵区,伝馬町１８番１４号,,22,101,4200858,,,,,,,2024-08-07,1,,,,,ジル,0
1926,7100001037743,新規,0,2024-08-07,2024-08-07,株式会社山沢土建,,株式会社,長野県,諏訪郡下諏訪町,４６４４番地１スタジオＫＩＩ２０３,00135856,20,361,3930000,,,,,,,2024-08-07,1,,,,,ヤマサワドケン,0
1927,7100003007686,新規,0,2024-08-07,2024-08-07,ＳＯＮＤＥＲ合同会社,,合同会社,長野県,北安曇郡白馬村,大字北城３０２０番地８６７、２階,,20,485,3999301,,,,,,,2024-08-07,1,,,,,ソンダー,0
1934,7110001038617,新規,0,2024-08-07,2024-08-07,株式会社スーパーイノベーションスクール,,株式会社,新潟県,長岡市,大手通２丁目３－１０米百俵プレイスミライエ長岡６階,,15,202,9400062,,,,,,,2024-08-07,1,,,,,スーパーイノベーションスクール,0
1935,7110001038625,新規,0,2024-08-07,2024-08-07,株式会社コネクトワン,,株式会社,新潟県,新潟市中央区,天神１丁目１プラーカ３、２Ｆ,,15,103,9500917,,,,,,,2024-08-07,1,,,,,コネクトワン,0
1937,7110003005474,新規,0,2024-08-07,2024-08-07,合同会社ＨｏｒｉｚｏｎＣｒａｆｔ,,合同会社,新潟県,新発田市,上今泉甲１０８番地１,,15,206,9592421,,,,,,,2024-08-07,1,,,,,ホライゾンクラフト,0
1950,7120001267537,新規,0,2024-08-07,2024-08-07,フレア株式会社,,株式会社,大阪府,大阪市中央区,本町橋８番３－６０４号,,27,128,5400029,,,,,,,2024-08-07,1,,,,,フレア,0
1951,7120001267545,新規,0,2024-08-07,2024-08-07,千福豊和国際株式会社,,株式会社,大阪府,大阪市東住吉区,湯里５丁目１６番地５号３Ｆ－Ｂ,,27,121,5460013,,,,,,,2024-08-07,1,,,,,センフクホウワコクサイ,0
1952,7120001267561,新規,0,2024-08-07,2024-08-07,潤笙貿易株式会社,,株式会社,大阪府,大阪市城東区,関目５丁目１９番９号関目花博公館１０５Ｂ,,27,118,5360008,,,,,,,2024-08-07,1,,,,,ジュンショウボウエキ,0
1953,7120001267586,新規,0,2024-08-07,2024-08-07,株式会社ひかり,,株式会社,大阪府,大阪市港区,市岡２丁目２番３号,,27,107,5520012,,,,,,,2024-08-07,1,,,,,ヒカリ,0
1956,7120003027245,新規,0,2024-08-07,2024-08-07,合同会社３,,合同会社,大阪府,大阪市中央区,南本町４丁目５番７号東亜ビル５階,,27,128,5410054,,,,,,,2024-08-07,1,,,,,サン,0
1957,7120003027253,新規,0,2024-08-07,2024-08-07,合同会社ＹＭＤ,,合同会社,大阪府,大阪市淀川区,十三東３丁目４－２２－１０１０,,27,123,5320023,,,,,,,2024-08-07,1,,,,,ワイエムディー,0
1963,7130001077596,新規,0,2024-08-07,2024-08-07,株式会社ビーユー,,株式会社,京都府,京都市下京区,七条通油小路東入大黒町２２７番地第２キョ―トビル４０２,,26,106,6008223,,,,,,,2024-08-07,1,,,,,ビーユー,0
1974,7140001135403,新規,0,2024-08-07,2024-08-07,株式会社アドタイル,,株式会社,兵庫県,揖保郡太子町,山田４２６番地,,28,464,6711501,,,,,,,2024-08-07,1,,,,,アドタイル,0
1975,7140001135428,新規,0,2024-08-07,2024-08-07,株式会社Ｃｈｌｏｒｉｓ,,株式会社,兵庫県,神戸市北区,鈴蘭台東町１丁目１番２７－２０１号,,28,109,6511112,,,,,,,2024-08-07,1,,,,,クロリス,0
1976,7140001135436,新規,0,2024-08-07,2024-08-07,ＮＩＮＥ株式会社,,株式会社,兵庫県,神戸市長田区,細田町３丁目４番３－２号,,28,106,6530835,,,,,,,2024-08-07,1,,,,,ニーネ,0
1977,7140001135444,新規,0,2024-08-07,2024-08-07,株式会社メジャーコレクト,,株式会社,兵庫県,尼崎市,潮江１丁目２２番１－７０９号,,28,202,6610976,,,,,,,2024-08-07,1,,,,,メジャーコレクト,0
1988,7160001026146,新規,0,2024-08-07,2024-08-07,株式会社トランスポーター,,株式会社,滋賀県,草津市,笠山２丁目１番１１－７０４号,,25,206,5250072,,,,,,,2024-08-07,1,,,,,トランスポーター,0
1989,7170001018258,新規,0,2024-08-07,2024-08-07,株式会社日高総合警備,,株式会社,和歌山県,御坊市,塩屋町北塩屋１８２５番地１４,,30,205,6440025,,,,,,,2024-08-07,1,,,,,ヒダカソウゴウケイビ,0
1993,7180001162674,新規,0,2024-08-07,2024-08-07,株式会社丸希,,株式会社,愛知県,日進市,浅田平子３丁目３０番地,,23,230,4700128,,,,,,,2024-08-07,1,,,,,マルキ,0
1994,7180001162781,新規,0,2024-08-07,2024-08-07,株式会社カイリ,,株式会社,愛知県,名古屋市西区,那古野１丁目１５－１８那古野ビル南館２１４,,23,104,4510042,,,,,,,2024-08-07,1,,,,,カイリ,0
2003,7180301038938,新規,0,2024-08-07,2024-08-07,株式会社サピエンス,,株式会社,愛知県,刈谷市,一ツ木町８丁目１９番地１,,23,210,4480003,,,,,,,2024-08-07,1,,,,,サピエンス,0
2004,7180301038946,新規,0,2024-08-07,2024-08-07,株式会社藤代ワークス,,株式会社,愛知県,岡崎市,上地３丁目２３番地１２,,23,202,4440823,,,,,,,2024-08-07,1,,,,,フジシロワークス,0
2005,7180303006216,新規,0,2024-08-07,2024-08-07,合同会社賑和,,合同会社,愛知県,西尾市,桜町中新田１５番地１２,,23,213,4450803,,,,,,,2024-08-07,1,,,,,シンワ,0
2006,7190001031556,新規,0,2024-08-07,2024-08-07,株式会社すなお,,株式会社,三重県,名張市,梅が丘北３番町２７６番地,,24,208,5180748,,,,,,,2024-08-07,1,,,,,スナオ,0
2009,7200001042808,新規,0,2024-08-07,2024-08-07,株式会社ＦａｉｒＰａｒｔｎｅｒｓ,,株式会社,岐阜県,各務原市,松が丘３丁目１３番地,,21,213,5090136,,,,,,,2024-08-07,1,,,,,フェアパートナーズ,0
2010,7220001026156,新規,0,2024-08-07,2024-08-07,株式会社ＳＣ電工,,株式会社,石川県,金沢市,神野１丁目５６番地４,,17,201,9200368,,,,,,,2024-08-07,1,,,,,エスシーデンコウ,0
2018,7240003006798,新規,0,2024-08-07,2024-08-07,合同会社丸山,,合同会社,広島県,福山市,西町３丁目１１番１号原田アパート２０２,,34,207,7200067,,,,,,,2024-08-07,1,,,,,マルヤマ,0
2019,7250001020767,新規,0,2024-08-07,2024-08-07,株式会社Ｔｈｏｍｐｓｏｎ,,株式会社,山口県,岩国市,室の木町５丁目９番１３号,,35,208,7400021,,,,,,,2024-08-07,1,,,,,トンプソン,0
2022,7290001106505,新規,0,2024-08-07,2024-08-07,株式会社凝視,,株式会社,福岡県,福岡市城南区,片江５丁目４５番１３号２Ｆ,,40,136,8140142,,,,,,,2024-08-07,1,,,,,ギョウシ,0
2024,7290003015588,新規,0,2024-08-07,2024-08-07,合同会社ＳＤＡ,,合同会社,福岡県,糟屋郡新宮町,大字三代４９４番地１サニーコート３号,,40,345,8110111,,,,,,,2024-08-07,1,,,,,エスディーエー,0
2034,7310001019167,新規,0,2024-08-07,2024-08-07,肥州アルシオン株式会社,,株式会社,長崎県,長崎市,筑後町４番２３－４０２号,,42,201,8500052,,,,,,,2024-08-07,1,,,,,ヒシュウアルシオン,0
2035,7320001020652,新規,0,2024-08-07,2024-08-07,株式会社すすむ,,株式会社,大分県,大分市,東浜１丁目８番２０号イースト・カズ１０４,,44,201,8700932,,,,,,,2024-08-07,1,,,,,ススム,0
2036,7320003004439,新規,0,2024-08-07,2024-08-07,いしかた合同会社,,合同会社,大分県,中津市,大字野依６５７番地３,,44,203,8790104,,,,,,,2024-08-07,1,,,,,イシカタ,0
2039,7330001032291,新規,0,2024-08-07,2024-08-07,株式会社ぱるぷんて,,株式会社,熊本県,阿蘇市,永草２７６４－３,,43,214,8692231,,,,,,,2024-08-07,1,,,,,パルプンテ,0
2040,7330001032333,新規,0,2024-08-07,2024-08-07,株式会社坂田自動車サービス,,株式会社,熊本県,上益城郡益城町,大字安永６５３番地３,,43,443,8612231,,,,,,,2024-08-07,1,,,,,サカタジドウシャサービス,0
2042,7340001026714,新規,0,2024-08-07,2024-08-07,株式会社ケーナイン,,株式会社,鹿児島県,鹿屋市,川西町３９６１番地１さとう貸家２号棟,,46,203,8930032,,,,,,,2024-08-07,1,,,,,ケーナイン,0
2056,7410001013911,新規,0,2024-08-07,2024-08-07,株式会社共栄,,株式会社,秋田県,大仙市,大曲若葉町１番１１－１３号,,05,212,0140045,,,,,,,2024-08-07,1,,,,,キョウエイ,0
2065,7430001092425,新規,0,2024-08-07,2024-08-07,株式会社ＬＡＹｉＮ,,株式会社,北海道,札幌市中央区,南七条西９丁目１０３０番地４ドミ曙第一１３０２号,,01,101,0640807,,,,,,,2024-08-07,1,,,,,レイン,0
2074,7490001010835,新規,0,2024-08-07,2024-08-07,株式会社Ｈｕｂ　ｆｕｎ,,株式会社,高知県,高知市,百石町１丁目１７番７号,,39,201,7808015,,,,,,,2024-08-07,1,,,,,ハブファン,0
2075,7490001010843,新規,0,2024-08-07,2024-08-07,株式会社ｓｋｙ　ｗａｌｋ,,株式会社,高知県,高知市,塩屋崎町２丁目５番５号,,39,201,7808014,,,,,,,2024-08-07,1,,,,,スカイウォーク,0
2079,7700150126674,新規,0,2024-08-07,2024-08-07,明日の故郷を元気にする会,,その他,和歌山県,御坊市,島４４０－１,,30,205,6440003,,,,,,,2024-08-07,1,,,,,アスノフルサトヲゲンキニスルカイ,0
2087,8010001247045,新規,0,2024-08-07,2024-08-07,株式会社ＥＶソリューション,,株式会社,東京都,千代田区,岩本町２丁目４番５－５０２号,,13,101,1010032,,,,,,,2024-08-07,1,,,,,イーブイソリューション,0
2088,8010001247053,新規,0,2024-08-07,2024-08-07,株式会社セルナ,,株式会社,東京都,千代田区,一番町２３－２番町ロイヤルコート３０６号室,,13,101,1020082,,,,,,,2024-08-07,1,,,,,セルナ,0
2089,8010001247086,新規,0,2024-08-07,2024-08-07,ＴＨＰ株式会社,,株式会社,東京都,千代田区,神田小川町３丁目２４番１５号,,13,101,1010052,,,,,,,2024-08-07,1,,,,,ティーエイチピー,0
2090,8010001247169,新規,0,2024-08-07,2024-08-07,株式会社ベルキャリア,,株式会社,東京都,中央区,日本橋室町１丁目１０番１１号,,13,102,1030022,,,,,,,2024-08-07,1,,,,,ベルキャリア,0
2091,8010001247193,新規,0,2024-08-07,2024-08-07,株式会社イマノマ,,株式会社,東京都,文京区,小石川４丁目２１番１号小石川４丁目ビル６０２,,13,105,1120002,,,,,,,2024-08-07,1,,,,,イマノマ,0
2092,8010001247235,新規,0,2024-08-07,2024-08-07,株式会社ＣｒｏｗｓＮＥＴ,,株式会社,東京都,千代田区,神田須田町１丁目７番８号ＶＯＲＴ秋葉原ＩＶ２Ｆ,00135855,13,101,1010041,,,,,,,2024-08-07,1,,,,,クロウズネット,0
2093,8010001247251,新規,0,2024-08-07,2024-08-07,Ｎフードコンサルティング株式会社,,株式会社,東京都,千代田区,神田須田町１丁目７－８ＶＯＲＴ秋葉原ＩＶ２階,00135858,13,101,1010041,,,,,,,2024-08-07,1,,,,,エヌフードコンサルティング,0
2094,8010001247276,新規,0,2024-08-07,2024-08-07,ノーザリーリンクス株式会社,,株式会社,東京都,中央区,銀座４丁目８番４号三原ビルディング８Ｆ,,13,102,1040061,,,,,,,2024-08-07,1,,,,,ノーザリーリンクス,0
2097,8010003044556,新規,0,2024-08-07,2024-08-07,オーズプラス合同会社,,合同会社,東京都,中央区,銀座６丁目１３番１６号銀座ＷａｌｌビルＵＣＦ５階,,13,102,1040061,,,,,,,2024-08-07,1,,,,,オーズプラス,0
2108,8010501052721,新規,0,2024-08-07,2024-08-07,株式会社ＮＫ,,株式会社,東京都,台東区,上野７丁目８番２０号晴花ビル１Ｆ,,13,106,1100005,,,,,,,2024-08-07,1,,,,,エヌケー,0
2114,8010701046366,新規,0,2024-08-07,2024-08-07,株式会社ＫＥＹＡＫＩ　ＭＥＡＬ,,株式会社,東京都,品川区,平塚２丁目１番１－１００１号,,13,109,1420051,,,,,,,2024-08-07,1,,,,,ケヤキミール,0
2120,8010901055753,新規,0,2024-08-07,2024-08-07,株式会社ちぇすと,,株式会社,東京都,世田谷区,砧８丁目５番１８号,,13,112,1570073,,,,,,,2024-08-07,1,,,,,チェスト,0
2121,8010901055761,新規,0,2024-08-07,2024-08-07,株式会社Ｅ．Ｗ．Ｃ,,株式会社,東京都,世田谷区,奥沢５丁目１－１１メゾンドジョワ２０２,,13,112,1580083,,,,,,,2024-08-07,1,,,,,イーダブリューシー,0
2133,8011001163653,新規,0,2024-08-07,2024-08-07,株式会社ＥＮＨＡＮＣＥ　ＩＴ,,株式会社,東京都,渋谷区,道玄坂１丁目１０番８号渋谷道玄坂東急ビル２Ｆ－Ｃ,,13,113,1500043,,,,,,,2024-08-07,1,,,,,エンハンスイット,0
2134,8011001163769,新規,0,2024-08-07,2024-08-07,株式会社龍ら,,株式会社,東京都,目黒区,自由が丘２丁目１６番１２号ＲＪ３,,13,110,1520035,,,,,,,2024-08-07,1,,,,,リュウラ,0
2137,8011003019696,新規,0,2024-08-07,2024-08-07,合同会社オブラ・マエストラ,,合同会社,東京都,目黒区,自由が丘２丁目１６番１２号ＲＪ３,,13,110,1520035,,,,,,,2024-08-07,1,,,,,オブラマエストラ,0
2138,8011003019721,新規,0,2024-08-07,2024-08-07,合同会社怜明社,,合同会社,東京都,渋谷区,円山町５番５号Ｎａｖｉ渋谷Ｖ３階,00135857,13,113,1500044,,,,,,,2024-08-07,1,,,,,レイメイシャ,0
2139,8011003019779,新規,0,2024-08-07,2024-08-07,Ａｎ　Ｉｍａｇｅ　Ｏｆ　Ｓｏｕｎｄ合同会社,,合同会社,東京都,渋谷区,神宮前６丁目２３番４号桑野ビル２階,,13,113,1500001,,,,,,,2024-08-07,1,,,,,アンイメージオブサウンド,0
2140,8011005010604,新規,0,2024-08-07,2024-08-07,一般社団法人トータルアピアランスケア実践研究会,,その他の設立登記法人,東京都,渋谷区,恵比寿南１丁目１番１号ヒューマックス恵比寿ビル６０８,,13,113,1500022,,,,,,,2024-08-07,1,,,,,トータルアピアランスケアジッセンケンキュウカイ,0
2141,8011005010629,新規,0,2024-08-07,2024-08-07,一般社団法人つながりＬＡＢＯ,,その他の設立登記法人,東京都,渋谷区,神宮前６丁目２３番４号桑野ビル２階,,13,113,1500001,,,,,,,2024-08-07,1,,,,,ツナガリラボ,0
2149,8011101108194,新規,0,2024-08-07,2024-08-07,ＰＲＥＳＳ　ＣＯＮＦＥＲＥＮＣＥ　ＡＰＯＬＯＧＹ株式会社,,株式会社,東京都,新宿区,西新宿７丁目５番５号Ｐｌａｚａ西新宿ＵＣＦ４階,,13,104,1600023,,,,,,,2024-08-07,1,,,,,プレスカンファレンスアポロジー,0
2150,8011101108293,新規,0,2024-08-07,2024-08-07,株式会社ＧＯＡＴ,,株式会社,東京都,新宿区,西新宿７丁目８－５ＴＡＫＥ７西新宿４０２,,13,104,1600023,,,,,,,2024-08-07,1,,,,,ゴート,0
2151,8011101108302,新規,0,2024-08-07,2024-08-07,Ｓｕｎ’ｓ　Ｓｏｎ株式会社,,株式会社,東京都,新宿区,百人町２丁目２０－２３－２０３,,13,104,1690073,,,,,,,2024-08-07,1,,,,,サンズサン,0
2152,8011103014754,新規,0,2024-08-07,2024-08-07,合同会社新游,,合同会社,東京都,新宿区,若松町２５－１２ｂｒｉｌｌｉａ新宿若松ｉｄ３０７,,13,104,1620056,,,,,,,2024-08-07,1,,,,,ニイル,0
2153,8011103014762,新規,0,2024-08-07,2024-08-07,合同会社ＤＲＡＩ,,合同会社,東京都,新宿区,西新宿３丁目－２番－９号,,13,104,1600023,,,,,,,2024-08-07,1,,,,,ドライ,0
2160,8011301029901,新規,0,2024-08-07,2024-08-07,株式会社ＣＨＡＫＯ’Ｓ,,株式会社,東京都,杉並区,阿佐谷北５丁目１３番７号,,13,115,1660001,,,,,,,2024-08-07,1,,,,,チャコズ,0
2165,8011801044656,新規,0,2024-08-07,2024-08-07,軍輝株式会社,,株式会社,東京都,足立区,千住柳町２５－１－１０３号室,,13,121,1200032,,,,,,,2024-08-07,1,,,,,グンキ,0
2167,8011803006381,新規,0,2024-08-07,2024-08-07,合同会社ＬＡＲＧＯ,,合同会社,東京都,足立区,千住曙町４１番３－１４０２号,,13,121,1200023,,,,,,,2024-08-07,1,,,,,ラルゴ,0
2172,8012701018394,新規,0,2024-08-07,2024-08-07,ＣＦＳスタイル株式会社,,株式会社,東京都,東久留米市,下里１丁目１２番１０号,,13,222,2030043,,,,,,,2024-08-07,1,,,,,シーエフエススタイル,0
2173,8013301052718,新規,0,2024-08-07,2024-08-07,エックス・アンド・キー・インベストメント・パートナーズ株式会社,,株式会社,東京都,豊島区,池袋２丁目３５番４号大庭ビル３０５,,13,116,1710014,,,,,,,2024-08-07,1,,,,,エックスアンドキーインベストメントパートナーズ,0
2177,8020001024600,新規,0,2024-08-07,2024-08-07,株式会社室工業所,,株式会社,神奈川県,横浜市神奈川区,台町１３番地の８シェリーヒルズ横浜５階,,14,102,2210834,,,,,,,2024-08-07,1,,,,,ムロコウギョウショ,0
2187,8020001158365,新規,0,2024-08-07,2024-08-07,株式会社ウェルビーイング,,株式会社,神奈川県,横浜市港南区,港南中央１４番地７号ザ・テラス１０３号室,,14,111,2330000,,,,,,,2024-08-07,1,,,,,ウェルビーイング,0
2192,8020003026578,新規,0,2024-08-07,2024-08-07,ヘルスケアエンゲージ合同会社,,合同会社,神奈川県,横浜市神奈川区,金港町５－１４クアドリフォリオ８階,,14,102,2210056,,,,,,,2024-08-07,1,,,,,ヘルスケアエンゲージ,0
2193,8020003026586,新規,0,2024-08-07,2024-08-07,ルミエール．Ｋ．合同会社,,合同会社,神奈川県,川崎市多摩区,登戸３２６０,,14,135,2140014,,,,,,,2024-08-07,1,,,,,ルミエールケイ,0
2195,8021001082902,新規,0,2024-08-07,2024-08-07,株式会社アンド・リア,,株式会社,神奈川県,逗子市,池子３丁目２２番１３号エステートピア梢１０２号室,,14,208,2490003,,,,,,,2024-08-07,1,,,,,アンドリア,0
2196,8021001082935,新規,0,2024-08-07,2024-08-07,株式会社いろどり,,株式会社,神奈川県,伊勢原市,三ノ宮８７５番地,,14,214,2591103,,,,,,,2024-08-07,1,,,,,イロドリ,0
2199,8021003014853,新規,0,2024-08-07,2024-08-07,合同会社かなえコンサルティング,,合同会社,神奈川県,愛甲郡愛川町,半原２７００番地の３,,14,401,2430307,,,,,,,2024-08-07,1,,,,,カナエコンサルティング,0
2200,8021003014861,新規,0,2024-08-07,2024-08-07,石原合同会社,,合同会社,神奈川県,小田原市,酒匂４丁目１０番１－６０６号,,14,206,2560816,,,,,,,2024-08-07,1,,,,,イシハラ,0
2211,8030001161780,新規,0,2024-08-07,2024-08-07,株式会社車工房７２,,株式会社,埼玉県,入間市,東町４丁目６番１７号６,,11,225,3580002,,,,,,,2024-08-07,1,,,,,クルマコウボウナツ,0
2212,8030003024878,新規,0,2024-08-07,2024-08-07,合同会社喜源,,合同会社,埼玉県,さいたま市西区,大字飯田新田１８５番地１３,,11,101,3310068,,,,,,,2024-08-07,1,,,,,キエン,0
2222,8040001134851,新規,0,2024-08-07,2024-08-07,株式会社Ｍｉｒｔｈ,,株式会社,千葉県,千葉市稲毛区,小仲台６丁目１番４号北澤ビル２階,,12,103,2630043,,,,,,,2024-08-07,1,,,,,マース,0
2226,8040003025561,新規,0,2024-08-07,2024-08-07,Ａｏｎｏａ合同会社,,合同会社,千葉県,市川市,行徳駅前２丁目１０番１１号メゾンプラージュ１Ｆ,,12,203,2720133,,,,,,,2024-08-07,1,,,,,アオノア,0
2231,8060001037375,新規,0,2024-08-07,2024-08-07,株式会社８１,,株式会社,栃木県,栃木市,藤岡町大前３３３３番地３,,09,203,3231101,,,,,,,2024-08-07,1,,,,,エイティワン,0
2232,8060001037383,新規,0,2024-08-07,2024-08-07,株式会社アースライフジャパン,,株式会社,栃木県,小山市,大字出井１１９５番地４,,09,208,3230808,,,,,,,2024-08-07,1,,,,,アースライフジャパン,0
2234,8070001042036,新規,0,2024-08-07,2024-08-07,株式会社トロピカルガーデン,,株式会社,群馬県,藤岡市,鬼石６８番地１,,10,209,3701401,,,,,,,2024-08-07,1,,,,,トロピカルガーデン,0
2248,8090001018843,新規,0,2024-08-07,2024-08-07,株式会社八ヶ岳ガーデン,,株式会社,山梨県,北杜市,高根町小池３４番地１,,19,209,4080014,,,,,,,2024-08-07,1,,,,,ヤツガタケガーデン,0
2250,8100001037742,新規,0,2024-08-07,2024-08-07,日本高周波試験株式会社,,株式会社,長野県,伊那市,富県９０６７番地５,,20,209,3960621,,,,,,,2024-08-07,1,,,,,ニホンコウシュウハシケン,0
2252,8100003007685,新規,0,2024-08-07,2024-08-07,合同会社Ｆｕｒｅｎｄｏｒｉ,,合同会社,長野県,下伊那郡豊丘村,大字神稲４９６９－２,,20,416,3993202,,,,,,,2024-08-07,1,,,,,フレンドリー,0
2254,8110001038624,新規,0,2024-08-07,2024-08-07,株式会社高商,,株式会社,新潟県,新潟市江南区,天野３丁目２２番４号,,15,104,9501134,,,,,,,2024-08-07,1,,,,,タカショウ,0
2266,8120001267305,新規,0,2024-08-07,2024-08-07,株式会社ミライエ,,株式会社,大阪府,大阪市北区,梅田１丁目２番２号大阪駅前第２ビル１２－１２,,27,127,5300001,,,,,,,2024-08-07,1,,,,,ミライエ,0
2267,8120001267395,新規,0,2024-08-07,2024-08-07,溪谷株式会社,,株式会社,大阪府,大阪市此花区,春日出中１丁目９番１３号,,27,104,5540022,,,,,,,2024-08-07,1,,,,,ケイコク,0
2268,8120001267461,新規,0,2024-08-07,2024-08-07,株式会社わたしノさき,,株式会社,大阪府,大阪市北区,中崎西１丁目６番３６号サクラビル２１３,,27,127,5300015,,,,,,,2024-08-07,1,,,,,ワタシノサキ,0
2269,8120001267486,新規,0,2024-08-07,2024-08-07,住まいの相談診断株式会社,,株式会社,大阪府,大阪市中央区,高津１丁目１０番１８号栄光ビル２０１,,27,128,5420072,,,,,,,2024-08-07,1,,,,,スマイノソウダンシンダン,0
2270,8120001267560,新規,0,2024-08-07,2024-08-07,夏天株式会社,,株式会社,大阪府,大阪市大正区,三軒家西３丁目４番１６号中山ビル３０３Ｄ,,27,108,5510001,,,,,,,2024-08-07,1,,,,,カテン,0
2271,8120001267569,新規,0,2024-08-07,2024-08-07,京阪網購株式会社,,株式会社,大阪府,大阪市中央区,船場中央２丁目１番４号船場センタービル４号館地下一階Ｂ１０８ＲＯＹＡＬＯＦＦＩＣＥ内,,27,128,5410055,,,,,,,2024-08-07,1,,,,,ケイハンモウコウ,0
2272,8120001267593,新規,0,2024-08-07,2024-08-07,株式会社ＳＯＬＥＩＬ,,株式会社,大阪府,大阪市都島区,大東町１丁目３番５号,,27,102,5340002,,,,,,,2024-08-07,1,,,,,ソレイユ,0
2273,8120003027252,新規,0,2024-08-07,2024-08-07,合同会社Ｒ．Ｆ．ｈａｕｓ,,合同会社,大阪府,大阪市鶴見区,緑３丁目５番２１号,,27,124,5380054,,,,,,,2024-08-07,1,,,,,アールエフハウス,0
2275,8120005024479,新規,0,2024-08-07,2024-08-07,特定非営利活動法人鶴見緑地猫の会,,その他の設立登記法人,大阪府,大阪市鶴見区,今津北５丁目１１番２４号,,27,124,5380041,,,,,,,2024-08-07,1,,,,,ツルミリョクチネコノカイ,0
2278,8120101070113,新規,0,2024-08-07,2024-08-07,栄寿株式会社,,株式会社,大阪府,富田林市,寺池台２丁目１９番２３号,,27,214,5840073,,,,,,,2024-08-07,1,,,,,エイジュ,0
2279,8120901049570,新規,0,2024-08-07,2024-08-07,株式会社ＴＩＰＳＹ　ＤＯＧ　ＤＥＳＩＧＮ,,株式会社,大阪府,高槻市,芥川町２丁目４－４－１０３,,27,207,5691123,,,,,,,2024-08-07,1,,,,,ティプシードッグデザイン,0
2289,8130003009704,新規,0,2024-08-07,2024-08-07,合同会社ＯＮＥ,,合同会社,京都府,京都市東山区,末吉町７７－７祇園ＤＥＮ２Ｆ,,26,105,6050085,,,,,,,2024-08-07,1,,,,,ワン,0
2295,8140001135328,新規,0,2024-08-07,2024-08-07,株式会社ＫＭＣ,,株式会社,兵庫県,赤穂市,中広２番地１３,,28,212,6780232,,,,,,,2024-08-07,1,,,,,ケイエムシー,0
2296,8140001135410,新規,0,2024-08-07,2024-08-07,株式会社ＶＥＳＳＥＬ,,株式会社,兵庫県,神戸市中央区,海岸通１丁目１番２－１７０４号,,28,110,6500024,,,,,,,2024-08-07,1,,,,,ヴェゼル,0
2298,8140003020916,新規,0,2024-08-07,2024-08-07,合同会社関西空調サービス興業所,,合同会社,兵庫県,神戸市兵庫区,湊町１丁目４番６－４０５号,,28,105,6520812,,,,,,,2024-08-07,1,,,,,カンサイクウチョウサービスコウギョウショ,0
2299,8140003020932,新規,0,2024-08-07,2024-08-07,合同会社ラムール,,合同会社,兵庫県,神戸市北区,藤原台北町５丁目３－８－７０１,,28,109,6511301,,,,,,,2024-08-07,1,,,,,ラムール,0
2300,8140003020940,新規,0,2024-08-07,2024-08-07,合同会社ＨＵＫＵＺＩ,,合同会社,兵庫県,尼崎市,南武庫之荘２丁目１８番１２－２０５,,28,202,6610033,,,,,,,2024-08-07,1,,,,,フクジ,0
2301,8150001027466,新規,0,2024-08-07,2024-08-07,ボープランＪａｐａｎ株式会社,,株式会社,奈良県,奈良市,朱雀６丁目２１－１４,,29,201,6310806,,,,,,,2024-08-07,1,,,,,ボープランジャパン,0
2302,8170001018257,新規,0,2024-08-07,2024-08-07,株式会社谷口設備工業所,,株式会社,和歌山県,岩出市,根来４９１番地の４,,30,209,6496202,,,,,,,2024-08-07,1,,,,,タニグチセツビコウギョウショ,0
2309,8180001162590,新規,0,2024-08-07,2024-08-07,株式会社ａｘｉｓ,,株式会社,愛知県,あま市,七宝町桂河原１０７番地１,,23,237,4970004,,,,,,,2024-08-07,1,,,,,アクシス,0
2310,8180001162616,新規,0,2024-08-07,2024-08-07,株式会社ナゴヤカ,,株式会社,愛知県,瀬戸市,上之山町１丁目１７５番地,,23,204,4890964,,,,,,,2024-08-07,1,,,,,ナゴヤカ,0
2311,8180001162673,新規,0,2024-08-07,2024-08-07,株式会社愛知エステート,,株式会社,愛知県,名古屋市千種区,今池１丁目４番２号,,23,101,4640850,,,,,,,2024-08-07,1,,,,,アイチエステート,0
2312,8180001162681,新規,0,2024-08-07,2024-08-07,株式会社愛基,,株式会社,愛知県,常滑市,大和町４丁目５１５番地,,23,216,4790844,,,,,,,2024-08-07,1,,,,,アイキ,0
2313,8180001162698,新規,0,2024-08-07,2024-08-07,Ｍｉｌｌａｔ　Ｔｒａｄｉｎｇ株式会社,,株式会社,愛知県,名古屋市港区,小碓１丁目５５７番地,,23,111,4550801,,,,,,,2024-08-07,1,,,,,ミラットトレーディング,0
2318,8180301038945,新規,0,2024-08-07,2024-08-07,アサイーモーションジャパン株式会社,,株式会社,愛知県,豊橋市,東幸町字東明１３１番地２,,23,201,4400843,,,,,,,2024-08-07,1,,,,,アサイーモーションジャパン,0
2319,8180303006215,新規,0,2024-08-07,2024-08-07,合同会社ＥＳＴ,,合同会社,愛知県,豊田市,元城町４丁目１９－１名古庄ビル２０２,,23,211,4710024,,,,,,,2024-08-07,1,,,,,エスト,0
2323,8200001042798,新規,0,2024-08-07,2024-08-07,株式会社サーカス,,株式会社,岐阜県,高山市,赤保木町１０００番地,,21,203,5060045,,,,,,,2024-08-07,1,,,,,サーカス,0
2325,8210003001826,新規,0,2024-08-07,2024-08-07,インフィニティエイト合同会社,,合同会社,福井県,鯖江市,中野町第１０９号２３番地,,18,207,9160033,,,,,,,2024-08-07,1,,,,,インフィニティエイト,0
2329,8230003002269,新規,0,2024-08-07,2024-08-07,合同会社みやびの郷,,合同会社,富山県,富山市,蓮町５丁目８番１６号,,16,201,9318333,,,,,,,2024-08-07,1,,,,,ミヤビノサト,0
2330,8230005009403,新規,0,2024-08-07,2024-08-07,一般社団法人やまどり学園,,その他の設立登記法人,富山県,射水市,中太閤山９丁目１９番地,,16,211,9390363,,,,,,,2024-08-07,1,,,,,ヤマドリガクエン,0
2336,8240001063650,新規,0,2024-08-07,2024-08-07,株式会社藤元電気,,株式会社,広島県,福山市,瀬戸町大字地頭分１８番地５,,34,207,7200837,,,,,,,2024-08-07,1,,,,,フジモトデンキ,0
2337,8240001063675,新規,0,2024-08-07,2024-08-07,株式会社サルビア,,株式会社,広島県,廿日市市,阿品２丁目３－１１,,34,213,7380054,,,,,,,2024-08-07,1,,,,,サルビア,0
2340,8240003006797,新規,0,2024-08-07,2024-08-07,合同会社ＨＡＲＡ,,合同会社,広島県,広島市佐伯区,坪井１丁目２番１２号,,34,108,7315142,,,,,,,2024-08-07,1,,,,,ハラ,0
2342,8290001106603,新規,0,2024-08-07,2024-08-07,株式会社福寿,,株式会社,福岡県,福岡市南区,中尾２丁目２４番２号,,40,134,8111364,,,,,,,2024-08-07,1,,,,,フクジュ,0
2344,8290003015629,新規,0,2024-08-07,2024-08-07,Ａｎｉｍａｔｅｄ　Ｃａｒｂｏｎ合同会社,,合同会社,福岡県,福岡市中央区,大名１丁目３番４１号プリオ大名ビル２Ｆ,,40,133,8100041,,,,,,,2024-08-07,1,,,,,アニメイティッドカーボン,0
2345,8290005019487,新規,0,2024-08-07,2024-08-07,司法書士法人大手門事務所,,その他の設立登記法人,福岡県,福岡市中央区,舞鶴２丁目２番３号,,40,133,8100073,,,,,,,2024-08-07,1,,,,,オオテモンジムショ,0
2347,8290801030762,新規,0,2024-08-07,2024-08-07,株式会社雅,,株式会社,福岡県,北九州市八幡西区,浅川学園台２丁目１６番５号,,40,109,8070871,,,,,,,2024-08-07,1,,,,,ミヤビ,0
2349,8300001013871,新規,0,2024-08-07,2024-08-07,株式会社車動,,株式会社,佐賀県,武雄市,山内町大字鳥海９２６１番地,,41,206,8492302,,,,,,,2024-08-07,1,,,,,シャドウ,0
2356,8310003004835,新規,0,2024-08-07,2024-08-07,合同会社シトラス,,合同会社,長崎県,長崎市,千歳町６－１１高島第３ビル３０１,,42,201,8528135,,,,,,,2024-08-07,1,,,,,シトラス,0
2359,8330001032308,新規,0,2024-08-07,2024-08-07,株式会社Ｃｈａｐｐｙ,,株式会社,熊本県,熊本市東区,御領２丁目６番１３号,,43,102,8618035,,,,,,,2024-08-07,1,,,,,チャッピー,0
2360,8330001032324,新規,0,2024-08-07,2024-08-07,株式会社こころ,,株式会社,熊本県,上天草市,大矢野町中１０７３８番地６,,43,212,8693603,,,,,,,2024-08-07,1,,,,,ココロ,0
2361,8330001032332,新規,0,2024-08-07,2024-08-07,株式会社野嶋畜産,,株式会社,熊本県,天草市,五和町御領５７２番地,,43,215,8632201,,,,,,,2024-08-07,1,,,,,ノジマチクサン,0
2362,8340001026705,新規,0,2024-08-07,2024-08-07,スピードバード株式会社,,株式会社,鹿児島県,鹿児島市,持木町１２番地１,,46,201,8911542,,,,,,,2024-08-07,1,,,,,スピードバード,0
2367,8370001051592,新規,0,2024-08-07,2024-08-07,株式会社ＳＳｓｓａｎｃｔｕａｒｙ,,株式会社,宮城県,仙台市青葉区,木町通２丁目４番１６－５号Ｄ－ｒｏｏｍ木町通二丁目２０２,,04,101,9800801,,,,,,,2024-08-07,1,,,,,スリーエスサンクチュアリー,0
2368,8370003006719,新規,0,2024-08-07,2024-08-07,ヤマノメグミ合同会社,,合同会社,宮城県,牡鹿郡女川町,鷲神２丁目１３－２,,04,581,9862247,,,,,,,2024-08-07,1,,,,,ヤマノメグミ,0
2377,8420003002968,新規,0,2024-08-07,2024-08-07,合同会社訪問介護ステーション月と太陽,,合同会社,青森県,八戸市,大字石手洗字京塚１ー４１,,02,203,0310013,,,,,,,2024-08-07,1,,,,,ホウモンカイゴステーションツキトタイヨウ,0
2385,8430003016653,新規,0,2024-08-07,2024-08-07,合同会社ＣＯＸ,,合同会社,北海道,札幌市豊平区,平岸二条１４丁目１番１３リビオ南平岸サニーウエスト９０１,,01,105,0620932,,,,,,,2024-08-07,1,,,,,コックス,0
2391,8450003002528,新規,0,2024-08-07,2024-08-07,合同会社あにゃＫＩＴＣＨＥＮ,,合同会社,北海道,旭川市,豊岡十四条７丁目５番２号,,01,204,0788244,,,,,,,2024-08-07,1,,,,,アニャキッチン,0
2400,8500001025797,新規,0,2024-08-07,2024-08-07,藤原板金株式会社,,株式会社,愛媛県,四国中央市,金田町金川１０４３番地５,,38,213,7990123,,,,,,,2024-08-07,1,,,,,フジワラバンキン,0
2404,8700150126673,新規,0,2024-08-07,2024-08-07,ＡＢＯＶ半導体　株式会社,,外国会社等,大阪府,大阪市淀川区,木川東４丁目１６番１１－７０１号,,27,123,5320012,大韓民国忠清北道清州市清原郡梧倉邑角里１ギル９３,00135839,,,,,2024-08-07,1,,,,,アボーブハンドウタイカブシキガイシヤ,0
2413,9010001247036,新規,0,2024-08-07,2024-08-07,株式会社エージェントポート,,株式会社,東京都,中央区,築地３丁目７番１号,,13,102,1040045,,,,,,,2024-08-07,1,,,,,エージェントポート,0
2414,9010001247044,新規,0,2024-08-07,2024-08-07,株式会社ミライプランツ,,株式会社,東京都,中央区,銀座１丁目１２－４Ｎ＆ＥＢＬＤ．７階,,13,102,1040061,,,,,,,2024-08-07,1,,,,,ミライプランツ,0
2415,9010001247176,新規,0,2024-08-07,2024-08-07,株式会社マティキュラス,,株式会社,東京都,中央区,日本橋兜町１７番２号兜町第６葉山ビル４Ｆ,,13,102,1030026,,,,,,,2024-08-07,1,,,,,,0
2416,9010001247201,新規,0,2024-08-07,2024-08-07,株式会社イバン,,株式会社,東京都,千代田区,一ツ橋２丁目６番１３号－９０１号室,,13,101,1010003,,,,,,,2024-08-07,1,,,,,イバン,0
2417,9010001247234,新規,0,2024-08-07,2024-08-07,和多志ジャパン株式会社,,株式会社,東京都,中央区,銀座１丁目２２－１１銀座大竹ビジデンス２Ｆ,,13,102,1040061,,,,,,,2024-08-07,1,,,,,ワタシジャパン,0
2418,9010001247259,新規,0,2024-08-07,2024-08-07,株式会社キュリアトラストエージェント,,株式会社,東京都,中央区,勝どき２丁目１０番４号宮野海運ビル６階,,13,102,1040054,,,,,,,2024-08-07,1,,,,,キュリアトラストエージェント,0
2419,9010001247267,新規,0,2024-08-07,2024-08-07,株式会社Ｖａｌｕａｂｌｅ　Ｏｎｅ,,株式会社,東京都,中央区,新川１丁目３－２１,,13,102,1040033,,,,,,,2024-08-07,1,,,,,バリュアブルワン,0
2420,9010001247275,新規,0,2024-08-07,2024-08-07,株式会社フィオリエ,,株式会社,東京都,中央区,銀座１丁目２２番１１号銀座大竹ビジデンス２Ｆ,,13,102,1040061,,,,,,,2024-08-07,1,,,,,フィオリエ,0
2421,9010001247325,新規,0,2024-08-07,2024-08-07,株式会社遊休地活用ラボ,,株式会社,東京都,千代田区,神田須田町１丁目７番地８ＶＯＲＴ秋葉原ＩＶ－２Ｆ,00135859,13,101,1010041,,,,,,,2024-08-07,1,,,,,ユウキュウチカツヨウラボ,0
2422,9010001247333,新規,0,2024-08-07,2024-08-07,株式会社ダーマラボ,,株式会社,東京都,千代田区,神田神保町１丁目１０３番地東京パークタワー２５０６,,13,101,1010051,,,,,,,2024-08-07,1,,,,,ダーマラボ,0
2424,9010005038596,新規,0,2024-08-07,2024-08-07,一般社団法人ＧＤホールディングス,,その他の設立登記法人,東京都,千代田区,神田和泉町１番地６－１６,,13,101,1010024,,,,,,,2024-08-07,1,,,,,ジーディーホールディングス,0
2428,9010401184267,新規,0,2024-08-07,2024-08-07,株式会社ＣｙｃｌｅＮｅｃｔ,,株式会社,東京都,港区,南麻布１丁目９番１５－２０４号,,13,103,1060047,,,,,,,2024-08-07,1,,,,,サイクルネクト,0
2431,9010403033158,新規,0,2024-08-07,2024-08-07,クリーンテック合同会社,,合同会社,東京都,港区,白金台２丁目９番１２－１００３号,,13,103,1080071,,,,,,,2024-08-07,1,,,,,クリーンテック,0
2439,9010801035301,新規,0,2024-08-07,2024-08-07,株式会社ゼロワン,,株式会社,東京都,大田区,大森西２丁目１１番２号ザ・シオジ２０１,,13,111,1430015,,,,,,,2024-08-07,1,,,,,ゼロワン,0
2443,9010903009269,新規,0,2024-08-07,2024-08-07,合同会社井上商店,,合同会社,東京都,世田谷区,三軒茶屋２丁目４７番７号駒ビル１階,,13,112,1540024,,,,,,,2024-08-07,1,,,,,イノウエショウテン,0
2448,9011001163743,新規,0,2024-08-07,2024-08-07,ＷｅＳｔａｒｔ株式会社,,株式会社,東京都,渋谷区,道玄坂１丁目１０番８号渋谷道玄坂東急ビル２Ｆ－Ｃ,,13,113,1500043,,,,,,,2024-08-07,1,,,,,ウィースタート,0
2449,9011001163859,新規,0,2024-08-07,2024-08-07,株式会社ＳＥＲＯＴＯＮＥＣＴ,,株式会社,東京都,目黒区,中町１丁目３３番３ネイバーシティビル目黒１Ｆ,,13,110,1530065,,,,,,,2024-08-07,1,,,,,セロトネクト,0
2457,9011003019695,新規,0,2024-08-07,2024-08-07,合同会社ＡＷＳＭ,,合同会社,東京都,渋谷区,渋谷２丁目１９－１５宮益坂ビルディング６０９,,13,113,1500002,,,,,,,2024-08-07,1,,,,,オーサム,0
2460,9011101108292,新規,0,2024-08-07,2024-08-07,株式会社Ｒｅｖｉｅｗ　Ｈａｃｋ,,株式会社,東京都,新宿区,西新宿７丁目２２－９エスポワール富士４０１,,13,104,1600023,,,,,,,2024-08-07,1,,,,,レビューハック,0
2470,9011503006177,新規,0,2024-08-07,2024-08-07,合同会社翠匠,,合同会社,東京都,北区,滝野川１丁目１５番６号,,13,117,1140023,,,,,,,2024-08-07,1,,,,,スイショウ,0
2471,9011701027512,新規,0,2024-08-07,2024-08-07,フォーカスライト株式会社,,株式会社,東京都,江戸川区,中葛西１丁目２番１８－５０１号,,13,123,1340083,,,,,,,2024-08-07,1,,,,,フォーカスライト,0
2474,9011801044639,新規,0,2024-08-07,2024-08-07,株式会社ＫＫＤ,,株式会社,東京都,足立区,江北７丁目１１番１３号,,13,121,1230872,,,,,,,2024-08-07,1,,,,,ケーケーディー,0
2478,9012703003063,新規,0,2024-08-07,2024-08-07,合同会社あらしん堂,,合同会社,東京都,東村山市,栄町３丁目１６番地４３,,13,213,1890013,,,,,,,2024-08-07,1,,,,,アラシンドウ,0
2479,9012803003475,新規,0,2024-08-07,2024-08-07,合同会社ＢＫＧＫ,,合同会社,東京都,国立市,青柳２丁目１９番地の２４,,13,215,1860013,,,,,,,2024-08-07,1,,,,,バカガキ,0
2481,9013301052907,新規,0,2024-08-07,2024-08-07,株式会社北京商会,,株式会社,東京都,豊島区,東池袋２丁目６０－２,,13,116,1700013,,,,,,,2024-08-07,1,,,,,ペキンショウカイ,0
2484,9020001158356,新規,0,2024-08-07,2024-08-07,株式会社Ｂｕｉｌｄ０,,株式会社,神奈川県,川崎市多摩区,登戸乙耕地番２４９２,,14,135,2140014,,,,,,,2024-08-07,1,,,,,ビルドゼロ,0
2485,9020001158372,新規,0,2024-08-07,2024-08-07,株式会社ＮＩＮＥＴＹ‐ＯＮＥ,,株式会社,神奈川県,横浜市中区,山下町５８番地エクステ山下公園９０４号室,,14,104,2310023,,,,,,,2024-08-07,1,,,,,ナインティーワン,0
2486,9020001158380,新規,0,2024-08-07,2024-08-07,株式会社Ｆｉｔｆｕｎ,,株式会社,神奈川県,川崎市高津区,諏訪３丁目１７－６ツインステージｗ２０３,,14,134,2130004,,,,,,,2024-08-07,1,,,,,フィットファン,0
2490,9021001082802,新規,0,2024-08-07,2024-08-07,株式会社スタイルプラス,,株式会社,神奈川県,鎌倉市,大町４丁目９番３１号,,14,204,2480007,,,,,,,2024-08-07,1,,,,,スタイルプラス,0
2491,9021001082926,新規,0,2024-08-07,2024-08-07,株式会社瑠建設土木,,株式会社,神奈川県,相模原市中央区,上溝３６２－１７,,14,152,2520243,,,,,,,2024-08-07,1,,,,,リュウケンセツドボク,0
2492,9021001082934,新規,0,2024-08-07,2024-08-07,ＣＯＣＯＲＯ　ＰＬＡＣＥ株式会社,,株式会社,神奈川県,横須賀市,不入斗町３丁目４１番地２,,14,201,2380051,,,,,,,2024-08-07,1,,,,,ココロプレイス,0
2501,9030001161763,新規,0,2024-08-07,2024-08-07,株式会社ひなた,,株式会社,埼玉県,所沢市,星の宮２丁目１０－９,,11,208,3591127,,,,,,,2024-08-07,1,,,,,ヒナタ,0
2521,9040001134850,新規,0,2024-08-07,2024-08-07,株式会社オーエヌユウ,,株式会社,千葉県,市川市,大洲２丁目１３番７号,,12,203,2720032,,,,,,,2024-08-07,1,,,,,オーエヌユウ,0
2522,9040001134859,新規,0,2024-08-07,2024-08-07,ＨＭＲ株式会社,,株式会社,千葉県,柏市,松ケ崎１０３３番地１６,,12,217,2770835,,,,,,,2024-08-07,1,,,,,エイチエムアール,0
2524,9040003025577,新規,0,2024-08-07,2024-08-07,Ｏｆｆｉｃｅ　Ｓｔｅｌｌａ合同会社,,合同会社,千葉県,八街市,文違１３２番地１６３,,12,230,2891104,,,,,,,2024-08-07,1,,,,,オフィスステラ,0
2533,9060001037374,新規,0,2024-08-07,2024-08-07,株式会社サンエスプラントエンジニア,,株式会社,栃木県,真岡市,八木岡３６３番地,,09,209,3214334,,,,,,,2024-08-07,1,,,,,サンエスプラントエンジニア,0
2534,9060001037382,新規,0,2024-08-07,2024-08-07,株式会社熊倉工業,,株式会社,栃木県,栃木市,鍋山町７２２番地７,,09,203,3280205,,,,,,,2024-08-07,1,,,,,クマクラコウギョウ,0
2535,9060005010237,新規,0,2024-08-07,2024-08-07,特定非営利活動法人ガッツの会,,その他の設立登記法人,栃木県,足利市,田中町９５４番地４,,09,202,3260822,,,,,,,2024-08-07,1,,,,,ガッツノカイ,0
2542,9080001026433,新規,0,2024-08-07,2024-08-07,株式会社ぐるわん,,株式会社,静岡県,牧之原市,静波１６９８－６８,,22,226,4210422,,,,,,,2024-08-07,1,,,,,グルワン,0
2544,9080003003273,新規,0,2024-08-07,2024-08-07,合同会社ＲＩＳＯＬＵＴＯ,,合同会社,静岡県,静岡市葵区,瀬名川２丁目１９番３１号,,22,101,4200913,,,,,,,2024-08-07,1,,,,,リゾルート,0
2551,9080405007657,新規,0,2024-08-07,2024-08-07,一般社団法人Ｂ‐Ｒｉｄｇｅ,,その他の設立登記法人,静岡県,掛川市,長谷１丁目１５番地の６,,22,213,4360047,,,,,,,2024-08-07,1,,,,,ビーリッジ,0
2552,9100001037741,新規,0,2024-08-07,2024-08-07,株式会社Ｍ’ｚ　ＷＯＲＫＳ,,株式会社,長野県,長野市,真島町真島１５１５番地２,,20,201,3812204,,,,,,,2024-08-07,1,,,,,エムズワークス,0
2553,9100003007692,新規,0,2024-08-07,2024-08-07,Ｏｎｅ　Ｖ．Ｏ．Ｗ合同会社,,合同会社,長野県,千曲市,大字磯部６１２番地１,,20,218,3890806,,,,,,,2024-08-07,1,,,,,ワンヴァウ,0
2555,9110003005472,新規,0,2024-08-07,2024-08-07,合同会社ＡＳＸＥＥＤ,,合同会社,新潟県,新潟市江南区,砂岡３丁目３－１,,15,104,9500132,,,,,,,2024-08-07,1,,,,,アスシード,0
2565,9120001267353,新規,0,2024-08-07,2024-08-07,株式会社エーアイソリューション,,株式会社,大阪府,大阪市西淀川区,御幣島３丁目８番５０号,,27,113,5550012,,,,,,,2024-08-07,1,,,,,エーアイソリューション,0
2566,9120001267535,新規,0,2024-08-07,2024-08-07,株式会社エーデル,,株式会社,大阪府,大阪市東成区,東小橋１丁目１１番２号大河内ビル３階,,27,115,5370024,,,,,,,2024-08-07,1,,,,,エーデル,0
2572,9120003027219,新規,0,2024-08-07,2024-08-07,合同会社ＨＯＮ,,合同会社,大阪府,大阪市旭区,新森２丁目２２番１８号５号室,,27,117,5350022,,,,,,,2024-08-07,1,,,,,エイチオーエヌ,0
2573,9120003027243,新規,0,2024-08-07,2024-08-07,合同会社ｎｕｔｓ,,合同会社,大阪府,大阪市生野区,小路東６丁目１２番４号,,27,116,5440003,,,,,,,2024-08-07,1,,,,,ナッツ,0
2574,9120005024478,新規,0,2024-08-07,2024-08-07,一般社団法人宝恵駕振興会,,その他の設立登記法人,大阪府,大阪市北区,豊崎２丁目７番９号,,27,127,5310072,,,,,,,2024-08-07,1,,,,,ホエカゴシンコウカイ,0
2582,9120101070062,新規,0,2024-08-07,2024-08-07,株式会社太洋建設,,株式会社,大阪府,堺市西区,上５６４番地５プレサンスロジェ鳳公園２０１号,,27,144,5938311,,,,,,,2024-08-07,1,,,,,タイヨウケンセツ,0
2583,9120101070112,新規,0,2024-08-07,2024-08-07,株式会社ハルコーポレーション,,株式会社,大阪府,泉大津市,北豊中町２丁目１８番２３号,,27,206,5950012,,,,,,,2024-08-07,1,,,,,ハルコーポレーション,0
2586,9120901049561,新規,0,2024-08-07,2024-08-07,株式会社Ｔ２テック,,株式会社,大阪府,池田市,鉢塚２丁目３番２号,,27,204,5630024,,,,,,,2024-08-07,1,,,,,ティーツーテック,0
2589,9122001038338,新規,0,2024-08-07,2024-08-07,株式会社Ｌｅｏ,,株式会社,大阪府,大東市,北条３丁目１０番８号,,27,218,5740011,,,,,,,2024-08-07,1,,,,,レオ,0
2591,9130001077636,新規,0,2024-08-07,2024-08-07,株式会社ＭＡＴＣＨ,,株式会社,京都府,向日市,鶏冠井町秡所２１番地の８,,26,208,6170004,,,,,,,2024-08-07,1,,,,,マッチ,0
2602,9140001135293,新規,0,2024-08-07,2024-08-07,ＹＫテクノ株式会社,,株式会社,兵庫県,明石市,二見町福里５６６番地の６,,28,203,6740091,,,,,,,2024-08-07,1,,,,,ワイケイテクノ,0
2603,9140001135392,新規,0,2024-08-07,2024-08-07,株式会社麓,,株式会社,兵庫県,西宮市,豊楽町１番１８号,,28,204,6620072,,,,,,,2024-08-07,1,,,,,ロク,0
2604,9140001135450,新規,0,2024-08-07,2024-08-07,株式会社ＭＩＮＡＴＯ,,株式会社,兵庫県,神戸市中央区,熊内町４丁目６番１７号アクトワン第３ビル５Ｃ,,28,110,6510056,,,,,,,2024-08-07,1,,,,,ミナト,0
2606,9140003020923,新規,0,2024-08-07,2024-08-07,合同会社三毛猫,,合同会社,兵庫県,たつの市,龍野町堂本３５番地１４,,28,229,6794129,,,,,,,2024-08-07,1,,,,,ミケネコ,0
2607,9140003020931,新規,0,2024-08-07,2024-08-07,合同会社ココノネ,,合同会社,兵庫県,丹波市,市島町市島１１７番地３２,,28,223,6694324,,,,,,,2024-08-07,1,,,,,ココノネ,0
2616,9180001162581,新規,0,2024-08-07,2024-08-07,デンタルクラフト株式会社,,株式会社,愛知県,尾張旭市,東印場町２丁目１番地１,,23,226,4880830,,,,,,,2024-08-07,1,,,,,デンタルクラフト,0
2617,9180001162656,新規,0,2024-08-07,2024-08-07,株式会社スシオカ,,株式会社,愛知県,名古屋市西区,那古野２丁目２０番１６号－２,,23,104,4510042,,,,,,,2024-08-07,1,,,,,スシオカ,0
2618,9180001162763,新規,0,2024-08-07,2024-08-07,株式会社ＯＮ　ＫＮＯＴ,,株式会社,愛知県,西春日井郡豊山町,大字豊場字諏訪１５６番地,,23,342,4800202,,,,,,,2024-08-07,1,,,,,オンノット,0
2619,9180001162771,新規,0,2024-08-07,2024-08-07,株式会社良風,,株式会社,愛知県,名古屋市名東区,上社３丁目８０３番地,,23,115,4650025,,,,,,,2024-08-07,1,,,,,リョウフウ,0
2622,9180301038936,新規,0,2024-08-07,2024-08-07,株式会社ボディーサービススギウラ,,株式会社,愛知県,碧南市,若宮町６丁目３０番地,,23,209,4470818,,,,,,,2024-08-07,1,,,,,ボディーサービススギウラ,0
2624,9200001042780,新規,0,2024-08-07,2024-08-07,株式会社ＫＢＳ,,株式会社,岐阜県,羽島郡笠松町,円城寺１３１２番地パームヴィラＡ１０１号室,,21,303,5016035,,,,,,,2024-08-07,1,,,,,ケービーエス,0
2629,9210001019869,新規,0,2024-08-07,2024-08-07,ＨＫＰＲ株式会社,,株式会社,福井県,福井市,勝見３丁目１９－２４,,18,201,9100856,,,,,,,2024-08-07,1,,,,,エイチケーピーアール,0
2632,9220001026146,新規,0,2024-08-07,2024-08-07,株式会社ｐｅｒｉｄｏｔ　ｗｏｒｋｓ,,株式会社,石川県,金沢市,横川５丁目１２５番地４,,17,201,9218163,,,,,,,2024-08-07,1,,,,,ペリドワークス,0
2636,9230005009402,新規,0,2024-08-07,2024-08-07,特定非営利活動法人イナミライデザイン,,その他の設立登記法人,富山県,南砺市,井波３０９４番地,,16,210,9320211,,,,,,,2024-08-07,1,,,,,イナミライデザイン,0
2642,9240001063641,新規,0,2024-08-07,2024-08-07,株式会社ＢａｎＤｅ,,株式会社,広島県,福山市,新市町大字戸手５９５番地,,34,207,7293101,,,,,,,2024-08-07,1,,,,,バンデ,0
2643,9240001063666,新規,0,2024-08-07,2024-08-07,株式会社Ｋ‐Ｄｅｓｉｇｎ,,株式会社,広島県,呉市,川尻町西１丁目２１番１０号,,34,202,7372603,,,,,,,2024-08-07,1,,,,,ケーデザイン,0
2644,9240001063674,新規,0,2024-08-07,2024-08-07,ＴＭＴ株式会社,,株式会社,広島県,安芸郡府中町,本町５丁目１３番２２号,,34,302,7350006,,,,,,,2024-08-07,1,,,,,ティーエムティー,0
2645,9240001063682,新規,0,2024-08-07,2024-08-07,Ｂｅｅ株式会社,,株式会社,広島県,福山市,新浜町１丁目３番７号,,34,207,7210951,,,,,,,2024-08-07,1,,,,,ビー,0
2652,9250003003545,新規,0,2024-08-07,2024-08-07,合同会社ＹＣｏｎｎｅｃｔｈｉｏｎ’ｓ,,合同会社,山口県,防府市,岸津２丁目１－１１,,35,206,7470011,,,,,,,2024-08-07,1,,,,,ワイコネクションズ,0
2656,9270003001654,新規,0,2024-08-07,2024-08-07,合同会社ＫＩＭＵＲＡ,,合同会社,鳥取県,境港市,渡町２９５８番地１,,31,204,6840072,,,,,,,2024-08-07,1,,,,,キムラ,0
2657,9270005005604,新規,0,2024-08-07,2024-08-07,労働者協同組合かけはし,,その他の設立登記法人,鳥取県,米子市,尾高町３３番地,,31,202,6830814,,,,,,,2024-08-07,1,,,,,カケハシ,0
2658,9280003001876,新規,0,2024-08-07,2024-08-07,合同会社中国山地総合研究所,,合同会社,島根県,仁多郡奥出雲町,郡８６３,,32,343,6991702,,,,,,,2024-08-07,1,,,,,チュウゴクサンチソウゴウケンキュウジョ,0
2660,9290003015586,新規,0,2024-08-07,2024-08-07,合同会社ワイズファム,,合同会社,福岡県,福岡市早良区,城西１丁目１番地２１－５０３号,,40,137,8140003,,,,,,,2024-08-07,1,,,,,,0
2661,9290003015660,新規,0,2024-08-07,2024-08-07,Ｌｉｆｅ　Ａｌｉｖｅ合同会社,,合同会社,福岡県,大牟田市,大黒町１丁目３９番地７,,40,202,8360006,,,,,,,2024-08-07,1,,,,,ライフアライブ,0
2665,9320001020650,新規,0,2024-08-07,2024-08-07,株式会社ＭＥＴＳコネクト,,株式会社,大分県,大分市,城崎町２丁目２番４－８０６号アルバガーデングランデージ城崎,,44,201,8700045,,,,,,,2024-08-07,1,,,,,,0
2667,9320003004437,新規,0,2024-08-07,2024-08-07,合同会社エイトイノベーション,,合同会社,大分県,由布市,庄内町櫟木１６０番地１２,,44,213,8795404,,,,,,,2024-08-07,1,,,,,エイトイノベーション,0
2669,9340001026704,新規,0,2024-08-07,2024-08-07,株式会社すらいぶ,,株式会社,鹿児島県,肝属郡南大隅町,根占川北５７２番地２,,46,491,8932501,,,,,,,2024-08-07,1,,,,,スライブ,0
2670,9340003004567,新規,0,2024-08-07,2024-08-07,合同会社第一住宅設備,,合同会社,鹿児島県,霧島市,国分広瀬２丁目２４番２８－１号,,46,218,8994321,,,,,,,2024-08-07,1,,,,,ダイイチジュウタクセツビ,0
2671,9350001019137,新規,0,2024-08-07,2024-08-07,株式会社ＥＬＣＡＭＰＯ,,株式会社,宮崎県,西臼杵郡五ヶ瀬町,大字鞍岡２８４７番地イ,,45,443,8821201,,,,,,,2024-08-07,1,,,,,エルカンポ,0
2674,9360001034028,新規,0,2024-08-07,2024-08-07,株式会社大光財託,,株式会社,沖縄県,宜野湾市,真栄原２丁目２番３号,,47,205,9012215,,,,,,,2024-08-07,1,,,,,ダイコウザイタク,0
2675,9370001051600,新規,0,2024-08-07,2024-08-07,ＫＭＣ株式会社,,株式会社,宮城県,仙台市青葉区,中央２丁目４番５号アルボーレ仙台６階,,04,101,9800021,,,,,,,2024-08-07,1,,,,,ケイエムシー,0
2676,9370001051617,新規,0,2024-08-07,2024-08-07,ＫＤＳホールディングス株式会社,,株式会社,宮城県,仙台市若林区,沖野７丁目４番１０号,,04,103,9840831,,,,,,,2024-08-07,1,,,,,ケイディエスホールディングス,0
2682,9420003002967,新規,0,2024-08-07,2024-08-07,合同会社花実舎,,合同会社,青森県,十和田市,稲生町１４番５２号,,02,206,0340011,,,,,,,2024-08-07,1,,,,,カジツシャ,0
2684,9430003016660,新規,0,2024-08-07,2024-08-07,合同会社ａｘｃｅｌ,,合同会社,北海道,札幌市中央区,南一条西８丁目６番地２ＳＩＴＹビル６階,,01,101,0600061,,,,,,,2024-08-07,1,,,,,アクセル,0
2689,9700150126680,新規,0,2024-08-07,2024-08-07,健幸都市イノベーション・コンソーシアム,,その他,千葉県,柏市,若柴１７８番地４柏の葉キャンパス１４８街区２　ＫＯＩＬ５０５,,12,217,2770871,,,,,,,2024-08-07,1,,,,,ケンコウトシイノベーションコンソーシアム,0
