sequenceNumber,corporateNumber,process,correct,updateDate,changeDate,name,nameImageId,kind,prefectureName,cityName,streetNumber,addressImageId,prefectureCode,cityCode,postCode,addressOutside,addressOutsideImageId,closeDate,closeCause,successorCorporateNumber,changeCause,assignmentDate,latest,enName,enPrefectureName,enCityName,enAddressOutside,furigana,hihyoji
20,1010401125773,登記記録の閉鎖等,0,2025-12-19,2025-12-17,社宅ネット株式会社,,株式会社,徳島県,徳島市,中常三島町１丁目３２番地の１,,36,201,7700813,,,2025-12-17,合併による解散等,7120001138432,令和７年１２月１６日大阪市中央区南船場三丁目９番１０号徳島ビル株式会社ソフィア（7120001138432）に合併し解散,2016-07-15,1,,,,,シャタクネット,0
24,1010401186188,登記記録の閉鎖等,0,2025-12-19,2025-12-01,ＤＢ　Ｐｙｒａｍｉｄ　ＡｃｑＣｏ株式会社,,株式会社,東京都,港区,白金台３丁目１０番１０号,,13,103,1080071,,,2025-12-01,清算の結了等,,,2024-11-05,1,,,,,ディービーピラミッドアクコ,0
31,1010403029139,登記記録の閉鎖等,0,2025-12-19,2025-12-01,合同会社ＡＦＲＡ　ＳＨＩＢＵＹＡ,,合同会社,東京都,港区,虎ノ門３丁目２２番１０－２０１号,,13,103,1050001,,,2025-12-01,清算の結了等,,,2022-12-13,1,,,,,エーエフアールエーシブヤ,0
33,1010405017678,登記記録の閉鎖等,0,2025-12-19,2025-12-01,一般社団法人かがやきＢＴＳ,,その他の設立登記法人,東京都,港区,虎ノ門４丁目３番１号城山トラストタワー３３階,,13,103,1050001,,,2025-12-01,清算の結了等,,,2019-04-26,1,,,,,カガヤキビーティーエス,0
34,1010405021333,登記記録の閉鎖等,0,2025-12-19,2025-12-01,一般社団法人ＨＤＧ３４,,その他の設立登記法人,東京都,港区,虎ノ門３丁目２２番１０－２０１号,,13,103,1050001,,,2025-12-01,清算の結了等,,,2022-09-09,1,,,,,エイチディージースリーフォー,0
39,1010602022233,登記記録の閉鎖等,0,2025-12-19,2025-12-15,有限会社高信産業,,有限会社,埼玉県,所沢市,東所沢和田１丁目１番１８号,,11,208,3590023,,,2025-12-15,清算の結了等,,,2015-10-05,1,,,,,コウシンサンギョウ,0
50,1010901044440,登記記録の閉鎖等,0,2025-12-19,2025-12-01,株式会社Ｐａｉｒｓエンゲージ,,株式会社,東京都,港区,三田１丁目４番１号,,13,103,1080073,,,2025-12-01,合併による解散等,8010401091860,令和７年１１月３０日東京都港区三田一丁目４番１号株式会社エウレカ（8010401091860）に合併し解散,2019-06-28,1,,,,,ペアーズエンゲージ,0
61,1011002020620,登記記録の閉鎖等,0,2025-12-19,2025-12-08,有限会社モニカ,,有限会社,東京都,渋谷区,代々木２丁目２３番１－２７０号佐藤吉重税理士事務所内,,13,113,1510053,,,2025-12-08,清算の結了等,,,2015-10-05,1,,,,,モニカ,0
81,1013102002556,登記記録の閉鎖等,0,2025-12-19,2025-12-15,有限会社旭製作所,,有限会社,東京都,西多摩郡瑞穂町,大字武蔵２１５番地の２,,13,303,1901213,,,2025-12-15,清算の結了等,,,2015-10-05,1,,,,,アサヒセイサクショ,0
91,1020001000632,登記記録の閉鎖等,0,2025-12-19,2025-12-15,株式会社コーシン,,株式会社,神奈川県,横浜市泉区,岡津町２２３５番地,,14,116,2450003,,,2025-12-15,清算の結了等,,,2015-10-05,1,,,,,コーシン,0
101,1020002035867,登記記録の閉鎖等,0,2025-12-19,2025-12-15,有限会社坂本工務店,,有限会社,神奈川県,横浜市神奈川区,平川町７番地１,,14,102,2210812,,,2025-12-15,清算の結了等,,,2015-10-05,1,,,,,サカモトコウムテン,0
102,1020003020249,登記記録の閉鎖等,0,2025-12-19,2025-12-15,合同会社スノードロップ,,合同会社,神奈川県,川崎市多摩区,枡形６丁目１８番６３号,,14,135,2140032,,,2025-12-15,清算の結了等,,,2021-08-02,1,,,,,スノードロップ,0
104,1020005010058,登記記録の閉鎖等,0,2025-12-19,2025-12-11,特定非営利活動法人ｒｉｇｏ,,その他の設立登記法人,神奈川県,川崎市宮前区,馬絹４丁目１３番１８－４０２号宮崎台南パーク・ホームズ弐番館,,14,136,2160035,,,2025-12-11,清算の結了等,,,2015-10-05,1,,,,,,0
107,1021001038373,登記記録の閉鎖等,0,2025-12-19,2025-12-02,株式会社湘南すずきプランニング,,株式会社,神奈川県,平塚市,南金目１８５４番地,,14,203,2591201,,,2025-12-02,清算の結了等,,,2015-10-05,1,,,,,,0
111,1030001069329,登記記録の閉鎖等,0,2025-12-19,2025-11-11,協立ラミネート株式会社,,株式会社,埼玉県,入間郡毛呂山町,大字長瀬２１１６番地,,11,326,3500443,,,2025-11-11,合併による解散等,5010401149934,令和７年１１月１日東京都台東区台東四丁目１１番４号クラフツ株式会社（5010401149934）に合併し解散,2015-10-05,1,,,,,キョウリツラミネート,0
116,1030002120767,登記記録の閉鎖等,0,2025-12-19,2025-12-08,有限会社サンハーモニー企画,,有限会社,埼玉県,日高市,大字高萩５９７番地の８,,11,242,3501213,,,2025-12-08,清算の結了等,,,2015-10-05,1,,,,,サンハーモニーキカク,0
119,1030003011932,登記記録の閉鎖等,0,2025-12-19,2025-12-12,合同会社エフプロト,,合同会社,埼玉県,深谷市,櫛挽１３３番地１,,11,218,3690212,,,2025-12-12,清算の結了等,,,2018-05-23,1,,,,,エフプロト,0
122,1040001013905,登記記録の閉鎖等,0,2025-12-19,2025-12-01,株式会社ワールドワン,,株式会社,千葉県,四街道市,栗山１０５２番地３６９,,12,228,2840027,,,2025-12-01,清算の結了等,,,2015-10-05,1,,,,,ワールドワン,0
149,1080102006176,登記記録の閉鎖等,0,2025-12-19,2025-12-16,有限会社弁天堂薬局,,有限会社,静岡県,沼津市,市場町１１番２３号,,22,203,4100831,,,2025-12-16,清算の結了等,,,2015-10-05,1,,,,,ベンテンドウヤッキョク,0
154,1110001028037,登記記録の閉鎖等,0,2025-12-19,2025-12-15,株式会社根知ライスファーム,,株式会社,新潟県,糸魚川市,大字根小屋１１９７番地１,,15,216,9490536,,,2025-12-15,清算の結了等,,,2015-10-05,1,,,,,ネチライスファーム,0
156,1110005012078,登記記録の閉鎖等,0,2025-12-19,2025-12-08,特定非営利活動法人ながおか生活情報交流ねっと,,その他の設立登記法人,新潟県,長岡市,高見町４４１４,,15,202,9400004,,,2025-12-08,清算の結了等,,,2015-10-05,1,,,,,ナガオカセイカツジョウホウコウリュウネット,0
160,1120001183888,登記記録の閉鎖等,0,2025-12-19,2025-12-16,ファーマーズリンク株式会社,,株式会社,大阪府,大阪市生野区,桃谷５丁目４番２８号,,27,116,5440034,,,2025-12-16,清算の結了等,,,2015-10-05,1,,,,,ファーマーズリンク,0
172,1120005006491,登記記録の閉鎖等,0,2025-12-19,2025-12-15,大阪車庫事業協同組合,,その他の設立登記法人,大阪府,大阪市港区,波除５丁目２番１３号,,27,107,5520001,,,2025-12-15,清算の結了等,,,2015-10-05,1,,,,,オオサカシャコ,0
176,1120903003292,登記記録の閉鎖等,0,2025-12-19,2025-12-15,合同会社ＯＪＦプロパティ１号,,合同会社,大阪府,大阪市中央区,安土町２丁目２番１５号,,27,128,5410052,,,2025-12-15,清算の結了等,,,2020-07-20,1,,,,,オージェイエフプロパティイチゴウ,0
193,1160002012200,登記記録の閉鎖等,0,2025-12-19,2025-12-03,有限会社高島電業,,有限会社,滋賀県,草津市,桜ケ丘４丁目６番４７号,,25,206,5250057,,,2025-12-03,清算の結了等,,,2015-10-05,1,,,,,タカシマデンギョウ,0
194,1180001042782,登記記録の閉鎖等,0,2025-12-19,2025-12-17,株式会社三喜,,株式会社,愛知県,名古屋市中川区,柳島町３丁目７番地,,23,110,4540024,,,2025-12-17,清算の結了等,,,2015-10-05,1,,,,,サンキ,0
206,1190002017568,登記記録の閉鎖等,0,2025-12-19,2025-12-17,ホクト有限会社,,有限会社,三重県,桑名市,長島町押付字三番縄４１番地の３,,24,205,5111113,,,2025-12-17,清算の結了等,,,2015-10-05,1,,,,,ホクト,0
207,1190005011155,登記記録の閉鎖等,0,2025-12-19,2025-12-12,一般社団法人ル・モンド,,その他の設立登記法人,三重県,四日市市,三栄町２番１３号宝ビル４Ｆ,,24,202,5100068,,,2025-12-12,清算の結了等,,,2018-02-19,1,,,,,ルモンド,0
211,1220001006626,登記記録の閉鎖等,0,2025-12-19,2025-12-16,株式会社松永商店,,株式会社,石川県,金沢市,打木町東３６７番地,,17,201,9200377,,,2025-12-16,清算の結了等,,,2015-10-05,1,,,,,マツナガショウテン,0
218,1290001035965,登記記録の閉鎖等,0,2025-12-19,2025-12-04,日本フードテクニック株式会社,,株式会社,福岡県,福岡市城南区,荒江１丁目１４番４－１０２号,,40,136,8140101,,,2025-12-04,清算の結了等,,,2015-10-05,1,,,,,ニホンフードテクニック,0
230,1310002003456,登記記録の閉鎖等,0,2025-12-19,2025-12-16,有限会社東工シヤツター長崎販売,,有限会社,長崎県,長崎市,城栄町２９番７８号,,42,201,8528034,,,2025-12-16,清算の結了等,,,2015-10-05,1,,,,,トウコウシャッターナガサキハンバイ,0
241,1370001051285,登記記録の閉鎖等,0,2025-12-19,2025-12-02,株式会社大葛籠,,株式会社,宮城県,仙台市青葉区,本町１丁目５番２８号カーニープレイス仙台駅前通６０３号室,,04,101,9800014,,,2025-12-02,清算の結了等,,,2024-05-13,1,,,,,オオツヅラ,0
247,1380002027044,登記記録の閉鎖等,0,2025-12-19,2025-12-16,有限会社トオノ,,有限会社,福島県,いわき市,泉町玉露字山下６１番地の１,,07,204,9718186,,,2025-12-16,清算の結了等,,,2015-10-05,1,,,,,トオノ,0
262,1430002012131,登記記録の閉鎖等,0,2025-12-19,2025-12-15,有限会社武田ハウス工業,,有限会社,北海道,札幌市豊平区,月寒東二条１９丁目１０番１５号,,01,105,0620052,,,2025-12-15,清算の結了等,,,2015-10-05,1,,,,,,0
264,1430003015414,登記記録の閉鎖等,0,2025-12-19,2025-12-16,合同会社メタローグ,,合同会社,北海道,札幌市中央区,北一条西２３丁目２番１１－２０６号,,01,101,0640821,,,2025-12-16,清算の結了等,,,2023-09-06,1,,,,,メタローグ,0
266,1440002003220,登記記録の閉鎖等,0,2025-12-19,2025-12-18,株式会社仁光電機,,株式会社,北海道,函館市,桔梗町３７９番地２４,,01,202,0410801,,,2025-12-18,清算の結了等,,,2015-10-05,1,,,,,ニコウデンキ,0
273,1490003000402,登記記録の閉鎖等,0,2025-12-19,2025-12-15,イーソナー・リアルエステート・マネージメント合同会社,,合同会社,高知県,高知市,朝倉南町８番３２号,,39,201,7808075,,,2025-12-15,合併による解散等,4490001003387,令和７年１２月１５日高知市朝倉南町８番３０号株式会社イーソナー（4490001003387）に合併し解散,2015-10-05,1,,,,,イーソナーリアルエステートマネージメント,0
287,2010001183907,登記記録の閉鎖等,0,2025-12-19,2025-11-26,ＫＥＩＲＥＴＳＵ・ＪＡＰＡＮ株式会社,,株式会社,東京都,渋谷区,恵比寿１丁目１９番１９号,,13,113,1500013,,,2025-11-26,清算の結了等,,,2017-05-31,1,,,,,ケイレツジャパン,0
288,2010001189953,登記記録の閉鎖等,0,2025-12-19,2025-12-15,株式会社ＬＩＰ,,株式会社,東京都,品川区,東五反田４丁目５番２号五反田ＮＴビル２階,,13,109,1410022,,,2025-12-15,清算の結了等,,,2018-03-02,1,,,,,エルアイピー,0
293,2010003020100,登記記録の閉鎖等,0,2025-12-19,2025-12-05,ＨＭＬ合同会社,,合同会社,東京都,千代田区,丸の内１丁目４番１号東京共同会計事務所内,,13,101,1000005,,,2025-12-05,清算の結了等,,,2015-10-05,1,,,,,エイチエムエル,0
312,2010403014643,登記記録の閉鎖等,0,2025-12-19,2025-11-28,ヘルスシナジー合同会社,,合同会社,東京都,港区,麻布十番１丁目１１番１０号十番アネックス３Ｆ,,13,103,1060045,,,2025-11-28,清算の結了等,,,2016-03-30,1,,,,,,0
313,2010403020666,登記記録の閉鎖等,0,2025-12-19,2025-12-01,合同会社かがやきシニアレジデンス,,合同会社,東京都,港区,虎ノ門４丁目３番１号城山トラストタワー３３階,,13,103,1050001,,,2025-12-01,清算の結了等,,,2019-05-14,1,,,,,カガヤキシニアレジデンス,0
320,2010701040003,登記記録の閉鎖等,0,2025-12-19,2025-12-15,やまざきアートアーカイヴズ株式会社,,株式会社,東京都,品川区,小山５丁目１１番１号,,13,109,1420062,,,2025-12-15,清算の結了等,,,2020-10-23,1,,,,,ヤマザキアートアーカイブズ,0
329,2010903008112,登記記録の閉鎖等,0,2025-12-19,2025-12-17,Ｑｕｌｕ合同会社,,合同会社,東京都,世田谷区,松原４丁目３４番２０号グラウ１０５,,13,112,1560043,,,2025-12-17,清算の結了等,,,2023-04-18,1,,,,,クル,0
331,2011001105999,登記記録の閉鎖等,0,2025-12-19,2025-12-16,株式会社ユーヴライア,,株式会社,東京都,品川区,西五反田２丁目２４番９号,,13,109,1410031,,,2025-12-16,合併による解散等,7010401156037,令和７年１２月１日東京都港区赤坂二丁目１０番２号株式会社ｐｒｅｓｅｎｔ（7010401156037）に合併し解散,2015-10-05,1,,,,,ユーヴライア,0
343,2011101074780,登記記録の閉鎖等,0,2025-12-19,2025-11-26,株式会社リバーフィールド,,株式会社,東京都,新宿区,四谷三栄町１１番２３号,,13,104,1600008,,,2025-11-26,清算の結了等,,,2015-10-05,1,,,,,リバーフィールド,0
349,2011102001817,登記記録の閉鎖等,0,2025-12-19,2025-11-25,有限会社エス・イー設計,,有限会社,東京都,新宿区,高田馬場２丁目４番２号,,13,104,1690075,,,2025-11-25,清算の結了等,,,2015-10-05,1,,,,,エスイーセッケイ,0
354,2011602004996,登記記録の閉鎖等,0,2025-12-19,2025-12-16,庄栄商事有限会社,,有限会社,東京都,練馬区,旭丘２丁目４５番２号,,13,120,1760005,,,2025-12-16,清算の結了等,,,2015-10-05,1,,,,,ショウエイショウジ,0
367,2020001100209,登記記録の閉鎖等,0,2025-12-19,2025-12-18,株式会社エレメント,,株式会社,神奈川県,横浜市磯子区,東町１８番３２－１０４号,,14,107,2350005,,,2025-12-18,清算の結了等,,,2015-10-05,1,,,,,エレメント,0
370,2020002089276,登記記録の閉鎖等,0,2025-12-19,2025-12-11,有限会社ジェネックス,,有限会社,神奈川県,川崎市高津区,久地２丁目１番１４－１１０３号サンヨースカイハイツ,,14,134,2130032,,,2025-12-11,清算の結了等,,,2015-10-05,1,,,,,ジェネックス,0
372,2020003018969,登記記録の閉鎖等,0,2025-12-19,2025-12-15,Ａ　ｂｙ　ＳＴＥＰ合同会社,,合同会社,神奈川県,横浜市青葉区,市ケ尾町７１９,,14,117,2250024,,,2025-12-15,清算の結了等,,,2020-12-21,1,,,,,,0
376,2021002050871,登記記録の閉鎖等,0,2025-12-19,2025-12-01,有限会社アメータ関東,,有限会社,神奈川県,小田原市,板橋６９２番地,,14,206,2500034,,,2025-12-01,清算の結了等,,,2015-10-05,1,,,,,,0
383,2030001111683,登記記録の閉鎖等,0,2025-12-19,2025-12-11,株式会社彩愛,,株式会社,埼玉県,春日部市,大衾５８８番地１９,,11,214,3440116,,,2025-12-11,清算の結了等,,,2015-12-10,1,,,,,サイアイ,0
389,2030002120766,登記記録の閉鎖等,0,2025-12-19,2025-12-08,有限会社洲栄,,有限会社,埼玉県,日高市,大字高萩５９７番地の８,,11,242,3501213,,,2025-12-08,清算の結了等,,,2015-10-05,1,,,,,シュウエイ,0
394,2040001007476,登記記録の閉鎖等,0,2025-12-19,2025-12-01,株式会社メディアアーク,,株式会社,千葉県,千葉市緑区,おゆみ野南１丁目３１番地３５,,12,105,2660033,,,2025-12-01,清算の結了等,,,2015-10-05,1,,,,,メディアアーク,0
403,2040002087831,登記記録の閉鎖等,0,2025-12-19,2025-12-01,有限会社丸山旅館,,有限会社,千葉県,香取市,小見川４７番地,,12,236,2890313,,,2025-12-01,清算の結了等,,,2015-10-05,1,,,,,マルヤマリョカン,0
412,2080401016379,登記記録の閉鎖等,0,2025-12-19,2025-12-10,株式会社山本鉄工所,,株式会社,静岡県,磐田市,駒場７０６１番地の１５,,22,211,4380233,,,2025-12-10,清算の結了等,,,2015-10-05,1,,,,,ヤマモトテッコウジョ,0
418,2110002031245,登記記録の閉鎖等,0,2025-12-19,2025-12-15,有限会社なかざわ,,有限会社,新潟県,長岡市,栃尾泉３３４番地７,,15,202,9400234,,,2025-12-15,清算の結了等,,,2015-10-05,1,,,,,ナカザワ,0
472,2180003026007,登記記録の閉鎖等,0,2025-12-19,2025-12-01,合同会社ブルームーン,,合同会社,愛知県,名古屋市西区,大野木１丁目８７番地マ・メゾン大野木２０３号,,23,104,4520803,,,2025-12-01,清算の結了等,,,2023-11-30,1,,,,,ブルームーン,0
474,2180301037184,登記記録の閉鎖等,0,2025-12-19,2025-12-11,株式会社７Ｔｏｎｅｓ　Ｓｔｕｄｉｏ,,株式会社,愛知県,豊田市,五ケ丘１丁目２４番地１１,,23,211,4710814,,,2025-12-11,清算の結了等,,,2023-03-20,1,,,,,セブントーンズスタジオ,0
484,2200002023935,登記記録の閉鎖等,0,2025-12-19,2025-12-16,有限会社樋口印刷,00077078,有限会社,岐阜県,恵那市,長島町中野１２２８番地の１３,,21,210,5097205,,,2025-12-16,清算の結了等,,,2015-10-05,1,,,,,ヒグチインサツ,0
492,2240002004493,登記記録の閉鎖等,0,2025-12-19,2025-09-01,有限会社中二,,有限会社,広島県,広島市佐伯区,五日市町大字石内５９９８番地１,,34,108,7315102,,,2025-09-01,合併による解散等,2240002023287,令和７年８月３１日広島市中区舟入川口町１０番２５号株式会社グローアップ（2240002023287）に合併し解散,2015-10-05,1,,,,,ナカニ,0
493,2240002020904,登記記録の閉鎖等,0,2025-12-19,2025-12-16,有限会社健康工房,,有限会社,広島県,広島市安佐南区,山本４丁目２１番３号,,34,105,7310137,,,2025-12-16,清算の結了等,,,2015-10-05,1,,,,,ケンコウコウボウ,0
494,2240002051016,登記記録の閉鎖等,0,2025-12-19,2025-12-15,司鉄工有限会社,,有限会社,広島県,尾道市,向島町１５２２４番地,,34,205,7220073,,,2025-12-15,清算の結了等,,,2015-10-05,1,,,,,ツカサテッコウ,0
497,2250005004291,登記記録の閉鎖等,0,2025-12-19,2025-12-15,農事組合法人赤浜,,その他の設立登記法人,山口県,山口市,阿知須５２９１番地,,35,203,7541277,,,2025-12-15,清算の結了等,,,2015-10-05,1,,,,,アカハマ,0
516,2300001005040,登記記録の閉鎖等,0,2025-12-19,2025-12-17,伸光建設株式会社,,株式会社,佐賀県,藤津郡太良町,大字大浦甲５６１番地,,41,441,8491614,,,2025-12-17,清算の結了等,,,2015-10-05,1,,,,,シンコウケンセツ,0
523,2350002015447,登記記録の閉鎖等,0,2025-12-19,2025-12-15,有限会社加覧石油,,有限会社,宮崎県,都城市,山田町中霧島３１７１番地２,,45,202,8894602,,,2025-12-15,清算の結了等,,,2015-10-05,1,,,,,ガランセキユ,0
530,2380002024115,登記記録の閉鎖等,0,2025-12-19,2025-12-16,有限会社松栄建設,,有限会社,福島県,いわき市,平大室字白土２３番地,,07,204,9708013,,,2025-12-16,清算の結了等,,,2015-10-05,1,,,,,ショウエイケンセツ,0
531,2380005003132,登記記録の閉鎖等,0,2025-12-19,2025-12-15,宝鏡院,,その他の設立登記法人,福島県,郡山市,大字牛縊本郷字舘１３４番地,,07,203,9630000,,,2025-12-15,清算の結了等,,,2015-10-05,1,,,,,,0
532,2400001004412,登記記録の閉鎖等,0,2025-12-19,2025-12-11,株式会社セブン不動産,,株式会社,岩手県,盛岡市,仙北２丁目１０番１７号ＭＳビル２号室,,03,201,0200861,,,2025-12-11,清算の結了等,,,2015-10-05,1,,,,,セブンフドウサン,0
533,2410001014204,登記記録の閉鎖等,0,2025-12-19,2025-12-16,丸力木材株式会社,,株式会社,秋田県,能代市,浅内字船沢７４番地５,,05,202,0160179,,,2025-12-16,清算の結了等,,,2025-07-29,1,,,,,マルリキモクザイ,0
540,2480003000823,登記記録の閉鎖等,0,2025-12-19,2025-12-17,合同会社ライフアップグレイド,,合同会社,徳島県,三好市,池田町サラダ１６４９番地の３,,36,208,7780003,,,2025-12-17,清算の結了等,,,2015-10-05,1,,,,,ライフアップグレイド,0
552,3010002021321,登記記録の閉鎖等,0,2025-12-19,2025-11-28,有限会社スタジオフリーウェイ,,有限会社,千葉県,浦安市,入船６丁目６番１０４号,,12,227,2790012,,,2025-11-28,清算の結了等,,,2015-10-05,1,,,,,スタジオフリーウェイ,0
567,3010401082212,登記記録の閉鎖等,0,2025-12-19,2025-12-12,株式会社スカイムーン,,株式会社,東京都,足立区,千住３丁目５２番地,,13,121,1200034,,,2025-12-12,清算の結了等,,,2015-10-05,1,,,,,スカイムーン,0
582,3010403016762,登記記録の閉鎖等,0,2025-12-19,2025-12-01,四の坂プロジェクト合同会社,,合同会社,東京都,港区,元赤坂１丁目１番８号赤坂コミュニティビル４階,,13,103,1070051,,,2025-12-01,清算の結了等,,,2017-06-15,1,,,,,ヨンノサカプロジェクト,0
591,3010601057039,登記記録の閉鎖等,0,2025-12-19,2025-11-27,株式会社ＬＫ‐Ｌａｂ,,株式会社,東京都,渋谷区,恵比寿南２丁目１番１０号,,13,113,1500022,,,2025-11-27,清算の結了等,,,2020-03-12,1,,,,,エルケーラボ,0
599,3010901046757,登記記録の閉鎖等,0,2025-12-19,2025-12-15,株式会社ＯＮＥ　ＷＯＲＤ,,株式会社,神奈川県,川崎市多摩区,長沢１丁目２７－７ＰＩＮＥＣＲＥＥＫＳＱＵＡＲＥ００１,,14,135,2140035,,,2025-12-15,清算の結了等,,,2020-08-06,1,,,,,ワンワード,0
603,3011001133487,登記記録の閉鎖等,0,2025-12-19,2025-12-12,株式会社寿限雲,,株式会社,東京都,目黒区,上目黒３丁目９番５号,,13,110,1530051,,,2025-12-12,清算の結了等,,,2020-05-11,1,,,,,ジュゲム,0
620,3011502002463,登記記録の閉鎖等,0,2025-12-19,2025-12-11,有限会社さかもと,,有限会社,東京都,北区,赤羽１丁目２２番９号,,13,117,1150045,,,2025-12-11,清算の結了等,,,2015-10-05,1,,,,,サカモト,0
640,3020002061614,登記記録の閉鎖等,0,2025-12-19,2025-12-11,有限会社ゼスト,,有限会社,神奈川県,横浜市磯子区,中原３丁目７番１－６０６号,,14,107,2350036,,,2025-12-11,清算の結了等,,,2015-10-05,1,,,,,ゼスト,0
643,3020003013011,登記記録の閉鎖等,0,2025-12-19,2025-12-09,ＷｈｉｔｅＲｏｏｋ合同会社,,合同会社,神奈川県,横浜市中区,桜木町１丁目１０１番地１クロスゲート７階,,14,104,2310062,,,2025-12-09,清算の結了等,,,2017-07-14,1,,,,,ホワイトルーク,0
644,3020003028505,登記記録の閉鎖等,0,2025-12-19,2025-12-15,合同会社Ｓｏｌｉｓ,,合同会社,神奈川県,川崎市川崎区,藤崎１丁目２１番地８号ハーモニーソフィア１０３,,14,131,2100804,,,2025-12-15,清算の結了等,,,2025-05-20,1,,,,,ソリス,0
647,3021001019256,登記記録の閉鎖等,0,2025-12-19,2025-11-28,株式会社青木建設,,株式会社,神奈川県,厚木市,中町３丁目６番１６号,,14,212,2430018,,,2025-11-28,清算の結了等,,,2020-03-09,1,,,,,アオキケンセツ,0
668,3040001033430,登記記録の閉鎖等,0,2025-12-19,2025-12-01,株式会社トミタ,,株式会社,千葉県,市川市,国府台６丁目１０番６号,,12,203,2720827,,,2025-12-01,清算の結了等,,,2015-10-05,1,,,,,トミタ,0
673,3050001034584,登記記録の閉鎖等,0,2025-12-19,2025-12-11,株式会社イエロードクタージャパン,,株式会社,茨城県,つくば市,二の宮２丁目１３番地６,,08,220,3050051,,,2025-12-11,清算の結了等,,,2015-10-05,1,,,,,イエロードクタージャパン,0
677,3060001027678,登記記録の閉鎖等,0,2025-12-19,2025-12-17,株式会社丸山設備,,株式会社,栃木県,佐野市,植野町２２８５番地１０浅野ビル１０３,,09,204,3270837,,,2025-12-17,清算の結了等,,,2015-11-10,1,,,,,マルヤマセツビ,0
681,3080001026281,登記記録の閉鎖等,0,2025-12-19,2025-12-15,株式会社ＳＫＹ　ＮＡＶＩＧＡＴＥ,,株式会社,静岡県,静岡市葵区,沓谷５丁目５６番地１,,22,101,4200816,,,2025-12-15,清算の結了等,,,2024-05-08,1,,,,,スカイナビゲート,0
682,3080002004880,登記記録の閉鎖等,0,2025-12-19,2025-12-15,有限会社広野薬局,,有限会社,静岡県,焼津市,大栄町１丁目４番１８号,,22,212,4250081,,,2025-12-15,清算の結了等,,,2015-10-05,1,,,,,ヒロノヤッキョク,0
690,3120001207315,登記記録の閉鎖等,0,2025-12-19,2025-12-18,ＨＳＪ株式会社,,株式会社,大阪府,東大阪市,荒本新町８－３０カルム東大阪１２０４号,,27,227,5770022,,,2025-12-18,清算の結了等,,,2017-08-09,1,,,,,エイチエスジェイ,0
691,3120001216828,登記記録の閉鎖等,0,2025-12-19,2025-12-17,株式会社ＴＯＭＯＮＩ,,株式会社,大阪府,大阪市北区,芝田２丁目８－１１共栄ビル３Ｆ,,27,127,5300012,,,2025-12-17,清算の結了等,,,2018-10-31,1,,,,,トモニ,0
702,3120002053873,登記記録の閉鎖等,0,2025-12-19,2025-12-16,有限会社花むらワールド,,有限会社,大阪府,大阪市西淀川区,御幣島３丁目１４番３９－３１０号,,27,113,5550012,,,2025-12-16,清算の結了等,,,2015-10-05,1,,,,,ハナムラワールド,0
714,3120101069688,登記記録の閉鎖等,0,2025-12-19,2025-12-15,株式会社Ｄ１ＰＬＵＳ,,株式会社,大阪府,和泉市,観音寺町６６２－４,,27,219,5940065,,,2025-12-15,清算の結了等,,,2024-05-30,1,,,,,ディーワンプラス,0
747,3180003022698,登記記録の閉鎖等,0,2025-12-19,2025-12-16,合同会社Ｒ　ｇｒａｎｄ,,合同会社,愛知県,名古屋市中村区,塩池町１丁目７－７,,23,105,4530032,,,2025-12-16,清算の結了等,,,2021-07-09,1,,,,,アールグランド,0
749,3180301029016,登記記録の閉鎖等,0,2025-12-19,2025-12-18,株式会社エクセレント,,株式会社,愛知県,豊橋市,飯村南２丁目１０番地３,,23,201,4400835,,,2025-12-18,清算の結了等,,,2016-03-22,1,,,,,エクセレント,0
754,3200001005495,登記記録の閉鎖等,0,2025-12-19,2025-12-15,株式会社森金型製作所,,株式会社,岐阜県,岐阜市,大字鷺山字向井２２４１番地の２,,21,201,5000000,,,2025-12-15,清算の結了等,,,2015-10-05,1,,,,,モリカナガタセイサクショ,0
763,3240002017833,登記記録の閉鎖等,0,2025-12-19,2025-12-15,有限会社吉和,,有限会社,広島県,広島市西区,井口明神１丁目１０番３号,,34,104,7330841,,,2025-12-15,清算の結了等,,,2015-10-05,1,,,,,ヨシワ,0
765,3240002028748,登記記録の閉鎖等,0,2025-12-19,2025-12-16,有限会社ダブル企画,,有限会社,広島県,東広島市,西条町寺家４８４５番地の１,,34,212,7390041,,,2025-12-16,清算の結了等,,,2015-10-05,1,,,,,ダブルキカク,0
793,3430001092759,登記記録の閉鎖等,0,2025-12-19,2025-12-16,安吉株式会社,,株式会社,大阪府,大阪市淀川区,西中島１丁目４１番２７号,,27,123,5320011,,,2025-12-16,清算の結了等,,,2024-09-30,1,,,,,アンキチ,0
815,4010003042217,登記記録の閉鎖等,0,2025-12-19,2025-11-14,合同会社Ｔｓｕｍｕｇｉ,,合同会社,東京都,中央区,銀座７丁目１３番２１号銀座ｓｉｎｒｏｋｕｓｙｕビル２階,,13,102,1040061,,,2025-11-14,清算の結了等,,,2023-11-15,1,,,,,ツムギ,0
816,4010003043628,登記記録の閉鎖等,0,2025-12-19,2025-12-04,合同会社水仙信用サービス,,合同会社,東京都,千代田区,丸の内１丁目４番１号東京共同会計事務所内,,13,101,1000005,,,2025-12-04,清算の結了等,,,2024-05-02,1,,,,,スイセンシンヨウサービス,0
821,4010401089685,登記記録の閉鎖等,0,2025-12-19,2025-12-01,株式会社奇兵隊,,株式会社,東京都,港区,芝５丁目３６番４号札の辻スクエア９階,,13,103,1080014,,,2025-12-01,清算の結了等,,,2015-10-05,1,,,,,キヘイタイ,0
837,4010403025820,登記記録の閉鎖等,0,2025-12-19,2025-12-01,合同会社ＧＫ０５０,,合同会社,東京都,港区,虎ノ門３丁目２２番１０－２０１号,,13,103,1050001,,,2025-12-01,清算の結了等,,,2021-08-11,1,,,,,ジーケイゼロファイブゼロ,0
838,4010403026190,登記記録の閉鎖等,0,2025-12-19,2025-12-01,ジェイ・オー・アイ合同会社,,合同会社,東京都,港区,六本木１丁目６番１号泉ガーデンタワー,,13,103,1060032,,,2025-12-01,清算の結了等,,,2021-09-27,1,,,,,ジェイオーアイ,0
840,4010405018368,登記記録の閉鎖等,0,2025-12-19,2025-12-01,一般社団法人四の坂,,その他の設立登記法人,東京都,港区,元赤坂１丁目１番８号赤坂コミュニティビル４階,,13,103,1070051,,,2025-12-01,清算の結了等,,,2019-12-25,1,,,,,ヨンノサカ,0
870,4012401010886,登記記録の閉鎖等,0,2025-12-19,2025-12-17,株式会社瑩和,,株式会社,東京都,武蔵野市,御殿山２丁目２１番１８号,,13,203,1800005,,,2025-12-17,清算の結了等,,,2015-10-05,1,,,,,エイワ,0
889,4021001031053,登記記録の閉鎖等,0,2025-12-19,2025-12-03,キャタピラーイースト・リアルエステート・ホールディング株式会社,,株式会社,東京都,千代田区,内幸町１丁目２番２号,,13,101,1000011,,,2025-12-03,合併による解散等,5021001031564,令和７年１２月１日東京都千代田区内幸町一丁目２番２号日本キャタピラー合同会社（5021001031564）に合併し解散,2015-10-05,1,,,,,キャタピラーイーストリアルエステートホールディング,0
901,4021002056652,登記記録の閉鎖等,0,2025-12-19,2025-12-02,有限会社新建,,有限会社,神奈川県,平塚市,八千代町７番２１号,,14,203,2540032,,,2025-12-02,清算の結了等,,,2015-10-05,1,,,,,シンケン,0
910,4030001060359,登記記録の閉鎖等,0,2025-12-19,2025-12-12,株式会社野上商会,,株式会社,埼玉県,本庄市,見福１丁目７番４３号,,11,211,3670044,,,2025-12-12,清算の結了等,,,2015-10-05,1,,,,,ノガミショウカイ,0
912,4030001093375,登記記録の閉鎖等,0,2025-12-19,2025-12-12,株式会社アーバンクリエート,,株式会社,埼玉県,春日部市,下蛭田３１０番地１,,11,214,3440043,,,2025-12-12,清算の結了等,,,2015-10-05,1,,,,,アーバンクリエート,0
920,4030002016442,登記記録の閉鎖等,0,2025-12-19,2025-12-12,有限会社エイテック,,有限会社,埼玉県,さいたま市北区,吉野町２丁目１９６番地１大宮吉野パークホームズ１０８,,11,102,3310811,,,2025-12-12,清算の結了等,,,2015-10-05,1,,,,,エイテック,0
924,4030002085396,登記記録の閉鎖等,0,2025-12-19,2025-12-15,有限会社尾久酒販,,有限会社,埼玉県,越谷市,南町３丁目１５番３５号,,11,222,3430832,,,2025-12-15,清算の結了等,,,2015-10-05,1,,,,,オグシュハン,0
925,4030002112027,登記記録の閉鎖等,0,2025-12-19,2025-12-17,有限会社アート・プラスチック,,有限会社,埼玉県,川口市,東領家５丁目２１番２３号,,11,203,3320003,,,2025-12-17,清算の結了等,,,2015-10-05,1,,,,,アートプラスチック,0
935,4040002049152,登記記録の閉鎖等,0,2025-12-19,2025-11-28,有限会社モードチエ,,有限会社,千葉県,松戸市,千駄堀１４８５番地,,12,207,2702252,,,2025-11-28,清算の結了等,,,2015-10-05,1,,,,,,0
939,4050002035762,登記記録の閉鎖等,0,2025-12-19,2025-12-11,有限会社パーフェクト・ワン,,有限会社,茨城県,常陸大宮市,栄町１２２２番地の２,,08,225,3192264,,,2025-12-11,清算の結了等,,,2015-10-05,1,,,,,パーフェクトワン,0
943,4060003004294,登記記録の閉鎖等,0,2025-12-19,2025-12-15,合同会社ローズ,,合同会社,栃木県,芳賀郡茂木町,大字茂木２７０番地,,09,343,3213531,,,2025-12-15,清算の結了等,,,2022-11-04,1,,,,,ローズ,0
945,4070001041223,登記記録の閉鎖等,0,2025-12-19,2025-12-10,株式会社ＳＴＲＩＫＥ　Ｌａｂｏ,,株式会社,群馬県,みどり市,大間々町大間々２１４番地２６,,10,212,3760101,,,2025-12-10,清算の結了等,,,2023-12-26,1,,,,,ストライクラボ,0
946,4080001003412,登記記録の閉鎖等,0,2025-12-19,2025-12-15,株式会社通信技術センター,,株式会社,静岡県,静岡市葵区,太田町４２番地の１４,,22,101,4200845,,,2025-12-15,清算の結了等,,,2015-10-05,1,,,,,ツウシンギジュツセンター,0
948,4080002017171,登記記録の閉鎖等,0,2025-12-19,2025-12-12,株式会社設計工房Ｋ,,株式会社,静岡県,焼津市,石津６４番地の２,,22,212,4250041,,,2025-12-12,清算の結了等,,,2015-10-05,1,,,,,セッケイコウボウケイ,0
949,4080005004877,登記記録の閉鎖等,0,2025-12-19,2025-12-12,医療法人社団清和会,,その他の設立登記法人,静岡県,牧之原市,細江１５０７番地の５,,22,226,4210421,,,2025-12-12,清算の結了等,,,2015-10-05,1,,,,,セイワカイ,0
964,4120001130945,登記記録の閉鎖等,0,2025-12-19,2025-12-16,株式会社笹野工務店,,株式会社,大阪府,大阪市平野区,長吉出戸７丁目３番３９号,,27,126,5470011,,,2025-12-16,清算の結了等,,,2015-10-05,1,,,,,ササノコウムテン,0
974,4120001268570,登記記録の閉鎖等,0,2025-12-19,2025-12-15,株式会社アカツキ,,株式会社,大阪府,大阪市東淀川区,西淡路１丁目３番２６号４０１号室,,27,114,5330031,,,2025-12-15,清算の結了等,,,2024-09-12,1,,,,,アカツキ,0
981,4120003022356,登記記録の閉鎖等,0,2025-12-19,2025-12-16,合同会社ゲラゲラ,,合同会社,大阪府,枚方市,黄金野２丁目２７番１号,,27,210,5731145,,,2025-12-16,清算の結了等,,,2022-08-31,1,,,,,ゲラゲラ,0
995,4140001042214,登記記録の閉鎖等,0,2025-12-19,2025-12-10,ズイセ株式会社,,株式会社,兵庫県,神戸市西区,玉津町水谷２６番地の８,,28,111,6512121,,,2025-12-10,清算の結了等,,,2015-10-05,1,,,,,ズイセ,0
1005,4180001034397,登記記録の閉鎖等,0,2025-12-19,2025-12-16,株式会社石本一級設計事務所,,株式会社,愛知県,名古屋市中区,錦２丁目１３番２１号,,23,106,4600003,,,2025-12-16,清算の結了等,,,2015-10-05,1,,,,,イシモトイッキュウセッケイジムショ,0
1010,4180001166950,登記記録の閉鎖等,0,2025-12-19,2025-12-17,株式会社ＦＢコンサルタンツ,,株式会社,愛知県,名古屋市中区,金山１丁目６番２号ＦＩビル４階,,23,106,4600022,,,2025-12-17,清算の結了等,,,2025-05-28,1,,,,,エフビーコンサルタンツ,0
1033,4220001016762,登記記録の閉鎖等,0,2025-12-19,2025-12-17,株式会社鶴野呉服店,,株式会社,石川県,鳳珠郡能登町,字宇出津ム字４０番地乙,,17,463,9270433,,,2025-12-17,清算の結了等,,,2015-10-05,1,,,,,ツルノゴフクテン,0
1035,4240001020721,登記記録の閉鎖等,0,2025-12-19,2025-12-16,株式会社安芸設計事務所,,株式会社,広島県,呉市,阿賀南９丁目１４番１５号,,34,202,7370004,,,2025-12-16,清算の結了等,,,2015-10-05,1,,,,,アキセッケイジムショ,0
1038,4250001009235,登記記録の閉鎖等,0,2025-12-19,2025-12-16,株式会社不動,,株式会社,山口県,周南市,新宿通３丁目９番地の２,,35,215,7450056,,,2025-12-16,清算の結了等,,,2015-10-05,1,,,,,フドウ,0
1039,4250002017204,登記記録の閉鎖等,0,2025-12-19,2025-12-16,有限会社吉原電設工業,,有限会社,山口県,光市,浅江６丁目８番３０号,,35,210,7430021,,,2025-12-16,清算の結了等,,,2015-10-05,1,,,,,ヨシハラデンセツコウギョウ,0
1050,4290003014535,登記記録の閉鎖等,0,2025-12-19,2025-11-17,合同会社ＢＲＳ,,合同会社,福岡県,福岡市南区,曰佐４丁目１８番３７－１１０号ハイツ立川,,40,134,8111313,,,2025-11-17,清算の結了等,,,2023-10-24,1,,,,,ビーアールエス,0
1063,4350002011989,登記記録の閉鎖等,0,2025-12-19,2025-12-15,有限会社草野整骨院,,有限会社,宮崎県,延岡市,萩町５８番地,,45,203,8820052,,,2025-12-15,清算の結了等,,,2015-10-05,1,,,,,クサノセイコツイン,0
1090,4490002003329,登記記録の閉鎖等,0,2025-12-19,2025-12-17,有限会社竹林寺観光,,有限会社,高知県,高知市,五台山３５７７番地,,39,201,7818125,,,2025-12-17,清算の結了等,,,2015-10-05,1,,,,,チクリンジカンコウ,0
1100,5010003025427,登記記録の閉鎖等,0,2025-12-19,2025-12-04,ＡＲＡＳＨＩ合同会社,,合同会社,東京都,中央区,新川１丁目１７番１８号,,13,102,1040033,,,2025-12-04,清算の結了等,,,2017-05-31,1,,,,,アラシ,0
1101,5010003034923,登記記録の閉鎖等,0,2025-12-19,2025-12-01,合同会社サポート３９号,,合同会社,東京都,港区,南青山４丁目２１番２６号リュエル青山Ｃ棟Ｂ１細谷総合会計事務所,,13,103,1070062,,,2025-12-01,清算の結了等,,,2021-06-03,1,,,,,サポートサンジュウキュウゴウ,0
1105,5010102006055,登記記録の閉鎖等,0,2025-12-19,2025-12-18,有限会社船木種苗,,有限会社,東京都,八王子市,横川町６１７番地の８,,13,201,1930823,,,2025-12-18,清算の結了等,,,2015-10-05,1,,,,,フナキシュビョウ,0
1106,5010102007821,登記記録の閉鎖等,0,2025-12-19,2025-12-18,カフェリズム・ジャパン有限会社,,有限会社,東京都,八王子市,暁町１丁目３番２３号,,13,201,1920043,,,2025-12-18,清算の結了等,,,2015-10-05,1,,,,,カフェリズムジャパン,0
1123,5010601032007,登記記録の閉鎖等,0,2025-12-19,2025-12-12,株式会社ＫＴＳ,,株式会社,東京都,江東区,千石１丁目９番２２号,,13,108,1350015,,,2025-12-12,清算の結了等,,,2015-10-05,1,,,,,ケーティーエス,0
1128,5010802013152,登記記録の閉鎖等,0,2025-12-19,2025-12-11,有限会社ほづみ電機,,有限会社,東京都,大田区,仲六郷１丁目２３番１１号,,13,111,1440055,,,2025-12-11,清算の結了等,,,2015-10-05,1,,,,,ホヅミデンキ,0
1153,5011701017211,登記記録の閉鎖等,0,2025-12-19,2025-12-12,株式会社フジタ,,株式会社,東京都,江戸川区,南葛西２丁目２６番１号,,13,123,1340085,,,2025-12-12,清算の結了等,,,2015-10-05,1,,,,,フジタ,0
1156,5011801036540,登記記録の閉鎖等,0,2025-12-19,2025-12-16,株式会社ｔｈｅ　ｓａｉｎｔ,,株式会社,東京都,足立区,西新井栄町１丁目１７番２０－１０４号,,13,121,1230843,,,2025-12-16,清算の結了等,,,2019-09-13,1,,,,,ザセイント,0
1175,5020003027059,登記記録の閉鎖等,0,2025-12-19,2025-12-17,ＤＡＲＥ合同会社,,合同会社,神奈川県,川崎市中原区,今井仲町１８番３３－４０４号藤和武蔵小杉コープ,,14,133,2110065,,,2025-12-17,清算の結了等,,,2024-10-17,1,,,,,デア,0
1189,5030001027043,登記記録の閉鎖等,0,2025-12-19,2025-12-16,株式会社ゼビオス,,株式会社,埼玉県,入間市,大字中神５０８番地２,,11,225,3580035,,,2025-12-16,合併による解散等,7010101002284,令和７年１２月６日東京都八王子市美山町２１６１番地の５株式会社ダン科学（7010101002284）に合併し解散,2015-10-05,1,,,,,ゼビオス,0
1190,5030001062321,登記記録の閉鎖等,0,2025-12-19,2025-12-12,トウショウ流通株式会社,,株式会社,埼玉県,北本市,朝日２丁目３０４番地７,,11,233,3640011,,,2025-12-12,清算の結了等,,,2015-10-05,1,,,,,トウショウリュウツウ,0
1196,5030002078580,登記記録の閉鎖等,0,2025-12-19,2025-12-12,有限会社ホーシンパック,,有限会社,埼玉県,ふじみ野市,苗間２７番地の５,,11,245,3560052,,,2025-12-12,清算の結了等,,,2015-10-05,1,,,,,ホーシンパック,0
1200,5040001065819,登記記録の閉鎖等,0,2025-12-19,2025-12-01,株式会社ジェイアイグループ,,株式会社,千葉県,松戸市,上本郷３１６８番地の１,,12,207,2710064,,,2025-12-01,清算の結了等,,,2015-10-05,1,,,,,ジェイアイグループ,0
1203,5040001071453,登記記録の閉鎖等,0,2025-12-19,2025-11-25,株式会社野口興業,,株式会社,千葉県,野田市,蕃昌２３６番地,,12,208,2780041,,,2025-11-25,清算の結了等,,,2015-10-05,1,,,,,ノグチコウギョウ,0
1212,5060001012001,登記記録の閉鎖等,0,2025-12-19,2025-12-17,株式会社篠塚精機,,株式会社,栃木県,那須塩原市,東町１６番２８号,,09,213,3292721,,,2025-12-17,清算の結了等,,,2015-10-05,1,,,,,シノヅカセイキ,0
1215,5080001016438,登記記録の閉鎖等,0,2025-12-19,2025-12-15,志太合成株式会社,,株式会社,静岡県,藤枝市,志太１丁目５番１４号,,22,214,4260071,,,2025-12-15,清算の結了等,,,2015-10-05,1,,,,,シダゴウセイ,0
1218,5080402015872,登記記録の閉鎖等,0,2025-12-19,2025-12-09,有限会社糀屋,,有限会社,静岡県,浜松市浜名区,細江町気賀７４番地の５１,,22,139,4311305,,,2025-12-09,清算の結了等,,,2015-10-05,1,,,,,コウジヤ,0
1221,5090001014036,登記記録の閉鎖等,0,2025-12-19,2025-12-15,株式会社アースリンクイノベーション,,株式会社,山梨県,甲府市,国母３丁目１１番１７号,,19,201,4000043,,,2025-12-15,清算の結了等,,,2015-10-05,1,,,,,アースリンクイノベーション,0
1227,5100002017523,登記記録の閉鎖等,0,2025-12-19,2025-12-16,有限会社桝屋商店,,有限会社,長野県,下高井郡野沢温泉村,大字豊郷９５３４番地,,20,563,3892502,,,2025-12-16,清算の結了等,,,2015-10-05,1,,,,,マスヤショウテン,0
1236,5120001261260,登記記録の閉鎖等,0,2025-12-19,2025-12-16,株式会社Ｂ．ｇｏａｔ,,株式会社,大阪府,大阪市北区,大淀中３丁目５番２１号３Ｆ,,27,127,5310076,,,2025-12-16,清算の結了等,,,2024-01-16,1,,,,,ビーゴート,0
1248,5120005024977,登記記録の閉鎖等,0,2025-12-19,2025-12-16,ＷＥＬＬ　ＶＩＳＡ行政書士法人,,その他の設立登記法人,大阪府,大阪市中央区,本町４丁目６番２７－２０１号,,27,128,5410053,,,2025-12-16,清算の結了等,,,2025-06-04,1,,,,,ウェルビザ,0
1259,5140001070164,登記記録の閉鎖等,0,2025-12-19,2025-12-12,副島地所株式会社,,株式会社,兵庫県,神戸市東灘区,住吉本町１丁目９番１８－６０２号,,28,101,6580051,,,2025-12-12,清算の結了等,,,2015-10-05,1,,,,,ソエジマジショ,0
1282,5180001163798,登記記録の閉鎖等,0,2025-12-19,2025-12-10,株式会社ＣＨＯＲＤ　ＣＯＮＮＥＣＴ,,株式会社,愛知県,名古屋市中村区,名駅４丁目２４番５号第２森ビル４０１,,23,105,4500002,,,2025-12-10,清算の結了等,,,2024-10-29,1,,,,,コードコネクト,0
1288,5180002022391,登記記録の閉鎖等,0,2025-12-19,2025-12-16,有限会社山口製作所,,有限会社,愛知県,名古屋市天白区,中砂町２７４番地,,23,116,4680065,,,2025-12-16,清算の結了等,,,2015-10-05,1,,,,,ヤマグチセイサクショ,0
1289,5180002035492,登記記録の閉鎖等,0,2025-12-19,2025-12-17,有限会社　東海ビルド,,有限会社,愛知県,名古屋市中川区,柳島町３丁目７番地,,23,110,4540024,,,2025-12-17,清算の結了等,,,2015-10-05,1,,,,,トウカイビルド,0
1297,5190002013555,登記記録の閉鎖等,0,2025-12-19,2025-12-15,有限会社飯田,,有限会社,三重県,松阪市,中町１８６６番地の１,,24,204,5150083,,,2025-12-15,清算の結了等,,,2015-10-05,1,,,,,イイダ,0
1309,5240002000465,登記記録の閉鎖等,0,2025-12-19,2025-12-15,有限会社安芸津久根島,,有限会社,広島県,広島市中区,小町８番４号つくねビル２Ｆ,,34,101,7300041,,,2025-12-15,清算の結了等,,,2015-10-05,1,,,,,アキツクネジマ,0
1313,5280003001483,登記記録の閉鎖等,0,2025-12-19,2025-12-17,合同会社天空ノ月,,合同会社,島根県,出雲市,里方町７０番地１ラッフィナート２０５,,32,203,6930064,,,2025-12-17,清算の結了等,,,2021-05-20,1,,,,,テンクウノツキ,0
1316,5290001033115,登記記録の閉鎖等,0,2025-12-19,2025-12-08,株式会社紅屋,,株式会社,福岡県,糸島市,前原中央３丁目２番１６号,,40,230,8191116,,,2025-12-08,清算の結了等,,,2015-10-05,1,,,,,ベニヤ,0
1346,5430001064715,登記記録の閉鎖等,0,2025-12-19,2025-12-15,株式会社ヒノキケン,,株式会社,北海道,札幌市白石区,東札幌一条２丁目５番１－６０７号,,01,104,0030001,,,2025-12-15,清算の結了等,,,2015-10-05,1,,,,,ヒノキケン,0
1349,5430002007557,登記記録の閉鎖等,0,2025-12-19,2025-12-12,有限会社工務店志田,,有限会社,北海道,札幌市北区,篠路八条６丁目１４番１５号,,01,102,0028028,,,2025-12-12,清算の結了等,,,2015-10-05,1,,,,,コウムテンシダ,0
1354,5460305000355,登記記録の閉鎖等,0,2025-12-19,2025-12-18,医療法人社団みずもと小児科,,その他の設立登記法人,北海道,北見市,春光町２丁目１５５番地の６,,01,208,0900801,,,2025-12-18,清算の結了等,,,2015-10-05,1,,,,,ミズモトショウニカ,0
1357,5500001026261,登記記録の閉鎖等,0,2025-12-19,2025-12-17,Ｆａｒｍｌａｎｄ株式会社,,株式会社,愛媛県,今治市,高橋甲５５３番地の１,,38,202,7940066,,,2025-12-17,清算の結了等,,,2025-04-23,1,,,,,ファームランド,0
1365,6010001241867,登記記録の閉鎖等,0,2025-12-19,2025-12-05,株式会社倫コーポレーション,,株式会社,東京都,中央区,晴海３丁目１６番１－１６０２号,,13,102,1040053,,,2025-12-05,清算の結了等,,,2024-01-29,1,,,,,リンコーポレーション,0
1369,6010003029402,登記記録の閉鎖等,0,2025-12-19,2025-12-05,東京レジ６合同会社,,合同会社,東京都,千代田区,丸の内１丁目４番１号東京共同会計事務所内,,13,101,1000005,,,2025-12-05,清算の結了等,,,2019-03-05,1,,,,,トウキョウレジシックス,0
1375,6010401186613,登記記録の閉鎖等,0,2025-12-19,2025-12-01,洪福株式会社,,株式会社,東京都,港区,三田２丁目１４番４号三田慶応ビジデンス１００３号室,,13,103,1080073,,,2025-12-01,清算の結了等,,,2024-11-27,1,,,,,コウフク,0
1384,6010405020066,登記記録の閉鎖等,0,2025-12-19,2025-12-01,一般社団法人ＳＨ０５０,,その他の設立登記法人,東京都,港区,虎ノ門３丁目２２番１０－２０１号,,13,103,1050001,,,2025-12-01,清算の結了等,,,2021-08-11,1,,,,,エスエイチゼロファイブゼロ,0
1388,6010601048381,登記記録の閉鎖等,0,2025-12-19,2025-12-12,株式会社リブウェルワールド,,株式会社,東京都,江東区,深川２丁目２３番１２号,,13,108,1350033,,,2025-12-12,清算の結了等,,,2015-10-05,1,,,,,リブウェルワールド,0
1390,6010703002930,登記記録の閉鎖等,0,2025-12-19,2025-12-15,合同会社オオタニ,,合同会社,東京都,品川区,東品川４丁目１２番９－１４１０号,,13,109,1400002,,,2025-12-15,清算の結了等,,,2015-11-19,1,,,,,オオタニ,0
1421,6011201003033,登記記録の閉鎖等,0,2025-12-19,2025-12-12,大進製菓株式会社,,株式会社,東京都,中野区,本町２丁目４番１１号,,13,114,1640012,,,2025-12-12,清算の結了等,,,2015-10-05,1,,,,,ダイシンセイカ,0
1424,6011302015902,登記記録の閉鎖等,0,2025-12-19,2025-12-15,有限会社ビーンズ企画,,有限会社,東京都,杉並区,阿佐谷南１丁目１３番２７号,,13,115,1660004,,,2025-12-15,清算の結了等,,,2015-10-05,1,,,,,ビーンズキカク,0
1429,6011603001592,登記記録の閉鎖等,0,2025-12-19,2025-12-17,アイポワール合同会社,,合同会社,東京都,練馬区,光が丘３丁目９番２－１１０３号,,13,120,1790072,,,2025-12-17,合併による解散等,8011603001855,令和７年１１月２８日東京都港区高輪三丁目１０番２号グラスプラス高輪ラテール合同会社（8011603001855）に合併し解散,2015-10-05,1,,,,,,0
1441,6020001005577,登記記録の閉鎖等,0,2025-12-19,2025-12-15,平和産業株式会社,,株式会社,神奈川県,横浜市旭区,今宿東町１４９７番地,,14,112,2410032,,,2025-12-15,清算の結了等,,,2015-10-05,1,,,,,ヘイワサンギョウ,0
1442,6020001020345,登記記録の閉鎖等,0,2025-12-19,2025-12-16,三泰商亊株式会社,,株式会社,神奈川県,横浜市港北区,小机町１６１１番地２,,14,109,2220036,,,2025-12-16,清算の結了等,,,2015-10-05,1,,,,,サンタイショウジ,0
1458,6030001016409,登記記録の閉鎖等,0,2025-12-19,2025-12-11,株式会社ｄｅｐａｒｔｕｒｅ,,株式会社,東京都,杉並区,高円寺南３丁目１２番１号,,13,115,1660003,,,2025-12-11,清算の結了等,,,2015-10-05,1,,,,,ディパーチャー,0
1459,6030001055530,登記記録の閉鎖等,0,2025-12-19,2025-12-12,株式会社ベスト食品,,株式会社,埼玉県,川越市,大字小堤７３４番地７,,11,201,3500811,,,2025-12-12,清算の結了等,,,2015-10-05,1,,,,,ベストショクヒン,0
1469,6030002100756,登記記録の閉鎖等,0,2025-12-19,2025-12-12,有限会社海野運輸,,有限会社,埼玉県,川口市,末広３丁目５番２６号,,11,203,3320006,,,2025-12-12,清算の結了等,,,2015-10-05,1,,,,,カイノウンユ,0
1470,6030002120829,登記記録の閉鎖等,0,2025-12-19,2025-12-08,侑倖商事有限会社,,有限会社,埼玉県,日高市,大字高萩５９７番地の８,,11,242,3501213,,,2025-12-08,清算の結了等,,,2015-10-05,1,,,,,ユウコウショウジ,0
1473,6040001072475,登記記録の閉鎖等,0,2025-12-19,2025-11-28,株式会社田建,,株式会社,千葉県,野田市,七光台４６０番地の６３,,12,208,2780051,,,2025-11-28,清算の結了等,,,2015-10-05,1,,,,,タケン,0
1486,6080002002915,登記記録の閉鎖等,0,2025-12-19,2025-12-15,有限会社すずき印刷,,有限会社,静岡県,静岡市葵区,城東町２０番１０号,,22,101,4200846,,,2025-12-15,清算の結了等,,,2015-10-05,1,,,,,スズキインサツ,0
1487,6080005007548,登記記録の閉鎖等,0,2025-12-19,2025-12-15,一般社団法人やさいバス倶楽部,,その他の設立登記法人,静岡県,牧之原市,布引原１０７６番地２,,22,226,4210407,,,2025-12-15,清算の結了等,,,2023-07-28,1,,,,,ヤサイバスクラブ,0
1489,6080401000131,登記記録の閉鎖等,0,2025-12-19,2025-12-09,株式会社按可社,,株式会社,静岡県,浜松市中央区,西伊場町５６番２３号,,22,138,4328038,,,2025-12-09,清算の結了等,,,2015-10-05,1,,,,,アンカシャ,0
1500,6120001026200,登記記録の閉鎖等,0,2025-12-19,2025-12-17,株式会社加藤特殊硝子製作所,,株式会社,大阪府,大阪市此花区,酉島５丁目１番２１号,,27,104,5540051,,,2025-12-17,清算の結了等,,,2015-10-05,1,,,,,カトウトクシュガラスセイサクショ,0
1519,6130001004592,登記記録の閉鎖等,0,2025-12-19,2025-12-16,北山食品工業株式会社,,株式会社,京都府,京都市北区,上賀茂岩ケ垣内町１００番地,,26,101,6038053,,,2025-12-16,清算の結了等,,,2015-10-05,1,,,,,キタヤマショクヒンコウギョウ,0
1520,6130001062517,登記記録の閉鎖等,0,2025-12-19,2025-12-16,株式会社ＮＡＰＢＩＺ,,株式会社,大阪府,高槻市,芥川町１丁目１３番１号ＯＭビル２階,,27,207,5691123,,,2025-12-16,合併による解散等,7010401089880,令和７年１１月１日東京都港区麻布台一丁目３番１号麻布台ヒルズ森ＪＰタワー２７階エキサイト株式会社（7010401089880）に合併し解散,2018-07-13,1,,,,,ナップビズ,0
1527,6160001019126,登記記録の閉鎖等,0,2025-12-19,2025-12-17,株式会社セーバー,,株式会社,滋賀県,長浜市,稲葉町５５９番地,,25,203,5260133,,,2025-12-17,清算の結了等,,,2015-11-30,1,,,,,セーバー,0
1532,6160002004696,登記記録の閉鎖等,0,2025-12-19,2025-12-16,有限会社都設備,,有限会社,滋賀県,大津市,坂本７丁目５番１４号,,25,201,5200113,,,2025-12-16,清算の結了等,,,2015-10-05,1,,,,,ミヤコセツビ,0
1534,6180001066942,登記記録の閉鎖等,0,2025-12-19,2025-12-16,株式会社アイチ保険センター,,株式会社,愛知県,日進市,岩崎町根裏９０番地２２２,,23,230,4700131,,,2025-12-16,清算の結了等,,,2015-10-05,1,,,,,アイチホケンセンター,0
1547,6200001000394,登記記録の閉鎖等,0,2025-12-19,2025-12-15,板橋建設株式会社,,株式会社,岐阜県,岐阜市,領下１８５７番地の１,,21,201,5008241,,,2025-12-15,清算の結了等,,,2015-10-05,1,,,,,イタバシケンセツ,0
1558,6250005008776,登記記録の閉鎖等,0,2025-12-19,2025-12-17,一般社団法人山口・海ごみゼロ維新プロジェクト,,その他の設立登記法人,山口県,山口市,大内千坊６丁目７番１号,,35,203,7530251,,,2025-12-17,清算の結了等,,,2022-10-04,1,,,,,ヤマグチウミゴミゼロイシンプロジェクト,0
1566,6300001007355,登記記録の閉鎖等,0,2025-12-19,2025-12-17,唐津マリンサービス株式会社,,株式会社,佐賀県,唐津市,海岸通７１８２番地の１０５,,41,202,8470873,,,2025-12-17,清算の結了等,,,2015-10-05,1,,,,,カラツマリンサービス,0
1580,6370001008248,登記記録の閉鎖等,0,2025-12-19,2025-12-16,株式会社サンシャルム,,株式会社,宮城県,仙台市青葉区,中央１丁目１番１号,,04,101,9800021,,,2025-12-16,清算の結了等,,,2024-12-20,1,,,,,サンシャルム,0
1584,6380001016530,登記記録の閉鎖等,0,2025-12-19,2025-12-15,株式会社サン・オート,,株式会社,福島県,双葉郡浪江町,大字権現堂字上川原８８番地,,07,547,9791521,,,2025-12-15,清算の結了等,,,2015-10-05,1,,,,,サンオート,0
1586,6380002001820,登記記録の閉鎖等,0,2025-12-19,2025-12-12,有限会社スギウラ,,有限会社,福島県,福島市,方木田字谷地７番地の１９,,07,201,9608163,,,2025-12-12,清算の結了等,,,2015-10-05,1,,,,,スギウラ,0
1588,6400002010372,登記記録の閉鎖等,0,2025-12-19,2025-12-10,有限会社まん十や,,有限会社,岩手県,遠野市,中央通り５番１１号,,03,208,0280523,,,2025-12-10,清算の結了等,,,2015-10-05,1,,,,,マンジュウヤ,0
1599,6470002018161,登記記録の閉鎖等,0,2025-12-19,2025-12-17,有限会社樫原プラスチック,,有限会社,香川県,さぬき市,寒川町石田西１６７８番地,,37,206,7692322,,,2025-12-17,清算の結了等,,,2015-10-05,1,,,,,カシハラプラスチック,0
1607,7010001136926,登記記録の閉鎖等,0,2025-12-19,2025-12-04,株式会社伊藤事務所,,株式会社,東京都,中央区,銀座１丁目２２番１２号,,13,102,1040061,,,2025-12-04,清算の結了等,,,2015-10-05,1,,,,,イトウジムショ,0
1609,7010001146132,登記記録の閉鎖等,0,2025-12-19,2025-12-05,株式会社アジャイル・ネットワークス,,株式会社,東京都,文京区,白山４丁目７番４号,,13,105,1120001,,,2025-12-05,清算の結了等,,,2015-10-05,1,,,,,アジャイルネットワークス,0
1619,7010005030514,登記記録の閉鎖等,0,2025-12-19,2025-12-16,一般社団法人開発７６号,,その他の設立登記法人,東京都,千代田区,飯田橋１丁目３番２号曙杉館４階清和コンサルティング株式会社内,,13,101,1020072,,,2025-12-16,清算の結了等,,,2019-07-25,1,,,,,カイハツナナジュウロクゴウ,0
1622,7010102001806,登記記録の閉鎖等,0,2025-12-19,2025-12-17,有限会社神田建築,,有限会社,東京都,八王子市,楢原町１３４３番地の３,00050297,13,201,1930803,,,2025-12-17,清算の結了等,,,2015-10-05,1,,,,,カンダケンチク,0
1634,7010405013283,登記記録の閉鎖等,0,2025-12-19,2025-12-01,一般社団法人ＴＳＭ１１９,,その他の設立登記法人,東京都,港区,元赤坂１丁目１番７号,,13,103,1070051,,,2025-12-01,清算の結了等,,,2015-10-05,1,,,,,ティーエスエムヒャクジュウキュウ,0
1635,7010405020239,登記記録の閉鎖等,0,2025-12-19,2025-12-01,ジェイ・オー・アイ一般社団法人,,その他の設立登記法人,東京都,港区,六本木１丁目６番１号泉ガーデンタワー,,13,103,1060032,,,2025-12-01,清算の結了等,,,2021-09-21,1,,,,,ジェイオーアイ,0
1637,7010501031577,登記記録の閉鎖等,0,2025-12-19,2025-12-11,株式会社ベレックジャパン,,株式会社,東京都,台東区,台東２丁目２７番３号スカイビュー秋葉原１１０３,,13,106,1100016,,,2025-12-11,清算の結了等,,,2015-10-05,1,,,,,ベレックジャパン,0
1641,7010601056929,登記記録の閉鎖等,0,2025-12-19,2025-11-26,日本物流未来投資株式会社,,株式会社,東京都,新宿区,西新宿８丁目１７番１号,,13,104,1600023,,,2025-11-26,清算の結了等,,,2020-02-20,1,,,,,ニッポンブツリュウミライトウシ,0
1649,7011001021622,登記記録の閉鎖等,0,2025-12-19,2025-11-28,株式会社ゼスティ・プランニング,,株式会社,東京都,港区,芝５丁目３３番１１号,,13,103,1080014,,,2025-11-28,清算の結了等,,,2015-10-05,1,,,,,ゼスティプランニング,0
1682,7011501027169,登記記録の閉鎖等,0,2025-12-19,2025-11-28,株式会社ＬｉｂｅＬｉ‐ｉｏ,,株式会社,東京都,港区,浜松町２丁目２番１５号浜松町ダイヤビル２Ｆ,,13,103,1050013,,,2025-11-28,清算の結了等,,,2021-08-04,1,,,,,リベリオ,0
1695,7020001002788,登記記録の閉鎖等,0,2025-12-19,2025-12-18,株式会社共成,,株式会社,神奈川県,横浜市港南区,丸山台２丁目１２番１６号,,14,111,2330013,,,2025-12-18,清算の結了等,,,2015-10-05,1,,,,,,0
1704,7020001066874,登記記録の閉鎖等,0,2025-12-19,2025-12-15,株式会社長谷川製作所,,株式会社,神奈川県,川崎市高津区,坂戸１丁目４番１号,,14,134,2130012,,,2025-12-15,清算の結了等,,,2015-10-05,1,,,,,ハセガワセイサクジョ,0
1710,7020002081055,登記記録の閉鎖等,0,2025-12-19,2025-12-15,有限会社三幸,,有限会社,神奈川県,川崎市中原区,新丸子東３丁目１１００番地１２Ｍ４３０６,,14,133,2110004,,,2025-12-15,清算の結了等,,,2015-10-05,1,,,,,サンコウ,0
1725,7030001151295,登記記録の閉鎖等,0,2025-12-19,2025-12-12,新日本エネルギー株式会社,,株式会社,埼玉県,さいたま市北区,宮原町３丁目９０２番２号２０１,,11,102,3310812,,,2025-12-12,清算の結了等,,,2022-12-02,1,,,,,シンニホンエネルギー,0
1734,7030005018128,登記記録の閉鎖等,0,2025-12-19,2025-12-05,特定非営利活動法人チャイルドサポート,,その他の設立登記法人,埼玉県,さいたま市大宮区,三橋２丁目６０６番地,,11,103,3300856,,,2025-12-05,合併による解散等,4030005020169,令和７年１２月５日埼玉県さいたま市中央区下落合五丁目６番４号特定非営利活動法人エール（4030005020169）に合併し解散,2016-09-14,1,,,,,チャイルドサポート,0
1735,7040001082424,登記記録の閉鎖等,0,2025-12-19,2025-11-26,株式会社ＺＥＮＩＴＨ,,株式会社,千葉県,野田市,清水公園東１丁目２４番地の６,,12,208,2780047,,,2025-11-26,清算の結了等,,,2015-10-05,1,,,,,ゼニス,0
1747,7050003004425,登記記録の閉鎖等,0,2025-12-19,2025-12-04,合同会社パブリックキー,,合同会社,東京都,中央区,銀座１丁目２２－１１銀座大竹ビジデンス２Ｆ,,13,102,1040061,,,2025-12-04,清算の結了等,,,2018-11-13,1,Public Key LLC,,,,パブリックキー,0
1748,7050003004615,登記記録の閉鎖等,0,2025-12-19,2025-12-12,合同会社ＰＯＮＳＴＹＬＥ,,合同会社,茨城県,鉾田市,造谷８６３番地２４,,08,234,3111415,,,2025-12-12,清算の結了等,,,2019-04-09,1,,,,,ポンスタイル,0
1751,7070001022451,登記記録の閉鎖等,0,2025-12-19,2025-12-16,株式会社エムサポート,,株式会社,群馬県,太田市,西新町２０番地１９,,10,205,3730847,,,2025-12-16,清算の結了等,,,2015-10-05,1,,,,,エムサポート,0
1752,7080101004209,登記記録の閉鎖等,0,2025-12-19,2025-12-16,株式会社日鉄建設,,株式会社,静岡県,御殿場市,大坂９９番地,,22,215,4120034,,,2025-12-16,清算の結了等,,,2025-08-07,1,,,,,ニッテツケンセツ,0
1754,7080401014080,登記記録の閉鎖等,0,2025-12-19,2025-12-12,株式会社わくわくストアー,,株式会社,大阪府,大阪市東淀川区,東中島１丁目１７番５号,,27,114,5330033,,,2025-12-12,清算の結了等,,,2015-10-05,1,,,,,ワクワクストアー,0
1755,7090002002970,登記記録の閉鎖等,0,2025-12-19,2025-12-15,有限会社丸山新聞店,,有限会社,山梨県,甲府市,国母７丁目４番２号,,19,201,4000043,,,2025-12-15,清算の結了等,,,2015-10-05,1,,,,,マルヤマシンブンテン,0
1757,7100002017975,登記記録の閉鎖等,0,2025-12-19,2025-12-16,有限会社島建興業,,有限会社,長野県,中野市,大字新保１７７番地,,20,211,3830036,,,2025-12-16,清算の結了等,,,2015-10-05,1,,,,,シマケンコウギョウ,0
1761,7110005002932,登記記録の閉鎖等,0,2025-12-19,2025-12-12,特定非営利活動法人にいがたＣＥネット,,その他の設立登記法人,新潟県,新潟市東区,新石山３丁目１１番地３号,,15,102,9500851,,,2025-12-12,清算の結了等,,,2015-10-05,1,,,,,ニイガタシーイーネット,0
1763,7120001055339,登記記録の閉鎖等,0,2025-12-19,2025-12-16,榮観光株式会社,,株式会社,大阪府,大阪市淀川区,十三東３丁目１番７号,,27,123,5320023,,,2025-12-16,清算の結了等,,,2015-10-05,1,,,,,サカエカンコウ,0
1797,7120102017287,登記記録の閉鎖等,0,2025-12-19,2025-12-12,有限会社サクセス,,有限会社,大阪府,南河内郡太子町,大字春日１５番地の６,,27,381,5830991,,,2025-12-12,清算の結了等,,,2015-10-05,1,,,,,サクセス,0
1811,7140002034273,登記記録の閉鎖等,0,2025-12-19,2025-12-15,有限会社岩商店,,有限会社,兵庫県,赤穂市,尾崎３１３８番地の９８,,28,212,6780221,,,2025-12-15,清算の結了等,,,2015-10-05,1,,,,,イワショウテン,0
1815,7150005009486,登記記録の閉鎖等,0,2025-12-19,2025-12-17,一般社団法人２分,,その他の設立登記法人,奈良県,生駒市,元町１丁目４番６号,,29,209,6300257,,,2025-12-17,清算の結了等,,,2023-06-07,1,,,,,ニフン,0
1817,7180001097953,登記記録の閉鎖等,0,2025-12-19,2025-12-15,名古屋ホームホット株式会社,,株式会社,愛知県,あま市,中萱津南宿５番地,,23,237,4901113,,,2025-12-15,清算の結了等,,,2015-10-05,1,,,,,ナゴヤホームホット,0
1818,7180001098869,登記記録の閉鎖等,0,2025-12-19,2025-12-16,株式会社ジャパン・ペットセンター,,株式会社,愛知県,海部郡大治町,大字八ツ屋字東田面５０番地,,23,424,4901133,,,2025-12-16,清算の結了等,,,2015-10-05,1,,,,,ジャパンペットセンター,0
1826,7180002049292,登記記録の閉鎖等,0,2025-12-19,2025-12-16,有限会社クリエーティブオーツー,,有限会社,愛知県,名古屋市守山区,元郷２丁目６０９番地の２,,23,113,4630025,,,2025-12-16,清算の結了等,,,2015-10-05,1,,,,,クリエーティブオーツー,0
1827,7180002073508,登記記録の閉鎖等,0,2025-12-19,2025-12-16,有限会社三洋広告,,有限会社,愛知県,尾張旭市,旭ケ丘町山の手２９５番地５,,23,226,4880084,,,2025-12-16,清算の結了等,,,2015-10-05,1,,,,,サンヨウコウコク,0
1828,7180301007273,登記記録の閉鎖等,0,2025-12-19,2025-12-04,株式会社水色屋,,株式会社,愛知県,豊橋市,駅前大通３丁目２４番地２,,23,201,4400888,,,2025-12-04,清算の結了等,,,2015-10-05,1,,,,,ミズイロヤ,0
1831,7180301034722,登記記録の閉鎖等,0,2025-12-19,2025-12-11,株式会社ＧＵＩＬＢＵＩＬ,,株式会社,愛知県,碧南市,福清水町４丁目３７番地,,23,209,4470048,,,2025-12-11,清算の結了等,,,2021-03-23,1,,,,,ギルビル,0
1841,7200005009638,登記記録の閉鎖等,0,2025-12-19,2025-12-12,特定非営利活動法人ウィリークラブ工業会,,その他の設立登記法人,岐阜県,大垣市,三本木３丁目１６番地２,,21,202,5030813,,,2025-12-12,清算の結了等,,,2015-10-05,1,,,,,ウィリークラブコウギョウカイ,0
1851,7260002020856,登記記録の閉鎖等,0,2025-12-19,2025-12-15,有限会社富士設計,,有限会社,岡山県,倉敷市,加須山３０３番地の６,,33,202,7100026,,,2025-12-15,清算の結了等,,,2015-10-05,1,,,,,フジセッケイ,0
1854,7280001008074,登記記録の閉鎖等,0,2025-12-19,2025-12-16,株式会社エイム,,株式会社,島根県,邑智郡美郷町,酒谷１１７番地,,32,448,6994713,,,2025-12-16,清算の結了等,,,2019-10-04,1,,,,,エイム,0
1869,7320003004694,登記記録の閉鎖等,0,2025-12-19,2025-12-15,合同会社ミライＮＥＸＴ,,合同会社,大分県,大分市,東大道２丁目４番５－１４０９号,,44,201,8700823,,,2025-12-15,合併による解散等,9320001011740,令和７年１２月１５日大分市東大道二丁目４番５－１４０９号ＰａｒｋＡｖｅｎｕｅＥａｓｔ株式会社ＭＩＲＡＩ（9320001011740）に合併し解散,2025-06-11,1,,,,,ミライネクスト,0
1870,7340001023918,登記記録の閉鎖等,0,2025-12-19,2025-12-12,株式会社ｒｅＱ,,株式会社,鹿児島県,南九州市,頴娃町別府３６９,,46,223,8910704,,,2025-12-12,清算の結了等,,,2021-07-05,1,,,,,リキュウ,0
1874,7350001005015,登記記録の閉鎖等,0,2025-12-19,2025-12-16,日通宮崎運輸株式会社,,株式会社,宮崎県,宮崎市,昭栄町６７番地,,45,201,8800833,,,2025-12-16,清算の結了等,,,2015-10-05,1,,,,,ニッツウミヤザキウンユ,0
1876,7350001013496,登記記録の閉鎖等,0,2025-12-19,2025-12-15,株式会社ニューウェーブ,,株式会社,宮崎県,延岡市,行縢町７７６番地１４,,45,203,8820077,,,2025-12-15,清算の結了等,,,2015-10-05,1,,,,,ニューウェーブ,0
1887,7380002002867,登記記録の閉鎖等,0,2025-12-19,2025-12-15,有限会社光商事,,有限会社,福島県,福島市,大笹生字朱田２３番地,,07,201,9600251,,,2025-12-15,清算の結了等,,,2015-10-05,1,,,,,ヒカリショウジ,0
1892,7440002009096,登記記録の閉鎖等,0,2025-12-19,2025-12-16,有限会社三光石油,,有限会社,北海道,二海郡八雲町,熊石相沼町１８９番地の２,,01,346,0430332,,,2025-12-16,清算の結了等,,,2015-10-05,1,,,,,サンコウセキユ,0
1893,7470001006851,登記記録の閉鎖等,0,2025-12-19,2025-12-17,香川建設株式会社,,株式会社,香川県,綾歌郡綾川町,陶５４２３番地３,,37,387,7612103,,,2025-12-17,清算の結了等,,,2015-10-05,1,,,,,カガワケンセツ,0
1921,8010401165664,登記記録の閉鎖等,0,2025-12-19,2025-12-01,株式会社Ａ－Ｄｉｇｉｔａｌ,,株式会社,東京都,港区,愛宕２丁目５番１号,,13,103,1050002,,,2025-12-01,清算の結了等,,,2022-02-22,1,,,,,エーデジタル,0
1930,8010403012451,登記記録の閉鎖等,0,2025-12-19,2025-12-01,合同会社ＡＹＫ１２,,合同会社,東京都,港区,元赤坂１丁目１番７－１２０９号株式会社赤坂国際会計内,,13,103,1070051,,,2025-12-01,合併による解散等,1010401180513,令和７年１２月１日東京都港区元赤坂一丁目１番７－１２０９号株式会社赤坂国際会計内株式会社サンメタル（1010401180513）に合併し解散,2015-10-05,1,,,,,エーワイケージュウニ,0
1936,8010501016965,登記記録の閉鎖等,0,2025-12-19,2025-12-11,豊エンジニアリング株式会社,,株式会社,東京都,台東区,台東１丁目３３番６－４０２号,,13,106,1100016,,,2025-12-11,清算の結了等,,,2015-10-05,1,,,,,ユタカエンジニアリング,0
1954,8011501014884,登記記録の閉鎖等,0,2025-12-19,2025-12-16,株式会社隆仁,,株式会社,東京都,荒川区,西日暮里２丁目１８番１２号,,13,118,1160013,,,2025-12-16,清算の結了等,,,2015-10-05,1,,,,,タカジン,0
1960,8011701000271,登記記録の閉鎖等,0,2025-12-19,2025-12-15,株式会社浅野機械製作所,,株式会社,東京都,江戸川区,松江２丁目３８番１６号,,13,123,1320025,,,2025-12-15,清算の結了等,,,2015-10-05,1,,,,,アサノキカイセイサクショ,0
1971,8020002049274,登記記録の閉鎖等,0,2025-12-19,2025-12-08,有限会社横溝土建,,有限会社,神奈川県,横浜市鶴見区,北寺尾６丁目３番１３号,,14,101,2300074,,,2025-12-08,清算の結了等,,,2015-10-05,1,,,,,ヨコミゾドケン,0
1974,8021001036981,登記記録の閉鎖等,0,2025-12-19,2025-12-02,東名ハーネス株式会社,,株式会社,神奈川県,平塚市,大神２１４３番地１,,14,203,2540012,,,2025-12-02,清算の結了等,,,2015-10-05,1,,,,,トウメイハーネス,0
1985,8030002089947,登記記録の閉鎖等,0,2025-12-19,2025-12-12,有限会社エドヤ,,有限会社,埼玉県,吉川市,大字平沼１２２４番地２,,11,243,3420056,,,2025-12-12,清算の結了等,,,2015-10-05,1,,,,,エドヤ,0
1989,8030005021155,登記記録の閉鎖等,0,2025-12-19,2025-12-03,一般社団法人日本衛生管理協会,,その他の設立登記法人,埼玉県,川越市,仙波町２丁目１番地１,,11,201,3500034,,,2025-12-03,清算の結了等,,,2023-03-08,1,,,,,ニホンエイセイカンリキョウカイ,0
1992,8040001097660,登記記録の閉鎖等,0,2025-12-19,2025-12-01,株式会社東和工建,,株式会社,千葉県,船橋市,本中山４丁目１６番６号,,12,204,2730035,,,2025-12-01,清算の結了等,,,2016-11-11,1,,,,,,0
1997,8050001023260,登記記録の閉鎖等,0,2025-12-19,2025-12-12,シンコーワールド株式会社,,株式会社,茨城県,日立市,相田町２丁目９番１３号,,08,202,3191415,,,2025-12-12,清算の結了等,,,2015-10-05,1,,,,,シンコーワールド,0
2013,8080401025416,登記記録の閉鎖等,0,2025-12-19,2025-12-10,株式会社タックスサービス,,株式会社,静岡県,浜松市中央区,初生町９２０番地の５,,22,138,4338112,,,2025-12-10,清算の結了等,,,2021-10-11,1,,,,,タックスサービス,0
2015,8080402001812,登記記録の閉鎖等,0,2025-12-19,2025-12-10,有限会社小栗鉄工所,,有限会社,静岡県,浜松市中央区,三方原町１７４４番地,,22,138,4338105,,,2025-12-10,清算の結了等,,,2015-10-05,1,,,,,オグリテッコウジョ,0
2023,8120001017791,登記記録の閉鎖等,0,2025-12-19,2025-12-18,株式会社松福堂,,株式会社,大阪府,大阪市生野区,新今里２丁目３番１５号,,27,116,5440001,,,2025-12-18,清算の結了等,,,2015-10-05,1,,,,,ショウフクドウ,0
2041,8120101067968,登記記録の閉鎖等,0,2025-12-19,2025-12-12,株式会社ＫＵＢＯＴＡ,,株式会社,大阪府,堺市中区,深井清水町３５１０,,27,142,5998273,,,2025-12-12,清算の結了等,,,2023-08-04,1,,,,,クボタ,0
2053,8130002013500,登記記録の閉鎖等,0,2025-12-19,2025-12-16,有限会社小野工務店,,有限会社,京都府,京都市伏見区,納所岸ノ下２５番地の５５,,26,109,6128271,,,2025-12-16,清算の結了等,,,2015-10-05,1,,,,,オノコウムテン,0
2060,8140001000853,登記記録の閉鎖等,0,2025-12-19,2025-12-11,若草食品株式会社,,株式会社,兵庫県,芦屋市,川西町３番２１号,,28,206,6590072,,,2025-12-11,清算の結了等,,,2015-10-05,1,,,,,ワカクサショクヒン,0
2068,8140005011830,登記記録の閉鎖等,0,2025-12-19,2025-12-09,ＮＰＯ法人ＣｏｎｏａｓＳ,,その他の設立登記法人,大阪府,泉南郡熊取町,野田２丁目２３番２０号,,27,361,5900451,,,2025-12-09,清算の結了等,,,2015-10-05,1,,,,,コノアス,0
2073,8150001015982,登記記録の閉鎖等,0,2025-12-19,2025-12-16,株式会社小川組,,株式会社,奈良県,吉野郡下市町,大字新住１４１番地の１,,29,443,6380045,,,2025-12-16,清算の結了等,,,2015-10-05,1,,,,,オガワグミ,0
2086,8180302012239,登記記録の閉鎖等,0,2025-12-19,2025-12-11,有限会社ケイズ建築工房,,有限会社,愛知県,豊橋市,吉前町字西吉前新田４８番地３,,23,201,4418004,,,2025-12-11,清算の結了等,,,2015-10-05,1,,,,,ケイズケンチクコウボウ,0
2087,8190002008387,登記記録の閉鎖等,0,2025-12-19,2025-12-15,有限会社エーコー,,有限会社,三重県,伊勢市,楠部町２６３番地１０９,,24,203,5160014,,,2025-12-15,清算の結了等,,,2015-10-05,1,,,,,エーコー,0
2100,8250005002686,登記記録の閉鎖等,0,2025-12-19,2025-12-16,山口環境保全協同組合,,その他の設立登記法人,山口県,宇部市,大字車地字八窪１８５番地,,35,202,7590133,,,2025-12-16,清算の結了等,,,2015-10-05,1,,,,,ヤマグチカンキョウホゼン,0
2101,8270002009030,登記記録の閉鎖等,0,2025-12-19,2025-12-17,有限会社石倉・建装,,有限会社,鳥取県,境港市,竹内町３５６５番地７５,,31,204,6840043,,,2025-12-17,清算の結了等,,,2015-10-05,1,,,,,イシクラケンソウ,0
2103,8290001057920,登記記録の閉鎖等,0,2025-12-19,2025-12-01,香陽株式会社,,株式会社,福岡県,福岡市博多区,博多駅南４丁目９－１,,40,132,8120016,,,2025-12-01,清算の結了等,,,2015-10-05,1,,,,,コウヨウ,0
2121,8370001012958,登記記録の閉鎖等,0,2025-12-19,2025-12-16,株式会社共栄ファンドリー,,株式会社,宮城県,仙台市若林区,荒井７丁目１１番地の９,,04,103,9840032,,,2025-12-16,清算の結了等,,,2015-10-05,1,,,,,キョウエイファンドリー,0
2137,8430001043781,登記記録の閉鎖等,0,2025-12-19,2025-12-15,株式会社道央物流,,株式会社,北海道,恵庭市,柏木町３丁目５番４号,,01,231,0611423,,,2025-12-15,清算の結了等,,,2015-10-05,1,,,,,ドウオウブツリュウ,0
2138,8430001063722,登記記録の閉鎖等,0,2025-12-19,2025-12-18,株式会社らぶアンドぴーす,,株式会社,北海道,札幌市中央区,大通東２丁目３番地１,,01,101,0600041,,,2025-12-18,清算の結了等,,,2015-10-05,1,,,,,ラブアンドピース,0
2141,8430002064273,登記記録の閉鎖等,0,2025-12-19,2025-12-15,有限会社新栄防水,,有限会社,北海道,室蘭市,柏木町５０番１５号,,01,205,0500064,,,2025-12-15,清算の結了等,,,2015-10-05,1,,,,,,0
2191,9010901049416,登記記録の閉鎖等,0,2025-12-19,2025-12-16,株式会社マーブリング・プランニング,,株式会社,東京都,世田谷区,南烏山１丁目１２番２８号,,13,112,1570062,,,2025-12-16,合併による解散等,7012401008597,令和７年１０月１日東京都調布市国領町八丁目４番地１２株式会社マーブリングファインアーツ（7012401008597）に合併し解散,2021-09-09,1,,,,,マーブリングプランニング,0
2192,9010902025507,登記記録の閉鎖等,0,2025-12-19,2025-12-17,有限会社ナカヨ商事,,有限会社,東京都,世田谷区,成城３丁目４番３号パークコート成城４０４,,13,112,1570066,,,2025-12-17,清算の結了等,,,2015-10-05,1,,,,,ナカヨショウジ,0
2202,9011101009499,登記記録の閉鎖等,0,2025-12-19,2025-11-07,昭友商事株式会社,,株式会社,東京都,新宿区,市谷本村町２番１２号昭和パックス株式会社内,,13,104,1620845,,,2025-11-07,合併による解散等,9011101009961,令和７年１１月１日東京都新宿区市谷本村町２番１２号昭和パックス株式会社（9011101009961）に合併し解散,2015-10-05,1,,,,,ショウユウショウジ,0
2214,9011501022952,登記記録の閉鎖等,0,2025-12-19,2025-12-16,コーソ不動産株式会社,,株式会社,東京都,北区,堀船１丁目３番３号,,13,117,1140004,,,2025-12-16,清算の結了等,,,2017-08-24,1,,,,,コーソフドウサン,0
2219,9012403001895,登記記録の閉鎖等,0,2025-12-19,2025-12-17,合同会社ナカムラ,,合同会社,東京都,武蔵野市,吉祥寺本町２丁目１６番１２号,,13,203,1800004,,,2025-12-17,清算の結了等,,,2015-10-05,1,,,,,ナカムラ,0
2243,9020005005934,登記記録の閉鎖等,0,2025-12-19,2025-12-12,特定非営利活動法人そよ風,,その他の設立登記法人,神奈川県,横浜市神奈川区,神奈川２丁目１７番地６,,14,102,2210045,,,2025-12-12,清算の結了等,,,2015-10-05,1,,,,,,0
2250,9030001095722,登記記録の閉鎖等,0,2025-12-19,2025-12-15,株式会社京浜テクニカル,,株式会社,埼玉県,川口市,末広３丁目５番１６トーカンマンション川口五番館６０１号室,,11,203,3320006,,,2025-12-15,清算の結了等,,,2015-10-05,1,,,,,ケイヒンテクニカル,0
2276,9050002045996,登記記録の閉鎖等,0,2025-12-19,2025-12-12,共栄産業有限会社,,有限会社,茨城県,つくば市,上郷１４２１番地の１,,08,220,3002645,,,2025-12-12,清算の結了等,,,2025-12-04,1,,,,,キョウエイサンギョウ,0
2281,9070001040278,登記記録の閉鎖等,0,2025-12-19,2025-12-16,株式会社ＴＨＲＵ,,株式会社,群馬県,高崎市,問屋町西１丁目１番地３－１Ｆ,,10,202,3700007,,,2025-12-16,清算の結了等,,,2023-04-12,1,,,,,スルー,0
2283,9070002011096,登記記録の閉鎖等,0,2025-12-19,2025-12-15,有限会社勅使川原組,,有限会社,群馬県,高崎市,飯塚町４６６番地の４,,10,202,3700069,,,2025-12-15,清算の結了等,,,2015-10-05,1,,,,,テシガワラグミ,0
2284,9080002001138,登記記録の閉鎖等,0,2025-12-19,2025-12-15,有限会社オータキ,,有限会社,静岡県,静岡市駿河区,曲金５丁目４番３号,,22,102,4228006,,,2025-12-15,清算の結了等,,,2015-10-05,1,,,,,オータキ,0
2309,9120002071069,登記記録の閉鎖等,0,2025-12-19,2025-12-16,有限会社三和サービス,,有限会社,大阪府,大阪市港区,磯路１丁目６番２号,,27,107,5520003,,,2025-12-16,清算の結了等,,,2015-10-05,1,,,,,サンワサービス,0
2314,9120101034538,登記記録の閉鎖等,0,2025-12-19,2025-12-10,株式会社ｆｕ－ｌａｂ,,株式会社,大阪府,富田林市,若松町５丁目３番３号,,27,214,5840024,,,2025-12-10,清算の結了等,,,2015-10-05,1,,,,,フューラブ,0
2324,9130003007715,登記記録の閉鎖等,0,2025-12-19,2025-12-15,合同会社Ｔ’ｚ　ｃｏｍｐａｎｙ,,合同会社,京都府,京都市西京区,桂徳大寺北町９１番地ＯＮマンション２０５号,,26,111,6158301,,,2025-12-15,清算の結了等,,,2022-01-25,1,,,,,ティーズカンパニー,0
2345,9180002054043,登記記録の閉鎖等,0,2025-12-19,2025-12-16,有限会社エーケー工業,,有限会社,愛知県,名古屋市港区,明正１丁目３３７番地,,23,111,4550806,,,2025-12-16,清算の結了等,,,2015-10-05,1,,,,,エーケーコウギョウ,0
2351,9200001036997,登記記録の閉鎖等,0,2025-12-19,2025-12-15,岐南青果株式会社,,株式会社,岐阜県,羽島郡岐南町,徳田４丁目２０８番地,,21,302,5016016,,,2025-12-15,清算の結了等,,,2019-12-27,1,,,,,ギナンセイカ,0
2353,9210001012881,登記記録の閉鎖等,0,2025-12-19,2025-12-15,サバエサニタリーサービス株式会社,,株式会社,福井県,鯖江市,旭町１丁目２番６号,,18,207,9160025,,,2025-12-15,清算の結了等,,,2015-10-05,1,,,,,サバエサニタリーサービス,0
2355,9210002011354,登記記録の閉鎖等,0,2025-12-19,2025-12-15,有限会社ケアライフ光,,有限会社,福井県,小浜市,遠敷第５７号１３番地,,18,204,9170241,,,2025-12-15,清算の結了等,,,2015-10-05,1,,,,,ケアライフヒカリ,0
2356,9230001011956,登記記録の閉鎖等,0,2025-12-19,2025-12-17,株式会社イセヤマエンジニアリング,,株式会社,富山県,氷見市,上泉１２４３番地,,16,205,9350037,,,2025-12-17,清算の結了等,,,2015-10-05,1,,,,,イセヤマエンジニアリング,0
2361,9260003003065,登記記録の閉鎖等,0,2025-12-19,2025-12-16,合同会社ＯＤ　ｃｏｍｐａｎｙ,,合同会社,岡山県,岡山市北区,西長瀬１２１０番地１,,33,101,7000965,,,2025-12-16,清算の結了等,,,2020-01-08,1,,,,,オーディーカンパニー,0
2386,9370802000805,登記記録の閉鎖等,0,2025-12-19,2025-12-15,有限会社大富,,有限会社,宮城県,岩沼市,桑原４丁目２番２２号,,04,211,9892445,,,2025-12-15,清算の結了等,,,2015-10-05,1,,,,,オオトミ,0
2388,9380001032062,登記記録の閉鎖等,0,2025-12-19,2025-12-03,株式会社オーキューブ,,株式会社,福島県,郡山市,方八町１丁目１番３９号,,07,203,9638811,,,2025-12-03,合併による解散等,3380001006170,令和７年１２月１日福島県郡山市方八町一丁目１番３９号株式会社ニラク（3380001006170）に合併し解散,2021-07-28,1,,,,,オーキューブ,0
2396,9460301000074,登記記録の閉鎖等,0,2025-12-19,2025-12-17,株式会社井上工務所,,株式会社,北海道,北見市,留辺蘂町栄町９番地５,,01,208,0910033,,,2025-12-17,清算の結了等,,,2015-10-05,1,,,,,イノウエコウムショ,0
