sequenceNumber,corporateNumber,process,correct,updateDate,changeDate,name,nameImageId,kind,prefectureName,cityName,streetNumber,addressImageId,prefectureCode,cityCode,postCode,addressOutside,addressOutsideImageId,closeDate,closeCause,successorCorporateNumber,changeCause,assignmentDate,latest,enName,enPrefectureName,enCityName,enAddressOutside,furigana,hihyoji
6,1010003050445,新規,0,2026-02-20,2026-02-20,合同会社トライデントＺ,,合同会社,東京都,中央区,日本橋１丁目４番１号,,13,102,1030027,,,,,,,2026-02-20,1,,,,,トライデントゼット,0
7,1010003050461,新規,0,2026-02-20,2026-02-20,合同会社プラス８号,,合同会社,東京都,中央区,日本橋箱崎町１６－１東益ビル６階,,13,102,1030015,,,,,,,2026-02-20,1,,,,,プラスハチゴウ,0
8,1010003050478,新規,0,2026-02-20,2026-02-20,合同会社雷門ＭｉｘＳａｎｄ,,合同会社,東京都,千代田区,霞が関３丁目２番５号,,13,101,1000013,,,,,,,2026-02-20,1,,,,,カミナリモンミックスサンド,0
9,1010003050486,新規,0,2026-02-20,2026-02-20,ファーイーストアンフォールド合同会社,,合同会社,東京都,文京区,春日２丁目１９番１２号,,13,105,1120003,,,,,,,2026-02-20,1,,,,,ファーイーストアンフォールド,0
10,1010003050494,新規,0,2026-02-20,2026-02-20,マカロン３ホールディング合同会社,,合同会社,東京都,千代田区,丸の内１丁目４番１号東京共同会計事務所内,,13,101,1000005,,,,,,,2026-02-20,1,,,,,マカロンスリーホールディング,0
28,1010403037380,新規,0,2026-02-20,2026-02-20,合同会社ＢＦ‐Ｃｏｓｔｕｓ,,合同会社,東京都,港区,六本木６丁目１０番１号六本木ヒルズ森タワー１５Ｆ,,13,103,1060032,,,,,,,2026-02-20,1,,,,,ビーエフコスタス,0
29,1010403037389,新規,0,2026-02-20,2026-02-20,合同会社エステート・アルファ,,合同会社,東京都,港区,虎ノ門１丁目１番１２号,,13,103,1050001,,,,,,,2026-02-20,1,,,,,エステートアルファ,0
31,1010405025391,新規,0,2026-02-20,2026-02-20,Ｈｕｇｏ２一般社団法人,,その他の設立登記法人,東京都,港区,虎ノ門３丁目２２番１０－２０１号,,13,103,1050001,,,,,,,2026-02-20,1,,,,,ヒューゴツー,0
40,1010901058977,新規,0,2026-02-20,2026-02-20,株式会社ＡＬＭＡＬＵＸ,,株式会社,東京都,世田谷区,赤堤４丁目４２－３マイスタイルビンテージ世田谷赤堤１０３,,13,112,1560044,,,,,,,2026-02-20,1,,,,,アルマルクス,0
41,1010901059026,新規,0,2026-02-20,2026-02-20,株式会社人間発電所,,株式会社,東京都,世田谷区,野沢３丁目２５―４ブレス学芸大学ザコート１１２,,13,112,1540003,,,,,,,2026-02-20,1,,,,,ニンゲンハツデンショ,0
42,1010903010639,新規,0,2026-02-20,2026-02-20,合同会社Ｍｉｙａｂｉ　Ｃａｐｉｔａｌ　Ｐａｒｔｎｅｒｓ,,合同会社,東京都,世田谷区,祖師谷３丁目１７番２２‐３１６号,,13,112,1570072,,,,,,,2026-02-20,1,,,,,ミヤビキャピタルパートナーズ,0
49,1011003023572,新規,0,2026-02-20,2026-02-20,ケンズビジネスデザイン合同会社,,合同会社,東京都,渋谷区,恵比寿１丁目１９－１９恵比寿ビジネスタワー２・１０階,,13,113,1500013,,,,,,,2026-02-20,1,,,,,ケンズビジネスデザイン,0
50,1011003023655,新規,0,2026-02-20,2026-02-20,合同会社かとひら,,合同会社,東京都,渋谷区,円山町５番３号ＭＩＥＵＸ渋谷ビル８階,,13,113,1500044,,,,,,,2026-02-20,1,,,,,カトヒラ,0
53,1011101114802,新規,0,2026-02-20,2026-02-20,株式会社トナリデ,,株式会社,東京都,新宿区,西新宿３丁目３番１３号西新宿水間ビル６階,,13,104,1600023,,,,,,,2026-02-20,1,,,,,トナリデ,0
54,1011101114810,新規,0,2026-02-20,2026-02-20,株式会社ブレーメンズ,,株式会社,東京都,新宿区,四谷４丁目２８番２０－４０１号,,13,104,1600004,,,,,,,2026-02-20,1,,,,,ブレーメンズ,0
62,1011603005020,新規,0,2026-02-20,2026-02-20,合同会社ＦＦＫ,,合同会社,東京都,練馬区,南大泉４丁目１０番８号,,13,120,1780064,,,,,,,2026-02-20,1,,,,,エフエフケー,0
64,1011801047467,新規,0,2026-02-20,2026-02-20,雅豊グローバル株式会社,,株式会社,東京都,足立区,西新井本町４丁目２２番１９号,,13,121,1230845,,,,,,,2026-02-20,1,,,,,ガホウグローバル,0
65,1011801047475,新規,0,2026-02-20,2026-02-20,株式会社ＵＰＤＡＴＥ　ＷＯＲＫＳ,,株式会社,東京都,足立区,千住中居町１７－２０マルアイビル６Ｆ,,13,121,1200035,,,,,,,2026-02-20,1,,,,,アップデートワークス,0
69,1012701019325,新規,0,2026-02-20,2026-02-20,株式会社ＹＯＲＯＫＯＢＩ,,株式会社,東京都,西東京市,南町５丁目３番５号サウスタウン２０１,,13,229,1880012,,,,,,,2026-02-20,1,,,,,ヨロコビ,0
70,1012703003475,新規,0,2026-02-20,2026-02-20,ゆい合同会社,,合同会社,東京都,小平市,学園東町１丁目１１－６,,13,211,1870043,,,,,,,2026-02-20,1,,,,,ユイ,0
73,1013303008105,新規,0,2026-02-20,2026-02-20,合同会社ライズワン,,合同会社,東京都,豊島区,東池袋１丁目３８番７号コンシェリア池袋マスターズヴィラ１４０８号,,13,116,1700013,,,,,,,2026-02-20,1,,,,,ライズワン,0
75,1020001167174,新規,0,2026-02-20,2026-02-20,三港エアーズジャパン株式会社,,株式会社,神奈川県,横浜市西区,久保町一丁目２４番地,,14,103,2200061,,,,,,,2026-02-20,1,,,,,サンコウエアーズジャパン,0
76,1020001167182,新規,0,2026-02-20,2026-02-20,株式会社ＦＣ‐Ｔｒｕｓｔ,,株式会社,神奈川県,横浜市旭区,今宿西町３５２番地５ベルリーナメゾン１０３,,14,112,2410031,,,,,,,2026-02-20,1,,,,,エフシートラスト,0
77,1020001167199,新規,0,2026-02-20,2026-02-20,西原製パン株式会社,,株式会社,神奈川県,横浜市神奈川区,神大寺４丁目１番７号,,14,102,2210801,,,,,,,2026-02-20,1,,,,,ニシハラセイパン,0
78,1020001167265,新規,0,2026-02-20,2026-02-20,株式会社現代手工業乃党,,株式会社,神奈川県,横浜市保土ケ谷区,仏向町２８７番地,,14,106,2400044,,,,,,,2026-02-20,1,,,,,ゲンダイシュコウギョウノトウ,0
79,1020003030388,新規,0,2026-02-20,2026-02-20,合同会社ワイズ,,合同会社,神奈川県,横浜市西区,浅間町１丁目４番地３ウィザードビル４０２,,14,103,2200072,,,,,,,2026-02-20,1,,,,,ワイズ,0
80,1020003030421,新規,0,2026-02-20,2026-02-20,合同会社オスカーリスト,,合同会社,神奈川県,横浜市戸塚区,上柏尾町３２３番地７,,14,110,2440811,,,,,,,2026-02-20,1,,,,,オスカーリスト,0
81,1020003030438,新規,0,2026-02-20,2026-02-20,合同会社ＮＥＲ,,合同会社,神奈川県,川崎市宮前区,小台２丁目１３番地１６ルネステージ宮前平２０７,,14,136,2160007,,,,,,,2026-02-20,1,,,,,エヌイーアール,0
86,1021001086901,新規,0,2026-02-20,2026-02-20,株式会社ＶｅｎｕｓＳｔｙｌｅ　Ｈｏｌｄｉｎｇｓ,,株式会社,神奈川県,藤沢市,辻堂神台２丁目２－１アイクロス湘南８階Ｃ,,14,205,2510041,,,,,,設立,2026-02-20,1,,,,,ビーナススタイルホールディングス,0
87,1021001087544,新規,0,2026-02-20,2026-02-20,株式会社アドベン,,株式会社,神奈川県,横須賀市,上町３丁目５番４号,,14,201,2380017,,,,,,,2026-02-20,1,,,,,アドベン,0
88,1021001087552,新規,0,2026-02-20,2026-02-20,ＥＦＦＯＲＴ株式会社,,株式会社,神奈川県,茅ヶ崎市,西久保２００８番地１－１１０５号グランドビュー茅ヶ崎,,14,207,2530083,,,,,,,2026-02-20,1,,,,,エフォート,0
90,1021005013538,新規,0,2026-02-20,2026-02-20,一般社団法人Ｔｈｅ　ＨＩＲＯ’ｓ　Ｃｈｏｉｃｅ　Ｄｒｅａｍ　Ｆｕｎｄ,,その他の設立登記法人,神奈川県,藤沢市,辻堂新町１丁目２番２３号プリメロ湘南２階Ｃ棟,,14,205,2510042,,,,,,,2026-02-20,1,,,,,ザヒーローズチョイスドリームファンド,0
91,1021005013546,新規,0,2026-02-20,2026-02-20,一般社団法人ピアチェーレ,,その他の設立登記法人,神奈川県,藤沢市,大鋸１丁目７番１４号,,14,205,2510002,,,,,,,2026-02-20,1,,,,,ピアチェーレ,0
95,1030001171101,新規,0,2026-02-20,2026-02-20,ＫＳＫＢ株式会社,,株式会社,埼玉県,春日部市,粕壁１丁目７番地１３,,11,214,3440061,,,,,,,2026-02-20,1,,,,,ケーエスケービー,0
102,1040001142555,新規,0,2026-02-20,2026-02-20,株式会社ＢＰＹ,,株式会社,千葉県,野田市,みずき３丁目２番地の１６,,12,208,2780027,,,,,,,2026-02-20,1,,,,,ビーピーワイ,0
106,1060001039023,新規,0,2026-02-20,2026-02-20,Ｌｕｘｅ　Ａｓｓｅｔ　Ｈｏｌｄｉｎｇｓ株式会社,,株式会社,栃木県,宇都宮市,上横田町８５７番地１,,09,201,3210106,,,,,,,2026-02-20,1,,,,,リュクスアセットホールディングス,0
111,1080101026092,新規,0,2026-02-20,2026-02-20,伊藤特殊板金塗装株式会社,,株式会社,静岡県,富士宮市,北山５３１３番地の２,,22,207,4180112,,,,,,,2026-02-20,1,,,,,イトウトクシュバンキントソウ,0
134,1120001284117,新規,0,2026-02-20,2026-02-20,リアクト株式会社,,株式会社,大阪府,大阪市西区,靱本町１丁目１０番４号本町井出ビル７階,,27,106,5500004,,,,,,,2026-02-20,1,,,,,リアクト,0
139,1120003031970,新規,0,2026-02-20,2026-02-20,未来教育合同会社,,合同会社,大阪府,大阪市浪速区,塩草３丁目１１番１２号,,27,111,5560024,,,,,,,2026-02-20,1,,,,,ミライキョウイク,0
141,1120101073213,新規,0,2026-02-20,2026-02-20,ニワダニぷらす株式会社,,株式会社,大阪府,堺市中区,深井沢町３２８９,,27,142,5998236,,,,,,,2026-02-20,1,,,,,ニワダニプラス,0
145,1122003003470,新規,0,2026-02-20,2026-02-20,合同会社神輿,,合同会社,大阪府,東大阪市,中小阪１丁目９番５号,,27,227,5770804,,,,,,,2026-02-20,1,,,,,ミコシ,0
159,1140005027809,新規,0,2026-02-20,2026-02-20,一般社団法人神戸発祥祭,,その他の設立登記法人,兵庫県,神戸市中央区,港島中町６丁目９番１,,28,110,6500046,,,,,,,2026-02-20,1,,,,,コウベハッショウサイ,0
161,1160001027430,新規,0,2026-02-20,2026-02-20,株式会社吉原技研,00142653,株式会社,滋賀県,長浜市,桜町２１８番地３,,25,203,5290121,,,,,,,2026-02-20,1,,,,,ヨシハラギケン,0
162,1160003003727,新規,0,2026-02-20,2026-02-20,合同会社プロパティ,,合同会社,滋賀県,彦根市,中藪２丁目５番１２－１０２号,,25,202,5220051,,,,,,,2026-02-20,1,,,,,プロパティ,0
171,1190001032857,新規,0,2026-02-20,2026-02-20,株式会社ＹＭＨＮ,,株式会社,三重県,四日市市,城北町１０番４号,,24,202,5100823,,,,,,,2026-02-20,1,,,,,ヤマハナ,0
172,1190001032923,新規,0,2026-02-20,2026-02-20,株式会社ＯＮ　ＴＨＥ　ＲＯＡＤ,,株式会社,三重県,桑名市,大字江場７１８番地１,,24,205,5110836,,,,,,,2026-02-20,1,,,,,オンザロード,0
174,1200003007236,新規,0,2026-02-20,2026-02-20,ＫＵＭＡＲＡ　ＩＮＴＥＲＮＡＴＩＯＮＡＬ　ＴＲＡＤＩＮＧ合同会社,,合同会社,岐阜県,揖斐郡大野町,大字黒野６４１番地９－２階Ｂ,,21,403,5010521,,,,,,,2026-02-20,1,,,,,クマラインターナショナルトレーディング,0
175,1200005013851,新規,0,2026-02-20,2026-02-20,司法書士法人Ｉオフィス,,その他の設立登記法人,岐阜県,多治見市,住吉町５丁目５番地の１,,21,204,5070015,,,,,,,2026-02-20,1,,,,,アイオフィス,0
176,1210003002013,新規,0,2026-02-20,2026-02-20,グリルハウスパレット合同会社,,合同会社,福井県,大飯郡おおい町,名田庄三重２１号大藪８番１,,18,483,9170381,,,,,,,2026-02-20,1,,,,,グリルハウスパレット,0
181,1230003002580,新規,0,2026-02-20,2026-02-20,合同会社コッタワーク,,合同会社,富山県,富山市,上赤江町２丁目９番１１号,,16,201,9300816,,,,,,,2026-02-20,1,,,,,コッタワーク,0
182,1240001066189,新規,0,2026-02-20,2026-02-20,ＫＳＮ株式会社,,株式会社,広島県,福山市,南蔵王町５丁目１４番２６号（２階）,,34,207,7210973,,,,,,,2026-02-20,1,,,,,ケーエスエヌ,0
183,1240003007612,新規,0,2026-02-20,2026-02-20,合同会社ａｎｃｒｅ,,合同会社,広島県,呉市,仁方本町１丁目１０番５号,,34,202,7370152,,,,,,,2026-02-20,1,,,,,アンクル,0
193,1290001113192,新規,0,2026-02-20,2026-02-20,株式会社ＥＭなつめ,,株式会社,福岡県,福岡市早良区,原２丁目１２番１－４１２号,,40,137,8140022,,,,,,,2026-02-20,1,,,,,イーエムナツメ,0
194,1290001113226,新規,0,2026-02-20,2026-02-20,株式会社ＦｒｏｍＺｅｒｏ,,株式会社,福岡県,久留米市,諏訪野町１５５３番地２１,,40,203,8300037,,,,,,,2026-02-20,1,,,,,フロムゼロ,0
199,1290003018068,新規,0,2026-02-20,2026-02-20,ＹＤ　Ｅｎｅｒｇｙ　Ｊａｐａｎ合同会社,,合同会社,福岡県,福岡市博多区,博多駅前３丁目４番３３号アクロスキューブ博多駅前,,40,132,8120011,,,,,,,2026-02-20,1,,,,,,0
203,1320003004907,新規,0,2026-02-20,2026-02-20,合同会社剛翔工業,,合同会社,大分県,豊後大野市,三重町玉田９２番地１フレグランスＴＡＭＡＤＡ（Ａ－１０２）,,44,212,8797153,,,,,,,2026-02-20,1,,,,,ゴウショウコウギョウ,0
212,1370001053488,新規,0,2026-02-20,2026-02-20,株式会社フォークス,,株式会社,宮城県,仙台市宮城野区,榴岡２丁目３番１４,,04,102,9830852,,,,,,,2026-02-20,1,,,,,フォークス,0
226,1430001096274,新規,0,2026-02-20,2026-02-20,オーハック株式会社,,株式会社,北海道,札幌市中央区,宮の森一条１４丁目５番２８号,,01,101,0640951,,,,,,,2026-02-20,1,,,,,オーハック,0
227,1430001096299,新規,0,2026-02-20,2026-02-20,株式会社どうぞ,,株式会社,北海道,札幌市中央区,大通西１３丁目４－１１１,,01,101,0600042,,,,,,,2026-02-20,1,,,,,ドウゾ,0
228,1430001096308,新規,0,2026-02-20,2026-02-20,株式会社ｍｏｃｏ’ｓ,,株式会社,北海道,札幌市白石区,北郷三条１３丁目１番３３－１０２,,01,104,0030833,,,,,,,2026-02-20,1,,,,,モコズ,0
230,1450001014861,新規,0,2026-02-20,2026-02-20,株式会社ケイエムエス,,株式会社,北海道,旭川市,二条通１３丁目１４３番地１,,01,204,0700032,,,,,,,2026-02-20,1,,,,,ケイエムエス,0
233,1470001021096,新規,0,2026-02-20,2026-02-20,株式会社リベル,,株式会社,香川県,東かがわ市,小海４１７番地１,,37,207,7692908,,,,,,,2026-02-20,1,,,,,リベル,0
237,1500005008854,新規,0,2026-02-20,2026-02-20,一般社団法人えひめ就労,,その他の設立登記法人,愛媛県,松山市,桑原７丁目１番２６号,,38,201,7900911,,,,,,,2026-02-20,1,,,,,エヒメシュウロウ,0
249,2010001262685,新規,0,2026-02-20,2026-02-20,株式会社ＴＯＰＳＴＡＴＥ,,株式会社,東京都,中央区,銀座１丁目１２番４号Ｎ＆ＥＢＬＤ．６Ｆ,,13,102,1040061,,,,,,,2026-02-20,1,,,,,トップステート,0
250,2010001263007,新規,0,2026-02-20,2026-02-20,株式会社ＣＲＯＳＳ　ＬＡＢ,,株式会社,東京都,千代田区,麹町６丁目２－１麹町サイトビル４Ｆ,,13,101,1020083,,,,,,,2026-02-20,1,,,,,クロスラボ,0
257,2010003050403,新規,0,2026-02-20,2026-02-20,グローブ４合同会社,,合同会社,東京都,中央区,銀座１丁目６番１１号アースタックス税理士法人内,,13,102,1040061,,,,,,,2026-02-20,1,,,,,グローブフォー,0
258,2010003050444,新規,0,2026-02-20,2026-02-20,Ｂｌｕｅ　Ｓｔａｒ　Ｌｉｖｉｎｇ　Ｍａｎａｇｅｍｅｎｔ合同会社,,合同会社,東京都,文京区,本駒込３丁目３９番９号,,13,105,1130021,,,,,,,2026-02-20,1,,,,,ブルースターリビングマネジメント,0
259,2010003050460,新規,0,2026-02-20,2026-02-20,合同会社プラス７号,,合同会社,東京都,中央区,日本橋箱崎町１６－１東益ビル６階,,13,102,1030015,,,,,,,2026-02-20,1,,,,,プラスナナゴウ,0
260,2010005041409,新規,0,2026-02-20,2026-02-20,一般社団法人トライデントＺ,,その他の設立登記法人,東京都,中央区,日本橋１丁目４番１号,,13,102,1030027,,,,,,,2026-02-20,1,,,,,トライデントゼット,0
261,2010101017097,新規,0,2026-02-20,2026-02-20,株式会社Ｈｉｇｈ　Ｂｅｔａ,,株式会社,東京都,八王子市,小比企町５３６－２８,,13,201,1930934,,,,,,,2026-02-20,1,,,,,ハイベータ,0
271,2010401196657,新規,0,2026-02-20,2026-02-20,株式会社サーフィス,,株式会社,東京都,港区,虎ノ門５丁目１１番１号オランダヒルズ森タワーＲｏＰ８０６,,13,103,1050001,,,,,,,2026-02-20,1,,,,,サーフィス,0
272,2010401196797,新規,0,2026-02-20,2026-02-20,株式会社Ｓ．Ｅ,,株式会社,東京都,港区,南青山３丁目１番３６号青山丸竹ビル６Ｆ,,13,103,1070062,,,,,,,2026-02-20,1,,,,,エスドットイー,0
273,2010401196822,新規,0,2026-02-20,2026-02-20,株式会社ヨハクシフト,,株式会社,東京都,港区,北青山１丁目３番１号,,13,103,1070061,,,,,,,2026-02-20,1,,,,,ヨハクシフト,0
277,2010403037363,新規,0,2026-02-20,2026-02-20,合同会社アストランティア,,合同会社,東京都,港区,北青山１丁目３番１号アールキューブ青山３階,,13,103,1070061,,,,,,,2026-02-20,1,,,,,アストランティア,0
278,2010403037388,新規,0,2026-02-20,2026-02-20,合同会社ＬＡＫＵ１,,合同会社,東京都,港区,虎ノ門１丁目１番１２号,,13,103,1050001,,,,,,,2026-02-20,1,,,,,ラクワン,0
279,2010403037405,新規,0,2026-02-20,2026-02-20,ＣＡＬＶ　Ｂａｍｂｏｏ　Ｏｐｃｏ合同会社,,合同会社,東京都,港区,六本木１丁目９番１０号アークヒルズ仙石山森タワー４０階,,13,103,1060032,,,,,,,2026-02-20,1,,,,,シーエーエルヴィーバンブーオプコ,0
292,2011001175778,新規,0,2026-02-20,2026-02-20,株式会社ＭＩＲＡＫＡ　ＧＬＯＢＡＬ,,株式会社,東京都,渋谷区,恵比寿西２丁目８番４号ＥＸ恵比寿西ビル５階,,13,113,1500021,,,,,,,2026-02-20,1,,,,,ミラカグローバル,0
293,2011003023596,新規,0,2026-02-20,2026-02-20,Ｆｉｚｚ合同会社,,合同会社,東京都,渋谷区,道玄坂１丁目１０番８号渋谷道玄坂東急ビル２Ｆ－Ｃ,,13,113,1500043,,,,,,,2026-02-20,1,,,,,フィズ,0
300,2011101114826,新規,0,2026-02-20,2026-02-20,ｎｏｍａｄＣｒｅａｔｉｏｎ株式会社,,株式会社,東京都,新宿区,西新宿３丁目３番１３号西新宿水間ビル２Ｆ,,13,104,1600023,,,,,,,2026-02-20,1,,,,,ノマドクリエイション,0
303,2011103017044,新規,0,2026-02-20,2026-02-20,ネクスト・イノベーション合同会社,,合同会社,東京都,新宿区,西新宿３丁目３番１３号西新宿水間ビル６階,,13,104,1600023,,,,,,,2026-02-20,1,,,,,ネクストイノベーション,0
307,2011701029201,新規,0,2026-02-20,2026-02-20,メディカルヘルス株式会社,,株式会社,東京都,江戸川区,南葛西５丁目３番３０号,,13,123,1340085,,,,,,,2026-02-20,1,,,,,メディカルヘルス,0
311,2011801000342,新規,0,2026-02-20,2026-02-20,五十鈴建設株式会社,,株式会社,東京都,葛飾区,鎌倉１丁目２５番７号,,13,122,1250053,,,,,,,2026-02-20,1,,,,,,0
315,2012801024546,新規,0,2026-02-20,2026-02-20,株式会社笑楽,,株式会社,東京都,立川市,錦町２丁目１番７号,,13,202,1900022,,,,,,,2026-02-20,1,,,,,ワラク,0
317,2013301055701,新規,0,2026-02-20,2026-02-20,株式会社養生堂,,株式会社,東京都,豊島区,東池袋１丁目３４番５号いちご東池袋ビル６階,,13,116,1700013,,,,,,,2026-02-20,1,,,,,ヨウジョウドウ,0
319,2020001167157,新規,0,2026-02-20,2026-02-20,株式会社Ｙｕｒｉコーポレーション,,株式会社,神奈川県,横浜市都筑区,川和町２３７０番地６,,14,118,2240057,,,,,,,2026-02-20,1,,,,,ユリコーポレーション,0
321,2020003030395,新規,0,2026-02-20,2026-02-20,合同会社Ｂｒｉｇｈｔ　Ｌｏｏｐ,,合同会社,神奈川県,川崎市麻生区,片平４丁目２３番１１－１号,,14,137,2150023,,,,,,,2026-02-20,1,,,,,ブライトループ,0
322,2020003030445,新規,0,2026-02-20,2026-02-20,合同会社ＡＮＤＡ,,合同会社,神奈川県,川崎市麻生区,万福寺１丁目１１番２５－８０３号,,14,137,2150004,,,,,,,2026-02-20,1,,,,,アンダ,0
323,2020003030453,新規,0,2026-02-20,2026-02-20,オフィス長谷川合同会社,,合同会社,神奈川県,川崎市川崎区,大師町１２番１６号,,14,131,2100816,,,,,,,2026-02-20,1,,,,,オフィスハセガワ,0
324,2020005017151,新規,0,2026-02-20,2026-02-20,一般社団法人犬猫適正飼養推進協議会,,その他の設立登記法人,神奈川県,横浜市神奈川区,鶴屋町３丁目３２番地１５、７０８,,14,102,2210835,,,,,,,2026-02-20,1,,,,,イヌネコテキセイシヨウスイシンキョウギカイ,0
325,2021001087527,新規,0,2026-02-20,2026-02-20,株式会社エフォール,,株式会社,神奈川県,藤沢市,天神町１丁目２４番地の６,,14,205,2520814,,,,,,,2026-02-20,1,,,,,エフォール,0
326,2021001087535,新規,0,2026-02-20,2026-02-20,牛市商事株式会社,,株式会社,神奈川県,相模原市中央区,中央５丁目１０番１３,,14,152,2520239,,,,,,,2026-02-20,1,,,,,ウシイチショウジ,0
327,2021001087576,新規,0,2026-02-20,2026-02-20,株式会社ＲＥＣＩＰＲＯ,,株式会社,神奈川県,海老名市,社家６丁目２１番２３号,,14,215,2430424,,,,,,,2026-02-20,1,,,,,レシプロ,0
328,2021003017184,新規,0,2026-02-20,2026-02-20,合同会社リンク,,合同会社,神奈川県,座間市,相模が丘４丁目３９番１６号,,14,216,2520001,,,,,,,2026-02-20,1,,,,,リンク,0
333,2030001171100,新規,0,2026-02-20,2026-02-20,株式会社ａｃｔ　ｎｏｗ,,株式会社,埼玉県,越谷市,千間台西４丁目１２－４６,,11,222,3430041,,,,,,,2026-02-20,1,,,,,アクトナウ,0
334,2030001171109,新規,0,2026-02-20,2026-02-20,株式会社Ｓｈｉｎｅ,,株式会社,埼玉県,さいたま市岩槻区,南平野１丁目２５番地１０,,11,110,3390051,,,,,,,2026-02-20,1,,,,,シャイン,0
337,2030005022415,新規,0,2026-02-20,2026-02-20,特定非営利活動法人美谷本ファイターズ,,その他の設立登記法人,埼玉県,戸田市,美女木５丁目１５番地の２３,,11,224,3350031,,,,,,,2026-02-20,1,,,,,ミヤモトファイターズ,0
340,2040001142554,新規,0,2026-02-20,2026-02-20,株式会社Ｅｌｐｉｓ　Ｃｈｉｂａ,,株式会社,千葉県,茂原市,下永吉１７１番地４,,12,210,2970035,,,,,,,2026-02-20,1,,,,,エルピスチバ,0
341,2040001142562,新規,0,2026-02-20,2026-02-20,株式会社ＡＣＮＢ,,株式会社,千葉県,印西市,木下東４丁目１４番地８,,12,231,2701323,,,,,,,2026-02-20,1,,,,,エーシーエヌビー,0
342,2040001142579,新規,0,2026-02-20,2026-02-20,株式会社ｔｈａｎｋａ　ＡＬＭＡ,,株式会社,千葉県,柏市,若柴２２７番地６柏の葉キャンパス１４７街区Ｃ－１４０１号,,12,217,2770871,,,,,,,2026-02-20,1,,,,,サンカアルマ,0
349,2100001039348,新規,0,2026-02-20,2026-02-20,株式会社ＢＡＲＵＮＡ,,株式会社,長野県,北佐久郡軽井沢町,軽井沢東３番地２,,20,321,3890104,,,,,,,2026-02-20,1,,,,,ベルーナ,0
350,2100005013448,新規,0,2026-02-20,2026-02-20,一般財団法人ｙｏｕ優,,その他の設立登記法人,長野県,佐久市,平賀２６６６番地２２,,20,217,3850034,,,,,,,2026-02-20,1,,,,,ユウユウ,0
360,2120001283927,新規,0,2026-02-20,2026-02-20,株式会社ＲｅＰｒｉｍｅ,,株式会社,大阪府,大阪市西成区,橘１丁目３番９号,,27,122,5570051,,,,,,,2026-02-20,1,,,,,リプライム,0
361,2120001284322,新規,0,2026-02-20,2026-02-20,株式会社インフィニ,,株式会社,大阪府,大阪市浪速区,大国２丁目５番２０号,,27,111,5560014,,,,,,,2026-02-20,1,,,,,インフィニ,0
362,2120001284339,新規,0,2026-02-20,2026-02-20,株式会社Ｂ＆Ｆ,,株式会社,大阪府,大阪市中央区,心斎橋筋１丁目２番７号鰻谷ビル２Ｆ,,27,128,5420085,,,,,,,2026-02-20,1,,,,,ビーアンドエフ,0
363,2120001284347,新規,0,2026-02-20,2026-02-20,株式会社ｋａｚｕｙｏ,,株式会社,大阪府,大阪市浪速区,恵美須西１丁目２－１６,,27,111,5560003,,,,,,,2026-02-20,1,,,,,カズヨ,0
365,2120101073212,新規,0,2026-02-20,2026-02-20,Ａ．Ｙ．Ｅ．株式会社,,株式会社,大阪府,松原市,天美東６丁目４番２０号,,27,217,5800032,,,,,,,2026-02-20,1,,,,,エーワイイー,0
366,2120101073245,新規,0,2026-02-20,2026-02-20,株式会社カゲンクレスト,,株式会社,大阪府,南河内郡河南町,大宝２丁目１３番２号,,27,382,5850005,,,,,,,2026-02-20,1,,,,,カゲンクレスト,0
373,2122001040201,新規,0,2026-02-20,2026-02-20,アイアールみらい株式会社,,株式会社,大阪府,大東市,緑が丘１丁目１４番１３号,,27,218,5740073,,,,,,,2026-02-20,1,,,,,アイアールミライ,0
377,2130001081644,新規,0,2026-02-20,2026-02-20,株式会社護縁護律,,株式会社,京都府,京都市下京区,西新屋敷中之町１１４番地１,,26,106,6008825,,,,,,,2026-02-20,1,,,,,ゴエンゴリツ,0
383,2140005027808,新規,0,2026-02-20,2026-02-20,特定非営利活動法人祝福の通路,,その他の設立登記法人,兵庫県,神戸市長田区,戸崎通３丁目９番１２号,,28,106,6530845,,,,,,,2026-02-20,1,,,,,シュクフクノツウロ,0
389,2180001170764,新規,0,2026-02-20,2026-02-20,株式会社ＨＲ,,株式会社,愛知県,名古屋市北区,平安２丁目２２番４２号ファミリアーレ平安通９０５号,,23,103,4620819,,,,,,,2026-02-20,1,,,,,エイチアール,0
395,2190001032922,新規,0,2026-02-20,2026-02-20,株式会社スマティー,,株式会社,三重県,津市,半田１４４７番地１３,,24,201,5140823,,,,,,,2026-02-20,1,,,,,スマティー,0
398,2200003007235,新規,0,2026-02-20,2026-02-20,ＪＡＰＡＮ　ＶＥＨＩＣＬＥ　ＴＲＡＤＥＲＳ合同会社,,合同会社,岐阜県,揖斐郡大野町,大字黒野６４１番地９－２階Ａ,,21,403,5010521,,,,,,,2026-02-20,1,,,,,ジャパンビークルトレーダーズ,0
400,2230005009524,新規,0,2026-02-20,2026-02-20,一般社団法人あおふく,,その他の設立登記法人,富山県,富山市,善名１２２番地,,16,201,9301303,,,,,,,2026-02-20,1,,,,,アオフク,0
401,2240001066196,新規,0,2026-02-20,2026-02-20,株式会社ｕｎｉｔＣ＆Ｇ,,株式会社,広島県,広島市安佐南区,高取南２丁目３０番１３号,,34,105,7310142,,,,,,,2026-02-20,1,,,,,ユニットシーアンドジー,0
407,2290001113191,新規,0,2026-02-20,2026-02-20,株式会社カチアゲ,,株式会社,福岡県,福岡市博多区,博多駅前１丁目２３番２号ＰａｒｋＦｒｏｎｔ博多駅前１丁目５Ｆ－Ｂ,,40,132,8120011,,,,,,,2026-02-20,1,,,,,カチアゲ,0
408,2290001113209,新規,0,2026-02-20,2026-02-20,ＡＭＢＩＴＯ株式会社,,株式会社,福岡県,福岡市中央区,大名２丁目６番５０号,,40,133,8100041,,,,,,,2026-02-20,1,,,,,アンビト,0
410,2290003018059,新規,0,2026-02-20,2026-02-20,合同会社ＬＵＭＩＮＡ,,合同会社,福岡県,筑紫野市,二日市北６丁目１８番２３号,,40,217,8180056,,,,,,,2026-02-20,1,,,,,ルミナ,0
411,2290003018067,新規,0,2026-02-20,2026-02-20,合同会社ＭＥＩＳＨＯ　ＰＯＷＥＲ２号,,合同会社,福岡県,福岡市博多区,博多駅前３丁目４番３１号アクロスキューブ博多駅前,,40,132,8120011,,,,,,,2026-02-20,1,,,,,,0
412,2290003018100,新規,0,2026-02-20,2026-02-20,合同会社Ａｐｐｙ　Ｅｓｔａｔｅ,,合同会社,福岡県,筑紫野市,杉塚２丁目１２番３１号,,40,217,8180054,,,,,,,2026-02-20,1,,,,,アピーエステート,0
420,2350001019952,新規,0,2026-02-20,2026-02-20,Ｙ‐Ａｇｅｎｔ株式会社,,株式会社,宮崎県,宮崎市,学園木花台桜２丁目６番地９サンライズカワサキＢ棟３０２,,45,201,8892154,,,,,,,2026-02-20,1,,,,,ワイエージェント,0
422,2360001036393,新規,0,2026-02-20,2026-02-20,株式会社外間開発,,株式会社,沖縄県,豊見城市,字高安８６８番地６,,47,212,9010242,,,,,,,2026-02-20,1,,,,,ホカマカイハツ,0
424,2370001053495,新規,0,2026-02-20,2026-02-20,株式会社來,,株式会社,宮城県,仙台市若林区,伊在２丁目１４番地の１６,,04,103,9840038,,,,,,,2026-02-20,1,,,,,ライ,0
430,2400001017331,新規,0,2026-02-20,2026-02-20,株式会社ｅ．ファーストステップ,,株式会社,岩手県,花巻市,下似内第１０地割２３番地１,,03,205,0250006,,,,,,,2026-02-20,1,,,,,イーファーストステップ,0
436,2430001096298,新規,0,2026-02-20,2026-02-20,株式会社ポジティブゲート,,株式会社,北海道,北広島市,輪厚中央１丁目１０番地１,,01,234,0611268,,,,,,,2026-02-20,1,,,,,ポジティブゲート,0
437,2430001096307,新規,0,2026-02-20,2026-02-20,株式会社Ｕ‐システム,,株式会社,北海道,札幌市中央区,南一条西８丁目１４番地３札幌第二スカイビル８階Ａ室,,01,101,0600061,,,,,,,2026-02-20,1,,,,,ユーシステム,0
442,2430003018597,新規,0,2026-02-20,2026-02-20,合同会社イマージ,,合同会社,北海道,千歳市,清水町４丁目１０－５,,01,224,0660041,,,,,,,2026-02-20,1,,,,,イマージ,0
443,2430003018614,新規,0,2026-02-20,2026-02-20,合同会社洸昌,,合同会社,北海道,石狩市,花川北一条２丁目２５６番地,,01,235,0613211,,,,,,,2026-02-20,1,,,,,コウショウ,0
444,2450001014860,新規,0,2026-02-20,2026-02-20,株式会社ＲＪＨＤ,,株式会社,北海道,旭川市,秋月二条１丁目９番１号,,01,204,0798402,,,,,,,2026-02-20,1,,,,,アールジェイホールディングス,0
463,3010001263006,新規,0,2026-02-20,2026-02-20,ＬａＳ株式会社,,株式会社,東京都,千代田区,平河町１丁目８－２,,13,101,1020093,,,,,,,2026-02-20,1,,,,,ラス,0
464,3010001263014,新規,0,2026-02-20,2026-02-20,Ｔ．Ｍ．Ｉｎｎｏｖａｔｉｏｎ株式会社,,株式会社,東京都,中央区,勝どき４丁目６番１－５００６号,,13,102,1040054,,,,,,,2026-02-20,1,,,,,ティーエムイノベーション,0
468,3010003050402,新規,0,2026-02-20,2026-02-20,グローブ３合同会社,,合同会社,東京都,中央区,銀座１丁目６番１１号アースタックス税理士法人内,,13,102,1040061,,,,,,,2026-02-20,1,,,,,グローブスリー,0
469,3010003050476,新規,0,2026-02-20,2026-02-20,ＩＭインベストメント合同会社,,合同会社,東京都,千代田区,飯田橋４丁目７番１号結和税理士法人内,,13,101,1020072,,,,,,,2026-02-20,1,,,,,アイエムインベストメント,0
470,3010101017096,新規,0,2026-02-20,2026-02-20,株式会社Ｇ‐Ｘｒｏｓｓ,,株式会社,東京都,八王子市,絹ケ丘１丁目３８番６号,,13,201,1920912,,,,,,,2026-02-20,1,,,,,ジークロス,0
471,3010103002765,新規,0,2026-02-20,2026-02-20,合同会社ＳＨＩ,,合同会社,東京都,八王子市,大和田町５丁目６番８号ハーベスト１０１号,,13,201,1920045,,,,,,,2026-02-20,1,,,,,エスエッチアイ,0
478,3010401196458,新規,0,2026-02-20,2026-02-20,ＭＡＬＭＩＮＡ株式会社,,株式会社,東京都,港区,赤坂８丁目１０番３０－３１３号,,13,103,1070052,,,,,,,2026-02-20,1,,,,,マルミナ,0
479,3010401196680,新規,0,2026-02-20,2026-02-20,株式会社六本木管理１６号,,株式会社,東京都,港区,六本木３丁目２番１号,,13,103,1060032,,,,,,,2026-02-20,1,,,,,ロッポンギカンリジュウロクゴウ,0
481,3010403037387,新規,0,2026-02-20,2026-02-20,合同会社みなと０１１,,合同会社,東京都,港区,虎ノ門３丁目２２番１０－２０１号,,13,103,1050001,,,,,,,2026-02-20,1,,,,,ミナトゼロワンワン,0
482,3010403037404,新規,0,2026-02-20,2026-02-20,ＣＡＬＶ　Ｂａｍｂｏｏ合同会社,,合同会社,東京都,港区,六本木１丁目９番１０号アークヒルズ仙石山森タワー４０階,,13,103,1060032,,,,,,,2026-02-20,1,,,,,シーエーエルヴィーバンブー,0
484,3010501055489,新規,0,2026-02-20,2026-02-20,株式会社リンク,,株式会社,東京都,台東区,上野１丁目１７番６号広小路ビル８Ｆ－Ｂ,,13,106,1100005,,,,,,,2026-02-20,1,,,,,リンク,0
493,3010703008138,新規,0,2026-02-20,2026-02-20,合同会社ハルノサクラ,,合同会社,東京都,品川区,小山６丁目４番１４号メディケア西小山１階,,13,109,1420062,,,,,,,2026-02-20,1,,,,,ハルノサクラ,0
495,3010901058991,新規,0,2026-02-20,2026-02-20,株式会社６７,,株式会社,東京都,世田谷区,野毛２丁目２５番３号,,13,112,1580092,,,,,,,2026-02-20,1,,,,,シックスセブン,0
496,3010901059016,新規,0,2026-02-20,2026-02-20,株式会社Ｌｅｇａｌ　Ｎｏｄｅ,,株式会社,東京都,世田谷区,上馬１丁目１５－１８ザ・パークハウス三軒茶屋タワー１９０１号,,13,112,1540011,,,,,,,2026-02-20,1,,,,,リーガルノード,0
497,3010903010629,新規,0,2026-02-20,2026-02-20,ドルークアセットマネジメント合同会社,,合同会社,東京都,世田谷区,喜多見８丁目１６―２,,13,112,1570067,,,,,,,2026-02-20,1,,,,,ドルークアセットマネジメント,0
502,3011003023587,新規,0,2026-02-20,2026-02-20,オルガプロ合同会社,,合同会社,東京都,渋谷区,道玄坂１丁目１０番８号渋谷道玄坂東急ビル２Ｆ－Ｃ,,13,113,1500043,,,,,,,2026-02-20,1,,,,,オルガプロ,0
503,3011003023595,新規,0,2026-02-20,2026-02-20,合同会社ＴＡＳＵＫＩ,,合同会社,東京都,渋谷区,道玄坂１丁目１０番８号渋谷道玄坂東急ビル２Ｆ－Ｃ,,13,113,1500043,,,,,,,2026-02-20,1,,,,,タスキ,0
504,3011003023703,新規,0,2026-02-20,2026-02-20,ぽわん合同会社,,合同会社,東京都,渋谷区,代官山町８－７Ｄａｉｗａ代官山ビル,,13,113,1500034,,,,,,,2026-02-20,1,,,,,ポワン,0
510,3011101114800,新規,0,2026-02-20,2026-02-20,いちかわワーク株式会社,,株式会社,東京都,新宿区,高田馬場４丁目３９番７,,13,104,1690075,,,,,,,2026-02-20,1,,,,,イチカワワーク,0
512,3011303005871,新規,0,2026-02-20,2026-02-20,合同会社ＨＭＭＮ,,合同会社,東京都,杉並区,松ノ木３丁目２３－１１ドアーズ新高円寺４０１,,13,115,1660014,,,,,,,2026-02-20,1,,,,,ハモン,0
516,3011503006868,新規,0,2026-02-20,2026-02-20,合同会社ＬＯＯＰ,,合同会社,東京都,北区,田端２丁目１－２０,,13,117,1140014,,,,,,,2026-02-20,1,,,,,ループ,0
520,3011703004531,新規,0,2026-02-20,2026-02-20,合同会社ＰＥＲＩＯＤ,,合同会社,東京都,江戸川区,北小岩２丁目２３番１６号ラフォート小岩１０１,,13,123,1330051,,,,,,,2026-02-20,1,,,,,ピリオド,0
526,3011801047449,新規,0,2026-02-20,2026-02-20,有利商事株式会社,,株式会社,東京都,足立区,梅田７丁目１０－７オレンジルーム３０２,,13,121,1230851,,,,,,,2026-02-20,1,,,,,ユウリショウジ,0
533,3012403007626,新規,0,2026-02-20,2026-02-20,パートナーズデザイン＆アドバイザリー合同会社,,合同会社,東京都,小金井市,中町１丁目１５－２５,,13,210,1840012,,,,,,,2026-02-20,1,,,,,パートナーズデザインアンドアドバイザリー,0
541,3020001167172,新規,0,2026-02-20,2026-02-20,株式会社木幡工務店,,株式会社,神奈川県,川崎市川崎区,浜町３丁目９番１７号,,14,131,2100851,,,,,,,2026-02-20,1,,,,,キハタコウムテン,0
542,3020001167288,新規,0,2026-02-20,2026-02-20,株式会社うさぷらねっと,,株式会社,神奈川県,横浜市西区,浅間町１丁目４番３号ウィザードビル４０２,,14,103,2200072,,,,,,,2026-02-20,1,,,,,ウサプラネット,0
546,3021001087542,新規,0,2026-02-20,2026-02-20,株式会社ＣＯＬＯＯＫ,,株式会社,神奈川県,藤沢市,羽鳥１丁目１番１～９４７号,,14,205,2510056,,,,,,,2026-02-20,1,,,,,コルク,0
547,3021001087550,新規,0,2026-02-20,2026-02-20,株式会社トルネコログ,,株式会社,神奈川県,横須賀市,根岸町５丁目２０－７,,14,201,2390807,,,,,,,2026-02-20,1,,,,,トルネコログ,0
548,3021001087583,新規,0,2026-02-20,2026-02-20,株式会社ｌｏｔｈｉｃａ,,株式会社,神奈川県,茅ヶ崎市,若松町６番３号,,14,207,2530051,,,,,,,2026-02-20,1,,,,,ロシカ,0
549,3021003017159,新規,0,2026-02-20,2026-02-20,一心合同会社,,合同会社,神奈川県,藤沢市,辻堂西海岸１丁目７番１号,,14,205,2510046,,,,,,,2026-02-20,1,,,,,イッシン,0
550,3021003017167,新規,0,2026-02-20,2026-02-20,合同会社ＯＬＬＴＯＬＯＳ,,合同会社,神奈川県,厚木市,中町２丁目７番１８号佐々木エステートビル１Ｆ,,14,212,2430018,,,,,,,2026-02-20,1,,,,,オルトロス,0
551,3021003017175,新規,0,2026-02-20,2026-02-20,合同会社ＭＣＭ８,,合同会社,神奈川県,小田原市,南町２丁目２番３号,,14,206,2500013,,,,,,,2026-02-20,1,,,,,エムシーエムエイト,0
562,3030003028677,新規,0,2026-02-20,2026-02-20,合同会社パテントエム,,合同会社,埼玉県,さいたま市大宮区,桜木町２丁目３番地大宮マルイ７階,,11,103,3300854,,,,,,,2026-02-20,1,,,,,パテントエム,0
563,3030003028685,新規,0,2026-02-20,2026-02-20,合同会社ネクサスベース,,合同会社,埼玉県,さいたま市中央区,八王子４丁目１０番６－１号,,11,105,3380006,,,,,,,2026-02-20,1,,,,,ネクサスベース,0
582,3080401028456,新規,0,2026-02-20,2026-02-20,株式会社ぷにぷにどすこい,,株式会社,静岡県,浜松市中央区,三方原町２１６０,,22,138,4338105,,,,,,,2026-02-20,1,,,,,プニプニドスコイ,0
584,3100003008622,新規,0,2026-02-20,2026-02-20,合同会社タクミコーポレーション,,合同会社,長野県,木曽郡木曽町,福島５６７４番地１,,20,432,3970001,,,,,,,2026-02-20,1,,,,,タクミコーポレーション,0
589,3120001284247,新規,0,2026-02-20,2026-02-20,株式会社Ｌｉｖｉｎｇ,,株式会社,大阪府,大阪市阿倍野区,播磨町１丁目２３番２２号ＨＡＲＩＭＡビル１０７号室,,27,119,5450022,,,,,,,2026-02-20,1,,,,,リビング,0
595,3120003031960,新規,0,2026-02-20,2026-02-20,合同会社よる,,合同会社,大阪府,大阪市西区,九条１丁目４番１８－２０３号,,27,106,5500027,,,,,,,2026-02-20,1,,,,,ヨル,0
608,3120103006994,新規,0,2026-02-20,2026-02-20,合同会社ＭＯＲＩ　ＷＯＲＫＳ,,合同会社,大阪府,堺市堺区,中安井町１丁４番１１－５０４号,,27,141,5900063,,,,,,,2026-02-20,1,,,,,モリワークス,0
622,3140003023205,新規,0,2026-02-20,2026-02-20,合同会社よゆひかそ,,合同会社,兵庫県,西宮市,南甲子園２丁目２１－８,,28,204,6638153,,,,,,,2026-02-20,1,,,,,ヨユヒカソ,0
623,3140003023221,新規,0,2026-02-20,2026-02-20,合同会社ホワイトレーベル,,合同会社,兵庫県,尼崎市,南塚口町３丁目２８－１０－１０１,,28,202,6610012,,,,,,,2026-02-20,1,,,,,ホワイトレーベル,0
628,3170001018988,新規,0,2026-02-20,2026-02-20,株式会社ＳＯＮＡＥ,,株式会社,和歌山県,田辺市,東山１丁目５番１４号,,30,206,6460022,,,,,,,2026-02-20,1,,,,,ソナエ,0
635,3180001170722,新規,0,2026-02-20,2026-02-20,株式会社碧,,株式会社,愛知県,春日井市,木附町７１４番地１６６,,23,206,4870003,,,,,,,2026-02-20,1,,,,,アオ,0
638,3180301040708,新規,0,2026-02-20,2026-02-20,株式会社ＫＴ,,株式会社,愛知県,岡崎市,中島町字境４番地１,,23,202,4440226,,,,,,,2026-02-20,1,,,,,ケーティー,0
640,3190001032921,新規,0,2026-02-20,2026-02-20,株式会社玉屋ツーリズムジャパン,,株式会社,三重県,伊勢市,宇治浦田１丁目３０５番地２０,,24,203,5160026,,,,,,,2026-02-20,1,,,,,タマヤツーリズムジャパン,0
656,3290001113208,新規,0,2026-02-20,2026-02-20,株式会社ＸＹＺ　ｓｔｒｕｃｔｕｒｅ,,株式会社,福岡県,福岡市南区,大楠３丁目１４番３４号,,40,134,8150082,,,,,,,2026-02-20,1,,,,,エックスワイゼットストラクチャー,0
657,3290001113216,新規,0,2026-02-20,2026-02-20,さくらエステート株式会社,,株式会社,福岡県,大牟田市,中白川町１丁目６０番地３,,40,202,8370927,,,,,,,2026-02-20,1,,,,,サクラエステート,0
658,3290001113224,新規,0,2026-02-20,2026-02-20,株式会社いちいのき,,株式会社,福岡県,福岡市博多区,綱場町８番３１号,,40,132,8120024,,,,,,,2026-02-20,1,,,,,イチイノキ,0
660,3290003018066,新規,0,2026-02-20,2026-02-20,合同会社ＭＥＩＳＨＯ　ＰＯＷＥＲ１号,,合同会社,福岡県,福岡市博多区,博多駅前３丁目４番３０号アクロスキューブ博多駅前,,40,132,8120011,,,,,,,2026-02-20,1,,,,,,0
666,3340001027988,新規,0,2026-02-20,2026-02-20,株式会社フィフティーシッピング,,株式会社,鹿児島県,垂水市,市木４６８番地,,46,214,8912103,,,,,,,2026-02-20,1,,,,,フィフティーシッピング,0
669,3350001019951,新規,0,2026-02-20,2026-02-20,Ｙ‐Ｓｕｐｐｏｒｔ株式会社,,株式会社,宮崎県,宮崎市,学園木花台桜２丁目６番地９サンライズカワサキＢ棟３０３,,45,201,8892154,,,,,,,2026-02-20,1,,,,,ワイサポート,0
670,3360001036401,新規,0,2026-02-20,2026-02-20,株式会社ＹＡＥＳＨＩＭＡ,,株式会社,沖縄県,石垣市,字新川冨和底１５１０番地５８,,47,207,9070024,,,,,,,2026-02-20,1,,,,,ヤエシマ,0
674,3370001053494,新規,0,2026-02-20,2026-02-20,大河原千本桜パークパートナーズ株式会社,,株式会社,宮城県,柴田郡大河原町,字新南２０番地の５,,04,321,9891245,,,,,,,2026-02-20,1,,,,,オオガワラセンボンザクラパークパートナーズ,0
683,3430001096297,新規,0,2026-02-20,2026-02-20,株式会社ヒューマンサポート,,株式会社,北海道,札幌市東区,北二十三条東８丁目２番１号北幸プラザ２階,,01,103,0650023,,,,,,,2026-02-20,1,,,,,ヒューマンサポート,0
684,3430001096306,新規,0,2026-02-20,2026-02-20,三月アセットパートナーズ株式会社,,株式会社,北海道,岩見沢市,七条西１８丁目６番地,,01,210,0680027,,,,,,,2026-02-20,1,,,,,ミカヅキアセットパートナーズ,0
685,3430001096314,新規,0,2026-02-20,2026-02-20,株式会社パステムホールディングス,,株式会社,北海道,札幌市中央区,南十一条西２０丁目２番１８号ライオンズマンション旭ヶ丘中央９０１号室,,01,101,0640811,,,,,,,2026-02-20,1,,,,,パステムホールディングス,0
689,3500001026791,新規,0,2026-02-20,2026-02-20,株式会社ミカニーク,,株式会社,愛媛県,松山市,久万ノ台１４８７番地１ＶｉｌｌａＮａｔｕｒ２０１,,38,201,7918016,,,,,,,2026-02-20,1,,,,,ミカニーク,0
692,3700150134565,新規,0,2026-02-20,2026-02-20,ｂｆｉｎａｎｃｅ　ＵＫ　Ｌｉｍｉｔｅｄ,,外国会社等,東京都,港区,虎ノ門３丁目２２－１０－２０１,,13,103,1050001,英国ＥＣ４Ｒ１ＢＮロンドン、クイーン・ストリート３６、２階,,,,,,2026-02-20,1,,,,,ビーフアイナンスユーケーリミテツド,0
712,4010001262948,新規,0,2026-02-20,2026-02-20,株式会社ＢＡＳＫ,,株式会社,東京都,中央区,日本橋兜町６－７兜町第七平和ビル１階,,13,102,1030026,,,,,,,2026-02-20,1,,,,,バスク,0
713,4010001263013,新規,0,2026-02-20,2026-02-20,株式会社ヨソクル,,株式会社,東京都,中央区,銀座１丁目１２－４Ｎ＆ＥＢＬＤ．７階,,13,102,1040061,,,,,,,2026-02-20,1,,,,,ヨソクル,0
714,4010001263054,新規,0,2026-02-20,2026-02-20,株式会社Ｆｌｉｇｈｔ　Ｅｄｇｅ,,株式会社,東京都,中央区,銀座１丁目１２番４号Ｎ＆ＥＢＬＤ．６Ｆ,,13,102,1040061,,,,,,,2026-02-20,1,,,,,フライトエッジ,0
716,4010003050401,新規,0,2026-02-20,2026-02-20,グローブ２合同会社,,合同会社,東京都,中央区,銀座１丁目６番１１号アースタックス税理士法人内,,13,102,1040061,,,,,,,2026-02-20,1,,,,,グローブツー,0
717,4010003050459,新規,0,2026-02-20,2026-02-20,合同会社プラス６号,,合同会社,東京都,中央区,日本橋箱崎町１６－１東益ビル６階,,13,102,1030015,,,,,,,2026-02-20,1,,,,,プラスロクゴウ,0
718,4010003050475,新規,0,2026-02-20,2026-02-20,ルミナスパートナーズ合同会社,,合同会社,東京都,中央区,日本橋室町１丁目１１番１２号日本橋水野ビル７階,,13,102,1030022,,,,,,,2026-02-20,1,,,,,ルミナスパートナーズ,0
719,4010003050509,新規,0,2026-02-20,2026-02-20,合同会社ポリスト,,合同会社,東京都,千代田区,平河町２丁目１３番１号,,13,101,1020093,,,,,,,2026-02-20,1,,,,,ポリスト,0
721,4010103002764,新規,0,2026-02-20,2026-02-20,合同会社ＫＯＨ,,合同会社,東京都,八王子市,大和田町５丁目６番８号ハーベスト１０１号,,13,201,1920045,,,,,,,2026-02-20,1,,,,,ケイオーエッチ,0
726,4010401196721,新規,0,2026-02-20,2026-02-20,株式会社ＪｕＬｅＲ,,株式会社,東京都,港区,北青山１丁目３番１号アールキューブ青山３階,,13,103,1070061,,,,,,,2026-02-20,1,,,,,ジュラー,0
727,4010401196738,新規,0,2026-02-20,2026-02-20,株式会社ＤＡＤＡ,,株式会社,東京都,港区,西麻布１丁目８番１２号ＡＲＩＳＴＯ西麻布３Ｆ,,13,103,1060031,,,,,,,2026-02-20,1,,,,,ダダ,0
729,4010403037386,新規,0,2026-02-20,2026-02-20,柏東合同会社,,合同会社,東京都,港区,元赤坂１丁目１番７－１２０９号株式会社赤坂国際会計内,,13,103,1070051,,,,,,,2026-02-20,1,,,,,カシワヒガシ,0
730,4010403037403,新規,0,2026-02-20,2026-02-20,ＣＡＬＶ合同会社,,合同会社,東京都,港区,六本木１丁目９番１０号アークヒルズ仙石山森タワー４０階,,13,103,1060032,,,,,,,2026-02-20,1,,,,,シーエーエルヴィー,0
732,4010405025389,新規,0,2026-02-20,2026-02-20,柏東一般社団法人,,その他の設立登記法人,東京都,港区,元赤坂１丁目１番７－１２０９号株式会社赤坂国際会計内,,13,103,1070051,,,,,,,2026-02-20,1,,,,,カシワヒガシ,0
750,4010901059007,新規,0,2026-02-20,2026-02-20,株式会社ライトフィールド,,株式会社,東京都,世田谷区,太子堂４丁目５番３２号,,13,112,1540004,,,,,,,2026-02-20,1,,,,,ライトフィールド,0
751,4010903010636,新規,0,2026-02-20,2026-02-20,ｈｉｍａｒｉ合同会社,,合同会社,東京都,世田谷区,北烏山１丁目５１番２６号,,13,112,1570061,,,,,,,2026-02-20,1,,,,,ヒマリ,0
752,4010905004891,新規,0,2026-02-20,2026-02-20,一般社団法人日本モータースポーツ記者会,,その他の設立登記法人,東京都,世田谷区,世田谷２丁目２５－２ルモンド世田谷Ｂ１－２,,13,112,1540017,,,,,,,2026-02-20,1,,,,,ニホンモータースポーツキシャカイ,0
756,4011001175495,新規,0,2026-02-20,2026-02-20,株式会社Ｒｏｙａｌ,,株式会社,東京都,渋谷区,恵比寿西２丁目４番８号ウィンド恵比寿ビル８Ｆ,,13,113,1500021,,,,,,,2026-02-20,1,,,,,ロイヤル,0
757,4011001175545,新規,0,2026-02-20,2026-02-20,株式会社８６９,,株式会社,東京都,渋谷区,神南１丁目１１－４ＦＰＧリンクス神南５階,,13,113,1500041,,,,,,,2026-02-20,1,,,,,ハチロクキュウ,0
760,4011003023578,新規,0,2026-02-20,2026-02-20,合同会社アップルエデュケート,,合同会社,東京都,渋谷区,恵比寿南１丁目４番２号紀伊國屋４階,,13,113,1500022,,,,,,,2026-02-20,1,,,,,アップルエデュケート,0
761,4011003023586,新規,0,2026-02-20,2026-02-20,合同会社きた学習研究室,,合同会社,東京都,渋谷区,代々木２丁目２３番１号,,13,113,1510053,,,,,,,2026-02-20,1,,,,,キタガクシュウケンキュウシツ,0
762,4011003023652,新規,0,2026-02-20,2026-02-20,合同会社木村制作,,合同会社,東京都,目黒区,五本木２丁目５番５号,,13,110,1530053,,,,,,,2026-02-20,1,,,,,キムラセイサク,0
767,4011101114824,新規,0,2026-02-20,2026-02-20,株式会社ＹＵｓｔｙｌｅ,,株式会社,東京都,新宿区,下落合２丁目２５番６号,,13,104,1610033,,,,,,,2026-02-20,1,,,,,ユースタイル,0
768,4011101114873,新規,0,2026-02-20,2026-02-20,インフォダッシュ株式会社,,株式会社,東京都,新宿区,西新宿３丁目３番１３号西新宿水間ビル２Ｆ,,13,104,1600023,,,,,,,2026-02-20,1,,,,,インフォダッシュ,0
778,4011801047464,新規,0,2026-02-20,2026-02-20,株式会社イーエル防災企画,,株式会社,東京都,足立区,古千谷本町１丁目１４番１２号,,13,121,1210832,,,,,,,2026-02-20,1,,,,,イーエルボウサイキカク,0
780,4011803007342,新規,0,2026-02-20,2026-02-20,合同会社イナリソリューション,,合同会社,東京都,葛飾区,亀有３丁目３７番２８号,,13,122,1250061,,,,,,,2026-02-20,1,,,,,イナリソリューション,0
783,4012403007609,新規,0,2026-02-20,2026-02-20,合同会社癒やしの園,,合同会社,東京都,府中市,西原町２丁目３０番ノ５３,,13,206,1830046,,,,,,,2026-02-20,1,,,,,イヤシノソノ,0
784,4012403007625,新規,0,2026-02-20,2026-02-20,合同会社ワールドタイムプレイス,,合同会社,東京都,三鷹市,牟礼６丁目１４番４－１０３号,,13,204,1810002,,,,,,,2026-02-20,1,,,,,ワールドタイムプレイス,0
785,4012803004008,新規,0,2026-02-20,2026-02-20,合同会社ＷｉｌｌＨｏｐｅ,,合同会社,東京都,日野市,万願寺３丁目３８番地の９,,13,212,1910024,,,,,,,2026-02-20,1,,,,,ウィルホープ,0
787,4013101009938,新規,0,2026-02-20,2026-02-20,フィックスアーキテクツ株式会社,,株式会社,東京都,福生市,本町１１７番地１－８０１,,13,218,1970022,,,,,,,2026-02-20,1,,,,,フィックスアーキテクツ,0
794,4020001167139,新規,0,2026-02-20,2026-02-20,Ｌｕｍｉ　Ｋ　Ｐｌａｎｎｉｎｇ株式会社,,株式会社,神奈川県,川崎市幸区,小倉１番地１Ｄ－３０８,,14,132,2120054,,,,,,,2026-02-20,1,,,,,ルミケイプランニング,0
795,4020001167254,新規,0,2026-02-20,2026-02-20,株式会社オルディオン,,株式会社,神奈川県,横浜市緑区,鴨居１丁目１４番１号－１２０４,,14,113,2260003,,,,,,,2026-02-20,1,,,,,オルディオン,0
796,4020001167262,新規,0,2026-02-20,2026-02-20,株式会社アシスト,,株式会社,神奈川県,横浜市緑区,十日市場町８０３番地４,,14,113,2260025,,,,,,,2026-02-20,1,,,,,アシスト,0
797,4020001167279,新規,0,2026-02-20,2026-02-20,株式会社Ｗｅａｌｔｈ　Ｎｅｘｕｓ,,株式会社,神奈川県,横浜市保土ケ谷区,法泉２丁目２０番３５号,,14,106,2400032,,,,,,,2026-02-20,1,,,,,ウェルスネクサス,0
803,4021003017109,新規,0,2026-02-20,2026-02-20,合同会社桜エステート,,合同会社,神奈川県,三浦市,三崎３丁目３－３,,14,210,2380243,,,,,,,2026-02-20,1,,,,,サクラエステート,0
804,4021003017166,新規,0,2026-02-20,2026-02-20,合同会社Ｗｅｓｔ　Ｃａｓｔｌｅ,,合同会社,神奈川県,横須賀市,長沢５丁目３２４１番地,,14,201,2390842,,,,,,,2026-02-20,1,,,,,ウエストキャッスル,0
809,4030001171123,新規,0,2026-02-20,2026-02-20,株式会社ＩＳＴ　ＢＥＡＵＴＹ,,株式会社,埼玉県,さいたま市大宮区,宮町５丁目３０プルムドール大宮２０３,,11,103,3300802,,,,,,,2026-02-20,1,,,,,イストビューティ,0
813,4030003028684,新規,0,2026-02-20,2026-02-20,合同会社ＬＥＥＫ,,合同会社,埼玉県,三郷市,高州１丁目６６－６,,11,237,3410037,,,,,,,2026-02-20,1,,,,,リーク,0
818,4040001142577,新規,0,2026-02-20,2026-02-20,株式会社天豊環,,株式会社,千葉県,千葉市緑区,あすみが丘東４丁目１３番地９,,12,105,2670067,,,,,,,2026-02-20,1,,,,,テンポウカン,0
822,4040003029509,新規,0,2026-02-20,2026-02-20,合同会社アカツキ,,合同会社,千葉県,市川市,平田１丁目１２－４,,12,203,2720031,,,,,,,2026-02-20,1,,,,,アカツキ,0
835,4100001039354,新規,0,2026-02-20,2026-02-20,株式会社ぷっち,,株式会社,長野県,長野市,箱清水２丁目２０番６号,,20,201,3800801,,,,,,,2026-02-20,1,,,,,プッチ,0
845,4120001284295,新規,0,2026-02-20,2026-02-20,株式会社ＰＵＢＬＯ　ＡＩ,,株式会社,大阪府,大阪市北区,梅田１丁目１番３号大阪駅前第３ビル２３０７,,27,127,5300001,,,,,,,2026-02-20,1,,,,,パブロエーアイ,0
846,4120001284304,新規,0,2026-02-20,2026-02-20,Ａｂｂｙ　ｓｔｏｒｅ　ｏｎｌｉｎｅ　ｓｈｏｐ株式会社,,株式会社,大阪府,大阪市中央区,船場中央２丁目１番４号船場センタービル４号館地下一階Ｂ１０８ＲＯＹＡＬＯＦＦＩＣＥ内,,27,128,5410055,,,,,,,2026-02-20,1,,,,,アビーストアオンラインショップ,0
847,4120001284312,新規,0,2026-02-20,2026-02-20,株式会社エスカペード,,株式会社,大阪府,大阪市生野区,鶴橋２丁目１５番１４号,,27,116,5440031,,,,,,,2026-02-20,1,,,,,エスカペード,0
848,4120001284378,新規,0,2026-02-20,2026-02-20,株式会社ＭＯＱＯ,,株式会社,大阪府,大阪市中央区,南船場３丁目２番２２号おおきに南船場ビル２０５,,27,128,5420081,,,,,,,2026-02-20,1,,,,,モコ,0
851,4120003031910,新規,0,2026-02-20,2026-02-20,合同会社Ｔｏｍｏｅ,,合同会社,大阪府,大阪市北区,梅田１丁目２番２－Ｂ２００号,,27,127,5300001,,,,,,,2026-02-20,1,,,,,トモエ,0
852,4120003031968,新規,0,2026-02-20,2026-02-20,合同会社トリプルワンノート,,合同会社,大阪府,大阪市都島区,御幸町２丁目１２番３号,,27,102,5340012,,,,,,,2026-02-20,1,,,,,トリプルワンノート,0
853,4120003031976,新規,0,2026-02-20,2026-02-20,資源影軍合同会社,,合同会社,大阪府,大阪市東成区,中道４丁目１６番２１号４１５号室,,27,115,5370025,,,,,,,2026-02-20,1,,,,,シゲンエイグン,0
859,4120903006094,新規,0,2026-02-20,2026-02-20,合同会社ガニェ,,合同会社,大阪府,高槻市,松が丘４丁目１―１２松が丘エンビィマンション１０３,,27,207,5691031,,,,,,,2026-02-20,1,,,,,ガニェ,0
864,4130005017592,新規,0,2026-02-20,2026-02-20,特定非営利活動法人アジアなりわいネット,,その他の設立登記法人,京都府,京都市左京区,田中里ノ前町２１石川ビル３０５,,26,103,6068227,,,,,,,2026-02-20,1,,,,,アジアナリワイネット,0
865,4150001028749,新規,0,2026-02-20,2026-02-20,株式会社ｔｏｕｅ不動産,,株式会社,奈良県,橿原市,内膳町５丁目３番２－７０２号,,29,205,6340804,,,,,,,2026-02-20,1,,,,,トウエフドウサン,0
876,4180001170746,新規,0,2026-02-20,2026-02-20,株式会社ロアー,,株式会社,愛知県,名古屋市名東区,社が丘１丁目１０２番地クリオ名東本郷５０１号,,23,115,4650051,,,,,,,2026-02-20,1,,,,,ロアー,0
883,4180003029791,新規,0,2026-02-20,2026-02-20,合同会社ソワンアベニール,,合同会社,愛知県,名古屋市中区,千代田２丁目２１番３号,,23,106,4600012,,,,,,,2026-02-20,1,,,,,ソワンアベニール,0
884,4180005021433,新規,0,2026-02-20,2026-02-20,一般社団法人日韓ビューティプロフェッショナル協会,,その他の設立登記法人,愛知県,春日井市,六軒屋町４丁目１番地長縄ビル３階,,23,206,4860842,,,,,,,2026-02-20,1,,,,,ニッカンビューティプロフェッショナルキョウカイ,0
890,4190003005354,新規,0,2026-02-20,2026-02-20,合同会社近畿リゾート開発,,合同会社,三重県,鳥羽市,石鏡町字遠大木５０７番２５,,24,211,5170026,,,,,,,2026-02-20,1,,,,,キンキリゾートカイハツ,0
892,4200001044740,新規,0,2026-02-20,2026-02-20,株式会社ＩＣＨＩＲＵ　ＣＯＮＮＥＣＴ　ＳＵＰＰＯＲＴ,,株式会社,岐阜県,岐阜市,東明見町１８番地,,21,201,5008436,,,,,,,2026-02-20,1,,,,,イチルコネクトサポート,0
911,4290001113207,新規,0,2026-02-20,2026-02-20,株式会社なかがわパーククラブ,,株式会社,福岡県,那珂川市,大字後野２４７番地１,,40,231,8111241,,,,,,,2026-02-20,1,,,,,ナカガワパーククラブ,0
912,4290001113215,新規,0,2026-02-20,2026-02-20,ＭＵＧＥＮ株式会社,,株式会社,福岡県,福岡市博多区,豊２丁目３－５９,,40,132,8120042,,,,,,,2026-02-20,1,,,,,ムゲン,0
913,4290001113231,新規,0,2026-02-20,2026-02-20,株式会社ＫＡＹ１,,株式会社,福岡県,福岡市早良区,西新７丁目１５番２０号,,40,137,8140002,,,,,,,2026-02-20,1,,,,,カイワン,0
914,4290001113248,新規,0,2026-02-20,2026-02-20,株式会社カメリア,,株式会社,福岡県,福岡市中央区,天神４丁目６－２８いちご天神ノースビル７階,,40,133,8100001,,,,,,,2026-02-20,1,,,,,カメリア,0
918,4290003018065,新規,0,2026-02-20,2026-02-20,月辰資産合同会社,,合同会社,福岡県,福岡市博多区,博多駅前３丁目４番２７号アクロスキューブ博多駅前,,40,132,8120011,,,,,,,2026-02-20,1,,,,,,0
919,4290003018098,新規,0,2026-02-20,2026-02-20,合同会社Ｆａｎ＆Ｇ,,合同会社,福岡県,福岡市博多区,博多駅前１丁目２３番２号ＰａｒｋＦｒｏｎｔ博多駅前１丁目５Ｆ－Ｂ,,40,132,8120011,,,,,,,2026-02-20,1,,,,,ファンアンドジー,0
929,4340001027987,新規,0,2026-02-20,2026-02-20,ハスポ鹿児島販売株式会社,,株式会社,鹿児島県,鹿児島市,武３丁目２１番１８号,,46,201,8900045,,,,,,,2026-02-20,1,,,,,ハスポカゴシマハンバイ,0
932,4350003005148,新規,0,2026-02-20,2026-02-20,合同会社大誠工業,,合同会社,宮崎県,西都市,桜川町１丁目１９,,45,208,8810022,,,,,,,2026-02-20,1,,,,,タイセイコウギョウ,0
936,4360003015633,新規,0,2026-02-20,2026-02-20,合同会社オレンジ,,合同会社,沖縄県,国頭郡宜野座村,字惣慶７２番地ひまわり荘３０７,,47,313,9041303,,,,,,,2026-02-20,1,,,,,オレンジ,0
944,4390001018263,新規,0,2026-02-20,2026-02-20,株式会社Ｙｉｅｌｄ　Ｌｉｎｋｓ,,株式会社,山形県,西置賜郡飯豊町,大字萩生４３９０番地４,,06,403,9990602,,,,,,,2026-02-20,1,,,,,イールドリンクス,0
948,4430001096296,新規,0,2026-02-20,2026-02-20,株式会社兆,,株式会社,北海道,札幌市東区,北十四条東１４丁目４番１２号,,01,103,0650014,,,,,,,2026-02-20,1,,,,,キザシ,0
949,4430003018604,新規,0,2026-02-20,2026-02-20,合同会社ティグティグ北海道,,合同会社,北海道,札幌市西区,西野六条４丁目９－１５,,01,107,0630036,,,,,,,2026-02-20,1,,,,,ティグティグホッカイドウ,0
951,4450001014859,新規,0,2026-02-20,2026-02-20,株式会社ＯＴＴＯ,,株式会社,北海道,宗谷郡猿払村,浅茅野台地２７０６－８,,01,511,0986102,,,,,,,2026-02-20,1,,,,,,0
961,5010001262988,新規,0,2026-02-20,2026-02-20,株式会社ニュアンスユニオン,,株式会社,東京都,千代田区,神田小川町３丁目１１－２インペリアル御茶ノ水３１７号,,13,101,1010052,,,,,,,2026-02-20,1,,,,,ニュアンスユニオン,0
962,5010001263012,新規,0,2026-02-20,2026-02-20,嵐山ヘリテージ株式会社,,株式会社,東京都,中央区,日本橋小伝馬町１５－１７ＡＳＫ日本橋ビル１階,,13,102,1030001,,,,,,,2026-02-20,1,,,,,アラシヤマヘリテージ,0
963,5010001263020,新規,0,2026-02-20,2026-02-20,Ｋｉｊｉ株式会社,,株式会社,東京都,中央区,日本橋本町２丁目２－２在日フランス商工会議所,,13,102,1030023,,,,,,,2026-02-20,1,,,,,キジ,0
964,5010001263061,新規,0,2026-02-20,2026-02-20,ＡＴＢＣ株式会社,,株式会社,東京都,千代田区,五番町１２番地７－２０４３,,13,101,1020076,,,,,,,2026-02-20,1,,,,,エーティービーシー,0
967,5010003050466,新規,0,2026-02-20,2026-02-20,合同会社帯広開発,,合同会社,東京都,千代田区,内神田１丁目３番７号４０１あすな会計事務所内,,13,101,1010047,,,,,,,2026-02-20,1,,,,,オビヒロカイハツ,0
968,5010003050474,新規,0,2026-02-20,2026-02-20,Ｎｉｐｐｏｎ　Ｓｐｉｒｉｔｓ　Ｃｏｍｐａｎｙ合同会社,,合同会社,東京都,中央区,銀座３丁目４番１号大倉別館５Ｆ,,13,102,1040061,,,,,,,2026-02-20,1,,,,,ニッポンスピリッツカンパニー,0
971,5010005041414,新規,0,2026-02-20,2026-02-20,一般社団法人帯広開発,,その他の設立登記法人,東京都,千代田区,内神田１丁目３番７号４０１あすな会計事務所内,,13,101,1010047,,,,,,,2026-02-20,1,,,,,オビヒロカイハツ,0
972,5010005041422,新規,0,2026-02-20,2026-02-20,一般社団法人宮古島ホテルフェーズ２開発ＰＪ,,その他の設立登記法人,東京都,中央区,銀座４丁目６番１号三幸アセットマネジメント株式会社内,,13,102,1040061,,,,,,,2026-02-20,1,,,,,ミヤコジマホテルフェーズツーカイハツピージェイ,0
973,5010005041430,新規,0,2026-02-20,2026-02-20,大宮元離宮ホテル一般社団法人,,その他の設立登記法人,東京都,千代田区,丸の内１丁目４番１号東京共同会計事務所内,,13,101,1000005,,,,,,,2026-02-20,1,,,,,オオミヤモトリキュウホテル,0
974,5010101017061,新規,0,2026-02-20,2026-02-20,三貴建設株式会社,,株式会社,東京都,八王子市,上野町５９番地,,13,201,1920902,,,,,,,2026-02-20,1,,,,,ミキケンセツ,0
981,5010401196704,新規,0,2026-02-20,2026-02-20,株式会社トップノート,,株式会社,東京都,港区,北青山３丁目１２番２号,,13,103,1070061,,,,,,,2026-02-20,1,,,,,トップノート,0
982,5010401196712,新規,0,2026-02-20,2026-02-20,株式会社ドリーム工場,,株式会社,東京都,港区,虎ノ門４丁目１番３４－３５０３号虎ノ門タワーズレジデンス,,13,103,1050001,,,,,,,2026-02-20,1,,,,,ドリームコウジョウ,0
984,5010403037419,新規,0,2026-02-20,2026-02-20,合同会社アウローラ・アトリエ,,合同会社,東京都,港区,北青山１丁目３－３三橋ビル３階,,13,103,1070061,,,,,,,2026-02-20,1,,,,,アウローラドットアトリエ,0
988,5010503008195,新規,0,2026-02-20,2026-02-20,和日庵合同会社,,合同会社,東京都,台東区,下谷２丁目２３番８－５０４号,,13,106,1100004,,,,,,,2026-02-20,1,,,,,ワビアン,0
991,5010603012089,新規,0,2026-02-20,2026-02-20,Ｈｏｓｐｉｔａｌｉｔｙ　Ｌａｂ合同会社,,合同会社,東京都,江東区,有明３丁目７－２６有明フロンティアビルＢ棟９階,,13,108,1350063,,,,,,,2026-02-20,1,,,,,ホスピタリティラボ,0
1011,5011101114831,新規,0,2026-02-20,2026-02-20,Ｎｅｘｔ　Ｐｈａｓｅ　Ｉｎｖｅｓｔｍｅｎｔｓ株式会社,,株式会社,東京都,新宿区,四谷１丁目１５番地,,13,104,1600004,,,,,,,2026-02-20,1,,,,,ネクストフェーズインベストメンツ,0
1022,5011801047463,新規,0,2026-02-20,2026-02-20,株式会社山祥物流,,株式会社,東京都,葛飾区,亀有４丁目５番１２号橋川ビル１０３,,13,122,1250061,,,,,,,2026-02-20,1,,,,,ヤマショウブツリュウ,0
1024,5011803007333,新規,0,2026-02-20,2026-02-20,合同会社フラット,,合同会社,東京都,足立区,千住寿町２７番６－３０２号,,13,121,1200033,,,,,,,2026-02-20,1,,,,,フラット,0
1025,5012301014730,新規,0,2026-02-20,2026-02-20,株式会社ＡＩＣＥＢＥＲＧ,,株式会社,東京都,町田市,鶴間３丁目４－１グランベリーパークセントラルコート３ＦＬ３０２ＢＩＺｃｏｍｆｏｒｔ南町田,,13,209,1940004,,,,,,,2026-02-20,1,,,,,アイスバーグ,0
1033,5020001167179,新規,0,2026-02-20,2026-02-20,株式会社ＣＲＡＦＴＯＮＥ,,株式会社,神奈川県,川崎市麻生区,白鳥１丁目７番７号リヴェール白鳥２０２,,14,137,2150024,,,,,,,2026-02-20,1,,,,,クラフトワン,0
1040,5021001087549,新規,0,2026-02-20,2026-02-20,株式会社ＡＯＩ　ＨＯＬＤＩＮＧＳ,,株式会社,神奈川県,相模原市中央区,相模原２丁目１３－３岡本ビル４Ｆ,,14,152,2520231,,,,,,,2026-02-20,1,,,,,アオイホールディングス,0
1041,5021001087581,新規,0,2026-02-20,2026-02-20,株式会社Ｓｏｕ,,株式会社,神奈川県,相模原市南区,栄町１４番１１号,,14,153,2520306,,,,,,,2026-02-20,1,,,,,ソウ,0
1042,5021001087598,新規,0,2026-02-20,2026-02-20,株式会社さくら綾瀬地所,,株式会社,神奈川県,綾瀬市,寺尾釜田２丁目１番５号１０４,,14,218,2521135,,,,,,,2026-02-20,1,,,,,サクラアヤセジショ,0
1046,5030001171064,新規,0,2026-02-20,2026-02-20,株式会社ＹＯ　Ｌａｂ,,株式会社,埼玉県,川口市,南鳩ヶ谷４丁目１５番５号,,11,203,3340013,,,,,,,2026-02-20,1,,,,,ヨーラボ,0
1047,5030001171097,新規,0,2026-02-20,2026-02-20,株式会社エニシングエステート,,株式会社,埼玉県,さいたま市見沼区,大字中川３０２番地,,11,104,3370043,,,,,,,2026-02-20,1,,,,,エニシングエステート,0
1051,5030003028691,新規,0,2026-02-20,2026-02-20,合同会社Ｃ　ＷＯＲＫＳ遠山,,合同会社,埼玉県,所沢市,大字荒幡６８９‐５シェールアミ１０２,,11,208,3591133,,,,,,,2026-02-20,1,,,,,シーワークストオヤマ,0
1052,5030003028700,新規,0,2026-02-20,2026-02-20,天晴合同会社,,合同会社,埼玉県,さいたま市大宮区,桜木町２丁目３番地　大宮マルイ７階,,11,103,3300854,,,,,,,2026-02-20,1,,,,,アッパレ,0
1058,5040001142592,新規,0,2026-02-20,2026-02-20,株式会社Ｔ＆Ｎスタジオ,,株式会社,千葉県,千葉市緑区,おゆみ野有吉９番地１４,,12,105,2660034,,,,,,,2026-02-20,1,,,,,ティーアンドエヌスタジオ,0
1062,5040003029516,新規,0,2026-02-20,2026-02-20,合同会社みちシルベ,,合同会社,千葉県,船橋市,本町２丁目８番１１,,12,204,2730005,,,,,,,2026-02-20,1,,,,,ミチシルベ,0
1068,5080005007763,新規,0,2026-02-20,2026-02-20,特定非営利活動法人静岡ジビエール,,その他の設立登記法人,静岡県,焼津市,小屋敷４４８－１橋本屋ビル１Ｆ,,22,212,4250076,,,,,,,2026-02-20,1,,,,,シズオカジビエール,0
1074,5100001039345,新規,0,2026-02-20,2026-02-20,株式会社ＫｏｍｏｒｏｋｋｏＦａｒｍ,,株式会社,長野県,小諸市,大字諸東房１５１－１,,20,208,3840043,,,,,,,2026-02-20,1,,,,,コモロッコファーム,0
1088,5120001284220,新規,0,2026-02-20,2026-02-20,株式会社ＨＵＲＵｂｌａｄ,,株式会社,大阪府,大阪市中央区,南船場３丁目２番２２号おおきに南船場ビル２０５,,27,128,5420081,,,,,,,2026-02-20,1,,,,,フルブラッド,0
1089,5120001284286,新規,0,2026-02-20,2026-02-20,株式会社ＨＡＲＵ,,株式会社,大阪府,大阪市北区,松ケ枝町６－１７第７振興ビル６０５,,27,127,5300037,,,,,,,2026-02-20,1,,,,,ハル,0
1090,5120001284303,新規,0,2026-02-20,2026-02-20,株式会社マツリカ,,株式会社,大阪府,枚方市,招提南町１丁目３９番７号,,27,210,5731155,,,,,,,2026-02-20,1,,,,,マツリカ,0
1091,5120001284311,新規,0,2026-02-20,2026-02-20,株式会社アドバンス,,株式会社,大阪府,大阪市北区,末広町３番２１号扇町センタービル,,27,127,5300053,,,,,,,2026-02-20,1,,,,,アドバンス,0
1096,5120003031959,新規,0,2026-02-20,2026-02-20,合同会社サクラサク,,合同会社,大阪府,大阪市淀川区,塚本６丁目４番１４号パレスフォー塚本２０３号,00142646,27,123,5320026,,,,,,,2026-02-20,1,,,,,サクラサク,0
1097,5120003031967,新規,0,2026-02-20,2026-02-20,合同会社Ｒｅｌｏｎｉｓ,,合同会社,大阪府,大阪市東淀川区,西淡路２丁目１０－１３－９０１,,27,114,5330031,,,,,,,2026-02-20,1,,,,,リロニス,0
1098,5120003031975,新規,0,2026-02-20,2026-02-20,合同会社シン企画,,合同会社,大阪府,大阪市東成区,東中本２丁目３番２０号プレアデス緑橋７０２号,,27,115,5370021,,,,,,,2026-02-20,1,,,,,シンキカク,0
1099,5120003031991,新規,0,2026-02-20,2026-02-20,合同会社Ｎ‐超音波事業サポート,,合同会社,大阪府,大阪市北区,梅田１丁目１‐３大阪駅前第３ビル２９階１‐１‐１号室,,27,127,5300001,,,,,,,2026-02-20,1,,,,,エヌチョウオンパジギョウサポート,0
1104,5120101073218,新規,0,2026-02-20,2026-02-20,株式会社Ｈｉ，Ｙ,,株式会社,大阪府,藤井寺市,道明寺２丁目１番５５号,,27,226,5830012,,,,,,,2026-02-20,1,,,,,ハイワイ,0
1110,5130001081633,新規,0,2026-02-20,2026-02-20,株式会社下鴨コーポレーション,,株式会社,京都府,京都市左京区,下鴨中川原町８８番地４,,26,103,6060811,,,,,,,2026-02-20,1,,,,,シモガモコーポレーション,0
1131,5180001170737,新規,0,2026-02-20,2026-02-20,株式会社三方住建,,株式会社,愛知県,名古屋市中区,丸の内３丁目６番４１号ＤＤＳビル４０１,,23,106,4600002,,,,,,,2026-02-20,1,,,,,サンポウジュウケン,0
1132,5180003029799,新規,0,2026-02-20,2026-02-20,合同会社アイオライト,,合同会社,愛知県,名古屋市中川区,小本１丁目１８－３－１パレッタ小本ＥＡＳＴ１０５,,23,110,4540828,,,,,,,2026-02-20,1,,,,,アイオライト,0
1141,5240001066185,新規,0,2026-02-20,2026-02-20,株式会社ＥＭＯＴＯ　ＥＮＴＥＲＴＡＩＮＭＥＮＴ,,株式会社,広島県,広島市中区,銀山町１１番１６号,,34,101,7300022,,,,,,,2026-02-20,1,,,,,エモトエンターテインメント,0
1144,5250003003912,新規,0,2026-02-20,2026-02-20,合同会社ＫＩＢＥＴ,,合同会社,山口県,宇部市,大字西吉部３４７６番地,,35,202,7570402,,,,,,,2026-02-20,1,,,,,キベット,0
1151,5290001113214,新規,0,2026-02-20,2026-02-20,株式会社リ・ジャンクション,,株式会社,福岡県,福岡市博多区,博多駅東３丁目１番２９号,,40,132,8120013,,,,,,,2026-02-20,1,,,,,リジャンクション,0
1152,5290003018064,新規,0,2026-02-20,2026-02-20,ＨＱ　Ｈｏｌｄｉｎｇｓ合同会社,,合同会社,福岡県,福岡市博多区,博多駅前３丁目４番２９号アクロスキューブ博多駅前,,40,132,8120011,,,,,,,2026-02-20,1,,,,,エイチキューホールディングス,0
1153,5290003018097,新規,0,2026-02-20,2026-02-20,グッドエイト合同会社,,合同会社,福岡県,福岡市南区,柳河内２丁目２番３９－１号,,40,134,8150063,,,,,,,2026-02-20,1,,,,,グッドエイト,0
1155,5290801032266,新規,0,2026-02-20,2026-02-20,株式会社Ｓｅｒａｐｈｉｍ,,株式会社,福岡県,北九州市小倉北区,三萩野１丁目１番１６－９０３号,,40,106,8020065,,,,,,,2026-02-20,1,,,,,セラフィム,0
1157,5290803005278,新規,0,2026-02-20,2026-02-20,合同会社Ａ＆Ｋ,,合同会社,福岡県,北九州市八幡東区,荒手２丁目１２－６,,40,108,8050001,,,,,,,2026-02-20,1,,,,,エーアンドケー,0
1159,5320001021586,新規,0,2026-02-20,2026-02-20,株式会社ひなた,,株式会社,大分県,別府市,大字北石垣４７番地の１パークヒルズ別府レジデンス１０７号,,44,202,8740000,,,,,,,2026-02-20,1,,,,,ヒナタ,0
1162,5340003005107,新規,0,2026-02-20,2026-02-20,合同会社Ｓ＆Ｎ,,合同会社,鹿児島県,霧島市,国分中央５丁目１７番３４号,,46,218,8994332,,,,,,,2026-02-20,1,,,,,エスアンドエヌ,0
1165,5360005007371,新規,0,2026-02-20,2026-02-20,一般社団法人オープンマインド,,その他の設立登記法人,沖縄県,中頭郡読谷村,字渡慶次２７８番地２Ｆ,,47,324,9040326,,,,,,,2026-02-20,1,,,,,オープンマインド,0
1168,5380005013070,新規,0,2026-02-20,2026-02-20,一般社団法人フクシマヘンプ協会,,その他の設立登記法人,福島県,双葉郡川内村,大字上川内字町分１３８番地の１クレア川内Ｉ２０２号室,00142656,07,544,9791201,,,,,,,2026-02-20,1,,,,,フクシマヘンプキョウカイ,0
1173,5410003004217,新規,0,2026-02-20,2026-02-20,ｈｉｔｏｔｏｋｉ　ｄｅｓｉｇｎ合同会社,,合同会社,秋田県,仙北市,田沢湖卒田字上清水２０番地,,05,215,0141113,,,,,,,2026-02-20,1,,,,,ヒトトキデザイン,0
1202,6010001262987,新規,0,2026-02-20,2026-02-20,ｇｅｎＯｗａｙ　Ｊａｐａｎ株式会社,,株式会社,東京都,中央区,日本橋堀留町１丁目３番１５号,,13,102,1030012,,,,,,,2026-02-20,1,,,,,ジェノウェイジャパン,0
1206,6010005041421,新規,0,2026-02-20,2026-02-20,一般社団法人雷門ＭｉｘＳａｎｄ,,その他の設立登記法人,東京都,千代田区,霞が関３丁目２番５号,,13,101,1000013,,,,,,,2026-02-20,1,,,,,カミナリモンミックスサンド,0
1216,6010401196686,新規,0,2026-02-20,2026-02-20,ＡＩ　ｏｓｉ‐ｕｒｉ株式会社,,株式会社,東京都,港区,愛宕２丁目５番１号愛宕グリーンヒルズＭＯＲＩタワー,,13,103,1050002,,,,,,,2026-02-20,1,,,,,エーアイオシウリ,0
1217,6010401196694,新規,0,2026-02-20,2026-02-20,株式会社ＮＯＸ,,株式会社,東京都,港区,六本木３丁目１６番１２号六本木ＫＳビル５Ｆ,,13,103,1060032,,,,,,,2026-02-20,1,,,,,ノックス,0
1218,6010403037368,新規,0,2026-02-20,2026-02-20,合同会社ＬＯＶＥＮＯＳ,,合同会社,東京都,港区,芝２丁目５－８,,13,103,1050014,,,,,,,2026-02-20,1,,,,,ラブノス,0
1219,6010403037401,新規,0,2026-02-20,2026-02-20,合同会社北海道アルファファンド１号,,合同会社,東京都,港区,西新橋１丁目２番９号メンターキャピタル税理士法人内,,13,103,1050003,,,,,,,2026-02-20,1,,,,,ホッカイドウアルファファンドイチゴウ,0
1220,6010601068751,新規,0,2026-02-20,2026-02-20,株式会社ＭＫ,,株式会社,東京都,江東区,豊洲１丁目２番３９号パークアクシス豊洲３１６,,13,108,1350061,,,,,,,2026-02-20,1,,,,,エムケー,0
1223,6010701049057,新規,0,2026-02-20,2026-02-20,フロンティアマネジメント株式会社,,株式会社,東京都,品川区,旗の台６丁目５番１０号,,13,109,1420064,,,,,,,2026-02-20,1,,,,,フロンティアマネジメント,0
1230,6011001175394,新規,0,2026-02-20,2026-02-20,株式会社ＰＥＧＡＳＵＳ,,株式会社,東京都,渋谷区,円山町５－３ＭＩＥＵＸ渋谷ビル８階,,13,113,1500044,,,,,,,2026-02-20,1,,,,,ペガソス,0
1231,6011001175543,新規,0,2026-02-20,2026-02-20,りこんほっとＬＩＮＥ株式会社,,株式会社,東京都,渋谷区,渋谷３丁目２７番１１号祐真ビル新館１２階,,13,113,1500002,,,,,,,2026-02-20,1,,,,,リコンホットライン,0
1232,6011001175766,新規,0,2026-02-20,2026-02-20,株式会社恩禾・青山,,株式会社,東京都,渋谷区,渋谷２丁目９番１０号青山台ビル６０１,,13,113,1500002,,,,,,,2026-02-20,1,,,,,オンカアオヤマ,0
1239,6011101114789,新規,0,2026-02-20,2026-02-20,株式会社ＰＬａｉ,,株式会社,東京都,新宿区,西新宿３丁目３番１３号西新宿水間ビル２Ｆ,,13,104,1600023,,,,,,,2026-02-20,1,,,,,プレイ,0
1248,6011701029206,新規,0,2026-02-20,2026-02-20,株式会社生沼Ｇ,,株式会社,東京都,江戸川区,南小岩４丁目１１番１号生沼ビル２階,,13,123,1330056,,,,,,,2026-02-20,1,,,,,オイヌマジー,0
1249,6011703004537,新規,0,2026-02-20,2026-02-20,合同会社Ｃ＆Ｒ,,合同会社,東京都,江戸川区,船堀７丁目７―４センチュリー船堀１０４,,13,123,1340091,,,,,,,2026-02-20,1,,,,,シーアンドアール,0
1253,6012401044156,新規,0,2026-02-20,2026-02-20,Ｋコーポレートソリューションズ株式会社,,株式会社,東京都,調布市,仙川町３丁目１０番地６、２０３号室,,13,208,1820002,,,,,,,2026-02-20,1,,,,,ケーコーポレートソリューションズ,0
1254,6012801024550,新規,0,2026-02-20,2026-02-20,株式会社ＩＳＵ‐ＫＯＴＯＫＵ,,株式会社,東京都,国分寺市,西恋ヶ窪３丁目３２－９、１階,,13,214,1850013,,,,,,,2026-02-20,1,,,,,イスコトク,0
1262,6020001167137,新規,0,2026-02-20,2026-02-20,ＰＯＳＥＩＤＯＮ　ＳＵＰＰＬＹ　ＪＡＰＡＮ株式会社,,株式会社,神奈川県,横浜市神奈川区,神奈川２丁目１６番地１５号,,14,102,2210045,,,,,,,2026-02-20,1,,,,,ポセイドンサプライジャパン,0
1263,6020001167178,新規,0,2026-02-20,2026-02-20,Ｂｌｕｅ　Ｌｅａｆ　Ｃａｐｉｔａｌ株式会社,,株式会社,神奈川県,横浜市青葉区,荏子田２丁目１８番地２６,,14,117,2250005,,,,,,,2026-02-20,1,,,,,ブルーリーフキャピタル,0
1268,6021001087580,新規,0,2026-02-20,2026-02-20,株式会社ＹＭＨ,,株式会社,神奈川県,綾瀬市,上土棚中３丁目２番５８号,,14,218,2521113,,,,,,,2026-02-20,1,,,,,ワイエムエイチ,0
1275,6030001171088,新規,0,2026-02-20,2026-02-20,株式会社リンクスホーム,,株式会社,埼玉県,蕨市,中央２丁目１０番１号２Ｆ,,11,223,3350004,,,,,,,2026-02-20,1,,,,,リンクスホーム,0
1277,6030003028682,新規,0,2026-02-20,2026-02-20,合同会社定福,,合同会社,埼玉県,さいたま市南区,辻４丁目１番６－３０１号,,11,108,3360026,,,,,,,2026-02-20,1,,,,,サダフク,0
1278,6030005022411,新規,0,2026-02-20,2026-02-20,司法書士法人若海事務所,,その他の設立登記法人,埼玉県,川口市,本町２丁目６番２７号,,11,203,3320012,,,,,,,2026-02-20,1,,,,,ワカウミジムショ,0
1282,6040001142534,新規,0,2026-02-20,2026-02-20,株式会社ＴＳＵＭＵＧＩ,,株式会社,千葉県,船橋市,大穴南５丁目２５番３号高根公団ハイツ１０１,,12,204,2740067,,,,,,,2026-02-20,1,,,,,ツムギ,0
1283,6040001142559,新規,0,2026-02-20,2026-02-20,ＳＨＯＹＡ株式会社,,株式会社,千葉県,市川市,湊新田２丁目９番２１号,,12,203,2720132,,,,,,,2026-02-20,1,,,,,ショーヤ,0
1284,6040001142567,新規,0,2026-02-20,2026-02-20,千葉管理株式会社,,株式会社,千葉県,市原市,八幡北町２丁目５番地１３,,12,219,2900069,,,,,,,2026-02-20,1,,,,,チバカンリ,0
1294,6090001019744,新規,0,2026-02-20,2026-02-20,ＡＬＬ‐ＩＮ株式会社,,株式会社,山梨県,甲府市,大手１丁目２番２１号,,19,201,4000015,,,,,,,2026-02-20,1,,,,,オールイン,0
1297,6100001039344,新規,0,2026-02-20,2026-02-20,株式会社ＢＬ中部,,株式会社,長野県,飯田市,上郷飯沼２２２７番地,,20,205,3950002,,,,,,,2026-02-20,1,,,,,ビーエルチュウブ,0
1313,6120001284277,新規,0,2026-02-20,2026-02-20,Ｒ‐ｔｅｃ株式会社,,株式会社,大阪府,門真市,三ツ島５丁目７番２２号,,27,223,5710015,,,,,,,2026-02-20,1,,,,,アールテック,0
1314,6120001284293,新規,0,2026-02-20,2026-02-20,株式会社Ｍｅｈａｖｅ,,株式会社,大阪府,大阪市北区,梅田１丁目１番３号大阪駅前第３ビル１１階２号室,,27,127,5300001,,,,,,,2026-02-20,1,,,,,ミーハブ,0
1315,6120001284310,新規,0,2026-02-20,2026-02-20,三匠国際開発株式会社,,株式会社,大阪府,大阪市東淀川区,東中島１丁目１７番５号３５２号室,,27,114,5330033,,,,,,,2026-02-20,1,,,,,サンショウコクサイカイハツ,0
1316,6120003031958,新規,0,2026-02-20,2026-02-20,合同会社Ａｌｌ　Ｌｉｆｅ,,合同会社,大阪府,寝屋川市,昭栄町１０－５,,27,215,5720834,,,,,,,2026-02-20,1,,,,,オールライフ,0
1326,6122001040197,新規,0,2026-02-20,2026-02-20,株式会社ディアオールド,,株式会社,大阪府,八尾市,泉町２丁目１６－１,,27,212,5810813,,,,,,,2026-02-20,1,,,,,ディアオールド,0
1330,6130001081657,新規,0,2026-02-20,2026-02-20,株式会社ＬＵＩＸ,,株式会社,京都府,京都市山科区,音羽草田町４番地ハイネスクラウズ山科音羽６０５,,26,110,6078061,,,,,,,2026-02-20,1,,,,,ルイックス,0
1331,6130003011174,新規,0,2026-02-20,2026-02-20,合同会社睦美,,合同会社,京都府,京都市南区,上鳥羽堀子町１３４番地,,26,107,6018181,,,,,,,2026-02-20,1,,,,,ムツミ,0
1338,6140001141781,新規,0,2026-02-20,2026-02-20,甲武産業株式会社,,株式会社,兵庫県,尼崎市,長洲本通１丁目４番１１－１００２号,,28,202,6600803,,,,,,,2026-02-20,1,,,,,コウブサンギョウ,0
1339,6140001141807,新規,0,2026-02-20,2026-02-20,株式会社リノード,,株式会社,兵庫県,神戸市中央区,中山手通１丁目１７番６号,,28,110,6500004,,,,,,,2026-02-20,1,,,,,リノード,0
1341,6160001027434,新規,0,2026-02-20,2026-02-20,株式会社アゲルグローバル,,株式会社,滋賀県,湖南市,平松北１丁目４６,,25,211,5203235,,,,,,,2026-02-20,1,,,,,アゲルグローバル,0
1350,6180001170736,新規,0,2026-02-20,2026-02-20,株式会社Ｎメンテナンス,,株式会社,愛知県,名古屋市北区,黒川本通３丁目６４番地,,23,103,4620841,,,,,,,2026-02-20,1,,,,,エヌメンテナンス,0
1361,6240001066192,新規,0,2026-02-20,2026-02-20,株式会社ＫＡＧＵＲＡ,,株式会社,広島県,広島市中区,銀山町１１番１０号,,34,101,7300022,,,,,,,2026-02-20,1,,,,,カグラ,0
1363,6260003005519,新規,0,2026-02-20,2026-02-20,合同会社ＡｍｅｔｈｒｙＣｏｎｓｕｌｔｉｎｇ,,合同会社,岡山県,岡山市北区,中仙道２丁目１６番１８号エクセレントヴィラ２０５,,33,101,7000964,,,,,,,2026-02-20,1,,,,,アメスリコンサルティング,0
1376,6310003005190,新規,0,2026-02-20,2026-02-20,山水道合同会社,,合同会社,長崎県,長崎市,岩川町１２番９号,,42,201,8528106,,,,,,,2026-02-20,1,,,,,ヤマスイドウ,0
1378,6320001021593,新規,0,2026-02-20,2026-02-20,株式会社ＢＡＮＮＯＵ２５,,株式会社,大分県,日田市,朝日町７８１番地１,,44,204,8770000,,,,,,,2026-02-20,1,,,,,バンノウトゥエンティファイブ,0
1384,6340003005097,新規,0,2026-02-20,2026-02-20,合同会社ＫＡＧＯＳＨＩＭＡ　ＳＯＯ　ＤＲＯＮＥ　ＳＥＲＶＩＣＥ,,合同会社,鹿児島県,曽於市,末吉町岩崎５０９５番地３,,46,217,8998601,,,,,,,2026-02-20,1,,,,,カゴシマソオドローンサービス,0
1388,6360005007370,新規,0,2026-02-20,2026-02-20,一般社団法人ＵＴＡ,,その他の設立登記法人,沖縄県,うるま市,字川田３５１－１Ｋグレイス１０２,,47,213,9042232,,,,,,,2026-02-20,1,,,,,ウタ,0
1392,6380001035893,新規,0,2026-02-20,2026-02-20,株式会社ＣＨＥＳＳ,,株式会社,福島県,いわき市,泉町下川字薬師前１２５番地の１,,07,204,9718183,,,,,,,2026-02-20,1,,,,,チェス,0
1402,6430001096294,新規,0,2026-02-20,2026-02-20,株式会社ＳｉｌｖｅｒＧｌａｓｓ　Ｔｒａｄｉｎｇ,,株式会社,北海道,札幌市清田区,北野三条４丁目１４番３号,,01,110,0040863,,,,,,,2026-02-20,1,,,,,シルバーグラストレーディング,0
1404,6450003002777,新規,0,2026-02-20,2026-02-20,合同会社北彩堂,,合同会社,北海道,名寄市,西四条南１２丁目７－４,,01,221,0960014,,,,,,,2026-02-20,1,,,,,,0
1407,6470001021100,新規,0,2026-02-20,2026-02-20,株式会社ＮＡＫＡＩＭＡ建設,,株式会社,香川県,高松市,茜町１９番３５－３０５ダイアパレス茜町,,37,201,7600002,,,,,,,2026-02-20,1,,,,,ナカイマケンセツ,0
1410,6500001026789,新規,0,2026-02-20,2026-02-20,株式会社ＭＩＹＡＭＡｃａｍｉｎａｒ,,株式会社,愛媛県,喜多郡内子町,本川５９１番地１,,38,422,7913521,,,,,,,2026-02-20,1,,,,,ミヤマカミナール,0
1426,7010001263027,新規,0,2026-02-20,2026-02-20,Ｓｅｎｓｅ　Ｔｏｋｙｏ株式会社,,株式会社,東京都,中央区,佃２丁目１番１号,,13,102,1040051,,,,,,,2026-02-20,1,,,,,センストーキョー,0
1427,7010001263076,新規,0,2026-02-20,2026-02-20,株式会社Ｒｅｂｏｕｎｄｅｒ,,株式会社,東京都,文京区,本郷６丁目２５番１４号,,13,105,1130033,,,,,,,2026-02-20,1,,,,,リバウンダー,0
1431,7010003050456,新規,0,2026-02-20,2026-02-20,合同会社ＵｎＦｒａｍｅ,,合同会社,東京都,中央区,東日本橋２丁目２０番５－６０２号,,13,102,1030004,,,,,,,2026-02-20,1,,,,,アンフレーム,0
1432,7010003050480,新規,0,2026-02-20,2026-02-20,合同会社宮古島ホテルフェーズ２開発ＰＪ,,合同会社,東京都,中央区,銀座４丁目６番１号三幸アセットマネジメント株式会社内,,13,102,1040061,,,,,,,2026-02-20,1,,,,,ミヤコジマホテルフェーズツーカイハツピージェイ,0
1433,7010003050497,新規,0,2026-02-20,2026-02-20,大宮元離宮ホテル合同会社,,合同会社,東京都,千代田区,丸の内１丁目４番１号東京共同会計事務所内,,13,101,1000005,,,,,,,2026-02-20,1,,,,,オオミヤモトリキュウホテル,0
1436,7010005041395,新規,0,2026-02-20,2026-02-20,一般社団法人日本疼痛デジタルバイオバンク共創機構,,その他の設立登記法人,東京都,中央区,日本橋小舟町６番６号小倉ビル４階,,13,102,1030024,,,,,,,2026-02-20,1,,,,,ニホントウツウデジタルバイオバンクキョウソウキコウ,0
1437,7010005041429,新規,0,2026-02-20,2026-02-20,カン‐ｄｅｎｃｈｉ一般社団法人,,その他の設立登記法人,東京都,千代田区,丸の内１丁目４番１号東京共同会計事務所内,,13,101,1000005,,,,,,,2026-02-20,1,,,,,カンデンチ,0
1446,7010401196454,新規,0,2026-02-20,2026-02-20,株式会社Ｌｅｔ　Ｉｔ　Ｂｅ,,株式会社,東京都,港区,南青山２丁目５番１７号ＰＯＬＡ青山ビルディング５階Ｏｖｅｒｌａｐ,,13,103,1070062,,,,,,,2026-02-20,1,,,,,レットイットビー,0
1447,7010401196685,新規,0,2026-02-20,2026-02-20,株式会社ＢＬＯＯＭＩＡ,,株式会社,東京都,港区,六本木３丁目５番６号六本木テラス２０２,,13,103,1060032,,,,,,,2026-02-20,1,,,,,ブルーミア,0
1451,7010403037383,新規,0,2026-02-20,2026-02-20,メゾンリンク合同会社,,合同会社,東京都,港区,浜松町２丁目２番１５号浜松町ダイヤビル２Ｆ,,13,103,1050013,,,,,,,2026-02-20,1,,,,,メゾンリンク,0
1452,7010403037391,新規,0,2026-02-20,2026-02-20,Ｈｕｇｏ２Ｂ合同会社,,合同会社,東京都,港区,虎ノ門３丁目２２番１０－２０１号,,13,103,1050001,,,,,,,2026-02-20,1,,,,,ヒューゴツービー,0
1453,7010403037400,新規,0,2026-02-20,2026-02-20,リエネ宮城気仙沼ウインドファーム合同会社,,合同会社,東京都,港区,虎ノ門５丁目３番２０号株式会社アカウンティング・マネジメント・サービス内,,13,103,1050001,,,,,,,2026-02-20,1,,,,,リエネミヤギケセンヌマウインドファーム,0
1456,7010501055469,新規,0,2026-02-20,2026-02-20,株式会社コバユウ,,株式会社,東京都,台東区,鳥越２丁目５番２号,,13,106,1110054,,,,,,,2026-02-20,1,,,,,コバユウ,0
1457,7010501055485,新規,0,2026-02-20,2026-02-20,こあら画像診断株式会社,,株式会社,東京都,台東区,上野１丁目１７番６号広小路ビル８Ｆ－Ｂ,,13,106,1100005,,,,,,,2026-02-20,1,,,,,コアラガゾウシンダン,0
1459,7010503008193,新規,0,2026-02-20,2026-02-20,ＲＡＩＳＥ合同会社,,合同会社,東京都,台東区,下谷２丁目２３番８－５０３号,,13,106,1100004,,,,,,,2026-02-20,1,,,,,ライズ,0
1461,7010601068734,新規,0,2026-02-20,2026-02-20,ＩＥＳＴＡＹ株式会社,,株式会社,東京都,墨田区,向島５丁目４３番２０号クロスブレイン曳舟ビル２０６,,13,107,1310033,,,,,,,2026-02-20,1,,,,,イエステイ,0
1464,7010801037051,新規,0,2026-02-20,2026-02-20,株式会社ＲｅＧｌａｎｚ,,株式会社,東京都,大田区,上池台５丁目２０－１３丸山ビル,,13,111,1450064,,,,,,,2026-02-20,1,,,,,リグランツ,0
1469,7010803005725,新規,0,2026-02-20,2026-02-20,ソリエ合同会社,,合同会社,東京都,大田区,大森本町１丁目６番２－１２１３号,,13,111,1430011,,,,,,,2026-02-20,1,,,,,ソリエ,0
1477,7011001175311,新規,0,2026-02-20,2026-02-20,ノリス株式会社,,株式会社,東京都,渋谷区,広尾１丁目２番地１号ヒカリビル４階,,13,113,1500012,,,,,,,2026-02-20,1,,,,,ノリス,0
1478,7011001175641,新規,0,2026-02-20,2026-02-20,株式会社ＶＥＸＬ,,株式会社,東京都,目黒区,下目黒３丁目１６番９号ＭＥＧＵＲＯＬＡＢＥＬ―５０２,,13,110,1530064,,,,,,,2026-02-20,1,,,,,ヴェクセル,0
1479,7011001175823,新規,0,2026-02-20,2026-02-20,株式会社ニャンコム,,株式会社,東京都,渋谷区,神南１丁目１１―４ＦＰＧリンクス神南５階,,13,113,1500041,,,,,,,2026-02-20,1,,,,,ニャンコム,0
1483,7011101114846,新規,0,2026-02-20,2026-02-20,株式会社アールグレイ,,株式会社,東京都,新宿区,西新宿６丁目２１番１号アイタウン・プラザ１１０,,13,104,1600023,,,,,,,2026-02-20,1,,,,,アールグレイ,0
1484,7011101115051,新規,0,2026-02-20,2026-02-20,株式会社Ｍａｒｃｏ　Ｐｏｌｏ,,株式会社,東京都,新宿区,神楽坂３丁目１番地クレール神楽坂ＩＩＩ５階,00142645,13,104,1620825,,,,,,,2026-02-20,1,,,,,マルコポーロ,0
1485,7011101115068,新規,0,2026-02-20,2026-02-20,株式会社ルニア,,株式会社,東京都,新宿区,西新宿３丁目３番１３号西新宿水間ビル２Ｆ,,13,104,1600023,,,,,,,2026-02-20,1,,,,,ルニア,0
1491,7011503006864,新規,0,2026-02-20,2026-02-20,合同会社ＦＵＪＩＭＡＸ,,合同会社,東京都,北区,中十条３丁目７－５,,13,117,1140032,,,,,,,2026-02-20,1,,,,,フジマックス,0
1492,7011503006872,新規,0,2026-02-20,2026-02-20,３６９富士合同会社,,合同会社,東京都,北区,志茂１丁目１６番８号,,13,117,1150042,,,,,,,2026-02-20,1,,,,,サブロウキュウフジ,0
1494,7011603005023,新規,0,2026-02-20,2026-02-20,合同会社ｎｅｕｔｒａｌ　ｂｕｄｙ,,合同会社,東京都,練馬区,石神井台３丁目２４番４０号エルスタンザ大泉学園３０３号,,13,120,1770045,,,,,,,2026-02-20,1,,,,,ニュートラルボディ,0
1495,7011605002687,新規,0,2026-02-20,2026-02-20,一般社団法人飛澤研究所,,その他の設立登記法人,東京都,練馬区,田柄２丁目３４番８号,,13,120,1790073,,,,,,,2026-02-20,1,,,,,トビサワケンキュウジョ,0
1496,7011703004528,新規,0,2026-02-20,2026-02-20,ＣＯＬＯＲ　ＷＯＲＫ合同会社,,合同会社,東京都,江戸川区,篠崎町７丁目８番１３号,,13,123,1330061,,,,,,,2026-02-20,1,,,,,カラーワーク,0
1501,7013301055787,新規,0,2026-02-20,2026-02-20,ｉＲＡＳＳＨＡｉ株式会社,,株式会社,東京都,豊島区,池袋２丁目５５番１２－４０２号,,13,116,1710014,,,,,,,2026-02-20,1,,,,,イラッシャイ,0
1506,7020001167185,新規,0,2026-02-20,2026-02-20,株式会社ＲＴＤ,,株式会社,神奈川県,川崎市中原区,西加瀬６番３２－２号,,14,133,2110024,,,,,,,2026-02-20,1,,,,,アールティーディー,0
1507,7020001167193,新規,0,2026-02-20,2026-02-20,株式会社ＧＩＦＴ,,株式会社,神奈川県,横浜市保土ケ谷区,岩井町１番地７アーバン・Ｉ保土ケ谷駅ビル５Ｆ０９号,00142655,14,106,2400023,,,,,,,2026-02-20,1,,,,,ギフト,0
1508,7020001167243,新規,0,2026-02-20,2026-02-20,Ｍｕｒｅ株式会社,,株式会社,神奈川県,横浜市西区,花咲町５丁目１３６番地５－９０１,,14,103,2200022,,,,,,,2026-02-20,1,,,,,ミュール,0
1512,7021001087547,新規,0,2026-02-20,2026-02-20,株式会社Ｔｒｉｄａｎｔ,,株式会社,神奈川県,鎌倉市,台５丁目３番４号３１４号室,,14,204,2470061,,,,,,,2026-02-20,1,,,,,トライダント,0
1514,7021005013540,新規,0,2026-02-20,2026-02-20,一般社団法人Ｒｉｍａ,,その他の設立登記法人,神奈川県,鎌倉市,材木座３丁目１０番１２号,,14,204,2480013,,,,,,,2026-02-20,1,,,,,リマ,0
1515,7030001171112,新規,0,2026-02-20,2026-02-20,株式会社ムーン,,株式会社,埼玉県,所沢市,有楽町１８番９号カンキョービル３Ｆ,,11,208,3591117,,,,,,,2026-02-20,1,,,,,ムーン,0
1529,7040003029506,新規,0,2026-02-20,2026-02-20,ＫＡＧＵＩ防災メンテナンス合同会社,,合同会社,千葉県,印西市,西の原４丁目２００－１２７,,12,231,2701334,,,,,,,2026-02-20,1,,,,,カグイボウサイメンテナンス,0
1530,7040003029514,新規,0,2026-02-20,2026-02-20,ＲＩＶＡ合同会社,,合同会社,千葉県,木更津市,東太田４丁目７番３号,,12,206,2920043,,,,,,,2026-02-20,1,,,,,リヴァ,0
1539,7070001043852,新規,0,2026-02-20,2026-02-20,株式会社Ｓｙｕｎｏ,,株式会社,群馬県,邑楽郡明和町,中谷１２４番地ミコーズビル２Ｆ－１,,10,522,3700713,,,,,,,2026-02-20,1,,,,,シュノ,0
1555,7100003008627,新規,0,2026-02-20,2026-02-20,合同会社ＰＩＮＥ,,合同会社,長野県,須坂市,大字亀倉４１０－１７,,20,207,3820924,,,,,,,2026-02-20,1,,,,,パイン,0
1571,7120001284318,新規,0,2026-02-20,2026-02-20,株式会社ＥＮＲＩＣＨ,,株式会社,大阪府,大阪市北区,本庄東２丁目５番３０号Ｓ．Ｅ．Ｎ．ＳＴＥＮＲＯＫＵ５０１号室,,27,127,5310074,,,,,,,2026-02-20,1,,,,,エンリッチ,0
1572,7120001284342,新規,0,2026-02-20,2026-02-20,月渡貿易株式会社,,株式会社,大阪府,大阪市東淀川区,東中島２丁目８－６新大阪駅前ビル３０２－１,,27,114,5330033,,,,,,,2026-02-20,1,,,,,ゲットボウエキ,0
1574,7120003031973,新規,0,2026-02-20,2026-02-20,合同会社ＷＥ２６,,合同会社,大阪府,大阪市北区,堂島２丁目４番４,,27,127,5300003,,,,,,,2026-02-20,1,,,,,ダブルイーニジュウロク,0
1578,7120101073216,新規,0,2026-02-20,2026-02-20,株式会社ＬＡ　ＶＩＴＡ,,株式会社,大阪府,和泉市,光明台１丁目２７番７号,,27,219,5941111,,,,,,,2026-02-20,1,,,,,ラヴィータ,0
1579,7120101073232,新規,0,2026-02-20,2026-02-20,ＤＯ　ＰＬＵＳ株式会社,,株式会社,大阪府,和泉市,伏屋町２丁目４番２１－７０１号,,27,219,5940031,,,,,,,2026-02-20,1,,,,,ドゥプラス,0
1580,7120901052220,新規,0,2026-02-20,2026-02-20,株式会社ＢＡＲＲＥＬ　Ｇｒｅｅｎ,,株式会社,大阪府,吹田市,江坂町１丁目２３番３２号,,27,205,5640063,,,,,,,2026-02-20,1,,,,,バレルグリーン,0
1583,7122001040205,新規,0,2026-02-20,2026-02-20,株式会社ＥＡＳＴ　ＯＮＥ,,株式会社,大阪府,東大阪市,新庄１丁目１２番１２号,,27,227,5780963,,,,,,,2026-02-20,1,,,,,イーストワン,0
1599,7180001170735,新規,0,2026-02-20,2026-02-20,株式会社Ｔｒｕｅ　Ｗｉｎｇ,,株式会社,愛知県,春日井市,神屋町６５４番地２２５,,23,206,4800304,,,,,,,2026-02-20,1,,,,,トゥルーウィング,0
1600,7180003029748,新規,0,2026-02-20,2026-02-20,合同会社カリー,,合同会社,愛知県,名古屋市中川区,西日置２丁目２０番２０号－１ＷＥＬＬＮＥＳＴＲＯＯＭ名駅南２０２号,,23,110,4540004,,,,,,,2026-02-20,1,,,,,カリー,0
1601,7180003029814,新規,0,2026-02-20,2026-02-20,合同会社ＹｏｕｒＣｌｅａｎ,,合同会社,愛知県,名古屋市名東区,照が丘３６番地ユウワビル３０１,,23,115,4650042,,,,,,,2026-02-20,1,,,,,ユアクリーン,0
1605,7180301040704,新規,0,2026-02-20,2026-02-20,株式会社ｎａｄｏ,,株式会社,愛知県,額田郡幸田町,大字相見字新田内６番地,,23,501,4440117,,,,,,,2026-02-20,1,,,,,ナド,0
1606,7190005012123,新規,0,2026-02-20,2026-02-20,特定非営利活動法人ヒッキーズ,,その他の設立登記法人,三重県,松阪市,中万町３０番地１,,24,204,5192143,,,,,,,2026-02-20,1,,,,,ヒッキーズ,0
1615,7220001027179,新規,0,2026-02-20,2026-02-20,株式会社ＭＩＮＡＳＥ,,株式会社,石川県,小松市,向本折町ヲ３８番地１,,17,203,9230961,,,,,,,2026-02-20,1,,,,,ミナセ,0
1621,7250005009055,新規,0,2026-02-20,2026-02-20,一般財団法人和・ＯＨＡＮＡ,,その他の設立登記法人,山口県,長門市,三隅下１６９８番地１,,35,211,7593803,,,,,,,2026-02-20,1,,,,,カズオハナ,0
1633,7290001113187,新規,0,2026-02-20,2026-02-20,株式会社バリューリユース,,株式会社,福岡県,飯塚市,有安４０１番地１レアルワイズマンションＢ２０２号,,40,205,8200111,,,,,,,2026-02-20,1,,,,,バリューリユース,0
1634,7290001113212,新規,0,2026-02-20,2026-02-20,株式会社皐葵,,株式会社,福岡県,福岡市東区,下原３丁目２１番４８号,,40,131,8130002,,,,,,,2026-02-20,1,,,,,サツキ,0
1635,7290001113220,新規,0,2026-02-20,2026-02-20,株式会社Ｄｅｕｘ　Ｐｅａｒｌｓ,,株式会社,福岡県,福岡市博多区,博多駅前１丁目２３番２号ＰａｒｋＦｒｏｎｔ博多駅前１丁目５Ｆ－Ｂ,,40,132,8120011,,,,,,,2026-02-20,1,,,,,デュパールズ,0
1638,7290003018070,新規,0,2026-02-20,2026-02-20,合同会社ＭＥＩＳＨＯ　ＰＯＷＥＲ３号,,合同会社,福岡県,福岡市博多区,博多駅前３丁目４番３２号アクロスキューブ博多駅前,,40,132,8120011,,,,,,,2026-02-20,1,,,,,,0
1639,7290003018095,新規,0,2026-02-20,2026-02-20,合同会社Ｃａｍｐａｎｅｌｌａ,,合同会社,福岡県,福岡市南区,井尻４丁目３番１３－５０３号エスティメゾン井尻,,40,134,8111302,,,,,,,2026-02-20,1,,,,,,0
1640,7290003018104,新規,0,2026-02-20,2026-02-20,ＣＮＩＵ　ＬＥＤ合同会社,,合同会社,福岡県,福岡市中央区,高砂１丁目２１－２７ボンフル高砂２０２,,40,133,8100011,,,,,,,2026-02-20,1,,,,,,0
1653,7370001053490,新規,0,2026-02-20,2026-02-20,ネクオム＆カンパニー株式会社,,株式会社,宮城県,富谷市,富谷新町９５番地富谷市まちづくり産業交流プラザ内,,04,216,9813311,,,,,,,2026-02-20,1,,,,,ネクオムアンドカンパニー,0
1655,7380001035884,新規,0,2026-02-20,2026-02-20,ＣＩＲＣＵＬＵＳ株式会社,,株式会社,福島県,会津若松市,町北町大字始字深町７２番地,,07,202,9650052,,,,,,,2026-02-20,1,,,,,サーキュラス,0
1656,7380001035892,新規,0,2026-02-20,2026-02-20,株式会社ヒロコー,,株式会社,福島県,福島市,宮下町６番４号,,07,201,9608011,,,,,,,2026-02-20,1,,,,,ヒロコー,0
1660,7410003004215,新規,0,2026-02-20,2026-02-20,合同会社Ｎグループ,,合同会社,秋田県,秋田市,旭南２丁目７番１３号フォレント旭南Ａ,,05,201,0100925,,,,,,,2026-02-20,1,,,,,エヌグループ,0
1664,7430001096211,新規,0,2026-02-20,2026-02-20,株式会社Ｅ‐ｂｉｓ,,株式会社,北海道,夕張郡由仁町,新光６３番地,,01,427,0691204,,,,,,,2026-02-20,1,,,,,イービス,0
1665,7430001096293,新規,0,2026-02-20,2026-02-20,株式会社ＰＡＣＥ・ＯＮＥＳＥＬＦ,,株式会社,北海道,岩見沢市,北本町東４丁目２番１号,,01,210,0680057,,,,,,,2026-02-20,1,,,,,ペースワンセルフ,0
1666,7430001096310,新規,0,2026-02-20,2026-02-20,Ｐｒｉｍｅ　Ｓｙｓｔｅｍ株式会社,,株式会社,北海道,札幌市北区,北二十九条西８丁目２番７－１号,,01,102,0010029,,,,,,,2026-02-20,1,,,,,プライムシステム,0
1669,7450003002776,新規,0,2026-02-20,2026-02-20,合同会社クレプスムム,,合同会社,北海道,旭川市,大町一条１丁目３０番地の１２７,,01,204,0700841,,,,,,,2026-02-20,1,,,,,クレプスムム,0
1670,7460301005348,新規,0,2026-02-20,2026-02-20,株式会社林産業,,株式会社,北海道,北見市,東相内町６５１番地６２,,01,208,0990878,,,,,,,2026-02-20,1,,,,,ハヤシサンギョウ,0
1672,7480003002393,新規,0,2026-02-20,2026-02-20,合同会社マイクロＧＸ京都,,合同会社,徳島県,板野郡松茂町,中喜来字群恵３９番地１,,36,401,7710212,,,,,,,2026-02-20,1,,,,,マイクロジーエックスキョウト,0
1687,8010003050447,新規,0,2026-02-20,2026-02-20,合同会社リズムセクション,,合同会社,東京都,中央区,銀座６丁目１３番１６号銀座ＷａｌｌビルＵＣＦ５階,,13,102,1040061,,,,,,,2026-02-20,1,,,,,リズムセクション,0
1688,8010003050463,新規,0,2026-02-20,2026-02-20,合同会社プラス１０号,,合同会社,東京都,中央区,日本橋箱崎町１６－１東益ビル６階,,13,102,1030015,,,,,,,2026-02-20,1,,,,,プラスジュウゴウ,0
1689,8010003050496,新規,0,2026-02-20,2026-02-20,カン‐ｄｅｎｃｈｉ合同会社,,合同会社,東京都,千代田区,丸の内１丁目４番１号東京共同会計事務所内,,13,101,1000005,,,,,,,2026-02-20,1,,,,,カンデンチ,0
1691,8010005041394,新規,0,2026-02-20,2026-02-20,ＭＳＴ税理士法人,,その他の設立登記法人,東京都,千代田区,大手町１丁目６－１大手町ビル１Ｆ－３ＦＳｐａｃｅｓ大手町,,13,101,1000004,,,,,,,2026-02-20,1,,,,,エムエスティー,0
1692,8010005041428,新規,0,2026-02-20,2026-02-20,マカロン３プロパティ一般社団法人,,その他の設立登記法人,東京都,千代田区,丸の内１丁目４番１号東京共同会計事務所内,,13,101,1000005,,,,,,,2026-02-20,1,,,,,マカロンスリープロパティ,0
1693,8010101017100,新規,0,2026-02-20,2026-02-20,株式会社ＴＭ　ａｓｓｉｓｔ,,株式会社,東京都,八王子市,高倉町４６番地１８号第一土方ビル３階,,13,201,1920033,,,,,,,2026-02-20,1,,,,,ティーエムアシスト,0
1702,8010401196718,新規,0,2026-02-20,2026-02-20,スタートラベラー株式会社,,株式会社,東京都,港区,南青山３丁目８番４０号青山センタービル２階,,13,103,1070062,,,,,,,2026-02-20,1,,,,,スタートラベラー,0
1706,8010403037390,新規,0,2026-02-20,2026-02-20,Ｈｕｇｏ２Ａ合同会社,,合同会社,東京都,港区,虎ノ門３丁目２２番１０－２０１号,,13,103,1050001,,,,,,,2026-02-20,1,,,,,ヒューゴツーエー,0
1708,8010405025393,新規,0,2026-02-20,2026-02-20,一般社団法人北海道アルファファンド１号,,その他の設立登記法人,東京都,港区,西新橋１丁目２番９号メンターキャピタル税理士法人内,,13,103,1050003,,,,,,,2026-02-20,1,,,,,ホッカイドウアルファファンドイチゴウ,0
1711,8010703008141,新規,0,2026-02-20,2026-02-20,合同会社ＡＸＩＳ,,合同会社,東京都,品川区,南品川５丁目７番２号コジマコーポ２０２,,13,109,1400004,,,,,,,2026-02-20,1,,,,,アクシス,0
1713,8010901058946,新規,0,2026-02-20,2026-02-20,グローイングエッグス株式会社,,株式会社,東京都,世田谷区,太子堂４丁目１８番１５号マガザン三軒茶屋２－３Ｆ－３,,13,112,1540004,,,,,,,2026-02-20,1,,,,,グローイングエッグス,0
1714,8010903010632,新規,0,2026-02-20,2026-02-20,合同会社ｋｉｔｏ,,合同会社,東京都,世田谷区,深沢５丁目３番１３号,,13,112,1580081,,,,,,,2026-02-20,1,,,,,キト,0
1723,8011001175434,新規,0,2026-02-20,2026-02-20,株式会社ｏｕｔ　ｏｆ　ｔｉｍｅ,,株式会社,東京都,目黒区,柿の木坂１丁目２７－６田中ビル３０２,,13,110,1520022,,,,,,,2026-02-20,1,,,,,アウトオブタイム,0
1724,8011001175525,新規,0,2026-02-20,2026-02-20,中村アセットマネジメント株式会社,,株式会社,東京都,渋谷区,広尾３丁目１７番２４－４０２号パークコート広尾ヒルトップレジデンス,,13,113,1500012,,,,,,,2026-02-20,1,,,,,ナカムラアセットマネジメント,0
1725,8011001175772,新規,0,2026-02-20,2026-02-20,株式会社ヒロキコーポレーション,,株式会社,東京都,目黒区,緑が丘２丁目２２番１７号,,13,110,1520034,,,,,,,2026-02-20,1,,,,,ヒロキコーポレーション,0
1728,8011003023723,新規,0,2026-02-20,2026-02-20,合同会社ハレの木,,合同会社,東京都,目黒区,下目黒５丁目２６番３号プリマヴェーラ目黒３０３,,13,110,1530064,,,,,,,2026-02-20,1,,,,,ハレノキ,0
1733,8011101114201,新規,0,2026-02-20,2026-02-20,株式会社ＡＣＥ,,株式会社,東京都,新宿区,神楽坂６丁目４３番地,,13,104,1620825,,,,,,,2026-02-20,1,,,,,エース,0
1734,8011101114812,新規,0,2026-02-20,2026-02-20,株式会社新心会グループ,,株式会社,東京都,新宿区,新宿３丁目１７－１０ＨＵＬＩＣ＆ＮｅｗＳＨＩＮＪＵＫＵ６Ｆ,,13,104,1600022,,,,,,,2026-02-20,1,,,,,シンシンカイグループ,0
1738,8011303005867,新規,0,2026-02-20,2026-02-20,テクサビレッジ合同会社,,合同会社,東京都,杉並区,下高井戸２丁目１２－３,,13,115,1680073,,,,,,,2026-02-20,1,,,,,テクサビレッジ,0
1741,8011501033117,新規,0,2026-02-20,2026-02-20,株式会社Ｐ‐Ｒｉｓｅ,,株式会社,東京都,北区,王子本町１丁目２６－２ヴァースクレイシアＩＤＺ王子５０３,,13,117,1140022,,,,,,,2026-02-20,1,,,,,ピーライズ,0
1745,8011803007339,新規,0,2026-02-20,2026-02-20,合同会社キングキャピタル,,合同会社,東京都,足立区,西新井栄町１丁目１８番１－１０８号,,13,121,1230843,,,,,,,2026-02-20,1,,,,,キングキャピタル,0
1746,8012303002292,新規,0,2026-02-20,2026-02-20,合同会社ＬＩＦＢ,,合同会社,東京都,町田市,三輪緑山２丁目２５番地４,,13,209,1950055,,,,,,,2026-02-20,1,,,,,エルアイエフビー,0
1756,8013301055778,新規,0,2026-02-20,2026-02-20,グランディール株式会社,,株式会社,東京都,豊島区,南長崎５丁目１７番１３号ハイマート小野田２０１号,,13,116,1710052,,,,,,,2026-02-20,1,,,,,グランディール,0
1758,8013303008107,新規,0,2026-02-20,2026-02-20,合同会社ＢＯＳＳ　ａｓｐｉｒｅ　ｓｔｕｄｉｏ,,合同会社,東京都,豊島区,東池袋２丁目６２番８号ＢＩＧオフィスプラザ池袋１２０６,,13,116,1700013,,,,,,,2026-02-20,1,,,,,ボスアスバイアスタジオ,0
1764,8020001167176,新規,0,2026-02-20,2026-02-20,株式会社ワンツーセブン,,株式会社,神奈川県,横浜市戸塚区,秋葉町３６０番地１高長ハイツ１０２号,,14,110,2450052,,,,,,,2026-02-20,1,,,,,ワンツーセブン,0
1765,8020001167218,新規,0,2026-02-20,2026-02-20,株式会社ＰＬＵＳ　ＯＮＥ,,株式会社,神奈川県,川崎市川崎区,宮前町８番１３号大幸ビル５０２,,14,131,2100012,,,,,,,2026-02-20,1,,,,,プラスワン,0
1766,8020001167234,新規,0,2026-02-20,2026-02-20,ＴＩＤＡ＆Ｃｏ．株式会社,,株式会社,神奈川県,川崎市川崎区,駅前本町１１番地２川崎フロンティアビル４階,,14,131,2100007,,,,,,,2026-02-20,1,,,,,ティダアンドコー,0
1767,8020001167267,新規,0,2026-02-20,2026-02-20,株式会社関工務店,,株式会社,神奈川県,川崎市中原区,上丸子八幡町１４８６ラ・クレール新丸子５１２,,14,133,2110001,,,,,,,2026-02-20,1,,,,,セキコウムテン,0
1770,8020003030431,新規,0,2026-02-20,2026-02-20,合同会社Ｆｏｒ　Ｌｉｆｅ,,合同会社,神奈川県,横浜市鶴見区,潮田町３丁目１４７番地２５,,14,101,2300041,,,,,,,2026-02-20,1,,,,,フォーライフ,0
1774,8021001087562,新規,0,2026-02-20,2026-02-20,株式会社ＴＡＮＡＫＡホールディングス,,株式会社,神奈川県,伊勢原市,西富岡１０００番地,,14,214,2591111,,,,,,,2026-02-20,1,,,,,タナカホールディングス,0
1775,8021001087579,新規,0,2026-02-20,2026-02-20,タツミ電設株式会社,,株式会社,神奈川県,相模原市中央区,富士見６丁目１１番１５号,,14,152,2520236,,,,,,,2026-02-20,1,,,,,タツミデンセツ,0
1784,8030001171086,新規,0,2026-02-20,2026-02-20,株式会社ＲＥＶＩＶＡＬ,,株式会社,埼玉県,富士見市,大字下南畑３９３番地１,,11,235,3540004,,,,,,,2026-02-20,1,,,,,リバイバル,0
1785,8030001171094,新規,0,2026-02-20,2026-02-20,株式会社クラフトフロア,,株式会社,埼玉県,さいたま市西区,大字西遊馬１５１番地５,,11,101,3310061,,,,,,,2026-02-20,1,,,,,クラフトフロア,0
1786,8030001171111,新規,0,2026-02-20,2026-02-20,株式会社アザラシケア,,株式会社,埼玉県,川口市,上青木１丁目１８番９号,,11,203,3330844,,,,,,,2026-02-20,1,,,,,アザラシケア,0
1798,8040001142532,新規,0,2026-02-20,2026-02-20,プロネットワークス株式会社,,株式会社,千葉県,佐倉市,生谷１５３０番地３,,12,212,2850836,,,,,,,2026-02-20,1,,,,,プロネットワークス,0
1801,8040003029505,新規,0,2026-02-20,2026-02-20,合同会社ＡＫＡＳＥＡ,,合同会社,千葉県,鴨川市,広場８３４番地２号５０２,,12,223,2960044,,,,,,,2026-02-20,1,,,,,アカシー,0
1805,8050005013761,新規,0,2026-02-20,2026-02-20,一般社団法人常陸国ガストロノミー協会,,その他の設立登記法人,茨城県,水戸市,笠原町４４７－１,,08,201,3100852,,,,,,,2026-02-20,1,,,,,ヒタチノクニガストロノミーキョウカイ,0
1822,8100003008626,新規,0,2026-02-20,2026-02-20,万大仕法合同会社,,合同会社,長野県,北佐久郡軽井沢町,大字軽井沢１３４２番地２２０,,20,321,3890102,,,,,,,2026-02-20,1,,,,,バンダイシホウ,0
1834,8120001284333,新規,0,2026-02-20,2026-02-20,株式会社ＯＵＯＵ廊,,株式会社,大阪府,大阪市阿倍野区,松虫通１丁目１－３７,,27,119,5450043,,,,,,,2026-02-20,1,,,,,オウオウロウ,0
1835,8120003031881,新規,0,2026-02-20,2026-02-20,合同会社ＴＲＹ,,合同会社,大阪府,大阪市淀川区,西中島３丁目１４番１４号新居第９レジャービル５－１,,27,123,5320011,,,,,,,2026-02-20,1,,,,,トライ,0
1836,8120003031931,新規,0,2026-02-20,2026-02-20,合同会社ＹＡＭＡＳＨＩＴＡ,,合同会社,大阪府,大阪市中央区,日本橋１丁目７－４ヴィラ日本橋４０１,,27,128,5420073,,,,,,,2026-02-20,1,,,,,ヤマシタ,0
1837,8120003031964,新規,0,2026-02-20,2026-02-20,ＭＴＫ運送合同会社,,合同会社,大阪府,大阪市城東区,新喜多１丁目２番７－１５０１号,,27,118,5360015,,,,,,,2026-02-20,1,,,,,エムティーケーウンソウ,0
1838,8120003031972,新規,0,2026-02-20,2026-02-20,合同会社堂島アドバタイズ,,合同会社,大阪府,大阪市北区,曾根崎新地１丁目２－２９ＮＩＰＰＯノースビル１Ｆ,,27,127,5300002,,,,,,,2026-02-20,1,,,,,ドウジマアドバタイズ,0
1848,8122001040204,新規,0,2026-02-20,2026-02-20,株式会社嘉潤,,株式会社,大阪府,東大阪市,豊浦町５番１６号,,27,227,5798031,,,,,,,2026-02-20,1,,,,,カジュン,0
1850,8130001081630,新規,0,2026-02-20,2026-02-20,株式会社たくみホールディングス,,株式会社,京都府,城陽市,久世北垣内１２９番地,,26,207,6100102,,,,,,,2026-02-20,1,,,,,タクミホールディングス,0
1853,8130003011156,新規,0,2026-02-20,2026-02-20,Ｓｏｌａａｓ合同会社,,合同会社,京都府,京都市伏見区,新町４－４７１ベルエール桃山Ａ５０３,,26,109,6120000,,,,,,,2026-02-20,1,,,,,ソラス,0
1862,8150001028753,新規,0,2026-02-20,2026-02-20,株式会社ＭＡＭＡＮＥ,,株式会社,奈良県,奈良市,古市町２６４１－２５,,29,201,6308424,,,,,,,2026-02-20,1,,,,,ママネ,0
1863,8150005009766,新規,0,2026-02-20,2026-02-20,一般社団法人Ｌａｍｐ協会,,その他の設立登記法人,奈良県,奈良市,富雄元町１丁目６番３－１０３号,,29,201,6310078,,,,,,,2026-02-20,1,,,,,ランプキョウカイ,0
1864,8160001027424,新規,0,2026-02-20,2026-02-20,Ｆｅｅ　Ｌｕｍｅｓ　Ｃｒｅａｔｉｏｎ株式会社,,株式会社,滋賀県,東近江市,躰光寺町４２１番地５,,25,213,5211205,,,,,,,2026-02-20,1,,,,,フェルメスクリエイション,0
1865,8160001027432,新規,0,2026-02-20,2026-02-20,ＦＭびわこ株式会社,,株式会社,滋賀県,守山市,梅田町２番１－２０２号,,25,207,5240037,,,,,,,2026-02-20,1,,,,,エフエムビワコ,0
1870,8180001170750,新規,0,2026-02-20,2026-02-20,株式会社樹虎,,株式会社,愛知県,名古屋市千種区,今池南５番１２号,,23,101,4640851,,,,,,,2026-02-20,1,,,,,ジュコ,0
1873,8180301040711,新規,0,2026-02-20,2026-02-20,株式会社椎名設備,,株式会社,愛知県,豊橋市,中岩田３丁目５番地３３,,23,201,4400832,,,,,,,2026-02-20,1,,,,,シイナセツビ,0
1876,8180303006900,新規,0,2026-02-20,2026-02-20,合同会社モアスタディプラス,,合同会社,愛知県,豊田市,大林町１２丁目６番地１８,,23,211,4730902,,,,,,,2026-02-20,1,,,,,モアスタディプラス,0
1883,8240001066190,新規,0,2026-02-20,2026-02-20,株式会社玄映社中,,株式会社,広島県,広島市安佐南区,緑井２丁目１７番１７－２０３号,,34,105,7310103,,,,,,,2026-02-20,1,,,,,ゲンエイシャチュウ,0
1887,8270001009394,新規,0,2026-02-20,2026-02-20,株式会社Ｂｒａｖｅｒｙ,,株式会社,鳥取県,鳥取市,湖山町南２丁目８０１番地,,31,201,6800945,,,,,,,2026-02-20,1,,,,,ブレーバリー,0
1891,8290001113228,新規,0,2026-02-20,2026-02-20,株式会社慶和ホールディングス,,株式会社,福岡県,福岡市中央区,舞鶴１丁目１番１１号,,40,133,8100073,,,,,,,2026-02-20,1,,,,,ケイワホールディングス,0
1892,8290001113236,新規,0,2026-02-20,2026-02-20,株式会社ハラダホールディングス,,株式会社,福岡県,朝倉市,小田２１２９番地,,40,228,8380051,,,,,,,2026-02-20,1,,,,,ハラダホールディングス,0
1893,8290003018103,新規,0,2026-02-20,2026-02-20,合同会社己,,合同会社,福岡県,久留米市,合川町１８番１６号,,40,203,8390861,,,,,,,2026-02-20,1,,,,,オノレ,0
1896,8290801032263,新規,0,2026-02-20,2026-02-20,株式会社若松オールペイパーズ,,株式会社,福岡県,北九州市若松区,桜町２０－２３,,40,103,8080026,,,,,,,2026-02-20,1,,,,,ワカマツオールペイパーズ,0
1897,8310003005189,新規,0,2026-02-20,2026-02-20,雲仙有機農業合同会社,,合同会社,長崎県,南島原市,深江町戊３３２７－１,,42,214,8591505,,,,,,,2026-02-20,1,,,,,ウンゼンユウキノウギョウ,0
1901,8320001021591,新規,0,2026-02-20,2026-02-20,ＳＥＫＩＹＡ　ＷＯＲＫＳ株式会社,,株式会社,大分県,佐伯市,蒲江大字畑野浦２６５９番地１,,44,205,8762201,,,,,,,2026-02-20,1,,,,,セキヤワークス,0
1910,8360001036396,新規,0,2026-02-20,2026-02-20,ジョイ・エンタープライズ株式会社,,株式会社,沖縄県,那覇市,久米２丁目３番１５号ＪＲ九州那覇ビル５Ｆ／７Ｆ,,47,201,9000033,,,,,,,2026-02-20,1,,,,,ジョイエンタープライズ,0
1914,8370001053498,新規,0,2026-02-20,2026-02-20,株式会社Ｈｉｇｈ　Ｂｒｉｄｇｅ,,株式会社,宮城県,仙台市太白区,西中田４丁目９番４６－１号,,04,104,9811105,,,,,,,2026-02-20,1,,,,,ハイブリッジ,0
1918,8380005013068,新規,0,2026-02-20,2026-02-20,ＲＩＳＥ協同組合,,その他の設立登記法人,福島県,郡山市,横塚３丁目４番７号横塚貸事務所２０３号室,,07,203,9638803,,,,,,,2026-02-20,1,,,,,ライズ,0
1920,8390001018235,新規,0,2026-02-20,2026-02-20,株式会社トップジャパンネゴシエーター,,株式会社,山形県,山形市,花楯２丁目１番３７号,,06,201,9900067,,,,,,,2026-02-20,1,,,,,トップジャパンネゴシエーター,0
1923,8410003004214,新規,0,2026-02-20,2026-02-20,合同会社ＲＫビジョン,,合同会社,秋田県,秋田市,大町５丁目４番２２号３０１,,05,201,0100921,,,,,,,2026-02-20,1,,,,,アールケービジョン,0
1935,8430001096284,新規,0,2026-02-20,2026-02-20,株式会社ＥｖｅｒＧａｒｄｅｎ,,株式会社,北海道,札幌市西区,宮の沢三条４丁目１９番３２－２０７号,,01,107,0630053,,,,,,,2026-02-20,1,,,,,エバーガーデン,0
1936,8430001096301,新規,0,2026-02-20,2026-02-20,小樽エネルギー株式会社,,株式会社,北海道,札幌市中央区,北一条東３丁目３番地,,01,101,0600031,,,,,,,2026-02-20,1,,,,,オタルエネルギー,0
1939,8440003001761,新規,0,2026-02-20,2026-02-20,怜和運送合同会社,,合同会社,北海道,茅部郡森町,字砂原６丁目１３番１６号,,01,345,0492222,,,,,,,2026-02-20,1,,,,,レイワウンソウ,0
1962,9010003050405,新規,0,2026-02-20,2026-02-20,合同会社ＴＲ１リアルティ,,合同会社,東京都,中央区,日本橋１丁目４番１号日本橋一丁目ビルディング,,13,102,1030027,,,,,,,2026-02-20,1,,,,,ティーアールワンリアルティ,0
1963,9010003050462,新規,0,2026-02-20,2026-02-20,合同会社プラス９号,,合同会社,東京都,中央区,日本橋箱崎町１６－１東益ビル６階,,13,102,1030015,,,,,,,2026-02-20,1,,,,,プラスキュウゴウ,0
1964,9010003050495,新規,0,2026-02-20,2026-02-20,マカロン３プロパティ合同会社,,合同会社,東京都,千代田区,丸の内１丁目４番１号東京共同会計事務所内,,13,101,1000005,,,,,,,2026-02-20,1,,,,,マカロンスリープロパティ,0
1967,9010005041427,新規,0,2026-02-20,2026-02-20,マカロン３ホールディング一般社団法人,,その他の設立登記法人,東京都,千代田区,丸の内１丁目４番１号東京共同会計事務所内,,13,101,1000005,,,,,,,2026-02-20,1,,,,,マカロンスリーホールディング,0
1968,9010101017099,新規,0,2026-02-20,2026-02-20,ＯＭホールディングス株式会社,,株式会社,東京都,八王子市,高倉町４９番地３,,13,201,1920033,,,,,,,2026-02-20,1,,,,,オーエムホールディングス,0
1978,9010405025319,新規,0,2026-02-20,2026-02-20,一般社団法人慶應柔道倶楽部,,その他の設立登記法人,東京都,港区,三田２丁目１５番４５号慶應義塾体育会本部内,,13,103,1080073,,,,,,,2026-02-20,1,,,,,ケイオウジュウドウクラブ,0
1979,9010405025392,新規,0,2026-02-20,2026-02-20,リエネ宮城気仙沼ウインドファーム一般社団法人,,その他の設立登記法人,東京都,港区,虎ノ門５丁目３番２０号株式会社アカウンティング・マネジメント・サービス内,,13,103,1050001,,,,,,,2026-02-20,1,,,,,リエネミヤギケセンヌマウインドファーム,0
1989,9010901059010,新規,0,2026-02-20,2026-02-20,株式会社マサモノ,,株式会社,東京都,世田谷区,上祖師谷３丁目１７番４号,,13,112,1570065,,,,,,,2026-02-20,1,,,,,マサモノ,0
1993,9011003023598,新規,0,2026-02-20,2026-02-20,合同会社ゴウカライズ,,合同会社,東京都,渋谷区,恵比寿西２丁目８番４号ＥＸ恵比寿西ビル５階,,13,113,1500021,,,,,,,2026-02-20,1,,,,,ゴウカライズ,0
1999,9011101114803,新規,0,2026-02-20,2026-02-20,株式会社ＡＩｐｌｕｓ,,株式会社,東京都,新宿区,西新宿３丁目３番１３号西新宿水間ビル６階,,13,104,1600023,,,,,,,2026-02-20,1,,,,,エーアイプラス,0
2001,9011103016997,新規,0,2026-02-20,2026-02-20,ＯＭＨ合同会社,,合同会社,東京都,新宿区,四谷三栄町１１番６号アンテメゾン２０１,,13,104,1600008,,,,,,,2026-02-20,1,,,,,オーエムエイチ,0
2005,9011303005866,新規,0,2026-02-20,2026-02-20,Ｄｅｔｏｘｙ　Ａｓｓｅｔ　Ｈｕｂ合同会社,,合同会社,東京都,杉並区,善福寺１丁目２２番７号,,13,115,1670041,,,,,,,2026-02-20,1,,,,,デトキシーアッセトハブ,0
2007,9011501033116,新規,0,2026-02-20,2026-02-20,株式会社ＴＴＣ　ＡＲＲＯＷ,,株式会社,東京都,北区,滝野川６丁目７０番１４号コーポ大川１０１,,13,117,1140023,,,,,,,2026-02-20,1,,,,,ティーティーシーアロー,0
2015,9012401044161,新規,0,2026-02-20,2026-02-20,株式会社Ｙｐｓｉｌｏｎ,,株式会社,東京都,狛江市,猪方３丁目７番１７号,,13,219,2010015,,,,,,,2026-02-20,1,,,,,イプシロン,0
2016,9012701019326,新規,0,2026-02-20,2026-02-20,Ｓｔｒａｔｏｓ株式会社,,株式会社,東京都,西東京市,芝久保町２丁目１３番１９－１０６号,,13,229,1880014,,,,,,,2026-02-20,1,,,,,ストラトス,0
2018,9012801024548,新規,0,2026-02-20,2026-02-20,株式会社いろどり,,株式会社,東京都,昭島市,昭和町３丁目１７番１２号,,13,207,1960015,,,,,,,2026-02-20,1,,,,,イロドリ,0
2021,9013303008106,新規,0,2026-02-20,2026-02-20,合同会社ＳＴ,,合同会社,東京都,豊島区,南長崎２丁目１０番３号ハーモニーテラス南長崎１０３号,,13,116,1710052,,,,,,,2026-02-20,1,,,,,エスティー,0
2026,9020001167200,新規,0,2026-02-20,2026-02-20,株式会社ＫＡＩＲＩ,,株式会社,神奈川県,川崎市宮前区,鷺沼２丁目６番地２エクセレントハイツ鷺沼４０２,,14,136,2160004,,,,,,,2026-02-20,1,,,,,カイリ,0
2030,9020003030447,新規,0,2026-02-20,2026-02-20,合同会社マティス,,合同会社,神奈川県,横浜市西区,浅間町１丁目４番３号ウィザードビル４０２,,14,103,2200072,,,,,,,2026-02-20,1,,,,,マティス,0
2034,9021003017153,新規,0,2026-02-20,2026-02-20,合同会社オーディナリ,,合同会社,神奈川県,藤沢市,湘南台１丁目２３番地の１８ファミーユ・ラスタ２０２号室,,14,205,2520804,,,,,,,2026-02-20,1,,,,,オーディナリ,0
2041,9030001171060,新規,0,2026-02-20,2026-02-20,株式会社ＮＡＮＩＭＯ,,株式会社,埼玉県,さいたま市浦和区,常盤３丁目２１番１９号ボンドスクエアー０１・２Ｆ,,11,107,3300061,,,,,,,2026-02-20,1,,,,,ナニモ,0
2042,9030001171093,新規,0,2026-02-20,2026-02-20,日金高純材料株式会社,,株式会社,埼玉県,草加市,手代１丁目５番５号,,11,221,3400021,,,,,,,2026-02-20,1,,,,,ニッキンコウジュンザイリョウ,0
2043,9030001171102,新規,0,2026-02-20,2026-02-20,Ｐｌｕｓ　Ｐｒｏｖｉｄｅ株式会社,,株式会社,埼玉県,比企郡嵐山町,大字平澤２１８２番地,,11,342,3550215,,,,,,,2026-02-20,1,,,,,プラスプロバイド,0
2048,9030003028688,新規,0,2026-02-20,2026-02-20,合同会社彩楽の樹,,合同会社,埼玉県,川越市,神明町３６番地１,,11,201,3500823,,,,,,,2026-02-20,1,,,,,サクラノキ,0
2053,9040001142556,新規,0,2026-02-20,2026-02-20,株式会社ＡＴＨＥＮＡ,,株式会社,千葉県,船橋市,本町４丁目４３番２０号みよしビル２階Ａ,,12,204,2730005,,,,,,,2026-02-20,1,,,,,アテナ,0
2054,9040001142589,新規,0,2026-02-20,2026-02-20,アビロン株式会社,,株式会社,千葉県,千葉市花見川区,作新台１丁目２８番１０号ラレーブ八千代台１１０号,,12,102,2620045,,,,,,,2026-02-20,1,,,,,アビロン,0
2064,9070003006310,新規,0,2026-02-20,2026-02-20,ｐｕｒｅ　ｓｏｕｌ合同会社,,合同会社,群馬県,前橋市,大利根町１丁目６番地６,,10,201,3710825,,,,,,,2026-02-20,1,,,,,ピュアソウル,0
2069,9100003008625,新規,0,2026-02-20,2026-02-20,合同会社久保設備,,合同会社,長野県,松本市,大字中山１２５２番地７,,20,202,3900823,,,,,,,2026-02-20,1,,,,,クボセツビ,0
2089,9120001284349,新規,0,2026-02-20,2026-02-20,Ａｕｒｅｌｉａ　Ｈｏｔｅｌ道頓堀株式会社,,株式会社,大阪府,大阪市中央区,南本町２丁目６番５号ファースト船場ビル２０１Ｂ,,27,128,5410054,,,,,,,2026-02-20,1,,,,,アウレリアホテルドウトンボリ,0
2092,9120003031955,新規,0,2026-02-20,2026-02-20,合同会社オウイプロパティ,,合同会社,大阪府,大阪市中央区,平野町１丁目８番１３号平野町八千代ビル３階,,27,128,5410046,,,,,,,2026-02-20,1,,,,,オウイプロパティ,0
2094,9120101073230,新規,0,2026-02-20,2026-02-20,あかり株式会社,,株式会社,大阪府,堺市中区,土師町３－１５－５４,,27,142,5990000,,,,,,,2026-02-20,1,,,,,アカリ,0
2096,9120103006997,新規,0,2026-02-20,2026-02-20,合同会社ＲＩＺＥ,,合同会社,大阪府,藤井寺市,北岡２丁目５番１号,,27,226,5830035,,,,,,,2026-02-20,1,,,,,ライズ,0
2109,9130001081638,新規,0,2026-02-20,2026-02-20,盛達株式会社,,株式会社,京都府,京都市伏見区,深草馬谷町３４－６,,26,109,6120816,,,,,,,2026-02-20,1,,,,,セイタツ,0
2110,9130003011155,新規,0,2026-02-20,2026-02-20,合同会社Ａｌｔａｓ,,合同会社,京都府,京都市上京区,六軒町通五辻上る西入溝前町９６７番地第ＩＩグリーンハイツ高田１０２,00142654,26,102,6028319,,,,,,,2026-02-20,1,,,,,アルタス,0
2113,9140001141779,新規,0,2026-02-20,2026-02-20,株式会社ＳＴＲＵＳＥＮ,,株式会社,兵庫県,伊丹市,昆陽６丁目５２番地４,,28,207,6640881,,,,,,,2026-02-20,1,,,,,ストルセン,0
2115,9150001028744,新規,0,2026-02-20,2026-02-20,Ｄｅｓｉｇｎ　Ｅｓｔａｔｅ　Ｐｌａｎｎｉｎｇ株式会社,,株式会社,奈良県,奈良市,富雄元町１丁目６番３－１０３号,,29,201,6310078,,,,,,,2026-02-20,1,,,,,デザインエステイトプランニング,0
2116,9150001028752,新規,0,2026-02-20,2026-02-20,株式会社サンロズ,,株式会社,奈良県,奈良市,三条町４７５松田ビル２階ＹＡＭＡＴＯＢＡＳＥ,,29,201,6308244,,,,,,,2026-02-20,1,,,,,サンロズ,0
2118,9160001027431,新規,0,2026-02-20,2026-02-20,一生電気工事株式会社,,株式会社,滋賀県,高島市,マキノ町沢１８９６番地１３,,25,212,5201821,,,,,,,2026-02-20,1,,,,,イッセイデンキコウジ,0
2123,9180001170758,新規,0,2026-02-20,2026-02-20,株式会社鹿北,,株式会社,愛知県,名古屋市千種区,今池南２１番２号,,23,101,4640851,,,,,,,2026-02-20,1,,,,,カホク,0
2124,9180001170782,新規,0,2026-02-20,2026-02-20,ＳＳＩホールディングス株式会社,,株式会社,愛知県,名古屋市中区,錦３丁目５番３１号,,23,106,4600003,,,,,,,2026-02-20,1,,,,,エスエスアイホールディングス,0
2127,9180301040710,新規,0,2026-02-20,2026-02-20,株式会社ｎｉｃｏａ,,株式会社,愛知県,豊橋市,牟呂外神町８－６,,23,201,4418092,,,,,,,2026-02-20,1,,,,,ニコア,0
2131,9200001044736,新規,0,2026-02-20,2026-02-20,ＵＮＡＧＩ　ＭＯＴＯＲＳＰＯＲＴＳ株式会社,,株式会社,岐阜県,美濃加茂市,加茂野町今泉字往還南１５５０番地４２,,21,211,5050052,,,,,,,2026-02-20,1,,,,,ウナギモータースポーツ,0
2135,9220001027177,新規,0,2026-02-20,2026-02-20,ヒトツリゾート株式会社,,株式会社,石川県,七尾市,能登島須曽町４２部４番地,,17,202,9260213,,,,,,,2026-02-20,1,,,,,ヒトツリゾート,0
2149,9290001113136,新規,0,2026-02-20,2026-02-20,ＪＩＳ　ＮＡＴＩＯＮ株式会社,,株式会社,福岡県,福岡市中央区,渡辺通５丁目１６－１０－１３０７号室,,40,133,8100004,,,,,,,2026-02-20,1,,,,,ジスネーション,0
2150,9290001113185,新規,0,2026-02-20,2026-02-20,株式会社タクウェル,,株式会社,福岡県,糟屋郡須惠町,大字佐谷２９４番地３,,40,344,8112115,,,,,,,2026-02-20,1,,,,,タクウェル,0
2151,9290001113202,新規,0,2026-02-20,2026-02-20,株式会社アッシュ,,株式会社,福岡県,福岡市東区,筥松１丁目７番１２号Ａ１,,40,131,8120061,,,,,,,2026-02-20,1,,,,,アッシュ,0
2152,9290001113227,新規,0,2026-02-20,2026-02-20,ユーコンキャリー株式会社,,株式会社,福岡県,大牟田市,大字歴木１８０７番地１０４２,,40,202,8370924,,,,,,,2026-02-20,1,,,,,ユーコンキャリー,0
2154,9290003018069,新規,0,2026-02-20,2026-02-20,Ｗａｎｇ　Ｇｏａｌ合同会社,,合同会社,福岡県,福岡市博多区,博多駅前３丁目４番２８号アクロスキューブ博多駅前,,40,132,8120011,,,,,,,2026-02-20,1,,,,,,0
2155,9290003018093,新規,0,2026-02-20,2026-02-20,合同会社ＭＦＣエージェンシー,,合同会社,福岡県,糸島市,波多江駅北３丁目１０番２号,,40,230,8191107,,,,,,,2026-02-20,1,,,,,エムエフシーエージェンシー,0
2156,9290003018102,新規,0,2026-02-20,2026-02-20,合同会社ＢＩＺ　ＰＬＡＮＴＥＲ,,合同会社,福岡県,福岡市西区,姪の浜２丁目９－２４－４１１,,40,135,8190002,,,,,,,2026-02-20,1,,,,,ビズプランター,0
2176,9370001053497,新規,0,2026-02-20,2026-02-20,ＧＥＮＢＩ　ｇａｒｄｅｘ株式会社,,株式会社,宮城県,仙台市太白区,四郎丸字渡道６３番地の３６,,04,104,9811101,,,,,,,2026-02-20,1,,,,,ゲンビガーデックス,0
2178,9380001035890,新規,0,2026-02-20,2026-02-20,Ｓ．Ｐ．エンジニアリング株式会社,,株式会社,福島県,双葉郡大熊町,大字下野上字清水２３０番地,,07,545,9791308,,,,,,,2026-02-20,1,,,,,エスピーエンジニアリング,0
2195,9430001096283,新規,0,2026-02-20,2026-02-20,株式会社わらじや,,株式会社,北海道,札幌市西区,宮の沢三条４丁目１９番３２－２０７号,,01,107,0630053,,,,,,,2026-02-20,1,,,,,ワラジヤ,0
2196,9430001096300,新規,0,2026-02-20,2026-02-20,株式会社エレファント,,株式会社,北海道,札幌市南区,石山一条２丁目３番３号,,01,106,0050841,,,,,,,2026-02-20,1,,,,,エレファント,0
