sequenceNumber,corporateNumber,process,correct,updateDate,changeDate,name,nameImageId,kind,prefectureName,cityName,streetNumber,addressImageId,prefectureCode,cityCode,postCode,addressOutside,addressOutsideImageId,closeDate,closeCause,successorCorporateNumber,changeCause,assignmentDate,latest,enName,enPrefectureName,enCityName,enAddressOutside,furigana,hihyoji
4,1010001119985,登記記録の閉鎖等,0,2025-12-02,2025-11-18,山佐ライアンエア４リース株式会社,,株式会社,東京都,千代田区,丸の内１丁目４番１号東京共同会計事務所内,,13,101,1000005,,,2025-11-18,清算の結了等,,,2015-10-05,1,,,,,ヤマサライアンエアヨンリース,0
5,1010001158397,登記記録の閉鎖等,0,2025-12-02,2025-11-18,山佐産業Ｍ１リース株式会社,,株式会社,東京都,千代田区,丸の内１丁目４番１号東京共同会計事務所内,,13,101,1000005,,,2025-11-18,清算の結了等,,,2015-10-05,1,,,,,ヤマササンギョウエムイチリース,0
13,1010002018609,登記記録の閉鎖等,0,2025-12-02,2025-11-18,有限会社川名商店,,有限会社,東京都,中央区,新富２丁目４番５号川名ビル６Ｆ,,13,102,1040041,,,2025-11-18,清算の結了等,,,2015-10-05,1,,,,,カワナショウテン,0
15,1010005028290,登記記録の閉鎖等,0,2025-12-02,2025-11-21,ＡＣ９一般社団法人,,その他の設立登記法人,東京都,板橋区,上板橋１丁目１９番１６号,,13,119,1740076,,,2025-11-21,清算の結了等,,,2018-03-27,1,,,,,エーシーナイン,0
16,1010005029470,登記記録の閉鎖等,0,2025-12-02,2025-11-28,一般社団法人食と健康オープンイノベーション協会,,その他の設立登記法人,東京都,中央区,日本橋小舟町３番２号リブラビル３階,,13,102,1030024,,,2025-11-28,清算の結了等,,,2018-12-13,1,,,,,ショクトケンコウオープンイノベーションキョウカイ,0
20,1010401150177,登記記録の閉鎖等,0,2025-12-02,2025-11-06,Ａａｒｋｉ株式会社,,株式会社,東京都,港区,六本木１丁目４番５号アークヒルズサウスタワー,,13,103,1060032,,,2025-11-06,清算の結了等,,,2020-01-08,1,,,,,アーキ,0
23,1010403020659,登記記録の閉鎖等,0,2025-12-02,2025-11-11,二条マスターレッシー合同会社,,合同会社,東京都,港区,赤坂４丁目１番３１号,,13,103,1070052,,,2025-11-11,清算の結了等,,,2019-05-16,1,,,,,ニジョウマスターレッシー,0
41,1010702000667,登記記録の閉鎖等,0,2025-12-02,2025-11-13,有限会社池田鈑金工業所,,有限会社,東京都,品川区,小山２丁目９番８号,,13,109,1420062,,,2025-11-13,清算の結了等,,,2015-10-05,1,,,,,イケダバンキンコウギョウショ,0
50,1011001024671,登記記録の閉鎖等,0,2025-12-02,2025-11-07,株式会社ワニブックス出版サービス,,株式会社,東京都,渋谷区,恵比寿４丁目４番９号,,13,113,1500013,,,2025-11-07,清算の結了等,,,2015-10-05,1,,,,,ワニブックスシュッパンサービス,0
60,1011101071837,登記記録の閉鎖等,0,2025-12-02,2025-11-25,株式会社ベルガ,,株式会社,東京都,新宿区,西落合４丁目１０番１３号,,13,104,1610031,,,2025-11-25,合併による解散等,4030001045120,令和７年１１月１日埼玉県朝霞市膝折町二丁目１５番１１号株式会社無限（4030001045120）に合併し解散,2015-10-05,1,,,,,ベルガ,0
78,1011803000325,登記記録の閉鎖等,0,2025-12-02,2025-11-26,合名会社大幸,,合名会社,東京都,葛飾区,東金町４丁目１７番８号,,13,122,1250041,,,2025-11-26,清算の結了等,,,2015-10-05,1,,,,,タイコウ,0
79,1012401025805,登記記録の閉鎖等,0,2025-12-02,2025-11-28,株式会社東京クレーンセンター,,株式会社,東京都,府中市,四谷４丁目１５番地の１３,,13,206,1830035,,,2025-11-28,清算の結了等,,,2015-10-05,1,,,,,トウキョウクレーンセンター,0
84,1012701015084,登記記録の閉鎖等,0,2025-12-02,2025-11-27,株式会社ＶＩＥＷ　ＣＲＥＡＴＥ,,株式会社,東京都,板橋区,大山町１２番２号ＤＴ大山町５階,,13,119,1730023,,,2025-11-27,清算の結了等,,,2018-11-20,1,,,,,ビュークリエイト,0
91,1013201017513,登記記録の閉鎖等,0,2025-12-02,2025-11-10,株式会社マックスタンダード,,株式会社,東京都,目黒区,下目黒５丁目４番１号下目黒ハウス１０１,,13,110,1530064,,,2025-11-10,清算の結了等,,,2015-10-05,1,,,,,マックスタンダード,0
101,1020001160146,登記記録の閉鎖等,0,2025-12-02,2025-11-28,東亜海商株式会社,,株式会社,神奈川県,横浜市中区,常盤町３丁目３０番１号ＳＯＬＡＣＵＢＥ横濱関内４－Ｇ,,14,104,2310014,,,2025-11-28,清算の結了等,,,2024-11-14,1,,,,,トウアカイショウ,0
104,1020002077752,登記記録の閉鎖等,0,2025-12-02,2025-11-26,有限会社エレクトロアーツ,,有限会社,神奈川県,横浜市青葉区,千草台１３番地１号スカイマンション２０３号室,,14,117,2270051,,,2025-11-26,清算の結了等,,,2015-10-05,1,,,,,エレクトロアーツ,0
105,1021001024308,登記記録の閉鎖等,0,2025-12-02,2025-11-11,株式会社アネス,,株式会社,神奈川県,厚木市,妻田北１丁目１４番１５－１５３４号,,14,212,2430812,,,2025-11-11,清算の結了等,,,2015-10-05,1,,,,,アネス,0
113,1030001080839,登記記録の閉鎖等,0,2025-12-02,2025-11-26,株式会社中澤総合設備,,株式会社,埼玉県,川口市,戸塚東３丁目２６番７号,,11,203,3330802,,,2025-11-26,清算の結了等,,,2015-10-05,1,,,,,ナカザワソウゴウセツビ,0
121,1040001079558,登記記録の閉鎖等,0,2025-12-02,2025-11-05,株式会社ケイ・ワイ・エス,,株式会社,千葉県,市川市,新浜１丁目２１番１６－３０４（日生行徳マンション）,,12,203,2720136,,,2025-11-05,清算の結了等,,,2015-10-05,1,,,,,ケイワイエス,0
128,1040005019997,登記記録の閉鎖等,0,2025-12-02,2025-11-10,首都圏軽貨物運送事業協同組合,,その他の設立登記法人,千葉県,松戸市,松飛台３９８番地の２,,12,207,2702214,,,2025-11-10,清算の結了等,,,2018-05-30,1,,,,,シュトケンケイカモツウンソウ,0
136,1080001013975,登記記録の閉鎖等,0,2025-12-02,2025-11-26,住吉マリンディーゼル株式会社,,株式会社,静岡県,焼津市,大島１５５１番地の１,,22,212,4250066,,,2025-11-26,清算の結了等,,,2015-10-05,1,,,,,スミヨシマリンディーゼル,0
148,1100003006000,登記記録の閉鎖等,0,2025-12-02,2025-11-27,おきに合同会社,,合同会社,長野県,安曇野市,穂高北穂高２２７８－２８,,20,220,3998302,,,2025-11-27,清算の結了等,,,2021-03-05,1,,,,,オキニ,0
153,1120001075978,登記記録の閉鎖等,0,2025-12-02,2025-11-28,株式会社スペイド,,株式会社,大阪府,大阪市西区,北堀江４丁目１２番１０－１２０５号,,27,106,5500014,,,2025-11-28,清算の結了等,,,2015-10-05,1,,,,,スペイド,0
158,1120001245746,登記記録の閉鎖等,0,2025-12-02,2025-10-28,株式会社ハイテック,,株式会社,大阪府,大阪市城東区,今福西２丁目８番１３号,,27,118,5360004,,,2025-10-28,清算の結了等,,,2022-05-10,1,,,,,ハイテック,0
200,1140002012706,登記記録の閉鎖等,0,2025-12-02,2025-11-28,アスキ有限会社,,有限会社,兵庫県,神戸市中央区,中山手通１丁目１７番１２号,,28,110,6500004,,,2025-11-28,清算の結了等,,,2015-10-05,1,,,,,アスキ,0
209,1180001153803,登記記録の閉鎖等,0,2025-12-02,2025-11-27,デンタルエッセンス株式会社,,株式会社,愛知県,半田市,清城町１丁目３番地の２ルーチェ清城１－２,,23,205,4750917,,,2025-11-27,清算の結了等,,,2022-11-15,1,,,,,デンタルエッセンス,0
214,1180301000424,登記記録の閉鎖等,0,2025-12-02,2025-11-11,オートセンター東静岡株式会社,,株式会社,愛知県,岡崎市,大平町字市木２８番地,,23,202,4440007,,,2025-11-11,合併による解散等,7180301002266,令和７年１１月１日愛知県岡崎市藤川町字境松西１番地株式会社レッドバロン（7180301002266）に合併し解散,2015-10-05,1,,,,,オートセンターヒガシシズオカ,0
215,1180301002338,登記記録の閉鎖等,0,2025-12-02,2025-11-11,レッドバロン神戸東株式会社,,株式会社,愛知県,岡崎市,大平町字市木２８番地,,23,202,4440007,,,2025-11-11,合併による解散等,7180301002266,令和７年１１月１日愛知県岡崎市藤川町字境松西１番地株式会社レッドバロン（7180301002266）に合併し解散,2015-10-05,1,,,,,レッドバロンコウベヒガシ,0
216,1180301002362,登記記録の閉鎖等,0,2025-12-02,2025-11-11,レッドバロン福山株式会社,,株式会社,愛知県,岡崎市,大平町字市木２８番地,,23,202,4440007,,,2025-11-11,合併による解散等,7180301002266,令和７年１１月１日愛知県岡崎市藤川町字境松西１番地株式会社レッドバロン（7180301002266）に合併し解散,2015-10-05,1,,,,,レッドバロンフクヤマ,0
217,1180301002370,登記記録の閉鎖等,0,2025-12-02,2025-11-11,レッドバロン米子株式会社,,株式会社,愛知県,岡崎市,大平町字市木２８番地,,23,202,4440007,,,2025-11-11,合併による解散等,7180301002266,令和７年１１月１日愛知県岡崎市藤川町字境松西１番地株式会社レッドバロン（7180301002266）に合併し解散,2015-10-05,1,,,,,レッドバロンヨナゴ,0
220,1180302000670,登記記録の閉鎖等,0,2025-12-02,2025-11-11,レッドバロン横須賀有限会社,,有限会社,愛知県,岡崎市,大平町字市木２８番地,,23,202,4440007,,,2025-11-11,合併による解散等,7180301002266,令和７年１１月１日愛知県岡崎市藤川町字境松西１番地株式会社レッドバロン（7180301002266）に合併し解散,2015-10-05,1,,,,,レッドバロンヨコスカ,0
221,1180302003260,登記記録の閉鎖等,0,2025-12-02,2025-11-11,レッドバロン滋賀有限会社,,有限会社,愛知県,岡崎市,大平町字市木２８番地,,23,202,4440007,,,2025-11-11,合併による解散等,7180301002266,令和７年１１月１日愛知県岡崎市藤川町字境松西１番地株式会社レッドバロン（7180301002266）に合併し解散,2015-10-05,1,,,,,レッドバロンシガ,0
222,1180302003269,登記記録の閉鎖等,0,2025-12-02,2025-11-11,レッドバロン高井田有限会社,,有限会社,愛知県,岡崎市,大平町字市木２８番地,,23,202,4440007,,,2025-11-11,合併による解散等,7180301002266,令和７年１１月１日愛知県岡崎市藤川町字境松西１番地株式会社レッドバロン（7180301002266）に合併し解散,2015-10-05,1,,,,,レッドバロンタカイダ,0
223,1180302003293,登記記録の閉鎖等,0,2025-12-02,2025-11-11,レッドバロン与野有限会社,,有限会社,愛知県,岡崎市,大平町字市木２８番地,,23,202,4440007,,,2025-11-11,合併による解散等,7180301002266,令和７年１１月１日愛知県岡崎市藤川町字境松西１番地株式会社レッドバロン（7180301002266）に合併し解散,2015-10-05,1,,,,,レッドバロンヨノ,0
227,1200001026007,登記記録の閉鎖等,0,2025-12-02,2025-12-01,株式会社讃建,,株式会社,岐阜県,下呂市,金山町金山３２５５番地の１,,21,220,5091622,,,2025-12-01,合併による解散等,4200002027620,令和７年１２月１日岐阜県下呂市金山町金山３２５５番地１株式会社讃建サンワ開発（4200002027620）に合併し解散,2015-10-05,1,,,,,サンケン,0
230,1230002008067,登記記録の閉鎖等,0,2025-12-02,2025-11-27,有限会社スカイフーズ,,有限会社,富山県,黒部市,新牧野３１１番地,,16,207,9380037,,,2025-11-27,清算の結了等,,,2015-10-05,1,,,,,スカイフーズ,0
234,1240002034351,登記記録の閉鎖等,0,2025-12-02,2025-11-27,有限会社山下精機,,有限会社,広島県,呉市,阿賀南３丁目１１番１７号,,34,202,7370004,,,2025-11-27,清算の結了等,,,2015-10-05,1,,,,,ヤマシタセイキ,0
235,1240002040069,登記記録の閉鎖等,0,2025-12-02,2025-11-28,有限会社鎌倉電設,,有限会社,広島県,福山市,南手城町２丁目１番３０号,,34,207,7210963,,,2025-11-28,清算の結了等,,,2015-10-05,1,,,,,カマクラデンセツ,0
241,1260003002033,登記記録の閉鎖等,0,2025-12-02,2025-11-25,株式会社ＡＳＴ,,株式会社,岡山県,岡山市南区,当新田１２８番地２,,33,104,7000956,,,2025-11-25,清算の結了等,,,2016-06-23,1,,,,,エーエスティ,0
244,1290001009432,登記記録の閉鎖等,0,2025-12-02,2025-11-10,株式会社西日本リサーチ・センター,,株式会社,福岡県,福岡市中央区,今泉１丁目４番１号,,40,133,8100021,,,2025-11-10,清算の結了等,,,2015-10-05,1,,,,,ニシニホンリサーチセンター,0
248,1290001093146,登記記録の閉鎖等,0,2025-12-02,2025-11-10,株式会社Ｔｈｅ　ｃｕｌｔ　ｓｈｏｐ　ｆｕｋｕｏｋａ,,株式会社,福岡県,福岡市中央区,今泉２丁目４番３３号エステートモア今泉２０１,,40,133,8100021,,,2025-11-10,清算の結了等,,,2021-05-14,1,,,,,ザカルトショップフクオカ,0
255,1310002008273,登記記録の閉鎖等,0,2025-12-02,2025-12-01,有限会社広田工業,,有限会社,長崎県,西海市,大瀬戸町雪浦幸物郷１４８番地,,42,212,8572321,,,2025-12-01,清算の結了等,,,2015-10-05,1,,,,,ヒロタコウギョウ,0
273,1410002003644,登記記録の閉鎖等,0,2025-12-02,2025-12-01,有限会社みやぎや仕出＿店,00086586,有限会社,秋田県,秋田市,旭南２丁目２番４０号,,05,201,0100925,,,2025-12-01,清算の結了等,,,2015-10-05,1,,,,,ミヤギヤシダシテン,0
280,1480001004769,登記記録の閉鎖等,0,2025-12-02,2025-12-01,株式会社大和酸素商会,,株式会社,徳島県,阿波市,阿波町早田３７１番地,,36,206,7711702,,,2025-12-01,清算の結了等,,,2015-10-05,1,,,,,ダイワサンソショウカイ,0
289,2010001119984,登記記録の閉鎖等,0,2025-12-02,2025-11-18,山佐ライアンエア３リース株式会社,,株式会社,東京都,千代田区,丸の内１丁目４番１号東京共同会計事務所内,,13,101,1000005,,,2025-11-18,清算の結了等,,,2015-10-05,1,,,,,ヤマサライアンエアサンリース,0
290,2010001120430,登記記録の閉鎖等,0,2025-12-02,2025-11-27,カンジェン製薬株式会社,,株式会社,北海道,札幌市中央区,南二条西５丁目６－１－７ロジェ札幌弐五６０３号,,01,101,0600062,,,2025-11-27,清算の結了等,,,2015-10-05,1,,,,,カンジェンセイヤク,0
292,2010001254377,登記記録の閉鎖等,0,2025-12-02,2025-11-17,株式会社エクセルリスクフロンティア,,株式会社,東京都,千代田区,大手町１丁目６番１号大手町ビル,,13,101,1000004,,,2025-11-17,清算の結了等,,,2025-04-23,1,,,,,エクセルリスクフロンティア,0
304,2010103002345,登記記録の閉鎖等,0,2025-12-02,2025-11-26,合同会社界,,合同会社,東京都,八王子市,千人町２丁目２０－５,,13,201,1930835,,,2025-11-26,清算の結了等,,,2024-05-01,1,,,,,カイ,0
328,2010901031875,登記記録の閉鎖等,0,2025-12-02,2025-11-07,ラフメイカー株式会社,,株式会社,東京都,港区,港南２丁目１６－１品川イーストワンタワー７階,,13,103,1080075,,,2025-11-07,清算の結了等,,,2015-10-05,1,,,,,ラフメイカー,0
362,2011301025286,登記記録の閉鎖等,0,2025-12-02,2025-11-26,パーソナルベスト株式会社,,株式会社,東京都,杉並区,松ノ木３丁目２番１７号,,13,115,1660014,,,2025-11-26,清算の結了等,,,2019-08-15,1,,,,,パーソナルベスト,0
366,2011601004205,登記記録の閉鎖等,0,2025-12-02,2025-11-25,田中商事株式会社,,株式会社,東京都,杉並区,荻窪５丁目１６番５－２０４号,,13,115,1670051,,,2025-11-25,清算の結了等,,,2015-10-05,1,,,,,タナカショウジ,0
367,2011601019962,登記記録の閉鎖等,0,2025-12-02,2025-11-13,株式会社エンジョイアブル,,株式会社,東京都,港区,浜松町２丁目２番１５号,,13,103,1050013,,,2025-11-13,清算の結了等,,,2015-10-05,1,,,,,エンジョイアブル,0
392,2020001014615,登記記録の閉鎖等,0,2025-12-02,2025-11-26,株式会社キミナ・警備,,株式会社,神奈川県,横浜市西区,平沼１丁目６番１３号,,14,103,2200023,,,2025-11-26,清算の結了等,,,2015-10-05,1,,,,,キミナケイビ,0
393,2020001033978,登記記録の閉鎖等,0,2025-12-02,2025-11-28,イーアイエンジニアリング株式会社,,株式会社,神奈川県,横浜市神奈川区,守屋町３丁目１３番地,,14,102,2210022,,,2025-11-28,清算の結了等,,,2015-10-05,1,,,,,イーアイエンジニアリング,0
397,2020002093666,登記記録の閉鎖等,0,2025-12-02,2025-11-26,有限会社ラビアンサンテ,,有限会社,神奈川県,川崎市多摩区,枡形５丁目４番１１号,,14,135,2140032,,,2025-11-26,清算の結了等,,,2015-10-05,1,,,,,ラビアンサンテ,0
421,2040002032374,登記記録の閉鎖等,0,2025-12-02,2025-11-05,市川戸田鶏卵有限会社,,有限会社,千葉県,市川市,鬼高４丁目５番１号,,12,203,2720015,,,2025-11-05,清算の結了等,,,2015-10-05,1,,,,,イチカワトダケイラン,0
425,2060001025708,登記記録の閉鎖等,0,2025-12-02,2025-11-28,株式会社オールラウンド,,株式会社,栃木県,那須塩原市,末広町６４番地１７平山ビルデンス３０２号,,09,213,3250061,,,2025-11-28,清算の結了等,,,2015-10-05,1,,,,,オールラウンド,0
432,2090003002074,登記記録の閉鎖等,0,2025-12-02,2025-11-26,合同会社ケプラー,,合同会社,山梨県,北杜市,小淵沢町上笹尾２５３８－１２９,,19,209,4080041,,,2025-11-26,清算の結了等,,,2022-04-07,1,,,,,ケプラー,0
436,2110002009514,登記記録の閉鎖等,0,2025-12-02,2025-11-28,有限会社オーアイ,,有限会社,新潟県,新潟市秋葉区,荻野町１３番４号,,15,105,9560012,,,2025-11-28,清算の結了等,,,2015-10-05,1,,,,,オーアイ,0
448,2120002026756,登記記録の閉鎖等,0,2025-12-02,2025-11-28,有限会社木川劇場,,有限会社,大阪府,大阪市淀川区,十三東３丁目４番３号,,27,123,5320023,,,2025-11-28,清算の結了等,,,2015-10-05,1,,,,,キカワゲキジョウ,0
450,2120005019641,登記記録の閉鎖等,0,2025-12-02,2025-11-06,公益財団法人アジア人財確保・育成支援協会,,その他の設立登記法人,東京都,港区,芝浦４丁目１９番１－４５２３号,,13,103,1080023,,,2025-11-06,清算の結了等,,,2017-08-04,1,,,,,アジアジンザイカクホイクセイシエンキョウカイ,0
459,2120902006931,登記記録の閉鎖等,0,2025-12-02,2025-11-20,有限会社つかさ興産,,有限会社,大阪府,茨木市,西駅前町６番６０３号,,27,211,5670032,,,2025-11-20,清算の結了等,,,2015-10-05,1,,,,,ツカサコウサン,0
462,2122002004411,登記記録の閉鎖等,0,2025-12-02,2025-11-20,有限会社ポータバック社,,有限会社,大阪府,東大阪市,下小阪２丁目６番１７号,,27,227,5770803,,,2025-11-20,清算の結了等,,,2015-10-05,1,,,,,ポータバックシャ,0
463,2130001010636,登記記録の閉鎖等,0,2025-12-02,2025-11-28,株式会社コミュニティ洛南,,株式会社,京都府,京都市南区,西九条大国町２６番地,,26,107,6018449,,,2025-11-28,清算の結了等,,,2015-10-05,1,,,,,コミュニティラクナン,0
488,2150001010865,登記記録の閉鎖等,0,2025-12-02,2025-11-27,株式会社日立工営,,株式会社,奈良県,橿原市,中曽司町１５０番地の３４,,29,205,6340845,,,2025-11-27,清算の結了等,,,2015-10-05,1,,,,,ヒタチコウエイ,0
490,2180001024986,登記記録の閉鎖等,0,2025-12-02,2025-11-28,大橋モータース株式会社,,株式会社,愛知県,名古屋市西区,栄生３丁目２２番１号,,23,104,4510052,,,2025-11-28,清算の結了等,,,2015-10-05,1,,,,,オオハシモータース,0
498,2180301000407,登記記録の閉鎖等,0,2025-12-02,2025-11-11,オートセンター鹿児島株式会社,,株式会社,愛知県,岡崎市,大平町字市木２８番地,,23,202,4440007,,,2025-11-11,合併による解散等,7180301002266,令和７年１１月１日愛知県岡崎市藤川町字境松西１番地株式会社レッドバロン（7180301002266）に合併し解散,2015-10-05,1,,,,,オートセンターカゴシマ,0
499,2180301002361,登記記録の閉鎖等,0,2025-12-02,2025-11-11,オートセンター東三河株式会社,,株式会社,愛知県,岡崎市,大平町字市木２８番地,,23,202,4440007,,,2025-11-11,合併による解散等,7180301002266,令和７年１１月１日愛知県岡崎市藤川町字境松西１番地株式会社レッドバロン（7180301002266）に合併し解散,2015-10-05,1,,,,,オートセンターヒガシミカワ,0
501,2180302003235,登記記録の閉鎖等,0,2025-12-02,2025-11-11,レッドバロン大阪城東有限会社,,有限会社,愛知県,岡崎市,大平町字市木２８番地,,23,202,4440007,,,2025-11-11,合併による解散等,7180301002266,令和７年１１月１日愛知県岡崎市藤川町字境松西１番地株式会社レッドバロン（7180301002266）に合併し解散,2015-10-05,1,,,,,レッドバロンオオサカジョウトウ,0
502,2180302003251,登記記録の閉鎖等,0,2025-12-02,2025-11-11,レッドバロン甲府有限会社,,有限会社,愛知県,岡崎市,大平町字市木２８番地,,23,202,4440007,,,2025-11-11,合併による解散等,7180301002266,令和７年１１月１日愛知県岡崎市藤川町字境松西１番地株式会社レッドバロン（7180301002266）に合併し解散,2015-10-05,1,,,,,レッドバロンコウフ,0
503,2180302003292,登記記録の閉鎖等,0,2025-12-02,2025-11-11,レッドバロン盛岡有限会社,,有限会社,愛知県,岡崎市,大平町字市木２８番地,,23,202,4440007,,,2025-11-11,合併による解散等,7180301002266,令和７年１１月１日愛知県岡崎市藤川町字境松西１番地株式会社レッドバロン（7180301002266）に合併し解散,2015-10-05,1,,,,,レッドバロンモリオカ,0
511,2240002009377,登記記録の閉鎖等,0,2025-12-02,2025-11-27,有限会社田尾畳店,,有限会社,広島県,広島市佐伯区,楽々園２丁目１番１０号,,34,108,7315136,,,2025-11-27,清算の結了等,,,2015-10-05,1,,,,,タオタタミテン,0
512,2240002050835,登記記録の閉鎖等,0,2025-12-02,2025-11-27,有限会社そごう,,有限会社,広島県,尾道市,栗原東２丁目１８番５２－７０３号,,34,205,7220025,,,2025-11-27,清算の結了等,,,2015-10-05,1,,,,,,0
519,2260001009137,登記記録の閉鎖等,0,2025-12-02,2025-11-27,ネットソリューションズ株式会社,,株式会社,岡山県,岡山市南区,新保１３２０番地４,,33,104,7000945,,,2025-11-27,清算の結了等,,,2015-10-05,1,,,,,ネットソリューションズ,0
536,2290801025611,登記記録の閉鎖等,0,2025-12-02,2025-11-18,株式会社Ｃｒｅｗ　Ｒｅｓｏｕｒｃｅ　Ｍａｎａｇｅｍｅｎｔ,,株式会社,福岡県,北九州市小倉北区,熊本３丁目１４番７号,,40,106,8020044,,,2025-11-18,清算の結了等,,,2019-06-17,1,,,,,クルーリソースマネージメント,0
549,2340005008093,登記記録の閉鎖等,0,2025-12-02,2025-11-27,一般社団法人鹿児島プロスポーツプロジェクト,,その他の設立登記法人,鹿児島県,鹿児島市,山之口町１番１０号鹿児島中央ビルディングＢ１,,46,201,8920844,,,2025-11-27,清算の結了等,,,2015-10-05,1,,,,,カゴシマプロスポーツプロジェクト,0
550,2350001011208,登記記録の閉鎖等,0,2025-12-02,2025-11-28,株式会社ホテル渚,,株式会社,宮崎県,延岡市,新浜町１丁目８９３５番地８９,,45,203,8890512,,,2025-11-28,清算の結了等,,,2015-10-05,1,,,,,ホテルナギサ,0
559,2370001042820,登記記録の閉鎖等,0,2025-12-02,2025-11-25,株式会社Ｖｉｎｏｌｉｏ,,株式会社,宮城県,仙台市青葉区,上杉５丁目８番１８－８０８,,04,101,9800011,,,2025-11-25,清算の結了等,,,2018-03-26,1,,,,,ヴィノリオ,0
573,2430002008830,登記記録の閉鎖等,0,2025-12-02,2025-12-01,有限会社サポック,,有限会社,北海道,札幌市豊平区,月寒東四条９丁目２番１５号,,01,105,0620054,,,2025-12-01,清算の結了等,,,2015-10-05,1,,,,,サポック,0
582,2480002000972,登記記録の閉鎖等,0,2025-12-02,2025-12-01,株式会社銀座,,株式会社,徳島県,徳島市,銀座２８番地,,36,201,7700916,,,2025-12-01,清算の結了等,,,2015-10-05,1,,,,,ギンザ,0
587,3010001119983,登記記録の閉鎖等,0,2025-12-02,2025-11-18,山佐ライアンエア２リース株式会社,,株式会社,東京都,千代田区,丸の内１丁目４番１号東京共同会計事務所内,,13,101,1000005,,,2025-11-18,清算の結了等,,,2015-10-05,1,,,,,ヤマサライアンエアニリース,0
596,3010005040335,登記記録の閉鎖等,0,2025-12-02,2025-11-28,一般社団法人Ｍｉｒａｉ,,その他の設立登記法人,東京都,中央区,銀座１丁目１５番７号ＭＡＣ銀座ビル３階,,13,102,1040061,,,2025-11-28,清算の結了等,,,2025-07-18,1,,,,,ミライ,0
649,3011301023223,登記記録の閉鎖等,0,2025-12-02,2025-11-25,株式会社さかい新聞舗,,株式会社,東京都,杉並区,本天沼１丁目１番１５号,,13,115,1670031,,,2025-11-25,清算の結了等,,,2017-06-05,1,,,,,サカイシンブンホ,0
683,3040001015858,登記記録の閉鎖等,0,2025-12-02,2025-11-28,株式会社フジハウジング,,株式会社,愛知県,名古屋市天白区,八事天道２０３番地ＨＡＲＡＸ八事８０１号,,23,116,4680061,,,2025-11-28,清算の結了等,,,2015-10-05,1,,,,,フジハウジング,0
685,3040001027192,登記記録の閉鎖等,0,2025-12-02,2025-11-11,日本産業市川株式会社,,株式会社,東京都,江戸川区,上篠崎４丁目２８番７号,,13,123,1330054,,,2025-11-11,清算の結了等,,,2015-10-05,1,,,,,ニホンサンギョウ,0
690,3040002038602,登記記録の閉鎖等,0,2025-12-02,2025-11-07,有限会社山田安司建築工房,,有限会社,千葉県,鎌ケ谷市,東初富６丁目８番３３号,,12,224,2730122,,,2025-11-07,清算の結了等,,,2015-10-05,1,,,,,ヤマダヤスジケンチクコウボウ,0
694,3040003025780,登記記録の閉鎖等,0,2025-12-02,2025-10-27,合同会社ＡＧＯ　ＭＡＲＫＥＴＩＮＧ,,合同会社,千葉県,浦安市,入船５丁目２６―１０３,,12,227,2790012,,,2025-10-27,清算の結了等,,,2024-09-10,1,,,,,エージーオーマーケティング,0
705,3080101019367,登記記録の閉鎖等,0,2025-12-02,2025-11-28,ＯＭＧ株式会社,,株式会社,静岡県,沼津市,高沢町１番３－５０３号,,22,203,4100057,,,2025-11-28,合併による解散等,8080103000015,令和７年１１月２８日静岡県沼津市高沢町１番３－５０３号株式会社Ｅキャピタル（8080103000015）に合併し解散,2016-09-20,1,,,,,オーエムジー,0
707,3090001007677,登記記録の閉鎖等,0,2025-12-02,2025-11-27,ナノテクエナジー株式会社,,株式会社,山梨県,甲府市,住吉２丁目３番１５号,,19,201,4000851,,,2025-11-27,清算の結了等,,,2015-10-05,1,,,,,ナノテクエナジー,0
709,3100001016387,登記記録の閉鎖等,0,2025-12-02,2025-11-25,株式会社フジ不動産,,株式会社,長野県,松本市,梓川梓３５６８番地１,,20,202,3901702,,,2025-11-25,清算の結了等,,,2015-10-05,1,,,,,フジフドウサン,0
711,3100001023854,登記記録の閉鎖等,0,2025-12-02,2025-11-19,しらかば農園株式会社,,株式会社,長野県,千曲市,大字上山田１４３１番地,,20,218,3890822,,,2025-11-19,清算の結了等,,,2015-10-05,1,,,,,シラカバノウエン,0
714,3110002028447,登記記録の閉鎖等,0,2025-12-02,2025-11-28,有限会社外山木工,,有限会社,新潟県,長岡市,蓮潟３丁目１２番４号,00071026,15,202,9402023,,,2025-11-28,清算の結了等,,,2015-10-05,1,,,,,トヤマモッコウ,0
723,3120001245587,登記記録の閉鎖等,0,2025-12-02,2025-11-28,Ｌ．Ａ．Ｌ株式会社,,株式会社,大阪府,大阪市東住吉区,駒川５丁目１３番８号,,27,121,5460043,,,2025-11-28,清算の結了等,,,2022-04-28,1,,,,,エルエーエル,0
724,3120001256378,登記記録の閉鎖等,0,2025-12-02,2025-11-25,Ａｐｒｉｌ　Ｄｏｌｌ株式会社,,株式会社,大阪府,大阪市中央区,瓦屋町２丁目１０－１４第３天偉ビル３Ｄ室,,27,128,5420066,,,2025-11-25,清算の結了等,,,2023-07-13,1,,,,,エイプリルドール,0
747,3120901029354,登記記録の閉鎖等,0,2025-12-02,2025-11-21,株式会社植木技研,,株式会社,大阪府,豊中市,待兼山町３１番２５－２０３号,,27,203,5600043,,,2025-11-21,清算の結了等,,,2015-10-05,1,,,,,ウエキギケン,0
771,3140002020822,登記記録の閉鎖等,0,2025-12-02,2025-12-01,有限会社アド・ソフト,,有限会社,兵庫県,神戸市北区,藤原台南町２丁目８番８号,,28,109,6511303,,,2025-12-01,清算の結了等,,,2015-10-05,1,,,,,アドソフト,0
785,3180001088345,登記記録の閉鎖等,0,2025-12-02,2025-11-28,株式会社未来開発,,株式会社,愛知県,江南市,赤童子町御宿６４番地,,23,217,4838223,,,2025-11-28,清算の結了等,,,2015-10-05,1,,,,,ミキカイハツ,0
800,3180002050163,登記記録の閉鎖等,0,2025-12-02,2025-11-28,有限会社マルマン商事,,有限会社,愛知県,名古屋市中村区,中島町２丁目１番地の６アビタシオン名駅１０２号,,23,105,4530022,,,2025-11-28,清算の結了等,,,2015-10-05,1,,,,,マルマンショウジ,0
801,3180002068742,登記記録の閉鎖等,0,2025-12-02,2025-11-26,有限会社大野タイル,,有限会社,愛知県,小牧市,多気北町７８番地,,23,219,4850055,,,2025-11-26,清算の結了等,,,2015-10-05,1,,,,,オオノタイル,0
804,3180301002344,登記記録の閉鎖等,0,2025-12-02,2025-11-11,レッドバロン群馬株式会社,,株式会社,愛知県,岡崎市,大平町字市木２８番地,,23,202,4440007,,,2025-11-11,合併による解散等,7180301002266,令和７年１１月１日愛知県岡崎市藤川町字境松西１番地株式会社レッドバロン（7180301002266）に合併し解散,2015-10-05,1,,,,,レッドバロングンマ,0
805,3180301002369,登記記録の閉鎖等,0,2025-12-02,2025-11-11,レッドバロン四日市株式会社,,株式会社,愛知県,岡崎市,大平町字市木２８番地,,23,202,4440007,,,2025-11-11,合併による解散等,7180301002266,令和７年１１月１日愛知県岡崎市藤川町字境松西１番地株式会社レッドバロン（7180301002266）に合併し解散,2015-10-05,1,,,,,レッドバロンヨッカイチ,0
806,3180302003291,登記記録の閉鎖等,0,2025-12-02,2025-11-11,レッドバロンミュンヘン有限会社,,有限会社,愛知県,岡崎市,大平町字市木２８番地,,23,202,4440007,,,2025-11-11,合併による解散等,7180301002266,令和７年１１月１日愛知県岡崎市藤川町字境松西１番地株式会社レッドバロン（7180301002266）に合併し解散,2015-10-05,1,,,,,レッドバロンミュンヘン,0
818,3270005003761,登記記録の閉鎖等,0,2025-12-02,2025-11-27,医療法人ワイエイオーラルヘルスセンター,,その他の設立登記法人,鳥取県,米子市,両三柳字大沢１５－１０７番地,,31,202,6830853,,,2025-11-27,清算の結了等,,,2015-10-05,1,,,,,ワイエイオーラルヘルスセンター,0
823,3290001091949,登記記録の閉鎖等,0,2025-12-02,2025-11-10,Ｂｅｎｔｅｎ　Ｄｉｓｔｒｉｂｕｔｉｏｎ株式会社,,株式会社,福岡県,春日市,平田台１丁目４７番地５,,40,218,8160812,,,2025-11-10,清算の結了等,,,2021-02-12,1,,,,,ベンテンディストリビューション,0
824,3290001094745,登記記録の閉鎖等,0,2025-12-02,2025-11-13,株式会社ケッチ,,株式会社,福岡県,福岡市中央区,白金２丁目１１－１３,,40,133,8100012,,,2025-11-13,清算の結了等,,,2021-09-29,1,,,,,ケッチ,0
825,3290003002029,登記記録の閉鎖等,0,2025-12-02,2025-11-17,合資会社飯田商会,,合資会社,福岡県,朝倉市,杷木池田５３８番地の２,,40,228,8381511,,,2025-11-17,清算の結了等,,,2015-10-05,1,,,,,,0
827,3290801011668,登記記録の閉鎖等,0,2025-12-02,2025-11-19,テック精密株式会社,,株式会社,福岡県,遠賀郡遠賀町,大字尾崎１６６６番２,,40,384,8114342,,,2025-11-19,清算の結了等,,,2015-10-05,1,,,,,,0
828,3290801019637,登記記録の閉鎖等,0,2025-12-02,2025-11-21,株式会社ルートアローズ,,株式会社,福岡県,北九州市若松区,浜町２丁目１６番１７号,,40,103,8080024,,,2025-11-21,清算の結了等,,,2015-10-05,1,,,,,,0
837,3350003004646,登記記録の閉鎖等,0,2025-12-02,2025-11-28,合同会社ＳＮＪ,,合同会社,宮崎県,日南市,戸高２丁目１２番地９,,45,204,8870031,,,2025-11-28,清算の結了等,,,2024-05-20,1,,,,,エスエヌジェイ,0
843,3370102001996,登記記録の閉鎖等,0,2025-12-02,2025-11-25,有限会社ピー・エス・ジー精工,,有限会社,宮城県,角田市,島田字山中３５番地の５,,04,208,9811503,,,2025-11-25,清算の結了等,,,2015-10-05,1,,,,,ピーエスジーセイコウ,0
854,3430003016501,登記記録の閉鎖等,0,2025-12-02,2025-10-31,ＡｔｅｌｉｅｒＡＴＡＬ合同会社,,合同会社,北海道,札幌市豊平区,平岸三条１２丁目５番２０－１０１号,,01,105,0620933,,,2025-10-31,清算の結了等,,,2024-07-01,1,,,,,アトリエアタル,0
861,3500001025562,登記記録の閉鎖等,0,2025-12-02,2025-12-01,株式会社ギャツビー・インターナショナル,,株式会社,愛媛県,松山市,千舟町８丁目７２番地１,,38,201,7900011,,,2025-12-01,清算の結了等,,,2024-04-04,1,,,,,ギャツビーインターナショナル,0
865,4010001119982,登記記録の閉鎖等,0,2025-12-02,2025-11-18,山佐ライアンエア１リース株式会社,,株式会社,東京都,千代田区,丸の内１丁目４番１号東京共同会計事務所内,,13,101,1000005,,,2025-11-18,清算の結了等,,,2015-10-05,1,,,,,ヤマサライアンエアイチリース,0
869,4010001244368,登記記録の閉鎖等,0,2025-12-02,2025-11-14,株式会社ヒューマンリンク,,株式会社,東京都,中央区,銀座１丁目２２番１１号銀座大竹ビジデンス２階,,13,102,1040061,,,2025-11-14,清算の結了等,,,2024-04-30,1,,,,,ヒューマンリンク,0
885,4010403023634,登記記録の閉鎖等,0,2025-12-02,2025-11-11,リアルブルーソーラー７合同会社,,合同会社,東京都,港区,虎ノ門３丁目２２番１０－２０１号,,13,103,1050001,,,2025-11-11,清算の結了等,,,2020-09-02,1,,,,,リアルブルーソーラーセブン,0
886,4010405014334,登記記録の閉鎖等,0,2025-12-02,2025-11-06,一般社団法人日本フィリピンビジネス機構,,その他の設立登記法人,東京都,港区,海岸１丁目２番２０号汐留ビルディング３階,,13,103,1050022,,,2025-11-06,清算の結了等,,,2015-11-19,1,,,,,ニホンフィリピンビジネスキコウ,0
896,4010902014324,登記記録の閉鎖等,0,2025-12-02,2025-11-27,有限会社松原ビル,,有限会社,東京都,世田谷区,宮坂２丁目１９番５号,,13,112,1560051,,,2025-11-27,清算の結了等,,,2015-10-05,1,,,,,マツバラビル,0
902,4011001155480,登記記録の閉鎖等,0,2025-12-02,2025-11-10,Ｖｉｖｉ　Ｍａｒｔ株式会社,,株式会社,東京都,目黒区,五本木１丁目２７番１３号五本木パレット１０３,,13,110,1530053,,,2025-11-10,清算の結了等,,,2023-07-06,1,,,,,ビビマート,0
917,4011402009161,登記記録の閉鎖等,0,2025-12-02,2025-11-21,有限会社山下工房,,有限会社,東京都,板橋区,南常盤台１丁目１１番６号レフア南常盤台１０１号室,,13,119,1740072,,,2025-11-21,清算の結了等,,,2015-10-05,1,,,,,ヤマシタコウボウ,0
920,4011502009169,登記記録の閉鎖等,0,2025-12-02,2025-11-27,有限会社杉浦工業所,,有限会社,東京都,荒川区,南千住７丁目１８番１２号,,13,118,1160003,,,2025-11-27,清算の結了等,,,2015-10-05,1,,,,,スギウラコウギョウショ,0
924,4012403002618,登記記録の閉鎖等,0,2025-12-02,2025-11-28,合同会社ふるきゃら,,合同会社,東京都,小金井市,貫井北町１丁目１４番５号,,13,210,1840015,,,2025-11-28,清算の結了等,,,2016-01-25,1,,,,,フルキャラ,0
925,4012801021293,登記記録の閉鎖等,0,2025-12-02,2025-11-28,株式会社ＥＮＧＡＷＡ,,株式会社,東京都,立川市,上砂町５丁目７９－１１アネックス立川ビル１階,,13,202,1900032,,,2025-11-28,清算の結了等,,,2021-12-22,1,,,,,エンガワ,0
928,4013301038200,登記記録の閉鎖等,0,2025-12-02,2025-11-10,株式会社エンパワープレミアム,,株式会社,東京都,港区,芝浦４丁目１６番２５号,,13,103,1080023,,,2025-11-10,清算の結了等,,,2016-01-15,1,,,,,エンパワープレミアム,0
939,4020005009163,登記記録の閉鎖等,0,2025-12-02,2025-11-25,特定非営利活動法人野外活動・自然体験・推進事業団,,その他の設立登記法人,神奈川県,横浜市神奈川区,台町９番地１３,,14,102,2210834,,,2025-11-25,清算の結了等,,,2015-10-05,1,,,,,ヤガイカツドウシゼンタイケンスイシンジギョウダン,0
945,4030001056415,登記記録の閉鎖等,0,2025-12-02,2025-11-25,株式会社中島製作所,,株式会社,埼玉県,入間郡三芳町,大字竹間沢字北側６１６番地３,,11,324,3540043,,,2025-11-25,清算の結了等,,,2015-10-05,1,,,,,ナカジマセイサクショ,0
949,4030002068293,登記記録の閉鎖等,0,2025-12-02,2025-11-28,有限会社光正社,,有限会社,東京都,台東区,台東１丁目１４番１４－４０８号,,13,106,1100016,,,2025-11-28,清算の結了等,,,2015-10-05,1,,,,,コウセイシャ,0
953,4040001086964,登記記録の閉鎖等,0,2025-12-02,2025-11-07,株式会社ゼニス,,株式会社,千葉県,松戸市,古ケ崎７１番地コープ鈴木１０５,,12,207,2710068,,,2025-11-07,清算の結了等,,,2015-10-05,1,,,,,ゼニス,0
963,4040002090965,登記記録の閉鎖等,0,2025-12-02,2025-11-05,有限会社浪川運輸,,有限会社,千葉県,柏市,新逆井２丁目１１番５４号,,12,217,2770044,,,2025-11-05,清算の結了等,,,2015-10-05,1,,,,,ナミカワウンユ,0
979,4100002012830,登記記録の閉鎖等,0,2025-12-02,2025-11-26,有限会社渡邊興業,,有限会社,長野県,小諸市,八幡町３丁目９番４号,,20,208,3840016,,,2025-11-26,清算の結了等,,,2015-10-05,1,,,,,ワタナベコウギョウ,0
982,4100005007935,登記記録の閉鎖等,0,2025-12-02,2025-11-21,悟道教会,,その他の設立登記法人,長野県,諏訪郡下諏訪町,４１８５番地８,,20,361,3930000,,,2025-11-21,清算の結了等,,,2015-10-05,1,,,,,ゴドウキョウカイ,0
984,4110001009109,登記記録の閉鎖等,0,2025-12-02,2025-11-27,株式会社トラベリンクス,,株式会社,新潟県,新潟市江南区,亀田水道町２丁目４番１号,,15,104,9500123,,,2025-11-27,清算の結了等,,,2015-10-05,1,,,,,トラベリンクス,0
991,4120001228013,登記記録の閉鎖等,0,2025-12-02,2025-11-28,株式会社メディカルケアエージェントＯｏｋｉｎｉ,,株式会社,大阪府,大阪市西区,西本町１丁目８番２号三晃ビル３００号,,27,106,5500005,,,2025-11-28,清算の結了等,,,2020-03-24,1,,,,,メディカルケアエージェントオオキニ,0
1022,4130001007135,登記記録の閉鎖等,0,2025-12-02,2025-10-31,株式会社ひらまつ商会,,株式会社,京都府,京都市左京区,聖護院蓮華蔵町４６番地コープ鴨川Ｂ棟４０４号,00107707,26,103,6068357,,,2025-10-31,清算の結了等,,,2015-10-05,1,,,,,ヒラマツショウカイ,0
1030,4140001046883,登記記録の閉鎖等,0,2025-12-02,2025-11-27,富士商事株式会社,,株式会社,兵庫県,朝来市,和田山町土田４１８番地の１,,28,225,6695241,,,2025-11-27,清算の結了等,,,2015-10-05,1,,,,,フジショウジ,0
1033,4140002032065,登記記録の閉鎖等,0,2025-12-02,2025-11-28,レディースファッションひまわり有限会社,,有限会社,兵庫県,たつの市,龍野町下川原５３番地の３,,28,229,6794177,,,2025-11-28,清算の結了等,,,2015-10-05,1,,,,,,0
1038,4140005012139,登記記録の閉鎖等,0,2025-12-02,2025-11-28,黒住教豊岡教会所,,その他の設立登記法人,兵庫県,豊岡市,立野１２の４６番地,,28,209,6680000,,,2025-11-28,清算の結了等,,,2015-10-05,1,,,,,クロズミキョウトヨオカキョウカイショ,0
1043,4170001014053,登記記録の閉鎖等,0,2025-12-02,2025-12-01,株式会社ＨＡＲＵＭＡ,,株式会社,和歌山県,海南市,七山３５３番地,,30,202,6400441,,,2025-12-01,清算の結了等,,,2015-11-24,1,,,,,ハルマ,0
1044,4180001037929,登記記録の閉鎖等,0,2025-12-02,2025-11-27,株式会社田宮自動車商会,,株式会社,愛知県,名古屋市中区,千代田３丁目２４番６号,,23,106,4600012,,,2025-11-27,清算の結了等,,,2015-10-05,1,,,,,タミヤジドウシャショウカイ,0
1051,4180301002335,登記記録の閉鎖等,0,2025-12-02,2025-11-11,レッドバロン市ヶ尾株式会社,,株式会社,愛知県,岡崎市,大平町字才勝８番地の１,,23,202,4440007,,,2025-11-11,合併による解散等,7180301002266,令和７年１１月１日愛知県岡崎市藤川町字境松西１番地株式会社レッドバロン（7180301002266）に合併し解散,2015-10-05,1,,,,,レッドバロンイチガオ,0
1052,4180301002351,登記記録の閉鎖等,0,2025-12-02,2025-11-11,レッドバロン新横浜株式会社,,株式会社,愛知県,岡崎市,大平町字市木２８番地,,23,202,4440007,,,2025-11-11,合併による解散等,7180301002266,令和７年１１月１日愛知県岡崎市藤川町字境松西１番地株式会社レッドバロン（7180301002266）に合併し解散,2015-10-05,1,,,,,レッドバロンシンヨコハマ,0
1053,4180301002368,登記記録の閉鎖等,0,2025-12-02,2025-11-11,レッドバロン横浜長者町株式会社,,株式会社,愛知県,岡崎市,大平町字市木２８番地,,23,202,4440007,,,2025-11-11,合併による解散等,7180301002266,令和７年１１月１日愛知県岡崎市藤川町字境松西１番地株式会社レッドバロン（7180301002266）に合併し解散,2015-10-05,1,,,,,レッドバロンヨコハマチョウジャマチ,0
1055,4180302003241,登記記録の閉鎖等,0,2025-12-02,2025-11-11,レッドバロン明石有限会社,,有限会社,愛知県,岡崎市,大平町字市木２８番地,,23,202,4440007,,,2025-11-11,合併による解散等,7180301002266,令和７年１１月１日愛知県岡崎市藤川町字境松西１番地株式会社レッドバロン（7180301002266）に合併し解散,2015-10-05,1,,,,,レッドバロンアカシ,0
1066,4230001007827,登記記録の閉鎖等,0,2025-12-02,2025-11-28,株式会社大昇,,株式会社,富山県,滑川市,大崎野３１７番地,,16,206,9360833,,,2025-11-28,清算の結了等,,,2015-10-05,1,,,,,ダイショウ,0
1075,4270002005181,登記記録の閉鎖等,0,2025-12-02,2025-11-28,有限会社アケボノ住設,,有限会社,鳥取県,米子市,安倍１２２番地４,,31,202,6830846,,,2025-11-28,清算の結了等,,,2015-10-05,1,,,,,アケボノジュウセツ,0
1077,4290001010172,登記記録の閉鎖等,0,2025-12-02,2025-11-14,富士工業株式会社,,株式会社,福岡県,福岡市中央区,笹丘３丁目１６番３１号,,40,133,8100034,,,2025-11-14,清算の結了等,,,2015-10-05,1,,,,,フジコウギョウ,0
1079,4290001014066,登記記録の閉鎖等,0,2025-12-02,2025-11-13,西部特殊機器株式会社,,株式会社,福岡県,春日市,ちくし台４丁目４８,,40,218,8160822,,,2025-11-13,清算の結了等,,,2015-10-05,1,,,,,セイブトクシュキキ,0
1085,4290002042058,登記記録の閉鎖等,0,2025-12-02,2025-11-21,株式会社ネオクラシック,,株式会社,福岡県,春日市,春日公園８丁目１９番地１,,40,218,8160811,,,2025-11-21,清算の結了等,,,2015-10-05,1,,,,,ネオクラシック,0
1097,4370001040095,登記記録の閉鎖等,0,2025-12-02,2025-11-25,Ｋ’ｓ興業株式会社,,株式会社,宮城県,仙台市太白区,西中田４丁目９番３１号コーポインサトーＦ,,04,104,9811105,,,2025-11-25,清算の結了等,,,2016-08-12,1,,,,,ケーズコウギョウ,0
1098,4370001043503,登記記録の閉鎖等,0,2025-12-02,2025-11-25,株式会社本多塗装工業,,株式会社,宮城県,多賀城市,八幡２丁目１２番６９号,,04,209,9850874,,,2025-11-25,清算の結了等,,,2018-09-11,1,,,,,ホンダトソウコウギョウ,0
1106,4420002014019,登記記録の閉鎖等,0,2025-12-02,2025-11-20,有限会社平山工務店,,有限会社,青森県,弘前市,大字取上２丁目１５番地８,,02,202,0368171,,,2025-11-20,清算の結了等,,,2015-10-05,1,,,,,ヒラヤマコウムテン,0
1107,4430001078922,登記記録の閉鎖等,0,2025-12-02,2025-12-01,エイチ・エンジニアリングシステムズ株式会社,,株式会社,北海道,江別市,野幌若葉町３９番地の６,,01,217,0690831,,,2025-12-01,清算の結了等,,,2019-05-09,1,,,,,エイチエンジニアリングシステムズ,0
1136,5010403023352,登記記録の閉鎖等,0,2025-12-02,2025-11-10,合同会社築地ホテル運営,,合同会社,東京都,港区,虎ノ門５丁目１番４号,,13,103,1050001,,,2025-11-10,清算の結了等,,,2020-07-27,1,,,,,ツキジホテルウンエイ,0
1163,5011001149028,登記記録の閉鎖等,0,2025-12-02,2025-11-10,株式会社Ｃｌｅａｆ,,株式会社,東京都,渋谷区,道玄坂１丁目１０番８号渋谷道玄坂東急ビル２Ｆ－Ｃ,,13,113,1500043,,,2025-11-10,清算の結了等,,,2022-08-08,1,,,,,クリーフ,0
1186,5013301039461,登記記録の閉鎖等,0,2025-12-02,2025-11-25,株式会社サクセスグループ,,株式会社,埼玉県,川口市,前川２丁目３４番２０－２０１号,,11,203,3330842,,,2025-11-25,清算の結了等,,,2016-09-28,1,,,,,サクセスグループ,0
1194,5020002017655,登記記録の閉鎖等,0,2025-12-02,2025-11-27,有限会社山城商店,,有限会社,神奈川県,横浜市西区,平沼２丁目４番１４号,,14,103,2200023,,,2025-11-27,清算の結了等,,,2015-10-05,1,,,,,ヤマシロショウテン,0
1199,5030001093093,登記記録の閉鎖等,0,2025-12-02,2025-11-26,株式会社春陽,,株式会社,埼玉県,東松山市,大字毛塚１４７番地,,11,212,3550064,,,2025-11-26,清算の結了等,,,2015-10-05,1,,,,,ハル,0
1215,5080101015059,登記記録の閉鎖等,0,2025-12-02,2025-11-28,株式会社三愛,,株式会社,静岡県,賀茂郡南伊豆町,上賀茂５８３番地の４,,22,304,4150302,,,2025-11-28,清算の結了等,,,2015-10-05,1,,,,,サンアイ,0
1216,5080102021675,登記記録の閉鎖等,0,2025-12-02,2025-11-28,有限会社エーワイクラブ,,有限会社,静岡県,賀茂郡松崎町,伏倉２７６番地,,22,305,4103623,,,2025-11-28,清算の結了等,,,2015-10-05,1,,,,,,0
1219,5090002003112,登記記録の閉鎖等,0,2025-12-02,2025-11-27,有限会社メンテナンス有賀,,有限会社,山梨県,甲府市,徳行１丁目１５番２１号,,19,201,4000047,,,2025-11-27,清算の結了等,,,2015-10-05,1,,,,,メンテナンスアルガ,0
1246,5120002021457,登記記録の閉鎖等,0,2025-12-02,2025-11-25,有限会社オグラ建設,,有限会社,大阪府,大阪市西区,北堀江１丁目１４番１１号,,27,106,5500014,,,2025-11-25,清算の結了等,,,2015-10-05,1,,,,,オグラケンセツ,0
1253,5120901022340,登記記録の閉鎖等,0,2025-12-02,2025-11-18,株式会社咲,,株式会社,大阪府,高槻市,大字原８３６番地,,27,207,5691051,,,2025-11-18,清算の結了等,,,2015-10-05,1,,,,,サキ,0
1256,5122001007024,登記記録の閉鎖等,0,2025-12-02,2025-11-20,株式会社福西衛材,,株式会社,大阪府,東大阪市,長堂３丁目１６番３号,,27,227,5770056,,,2025-11-20,清算の結了等,,,2015-10-05,1,,,,,フクニシエイザイ,0
1276,5180002068278,登記記録の閉鎖等,0,2025-12-02,2025-11-27,すみれ保険有限会社,,有限会社,愛知県,春日井市,東野町３丁目１番地１７,,23,206,4860817,,,2025-11-27,清算の結了等,,,2015-10-05,1,,,,,スミレホケン,0
1278,5180002086866,登記記録の閉鎖等,0,2025-12-02,2025-11-28,有限会社Ｄウッドホーム,,有限会社,愛知県,知多郡武豊町,字祠峯２丁目５５番地,,23,447,4702303,,,2025-11-28,清算の結了等,,,2015-10-05,1,,,,,ディーウッドホーム,0
1281,5180301002350,登記記録の閉鎖等,0,2025-12-02,2025-11-11,レッドバロン札幌株式会社,,株式会社,愛知県,岡崎市,大平町字市木２８番地,,23,202,4440007,,,2025-11-11,合併による解散等,7180301002266,令和７年１１月１日愛知県岡崎市藤川町字境松西１番地株式会社レッドバロン（7180301002266）に合併し解散,2015-10-05,1,,,,,レッドバロンサッポロ,0
1282,5180301002359,登記記録の閉鎖等,0,2025-12-02,2025-11-11,レッドバロン奈良株式会社,,株式会社,愛知県,岡崎市,大平町字市木２８番地,,23,202,4440007,,,2025-11-11,合併による解散等,7180301002266,令和７年１１月１日愛知県岡崎市藤川町字境松西１番地株式会社レッドバロン（7180301002266）に合併し解散,2015-10-05,1,,,,,レッドバロンナラ,0
1283,5180301002680,登記記録の閉鎖等,0,2025-12-02,2025-11-11,レッドバロン徳山株式会社,,株式会社,愛知県,岡崎市,大平町字市木２８番地,,23,202,4440007,,,2025-11-11,合併による解散等,7180301002266,令和７年１１月１日愛知県岡崎市藤川町字境松西１番地株式会社レッドバロン（7180301002266）に合併し解散,2015-10-05,1,,,,,レッドバロントクヤマ,0
1284,5180302003240,登記記録の閉鎖等,0,2025-12-02,2025-11-11,レッドバロン赤池有限会社,,有限会社,愛知県,岡崎市,大平町字市木２８番地,,23,202,4440007,,,2025-11-11,合併による解散等,7180301002266,令和７年１１月１日愛知県岡崎市藤川町字境松西１番地株式会社レッドバロン（7180301002266）に合併し解散,2015-10-05,1,,,,,レッドバロンアカイケ,0
1285,5180302003249,登記記録の閉鎖等,0,2025-12-02,2025-11-11,レッドバロン小山有限会社,,有限会社,愛知県,岡崎市,大平町字市木２８番地,,23,202,4440007,,,2025-11-11,合併による解散等,7180301002266,令和７年１１月１日愛知県岡崎市藤川町字境松西１番地株式会社レッドバロン（7180301002266）に合併し解散,2015-10-05,1,,,,,レッドバロンオヤマ,0
1286,5180302003265,登記記録の閉鎖等,0,2025-12-02,2025-11-11,レッドバロン泉北有限会社,,有限会社,愛知県,岡崎市,大平町字市木２８番地,,23,202,4440007,,,2025-11-11,合併による解散等,7180301002266,令和７年１１月１日愛知県岡崎市藤川町字境松西１番地株式会社レッドバロン（7180301002266）に合併し解散,2015-10-05,1,,,,,レッドバロンセンボク,0
1287,5180302003694,登記記録の閉鎖等,0,2025-12-02,2025-11-11,レッドバロン枚方有限会社,,有限会社,愛知県,岡崎市,大平町字市木２８番地,,23,202,4440007,,,2025-11-11,合併による解散等,7180301002266,令和７年１１月１日愛知県岡崎市藤川町字境松西１番地株式会社レッドバロン（7180301002266）に合併し解散,2015-10-05,1,,,,,レッドバロンヒラカタ,0
1289,5200003001680,登記記録の閉鎖等,0,2025-12-02,2025-11-27,合資会社寺田油脂化学工業所,,合資会社,岐阜県,大垣市,美和町１７２１番地の１,,21,202,5030857,,,2025-11-27,清算の結了等,,,2015-10-05,1,,,,,テラダユシカガクコウギョウショ,0
1294,5240001041519,登記記録の閉鎖等,0,2025-12-02,2025-11-28,株式会社桑野建材,,株式会社,広島県,広島市南区,青崎２丁目１９番１－２１５号,,34,103,7340053,,,2025-11-28,清算の結了等,,,2015-10-05,1,,,,,クワノケンザイ,0
1305,5290001041076,登記記録の閉鎖等,0,2025-12-02,2025-11-20,株式会社ハマ・テック,,株式会社,福岡県,大野城市,御笠川６丁目５番１２号,,40,219,8160912,,,2025-11-20,清算の結了等,,,2015-10-05,1,,,,,ハマテック,0
1307,5290001069844,登記記録の閉鎖等,0,2025-12-02,2025-11-19,株式会社テイクリアルエステート,,株式会社,福岡県,福岡市早良区,高取１丁目２８番３３号伊佐ビル３０３号,,40,137,8140011,,,2025-11-19,清算の結了等,,,2015-10-05,1,,,,,テイクリアルエステート,0
1308,5290001084991,登記記録の閉鎖等,0,2025-12-02,2025-11-19,株式会社ＤＡＲＡ,,株式会社,福岡県,福岡市南区,大楠２丁目１６番１７号１階,,40,134,8150082,,,2025-11-19,清算の結了等,,,2019-04-24,1,,,,,ダラ,0
1310,5290001104130,登記記録の閉鎖等,0,2025-12-02,2025-11-19,株式会社ＡＭＵ,,株式会社,福岡県,福岡市城南区,片江５丁目４番３８号,,40,136,8140142,,,2025-11-19,清算の結了等,,,2023-12-22,1,,,,,アム,0
1312,5290005018780,登記記録の閉鎖等,0,2025-12-02,2025-11-04,一般社団法人ラボアシスタンツ,,その他の設立登記法人,福岡県,福岡市西区,横浜１丁目４７号Ａ－３号,,40,135,8190166,,,2025-11-04,清算の結了等,,,2022-08-19,1,,,,,ラボアシスタンツ,0
1317,5300001008321,登記記録の閉鎖等,0,2025-12-02,2025-11-28,株式会社テノックス九州佐賀,,株式会社,佐賀県,佐賀市,駅前中央１丁目４番８号,,41,201,8400801,,,2025-11-28,合併による解散等,6290001008909,令和７年１１月１日福岡市中央区天神四丁目１番１１号株式会社テノックス九州（6290001008909）に合併し解散,2015-10-05,1,,,,,テノックスキュウシュウサガ,0
1323,5330001026114,登記記録の閉鎖等,0,2025-12-02,2025-11-07,願い株式会社,,株式会社,東京都,渋谷区,渋谷２丁目１１番１２号パーク・ノヴァ渋谷７０３,,13,113,1500002,,,2025-11-07,清算の結了等,,,2019-02-22,1,,,,,ネガイ,0
1327,5350001000018,登記記録の閉鎖等,0,2025-12-02,2025-11-19,アースファイリング株式会社,,株式会社,宮崎県,宮崎市,出来島町２９番７号,,45,201,8800861,,,2025-11-19,清算の結了等,,,2015-10-05,1,,,,,アースファイリング,0
1329,5350003004165,登記記録の閉鎖等,0,2025-12-02,2025-11-27,Ｓｈｏ５ｌａｎｄ合同会社,,合同会社,宮崎県,宮崎市,橘通西３丁目２番１３号ダイヤモンドビル３０１号,,45,201,8800001,,,2025-11-27,清算の結了等,,,2022-09-09,1,,,,,ショウゴランド,0
1334,5370001011979,登記記録の閉鎖等,0,2025-12-02,2025-11-25,株式会社ニチワ,,株式会社,宮城県,仙台市太白区,茂庭字人来田西３番地１,,04,104,9820251,,,2025-11-25,清算の結了等,,,2015-10-05,1,,,,,ニチワ,0
1341,5430002065101,登記記録の閉鎖等,0,2025-12-02,2025-11-26,有限会社ライスディーラー,,有限会社,北海道,室蘭市,築地町無番地,,01,205,0510031,,,2025-11-26,清算の結了等,,,2015-10-05,1,,,,,ライスディーラー,0
1346,5460102002109,登記記録の閉鎖等,0,2025-12-02,2025-11-21,有限会社通伸,,有限会社,北海道,河東郡音更町,宝来西町南１丁目５番地１４,,01,631,0800134,,,2025-11-21,清算の結了等,,,2015-10-05,1,,,,,ツウシン,0
1351,6010001050657,登記記録の閉鎖等,0,2025-12-02,2025-11-18,太平洋海運株式会社,,株式会社,東京都,千代田区,有楽町１丁目７番１号,,13,101,1000006,,,2025-11-18,清算の結了等,,,2015-10-05,1,,,,,タイヘイヨウカイウン,0
1364,6010003030624,登記記録の閉鎖等,0,2025-12-02,2025-11-07,ＤＳ　Ｔｏｒａｎｏｍｏｎ合同会社,,合同会社,東京都,港区,虎ノ門５丁目１番４号,,13,103,1050001,,,2025-11-07,清算の結了等,,,2019-09-19,1,,,,,ディーエストラノモン,0
1365,6010003031201,登記記録の閉鎖等,0,2025-12-02,2025-11-18,合同会社八丁堀商店,,合同会社,東京都,中央区,銀座７丁目１３番６号サガミビル２階,,13,102,1040061,,,2025-11-18,清算の結了等,,,2019-12-05,1,,,,,ハッチョウボリショウテン,0
1377,6010403027641,登記記録の閉鎖等,0,2025-12-02,2025-11-07,合同会社ツインシティリーシングワン,,合同会社,東京都,港区,虎ノ門２丁目６番１号虎ノ門ヒルズステーションタワー,,13,103,1050001,,,2025-11-07,清算の結了等,,,2022-05-09,1,,,,,ツインシティリーシングワン,0
1378,6010405019133,登記記録の閉鎖等,0,2025-12-02,2025-11-07,特定目的会社大阪レジデンシャル,,その他の設立登記法人,東京都,港区,元赤坂１丁目１番７－１００６号,,13,103,1070051,,,2025-11-07,清算の結了等,,,2020-09-30,1,,,,,オオサカレジデンシャル,0
1380,6010502021900,登記記録の閉鎖等,0,2025-12-02,2025-11-28,有限会社Ｊｅｗｅｌｒｙ　Ｋｕｎｊ,,有限会社,東京都,台東区,東上野２丁目２０番１１号,,13,106,1100015,,,2025-11-28,清算の結了等,,,2015-10-05,1,,,,,,0
1392,6010901013985,登記記録の閉鎖等,0,2025-12-02,2025-11-28,株式会社丸喜,,株式会社,東京都,世田谷区,桜上水２丁目６番２３号,,13,112,1560045,,,2025-11-28,清算の結了等,,,2015-10-05,1,,,,,マルキ,0
1416,6011102019707,登記記録の閉鎖等,0,2025-12-02,2025-11-05,有限会社タローアート,,有限会社,東京都,新宿区,早稲田鶴巻町５７５番地１－７０５,,13,104,1620041,,,2025-11-05,清算の結了等,,,2015-10-05,1,,,,,タローアート,0
1427,6011601017624,登記記録の閉鎖等,0,2025-12-02,2025-11-27,株式会社ＪＹプランニング,,株式会社,東京都,練馬区,練馬３丁目２番５号,,13,120,1760001,,,2025-11-27,清算の結了等,,,2015-10-05,1,,,,,ジェイワイプランニング,0
1430,6011801004109,登記記録の閉鎖等,0,2025-12-02,2025-11-28,株式会社平山軽金属工業,,株式会社,東京都,葛飾区,堀切１丁目４番１７号,,13,122,1240006,,,2025-11-28,清算の結了等,,,2015-10-05,1,,,,,ヒラヤマケイキンゾクコウギョウ,0
1433,6013301004522,登記記録の閉鎖等,0,2025-12-02,2025-11-21,坂本建設株式会社,,株式会社,東京都,豊島区,南大塚３丁目１７番２－１４０１号,,13,116,1700005,,,2025-11-21,清算の結了等,,,2015-10-05,1,,,,,サカモトケンセツ,0
1434,6013301034395,登記記録の閉鎖等,0,2025-12-02,2025-11-26,株式会社ビー・エイチ・エル,,株式会社,東京都,板橋区,赤塚４丁目８番２号,,13,119,1750092,,,2025-11-26,清算の結了等,,,2015-10-05,1,,,,,ビーエイチエル,0
1444,6030001034856,登記記録の閉鎖等,0,2025-12-02,2025-11-25,株式会社共栄鉄工所,,株式会社,埼玉県,草加市,花栗４丁目１６番９号,,11,221,3400044,,,2025-11-25,清算の結了等,,,2015-10-05,1,,,,,キョウエイテッコウジョ,0
1452,6030002095096,登記記録の閉鎖等,0,2025-12-02,2025-11-25,愛彩不動産有限会社,,有限会社,埼玉県,坂戸市,千代田３丁目１４番１３－１号,,11,239,3500214,,,2025-11-25,清算の結了等,,,2015-10-05,1,,,,,アイサイフドウサン,0
1461,6040002003454,登記記録の閉鎖等,0,2025-12-02,2025-11-06,有限会社清春工事店,,有限会社,千葉県,千葉市緑区,平山町８９番地,,12,105,2660002,,,2025-11-06,清算の結了等,,,2015-10-05,1,,,,,キヨハルコウジテン,0
1466,6060001005945,登記記録の閉鎖等,0,2025-12-02,2025-11-27,株式会社エイケーケー,,株式会社,栃木県,さくら市,氏家２４３７番地,,09,214,3291311,,,2025-11-27,合併による解散等,2060001005916,令和７年１１月２７日栃木県さくら市卯の里一丁目１２番９号荒牧空調工業株式会社（2060001005916）に合併し解散,2015-10-05,1,,,,,エイケーケー,0
1477,6100001018125,登記記録の閉鎖等,0,2025-12-02,2025-11-27,株式会社ＮＳＳ,,株式会社,長野県,下高井郡山ノ内町,大字平穏４１０６番地４９－８２８,,20,561,3810401,,,2025-11-27,清算の結了等,,,2015-10-05,1,,,,,エヌエスエス,0
1478,6100002029229,登記記録の閉鎖等,0,2025-12-02,2025-11-26,有限会社サークル,,有限会社,長野県,諏訪郡下諏訪町,４８２３番地１０,,20,361,3930000,,,2025-11-26,合併による解散等,4011101056331,令和７年１１月１日東京都渋谷区代々木二丁目１番５号株式会社アイン中央（4011101056331）に合併し解散,2015-10-05,1,,,,,サークル,0
1481,6110001035747,登記記録の閉鎖等,0,2025-12-02,2025-11-25,株式会社シリウス,,株式会社,埼玉県,越谷市,蒲生寿町１番３号シャリテａｇ５０３,,11,222,3430836,,,2025-11-25,清算の結了等,,,2021-05-11,1,,,,,シリウス,0
1488,6120001193511,登記記録の閉鎖等,0,2025-12-02,2025-11-28,小林製薬グローバルイーコマース株式会社,,株式会社,大阪府,大阪市中央区,道修町４丁目４番１０号,,27,128,5410045,,,2025-11-28,清算の結了等,,,2015-10-05,1,,,,,コバヤシセイヤクグローバルイーコマース,0
1490,6120001268511,登記記録の閉鎖等,0,2025-12-02,2025-11-26,ＩＫＴ智能株式会社,,株式会社,大阪府,大阪市中央区,森ノ宮中央２丁目１１－６シュライン森ノ宮２０７室,,27,128,5400003,,,2025-11-26,清算の結了等,,,2024-09-11,1,,,,,アイケーティーチノウ,0
1514,6122001031840,登記記録の閉鎖等,0,2025-12-02,2025-12-01,株式会社え波戸製作所,,株式会社,大阪府,八尾市,上之島町北６丁目３番地の４,,27,212,5810845,,,2025-12-01,清算の結了等,,,2018-08-06,1,,,,,エバトセイサクショ,0
1521,6140001050628,登記記録の閉鎖等,0,2025-12-02,2025-11-27,ネクスト株式会社,,株式会社,兵庫県,尼崎市,元浜町２丁目４８番地,,28,202,6600085,,,2025-11-27,清算の結了等,,,2015-10-05,1,,,,,ネクスト,0
1538,6180001145597,登記記録の閉鎖等,0,2025-12-02,2025-11-28,株式会社ＳＯＴＥＬＡ,,株式会社,愛知県,稲沢市,国府宮４丁目９番１５－３０２号,,23,220,4928137,,,2025-11-28,清算の結了等,,,2021-04-07,1,,,,,ソテラ,0
1547,6180301002333,登記記録の閉鎖等,0,2025-12-02,2025-11-11,レッドバロン大垣株式会社,,株式会社,愛知県,岡崎市,大平町字市木２８番地,,23,202,4440007,,,2025-11-11,合併による解散等,7180301002266,令和７年１１月１日愛知県岡崎市藤川町字境松西１番地株式会社レッドバロン（7180301002266）に合併し解散,2015-10-05,1,,,,,レッドバロンオオガキ,0
1548,6180301002341,登記記録の閉鎖等,0,2025-12-02,2025-11-11,レッドバロン小倉南株式会社,,株式会社,愛知県,岡崎市,大平町字市木２８番地,,23,202,4440007,,,2025-11-11,合併による解散等,7180301002266,令和７年１１月１日愛知県岡崎市藤川町字境松西１番地株式会社レッドバロン（7180301002266）に合併し解散,2015-10-05,1,,,,,レッドバロンコクラミナミ,0
1549,6180301002358,登記記録の閉鎖等,0,2025-12-02,2025-11-11,レッドバロン中川株式会社,,株式会社,愛知県,岡崎市,大平町字市木２８番地,,23,202,4440007,,,2025-11-11,合併による解散等,7180301002266,令和７年１１月１日愛知県岡崎市藤川町字境松西１番地株式会社レッドバロン（7180301002266）に合併し解散,2015-10-05,1,,,,,レッドバロンナカガワ,0
1550,6180301002366,登記記録の閉鎖等,0,2025-12-02,2025-11-11,レッドバロン守山株式会社,,株式会社,愛知県,岡崎市,大平町字市木２８番地,,23,202,4440007,,,2025-11-11,合併による解散等,7180301002266,令和７年１１月１日愛知県岡崎市藤川町字境松西１番地株式会社レッドバロン（7180301002266）に合併し解散,2015-10-05,1,,,,,レッドバロンモリヤマ,0
1552,6180302003256,登記記録の閉鎖等,0,2025-12-02,2025-11-11,レッドバロン可児店有限会社,,有限会社,愛知県,岡崎市,大平町字市木２８番地,,23,202,4440007,,,2025-11-11,合併による解散等,7180301002266,令和７年１１月１日愛知県岡崎市藤川町字境松西１番地株式会社レッドバロン（7180301002266）に合併し解散,2015-10-05,1,,,,,レッドバロンカニテン,0
1553,6180302003289,登記記録の閉鎖等,0,2025-12-02,2025-11-11,レッドバロン松戸有限会社,,有限会社,愛知県,岡崎市,大平町字市木２８番地,,23,202,4440007,,,2025-11-11,合併による解散等,7180301002266,令和７年１１月１日愛知県岡崎市藤川町字境松西１番地株式会社レッドバロン（7180301002266）に合併し解散,2015-10-05,1,,,,,レッドバロンマツド,0
1558,6210001017256,登記記録の閉鎖等,0,2025-12-02,2025-11-27,ＵＫテクノ製作株式会社,,株式会社,福井県,福井市,大願寺１丁目３番２５号,,18,201,9100001,,,2025-11-27,清算の結了等,,,2018-08-17,1,,,,,ユウケイテクノセイサク,0
1564,6240002015132,登記記録の閉鎖等,0,2025-12-02,2025-11-27,有限会社ポーラスター,,有限会社,広島県,広島市西区,井口５丁目２７番１－４０８号,,34,104,7330842,,,2025-11-27,清算の結了等,,,2015-10-05,1,,,,,,0
1567,6280001004883,登記記録の閉鎖等,0,2025-12-02,2025-11-28,ダイワボウスピンテック株式会社,,株式会社,島根県,松江市,宍道町佐々布７５番地２,,32,201,6990406,,,2025-11-28,清算の結了等,,,2015-10-05,1,,,,,ダイワボウスピンテック,0
1587,6350002000362,登記記録の閉鎖等,0,2025-12-02,2025-11-28,有限会社イシカワ巧芸,,有限会社,宮崎県,宮崎市,橘通東３丁目３番１号,,45,201,8800805,,,2025-11-28,清算の結了等,,,2015-10-05,1,,,,,イシカワコウゲイ,0
1595,6370001050324,登記記録の閉鎖等,0,2025-12-02,2025-11-25,株式会社Ａｒｄｏｒｅ,,株式会社,宮城県,柴田郡柴田町,大字船岡字並松２０番地２１,,04,323,9891606,,,2025-11-25,清算の結了等,,,2023-08-22,1,,,,,アルドーレ,0
1598,6370002018130,登記記録の閉鎖等,0,2025-12-02,2025-11-25,有限会社ベストプロデュース,,有限会社,宮城県,仙台市青葉区,川平５丁目４番地の３０,,04,101,9810954,,,2025-11-25,清算の結了等,,,2015-10-05,1,,,,,ベストプロデュース,0
1599,6380001006250,登記記録の閉鎖等,0,2025-12-02,2025-11-25,浜尾輸送株式会社,,株式会社,福島県,郡山市,安積荒井本町１９番地,,07,203,9630116,,,2025-11-25,清算の結了等,,,2015-10-05,1,,,,,,0
1606,6430001076073,登記記録の閉鎖等,0,2025-12-02,2025-12-01,森の灯り株式会社,,株式会社,北海道,札幌市厚別区,青葉町２丁目９－１０,,01,108,0040021,,,2025-12-01,清算の結了等,,,2018-03-09,1,,,,,モリノアカリ,0
1607,6430001076750,登記記録の閉鎖等,0,2025-12-02,2025-12-01,株式会社Ｍ－Ｐｌａｎｎｉｎｇ,,株式会社,北海道,札幌市白石区,北郷一条１丁目１番７－１０１号,,01,104,0030831,,,2025-12-01,清算の結了等,,,2018-06-08,1,,,,,エムプランニング,0
1615,6500002019288,登記記録の閉鎖等,0,2025-12-02,2025-12-01,有限会社安野産業,,有限会社,愛媛県,今治市,中寺字中河原１０１５番地４,,38,202,7940840,,,2025-12-01,清算の結了等,,,2015-10-05,1,,,,,,0
1618,7010001162864,登記記録の閉鎖等,0,2025-12-02,2025-11-18,山佐産業ＭＵ４リース株式会社,,株式会社,東京都,千代田区,丸の内１丁目４番１号東京共同会計事務所内,,13,101,1000005,,,2025-11-18,清算の結了等,,,2015-10-05,1,,,,,ヤマササンギョウエムユーヨンリース,0
1635,7010401025984,登記記録の閉鎖等,0,2025-12-02,2025-11-07,株式会社藤川,,株式会社,東京都,港区,新橋３丁目６番４号,,13,103,1050004,,,2025-11-07,清算の結了等,,,2015-10-05,1,,,,,フジカワ,0
1638,7010401149965,登記記録の閉鎖等,0,2025-12-02,2025-11-06,株式会社リプレニティ,,株式会社,東京都,港区,北青山１丁目３－１,,13,103,1070061,,,2025-11-06,清算の結了等,,,2019-12-19,1,,,,,リプレニティ,0
1648,7010501053729,登記記録の閉鎖等,0,2025-12-02,2025-11-18,共創未来株式会社,,株式会社,東京都,中央区,京橋３丁目１２番１号,,13,102,1040031,,,2025-11-18,清算の結了等,,,2025-02-27,1,,,,,キョウソウミライ,0
1659,7010802008679,登記記録の閉鎖等,0,2025-12-02,2025-11-20,有限会社武川製作所,,有限会社,東京都,大田区,南六郷３丁目２０番１９号,,13,111,1440045,,,2025-11-20,清算の結了等,,,2015-10-05,1,,,,,ムカワセイサクジョ,0
1661,7010901036374,登記記録の閉鎖等,0,2025-12-02,2025-11-17,セドナセレクション株式会社,,株式会社,東京都,世田谷区,弦巻２丁目６番６号,,13,112,1540016,,,2025-11-17,清算の結了等,,,2015-10-05,1,,,,,セドナセレクション,0
1665,7011001165196,登記記録の閉鎖等,0,2025-12-02,2025-11-04,株式会社ＦＩＴ　ｔｈｅ　Ｌｏｃａｌ,,株式会社,東京都,渋谷区,道玄坂１丁目１０番８号渋谷道玄坂東急ビル２Ｆ－Ｃ,,13,113,1500043,,,2025-11-04,清算の結了等,,,2024-10-16,1,,,,,フィットザローカル,0
1681,7011101104054,登記記録の閉鎖等,0,2025-12-02,2025-10-29,ＣＬＰ　Ｐａｒｔｎｅｒｓ株式会社,,株式会社,東京都,新宿区,西新宿７丁目４番７号イマス浜田ビル３Ｆ,,13,104,1600023,,,2025-10-29,清算の結了等,,,2023-08-21,1,,,,,シーエルピーパートナーズ,0
1689,7011403001610,登記記録の閉鎖等,0,2025-12-02,2025-11-27,合同会社小林総業,,合同会社,東京都,板橋区,徳丸２丁目２７番２号ル・マノワールアカサカ１Ｆ,,13,119,1750083,,,2025-11-27,清算の結了等,,,2015-10-05,1,,,,,コバヤシソウギョウ,0
1695,7011703002382,登記記録の閉鎖等,0,2025-12-02,2025-11-25,合同会社Ｆａｉｔｈ,,合同会社,東京都,江戸川区,南小岩４丁目１７番１５号,,13,123,1330056,,,2025-11-25,清算の結了等,,,2019-10-08,1,,,,,フェイス,0
1711,7013303005939,登記記録の閉鎖等,0,2025-12-02,2025-11-05,合同会社Ｒｕｂｙ,,合同会社,東京都,新宿区,西新宿３丁目３番１３号西新宿水間ビル２Ｆ,,13,104,1600023,,,2025-11-05,清算の結了等,,,2021-12-06,1,,,,,ルビー,0
1715,7020001028560,登記記録の閉鎖等,0,2025-12-02,2025-11-26,株式会社フェア・ホームズ,,株式会社,神奈川県,横浜市中区,桜木町３丁目８番地,,14,104,2310062,,,2025-11-26,清算の結了等,,,2015-10-05,1,,,,,フェアホームズ,0
1719,7020001094058,登記記録の閉鎖等,0,2025-12-02,2025-11-17,株式会社フィッシャーマン,,株式会社,東京都,中央区,日本橋茅場町３丁目３番９号,,13,102,1030025,,,2025-11-17,清算の結了等,,,2015-10-05,1,,,,,フィッシャーマン,0
1723,7020002102637,登記記録の閉鎖等,0,2025-12-02,2025-11-06,有限会社ラ・プティット・フランス,,有限会社,東京都,目黒区,目黒本町６丁目１０番１２号コンフォルト１０１,,13,110,1520002,,,2025-11-06,清算の結了等,,,2015-10-05,1,,,,,ラプティットフランス,0
1741,7040002053787,登記記録の閉鎖等,0,2025-12-02,2025-11-06,有限会社都市文化社,,有限会社,千葉県,松戸市,五香５丁目３９番地４,,12,207,2702213,,,2025-11-06,清算の結了等,,,2015-10-05,1,,,,,トシブンカシャ,0
1744,7070002013565,登記記録の閉鎖等,0,2025-12-02,2025-11-27,有限会社三友ブレース,,有限会社,群馬県,高崎市,箕郷町下芝１５８番地２,,10,202,3703103,,,2025-11-27,清算の結了等,,,2015-10-05,1,,,,,サンユウブレース,0
1748,7100001019452,登記記録の閉鎖等,0,2025-12-02,2025-11-27,株式会社金上,,株式会社,長野県,岡谷市,本町２丁目５番８号,,20,204,3940028,,,2025-11-27,清算の結了等,,,2015-10-05,1,,,,,キンジョウ,0
1755,7110002027057,登記記録の閉鎖等,0,2025-12-02,2025-11-28,有限会社大崎建材,00070998,有限会社,新潟県,長岡市,高町４丁目８５８番地４０１,,15,202,9400824,,,2025-11-28,清算の結了等,,,2015-10-05,1,,,,,オオサキケンザイ,0
1792,7130001045297,登記記録の閉鎖等,0,2025-12-02,2025-11-28,株式会社サンユウ,,株式会社,京都府,長岡京市,神足２丁目１０番１６号,,26,209,6170833,,,2025-11-28,清算の結了等,,,2015-10-05,1,,,,,サンユウ,0
1804,7140002019159,登記記録の閉鎖等,0,2025-12-02,2025-11-28,有限会社ジーテック,,有限会社,兵庫県,神戸市長田区,西丸山町２丁目７番２０号,,28,106,6530874,,,2025-11-28,清算の結了等,,,2015-10-05,1,,,,,ジーテック,0
1809,7150005008389,登記記録の閉鎖等,0,2025-12-02,2025-11-13,特定非営利活動法人奈良県ＨＡＣＣＰ研究会,,その他の設立登記法人,奈良県,磯城郡田原本町,大字宮古３９５番地１,,29,363,6360302,,,2025-11-13,清算の結了等,,,2015-10-05,1,,,,,ナラケンハサップケンキュウカイ,0
1811,7160001016147,登記記録の閉鎖等,0,2025-12-02,2025-11-27,株式会社ＮＧＳインターナショナル,,株式会社,滋賀県,守山市,播磨田町２８０番地の１３９,,25,207,5240012,,,2025-11-27,清算の結了等,,,2015-10-05,1,,,,,エヌジーエスインターナショナル,0
1818,7180001129500,登記記録の閉鎖等,0,2025-12-02,2025-11-26,株式会社ＬＡＮＤＩＮＧ,,株式会社,愛知県,一宮市,西五城字杁先南５１番地５,,23,203,4940005,,,2025-11-26,清算の結了等,,,2017-09-27,1,,,,,ランディング,0
1825,7180301002357,登記記録の閉鎖等,0,2025-12-02,2025-11-11,レッドバロン富山株式会社,,株式会社,愛知県,岡崎市,大平町字市木２８番地,,23,202,4440007,,,2025-11-11,合併による解散等,7180301002266,令和７年１１月１日愛知県岡崎市藤川町字境松西１番地株式会社レッドバロン（7180301002266）に合併し解散,2015-10-05,1,,,,,レッドバロントヤマ,0
1826,7180301002365,登記記録の閉鎖等,0,2025-12-02,2025-11-11,レッドバロン松本株式会社,,株式会社,愛知県,岡崎市,大平町字市木２８番地,,23,202,4440007,,,2025-11-11,合併による解散等,7180301002266,令和７年１１月１日愛知県岡崎市藤川町字境松西１番地株式会社レッドバロン（7180301002266）に合併し解散,2015-10-05,1,,,,,レッドバロンマツモト,0
1827,7180302003247,登記記録の閉鎖等,0,2025-12-02,2025-11-11,レッドバロン江戸川有限会社,,有限会社,愛知県,岡崎市,大平町字市木２８番地,,23,202,4440007,,,2025-11-11,合併による解散等,7180301002266,令和７年１１月１日愛知県岡崎市藤川町字境松西１番地株式会社レッドバロン（7180301002266）に合併し解散,2015-10-05,1,,,,,レッドバロンエドガワ,0
1828,7180302003263,登記記録の閉鎖等,0,2025-12-02,2025-11-11,レッドバロン鈴鹿有限会社,,有限会社,愛知県,岡崎市,大平町字市木２８番地,,23,202,4440007,,,2025-11-11,合併による解散等,7180301002266,令和７年１１月１日愛知県岡崎市藤川町字境松西１番地株式会社レッドバロン（7180301002266）に合併し解散,2015-10-05,1,,,,,レッドバロンスズカ,0
1830,7190002022884,登記記録の閉鎖等,0,2025-12-02,2025-11-28,有限会社北海フーズ,,有限会社,三重県,四日市市,天カ須賀２丁目１４番１４号,,24,202,5108001,,,2025-11-28,清算の結了等,,,2015-10-05,1,,,,,ホッカイフーズ,0
1833,7200001030267,登記記録の閉鎖等,0,2025-12-02,2025-11-27,株式会社ウィルプラス,,株式会社,愛知県,一宮市,千秋町佐野字郷前２５番地,,23,203,4910804,,,2025-11-27,清算の結了等,,,2015-10-05,1,,,,,ウィルプラス,0
1843,7250002015171,登記記録の閉鎖等,0,2025-12-02,2025-12-01,有限会社周南Ｆｏｏｄ・Ｃｏｒｅ,,有限会社,山口県,周南市,糀町２丁目４５番地,,35,215,7450027,,,2025-12-01,清算の結了等,,,2015-10-05,1,,,,,シュウナンフードコア,0
1847,7270001007977,登記記録の閉鎖等,0,2025-12-02,2025-12-01,株式会社ＡＮＮＡＭＩ,,株式会社,鳥取県,米子市,西福原１丁目１番５５号,,31,202,6830805,,,2025-12-01,清算の結了等,,,2020-04-10,1,,,,,アンナミ,0
1849,7280005002718,登記記録の閉鎖等,0,2025-12-02,2025-11-28,医療法人三原耳鼻咽喉科医院,,その他の設立登記法人,島根県,出雲市,今市町９３９番地５,,32,203,6930001,,,2025-11-28,清算の結了等,,,2015-10-05,1,,,,,ミハラジビインコウカイイン,0
1852,7290001073134,登記記録の閉鎖等,0,2025-12-02,2025-11-18,株式会社ＲＭＪ,,株式会社,福岡県,福岡市博多区,千代２丁目２２－８一豊ビル２０２,,40,132,8120044,,,2025-11-18,清算の結了等,,,2016-03-09,1,,,,,アールエムジェイ,0
1858,7290002041734,登記記録の閉鎖等,0,2025-12-02,2025-10-31,有限会社飯田産業,,有限会社,福岡県,筑紫野市,俗明院１丁目２番１０号,,40,217,8180067,,,2025-10-31,清算の結了等,,,2015-10-05,1,,,,,イイダサンギョウ,0
1873,7370002013477,登記記録の閉鎖等,0,2025-12-02,2025-11-14,有限会社北斗商事,,有限会社,東京都,中央区,銀座３丁目１１番１８号,,13,102,1040061,,,2025-11-14,清算の結了等,,,2015-10-05,1,,,,,ホクトショウジ,0
1875,7370602000734,登記記録の閉鎖等,0,2025-12-02,2025-11-21,有限会社坂出マリン,,有限会社,宮城県,塩竈市,新浜町１丁目６番２５号,,04,203,9850001,,,2025-11-21,清算の結了等,,,2015-10-05,1,,,,,サカイデマリン,0
1880,7420001011484,登記記録の閉鎖等,0,2025-12-02,2025-11-26,博高造林株式会社,,株式会社,青森県,三沢市,大字三沢字猫又１２２番地,,02,207,0330022,,,2025-11-26,清算の結了等,,,2015-10-05,1,,,,,ハッコウゾウリン,0
1886,7450001011936,登記記録の閉鎖等,0,2025-12-02,2025-11-28,旭川都市開発株式会社,,株式会社,北海道,旭川市,五条通１４丁目１６４９番,,01,204,0700035,,,2025-11-28,清算の結了等,,,2017-01-23,1,,,,,アサヒカワトシカイハツ,0
1887,7470002017609,登記記録の閉鎖等,0,2025-12-02,2025-11-28,有限会社大川家具センター,,有限会社,香川県,さぬき市,昭和３３７１番地２,,37,206,7692304,,,2025-11-28,清算の結了等,,,2015-10-05,1,,,,,オオカワカグセンター,0
1890,7500005008097,登記記録の閉鎖等,0,2025-12-02,2025-11-27,一般社団法人伝統文化を継ぐ大手町学園,,その他の設立登記法人,愛媛県,松山市,大手町１丁目８番地２１,,38,201,7900067,,,2025-11-27,清算の結了等,,,2019-08-09,1,,,,,デントウブンカヲツグオオテマチガクエン,0
1893,8010001119987,登記記録の閉鎖等,0,2025-12-02,2025-11-18,山佐ライアンエア６リース株式会社,,株式会社,東京都,千代田区,丸の内１丁目４番１号東京共同会計事務所内,,13,101,1000005,,,2025-11-18,清算の結了等,,,2015-10-05,1,,,,,ヤマサライアンエアロクリース,0
1894,8010001162863,登記記録の閉鎖等,0,2025-12-02,2025-11-18,山佐産業ＭＵ３リース株式会社,,株式会社,東京都,千代田区,丸の内１丁目４番１号東京共同会計事務所内,,13,101,1000005,,,2025-11-18,清算の結了等,,,2015-10-05,1,,,,,ヤマササンギョウエムユーサンリース,0
1896,8010001205457,登記記録の閉鎖等,0,2025-12-02,2025-11-14,株式会社Ｇｒｅｅｎ　Ｃｏｎｓｕｌｔ,,株式会社,東京都,千代田区,岩本町２丁目７番１２号ビルックスＮｏ３，２Ｆ,,13,101,1010032,,,2025-11-14,清算の結了等,,,2019-11-21,1,,,,,グリーンコンサルト,0
1906,8010403022442,登記記録の閉鎖等,0,2025-12-02,2025-11-18,合同会社石筍舎,,合同会社,東京都,台東区,池之端３丁目３番９－２０５号,,13,106,1100008,,,2025-11-18,清算の結了等,,,2020-03-03,1,,,,,セキジュンシャ,0
1916,8010603006419,登記記録の閉鎖等,0,2025-12-02,2025-11-27,合同会社Ｓ＆Ｅフロンティア,,合同会社,東京都,江東区,豊洲３丁目５番３号,,13,108,1350061,,,2025-11-27,清算の結了等,,,2016-09-06,1,,,,,,0
1923,8010901036043,登記記録の閉鎖等,0,2025-12-02,2025-11-11,株式会社Ｑｕｅｔｚａｌ　Ｂｅａｕｔｙ,,株式会社,東京都,港区,南青山２丁目２番１５号ＷｉｎＡｏｙａｍａビルＵＣＦ６Ｆ,,13,103,1070062,,,2025-11-11,清算の結了等,,,2015-10-05,1,,,,,ケツァールビューティー,0
1924,8010901051125,登記記録の閉鎖等,0,2025-12-02,2025-11-28,アテナ株式会社,,株式会社,東京都,世田谷区,玉川田園調布１丁目１４番１５号,,13,112,1580085,,,2025-11-28,清算の結了等,,,2022-06-28,1,,,,,アテナ,0
1945,8011501003251,登記記録の閉鎖等,0,2025-12-02,2025-11-17,東邦工業株式会社,,株式会社,東京都,北区,志茂３丁目８番５号,,13,117,1150042,,,2025-11-17,清算の結了等,,,2015-10-05,1,,,,,トウホウコウギョウ,0
1950,8011505002588,登記記録の閉鎖等,0,2025-12-02,2025-11-25,一般社団法人Ｕｎｉｈｏｐｅ,,その他の設立登記法人,東京都,北区,赤羽１丁目７番９号赤羽第一葉山ビル４階,,13,117,1150045,,,2025-11-25,清算の結了等,,,2023-11-14,1,,,,,ユニホープ,0
1952,8011602010634,登記記録の閉鎖等,0,2025-12-02,2025-11-27,有限会社洋品マツヤ,,有限会社,東京都,練馬区,北町１丁目３２番１号,,13,120,1790081,,,2025-11-27,清算の結了等,,,2015-10-05,1,,,,,ヨウヒンマツヤ,0
1965,8013301045184,登記記録の閉鎖等,0,2025-12-02,2025-11-18,ＤｙＴｅｃｈ株式会社,,株式会社,大阪府,大阪市西区,北堀江１丁目２１番１２号米澤ビル北堀江ＩＩ２０１号,00136622,27,106,5500014,,,2025-11-18,合併による解散等,7120001250170,令和７年１１月１日大阪市西区北堀江一丁目２１番１２号米澤北堀江ビルＩＩ２０１号室ＤｙＴｅｃｈ株式会社（7120001250170）に合併し解散,2020-02-06,1,,,,,ディーワイテック,0
1967,8020001093827,登記記録の閉鎖等,0,2025-12-02,2025-11-12,株式会社コヤマ,,株式会社,神奈川県,横須賀市,汐入町２丁目４３番地,,14,201,2380042,,,2025-11-12,清算の結了等,,,2015-10-05,1,,,,,コヤマ,0
1977,8030001071872,登記記録の閉鎖等,0,2025-12-02,2025-11-19,株式会社アイリーホーム,,株式会社,埼玉県,東松山市,大字上野本３７８番地,,11,212,3550073,,,2025-11-19,清算の結了等,,,2015-10-05,1,,,,,アイリーホーム,0
1986,8040001014789,登記記録の閉鎖等,0,2025-12-02,2025-11-07,三井シティーハウジング株式会社,,株式会社,千葉県,習志野市,袖ケ浦５丁目７番１２号,,12,216,2750021,,,2025-11-07,清算の結了等,,,2015-10-05,1,,,,,ミツイシティーハウジング,0
1987,8040001059347,登記記録の閉鎖等,0,2025-12-02,2025-11-07,株式会社東総楽苑,,株式会社,千葉県,茂原市,法目２１４１番地１,,12,210,2994113,,,2025-11-07,清算の結了等,,,2015-10-05,1,,,,,トウソウラクエン,0
1994,8060001011982,登記記録の閉鎖等,0,2025-12-02,2025-11-28,国土測量事業株式会社,,株式会社,栃木県,那須塩原市,東三島４丁目５４番地１２,,09,213,3292751,,,2025-11-28,清算の結了等,,,2015-10-05,1,,,,,コクドソクリョウジギョウ,0
2000,8080005006622,登記記録の閉鎖等,0,2025-12-02,2025-11-20,焼津佃煮協同組合,,その他の設立登記法人,静岡県,焼津市,駅北２丁目４番３号,,22,212,4250028,,,2025-11-20,清算の結了等,,,2015-10-05,1,,,,,ヤイヅツクダニ,0
2016,8120001212104,登記記録の閉鎖等,0,2025-12-02,2025-11-27,なみ株式会社,,株式会社,大阪府,大阪市中央区,心斎橋筋２丁目３番１３号地下１階,,27,128,5420085,,,2025-11-27,清算の結了等,,,2018-03-26,1,,,,,ナミ,0
2017,8120001242035,登記記録の閉鎖等,0,2025-12-02,2025-11-25,株式会社エムテック,,株式会社,大阪府,大阪市西淀川区,千舟２丁目１４番１６号,,27,113,5550013,,,2025-11-25,清算の結了等,,,2021-11-22,1,,,,,エムテック,0
2025,8120101029092,登記記録の閉鎖等,0,2025-12-02,2025-12-01,株式会社陽だまり,,株式会社,大阪府,堺市堺区,竜神橋町１丁３－１４,,27,141,5900972,,,2025-12-01,清算の結了等,,,2015-10-05,1,,,,,ヒダマリ,0
2034,8140001003971,登記記録の閉鎖等,0,2025-12-02,2025-11-28,富士酒販株式会社,,株式会社,兵庫県,神戸市東灘区,御影山手２丁目１１番３２－４０３号,,28,101,6580065,,,2025-11-28,清算の結了等,,,2015-10-05,1,,,,,フジシュハン,0
2037,8140001067034,登記記録の閉鎖等,0,2025-12-02,2025-11-21,アブルーム株式会社,,株式会社,兵庫県,三田市,狭間が丘５丁目５番地１棟７１２号,,28,219,6691545,,,2025-11-21,清算の結了等,,,2015-10-05,1,,,,,アブルーム,0
2041,8140003012120,登記記録の閉鎖等,0,2025-12-02,2025-11-28,合同会社ＫＳ,,合同会社,兵庫県,神戸市垂水区,瑞穂通８番２９号,,28,108,6550022,,,2025-11-28,清算の結了等,,,2017-05-15,1,,,,,ケイエス,0
2063,8180301002348,登記記録の閉鎖等,0,2025-12-02,2025-11-11,レッドバロン佐世保株式会社,,株式会社,愛知県,岡崎市,大平町字市木２８番地,,23,202,4440007,,,2025-11-11,合併による解散等,7180301002266,令和７年１１月１日愛知県岡崎市藤川町字境松西１番地株式会社レッドバロン（7180301002266）に合併し解散,2015-10-05,1,,,,,レッドバロンサセボ,0
2064,8180301002364,登記記録の閉鎖等,0,2025-12-02,2025-11-11,レッドバロン兵庫東株式会社,,株式会社,愛知県,岡崎市,大平町字市木２８番地,,23,202,4440007,,,2025-11-11,合併による解散等,7180301002266,令和７年１１月１日愛知県岡崎市藤川町字境松西１番地株式会社レッドバロン（7180301002266）に合併し解散,2015-10-05,1,,,,,レッドバロンヒョウゴヒガシ,0
2066,8180302003246,登記記録の閉鎖等,0,2025-12-02,2025-11-11,レッドバロン安城有限会社,,有限会社,愛知県,岡崎市,大平町字市木２８番地,,23,202,4440007,,,2025-11-11,合併による解散等,7180301002266,令和７年１１月１日愛知県岡崎市藤川町字境松西１番地株式会社レッドバロン（7180301002266）に合併し解散,2015-10-05,1,,,,,レッドバロンアンジョウ,0
2067,8180302003270,登記記録の閉鎖等,0,2025-12-02,2025-11-11,レッドバロン高山有限会社,,有限会社,愛知県,岡崎市,大平町字市木２８番地,,23,202,4440007,,,2025-11-11,合併による解散等,7180301002266,令和７年１１月１日愛知県岡崎市藤川町字境松西１番地株式会社レッドバロン（7180301002266）に合併し解散,2015-10-05,1,,,,,レッドバロンタカヤマ,0
2068,8180302003295,登記記録の閉鎖等,0,2025-12-02,2025-11-11,レッドバロン流通店有限会社,,有限会社,愛知県,岡崎市,大平町字市木２８番地,,23,202,4440007,,,2025-11-11,合併による解散等,7180301002266,令和７年１１月１日愛知県岡崎市藤川町字境松西１番地株式会社レッドバロン（7180301002266）に合併し解散,2015-10-05,1,,,,,レッドバロンリュウツウテン,0
2069,8190001012084,登記記録の閉鎖等,0,2025-12-02,2025-11-28,株式会社大平精機製作所,,株式会社,三重県,桑名市,大字北別所字段振１７５０番地の２,,24,205,5110819,,,2025-11-28,清算の結了等,,,2015-10-05,1,,,,,オオヒラセイキセイサクショ,0
2075,8200002006158,登記記録の閉鎖等,0,2025-12-02,2025-11-28,有限会社渡辺新聞店,,有限会社,岐阜県,岐阜市,芥見南山１丁目５番１４号,,21,201,5013133,,,2025-11-28,清算の結了等,,,2015-10-05,1,,,,,ワタナベシンブンテン,0
2085,8230002002617,登記記録の閉鎖等,0,2025-12-02,2025-11-28,有限会社西川製作所,,有限会社,富山県,富山市,打出９６１番地,,16,201,9302237,,,2025-11-28,清算の結了等,,,2015-10-05,1,,,,,ニシカワセイサクショ,0
2096,8290001018336,登記記録の閉鎖等,0,2025-12-02,2025-11-13,株式会社エム・エス・ピー,,株式会社,福岡県,福岡市博多区,博多駅南４丁目２番１０号,,40,132,8120016,,,2025-11-13,清算の結了等,,,2015-10-05,1,,,,,エムエスピー,0
2097,8290001026982,登記記録の閉鎖等,0,2025-12-02,2025-11-17,株式会社やすこうち,,株式会社,福岡県,福岡市東区,和白東２丁目１６番１５号,,40,131,8110214,,,2025-11-17,清算の結了等,,,2015-10-05,1,,,,,ヤスコウチ,0
2107,8300005006401,登記記録の閉鎖等,0,2025-12-02,2025-11-26,特定非営利活動法人ＭＡＴＳＲＡ,,その他の設立登記法人,佐賀県,唐津市,海岸通７１８２番地２３３,,41,202,8470873,,,2025-11-26,清算の結了等,,,2015-10-05,1,,,,,マツラ,0
2108,8310002016807,登記記録の閉鎖等,0,2025-12-02,2025-11-28,有限会社原口鉄工所,,有限会社,長崎県,雲仙市,国見町神代戊９０番地,,42,213,8591305,,,2025-11-28,清算の結了等,,,2015-10-05,1,,,,,ハラグチテッコウショ,0
2112,8330001016467,登記記録の閉鎖等,0,2025-12-02,2025-11-21,株式会社キヨデン,,株式会社,熊本県,熊本市北区,植木町後古閑９番地,,43,105,8610156,,,2025-11-21,清算の結了等,,,2015-10-05,1,,,,,キヨデン,0
2119,8370602000345,登記記録の閉鎖等,0,2025-12-02,2025-11-21,有限会社大友林業製材所,,有限会社,宮城県,宮城郡利府町,澤乙字欠下南２番地の４,,04,406,9810100,,,2025-11-21,清算の結了等,,,2015-10-05,1,,,,,オオトモリンギョウセイザイショ,0
2124,8430001078506,登記記録の閉鎖等,0,2025-12-02,2025-12-01,株式会社ベンチャープランニング,,株式会社,北海道,札幌市白石区,東札幌五条３丁目１番３７－３０２号,,01,104,0030005,,,2025-12-01,清算の結了等,,,2019-03-12,1,,,,,ベンチャープランニング,0
2125,8430001085519,登記記録の閉鎖等,0,2025-12-02,2025-11-20,環宙株式会社,,株式会社,北海道,虻田郡倶知安町,字琴平４１２－１,,01,400,0440066,,,2025-11-20,清算の結了等,,,2021-12-06,1,,,,,カンチュウ,0
2133,8450002004459,登記記録の閉鎖等,0,2025-12-02,2025-11-27,有限会社福井商事,,有限会社,北海道,旭川市,五条通９丁目１４１０番地１スケア５０９　８０２号室,,01,204,0700035,,,2025-11-27,清算の結了等,,,2015-10-05,1,,,,,フクイショウジ,0
2149,9010001119986,登記記録の閉鎖等,0,2025-12-02,2025-11-18,山佐ライアンエア５リース株式会社,,株式会社,東京都,千代田区,丸の内１丁目４番１号東京共同会計事務所内,,13,101,1000005,,,2025-11-18,清算の結了等,,,2015-10-05,1,,,,,ヤマサライアンエアゴリース,0
2151,9010001158398,登記記録の閉鎖等,0,2025-12-02,2025-11-18,山佐産業Ｍ２リース株式会社,,株式会社,東京都,千代田区,丸の内１丁目４番１号東京共同会計事務所内,,13,101,1000005,,,2025-11-18,清算の結了等,,,2015-10-05,1,,,,,ヤマササンギョウエムニリース,0
2161,9010005003410,登記記録の閉鎖等,0,2025-12-02,2025-11-28,公益財団法人民事紛争処理研究基金,,その他の設立登記法人,東京都,文京区,本郷６丁目２番１０号モンテベルデ東大前５０１号,,13,105,1130033,,,2025-11-28,清算の結了等,,,2015-10-05,1,,,,,ミンジフンソウショリケンキュウキキン,0
2171,9010501039775,登記記録の閉鎖等,0,2025-12-02,2025-11-26,ＴＤフロンティア株式会社,,株式会社,東京都,台東区,入谷１丁目３番３号,,13,106,1100013,,,2025-11-26,清算の結了等,,,2016-07-12,1,,,,,ティディフロンティア,0
2179,9010602025773,登記記録の閉鎖等,0,2025-12-02,2025-11-27,有限会社フラット,,有限会社,東京都,墨田区,両国４丁目３２番１６号両国プラザ８０１,,13,107,1300026,,,2025-11-27,清算の結了等,,,2015-10-05,1,,,,,,0
2180,9010602028727,登記記録の閉鎖等,0,2025-12-02,2025-11-26,有限会社光美,,有限会社,東京都,江東区,亀戸６丁目５９番１２号,,13,108,1360071,,,2025-11-26,清算の結了等,,,2015-10-05,1,,,,,コウビ,0
2184,9010701044344,登記記録の閉鎖等,0,2025-12-02,2025-11-18,株式会社ＳＡＭＵＲＡＩマーケティング,,株式会社,東京都,千代田区,一番町１３－５－６０１,,13,101,1020082,,,2025-11-18,清算の結了等,,,2023-06-02,1,,,,,サムライマーケティング,0
2189,9011001137251,登記記録の閉鎖等,0,2025-12-02,2025-11-18,株式会社Ｌａｕｌｅａ　ＩＳＭ,,株式会社,東京都,千代田区,神田小川町３丁目８番地１０メアリヒト御茶ノ水ビル４階,,13,101,1010052,,,2025-11-18,清算の結了等,,,2020-12-02,1,,,,,ラウレアイズム,0
2193,9011002022221,登記記録の閉鎖等,0,2025-12-02,2025-11-04,有限会社アドプレス,,有限会社,東京都,渋谷区,西原２丁目１番２号,,13,113,1510066,,,2025-11-04,合併による解散等,6011001032364,令和７年１１月１日東京都渋谷区西原二丁目１番２号株式会社アドポイント（6011001032364）に合併し解散,2015-10-05,1,,,,,アドプレス,0
2194,9011002026651,登記記録の閉鎖等,0,2025-12-02,2025-11-06,有限会社コンノ,,有限会社,東京都,渋谷区,本町２丁目２８番１号,,13,113,1510071,,,2025-11-06,清算の結了等,,,2015-10-05,1,,,,,コンノ,0
2205,9011102013830,登記記録の閉鎖等,0,2025-12-02,2025-11-04,有限会社和賀ビル,,有限会社,東京都,新宿区,住吉町８番１８号,,13,104,1620065,,,2025-11-04,清算の結了等,,,2015-10-05,1,,,,,ワガビル,0
2208,9011203003367,登記記録の閉鎖等,0,2025-12-02,2025-11-10,Ａｄｖａｎｃｅｄ　Ｍｅｄｉｃａｌ　Ｔｅｃｈｎｏｌｏｇｙ合同会社,,合同会社,東京都,港区,赤坂８丁目４番１４号青山タワープレイス８Ｆ,,13,103,1070052,,,2025-11-10,清算の結了等,,,2020-08-17,1,,,,,アドバンスドメディカルテクノロジー,0
2214,9011501024206,登記記録の閉鎖等,0,2025-12-02,2025-11-27,レッドサンファームズジャパン株式会社,,株式会社,東京都,荒川区,荒川３丁目６４番３号,,13,118,1160002,,,2025-11-27,清算の結了等,,,2018-11-07,1,,,,,レッドサンファームズジャパン,0
2220,9011801042675,登記記録の閉鎖等,0,2025-12-02,2025-11-26,株式会社エスシートラベル,,株式会社,東京都,足立区,入谷７丁目１番３号,,13,121,1210836,,,2025-11-26,清算の結了等,,,2023-07-07,1,,,,,エスシートラベル,0
2228,9012701008205,登記記録の閉鎖等,0,2025-12-02,2025-11-10,株式会社Ｆ＆Ｍ,,株式会社,東京都,東村山市,栄町２丁目３１番地２２,,13,213,1890013,,,2025-11-10,清算の結了等,,,2015-10-05,1,,,,,エフアンドエム,0
2249,9030001151905,登記記録の閉鎖等,0,2025-12-02,2025-11-25,株式会社ｄｕ　ｊｏｕｒ,,株式会社,埼玉県,戸田市,大字新曽８２番３号ラ・カ－サ・グランディオーソ１階,,11,224,3350021,,,2025-11-25,合併による解散等,1030001129891,令和７年１０月３１日埼玉県戸田市大字新曽８２番３号ラ・カ－サ・グランディオーソ１階株式会社インテリジェンスドローン（1030001129891）に合併し解散,2023-01-16,1,,,,,ドゥジュール,0
2262,9040003007369,登記記録の閉鎖等,0,2025-12-02,2025-11-12,合同会社ｂｌｕ,,合同会社,千葉県,佐倉市,山崎１６６番地１－３０４号,,12,212,2850011,,,2025-11-12,清算の結了等,,,2015-10-05,1,,,,,ブル,0
2269,9060001026336,登記記録の閉鎖等,0,2025-12-02,2025-11-27,株式会社そうび,,株式会社,栃木県,小山市,城北５丁目３番地３５,,09,208,3230029,,,2025-11-27,清算の結了等,,,2015-10-05,1,,,,,ソウビ,0
2275,9090002003240,登記記録の閉鎖等,0,2025-12-02,2025-11-27,有限会社ヤヒロ,,有限会社,山梨県,甲府市,里吉４丁目６番５号,,19,201,4000822,,,2025-11-27,清算の結了等,,,2015-10-05,1,,,,,ヤヒロ,0
2299,9120002072744,登記記録の閉鎖等,0,2025-12-02,2025-11-28,有限会社トウマ空調設備工業,,有限会社,大阪府,寝屋川市,高宮栄町２９番１３号,,27,215,5720846,,,2025-11-28,清算の結了等,,,2015-10-05,1,,,,,トウマクウチョウセツビコウギョウ,0
2311,9122001022325,登記記録の閉鎖等,0,2025-12-02,2025-11-21,株式会社フードスタジアム中村屋,,株式会社,大阪府,八尾市,東山本町８丁目５番１７号,,27,212,5810847,,,2025-11-21,清算の結了等,,,2015-10-05,1,,,,,フードスタジアムナカムラヤ,0
2319,9140001102797,登記記録の閉鎖等,0,2025-12-02,2025-11-25,株式会社ＡＣＲＯ,,株式会社,兵庫県,神戸市中央区,琴ノ緒町５丁目５番２６号サンハイツ三宮４０２号,,28,110,6510094,,,2025-11-25,清算の結了等,,,2016-07-25,1,,,,,アクロ,0
2323,9140002040807,登記記録の閉鎖等,0,2025-12-02,2025-11-26,有限会社浩陽,,有限会社,兵庫県,尼崎市,武庫元町２丁目１３番７号,,28,202,6610043,,,2025-11-26,清算の結了等,,,2015-10-05,1,,,,,コウヨウ,0
2338,9180002074719,登記記録の閉鎖等,0,2025-12-02,2025-11-26,有限会社濱化成,,有限会社,愛知県,丹羽郡大口町,外坪５丁目７１番地,,23,361,4800125,,,2025-11-26,清算の結了等,,,2015-10-05,1,,,,,ハマカセイ,0
2340,9180301000409,登記記録の閉鎖等,0,2025-12-02,2025-11-11,オートセンター京都南株式会社,,株式会社,愛知県,岡崎市,大平町字市木２８番地,,23,202,4440007,,,2025-11-11,合併による解散等,7180301002266,令和７年１１月１日愛知県岡崎市藤川町字境松西１番地株式会社レッドバロン（7180301002266）に合併し解散,2015-10-05,1,,,,,オートセンターキョウトミナミ,0
2341,9180301002339,登記記録の閉鎖等,0,2025-12-02,2025-11-11,レッドバロン郡山株式会社,,株式会社,愛知県,岡崎市,大平町字市木２８番地,,23,202,4440007,,,2025-11-11,合併による解散等,7180301002266,令和７年１１月１日愛知県岡崎市藤川町字境松西１番地株式会社レッドバロン（7180301002266）に合併し解散,2015-10-05,1,,,,,レッドバロンコオリヤマ,0
2342,9180301002347,登記記録の閉鎖等,0,2025-12-02,2025-11-11,レッドバロン静岡株式会社,,株式会社,愛知県,岡崎市,大平町字市木２８番地,,23,202,4440007,,,2025-11-11,合併による解散等,7180301002266,令和７年１１月１日愛知県岡崎市藤川町字境松西１番地株式会社レッドバロン（7180301002266）に合併し解散,2015-10-05,1,,,,,レッドバロンシズオカ,0
2343,9180301002363,登記記録の閉鎖等,0,2025-12-02,2025-11-11,レッドバロン八戸株式会社,,株式会社,愛知県,岡崎市,大平町字市木２８番地,,23,202,4440007,,,2025-11-11,合併による解散等,7180301002266,令和７年１１月１日愛知県岡崎市藤川町字境松西１番地株式会社レッドバロン（7180301002266）に合併し解散,2015-10-05,1,,,,,レッドバロンハチノヘ,0
2345,9180302003294,登記記録の閉鎖等,0,2025-12-02,2025-11-11,レッドバロン山科有限会社,,有限会社,愛知県,岡崎市,大平町字市木２８番地,,23,202,4440007,,,2025-11-11,合併による解散等,7180301002266,令和７年１１月１日愛知県岡崎市藤川町字境松西１番地株式会社レッドバロン（7180301002266）に合併し解散,2015-10-05,1,,,,,レッドバロンヤマシナ,0
2361,9290001056624,登記記録の閉鎖等,0,2025-12-02,2025-11-21,株式会社ヨシノコーポレーション,,株式会社,福岡県,福岡市博多区,堅粕３丁目１番１９号,,40,132,8120043,,,2025-11-21,清算の結了等,,,2015-10-05,1,,,,,ヨシノコーポレーション,0
2369,9300001000448,登記記録の閉鎖等,0,2025-12-02,2025-12-01,株式会社サニム,,株式会社,佐賀県,佐賀市,大和町大字久池井２５９４番地９,,41,201,8400202,,,2025-12-01,清算の結了等,,,2015-10-05,1,,,,,サニム,0
2372,9310002018868,登記記録の閉鎖等,0,2025-12-02,2025-11-28,平田商事有限会社,,有限会社,長崎県,壱岐市,石田町印通寺浦９４番地,,42,210,8115214,,,2025-11-28,清算の結了等,,,2015-10-05,1,,,,,ヒラタショウジ,0
2373,9310003003290,登記記録の閉鎖等,0,2025-12-02,2025-11-28,合同会社タスク工業,,合同会社,長崎県,長崎市,香焼町１４８番地,,42,201,8510310,,,2025-11-28,清算の結了等,,,2017-05-15,1,,,,,タスクコウギョウ,0
2375,9320005008279,登記記録の閉鎖等,0,2025-12-02,2025-11-20,ＮＰＯ法人再会,,その他の設立登記法人,大分県,大分市,大字鴛野９２６番地７,,44,201,8701121,,,2025-11-20,清算の結了等,,,2015-10-05,1,,,,,サイカイ,0
2376,9330001032166,登記記録の閉鎖等,0,2025-12-02,2025-11-21,明笙貿易生技株式会社,,株式会社,熊本県,菊池郡大津町,大字室２１２１ー７,,43,403,8691235,,,2025-11-21,清算の結了等,,,2024-06-14,1,,,,,メイショウボウエキセイギ,0
2379,9350001012686,登記記録の閉鎖等,0,2025-12-02,2025-11-27,株式会社マウント・ルート,,株式会社,宮崎県,宮崎市,大字本郷北方３２９８番地９,,45,201,8800925,,,2025-11-27,清算の結了等,,,2015-10-05,1,,,,,マウントルート,0
2380,9350003001159,登記記録の閉鎖等,0,2025-12-02,2025-11-27,合同会社谷宗水産,,合同会社,宮崎県,延岡市,島浦町６７４番地,,45,203,8820096,,,2025-11-27,清算の結了等,,,2015-10-05,1,,,,,タニソウスイサン,0
2384,9370001009292,登記記録の閉鎖等,0,2025-12-02,2025-11-25,株式会社テクノクリエート,,株式会社,宮城県,仙台市青葉区,木町通１丁目８番２８号,,04,101,9800801,,,2025-11-25,清算の結了等,,,2015-10-05,1,,,,,テクノクリエート,0
2388,9380001014713,登記記録の閉鎖等,0,2025-12-02,2025-11-25,株式会社東北イノベーター,,株式会社,福島県,いわき市,久之浜町西２丁目７番地の６,,07,204,9790334,,,2025-11-25,清算の結了等,,,2015-10-05,1,,,,,,0
2397,9450002011685,登記記録の閉鎖等,0,2025-12-02,2025-11-27,有限会社小坂商店,,有限会社,北海道,礼文郡礼文町,大字香深村字トンナイ４０番地の３４,,01,517,0971201,,,2025-11-27,清算の結了等,,,2015-10-05,1,,,,,コサカショウテン,0
