sequenceNumber,corporateNumber,process,correct,updateDate,changeDate,name,nameImageId,kind,prefectureName,cityName,streetNumber,addressImageId,prefectureCode,cityCode,postCode,addressOutside,addressOutsideImageId,closeDate,closeCause,successorCorporateNumber,changeCause,assignmentDate,latest,enName,enPrefectureName,enCityName,enAddressOutside,furigana,hihyoji
4,1010001216782,登記記録の閉鎖等,0,2022-10-18,2022-10-07,株式会社ＴＥＣＫＮＥＴ　ＪＡＰＡＮ,,株式会社,東京都,中央区,日本橋大伝馬町１番１０号日本橋ＫＲビル３階,,13,102,1030011,,,2022-10-07,清算の結了等,,,2021-03-25,1,,,,,テックネットジャパン,0
16,1010003023228,登記記録の閉鎖等,0,2022-10-18,2022-10-11,合同会社Ｂｉｓｏｎ　Ｂｏｌｔ,,合同会社,東京都,中央区,日本橋堀留町１丁目４－１６ピーコス日本橋ビル２Ｆ,,13,102,1030012,,,2022-10-11,清算の結了等,,,2016-03-17,1,,,,,バイソンボルト,0
21,1010401025296,登記記録の閉鎖等,0,2022-10-18,2022-10-13,ヒューマン・アソシエイツ・ホールディングス株式会社,,株式会社,東京都,港区,南青山１丁目３番３号,,13,103,1070062,,,2022-10-13,合併による解散等,7010001221934,令和４年１０月１日東京都千代田区大手町一丁目２番１号ＭＢＫ　Ｗｅｌｌｎｅｓｓ　Ｈｏｌｄｉｎｇｓ株式会社（7010001221934）に合併し解散,2015-10-05,1,,,,,ヒューマンアソシエイツホールディングス,0
25,1010401140541,登記記録の閉鎖等,0,2022-10-18,2022-10-03,Ｖｉｓｉｏｎ　Ｇｒｏｕｐ株式会社,,株式会社,東京都,港区,新橋２丁目９番１６号,,13,103,1050004,,,2022-10-03,清算の結了等,,,2018-09-03,1,,,,,ヴィジョングループ,0
42,1011001059164,登記記録の閉鎖等,0,2022-10-18,2022-10-03,ＪＶＣネットワークス株式会社,,株式会社,東京都,渋谷区,神宮前２丁目２１番１号,,13,113,1500001,,,2022-10-03,合併による解散等,7011001019451,令和４年１０月１日東京都渋谷区神宮前二丁目２１番１号株式会社ＪＶＣケンウッド・ビクターエンタテインメント（7011001019451）に合併し解散,2015-10-05,1,,,,,ジェイブイシーネットワークス,0
48,1011001122450,登記記録の閉鎖等,0,2022-10-18,2022-10-03,ＧＭＯクリックグローバルマーケッツ株式会社,,株式会社,東京都,渋谷区,道玄坂１丁目２番３号,,13,113,1500043,,,2022-10-03,合併による解散等,4011001045946,令和４年１０月１日東京都渋谷区道玄坂一丁目２番３号ＧＭＯクリック証券株式会社（4011001045946）に合併し解散,2018-05-31,1,,,,,ジーエムオークリックグローバルマーケッツ,0
59,1011102008499,登記記録の閉鎖等,0,2022-10-18,2022-10-13,有限会社デイジー,,有限会社,東京都,新宿区,高田馬場３丁目２番５号,,13,104,1690075,,,2022-10-13,清算の結了等,,,2015-10-05,1,,,,,デイジー,0
72,1011501016350,登記記録の閉鎖等,0,2022-10-18,2022-10-11,株式会社クレスコ,,株式会社,東京都,荒川区,東日暮里５丁目４５番１号クレスコ第一ビル３Ｆ,,13,118,1160014,,,2022-10-11,清算の結了等,,,2015-10-05,1,,,,,,0
73,1011501023842,登記記録の閉鎖等,0,2022-10-18,2022-10-11,ワークハブ・ジャパン株式会社,,株式会社,東京都,北区,中里１丁目２４番６号,,13,117,1140015,,,2022-10-11,清算の結了等,,,2018-06-28,1,,,,,ワークハブジャパン,0
87,1012802005100,登記記録の閉鎖等,0,2022-10-18,2022-10-06,有限会社ムラデン,,有限会社,東京都,武蔵村山市,学園３丁目４１番地の３,,13,223,2080011,,,2022-10-06,清算の結了等,,,2015-10-05,1,,,,,ムラデン,0
94,1013401001746,登記記録の閉鎖等,0,2022-10-18,2022-10-13,株式会社自然生活工房,,株式会社,徳島県,海部郡海陽町,宍喰浦字那佐３３７番地８９,,36,388,7750512,,,2022-10-13,清算の結了等,,,2015-10-05,1,,,,,シゼンセイカツコウボウ,0
97,1020001033756,登記記録の閉鎖等,0,2022-10-18,2022-10-07,株式会社豊洋,,株式会社,神奈川県,横浜市泉区,弥生台１２番地２,,14,116,2450008,,,2022-10-07,清算の結了等,,,2015-10-05,1,,,,,ホウヨウ,0
118,1030001006298,登記記録の閉鎖等,0,2022-10-18,2022-10-13,日本スプレー工業株式会社,,株式会社,埼玉県,さいたま市桜区,大字白鍬字宮田５７番地－２,,11,106,3380811,,,2022-10-13,合併による解散等,2011601005186,令和４年１０月１日東京都練馬区富士見台四丁目４３番５号日本防水工業株式会社（2011601005186）に合併し解散,2015-10-05,1,,,,,ニホンスプレーコウギョウ,0
120,1030001041428,登記記録の閉鎖等,0,2022-10-18,2022-10-04,株式会社クラトミ,,株式会社,埼玉県,上尾市,本町５丁目１１番１３号リトルリバー２０６号,,11,219,3620014,,,2022-10-04,清算の結了等,,,2015-10-05,1,,,,,クラトミ,0
121,1030001068454,登記記録の閉鎖等,0,2022-10-18,2022-10-04,メガエフォートウェブサービス株式会社,,株式会社,埼玉県,吉川市,保１丁目３８番地３,,11,243,3420041,,,2022-10-04,清算の結了等,,,2015-10-05,1,,,,,メガエフォートウェブサービス,0
133,1040001059221,登記記録の閉鎖等,0,2022-10-18,2022-10-07,株式会社ジャパンレジャークリエイト,,株式会社,千葉県,茂原市,六ツ野３６２０番地,,12,210,2970012,,,2022-10-07,清算の結了等,,,2015-10-05,1,,,,,ジャパンレジャークリエイト,0
141,1050001029470,登記記録の閉鎖等,0,2022-10-18,2022-10-07,株式会社中央ホーム,,株式会社,茨城県,常総市,豊岡町丁１４８６番地１,,08,211,3030041,,,2022-10-07,清算の結了等,,,2015-10-05,1,,,,,チュウオウホーム,0
166,1120001228602,登記記録の閉鎖等,0,2022-10-18,2022-10-05,株式会社ＷｅＢｏｏｋ,,株式会社,大阪府,大阪市中央区,北久宝寺町１丁目４－１０大成合同ビル３０３号,,27,128,5410057,,,2022-10-05,清算の結了等,,,2020-04-15,1,,,,,ウィーブック,0
172,1120002002080,登記記録の閉鎖等,0,2022-10-18,2022-10-13,有限会社世界商事,,有限会社,大阪府,大阪市西成区,花園南１丁目２番１１号,,27,122,5570015,,,2022-10-13,清算の結了等,,,2015-10-05,1,,,,,セカイショウジ,0
182,1120901037763,登記記録の閉鎖等,0,2022-10-18,2022-10-14,ランク株式会社,,株式会社,大阪府,高槻市,南平台５丁目３３番５号,,27,207,5691042,,,2022-10-14,清算の結了等,,,2016-12-05,1,,,,,ランク,0
193,1140002019222,登記記録の閉鎖等,0,2022-10-18,2022-10-13,有限会社ナンバコンサルタントオフィス,,有限会社,兵庫県,神戸市中央区,熊内町４丁目５番２２号,,28,110,6510056,,,2022-10-13,清算の結了等,,,2015-10-05,1,,,,,ナンバコンサルタントオフィス,0
194,1140002042793,登記記録の閉鎖等,0,2022-10-18,2022-10-12,有限会社雅,,有限会社,兵庫県,尼崎市,東園田町４丁目２７番８号,,28,202,6610953,,,2022-10-12,清算の結了等,,,2015-10-05,1,,,,,ミヤビ,0
207,1180001127501,登記記録の閉鎖等,0,2022-10-18,2022-10-11,株式会社アープラーナ,,株式会社,愛知県,名古屋市中川区,太平通３丁目３０番地,,23,110,4540838,,,2022-10-11,清算の結了等,,,2017-04-25,1,,,,,アープラーナ,0
208,1180002059727,登記記録の閉鎖等,0,2022-10-18,2022-10-07,有限会社ＧＴＯ,,有限会社,愛知県,名古屋市南区,東又兵ヱ町４丁目１番地の１６,,23,112,4570833,,,2022-10-07,清算の結了等,,,2015-10-05,1,,,,,ジーティーオー,0
211,1180301012931,登記記録の閉鎖等,0,2022-10-18,2022-10-07,昭栄開発株式会社,,株式会社,愛知県,安城市,住吉町５丁目２８番地１３,,23,212,4460072,,,2022-10-07,清算の結了等,,,2015-10-05,1,,,,,ショウエイカイハツ,0
221,1200002013549,登記記録の閉鎖等,0,2022-10-18,2022-10-17,有限会社ニシワキ,,有限会社,岐阜県,安八郡神戸町,大字瀬古１７１９番地,,21,381,5032318,,,2022-10-17,清算の結了等,,,2015-10-05,1,,,,,ニシワキ,0
231,1240003002860,登記記録の閉鎖等,0,2022-10-18,2022-10-04,グランデール高島合同会社,00001756,合同会社,広島県,東広島市,西条町田口２０３７番地,,34,212,7390036,,,2022-10-04,清算の結了等,,,2015-10-05,1,,,,,グランデールタカシマ,0
235,1250005003220,登記記録の閉鎖等,0,2022-10-18,2022-10-07,医療法人しゃくなげ園診療所,,その他の設立登記法人,山口県,下関市,大字田倉字差葉８１番地,,35,201,7510883,,,2022-10-07,清算の結了等,,,2015-10-05,1,,,,,シャクナゲエンシンリョウジョ,0
251,1290002056795,登記記録の閉鎖等,0,2022-10-18,2022-10-07,有限会社メディカル浮羽,,有限会社,福岡県,うきは市,浮羽町東隈上３４２番地９,,40,225,8391403,,,2022-10-07,清算の結了等,,,2015-10-05,1,,,,,メディカルウキハ,0
255,1300001007236,登記記録の閉鎖等,0,2022-10-18,2022-10-04,株式会社タクボ,,株式会社,佐賀県,唐津市,和多田大土井１１番４３号,,41,202,8470083,,,2022-10-04,清算の結了等,,,2015-10-05,1,,,,,タクボ,0
258,1320001005650,登記記録の閉鎖等,0,2022-10-18,2022-10-12,株式会社ＫＡＺＵＫＩ,,株式会社,大分県,大分市,大字千歳３８２番地の２,,44,201,8700132,,,2022-10-12,清算の結了等,,,2015-10-05,1,,,,,カズキ,0
260,1340001002662,登記記録の閉鎖等,0,2022-10-18,2022-10-13,高千穂産機株式会社,,株式会社,鹿児島県,鹿児島市,谷山港３丁目１番地４８,,46,201,8910131,,,2022-10-13,合併による解散等,2290001036624,令和４年１０月１日福岡県糟屋郡新宮町大字的野字香ノ木７４１番１株式会社筑豊製作所（2290001036624）に合併し解散,2015-10-05,1,,,,,タカチホサンキ,0
263,1350002018129,登記記録の閉鎖等,0,2022-10-18,2022-10-14,有限会社小林モータース,,有限会社,宮崎県,小林市,堤２９７２番地,,45,205,8860003,,,2022-10-14,清算の結了等,,,2015-10-05,1,,,,,コバヤシモータース,0
273,1410005006082,登記記録の閉鎖等,0,2022-10-18,2022-10-12,特定非営利活動法人シングル非正規職あきた女性の家,,その他の設立登記法人,秋田県,秋田市,中通３丁目２番２０号,,05,201,0100001,,,2022-10-12,清算の結了等,,,2017-10-12,1,,,,,シングルヒセイキショクアキタジョセイノイエ,0
285,1460102002137,登記記録の閉鎖等,0,2022-10-18,2022-10-13,有限会社ティー・エヌ・プラン,,有限会社,北海道,帯広市,西八条南２７丁目５番地,,01,207,0800018,,,2022-10-13,清算の結了等,,,2015-10-05,1,,,,,ティーエヌプラン,0
286,1480002004685,登記記録の閉鎖等,0,2022-10-18,2022-10-17,有限会社マルイ,,有限会社,徳島県,徳島市,明神町４丁目１９番地７,,36,201,7700938,,,2022-10-17,清算の結了等,,,2015-10-05,1,,,,,マルイ,0
311,2010001188749,登記記録の閉鎖等,0,2022-10-18,2022-10-12,ネクスト・ゴルフ・マネジメント株式会社,,株式会社,東京都,品川区,東品川４丁目１２番４号,,13,109,1400002,,,2022-10-12,合併による解散等,8010001212024,令和４年１０月１日東京都品川区東品川四丁目１２番４号株式会社アコーディア・ゴルフ（8010001212024）に合併し解散,2018-01-05,1,,,,,ネクストゴルフマネジメント,0
323,2010401059839,登記記録の閉鎖等,0,2022-10-18,2022-10-03,株式会社オウチーノ,,株式会社,東京都,港区,三田１丁目４番２８号,,13,103,1080073,,,2022-10-03,合併による解散等,3010401141208,令和４年１０月１日東京都港区三田一丁目４番２８号株式会社くふう住まい（3010401141208）に合併し解散,2015-10-05,1,,,,,オウチーノ,0
340,2010703005581,登記記録の閉鎖等,0,2022-10-18,2022-10-07,合同会社アドバンス,,合同会社,東京都,品川区,西五反田８丁目２番５号ファインズ五反田４Ｆ,,13,109,1410031,,,2022-10-07,清算の結了等,,,2021-01-08,1,,,,,アドバンス,0
362,2011101086603,登記記録の閉鎖等,0,2022-10-18,2022-10-04,株式会社Ｌｏｔｕｓ,,株式会社,東京都,渋谷区,代々木４丁目３０－５フェニックス西参道タワー３０１号室,,13,113,1510053,,,2022-10-04,清算の結了等,,,2019-01-22,1,,,,,ロータス,0
367,2011301017977,登記記録の閉鎖等,0,2022-10-18,2022-10-13,株式会社プロフェッショナルズ,,株式会社,東京都,中央区,銀座６丁目６番１号,,13,102,1040061,,,2022-10-13,合併による解散等,6010002043197,令和４年１０月１日東京都中央区銀座六丁目６番１号株式会社フラッシュワン（6010002043197）に合併し解散,2015-10-05,1,,,,,プロフェッショナルズ,0
371,2011501002382,登記記録の閉鎖等,0,2022-10-18,2022-10-11,正光建設株式会社,,株式会社,東京都,北区,中里２丁目６番１２号,,13,117,1140015,,,2022-10-11,清算の結了等,,,2015-10-05,1,,,,,セイコウケンセツ,0
386,2012401017181,登記記録の閉鎖等,0,2022-10-18,2022-10-06,株式会社松籟,,株式会社,東京都,国立市,中２丁目９番地の１８,,13,215,1860004,,,2022-10-06,清算の結了等,,,2015-10-05,1,,,,,ショウライ,0
417,2020005008844,登記記録の閉鎖等,0,2022-10-18,2022-10-11,特定非営利活動法人医療安全教育協会,,その他の設立登記法人,神奈川県,川崎市宮前区,神木本町４丁目５番１９号,,14,136,2160031,,,2022-10-11,清算の結了等,,,2015-10-05,1,,,,,イリョウアンゼンキョウイクキョウカイ,0
418,2020005014330,登記記録の閉鎖等,0,2022-10-18,2022-10-07,ＮＰＯ法人すぽーつびと,,その他の設立登記法人,神奈川県,横浜市瀬谷区,瀬谷１丁目２１番地６,,14,114,2460031,,,2022-10-07,清算の結了等,,,2019-10-09,1,,,,,スポーツビト,0
438,2030001117771,登記記録の閉鎖等,0,2022-10-18,2022-10-06,トータルマーケット株式会社,,株式会社,埼玉県,富士見市,針ケ谷１丁目３番３号,,11,235,3540017,,,2022-10-06,清算の結了等,,,2016-12-20,1,,,,,トータルマーケット,0
448,2030002056688,登記記録の閉鎖等,0,2022-10-18,2022-10-03,有限会社本木設備工業所,,有限会社,埼玉県,桶川市,大字加納１９２９番地,,11,231,3630001,,,2022-10-03,清算の結了等,,,2015-10-05,1,,,,,モトキセツビコウギョウショ,0
456,2040002081917,登記記録の閉鎖等,0,2022-10-18,2022-10-07,有限会社千葉グリーン技研,,有限会社,千葉県,長生郡長柄町,長柄山字美佐子台１１６２番地９４,,12,426,2970234,,,2022-10-07,清算の結了等,,,2015-10-05,1,,,,,,0
460,2050002036077,登記記録の閉鎖等,0,2022-10-18,2022-10-11,有限会社里仁堂,,有限会社,茨城県,久慈郡大子町,大字大子６２８番地,,08,364,3193526,,,2022-10-11,清算の結了等,,,2015-10-05,1,,,,,リジンドウ,0
470,2100002020240,登記記録の閉鎖等,0,2022-10-18,2022-10-14,フィリックスハウス株式会社,,株式会社,長野県,松本市,大字笹賀５６５２番地４３,,20,202,3990033,,,2022-10-14,合併による解散等,4180001068305,令和４年１０月１日名古屋市中村区名駅一丁目１番１号ＪＰタワー名古屋１５Ｆフィリックス株式会社（4180001068305）に合併し解散,2015-10-05,1,,,,,フィリックスハウス,0
496,2130001057900,登記記録の閉鎖等,0,2022-10-18,2022-10-12,株式会社マザーツリー,,株式会社,大阪府,堺市北区,中百舌鳥町２丁４０番地１,,27,146,5918023,,,2022-10-12,合併による解散等,8120001082605,令和４年１０月１日横浜市港北区新横浜三丁目１７番６号株式会社ココカラファインヘルスケア（8120001082605）に合併し解散,2016-07-20,1,,,,,マザーツリー,0
499,2140001005420,登記記録の閉鎖等,0,2022-10-18,2022-10-13,明舞運送株式会社,,株式会社,兵庫県,神戸市西区,平野町常本５６番地の１,,28,111,6512263,,,2022-10-13,清算の結了等,,,2015-10-05,1,,,,,メイマイウンソウ,0
505,2140002000478,登記記録の閉鎖等,0,2022-10-18,2022-10-11,有限会社杉浦事務所,,有限会社,兵庫県,芦屋市,奥池町２５番３号,,28,206,6590003,,,2022-10-11,清算の結了等,,,2015-10-05,1,,,,,スギウラジムショ,0
508,2140002062254,登記記録の閉鎖等,0,2022-10-18,2022-10-06,有限会社尾國鉄工所,,有限会社,兵庫県,加西市,谷口町４７３番地,,28,220,6752352,,,2022-10-06,清算の結了等,,,2015-10-05,1,,,,,オグニテッコウショ,0
515,2170005006412,登記記録の閉鎖等,0,2022-10-18,2022-10-14,一般財団法人再生ありだ,,その他の設立登記法人,和歌山県,有田市,野１８７番地１,,30,204,6490314,,,2022-10-14,清算の結了等,,,2015-10-05,1,,,,,サイセイアリダ,0
521,2180001030729,登記記録の閉鎖等,0,2022-10-18,2022-10-11,昇永不動産株式会社,,株式会社,愛知県,日進市,赤池町モチロ６１番地５７４,,23,230,4700126,,,2022-10-11,清算の結了等,,,2015-10-05,1,,,,,ショウエイフドウサン,0
522,2180001142945,登記記録の閉鎖等,0,2022-10-18,2022-10-14,株式会社ノワールロワ,,株式会社,東京都,世田谷区,深沢２丁目１番１０号,,13,112,1580081,,,2022-10-14,清算の結了等,,,2020-09-25,1,,,,,ノワールロワ,0
525,2180002038738,登記記録の閉鎖等,0,2022-10-18,2022-10-11,有限会社アイチ井戸ボーリング,,有限会社,愛知県,名古屋市緑区,大形山３１５番地,,23,114,4580032,,,2022-10-11,清算の結了等,,,2015-10-05,1,,,,,アイチイドボーリング,0
529,2180301004853,登記記録の閉鎖等,0,2022-10-18,2022-10-03,株式会社アーバンアート,,株式会社,愛知県,豊橋市,高師本郷町字東上２１番地の２２,,23,201,4418153,,,2022-10-03,合併による解散等,1180301029851,令和４年１０月１日愛知県豊橋市高師本郷町字東上２１番地２２ヒューマンアート株式会社（1180301029851）に合併し解散,2015-10-05,1,,,,,アーバンアート,0
536,2180302026277,登記記録の閉鎖等,0,2022-10-18,2022-10-06,有限会社だるま,,有限会社,愛知県,西尾市,道光寺町天王下６番地１,,23,213,4450811,,,2022-10-06,清算の結了等,,,2015-10-05,1,,,,,ダルマ,0
553,2260003001728,登記記録の閉鎖等,0,2022-10-18,2022-10-12,キンタ合同会社,,合同会社,岡山県,総社市,久代５２０６番地４１,,33,208,7101201,,,2022-10-12,清算の結了等,,,2015-10-05,1,,,,,キンタ,0
569,2340001000541,登記記録の閉鎖等,0,2022-10-18,2022-10-17,株式会社内田組,,株式会社,鹿児島県,鹿児島市,鴨池１丁目３４番１８号,,46,201,8900063,,,2022-10-17,清算の結了等,,,2015-10-05,1,,,,,ウチダグミ,0
571,2340005006147,登記記録の閉鎖等,0,2022-10-18,2022-10-14,農事組合法人東開茶生産組合,,その他の設立登記法人,鹿児島県,南九州市,頴娃町上別府２１６０番地３,,46,223,8910705,,,2022-10-14,清算の結了等,,,2015-10-05,1,,,,,トウカイチャセイサンクミアイ,0
572,2350002008285,登記記録の閉鎖等,0,2022-10-18,2022-10-14,有限会社エヌアンドエヌ,,有限会社,宮崎県,宮崎市,清水１丁目１１番１９号,,45,201,8800021,,,2022-10-14,清算の結了等,,,2015-10-05,1,,,,,エヌアンドエヌ,0
590,2430001058208,登記記録の閉鎖等,0,2022-10-18,2022-10-03,株式会社滝吉工務店,,株式会社,北海道,札幌市北区,屯田二条２丁目２番１５号,,01,102,0020852,,,2022-10-03,清算の結了等,,,2015-10-05,1,,,,,タキヨシコウムテン,0
591,2430001067522,登記記録の閉鎖等,0,2022-10-18,2022-10-17,株式会社ハピネス,,株式会社,北海道,岩見沢市,日の出台２丁目１１番５号Ｋ’Ｓコート１０３,,01,210,0680822,,,2022-10-17,清算の結了等,,,2015-10-05,1,,,,,ハピネス,0
595,2430001077620,登記記録の閉鎖等,0,2022-10-18,2022-10-05,大鐵株式会社,,株式会社,北海道,札幌市北区,新川三条２丁目２番５－４０１号,,01,102,0010923,,,2022-10-05,清算の結了等,,,2018-10-26,1,,,,,ダイテツ,0
599,2430002028804,登記記録の閉鎖等,0,2022-10-18,2022-10-03,有限会社ハーティフードサービス,,有限会社,北海道,札幌市東区,北三十三条東１４丁目７番１－７０７号,,01,103,0650033,,,2022-10-03,清算の結了等,,,2015-10-05,1,,,,,ハーティフードサービス,0
604,2450001000175,登記記録の閉鎖等,0,2022-10-18,2022-10-17,旭広告株式会社,,株式会社,北海道,旭川市,三条通８丁目１７０５番地緑橋ビル１号館３階,,01,204,0700033,,,2022-10-17,清算の結了等,,,2015-10-05,1,,,,,アサヒコウコク,0
615,3010001035330,登記記録の閉鎖等,0,2022-10-18,2022-10-03,株式会社アイ・テイ・エス,,株式会社,東京都,港区,虎ノ門１丁目１２番９号,,13,103,1050001,,,2022-10-03,清算の結了等,,,2015-10-05,1,,,,,アイテイエス,0
620,3010001106544,登記記録の閉鎖等,0,2022-10-18,2022-10-07,株式会社エイティーエックス,,株式会社,東京都,千代田区,富士見１丁目１２－１５,,13,101,1020071,,,2022-10-07,合併による解散等,1010001199821,令和４年１０月１日東京都千代田区富士見二丁目１３番３号株式会社ＫＡＤＯＫＡＷＡ　Ｃｏｎｎｅｃｔｅｄ（1010001199821）に合併し解散,2015-10-05,1,,,,,エイティーエックス,0
629,3010002030990,登記記録の閉鎖等,0,2022-10-18,2022-10-11,有限会社だいこく印刷,,有限会社,東京都,千代田区,九段北１丁目７番８号,,13,101,1020073,,,2022-10-11,清算の結了等,,,2015-10-05,1,,,,,ダイコクインサツ,0
630,3010003036070,登記記録の閉鎖等,0,2022-10-18,2022-10-11,合同会社ひとむ商店,,合同会社,東京都,中央区,銀座１丁目２２番１１号銀座大竹ビジデンス２階,,13,102,1040061,,,2022-10-11,清算の結了等,,,2021-10-21,1,,,,,ヒトムショウテン,0
633,3010401015733,登記記録の閉鎖等,0,2022-10-18,2022-09-28,千秀商事株式会社,,株式会社,東京都,港区,赤坂３丁目２１番１２号陶香堂ビル５階,,13,103,1070052,,,2022-09-28,清算の結了等,,,2015-10-05,1,,,,,センシュウショウジ,0
636,3010401116655,登記記録の閉鎖等,0,2022-10-18,2022-09-28,ＳｏｆｔＢａｎｋ　Ｇｒｏｕｐ　Ｉｎｔｅｒｎａｔｉｏｎａｌ　Ｊａｐａｎ株式会社,,株式会社,東京都,港区,東新橋１丁目９番１号,,13,103,1050021,,,2022-09-28,清算の結了等,,,2015-10-05,1,,,,,ソフトバンクグループインターナショナルジャパン,0
655,3011001045798,登記記録の閉鎖等,0,2022-10-18,2022-10-03,株式会社ホワイトカンパニー,,株式会社,東京都,渋谷区,桜丘町４番２２号日本発明振興会館４Ｆ,,13,113,1500031,,,2022-10-03,合併による解散等,1011001068685,令和４年１０月１日東京都渋谷区桜丘町４番２２号日本発明振興会館４Ｆ株式会社ＷＯＲＫＥＲＳアセット（1011001068685）に合併し解散,2015-10-05,1,,,,,ホワイトカンパニー,0
660,3011001116483,登記記録の閉鎖等,0,2022-10-18,2022-10-03,株式会社ＨＩＲＯＢＡ,,株式会社,東京都,目黒区,上目黒４丁目１４番７号,,13,110,1530051,,,2022-10-03,合併による解散等,7011001060265,令和４年１０月１日東京都目黒区上目黒四丁目１４番７号株式会社ＹＯＵＲ　ＳＩＤＥ　ＭＵＳＩＣ（7011001060265）に合併し解散,2017-05-23,1,,,,,ヒロバ,0
664,3011001136812,登記記録の閉鎖等,0,2022-10-18,2022-09-29,株式会社ＩＲＩＯＮ,,株式会社,東京都,港区,南青山２丁目２番１５号ウィン青山９４２,,13,103,1070062,,,2022-09-29,清算の結了等,,,2020-11-10,1,,,,,イリオン,0
670,3011101052760,登記記録の閉鎖等,0,2022-10-18,2022-10-13,株式会社カレボネット,,株式会社,東京都,新宿区,西新宿１丁目５番１１号新宿三葉ビル５Ｆ,,13,104,1600023,,,2022-10-13,清算の結了等,,,2015-10-05,1,,,,,カレボネット,0
672,3011101059871,登記記録の閉鎖等,0,2022-10-18,2022-10-13,株式会社交友社,,株式会社,東京都,新宿区,揚場町２番１４号,,13,104,1620824,,,2022-10-13,清算の結了等,,,2015-10-05,1,,,,,コウユウシャ,0
674,3011102013497,登記記録の閉鎖等,0,2022-10-18,2022-10-12,有限会社横山,,有限会社,東京都,新宿区,新宿３丁目７番５号,,13,104,1600022,,,2022-10-12,清算の結了等,,,2015-10-05,1,,,,,ヨコヤマ,0
677,3011201014603,登記記録の閉鎖等,0,2022-10-18,2022-10-11,プロエックス株式会社,,株式会社,東京都,中央区,銀座７丁目９番１３号,,13,102,1040061,,,2022-10-11,合併による解散等,4010001053471,令和４年１０月１日東京都中央区銀座七丁目９番１３号株式会社日新堂（4010001053471）に合併し解散,2015-10-05,1,,,,,プロエックス,0
684,3011702004235,登記記録の閉鎖等,0,2022-10-18,2022-10-12,有限会社小菅正義商会,,有限会社,東京都,江戸川区,西小岩３丁目２３番１０号,,13,123,1330057,,,2022-10-12,清算の結了等,,,2015-10-05,1,,,,,コスゲマサヨシショウカイ,0
685,3011801010613,登記記録の閉鎖等,0,2022-10-18,2022-10-12,内外化成株式会社,,株式会社,東京都,足立区,大谷田２丁目８番４号,,13,121,1200001,,,2022-10-12,清算の結了等,,,2015-10-05,1,,,,,ナイガイカセイ,0
735,3030002104149,登記記録の閉鎖等,0,2022-10-18,2022-09-28,有限会社青和,,有限会社,埼玉県,川口市,西川口２丁目２番８号,,11,203,3320021,,,2022-09-28,清算の結了等,,,2015-10-05,1,,,,,セイワ,0
749,3040005007125,登記記録の閉鎖等,0,2022-10-18,2022-10-05,医療法人社団葉月会,,その他の設立登記法人,千葉県,佐倉市,上志津１６６９番地５０,,12,212,2850846,,,2022-10-05,清算の結了等,,,2015-10-05,1,,,,,シャダンハヅキカイ,0
767,3080002018253,登記記録の閉鎖等,0,2022-10-18,2022-10-14,有限会社セイコウ,,有限会社,静岡県,藤枝市,若王子３丁目１番８号,,22,214,4260014,,,2022-10-14,清算の結了等,,,2015-10-05,1,,,,,セイコウ,0
769,3080101010318,登記記録の閉鎖等,0,2022-10-18,2022-10-14,株式会社ビルド・アップ,,株式会社,静岡県,富士市,依田橋２６９番地の１,,22,210,4170002,,,2022-10-14,合併による解散等,4180001068305,令和４年１０月１日名古屋市中村区名駅一丁目１番１号ＪＰタワー名古屋１５Ｆフィリックス株式会社（4180001068305）に合併し解散,2015-10-05,1,,,,,ビルドアップ,0
770,3080102012230,登記記録の閉鎖等,0,2022-10-18,2022-10-13,有限会社川合造園,,有限会社,静岡県,駿東郡清水町,新宿８２０番地,,22,341,4110901,,,2022-10-13,清算の結了等,,,2015-10-05,1,,,,,カワイゾウエン,0
778,3110001023969,登記記録の閉鎖等,0,2022-10-18,2022-10-13,株式会社オーエックス新潟,,株式会社,新潟県,長岡市,西陵町２２１番地３３,,15,202,9402045,,,2022-10-13,合併による解散等,5040001001047,令和４年１０月１日千葉市若葉区中田町２１８６番地の１株式会社Ｍ２デザイン研究所（5040001001047）に合併し解散,2015-10-05,1,,,,,オーエックスニイガタ,0
800,3120901042745,登記記録の閉鎖等,0,2022-10-18,2022-10-13,株式会社ノイズレス,,株式会社,大阪府,箕面市,半町４丁目１４番３２号,,27,220,5620044,,,2022-10-13,清算の結了等,,,2020-05-21,1,,,,,ノイズレス,0
816,3140002056759,登記記録の閉鎖等,0,2022-10-18,2022-10-14,有限会社清水制御,,有限会社,兵庫県,西宮市,すみれ台２丁目１７番地の５,,28,204,6511432,,,2022-10-14,清算の結了等,,,2015-10-05,1,,,,,シミズセイギョ,0
826,3180001032740,登記記録の閉鎖等,0,2022-10-18,2022-10-07,株式会社毎日文化センター,,株式会社,愛知県,名古屋市中村区,名駅１丁目２番４号名鉄バスターミナルビル１０階,,23,105,4500002,,,2022-10-07,合併による解散等,2010001029969,令和４年１０月１日東京都千代田区一ツ橋一丁目１番１号株式会社毎日新聞社（2010001029969）に合併し解散,2015-10-05,1,,,,,マイニチブンカセンター,0
828,3180001081564,登記記録の閉鎖等,0,2022-10-18,2022-10-11,株式会社四葉,,株式会社,愛知県,丹羽郡扶桑町,大字高雄字南東川６６番地,,23,362,4800102,,,2022-10-11,清算の結了等,,,2015-10-05,1,,,,,ヨツバ,0
840,3180002040701,登記記録の閉鎖等,0,2022-10-18,2022-10-11,有限会社中日総合工務店,,有限会社,愛知県,清須市,西枇杷島町北大和４０番地,,23,233,4520012,,,2022-10-11,清算の結了等,,,2015-10-05,1,,,,,チュウニチソウゴウコウムテン,0
846,3180301013936,登記記録の閉鎖等,0,2022-10-18,2022-10-06,株式会社グローブ,,株式会社,愛知県,刈谷市,荒井町２丁目１１番地１,,23,210,4480814,,,2022-10-06,清算の結了等,,,2015-10-05,1,,,,,グローブ,0
875,3250002018640,登記記録の閉鎖等,0,2022-10-18,2022-10-11,有限会社丸良商事,,有限会社,山口県,岩国市,錦見２丁目９番９１号,,35,208,7410061,,,2022-10-11,清算の結了等,,,2015-10-05,1,,,,,マルヨシショウジ,0
897,3330003005761,登記記録の閉鎖等,0,2022-10-18,2022-10-12,合同会社ケルタ,,合同会社,熊本県,熊本市東区,花立３丁目１１番１１号,,43,102,8612118,,,2022-10-12,清算の結了等,,,2015-10-05,1,,,,,ケルタ,0
901,3350003002765,登記記録の閉鎖等,0,2022-10-18,2022-10-12,合同会社リピート,,合同会社,宮崎県,宮崎市,清武町加納甲２０１５番地３,,45,201,8891605,,,2022-10-12,清算の結了等,,,2016-08-19,1,,,,,リピート,0
905,3360003010940,登記記録の閉鎖等,0,2022-10-18,2022-10-11,ＮＧＡ合同会社,,合同会社,沖縄県,国頭郡金武町,字伊芸１２４２番地,,47,314,9041202,,,2022-10-11,清算の結了等,,,2021-02-25,1,,,,,エヌジーエー,0
910,3380001028999,登記記録の閉鎖等,0,2022-10-18,2022-10-07,株式会社フレンドリー,,株式会社,福島県,いわき市,平赤井比良２丁目４７番地,,07,204,9793132,,,2022-10-07,清算の結了等,,,2018-04-06,1,,,,,フレンドリー,0
913,3390003000971,登記記録の閉鎖等,0,2022-10-18,2022-10-11,合同会社ケアステーション,,合同会社,山形県,新庄市,中道町５番地の１４,,06,205,9960081,,,2022-10-11,清算の結了等,,,2015-10-05,1,,,,,ケアステーション,0
915,3420001001035,登記記録の閉鎖等,0,2022-10-18,2022-10-12,松竹タクシー株式会社,,株式会社,青森県,青森市,大字諏訪沢字岩田４７番地２,,02,201,0300933,,,2022-10-12,清算の結了等,,,2015-10-05,1,,,,,,0
916,3420001005093,登記記録の閉鎖等,0,2022-10-18,2022-10-12,アップル青森株式会社,,株式会社,青森県,青森市,問屋町２丁目２番１号,,02,201,0300131,,,2022-10-12,清算の結了等,,,2015-10-05,1,,,,,アップルアオモリ,0
941,4010001067728,登記記録の閉鎖等,0,2022-10-18,2022-10-11,株式会社大和キャピタル・ホールディングス,,株式会社,東京都,千代田区,丸の内１丁目９番１号,,13,101,1000005,,,2022-10-11,合併による解散等,6010001128172,令和４年１０月４日東京都千代田区丸の内一丁目９番１号株式会社大和インベストメント・マネジメント（6010001128172）に合併し解散,2015-10-05,1,,,,,ダイワキャピタルホールディングス,0
946,4010401032843,登記記録の閉鎖等,0,2022-10-18,2022-10-14,株式会社保志興業,,株式会社,東京都,港区,芝浦４丁目１３番１２－７０７号,,13,103,1080023,,,2022-10-14,清算の結了等,,,2015-10-05,1,,,,,,0
961,4010502013718,登記記録の閉鎖等,0,2022-10-18,2022-10-04,有限会社リバティー・テン,,有限会社,埼玉県,越谷市,相模町５丁目２５１番地,,11,222,3430823,,,2022-10-04,清算の結了等,,,2015-10-05,1,,,,,リバティーテン,0
965,4010601059216,登記記録の閉鎖等,0,2022-10-18,2022-10-04,ＬＡＮＤＩＣ・ＣＯＲＰＯＲＡＴＩＯＮ株式会社,,株式会社,東京都,墨田区,業平３丁目２番３号,,13,107,1300002,,,2022-10-04,清算の結了等,,,2021-04-30,1,,,,,ランディックコーポレーション,0
969,4010602007859,登記記録の閉鎖等,0,2022-10-18,2022-10-07,有限会社湯の友,,有限会社,東京都,江東区,大島７丁目７番３号,,13,108,1360072,,,2022-10-07,清算の結了等,,,2015-10-05,1,,,,,ユノトモ,0
981,4011002014099,登記記録の閉鎖等,0,2022-10-18,2022-10-03,有限会社ディー・ツゥ,,有限会社,東京都,渋谷区,千駄ヶ谷３丁目５３番１３－７０１号,,13,113,1510051,,,2022-10-03,清算の結了等,,,2015-10-05,1,,,,,ディーツゥ,0
987,4011202005666,登記記録の閉鎖等,0,2022-10-18,2022-10-07,有限会社丸恒商事,,有限会社,東京都,中野区,上鷺宮５丁目８番７－４０２号,,13,114,1650031,,,2022-10-07,清算の結了等,,,2015-10-05,1,,,,,,0
988,4011302000542,登記記録の閉鎖等,0,2022-10-18,2022-10-13,有限会社あづま薬局,,有限会社,東京都,三鷹市,下連雀５丁目３－５サンシティ吉祥寺４０２号,,13,204,1810013,,,2022-10-13,清算の結了等,,,2015-10-05,1,,,,,アヅマヤッキョク,0
1004,4020001085159,登記記録の閉鎖等,0,2022-10-18,2022-10-06,株式会社ジンアイコーポレーション,,株式会社,神奈川県,横浜市中区,富士見町４番地の２,,14,104,2310037,,,2022-10-06,清算の結了等,,,2015-10-05,1,,,,,ジンアイコーポレーション,0
1007,4020001145409,登記記録の閉鎖等,0,2022-10-18,2022-10-07,株式会社勇健,,株式会社,神奈川県,川崎市高津区,久末２９８番地１３,,14,134,2130026,,,2022-10-07,清算の結了等,,,2022-02-25,1,,,,,ユウケン,0
1008,4020002002617,登記記録の閉鎖等,0,2022-10-18,2022-10-07,有限会社紀ノ国屋,,有限会社,神奈川県,横浜市泉区,上飯田町１８３１番地,,14,116,2450018,,,2022-10-07,清算の結了等,,,2015-10-05,1,,,,,キノクニヤ,0
1022,4021002033362,登記記録の閉鎖等,0,2022-10-18,2022-10-12,有限会社宮沢商事,,有限会社,神奈川県,厚木市,寿町１丁目１０番５号,,14,212,2430003,,,2022-10-12,合併による解散等,2021001029289,令和４年１０月１日神奈川県厚木市東町８番７号株式会社大塚商会（2021001029289）に合併し解散,2015-10-05,1,,,,,ミヤザワショウジ,0
1028,4030001011626,登記記録の閉鎖等,0,2022-10-18,2022-10-05,株式会社サカワ不動産,,株式会社,埼玉県,さいたま市桜区,大字五関３７８番地,,11,106,3380815,,,2022-10-05,清算の結了等,,,2015-10-05,1,,,,,サカワフドウサン,0
1066,4070001021340,登記記録の閉鎖等,0,2022-10-18,2022-10-12,株式会社星村,,株式会社,群馬県,太田市,台之郷町１１１５番地,,10,205,3730801,,,2022-10-12,清算の結了等,,,2015-10-05,1,,,,,ホシムラ,0
1070,4070005004639,登記記録の閉鎖等,0,2022-10-18,2022-10-11,一般社団法人花台寺共同墓地管理会,,その他の設立登記法人,群馬県,佐波郡玉村町,大字樋越２０７番地４,,10,464,3701103,,,2022-10-11,清算の結了等,,,2015-10-05,1,,,,,ケダイジキョウドウボチカンリカイ,0
1071,4080002016454,登記記録の閉鎖等,0,2022-10-18,2022-10-17,有限会社渡邊鉄工所,00067578,有限会社,静岡県,焼津市,駅北５丁目１１番３号,,22,212,4250028,,,2022-10-17,清算の結了等,,,2015-10-05,1,,,,,ワタナベテッコウジョ,0
1075,4080405004015,登記記録の閉鎖等,0,2022-10-18,2022-10-13,特定非営利活動法人むらちゃネット,,その他の設立登記法人,静岡県,浜松市西区,村櫛町３５８９番地の１,00068611,22,133,4311207,,,2022-10-13,清算の結了等,,,2015-10-05,1,,,,,ムラチャネット,0
1078,4110002002368,登記記録の閉鎖等,0,2022-10-18,2022-10-13,有限会社弘和商事,,有限会社,新潟県,新潟市中央区,網川原１丁目７番７号,,15,103,9500964,,,2022-10-13,清算の結了等,,,2015-10-05,1,,,,,コウワショウジ,0
1083,4120001142593,登記記録の閉鎖等,0,2022-10-18,2022-10-06,昭和産業株式会社,,株式会社,大阪府,大阪市西成区,南津守５丁目８番１８号,,27,122,5570063,,,2022-10-06,合併による解散等,5120001038584,令和４年１０月１日大阪市浪速区立葉二丁目２番２０号株式会社昭和製作所（5120001038584）に合併し解散,2015-10-05,1,,,,,ショウワサンギョウ,0
1117,4180002065235,登記記録の閉鎖等,0,2022-10-18,2022-10-11,有限会社内村工務店,,有限会社,愛知県,春日井市,如意申町７丁目９番地の１,,23,206,4860918,,,2022-10-11,清算の結了等,,,2015-10-05,1,,,,,ウチムラコウムテン,0
1118,4180002070557,登記記録の閉鎖等,0,2022-10-18,2022-10-11,有限会社メディカル・クリーン・プロダクツ販売,,有限会社,愛知県,春日井市,春日井上ノ町字割畑４番地の１,,23,206,4860961,,,2022-10-11,清算の結了等,,,2015-10-05,1,,,,,メディカルクリーンプロダクツハンバイ,0
1129,4190003002715,登記記録の閉鎖等,0,2022-10-18,2022-10-13,ＴＳ５１０合同会社,,合同会社,三重県,度会郡大紀町,阿曽５１０番地,,24,471,5192704,,,2022-10-13,合併による解散等,9180301020704,令和４年１０月１日名古屋市千種区内山一丁目２２番９号株式会社ＡＤＶＡＮＣＥ（9180301020704）に合併し解散,2017-05-31,1,,,,,ティーエスゴイチゼロ,0
1132,4200001035608,登記記録の閉鎖等,0,2022-10-18,2022-10-11,株式会社ＴＷＩＮＳ,,株式会社,愛知県,名古屋市瑞穂区,上坂町１丁目１７番地の４,,23,108,4670821,,,2022-10-11,清算の結了等,,,2018-10-11,1,,,,,ツインズ,0
1143,4260001011875,登記記録の閉鎖等,0,2022-10-18,2022-10-14,東中国ビジネス株式会社,,株式会社,岡山県,岡山市北区,平野５５６番地１,,33,101,7010151,,,2022-10-14,清算の結了等,,,2015-10-05,1,,,,,ヒガシチュウゴクビジネス,0
1144,4260001028589,登記記録の閉鎖等,0,2022-10-18,2022-10-04,三共化学工業株式会社,,株式会社,岡山県,岡山市北区,足守１１０番地,,33,101,7011463,,,2022-10-04,清算の結了等,,,2015-10-05,1,,,,,サンキョウカガクコウギョウ,0
1147,4260005004512,登記記録の閉鎖等,0,2022-10-18,2022-10-12,医療法人明清会,,その他の設立登記法人,岡山県,総社市,駅前１丁目３番２５号,,33,208,7191136,,,2022-10-12,清算の結了等,,,2015-10-05,1,,,,,メイセイカイ,0
1151,4290001010429,登記記録の閉鎖等,0,2022-10-18,2022-10-14,株式会社ボンユニ福岡,,株式会社,福岡県,福岡市中央区,白金２丁目３番８号,,40,133,8100012,,,2022-10-14,合併による解散等,5020001013746,令和４年１０月１日横浜市金沢区鳥浜町１２番５３株式会社ボストン商会（5020001013746）に合併し解散,2015-10-05,1,,,,,ボンユニフクオカ,0
1161,4330003006387,登記記録の閉鎖等,0,2022-10-18,2022-10-12,合同会社ＫＮカンパニー,,合同会社,熊本県,熊本市東区,花立３丁目１１番１１号,,43,102,8612118,,,2022-10-12,清算の結了等,,,2015-10-05,1,,,,,ケイエヌカンパニー,0
1162,4340001020570,登記記録の閉鎖等,0,2022-10-18,2022-10-17,株式会社フォトビジョンアルファ,,株式会社,鹿児島県,鹿児島市,新照院町６番５号永吉ビル３階,,46,201,8900016,,,2022-10-17,清算の結了等,,,2017-08-23,1,,,,,フォトビジョンアルファ,0
1168,4350002014182,登記記録の閉鎖等,0,2022-10-18,2022-10-12,有限会社佐藤建設工業,,有限会社,宮崎県,都城市,松元町１０街区１７号,,45,202,8850077,,,2022-10-12,清算の結了等,,,2015-10-05,1,,,,,サトウケンセツコウギョウ,0
1181,4390002007612,登記記録の閉鎖等,0,2022-10-18,2022-10-11,有限会社たかはし,,有限会社,山形県,酒田市,大町４番３９号,,06,204,9980859,,,2022-10-11,清算の結了等,,,2015-10-05,1,,,,,タカハシ,0
1182,4390002013338,登記記録の閉鎖等,0,2022-10-18,2022-10-11,有限会社藤春,,有限会社,山形県,米沢市,門東町２丁目４番３３号マンションテラセ３Ｆ－１号室,,06,202,9920039,,,2022-10-11,清算の結了等,,,2015-10-05,1,,,,,フジハル,0
1186,4430001036310,登記記録の閉鎖等,0,2022-10-18,2022-10-05,ＰＦＩまなび舎株式会社,,株式会社,北海道,札幌市中央区,北二条東１７丁目２番地,,01,101,0600032,,,2022-10-05,清算の結了等,,,2015-10-05,1,,,,,ピーエフアイマナビヤ,0
1197,4480002001671,登記記録の閉鎖等,0,2022-10-18,2022-10-14,有限会社河見商店,,有限会社,徳島県,徳島市,国府町府中７２３番地の７・８,,36,201,7793122,,,2022-10-14,清算の結了等,,,2015-10-05,1,,,,,カワミショウテン,0
1208,5010001108448,登記記録の閉鎖等,0,2022-10-18,2022-10-05,株式会社朝日サステイナビリティ・マネジメント,,株式会社,東京都,中央区,築地２丁目１２番１０号築地ＭＦビル２６号館５０１,,13,102,1040045,,,2022-10-05,合併による解散等,2010001035018,令和４年９月３０日東京都中央区築地二丁目１２番１０号築地ＭＦビル２６号館５０１株式会社朝日エル（2010001035018）に合併し解散,2015-10-05,1,,,,,アサヒサステイナビリティマネジメント,0
1217,5010001180447,登記記録の閉鎖等,0,2022-10-18,2022-10-11,株式会社ＧＲＥＰ,,株式会社,東京都,文京区,大塚３丁目２０番１号紅屋茗荷谷ビル６Ｆ,00114280,13,105,1120012,,,2022-10-11,清算の結了等,,,2016-12-28,1,,,,,グレップ,0
1222,5010401062419,登記記録の閉鎖等,0,2022-10-18,2022-09-29,株式会社ティー・アール・ケー,,株式会社,東京都,港区,六本木５丁目１０番２０号,,13,103,1060032,,,2022-09-29,清算の結了等,,,2015-10-05,1,,,,,ティーアールケー,0
1228,5010401142600,登記記録の閉鎖等,0,2022-10-18,2022-10-03,株式会社おうちのくふう,,株式会社,東京都,港区,三田１丁目４番２８号,,13,103,1080073,,,2022-10-03,合併による解散等,3010401141208,令和４年１０月１日東京都港区三田一丁目４番２８号株式会社くふう住まい（3010401141208）に合併し解散,2018-12-17,1,,,,,オウチノクフウ,0
1233,5010502017767,登記記録の閉鎖等,0,2022-10-18,2022-10-14,有限会社加賀屋鈴木,,有限会社,東京都,台東区,台東３丁目３番２号,,13,106,1100016,,,2022-10-14,清算の結了等,,,2015-10-05,1,,,,,カガヤスズキ,0
1240,5010701041130,登記記録の閉鎖等,0,2022-10-18,2022-10-11,東京晨美光学電子株式会社,,株式会社,東京都,品川区,南品川３丁目６－１トーヨービル,,13,109,1400004,,,2022-10-11,清算の結了等,,,2021-06-23,1,,,,,トウキョウシンビコウガクデンシ,0
1246,5011001060770,登記記録の閉鎖等,0,2022-10-18,2022-10-13,株式会社ステージワン,,株式会社,東京都,新宿区,市谷本村町２番６－９０２号,,13,104,1620845,,,2022-10-13,清算の結了等,,,2015-10-05,1,,,,,ステージワン,0
1256,5011103009749,登記記録の閉鎖等,0,2022-10-18,2022-10-14,合同会社Ｃｏｒａｌ,,合同会社,東京都,新宿区,四谷坂町４－１１ＳＴＡＧＥ四谷２０６,,13,104,1600002,,,2022-10-14,清算の結了等,,,2020-06-12,1,,,,,コーラル,0
1262,5011502006470,登記記録の閉鎖等,0,2022-10-18,2022-10-11,有限会社労作社,,有限会社,東京都,北区,赤羽西４丁目２３番５号,,13,117,1150055,,,2022-10-11,清算の結了等,,,2015-10-05,1,,,,,,0
1317,5050001007613,登記記録の閉鎖等,0,2022-10-18,2022-10-07,株式会社ささもと書店,,株式会社,茨城県,ひたちなか市,笹野町１丁目１６番１号,,08,221,3120018,,,2022-10-07,清算の結了等,,,2015-10-05,1,,,,,ササモトショテン,0
1325,5070002013658,登記記録の閉鎖等,0,2022-10-18,2022-10-11,有限会社アゼミ商事,,有限会社,群馬県,高崎市,中泉町６４１番地５,,10,202,3703524,,,2022-10-11,清算の結了等,,,2015-10-05,1,,,,,アゼミショウジ,0
1333,5100001020882,登記記録の閉鎖等,0,2022-10-18,2022-10-14,北条縫製株式会社,,株式会社,長野県,伊那市,山寺２８６番地４,,20,209,3960023,,,2022-10-14,清算の結了等,,,2015-10-05,1,,,,,ホウジョウホウセイ,0
1334,5100001029560,登記記録の閉鎖等,0,2022-10-18,2022-10-14,株式会社島田商店,,株式会社,長野県,長野市,松代町東条３４９８番地,,20,201,3811221,,,2022-10-14,清算の結了等,,,2016-08-16,1,,,,,シマダショウテン,0
1335,5110002021342,登記記録の閉鎖等,0,2022-10-18,2022-10-14,有限会社エスワン,,有限会社,新潟県,柏崎市,柳橋町２番７号,,15,205,9450831,,,2022-10-14,清算の結了等,,,2015-10-05,1,,,,,エスワン,0
1339,5120001089446,登記記録の閉鎖等,0,2022-10-18,2022-10-14,株式会社ボンユニ大阪,,株式会社,大阪府,大阪市中央区,久太郎町３丁目４番３０号,,27,128,5410056,,,2022-10-14,合併による解散等,5020001013746,令和４年１０月１日横浜市金沢区鳥浜町１２番５３株式会社ボストン商会（5020001013746）に合併し解散,2015-10-05,1,,,,,ボンユニオオサカ,0
1374,5150001001408,登記記録の閉鎖等,0,2022-10-18,2022-10-14,株式会社辻食料品店,00042609,株式会社,奈良県,奈良市,西大寺本町１番１６号,,29,201,6310816,,,2022-10-14,清算の結了等,,,2015-10-05,1,,,,,ツジショクリョウヒンテン,0
1376,5160005008051,登記記録の閉鎖等,0,2022-10-18,2022-10-04,特定非営利活動法人ブライト・ミッション,,その他の設立登記法人,京都府,京都市中京区,麩屋町通二条下る尾張町２１２番地,,26,104,6040934,,,2022-10-04,清算の結了等,,,2015-10-05,1,,,,,ブライトミッション,0
1379,5180001000654,登記記録の閉鎖等,0,2022-10-18,2022-10-11,株式会社第一工芸,,株式会社,愛知県,名古屋市守山区,瀬古１丁目７０８番地,,23,113,4630068,,,2022-10-11,清算の結了等,,,2015-10-05,1,,,,,ダイイチコウゲイ,0
1380,5180001044528,登記記録の閉鎖等,0,2022-10-18,2022-10-11,株式会社中部朝日広告,,株式会社,愛知県,名古屋市中区,栄１丁目３－３朝日会館,,23,106,4600008,,,2022-10-11,合併による解散等,3010001008872,令和４年１０月１日東京都中央区八丁堀四丁目３番３号ヒューリック新京橋ビル５階株式会社朝日エージェンシー（3010001008872）に合併し解散,2015-10-05,1,,,,,チュウブアサヒコウコク,0
1404,5240003002808,登記記録の閉鎖等,0,2022-10-18,2022-10-13,合同会社ＹＣ安浦,,合同会社,広島県,呉市,安浦町中央１丁目３番３１号,,34,202,7372516,,,2022-10-13,清算の結了等,,,2015-10-05,1,,,,,ワイシーヤスウラ,0
1417,5290001058970,登記記録の閉鎖等,0,2022-10-18,2022-10-11,株式会社メディカル・ファーマシー,,株式会社,福岡県,福岡市城南区,七隈５丁目１６番３１号,,40,136,8140133,,,2022-10-11,清算の結了等,,,2015-10-05,1,,,,,メディカルファーマシー,0
1435,5340002001602,登記記録の閉鎖等,0,2022-10-18,2022-10-17,有限会社ウィル,,有限会社,鹿児島県,鹿児島市,東開町４番地１１２,,46,201,8910115,,,2022-10-17,清算の結了等,,,2015-10-05,1,,,,,ウイル,0
1439,5360001006096,登記記録の閉鎖等,0,2022-10-18,2022-10-03,株式会社ホライズンネクスト,,株式会社,神奈川県,厚木市,中町４丁目８番１号,,14,212,2430018,,,2022-10-03,合併による解散等,2020001095622,令和４年１０月１日神奈川県厚木市岡田３０２８番地サンシャイン厚木ビル４階株式会社スマイル（2020001095622）に合併し解散,2015-10-05,1,,,,,ホライズンネクスト,0
1449,5410002007162,登記記録の閉鎖等,0,2022-10-18,2022-10-11,有限会社タカケン,,有限会社,秋田県,由利本荘市,東由利老方字五升畑４６番地１,,05,210,0150211,,,2022-10-11,清算の結了等,,,2015-10-05,1,,,,,タカケン,0
1451,5430001024140,登記記録の閉鎖等,0,2022-10-18,2022-10-04,株式会社ロダン,,株式会社,北海道,札幌市白石区,南郷通２１丁目南２番８号,,01,104,0030022,,,2022-10-04,清算の結了等,,,2015-10-05,1,,,,,ロダン,0
1481,6010001122852,登記記録の閉鎖等,0,2022-10-18,2022-10-07,旭化成マリンテック株式会社,,株式会社,東京都,千代田区,神田神保町１丁目１０５番地,,13,101,1010051,,,2022-10-07,清算の結了等,,,2015-10-05,1,,,,,アサヒカセイマリンテック,0
1487,6010001212942,登記記録の閉鎖等,0,2022-10-18,2022-10-03,株式会社ペリカンムーン,,株式会社,東京都,千代田区,霞が関３丁目２番５号霞が関ビルディング,,13,101,1000013,,,2022-10-03,合併による解散等,5010001031955,令和４年１０月１日東京都千代田区霞が関三丁目２番５号霞が関ビルディング株式会社ランドビジネス（5010001031955）に合併し解散,2020-10-13,1,,,,,ペリカンムーン,0
1496,6010401045744,登記記録の閉鎖等,0,2022-10-18,2022-10-12,株式会社エ・ポイ,,株式会社,東京都,三鷹市,下連雀３丁目６番３２号,,13,204,1810013,,,2022-10-12,清算の結了等,,,2015-10-05,1,,,,,エポイ,0
1501,6010403010894,登記記録の閉鎖等,0,2022-10-18,2022-10-14,合同会社新潟スマートソーラー,,合同会社,新潟県,新潟市中央区,新和１丁目６番２０号,,15,103,9500972,,,2022-10-14,清算の結了等,,,2015-10-05,1,,,,,ニイガタスマートソーラー,0
1502,6010501002307,登記記録の閉鎖等,0,2022-10-18,2022-10-05,株式会社おいしい御進物逸品会,,株式会社,東京都,台東区,柳橋１丁目１３番３号,,13,106,1110052,,,2022-10-05,合併による解散等,7110002005566,令和４年１０月１日新潟市中央区神道寺南二丁目４番１５号株式会社ＦＬＥＧＲＥ（7110002005566）に合併し解散,2015-10-05,1,,,,,オイシイゴシンモツイッピンカイ,0
1507,6010702009828,登記記録の閉鎖等,0,2022-10-18,2022-10-04,有限会社エフ・ケー,,有限会社,東京都,品川区,上大崎３丁目３番９号,,13,109,1410021,,,2022-10-04,清算の結了等,,,2015-10-05,1,,,,,エフケー,0
1513,6011001022555,登記記録の閉鎖等,0,2022-10-18,2022-10-06,株式会社三鈴,,株式会社,東京都,品川区,西五反田７丁目２２番１７号ＴＯＣビル,,13,109,1410031,,,2022-10-06,清算の結了等,,,2015-10-05,1,,,,,ミスズ,0
1547,6011802019320,登記記録の閉鎖等,0,2022-10-18,2022-10-12,有限会社ミヤビファーム,,有限会社,東京都,足立区,梅田７丁目２３番１１－３０１号,,13,121,1230851,,,2022-10-12,清算の結了等,,,2015-10-05,1,,,,,,0
1570,6021002014492,登記記録の閉鎖等,0,2022-10-18,2022-10-13,有限会社クローバー電機,,有限会社,神奈川県,鎌倉市,岡本９３１番地,,14,204,2470072,,,2022-10-13,清算の結了等,,,2015-10-05,1,,,,,,0
1604,6040001113551,登記記録の閉鎖等,0,2022-10-18,2022-10-07,株式会社ＮＥＳＴＡＲ,,株式会社,千葉県,山武市,松ヶ谷イ７２８番地２５,,12,237,2891300,,,2022-10-07,清算の結了等,,,2020-05-11,1,,,,,ネスター,0
1606,6040002093388,登記記録の閉鎖等,0,2022-10-18,2022-10-07,有限会社川村造園,,有限会社,千葉県,柏市,布瀬１５６１番地２,,12,217,2701464,,,2022-10-07,清算の結了等,,,2015-10-05,1,,,,,,0
1616,6060001029960,登記記録の閉鎖等,0,2022-10-18,2022-10-03,株式会社キッズコーポレーションホールディングス,,株式会社,栃木県,宇都宮市,南大通り２丁目６番１号ＫＩＤＳ１ＳＴＢＬＤ,,09,201,3210963,,,2022-10-03,合併による解散等,5060001001359,令和４年１０月３日栃木県宇都宮市南大通り二丁目６番１号ＫＩＤＳ１ＳＴＢＬＤ株式会社キッズコーポレーション（5060001001359）に合併し解散,2017-11-22,1,,,,,キッズコーポレーションホールディングス,0
1623,6100001013282,登記記録の閉鎖等,0,2022-10-18,2022-10-14,フィリックスシンセイ株式会社,,株式会社,長野県,松本市,大字笹賀５６５２番地４３,,20,202,3990033,,,2022-10-14,合併による解散等,4180001068305,令和４年１０月１日名古屋市中村区名駅一丁目１番１号ＪＰタワー名古屋１５Ｆフィリックス株式会社（4180001068305）に合併し解散,2015-10-05,1,,,,,フィリックスシンセイ,0
1632,6120001127345,登記記録の閉鎖等,0,2022-10-18,2022-10-11,株式会社きずな,,株式会社,大阪府,大阪市天王寺区,石ケ辻町１８番１５号,00029073,27,109,5430031,,,2022-10-11,清算の結了等,,,2015-10-05,1,,,,,キズナ,0
1651,6130001010772,登記記録の閉鎖等,0,2022-10-18,2022-10-06,株式会社サンワガス工業,,株式会社,京都府,京都市南区,吉祥院高畑町３５番地,,26,107,6018332,,,2022-10-06,清算の結了等,,,2015-10-05,1,,,,,サンワガスコウギョウ,0
1660,6140001070766,登記記録の閉鎖等,0,2022-10-18,2022-10-12,ワタナベ電機株式会社,,株式会社,兵庫県,西宮市,今津曙町３番９号,00039992,28,204,6638214,,,2022-10-12,清算の結了等,,,2015-10-05,1,,,,,ワタナベデンキ,0
1673,6180001072412,登記記録の閉鎖等,0,2022-10-18,2022-10-07,株式会社プロックスレンタカー,,株式会社,愛知県,名古屋市天白区,池場４丁目１７１６番,,23,116,4680055,,,2022-10-07,清算の結了等,,,2015-10-05,1,,,,,プロックスレンタカー,0
1675,6180001104545,登記記録の閉鎖等,0,2022-10-18,2022-10-11,株式会社ジェネスプロモーション,,株式会社,愛知県,長久手市,城屋敷８０１番地,,23,238,4801122,,,2022-10-11,合併による解散等,1180001120282,令和４年１０月１日名古屋市名東区本郷二丁目２１８番地株式会社ヒトトコＬａｂｏ（1180001120282）に合併し解散,2015-10-05,1,,,,,ジェネスプロモーション,0
1683,6180301010146,登記記録の閉鎖等,0,2022-10-18,2022-10-07,株式会社ニュー豊川建築事務所,,株式会社,愛知県,豊川市,東曙町６０番地,00074518,23,207,4420011,,,2022-10-07,清算の結了等,,,2015-10-05,1,,,,,ニュートヨカワケンチクジムショ,0
1709,6300002010589,登記記録の閉鎖等,0,2022-10-18,2022-10-11,有限会社橋本建設,,有限会社,佐賀県,唐津市,神田１４７１番地５,,41,202,8470824,,,2022-10-11,清算の結了等,,,2015-10-05,1,,,,,ハシモトケンセツ,0
1711,6310005005619,登記記録の閉鎖等,0,2022-10-18,2022-10-17,医療法人社団森医院,,その他の設立登記法人,長崎県,南島原市,加津佐町己３２５９番地１,,42,214,8592601,,,2022-10-17,清算の結了等,,,2015-10-05,1,,,,,モリイイン,0
1727,6370602001584,登記記録の閉鎖等,0,2022-10-18,2022-10-04,有限会社フレンドオート仙台,,有限会社,宮城県,宮城郡利府町,神谷沢字館ノ内７４番地の８,,04,406,9810121,,,2022-10-04,清算の結了等,,,2015-10-05,1,,,,,フレンドオートセンダイ,0
1732,6430001002434,登記記録の閉鎖等,0,2022-10-18,2022-09-30,株式会社エステール,,株式会社,北海道,札幌市豊平区,福住二条２丁目１１番１号,,01,105,0620042,,,2022-09-30,清算の結了等,,,2015-10-05,1,,,,,エステール,0
1733,6430001015551,登記記録の閉鎖等,0,2022-10-18,2022-10-05,株式会社アイ・ジー・エルワイ札幌,,株式会社,北海道,札幌市中央区,南十七条西９丁目２番２８号,,01,101,0640917,,,2022-10-05,清算の結了等,,,2015-10-05,1,,,,,アイジーエルワイサッポロ,0
1735,6430001056926,登記記録の閉鎖等,0,2022-10-18,2022-10-04,日新産業株式会社,,株式会社,北海道,室蘭市,海岸町１丁目９８番地１,,01,205,0510022,,,2022-10-04,清算の結了等,,,2015-10-05,1,,,,,ニッシンサンギョウ,0
1744,6440002000130,登記記録の閉鎖等,0,2022-10-18,2022-10-13,有限会社アースフレンド・ハシモト,,有限会社,北海道,函館市,北浜町２番１５号,,01,202,0400078,,,2022-10-13,合併による解散等,6430001033140,令和４年１０月１日北海道石狩市新港中央三丁目７５０番地３株式会社リプロワーク（6430001033140）に合併し解散,2015-10-05,1,,,,,,0
1745,6460001001664,登記記録の閉鎖等,0,2022-10-18,2022-10-14,マル政北洋水産株式会社,,株式会社,北海道,白糠郡白糠町,西庶路西二条南４丁目２番地３,,01,668,0880572,,,2022-10-14,清算の結了等,,,2015-10-05,1,,,,,マルマサホクヨウスイサン,0
1746,6460102003444,登記記録の閉鎖等,0,2022-10-18,2022-10-12,箕輪自動車整備工場有限会社,,有限会社,北海道,帯広市,東一条南２２丁目８番地,,01,207,0800801,,,2022-10-12,清算の結了等,,,2015-10-05,1,,,,,ミノワジドウシャセイビコウジョウ,0
1778,7010401098411,登記記録の閉鎖等,0,2022-10-18,2022-10-14,新潟スマートコミュニティ事業株式会社,,株式会社,新潟県,新潟市中央区,新和１丁目６番２０号,,15,103,9500972,,,2022-10-14,清算の結了等,,,2015-10-05,1,,,,,ニイガタスマートコミュニティジギョウ,0
1780,7010401099467,登記記録の閉鎖等,0,2022-10-18,2022-10-13,高松エステート株式会社,00109946,株式会社,東京都,千代田区,神田美土代町１番地１,,13,101,1010053,,,2022-10-13,合併による解散等,8120001059371,令和４年１０月１日大阪市淀川区新北野一丁目２番１３号高松エステート株式会社（8120001059371）に合併し解散,2015-10-05,1,,,,,タカマツエステート,0
1786,7010403025363,登記記録の閉鎖等,0,2022-10-18,2022-09-29,合同会社総合戦略研究会,,合同会社,東京都,港区,南青山２丁目２番１５号,,13,103,1070062,,,2022-09-29,清算の結了等,,,2021-05-21,1,,,,,ソウゴウセンリャクケンキュウカイ,0
1790,7010602004960,登記記録の閉鎖等,0,2022-10-18,2022-10-07,有限会社武田製作所,,有限会社,東京都,江東区,北砂７丁目５番２号,,13,108,1360073,,,2022-10-07,清算の結了等,,,2015-10-05,1,,,,,タケダセイサクショ,0
1812,7011303003038,登記記録の閉鎖等,0,2022-10-18,2022-10-07,合同会社Ａｒｔ　Ｂｒｉｄｇｅ,,合同会社,東京都,杉並区,和泉２丁目１１番１号Ｈｉ－ＲＯＯＭＳ明大前Ｂ１０２,,13,115,1680063,,,2022-10-07,清算の結了等,,,2018-06-12,1,,,,,アートブリッジ,0
1827,7020001143260,登記記録の閉鎖等,0,2022-10-18,2022-10-05,ＵＬＵ　ＧＡＭＥＳ　ＪＡＰＡＮ株式会社,,株式会社,神奈川県,川崎市幸区,中幸町３丁目３１番地２,,14,132,2120012,,,2022-10-05,清算の結了等,,,2021-10-04,1,,,,,ウルゲームスジャパン,0
1840,7021002019499,登記記録の閉鎖等,0,2022-10-18,2022-10-13,有限会社共和電機,,有限会社,神奈川県,相模原市緑区,下九沢１２９０番地,,14,151,2520134,,,2022-10-13,清算の結了等,,,2015-10-05,1,,,,,キョウワデンキ,0
1841,7021002035026,登記記録の閉鎖等,0,2022-10-18,2022-10-13,有限会社三光サービス,,有限会社,神奈川県,足柄上郡中井町,久所２３７番地６,,14,361,2590142,,,2022-10-13,清算の結了等,,,2015-10-05,1,,,,,サンコウサービス,0
1861,7040001081582,登記記録の閉鎖等,0,2022-10-18,2022-10-06,株式会社富士商事,,株式会社,千葉県,市原市,白金町５丁目３番地,,12,219,2900059,,,2022-10-06,清算の結了等,,,2015-10-05,1,,,,,フジショウジ,0
1867,7040002055552,登記記録の閉鎖等,0,2022-10-18,2022-10-07,有限会社ナチュラル・グリーン,,有限会社,千葉県,習志野市,鷺沼１丁目３番７号,,12,216,2750014,,,2022-10-07,清算の結了等,,,2015-10-05,1,,,,,ナチュラルグリーン,0
1869,7040003018129,登記記録の閉鎖等,0,2022-10-18,2022-10-07,合同会社Ｂ－ＰＬＵＳ,,合同会社,千葉県,松戸市,稔台８丁目３７番地２,,12,207,2702231,,,2022-10-07,清算の結了等,,,2021-07-09,1,,,,,ビープラス,0
1882,7080401011978,登記記録の閉鎖等,0,2022-10-18,2022-10-17,日成住宅資材株式会社,,株式会社,静岡県,浜松市北区,細江町中川１８７６番地の１,,22,135,4311304,,,2022-10-17,清算の結了等,,,2015-10-05,1,,,,,ニッセイジュウタクシザイ,0
1884,7080401014948,登記記録の閉鎖等,0,2022-10-18,2022-10-13,藤江工業株式会社,,株式会社,静岡県,菊川市,本所１５７０番地の１,,22,224,4390018,,,2022-10-13,清算の結了等,,,2015-10-05,1,,,,,フジエコウギョウ,0
1913,7130001000319,登記記録の閉鎖等,0,2022-10-18,2022-10-07,株式会社海老名写真型製作所,,株式会社,京都府,京都市右京区,山ノ内山ノ下町１５番地,,26,108,6150084,,,2022-10-07,清算の結了等,,,2015-10-05,1,,,,,エビナシャシンガタセイサクショ,0
1919,7140001011331,登記記録の閉鎖等,0,2022-10-18,2022-10-14,株式会社モトーレン神戸,,株式会社,兵庫県,神戸市中央区,小野柄通５丁目１番２０号,,28,110,6510088,,,2022-10-14,清算の結了等,,,2015-10-05,1,,,,,モトーレンコウベ,0
1922,7140001050370,登記記録の閉鎖等,0,2022-10-18,2022-10-13,南海自動車株式会社,,株式会社,兵庫県,尼崎市,菜切山町９番地,,28,202,6600073,,,2022-10-13,清算の結了等,,,2015-10-05,1,,,,,ナンカイジドウシャ,0
1933,7140005023133,登記記録の閉鎖等,0,2022-10-18,2022-10-14,一般社団法人Ｉｎｆｌｏｒｅ,,その他の設立登記法人,大阪府,大阪市淀川区,三国本町２丁目１３番１４号,,27,123,5320005,,,2022-10-14,清算の結了等,,,2016-08-26,1,,,,,インフローレ,0
1963,7240001026154,登記記録の閉鎖等,0,2022-10-18,2022-10-12,株式会社田島,,株式会社,広島県,呉市,郷原町字一ノ松光山１２５０７番地９２０,,34,202,7370161,,,2022-10-12,合併による解散等,3122001003108,令和４年１０月１日東京都江戸川区東葛西三丁目１７番４１号三洋商事株式会社（3122001003108）に合併し解散,2015-10-05,1,,,,,タシマ,0
1968,7260001024940,登記記録の閉鎖等,0,2022-10-18,2022-10-17,株式会社藤田,,株式会社,岡山県,倉敷市,片島町９０３番地６,,33,202,7100805,,,2022-10-17,清算の結了等,,,2015-10-05,1,,,,,フジタ,0
1990,7330002027308,登記記録の閉鎖等,0,2022-10-18,2022-10-12,有限会社九州サンエイ,,有限会社,熊本県,八代市,永碇町８５５番地５,,43,202,8660885,,,2022-10-12,清算の結了等,,,2015-10-05,1,,,,,キュウシュウサンエイ,0
1992,7340001009157,登記記録の閉鎖等,0,2022-10-18,2022-10-13,フォービステクノ株式会社,,株式会社,鹿児島県,薩摩郡さつま町,時吉２０３８番地５,,46,392,8951816,,,2022-10-13,合併による解散等,1011701006077,令和４年１０月１日東京都江東区亀戸四丁目３６番１４号日本フォームサービス株式会社（1011701006077）に合併し解散,2015-10-05,1,,,,,フォービステクノ,0
2000,7370202000903,登記記録の閉鎖等,0,2022-10-18,2022-10-11,有限会社日向養豚,,有限会社,宮城県,大崎市,田尻大貫字北長根９１番地,,04,215,9894302,,,2022-10-11,清算の結了等,,,2015-10-05,1,,,,,,0
2002,7390001008872,登記記録の閉鎖等,0,2022-10-18,2022-10-11,株式会社東北電子,,株式会社,山形県,新庄市,大字福田７１１番地１５８,,06,205,9960053,,,2022-10-11,清算の結了等,,,2015-10-05,1,,,,,トウホクデンシ,0
2007,7430001015897,登記記録の閉鎖等,0,2022-10-18,2022-09-30,株式会社堀家具製作所,,株式会社,北海道,札幌市豊平区,月寒東四条１７丁目１１番３１号,,01,105,0620054,,,2022-09-30,清算の結了等,,,2015-10-05,1,,,,,ホリカグセイサクショ,0
2028,8010001066651,登記記録の閉鎖等,0,2022-10-18,2022-10-12,株式会社ネオテックエンジニアリング,,株式会社,東京都,葛飾区,東新小岩８丁目２９番１６－１０２号,,13,122,1240023,,,2022-10-12,清算の結了等,,,2015-10-05,1,,,,,ネオテックエンジニアリング,0
2039,8010005021842,登記記録の閉鎖等,0,2022-10-18,2022-10-14,一般社団法人ＳＣＫＴインベストメント,,その他の設立登記法人,東京都,千代田区,九段南３丁目７番７号成和綜合会計事務所内,,13,101,1020074,,,2022-10-14,清算の結了等,,,2015-10-05,1,,,,,エスシーケーティーインベストメント,0
2041,8010401048068,登記記録の閉鎖等,0,2022-10-18,2022-09-28,アイピーピージャパン株式会社,,株式会社,東京都,港区,新橋２丁目１６番１号ニュー新橋ビル６０１－Ａ,,13,103,1050004,,,2022-09-28,清算の結了等,,,2015-10-05,1,,,,,,0
2047,8010401161928,登記記録の閉鎖等,0,2022-10-18,2022-09-29,ＵＬ　Ｍｅｄテック株式会社,,株式会社,東京都,港区,南青山２丁目２番１５号ウィン青山９４２,,13,103,1070062,,,2022-09-29,清算の結了等,,,2021-08-06,1,,,,,ユエルメェッドテック,0
2048,8010401164906,登記記録の閉鎖等,0,2022-10-18,2022-09-28,株式会社Ｍｉｌｌｉｏｎ　Ｔｏｋｙｏ,,株式会社,東京都,港区,麻布十番２丁目２番５号,,13,103,1060045,,,2022-09-28,清算の結了等,,,2022-01-18,1,,,,,ミリオントウキョウ,0
2055,8010901010469,登記記録の閉鎖等,0,2022-10-18,2022-10-13,株式会社フェリックス,,株式会社,東京都,世田谷区,深沢８丁目１９番６号,,13,112,1580081,,,2022-10-13,清算の結了等,,,2015-10-05,1,,,,,フェリックス,0
2057,8010903001202,登記記録の閉鎖等,0,2022-10-18,2022-09-26,アイシーシーエム合同会社,,合同会社,茨城県,笠間市,東平２丁目８番１０号,,08,216,3091705,,,2022-09-26,清算の結了等,,,2015-10-05,1,,,,,アイシーシーエム,0
2073,8011003006843,登記記録の閉鎖等,0,2022-10-18,2022-10-11,株式会社Ｊａｐａｎ　Ｃｒｅａｔｉｖｅ　Ａｒｔｓ,,株式会社,東京都,中央区,日本橋茅場町３丁目１２－９,,13,102,1030025,,,2022-10-11,清算の結了等,,,2016-06-06,1,,,,,,0
2088,8012401004190,登記記録の閉鎖等,0,2022-10-18,2022-10-13,株式会社アーバンライフ,,株式会社,東京都,小金井市,前原町４丁目１４番２１号,,13,210,1840013,,,2022-10-13,清算の結了等,,,2015-10-05,1,,,,,アーバンライフ,0
2118,8030001003396,登記記録の閉鎖等,0,2022-10-18,2022-10-12,株式会社埼玉石田,,株式会社,埼玉県,さいたま市北区,別所町５２番地２ウェルズ別所Ａ１０５号室,,11,102,3310821,,,2022-10-12,合併による解散等,3070001006177,令和４年１０月１日群馬県高崎市上中居町６８４番地石田建材工業株式会社（3070001006177）に合併し解散,2015-10-05,1,,,,,サイタマイシダ,0
2134,8040001085855,登記記録の閉鎖等,0,2022-10-18,2022-10-06,株式会社戸邉商事,,株式会社,千葉県,野田市,上花輪１１３７番地,,12,208,2780033,,,2022-10-06,清算の結了等,,,2015-10-05,1,,,,,トベショウジ,0
2138,8040002102361,登記記録の閉鎖等,0,2022-10-18,2022-10-06,有限会社原藥局,,有限会社,千葉県,勝浦市,興津２６７２番地,,12,218,2995245,,,2022-10-06,清算の結了等,,,2015-10-05,1,,,,,ハラヤッキョク,0
2150,8050002033309,登記記録の閉鎖等,0,2022-10-18,2022-10-07,有限会社茶の多楼園,,有限会社,茨城県,龍ケ崎市,４５３０番地,,08,208,3010000,,,2022-10-07,清算の結了等,,,2015-10-05,1,,,,,チャノタロウエン,0
2151,8060002040089,登記記録の閉鎖等,0,2022-10-18,2022-10-07,有限会社中沢商店,,有限会社,栃木県,佐野市,葛生西２丁目２番２７号,,09,204,3270507,,,2022-10-07,清算の結了等,,,2015-10-05,1,,,,,ナカザワショウテン,0
2154,8070001016452,登記記録の閉鎖等,0,2022-10-18,2022-10-11,柳河マシンテック株式会社,,株式会社,群馬県,桐生市,新里町山上２２８４番地１,,10,203,3760125,,,2022-10-11,合併による解散等,2012401001755,令和４年１０月１日東京都府中市宮西町一丁目１６番地の３第一みよしビル３階柳河精機株式会社（2012401001755）に合併し解散,2015-10-05,1,,,,,ヤナガワマシンテック,0
2160,8070005007654,登記記録の閉鎖等,0,2022-10-18,2022-10-05,岩本牧野農業協同組合,,その他の設立登記法人,群馬県,吾妻郡中之条町,大字岩本１５０８番地,,10,421,3770431,,,2022-10-05,清算の結了等,,,2015-10-05,1,,,,,イワモトボクヤ,0
2166,8080405000522,登記記録の閉鎖等,0,2022-10-18,2022-10-11,浜松システム開発協同組合,,その他の設立登記法人,静岡県,浜松市南区,卸本町９８番地,,22,134,4328055,,,2022-10-11,清算の結了等,,,2015-10-05,1,,,,,ハママツシステムカイハツ,0
2175,8100005002858,登記記録の閉鎖等,0,2022-10-18,2022-10-13,特定非営利活動法人健康を考える会,,その他の設立登記法人,長野県,長野市,大字高田１０５３番地２、３０３,,20,201,3810034,,,2022-10-13,清算の結了等,,,2015-10-05,1,,,,,ケンコウヲカンガエルカイ,0
2177,8120001004427,登記記録の閉鎖等,0,2022-10-18,2022-10-14,明和商事株式会社,,株式会社,大阪府,大阪市西成区,梅南２丁目４番２６号,,27,122,5570033,,,2022-10-14,清算の結了等,,,2015-10-05,1,,,,,メイワショウジ,0
2184,8120001153793,登記記録の閉鎖等,0,2022-10-18,2022-10-11,株式会社エフテック,,株式会社,大阪府,枚方市,東中振１丁目５１番２号,,27,210,5730093,,,2022-10-11,清算の結了等,,,2015-10-05,1,,,,,エフテック,0
2200,8122001019339,登記記録の閉鎖等,0,2022-10-18,2022-10-14,鉄村株式会社,,株式会社,大阪府,八尾市,山城町５丁目１番２号,,27,212,5810801,,,2022-10-14,清算の結了等,,,2015-10-05,1,,,,,テツムラ,0
2205,8140001045188,登記記録の閉鎖等,0,2022-10-18,2022-10-05,ハリマペーパーテック株式会社,,株式会社,兵庫県,加古川市,別府町西脇２丁目３４番地,,28,210,6750125,,,2022-10-05,合併による解散等,3260001019886,令和４年１０月１日岡山県津山市川崎２００番地１大成製紙株式会社（3260001019886）に合併し解散,2015-10-05,1,,,,,ハリマペーパーテック,0
2222,8180001025129,登記記録の閉鎖等,0,2022-10-18,2022-10-14,株式会社亀島建工,,株式会社,愛知県,海部郡大治町,大字長牧字前田３４番地の２,,23,424,4901131,,,2022-10-14,清算の結了等,,,2015-10-05,1,,,,,カメジマケンコウ,0
2234,8180001134433,登記記録の閉鎖等,0,2022-10-18,2022-10-03,エスケーアイフロンティア株式会社,,株式会社,愛知県,名古屋市中区,千代田５丁目２１番２０号,,23,106,4600012,,,2022-10-03,合併による解散等,1180001125348,令和４年１０月１日名古屋市中区千代田五丁目２１番２０号株式会社エスケーアイ（1180001125348）に合併し解散,2018-11-14,1,,,,,エスケーアイフロンティア,0
2236,8180001148680,登記記録の閉鎖等,0,2022-10-18,2022-10-12,エコハート株式会社,,株式会社,愛知県,名古屋市西区,長先町９９番地,,23,104,4520838,,,2022-10-12,清算の結了等,,,2021-11-16,1,,,,,エコハート,0
2241,8180302020836,登記記録の閉鎖等,0,2022-10-18,2022-10-05,有限会社高棚テクニカル,,有限会社,愛知県,安城市,高棚町芦池９５番地２,00075150,23,212,4460053,,,2022-10-05,清算の結了等,,,2015-10-05,1,,,,,タカタナテクニカル,0
2242,8180303002908,登記記録の閉鎖等,0,2022-10-18,2022-10-12,合名会社徳定屋製粉所,00075321,合名会社,愛知県,新城市,字橋向６９番地,,23,221,4411388,,,2022-10-12,清算の結了等,,,2015-10-05,1,,,,,トクサダヤセイフンジョ,0
2247,8210002011215,登記記録の閉鎖等,0,2022-10-18,2022-10-04,有限会社ユー・シー・ジェイ,,有限会社,福井県,敦賀市,莇生野７３号１３番地の３,,18,202,9140141,,,2022-10-04,合併による解散等,8210001017386,令和４年１０月１日福井県敦賀市莇生野７３号１３番地の３株式会社Ｅｓｐｅｒａｎｃｅ（8210001017386）に合併し解散,2015-10-05,1,,,,,ユーシージェイ,0
2258,8290001049281,登記記録の閉鎖等,0,2022-10-18,2022-10-06,株式会社中園器械店,,株式会社,福岡県,久留米市,本町２番地の３０,,40,203,8300044,,,2022-10-06,清算の結了等,,,2015-10-05,1,,,,,ナカゾノキカイテン,0
2273,8330002018413,登記記録の閉鎖等,0,2022-10-18,2022-10-12,有限会社川島屋,,有限会社,熊本県,山鹿市,鹿本町来民１６８０番地の３,,43,208,8610331,,,2022-10-12,清算の結了等,,,2015-10-05,1,,,,,カワシマヤ,0
2290,8370002003460,登記記録の閉鎖等,0,2022-10-18,2022-10-07,有限会社データファーム,,有限会社,宮城県,仙台市青葉区,大手町２－２５－１５０１,,04,101,9800805,,,2022-10-07,清算の結了等,,,2015-10-05,1,,,,,データファーム,0
2292,8370202004597,登記記録の閉鎖等,0,2022-10-18,2022-10-06,有限会社齋藤鉄工,,有限会社,宮城県,栗原市,若柳字川北東若柳１１１番地,,04,213,9895501,,,2022-10-06,清算の結了等,,,2015-10-05,1,,,,,サイトウテッコウ,0
2319,9010001191201,登記記録の閉鎖等,0,2022-10-18,2022-10-11,株式会社ワイワイ,,株式会社,東京都,中央区,日本橋茅場町１丁目６番１７号,,13,102,1030025,,,2022-10-11,清算の結了等,,,2018-04-18,1,,,,,ワイワイ,0
2320,9010001214424,登記記録の閉鎖等,0,2022-10-18,2022-09-26,株式会社クラウディオデジタルオフィス,,株式会社,東京都,中央区,銀座１丁目１６番７号,,13,102,1040061,,,2022-09-26,合併による解散等,3010001201808,令和４年８月１２日東京都中央区京橋三丁目１番１号株式会社クラウディオ（3010001201808）に合併し解散,2020-12-21,1,,,,,クラウディオデジタルオフィス,0
2326,9010401029570,登記記録の閉鎖等,0,2022-10-18,2022-09-29,望月自動車工業株式会社,,株式会社,東京都,港区,芝浦２丁目６番１６号,,13,103,1080023,,,2022-09-29,清算の結了等,,,2015-10-05,1,,,,,モチヅキジドウシャコウギョウ,0
2335,9010402005100,登記記録の閉鎖等,0,2022-10-18,2022-09-28,有限会社古美術藤倉,,有限会社,東京都,港区,南青山６丁目７番４－８号,,13,103,1070062,,,2022-09-28,清算の結了等,,,2015-10-05,1,,,,,,0
2340,9010501014142,登記記録の閉鎖等,0,2022-10-18,2022-10-14,山真産業株式会社,,株式会社,東京都,台東区,浅草１丁目３７番１号,,13,106,1110032,,,2022-10-14,清算の結了等,,,2015-10-05,1,,,,,ヤマシンサンギョウ,0
2355,9011001115678,登記記録の閉鎖等,0,2022-10-18,2022-10-03,株式会社幻冬舎ルネッサンス新社,,株式会社,東京都,渋谷区,千駄ヶ谷４丁目９番７号,,13,113,1510051,,,2022-10-03,合併による解散等,8011001045042,令和４年１０月１日東京都渋谷区千駄ケ谷四丁目９番７号株式会社幻冬舎メディアコンサルティング（8011001045042）に合併し解散,2017-04-06,1,,,,,ゲントウシャルネッサンスシンシャ,0
2356,9011001117484,登記記録の閉鎖等,0,2022-10-18,2022-10-03,株式会社メイクスコミュニティー,,株式会社,東京都,渋谷区,東１丁目２番２０号,,13,113,1500011,,,2022-10-03,合併による解散等,1011001091101,令和４年１０月１日東京都渋谷区東一丁目２番２０号株式会社メイクスマネジメント（1011001091101）に合併し解散,2017-07-24,1,,,,,メイクスコミュニティー,0
2358,9011001121478,登記記録の閉鎖等,0,2022-10-18,2022-10-03,株式会社幻冬舎デザインプロ,,株式会社,東京都,渋谷区,千駄ヶ谷４丁目９番７号,,13,113,1510051,,,2022-10-03,合併による解散等,8011001045042,令和４年１０月１日東京都渋谷区千駄ケ谷四丁目９番７号株式会社幻冬舎メディアコンサルティング（8011001045042）に合併し解散,2018-04-09,1,,,,,ゲントウシャデザインプロ,0
2378,9012301008753,登記記録の閉鎖等,0,2022-10-18,2022-10-11,株式会社イーアース,,株式会社,東京都,町田市,森野３丁目７番１号Ｂ６,,13,209,1940022,,,2022-10-11,清算の結了等,,,2015-10-05,1,,,,,イーアース,0
2381,9012401019304,登記記録の閉鎖等,0,2022-10-18,2022-10-07,株式会社マザートゥリー,,株式会社,東京都,国分寺市,西町２丁目３番地１１,,13,214,1850035,,,2022-10-07,清算の結了等,,,2015-10-05,1,,,,,マザートゥリー,0
2385,9013301021556,登記記録の閉鎖等,0,2022-10-18,2022-10-14,豊島宅建株式会社,,株式会社,東京都,豊島区,東池袋１丁目３１番６号,,13,116,1700013,,,2022-10-14,清算の結了等,,,2015-10-05,1,,,,,トシマタッケン,0
2387,9020001007918,登記記録の閉鎖等,0,2022-10-18,2022-10-06,ハイウエイフオート株式会社,,株式会社,神奈川県,横浜市戸塚区,深谷町６３７番地－１０１,,14,110,2450067,,,2022-10-06,清算の結了等,,,2015-10-05,1,,,,,ハイウエイフオート,0
2388,9020001030837,登記記録の閉鎖等,0,2022-10-18,2022-10-11,株式会社ニポエヌエスジー,,株式会社,神奈川県,横浜市中区,花咲町３丁目８７番地,,14,104,2310063,,,2022-10-11,清算の結了等,,,2015-10-05,1,,,,,ニポエヌエスジー,0
2393,9020001116314,登記記録の閉鎖等,0,2022-10-18,2022-10-11,株式会社ＳＰＥＣ,,株式会社,神奈川県,川崎市宮前区,宮崎２丁目３番地１,,14,136,2160033,,,2022-10-11,清算の結了等,,,2016-05-26,1,,,,,スペック,0
2402,9020002071541,登記記録の閉鎖等,0,2022-10-18,2022-10-06,有限会社カラージェニック,,有限会社,神奈川県,横浜市港北区,師岡町１０５０番地,,14,109,2220002,,,2022-10-06,清算の結了等,,,2015-10-05,1,,,,,カラージェニック,0
2403,9020003013146,登記記録の閉鎖等,0,2022-10-18,2022-10-06,ＹＫプランニング合同会社,,合同会社,神奈川県,横浜市港北区,新吉田東６丁目２０番１－２０２号,,14,109,2230058,,,2022-10-06,清算の結了等,,,2017-08-15,1,,,,,ワイケイプランニング,0
2423,9030002059585,登記記録の閉鎖等,0,2022-10-18,2022-10-06,有限会社飯沼精機,,有限会社,埼玉県,志木市,上宗岡２丁目１８番１６号,,11,228,3530001,,,2022-10-06,清算の結了等,,,2015-10-05,1,,,,,イイヌマセイキ,0
2424,9030003016032,登記記録の閉鎖等,0,2022-10-18,2022-10-05,合同会社スタイル,,合同会社,埼玉県,草加市,吉町２丁目７番９号Ｋコーポ２Ｂ号室,,11,221,3400017,,,2022-10-05,清算の結了等,,,2020-10-12,1,,,,,スタイル,0
2430,9040001020704,登記記録の閉鎖等,0,2022-10-18,2022-10-03,株式会社小池電機,,株式会社,千葉県,八千代市,吉橋１７８０番地,,12,221,2760047,,,2022-10-03,合併による解散等,9040001021173,令和４年１０月１日千葉県八千代市吉橋１７７１番地株式会社丸池電気商会（9040001021173）に合併し解散,2015-10-05,1,,,,,コイケデンキ,0
2443,9050001032319,登記記録の閉鎖等,0,2022-10-18,2022-10-07,株式会社広田建材店,,株式会社,茨城県,桜川市,明日香４丁目４０番地,,08,231,3091216,,,2022-10-07,清算の結了等,,,2015-10-05,1,,,,,ヒロタケンザイテン,0
2444,9050002001223,登記記録の閉鎖等,0,2022-10-18,2022-10-07,公隆建設有限会社,,有限会社,茨城県,水戸市,鯉淵町４０９４番地１,,08,201,3190323,,,2022-10-07,清算の結了等,,,2015-10-05,1,,,,,コウリュウケンセツ,0
2458,9080001004323,登記記録の閉鎖等,0,2022-10-18,2022-10-17,疋野眼鏡光学株式会社,,株式会社,静岡県,静岡市葵区,七間町７番地の４,,22,101,4200035,,,2022-10-17,清算の結了等,,,2015-10-05,1,,,,,ヒキノガンキョウコウガク,0
2462,9080405003549,登記記録の閉鎖等,0,2022-10-18,2022-10-11,静岡県西部ペット繁殖業協同組合,,その他の設立登記法人,静岡県,浜松市浜北区,中条２５１番地,,22,136,4340043,,,2022-10-11,清算の結了等,,,2015-10-05,1,,,,,シズオカケンセイブペットハンショクギョウ,0
2489,9130002029751,登記記録の閉鎖等,0,2022-10-18,2022-10-12,有限会社フォーツリーズ,,有限会社,大阪府,堺市北区,中百舌鳥町２丁４０番地１,,27,146,5918023,,,2022-10-12,合併による解散等,8120001082605,令和４年１０月１日横浜市港北区新横浜三丁目１７番６号株式会社ココカラファインヘルスケア（8120001082605）に合併し解散,2015-10-05,1,,,,,フォーツリーズ,0
2494,9150001002773,登記記録の閉鎖等,0,2022-10-18,2022-10-13,株式会社アール・エス,,株式会社,奈良県,奈良市,尼辻中町１０番２７号,00042675,29,201,6308024,,,2022-10-13,合併による解散等,6120001120886,令和４年１０月１日大阪市淀川区宮原三丁目５番３６号株式会社フロンティア（6120001120886）に合併し解散,2015-10-05,1,,,,,アールエス,0
2514,9190001019839,登記記録の閉鎖等,0,2022-10-18,2022-10-13,株式会社オードリー,,株式会社,三重県,桑名市,新西方１丁目２２番イオン桑名ショッピングセンター２番街,,24,205,5110863,,,2022-10-13,清算の結了等,,,2015-10-05,1,,,,,オードリー,0
2525,9240002038832,登記記録の閉鎖等,0,2022-10-18,2022-10-07,パーセル福山有限会社,,有限会社,広島県,福山市,神辺町字平野６６９番地１,,34,207,7202116,,,2022-10-07,清算の結了等,,,2015-10-05,1,,,,,パーセルフクヤマ,0
2526,9240002042909,登記記録の閉鎖等,0,2022-10-18,2022-10-14,平成石油有限会社,,有限会社,広島県,福山市,千田町３丁目６２番１１号,,34,207,7200017,,,2022-10-14,清算の結了等,,,2015-10-05,1,,,,,ヘイセイセキユ,0
2540,9330001026977,登記記録の閉鎖等,0,2022-10-18,2022-10-12,株式会社阿蘇みらい企画,,株式会社,熊本県,阿蘇市,蔵原８５４番地４,,43,214,8692224,,,2022-10-12,清算の結了等,,,2019-11-25,1,,,,,アソミライキカク,0
2544,9370103000777,登記記録の閉鎖等,0,2022-10-18,2022-10-07,グッドバランス合同会社,,合同会社,宮城県,刈田郡蔵王町,宮字坂下５８番地,,04,301,9890701,,,2022-10-07,清算の結了等,,,2015-10-05,1,,,,,グッドバランス,0
2548,9380001020166,登記記録の閉鎖等,0,2022-10-18,2022-10-06,株式会社白川企画,,株式会社,福島県,西白河郡西郷村,大字小田倉字大窪３番２０,,07,461,9618061,,,2022-10-06,清算の結了等,,,2015-10-05,1,,,,,シラカワキカク,0
