sequenceNumber,corporateNumber,process,correct,updateDate,changeDate,name,nameImageId,kind,prefectureName,cityName,streetNumber,addressImageId,prefectureCode,cityCode,postCode,addressOutside,addressOutsideImageId,closeDate,closeCause,successorCorporateNumber,changeCause,assignmentDate,latest,enName,enPrefectureName,enCityName,enAddressOutside,furigana,hihyoji
1,1010001035480,登記記録の閉鎖等,0,2024-09-02,2024-08-30,當間株式会社,,株式会社,沖縄県,浦添市,仲西２丁目４番２３－３０２号丸工アパート,,47,208,9012125,,,2024-08-30,清算の結了等,,,2015-10-05,1,,,,,トウマ,0
3,1010001088628,登記記録の閉鎖等,0,2024-09-02,2024-08-21,株式会社和み,,株式会社,東京都,中央区,日本橋堀留町１丁目１０番１９号,,13,102,1030012,,,2024-08-21,清算の結了等,,,2015-10-05,1,,,,,,0
24,1010801030037,登記記録の閉鎖等,0,2024-09-02,2024-08-27,Ｔｈｅ　Ｇｒｅａｔ　Ｆｒｏｇ　Ｔｏｋｙｏ株式会社,,株式会社,東京都,大田区,田園調布１丁目５５番２０号,,13,111,1450071,,,2024-08-27,清算の結了等,,,2019-07-18,1,,,,,ザグレートフロッグトーキョー,0
28,1011001023319,登記記録の閉鎖等,0,2024-09-02,2024-08-08,株式会社モンココ,,株式会社,東京都,渋谷区,宇田川町１３番４号,,13,113,1500042,,,2024-08-08,清算の結了等,,,2015-10-05,1,,,,,モンココ,0
29,1011001065237,登記記録の閉鎖等,0,2024-09-02,2024-08-26,キューフォー株式会社,,株式会社,東京都,豊島区,高松１丁目６番２号,,13,116,1710042,,,2024-08-26,清算の結了等,,,2015-10-05,1,,,,,キューフォー,0
84,1021002033869,登記記録の閉鎖等,0,2024-09-02,2024-08-29,有限会社エーワンシー,,有限会社,神奈川県,愛甲郡愛川町,半原４３４０番地,,14,401,2430307,,,2024-08-29,清算の結了等,,,2015-10-05,1,,,,,エーワンシー,0
95,1040001060781,登記記録の閉鎖等,0,2024-09-02,2024-08-22,千葉環境車輌販売株式会社,,株式会社,千葉県,木更津市,長須賀１８００番地,,12,206,2920054,,,2024-08-22,清算の結了等,,,2015-10-05,1,,,,,チバカンキョウシャリョウハンバイ,0
99,1040001119594,登記記録の閉鎖等,0,2024-09-02,2024-08-21,ＹＫ・サクセス株式会社,,株式会社,千葉県,柏市,南増尾７丁目１１番９号,,12,217,2770054,,,2024-08-21,清算の結了等,,,2021-08-05,1,,,,,ワイケーサクセス,0
101,1040002103036,登記記録の閉鎖等,0,2024-09-02,2024-08-22,有限会社鈴木養蜂場,,有限会社,千葉県,夷隅郡大多喜町,平沢１２６７番地,,12,441,2980254,,,2024-08-22,清算の結了等,,,2015-10-05,1,,,,,スズキヨウホウジョウ,0
108,1080101019195,登記記録の閉鎖等,0,2024-09-02,2024-08-22,株式会社ユラック,,株式会社,静岡県,富士市,今泉３９７７番地の１,,22,210,4170001,,,2024-08-22,清算の結了等,,,2016-07-04,1,,,,,ユラック,0
116,1100001003858,登記記録の閉鎖等,0,2024-09-02,2024-08-22,中島工業株式会社,,株式会社,長野県,長野市,信州新町牧野島５５９番地,,20,201,3812412,,,2024-08-22,清算の結了等,,,2015-10-05,1,,,,,ナカジマコウギョウ,0
121,1110001006785,登記記録の閉鎖等,0,2024-09-02,2024-08-28,株式会社不動産流通システム,,株式会社,新潟県,新潟市東区,物見山２丁目８番１１号,,15,102,9500021,,,2024-08-28,清算の結了等,,,2015-10-05,1,,,,,フドウサンリュウツウシステム,0
122,1110002025438,登記記録の閉鎖等,0,2024-09-02,2024-08-28,有限会社尾身工業,,有限会社,新潟県,十日町市,南鐙坂甲７５番地１,,15,210,9480106,,,2024-08-28,清算の結了等,,,2015-10-05,1,,,,,オミコウギョウ,0
165,1180001032247,登記記録の閉鎖等,0,2024-09-02,2024-08-23,ハクサン本舗株式会社,,株式会社,愛知県,名古屋市西区,庄内通３丁目８番地,,23,104,4510016,,,2024-08-23,清算の結了等,,,2015-10-05,1,,,,,ハクサンホンポ,0
173,1200001019547,登記記録の閉鎖等,0,2024-09-02,2024-08-28,株式会社ベリーグ,,株式会社,岐阜県,関市,武芸川町小知野字落洞４０７番地,,21,205,5012602,,,2024-08-28,清算の結了等,,,2015-10-05,1,,,,,ベリーグ,0
177,1200005000619,登記記録の閉鎖等,0,2024-09-02,2024-08-23,真仏山地蔵寺,,その他の設立登記法人,岐阜県,岐阜市,加納鉄砲町３丁目５２番地,,21,201,5008453,,,2024-08-23,清算の結了等,,,2015-10-05,1,,,,,シンブツザンジゾウジ,0
178,1210001007179,登記記録の閉鎖等,0,2024-09-02,2024-08-30,株式会社堀川運輸,,株式会社,福井県,あわら市,山十楽４号８番地,,18,208,9190816,,,2024-08-30,清算の結了等,,,2015-10-05,1,,,,,ホリカワウンユ,0
198,1290003005479,登記記録の閉鎖等,0,2024-09-02,2024-07-19,合同会社Ｌｉｇｈｔｓｃｏ,,合同会社,福岡県,福岡市博多区,博多駅南４丁目１９番５号山王マンション４階,,40,132,8120016,,,2024-07-19,清算の結了等,,,2015-10-05,1,,,,,ライツコ,0
205,1330002011812,登記記録の閉鎖等,0,2024-09-02,2024-08-27,有限会社オフィスはな,,有限会社,熊本県,熊本市中央区,水道町３番３１－７０１号,,43,101,8600844,,,2024-08-27,清算の結了等,,,2015-10-05,1,,,,,オフィスハナ,0
206,1330003008205,登記記録の閉鎖等,0,2024-09-02,2024-08-27,合同会社Ｂｒａｔｒａｄｅｓ,,合同会社,熊本県,山鹿市,久原５６２５番地５,,43,208,8610522,,,2024-08-27,清算の結了等,,,2019-12-25,1,,,,,ブラトレード,0
215,1390001016369,登記記録の閉鎖等,0,2024-09-02,2024-08-22,株式会社薄井組,,株式会社,山形県,上山市,石堂２番１７号,,06,207,9993231,,,2024-08-22,清算の結了等,,,2021-02-26,1,,,,,ウスイクミ,0
224,1462502000174,登記記録の閉鎖等,0,2024-09-02,2024-08-29,金田漁業有限会社,,有限会社,北海道,標津郡標津町,字茶志骨３番地３７,,01,693,0861622,,,2024-08-29,清算の結了等,,,2015-10-05,1,,,,,カネタギョギョウ,0
226,1500001011333,登記記録の閉鎖等,0,2024-09-02,2024-08-29,尾川青果株式会社,,株式会社,愛媛県,今治市,旭町４丁目１番地１２,,38,202,7940042,,,2024-08-29,清算の結了等,,,2015-10-05,1,,,,,,0
243,2010403026738,登記記録の閉鎖等,0,2024-09-02,2024-08-08,銀座２丁目ビルマネジメント合同会社,,合同会社,東京都,港区,六本木１丁目６番１号泉ガーデンタワー,,13,103,1060032,,,2024-08-08,清算の結了等,,,2021-12-17,1,,,,,ギンザニチョウメビルマネジメント,0
244,2010405020722,登記記録の閉鎖等,0,2024-09-02,2024-08-08,銀座２丁目ビルマネジメント一般社団法人,,その他の設立登記法人,東京都,港区,六本木１丁目６番１号泉ガーデンタワー,,13,103,1060032,,,2024-08-08,清算の結了等,,,2022-02-18,1,,,,,ギンザニチョウメビルマネジメント,0
245,2010405022173,登記記録の閉鎖等,0,2024-09-02,2024-08-08,港プロパティ一般社団法人,,その他の設立登記法人,東京都,港区,六本木１丁目６番１号泉ガーデンタワー,,13,103,1060032,,,2024-08-08,清算の結了等,,,2023-05-29,1,,,,,ミナトプロパティ,0
314,2040002001429,登記記録の閉鎖等,0,2024-09-02,2024-08-22,魚タカ水産有限会社,,有限会社,千葉県,千葉市中央区,道場北１丁目１０番４号,,12,101,2600006,,,2024-08-22,清算の結了等,,,2015-10-05,1,,,,,ウオタカスイサン,0
315,2040002058956,登記記録の閉鎖等,0,2024-09-02,2024-08-23,有限会社小野,,有限会社,千葉県,印西市,西の原３丁目１７番地２棟５０６号,,12,231,2701334,,,2024-08-23,清算の結了等,,,2015-10-05,1,,,,,オノ,0
320,2040003012482,登記記録の閉鎖等,0,2024-09-02,2024-08-08,合同会社Ｍ．Ｋ．Ｂ,,合同会社,千葉県,大網白里市,南飯塚９１番地１,,12,239,2993219,,,2024-08-08,清算の結了等,,,2018-11-16,1,,,,,エムケイビイ,0
322,2050001018910,登記記録の閉鎖等,0,2024-09-02,2024-08-27,株式会社Ｈ＆Ｍ,,株式会社,茨城県,古河市,下大野２０００番地,,08,204,3060204,,,2024-08-27,清算の結了等,,,2015-10-05,1,,,,,エイチアンドエム,0
326,2050002002822,登記記録の閉鎖等,0,2024-09-02,2024-08-28,有限会社富士ライフサービス,,有限会社,茨城県,水戸市,酒門町３０１３番地の１５,,08,201,3100841,,,2024-08-28,清算の結了等,,,2015-10-05,1,,,,,,0
332,2100002009886,登記記録の閉鎖等,0,2024-09-02,2024-08-21,有限会社米生物産,,有限会社,長野県,千曲市,大字千本柳１１３６番地１,,20,218,3890803,,,2024-08-21,清算の結了等,,,2015-10-05,1,,,,,ヨネセイブッサン,0
333,2110002010661,登記記録の閉鎖等,0,2024-09-02,2024-08-29,有限会社佐藤ロープ工場,,有限会社,新潟県,新潟市北区,早通１０６番地甲,,15,101,9503372,,,2024-08-29,清算の結了等,,,2015-10-05,1,,,,,サトウロープコウジョウ,0
354,2120002051894,登記記録の閉鎖等,0,2024-09-02,2024-08-30,有限会社ウィルコーポレーション,,有限会社,大阪府,大阪市中央区,玉造１丁目２２番９号,,27,128,5400004,,,2024-08-30,清算の結了等,,,2015-10-05,1,,,,,ウィルコーポレーション,0
371,2160001012084,登記記録の閉鎖等,0,2024-09-02,2024-08-29,睦工業株式会社,,株式会社,滋賀県,高島市,安曇川町上小川２３番地,,25,212,5201224,,,2024-08-29,清算の結了等,,,2015-10-05,1,,,,,ムツミコウギョウ,0
386,2200003003408,登記記録の閉鎖等,0,2024-09-02,2024-08-29,合同会社きらり,,合同会社,岐阜県,多治見市,滝呂町１７丁目７４番地の１６,,21,204,5070813,,,2024-08-29,清算の結了等,,,2015-10-05,1,,,,,キラリ,0
388,2210001016303,登記記録の閉鎖等,0,2024-09-02,2024-08-29,株式会社ヤマダコーポレーション,,株式会社,福井県,勝山市,北郷町伊知地第５４号４０番地,,18,206,9110055,,,2024-08-29,清算の結了等,,,2016-04-08,1,,,,,ヤマダコーポレーション,0
391,2220005007520,登記記録の閉鎖等,0,2024-09-02,2024-08-26,一般社団法人全国心身障害者更生援護会,,その他の設立登記法人,石川県,小松市,今江町９丁目４１２,,17,203,9230964,,,2024-08-26,清算の結了等,,,2015-10-05,1,,,,,,0
394,2290001036954,登記記録の閉鎖等,0,2024-09-02,2024-07-18,株式会社九州冷鮮輸送,,株式会社,福岡県,宗像市,光岡５８７番地１１,,40,220,8113414,,,2024-07-18,清算の結了等,,,2015-10-05,1,,,,,キュウシュウレイセンユソウ,0
395,2290001048339,登記記録の閉鎖等,0,2024-09-02,2024-07-22,株式会社アプヴェール,,株式会社,福岡県,久留米市,東町５０８番地の１３,,40,203,8300032,,,2024-07-22,清算の結了等,,,2015-10-05,1,,,,,,0
411,2330003004921,登記記録の閉鎖等,0,2024-09-02,2024-08-27,合同会社グランフィーネ富合,,合同会社,熊本県,宇城市,松橋町萩尾２２０９番地３,,43,213,8690513,,,2024-08-27,清算の結了等,,,2015-10-05,1,,,,,グランフィーネトミアイ,0
422,2390001012409,登記記録の閉鎖等,0,2024-09-02,2024-08-22,株式会社伸,,株式会社,山形県,酒田市,千石町２丁目１０番３１号,,06,204,9980843,,,2024-08-22,清算の結了等,,,2015-10-05,1,,,,,,0
424,2400002008981,登記記録の閉鎖等,0,2024-09-02,2024-08-21,有限会社ヘルメス佐藤,,有限会社,岩手県,花巻市,胡四王２丁目１５番地２,,03,205,0250012,,,2024-08-21,清算の結了等,,,2015-10-05,1,,,,,ヘルメスサトウ,0
425,2400601000380,登記記録の閉鎖等,0,2024-09-02,2024-08-22,株式会社江刺左官工業所,,株式会社,岩手県,奥州市,江刺八日町２丁目６番６号,,03,215,0231102,,,2024-08-22,清算の結了等,,,2015-10-05,1,,,,,エサシサカンコウギョウショ,0
430,2430001046716,登記記録の閉鎖等,0,2024-09-02,2024-08-28,株式会社村土建,,株式会社,北海道,岩見沢市,中幌向町２０２番地,,01,210,0690376,,,2024-08-28,清算の結了等,,,2015-10-05,1,,,,,ムラドケン,0
440,3010001039802,登記記録の閉鎖等,0,2024-09-02,2024-08-21,株式会社おくとプロ,,株式会社,東京都,中央区,銀座７丁目１５番１８号,,13,102,1040061,,,2024-08-21,清算の結了等,,,2015-10-05,1,,,,,オクトプロ,0
443,3010001182305,登記記録の閉鎖等,0,2024-09-02,2024-08-08,株式会社ＡＳＴホールディングス,,株式会社,東京都,港区,南青山１丁目１５番８号,,13,103,1070062,,,2024-08-08,清算の結了等,,,2017-03-22,1,,,,,エイエスティホールディングス,0
448,3010003027978,登記記録の閉鎖等,0,2024-09-02,2024-08-20,合同会社入谷ホテル運営,,合同会社,東京都,千代田区,丸の内１丁目８番３号丸の内トラストタワー本館,,13,101,1000005,,,2024-08-20,清算の結了等,,,2018-07-30,1,,,,,イリヤホテルウンエイ,0
478,3012402001530,登記記録の閉鎖等,0,2024-09-02,2024-09-02,有限会社桑実商店,,有限会社,東京都,府中市,小柳町４丁目５番地の５,,13,206,1830013,,,2024-09-02,清算の結了等,,,2015-10-05,1,,,,,ソウミショウテン,0
493,3020002075110,登記記録の閉鎖等,0,2024-09-02,2024-08-09,有限会社新横浜保険センター,,有限会社,神奈川県,横浜市緑区,東本郷５丁目２６番１５号,,14,113,2260002,,,2024-08-09,清算の結了等,,,2015-10-05,1,,,,,シンヨコハマホケンセンター,0
497,3020005014478,登記記録の閉鎖等,0,2024-09-02,2024-08-09,特定非営利活動法人ＴＵＭＵＧ,,その他の設立登記法人,神奈川県,川崎市麻生区,白鳥４丁目１０番３－３０１号,,14,137,2150024,,,2024-08-09,清算の結了等,,,2019-12-27,1,,,,,ツムグ,0
499,3021001065192,登記記録の閉鎖等,0,2024-09-02,2024-08-29,株式会社ユーセイホーム,,株式会社,神奈川県,秦野市,渋沢２３１５番地の５３,,14,211,2591322,,,2024-08-29,清算の結了等,,,2018-07-10,1,,,,,ユーセイホーム,0
514,3040003018223,登記記録の閉鎖等,0,2024-09-02,2024-08-20,ＭＥＮＬＯ　ＰＡＲＫ　ＣＡＰＩＴＡＬ合同会社,,合同会社,千葉県,市川市,湊１番１８－２０１号,,12,203,2720131,,,2024-08-20,清算の結了等,,,2021-08-04,1,,,,,メンローパークキャピタル,0
522,3080001013305,登記記録の閉鎖等,0,2024-09-02,2024-08-27,株式会社三愛工業,,株式会社,静岡県,島田市,船木２７３番地の１,,22,209,4270107,,,2024-08-27,清算の結了等,,,2015-10-05,1,,,,,サンアイコウギョウ,0
560,3180005016062,登記記録の閉鎖等,0,2024-09-02,2024-08-27,一般社団法人国際ポジティブカウンセリング協会,,その他の設立登記法人,愛知県,名古屋市中区,千代田３丁目２２番１７号,,23,106,4600012,,,2024-08-27,清算の結了等,,,2015-10-05,1,,,,,コクサイポジティブカウンセリングキョウカイ,0
565,3200001012021,登記記録の閉鎖等,0,2024-09-02,2024-08-29,株式会社モードタカスミ,,株式会社,岐阜県,羽島市,福寿町平方８丁目３番地,,21,209,5016257,,,2024-08-29,清算の結了等,,,2015-10-05,1,,,,,モードタカスミ,0
567,3220002015533,登記記録の閉鎖等,0,2024-09-02,2024-08-26,有限会社高田,,有限会社,石川県,輪島市,河井町１部１５１番地３,,17,204,9280001,,,2024-08-26,清算の結了等,,,2015-10-05,1,,,,,,0
570,3230001000262,登記記録の閉鎖等,0,2024-09-02,2024-08-29,株式会社アストモスガスセンター富山,,株式会社,富山県,富山市,境野新２９番４,,16,201,9300153,,,2024-08-29,清算の結了等,,,2015-10-05,1,,,,,アストモスガスセンタートヤマ,0
584,3290002026788,登記記録の閉鎖等,0,2024-09-02,2024-08-01,有限会社スラージュマン,,有限会社,福岡県,福岡市博多区,那珂１丁目４番２７号,,40,132,8120893,,,2024-08-01,合併による解散等,2290001017509,令和６年８月１日福岡市博多区那珂一丁目４番２７号株式会社レッツ（2290001017509）に合併し解散,2015-10-05,1,,,,,スラージュマン,0
587,3290802023448,登記記録の閉鎖等,0,2024-09-02,2024-08-16,有限会社キューアンドエー,,有限会社,福岡県,豊前市,大字八屋１５７３番地３,,40,214,8280021,,,2024-08-16,清算の結了等,,,2015-10-05,1,,,,,,0
594,3330003004722,登記記録の閉鎖等,0,2024-09-02,2024-08-27,合同会社グランフィーネ甲佐,,合同会社,熊本県,宇城市,松橋町萩尾２２０９番地３,,43,213,8690513,,,2024-08-27,清算の結了等,,,2015-10-05,1,,,,,グランフィーネコウサ,0
601,3370001049179,登記記録の閉鎖等,0,2024-09-02,2024-08-16,株式会社ルビア,,株式会社,宮城県,仙台市青葉区,二日町３番２８－１００４号,,04,101,9800802,,,2024-08-16,清算の結了等,,,2022-10-27,1,,,,,ルビア,0
604,3390002009502,登記記録の閉鎖等,0,2024-09-02,2024-08-22,有限会社セラビー,,有限会社,山形県,東田川郡三川町,大字押切新田字北田８６番地２,,06,426,9971321,,,2024-08-22,清算の結了等,,,2015-10-05,1,,,,,セラビー,0
626,4010001185983,登記記録の閉鎖等,0,2024-09-02,2024-07-19,タクト・キャピタル・パートナーズ株式会社,,株式会社,福岡県,福岡市中央区,大名１丁目３番２９号ＤＡＩＭＹＯ５８２ビル４．５Ｆ,,40,133,8100041,,,2024-07-19,清算の結了等,,,2017-08-31,1,,,,,タクトキャピタルパートナーズ,0
640,4010003012401,登記記録の閉鎖等,0,2024-09-02,2024-08-20,合資会社勝どき書房,,合資会社,東京都,中央区,勝どき２丁目１８番１号１１１５号室,,13,102,1040054,,,2024-08-20,清算の結了等,,,2015-10-05,1,,,,,カチドキショボウ,0
642,4010003026343,登記記録の閉鎖等,0,2024-09-02,2024-08-23,合同会社ストック・ファイブ,,合同会社,東京都,千代田区,霞が関３丁目２番５号,,13,101,1000013,,,2024-08-23,清算の結了等,,,2017-11-01,1,,,,,ストックファイブ,0
650,4010403022693,登記記録の閉鎖等,0,2024-09-02,2024-08-08,銀座プロジェクト２合同会社,,合同会社,東京都,港区,六本木１丁目６番１号泉ガーデンタワー,,13,103,1060032,,,2024-08-08,清算の結了等,,,2020-03-23,1,,,,,ギンザプロジェクトツー,0
656,4010901029364,登記記録の閉鎖等,0,2024-09-02,2024-08-08,株式会社ＭｅｄｉＰｒｏｄｕｃｔ,,株式会社,東京都,渋谷区,恵比寿４丁目２０番４号,,13,113,1500013,,,2024-08-08,合併による解散等,7010001094835,令和６年８月８日東京都渋谷区恵比寿四丁目２０番４号株式会社メディプロデュース（7010001094835）に合併し解散,2015-10-05,1,,,,,メディプロダクト,0
663,4011001067008,登記記録の閉鎖等,0,2024-09-02,2024-08-08,株式会社原宿Ｓｔｙｌｅ,,株式会社,東京都,渋谷区,渋谷３丁目２５番６号,,13,113,1500002,,,2024-08-08,清算の結了等,,,2015-10-05,1,,,,,ハラジュクスタイル,0
664,4011001099042,登記記録の閉鎖等,0,2024-09-02,2024-08-26,株式会社ケトル,,株式会社,東京都,渋谷区,円山町２３番９号,,13,113,1500044,,,2024-08-26,清算の結了等,,,2015-10-05,1,,,,,,0
694,4011601006083,登記記録の閉鎖等,0,2024-09-02,2024-08-27,株式会社フューチャー・ウエイブ,,株式会社,東京都,練馬区,豊玉中３丁目２番１７号,,13,120,1760013,,,2024-08-27,清算の結了等,,,2015-10-05,1,,,,,フューチャーウエイブ,0
728,4040001079712,登記記録の閉鎖等,0,2024-09-02,2024-08-23,中山興業株式会社,,株式会社,千葉県,松戸市,秋山１丁目１６番地の４シーアイマンション４０１号,,12,207,2702223,,,2024-08-23,清算の結了等,,,2015-10-05,1,,,,,ナカヤマコウギョウ,0
746,4110001028769,登記記録の閉鎖等,0,2024-09-02,2024-08-22,株式会社スギマサ,,株式会社,新潟県,上越市,柿崎区高寺９番地１,,15,222,9493234,,,2024-08-22,清算の結了等,,,2015-10-05,1,,,,,スギマサ,0
771,4130005014053,登記記録の閉鎖等,0,2024-09-02,2024-08-28,税理士法人スリジエ,,その他の設立登記法人,京都府,京都市右京区,龍安寺塔ノ下町４番地２２,,26,108,6168005,,,2024-08-28,清算の結了等,,,2015-10-05,1,,,,,スリジエ,0
787,4210001002251,登記記録の閉鎖等,0,2024-09-02,2024-08-30,辻岡建設株式会社,,株式会社,福井県,吉田郡永平寺町,松岡葵１丁目３２番地,,18,322,9101132,,,2024-08-30,清算の結了等,,,2015-10-05,1,,,,,ツジオカケンセツ,0
802,4290001054698,登記記録の閉鎖等,0,2024-09-02,2024-07-19,株式会社十八食肉,,株式会社,福岡県,大牟田市,船津町１丁目１０番地１０,,40,202,8360073,,,2024-07-19,清算の結了等,,,2015-10-05,1,,,,,,0
806,4290001105006,登記記録の閉鎖等,0,2024-09-02,2024-07-18,嘉豊プラスチック工業株式会社,,株式会社,福岡県,飯塚市,菰田東１丁目４番３５号シャトレ和３０１号,,40,205,8200016,,,2024-07-18,清算の結了等,,,2024-03-11,1,,,,,カホウプラスチックコウギョウ,0
835,4420002003302,登記記録の閉鎖等,0,2024-09-02,2024-08-28,有限会社福士塗装,,有限会社,青森県,東津軽郡今別町,大字今別字西田２２０番地,,02,303,0301502,,,2024-08-28,清算の結了等,,,2015-10-05,1,,,,,フクシトソウ,0
836,4420005006459,登記記録の閉鎖等,0,2024-09-02,2024-08-27,大湊町生産森林組合,,その他の設立登記法人,青森県,むつ市,大湊上町３４番１４号,,02,208,0350086,,,2024-08-27,清算の結了等,,,2015-10-05,1,,,,,オオミナトマチ,0
840,4430005006945,登記記録の閉鎖等,0,2024-09-02,2024-08-28,夕張地区製材協同組合,,その他の設立登記法人,北海道,夕張郡栗山町,中央１丁目１番地１,,01,429,0691511,,,2024-08-28,清算の結了等,,,2015-10-05,1,,,,,ユウバリチクセイザイ,0
850,5010001117977,登記記録の閉鎖等,0,2024-09-02,2024-08-21,株式会社トルッキオ,,株式会社,東京都,千代田区,九段南２丁目１番３２号,,13,101,1020074,,,2024-08-21,清算の結了等,,,2015-10-05,1,,,,,トルッキオ,0
855,5010002005396,登記記録の閉鎖等,0,2024-09-02,2024-08-21,有限会社フルヤアート社,,有限会社,東京都,文京区,小石川５丁目２６番８－２０１号,,13,105,1120002,,,2024-08-21,清算の結了等,,,2015-10-05,1,,,,,フルヤアートシャ,0
856,5010002041400,登記記録の閉鎖等,0,2024-09-02,2024-08-21,有限会社ボンズ企画,,有限会社,東京都,千代田区,飯田橋２丁目９番４号サンパ－クマンション千代田３階,,13,101,1020072,,,2024-08-21,清算の結了等,,,2015-10-05,1,,,,,ボンズキカク,0
867,5010403022692,登記記録の閉鎖等,0,2024-09-02,2024-08-08,銀座プロジェクト１合同会社,,合同会社,東京都,港区,六本木１丁目６番１号泉ガーデンタワー,,13,103,1060032,,,2024-08-08,清算の結了等,,,2020-03-23,1,,,,,ギンザプロジェクトワン,0
868,5010405018631,登記記録の閉鎖等,0,2024-09-02,2024-08-08,銀座プロジェクト一般社団法人,,その他の設立登記法人,東京都,港区,六本木１丁目６番１号泉ガーデンタワー,,13,103,1060032,,,2024-08-08,清算の結了等,,,2020-03-24,1,,,,,ギンザプロジェクト,0
872,5010801031923,登記記録の閉鎖等,0,2024-09-02,2024-08-28,株式会社ウィズライフ,,株式会社,東京都,大田区,大森北１丁目５番５号千両屋ビル５階,,13,111,1430016,,,2024-08-28,清算の結了等,,,2021-05-11,1,,,,,ウィズライフ,0
902,5013302010116,登記記録の閉鎖等,0,2024-09-02,2024-08-26,モトキ商事有限会社,,有限会社,東京都,豊島区,東池袋３丁目２１番１８号,,13,116,1700013,,,2024-08-26,清算の結了等,,,2015-10-05,1,,,,,モトキショウジ,0
907,5020001079110,登記記録の閉鎖等,0,2024-09-02,2024-08-09,株式会社サラート,,株式会社,神奈川県,川崎市麻生区,東百合丘１丁目７番１７号,,14,137,2150012,,,2024-08-09,清算の結了等,,,2015-10-05,1,,,,,サラート,0
917,5021001046554,登記記録の閉鎖等,0,2024-09-02,2024-08-08,総友サービス株式会社,,株式会社,神奈川県,横浜市神奈川区,金港町２番地１パークタワー横濱ポートサイド３２０４号,,14,102,2210056,,,2024-08-08,清算の結了等,,,2015-10-05,1,,,,,ソウユウサービス,0
923,5030002025590,登記記録の閉鎖等,0,2024-09-02,2024-08-28,有限会社アーバオブリサーチ,,有限会社,埼玉県,さいたま市緑区,馬場１丁目１０番地１５,,11,109,3360912,,,2024-08-28,清算の結了等,,,2015-10-05,1,,,,,アーバオブリサーチ,0
934,5060002008808,登記記録の閉鎖等,0,2024-09-02,2024-08-26,有限会社宮商会,,有限会社,栃木県,宇都宮市,双葉１丁目１３番３７号,,09,201,3210164,,,2024-08-26,清算の結了等,,,2015-10-05,1,,,,,ミヤショウカイ,0
943,5100002000859,登記記録の閉鎖等,0,2024-09-02,2024-08-21,有限会社エルコンパスたいよう,,有限会社,長野県,長野市,大字柳原２２５８番地２,,20,201,3810012,,,2024-08-21,清算の結了等,,,2015-10-05,1,,,,,エルコンパスタイヨウ,0
991,5210003000574,登記記録の閉鎖等,0,2024-09-02,2024-08-28,合資会社イーライフ,,合資会社,福井県,三方上中郡若狭町,三宅第７８号１番地の４,,18,501,9191536,,,2024-08-28,清算の結了等,,,2015-10-05,1,,,,,イーライフ,0
1005,5270002006071,登記記録の閉鎖等,0,2024-09-02,2024-08-29,有限会社芝谷建設,,有限会社,鳥取県,米子市,河崎３１９８番地１,,31,202,6830852,,,2024-08-29,清算の結了等,,,2015-10-05,1,,,,,シバタニケンセツ,0
1014,5330003005058,登記記録の閉鎖等,0,2024-09-02,2024-08-27,合同会社グランフィーネ国府,,合同会社,熊本県,宇城市,松橋町萩尾２２０９番地３,,43,213,8690513,,,2024-08-27,清算の結了等,,,2015-10-05,1,,,,,グランフィーネコクフ,0
1030,5400001009243,登記記録の閉鎖等,0,2024-09-02,2024-08-23,豊間根建材株式会社,,株式会社,岩手県,下閉伊郡山田町,豊間根第５地割２６０番２２,,03,482,0281302,,,2024-08-23,清算の結了等,,,2015-10-05,1,,,,,トヨマネケンザイ,0
1038,5490002002494,登記記録の閉鎖等,0,2024-09-02,2024-08-16,有限会社ジュエリーさかい,,有限会社,高知県,高知市,稲荷町５番１０号,,39,201,7800814,,,2024-08-16,清算の結了等,,,2015-10-05,1,,,,,ジュエリーサカイ,0
1056,6010002033685,登記記録の閉鎖等,0,2024-09-02,2024-08-21,有限会社須藤梱包発送,,有限会社,東京都,文京区,白山１丁目４番３号,,13,105,1130001,,,2024-08-21,清算の結了等,,,2015-10-05,1,,,,,,0
1058,6010003033338,登記記録の閉鎖等,0,2024-09-02,2024-08-22,ＧＯ－ＹＥＮ　ＡＵＴＵＭＮ合同会社,,合同会社,東京都,中央区,銀座１丁目６番１１号土志田ビルディング３Ｆ,,13,102,1040061,,,2024-08-22,清算の結了等,,,2020-10-29,1,,,,,ゴエンオータム,0
1061,6010401082820,登記記録の閉鎖等,0,2024-09-02,2024-08-23,株式会社シティインデックスセブンス,,株式会社,東京都,千代田区,霞が関３丁目２番５号,,13,101,1000013,,,2024-08-23,清算の結了等,,,2015-10-05,1,,,,,シティインデックスセブンス,0
1069,6010405018630,登記記録の閉鎖等,0,2024-09-02,2024-08-08,銀座プロジェクト特定目的会社,,その他の設立登記法人,東京都,港区,六本木１丁目６番１号泉ガーデンタワー,,13,103,1060032,,,2024-08-08,清算の結了等,,,2020-03-25,1,,,,,ギンザプロジェクト,0
1074,6010803004612,登記記録の閉鎖等,0,2024-09-02,2024-08-27,ＥＡＲＴＨ　ＡＮＧＥＬ合同会社,,合同会社,東京都,大田区,矢口３丁目２８－８－２０６,,13,111,1460093,,,2024-08-27,清算の結了等,,,2023-07-24,1,,,,,アースエンジェル,0
1079,6011001119995,登記記録の閉鎖等,0,2024-09-02,2024-08-23,株式会社ＡＲＴＩＳＭ,,株式会社,東京都,目黒区,青葉台３丁目２１番１３号２Ｆ,,13,110,1530042,,,2024-08-23,清算の結了等,,,2018-01-09,1,,,,,,0
1098,6011605001509,登記記録の閉鎖等,0,2024-09-02,2024-08-29,特定非営利活動法人練馬区柔道接骨師会,,その他の設立登記法人,東京都,練馬区,旭町３丁目３２番１９号,,13,120,1790071,,,2024-08-29,清算の結了等,,,2015-10-05,1,,,,,ネリマクジュウドウセッコツシカイ,0
1109,6013201010471,登記記録の閉鎖等,0,2024-09-02,2024-08-29,株式会社梅屋コム・ワークス,,株式会社,東京都,世田谷区,岡本１丁目１６番２１号,,13,112,1570076,,,2024-08-29,清算の結了等,,,2015-10-05,1,,,,,,0
1128,6030002062476,登記記録の閉鎖等,0,2024-09-02,2024-08-28,有限会社望月建装,,有限会社,埼玉県,富士見市,針ケ谷１丁目１１番地５キャッスルメジェール西みずほ台１－１０５,,11,235,3540017,,,2024-08-28,清算の結了等,,,2015-10-05,1,,,,,,0
1132,6040002023592,登記記録の閉鎖等,0,2024-09-02,2024-08-22,有限会社たち花屋,,有限会社,千葉県,船橋市,本中山１丁目１５番２２号,,12,204,2730035,,,2024-08-22,清算の結了等,,,2015-10-05,1,,,,,タチバナヤ,0
1194,6190002010485,登記記録の閉鎖等,0,2024-09-02,2024-08-29,有限会社小崎工務店,,有限会社,三重県,鳥羽市,鳥羽４丁目５番９号,,24,211,5170011,,,2024-08-29,清算の結了等,,,2015-10-05,1,,,,,コサキコウムテン,0
1217,6330003004538,登記記録の閉鎖等,0,2024-09-02,2024-08-27,合同会社広西,,合同会社,熊本県,宇城市,松橋町萩尾２２０９番地３,,43,213,8690513,,,2024-08-27,清算の結了等,,,2015-10-05,1,,,,,コウセイ,0
1218,6330003004884,登記記録の閉鎖等,0,2024-09-02,2024-08-27,合同会社グランフィーネ水前寺,,合同会社,熊本県,宇城市,松橋町萩尾２２０９番地３,,43,213,8690513,,,2024-08-27,清算の結了等,,,2015-10-05,1,,,,,グランフィーネスイゼンジ,0
1235,6440001004347,登記記録の閉鎖等,0,2024-09-02,2024-08-28,ウイニング株式会社,,株式会社,北海道,函館市,末広町２２番１１号,,01,202,0400053,,,2024-08-28,清算の結了等,,,2015-10-05,1,,,,,ウイニング,0
1243,7010001126349,登記記録の閉鎖等,0,2024-09-02,2024-08-20,和華商事株式会社,,株式会社,東京都,中央区,東日本橋２丁目１３番４号,,13,102,1030004,,,2024-08-20,清算の結了等,,,2015-10-05,1,,,,,ワカショウジ,0
1244,7010001140721,登記記録の閉鎖等,0,2024-09-02,2024-08-28,株式会社アイティエス,,株式会社,東京都,大田区,大森南４丁目１４番１３号,,13,111,1430013,,,2024-08-28,合併による解散等,8010401042054,令和６年８月１日東京都港区港南二丁目１３番３１号品川ＮＳＳビル８階株式会社アイティエス（8010401042054）に合併し解散,2015-10-05,1,,,,,アイティエス,0
1254,7010003029830,登記記録の閉鎖等,0,2024-09-02,2024-08-19,合同会社ＲＬＳプロジェクト,,合同会社,東京都,中央区,銀座２丁目１０番８号マニエラ銀座ビル４階ブリッジ・シー会計事務所内,,13,102,1040061,,,2024-08-19,清算の結了等,,,2019-05-15,1,,,,,アールエルエスプロジェクト,0
1255,7010003033337,登記記録の閉鎖等,0,2024-09-02,2024-08-22,ＧＯ－ＹＥＮ　ＳＵＭＭＥＲ合同会社,,合同会社,東京都,中央区,銀座１丁目６番１１号土志田ビルディング３Ｆ,,13,102,1040061,,,2024-08-22,清算の結了等,,,2020-10-29,1,,,,,ゴエンサマー,0
1276,7010701040394,登記記録の閉鎖等,0,2024-09-02,2024-08-27,株式会社Ａｒｔ　Ｌｉｆｅ,,株式会社,東京都,品川区,旗の台５丁目１６番２号,,13,109,1420064,,,2024-08-27,清算の結了等,,,2021-01-21,1,,,,,アートライフ,0
1301,7011701017498,登記記録の閉鎖等,0,2024-09-02,2024-08-28,東京総合リフォーム株式会社,,株式会社,東京都,江戸川区,上篠崎４丁目１８番１９号,,13,123,1330054,,,2024-08-28,清算の結了等,,,2015-10-05,1,,,,,トウキョウソウゴウリフォーム,0
1317,7020001033395,登記記録の閉鎖等,0,2024-09-02,2024-08-08,株式会社ビッグドラッグタロー,,株式会社,神奈川県,横浜市南区,弘明寺町１３４,,14,105,2320067,,,2024-08-08,清算の結了等,,,2015-10-05,1,,,,,ビッグドラッグタロー,0
1324,7020002091921,登記記録の閉鎖等,0,2024-09-02,2024-07-30,有限会社クマノパーツ,,有限会社,神奈川県,川崎市多摩区,菅北浦２丁目１２番１４号,,14,135,2140008,,,2024-07-30,清算の結了等,,,2015-10-05,1,,,,,クマノパーツ,0
1344,7040002020366,登記記録の閉鎖等,0,2024-09-02,2024-08-23,有限会社アルファータナカ,,有限会社,千葉県,船橋市,上山町２丁目４４８番地,,12,204,2730046,,,2024-08-23,清算の結了等,,,2015-10-05,1,,,,,アルファータナカ,0
1348,7040005019991,登記記録の閉鎖等,0,2024-09-02,2024-08-22,特定非営利活動法人ＬＯＣＡＬ　ＧＯＯＤ　ＭＵＪＩ,,その他の設立登記法人,千葉県,夷隅郡大多喜町,小田代５２４番地１,,12,441,2980265,,,2024-08-22,清算の結了等,,,2018-05-24,1,,,,,ローカルグッドムジ,0
1356,7100001022654,登記記録の閉鎖等,0,2024-09-02,2024-08-21,西尾醸造株式会社,,株式会社,長野県,飯田市,上郷黒田８６１番地,,20,205,3950004,,,2024-08-21,清算の結了等,,,2015-10-05,1,,,,,ニシオジョウゾウ,0
1357,7100002033964,登記記録の閉鎖等,0,2024-09-02,2024-08-13,上伊那農産有限会社,,有限会社,長野県,駒ヶ根市,赤穂７２５１番地,,20,210,3994117,,,2024-08-13,合併による解散等,2100001021116,令和６年６月１日長野県駒ヶ根市赤穂７２５２番地１伊南自動車工業株式会社（2100001021116）に合併し解散,2015-10-05,1,,,,,カミイナノウサン,0
1387,7170002006716,登記記録の閉鎖等,0,2024-09-02,2024-08-30,有限会社プランニングコスモス,,有限会社,和歌山県,海南市,下津町上７６３番地,,30,202,6490164,,,2024-08-30,清算の結了等,,,2015-10-05,1,,,,,プランニングコスモス,0
1396,7200003002818,登記記録の閉鎖等,0,2024-09-02,2024-08-29,小池建設合資会社,,合資会社,岐阜県,郡上市,明宝畑佐１９２番地,,21,219,5014306,,,2024-08-29,清算の結了等,,,2015-10-05,1,,,,,コイケケンセツ,0
1406,7250001015800,登記記録の閉鎖等,0,2024-09-02,2024-08-26,粧屋株式会社,,株式会社,山口県,山陽小野田市,大字厚狭４７８番地の１,,35,216,7570001,,,2024-08-26,清算の結了等,,,2016-03-03,1,,,,,メカシヤ,0
1412,7290001044779,登記記録の閉鎖等,0,2024-09-02,2024-07-22,株式会社ゆたかにみのるカンパニー,,株式会社,福岡県,福岡市中央区,小笹１丁目１１番２６－８０３号,,40,133,8100033,,,2024-07-22,清算の結了等,,,2015-10-05,1,,,,,ユタカニミノルカンパニー,0
1418,7290002055420,登記記録の閉鎖等,0,2024-09-02,2024-08-28,有限会社タマヤ時計店,,有限会社,福岡県,大牟田市,新栄町１５番地の１,,40,202,8360041,,,2024-08-28,清算の結了等,,,2015-10-05,1,,,,,タマヤトケイテン,0
1422,7330002025146,登記記録の閉鎖等,0,2024-09-02,2024-08-27,有限会社後福不動産商会,,有限会社,熊本県,熊本市西区,島崎２丁目３１番５号,,43,103,8600073,,,2024-08-27,清算の結了等,,,2015-10-05,1,,,,,ゴフクフドウサンショウカイ,0
1440,7480001004144,登記記録の閉鎖等,0,2024-09-02,2024-08-29,株式会社徳島市高ＰＦＩサービス,,株式会社,徳島県,徳島市,中前川町５丁目１番地の１１５,,36,201,7700807,,,2024-08-29,清算の結了等,,,2015-10-05,1,,,,,トクシマイチコウピーエフアイサービス,0
1442,8010001013257,登記記録の閉鎖等,0,2024-09-02,2024-08-08,株式会社オドー,,株式会社,東京都,千代田区,内神田１丁目１８番１２号,,13,101,1010047,,,2024-08-08,清算の結了等,,,2015-10-05,1,,,,,オドー,0
1450,8010001223087,登記記録の閉鎖等,0,2024-09-02,2024-08-21,株式会社ＰＯＲＴＡＬＦＩＥＬＤ,,株式会社,東京都,千代田区,神田神保町１丁目４１番地神保町ＳＦＩ２０２,,13,101,1010051,,,2024-08-21,清算の結了等,,,2021-12-10,1,,,,,ポータルフィールド,0
1456,8010003033336,登記記録の閉鎖等,0,2024-09-02,2024-08-22,ＧＯ－ＹＥＮ　ＳＰＲＩＮＧ合同会社,,合同会社,東京都,中央区,銀座１丁目６番１１号土志田ビルディング３Ｆ,,13,102,1040061,,,2024-08-22,清算の結了等,,,2020-10-29,1,,,,,ゴエンスプリング,0
1469,8010403023044,登記記録の閉鎖等,0,2024-09-02,2024-08-08,銀座ビルマネジメント合同会社,,合同会社,東京都,港区,六本木１丁目６番１号泉ガーデンタワー,,13,103,1060032,,,2024-08-08,清算の結了等,,,2020-05-27,1,,,,,ギンザビルマネジメント,0
1471,8010601021733,登記記録の閉鎖等,0,2024-09-02,2024-08-30,千葉アセチレン株式会社,,株式会社,東京都,墨田区,太平３丁目４番８号,,13,107,1300012,,,2024-08-30,清算の結了等,,,2015-10-05,1,,,,,チバアセチレン,0
1472,8010701004217,登記記録の閉鎖等,0,2024-09-02,2024-08-29,株式会社シー・ディー・エス,,株式会社,東京都,品川区,大崎３丁目１番５－１４０３号,,13,109,1410032,,,2024-08-29,清算の結了等,,,2015-10-05,1,,,,,シーディーエス,0
1485,8011103006834,登記記録の閉鎖等,0,2024-09-02,2024-08-15,ＭＳＪ合同会社,,合同会社,東京都,新宿区,新宿５丁目１８番２０号ルックハイツ新宿８０３号,,13,104,1600022,,,2024-08-15,清算の結了等,,,2017-02-17,1,,,,,エムエスジェイ,0
1491,8011401004630,登記記録の閉鎖等,0,2024-09-02,2024-08-27,東和建設株式会社,,株式会社,東京都,板橋区,常盤台１丁目１９番３号,,13,119,1740071,,,2024-08-27,清算の結了等,,,2015-10-05,1,,,,,トウワケンセツ,0
1532,8030001020912,登記記録の閉鎖等,0,2024-09-02,2024-08-29,オービーエー株式会社,,株式会社,埼玉県,蕨市,中央５丁目３番１６号,,11,223,3350004,,,2024-08-29,清算の結了等,,,2015-10-05,1,,,,,オービーエー,0
1545,8040002101768,登記記録の閉鎖等,0,2024-09-02,2024-08-23,有限会社桐の十郎兵衛家具店,,有限会社,千葉県,いすみ市,岬町長者５６１番地の１,,12,238,2994616,,,2024-08-23,清算の結了等,,,2015-10-05,1,,,,,キリノジュウロウベエカグテン,0
1570,8120903001364,登記記録の閉鎖等,0,2024-09-02,2024-08-29,フジアンドチェリー株式会社,,株式会社,大阪府,大阪市淀川区,西中島６丁目９番２７号新大阪メイコービル３０１号,,27,123,5320011,,,2024-08-29,合併による解散等,4011001034965,令和６年８月１日東京都渋谷区桜丘町２６番１号株式会社リベルタ（4011001034965）に合併し解散,2015-10-05,1,,,,,フジアンドチェリー,0
1574,8140001034257,登記記録の閉鎖等,0,2024-09-02,2024-08-30,株式会社アンジュ,,株式会社,兵庫県,神戸市兵庫区,東山町２丁目７番２号,,28,105,6520042,,,2024-08-30,清算の結了等,,,2015-10-05,1,,,,,アンジュ,0
1577,8140002020347,登記記録の閉鎖等,0,2024-09-02,2024-08-28,有限会社ピーアンドエーコミュニケーションズ,,有限会社,兵庫県,神戸市灘区,原田通１丁目１番５号,,28,102,6570837,,,2024-08-28,清算の結了等,,,2015-10-05,1,,,,,ピーアンドエーコミュニケーションズ,0
1579,8140005003605,登記記録の閉鎖等,0,2024-09-02,2024-08-29,特定非営利活動法人マンション管理組合サポートセンター,,その他の設立登記法人,兵庫県,神戸市中央区,御幸通３丁目２番４号,,28,110,6510087,,,2024-08-29,清算の結了等,,,2015-10-05,1,,,,,マンションカンリクミアイサポートセンター,0
1617,8290001077506,登記記録の閉鎖等,0,2024-09-02,2024-07-19,石光工業株式会社,,株式会社,福岡県,筑紫野市,針摺中央１丁目１５番１１号,,40,217,8180083,,,2024-07-19,清算の結了等,,,2017-04-21,1,,,,,イシミツコウギョウ,0
1619,8290002028474,登記記録の閉鎖等,0,2024-09-02,2024-08-01,有限会社ＨＡＳデザイン,,有限会社,福岡県,福岡市博多区,那珂１丁目４番２７号,00093223,40,132,8120893,,,2024-08-01,合併による解散等,2290001017509,令和６年８月１日福岡市博多区那珂一丁目４番２７号株式会社レッツ（2290001017509）に合併し解散,2015-10-05,1,,,,,ハズデザイン,0
1623,8290003010679,登記記録の閉鎖等,0,2024-09-02,2024-07-18,吉村麻合同会社,,合同会社,福岡県,福岡市中央区,薬院２丁目４番３５－１１０１号,,40,133,8100022,,,2024-07-18,清算の結了等,,,2020-12-01,1,,,,,ヨシムラマ,0
1633,8380001003163,登記記録の閉鎖等,0,2024-09-02,2024-08-26,勝山株式会社,,株式会社,福島県,伊達市,保原町字小蓋１００番地,,07,213,9600647,,,2024-08-26,清算の結了等,,,2015-10-05,1,,,,,カツヤマ,0
1638,8390002001198,登記記録の閉鎖等,0,2024-09-02,2024-08-22,有限会社三和産業,,有限会社,山形県,山形市,花楯２丁目１５番１９号,,06,201,9900067,,,2024-08-22,清算の結了等,,,2015-10-05,1,,,,,サンワサンギョウ,0
1642,8470002008458,登記記録の閉鎖等,0,2024-09-02,2024-08-28,有限会社岩部呉服店,,有限会社,香川県,高松市,紺屋町１０番地９,,37,201,7600027,,,2024-08-28,清算の結了等,,,2015-10-05,1,,,,,イワブゴフクテン,0
1652,9010001226270,登記記録の閉鎖等,0,2024-09-02,2024-08-20,株式会社Ｋ,,株式会社,東京都,千代田区,霞が関３丁目２番１号,,13,101,1000013,,,2024-08-20,清算の結了等,,,2022-05-02,1,,,,,ケー,0
1656,9010002001598,登記記録の閉鎖等,0,2024-09-02,2024-08-20,有限会社金輪商店,,有限会社,東京都,文京区,音羽２丁目４番２号,,13,105,1120013,,,2024-08-20,清算の結了等,,,2015-10-05,1,,,,,カナワショウテン,0
1657,9010002017297,登記記録の閉鎖等,0,2024-09-02,2024-08-20,有限会社江橋ビル,,有限会社,東京都,中央区,銀座８丁目２番１５号,,13,102,1040061,,,2024-08-20,清算の結了等,,,2015-10-05,1,,,,,エハシビル,0
1658,9010002020581,登記記録の閉鎖等,0,2024-09-02,2024-08-20,有限会社白沢商店,,有限会社,東京都,中央区,勝どき３丁目６番４号,,13,102,1040054,,,2024-08-20,清算の結了等,,,2015-10-05,1,,,,,シラサワショウテン,0
1667,9010401050989,登記記録の閉鎖等,0,2024-09-02,2024-08-08,株式会社ケイズワーク,,株式会社,神奈川県,横浜市栄区,鍛冶ケ谷２丁目６番７号,,14,115,2470009,,,2024-08-08,清算の結了等,,,2015-10-05,1,,,,,ケイズワーク,0
1682,9010801029864,登記記録の閉鎖等,0,2024-09-02,2024-08-29,ＪＶ－Ｌｉｎｋｓ株式会社,,株式会社,東京都,大田区,大森西２丁目２０番２７号,,13,111,1430015,,,2024-08-29,清算の結了等,,,2019-05-20,1,,,,,ジェーヴィーリンクス,0
1685,9010902009039,登記記録の閉鎖等,0,2024-09-02,2024-08-29,有限会社大学総合研究所,,有限会社,東京都,世田谷区,松原２丁目３４番１５号和泉ビル１階,,13,112,1560043,,,2024-08-29,清算の結了等,,,2015-10-05,1,,,,,ダイガクソウゴウケンキュウジョ,0
1700,9011601011129,登記記録の閉鎖等,0,2024-09-02,2024-08-28,株式会社紅興,,株式会社,東京都,練馬区,光が丘５丁目６番２－１００１号,,13,120,1790072,,,2024-08-28,清算の結了等,,,2015-10-05,1,,,,,ベニコウ,0
1708,9012801020753,登記記録の閉鎖等,0,2024-09-02,2024-08-26,株式会社チアビズ,,株式会社,東京都,日野市,多摩平２丁目５番地１ＰｌａｎＴ,,13,212,1910062,,,2024-08-26,清算の結了等,,,2021-04-13,1,,,,,チアビズ,0
1714,9020001111281,登記記録の閉鎖等,0,2024-09-02,2024-08-08,株式会社大,,株式会社,神奈川県,横浜市鶴見区,下末吉５丁目２５番６号,,14,101,2300012,,,2024-08-08,清算の結了等,,,2015-10-05,1,,,,,,0
1725,9021002033944,登記記録の閉鎖等,0,2024-09-02,2024-08-30,有限会社ガトウミヤ洋菓子店,,有限会社,神奈川県,愛甲郡愛川町,中津７４８８番地の１,,14,401,2430303,,,2024-08-30,清算の結了等,,,2015-10-05,1,,,,,,0
1726,9021002059881,登記記録の閉鎖等,0,2024-09-02,2024-08-29,有限会社みなみ商事,,有限会社,神奈川県,平塚市,大神１６２５番地,,14,203,2540012,,,2024-08-29,清算の結了等,,,2015-10-05,1,,,,,,0
1735,9030001057904,登記記録の閉鎖等,0,2024-09-02,2024-08-29,株式会社ＦＤＡ,,株式会社,埼玉県,川越市,川鶴２丁目２番地１,,11,201,3501176,,,2024-08-29,清算の結了等,,,2015-10-05,1,,,,,エフディーエー,0
1744,9040002009944,登記記録の閉鎖等,0,2024-09-02,2024-08-23,有限会社フクトミ,,有限会社,千葉県,千葉市花見川区,幕張町５丁目４５１番地１,,12,102,2620032,,,2024-08-23,清算の結了等,,,2015-10-05,1,,,,,フクトミ,0
1764,9080402017964,登記記録の閉鎖等,0,2024-09-02,2024-08-28,有限会社宏和内装,,有限会社,静岡県,掛川市,掛川４９５番地の３,,22,213,4360079,,,2024-08-28,清算の結了等,,,2015-10-05,1,,,,,コウワナイソウ,0
1765,9100001027775,登記記録の閉鎖等,0,2024-09-02,2024-08-29,株式会社さおり保険サービス,,株式会社,富山県,高岡市,伏木矢田１番３０－５０３号,,16,202,9330123,,,2024-08-29,清算の結了等,,,2015-10-05,1,,,,,サオリホケンサービス,0
1781,9120001218439,登記記録の閉鎖等,0,2024-09-02,2024-08-27,ＪＰ創建株式会社,,株式会社,大阪府,大阪市城東区,東中浜６丁目１７番２５号９０２,,27,118,5360023,,,2024-08-27,清算の結了等,,,2019-01-25,1,,,,,ジェーピーソウケン,0
1787,9120002010737,登記記録の閉鎖等,0,2024-09-02,2024-09-02,有限会社エージエントハセガワ,,有限会社,大阪府,大阪市生野区,舎利寺１丁目１５番４号,,27,116,5440022,,,2024-09-02,清算の結了等,,,2015-10-05,1,,,,,エージエントハセガワ,0
1788,9120002022063,登記記録の閉鎖等,0,2024-09-02,2024-08-29,有限会社新大阪建築設計事務所,,有限会社,大阪府,茨木市,美沢町６－３０１,,27,211,5670862,,,2024-08-29,清算の結了等,,,2015-10-05,1,,,,,シンオオサカケンチクセッケイジムショ,0
1803,9120901042211,登記記録の閉鎖等,0,2024-09-02,2024-08-28,株式会社カラン,,株式会社,大阪府,箕面市,西小路３丁目１番１５号,,27,220,5620003,,,2024-08-28,清算の結了等,,,2020-01-08,1,,,,,カラン,0
1811,9140001097138,登記記録の閉鎖等,0,2024-09-02,2024-08-29,ミズホコーポレーション株式会社,,株式会社,兵庫県,神戸市中央区,浜辺通３丁目１番３３号ネオハイツ三宮４０３,,28,110,6510083,,,2024-08-29,清算の結了等,,,2015-10-05,1,,,,,ミズホコーポレーション,0
1815,9140002037092,登記記録の閉鎖等,0,2024-09-02,2024-08-23,有限会社笠目メディカル,,有限会社,兵庫県,高砂市,伊保崎南２２番３号,,28,216,6760075,,,2024-08-23,清算の結了等,,,2015-10-05,1,,,,,カサメ,0
1818,9180001026605,登記記録の閉鎖等,0,2024-09-02,2024-08-26,西山産業株式会社,,株式会社,愛知県,名古屋市西区,中沼町８０番地１,,23,104,4520845,,,2024-08-26,清算の結了等,,,2015-10-05,1,,,,,ニシヤマサンギョウ,0
1825,9190002006183,登記記録の閉鎖等,0,2024-09-02,2024-08-30,有限会社勝田建設,,有限会社,三重県,鈴鹿市,甲斐町１０７７番地,,24,207,5130021,,,2024-08-30,清算の結了等,,,2015-10-05,1,,,,,カツダケンセツ,0
1826,9190002024160,登記記録の閉鎖等,0,2024-09-02,2024-08-30,有限会社川島商店,,有限会社,三重県,四日市市,菅原町６９６番地１,,24,202,5120925,,,2024-08-30,清算の結了等,,,2015-10-05,1,,,,,カワシマショウテン,0
1827,9190005006123,登記記録の閉鎖等,0,2024-09-02,2024-08-29,特定非営利活動法人博要の丘,,その他の設立登記法人,三重県,伊賀市,種生１３６７番地,,24,216,5180217,,,2024-08-29,清算の結了等,,,2015-10-05,1,,,,,,0
1838,9260001026547,登記記録の閉鎖等,0,2024-09-02,2024-08-26,株式会社トリニティー,,株式会社,岡山県,岡山市北区,広瀬町３番３号,,33,101,7000806,,,2024-08-26,清算の結了等,,,2015-10-05,1,,,,,トリニティー,0
1839,9260001028394,登記記録の閉鎖等,0,2024-09-02,2024-08-26,マーロン電材株式会社,,株式会社,岡山県,倉敷市,栗坂８７０番地８９,,33,202,7010113,,,2024-08-26,清算の結了等,,,2015-10-05,1,,,,,マーロンデンザイ,0
1840,9260002017280,登記記録の閉鎖等,0,2024-09-02,2024-08-27,有限会社カーロード,,有限会社,岡山県,倉敷市,笹沖１１０２番地の１,,33,202,7100834,,,2024-08-27,清算の結了等,,,2015-10-05,1,,,,,カーロード,0
1843,9260002022215,登記記録の閉鎖等,0,2024-09-02,2024-08-27,有限会社レオ,,有限会社,岡山県,倉敷市,中島２８５３番地の２,,33,202,7100803,,,2024-08-27,清算の結了等,,,2015-10-05,1,,,,,レオ,0
