sequenceNumber,corporateNumber,process,correct,updateDate,changeDate,name,nameImageId,kind,prefectureName,cityName,streetNumber,addressImageId,prefectureCode,cityCode,postCode,addressOutside,addressOutsideImageId,closeDate,closeCause,successorCorporateNumber,changeCause,assignmentDate,latest,enName,enPrefectureName,enCityName,enAddressOutside,furigana,hihyoji
7,1010001259393,新規,0,2025-10-16,2025-10-16,株式会社Ｗｉｍ,,株式会社,東京都,中央区,日本橋２丁目１６－４ｒｅｍｉｘ日本橋６階,,13,102,1030027,,,,,,,2025-10-16,1,,,,,ウィム,0
8,1010001259410,新規,0,2025-10-16,2025-10-16,Ｅｉｗａ　Ｇｌｏｂａｌ株式会社,,株式会社,東京都,文京区,小石川５丁目６番９－１００８号,,13,105,1120002,,,,,,,2025-10-16,1,,,,,エイワグローバル,0
9,1010001259419,新規,0,2025-10-16,2025-10-16,Ｑｕｏｔｅ株式会社,,株式会社,東京都,千代田区,九段北１丁目１４番１２号ＪＰ九段ビル,,13,101,1020073,,,,,,,2025-10-16,1,,,,,クウォウト,0
10,1010001259468,新規,0,2025-10-16,2025-10-16,株式会社ダイサンシャ,,株式会社,東京都,千代田区,神田和泉町１番地６－１６,,13,101,1010024,,,,,,,2025-10-16,1,,,,,ダイサンシャ,0
11,1010001259476,新規,0,2025-10-16,2025-10-16,株式会社ＥＮＩＴ,,株式会社,東京都,文京区,関口１丁目３９－５、１Ｆ,,13,105,1120014,,,,,,,2025-10-16,1,,,,,エニット,0
14,1010005040766,新規,0,2025-10-16,2025-10-16,一般社団法人イプソマ,,その他の設立登記法人,東京都,千代田区,神田小川町３丁目２６番地内田ビル２階,,13,101,1010052,,,,,,,2025-10-16,1,,,,,イプソマ,0
21,1010401193589,新規,0,2025-10-16,2025-10-16,株式会社メルカート,,株式会社,東京都,港区,南青山２丁目２番８号,,13,103,1070062,,,,,,,2025-10-16,1,,,,,メルカート,0
22,1010401193614,新規,0,2025-10-16,2025-10-16,株式会社Ａｌｍａ,,株式会社,東京都,港区,赤坂５丁目３番３－１４０１号,,13,103,1070052,,,,,,,2025-10-16,1,,,,,,0
23,1010401193721,新規,0,2025-10-16,2025-10-16,株式会社ＢｌｕｅＮｏｖａ,,株式会社,東京都,港区,六本木３丁目１番３０号,,13,103,1060032,,,,,,,2025-10-16,1,,,,,ブルーノヴァ,0
24,1010401193928,新規,0,2025-10-16,2025-10-16,株式会社ＩＢＴ,,株式会社,東京都,港区,芝公園１丁目１番１２号芝公園電気ビルディング８階,,13,103,1050011,,,,,,,2025-10-16,1,,,,,アイビーティー,0
25,1010403036283,新規,0,2025-10-16,2025-10-16,合同会社渋川,,合同会社,東京都,港区,虎ノ門２丁目６番１号虎ノ門ヒルズステーションタワー,,13,103,1050001,,,,,,,2025-10-16,1,,,,,シブカワ,0
26,1010403036333,新規,0,2025-10-16,2025-10-16,合同会社睦月,,合同会社,東京都,港区,元赤坂１丁目１番７号,,13,103,1070051,,,,,,,2025-10-16,1,,,,,ムツキ,0
32,1010601068112,新規,0,2025-10-16,2025-10-16,株式会社Ｓｉｌｖｅｒ　Ｗａｖｅ,,株式会社,東京都,江東区,東陽１丁目２１－５,,13,108,1350016,,,,,,,2025-10-16,1,,,,,シルバーウェーブ,0
33,1010601068129,新規,0,2025-10-16,2025-10-16,君澤株式会社,,株式会社,東京都,墨田区,千歳３丁目６番５－５０５号,,13,107,1300025,,,,,,,2025-10-16,1,,,,,キミサワ,0
34,1010601068137,新規,0,2025-10-16,2025-10-16,株式会社ＭＲサービス,,株式会社,東京都,江東区,富岡１丁目４番５号３階,,13,108,1350047,,,,,,,2025-10-16,1,,,,,エムアールサービス,0
37,1010701048468,新規,0,2025-10-16,2025-10-16,株式会社Ｋｕ,,株式会社,東京都,品川区,東品川３丁目１１番５－４０５号,,13,109,1400002,,,,,,,2025-10-16,1,,,,,クウ,0
41,1010903010309,新規,0,2025-10-16,2025-10-16,合同会社２４６,,合同会社,東京都,世田谷区,太子堂３丁目２８番５－４０４号,,13,112,1540004,,,,,,,2025-10-16,1,,,,,ニーヨンロク,0
42,1010903010341,新規,0,2025-10-16,2025-10-16,黒田広報顧問合同会社,,合同会社,東京都,世田谷区,桜新町１丁目３９―１７,,13,112,1540015,,,,,,,2025-10-16,1,,,,,クロダコウホウコモン,0
51,1011003022772,新規,0,2025-10-16,2025-10-16,合同会社ＳｔａｒｔＬｉｎｅ,,合同会社,東京都,渋谷区,道玄坂１丁目１０番８号渋谷道玄坂東急ビル２Ｆ－Ｃ,,13,113,1500043,,,,,,,2025-10-16,1,,,,,スタートライン,0
55,1011101113432,新規,0,2025-10-16,2025-10-16,株式会社ＨＥＩＮ　Ｍｕｄｏｎ,,株式会社,東京都,新宿区,若葉１丁目１１番地ワカバハイツ２Ｂ,,13,104,1600011,,,,,,,2025-10-16,1,,,,,ヘインムドン,0
56,1011103016534,新規,0,2025-10-16,2025-10-16,合同会社オイシイ総研,,合同会社,東京都,新宿区,高田馬場４丁目１３－８,,13,104,1690075,,,,,,,2025-10-16,1,,,,,オイシイソウケン,0
57,1011105011616,新規,0,2025-10-16,2025-10-16,一般財団法人エン奨学助成財団,,その他の設立登記法人,東京都,新宿区,西新宿６丁目５番１号,,13,104,1600023,,,,,,,2025-10-16,1,,,,,エンショウガクジョセイザイダン,0
60,1011201026716,新規,0,2025-10-16,2025-10-16,株式会社Ｋ’ｓ　ｃｏｎｎｅｃｔ,,株式会社,東京都,中野区,東中野５丁目８番９号セントラルレジデンス東中野４０７,,13,114,1640003,,,,,,,2025-10-16,1,,,,,ケーズコネクト,0
61,1011201026724,新規,0,2025-10-16,2025-10-16,株式会社キルアルカル,,株式会社,東京都,中野区,本町４丁目３０番２１－１１０２号,,13,114,1640012,,,,,,,2025-10-16,1,,,,,キルアルカル,0
62,1011203004851,新規,0,2025-10-16,2025-10-16,イシズエ合同会社,,合同会社,東京都,中野区,野方４丁目２０番１号,,13,114,1650027,,,,,,,2025-10-16,1,,,,,イシズエ,0
63,1011301030972,新規,0,2025-10-16,2025-10-16,株式会社ロンド・デンタルデザイン,,株式会社,東京都,杉並区,上高井戸１丁目１番９号サミーハイツ３Ｆ,,13,115,1680074,,,,,,,2025-10-16,1,,,,,ロンドデンタルデザイン,0
67,1011601029095,新規,0,2025-10-16,2025-10-16,ＮＥＫＯ　ＴＥＣＨ株式会社,,株式会社,東京都,練馬区,貫井５丁目２０番７号飯島ビル２Ｆ,,13,120,1760021,,,,,,,2025-10-16,1,,,,,ネコテク,0
69,1011701028848,新規,0,2025-10-16,2025-10-16,株式会社濱本モーターサイクル,,株式会社,東京都,江戸川区,松江４丁目２０－２２,,13,123,1320025,,,,,,,2025-10-16,1,,,,,ハマモトモーターサイクル,0
75,1012401043708,新規,0,2025-10-16,2025-10-16,株式会社畜邦,,株式会社,東京都,三鷹市,大沢４丁目７番１５号コーポサンリバー３０３,,13,204,1810015,,,,,,,2025-10-16,1,,,,,チクホウ,0
77,1012403007405,新規,0,2025-10-16,2025-10-16,合同会社古谷ビル,,合同会社,東京都,武蔵野市,吉祥寺本町１丁目１３番６号６階,,13,203,1800004,,,,,,,2025-10-16,1,,,,,フルヤビル,0
89,1020001165120,新規,0,2025-10-16,2025-10-16,株式会社鈴洋,,株式会社,神奈川県,横浜市青葉区,下谷本町４９,,14,117,2270042,,,,,,,2025-10-16,1,,,,,スズヒロ,0
90,1020001165302,新規,0,2025-10-16,2025-10-16,株式会社ＤＲＥ　ＪＡＰＡＮ,,株式会社,神奈川県,川崎市宮前区,水沢３丁目６番１８－１号,,14,136,2160012,,,,,,,2025-10-16,1,,,,,ディーアールイージャパン,0
93,1021001086546,新規,0,2025-10-16,2025-10-16,株式会社うるかす,,株式会社,神奈川県,三浦郡葉山町,堀内５６２番地堀内５６２タウンハウスＢ－２,,14,301,2400112,,,,,,,2025-10-16,1,,,,,ウルカス,0
94,1021001086570,新規,0,2025-10-16,2025-10-16,柏和株式会社,,株式会社,神奈川県,秦野市,南矢名２２２３番地の４東海ビル１０７Ｂ,,14,211,2570003,,,,,,,2025-10-16,1,,,,,ハクワ,0
107,1040001140625,新規,0,2025-10-16,2025-10-16,株式会社ＴＨＥ　ＭＡＴＣＨＡ　ＣＯＭＰＡＮＹ,,株式会社,千葉県,松戸市,金ケ作３４１番地の６,,12,207,2702251,,,,,,,2025-10-16,1,,,,,ザマッチャカンパニー,0
108,1040001140880,新規,0,2025-10-16,2025-10-16,株式会社あんずまる,,株式会社,千葉県,松戸市,新松戸南１丁目３５０番地の１,,12,207,2700035,,,,,,,2025-10-16,1,,,,,アンズマル,0
114,1050001057455,新規,0,2025-10-16,2025-10-16,株式会社ＢｕＢｕ．,,株式会社,茨城県,稲敷市,釜井４２４番地,,08,229,3000604,,,,,,,2025-10-16,1,,,,,ブブ,0
121,1070001043461,新規,0,2025-10-16,2025-10-16,株式会社ペンタクル十,,株式会社,群馬県,伊勢崎市,連取元町１２３番地２５,,10,204,3720818,,,,,,,2025-10-16,1,,,,,ペンタクルテン,0
128,1110003005926,新規,0,2025-10-16,2025-10-16,ａｌｌ　ｂｅｓｔ．ｃｏｎｓｕｌｔ合同会社,,合同会社,新潟県,新潟市中央区,東大通２丁目４番１０号日本生命新潟ビル６階,,15,103,9500087,,,,,,,2025-10-16,1,,,,,オールベストコンサルト,0
129,1110003005934,新規,0,2025-10-16,2025-10-16,合同会社こしのいえ,,合同会社,新潟県,南魚沼市,石打６,,15,226,9496372,,,,,,,2025-10-16,1,,,,,コシノイエ,0
134,1120001280652,新規,0,2025-10-16,2025-10-16,ＪＯＹＷＡＹ　ＪＡＰＡＮ株式会社,,株式会社,大阪府,大阪市天王寺区,上本町６丁目３番３１－１０８号,,27,109,5430001,,,,,,,2025-10-16,1,,,,,ジョイウェイジャパン,0
135,1120001280751,新規,0,2025-10-16,2025-10-16,平和君株式会社,,株式会社,大阪府,大阪市東淀川区,小松２丁目５番２号２Ｆ,,27,114,5330004,,,,,,,2025-10-16,1,,,,,ヘイワクン,0
136,1120001280801,新規,0,2025-10-16,2025-10-16,ＨＡＶＥＮ空間株式会社,,株式会社,大阪府,大阪市西成区,旭２丁目５－１４,,27,122,5570032,,,,,,,2025-10-16,1,,,,,ハブンクウカン,0
137,1120001281122,新規,0,2025-10-16,2025-10-16,高祥株式会社,,株式会社,大阪府,大阪市東住吉区,中野４丁目１番１６号サラオリエンテ中野８０４Ｂ,,27,121,5460012,,,,,,,2025-10-16,1,,,,,コウショウ,0
138,1120001281155,新規,0,2025-10-16,2025-10-16,栄燦株式会社,,株式会社,大阪府,大阪市東住吉区,中野４丁目１番１６号サラオリエンテ中野５０６Ａ,,27,121,5460012,,,,,,,2025-10-16,1,,,,,エイサン,0
142,1120003030948,新規,0,2025-10-16,2025-10-16,Ｄａｎｉｅ合同会社,,合同会社,大阪府,大阪市西成区,萩之茶屋２丁目６－４ニューかめや２階の７２号室,,27,122,5570004,,,,,,,2025-10-16,1,,,,,ダニエ,0
143,1120101072644,新規,0,2025-10-16,2025-10-16,株式会社ルミナス,,株式会社,大阪府,堺市中区,新家町７６５番地１１－２Ｆ,,27,142,5998232,,,,,,,2025-10-16,1,,,,,ルミナス,0
145,1122001039772,新規,0,2025-10-16,2025-10-16,株式会社笑緒一,,株式会社,大阪府,東大阪市,森河内東２丁目１７番８号,,27,227,5770062,,,,,,,2025-10-16,1,,,,,ワッショイ,0
146,1122003003355,新規,0,2025-10-16,2025-10-16,合同会社枢,,合同会社,大阪府,東大阪市,長田西２丁目２番２号,,27,227,5770016,,,,,,,2025-10-16,1,,,,,カナメ,0
148,1130001080795,新規,0,2025-10-16,2025-10-16,株式会社岡島モータークラブ,,株式会社,京都府,八幡市,八幡五反田３９番地の８,,26,210,6148071,,,,,,,2025-10-16,1,,,,,オカジマモータークラブ,0
149,1130003010858,新規,0,2025-10-16,2025-10-16,ＡＤＡＧＩＡ　Ｐｕｂｌｉｓｈｉｎｇ合同会社,,合同会社,京都府,京都市下京区,東洞院通仏光寺上る扇酒屋町２９８番地カジノハビル４０１号室,,26,106,6008095,,,,,,,2025-10-16,1,,,,,アダージアパブリッシング,0
150,1130005017471,新規,0,2025-10-16,2025-10-16,一般社団法人畑とあまがえる,,その他の設立登記法人,京都府,京都市左京区,岩倉花園町６４２番地１７,,26,103,6060024,,,,,,,2025-10-16,1,,,,,ハタケトアマガエル,0
153,1140001140383,新規,0,2025-10-16,2025-10-16,株式会社ｄＣｌｏｕｄ,,株式会社,兵庫県,神戸市中央区,磯辺通２丁目２－１０－１００６,,28,110,6510084,,,,,,,2025-10-16,1,,,,,ディクラウド,0
155,1140003022704,新規,0,2025-10-16,2025-10-16,エスポワール合同会社,,合同会社,兵庫県,明石市,桜町３－５,,28,203,6730885,,,,,,,2025-10-16,1,,,,,エスポワール,0
157,1160001027100,新規,0,2025-10-16,2025-10-16,株式会社Ａｐｐａｒｅ,,株式会社,滋賀県,大津市,平野２丁目６番２５号,,25,201,5202113,,,,,,,2025-10-16,1,,,,,アッパレ,0
160,1160005011455,新規,0,2025-10-16,2025-10-16,医療法人赤松在宅診療クリニック,,その他の設立登記法人,滋賀県,近江八幡市,鷹飼町５４７番地２きよし堂ビル２階,,25,204,5230891,,,,,,,2025-10-16,1,,,,,アカマツザイタクシンリョウクリニック,0
169,1180001169007,新規,0,2025-10-16,2025-10-16,株式会社Ｔｈｉｎｋ　Ｓｐｈｅｒｅ,,株式会社,愛知県,名古屋市中区,丸の内２丁目１８番５号サン・マルノウチビル１１０３号室,,23,106,4600002,,,,,,,2025-10-16,1,,,,,シンクスフィア,0
170,1180001169048,新規,0,2025-10-16,2025-10-16,松力株式会社,,株式会社,愛知県,名古屋市中村区,稲上町１丁目７番地,,23,105,4530066,,,,,,,2025-10-16,1,,,,,マツリキ,0
171,1180001169056,新規,0,2025-10-16,2025-10-16,株式会社ワン１,,株式会社,愛知県,名古屋市中区,丸の内３丁目６番１９号（ライオンズシティ久屋３０３号）,,23,106,4600002,,,,,,,2025-10-16,1,,,,,ワンワン,0
184,1190003005217,新規,0,2025-10-16,2025-10-16,合同会社スピロトレーディング,,合同会社,三重県,四日市市,小山町字西北野３１７０番２,,24,202,5121102,,,,,,,2025-10-16,1,,,,,スピロトレーディング,0
185,1200001044347,新規,0,2025-10-16,2025-10-16,株式会社ＨＫホールディングス,,株式会社,岐阜県,多治見市,宝町２丁目３９番地の１,,21,204,5070054,,,,,,,2025-10-16,1,,,,,エイチケイホールディングス,0
186,1200003007104,新規,0,2025-10-16,2025-10-16,Ｒｉｓｈｉｙ　Ｖｉｎｔａｇｅ　Ｓｔｕｄｉｏ合同会社,,合同会社,岐阜県,可児市,土田２５４８番地３９９大島ビル２Ｆ,,21,214,5090206,,,,,,,2025-10-16,1,,,,,リシーヴィンテージスタジオ,0
190,1220001026979,新規,0,2025-10-16,2025-10-16,株式会社ファーマーズプロサービス,,株式会社,石川県,小松市,小馬出町２８番地１,,17,203,9230904,,,,,,,2025-10-16,1,,,,,ファーマーズプロサービス,0
191,1230001021137,新規,0,2025-10-16,2025-10-16,株式会社ＫＥＮＳＨＯＵ,,株式会社,富山県,富山市,布瀬町南３丁目４番地２畑田ビル,,16,201,9398208,,,,,,,2025-10-16,1,,,,,,0
195,1240001065645,新規,0,2025-10-16,2025-10-16,株式会社カサハラ企画,,株式会社,広島県,広島市中区,薬研堀７番８号ステイタス２１（２階）,,34,101,7300027,,,,,,,2025-10-16,1,,,,,カサハラキカク,0
205,1290001111576,新規,0,2025-10-16,2025-10-16,ＪＳ　ＥＮＴＥＲＰＲＩＳＥ株式会社,,株式会社,福岡県,福岡市東区,香住ヶ丘２丁目８番２号１０２－１号室,,40,131,8130003,,,,,,,2025-10-16,1,,,,,ジェイエスエンタープライズ,0
206,1290001111642,新規,0,2025-10-16,2025-10-16,株式会社喜楽,,株式会社,福岡県,柳川市,吉富町８０７－１Ａ棟,,40,207,8320055,,,,,,,2025-10-16,1,,,,,キラク,0
207,1290001111650,新規,0,2025-10-16,2025-10-16,小火車知能ロボット株式会社,,株式会社,福岡県,糸島市,高田１丁目８番２号,,40,230,8191102,,,,,,,2025-10-16,1,,,,,ショウカシャチノウロボット,0
208,1290001111659,新規,0,2025-10-16,2025-10-16,株式会社ＬＵＲＩＥ,,株式会社,福岡県,福岡市中央区,港２丁目７番９－３０３号ＭＯＤＥＲＮＰＡＬＡＺＺＯ大濠スクエア,,40,133,8100075,,,,,,,2025-10-16,1,,,,,ルリエ,0
209,1290001111832,新規,0,2025-10-16,2025-10-16,ＮｅｏＬｅｖｅｒａｇｅ株式会社,,株式会社,福岡県,福岡市中央区,天神２丁目２番１２号Ｔ＆Ｊビルディング７Ｆ,,40,133,8100001,,,,,,,2025-10-16,1,,,,,ネオレバレッジ,0
210,1290001111898,新規,0,2025-10-16,2025-10-16,株式会社進和ミック,,株式会社,福岡県,福岡市博多区,中央街５番１１号,,40,132,8120000,,,,,,,2025-10-16,1,,,,,シンワミック,0
211,1290003017516,新規,0,2025-10-16,2025-10-16,ＺＡＷ　ＭＹＡＴ　ＣＯＮＮ合同会社,,合同会社,福岡県,福岡市中央区,警固２丁目１９番１３号警固ロイヤルビル６２０号室,,40,133,8100023,,,,,,,2025-10-16,1,,,,,ゾーミヤッコン,0
212,1290803005190,新規,0,2025-10-16,2025-10-16,クローラーズ合同会社,,合同会社,福岡県,行橋市,行事３丁目９番６号,,40,213,8240001,,,,,,,2025-10-16,1,,,,,クローラーズ,0
217,1330001033659,新規,0,2025-10-16,2025-10-16,株式会社ＬＢＣ,,株式会社,熊本県,熊本市北区,四方寄町４４８番２１号,,43,105,8615515,,,,,,,2025-10-16,1,,,,,エルビーシー,0
218,1330001033667,新規,0,2025-10-16,2025-10-16,ライジングサン株式会社,,株式会社,熊本県,熊本市中央区,国府３丁目２４番１６号ライズ国府２０６,,43,101,8620949,,,,,,,2025-10-16,1,,,,,ライジングサン,0
223,1360003015330,新規,0,2025-10-16,2025-10-16,合同会社ＵＫ１０４,,合同会社,沖縄県,浦添市,牧港３丁目１７番３号,,47,208,9012131,,,,,,,2025-10-16,1,,,,,ユーケイイチマルヨン,0
226,1380001035642,新規,0,2025-10-16,2025-10-16,株式会社ＳＣＯＲＥ．,,株式会社,福島県,郡山市,大槻町字下西田４番地１号,,07,203,9630201,,,,,,,2025-10-16,1,,,,,スコアドット,0
228,1400003003545,新規,0,2025-10-16,2025-10-16,合同会社星和,,合同会社,岩手県,盛岡市,山岸２丁目５－３ハピネスＴ号,,03,201,0200004,,,,,,,2025-10-16,1,,,,,セイワ,0
232,1440003001719,新規,0,2025-10-16,2025-10-16,合同会社地方医療健康研究所,,合同会社,北海道,函館市,西桔梗町８２２番１号,,01,202,0410824,,,,,,,2025-10-16,1,,,,,チホウイリョウケンコウケンキュウジョ,0
234,1450001014754,新規,0,2025-10-16,2025-10-16,株式会社藤丸,,株式会社,北海道,旭川市,旭岡２丁目１１番地の１３,,01,204,0700822,,,,,,,2025-10-16,1,,,,,フジマル,0
235,1450005004462,新規,0,2025-10-16,2025-10-16,ＮＰＯ法人風流山透,,その他の設立登記法人,北海道,稚内市,中央２丁目５番９号,,01,214,0970022,,,,,,,2025-10-16,1,,,,,フルサト,0
239,1700150132538,新規,0,2025-10-16,2025-10-16,ＭＩＴＨＯ　ＬＡＮＫＡ　ＴＲＡＤＩＮＧ　ＰＲＩＶＡＴＥ　ＬＩＭＩＴＥＤ,,外国会社等,茨城県,龍ケ崎市,佐貫町３－２０－８　アークエステート２７－３０２,,08,208,3010033,スリランカ民主社会主義共和国、アクラナ、ドダンゴッラ、１７０番,,,,,,2025-10-16,1,,,,,ミトランカトレーデイングプライベートリミテツド,0
248,2010001258015,新規,0,2025-10-16,2025-10-16,株式会社ＮＯＢＬＥ　ＳＡＶＡＧＥ,,株式会社,東京都,千代田区,五番町４－４サンビューハイツ五番町５０２,,13,101,1020076,,,,,,,2025-10-16,1,,,,,ノーブルサヴェージ,0
249,2010001259285,新規,0,2025-10-16,2025-10-16,懿豐コンサルティング株式会社,,株式会社,東京都,千代田区,神田錦町３丁目１５番地錦精社神田ビル天翔オフィス大手町竹橋１階１０８号室,,13,101,1010054,,,,,,,2025-10-16,1,,,,,イホウコンサルティング,0
250,2010001259434,新規,0,2025-10-16,2025-10-16,株式会社Ｋｄｏｔ,,株式会社,東京都,中央区,勝どき１丁目８－１,,13,102,1040054,,,,,,,2025-10-16,1,,,,,ケイドット,0
251,2010001259442,新規,0,2025-10-16,2025-10-16,株式会社オクロック,,株式会社,東京都,文京区,本駒込４丁目１４番５号,,13,105,1130021,,,,,,,2025-10-16,1,,,,,オクロック,0
252,2010001259467,新規,0,2025-10-16,2025-10-16,Ｓａｍｕｄｅｒａ　Ｊａｐａｎ株式会社,,株式会社,東京都,千代田区,丸の内１丁目４番１号クロスリンク丸の内永楽ビルディング２６階,,13,101,1000005,,,,,,,2025-10-16,1,,,,,サムデラジャパン,0
258,2010003048983,新規,0,2025-10-16,2025-10-16,ＶＩＳＩＯＮＥＯ合同会社,,合同会社,東京都,千代田区,九段南１丁目５番６号りそな九段ビル５階ＫＳフロア,,13,101,1020074,,,,,,,2025-10-16,1,,,,,ビジョネオ,0
259,2010003049008,新規,0,2025-10-16,2025-10-16,ＬａｎｄＲｅｖｏ合同会社,,合同会社,東京都,中央区,日本橋人形町３丁目７番１３号－６０７,,13,102,1030013,,,,,,,2025-10-16,1,,,,,ランドレボ,0
260,2010003049016,新規,0,2025-10-16,2025-10-16,合同会社ＡＭ　ａｌｐｈａ　Ｓｉｘ,,合同会社,東京都,千代田区,霞が関３丁目２番５号,,13,101,1000013,,,,,,,2025-10-16,1,,,,,エーエムアルファシックス,0
261,2010003049049,新規,0,2025-10-16,2025-10-16,Ａｋｏｙｎｉｘ合同会社,,合同会社,東京都,中央区,銀座１丁目２２番１１号銀座大竹ビジデンス２Ｆ,,13,102,1040061,,,,,,,2025-10-16,1,,,,,アコイニクス,0
262,2010005040765,新規,0,2025-10-16,2025-10-16,一般社団法人Ｃｈｒｉｓｔｉａｎ　Ｇｏｓｐｅｌ　Ｍｉｓｓｉｏｎ,,その他の設立登記法人,東京都,千代田区,飯田橋４丁目７番６号６階,,13,101,1020072,,,,,,,2025-10-16,1,,,,,クリスチャンゴスペルミッション,0
264,2010105002351,新規,0,2025-10-16,2025-10-16,一般社団法人共存共栄クラブ,,その他の設立登記法人,東京都,八王子市,館町１８２１番地１２２,,13,201,1930944,,,,,,,2025-10-16,1,,,,,キョウゾンキョウエイクラブ,0
277,2010401193489,新規,0,2025-10-16,2025-10-16,ＫＥＹＯＬ株式会社,,株式会社,東京都,港区,麻布十番３丁目５－８エクセルシオール麻布３０２号,,13,103,1060045,,,,,,,2025-10-16,1,,,,,キーオウエル,0
278,2010401193547,新規,0,2025-10-16,2025-10-16,Ｗｅｌｌｏ株式会社,,株式会社,東京都,港区,北青山１丁目３－３三橋ビル３階,,13,103,1070061,,,,,,,2025-10-16,1,,,,,ウェロー,0
279,2010403036282,新規,0,2025-10-16,2025-10-16,合同会社越後,,合同会社,東京都,港区,虎ノ門２丁目６番１号虎ノ門ヒルズステーションタワー,,13,103,1050001,,,,,,,2025-10-16,1,,,,,エチゴ,0
281,2010405024888,新規,0,2025-10-16,2025-10-16,ＧＳＳＧ　Ｓｏｌａｒ　Ｊａｐａｎ　Ｈｏｌｄｉｎｇｓ１０‐２ＢＥＳＳ一般社団法人,,その他の設立登記法人,東京都,港区,赤坂１丁目１１番４４号赤坂インターシティ５階Ｆｏｒｖｉｓ・Ｍａｚａｒｓ・Ｊａｐａｎ株式会社内,,13,103,1070052,,,,,,,2025-10-16,1,,,,,ジーエスエスジーソーラージャパンホールディングステンツービーイーエスエス,0
283,2010501054888,新規,0,2025-10-16,2025-10-16,株式会社２‐３Ｇｌｏｂａｌ,,株式会社,東京都,台東区,今戸２丁目２０番１－５０５号,,13,106,1110024,,,,,,,2025-10-16,1,,,,,ツースリーグローバル,0
284,2010503008041,新規,0,2025-10-16,2025-10-16,ＭＡＬＩＫＡ合同会社,,合同会社,東京都,台東区,柳橋１丁目２－１２－５Ｆ－ＡＢＳ－Ｂ－１０号,,13,106,1110052,,,,,,,2025-10-16,1,,,,,マリカ,0
285,2010601068128,新規,0,2025-10-16,2025-10-16,恒田株式会社,,株式会社,東京都,墨田区,千歳３丁目６番５－５０７号,,13,107,1300025,,,,,,,2025-10-16,1,,,,,コウダ,0
287,2010603011845,新規,0,2025-10-16,2025-10-16,ＹＯＲＯＣＯＢＩ合同会社,,合同会社,東京都,江東区,東砂３丁目３０番８号明友ビル５０１,,13,108,1360074,,,,,,,2025-10-16,1,,,,,ヨロコビ,0
298,2011003022697,新規,0,2025-10-16,2025-10-16,キングダムハーツ合同会社,,合同会社,東京都,渋谷区,神宮前６丁目２９番４号原宿Ｋｏｍｉｙａビル６階,,13,113,1500001,,,,,,,2025-10-16,1,,,,,キングダムハーツ,0
300,2011201026723,新規,0,2025-10-16,2025-10-16,ＱｕａｌｉｔｙＡＩ　Ｔｅｃｈ株式会社,,株式会社,東京都,中野区,中央３丁目１８番５号,,13,114,1640011,,,,,,,2025-10-16,1,,,,,クオリティーエーアイテック,0
301,2011203004850,新規,0,2025-10-16,2025-10-16,合同会社Ｖｇｒｏｗ,,合同会社,東京都,中野区,東中野３丁目２１番５号ワイズガーデン２０６,,13,114,1640003,,,,,,,2025-10-16,1,,,,,ブイグロウ,0
302,2011203004859,新規,0,2025-10-16,2025-10-16,合同会社エムアンドエム,,合同会社,東京都,中野区,大和町１丁目１番９号,,13,114,1650034,,,,,,,2025-10-16,1,,,,,エムアンドエム,0
305,2011301030971,新規,0,2025-10-16,2025-10-16,未来軒株式会社,,株式会社,東京都,杉並区,荻窪５丁目１１番１７号荻窪有川ビル２０７号室,,13,115,1670051,,,,,,,2025-10-16,1,,,,,ミライケン,0
310,2011801046906,新規,0,2025-10-16,2025-10-16,株式会社Ｕｒｕ,,株式会社,東京都,足立区,西伊興１丁目５番１１－２０６号,,13,121,1210824,,,,,,,2025-10-16,1,,,,,ウル,0
315,2012403007404,新規,0,2025-10-16,2025-10-16,合同会社タカモリ,,合同会社,東京都,三鷹市,上連雀６丁目１２番１８号アーバンパーク三鷹１０５,,13,204,1810012,,,,,,,2025-10-16,1,,,,,タカモリ,0
334,2020001165334,新規,0,2025-10-16,2025-10-16,株式会社ＧｉｖｅＴｅｃｈ,,株式会社,神奈川県,横浜市港南区,丸山台１丁目２番１号,,14,111,2330013,,,,,,,2025-10-16,1,,,,,ギブテック,0
338,2020003029504,新規,0,2025-10-16,2025-10-16,合同会社ジョーンズグループ,,合同会社,神奈川県,横浜市保土ケ谷区,星川３丁目１１番地８ネクスト中川３０２,,14,106,2400006,,,,,,,2025-10-16,1,,,,,ジョーンズグループ,0
339,2020003029520,新規,0,2025-10-16,2025-10-16,ＧＤＣ合同会社,,合同会社,神奈川県,川崎市宮前区,初山２丁目２３－２９リーベスト宮前平４０９,,14,136,2160026,,,,,,,2025-10-16,1,,,,,ジーディーシー,0
340,2020003029578,新規,0,2025-10-16,2025-10-16,合同会社ＧＯＳＨＩ　ＬＡＢ,,合同会社,神奈川県,川崎市多摩区,宿河原６丁目１６番１４－２０４号,,14,135,2140021,,,,,,,2025-10-16,1,,,,,ゴシラボ,0
341,2020003029594,新規,0,2025-10-16,2025-10-16,合同会社クボエイ,,合同会社,神奈川県,横浜市西区,北幸２丁目１０番４８号むつみビル３階,,14,103,2200004,,,,,,,2025-10-16,1,,,,,クボエイ,0
353,2040001140665,新規,0,2025-10-16,2025-10-16,株式会社ＶｉｔａｒＱｌｅ,,株式会社,千葉県,柏市,花野井４０３番地２７,,12,217,2770812,,,,,,,2025-10-16,1,,,,,ヴィタークル,0
356,2040003028735,新規,0,2025-10-16,2025-10-16,Ｃｏｎｖｉｖｅｒｅ合同会社,,合同会社,千葉県,木更津市,清見台東２丁目２５番１６号,,12,206,2920041,,,,,,,2025-10-16,1,,,,,コンヴィヴェーレ,0
364,2080101025853,新規,0,2025-10-16,2025-10-16,ＮＡＤＩＹＡ株式会社,,株式会社,静岡県,富士市,中島９０番地の１パークサイドエムエス２０６号,,22,210,4160907,,,,,,,2025-10-16,1,,,,,ナディヤ,0
365,2080105006544,新規,0,2025-10-16,2025-10-16,一般社団法人どりーむｇａｒｄｅｎ,,その他の設立登記法人,静岡県,富士宮市,西小泉町２９番地の８,,22,207,4180026,,,,,,,2025-10-16,1,,,,,ドリームガーデン,0
366,2080403005363,新規,0,2025-10-16,2025-10-16,合同会社ラックプロモート,,合同会社,静岡県,浜松市浜名区,平口５０４０番地の５,,22,139,4340041,,,,,,,2025-10-16,1,,,,,ラックプロモート,0
373,2110001039652,新規,0,2025-10-16,2025-10-16,株式会社伝燈,,株式会社,新潟県,糸魚川市,寺町１丁目３２５－１,,15,216,9410058,,,,,,,2025-10-16,1,,,,,デントウ,0
388,2120001280676,新規,0,2025-10-16,2025-10-16,株式会社ＡＷＺ,,株式会社,大阪府,大阪市中央区,上本町西５丁目１番３５号,,27,128,5420062,,,,,,,2025-10-16,1,,,,,エーダブリュゼット,0
389,2120001280684,新規,0,2025-10-16,2025-10-16,株式会社Ｅ．Ｒ．Ｕ,,株式会社,大阪府,大阪市浪速区,久保吉１丁目６番９号,,27,111,5560028,,,,,,,2025-10-16,1,,,,,イーアールユ,0
390,2120001280825,新規,0,2025-10-16,2025-10-16,ｓｔｅｌｌａｒ　Ｐｌａｙｗｏｒｋｓ株式会社,,株式会社,大阪府,大阪市大正区,三軒家東１丁目６－１４－１００６,,27,108,5510002,,,,,,,2025-10-16,1,,,,,ステラープレイワークス,0
391,2120001280908,新規,0,2025-10-16,2025-10-16,株式会社ＹＡＢＵＵＣＨＩ,,株式会社,大阪府,寝屋川市,黒原旭町２５番１号,,27,215,5720057,,,,,,,2025-10-16,1,,,,,ヤブウチ,0
392,2120001280932,新規,0,2025-10-16,2025-10-16,ＧＸアースイノベーション株式会社,,株式会社,大阪府,大阪市北区,中之島６丁目１番３８－２７１４号,,27,127,5300005,,,,,,,2025-10-16,1,,,,,ジーエックスアースイノベーション,0
393,2120001281105,新規,0,2025-10-16,2025-10-16,蓮洋株式会社,,株式会社,大阪府,大阪市東成区,大今里３丁目１５番６号ＩｍａｚａｔｏＴｏｗｅｒ５０９Ｃ,,27,115,5370012,,,,,,,2025-10-16,1,,,,,レンヨウ,0
394,2120001281154,新規,0,2025-10-16,2025-10-16,子恒商貿株式会社,,株式会社,大阪府,大阪市東住吉区,中野４丁目１番１６号リベラルオリエンテ中野６１２Ｂ,,27,121,5460012,,,,,,,2025-10-16,1,,,,,ココウショウボウ,0
396,2120003030947,新規,0,2025-10-16,2025-10-16,ＱＵＯＣ　ＤＡＴ合同会社,,合同会社,大阪府,大阪市西成区,花園北１丁目５－６－２０１号,,27,122,5570016,,,,,,,2025-10-16,1,,,,,クオックダト,0
399,2120103006789,新規,0,2025-10-16,2025-10-16,合同会社ＳＵＭＭＩＴ　ＧＲＯＵＰ,,合同会社,大阪府,富田林市,錦織南２丁目２４番１１号,,27,214,5840067,,,,,,,2025-10-16,1,,,,,サミットグループ,0
406,2122001039763,新規,0,2025-10-16,2025-10-16,株式会社３Ｒｉｓｅ,,株式会社,大阪府,八尾市,亀井町２丁目３番２０号,,27,212,5810065,,,,,,,2025-10-16,1,,,,,サンライズ,0
410,2130001080803,新規,0,2025-10-16,2025-10-16,株式会社縁,,株式会社,京都府,京都市右京区,西院東中水町７番地,,26,108,6150042,,,,,,,2025-10-16,1,,,,,エン,0
416,2130005017479,新規,0,2025-10-16,2025-10-16,一般社団法人京都文化芸術交流推進機構,,その他の設立登記法人,京都府,京都市北区,紫野中柏野町４番１７,,26,101,6038312,,,,,,,2025-10-16,1,,,,,キョウトブンカゲイジュツコウリュウスイシンキコウ,0
418,2140001140382,新規,0,2025-10-16,2025-10-16,株式会社エイト,,株式会社,兵庫県,明石市,大久保町江井島９１４番地１エーフロント１階,,28,203,6740064,,,,,,,2025-10-16,1,,,,,エイト,0
424,2150003003719,新規,0,2025-10-16,2025-10-16,合同会社心和堂,,合同会社,奈良県,天理市,柳本町２５９２番地,,29,204,6320052,,,,,,,2025-10-16,1,,,,,ココワドウ,0
425,2160001027149,新規,0,2025-10-16,2025-10-16,株式会社ＴＥＡＭＷＯＲＫＢＩＺ,,株式会社,滋賀県,大津市,瀬田大江町１３－１８,,25,201,5202123,,,,,,,2025-10-16,1,,,,,チームワークビズ,0
432,2180001169154,新規,0,2025-10-16,2025-10-16,株式会社Ｍ２Ｊ,,株式会社,愛知県,名古屋市東区,東桜２丁目６番４３号センチュリーステイツ高岳４０４,,23,102,4610005,,,,,,,2025-10-16,1,,,,,エムトゥジェイ,0
433,2180001169162,新規,0,2025-10-16,2025-10-16,株式会社協和,,株式会社,愛知県,名古屋市東区,泉１丁目３番４３－８０１号,,23,102,4610001,,,,,,,2025-10-16,1,,,,,,0
443,2190003005216,新規,0,2025-10-16,2025-10-16,ＧＬＯＢＡＬ　ＴＲＡＤＩＮＧ合同会社,,合同会社,三重県,津市,高茶屋６丁目１４番８号,,24,201,5140819,,,,,,,2025-10-16,1,,,,,グローバルトレーディング,0
444,2190003005224,新規,0,2025-10-16,2025-10-16,合同会社あいらぼ,,合同会社,三重県,松阪市,下村町１０４４‐８サンパティークＡ棟１０１,,24,204,5150043,,,,,,,2025-10-16,1,,,,,アイラボ,0
449,2220001026978,新規,0,2025-10-16,2025-10-16,ＬＹＦＥ株式会社,,株式会社,石川県,金沢市,新保本５丁目１５７番地,,17,201,9218062,,,,,,,2025-10-16,1,,,,,ライフ,0
451,2240001065660,新規,0,2025-10-16,2025-10-16,あやたか株式会社,,株式会社,広島県,広島市中区,加古町１４番２４号,,34,101,7300812,,,,,,,2025-10-16,1,,,,,アヤタカ,0
459,2260001040595,新規,0,2025-10-16,2025-10-16,ＺｅｒｏＢａｎｋＸ　Ｊａｐａｎ株式会社,,株式会社,岡山県,岡山市北区,平和町６番２７号,,33,101,7000827,,,,,,,2025-10-16,1,,,,,ゼロバンクスジャパン,0
460,2260001040653,新規,0,2025-10-16,2025-10-16,株式会社北商ファーム,,株式会社,岡山県,勝田郡勝央町,黒土１２４番地の１コーポオアシス２・１０２号室,,33,622,7094312,,,,,,,2025-10-16,1,,,,,キタショウファーム,0
463,2290001111633,新規,0,2025-10-16,2025-10-16,新医学研究所株式会社,,株式会社,福岡県,福岡市博多区,博多駅前３丁目１０番１０号,,40,132,8120011,,,,,,,2025-10-16,1,,,,,シンイガクケンキュウジョ,0
464,2290001111690,新規,0,2025-10-16,2025-10-16,日唐礎材株式会社,,株式会社,福岡県,糸島市,二丈松末字下橋口１１４５番地７,,40,230,8191613,,,,,,,2025-10-16,1,,,,,ニットウソザイ,0
465,2290801031948,新規,0,2025-10-16,2025-10-16,中原工務店株式会社,,株式会社,福岡県,京都郡みやこ町,犀川花熊９５３番地,,40,625,8240233,,,,,,,2025-10-16,1,,,,,ナカハラコウムテン,0
467,2290805009866,新規,0,2025-10-16,2025-10-16,一般財団法人神社復興財団,,その他の設立登記法人,福岡県,北九州市門司区,大字門司３４９２番地,,40,101,8010855,,,,,,,2025-10-16,1,,,,,ジンジャフッコウザイダン,0
469,2310001019824,新規,0,2025-10-16,2025-10-16,株式会社井川酒店,,株式会社,長崎県,長崎市,中小島２丁目２－１６,,42,201,8500836,,,,,,,2025-10-16,1,,,,,イガワサケテン,0
473,2330001033666,新規,0,2025-10-16,2025-10-16,Ｈ．Ｄ．Ｓ株式会社,,株式会社,熊本県,熊本市中央区,子飼本町７－１４ライオンアネックス２０７号,,43,101,8600851,,,,,,,2025-10-16,1,,,,,エイチディエス,0
476,2350001019770,新規,0,2025-10-16,2025-10-16,コトウオフィス株式会社,,株式会社,宮崎県,都城市,北原町７街区２号,,45,202,8850024,,,,,,,2025-10-16,1,,,,,コトウオフィス,0
479,2360003015313,新規,0,2025-10-16,2025-10-16,合同会社嶺井自動車商会,,合同会社,沖縄県,南城市,玉城字當山１１１番地１,,47,215,9010612,,,,,,,2025-10-16,1,,,,,ミネイジドウシャショウカイ,0
481,2370001053082,新規,0,2025-10-16,2025-10-16,ミライ株式会社,,株式会社,宮城県,仙台市青葉区,通町２丁目１７番１８号ラビットハイツＩＶ２０２室,00141125,04,101,9810915,,,,,,,2025-10-16,1,,,,,ミライ,0
482,2370001053157,新規,0,2025-10-16,2025-10-16,株式会社ノヴェイラ,,株式会社,宮城県,岩沼市,押分字間畑２０番６号,,04,211,9892423,,,,,,,2025-10-16,1,,,,,ノヴェイラ,0
485,2380001035641,新規,0,2025-10-16,2025-10-16,株式会社Ｆｉｒｓｔ,,株式会社,福島県,田村市,船引町船引字四城内前３５番地,,07,211,9634312,,,,,,,2025-10-16,1,,,,,ファースト,0
487,2400003003544,新規,0,2025-10-16,2025-10-16,合同会社しずく,,合同会社,岩手県,岩手郡雫石町,上野砂壁１５番地１,,03,301,0200583,,,,,,,2025-10-16,1,,,,,,0
488,2400005008525,新規,0,2025-10-16,2025-10-16,一般社団法人ＨＡＲＵＫＡ,,その他の設立登記法人,岩手県,一関市,厳美町字上ノ台４２番地２,,03,209,0210101,,,,,,,2025-10-16,1,,,,,ハルカ,0
495,2430001095416,新規,0,2025-10-16,2025-10-16,株式会社三縁,,株式会社,北海道,札幌市白石区,北郷三条４丁目６番２７号,,01,104,0030833,,,,,,,2025-10-16,1,,,,,サンエン,0
504,2500003003617,新規,0,2025-10-16,2025-10-16,合同会社ノメル,,合同会社,愛媛県,松山市,青葉台１２番地１４,,38,201,7918019,,,,,,,2025-10-16,1,,,,,ノメル,0
510,3010001259400,新規,0,2025-10-16,2025-10-16,ＴＯ　ＴＯ　ＮＯＷ株式会社,,株式会社,東京都,文京区,千石４丁目２７番１３号,,13,105,1120011,,,,,,,2025-10-16,1,,,,,トトノウ,0
511,3010001259409,新規,0,2025-10-16,2025-10-16,ＫＯＫＯＲＯＮＯ株式会社,,株式会社,東京都,中央区,銀座１丁目１２番４号Ｎ＆Ｅ・ＢＬＤ．６Ｆ,,13,102,1040061,,,,,,,2025-10-16,1,,,,,ココロノ,0
513,3010003049064,新規,0,2025-10-16,2025-10-16,合同会社君津ＰＧ,,合同会社,東京都,中央区,日本橋箱崎町１６－１東益ビル６階,,13,102,1030015,,,,,,,2025-10-16,1,,,,,キミツピージー,0
514,3010101016908,新規,0,2025-10-16,2025-10-16,ｂｌｏｏｍ　ｗｏｒｋｓ株式会社,,株式会社,東京都,八王子市,兵衛２丁目３番２０号,,13,201,1920918,,,,,,,2025-10-16,1,,,,,ブルームワークス,0
523,3010401193455,新規,0,2025-10-16,2025-10-16,コーラスライン株式会社,,株式会社,東京都,港区,芝３丁目２５番２号,,13,103,1050014,,,,,,,2025-10-16,1,,,,,コーラスライン,0
524,3010401193703,新規,0,2025-10-16,2025-10-16,株式会社ＩＭＡＮＩ,,株式会社,東京都,港区,海岸３丁目１７番１５号ラ・ストーリア芝浦７０１,,13,103,1080022,,,,,,,2025-10-16,1,,,,,イマニ,0
525,3010401193752,新規,0,2025-10-16,2025-10-16,ネスリンク株式会社,,株式会社,東京都,港区,新橋３丁目２番２号ラヴィーナ新橋５階,,13,103,1050004,,,,,,,2025-10-16,1,,,,,ネスリンク,0
526,3010403036281,新規,0,2025-10-16,2025-10-16,合同会社湯沢,,合同会社,東京都,港区,虎ノ門２丁目６番１号虎ノ門ヒルズステーションタワー,,13,103,1050001,,,,,,,2025-10-16,1,,,,,ユザワ,0
527,3010403036298,新規,0,2025-10-16,2025-10-16,合同会社ＳＭＴ,,合同会社,東京都,港区,南青山２丁目４番１５号天翔南青山ビル５階Ｓ５０７号室,,13,103,1070062,,,,,,,2025-10-16,1,,,,,エスエムティー,0
528,3010405024788,新規,0,2025-10-16,2025-10-16,一般社団法人獣医ＡＩロボット外科学会,,その他の設立登記法人,東京都,港区,港南２丁目１３番３７号,,13,103,1080075,,,,,,,2025-10-16,1,,,,,ジュウイエーアイロボットゲカガッカイ,0
529,3010405024887,新規,0,2025-10-16,2025-10-16,ＧＳＳＧ　Ｓｏｌａｒ　Ｊａｐａｎ　Ｈｏｌｄｉｎｇｓ１０‐１ＢＥＳＳ一般社団法人,,その他の設立登記法人,東京都,港区,赤坂１丁目１１番４４号赤坂インターシティ５階Ｆｏｒｖｉｓ・Ｍａｚａｒｓ・Ｊａｐａｎ株式会社内,,13,103,1070052,,,,,,,2025-10-16,1,,,,,ジーエスエスジーソーラージャパンホールディングステンワンビーイーエスエス,0
536,3010601068127,新規,0,2025-10-16,2025-10-16,錦晨ビジネスコンサルティング株式会社,,株式会社,東京都,墨田区,千歳３丁目６番５－５０４号,,13,107,1300025,,,,,,,2025-10-16,1,,,,,キンシンビジネスコンサルティング,0
537,3010601068135,新規,0,2025-10-16,2025-10-16,株式会社ＲＥＬＩＡＢＬＥ,,株式会社,東京都,江東区,東陽１丁目３８番１６号,,13,108,1350016,,,,,,,2025-10-16,1,,,,,リライアブル,0
539,3010703007957,新規,0,2025-10-16,2025-10-16,合同会社ＳＡＧＡＮＯ商会,,合同会社,東京都,品川区,北品川４丁目８番３３号３１１,,13,109,1400001,,,,,,,2025-10-16,1,,,,,サガノショウカイ,0
548,3011001005372,新規,0,2025-10-16,2025-10-16,株式会社海協通信,,株式会社,東京都,渋谷区,笹塚１丁目５４番９号,,13,113,1510073,,,,,,,2025-10-16,1,,,,,カイキョウツウシン,0
554,3011001172931,新規,0,2025-10-16,2025-10-16,株式会社フライトア,,株式会社,東京都,渋谷区,円山町５番３号ＭＩＥＵＸ渋谷ビル８階,,13,113,1500044,,,,,,,2025-10-16,1,,,,,フライトア,0
555,3011001172964,新規,0,2025-10-16,2025-10-16,株式会社ＣＦＨグループカンパニー,,株式会社,東京都,渋谷区,恵比寿南１丁目４番２号紀伊國屋ビル４階,,13,113,1500022,,,,,,,2025-10-16,1,,,,,シーエフエイチグループカンパニー,0
558,3011003022696,新規,0,2025-10-16,2025-10-16,合同会社サニーデイキャピタル,,合同会社,東京都,渋谷区,道玄坂１丁目１０番８号渋谷道玄坂東急ビル２Ｆ－Ｃ,,13,113,1500043,,,,,,,2025-10-16,1,,,,,サニーデイキャピタル,0
559,3011003022705,新規,0,2025-10-16,2025-10-16,合同会社レイコラボ,,合同会社,東京都,渋谷区,恵比寿西２丁目８番４号ＥＸ恵比寿西ビル５階,,13,113,1500021,,,,,,,2025-10-16,1,,,,,レイコラボ,0
562,3011101113422,新規,0,2025-10-16,2025-10-16,ＫＩＺＵＮＡ　ＭＥＤＩＣＡＬ株式会社,,株式会社,東京都,新宿区,西新宿３丁目３番１３号西新宿水間ビル６階,,13,104,1600023,,,,,,,2025-10-16,1,,,,,キズナメディカル,0
563,3011101113521,新規,0,2025-10-16,2025-10-16,株式会社橙,,株式会社,東京都,新宿区,新宿６丁目２９－１１新宿イーストクロスタワー,,13,104,1600022,,,,,,,2025-10-16,1,,,,,トウ,0
566,3011103016474,新規,0,2025-10-16,2025-10-16,合同会社チェルシー,,合同会社,東京都,新宿区,西落合２丁目２３番１２号,,13,104,1610031,,,,,,,2025-10-16,1,,,,,チェルシー,0
567,3011201026722,新規,0,2025-10-16,2025-10-16,ＫＡＺＥＶＯ株式会社,,株式会社,東京都,中野区,中央５丁目２３－１１第二丹沢ビル１Ｆ－１０２号室,,13,114,1640011,,,,,,,2025-10-16,1,,,,,カゼヴォ,0
568,3011203004858,新規,0,2025-10-16,2025-10-16,合同会社へんな,,合同会社,東京都,中野区,本町１丁目８番１５号,,13,114,1640012,,,,,,,2025-10-16,1,,,,,ヘンナ,0
579,3012401043714,新規,0,2025-10-16,2025-10-16,株式会社ａｎｄｎｐ,,株式会社,東京都,府中市,新町１丁目８２番３４,,13,206,1830052,,,,,,,2025-10-16,1,,,,,アンドエヌピー,0
580,3012403007403,新規,0,2025-10-16,2025-10-16,シンセリティ・パートナーズ合同会社,,合同会社,東京都,府中市,晴見町３丁目１７番地の４,,13,206,1830057,,,,,,,2025-10-16,1,,,,,シンセリティパートナーズ,0
581,3012701019133,新規,0,2025-10-16,2025-10-16,株式会社東日本ＧｏｏｄＨｏｕｓｅ,,株式会社,東京都,西東京市,新町４丁目１番８－３０２号,,13,229,2020023,,,,,,,2025-10-16,1,,,,,ヒガシニホングッドハウス,0
586,3013301055155,新規,0,2025-10-16,2025-10-16,株式会社豊行商事,,株式会社,東京都,豊島区,西池袋１丁目２９番１４－５０７号,,13,116,1710021,,,,,,,2025-10-16,1,,,,,ホウコウショウジ,0
604,3020003029552,新規,0,2025-10-16,2025-10-16,合同会社Ｅｖｅｒｙ　Ｌｉｆｅ　Ｓｕｐｐｏｒｔ　Ｗｏｒｋｓ,,合同会社,神奈川県,横浜市中区,根岸町３丁目１８８番地トーカンマンション新根岸２０３号室,,14,104,2310836,,,,,,,2025-10-16,1,,,,,エブリライフサポートワークス,0
605,3020003029602,新規,0,2025-10-16,2025-10-16,ホリゾンタルモバイルエンジニアリング合同会社,,合同会社,神奈川県,横浜市港北区,樽町３丁目７番１３－２４号,,14,109,2220001,,,,,,,2025-10-16,1,,,,,ホリゾンタルモバイルエンジニアリング,0
609,3021001086552,新規,0,2025-10-16,2025-10-16,株式会社ＭＡＤ,,株式会社,神奈川県,大和市,鶴間２丁目１番２４号７０２号室,,14,213,2420004,,,,,,,2025-10-16,1,,,,,エムエイディ,0
615,3021003016689,新規,0,2025-10-16,2025-10-16,ＲＥＢＡ　Ｓ　ＣＯＲＰＯＲＡＴＩＯＮ合同会社,,合同会社,神奈川県,横須賀市,平作１丁目７番１０号ベルピア衣笠第６－１０５,,14,201,2380032,,,,,,,2025-10-16,1,,,,,レバエスコーポレーション,0
619,3030001169218,新規,0,2025-10-16,2025-10-16,株式会社ＡＴＬＡＳＴ,,株式会社,埼玉県,熊谷市,妻沼西１丁目５番地,,11,202,3600238,,,,,,,2025-10-16,1,,,,,アトラス,0
622,3030005022307,新規,0,2025-10-16,2025-10-16,医療法人社団絆新会,,その他の設立登記法人,埼玉県,越谷市,北越谷２丁目２４番２３号,,11,222,3430026,,,,,,,2025-10-16,1,,,,,ハンシンカイ,0
627,3040001140846,新規,0,2025-10-16,2025-10-16,株式会社ＲＥＶＯホールディングス,,株式会社,千葉県,柏市,柏３丁目７番１１号,,12,217,2770005,,,,,,,2025-10-16,1,,,,,レボホールディングス,0
628,3040001140879,新規,0,2025-10-16,2025-10-16,株式会社経理屋,,株式会社,千葉県,君津市,台１丁目１４番７号,,12,225,2991153,,,,,,,2025-10-16,1,,,,,ケイリヤ,0
629,3040001140945,新規,0,2025-10-16,2025-10-16,株式会社魚一商店,,株式会社,千葉県,柏市,南増尾６丁目４番３４号,,12,217,2770054,,,,,,,2025-10-16,1,,,,,ウオイチショウテン,0
631,3040003028767,新規,0,2025-10-16,2025-10-16,合同会社バイ・スリー,,合同会社,千葉県,四街道市,四街道２丁目１４番３号,,12,228,2840005,,,,,,,2025-10-16,1,,,,,バイスリー,0
635,3050001057429,新規,0,2025-10-16,2025-10-16,株式会社ＡＩ　ＳＴＡＲＴ,,株式会社,茨城県,鹿嶋市,大字宮中５１－２,,08,222,3140031,,,,,,,2025-10-16,1,,,,,エーアイスタート,0
656,3100003008432,新規,0,2025-10-16,2025-10-16,合同会社ＦＡＬＣＯＮ　ＡＵＴＯＳ,,合同会社,長野県,上田市,古里１９９０番地２,,20,203,3860005,,,,,,,2025-10-16,1,,,,,ファルコンオートズ,0
658,3110003005932,新規,0,2025-10-16,2025-10-16,合同会社Ｍｅｍｏｒｉｅｓ,,合同会社,新潟県,新潟市中央区,関屋大川前１丁目１番１０号,,15,103,9518142,,,,,,,2025-10-16,1,,,,,メモリーズ,0
663,3120001280700,新規,0,2025-10-16,2025-10-16,株式会社Ｋｏｋｏ　Ｐｒｏｍｏｔｉｏｎ,,株式会社,大阪府,大阪市東住吉区,山坂５丁目４番３０号,,27,121,5460035,,,,,,,2025-10-16,1,,,,,ココプロモーション,0
664,3120001280816,新規,0,2025-10-16,2025-10-16,株式会社Ｓｏｌｉｖｒａ,,株式会社,大阪府,大阪市港区,港晴３丁目２－６－３０１号室,,27,107,5520023,,,,,,,2025-10-16,1,,,,,ソリヴァー,0
665,3120001280849,新規,0,2025-10-16,2025-10-16,株式会社Ｒｅ’Ｖ　Ｃｒｅａｔｉｏｎ,,株式会社,大阪府,大阪市鶴見区,鶴見１丁目６番５９－１３１１号,,27,124,5380053,,,,,,,2025-10-16,1,,,,,リブイクリエイション,0
666,3120001280857,新規,0,2025-10-16,2025-10-16,株式会社Ｉｎｎｅｒ　Ｂｒｉｄｇｅ,,株式会社,大阪府,大阪市北区,梅田１丁目２番２号大阪駅前第２ビル９階１２－１２,,27,127,5300001,,,,,,,2025-10-16,1,,,,,インナーブリッジ,0
667,3120001280865,新規,0,2025-10-16,2025-10-16,株式会社山本運送,,株式会社,大阪府,大阪市阿倍野区,播磨町１丁目１番５２号Ｃａｓａｂｌａｎｃａ阿倍野Ｃ号,,27,119,5450022,,,,,,,2025-10-16,1,,,,,ヤマモトウンソウ,0
668,3120001280873,新規,0,2025-10-16,2025-10-16,古家株式会社,,株式会社,大阪府,大阪市阿倍野区,丸山通１丁目５－２－４０１,,27,119,5450042,,,,,,,2025-10-16,1,,,,,フルイエ,0
669,3120001280923,新規,0,2025-10-16,2025-10-16,一二三硝子株式会社,,株式会社,大阪府,大阪市浪速区,湊町２丁目２番５－６２０号,,27,111,5560017,,,,,,,2025-10-16,1,,,,,ヒフミガラス,0
670,3120001281153,新規,0,2025-10-16,2025-10-16,潤和株式会社,,株式会社,大阪府,大阪市東住吉区,中野４丁目１番１６号サラオリエンテ中野５０６Ｂ,,27,121,5460012,,,,,,,2025-10-16,1,,,,,ジュンワ,0
671,3120001281161,新規,0,2025-10-16,2025-10-16,株式会社友拓商事,,株式会社,大阪府,大阪市東成区,大今里３丁目１５番６号ＩｍａｚａｔｏＴｏｗｅｒ２０３Ｃ,,27,115,5370012,,,,,,,2025-10-16,1,,,,,ユウタクショウジ,0
672,3120003030905,新規,0,2025-10-16,2025-10-16,合同会社ＬＥＯＲＣａ,,合同会社,大阪府,大阪市中央区,南船場１丁目８番２８号,,27,128,5420081,,,,,,,2025-10-16,1,,,,,レオルカ,0
673,3120003030938,新規,0,2025-10-16,2025-10-16,瞬ＧｏｏｄＭｅｍｏｒｙ合同会社,,合同会社,大阪府,大阪市淀川区,東三国３丁目１１番１６号４階,,27,123,5320002,,,,,,,2025-10-16,1,,,,,シュングッドメモリー,0
674,3120003030946,新規,0,2025-10-16,2025-10-16,ＤＵＡＮ　ＪＡＰＡＮ合同会社,,合同会社,大阪府,大阪市生野区,小路２丁目１８－５川辺ビル２８８－４０１号,,27,116,5440002,,,,,,,2025-10-16,1,,,,,ズアンジャパン,0
675,3120003030954,新規,0,2025-10-16,2025-10-16,Ｒｅ　ｓｐａｒｋｌｅ合同会社,,合同会社,大阪府,大阪市西区,京町堀１丁目１８番１５号藤原ビル６Ｆ,,27,106,5500003,,,,,,,2025-10-16,1,,,,,リスパークル,0
676,3120003031028,新規,0,2025-10-16,2025-10-16,笑穂らいふパートナー合同会社,,合同会社,大阪府,寝屋川市,宇谷町５番２‐１１２９号,,27,215,5720856,,,,,,,2025-10-16,1,,,,,エミホライフパートナー,0
677,3120101072634,新規,0,2025-10-16,2025-10-16,楽宇興株式会社,,株式会社,大阪府,松原市,天美南３丁目１０－２５ＵＩＩＴＩＶ番館２０２号室,00141123,27,217,5800033,,,,,,,2025-10-16,1,,,,,ラクウキョウ,0
685,3130001080802,新規,0,2025-10-16,2025-10-16,株式会社ＳＲ,,株式会社,京都府,京都市南区,八条源町４８番地１１,,26,107,6018477,,,,,,,2025-10-16,1,,,,,エスアール,0
686,3130001080810,新規,0,2025-10-16,2025-10-16,株式会社飯田工業,,株式会社,京都府,京都市伏見区,小栗栖中山田町６７番地２シャトル蜂ノ壺３０１号,,26,109,6011463,,,,,,,2025-10-16,1,,,,,イイダコウギョウ,0
692,3140001140258,新規,0,2025-10-16,2025-10-16,株式会社悠々,,株式会社,兵庫県,尼崎市,南塚口町４丁目１番４７号,,28,202,6610012,,,,,,,2025-10-16,1,,,,,ユウユウ,0
693,3140001140373,新規,0,2025-10-16,2025-10-16,Ｍｓｕｒｖｅｙ株式会社,,株式会社,兵庫県,西宮市,樋之池町１０番２５号,,28,204,6620084,,,,,,,2025-10-16,1,,,,,エムサーベイ,0
694,3140003022644,新規,0,2025-10-16,2025-10-16,悠工芸合同会社,,合同会社,兵庫県,伊丹市,荒牧５丁目１１番２－２０５号,,28,207,6640001,,,,,,,2025-10-16,1,,,,,ユウコウゲイ,0
699,3160001027148,新規,0,2025-10-16,2025-10-16,Ｍスクエア株式会社,,株式会社,滋賀県,蒲生郡日野町,中道１丁目７８番地１,,25,383,5291609,,,,,,,2025-10-16,1,,,,,,0
707,3180001169062,新規,0,2025-10-16,2025-10-16,株式会社アトラスリンク,,株式会社,愛知県,大府市,共和町４丁目２９３番地１,,23,223,4740061,,,,,,,2025-10-16,1,,,,,アトラスリンク,0
708,3180001169070,新規,0,2025-10-16,2025-10-16,株式会社Ｏｐｅｎ　Ｈａｎｄｓ,,株式会社,愛知県,一宮市,貴船町４丁目１０番地１,,23,203,4910076,,,,,,,2025-10-16,1,,,,,オープンハンズ,0
709,3180001169161,新規,0,2025-10-16,2025-10-16,株式会社みやげる,,株式会社,愛知県,名古屋市昭和区,御器所町字木市２９番地,,23,107,4660061,,,,,,,2025-10-16,1,,,,,ミヤゲル,0
712,3180003029173,新規,0,2025-10-16,2025-10-16,コアサイト合同会社,,合同会社,愛知県,名古屋市千種区,不老町国立大学法人東海国立大学機構ＴＯＩＣ名古屋,,23,101,4640814,,,,,,,2025-10-16,1,,,,,コアサイト,0
718,3190003005223,新規,0,2025-10-16,2025-10-16,合同会社Ｄ山,,合同会社,三重県,桑名市,松ノ木８丁目１４番地１５,,24,205,5110902,,,,,,,2025-10-16,1,,,,,ディーヤマ,0
722,3220001026977,新規,0,2025-10-16,2025-10-16,株式会社日高マシン,,株式会社,石川県,羽咋郡志賀町,徳田新１５１番地,,17,384,9250212,,,,,,,2025-10-16,1,,,,,ヒダカマシン,0
727,3240001065643,新規,0,2025-10-16,2025-10-16,株式会社オクターブ,,株式会社,広島県,福山市,引野町１丁目１８番２８号１０７号室,,34,207,7210942,,,,,,,2025-10-16,1,,,,,オクターブ,0
735,3290001111632,新規,0,2025-10-16,2025-10-16,株式会社ＦＩＲＳＴ,,株式会社,福岡県,福岡市東区,二又瀬新町１３番８－７０４号,,40,131,8120065,,,,,,,2025-10-16,1,,,,,ファースト,0
736,3290001111649,新規,0,2025-10-16,2025-10-16,株式会社リルエージェンシー,,株式会社,福岡県,福岡市博多区,博多駅前１丁目２３番２号ＰａｒｋＦｒｏｎｔ博多駅前１丁目５Ｆ－Ｂ,,40,132,8120011,,,,,,,2025-10-16,1,,,,,リルエージェンシー,0
738,3290003017530,新規,0,2025-10-16,2025-10-16,ＤＭＣカンパニー合同会社,,合同会社,福岡県,福岡市中央区,荒戸２丁目１－２２斉藤ビル１階,,40,133,8100062,,,,,,,2025-10-16,1,,,,,ディーエムシーカンパニー,0
739,3290003017621,新規,0,2025-10-16,2025-10-16,合同会社ＮＩＳＨＩＭＵＲＡ,,合同会社,福岡県,福岡市城南区,松山２丁目３３番２号,,40,136,8140131,,,,,,,2025-10-16,1,,,,,ニシムラ,0
740,3290005019855,新規,0,2025-10-16,2025-10-16,一般社団法人リサイクル・リユース協会,,その他の設立登記法人,福岡県,糟屋郡篠栗町,庄１丁目６番１５号,,40,342,8112419,,,,,,,2025-10-16,1,,,,,リサイクルリユースキョウカイ,0
752,3330003011264,新規,0,2025-10-16,2025-10-16,合同会社つぐみケア,,合同会社,熊本県,熊本市東区,長嶺西１丁目９番１－３０２号,,43,102,8618037,,,,,,,2025-10-16,1,,,,,ツグミケア,0
754,3340001027724,新規,0,2025-10-16,2025-10-16,株式会社Ａｌｔｅｏｎｕｓ,,株式会社,鹿児島県,鹿児島市,紫原７丁目３４番地７号グランドゥール水口４０３号,,46,201,8900082,,,,,,,2025-10-16,1,,,,,アルテオナス,0
756,3340003004985,新規,0,2025-10-16,2025-10-16,合同会社あお,,合同会社,鹿児島県,鹿児島市,広木２丁目１８番４号,,46,201,8900037,,,,,,,2025-10-16,1,,,,,アオ,0
758,3360001035915,新規,0,2025-10-16,2025-10-16,株式会社ＯＭエレクトロニクス沖縄,,株式会社,沖縄県,中頭郡西原町,上原２丁目２８番地の１０ミオビエントラヴィーダ上原６０３号,,47,329,9030125,,,,,,,2025-10-16,1,,,,,オーエムエレクトロニクスオキナワ,0
762,3360003015329,新規,0,2025-10-16,2025-10-16,ＮＡＨＡ　ＮＩＳＨＩ　ＧＲＯＵＰ合同会社,,合同会社,沖縄県,那覇市,西１丁目５番８－３０２号西沖商マンション,,47,201,9000036,,,,,,,2025-10-16,1,,,,,ナハニシグループ,0
769,3380001035640,新規,0,2025-10-16,2025-10-16,株式会社ＳＤＳ,,株式会社,福島県,白河市,横町３０番地,,07,205,9610907,,,,,,,2025-10-16,1,,,,,エスディーエス,0
772,3400003003543,新規,0,2025-10-16,2025-10-16,合同会社トネリコ・アセット,,合同会社,岩手県,盛岡市,肴町１１番１３号パークハイツ肴町６０１号室,,03,201,0200878,,,,,,,2025-10-16,1,,,,,トネリコアセット,0
773,3400005008524,新規,0,2025-10-16,2025-10-16,特定非営利活動法人たがだの未来をひらく,,その他の設立登記法人,岩手県,陸前高田市,気仙町字垂井ヶ沢３０２番４,,03,210,0292204,,,,,,,2025-10-16,1,,,,,タガダノミライヲヒラク,0
781,3430001095431,新規,0,2025-10-16,2025-10-16,Ｎｉｓｅｋｏ　Ｃｏｎｓｔｒｕｃｔｉｏｎ株式会社,,株式会社,北海道,虻田郡ニセコ町,字ニセコ３８４番地３０,,01,395,0481511,,,,,,,2025-10-16,1,,,,,ニセココンストラクション,0
782,3430001095480,新規,0,2025-10-16,2025-10-16,株式会社Ｓ５６７,,株式会社,北海道,札幌市中央区,南三条東４丁目３番地ＴＯＭＴＯＭビル２階,,01,101,0600053,,,,,,,2025-10-16,1,,,,,エスゴロクナナ,0
786,3470003003000,新規,0,2025-10-16,2025-10-16,合同会社オフィスＭ,,合同会社,香川県,丸亀市,土器町西８丁目４１０番地,,37,202,7630081,,,,,,,2025-10-16,1,,,,,オフィスエム,0
794,4010001259283,新規,0,2025-10-16,2025-10-16,コネクサス株式会社,,株式会社,東京都,千代田区,大手町１丁目５番１号,,13,101,1000004,,,,,,,2025-10-16,1,,,,,コネクサス,0
795,4010001259408,新規,0,2025-10-16,2025-10-16,株式会社ＢＡＯ,,株式会社,東京都,中央区,新川２丁目６－１８－４階,,13,102,1040033,,,,,,,2025-10-16,1,,,,,ビーエーオー,0
796,4010001259416,新規,0,2025-10-16,2025-10-16,海恵株式会社,,株式会社,東京都,千代田区,四番町４番地９新東京国際リーガル内,,13,101,1020081,,,,,,,2025-10-16,1,,,,,カイエ,0
797,4010001259449,新規,0,2025-10-16,2025-10-16,株式会社ＴＵＦｓ,,株式会社,東京都,中央区,銀座１丁目１２番４号Ｎ＆ＥＢＬＤ．６Ｆ,,13,102,1040061,,,,,,,2025-10-16,1,,,,,タフス,0
800,4010003049047,新規,0,2025-10-16,2025-10-16,合同会社Ａ,,合同会社,東京都,中央区,銀座１丁目２２番１１号２階,,13,102,1040061,,,,,,,2025-10-16,1,,,,,エイ,0
801,4010003049055,新規,0,2025-10-16,2025-10-16,合同会社暁,,合同会社,東京都,中央区,銀座１丁目２２番１１号銀座大竹ビジデンス２Ｆ,,13,102,1040061,,,,,,,2025-10-16,1,,,,,アカツキ,0
802,4010003049063,新規,0,2025-10-16,2025-10-16,合同会社神田ＰＧ,,合同会社,東京都,中央区,日本橋箱崎町１６－１東益ビル６階,,13,102,1030015,,,,,,,2025-10-16,1,,,,,カンダピージー,0
805,4010103002673,新規,0,2025-10-16,2025-10-16,合同会社ユウキコーポレーション,,合同会社,東京都,八王子市,大船町１５６番地９０,,13,201,1930935,,,,,,,2025-10-16,1,,,,,ユウキコーポレーション,0
811,4010401193685,新規,0,2025-10-16,2025-10-16,ＳＣ株式会社,,株式会社,東京都,港区,青山四丁目１７番３３号Ｂ９,,13,103,1050000,,,,,,,2025-10-16,1,,,,,エスシー,0
812,4010401193776,新規,0,2025-10-16,2025-10-16,株式会社ＬＴＧ　Ｇｒｏｕｐ,,株式会社,東京都,港区,南青山３丁目１番３６号青山丸竹ビル６Ｆ,,13,103,1070062,,,,,,,2025-10-16,1,,,,,エルティージーグループ,0
815,4010405024903,新規,0,2025-10-16,2025-10-16,一般社団法人睦月,,その他の設立登記法人,東京都,港区,元赤坂１丁目１番７号,,13,103,1070051,,,,,,,2025-10-16,1,,,,,ムツキ,0
819,4010501054886,新規,0,2025-10-16,2025-10-16,株式会社甜蜜源,,株式会社,東京都,台東区,小島２丁目２０－６ＦＡＢＲＩＣ新御徒町Ｒｅｓｉｄｅｎｃｅ２階,,13,106,1110056,,,,,,,2025-10-16,1,,,,,テンミゲン,0
821,4010601068126,新規,0,2025-10-16,2025-10-16,株式会社ＨＡＰＰＹ　ＤＡＹＳ,,株式会社,東京都,墨田区,文花１丁目３４番１１－３０２号,,13,107,1310044,,,,,,,2025-10-16,1,,,,,ハッピーデイズ,0
823,4010603011851,新規,0,2025-10-16,2025-10-16,ボンクラージュ合同会社,,合同会社,東京都,江東区,東雲２丁目７－５－２９０８,,13,108,1350062,,,,,,,2025-10-16,1,,,,,ボンクラージュ,0
827,4010901058272,新規,0,2025-10-16,2025-10-16,株式会社ＳＪアローズ,,株式会社,東京都,世田谷区,赤堤５丁目３５番８号,,13,112,1560044,,,,,,,2025-10-16,1,,,,,エスジェイアローズ,0
839,4011001172955,新規,0,2025-10-16,2025-10-16,株式会社エスラートジャパン,,株式会社,東京都,渋谷区,恵比寿南２丁目２７番８号ＹＡＫ恵比寿南２階,,13,113,1500022,,,,,,,2025-10-16,1,,,,,エスラートジャパン,0
840,4011001172996,新規,0,2025-10-16,2025-10-16,数寄屋コンサルティング株式会社,,株式会社,東京都,渋谷区,代々木１丁目２５番５号ＢＩＺＳＭＡＲＴ代々木５１４,,13,113,1510053,,,,,,,2025-10-16,1,,,,,スキヤコンサルティング,0
841,4011003022704,新規,0,2025-10-16,2025-10-16,合同会社櫻クリエイションズ,,合同会社,東京都,渋谷区,元代々木町５４－６,,13,113,1510062,,,,,,,2025-10-16,1,,,,,サクラクリエイションズ,0
848,4011101113487,新規,0,2025-10-16,2025-10-16,株式会社ＫＡＩＳＥＲ,,株式会社,東京都,新宿区,西新宿８丁目１７番２号,,13,104,1600023,,,,,,,2025-10-16,1,,,,,カイザー,0
849,4011101113644,新規,0,2025-10-16,2025-10-16,フューチャーリンク株式会社,,株式会社,東京都,新宿区,百人町１丁目１番４号ＴＫビル３Ｆ,,13,104,1690073,,,,,,,2025-10-16,1,,,,,フューチャーリンク,0
850,4011103016473,新規,0,2025-10-16,2025-10-16,ＭｉＴ合同会社,,合同会社,東京都,新宿区,西新宿６丁目５番１号新宿アイランドタワー２階,,13,104,1600023,,,,,,,2025-10-16,1,,,,,エムアイティ,0
855,4011401027478,新規,0,2025-10-16,2025-10-16,株式会社ＹｏｕＧｏｏ,,株式会社,東京都,板橋区,東新町１丁目３６－１３Ｔｏｋｉｗａｄａｉ２５４－１０２号室,,13,119,1740074,,,,,,,2025-10-16,1,,,,,ユーゴー,0
858,4011501032700,新規,0,2025-10-16,2025-10-16,Ｈ‐Ｌｉｎｋ株式会社,,株式会社,東京都,荒川区,西日暮里１丁目６２番５号２１３号室,,13,118,1160013,,,,,,,2025-10-16,1,,,,,エイチリンク,0
859,4011501032709,新規,0,2025-10-16,2025-10-16,株式会社１２００ＫＭ,,株式会社,東京都,荒川区,西日暮里２丁目３６番１－２０４号,,13,118,1160013,,,,,,,2025-10-16,1,,,,,センニヒャクキロメートル,0
864,4011701028845,新規,0,2025-10-16,2025-10-16,株式会社ピオニー,,株式会社,東京都,江戸川区,谷河内２丁目３番２－１００５号,,13,123,1330002,,,,,,,2025-10-16,1,,,,,ピオニー,0
867,4011801046929,新規,0,2025-10-16,2025-10-16,株式会社ＹＯＬＯ,,株式会社,東京都,葛飾区,亀有２丁目５９番８号ブーゲンビリア２階,,13,122,1250061,,,,,,,2025-10-16,1,,,,,ヨロ,0
872,4012401043713,新規,0,2025-10-16,2025-10-16,株式会社エーシーズ,,株式会社,東京都,小金井市,貫井南町１丁目２２番１４号,,13,210,1840014,,,,,,,2025-10-16,1,,,,,エーシーズ,0
875,4013105001882,新規,0,2025-10-16,2025-10-16,協同組合ヒューマントラスト,,その他の設立登記法人,東京都,西多摩郡日の出町,大字平井６４７番地１,,13,305,1900182,,,,,,,2025-10-16,1,,,,,ヒューマントラスト,0
877,4013301055088,新規,0,2025-10-16,2025-10-16,株式会社Ｔ‐Ｌｏｕｎｇｅ,,株式会社,東京都,豊島区,池袋本町１丁目２４番１０－４０７号,,13,116,1700011,,,,,,,2025-10-16,1,,,,,ティーラウンジ,0
878,4013301055121,新規,0,2025-10-16,2025-10-16,株式会社ＥＲＪ,,株式会社,東京都,豊島区,西巣鴨１丁目３１番３号,,13,116,1700001,,,,,,,2025-10-16,1,,,,,イーアールジェイ,0
879,4013303007814,新規,0,2025-10-16,2025-10-16,合同会社Ｃケア,,合同会社,東京都,豊島区,長崎５丁目１番３２号日専連ビル４Ｆ－Ａ,,13,116,1710051,,,,,,,2025-10-16,1,,,,,シーケア,0
891,4020001165191,新規,0,2025-10-16,2025-10-16,株式会社Ｂｅｒｖｉｃｅ,,株式会社,神奈川県,川崎市多摩区,菅２丁目９番１号グランベルジェ稲田堤２０５号室,,14,135,2140001,,,,,,,2025-10-16,1,,,,,ベルヴィーチェ,0
905,4030003027851,新規,0,2025-10-16,2025-10-16,合同会社ＭＫラボ,,合同会社,埼玉県,熊谷市,柿沼４２９‐３２,,11,202,3600803,,,,,,,2025-10-16,1,,,,,エムケイラボ,0
906,4030005022306,新規,0,2025-10-16,2025-10-16,医療法人ククナ,,その他の設立登記法人,埼玉県,川口市,芝東町１６番２９号,,11,203,3330867,,,,,,,2025-10-16,1,,,,,ククナ,0
912,4050003009666,新規,0,2025-10-16,2025-10-16,Ｓａｍｉ　Ｊａｐａｎ　Ｔｒａｄｉｎｇ合同会社,,合同会社,茨城県,古河市,東牛谷１３５６東ハイツ１棟２０３号室,,08,204,3060232,,,,,,,2025-10-16,1,,,,,サミジャパントレーディング,0
913,4050003009699,新規,0,2025-10-16,2025-10-16,アジテック合同会社,,合同会社,茨城県,水戸市,東野町１５３番地の１,,08,201,3100846,,,,,,,2025-10-16,1,,,,,アジテック,0
917,4070001043459,新規,0,2025-10-16,2025-10-16,アイランドホールディングス株式会社,,株式会社,群馬県,前橋市,上大島町９３番地の４,,10,201,3792153,,,,,,,2025-10-16,1,,,,,アイランドホールディングス,0
922,4080401028224,新規,0,2025-10-16,2025-10-16,Ｋｉｚｕｎａ　ＩＴ　Ｓｏｌｕｔｉｏｎｓ株式会社,,株式会社,静岡県,浜松市中央区,北寺島町２０２番地３４,,22,138,4300923,,,,,,,2025-10-16,1,,,,,キズナアイティソリューション,0
924,4100001039040,新規,0,2025-10-16,2025-10-16,株式会社ＳＫコンサル,,株式会社,長野県,諏訪市,高島１丁目１７番８－２０３,,20,206,3920022,,,,,,,2025-10-16,1,,,,,エスケイコンサル,0
925,4100003008431,新規,0,2025-10-16,2025-10-16,ＫＭ合同会社,,合同会社,長野県,長野市,中御所１丁目５番３－３０３号,,20,201,3800935,,,,,,,2025-10-16,1,,,,,ケイエム,0
926,4100005013405,新規,0,2025-10-16,2025-10-16,医療法人春風,,その他の設立登記法人,長野県,松本市,開智２丁目３番１３－１４号,,20,202,3900876,,,,,,,2025-10-16,1,,,,,ハルカゼ,0
928,4110003005931,新規,0,2025-10-16,2025-10-16,ネクストライン合同会社,,合同会社,新潟県,新潟市中央区,鳥屋野南３丁目２２番５号,,15,103,9500950,,,,,,,2025-10-16,1,,,,,ネクストライン,0
938,4120001280575,新規,0,2025-10-16,2025-10-16,瑩栩株式会社,00141136,株式会社,大阪府,大阪市西成区,天下茶屋２丁目９－８マンション杏２０１号,,27,122,5570014,,,,,,,2025-10-16,1,,,,,エイジュ,0
939,4120001280798,新規,0,2025-10-16,2025-10-16,匠心株式会社,,株式会社,大阪府,大阪市天王寺区,伶人町２－３１ＳｔａｒＯｆｆｉｃｅ大阪天王寺北７０６号室,,27,109,5430061,,,,,,,2025-10-16,1,,,,,ショウシン,0
940,4120001280889,新規,0,2025-10-16,2025-10-16,株式会社グリキャリア,,株式会社,大阪府,大阪市北区,茶屋町８番２１号,,27,127,5300013,,,,,,,2025-10-16,1,,,,,グリキャリア,0
941,4120001280914,新規,0,2025-10-16,2025-10-16,株式会社はくらぼ,,株式会社,大阪府,大阪市此花区,酉島１丁目３番１－９１０号,,27,104,5540051,,,,,,,2025-10-16,1,,,,,ハクラボ,0
942,4120001281128,新規,0,2025-10-16,2025-10-16,駿桜株式会社,,株式会社,大阪府,大阪市東住吉区,中野４丁目１番１６号サラオリエンテ中野３１１Ｂ,,27,121,5460012,,,,,,,2025-10-16,1,,,,,シュンサクラ,0
943,4120001281160,新規,0,2025-10-16,2025-10-16,万花株式会社,,株式会社,大阪府,大阪市東住吉区,中野４丁目１番１６号サラオリエンテ中野５０７Ａ,,27,121,5460012,,,,,,,2025-10-16,1,,,,,マンカ,0
944,4120001281193,新規,0,2025-10-16,2025-10-16,株式会社よいなコンサルティング,,株式会社,大阪府,大阪市阿倍野区,旭町２丁目１番１号あべのマルシェ西館１５３,,27,119,5450051,,,,,,,2025-10-16,1,,,,,ヨイナコンサルティング,0
949,4120003030920,新規,0,2025-10-16,2025-10-16,合同会社枚方設計工房,,合同会社,大阪府,守口市,南寺方東通５丁目７－５,,27,209,5700043,,,,,,,2025-10-16,1,,,,,ヒラカタセッケイコウボウ,0
950,4120003030945,新規,0,2025-10-16,2025-10-16,にじいろ合同会社,,合同会社,大阪府,大阪市西区,南堀江１丁目１９番１１－８０２号,,27,106,5500015,,,,,,,2025-10-16,1,,,,,ニジイロ,0
951,4120003030961,新規,0,2025-10-16,2025-10-16,合同会社ＡＤＶＩＮＡＪＡＰＡＮ,,合同会社,大阪府,大阪市中央区,島之内１丁目２１番２９－１２０１号,,27,128,5420082,,,,,,,2025-10-16,1,,,,,アドヴィナジャパン,0
953,4120101072633,新規,0,2025-10-16,2025-10-16,株式会社ＳＭＩ,,株式会社,大阪府,和泉市,弥生町１丁目２番１号,,27,219,5940061,,,,,,,2025-10-16,1,,,,,エスエムアイ,0
954,4120101072641,新規,0,2025-10-16,2025-10-16,株式会社ＮＧＳ,,株式会社,大阪府,貝塚市,堀１丁目９番５号,,27,208,5970015,,,,,,,2025-10-16,1,,,,,エヌジーエス,0
957,4120105010077,新規,0,2025-10-16,2025-10-16,一般社団法人近畿大学空手道部こぶし会,,その他の設立登記法人,大阪府,泉大津市,なぎさ町６番１きららセンタービル５０６号,,27,206,5950055,,,,,,,2025-10-16,1,,,,,キンキダイガクカラテドウブコブシカイ,0
959,4120901051654,新規,0,2025-10-16,2025-10-16,株式会社Ｈ‐ｔｒｅｅ　Ｌｉｎｋ,,株式会社,大阪府,吹田市,江の木町２番３２号フレアコート江坂１００１号,,27,205,5640053,,,,,,,2025-10-16,1,,,,,エイチツリーリンク,0
960,4122001039803,新規,0,2025-10-16,2025-10-16,株式会社Ｈａｐｐｙ　Ｒｅｓｉｄｅｎｃｅ,,株式会社,大阪府,東大阪市,水走２丁目１６番３７号,,27,227,5780921,,,,,,,2025-10-16,1,,,,,ハッピーレジデンス,0
963,4130001080727,新規,0,2025-10-16,2025-10-16,グディーズ・エージェンシー株式会社,,株式会社,京都府,京都市伏見区,深草直違橋北１丁目４７７番地１８ファーストコート藤森２０７号室,,26,109,6120869,,,,,,,2025-10-16,1,,,,,グディーズエージェンシー,0
964,4130001080792,新規,0,2025-10-16,2025-10-16,株式会社陸暁,,株式会社,京都府,京都市伏見区,東浜南町６６８番地３,,26,109,6128213,,,,,,,2025-10-16,1,,,,,リクア,0
968,4130003010863,新規,0,2025-10-16,2025-10-16,合同会社ＳＨＯＥＩ,,合同会社,京都府,京都市伏見区,羽束師菱川町３２番地,,26,109,6128487,,,,,,,2025-10-16,1,,,,,ショウエイ,0
973,4140001140380,新規,0,2025-10-16,2025-10-16,ＫＩＮＧ　ＳＫＹ株式会社,,株式会社,兵庫県,高砂市,阿弥陀町北池４６の１１,,28,216,6760825,,,,,,,2025-10-16,1,,,,,キングスカイ,0
974,4140001140389,新規,0,2025-10-16,2025-10-16,株式会社神龍,,株式会社,兵庫県,西宮市,室川町１２番１６－８０７号,,28,204,6620863,,,,,,,2025-10-16,1,,,,,シェンロン,0
975,4140001140397,新規,0,2025-10-16,2025-10-16,株式会社ＨｙＧホールディングス,,株式会社,兵庫県,神戸市中央区,山本通２丁目５番３－８０２号,,28,110,6500003,,,,,,,2025-10-16,1,,,,,エイチワイジーホールディングス,0
982,4160001027097,新規,0,2025-10-16,2025-10-16,株式会社ＴＭＳ　ＪＡＰＡＮ,,株式会社,滋賀県,栗東市,出庭４４６番地８,,25,208,5203041,,,,,,,2025-10-16,1,,,,,ティーエムエスジャパン,0
983,4170001018830,新規,0,2025-10-16,2025-10-16,大進商貿株式会社,,株式会社,和歌山県,和歌山市,栄谷９７７番地４４２,,30,201,6408441,,,,,,,2025-10-16,1,,,,,ダイシンショウボウ,0
993,4180001168996,新規,0,2025-10-16,2025-10-16,Ｓ＆Ｕ株式会社,,株式会社,愛知県,名古屋市中村区,名駅４丁目２４番５号第２森ビル４０１,,23,105,4500002,,,,,,,2025-10-16,1,,,,,エスアンドユー,0
994,4180001169053,新規,0,2025-10-16,2025-10-16,株式会社山田商会,,株式会社,愛知県,弥富市,鯏浦町南前新田７番地１,,23,235,4980027,,,,,,,2025-10-16,1,,,,,ヤマダショウカイ,0
995,4180001169078,新規,0,2025-10-16,2025-10-16,ＯＣＴＯＢＬＵＥ株式会社,,株式会社,愛知県,名古屋市西区,牛島町６番１号名古屋ルーセントタワー４０階,,23,104,4510046,,,,,,,2025-10-16,1,,,,,オクトブルー,0
996,4180001169144,新規,0,2025-10-16,2025-10-16,株式会社やまなか,,株式会社,愛知県,一宮市,伝法寺３丁目１番地１５,,23,203,4910828,,,,,,,2025-10-16,1,,,,,ヤマナカ,0
1005,4190001032607,新規,0,2025-10-16,2025-10-16,株式会社ＰＩＮＥＳＬＯＰＥ,,株式会社,三重県,松阪市,宮町１４４番地２スーパーホテル松阪１階,,24,204,5150015,,,,,,,2025-10-16,1,,,,,パインスロープ,0
1007,4200003007101,新規,0,2025-10-16,2025-10-16,合同会社花,,合同会社,岐阜県,多治見市,小名田町６丁目２３３番地,,21,204,5070004,,,,,,,2025-10-16,1,,,,,ハナ,0
1009,4220001026976,新規,0,2025-10-16,2025-10-16,ｆｖｃ株式会社,,株式会社,石川県,河北郡内灘町,字向粟崎４丁目８８番地,,17,365,9200274,,,,,,,2025-10-16,1,,,,,エフブイシー,0
1010,4220005009011,新規,0,2025-10-16,2025-10-16,一般社団法人ＲＨＲリテラシー研究所,,その他の設立登記法人,石川県,金沢市,此花町５番６号ライフ金沢第１ビル６０１Ａ,,17,201,9200852,,,,,,,2025-10-16,1,,,,,アールエイチアールリテラシーケンキュウジョ,0
1015,4240003007444,新規,0,2025-10-16,2025-10-16,合同会社おひさま,,合同会社,広島県,東広島市,西条町西条３０８,,34,212,7390001,,,,,,,2025-10-16,1,,,,,オヒサマ,0
1019,4290001111664,新規,0,2025-10-16,2025-10-16,三和工株式会社,,株式会社,福岡県,福岡市西区,下山門１丁目７番３２－２０２号,,40,135,8190052,,,,,,,2025-10-16,1,,,,,サンワコウ,0
1020,4290001111730,新規,0,2025-10-16,2025-10-16,株式会社ＰＲＩＭＡ　ＡＱＵＡ,,株式会社,福岡県,福岡市博多区,那珂３丁目１２番１０号,,40,132,8120893,,,,,,,2025-10-16,1,,,,,プリマアクア,0
1021,4290001111739,新規,0,2025-10-16,2025-10-16,株式会社ＫＵＭＩ　Ｌａｂ,,株式会社,福岡県,福岡市中央区,荒戸１丁目３番２１－１３０２号,,40,133,8100062,,,,,,,2025-10-16,1,,,,,クミラボ,0
1025,4320001021397,新規,0,2025-10-16,2025-10-16,株式会社アセットエンパワーメント,,株式会社,大分県,宇佐市,大字赤尾８４４番地の１,,44,211,8790233,,,,,,,2025-10-16,1,,,,,アセットエンパワーメント,0
1027,4330001033664,新規,0,2025-10-16,2025-10-16,株式会社春風工務店,,株式会社,熊本県,山鹿市,鍋田２１７０番地１,,43,208,8610541,,,,,,,2025-10-16,1,,,,,ハルカゼコウムテン,0
1028,4330003011263,新規,0,2025-10-16,2025-10-16,合同会社日本創造力知能研究所,,合同会社,熊本県,熊本市中央区,中央街４－２２アルバ銀座通りビル５０７,,43,101,8600802,,,,,,,2025-10-16,1,,,,,ニホンソウゾウリョクチノウケンキュウショ,0
1033,4340001027723,新規,0,2025-10-16,2025-10-16,株式会社ＮＥＯ,,株式会社,鹿児島県,鹿児島市,堀江町８番１９号クレアセトル堀江町８０５号,,46,201,8920824,,,,,,,2025-10-16,1,,,,,ネオ,0
1034,4340003004976,新規,0,2025-10-16,2025-10-16,合同会社出会いに感謝,,合同会社,鹿児島県,鹿児島市,船津町１－１１（３階）,,46,201,8920831,,,,,,,2025-10-16,1,,,,,デアイニカンシャ,0
1042,4370001053139,新規,0,2025-10-16,2025-10-16,株式会社Ｃａｒ　Ｂｕｄｄｙ,,株式会社,宮城県,白石市,東町６丁目３番３８号,,04,206,9890225,,,,,,,2025-10-16,1,,,,,カーバディー,0
1044,4380005013006,新規,0,2025-10-16,2025-10-16,一般社団法人ＴＥＲＡＫＯＹＡ　ＧＡＭＰ,,その他の設立登記法人,福島県,いわき市,平下神谷字赤沼３７番地,,07,204,9700101,,,,,,,2025-10-16,1,,,,,テラコヤガンプ,0
1045,4380005013014,新規,0,2025-10-16,2025-10-16,一般社団法人木ノ本総合経営事務所,,その他の設立登記法人,福島県,郡山市,桑野２丁目１４番の３リールプレイス,,07,203,9638025,,,,,,,2025-10-16,1,,,,,キノモトソウゴウケイエイジムショ,0
1046,4400003003542,新規,0,2025-10-16,2025-10-16,合同会社ＡＮＬ,,合同会社,岩手県,花巻市,下北万丁目１６１番地４,,03,205,0250054,,,,,,,2025-10-16,1,,,,,エーエヌエル,0
1052,4430003018208,新規,0,2025-10-16,2025-10-16,合同会社銀栄,,合同会社,北海道,札幌市中央区,南十条西８丁目４番１０号,,01,101,0640810,,,,,,,2025-10-16,1,,,,,ギンエイ,0
1053,4430003018216,新規,0,2025-10-16,2025-10-16,合同会社サラサ,,合同会社,北海道,伊達市,山下町１３８－５３,,01,233,0520032,,,,,,,2025-10-16,1,,,,,サラサ,0
1056,4500001026576,新規,0,2025-10-16,2025-10-16,ＮＯＵＫＡＮＯ株式会社,,株式会社,愛媛県,松山市,山越１丁目１番４７号松原ビル４０５号,,38,201,7918013,,,,,,,2025-10-16,1,,,,,ノウカノ,0
1065,5010001259217,新規,0,2025-10-16,2025-10-16,株式会社Ｋｉｎｇｆｉｓｈｅｒ,,株式会社,東京都,文京区,小石川５丁目３－３エイトビル２階,,13,105,1120002,,,,,,,2025-10-16,1,,,,,キングフイッシャー,0
1066,5010001259290,新規,0,2025-10-16,2025-10-16,株式会社ハレルクラウド,,株式会社,東京都,千代田区,外神田１丁目１６番１０号ニュー秋葉原センタービル４０４号室,,13,101,1010021,,,,,,,2025-10-16,1,,,,,ハレルクラウド,0
1067,5010001259398,新規,0,2025-10-16,2025-10-16,株式会社東京警備,,株式会社,東京都,千代田区,内神田１丁目１１番６号大丸アネックス４階,,13,101,1010047,,,,,,,2025-10-16,1,,,,,トウキョウケイビ,0
1068,5010001259407,新規,0,2025-10-16,2025-10-16,株式会社ケーツーリット,,株式会社,東京都,中央区,銀座３丁目１１番１９－６０８号,,13,102,1040061,,,,,,,2025-10-16,1,,,,,ケーツーリット,0
1069,5010001259431,新規,0,2025-10-16,2025-10-16,株式会社Ｍｅｒａｋｉｅｐｈ,,株式会社,東京都,千代田区,神田三崎町２丁目１０－１１（Ｐｅｇビル）６Ｂ－４号室,,13,101,1010061,,,,,,,2025-10-16,1,,,,,メラキエフ,0
1070,5010001259464,新規,0,2025-10-16,2025-10-16,株式会社Ｔ３マスターマインド,,株式会社,東京都,中央区,銀座１丁目１２番４Ｎ＆ＥＢＬＤ．７階,,13,102,1040061,,,,,,,2025-10-16,1,,,,,ティースリーマスターマインド,0
1071,5010001259472,新規,0,2025-10-16,2025-10-16,株式会社ａｍｏｎｄｚ　ｌａｂ,,株式会社,東京都,中央区,銀座８丁目１８番３号銀座加藤ビル２階,,13,102,1040061,,,,,,,2025-10-16,1,,,,,アモンズラボ,0
1075,5010003048989,新規,0,2025-10-16,2025-10-16,合同会社Ｒｅｇｉｎａｅ,,合同会社,東京都,中央区,築地７丁目１１－１３－３０４,,13,102,1040045,,,,,,,2025-10-16,1,,,,,レギネ,0
1076,5010003048997,新規,0,2025-10-16,2025-10-16,合同会社ＮＪ商会,,合同会社,東京都,中央区,日本橋兜町１７－２兜町第６葉山ビル４Ｆ,,13,102,1030026,,,,,,,2025-10-16,1,,,,,エヌジェーショウカイ,0
1077,5010003049062,新規,0,2025-10-16,2025-10-16,合同会社御徒町ＰＧ,,合同会社,東京都,中央区,日本橋箱崎町１６－１東益ビル６階,,13,102,1030015,,,,,,,2025-10-16,1,,,,,オカチマチピージー,0
1079,5010005040770,新規,0,2025-10-16,2025-10-16,一般財団法人ステラ音楽奨学財団,,その他の設立登記法人,東京都,千代田区,九段南１丁目５番６号りそな九段ビル５階ＫＳフロア,,13,101,1020074,,,,,,,2025-10-16,1,,,,,ステラオンガクショウガクザイダン,0
1083,5010401193684,新規,0,2025-10-16,2025-10-16,株式会社はなり,,株式会社,東京都,港区,六本木２丁目２番２号,,13,103,1060032,,,,,,,2025-10-16,1,,,,,ハナリ,0
1084,5010401193783,新規,0,2025-10-16,2025-10-16,ＭＡＫ株式会社,,株式会社,東京都,港区,西麻布３丁目２１番１６号,,13,103,1060031,,,,,,,2025-10-16,1,,,,,エムエーケー,0
1085,5010401193809,新規,0,2025-10-16,2025-10-16,ディライトワークスレーシング株式会社,,株式会社,東京都,港区,六本木６丁目１０番１号,,13,103,1060032,,,,,,,2025-10-16,1,,,,,ディライトワークスレーシング,0
1086,5010401193916,新規,0,2025-10-16,2025-10-16,株式会社シナクル,,株式会社,東京都,港区,芝公園１丁目１番１号,,13,103,1050011,,,,,,,2025-10-16,1,,,,,シナクル,0
1095,5010603011867,新規,0,2025-10-16,2025-10-16,ＭＳ‐ｉ合同会社,,合同会社,東京都,江東区,大島７丁目１２番２２号,,13,108,1360072,,,,,,,2025-10-16,1,,,,,エムエスアイ,0
1100,5010701048472,新規,0,2025-10-16,2025-10-16,株式会社ワンマイル,,株式会社,東京都,品川区,南品川１丁目４番５号,,13,109,1400004,,,,,,,2025-10-16,1,,,,,ワンマイル,0
1107,5010801036699,新規,0,2025-10-16,2025-10-16,株式会社ＬＡＨＥＯ,,株式会社,東京都,大田区,南雪谷１丁目６番１７号,,13,111,1450066,,,,,,,2025-10-16,1,,,,,ラヘオ,0
1110,5010901058263,新規,0,2025-10-16,2025-10-16,株式会社Ｍｉｃｈｉｚｏ,,株式会社,東京都,世田谷区,下馬５丁目２７番１３号,,13,112,1540002,,,,,,,2025-10-16,1,,,,,ミチゾー,0
1116,5011001172962,新規,0,2025-10-16,2025-10-16,株式会社Ａｍｕｌｅ　Ｉｎｃ．,,株式会社,東京都,渋谷区,東３丁目１４番２２号ル・ヴェール渋谷東４０１,,13,113,1500011,,,,,,,2025-10-16,1,,,,,アミュレインク,0
1118,5011003022703,新規,0,2025-10-16,2025-10-16,合同会社レルネン,,合同会社,東京都,渋谷区,神南１丁目１１番４号ＦＰＧリンクス神南５階,,13,113,1500041,,,,,,,2025-10-16,1,,,,,レルネン,0
1122,5011201026712,新規,0,2025-10-16,2025-10-16,株式会社阿部,,株式会社,東京都,中野区,東中野５丁目８番７号ＮＥコート５０１,,13,114,1640003,,,,,,,2025-10-16,1,,,,,アベ,0
1123,5011201026720,新規,0,2025-10-16,2025-10-16,株式会社ｓｅｅｌ,,株式会社,東京都,中野区,中央２丁目５８番１５号,,13,114,1640011,,,,,,,2025-10-16,1,,,,,シール,0
1134,5011703004414,新規,0,2025-10-16,2025-10-16,合同会社ＴＮＫ　Ｈｏｌｄｉｎｇｓ,,合同会社,東京都,江戸川区,一之江７丁目２９番８号２Ｆ,,13,123,1320024,,,,,,,2025-10-16,1,,,,,ティーエヌケーホールディングス,0
1136,5011801046936,新規,0,2025-10-16,2025-10-16,株式会社ＴＯＷＡ,,株式会社,東京都,足立区,加平２丁目１７番２４号,,13,121,1210055,,,,,,,2025-10-16,1,,,,,トウワ,0
1143,5020001165273,新規,0,2025-10-16,2025-10-16,株式会社ＫＯＮＯＨＡ,,株式会社,神奈川県,川崎市多摩区,登戸３０７番地１メディウス登戸２０２,,14,135,2140014,,,,,,,2025-10-16,1,,,,,コノハ,0
1144,5020001165298,新規,0,2025-10-16,2025-10-16,株式会社明翔,,株式会社,神奈川県,横浜市中区,山下町９１番地リシェ横浜山下公園６０９号室,,14,104,2310023,,,,,,,2025-10-16,1,,,,,アキショウ,0
1152,5021005013451,新規,0,2025-10-16,2025-10-16,一般社団法人ライフシェアリングラボ,,その他の設立登記法人,神奈川県,鎌倉市,扇ガ谷２丁目２４－１２,,14,204,2480011,,,,,,,2025-10-16,1,,,,,ライフシェアリングラボ,0
1159,5030001169109,新規,0,2025-10-16,2025-10-16,株式会社ＬＩＦＥ　ＰＵＺＺＬＥ,,株式会社,埼玉県,所沢市,大字上安松８７１番地の１ヒルズガーデン１０１,,11,208,3590025,,,,,,,2025-10-16,1,,,,,ライフパズル,0
1162,5030005022305,新規,0,2025-10-16,2025-10-16,医療法人社団こころ,,その他の設立登記法人,埼玉県,所沢市,東所沢２丁目２４番地の８,,11,208,3590021,,,,,,,2025-10-16,1,,,,,シャダンココロ,0
1173,5040003028740,新規,0,2025-10-16,2025-10-16,合同会社ＭＯＮＭＯＮ,,合同会社,千葉県,市川市,八幡６丁目７番１５ユニパレス３０６号室,,12,203,2720021,,,,,,,2025-10-16,1,,,,,モンモン,0
1187,5070001043433,新規,0,2025-10-16,2025-10-16,リンクフーズ株式会社,,株式会社,群馬県,前橋市,六供町１丁目１８番地５,,10,201,3710804,,,,,,,2025-10-16,1,,,,,リンクフーズ,0
1188,5070003006157,新規,0,2025-10-16,2025-10-16,合同会社ＡＩＭＯＴＩＯＮ,,合同会社,群馬県,高崎市,八千代町３丁目１番１２号プリマ・クラッセ２０４号,,10,202,3700861,,,,,,,2025-10-16,1,,,,,アイモーション,0
1191,5080401028215,新規,0,2025-10-16,2025-10-16,株式会社Ａｓｓｅｔ　Ａｓｉａ,,株式会社,静岡県,浜松市中央区,板屋町１０２番１５,,22,138,4300928,,,,,,,2025-10-16,1,,,,,アセットアジア,0
1195,5100005013404,新規,0,2025-10-16,2025-10-16,医療法人おうちの,,その他の設立登記法人,長野県,長野市,篠ノ井御幣川３１１番地２セントラルビル宮崎１－Ａ,00141128,20,201,3888006,,,,,,,2025-10-16,1,,,,,オウチノ,0
1207,5120001280698,新規,0,2025-10-16,2025-10-16,紅楓株式会社,,株式会社,大阪府,大阪市中央区,南船場２丁目１１番４－２０３号,,27,128,5420081,,,,,,,2025-10-16,1,,,,,コウフウ,0
1208,5120001280822,新規,0,2025-10-16,2025-10-16,株式会社ＢＲＩＤＧＥ,,株式会社,大阪府,大阪市東成区,大今里４丁目２７番２２号,,27,115,5370012,,,,,,,2025-10-16,1,,,,,ブリッジ,0
1209,5120001280830,新規,0,2025-10-16,2025-10-16,株式会社未来創生投資,,株式会社,大阪府,大阪市生野区,林寺４丁目５番１０号,,27,116,5440023,,,,,,,2025-10-16,1,,,,,ミライソウセイトウシ,0
1210,5120001280847,新規,0,2025-10-16,2025-10-16,風間株式会社,,株式会社,大阪府,大阪市淀川区,加島１丁目５９－１１－２０３,,27,123,5320031,,,,,,,2025-10-16,1,,,,,カザマ,0
1211,5120001281127,新規,0,2025-10-16,2025-10-16,智創株式会社,,株式会社,大阪府,大阪市東住吉区,中野４丁目１番１６号サラオリエンテ中野４１２Ｂ,,27,121,5460012,,,,,,,2025-10-16,1,,,,,チソウ,0
1215,5120003030936,新規,0,2025-10-16,2025-10-16,合同会社エスプラス,,合同会社,大阪府,大阪市阿倍野区,播磨町１丁目２２番１２号田林ビル２Ｆ,,27,119,5450022,,,,,,,2025-10-16,1,,,,,エスプラス,0
1216,5120003030960,新規,0,2025-10-16,2025-10-16,合同会社國岡,,合同会社,大阪府,大阪市北区,菅栄町２番１６－８０１号,,27,127,5300031,,,,,,,2025-10-16,1,,,,,クニオカ,0
1217,5120103006786,新規,0,2025-10-16,2025-10-16,合同会社ＭＩＹＡＢＩ,,合同会社,大阪府,堺市堺区,田出井町１番２号ベルマージュ堺弐番館３７０６,,27,141,5900014,,,,,,,2025-10-16,1,,,,,ミヤビ,0
1220,5120901051620,新規,0,2025-10-16,2025-10-16,株式会社ＣＲ医療相談所,,株式会社,大阪府,茨木市,彩都あさぎ２丁目７番１０号,,27,211,5670085,,,,,,,2025-10-16,1,,,,,シーアールイリョウソウダンショ,0
1224,5130001080809,新規,0,2025-10-16,2025-10-16,株式会社とよしまでんき,,株式会社,京都府,京都市伏見区,深草直違橋３丁目３８９番地,,26,109,6120889,,,,,,,2025-10-16,1,,,,,トヨシマデンキ,0
1226,5140001140388,新規,0,2025-10-16,2025-10-16,株式会社Ｂｅｌｏｎｇ,,株式会社,兵庫県,姫路市,北条１丁目４８番地５ヤングビル５階,,28,201,6700947,,,,,,,2025-10-16,1,,,,,ビロング,0
1227,5140001140396,新規,0,2025-10-16,2025-10-16,株式会社姫リノ不動産,,株式会社,兵庫県,姫路市,別所町佐土２丁目２０番地,,28,201,6710224,,,,,,,2025-10-16,1,,,,,ヒメリノフドウサン,0
1230,5150001028475,新規,0,2025-10-16,2025-10-16,株式会社ＳＡＫＩＹＡ　Ｍａｒｋｅｔｉｎｇ,,株式会社,奈良県,奈良市,神功５丁目６番地の６,,29,201,6310804,,,,,,,2025-10-16,1,,,,,サキヤマーケティング,0
1231,5160001027138,新規,0,2025-10-16,2025-10-16,株式会社優尊,,株式会社,滋賀県,大津市,螢谷１４番１５号,,25,201,5200853,,,,,,,2025-10-16,1,,,,,ユウソン,0
1238,5180001168954,新規,0,2025-10-16,2025-10-16,柔禅ソフトウェア株式会社,,株式会社,愛知県,名古屋市中村区,名駅４丁目２４番５号第２森ビル４０１,,23,105,4500002,,,,,,,2025-10-16,1,,,,,ジュウゼンソフトウェア,0
1239,5180001169069,新規,0,2025-10-16,2025-10-16,埋文デジタライズ株式会社,,株式会社,愛知県,名古屋市昭和区,下構町１丁目４番地,,23,107,4660025,,,,,,,2025-10-16,1,,,,,マイブンデジタライズ,0
1248,5180305009739,新規,0,2025-10-16,2025-10-16,ＮＰＯ法人一心会,,その他の設立登記法人,愛知県,豊川市,赤坂町松本１７６番地１,,23,207,4410202,,,,,,,2025-10-16,1,,,,,イッシンカイ,0
1250,5190001032606,新規,0,2025-10-16,2025-10-16,株式会社リ．ライト,,株式会社,三重県,伊勢市,佐八町１６９４番地１,,24,203,5161102,,,,,,,2025-10-16,1,,,,,リライト,0
1251,5190003005221,新規,0,2025-10-16,2025-10-16,合同会社旬香,,合同会社,三重県,桑名市,大字五反田１４２９‐４,,24,205,5110946,,,,,,,2025-10-16,1,,,,,シュンカ,0
1259,5220005009010,新規,0,2025-10-16,2025-10-16,一般社団法人ライチョウエイド,,その他の設立登記法人,石川県,金沢市,三口新町２丁目２番１０号花里レジデンス・３０２号,,17,201,9200944,,,,,,,2025-10-16,1,,,,,ライチョウエイド,0
1261,5240001065641,新規,0,2025-10-16,2025-10-16,株式会社エヴァー,,株式会社,広島県,広島市佐伯区,観音台２丁目１０番６号,,34,108,7315157,,,,,,,2025-10-16,1,,,,,エヴァー,0
1266,5290003017545,新規,0,2025-10-16,2025-10-16,合同会社キューブリック,,合同会社,福岡県,古賀市,薬王寺９５,,40,223,8113124,,,,,,,2025-10-16,1,,,,,キューブリック,0
1267,5290005019853,新規,0,2025-10-16,2025-10-16,一般社団法人奥八女自然楽校,,その他の設立登記法人,福岡県,八女市,黒木町笠原９５１２番地,,40,210,8341222,,,,,,,2025-10-16,1,,,,,オクヤメシゼンガッコウ,0
1273,5320003004804,新規,0,2025-10-16,2025-10-16,合同会社ｋｏｔｏｂａ　ｂａｓｅ,,合同会社,大分県,中津市,中殿町３丁目２４－１５コルディアーレ中殿Ｃ棟,,44,203,8710030,,,,,,,2025-10-16,1,,,,,コトバベース,0
1274,5330001033671,新規,0,2025-10-16,2025-10-16,株式会社リデックス,,株式会社,熊本県,熊本市北区,四方寄町１５８１番地１,,43,105,8615515,,,,,,,2025-10-16,1,,,,,リデックス,0
1277,5330003011262,新規,0,2025-10-16,2025-10-16,合同会社ＴＥＮＹＡ,,合同会社,熊本県,熊本市中央区,上水前寺１丁目７番１２－１０７号,,43,101,8620951,,,,,,,2025-10-16,1,,,,,テンヤ,0
1279,5340001027722,新規,0,2025-10-16,2025-10-16,株式会社十月十日,,株式会社,鹿児島県,鹿児島市,皆与志町３０４０番地１,,46,201,8911206,,,,,,,2025-10-16,1,,,,,トツキトウカ,0
1283,5360001035921,新規,0,2025-10-16,2025-10-16,株式会社ＲｅｓｐｏｉｎｔＯｋｉｎａｗａ,,株式会社,沖縄県,那覇市,牧志２丁目１７－２７－４０１,,47,201,9000013,,,,,,,2025-10-16,1,,,,,リスポイントオキナワ,0
1287,5400001017205,新規,0,2025-10-16,2025-10-16,キャンディッド株式会社,,株式会社,岩手県,盛岡市,愛宕町１１番３３－７０２号,,03,201,0200013,,,,,,,2025-10-16,1,,,,,キャンディッド,0
1296,5450003002729,新規,0,2025-10-16,2025-10-16,合同会社ＹＯＬＯ,,合同会社,北海道,宗谷郡猿払村,浜鬼志別４２１５番地２７,,01,511,0986222,,,,,,,2025-10-16,1,,,,,ヨロ,0
1297,5470003002999,新規,0,2025-10-16,2025-10-16,合同会社Ｄ．Ｄ,,合同会社,香川県,善通寺市,稲木町６１１番地１,,37,204,7650022,,,,,,,2025-10-16,1,,,,,ディーディー,0
1300,5500003003614,新規,0,2025-10-16,2025-10-16,合同会社圭,,合同会社,愛媛県,西条市,氷見丙１１９２番地１３,,38,206,7930073,,,,,,,2025-10-16,1,,,,,ケイ,0
1305,6010001259216,新規,0,2025-10-16,2025-10-16,株式会社ＣｏＬａｂｒｅａ,,株式会社,東京都,中央区,銀座１丁目１２番４号Ｎ＆ＥＢＬＤ．６Ｆ,,13,102,1040061,,,,,,,2025-10-16,1,,,,,コラボリア,0
1306,6010001259265,新規,0,2025-10-16,2025-10-16,ＯＢＡパワーズ株式会社,,株式会社,東京都,中央区,日本橋室町１丁目１１番１２号日本橋水野ビル７階,,13,102,1030022,,,,,,,2025-10-16,1,,,,,オービーエーパワーズ,0
1307,6010001259380,新規,0,2025-10-16,2025-10-16,Ｓｉｘｔｈ　Ｓｔｒｅｅｔ　Ｊａｐａｎ株式会社,,株式会社,東京都,千代田区,霞が関３丁目２番６号東京倶楽部ビルディング１１階,,13,101,1000013,,,,,,,2025-10-16,1,,,,,シックスストリートジャパン,0
1308,6010001259414,新規,0,2025-10-16,2025-10-16,株式会社ＳＵＮＮＩＸ,,株式会社,東京都,中央区,銀座１丁目２２番１１号２階,,13,102,1040061,,,,,,,2025-10-16,1,,,,,サニックス,0
1313,6010101016905,新規,0,2025-10-16,2025-10-16,株式会社コレット,,株式会社,東京都,八王子市,西寺方町１００６番地１５７,,13,201,1920153,,,,,,,2025-10-16,1,,,,,コレット,0
1320,6010401193493,新規,0,2025-10-16,2025-10-16,パワープレイ株式会社,,株式会社,東京都,港区,六本木３丁目１６番１２号六本木ＫＳビル５Ｆ,,13,103,1060032,,,,,,,2025-10-16,1,,,,,パワープレイ,0
1321,6010401193691,新規,0,2025-10-16,2025-10-16,株式会社Ｂｏｎ　Ａｒｋ,,株式会社,東京都,港区,白金台３丁目５番１号,,13,103,1080071,,,,,,,2025-10-16,1,,,,,ボンアーク,0
1322,6010401193717,新規,0,2025-10-16,2025-10-16,株式会社Ｓｈａｎｊｅｉ,,株式会社,東京都,港区,赤坂２丁目８番１４－５０４号,,13,103,1070052,,,,,,,2025-10-16,1,,,,,シャンジェイ,0
1323,6010401193782,新規,0,2025-10-16,2025-10-16,株式会社東西堂,,株式会社,東京都,港区,白金１丁目２５番１８－６０１号,,13,103,1080072,,,,,,,2025-10-16,1,,,,,トウザイドウ,0
1324,6010403036270,新規,0,2025-10-16,2025-10-16,合同会社Ｙ’ｓｂｌｏｏｍ,,合同会社,東京都,港区,麻布十番２丁目８番８号２Ｆ,,13,103,1060045,,,,,,,2025-10-16,1,,,,,ワイズブルーム,0
1325,6010501054884,新規,0,2025-10-16,2025-10-16,株式会社ＦＲ企画,,株式会社,東京都,台東区,寿３丁目９番１１－６０２号,,13,106,1110042,,,,,,,2025-10-16,1,,,,,エフアールキカク,0
1331,6010605004513,新規,0,2025-10-16,2025-10-16,一般社団法人城東フットボールクラブ,,その他の設立登記法人,東京都,江東区,亀戸５丁目１番６－１１０５号,,13,108,1360071,,,,,,,2025-10-16,1,,,,,ジョウトウフットボールクラブ,0
1343,6010903010345,新規,0,2025-10-16,2025-10-16,合同会社ＲＡＮＺ,,合同会社,東京都,世田谷区,砧４丁目１５番２０－４０２,,13,112,1570073,,,,,,,2025-10-16,1,,,,,ランズ,0
1351,6011003022710,新規,0,2025-10-16,2025-10-16,合同会社クロスレバレッジ,,合同会社,東京都,渋谷区,千駄ヶ谷３丁目２７番９号ウエスト青山２０２,,13,113,1510051,,,,,,,2025-10-16,1,,,,,クロスレバレッジ,0
1354,6011103016488,新規,0,2025-10-16,2025-10-16,合同会社ＤｕｏＢｕｌｌ,,合同会社,東京都,新宿区,二十騎町１‐２４サンハイム二十騎町１０３号室,,13,104,1620855,,,,,,,2025-10-16,1,,,,,デュオブル,0
1356,6011203004847,新規,0,2025-10-16,2025-10-16,ＯＭＯＪＯＳＥＥ　ＩＮＶＥＳＴＭＥＮＴ合同会社,,合同会社,東京都,中野区,中央３丁目３３－４ＦｏｏｄＨｕｔＢｕｉｌｄｉｎｇ３Ｆ,,13,114,1640011,,,,,,,2025-10-16,1,,,,,オモジョセーインベストメント,0
1359,6011401027484,新規,0,2025-10-16,2025-10-16,株式会社Ｋ’ｓ　ｐｌｕｓ,,株式会社,東京都,板橋区,小茂根４丁目２１番１０号,,13,119,1730037,,,,,,,2025-10-16,1,,,,,ケーズプラス,0
1361,6011501032707,新規,0,2025-10-16,2025-10-16,ＣＨＥＲＲＹ　ＭＹＡＹ株式会社,,株式会社,東京都,北区,中里１丁目３番８号,,13,117,1140015,,,,,,,2025-10-16,1,,,,,チェリーミェー,0
1363,6011601029090,新規,0,2025-10-16,2025-10-16,株式会社食光,,株式会社,東京都,練馬区,春日町６丁目１６番１１号,,13,120,1790074,,,,,,,2025-10-16,1,,,,,ショクコウ,0
1367,6011701028843,新規,0,2025-10-16,2025-10-16,上藤株式会社,,株式会社,東京都,江戸川区,松江３丁目１７番３号,,13,123,1320025,,,,,,,2025-10-16,1,,,,,アゲフジ,0
1368,6011801046935,新規,0,2025-10-16,2025-10-16,株式会社ＮｏｚＢａｓｅ,,株式会社,東京都,足立区,東綾瀬１丁目１５番２１－６０４号,,13,121,1200004,,,,,,,2025-10-16,1,,,,,ノズベース,0
1374,6012401043711,新規,0,2025-10-16,2025-10-16,株式会社イージス,,株式会社,東京都,調布市,柴崎１丁目６０番地１プラウド調布柴崎２０８,,13,208,1820014,,,,,,,2025-10-16,1,,,,,イージス,0
1375,6012403007409,新規,0,2025-10-16,2025-10-16,高林サービス開発合同会社,,合同会社,東京都,調布市,仙川町１丁目１５－５８ネーズンビル２階,,13,208,1820002,,,,,,,2025-10-16,1,,,,,タカバヤシサービスカイハツ,0
1376,6012701019139,新規,0,2025-10-16,2025-10-16,株式会社光建,,株式会社,東京都,東久留米市,神宝町１丁目９番９号,,13,222,2030002,,,,,,,2025-10-16,1,,,,,コウケン,0
1379,6013301055078,新規,0,2025-10-16,2025-10-16,株式会社ヒゼンテック,,株式会社,東京都,豊島区,東池袋２丁目６２番８号ＢＩＧオフィスプラザ池袋１２０６,,13,116,1700013,,,,,,,2025-10-16,1,,,,,ヒゼンテック,0
1380,6013301055086,新規,0,2025-10-16,2025-10-16,株式会社Ｒｅ‐Ｖａｌｕｅ,,株式会社,東京都,豊島区,東池袋５丁目７－３東池袋五丁目ビル１Ｆ,,13,116,1700013,,,,,,,2025-10-16,1,,,,,リバリュー,0
1393,6020003029558,新規,0,2025-10-16,2025-10-16,合同会社ＭａｉｓｏｎＴ,,合同会社,神奈川県,川崎市多摩区,南生田３丁目６－５,,14,135,2140036,,,,,,,2025-10-16,1,,,,,メゾンティー,0
1394,6020003029566,新規,0,2025-10-16,2025-10-16,ネクサスゲームズ合同会社,,合同会社,神奈川県,横浜市南区,高根町１丁目４－４０ＫＹＳオフイス２ＦＡ０１４,,14,105,2320022,,,,,,,2025-10-16,1,,,,,ネクサスゲームズ,0
1395,6020003029590,新規,0,2025-10-16,2025-10-16,合同会社業,,合同会社,神奈川県,横浜市鶴見区,駒岡３丁目３０番Ｆ－４０６号,,14,101,2300071,,,,,,,2025-10-16,1,,,,,カルマ,0
1414,6040001140819,新規,0,2025-10-16,2025-10-16,株式会社Ｍｏｉｎ,,株式会社,千葉県,成田市,東ノ台１０９２番地２６,,12,211,2870212,,,,,,,2025-10-16,1,,,,,モイン,0
1415,6040001140975,新規,0,2025-10-16,2025-10-16,株式会社Ｋｙｏｗａ　Ｃｏ．,,株式会社,千葉県,松戸市,新松戸３丁目２７３番地,,12,207,2700034,,,,,,,2025-10-16,1,,,,,キョウワコー,0
1416,6040003028756,新規,0,2025-10-16,2025-10-16,ＹＵＲＩＨＡＳＵ合同会社,,合同会社,千葉県,千葉市稲毛区,山王町８８番地２４,,12,103,2630002,,,,,,,2025-10-16,1,,,,,ユリハス,0
1417,6040005022889,新規,0,2025-10-16,2025-10-16,一般社団法人Ｈｏｕｓｅ　ｏｆ　Ｌｉｇｈｔ,,その他の設立登記法人,千葉県,四街道市,千代田３丁目２８番２号,,12,228,2840015,,,,,,,2025-10-16,1,,,,,ハウスオブライト,0
1419,6050001057426,新規,0,2025-10-16,2025-10-16,株式会社ＴＲＥＥ　ＨＯＵＳＥ　ＬＯＧＩＳＴＩＣＳ,,株式会社,茨城県,稲敷郡阿見町,大字若栗１２２８,,08,443,3000333,,,,,,,2025-10-16,1,,,,,ツリーハウスロジスティクス,0
1420,6050001057434,新規,0,2025-10-16,2025-10-16,株式会社ＡＷＡＫＥ,,株式会社,茨城県,つくば市,並木３丁目７番地５,,08,220,3050044,,,,,,,2025-10-16,1,,,,,アウェイク,0
1424,6050003009697,新規,0,2025-10-16,2025-10-16,Ｇｕｌ　Ｔｒａｄｉｎｇ合同会社,,合同会社,茨城県,坂東市,沓掛１３８９番地１グリーンハイツ１号棟１０１号室,,08,228,3060515,,,,,,,2025-10-16,1,,,,,ガルトレーディング,0
1429,6060001038672,新規,0,2025-10-16,2025-10-16,株式会社ｈｉｍａｗａｒｉ　ｍｅｄｉｃａｌ,,株式会社,栃木県,宇都宮市,陽東３丁目１９－１,,09,201,3210904,,,,,,,2025-10-16,1,,,,,ヒマワリメディカル,0
1430,6060001038689,新規,0,2025-10-16,2025-10-16,株式会社マツモト自動車板金塗装,,株式会社,栃木県,矢板市,片岡１１９４番地２,,09,211,3291571,,,,,,,2025-10-16,1,,,,,マツモトジドウシャバンキントソウ,0
1437,6070003006115,新規,0,2025-10-16,2025-10-16,ＨＵＯＮＧ　ＶＩＥＴ　ＦＯＯＤ合同会社,,合同会社,群馬県,邑楽郡板倉町,大字板倉４２３０－８号,,10,521,3740132,,,,,,,2025-10-16,1,,,,,フオンヴィエットフォッド,0
1440,6080403005368,新規,0,2025-10-16,2025-10-16,合同会社ＣＬＩＸ,,合同会社,静岡県,掛川市,初馬１４１２番地の１,,22,213,4360081,,,,,,,2025-10-16,1,,,,,クリックス,0
1446,6100005013403,新規,0,2025-10-16,2025-10-16,医療法人サンスプリング,,その他の設立登記法人,長野県,上田市,下塩尻１４４番地３,,20,203,3860043,,,,,,,2025-10-16,1,,,,,サンスプリング,0
1447,6110001039649,新規,0,2025-10-16,2025-10-16,ｏｄｒホールディングス株式会社,,株式会社,新潟県,村上市,塩町１１番３１号,,15,212,9580876,,,,,,,2025-10-16,1,,,,,オーディーアールホールディングス,0
1458,6120001280623,新規,0,2025-10-16,2025-10-16,洪福祥株式会社,,株式会社,大阪府,大阪市城東区,鴫野西５丁目１５番７－３１８号,,27,118,5360014,,,,,,,2025-10-16,1,,,,,コウフクショウ,0
1459,6120001280664,新規,0,2025-10-16,2025-10-16,株式会社ユニアンス,,株式会社,大阪府,大阪市北区,天満１丁目７番１２号遼天満ビル４階４０２号室,,27,127,5300043,,,,,,,2025-10-16,1,,,,,ユニアンス,0
1460,6120001280722,新規,0,2025-10-16,2025-10-16,株式会社ＴＡＭＡＫＩ,,株式会社,大阪府,大阪市港区,磯路２丁目１２番１－９０９号,,27,107,5520003,,,,,,,2025-10-16,1,,,,,タマキ,0
1461,6120001280838,新規,0,2025-10-16,2025-10-16,ＥＨＸ株式会社,,株式会社,大阪府,大阪市住吉区,遠里小野３丁目１０番３８号,,27,120,5580032,,,,,,,2025-10-16,1,,,,,イーエイチエックス,0
1462,6120001280879,新規,0,2025-10-16,2025-10-16,遠山株式会社,,株式会社,大阪府,大阪市住之江区,西加賀屋３丁目１番１４－１０２号室,,27,125,5590016,,,,,,,2025-10-16,1,,,,,トオヤマ,0
1463,6120001281126,新規,0,2025-10-16,2025-10-16,晧＿株式会社,00141120,株式会社,大阪府,大阪市東住吉区,中野４丁目１番１６号サラオリエンテ中野４１２Ａ,,27,121,5460012,,,,,,,2025-10-16,1,,,,,コウイ,0
1464,6120001281159,新規,0,2025-10-16,2025-10-16,紅芸株式会社,,株式会社,大阪府,大阪市東住吉区,中野４丁目１番１６号サラオリエンテ中野４１０Ｂ,,27,121,5460012,,,,,,,2025-10-16,1,,,,,コウゲイ,0
1465,6120001281209,新規,0,2025-10-16,2025-10-16,株式会社キラットベース,,株式会社,大阪府,大阪市城東区,諏訪４丁目１４番９号,,27,118,5360021,,,,,,,2025-10-16,1,,,,,キラットベース,0
1466,6120001281266,新規,0,2025-10-16,2025-10-16,松雨渟株式会社,,株式会社,大阪府,大阪市西成区,松３丁目１１番２２－１０４号,,27,122,5570034,,,,,,,2025-10-16,1,,,,,ショウウテイ,0
1467,6120001281308,新規,0,2025-10-16,2025-10-16,株式会社Ｗｉｒｅ　Ｆｏｘ,,株式会社,大阪府,大阪市西区,江戸堀１丁目１７番１４号,,27,106,5500002,,,,,,,2025-10-16,1,,,,,ワイヤーフォックス,0
1471,6120003030968,新規,0,2025-10-16,2025-10-16,合同会社オフィスタニグチ,,合同会社,大阪府,大阪市淀川区,西宮原１丁目８番３３号日宝新大阪第２ビル,,27,123,5320004,,,,,,,2025-10-16,1,,,,,オフィスタニグチ,0
1479,6130001080774,新規,0,2025-10-16,2025-10-16,株式会社聖道,,株式会社,京都府,向日市,物集女町南条８番地の７,,26,208,6170001,,,,,,,2025-10-16,1,,,,,セイドウ,0
1485,6140001140338,新規,0,2025-10-16,2025-10-16,株式会社赤瀬築炉,,株式会社,兵庫県,明石市,大久保町谷八木１６３９番地メゾン・ド・エフＶ－３０３号,,28,203,6740062,,,,,,,2025-10-16,1,,,,,アカセチクロ,0
1486,6140001140370,新規,0,2025-10-16,2025-10-16,ＣＯＬＱ株式会社,,株式会社,兵庫県,神戸市中央区,二宮町４丁目９番２１号ＫＹビル３階,,28,110,6510093,,,,,,,2025-10-16,1,,,,,コルク,0
1487,6140001140387,新規,0,2025-10-16,2025-10-16,ドクター・ワン株式会社,,株式会社,兵庫県,三木市,福井２１７８番１号,,28,215,6730433,,,,,,,2025-10-16,1,,,,,ドクターワン,0
1488,6140001140395,新規,0,2025-10-16,2025-10-16,株式会社ネバーランド,,株式会社,兵庫県,西宮市,甲風園２丁目５番７号,,28,204,6620832,,,,,,,2025-10-16,1,,,,,ネバーランド,0
1492,6140003022708,新規,0,2025-10-16,2025-10-16,ＨＯＡＮＧ　ＭＩＮＨ合同会社,,合同会社,兵庫県,丹波市,山南町大谷１０２－１,,28,223,6693124,,,,,,,2025-10-16,1,,,,,ホアンミン,0
1507,6180001168978,新規,0,2025-10-16,2025-10-16,株式会社ＫＩＴＥＮ,,株式会社,愛知県,名古屋市中区,丸の内１丁目８番３９号,,23,106,4600002,,,,,,,2025-10-16,1,,,,,キテン,0
1508,6180001169027,新規,0,2025-10-16,2025-10-16,株式会社拓乃,,株式会社,愛知県,知多郡東浦町,大字石浜字連台９３番地,,23,442,4702103,,,,,,,2025-10-16,1,,,,,タクノ,0
1509,6180001169092,新規,0,2025-10-16,2025-10-16,株式会社誰もが永遠に輝くプロジェクト,,株式会社,愛知県,名古屋市守山区,松坂町１５３番地,,23,113,4630007,,,,,,,2025-10-16,1,,,,,ダレモガトワニカガヤクプロジェクト,0
1510,6180001169134,新規,0,2025-10-16,2025-10-16,株式会社サムズ,,株式会社,愛知県,名古屋市天白区,天白町大字平針字黒石２８７８番地の２９８５,,23,116,4680021,,,,,,,2025-10-16,1,,,,,サムズ,0
1511,6180001169159,新規,0,2025-10-16,2025-10-16,株式会社ケイリード,,株式会社,愛知県,東海市,高横須賀町北池田５４番地,,23,222,4770037,,,,,,,2025-10-16,1,,,,,ケイリード,0
1516,6180003029237,新規,0,2025-10-16,2025-10-16,合同会社邦和堂,,合同会社,愛知県,江南市,高屋町花戸７８番地１,,23,217,4838046,,,,,,,2025-10-16,1,,,,,ホウワドウ,0
1517,6180005021282,新規,0,2025-10-16,2025-10-16,一般社団法人みはまスポーツコミッション,,その他の設立登記法人,愛知県,知多郡美浜町,大字奥田字奥田前１番地１,,23,446,4703233,,,,,,,2025-10-16,1,,,,,ミハマスポーツコミッション,0
1522,6190003005220,新規,0,2025-10-16,2025-10-16,ＤＲＡＧＯＮ　ＰＯＩＮＴ　ＴＲＡＤＩＮＧ合同会社,,合同会社,三重県,四日市市,馳出町２丁目２番,,24,202,5100855,,,,,,,2025-10-16,1,,,,,ドラゴンポイントトレーディング,0
1527,6220001026966,新規,0,2025-10-16,2025-10-16,ＤＡＰフューチャーベンチャーキャピタル株式会社,,株式会社,石川県,金沢市,上安原１丁目２３１番地,,17,201,9200370,,,,,,,2025-10-16,1,,,,,ディーエーピーフューチャーベンチャーキャピタル,0
1528,6220001026974,新規,0,2025-10-16,2025-10-16,株式会社岡部,,株式会社,石川県,金沢市,弥生１丁目２３番１２号シティハイツ弥生３０３号,,17,201,9218036,,,,,,,2025-10-16,1,,,,,オカベ,0
1529,6220001026982,新規,0,2025-10-16,2025-10-16,株式会社Ｋａ　ｐｉｌｉｎａ,,株式会社,石川県,白山市,村井町７９３番地１３,,17,210,9240032,,,,,,,2025-10-16,1,,,,,カピリナ,0
1534,6240003007442,新規,0,2025-10-16,2025-10-16,合同会社Ｙ’ｓ,,合同会社,広島県,東広島市,西条町郷曽３６９番地９８,,34,212,7390035,,,,,,,2025-10-16,1,,,,,ワイズ,0
1543,6290001111290,新規,0,2025-10-16,2025-10-16,株式会社冒険,,株式会社,福岡県,福岡市南区,南大橋２丁目３５－２１,,40,134,8150034,,,,,,,2025-10-16,1,,,,,ボウケン,0
1544,6290001111646,新規,0,2025-10-16,2025-10-16,株式会社ＶＥＬＴＥＸ,,株式会社,福岡県,春日市,下白水南７丁目１１７番地,,40,218,8160846,,,,,,,2025-10-16,1,,,,,ベルテクス,0
1545,6290001111662,新規,0,2025-10-16,2025-10-16,ＣｒａｆｔＯＳ株式会社,,株式会社,福岡県,福岡市西区,今宿駅前１丁目１５番１８号マリブ今宿シーサイドテラス,,40,135,8190168,,,,,,,2025-10-16,1,,,,,クラフトオーエス,0
1546,6290003017560,新規,0,2025-10-16,2025-10-16,合同会社Ｂｌｕｅ　Ｗｉｎｇ,,合同会社,福岡県,久留米市,原古賀町２２番地９サンセーヌ六ッ門６０４号,,40,203,8300046,,,,,,,2025-10-16,1,,,,,ブルーウイング,0
1547,6290805009870,新規,0,2025-10-16,2025-10-16,一般社団法人そらまめ,,その他の設立登記法人,福岡県,田川郡福智町,金田６０番地２,,40,610,8221201,,,,,,,2025-10-16,1,,,,,ソラマメ,0
1559,6330001033662,新規,0,2025-10-16,2025-10-16,株式会社つむぎ,,株式会社,熊本県,宇土市,神馬町３０８番地１,,43,211,8690424,,,,,,,2025-10-16,1,,,,,ツムギ,0
1560,6330003011261,新規,0,2025-10-16,2025-10-16,合同会社エスエヌティ,,合同会社,熊本県,熊本市東区,健軍１丁目３４番３号１０３号,,43,102,8620911,,,,,,,2025-10-16,1,,,,,エスエヌティ,0
1583,6430001095486,新規,0,2025-10-16,2025-10-16,ＡＬＩ　ＴＲＡＤＥ株式会社,,株式会社,北海道,石狩郡当別町,蕨岱５７０７番地１,,01,303,0610214,,,,,,,2025-10-16,1,,,,,アリトレード,0
1586,6430003018214,新規,0,2025-10-16,2025-10-16,合同会社ＮＡＫＡＭＵＲＡさん,,合同会社,北海道,札幌市白石区,東札幌六条５丁目１番１６－４０６号,,01,104,0030006,,,,,,,2025-10-16,1,,,,,ナカムラサン,0
1587,6430003018222,新規,0,2025-10-16,2025-10-16,インテリアタカギ合同会社,,合同会社,北海道,札幌市清田区,美しが丘三条６丁目１番２－１０６号,,01,110,0040813,,,,,,,2025-10-16,1,,,,,インテリアタカギ,0
1591,6470001020944,新規,0,2025-10-16,2025-10-16,株式会社香川まこっちゃん,,株式会社,香川県,高松市,香南町西庄２９４番地１,,37,201,7611406,,,,,,,2025-10-16,1,,,,,,0
1606,7010001259264,新規,0,2025-10-16,2025-10-16,株式会社Ｖｏｃｅａ,,株式会社,東京都,中央区,晴海３丁目１３番２号,,13,102,1040053,,,,,,,2025-10-16,1,,,,,ヴォセア,0
1607,7010001259289,新規,0,2025-10-16,2025-10-16,株式会社ＰＲＯＡＸＩＶ,,株式会社,東京都,中央区,銀座７丁目１３番６号サガミビル２階,,13,102,1040061,,,,,,,2025-10-16,1,,,,,プロアクシブ,0
1608,7010001259438,新規,0,2025-10-16,2025-10-16,株式会社Ａｌｔｉｏｒａ,,株式会社,東京都,中央区,銀座１丁目１２番４号Ｎ＆ＥＢＬＤ．６Ｆ,,13,102,1040061,,,,,,,2025-10-16,1,,,,,アルティオラ,0
1609,7010001259470,新規,0,2025-10-16,2025-10-16,Ａｐｐｌｅ　Ｈｕｍａｎ　Ｌｉｎｋ株式会社,,株式会社,東京都,中央区,八重洲１丁目３番７号八重洲ファーストフィナンシャルビル１３Ｆ,,13,102,1030028,,,,,,,2025-10-16,1,,,,,アップルヒューマンリンク,0
1613,7010003049011,新規,0,2025-10-16,2025-10-16,Ｒｕｋａ　Ｔｏｋｙｏ合同会社,,合同会社,東京都,中央区,築地２丁目１１－１,,13,102,1040045,,,,,,,2025-10-16,1,,,,,ルカトウキョウ,0
1614,7010003049052,新規,0,2025-10-16,2025-10-16,合同会社クロスベクタ,,合同会社,東京都,千代田区,神田神保町２丁目１０－３１ＩＷビル１Ｆ,,13,101,1010051,,,,,,,2025-10-16,1,,,,,クロスベクタ,0
1615,7010003049060,新規,0,2025-10-16,2025-10-16,ＡＬＢＥＲＡ合同会社,,合同会社,東京都,中央区,銀座１丁目２２番１１号銀座大竹ビジデンス２Ｆ,,13,102,1040061,,,,,,,2025-10-16,1,,,,,アルベラ,0
1618,7010103002670,新規,0,2025-10-16,2025-10-16,合同会社ＤＧ　ＥＮＴＥＲＰＲＩＳＥＳ,,合同会社,東京都,八王子市,明神町２丁目２５番地３－３０７号,,13,201,1920046,,,,,,,2025-10-16,1,,,,,ディジエンタープライズ,0
1629,7010401193559,新規,0,2025-10-16,2025-10-16,ハイクラス転職株式会社,,株式会社,東京都,港区,芝大門２丁目９－１８ＶＯＲＴ芝大門ＩＩＩ７階,00141134,13,103,1050012,,,,,,,2025-10-16,1,,,,,ハイクラステンショク,0
1630,7010401193773,新規,0,2025-10-16,2025-10-16,株式会社ザ・ワォ,,株式会社,東京都,港区,麻布十番１丁目５番１号,,13,103,1060045,,,,,,,2025-10-16,1,,,,,ザワォ,0
1631,7010403036253,新規,0,2025-10-16,2025-10-16,合同会社ソーニャ,,合同会社,東京都,港区,白金２丁目１番８－５０６号,,13,103,1080072,,,,,,,2025-10-16,1,,,,,ソーニャ,0
1632,7010405024900,新規,0,2025-10-16,2025-10-16,富士一般社団法人,,その他の設立登記法人,東京都,港区,虎ノ門５丁目１番４号,,13,103,1050001,,,,,,,2025-10-16,1,,,,,フジ,0
1634,7010501054628,新規,0,2025-10-16,2025-10-16,株式会社ＴＯＫＹＯ　ＨＡＬＡＬ,,株式会社,東京都,台東区,上野３丁目１６―２天翔上野末広町ビル７０４―Ｃ,,13,106,1100005,,,,,,,2025-10-16,1,,,,,トウキョウハラール,0
1635,7010501054891,新規,0,2025-10-16,2025-10-16,株式会社ＷｅＭａｓｔｅｒＴｒａｄｅ　Ｌａｂｓ,,株式会社,東京都,台東区,下谷３丁目１番２４号ＧＯＧＯオフィス上野入谷３１７号,,13,106,1100004,,,,,,,2025-10-16,1,,,,,ウィーマスタートレードラボ,0
1640,7010601068131,新規,0,2025-10-16,2025-10-16,株式会社ＥＮＤＯ,,株式会社,東京都,江東区,東雲１丁目６番２８号,,13,108,1350062,,,,,,,2025-10-16,1,,,,,エンドウ,0
1657,7011001172936,新規,0,2025-10-16,2025-10-16,株式会社ＡＧ,,株式会社,東京都,渋谷区,道玄坂１丁目１０番８号渋谷道玄坂東急ビル２Ｆ－Ｃ,,13,113,1500043,,,,,,,2025-10-16,1,,,,,,0
1658,7011001172977,新規,0,2025-10-16,2025-10-16,レバレジーズダイニング株式会社,,株式会社,東京都,渋谷区,渋谷２丁目２４番１２号,,13,113,1500002,,,,,,,2025-10-16,1,,,,,レバレジーズダイニング,0
1659,7011003022692,新規,0,2025-10-16,2025-10-16,合同会社三佳,,合同会社,東京都,目黒区,緑が丘１丁目２３－１１－１０１,,13,110,1520034,,,,,,,2025-10-16,1,,,,,ミツヨシ,0
1660,7011003022701,新規,0,2025-10-16,2025-10-16,合同会社アクシス,,合同会社,東京都,渋谷区,神宮前６丁目２３番４号桑野ビル２階,,13,113,1500001,,,,,,,2025-10-16,1,,,,,アクシス,0
1665,7011201026727,新規,0,2025-10-16,2025-10-16,Ｌｉｖｅ＆Ｓｔａｙ１ＴＴＯ株式会社,,株式会社,東京都,中野区,新井１丁目１７番１３号,,13,114,1650026,,,,,,,2025-10-16,1,,,,,リブアンドステイイットウ,0
1666,7011203004854,新規,0,2025-10-16,2025-10-16,ベータプレイス合同会社,,合同会社,東京都,中野区,江古田４丁目４１番１４号,,13,114,1650022,,,,,,,2025-10-16,1,,,,,ベータプレイス,0
1667,7011301030967,新規,0,2025-10-16,2025-10-16,株式会社Ｎ５Ｍコーポレーション,,株式会社,東京都,杉並区,天沼３丁目３５番９号寿ハイム１０３,,13,115,1670032,,,,,,,2025-10-16,1,,,,,エヌファイブエムコーポレーション,0
1669,7011403004902,新規,0,2025-10-16,2025-10-16,パラダイス合同会社,,合同会社,東京都,板橋区,大谷口２丁目６５番３１号中目久子スタジオ２Ｆ－２－Ｊ,,13,119,1730035,,,,,,,2025-10-16,1,,,,,パラダイス,0
1672,7011601029098,新規,0,2025-10-16,2025-10-16,株式会社ｎｅｘｔｆｏｒｍ,,株式会社,東京都,練馬区,平和台３丁目３０番１９号,,13,120,1790083,,,,,,,2025-10-16,1,,,,,ネクストフォーム,0
1674,7011701028850,新規,0,2025-10-16,2025-10-16,協志株式会社,,株式会社,東京都,江戸川区,大杉４丁目９番２号,,13,123,1320022,,,,,,,2025-10-16,1,,,,,キョウシ,0
1679,7012701019138,新規,0,2025-10-16,2025-10-16,来電株式会社,,株式会社,東京都,東久留米市,滝山６丁目１番２～２１０,,13,222,2030033,,,,,,,2025-10-16,1,,,,,ライデン,0
1692,7020003029474,新規,0,2025-10-16,2025-10-16,合同会社Ｋ’ｓ　Ｊｏｏｋ　Ｊｏｉｎｔ,,合同会社,神奈川県,横浜市南区,万世町２丁目２４－１１０３,,14,105,2320032,,,,,,,2025-10-16,1,,,,,ケイズジュークジョイント,0
1693,7020003029615,新規,0,2025-10-16,2025-10-16,合同会社マティラ,,合同会社,神奈川県,横浜市磯子区,洋光台１丁目２９―１０,,14,107,2350045,,,,,,,2025-10-16,1,,,,,マティラ,0
1696,7021001086623,新規,0,2025-10-16,2025-10-16,株式会社ＪＵＮＴＯＬＩＡ,,株式会社,神奈川県,相模原市南区,相武台３丁目２９―６―２,,14,153,2520324,,,,,,,2025-10-16,1,,,,,ジュントリア,0
1700,7021003016693,新規,0,2025-10-16,2025-10-16,合同会社Ｅｍｉｌｅ,,合同会社,神奈川県,小田原市,国府津４丁目５番４６－１号,,14,206,2560812,,,,,,,2025-10-16,1,,,,,エミル,0
1701,7021003016702,新規,0,2025-10-16,2025-10-16,合同会社トランクイロ,,合同会社,神奈川県,三浦市,初声町下宮田１０７９‐９０,,14,210,2380111,,,,,,,2025-10-16,1,,,,,トランクイロ,0
1709,7030005022311,新規,0,2025-10-16,2025-10-16,医療法人御生会,,その他の設立登記法人,埼玉県,さいたま市浦和区,上木崎２丁目１４番２号鳳英ビル,,11,107,3300071,,,,,,,2025-10-16,1,,,,,ゴショウカイ,0
1712,7040001140883,新規,0,2025-10-16,2025-10-16,株式会社エスケーエムサポート,,株式会社,千葉県,野田市,柳沢６５番地２０,,12,208,2780006,,,,,,,2025-10-16,1,,,,,エスケーエムサポート,0
1713,7040003028796,新規,0,2025-10-16,2025-10-16,Ｌｉｇｈｔｎｉｎｇ　Ｂｒａｉｎｓ合同会社,,合同会社,千葉県,船橋市,藤原６丁目２３番エステ・シティ壱番館１３０７号室,,12,204,2730047,,,,,,,2025-10-16,1,,,,,ライトニングブレインズ,0
1724,7060003005810,新規,0,2025-10-16,2025-10-16,合同会社Ｄ．Ｏ．Ｍ,,合同会社,栃木県,宇都宮市,宿郷２丁目９番１９号コーポサングレー３０５,,09,201,3210945,,,,,,,2025-10-16,1,,,,,ディーオーエム,0
1730,7080101025849,新規,0,2025-10-16,2025-10-16,株式会社Ｍ’ｓアニマルサポート,,株式会社,静岡県,富士宮市,北山３６８３番地の３,,22,207,4180112,,,,,,,2025-10-16,1,,,,,エムズアニマルサポート,0
1731,7080403005367,新規,0,2025-10-16,2025-10-16,合同会社ＫＵＫＡＮＸ,,合同会社,静岡県,浜松市中央区,根洗町１０８４番地の５,,22,138,4338108,,,,,,,2025-10-16,1,,,,,クウカンエックス,0
1735,7090005007744,新規,0,2025-10-16,2025-10-16,一般社団法人山梨県日中友好協会,,その他の設立登記法人,山梨県,甲府市,国母８丁目５番１１号宿沢ビル３０１,,19,201,4000043,,,,,,,2025-10-16,1,,,,,ヤマナシケンニッチュウユウコウキョウカイ,0
1737,7110001039648,新規,0,2025-10-16,2025-10-16,株式会社Ｗｅａｋ　Ｔｉｅｓ,,株式会社,新潟県,村上市,山居町１丁目１５番１７号ラ・メール倶楽部駅前Ｄ,,15,212,9580853,,,,,,,2025-10-16,1,,,,,ウィークタイズ,0
1747,7120001280589,新規,0,2025-10-16,2025-10-16,ＭＹＲリフォーム株式会社,,株式会社,大阪府,枚方市,東中振２丁目１１番１２－４０１号,,27,210,5730093,,,,,,,2025-10-16,1,,,,,エムワイアールリフォーム,0
1748,7120001280647,新規,0,2025-10-16,2025-10-16,株式会社ＴＡＤＡＮＥＳＴ,,株式会社,大阪府,大阪市阿倍野区,松崎町４丁目２番４号,,27,119,5450053,,,,,,,2025-10-16,1,,,,,タダネスト,0
1749,7120001280713,新規,0,2025-10-16,2025-10-16,株式会社Ｈａｐｐｉａ,,株式会社,大阪府,大阪市東淀川区,東中島１丁目２０番１２－４１０号,,27,114,5330033,,,,,,,2025-10-16,1,,,,,ハッピア,0
1750,7120001280812,新規,0,2025-10-16,2025-10-16,株式会社Ｈａｎｈａｎ　Ｓｐｏｒｔｓ　Ｍａｎａｇｅｍｅｎｔ,,株式会社,大阪府,大阪市中央区,南久宝寺町４丁目１番２号,,27,128,5410058,,,,,,,2025-10-16,1,,,,,ハンハンスポーツマネジメント,0
1751,7120001280845,新規,0,2025-10-16,2025-10-16,株式会社ネクストトラスト,,株式会社,大阪府,大阪市東成区,中道３丁目７番１７号,,27,115,5370025,,,,,,,2025-10-16,1,,,,,ネクストトラスト,0
1752,7120001280911,新規,0,2025-10-16,2025-10-16,株式会社ＮｅｗＤａｙ,,株式会社,大阪府,大阪市福島区,福島６丁目１８番１８号Ｗ．Ｏ．Ｂ西梅田１１０３,,27,103,5530003,,,,,,,2025-10-16,1,,,,,ニューデイ,0
1753,7120001281158,新規,0,2025-10-16,2025-10-16,隠山株式会社,,株式会社,大阪府,大阪市東住吉区,中野４丁目１番１６号サラオリエンテ中野６０５Ｂ,,27,121,5460012,,,,,,,2025-10-16,1,,,,,インサン,0
1754,7120001281208,新規,0,2025-10-16,2025-10-16,株式会社ＮＵＭＡ,,株式会社,大阪府,大阪市中央区,船越町２丁目３番８号天満橋ガーデンハイツ２０３,,27,128,5400036,,,,,,,2025-10-16,1,,,,,ヌマ,0
1759,7120005025214,新規,0,2025-10-16,2025-10-16,一般財団法人湯築河野西本財団,,その他の設立登記法人,大阪府,大阪市中央区,道修町３丁目４番７号,,27,128,5410045,,,,,,,2025-10-16,1,,,,,ユヅキコウノニシモトザイダン,0
1761,7120101072622,新規,0,2025-10-16,2025-10-16,愛吉特医療コンサルティングサービス株式会社,,株式会社,大阪府,泉佐野市,上町２丁目６－３,,27,213,5980007,,,,,,,2025-10-16,1,,,,,アイジーティーイリョウコンサルティングサービス,0
1762,7120103006784,新規,0,2025-10-16,2025-10-16,合同会社ＲＥＮＩＫＡ,,合同会社,大阪府,堺市東区,白鷺町２丁５番８号,,27,143,5998107,,,,,,,2025-10-16,1,,,,,レニカ,0
1763,7120105010074,新規,0,2025-10-16,2025-10-16,Ｉｓ社会保険労務士法人,,その他の設立登記法人,大阪府,堺市中区,堀上町８１－１番地９号,,27,142,5998261,,,,,,,2025-10-16,1,,,,,イズ,0
1766,7120901051627,新規,0,2025-10-16,2025-10-16,株式会社Ｙｕｖｉａ,,株式会社,大阪府,吹田市,江坂町５丁目１番５号ビスタ緑地Ｉ－２０５号,00141121,27,205,5640063,,,,,,,2025-10-16,1,,,,,ユービィア,0
1777,7140001140304,新規,0,2025-10-16,2025-10-16,アヅマ保険株式会社,,株式会社,兵庫県,高砂市,荒井町小松原１丁目１９番３６号,,28,216,6760011,,,,,,,2025-10-16,1,,,,,アヅマホケン,0
1778,7140001140386,新規,0,2025-10-16,2025-10-16,株式会社いろ華,,株式会社,兵庫県,三田市,つつじが丘北４丁目１番地２,,28,219,6691348,,,,,,,2025-10-16,1,,,,,イロハ,0
1779,7140001140394,新規,0,2025-10-16,2025-10-16,株式会社近藤金属,,株式会社,兵庫県,姫路市,北条４３２番地１６グラジオ姫路駅前ＩＩ１００１,00141132,28,201,6700947,,,,,,,2025-10-16,1,,,,,コンドウキンゾク,0
1780,7140003022715,新規,0,2025-10-16,2025-10-16,合同会社まり,,合同会社,兵庫県,神戸市須磨区,西落合１丁目１番２号プラウドシティ神戸名谷３２４号室,,28,107,6540155,,,,,,,2025-10-16,1,,,,,マリ,0
1781,7150001028473,新規,0,2025-10-16,2025-10-16,株式会社鴨家,,株式会社,奈良県,香芝市,旭ケ丘３丁目３番１号ＥＡＳＴ２１－Ｂ,,29,210,6390266,,,,,,,2025-10-16,1,,,,,カモヤ,0
1782,7150001028481,新規,0,2025-10-16,2025-10-16,株式会社セクレタリア,,株式会社,奈良県,奈良市,橋本町３－１,,29,201,6308217,,,,,,,2025-10-16,1,,,,,セクレタリア,0
1783,7150003003722,新規,0,2025-10-16,2025-10-16,合同会社サポートＫ,,合同会社,奈良県,生駒市,あすか野北２丁目９番２号,,29,209,6300134,,,,,,,2025-10-16,1,,,,,サポートケイ,0
1799,7180001169026,新規,0,2025-10-16,2025-10-16,株式会社ＭＯＲＥ　ＨＡＰＰＩＮＥＳＳ,,株式会社,愛知県,名古屋市中区,錦３丁目６－１５先中部電力ＭＩＲＡＩＴＯＷＥＲ３階ＴＨＥＴＯＷＥＲＬＯＵＮＧＣＡＳＨＩＭＥ内,,23,106,4600003,,,,,,,2025-10-16,1,,,,,モアハピネス,0
1816,7220001026981,新規,0,2025-10-16,2025-10-16,株式会社みその急便,,株式会社,石川県,野々市市,本町６丁目２１番３２号,,17,212,9218815,,,,,,,2025-10-16,1,,,,,ミソノキュウビン,0
1824,7240001065648,新規,0,2025-10-16,2025-10-16,株式会社ＺＥＮＴＥＸ,,株式会社,広島県,三原市,頼兼２丁目７番１２号,,34,204,7230054,,,,,,,2025-10-16,1,,,,,ゼンテックス,0
1825,7240001065656,新規,0,2025-10-16,2025-10-16,株式会社らぐたいむ,,株式会社,広島県,廿日市市,串戸２丁目１７番５号４Ｆ,,34,213,7380033,,,,,,,2025-10-16,1,,,,,ラグタイム,0
1830,7290001111637,新規,0,2025-10-16,2025-10-16,株式会社Ｊ‐ｔｅｃｈｎｏ,,株式会社,福岡県,福岡市早良区,早良４丁目５番７号,,40,137,8111122,,,,,,,2025-10-16,1,,,,,ジェイテクノ,0
1831,7290001111653,新規,0,2025-10-16,2025-10-16,ＲＥＶＩＶＡＬ　Ｇｒｏｕｐ株式会社,,株式会社,福岡県,福岡市博多区,寿町３丁目５番３３号,,40,132,8120884,,,,,,,2025-10-16,1,,,,,リバイバルグループ,0
1832,7290001111661,新規,0,2025-10-16,2025-10-16,株式会社Ｅｓｌｉｔｅｃ,,株式会社,福岡県,福岡市中央区,天神１丁目１１番１号ＯＮＥＦＵＫＵＯＫＡＢＬＤＧ．７階,,40,133,8100001,,,,,,,2025-10-16,1,,,,,イリテック,0
1833,7290003017485,新規,0,2025-10-16,2025-10-16,合同会社Ｌｕｎａｒａ,,合同会社,福岡県,久留米市,津福本町４９１番地５ラルヴェール試験場前Ｉ１０２号,00141135,40,203,8300047,,,,,,,2025-10-16,1,,,,,ルナラ,0
1834,7290003017535,新規,0,2025-10-16,2025-10-16,合同会社ＳＴカンパニー,,合同会社,福岡県,飯塚市,楽市８５番地２,,40,205,8200074,,,,,,,2025-10-16,1,,,,,エスティーカンパニー,0
1835,7290005019851,新規,0,2025-10-16,2025-10-16,弁護士法人福岡セントラル法律事務所,,その他の設立登記法人,福岡県,福岡市博多区,住吉２丁目２番１号井門博多ビルイースト８階,,40,132,8120018,,,,,,,2025-10-16,1,,,,,フクオカセントラルホウリツジムショ,0
1846,7360003015333,新規,0,2025-10-16,2025-10-16,Ｐｕｒｐｌｅ　Ｐａｐａ合同会社,,合同会社,沖縄県,那覇市,牧志２丁目１７－２７－４０１,,47,201,9000013,,,,,,,2025-10-16,1,,,,,パープルパパ,0
1858,7420003003199,新規,0,2025-10-16,2025-10-16,Ｇｌｏｂａｌ　Ｃａｒｅ合同会社,,合同会社,青森県,八戸市,長者２丁目５番２５号,,02,203,0310021,,,,,,,2025-10-16,1,,,,,グローバルケア,0
1860,7430001095460,新規,0,2025-10-16,2025-10-16,株式会社Ｔ‐ＩＧＮＩＴＩＯＮ,,株式会社,北海道,札幌市西区,西野六条６丁目８番２２号,,01,107,0630036,,,,,,,2025-10-16,1,,,,,ティーイグニッション,0
1863,7430005015332,新規,0,2025-10-16,2025-10-16,一般社団法人Ａｍｕｎｏ,,その他の設立登記法人,北海道,札幌市白石区,平和通６丁目北８番７号,,01,104,0030029,,,,,,,2025-10-16,1,,,,,アムノ,0
1866,7500001026581,新規,0,2025-10-16,2025-10-16,株式会社トリプルエイト,,株式会社,愛媛県,松山市,西石井５丁目７番９号,,38,201,7900931,,,,,,,2025-10-16,1,,,,,トリプルエイト,0
1867,7700150132458,新規,0,2025-10-16,2025-10-07,Ｂｒｉｌｌｉａ成増ステーションフロント管理組合,,その他,東京都,板橋区,成増２丁目１５－１７,,13,119,1750094,,,,,,,2025-10-07,1,,,,,ブリリアナリマスステーシヨンフロントカンリクミアイ,0
1871,8010001259107,新規,0,2025-10-16,2025-10-16,ＭＭＣトレーディング株式会社,,株式会社,東京都,中央区,新富１丁目１３番２６号新富ＴＴビル８階,,13,102,1040041,,,,,,,2025-10-16,1,,,,,エムエムシートレーディング,0
1872,8010001259420,新規,0,2025-10-16,2025-10-16,株式会社Ｏｎｅ　Ｋｅｒｎｅｌ,,株式会社,東京都,中央区,日本橋室町１丁目１１番１２号日本橋水野ビル７階,,13,102,1030022,,,,,,,2025-10-16,1,,,,,ワンカーネル,0
1873,8010001259445,新規,0,2025-10-16,2025-10-16,株式会社則武経営研究所,,株式会社,東京都,文京区,小石川１丁目５番１－３８０４号,,13,105,1120002,,,,,,,2025-10-16,1,,,,,ノリタケケイエイケンキュウジョ,0
1877,8010003049043,新規,0,2025-10-16,2025-10-16,合同会社ＫＥＮＳＹＵ,,合同会社,東京都,中央区,新川１丁目２８番４－２０２号,,13,102,1040033,,,,,,,2025-10-16,1,,,,,ケンシュウ,0
1878,8010101016903,新規,0,2025-10-16,2025-10-16,株式会社卓米国際,,株式会社,東京都,八王子市,明神町２丁目２番８－１０２号,,13,201,1920046,,,,,,,2025-10-16,1,,,,,タクマイコクサイ,0
1879,8010101016911,新規,0,2025-10-16,2025-10-16,株式会社ブラックワークス,,株式会社,東京都,八王子市,北野町５６３番地２,,13,201,1920906,,,,,,,2025-10-16,1,,,,,ブラックワークス,0
1892,8010401193483,新規,0,2025-10-16,2025-10-16,Ｌｙｔｒｉｘ　３Ｄ株式会社,,株式会社,東京都,港区,六本木７丁目７－７Ｔｒｉ－ＳｅｖｅｎＲｏｐｐｏｎｇｉ８Ｆ,,13,103,1060032,,,,,,,2025-10-16,1,,,,,ライトリクススリーディー,0
1893,8010401193707,新規,0,2025-10-16,2025-10-16,ＡＺＡＢＵコンサルティング株式会社,,株式会社,東京都,港区,麻布狸穴町５９番地１,,13,103,1060042,,,,,,,2025-10-16,1,,,,,アザブコンサルティング,0
1894,8010401193731,新規,0,2025-10-16,2025-10-16,株式会社ネクスト・ディビデンド,,株式会社,東京都,港区,南青山２丁目２７番２１号５階,,13,103,1070062,,,,,,,2025-10-16,1,,,,,ネクストディビデンド,0
1898,8010405024825,新規,0,2025-10-16,2025-10-16,一般財団法人環境先進プロジェクト支援協会,,その他の設立登記法人,東京都,港区,新橋２丁目１６番１－１００６号,,13,103,1050004,,,,,,,2025-10-16,1,,,,,カンキョウセンシンプロジェクトシエンキョウカイ,0
1902,8010501054817,新規,0,2025-10-16,2025-10-16,株式会社Ａｌｌ　Ｒｉｃｈ,,株式会社,東京都,台東区,上野６丁目１番６号御徒町グリーンハイツ１００５号,,13,106,1100005,,,,,,,2025-10-16,1,,,,,オールリッチ,0
1905,8010601068139,新規,0,2025-10-16,2025-10-16,株式会社ＩＮＮＯＶＡＴＩＯＮ　ＬＩＮＫ　ＴＯＫＹＯ,,株式会社,東京都,江東区,東雲１丁目９番４－２６０２号,,13,108,1350062,,,,,,,2025-10-16,1,,,,,イノベーションリンクトウキョウ,0
1907,8010603011848,新規,0,2025-10-16,2025-10-16,合同会社Ｋａｙｌａ＆Ｃｏ．,,合同会社,東京都,江東区,有明１丁目１番１７－７１３号,,13,108,1350063,,,,,,,2025-10-16,1,,,,,,0
1909,8010801036671,新規,0,2025-10-16,2025-10-16,ＪＮＣ　Ｅｘｐｒｅｓｓ　Ｃａｒｇｏ　Ｓｏｌｕｔｉｏｎ株式会社,,株式会社,東京都,大田区,山王２丁目１－８アーバンライフ４１２,,13,111,1430023,,,,,,,2025-10-16,1,,,,,ジェーエヌシーエクスプレスカーゴソリュウション,0
1916,8011001172951,新規,0,2025-10-16,2025-10-16,ＴＡｆｏｒｃｅ株式会社,,株式会社,東京都,渋谷区,渋谷３丁目６－２エクラート８１０,,13,113,1500002,,,,,,,2025-10-16,1,,,,,ティーエーフォース,0
1917,8011001172968,新規,0,2025-10-16,2025-10-16,株式会社Ｅｔｅｒｎａ,,株式会社,東京都,渋谷区,東４丁目６番１０号,,13,113,1500011,,,,,,,2025-10-16,1,,,,,エテルナ,0
1919,8011003022700,新規,0,2025-10-16,2025-10-16,合同会社エクレ,,合同会社,東京都,渋谷区,恵比寿西２丁目８番４号ＥＸ恵比寿西ビル５階,,13,113,1500021,,,,,,,2025-10-16,1,,,,,エクレ,0
1925,8011101113442,新規,0,2025-10-16,2025-10-16,株式会社アラタ・キャピタル・マネジメント,,株式会社,東京都,新宿区,西新宿３丁目３番１３号西新宿水間ビル２Ｆ,,13,104,1600023,,,,,,,2025-10-16,1,,,,,アラタキャピタルマネジメント,0
1926,8011201026701,新規,0,2025-10-16,2025-10-16,株式会社ムムム,,株式会社,東京都,中野区,新井１丁目７番２号,,13,114,1650026,,,,,,,2025-10-16,1,,,,,ムムム,0
1927,8011201026726,新規,0,2025-10-16,2025-10-16,株式会社リクラウジョン,,株式会社,東京都,中野区,鷺宮２丁目８番１３号グレイス都立家政１０３,,13,114,1650032,,,,,,,2025-10-16,1,,,,,リクラウジョン,0
1929,8011401027490,新規,0,2025-10-16,2025-10-16,株式会社千都,,株式会社,東京都,板橋区,小豆沢１丁目１番１６‐１２０２号,,13,119,1740051,,,,,,,2025-10-16,1,,,,,セント,0
1934,8011601029089,新規,0,2025-10-16,2025-10-16,大鵬商事株式会社,,株式会社,東京都,練馬区,春日町６丁目１６番１１号フォーチュン光が丘２１５号室,,13,120,1790074,,,,,,,2025-10-16,1,,,,,ダイホウショウジ,0
1939,8011801046933,新規,0,2025-10-16,2025-10-16,宸爍株式会社,,株式会社,東京都,足立区,鹿浜２丁目１５－１１大和産業ビル１０２,,13,121,1230864,,,,,,,2025-10-16,1,,,,,シンシャク,0
1940,8012301014562,新規,0,2025-10-16,2025-10-16,株式会社ＫＲＤ　Ｍａｎａｇｅｍｅｎｔ,,株式会社,東京都,町田市,小川１丁目２４９番地３,,13,209,1940003,,,,,,,2025-10-16,1,,,,,ケーアールディマネジメント,0
1954,8020001165023,新規,0,2025-10-16,2025-10-16,株式会社ＥｄｉＭｏｄ　Ｄｅｓｉｇｎ,,株式会社,神奈川県,横浜市金沢区,能見台１丁目２４番２号２階,,14,108,2360057,,,,,,,2025-10-16,1,,,,,エディモッドデザイン,0
1955,8020001165262,新規,0,2025-10-16,2025-10-16,株式会社Ｒａｉｎｂｏｗ,,株式会社,神奈川県,横浜市磯子区,丸山２丁目２３番１４号浜田ビル１０２号室,,14,107,2350011,,,,,,,2025-10-16,1,,,,,レインボー,0
1959,8020003029473,新規,0,2025-10-16,2025-10-16,合同会社ＭＩＹＡＶＩ,,合同会社,神奈川県,横浜市鶴見区,下野谷町４丁目１７９番地,,14,101,2300047,,,,,,,2025-10-16,1,,,,,,0
1960,8020003029572,新規,0,2025-10-16,2025-10-16,合同会社Ｑ,,合同会社,神奈川県,横浜市中区,山手町１０９番地山手ビラポルテ５１５,,14,104,2310862,,,,,,,2025-10-16,1,,,,,キュー,0
1967,8021001086564,新規,0,2025-10-16,2025-10-16,株式会社ＭＫ・ａｌｏｈａ,,株式会社,神奈川県,相模原市中央区,相生３丁目７番２０号,,14,152,2520235,,,,,,,2025-10-16,1,,,,,エムケーアロハ,0
1974,8030001169262,新規,0,2025-10-16,2025-10-16,株式会社Ｃｏｎｔｕｎｉｔｙ　Ｓｕｐｐｏｒｔ,,株式会社,埼玉県,戸田市,上戸田１丁目２１番２３号,,11,224,3350022,,,,,,,2025-10-16,1,,,,,コンテュニティーサポート,0
1979,8030005022310,新規,0,2025-10-16,2025-10-16,医療法人社団けやき,,その他の設立登記法人,埼玉県,入間市,河原町１番３号入間市駅前ビル２０７,,11,225,3580008,,,,,,,2025-10-16,1,,,,,ケヤキ,0
1983,8040001140874,新規,0,2025-10-16,2025-10-16,株式会社ＣＯＣＯＬ,,株式会社,千葉県,市原市,辰巳台西１丁目９番地の６,,12,219,2900004,,,,,,,2025-10-16,1,,,,,ココル,0
1988,8040003028738,新規,0,2025-10-16,2025-10-16,合同会社ビーテゥーシー,,合同会社,千葉県,富里市,日吉台６丁目１４－１６,,12,233,2860201,,,,,,,2025-10-16,1,,,,,ビーテゥーシー,0
1989,8040003028770,新規,0,2025-10-16,2025-10-16,エンネクスト合同会社,,合同会社,千葉県,東金市,三浦名１１３番地３,,12,213,2830028,,,,,,,2025-10-16,1,,,,,エンネクスト,0
1990,8040003028829,新規,0,2025-10-16,2025-10-16,ソシアルリンク合同会社,,合同会社,千葉県,市川市,東大和田１丁目２０番１４号,,12,203,2720026,,,,,,,2025-10-16,1,,,,,ソシアルリンク,0
2002,8080403005366,新規,0,2025-10-16,2025-10-16,クロワリス合同会社,,合同会社,静岡県,浜松市中央区,名塚町１７１番地ファミーユ２０２,,22,138,4300811,,,,,,,2025-10-16,1,,,,,クロワリス,0
2009,8110001039647,新規,0,2025-10-16,2025-10-16,株式会社アトリエＫ,,株式会社,新潟県,新発田市,大栄町７丁目１番６号,,15,206,9570056,,,,,,,2025-10-16,1,,,,,アトリエケイ,0
2011,8110003005928,新規,0,2025-10-16,2025-10-16,合同会社だっく,,合同会社,新潟県,燕市,井土巻１７６２番地,,15,213,9591232,,,,,,,2025-10-16,1,,,,,ダック,0
2023,8120001280588,新規,0,2025-10-16,2025-10-16,株式会社エステート,,株式会社,大阪府,大阪市北区,梅田１丁目２番２－３００号大阪駅前第２ビル３階,,27,127,5300001,,,,,,,2025-10-16,1,,,,,エステート,0
2024,8120001280646,新規,0,2025-10-16,2025-10-16,株式会社Ｒｅｂｏｒｎ,,株式会社,大阪府,大阪市中央区,瓦屋町３丁目２番１４－２０１号,,27,128,5420066,,,,,,,2025-10-16,1,,,,,リボーン,0
2025,8120001280654,新規,0,2025-10-16,2025-10-16,株式会社ＦＪＲＥｍａｎａｇｅｍｅｎｔ,,株式会社,大阪府,大阪市中央区,北浜３丁目５番２２号オリックス淀屋橋ビル,,27,128,5410041,,,,,,,2025-10-16,1,,,,,エフジェイアールイーマネジメント,0
2026,8120001280729,新規,0,2025-10-16,2025-10-16,株式会社Ｍｉｎｄ　Ｈｏｕｓｅ,,株式会社,大阪府,大阪市都島区,善源寺町２丁目２番５－１３１９号,,27,102,5340015,,,,,,,2025-10-16,1,,,,,マインドハウス,0
2027,8120001280794,新規,0,2025-10-16,2025-10-16,希信株式会社,,株式会社,大阪府,大阪市東淀川区,東淡路４丁目２４番３５－２０２号,,27,114,5330023,,,,,,,2025-10-16,1,,,,,キシン,0
2028,8120001280984,新規,0,2025-10-16,2025-10-16,株式会社大阪市小学校体育館空調ＰＦＩ,,株式会社,大阪府,大阪市中央区,平野町４丁目１番２号,,27,128,5410046,,,,,,,2025-10-16,1,,,,,オオサカシショウガッコウタイイクカンクウチョウピーエフアイ,0
2029,8120001281157,新規,0,2025-10-16,2025-10-16,日本凱甲株式会社,,株式会社,大阪府,大阪市東住吉区,中野４丁目１番１６号サラオリエンテ中野８０４Ａ,,27,121,5460012,,,,,,,2025-10-16,1,,,,,ニホンカイコウ,0
2031,8120003030909,新規,0,2025-10-16,2025-10-16,合同会社わわわ,,合同会社,大阪府,大阪市西区,西本町３丁目１番７号４０１,,27,106,5500005,,,,,,,2025-10-16,1,,,,,ワワワ,0
2032,8120003030958,新規,0,2025-10-16,2025-10-16,虹通合同会社,,合同会社,大阪府,大阪市城東区,野江２丁目１６－４－４０１,,27,118,5360006,,,,,,,2025-10-16,1,,,,,コウツウ,0
2033,8120003030966,新規,0,2025-10-16,2025-10-16,兜児合同会社,,合同会社,大阪府,大阪市港区,市岡２丁目１１番１４号２０２号室,,27,107,5520012,,,,,,,2025-10-16,1,,,,,カブトジ,0
2034,8120005025213,新規,0,2025-10-16,2025-10-16,一般財団法人高木屋五兵衛財団,00141126,その他の設立登記法人,大阪府,大阪市中央区,道修町３丁目４番７号,,27,128,5410045,,,,,,,2025-10-16,1,,,,,タカギヤゴヘエザイダン,0
2041,8120903005902,新規,0,2025-10-16,2025-10-16,合同会社結イノベーション,,合同会社,大阪府,摂津市,南千里丘６－３７パークシティ南千里丘２１８,,27,224,5660021,,,,,,,2025-10-16,1,,,,,ムスビイノベーション,0
2045,8122003003357,新規,0,2025-10-16,2025-10-16,合同会社藤本組,,合同会社,大阪府,東大阪市,日下町４丁目４番１０号ジャルディーノ２０３,,27,227,5798003,,,,,,,2025-10-16,1,,,,,フジモトグミ,0
2047,8130001080797,新規,0,2025-10-16,2025-10-16,株式会社彌榮商店,,株式会社,京都府,京都市下京区,西七条御領町２９番地,,26,106,6008893,,,,,,,2025-10-16,1,,,,,イヤサカショウテン,0
2049,8130005017481,新規,0,2025-10-16,2025-10-16,医療法人青仁会,,その他の設立登記法人,京都府,京都市西京区,桂野里町１７番地ミュー阪急桂３階,,26,111,6158073,,,,,,,2025-10-16,1,,,,,セイジンカイ,0
2056,8140001140385,新規,0,2025-10-16,2025-10-16,幸フードサービス株式会社,,株式会社,兵庫県,尼崎市,上ノ島町３丁目２６番２０号,,28,202,6610014,,,,,,,2025-10-16,1,,,,,ミユキフードサービス,0
2057,8140001140419,新規,0,2025-10-16,2025-10-16,株式会社ＦＵＫＬＥＹ,,株式会社,兵庫県,姫路市,京町１丁目１４０３－９,,28,201,6700824,,,,,,,2025-10-16,1,,,,,フークリー,0
2058,8140001140427,新規,0,2025-10-16,2025-10-16,株式会社ＴＭＫグローバルフーズ,,株式会社,兵庫県,加古川市,加古川町寺家町３３２－１エスビル２Ｆ,,28,210,6750066,,,,,,,2025-10-16,1,,,,,ティーエムケイグローバルフーズ,0
2059,8140001140484,新規,0,2025-10-16,2025-10-16,株式会社竹中正肉店,,株式会社,兵庫県,神戸市北区,有馬町８１３番地,,28,109,6511401,,,,,,,2025-10-16,1,,,,,タケナカセイニクテン,0
2060,8140003022714,新規,0,2025-10-16,2025-10-16,合同会社清ら,,合同会社,兵庫県,神崎郡神河町,柏尾１８０番地の５,,28,446,6792424,,,,,,,2025-10-16,1,,,,,キヨラ,0
2062,8150001028480,新規,0,2025-10-16,2025-10-16,株式会社ＡＧＲＩ　ＰＩＥＲＣＥＲ,,株式会社,奈良県,北葛城郡広陵町,大字大野８５番地１,,29,426,6350803,,,,,,,2025-10-16,1,,,,,アグリピアサー,0
2065,8170001018835,新規,0,2025-10-16,2025-10-16,株式会社ＳＴＳ,,株式会社,和歌山県,岩出市,西国分５５３番地の７,,30,209,6496213,,,,,,,2025-10-16,1,,,,,エスティーエス,0
2075,8180303006768,新規,0,2025-10-16,2025-10-16,ラフィング・ライフ合同会社,,合同会社,愛知県,豊川市,八幡町下六光寺２０番地の２,,23,207,4420857,,,,,,,2025-10-16,1,,,,,,0
2079,8190003005219,新規,0,2025-10-16,2025-10-16,合同会社シシガミＰｌａｎｔｓ,,合同会社,三重県,松阪市,久米町１３７８番地,,24,204,5152122,,,,,,,2025-10-16,1,,,,,シシガミプランツ,0
2080,8190003005227,新規,0,2025-10-16,2025-10-16,Ａｕｔｏ　Ｓｐａｃｅ合同会社,,合同会社,三重県,いなべ市,北中津原１８１‐１Ｆ,,24,214,5110200,,,,,,,2025-10-16,1,,,,,オートスペース,0
2082,8200003007106,新規,0,2025-10-16,2025-10-16,ＧｌｏＦｌｏｗ　Ｔｒａｄｉｎｇ合同会社,,合同会社,岐阜県,岐阜市,黒野南３丁目５長屋マンション２０１号室,,21,201,5011136,,,,,,,2025-10-16,1,,,,,グローフロートレーディング,0
2084,8220001026980,新規,0,2025-10-16,2025-10-16,株式会社ＫＡＧＩＫＡＫＫＯ,,株式会社,石川県,金沢市,堀川新町５－１アリマビル３階,,17,201,9200849,,,,,,,2025-10-16,1,,,,,カギカッコ,0
2086,8220003004142,新規,0,2025-10-16,2025-10-16,さいころデータ合同会社,,合同会社,石川県,金沢市,保古１丁目１５３番地,,17,201,9218052,,,,,,,2025-10-16,1,,,,,サイコロデータ,0
2099,8290001111652,新規,0,2025-10-16,2025-10-16,北海商事株式会社,,株式会社,福岡県,福岡市中央区,春吉３丁目２４番１６号,,40,133,8100003,,,,,,,2025-10-16,1,,,,,ホッカイショウジ,0
2107,8330001033660,新規,0,2025-10-16,2025-10-16,株式会社ゆうまり,,株式会社,熊本県,熊本市西区,二本木３丁目３－２６－２,,43,103,8600051,,,,,,,2025-10-16,1,,,,,ユウマリ,0
2113,8360001035919,新規,0,2025-10-16,2025-10-16,リード・アーキテクト沖縄株式会社,,株式会社,沖縄県,那覇市,おもろまち４丁目７番２アーベイン２１－１０１号室,,47,201,9000006,,,,,,,2025-10-16,1,,,,,リードアーキテクトオキナワ,0
2114,8360003015324,新規,0,2025-10-16,2025-10-16,合同会社いちゃりば,,合同会社,沖縄県,豊見城市,字豊崎３－５９,,47,212,9010225,,,,,,,2025-10-16,1,,,,,イチャリバ,0
2116,8380001035644,新規,0,2025-10-16,2025-10-16,株式会社ディーアドバンス,,株式会社,福島県,郡山市,鳴神３丁目２１７番地,,07,203,9630207,,,,,,,2025-10-16,1,,,,,ディーアドバンス,0
2119,8400001017210,新規,0,2025-10-16,2025-10-16,エム‐プラン株式会社,,株式会社,岩手県,盛岡市,青山３丁目２０番１０号２階,,03,201,0200133,,,,,,,2025-10-16,1,,,,,エムプラン,0
2120,8400003003547,新規,0,2025-10-16,2025-10-16,合同会社田中屋,,合同会社,岩手県,盛岡市,茶畑１丁目４番１サンラフィーノ２０３,,03,201,0200822,,,,,,,2025-10-16,1,,,,,,0
2123,8430001095419,新規,0,2025-10-16,2025-10-16,株式会社ＯＷＮＥＳＴ,,株式会社,北海道,札幌市中央区,南十三条西７丁目２番１１号,,01,101,0640913,,,,,,,2025-10-16,1,,,,,オウネスト,0
2124,8430001095451,新規,0,2025-10-16,2025-10-16,株式会社Ｒｅｖｉｖｅ,,株式会社,北海道,札幌市中央区,南一条西８丁目９－１エコネットビル２Ｆ,,01,101,0600061,,,,,,,2025-10-16,1,,,,,リバイブ,0
2125,8430001095476,新規,0,2025-10-16,2025-10-16,Ｎｉｓｅｋｏ　Ａｌｉｃｅ株式会社,,株式会社,北海道,虻田郡倶知安町,字旭３２番地１,,01,400,0440083,,,,,,,2025-10-16,1,,,,,ニセコアリス,0
2130,8430003018220,新規,0,2025-10-16,2025-10-16,合同会社コンシダレイトニセコ,,合同会社,北海道,虻田郡ニセコ町,字元町１４２番地２,,01,395,0481544,,,,,,,2025-10-16,1,,,,,コンシダレイトニセコ,0
2136,8460001006042,新規,0,2025-10-16,2025-10-16,株式会社Ｍ’ｓ　Ｍｅｄｉｃａｌ　Ｃａｒｅ,,株式会社,北海道,釧路郡釧路町,北見団地１丁目３３ハウス秋元５号室,,01,661,0880625,,,,,,,2025-10-16,1,,,,,エムズメディカルケア,0
2150,9010001259221,新規,0,2025-10-16,2025-10-16,株式会社フロンティアファーマー,,株式会社,東京都,千代田区,内神田１丁目１３番１号,,13,101,1010047,,,,,,,2025-10-16,1,,,,,フロンティアファーマー,0
2151,9010001259469,新規,0,2025-10-16,2025-10-16,株式会社ＡＩことば,,株式会社,東京都,中央区,銀座１丁目２２番１１号銀座大竹ビジデンス２階,,13,102,1040061,,,,,,,2025-10-16,1,,,,,アイコトバ,0
2153,9010003049050,新規,0,2025-10-16,2025-10-16,ＹＵＳＯＲＡ合同会社,,合同会社,東京都,中央区,銀座１丁目１２番４号Ｎ＆ＥＢＬＤ．６Ｆ,,13,102,1040061,,,,,,,2025-10-16,1,,,,,ユソラ,0
2158,9010403036185,新規,0,2025-10-16,2025-10-16,不動オペレーションズ合同会社,,合同会社,東京都,港区,六本木１丁目６番１号泉ガーデンタワー,,13,103,1060032,,,,,,,2025-10-16,1,,,,,フドウオペレーションズ,0
2159,9010403036318,新規,0,2025-10-16,2025-10-16,Ｏｌｉｖｅ合同会社,,合同会社,東京都,港区,虎ノ門５丁目１番４号,,13,103,1050001,,,,,,,2025-10-16,1,,,,,オリーヴ,0
2160,9010405024766,新規,0,2025-10-16,2025-10-16,一般社団法人ＪＥＳＧＯ研究所,,その他の設立登記法人,東京都,港区,赤坂１丁目１４番５号アークヒルズエグゼクティブタワーＳ４０１,,13,103,1070052,,,,,,,2025-10-16,1,,,,,ジェスゴケンキュウジョ,0
2167,9010501054865,新規,0,2025-10-16,2025-10-16,暁光社株式会社,,株式会社,東京都,台東区,台東１丁目３５番８－２０１号,,13,106,1100016,,,,,,,2025-10-16,1,,,,,ギョウコウシャ,0
2168,9010503008043,新規,0,2025-10-16,2025-10-16,合同会社ＧＨ,,合同会社,東京都,台東区,柳橋２丁目３番２―７０１号,,13,106,1110052,,,,,,,2025-10-16,1,,,,,ジーエイチ,0
2175,9010901058276,新規,0,2025-10-16,2025-10-16,１９カンパニー株式会社,,株式会社,東京都,世田谷区,野沢２丁目１４番３号サハラビル２０２,,13,112,1540003,,,,,,,2025-10-16,1,,,,,イチキューカンパニー,0
2184,9011001172835,新規,0,2025-10-16,2025-10-16,ステキシステム株式会社,,株式会社,東京都,目黒区,下目黒１丁目１番１４号コノトラビル７Ｆ,,13,110,1530064,,,,,,,2025-10-16,1,,,,,ステキシステム,0
2185,9011003022699,新規,0,2025-10-16,2025-10-16,合同会社織田明堂,,合同会社,東京都,目黒区,下目黒１丁目１番１４号コノトラビル７Ｆ,,13,110,1530064,,,,,,,2025-10-16,1,,,,,オダメイドウ,0
2186,9011003022708,新規,0,2025-10-16,2025-10-16,アキバデザインオフィス合同会社,,合同会社,東京都,渋谷区,上原１丁目３－９,,13,113,1510064,,,,,,,2025-10-16,1,,,,,アキバデザインオフィス,0
2188,9011101113433,新規,0,2025-10-16,2025-10-16,藍麒株式会社,,株式会社,東京都,新宿区,西新宿８丁目１２番１号サンパレス新宿４０３,,13,104,1600023,,,,,,,2025-10-16,1,,,,,アイキ,0
2190,9011201026725,新規,0,2025-10-16,2025-10-16,株式会社モダーン,,株式会社,東京都,中野区,中央４丁目２６番１０－５０５号,,13,114,1640011,,,,,,,2025-10-16,1,,,,,モダーン,0
2191,9011201026733,新規,0,2025-10-16,2025-10-16,株式会社Ｆｏｌｃｙ,,株式会社,東京都,中野区,本町２丁目４６番１号中野坂上サンブライトツイン１４階,,13,114,1640012,,,,,,,2025-10-16,1,,,,,フォルシー,0
2192,9011203004860,新規,0,2025-10-16,2025-10-16,ＧＲＩＨＹＡＬＡＸＭＩ合同会社,,合同会社,東京都,中野区,東中野３丁目６番２号ヴィラ・ルミエール３０６,,13,114,1640003,,,,,,,2025-10-16,1,,,,,グリヤラクシュミ,0
2194,9011301030973,新規,0,2025-10-16,2025-10-16,株式会社高円寺工房,,株式会社,東京都,杉並区,高円寺南３丁目５６番１－４０５号,,13,115,1660003,,,,,,,2025-10-16,1,,,,,コウエンジコウボウ,0
2195,9011401027481,新規,0,2025-10-16,2025-10-16,美日株式会社,,株式会社,東京都,板橋区,西台１丁目１－１４－２０２,,13,119,1740045,,,,,,,2025-10-16,1,,,,,ミカ,0
2198,9011601029088,新規,0,2025-10-16,2025-10-16,株式会社杉電,,株式会社,東京都,練馬区,貫井５丁目４番１９号,,13,120,1760021,,,,,,,2025-10-16,1,,,,,スギデン,0
2200,9011801046899,新規,0,2025-10-16,2025-10-16,立恒株式会社,,株式会社,東京都,葛飾区,東堀切３丁目２７－６－６０４,,13,122,1240004,,,,,,,2025-10-16,1,,,,,リツコウ,0
2206,9012401043717,新規,0,2025-10-16,2025-10-16,株式会社びびぱす,,株式会社,東京都,武蔵野市,境南町３丁目１番２号,,13,203,1800023,,,,,,,2025-10-16,1,,,,,ビビパス,0
2208,9012803003905,新規,0,2025-10-16,2025-10-16,スタジオあまめ合同会社,,合同会社,東京都,東大和市,芋窪６丁目１３２５－２ジャルディーノ１０１,,13,220,2070033,,,,,,,2025-10-16,1,,,,,スタジオアマメ,0
2211,9013301055067,新規,0,2025-10-16,2025-10-16,東京豊島青果株式会社,,株式会社,東京都,豊島区,巣鴨５丁目１番５号,,13,116,1700002,,,,,,,2025-10-16,1,,,,,トウキョウトシマセイカ,0
2212,9013301055091,新規,0,2025-10-16,2025-10-16,ＨＥＣＯ株式会社,,株式会社,東京都,豊島区,西池袋１丁目１１－１メトロポリタンプラザビル１４階,,13,116,1710021,,,,,,,2025-10-16,1,,,,,エイチイーシーオー,0
2213,9013301055141,新規,0,2025-10-16,2025-10-16,株式会社アンダーズ,,株式会社,東京都,豊島区,池袋本町２丁目２－１３・１０１号室,,13,116,1700011,,,,,,,2025-10-16,1,,,,,アンダーズ,0
2221,9020003029464,新規,0,2025-10-16,2025-10-16,合同会社徳,00141137,合同会社,神奈川県,横浜市港北区,日吉１丁目４番１４号ＶＩＴＡＨＩＹＯＳＨＩ１０４,,14,109,2230061,,,,,,,2025-10-16,1,,,,,トク,0
2222,9020003029605,新規,0,2025-10-16,2025-10-16,合同会社ＭＡＢＡ,,合同会社,神奈川県,横浜市西区,東ケ丘２３番１号ＣＡＳＡＣＯ１階,,14,103,2200033,,,,,,,2025-10-16,1,,,,,マバ,0
2225,9021001086571,新規,0,2025-10-16,2025-10-16,東成徳勝株式会社,,株式会社,神奈川県,秦野市,南矢名２２２３番地の４東海ビル１０７Ａ,,14,211,2570003,,,,,,,2025-10-16,1,,,,,トウセイトクショウ,0
2233,9030005022301,新規,0,2025-10-16,2025-10-16,医療法人一仁会,,その他の設立登記法人,埼玉県,坂戸市,溝端町３番地１０奥平ビル１階,,11,239,3500274,,,,,,,2025-10-16,1,,,,,イチジンカイ,0
2238,9040001140873,新規,0,2025-10-16,2025-10-16,株式会社ＹＳ,,株式会社,千葉県,市原市,五井中央東１丁目１５番地２５大野ビル２０１,,12,219,2900054,,,,,,,2025-10-16,1,,,,,ワイエス,0
2239,9040001140881,新規,0,2025-10-16,2025-10-16,株式会社鎌田電設工業,,株式会社,千葉県,千葉市稲毛区,稲毛東４丁目２番８号ジュネパレス稲毛東４０１号室,,12,103,2630031,,,,,,,2025-10-16,1,,,,,カマタデンセツコウギョウ,0
2240,9040001140907,新規,0,2025-10-16,2025-10-16,株式会社ＴＭプロダクト,,株式会社,千葉県,千葉市緑区,高津戸町４５番地５６,,12,105,2670053,,,,,,,2025-10-16,1,,,,,ティーエムプロダクト,0
2241,9040001140923,新規,0,2025-10-16,2025-10-16,株式会社ＴＲＡＩＮＯ,,株式会社,千葉県,君津市,愛宕１９３番地１,,12,225,2920445,,,,,,,2025-10-16,1,,,,,トライノ,0
2242,9040001140956,新規,0,2025-10-16,2025-10-16,株式会社ｓｋｙｗｏｒｋｓ,,株式会社,千葉県,成田市,囲護台１２４９番地４,,12,211,2860000,,,,,,,2025-10-16,1,,,,,スカイワークス,0
2243,9040001141054,新規,0,2025-10-16,2025-10-16,ルミナスクリエーション株式会社,,株式会社,千葉県,八千代市,大和田新田８９０番地１０２,,12,221,2760046,,,,,,,2025-10-16,1,,,,,ルミナスクリエーション,0
2250,9050001057431,新規,0,2025-10-16,2025-10-16,アトムワークス株式会社,,株式会社,茨城県,坂東市,桐木９６８番地１,,08,228,3060636,,,,,,,2025-10-16,1,,,,,アトムワークス,0
2252,9060001038686,新規,0,2025-10-16,2025-10-16,株式会社ミレット・スタイル,,株式会社,栃木県,矢板市,乙畑１２５９番地３,,09,211,3291574,,,,,,,2025-10-16,1,,,,,ミレットスタイル,0
2256,9070001043438,新規,0,2025-10-16,2025-10-16,株式会社ＫＵＬＥＡＮＡ,,株式会社,群馬県,伊勢崎市,喜多町５９番地２コンフォートレジデンスＩＩ１０１,00141129,10,204,3720056,,,,,,,2025-10-16,1,,,,,クレアナ,0
2257,9070001043462,新規,0,2025-10-16,2025-10-16,株式会社新井家具,,株式会社,群馬県,高崎市,上豊岡町５６６番地２７,,10,202,3700871,,,,,,,2025-10-16,1,,,,,アライカグ,0
2265,9120001080327,新規,0,2025-10-16,2025-10-16,株式会社三恵,,株式会社,大阪府,大阪市中央区,上汐２丁目２番６号,,27,128,5420064,,,,,,,2025-10-16,1,,,,,,0
2274,9120001280810,新規,0,2025-10-16,2025-10-16,株式会社シマズコーポレーション,,株式会社,大阪府,寝屋川市,高宮１丁目１４番３１号,,27,215,5720806,,,,,,,2025-10-16,1,,,,,シマズコーポレーション,0
2275,9120001280884,新規,0,2025-10-16,2025-10-16,九図株式会社,,株式会社,大阪府,大阪市淀川区,木川西１丁目４－１９ヴィラ木川３０４号,,27,123,5320013,,,,,,,2025-10-16,1,,,,,キュウズ,0
2276,9120001280934,新規,0,2025-10-16,2025-10-16,株式会社ＲＵＮ　ＢＥＬＩＥＦ,,株式会社,大阪府,大阪市此花区,酉島４丁目１番２０－３０２号,,27,104,5540051,,,,,,,2025-10-16,1,,,,,ランビリーフ,0
2277,9120001281049,新規,0,2025-10-16,2025-10-16,城＿株式会社,00141124,株式会社,大阪府,大阪市西成区,千本中２丁目５番２６号Ｂ５号室,,27,122,5570054,,,,,,,2025-10-16,1,,,,,キサキ,0
2278,9120001281123,新規,0,2025-10-16,2025-10-16,麦道株式会社,,株式会社,大阪府,大阪市東住吉区,中野４丁目１番１６号サラオリエンテ中野６０６Ｂ,,27,121,5460012,,,,,,,2025-10-16,1,,,,,バクドウ,0
2279,9120001281156,新規,0,2025-10-16,2025-10-16,宇軒株式会社,,株式会社,大阪府,大阪市東住吉区,中野４丁目１番１６号リベラルオリエンテ中野４０２Ａ,,27,121,5460012,,,,,,,2025-10-16,1,,,,,ウケン,0
2280,9120003030932,新規,0,2025-10-16,2025-10-16,ＨＡＹＡＴ　ＴＲＡＤＩＮＧ合同会社,,合同会社,大阪府,大阪市西淀川区,大和田２丁目４－１０－４０６号,,27,113,5550032,,,,,,,2025-10-16,1,,,,,ハヤトトレーディング,0
2281,9120003031039,新規,0,2025-10-16,2025-10-16,ＲＡＦＡＱＡＴ　ＥＮＴＥＲＰＲＩＳＥＳ合同会社,,合同会社,大阪府,大阪市東淀川区,東中島２丁目２１－２１,,27,114,5330033,,,,,,,2025-10-16,1,,,,,ラファカットエンタープライゼズ,0
2284,9120101072579,新規,0,2025-10-16,2025-10-16,大伸電機工業株式会社,,株式会社,大阪府,南河内郡太子町,聖和台２丁目１２－２,,27,381,5830996,,,,,,,2025-10-16,1,,,,,ダイシンデンキコウギョウ,0
2285,9120101072637,新規,0,2025-10-16,2025-10-16,株式会社輝きパートナーズ,,株式会社,大阪府,大阪狭山市,大野台６丁目２１番９号,,27,231,5890023,,,,,,,2025-10-16,1,,,,,カガヤキパートナーズ,0
2288,9120901051591,新規,0,2025-10-16,2025-10-16,株式会社ＫｕｒｏＧＯｐｌｕｓ,,株式会社,大阪府,摂津市,南千里丘３番５号,,27,224,5660021,,,,,,,2025-10-16,1,,,,,クロゴプラス,0
2292,9122003003356,新規,0,2025-10-16,2025-10-16,Ｉｃｈｉｇｏ合同会社,,合同会社,大阪府,東大阪市,渋川町２丁目１－２１ミネハイツ９号棟２０１号,,27,227,5770836,,,,,,,2025-10-16,1,,,,,イチゴ,0
2295,9130001080788,新規,0,2025-10-16,2025-10-16,株式会社みやこ,,株式会社,京都府,京都市左京区,岩倉南木野町６１番地,,26,103,6060028,,,,,,,2025-10-16,1,,,,,ミヤコ,0
2296,9130001080796,新規,0,2025-10-16,2025-10-16,ＫＡＣプロジェクト株式会社,,株式会社,京都府,福知山市,土師宮町１丁目５３番地,,26,201,6200856,,,,,,,2025-10-16,1,,,,,ケーエーシープロジェクト,0
2298,9130003010859,新規,0,2025-10-16,2025-10-16,合同会社和心Ｓｔｙｌｅ,,合同会社,京都府,京都市伏見区,桃山町日向４６番地９９,,26,109,6128001,,,,,,,2025-10-16,1,,,,,ナゴミスタイル,0
2301,9140001140351,新規,0,2025-10-16,2025-10-16,株式会社Ｒｅｂｌｏｏｍ,,株式会社,兵庫県,宝塚市,青葉台１丁目１０番１３号,,28,214,6650014,,,,,,,2025-10-16,1,,,,,リブルーム,0
2302,9140001140384,新規,0,2025-10-16,2025-10-16,株式会社ａｎｄＲ,,株式会社,兵庫県,神戸市須磨区,古川町３丁目３番１０－７０１号,,28,107,6540041,,,,,,,2025-10-16,1,,,,,アンドアール,0
2308,9160005011456,新規,0,2025-10-16,2025-10-16,一般社団法人シン野洲高校応援会,,その他の設立登記法人,滋賀県,守山市,小島町１７４７番地６,,25,207,5240002,,,,,,,2025-10-16,1,,,,,シンヤスコウコウオウエンカイ,0
2318,9180001169148,新規,0,2025-10-16,2025-10-16,株式会社ムスビメ,,株式会社,愛知県,知多市,新舞子字竜７２番地の１３,,23,224,4780036,,,,,,,2025-10-16,1,,,,,ムスビメ,0
2319,9180001169156,新規,0,2025-10-16,2025-10-16,営昆株式会社,,株式会社,愛知県,名古屋市西区,五才美町６番地メゾンヤスフク２０５号室,,23,104,4520806,,,,,,,2025-10-16,1,,,,,エイコン,0
2332,9190003005218,新規,0,2025-10-16,2025-10-16,合同会社ＢＳＭ,,合同会社,三重県,伊賀市,上野忍町２６１７番地の１花本ビル２Ｆ,,24,216,5180854,,,,,,,2025-10-16,1,,,,,ビーエスエム,0
2335,9200001044331,新規,0,2025-10-16,2025-10-16,株式会社根輝,,株式会社,岐阜県,可児市,土田２５５６番地２,,21,214,5090206,,,,,,,2025-10-16,1,,,,,コンキ,0
2336,9200003007105,新規,0,2025-10-16,2025-10-16,Ｍ　Ｍ　Ｔｒａｄｉｎｇ合同会社,,合同会社,岐阜県,土岐市,下石町６６０番地の２９,,21,212,5095202,,,,,,,2025-10-16,1,,,,,エムエムトレーディング,0
2339,9220003004141,新規,0,2025-10-16,2025-10-16,合同会社Ｎ・Ｓ,,合同会社,石川県,金沢市,泉本町１丁目１１２番地,,17,201,9218042,,,,,,,2025-10-16,1,,,,,,0
2344,9240001065621,新規,0,2025-10-16,2025-10-16,株式会社ｎｏｒｄ．ＨＯＬＤＩＮＧＳ,,株式会社,広島県,福山市,箕沖町３６番地の３,,34,207,7210956,,,,,,,2025-10-16,1,,,,,ノルドホールディングス,0
2350,9290001111619,新規,0,2025-10-16,2025-10-16,株式会社森松,,株式会社,福岡県,福岡市中央区,港１丁目１０番２－１２０３号,,40,133,8100075,,,,,,,2025-10-16,1,,,,,モリマツ,0
2351,9290001111635,新規,0,2025-10-16,2025-10-16,日本コンテナハウス開発株式会社,,株式会社,福岡県,福岡市博多区,博多駅南１丁目１５－６アーバンスクエア博多駅３０２,,40,132,8120016,,,,,,,2025-10-16,1,,,,,ニホンコンテナハウスカイハツ,0
2352,9290001111643,新規,0,2025-10-16,2025-10-16,株式会社ＧｕｔＬｉｎｋ,,株式会社,福岡県,福岡市博多区,博多駅前１丁目２３番２号ＰａｒｋＦｒｏｎｔ博多駅前１丁目５Ｆ－Ｂ,,40,132,8120011,,,,,,,2025-10-16,1,,,,,ガットリンク,0
2353,9290001111651,新規,0,2025-10-16,2025-10-16,元来株式会社,,株式会社,福岡県,福岡市中央区,天神４丁目４－２６天神吉柳ビル７Ｆグラプラス天神Ｓ－１,,40,133,8100001,,,,,,,2025-10-16,1,,,,,ゲンライ,0
2355,9290003017525,新規,0,2025-10-16,2025-10-16,合同会社ＴＥＲＡＲＨＹＴＨＭ,,合同会社,福岡県,糸島市,蔵持７６７番地１かえでの社Ａ棟,,40,230,8191141,,,,,,,2025-10-16,1,,,,,,0
2356,9290003017558,新規,0,2025-10-16,2025-10-16,合同会社塚本農園,,合同会社,福岡県,久留米市,荒木町白口１４９７番地３,,40,203,8300062,,,,,,,2025-10-16,1,,,,,ツカモトノウエン,0
2378,9380001035643,新規,0,2025-10-16,2025-10-16,株式会社グリーンハウス長久保,,株式会社,福島県,白河市,中山東２番地２９,,07,205,9610991,,,,,,,2025-10-16,1,,,,,グリーンハウスナガクボ,0
2394,9430003018236,新規,0,2025-10-16,2025-10-16,澤川リンク合同会社,,合同会社,北海道,磯谷郡蘭越町,字湯里１４２番地１０４,,01,394,0481321,,,,,,,2025-10-16,1,,,,,サワカワリンク,0
2398,9440001009698,新規,0,2025-10-16,2025-10-16,株式会社ハピネス建工,,株式会社,北海道,函館市,陣川町１０２番地１７２,,01,202,0410833,,,,,,,2025-10-16,1,,,,,ハピネスケンコウ,0
2399,9450001014755,新規,0,2025-10-16,2025-10-16,株式会社Ｔｒｉｄｅｎｔ,,株式会社,北海道,旭川市,秋月一条１丁目１番１３号,,01,204,0798401,,,,,,,2025-10-16,1,,,,,トライデント,0
2400,9470001020941,新規,0,2025-10-16,2025-10-16,株式会社ＹＭオフィスサポート,,株式会社,香川県,高松市,木太町１８６２番地１１Ｅ号棟,,37,201,7600080,,,,,,,2025-10-16,1,,,,,,0
