sequenceNumber,corporateNumber,process,correct,updateDate,changeDate,name,nameImageId,kind,prefectureName,cityName,streetNumber,addressImageId,prefectureCode,cityCode,postCode,addressOutside,addressOutsideImageId,closeDate,closeCause,successorCorporateNumber,changeCause,assignmentDate,latest,enName,enPrefectureName,enCityName,enAddressOutside,furigana,hihyoji
14,1010001259559,新規,0,2025-10-21,2025-10-21,株式会社ナチュラウェル,,株式会社,東京都,千代田区,神田小川町１丁目１０－２ＶＯＲＴ神田小川町ＩＩ６０３号,00141181,13,101,1010052,,,,,,,2025-10-21,1,,,,,ナチュラウェル,0
22,1010005040816,新規,0,2025-10-21,2025-10-21,弁護士法人燕総合法律事務所,,その他の設立登記法人,東京都,千代田区,紀尾井町３番１２号紀尾井町ビル１５階,,13,101,1020094,,,,,,,2025-10-21,1,,,,,ツバメソウゴウホウリツジムショ,0
26,1010103002684,新規,0,2025-10-21,2025-10-21,合同会社Ｕｎｉｓｙ,,合同会社,東京都,八王子市,子安町１丁目４８番６号２０３号,,13,201,1920904,,,,,,,2025-10-21,1,,,,,ユニジー,0
40,1010401193770,新規,0,2025-10-21,2025-10-21,株式会社とうがらし,,株式会社,東京都,港区,芝浦４丁目１９番１－２２２０号,,13,103,1080023,,,,,,,2025-10-21,1,,,,,トウガラシ,0
41,1010401193812,新規,0,2025-10-21,2025-10-21,ＪＳＡＮ　Ｔｅｃｈｎｏｌｏｇｉｅｓ株式会社,,株式会社,東京都,港区,港南２丁目１６番１号品川イーストワンタワー４階,,13,103,1080075,,,,,,,2025-10-21,1,,,,,ジェーサンテクノロジーズ,0
42,1010401193845,新規,0,2025-10-21,2025-10-21,株式会社Ｆｏｒｕｍ　Ｗｉｔｈ,,株式会社,東京都,港区,浜松町１丁目１２番１４号４Ｆ,,13,103,1050013,,,,,,,2025-10-21,1,,,,,フォーラムウィズ,0
57,1010901058309,新規,0,2025-10-21,2025-10-21,株式会社フォワード,,株式会社,東京都,世田谷区,成城６丁目１６－５カサ・ローザ成城１Ｆ,,13,112,1570066,,,,,,,2025-10-21,1,,,,,フォワード,0
63,1011001172388,新規,0,2025-10-21,2025-10-21,株式会社Ｆｒｕｉｔ　Ｄｏｎｕｔｓ,,株式会社,東京都,渋谷区,宇田川町３番１４－５０３号ザ・パークハウスアーバンス渋谷,,13,113,1500042,,,,,,,2025-10-21,1,,,,,フルーツドーナツ,0
64,1011001173312,新規,0,2025-10-21,2025-10-21,株式会社セドラム,,株式会社,東京都,渋谷区,道玄坂１丁目１０番８号渋谷道玄坂東急ビル２Ｆ－Ｃ,,13,113,1500043,,,,,,,2025-10-21,1,,,,,セドラム,0
65,1011003022632,新規,0,2025-10-21,2025-10-21,べんけい合同会社,,合同会社,東京都,渋谷区,渋谷４丁目３番２７号青山コーポラス６０６号室,,13,113,1500002,,,,,,,2025-10-21,1,,,,,ベンケイ,0
70,1011101113572,新規,0,2025-10-21,2025-10-21,ＬａｕＷｏｒｋｓ株式会社,,株式会社,東京都,新宿区,新宿３丁目４番８号京王フレンテ新宿三丁目４階,,13,104,1600022,,,,,,,2025-10-21,1,,,,,,0
75,1011103016492,新規,0,2025-10-21,2025-10-21,ウリン物産合同会社,,合同会社,東京都,新宿区,西新宿７丁目１６－１第３歯朶ビル３階,,13,104,1600023,,,,,,,2025-10-21,1,,,,,ウリンブッサン,0
76,1011103016526,新規,0,2025-10-21,2025-10-21,合同会社ピュアレジャー６,,合同会社,東京都,新宿区,四谷２丁目９番地１５東京ユナイテッド綜合事務所内,,13,104,1600004,,,,,,,2025-10-21,1,,,,,ピュアレジャーシックス,0
83,1011501032711,新規,0,2025-10-21,2025-10-21,株式会社Ｊｏｓａｎｏ,,株式会社,東京都,荒川区,西日暮里１丁目３６番７号,,13,118,1160013,,,,,,,2025-10-21,1,,,,,ジョサノ,0
84,1011501032728,新規,0,2025-10-21,2025-10-21,株式会社未来承継支援機構,,株式会社,東京都,北区,田端新町２丁目２４－１－１２０２,,13,117,1140012,,,,,,,2025-10-21,1,,,,,ミライショウケイシエンキコウ,0
85,1011503006746,新規,0,2025-10-21,2025-10-21,合同会社ｃａｌｍ‐ｓｐａｃｅ,,合同会社,東京都,荒川区,東尾久８丁目３１番６－２０３号,,13,118,1160012,,,,,,,2025-10-21,1,,,,,カームスペース,0
98,1013301055165,新規,0,2025-10-21,2025-10-21,株式会社咲楽,,株式会社,東京都,豊島区,要町１丁目４６番９号,,13,116,1710043,,,,,,,2025-10-21,1,,,,,サクラ,0
99,1013301055173,新規,0,2025-10-21,2025-10-21,Ｍｙａｔ　Ｙａｎ　Ｎａｉｎｇ株式会社,,株式会社,東京都,豊島区,北大塚２丁目２９番５－７０４号,,13,116,1700004,,,,,,,2025-10-21,1,,,,,ミャヤンナイン,0
105,1020001165095,新規,0,2025-10-21,2025-10-21,ＡＳＳＯ　ＤＩ　ＣＯＰＰＥ株式会社,,株式会社,神奈川県,横浜市西区,北幸１丁目１番地８号エキニア横浜５０３,,14,103,2200004,,,,,,,2025-10-21,1,,,,,アッソディコッペ,0
106,1020001165228,新規,0,2025-10-21,2025-10-21,株式会社はれわたり,,株式会社,神奈川県,横浜市鶴見区,上の宮１丁目９番３５号２Ｆ,,14,101,2300075,,,,,,,2025-10-21,1,,,,,ハレワタリ,0
107,1020001165401,新規,0,2025-10-21,2025-10-21,株式会社東京ｒｅｐａｉｒ　Ｐｒｏ,,株式会社,神奈川県,川崎市中原区,新城中町１２番１０号,,14,133,2110043,,,,,,,2025-10-21,1,,,,,トウキョウリペアプロ,0
108,1020001165434,新規,0,2025-10-21,2025-10-21,株式会社Ｋ・Ｋ,,株式会社,神奈川県,横浜市西区,北幸１丁目１１番１号水信ビル７階,,14,103,2200004,,,,,,,2025-10-21,1,,,,,ケーケー,0
109,1020001165442,新規,0,2025-10-21,2025-10-21,株式会社ビットツリー,,株式会社,神奈川県,横浜市鶴見区,生麦５丁目１４番２３号鶴美荘２０３,,14,101,2300052,,,,,,,2025-10-21,1,,,,,ビットツリー,0
122,1030001169087,新規,0,2025-10-21,2025-10-21,株式会社ＡＬＦＡ,,株式会社,埼玉県,所沢市,大字上安松７４０番地の１－１０１,,11,208,3590025,,,,,,,2025-10-21,1,,,,,アルファ,0
123,1030001169285,新規,0,2025-10-21,2025-10-21,株式会社Ｌｕｍｉａｒａ,,株式会社,埼玉県,蕨市,北町４丁目２番１４号ソレアード蕨４０３号,,11,223,3350001,,,,,,,2025-10-21,1,,,,,ルミアラ,0
125,1030003027904,新規,0,2025-10-21,2025-10-21,合同会社ＺＡＢＢＹ,,合同会社,埼玉県,本庄市,見福１丁目１５番１１号末広マンション３０１,,11,211,3670044,,,,,,,2025-10-21,1,,,,,ザビー,0
126,1030003027920,新規,0,2025-10-21,2025-10-21,合同会社ツクダベース,,合同会社,埼玉県,川口市,青木３丁目１４番９号,,11,203,3320031,,,,,,,2025-10-21,1,,,,,ツクダベース,0
127,1030005022300,新規,0,2025-10-21,2025-10-21,医療法人彩杜会,,その他の設立登記法人,埼玉県,川越市,脇田本町８番地１　Ｕ＿ＰＬＡＣＥＭＥＤＩＣＩＴＹ６－１１区画,,11,201,3501123,,,,,,,2025-10-21,1,,,,,サイトカイ,0
128,1030005022309,新規,0,2025-10-21,2025-10-21,一般社団法人地方創生産業観光サポート協会,,その他の設立登記法人,埼玉県,川越市,大字下小坂６０１番地１６,,11,201,3500812,,,,,,,2025-10-21,1,,,,,チホウソウセイサンギョウカンコウサポートキョウカイ,0
130,1040001140930,新規,0,2025-10-21,2025-10-21,株式会社ぼたん,,株式会社,千葉県,習志野市,東習志野８丁目９番１－２号,,12,216,2750001,,,,,,,2025-10-21,1,,,,,ボタン,0
131,1040001140955,新規,0,2025-10-21,2025-10-21,株式会社結,,株式会社,千葉県,市川市,新井１丁目２２番３号,,12,203,2720144,,,,,,,2025-10-21,1,,,,,ムスビ,0
132,1040001140963,新規,0,2025-10-21,2025-10-21,株式会社ＫＯＳＥＫＥＩ,,株式会社,千葉県,袖ケ浦市,下泉９８１番地３,,12,229,2990231,,,,,,,2025-10-21,1,,,,,コセケイ,0
137,1040003028810,新規,0,2025-10-21,2025-10-21,合同会社Ｒｈｙｔｈｍ　Ｌｉｎｋ,,合同会社,千葉県,柏市,篠籠田１４００番地７－３０２,,12,217,2770862,,,,,,,2025-10-21,1,,,,,リズムリンク,0
139,1050001057439,新規,0,2025-10-21,2025-10-21,株式会社わたなべ,,株式会社,茨城県,守谷市,御所ケ丘３丁目９番地６,,08,224,3020119,,,,,,,2025-10-21,1,,,,,ワタナベ,0
141,1050003009677,新規,0,2025-10-21,2025-10-21,ＦＡＥ　Ｊａｐａｎ合同会社,,合同会社,茨城県,かすみがうら市,上稲吉１８２９,,08,230,3150056,,,,,,,2025-10-21,1,,,,,エフエイイージャパン,0
150,1080103003453,新規,0,2025-10-21,2025-10-21,ＡＱＵＡＬＩＳ合同会社,,合同会社,静岡県,富士市,中央町１丁目９番１‐２５号,,22,210,4170052,,,,,,,2025-10-21,1,,,,,アクアリス,0
172,1120001280883,新規,0,2025-10-21,2025-10-21,株式会社志映,,株式会社,大阪府,大阪市中央区,安堂寺町２丁目６番１５－３０４号,,27,128,5420061,,,,,,,2025-10-21,1,,,,,ジヨン,0
173,1120001280891,新規,0,2025-10-21,2025-10-21,株式会社ポイ・ペイ,,株式会社,大阪府,大阪市北区,梅田１丁目１１番４号大阪駅前第４ビル８Ｆ,,27,127,5300001,,,,,,,2025-10-21,1,,,,,ポイペイ,0
174,1120001281080,新規,0,2025-10-21,2025-10-21,嘉里株式会社,,株式会社,大阪府,大阪市城東区,野江３丁目２５－６－３０２号,,27,118,5360006,,,,,,,2025-10-21,1,,,,,カリ,0
175,1120001281188,新規,0,2025-10-21,2025-10-21,旭一株式会社,,株式会社,大阪府,大阪市阿倍野区,松虫通１丁目８番２０号,,27,119,5450043,,,,,,,2025-10-21,1,,,,,アサヒイチ,0
176,1120001281254,新規,0,2025-10-21,2025-10-21,株式会社関西エコポート,,株式会社,大阪府,大阪市住之江区,新北島１丁目４番１５号,,27,125,5590024,,,,,,,2025-10-21,1,,,,,カンサイエコポート,0
177,1120001281304,新規,0,2025-10-21,2025-10-21,株式会社リゾートメンバーシップ,,株式会社,大阪府,大阪市東住吉区,南田辺１丁目５番１－４０３号,,27,121,5460033,,,,,,,2025-10-21,1,,,,,リゾートメンバーシップ,0
178,1120001281320,新規,0,2025-10-21,2025-10-21,八鍵コンサルティング株式会社,,株式会社,大阪府,大阪市中央区,難波２丁目３番１１号難波八千代ビル,,27,128,5420076,,,,,,,2025-10-21,1,,,,,ハッケンコンサルティング,0
179,1120001281353,新規,0,2025-10-21,2025-10-21,株式会社Ｗｉｚａｒｄ,,株式会社,大阪府,大阪市淀川区,西中島４丁目１０番２１号新大阪田村ビル５Ｆ,,27,123,5320011,,,,,,,2025-10-21,1,,,,,ウィザード,0
183,1120003031021,新規,0,2025-10-21,2025-10-21,Ｍｏｖｅ　ｆｏｒｗａｒｄ合同会社,,合同会社,大阪府,大阪市都島区,都島北通２丁目１番２３号,,27,102,5340014,,,,,,,2025-10-21,1,,,,,ムーブフォワード,0
187,1120101072652,新規,0,2025-10-21,2025-10-21,株式会社Ｃｉｒｌｉｃｔｉｏｎ,,株式会社,大阪府,堺市中区,八田北町１０２８番地１エルデノース２０１号,,27,142,5998262,,,,,,,2025-10-21,1,,,,,サーリクション,0
188,1120101072660,新規,0,2025-10-21,2025-10-21,和光株式会社,,株式会社,大阪府,堺市北区,東浅香山町３丁１４５番地１０－１８－５０３号,,27,146,5918008,,,,,,,2025-10-21,1,,,,,ワコウ,0
189,1120101072669,新規,0,2025-10-21,2025-10-21,エス・ツール株式会社,,株式会社,大阪府,堺市中区,大野芝町９６－１－３０１,,27,142,5998233,,,,,,,2025-10-21,1,,,,,エスツール,0
190,1120103006798,新規,0,2025-10-21,2025-10-21,合同会社ＯＮＥＬＩＴ,,合同会社,大阪府,松原市,天美東１丁目９６－３,,27,217,5800032,,,,,,,2025-10-21,1,,,,,ワンリット,0
192,1120903005917,新規,0,2025-10-21,2025-10-21,合同会社スターライト,,合同会社,大阪府,豊中市,東豊中町６丁目３番１０号,,27,203,5600003,,,,,,,2025-10-21,1,,,,,スターライト,0
196,1130001080754,新規,0,2025-10-21,2025-10-21,佐藤株式会社,,株式会社,京都府,京都市中京区,上本能寺前町４７６番地,,26,104,6040925,,,,,,,2025-10-21,1,,,,,サトウ,0
197,1130001080837,新規,0,2025-10-21,2025-10-21,株式会社つぐみメディカル,,株式会社,京都府,京都市中京区,西ノ京北聖町１０番地５,,26,104,6048382,,,,,,,2025-10-21,1,,,,,ツグミメディカル,0
198,1130001080861,新規,0,2025-10-21,2025-10-21,株式会社グランディール堀川,,株式会社,京都府,京都市下京区,仏光寺通油小路西入喜吉町１５４番地,,26,106,6008476,,,,,,,2025-10-21,1,,,,,グランディール,0
199,1130003010866,新規,0,2025-10-21,2025-10-21,合同会社７３３,,合同会社,京都府,京都市東山区,今熊野剣宮町７番地３３,,26,105,6050972,,,,,,,2025-10-21,1,,,,,ナナサンサン,0
207,1150001028495,新規,0,2025-10-21,2025-10-21,株式会社コネクトカンパニー,,株式会社,奈良県,五條市,五條４丁目２番１１号,,29,207,6370042,,,,,,,2025-10-21,1,,,,,コネクトカンパニー,0
210,1180001169089,新規,0,2025-10-21,2025-10-21,株式会社ＧＲＡＶＩＴＹ　ＪＡＰＡＮ,,株式会社,愛知県,名古屋市守山区,天子田２丁目８１３番地の３,,23,113,4630037,,,,,,,2025-10-21,1,,,,,グラビティジャパン,0
211,1180001169196,新規,0,2025-10-21,2025-10-21,あいち防災パートナー株式会社,,株式会社,愛知県,名古屋市中区,栄５丁目２５番２５号,,23,106,4600008,,,,,,,2025-10-21,1,,,,,アイチボウサイパートナー,0
212,1180001169213,新規,0,2025-10-21,2025-10-21,株式会社ＲｅｄＮｅｘｕｓ,,株式会社,愛知県,名古屋市港区,秋葉３丁目３０番地２,,23,111,4550857,,,,,,,2025-10-21,1,,,,,レッドネクサス,0
221,1180003029266,新規,0,2025-10-21,2025-10-21,ＹＫＬＩＮＫ合同会社,,合同会社,愛知県,名古屋市中区,丸の内３丁目１５番１３号丸の内エンブルコート１２０５,,23,106,4600002,,,,,,,2025-10-21,1,,,,,ワイケーリンク,0
226,1190003005225,新規,0,2025-10-21,2025-10-21,合同会社ジャパンエナジー,,合同会社,三重県,松阪市,久保町１４３６番地６,,24,204,5150044,,,,,,,2025-10-21,1,,,,,ジャパンエナジー,0
227,1190003005233,新規,0,2025-10-21,2025-10-21,合同会社ゆみなが,,合同会社,三重県,伊勢市,通町字東新田４０５番地,,24,203,5160012,,,,,,,2025-10-21,1,,,,,ユミナガ,0
230,1200003007112,新規,0,2025-10-21,2025-10-21,足立バレル研磨所合同会社,,合同会社,岐阜県,関市,小瀬１７７４番地１５,,21,205,5013265,,,,,,,2025-10-21,1,,,,,アダチバレルケンマジョ,0
231,1210001020363,新規,0,2025-10-21,2025-10-21,株式会社乾元,,株式会社,福井県,福井市,上江尻町第３号２０２番地,,18,201,9188174,,,,,,,2025-10-21,1,,,,,ケンゲン,0
234,1220001026987,新規,0,2025-10-21,2025-10-21,株式会社ＴＯＰ　ＧＥＡＲ,,株式会社,石川県,野々市市,徳用２丁目１８９番地,,17,212,9218842,,,,,,,2025-10-21,1,,,,,トップギア,0
243,1270001009310,新規,0,2025-10-21,2025-10-21,株式会社なわた,,株式会社,鳥取県,米子市,上後藤７丁目６番１６号,,31,202,6830841,,,,,,,2025-10-21,1,,,,,ナワタ,0
244,1270003001802,新規,0,2025-10-21,2025-10-21,Ｏｒｅｏ　Ｎｏｉｒｅ合同会社,,合同会社,鳥取県,米子市,米原５丁目１－３アーバンビュー米原５０３号,,31,202,6830804,,,,,,,2025-10-21,1,,,,,オレオノエル,0
253,1290001111808,新規,0,2025-10-21,2025-10-21,株式会社ＬＦ,,株式会社,福岡県,糸島市,神在西３丁目１６－２５,,40,230,8191148,,,,,,,2025-10-21,1,,,,,エルエフ,0
258,1290005019849,新規,0,2025-10-21,2025-10-21,特定非営利活動法人ゴウタムブッダインターナショナルスクールジャパン,,その他の設立登記法人,福岡県,筑紫野市,二日市北２丁目１番２６号,,40,217,8180056,,,,,,,2025-10-21,1,,,,,,0
260,1310003005113,新規,0,2025-10-21,2025-10-21,ダンシングセリカ合同会社,,合同会社,長崎県,長崎市,赤迫１丁目６番３－４０３号,,42,201,8528156,,,,,,,2025-10-21,1,,,,,ダンシングセリカ,0
265,1330001033683,新規,0,2025-10-21,2025-10-21,株式会社ＢＥＮＥＲＡ,,株式会社,熊本県,熊本市北区,楠野町４９４番地２０,,43,105,8615511,,,,,,,2025-10-21,1,,,,,ベネラ,0
269,1340003004987,新規,0,2025-10-21,2025-10-21,ブルクン合同会社,,合同会社,鹿児島県,鹿児島市,堀江町５‐１‐１２１０,,46,201,8920824,,,,,,,2025-10-21,1,,,,,ブルクン,0
271,1360001035933,新規,0,2025-10-21,2025-10-21,株式会社ホームナース,,株式会社,沖縄県,那覇市,字国場３３５番地３,,47,201,9020075,,,,,,,2025-10-21,1,,,,,ホームナース,0
274,1360003015347,新規,0,2025-10-21,2025-10-21,合同会社ｄｏｕｃｅｍｅｎｔ,,合同会社,沖縄県,那覇市,寄宮２丁目２４番１２号アールズ寄宮ＩＩ２０１,00141187,47,201,9020064,,,,,,,2025-10-21,1,,,,,ドゥースマン,0
278,1370003007343,新規,0,2025-10-21,2025-10-21,合同会社菊地企画,,合同会社,宮城県,登米市,迫町佐沼字八幡２丁目７番地１８,,04,212,9870511,,,,,,,2025-10-21,1,,,,,キクチキカク,0
287,1380003006170,新規,0,2025-10-21,2025-10-21,あいづ武藤創業合同会社,,合同会社,福島県,会津若松市,一箕町大字亀賀字郷之原２３８番地の５５,,07,202,9650005,,,,,,,2025-10-21,1,,,,,アイヅムトウソウギョウ,0
300,1430003018219,新規,0,2025-10-21,2025-10-21,ＫＡＳＡ合同会社,,合同会社,北海道,磯谷郡蘭越町,字湯里１５６番地５９,,01,394,0481321,,,,,,,2025-10-21,1,,,,,カサ,0
301,1430003018251,新規,0,2025-10-21,2025-10-21,Ｋｌｍｉｌｋ．合同会社,,合同会社,北海道,札幌市中央区,宮の森一条５丁目１番１２－２０５号,,01,101,0640951,,,,,,,2025-10-21,1,,,,,クルミルク,0
303,1450001014762,新規,0,2025-10-21,2025-10-21,浦項株式会社,,株式会社,北海道,空知郡中富良野町,字中富良野東６線北八号,,01,461,0710776,,,,,,,2025-10-21,1,,,,,プーシャン,0
309,1700150132612,新規,0,2025-10-21,2025-10-21,自治会法人　松葉町自治会,,その他,神奈川県,相模原市中央区,陽光台２丁目２ー２１,,14,152,2520226,,,,,,,2025-10-21,1,,,,,ジチカイホウジンマツバチョウジチカイ,0
323,2010003049073,新規,0,2025-10-21,2025-10-21,ＵＡＭ９９合同会社,,合同会社,東京都,中央区,日本橋室町１丁目１１番１２号日本橋水野ビル７階,,13,102,1030022,,,,,,,2025-10-21,1,,,,,ユーエーエムキュウキュウ,0
324,2010003049081,新規,0,2025-10-21,2025-10-21,合同会社ＬＩＧＨＴＵＰキャリア,,合同会社,東京都,中央区,日本橋２丁目１６番４号ｒｅｍｉｘ日本橋６階,,13,102,1030027,,,,,,,2025-10-21,1,,,,,ライトアップキャリア,0
325,2010003049107,新規,0,2025-10-21,2025-10-21,ダントー・アルプス系統用蓄電所Ｂ合同会社,,合同会社,東京都,中央区,銀座１丁目８番１６号３階,,13,102,1040061,,,,,,,2025-10-21,1,,,,,ダントーアルプスケイトウヨウチクデンショビー,0
328,2010005040773,新規,0,2025-10-21,2025-10-21,一般社団法人ＲＨＥＰ難民教育推進協会,,その他の設立登記法人,東京都,千代田区,麹町５丁目３番地麹町秋山ビル７Ｆ,,13,101,1020083,,,,,,,2025-10-21,1,,,,,アールエイチイーピーナンミンキョウイクスイシンキョウカイ,0
329,2010005040781,新規,0,2025-10-21,2025-10-21,一般社団法人日本ブラインドテイスティング協会,,その他の設立登記法人,東京都,千代田区,平河町１丁目１番８号,,13,101,1020093,,,,,,,2025-10-21,1,,,,,ニホンブラインドテイスティングキョウカイ,0
330,2010005040798,新規,0,2025-10-21,2025-10-21,ＣＣＦ３号特定目的会社,,その他の設立登記法人,東京都,中央区,京橋２丁目１２番６号ＡＯＪ税理士法人内,,13,102,1040031,,,,,,,2025-10-21,1,,,,,シーシーエフサンゴウ,0
342,2010401193745,新規,0,2025-10-21,2025-10-21,株式会社ぼん,,株式会社,東京都,港区,南麻布２丁目９－８－１０１,,13,103,1060047,,,,,,,2025-10-21,1,,,,,ボン,0
343,2010401193786,新規,0,2025-10-21,2025-10-21,株式会社ＡＲＳＯＭ,,株式会社,東京都,港区,三田１丁目３番４０号,,13,103,1080073,,,,,,,2025-10-21,1,,,,,アルソム,0
344,2010401193836,新規,0,2025-10-21,2025-10-21,株式会社シーデンス,,株式会社,東京都,港区,北青山１丁目３番１号アールキューブ青山３階,,13,103,1070061,,,,,,,2025-10-21,1,,,,,シーデンス,0
345,2010401193844,新規,0,2025-10-21,2025-10-21,Ｊｅｍｗｉｎ　Ｈｕｂ株式会社,,株式会社,東京都,港区,赤坂１丁目３番５号赤坂アビタシオンビル３０７号室,,13,103,1070052,,,,,,,2025-10-21,1,,,,,ジェムウィンハブ,0
347,2010403036340,新規,0,2025-10-21,2025-10-21,Ｉｒｉｄｉｕｍ２合同会社,,合同会社,東京都,港区,六本木１丁目９番１０号アークヒルズ仙石山森タワー４０階,,13,103,1060032,,,,,,,2025-10-21,1,,,,,イリジウムツー,0
349,2010501054913,新規,0,2025-10-21,2025-10-21,株式会社アドベント,,株式会社,東京都,台東区,寿２丁目８番１４号第二近藤ビル３階,,13,106,1110042,,,,,,,2025-10-21,1,,,,,アドベント,0
351,2010601068152,新規,0,2025-10-21,2025-10-21,株式会社ディズ,,株式会社,東京都,墨田区,錦糸２丁目４番１０号,,13,107,1300013,,,,,,,2025-10-21,1,,,,,ディズ,0
357,2010903010340,新規,0,2025-10-21,2025-10-21,ナウアップ合同会社,,合同会社,東京都,世田谷区,経堂１丁目１２番２０－４０４号,,13,112,1560052,,,,,,,2025-10-21,1,,,,,ナウアップ,0
365,2011001172973,新規,0,2025-10-21,2025-10-21,ＭａｄｉｓｏｎＨＲ株式会社,,株式会社,東京都,渋谷区,神南１丁目１１－４ＦＰＧリンクス神南５階,,13,113,1500041,,,,,,,2025-10-21,1,,,,,マディソンエイチアール,0
377,2011101113571,新規,0,2025-10-21,2025-10-21,株式会社グランディール,,株式会社,東京都,新宿区,西新宿３丁目３番１３号西新宿水間ビル６階,,13,104,1600023,,,,,,,2025-10-21,1,,,,,,0
378,2011101113712,新規,0,2025-10-21,2025-10-21,ＡＩブランシュ株式会社,,株式会社,東京都,新宿区,西新宿３丁目３番１３号西新宿水間ビル２Ｆ,,13,104,1600023,,,,,,,2025-10-21,1,,,,,エーアイブランシュ,0
381,2011103016517,新規,0,2025-10-21,2025-10-21,ｍａｒｉ合同会社,,合同会社,東京都,新宿区,西早稲田３丁目１－３,,13,104,1690051,,,,,,,2025-10-21,1,,,,,マリ,0
382,2011103016525,新規,0,2025-10-21,2025-10-21,合同会社ピュアレジャー５,,合同会社,東京都,新宿区,四谷２丁目９番地１５東京ユナイテッド綜合事務所内,,13,104,1600004,,,,,,,2025-10-21,1,,,,,ピュアレジャーファイブ,0
384,2011301030988,新規,0,2025-10-21,2025-10-21,株式会社ＴＳＨ,,株式会社,東京都,杉並区,荻窪５丁目３０番１２号グローリア荻窪７１３,,13,115,1670051,,,,,,,2025-10-21,1,,,,,ティーエスエイチ,0
387,2011501032727,新規,0,2025-10-21,2025-10-21,株式会社ｏｎｔｉｓｍ,,株式会社,東京都,北区,志茂５丁目１０番２号,,13,117,1150042,,,,,,,2025-10-21,1,,,,,オンティズム,0
388,2011503006745,新規,0,2025-10-21,2025-10-21,Ｌｉｇｎｉｓ合同会社,,合同会社,東京都,荒川区,南千住６丁目４３番３－１１０２号,,13,118,1160003,,,,,,,2025-10-21,1,,,,,リグニス,0
400,2012401043731,新規,0,2025-10-21,2025-10-21,ａｎｄ　Ｂｕｄｄｙ株式会社,,株式会社,東京都,府中市,宮西町２丁目８‐２,,13,206,1830022,,,,,,,2025-10-21,1,,,,,アンドバディ,0
415,2020001165136,新規,0,2025-10-21,2025-10-21,アクト株式会社,,株式会社,神奈川県,横浜市中区,尾上町２丁目１８番地１ＹＳビル８０１,,14,104,2310015,,,,,,,2025-10-21,1,,,,,アクト,0
417,2020003029586,新規,0,2025-10-21,2025-10-21,ウインダム合同会社,,合同会社,神奈川県,横浜市港北区,綱島西５丁目２１－８－２０２,,14,109,2230053,,,,,,,2025-10-21,1,,,,,ウインダム,0
420,2021001086628,新規,0,2025-10-21,2025-10-21,えのき株式会社,,株式会社,神奈川県,横須賀市,池田町１丁目２８番１３号,,14,201,2390806,,,,,,,2025-10-21,1,,,,,エノキ,0
424,2021003016681,新規,0,2025-10-21,2025-10-21,ＫＭＣ法務戦略研究所合同会社,,合同会社,神奈川県,藤沢市,鵠沼神明２丁目５番２号,,14,205,2510021,,,,,,,2025-10-21,1,,,,,,0
430,2030001169284,新規,0,2025-10-21,2025-10-21,Ｇｌａｓｓｙ株式会社,,株式会社,埼玉県,川口市,元郷５丁目７番１８号,,11,203,3320011,,,,,,,2025-10-21,1,,,,,グラッシー,0
433,2030003027903,新規,0,2025-10-21,2025-10-21,Ｂ＆Ｇ合同会社,,合同会社,埼玉県,川口市,西川口３丁目３２番１９号２階,,11,203,3320021,,,,,,,2025-10-21,1,,,,,ビーアンドジー,0
443,2050001057462,新規,0,2025-10-21,2025-10-21,株式会社秀,,株式会社,茨城県,土浦市,高岡２３８６番地１１メモリーヒル２１－１０２号室,,08,203,3004117,,,,,,,2025-10-21,1,,,,,シュウ,0
448,2060003005815,新規,0,2025-10-21,2025-10-21,ＲＩＣＨ合同会社,,合同会社,栃木県,宇都宮市,塙田５丁目２番５１号グリーンハイツ７０３,,09,201,3200027,,,,,,,2025-10-21,1,,,,,リッチ,0
455,2070001043469,新規,0,2025-10-21,2025-10-21,株式会社ＮＡＫＡＩＣＨＩ,,株式会社,群馬県,前橋市,上泉町３４５３番地１,,10,201,3710007,,,,,,,2025-10-21,1,,,,,ナカイチ,0
458,2080003003585,新規,0,2025-10-21,2025-10-21,合同会社ｔｅｎ,,合同会社,静岡県,静岡市葵区,吉野町４‐７,,22,101,4200046,,,,,,,2025-10-21,1,,,,,テン,0
463,2080401028226,新規,0,2025-10-21,2025-10-21,株式会社シフォン,,株式会社,静岡県,浜松市中央区,板屋町１００番地の１６パピービル３階,,22,138,4300928,,,,,,,2025-10-21,1,,,,,シフォン,0
467,2090001019566,新規,0,2025-10-21,2025-10-21,株式会社Ｃａｖａｌｅｉｒｏ,,株式会社,山梨県,甲斐市,西八幡６８９番地２,,19,210,4000117,,,,,,,2025-10-21,1,,,,,カヴァレイロ,0
469,2100001039059,新規,0,2025-10-21,2025-10-21,ＦＩＲＩＯ株式会社,,株式会社,長野県,長野市,大字鶴賀上千歳町１１６７番地４,,20,201,3800821,,,,,,,2025-10-21,1,,,,,フィリオ,0
482,2120001280651,新規,0,2025-10-21,2025-10-21,ＴＭ工業株式会社,,株式会社,大阪府,大阪市東成区,中本２丁目４番６号,,27,115,5370022,,,,,,,2025-10-21,1,,,,,ティーエムコウギョウ,0
483,2120001280924,新規,0,2025-10-21,2025-10-21,ＭＩＹＩＮＵＯ株式会社,,株式会社,大阪府,大阪市西成区,萩之茶屋２丁目６番４号ニューかめや１００号室,,27,122,5570004,,,,,,,2025-10-21,1,,,,,ミイヌオ,0
484,2120001280998,新規,0,2025-10-21,2025-10-21,百益株式会社,,株式会社,大阪府,大阪市淀川区,木川西４丁目２番１６号朝日プラザ梅田北デラ・リブジェ５０２号室,,27,123,5320013,,,,,,,2025-10-21,1,,,,,ヒャクエキ,0
485,2120001281055,新規,0,2025-10-21,2025-10-21,花生文化株式会社,,株式会社,大阪府,大阪市阿倍野区,西田辺町２丁目２－２３エクラ阿倍野４Ｂ,,27,119,5450014,,,,,,,2025-10-21,1,,,,,カセイブンカ,0
486,2120001281071,新規,0,2025-10-21,2025-10-21,株式会社アロマハーベスト,,株式会社,大阪府,大阪市天王寺区,真法院町１４番３号クラージュ真法院７０１号,,27,109,5430041,,,,,,,2025-10-21,1,,,,,アロマハーベスト,0
487,2120001281187,新規,0,2025-10-21,2025-10-21,株式会社デジタルコミュニケーション,,株式会社,大阪府,大阪市西淀川区,出来島２丁目９－７,,27,113,5550031,,,,,,,2025-10-21,1,,,,,デジタルコミュニケーション,0
488,2120001281204,新規,0,2025-10-21,2025-10-21,株式会社カノープス,,株式会社,大阪府,大阪市淀川区,西中島２丁目６番３４号リヴィエール淀４０２,,27,123,5320011,,,,,,,2025-10-21,1,,,,,カノープス,0
492,2120003031020,新規,0,2025-10-21,2025-10-21,合同会社Ｍ’ｚ　ｗｏｒｋｓ,,合同会社,大阪府,大阪市淀川区,新高１丁目１０番１３－１３０３号,,27,123,5320033,,,,,,,2025-10-21,1,,,,,エムズワークス,0
493,2120003031053,新規,0,2025-10-21,2025-10-21,合同会社Ｍａｘ　Ｔｒａｄｅ,,合同会社,大阪府,大阪市中央区,瓦屋町１丁目１４番１２－９０３号,,27,128,5420066,,,,,,,2025-10-21,1,,,,,マックストレード,0
495,2120101072684,新規,0,2025-10-21,2025-10-21,相信日本株式会社,,株式会社,大阪府,堺市北区,新堀町１丁３９番地５（７１３号）,,27,146,5918005,,,,,,,2025-10-21,1,,,,,ソウシンニホン,0
496,2120103006797,新規,0,2025-10-21,2025-10-21,合同会社天ノ樹,,合同会社,大阪府,松原市,西野々１丁目８番２３号,,27,217,5800004,,,,,,,2025-10-21,1,,,,,アマノギ,0
513,2140003022728,新規,0,2025-10-21,2025-10-21,ＴＯＫＵＹＵＫＩＮＡ合同会社,,合同会社,兵庫県,尼崎市,南塚口町７丁目３０番３号,,28,202,6610012,,,,,,,2025-10-21,1,,,,,トクユキナ,0
514,2140003022769,新規,0,2025-10-21,2025-10-21,Ｐ＆Ｐ合同会社,,合同会社,兵庫県,神戸市中央区,磯辺通１丁目１番１８号カサベラ国際プラザビル７０７号室,,28,110,6510084,,,,,,,2025-10-21,1,,,,,ピーアンドピー,0
517,2150001028461,新規,0,2025-10-21,2025-10-21,株式会社ＩＲＯＨＡ,,株式会社,奈良県,天理市,二階堂上ノ庄町３－１,,29,204,6320081,,,,,,,2025-10-21,1,,,,,イロハ,0
518,2150001028494,新規,0,2025-10-21,2025-10-21,株式会社きよの杜農園,,株式会社,奈良県,生駒市,高山町１２３３１番地,,29,209,6300101,,,,,,,2025-10-21,1,,,,,キヨノモリノウエン,0
528,2180001169229,新規,0,2025-10-21,2025-10-21,株式会社ｇｅｔｐｏｐ,,株式会社,愛知県,名古屋市中村区,上米野町４丁目２０番地,,23,105,4530809,,,,,,,2025-10-21,1,,,,,ゲットポップ,0
532,2180003029199,新規,0,2025-10-21,2025-10-21,合同会社Ｍ４Ｊａｐａｎ,,合同会社,愛知県,海部郡飛島村,元起３丁目１０９番地日光アパート西棟２０１号,,23,427,4901437,,,,,,,2025-10-21,1,,,,,エムフォジャパン,0
533,2180003029224,新規,0,2025-10-21,2025-10-21,合同会社Ｍ‐Ｓｔｙｌｅ,,合同会社,愛知県,名古屋市東区,東大曽根町２８－１７グランドハイツ琥珀６Ｂ,,23,102,4610022,,,,,,,2025-10-21,1,,,,,エムスタイル,0
534,2180003029265,新規,0,2025-10-21,2025-10-21,ＹＫ合同会社,,合同会社,愛知県,名古屋市中区,丸の内２丁目６番２７号ＢＰＲレジデンス丸の内２０２号,,23,106,4600002,,,,,,,2025-10-21,1,,,,,ワイケー,0
535,2180301040337,新規,0,2025-10-21,2025-10-21,株式会社ＡＵＲＡ　Ｉｎｔｅｒｎａｔｉｏｎａｌ,,株式会社,愛知県,岡崎市,錦町３番地１１,,23,202,4440067,,,,,,,2025-10-21,1,,,,,,0
538,2200003007111,新規,0,2025-10-21,2025-10-21,マニランド合同会社,,合同会社,岐阜県,郡上市,大和町剣７３番地３,,21,219,5014612,,,,,,,2025-10-21,1,,,,,マニランド,0
539,2210001020362,新規,0,2025-10-21,2025-10-21,株式会社ハイダウェイ,,株式会社,福井県,敦賀市,松葉町３番９－２号,,18,202,9140807,,,,,,,2025-10-21,1,,,,,ハイダウェイ,0
547,2240001065677,新規,0,2025-10-21,2025-10-21,株式会社リアンプロジェクト,,株式会社,広島県,広島市安芸区,船越１丁目６番１５号,,34,107,7360081,,,,,,,2025-10-21,1,,,,,リアンプロジェクト,0
548,2250001021398,新規,0,2025-10-21,2025-10-21,アグリエ株式会社,,株式会社,山口県,山口市,大内氷上２丁目６番１８号,,35,203,7530231,,,,,,,2025-10-21,1,,,,,アグリエ,0
550,2280001009531,新規,0,2025-10-21,2025-10-21,株式会社ＪＡＨ,,株式会社,島根県,出雲市,高松町６９６番地１,,32,203,6930053,,,,,,,2025-10-21,1,,,,,ジェイエーエイチ,0
555,2290001111765,新規,0,2025-10-21,2025-10-21,株式会社Ｂｌｕｅ　Ａｎｃｈｏｒ　Ｓｔｒａｔｅｇｙ,,株式会社,福岡県,柳川市,三橋町高畑３２９番地,,40,207,8320826,,,,,,,2025-10-21,1,,,,,ブルーアンカーストラテジー,0
556,2290001111781,新規,0,2025-10-21,2025-10-21,株式会社Ｋ‐ＵＮＩ．,,株式会社,福岡県,嘉穂郡桂川町,大字土師２４０３－１,,40,421,8200607,,,,,,,2025-10-21,1,,,,,ケーユニ,0
557,2290001111831,新規,0,2025-10-21,2025-10-21,株式会社ＧＵＰＰＹ,,株式会社,福岡県,福岡市中央区,天神４丁目６番２８号いちご天神ノースビル７Ｆ,,40,133,8100001,,,,,,,2025-10-21,1,,,,,グッピー,0
558,2290001111914,新規,0,2025-10-21,2025-10-21,株式会社たんぽぽ不動産,,株式会社,福岡県,福岡市中央区,大名２丁目１２番１５号８Ｆ,,40,133,8100041,,,,,,,2025-10-21,1,,,,,タンポポフドウサン,0
567,2330001033674,新規,0,2025-10-21,2025-10-21,ベストパートナーズ株式会社,,株式会社,熊本県,菊池郡大津町,大字引水９４５番地２趨勢ビル,,43,403,8691234,,,,,,,2025-10-21,1,,,,,ベストパートナーズ,0
573,2360003015346,新規,0,2025-10-21,2025-10-21,合同会社アーキデータ,,合同会社,沖縄県,那覇市,田原３丁目２番地１小禄市営住宅１－６０６,,47,201,9010156,,,,,,,2025-10-21,1,,,,,アーキデータ,0
574,2370001053165,新規,0,2025-10-21,2025-10-21,株式会社Ｍ’ｓ,,株式会社,宮城県,仙台市青葉区,大町２丁目８番１号,,04,101,9800804,,,,,,,2025-10-21,1,,,,,エムズ,0
577,2370003007342,新規,0,2025-10-21,2025-10-21,合同会社ＫＭ企画,,合同会社,宮城県,登米市,東和町米谷字天神前１２８番地,,04,212,9870902,,,,,,,2025-10-21,1,,,,,ケイエムキカク,0
585,2390001018133,新規,0,2025-10-21,2025-10-21,株式会社Ｄａａｄ　Ｔｒａｄｉｎｇ,,株式会社,山形県,東田川郡庄内町,廻館字下川前１２３番地４,,06,428,9997715,,,,,,,2025-10-21,1,,,,,,0
597,2430001095465,新規,0,2025-10-21,2025-10-21,株式会社ＦｉｖｅＳｔｅｐ,,株式会社,北海道,札幌市東区,北二十三条東６丁目３－２４ハイツ２３２０２号室,,01,103,0650023,,,,,,,2025-10-21,1,,,,,ファイブステップ,0
598,2430001095498,新規,0,2025-10-21,2025-10-21,株式会社レコルト,,株式会社,北海道,千歳市,釜加５００番地の１,,01,224,0660002,,,,,,,2025-10-21,1,,,,,レコルト,0
599,2430001095507,新規,0,2025-10-21,2025-10-21,天啓株式会社,,株式会社,北海道,札幌市豊平区,豊平六条２丁目１－７ＡＲＩＭＡビル２Ｆ,,01,105,0620906,,,,,,,2025-10-21,1,,,,,テンケイ,0
606,2470001020948,新規,0,2025-10-21,2025-10-21,株式会社ハピクル,,株式会社,香川県,高松市,多肥上町６１番地１,,37,201,7618076,,,,,,,2025-10-21,1,,,,,ハピクル,0
609,2500005008820,新規,0,2025-10-21,2025-10-21,一般社団法人ＥＨＩＭＥｎｏＭＩＫＡＴＡ,,その他の設立登記法人,愛媛県,松山市,姫原１丁目１番２０－１号,,38,201,7918012,,,,,,,2025-10-21,1,,,,,エヒメノミカタ,0
610,2700150132611,新規,0,2025-10-21,2025-10-21,パールコート桑園中央弐番館管理組合,,その他,北海道,札幌市中央区,北七条西１６丁目１番５４号,,01,101,0600007,,,,,,,2025-10-21,1,,,,,パールコートソウエンチュウオウニバンカンカンリクミアイ,0
622,3010001259433,新規,0,2025-10-21,2025-10-21,株式会社Ｍ＆Ａ　ＨＵＢ,,株式会社,東京都,中央区,日本橋２丁目１番３号アーバンネット日本橋二丁目ビル１０階,,13,102,1030027,,,,,,,2025-10-21,1,,,,,エムアンドエーハブ,0
623,3010001259532,新規,0,2025-10-21,2025-10-21,株式会社ＯＢＡＮＡヘルスケアコンサルティング,,株式会社,東京都,文京区,小石川１丁目１０番５－１５１２号,,13,105,1120002,,,,,,,2025-10-21,1,,,,,オバナヘルスケアコンサルティング,0
624,3010001259565,新規,0,2025-10-21,2025-10-21,盛世神州日本株式会社,,株式会社,東京都,千代田区,麹町３丁目１０番１２号５０４号室,,13,101,1020083,,,,,,,2025-10-21,1,,,,,セイセイシンシュウニホン,0
625,3010001259573,新規,0,2025-10-21,2025-10-21,株式会社ＪＬＳグループ,,株式会社,東京都,中央区,日本橋浜町３丁目４５番７号,,13,102,1030007,,,,,,,2025-10-21,1,,,,,ジェイエルエスグループ,0
627,3010003049089,新規,0,2025-10-21,2025-10-21,Ｗａｍｃｏ　Ｊａｐａｎ合同会社,,合同会社,東京都,千代田区,丸の内３丁目２番２号丸の内二重橋ビル２階,,13,101,1000005,,,,,,,2025-10-21,1,,,,,ワムコジャパン,0
628,3010003049106,新規,0,2025-10-21,2025-10-21,ダントー・アルプス系統用蓄電所Ａ合同会社,,合同会社,東京都,中央区,銀座１丁目８番１６号３階,,13,102,1040061,,,,,,,2025-10-21,1,,,,,ダントーアルプスケイトウヨウチクデンショエー,0
631,3010005040797,新規,0,2025-10-21,2025-10-21,一般社団法人Ｇｒｅｅｎ　Ｇａｒｄｅｎ,,その他の設立登記法人,東京都,中央区,京橋２丁目１２番６号ＡＯＪ税理士法人内,,13,102,1040031,,,,,,,2025-10-21,1,,,,,グリーンガーデン,0
634,3010401193810,新規,0,2025-10-21,2025-10-21,ＦＯＲＴＵＮＥホールディングス株式会社,,株式会社,東京都,港区,元赤坂１丁目１番７－１２０９号株式会社赤坂国際会計内,,13,103,1070051,,,,,,,2025-10-21,1,,,,,フォーチュンホールディングス,0
635,3010401193835,新規,0,2025-10-21,2025-10-21,株式会社ＳＡＫＡＳＡＩ,,株式会社,東京都,港区,赤坂９丁目７番２号ミッドタウン・イースト４階,,13,103,1070052,,,,,,,2025-10-21,1,,,,,サカサイ,0
636,3010401193843,新規,0,2025-10-21,2025-10-21,令和アーキテクツ株式会社,,株式会社,東京都,港区,六本木２丁目４番９号１０Ｆ,,13,103,1060032,,,,,,,2025-10-21,1,,,,,レイワアーキテクツ,0
637,3010401193851,新規,0,2025-10-21,2025-10-21,ＶＥＸＡ株式会社,,株式会社,東京都,港区,北青山１丁目３番３号三橋ビル３階,,13,103,1070061,,,,,,,2025-10-21,1,,,,,ヴェクサ,0
645,3010405024796,新規,0,2025-10-21,2025-10-21,一般社団法人ｋｉｎｇｄｏｍ,,その他の設立登記法人,東京都,港区,麻布台１丁目２番１－４５０５号,,13,103,1060041,,,,,,,2025-10-21,1,,,,,キングダム,0
646,3010405024805,新規,0,2025-10-21,2025-10-21,一般社団法人ＴＳＭ　ＳＨＤ７,,その他の設立登記法人,東京都,港区,元赤坂１丁目１番７号,,13,103,1070051,,,,,,,2025-10-21,1,,,,,ティーエスエムエスエイチディーナナ,0
647,3010405024904,新規,0,2025-10-21,2025-10-21,Ｉｒｉｄｉｕｍ一般社団法人,,その他の設立登記法人,東京都,港区,六本木１丁目９番１０号アークヒルズ仙石山森タワー４０階,,13,103,1060032,,,,,,,2025-10-21,1,,,,,イリジウム,0
648,3010501054912,新規,0,2025-10-21,2025-10-21,ＢＢ＆ＩＮＣ　ＷＥＬＬＮＥＳＳ株式会社,,株式会社,東京都,台東区,浅草５丁目４７番１０号,,13,106,1110032,,,,,,,2025-10-21,1,,,,,ビービーアンドインクウェルネス,0
661,3010903010356,新規,0,2025-10-21,2025-10-21,合同会社川田,,合同会社,東京都,世田谷区,桜新町１丁目１４―１０,,13,112,1540015,,,,,,,2025-10-21,1,,,,,センデン,0
666,3011001172535,新規,0,2025-10-21,2025-10-21,株式会社ウチアゲ,,株式会社,東京都,目黒区,八雲２丁目９番６－６０３号ファミール八雲,,13,110,1520023,,,,,,,2025-10-21,1,,,,,ウチアゲ,0
667,3011001172741,新規,0,2025-10-21,2025-10-21,ＡＩＳＴＥＲＩＡ株式会社,,株式会社,東京都,渋谷区,広尾１丁目２番地１号ヒカリビル４階,,13,113,1500012,,,,,,,2025-10-21,1,,,,,アイステリア,0
668,3011001173277,新規,0,2025-10-21,2025-10-21,株式会社チルＨＲ,,株式会社,東京都,渋谷区,道玄坂１丁目１０番８号渋谷道玄坂東急ビル２Ｆ－Ｃ,,13,113,1500043,,,,,,,2025-10-21,1,,,,,チルエイチアール,0
669,3011001173293,新規,0,2025-10-21,2025-10-21,株式会社ピンポイント,,株式会社,東京都,渋谷区,千駄ヶ谷３丁目４０番１０号,,13,113,1510051,,,,,,,2025-10-21,1,,,,,ピンポイント,0
670,3011001173327,新規,0,2025-10-21,2025-10-21,株式会社アルティサポート,,株式会社,東京都,渋谷区,本町１丁目１５番１号トーシンフェニックス初台１１０１,,13,113,1510071,,,,,,,2025-10-21,1,,,,,アルティサポート,0
671,3011003022804,新規,0,2025-10-21,2025-10-21,ａｄａｎ合同会社,,合同会社,東京都,目黒区,碑文谷５丁目１５－１－３０３,,13,110,1520003,,,,,,,2025-10-21,1,,,,,エイダン,0
678,3011101113570,新規,0,2025-10-21,2025-10-21,ノマズライフ株式会社,,株式会社,東京都,新宿区,北新宿４丁目１－４カテリーナエンナ３Ｆ,,13,104,1690074,,,,,,,2025-10-21,1,,,,,ノマズライフ,0
679,3011101113587,新規,0,2025-10-21,2025-10-21,株式会社アイティーダッシュ,,株式会社,東京都,新宿区,西新宿６丁目５番１号新宿アイランドタワー２階,,13,104,1600023,,,,,,,2025-10-21,1,,,,,アイティーダッシュ,0
682,3011103016516,新規,0,2025-10-21,2025-10-21,Ｒｅａｌ　Ｅｓｔａｔｅ　Ｂｅｉｇｅ合同会社,,合同会社,東京都,新宿区,新宿３丁目１２番４号新宿Ｎタウンプラザ３０９号,,13,104,1600022,,,,,,,2025-10-21,1,,,,,リアルエステートベージュ,0
683,3011103016524,新規,0,2025-10-21,2025-10-21,合同会社ピュアレジャー４,,合同会社,東京都,新宿区,四谷２丁目９番地１５東京ユナイテッド綜合事務所内,,13,104,1600004,,,,,,,2025-10-21,1,,,,,ピュアレジャーフォー,0
684,3011103016532,新規,0,2025-10-21,2025-10-21,合同会社ピュアレジャー１２,,合同会社,東京都,新宿区,四谷２丁目９番地１５東京ユナイテッド綜合事務所内,,13,104,1600004,,,,,,,2025-10-21,1,,,,,ピュアレジャートゥエルブ,0
687,3011201026739,新規,0,2025-10-21,2025-10-21,株式会社オーエスケー,,株式会社,東京都,中野区,南台３丁目１５番５号,,13,114,1640014,,,,,,,2025-10-21,1,,,,,オーエスケー,0
693,3011501032668,新規,0,2025-10-21,2025-10-21,伊澤メディカル株式会社,,株式会社,東京都,荒川区,南千住５丁目４４番１０－１００２号,,13,118,1160003,,,,,,,2025-10-21,1,,,,,イザワメディカル,0
697,3011703004432,新規,0,2025-10-21,2025-10-21,合同会社エムテック,,合同会社,東京都,江戸川区,南小岩６丁目２１番９号,,13,123,1330056,,,,,,,2025-10-21,1,,,,,エムテック,0
699,3011801046954,新規,0,2025-10-21,2025-10-21,株式会社ネクストストーリー,,株式会社,東京都,葛飾区,東新小岩１丁目７番８号,,13,122,1240023,,,,,,,2025-10-21,1,,,,,ネクストストーリー,0
707,3013301055171,新規,0,2025-10-21,2025-10-21,株式会社Ｋ８６４,,株式会社,東京都,豊島区,西池袋１丁目４番１０号,,13,116,1710021,,,,,,,2025-10-21,1,,,,,ケーハチロクヨン,0
711,3020001165374,新規,0,2025-10-21,2025-10-21,株式会社ＥｔｅＬｕｎａ,,株式会社,神奈川県,横浜市西区,浅間町１丁目４番３号ウィザードビル４０２,,14,103,2200072,,,,,,,2025-10-21,1,,,,,エテルナ,0
712,3020001165424,新規,0,2025-10-21,2025-10-21,株式会社ナノサプリ,,株式会社,神奈川県,川崎市中原区,下沼部１８９２番地,,14,133,2110011,,,,,,,2025-10-21,1,,,,,ナノサプリ,0
721,3020003029610,新規,0,2025-10-21,2025-10-21,合同会社ＯｎｅＯｆｆ,,合同会社,神奈川県,川崎市高津区,諏訪１丁目１８－１０エムシュトラーセ３０５,,14,134,2130004,,,,,,,2025-10-21,1,,,,,ワンオフ,0
722,3020003029651,新規,0,2025-10-21,2025-10-21,合同会社Ｂｅｙｏｎｄ　Ｊａｐａｎ,,合同会社,神奈川県,横浜市都筑区,北山田１丁目１０－５－３Ｆ－０５室,,14,118,2240021,,,,,,,2025-10-21,1,,,,,ビヨンドジャパン,0
724,3021001086602,新規,0,2025-10-21,2025-10-21,株式会社ＵＮＤＥＲＢＥＬＴ,,株式会社,神奈川県,藤沢市,辻堂新町３丁目７番２３号ヴィラルミナスＢ,,14,205,2510042,,,,,,,2025-10-21,1,,,,,アンダーベルト,0
725,3021001086619,新規,0,2025-10-21,2025-10-21,株式会社Ａｎｕｅｎｕｅ,,株式会社,神奈川県,藤沢市,本町２丁目３番９号山田ビル２階,,14,205,2510053,,,,,,,2025-10-21,1,,,,,アヌエヌエ,0
726,3021001086627,新規,0,2025-10-21,2025-10-21,株式会社ＫＯＹＯ　ＧＲＯＵＰ,,株式会社,神奈川県,厚木市,旭町１丁目１番１号,,14,212,2430014,,,,,,,2025-10-21,1,,,,,コウヨウグループ,0
728,3021003016730,新規,0,2025-10-21,2025-10-21,合同会社ＭＩＲＡＩＴＯ,,合同会社,神奈川県,小田原市,鴨宮２２４番地の４,,14,206,2500874,,,,,,,2025-10-21,1,,,,,ミライト,0
729,3021005013445,新規,0,2025-10-21,2025-10-21,ＮＰＯ法人日本・ベトナム・インターンシップ,,その他の設立登記法人,神奈川県,鎌倉市,腰越３丁目３２番１８号,,14,204,2480033,,,,,,,2025-10-21,1,,,,,ニホンベトナムインターンシップ,0
740,3040001140664,新規,0,2025-10-21,2025-10-21,ＴＲＵＳＴＷＯＲＫＳ株式会社,,株式会社,千葉県,山武市,大木４７０番地１,,12,237,2891211,,,,,,,2025-10-21,1,,,,,トラストワークス,0
741,3040001141051,新規,0,2025-10-21,2025-10-21,株式会社甚三郎,,株式会社,千葉県,南房総市,千倉町大川２６２番地,,12,234,2950026,,,,,,,2025-10-21,1,,,,,ジンザブロウ,0
747,3050001057478,新規,0,2025-10-21,2025-10-21,株式会社ＧＲＡＮＤ　ＪＡＰＡＮ,,株式会社,茨城県,水戸市,若宮２丁目７番１８号シャルマン若宮Ｓ２０３号,,08,201,3100013,,,,,,,2025-10-21,1,,,,,グランドジャパン,0
756,3080101025860,新規,0,2025-10-21,2025-10-21,Ｇｅｎｔ株式会社,,株式会社,静岡県,三島市,梅名１０６番地の１,,22,206,4110816,,,,,,,2025-10-21,1,,,,,ジェント,0
757,3080103003451,新規,0,2025-10-21,2025-10-21,合同会社ＬＶＪ,,合同会社,静岡県,熱海市,網代６２７‐５７５,,22,205,4130103,,,,,,,2025-10-21,1,,,,,エルブイジェイ,0
765,3080403005370,新規,0,2025-10-21,2025-10-21,合同会社野のまち創作所,,合同会社,静岡県,浜松市中央区,布橋２丁目６番１０号（１－２号室）,,22,138,4328012,,,,,,,2025-10-21,1,,,,,ノノマチソウサクジョ,0
769,3110001039651,新規,0,2025-10-21,2025-10-21,真砂屋株式会社,,株式会社,新潟県,魚沼市,小出島４９４番地,,15,225,9460011,,,,,,,2025-10-21,1,,,,,マサゴヤ,0
781,3120001281079,新規,0,2025-10-21,2025-10-21,明道商業株式会社,,株式会社,大阪府,大阪市生野区,林寺２丁目１８－２０－４０２号室,,27,116,5440023,,,,,,,2025-10-21,1,,,,,ミョウドウショウギョウ,0
782,3120001281145,新規,0,2025-10-21,2025-10-21,株式会社明安,,株式会社,大阪府,大阪市西成区,橘３丁目１８番３９号,,27,122,5570051,,,,,,,2025-10-21,1,,,,,メイアン,0
783,3120001281211,新規,0,2025-10-21,2025-10-21,Ｚｌｏ株式会社,,株式会社,大阪府,大阪市大正区,小林西２丁目１５番３－２０７号,,27,108,5510013,,,,,,,2025-10-21,1,,,,,ゼットエルオー,0
789,3120003031036,新規,0,2025-10-21,2025-10-21,合同会社ジンドウカン,,合同会社,大阪府,枚方市,藤阪西町２番１－５０２号,,27,210,5730158,,,,,,,2025-10-21,1,,,,,ジンドウカン,0
790,3120103006796,新規,0,2025-10-21,2025-10-21,合同会社Ｃａｔ　Ｉｓｌａｎｄ,,合同会社,大阪府,富田林市,喜志町５丁目４番１２号（２０１）,,27,214,5840005,,,,,,,2025-10-21,1,,,,,キャットアイランド,0
795,3130005017486,新規,0,2025-10-21,2025-10-21,医療法人健歯会村井歯科医院,,その他の設立登記法人,京都府,京都市下京区,四条通室町東入函谷鉾町８３番地田源ビル３階,,26,106,6008009,,,,,,,2025-10-21,1,,,,,ケンシカイムライシカイイン,0
807,3150001028460,新規,0,2025-10-21,2025-10-21,株式会社ハイ・カーン工業,,株式会社,奈良県,大和高田市,大字松塚３１２番地,,29,202,6350001,,,,,,,2025-10-21,1,,,,,ハイカーンコウギョウ,0
808,3150001028493,新規,0,2025-10-21,2025-10-21,株式会社ＫＯＭＵＫＩＮＡ,,株式会社,奈良県,大和高田市,礒野東町１－１コンチネンタルビル３Ｆ,,29,202,6350061,,,,,,,2025-10-21,1,,,,,コムキナ,0
809,3150003003726,新規,0,2025-10-21,2025-10-21,合同会社ヨノス,,合同会社,奈良県,奈良市,三碓１丁目６－２０－１０１,,29,201,6310061,,,,,,,2025-10-21,1,,,,,ヨノス,0
817,3180001169054,新規,0,2025-10-21,2025-10-21,株式会社ＧＲＡＮＤＩＲ,,株式会社,愛知県,名古屋市熱田区,大宝３丁目１０番１７号ニューコーポ日比野８０６号,,23,109,4560062,,,,,,,2025-10-21,1,,,,,グランディール,0
818,3180001169087,新規,0,2025-10-21,2025-10-21,株式会社Ｄｏｒｔ’Ｈｏｎｅｙ,,株式会社,愛知県,名古屋市瑞穂区,柳ケ枝町３丁目５０番地,,23,108,4670825,,,,,,,2025-10-21,1,,,,,ドルトハニー,0
819,3180001169203,新規,0,2025-10-21,2025-10-21,株式会社Ｔｈａｎｋ,,株式会社,愛知県,尾張旭市,長坂町南山２８４５番地１２０,,23,226,4880821,,,,,,,2025-10-21,1,,,,,サンク,0
820,3180003029256,新規,0,2025-10-21,2025-10-21,合同会社ＴＳＫ,,合同会社,愛知県,清須市,鍋片２丁目７０番地６,,23,233,4520907,,,,,,,2025-10-21,1,,,,,ティーエスケー,0
821,3180301040336,新規,0,2025-10-21,2025-10-21,株式会社山和,,株式会社,愛知県,岡崎市,城北町１２番地３６,,23,202,4440064,,,,,,,2025-10-21,1,,,,,サンワ,0
825,3200003007110,新規,0,2025-10-21,2025-10-21,エコワークス山海合同会社,,合同会社,岐阜県,多治見市,笠原町１１８８番地の６,,21,204,5070901,,,,,,,2025-10-21,1,,,,,エコワークスサンカイ,0
826,3210001020361,新規,0,2025-10-21,2025-10-21,株式会社福井アリーナ,,株式会社,福井県,福井市,西木田２丁目８番１号,,18,201,9188004,,,,,,,2025-10-21,1,,,,,フクイアリーナ,0
833,3240001065676,新規,0,2025-10-21,2025-10-21,株式会社Ｏｆｆｉｃｅ　Ｙ．Ｍ．Ｒ．,,株式会社,広島県,福山市,松永町５丁目１３番２２－１２０３号,,34,207,7290104,,,,,,,2025-10-21,1,,,,,オフィスワイエムアール,0
848,3290001111764,新規,0,2025-10-21,2025-10-21,アパセイル株式会社,,株式会社,福岡県,福岡市博多区,博多駅東１丁目９番２９－２０１号ローズモント・フレアー博多駅東,,40,132,8120013,,,,,,,2025-10-21,1,,,,,アパセイル,0
849,3290001111970,新規,0,2025-10-21,2025-10-21,たまりばガレージ株式会社,,株式会社,福岡県,福岡市東区,和白丘１丁目１４番５号,,40,131,8110213,,,,,,,2025-10-21,1,,,,,タマリバガレージ,0
851,3290003017555,新規,0,2025-10-21,2025-10-21,合同会社ビズフード,,合同会社,福岡県,福岡市早良区,曙１丁目１１番１２号,00141184,40,137,8140004,,,,,,,2025-10-21,1,,,,,ビズフード,0
855,3290005019863,新規,0,2025-10-21,2025-10-21,一般社団法人プラタナス,,その他の設立登記法人,福岡県,福岡市西区,姪の浜４丁目２２番３０号２階,,40,135,8190002,,,,,,,2025-10-21,1,,,,,プラタナス,0
861,3300003002365,新規,0,2025-10-21,2025-10-21,合同会社助緑,,合同会社,佐賀県,神埼郡吉野ヶ里町,田手１５６８番,,41,327,8420035,,,,,,,2025-10-21,1,,,,,スケロク,0
868,3330003011272,新規,0,2025-10-21,2025-10-21,合同会社博翔工業,,合同会社,熊本県,熊本市中央区,渡鹿６丁目１番８７号,,43,101,8620970,,,,,,,2025-10-21,1,,,,,ハクトコウギョウ,0
872,3360001035931,新規,0,2025-10-21,2025-10-21,ＴＭＯ沖縄株式会社,,株式会社,沖縄県,那覇市,樋川１丁目１２番３３号,00141179,47,201,9000022,,,,,,,2025-10-21,1,,,,,ティーエムオーオキナワ,0
875,3360003015345,新規,0,2025-10-21,2025-10-21,合同会社つなぐリユース,,合同会社,沖縄県,那覇市,首里石嶺町４丁目１６１番地３トーマスマンション石嶺３０３,,47,201,9030804,,,,,,,2025-10-21,1,,,,,ツナグリユース,0
876,3370003007341,新規,0,2025-10-21,2025-10-21,合同会社ＫＡＺＵ　ＦＡＣＴＯＲＹ,,合同会社,宮城県,仙台市青葉区,下愛子字町２０番地の１コーポ信濃４０３,,04,101,9893125,,,,,,,2025-10-21,1,,,,,カズファクトリー,0
880,3380001035657,新規,0,2025-10-21,2025-10-21,株式会社藤Ｅｘｐｏｒｔ,,株式会社,福島県,本宮市,本宮字立石２２５番地１,,07,214,9691115,,,,,,,2025-10-21,1,,,,,フジエクスポート,0
883,3380003006169,新規,0,2025-10-21,2025-10-21,Ｒ・デザイン合同会社,,合同会社,福島県,郡山市,桜木２丁目２８番３号,,07,203,9638021,,,,,,,2025-10-21,1,,,,,アールデザイン,0
897,3430001095497,新規,0,2025-10-21,2025-10-21,株式会社ＡＬＩＫＥ　ＢＬＯＯＭ,,株式会社,北海道,札幌市西区,琴似四条１丁目１番１号,,01,107,0630814,,,,,,,2025-10-21,1,,,,,アライクブルーム,0
898,3430001095506,新規,0,2025-10-21,2025-10-21,株式会社ＪＯＥＮ,,株式会社,北海道,札幌市豊平区,月寒東三条１９丁目１３番３７号,,01,105,0620053,,,,,,,2025-10-21,1,,,,,ジョウエン,0
908,3490003002058,新規,0,2025-10-21,2025-10-21,合同会社島本笑店,,合同会社,高知県,幡多郡黒潮町,入野５４６番地２,,39,428,7891931,,,,,,,2025-10-21,1,,,,,シマモトショウテン,0
910,3700150132610,新規,0,2025-10-21,2025-10-21,宇城市土地改良区,,その他,熊本県,宇城市,不知火町高良２２７３番地１,,43,213,8690552,,,,,,,2025-10-21,1,,,,,ウキシトチカイリョウク,0
918,4010001259531,新規,0,2025-10-21,2025-10-21,Ａネクストワークス株式会社,,株式会社,東京都,千代田区,岩本町２丁目９番９号,,13,101,1010032,,,,,,,2025-10-21,1,,,,,エイネクストワークス,0
919,4010001259556,新規,0,2025-10-21,2025-10-21,東京洋生株式会社,,株式会社,東京都,文京区,本駒込６丁目５番２５号,,13,105,1130021,,,,,,,2025-10-21,1,,,,,トウキョウヒロオ,0
920,4010001259572,新規,0,2025-10-21,2025-10-21,株式会社銀座通商,,株式会社,東京都,中央区,銀座１丁目２２番１１号,,13,102,1040061,,,,,,,2025-10-21,1,,,,,ギンザツウショウ,0
925,4010003048981,新規,0,2025-10-21,2025-10-21,Ｓｆｉｄａ　Ｈｅａｌｔｈｃａｒｅ合同会社,,合同会社,東京都,中央区,八重洲２丁目１－１ＹａｎｍａｒＴｏｋｙｏ１２Ｆ,,13,102,1040028,,,,,,,2025-10-21,1,,,,,スフィーダヘルスケア,0
926,4010003049088,新規,0,2025-10-21,2025-10-21,Ａｚｅｌｉｏｎ合同会社,,合同会社,東京都,中央区,勝どき６丁目３－２ＴＨＥＴＯＫＹＯＴＯＷＥＲＳＭＩＤＴＯＷＥＲ５０１６,,13,102,1040054,,,,,,,2025-10-21,1,,,,,アゼリオン,0
927,4010003049105,新規,0,2025-10-21,2025-10-21,ＯＬＩ　Ｊａｐａｎ合同会社,,合同会社,東京都,中央区,銀座１丁目１６番７号銀座大栄ビル５階,,13,102,1040061,,,,,,,2025-10-21,1,,,,,オーエルアイジャパン,0
928,4010003049121,新規,0,2025-10-21,2025-10-21,マスターリース合同会社,,合同会社,東京都,千代田区,丸の内１丁目４番１号東京共同会計事務所内,,13,101,1000005,,,,,,,2025-10-21,1,,,,,マスターリース,0
929,4010005040796,新規,0,2025-10-21,2025-10-21,一般社団法人賃住アセットマネジメント４,,その他の設立登記法人,東京都,中央区,京橋２丁目１２番６号ＡＯＪ税理士法人内,,13,102,1040031,,,,,,,2025-10-21,1,,,,,チンジュウアセットマネジメントフォー,0
937,4010401193842,新規,0,2025-10-21,2025-10-21,Ｓｏｌｉｓｃａ　Ｊａｐａｎ株式会社,,株式会社,東京都,港区,新橋４丁目３１番３号第三名和ビル,,13,103,1050004,,,,,,,2025-10-21,1,,,,,ソリスカジャパン,0
947,4010403036339,新規,0,2025-10-21,2025-10-21,Ｉｒｉｄｉｕｍ１合同会社,,合同会社,東京都,港区,六本木１丁目９番１０号アークヒルズ仙石山森タワー４０階,,13,103,1060032,,,,,,,2025-10-21,1,,,,,イリジウムワン,0
950,4010405024886,新規,0,2025-10-21,2025-10-21,ＵＩＢ　Ｋｏｎａｎ２特定目的会社,,その他の設立登記法人,東京都,港区,虎ノ門３丁目２２番１０－２０１号,,13,103,1050001,,,,,,,2025-10-21,1,,,,,ユーアイビーコナンツー,0
959,4010901058297,新規,0,2025-10-21,2025-10-21,株式会社アトリーベ,,株式会社,東京都,世田谷区,北沢２丁目１１番１５号ミカン下北Ａ街区４階,,13,112,1550031,,,,,,,2025-10-21,1,,,,,アトリーベ,0
966,4011001172732,新規,0,2025-10-21,2025-10-21,ＧＲＯＢＩＡ　ＮＥＸＴ株式会社,,株式会社,東京都,渋谷区,神南１丁目１１－４ＦＰＧリンクス神南５階,,13,113,1500041,,,,,,,2025-10-21,1,,,,,グロビアネクスト,0
967,4011001173284,新規,0,2025-10-21,2025-10-21,株式会社ＭｙＳｐａｃｅ　Ｃｏｎｓｕｌｔｉｎｇ,,株式会社,東京都,渋谷区,円山町２－２１日昭マンション５０１,,13,113,1500044,,,,,,,2025-10-21,1,,,,,マイスペースコンサルティング,0
969,4011003022654,新規,0,2025-10-21,2025-10-21,ＮＹＣ合同会社,,合同会社,東京都,渋谷区,西原２丁目４９番３５号,,13,113,1510066,,,,,,,2025-10-21,1,,,,,エヌワイシー,0
971,4011101113537,新規,0,2025-10-21,2025-10-21,株式会社Ｂ‐ＡＩＭ,,株式会社,東京都,新宿区,新宿２丁目１２番１３号新宿アントレサロンビル２階,,13,104,1600022,,,,,,,2025-10-21,1,,,,,ビーエイム,0
972,4011101113586,新規,0,2025-10-21,2025-10-21,株式会社ＬＣフロンティア,,株式会社,東京都,新宿区,西新宿３丁目３番１３号,,13,104,1600023,,,,,,,2025-10-21,1,,,,,エルシーフロンティア,0
974,4011103016523,新規,0,2025-10-21,2025-10-21,合同会社ピュアレジャー３,,合同会社,東京都,新宿区,四谷２丁目９番地１５東京ユナイテッド綜合事務所内,,13,104,1600004,,,,,,,2025-10-21,1,,,,,ピュアレジャースリー,0
975,4011103016531,新規,0,2025-10-21,2025-10-21,合同会社ピュアレジャー１１,,合同会社,東京都,新宿区,四谷２丁目９番地１５東京ユナイテッド綜合事務所内,,13,104,1600004,,,,,,,2025-10-21,1,,,,,ピュアレジャーイレブン,0
977,4011201026738,新規,0,2025-10-21,2025-10-21,いやさか不動産株式会社,,株式会社,東京都,中野区,東中野３丁目８番２号,,13,114,1640003,,,,,,,2025-10-21,1,,,,,イヤサカフドウサン,0
979,4011203004857,新規,0,2025-10-21,2025-10-21,合同会社ｍａｋｕｗａ,,合同会社,東京都,中野区,弥生町２丁目３８番５号ピュアハウス１Ｆ,,13,114,1640013,,,,,,,2025-10-21,1,,,,,マクワ,0
985,4011501032717,新規,0,2025-10-21,2025-10-21,スパーティスコンサルティング株式会社,,株式会社,東京都,北区,岩淵町３８－２５－１５０３,,13,117,1150041,,,,,,,2025-10-21,1,,,,,スパーティスコンサルティング,0
986,4011501032733,新規,0,2025-10-21,2025-10-21,株式会社和楽康,,株式会社,東京都,荒川区,東日暮里３丁目３５番１１号,,13,118,1160014,,,,,,,2025-10-21,1,,,,,ワガクコウ,0
987,4011501032741,新規,0,2025-10-21,2025-10-21,忘れ雪株式会社,,株式会社,東京都,北区,豊島２丁目１０番６号創益企画ビル４０７号室,,13,117,1140003,,,,,,,2025-10-21,1,,,,,ワスレユキ,0
992,4011701028878,新規,0,2025-10-21,2025-10-21,株式会社ＬＩＣＨＴ,,株式会社,東京都,江戸川区,北葛西２丁目２８番４号,,13,123,1340081,,,,,,,2025-10-21,1,,,,,リヒト,0
994,4011801046945,新規,0,2025-10-21,2025-10-21,株式会社上野観賞魚,,株式会社,東京都,足立区,綾瀬２丁目２０番１２－６０２号,,13,121,1200005,,,,,,,2025-10-21,1,,,,,ウエノカンショウギョ,0
1002,4013301055170,新規,0,2025-10-21,2025-10-21,株式会社リライト,,株式会社,東京都,豊島区,東池袋２丁目６２番８号５０２Ａ,,13,116,1700013,,,,,,,2025-10-21,1,,,,,リライト,0
1011,4020001165423,新規,0,2025-10-21,2025-10-21,株式会社Ｂａｍｂｉｎｏ　Ｂｏｏｍ　Ｂｏｒｎ,,株式会社,神奈川県,横浜市緑区,中山４丁目１８番２７号,,14,113,2260019,,,,,,,2025-10-21,1,,,,,バンビーノブーンボーン,0
1012,4020001165464,新規,0,2025-10-21,2025-10-21,Ａｎｏｔｈｅｒ　Ｓｐａｃｅ株式会社,,株式会社,神奈川県,川崎市中原区,小杉町１丁目５４０番地７マーベラスマンション１０２,,14,133,2110063,,,,,,,2025-10-21,1,,,,,アナザースペース,0
1016,4020003029650,新規,0,2025-10-21,2025-10-21,合同会社一吉,,合同会社,神奈川県,川崎市川崎区,渡田向町２４番１３号,,14,131,2100841,,,,,,,2025-10-21,1,,,,,イチヨシ,0
1019,4021001086618,新規,0,2025-10-21,2025-10-21,株式会社ＮＩＮＥ　Ｓｅａｓ,,株式会社,神奈川県,相模原市中央区,富士見６丁目３番３－９１１号,,14,152,2520236,,,,,,,2025-10-21,1,,,,,ナインシーズ,0
1024,4030003027892,新規,0,2025-10-21,2025-10-21,合同会社桃月,,合同会社,埼玉県,北葛飾郡松伏町,大字大川戸１５１６－１,,11,465,3430106,,,,,,,2025-10-21,1,,,,,モモツキ,0
1025,4030003027918,新規,0,2025-10-21,2025-10-21,合同会社Ｇｒｏｗｔｈ　Ａｓｓｅｔ,,合同会社,埼玉県,志木市,柏町２丁目２９番地４８,,11,228,3530007,,,,,,,2025-10-21,1,,,,,グロウスアセット,0
1031,4040001140886,新規,0,2025-10-21,2025-10-21,科那国際株式会社,,株式会社,千葉県,千葉市緑区,あすみが丘９丁目１１番地６,,12,105,2670066,,,,,,,2025-10-21,1,,,,,,0
1032,4040003028766,新規,0,2025-10-21,2025-10-21,合同会社柊エステート,,合同会社,千葉県,船橋市,飯山満町２丁目４７９番地４６,,12,204,2740822,,,,,,,2025-10-21,1,,,,,ヒイラギエステート,0
1033,4040003028816,新規,0,2025-10-21,2025-10-21,合同会社ＳＡＨＡＳ,,合同会社,千葉県,市原市,辰巳台東４丁目２０番地２５,,12,219,2900003,,,,,,,2025-10-21,1,,,,,サーハス,0
1048,4110001039659,新規,0,2025-10-21,2025-10-21,Ｇｒｅｂｏ株式会社,,株式会社,新潟県,新潟市西区,坂井６３０番地１８,,15,107,9502042,,,,,,,2025-10-21,1,,,,,グリボ,0
1049,4110005017280,新規,0,2025-10-21,2025-10-21,一般社団法人ステラ胎内,,その他の設立登記法人,新潟県,胎内市,中条２５３４番地１６,,15,227,9592629,,,,,,,2025-10-21,1,,,,,ステラタイナイ,0
1061,4120001280971,新規,0,2025-10-21,2025-10-21,ユニチカエステル株式会社,,株式会社,大阪府,大阪市中央区,久太郎町４丁目１番３号,,27,128,5410056,,,,,,,2025-10-21,1,,,,,ユニチカエステル,0
1062,4120001281045,新規,0,2025-10-21,2025-10-21,株式会社大神ＳＥＣＵＲＩＴＹ,,株式会社,大阪府,大阪市浪速区,元町３丁目１０番８号グランビア元町３０１号,,27,111,5560016,,,,,,,2025-10-21,1,,,,,ダイシンセキュリティー,0
1063,4120001281185,新規,0,2025-10-21,2025-10-21,株式会社ＰＴＰ,,株式会社,大阪府,大阪市中央区,日本橋１丁目２２番２０号黒門レジデンス１０２,,27,128,5420073,,,,,,,2025-10-21,1,,,,,ピーティーピー,0
1064,4120001281202,新規,0,2025-10-21,2025-10-21,株式会社スタートホールディングス,,株式会社,大阪府,大阪市平野区,平野東２丁目１番２２号,,27,126,5470043,,,,,,,2025-10-21,1,,,,,スタートホールディングス,0
1065,4120001281318,新規,0,2025-10-21,2025-10-21,ＧＡＪＵ株式会社,,株式会社,大阪府,大阪市北区,西天満１丁目１０番１６号ＫＳビル別館２階,,27,127,5300047,,,,,,,2025-10-21,1,,,,,ガジュ,0
1066,4120001281367,新規,0,2025-10-21,2025-10-21,ミナヴァ株式会社,,株式会社,大阪府,大阪市淀川区,宮原１丁目１９番２３号ステュディオ新御堂６１９室,,27,123,5320003,,,,,,,2025-10-21,1,,,,,ミナヴァ,0
1070,4120003031019,新規,0,2025-10-21,2025-10-21,Ｂｏｒｄｅｒ合同会社,,合同会社,大阪府,大阪市城東区,蒲生１丁目１２－１０－９０１,,27,118,5360016,,,,,,,2025-10-21,1,,,,,ボーダー,0
1074,4120103006795,新規,0,2025-10-21,2025-10-21,宏輝産葉合同会社,,合同会社,大阪府,堺市中区,伏尾７０番地,,27,142,5998254,,,,,,,2025-10-21,1,,,,,コウキサンヨウ,0
1076,4120901051704,新規,0,2025-10-21,2025-10-21,株式会社ＭＡＸ,,株式会社,大阪府,豊中市,庄内東町２丁目３番１１号,,27,203,5610831,,,,,,,2025-10-21,1,,,,,マックス,0
1089,4140001140505,新規,0,2025-10-21,2025-10-21,株式会社Ｓｈｏｈ,,株式会社,兵庫県,三田市,駅前町３番１０－９０１号,,28,219,6691528,,,,,,,2025-10-21,1,,,,,ショウ,0
1098,4180001169128,新規,0,2025-10-21,2025-10-21,株式会社ウィングリーン,,株式会社,愛知県,名古屋市守山区,桔梗平２丁目１５０６番地の２,,23,113,4630814,,,,,,,2025-10-21,1,,,,,ウィングリーン,0
1102,4180003029197,新規,0,2025-10-21,2025-10-21,合同会社Ｃａｒ　Ｃｌｕｂ　Ｊａｐａｎ,,合同会社,愛知県,弥富市,東末広１丁目６０番地２,,23,235,4980063,,,,,,,2025-10-21,1,,,,,カークラブジャパン,0
1106,4190001032631,新規,0,2025-10-21,2025-10-21,ＫＨ　ＣＡＲＧＯ株式会社,,株式会社,三重県,員弁郡東員町,大字大木１３６３番地５,,24,324,5110244,,,,,,,2025-10-21,1,,,,,ケイエイチカーゴ,0
1108,4190003005206,新規,0,2025-10-21,2025-10-21,合同会社Ｑ’ｓＨＯＵＳＥ,,合同会社,三重県,鳥羽市,安楽島町１０４５番地１６,,24,211,5170021,,,,,,,2025-10-21,1,,,,,キューズハウス,0
1109,4190003005230,新規,0,2025-10-21,2025-10-21,合同会社さんじ,,合同会社,三重県,松阪市,川井町５９７番地６,,24,204,5150818,,,,,,,2025-10-21,1,,,,,サンジ,0
1119,4230001021142,新規,0,2025-10-21,2025-10-21,ＡＷＳホールディングス株式会社,,株式会社,富山県,富山市,総曲輪３丁目４番１号,,16,201,9300083,,,,,,,2025-10-21,1,,,,,エイダブリュエスホールディングス,0
1121,4240003007452,新規,0,2025-10-21,2025-10-21,合同会社ひだまり,,合同会社,広島県,福山市,引野町南１丁目２８－３３,,34,207,7210945,,,,,,,2025-10-21,1,,,,,ヒダマリ,0
1124,4260001040668,新規,0,2025-10-21,2025-10-21,株式会社アスタ,,株式会社,岡山県,赤磐市,馬屋１１５番地１０,,33,213,7090825,,,,,,,2025-10-21,1,,,,,アスタ,0
1128,4290001111805,新規,0,2025-10-21,2025-10-21,東亜文化貿易株式会社,,株式会社,福岡県,福岡市中央区,天神１丁目９番１７号１５階,,40,133,8100001,,,,,,,2025-10-21,1,,,,,トウアブンカボウエキ,0
1131,4290003017546,新規,0,2025-10-21,2025-10-21,Ｇｏｏｄｌｙ合同会社,,合同会社,福岡県,福岡市博多区,大博町７－３ステイツ天神東３－８０１部屋,,40,132,8120033,,,,,,,2025-10-21,1,,,,,グッドリ,0
1132,4290003017554,新規,0,2025-10-21,2025-10-21,合同会社ＹＧＥ,,合同会社,福岡県,大野城市,白木原１丁目３番１５－３０３号,,40,219,8160943,,,,,,,2025-10-21,1,,,,,ワイジーイー,0
1135,4290801031954,新規,0,2025-10-21,2025-10-21,株式会社栄十建設,,株式会社,福岡県,北九州市小倉北区,赤坂３丁目６番２２号,,40,106,8020032,,,,,,,2025-10-21,1,,,,,エイトケンセツ,0
1138,4320003004805,新規,0,2025-10-21,2025-10-21,合同会社エコネット九州,,合同会社,大分県,大分市,高江中央２丁目２９番３号,,44,201,8701116,,,,,,,2025-10-21,1,,,,,エコネットキュウシュウ,0
1143,4330001033680,新規,0,2025-10-21,2025-10-21,株式会社ＣＯＺＹプレイス,,株式会社,熊本県,熊本市東区,画図町大字下無田１５２２番地,,43,102,8620945,,,,,,,2025-10-21,1,,,,,コージープレイス,0
1144,4330003011271,新規,0,2025-10-21,2025-10-21,合同会社ＬｉＭ,,合同会社,熊本県,宇城市,小川町新田１３７３番地２,,43,213,8690633,,,,,,,2025-10-21,1,,,,,リム,0
1145,4340001002932,新規,0,2025-10-21,2025-10-21,トーヨー開発株式会社,,株式会社,鹿児島県,鹿児島市,東開町３番地,,46,201,8910115,,,,,,,2025-10-21,1,,,,,,0
1149,4360001035930,新規,0,2025-10-21,2025-10-21,株式会社Ｃｉｇａｒ　ｔｉｍｅ７Ｃ,,株式会社,沖縄県,那覇市,おもろまち４丁目１７番９号ＴＮビル１Ｆ,,47,201,9000006,,,,,,,2025-10-21,1,,,,,シガータイムセブンシー,0
1150,4360003015328,新規,0,2025-10-21,2025-10-21,ＹＦＧ合同会社,,合同会社,沖縄県,島尻郡南風原町,字新川６４番地,,47,350,9011105,,,,,,,2025-10-21,1,,,,,ワイエフジー,0
1153,4370003007340,新規,0,2025-10-21,2025-10-21,合同会社リノマ,,合同会社,宮城県,栗原市,若柳字上畑岡米ケ浦９番地,,04,213,9895504,,,,,,,2025-10-21,1,,,,,リノマ,0
1156,4380001035656,新規,0,2025-10-21,2025-10-21,株式会社コトノハ,,株式会社,福島県,いわき市,内郷綴町秋山１番地の９,,07,204,9738403,,,,,,,2025-10-21,1,,,,,コトノハ,0
1164,4410001014301,新規,0,2025-10-21,2025-10-21,ＫＳネットワーク株式会社,,株式会社,秋田県,大館市,軽井沢字五輪岱１０６番地７ＷＧ商事会館２０１号室,,05,204,0185604,,,,,,,2025-10-21,1,,,,,ケーエスネットワーク,0
1170,4430001095397,新規,0,2025-10-21,2025-10-21,株式会社Ｍａｉｓｏｎ　ｄｅ　ｐｕｒｐｌｅ．,,株式会社,北海道,札幌市中央区,南二条西２丁目６－２ＨＯＲＩＯビル３Ｆ　ｕｎｉ－Ａ,,01,101,0600062,,,,,,,2025-10-21,1,,,,,メゾンドパープル,0
1171,4430001095496,新規,0,2025-10-21,2025-10-21,楽ニセコ株式会社,,株式会社,北海道,虻田郡倶知安町,南七条西１丁目１１－１２,,01,400,0440041,,,,,,,2025-10-21,1,,,,,ラクニセコ,0
1172,4430001095513,新規,0,2025-10-21,2025-10-21,株式会社Ｆ　ａｉｘ,,株式会社,北海道,札幌市白石区,本通１２丁目南３番１０号,,01,104,0030026,,,,,,,2025-10-21,1,,,,,エフアイックス,0
1176,4470001020946,新規,0,2025-10-21,2025-10-21,グリーンテラ香川株式会社,,株式会社,香川県,坂出市,川津町６０３４番地１,,37,203,7620025,,,,,,,2025-10-21,1,,,,,グリーンテラカガワ,0
1180,4500001026592,新規,0,2025-10-21,2025-10-21,株式会社Ｒｏａｄ　Ｇｒｏｕｐ,,株式会社,愛媛県,松山市,束本１丁目４番３５号,,38,201,7900916,,,,,,,2025-10-21,1,,,,,ロードグループ,0
1192,5010001259588,新規,0,2025-10-21,2025-10-21,株式会社ＥＩＪ,,株式会社,東京都,中央区,湊３丁目１１番５―５０２号室,,13,102,1040043,,,,,,,2025-10-21,1,,,,,イーアイジェー,0
1193,5010003049079,新規,0,2025-10-21,2025-10-21,ＣｅｓｉｕｍＡｓｔｒｏ　Ｊａｐａｎ合同会社,,合同会社,東京都,千代田区,大手町１丁目７番２号東京サンケイビル２７階,,13,101,1000004,,,,,,,2025-10-21,1,,,,,セシウムアストロジャパン,0
1194,5010003049087,新規,0,2025-10-21,2025-10-21,合同会社Ｂａｍｂｉ　Ｇｒｏｗｔｈ　Ｌａｂ,,合同会社,東京都,中央区,銀座１丁目１２－４Ｎ＆ＥＢＬＤ．６Ｆ,,13,102,1040061,,,,,,,2025-10-21,1,,,,,バンビグロースラボ,0
1195,5010003049120,新規,0,2025-10-21,2025-10-21,ＳＲＦ１ＨＤ合同会社,,合同会社,東京都,千代田区,丸の内１丁目４番１号東京共同会計事務所内,,13,101,1000005,,,,,,,2025-10-21,1,,,,,エスアールエフワンホールディング,0
1199,5010005040795,新規,0,2025-10-21,2025-10-21,一般社団法人輪厚プレリート,,その他の設立登記法人,東京都,中央区,京橋２丁目１２番６号ＡＯＪ税理士法人内,,13,102,1040031,,,,,,,2025-10-21,1,,,,,ワッツプレリート,0
1203,5010401193668,新規,0,2025-10-21,2025-10-21,株式会社ｄｕｘ,,株式会社,東京都,港区,北青山２丁目７－１３プラセオ青山ビル３階,,13,103,1070061,,,,,,,2025-10-21,1,,,,,ダックス,0
1204,5010401193742,新規,0,2025-10-21,2025-10-21,株式会社ＫＥＩＥＩ．ＮＥＴ　ＩＮＣ．,,株式会社,東京都,港区,港南１丁目６番３３号１６０４号室,,13,103,1080075,,,,,,,2025-10-21,1,,,,,ケイエイドットネットインク,0
1205,5010401193858,新規,0,2025-10-21,2025-10-21,アドバンテッジパートナーズ・リアルエステート株式会社,,株式会社,東京都,港区,虎ノ門４丁目１番２８号虎ノ門タワーズオフィス１７階,,13,103,1050001,,,,,,,2025-10-21,1,,,,,アドバンテッジパートナーズリアルエステート,0
1206,5010401193924,新規,0,2025-10-21,2025-10-21,ＡＲＭＯＮＥＸ株式会社,,株式会社,東京都,港区,北青山１丁目３－３三橋ビル３階,,13,103,1070061,,,,,,,2025-10-21,1,,,,,アルモネックス,0
1209,5010501054902,新規,0,2025-10-21,2025-10-21,株式会社Ｉｍｐｅｒｉａｌ　Ｌｉｎｋ,,株式会社,東京都,台東区,三筋１丁目１０番６スカイコート蔵前ｉｉ１００４号室,00141186,13,106,1110055,,,,,,,2025-10-21,1,,,,,インペリアルリンク,0
1215,5010603011850,新規,0,2025-10-21,2025-10-21,合同会社ａｎｄＨＵＧ,,合同会社,東京都,江東区,辰巳１丁目１－１３,,13,108,1350053,,,,,,,2025-10-21,1,,,,,,0
1219,5010803005586,新規,0,2025-10-21,2025-10-21,ＩＣＤ合同会社,,合同会社,東京都,大田区,南馬込１丁目３８番１３号,,13,111,1430025,,,,,,,2025-10-21,1,,,,,アイシーディー,0
1221,5010901058288,新規,0,2025-10-21,2025-10-21,株式会社Ｈｕｎｔｉｎｇ＆Ｃｏｎｓｕｌｔｉｎｇ,,株式会社,東京都,世田谷区,下馬５丁目２９番１６号,,13,112,1540002,,,,,,,2025-10-21,1,,,,,ハンティングアンドコンサルティング,0
1223,5010903010346,新規,0,2025-10-21,2025-10-21,合同会社日本ファシリティエナジーコンサルティング,,合同会社,東京都,世田谷区,太子堂４丁目１８‐１５マガザン三軒茶屋２‐３Ｆ‐３,,13,112,1540004,,,,,,,2025-10-21,1,,,,,ニッポンファシリティエナジーコンサルティング,0
1224,5010903010354,新規,0,2025-10-21,2025-10-21,Ｓ＆Ｓ合同会社,,合同会社,東京都,世田谷区,太子堂４丁目６番４号アーバイル三軒茶屋１００１号室,,13,112,1540004,,,,,,,2025-10-21,1,,,,,エスアンドエス,0
1230,5011001172599,新規,0,2025-10-21,2025-10-21,株式会社Ｘ,,株式会社,東京都,渋谷区,恵比寿西２丁目８番４号ＥＸ恵比寿西ビル５階,,13,113,1500021,,,,,,,2025-10-21,1,,,,,エックス,0
1231,5011001172913,新規,0,2025-10-21,2025-10-21,株式会社Ｎｅｘａ,,株式会社,東京都,渋谷区,道玄坂１丁目１０番８号渋谷道玄坂東急ビル２Ｆ－Ｃ,,13,113,1500043,,,,,,,2025-10-21,1,,,,,ネクサ,0
1238,5011101113560,新規,0,2025-10-21,2025-10-21,株式会社Ｕｎｉｄｅｎｔ,,株式会社,東京都,新宿区,市谷田町３丁目８番地市ヶ谷科学技術イノベーションセンタービル４階,,13,104,1620843,,,,,,,2025-10-21,1,,,,,ユニデント,0
1239,5011101113701,新規,0,2025-10-21,2025-10-21,株式会社ＷｈＩＮｓ,,株式会社,東京都,新宿区,新宿２丁目１２番１３号,,13,104,1600022,,,,,,,2025-10-21,1,,,,,ウィンズ,0
1244,5011103016522,新規,0,2025-10-21,2025-10-21,合同会社ピュアレジャー２,,合同会社,東京都,新宿区,四谷２丁目９番地１５東京ユナイテッド綜合事務所内,,13,104,1600004,,,,,,,2025-10-21,1,,,,,ピュアレジャーツー,0
1245,5011103016530,新規,0,2025-10-21,2025-10-21,合同会社ピュアレジャー１０,,合同会社,東京都,新宿区,四谷２丁目９番地１５東京ユナイテッド綜合事務所内,,13,104,1600004,,,,,,,2025-10-21,1,,,,,ピュアレジャーテン,0
1248,5011203004864,新規,0,2025-10-21,2025-10-21,ワンワン合同会社,,合同会社,東京都,中野区,江原町２丁目２０番８－２０５号,,13,114,1650023,,,,,,,2025-10-21,1,,,,,ワンワン,0
1257,5011503006742,新規,0,2025-10-21,2025-10-21,合同会社アンクレール,,合同会社,東京都,荒川区,東尾久８丁目９番２－２０１号ＣｒｅａｒｅＫ,,13,118,1160012,,,,,,,2025-10-21,1,,,,,アンクレール,0
1262,5011801046952,新規,0,2025-10-21,2025-10-21,株式会社Ｂ‐Ｐｏｗｅｒ,,株式会社,東京都,足立区,青井６丁目６番１８号,,13,121,1210012,,,,,,,2025-10-21,1,,,,,ビーパワー,0
1263,5011803007143,新規,0,2025-10-21,2025-10-21,合同会社ＳＴコンサルティング,,合同会社,東京都,葛飾区,お花茶屋１丁目２１番１３号,,13,122,1240003,,,,,,,2025-10-21,1,,,,,エスティーコンサルティング,0
1277,5020001165281,新規,0,2025-10-21,2025-10-21,株式会社ｌｏａ．,,株式会社,神奈川県,横浜市港南区,港南５丁目１－２４,,14,111,2330003,,,,,,,2025-10-21,1,,,,,ロア,0
1278,5020001165364,新規,0,2025-10-21,2025-10-21,株式会社楽笑,,株式会社,神奈川県,横浜市戸塚区,下倉田町１２０２番地７,,14,110,2440815,,,,,,,2025-10-21,1,,,,,ラクショウ,0
1287,5021001086609,新規,0,2025-10-21,2025-10-21,株式会社星出製作所,,株式会社,神奈川県,逗子市,沼間１丁目５－１逗子市商工会館インキュベーション１０１号,,14,208,2490004,,,,,,,2025-10-21,1,,,,,ホシデセイサクジョ,0
1288,5021003016729,新規,0,2025-10-21,2025-10-21,合同会社アーバンパートナーズ,,合同会社,神奈川県,相模原市南区,鵜野森３丁目２８番６号アーバンハイムＢ棟２０２,,14,153,2520301,,,,,,,2025-10-21,1,,,,,アーバンパートナーズ,0
1291,5030001169348,新規,0,2025-10-21,2025-10-21,エイチティトレーディング株式会社,,株式会社,埼玉県,さいたま市南区,根岸５丁目４－６－３０５,,11,108,3360024,,,,,,,2025-10-21,1,,,,,エイチティトレーディング,0
1293,5040001140943,新規,0,2025-10-21,2025-10-21,株式会社ＺＳ　ＴＲＡＤＩＮＧ,,株式会社,千葉県,野田市,桐ケ作１２４２番地７,,12,208,2700213,,,,,,,2025-10-21,1,,,,,ゼットエストレーディング,0
1294,5040001140951,新規,0,2025-10-21,2025-10-21,株式会社ＣＲＯＣＯ,,株式会社,千葉県,船橋市,田喜野井５丁目３２番３６号,,12,204,2740073,,,,,,,2025-10-21,1,,,,,クロコ,0
1295,5040001140992,新規,0,2025-10-21,2025-10-21,株式会社ＣＳＡｇｅｎｔ,,株式会社,千葉県,船橋市,中野木２丁目２２番１８－２号,,12,204,2740826,,,,,,,2025-10-21,1,,,,,シーエスエージェント,0
1296,5040001141082,新規,0,2025-10-21,2025-10-21,株式会社ＴＥＮＳＩＸ　Ｅｑｕｉｔｙ　Ｒｅｓｅａｒｃｈ　Ｉｎｉｔｉａｔｉｖｅ,,株式会社,千葉県,市川市,妙典２丁目１５番２１－１４０３号,,12,203,2720111,,,,,,,2025-10-21,1,,,,,テンシックスエクイティリサーチイニシアティブ,0
1302,5060001038698,新規,0,2025-10-21,2025-10-21,株式会社藤田ｆａｒｍ,,株式会社,栃木県,大田原市,上石上１１９番地３,,09,210,3240037,,,,,,,2025-10-21,1,,,,,フジタファーム,0
1316,5080101025859,新規,0,2025-10-21,2025-10-21,株式会社チルリゾート,,株式会社,静岡県,熱海市,網代６２７番地の９７０ヴィラ南熱海５１１,,22,205,4130103,,,,,,,2025-10-21,1,,,,,チルリゾート,0
1319,5080401028231,新規,0,2025-10-21,2025-10-21,株式会社ＴＯＴＯＭＩ自動車,,株式会社,静岡県,浜松市中央区,芳川町５２３番地,,22,138,4300813,,,,,,,2025-10-21,1,,,,,トオトウミジドウシャ,0
1323,5110003005939,新規,0,2025-10-21,2025-10-21,合同会社アルーチ,,合同会社,新潟県,新潟市中央区,東大通１丁目５番３１号プレジール野中４０５号,,15,103,9500087,,,,,,,2025-10-21,1,,,,,アルーチ,0
1334,5120001280921,新規,0,2025-10-21,2025-10-21,ＲｅＳｏｗホールディングス株式会社,,株式会社,大阪府,大阪市阿倍野区,阿倍野筋１丁目１番４３号あべのハルカス２９階,,27,119,5450052,,,,,,,2025-10-21,1,,,,,リソウホールディングス,0
1335,5120001281028,新規,0,2025-10-21,2025-10-21,株式会社Ａｐｅｘ　Ａｆｒｉｃａｎ　Ｔｒａｄｅ,,株式会社,大阪府,大阪市淀川区,西三国１丁目１０番２３号ＣＩＴＹ西三国２１１,,27,123,5320006,,,,,,,2025-10-21,1,,,,,エイペックスアフリカントレード,0
1336,5120001281192,新規,0,2025-10-21,2025-10-21,凌霄云株式会社,,株式会社,大阪府,大阪市中央区,南船場３丁目２番２２号おおきに南船場ビル２０１号室,,27,128,5420081,,,,,,,2025-10-21,1,,,,,リンショウウン,0
1337,5120001281366,新規,0,2025-10-21,2025-10-21,浅草堂株式会社,,株式会社,大阪府,大阪市中央区,内平野町１丁目２番９号グランドメゾン大手前５０４号,,27,128,5400037,,,,,,,2025-10-21,1,,,,,センソウドウ,0
1343,5120101072640,新規,0,2025-10-21,2025-10-21,株式会社ヒューズ,,株式会社,大阪府,堺市堺区,遠里小野町２丁３番２５号,,27,141,5900001,,,,,,,2025-10-21,1,,,,,ヒューズ,0
1344,5120101072665,新規,0,2025-10-21,2025-10-21,ＳＡＦＡ　ＧＲＯＵＰ株式会社,,株式会社,大阪府,和泉市,仏並町１６８９,,27,219,5941136,,,,,,,2025-10-21,1,,,,,サファグループ,0
1350,5120901051579,新規,0,2025-10-21,2025-10-21,株式会社トータルサプライ,,株式会社,大阪府,茨木市,下中条町６番３号の１,,27,211,5670886,,,,,,,2025-10-21,1,,,,,トータルサプライ,0
1351,5120903005905,新規,0,2025-10-21,2025-10-21,Ｘ‐ＩＭＰＡＣＴ合同会社,,合同会社,大阪府,茨木市,東中条町１２番３７－４１６号,,27,211,5670885,,,,,,,2025-10-21,1,,,,,クロスインパクト,0
1359,5130001080817,新規,0,2025-10-21,2025-10-21,株式会社ＡＫｉＫＯＭＡ,,株式会社,京都府,京都市上京区,福大明神町１２８,,26,102,6028233,,,,,,,2025-10-21,1,,,,,アキコマ,0
1360,5130001080833,新規,0,2025-10-21,2025-10-21,国華株式会社,,株式会社,京都府,京都市伏見区,深草小久保町２３９番地３号室,,26,109,6128437,,,,,,,2025-10-21,1,,,,,コッカ,0
1362,5130003010854,新規,0,2025-10-21,2025-10-21,一合蟹合同会社,,合同会社,京都府,京都市右京区,西院平町８番地デ・リード西大路高辻７０４号,,26,108,6150022,,,,,,,2025-10-21,1,,,,,イチゴウカニ,0
1363,5130003010879,新規,0,2025-10-21,2025-10-21,合同会社ＧＲＡＣＥ,,合同会社,京都府,京都市中京区,御池通猪熊西入俵屋町２００－１二条城ＡＲＣＵＳ１Ｆ－２,,26,104,6048311,,,,,,,2025-10-21,1,,,,,グレイス,0
1368,5140001140421,新規,0,2025-10-21,2025-10-21,株式会社アルベリア・シルカ,,株式会社,兵庫県,宝塚市,中山台１丁目２２番１号,,28,214,6650876,,,,,,,2025-10-21,1,,,,,アルベリアシルカ,0
1369,5140001140438,新規,0,2025-10-21,2025-10-21,株式会社トリオン,,株式会社,兵庫県,神戸市中央区,磯辺通１丁目１番１８号カサベラ国際プラザビル７０７号室,,28,110,6510084,,,,,,,2025-10-21,1,,,,,トリオン,0
1370,5140001140446,新規,0,2025-10-21,2025-10-21,株式会社ＢｕｚｚＳｅｅｄ,,株式会社,兵庫県,尼崎市,南塚口町１丁目２２－１ヴェルテスＩＫＥＭＯＴＯ１０６,,28,202,6610012,,,,,,,2025-10-21,1,,,,,バズシード,0
1372,5140003022741,新規,0,2025-10-21,2025-10-21,合同会社ぱれっと,,合同会社,兵庫県,神戸市東灘区,御影塚町３丁目３番５号西御影グリーンハイツ１Ｆ、Ｃ号,,28,101,6580044,,,,,,,2025-10-21,1,,,,,パレット,0
1378,5150001028491,新規,0,2025-10-21,2025-10-21,株式会社Ｆａｓｔｎａｕｔ,,株式会社,奈良県,桜井市,安倍木材団地２丁目４番地の２０－２,,29,206,6330055,,,,,,,2025-10-21,1,,,,,ファストノート,0
1381,5170001018838,新規,0,2025-10-21,2025-10-21,株式会社Ｒｙｏ　ＣｏｍＰａｎｙ,,株式会社,和歌山県,海南市,大野中５１３番地６,,30,202,6420022,,,,,,,2025-10-21,1,,,,,リョウカンパニー,0
1382,5170001018846,新規,0,2025-10-21,2025-10-21,株式会社鮨，天の,,株式会社,和歌山県,和歌山市,元寺町３丁目５,,30,201,6408024,,,,,,,2025-10-21,1,,,,,スシアマノ,0
1393,5180001169052,新規,0,2025-10-21,2025-10-21,オンリブ・ワン株式会社,,株式会社,愛知県,一宮市,西五城字起境４３番地１,,23,203,4940005,,,,,,,2025-10-21,1,,,,,オンリブワン,0
1397,5180003029205,新規,0,2025-10-21,2025-10-21,ＳｈａｒｅＬｉｎｋ合同会社,,合同会社,愛知県,名古屋市中村区,名駅３丁目４－１０アルティメイト名駅１ｓｔ２階,,23,105,4500002,,,,,,,2025-10-21,1,,,,,シェアリンク,0
1398,5180003029254,新規,0,2025-10-21,2025-10-21,合同会社雪山のすみか,,合同会社,愛知県,春日井市,妙慶町１４４番地,,23,206,4860928,,,,,,,2025-10-21,1,,,,,ユキヤマノスミカ,0
1399,5180005021283,新規,0,2025-10-21,2025-10-21,行政書士法人ちゅうぶ経営ＩＴサポート,,その他の設立登記法人,愛知県,瀬戸市,北山町３０番地の９,,23,204,4890984,,,,,,,2025-10-21,1,,,,,チュウブケイエイアイティーサポート,0
1410,5190001032630,新規,0,2025-10-21,2025-10-21,株式会社Ｊ・Ｑ,,株式会社,三重県,鈴鹿市,椿一宮町１６０７番地の３８,,24,207,5190312,,,,,,,2025-10-21,1,,,,,ジェイキュー,0
1428,5290001111663,新規,0,2025-10-21,2025-10-21,株式会社サウスポンド,,株式会社,福岡県,福岡市博多区,東比恵４丁目３－１４,,40,132,8120007,,,,,,,2025-10-21,1,,,,,サウスポンド,0
1429,5290001111713,新規,0,2025-10-21,2025-10-21,株式会社ネオミライ,,株式会社,福岡県,福岡市中央区,唐人町３丁目１０番３－１号,,40,133,8100063,,,,,,,2025-10-21,1,,,,,ネオミライ,0
1430,5290001111779,新規,0,2025-10-21,2025-10-21,株式会社トーレックス,,株式会社,福岡県,福岡市西区,姪浜駅南４丁目１５－１９－４０３,,40,135,8190006,,,,,,,2025-10-21,1,,,,,トーレックス,0
1431,5290001111894,新規,0,2025-10-21,2025-10-21,株式会社東亜文化研究所,,株式会社,福岡県,福岡市中央区,荒戸２丁目３番３７号４階,,40,133,8100062,,,,,,,2025-10-21,1,,,,,トウアブンカケンキュウジョ,0
1432,5290001111903,新規,0,2025-10-21,2025-10-21,株式会社アノクサ,,株式会社,福岡県,福岡市博多区,店屋町２番２９号ｉＧＳ博多ビル７階,,40,132,8120025,,,,,,,2025-10-21,1,,,,,アノクサ,0
1433,5290001111936,新規,0,2025-10-21,2025-10-21,株式会社柳川匠の会,,株式会社,福岡県,柳川市,大和町明野１４７２番地,,40,207,8390251,,,,,,,2025-10-21,1,,,,,ヤナガワタクミノカイ,0
1436,5290003017504,新規,0,2025-10-21,2025-10-21,梟の本棚合同会社,,合同会社,福岡県,福岡市城南区,七隈７丁目３８－３５－２０１,,40,136,8140133,,,,,,,2025-10-21,1,,,,,フクロウノホンダナ,0
1437,5290003017578,新規,0,2025-10-21,2025-10-21,ＬｉｎｋＤｏ合同会社,,合同会社,福岡県,福岡市東区,香住ヶ丘２丁目２番８号４階,,40,131,8130003,,,,,,,2025-10-21,1,,,,,リンクドゥ,0
1443,5330003011270,新規,0,2025-10-21,2025-10-21,合同会社Ｓｕｎｄａｙ,,合同会社,熊本県,熊本市中央区,下通１丁目５番２１号・有楽丁ビル１階６号室,,43,101,8600807,,,,,,,2025-10-21,1,,,,,サンデイ,0
1456,5380005013021,新規,0,2025-10-21,2025-10-21,医療法人ＷＩＴＨ　ＩＮＴＥＧＲＩＴＹ,,その他の設立登記法人,福島県,石川郡浅川町,大字簑輪字作田７５番地,,07,504,9636217,,,,,,,2025-10-21,1,,,,,ウィズインテグリティ,0
1474,5430001095504,新規,0,2025-10-21,2025-10-21,石井建設株式会社,,株式会社,北海道,石狩市,樽川九条１丁目８３番地,,01,235,0613259,,,,,,,2025-10-21,1,,,,,イシイケンセツ,0
1486,5700150132609,新規,0,2025-10-21,2025-10-21,株式会社　コタファ,,外国会社等,東京都,足立区,新田３丁目３７番１１－８０２号,,13,121,1230865,大韓民国ソウル特別市江南区三成路５６６，４階（三成洞、ビルエム）,,,,,,2025-10-21,1,,,,,カブシキガイシヤコタフア,0
1497,6010003048575,新規,0,2025-10-21,2025-10-21,合同会社Ｍａｍｕｎｉｔｙ,,合同会社,東京都,中央区,晴海３丁目６－８－１５１１,,13,102,1040053,,,,,,,2025-10-21,1,,,,,マミュニティ,0
1498,6010003049086,新規,0,2025-10-21,2025-10-21,トラヒル合同会社,,合同会社,東京都,千代田区,一番町２２番地３アデックス一番町ビル４０２号,,13,101,1020082,,,,,,,2025-10-21,1,,,,,トラヒル,0
1499,6010005040803,新規,0,2025-10-21,2025-10-21,一般社団法人星野リゾート箱根強羅開発,,その他の設立登記法人,東京都,中央区,日本橋１丁目４番１号日本橋一丁目ビルディング,,13,102,1030027,,,,,,,2025-10-21,1,,,,,ホシノリゾートハコネゴウラカイハツ,0
1500,6010101016921,新規,0,2025-10-21,2025-10-21,株式会社ボルテック,,株式会社,東京都,八王子市,上川町４０２２番地１,,13,201,1920151,,,,,,,2025-10-21,1,,,,,ボルテック,0
1503,6010401193790,新規,0,2025-10-21,2025-10-21,株式会社ＨＳプランニング,,株式会社,東京都,港区,赤坂３丁目１１番１４－８０７号,,13,103,1070052,,,,,,,2025-10-21,1,,,,,エイチエスプランニング,0
1504,6010401193840,新規,0,2025-10-21,2025-10-21,Ｎｉｐｐｏｎ　Ｔａｋａｉ　Ｔｒａｄｉｎｇ＆Ｉｎｎｏｖａｔｉｏｎ株式会社,,株式会社,東京都,港区,元麻布３丁目１番６号,,13,103,1060046,,,,,,,2025-10-21,1,,,,,ニッポンタカイトレーディングアンドイノベーション,0
1505,6010401193849,新規,0,2025-10-21,2025-10-21,株式会社黎明Ｍ＆Ａアドバイザーズ,,株式会社,東京都,港区,赤坂１丁目５番１２号第二虎ノ門ビル,,13,103,1070052,,,,,,,2025-10-21,1,,,,,レイメイエムアンドエーアドバイザーズ,0
1506,6010401193907,新規,0,2025-10-21,2025-10-21,株式会社クスパス,,株式会社,東京都,港区,東新橋１丁目６番３号ザロイヤルパークホテルアイコニック東京汐留２４Ｆ,,13,103,1050021,,,,,,,2025-10-21,1,,,,,クスパス,0
1508,6010403036246,新規,0,2025-10-21,2025-10-21,合同会社植樹,,合同会社,東京都,港区,南青山３丁目１番３６号青山丸竹ビル６Ｆ,,13,103,1070062,,,,,,,2025-10-21,1,,,,,ウエキ,0
1509,6010403036279,新規,0,2025-10-21,2025-10-21,ＪＣジャパン合同会社,,合同会社,東京都,港区,六本木１丁目９番１０号アークヒルズ仙石山森タワー２８階ベーカー＆マッケンジー法律事務所（外国法共同事業）内,,13,103,1060032,,,,,,,2025-10-21,1,,,,,ジェイシージャパン,0
1529,6010701048488,新規,0,2025-10-21,2025-10-21,株式会社カロスデザイン,,株式会社,東京都,品川区,北品川５丁目５番１５号,,13,109,1410001,,,,,,,2025-10-21,1,,,,,カロスデザイン,0
1530,6010803005585,新規,0,2025-10-21,2025-10-21,イーサポート合同会社,,合同会社,東京都,大田区,田園調布２丁目３８番１０号,,13,111,1450071,,,,,,,2025-10-21,1,,,,,イーサポート,0
1534,6010901058295,新規,0,2025-10-21,2025-10-21,株式会社ＴＪＫリコンディション,,株式会社,東京都,世田谷区,宇奈根２丁目５－１２,,13,112,1570068,,,,,,,2025-10-21,1,,,,,ティージェーケーリコンディション,0
1539,6011001172912,新規,0,2025-10-21,2025-10-21,株式会社お広目百貨店,,株式会社,東京都,渋谷区,恵比寿西２丁目８番４号ＥＸ恵比寿西ビル５階,,13,113,1500021,,,,,,,2025-10-21,1,,,,,オヒロメヒャッカテン,0
1545,6011003022652,新規,0,2025-10-21,2025-10-21,合同会社ＨａｒＢｏｒ,,合同会社,東京都,渋谷区,道玄坂１丁目１０番８号渋谷道玄坂東急ビル２Ｆ－Ｃ,,13,113,1500043,,,,,,,2025-10-21,1,,,,,ハーバー,0
1546,6011003022792,新規,0,2025-10-21,2025-10-21,Ｓａｌｉｏｎ合同会社,,合同会社,東京都,目黒区,東山３丁目４－８東北林業ビル２０１,,13,110,1530043,,,,,,,2025-10-21,1,,,,,サリオン,0
1550,6011101113543,新規,0,2025-10-21,2025-10-21,株式会社シェノン・ｃｈａｉｎｏｎ,,株式会社,東京都,新宿区,西落合１丁目１３番２号,,13,104,1610031,,,,,,,2025-10-21,1,,,,,シェノン,0
1551,6011101113568,新規,0,2025-10-21,2025-10-21,株式会社ＳｏｃｉａＬ　Ｂａｓｅ,,株式会社,東京都,新宿区,新宿１丁目３６番２号新宿第七葉山ビル３階,,13,104,1600022,,,,,,,2025-10-21,1,,,,,ソーシャルベース,0
1553,6011103016521,新規,0,2025-10-21,2025-10-21,合同会社ピュアレジャー１,,合同会社,東京都,新宿区,四谷２丁目９番地１５東京ユナイテッド綜合事務所内,,13,104,1600004,,,,,,,2025-10-21,1,,,,,ピュアレジャーワン,0
1557,6011203004863,新規,0,2025-10-21,2025-10-21,合同会社竹井俊晴,,合同会社,東京都,中野区,沼袋４丁目４番１３号,,13,114,1650025,,,,,,,2025-10-21,1,,,,,タケイシュンセイ,0
1560,6011501032723,新規,0,2025-10-21,2025-10-21,株式会社トラストコンサルティング,,株式会社,東京都,北区,浮間２丁目５－３－６０３アトレ浮間舟渡ローレルコート,,13,117,1150051,,,,,,,2025-10-21,1,,,,,トラストコンサルティング,0
1565,6011801046943,新規,0,2025-10-21,2025-10-21,ＬＺ株式会社,,株式会社,東京都,葛飾区,東新小岩４丁目７番７－２０２号,,13,122,1240023,,,,,,,2025-10-21,1,,,,,エルゼット,0
1566,6011803007142,新規,0,2025-10-21,2025-10-21,満丸合同会社,,合同会社,東京都,足立区,谷中４丁目１７番６号,,13,121,1200006,,,,,,,2025-10-21,1,,,,,マンマル,0
1567,6011803007150,新規,0,2025-10-21,2025-10-21,合同会社ＭＹＧ,,合同会社,東京都,足立区,竹の塚１丁目１９番１３－２０３号,,13,121,1210813,,,,,,,2025-10-21,1,,,,,エムワイジー,0
1572,6012701019147,新規,0,2025-10-21,2025-10-21,株式会社ｍｕｋｕ　ｈｏｕｓｅ,,株式会社,東京都,西東京市,富士町４丁目１７番６号大嶋ビル１階,,13,229,2020014,,,,,,,2025-10-21,1,,,,,ムクハウス,0
1581,6013305003776,新規,0,2025-10-21,2025-10-21,一般社団法人中国政法大学日本校友会,,その他の設立登記法人,東京都,豊島区,東池袋１丁目４４番１号黒澤本社ビル７階,,13,116,1700013,,,,,,,2025-10-21,1,,,,,チュウゴクセイホウダイガクニホンコウユウカイ,0
1584,6020001165297,新規,0,2025-10-21,2025-10-21,Ｎｅｉｇｈｂｏｒｓ株式会社,,株式会社,神奈川県,横浜市中区,北仲通４丁目４５－１Ｆ,,14,104,2310003,,,,,,,2025-10-21,1,,,,,ネイバーズ,0
1588,6020003029491,新規,0,2025-10-21,2025-10-21,ＮＡＧＡ＆ＳＯＮＳ合同会社,,合同会社,神奈川県,横浜市金沢区,富岡東２丁目２番１３－６０７号,,14,108,2360051,,,,,,,2025-10-21,1,,,,,ナガアンドサンズ,0
1589,6020003029582,新規,0,2025-10-21,2025-10-21,合同会社ｔｓｕｍｕｇｉｗｏｒｋｓ,,合同会社,神奈川県,横浜市港北区,日吉７丁目１５番７号エレガント日吉５０３,,14,109,2230061,,,,,,,2025-10-21,1,,,,,ツムギワークス,0
1590,6020003029649,新規,0,2025-10-21,2025-10-21,ｆｉｖｅ　ｓｑｕａｒｅｓ合同会社,,合同会社,神奈川県,横浜市保土ケ谷区,岡沢町２３２番地６,,14,106,2400062,,,,,,,2025-10-21,1,,,,,ファイブスクエアーズ,0
1592,6021001086442,新規,0,2025-10-21,2025-10-21,王子株式会社,,株式会社,神奈川県,相模原市南区,東林間２丁目２１－２３－２０２,,14,153,2520311,,,,,,,2025-10-21,1,,,,,オウジ,0
1593,6021003016728,新規,0,2025-10-21,2025-10-21,Ｉｎｓｉｄｅ　Ｖａｌｌｅｙ合同会社,,合同会社,神奈川県,茅ヶ崎市,浜之郷３８４番地８,,14,207,2530086,,,,,,,2025-10-21,1,,,,,インサイドヴァレイ,0
1609,6040001140950,新規,0,2025-10-21,2025-10-21,株式会社小林石材店,,株式会社,千葉県,いすみ市,大原１９１９番地,,12,238,2980004,,,,,,,2025-10-21,1,,,,,コバヤシセキザイテン,0
1610,6040001140959,新規,0,2025-10-21,2025-10-21,エヌエムエンジニアリング株式会社,,株式会社,千葉県,八街市,八街ろ８８番地１１２,,12,230,2891144,,,,,,,2025-10-21,1,,,,,エヌエムエンジニアリング,0
1616,6040003028764,新規,0,2025-10-21,2025-10-21,合同会社興文青舎,,合同会社,千葉県,松戸市,秋山１丁目１６番地の４シーアイマンション松戸秋山ステーションプラザ１０３,,12,207,2702223,,,,,,,2025-10-21,1,,,,,コウブンセイシャ,0
1617,6040003028789,新規,0,2025-10-21,2025-10-21,ＭＦＷＯＲＫＳ合同会社,,合同会社,千葉県,市川市,中国分３丁目１７番１４号,,12,203,2720835,,,,,,,2025-10-21,1,,,,,エムエフワークス,0
1618,6040003028797,新規,0,2025-10-21,2025-10-21,ＪＡＮ　ＣＯＲＰＯＲＡＴＩＯＮ合同会社,,合同会社,千葉県,印西市,小林３９６０番地１コーポサクライ２０５号,,12,231,2701318,,,,,,,2025-10-21,1,,,,,ジャンコーポレーション,0
1619,6040005022922,新規,0,2025-10-21,2025-10-21,医療法人社団砂川歯科,,その他の設立登記法人,千葉県,千葉市花見川区,検見川町３丁目３１２番１６号,,12,102,2620023,,,,,,,2025-10-21,1,,,,,スナカワシカ,0
1641,6080102022573,新規,0,2025-10-21,2025-10-21,東比奈興産有限会社,,有限会社,静岡県,富士市,比奈１４５３番地,,22,210,4170847,,,,,,,2025-10-21,1,,,,,ヒガシヒナコウサン,0
1642,6080401028230,新規,0,2025-10-21,2025-10-21,株式会社川又電工,,株式会社,静岡県,浜松市中央区,大島町８７７番地,,22,138,4313112,,,,,,,2025-10-21,1,,,,,カワマタデンコウ,0
1646,6100001039055,新規,0,2025-10-21,2025-10-21,株式会社コーロクリバー,,株式会社,長野県,諏訪郡富士見町,境１８５５番地,,20,362,3990101,,,,,,,2025-10-21,1,,,,,コーロクリバー,0
1647,6110003005938,新規,0,2025-10-21,2025-10-21,合同会社クラリティ,,合同会社,新潟県,新潟市東区,東中島３丁目９番１１号７オーラムベル１０１号,,15,102,9500823,,,,,,,2025-10-21,1,,,,,クラリティ,0
1648,6110005017279,新規,0,2025-10-21,2025-10-21,特定非営利活動法人恵生会,,その他の設立登記法人,新潟県,新潟市北区,白新町４丁目２番２３号,,15,101,9503325,,,,,,,2025-10-21,1,,,,,ケイセイカイ,0
1660,6120001280598,新規,0,2025-10-21,2025-10-21,大阪自動車学校株式会社,,株式会社,大阪府,大阪市北区,梅田３丁目２番１２３号,,27,127,5300001,,,,,,,2025-10-21,1,,,,,オオサカジドウシャガッコウ,0
1661,6120001281233,新規,0,2025-10-21,2025-10-21,株式会社ｙｕｋａｓａ,,株式会社,大阪府,大阪市西淀川区,中島１丁目４０番１８号,,27,113,5550041,,,,,,,2025-10-21,1,,,,,ユカサ,0
1663,6120003030976,新規,0,2025-10-21,2025-10-21,新境界合同会社,,合同会社,大阪府,大阪市東淀川区,豊里５丁目２７番１７号２０２号室,,27,114,5330013,,,,,,,2025-10-21,1,,,,,シンキョウカイ,0
1664,6120003031000,新規,0,2025-10-21,2025-10-21,スミアセットマネジメント合同会社,,合同会社,大阪府,大阪市東住吉区,駒川３丁目１番９号,,27,121,5460043,,,,,,,2025-10-21,1,,,,,スミアセットマネジメント,0
1669,6120101072656,新規,0,2025-10-21,2025-10-21,嘉鋭澤株式会社,,株式会社,大阪府,堺市北区,南花田町４１７番３－２１０号,,27,146,5918011,,,,,,,2025-10-21,1,,,,,カエイサワ,0
1670,6120101072672,新規,0,2025-10-21,2025-10-21,株式会社ココット,,株式会社,大阪府,堺市北区,新堀町１丁８番地３,,27,146,5918005,,,,,,,2025-10-21,1,,,,,ココット,0
1675,6122005003852,新規,0,2025-10-21,2025-10-21,一般財団法人アーテック教育財団,,その他の設立登記法人,大阪府,八尾市,北亀井町３丁目２番１号,,27,212,5810066,,,,,,,2025-10-21,1,,,,,アーテックキョウイクザイダン,0
1677,6130001080849,新規,0,2025-10-21,2025-10-21,ＵＭＡ株式会社,,株式会社,京都府,宇治市,槇島町十一９５番地１５,,26,204,6110041,,,,,,,2025-10-21,1,,,,,ユーエムエー,0
1678,6130001080865,新規,0,2025-10-21,2025-10-21,福知山Ｇｒｅｅｎ　Ｅｎｅｒｇｙ株式会社,,株式会社,京都府,福知山市,字荒河１２３番地,,26,201,6200000,,,,,,,2025-10-21,1,,,,,フクチヤマグリーンエナジー,0
1682,6140001140429,新規,0,2025-10-21,2025-10-21,株式会社ｌａｕｇｈ,,株式会社,兵庫県,高砂市,高砂町浜田町１丁目５－１－１０１,,28,216,6760022,,,,,,,2025-10-21,1,,,,,ラフ,0
1683,6140001140437,新規,0,2025-10-21,2025-10-21,エムズスペース株式会社,,株式会社,兵庫県,姫路市,東山５２４番地,,28,201,6728014,,,,,,,2025-10-21,1,,,,,エムズスペース,0
1684,6140001140453,新規,0,2025-10-21,2025-10-21,グレイスリンク株式会社,,株式会社,兵庫県,神戸市西区,伊川谷町有瀬７７８番地１,,28,111,6512113,,,,,,,2025-10-21,1,,,,,グレイスリンク,0
1702,6180001169118,新規,0,2025-10-21,2025-10-21,株式会社ナビガーレパートナーズ,,株式会社,愛知県,名古屋市東区,白壁１丁目４５番地白壁ビル６０７号室,,23,102,4610011,,,,,,,2025-10-21,1,,,,,ナビガーレパートナーズ,0
1703,6180001169200,新規,0,2025-10-21,2025-10-21,エヌエム株式会社,,株式会社,愛知県,名古屋市昭和区,川名山町９３番地３３,,23,107,4660827,,,,,,,2025-10-21,1,,,,,エヌエム,0
1712,6190003005229,新規,0,2025-10-21,2025-10-21,合同会社ビジネスゲート,,合同会社,三重県,員弁郡東員町,大字大木２５９５‐７,,24,324,5110244,,,,,,,2025-10-21,1,,,,,ビジネスゲート,0
1719,6220003004144,新規,0,2025-10-21,2025-10-21,Ｋ‐２合同会社,,合同会社,石川県,野々市市,押野４丁目１９７番地１,,17,212,9218802,,,,,,,2025-10-21,1,,,,,ケーツー,0
1727,6240001065673,新規,0,2025-10-21,2025-10-21,株式会社ＳｔａｙＧｏｌｄ,,株式会社,広島県,府中市,出口町３５４番地１,,34,208,7260032,,,,,,,2025-10-21,1,,,,,ステイゴールド,0
1730,6240003007450,新規,0,2025-10-21,2025-10-21,ＯＮ　ＴＨＥ　ＲＯＡＤ江田島合同会社,,合同会社,広島県,江田島市,能美町鹿川１９８５番地１,,34,215,7372302,,,,,,,2025-10-21,1,,,,,オンザロードエタジマ,0
1733,6250003003829,新規,0,2025-10-21,2025-10-21,合同会社ベテルギウス,,合同会社,山口県,山陽小野田市,大字小野田４０３８番地１,,35,216,7560817,,,,,,,2025-10-21,1,,,,,ベテルギウス,0
1747,6290001111679,新規,0,2025-10-21,2025-10-21,株式会社エイト,,株式会社,福岡県,福岡市博多区,中洲２丁目８番１９－２１０号,,40,132,8100801,,,,,,,2025-10-21,1,,,,,エイト,0
1748,6290001111704,新規,0,2025-10-21,2025-10-21,株式会社深町左建,,株式会社,福岡県,久留米市,北野町今山２８０番地２,,40,203,8301122,,,,,,,2025-10-21,1,,,,,フカマチサケン,0
1749,6290001111786,新規,0,2025-10-21,2025-10-21,株式会社こにこに商会,,株式会社,福岡県,福岡市博多区,東平尾２丁目１３番４号,,40,132,8120853,,,,,,,2025-10-21,1,,,,,コニコニショウカイ,0
1750,6290001111803,新規,0,2025-10-21,2025-10-21,株式会社相談役,,株式会社,福岡県,春日市,泉２丁目２９,,40,218,8160853,,,,,,,2025-10-21,1,,,,,,0
1751,6290001111828,新規,0,2025-10-21,2025-10-21,株式会社楽商事,,株式会社,福岡県,福岡市南区,大橋２丁目２４番２５－２０６号,,40,134,8150033,,,,,,,2025-10-21,1,,,,,ラクショウジ,0
1758,6290801031952,新規,0,2025-10-21,2025-10-21,株式会社ＲＩＶ　ＳＯＵＲＣＥ,,株式会社,福岡県,北九州市門司区,原町別院１７－１８－６０２,,40,101,8000037,,,,,,,2025-10-21,1,,,,,リブソース,0
1759,6290801031960,新規,0,2025-10-21,2025-10-21,株式会社那須自動車,,株式会社,福岡県,北九州市八幡西区,本城東４丁目４番２２号,,40,109,8070815,,,,,,,2025-10-21,1,,,,,ナスジドウシャ,0
1763,6310001019829,新規,0,2025-10-21,2025-10-21,株式会社Ｓｔａｐｌｅ長崎,,株式会社,長崎県,長崎市,五島町５－３４－１－Ａ,,42,201,8500036,,,,,,,2025-10-21,1,,,,,ステープルナガサキ,0
1766,6330001033679,新規,0,2025-10-21,2025-10-21,株式会社Ｅｎｔｏｐ,,株式会社,熊本県,熊本市中央区,上通町４番１８号イノウエＮｏ．３ビル４階,,43,101,8600845,,,,,,,2025-10-21,1,,,,,エントップ,0
1773,6350005006340,新規,0,2025-10-21,2025-10-21,無限責任曽木下組負債整理組合,,その他の設立登記法人,宮崎県,延岡市,,,45,203,8820000,,,,,,,2025-10-21,1,,,,,,0
1778,6360001035929,新規,0,2025-10-21,2025-10-21,株式会社ＴＡＭＡ,,株式会社,沖縄県,石垣市,字真栄里５２９番地２,,47,207,9070002,,,,,,,2025-10-21,1,,,,,タマ,0
1779,6360001035937,新規,0,2025-10-21,2025-10-21,株式会社龍工業,,株式会社,沖縄県,石垣市,字登野城１２４８番地１３,,47,207,9070004,,,,,,,2025-10-21,1,,,,,リュウコウギョウ,0
1782,6360003015350,新規,0,2025-10-21,2025-10-21,Ｓｏｂａｒ　Ｏｋｉｎａｗａ合同会社,,合同会社,沖縄県,沖縄市,中央１丁目３６番１１号玉城ビル１階,,47,211,9040004,,,,,,,2025-10-21,1,,,,,ソバーオキナワ,0
1784,6370003007330,新規,0,2025-10-21,2025-10-21,合同会社ＢＡＢＡ’Ｓ,,合同会社,宮城県,仙台市宮城野区,二十人町３０８－６,,04,102,9830862,,,,,,,2025-10-21,1,,,,,ババズ,0
1787,6380001035654,新規,0,2025-10-21,2025-10-21,会津発酵珈琲株式会社,,株式会社,福島県,双葉郡大熊町,大字下野上字清水２３０,,07,545,9791308,,,,,,,2025-10-21,1,,,,,アイヅハッコウコーヒー,0
1791,6430001095511,新規,0,2025-10-21,2025-10-21,株式会社ミレイ,,株式会社,北海道,札幌市東区,東雁来七条１丁目１５番１号ＥａｓｔＶｉｌｌａｇｅＣ号,,01,103,0070827,,,,,,,2025-10-21,1,,,,,ミレイ,0
1809,7010001259512,新規,0,2025-10-21,2025-10-21,株式会社ちゃんとしたお葬式,,株式会社,東京都,千代田区,神田和泉町１番地６－１６ヤマトビル４０５,,13,101,1010024,,,,,,,2025-10-21,1,,,,,チャントシタオソウシキ,0
1810,7010001259561,新規,0,2025-10-21,2025-10-21,株式会社ＫＭネクサス,,株式会社,東京都,中央区,銀座８丁目６番２０号銀座八番館ビル５階ＢＣ室,,13,102,1040061,,,,,,,2025-10-21,1,,,,,ケーエムネクサス,0
1814,7010003049069,新規,0,2025-10-21,2025-10-21,ＰｗＣ　Ｈｏｌｄｉｎｇｓ　Ｊａｐａｎ　Ｎｏ．１１合同会社,,合同会社,東京都,千代田区,大手町１丁目１番１号,,13,101,1000004,,,,,,,2025-10-21,1,,,,,ピーダブリューシーホールディングスジャパンナンバーイレブン,0
1815,7010003049085,新規,0,2025-10-21,2025-10-21,合同会社社外の同期,,合同会社,東京都,千代田区,神田神保町２丁目３番地神田古書センタービル６階,,13,101,1010051,,,,,,,2025-10-21,1,,,,,シャガイノドウキ,0
1816,7010003049119,新規,0,2025-10-21,2025-10-21,ＷＡＫＵＲＡ合同会社,,合同会社,東京都,中央区,日本橋室町１丁目１１番１２号日本橋水野ビル７階,,13,102,1030022,,,,,,,2025-10-21,1,,,,,ワクラ,0
1818,7010005040802,新規,0,2025-10-21,2025-10-21,一般社団法人中日康復協会,,その他の設立登記法人,東京都,千代田区,岩本町２丁目１９番４号楽途ビル１階,,13,101,1010032,,,,,,,2025-10-21,1,,,,,チュウニチコウフクキョウカイ,0
1827,7010401193848,新規,0,2025-10-21,2025-10-21,株式会社ＤｅａｌＱｕｅｓｔ,,株式会社,東京都,港区,赤坂１丁目５番１２号第二虎ノ門ビル,,13,103,1070052,,,,,,,2025-10-21,1,,,,,ディールクエスト,0
1835,7010501054909,新規,0,2025-10-21,2025-10-21,株式会社ＳＵＭＩＴＳＵＢＯ　ＡＩ,,株式会社,東京都,台東区,東上野３丁目３２番１号大丸ビル５階,,13,106,1100015,,,,,,,2025-10-21,1,,,,,スミツボエーアイ,0
1837,7010503008045,新規,0,2025-10-21,2025-10-21,合同会社ＮＡＧＩ,,合同会社,東京都,台東区,東上野３丁目１５番１３号大成商会ビル１階,,13,106,1100015,,,,,,,2025-10-21,1,,,,,ナギ,0
1842,7010805003215,新規,0,2025-10-21,2025-10-21,一般社団法人清明会,,その他の設立登記法人,東京都,大田区,蒲田５丁目２４番４号Ｎｏ．Ｒ蒲田９階,,13,111,1440052,,,,,,,2025-10-21,1,,,,,セイメイカイ,0
1850,7010903010336,新規,0,2025-10-21,2025-10-21,合同会社会計アラート,,合同会社,東京都,世田谷区,北烏山６丁目１１番３－２００５号,,13,112,1570061,,,,,,,2025-10-21,1,,,,,カイケイアラート,0
1855,7011001172911,新規,0,2025-10-21,2025-10-21,株式会社ＳＨＯＨＥＩ　ＣＯＬＬＥＣＴＩＯＮ,,株式会社,東京都,渋谷区,神宮前３丁目２５番１８号ＴＨＥＳＨＡＲＥ６０３,,13,113,1500001,,,,,,,2025-10-21,1,,,,,ショウヘイコレクション,0
1864,7011103016529,新規,0,2025-10-21,2025-10-21,合同会社ピュアレジャー９,,合同会社,東京都,新宿区,四谷２丁目９番地１５東京ユナイテッド綜合事務所内,,13,104,1600004,,,,,,,2025-10-21,1,,,,,ピュアレジャーナイン,0
1873,7011501032706,新規,0,2025-10-21,2025-10-21,本澤商事株式会社,,株式会社,東京都,北区,豊島８丁目１５番４－３０４号バームステージ王子神谷,,13,117,1140003,,,,,,,2025-10-21,1,,,,,モトザワショウジ,0
1874,7011501032722,新規,0,2025-10-21,2025-10-21,伍万株式会社,,株式会社,東京都,北区,田端新町１丁目７番１４－３０１号,,13,117,1140012,,,,,,,2025-10-21,1,,,,,ゴマン,0
1875,7011501032739,新規,0,2025-10-21,2025-10-21,株式会社ＷＡＬＤＬＵＳＴ,,株式会社,東京都,北区,田端１丁目２０番２０－３０３号,,13,117,1140014,,,,,,,2025-10-21,1,,,,,ヴァルトルスト,0
1876,7011503006740,新規,0,2025-10-21,2025-10-21,カケアガリ合同会社,,合同会社,東京都,北区,岸町２丁目９‐１５,,13,117,1140021,,,,,,,2025-10-21,1,,,,,カケアガリ,0
1877,7011601029081,新規,0,2025-10-21,2025-10-21,恒宸株式会社,,株式会社,東京都,練馬区,春日町６丁目１６番１１号フォーチュン光が丘２６７号室,,13,120,1790074,,,,,,,2025-10-21,1,,,,,コウシン,0
1885,7012701019146,新規,0,2025-10-21,2025-10-21,株式会社ＳＯＵ製作所,,株式会社,東京都,小平市,花小金井３丁目８－１,,13,211,1870002,,,,,,,2025-10-21,1,,,,,ソウセイサクショ,0
1887,7013101009836,新規,0,2025-10-21,2025-10-21,東京セントラル検測株式会社,,株式会社,東京都,福生市,大字福生２１６２－４アーバンヒルズ福生２０５号室,,13,218,1970011,,,,,,,2025-10-21,1,,,,,トウキョウセントラルケンソク,0
1892,7020001165057,新規,0,2025-10-21,2025-10-21,株式会社関内新聞社,,株式会社,神奈川県,横浜市中区,尾上町４丁目５７,,14,104,2310015,,,,,,,2025-10-21,1,,,,,カンナイシンブンシャ,0
1893,7020001165073,新規,0,2025-10-21,2025-10-21,Ｆｏｒｅｖｅｒ　Ａｍｕｓｅｍｅｎｔ株式会社,,株式会社,神奈川県,川崎市多摩区,東生田１丁目９番３３号,,14,135,2140031,,,,,,,2025-10-21,1,,,,,フォーエバーアミューズメント,0
1894,7020001165271,新規,0,2025-10-21,2025-10-21,株式会社アルイエヌ,,株式会社,神奈川県,川崎市中原区,小杉町３丁目６００番コスギサードアヴェニュー１～２Ｆ,,14,133,2110063,,,,,,,2025-10-21,1,,,,,アルイエヌ,0
1895,7020001165395,新規,0,2025-10-21,2025-10-21,株式会社ジェイブロック,,株式会社,神奈川県,横浜市西区,北幸２丁目１０番地２８むつみビル３階,,14,103,2200004,,,,,,,2025-10-21,1,,,,,ジェイブロック,0
1901,7021001086607,新規,0,2025-10-21,2025-10-21,株式会社Ｌｉｆｅ健窓,,株式会社,神奈川県,伊勢原市,上粕屋３２４３番地の２,,14,214,2591141,,,,,,,2025-10-21,1,,,,,ライフケンソウ,0
1902,7021001086615,新規,0,2025-10-21,2025-10-21,株式会社ハヤテコーポレーション,,株式会社,神奈川県,相模原市中央区,上溝２４８２番地,,14,152,2520243,,,,,,,2025-10-21,1,,,,,ハヤテコーポレーション,0
1903,7021003016719,新規,0,2025-10-21,2025-10-21,Ｓ４合同会社,,合同会社,神奈川県,藤沢市,辻堂１丁目４番１０号キーウエスト湘南２階,,14,205,2510047,,,,,,,2025-10-21,1,,,,,エスフォー,0
1904,7021003016727,新規,0,2025-10-21,2025-10-21,合同会社Ｇａｆｕ,,合同会社,神奈川県,中郡大磯町,東小磯６６１－６１,,14,341,2550004,,,,,,,2025-10-21,1,,,,,ガフ,0
1910,7030001169296,新規,0,2025-10-21,2025-10-21,株式会社みちしるべコンサルティング,,株式会社,埼玉県,越谷市,南越谷１丁目１５－１南越谷ラクーン４Ｆ,,11,222,3430845,,,,,,,2025-10-21,1,,,,,ミチシルベコンサルティング,0
1915,7040001140958,新規,0,2025-10-21,2025-10-21,株式会社Ｄガレージ,,株式会社,千葉県,市川市,若宮３丁目４３番１１号,,12,203,2720812,,,,,,,2025-10-21,1,,,,,ディーガレージ,0
1916,7040001141122,新規,0,2025-10-21,2025-10-21,徳邦貿易株式会社,,株式会社,千葉県,千葉市中央区,東千葉１丁目１３－１祥和ビル２０１号室,,12,101,2600041,,,,,,,2025-10-21,1,,,,,トクホウボウエキ,0
1921,7050001057458,新規,0,2025-10-21,2025-10-21,株式会社Ｂｅ　Ｌｕｍｉｎａ,,株式会社,茨城県,坂東市,長谷７１８番地２４,,08,228,3060642,,,,,,,2025-10-21,1,,,,,ビールミナ,0
1922,7050001057474,新規,0,2025-10-21,2025-10-21,株式会社Ｃａｄｅｅｔｈ．Ｌａｂ,,株式会社,茨城県,日立市,田尻町１丁目３１番１６号,,08,202,3191416,,,,,,,2025-10-21,1,,,,,キャディースラボ,0
1926,7060001038696,新規,0,2025-10-21,2025-10-21,株式会社力貴庵,,株式会社,栃木県,鹿沼市,上永野７６６番地４,,09,205,3280211,,,,,,,2025-10-21,1,,,,,リキアン,0
1933,7070003006155,新規,0,2025-10-21,2025-10-21,ＡＳＡＤ　ＴＲＡＤＩＮＧ合同会社,,合同会社,群馬県,邑楽郡邑楽町,大字赤堀４０３５番地２階、番号５,,10,525,3700614,,,,,,,2025-10-21,1,,,,,アサドトレーディング,0
1936,7100001039054,新規,0,2025-10-21,2025-10-21,株式会社ＬＯＵＤｃｏｎｎｅｃｔｉｏｎ,,株式会社,長野県,安曇野市,堀金烏川１２５９番地９,,20,220,3998211,,,,,,,2025-10-21,1,,,,,ラウドコネクション,0
1940,7110001039656,新規,0,2025-10-21,2025-10-21,株式会社せきや,,株式会社,新潟県,長岡市,岩田２９９０番地１,,15,202,9495415,,,,,,,2025-10-21,1,,,,,セキヤ,0
1941,7110003005929,新規,0,2025-10-21,2025-10-21,Ａｌｌ　Ｇｏｏｄ　Ｇｅｎｅ’ｓ合同会社,,合同会社,新潟県,南魚沼市,寺尾１４９４番地３－３号室,,15,226,9497104,,,,,,,2025-10-21,1,,,,,オールグッドジーンズ,0
1953,7120001280878,新規,0,2025-10-21,2025-10-21,株式会社ＵＭＡＳＯＵ,,株式会社,大阪府,大阪市北区,太融寺町２－２１ニュープラザビルＢ１,,27,127,5300051,,,,,,,2025-10-21,1,,,,,ウマソウ,0
1954,7120001281109,新規,0,2025-10-21,2025-10-21,ＣＸ株式会社,,株式会社,大阪府,大阪市都島区,都島中通１丁目１６－１５－２０２ミリオンハウス,,27,102,5340022,,,,,,,2025-10-21,1,,,,,シーエックス,0
1955,7120001281199,新規,0,2025-10-21,2025-10-21,株式会社ＭｏｏｎＢｏｗ,,株式会社,大阪府,大阪市中央区,玉造２丁目２６番６９号,,27,128,5400004,,,,,,,2025-10-21,1,,,,,ムーンボウ,0
1956,7120001281224,新規,0,2025-10-21,2025-10-21,株式会社森電不動産,,株式会社,大阪府,大阪市天王寺区,小橋町２－２４森善ビル２階,,27,109,5430028,,,,,,,2025-10-21,1,,,,,モリデンフドウサン,0
1957,7120001281298,新規,0,2025-10-21,2025-10-21,国際福祉ラボ株式会社,,株式会社,大阪府,大阪市大正区,三軒家東４丁目１１番５号,,27,108,5510002,,,,,,,2025-10-21,1,,,,,コクサイフクシラボ,0
1959,7120003031024,新規,0,2025-10-21,2025-10-21,合同会社ＹＵＩＮＯＷＡ,,合同会社,大阪府,大阪市此花区,梅香１丁目１１番８－３号,,27,104,5540013,,,,,,,2025-10-21,1,,,,,ユイノワ,0
1960,7120003031032,新規,0,2025-10-21,2025-10-21,ＴＥＮＫＵ　Ｊａｐａｎ合同会社,,合同会社,大阪府,大阪市住之江区,南港北２丁目１番１０号,,27,125,5590034,,,,,,,2025-10-21,1,,,,,テンクウジャパン,0
1965,7120101072655,新規,0,2025-10-21,2025-10-21,道常株式会社,,株式会社,大阪府,堺市北区,南花田町４１７番３－２２８号,,27,146,5918011,,,,,,,2025-10-21,1,,,,,ドウジョウ,0
1966,7120101072663,新規,0,2025-10-21,2025-10-21,株式会社ＩＤＥＡＡＰＰＥＡＬ‐ＺＡＮＴ,,株式会社,大阪府,堺市北区,常磐町３丁１１番地５ふぁみーゆ堺２０６号,,27,146,5918001,,,,,,,2025-10-21,1,,,,,イデアアピールザント,0
1972,7120901051610,新規,0,2025-10-21,2025-10-21,ＣｏｍｍｅｒｃｅＸホールディングス株式会社,,株式会社,大阪府,吹田市,豊津町９番２２号,,27,205,5640051,,,,,,,2025-10-21,1,,,,,コマースエックスホールディングス,0
1986,7140001140452,新規,0,2025-10-21,2025-10-21,株式会社叶夢,,株式会社,兵庫県,神戸市北区,松宮台２丁目１６番地の３,,28,109,6511147,,,,,,,2025-10-21,1,,,,,カナウ,0
1990,7160001027160,新規,0,2025-10-21,2025-10-21,ＯＸＹファーム令樹株式会社,,株式会社,滋賀県,近江八幡市,加茂町３３２７－１,,25,204,5230058,,,,,,,2025-10-21,1,,,,,オキシーファームレイジュ,0
2000,7180001169075,新規,0,2025-10-21,2025-10-21,ＴＲｒｅｔｒａｄｉｎｇ株式会社,,株式会社,愛知県,名古屋市中区,丸の内１丁目９番２７号,,23,106,4600002,,,,,,,2025-10-21,1,,,,,ティーアールリトレーディング,0
2004,7180003029194,新規,0,2025-10-21,2025-10-21,合同会社三本製造,,合同会社,愛知県,名古屋市昭和区,御器所２丁目６番３号,,23,107,4660051,,,,,,,2025-10-21,1,,,,,ミツモトセイゾウ,0
2005,7180003029269,新規,0,2025-10-21,2025-10-21,合同会社Ｒプラネット,,合同会社,愛知県,海部郡大治町,大字西條字南屋敷１０６番地の４,,23,424,4901144,,,,,,,2025-10-21,1,,,,,アールプラネット,0
2007,7180005021273,新規,0,2025-10-21,2025-10-21,一般社団法人ベルカント,,その他の設立登記法人,愛知県,名古屋市中区,丸の内２丁目１６番２３号,,23,106,4600002,,,,,,,2025-10-21,1,,,,,ベルカント,0
2010,7180301040340,新規,0,2025-10-21,2025-10-21,株式会社福ＧＥＯＮ,,株式会社,愛知県,知立市,南陽２丁目１２７番地,,23,225,4720004,,,,,,,2025-10-21,1,,,,,フクゲオン,0
2020,7220005009009,新規,0,2025-10-21,2025-10-21,特定非営利活動法人地球環境を守る会,,その他の設立登記法人,石川県,羽咋郡宝達志水町,聖川へ５８番地１,,17,386,9291405,,,,,,,2025-10-21,1,,,,,チキュウカンキョウヲマモルカイトクテイ,0
2024,7240001065680,新規,0,2025-10-21,2025-10-21,株式会社アンビジョナリー,,株式会社,広島県,東広島市,黒瀬町丸山１１７４－１,,34,212,7392612,,,,,,,2025-10-21,1,,,,,アンビジョナリー,0
2029,7280003002001,新規,0,2025-10-21,2025-10-21,合同会社ビルドアップ,,合同会社,島根県,松江市,淞北台２５番２３号,,32,201,6900868,,,,,,,2025-10-21,1,,,,,ビルドアップ,0
2037,7290001111728,新規,0,2025-10-21,2025-10-21,浪花電工株式会社,,株式会社,福岡県,福岡市早良区,干隈３丁目１４番８－３０５号,,40,137,8140163,,,,,,,2025-10-21,1,,,,,,0
2038,7290001111752,新規,0,2025-10-21,2025-10-21,株式会社ＦＯＯＴＤＥＬＬ,,株式会社,福岡県,八女市,立花町白木３２８番地,,40,210,8340084,,,,,,,2025-10-21,1,,,,,フットデル,0
2039,7290001111777,新規,0,2025-10-21,2025-10-21,株式会社リアウェル,,株式会社,福岡県,久留米市,天神町一丁目１米城ビル９Ｆ,,40,203,8300033,,,,,,,2025-10-21,1,,,,,リアウェル,0
2040,7290001111901,新規,0,2025-10-21,2025-10-21,株式会社ＡＳＫ,,株式会社,福岡県,筑紫野市,大字若江６９５番地,,40,217,8180023,,,,,,,2025-10-21,1,,,,,アスク,0
2044,7290003017568,新規,0,2025-10-21,2025-10-21,合同会社ｔｅｎｄｅｒ　ｔｏｕｃｈ,,合同会社,福岡県,福岡市中央区,天神２丁目２番１２号Ｔ＆Ｊビルディング７Ｆ,,40,133,8100001,,,,,,,2025-10-21,1,,,,,テンダータッチ,0
2045,7290003017576,新規,0,2025-10-21,2025-10-21,ＮｗａｙＯｏ合同会社,,合同会社,福岡県,久留米市,津福本町１４６２番地ハイカムール山本３０５号,,40,203,8300047,,,,,,,2025-10-21,1,,,,,ヌウェイウー,0
2046,7300003002361,新規,0,2025-10-21,2025-10-21,合同会社レオノア,,合同会社,佐賀県,武雄市,武雄町大字永島１３８１２番地１,,41,206,8430021,,,,,,,2025-10-21,1,,,,,レオノア,0
2063,7370003007346,新規,0,2025-10-21,2025-10-21,合同会社小野寺総合事務所,,合同会社,宮城県,仙台市太白区,八木山本町２丁目２７番地の８,,04,104,9820801,,,,,,,2025-10-21,1,,,,,オノデラソウゴウジムショ,0
2085,7480005007110,新規,0,2025-10-21,2025-10-21,フードソリューション吉野川協同組合,,その他の設立登記法人,徳島県,吉野川市,鴨島町鴨島字神島４８４番地２９号,,36,205,7760010,,,,,,,2025-10-21,1,,,,,フードソリューションヨシノガワ,0
2089,7500003003620,新規,0,2025-10-21,2025-10-21,合同会社ＳＫＣ,,合同会社,愛媛県,松山市,北久米町４３６－１久米コンセールマンション３０２,,38,201,7900923,,,,,,,2025-10-21,1,,,,,エスケーシー,0
2103,8010001259395,新規,0,2025-10-21,2025-10-21,株式会社ペンギンウェディング,,株式会社,東京都,中央区,銀座１丁目１２番４号Ｎ＆ＥＢＬＤ．７階,,13,102,1040061,,,,,,,2025-10-21,1,,,,,ペンギンウェディング,0
2104,8010001259429,新規,0,2025-10-21,2025-10-21,株式会社Ｅｖｏａ,,株式会社,東京都,千代田区,神田須田町１丁目７番８号ＶＯＲＴ秋葉原ＩＶ２Ｆ,,13,101,1010041,,,,,,,2025-10-21,1,,,,,エヴォア,0
2105,8010001259560,新規,0,2025-10-21,2025-10-21,株式会社ＨＵＭＥＮＡ,,株式会社,東京都,中央区,日本橋室町１丁目１１番１２号日本橋水野ビル７階,,13,102,1030022,,,,,,,2025-10-21,1,,,,,ヒューメナ,0
2107,8010003049068,新規,0,2025-10-21,2025-10-21,ケイバイエム合同会社,,合同会社,東京都,中央区,銀座１丁目１２番４号Ｎ＆ＥＢＬＤ．６Ｆ,,13,102,1040061,,,,,,,2025-10-21,1,,,,,ケイバイエム,0
2113,8010401193624,新規,0,2025-10-21,2025-10-21,ジュリステック株式会社,,株式会社,東京都,港区,西麻布１丁目２番地１３デュオ・スカーラ西麻布タワーＣＥＮＴＲＡＬ２０１号室,,13,103,1060031,,,,,,,2025-10-21,1,,,,,ジュリステック,0
2114,8010401193789,新規,0,2025-10-21,2025-10-21,ＥＬＥＣＴ　Ｄｅｓｉｇｎ株式会社,,株式会社,東京都,港区,北青山１丁目３－３三橋ビル３階,,13,103,1070061,,,,,,,2025-10-21,1,,,,,エレクトデザイン,0
2115,8010401193814,新規,0,2025-10-21,2025-10-21,ｋｏｋｏ　ｔｉｐ株式会社,,株式会社,東京都,港区,南青山３丁目１番３６号青山丸竹ビル６Ｆ,,13,103,1070062,,,,,,,2025-10-21,1,,,,,ココチップ,0
2116,8010401193871,新規,0,2025-10-21,2025-10-21,Ｒｅｖｏｌｕｔフィナンシャルホールディングス株式会社,,株式会社,東京都,港区,六本木１丁目４番５号アークヒルズサウスタワー,,13,103,1060032,,,,,,,2025-10-21,1,,,,,レボリュートフィナンシャルホールディングス,0
2119,8010405024800,新規,0,2025-10-21,2025-10-21,一般社団法人日本不動産エージェント協会,,その他の設立登記法人,東京都,港区,虎ノ門２丁目２番１号,,13,103,1050001,,,,,,,2025-10-21,1,,,,,ニホンフドウサンエージェントキョウカイ,0
2120,8010601068122,新規,0,2025-10-21,2025-10-21,中点電子株式会社,,株式会社,東京都,江東区,北砂６丁目６番１４号,,13,108,1360073,,,,,,,2025-10-21,1,,,,,チュウテンデンシ,0
2125,8010901058269,新規,0,2025-10-21,2025-10-21,株式会社永楽アスレス,,株式会社,東京都,世田谷区,宮坂３丁目１２－５タケベビル１階Ｂ区画,,13,112,1560051,,,,,,,2025-10-21,1,,,,,エイラクアスレス,0
2126,8010901058285,新規,0,2025-10-21,2025-10-21,株式会社ｃａｎｎａ,,株式会社,東京都,世田谷区,下馬６丁目３２番１８号,,13,112,1540002,,,,,,,2025-10-21,1,,,,,カンナ,0
2129,8010903010335,新規,0,2025-10-21,2025-10-21,合同会社ＳｕｇａｒＢａｎｋ,,合同会社,東京都,世田谷区,東玉川２丁目２－７,,13,112,1580084,,,,,,,2025-10-21,1,,,,,シュガーバンク,0
2135,8011001172596,新規,0,2025-10-21,2025-10-21,エムワイホールディングス株式会社,,株式会社,東京都,渋谷区,元代々木町２７番１４号,,13,113,1510062,,,,,,,2025-10-21,1,,,,,エムワイホールディングス,0
2136,8011001172729,新規,0,2025-10-21,2025-10-21,株式会社楽花,,株式会社,東京都,渋谷区,広尾１丁目２番地１号ヒカリビル４階,,13,113,1500012,,,,,,,2025-10-21,1,,,,,ラッカ,0
2137,8011001172885,新規,0,2025-10-21,2025-10-21,株式会社クロスアドバンス,,株式会社,東京都,渋谷区,道玄坂１丁目１０－８渋谷道玄坂東急ビル２Ｆ－Ｃ,,13,113,1500043,,,,,,,2025-10-21,1,,,,,クロスアドバンス,0
2141,8011003022320,新規,0,2025-10-21,2025-10-21,合同会社ホライゾン,,合同会社,東京都,渋谷区,恵比寿西２丁目４－８ウインド恵比寿ビル８Ｆ,,13,113,1500021,,,,,,,2025-10-21,1,,,,,ホライゾン,0
2148,8011103016528,新規,0,2025-10-21,2025-10-21,合同会社ピュアレジャー８,,合同会社,東京都,新宿区,四谷２丁目９番地１５東京ユナイテッド綜合事務所内,,13,104,1600004,,,,,,,2025-10-21,1,,,,,ピュアレジャーエイト,0
2149,8011301014589,新規,0,2025-10-21,2025-10-21,株式会社日本ゼビオ,,株式会社,東京都,杉並区,荻窪５丁目３０番１２号,,13,115,1670051,,,,,,,2025-10-21,1,,,,,,0
2154,8011601029106,新規,0,2025-10-21,2025-10-21,株式会社結,,株式会社,東京都,練馬区,春日町３丁目３４番８号,,13,120,1790074,,,,,,,2025-10-21,1,,,,,ユイ,0
2156,8011701028866,新規,0,2025-10-21,2025-10-21,株式会社ＴＥＲＲＡＣＥＡ,,株式会社,東京都,江戸川区,西瑞江４丁目２１番１号,,13,123,1340015,,,,,,,2025-10-21,1,,,,,テラシア,0
2157,8011701028874,新規,0,2025-10-21,2025-10-21,ヤマトジャパン株式会社,,株式会社,東京都,江戸川区,西葛西６丁目１５番１１号シンエイ第９西葛西マンション４階４０６号室,,13,123,1340088,,,,,,,2025-10-21,1,,,,,ヤマトジャパン,0
2158,8011703004428,新規,0,2025-10-21,2025-10-21,合同会社３２５,,合同会社,東京都,江戸川区,松島３丁目４０番４－６０１号ロイヤル第一マンション,,13,123,1320031,,,,,,,2025-10-21,1,,,,,サンニイゴ,0
2172,8013301055159,新規,0,2025-10-21,2025-10-21,株式会社４４Ｄ,,株式会社,東京都,豊島区,池袋本町３丁目１０番１０号ユニバース池袋１Ｆ,,13,116,1700011,,,,,,,2025-10-21,1,,,,,フォーフォーディー,0
2183,8020001165428,新規,0,2025-10-21,2025-10-21,株式会社騰祥,,株式会社,神奈川県,横浜市南区,共進町１丁目２７番地２ラフィネステージ横濱蒔田２０２,,14,105,2320015,,,,,,,2025-10-21,1,,,,,トウショウ,0
2186,8020003029481,新規,0,2025-10-21,2025-10-21,合同会社日章丸,,合同会社,神奈川県,横浜市瀬谷区,瀬谷４丁目１１番５１号,,14,114,2460031,,,,,,,2025-10-21,1,,,,,ニッショウマル,0
2187,8020003029671,新規,0,2025-10-21,2025-10-21,合同会社Ｍａｒｋｏｖ,,合同会社,神奈川県,川崎市多摩区,中野島１丁目１９番１５－１０７号,,14,135,2140012,,,,,,,2025-10-21,1,,,,,マルコフ,0
2189,8021001086606,新規,0,2025-10-21,2025-10-21,株式会社メビローズ,,株式会社,神奈川県,大和市,西鶴間２丁目１１番１８号,,14,213,2420005,,,,,,,2025-10-21,1,,,,,メビローズ,0
2190,8021001086614,新規,0,2025-10-21,2025-10-21,株式会社Ｕフィット,,株式会社,神奈川県,鎌倉市,鎌倉山１丁目２８番４９号,,14,204,2480031,,,,,,,2025-10-21,1,,,,,ユーフィット,0
2191,8021001086622,新規,0,2025-10-21,2025-10-21,株式会社ダイシン,,株式会社,神奈川県,平塚市,北金目２丁目１０番１３号プリエールＢ,,14,203,2591207,,,,,,,2025-10-21,1,,,,,ダイシン,0
2196,8021003016726,新規,0,2025-10-21,2025-10-21,隼ＣＯＭＰＡＮＹ合同会社,,合同会社,神奈川県,相模原市南区,松が枝町１６－１２－７０４,,14,153,2520313,,,,,,,2025-10-21,1,,,,,ハヤブサカンパニー,0
2200,8030001169279,新規,0,2025-10-21,2025-10-21,株式会社ＳＨｉＨＯＵ,,株式会社,埼玉県,吉川市,きよみ野４丁目１番地６,,11,243,3420058,,,,,,,2025-10-21,1,,,,,シンホウ,0
2201,8030001169320,新規,0,2025-10-21,2025-10-21,株式会社人の和輪,,株式会社,埼玉県,新座市,片山３丁目９－２－５,,11,230,3520025,,,,,,,2025-10-21,1,,,,,ヒトノワニ,0
2204,8030003027889,新規,0,2025-10-21,2025-10-21,合同会社花神堂,,合同会社,埼玉県,入間市,小谷田３丁目６番２０号,,11,225,3580026,,,,,,,2025-10-21,1,,,,,カシンドウ,0
2209,8040001140957,新規,0,2025-10-21,2025-10-21,株式会社みねごはん,,株式会社,千葉県,市川市,須和田１丁目１０番３号,,12,203,2720825,,,,,,,2025-10-21,1,,,,,ミネゴハン,0
2210,8040001140998,新規,0,2025-10-21,2025-10-21,吉田ホールディングス株式会社,,株式会社,千葉県,千葉市中央区,都町８丁目５番５６号,,12,101,2600001,,,,,,,2025-10-21,1,,,,,ヨシダホールディングス,0
2211,8040001141030,新規,0,2025-10-21,2025-10-21,株式会社ＮＯＭＡＤ,,株式会社,千葉県,市原市,五井東１丁目４番４－１０３号,,12,219,2900055,,,,,,,2025-10-21,1,,,,,ノマド,0
2216,8040003028688,新規,0,2025-10-21,2025-10-21,合同会社ＡＤ,,合同会社,千葉県,君津市,長石５３１番地１,,12,225,2921143,,,,,,,2025-10-21,1,,,,,エーディー,0
2221,8050001057465,新規,0,2025-10-21,2025-10-21,株式会社ラジャトレーディング,,株式会社,茨城県,稲敷郡阿見町,大字島津３０４８番地３,,08,443,3000311,,,,,,,2025-10-21,1,,,,,ラジャトレーディング,0
2222,8050001057473,新規,0,2025-10-21,2025-10-21,株式会社ＰＲＩＭＥＣＲＥＷ,,株式会社,茨城県,常総市,新石下１３５３番地１２,,08,211,3002706,,,,,,,2025-10-21,1,,,,,プライムクルー,0
2223,8050001057481,新規,0,2025-10-21,2025-10-21,株式会社ＯＮＣＥ,,株式会社,茨城県,水戸市,大工町１丁目６番１号ベルスポットビル３Ｆ３０１,,08,201,3100031,,,,,,,2025-10-21,1,,,,,ワンス,0
2227,8060001038695,新規,0,2025-10-21,2025-10-21,株式会社フィグ,,株式会社,栃木県,足利市,大町３番地５,,09,202,3260056,,,,,,,2025-10-21,1,,,,,フィグ,0
2236,8080401028229,新規,0,2025-10-21,2025-10-21,株式会社阿古屋製パン,,株式会社,静岡県,浜松市中央区,広沢３丁目７番６号,,22,138,4328013,,,,,,,2025-10-21,1,,,,,アコヤセイパン,0
2237,8090001019569,新規,0,2025-10-21,2025-10-21,株式会社Ｌｉｇｈｔ,,株式会社,山梨県,甲府市,国玉町６０８番地５,,19,201,4000815,,,,,,,2025-10-21,1,,,,,ライト,0
2238,8100001039061,新規,0,2025-10-21,2025-10-21,株式会社二分の一歩,,株式会社,長野県,長野市,大字小島１番地２３,,20,201,3810017,,,,,,,2025-10-21,1,,,,,ニブンノイッポ,0
2240,8110001039655,新規,0,2025-10-21,2025-10-21,セントラルグリーンホールディングス株式会社,,株式会社,新潟県,新発田市,本田３４１８番地,,15,206,9592335,,,,,,,2025-10-21,1,,,,,セントラルグリーンホールディングス,0
2241,8110003005936,新規,0,2025-10-21,2025-10-21,合同会社アッドエンジェル,,合同会社,新潟県,燕市,殿島２丁目１０番４号,,15,213,9591233,,,,,,,2025-10-21,1,,,,,アッドエンジェル,0
2256,8120001280951,新規,0,2025-10-21,2025-10-21,株式会社五行都市開発,,株式会社,大阪府,大阪市中央区,今橋２丁目３－１６ＪＭＦビル今橋０１－１０Ｆ,,27,128,5410042,,,,,,,2025-10-21,1,,,,,ゴギョウトシカイハツ,0
2257,8120001281330,新規,0,2025-10-21,2025-10-21,株式会社テイネイラボ,,株式会社,大阪府,大阪市西区,北堀江３丁目６番８－３０１号,,27,106,5500014,,,,,,,2025-10-21,1,,,,,テイネイラボ,0
2258,8120001281347,新規,0,2025-10-21,2025-10-21,ＳＵＮＪＯＹ株式会社,,株式会社,大阪府,大阪市北区,天満２丁目２－１７－２０１Ａ,,27,127,5300043,,,,,,,2025-10-21,1,,,,,サンジョイ,0
2262,8120003030974,新規,0,2025-10-21,2025-10-21,ｋａｒｉｒｕｋｉｋａｋｕ合同会社,,合同会社,大阪府,大阪市平野区,瓜破２丁目７番１６号,,27,126,5470024,,,,,,,2025-10-21,1,,,,,カリルキカク,0
2263,8120003031023,新規,0,2025-10-21,2025-10-21,ＳＵＮＰＩＮアセットマネジメント合同会社,,合同会社,大阪府,大阪市中央区,南船場２丁目６－３第２ＢＳビル６０１号室,,27,128,5420081,,,,,,,2025-10-21,1,,,,,サンピンアセットマネジメント,0
2264,8120003031048,新規,0,2025-10-21,2025-10-21,ＭＮＬ　ＴＥＥＳ合同会社,,合同会社,大阪府,大阪市中央区,南本町４丁目５番７号東亜ビル５階,,27,128,5410054,,,,,,,2025-10-21,1,,,,,エムエヌエルティーズ,0
2265,8120003031080,新規,0,2025-10-21,2025-10-21,ＬＥＴＳ　ＣＯＭＰＡＮＹ合同会社,,合同会社,大阪府,大阪市北区,梅田２丁目２－２ヒルトンプラザウエスト１９Ｆ,,27,127,5300001,,,,,,,2025-10-21,1,,,,,レッツカンパニー,0
2267,8120101072654,新規,0,2025-10-21,2025-10-21,株式会社テントメディカル,,株式会社,大阪府,富田林市,加太１丁目７７０－１－７番,,27,214,5840078,,,,,,,2025-10-21,1,,,,,テントメディカル,0
2268,8120101072670,新規,0,2025-10-21,2025-10-21,株式会社Ｌｅ　Ｓｏｒａ　Ｓｐａｃｅ,,株式会社,大阪府,堺市中区,土師町２丁１番１７号,,27,142,5998238,,,,,,,2025-10-21,1,,,,,レソラスペース,0
2269,8120103006791,新規,0,2025-10-21,2025-10-21,Ｚｅｎｉｔｈ　Ｇｌｏｂａｌ合同会社,,合同会社,大阪府,堺市北区,中百舌鳥町４丁５９９番地中百舌鳥町４丁テナントビル３０６,,27,146,5918023,,,,,,,2025-10-21,1,,,,,ゼニスグローバル,0
2270,8120103006800,新規,0,2025-10-21,2025-10-21,合同会社イマガミ,,合同会社,大阪府,堺市南区,三原台２丁７番４２号,,27,145,5900111,,,,,,,2025-10-21,1,,,,,イマガミ,0
2272,8120903005919,新規,0,2025-10-21,2025-10-21,合同会社ＳｋｙＴｒｕｓｔ,,合同会社,大阪府,豊中市,本町１丁目１２番２８－７０３号,,27,203,5600021,,,,,,,2025-10-21,1,,,,,スカイトラスト,0
2280,8140001140393,新規,0,2025-10-21,2025-10-21,株式会社エムアンドエム企画,,株式会社,兵庫県,神戸市兵庫区,三川口町３丁目３番６－２０１号,,28,105,6520815,,,,,,,2025-10-21,1,,,,,エムアンドエムキカク,0
2281,8140001140435,新規,0,2025-10-21,2025-10-21,株式会社泰和,,株式会社,兵庫県,尼崎市,南初島町８－６１－４０１号,,28,202,6600833,,,,,,,2025-10-21,1,,,,,タイワ,0
2287,8140003022755,新規,0,2025-10-21,2025-10-21,サパナ合同会社,,合同会社,兵庫県,西宮市,池田町９－２０ブリックコート西宮６Ｆ,,28,204,6620911,,,,,,,2025-10-21,1,,,,,サパナ,0
2289,8150001028489,新規,0,2025-10-21,2025-10-21,株式会社ＺＥＲＯ　ＳＴＹＬＥ,,株式会社,奈良県,生駒郡三郷町,勢野東１丁目２番４号,,29,343,6360811,,,,,,,2025-10-21,1,,,,,ゼロスタイル,0
2291,8180001169058,新規,0,2025-10-21,2025-10-21,株式会社アマカ,,株式会社,愛知県,名古屋市昭和区,山脇町１丁目２４番地の２,,23,107,4660063,,,,,,,2025-10-21,1,,,,,アマカ,0
2299,8180003029193,新規,0,2025-10-21,2025-10-21,ＭＡＮＤＡＬＡ合同会社,,合同会社,愛知県,名古屋市東区,矢田２丁目１番３７号ライオンズマンション大曽根１００２号,,23,102,4610040,,,,,,,2025-10-21,1,,,,,マンダラ,0
2300,8180003029235,新規,0,2025-10-21,2025-10-21,合同会社ゼロワン,,合同会社,愛知県,知多郡美浜町,新浦戸１丁目５番地１７,,23,446,4702411,,,,,,,2025-10-21,1,,,,,ゼロワン,0
2307,8180303006776,新規,0,2025-10-21,2025-10-21,合同会社ライズトラスト,,合同会社,愛知県,高浜市,小池町６丁目２番地２３,,23,227,4441303,,,,,,,2025-10-21,1,,,,,,0
2309,8190001032636,新規,0,2025-10-21,2025-10-21,株式会社Ｓｅｅ　ｔｏ　ｆａｃｔｏｒｙ,,株式会社,三重県,津市,久居西鷹跡町６１５番地１０,,24,201,5141131,,,,,,,2025-10-21,1,,,,,シートゥーファクトリー,0
2313,8210003001966,新規,0,2025-10-21,2025-10-21,合同会社攻信,,合同会社,福井県,福井市,花野谷町３７－９,,18,201,9188224,,,,,,,2025-10-21,1,,,,,コウシン,0
2315,8230001021147,新規,0,2025-10-21,2025-10-21,株式会社Ｈ＆Ｍ,,株式会社,富山県,富山市,神通本町２丁目２番１９‐１１０２号,,16,201,9300008,,,,,,,2025-10-21,1,,,,,エイチアンドエム,0
2318,8240001065671,新規,0,2025-10-21,2025-10-21,株式会社Ｌｉｆｅ　ｓａｆｅｔｙ,,株式会社,広島県,福山市,西桜町１丁目３番１号若月マンション３１６,,34,207,7200818,,,,,,,2025-10-21,1,,,,,ライフセイフティ,0
2320,8240005016002,新規,0,2025-10-21,2025-10-21,一般社団法人はるはる,,その他の設立登記法人,広島県,広島市安佐南区,山本１丁目２３番２５－１０２号,,34,105,7310137,,,,,,,2025-10-21,1,,,,,ハルハル,0
2324,8250003003835,新規,0,2025-10-21,2025-10-21,合同会社Ｐｒｉｍａｖｅｒａ,,合同会社,山口県,山口市,秋穂二島４４０番地１０,,35,203,7540893,,,,,,,2025-10-21,1,,,,,プリマヴェーラ,0
2333,8290001111727,新規,0,2025-10-21,2025-10-21,株式会社オフィスめんたい,,株式会社,福岡県,福岡市博多区,店屋町２－２９ｉＧＳ博多ビル７Ｆ,,40,132,8120025,,,,,,,2025-10-21,1,,,,,オフィスメンタイ,0
2334,8290001111818,新規,0,2025-10-21,2025-10-21,株式会社サプリア,,株式会社,福岡県,福岡市中央区,草香江１丁目４番２３号,,40,133,8100045,,,,,,,2025-10-21,1,,,,,サプリア,0
2335,8290001111875,新規,0,2025-10-21,2025-10-21,株式会社ＫＡＧＩＳＨＩＰＰＯ３６９,,株式会社,福岡県,那珂川市,中原６丁目７番５号,,40,231,8111213,,,,,,,2025-10-21,1,,,,,カギシッポサンロクキュウ,0
2340,8290003017567,新規,0,2025-10-21,2025-10-21,ＦＡＭＺ　ＣＡＲＥ合同会社,,合同会社,福岡県,福岡市南区,井尻５丁目２０番１５号,,40,134,8111302,,,,,,,2025-10-21,1,,,,,ファムズケア,0
2356,8350001019773,新規,0,2025-10-21,2025-10-21,株式会社ＦＣツルハ,,株式会社,宮崎県,都城市,早水町１６号８番,,45,202,8850016,,,,,,,2025-10-21,1,,,,,エフシーツルハ,0
2357,8350005006339,新規,0,2025-10-21,2025-10-21,医療法人海福,,その他の設立登記法人,宮崎県,宮崎市,大塚町樋ノ口１９８１番地１,,45,201,8800951,,,,,,,2025-10-21,1,,,,,ウミフク,0
2363,8360003015340,新規,0,2025-10-21,2025-10-21,合同会社ＫＴＭ,,合同会社,沖縄県,宜野湾市,大山４丁目３番３号,,47,205,9012223,,,,,,,2025-10-21,1,,,,,ケイティエム,0
2364,8360003015349,新規,0,2025-10-21,2025-10-21,合同会社又吉電気工事,,合同会社,沖縄県,うるま市,石川曙３丁目１１番１４号,,47,213,9041107,,,,,,,2025-10-21,1,,,,,マタヨシデンキコウジ,0
2374,8390001018136,新規,0,2025-10-21,2025-10-21,株式会社光電,,株式会社,山形県,山形市,五十鈴１丁目６番５－２０３号トウナイＤ,,06,201,9900061,,,,,,,2025-10-21,1,,,,,,0
2392,8470003003004,新規,0,2025-10-21,2025-10-21,合同会社ＩＫＵＮＡＳ農園,,合同会社,香川県,高松市,福岡町２丁目９番１－１４０６号,,37,201,7600066,,,,,,,2025-10-21,1,,,,,イクナスノウエン,0
2413,9010001259519,新規,0,2025-10-21,2025-10-21,Ｒｉｎｏｖａ　Ｅｎｅｒｇｙ株式会社,,株式会社,東京都,千代田区,大手町１丁目６－１大手町ビルＳｐａｃｅｓ大手町,,13,101,1000004,,,,,,,2025-10-21,1,,,,,リノバエナジー,0
2414,9010001259543,新規,0,2025-10-21,2025-10-21,株式会社Ｓｅｒｖｉｃｅ　ｕｐ,,株式会社,東京都,中央区,銀座１丁目１２番４号Ｎ＆ＥＢＬＤ．６Ｆ,,13,102,1040061,,,,,,,2025-10-21,1,,,,,サービスアップ,0
2420,9010003049067,新規,0,2025-10-21,2025-10-21,合同会社ＰｒｏｐｅｒｔｙＸ,,合同会社,東京都,文京区,向丘１丁目９－１８平山ビル２－Ｃ,,13,105,1130023,,,,,,,2025-10-21,1,,,,,プロパティエックス,0
2421,9010003049075,新規,0,2025-10-21,2025-10-21,合同会社山志会,,合同会社,東京都,文京区,本駒込２丁目１７番２１号,,13,105,1130021,,,,,,,2025-10-21,1,,,,,ヤマユキカイ,0
2422,9010003049083,新規,0,2025-10-21,2025-10-21,合同会社Ｒｏｓｅｔｔａ　Ｓｔｏｎｅ　Ｏｎｅ,,合同会社,東京都,千代田区,霞が関３丁目２番５号霞が関ビル３５Ｆ霞ヶ関国際会計事務所・税理士法人ＫＩＡ,,13,101,1000013,,,,,,,2025-10-21,1,,,,,ロゼッタストーンワン,0
2423,9010003049091,新規,0,2025-10-21,2025-10-21,合同会社ＲＫエステート,,合同会社,東京都,中央区,勝どき４丁目６番１－４００１号,,13,102,1040054,,,,,,,2025-10-21,1,,,,,アールケーエステート,0
2424,9010005040817,新規,0,2025-10-21,2025-10-21,一般社団法人ソルト,,その他の設立登記法人,東京都,中央区,銀座２丁目１０番８号マニエラ銀座ビル４階,,13,102,1040061,,,,,,,2025-10-21,1,,,,,ソルト,0
2426,9010103002685,新規,0,2025-10-21,2025-10-21,日本総合商社合同会社,,合同会社,東京都,八王子市,寺町３８－７,,13,201,1920073,,,,,,,2025-10-21,1,,,,,ニホンソウゴウショウシャ,0
2433,9010401193615,新規,0,2025-10-21,2025-10-21,株式会社スタートリア,,株式会社,東京都,港区,南青山３丁目１番３６号青山丸竹ビル６Ｆ,,13,103,1070062,,,,,,,2025-10-21,1,,,,,スタートリア,0
2434,9010401193821,新規,0,2025-10-21,2025-10-21,ベネヴィータ・キャピタル株式会社,,株式会社,東京都,港区,虎ノ門１丁目１７番１号虎ノ門ヒルズビジネスタワー１５階,,13,103,1050001,,,,,,,2025-10-21,1,,,,,,0
2435,9010401193846,新規,0,2025-10-21,2025-10-21,株式会社Ｕｒａｎａｓ,,株式会社,東京都,港区,浜松町１丁目１２番１４号４Ｆ,,13,103,1050013,,,,,,,2025-10-21,1,,,,,ウラナス,0
2436,9010403036193,新規,0,2025-10-21,2025-10-21,合同会社ＳｈｉｏＰａｎ,,合同会社,東京都,港区,南青山２丁目２番１５号,,13,103,1070062,,,,,,,2025-10-21,1,,,,,シオパン,0
2437,9010403036301,新規,0,2025-10-21,2025-10-21,ＲＫ　Ｌｉｆｅ　Ｄｅｓｉｇｎ合同会社,,合同会社,東京都,港区,港南３丁目７番１６－３１０５号,,13,103,1080075,,,,,,,2025-10-21,1,,,,,アールケーライフデザイン,0
2445,9010801036704,新規,0,2025-10-21,2025-10-21,株式会社ＰＩＮＥＣＯＮＥ,,株式会社,東京都,大田区,大森東５丁目２７－１２,,13,111,1430012,,,,,,,2025-10-21,1,,,,,パインコーン,0
2457,9011001173222,新規,0,2025-10-21,2025-10-21,株式会社誠友,,株式会社,東京都,渋谷区,道玄坂２丁目１５番１号,,13,113,1500043,,,,,,,2025-10-21,1,,,,,セイユウ,0
2460,9011003022600,新規,0,2025-10-21,2025-10-21,合同会社Ｃｌａｓｓｌｅｓｓ,,合同会社,東京都,渋谷区,円山町５番３号ＭＩＥＵＸ渋谷ビル８階,,13,113,1500044,,,,,,,2025-10-21,1,,,,,クラスレス,0
2464,9011103016428,新規,0,2025-10-21,2025-10-21,合同会社Ｓｔｕｄｉｏ　Ｓｔｅｌｌａ,,合同会社,東京都,新宿区,市谷左内町１１－５０５,,13,104,1620846,,,,,,,2025-10-21,1,,,,,スタジオステラ,0
2465,9011103016527,新規,0,2025-10-21,2025-10-21,合同会社ピュアレジャー７,,合同会社,東京都,新宿区,四谷２丁目９番地１５東京ユナイテッド綜合事務所内,,13,104,1600004,,,,,,,2025-10-21,1,,,,,ピュアレジャーセブン,0
2471,9011501032720,新規,0,2025-10-21,2025-10-21,株式会社向日葵商事,,株式会社,東京都,北区,神谷２丁目２４－１０－１０１,,13,117,1150043,,,,,,,2025-10-21,1,,,,,ヒマワリショウジ,0
2474,9011703004427,新規,0,2025-10-21,2025-10-21,合同会社スガフォート,,合同会社,東京都,江戸川区,大杉４丁目２番１２号,,13,123,1320022,,,,,,,2025-10-21,1,,,,,スガフォート,0
2476,9013103001500,新規,0,2025-10-21,2025-10-21,合同会社ファイブワンコーポレーション,,合同会社,東京都,あきる野市,油平１７５－１５,,13,228,1970827,,,,,,,2025-10-21,1,,,,,ファイブワンコーポレーション,0
2479,9013301055174,新規,0,2025-10-21,2025-10-21,株式会社東桜商事,,株式会社,東京都,豊島区,千早１丁目１４番３号,,13,116,1710044,,,,,,,2025-10-21,1,,,,,トウオウショウジ,0
2490,9020001165311,新規,0,2025-10-21,2025-10-21,株式会社Ｆｉｎ・Ｖｉｓｉｏｎ　Ｃｏｎｓｕｌｔｉｎｇ,,株式会社,神奈川県,横浜市西区,高島１丁目２－５,,14,103,2200011,,,,,,,2025-10-21,1,,,,,フィンビジョンコンサルティング,0
2491,9020001165402,新規,0,2025-10-21,2025-10-21,株式会社ケイスター,,株式会社,神奈川県,横浜市中区,尾上町５丁目８０番地神奈川中小企業センタービル７１２号室,,14,104,2310015,,,,,,,2025-10-21,1,,,,,ケイスター,0
2493,9020003029596,新規,0,2025-10-21,2025-10-21,合同会社Ｓｍａｒｔ　Ｃｉｔｙ　ＡＩ,,合同会社,神奈川県,横浜市泉区,緑園６丁目４１番地４,,14,116,2450002,,,,,,,2025-10-21,1,,,,,スマートシティエーアイ,0
2494,9020003029646,新規,0,2025-10-21,2025-10-21,合同会社Ｄ．ＯＴ．ＣＯＮ　ＳＰＯＲＴＳ,,合同会社,神奈川県,横浜市西区,宮ケ谷２５番地１Ｂ６０７号,,14,103,2200006,,,,,,,2025-10-21,1,,,,,ドットコンスポーツ,0
2499,9021003016725,新規,0,2025-10-21,2025-10-21,Ａｄａｐｔｉｖｅ　Ｓｕｒｆｉｎｇ　Ｊａｐａｎ　Ｏｐｅｎ合同会社,,合同会社,神奈川県,藤沢市,藤沢４８４－４９箕田藤沢ビルディング５階,,14,205,2510052,,,,,,,2025-10-21,1,,,,,アダプティブサーフィンジャパンオープン,0
2500,9021003016733,新規,0,2025-10-21,2025-10-21,合同会社ＭＩＵＲＡＳＨＯＵＴＥＮ,,合同会社,神奈川県,茅ヶ崎市,松が丘１丁目６番４０号松風テラスＤ－西,,14,207,2530025,,,,,,,2025-10-21,1,,,,,ミウラショウテン,0
2506,9030001169170,新規,0,2025-10-21,2025-10-21,株式会社Ｋｎｏｔ　Ｉｎｓｉｇｈｔ,,株式会社,埼玉県,さいたま市大宮区,三橋１丁目９９３－２,,11,103,3300856,,,,,,,2025-10-21,1,,,,,ノットインサイト,0
2507,9030001169253,新規,0,2025-10-21,2025-10-21,株式会社ＭＥＲＥＮＡ,,株式会社,埼玉県,川口市,弥平３丁目１５番１４－７号,,11,203,3320002,,,,,,,2025-10-21,1,,,,,メレナ,0
2508,9030001169261,新規,0,2025-10-21,2025-10-21,株式会社ｅｎ企画,,株式会社,埼玉県,吉川市,美南４丁目１番地１パレスラウレア１０２,,11,243,3420038,,,,,,,2025-10-21,1,,,,,エンキカク,0
2512,9030003027896,新規,0,2025-10-21,2025-10-21,合同会社筆とプレゼント,,合同会社,埼玉県,羽生市,大字上手子林１４２７番地６,,11,216,3480025,,,,,,,2025-10-21,1,,,,,フデトプレゼント,0
2513,9030003027905,新規,0,2025-10-21,2025-10-21,合同会社Ａｍａｔｉａｓ,,合同会社,埼玉県,川口市,大宇木曽呂５２０番地の２２,,11,203,3320000,,,,,,,2025-10-21,1,,,,,アマティアス,0
2524,9040001140997,新規,0,2025-10-21,2025-10-21,大東ＨＤ株式会社,,株式会社,千葉県,松戸市,牧の原１丁目９９番地ライオンズヒルズ新八柱壱番館５０６号,,12,207,2702267,,,,,,,2025-10-21,1,,,,,ダイトウホールディングス,0
2525,9040001141038,新規,0,2025-10-21,2025-10-21,株式会社Ｗｉｓｅ　Ｎｏｔｅｓ,,株式会社,千葉県,千葉市美浜区,真砂４丁目１－１１検見川浜レジデンス３２６,,12,106,2610011,,,,,,,2025-10-21,1,,,,,ワイズノーツ,0
2529,9040003028761,新規,0,2025-10-21,2025-10-21,合同会社ＯＬＩ,,合同会社,千葉県,市川市,行徳駅前２丁目２０番１号三建ビル行徳２Ｆ,,12,203,2720133,,,,,,,2025-10-21,1,,,,,オリ,0
2531,9040005022894,新規,0,2025-10-21,2025-10-21,医療法人社団ひいろ,,その他の設立登記法人,千葉県,市川市,新田４丁目７番９号アフェール・ヤジマ２Ｆ,,12,203,2720035,,,,,,,2025-10-21,1,,,,,ヒイロ,0
2532,9050001057472,新規,0,2025-10-21,2025-10-21,株式会社Ｓｏｌｉｓ,,株式会社,茨城県,古河市,中田新田８０番地９,,08,204,3060054,,,,,,,2025-10-21,1,,,,,ソリス,0
2533,9050003009686,新規,0,2025-10-21,2025-10-21,合同会社ＲＡＡＮ　ＩＮＴＥＲＮＡＴＩＯＮＡＬ,,合同会社,茨城県,坂東市,冨田１４１０番地１,,08,228,3060652,,,,,,,2025-10-21,1,,,,,ラーンインターナショナル,0
2540,9080101025855,新規,0,2025-10-21,2025-10-21,Ｔ．ＯＮＥ株式会社,,株式会社,静岡県,伊豆の国市,守木８６０－４,,22,225,4102317,,,,,,,2025-10-21,1,,,,,ティーワン,0
2565,9120001281081,新規,0,2025-10-21,2025-10-21,焜＿株式会社,00141182,株式会社,大阪府,大阪市東淀川区,大桐３丁目６－２１－３０１号,,27,114,5330011,,,,,,,2025-10-21,1,,,,,コンユウ,0
2566,9120001281131,新規,0,2025-10-21,2025-10-21,株式会社寺前電気,,株式会社,大阪府,大阪市鶴見区,中茶屋１丁目１番９－１０７号,,27,124,5380033,,,,,,,2025-10-21,1,,,,,テラマエデンキ,0
2567,9120001281172,新規,0,2025-10-21,2025-10-21,株式会社ディセリンク・バイオ,,株式会社,大阪府,大阪市北区,天満３丁目１０番１７号パラッツォ南森町１０１号室,,27,127,5300043,,,,,,,2025-10-21,1,,,,,ディセリンクバイオ,0
2568,9120001281189,新規,0,2025-10-21,2025-10-21,株式会社ＲＭＤカンパニー,,株式会社,大阪府,大阪市大正区,千島１丁目１２番１７マツシタビル１階,,27,108,5510003,,,,,,,2025-10-21,1,,,,,アールエムディーカンパニー,0
2569,9120001281214,新規,0,2025-10-21,2025-10-21,株式会社夢澤,,株式会社,大阪府,大阪市北区,浪花町１３番２５号カーサグランデ３０１号室,,27,127,5300022,,,,,,,2025-10-21,1,,,,,ユメザワ,0
2570,9120001281305,新規,0,2025-10-21,2025-10-21,株式会社リゾートプロパティ,,株式会社,大阪府,大阪市東住吉区,南田辺１丁目５番１－４０２号,,27,121,5460033,,,,,,,2025-10-21,1,,,,,リゾートプロパティ,0
2571,9120001281321,新規,0,2025-10-21,2025-10-21,株式会社ＰＬＡＮ‐Ｃ,,株式会社,大阪府,大阪市天王寺区,烏ケ辻１丁目３番１８－１５０１号,00141183,27,109,5430042,,,,,,,2025-10-21,1,,,,,プランシー,0
2574,9120003030981,新規,0,2025-10-21,2025-10-21,合同会社まるよし,,合同会社,大阪府,大阪市中央区,難波４丁目６番１７号,,27,128,5420076,,,,,,,2025-10-21,1,,,,,マルヨシ,0
2575,9120003031022,新規,0,2025-10-21,2025-10-21,翔馬サービス合同会社,,合同会社,大阪府,大阪市住吉区,沢之町１丁目５番２８号１０１Ｅ,,27,120,5580031,,,,,,,2025-10-21,1,,,,,ショウバサービス,0
2576,9120003031047,新規,0,2025-10-21,2025-10-21,ＧＲＥＹ　ＰＲＥＭＩＵＭ合同会社,,合同会社,大阪府,大阪市中央区,南本町４丁目５番７号東亜ビル５階,,27,128,5410054,,,,,,,2025-10-21,1,,,,,グレイプレミアム,0
2580,9120103006790,新規,0,2025-10-21,2025-10-21,ＹＯＹＯ合同会社,,合同会社,大阪府,堺市堺区,北瓦町１丁２番１５号ポピービル３０４号室,,27,141,5900076,,,,,,,2025-10-21,1,,,,,ヨウヨウ,0
2581,9120103006799,新規,0,2025-10-21,2025-10-21,合同会社ｃｏｎｓｉｅｎｓ．,,合同会社,大阪府,堺市西区,鳳南町５丁５２４番地１８,,27,144,5938325,,,,,,,2025-10-21,1,,,,,コンシエンス,0
2585,9120903005918,新規,0,2025-10-21,2025-10-21,葉月合同会社,,合同会社,大阪府,茨木市,新堂３丁目１２番６号,,27,211,5670835,,,,,,,2025-10-21,1,,,,,ハズキ,0
2589,9130001080846,新規,0,2025-10-21,2025-10-21,株式会社ＣＲＹＳＴＡＬ,,株式会社,京都府,亀岡市,東別院町鎌倉見立１９番地３０５,,26,206,6210114,,,,,,,2025-10-21,1,,,,,クリスタル,0
2592,9130003010875,新規,0,2025-10-21,2025-10-21,合同会社ＬＩＭ,,合同会社,京都府,亀岡市,篠町柏原宇津ノ辺３２番地１０,,26,206,6210821,,,,,,,2025-10-21,1,,,,,リム,0
2597,9140001140434,新規,0,2025-10-21,2025-10-21,株式会社Ｙ＆Ｃ,,株式会社,兵庫県,尼崎市,西向島町９６番地,,28,202,6600857,,,,,,,2025-10-21,1,,,,,ワイアンドシー,0
2598,9140001140450,新規,0,2025-10-21,2025-10-21,株式会社ＴＡＭＯ,,株式会社,兵庫県,姫路市,塩町１４６番地インタービレッジ塩町ＩＩ４階,00141180,28,201,6700904,,,,,,,2025-10-21,1,,,,,タモ,0
2599,9140001140459,新規,0,2025-10-21,2025-10-21,株式会社ＯＣＥＡＮ・ＢＬＵＥ・ＩＮＶＥＳＴＭＥＮＴ,,株式会社,兵庫県,神戸市中央区,布引町２丁目１番１２号ユニバーサル布引ビル６０２号,,28,110,6510097,,,,,,,2025-10-21,1,,,,,オーシャンブルーインベストメント,0
2601,9140003022746,新規,0,2025-10-21,2025-10-21,合同会社フクテル不動産,,合同会社,兵庫県,神戸市中央区,中町通３丁目１番３アルス神戸ハーバースクエア６０２号室,,28,110,6500027,,,,,,,2025-10-21,1,,,,,フクテルフドウサン,0
2604,9150001028488,新規,0,2025-10-21,2025-10-21,株式会社Ｔａｋｅｒｕコーポレーション,,株式会社,奈良県,大和郡山市,矢田町５８９５番地３７,,29,203,6391058,,,,,,,2025-10-21,1,,,,,タケルコーポレーション,0
2607,9170003002324,新規,0,2025-10-21,2025-10-21,合同会社ライノパワー,,合同会社,和歌山県,和歌山市,直川１２３２番地３,,30,201,6408481,,,,,,,2025-10-21,1,,,,,ライノパワー,0
2620,9180301040330,新規,0,2025-10-21,2025-10-21,株式会社成合,,株式会社,愛知県,岡崎市,井田町５３９番地７,,23,202,4440076,,,,,,,2025-10-21,1,,,,,ナリアイ,0
2624,9190003005234,新規,0,2025-10-21,2025-10-21,合同会社Ｔ．Ｍ．Ｒ,,合同会社,三重県,四日市市,東茂福町４番３４号,,24,202,5108011,,,,,,,2025-10-21,1,,,,,ティーエムアール,0
2626,9200001044356,新規,0,2025-10-21,2025-10-21,株式会社晃機システム,,株式会社,岐阜県,羽島郡岐南町,伏屋９丁目２２番地,,21,302,5016006,,,,,,,2025-10-21,1,,,,,コウキシステム,0
2627,9210001020364,新規,0,2025-10-21,2025-10-21,株式会社高鳥自動車,,株式会社,福井県,小浜市,多田第１３号１１番地の７,,18,204,9170026,,,,,,,2025-10-21,1,,,,,タカトリジドウシャ,0
2629,9220001026955,新規,0,2025-10-21,2025-10-21,株式会社八策マーケティング,,株式会社,石川県,小松市,白山町１４０番地６,,17,203,9230951,,,,,,,2025-10-21,1,,,,,ハッサクマーケティング,0
2631,9250001021400,新規,0,2025-10-21,2025-10-21,株式会社スマイルＦｉｔ,,株式会社,山口県,下関市,豊浦町大字川棚１５１６番地２７,,35,201,7596301,,,,,,,2025-10-21,1,,,,,スマイルフィット,0
2635,9260001040663,新規,0,2025-10-21,2025-10-21,株式会社ＬＥＧＯＲＩＴＨ,,株式会社,岡山県,津山市,院庄２２２番地１,,33,203,7080014,,,,,,,2025-10-21,1,,,,,レゴリス,0
2642,9290001111544,新規,0,2025-10-21,2025-10-21,株式会社ＬＷＨ,,株式会社,福岡県,福岡市中央区,港１丁目８番３０－１１０６号ＭａｉｚｕｒｕＢａｙＭｉｄＳｑｕａｒｅ,,40,133,8100075,,,,,,,2025-10-21,1,,,,,エルダブリューエイチ,0
2643,9290001111932,新規,0,2025-10-21,2025-10-21,株式会社ＰｉｔＢｕｒｕ,,株式会社,福岡県,福岡市博多区,博多駅前１丁目２３番２号５Ｆ－Ｂ,,40,132,8120011,,,,,,,2025-10-21,1,,,,,ピットブル,0
2645,9290003017608,新規,0,2025-10-21,2025-10-21,合同会社ホワイトリヤン,,合同会社,福岡県,福岡市博多区,吉塚４丁目６番５０号４０１号室,,40,132,8120041,,,,,,,2025-10-21,1,,,,,ホワイトリヤン,0
2650,9320001021384,新規,0,2025-10-21,2025-10-21,株式会社ハピラス,,株式会社,大分県,大分市,高崎２丁目１７番１３号,,44,201,8700872,,,,,,,2025-10-21,1,,,,,ハピラス,0
2667,9360001035934,新規,0,2025-10-21,2025-10-21,株式会社知花会計,,株式会社,沖縄県,中頭郡読谷村,字座喜味１６５１番地４,,47,324,9040301,,,,,,,2025-10-21,1,,,,,チバナカイケイ,0
2668,9360001035942,新規,0,2025-10-21,2025-10-21,株式会社Ｐｌｅａｓｕｒｅ,,株式会社,沖縄県,沖縄市,泡瀬３丁目１１番６号,,47,211,9042172,,,,,,,2025-10-21,1,,,,,プレジャー,0
2672,9370003007344,新規,0,2025-10-21,2025-10-21,合同会社Ｔ．Ｗ,,合同会社,宮城県,登米市,中田町上沼字大泉門畑１７番地,,04,212,9870602,,,,,,,2025-10-21,1,,,,,ティダブリュウ,0
2674,9380003006171,新規,0,2025-10-21,2025-10-21,迅和合同会社,,合同会社,福島県,福島市,瀬上町字東町３丁目２番地の１８,,07,201,9600101,,,,,,,2025-10-21,1,,,,,ジンワ,0
2692,9430003018211,新規,0,2025-10-21,2025-10-21,合同会社ＫＡＭＵＹ　ＰＥＡＣＥ　ＷＯＲＫＳ,,合同会社,北海道,札幌市厚別区,厚別東四条７丁目２１番２１号,,01,108,0040004,,,,,,,2025-10-21,1,,,,,カムイピースワークス,0
2694,9450005004463,新規,0,2025-10-21,2025-10-21,一般社団法人たかすスポーツクラブ,,その他の設立登記法人,北海道,上川郡鷹栖町,南二条４丁目１番２号,,01,452,0711202,,,,,,,2025-10-21,1,,,,,タカススポーツクラブ,0
2703,9500003003619,新規,0,2025-10-21,2025-10-21,合同会社ＳＡＭＭＯＮＳ,,合同会社,愛媛県,伊予市,中村甲１１７番地３,,38,210,7993123,,,,,,,2025-10-21,1,,,,,,0
