sequenceNumber,corporateNumber,process,correct,updateDate,changeDate,name,nameImageId,kind,prefectureName,cityName,streetNumber,addressImageId,prefectureCode,cityCode,postCode,addressOutside,addressOutsideImageId,closeDate,closeCause,successorCorporateNumber,changeCause,assignmentDate,latest,enName,enPrefectureName,enCityName,enAddressOutside,furigana,hihyoji
15,1010001245575,新規,0,2024-06-10,2024-06-10,株式会社ファンハイブ,,株式会社,東京都,中央区,銀座１丁目１２番４号Ｎ＆ＥＢＬＤ．６Ｆ,,13,102,1040061,,,,,,,2024-06-10,1,,,,,ファンハイブ,0
16,1010001245583,新規,0,2024-06-10,2024-06-10,ＹＮＦＭＧ株式会社,,株式会社,東京都,千代田区,永田町２丁目１４番２号,,13,101,1000014,,,,,,,2024-06-10,1,,,,,ワイエヌエフエムジー,0
17,1010001245641,新規,0,2024-06-10,2024-06-10,株式会社メヒシバ,,株式会社,東京都,中央区,新富２丁目４番３号京橋ダイヤモンドマンション１Ｆ,,13,102,1040041,,,,,,,2024-06-10,1,,,,,メヒシバ,0
18,1010001245666,新規,0,2024-06-10,2024-06-10,株式会社イアリヴ,,株式会社,東京都,中央区,銀座１丁目１２番４号７階,,13,102,1040061,,,,,,,2024-06-10,1,,,,,イアリヴ,0
20,1010003043960,新規,0,2024-06-10,2024-06-10,合同会社リエネ岩手久慈ウインドファーム,,合同会社,東京都,中央区,京橋２丁目１２番６号ＡＯＪ税理士法人内,,13,102,1040031,,,,,,,2024-06-10,1,,,,,リエネイワテクジウインドファーム,0
21,1010003044001,新規,0,2024-06-10,2024-06-10,合同会社ｍｉｎａｔｉｅ,,合同会社,東京都,中央区,日本橋兜町１７番１号日本橋ロイヤルプラザ７０６,,13,102,1030026,,,,,,,2024-06-10,1,,,,,ミナティエ,0
23,1010005038389,新規,0,2024-06-10,2024-06-10,一般社団法人ＤＣ１新砂,,その他の設立登記法人,東京都,中央区,新富１丁目１５番３号ジパングアウトソーシングサービス株式会社内,,13,102,1040041,,,,,,,2024-06-10,1,,,,,ディーシーワンシンスナ,0
29,1010401183053,新規,0,2024-06-10,2024-06-10,株式会社ＷｉｎｄＨｏｌｅ不動産,,株式会社,東京都,港区,麻布台１丁目１１番１０号日総第２２ビル６０１,,13,103,1060041,,,,,,,2024-06-10,1,,,,,ウィンドホールフドウサン,0
32,1010403032761,新規,0,2024-06-10,2024-06-10,アーバングリーン合同会社,,合同会社,東京都,港区,新橋３丁目８番４号ル・グラシエルビル１４－３０３,,13,103,1050004,,,,,,,2024-06-10,1,,,,,アーバングリーン,0
34,1010501052430,新規,0,2024-06-10,2024-06-10,株式会社ＳＯＩＬ　ＣＯＦＦＥＥ,,株式会社,東京都,台東区,谷中６丁目１番２９号,,13,106,1100001,,,,,,,2024-06-10,1,,,,,ソイルコーヒー,0
38,1010601065349,新規,0,2024-06-10,2024-06-10,株式会社ＬＵＭＯＮＡ,,株式会社,東京都,墨田区,東駒形４丁目３番３号,,13,107,1300005,,,,,,,2024-06-10,1,,,,,ルモーナ,0
42,1010603010880,新規,0,2024-06-10,2024-06-10,ウォーターデジタル合同会社,,合同会社,東京都,墨田区,緑２丁目１５番１１－９０３号ジェイパーク両国デュアルフォルム,,13,107,1300021,,,,,,,2024-06-10,1,,,,,ウォーターデジタル,0
47,1010805003113,新規,0,2024-06-10,2024-06-10,一般社団法人ＩＭＨＰＪ,,その他の設立登記法人,東京都,大田区,南蒲田２丁目１６番２号テクノポート大樹生命ビル９Ｆ,,13,111,1440035,,,,,,,2024-06-10,1,,,,,アイエムエイチピージェー,0
50,1010901055438,新規,0,2024-06-10,2024-06-10,株式会社ｅｓ‐ｐｏ,,株式会社,東京都,世田谷区,北烏山３丁目１３番２０－３０１号,,13,112,1570061,,,,,,,2024-06-10,1,,,,,エスポ,0
55,1011001162455,新規,0,2024-06-10,2024-06-10,株式会社Ｓｐｉｔ,,株式会社,東京都,渋谷区,道玄坂１丁目１０番８号渋谷道玄坂東急ビル２Ｆ‐Ｃ,,13,113,1500043,,,,,,,2024-06-10,1,,,,,スピット,0
68,1011205002606,新規,0,2024-06-10,2024-06-10,一般社団法人ひまわりそろばんアカデミー,,その他の設立登記法人,東京都,中野区,中野４丁目３番１－２２０５号,,13,114,1640001,,,,,,,2024-06-10,1,,,,,ヒマワリソロバンアカデミー,0
69,1011303005188,新規,0,2024-06-10,2024-06-10,映画畑合同会社,,合同会社,東京都,杉並区,高円寺南４丁目７番３サンシャイン高円寺８０３号,,13,115,1660003,,,,,,,2024-06-10,1,,,,,エイガバタケ,0
80,1013303007156,新規,0,2024-06-10,2024-06-10,合同会社愉楽,,合同会社,東京都,豊島区,池袋２丁目３５－２－２０１,,13,116,1710014,,,,,,,2024-06-10,1,,,,,ユラク,0
81,1013303007172,新規,0,2024-06-10,2024-06-10,ＡＢＣ合同会社,,合同会社,東京都,豊島区,池袋本町１丁目２１番８号アネックスハナブサ１Ｂ号,,13,116,1700011,,,,,,,2024-06-10,1,,,,,エービーシー,0
86,1020001157588,新規,0,2024-06-10,2024-06-10,株式会社トラストテクネ,,株式会社,神奈川県,横浜市西区,久保町５４番７号,,14,103,2200061,,,,,,,2024-06-10,1,,,,,トラストテクネ,0
87,1020001157621,新規,0,2024-06-10,2024-06-10,株式会社Ｃｒｅｖｉａ,,株式会社,神奈川県,横浜市泉区,緑園５丁目２９番１０号緑園クリニックビル４Ｆ,,14,116,2450002,,,,,,,2024-06-10,1,,,,,クレヴィア,0
94,1021001082446,新規,0,2024-06-10,2024-06-10,株式会社Ｃｏｌｏｒ　Ｂｅａｒ,,株式会社,神奈川県,茅ヶ崎市,東海岸南２丁目８番２７号,,14,207,2530054,,,,,,,2024-06-10,1,,,,,コロベア,0
97,1021003014620,新規,0,2024-06-10,2024-06-10,アスミエル合同会社,,合同会社,神奈川県,相模原市緑区,大島２５８９番地１５,,14,151,2520135,,,,,,,2024-06-10,1,,,,,アスミエル,0
103,1030001160797,新規,0,2024-06-10,2024-06-10,株式会社パディフェンス,,株式会社,埼玉県,蕨市,塚越５丁目２２番４号,,11,223,3350002,,,,,,,2024-06-10,1,,,,,パディフェンス,0
104,1030001160855,新規,0,2024-06-10,2024-06-10,霊長目ゲンキ株式会社,,株式会社,埼玉県,越谷市,千間台西５丁目１６番地１７,,11,222,3430041,,,,,,,2024-06-10,1,,,,,レイチョウモクゲンキ,0
105,1030001160888,新規,0,2024-06-10,2024-06-10,Ｓインターナショナル株式会社,,株式会社,埼玉県,さいたま市岩槻区,大字裏慈恩寺８５４番地４８,,11,110,3390002,,,,,,,2024-06-10,1,,,,,エスインターナショナル,0
111,1040001133950,新規,0,2024-06-10,2024-06-10,株式会社Ａ’ｓ　ＯＮＥ　ｐｌｕｓ,,株式会社,千葉県,市原市,郡本３丁目３４番地,,12,219,2900013,,,,,,,2024-06-10,1,,,,,アズワンプラス,0
112,1040001133959,新規,0,2024-06-10,2024-06-10,日本外服株式会社,,株式会社,千葉県,浦安市,日の出６丁目１３番８号,,12,227,2790013,,,,,,,2024-06-10,1,,,,,ニホンガイフ,0
113,1040001133967,新規,0,2024-06-10,2024-06-10,株式会社岩澤組,,株式会社,千葉県,八街市,八街ほ３８４番地７,,12,230,2891115,,,,,,,2024-06-10,1,,,,,イワサワグミ,0
114,1040001134024,新規,0,2024-06-10,2024-06-10,株式会社Ｎテック,,株式会社,千葉県,市川市,押切９番２号,,12,203,2720107,,,,,,,2024-06-10,1,,,,,エヌテック,0
115,1040001134049,新規,0,2024-06-10,2024-06-10,株式会社國吉龍華書道教室,,株式会社,千葉県,市川市,南八幡３丁目１７番１０号,,12,203,2720023,,,,,,,2024-06-10,1,,,,,クニヨシリュウカショドウキョウシツ,0
118,1040003025155,新規,0,2024-06-10,2024-06-10,合同会社Ｌａｐａ,,合同会社,千葉県,船橋市,藤原７丁目５番４０号,,12,204,2730047,,,,,,,2024-06-10,1,,,,,ラパ,0
119,1040003025163,新規,0,2024-06-10,2024-06-10,メジャー合同会社,,合同会社,千葉県,市川市,中山３丁目１４番１１号,,12,203,2720813,,,,,,,2024-06-10,1,,,,,メジャー,0
120,1040003025171,新規,0,2024-06-10,2024-06-10,ＥＩＫＯ合同会社,,合同会社,千葉県,野田市,野田５０５番地の５,,12,208,2780037,,,,,,,2024-06-10,1,,,,,エイコ,0
123,1050001054873,新規,0,2024-06-10,2024-06-10,株式会社サイアロン光学,,株式会社,茨城県,つくば市,並木１丁目１番地,,08,220,3050044,,,,,,,2024-06-10,1,,,,,サイアロンコウガク,0
124,1050001054881,新規,0,2024-06-10,2024-06-10,株式会社サムライアーキテクト,,株式会社,茨城県,つくば市,千現２丁目１番地６つくば研究支援センターＡ－３０,,08,220,3050047,,,,,,,2024-06-10,1,,,,,サムライアーキテクト,0
127,1050005013454,新規,0,2024-06-10,2024-06-10,社会福祉法人三星会,,その他の設立登記法人,茨城県,つくば市,谷田部２４１５番地２（陣場Ｅ２５街区４）,,08,220,3050861,,,,,,,2024-06-10,1,,,,,サンセイカイ,0
132,1070001041845,新規,0,2024-06-10,2024-06-10,株式会社ＴＡＫ,,株式会社,群馬県,太田市,小舞木町４８４サン・ビレッジＧ号室,,10,205,3730818,,,,,,,2024-06-10,1,,,,,ティーエーケー,0
137,1080401027237,新規,0,2024-06-10,2024-06-10,株式会社リード,,株式会社,静岡県,浜松市中央区,大平台４丁目４１番１号,,22,138,4328068,,,,,,,2024-06-10,1,,,,,リード,0
142,1110001038457,新規,0,2024-06-10,2024-06-10,株式会社可不可,,株式会社,新潟県,三条市,上須頃７８９番地１,,15,204,9550091,,,,,,,2024-06-10,1,,,,,カフカ,0
143,1110003005414,新規,0,2024-06-10,2024-06-10,合同会社Ｃａｔａｌｄｏ　Ｇｌｏｂａｌ　Ｃｏｎｎｅｃｔｉｏｎｓ,,合同会社,新潟県,妙高市,大字関山１６７３番地１４,,15,217,9492235,,,,,,,2024-06-10,1,,,,,カタルドグローバルコネクションズ,0
155,1120001265661,新規,0,2024-06-10,2024-06-10,Ｒｅｓｔａｖｉｏ株式会社,,株式会社,大阪府,大阪市浪速区,恵美須西１丁目４番３号,,27,111,5560003,,,,,,,2024-06-10,1,,,,,レスタビオ,0
156,1120001265678,新規,0,2024-06-10,2024-06-10,株式会社マル,,株式会社,大阪府,大阪市北区,天満１丁目１６番７号,,27,127,5300043,,,,,,,2024-06-10,1,,,,,マル,0
157,1120001265711,新規,0,2024-06-10,2024-06-10,株式会社ｇｒｕｅｚｉ　ｌａｂ,,株式会社,大阪府,大阪市西成区,岸里１丁目２番６号,,27,122,5570041,,,,,,,2024-06-10,1,,,,,グリューツィラボ,0
161,1120101069723,新規,0,2024-06-10,2024-06-10,ＺＪＨ株式会社,,株式会社,大阪府,松原市,西野々１丁目８－１１,,27,217,5800004,,,,,,,2024-06-10,1,,,,,,0
162,1120101069748,新規,0,2024-06-10,2024-06-10,株式会社ＳＡＫＡＥ,,株式会社,大阪府,堺市南区,小代１２３番地６,,27,145,5900151,,,,,,,2024-06-10,1,,,,,サカエ,0
163,1120101069756,新規,0,2024-06-10,2024-06-10,株式会社屋宮鉄工建設,,株式会社,大阪府,南河内郡河南町,大宝２丁目１９番１２号,,27,382,5850005,,,,,,,2024-06-10,1,,,,,オクミヤテッコウケンセツ,0
164,1120901049305,新規,0,2024-06-10,2024-06-10,Ｊｕｎ　Ｆｒｉｅｎｄ　Ｃｏｍｐａｎｙ株式会社,,株式会社,大阪府,吹田市,古江台４丁目１１９番地Ｄｉｏｓ北千里１号館２階ＴｏｍｏｒｒｏｗＳｋｙ内,,27,205,5650874,,,,,,,2024-06-10,1,,,,,ジュンフレンドカンパニー,0
171,1130001077222,新規,0,2024-06-10,2024-06-10,喜羊羊株式会社,,株式会社,京都府,京都市北区,衣笠赤阪町１番１８４－２Ａ室,,26,101,6038486,,,,,,,2024-06-10,1,,,,,シーヤンヤン,0
172,1130001077230,新規,0,2024-06-10,2024-06-10,株式会社柳室純構造設計,,株式会社,京都府,京都市下京区,寺町通五条上る西橋詰町７５９番地,,26,106,6008029,,,,,,,2024-06-10,1,,,,,ヤナギムロジュンコウゾウセッケイ,0
173,1130001077255,新規,0,2024-06-10,2024-06-10,麗華株式会社,,株式会社,京都府,京都市左京区,川端よりニ筋目仁王門下る新丸太町７８番地３,,26,103,6060000,,,,,,,2024-06-10,1,,,,,レイカ,0
176,1140001134690,新規,0,2024-06-10,2024-06-10,ＳＵＭＡ　ＧＲＯＵＰ株式会社,,株式会社,兵庫県,神戸市中央区,生田町１丁目３番３号ジョイマンション３０３号室,,28,110,6510092,,,,,,,2024-06-10,1,,,,,スマグループ,0
177,1140001134749,新規,0,2024-06-10,2024-06-10,株式会社エミネス,,株式会社,兵庫県,西宮市,甲子園砂田町１番７－２０１号,,28,204,6638162,,,,,,,2024-06-10,1,,,,,エミネス,0
179,1140003020641,新規,0,2024-06-10,2024-06-10,合同会社三十二鈴,,合同会社,兵庫県,高砂市,阿弥陀町魚橋１０４２番地の６,,28,216,6760822,,,,,,,2024-06-10,1,,,,,サンジュウニリン,0
180,1140003020666,新規,0,2024-06-10,2024-06-10,合同会社ＴＡＲＭＹ,,合同会社,兵庫県,西宮市,桜町５－１,,28,204,6620071,,,,,,,2024-06-10,1,,,,,ターミー,0
182,1150001027332,新規,0,2024-06-10,2024-06-10,株式会社小川設備工業,,株式会社,奈良県,橿原市,葛本町６７３番地の４,,29,205,6340007,,,,,,,2024-06-10,1,,,,,オガワセツビコウギョウ,0
183,1150005009599,新規,0,2024-06-10,2024-06-10,一般社団法人翠山大学設立準備会,,その他の設立登記法人,奈良県,奈良市,大宮町２丁目３番５２－８０６号,,29,201,6308115,,,,,,,2024-06-10,1,,,,,,0
187,1170001018180,新規,0,2024-06-10,2024-06-10,株式会社ＳＫフルーツ,,株式会社,和歌山県,有田郡有田川町,大字井口１８５番地１,,30,366,6430844,,,,,,,2024-06-10,1,,,,,エスケイフルーツ,0
192,1180001161970,新規,0,2024-06-10,2024-06-10,ＫＴＣ　ＴＲＡＤＩＮＧ株式会社,,株式会社,愛知県,弥富市,鯏浦町気開１３６番地ユーパティオ１０６,,23,235,4980024,,,,,,,2024-06-10,1,,,,,ケーティーシートレーディング,0
195,1180003026916,新規,0,2024-06-10,2024-06-10,合同会社ケア美来,,合同会社,愛知県,名古屋市守山区,森孝１丁目１１０９番地リエス森孝２０４,,23,113,4630035,,,,,,,2024-06-10,1,,,,,ケアミライ,0
201,1200001042565,新規,0,2024-06-10,2024-06-10,株式会社オスフィカ,,株式会社,岐阜県,大垣市,本今４丁目１１８番地１,,21,202,5030931,,,,,,,2024-06-10,1,,,,,オスフィカ,0
205,1210001019785,新規,0,2024-06-10,2024-06-10,福井インフラメンテ株式会社,,株式会社,福井県,吉田郡永平寺町,松岡薬師２丁目５６番地３,,18,322,9101118,,,,,,,2024-06-10,1,,,,,フクイインフラメンテ,0
206,1220001026054,新規,0,2024-06-10,2024-06-10,オーエス工業株式会社,,株式会社,石川県,金沢市,高畠１丁目３１０番地２,,17,201,9218001,,,,,,,2024-06-10,1,,,,,オーエスコウギョウ,0
210,1230003002226,新規,0,2024-06-10,2024-06-10,マジェスティ合同会社,,合同会社,富山県,富山市,花園町３丁目６番２７号,,16,201,9398201,,,,,,,2024-06-10,1,,,,,マジェスティ,0
214,1240001063343,新規,0,2024-06-10,2024-06-10,Ｅ’ｗｏｒｋｓ株式会社,,株式会社,広島県,福山市,神辺町字西中条１０８６番地５,,34,207,7202103,,,,,,,2024-06-10,1,,,,,イーワークス,0
215,1240001063351,新規,0,2024-06-10,2024-06-10,株式会社上誠技建,,株式会社,広島県,福山市,桜馬場町９番７－２号,,34,207,7200051,,,,,,,2024-06-10,1,,,,,ジョウセイギケン,0
216,1240001063368,新規,0,2024-06-10,2024-06-10,株式会社モノプロ,,株式会社,広島県,広島市中区,大手町１丁目１－２０相生橋ビル７階Ａ号室,,34,101,7300051,,,,,,,2024-06-10,1,,,,,モノプロ,0
220,1260001039168,新規,0,2024-06-10,2024-06-10,花菱電機株式会社,,株式会社,岡山県,岡山市北区,中山下１丁目１１番１５号新田第１ビル４０２,,33,101,7000821,,,,,,,2024-06-10,1,,,,,ハナビシデンキ,0
225,1290001106147,新規,0,2024-06-10,2024-06-10,株式会社あかり,,株式会社,福岡県,福岡市中央区,警固１丁目６番４１号,,40,133,8100023,,,,,,,2024-06-10,1,,,,,アカリ,0
230,1300001013762,新規,0,2024-06-10,2024-06-10,株式会社ギャザー,,株式会社,佐賀県,佐賀市,唐人１丁目５番４３号,,41,201,8400813,,,,,,,2024-06-10,1,,,,,ギャザー,0
231,1300001013779,新規,0,2024-06-10,2024-06-10,株式会社田中電気住設,,株式会社,佐賀県,杵島郡江北町,大字山口８０１番地２,,41,424,8490501,,,,,,,2024-06-10,1,,,,,タナカデンキジュウセツ,0
232,1300001013787,新規,0,2024-06-10,2024-06-10,株式会社ＨＡＮＡＳＨＩＫＡ,,株式会社,佐賀県,鳥栖市,東町１丁目１０７４番地,,41,203,8410035,,,,,,,2024-06-10,1,,,,,ハナシカ,0
233,1300003002136,新規,0,2024-06-10,2024-06-10,ＨＳＳＤＺｓ合同会社,,合同会社,佐賀県,佐賀市,蓮池町大字小松３０８番地１,,41,201,8400004,,,,,,,2024-06-10,1,,,,,エイチエスエスディージーズ,0
234,1310001019057,新規,0,2024-06-10,2024-06-10,株式会社ＣＯＣＯＺＯ　ＪＡＰＡＮ,,株式会社,長崎県,佐世保市,大野町２２３番地４,,42,202,8570131,,,,,,,2024-06-10,1,,,,,ココゾジャパン,0
235,1310001019065,新規,0,2024-06-10,2024-06-10,株式会社Ｔｉｍ,,株式会社,長崎県,長崎市,鶴見台１丁目２３番２２号,,42,201,8500984,,,,,,,2024-06-10,1,,,,,ティム,0
236,1310005008774,新規,0,2024-06-10,2024-06-10,一般社団法人地域イノベーション推進機構,,その他の設立登記法人,長崎県,雲仙市,小浜町北本町８６９番地１１,,42,213,8540514,,,,,,,2024-06-10,1,,,,,チイキイノベーションスイシンキコウ,0
237,1320003004394,新規,0,2024-06-10,2024-06-10,合同会社クレール,,合同会社,大分県,豊後大野市,三重町赤嶺１２４２番地２８,,44,212,8797111,,,,,,,2024-06-10,1,,,,,クレール,0
241,1340001026570,新規,0,2024-06-10,2024-06-10,株式会社塗木板金塗装,,株式会社,鹿児島県,南九州市,知覧町東別府１４４０１番地３,,46,223,8970304,,,,,,,2024-06-10,1,,,,,ヌルキバンキントソウ,0
243,1350001019004,新規,0,2024-06-10,2024-06-10,株式会社ＲＭＰ興装,,株式会社,宮崎県,児湯郡木城町,大字椎木４１４２番地１,,45,404,8840102,,,,,,,2024-06-10,1,,,,,アールエムピーコウソウ,0
246,1360001033788,新規,0,2024-06-10,2024-06-10,株式会社Ｎ‐ｅｎ,,株式会社,沖縄県,沖縄市,山内２丁目２６番６号,,47,211,9040034,,,,,,,2024-06-10,1,,,,,エヌエン,0
247,1360001033796,新規,0,2024-06-10,2024-06-10,株式会社Ａｒｉｙａ　Ｈｏｌｄｉｎｇｓ,,株式会社,沖縄県,中頭郡北谷町,北谷１丁目４番１０号,,47,326,9040116,,,,,,,2024-06-10,1,,,,,アリアホールディングス,0
248,1360003014051,新規,0,2024-06-10,2024-06-10,合同会社エタデスプリ,,合同会社,沖縄県,宮古島市,平良字東仲宗根９０１番地１２,,47,214,9060007,,,,,,,2024-06-10,1,,,,,エタデスプリ,0
261,1430003016429,新規,0,2024-06-10,2024-06-10,合同会社ＹＵＵＲＩコーポレーション,,合同会社,北海道,江別市,大麻晴美町１０－２－１０３,,01,217,0690866,,,,,,,2024-06-10,1,,,,,ユウリコーポレーション,0
262,1430003016437,新規,0,2024-06-10,2024-06-10,合同会社カネエ清水水産,,合同会社,北海道,石狩市,花畔四条１丁目１９４番地１,,01,235,0613284,,,,,,,2024-06-10,1,,,,,カネエシミズスイサン,0
263,1450001014341,新規,0,2024-06-10,2024-06-10,北の森グリーンエナジー株式会社,,株式会社,北海道,上川郡下川町,西町９５８番地１,,01,468,0981205,,,,,,,2024-06-10,1,,,,,キタノモリグリーンエナジー,0
264,1470001020247,新規,0,2024-06-10,2024-06-10,株式会社タカラダ,,株式会社,香川県,高松市,百間町１番地２,,37,201,7600041,,,,,,,2024-06-10,1,,,,,タカラダ,0
265,1470003002656,新規,0,2024-06-10,2024-06-10,合同会社ＮＥＸＡＳ,,合同会社,香川県,高松市,瓦町１丁目９－９瓦町ビル６階西,,37,201,7600052,,,,,,,2024-06-10,1,,,,,ネクサス,0
272,1700150125847,新規,0,2024-06-10,2024-06-10,上嘉地産股斌有限公司,00135089,外国会社等,,,,,,,,台湾高雄市鼓山区明華路３１７号１８楼之２,,,,,,2024-06-10,1,,,,,ジヨウカチサンコフンユウゲンコウシ,0
273,1700150125855,新規,0,2024-06-10,2024-06-10,広州銘＿信息科技（香港）有限公司,00135078,外国会社等,,,,,,,,ＫＬ，ＭＯＮＧＫＯＫ，９　ＹＩＮ　ＣＨＯＮＧ　ＳＴ，ＰＲＯＳＰＥＲ　ＣＯＭＭ　ＢＬＤＧ　ＦＬＡＴ／ＲＭ　２２０１　２２／Ｆ，ＨＫ，Ｃｈｉｎａ,,,,,,2024-06-10,1,,,,,コウシュウメイセンシンソクカギホンコンユウゲンコウシ,0
281,2010001245558,新規,0,2024-06-10,2024-06-10,株式会社ＣｈａｒｉｔｙＬＩＮＫ,,株式会社,東京都,中央区,銀座８丁目８番地１５号青柳ビル８階,,13,102,1040061,,,,,,,2024-06-10,1,,,,,チャリティーリンク,0
287,2010401182946,新規,0,2024-06-10,2024-06-10,ＬＵＡＮＡ株式会社,,株式会社,東京都,港区,芝浦３丁目２０番９号ＢＲ芝浦Ｎビル２階,,13,103,1080023,,,,,,,2024-06-10,1,,,,,ルアナ,0
288,2010401183036,新規,0,2024-06-10,2024-06-10,株式会社ＭＡＳＴ,,株式会社,東京都,港区,虎ノ門２丁目１番１号,,13,103,1050001,,,,,,,2024-06-10,1,,,,,エムエイエスティ,0
295,2010501052438,新規,0,2024-06-10,2024-06-10,株式会社ＬＵＵＬ,,株式会社,東京都,台東区,上野６丁目１番６－１００５号御徒町グリーンハイツ,,13,106,1100005,,,,,,,2024-06-10,1,,,,,ルーラ,0
298,2010601065348,新規,0,2024-06-10,2024-06-10,株式会社国際マーケティングサービス,,株式会社,東京都,江東区,豊洲５丁目１番１３－３６１１号,,13,108,1350061,,,,,,,2024-06-10,1,,,,,コクサイマーケティングサービス,0
312,2011001162504,新規,0,2024-06-10,2024-06-10,株式会社パルクシス,,株式会社,東京都,渋谷区,恵比寿西１丁目３６番２号ＴＨＥ・ＣＯＮＯＥ＜代官山＞７０６,,13,113,1500021,,,,,,,2024-06-10,1,,,,,パルクシス,0
313,2011001162512,新規,0,2024-06-10,2024-06-10,ＴＯＣソリューションズ株式会社,,株式会社,東京都,渋谷区,渋谷３丁目８－７第二窪島ビル５階,,13,113,1500002,,,,,,,2024-06-10,1,,,,,ティーオーシーソリューションズ,0
314,2011001162520,新規,0,2024-06-10,2024-06-10,株式会社エムズリンク,,株式会社,東京都,渋谷区,代々木１丁目２５番５号,,13,113,1510053,,,,,,,2024-06-10,1,,,,,エムズリンク,0
315,2011001162545,新規,0,2024-06-10,2024-06-10,ＡＬＯＮＧＯ株式会社,,株式会社,東京都,目黒区,下目黒１丁目１番１４号コノトラビル７階,,13,110,1530064,,,,,,,2024-06-10,1,,,,,アロンゴ,0
316,2011001162586,新規,0,2024-06-10,2024-06-10,株式会社ＥＤＯ　ＷＥＡＲ,,株式会社,東京都,渋谷区,神宮前６丁目２３－４桑野ビル２階,,13,113,1500001,,,,,,,2024-06-10,1,,,,,エドウェア,0
317,2011001162594,新規,0,2024-06-10,2024-06-10,あすか総合研究株式会社,,株式会社,東京都,渋谷区,代々木２丁目２３番１号,,13,113,1510053,,,,,,,2024-06-10,1,,,,,,0
324,2011103014520,新規,0,2024-06-10,2024-06-10,Ａｒｔ　ｏｆ　ｎｏｉｓｅ合同会社,,合同会社,東京都,新宿区,西新宿６丁目１２番５号,,13,104,1600023,,,,,,,2024-06-10,1,,,,,アートオブノイズ,0
325,2011103014537,新規,0,2024-06-10,2024-06-10,合同会社ＳＨＩＢＡＮＥＳＳ,,合同会社,東京都,新宿区,西新宿３丁目３番１３号西新宿水間ビル２Ｆ,,13,104,1600023,,,,,,,2024-06-10,1,,,,,シバネス,0
327,2011201025535,新規,0,2024-06-10,2024-06-10,株式会社ＡｔｏＺ,,株式会社,東京都,中野区,沼袋３丁目２３番２－１０３号,,13,114,1650025,,,,,,,2024-06-10,1,,,,,エートゥーゼット,0
332,2011601027809,新規,0,2024-06-10,2024-06-10,株式会社ＫＯＹＵＫＡ,,株式会社,東京都,練馬区,春日町５丁目７－９,,13,120,1790074,,,,,,,2024-06-10,1,,,,,コユカ,0
337,2012401041958,新規,0,2024-06-10,2024-06-10,ワイヤレスブレイン株式会社,,株式会社,東京都,府中市,四谷２丁目２９番地の１３,,13,206,1830035,,,,,,,2024-06-10,1,,,,,ワイヤレスブレイン,0
339,2012803003424,新規,0,2024-06-10,2024-06-10,合同会社ＮＡＳ,,合同会社,東京都,立川市,柴崎町３丁目５番２１号井上ビル５Ｆ－Ａ号,,13,202,1900023,,,,,,,2024-06-10,1,,,,,エヌエーエス,0
341,2013301052657,新規,0,2024-06-10,2024-06-10,株式会社ＴＡＩＧＡコンサルティング,,株式会社,東京都,豊島区,高田３丁目１１－１４高田馬場シティハイツ,,13,116,1710033,,,,,,,2024-06-10,1,,,,,タイガコンサルティング,0
342,2013303007163,新規,0,2024-06-10,2024-06-10,合同会社ブリッジ,,合同会社,東京都,豊島区,池袋３丁目３４番７号ビジネスパーク池袋２階,,13,116,1710014,,,,,,,2024-06-10,1,,,,,ブリッジ,0
351,2020005016450,新規,0,2024-06-10,2024-06-10,税理士法人ドットプロ,,その他の設立登記法人,神奈川県,川崎市中原区,中丸子１３番地２フロンティア武蔵小杉ビルＮ棟１１階１１Ｂ室,,14,133,2110012,,,,,,,2024-06-10,1,,,,,ドットプロ,0
352,2021001082429,新規,0,2024-06-10,2024-06-10,株式会社ララソーロ,,株式会社,神奈川県,大和市,下和田２６２番地７６－１０２,,14,213,2420015,,,,,,,2024-06-10,1,,,,,ララソーロ,0
361,2030001160689,新規,0,2024-06-10,2024-06-10,東照コーポレーション株式会社,,株式会社,埼玉県,鴻巣市,すみれ野４番地１６,,11,217,3650067,,,,,,,2024-06-10,1,,,,,トウショウコーポレーション,0
362,2030001160747,新規,0,2024-06-10,2024-06-10,株式会社ＣＫコーポレーション,,株式会社,埼玉県,三郷市,彦成２丁目４０７番地６,,11,237,3410003,,,,,,,2024-06-10,1,,,,,シーケーコーポレーション,0
363,2030001160755,新規,0,2024-06-10,2024-06-10,ファストクリエーション株式会社,,株式会社,埼玉県,さいたま市北区,宮原町３丁目９０１番地１Ｇ－１１０５,,11,102,3310812,,,,,,,2024-06-10,1,,,,,ファストクリエーション,0
364,2030001160788,新規,0,2024-06-10,2024-06-10,株式会社ＵＮＩＴＥ,,株式会社,埼玉県,さいたま市見沼区,東大宮３丁目６番地２ブルーハイツＡ２０３,,11,104,3370051,,,,,,,2024-06-10,1,,,,,ユナイト,0
365,2030001160870,新規,0,2024-06-10,2024-06-10,株式会社ＹＡＳＡＫＡ,,株式会社,埼玉県,朝霞市,本町２丁目４番６号トモエレジデンス２０５,,11,227,3510011,,,,,,,2024-06-10,1,,,,,ヤサカ,0
368,2030003024454,新規,0,2024-06-10,2024-06-10,合同会社ゴールデンクロス,,合同会社,埼玉県,熊谷市,別府５丁目１８５番地１,,11,202,3600856,,,,,,,2024-06-10,1,,,,,ゴールデンクロス,0
382,2040003025071,新規,0,2024-06-10,2024-06-10,合同会社ＫＩＮ,,合同会社,千葉県,市川市,新田２丁目２９－４,,12,203,2720035,,,,,,,2024-06-10,1,,,,,ケーアイエヌ,0
383,2040003025154,新規,0,2024-06-10,2024-06-10,Ｓ４ＳＥＷＡ合同会社,,合同会社,千葉県,成田市,加良部２丁目１番地１（８棟５０３号）,,12,211,2860036,,,,,,,2024-06-10,1,,,,,エスフォルセワ,0
384,2040003025179,新規,0,2024-06-10,2024-06-10,フジミクオリティ合同会社,,合同会社,千葉県,千葉市中央区,富士見２丁目２３番１０号－２Ｆ,,12,101,2600015,,,,,,,2024-06-10,1,,,,,フジミクオリティ,0
385,2040003025187,新規,0,2024-06-10,2024-06-10,合同会社ＴＫ,,合同会社,千葉県,印西市,牧の木戸１丁目１３番地１２,,12,231,2701357,,,,,,,2024-06-10,1,,,,,ティーケー,0
391,2050001054880,新規,0,2024-06-10,2024-06-10,株式会社にこにこ保険相談,,株式会社,茨城県,土浦市,神立町２４２４番地２１,,08,203,3000013,,,,,,,2024-06-10,1,,,,,ニコニコホケンソウダン,0
395,2080003003222,新規,0,2024-06-10,2024-06-10,合同会社アスファルト,,合同会社,静岡県,静岡市駿河区,谷田１１－１３,,22,102,4228002,,,,,,,2024-06-10,1,,,,,アスファルト,0
396,2080101024797,新規,0,2024-06-10,2024-06-10,株式会社ｏｆｆｉｃｅ中山,,株式会社,静岡県,裾野市,深良１７９番地の１,,22,220,4101102,,,,,,,2024-06-10,1,,,,,オフィスナカヤマ,0
397,2080105006437,新規,0,2024-06-10,2024-06-10,一般財団法人レオーネ,,その他の設立登記法人,静岡県,下田市,一丁目６番１８号,,22,219,4150021,,,,,,,2024-06-10,1,,,,,レオーネ,0
400,2080401027244,新規,0,2024-06-10,2024-06-10,株式会社大塚総合サービス,,株式会社,静岡県,湖西市,白須賀４０４３番地,,22,221,4310451,,,,,,,2024-06-10,1,,,,,オオツカソウゴウサービス,0
407,2110001038456,新規,0,2024-06-10,2024-06-10,株式会社リノア,,株式会社,新潟県,十日町市,新座甲６２０番地５号２階,,15,210,9480000,,,,,,,2024-06-10,1,,,,,リノア,0
418,2120001265776,新規,0,2024-06-10,2024-06-10,株式会社トラビス,,株式会社,大阪府,大阪市浪速区,恵美須西２丁目８番１９－１００１号,,27,111,5560003,,,,,,,2024-06-10,1,,,,,トラビス,0
421,2120003026788,新規,0,2024-06-10,2024-06-10,Ｏｎｅ　Ｌｉｆｅ　Ａｄｖｅｎｔｕｒｅｓ合同会社,,合同会社,大阪府,大阪市浪速区,幸町１丁目３番２９号マンハイム難波１２０３号室,,27,111,5560021,,,,,,,2024-06-10,1,,,,,ワンライフアドベンチャーズ,0
423,2120101069730,新規,0,2024-06-10,2024-06-10,中山商会株式会社,,株式会社,大阪府,羽曳野市,大黒１４２番地の１,,27,222,5830847,,,,,,,2024-06-10,1,,,,,ナカヤマショウカイ,0
424,2120101069739,新規,0,2024-06-10,2024-06-10,株式会社隆昌,,株式会社,大阪府,和泉市,府中町４丁目１８番６－５０４号,,27,219,5940071,,,,,,,2024-06-10,1,,,,,リュウショウ,0
425,2120101069747,新規,0,2024-06-10,2024-06-10,株式会社奥中不動産,,株式会社,大阪府,堺市中区,深井北町３４番地,,27,142,5998271,,,,,,,2024-06-10,1,,,,,オクナカフドウサン,0
426,2120101069763,新規,0,2024-06-10,2024-06-10,株式会社ＳＫ‐Ｌｉｆｅ,,株式会社,大阪府,堺市南区,美木多上３７１番地５,,27,145,5900136,,,,,,,2024-06-10,1,,,,,エスケーライフ,0
429,2120103005873,新規,0,2024-06-10,2024-06-10,ＴＨＡＮＨ　ＴＨＡＮＨ合同会社,,合同会社,大阪府,堺市堺区,宿院町西３丁２番１４－８０２号,,27,141,5900958,,,,,,,2024-06-10,1,,,,,タンタン,0
430,2120103005881,新規,0,2024-06-10,2024-06-10,合同会社ＭＤＲ,,合同会社,大阪府,岸和田市,箕土路町３丁目４番１４号,,27,202,5960801,,,,,,,2024-06-10,1,,,,,エムディーアール,0
433,2122005003749,新規,0,2024-06-10,2024-06-10,ＮＰＯ法人ＫｙｏｔｏＲｕｇｂｙＡｃａｄｅｍｙ,,その他の設立登記法人,大阪府,東大阪市,昭和町１９番１６号,,27,227,5798046,,,,,,,2024-06-10,1,,,,,キョウトラグビーアカデミー,0
436,2130001077254,新規,0,2024-06-10,2024-06-10,Ａｚｐ株式会社,,株式会社,京都府,京都市左京区,吉田河原町１８番地２０,,26,103,6068305,,,,,,,2024-06-10,1,,,,,アズプランニング,0
446,2140001134756,新規,0,2024-06-10,2024-06-10,株式会社サイバーエージェンシー,,株式会社,兵庫県,三田市,桑原１２０番地３,,28,219,6691521,,,,,,,2024-06-10,1,,,,,サイバーエージェンシー,0
452,2140003020649,新規,0,2024-06-10,2024-06-10,合同会社四十鈴,,合同会社,兵庫県,高砂市,阿弥陀町魚橋１０４２番地の６,,28,216,6760822,,,,,,,2024-06-10,1,,,,,ヨンジュウリン,0
453,2140005027106,新規,0,2024-06-10,2024-06-10,一般社団法人フォルゲ・ディア,,その他の設立登記法人,兵庫県,神戸市兵庫区,浜中町１丁目２番５－５０７号,,28,105,6520875,,,,,,,2024-06-10,1,,,,,フォルゲディア,0
455,2160001025994,新規,0,2024-06-10,2024-06-10,株式会社ＭＩＫＡＴＡ,,株式会社,滋賀県,草津市,平井４丁目１番１２号,,25,206,5250023,,,,,,,2024-06-10,1,,,,,ミカタ,0
461,2180001161879,新規,0,2024-06-10,2024-06-10,株式会社ヒキト,,株式会社,愛知県,名古屋市熱田区,六野１丁目２番２１号ザ・ライオンズミッドキャピタルタワー２９０２号,,23,109,4560023,,,,,,,2024-06-10,1,,,,,ヒキト,0
462,2180001161895,新規,0,2024-06-10,2024-06-10,株式会社一心,,株式会社,愛知県,清須市,西田中白山１１８番地,,23,233,4520933,,,,,,,2024-06-10,1,,,,,イッシン,0
465,2180003026915,新規,0,2024-06-10,2024-06-10,合同会社雅楽,,合同会社,愛知県,名古屋市中川区,戸田明正２丁目２２１５番地の１,,23,110,4540961,,,,,,,2024-06-10,1,,,,,ガラク,0
471,2200001042580,新規,0,2024-06-10,2024-06-10,ＬＥＢＥＮ株式会社,,株式会社,岐阜県,大垣市,代官町４番地１,,21,202,5030895,,,,,,,2024-06-10,1,,,,,レーベン,0
472,2200001042589,新規,0,2024-06-10,2024-06-10,株式会社Ｐｏｗｅｒ　Ｌｉｆｔ,,株式会社,岐阜県,瑞穂市,中宮５５９番地１,,21,216,5010323,,,,,,,2024-06-10,1,,,,,パワーリフト,0
473,2200003006377,新規,0,2024-06-10,2024-06-10,中山道合同会社,,合同会社,岐阜県,中津川市,茄子川３６３番地の１５０,,21,206,5099132,,,,,,,2024-06-10,1,,,,,ナカセンドウ,0
474,2210001019784,新規,0,2024-06-10,2024-06-10,株式会社Ｔ‐ＰＬＡＮＮＩＮＧ　ＰＬＵＳ,,株式会社,福井県,福井市,木田３丁目２１１４番地２,,18,201,9188105,,,,,,,2024-06-10,1,,,,,ティープランニングプラス,0
475,2220001026053,新規,0,2024-06-10,2024-06-10,株式会社ツカノマ,,株式会社,石川県,白山市,手取町オ１１３番地,,17,210,9290212,,,,,,,2024-06-10,1,,,,,ツカノマ,0
479,2240001063350,新規,0,2024-06-10,2024-06-10,Ｔｈｅ　ｆｉｎ．株式会社,,株式会社,広島県,広島市中区,三川町４番１９号１階,,34,101,7300029,,,,,,,2024-06-10,1,,,,,ザフィン,0
480,2240001063359,新規,0,2024-06-10,2024-06-10,株式会社ＳＴ,,株式会社,広島県,広島市安芸区,瀬野５丁目７番１０－２０１号,,34,107,7390311,,,,,,,2024-06-10,1,,,,,エスティー,0
485,2250001020680,新規,0,2024-06-10,2024-06-10,株式会社ＮＡＫＡＭＵＲＡ,,株式会社,山口県,下関市,川中豊町１丁目１２番１５号,,35,201,7510853,,,,,,,2024-06-10,1,,,,,ナカムラ,0
487,2260003004788,新規,0,2024-06-10,2024-06-10,合同会社Ｗｅｌｉｎａ,,合同会社,岡山県,笠岡市,西大島新田３５２番地４,,33,205,7140031,,,,,,,2024-06-10,1,,,,,ウェリナ,0
491,2290001105998,新規,0,2024-06-10,2024-06-10,株式会社白水電気管理事務所,,株式会社,福岡県,朝倉市,甘木２６１番地７,,40,228,8380068,,,,,,,2024-06-10,1,,,,,シロミズデンキカンリジムショ,0
492,2290001106047,新規,0,2024-06-10,2024-06-10,株式会社ＳＰｅｅＤ,,株式会社,福岡県,大牟田市,天道町１９０番地３,,40,202,8360896,,,,,,,2024-06-10,1,,,,,スピード,0
493,2290001106071,新規,0,2024-06-10,2024-06-10,株式会社久野,,株式会社,福岡県,福津市,宮司浜３丁目１８番１号,,40,224,8113311,,,,,,,2024-06-10,1,,,,,ヒサノ,0
494,2290003015394,新規,0,2024-06-10,2024-06-10,合同会社木下社会福祉士事務所,,合同会社,福岡県,大牟田市,柿園町１丁目１番地３,,40,202,8360801,,,,,,,2024-06-10,1,,,,,キノシタシャカイフクシシジムショ,0
496,2300001013778,新規,0,2024-06-10,2024-06-10,株式会社Ｎｏｉｘ,,株式会社,佐賀県,嬉野市,嬉野町大字下宿乙２３６２番地１,,41,209,8430301,,,,,,,2024-06-10,1,,,,,ノワ,0
497,2300003002135,新規,0,2024-06-10,2024-06-10,合同会社清栄エステート,,合同会社,佐賀県,佐賀市,多布施４丁目１４番８号,,41,201,8400842,,,,,,,2024-06-10,1,,,,,セイエイエステート,0
498,2310001019056,新規,0,2024-06-10,2024-06-10,株式会社ＦＣＥ,,株式会社,長崎県,佐世保市,鹿町町深江潟５８番地５,,42,202,8596143,,,,,,,2024-06-10,1,,,,,エフシーイー,0
501,2310005008773,新規,0,2024-06-10,2024-06-10,一般社団法人島原立志会,,その他の設立登記法人,長崎県,島原市,新馬場町９７０番地１,,42,203,8550033,,,,,,,2024-06-10,1,,,,,シマバラリッシカイ,0
502,2320001020525,新規,0,2024-06-10,2024-06-10,株式会社誠興,,株式会社,大分県,中津市,大字相原３３９５番地１１,,44,203,8710022,,,,,,,2024-06-10,1,,,,,セイコウ,0
503,2320001020533,新規,0,2024-06-10,2024-06-10,株式会社メモワールドゥナナ,,株式会社,大分県,別府市,石垣東１丁目９番２６号,,44,202,8740919,,,,,,,2024-06-10,1,,,,,メモワールドゥナナ,0
506,2330001032156,新規,0,2024-06-10,2024-06-10,アルテナーシング株式会社,,株式会社,熊本県,熊本市中央区,京町２丁目７番３４号,,43,101,8600078,,,,,,,2024-06-10,1,,,,,アルテナーシング,0
511,2350003004663,新規,0,2024-06-10,2024-06-10,合同会社まるゆう,,合同会社,宮崎県,都城市,都北町６２４７番地２,,45,202,8850004,,,,,,,2024-06-10,1,,,,,マルユウ,0
513,2360001033779,新規,0,2024-06-10,2024-06-10,株式会社琉球ケータリング,,株式会社,沖縄県,豊見城市,字翁長８１３番地１、２階,,47,212,9010223,,,,,,,2024-06-10,1,,,,,リュウキュウケータリング,0
514,2360001033787,新規,0,2024-06-10,2024-06-10,ガフー株式会社,,株式会社,沖縄県,国頭郡本部町,字健堅１０８５番２,,47,308,9050226,,,,,,,2024-06-10,1,,,,,ガフー,0
515,2370001051359,新規,0,2024-06-10,2024-06-10,株式会社ＴＤＬ,,株式会社,宮城県,仙台市青葉区,国分町２丁目１２番５号,,04,101,9800803,,,,,,,2024-06-10,1,,,,,ティディエル,0
516,2370005010798,新規,0,2024-06-10,2024-06-10,特定非営利活動法人教師子ども支援Ｓｋｉｅｓ,,その他の設立登記法人,宮城県,仙台市太白区,西多賀３丁目１１番３４号,,04,104,9820034,,,,,,,2024-06-10,1,,,,,キョウシコドモシエンスカイズ,0
521,2390001017630,新規,0,2024-06-10,2024-06-10,株式会社モンテディオフットボールパーク,,株式会社,山形県,山形市,本町１丁目５番１９号やまがたクリエイティブシティセンターＱ１　３－Ａ,,06,201,9900043,,,,,,,2024-06-10,1,,,,,モンテディオフットボールパーク,0
525,2420001018757,新規,0,2024-06-10,2024-06-10,株式会社三沢水道工事,,株式会社,青森県,三沢市,古間木１丁目１５２番地１９５号,,02,207,0330051,,,,,,,2024-06-10,1,,,,,ミサワスイドウコウジ,0
534,2460301005229,新規,0,2024-06-10,2024-06-10,株式会社オホーツクスローフード,,株式会社,北海道,網走市,台町１丁目９番１１号ワコーハイツＩ１０２,00135080,01,211,0930031,,,,,,,2024-06-10,1,,,,,オホーツクスローフード,0
536,2470001020246,新規,0,2024-06-10,2024-06-10,株式会社西日本ポスティング,,株式会社,香川県,高松市,勅使町１４９番地１,,37,201,7618058,,,,,,,2024-06-10,1,,,,,ニシニホンポスティング,0
537,2470003002655,新規,0,2024-06-10,2024-06-10,ハピネス合同会社,,合同会社,香川県,高松市,木太町３９１４番地１７,,37,201,7600080,,,,,,,2024-06-10,1,,,,,ハピネス,0
543,2700150125846,新規,0,2024-06-10,2024-06-10,ＳＰＥＥＦＯＸ　ＣＯ．，ＬＥＤ．ＪＡＰＡＮ　ＯＦＦＩＣＥ,,外国会社等,大阪府,大阪市北区,曾根崎新地１丁目１３－２２ＷｅＷｏｒｋ御堂筋フロンティア４Ｆ１２０号,,27,127,5300002,京畿道利川市暮加面大月路１２７番ギル５１,,,,,,2024-06-10,1,,,,,カブシキガイシヤスピーフオツクスジヤパンオフイス,0
544,2700150125854,新規,0,2024-06-10,2024-06-10,杭州欣炎科技有限公司,,外国会社等,,,,,,,,中国浙江省杭州市臨平区東湖街道超峰西路６号３幢４楼４０１号,,,,,,2024-06-10,1,,,,,コウシュウキンエンカギユウゲンコウシ,0
551,3010001245301,新規,0,2024-06-10,2024-06-10,中潤万家株式会社,,株式会社,東京都,千代田区,内神田２丁目４番２号一広グローバルビル１００１号,,13,101,1010047,,,,,,,2024-06-10,1,,,,,チュウジュンマンケ,0
552,3010001245656,新規,0,2024-06-10,2024-06-10,株式会社Ａｓｔｒｏｂｒｉｄｇｅ,,株式会社,東京都,中央区,日本橋室町１丁目１１番１２号日本橋水野ビル７階,,13,102,1030022,,,,,,,2024-06-10,1,,,,,アストロブリッジ,0
557,3010003043876,新規,0,2024-06-10,2024-06-10,アシスト合同会社,,合同会社,東京都,文京区,小石川３丁目２６番２,,13,105,1120002,,,,,,,2024-06-10,1,,,,,アシスト,0
558,3010003043959,新規,0,2024-06-10,2024-06-10,合同会社リエネ新潟関川ウインドファーム,,合同会社,東京都,中央区,京橋２丁目１２番６号ＡＯＪ税理士法人内,,13,102,1040031,,,,,,,2024-06-10,1,,,,,リエネニイガタセキカワウインドファーム,0
559,3010101016172,新規,0,2024-06-10,2024-06-10,株式会社ＬｏｇｉＦａｂ,,株式会社,東京都,八王子市,片倉町８番地８,,13,201,1920914,,,,,,,2024-06-10,1,,,,,ロジファブ,0
567,3010401182945,新規,0,2024-06-10,2024-06-10,株式会社Ａｎｉｍａ　Ｅｎｇｉｎｅ,,株式会社,東京都,港区,高輪１丁目２３番２３－２７０３号,,13,103,1080074,,,,,,,2024-06-10,1,,,,,アニマエンジン,0
568,3010401183051,新規,0,2024-06-10,2024-06-10,おかみ株式会社,,株式会社,東京都,港区,南麻布５丁目５番１４号,,13,103,1060047,,,,,,,2024-06-10,1,,,,,オカミ,0
573,3010501052437,新規,0,2024-06-10,2024-06-10,ＭＳ株式会社,,株式会社,東京都,台東区,浅草６丁目１０－１,,13,106,1110032,,,,,,,2024-06-10,1,,,,,エムエス,0
575,3010601065339,新規,0,2024-06-10,2024-06-10,Ｇ‐ｅｉｇｈｔ株式会社,,株式会社,東京都,江東区,海辺１２番６号３階Ａ,,13,108,1350012,,,,,,,2024-06-10,1,,,,,ジーエイト,0
576,3010601065347,新規,0,2024-06-10,2024-06-10,ＴＭ‐ＢＯＮＤ株式会社,,株式会社,東京都,江東区,北砂４丁目３番８－２０４号,,13,108,1360073,,,,,,,2024-06-10,1,,,,,ティーエムボンド,0
583,3010701046107,新規,0,2024-06-10,2024-06-10,株式会社ＰＥＲＫ,,株式会社,東京都,品川区,東五反田５丁目２２番２５号池田山マンション２Ｆ,,13,109,1410022,,,,,,,2024-06-10,1,,,,,パーク,0
588,3010903009126,新規,0,2024-06-10,2024-06-10,Ｓｗａｇ＆Ｃｏ．合同会社,,合同会社,東京都,世田谷区,北烏山９丁目２４－１７ＶＩＬＬＡＢＩＡＮＣＯ２０３,,13,112,1570061,,,,,,,2024-06-10,1,,,,,スワッグアンドカンパニー,0
589,3010903009134,新規,0,2024-06-10,2024-06-10,合同会社ｍａｒｕｔｏ,,合同会社,東京都,世田谷区,下馬３丁目１６番１７号パラシオン下馬２０４,,13,112,1540002,,,,,,,2024-06-10,1,,,,,マルト,0
595,3011001162602,新規,0,2024-06-10,2024-06-10,ｎａｔｉｖｅ．株式会社,,株式会社,東京都,渋谷区,恵比寿３丁目９‐２９‐２ＦＲｅｌｉｃＳＱＵＡＲＥＺＥＲＯ,,13,113,1500013,,,,,,,2024-06-10,1,,,,,ネイティヴ,0
596,3011003019346,新規,0,2024-06-10,2024-06-10,合同会社宮浦会計,,合同会社,東京都,目黒区,中央町２丁目３８番７号カーサ大野２０１号,,13,110,1520001,,,,,,,2024-06-10,1,,,,,ミヤウラカイケイ,0
597,3011005010559,新規,0,2024-06-10,2024-06-10,一般社団法人慶光会,,その他の設立登記法人,東京都,渋谷区,渋谷２丁目２２－１１渋谷フランセ奥野ビル７Ｆ,,13,113,1500002,,,,,,,2024-06-10,1,,,,,ケイコウカイ,0
601,3011103014494,新規,0,2024-06-10,2024-06-10,アイズラック合同会社,,合同会社,東京都,新宿区,西新宿３丁目３－１３西新宿水間ビル２Ｆ,,13,104,1600023,,,,,,,2024-06-10,1,,,,,アイズラック,0
602,3011105011052,新規,0,2024-06-10,2024-06-10,弁護士法人五常,,その他の設立登記法人,東京都,新宿区,新宿１丁目６番５号シガラキビル３階,,13,104,1600022,,,,,,,2024-06-10,1,,,,,ゴジョウ,0
603,3011201025534,新規,0,2024-06-10,2024-06-10,株式会社フィーカハウス,,株式会社,東京都,中野区,南台３丁目６番１６－２０６号,,13,114,1640014,,,,,,,2024-06-10,1,,,,,フィーカハウス,0
605,3011305002982,新規,0,2024-06-10,2024-06-10,一般社団法人紫花会,,その他の設立登記法人,東京都,杉並区,宮前５丁目２５番１８号,,13,115,1680081,,,,,,,2024-06-10,1,,,,,シバナカイ,0
606,3011401026159,新規,0,2024-06-10,2024-06-10,株式会社宇賀,,株式会社,東京都,板橋区,若木２丁目１１番５号ガーデンハイツフタバ４０１号,,13,119,1740065,,,,,,,2024-06-10,1,,,,,ウガ,0
613,3011801044347,新規,0,2024-06-10,2024-06-10,株式会社ＭｏＱ,,株式会社,東京都,足立区,千住仲町９番６号アバ・ドレバイショース１０２,,13,121,1200036,,,,,,,2024-06-10,1,,,,,モキュ,0
617,3012401041949,新規,0,2024-06-10,2024-06-10,株式会社ＬＥＡＤ‐ＩＮＧ,,株式会社,東京都,稲城市,矢野口３１０番地の１,,13,225,2060812,,,,,,,2024-06-10,1,,,,,リーディング,0
618,3012401041957,新規,0,2024-06-10,2024-06-10,株式会社ツリースクエア,,株式会社,東京都,府中市,四谷５丁目９番地の４６,,13,206,1830035,,,,,,,2024-06-10,1,,,,,ツリースクエア,0
626,3013301052656,新規,0,2024-06-10,2024-06-10,株式会社Ｎ・Ｉ・ＳＴＹＬＥ,,株式会社,東京都,豊島区,南池袋２丁目４９番７号池袋パークビル１階,,13,116,1710022,,,,,,,2024-06-10,1,,,,,エヌアイスタイル,0
628,3020001157512,新規,0,2024-06-10,2024-06-10,Ａｓｔｅｒ株式会社,,株式会社,神奈川県,横浜市西区,浅間町１丁目４番３号ウィザードビル４０２,,14,103,2200072,,,,,,,2024-06-10,1,,,,,アスター,0
629,3020001157636,新規,0,2024-06-10,2024-06-10,エクサスセンド株式会社,,株式会社,神奈川県,川崎市多摩区,堰１丁目１７番５２号,,14,135,2140022,,,,,,,2024-06-10,1,,,,,エクサスセンド,0
632,3020003026310,新規,0,2024-06-10,2024-06-10,合同会社ＫＨブリステート,,合同会社,神奈川県,川崎市幸区,新塚越１番地２サウザンドシティ７－４０８,,14,132,2120027,,,,,,,2024-06-10,1,,,,,ケイエイチブリステート,0
637,3021001082469,新規,0,2024-06-10,2024-06-10,株式会社ひまわり物流サービス,,株式会社,神奈川県,相模原市南区,相模台７丁目１８番１６号,,14,153,2520321,,,,,,,2024-06-10,1,,,,,ヒマワリブツリュウサービス,0
645,3030001160754,新規,0,2024-06-10,2024-06-10,ＨＳ　Ｔｒａｄｉｎｇ株式会社,,株式会社,埼玉県,熊谷市,上奈良９７３－６,,11,202,3600805,,,,,,,2024-06-10,1,,,,,エイチエストレーディング,0
646,3030001160837,新規,0,2024-06-10,2024-06-10,浦和エステートサービス株式会社,,株式会社,埼玉県,さいたま市桜区,大字神田８５番地１１,,11,106,3380812,,,,,,,2024-06-10,1,,,,,ウラワエステートサービス,0
656,3040001133981,新規,0,2024-06-10,2024-06-10,株式会社ｊｉｙｕｎａ,,株式会社,千葉県,市川市,南八幡３丁目７番１５－３０３号（スクウェア・ハイム）,,12,203,2720023,,,,,,,2024-06-10,1,,,,,ジユナ,0
660,3040003025145,新規,0,2024-06-10,2024-06-10,合同会社Ｍｉｕ,,合同会社,千葉県,四街道市,大日４２２番地１０サントス大日１０１号,,12,228,2840001,,,,,,,2024-06-10,1,,,,,ミュウ,0
661,3040003025161,新規,0,2024-06-10,2024-06-10,いすみベリースカイブルー合同会社,,合同会社,千葉県,いすみ市,小高５０３番地５,,12,238,2980102,,,,,,,2024-06-10,1,,,,,イスミベリースカイブルー,0
662,3040003025178,新規,0,2024-06-10,2024-06-10,にこにこ不動産合同会社,,合同会社,千葉県,長生郡長柄町,皿木１５１番地１,,12,426,2970235,,,,,,,2024-06-10,1,,,,,ニコニコフドウサン,0
666,3050001054896,新規,0,2024-06-10,2024-06-10,株式会社ＣＨＩＴＯＳＥ,,株式会社,茨城県,土浦市,桜町１丁目３－１７,,08,203,3000037,,,,,,,2024-06-10,1,,,,,チトセ,0
669,3060003005104,新規,0,2024-06-10,2024-06-10,合同会社ファミリー,,合同会社,栃木県,佐野市,大橋町２０８８－６アリス佐野第一２０３,,09,204,3270003,,,,,,,2024-06-10,1,,,,,,0
676,3080105006436,新規,0,2024-06-10,2024-06-10,特定非営利活動法人富士山ランドパーク,,その他の設立登記法人,静岡県,富士宮市,万野原新田３３２７番地の１,,22,207,4180001,,,,,,,2024-06-10,1,,,,,フジサンランドパーク,0
677,3080401027243,新規,0,2024-06-10,2024-06-10,株式会社カーショップイノベーション,,株式会社,静岡県,浜松市中央区,新橋町１３３９番地１,,22,138,4328058,,,,,,,2024-06-10,1,,,,,カーショップイノベーション,0
678,3090001018749,新規,0,2024-06-10,2024-06-10,株式会社Ｂｌａｓｔ,,株式会社,山梨県,山梨市,鴨居寺４６２番地,,19,205,4050013,,,,,,,2024-06-10,1,,,,,,0
684,3100003007599,新規,0,2024-06-10,2024-06-10,合同会社プラトニア,,合同会社,長野県,岡谷市,湖畔３丁目２番１８号,,20,204,3940034,,,,,,,2024-06-10,1,,,,,プラトニア,0
687,3110003005412,新規,0,2024-06-10,2024-06-10,合同会社ＢＵＤＤＹ,,合同会社,新潟県,新潟市中央区,米山３丁目１‐３１パストラルハイム米山弐番館９０６号,,15,103,9500916,,,,,,,2024-06-10,1,,,,,バディ,0
702,3120001265668,新規,0,2024-06-10,2024-06-10,株式会社ＡＺ‐ＢＡＳＥ,,株式会社,大阪府,大阪市旭区,新森７丁目５番３０号,,27,117,5350022,,,,,,,2024-06-10,1,,,,,エーズィーベース,0
703,3120001265676,新規,0,2024-06-10,2024-06-10,日本仰韶株式会社,,株式会社,大阪府,大阪市生野区,小路東６丁目８番１７号昭和エクセルビュー東大阪１０３－Ｇ２３,,27,116,5440003,,,,,,,2024-06-10,1,,,,,ニホンコウショウ,0
705,3120003026804,新規,0,2024-06-10,2024-06-10,合同会社Ｌ’ｕｃｃｅｌｌｏ,,合同会社,大阪府,大阪市旭区,今市２丁目２０番２２号,,27,117,5350011,,,,,,,2024-06-10,1,,,,,ルチェッロ,0
707,3120101069705,新規,0,2024-06-10,2024-06-10,株式会社Ｄｅａｒ　ｃｈｉｌｄｒｅｎ,,株式会社,大阪府,岸和田市,土生町１３丁目３番３号,,27,202,5960825,,,,,,,2024-06-10,1,,,,,ディアチルドレン,0
709,3120103005889,新規,0,2024-06-10,2024-06-10,合同会社ＢＭＩＪ,,合同会社,大阪府,泉大津市,池浦町２丁目１２番１０―２号,,27,206,5950024,,,,,,,2024-06-10,1,,,,,ビーエムアイジェイ,0
710,3120105009863,新規,0,2024-06-10,2024-06-10,一般社団法人ＳＴＥＭ　ＣＥＬＬ　ＡＳＳＯＣＩＡＴＩＯＮ,,その他の設立登記法人,大阪府,泉佐野市,西本町９－３,,27,213,5980042,,,,,,,2024-06-10,1,,,,,ステムセルアソシエーション,0
711,3120901049286,新規,0,2024-06-10,2024-06-10,株式会社ＴＥＹＳ,,株式会社,大阪府,高槻市,安岡寺町３丁目１番２２号,,27,207,5691029,,,,,,,2024-06-10,1,,,,,ティーイーワイエス,0
716,3130001077237,新規,0,2024-06-10,2024-06-10,株式会社万事屋うっちゃん,,株式会社,京都府,京都市左京区,一乗寺西浦畑町２２－７,,26,103,6068127,,,,,,,2024-06-10,1,,,,,ヨロズヤウッチャン,0
717,3130001077253,新規,0,2024-06-10,2024-06-10,株式会社坪井土建,,株式会社,京都府,京都市伏見区,深草西浦町２丁目９０番地コーポ西浦２０１,,26,109,6120029,,,,,,,2024-06-10,1,,,,,ツボイドケン,0
718,3130003009626,新規,0,2024-06-10,2024-06-10,合同会社ＧＲＯＷ　ＭＹ　ＴＲＥＥ,,合同会社,京都府,京都市上京区,芝之町５１０,,26,102,6028412,,,,,,,2024-06-10,1,,,,,グローマイツリー,0
727,3140001134739,新規,0,2024-06-10,2024-06-10,ジェイテック株式会社,,株式会社,兵庫県,たつの市,新宮町中野庄２２０番地９,,28,229,6794327,,,,,,,2024-06-10,1,,,,,ジェイテック,0
728,3140001134771,新規,0,2024-06-10,2024-06-10,株式会社瑞象,,株式会社,兵庫県,神戸市中央区,下山手通３丁目３番１－４０２号,,28,110,6500011,,,,,,,2024-06-10,1,,,,,ズイゾウ,0
730,3140003020648,新規,0,2024-06-10,2024-06-10,合同会社三十九鈴,,合同会社,兵庫県,高砂市,阿弥陀町魚橋１０４２番地の６,,28,216,6760822,,,,,,,2024-06-10,1,,,,,サンジュウキュウリン,0
735,3150001027330,新規,0,2024-06-10,2024-06-10,株式会社アジュナ,,株式会社,奈良県,生駒郡三郷町,信貴ケ丘３丁目７－１０－１０２,,29,343,6360813,,,,,,,2024-06-10,1,,,,,アジュナ,0
738,3180001161911,新規,0,2024-06-10,2024-06-10,株式会社イージスホーム,,株式会社,愛知県,一宮市,中町２丁目８番１０号,,23,203,4910913,,,,,,,2024-06-10,1,,,,,イージスホーム,0
740,3180003026906,新規,0,2024-06-10,2024-06-10,コタロウコンサルティング合同会社,,合同会社,愛知県,名古屋市守山区,瀬古東３丁目１２４２メルヴェーユ瀬古３０５,,23,113,4630090,,,,,,,2024-06-10,1,,,,,コタロウコンサルティング,0
745,3200001042588,新規,0,2024-06-10,2024-06-10,株式会社Ｕ空調,,株式会社,岐阜県,岐阜市,東川手３丁目７７番地２,,21,201,5008257,,,,,,,2024-06-10,1,,,,,ユークウチョウ,0
748,3200003006368,新規,0,2024-06-10,2024-06-10,ＦＯＲ　Ｓ　ＡＵＴＯ合同会社,,合同会社,岐阜県,各務原市,川島渡町３８０番地３,,21,213,5016028,,,,,,,2024-06-10,1,,,,,フォーエスオート,0
749,3200003006376,新規,0,2024-06-10,2024-06-10,合同会社飛騨棲家,,合同会社,岐阜県,高山市,八幡町２１番地４,,21,203,5060852,,,,,,,2024-06-10,1,,,,,ヒダスミカ,0
750,3210001019783,新規,0,2024-06-10,2024-06-10,ＳＴＡＲファーム福井株式会社,,株式会社,福井県,坂井市,三国町黒目第１号８番地１,,18,210,9130037,,,,,,,2024-06-10,1,,,,,スターファームフクイ,0
751,3220001026036,新規,0,2024-06-10,2024-06-10,株式会社ＭｅｄｉＧｒａｃｅ,,株式会社,石川県,金沢市,米泉町８丁目１番地１（スプリーム・００Ａ号）,,17,201,9218044,,,,,,,2024-06-10,1,,,,,メディグレイス,0
752,3220001026052,新規,0,2024-06-10,2024-06-10,株式会社ヤマモト工務店,,株式会社,石川県,河北郡内灘町,字千鳥台４丁目４０番地,,17,365,9200277,,,,,,,2024-06-10,1,,,,,ヤマモトコウムテン,0
755,3230001020384,新規,0,2024-06-10,2024-06-10,株式会社ＳＩＭ,,株式会社,富山県,高岡市,蓮花寺２４番地４,,16,202,9330802,,,,,,,2024-06-10,1,,,,,エスアイエム,0
757,3240001063325,新規,0,2024-06-10,2024-06-10,株式会社Ｎ,,株式会社,広島県,福山市,曙町１丁目９番２－４号,,34,207,7210952,,,,,,,2024-06-10,1,,,,,エヌ,0
758,3240001063366,新規,0,2024-06-10,2024-06-10,株式会社かし森,,株式会社,広島県,広島市中区,国泰寺町２丁目２番２８号パラッシオ国泰寺１０２,,34,101,7300042,,,,,,,2024-06-10,1,,,,,カシモリ,0
763,3250003003518,新規,0,2024-06-10,2024-06-10,ＭＡＫＫ合同会社,,合同会社,山口県,山口市,大内矢田南６丁目５番５０号ハイムＢＹ１０２号室,,35,203,7530222,,,,,,,2024-06-10,1,,,,,エムエーケーケー,0
766,3260003004787,新規,0,2024-06-10,2024-06-10,合同会社Ｓｔａｎｄ　Ｕｐ,,合同会社,岡山県,笠岡市,北木島町８６９９番地１,,33,205,7140301,,,,,,,2024-06-10,1,,,,,スタンドアップ,0
771,3290001106070,新規,0,2024-06-10,2024-06-10,福岡理化ガラス株式会社,,株式会社,福岡県,飯塚市,柏の森９２番地２８５,,40,205,8200011,,,,,,,2024-06-10,1,,,,,フクオカリカガラス,0
776,3290003015435,新規,0,2024-06-10,2024-06-10,アナレマ合同会社,,合同会社,福岡県,糸島市,志摩野北字犬鳴山２７５７番４４,,40,230,8191303,,,,,,,2024-06-10,1,,,,,アナレマ,0
778,3290801030635,新規,0,2024-06-10,2024-06-10,株式会社小倉田加屋,,株式会社,福岡県,北九州市小倉南区,企救丘２丁目４番３号,,40,107,8020981,,,,,,,2024-06-10,1,,,,,コクラタガヤ,0
784,3290803004752,新規,0,2024-06-10,2024-06-10,合同会社ａｒｃｏｂａｌｅｎｏ,,合同会社,福岡県,北九州市八幡西区,青山２丁目３－１－９０１号,,40,109,8060043,,,,,,,2024-06-10,1,,,,,アルコバレーノ,0
786,3300001013777,新規,0,2024-06-10,2024-06-10,株式会社松本工業,,株式会社,佐賀県,小城市,小城町畑田２４８０番地２,,41,208,8450002,,,,,,,2024-06-10,1,,,,,マツモトコウギョウ,0
787,3310001019055,新規,0,2024-06-10,2024-06-10,ＺＥＡＬ　ＤＥＳＩＧＮ株式会社,,株式会社,長崎県,長崎市,浜町１１番２７号伊集院ビル３Ｆ,,42,201,8500853,,,,,,,2024-06-10,1,,,,,ジールデザイン,0
791,3330001032155,新規,0,2024-06-10,2024-06-10,株式会社コネクト,,株式会社,熊本県,熊本市東区,沼山津２丁目４番２６号,,43,102,8612102,,,,,,,2024-06-10,1,,,,,コネクト,0
792,3340001026560,新規,0,2024-06-10,2024-06-10,株式会社平村鈑金,,株式会社,鹿児島県,大島郡和泊町,大字手々知名１２５番地１,,46,533,8919111,,,,,,,2024-06-10,1,,,,,ヒラムラバンキン,0
800,3360001033729,新規,0,2024-06-10,2024-06-10,株式会社ＬＭＯ,,株式会社,沖縄県,那覇市,牧志２丁目１７－２７－４０１,,47,201,9000013,,,,,,,2024-06-10,1,,,,,エルエムオー,0
801,3360001033778,新規,0,2024-06-10,2024-06-10,保育園情報ポータル株式会社,,株式会社,沖縄県,中頭郡中城村,字泊２９番地２,,47,328,9012402,,,,,,,2024-06-10,1,,,,,ホイクエンジョウホウポータル,0
802,3360001033786,新規,0,2024-06-10,2024-06-10,株式会社Ａ‐ＦＩＶＥ,,株式会社,沖縄県,浦添市,宮城４丁目１８番２３号フレスコアパークビュー宮城９０１,,47,208,9012126,,,,,,,2024-06-10,1,,,,,エーファイブ,0
803,3360001033794,新規,0,2024-06-10,2024-06-10,琉球総合開発株式会社,,株式会社,沖縄県,浦添市,当山２丁目３５番５号,,47,208,9012104,,,,,,,2024-06-10,1,,,,,リュウキュウソウゴウカイハツ,0
812,3430001091975,新規,0,2024-06-10,2024-06-10,株式会社港ホールディングス,,株式会社,北海道,札幌市中央区,伏見３丁目１７番１９号,,01,101,0640942,,,,,,,2024-06-10,1,,,,,ミナトホールディングス,0
818,3470003002654,新規,0,2024-06-10,2024-06-10,１００万人ＤＡＯ合同会社,,合同会社,香川県,高松市,番町２丁目８の２５番町ハイム４０２,,37,201,7600017,,,,,,,2024-06-10,1,,,,,ヒャクマンニンダオ,0
822,3700150125845,新規,0,2024-06-10,2024-06-10,Ｈｏｎｇ　Ｋｏｎｇ　Ｌｉｙｉｎｇ　Ｉｎｄｕｓｔｒｉａｌ　Ｃｏ　Ｌｔｄ,,外国会社等,,,,,,,,ＵＮＩＴ　１５０７Ｃ，１５／Ｆ，ＥＡＳＴＣＯＲＥ　３９８　ＫＷＵＮ　ＴＯＮＧ　ＲＯＡＤ　ＫＷＵＮ　ＴＯＮＧ　ＫＬ　ＨＯＮＧ　ＫＯＮＧ,,,,,,2024-06-10,1,,,,,シアーンガーンリーイーンシーイエヨウシエンゴーンスー,0
823,3700150125853,新規,0,2024-06-10,2024-06-10,御和建設（深セン）有限公司,,外国会社等,,,,,,,,中国深セン市龍華区龍華街道油松社区東環二路４８号企生活人工智能華盛園１棟４層４０１,,,,,,2024-06-10,1,,,,,ゴワケンセツシンセンユウゲンコウシ,0
831,4010001245556,新規,0,2024-06-10,2024-06-10,株式会社ＫＩＣ,,株式会社,東京都,中央区,銀座６丁目１６番３号東京真珠ビル４階,,13,102,1040061,,,,,,,2024-06-10,1,,,,,ケーアイシー,0
832,4010001245580,新規,0,2024-06-10,2024-06-10,株式会社ＪＯソリューション,,株式会社,東京都,千代田区,九段南２丁目３番１０号,,13,101,1020074,,,,,,,2024-06-10,1,,,,,ジェイオーソリューション,0
836,4010003043999,新規,0,2024-06-10,2024-06-10,合同会社アイランドウェルネス,,合同会社,東京都,千代田区,丸の内２丁目４－１丸ビル１０階,,13,101,1000005,,,,,,,2024-06-10,1,,,,,アイランドウェルネス,0
842,4010401182977,新規,0,2024-06-10,2024-06-10,株式会社大楠,,株式会社,東京都,港区,新橋２丁目２０番１５号新橋駅前ビル１号館,,13,103,1050004,,,,,,,2024-06-10,1,,,,,オオクス,0
843,4010401183034,新規,0,2024-06-10,2024-06-10,ヒアシンスバイオサイエンス株式会社,,株式会社,東京都,港区,西新橋３丁目２４番８号山内ビル３階,,13,103,1050003,,,,,,,2024-06-10,1,,,,,ヒアシンスバイオサイエンス,0
846,4010501052394,新規,0,2024-06-10,2024-06-10,衛鋒商事株式会社,,株式会社,東京都,台東区,千束３丁目８番１０号上野ダイカンプラザシティ７０１号,,13,106,1110031,,,,,,,2024-06-10,1,,,,,エイホウショウジ,0
847,4010501052436,新規,0,2024-06-10,2024-06-10,株式会社Ｍｏｖｅ　Ｔｈｅ　Ｔｉｍｅ,,株式会社,東京都,台東区,台東３丁目１６番３号清水ビル４０１,,13,106,1100016,,,,,,,2024-06-10,1,,,,,ムーブザタイム,0
852,4010801035132,新規,0,2024-06-10,2024-06-10,株式会社葵総合会計,,株式会社,東京都,大田区,東矢口３丁目２番１号,,13,111,1460094,,,,,,,2024-06-10,1,,,,,アオイソウゴウカイケイ,0
853,4010803004985,新規,0,2024-06-10,2024-06-10,ＹＡＭＡＴＯＹＡ合同会社,,合同会社,東京都,大田区,久が原６丁目２４番１４号,,13,111,1460085,,,,,,,2024-06-10,1,,,,,ヤマトヤ,0
856,4010901055410,新規,0,2024-06-10,2024-06-10,株式会社ｆｅｎｎｅｌ,,株式会社,東京都,世田谷区,祖師谷３丁目１２－１－１０１,,13,112,1570072,,,,,,,2024-06-10,1,,,,,フェンネル,0
857,4010901055419,新規,0,2024-06-10,2024-06-10,株式会社エンデバー,,株式会社,東京都,世田谷区,代田５丁目１５番９号,,13,112,1550033,,,,,,,2024-06-10,1,,,,,エンデバー,0
858,4010901055427,新規,0,2024-06-10,2024-06-10,ＡＫＲ株式会社,,株式会社,東京都,世田谷区,深沢５丁目１０番１７号ファブリーＩＩ１０２,00135090,13,112,1580081,,,,,,,2024-06-10,1,,,,,エイケイアール,0
859,4010901055435,新規,0,2024-06-10,2024-06-10,株式会社ａｒｎｋｕ,,株式会社,東京都,世田谷区,奥沢５丁目２３－１５－４０４,,13,112,1580083,,,,,,,2024-06-10,1,,,,,アーンク,0
861,4010903009133,新規,0,2024-06-10,2024-06-10,合同会社ｏｔｅｌａ,,合同会社,東京都,世田谷区,若林１丁目５番５号,,13,112,1540023,,,,,,,2024-06-10,1,,,,,オテラ,0
868,4011101107646,新規,0,2024-06-10,2024-06-10,株式会社ｓｔｒｅａｍｐｅａｋ,,株式会社,東京都,新宿区,西新宿３丁目３番１３号西新宿水間ビル２Ｆ,,13,104,1600023,,,,,,,2024-06-10,1,,,,,ストリームピーク,0
870,4011103014502,新規,0,2024-06-10,2024-06-10,合同会社ＫＩＤＥ,,合同会社,東京都,新宿区,四谷２丁目１３番地１－７０４,,13,104,1600004,,,,,,,2024-06-10,1,,,,,キデ,0
872,4011201025533,新規,0,2024-06-10,2024-06-10,グループホーム勇気株式会社,,株式会社,東京都,中野区,中央１丁目３５番６号レッチフィールド中野坂上ビル６Ｆ,,13,114,1640011,,,,,,,2024-06-10,1,,,,,グループホームユウキ,0
873,4011301029731,新規,0,2024-06-10,2024-06-10,株式会社ＭＴ　Ｊａｐａｎ,,株式会社,東京都,杉並区,南荻窪１丁目４３番１１号セイガステージ荻窪４０３,,13,115,1670052,,,,,,,2024-06-10,1,,,,,エムティージャパン,0
874,4011401026158,新規,0,2024-06-10,2024-06-10,株式会社ＦＩＶＥ　ＷＡＹＳ,,株式会社,東京都,板橋区,富士見町１６番３号,,13,119,1740062,,,,,,,2024-06-10,1,,,,,ファイブウェイズ,0
879,4011601027798,新規,0,2024-06-10,2024-06-10,京耀株式会社,,株式会社,東京都,練馬区,関町北５丁目１３－２５Ａ室,,13,120,1770051,,,,,,,2024-06-10,1,,,,,キョウヨウ,0
880,4011601027807,新規,0,2024-06-10,2024-06-10,金贏株式会社,00135081,株式会社,東京都,練馬区,北町８丁目１２－１６ボヌール・マ・メゾンＢ１－Ｄ号室,,13,120,1790081,,,,,,,2024-06-10,1,,,,,キンエイ,0
883,4011801044346,新規,0,2024-06-10,2024-06-10,株式会社ＫＯＯＬＩＮＡコーポレーション,,株式会社,東京都,足立区,江北１丁目１１－５,,13,121,1230872,,,,,,,2024-06-10,1,,,,,コオリナコーポレーション,0
884,4011801044354,新規,0,2024-06-10,2024-06-10,Ｓｋｙｒｏｓ株式会社,,株式会社,東京都,足立区,栗原３丁目２６番１号２Ｆ,,13,121,1230842,,,,,,,2024-06-10,1,,,,,スカイロス,0
889,4012801023249,新規,0,2024-06-10,2024-06-10,佐藤商事株式会社,,株式会社,東京都,立川市,一番町２丁目２９番地の２,,13,202,1900033,,,,,,,2024-06-10,1,,,,,サトウショウジ,0
897,4013301052647,新規,0,2024-06-10,2024-06-10,株式会社スリージー,,株式会社,東京都,豊島区,長崎２丁目２６番１０号,,13,116,1710051,,,,,,,2024-06-10,1,,,,,スリージー,0
898,4013301052655,新規,0,2024-06-10,2024-06-10,ＬＩＮ株式会社,,株式会社,東京都,豊島区,東池袋５丁目４４番２１号Ｆｕｋｕｊｕｓｏ２階２Ａ,,13,116,1700013,,,,,,,2024-06-10,1,,,,,リン,0
902,4020001157593,新規,0,2024-06-10,2024-06-10,株式会社Ｍセカンド,,株式会社,神奈川県,横浜市青葉区,恩田町１１２４番地３,,14,117,2270065,,,,,,,2024-06-10,1,,,,,エムセカンド,0
910,4021001082468,新規,0,2024-06-10,2024-06-10,株式会社Ｇｏａｌｅｄ,,株式会社,神奈川県,大和市,南林間２丁目３番５号,,14,213,2420006,,,,,,,2024-06-10,1,,,,,ゴールド,0
915,4030001160811,新規,0,2024-06-10,2024-06-10,株式会社縁和,,株式会社,埼玉県,新座市,大和田２丁目４番４１号,,11,230,3520004,,,,,,,2024-06-10,1,,,,,エンワ,0
916,4030001160893,新規,0,2024-06-10,2024-06-10,株式会社カリフラワー,,株式会社,埼玉県,所沢市,榎町３番１５号,,11,208,3591104,,,,,,,2024-06-10,1,,,,,カリフラワー,0
925,4040001133956,新規,0,2024-06-10,2024-06-10,ＢＭ株式会社,,株式会社,千葉県,浦安市,猫実４丁目１３番２－３０１号標同ビル,,12,227,2790004,,,,,,,2024-06-10,1,,,,,ビーエム,0
926,4040001134021,新規,0,2024-06-10,2024-06-10,山富株式会社,,株式会社,千葉県,柏市,豊住３丁目１番２６－８０４号,,12,217,2770071,,,,,,,2024-06-10,1,,,,,ヤマトミ,0
931,4050001054854,新規,0,2024-06-10,2024-06-10,Ｒ．ｌｉｆｅｓｅｒｖｉｃｅ株式会社,,株式会社,茨城県,土浦市,永国５００番地１サンヒルズ永国Ｂ２０２,,08,203,3000817,,,,,,,2024-06-10,1,,,,,アールライフサービス,0
932,4050001054887,新規,0,2024-06-10,2024-06-10,株式会社ｈａｌｅａ,,株式会社,茨城県,古河市,下大野８５３番地１０,,08,204,3060204,,,,,,,2024-06-10,1,,,,,ハレア,0
934,4060001037197,新規,0,2024-06-10,2024-06-10,株式会社オオイエ,,株式会社,栃木県,小山市,駅南町１丁目５番７号,,09,208,3230822,,,,,,,2024-06-10,1,,,,,オオイエ,0
939,4080101024804,新規,0,2024-06-10,2024-06-10,スリーシックスコンサルティング株式会社,,株式会社,静岡県,沼津市,平町２５番１３号,,22,203,4100036,,,,,,,2024-06-10,1,,,,,スリーシックスコンサルティング,0
943,4090001018748,新規,0,2024-06-10,2024-06-10,アプロ山梨株式会社,,株式会社,山梨県,富士吉田市,下吉田８丁目２番４０号,,19,202,4030004,,,,,,,2024-06-10,1,,,,,アプロヤマナシ,0
946,4100003007598,新規,0,2024-06-10,2024-06-10,Ｓｉｃｋｓ合同会社,,合同会社,長野県,上高井郡小布施町,大字小布施２４７５番地１０,,20,541,3810201,,,,,,,2024-06-10,1,,,,,シックス,0
959,4120001265642,新規,0,2024-06-10,2024-06-10,ａＲａｙａ株式会社,,株式会社,大阪府,大阪市天王寺区,上本町４丁目２番３５号,,27,109,5430001,,,,,,,2024-06-10,1,,,,,アラヤ,0
960,4120001265650,新規,0,2024-06-10,2024-06-10,ＷＢＳ株式会社,,株式会社,大阪府,大阪市中央区,南本町１丁目４番９－１５０２号,,27,128,5410054,,,,,,,2024-06-10,1,,,,,ダブリュービーエス,0
961,4120001265667,新規,0,2024-06-10,2024-06-10,澳特森投資コンサルティング日本株式会社,,株式会社,大阪府,大阪市中央区,千日前１丁目５－１９寿楽ビル１００１号室,,27,128,5420074,,,,,,,2024-06-10,1,,,,,オテセントウシコンサルティングニホン,0
962,4120001265675,新規,0,2024-06-10,2024-06-10,日本ＵＮＩＱＵＥ株式会社,,株式会社,大阪府,大阪市城東区,関目５丁目１９番９号関目花博公館６１１Ａ,,27,118,5360008,,,,,,,2024-06-10,1,,,,,ニホンユニーク,0
963,4120001265683,新規,0,2024-06-10,2024-06-10,株式会社タッチダウン,,株式会社,大阪府,大阪市北区,大淀南２丁目８番１１－３０６号,,27,127,5310075,,,,,,,2024-06-10,1,,,,,タッチダウン,0
964,4120001265782,新規,0,2024-06-10,2024-06-10,株式会社Ｗｏｏｄｓ,,株式会社,大阪府,大阪市東住吉区,矢田１丁目２７番９号レトロハウス矢田ＥＡＳＴ１,,27,121,5460023,,,,,,,2024-06-10,1,,,,,ウッズ,0
965,4120101069761,新規,0,2024-06-10,2024-06-10,株式会社ＰＴＣ,,株式会社,大阪府,岸和田市,別所町３丁目１０番３号,,27,202,5960045,,,,,,,2024-06-10,1,,,,,ピィーティーシー,0
970,4120901049302,新規,0,2024-06-10,2024-06-10,株式会社穴吹技研,,株式会社,大阪府,豊中市,三和町１丁目３－１４,,27,203,5610828,,,,,,,2024-06-10,1,,,,,アナブキギケン,0
971,4120901049310,新規,0,2024-06-10,2024-06-10,株式会社ｒａｙｔｏ,,株式会社,大阪府,豊中市,新千里北町２丁目４０－Ｈ２０３,,27,203,5600081,,,,,,,2024-06-10,1,,,,,レイト,0
972,4122001038169,新規,0,2024-06-10,2024-06-10,株式会社サクラテック,,株式会社,大阪府,東大阪市,中小阪３丁目１番２号,,27,227,5770804,,,,,,,2024-06-10,1,,,,,サクラテック,0
973,4130001077252,新規,0,2024-06-10,2024-06-10,株式会社令六社,,株式会社,京都府,京都市上京区,掘出シ町３０４番地ＴＨＥＧＡＴＥｇｏｓｈｏｎｉｓｈｉ１Ｆ,,26,102,6020000,,,,,,,2024-06-10,1,,,,,レイロクシャ,0
987,4140003020647,新規,0,2024-06-10,2024-06-10,合同会社三十八鈴,,合同会社,兵庫県,高砂市,阿弥陀町魚橋１０４２番地の６,,28,216,6760822,,,,,,,2024-06-10,1,,,,,サンジュウハチリン,0
988,4140003020655,新規,0,2024-06-10,2024-06-10,合同会社四十六鈴,,合同会社,兵庫県,高砂市,阿弥陀町魚橋１０４２番地の６,,28,216,6760822,,,,,,,2024-06-10,1,,,,,ヨンジュウロクリン,0
993,4170001018178,新規,0,2024-06-10,2024-06-10,株式会社ＡＲＣＵＳ,,株式会社,和歌山県,和歌山市,友田町２丁目８６番地,,30,201,6408342,,,,,,,2024-06-10,1,,,,,アルクス,0
998,4180001161902,新規,0,2024-06-10,2024-06-10,株式会社山一住宅設備,,株式会社,愛知県,名古屋市港区,船頭場３丁目４０１番地の１,,23,111,4550881,,,,,,,2024-06-10,1,,,,,ヤマイチジュウタクセツビ,0
999,4180001161910,新規,0,2024-06-10,2024-06-10,株式会社くらすホーム,,株式会社,愛知県,春日井市,春日井町字黒鉾９番地１４,,23,206,4860963,,,,,,,2024-06-10,1,,,,,クラスホーム,0
1000,4180001161935,新規,0,2024-06-10,2024-06-10,株式会社Ｏｖａｌ,,株式会社,愛知県,名古屋市緑区,神の倉２丁目３番地の１,,23,114,4580812,,,,,,,2024-06-10,1,,,,,オーバル,0
1003,4180003026921,新規,0,2024-06-10,2024-06-10,ＳＡＧＩＴＡ　ＣＯＲＰＯＲＡＴＩＯＮ合同会社,,合同会社,愛知県,名古屋市中区,丸の内２丁目９番２４号Ｆａｃｅ日銀前９０２,,23,106,4600002,,,,,,,2024-06-10,1,,,,,サギタコーポレーション,0
1009,4200003006383,新規,0,2024-06-10,2024-06-10,民泊管理サポート合同会社,,合同会社,岐阜県,美濃市,片知１８３６－３,,21,207,5013781,,,,,,,2024-06-10,1,,,,,ミンパクカンリサポート,0
1010,4210001019782,新規,0,2024-06-10,2024-06-10,株式会社ＯＣＥＡＮ　ｉ．,,株式会社,福井県,福井市,木田１丁目１５０１番地,,18,201,9188105,,,,,,,2024-06-10,1,,,,,オーシャンアイ,0
1012,4230001020391,新規,0,2024-06-10,2024-06-10,株式会社ＭＫ,,株式会社,富山県,富山市,藤木２３２６番地６,,16,201,9300936,,,,,,,2024-06-10,1,,,,,エムケー,0
1013,4230003002231,新規,0,2024-06-10,2024-06-10,合同会社山崎広介箱庭設計,00135091,合同会社,富山県,射水市,七美２丁目１５番地３,,16,211,9330252,,,,,,,2024-06-10,1,,,,,ヤマザキコウスケハコニワセッケイ,0
1014,4240001063349,新規,0,2024-06-10,2024-06-10,株式会社ｓｊ．ｔｒｕｓｔ,,株式会社,広島県,福山市,箕島町字南丘６５１０番,,34,207,7210957,,,,,,,2024-06-10,1,,,,,エスジェートラスト,0
1019,4250001020687,新規,0,2024-06-10,2024-06-10,株式会社がんばり屋,,株式会社,山口県,宇部市,大字西岐波４５４,,35,202,7550151,,,,,,,2024-06-10,1,,,,,ガンバリヤ,0
1034,4290005019425,新規,0,2024-06-10,2024-06-10,一般社団法人日本色相推命学会,,その他の設立登記法人,福岡県,福岡市中央区,高砂２丁目１５－３４,,40,133,8100011,,,,,,,2024-06-10,1,,,,,ニッポンシキソウスイメイガッカイ,0
1035,4290801030634,新規,0,2024-06-10,2024-06-10,株式会社ダイヤモンドライフ,,株式会社,福岡県,北九州市若松区,東二島５丁目１４番３９号,,40,103,8080102,,,,,,,2024-06-10,1,,,,,ダイヤモンドライフ,0
1037,4300001013776,新規,0,2024-06-10,2024-06-10,株式会社Ｎ　ｃｒｅａｔｉｏｎ縁,,株式会社,佐賀県,唐津市,和多田西山１１番２３号,,41,202,8470084,,,,,,,2024-06-10,1,,,,,エヌクリエイションエン,0
1038,4300001013784,新規,0,2024-06-10,2024-06-10,株式会社いえサガエステート,,株式会社,佐賀県,佐賀市,八戸２丁目２番５５号,,41,201,8400854,,,,,,,2024-06-10,1,,,,,イエサガエステート,0
1044,4330001032146,新規,0,2024-06-10,2024-06-10,株式会社エイ・アイ・エス,,株式会社,熊本県,合志市,須屋１８８７番地９,,43,216,8611102,,,,,,,2024-06-10,1,,,,,エイアイエス,0
1045,4330001032154,新規,0,2024-06-10,2024-06-10,株式会社ＫＡＭＵＹ　ＵＴＡＲＩ,,株式会社,熊本県,宇城市,小川町江頭５１３番地２,,43,213,8690624,,,,,,,2024-06-10,1,,,,,カムイウタリ,0
1046,4330003010414,新規,0,2024-06-10,2024-06-10,合同会社旭志村定休型畜産ヘルパー利用組合,,合同会社,熊本県,菊池市,旭志川辺１８７５番地,,43,210,8691205,,,,,,,2024-06-10,1,,,,,キョクシムラテイキュウガタチクサン,0
1052,4360001033777,新規,0,2024-06-10,2024-06-10,株式会社雅,,株式会社,沖縄県,島尻郡八重瀬町,宇伊覇２４７番地４,,47,362,9010400,,,,,,,2024-06-10,1,,,,,ミヤビ,0
1053,4360001033793,新規,0,2024-06-10,2024-06-10,株式会社ベリル,,株式会社,沖縄県,那覇市,おもろまち４丁目６番１７号おもろパークテラス１－３,,47,201,9000006,,,,,,,2024-06-10,1,,,,,ベリル,0
1054,4360003014049,新規,0,2024-06-10,2024-06-10,合同会社ｈａｐｐｉｎｅｓｓ,,合同会社,沖縄県,糸満市,字糸満２０７７番地１ハーバーゾーン日本ＢＬＤＧ４０２号室,,47,210,9010361,,,,,,,2024-06-10,1,,,,,ハピネス,0
1055,4360003014057,新規,0,2024-06-10,2024-06-10,合同会社Ｓ＆Ｋ企画,,合同会社,沖縄県,浦添市,港川２丁目２６番２－２０２号,,47,208,9012134,,,,,,,2024-06-10,1,,,,,エスアンドケイキカク,0
1061,4380001034591,新規,0,2024-06-10,2024-06-10,樋口総合建設株式会社,00135083,株式会社,福島県,福島市,下野寺字山神１０番地の２,,07,201,9608075,,,,,,,2024-06-10,1,,,,,ヒグチソウゴウケンセツ,0
1070,4420001018755,新規,0,2024-06-10,2024-06-10,株式会社義,,株式会社,青森県,八戸市,大字市川町字桔梗野１９番地５６,,02,203,0392241,,,,,,,2024-06-10,1,,,,,ヨシ,0
1076,4430001091917,新規,0,2024-06-10,2024-06-10,株式会社ｆｏｒ‐ｅｓｔ,,株式会社,北海道,勇払郡厚真町,新町１０５番地新町シェアサテライトオフィス内,,01,581,0591623,,,,,,,2024-06-10,1,,,,,フォレスト,0
1083,4430003016442,新規,0,2024-06-10,2024-06-10,合同会社Ｔ‐ＮＥＸＴ,,合同会社,北海道,札幌市東区,北三十条東１５丁目３番１５－２０３号,,01,103,0650030,,,,,,,2024-06-10,1,,,,,ティーネクスト,0
1089,4480001012488,新規,0,2024-06-10,2024-06-10,ミヨシ貿易株式会社,,株式会社,徳島県,板野郡藍住町,徳命字新居須８０番地の１,,36,403,7711210,,,,,,,2024-06-10,1,,,,,,0
1091,4700150062451,新規,0,2024-06-10,2015-10-09,熊本県経営者協会,,その他,熊本県,熊本市中央区,下通１丁目７－１９証券ビル４Ｆ,,43,101,8600807,,,,,,,2015-10-09,1,,,,,クマモトケンケイエイシヤキヨウカイ,0
1092,4700150125836,新規,0,2024-06-10,2024-06-10,Ｇ．Ｐ．Ｓ．ＭＡＮＡＧＥＭＥＮＴ　ＰＲＩＶＡＴＥ　ＬＩＭＩＴＥＤ,,外国会社等,栃木県,足利市,今福町２９８番地３サンシティビル４号,,09,202,3260842,スリランカ民主社会主義共和国、キャンディ、カトゥガストタ、ラナワナ、チャンドリカ,,,,,,2024-06-10,1,,,,,ジーピーエスマネジメントプライベートリミテツド,0
1093,4700150125844,新規,0,2024-06-10,2024-06-10,ＧＲＥＥＮＥＲＹ　ＣＯＭＭＵＮＩＣＡＴＩＯＮ　ＥＬＥＣＴＲＯＮＩＣＳ　ＴＲＡＤＩＮＧ　ＣＯ．，ＬＩＭＩＴＥＤ,,外国会社等,,,,,,,,ＵＮＩＴ　１５０７Ｃ　１５／Ｆ　ＥＡＳＴＣＯＲＥ　３９８　ＫＷＵＮ　ＴＯＮＧ　ＲＯＡＤ　ＫＷＵＮ　ＴＯＮＧ　ＫＯＷＬＯＯＮ　ＨＯＮＧ　ＫＯＮＧ,,,,,,2024-06-10,1,,,,,ルウイイントーンシユインデイエンズーマオイージユウシーホウイシヨーア,0
1094,4700150125852,新規,0,2024-06-10,2024-06-10,仏山市燦奥貿易有限公司,,外国会社等,,,,,,,,中国広東省仏山市順徳区大良街道新キョウ社区鳳翔路４１号順徳創意産業園Ｅ棟５１８之十九,,,,,,2024-06-10,1,,,,,ブツザンシサンオウボウエキユウゲンコウシ,0
1103,5010001245555,新規,0,2024-06-10,2024-06-10,株式会社Ｃｌｅａｒ,,株式会社,東京都,中央区,東日本橋２丁目１１番６号,,13,102,1030004,,,,,,,2024-06-10,1,,,,,クリア,0
1104,5010001245638,新規,0,2024-06-10,2024-06-10,株式会社Ｃｌｕｂ５０,,株式会社,東京都,中央区,銀座１丁目１２－４Ｎ＆ＥＢＬＤ．７階,,13,102,1040061,,,,,,,2024-06-10,1,,,,,クラブゴジュー,0
1119,5010401183000,新規,0,2024-06-10,2024-06-10,株式会社ＭＩ８,,株式会社,東京都,港区,赤坂６丁目１３番６号赤坂キャステール７１２,,13,103,1070052,,,,,,,2024-06-10,1,,,,,エムアイエイト,0
1122,5010403032790,新規,0,2024-06-10,2024-06-10,合同会社ＦｉｎｅＴａｓｋ,,合同会社,東京都,港区,南青山３丁目１番３６号青山丸竹ビル６Ｆ,,13,103,1070062,,,,,,,2024-06-10,1,,,,,ファインタスク,0
1123,5010501052419,新規,0,2024-06-10,2024-06-10,新志株式会社,,株式会社,東京都,台東区,東上野３丁目１３－５深谷ビル６Ｆ,,13,106,1100015,,,,,,,2024-06-10,1,,,,,シンシ,0
1124,5010501052443,新規,0,2024-06-10,2024-06-10,Ｓ．Ｒ．Ｒ　Ｗｏｒｋｓ株式会社,,株式会社,東京都,台東区,台東２丁目３２番２号千と零３０２号室,,13,106,1100016,,,,,,,2024-06-10,1,,,,,エスアールアールワークス,0
1125,5010605004332,新規,0,2024-06-10,2024-06-10,一般社団法人全国病院歯科医協会,,その他の設立登記法人,東京都,江東区,深川２丁目４番１１号一ツ橋印刷株式会社学会事務センター内,,13,108,1350033,,,,,,,2024-06-10,1,,,,,ゼンコクビョウインシカイキョウカイ,0
1129,5010901055418,新規,0,2024-06-10,2024-06-10,株式会社ミライオクリエイツ,,株式会社,東京都,世田谷区,喜多見９丁目２３番２０号－１,,13,112,1570067,,,,,,,2024-06-10,1,,,,,ミライオクリエイツ,0
1130,5010901055434,新規,0,2024-06-10,2024-06-10,株式会社Ｆａｓｔ　Ｔｅｃｈ　Ｗａｖｅ,,株式会社,東京都,世田谷区,宮坂３丁目２３－１５,,13,112,1560051,,,,,,,2024-06-10,1,,,,,ファーストテックウェイブ,0
1132,5010903009132,新規,0,2024-06-10,2024-06-10,ＤＡＭＥＭＯＴＯ合同会社,,合同会社,東京都,世田谷区,給田３丁目２８－９－６０２,,13,112,1570064,,,,,,,2024-06-10,1,,,,,ダメモト,0
1138,5011001162526,新規,0,2024-06-10,2024-06-10,ｓａｔｏｒ株式会社,,株式会社,東京都,渋谷区,渋谷２丁目１９－１５宮益坂ビルディング６０９,,13,113,1500002,,,,,,,2024-06-10,1,,,,,セイター,0
1139,5011001162534,新規,0,2024-06-10,2024-06-10,ＳＵＰＥＲ　ＳＴＡＴＥ　ＨＯＬＤＩＮＧＳ株式会社,,株式会社,東京都,渋谷区,渋谷２丁目２１番１号,,13,113,1500002,,,,,,,2024-06-10,1,,,,,スーパーステートホールディングス,0
1140,5011001162542,新規,0,2024-06-10,2024-06-10,株式会社ＴＡＮＥ,,株式会社,東京都,目黒区,東が丘２丁目１－１５－２０５号,,13,110,1520021,,,,,,,2024-06-10,1,,,,,タネ,0
1148,5011201025540,新規,0,2024-06-10,2024-06-10,株式会社服部事務所,,株式会社,東京都,中野区,本町３丁目２３番２１号,,13,114,1640012,,,,,,,2024-06-10,1,,,,,ハットリジムショ,0
1150,5011301029747,新規,0,2024-06-10,2024-06-10,株式会社Ｌａ’ＢｏｏＳ,,株式会社,東京都,杉並区,成田東４丁目５番５号,,13,115,1660015,,,,,,,2024-06-10,1,,,,,,0
1152,5011501030769,新規,0,2024-06-10,2024-06-10,株式会社Ｌａｇｏｏｎ,,株式会社,東京都,北区,赤羽２丁目４３－２川田ビル１０１号室,,13,117,1150045,,,,,,,2024-06-10,1,,,,,ラグーン,0
1153,5011501030777,新規,0,2024-06-10,2024-06-10,株式会社Ａｒｋ,,株式会社,東京都,荒川区,町屋８丁目１２－１１サンティエビルディング,,13,118,1160001,,,,,,,2024-06-10,1,,,,,アーク,0
1157,5011703003861,新規,0,2024-06-10,2024-06-10,新昇合同会社,,合同会社,東京都,江戸川区,春江町２丁目３１－１５,,13,123,1320003,,,,,,,2024-06-10,1,,,,,シンショウ,0
1162,5012701018298,新規,0,2024-06-10,2024-06-10,株式会社サステナブルタウン,,株式会社,東京都,小平市,小川東町５丁目３番８－２号,,13,211,1870031,,,,,,,2024-06-10,1,,,,,サステナブルタウン,0
1168,5013301052646,新規,0,2024-06-10,2024-06-10,エステートプライム株式会社,,株式会社,東京都,豊島区,要町１丁目２２番６号,,13,116,1710043,,,,,,,2024-06-10,1,,,,,エステートプライム,0
1179,5020001157601,新規,0,2024-06-10,2024-06-10,株式会社ウッドエンジニアリング,,株式会社,神奈川県,横浜市鶴見区,鶴見中央４丁目３６番１号,,14,101,2300051,,,,,,,2024-06-10,1,,,,,ウッドエンジニアリング,0
1187,5021001082384,新規,0,2024-06-10,2024-06-10,プログレス株式会社,,株式会社,神奈川県,大和市,中央６丁目２番３３号ステラ３０３,,14,213,2420021,,,,,,,2024-06-10,1,,,,,プログレス,0
1191,5021003014625,新規,0,2024-06-10,2024-06-10,合同会社カノア,,合同会社,神奈川県,横須賀市,追浜本町１丁目３７番地,,14,201,2370068,,,,,,,2024-06-10,1,,,,,カノア,0
1194,5030001160769,新規,0,2024-06-10,2024-06-10,メディカルランナー株式会社,,株式会社,埼玉県,鶴ヶ島市,松ヶ丘４丁目１番１１－５０１号,,11,241,3502205,,,,,,,2024-06-10,1,,,,,メディカルランナー,0
1195,5030001160810,新規,0,2024-06-10,2024-06-10,株式会社リフレッシュ,,株式会社,埼玉県,比企郡滑川町,月の輪３丁目１２番地１７,,11,341,3550815,,,,,,,2024-06-10,1,,,,,リフレッシュ,0
1198,5030003024451,新規,0,2024-06-10,2024-06-10,ＣＦＨ　Ｅｎｅｒｇｙ合同会社,,合同会社,埼玉県,北足立郡伊奈町,中央１丁目１０１番地,,11,301,3620809,,,,,,,2024-06-10,1,,,,,シーエフエイチエナジー,0
1199,5040001133955,新規,0,2024-06-10,2024-06-10,Ｅウィング株式会社,,株式会社,千葉県,市川市,富浜１丁目７番１７号Ｅ室,,12,203,2720115,,,,,,,2024-06-10,1,,,,,イーウィング,0
1200,5040001134029,新規,0,2024-06-10,2024-06-10,株式会社マヤグローバル,,株式会社,千葉県,松戸市,新松戸４丁目５６番地２,,12,207,2700034,,,,,,,2024-06-10,1,,,,,マヤグローバル,0
1203,5040005022428,新規,0,2024-06-10,2024-06-10,柏市一般廃棄物処理業協同組合,,その他の設立登記法人,千葉県,柏市,松ケ崎５７６番地,,12,217,2770835,,,,,,,2024-06-10,1,,,,,カシワシイッパンハイキブツショリギョウ,0
1205,5050001054886,新規,0,2024-06-10,2024-06-10,株式会社椎名総建,,株式会社,茨城県,龍ケ崎市,若柴町８１９番地,,08,208,3010041,,,,,,,2024-06-10,1,,,,,シイナソウケンケン,0
1212,5080101024803,新規,0,2024-06-10,2024-06-10,株式会社ニシ・グリーンワークス,,株式会社,静岡県,裾野市,深良２６７２番地の８,,22,220,4101102,,,,,,,2024-06-10,1,,,,,ニシグリーンワークス,0
1215,5080103003078,新規,0,2024-06-10,2024-06-10,ツー・イー合同会社,,合同会社,静岡県,三島市,本町２番４号,,22,206,4110855,,,,,,,2024-06-10,1,,,,,ツーイー,0
1219,5090001018755,新規,0,2024-06-10,2024-06-10,株式会社西嶋塗装店,,株式会社,山梨県,甲府市,山宮町１９６６番地,,19,201,4000075,,,,,,,2024-06-10,1,,,,,ニシジマトソウテン,0
1230,5120001265708,新規,0,2024-06-10,2024-06-10,株式会社ワールドファミリーフーズ,,株式会社,大阪府,大阪市東住吉区,住道矢田５丁目１０番２０号,,27,121,5460022,,,,,,,2024-06-10,1,,,,,ワールドファミリーフーズ,0
1231,5120001265732,新規,0,2024-06-10,2024-06-10,株式会社やまひろ家,,株式会社,大阪府,大阪市平野区,加美北９丁目４番３３号,,27,126,5470001,,,,,,,2024-06-10,1,,,,,ヤマヒロヤ,0
1232,5120001265815,新規,0,2024-06-10,2024-06-10,瑞清株式会社,,株式会社,大阪府,大阪市西成区,玉出東１丁目１１－２１－４０１号,,27,122,5570043,,,,,,,2024-06-10,1,,,,,ミズキ,0
1234,5120003026802,新規,0,2024-06-10,2024-06-10,合同会社ＦＵＪＩ,,合同会社,大阪府,大阪市北区,天満２丁目２－２１ヒロビル１Ｆ,,27,127,5300043,,,,,,,2024-06-10,1,,,,,フジ,0
1236,5120101069736,新規,0,2024-06-10,2024-06-10,株式会社光成,,株式会社,大阪府,岸和田市,野田町２丁目６番９号宮内不動産ビル３Ｆ,,27,202,5960076,,,,,,,2024-06-10,1,,,,,ミツナリ,0
1237,5120101069752,新規,0,2024-06-10,2024-06-10,株式会社ライズ・ブリッジ,,株式会社,大阪府,堺市堺区,南瓦町１番１９号グラン・ビルド堺東８階８０１号室,,27,141,5900078,,,,,,,2024-06-10,1,,,,,ライズブリッジ,0
1239,5120901049301,新規,0,2024-06-10,2024-06-10,株式会社Ｄｉｎｃｕｌａ,,株式会社,大阪府,吹田市,広芝町１０番８号,,27,205,5640052,,,,,,,2024-06-10,1,,,,,ディンキュラ,0
1244,5130001077251,新規,0,2024-06-10,2024-06-10,株式会社ａｙａｍｉ,,株式会社,京都府,京都市伏見区,深草町通町１８番９,,26,109,6120023,,,,,,,2024-06-10,1,,,,,アヤミ,0
1246,5130005017113,新規,0,2024-06-10,2024-06-10,特定非営利活動法人Ｉ　ｍａｄｅ　ｉｔ,,その他の設立登記法人,京都府,京都市中京区,六角通神泉苑西入今新在家西町２９番地５,,26,104,6048801,,,,,,,2024-06-10,1,,,,,アイメイドイット,0
1250,5140001134737,新規,0,2024-06-10,2024-06-10,株式会社ナンバーピリオド,,株式会社,兵庫県,西宮市,分銅町５番４号,,28,204,6620042,,,,,,,2024-06-10,1,,,,,ナンバーピリオド,0
1254,5140003020646,新規,0,2024-06-10,2024-06-10,合同会社三十七鈴,,合同会社,兵庫県,高砂市,阿弥陀町魚橋１０４２番地の６,,28,216,6760822,,,,,,,2024-06-10,1,,,,,サンジュウナナリン,0
1255,5140003020654,新規,0,2024-06-10,2024-06-10,合同会社四十五鈴,,合同会社,兵庫県,高砂市,阿弥陀町魚橋１０４２番地の６,,28,216,6760822,,,,,,,2024-06-10,1,,,,,ヨンジュウゴリン,0
1256,5150001027329,新規,0,2024-06-10,2024-06-10,株式会社Ｃ‐大奈,,株式会社,奈良県,北葛城郡上牧町,松里園２丁目１４番１２号,,29,424,6390216,,,,,,,2024-06-10,1,,,,,シーダイナ,0
1259,5160001025983,新規,0,2024-06-10,2024-06-10,株式会社つかさ事務所,,株式会社,滋賀県,甲賀市,甲南町寺庄１０４２番地,,25,209,5203301,,,,,,,2024-06-10,1,,,,,ツカサジムショ,0
1260,5160001025991,新規,0,2024-06-10,2024-06-10,株式会社Ｇ‐ａｓｓｉｓｔ,,株式会社,滋賀県,大津市,湖城が丘１２番１－３１９号,,25,201,5200821,,,,,,,2024-06-10,1,,,,,ジーアシスト,0
1267,5180001161876,新規,0,2024-06-10,2024-06-10,ＵｓＬｉｇｈｔ株式会社,,株式会社,愛知県,稲沢市,平和町法立十一丁３３番地１,,23,220,4901304,,,,,,,2024-06-10,1,,,,,アスライト,0
1268,5180001161918,新規,0,2024-06-10,2024-06-10,株式会社佳音,,株式会社,愛知県,名古屋市熱田区,二番１丁目１１番５号,,23,109,4560052,,,,,,,2024-06-10,1,,,,,カイン,0
1269,5180001161926,新規,0,2024-06-10,2024-06-10,株式会社プログレス,,株式会社,愛知県,尾張旭市,上の山町山畑３０８０番地８,,23,226,4880034,,,,,,,2024-06-10,1,,,,,プログレス,0
1274,5180003026929,新規,0,2024-06-10,2024-06-10,合同会社頼智リハビリテーション,,合同会社,愛知県,名古屋市中村区,名駅５丁目１０番７号花車ビル中館７０２号室,,23,105,4500002,,,,,,,2024-06-10,1,,,,,ヨリトモリハビリテーション,0
1284,5200001042578,新規,0,2024-06-10,2024-06-10,株式会社グランドゥール,,株式会社,岐阜県,岐阜市,神田町４丁目９番地１,,21,201,5008833,,,,,,,2024-06-10,1,,,,,グランドゥール,0
1285,5210001019781,新規,0,2024-06-10,2024-06-10,ＦＲＥＥ　ＣＲＡＦＴ株式会社,,株式会社,福井県,坂井市,丸岡町四ツ屋第１０号１３番地２,,18,210,9100384,,,,,,,2024-06-10,1,,,,,フリークラフト,0
1288,5220001026050,新規,0,2024-06-10,2024-06-10,株式会社薮下設備,,株式会社,石川県,金沢市,土清水１丁目１５６番地,,17,201,9200955,,,,,,,2024-06-10,1,,,,,ヤブシタセツビ,0
1290,5220003003766,新規,0,2024-06-10,2024-06-10,合同会社いろは,,合同会社,石川県,金沢市,間明町１丁目２７番地,,17,201,9218005,,,,,,,2024-06-10,1,,,,,イロハ,0
1294,5230001020390,新規,0,2024-06-10,2024-06-10,株式会社ＫＥＮ＆ＪＯＮＥＹ,,株式会社,富山県,射水市,手崎１８２番地１,,16,211,9390306,,,,,,,2024-06-10,1,,,,,ケンアンドジョニー,0
1298,5240001063348,新規,0,2024-06-10,2024-06-10,株式会社ＭＩＲＡＧＥ,,株式会社,広島県,広島市西区,大宮１丁目１番１９‐１０１号,,34,104,7330007,,,,,,,2024-06-10,1,,,,,ミラージュ,0
1305,5260001039131,新規,0,2024-06-10,2024-06-10,株式会社新利弥,,株式会社,岡山県,岡山市北区,鹿田町１丁目３番１号,,33,101,7000914,,,,,,,2024-06-10,1,,,,,シンリヤ,0
1306,5260001039164,新規,0,2024-06-10,2024-06-10,株式会社誠心,,株式会社,岡山県,倉敷市,稲荷町６番６－７０５号,,33,202,7100822,,,,,,,2024-06-10,1,,,,,セイシン,0
1307,5260001039172,新規,0,2024-06-10,2024-06-10,ＤｏＨＱ株式会社,,株式会社,岡山県,倉敷市,鶴形１丁目４－１５シャトーブリアン１Ｆ,,33,202,7100056,,,,,,,2024-06-10,1,,,,,ドゥエイチキュー,0
1319,5290001106069,新規,0,2024-06-10,2024-06-10,株式会社本陣,,株式会社,福岡県,福岡市早良区,西新４丁目１番１号ブリリアタワー３８０２,,40,137,8140002,,,,,,,2024-06-10,1,,,,,ホンジン,0
1320,5290803004750,新規,0,2024-06-10,2024-06-10,スムスム管理合同会社,,合同会社,福岡県,北九州市戸畑区,浅生１丁目３番２０－４０２号,,40,105,8040062,,,,,,,2024-06-10,1,,,,,スムスムカンリ,0
1321,5300001013775,新規,0,2024-06-10,2024-06-10,株式会社Ｈａｒｓ,,株式会社,佐賀県,佐賀市,駅前中央１丁目５番１５号,,41,201,8400801,,,,,,,2024-06-10,1,,,,,ハース,0
1325,5310003004805,新規,0,2024-06-10,2024-06-10,Ｃｒｏｎｙ合同会社,,合同会社,長崎県,諫早市,青葉台１４４番地,,42,204,8540068,,,,,,,2024-06-10,1,,,,,クロウニー,0
1326,5320001020530,新規,0,2024-06-10,2024-06-10,株式会社Ｈａｐｐｉｎｅｓｓ＆Ｃｏｕｒｔｅｓｙ,,株式会社,大分県,別府市,大字鶴見２８８１番地の２２８,,44,202,8740840,,,,,,,2024-06-10,1,,,,,ハピネスアンドコーテシー,0
1337,5360001033792,新規,0,2024-06-10,2024-06-10,株式会社ビームシューター,,株式会社,沖縄県,宜野湾市,普天間２丁目４６番９号２Ｆ,,47,205,9012202,,,,,,,2024-06-10,1,,,,,ビームシューター,0
1339,5400003003285,新規,0,2024-06-10,2024-06-10,合同会社Ｏｌｄｖａｎｃｅ,,合同会社,岩手県,盛岡市,本宮字久保筋１１７番地１,,03,201,0200866,,,,,,,2024-06-10,1,,,,,オールドヴァンス,0
1352,5430003016441,新規,0,2024-06-10,2024-06-10,アヴリル合同会社,,合同会社,北海道,札幌市白石区,北郷一条８丁目１１番１５号,,01,104,0030831,,,,,,,2024-06-10,1,,,,,アヴリル,0
1355,5460303000828,新規,0,2024-06-10,2024-06-10,合同会社アインス,,合同会社,北海道,北見市,東三輪５丁目５番地１１８,,01,208,0900836,,,,,,,2024-06-10,1,,,,,アインス,0
1358,5470001020243,新規,0,2024-06-10,2024-06-10,株式会社三蔵,,株式会社,香川県,高松市,昭和町２丁目４番２０号,,37,201,7600014,,,,,,,2024-06-10,1,,,,,サンゾウ,0
1360,5500003003259,新規,0,2024-06-10,2024-06-10,合同会社ひらた物流,,合同会社,愛媛県,四国中央市,川之江町２４０５番地１メゾン三愛３０１号,,38,213,7990101,,,,,,,2024-06-10,1,,,,,ヒラタブツリュウ,0
1364,5700150125843,新規,0,2024-06-10,2024-06-10,ｓｈｅｎｚｈｅｎｓｈｉｌｏｎｇｔｅｎｇｓｈｉｊｉｋｅｊｉｓｈａｎｇｍａｏｙｏｕｘｉａｎｇｏｎｇｓｉ,,外国会社等,,,,,,,,ｓｈｅｎｚｈｅｎｓｈｉｌｏｎｇｇａｎｇｑｕｂａｎｔｉａｎｊｉｅｄａｏｄａｆａｌｕｌｏｎｇｂｉｇｏｎｇｙｅｑｕ６ｄｏｎｇ３ｌｏｕ３０３,,,,,,2024-06-10,1,,,,,シエンジエンシーローントウオンシージーコーアジーシヤーンマオヨウシエンゴーンスー,0
1365,5700150125851,新規,0,2024-06-10,2024-06-10,Ｓｈｅｎｚｈｅｎｓｈｉ　Ｙｉｐａｉｇｏｕｋｅｊｉｍａｏｙｉｙｏｕｘｉａｎｇｏｎｇｓｉ,,外国会社等,,,,,,,,Ｇｕａｎｈｕｊｉｅｄａｏ　ｌｕｈｕｓｈｅｑｕ　ｚｈａｏｓｈａｎｇｇｕａｎｙｕａｎ　６　ｄｏｎｇ　２　ｄａｎｙｕａｎ２０３　Ｌｏｎｇｈｕａｑｕ　Ｓｈｅｎｚｈｅｎｓｈｉ　Ｇｕａｎｇｄｏｎｇｓｈｅｎｇ,,,,,,2024-06-10,1,,,,,シエンジエンシーイーパイゴウコーアジーマオイーヨウシエンゴーンスー,0
1368,6010001245505,新規,0,2024-06-10,2024-06-10,東和株式会社,,株式会社,東京都,千代田区,神田神保町２丁目４６番地福井紙業ビル３０１号室,,13,101,1010051,,,,,,,2024-06-10,1,,,,,トウワ,0
1369,6010001245587,新規,0,2024-06-10,2024-06-10,株式会社日庄プラスワン,,株式会社,東京都,中央区,日本橋人形町１丁目１番１１号,,13,102,1030013,,,,,,,2024-06-10,1,,,,,ニッショウプラスワン,0
1370,6010001245604,新規,0,2024-06-10,2024-06-10,株式会社譚,,株式会社,東京都,中央区,銀座１丁目２２番１１号銀座大竹ビジデンス２階,,13,102,1040061,,,,,,,2024-06-10,1,,,,,タン,0
1371,6010001245637,新規,0,2024-06-10,2024-06-10,ブリッツ株式会社,,株式会社,東京都,中央区,日本橋大伝馬町１３番７号,,13,102,1030011,,,,,,,2024-06-10,1,,,,,ブリッツ,0
1373,6010005038384,新規,0,2024-06-10,2024-06-10,一般社団法人アニマルパーソンズ,,その他の設立登記法人,東京都,中央区,京橋２丁目５番２２号キムラヤビル７階,,13,102,1040031,,,,,,,2024-06-10,1,,,,,アニマルパーソンズ,0
1374,6010101016186,新規,0,2024-06-10,2024-06-10,株式会社ＭＳ‐ＮＥＸＴ,,株式会社,東京都,八王子市,弐分方町３６６番地７,,13,201,1930822,,,,,,,2024-06-10,1,,,,,エムエスネクスト,0
1375,6010101016194,新規,0,2024-06-10,2024-06-10,株式会社ＵＲＢＡＮ　ＧＡＲＡＧＥ,,株式会社,東京都,八王子市,左入町３５６－１Ａ棟１０３,,13,201,1920012,,,,,,,2024-06-10,1,,,,,アーバンガレージ,0
1383,6010401182975,新規,0,2024-06-10,2024-06-10,株式会社ｃｉｔｙ＆ｂａｓｅ,,株式会社,東京都,港区,赤坂８丁目１２番１３号アゼリア赤坂１０４,,13,103,1070052,,,,,,,2024-06-10,1,,,,,シティアンドベース,0
1387,6010403032674,新規,0,2024-06-10,2024-06-10,合同会社ｂｒｕｓｈ　ｕｐ,,合同会社,東京都,港区,六本木４丁目３番１１－２２３号,,13,103,1060032,,,,,,,2024-06-10,1,,,,,ブラッシュアップ,0
1389,6010501052426,新規,0,2024-06-10,2024-06-10,株式会社衆邦,,株式会社,東京都,台東区,根岸１丁目５番１６号ライオンズマンション鶯谷第三３０１号室,,13,106,1100003,,,,,,,2024-06-10,1,,,,,シュウホウ,0
1390,6010701046104,新規,0,2024-06-10,2024-06-10,株式会社４ｗｅｅｋｓ　ｃｏｓｍｅｔｉｃｓ,,株式会社,東京都,品川区,荏原３丁目８番１７号,,13,109,1420063,,,,,,,2024-06-10,1,,,,,フォーウィークスコスメティクス,0
1391,6010701046112,新規,0,2024-06-10,2024-06-10,株式会社ウェイラッド,,株式会社,東京都,品川区,東五反田２丁目９番１号,,13,109,1410022,,,,,,,2024-06-10,1,,,,,ウェイラッド,0
1392,6010701046120,新規,0,2024-06-10,2024-06-10,株式会社鴻志堂,,株式会社,東京都,品川区,南大井４丁目２０番１０－５０１号,,13,109,1400013,,,,,,,2024-06-10,1,,,,,コウシドウ,0
1398,6010901055425,新規,0,2024-06-10,2024-06-10,株式会社ミスター,,株式会社,東京都,世田谷区,池尻３丁目２１番２８号新日本池尻ビル５階,,13,112,1540001,,,,,,,2024-06-10,1,,,,,ミスター,0
1399,6010903009131,新規,0,2024-06-10,2024-06-10,カムノル合同会社,,合同会社,東京都,世田谷区,北沢２丁目１１－１５ミカン下北Ａ街区４階,,13,112,1550031,,,,,,,2024-06-10,1,,,,,カムノル,0
1404,6011003019351,新規,0,2024-06-10,2024-06-10,ＡＫＩＲＡ　ＷＨＩＳＫＹ合同会社,,合同会社,東京都,渋谷区,千駄ヶ谷３丁目５４番２号,,13,113,1510051,,,,,,,2024-06-10,1,,,,,アキラウイスキー,0
1405,6011003019368,新規,0,2024-06-10,2024-06-10,Ｎｅｘｉｆｅｃｔ合同会社,,合同会社,東京都,渋谷区,道玄坂１丁目１０番目８号渋谷道玄坂東急ビル２Ｆ―Ｃ,,13,113,1500043,,,,,,,2024-06-10,1,,,,,ネクシファクト,0
1407,6011101107628,新規,0,2024-06-10,2024-06-10,株式会社Ｐｕｌｓ　Ｕ,,株式会社,東京都,新宿区,西早稲田２丁目６番１－５０８号,,13,104,1690051,,,,,,,2024-06-10,1,,,,,プルスユー,0
1408,6011103014517,新規,0,2024-06-10,2024-06-10,はさま合同会社,,合同会社,東京都,新宿区,西新宿３丁目３番１３号西新宿水間ビル６階,,13,104,1600023,,,,,,,2024-06-10,1,,,,,ハサマ,0
1418,6011701027366,新規,0,2024-06-10,2024-06-10,株式会社美代子製作所,,株式会社,東京都,江戸川区,中央３丁目２３番１号,,13,123,1320021,,,,,,,2024-06-10,1,,,,,ミヨシセイサクジョ,0
1420,6011801044352,新規,0,2024-06-10,2024-06-10,東風株式会社,,株式会社,東京都,足立区,西新井本町５丁目６－２１メープルハイツ１０１,,13,121,1230845,,,,,,,2024-06-10,1,,,,,コチ,0
1424,6011803006276,新規,0,2024-06-10,2024-06-10,合同会社あきなや,,合同会社,東京都,葛飾区,東新小岩７丁目３１番１９号リリウム１０３,,13,122,1240023,,,,,,,2024-06-10,1,,,,,アキナヤ,0
1428,6012801023255,新規,0,2024-06-10,2024-06-10,株式会社芯,,株式会社,東京都,国分寺市,南町２丁目１６番１４号ＫＳビル１階１０１,,13,214,1850021,,,,,,,2024-06-10,1,,,,,シン,0
1432,6013301052645,新規,0,2024-06-10,2024-06-10,安平株式会社,,株式会社,東京都,豊島区,池袋２丁目３２－３ｔｏｋｉｗａ１０ｂｕｉｌｄｉｎｇ２０１号,,13,116,1710014,,,,,,,2024-06-10,1,,,,,アンヘイ,0
1434,6020001157542,新規,0,2024-06-10,2024-06-10,ＴＲＢ株式会社,,株式会社,神奈川県,横浜市西区,みなとみらい３丁目６－１,,14,103,2200012,,,,,,,2024-06-10,1,,,,,ティーアールビー,0
1435,6020001157609,新規,0,2024-06-10,2024-06-10,エスポワール株式会社,,株式会社,神奈川県,横浜市港北区,篠原町１３８３番地新横浜パークハイムＩＩ２０１号,00135085,14,109,2220026,,,,,,,2024-06-10,1,,,,,エスポワール,0
1436,6020001157617,新規,0,2024-06-10,2024-06-10,ＳＴ株式会社,,株式会社,神奈川県,横浜市西区,北幸２丁目１０番４８号むつみビル３階,,14,103,2200004,,,,,,,2024-06-10,1,,,,,エスティー,0
1445,6021001082409,新規,0,2024-06-10,2024-06-10,株式会社ＭＫファンディング,,株式会社,神奈川県,平塚市,見附町３７－１４－３０３,,14,203,2540045,,,,,,,2024-06-10,1,,,,,エムケイファンディング,0
1446,6021001082466,新規,0,2024-06-10,2024-06-10,株式会社パティスリークロ,,株式会社,神奈川県,横須賀市,小原台４番２２号,,14,201,2390812,,,,,,,2024-06-10,1,,,,,パティスリークロ,0
1454,6030001160784,新規,0,2024-06-10,2024-06-10,Ｐｉｖｏｔ株式会社,,株式会社,埼玉県,入間郡越生町,越生東３丁目３番地２,,11,327,3500414,,,,,,,2024-06-10,1,,,,,ピボット,0
1455,6030001160792,新規,0,2024-06-10,2024-06-10,株式会社イエクス,,株式会社,埼玉県,八潮市,大字大瀬１３７３番地６５,,11,234,3400822,,,,,,,2024-06-10,1,,,,,イエクス,0
1460,6030003024442,新規,0,2024-06-10,2024-06-10,ＰＨＡＮ　ＤＵＮＧ合同会社,,合同会社,埼玉県,入間市,豊岡１丁目３番２５号半田ビル３階ＫＩＶオフィス入間Ｈ号室,,11,225,3580003,,,,,,,2024-06-10,1,,,,,ファンズン,0
1466,6040001134003,新規,0,2024-06-10,2024-06-10,株式会社ケアフォーライフ,,株式会社,千葉県,松戸市,松戸新田５７５－２６,,12,207,2702241,,,,,,,2024-06-10,1,,,,,ケアフォーライフ,0
1467,6040001134028,新規,0,2024-06-10,2024-06-10,ＷＩＴＥＮ国際貿易株式会社,,株式会社,千葉県,市川市,宝１丁目１１－１１フルールＮ１０１,,12,203,2720122,,,,,,,2024-06-10,1,,,,,ウィテンコクサイボウエキ,0
1473,6040003025167,新規,0,2024-06-10,2024-06-10,合同会社Ｅ５５１,,合同会社,千葉県,浦安市,北栄３丁目２７－１３,,12,227,2790002,,,,,,,2024-06-10,1,,,,,イゴコチ,0
1476,6050001054893,新規,0,2024-06-10,2024-06-10,ＩＴ＆Ｃ株式会社,,株式会社,茨城県,つくば市,北条５０５５番地６,,08,220,3004231,,,,,,,2024-06-10,1,,,,,アイティーアンドシー,0
1480,6070001041816,新規,0,2024-06-10,2024-06-10,株式会社Ｉｍ,,株式会社,群馬県,前橋市,千代田町２丁目２番１１号ＧＳレジデンス２Ｆ,,10,201,3710022,,,,,,,2024-06-10,1,,,,,アイム,0
1481,6070001041832,新規,0,2024-06-10,2024-06-10,ＦＡＴＯＭ株式会社,,株式会社,群馬県,伊勢崎市,三室町６０９５番地２,,10,204,3792235,,,,,,,2024-06-10,1,,,,,,0
1491,6100001037538,新規,0,2024-06-10,2024-06-10,ＫＯＩＫＥ興業株式会社,,株式会社,長野県,下伊那郡高森町,大島山７４７番地２,,20,403,3993106,,,,,,,2024-06-10,1,,,,,コイケコウギョウ,0
1506,6120001265657,新規,0,2024-06-10,2024-06-10,マトリックスミジ・ジャパン株式会社,,株式会社,大阪府,大阪市鶴見区,緑１丁目１番２２号,,27,124,5380054,,,,,,,2024-06-10,1,,,,,マトリックスミジジャパン,0
1507,6120001265698,新規,0,2024-06-10,2024-06-10,株式会社Ｍｙ　Ｒａｖｅ,,株式会社,大阪府,大阪市北区,大淀南２丁目２番９－２５１２号,,27,127,5310075,,,,,,,2024-06-10,1,,,,,マイレイブ,0
1508,6120001265756,新規,0,2024-06-10,2024-06-10,株式会社アシェット,,株式会社,大阪府,大阪市福島区,福島１丁目４番４号セントラル７０－１Ｆ,,27,103,5530003,,,,,,,2024-06-10,1,,,,,アシェット,0
1512,6120005024365,新規,0,2024-06-10,2024-06-10,一般社団法人ＲＡＩＮＢＯＷ　ＦＥＳＴＡ,,その他の設立登記法人,大阪府,大阪市平野区,瓜破４丁目２番２９号,,27,126,5470024,,,,,,,2024-06-10,1,,,,,レインボーフェスタ,0
1515,6120101069702,新規,0,2024-06-10,2024-06-10,株式会社あふろ,,株式会社,大阪府,堺市西区,草部１４８０,,27,144,5938312,,,,,,,2024-06-10,1,,,,,アフロ,0
1516,6120101069735,新規,0,2024-06-10,2024-06-10,株式会社東條オートワークス,,株式会社,大阪府,南河内郡河南町,大字東山３４番地の１,,27,382,5850001,,,,,,,2024-06-10,1,,,,,トウジョウオートワークス,0
1517,6120101069751,新規,0,2024-06-10,2024-06-10,株式会社アミーチェ,,株式会社,大阪府,堺市堺区,山本町５丁１１０番地３２,,27,141,5900983,,,,,,,2024-06-10,1,,,,,アミーチェ,0
1526,6130001077143,新規,0,2024-06-10,2024-06-10,ＳＨＯ　ＣＯＬＬＥＣＴ株式会社,,株式会社,京都府,京都市左京区,下鴨東本町９－７ＧＡＲＮＥＴＲＥＳＩＤＥＮＣＥ下鴨４０２,,26,103,6060863,,,,,,,2024-06-10,1,,,,,ショウコレクト,0
1527,6130001077226,新規,0,2024-06-10,2024-06-10,株式会社ＢＬＡＮＫ,,株式会社,京都府,京都市右京区,西院矢掛町１９番地１,,26,108,6150024,,,,,,,2024-06-10,1,,,,,ブランク,0
1536,6140001134736,新規,0,2024-06-10,2024-06-10,株式会社まんてんＲ,,株式会社,兵庫県,西脇市,中畑町３３８番地,,28,213,6770032,,,,,,,2024-06-10,1,,,,,マンテンアール,0
1537,6140001134769,新規,0,2024-06-10,2024-06-10,株式会社ママネイリストと自爪育成,,株式会社,兵庫県,明石市,桜町１４番１９号ＫＵＫＩビル４Ｆ,,28,203,6730885,,,,,,,2024-06-10,1,,,,,ママネイリストトジヅメイクセイ,0
1538,6140003020612,新規,0,2024-06-10,2024-06-10,Ｏｆｆｉｃｅ　Ｌｅｏｎ合同会社,,合同会社,兵庫県,神戸市中央区,籠池通３丁目１番９号１０１号,,28,110,6510053,,,,,,,2024-06-10,1,,,,,オフィスレオン,0
1539,6140003020645,新規,0,2024-06-10,2024-06-10,合同会社三十六鈴,,合同会社,兵庫県,高砂市,阿弥陀町魚橋１０４２番地の６,,28,216,6760822,,,,,,,2024-06-10,1,,,,,サンジュウロクリン,0
1540,6140003020653,新規,0,2024-06-10,2024-06-10,合同会社四十四鈴,,合同会社,兵庫県,高砂市,阿弥陀町魚橋１０４２番地の６,,28,216,6760822,,,,,,,2024-06-10,1,,,,,ヨンジュウヨンリン,0
1546,6170005007084,新規,0,2024-06-10,2024-06-10,一般社団法人ねこの手,,その他の設立登記法人,和歌山県,有田郡広川町,大字和田３番地１,,30,362,6430075,,,,,,,2024-06-10,1,,,,,ネコノテ,0
1555,6200001042585,新規,0,2024-06-10,2024-06-10,株式会社ｔｈｒｅｅ,,株式会社,岐阜県,土岐市,土岐津町高山４４３‐２,,21,212,5095121,,,,,,,2024-06-10,1,,,,,スリー,0
1556,6200003006381,新規,0,2024-06-10,2024-06-10,合同会社ＧＯＡＴ,,合同会社,岐阜県,本巣市,三橋３２５－１,,21,218,5010406,,,,,,,2024-06-10,1,,,,,ゴート,0
1558,6210001019780,新規,0,2024-06-10,2024-06-10,六起電力株式会社,,株式会社,福井県,福井市,竹生町第１９号１２番地１,,18,201,9103602,,,,,,,2024-06-10,1,,,,,ロッキデンリョク,0
1560,6220003003765,新規,0,2024-06-10,2024-06-10,合同会社Ｖｉｒｅ,,合同会社,石川県,金沢市,玉鉾２丁目３８３‐１,,17,201,9218002,,,,,,,2024-06-10,1,,,,,ヴィレ,0
1561,6230001020381,新規,0,2024-06-10,2024-06-10,ココハレ株式会社,,株式会社,富山県,魚津市,釈迦堂１丁目７番１３号,,16,204,9370067,,,,,,,2024-06-10,1,,,,,ココハレ,0
1568,6260001039155,新規,0,2024-06-10,2024-06-10,株式会社Ｇｒｅｅｎ　Ｄａｙｓ,,株式会社,岡山県,岡山市南区,妹尾１０１７番地１パトリス妹尾３０２号,,33,104,7010205,,,,,,,2024-06-10,1,,,,,グリーンデイズ,0
1569,6280001009197,新規,0,2024-06-10,2024-06-10,ＩＮＯＵＥホールディングス株式会社,,株式会社,島根県,江津市,嘉久志町２２０２番地,,32,207,6950016,,,,,,,2024-06-10,1,,,,,イノウエホールディングス,0
1572,6290001106043,新規,0,2024-06-10,2024-06-10,株式会社ＮＳＣ,,株式会社,福岡県,福岡市中央区,長浜２丁目３番６号,,40,133,8100072,,,,,,,2024-06-10,1,,,,,エヌエスシー,0
1576,6290801030632,新規,0,2024-06-10,2024-06-10,株式会社福本空調,,株式会社,福岡県,北九州市小倉北区,日明５丁目３番２３号,,40,106,8030831,,,,,,,2024-06-10,1,,,,,フクモトクウチョウ,0
1577,6300001013774,新規,0,2024-06-10,2024-06-10,株式会社コージ,,株式会社,佐賀県,嬉野市,嬉野町下宿字道徳丁１９１－３,,41,209,8430300,,,,,,,2024-06-10,1,,,,,コージ,0
1580,6310001019060,新規,0,2024-06-10,2024-06-10,株式会社ＺＥＡＬＬ,,株式会社,長崎県,長崎市,晴海台町５９番地１４,,42,201,8510402,,,,,,,2024-06-10,1,,,,,ジール,0
1582,6320001020521,新規,0,2024-06-10,2024-06-10,河村工業株式会社,,株式会社,大分県,大分市,大字田尻１３２番地の５,,44,201,8701143,,,,,,,2024-06-10,1,,,,,,0
1593,6360001033734,新規,0,2024-06-10,2024-06-10,株式会社ｏｉｌ　ｍａｇｎｅｔ,,株式会社,沖縄県,沖縄市,古謝３丁目２８ー１７－２,,47,211,9042161,,,,,,,2024-06-10,1,,,,,オイルマグネット,0
1594,6360001033783,新規,0,2024-06-10,2024-06-10,株式会社Ｓ・Ｋワークス,,株式会社,沖縄県,島尻郡八重瀬町,字当銘１５９番地２,,47,362,9010414,,,,,,,2024-06-10,1,,,,,エスケーワークス,0
1595,6360001033791,新規,0,2024-06-10,2024-06-10,株式会社つなぐて,,株式会社,沖縄県,うるま市,字赤道３０５番地４,,47,213,9042245,,,,,,,2024-06-10,1,,,,,ツナグテ,0
1596,6360003014055,新規,0,2024-06-10,2024-06-10,合同会社前原青果,,合同会社,沖縄県,名護市,宇茂佐の森１丁目２番地１８,,47,209,9050009,,,,,,,2024-06-10,1,,,,,マエハラセイカ,0
1602,6370003006638,新規,0,2024-06-10,2024-06-10,合同会社下電,,合同会社,宮城県,仙台市青葉区,本町１丁目５番２８号カーニープレイス仙台駅前通６０３号室,,04,101,9800014,,,,,,,2024-06-10,1,,,,,シモデン,0
1611,6430001092005,新規,0,2024-06-10,2024-06-10,ＨＯＫＫＡＩＤＯ　ＨＥＡＲＴ株式会社,,株式会社,北海道,小樽市,色内２丁目１番２０号,,01,203,0470031,,,,,,,2024-06-10,1,,,,,ホッカイドウハート,0
1612,6430001092013,新規,0,2024-06-10,2024-06-10,株式会社ストライクカンパニー,,株式会社,北海道,札幌市北区,新川西三条６丁目３番１号,,01,102,0010933,,,,,,,2024-06-10,1,,,,,ストライクカンパニー,0
1613,6430003016424,新規,0,2024-06-10,2024-06-10,合同会社光昇開発,,合同会社,北海道,小樽市,稲穂５丁目３番６号,,01,203,0470032,,,,,,,2024-06-10,1,,,,,コウショウカイハツ,0
1618,6480001012503,新規,0,2024-06-10,2024-06-10,達源株式会社,,株式会社,徳島県,吉野川市,川島町学字辻１７２番地,,36,205,7793306,,,,,,,2024-06-10,1,,,,,タツゲン,0
1619,6480003002139,新規,0,2024-06-10,2024-06-10,あいぷれい合同会社,,合同会社,徳島県,阿南市,那賀川町赤池２１８番地３,,36,204,7791242,,,,,,,2024-06-10,1,,,,,アイプレイ,0
1623,6700150124951,新規,0,2024-06-10,2024-04-18,北九州国際映画祭実行委員会,,その他,福岡県,北九州市小倉北区,浅野３丁目８番１号ＡＩＭビル４階,,40,106,8020001,,,,,,,2024-04-18,1,,,,,キタキユウシユウコクサイエイガサイジツコウイインカイ,0
1624,6700150125842,新規,0,2024-06-10,2024-06-10,Ａｌｓａｒ　Ｌｅｉｓｕｒｅ　Ｈｏｌｄｉｎｇｓ　Ｐｔｅ　Ｌｔｄ,,外国会社等,,,,,,,,８０　Ｒａｆｆｌｅｓ　Ｐｌａｃｅ　＃３７－０１　ＵＯＢ　Ｐｌａｚａ　Ｓｉｎｇａｐｏｒｅ,,,,,,2024-06-10,1,,,,,アルサールレジヤーホールデイングスピーテイーイーエルテイデイ,0
1625,6700150125850,新規,0,2024-06-10,2024-06-10,Ｇｌｏｂａｌ　Ａｔｌａｎｔｉｃ　Ｆｉｎａｎｃｉａｌ　Ｃｏｍｐａｎｙ　Ｂｅｒｍｕｄａ　Ｌｉｍｉｔｅｄ,,外国会社等,東京都,千代田区,丸の内３丁目２－２,,13,101,1000005,１９　Ｐａｒ－ｌａ－ｖｉｌｌｅ　Ｒｄ，Ｓｅｃｏｎｄ　Ｆｌｏｏｒ，Ｈａｍｉｌｔｏｎ　ＨＭ　１１，Ｂｅｒｍｕｄａ,,,,,,2024-06-10,1,,,,,グローバルアトランテイツクフアイナンシヤルカンパニーバミユーダリミテツド,0
1631,7010001244919,新規,0,2024-06-10,2024-06-10,株式会社オルフェ,,株式会社,東京都,千代田区,神田和泉町１番地６－１６ヤマトビル４０５,,13,101,1010024,,,,,,,2024-06-10,1,,,,,オルフェ,0
1632,7010001245529,新規,0,2024-06-10,2024-06-10,株式会社経営総合企画,,株式会社,東京都,中央区,銀座７丁目１３番２０号銀座ＴＨビル９階,,13,102,1040061,,,,,,,2024-06-10,1,,,,,ケイエイソウゴウキカク,0
1637,7010003043963,新規,0,2024-06-10,2024-06-10,フェアウェル合同会社,,合同会社,東京都,中央区,日本橋室町１丁目１１番１２号日本橋水野ビル７階,,13,102,1030022,,,,,,,2024-06-10,1,,,,,フェアウェル,0
1638,7010003043971,新規,0,2024-06-10,2024-06-10,ミッテン合同会社,,合同会社,東京都,千代田区,神田佐久間町４丁目６番地,,13,101,1010025,,,,,,,2024-06-10,1,,,,,ミッテン,0
1641,7010101016193,新規,0,2024-06-10,2024-06-10,株式会社アシスト,,株式会社,東京都,八王子市,下柚木２丁目３０番地５グランディール３０３,,13,201,1920372,,,,,,,2024-06-10,1,,,,,アシスト,0
1646,7010401182999,新規,0,2024-06-10,2024-06-10,株式会社コヤヨリジ,,株式会社,東京都,港区,南青山３丁目１番３６号青山丸竹ビル６Ｆ,,13,103,1070062,,,,,,,2024-06-10,1,,,,,コヤヨリジ,0
1647,7010403032764,新規,0,2024-06-10,2024-06-10,合同会社アクシス,,合同会社,東京都,港区,北青山１丁目３番１号アールキューブ青山３階,,13,103,1070061,,,,,,,2024-06-10,1,,,,,アクシス,0
1649,7010501052375,新規,0,2024-06-10,2024-06-10,健康楽サービス株式会社,,株式会社,東京都,台東区,浅草橋２丁目７番５号,,13,106,1110053,,,,,,,2024-06-10,1,,,,,ケンコウラクサービス,0
1650,7010501052417,新規,0,2024-06-10,2024-06-10,スナハナ株式会社,,株式会社,東京都,台東区,松が谷２丁目９番１－２０５号,,13,106,1110036,,,,,,,2024-06-10,1,,,,,スナハナ,0
1651,7010501052425,新規,0,2024-06-10,2024-06-10,株式会社Ｍｏｎｏ　Ｂａｎｋ,,株式会社,東京都,台東区,上野３丁目１４番２号,,13,106,1100005,,,,,,,2024-06-10,1,,,,,モノバンク,0
1652,7010503007476,新規,0,2024-06-10,2024-06-10,合同会社Ｍｉｎｄ　ｆｒｅｅ,,合同会社,東京都,台東区,下谷３丁目１番２４号ＧＯＧＯオフィス上野入谷１３１０号室,,13,106,1100004,,,,,,,2024-06-10,1,,,,,マインドフリー,0
1660,7010705003637,新規,0,2024-06-10,2024-06-10,一般社団法人安全技術応用研究会,,その他の設立登記法人,東京都,品川区,東大井５丁目４番１９号,,13,109,1400011,,,,,,,2024-06-10,1,,,,,アンゼンギジュツオウヨウケンキュウカイ,0
1665,7010903009122,新規,0,2024-06-10,2024-06-10,新天堂スタジオ合同会社,,合同会社,東京都,世田谷区,上野毛２丁目２１番１２－４０２号,,13,112,1580093,,,,,,,2024-06-10,1,,,,,シンテンドウスタジオ,0
1666,7010903009130,新規,0,2024-06-10,2024-06-10,合同会社ＦＵＲＡＬＩ,,合同会社,東京都,世田谷区,上用賀６丁目２１番１７号,,13,112,1580098,,,,,,,2024-06-10,1,,,,,フラリ,0
1677,7011001162508,新規,0,2024-06-10,2024-06-10,株式会社ＢｕｚｚＬａｗ,,株式会社,東京都,目黒区,下目黒１丁目１番１４号コノトラビル７Ｆ,,13,110,1530064,,,,,,,2024-06-10,1,,,,,バズロウ,0
1680,7011101107619,新規,0,2024-06-10,2024-06-10,ＺＥＴＯＡ株式会社,,株式会社,東京都,新宿区,上落合３丁目８－２５ＦＬＡＭＰ４１２号室,,13,104,1610034,,,,,,,2024-06-10,1,,,,,ゼトア,0
1681,7011301029745,新規,0,2024-06-10,2024-06-10,株式会社ＦＡＣＥ,,株式会社,東京都,杉並区,和泉２丁目１３番３４号,,13,115,1680063,,,,,,,2024-06-10,1,,,,,フェイス,0
1682,7011401026171,新規,0,2024-06-10,2024-06-10,株式会社ニューフロンティアスピリッツ,,株式会社,東京都,板橋区,西台２丁目２２番８－４０３号,,13,119,1750045,,,,,,,2024-06-10,1,,,,,ニューフロンティアスピリッツ,0
1683,7011601027812,新規,0,2024-06-10,2024-06-10,株式会社サポートライフ,,株式会社,東京都,練馬区,豊玉上１丁目２０－３－２０４,,13,120,1760011,,,,,,,2024-06-10,1,,,,,サポートライフ,0
1684,7011701027373,新規,0,2024-06-10,2024-06-10,株式会社いごや,,株式会社,東京都,江戸川区,南葛西５丁目４番５－４０１号エクセル葛西臨海公園,,13,123,1340085,,,,,,,2024-06-10,1,,,,,イゴヤ,0
1703,7020001157608,新規,0,2024-06-10,2024-06-10,終活プランニング株式会社,,株式会社,神奈川県,横浜市神奈川区,六角橋１丁目２０番１９号,,14,102,2210802,,,,,,,2024-06-10,1,,,,,シュウカツプランニング,0
1704,7020001157632,新規,0,2024-06-10,2024-06-10,ｂ‐Ｎｅｓｔ株式会社,,株式会社,神奈川県,横浜市青葉区,すみよし台１１番地３８,,14,117,2270035,,,,,,,2024-06-10,1,,,,,ビーネスト,0
1712,7020005016446,新規,0,2024-06-10,2024-06-10,弁理士法人岩橋国際特許事務所,,その他の設立登記法人,神奈川県,横浜市港北区,新横浜２丁目５番地１５新横浜センタービル８階Ｂ,,14,109,2220033,,,,,,,2024-06-10,1,,,,,イワハシコクサイトッキョジムショ,0
1715,7021001082440,新規,0,2024-06-10,2024-06-10,株式会社ＬＴＭ,,株式会社,神奈川県,横須賀市,平作６丁目３番５号,,14,201,2380032,,,,,,,2024-06-10,1,,,,,エルティーエム,0
1719,7030001160742,新規,0,2024-06-10,2024-06-10,株式会社Ａ　ｐｏｓｔｏ,,株式会社,埼玉県,ふじみ野市,上野台２丁目１６－２４,,11,245,3560017,,,,,,,2024-06-10,1,,,,,アポスト,0
1720,7030001160809,新規,0,2024-06-10,2024-06-10,株式会社たゆたふ,,株式会社,埼玉県,熊谷市,久下３丁目６８番地１,,11,202,3600026,,,,,,,2024-06-10,1,,,,,タユタフ,0
1725,7030003024458,新規,0,2024-06-10,2024-06-10,合同会社ＲＩＳ,,合同会社,埼玉県,三郷市,早稲田４丁目２３番地９システムマンション早稲田１０５号室,,11,237,3410018,,,,,,,2024-06-10,1,,,,,アールアイエス,0
1726,7030005021718,新規,0,2024-06-10,2024-06-10,一般社団法人リアート,,その他の設立登記法人,埼玉県,川越市,元町１丁目１４番地５（２階）,,11,201,3500062,,,,,,,2024-06-10,1,,,,,リアート,0
1731,7040001134019,新規,0,2024-06-10,2024-06-10,株式会社Ｋ’ｓメッドブリッジ,,株式会社,千葉県,松戸市,上本郷４２９番地の２ローヤルシティ北松戸８０３号,,12,207,2710064,,,,,,,2024-06-10,1,,,,,ケーズメッドブリッジ,0
1736,7040003025166,新規,0,2024-06-10,2024-06-10,ラシンズ合同会社,,合同会社,千葉県,習志野市,谷津１丁目６番１０－２０８号,,12,216,2750026,,,,,,,2024-06-10,1,,,,,ラシンズ,0
1738,7050001054892,新規,0,2024-06-10,2024-06-10,株式会社ハウスミー,,株式会社,茨城県,守谷市,久保ケ丘３丁目５番地１２,,08,224,3020104,,,,,,,2024-06-10,1,,,,,ハウスミー,0
1742,7080101024801,新規,0,2024-06-10,2024-06-10,株式会社Ｋ２,,株式会社,静岡県,富士市,吉原４丁目２番４号,,22,210,4170051,,,,,,,2024-06-10,1,,,,,ケーツー,0
1745,7090003002581,新規,0,2024-06-10,2024-06-10,合同会社守山,,合同会社,山梨県,笛吹市,石和町河内２６８－４,,19,211,4060043,,,,,,,2024-06-10,1,,,,,モリヤマ,0
1748,7100001037537,新規,0,2024-06-10,2024-06-10,株式会社ＮＡＭＩ,,株式会社,長野県,中野市,大字吉田１２５５番地２,,20,211,3830015,,,,,,,2024-06-10,1,,,,,ナミ,0
1761,7120001265697,新規,0,2024-06-10,2024-06-10,株式会社ゼンテイ,,株式会社,大阪府,大阪市生野区,田島１丁目１３番７号,,27,116,5440011,,,,,,,2024-06-10,1,,,,,ゼンテイ,0
1762,7120001265714,新規,0,2024-06-10,2024-06-10,株式会社Ｌ．Ｃ．Ｓ,,株式会社,大阪府,大阪市淀川区,十三東４丁目５番１２号,,27,123,5320023,,,,,,,2024-06-10,1,,,,,エルシーエス,0
1763,7120001265722,新規,0,2024-06-10,2024-06-10,株式会社奏Ｌｉｖｉｎｇ,,株式会社,大阪府,大阪市西淀川区,花川１丁目５番１５号,,27,113,5550023,,,,,,,2024-06-10,1,,,,,カナデリビング,0
1764,7120001265730,新規,0,2024-06-10,2024-06-10,株式会社アスレチックス,,株式会社,大阪府,大阪市中央区,道修町１丁目３番８号道修町カンプラビル３０２号室,,27,128,5410045,,,,,,,2024-06-10,1,,,,,アスレチックス,0
1765,7120001265796,新規,0,2024-06-10,2024-06-10,ホームアセット株式会社,,株式会社,大阪府,大阪市北区,菅原町９番１６号,,27,127,5300046,,,,,,,2024-06-10,1,,,,,ホームアセット,0
1777,7120101069742,新規,0,2024-06-10,2024-06-10,株式会社Ｐ‐ＬＩＦＥ,,株式会社,大阪府,和泉市,はつが野３丁目３３番４号,,27,219,5941106,,,,,,,2024-06-10,1,,,,,ピーライフ,0
1778,7120101069759,新規,0,2024-06-10,2024-06-10,株式会社創喜設備工業,,株式会社,大阪府,岸和田市,中井町１丁目１６番１７号,,27,202,5960003,,,,,,,2024-06-10,1,,,,,ソウキセツビコウギョウ,0
1780,7120103005877,新規,0,2024-06-10,2024-06-10,合同会社向日葵,,合同会社,大阪府,堺市北区,新金岡町５丁６番３０９号ＰＡＲＫＳＩＤＥ新金岡２０２号,,27,146,5918021,,,,,,,2024-06-10,1,,,,,ヒマワリ,0
1781,7120103005885,新規,0,2024-06-10,2024-06-10,合同会社訪問看護ステーションことの葉,,合同会社,大阪府,富田林市,美山台７番３－７０７号,,27,214,5840039,,,,,,,2024-06-10,1,,,,,ホウモンカイゴステーションコトノハ,0
1788,7122003002905,新規,0,2024-06-10,2024-06-10,合同会社ＨＡＲＵＫＡ,,合同会社,大阪府,八尾市,安中町３丁目７番６号清水ビル１Ｆ,,27,212,5810085,,,,,,,2024-06-10,1,,,,,ハルカ,0
1789,7130001077191,新規,0,2024-06-10,2024-06-10,株式会社ＳＴＡＮＣＥ,,株式会社,京都府,京都市下京区,高辻大宮町１０３大宮高辻ビル２階,,26,106,6000000,,,,,,,2024-06-10,1,,,,,スタンス,0
1790,7130001077258,新規,0,2024-06-10,2024-06-10,株式会社ＢｉｚＨｏｐ,,株式会社,京都府,京都市中京区,中島町９０－２,,26,104,6048004,,,,,,,2024-06-10,1,,,,,ビズホップ,0
1791,7130001077266,新規,0,2024-06-10,2024-06-10,株式会社ナガト,,株式会社,京都府,京都市山科区,西野山桜ノ馬場町９８番地,,26,110,6078308,,,,,,,2024-06-10,1,,,,,ナガト,0
1793,7130003009622,新規,0,2024-06-10,2024-06-10,合同会社京女さん,,合同会社,京都府,京都市南区,久世殿城町５７５番地３向陽グランドハイツ７１９,,26,107,6018205,,,,,,,2024-06-10,1,,,,,キョウオンナサン,0
1801,7140001134751,新規,0,2024-06-10,2024-06-10,株式会社ＮＳビズテックプロモート,,株式会社,兵庫県,芦屋市,山手町１３番５－４０２号,,28,206,6590096,,,,,,,2024-06-10,1,,,,,エヌエスビズテックプロモート,0
1805,7140003020644,新規,0,2024-06-10,2024-06-10,合同会社三十五鈴,,合同会社,兵庫県,高砂市,阿弥陀町魚橋１０４２番地の６,,28,216,6760822,,,,,,,2024-06-10,1,,,,,サンジュウゴリン,0
1806,7140003020652,新規,0,2024-06-10,2024-06-10,合同会社四十三鈴,,合同会社,兵庫県,高砂市,阿弥陀町魚橋１０４２番地の６,,28,216,6760822,,,,,,,2024-06-10,1,,,,,ヨンジュウサンリン,0
1807,7140003020677,新規,0,2024-06-10,2024-06-10,合同会社ＪＯＹ産業,,合同会社,兵庫県,神戸市中央区,琴ノ緒町５丁目７番８号,,28,110,6510094,,,,,,,2024-06-10,1,,,,,ジョイサンギョウ,0
1808,7140003020693,新規,0,2024-06-10,2024-06-10,合同会社サイドフォート,,合同会社,兵庫県,明石市,相生町１丁目２－３４,,28,203,6730882,,,,,,,2024-06-10,1,,,,,サイドフォート,0
1812,7160001025998,新規,0,2024-06-10,2024-06-10,株式会社ａｌｌｉａｎｃｅ,,株式会社,滋賀県,大津市,松が丘３丁目２番４号,,25,201,5202102,,,,,,,2024-06-10,1,,,,,,0
1814,7170001018175,新規,0,2024-06-10,2024-06-10,株式会社００８笑店,,株式会社,和歌山県,和歌山市,木枕３５番地１,,30,201,6400301,,,,,,,2024-06-10,1,,,,,オオヤショウテン,0
1815,7170003002053,新規,0,2024-06-10,2024-06-10,合同会社ＰＡＺＨＡＮＡ,,合同会社,和歌山県,和歌山市,園部７０１番地９,,30,201,6408483,,,,,,,2024-06-10,1,,,,,パズハナ,0
1819,7180001161924,新規,0,2024-06-10,2024-06-10,株式会社九九九,,株式会社,愛知県,名古屋市西区,長先町２１番地,,23,104,4520838,,,,,,,2024-06-10,1,,,,,キュウキュウキュウ,0
1821,7180003026919,新規,0,2024-06-10,2024-06-10,合同会社Ｈｅｎｒｉ,,合同会社,愛知県,名古屋市東区,泉１丁目１１番４号ウィズエムビル５０２号,,23,102,4610001,,,,,,,2024-06-10,1,,,,,アンリ,0
1824,7180303006141,新規,0,2024-06-10,2024-06-10,合同会社かやすけ,,合同会社,愛知県,豊田市,足助町宮平２３－２,,23,211,4442424,,,,,,,2024-06-10,1,,,,,カヤスケ,0
1828,7200001042584,新規,0,2024-06-10,2024-06-10,株式会社ロデオアルファ,,株式会社,岐阜県,岐阜市,柳森町１丁目４７番地１０８号室,,21,201,5008365,,,,,,,2024-06-10,1,,,,,ロデオアルファ,0
1830,7220001026049,新規,0,2024-06-10,2024-06-10,株式会社テック・ロジ,,株式会社,石川県,野々市市,郷１丁目２２番地,,17,212,9218849,,,,,,,2024-06-10,1,,,,,テックロジ,0
1832,7230003002229,新規,0,2024-06-10,2024-06-10,合同会社ＥＮＤＯＲ,,合同会社,富山県,高岡市,野村３６５番地サンエイハイツ１０１号室,,16,202,9330014,,,,,,,2024-06-10,1,,,,,エンドア,0
1836,7240001063346,新規,0,2024-06-10,2024-06-10,株式会社全国親知らず専門外来,,株式会社,広島県,広島市中区,東千田町１丁目１番５５－１９１１号,,34,101,7300053,,,,,,,2024-06-10,1,,,,,ゼンコクオヤシラズセンモンガイライ,0
1837,7240001063354,新規,0,2024-06-10,2024-06-10,株式会社フォレスト,,株式会社,広島県,広島市安佐北区,口田３丁目１５番１７号,,34,106,7391734,,,,,,,2024-06-10,1,,,,,フォレスト,0
1852,7260001039162,新規,0,2024-06-10,2024-06-10,株式会社小林工業,,株式会社,岡山県,倉敷市,上富井５２２番地１８,,33,202,7100846,,,,,,,2024-06-10,1,,,,,コバヤシコウギョウ,0
1855,7280001009196,新規,0,2024-06-10,2024-06-10,株式会社グラッド,,株式会社,島根県,松江市,東出雲町意宇南６丁目１番地４,,32,201,6990111,,,,,,,2024-06-10,1,,,,,グラッド,0
1863,7290005019422,新規,0,2024-06-10,2024-06-10,ＮＰＯ法人再生・移植医療推進研究会,,その他の設立登記法人,福岡県,福岡市中央区,渡辺通５丁目２３番２－４０９号,,40,133,8100004,,,,,,,2024-06-10,1,,,,,サイセイイショクイリョウスイシンケンキュウカイ,0
1864,7290803004749,新規,0,2024-06-10,2024-06-10,合同会社暖,,合同会社,福岡県,北九州市小倉南区,中曽根新町３番４３ー３０３号,,40,107,8000216,,,,,,,2024-06-10,1,,,,,ダン,0
1865,7300001013781,新規,0,2024-06-10,2024-06-10,株式会社Ｌｉｅｎｃｏｒｅ,,株式会社,佐賀県,小城市,三日月町長神田２３３５番地５,,41,208,8450021,,,,,,,2024-06-10,1,,,,,リアンコール,0
1868,7310003004803,新規,0,2024-06-10,2024-06-10,合同会社ＵＸｌａｂ．,,合同会社,長崎県,大村市,玖島２丁目２６７番地２,,42,205,8560834,,,,,,,2024-06-10,1,,,,,ユーエックスラボ,0
1869,7320001020520,新規,0,2024-06-10,2024-06-10,株式会社東栄産業,,株式会社,大分県,大分市,古ケ鶴２丁目１０番４号,,44,201,8700935,,,,,,,2024-06-10,1,,,,,トウエイサンギョウ,0
1870,7320001020529,新規,0,2024-06-10,2024-06-10,株式会社きたむら,,株式会社,大分県,杵築市,大字大内４７０２番地１,,44,210,8730006,,,,,,,2024-06-10,1,,,,,キタムラ,0
1872,7340003004503,新規,0,2024-06-10,2024-06-10,ハレワタル合同会社,,合同会社,鹿児島県,鹿児島市,宇宿５丁目５－２ユーマンハイツ３０２,,46,201,8900073,,,,,,,2024-06-10,1,,,,,,0
1877,7350003004667,新規,0,2024-06-10,2024-06-10,合同会社どるふぃん比良,,合同会社,宮崎県,日向市,大字塩見１４５６７番地１２９,,45,206,8830033,,,,,,,2024-06-10,1,,,,,ドルフィンヒラ,0
1880,7360001033782,新規,0,2024-06-10,2024-06-10,株式会社大共企画,,株式会社,沖縄県,宮古島市,平良字下里１３１４番地,,47,214,9060013,,,,,,,2024-06-10,1,,,,,ダイキョウキカク,0
1881,7360001033790,新規,0,2024-06-10,2024-06-10,ＨＡＰＰＹ　ＳＨＡＲＥ株式会社,,株式会社,沖縄県,豊見城市,字翁長８７番地,,47,212,9010223,,,,,,,2024-06-10,1,,,,,ハッピーシェア,0
1882,7360003014054,新規,0,2024-06-10,2024-06-10,合同会社三矢,,合同会社,沖縄県,名護市,宇茂佐の森２丁目１３番地５,,47,209,9050009,,,,,,,2024-06-10,1,,,,,ミツヤ,0
1886,7380001034589,新規,0,2024-06-10,2024-06-10,ｔｅｃｈ株式会社,,株式会社,福島県,郡山市,安積３丁目１７４番地１,,07,203,9630107,,,,,,,2024-06-10,1,,,,,テック,0
1895,7430001091988,新規,0,2024-06-10,2024-06-10,株式会社セブンエイト,,株式会社,北海道,札幌市南区,真駒内本町３丁目１番１０－３０８号,,01,106,0050021,,,,,,,2024-06-10,1,,,,,セブンエイト,0
1896,7430001092012,新規,0,2024-06-10,2024-06-10,株式会社りとも,,株式会社,北海道,札幌市中央区,南二条西３丁目１番地７ＭＯＤＡビル３Ｆ,,01,101,0600062,,,,,,,2024-06-10,1,,,,,リトモ,0
1904,7480001012502,新規,0,2024-06-10,2024-06-10,株式会社樋口商店,00135093,株式会社,徳島県,阿南市,羽ノ浦町宮倉芝生７９番地１パル羽ノ浦ｅａｔｍａｌｌ,,36,204,7791102,,,,,,,2024-06-10,1,,,,,ヒグチショウテン,0
1907,7490001010793,新規,0,2024-06-10,2024-06-10,株式会社えん堂,,株式会社,高知県,高知市,愛宕町２丁目２１番７号,,39,201,7800051,,,,,,,2024-06-10,1,,,,,エンドウ,0
1908,7500001025682,新規,0,2024-06-10,2024-06-10,イロドリ株式会社,,株式会社,愛媛県,西宇和郡伊方町,三崎１１６５,,38,442,7960801,,,,,,,2024-06-10,1,,,,,イロドリ,0
1912,7700150125841,新規,0,2024-06-10,2024-06-10,ＡｉｒＷｉｎ　Ｇｒｏｕｐ　ＨＫ　Ｌｉｍｉｔｅｄ,,外国会社等,,,,,,,,ＯＦＦＩＣＥ　ＵＮＩＴ　Ｂ　９／Ｆ　ＴＨＯＭＳＯＮ　ＣＯＭＭ　ＢＬＤＧ　８　ＴＨＯＭＳＯＮ　ＲＤ　Ｈｏｎｇ　Ｋｏｎｇ,,,,,,2024-06-10,1,,,,,エアウイングループカンパニリミテツド,0
1922,8010001245528,新規,0,2024-06-10,2024-06-10,Ｏｒｉｇｇｉｎ　Ｖｅｎｔｕｒｅｓ　Ｊａｐａｎ株式会社,,株式会社,東京都,中央区,銀座１丁目１２番４号Ｎ＆ＥＢＬＤ．６階,,13,102,1040061,,,,,,,2024-06-10,1,,,,,オリジンベンチャーズジャパン,0
1924,8010003043954,新規,0,2024-06-10,2024-06-10,ＶＥＲＭＩＬＬＩＯＮ合同会社,,合同会社,東京都,文京区,本郷５丁目５番１９号,,13,105,1130033,,,,,,,2024-06-10,1,,,,,バーミリオン,0
1925,8010003043970,新規,0,2024-06-10,2024-06-10,リスペクトラボ合同会社,,合同会社,東京都,千代田区,麹町３丁目１２－６,,13,101,1020083,,,,,,,2024-06-10,1,,,,,リスペクトラボ,0
1926,8010101016184,新規,0,2024-06-10,2024-06-10,株式会社小大ハウス,,株式会社,東京都,八王子市,犬目町１２４８番地１０,,13,201,1930802,,,,,,,2024-06-10,1,,,,,コタハウス,0
1928,8010103002372,新規,0,2024-06-10,2024-06-10,合同会社Ａ．Ｔ．Ｊ．,,合同会社,東京都,八王子市,千人町３丁目８番３９号,,13,201,1930835,,,,,,,2024-06-10,1,,,,,エーティージェー,0
1935,8010401182924,新規,0,2024-06-10,2024-06-10,株式会社ＤＧグルーヴ,,株式会社,東京都,港区,赤坂３丁目２番６号地下２階,,13,103,1070052,,,,,,,2024-06-10,1,,,,,ディージーグルーヴ,0
1936,8010401182957,新規,0,2024-06-10,2024-06-10,株式会社ドゥ・ラメール,,株式会社,東京都,港区,芝浦４丁目２０番２号－３８０９,,13,103,1080023,,,,,,,2024-06-10,1,,,,,ドゥラメール,0
1937,8010401182973,新規,0,2024-06-10,2024-06-10,株式会社ＫＨＡＬＩＦＡ,,株式会社,東京都,港区,三田３丁目２番４号坂田ビル１階,,13,103,1080073,,,,,,,2024-06-10,1,,,,,カリファ,0
1938,8010401183030,新規,0,2024-06-10,2024-06-10,内外リアルティホールディングス株式会社,,株式会社,東京都,港区,六本木５丁目１２番７－３０６号,,13,103,1060032,,,,,,,2024-06-10,1,,,,,ナイガイリアルティホールディングス,0
1940,8010403032796,新規,0,2024-06-10,2024-06-10,Ｂｏｏｚ　Ａｌｌｅｎ　Ｈａｍｉｌｔｏｎ　Ｊａｐａｎ合同会社,,合同会社,東京都,港区,六本木１丁目９番１０号アークヒルズ仙石山森タワー２８階ベーカー＆マッケンジー法律事務所（外国法共同事業）内,,13,103,1060032,,,,,,,2024-06-10,1,,,,,ブーズアレンハミルトンジャパン,0
1942,8010501052424,新規,0,2024-06-10,2024-06-10,株式会社幻夢ゲーム,,株式会社,東京都,台東区,浅草橋５丁目４－５ハシモトビル５０５号室,,13,106,1110053,,,,,,,2024-06-10,1,,,,,ゲンムゲーム,0
1943,8010501052432,新規,0,2024-06-10,2024-06-10,株式会社ＡＩベース,,株式会社,東京都,台東区,竜泉３丁目５番１－５０１号,,13,106,1100012,,,,,,,2024-06-10,1,,,,,エーアイベース,0
1954,8010901055415,新規,0,2024-06-10,2024-06-10,Ｍａｎａ　Ｌｅａ株式会社,,株式会社,東京都,世田谷区,代沢５丁目２９番１７号３０２,,13,112,1550032,,,,,,,2024-06-10,1,,,,,マナレア,0
1955,8010901055431,新規,0,2024-06-10,2024-06-10,株式会社作図表現研究所,,株式会社,東京都,世田谷区,松原３丁目３０－１０双葉屋ビル２Ｆ,,13,112,1560043,,,,,,,2024-06-10,1,,,,,サクズヒョウゲンケンキュウジョ,0
1965,8011001162449,新規,0,2024-06-10,2024-06-10,ナープ株式会社,,株式会社,東京都,渋谷区,宇田川町２番１号渋谷ホームズ３階,,13,113,1500042,,,,,,,2024-06-10,1,,,,,ナープ,0
1966,8011001162457,新規,0,2024-06-10,2024-06-10,株式会社ＲＥＶＩＴＡ,,株式会社,東京都,渋谷区,道玄坂１丁目１０番８号渋谷道玄坂東急ビル２Ｆ－Ｃ,,13,113,1500043,,,,,,,2024-06-10,1,,,,,レヴィータ,0
1967,8011001162597,新規,0,2024-06-10,2024-06-10,株式会社ＤＩＡＮＡ,,株式会社,東京都,渋谷区,恵比寿１丁目１９番１９号恵比寿ビジネスタワー１０階,,13,113,1500013,,,,,,,2024-06-10,1,,,,,ディアンナ,0
1968,8011003019382,新規,0,2024-06-10,2024-06-10,合同会社アルデンテ,,合同会社,東京都,渋谷区,神宮前６丁目２９－４原宿Ｋｏｍｉｙａビル６階,,13,113,1500001,,,,,,,2024-06-10,1,,,,,アルデンテ,0
1975,8011403004406,新規,0,2024-06-10,2024-06-10,Ｊ‐ＲＥＫ合同会社,,合同会社,東京都,板橋区,向原２丁目１７番１３号,,13,119,1730036,,,,,,,2024-06-10,1,,,,,ジェイレック,0
1978,8011801044219,新規,0,2024-06-10,2024-06-10,東耀国際株式会社,,株式会社,東京都,足立区,中川２丁目１３－２ジョイフル亀有２０４,,13,121,1200002,,,,,,,2024-06-10,1,,,,,トウヨウコクサイ,0
1992,8021001082398,新規,0,2024-06-10,2024-06-10,株式会社鎌丹,,株式会社,神奈川県,鎌倉市,材木座３丁目７－７,,14,204,2480013,,,,,,,2024-06-10,1,,,,,カマタン,0
1993,8021001082423,新規,0,2024-06-10,2024-06-10,株式会社ファンダハヤマ,,株式会社,神奈川県,三浦郡葉山町,堀内１６０番の１パークハウス葉山翠邸２０３号,,14,301,2400112,,,,,,,2024-06-10,1,,,,,ファンダハヤマ,0
1994,8021001082464,新規,0,2024-06-10,2024-06-10,株式会社ねこねこ商会,,株式会社,神奈川県,茅ヶ崎市,本村５丁目２番６２号,,14,207,2530042,,,,,,,2024-06-10,1,,,,,ネコネコショウカイ,0
2000,8030001160700,新規,0,2024-06-10,2024-06-10,株式会社Ｍａｇｉｃａｌ　Ｍｅｄｉｃａｌ,,株式会社,埼玉県,新座市,野寺４丁目６番３３号,,11,230,3520034,,,,,,,2024-06-10,1,,,,,マジカルメディカル,0
2001,8030001160873,新規,0,2024-06-10,2024-06-10,株式会社メタル,,株式会社,埼玉県,さいたま市南区,鹿手袋２丁目９番１１号ＳＰＡＸ中浦和３０３号室,,11,108,3360031,,,,,,,2024-06-10,1,,,,,メタル,0
2002,8030003024432,新規,0,2024-06-10,2024-06-10,ＬＯＶＥＷＯＲＫＳ合同会社,,合同会社,埼玉県,三郷市,三郷３丁目１７番地１レーベン三郷１００２号,,11,237,3410024,,,,,,,2024-06-10,1,,,,,ラブワークス,0
2010,8040001134001,新規,0,2024-06-10,2024-06-10,株式会社ワイズテップ,,株式会社,千葉県,浦安市,富士見１丁目９番６号,,12,227,2790043,,,,,,,2024-06-10,1,,,,,ワイズテップ,0
2011,8040001134018,新規,0,2024-06-10,2024-06-10,株式会社カモメ不動産,,株式会社,千葉県,我孫子市,我孫子１８６１,,12,222,2701166,,,,,,,2024-06-10,1,,,,,カモメフドウサン,0
2012,8040003025149,新規,0,2024-06-10,2024-06-10,合同会社えがおのもと,,合同会社,千葉県,市川市,富浜１丁目２番１０号,,12,203,2720115,,,,,,,2024-06-10,1,,,,,エガオノモト,0
2013,8050001054859,新規,0,2024-06-10,2024-06-10,株式会社三鈴経営研究所,,株式会社,茨城県,つくば市,梅園２丁目７番地３つくばシティビル６０１,,08,220,3050045,,,,,,,2024-06-10,1,,,,,ミスズケイエイケンキュウジョ,0
2017,8050003008433,新規,0,2024-06-10,2024-06-10,合同会社ｐｏｒｃｈ,,合同会社,茨城県,守谷市,松ケ丘１丁目１番地６,,08,224,3020127,,,,,,,2024-06-10,1,,,,,ポーチ,0
2018,8050003008441,新規,0,2024-06-10,2024-06-10,ＡＬＩ　ＡＵＴＯ合同会社,,合同会社,茨城県,古河市,恩名２５２９番地４、１Ｆ,,08,204,3060104,,,,,,,2024-06-10,1,,,,,アリオート,0
2021,8060003005108,新規,0,2024-06-10,2024-06-10,合同会社ＨＨ,,合同会社,栃木県,芳賀郡芳賀町,大字東高橋１４３６番地,,09,345,3213313,,,,,,,2024-06-10,1,,,,,ハツハツ,0
2025,8070001041839,新規,0,2024-06-10,2024-06-10,株式会社Ｋ＆Ｋ,,株式会社,群馬県,伊勢崎市,赤堀今井町１丁目５５番地２６,,10,204,3792215,,,,,,,2024-06-10,1,,,,,,0
2031,8080003003217,新規,0,2024-06-10,2024-06-10,合同会社ツカモト商店,,合同会社,静岡県,静岡市葵区,古庄５丁目１０－４０,,22,101,4200812,,,,,,,2024-06-10,1,,,,,,0
2038,8100001037544,新規,0,2024-06-10,2024-06-10,株式会社小竹道路,,株式会社,長野県,須坂市,大字日滝２３２０番地１,,20,207,3820000,,,,,,,2024-06-10,1,,,,,コタケドウロ,0
2040,8110001038459,新規,0,2024-06-10,2024-06-10,株式会社Ｔｈａｎｋｓ,,株式会社,新潟県,新発田市,豊町４丁目６番５号,,15,206,9570016,,,,,,,2024-06-10,1,,,,,サンクス,0
2049,8120001265671,新規,0,2024-06-10,2024-06-10,株式会社シープロ,,株式会社,大阪府,大阪市東住吉区,桑津１丁目１３番２２号,,27,121,5460041,,,,,,,2024-06-10,1,,,,,シープロ,0
2050,8120001265696,新規,0,2024-06-10,2024-06-10,株式会社ＳＨＡＮＴＩ,,株式会社,大阪府,大阪市福島区,海老江１丁目５番３０－３１３号,,27,103,5530001,,,,,,,2024-06-10,1,,,,,シャンティ,0
2051,8120001265746,新規,0,2024-06-10,2024-06-10,株式会社せかいあつめ,,株式会社,大阪府,大阪市生野区,生野東２丁目２－２２,,27,116,5440025,,,,,,,2024-06-10,1,,,,,セカイアツメ,0
2052,8120001265795,新規,0,2024-06-10,2024-06-10,益田株式会社,,株式会社,大阪府,大阪市都島区,東野田町１丁目１２番５号,,27,102,5340024,,,,,,,2024-06-10,1,,,,,マスダ,0
2055,8120003026717,新規,0,2024-06-10,2024-06-10,Ｍｏｍｏ　Ｇｒｏｕｐ合同会社,,合同会社,大阪府,大阪市浪速区,恵美須東１丁目２３番１１号ＴｈｅＰｅａｋＴｓｕｔｅｎｋａｋｕ１００３号,,27,111,5560002,,,,,,,2024-06-10,1,,,,,モモグループ,0
2056,8120005024371,新規,0,2024-06-10,2024-06-10,社会保険労務士法人ＡＩＳ,,その他の設立登記法人,大阪府,大阪市中央区,谷町１丁目４番３号,,27,128,5400012,,,,,,,2024-06-10,1,,,,,アイズ,0
2057,8120101069758,新規,0,2024-06-10,2024-06-10,株式会社田村建設,,株式会社,大阪府,大阪狭山市,池尻中３丁目２番４号１０２号,,27,231,5890007,,,,,,,2024-06-10,1,,,,,タムラケンセツ,0
2067,8120901049307,新規,0,2024-06-10,2024-06-10,リバティ株式会社,,株式会社,大阪府,豊中市,曽根東町１丁目１１番１号,,27,203,5610802,,,,,,,2024-06-10,1,,,,,リバティ,0
2082,8140003020643,新規,0,2024-06-10,2024-06-10,合同会社三十四鈴,,合同会社,兵庫県,高砂市,阿弥陀町魚橋１０４２番地の６,,28,216,6760822,,,,,,,2024-06-10,1,,,,,サンジュウヨンリン,0
2083,8140003020651,新規,0,2024-06-10,2024-06-10,合同会社四十二鈴,,合同会社,兵庫県,高砂市,阿弥陀町魚橋１０４２番地の６,,28,216,6760822,,,,,,,2024-06-10,1,,,,,ヨンジュウニリン,0
2084,8140003020676,新規,0,2024-06-10,2024-06-10,合同会社齋藤総合保険事務所,,合同会社,兵庫県,加古川市,野口町良野１２１番地の３８,,28,210,6750017,,,,,,,2024-06-10,1,,,,,サイトウソウゴウホケンジムショ,0
2088,8170001018174,新規,0,2024-06-10,2024-06-10,株式会社Ｎ’ｓ,,株式会社,和歌山県,和歌山市,善明寺５５番地,,30,201,6408471,,,,,,,2024-06-10,1,,,,,エヌズ,0
2089,8170001018182,新規,0,2024-06-10,2024-06-10,株式会社山光建機リース,,株式会社,和歌山県,和歌山市,井戸１８９番地１,,30,201,6400352,,,,,,,2024-06-10,1,,,,,サンコウケンキリース,0
2091,8170003002052,新規,0,2024-06-10,2024-06-10,合同会社春光ペイント,,合同会社,和歌山県,和歌山市,有本２５１番地１４,,30,201,6408390,,,,,,,2024-06-10,1,,,,,ハルミツペイント,0
2097,8180001161865,新規,0,2024-06-10,2024-06-10,株式会社名古屋,,株式会社,愛知県,名古屋市中村区,名駅南１丁目５番３２号６階６０１号室,,23,105,4500003,,,,,,,2024-06-10,1,,,,,ナゴヤ,0
2098,8180001161873,新規,0,2024-06-10,2024-06-10,株式会社ＨＵＢＵ,,株式会社,愛知県,名古屋市東区,葵１丁目１５番２７号ローレルコートリミテッドエディション１２０２号,,23,102,4610004,,,,,,,2024-06-10,1,,,,,フブ,0
2099,8180001161931,新規,0,2024-06-10,2024-06-10,株式会社ＣＯＮＮＥＣＴ,,株式会社,愛知県,一宮市,柚木颪字東川垂９２番地,,23,203,4910011,,,,,,,2024-06-10,1,,,,,コネクト,0
2104,8200001042559,新規,0,2024-06-10,2024-06-10,株式会社舟,,株式会社,岐阜県,土岐市,下石町３２２番地の９４,,21,212,5095202,,,,,,,2024-06-10,1,,,,,フネ,0
2105,8200001042575,新規,0,2024-06-10,2024-06-10,株式会社ＴＫ‐Ｄ,,株式会社,岐阜県,岐阜市,下土居３丁目５番２号,,21,201,5020858,,,,,,,2024-06-10,1,,,,,ティーケイディー,0
2108,8220001026048,新規,0,2024-06-10,2024-06-10,株式会社共和エステート,,株式会社,石川県,金沢市,本多町２丁目１５番２号,,17,201,9200964,,,,,,,2024-06-10,1,,,,,キョウワエステート,0
2109,8220001026056,新規,0,2024-06-10,2024-06-10,ＳＴＨ商事株式会社,,株式会社,石川県,金沢市,神田１丁目１７番２５号,,17,201,9218027,,,,,,,2024-06-10,1,,,,,エスティーエイチショウジ,0
2110,8220003003763,新規,0,2024-06-10,2024-06-10,合同会社エクスポートワン,,合同会社,石川県,金沢市,大桑町庚７番地１,,17,201,9200946,,,,,,,2024-06-10,1,,,,,エクスポートワン,0
2111,8230001020388,新規,0,2024-06-10,2024-06-10,株式会社星美,,株式会社,富山県,富山市,婦中町鵜坂５１番地２０,,16,201,9392711,,,,,,,2024-06-10,1,,,,,ホシミ,0
2117,8240001063345,新規,0,2024-06-10,2024-06-10,株式会社ＫＤカンパニー,,株式会社,広島県,東広島市,黒瀬桜が丘１丁目９番２号,,34,212,7392618,,,,,,,2024-06-10,1,,,,,ケーディーカンパニー,0
2124,8260001039178,新規,0,2024-06-10,2024-06-10,株式会社サラダボウル,,株式会社,岡山県,岡山市南区,芳泉４丁目１２番２６号第３ジュネス芳泉Ｃ棟１０２,,33,104,7028027,,,,,,,2024-06-10,1,,,,,サラダボウル,0
2127,8280003001852,新規,0,2024-06-10,2024-06-10,合同会社Ｕｍｉｎｏｏｔｏ,,合同会社,島根県,松江市,美保関町片江５３２,,32,201,6901315,,,,,,,2024-06-10,1,,,,,ウミノオト,0
2134,8290001106041,新規,0,2024-06-10,2024-06-10,株式会社エンタテック,,株式会社,福岡県,宗像市,日の里６丁目１８番地３,,40,220,8113425,,,,,,,2024-06-10,1,,,,,エンタテック,0
2141,8320001020528,新規,0,2024-06-10,2024-06-10,イーライフ株式会社,,株式会社,大分県,佐伯市,中の島３丁目２番３３号,,44,205,8760843,,,,,,,2024-06-10,1,,,,,イーライフ,0
2143,8330001032150,新規,0,2024-06-10,2024-06-10,ＬＡＩ株式会社,,株式会社,熊本県,熊本市中央区,帯山４丁目２２番１７号,,43,101,8620924,,,,,,,2024-06-10,1,,,,,ライ,0
2144,8340001026572,新規,0,2024-06-10,2024-06-10,大山企画株式会社,,株式会社,鹿児島県,鹿児島市,三和町５０番１１号１０１号,,46,201,8900071,,,,,,,2024-06-10,1,,,,,オオヤマキカク,0
2151,8360001033773,新規,0,2024-06-10,2024-06-10,株式会社ゆやま,,株式会社,沖縄県,浦添市,勢理客２丁目１５番２４－５０１号,,47,208,9012122,,,,,,,2024-06-10,1,,,,,ユヤマ,0
2152,8360001033781,新規,0,2024-06-10,2024-06-10,株式会社スカイドリームホールディングス,,株式会社,沖縄県,豊見城市,字豊見城１００７番地５５,,47,212,9010241,,,,,,,2024-06-10,1,,,,,スカイドリームホールディングス,0
2169,8430001091987,新規,0,2024-06-10,2024-06-10,株式会社ガジュマル,,株式会社,北海道,札幌市清田区,平岡十条１丁目１２番１１号,,01,110,0040880,,,,,,,2024-06-10,1,,,,,ガジュマル,0
2170,8430001092003,新規,0,2024-06-10,2024-06-10,株式会社カイタクシ,,株式会社,北海道,札幌市北区,あいの里三条９丁目９番１４号,,01,102,0028073,,,,,,,2024-06-10,1,,,,,カイタクシ,0
2172,8430003016439,新規,0,2024-06-10,2024-06-10,合同会社Ｙ,,合同会社,北海道,札幌市白石区,本郷通６丁目北１－２０ハイツタムラ２０１号,,01,104,0030025,,,,,,,2024-06-10,1,,,,,ワイ,0
2178,8470003002658,新規,0,2024-06-10,2024-06-10,アズール合同会社,,合同会社,香川県,高松市,屋島西町２２７４番地２０アルファシティ屋島六番館４０３号,,37,201,7610113,,,,,,,2024-06-10,1,,,,,,0
2179,8480001012501,新規,0,2024-06-10,2024-06-10,株式会社Ｇ‐ＳＥＬＥＣＴ,,株式会社,徳島県,阿波市,吉野町西条字東姥御前６８番地１,,36,206,7711402,,,,,,,2024-06-10,1,,,,,ジーセレクト,0
2183,8700150125709,新規,0,2024-06-10,2024-06-10,Ｌｕｋａ　Ｐｒｏｄｕｃｔｉｏｎｓ　Ｉｎｔｅｒｎａｔｉｏｎａｌ,,外国会社等,,,,,,,,８３３５　ＳＵＮＳＥＴ　ＢＬＶＤ．＃３２１　ＷＥＳＴ　ＨＯＬＬＹＷＯＯＤ　ＣＡ　９００６９,,,,,,2024-06-10,1,,,,,ルカプロダクシヨンズインターナシヨナル,0
2184,8700150125840,新規,0,2024-06-10,2024-06-10,Ｌａｋｅ　Ｕｎｉｏｎ　Ｃｏ．，Ｌｔｄ．,,外国会社等,,,,,,,,台北市内湖区民善街８３、８５、８７、８９号７階,,,,,,2024-06-10,1,,,,,レイクユニオンカンパニーリミテツド,0
2185,8700150125849,新規,0,2024-06-10,2024-06-10,ＦＵＬＬ　ＴＲＡＩＮ　ＬＩＭＩＴＥＤ,,外国会社等,北海道,札幌市豊平区,美園四条４丁目１－８ピノ・ノワール３０１号室,,01,105,0620004,ＵｎｉｔＡ，３／Ｆ，ＣｈｅｏｎｇＳｕｎＴｏｗｅｒ，１１６－１１８ＷｉｎｇＬｏｋＳｔｒｅｅｔ，ＳｈｅｕｎｇＷａｎ，ＨｏｎｇＫｏｎｇ,,,,,,2024-06-10,1,,,,,フルトレインリミテツド,0
2191,9010001245626,新規,0,2024-06-10,2024-06-10,Ａｎｇｕｒｕ　Ｔｅｃｈｎｏｌｏｇｉｅｓ株式会社,,株式会社,東京都,千代田区,内神田１丁目１３番１号,,13,101,1010047,,,,,,,2024-06-10,1,,,,,アングルテクノロジーズ,0
2192,9010001245642,新規,0,2024-06-10,2024-06-10,ＫＨＤ株式会社,,株式会社,東京都,千代田区,有楽町１丁目１３番２号第一生命日比谷ファースト１８階,,13,101,1000006,,,,,,,2024-06-10,1,,,,,ケーエイチディー,0
2196,9010003043953,新規,0,2024-06-10,2024-06-10,合同会社ＺＥＺ,,合同会社,東京都,中央区,銀座１丁目１２番４号Ｎ＆ＥＢＬＤ．６Ｆ,,13,102,1040061,,,,,,,2024-06-10,1,,,,,ゼズ,0
2197,9010005038398,新規,0,2024-06-10,2024-06-10,一般社団法人新トマム,,その他の設立登記法人,東京都,千代田区,霞が関３丁目２番５号,,13,101,1000013,,,,,,,2024-06-10,1,,,,,シントマム,0
2198,9010101016183,新規,0,2024-06-10,2024-06-10,株式会社小嶋組,,株式会社,東京都,八王子市,中野上町４丁目３８番３号メゾン中野１０３号,,13,201,1920041,,,,,,,2024-06-10,1,,,,,コジマグミ,0
2199,9010101016191,新規,0,2024-06-10,2024-06-10,株式会社石原工業,,株式会社,東京都,八王子市,中野山王１丁目１４番１号,,13,201,1920042,,,,,,,2024-06-10,1,,,,,イシハラコウギョウ,0
2200,9010103002371,新規,0,2024-06-10,2024-06-10,合同会社ＫＭＫ,,合同会社,東京都,八王子市,小宮町９０６番地１,,13,201,1920031,,,,,,,2024-06-10,1,,,,,ケイエムケイ,0
2204,9010401182857,新規,0,2024-06-10,2024-06-10,コグニティブＨＤ株式会社,,株式会社,東京都,港区,六本木７丁目３番８号,,13,103,1060032,,,,,,,2024-06-10,1,,,,,コグニティブエイチディー,0
2205,9010401183005,新規,0,2024-06-10,2024-06-10,ＧｒａｎＴｏｋｙｏ株式会社,,株式会社,東京都,港区,南青山２丁目２番１５号,,13,103,1070062,,,,,,,2024-06-10,1,,,,,グラントウキョウ,0
2206,9010401183070,新規,0,2024-06-10,2024-06-10,株式会社Ｎ　ｃｏｌｌｅｃｔｉｖｅ,,株式会社,東京都,港区,北青山１丁目３番１号,,13,103,1070061,,,,,,,2024-06-10,1,,,,,エヌコレクティブ,0
2211,9010601065341,新規,0,2024-06-10,2024-06-10,株式会社ＡＶＥＲＥ,,株式会社,東京都,墨田区,立川３丁目１６番９－３０４号菊川ビューハイツ,,13,107,1300023,,,,,,,2024-06-10,1,,,,,アヴェーレ,0
2220,9010703007217,新規,0,2024-06-10,2024-06-10,ナインスコード合同会社,,合同会社,東京都,品川区,大崎４丁目５番２５号クレセントコート１０４,,13,109,1410032,,,,,,,2024-06-10,1,,,,,,0
2230,9011001162522,新規,0,2024-06-10,2024-06-10,株式会社Ｍｉｏ’ｓ,,株式会社,東京都,渋谷区,南平台町７番６－２０１号,,13,113,1500036,,,,,,,2024-06-10,1,,,,,ミオス,0
2231,9011001162530,新規,0,2024-06-10,2024-06-10,株式会社Ｐ．ＰＬＡＮ,,株式会社,東京都,渋谷区,道玄坂１丁目１０番８号渋谷道玄坂東急ビル２Ｆ－Ｃ,,13,113,1500043,,,,,,,2024-06-10,1,,,,,,0
2232,9011001162539,新規,0,2024-06-10,2024-06-10,ＯＴＥＮＢＡ株式会社,,株式会社,東京都,渋谷区,東１丁目２７‐７渋谷東ＫＭビル７Ｆ,,13,113,1500011,,,,,,,2024-06-10,1,,,,,オテンバ,0
2233,9011003019349,新規,0,2024-06-10,2024-06-10,合同会社Ｃｅｎｔｒａｌ　Ｐａｃｉｆｉｃ　ｔｒａｄｉｎｇ,,合同会社,東京都,渋谷区,千駄ヶ谷１丁目１１番３号,,13,113,1510051,,,,,,,2024-06-10,1,,,,,セントラルパシフィックトレーディング,0
2234,9011003019357,新規,0,2024-06-10,2024-06-10,合同会社ＴＥｎｔｅｒｔａｉｎｍｅｎｔ,,合同会社,東京都,渋谷区,道玄坂１丁目１０番８号渋谷道玄坂東急ビル２Ｆ－Ｃ,,13,113,1500043,,,,,,,2024-06-10,1,,,,,,0
2240,9011101107625,新規,0,2024-06-10,2024-06-10,株式会社サウンドワークスエイチアール,,株式会社,東京都,新宿区,西新宿８丁目１９番１３－９０４号,,13,104,1600023,,,,,,,2024-06-10,1,,,,,サウンドワークスエイチアール,0
2242,9011103014522,新規,0,2024-06-10,2024-06-10,グリーン・エナジー・コンサルティング合同会社,,合同会社,東京都,新宿区,南元町２０－３ガーデンヒルズ四ツ谷迎賓の森２１４,,13,104,1600012,,,,,,,2024-06-10,1,,,,,グリーンエナジーコンサルティング,0
2246,9011203004407,新規,0,2024-06-10,2024-06-10,合同会社はなぶさ,,合同会社,東京都,中野区,中央４丁目２３番１号,,13,114,1640011,,,,,,,2024-06-10,1,,,,,ハナブサ,0
2249,9011601027810,新規,0,2024-06-10,2024-06-10,株式会社ａｄｄｒｅｓｓ,,株式会社,東京都,練馬区,早宮１丁目５２番１１－２０４号,,13,120,1790085,,,,,,,2024-06-10,1,,,,,アドレス,0
2254,9011801044341,新規,0,2024-06-10,2024-06-10,株式会社ｎｏｔ　ｃｈａｎｇｅ,,株式会社,東京都,足立区,千住２丁目６２番地１０根岸ビル３階,,13,121,1200034,,,,,,,2024-06-10,1,,,,,ノットチェンジ,0
2257,9012803003426,新規,0,2024-06-10,2024-06-10,合同会社ＡＲＫ,,合同会社,東京都,立川市,錦町５丁目８番３号ラッキー・クローバー２、１０２号室,,13,202,1900022,,,,,,,2024-06-10,1,,,,,,0
2261,9013303007173,新規,0,2024-06-10,2024-06-10,唯一合同会社,,合同会社,東京都,豊島区,南池袋１丁目９番１８号ＧＯＧＯオフィス池袋１６１号,,13,116,1710022,,,,,,,2024-06-10,1,,,,,ユイイツ,0
2266,9020001157572,新規,0,2024-06-10,2024-06-10,株式会社スカイネスタ,,株式会社,神奈川県,横浜市都筑区,早渕１丁目２番４―３０３号,,14,118,2240025,,,,,,,2024-06-10,1,,,,,スカイネスタ,0
2272,9021001082414,新規,0,2024-06-10,2024-06-10,株式会社深澤建創,,株式会社,神奈川県,茅ヶ崎市,円蔵２５２０番地２,,14,207,2530084,,,,,,,2024-06-10,1,,,,,フカサワケンソウ,0
2273,9021001082439,新規,0,2024-06-10,2024-06-10,レフエステート株式会社,,株式会社,神奈川県,逗子市,沼間１丁目２０番地の４,,14,208,2490004,,,,,,,2024-06-10,1,,,,,レフエステート,0
2274,9021003014621,新規,0,2024-06-10,2024-06-10,ＭＡＦ商会合同会社,,合同会社,神奈川県,厚木市,下川入６４５宮田ハイツＩＩ－１０６,00135084,14,212,2430206,,,,,,,2024-06-10,1,,,,,エムエエフショウカイ,0
2277,9030001160716,新規,0,2024-06-10,2024-06-10,株式会社ライデンシャフトプロデュース,,株式会社,埼玉県,深谷市,小前田２７９１,,11,218,3691246,,,,,,,2024-06-10,1,,,,,ライデンシャフトプロデュース,0
2278,9030001160815,新規,0,2024-06-10,2024-06-10,株式会社ＫＡＩＳＥＩ　ＳＰＯＲＴＳ,,株式会社,埼玉県,戸田市,笹目５丁目１３番地の８,,11,224,3350034,,,,,,,2024-06-10,1,,,,,カイセイスポーツ,0
2279,9030001160880,新規,0,2024-06-10,2024-06-10,株式会社明け星,,株式会社,埼玉県,入間市,東町５丁目２番５０号３,,11,225,3580002,,,,,,,2024-06-10,1,,,,,アケボシ,0
2288,9040001133943,新規,0,2024-06-10,2024-06-10,株式会社ＴＯＭＩＴＡグローバルプロジェクト,,株式会社,千葉県,松戸市,松戸１３３９番地高橋ビル１階,,12,207,2710092,,,,,,,2024-06-10,1,,,,,トミタグローバルプロジェクト,0
2289,9040001133951,新規,0,2024-06-10,2024-06-10,Ｔｅｓｔａ株式会社,,株式会社,千葉県,船橋市,夏見２丁目１５番６－５号,,12,204,2730865,,,,,,,2024-06-10,1,,,,,テスタ,0
2290,9040001133984,新規,0,2024-06-10,2024-06-10,アキオ・インターナショナル株式会社,,株式会社,千葉県,山武郡九十九里町,作田５６３３番地２４０,,12,403,2830101,,,,,,,2024-06-10,1,,,,,アキオインターナショナル,0
2291,9040001133992,新規,0,2024-06-10,2024-06-10,サンシックス株式会社,,株式会社,千葉県,流山市,流山２丁目１２７番地３流山ガーデンハイツ４０１,,12,220,2700164,,,,,,,2024-06-10,1,,,,,サンシックス,0
2292,9040001134000,新規,0,2024-06-10,2024-06-10,フォルメコジャパン株式会社,,株式会社,千葉県,千葉市美浜区,打瀬３丁目５番地マリンフォート４－１５０２号,,12,106,2610013,,,,,,,2024-06-10,1,,,,,フォルメコジャパン,0
2295,9040003025164,新規,0,2024-06-10,2024-06-10,合同会社ＩＮＯＲＩＣＨ８９６,,合同会社,千葉県,習志野市,東習志野５丁目２１番９号,,12,216,2750001,,,,,,,2024-06-10,1,,,,,イノリッチハチキュウロク,0
2296,9040003025172,新規,0,2024-06-10,2024-06-10,合同会社Ｂｌｏｏｍｉｎ,,合同会社,千葉県,茂原市,長尾２６８２番地４,,12,210,2970073,,,,,,,2024-06-10,1,,,,,ブルーミン,0
2297,9040003025180,新規,0,2024-06-10,2024-06-10,合同会社Ｈａｐｅａｔ,,合同会社,千葉県,富津市,西大和田１１９３番地４０,,12,226,2930035,,,,,,,2024-06-10,1,,,,,ハピート,0
2303,9060001037176,新規,0,2024-06-10,2024-06-10,株式会社エイジェックスポーツ科学総合センター,,株式会社,栃木県,栃木市,沼和田町２１番３号,,09,203,3280042,,,,,,,2024-06-10,1,,,,,エイジェックスポーツカガクソウゴウセンター,0
2307,9070003005452,新規,0,2024-06-10,2024-06-10,合同会社ＮＥＢＥＬ,,合同会社,群馬県,伊勢崎市,上田町３１番地６,,10,204,3792225,,,,,,,2024-06-10,1,,,,,,0
2309,9080101024808,新規,0,2024-06-10,2024-06-10,株式会社コバケン,,株式会社,静岡県,駿東郡清水町,湯川１９７－２０,,22,341,4110918,,,,,,,2024-06-10,1,,,,,コバケン,0
2310,9080401027238,新規,0,2024-06-10,2024-06-10,カンズ建装株式会社,,株式会社,静岡県,浜松市中央区,佐藤３丁目２３番１７号,,22,138,4300807,,,,,,,2024-06-10,1,,,,,カンズケンソウ,0
2311,9090001018743,新規,0,2024-06-10,2024-06-10,Ａ・Ｒ・Ｇ株式会社,,株式会社,山梨県,山梨市,市川１９１９番地,,19,205,4050044,,,,,,,2024-06-10,1,,,,,エーアルージー,0
2312,9090001018751,新規,0,2024-06-10,2024-06-10,株式会社中元商事,,株式会社,山梨県,富士吉田市,上吉田東１丁目９番２４号３０１室,,19,202,4030032,,,,,,,2024-06-10,1,,,,,チュウゲンショウジ,0
2313,9100001037527,新規,0,2024-06-10,2024-06-10,株式会社ホーム,,株式会社,長野県,岡谷市,川岸中１丁目７番１６号,,20,204,3940047,,,,,,,2024-06-10,1,,,,,ホーム,0
2319,9110003005415,新規,0,2024-06-10,2024-06-10,合同会社リアル,,合同会社,新潟県,長岡市,三和１丁目６番１６号,,15,202,9401151,,,,,,,2024-06-10,1,,,,,リアル,0
2325,9120001265670,新規,0,2024-06-10,2024-06-10,ＨＬＥ株式会社,,株式会社,大阪府,大阪市西成区,玉出西２丁目１６番２７－２０７号,,27,122,5570045,,,,,,,2024-06-10,1,,,,,エチエルイ,0
2326,9120001265737,新規,0,2024-06-10,2024-06-10,株式会社ＧＮＳコーポレーション,,株式会社,大阪府,大阪市北区,梅田１丁目２番２号大阪駅前第２ビル１２－１２,,27,127,5300001,,,,,,,2024-06-10,1,,,,,ジーエヌエスコーポレーション,0
2327,9120001265745,新規,0,2024-06-10,2024-06-10,株式会社エグゼグレイス,,株式会社,大阪府,大阪市中央区,常盤町２丁目３番１７－１８０８号,,27,128,5400028,,,,,,,2024-06-10,1,,,,,エグゼグレイス,0
2328,9120001265761,新規,0,2024-06-10,2024-06-10,株式会社Ｇｒｅｅｎ,,株式会社,大阪府,大阪市淀川区,田川北２丁目４番２０－７０２号,,27,123,5320021,,,,,,,2024-06-10,1,,,,,グリーン,0
2330,9120003026749,新規,0,2024-06-10,2024-06-10,宇宙経済新聞合同会社,,合同会社,大阪府,大阪市中央区,南船場４丁目１０番５号南船場ＳＯＨＯビル７０２,,27,128,5420081,,,,,,,2024-06-10,1,,,,,ウチュウケイザイシンブン,0
2331,9120005024370,新規,0,2024-06-10,2024-06-10,一般社団法人ウェルネスアクティベーション協会,,その他の設立登記法人,大阪府,大阪市西成区,梅南１丁目８番８号,,27,122,5570033,,,,,,,2024-06-10,1,,,,,ウェルネスアクティベーションキョウカイ,0
2336,9120101069757,新規,0,2024-06-10,2024-06-10,株式会社Ｋ’ｓ　Ｗｏｒｋｓカワベ工務店,,株式会社,大阪府,岸和田市,真上町３５０番地の９,,27,202,5960842,,,,,,,2024-06-10,1,,,,,ケーズワークスカワベコウムテン,0
2339,9120103005875,新規,0,2024-06-10,2024-06-10,合同会社ＳＫＭ　ｃｒａｆｔ,,合同会社,大阪府,堺市西区,堀上緑町２丁９番１６－１号,,27,144,5938305,,,,,,,2024-06-10,1,,,,,エスケーエムクラフト,0
2341,9120901049289,新規,0,2024-06-10,2024-06-10,ＮＩＣＯ株式会社,,株式会社,大阪府,茨木市,鮎川１丁目６番１号,,27,211,5670831,,,,,,,2024-06-10,1,,,,,ニコ,0
2342,9120901049306,新規,0,2024-06-10,2024-06-10,ＲＧＢ株式会社,,株式会社,大阪府,吹田市,桃山台３丁目８番１０号,,27,205,5650854,,,,,,,2024-06-10,1,,,,,アールジービー,0
2344,9122001038156,新規,0,2024-06-10,2024-06-10,株式会社ＬＩＧＡＲＥ,,株式会社,大阪府,東大阪市,菱屋西１丁目２１番１０－３０７号,,27,227,5770807,,,,,,,2024-06-10,1,,,,,リガーレ,0
2356,9140001134725,新規,0,2024-06-10,2024-06-10,Ｒｏｂｉｎ株式会社,,株式会社,兵庫県,加古川市,別府町新野辺北町７丁目１０４番地の３,,28,210,6750121,,,,,,,2024-06-10,1,,,,,ロビン,0
2360,9140003020642,新規,0,2024-06-10,2024-06-10,合同会社三十三鈴,,合同会社,兵庫県,高砂市,阿弥陀町魚橋１０４２番地の６,,28,216,6760822,,,,,,,2024-06-10,1,,,,,サンジュウサンリン,0
2361,9140003020650,新規,0,2024-06-10,2024-06-10,合同会社四十一鈴,,合同会社,兵庫県,高砂市,阿弥陀町魚橋１０４２番地の６,,28,216,6760822,,,,,,,2024-06-10,1,,,,,ヨンジュウイチリン,0
2362,9140005027108,新規,0,2024-06-10,2024-06-10,一般社団法人フリーランス支援協会,,その他の設立登記法人,兵庫県,神戸市須磨区,友が丘８丁目２０１番地の１９,,28,107,6540142,,,,,,,2024-06-10,1,,,,,フリーランスシエンキョウカイ,0
2365,9150001027333,新規,0,2024-06-10,2024-06-10,株式会社平川工務店,,株式会社,奈良県,天理市,森本町８１０番地,,29,204,6320007,,,,,,,2024-06-10,1,,,,,ヒラカワコウムテン,0
2366,9150005009600,新規,0,2024-06-10,2024-06-10,特定非営利活動法人ギブミーベジタブル,,その他の設立登記法人,奈良県,大和郡山市,柳町３４７番地３,,29,203,6391134,,,,,,,2024-06-10,1,,,,,ギブミーベジタブル,0
2367,9160001025996,新規,0,2024-06-10,2024-06-10,株式会社秀電工,,株式会社,滋賀県,大津市,大石中３丁目７番２６号,,25,201,5202263,,,,,,,2024-06-10,1,,,,,,0
2371,9180001161864,新規,0,2024-06-10,2024-06-10,株式会社ＡＮＣ,,株式会社,愛知県,春日井市,中切町１丁目７番地７号,,23,206,4860925,,,,,,,2024-06-10,1,,,,,エーエヌシー,0
2372,9180001161889,新規,0,2024-06-10,2024-06-10,さとう電気株式会社,,株式会社,愛知県,稲沢市,祖父江町大牧明田８３９番地４８,,23,220,4950014,,,,,,,2024-06-10,1,,,,,サトウデンキ,0
2375,9180003026883,新規,0,2024-06-10,2024-06-10,観自在合同会社,,合同会社,愛知県,名古屋市緑区,鹿山１丁目３８番地,,23,114,4580045,,,,,,,2024-06-10,1,,,,,カンジザイ,0
2383,9200003006370,新規,0,2024-06-10,2024-06-10,合同会社プルーム,,合同会社,岐阜県,岐阜市,幸ノ町２丁目１０グランシャリオン１０２,,21,201,5008409,,,,,,,2024-06-10,1,,,,,プルーム,0
2384,9200003006379,新規,0,2024-06-10,2024-06-10,ｗｉｓｅ合同会社,,合同会社,岐阜県,大垣市,浅草１丁目４６４番地１２,,21,202,5030947,,,,,,,2024-06-10,1,,,,,ワイズ,0
2388,9210001019786,新規,0,2024-06-10,2024-06-10,株式会社リペアード,,株式会社,福井県,敦賀市,新和町２丁目２０番６,,18,202,9140122,,,,,,,2024-06-10,1,,,,,リペアード,0
2389,9220001026047,新規,0,2024-06-10,2024-06-10,ＹＴＭデンタル株式会社,,株式会社,石川県,金沢市,弥生２丁目１６番７号,,17,201,9218036,,,,,,,2024-06-10,1,,,,,ワイティーエムデンタル,0
2390,9230001020387,新規,0,2024-06-10,2024-06-10,株式会社Ａｎｔ,,株式会社,富山県,富山市,荒川５丁目１－１４オアシス荒川１階,,16,201,9300982,,,,,,,2024-06-10,1,,,,,アント,0
2391,9230003002227,新規,0,2024-06-10,2024-06-10,合同会社エメラルドコンサルティング,,合同会社,富山県,富山市,高田５２７番地情報ビル５Ｆ,,16,201,9300866,,,,,,,2024-06-10,1,,,,,エメラルドコンサルティング,0
2392,9240001063360,新規,0,2024-06-10,2024-06-10,株式会社グレイシア,,株式会社,広島県,広島市安佐北区,口田南６丁目５番１２号,,34,106,7391733,,,,,,,2024-06-10,1,,,,,グレイシア,0
2394,9260001039160,新規,0,2024-06-10,2024-06-10,株式会社立花会計事務所,,株式会社,岡山県,岡山市北区,野田３丁目１９番７号,,33,101,7000971,,,,,,,2024-06-10,1,,,,,タチバナカイケイジムショ,0
2401,9290805009744,新規,0,2024-06-10,2024-06-10,特定非営利活動法人ＳＩＥＥＳＡ,,その他の設立登記法人,福岡県,北九州市若松区,青葉台西４丁目１８番１９号,,40,103,8080143,,,,,,,2024-06-10,1,,,,,シーサ,0
2405,9300001013771,新規,0,2024-06-10,2024-06-10,株式会社ワイテック,,株式会社,佐賀県,唐津市,和多田大土井７番３８号,,41,202,8470083,,,,,,,2024-06-10,1,,,,,ワイテック,0
2409,9320001020527,新規,0,2024-06-10,2024-06-10,株式会社塩川建設工業,,株式会社,大分県,大分市,大字葛木７０番地の１３,,44,201,8700133,,,,,,,2024-06-10,1,,,,,シオカワケンセツコウギョウ,0
2411,9340003004501,新規,0,2024-06-10,2024-06-10,合同会社ｓｉｍｐｌｅ,,合同会社,鹿児島県,鹿児島市,坂之上６丁目３番５号サンハイツ向田１０５,,46,201,8910150,,,,,,,2024-06-10,1,,,,,シンプル,0
2414,9350001018997,新規,0,2024-06-10,2024-06-10,株式会社栄伸林業,,株式会社,宮崎県,延岡市,北川町長井３９１番地,,45,203,8890102,,,,,,,2024-06-10,1,,,,,エイシンリンギョウ,0
2415,9350001019005,新規,0,2024-06-10,2024-06-10,株式会社パナシアファーマ,,株式会社,宮崎県,宮崎市,村角町灰作１４３３番地４,,45,201,8800837,,,,,,,2024-06-10,1,,,,,パナシアファーマ,0
2416,9350003004665,新規,0,2024-06-10,2024-06-10,合同会社ＡＧＲＩ　ＳＰＡＣＥ,,合同会社,宮崎県,宮崎市,淀川２丁目５番１５号,,45,201,8800907,,,,,,,2024-06-10,1,,,,,アグリスペース,0
2417,9360001033797,新規,0,2024-06-10,2024-06-10,株式会社ＲＥＡＬＩＦＥＲ,,株式会社,沖縄県,那覇市,牧志２丁目５番１４号１０３号室,,47,201,9000013,,,,,,,2024-06-10,1,,,,,リアライファー,0
2418,9360003014052,新規,0,2024-06-10,2024-06-10,合同会社ＮＳＪ,,合同会社,沖縄県,中頭郡読谷村,字比謝４８３番地,,47,324,9040311,,,,,,,2024-06-10,1,,,,,エヌエスジェイ,0
2423,9380003005784,新規,0,2024-06-10,2024-06-10,山本商店合同会社,,合同会社,福島県,郡山市,逢瀬町夏出字舘下２７番地,00135092,07,203,9630214,,,,,,,2024-06-10,1,,,,,ヤマモトショウテン,0
2434,9430001091978,新規,0,2024-06-10,2024-06-10,株式会社ＳＴＣ,,株式会社,北海道,札幌市北区,拓北二条１丁目７番２号,,01,102,0028062,,,,,,,2024-06-10,1,,,,,エスティーシー,0
2439,9700150125848,新規,0,2024-06-10,2024-06-10,ＧＲＡＰＥ　ＣＡＰＩＴＡＬ　ＰＴＥ．ＬＴＤ．,,外国会社等,,,,,,,,１　ラッフルズプレイス　＃２０－０１　ワン　ラッフルズプレイス　シンガポール　０４８６１６,,,,,,2024-06-10,1,,,,,グレープキヤピタルプライベートリミテツド,0
