sequenceNumber,corporateNumber,process,correct,updateDate,changeDate,name,nameImageId,kind,prefectureName,cityName,streetNumber,addressImageId,prefectureCode,cityCode,postCode,addressOutside,addressOutsideImageId,closeDate,closeCause,successorCorporateNumber,changeCause,assignmentDate,latest,enName,enPrefectureName,enCityName,enAddressOutside,furigana,hihyoji
31,1010501004745,登記記録の閉鎖等,0,2022-08-24,2022-08-19,三和グラフィック・アーツ株式会社,,株式会社,東京都,墨田区,文花１丁目７番７号,,13,107,1310044,,,2022-08-19,清算の結了等,,,2015-10-05,1,,,,,サンワグラフィックアーツ,0
48,1011002035271,登記記録の閉鎖等,0,2022-08-24,2022-08-04,有限会社スパツィオ,,有限会社,東京都,渋谷区,西原３丁目４７番１２号,,13,113,1510066,,,2022-08-04,清算の結了等,,,2015-10-05,1,,,,,スパツィオ,0
74,1013302019978,登記記録の閉鎖等,0,2022-08-24,2022-08-16,ライフデザインサービス有限会社,,有限会社,東京都,千代田区,九段南１丁目５－６りそな九段ビル５Ｆ、ＫＳフロア,,13,101,1020074,,,2022-08-16,清算の結了等,,,2015-10-05,1,,,,,ライフデザインサービス,0
89,1030001124505,登記記録の閉鎖等,0,2022-08-24,2022-08-22,ベジーライフ株式会社,,株式会社,東京都,新宿区,下落合１丁目８番９号菅原ビル１Ｆ,,13,104,1610033,,,2022-08-22,清算の結了等,,,2018-03-01,1,,,,,ベジーライフ,0
92,1040002049857,登記記録の閉鎖等,0,2022-08-24,2022-08-12,有限会社ホープ,,有限会社,千葉県,松戸市,五香８丁目２０番地の４,,12,207,2702213,,,2022-08-12,清算の結了等,,,2015-10-05,1,,,,,ホープ,0
108,1080405000462,登記記録の閉鎖等,0,2022-08-24,2022-08-22,日進機械協同組合,,その他の設立登記法人,静岡県,浜松市東区,有玉西町３００番地,,22,132,4313123,,,2022-08-22,清算の結了等,,,2015-10-05,1,,,,,ニッシンキカイ,0
116,1120001072538,登記記録の閉鎖等,0,2022-08-24,2022-08-22,大阪信州ハム食品株式会社,,株式会社,大阪府,大阪市生野区,巽南５丁目１４番３８号,00124447,27,116,5440015,,,2022-08-22,清算の結了等,,,2015-10-05,1,,,,,オオサカシンシュウハムショクヒン,0
138,1140001029981,登記記録の閉鎖等,0,2022-08-24,2022-08-22,株式会社祥隆貿易,,株式会社,兵庫県,神戸市須磨区,多井畑東町２６番地の９,,28,107,6540134,,,2022-08-22,清算の結了等,,,2015-10-05,1,,,,,ショウリュウボウエキ,0
157,1180002046477,登記記録の閉鎖等,0,2022-08-24,2022-08-22,有限会社東海ルブコン,,有限会社,愛知県,名古屋市南区,要町２丁目１５番地の１,,23,112,4570802,,,2022-08-22,清算の結了等,,,2015-10-05,1,,,,,トウカイルブコン,0
160,1190002020621,登記記録の閉鎖等,0,2022-08-24,2022-08-19,有限会社スコール,,有限会社,三重県,三重郡朝日町,大字縄生２１１１番地の１,,24,343,5108101,,,2022-08-19,清算の結了等,,,2015-10-05,1,,,,,スコール,0
161,1210003000859,登記記録の閉鎖等,0,2022-08-24,2022-08-22,合同会社Ｍｉｓｏｍｉ牧場,,合同会社,福井県,三方上中郡若狭町,倉見第１号３０番地,,18,501,9191323,,,2022-08-22,清算の結了等,,,2015-10-05,1,,,,,,0
186,1330002021464,登記記録の閉鎖等,0,2022-08-24,2022-08-17,有限会社百貨のにしむら,,有限会社,熊本県,玉名市,岱明町鍋６７９番地の１２,,43,206,8690211,,,2022-08-17,清算の結了等,,,2015-10-05,1,,,,,ヒャッカノニシムラ,0
192,1360002007997,登記記録の閉鎖等,0,2022-08-24,2022-08-16,プレーズ有限会社,,有限会社,沖縄県,那覇市,安謝１丁目２２番１７号苺ビル,,47,201,9000003,,,2022-08-16,清算の結了等,,,2015-10-05,1,,,,,,0
207,1460001005397,登記記録の閉鎖等,0,2022-08-24,2022-08-19,株式会社真志,,株式会社,北海道,釧路市,鶴野東４丁目１８番８号,,01,206,0840923,,,2022-08-19,清算の結了等,,,2019-10-18,1,,,,,シンシ,0
219,2010001150048,登記記録の閉鎖等,0,2022-08-24,2022-08-15,株式会社ＳＹＴ,,株式会社,東京都,文京区,千駄木５丁目１８番４－１２０２号,,13,105,1130022,,,2022-08-15,清算の結了等,,,2015-10-05,1,,,,,エスワイティー,0
236,2010003026386,登記記録の閉鎖等,0,2022-08-24,2022-08-16,合同会社ｅ,,合同会社,東京都,中央区,東日本橋２丁目２８番４号,,13,102,1030004,,,2022-08-16,清算の結了等,,,2017-11-06,1,,,,,イー,0
251,2010403022737,登記記録の閉鎖等,0,2022-08-24,2022-08-17,常磐橋合同会社,,合同会社,千葉県,船橋市,松が丘２丁目１２番１１号,,12,204,2740064,,,2022-08-17,清算の結了等,,,2020-03-30,1,,,,,トキワバシ,0
280,2011501016928,登記記録の閉鎖等,0,2022-08-24,2022-08-18,株式会社トーホー,,株式会社,東京都,荒川区,西尾久８丁目４２番８号,,13,118,1160011,,,2022-08-18,清算の結了等,,,2015-10-05,1,,,,,トーホー,0
288,2012702005950,登記記録の閉鎖等,0,2022-08-24,2022-08-23,有限会社マジックハウス,,有限会社,東京都,西東京市,谷戸町３丁目２７番２４号,,13,229,1880001,,,2022-08-23,清算の結了等,,,2015-10-05,1,,,,,マジックハウス,0
295,2020001076291,登記記録の閉鎖等,0,2022-08-24,2022-08-18,株式会社Ｓ．Ｅ．Ｐ,,株式会社,神奈川県,川崎市幸区,小倉５丁目５番２１号,,14,132,2120054,,,2022-08-18,清算の結了等,,,2015-10-05,1,,,,,エスイーピー,0
305,2021002050979,登記記録の閉鎖等,0,2022-08-24,2022-08-19,有限会社伊勢万,,有限会社,神奈川県,小田原市,扇町２丁目２８番１５号,,14,206,2500001,,,2022-08-19,清算の結了等,,,2015-10-05,1,,,,,イセマン,0
308,2021003007846,登記記録の閉鎖等,0,2022-08-24,2022-08-22,合同会社あつまり,,合同会社,神奈川県,藤沢市,大鋸１丁目１４番２０号,,14,205,2510002,,,2022-08-22,清算の結了等,,,2018-10-12,1,,,,,アツマリ,0
313,2030001135798,登記記録の閉鎖等,0,2022-08-24,2022-08-12,株式会社駒林電機,,株式会社,埼玉県,比企郡川島町,大字表３０７番地１０,,11,346,3500133,,,2022-08-12,清算の結了等,,,2020-03-27,1,,,,,コマバヤシデンキ,0
326,2040002086445,登記記録の閉鎖等,0,2022-08-24,2022-08-05,野本運輸有限会社,,有限会社,千葉県,山武郡横芝光町,取立１０３番地,,12,410,2891753,,,2022-08-05,清算の結了等,,,2015-10-05,1,,,,,ノモトウンユ,0
328,2040005017645,登記記録の閉鎖等,0,2022-08-24,2022-08-02,特定非営利活動法人外房ことばの会,,その他の設立登記法人,千葉県,長生郡一宮町,東野７番地６,,12,421,2994306,,,2022-08-02,清算の結了等,,,2015-10-05,1,,,,,ソトボウコトバノカイ,0
336,2060002022084,登記記録の閉鎖等,0,2022-08-24,2022-08-18,有限会社菊一,,有限会社,栃木県,那須塩原市,住吉町６番２８号,,09,213,3250062,,,2022-08-18,清算の結了等,,,2015-10-05,1,,,,,キクイチ,0
376,2140001057362,登記記録の閉鎖等,0,2022-08-24,2022-08-19,カナリアＭＳ株式会社,,株式会社,兵庫県,明石市,大久保町ゆりのき通２丁目３番地の５、３－３０６号,,28,203,6740068,,,2022-08-19,清算の結了等,,,2015-10-05,1,,,,,カナリアエムエス,0
403,2240002018031,登記記録の閉鎖等,0,2022-08-24,2022-08-22,有限会社脇坂組,,有限会社,広島県,広島市南区,丹那新町２１番１号,,34,103,7340033,,,2022-08-22,清算の結了等,,,2015-10-05,1,,,,,ワキサカグミ,0
413,2290001033893,登記記録の閉鎖等,0,2022-08-24,2022-08-16,株式会社ｓ．ｓ．Ｆｉｖｅ,,株式会社,福岡県,福岡市博多区,博多駅前３丁目９番５号,,40,132,8120011,,,2022-08-16,清算の結了等,,,2015-10-05,1,,,,,エスエスファイブ,0
424,2290802018928,登記記録の閉鎖等,0,2022-08-24,2022-08-22,有限会社協和設計事務所,,有限会社,福岡県,北九州市若松区,中畑町２０番３６号,,40,103,8080047,,,2022-08-22,清算の結了等,,,2015-10-05,1,,,,,キョウワセッケイジムショ,0
451,2440002000274,登記記録の閉鎖等,0,2022-08-24,2022-08-22,有限会社石島,,有限会社,北海道,函館市,美原１丁目４０番１０号,,01,202,0410806,,,2022-08-22,清算の結了等,,,2015-10-05,1,,,,,イシジマ,0
452,2460002002418,登記記録の閉鎖等,0,2022-08-24,2022-08-22,有限会社平山板金,,有限会社,北海道,釧路市,星が浦大通１丁目８番７号,,01,206,0840912,,,2022-08-22,清算の結了等,,,2020-06-15,1,,,,,ヒラヤマバンキン,0
476,3010401081288,登記記録の閉鎖等,0,2022-08-24,2022-08-01,株式会社トリガーワークス,,株式会社,東京都,港区,芝大門２丁目１１番１６号,,13,103,1050012,,,2022-08-01,合併による解散等,6010401089519,令和４年８月１日東京都港区芝大門二丁目１１番１６号株式会社ドライブコミュニケーションズ（6010401089519）に合併し解散,2015-10-05,1,,,,,トリガーワークス,0
523,3012802001634,登記記録の閉鎖等,0,2022-08-24,2022-08-22,有限会社東開商事,,有限会社,東京都,立川市,羽衣町２丁目１番３０号,,13,202,1900021,,,2022-08-22,清算の結了等,,,2015-10-05,1,,,,,トウカイショウジ,0
529,3020001048265,登記記録の閉鎖等,0,2022-08-24,2022-08-17,株式会社メイクオフィス,,株式会社,神奈川県,横浜市西区,平沼１丁目３８番２１号,,14,103,2200023,,,2022-08-17,清算の結了等,,,2015-10-05,1,,,,,メイクオフィス,0
532,3020001127861,登記記録の閉鎖等,0,2022-08-24,2022-08-09,株式会社オーティーサーベイ,,株式会社,神奈川県,横浜市港北区,新横浜２丁目１４番４号,,14,109,2220033,,,2022-08-09,清算の結了等,,,2018-09-10,1,,,,,オーティーサーベイ,0
535,3020003015115,登記記録の閉鎖等,0,2022-08-24,2022-08-17,ＫＣ合同会社,,合同会社,神奈川県,横浜市神奈川区,三ツ沢中町１８番１６号,,14,102,2210851,,,2022-08-17,清算の結了等,,,2018-10-30,1,,,,,ケーシー,0
554,3030002018134,登記記録の閉鎖等,0,2022-08-24,2022-08-12,有限会社サンエイ,,有限会社,埼玉県,さいたま市大宮区,三橋２丁目４１０番地５,,11,103,3300856,,,2022-08-12,清算の結了等,,,2015-10-05,1,,,,,サンエイ,0
571,3060001026168,登記記録の閉鎖等,0,2022-08-24,2022-08-18,株式会社ＳＳＳ,,株式会社,栃木県,宇都宮市,清原台６丁目３２番５号フォレスト１－１０５,,09,201,3213223,,,2022-08-18,清算の結了等,,,2015-10-05,1,,,,,エスエスエス,0
573,3070002002407,登記記録の閉鎖等,0,2022-08-24,2022-08-10,有限会社サン厨房,,有限会社,群馬県,前橋市,富士見町原之郷１６０７番地,,10,201,3710116,,,2022-08-10,清算の結了等,,,2015-10-05,1,,,,,サンチュウボウ,0
577,3080101009491,登記記録の閉鎖等,0,2022-08-24,2022-08-22,富士電友株式会社,,株式会社,静岡県,富士市,浅間本町２番１４号,,22,210,4170073,,,2022-08-22,清算の結了等,,,2015-10-05,1,,,,,フジデンユウ,0
585,3110001003277,登記記録の閉鎖等,0,2022-08-24,2022-08-22,株式会社中央観光,,株式会社,新潟県,新潟市中央区,旭町通１番町９６番地甲２,,15,103,9518122,,,2022-08-22,清算の結了等,,,2015-10-05,1,,,,,チュウオウカンコウ,0
628,3180002025867,登記記録の閉鎖等,0,2022-08-24,2022-08-22,有限会社ジヨアン,,有限会社,愛知県,名古屋市緑区,滝ノ水１丁目６０７番地,,23,114,4580021,,,2022-08-22,清算の結了等,,,2015-10-05,1,,,,,ジヨアン,0
649,3290003005196,登記記録の閉鎖等,0,2022-08-24,2022-08-17,２－ＮＥＴ　ＦＵＫＵＯＫＡ合同会社,,合同会社,福岡県,糟屋郡久山町,大字久原２６０８番地１,,40,348,8112501,,,2022-08-17,清算の結了等,,,2015-10-05,1,,,,,ツーネットフクオカ,0
659,3340002013541,登記記録の閉鎖等,0,2022-08-24,2022-08-22,有限会社川原サンホーム,,有限会社,鹿児島県,霧島市,隼人町東郷１０１０番地,,46,218,8995115,,,2022-08-22,清算の結了等,,,2015-10-05,1,,,,,サンホーム,0
673,3430001070302,登記記録の閉鎖等,0,2022-08-24,2022-08-22,株式会社Ｍｉｔｓｕｈａ,,株式会社,北海道,札幌市東区,東苗穂八条３丁目３番２４号,,01,103,0070808,,,2022-08-22,清算の結了等,,,2015-11-19,1,,,,,ミツハ,0
674,3430001080152,登記記録の閉鎖等,0,2022-08-24,2022-08-09,株式会社ニセコアドサイン,,株式会社,北海道,虻田郡倶知安町,字樺山１３４番地３２,,01,400,0440078,,,2022-08-09,清算の結了等,,,2019-10-31,1,,,,,ニセコアドサイン,0
737,4011105008709,登記記録の閉鎖等,0,2022-08-24,2022-08-22,一般社団法人陰陽道,,その他の設立登記法人,東京都,新宿区,新宿６丁目７番１号エルプリメント５５４,,13,104,1600022,,,2022-08-22,清算の結了等,,,2019-03-05,1,,,,,オンミョウドウ,0
739,4011203002290,登記記録の閉鎖等,0,2022-08-24,2022-08-16,合同会社ｔ,,合同会社,東京都,中央区,銀座１丁目２２番１１号銀座大竹ビジデンス２階,,13,102,1040061,,,2022-08-16,清算の結了等,,,2016-01-25,1,,,,,ティ,0
745,4011802004613,登記記録の閉鎖等,0,2022-08-24,2022-08-22,有限会社大裕,,有限会社,東京都,葛飾区,南水元２丁目２６番７号,,13,122,1250035,,,2022-08-22,清算の結了等,,,2015-10-05,1,,,,,ダイユウ,0
746,4012302007528,登記記録の閉鎖等,0,2022-08-24,2022-08-23,有限会社サンワ調味,,有限会社,東京都,町田市,真光寺２丁目７番地８,,13,209,1950057,,,2022-08-23,清算の結了等,,,2015-10-05,1,,,,,サンワチョウミ,0
750,4013102006117,登記記録の閉鎖等,0,2022-08-24,2022-08-22,有限会社サントラスト,,有限会社,東京都,青梅市,師岡町４丁目７番地３９,,13,205,1980031,,,2022-08-22,清算の結了等,,,2015-10-05,1,,,,,サントラスト,0
760,4020001027680,登記記録の閉鎖等,0,2022-08-24,2022-08-17,株式会社アッティモ,,株式会社,神奈川県,横浜市西区,みなとみらい１丁目１番１号,,14,103,2200012,,,2022-08-17,清算の結了等,,,2015-10-05,1,,,,,アッティモ,0
767,4020001103911,登記記録の閉鎖等,0,2022-08-24,2022-08-17,株式会社花芳商店,,株式会社,神奈川県,川崎市川崎区,東田町８番地パレール６１３,,14,131,2100005,,,2022-08-17,清算の結了等,,,2015-10-05,1,,,,,ハナヨシショウテン,0
784,4030002083986,登記記録の閉鎖等,0,2022-08-24,2022-08-12,新光科学有限会社,,有限会社,埼玉県,鴻巣市,生出塚１丁目１７番８号,,11,217,3650033,,,2022-08-12,清算の結了等,,,2015-10-05,1,,,,,シンコウカガク,0
787,4040001055242,登記記録の閉鎖等,0,2022-08-24,2022-08-17,株式会社ニュータカザワ,,株式会社,千葉県,市原市,姉崎７００番地１,,12,219,2990111,,,2022-08-17,清算の結了等,,,2015-10-05,1,,,,,ニュータカザワ,0
792,4060002030878,登記記録の閉鎖等,0,2022-08-24,2022-08-18,有限会社せきぐち,,有限会社,栃木県,下野市,小金井６丁目２番地１０,,09,216,3290414,,,2022-08-18,清算の結了等,,,2015-10-05,1,,,,,セキグチ,0
798,4070002015903,登記記録の閉鎖等,0,2022-08-24,2022-08-15,有限会社しらねエース,,有限会社,群馬県,安中市,秋間みのりが丘５番地１１,,10,211,3790109,,,2022-08-15,清算の結了等,,,2015-10-05,1,,,,,シラネエース,0
802,4080401000455,登記記録の閉鎖等,0,2022-08-24,2022-08-22,イソベ木工株式会社,,株式会社,静岡県,浜松市中区,曳馬６丁目２４－５５エルミタージュ１０２,,22,131,4300901,,,2022-08-22,清算の結了等,,,2015-10-05,1,,,,,イソベモッコウ,0
811,4120001014000,登記記録の閉鎖等,0,2022-08-24,2022-08-23,永田バネ株式会社,,株式会社,大阪府,大阪市東成区,深江南２丁目４番１２号,,27,115,5370002,,,2022-08-23,清算の結了等,,,2015-10-05,1,,,,,ナガタバネ,0
816,4120001207454,登記記録の閉鎖等,0,2022-08-24,2022-08-22,株式会社アドバンス,,株式会社,大阪府,大阪市中央区,伏見町４丁目４番９号,,27,128,5410044,,,2022-08-22,清算の結了等,,,2017-08-18,1,,,,,アドバンス,0
825,4120101034542,登記記録の閉鎖等,0,2022-08-24,2022-08-22,株式会社クサノ製作所,,株式会社,大阪府,南河内郡太子町,大字太子２３８８－１,,27,381,5830995,,,2022-08-22,清算の結了等,,,2015-10-05,1,,,,,クサノセイサクショ,0
827,4120102016647,登記記録の閉鎖等,0,2022-08-24,2022-08-22,有限会社エムズサンクス,,有限会社,大阪府,富田林市,津々山台３丁目１３番１８号,,27,214,5840086,,,2022-08-22,清算の結了等,,,2015-10-05,1,,,,,エムズサンクス,0
846,4140001038914,登記記録の閉鎖等,0,2022-08-24,2022-08-19,株式会社三木商店,,株式会社,兵庫県,たつの市,御津町苅屋４５１番地１０,,28,229,6711321,,,2022-08-19,清算の結了等,,,2015-10-05,1,,,,,ミキショウテン,0
850,4140001115110,登記記録の閉鎖等,0,2022-08-24,2022-08-19,振興鍛造株式会社,,株式会社,兵庫県,高砂市,梅井５丁目２番７号,,28,216,6760074,,,2022-08-19,清算の結了等,,,2019-10-09,1,,,,,シンコウタンゾウ,0
859,4160002005060,登記記録の閉鎖等,0,2022-08-24,2022-08-22,有限会社アトラム,,有限会社,滋賀県,湖南市,三雲２７２番地の１,,25,211,5203221,,,2022-08-22,清算の結了等,,,2015-10-05,1,,,,,アトラム,0
871,4190001019083,登記記録の閉鎖等,0,2022-08-24,2022-08-16,株式会社グロースライフスズカ,,株式会社,愛知県,名古屋市中区,錦１丁目７番３４号,,23,106,4600003,,,2022-08-16,合併による解散等,3011101059186,令和４年７月２９日東京都千代田区神田三崎町三丁目６番５号株式会社グロースライフ（3011101059186）に合併し解散,2015-10-05,1,,,,,グロースライフスズカ,0
877,4220001015566,登記記録の閉鎖等,0,2022-08-24,2022-08-22,株式会社和倉屋金物店,,株式会社,石川県,七尾市,生駒町１９番地,,17,202,9260804,,,2022-08-22,清算の結了等,,,2015-10-05,1,,,,,ワクラヤカナモノテン,0
887,4260002014217,登記記録の閉鎖等,0,2022-08-24,2022-08-24,オフィスＲＳ有限会社,,有限会社,岡山県,岡山市北区,津島福居２丁目１２番１－３号,,33,101,7000080,,,2022-08-24,清算の結了等,,,2015-10-05,1,,,,,オフィスアールエス,0
898,4290003008322,登記記録の閉鎖等,0,2022-08-24,2022-08-18,合同会社九州サービス,,合同会社,福岡県,福岡市早良区,田村４丁目２－１３－５０７,,40,137,8140175,,,2022-08-18,清算の結了等,,,2018-08-24,1,,,,,キュウシュウサービス,0
926,4400002007180,登記記録の閉鎖等,0,2022-08-24,2022-08-22,有限会社マルイ,,有限会社,岩手県,紫波郡紫波町,桜町字下川原４番地１６,,03,321,0283307,,,2022-08-22,清算の結了等,,,2015-10-05,1,,,,,マルイ,0
940,5010001033992,登記記録の閉鎖等,0,2022-08-24,2022-08-05,株式会社東京アニメーター学院,,株式会社,東京都,千代田区,西神田１丁目３番１号,,13,101,1010065,,,2022-08-05,合併による解散等,3010001012908,令和４年８月５日東京都千代田区西神田一丁目２番１０号大原出版株式会社（3010001012908）に合併し解散,2015-10-05,1,,,,,トウキョウアニメーターガクイン,0
944,5010001190727,登記記録の閉鎖等,0,2022-08-24,2022-08-05,株式会社ＮＰ,,株式会社,東京都,渋谷区,渋谷２丁目１０番１５号,,13,113,1500002,,,2022-08-05,清算の結了等,,,2018-04-02,1,,,,,エヌピー,0
945,5010001197490,登記記録の閉鎖等,0,2022-08-24,2022-08-12,株式会社Ｕ－Ｒｉｚｍ,,株式会社,東京都,文京区,弥生２丁目４番１６号,,13,105,1130032,,,2022-08-12,清算の結了等,,,2019-01-08,1,,,,,ユーリズム,0
976,5011101052610,登記記録の閉鎖等,0,2022-08-24,2022-08-22,株式会社アイキューブ,,株式会社,東京都,新宿区,北新宿４丁目３番４号,,13,104,1690074,,,2022-08-22,清算の結了等,,,2015-10-05,1,,,,,アイキューブ,0
979,5011102012126,登記記録の閉鎖等,0,2022-08-24,2022-08-22,有限会社松山,,有限会社,東京都,新宿区,中落合１丁目９番１号,,13,104,1610032,,,2022-08-22,清算の結了等,,,2015-10-05,1,,,,,マツヤマ,0
1014,5020001047661,登記記録の閉鎖等,0,2022-08-24,2022-08-17,リプロスペース株式会社,,株式会社,神奈川県,横浜市中区,小港町１丁目１番地２,,14,104,2310802,,,2022-08-17,清算の結了等,,,2015-10-05,1,,,,,リプロスペース,0
1028,5020002076750,登記記録の閉鎖等,0,2022-08-24,2022-08-22,有限会社イージーマーケティング,,有限会社,神奈川県,逗子市,新宿３丁目９番７号唐沢ハウス１０２号室,,14,208,2490007,,,2022-08-22,清算の結了等,,,2015-10-05,1,,,,,イージーマーケティング,0
1034,5021001037561,登記記録の閉鎖等,0,2022-08-24,2022-08-22,株式会社ミクニ工業所,,株式会社,神奈川県,中郡大磯町,国府新宿１６９番地３,,14,341,2590112,,,2022-08-22,清算の結了等,,,2015-10-05,1,,,,,ミクニコウギョウショ,0
1038,5030001094125,登記記録の閉鎖等,0,2022-08-24,2022-08-09,株式会社ｂ－ＷＥＳＴ,,株式会社,埼玉県,所沢市,大字下富１０４３－１２４,,11,208,3590001,,,2022-08-09,清算の結了等,,,2015-10-05,1,,,,,ビーウエスト,0
1047,5040002097316,登記記録の閉鎖等,0,2022-08-24,2022-08-12,有限会社戸辺工務所,,有限会社,千葉県,野田市,岩名１０８０番地,,12,208,2780055,,,2022-08-12,清算の結了等,,,2015-10-05,1,,,,,トベコウムショ,0
1048,5040003012653,登記記録の閉鎖等,0,2022-08-24,2022-07-29,ＲＥＰＬＡＮＮＩＮＧ合同会社,,合同会社,千葉県,船橋市,芝山４丁目１７番２０－２０２号,,12,204,2740816,,,2022-07-29,清算の結了等,,,2018-12-26,1,,,,,アールイープランニング,0
1052,5060001007942,登記記録の閉鎖等,0,2022-08-24,2022-08-18,株式会社セカンドライン,,株式会社,栃木県,宇都宮市,池上町１番１号中央ビル３Ｆ,,09,201,3200801,,,2022-08-18,清算の結了等,,,2015-10-05,1,,,,,,0
1102,5140001126008,登記記録の閉鎖等,0,2022-08-24,2022-08-22,株式会社ＹＢ,,株式会社,兵庫県,尼崎市,大庄西町４丁目３番１－２０２号,,28,202,6600077,,,2022-08-22,清算の結了等,,,2022-05-16,1,,,,,ワイビー,0
1106,5150002007817,登記記録の閉鎖等,0,2022-08-24,2022-08-19,有限会社好崎興業,,有限会社,奈良県,橿原市,兵部町８－８,,29,205,6340076,,,2022-08-19,清算の結了等,,,2015-10-05,1,,,,,ヨシザキコウギョウ,0
1113,5180002029214,登記記録の閉鎖等,0,2022-08-24,2022-08-22,有限会社ミヤモト,,有限会社,愛知県,名古屋市中村区,大正町２丁目２９番地の４,,23,105,4530806,,,2022-08-22,清算の結了等,,,2015-10-05,1,,,,,ミヤモト,0
1114,5180002043710,登記記録の閉鎖等,0,2022-08-24,2022-08-19,有限会社ダルクス,,有限会社,愛知県,名古屋市南区,三吉町６丁目２番地,,23,112,4570805,,,2022-08-19,清算の結了等,,,2015-10-05,1,,,,,ダルクス,0
1115,5180003007747,登記記録の閉鎖等,0,2022-08-24,2022-08-22,合資会社太陽荘,,合資会社,愛知県,名古屋市北区,東大杉町４丁目３８番地,,23,103,4620826,,,2022-08-22,清算の結了等,,,2015-10-05,1,,,,,タイヨウソウ,0
1118,5200001020476,登記記録の閉鎖等,0,2022-08-24,2022-08-18,株式会社イオリ,,株式会社,岐阜県,多治見市,滝呂町３丁目４１番地,,21,204,5070813,,,2022-08-18,清算の結了等,,,2015-10-05,1,,,,,イオリ,0
1123,5230001005788,登記記録の閉鎖等,0,2022-08-24,2022-08-22,株式会社ポラリス,,株式会社,富山県,富山市,中川原２８５番地４,,16,201,9398015,,,2022-08-22,清算の結了等,,,2015-10-05,1,,,,,ポラリス,0
1125,5230001012553,登記記録の閉鎖等,0,2022-08-24,2022-08-22,丸八木材株式会社,,株式会社,富山県,射水市,津幡江７０９番地の１,,16,211,9340038,,,2022-08-22,清算の結了等,,,2015-10-05,1,,,,,マルハチモクザイ,0
1129,5240001031882,登記記録の閉鎖等,0,2022-08-24,2022-08-22,福永エンジニアリング株式会社,,株式会社,広島県,福山市,大門町野々浜１３４４番地,,34,207,7210923,,,2022-08-22,清算の結了等,,,2015-10-05,1,,,,,フクナガエンジニアリング,0
1132,5240002035247,登記記録の閉鎖等,0,2022-08-24,2022-08-15,有限会社伊東企画,,有限会社,広島県,呉市,宮原１２丁目６番３２号,,34,202,7370024,,,2022-08-15,清算の結了等,,,2015-10-05,1,,,,,イトウキカク,0
1135,5250001006215,登記記録の閉鎖等,0,2022-08-24,2022-08-19,株式会社ヒロコーポレーション,,株式会社,山口県,下関市,大字内日上２０９１番地,,35,201,7500252,,,2022-08-19,清算の結了等,,,2015-10-05,1,,,,,ヒロコーポレーション,0
1144,5280001005016,登記記録の閉鎖等,0,2022-08-24,2022-08-22,株式会社サンヨー電機商会,,株式会社,島根県,益田市,あけぼの西町９番地１１,,32,204,6980025,,,2022-08-22,清算の結了等,,,2015-10-05,1,,,,,サンヨーデンキショウカイ,0
1170,5390002000517,登記記録の閉鎖等,0,2022-08-24,2022-08-17,有限会社小川商事,,有限会社,山形県,山形市,小白川町３丁目４番６号,,06,201,9900021,,,2022-08-17,清算の結了等,,,2015-10-05,1,,,,,オガワショウジ,0
1189,5480002016108,登記記録の閉鎖等,0,2022-08-24,2022-08-23,有限会社まなべコンシェル,,有限会社,徳島県,三好郡東みよし町,足代２８３７番地１,,36,489,7712502,,,2022-08-23,清算の結了等,,,2015-10-05,1,,,,,マナベコンシェル,0
1208,6010101002186,登記記録の閉鎖等,0,2022-08-24,2022-08-23,株式会社大正堂,,株式会社,東京都,八王子市,上野町５０番地,,13,201,1920902,,,2022-08-23,清算の結了等,,,2015-10-05,1,,,,,タイショウドウ,0
1224,6010405008581,登記記録の閉鎖等,0,2022-08-24,2022-08-16,特定非営利活動法人日本個人・医療情報管理協会,,その他の設立登記法人,東京都,文京区,本郷２丁目３番１５号元町館２階,,13,105,1130033,,,2022-08-16,清算の結了等,,,2015-10-05,1,,,,,ニホンコジンイリョウジョウホウカンリキョウカイ,0
1228,6010702005125,登記記録の閉鎖等,0,2022-08-24,2022-08-19,有限会社辰巳プレス,,有限会社,東京都,品川区,広町１丁目３番２２号,,13,109,1400005,,,2022-08-19,清算の結了等,,,2015-10-05,1,,,,,タツミプレス,0
1261,6013102006750,登記記録の閉鎖等,0,2022-08-24,2022-08-22,有限会社ホープハイクラス,,有限会社,東京都,青梅市,河辺町８丁目２番地の１１,,13,205,1980036,,,2022-08-22,清算の結了等,,,2015-10-05,1,,,,,ホープハイクラス,0
1265,6020002028379,登記記録の閉鎖等,0,2022-08-24,2022-08-18,有限会社門前福田組,,有限会社,神奈川県,横浜市神奈川区,幸ケ谷１７番地の６,,14,102,2210051,,,2022-08-18,清算の結了等,,,2015-10-05,1,,,,,モンゼンフクダグミ,0
1273,6021003011217,登記記録の閉鎖等,0,2022-08-24,2022-08-19,合同会社ｗａｂｉｓａｂｉ,,合同会社,神奈川県,藤沢市,大庭５４４０番地の１フォレスコート１０２号室,,14,205,2510861,,,2022-08-19,清算の結了等,,,2021-12-27,1,,,,,ワビサビ,0
1277,6030005017485,登記記録の閉鎖等,0,2022-08-24,2022-08-12,一般社団法人日本ものつくり学会,,その他の設立登記法人,埼玉県,鴻巣市,ひばり野２丁目２番１１号,,11,217,3650031,,,2022-08-12,清算の結了等,,,2015-10-05,1,,,,,ニホンモノツクリガッカイ,0
1281,6040001109987,登記記録の閉鎖等,0,2022-08-24,2022-08-17,株式会社ＳＫＲ,,株式会社,千葉県,市原市,ちはら台東１丁目２５番地８６,,12,219,2900141,,,2022-08-17,清算の結了等,,,2019-07-17,1,,,,,エスケーアール,0
1283,6040002034581,登記記録の閉鎖等,0,2022-08-24,2022-08-17,有限会社昭和,,有限会社,千葉県,市川市,稲越１丁目１０番１５号,,12,203,2720831,,,2022-08-17,清算の結了等,,,2015-10-05,1,,,,,ショウワ,0
1284,6040002056948,登記記録の閉鎖等,0,2022-08-24,2022-08-15,有限会社石橋薬局,,有限会社,千葉県,白井市,富塚１０４７番地１,,12,232,2701405,,,2022-08-15,清算の結了等,,,2015-10-05,1,,,,,イシバシヤッキョク,0
1296,6070001022980,登記記録の閉鎖等,0,2022-08-24,2022-08-12,株式会社対馬屋,,株式会社,群馬県,沼田市,中町甲１１３４番地,,10,206,3780048,,,2022-08-12,清算の結了等,,,2015-10-05,1,,,,,ツシマヤ,0
1315,6120001129184,登記記録の閉鎖等,0,2022-08-24,2022-08-19,株式会社シティーライト,,株式会社,大阪府,大阪市平野区,加美正覚寺１丁目１８番９号,,27,126,5470006,,,2022-08-19,清算の結了等,,,2015-10-05,1,,,,,,0
1320,6120002054646,登記記録の閉鎖等,0,2022-08-24,2022-08-22,有限会社裕幸商会,,有限会社,大阪府,大阪市生野区,桃谷２丁目２４番３２－８０２号,,27,116,5440034,,,2022-08-22,清算の結了等,,,2015-10-05,1,,,,,ユウコウショウカイ,0
1331,6130001023171,登記記録の閉鎖等,0,2022-08-24,2022-08-19,レーコ美容室株式会社,,株式会社,京都府,京都市東山区,大和大路通三条下る２丁目新五軒町１８１番地Ｃａｂｉｎ三条ＡＱＵＡ（Ｓ１０１号室）,,26,105,6050006,,,2022-08-19,清算の結了等,,,2015-10-05,1,,,,,レーコビヨウシツ,0
1369,6290001030375,登記記録の閉鎖等,0,2022-08-24,2022-08-17,株式会社オリエント保険サービス,,株式会社,福岡県,福岡市中央区,笹丘１丁目１８番１号,,40,133,8100034,,,2022-08-17,清算の結了等,,,2015-10-05,1,,,,,オリエントホケンサービス,0
1390,6340002015238,登記記録の閉鎖等,0,2022-08-24,2022-08-22,有限会社有村石油,,有限会社,鹿児島県,霧島市,福山町福山４８５９番地２,,46,218,8994501,,,2022-08-22,清算の結了等,,,2015-10-05,1,,,,,アリムラセキユ,0
1408,6430002046001,登記記録の閉鎖等,0,2022-08-24,2022-08-10,有限会社フクヤ管財,,有限会社,北海道,江別市,大麻２４７番地１,,01,217,0690845,,,2022-08-10,清算の結了等,,,2015-10-05,1,,,,,フクヤカンザイ,0
1416,6500002005453,登記記録の閉鎖等,0,2022-08-24,2022-08-24,有限会社ビアン,,有限会社,愛媛県,松山市,鷹子町１０９４番地１,,38,201,7900925,,,2022-08-24,清算の結了等,,,2015-10-05,1,,,,,,0
1419,7010001085487,登記記録の閉鎖等,0,2022-08-24,2022-08-17,株式会社日本サルコン,,株式会社,東京都,千代田区,紀尾井町３番６号,,13,101,1020094,,,2022-08-17,清算の結了等,,,2015-10-05,1,,,,,ニホンサルコン,0
1424,7010001168143,登記記録の閉鎖等,0,2022-08-24,2022-08-16,株式会社ＲＢＰ,,株式会社,東京都,文京区,本郷２丁目２７番１６号大学通信教育ビル５階,,13,105,1130033,,,2022-08-16,清算の結了等,,,2015-10-05,1,,,,,アールビーピー,0
1447,7010501010622,登記記録の閉鎖等,0,2022-08-24,2022-08-23,橋本塗料株式会社,,株式会社,東京都,台東区,清川１丁目１８番６号,,13,106,1110022,,,2022-08-23,清算の結了等,,,2015-10-05,1,,,,,ハシモトトリョウ,0
1479,7013101005975,登記記録の閉鎖等,0,2022-08-24,2022-08-22,東秋運輸株式会社,,株式会社,東京都,あきる野市,草花２０６４番地,,13,228,1970802,,,2022-08-22,清算の結了等,,,2015-10-05,1,,,,,,0
1487,7020001064036,登記記録の閉鎖等,0,2022-08-24,2022-08-17,株式会社ケン不動産,,株式会社,神奈川県,川崎市多摩区,枡形４丁目３番８号,,14,135,2140032,,,2022-08-17,清算の結了等,,,2015-10-05,1,,,,,,0
1501,7021001027503,登記記録の閉鎖等,0,2022-08-24,2022-08-19,株式会社東阪,,株式会社,神奈川県,綾瀬市,綾西１丁目３番３号,,14,218,2521126,,,2022-08-19,清算の結了等,,,2015-10-05,1,,,,,トウハン,0
1503,7021001056857,登記記録の閉鎖等,0,2022-08-24,2022-08-22,七星株式会社,,株式会社,神奈川県,相模原市南区,新戸５２５７番地,,14,153,2520326,,,2022-08-22,清算の結了等,,,2015-10-05,1,,,,,ナナホシ,0
1525,7040003003337,登記記録の閉鎖等,0,2022-08-24,2022-08-12,合資会社多古文化劇場,,合資会社,千葉県,香取郡多古町,多古２６０４番地,,12,347,2892241,,,2022-08-12,清算の結了等,,,2015-10-05,1,,,,,タコブンカゲキジョウ,0
1530,7060002032780,登記記録の閉鎖等,0,2022-08-24,2022-08-18,有限会社ユザワ,,有限会社,栃木県,栃木市,昭和町４番１８号,,09,203,3280013,,,2022-08-18,清算の結了等,,,2015-10-05,1,,,,,ユザワ,0
1581,7180001047017,登記記録の閉鎖等,0,2022-08-24,2022-08-18,株式会社シェアクラフト,,株式会社,愛知県,名古屋市中村区,名駅南１丁目１９番１３号ＡＥビル９Ｆ,,23,105,4500003,,,2022-08-18,清算の結了等,,,2015-10-05,1,,,,,シェアクラフト,0
1585,7190001009164,登記記録の閉鎖等,0,2022-08-24,2022-08-18,株式会社ブレーン・コーポレーション,,株式会社,栃木県,宇都宮市,平出町３７２９番地１,,09,201,3210901,,,2022-08-18,清算の結了等,,,2015-10-05,1,,,,,ブレーンコーポレーション,0
1612,7290001069272,登記記録の閉鎖等,0,2022-08-24,2022-08-18,みらい農産株式会社,,株式会社,福岡県,福岡市西区,今宿東１丁目１９番２７－３０４号,,40,135,8190161,,,2022-08-18,清算の結了等,,,2015-10-05,1,,,,,,0
1617,7290002001903,登記記録の閉鎖等,0,2022-08-24,2022-08-16,有限会社キューズ,,有限会社,福岡県,福岡市南区,大橋１丁目３番１０号,,40,134,8150033,,,2022-08-16,清算の結了等,,,2015-10-05,1,,,,,キューズ,0
1642,7390001010820,登記記録の閉鎖等,0,2022-08-24,2022-08-15,株式会社サードウェーブソリューションズ,,株式会社,東京都,千代田区,外神田２丁目１４番１０号,,13,101,1010021,,,2022-08-15,合併による解散等,4010001018053,令和４年７月３１日東京都千代田区外神田二丁目１４番１０号株式会社サードウェーブ（4010001018053）に合併し解散,2015-10-05,1,,,,,サードウェーブソリューションズ,0
1669,8010002000980,登記記録の閉鎖等,0,2022-08-24,2022-08-15,有限会社エスビーカンパニー,,有限会社,東京都,文京区,音羽１丁目１７番１５号シマタビル２０１号,,13,105,1120013,,,2022-08-15,清算の結了等,,,2015-10-05,1,,,,,エスビーカンパニー,0
1683,8010501046327,登記記録の閉鎖等,0,2022-08-24,2022-08-22,株式会社ＫＷＯＲＫＳ,,株式会社,東京都,台東区,松が谷１丁目５番１０号ビューハイムカトー５階,,13,106,1110036,,,2022-08-22,清算の結了等,,,2020-10-07,1,,,,,ケイワークス,0
1685,8010601052943,登記記録の閉鎖等,0,2022-08-24,2022-08-17,ＢＣアセットマネジメント株式会社,,株式会社,東京都,中央区,銀座８丁目１７番５号,,13,102,1040061,,,2022-08-17,清算の結了等,,,2018-03-05,1,,,,,ビーシーアセットマネジメント,0
1687,8010702007796,登記記録の閉鎖等,0,2022-08-24,2022-08-19,有限会社マツシタクリーニング,,有限会社,東京都,品川区,西大井２丁目４番８号,,13,109,1400015,,,2022-08-19,清算の結了等,,,2015-10-05,1,,,,,マツシタクリーニング,0
1696,8011001118194,登記記録の閉鎖等,0,2022-08-24,2022-08-15,株式会社フォーカスチャネル,,株式会社,東京都,千代田区,有楽町１丁目１番２号,,13,101,1000006,,,2022-08-15,合併による解散等,3120001112416,令和４年８月１日大阪市住吉区千躰二丁目２番２４号株式会社ネットテン（3120001112416）に合併し解散,2017-09-06,1,,,,,フォーカスチャネル,0
1703,8011105006576,登記記録の閉鎖等,0,2022-08-24,2022-08-19,一般社団法人ＪＭＡＧクリエイターズ協会,,その他の設立登記法人,東京都,新宿区,富久町１番７号,,13,104,1620067,,,2022-08-19,清算の結了等,,,2015-10-05,1,,,,,ジェイエムエージークリエイターズキョウカイ,0
1721,8020002079602,登記記録の閉鎖等,0,2022-08-24,2022-08-17,有限会社高橋修身事務所,,有限会社,神奈川県,横浜市磯子区,森３丁目４番１４号,,14,107,2350023,,,2022-08-17,清算の結了等,,,2015-10-05,1,,,,,タカハシオサミジムショ,0
1731,8021002027749,登記記録の閉鎖等,0,2022-08-24,2022-08-22,有限会社エムケーエス,,有限会社,神奈川県,相模原市緑区,大島２８８０番地６,,14,151,2520135,,,2022-08-22,清算の結了等,,,2015-10-05,1,,,,,エムケーエス,0
1737,8030001133615,登記記録の閉鎖等,0,2022-08-24,2022-08-12,貴大興業株式会社,,株式会社,埼玉県,川口市,朝日５丁目２番２５号,,11,203,3320001,,,2022-08-12,清算の結了等,,,2019-11-11,1,,,,,タカヒロコウギョウ,0
1752,8050001027063,登記記録の閉鎖等,0,2022-08-24,2022-08-19,株式会社里山ホテル,,株式会社,茨城県,常陸太田市,増井町１８００番地,,08,212,3130008,,,2022-08-19,合併による解散等,7040001026265,令和４年８月２日東京都千代田区神田三崎町二丁目１５番１０号株式会社サンエ（7040001026265）に合併し解散,2015-10-05,1,,,,,サトヤマホテル,0
1760,8060005002474,登記記録の閉鎖等,0,2022-08-24,2022-08-18,日光ペンション＆ホテル協同組合,,その他の設立登記法人,栃木県,日光市,所野１５４３番地４８５,,09,206,3211421,,,2022-08-18,清算の結了等,,,2015-10-05,1,,,,,ニッコウペンションアンドホテル,0
1767,8090001005156,登記記録の閉鎖等,0,2022-08-24,2022-08-22,株式会社ワールドヘルシー,,株式会社,山梨県,甲府市,右左口町２２４０番地,,19,201,4001504,,,2022-08-22,清算の結了等,,,2015-10-05,1,,,,,ワールドヘルシー,0
1774,8110003001019,登記記録の閉鎖等,0,2022-08-24,2022-08-19,合資会社矢島製作所,,合資会社,新潟県,燕市,分水向山１丁目２番７号,,15,213,9590118,,,2022-08-19,清算の結了等,,,2015-10-05,1,,,,,ヤジマセイサクショ,0
1777,8120001069701,登記記録の閉鎖等,0,2022-08-24,2022-08-10,株式会社フォルム,,株式会社,大阪府,大阪市旭区,高殿５丁目１３番１０－７０５号,,27,117,5350031,,,2022-08-10,清算の結了等,,,2015-10-05,1,,,,,フォルム,0
1780,8120001155336,登記記録の閉鎖等,0,2022-08-24,2022-08-19,栄和石油株式会社,,株式会社,大阪府,守口市,南寺方東通３丁目１３番１５号,,27,209,5700043,,,2022-08-19,合併による解散等,4120101037561,令和４年８月１日大阪府岸和田市地蔵浜町１１番１号ヒラオカ石油株式会社（4120101037561）に合併し解散,2015-10-05,1,,,,,エイワセキユ,0
1837,8240001039766,登記記録の閉鎖等,0,2022-08-24,2022-08-22,株式会社不二屋,,株式会社,広島県,三原市,城町２丁目５番１４号,,34,204,7230014,,,2022-08-22,清算の結了等,,,2015-10-05,1,,,,,フジヤ,0
1844,8250003002102,登記記録の閉鎖等,0,2022-08-24,2022-08-22,合同会社猫のしっぽナース,,合同会社,山口県,宇部市,大字東岐波４９５２番地６－１０５号,,35,202,7550241,,,2022-08-22,清算の結了等,,,2017-06-05,1,,,,,ネコノシッポナース,0
1846,8260002023362,登記記録の閉鎖等,0,2022-08-24,2022-08-23,有限会社スワコンタクト,,有限会社,岡山県,倉敷市,八王寺町２６８番地,,33,202,7100816,,,2022-08-23,清算の結了等,,,2015-10-05,1,,,,,スワコンタクト,0
1850,8290001022445,登記記録の閉鎖等,0,2022-08-24,2022-08-17,株式会社トーゴＪネット,,株式会社,福岡県,福岡市南区,塩原１丁目２番２５－２０６号,,40,134,8150032,,,2022-08-17,清算の結了等,,,2015-10-05,1,,,,,,0
1856,8290001089419,登記記録の閉鎖等,0,2022-08-24,2022-08-16,株式会社信楽,,株式会社,福岡県,福岡市博多区,住吉４丁目２１番１０号２Ｆ,,40,132,8120018,,,2022-08-16,清算の結了等,,,2020-07-16,1,,,,,シガラキ,0
1858,8290002020209,登記記録の閉鎖等,0,2022-08-24,2022-08-17,有限会社ハルカ・クリーンサービス,,有限会社,福岡県,福岡市博多区,博多駅南４丁目２番１０号,,40,132,8120016,,,2022-08-17,清算の結了等,,,2015-10-05,1,,,,,ハルカクリーンサービス,0
1869,8370001023823,登記記録の閉鎖等,0,2022-08-24,2022-08-16,テン・パチ国際貿易株式会社,,株式会社,宮城県,仙台市泉区,南光台６丁目１０番２６号,,04,105,9818003,,,2022-08-16,清算の結了等,,,2015-10-05,1,,,,,テンパチコクサイボウエキ,0
1881,8450002009111,登記記録の閉鎖等,0,2022-08-24,2022-08-23,有限会社山下工業,,有限会社,北海道,上川郡美瑛町,字美瑛原野４線,,01,459,0710239,,,2022-08-23,清算の結了等,,,2015-10-05,1,,,,,ヤマシタコウギョウ,0
1886,8500003002299,登記記録の閉鎖等,0,2022-08-24,2022-08-19,合同会社スぺスタジオ,,合同会社,愛媛県,松山市,古川南１丁目２３番８号,,38,201,7900943,,,2022-08-19,清算の結了等,,,2019-07-25,1,,,,,スペスタジオ,0
1887,9010001001599,登記記録の閉鎖等,0,2022-08-24,2022-08-15,株式会社音羽堂,,株式会社,東京都,文京区,音羽１丁目１７番１５号シマダビル２０１号,,13,105,1120013,,,2022-08-15,清算の結了等,,,2015-10-05,1,,,,,オトワドウ,0
1899,9010003029449,登記記録の閉鎖等,0,2022-08-24,2022-08-16,合同会社カタブノ・アルファ,,合同会社,東京都,中央区,日本橋人形町３丁目７番２号原ビル５階５０２,,13,102,1030013,,,2022-08-16,清算の結了等,,,2019-03-11,1,,,,,カタブノアルファ,0
1915,9010405017893,登記記録の閉鎖等,0,2022-08-24,2022-07-28,ＮＰＯ法人賃貸マンション救急センター,,その他の設立登記法人,東京都,港区,浜松町２丁目２番１５号浜松町ダイヤビル２階,,13,103,1050013,,,2022-07-28,清算の結了等,,,2019-07-31,1,,,,,チンタイマンションキュウキュウセンター,0
1929,9010801018545,登記記録の閉鎖等,0,2022-08-24,2022-08-12,株式会社藤司,,株式会社,東京都,大田区,西蒲田１丁目２０番２号ワカバハイツ２０２,,13,111,1440051,,,2022-08-12,清算の結了等,,,2015-10-05,1,,,,,トウジ,0
1949,9011103010348,登記記録の閉鎖等,0,2022-08-24,2022-08-22,合同会社ＤＮ,,合同会社,東京都,新宿区,北新宿１丁目２９番１４号２０１,,13,104,1690074,,,2022-08-22,清算の結了等,,,2021-01-22,1,,,,,ディーエヌ,0
1952,9011401013589,登記記録の閉鎖等,0,2022-08-24,2022-08-23,株式会社リプトン,,株式会社,東京都,板橋区,前野町６丁目５０番１５－４１３号,,13,119,1740063,,,2022-08-23,清算の結了等,,,2015-10-05,1,,,,,リプトン,0
1956,9011801024186,登記記録の閉鎖等,0,2022-08-24,2022-08-18,株式会社ジェスコ,,株式会社,東京都,足立区,千住中居町２５番５号,,13,121,1200035,,,2022-08-18,清算の結了等,,,2015-10-05,1,,,,,,0
1965,9020001027404,登記記録の閉鎖等,0,2022-08-24,2022-08-17,株式会社大商,,株式会社,神奈川県,横浜市中区,曙町１丁目３番地,00009387,14,104,2310057,,,2022-08-17,清算の結了等,,,2015-10-05,1,,,,,ダイショウ,0
1967,9020001051882,登記記録の閉鎖等,0,2022-08-24,2022-08-17,株式会社ＮＯＺＡＷＡ,,株式会社,神奈川県,横浜市旭区,中希望が丘１８７番地,,14,112,2410825,,,2022-08-17,清算の結了等,,,2015-10-05,1,,,,,ノザワ,0
1969,9020001104905,登記記録の閉鎖等,0,2022-08-24,2022-08-17,株式会社Ｇｒａｄｒａｖｅ,,株式会社,神奈川県,横浜市保土ケ谷区,今井町４８８番地１－４０２号,,14,106,2400035,,,2022-08-17,清算の結了等,,,2015-10-05,1,,,,,,0
1974,9020002097306,登記記録の閉鎖等,0,2022-08-24,2022-08-16,有限会社上越商事,,有限会社,神奈川県,川崎市川崎区,追分町１６番８号,,14,131,2100835,,,2022-08-16,清算の結了等,,,2015-10-05,1,,,,,ジョウエツショウジ,0
1976,9021001014524,登記記録の閉鎖等,0,2022-08-24,2022-08-19,株式会社デイ・エイ・シー,,株式会社,神奈川県,相模原市南区,若松１丁目１２番３０号,,14,153,2520334,,,2022-08-19,清算の結了等,,,2015-10-05,1,,,,,デイエイシー,0
1992,9040001002041,登記記録の閉鎖等,0,2022-08-24,2022-08-16,株式会社現代建築事務所,,株式会社,千葉県,千葉市中央区,新宿２丁目１６番２０号第５笠川ビル７階,,12,101,2600021,,,2022-08-16,清算の結了等,,,2015-10-05,1,,,,,ゲンダイケンチクジムショ,0
2003,9060001028927,登記記録の閉鎖等,0,2022-08-24,2022-08-18,株式会社ミカサフーズ,,株式会社,栃木県,日光市,荊沢６００番地２０,,09,206,3212336,,,2022-08-18,清算の結了等,,,2016-12-22,1,,,,,ミカサフーズ,0
2014,9080002010155,登記記録の閉鎖等,0,2022-08-24,2022-08-22,有限会社シンキ商会,,有限会社,静岡県,静岡市清水区,下野町９番７号,,22,103,4240011,,,2022-08-22,清算の結了等,,,2015-10-05,1,,,,,シンキショウカイ,0
2020,9090001006599,登記記録の閉鎖等,0,2022-08-24,2022-08-22,株式会社甲斐の国たいせつ,,株式会社,山梨県,笛吹市,石和町八田１０８番地１,,19,211,4060023,,,2022-08-22,清算の結了等,,,2015-10-05,1,,,,,,0
2022,9090002012737,登記記録の閉鎖等,0,2022-08-24,2022-08-22,有限会社むさし野,,有限会社,山梨県,富士吉田市,下吉田３丁目６番３３号,,19,202,4030004,,,2022-08-22,清算の結了等,,,2015-10-05,1,,,,,ムサシノ,0
2058,9130001064519,登記記録の閉鎖等,0,2022-08-24,2022-07-28,株式会社ＳＫＴ,,株式会社,東京都,港区,芝５丁目３番７号,,13,103,1080014,,,2022-07-28,清算の結了等,,,2019-05-23,1,,,,,エスケーティー,0
2067,9180002002729,登記記録の閉鎖等,0,2022-08-24,2022-08-19,有限会社藤新商事,,有限会社,愛知県,名古屋市名東区,香南１丁目３１８番地,,23,115,4650004,,,2022-08-19,清算の結了等,,,2015-10-05,1,,,,,トウシンショウジ,0
2068,9180002039300,登記記録の閉鎖等,0,2022-08-24,2022-08-19,有限会社カノサト自動車,,有限会社,愛知県,名古屋市中川区,富田町大字包里字西川１１４５番地の１,,23,110,4540955,,,2022-08-19,清算の結了等,,,2015-10-05,1,,,,,カノサトジドウシャ,0
2110,9310001010751,登記記録の閉鎖等,0,2022-08-24,2022-08-17,株式会社ティージーエイチ,,株式会社,福岡県,福岡市博多区,博多駅東１丁目１３番９号,,40,132,8120013,,,2022-08-17,清算の結了等,,,2015-10-05,1,,,,,ティージーエイチ,0
2125,9370002019134,登記記録の閉鎖等,0,2022-08-24,2022-08-19,有限会社マックスコミュニティ,,有限会社,宮城県,仙台市若林区,畳屋丁１９番地の２,,04,103,9840801,,,2022-08-19,清算の結了等,,,2015-10-05,1,,,,,マックスコミュニティ,0
2126,9370003000968,登記記録の閉鎖等,0,2022-08-24,2022-08-16,合資会社太田総合事務所,,合資会社,宮城県,仙台市青葉区,北山３丁目７番２０号北山シティハウス４０４号,,04,101,9810931,,,2022-08-16,清算の結了等,,,2015-10-05,1,,,,,オオタソウゴウジムショ,0
2127,9370102000794,登記記録の閉鎖等,0,2022-08-24,2022-08-18,有限会社みやぎ角田運転代行,,有限会社,宮城県,角田市,尾山字大久保３３番地,,04,208,9811502,,,2022-08-18,清算の結了等,,,2015-10-05,1,,,,,ミヤギカクダウンテンダイコウ,0
2131,9380002011073,登記記録の閉鎖等,0,2022-08-24,2022-08-17,有限会社巴工業所,,有限会社,福島県,郡山市,田村町守山字田向６３番地,,07,203,9631155,,,2022-08-17,清算の結了等,,,2015-10-05,1,,,,,トモエコウギョウショ,0
2140,9420002012224,登記記録の閉鎖等,0,2022-08-24,2022-08-22,有限会社アサヒ産業,,有限会社,青森県,北津軽郡板柳町,大字太田字西若宮３３番地５４,,02,381,0383642,,,2022-08-22,清算の結了等,,,2015-10-05,1,,,,,アサヒサンギョウ,0
