sequenceNumber,corporateNumber,process,correct,updateDate,changeDate,name,nameImageId,kind,prefectureName,cityName,streetNumber,addressImageId,prefectureCode,cityCode,postCode,addressOutside,addressOutsideImageId,closeDate,closeCause,successorCorporateNumber,changeCause,assignmentDate,latest,enName,enPrefectureName,enCityName,enAddressOutside,furigana,hihyoji
11,1010001234470,新規,0,2023-04-13,2023-04-13,株式会社アシスト,,株式会社,東京都,千代田区,丸の内１丁目６番２号新丸の内センタービル２１階,,13,101,1000005,,,,,,,2023-04-13,1,,,,,アシスト,0
12,1010001234479,新規,0,2023-04-13,2023-04-13,ナリモト株式会社,,株式会社,東京都,文京区,音羽１丁目１７番１１号花和ビル４０３,,13,105,1120013,,,,,,,2023-04-13,1,,,,,ナリモト,0
13,1010003040314,新規,0,2023-04-13,2023-04-13,合同会社ａｎｄＩＴ,,合同会社,東京都,中央区,銀座１丁目２２番１１号銀座大竹ビジデンス２Ｆ,,13,102,1040061,,,,,,,2023-04-13,1,,,,,アンドイット,0
15,1010101015597,新規,0,2023-04-13,2023-04-13,インフィニティーズ・アジア株式会社,,株式会社,東京都,八王子市,美山町２１６１番地２,,13,201,1920152,,,,,,,2023-04-13,1,,,,,インフィニティーズアジア,0
20,1010401173665,新規,0,2023-04-13,2023-04-13,株式会社ＧＥＸ,,株式会社,東京都,港区,芝浦４丁目９番２５号芝浦スクエアビル１８Ｆ,,13,103,1080023,,,,,,,2023-04-13,1,,,,,ジーイーエックス,0
34,1010601062908,新規,0,2023-04-13,2023-04-13,東京中央化学株式会社,,株式会社,東京都,江東区,千石２丁目５番１０号,,13,108,1350015,,,,,,,2023-04-13,1,,,,,トウキョウチュウオウカガク,0
42,1010901052848,新規,0,2023-04-13,2023-04-13,株式会社ラウンドトリップ,,株式会社,東京都,世田谷区,宮坂３丁目１８番１１号ハウス太陽３０２号室,,13,112,1560051,,,,,,,2023-04-13,1,,,,,,0
49,1011001153669,新規,0,2023-04-13,2023-04-13,みなとビル株式会社,,株式会社,東京都,渋谷区,神宮前１丁目１１番１１号,,13,113,1500001,,,,,,,2023-04-13,1,,,,,ミナトビル,0
50,1011001153710,新規,0,2023-04-13,2023-04-13,株式会社ｂｎｄ,,株式会社,東京都,渋谷区,神泉町２０番２１号,,13,113,1500045,,,,,,,2023-04-13,1,,,,,ビーエヌディー,0
52,1011005010024,新規,0,2023-04-13,2023-04-13,一般社団法人版元ドットコム,,その他の設立登記法人,東京都,渋谷区,神宮前２丁目３３番１８号,,13,113,1500001,,,,,,,2023-04-13,1,,,,,ハンモトドットコム,0
55,1011301028620,新規,0,2023-04-13,2023-04-13,株式会社ネクストキャリア,,株式会社,東京都,杉並区,方南２丁目１２番２６号,,13,115,1680062,,,,,,,2023-04-13,1,,,,,,0
66,1011801042220,新規,0,2023-04-13,2023-04-13,株式会社ストライプストアーズ,,株式会社,東京都,葛飾区,金町５丁目１３番７号トランプタワー３０１号,,13,122,1250042,,,,,,,2023-04-13,1,,,,,ストライプストアーズ,0
67,1012403005937,新規,0,2023-04-13,2023-04-13,合同会社ホープストーン,,合同会社,東京都,調布市,飛田給２丁目２３番地３５,,13,208,1820036,,,,,,,2023-04-13,1,,,,,ホープストーン,0
68,1012405004854,新規,0,2023-04-13,2023-04-13,一般社団法人杏林大学医学部呼吸器内科学教室同門会,,その他の設立登記法人,東京都,三鷹市,井の頭５丁目７番３６号,,13,204,1810001,,,,,,,2023-04-13,1,,,,,キョウリンダイガクイガクブコキュウキナイカガクキョウシツドウモンカイ,0
69,1012703002667,新規,0,2023-04-13,2023-04-13,ＳｉｍｏｎＹａｔｅｓ合同会社,,合同会社,東京都,西東京市,西原町１丁目９番１３号,,13,229,1880004,,,,,,,2023-04-13,1,,,,,サイモンイェーツ,0
70,1012801022278,新規,0,2023-04-13,2023-04-13,株式会社エイペックスレストランズ,,株式会社,東京都,国立市,西１丁目１６番地の３９,,13,215,1860005,,,,,,,2023-04-13,1,,,,,エイペックスレストランズ,0
72,1013305003459,新規,0,2023-04-13,2023-04-13,特定非営利活動法人シニア情報ビジネス協会,,その他の設立登記法人,東京都,豊島区,池袋２丁目６２番１－６０６号,,13,116,1710014,,,,,,,2023-04-13,1,,,,,,0
76,1020003023656,新規,0,2023-04-13,2023-04-13,合同会社ＵＮＩＬＩＮＥ,,合同会社,神奈川県,横浜市旭区,上白根１丁目２番１－５０３号,,14,112,2410002,,,,,,,2023-04-13,1,,,,,ユニライン,0
77,1020003023714,新規,0,2023-04-13,2023-04-13,合同会社エヌエス企画,,合同会社,神奈川県,川崎市川崎区,鋼管通４丁目９番１３号２,,14,131,2100852,,,,,,,2023-04-13,1,,,,,エヌエスキカク,0
78,1020003023739,新規,0,2023-04-13,2023-04-13,合同会社スータット,,合同会社,神奈川県,横浜市西区,北幸２丁目１０番地２８むつみビル３Ｆ,,14,103,2200004,,,,,,,2023-04-13,1,,,,,スータット,0
79,1020005015949,新規,0,2023-04-13,2023-04-13,医療法人社団ＴＹＧ,,その他の設立登記法人,神奈川県,横浜市鶴見区,鶴見中央４丁目１番３号矢上屋ビル４階,,14,101,2300051,,,,,,,2023-04-13,1,,,,,ティーワイジー,0
80,1021001078700,新規,0,2023-04-13,2023-04-13,株式会社イヤサカ商店,,株式会社,神奈川県,横須賀市,衣笠町１０番７号,,14,201,2380025,,,,,,,2023-04-13,1,,,,,イヤサカショウテン,0
84,1030001153289,新規,0,2023-04-13,2023-04-13,株式会社Ｌｉｃｏ　Ｐｌｕｓ,,株式会社,埼玉県,さいたま市西区,西大宮３丁目３８番地１デュオヒルズ西大宮ザ・グランテラス１２９号室,,11,101,3310078,,,,,,,2023-04-13,1,,,,,リコプラス,0
85,1030003021576,新規,0,2023-04-13,2023-04-13,合同会社ＬＥＡＰｘＷＩＳＥ,,合同会社,埼玉県,上尾市,井戸木４丁目１番地２５号,,11,219,3620071,,,,,,,2023-04-13,1,,,,,リープバイワイズ,0
88,1030005021194,新規,0,2023-04-13,2023-04-13,医療法人岐佐会,,その他の設立登記法人,埼玉県,越谷市,大字弥十郎４５１番地１,,11,222,3430047,,,,,,,2023-04-13,1,,,,,キサカイ,0
91,1040001127952,新規,0,2023-04-13,2023-04-13,株式会社ＴＳＫ,,株式会社,千葉県,浦安市,富士見２丁目１０番３８－１０６号マノウアール由利武,,12,227,2790043,,,,,,,2023-04-13,1,,,,,ティーエスケー,0
93,1050001052679,新規,0,2023-04-13,2023-04-13,株式会社ＴＡＩＬＬ,,株式会社,茨城県,古河市,上大野３１９７番地,,08,204,3060201,,,,,,,2023-04-13,1,,,,,テイル,0
95,1050005013248,新規,0,2023-04-13,2023-04-13,一般社団法人Ｅａｒｔｈ,,その他の設立登記法人,茨城県,水戸市,双葉台２丁目１７番地の１４,,08,201,3114145,,,,,,,2023-04-13,1,,,,,アース,0
97,1060001035880,新規,0,2023-04-13,2023-04-13,リライフ株式会社,,株式会社,栃木県,宇都宮市,御幸ケ原町８４番地８メゾンド佐藤２号,,09,201,3210982,,,,,,,2023-04-13,1,,,,,リライフ,0
102,1070001040277,新規,0,2023-04-13,2023-04-13,株式会社Ｌａｂｏｍｉｎｅ,,株式会社,群馬県,前橋市,下大島町６０７番地４,,10,201,3792152,,,,,,,2023-04-13,1,,,,,ラボマイン,0
103,1070001040319,新規,0,2023-04-13,2023-04-13,ＳＴＯＮＹ株式会社,,株式会社,群馬県,渋川市,渋川３９１０－９－３Ｆ,,10,208,3770008,,,,,,,2023-04-13,1,,,,,ストーニー,0
104,1070005010111,新規,0,2023-04-13,2023-04-13,医療法人風の佳穂,,その他の設立登記法人,群馬県,高崎市,柴崎町１２６０番地,,10,202,3700035,,,,,,,2023-04-13,1,,,,,カゼノカホ,0
108,1110001037442,新規,0,2023-04-13,2023-04-13,株式会社Ｄｏ８,,株式会社,新潟県,新潟市中央区,山二ツ４丁目１番１号,,15,103,9500922,,,,,,,2023-04-13,1,,,,,ドゥエイト,0
117,1120001254004,新規,0,2023-04-13,2023-04-13,株式会社サプライ,,株式会社,大阪府,大阪市中央区,南船場３丁目２番２８号ＮＩＰＰＯタイヨービル５１１号,,27,128,5420081,,,,,,,2023-04-13,1,,,,,サプライ,0
124,1120101067322,新規,0,2023-04-13,2023-04-13,Ｍｙ．ｄｏ株式会社,,株式会社,大阪府,羽曳野市,島泉８丁目１５番２号,,27,222,5830881,,,,,,,2023-04-13,1,,,,,マイド,0
125,1120101067339,新規,0,2023-04-13,2023-04-13,株式会社阿部ニット,,株式会社,大阪府,泉大津市,森町２丁目２０番６号,,27,206,5950005,,,,,,,2023-04-13,1,,,,,アベニット,0
126,1120101067347,新規,0,2023-04-13,2023-04-13,さくら賃貸管理株式会社,,株式会社,大阪府,堺市北区,百舌鳥赤畑町４丁３３３番地１６プチコーポＫ,,27,146,5918037,,,,,,,2023-04-13,1,,,,,サクラチンタイカンリ,0
127,1120103005164,新規,0,2023-04-13,2023-04-13,合同会社シェアデイズ,,合同会社,大阪府,堺市中区,福田７４４番地８,,27,142,5998241,,,,,,,2023-04-13,1,,,,,シェアデイズ,0
130,1120905006450,新規,0,2023-04-13,2023-04-13,一般財団法人ＥＰＩＣ,,その他の設立登記法人,大阪府,高槻市,大字原２３７２番地,,27,207,5691051,,,,,,,2023-04-13,1,,,,,エピック,0
132,1122001036885,新規,0,2023-04-13,2023-04-13,株式会社トラストグロー,,株式会社,大阪府,大東市,三箇２丁目２番１２号,,27,218,5740077,,,,,,,2023-04-13,1,,,,,トラストグロー,0
133,1122001036893,新規,0,2023-04-13,2023-04-13,株式会社Ｒｏｄｍａｎ,,株式会社,大阪府,大東市,三住町１６番３号フジパレス三住町Ａ棟１０３号,,27,218,5740027,,,,,,,2023-04-13,1,,,,,ロドマン,0
138,1130001074079,新規,0,2023-04-13,2023-04-13,株式会社松本工業,,株式会社,京都府,京丹後市,久美浜町浦明１４１１番地,,26,212,6293438,,,,,,,2023-04-13,1,,,,,マツモトコウギョウ,0
140,1130003008654,新規,0,2023-04-13,2023-04-13,合同会社まっちゃんまっちゃん,,合同会社,京都府,京都市山科区,大塚元屋敷町４８番地１６,,26,110,6078126,,,,,,,2023-04-13,1,,,,,マッチャンマッチャン,0
151,1140001129732,新規,0,2023-04-13,2023-04-13,株式会社ｈｉｒａｋｅｎ　ｐｌｕｓ,,株式会社,兵庫県,たつの市,新宮町下野３４７番地６,,28,229,6794312,,,,,,,2023-04-13,1,,,,,ヒラケンプラス,0
152,1140001129773,新規,0,2023-04-13,2023-04-13,株式会社ｅ設備,,株式会社,兵庫県,高砂市,神爪２丁目１１番１７－５号,,28,216,6760808,,,,,,,2023-04-13,1,,,,,イーセツビ,0
153,1140001129781,新規,0,2023-04-13,2023-04-13,株式会社ユレスク,,株式会社,兵庫県,明石市,沢野２丁目１４番８号,,28,203,6730008,,,,,,,2023-04-13,1,,,,,ユレスク,0
155,1140003018966,新規,0,2023-04-13,2023-04-13,合同会社すまーとりんく,,合同会社,兵庫県,神戸市須磨区,白川台３丁目６４－１フローラルハイツ４０３,,28,107,6540103,,,,,,,2023-04-13,1,,,,,スマートリンク,0
160,1170005007007,新規,0,2023-04-13,2023-04-13,一般社団法人ワットパーサーリーブン寺院和歌山,,その他の設立登記法人,和歌山県,岩出市,清水１７３番地の１,,30,209,6496227,,,,,,,2023-04-13,1,,,,,ワットパーサーリーブンジインワカヤマ,0
163,1180001155790,新規,0,2023-04-13,2023-04-13,株式会社Ｆ．Ｐ．Ｏエージェント,,株式会社,愛知県,名古屋市名東区,高針荒田１１０１番地（Ｄ’レスティア名東高針７０６号）,,23,115,4650069,,,,,,,2023-04-13,1,,,,,エフピーオーエージェント,0
164,1180001155808,新規,0,2023-04-13,2023-04-13,ファインパートナー株式会社,,株式会社,愛知県,大府市,明成町１丁目２４５番地ＬＨ共和ヴィスターク１００２号室,,23,223,4740056,,,,,,,2023-04-13,1,,,,,ファインパートナー,0
165,1180001155857,新規,0,2023-04-13,2023-04-13,株式会社カイハツ,,株式会社,愛知県,名古屋市東区,葵３丁目２０番３３号アゴラ葵,,23,102,4610004,,,,,,,2023-04-13,1,,,,,カイハツ,0
167,1180003025100,新規,0,2023-04-13,2023-04-13,合同会社晴企画,,合同会社,愛知県,東海市,大田町下浜田９２番地の１ストリーム５階,,23,222,4770031,,,,,,,2023-04-13,1,,,,,ハレキカク,0
174,1180303005677,新規,0,2023-04-13,2023-04-13,合同会社ニコラス,,合同会社,愛知県,豊橋市,錦町９番地,,23,201,4418027,,,,,,,2023-04-13,1,,,,,ニコラス,0
175,1180305009461,新規,0,2023-04-13,2023-04-13,一般社団法人東栄町観光まちづくり協会,,その他の設立登記法人,愛知県,北設楽郡東栄町,大字下田字軒山１３番地７,,23,562,4490206,,,,,,,2023-04-13,1,,,,,トウエイチョウカンコウマチヅクリキョウカイ,0
179,1200001041179,新規,0,2023-04-13,2023-04-13,株式会社やまぐち,,株式会社,岐阜県,岐阜市,宇佐南３丁目１番－２１－１０１号（Ｍ・Ａ・ＦＬＡＴ１）,,21,201,5008367,,,,,,,2023-04-13,1,,,,,ヤマグチ,0
180,1200001041187,新規,0,2023-04-13,2023-04-13,株式会社Ａ,,株式会社,岐阜県,恵那市,大井町２７１０番地３５８,,21,210,5097201,,,,,,,2023-04-13,1,,,,,エー,0
187,1220001025353,新規,0,2023-04-13,2023-04-13,株式会社Ａｍｏｕｒ,,株式会社,石川県,河北郡内灘町,字大学２丁目１６マリリン８，５・１階,,17,365,9200265,,,,,,,2023-04-13,1,,,,,アムール,0
193,1240003006093,新規,0,2023-04-13,2023-04-13,合同会社ｅｎ　ｄｅｓｉｇｎ設計,,合同会社,広島県,尾道市,山波町２１７３番地１,,34,205,7220052,,,,,,,2023-04-13,1,,,,,エンデザインセッケイ,0
194,1240003006102,新規,0,2023-04-13,2023-04-13,合同会社ＬＥＣ,,合同会社,広島県,東広島市,西条町寺家５０４２番地３,,34,212,7390041,,,,,,,2023-04-13,1,,,,,エルイーシー,0
203,1290001101164,新規,0,2023-04-13,2023-04-13,株式会社ＴＲＰ,,株式会社,福岡県,春日市,松ヶ丘３丁目１３９番地,,40,218,8160843,,,,,,,2023-04-13,1,,,,,ティーアールピー,0
204,1290001101189,新規,0,2023-04-13,2023-04-13,株式会社藤嶋商会,,株式会社,福岡県,福岡市早良区,早良６丁目１番１９号,,40,137,8111122,,,,,,,2023-04-13,1,,,,,フジシマショウカイ,0
207,1290801029456,新規,0,2023-04-13,2023-04-13,株式会社Ｍｔｅｃ,,株式会社,福岡県,北九州市小倉北区,赤坂５丁目５‐６２　２Ｆ,,40,106,8020032,,,,,,,2023-04-13,1,,,,,エムテク,0
212,1330001030747,新規,0,2023-04-13,2023-04-13,株式会社采嬉,,株式会社,熊本県,山鹿市,久原５７５１番地７,,43,208,8610522,,,,,,,2023-04-13,1,,,,,サイキ,0
213,1330001030755,新規,0,2023-04-13,2023-04-13,川口電工株式会社,,株式会社,熊本県,合志市,合生３８２５番地８,,43,216,8611101,,,,,,,2023-04-13,1,,,,,カワグチデンコウ,0
215,1330005010646,新規,0,2023-04-13,2023-04-13,鏡町漁業協同組合,,その他の設立登記法人,熊本県,八代市,鏡町野崎１０２８番地２,,43,202,8694205,,,,,,熊本県八代市鏡町野崎字１番割１０２８番地の２鏡町漁業協同組合（1330005006198）と熊本県八代市千丁町古閑出２９７５番地８千丁漁業協同組合（9330005005886）の合併により設立,2023-04-13,1,,,,,カガミマチ,0
216,1340001025507,新規,0,2023-04-13,2023-04-13,株式会社カコイ,,株式会社,鹿児島県,鹿児島市,東坂元４丁目３番１３号,,46,201,8920861,,,,,,,2023-04-13,1,,,,,カコイ,0
218,1350001018286,新規,0,2023-04-13,2023-04-13,株式会社Ｏｎｅ,,株式会社,宮崎県,宮崎市,高洲町２３５番地３,,45,201,8800852,,,,,,,2023-04-13,1,,,,,ワン,0
227,1370001049841,新規,0,2023-04-13,2023-04-13,株式会社菊地組,,株式会社,宮城県,仙台市若林区,荒井字笹屋敷１６０番地,,04,103,9840032,,,,,,,2023-04-13,1,,,,,キクチグミ,0
232,1400001016210,新規,0,2023-04-13,2023-04-13,株式会社大峠養蜂場,,株式会社,岩手県,宮古市,平津戸第１地割７９番地２,,03,202,0282633,,,,,,,2023-04-13,1,,,,,オオトウゲヨウホウジョウ,0
233,1410001013454,新規,0,2023-04-13,2023-04-13,ｐｌｕｍｂｉｎｇ　ｗｏｒｋｓ株式会社,,株式会社,秋田県,秋田市,牛島西１丁目６番２４号,,05,201,0100063,,,,,,,2023-04-13,1,,,,,プラミングワークス,0
234,1410001013462,新規,0,2023-04-13,2023-04-13,株式会社タスクフォースエンジニアリング,,株式会社,秋田県,秋田市,金足追分字海老穴２６２番地２Ｃ号,,05,201,0100126,,,,,,,2023-04-13,1,,,,,タスクフォースエンジニアリング,0
235,1410003003783,新規,0,2023-04-13,2023-04-13,合同会社ＣＯＯＫＩＥ,,合同会社,秋田県,秋田市,大町５丁目２－１２アイパレスビル６０３,,05,201,0100921,,,,,,,2023-04-13,1,,,,,クッキー,0
236,1410005006512,新規,0,2023-04-13,2023-04-13,一般社団法人白神山地ふじさと観光協会,,その他の設立登記法人,秋田県,山本郡藤里町,藤琴字里栗３８番地２,,05,346,0183201,,,,,,,2023-04-13,1,,,,,シラカミサンチフジサトカンコウキョウカイ,0
251,1700150115385,新規,0,2023-04-13,2023-04-13,ｆｕ　ｚｈｏｕ　ｈｏｎｇ　ｃｈｅｎｇ　ｚｉ　ｍａｏ　ｙｉ　ｙｏｕ　ｘｉａｎ　ｇｏｎｇ　ｓｉ,,外国会社等,,,,,,,,ｊｉｎ　ａｎ　ｑｕ　ｇｕ　ｓｈａｎ　ｚｈｅｎ　ｌｉａｎ　ｙａｎｇ　ｌｕ　１２３　ｈａｏ　ｈａｏ　ｌａｉ　ｗｕ　１３＃ｌｏｕ　１　ｃｅｎｇ　３１　ｄｉａｎ　ｍｉａｎ－１　ｆｕｚｈｏｕ　ｆｕｊｉａｎ　３５００００　ＣＮ,,,,,,2023-04-13,1,,,,,フージョウホンチョンズーマオイーヨウシエンゴンスー,0
252,1700150115393,新規,0,2023-04-13,2023-04-13,若松町１丁目地区市街地再開発組合,,その他,神奈川県,横須賀市,若松町３丁目５番地,,14,201,2380007,,,,,,,2023-04-13,1,,,,,ワカマツチヨウイツチヨウメチクシガイチサイカイハツクミアイ,0
253,1700150115402,新規,0,2023-04-13,2023-04-13,ＴＵＴＵ　ＩＮＴＥＲＮＡＴＩＯＮＡＬ　ＣＯ．，ＬＩＭＩＴＥＤ,,外国会社等,,,,,,,,ＲＯＯＭ　０９－１３，２７／Ｆ，ＨＯ　ＫＩＮＧ　ＣＯＭＭＥＲＣＩＡＬ　ＣＥＮＴＲＥ，２－１６　ＦＡ　ＹＵＥＮ　ＳＴＲＥＥＴ，ＭＯＮＧＫＯＫ，ＫＯＷＬＯＯＮ　ＨＯＮＧ　ＫＯＮＧ,,,,,,2023-04-13,1,,,,,トウトウインターナシヨンナルカンパニーリミテツド,0
254,1700150115410,新規,0,2023-04-13,2023-04-13,ＧｕａｎｇＺｈｏｕＢｏＪｕＸｉｎＸｉＫｅＪｉＹｏｕＸｉａｎＧｏｎｇＳｉ,,外国会社等,,,,,,,,ＬｉＷａｎＱｕ　ＸｉＺｅｎｇＬｕ６３ＨａｏＺｉＢｉａｎＨａｏＣ１０ＨａｏＬｏｕＴａｉＲｏｎｇＳｈａｎｇＷｕＺｈｏｎｇＸｉｎ３０１　ＧｕａｎｇＺｈｏｕＳｈｉ　ＧｕａｎｇＤｏｎｇＳｈｅｎｇ,,,,,,2023-04-13,1,,,,,コウシユウボウシユウジヨウホウユウゲンコウシ,0
255,1700150115419,新規,0,2023-04-13,2023-04-13,Ｓｈｅｎｚｈｅｎｚｈｏｎｇｓｈｅｎｇｂｏｗｅｉｋｅｊｉｙｏｕｘｉａｎｇｏｎｇｓｉ,,外国会社等,,,,,,,,ｓｈｅｎｚｈｅｎｓｈｉｂａｏａｎｑｕｘｉｘｉａｎｇｊｉｅｄａｏｇｕｓｈｕｓｈｅｑｕｊｉｎｇｗａｎｓｈｕｉｃｈａｎｇｏｎｇｙｅｑｕＡ１ｄｏｎｇｃｈａｎｇｆａｎｇ２０２,,,,,,2023-04-13,1,,,,,シェンジェンシージョンションボーウェイコージーヨウシエンゴンスー,0
266,2010001234478,新規,0,2023-04-13,2023-04-13,株式会社ＦｕｎｎｙＳｉｄｅＵｐ,,株式会社,東京都,千代田区,神田和泉町一番地６－１６ヤマトビル４０５,,13,101,1010024,,,,,,,2023-04-13,1,,,,,ファニーサイドアップ,0
267,2010001234494,新規,0,2023-04-13,2023-04-13,株式会社ＴＹＳＳ,,株式会社,東京都,中央区,日本橋室町１丁目１１番１２号日本橋水野ビル７階,,13,102,1030022,,,,,,,2023-04-13,1,,,,,ティーワイエスエス,0
269,2010003040288,新規,0,2023-04-13,2023-04-13,合同会社ニュートリベース,,合同会社,東京都,中央区,日本橋浜町１３－１０－１浜町ラボ,,13,102,1030000,,,,,,,2023-04-13,1,,,,,ニュートリベース,0
283,2010403029880,新規,0,2023-04-13,2023-04-13,インテリジェントテクノロジー合同会社,,合同会社,東京都,港区,浜松町２丁目２番１５号浜松町ダイヤビル２Ｆ,,13,103,1050013,,,,,,,2023-04-13,1,,,,,インテリジェントテクノロジー,0
289,2010601062931,新規,0,2023-04-13,2023-04-13,株式会社Ｅｉｇｈｔｙ　Ｅｉｇｈｔ　Ｎｅｘｔ,,株式会社,東京都,墨田区,向島３丁目４６番１２号,,13,107,1310033,,,,,,,2023-04-13,1,,,,,エイティエイトネクスト,0
292,2010701044111,新規,0,2023-04-13,2023-04-13,株式会社シンクロニア,,株式会社,東京都,品川区,西五反田２丁目９－７ドルミ五反田アンメゾン４０７,,13,109,1410031,,,,,,,2023-04-13,1,,,,,シンクロニア,0
309,2011001153701,新規,0,2023-04-13,2023-04-13,株式会社Ｉｓ‐Ｉｓ,,株式会社,東京都,渋谷区,渋谷２丁目１９－１５宮益坂ビルディング６０９,,13,113,1500002,,,,,,,2023-04-13,1,,,,,イズイズ,0
310,2011001153718,新規,0,2023-04-13,2023-04-13,株式会社ＳＴＡＲＧＡＴＥＳ,,株式会社,東京都,目黒区,下目黒６丁目１番５号,,13,110,1530064,,,,,,,2023-04-13,1,,,,,スターゲイツ,0
316,2011103012937,新規,0,2023-04-13,2023-04-13,合同会社ｄｅｋｉｔａｂｉ,,合同会社,東京都,新宿区,赤城下町４５ＫＢＣＡ－１号,,13,104,1620803,,,,,,,2023-04-13,1,,,,,デキタビ,0
320,2011401025046,新規,0,2023-04-13,2023-04-13,株式会社さくら通信機,,株式会社,東京都,板橋区,赤塚新町２丁目１２番１号リヒテスハイム４０７,,13,119,1750093,,,,,,,2023-04-13,1,,,,,サクラツウシンキ,0
322,2011601026736,新規,0,2023-04-13,2023-04-13,ＤＡＩＮＯ株式会社,,株式会社,東京都,練馬区,東大泉７丁目２７番５４号,,13,120,1780063,,,,,,,2023-04-13,1,,,,,ダイノ,0
329,2012401040398,新規,0,2023-04-13,2023-04-13,株式会社ＺＥＲＯ１５,,株式会社,東京都,稲城市,百村１０７２番地,,13,225,2060804,,,,,,,2023-04-13,1,,,,,ゼロイチゴ,0
330,2012701017591,新規,0,2023-04-13,2023-04-13,株式会社籠谷建築事務所,,株式会社,東京都,西東京市,ひばりが丘３丁目２－５３－４１３,,13,229,2020001,,,,,,,2023-04-13,1,,,,,コモリヤケンチクジムショ,0
337,2020001151128,新規,0,2023-04-13,2023-04-13,株式会社ハイロード,,株式会社,神奈川県,横浜市戸塚区,戸塚町３６４番地,,14,110,2440003,,,,,,,2023-04-13,1,,,,,ハイロード,0
344,2020003023705,新規,0,2023-04-13,2023-04-13,合同会社ＣＦＪエナジー,,合同会社,神奈川県,川崎市川崎区,貝塚１丁目３番１９号,,14,131,2100014,,,,,,,2023-04-13,1,,,,,シーエフジェーエナジー,0
345,2020003023738,新規,0,2023-04-13,2023-04-13,ＫＯＲＯＭＯプラス合同会社,,合同会社,神奈川県,川崎市中原区,市ノ坪４４９番地３シティタワー武蔵小杉２５１４,,14,133,2110016,,,,,,,2023-04-13,1,,,,,コロモプラス,0
353,2021003012929,新規,0,2023-04-13,2023-04-13,合同会社プラズマエレクトロニクス研究所,,合同会社,神奈川県,厚木市,戸室４丁目１番５３号,,14,212,2430031,,,,,,,2023-04-13,1,,,,,プラズマエレクトロニクスケンキュウショ,0
357,2030001153230,新規,0,2023-04-13,2023-04-13,株式会社ムナカタリフォーム,,株式会社,埼玉県,吉川市,きよみ野３丁目１０番地４８,,11,243,3420058,,,,,,,2023-04-13,1,,,,,ムナカタリフォーム,0
358,2030001153296,新規,0,2023-04-13,2023-04-13,株式会社Ｍｉｙａｂｉ,,株式会社,埼玉県,三郷市,中央５丁目２７番地１９,,11,237,3410038,,,,,,,2023-04-13,1,,,,,ミヤビ,0
359,2030001153354,新規,0,2023-04-13,2023-04-13,かわせみ交通株式会社,,株式会社,埼玉県,川口市,桜町６丁目１３－５,,11,203,3340001,,,,,,,2023-04-13,1,,,,,カワセミコウツウ,0
360,2030001153379,新規,0,2023-04-13,2023-04-13,Ｔ‐ＥＯＮ株式会社,,株式会社,埼玉県,さいたま市岩槻区,加倉１丁目２３番５９－１号,,11,110,3390056,,,,,,,2023-04-13,1,,,,,ティーイーオーエヌ,0
364,2030003021550,新規,0,2023-04-13,2023-04-13,合同会社明香舎,,合同会社,埼玉県,越谷市,大字大泊５３３－１,,11,222,3430044,,,,,,,2023-04-13,1,,,,,メイコウシャ,0
365,2030003021567,新規,0,2023-04-13,2023-04-13,ＡＬ　ＲＡＨＭＡＮ　ＴＲＡＤＩＮＧ合同会社,,合同会社,埼玉県,さいたま市岩槻区,原町１６番３２号峠ハイムＢ２０１号室,,11,110,3390047,,,,,,,2023-04-13,1,,,,,アルラハマントレーディング,0
369,2040001127943,新規,0,2023-04-13,2023-04-13,株式会社コンバインドエフォート,,株式会社,千葉県,市川市,北方町４丁目１８８３番地８,,12,203,2720811,,,,,,,2023-04-13,1,,,,,コンバインドエフォート,0
373,2040003022192,新規,0,2023-04-13,2023-04-13,飛越国際合同会社,,合同会社,千葉県,流山市,向小金３丁目６５－２６,,12,220,2700143,,,,,,,2023-04-13,1,,,,,ヒエツコクサイ,0
378,2040005021960,新規,0,2023-04-13,2023-04-13,社会保険労務士法人アリエス経営労務管理事務所,,その他の設立登記法人,千葉県,市原市,八幡１２３５番地,,12,219,2900062,,,,,,,2023-04-13,1,,,,,アリエスケイエイロウムカンリジムショ,0
384,2050003007416,新規,0,2023-04-13,2023-04-13,Ｍｉｄｏｒｉ　Ｅｎｔｅｒｐｒｉｓｅｓ合同会社,,合同会社,茨城県,かすみがうら市,宍倉５６８６番地２,,08,230,3000121,,,,,,,2023-04-13,1,,,,,ミドリエンタープライゼズ,0
385,2050005013247,新規,0,2023-04-13,2023-04-13,一般社団法人つくば文化芸術事業団,,その他の設立登記法人,茨城県,つくば市,古来１４２０番地１,,08,220,3050021,,,,,,,2023-04-13,1,,,,,ツクバブンカゲイジュツジギョウダン,0
393,2070005010110,新規,0,2023-04-13,2023-04-13,土地家屋調査士法人白川事務所,,その他の設立登記法人,群馬県,高崎市,上小鳥町２７５番地３十勝ハイツ２０２号,,10,202,3700078,,,,,,,2023-04-13,1,,,,,シラカワジムショ,0
394,2080103002776,新規,0,2023-04-13,2023-04-13,合同会社Ｄｅｖｅｌｏｐ,,合同会社,静岡県,伊東市,松川町５番２４号４Ｆ,,22,208,4140011,,,,,,,2023-04-13,1,,,,,デバロップ,0
397,2090001018056,新規,0,2023-04-13,2023-04-13,コニカミノルタＩＪプロダクト株式会社,,株式会社,山梨県,笛吹市,御坂町二之宮９２０番地,,19,211,4060807,,,,,,,2023-04-13,1,,,,,コニカミノルタアイジェイプロダクト,0
399,2090003002297,新規,0,2023-04-13,2023-04-13,コミートム合同会社,,合同会社,山梨県,南巨摩郡身延町,大島２１２５番地１,,19,365,4092415,,,,,,,2023-04-13,1,,,,,コミートム,0
400,2100001036304,新規,0,2023-04-13,2023-04-13,株式会社バーリィ,,株式会社,長野県,北安曇郡小谷村,大字千国乙５３１１－２,,20,486,3999422,,,,,,,2023-04-13,1,,,,,バーリィ,0
401,2110001037441,新規,0,2023-04-13,2023-04-13,株式会社ニノミヤ建硝,,株式会社,新潟県,新潟市江南区,うぐいす２丁目１４番１２号,,15,104,9500214,,,,,,,2023-04-13,1,,,,,ニノミヤケンショウ,0
409,2120001253855,新規,0,2023-04-13,2023-04-13,株式会社ＮＥＸＴ,,株式会社,大阪府,大阪市生野区,新今里３丁目１０番２０号,,27,116,5440001,,,,,,,2023-04-13,1,,,,,ネクスト,0
410,2120001253905,新規,0,2023-04-13,2023-04-13,株式会社ＳＰＩＮＴＯ,,株式会社,大阪府,大阪市中央区,上汐２丁目３番１０号Ｂ１ＦＬｉｔｔｌｅＥｇｇＳｔｕｄｉｏ,,27,128,5420064,,,,,,,2023-04-13,1,,,,,スピント,0
413,2120005023577,新規,0,2023-04-13,2023-04-13,一般財団法人大阪社体スポーツ財団,,その他の設立登記法人,大阪府,大阪市天王寺区,大道１丁目１２番６号,,27,109,5430052,,,,,,,2023-04-13,1,,,,,オオサカシャタイスポーツザイダン,0
415,2120101067338,新規,0,2023-04-13,2023-04-13,株式会社ＤＡＩＳＨＯ,,株式会社,大阪府,堺市中区,深井中町８８０番地３２,,27,142,5998272,,,,,,,2023-04-13,1,,,,,ダイショウ,0
416,2120101067362,新規,0,2023-04-13,2023-04-13,アイアークス株式会社,,株式会社,大阪府,堺市北区,奥本町１丁４３ＨＩＳビル北花田２０２号,,27,146,5918007,,,,,,,2023-04-13,1,,,,,アイアークス,0
420,2122001036884,新規,0,2023-04-13,2023-04-13,株式会社有望テック,,株式会社,大阪府,八尾市,南亀井町２丁目３番６１号,,27,212,5810054,,,,,,,2023-04-13,1,,,,,ユウボウテック,0
428,2130003008637,新規,0,2023-04-13,2023-04-13,Ｎｉｎｅｔｙ　Ｔｈｒｅｅ　Ｊａｐａｎ合同会社,,合同会社,京都府,京都市下京区,七条通油小路東入大黒町２２７番地第２キョートビル４０２,,26,106,6008223,,,,,,,2023-04-13,1,,,,,ナインティスリージャパン,0
429,2130003008653,新規,0,2023-04-13,2023-04-13,合同会社プロセス深堀り,,合同会社,京都府,京都市中京区,錦堀川町６３０番地,,26,104,6048235,,,,,,,2023-04-13,1,,,,,プロセスフカボリ,0
432,2140005026545,新規,0,2023-04-13,2023-04-13,阪神タクシー生活維持向上組合,,その他の設立登記法人,兵庫県,西宮市,高須町１丁目１－９－９０９,,28,204,6638141,,,,,,,2023-04-13,1,,,,,ハンシンタクシーセイカツイジコウジョウ,0
442,2180001155773,新規,0,2023-04-13,2023-04-13,株式会社阪口興業,,株式会社,愛知県,津島市,神守町字上町４５番地１,,23,208,4960005,,,,,,,2023-04-13,1,,,,,サカグチコウギョウ,0
443,2180001155856,新規,0,2023-04-13,2023-04-13,ジャパン・プラセンタ株式会社,,株式会社,愛知県,名古屋市中村区,名駅４丁目２４番５号,,23,105,4500002,,,,,,,2023-04-13,1,,,,,ジャパンプラセンタ,0
450,2200001041186,新規,0,2023-04-13,2023-04-13,ＳＯＲＡｆａｍ株式会社,,株式会社,岐阜県,中津川市,坂下１９９１番地１,,21,206,5099232,,,,,,,2023-04-13,1,,,,,ソラファム,0
452,2230001019790,新規,0,2023-04-13,2023-04-13,株式会社Ａ　ＮＥＷ　ＳＴＵＤＩＯ,,株式会社,富山県,富山市,婦中町蔵島２９６番地１,,16,201,9392726,,,,,,,2023-04-13,1,,,,,アニュースタジオ,0
456,2240001061346,新規,0,2023-04-13,2023-04-13,株式会社Ｋ‐９,,株式会社,広島県,東広島市,八本松飯田５丁目５番３９号,,34,212,7390146,,,,,,,2023-04-13,1,,,,,ケイナイン,0
457,2240001061354,新規,0,2023-04-13,2023-04-13,株式会社ＳＰＡＲＫＬＥ,,株式会社,広島県,大竹市,玖波３丁目７番９号,,34,211,7390651,,,,,,,2023-04-13,1,,,,,スパークル,0
458,2260001037856,新規,0,2023-04-13,2023-04-13,株式会社青江,,株式会社,岡山県,岡山市北区,青江４丁目１１－２６,,33,101,7000941,,,,,,,2023-04-13,1,,,,,アオエ,0
459,2270005005552,新規,0,2023-04-13,2023-04-13,特定非営利活動法人ＩＪＵ,,その他の設立登記法人,鳥取県,倉吉市,魚町２５５１番地,,31,203,6820821,,,,,,,2023-04-13,1,,,,,イジュウ,0
463,2290001101171,新規,0,2023-04-13,2023-04-13,株式会社ＣＯＣ　ＪＡＰＡＮ,,株式会社,福岡県,福岡市東区,多の津４丁目７番２３号５０４号室,,40,131,8130034,,,,,,,2023-04-13,1,,,,,シーオーシージャパン,0
476,2320001019682,新規,0,2023-04-13,2023-04-13,株式会社Ｆｒｅｅ　Ｓｔｙｌｅ,,株式会社,大分県,豊後大野市,大野町矢田１８１０番地,,44,212,8796423,,,,,,,2023-04-13,1,,,,,フリースタイル,0
477,2330003009796,新規,0,2023-04-13,2023-04-13,合同会社ウェルカム,,合同会社,熊本県,熊本市西区,池上町５４１番地５,,43,103,8600048,,,,,,,2023-04-13,1,,,,,ウェルカム,0
478,2330003009805,新規,0,2023-04-13,2023-04-13,合同会社マシェール,,合同会社,熊本県,荒尾市,荒尾４１８６番地６２,,43,204,8640041,,,,,,,2023-04-13,1,,,,,マシェール,0
480,2340001025514,新規,0,2023-04-13,2023-04-13,株式会社ＫＥＳ,,株式会社,鹿児島県,鹿児島市,千日町７－２門園第２ビル３階,,46,201,8920843,,,,,,,2023-04-13,1,,,,,ケーイーエス,0
483,2340003004103,新規,0,2023-04-13,2023-04-13,合同会社アミーゴ・カーサ,,合同会社,鹿児島県,南さつま市,笠沙町片浦３８９９番地,,46,220,8971301,,,,,,,2023-04-13,1,,,,,アミーゴカーサ,0
488,2360003012888,新規,0,2023-04-13,2023-04-13,合同会社かりゆしハート,,合同会社,沖縄県,那覇市,高良２丁目１３番２７号２階,,47,201,9010145,,,,,,,2023-04-13,1,,,,,カリユシハート,0
491,2370003006088,新規,0,2023-04-13,2023-04-13,Ｇｅｍｍａ合同会社,,合同会社,宮城県,仙台市青葉区,東勝山１丁目２２番１２号シャーメゾンセイワ１０２,,04,101,9810923,,,,,,,2023-04-13,1,,,,,ジェマ,0
493,2380001033612,新規,0,2023-04-13,2023-04-13,株式会社アドバンス,,株式会社,福島県,いわき市,小名浜字鳥居北２１番地の７,,07,204,9718101,,,,,,,2023-04-13,1,,,,,アドバンス,0
504,2430001088808,新規,0,2023-04-13,2023-04-13,株式会社装彩,,株式会社,北海道,石狩市,樽川九条１丁目１１８番地,,01,235,0613259,,,,,,,2023-04-13,1,,,,,ソウア,0
505,2430001088824,新規,0,2023-04-13,2023-04-13,株式会社ＳＡＮＷＡ,,株式会社,北海道,札幌市北区,屯田七条１１丁目４番２２号,,01,102,0020857,,,,,,,2023-04-13,1,,,,,サンワ,0
506,2430003014902,新規,0,2023-04-13,2023-04-13,Ｂｅｓｔ２１合同会社,,合同会社,北海道,札幌市北区,北三十二条西５丁目３番２８号ＳＡＫＵＲＡ－Ｎ３２Ｃ８室,,01,102,0010032,,,,,,,2023-04-13,1,,,,,ベストトゥエンティーワン,0
514,2470001019560,新規,0,2023-04-13,2023-04-13,株式会社グロースＪＰ,,株式会社,香川県,善通寺市,金蔵寺町８１４番地５,,37,204,7650031,,,,,,,2023-04-13,1,,,,,グロースジェイピー,0
518,2490001010451,新規,0,2023-04-13,2023-04-13,株式会社センターリバー・イースト,,株式会社,高知県,高知市,神田１６５番地１５,,39,201,7808040,,,,,,,2023-04-13,1,,,,,センターリバーイースト,0
525,2700150115384,新規,0,2023-04-13,2023-04-13,Ｚｈｕｈａｉｓｈｉ　Ｙｕｙｉ　Ｆｅｉｆａｎ　Ｓｈａｎｇｍａｏ　Ｙｏｕｘｉａｎ　Ｇｏｎｇｓｉ,,外国会社等,,,,,,,,１０５ｓｈｉ－４４９９２（Ｃｅｎｔｒａｌｉｚｅｄ　ｏｆｆｉｃｅ　ａｒｅａ），６ｈａｏ，ｂａｏｈｕａｌｕ，ｈｅｎｇｑｉｎｘｉｎｑｕ，Ｚｈｕｈａｉｓｈｉ,,,,,,2023-04-13,1,,,,,ジューハイシーイーイーフェイファンシャンマオヨウシエンゴンスー,0
526,2700150115401,新規,0,2023-04-13,2023-04-13,Ｓｈｅｎｚｈｅｎ　Ｃａｎｙ　Ｅｌｅｃｔｒｏｎｉｃｓ　Ｔｅｃｈｏｌｏｇｙ　Ｃｏ．，Ｌｔｄ,,外国会社等,,,,,,,,７０１，Ｂｕｉｌｄｉｎｇ　２，Ｚｈｏｎｇｔａｉ　Ｓｃｉｅｎｃｅ　ａｎｄ　Ｔｅｃｈｎｏｌｏｇｙ　Ｐａｒｋ，Ｄｏｎｇｈｕａｎ　１ｓｔ　Ｒｏａｄ，Ｙｏｕｓｏｎｇ　Ｃｏｍｍｕｎｉｔｙ，Ｌｏｎｇｈｕａ　Ｓｔｒｅｅｔ，Ｌｏｎｇｈｕａ　Ｎｅｗ　Ｄｉｓｔｒｉｃｔ，Ｓｈｅｎｚｈｅｎ,,,,,,2023-04-13,1,,,,,シンセンシカーニーエレクトロニクステクノロジカンパニーリミテツド,0
527,2700150115418,新規,0,2023-04-13,2023-04-13,ｓｈｅｎｚｈｅｎｓｈｉｘｉｎｒａｎｇｕｏｊｉｍａｏｙｉｙｏｕｘｉａｎｇｏｎｇｓｉ,,外国会社等,,,,,,,,ｓｈｅｎｚｈｅｎｓｈｉｌｏｎｇｇａｎｇｑｕｂａｎｔｉａｎｊｉｅｄａｏｂａｎｔｉａｎｓｈｅｑｕｃｈａｎｇｋｅｎｇｌｕｘｉｑｉｘｉａｎｇ５ｈａｏｈａｉｆａｄａｓｈａ８０６,,,,,,2023-04-13,1,,,,,シェンジェンシーシンラングオジーマオイーヨウシエンゴンスー,0
543,3010001234493,新規,0,2023-04-13,2023-04-13,株式会社天成,,株式会社,東京都,千代田区,神田和泉町１番地６－１６ヤマトビル４０５,,13,101,1010024,,,,,,,2023-04-13,1,,,,,テンセイ,0
545,3010003040287,新規,0,2023-04-13,2023-04-13,合同会社高血圧予防研究所,,合同会社,東京都,中央区,銀座１丁目２２番１１号２Ｆ,,13,102,1040061,,,,,,,2023-04-13,1,,,,,コウケツアツヨボウケンキュウショ,0
546,3010003040295,新規,0,2023-04-13,2023-04-13,サザンピークス・パートナーズ合同会社,,合同会社,東京都,中央区,銀座１丁目１２番４号Ｎ＆ＥＢＬＤ．６Ｆ,,13,102,1040061,,,,,,,2023-04-13,1,,,,,サザンピークスパートナーズ,0
565,3010601062914,新規,0,2023-04-13,2023-04-13,株式会社ＰＩＫＡＰＩＫＡ,,株式会社,東京都,江東区,亀戸７丁目４３番１４号,,13,108,1360071,,,,,,,2023-04-13,1,,,,,ピカピカ,0
566,3010603010094,新規,0,2023-04-13,2023-04-13,合同会社欣栄,,合同会社,東京都,墨田区,東駒形１丁目３番２号,,13,107,1300005,,,,,,,2023-04-13,1,,,,,キンエイ,0
567,3010701044077,新規,0,2023-04-13,2023-04-13,株式会社テレコムフォース,,株式会社,東京都,品川区,西五反田１丁目１番８号ＮＭＦ五反田駅前ビル８階,,13,109,1410031,,,,,,,2023-04-13,1,,,,,テレコムフォース,0
568,3010701044102,新規,0,2023-04-13,2023-04-13,株式会社ＳＯＵＦＩＮＩＴＹ,,株式会社,東京都,品川区,南品川５丁目３番２４－１０２号,,13,109,1400004,,,,,,,2023-04-13,1,,,,,ソウフィニティー,0
573,3010901052854,新規,0,2023-04-13,2023-04-13,株式会社翠雨商店,,株式会社,東京都,世田谷区,若林２丁目９番３号,,13,112,1540023,,,,,,,2023-04-13,1,,,,,,0
578,3011001153717,新規,0,2023-04-13,2023-04-13,株式会社ｍｓｓｂ,,株式会社,東京都,渋谷区,神宮前６丁目２３番４号桑野ビル２階,,13,113,1500001,,,,,,,2023-04-13,1,,,,,ムササビ,0
579,3011005010030,新規,0,2023-04-13,2023-04-13,一般社団法人Ｔｏｋｙｏ　Ｗｏｍｅｎ　ｉｎ　ＶＣ,,その他の設立登記法人,東京都,渋谷区,神宮前６丁目２３番４号,,13,113,1500001,,,,,,,2023-04-13,1,,,,,トーキョーウィメンインブイシー,0
587,3011101102391,新規,0,2023-04-13,2023-04-13,株式会社リブシー,,株式会社,東京都,新宿区,西新宿３丁目３番１３号西新宿水間ビル２Ｆ,,13,104,1600023,,,,,,,2023-04-13,1,,,,,リブシー,0
589,3011103012936,新規,0,2023-04-13,2023-04-13,サステナブルエナジー２号合同会社,,合同会社,東京都,新宿区,西新宿６丁目２０番１２号,,13,104,1600023,,,,,,,2023-04-13,1,,,,,サステナブルエナジーニゴウ,0
590,3011301028619,新規,0,2023-04-13,2023-04-13,リボナイズ株式会社,,株式会社,東京都,杉並区,松ノ木２丁目１５－１０,,13,115,1660014,,,,,,,2023-04-13,1,,,,,,0
593,3011401025045,新規,0,2023-04-13,2023-04-13,株式会社火華,,株式会社,東京都,板橋区,大山金井町９番７－８０１Ａ,,13,119,1730024,,,,,,,2023-04-13,1,,,,,カカ,0
594,3011403003965,新規,0,2023-04-13,2023-04-13,合同会社アルカナ,,合同会社,東京都,板橋区,小茂根２丁目２７番１２号,,13,119,1730037,,,,,,,2023-04-13,1,,,,,アルカナ,0
595,3011501029144,新規,0,2023-04-13,2023-04-13,株式会社豊金,,株式会社,東京都,北区,桐ケ丘１丁目１６番２７－７０２号,,13,117,1150054,,,,,,,2023-04-13,1,,,,,トヨキン,0
596,3011601026727,新規,0,2023-04-13,2023-04-13,株式会社晟楊,,株式会社,東京都,練馬区,豊玉北３丁目１番３号パレ・ドール豊玉北４０１,,13,120,1760012,,,,,,,2023-04-13,1,,,,,セイヨウ,0
602,3013301050593,新規,0,2023-04-13,2023-04-13,アイサン株式会社,,株式会社,東京都,豊島区,目白３丁目５番８号グロイル目白４０２号,,13,116,1710031,,,,,,,2023-04-13,1,,,,,アイサン,0
614,3020005015947,新規,0,2023-04-13,2023-04-13,一般社団法人日本認知症福祉専門員協会,,その他の設立登記法人,神奈川県,横浜市中区,北仲通５丁目５７－２－５３１４,,14,104,2310003,,,,,,,2023-04-13,1,,,,,ニホンニンチショウフクシセンモンインキョウカイ,0
617,3021001078681,新規,0,2023-04-13,2023-04-13,ＳＲＣホールディングス株式会社,,株式会社,神奈川県,相模原市南区,大野台３丁目３０番１３－７号,,14,153,2520331,,,,,,,2023-04-13,1,,,,,エスアールシーホールディングス,0
619,3021005012777,新規,0,2023-04-13,2023-04-13,湘南山の手社会保険労務士法人,,その他の設立登記法人,神奈川県,藤沢市,本町２丁目１０番１７号,,14,205,2510053,,,,,,,2023-04-13,1,,,,,ショウナンヤマノテ,0
625,3030001153378,新規,0,2023-04-13,2023-04-13,株式会社三信,,株式会社,埼玉県,越谷市,神明町２丁目３９７－３－２０１,,11,222,3430805,,,,,,,2023-04-13,1,,,,,サンシン,0
629,3030003021533,新規,0,2023-04-13,2023-04-13,Ａｒｉａ合同会社,,合同会社,埼玉県,越谷市,レイクタウン８丁目６番地１,,11,222,3430828,,,,,,,2023-04-13,1,,,,,アリア,0
630,3030003021566,新規,0,2023-04-13,2023-04-13,合同会社Ｙｅｓ　ｍａｎ,,合同会社,埼玉県,三郷市,戸ケ崎３丁目６０４番地９,,11,237,3410044,,,,,,,2023-04-13,1,,,,,イエスマン,0
640,3050001052685,新規,0,2023-04-13,2023-04-13,ＹＵＫＩ　ＬＡＮＫＡ　ＩＮＴＥＲＮＡＴＩＯＮＡＬ株式会社,,株式会社,茨城県,坂東市,駒跿８５３番地２,,08,228,3060653,,,,,,,2023-04-13,1,,,,,ユウキランカインターナショナル,0
642,3050003007423,新規,0,2023-04-13,2023-04-13,合同会社秀栄,,合同会社,茨城県,結城市,大字大木２４０番地３,,08,207,3070031,,,,,,,2023-04-13,1,,,,,シュウエイ,0
644,3060003004510,新規,0,2023-04-13,2023-04-13,合同会社ＯＮＥ　ＳＴＥＰ,,合同会社,栃木県,足利市,五十部町１０５７－６・２Ｆ,,09,202,3260843,,,,,,,2023-04-13,1,,,,,ワンステップ,0
654,3100003006964,新規,0,2023-04-13,2023-04-13,合同会社ドーナツブロードキャスト,,合同会社,長野県,長野市,上松３丁目３５番６号,,20,201,3800802,,,,,,,2023-04-13,1,,,,,ドーナツブロードキャスト,0
656,3110001037440,新規,0,2023-04-13,2023-04-13,株式会社Ｌｉｔｈｉ,,株式会社,新潟県,新潟市中央区,万代１丁目１番４号万代ファーストハイツ１Ｆ,,15,103,9500088,,,,,,,2023-04-13,1,,,,,レーテー,0
657,3110001037449,新規,0,2023-04-13,2023-04-13,株式会社ミナレット,,株式会社,新潟県,新潟市中央区,白山浦２丁目１８０番地３,,15,103,9518131,,,,,,,2023-04-13,1,,,,,ミナレット,0
669,3120001253904,新規,0,2023-04-13,2023-04-13,虹村株式会社,,株式会社,大阪府,大阪市生野区,新今里１丁目１０番２６号,,27,116,5440001,,,,,,,2023-04-13,1,,,,,ニジムラ,0
670,3120001253953,新規,0,2023-04-13,2023-04-13,矣仏株式会社,,株式会社,大阪府,大阪市中央区,農人橋２丁目１番３１号第６松屋ビル９８０号室,,27,128,5400011,,,,,,,2023-04-13,1,,,,,イブツ,0
674,3120003023850,新規,0,2023-04-13,2023-04-13,合同会社ジュンコササヌキクリエイション,,合同会社,大阪府,大阪市中央区,粉川町４‐８‐１１０１,,27,128,5400018,,,,,,,2023-04-13,1,,,,,ジュンコササヌキクリエイション,0
676,3120901047397,新規,0,2023-04-13,2023-04-13,株式会社ＳＫＸ,,株式会社,大阪府,高槻市,松が丘１丁目１０番１３号,,27,207,5691031,,,,,,,2023-04-13,1,,,,,エスケーエックス,0
678,3120903004578,新規,0,2023-04-13,2023-04-13,Ｂｉｎｄｕｓ合同会社,,合同会社,大阪府,箕面市,半町１丁目４番２６号,,27,220,5620044,,,,,,,2023-04-13,1,,,,,バインダス,0
681,3130003008644,新規,0,2023-04-13,2023-04-13,ＢａｎｈＭｉＫｙｏｔｏ合同会社,,合同会社,京都府,京都市伏見区,深草フチ町１４番地の８５,,26,109,6128438,,,,,,,2023-04-13,1,,,,,バインミーキョウト,0
694,3140003018956,新規,0,2023-04-13,2023-04-13,合同会社Ｆｒｅｅ,,合同会社,兵庫県,加古川市,野口町水足１２０５番地,,28,210,6750019,,,,,,,2023-04-13,1,,,,,フリー,0
704,3180001155772,新規,0,2023-04-13,2023-04-13,株式会社ネクスト,,株式会社,愛知県,名古屋市中村区,名駅４丁目２４番５号第２森ビル４０１,,23,105,4500002,,,,,,,2023-04-13,1,,,,,ネクスト,0
705,3180001155789,新規,0,2023-04-13,2023-04-13,株式会社Ｎｅｏ　Ｎｅｘｔ,,株式会社,愛知県,名古屋市中川区,露橋２丁目１５番１２号（エバーグリーン八島１棟６０９号）,,23,110,4540022,,,,,,,2023-04-13,1,,,,,ネオネクスト,0
706,3180001155822,新規,0,2023-04-13,2023-04-13,株式会社Ｌｉａｉｓｏｎ,,株式会社,愛知県,名古屋市中区,上前津２丁目１１番１７号上前津パークマンション４０５号,,23,106,4600013,,,,,,,2023-04-13,1,,,,,リエゾン,0
718,3190001030330,新規,0,2023-04-13,2023-04-13,株式会社竜工業,,株式会社,三重県,四日市市,川島町６９４５番地,,24,202,5120934,,,,,,,2023-04-13,1,,,,,リュウコウギョウ,0
730,3220003003495,新規,0,2023-04-13,2023-04-13,合同会社やさしや,,合同会社,石川県,七尾市,中島町浜田１部１６７番地,,17,202,9292241,,,,,,,2023-04-13,1,,,,,ヤサシヤ,0
739,3240001061361,新規,0,2023-04-13,2023-04-13,株式会社捷実,,株式会社,広島県,広島市東区,牛田早稲田３丁目８番５－１号,,34,102,7320062,,,,,,,2023-04-13,1,,,,,ハヤミ,0
756,3290003013769,新規,0,2023-04-13,2023-04-13,合同会社Ｍ’ｓ　ＨＥＡＲＴ,,合同会社,福岡県,福岡市城南区,鳥飼６丁目１０番７－３０５号,,40,136,8140103,,,,,,,2023-04-13,1,,,,,エムズハート,0
757,3290003013777,新規,0,2023-04-13,2023-04-13,フリーライフ合同会社,,合同会社,福岡県,福岡市南区,鶴田４丁目２７番６－１号,,40,134,8111352,,,,,,,2023-04-13,1,,,,,フリーライフ,0
760,3300001013265,新規,0,2023-04-13,2023-04-13,株式会社玖伸,,株式会社,佐賀県,伊万里市,新天町２１１番地１,,41,205,8480041,,,,,,,2023-04-13,1,,,,,キュウシン,0
763,3310005008673,新規,0,2023-04-13,2023-04-13,医療法人あしざわ内科,,その他の設立登記法人,長崎県,長崎市,小峰町３番１３号－２Ｆ,,42,201,8528125,,,,,,,2023-04-13,1,,,,,アシザワナイカ,0
765,3330001030753,新規,0,2023-04-13,2023-04-13,ＴＳメンテナンス株式会社,,株式会社,熊本県,荒尾市,荒尾３８９９番地,,43,204,8640041,,,,,,,2023-04-13,1,,,,,ティーエスメンテナンス,0
766,3330003009804,新規,0,2023-04-13,2023-04-13,合同会社ＹＨＳ,,合同会社,熊本県,熊本市北区,西梶尾町６０４番地５,,43,105,8615516,,,,,,,2023-04-13,1,,,,,ワイエイチエス,0
767,3340001025505,新規,0,2023-04-13,2023-04-13,株式会社ＭＡＴＥ,,株式会社,鹿児島県,姶良市,船津６９２番地２,,46,225,8995655,,,,,,,2023-04-13,1,,,,,メイト,0
768,3340003004102,新規,0,2023-04-13,2023-04-13,合同会社ネクストマインド,,合同会社,鹿児島県,鹿児島市,吉野町１１１０９番地２,,46,201,8920871,,,,,,,2023-04-13,1,,,,,ネクストマインド,0
769,3340005009586,新規,0,2023-04-13,2023-04-13,一般社団法人鹿児島地域医療介護ネットワーク,,その他の設立登記法人,鹿児島県,薩摩川内市,大小路町７０番２６号,,46,215,8950076,,,,,,,2023-04-13,1,,,,,カゴシマチイキイリョウカイゴネットワーク,0
770,3350003004340,新規,0,2023-04-13,2023-04-13,合同会社手作りパン工房ふわり,,合同会社,宮崎県,日南市,戸高２丁目３番地１,,45,204,8870031,,,,,,,2023-04-13,1,,,,,テヅクリパンコウボウフワリ,0
779,3370005010616,新規,0,2023-04-13,2023-04-13,准心院,,その他の設立登記法人,宮城県,東松島市,小松字上二間堀２６番地,,04,214,9810504,,,,,,,2023-04-13,1,,,,,ジュンシンイン,0
780,3370601000103,新規,0,2023-04-13,2023-04-13,株式会社海老鉄工所,,株式会社,宮城県,塩竈市,本町１２番１３号,,04,203,9850052,,,,,,,2023-04-13,1,,,,,エビテッコウショ,0
785,3380003005435,新規,0,2023-04-13,2023-04-13,ビットバレー合同会社,,合同会社,福島県,福島市,鎌田字原際３１番地,,07,201,9600102,,,,,,,2023-04-13,1,,,,,ビットバレー,0
786,3400005008318,新規,0,2023-04-13,2023-04-13,一般社団法人久保川イーハトーブ自然再生研究所,,その他の設立登記法人,岩手県,一関市,萩荘字焼切１７９番地７,,03,209,0210102,,,,,,,2023-04-13,1,,,,,クボガワイーハトーブシゼンサイセイケンキュウショ,0
789,3430001088906,新規,0,2023-04-13,2023-04-13,株式会社ルイシスさっぽろ,,株式会社,北海道,札幌市中央区,南十五条西１５丁目２番８－４０３号,,01,101,0640915,,,,,,,2023-04-13,1,,,,,ルイシスサッポロ,0
791,3430003014918,新規,0,2023-04-13,2023-04-13,合同会社ｅｚｏｐｍａｎ,,合同会社,北海道,札幌市厚別区,厚別南２丁目１３番２８号キャッスル肇１階,,01,108,0040022,,,,,,,2023-04-13,1,,,,,エゾップマン,0
795,3470003002398,新規,0,2023-04-13,2023-04-13,香川ＴＲＥＥ　ＷＯＲＫＳ合同会社,,合同会社,香川県,坂出市,川津町３７２０番地２,,37,203,7620025,,,,,,,2023-04-13,1,,,,,カガワツリーワークス,0
799,3500001024878,新規,0,2023-04-13,2023-04-13,株式会社美咲,,株式会社,愛媛県,今治市,郷六ヶ内町３丁目１番３７号,,38,202,7940825,,,,,,,2023-04-13,1,,,,,ミサキ,0
801,3700150115383,新規,0,2023-04-13,2023-04-13,ＺＩＬＯＮＧ,,外国会社等,,,,,,,,Ｂｕ　Ｊｉ，Ｂａｉ　Ｈｅ　Ｘｉｎｇ　Ｃｈｅｎｇ　Ｂａｉ　Ｈｅ　Ｈｏｔｅｌ　１９Ｆ　Ｒｅｓｉｄｅｎｔｉａｌ　Ｂｕｉｌｄｉｎｇ　Ｌｏｎｇ　Ｇａｎｇ　Ｄｉｓｔｒｉｃｔ　Ｓｈｅｎ　Ｚｈｅｎ　５１８０００　ＣＮ,,,,,,2023-04-13,1,,,,,シェンジェンハオハンイングワンコージーヨウシエンゴンスー,0
802,3700150115400,新規,0,2023-04-13,2023-04-13,ｙｉｗｕｓｈｉｈｕｗｅｎｄｉａｎｚｉｓｈａｎｇｗｕｙｏｕｘｉａｎｇｏｎｇｓｉ,,外国会社等,,,,,,,,ｚｈｅｊｉａｎｇｓｈｅｎｇｙｉｗｕｓｈｉｂｅｉｙｕａｎｊｉｅｄａｏｗａｎｇｄａｏｌｕ３１８ｈａｏｋｕａｊｉｅｙｕａｎ２ｑｕ３ｌｏｕ３４０,,,,,,2023-04-13,1,,,,,イウシフーモンデンシシヨウムユウゲンコウシ,0
803,3700150115409,新規,0,2023-04-13,2023-04-13,Ｇｕａｎｇｚｈｏｕ　Ｉｓｓｙｚｏｎｅ　Ｔｅｃｈｎｏｌｏｇｙ　Ｃｏ．，Ｌｉｍｉｔｅｄ,,外国会社等,,,,,,,,Ｒｏｏｍ　３０９，Ｔａｉｒｏｎｇ　Ｂｕｓｉｎｅｓｓ　Ｃｅｎｔｅｒ　Ｂｕｉｌｄｉｎｇ　Ｃ１０，Ｎｏ．６３，Ｘｉｚｅｎｇ　Ｒｏａｄ，Ｌｉｗａｎ　Ｄｉｓｔｒｉｃｔ　Ｇｕａｎｇｚｈｏｕ　Ｇｕａｎｇｄｏｎｇ，,,,,,,2023-04-13,1,,,,,コウシユウレスゾーンテクノロジーカンパニーリミテツト,0
804,3700150115417,新規,0,2023-04-13,2023-04-13,Ｔｅｃｈ－Ｏｒｉｇｉｎａｌ　Ｃｏ．，Ｌｔｄ．,,外国会社等,,,,,,,,Ｂｕｉｌｄｉｎｇ　３９，Ｒｍ．１７０２．Ｈｅｎｓｈｅｎｇ　Ｓｃｉ－ｔｅｃｈ　Ｚｏｎｅ．Ｒｄ（Ｗ）．ＷｅｎｙｉＮｏ．１２１８，Ｙｕｈａｎｇ　Ｄｉｓｔｒｉｃ，Ｈａｎｇｚｈｏｕ，Ｚｈｅｊｉａｎｇ，Ｃｈｉｎａ,,,,,,2023-04-13,1,,,,,ハンジョウチーユエンコージーヨウシエンゴンスー,0
805,3700150115425,新規,0,2023-04-13,2023-04-13,カツマゼン開発有限公司,,外国会社等,京都府,京都市中京区,道場町１１－１,,26,104,6040001,（１０６）　台北市大安区新生南路一段１６５巷２２號３楼,,,,,,2023-04-13,1,,,,,カツマゼンカイハツユウゲンコウシ,0
817,4010003040336,新規,0,2023-04-13,2023-04-13,ＢＬＵＥＤＧＥ合同会社,,合同会社,東京都,中央区,銀座１丁目１２番４号Ｎ＆Ｅ　ＢＬＤ．６Ｆ,,13,102,1040061,,,,,,,2023-04-13,1,,,,,ブルーエッジ,0
820,4010005036514,新規,0,2023-04-13,2023-04-13,司法書士法人Ｅ２コンサルタンツ,,その他の設立登記法人,東京都,中央区,八重洲１丁目４番１６号東京建物八重洲ビル３階,,13,102,1030028,,,,,,,2023-04-13,1,,,,,イーツーコンサルタンツ,0
836,4010501050258,新規,0,2023-04-13,2023-04-13,ＧＲＡＮＤ　ＬＡＮＥ株式会社,,株式会社,東京都,台東区,北上野２丁目２５番９号－３０７号室,,13,106,1100014,,,,,,,2023-04-13,1,,,,,グランドレーン,0
840,4010601062913,新規,0,2023-04-13,2023-04-13,株式会社ＺＥＮ,,株式会社,東京都,墨田区,吾妻橋１丁目９番４号１Ｆ,,13,107,1300001,,,,,,,2023-04-13,1,,,,,ゼン,0
859,4011101102473,新規,0,2023-04-13,2023-04-13,株式会社Ｃ．Ｂ　ＰＡＲＴＮＥＲＳ,,株式会社,東京都,新宿区,大久保２丁目２番１６号新宿ＩＳビル３階,,13,104,1690072,,,,,,,2023-04-13,1,,,,,シービーパートナーズ,0
861,4011103012919,新規,0,2023-04-13,2023-04-13,Ｑｕａｒｋ合同会社,,合同会社,東京都,新宿区,西新宿３丁目３番１３号西新宿水間ビル６階,,13,104,1600023,,,,,,,2023-04-13,1,,,,,クォーク,0
863,4011301028626,新規,0,2023-04-13,2023-04-13,ｓｍｉｌｅｍａｄｅ株式会社,,株式会社,東京都,杉並区,浜田山１丁目４番７号,,13,115,1680065,,,,,,,2023-04-13,1,,,,,スマイルメイド,0
864,4011401025044,新規,0,2023-04-13,2023-04-13,株式会社巨鹿,,株式会社,東京都,板橋区,大山金井町９番７－８０１Ｂ,,13,119,1730024,,,,,,,2023-04-13,1,,,,,キョロク,0
874,4011701026139,新規,0,2023-04-13,2023-04-13,株式会社燎,,株式会社,東京都,江戸川区,西葛西７丁目１９番６号マツイハイツ２０３,,13,123,1340088,,,,,,,2023-04-13,1,,,,,カガリビ,0
883,4012401040405,新規,0,2023-04-13,2023-04-13,株式会社ｅｃｈｏｅ,,株式会社,東京都,武蔵野市,吉祥寺本町１丁目２０番１号吉祥寺永谷シティプラザ１００２,,13,203,1800004,,,,,,,2023-04-13,1,,,,,エコー,0
886,4012703002672,新規,0,2023-04-13,2023-04-13,合同会社ＰＯＫＥＴＳ,,合同会社,東京都,西東京市,東町３丁目１０番１０－５０５号,,13,229,2020012,,,,,,,2023-04-13,1,,,,,ポケッツ,0
887,4012703002680,新規,0,2023-04-13,2023-04-13,合同会社ピーオーコミュニケーションズ,,合同会社,東京都,清瀬市,元町２丁目３番９－１０２号,,13,221,2040021,,,,,,,2023-04-13,1,,,,,ピーオーコミュニケーションズ,0
888,4012805003189,新規,0,2023-04-13,2023-04-13,一般社団法人Ｗａｌｋ,,その他の設立登記法人,東京都,武蔵村山市,本町１丁目３２番地の４,,13,223,2080004,,,,,,,2023-04-13,1,,,,,ウォーク,0
890,4013301050601,新規,0,2023-04-13,2023-04-13,株式会社ＧＲＡＮＤＤＥＳＩＧＮ,,株式会社,東京都,豊島区,南池袋２丁目９番９号,,13,116,1710022,,,,,,,2023-04-13,1,,,,,グランドデザイン,0
892,4013303006584,新規,0,2023-04-13,2023-04-13,東大ノ秋書堂合同会社,,合同会社,東京都,豊島区,東池袋１丁目１７番１１－６０６号パークハイツ池袋,,13,116,1700013,,,,,,,2023-04-13,1,,,,,トウダイノアキショドウ,0
902,4020001151068,新規,0,2023-04-13,2023-04-13,ＩＰＡ国際教育グループ株式会社,,株式会社,神奈川県,横浜市西区,花咲町５丁目１３６番地５,,14,103,2200022,,,,,,,2023-04-13,1,,,,,アイピーエーコクサイキョウイクグループ,0
903,4020001151101,新規,0,2023-04-13,2023-04-13,株式会社Ｍｅｔｅｏｎｚ,,株式会社,神奈川県,横浜市旭区,川井宿町１４－１,,14,112,2410804,,,,,,,2023-04-13,1,,,,,メテオンズ,0
904,4020001151142,新規,0,2023-04-13,2023-04-13,プロジェット株式会社,,株式会社,神奈川県,横浜市神奈川区,六角橋６丁目３０番７号,,14,102,2210802,,,,,,,2023-04-13,1,,,,,プロジェット,0
915,4021003012992,新規,0,2023-04-13,2023-04-13,合同会社アース・ゲート・コミュニケーション,,合同会社,神奈川県,相模原市中央区,由野台２丁目２７番７号,,14,152,2520222,,,,,,,2023-04-13,1,,,,,アースゲートコミュニケーション,0
921,4030001153212,新規,0,2023-04-13,2023-04-13,株式会社Ｐａｉｎｔ　Ｇａｒａｇｅ　ＺＥＮ,,株式会社,埼玉県,朝霞市,根岸台２丁目１５番５号,,11,227,3510005,,,,,,,2023-04-13,1,,,,,ペイントガレージゼン,0
922,4030001153352,新規,0,2023-04-13,2023-04-13,株式会社都,,株式会社,埼玉県,川口市,並木３丁目１４番７号ブライズＶ６０２,,11,203,3320034,,,,,,,2023-04-13,1,,,,,ミヤコ,0
923,4030001153369,新規,0,2023-04-13,2023-04-13,株式会社裕和国際,,株式会社,埼玉県,戸田市,喜沢１丁目３０－４ブライトンＩＩ１０２号室,00130090,11,224,3350013,,,,,,,2023-04-13,1,,,,,ユウワコクサイ,0
924,4030001153377,新規,0,2023-04-13,2023-04-13,株式会社ヒカラセ,,株式会社,埼玉県,川口市,大字芝７２１９番地の１０,,11,203,3330866,,,,,,,2023-04-13,1,,,,,ヒカラセ,0
931,4040003022380,新規,0,2023-04-13,2023-04-13,ＲＳＦ合同会社,,合同会社,千葉県,柏市,戸張１５１０番地２,,12,217,2770008,,,,,,,2023-04-13,1,,,,,アールエスエフ,0
943,4080001025571,新規,0,2023-04-13,2023-04-13,株式会社エス・ビー・ケイ,,株式会社,静岡県,静岡市駿河区,八幡２丁目７番１３号,,22,102,4228076,,,,,,,2023-04-13,1,,,,,エスビーケイ,0
948,4090001018079,新規,0,2023-04-13,2023-04-13,株式会社コバヤシ,,株式会社,山梨県,南巨摩郡富士川町,鰍沢１５４１番地１,,19,368,4000601,,,,,,,2023-04-13,1,,,,,コバヤシ,0
949,4090005007557,新規,0,2023-04-13,2023-04-13,一般社団法人睡眠栄養指導士協会,,その他の設立登記法人,山梨県,甲府市,酒折町１３４０番地１０号,,19,201,4000804,,,,,,,2023-04-13,1,,,,,スイミンエイヨウシドウシキョウカイ,0
963,4120001253928,新規,0,2023-04-13,2023-04-13,ＬＩＥＮ　ｓｅｃｕｒｉｔｙ株式会社,,株式会社,大阪府,大阪市都島区,友渕町１丁目３番３２－４０４号,,27,102,5340016,,,,,,,2023-04-13,1,,,,,リアンセキュリィティー,0
964,4120001253936,新規,0,2023-04-13,2023-04-13,株式会社ａｃｃａ,,株式会社,大阪府,大阪市北区,曾根崎新地１丁目５番９号６階,,27,127,5300002,,,,,,,2023-04-13,1,,,,,アッカ,0
965,4120001253952,新規,0,2023-04-13,2023-04-13,華豊国際株式会社,,株式会社,大阪府,大阪市東住吉区,住道矢田４丁目１６番２２号,,27,121,5460022,,,,,,,2023-04-13,1,,,,,カホウコクサイ,0
966,4120001254018,新規,0,2023-04-13,2023-04-13,株式会社リフォベル,,株式会社,大阪府,大阪市鶴見区,放出東３丁目２１番４０号２０５号室,,27,124,5380044,,,,,,,2023-04-13,1,,,,,リフォベル,0
967,4120003023809,新規,0,2023-04-13,2023-04-13,萬藤合同会社,,合同会社,大阪府,大阪市中央区,西心斎橋２丁目１２番２２号朝日プラザ心斎橋４２１号室,,27,128,5420086,,,,,,,2023-04-13,1,,,,,マントウ,0
968,4120003023817,新規,0,2023-04-13,2023-04-13,陽保合同会社,,合同会社,大阪府,大阪市城東区,成育２丁目１０番２６－４０７号,,27,118,5360007,,,,,,,2023-04-13,1,,,,,ヨウホ,0
974,4120101067328,新規,0,2023-04-13,2023-04-13,株式会社ＯＳＧ,,株式会社,大阪府,貝塚市,馬場１９０－１,,27,208,5970103,,,,,,,2023-04-13,1,,,,,オーエスジー,0
977,4120901047396,新規,0,2023-04-13,2023-04-13,株式会社ヤマサン,,株式会社,大阪府,箕面市,森町南１丁目４番２４号,,27,220,5630258,,,,,,,2023-04-13,1,,,,,ヤマサン,0
984,4130001074051,新規,0,2023-04-13,2023-04-13,株式会社ハレルヤ,,株式会社,京都府,京都市西京区,大枝沓掛町８－５９ダコタハウス１０３号,,26,111,6101106,,,,,,,2023-04-13,1,,,,,ハレルヤ,0
989,4130003008651,新規,0,2023-04-13,2023-04-13,合同会社Ｋａｗａｍｏｔｏ　Ｂａｌｌｅｔ　Ｌｉｇｈｔｉｎｇ　Ｄｅｓｉｇｎ　Ｏｆｆｉｃｅ,,合同会社,京都府,宇治市,炭山土井谷８番地の７,,26,204,6011395,,,,,,,2023-04-13,1,,,,,カワモトバレエライティングデザインオフィス,0
997,4140001129754,新規,0,2023-04-13,2023-04-13,株式会社ｃａｄｏｄｅ,,株式会社,兵庫県,尼崎市,上坂部３丁目３－１１,,28,202,6610979,,,,,,,2023-04-13,1,,,,,カドデ,0
999,4140003018955,新規,0,2023-04-13,2023-04-13,合同会社桜か奈,,合同会社,兵庫県,神戸市北区,有野台９丁目４番の６,,28,109,6511321,,,,,,,2023-04-13,1,,,,,サクラカナ,0
1010,4180001155796,新規,0,2023-04-13,2023-04-13,亀山株式会社,,株式会社,愛知県,名古屋市天白区,植田西１丁目６０１番地,,23,116,4680058,,,,,,,2023-04-13,1,,,,,カメヤマ,0
1011,4180001155821,新規,0,2023-04-13,2023-04-13,ＫＡＲＩＭ　ＴＲＡＤＩＮＧ　ＪＡＰＡＮ株式会社,,株式会社,愛知県,大府市,長草町新池８８番地の１０５,,23,223,4740052,,,,,,,2023-04-13,1,,,,,カリムトレーディングジャパン,0
1022,4190001030321,新規,0,2023-04-13,2023-04-13,株式会社のみたい屋,,株式会社,三重県,津市,羽所町３５１番地エイトビル２Ｆ,,24,201,5140009,,,,,,,2023-04-13,1,,,,,ノミタイヤ,0
1023,4200003005930,新規,0,2023-04-13,2023-04-13,エラマ合同会社,,合同会社,岐阜県,高山市,国府町半田２３５,,21,203,5094114,,,,,,,2023-04-13,1,,,,,エラマ,0
1027,4210003001631,新規,0,2023-04-13,2023-04-13,合同会社エス,,合同会社,福井県,今立郡池田町,広瀬字３０,,18,382,9102506,,,,,,,2023-04-13,1,,,,,エス,0
1030,4230001019789,新規,0,2023-04-13,2023-04-13,株式会社ＺＡＩＭＡＳＵ,,株式会社,富山県,富山市,内幸町１番６号,,16,201,9300093,,,,,,,2023-04-13,1,,,,,ザイマス,0
1031,4240001061352,新規,0,2023-04-13,2023-04-13,広島駅周辺地区・都心まちづくり株式会社,,株式会社,広島県,広島市南区,松原町９番１号,,34,103,7320822,,,,,,,2023-04-13,1,,,,,ヒロシマエキシュウヘンチクトシンマチヅクリ,0
1039,4280005007546,新規,0,2023-04-13,2023-04-13,協同組合山陰キャリア開発,,その他の設立登記法人,島根県,松江市,玉湯町林４０７番地,,32,201,6990204,,,,,,,2023-04-13,1,,,,,,0
1042,4290001101145,新規,0,2023-04-13,2023-04-13,なかがわ市民エネルギー株式会社,,株式会社,福岡県,那珂川市,大字別所４８０番地１,,40,231,8111245,,,,,,,2023-04-13,1,,,,,ナカガワシミンエネルギー,0
1044,4290003013768,新規,0,2023-04-13,2023-04-13,合同会社とくや,,合同会社,福岡県,糸島市,曽根５７９番地,,40,230,8191561,,,,,,,2023-04-13,1,,,,,トクヤ,0
1049,4310005008672,新規,0,2023-04-13,2023-04-13,一般社団法人長崎東高同窓会,,その他の設立登記法人,長崎県,長崎市,立山５丁目１３番１号,,42,201,8500007,,,,,,,2023-04-13,1,,,,,ナガサキヒガシコウドウソウカイ,0
1050,4320003004061,新規,0,2023-04-13,2023-04-13,合同会社ミコト総建,,合同会社,大分県,由布市,湯布院町中川８１０－１サンタハウスＢ２０３号室,,44,213,8795104,,,,,,,2023-04-13,1,,,,,ミコトソウケン,0
1051,4330003009803,新規,0,2023-04-13,2023-04-13,合同会社紙谷不動産,,合同会社,熊本県,熊本市北区,清水新地１丁目５番３０号エスポワール２０１,,43,105,8618075,,,,,,,2023-04-13,1,,,,,,0
1055,4340001025504,新規,0,2023-04-13,2023-04-13,株式会社ＳＡＫＵＲＡコマース,,株式会社,鹿児島県,鹿児島市,本港新町４番１号,,46,201,8920814,,,,,,,2023-04-13,1,,,,,,0
1056,4340001025512,新規,0,2023-04-13,2023-04-13,株式会社山師,,株式会社,鹿児島県,伊佐市,菱刈市山１２３３番地７,,46,224,8952704,,,,,,,2023-04-13,1,,,,,ヤマシ,0
1060,4360001031847,新規,0,2023-04-13,2023-04-13,株式会社万国津梁,,株式会社,沖縄県,沖縄市,中央３丁目５－４３,,47,211,9040004,,,,,,,2023-04-13,1,,,,,バンコクシンリョウ,0
1061,4360001031855,新規,0,2023-04-13,2023-04-13,株式会社大豊開発,,株式会社,沖縄県,国頭郡恩納村,字瀬良垣１６６６番地１階,,47,311,9040404,,,,,,,2023-04-13,1,,,,,タイホウカイハツ,0
1062,4360003012878,新規,0,2023-04-13,2023-04-13,合同会社シャ・プラン,,合同会社,沖縄県,浦添市,大平２丁目２－６ひろえハイツ２０２号,,47,208,9012113,,,,,,,2023-04-13,1,,,,,シャプラン,0
1064,4370001049797,新規,0,2023-04-13,2023-04-13,東北電力トランスコスモスマネジメントパートナー株式会社,,株式会社,宮城県,仙台市青葉区,本町１丁目７番１号,,04,101,9800014,,,,,,,2023-04-13,1,,,,,トウホクデンリョクトランスコスモスマネジメントパートナー,0
1065,4370001049839,新規,0,2023-04-13,2023-04-13,株式会社ＳＡＩＮＯ,,株式会社,宮城県,仙台市宮城野区,小田原１丁目６番４４号,,04,102,9830803,,,,,,,2023-04-13,1,,,,,サイノ,0
1069,4370005010615,新規,0,2023-04-13,2023-04-13,特定非営利活動法人フードバンク仙台,,その他の設立登記法人,宮城県,仙台市青葉区,五橋２丁目６番地１６号－１０１号室,,04,101,9800022,,,,,,,2023-04-13,1,,,,,フードバンクセンダイ,0
1075,4380001033610,新規,0,2023-04-13,2023-04-13,株式会社高建,00130098,株式会社,福島県,いわき市,勿来町関田堀切７６－１ツインヴィレッジａ,,07,204,9790146,,,,,,,2023-04-13,1,,,,,コウケン,0
1076,4380003005434,新規,0,2023-04-13,2023-04-13,合同会社ウィステリア商事,,合同会社,福島県,いわき市,錦町入原５１―１５きりんハウスＡ,,07,204,9748232,,,,,,,2023-04-13,1,,,,,ウィステリアショウジ,0
1085,4430001088814,新規,0,2023-04-13,2023-04-13,株式会社エースパック,,株式会社,北海道,白老郡白老町,本町１丁目２番２９号,,01,578,0590906,,,,,,,2023-04-13,1,,,,,エースパック,0
1086,4430001088830,新規,0,2023-04-13,2023-04-13,株式会社サルパカンパニー,,株式会社,北海道,江別市,大麻沢町１１番地の１４,,01,217,0690842,,,,,,,2023-04-13,1,,,,,サルパカンパニー,0
1088,4430003014909,新規,0,2023-04-13,2023-04-13,合同会社ＬＴＳ,,合同会社,北海道,札幌市西区,発寒五条５丁目６番２２号,,01,107,0630825,,,,,,,2023-04-13,1,,,,,エルティーエス,0
1090,4470003002397,新規,0,2023-04-13,2023-04-13,合同会社早瀬,,合同会社,香川県,高松市,国分寺町福家甲２４１９番地２,,37,201,7690103,,,,,,,2023-04-13,1,,,,,ハヤセ,0
1096,4700150115382,新規,0,2023-04-13,2023-04-13,Ｙｉｗｕｓｈｉｘｉｕｌｉｍａｏｙｉｙｏｕｘｉａｎｇｏｎｇｓｉ,,外国会社等,,,,,,,,ｊｉａｎｇｄｏｎｇｑｕｓｈｉｔａｔｏｕ７９ｄｏｎｇ５ｄａｎｙｕａｎ２０２ｓｈｉ　ｊｉｎｈｕａｓｈｉ　ｙｉｗｕｓｈｉ　ｚｈｅｊｉａｎｇｓｈｅｎｇ,,,,,,2023-04-13,1,,,,,イーウーシーシューリーマオイーヨウシエンゴンスー,0
1097,4700150115399,新規,0,2023-04-13,2023-04-13,Ｂｅｉｊｉｎｇ　Ｘｉｎｙｏｕ　Ｌｉｎｇｘｉ　Ｔｅｃｈｎｏｌｏｇｙ　Ｃｏ．，Ｌｔｄ．,,外国会社等,,,,,,,,Ｂｅｉｊｉｎｇ　ｄｏｎｇｃｈｅｎｇｑｕ　ｈｅｐｉｎｇｌｉ　ｄｏｎｇｊｉｅ１１ｈａｏ　ｃｈｕａｎｇｘｉｎｌｏｕＡｚｕｏ　ｙｉｃｅｎｇ　Ｙ１ｈａｏ１０,,,,,,2023-04-13,1,,,,,ペンキンシンユウレイシテクノロジーカンパニーリミテツド,0
1098,4700150115408,新規,0,2023-04-13,2023-04-13,ｓｈｅｎ　ｚｈｅｎ　ｗｅｎ　ｄａ　ｘｉ　ｎａ　ｋｅ　ｊｉ　ｙｏｕ　ｘｉａｎ　ｇｏｎｇ　ｓｉ,,外国会社等,,,,,,,,Ｌｏｎｇｈｕａ　Ｄｉｓｔ．，Ｍｉｎｚｈｉ　Ｒｄ．，Ｘｉｎｎｉｕ　ｃｏｍｍｕｎｉｔｙ，Ｍｉｎｚｈｉ　Ａｖ．，ＮＯ．６９０，Ｄｏｎｇｍｅｎｇ　Ｂｌｄｇ．，Ｆｌｏｏｒ　３　Ｂ０６，Ｓｈｅｎｚｈｅｎ,,,,,,2023-04-13,1,,,,,シンセンヴインダシナテクノロジーユウゲンコウシ,0
1099,4700150115416,新規,0,2023-04-13,2023-04-13,ｓｈｅｎ　ｚｈｅｎ　ｓｈｉ　ａｎ　ｍｕ　ｎｉ　ｆｕ　ｚｈｕａｎｇ　ｆｕ　ｓｈｉ　ｃｏ．，ｌｔｄ,,外国会社等,,,,,,,,ｌｏｎｇ　ｇａｎｇ　ｑｕ　ｂａｎ　ｔｉａｎ　ｊｉｅ　ｄａｏ　ｙａ　ｙｕａｎ　ｌｕ　７　ｈａｏ　ｚｈｏｎｇ　ｈａｉ　ｙｕｅ　ｌａｎｇ　ｙｕａｎ　１　ｄｏｎｇ　７　ｄａｎ　ｙｕａｎ　１０Ｂ　ｓｈｅｎ　ｚｈｅｎ　ｓｈｉ　ｇｕａｎｇ　ｄｏｎｇ　ｓｈｅｎｇ　ＣＮ　５１８１２９,,,,,,2023-04-13,1,,,,,シェンジェンシーアンムーニーフージュワンフーシーヨウシエンゴンスー,0
1100,4700150115424,新規,0,2023-04-13,2023-04-13,ＳＨＥＮＺＨＥＮ　ＧＡＯＤＡＦＥＩ　ＴＥＣＨＮＯＬＯＧＹ　ＣＯ．，ＬＴＤ．,,外国会社等,,,,,,,,Ｂｕｉｌｄｉｎｇ　４　ｎｏ．４０３，Ｈｉｓｅｎｓｅ　Ｉｎｄｕｓｔｒｉａｌ　Ｐａｒｋ　ＮＯ．２　Ｓｈｅｎｇ　Ｂａｏ　Ｒｏａｄ，Ｓｏｕｔｈ　Ｂａｙ　Ｓｔｒｅｅｔ，Ｌｏｎｇｇａｎｇ　Ｄｉｓｔｒｉｃｔ　Ｓｈｅｎｚｈｅｎ　Ｇｕａｎｇｄｏｎｇ　５１８０００　ＣＮ,,,,,,2023-04-13,1,,,,,シェンジェンシーガオダーフェイコージーヨウシエンゴンスー,0
1111,5010001234483,新規,0,2023-04-13,2023-04-13,ＦＷＴ　ＪＡＰＡＮ株式会社,,株式会社,東京都,中央区,東日本橋３丁目９番１２号,,13,102,1030004,,,,,,,2023-04-13,1,,,,,エフダブリューティージャパン,0
1114,5010003040269,新規,0,2023-04-13,2023-04-13,合同会社Ｓｉｎｃｅｒｕｓ,,合同会社,東京都,中央区,銀座１丁目１２番４号Ｎ＆ＥＢＬＤ．６Ｆ,,13,102,1040061,,,,,,,2023-04-13,1,,,,,シンセラス,0
1115,5010003040319,新規,0,2023-04-13,2023-04-13,合同会社リカク,,合同会社,東京都,中央区,日本橋室町１丁目１１番１２号日本橋水野ビル７階,,13,102,1030022,,,,,,,2023-04-13,1,,,,,リカク,0
1116,5010003040327,新規,0,2023-04-13,2023-04-13,合同会社ＣＭＳ,,合同会社,東京都,中央区,勝どき５丁目５番１４－４１９号,,13,102,1040054,,,,,,,2023-04-13,1,,,,,シーエムエス,0
1125,5010401173604,新規,0,2023-04-13,2023-04-13,発園地国際企業孵化器株式会社,,株式会社,東京都,港区,赤坂２丁目２３番１号アークヒルズ・フロントタワーＩｎＣｏｎｔｒｏｌ内,,13,103,1070052,,,,,,,2023-04-13,1,,,,,ハツエンチコクサイキギョウフカキ,0
1126,5010401173728,新規,0,2023-04-13,2023-04-13,ＷＥＬＩＳＭ株式会社,,株式会社,東京都,港区,芝５丁目１６－１４三田ノックスビル３Ｆ・４Ｆ,,13,103,1080014,,,,,,,2023-04-13,1,,,,,ウェリズム,0
1135,5010601062904,新規,0,2023-04-13,2023-04-13,株式会社タダコ,,株式会社,東京都,江東区,大島８丁目３４番１１号,,13,108,1360072,,,,,,,2023-04-13,1,,,,,タダコ,0
1149,5010901052869,新規,0,2023-04-13,2023-04-13,ＣｏｉｎＥＺ株式会社,,株式会社,東京都,世田谷区,代沢５丁目４番１８－１１３号,,13,112,1550032,,,,,,,2023-04-13,1,,,,,,0
1156,5011003016630,新規,0,2023-04-13,2023-04-13,合同会社ＬＬＣ,,合同会社,東京都,渋谷区,鶯谷町１６番６号,,13,113,1500032,,,,,,,2023-04-13,1,,,,,エルエルシー,0
1160,5011103012926,新規,0,2023-04-13,2023-04-13,合同会社Ｋ・Ｉ,,合同会社,東京都,新宿区,西新宿５丁目１８番２６－１０２号,,13,104,1600023,,,,,,,2023-04-13,1,,,,,ケーアイ,0
1161,5011103012934,新規,0,2023-04-13,2023-04-13,合同会社アドウィズ,,合同会社,東京都,新宿区,西新宿３丁目３番１３号西新宿水間ビル２Ｆ,,13,104,1600023,,,,,,,2023-04-13,1,,,,,アドウィズ,0
1165,5011303004723,新規,0,2023-04-13,2023-04-13,合同会社りとな,,合同会社,東京都,杉並区,高井戸西１丁目４番１６号クランツ高井戸２０３,,13,115,1680071,,,,,,,2023-04-13,1,,,,,リトナ,0
1167,5011601026725,新規,0,2023-04-13,2023-04-13,株式会社バレル,,株式会社,東京都,練馬区,北町７丁目７番２８号,,13,120,1790081,,,,,,,2023-04-13,1,,,,,バレル,0
1168,5011603003895,新規,0,2023-04-13,2023-04-13,合同会社ネコの手貸します,,合同会社,東京都,練馬区,旭丘２丁目２４番４号,,13,120,1760005,,,,,,,2023-04-13,1,,,,,ネコノテカシマス,0
1169,5011701026138,新規,0,2023-04-13,2023-04-13,株式会社Ｓｙｌｐｈｅｅｄ,,株式会社,東京都,江戸川区,南小岩６丁目３１番１０－１００９号プラウドタワー小岩ファースト,,13,123,1330056,,,,,,,2023-04-13,1,,,,,シルフィード,0
1170,5011703003440,新規,0,2023-04-13,2023-04-13,合同会社エンゲージ,,合同会社,東京都,江戸川区,中葛西４丁目１３－３アサヒハイツ２０２,,13,123,1340083,,,,,,,2023-04-13,1,,,,,エンゲージ,0
1171,5011705001780,新規,0,2023-04-13,2023-04-13,行政書士法人大津留事務所,,その他の設立登記法人,東京都,江戸川区,南篠崎町２丁目１０番７号,,13,123,1330065,,,,,,,2023-04-13,1,,,,,オオツルジムショ,0
1172,5011801042225,新規,0,2023-04-13,2023-04-13,株式会社タイガーエレファント東京亀有,,株式会社,東京都,葛飾区,亀有１丁目１０番１３号すまいる亀有５１１,,13,122,1250061,,,,,,,2023-04-13,1,,,,,タイガーエレファントトウキョウカメアリ,0
1173,5011803005584,新規,0,2023-04-13,2023-04-13,合同会社エドニカル,,合同会社,東京都,足立区,千住５丁目１３番１－３０３号日神パレス北千住,,13,121,1200034,,,,,,,2023-04-13,1,,,,,エドニカル,0
1174,5012401040404,新規,0,2023-04-13,2023-04-13,株式会社スコレックス,,株式会社,東京都,武蔵野市,吉祥寺本町１丁目３６番１２号ドムール七井１０５,,13,203,1800004,,,,,,,2023-04-13,1,,,,,スコレックス,0
1178,5012803003058,新規,0,2023-04-13,2023-04-13,合同会社ＢＹＲＯＮ,,合同会社,東京都,国分寺市,西恋ヶ窪３丁目１２－１４グリーンヒルズ武蔵２０２,,13,214,1850013,,,,,,,2023-04-13,1,,,,,バイロン,0
1188,5013303006583,新規,0,2023-04-13,2023-04-13,ＬＵＵＨＯＡＮＧ合同会社,,合同会社,東京都,豊島区,上池袋１丁目３５番１０－３０３号,,13,116,1700012,,,,,,,2023-04-13,1,,,,,リューホアン,0
1194,5020001151067,新規,0,2023-04-13,2023-04-13,株式会社Ｄ’ｚ,,株式会社,神奈川県,川崎市宮前区,宮崎３丁目３番地４０コスモヒルズ宮崎台６０５,,14,136,2160033,,,,,,,2023-04-13,1,,,,,ディーズ,0
1198,5020003023727,新規,0,2023-04-13,2023-04-13,合同会社ラビットマスター,,合同会社,神奈川県,横浜市南区,平楽９１番地５－１０３号,,14,105,2320035,,,,,,,2023-04-13,1,,,,,ラビットマスター,0
1199,5020003023735,新規,0,2023-04-13,2023-04-13,Ｏｎｅ　Ｃｏｎｎｅｃｔ合同会社,,合同会社,神奈川県,横浜市鶴見区,岸谷１丁目１０－１－２,,14,101,2300078,,,,,,,2023-04-13,1,,,,,ワンコネクト,0
1206,5021001078705,新規,0,2023-04-13,2023-04-13,株式会社伊東外構,,株式会社,神奈川県,厚木市,みはる野２丁目３１番１８号,,14,212,2430208,,,,,,,2023-04-13,1,,,,,イトウガイコウ,0
1209,5021003012975,新規,0,2023-04-13,2023-04-13,合同会社Ｕｎｉｔｅ,,合同会社,神奈川県,厚木市,上依知１３７４番地１コーポハイブリッジパートＩＩ２０１,00130092,14,212,2430801,,,,,,,2023-04-13,1,,,,,ユナイト,0
1213,5030001153335,新規,0,2023-04-13,2023-04-13,株式会社Ｇｅｎｅｒａｔｉｏｎ　ｅｘｐｒｅｓｓ,,株式会社,埼玉県,ふじみ野市,亀久保１７６２番地２３,,11,245,3560051,,,,,,,2023-04-13,1,,,,,ジェネレーションエクスプレス,0
1214,5030001153351,新規,0,2023-04-13,2023-04-13,株式会社Ｋ・Ｋ塗和技装,,株式会社,埼玉県,桶川市,大字川田谷１９６８番地の１,,11,231,3630027,,,,,,,2023-04-13,1,,,,,ケーケートワギソウ,0
1215,5030001153376,新規,0,2023-04-13,2023-04-13,西索株式会社,,株式会社,埼玉県,富士見市,ふじみ野西２丁目１番地１アイムふじみ野タワー東館８０４,,11,235,3540035,,,,,,,2023-04-13,1,,,,,,0
1216,5030003021564,新規,0,2023-04-13,2023-04-13,合同会社ｋｅｅｙ,,合同会社,埼玉県,所沢市,大字久米１４４０番地の１６,,11,208,3591131,,,,,,,2023-04-13,1,,,,,キー,0
1222,5060001035877,新規,0,2023-04-13,2023-04-13,宇都宮レジデンス株式会社,,株式会社,栃木県,宇都宮市,平松本町３３０番地２,,09,201,3210932,,,,,,,2023-04-13,1,,,,,ウツノミヤレジデンス,0
1226,5070003004904,新規,0,2023-04-13,2023-04-13,合同会社３ＳＴＥＰゼミナール,,合同会社,群馬県,前橋市,粕川町女渕１４２２番地１１,,10,201,3710214,,,,,,,2023-04-13,1,,,,,,0
1227,5080001025570,新規,0,2023-04-13,2023-04-13,株式会社たけちゃん農園,,株式会社,静岡県,静岡市駿河区,登呂１丁目２０番２０号,,22,102,4228033,,,,,,,2023-04-13,1,,,,,タケチャンノウエン,0
1231,5100003006970,新規,0,2023-04-13,2023-04-13,合同会社ＮＥＷエコー,,合同会社,長野県,茅野市,ちの３５５６番地１,,20,214,3910001,,,,,,,2023-04-13,1,,,,,ニューエコー,0
1240,5120001253919,新規,0,2023-04-13,2023-04-13,株式会社ラウンドワンジャパン,,株式会社,大阪府,大阪市中央区,難波５丁目１番６０号,,27,128,5420076,,,,,,,2023-04-13,1,,,,,ラウンドワンジャパン,0
1241,5120001253935,新規,0,2023-04-13,2023-04-13,株式会社エア・ハウジング,,株式会社,大阪府,守口市,大久保町３丁目２４番１２号,,27,209,5700012,,,,,,,2023-04-13,1,,,,,エアハウジング,0
1242,5120001253968,新規,0,2023-04-13,2023-04-13,株式会社ガゼラ,,株式会社,大阪府,大阪市生野区,巽北２丁目１１番１４号２０２号室,00130100,27,116,5440004,,,,,,,2023-04-13,1,,,,,ガゼラ,0
1243,5120001253992,新規,0,2023-04-13,2023-04-13,株式会社吉元,,株式会社,大阪府,大阪市西成区,南津守５丁目２番６８号,,27,122,5570063,,,,,,,2023-04-13,1,,,,,ヨシモト,0
1244,5120001254041,新規,0,2023-04-13,2023-04-13,ヒューマンソース株式会社,,株式会社,大阪府,大阪市淀川区,西中島６丁目９番２０号新大阪ＧＨビル８０２号,,27,123,5320011,,,,,,,2023-04-13,1,,,,,ヒューマンソース,0
1254,5130001074050,新規,0,2023-04-13,2023-04-13,株式会社山都,,株式会社,京都府,京都市伏見区,久我石原町９番地１５３,,26,109,6128491,,,,,,,2023-04-13,1,,,,,サント,0
1255,5130001074059,新規,0,2023-04-13,2023-04-13,株式会社ロックスイーツ,,株式会社,京都府,京都市南区,吉祥院池ノ内町３２番地,,26,107,6018316,,,,,,,2023-04-13,1,,,,,ロックスイーツ,0
1263,5140001129753,新規,0,2023-04-13,2023-04-13,株式会社Ｂｏｎｄ,,株式会社,兵庫県,神戸市西区,井吹台北町４丁目２４番地の１７,,28,111,6512244,,,,,,,2023-04-13,1,,,,,ボンド,0
1264,5140001129778,新規,0,2023-04-13,2023-04-13,株式会社大森企画,,株式会社,兵庫県,姫路市,大善町１０３番地,,28,201,6700833,,,,,,,2023-04-13,1,,,,,オオモリキカク,0
1271,5140003018954,新規,0,2023-04-13,2023-04-13,合同会社ゆめみよ,,合同会社,兵庫県,神戸市東灘区,向洋町中１丁目１０番地１０１号棟８０７号室,,28,101,6580032,,,,,,,2023-04-13,1,,,,,ユメミヨ,0
1272,5140003018962,新規,0,2023-04-13,2023-04-13,合同会社向日葵,,合同会社,兵庫県,尼崎市,高田町１８番３号,,28,202,6610963,,,,,,,2023-04-13,1,,,,,ヒマワリ,0
1274,5160005011187,新規,0,2023-04-13,2023-04-13,一般社団法人いきいきライフ協会大津,,その他の設立登記法人,滋賀県,大津市,粟津町４番７号石山駅前近江鉄道ビル５階５１０号,,25,201,5200832,,,,,,,2023-04-13,1,,,,,イキイキライフキョウカイオオツ,0
1278,5180001155779,新規,0,2023-04-13,2023-04-13,株式会社大原調査,,株式会社,愛知県,北名古屋市,高田寺北の川５５番地３,,23,234,4810011,,,,,,,2023-04-13,1,,,,,オオハラチョウサ,0
1279,5180001155795,新規,0,2023-04-13,2023-04-13,Ｊｏｙ　Ｗｏｒｋｓ株式会社,,株式会社,愛知県,尾張旭市,狩宿町３丁目５３番地,,23,226,4880021,,,,,,,2023-04-13,1,,,,,ジョイワークス,0
1280,5180003025096,新規,0,2023-04-13,2023-04-13,パンダモビリティランド合同会社,,合同会社,愛知県,名古屋市名東区,高間町７５番地の１,,23,115,4650081,,,,,,,2023-04-13,1,,,,,パンダモビリティランド,0
1293,5220001025358,新規,0,2023-04-13,2023-04-13,株式会社ＥＡ‐ＳＴＡＲＴ,,株式会社,石川県,かほく市,木津ホ２６番地１,,17,209,9291171,,,,,,,2023-04-13,1,,,,,イースタート,0
1296,5240003006098,新規,0,2023-04-13,2023-04-13,合同会社花冠,,合同会社,広島県,福山市,南松永町１丁目７番３２号,,34,207,7290105,,,,,,,2023-04-13,1,,,,,カカン,0
1297,5250005008810,新規,0,2023-04-13,2023-04-13,一般社団法人ＯＰＣ,,その他の設立登記法人,山口県,長門市,仙崎１９６７番地２,,35,211,7594106,,,,,,,2023-04-13,1,,,,,オーピーシー,0
1299,5260001037861,新規,0,2023-04-13,2023-04-13,株式会社ＬＩＧ,,株式会社,岡山県,勝田郡勝央町,植月中３２４０番地１０,,33,622,7094335,,,,,,,2023-04-13,1,,,,,リグ,0
1303,5290001101144,新規,0,2023-04-13,2023-04-13,株式会社納屋企画,,株式会社,福岡県,福岡市東区,原田４丁目２５番１７号,,40,131,8120063,,,,,,,2023-04-13,1,,,,,ナヤキカク,0
1304,5290001101251,新規,0,2023-04-13,2023-04-13,株式会社メメント,,株式会社,福岡県,福岡市西区,横浜３丁目６番３１－１０５号,,40,135,8190366,,,,,,,2023-04-13,1,,,,,メメント,0
1307,5290003013791,新規,0,2023-04-13,2023-04-13,合同会社なよびか,,合同会社,福岡県,福岡市中央区,六本松１丁目３番１３,,40,133,8100044,,,,,,,2023-04-13,1,,,,,ナヨビカ,0
1314,5320003004060,新規,0,2023-04-13,2023-04-13,合同会社吉岡,,合同会社,大分県,竹田市,久住町大字添ケ津留１６４番地,,44,208,8780206,,,,,,,2023-04-13,1,,,,,ヨシオカ,0
1315,5330001030768,新規,0,2023-04-13,2023-04-13,株式会社山愛,,株式会社,熊本県,人吉市,紺屋町１１６番地,,43,203,8680003,,,,,,,2023-04-13,1,,,,,サンアイ,0
1318,5340001025503,新規,0,2023-04-13,2023-04-13,株式会社千凜,,株式会社,鹿児島県,薩摩川内市,平佐町３９２６番地１,,46,215,8950012,,,,,,,2023-04-13,1,,,,,センリ,0
1320,5340003004100,新規,0,2023-04-13,2023-04-13,エスライフ不動産合同会社,,合同会社,鹿児島県,鹿児島市,谷山中央４丁目４９５３番５,,46,201,8910141,,,,,,,2023-04-13,1,,,,,エスライフフドウサン,0
1325,5350003004339,新規,0,2023-04-13,2023-04-13,合同会社ＳＣ,,合同会社,宮崎県,児湯郡都農町,大字川北１０５７番地１,,45,406,8891201,,,,,,,2023-04-13,1,,,,,エスシー,0
1333,5360003012860,新規,0,2023-04-13,2023-04-13,合同会社桜環境,,合同会社,沖縄県,宮古島市,下地字川満４９番地３,,47,214,9060301,,,,,,,2023-04-13,1,,,,,サクラカンキョウ,0
1334,5360003012893,新規,0,2023-04-13,2023-04-13,ＳＣＫＥＴＴ合同会社,,合同会社,沖縄県,石垣市,字新川２３６５－１４砂盛ハイツ真喜良３、４０３号室,,47,207,9070024,,,,,,,2023-04-13,1,,,,,スケット,0
1341,5420001018218,新規,0,2023-04-13,2023-04-13,株式会社プレザントビジョン,,株式会社,青森県,八戸市,白銀５丁目１５番地５,,02,203,0310821,,,,,,,2023-04-13,1,,,,,プレザントビジョン,0
1349,5430001088870,新規,0,2023-04-13,2023-04-13,ＭｉｒａｉＣｒｅａｔｅ株式会社,,株式会社,北海道,札幌市中央区,北五条西８丁目１番地１ラ・トゥール札幌伊藤ガーデン１８０３号,,01,101,0600005,,,,,,,2023-04-13,1,,,,,ミライクリエイト,0
1352,5430003014924,新規,0,2023-04-13,2023-04-13,合同会社ジーハイム,,合同会社,北海道,札幌市清田区,真栄４０９番３２号,,01,110,0040839,,,,,,,2023-04-13,1,,,,,ジーハイム,0
1358,5470003002396,新規,0,2023-04-13,2023-04-13,合同会社ＮＳＤ,,合同会社,香川県,さぬき市,造田宮西１７００番地１０２,,37,206,7692311,,,,,,,2023-04-13,1,,,,,エヌエスディー,0
1359,5480001012074,新規,0,2023-04-13,2023-04-13,株式会社松本,,株式会社,徳島県,徳島市,中前川町１丁目２３番地の２,,36,201,7700807,,,,,,,2023-04-13,1,,,,,マツモト,0
1361,5500001024868,新規,0,2023-04-13,2023-04-13,株式会社ティ・アイ・ケイ,,株式会社,愛媛県,四国中央市,川之江町長須２９３番地の１,,38,213,7990102,,,,,,,2023-04-13,1,,,,,ティアイケイ,0
1362,5500001024876,新規,0,2023-04-13,2023-04-13,株式会社Ｍｉｙａｕｃｈｉ,,株式会社,愛媛県,松山市,別府町７７２番地７４,,38,201,7918056,,,,,,,2023-04-13,1,,,,,,0
1363,5700150115381,新規,0,2023-04-13,2023-04-13,ＧｕａｎｇＺｈｏｕＳｈｉＲｕＪｉＤｉａｎＺｉＳｈａｎｇＷｕＹｏｕＸｉａｎＧｏｎｇＳｉ,,外国会社等,,,,,,,,ＴｉａｎＨｅＱｕＬｏｎｇＨｕＸｉａｏＱｕＤａＪｉｅ　２Ｈａｏ６０７Ｆａｎｇ　ＪｉｎＸｉａｎＢａｎＧｏｎｇＹｏｎｇＴｕ　ＧｕａｎｇＺｈｏｕＳｈｉ　ＧｕａｎｇＤｏｎｇＳｈｅｎｇ,,,,,,2023-04-13,1,,,,,グワンジョウシールージーディエンズーシャンウーヨウシエンゴンスー,0
1364,5700150115398,新規,0,2023-04-13,2023-04-13,ｗｕｘｉ　ｚｈｕｙｅｚｈｕａｎｇｓｈｉｇｏｎｇｃｈｅｎｇ　ｙｏｕｘｉａｎｇｏｎｇｓｉ,,外国会社等,,,,,,,,１３－２０５　ｊｉｎｋｅｃａｉｆｕｇｕａｎｇｃｈａｎｇ　ｘｉｎｗｕｑｕ　ｗｕｘｉ　Ｊｉａｎｇｓｕ　Ｃｈｉｎａ　２１４０００,,,,,,2023-04-13,1,,,,,ウシチユウギヨウソウシユウゲンコウシ,0
1365,5700150115407,新規,0,2023-04-13,2023-04-13,Ｓｈｅｎｚｈｅｎ　Ｄｉｅｒｓｉ　Ｋｅｊｉ　Ｙｏｕｘｉａｎｇｏｎｇｓｉ,,外国会社等,,,,,,,,Ｍｉｎｚｈｉｊｉｅｄａｏ　Ｍｉｎｚｈｉｄａｄａｏ　Ｎｉｕｌａｎｑｉａｎ　Ｄａｓｈａ　Ａ１００３　ｓｈｉ　ＬｏｎｇｈｕａｘｉｎＱｕ　Ｓｈｅｎｚｈｅｎ,,,,,,2023-04-13,1,,,,,シンセンデリクステクノロジーユウゲンコウシ,0
1366,5700150115415,新規,0,2023-04-13,2023-04-13,ｓｈｅｎｚｈｅｎｓｈｉｄｉｔｅｍｏｄｉａｎｚｉｋｅｊｉｙｏｕｘｉａｎｇｏｎｇｓｉ,,外国会社等,,,,,,,,ＣＮ，５１８０００，ｇｕａｎｇｄｏｎｇｓｈｅｎｇ，ｓｈｅｎｚｈｅｎｓｈｉ，ｆｕｔｉａｎｑｕ，ｈｕａｑｉａｎｇｂｅｉｊｉｅｄａｏｈｕａｆａｂｅｉｌｕｌｏｎｇｓｈｅｎｇｓｈｏｕｊｉｐｅｉｊｉａｎｃｈｅｎｇＡＢｄｏｎｇ，５ｌｏｕ５Ａ０６,,,,,,2023-04-13,1,,,,,シェンジェンシーディーターモーディエンズーコージーヨウシエンゴンスー,0
1367,5700150115423,新規,0,2023-04-13,2023-04-13,ｔａｉｓｈａｎ　ｔａｉｍｅｉ　ｆｕｒｎｉｔｕｒｅ　ｃｏ．，ｌｔｄ．,,外国会社等,,,,,,,,Ｎｏ．７７＃，ｊｉａｎｇｎａｎ　ｒｏａｄ，ｄａｊｉａｎｇ　ｔａｉｓｈａｎ　ｇｕａｎｇｄｏｎｇ　５２９２６１　ＣＮ,,,,,,2023-04-13,1,,,,,タイシャンシータイメイジャージーヨウシエンゴンスー,0
1377,6010001234474,新規,0,2023-04-13,2023-04-13,株式会社オーテクト,,株式会社,東京都,中央区,日本橋室町１丁目１１番１２号日本橋水野ビル７階,,13,102,1030022,,,,,,,2023-04-13,1,,,,,オーテクト,0
1380,6010003040318,新規,0,2023-04-13,2023-04-13,ＳＥＤ００１合同会社,,合同会社,東京都,中央区,日本橋１丁目４番１号,,13,102,1030027,,,,,,,2023-04-13,1,,,,,エスイーディーゼロゼロイチ,0
1391,6010401173727,新規,0,2023-04-13,2023-04-13,株式会社日協,,株式会社,東京都,港区,赤坂２丁目８番１４－５０４号,,13,103,1070052,,,,,,,2023-04-13,1,,,,,ニッキョウ,0
1392,6010405021997,新規,0,2023-04-13,2023-04-13,一般社団法人日中投資促進機構,,その他の設立登記法人,東京都,港区,六本木１丁目８番７号,,13,103,1060032,,,,,,,2023-04-13,1,,,,,ニッチュウトウシソクシンキコウ,0
1393,6010405022046,新規,0,2023-04-13,2023-04-13,ＭＦ４ＪＰＮ特定目的会社,,その他の設立登記法人,東京都,港区,虎ノ門３丁目２２番１０－２０１号,,13,103,1050001,,,,,,,2023-04-13,1,,,,,エムエフフォージェイピーエヌ,0
1396,6010601009185,新規,0,2023-04-13,2023-04-13,株式会社ダズンフォー,,株式会社,東京都,墨田区,吾妻橋３丁目７番４号,,13,107,1300001,,,,,,,2023-04-13,1,,,,,ダズンフォー,0
1399,6010601062903,新規,0,2023-04-13,2023-04-13,株式会社森田総合研究所,,株式会社,東京都,江東区,豊洲３丁目６番５－４１１６号,,13,108,1350061,,,,,,,2023-04-13,1,,,,,モリタソウゴウケンキュウジョ,0
1405,6010901052843,新規,0,2023-04-13,2023-04-13,株式会社Ｖｉｂｌｅ　ｗｏｒｋｓ,,株式会社,東京都,世田谷区,池尻２丁目３１番７－５０３号,,13,112,1540001,,,,,,,2023-04-13,1,,,,,,0
1406,6010903008083,新規,0,2023-04-13,2023-04-13,パチパチプロジェクトジャパン合同会社,,合同会社,東京都,世田谷区,豪徳寺１丁目３５－１,,13,112,1540021,,,,,,,2023-04-13,1,,,,,,0
1407,6010903008091,新規,0,2023-04-13,2023-04-13,ハナ幸電気工事合同会社,,合同会社,東京都,世田谷区,給田４丁目１‐７,,13,112,1570064,,,,,,,2023-04-13,1,,,,,ハナコウデンキコウジ,0
1413,6011001153581,新規,0,2023-04-13,2023-04-13,株式会社ディレクションズ,,株式会社,東京都,渋谷区,神山町５番３号並木ビル３Ｆ,,13,113,1500047,,,,,,,2023-04-13,1,,,,,ディレクションズ,0
1414,6011001153623,新規,0,2023-04-13,2023-04-13,株式会社すけ,,株式会社,東京都,渋谷区,神泉町１０番１５号,,13,113,1500045,,,,,,,2023-04-13,1,,,,,スケ,0
1415,6011001153697,新規,0,2023-04-13,2023-04-13,株式会社ｃｈｏｗ,,株式会社,東京都,渋谷区,道玄坂１丁目１０番８号渋谷道玄坂東急ビル２Ｆ－Ｃ,,13,113,1500043,,,,,,,2023-04-13,1,,,,,チャウ,0
1416,6011001153714,新規,0,2023-04-13,2023-04-13,株式会社源流武蔵,,株式会社,東京都,渋谷区,恵比寿西１丁目３１－１７－５０５,,13,113,1500021,,,,,,,2023-04-13,1,,,,,ゲンリュウムサシ,0
1417,6011003016621,新規,0,2023-04-13,2023-04-13,ブルーエイトキャピタル合同会社,,合同会社,東京都,渋谷区,鉢山町９番１５－２０３号,,13,113,1500035,,,,,,,2023-04-13,1,,,,,ブルーエイトキャピタル,0
1418,6011003016654,新規,0,2023-04-13,2023-04-13,ｇｅｎｅｓｉｓｔｏｎｅ合同会社,,合同会社,東京都,渋谷区,神宮前６丁目２８－９東武ビル６Ｆ,,13,113,1500001,,,,,,,2023-04-13,1,,,,,ジェネシストン,0
1422,6011101102513,新規,0,2023-04-13,2023-04-13,株式会社テンスリー,,株式会社,東京都,新宿区,西新宿７丁目５番９－３１０１号,,13,104,1600023,,,,,,,2023-04-13,1,,,,,テンスリー,0
1424,6011201024574,新規,0,2023-04-13,2023-04-13,ラコーソリューションズ株式会社,,株式会社,東京都,中野区,野方３丁目２７番３号,,13,114,1650027,,,,,,,2023-04-13,1,,,,,ラコーソリューションズ,0
1439,6011603003894,新規,0,2023-04-13,2023-04-13,合同会社ＨＳ,,合同会社,東京都,練馬区,桜台５丁目１１番２２号メゾンロアール２０６,,13,120,1760002,,,,,,,2023-04-13,1,,,,,エイチエス,0
1446,6013301050582,新規,0,2023-04-13,2023-04-13,株式会社ＪＰＦ,,株式会社,東京都,豊島区,東池袋４丁目６－１０ルナ大住ビル３Ｆ,,13,116,1700013,,,,,,,2023-04-13,1,,,,,ジェイピーエフ,0
1453,6020001151099,新規,0,2023-04-13,2023-04-13,株式会社ＮＡＧＡＫＩ,,株式会社,神奈川県,川崎市宮前区,土橋２丁目６番地２４,,14,136,2160005,,,,,,,2023-04-13,1,,,,,ナガキ,0
1454,6020001151116,新規,0,2023-04-13,2023-04-13,株式会社ロールアンドケーキ,,株式会社,神奈川県,横浜市港北区,箕輪町２丁目７番４０－１０５号,,14,109,2230051,,,,,,,2023-04-13,1,,,,,ロールアンドケーキ,0
1455,6020001151124,新規,0,2023-04-13,2023-04-13,株式会社ＣＢＭ,,株式会社,神奈川県,横浜市西区,南幸１丁目５番３０号,,14,103,2200005,,,,,,,2023-04-13,1,,,,,シービーエム,0
1458,6020003023726,新規,0,2023-04-13,2023-04-13,合同会社ｗａｔｏｋａ,,合同会社,神奈川県,横浜市西区,北幸２丁目１０番地２８むつみビル３Ｆ,,14,103,2200004,,,,,,,2023-04-13,1,,,,,ワトカ,0
1459,6020005015944,新規,0,2023-04-13,2023-04-13,特定非営利活動法人チアー金沢,,その他の設立登記法人,神奈川県,横浜市金沢区,谷津町３７５－２階,,14,108,2360016,,,,,,,2023-04-13,1,,,,,チアーカナザワ,0
1461,6021003012966,新規,0,2023-04-13,2023-04-13,合同会社ＲＥＸｅ,,合同会社,神奈川県,厚木市,中荻野７２８番地１,,14,212,2430202,,,,,,,2023-04-13,1,,,,,レグゼ,0
1462,6021003012974,新規,0,2023-04-13,2023-04-13,ＨＩＮＯ　ＮＩＰＰＯＮ合同会社,,合同会社,神奈川県,綾瀬市,吉岡９６２番地１,,14,218,2521124,,,,,,,2023-04-13,1,,,,,ヒノニッポン,0
1464,6030001153160,新規,0,2023-04-13,2023-04-13,株式会社高砂ホールディングス,,株式会社,埼玉県,蕨市,中央１丁目１０番２号,,11,223,3350004,,,,,,,2023-04-13,1,,,,,タカサゴホールディングス,0
1466,6030003021539,新規,0,2023-04-13,2023-04-13,Ｒ．Ｍ．Ｓ．Ｆｉｎａｎｃｉａｌ　Ｃｏｎｓｕｌｔｉｎｇ　Ｆｉｒｍ合同会社,,合同会社,埼玉県,加須市,南町１５番５４号,,11,210,3470031,,,,,,,2023-04-13,1,,,,,アールエムエスフィナンシャルコンサルティングファーム,0
1468,6030005021198,新規,0,2023-04-13,2023-04-13,ＮＰＯ法人Ｈｏｌｏｍｕａ,,その他の設立登記法人,埼玉県,入間市,小谷田１丁目１３番１９号,,11,225,3580026,,,,,,,2023-04-13,1,,,,,ホロムア,0
1470,6040001127948,新規,0,2023-04-13,2023-04-13,丸加工業株式会社,,株式会社,千葉県,佐倉市,岩富５２０番地１,,12,212,2850071,,,,,,,2023-04-13,1,,,,,マルカコウギョウ,0
1471,6040003022271,新規,0,2023-04-13,2023-04-13,アイティーオン合同会社,,合同会社,千葉県,木更津市,桜井新町４丁目１７番地７リバーサイドレジデンス１０１,,12,206,2920823,,,,,,,2023-04-13,1,,,,,アイティーオン,0
1472,6040003022387,新規,0,2023-04-13,2023-04-13,合同会社ＨＡＮＡＢＩ,,合同会社,千葉県,船橋市,印内町６５６、３０７号,,12,204,2730025,,,,,,,2023-04-13,1,,,,,ハナビ,0
1474,6050001052690,新規,0,2023-04-13,2023-04-13,ＰＯＷＥＲ　ＪＡＰＡＮ株式会社,,株式会社,茨城県,常総市,大沢新田９６番地２,,08,211,3002745,,,,,,,2023-04-13,1,,,,,,0
1480,6060001035876,新規,0,2023-04-13,2023-04-13,株式会社プラスエス,,株式会社,栃木県,宇都宮市,問屋町３４１３番地５６,,09,201,3210911,,,,,,,2023-04-13,1,,,,,プラスエス,0
1489,6080003002963,新規,0,2023-04-13,2023-04-13,ＫＡＩキャピタル合同会社,,合同会社,静岡県,静岡市葵区,上足洗３丁目３－１９,,22,101,4200841,,,,,,,2023-04-13,1,,,,,ケーエーアイキャピタル,0
1490,6080005007531,新規,0,2023-04-13,2023-04-13,特定非営利活動法人静岡ユニバーサルツーリズムセンター,,その他の設立登記法人,静岡県,静岡市葵区,岳美１丁目１６－７,,22,101,4200934,,,,,,,2023-04-13,1,,,,,シズオカユニバーサルツーリズムセンター,0
1493,6110001037446,新規,0,2023-04-13,2023-04-13,株式会社飛躍の一歩,,株式会社,新潟県,新潟市中央区,天神１丁目１番地プラーカ３－２Ｆ,,15,103,9500917,,,,,,,2023-04-13,1,,,,,ヒヤクノイッポ,0
1503,6120001253884,新規,0,2023-04-13,2023-04-13,株式会社クオーレ,,株式会社,大阪府,大阪市阿倍野区,美章園２丁目１３番１号,,27,119,5450003,,,,,,,2023-04-13,1,,,,,クオーレ,0
1504,6120001253926,新規,0,2023-04-13,2023-04-13,株式会社真陽商事,,株式会社,大阪府,大阪市北区,西天満４丁目５番５号マーキス梅田,,27,127,5300047,,,,,,,2023-04-13,1,,,,,シンヨウショウジ,0
1505,6120001253967,新規,0,2023-04-13,2023-04-13,日本森沢株式会社,,株式会社,大阪府,大阪市淀川区,十三本町１丁目１４番１１－６０３号,,27,123,5320024,,,,,,,2023-04-13,1,,,,,ニホンモリサワ,0
1506,6120001253983,新規,0,2023-04-13,2023-04-13,株式会社ビジネスバンク,,株式会社,大阪府,大阪市西区,新町１丁目３３番１ＯＮＥＳＨＩＮＭＡＣＨＩ６０１号,,27,106,5500013,,,,,,,2023-04-13,1,,,,,ビジネスバンク,0
1507,6120001254008,新規,0,2023-04-13,2023-04-13,株式会社ＥＭＭＥ,,株式会社,大阪府,大阪市東住吉区,南田辺３丁目２７番２８号,,27,121,5460033,,,,,,,2023-04-13,1,,,,,エム,0
1508,6120001254040,新規,0,2023-04-13,2023-04-13,株式会社ＮＡＯ,,株式会社,大阪府,大阪市西成区,天下茶屋２丁目８－７－１０２号室,,27,122,5570014,,,,,,,2023-04-13,1,,,,,ナオ,0
1512,6120003023807,新規,0,2023-04-13,2023-04-13,ＳＩＳＵ合同会社,,合同会社,大阪府,大阪市浪速区,日本橋５丁目１２番３号,,27,111,5560005,,,,,,,2023-04-13,1,,,,,シス,0
1513,6120003023815,新規,0,2023-04-13,2023-04-13,合同会社プリズムワークス,,合同会社,大阪府,大阪市北区,梅田２丁目５－１３桜橋第一ビル３０４号,,27,127,5300001,,,,,,,2023-04-13,1,,,,,プリズムワークス,0
1518,6120103005168,新規,0,2023-04-13,2023-04-13,合同会社ＯｎｅＳｔｅｐ,,合同会社,大阪府,堺市中区,深井畑山町２５００－２－１３０７,,27,142,5998248,,,,,,,2023-04-13,1,,,,,ワンステップ,0
1520,6120105009712,新規,0,2023-04-13,2023-04-13,一般社団法人かいのっと,,その他の設立登記法人,大阪府,堺市中区,深井清水町３９８０番地,,27,142,5998273,,,,,,,2023-04-13,1,,,,,カイノット,0
1529,6130001074033,新規,0,2023-04-13,2023-04-13,株式会社クロスロード,,株式会社,京都府,宇治市,小倉町東山４３番地の１６,,26,204,6110042,,,,,,,2023-04-13,1,,,,,クロスロード,0
1530,6130001074058,新規,0,2023-04-13,2023-04-13,株式会社てんてん,,株式会社,京都府,京都市右京区,京北上弓削町下石浦４番の１・８番の１合地,,26,108,6010531,,,,,,,2023-04-13,1,,,,,テンテン,0
1531,6130001074082,新規,0,2023-04-13,2023-04-13,株式会社ＴＨＥ　ＭＥ,,株式会社,京都府,京都市下京区,鶏鉾町４９３ムーンバットビル７０３,,26,106,6008491,,,,,,,2023-04-13,1,,,,,ザミー,0
1536,6140001129777,新規,0,2023-04-13,2023-04-13,ミライエコロジー株式会社,,株式会社,兵庫県,神戸市西区,池上２丁目３０－１,,28,111,6512111,,,,,,,2023-04-13,1,,,,,ミライエコロジー,0
1543,6180001155778,新規,0,2023-04-13,2023-04-13,樹管機工業株式会社,,株式会社,愛知県,春日井市,松河戸町６丁目２番地１６,,23,206,4860932,,,,,,,2023-04-13,1,,,,,イツキカンキコウギョウ,0
1544,6180001155794,新規,0,2023-04-13,2023-04-13,アローネフェリシティ株式会社,,株式会社,愛知県,名古屋市西区,秩父通２丁目１２番地ＡｌｂａＧｒａｎｄｅ名護屋６０２号室,,23,104,4510024,,,,,,,2023-04-13,1,,,,,アローネフェリシティ,0
1545,6180001155836,新規,0,2023-04-13,2023-04-13,株式会社ＲＩＳＥ　ＰＡＲＴＮＥＲＳ,,株式会社,愛知県,稲沢市,奥田町古知野５０３７番地５,,23,220,4928233,,,,,,,2023-04-13,1,,,,,ライズパートナーズ,0
1546,6180003025095,新規,0,2023-04-13,2023-04-13,ＳＵＮ　ＭＯＯＮ合同会社,,合同会社,愛知県,名古屋市中村区,名楽町１丁目２３番地８,,23,105,4530024,,,,,,,2023-04-13,1,,,,,サンムーン,0
1556,6190001030311,新規,0,2023-04-13,2023-04-13,株式会社ＴＥＮＫＡＢＩＴＯ,,株式会社,三重県,津市,美川町７番２４号,,24,201,5140045,,,,,,,2023-04-13,1,,,,,テンカビト,0
1565,6220001025357,新規,0,2023-04-13,2023-04-13,株式会社双越,,株式会社,石川県,加賀市,松山町ハ２０３番地４,,17,206,9220316,,,,,,,2023-04-13,1,,,,,ソウエツ,0
1570,6240001061342,新規,0,2023-04-13,2023-04-13,株式会社ＳＹＥＭＰＲＥ,,株式会社,広島県,廿日市市,新宮２丁目１番１９号,,34,213,7380024,,,,,,,2023-04-13,1,,,,,シェンプレ,0
1577,6260003004280,新規,0,2023-04-13,2023-04-13,ＳＴＡＢＬＥ合同会社,,合同会社,岡山県,岡山市南区,築港ひかり町２番１号２Ｆ,,33,104,7028054,,,,,,,2023-04-13,1,,,,,スティボ,0
1583,6290001101143,新規,0,2023-04-13,2023-04-13,株式会社英,,株式会社,福岡県,福岡市中央区,赤坂１丁目１４番２２号,,40,133,8100042,,,,,,,2023-04-13,1,,,,,ハナブサ,0
1584,6290003013808,新規,0,2023-04-13,2023-04-13,アズマリオ合同会社,,合同会社,福岡県,福岡市博多区,博多駅前１丁目２３番１号,,40,132,8120011,,,,,,,2023-04-13,1,,,,,アズマリオ,0
1585,6290005019010,新規,0,2023-04-13,2023-04-13,医療法人貴榮会,,その他の設立登記法人,福岡県,福岡市西区,周船寺１丁目８番３９号,,40,135,8190373,,,,,,,2023-04-13,1,,,,,キエイカイ,0
1588,6320001019679,新規,0,2023-04-13,2023-04-13,株式会社ｊｕｖｅ．,,株式会社,大分県,大分市,金池町３丁目１番１号,,44,201,8700026,,,,,,,2023-04-13,1,,,,,ジュベ,0
1589,6330001030767,新規,0,2023-04-13,2023-04-13,リーズホーム株式会社,,株式会社,熊本県,熊本市東区,下南部３丁目２番２５－１０３号,,43,102,8618019,,,,,,,2023-04-13,1,,,,,リーズホーム,0
1592,6340001025502,新規,0,2023-04-13,2023-04-13,ＣＮ国際株式会社,,株式会社,鹿児島県,鹿児島市,易居町１－２鹿児島市役所みなと大通り別館６階１５号室,,46,201,8920815,,,,,,,2023-04-13,1,,,,,シエヌコクサイ,0
1593,6340001025510,新規,0,2023-04-13,2023-04-13,株式会社ＡＳＴＲＡ,,株式会社,鹿児島県,鹿児島市,宇宿４丁目２４番３号,,46,201,8900073,,,,,,,2023-04-13,1,,,,,アストラ,0
1595,6350001018281,新規,0,2023-04-13,2023-04-13,株式会社九州テクノ,,株式会社,宮崎県,宮崎市,大字富吉４９１番地,,45,201,8802114,,,,,,,2023-04-13,1,,,,,キュウシュウテクノ,0
1598,6360001031853,新規,0,2023-04-13,2023-04-13,株式会社ｅｐｉＣｒｅａｔｅ,,株式会社,沖縄県,那覇市,字与儀３６８－２０－２Ｆ,,47,201,9020076,,,,,,,2023-04-13,1,,,,,エピクリエイト,0
1599,6360001031861,新規,0,2023-04-13,2023-04-13,株式会社イヤサカ,,株式会社,沖縄県,那覇市,繁多川１丁目１２番７号,,47,201,9020071,,,,,,,2023-04-13,1,,,,,イヤサカ,0
1600,6360003012851,新規,0,2023-04-13,2023-04-13,合同会社ＴＭＫ企画,,合同会社,沖縄県,うるま市,字赤道２９７番地コーポ久田２０１号,,47,213,9042245,,,,,,,2023-04-13,1,,,,,ティーエムケイキカク,0
1603,6370001049829,新規,0,2023-04-13,2023-04-13,株式会社誠心コンストラクション,,株式会社,宮城県,仙台市宮城野区,苦竹１丁目１番７号,,04,102,9830036,,,,,,,2023-04-13,1,,,,,セイシンコンストラクション,0
1606,6380001033591,新規,0,2023-04-13,2023-04-13,株式会社トーヨーエネルギーファーム,,株式会社,福島県,相馬郡新地町,谷地小屋字上ノ台５２番地の２,,07,561,9792702,,,,,,,2023-04-13,1,,,,,トーヨーエネルギーファーム,0
1614,6430001088795,新規,0,2023-04-13,2023-04-13,株式会社隆晟,,株式会社,北海道,千歳市,北陽８丁目８番４号,,01,224,0660032,,,,,,,2023-04-13,1,,,,,リュウショウ,0
1615,6430001088837,新規,0,2023-04-13,2023-04-13,齋藤株式会社,,株式会社,北海道,札幌市北区,新琴似六条１７丁目１番５－８０１号,,01,102,0010906,,,,,,,2023-04-13,1,,,,,サイトウ,0
1616,6430001088861,新規,0,2023-04-13,2023-04-13,株式会社ＳＭＤ,,株式会社,北海道,札幌市白石区,本郷通５丁目南３－２４グランメールカッセル１０２,,01,104,0030024,,,,,,,2023-04-13,1,,,,,エスエムディー,0
1617,6430003014907,新規,0,2023-04-13,2023-04-13,合同会社Ｓｏｃｉａｌ,,合同会社,北海道,札幌市中央区,南十六条西１９丁目１番３２号,,01,101,0640916,,,,,,,2023-04-13,1,,,,,ソーシャル,0
1622,6470001019565,新規,0,2023-04-13,2023-04-13,株式会社けのび,,株式会社,香川県,丸亀市,郡家町１５５５－５,,37,202,7630093,,,,,,,2023-04-13,1,,,,,ケノビ,0
1624,6500001024875,新規,0,2023-04-13,2023-04-13,株式会社ＫＵＮ,,株式会社,愛媛県,松山市,土橋町１０番地３,,38,201,7900032,,,,,,,2023-04-13,1,,,,,ケイユーエヌ,0
1625,6500005008602,新規,0,2023-04-13,2023-04-13,特定非営利活動法人ＳＨＡＲＥ,,その他の設立登記法人,愛媛県,今治市,いこいの丘１－３,,38,202,7940085,,,,,,,2023-04-13,1,,,,,シェア,0
1626,6700150115380,新規,0,2023-04-13,2023-04-13,ＧｕａｎｇＺｈｏｕＳｈｉＷｏＪｉａＭｉｎｇＤｉａｎＺｉＹｏｕＸｉａｎＧｏｎｇＳｉ,,外国会社等,,,,,,,,ＨａｉＺｈｕＱｕＰａＺｈｏｕＰａｎＬｏｎｇＸｉｎＪｉｅ３Ｈａｏ９１１Ｆａｎｇ　ＧｕａｎｇＺｈｏｕＳｈｉ　ＧｕａｎｇＤｏｎｇＳｈｅｎｇ,,,,,,2023-04-13,1,,,,,グワンジョウシーウオジャーミンディエンズーヨウシエンゴンスー,0
1627,6700150115406,新規,0,2023-04-13,2023-04-13,Ｙｉｗｕ　Ｙｕｓｈａｎｇ　Ｅ－ｃｏｍｍｅｒｃｅ　Ｃｏ．，ＬＴＤ,,外国会社等,,,,,,,,Ｒｏｏｍ　２０２，Ｕｎｉｔ　５，Ｂｕｉｌｄｉｎｇ　１６，Ｙｏｎｇｊｕｎ　Ｎｏ．１　Ｄｉｓｔｒｉｃｔ，Ｂｅｉｙｕａｎ　Ｓｔｒｅｅｔ，Ｙｉｗｕ　Ｃｉｔｙ，Ｚｈｅｊｉａｎｇ　Ｐｒｏｖｉｎｃｅ,,,,,,2023-04-13,1,,,,,イウウシヨウイーコオマアースカンパニーリミテツド,0
1628,6700150115414,新規,0,2023-04-13,2023-04-13,ＮＩＳＣＯ　ＣＯ．，ＬＴＤ．,,外国会社等,,,,,,,,ｄｉｎｇｙａｎｚｈｅｎｃｈｅｎｃａｏｌｕ９９ｈａｏＲｕｇａｏｊａｎｇｓｕ２２６５２１ＣＮ,,,,,,2023-04-13,1,,,,,ジャンスーリーガオジーノンジャージーヨウシエンゴンスー,0
1629,6700150115422,新規,0,2023-04-13,2023-04-13,ｇａｎｚｈｏｕｓｈｉｊｉｎｇｂｏｌｕｎｋｅｊｉｙｏｕｘｉａｎｇｏｎｇｓｉ,,外国会社等,,,,,,,,ｊｉａｎｇ　ｘｉ　ｓｈｅｎｇ　ｇａｎ　ｚｈｏｕ　ｓｈｉ　ｇａｎ　ｘｉａｎ　ｑｕ　ｍｅｉ　ｌｉｎ　ｚｈｅｎ　ｇａｎ　ｘｉｎ　ｄａ　ｄａｏ　１０５　ｈａｏ　ｓｈａｎｇ　ｌｉｎ　ｃｈｕｎ　ｔｉａｎ　ｅｒ　ｑｉ　Ｂ９　ｄｏｎｇ　５４１　ｈａｏ,,,,,,2023-04-13,1,,,,,ガンジョウシージンボールンコージーヨウシエンゴンスー,0
1646,7010001234267,新規,0,2023-04-13,2023-04-13,４９６株式会社,,株式会社,東京都,文京区,後楽２丁目３番２１号住友不動産飯田橋ビル,,13,105,1120004,,,,,,,2023-04-13,1,,,,,ヨンキュウロク,0
1647,7010001234317,新規,0,2023-04-13,2023-04-13,株式会社Ｓ・Ｔ・Ｒ　Ｊｏｂｓ,,株式会社,東京都,中央区,銀座１丁目２２番１１号銀座大竹ビジデンス２Ｆ,,13,102,1040061,,,,,,,2023-04-13,1,,,,,エスティーアールジョブズ,0
1648,7010001234457,新規,0,2023-04-13,2023-04-13,株式会社ニューロプラスティー,,株式会社,東京都,文京区,小日向２丁目２４番８－４０５号,,13,105,1120006,,,,,,,2023-04-13,1,,,,,ニューロプラスティー,0
1649,7010001234473,新規,0,2023-04-13,2023-04-13,ＴＯＰ　ＣＯＳＭＥ株式会社,,株式会社,東京都,中央区,八重洲２丁目１番１号ＹＡＮＭＡＲＴＯＫＹＯ１２階,,13,102,1040028,,,,,,,2023-04-13,1,,,,,トップコスメ,0
1651,7010003040317,新規,0,2023-04-13,2023-04-13,合同会社ウエヤマ,,合同会社,東京都,中央区,銀座１丁目１２番４号Ｎ＆ＥＢＬＤ．６Ｆ,,13,102,1040061,,,,,,,2023-04-13,1,,,,,ウエヤマ,0
1652,7010003040341,新規,0,2023-04-13,2023-04-13,合同会社白兎,,合同会社,東京都,中央区,勝どき１丁目１３番６―３００６号,,13,102,1040054,,,,,,,2023-04-13,1,,,,,ハクト,0
1662,7010401173560,新規,0,2023-04-13,2023-04-13,株式会社ＮｅｓｔｓＷｏｒｋｓ,,株式会社,東京都,港区,赤坂８丁目５番６号ＩＰＩＡＳ・Ａｏｙａｍａ３０６,,13,103,1070052,,,,,,,2023-04-13,1,,,,,ネストワークス,0
1664,7010403029918,新規,0,2023-04-13,2023-04-13,合同会社ミナトインベストメント,,合同会社,東京都,港区,北青山２丁目７番２６号,,13,103,1070061,,,,,,,2023-04-13,1,,,,,ミナトインベストメント,0
1666,7010405021988,新規,0,2023-04-13,2023-04-13,一般社団法人グローバルＨ＆Ｂコミュニティ,,その他の設立登記法人,東京都,港区,芝５丁目３６－７三田ベルジュビルＢ１Ｆ,,13,103,1080014,,,,,,,2023-04-13,1,,,,,グローバルエイチアンドビーコミュニティ,0
1670,7010805003017,新規,0,2023-04-13,2023-04-13,一般社団法人戦艦大和を慰霊する市民の会,,その他の設立登記法人,東京都,大田区,上池台３丁目２５番３号,,13,111,1450064,,,,,,,2023-04-13,1,,,,,センカンヤマトヲイレイスルシミンノカイ,0
1673,7010905004468,新規,0,2023-04-13,2023-04-13,一般社団法人心理的安全性アンバサダー協会,,その他の設立登記法人,東京都,世田谷区,砧６丁目２７番１９号笑恵館,,13,112,1570073,,,,,,,2023-04-13,1,,,,,シンリテキアンゼンセイアンバサダーキョウカイ,0
1684,7011001153622,新規,0,2023-04-13,2023-04-13,Ｋ‐コネクト株式会社,,株式会社,東京都,渋谷区,神宮前３丁目１番２５号,,13,113,1500001,,,,,,,2023-04-13,1,,,,,ケーコネクト,0
1685,7011001153696,新規,0,2023-04-13,2023-04-13,株式会社ｋｏｌｏｒ,,株式会社,東京都,目黒区,南２丁目４番６－４１８号ピアースコード目黒洗足,,13,110,1520013,,,,,,,2023-04-13,1,,,,,,0
1688,7011103012940,新規,0,2023-04-13,2023-04-13,合同会社ｂｌｅｓｓｉｎｇ,,合同会社,東京都,新宿区,西新宿３丁目３番１３号西新宿水間ビル２Ｆ,,13,104,1600023,,,,,,,2023-04-13,1,,,,,ブレッシング,0
1693,7011301028615,新規,0,2023-04-13,2023-04-13,株式会社誰もが,,株式会社,東京都,杉並区,永福１丁目１３番３－１０２号クレアホームズ永福町蒼の邸,,13,115,1680064,,,,,,,2023-04-13,1,,,,,ダレモガ,0
1703,7013101009150,新規,0,2023-04-13,2023-04-13,葵グループ株式会社,,株式会社,東京都,青梅市,今寺１丁目７８０番地の１３,,13,205,1980021,,,,,,,2023-04-13,1,,,,,,0
1705,7013301050581,新規,0,2023-04-13,2023-04-13,株式会社ｕ２,,株式会社,東京都,豊島区,東池袋４丁目６－１０ルナ大住ビル３Ｆ,,13,116,1700013,,,,,,,2023-04-13,1,,,,,ユーツー,0
1714,7020001151098,新規,0,2023-04-13,2023-04-13,株式会社Ｆａｎｉ,,株式会社,神奈川県,横浜市西区,北幸２丁目１０番地２８むつみビル３Ｆ,,14,103,2200004,,,,,,,2023-04-13,1,,,,,ファニ,0
1720,7020003023733,新規,0,2023-04-13,2023-04-13,合同会社トリコ,,合同会社,神奈川県,横浜市中区,北仲通５丁目５７番地２ザ・タワー横浜北仲９２３号室,,14,104,2310003,,,,,,,2023-04-13,1,,,,,トリコ,0
1723,7021003012957,新規,0,2023-04-13,2023-04-13,合同会社創明,,合同会社,神奈川県,藤沢市,大庭５６８３の２駒寄１５～１０５,,14,205,2510861,,,,,,,2023-04-13,1,,,,,ソウメイ,0
1727,7030001153242,新規,0,2023-04-13,2023-04-13,富士商興樹脂株式会社,,株式会社,埼玉県,戸田市,新曽南２丁目４番９号,,11,224,3350026,,,,,,,2023-04-13,1,,,,,フジショウコウジュシ,0
1728,7030001153358,新規,0,2023-04-13,2023-04-13,株式会社マーズ建設,,株式会社,埼玉県,さいたま市南区,文蔵４丁目２８番１１号ＬＡＰＵＴＡＩＩ３０３号室,00130097,11,108,3360025,,,,,,,2023-04-13,1,,,,,マーズケンセツ,0
1729,7030001153374,新規,0,2023-04-13,2023-04-13,株式会社ＳＭＣ,,株式会社,埼玉県,越谷市,赤山本町８番地１エル・スデューディオ２０１号,,11,222,3430808,,,,,,,2023-04-13,1,,,,,エスエムシー,0
1731,7030003021562,新規,0,2023-04-13,2023-04-13,合同会社ストレリチア,,合同会社,埼玉県,さいたま市大宮区,東町１丁目１６番地１藤和シティホームズ大宮氷川参道６０４号,,11,103,3300841,,,,,,,2023-04-13,1,,,,,ストレリチア,0
1732,7030003021570,新規,0,2023-04-13,2023-04-13,ＳＩＤＤＨＡＢＡＢＡ合同会社,,合同会社,埼玉県,川越市,岸町１丁目１２番２４号,,11,201,3501131,,,,,,,2023-04-13,1,,,,,シダババ,0
1735,7030005021239,新規,0,2023-04-13,2023-04-13,医療法人社団一心,,その他の設立登記法人,埼玉県,富士見市,鶴瀬東１丁目７番３８号初音家ビル１階,,11,235,3540024,,,,,,,2023-04-13,1,,,,,イッシン,0
1747,7050003007378,新規,0,2023-04-13,2023-04-13,ＧＬＯＢＡＬ　ＤＩＳＣＯＶＥＲＹ合同会社,,合同会社,茨城県,土浦市,桜町１丁目５番地２号桜Ｉビル２Ｆ,00130087,08,203,3000037,,,,,,,2023-04-13,1,,,,,グローバルディスカバリー,0
1748,7050003007403,新規,0,2023-04-13,2023-04-13,合同会社ＭＫＩ,,合同会社,茨城県,つくば市,研究学園６丁目４７－１リバーヒルＢ棟,,08,220,3050817,,,,,,,2023-04-13,1,,,,,エムケーアイ,0
1760,7080003002962,新規,0,2023-04-13,2023-04-13,エースセントラル合同会社,,合同会社,静岡県,牧之原市,波津１３０６番地１Ｓ．Ｄフォレスト１０４,,22,226,4210523,,,,,,,2023-04-13,1,,,,,エースセントラル,0
1765,7080401026431,新規,0,2023-04-13,2023-04-13,株式会社エイトブレイン,,株式会社,静岡県,浜松市東区,将監町１６番地の３,,22,132,4300802,,,,,,,2023-04-13,1,,,,,エイトブレイン,0
1772,7110001037429,新規,0,2023-04-13,2023-04-13,株式会社Ｓｅｖｅｎ’ｓ,,株式会社,新潟県,上越市,稲田２丁目７番７号,,15,222,9430154,,,,,,,2023-04-13,1,,,,,セブンズ,0
1773,7110001037437,新規,0,2023-04-13,2023-04-13,株式会社ＫＭ総業,,株式会社,新潟県,新潟市北区,葛塚３３９０番地,,15,101,9503321,,,,,,,2023-04-13,1,,,,,ケイエムソウギョウ,0
1774,7110001037445,新規,0,2023-04-13,2023-04-13,株式会社ルーミズコーポレーション,,株式会社,新潟県,新潟市北区,木崎字切尾山３７４７番地甲,,15,101,9503304,,,,,,,2023-04-13,1,,,,,ルーミズコーポレーション,0
1777,7120001253999,新規,0,2023-04-13,2023-04-13,Ａ２Ｙ　Ｓｔｙｌｅ株式会社,,株式会社,大阪府,大阪市西区,靱本町１丁目５番１８号ＮＡＮＥＩ本町５０５号室,,27,106,5500004,,,,,,,2023-04-13,1,,,,,エーツーワイスタイル,0
1778,7120003023814,新規,0,2023-04-13,2023-04-13,ティーイーエックスジャパン合同会社,,合同会社,大阪府,大阪市中央区,糸屋町２丁目３番３－６０３号,,27,128,5400022,,,,,,,2023-04-13,1,,,,,ティーイーエックスジャパン,0
1789,7122001036888,新規,0,2023-04-13,2023-04-13,株式会社ＭＩＡ,,株式会社,大阪府,東大阪市,三島１丁目２６番３号,,27,227,5780966,,,,,,,2023-04-13,1,,,,,エムアイエー,0
1791,7130001074065,新規,0,2023-04-13,2023-04-13,株式会社ワールドライフ京,,株式会社,京都府,京都市下京区,四条通室町東入函谷鉾町１０１番地,,26,106,6008009,,,,,,,2023-04-13,1,,,,,ワールドライフミヤコ,0
1796,7140001129751,新規,0,2023-04-13,2023-04-13,株式会社坂根設備,,株式会社,兵庫県,伊丹市,北河原１丁目３番７－３１２号,,28,207,6640837,,,,,,,2023-04-13,1,,,,,サカネセツビ,0
1797,7140001129768,新規,0,2023-04-13,2023-04-13,株式会社ＷＯＲＫＭＡＮＳ,,株式会社,兵庫県,神戸市須磨区,白川台２丁目５９－１中央ビル２０１号,,28,107,6540103,,,,,,,2023-04-13,1,,,,,ワークマンズ,0
1798,7140001129776,新規,0,2023-04-13,2023-04-13,株式会社いちろ,,株式会社,兵庫県,尼崎市,東難波町５丁目２８番２９号宝満会館ビル３階,,28,202,6600892,,,,,,,2023-04-13,1,,,,,イチロ,0
1799,7140001129784,新規,0,2023-04-13,2023-04-13,株式会社ｍａｉｓｏｎ　ｄｅ　ｓｈｉｒｏ,,株式会社,兵庫県,神戸市中央区,元町通２丁目８番６号村田ビル２階,,28,110,6500022,,,,,,,2023-04-13,1,,,,,メゾンドシロ,0
1806,7160005011185,新規,0,2023-04-13,2023-04-13,一般社団法人甲賀流忍者ＳＡＳＵＫＥ,,その他の設立登記法人,滋賀県,甲賀市,甲南町池田３４４７番地３,,25,209,5203302,,,,,,,2023-04-13,1,,,,,コウガリュウニンジャサスケ,0
1814,7180001155835,新規,0,2023-04-13,2023-04-13,株式会社衣浦マリンサービス,,株式会社,愛知県,名古屋市南区,豊田１丁目３１番７号,,23,112,4570841,,,,,,,2023-04-13,1,,,,,キヌウラマリンサービス,0
1818,7180301037304,新規,0,2023-04-13,2023-04-13,株式会社Ｆｒｏｎｔｉｅｒ,,株式会社,愛知県,豊橋市,松葉町１丁目２７番地１丸幸ビル１Ｆ,,23,201,4400897,,,,,,,2023-04-13,1,,,,,フロンティア,0
1820,7180305009464,新規,0,2023-04-13,2023-04-13,特定非営利活動法人ジェイアンドビイ,,その他の設立登記法人,愛知県,蒲郡市,三谷町七舗４８の２レオパレス山竹Ｉ１０９号室,00130088,23,214,4430021,,,,,,,2023-04-13,1,,,,,ジェイアンドビイ,0
1832,7210005010090,新規,0,2023-04-13,2023-04-13,シナジー経営社会保険労務士法人,,その他の設立登記法人,福井県,福井市,高木中央２丁目７０１番地ウィング高木２Ｆ,,18,201,9100804,,,,,,,2023-04-13,1,,,,,シナジーケイエイ,0
1837,7240003006096,新規,0,2023-04-13,2023-04-13,合同会社といろ,,合同会社,広島県,広島市安佐南区,川内５丁目１番３２号,,34,105,7310102,,,,,,,2023-04-13,1,,,,,トイロ,0
1838,7260001037868,新規,0,2023-04-13,2023-04-13,株式会社やまぐちコンサル,,株式会社,岡山県,岡山市北区,北長瀬表町２丁目１７番８０号ハッシュタグ岡山,,33,101,7000962,,,,,,,2023-04-13,1,,,,,ヤマグチコンサル,0
1839,7260003004255,新規,0,2023-04-13,2023-04-13,合同会社ポポ,,合同会社,岡山県,岡山市東区,瀬戸町大内字宇治１４２９番地,,33,103,7090851,,,,,,,2023-04-13,1,,,,,ポポ,0
1857,7330003009800,新規,0,2023-04-13,2023-04-13,合同会社燈,,合同会社,熊本県,荒尾市,宮内１１０７番地６,,43,204,8640004,,,,,,,2023-04-13,1,,,,,アカリ,0
1861,7340005009590,新規,0,2023-04-13,2023-04-13,社会保険労務士法人水口労務管理事務所,,その他の設立登記法人,鹿児島県,鹿児島市,桜ヶ丘７丁目１番地７,,46,201,8900075,,,,,,,2023-04-13,1,,,,,ミズグチロウムカンリジムショ,0
1868,7360001031753,新規,0,2023-04-13,2023-04-13,ＶＥＲＭＩＬＬＩＯＮ株式会社,,株式会社,沖縄県,那覇市,久茂地２丁目２番２号タイムスビル２Ｆ,,47,201,9000015,,,,,,,2023-04-13,1,,,,,ヴァーミリオン,0
1869,7360001031828,新規,0,2023-04-13,2023-04-13,株式会社ＤＩＢ,,株式会社,沖縄県,浦添市,牧港５丁目１３番３９号、１０２号,,47,208,9012131,,,,,,,2023-04-13,1,,,,,ディブ,0
1872,7370001049836,新規,0,2023-04-13,2023-04-13,株式会社エフ・アール・エフ,,株式会社,宮城県,宮城郡松島町,高城字前田沢６８番地,,04,401,9810215,,,,,,,2023-04-13,1,,,,,エフアールエフ,0
1883,7410001013457,新規,0,2023-04-13,2023-04-13,株式会社船越工業,,株式会社,秋田県,秋田市,外旭川八柳３丁目８番２９号,,05,201,0100803,,,,,,,2023-04-13,1,,,,,フナコシコウギョウ,0
1886,7430001088828,新規,0,2023-04-13,2023-04-13,株式会社サービス・アイ,,株式会社,北海道,札幌市東区,東苗穂八条３丁目１番８号,,01,103,0070808,,,,,,,2023-04-13,1,,,,,サービスアイ,0
1887,7430001088836,新規,0,2023-04-13,2023-04-13,株式会社森下林業,,株式会社,北海道,有珠郡壮瞥町,字上久保内４６番地,,01,575,0520111,,,,,,,2023-04-13,1,,,,,モリシタリンギョウ,0
1888,7430001088852,新規,0,2023-04-13,2023-04-13,株式会社ＹＯＫＩ,,株式会社,北海道,札幌市清田区,真栄一条２丁目１番２８号,,01,110,0040831,,,,,,,2023-04-13,1,,,,,ヨーキ,0
1889,7430001088860,新規,0,2023-04-13,2023-04-13,株式会社アルティス,,株式会社,北海道,札幌市白石区,東札幌二条６丁目５番１号ターミナルハイツ白石３０２,,01,104,0030002,,,,,,,2023-04-13,1,,,,,アルティス,0
1893,7440001009246,新規,0,2023-04-13,2023-04-13,株式会社琥園,,株式会社,北海道,函館市,神山１丁目１２番１８号,,01,202,0410832,,,,,,,2023-04-13,1,,,,,クオン,0
1896,7470003002394,新規,0,2023-04-13,2023-04-13,小豆島ファクトリー合同会社,,合同会社,香川県,小豆郡小豆島町,安田甲３９９番地５４,,37,324,7614411,,,,,,,2023-04-13,1,,,,,ショウドシマファクトリー,0
1899,7700150115388,新規,0,2023-04-13,2023-04-13,ｆｏ　ｓｈａｎ　ｓｈｉ　ｈｕａｉ　ｍａｎ　ｋｅ　ｊｉ　ｙｏｕ　ｘｉａｎ　ｇｏｎｇ　ｓｉ,,外国会社等,,,,,,,,ｄａ　ｌｉ　ｚｈｅｎ　ｙａｎ　ｂｕ　ｈｅ　ｄｏｎｇ　ｈｕ　ｂａｎｇ　ｘｉｎ　ｃｕｎ　１４２　ｈａｏ　ｐｕ（ｚｈｕ　ｓｕｏ　ｓｈｅｎ　ｂａｏ）ｆｏ　ｓｈａｎ　ｓｈｉ　ｇｕａｎｇ　ｄｏｎｇ　ｓｈｅｎｇ　５２８２４７　ＣＮ,,,,,,2023-04-13,1,,,,,フォーシャンシーフワイマンコージーヨウシエンゴンスー,0
1900,7700150115405,新規,0,2023-04-13,2023-04-13,Ｓｈｅｎｚｈｅｎｓｈｉｆａｎｙｉｎｋｅｊｉｙｏｕｘｉａｎｇｏｎｇｓｉ,,外国会社等,,,,,,,,Ｃｈｉｎａ，ｇｕａｎｇｄｏｎｇ，Ｌｏｎｇｇａｎｇ　Ｄｉｓ　ｓｈｅｎｚｈｅｎ，Ｒｏｏｍ　１７２２－Ａ，Ｂｌｏｃｋ　１１，Ｔｉｅｄｏｎｇ　Ｌｏｇｉｓｔｉｃｓ　Ｐａｒｋ，Ｃｈｉｎａ　Ｓｏｕｔｈ　Ｃｉｔｙ，Ｆｕ’ａｎ　Ａｖｅｎｕｅ，Ｐｉｎｇｈｕ　Ｓｔｒｅｅｔ,,,,,,2023-04-13,1,,,,,シンセンシフアンオンデンシテクノロジーユウゲンコウシ,0
1901,7700150115413,新規,0,2023-04-13,2023-04-13,ＤｉｎｇＹｕａｎＸｉａｎＬｉｎｇＳｈｕｎＤｉａｎＺｉＳｈａｎｇＷｕＹｏｕＸｉａｎＧｏｎｇｓｉ,,外国会社等,,,,,,,,Ａｎ　Ｈｕｉ　Ｓｈｅｎｇ　Ｃｈｕ　Ｚｈｏｕ　Ｓｈｉ　Ｄｉｎｇ　Ｙｕａｎ　Ｘｉａｎ　Ｄｉｎｇ　Ｃｈｅｎｇ　Ｚｈｅｎ　Ｈｅ　Ｂａｎｇ　Ｌｕ　Ｘｉ　Ｃｅ　４　Ｗｅｉ　Ｈｕａ　Ｘｉｎ　Ｔｉａｎ　Ｄｉ　８　Ｈａｏ,,,,,,2023-04-13,1,,,,,テイエンケンレイジヨンデンシシヨウムユウゲンコウシ,0
1902,7700150115421,新規,0,2023-04-13,2023-04-13,ｃｈａｎｇｓｈａ　ｈａｎｒｏｎｇ　Ｔｒａｄｉｎｇ　Ｃｏ．，Ｌｔｄ,,外国会社等,,,,,,,,ｈｕ　ｎａｎ　ｓｈｅｎｇ　ｃｈａｎｇ　ｓｈａ　ｓｈｉ　ｋａｉ　ｆｕ　ｑｕ　ｈｏｎｇ　ｓｈａｎ　ｊｉｅ　ｄａｏ　ｈｏｎｇ　ｓｈａｎ　ｌｕ　１８８　ｈａｏ　ｚａｎｇ　ｌｏｎｇ　ｈｕ　ｓｈａｎｇ　ｇｕｏ　ｊｉ　ｈｕａ　ｙｕａｎ　３－１０　ｄｏｎｇ　１４０２　ｆａｎｇ,,,,,,2023-04-13,1,,,,,ジャンシャーハンロンマオイーヨウシエンゴンスー,0
1911,8010001234472,新規,0,2023-04-13,2023-04-13,株式会社ウィルリンクス,,株式会社,東京都,千代田区,九段南１丁目５番６号りそな九段ビル５階,,13,101,1020074,,,,,,,2023-04-13,1,,,,,ウィルリンクス,0
1912,8010001234555,新規,0,2023-04-13,2023-04-13,株式会社ネクシード,,株式会社,東京都,千代田区,神田三崎町３丁目５－９天翔水道橋ビル４０５－Ｆ,,13,101,1010061,,,,,,,2023-04-13,1,,,,,ネクシード,0
1919,8010003040316,新規,0,2023-04-13,2023-04-13,合同会社東洋コンサルティング,,合同会社,東京都,千代田区,二番町７番地８,,13,101,1020084,,,,,,,2023-04-13,1,,,,,トウヨウコンサルティング,0
1921,8010005036510,新規,0,2023-04-13,2023-04-13,ソーラースペードホールディングス一般社団法人,,その他の設立登記法人,東京都,中央区,八丁堀４丁目２番１０号ＡＯＪ税理士法人内,,13,102,1040032,,,,,,,2023-04-13,1,,,,,ソーラースペードホールディングス,0
1944,8010603010098,新規,0,2023-04-13,2023-04-13,プライムヒロ合同会社,,合同会社,東京都,江東区,東砂３丁目２１－１６エルフィーノ東大島３０５号室,,13,108,1360074,,,,,,,2023-04-13,1,,,,,プライムヒロ,0
1951,8010703006657,新規,0,2023-04-13,2023-04-13,合同会社ノア,,合同会社,東京都,品川区,東品川４丁目１１番３６－１０２０号,,13,109,1400002,,,,,,,2023-04-13,1,,,,,ノア,0
1953,8010901052858,新規,0,2023-04-13,2023-04-13,ワットコム株式会社,,株式会社,東京都,世田谷区,駒沢４丁目３３番２２号,,13,112,1540012,,,,,,,2023-04-13,1,,,,,ワットコム,0
1954,8010901052866,新規,0,2023-04-13,2023-04-13,株式会社ネクサス,,株式会社,東京都,世田谷区,玉川３丁目２０番２号,,13,112,1580094,,,,,,,2023-04-13,1,,,,,ネクサス,0
1959,8011001153670,新規,0,2023-04-13,2023-04-13,こだまビル株式会社,,株式会社,東京都,渋谷区,神宮前１丁目１１番１１号,,13,113,1500001,,,,,,,2023-04-13,1,,,,,コダマビル,0
1961,8011003016594,新規,0,2023-04-13,2023-04-13,Ｘａｌ合同会社,,合同会社,東京都,渋谷区,道玄坂１丁目１６－６二葉ビル８ｂ,,13,113,1500043,,,,,,,2023-04-13,1,,,,,エックスエーエル,0
1962,8011003016628,新規,0,2023-04-13,2023-04-13,合同会社一平,,合同会社,東京都,渋谷区,鶯谷町１９－１９第三叶ビル５Ｆ,,13,113,1500032,,,,,,,2023-04-13,1,,,,,,0
1970,8011501029123,新規,0,2023-04-13,2023-04-13,株式会社ＴＡＬＳｉＬ,,株式会社,東京都,荒川区,荒川１丁目１７番１１号,,13,118,1160002,,,,,,,2023-04-13,1,,,,,タルシル,0
1973,8011603003892,新規,0,2023-04-13,2023-04-13,合同会社エムズカンパニー,,合同会社,東京都,練馬区,春日町３丁目１番１６号,,13,120,1790074,,,,,,,2023-04-13,1,,,,,エムズカンパニー,0
1977,8011701026143,新規,0,2023-04-13,2023-04-13,株式会社Ｔｒａｆｔ,,株式会社,東京都,江戸川区,船堀６丁目１０番１９－２１１号,,13,123,1340091,,,,,,,2023-04-13,1,,,,,トラフト,0
1981,8011801042222,新規,0,2023-04-13,2023-04-13,株式会社Ｇｒａｎｄ　Ｌｉｎｅ,,株式会社,東京都,葛飾区,青戸６丁目３番１２－９０２号ルクシェール青砥,,13,122,1250062,,,,,,,2023-04-13,1,,,,,グランドライン,0
1984,8011803005607,新規,0,2023-04-13,2023-04-13,合同会社カボロセ,,合同会社,東京都,葛飾区,堀切３丁目２４番７号エスエス・コーポツー１０１,,13,122,1240006,,,,,,,2023-04-13,1,,,,,,0
1986,8012701017594,新規,0,2023-04-13,2023-04-13,株式会社Ａｔｅｌｉｅｒ　Ａｎｎ,,株式会社,東京都,東村山市,恩多町３丁目２２番地５,,13,213,1890011,,,,,,,2023-04-13,1,,,,,アトリエアン,0
1992,8013301050597,新規,0,2023-04-13,2023-04-13,株式会社ｏｔａｍｉｅｕｘ,,株式会社,東京都,豊島区,東池袋２丁目３８番地２３ＳＡＭビル６０４,,13,116,1700013,,,,,,,2023-04-13,1,,,,,オタミュー,0
1995,8020001151114,新規,0,2023-04-13,2023-04-13,株式会社甲屋住宅設備,,株式会社,神奈川県,横浜市港北区,小机町１１３８番地３８,,14,109,2220036,,,,,,,2023-04-13,1,,,,,コウヤジュウタクセツビ,0
1996,8020001151122,新規,0,2023-04-13,2023-04-13,株式会社Ｈ＆Ｙサービス,,株式会社,神奈川県,横浜市緑区,中山６丁目２２番５号,,14,113,2260019,,,,,,,2023-04-13,1,,,,,エイチアンドワイサービス,0
1997,8020001151147,新規,0,2023-04-13,2023-04-13,ホームプラン株式会社,,株式会社,神奈川県,横浜市保土ケ谷区,天王町２丁目４２番地１３,,14,106,2400003,,,,,,,2023-04-13,1,,,,,ホームプラン,0
2002,8020003023732,新規,0,2023-04-13,2023-04-13,ＡＲＧ合同会社,,合同会社,神奈川県,川崎市幸区,中幸町１丁目３０番地フラットＩ２０３,00130101,14,132,2120012,,,,,,,2023-04-13,1,,,,,エーアールジー,0
2011,8030001153183,新規,0,2023-04-13,2023-04-13,株式会社ＴＳ工業,,株式会社,埼玉県,春日部市,武里中野３３６番地６,,11,214,3440026,,,,,,,2023-04-13,1,,,,,ティーエスコウギョウ,0
2013,8030003021504,新規,0,2023-04-13,2023-04-13,合同会社絆サポート,,合同会社,埼玉県,川越市,大字久下戸３４７９番地１１,,11,201,3500011,,,,,,,2023-04-13,1,,,,,キズナサポート,0
2033,8080001025568,新規,0,2023-04-13,2023-04-13,株式会社ＧＧモデスト,,株式会社,静岡県,静岡市葵区,伝馬町９－１４Ｆｌｏｓ新静岡２Ｆ,,22,101,4200858,,,,,,,2023-04-13,1,,,,,ジージーモデスト,0
2035,8080401026439,新規,0,2023-04-13,2023-04-13,株式会社ＧｒａｔｅｆｕｌＤａｙｓ,,株式会社,静岡県,磐田市,二之宮１１５９番地２,,22,211,4380074,,,,,,,2023-04-13,1,,,,,グレイトフルデイズ,0
2039,8080403004772,新規,0,2023-04-13,2023-04-13,合同会社ＨＥＬＬＯ　ＯＮＥ’Ｓ　ＰＬＵＳ,,合同会社,静岡県,浜松市中区,高丘東５丁目１２－３４,,22,131,4338117,,,,,,,2023-04-13,1,,,,,ハローワンズプラス,0
2040,8090003002300,新規,0,2023-04-13,2023-04-13,山果屋合同会社,,合同会社,山梨県,南巨摩郡富士川町,平林８７１,,19,368,4000514,,,,,,,2023-04-13,1,,,,,サンカヤ,0
2043,8100001036315,新規,0,2023-04-13,2023-04-13,株式会社ニコＯＮＥカーズ,,株式会社,長野県,佐久市,岩村田２５７４番地１,,20,217,3850022,,,,,,,2023-04-13,1,,,,,ニコワンカーズ,0
2059,8120001253866,新規,0,2023-04-13,2023-04-13,株式会社イリアス,,株式会社,大阪府,大阪市平野区,長吉出戸１丁目１１番５５号,,27,126,5470011,,,,,,,2023-04-13,1,,,,,イリアス,0
2060,8120001253932,新規,0,2023-04-13,2023-04-13,株式会社デイーエムグラント,,株式会社,大阪府,大阪市平野区,喜連２丁目７番２２号,,27,126,5470027,,,,,,,2023-04-13,1,,,,,デイーエムグラント,0
2061,8120001253998,新規,0,2023-04-13,2023-04-13,大地株式会社,,株式会社,大阪府,大阪市淀川区,西宮原３丁目３番１号ビジネス第二ニッケンマンション４階４１４号室,,27,123,5320004,,,,,,,2023-04-13,1,,,,,ダイチ,0
2062,8120001254014,新規,0,2023-04-13,2023-04-13,株式会社ＦＧＨ,,株式会社,大阪府,大阪市中央区,鎗屋町１丁目２番６－１０１号,,27,128,5400027,,,,,,,2023-04-13,1,,,,,エフジーエイチ,0
2064,8120003023805,新規,0,2023-04-13,2023-04-13,関西貿易中光合同会社,,合同会社,大阪府,大阪市西成区,花園北１丁目７番１９号１０１号,,27,122,5570016,,,,,,,2023-04-13,1,,,,,カンサイボウエキチュウコウ,0
2067,8120101067258,新規,0,2023-04-13,2023-04-13,コニカミノルタアドバンストオプティクス株式会社,,株式会社,大阪府,大阪狭山市,今熊６丁目３００番地,,27,231,5890021,,,,,,,2023-04-13,1,,,,,コニカミノルタアドバンストオプティクス,0
2081,8130001074048,新規,0,2023-04-13,2023-04-13,株式会社Ｌｉｍ　ｗｏｒｋｓ,,株式会社,京都府,京都市左京区,下鴨蓼倉町８４番地１１,,26,103,6060806,,,,,,,2023-04-13,1,,,,,リムワークス,0
2082,8130001074056,新規,0,2023-04-13,2023-04-13,株式会社ＳＨＩＮＳＥＩ,,株式会社,京都府,福知山市,字今安１６０７番地,,26,201,6200953,,,,,,,2023-04-13,1,,,,,シンセイ,0
2083,8130001074080,新規,0,2023-04-13,2023-04-13,日華交易株式会社,,株式会社,京都府,木津川市,市坂久保川４４－１グレイス木津川１－２０２,,26,214,6190213,,,,,,,2023-04-13,1,,,,,ニッカコウエキ,0
2088,8130003008648,新規,0,2023-04-13,2023-04-13,ＫＳパイン商事合同会社,,合同会社,京都府,京都市左京区,下鴨松原町１８番地,,26,103,6060804,,,,,,,2023-04-13,1,,,,,ケイエスパインショウジ,0
2095,8140001129619,新規,0,2023-04-13,2023-04-13,株式会社つくやん,,株式会社,兵庫県,神戸市中央区,熊内橋通１丁目２番１－１０８号,,28,110,6510055,,,,,,,2023-04-13,1,,,,,ツクヤン,0
2096,8140001129742,新規,0,2023-04-13,2023-04-13,株式会社ｏｚｙ,,株式会社,兵庫県,神戸市兵庫区,神田町３８番１９号,,28,105,6520006,,,,,,,2023-04-13,1,,,,,オージィー,0
2097,8140001129775,新規,0,2023-04-13,2023-04-13,株式会社城崎温泉マリーナ,,株式会社,兵庫県,豊岡市,城崎町楽々浦通り戸３４３番地,,28,209,6696111,,,,,,,2023-04-13,1,,,,,キノサキオンセンマリーナ,0
2115,8180001155792,新規,0,2023-04-13,2023-04-13,解体ニッカ株式会社,,株式会社,愛知県,名古屋市緑区,篭山３丁目２０２番地,,23,114,4580007,,,,,,,2023-04-13,1,,,,,カイタイニッカ,0
2116,8180001155826,新規,0,2023-04-13,2023-04-13,ｔｏｆ株式会社,,株式会社,愛知県,長久手市,五合池１１６クロンド藤ケ丘３Ｆ,,23,238,4801156,,,,,,,2023-04-13,1,,,,,トフ,0
2119,8180003025077,新規,0,2023-04-13,2023-04-13,合同会社ＡＹＡＫＡ　ＡＳＳＯＣＩＡＴＩＯＮ,,合同会社,愛知県,愛知郡東郷町,大字諸輪字富士見台９８番地２,,23,302,4700151,,,,,,,2023-04-13,1,,,,,アヤカアソシエーション,0
2135,8230001019793,新規,0,2023-04-13,2023-04-13,株式会社エムワイフーズ,,株式会社,富山県,高岡市,鷲北新４３番地,,16,202,9330071,,,,,,,2023-04-13,1,,,,,エムワイフーズ,0
2138,8240001061340,新規,0,2023-04-13,2023-04-13,株式会社ＴＭＲホールディングス,,株式会社,広島県,広島市中区,宝町７番１６号アーバイン２Ｆ,,34,101,7300044,,,,,,,2023-04-13,1,,,,,ティーエムアールホールディングス,0
2140,8240003006095,新規,0,2023-04-13,2023-04-13,合同会社イシモトアセット,,合同会社,広島県,広島市中区,堺町１丁目８番６－１２０４号,,34,101,7300853,,,,,,,2023-04-13,1,,,,,イシモトアセット,0
2146,8290003013780,新規,0,2023-04-13,2023-04-13,合同会社ビオラ建設,,合同会社,福岡県,福岡市中央区,天神１丁目１番１号アクロス福岡１階,,40,133,8100001,,,,,,,2023-04-13,1,,,,,ビオラケンセツ,0
2151,8320003004058,新規,0,2023-04-13,2023-04-13,合同会社軽食あさみ,,合同会社,大分県,別府市,大字浜脇字迫３１９８番地,,44,202,8740947,,,,,,,2023-04-13,1,,,,,ケイショクアサミ,0
2159,8340001025500,新規,0,2023-04-13,2023-04-13,株式会社松尾巧建,,株式会社,鹿児島県,阿久根市,波留３０５３番地１,,46,206,8991625,,,,,,,2023-04-13,1,,,,,マツオコウケン,0
2166,8410003003785,新規,0,2023-04-13,2023-04-13,合同会社コトウケンセツ,,合同会社,秋田県,秋田市,土崎港西５丁目７番１６号,,05,201,0110945,,,,,,,2023-04-13,1,,,,,コトウケンセツ,0
2169,8430001088819,新規,0,2023-04-13,2023-04-13,タネムラ設備株式会社,,株式会社,北海道,美唄市,西四条南３丁目７番７号,,01,215,0720027,,,,,,,2023-04-13,1,,,,,タネムラセツビ,0
2170,8430003014896,新規,0,2023-04-13,2023-04-13,合同会社小河ファーム,,合同会社,北海道,日高郡新ひだか町,三石川上１７５番地の２,,01,610,0593354,,,,,,,2023-04-13,1,,,,,オガワファーム,0
2171,8440001009245,新規,0,2023-04-13,2023-04-13,株式会社ＮＡＧＡＴＡ　ＦＡＲＭ,,株式会社,北海道,函館市,赤川町２０３番地,,01,202,0410804,,,,,,,2023-04-13,1,,,,,ナガタファーム,0
2173,8450001013956,新規,0,2023-04-13,2023-04-13,株式会社きたくにふぁーむ,,株式会社,北海道,雨竜郡幌加内町,字平和４６２１番地４４,,01,472,0740401,,,,,,,2023-04-13,1,,,,,キタクニファーム,0
2174,8450003002321,新規,0,2023-04-13,2023-04-13,合同会社ＣＯＷパフェ,,合同会社,北海道,紋別市,本町４丁目２番１４号２Ｆ,,01,219,0940004,,,,,,,2023-04-13,1,,,,,カウパフェ,0
2175,8470001019563,新規,0,2023-04-13,2023-04-13,株式会社栃谷空調設備,,株式会社,香川県,高松市,高松町１０８１番地３９,,37,201,7610104,,,,,,,2023-04-13,1,,,,,トチタニクウチョウセツビ,0
2176,8470005006500,新規,0,2023-04-13,2023-04-13,医療法人社団おおくま歯科医院,,その他の設立登記法人,香川県,高松市,花園町３丁目２番１２号,,37,201,7600072,,,,,,,2023-04-13,1,,,,,オオクマシカイイン,0
2179,8500001024873,新規,0,2023-04-13,2023-04-13,株式会社福ＭＵＳＵＢＩ,,株式会社,愛媛県,今治市,中寺５８３番地２,,38,202,7940840,,,,,,,2023-04-13,1,,,,,フクムスビ,0
2181,8500003003017,新規,0,2023-04-13,2023-04-13,合同会社ｔｓｕ麦,,合同会社,愛媛県,新居浜市,桜木町７番８０号,,38,205,7920865,,,,,,,2023-04-13,1,,,,,,0
2182,8700150115379,新規,0,2023-04-13,2023-04-13,Ｓｈｅｎ　ｚｈｅｎ　ｓｈｉ　ｂａｏ　ｓｈｉ　ｌｕ　ｐｉ　ｊｕ　ｙｏｕ　ｘｉａｎ　ｇｏｎｇ　ｓｉ,,外国会社等,,,,,,,,Ｒｏｏｍ　３０１，Ｂｕｉｌｄｉｎｇ　ＮＯ．２，Ｄｕｏｌｉ　Ｉｎｄｕｓｔｒｉａｌ　Ｐａｒｋ　Ｂｅｉｈｕａｎ　Ｒｏａｄ，Ｍｅｉｌｉｎ　Ｓｔｒｅｅｔ，Ｆｕｔｉａｎ　Ｄｉｓｔｒｉｃｔ　Ｓｈｅｎｚｈｅｎ　Ｇｕａｎｇｄｏｎｇ　,,,,,,2023-04-13,1,,,,,シェンジェンシーバオシールーピージーヨウシエンゴンスー,0
2183,8700150115387,新規,0,2023-04-13,2023-04-13,Ｓｈｅｎｚｈｅｎ　Ｍａｇｉｃ　Ｌｉｎｇｚｈｉｈａｉ　Ｔｅｃｈｎｏｌｏｇｙ　Ｃｏ．，Ｌｔｄ．,,外国会社等,,,,,,,,Ｒｏｏｍ　４２０，Ｘｉｎｌｏｎｇ　Ｂｕｉｌｄｉｎｇ，Ｂａｉｓｈｉｌｏｎｇ　Ｃｏｍｍｕｎｉｔｙ，Ｍｉｎｚｈｉ　Ｓｔｒｅｅｔ，Ｌｏｎｇｈｕａ　Ｄｉｓｔｒｉｃｔ，Ｓｈｅｎｚｈｅｎ,,,,,,2023-04-13,1,,,,,シェンジェンフアンリンジーハイコージーヨウシエンゴンスー,0
2184,8700150115404,新規,0,2023-04-13,2023-04-13,ＨＥＮＧ　ＤＡ　ＨＫ　ＩＭＰ　＆　ＥＸＰ　ＬＩＭＩＴＥＤ,,外国会社等,,,,,,,,ＪｉａｎＳｈａＺｕｉＱｉＸｉａｎＤａｏＮａｎ　４５－５１ＨａｏＱｉＳｈｉＤａＳｈａ８０３Ｓｈｉ　Ｊｉｕ　Ｌｏｎｇ　ＨｏｎｇＫｏｎｇ,,,,,,2023-04-13,1,,,,,コウタツホンコンユニユユシユツユウゲンコウシ,0
2185,8700150115412,新規,0,2023-04-13,2023-04-13,ＧｕａｎｇＺｈｏｕＪｉａｏＴｕＸｉｎＸｉＫｅＪｉＹｏｕＹｉａｎＧｏｎｇｓｉ,,外国会社等,,,,,,,,ＬｉＷａｎＱｕＸｉＺｅｎｇＬｕ６３ＨａｏＺｉＢｉａｎＨａｏ，Ｇｕａｎｇｄｏｎｇ，ＧｕａｎｇＺｈｏｕ,,,,,,2023-04-13,1,,,,,コウシユウキヨウトウジヨウホウテクノロジーユウゲンコウシ,0
2186,8700150115420,新規,0,2023-04-13,2023-04-13,Ｑｕａｎｚｈｏｕ　ｘｉｓｈａｎ　ｅｌｅｃｔｒｏｎｉｃ　ｃｏｍｍｅｒｃｅ　ｃｏ．ＬＴＤ,,外国会社等,,,,,,,,Ｚｏｎｅ　Ｂ－０７，３ｒｄ　Ｆｌｏｏｒ，Ｊｉａｎｇｓｈｕｎ　Ｏｆｆｉｃｅ　Ｂｕｉｌｄｉｎｇ，Ｎｏ．１７　Ｈｏｎｇｘｉｎｇ　Ｓｔｒｅｅｔ，Ｄｏｎｇｈａｉ　Ｓｔｒｅｅｔ，Ｆｅｎｇｚｅ　Ｄｉｓｔｒｉｃｔ，Ｑｕａｎｚｈｏｕ　Ｃｉｔｙ,,,,,,2023-04-13,1,,,,,チュエンジョウシーシーシャンディエンズーシャンウーヨウシエンゾーレンゴンスー,0
2202,9010001234380,新規,0,2023-04-13,2023-04-13,株式会社翹峰Ｔｏｐ　Ｅｓｔａｔｅ,,株式会社,東京都,中央区,銀座１丁目２３番１０号グランドガーラ銀座２０７,,13,102,1040061,,,,,,,2023-04-13,1,,,,,ギョウホウトップエステート,0
2203,9010001234455,新規,0,2023-04-13,2023-04-13,株式会社レイマン,,株式会社,東京都,千代田区,内神田１丁目１５番１６号,,13,101,1010047,,,,,,,2023-04-13,1,,,,,レイマン,0
2205,9010003040298,新規,0,2023-04-13,2023-04-13,Ｓｐｒｏソリューション合同会社,,合同会社,東京都,千代田区,神田和泉町一番地６－１６ヤマトビル４０５,,13,101,1010024,,,,,,,2023-04-13,1,,,,,エスプロソリューション,0
2220,9010403029882,新規,0,2023-04-13,2023-04-13,マノアエナジー合同会社,,合同会社,東京都,港区,元麻布３丁目１番６号,,13,103,1060046,,,,,,,2023-04-13,1,,,,,マノアエナジー,0
2221,9010403029908,新規,0,2023-04-13,2023-04-13,合同会社レッドアロワナ,,合同会社,東京都,港区,麻布十番２丁目８番１６号ＩＳＩビル５階,,13,103,1060045,,,,,,,2023-04-13,1,,,,,レッドアロワナ,0
2222,9010403029916,新規,0,2023-04-13,2023-04-13,真宇宙企画合同会社,,合同会社,東京都,港区,浜松町２丁目２番１５号浜松町ダイヤビル２Ｆ,,13,103,1050013,,,,,,,2023-04-13,1,,,,,シンウチュウキカク,0
2223,9010403029924,新規,0,2023-04-13,2023-04-13,合同会社ＰＩＮＫ　ＰＩＬＬＢＯＸ,,合同会社,東京都,港区,南麻布３丁目８－６・１０１,,13,103,1060047,,,,,,,2023-04-13,1,,,,,ピンクピルボックス,0
2224,9010405021986,新規,0,2023-04-13,2023-04-13,一般社団法人社会をよくする技術研究所,,その他の設立登記法人,東京都,港区,三田１丁目１１番２２号,,13,103,1080073,,,,,,,2023-04-13,1,,,,,シャカイヲヨクスルギジュツケンキュウショ,0
2226,9010503006947,新規,0,2023-04-13,2023-04-13,合同会社森佑庵,,合同会社,東京都,台東区,台東１丁目２９―３イースタンクロスアキバ９０６,,13,106,1100016,,,,,,,2023-04-13,1,,,,,シンユウアン,0
2229,9010601062909,新規,0,2023-04-13,2023-04-13,株式会社八馬興業,,株式会社,東京都,墨田区,立花１丁目２４番１－６１３号,,13,107,1310043,,,,,,,2023-04-13,1,,,,,ハチウマコウギョウ,0
2230,9010601062925,新規,0,2023-04-13,2023-04-13,株式会社セカンドパス,,株式会社,東京都,江東区,亀戸９丁目３４番１－１３０号,,13,108,1360071,,,,,,,2023-04-13,1,,,,,セカンドパス,0
2240,9010901052865,新規,0,2023-04-13,2023-04-13,諾瀾株式会社,,株式会社,東京都,世田谷区,三宿１丁目３番２２号メタセコイアビル４０５号室,,13,112,1540005,,,,,,,2023-04-13,1,,,,,ノラン,0
2241,9010903008089,新規,0,2023-04-13,2023-04-13,合同会社ＬＡＲＧＯ,,合同会社,東京都,世田谷区,宮坂３丁目４号１番ライオンズマンション経堂７０３,,13,112,1560051,,,,,,,2023-04-13,1,,,,,ラルゴ,0
2248,9011003016619,新規,0,2023-04-13,2023-04-13,合同会社いい教材製作所,,合同会社,東京都,渋谷区,渋谷２丁目１９－１５宮益坂ビルディング６０９,,13,113,1500002,,,,,,,2023-04-13,1,,,,,イイキョウザイセイサクショ,0
2249,9011003016627,新規,0,2023-04-13,2023-04-13,合同会社クライス野村,,合同会社,東京都,目黒区,下目黒３丁目２４番２０号３０８号,,13,110,1530064,,,,,,,2023-04-13,1,,,,,クライスノムラ,0
2250,9011003016635,新規,0,2023-04-13,2023-04-13,Ｌｉｎｋ‐Ｖ合同会社,,合同会社,東京都,渋谷区,道玄坂１丁目１０番８号渋谷道玄坂東急ビル２Ｆ－Ｃ,,13,113,1500043,,,,,,,2023-04-13,1,,,,,リンクブイ,0
2256,9011301028621,新規,0,2023-04-13,2023-04-13,株式会社ジャストビコーズ,,株式会社,東京都,杉並区,和泉３丁目２２番５号メゾン中井１０４,,13,115,1680063,,,,,,,2023-04-13,1,,,,,ジャストビコーズ,0
2261,9011403003968,新規,0,2023-04-13,2023-04-13,ＢＩＧＯＯＮ合同会社,,合同会社,東京都,板橋区,蓮根２丁目２７番１２号,,13,119,1740046,,,,,,,2023-04-13,1,,,,,ビゴウン,0
2265,9011601026738,新規,0,2023-04-13,2023-04-13,株式会社クリーンマネジメント,,株式会社,東京都,練馬区,練馬１丁目６番１２－５０２号,,13,120,1760001,,,,,,,2023-04-13,1,,,,,クリーンマネジメント,0
2266,9011603003891,新規,0,2023-04-13,2023-04-13,ＣＯＮＮＥＸＩＳ合同会社,,合同会社,東京都,練馬区,西大泉４丁目２２－２９,,13,120,1780065,,,,,,,2023-04-13,1,,,,,コネクシス,0
2267,9011701026134,新規,0,2023-04-13,2023-04-13,株式会社クレアーテ神戸,,株式会社,東京都,江戸川区,平井２丁目２１－８,,13,123,1320035,,,,,,,2023-04-13,1,,,,,クレアーテカンベ,0
2268,9011701026142,新規,0,2023-04-13,2023-04-13,株式会社ビッグツリー,,株式会社,東京都,江戸川区,松島３丁目３６番３号,,13,123,1320031,,,,,,,2023-04-13,1,,,,,ビッグツリー,0
2277,9012701017569,新規,0,2023-04-13,2023-04-13,株式会社長谷川コーポレーション,,株式会社,東京都,東村山市,青葉町２丁目２４番地５６,,13,213,1890002,,,,,,,2023-04-13,1,,,,,ハセガワコーポレーション,0
2278,9012701017593,新規,0,2023-04-13,2023-04-13,福永株式会社,,株式会社,東京都,東久留米市,浅間町３丁目３０－４リンデンバウム１０１,,13,222,2030012,,,,,,,2023-04-13,1,,,,,フクナガ,0
2283,9012801022279,新規,0,2023-04-13,2023-04-13,株式会社ヘヴン,,株式会社,東京都,立川市,若葉町３丁目５番地の１７フロールコートＢ１０２号,,13,202,1900001,,,,,,,2023-04-13,1,,,,,ヘヴン,0
2286,9013301050596,新規,0,2023-04-13,2023-04-13,株式会社ＷａＫＵＷＯＲＫ,,株式会社,東京都,豊島区,池袋２丁目５２番３号ルミナリータワー池袋１９０７号,,13,116,1710014,,,,,,,2023-04-13,1,,,,,ワクワーク,0
2292,9020001151121,新規,0,2023-04-13,2023-04-13,株式会社山福,,株式会社,神奈川県,川崎市川崎区,駅前本町１１番地２川崎フロンティアビル４階,,14,131,2100007,,,,,,,2023-04-13,1,,,,,ヤマフク,0
2300,9030001153380,新規,0,2023-04-13,2023-04-13,株式会社スマイルリゾートレンタカー,,株式会社,埼玉県,草加市,高砂２丁目２１番３１号,,11,221,3400015,,,,,,,2023-04-13,1,,,,,スマイルリゾートレンタカー,0
2301,9030001153389,新規,0,2023-04-13,2023-04-13,アーベーヴェー株式会社,,株式会社,埼玉県,さいたま市浦和区,高砂２丁目３－５－５０２,,11,107,3300063,,,,,,,2023-04-13,1,,,,,アーベーヴェー,0
2302,9030003021503,新規,0,2023-04-13,2023-04-13,創新社合同会社,,合同会社,埼玉県,東松山市,箭弓町２丁目１０番２６号,,11,212,3550028,,,,,,,2023-04-13,1,,,,,ソウシンシャ,0
2303,9030003021577,新規,0,2023-04-13,2023-04-13,合同会社エムズコネクト,,合同会社,埼玉県,さいたま市中央区,大戸５丁目１８番１号,,11,105,3380012,,,,,,,2023-04-13,1,,,,,エムズコネクト,0
2307,9040001127953,新規,0,2023-04-13,2023-04-13,株式会社Ｃｈｕｎｋｙ,,株式会社,千葉県,野田市,木間ケ瀬４９２－２,,12,208,2700222,,,,,,,2023-04-13,1,,,,,チャンキー,0
2308,9040003022401,新規,0,2023-04-13,2023-04-13,合同会社幸空,,合同会社,千葉県,柏市,花野井３２１番地４,,12,217,2770812,,,,,,,2023-04-13,1,,,,,コウクウ,0
2314,9050001052688,新規,0,2023-04-13,2023-04-13,株式会社ＳＴＯ,,株式会社,茨城県,つくばみらい市,陽光台１丁目１８番地５ＭＴＣビル４階,,08,235,3002358,,,,,,,2023-04-13,1,,,,,エスティーオー,0
2319,9060001035873,新規,0,2023-04-13,2023-04-13,ＱＡ　ＩＮＴＥＲＮＡＴＩＯＮＡＬ株式会社,,株式会社,栃木県,芳賀郡茂木町,大字茂木６０３番地１６－２,,09,343,3213531,,,,,,,2023-04-13,1,,,,,キューエイインターナショナル,0
2320,9060003004505,新規,0,2023-04-13,2023-04-13,合同会社日新,,合同会社,栃木県,栃木市,国府町５５番地２,,09,203,3280006,,,,,,,2023-04-13,1,,,,,ニッシン,0
2327,9080001025575,新規,0,2023-04-13,2023-04-13,吉本邦弘不動産管理株式会社,,株式会社,静岡県,静岡市葵区,足久保口組１１５７番地の５,,22,101,4212124,,,,,,,2023-04-13,1,,,,,ヨシモトクニヒロフドウサンカンリ,0
2329,9080403004771,新規,0,2023-04-13,2023-04-13,合同会社きそや,,合同会社,静岡県,浜松市中区,中島２丁目６番３２号,,22,131,4300856,,,,,,,2023-04-13,1,,,,,キソヤ,0
2332,9090003002299,新規,0,2023-04-13,2023-04-13,合同会社ｔｅａｍＡ,,合同会社,山梨県,南都留郡富士河口湖町,船津５１８７－４,,19,430,4010301,,,,,,,2023-04-13,1,,,,,チームエー,0
2337,9110001037443,新規,0,2023-04-13,2023-04-13,株式会社アップテンポ,,株式会社,新潟県,新潟市中央区,南笹口１丁目１番３８号コープオリンピア笹口１０６号,,15,103,9500912,,,,,,,2023-04-13,1,,,,,アップテンポ,0
2340,9120001253865,新規,0,2023-04-13,2023-04-13,株式会社ＦＴパートナー,,株式会社,大阪府,枚方市,高野道２丁目５３番１５号,,27,210,5731131,,,,,,,2023-04-13,1,,,,,エフティーパートナー,0
2341,9120001253931,新規,0,2023-04-13,2023-04-13,サキアジ株式会社,,株式会社,大阪府,大阪市中央区,淡路町２丁目５番８号,,27,128,5410047,,,,,,,2023-04-13,1,,,,,サキアジ,0
2342,9120001253956,新規,0,2023-04-13,2023-04-13,Ｓｕｎ．Ｆｌｏｗｅｒ＆Ｂｉｒｄ株式会社,,株式会社,大阪府,大阪市中央区,北久宝寺町１丁目５番６－５０６号,,27,128,5410057,,,,,,,2023-04-13,1,,,,,サンドットフラワーアンドバード,0
2343,9120001253972,新規,0,2023-04-13,2023-04-13,株式会社皮革表現,,株式会社,大阪府,大阪市浪速区,敷津西１丁目１番１６号生駒ビル４０３,,27,111,5560015,,,,,,,2023-04-13,1,,,,,ヒカクヒョウゲン,0
2344,9120003023804,新規,0,2023-04-13,2023-04-13,コスパ合同会社,,合同会社,大阪府,大阪市鶴見区,茨田大宮１丁目１７番３５号,,27,124,5380031,,,,,,,2023-04-13,1,,,,,コスパ,0
2345,9120003023820,新規,0,2023-04-13,2023-04-13,合同会社ＶＡＺ　ＴＷＯ　ＬＬＣ．,,合同会社,大阪府,大阪市淀川区,西中島６丁目２－３チサンマンション第７新大阪９０４号,,27,123,5320011,,,,,,,2023-04-13,1,,,,,バズツーエルエルシー,0
2350,9120903004580,新規,0,2023-04-13,2023-04-13,合同会社雅,,合同会社,大阪府,茨木市,下穂積４丁目１４番３０７号,,27,211,5670041,,,,,,,2023-04-13,1,,,,,ミヤビ,0
2351,9120905006451,新規,0,2023-04-13,2023-04-13,一般社団法人脱炭素経営協会,,その他の設立登記法人,大阪府,吹田市,垂水町２丁目６番２１号,,27,205,5640062,,,,,,,2023-04-13,1,,,,,ダツタンソケイエイキョウカイ,0
2355,9130001074055,新規,0,2023-04-13,2023-04-13,株式会社アイテック,,株式会社,京都府,舞鶴市,字行永５６５番地２,,26,202,6250052,,,,,,,2023-04-13,1,,,,,アイテック,0
2356,9130001074105,新規,0,2023-04-13,2023-04-13,株式会社ビスカンパニー,,株式会社,京都府,京都市西京区,山田平尾町５１番地２４５,,26,111,6158256,,,,,,,2023-04-13,1,,,,,ビスカンパニー,0
2357,9130003008647,新規,0,2023-04-13,2023-04-13,合同会社Ｍｉｔｚ,,合同会社,京都府,京都市西京区,桂木ノ下町１番地１０３,,26,111,6158072,,,,,,,2023-04-13,1,,,,,ミッツ,0
2362,9140001129741,新規,0,2023-04-13,2023-04-13,株式会社ＫＵＭＡＣＨＩ,,株式会社,兵庫県,神戸市中央区,三宮町１丁目９番１号センタープラザ２階,,28,110,6500021,,,,,,,2023-04-13,1,,,,,クマチ,0
2366,9140003018967,新規,0,2023-04-13,2023-04-13,合同会社Ｔ‐ａｃｔ,,合同会社,兵庫県,豊岡市,若松町１３－９,,28,209,6680027,,,,,,,2023-04-13,1,,,,,ティーアクト,0
2368,9160003002845,新規,0,2023-04-13,2023-04-13,合同会社ヘリオスマネジメント,,合同会社,滋賀県,大津市,本堅田２丁目６番２０号,,25,201,5200242,,,,,,,2023-04-13,1,,,,,ヘリオスマネジメント,0
2379,9180003025101,新規,0,2023-04-13,2023-04-13,合同会社共栄建工,,合同会社,愛知県,名古屋市中村区,宮塚町７０番地３,,23,105,4530845,,,,,,,2023-04-13,1,,,,,トモエケンコウ,0
2383,9180305009462,新規,0,2023-04-13,2023-04-13,一般財団法人未来教育財団,,その他の設立登記法人,愛知県,刈谷市,住吉町３丁目８番地,,23,210,4480852,,,,,,,2023-04-13,1,,,,,ミライキョウイクザイダン,0
2385,9200005013464,新規,0,2023-04-13,2023-04-13,一般社団法人スフィダーレクリット,,その他の設立登記法人,岐阜県,安八郡神戸町,大字丈六道３６１番地の１,,21,381,5032304,,,,,,,2023-04-13,1,,,,,スフィダーレクリット,0
2386,9210005010089,新規,0,2023-04-13,2023-04-13,特定非営利活動法人不動産相続ふくい,,その他の設立登記法人,福井県,福井市,西開発２丁目２０７番地２,,18,201,9100843,,,,,,,2023-04-13,1,,,,,フドウサンソウゾクフクイ,0
2396,9240001061356,新規,0,2023-04-13,2023-04-13,株式会社Ｐｌａｉｎ,,株式会社,広島県,広島市安佐南区,東原１丁目１６番３－４０３号,,34,105,7310112,,,,,,,2023-04-13,1,,,,,プレイン,0
2412,9290001101149,新規,0,2023-04-13,2023-04-13,株式会社Ｅａｒｔｈ　ＫＪＩ,,株式会社,福岡県,福岡市城南区,樋井川６丁目８番１７－１０２号ＣＲＥＡＫＩＳＳＥＩ,,40,136,8140153,,,,,,,2023-04-13,1,,,,,アースケイジェイアイ,0
2413,9290001101157,新規,0,2023-04-13,2023-04-13,株式会社Ｒｏｏｔｓ,,株式会社,福岡県,福岡市中央区,舞鶴１丁目８番３０号プリズモ２１,,40,133,8100073,,,,,,,2023-04-13,1,,,,,ルーツ,0
2416,9290003013722,新規,0,2023-04-13,2023-04-13,合同会社ヴェリタ,,合同会社,福岡県,福岡市中央区,天神２丁目３－１３－３Ｆ,,40,133,8100001,,,,,,,2023-04-13,1,,,,,ヴェリタ,0
2417,9290003013771,新規,0,2023-04-13,2023-04-13,合同会社クロノス,,合同会社,福岡県,福岡市博多区,浦田２丁目３０番２号,,40,132,8120861,,,,,,,2023-04-13,1,,,,,クロノス,0
2420,9290801029457,新規,0,2023-04-13,2023-04-13,株式会社啓真,,株式会社,福岡県,北九州市八幡西区,町上津役東２丁目１６番２４号プレイス２１－２０３,,40,109,8070073,,,,,,,2023-04-13,1,,,,,ケイシン,0
2421,9290801029465,新規,0,2023-04-13,2023-04-13,株式会社Ｅ＆Ｐシステムズ,,株式会社,福岡県,京都郡みやこ町,犀川古川５０２番地,,40,625,8240217,,,,,,,2023-04-13,1,,,,,イーアンドピーシステムズ,0
2426,9340003004105,新規,0,2023-04-13,2023-04-13,合同会社優,,合同会社,鹿児島県,姶良市,蒲生町上久徳４７番地１,,46,225,8995302,,,,,,,2023-04-13,1,,,,,ユウ,0
2427,9340005009589,新規,0,2023-04-13,2023-04-13,一般社団法人かごしまランドバンク,,その他の設立登記法人,鹿児島県,鹿児島市,荒田１丁目５０番１６号,,46,201,8900054,,,,,,,2023-04-13,1,,,,,カゴシマランドバンク,0
2428,9360001031850,新規,0,2023-04-13,2023-04-13,大浜印刷株式会社,,株式会社,沖縄県,石垣市,新栄町７３番地８,,47,207,9070014,,,,,,,2023-04-13,1,,,,,オオハマインサツ,0
2429,9360001031859,新規,0,2023-04-13,2023-04-13,株式会社知念製麺所,,株式会社,沖縄県,沖縄市,久保田１丁目１番４号,,47,211,9040023,,,,,,,2023-04-13,1,,,,,チネンセイメンジョ,0
2432,9360003012865,新規,0,2023-04-13,2023-04-13,合同会社ＳＡＮＧＯ,,合同会社,沖縄県,石垣市,美崎町９－１０,,47,207,9070012,,,,,,,2023-04-13,1,,,,,サンゴ,0
2439,9410003003784,新規,0,2023-04-13,2023-04-13,合同会社ブイメソッド,,合同会社,秋田県,秋田市,中通６丁目６番２０号,,05,201,0100001,,,,,,,2023-04-13,1,,,,,ブイメソッド,0
2441,9430001088834,新規,0,2023-04-13,2023-04-13,株式会社タグジェクト,,株式会社,北海道,札幌市中央区,大通東２丁目３番地１,,01,101,0600041,,,,,,,2023-04-13,1,,,,,タグジェクト,0
2443,9430003014929,新規,0,2023-04-13,2023-04-13,合同会社ｓｙｍｃｒｅａｔｅ,,合同会社,北海道,札幌市豊平区,豊平三条７丁目１番１５－３０７号,,01,105,0620903,,,,,,,2023-04-13,1,,,,,シンクリエイト,0
2447,9450003002320,新規,0,2023-04-13,2023-04-13,合同会社ゆるり,,合同会社,北海道,旭川市,曙二条３丁目１番９号,,01,204,0700062,,,,,,,2023-04-13,1,,,,,ユルリ,0
2449,9460101007369,新規,0,2023-04-13,2023-04-13,株式会社ＳＭＩＴＨ,,株式会社,北海道,河東郡音更町,宝来西町南１丁目９番地１１,,01,631,0800134,,,,,,,2023-04-13,1,,,,,スミス,0
2450,9470001019570,新規,0,2023-04-13,2023-04-13,いろはコンサルティング株式会社,,株式会社,香川県,高松市,錦町１丁目６番８－４０３号,,37,201,7600020,,,,,,,2023-04-13,1,,,,,イロハコンサルティング,0
2453,9480005006952,新規,0,2023-04-13,2023-04-13,医療法人八千代いやしろ会,,その他の設立登記法人,徳島県,鳴門市,大麻町萩原字西山田１０７番地７,,36,202,7790221,,,,,,,2023-04-13,1,,,,,ヤチヨイヤシロカイ,0
2455,9500001024880,新規,0,2023-04-13,2023-04-13,Ｖｏｉｃｅ‐ｆｒｅｅ株式会社,,株式会社,愛媛県,松山市,正円寺３丁目３番３２号グレイスコートＡ１０１号,,38,201,7900904,,,,,,,2023-04-13,1,,,,,ヴォイスフリー,0
2457,9500003003016,新規,0,2023-04-13,2023-04-13,ひふみヨガ合同会社,,合同会社,愛媛県,松山市,勝山町２丁目１８番地３本山ビル３階,,38,201,7900878,,,,,,,2023-04-13,1,,,,,ヒフミヨガ,0
2459,9700150115386,新規,0,2023-04-13,2023-04-13,Ｓｈｅｎｚｈｅｎ　Ｈｕｉｓｈｅｎｇ　Ｔｅｃｈｎｏｌｏｇｙ　Ｃｏ．，Ｌｔｄ．,,外国会社等,,,,,,,,Ｘｉｎｈｕ　Ｒｏａｄ，Ｘｉｘｉａｎｇ，Ｂａｏ’ａｎ　Ｄｉｓｔｒｉｃｔ　Ｒｏｏｍ　３０４，Ｂｕｉｌｄｉｎｇ　Ｎｏ．３，Ｈａｉ　Ｗａｎ　Ｍｉｎｇ　Ｚｈｕ　Ｓｈｅｎｚｈｅｎ　Ｇｕａｎｇｄｏｎｇ　５１８１００　ＣＮ,,,,,,2023-04-13,1,,,,,シェンジェンフイションコージーヨウシエンゴンスー,0
2460,9700150115403,新規,0,2023-04-13,2023-04-13,Ｃａｂｌｅ　Ｍａｔｔｅｒｓ　Ｉｎｃ．,,外国会社等,,,,,,,,１５３　Ｎｏｒｔｈｂｏｒｏ　Ｒｏａｄ，Ｓｕｉｔｅ　５　Ｓｏｕｔｈｂｏｒｏｕｇｈ，ＭＡ　０１７７２,,,,,,2023-04-13,1,,,,,ケブルマターズインコーポレーテイツト,0
2461,9700150115411,新規,0,2023-04-13,2023-04-13,ＧｕａｎｇＺｈｏｕＣｈｉＹｕｅＸｉｎＸｉＫｅＪｉＹｏｕＸｉａｎＧｏｎｇＳｉ,,外国会社等,,,,,,,,ＬｉＷａｎＱｕＸｉＺｅｎｇＬｕ６３ＨａｏＺｉＢｉａｎＣ１０ＴａｉＲｏｎｇＳｈａｎｇＷｕＺｈｏｎｇＸｉｎ３２０Ｓｈｉ，ＧｕａｎｇＤｏｎｇ，ＧｕａｎｇＺｈｏｕ,,,,,,2023-04-13,1,,,,,コウシユウチエツジヨウホウテクノロジーユウゲンコウシ,0
