sequenceNumber,corporateNumber,process,correct,updateDate,changeDate,name,nameImageId,kind,prefectureName,cityName,streetNumber,addressImageId,prefectureCode,cityCode,postCode,addressOutside,addressOutsideImageId,closeDate,closeCause,successorCorporateNumber,changeCause,assignmentDate,latest,enName,enPrefectureName,enCityName,enAddressOutside,furigana,hihyoji
20,1010403014025,登記記録の閉鎖等,0,2022-03-11,2022-03-04,合同会社ＬＣＲＦ１１,,合同会社,東京都,港区,虎ノ門５丁目３番２０号株式会社アカウンティング・マネジメント・サービス内,,13,103,1050001,,,2022-03-04,清算の結了等,,,2015-11-05,1,,,,,エルシーアールエフイレブン,0
21,1010403019024,登記記録の閉鎖等,0,2022-03-11,2022-03-04,ブルーエナジーブリッジファンドアルファ合同会社,,合同会社,東京都,港区,元赤坂１丁目１番７号,,13,103,1070051,,,2022-03-04,清算の結了等,,,2018-07-26,1,,,,,ブルーエナジーブリッジファンドアルファ,0
22,1010403019627,登記記録の閉鎖等,0,2022-03-11,2022-03-04,ブルーエナジーブリッジファンドＷ合同会社,,合同会社,東京都,港区,元赤坂１丁目１番７号,,13,103,1070051,,,2022-03-04,清算の結了等,,,2018-11-05,1,,,,,ブルーエナジーブリッジファンドダブリュー,0
24,1010601006906,登記記録の閉鎖等,0,2022-03-11,2022-03-08,株式会社吉住シティ開発,,株式会社,東京都,江東区,亀戸２丁目４１番１１号,,13,108,1360071,,,2022-03-08,清算の結了等,,,2015-10-05,1,,,,,ヨシズミシティカイハツ,0
25,1010601035186,登記記録の閉鎖等,0,2022-03-11,2022-03-03,株式会社ノムラデュオ,,株式会社,東京都,港区,台場２丁目３番５号,,13,103,1350091,,,2022-03-03,合併による解散等,5010601023121,令和４年３月１日東京都港区台場二丁目３番５号株式会社ノムラメディアス（5010601023121）に合併し解散,2015-10-05,1,,,,,ノムラデュオ,0
61,1011601010699,登記記録の閉鎖等,0,2022-03-11,2022-03-09,株式会社エムケイ企画,,株式会社,東京都,練馬区,石神井台６丁目１番７号,,13,120,1770045,,,2022-03-09,清算の結了等,,,2015-10-05,1,,,,,エムケイキカク,0
100,1050001030239,登記記録の閉鎖等,0,2022-03-11,2022-03-08,株式会社ＣＡＰコンサル,,株式会社,茨城県,常総市,水海道橋本町３６０６番地８,,08,211,3030003,,,2022-03-08,清算の結了等,,,2015-10-05,1,,,,,シーエーピーコンサル,0
120,1080102000947,登記記録の閉鎖等,0,2022-03-11,2022-03-09,有限会社花芭羅,,有限会社,静岡県,沼津市,柳町３番８号,,22,203,4100043,,,2022-03-09,清算の結了等,,,2015-10-05,1,,,,,カバラ,0
133,1110001028020,登記記録の閉鎖等,0,2022-03-11,2022-03-04,北越トレイディング株式会社,,株式会社,東京都,中央区,日本橋本石町３丁目２番２号,,13,102,1030021,,,2022-03-04,清算の結了等,,,2015-10-05,1,,,,,ホクエツトレイディング,0
172,1140002058113,登記記録の閉鎖等,0,2022-03-11,2022-03-08,有限会社山清興産,,有限会社,兵庫県,芦屋市,親王塚町４番１－３０８号,,28,206,6590016,,,2022-03-08,清算の結了等,,,2015-10-05,1,,,,,ヤマセイコウサン,0
182,1180002003692,登記記録の閉鎖等,0,2022-03-11,2022-03-07,有限会社ウツミ,,有限会社,愛知県,名古屋市千種区,小松町６丁目１９番地の３,,23,101,4640853,,,2022-03-07,清算の結了等,,,2015-10-05,1,,,,,ウツミ,0
201,1240002020608,登記記録の閉鎖等,0,2022-03-11,2022-03-10,エイブルコンサルティング有限会社,,有限会社,広島県,広島市中区,銀山町２－１,,34,101,7300022,,,2022-03-10,清算の結了等,,,2015-10-05,1,,,,,エイブルコンサルティング,0
203,1260002028599,登記記録の閉鎖等,0,2022-03-11,2022-03-08,鈴木飲料有限会社,,有限会社,岡山県,津山市,中之町３７番地,,33,203,7080834,,,2022-03-08,清算の結了等,,,2015-10-05,1,,,,,スズキインリョウ,0
251,1430005008341,登記記録の閉鎖等,0,2022-03-11,2022-03-07,蘭越勤労者企業組合,,その他の設立登記法人,北海道,磯谷郡蘭越町,蘭越町６６番地２,,01,394,0481301,,,2022-03-07,清算の結了等,,,2015-10-05,1,,,,,ランコシキンロウシャ,0
270,2010401117514,登記記録の閉鎖等,0,2022-03-11,2022-03-07,ＺＩＯＮ　ＥＬＩＴＥ株式会社,,株式会社,東京都,港区,高輪４丁目２３番８号,,13,103,1080074,,,2022-03-07,合併による解散等,3010701008395,令和４年３月１日東京都品川区東大井五丁目９番７株式会社ビューティシオン（3010701008395）に合併し解散,2015-10-05,1,,,,,,0
278,2010601035185,登記記録の閉鎖等,0,2022-03-11,2022-03-03,株式会社ノムラデベロップメント,,株式会社,東京都,港区,台場２丁目３番５号,,13,103,1350091,,,2022-03-03,合併による解散等,5010601023121,令和４年３月１日東京都港区台場二丁目３番５号株式会社ノムラメディアス（5010601023121）に合併し解散,2015-10-05,1,,,,,ノムラデベロップメント,0
289,2011001060204,登記記録の閉鎖等,0,2022-03-11,2022-03-09,株式会社代官山ガーデン,,株式会社,東京都,渋谷区,猿楽町３番地１４,,13,113,1500033,,,2022-03-09,清算の結了等,,,2015-10-05,1,,,,,ダイカンヤマガーデン,0
291,2011001112938,登記記録の閉鎖等,0,2022-03-11,2022-03-07,屋上発電株式会社,,株式会社,東京都,中野区,本町２丁目５４番１３号,,13,114,1640012,,,2022-03-07,清算の結了等,,,2016-09-30,1,,,,,オクジョウハツデン,0
348,2040003009289,登記記録の閉鎖等,0,2022-03-11,2022-03-03,合同会社ＡＰ１号,,合同会社,千葉県,柏市,柏４丁目５番１０号,,12,217,2770005,,,2022-03-03,清算の結了等,,,2016-11-14,1,,,,,エーピーイチゴウ,0
352,2050001030312,登記記録の閉鎖等,0,2022-03-11,2022-03-08,株式会社野口商店,,株式会社,茨城県,取手市,新町２丁目２番１６号,,08,217,3020024,,,2022-03-08,清算の結了等,,,2015-10-05,1,,,,,ノグチショウテン,0
354,2050002036259,登記記録の閉鎖等,0,2022-03-11,2022-03-08,有限会社笠間クリーニング商会,,有限会社,茨城県,取手市,白山６丁目２２番１号,,08,217,3020023,,,2022-03-08,清算の結了等,,,2015-10-05,1,,,,,カサマクリーニングショウカイ,0
360,2070001015682,登記記録の閉鎖等,0,2022-03-11,2022-03-08,株式会社オイケ,,株式会社,群馬県,桐生市,新里町板橋３２８番地の１,,10,203,3760136,,,2022-03-08,清算の結了等,,,2015-10-05,1,,,,,オイケ,0
364,2080001001888,登記記録の閉鎖等,0,2022-03-11,2022-03-09,株式会社ジェイコム,,株式会社,静岡県,静岡市駿河区,池田３８７５番地の６４,,22,102,4228005,,,2022-03-09,清算の結了等,,,2015-10-05,1,,,,,ジェイコム,0
390,2120001174705,登記記録の閉鎖等,0,2022-03-11,2022-03-07,株式会社玉屋,,株式会社,大阪府,大阪市浪速区,桜川２丁目１２番１号,,27,111,5560022,,,2022-03-07,清算の結了等,,,2015-10-05,1,,,,,,0
401,2120003018587,登記記録の閉鎖等,0,2022-03-11,2022-03-01,セブンシーズ合同会社,,合同会社,大阪府,大阪市北区,梅田２丁目５番１３号桜橋第一ビル３０４号,,27,127,5300001,,,2022-03-01,合併による解散等,5120003013057,令和４年３月１日大阪市中央区伏見町四丁目４番９号エムステージ株式会社（5120003013057）に合併し解散,2020-12-17,1,,,,,セブンシーズ,0
408,2120103003506,登記記録の閉鎖等,0,2022-03-11,2022-03-07,合同会社ぼちぼち,,合同会社,大阪府,泉南市,信達大苗代３６番地の２２,,27,228,5900505,,,2022-03-07,清算の結了等,,,2019-11-06,1,,,,,ボチボチ,0
428,2180001007553,登記記録の閉鎖等,0,2022-03-11,2022-02-07,株式会社明邦工業,,株式会社,愛知県,名古屋市港区,港栄２丁目１番３号,,23,111,4550015,,,2022-02-07,清算の結了等,,,2015-10-05,1,,,,,メイホウコウギョウ,0
485,2390002009676,登記記録の閉鎖等,0,2022-03-11,2022-03-09,有限会社ぱれっと,,有限会社,山形県,鶴岡市,大塚町２４番１５号,,06,203,9970047,,,2022-03-09,清算の結了等,,,2015-10-05,1,,,,,パレット,0
503,3010001059016,登記記録の閉鎖等,0,2022-03-11,2022-03-03,株式会社本島椿,,株式会社,東京都,豊島区,池袋２丁目５１番１３号,,13,116,1710014,,,2022-03-03,合併による解散等,5013301021733,令和４年３月１日東京都豊島区池袋二丁目５１番１３号株式会社三宝（5013301021733）に合併し解散,2015-10-05,1,,,,,ホントウツバキ,0
504,3010001059809,登記記録の閉鎖等,0,2022-03-11,2022-03-01,株式会社ユニットプランニング,,株式会社,東京都,中央区,入船１丁目７番１０号,,13,102,1040042,,,2022-03-01,清算の結了等,,,2015-10-05,1,,,,,ユニットプランニング,0
530,3010403020228,登記記録の閉鎖等,0,2022-03-11,2022-03-09,合同会社ＤＡヘルスケア４,,合同会社,東京都,港区,虎ノ門４丁目３番１号城山トラストタワー３３階,,13,103,1050001,,,2022-03-09,清算の結了等,,,2019-02-26,1,,,,,ディーエーヘルスケアフォー,0
533,3010405010202,登記記録の閉鎖等,0,2022-03-11,2022-03-08,一般社団法人水と海洋の未来研究所,,その他の設立登記法人,神奈川県,大和市,深見３８３９番地４４,,14,213,2420011,,,2022-03-08,清算の結了等,,,2015-10-05,1,,,,,ミズトカイヨウノミライケンキュウジョ,0
549,3011101010405,登記記録の閉鎖等,0,2022-03-11,2022-03-03,株式会社スクエア,,株式会社,東京都,港区,台場２丁目３番５号,,13,103,1350091,,,2022-03-03,合併による解散等,8010601005133,令和４年３月１日東京都港区台場二丁目３番５号株式会社ノムラアークス（8010601005133）に合併し解散,2015-10-05,1,,,,,スクエア,0
579,3021005003322,登記記録の閉鎖等,0,2022-03-11,2022-03-07,土地家屋調査士法人相模測量登記事務所,,その他の設立登記法人,神奈川県,相模原市中央区,淵野辺４丁目１９番１８号,,14,152,2520206,,,2022-03-07,清算の結了等,,,2015-10-05,1,,,,,サガミソクリョウトウキジムショ,0
581,3030001058940,登記記録の閉鎖等,0,2022-03-11,2022-03-07,ライフツール株式会社,,株式会社,埼玉県,ふじみ野市,鶴ケ舞１丁目１１番１７号,,11,245,3560041,,,2022-03-07,清算の結了等,,,2015-10-05,1,,,,,ライフツール,0
582,3030001084508,登記記録の閉鎖等,0,2022-03-11,2022-03-07,株式会社エルブイアール,,株式会社,埼玉県,熊谷市,戸出４２３番地２,,11,202,3600022,,,2022-03-07,清算の結了等,,,2015-10-05,1,,,,,エルブイアール,0
583,3030001098549,登記記録の閉鎖等,0,2022-03-11,2022-03-07,株式会社名雪工務店,,株式会社,埼玉県,北葛飾郡松伏町,大字松伏４７５７番地３０,,11,465,3430111,,,2022-03-07,清算の結了等,,,2015-10-05,1,,,,,,0
593,3030002043033,登記記録の閉鎖等,0,2022-03-11,2022-03-07,有限会社アーバン企画,,有限会社,埼玉県,草加市,青柳６丁目１３番４号,,11,221,3400002,,,2022-03-07,清算の結了等,,,2015-10-05,1,,,,,アーバンキカク,0
594,3030002048817,登記記録の閉鎖等,0,2022-03-11,2022-03-07,有限会社コバヤシ企画,,有限会社,埼玉県,三郷市,高州１丁目２０５番地,,11,237,3410037,,,2022-03-07,清算の結了等,,,2015-10-05,1,,,,,,0
599,3030003018414,登記記録の閉鎖等,0,2022-03-11,2022-03-08,カラーズ合同会社,,合同会社,埼玉県,春日部市,備後西３丁目１１番５２－６０２号,,11,214,3440033,,,2022-03-08,清算の結了等,,,2021-12-06,1,,,,,カラーズ,0
635,3110002033050,登記記録の閉鎖等,0,2022-03-11,2022-03-08,有限会社卓央運輸,,有限会社,新潟県,南魚沼市,大月６３６番地,,15,226,9496682,,,2022-03-08,清算の結了等,,,2015-10-05,1,,,,,タカオウンユ,0
653,3120101024445,登記記録の閉鎖等,0,2022-03-11,2022-03-07,株式会社昇栄,,株式会社,大阪府,堺市堺区,北庄町１丁５番２４号,,27,141,5900007,,,2022-03-07,清算の結了等,,,2015-10-05,1,,,,,ショウエイ,0
669,3160001009526,登記記録の閉鎖等,0,2022-03-11,2022-03-10,株式会社シーズダイニング,,株式会社,滋賀県,米原市,中多良６４５番地３,,25,214,5210011,,,2022-03-10,清算の結了等,,,2015-10-05,1,,,,,シーズダイニング,0
679,3180001125494,登記記録の閉鎖等,0,2022-03-11,2022-03-08,株式会社アルシオン,,株式会社,愛知県,津島市,中一色町清光坊１５番地６,,23,208,4960025,,,2022-03-08,清算の結了等,,,2016-11-10,1,,,,,アルシオン,0
692,3190002015529,登記記録の閉鎖等,0,2022-03-11,2022-03-10,有限会社上田エレベーター,,有限会社,三重県,松阪市,嬉野中川町４３２番地１８,,24,204,5152321,,,2022-03-10,清算の結了等,,,2015-10-05,1,,,,,ウエダエレベーター,0
722,3290003009593,登記記録の閉鎖等,0,2022-03-11,2022-03-08,合同会社アールサポート,,合同会社,福岡県,筑紫野市,美しが丘南１丁目９番地４,,40,217,8180034,,,2022-03-08,清算の結了等,,,2019-12-11,1,,,,,アールサポート,0
746,3380001019767,登記記録の閉鎖等,0,2022-03-11,2022-03-07,株式会社吉田建築,,株式会社,福島県,田村市,大越町上大越字曲田原１４６番地１４,,07,211,9634111,,,2022-03-07,清算の結了等,,,2015-10-05,1,,,,,,0
749,3380003004627,登記記録の閉鎖等,0,2022-03-11,2022-03-09,ＴＭＲ台北科技合同会社,,合同会社,福島県,郡山市,富久山町八山田字牛ケ池１９番地の３０,,07,203,9638051,,,2022-03-09,清算の結了等,,,2020-03-11,1,,,,,ティーエムアールタイペイカギ,0
763,3430002015082,登記記録の閉鎖等,0,2022-03-11,2022-03-03,有限会社日昭コーポレーション,,有限会社,北海道,札幌市東区,北二十五条東１５丁目４番２１号,,01,103,0650025,,,2022-03-03,清算の結了等,,,2015-10-05,1,,,,,ニッショウコーポレーション,0
778,3500002013087,登記記録の閉鎖等,0,2022-03-11,2022-03-09,大城製材有限会社,,有限会社,愛媛県,八幡浜市,若山１番耕地２９番地,,38,204,7968035,,,2022-03-09,清算の結了等,,,2015-10-05,1,,,,,オオシロセイザイ,0
783,4010001146597,登記記録の閉鎖等,0,2022-03-11,2022-03-09,株式会社オズ,,株式会社,大阪府,八尾市,八尾木３丁目８９番地,,27,212,5810027,,,2022-03-09,合併による解散等,7140001054652,令和４年２月２８日大阪市北区角田町６番１１号株式会社ＡＣＥＣ（7140001054652）に合併し解散,2015-10-05,1,,,,,オズ,0
805,4010601006564,登記記録の閉鎖等,0,2022-03-11,2022-03-07,株式会社ＬＩＸＩＬトラベル,,株式会社,東京都,江東区,大島２丁目１番１号,,13,108,1360072,,,2022-03-07,清算の結了等,,,2015-10-05,1,,,,,リクシルトラベル,0
808,4010701028987,登記記録の閉鎖等,0,2022-03-11,2022-03-08,株式会社銀座大増,,株式会社,東京都,江東区,東陽６丁目３番２号,,13,108,1350016,,,2022-03-08,清算の結了等,,,2015-10-05,1,,,,,ギンザダイマス,0
826,4011101085495,登記記録の閉鎖等,0,2022-03-11,2022-03-02,ＩＷＧホールディングスジャパン株式会社,,株式会社,東京都,新宿区,西新宿３丁目７番１号新宿パークタワー３０階,,13,104,1600023,,,2022-03-02,合併による解散等,6011101026712,令和４年３月１日東京都新宿区西新宿三丁目７番１号新宿パークタワー３０階日本リージャス株式会社（6011101026712）に合併し解散,2018-10-02,1,,,,,アイダブリュージーホールディングスジャパン,0
842,4012401001679,登記記録の閉鎖等,0,2022-03-11,2022-03-04,宮町管理株式会社,,株式会社,東京都,府中市,宮町２丁目３番地の８,,13,206,1830023,,,2022-03-04,合併による解散等,2012401000749,令和４年３月１日東京都府中市宮町二丁目３番地の８株式会社しめのうち（2012401000749）に合併し解散,2015-10-05,1,,,,,ミヤマチカンリ,0
852,4020001059682,登記記録の閉鎖等,0,2022-03-11,2022-03-08,株式会社エム・ティー・シー,,株式会社,神奈川県,横浜市磯子区,東町１９番１０－８１１号,,14,107,2350005,,,2022-03-08,清算の結了等,,,2015-10-05,1,,,,,エムティーシー,0
871,4040001025377,登記記録の閉鎖等,0,2022-03-11,2022-03-03,株式会社加藤アセットコンサルティング,,株式会社,千葉県,市川市,市川南１丁目２番３号,,12,203,2720033,,,2022-03-03,清算の結了等,,,2015-10-05,1,,,,,カトウアセットコンサルティング,0
874,4040001094926,登記記録の閉鎖等,0,2022-03-11,2022-03-04,レント・レア株式会社,,株式会社,千葉県,千葉市花見川区,朝日ケ丘４丁目１８番４０号,,12,102,2620019,,,2022-03-04,清算の結了等,,,2016-04-18,1,,,,,レントレア,0
875,4040001109741,登記記録の閉鎖等,0,2022-03-11,2022-03-07,株式会社順和,,株式会社,千葉県,市原市,光風台２丁目８１番地２,,12,219,2900255,,,2022-03-07,清算の結了等,,,2019-06-28,1,,,,,ジュンワ,0
891,4100002008325,登記記録の閉鎖等,0,2022-03-11,2022-03-09,有限会社金箱商店,,有限会社,長野県,須坂市,臥竜５丁目７番１８号,,20,207,3820028,,,2022-03-09,清算の結了等,,,2015-10-05,1,,,,,カネバコショウテン,0
915,4122001012231,登記記録の閉鎖等,0,2022-03-11,2022-03-07,ベンゼネラル株式会社,,株式会社,大阪府,大阪市天王寺区,堂ケ芝１丁目１１番３号,,27,109,5430033,,,2022-03-07,清算の結了等,,,2015-10-05,1,,,,,ベンゼネラル,0
923,4130002023197,登記記録の閉鎖等,0,2022-03-11,2022-03-08,有限会社京阪総合食品,,有限会社,京都府,京都市伏見区,下鳥羽広長町２０３番地,,26,109,6128473,,,2022-03-08,清算の結了等,,,2015-10-05,1,,,,,,0
932,4180001094409,登記記録の閉鎖等,0,2022-03-11,2022-03-07,株式会社東光,,株式会社,愛知県,東海市,富貴ノ台３丁目１３８番地,,23,222,4760014,,,2022-03-07,清算の結了等,,,2015-10-05,1,,,,,トウコウ,0
943,4180003019140,登記記録の閉鎖等,0,2022-03-11,2022-03-08,合同会社ＫＩガレージ,,合同会社,愛知県,名古屋市中川区,江松１丁目２０１番地,,23,110,4540954,,,2022-03-08,清算の結了等,,,2018-07-24,1,,,,,ケーアイガレージ,0
946,4180301017977,登記記録の閉鎖等,0,2022-03-11,2022-03-09,株式会社エス・イー・ラボ,,株式会社,愛知県,豊田市,岩倉町上室５３番地８,,23,211,4442225,,,2022-03-09,清算の結了等,,,2015-10-05,1,,,,,エスイーラボ,0
950,4210003001235,登記記録の閉鎖等,0,2022-03-11,2022-03-07,明道館出版合同会社,,合同会社,福井県,福井市,宝永３丁目３０番１６号,,18,201,9100004,,,2022-03-07,清算の結了等,,,2020-05-25,1,,,,,メイドウカンシュッパン,0
963,4250002001884,登記記録の閉鎖等,0,2022-03-11,2022-03-10,有限会社ながふじ,,有限会社,山口県,山口市,秋穂東５２８７番地の１,,35,203,7541101,,,2022-03-10,清算の結了等,,,2015-10-05,1,,,,,ナガフジ,0
998,4390005008789,登記記録の閉鎖等,0,2022-03-11,2022-03-08,社会保険労務士法人経友会,,その他の設立登記法人,山形県,山形市,東山形１丁目６番２６号ホシカワビル１０１号室,,06,201,9900022,,,2022-03-08,清算の結了等,,,2019-09-17,1,,,,,ケイユウカイ,0
1020,5010001173847,登記記録の閉鎖等,0,2022-03-11,2022-02-21,株式会社ヒラオカ,,株式会社,東京都,渋谷区,神山町２０番４６号,,13,113,1500047,,,2022-02-21,清算の結了等,,,2016-02-29,1,,,,,ヒラオカ,0
1047,5011001117918,登記記録の閉鎖等,0,2022-03-11,2022-03-03,株式会社ＧＥＮＩＣ　ＬＡＢ,,株式会社,東京都,千代田区,平河町２丁目５番３号,,13,101,1020093,,,2022-03-03,合併による解散等,1010701022159,令和４年１月１日東京都千代田区平河町二丁目５番３号株式会社ガイアックス（1010701022159）に合併し解散,2017-08-21,1,,,,,ジェニックラボ,0
1106,5030001044947,登記記録の閉鎖等,0,2022-03-11,2022-03-04,東洋プリンティング株式会社,,株式会社,東京都,文京区,本郷３丁目７番３号,,13,105,1130033,,,2022-03-04,清算の結了等,,,2015-10-05,1,,,,,トウヨウプリンティング,0
1142,5080402018413,登記記録の閉鎖等,0,2022-03-11,2022-03-08,有限会社小笠農園,,有限会社,静岡県,菊川市,嶺田２８６番地の１,,22,224,4371522,,,2022-03-08,清算の結了等,,,2015-10-05,1,,,,,オガサノウエン,0
1168,5120003008924,登記記録の閉鎖等,0,2022-03-11,2022-03-04,合同会社平野商会,,合同会社,大阪府,大阪市浪速区,日本橋東３丁目１４番１０－１００６号,,27,111,5560006,,,2022-03-04,清算の結了等,,,2015-10-05,1,,,,,ヒラノショウカイ,0
1189,5140002041874,登記記録の閉鎖等,0,2022-03-11,2022-03-08,有限会社南国工作所,,有限会社,兵庫県,尼崎市,名神町１丁目１番１４号,,28,202,6610021,,,2022-03-08,清算の結了等,,,2015-10-05,1,,,,,ナンゴクコウサクショ,0
1200,5180002076933,登記記録の閉鎖等,0,2022-03-11,2022-03-04,有限会社タジマ,,有限会社,愛知県,一宮市,平島１丁目２４番２１号,,23,203,4910833,,,2022-03-04,清算の結了等,,,2015-10-05,1,,,,,タジマ,0
1223,5260001007121,登記記録の閉鎖等,0,2022-03-11,2022-03-10,株式会社ローゼン,,株式会社,岡山県,岡山市中区,藤崎３９４番地７,,33,102,7028006,,,2022-03-10,清算の結了等,,,2015-10-05,1,,,,,ローゼン,0
1246,5370102000856,登記記録の閉鎖等,0,2022-03-11,2022-03-04,有限会社松野工業,,有限会社,宮城県,白石市,大平中目字中屋敷前３０番地の１,,04,206,9890216,,,2022-03-04,清算の結了等,,,2015-10-05,1,,,,,マツノコウギョウ,0
1261,5460105001867,登記記録の閉鎖等,0,2022-03-11,2022-03-04,特定非営利活動法人生活支援ネットワーク結,,その他の設立登記法人,北海道,河西郡芽室町,東六条４丁目１番地１５,,01,637,0820016,,,2022-03-04,清算の結了等,,,2015-10-05,1,,,,,セイカツシエンネットワークユイ,0
1268,5500002013184,登記記録の閉鎖等,0,2022-03-11,2022-03-09,有限会社クリア,,有限会社,愛媛県,八幡浜市,保内町宮内５番耕地８７番地１７,,38,204,7960202,,,2022-03-09,清算の結了等,,,2015-10-05,1,,,,,クリア,0
1281,6010003026762,登記記録の閉鎖等,0,2022-03-11,2022-03-03,合同会社ＵＳプロパティファイナンス６号,,合同会社,東京都,中央区,日本橋兜町３番１１号三田証券株式会社内,,13,102,1030026,,,2022-03-03,清算の結了等,,,2018-01-15,1,,,,,ユーエスプロパティファイナンスロクゴウ,0
1286,6010401081616,登記記録の閉鎖等,0,2022-03-11,2022-03-04,株式会社ＤｅａｒＰｒｉｎｃｅｓｓ,,株式会社,東京都,港区,南青山２丁目１１番１３号,,13,103,1070062,,,2022-03-04,清算の結了等,,,2015-10-05,1,,,,,ディアプリンセス,0
1296,6010601044810,登記記録の閉鎖等,0,2022-03-11,2022-03-08,株式会社オリカ,,株式会社,東京都,墨田区,千歳２丁目６番２号,,13,107,1300025,,,2022-03-08,清算の結了等,,,2015-10-05,1,,,,,オリカ,0
1308,6011801030393,登記記録の閉鎖等,0,2022-03-11,2022-03-09,株式会社ＦＲＥＯ,,株式会社,東京都,足立区,一ツ家１丁目１５番１４－２０２号,,13,121,1210075,,,2022-03-09,清算の結了等,,,2015-10-05,1,,,,,フレオ,0
1320,6020001060580,登記記録の閉鎖等,0,2022-03-11,2022-03-08,株式会社ルーツ,,株式会社,神奈川県,横浜市神奈川区,六角橋１丁目１８番２号,,14,102,2210802,,,2022-03-08,清算の結了等,,,2015-10-05,1,,,,,ルーツ,0
1326,6021001061528,登記記録の閉鎖等,0,2022-03-11,2022-02-24,株式会社花建,,株式会社,神奈川県,相模原市緑区,大島２６９３番地２－２０１,,14,151,2520135,,,2022-02-24,清算の結了等,,,2017-03-06,1,,,,,ハナケン,0
1327,6021002071402,登記記録の閉鎖等,0,2022-03-11,2022-03-07,有限会社菓匠原万堂,,有限会社,神奈川県,三浦市,三崎町諸磯９６２番地,,14,210,2380224,,,2022-03-07,清算の結了等,,,2015-10-05,1,,,,,カショウハラマンドウ,0
1329,6021003005771,登記記録の閉鎖等,0,2022-03-11,2022-02-16,合同会社ＤＹＰ,,合同会社,神奈川県,大和市,福田３６５番地２１,,14,213,2420024,,,2022-02-16,清算の結了等,,,2016-01-29,1,,,,,ディーワイピー,0
1345,6030003009518,登記記録の閉鎖等,0,2022-03-11,2022-03-07,合同会社エスアールシー,,合同会社,埼玉県,春日部市,備後西５丁目７番３４号,,11,214,3440033,,,2022-03-07,清算の結了等,,,2016-11-08,1,,,,,エスアールシー,0
1410,6180003000791,登記記録の閉鎖等,0,2022-03-11,2022-03-07,合資会社ちたや,,合資会社,愛知県,名古屋市昭和区,滝子町２５番７号,,23,107,4660053,,,2022-03-07,清算の結了等,,,2015-10-05,1,,,,,チタヤ,0
1432,6280002001500,登記記録の閉鎖等,0,2022-03-11,2022-03-10,有限会社でんきのサンアツプ,,有限会社,島根県,松江市,上乃木７丁目３番２号,,32,201,6900015,,,2022-03-10,清算の結了等,,,2015-10-05,1,,,,,デンキノサンアップ,0
1451,6320001010885,登記記録の閉鎖等,0,2022-03-11,2022-03-07,今吉商事株式会社,,株式会社,大分県,中津市,１６６０番地の５,,44,203,8710099,,,2022-03-07,清算の結了等,,,2015-10-05,1,,,,,イマヨシショウジ,0
1483,6460402000034,登記記録の閉鎖等,0,2022-03-11,2022-03-10,有限会社インテリア．エス工房,,有限会社,北海道,根室市,西浜町５丁目３８番地,,01,223,0870025,,,2022-03-10,清算の結了等,,,2015-10-05,1,,,,,インテリアエスコイボウ,0
1490,7010001054723,登記記録の閉鎖等,0,2022-03-11,2022-03-04,株式会社はくび画廊,,株式会社,東京都,中央区,銀座７丁目１３番２１号,,13,102,1040061,,,2022-03-04,清算の結了等,,,2015-10-05,1,,,,,ハクビガロウ,0
1491,7010001181880,登記記録の閉鎖等,0,2022-03-11,2022-03-07,株式会社ＫＴＳクリエイト,,株式会社,東京都,武蔵野市,吉祥寺本町４丁目９番１７号,,13,203,1800004,,,2022-03-07,清算の結了等,,,2017-03-08,1,,,,,ケイティーエスクリエイト,0
1510,7010403018920,登記記録の閉鎖等,0,2022-03-11,2022-03-04,カカミケ合同会社,,合同会社,東京都,港区,浜松町２丁目２番１５号,,13,103,1050013,,,2022-03-04,清算の結了等,,,2018-07-09,1,,,,,カカミケ,0
1517,7010601024729,登記記録の閉鎖等,0,2022-03-11,2022-03-09,株式会社明邦テクノ,,株式会社,東京都,墨田区,江東橋４丁目５番５－４０９号,,13,107,1300022,,,2022-03-09,清算の結了等,,,2015-10-05,1,,,,,,0
1526,7010901045350,登記記録の閉鎖等,0,2022-03-11,2022-03-09,Ｄｅｆｉ株式会社,,株式会社,東京都,世田谷区,池尻３丁目２１番１６－４０８号,,13,112,1540001,,,2022-03-09,清算の結了等,,,2019-12-06,1,,,,,デフィー,0
1534,7011001128491,登記記録の閉鎖等,0,2022-03-11,2022-03-03,株式会社ｉｌｕｍｉｎａｒ,,株式会社,東京都,渋谷区,千駄ヶ谷３丁目１３番８－２０２号,,13,113,1510051,,,2022-03-03,清算の結了等,,,2019-06-12,1,,,,,イルミナル,0
1543,7011101081995,登記記録の閉鎖等,0,2022-03-11,2022-03-02,ＩＷＧサービスジャパン株式会社,,株式会社,東京都,新宿区,西新宿３丁目７番１号新宿パークタワー３０階,,13,104,1600023,,,2022-03-02,合併による解散等,1011101064634,令和４年３月１日東京都新宿区西新宿三丁目７番１号新宿パークタワー３０階日本リージャスホールディングス株式会社（1011101064634）に合併し解散,2017-10-20,1,,,,,アイダブリュジーサービスジャパン,0
1597,7040002004699,登記記録の閉鎖等,0,2022-03-11,2022-03-04,有限会社サンクチュアリ,,有限会社,神奈川県,横浜市鶴見区,岸谷４丁目１８－１－８０７,,14,101,2300078,,,2022-03-04,合併による解散等,3120102003076,令和４年３月１日新潟県三条市帯織２３４２番地２サンクチュアリ株式会社（3120102003076）に合併し解散,2015-10-05,1,,,,,サンクチュアリ,0
1600,7050001041338,登記記録の閉鎖等,0,2022-03-11,2022-03-07,株式会社ランドリープラス,,株式会社,茨城県,つくば市,松代２丁目７番地７,,08,220,3050035,,,2022-03-07,清算の結了等,,,2016-07-20,1,,,,,ランドリープラス,0
1616,7100001020419,登記記録の閉鎖等,0,2022-03-11,2022-03-10,株式会社ワイズ,,株式会社,長野県,諏訪市,大字四賀２３９８番地,,20,206,3920012,,,2022-03-10,清算の結了等,,,2015-10-05,1,,,,,ワイズ,0
1617,7100001024428,登記記録の閉鎖等,0,2022-03-11,2022-03-09,株式会社美清,,株式会社,長野県,上田市,上田１７１２番地６号,,20,203,3860001,,,2022-03-09,清算の結了等,,,2015-10-05,1,,,,,ビシン,0
1632,7120002058472,登記記録の閉鎖等,0,2022-03-11,2022-03-07,有限会社Ｉ．Ｄ．Ｅ．ｅ．ＣＲＥＡＴＩＯＮ　Ｆ．Ｓ．Ｉ．,,有限会社,大阪府,大阪市西区,靱本町１丁目９番１５号,,27,106,5500004,,,2022-03-07,清算の結了等,,,2015-10-05,1,,,,,イデエクリエーションエフエスアイ,0
1635,7120101028137,登記記録の閉鎖等,0,2022-03-11,2022-03-07,株式会社ピープル薬局,,株式会社,大阪府,松原市,上田３丁目４番１１号,,27,217,5800016,,,2022-03-07,合併による解散等,4120001131547,令和４年３月１日大阪市淀川区宮原四丁目５番３６号株式会社キリン堂（4120001131547）に合併し解散,2015-10-05,1,,,,,ピープルヤッキョク,0
1659,7140005009033,登記記録の閉鎖等,0,2022-03-11,2022-03-10,特定非営利活動法人ＥＭＥＲＧＥＮＣＹ　ＪＡＰＡＮ－Ｌｉｆｅ　Ｓｕｐｐｏｒｔ　ｆｏｒ　Ｃｉｖｉｌｉａｎ　Ｗａｒ　Ｖｉｃｔｉｍｓ,,その他の設立登記法人,兵庫県,丹波篠山市,味間南２番地３,,28,221,6692222,,,2022-03-10,清算の結了等,,,2015-10-05,1,,,,,エマージェンシージャパンライフサポートフォーシビリアンウォービクティムズ,0
1681,7180005016653,登記記録の閉鎖等,0,2022-03-11,2022-03-10,特定非営利活動法人タッチ・ザ・ハート・ジャパン,,その他の設立登記法人,愛知県,名古屋市中区,大須１丁目７番２６号,,23,106,4600011,,,2022-03-10,清算の結了等,,,2016-02-25,1,,,,,タッチザハートジャパン,0
1694,7240001008672,登記記録の閉鎖等,0,2022-03-11,2022-03-09,株式会社ニューフロンティア,,株式会社,広島県,広島市東区,福田１丁目４７３番地の１６,,34,102,7320029,,,2022-03-09,清算の結了等,,,2015-10-05,1,,,,,ニューフロンティア,0
1704,7270001006698,登記記録の閉鎖等,0,2022-03-11,2022-03-07,株式会社中澤会計,,株式会社,鳥取県,鳥取市,南隈８８１番地,,31,201,6800903,,,2022-03-07,清算の結了等,,,2015-10-05,1,,,,,ナカザワカイケイ,0
1724,7340002027884,登記記録の閉鎖等,0,2022-03-11,2022-03-09,有限会社坪信商会,,有限会社,鹿児島県,志布志市,志布志町志布志３９３番地９,,46,221,8997103,,,2022-03-09,清算の結了等,,,2015-10-05,1,,,,,ツボシンショウカイ,0
1730,7380001013691,登記記録の閉鎖等,0,2022-03-11,2022-03-08,株式会社一二三屋,,株式会社,福島県,いわき市,平字月見町３３番地の５,,07,204,9708026,,,2022-03-08,合併による解散等,2220001008745,令和４年３月１日石川県白山市松本町２５１２番地株式会社クスリのアオキ（2220001008745）に合併し解散,2015-10-05,1,,,,,ヒフミヤ,0
1743,7430002001483,登記記録の閉鎖等,0,2022-03-11,2022-03-07,有限会社池野塗工部,,有限会社,北海道,札幌市清田区,北野三条５丁目４番１１号,,01,110,0040863,,,2022-03-07,清算の結了等,,,2015-10-05,1,,,,,イケノトコウブ,0
1744,7430002027941,登記記録の閉鎖等,0,2022-03-11,2022-03-10,有限会社フクトミクリエイション,,有限会社,北海道,札幌市北区,新琴似七条９丁目５番１５号,,01,102,0010907,,,2022-03-10,清算の結了等,,,2015-10-05,1,,,,,フクトミクリエイション,0
1767,8010403021733,登記記録の閉鎖等,0,2022-03-11,2022-03-04,ブルーエナジーブリッジファンドイータ合同会社,,合同会社,東京都,港区,元赤坂１丁目１番７号,,13,103,1070051,,,2022-03-04,清算の結了等,,,2019-11-08,1,,,,,ブルーエナジーブリッジファンドイータ,0
1837,8020005007031,登記記録の閉鎖等,0,2022-03-11,2022-03-08,特定非営利活動法人オープンソースソフトウェア・シティ,,その他の設立登記法人,神奈川県,横浜市保土ケ谷区,鎌谷町３４７番地の２５,,14,106,2400063,,,2022-03-08,清算の結了等,,,2015-10-05,1,,,,,オープンソースソフトウェアシティ,0
1843,8030001079503,登記記録の閉鎖等,0,2022-03-11,2022-03-07,株式会社旧シマックス,,株式会社,埼玉県,川口市,本町４丁目１番８号,,11,203,3320012,,,2022-03-07,清算の結了等,,,2015-10-05,1,,,,,キュウシマックス,0
1856,8040001082737,登記記録の閉鎖等,0,2022-03-11,2022-03-04,住環境テクノライフ株式会社,,株式会社,千葉県,千葉市美浜区,中瀬１丁目３番地幕張テクノガーデンＣＢ棟３階,,12,106,2610023,,,2022-03-04,清算の結了等,,,2015-10-05,1,,,,,ジュウカンキョウテクノライフ,0
1868,8070003002806,登記記録の閉鎖等,0,2022-03-11,2022-02-24,Ｊコーポレーション合同会社,,合同会社,東京都,新宿区,市谷左内町２２番地,,13,104,1620846,,,2022-02-24,清算の結了等,,,2017-01-16,1,,,,,ジェイコーポレーション,0
1877,8110005014035,登記記録の閉鎖等,0,2022-03-11,2022-03-08,下川茂生産森林組合,,その他の設立登記法人,新潟県,佐渡市,下川茂１３２番地子,,15,224,9520701,,,2022-03-08,清算の結了等,,,2015-10-05,1,,,,,シモカワモ,0
1883,8120001193237,登記記録の閉鎖等,0,2022-03-11,2022-03-04,株式会社サムオートプロデュース,,株式会社,大阪府,門真市,北巣本町２９番地,,27,223,5710073,,,2022-03-04,清算の結了等,,,2015-10-05,1,,,,,,0
1889,8120002060106,登記記録の閉鎖等,0,2022-03-11,2022-03-09,有限会社三江,,有限会社,大阪府,大阪市中央区,南新町１丁目２番４号,,27,128,5400024,,,2022-03-09,清算の結了等,,,2015-10-05,1,,,,,ミツエ,0
1904,8140002050567,登記記録の閉鎖等,0,2022-03-11,2022-03-08,有限会社福島リフト,,有限会社,兵庫県,高砂市,伊保町中筋５８１番地の２,,28,216,6760081,,,2022-03-08,合併による解散等,8140001061301,令和４年２月１１日兵庫県高砂市伊保町中筋５８１番地の２福島運輸株式会社（8140001061301）に合併し解散,2015-10-05,1,,,,,フクシマリフト,0
1905,8140005003349,登記記録の閉鎖等,0,2022-03-11,2022-03-10,須磨海の家協同組合,,その他の設立登記法人,兵庫県,神戸市須磨区,天神町１丁目４番１１号,,28,107,6540053,,,2022-03-10,清算の結了等,,,2015-10-05,1,,,,,スマウミノイエ,0
1911,8180001136875,登記記録の閉鎖等,0,2022-03-11,2022-03-07,株式会社東洋リペアサーベイ,,株式会社,愛知県,名古屋市昭和区,御器所通１丁目６番地３,,23,107,4660015,,,2022-03-07,清算の結了等,,,2019-06-07,1,,,,,トウヨウリペアサーベイ,0
1926,8240005013247,登記記録の閉鎖等,0,2022-03-11,2022-03-10,公益財団法人コミュニティ未来創造基金ひろしま,,その他の設立登記法人,広島県,広島市中区,八丁堀３番１号,,34,101,7300013,,,2022-03-10,清算の結了等,,,2015-10-05,1,,,,,コミュニティミライソウゾウキキンヒロシマ,0
1970,8470001012997,登記記録の閉鎖等,0,2022-03-11,2022-03-07,サミットエンタープライズ株式会社,,株式会社,愛媛県,宇和島市,天神町３－１３ＣＴＩ情報センタービル,,38,203,7980036,,,2022-03-07,清算の結了等,,,2015-10-05,1,,,,,サミットエンタープライズ,0
1973,9010001125794,登記記録の閉鎖等,0,2022-03-11,2022-03-04,株式会社サンオーク,,株式会社,東京都,中央区,勝どき２丁目８番１２－１２３８号,,13,102,1040054,,,2022-03-04,清算の結了等,,,2015-10-05,1,,,,,サンオーク,0
1988,9010403014141,登記記録の閉鎖等,0,2022-03-11,2022-03-04,イグリエガインベストメンツ合同会社,,合同会社,東京都,港区,浜松町２丁目２番１５号,,13,103,1050013,,,2022-03-04,清算の結了等,,,2015-12-03,1,,,,,イグリエガインベストメンツ,0
1989,9010403020494,登記記録の閉鎖等,0,2022-03-11,2022-03-04,ブルーエナジーブリッジファンドガンマ合同会社,,合同会社,東京都,港区,元赤坂１丁目１番７号,,13,103,1070051,,,2022-03-04,清算の結了等,,,2019-04-05,1,,,,,ブルーエナジーブリッジファンドガンマ,0
1993,9010601034057,登記記録の閉鎖等,0,2022-03-11,2022-03-09,株式会社加藤工業所,,株式会社,東京都,江東区,北砂４丁目３８番１４号,,13,108,1360073,,,2022-03-09,清算の結了等,,,2015-10-05,1,,,,,カトウコウギョウショ,0
2016,9011202001652,登記記録の閉鎖等,0,2022-03-11,2022-03-03,有限会社川村,,有限会社,東京都,中野区,本町１丁目２番１０号,,13,114,1640012,,,2022-03-03,清算の結了等,,,2015-10-05,1,,,,,カワムラ,0
2018,9011501026458,登記記録の閉鎖等,0,2022-03-11,2022-03-07,ＭＩＲＯＲＡＫＵ株式会社,,株式会社,東京都,荒川区,南千住５丁目２１番５－２０１号メゾンジュン,,13,118,1160003,,,2022-03-07,清算の結了等,,,2020-12-10,1,,,,,ミロラク,0
2023,9011802025737,登記記録の閉鎖等,0,2022-03-11,2022-03-08,有限会社ファイディーズ,,有限会社,東京都,足立区,東和３丁目３番２号,,13,121,1200003,,,2022-03-08,清算の結了等,,,2015-10-05,1,,,,,ファイディーズ,0
2032,9020001041280,登記記録の閉鎖等,0,2022-03-11,2022-03-08,株式会社横浜ディエスジャパン,,株式会社,神奈川県,横浜市戸塚区,下倉田町４５６番地３,,14,110,2440815,,,2022-03-08,合併による解散等,9010501009365,令和４年３月１日東京都台東区柳橋二丁目１６番２０号株式会社東京ディエスジャパン（9010501009365）に合併し解散,2015-10-05,1,,,,,ヨコハマディエスジャパン,0
2046,9030002029002,登記記録の閉鎖等,0,2022-03-11,2022-03-07,有限会社クボタ,,有限会社,埼玉県,所沢市,西所沢１丁目１９番２１号,,11,208,3591144,,,2022-03-07,清算の結了等,,,2021-08-12,1,,,,,クボタ,0
2079,9100002013064,登記記録の閉鎖等,0,2022-03-11,2022-03-08,有限会社軽井沢堂,,有限会社,長野県,北佐久郡軽井沢町,軽井沢１２番地３,,20,321,3890103,,,2022-03-08,清算の結了等,,,2015-10-05,1,,,,,カルイサワドウ,0
2083,9120001086027,登記記録の閉鎖等,0,2022-03-11,2022-03-07,ナカハタ商産株式会社,,株式会社,大阪府,大阪市中央区,北浜２丁目１番１５号,,27,128,5410041,,,2022-03-07,清算の結了等,,,2015-10-05,1,,,,,ナカハタショウサン,0
2096,9120101025140,登記記録の閉鎖等,0,2022-03-11,2022-03-07,株式会社釘重商店,,株式会社,大阪府,松原市,北新町３丁目１６番２０号,,27,217,5800025,,,2022-03-07,清算の結了等,,,2015-10-05,1,,,,,クギジュウショウテン,0
2129,9180001121926,登記記録の閉鎖等,0,2022-03-11,2022-03-10,株式会社ＬＤＫｐｌｕｓ,,株式会社,岐阜県,多治見市,住吉町７丁目２９番地の１ファインビル住吉ＩＩＩ１０１,00118531,21,204,5070015,,,2022-03-10,清算の結了等,,,2016-01-28,1,,,,,,0
2141,9210005005097,登記記録の閉鎖等,0,2022-03-11,2022-03-04,清水地区ＬＰガス協同組合,,その他の設立登記法人,福井県,福井市,清水杉谷町第４５字８８,,18,201,9103607,,,2022-03-04,清算の結了等,,,2015-10-05,1,,,,,シミズチクエルピーガス,0
2155,9250002005071,登記記録の閉鎖等,0,2022-03-11,2022-03-09,有限会社田坂冷暖房,,有限会社,山口県,宇部市,小松原町２丁目８番１０号,,35,202,7550066,,,2022-03-09,清算の結了等,,,2015-10-05,1,,,,,タサカレイダンボウ,0
2192,9430002011943,登記記録の閉鎖等,0,2022-03-11,2022-03-07,有限会社高城組,,有限会社,北海道,札幌市北区,太平七条１丁目１番２３号,,01,102,0028007,,,2022-03-07,清算の結了等,,,2015-10-05,1,,,,,タカシログミ,0
