sequenceNumber,corporateNumber,process,correct,updateDate,changeDate,name,nameImageId,kind,prefectureName,cityName,streetNumber,addressImageId,prefectureCode,cityCode,postCode,addressOutside,addressOutsideImageId,closeDate,closeCause,successorCorporateNumber,changeCause,assignmentDate,latest,enName,enPrefectureName,enCityName,enAddressOutside,furigana,hihyoji
1,1010001016555,登記記録の閉鎖等,0,2022-11-25,2022-11-21,コスモス販売株式会社,,株式会社,東京都,千代田区,神田司町２丁目６番地,,13,101,1010048,,,2022-11-21,清算の結了等,,,2015-10-05,1,,,,,コスモスハンバイ,0
19,1010003013410,登記記録の閉鎖等,0,2022-11-25,2022-11-18,合同会社長安,,合同会社,東京都,千代田区,内幸町１丁目１番１号,,13,101,1000011,,,2022-11-18,清算の結了等,,,2015-10-05,1,,,,,チョウアン,0
33,1010401152099,登記記録の閉鎖等,0,2022-11-25,2022-11-14,株式会社ＯｎｅＣｏｌｏｒｓ,,株式会社,東京都,港区,西新橋２丁目９番１号ＰＭＯ西新橋ビル５階,,13,103,1050003,,,2022-11-14,合併による解散等,8180001056958,令和４年１１月１日東京都港区西新橋二丁目９番１号ＰＭＯ西新橋ビル５階株式会社ピアズ（8180001056958）に合併し解散,2020-04-06,1,,,,,ワンカラーズ,0
50,1011005006559,登記記録の閉鎖等,0,2022-11-25,2022-11-15,一般社団法人グローバル・ブライズ・ビューティ協会,,その他の設立登記法人,東京都,渋谷区,神宮前１丁目１５－６－２０２,,13,113,1500001,,,2022-11-15,清算の結了等,,,2015-11-25,1,,,,,グローバルブライズビュウティーキョウカイ,0
56,1011101099184,登記記録の閉鎖等,0,2022-11-25,2022-11-22,株式会社ＧＳＴ,,株式会社,東京都,新宿区,新宿１丁目１３番８号,,13,104,1600022,,,2022-11-22,合併による解散等,8270001000469,令和４年９月３０日鳥取市立川町七丁目１０１番地三洋テクノソリューションズ鳥取株式会社（8270001000469）に合併し解散,2022-06-10,1,,,,,ジーエスティ,0
79,1012402005946,登記記録の閉鎖等,0,2022-11-25,2022-11-16,有限会社小野種苗,,有限会社,東京都,国立市,富士見台３丁目３３番地の２３,,13,215,1860003,,,2022-11-16,清算の結了等,,,2015-10-05,1,,,,,オノシュビョウ,0
80,1012402010649,登記記録の閉鎖等,0,2022-11-25,2022-11-22,有限会社音ランド坂井,,有限会社,神奈川県,川崎市多摩区,菅城下１３番７－１号,,14,135,2140007,,,2022-11-22,清算の結了等,,,2015-10-05,1,,,,,オトランドサカイ,0
86,1013302003379,登記記録の閉鎖等,0,2022-11-25,2022-11-18,有限会社宏昌,,有限会社,東京都,豊島区,池袋２丁目６８番１０号,,13,116,1710014,,,2022-11-18,清算の結了等,,,2015-10-05,1,,,,,コウショウ,0
95,1020003016742,登記記録の閉鎖等,0,2022-11-25,2022-11-22,テラキャピタル合同会社,,合同会社,神奈川県,横浜市中区,山下町２１０－３パークアクシス横浜山下町７０５,,14,104,2310023,,,2022-11-22,清算の結了等,,,2019-10-08,1,,,,,テラキャピタル,0
100,1021002037812,登記記録の閉鎖等,0,2022-11-25,2022-11-18,有限会社クラフト・エム,,有限会社,神奈川県,秦野市,柳川１３１４番地の２,,14,211,2591334,,,2022-11-18,清算の結了等,,,2015-10-05,1,,,,,クラフトエム,0
111,1030002110578,登記記録の閉鎖等,0,2022-11-25,2022-11-18,有限会社キャリエール,,有限会社,埼玉県,川口市,戸塚２丁目２７番１１号,,11,203,3330811,,,2022-11-18,清算の結了等,,,2015-10-05,1,,,,,キャリエール,0
123,1050001018572,登記記録の閉鎖等,0,2022-11-25,2022-11-18,株式会社横田製作所,,株式会社,茨城県,古河市,幸町１２番１２号,,08,204,3060024,,,2022-11-18,清算の結了等,,,2015-10-05,1,,,,,ヨコタセイサクショ,0
132,1080002018247,登記記録の閉鎖等,0,2022-11-25,2022-11-25,有限会社あおば住宅,,有限会社,静岡県,藤枝市,音羽町５丁目１番地の３,,22,214,4260087,,,2022-11-25,清算の結了等,,,2015-10-05,1,,,,,アオバジュウタク,0
150,1120001146003,登記記録の閉鎖等,0,2022-11-25,2022-11-24,株式会社松崎商会,,株式会社,大阪府,大阪市住吉区,清水丘３丁目２番１０号,,27,120,5580033,,,2022-11-24,清算の結了等,,,2015-10-05,1,,,,,マツザキショウカイ,0
192,1180305009354,登記記録の閉鎖等,0,2022-11-25,2022-11-18,一般社団法人ＲＥＪＥＮＡ　ＴＯＹＯＴＡ　ＦＯＯＴＢＡＬＬ　ＣＬＵＢ,,その他の設立登記法人,愛知県,豊田市,渡刈町４丁目２３２番地,,23,211,4701202,,,2022-11-18,清算の結了等,,,2022-06-15,1,,,,,レジェーナトヨタフットボールクラブ,0
204,1240003002209,登記記録の閉鎖等,0,2022-11-25,2022-11-18,合同会社暁達,,合同会社,東京都,千代田区,内幸町１丁目１番１号,,13,101,1000011,,,2022-11-18,清算の結了等,,,2015-10-05,1,,,,,ギョウタツ,0
216,1290001085787,登記記録の閉鎖等,0,2022-11-25,2022-11-21,株式会社ＴＳＥ,,株式会社,福岡県,久留米市,日吉町１５番地５７,,40,203,8300017,,,2022-11-21,清算の結了等,,,2019-07-08,1,,,,,ティーエスイー,0
219,1290002038356,登記記録の閉鎖等,0,2022-11-25,2022-11-14,有限会社総合福祉サービスアイク,,有限会社,福岡県,糟屋郡須惠町,大字植木５８７番地１ウェルブライト須恵ステーション２０３号,,40,344,8112112,,,2022-11-14,清算の結了等,,,2015-10-05,1,,,,,ソウゴウフクシサービスアイク,0
220,1290002053553,登記記録の閉鎖等,0,2022-11-25,2022-11-17,ダイワ木産有限会社,,有限会社,福岡県,大川市,大字大野島２４０２番地の１,,40,212,8310045,,,2022-11-17,清算の結了等,,,2015-10-05,1,,,,,ダイワモクサン,0
230,1320001005683,登記記録の閉鎖等,0,2022-11-25,2022-11-21,株式会社アンビシャス,,株式会社,大分県,大分市,庄境１２５番地の１,,44,201,8700241,,,2022-11-21,清算の結了等,,,2015-10-05,1,,,,,アンビシャス,0
273,2010001212640,登記記録の閉鎖等,0,2022-11-25,2022-11-21,株式会社ｄｉｐ,,株式会社,東京都,中央区,日本橋小伝馬町８番３号ＢＥＫＫＡ７０１号室,,13,102,1030001,,,2022-11-21,清算の結了等,,,2020-10-07,1,,,,,ディップ,0
278,2010002023797,登記記録の閉鎖等,0,2022-11-25,2022-11-18,有限会社はまや呉服洋品店,,有限会社,東京都,中央区,月島３丁目２０番４号,,13,102,1040052,,,2022-11-18,清算の結了等,,,2015-10-05,1,,,,,ハマヤゴフクヨウヒンテン,0
286,2010401057215,登記記録の閉鎖等,0,2022-11-25,2022-11-18,ケリーサービスジャパン株式会社,,株式会社,東京都,千代田区,永田町２丁目１１番１号山王パークタワー４階,,13,101,1000014,,,2022-11-18,清算の結了等,,,2015-10-05,1,,,,,ケリーサービスジャパン,0
295,2010405015375,登記記録の閉鎖等,0,2022-11-25,2022-11-21,一般社団法人全国相続コンサルティングネットワーク,,その他の設立登記法人,神奈川県,横浜市神奈川区,鶴屋町２丁目１０番１号ＭＩＮＤＡＮビル５階,,14,102,2210835,,,2022-11-21,清算の結了等,,,2016-12-22,1,,,,,ゼンコクソウゾクコンサルティングネットワーク,0
313,2011101091735,登記記録の閉鎖等,0,2022-11-25,2022-11-17,株式会社ｍａｒｏ,,株式会社,埼玉県,朝霞市,三原２丁目３２番１３－３０５号,,11,227,3510025,,,2022-11-17,清算の結了等,,,2020-07-02,1,,,,,マロ,0
317,2011301025261,登記記録の閉鎖等,0,2022-11-25,2022-11-17,株式会社マイルード,,株式会社,東京都,杉並区,和泉１丁目４５番１３号イズミアベニューＩＩＩ１０１号,00117338,13,115,1680063,,,2022-11-17,清算の結了等,,,2019-08-05,1,,,,,マイルード,0
324,2011602022148,登記記録の閉鎖等,0,2022-11-25,2022-11-21,有限会社ＮＥＷ　ＲＩＣＨ　ＪＡＰＡＮ,,有限会社,東京都,練馬区,立野町７番２２号,,13,120,1770054,,,2022-11-21,清算の結了等,,,2015-10-05,1,,,,,ニューリッチジャパン,0
333,2012802001718,登記記録の閉鎖等,0,2022-11-25,2022-11-21,有限会社長塚輪業社,,有限会社,東京都,品川区,小山７丁目１０番８号,,13,109,1420062,,,2022-11-21,清算の結了等,,,2015-10-05,1,,,,,ナガツカリンギョウシャ,0
351,2030002022723,登記記録の閉鎖等,0,2022-11-25,2022-11-16,有限会社埼建工業,,有限会社,埼玉県,さいたま市中央区,大戸２丁目１８番１０号,,11,105,3380012,,,2022-11-16,清算の結了等,,,2015-10-05,1,,,,,サイケンコウギョウ,0
352,2030002099084,登記記録の閉鎖等,0,2022-11-25,2022-11-18,有限会社関口工務店,,有限会社,埼玉県,川口市,大字辻９１０番地２,00017550,11,203,3340004,,,2022-11-18,清算の結了等,,,2015-10-05,1,,,,,セキグチコウムテン,0
353,2030002101650,登記記録の閉鎖等,0,2022-11-25,2022-11-18,有限会社加藤精機,,有限会社,埼玉県,川口市,南町１丁目１０番１３号,,11,203,3320026,,,2022-11-18,清算の結了等,,,2015-10-05,1,,,,,カトウセイキ,0
362,2040001111451,登記記録の閉鎖等,0,2022-11-25,2022-11-17,市川電気サービス株式会社,,株式会社,千葉県,市川市,塩浜４丁目２番４棟２０３号,,12,203,2720127,,,2022-11-17,清算の結了等,,,2019-11-12,1,,,,,イチカワデンキサービス,0
366,2050002007895,登記記録の閉鎖等,0,2022-11-25,2022-11-18,有限会社ｅｋハウス,,有限会社,茨城県,水戸市,けやき台１丁目２３番地２,,08,201,3100842,,,2022-11-18,清算の結了等,,,2015-10-05,1,,,,,,0
368,2050002020048,登記記録の閉鎖等,0,2022-11-25,2022-11-17,株式会社ミタケ,,株式会社,茨城県,坂東市,猫実１４５０番地１,,08,228,3060616,,,2022-11-17,清算の結了等,,,2015-10-05,1,,,,,ミタケ,0
369,2050002024206,登記記録の閉鎖等,0,2022-11-25,2022-11-17,有限会社パル,,有限会社,茨城県,古河市,鴻巣５５６番地の３,,08,204,3060041,,,2022-11-17,清算の結了等,,,2015-10-05,1,,,,,パル,0
370,2050002031680,登記記録の閉鎖等,0,2022-11-25,2022-11-18,有限会社アセッツ,,有限会社,茨城県,日立市,久慈町１丁目５番２２号,,08,202,3191222,,,2022-11-18,清算の結了等,,,2015-10-05,1,,,,,アセッツ,0
374,2080103002280,登記記録の閉鎖等,0,2022-11-25,2022-11-21,Ｌ’ａｔｅｌｉｅｒ　ｄｅ　Ｒ合同会社,,合同会社,静岡県,熱海市,伊豆山３５２番地の１,,22,205,4130002,,,2022-11-21,清算の結了等,,,2021-01-13,1,,,,,ラトリエドゥアール,0
375,2090001009468,登記記録の閉鎖等,0,2022-11-25,2022-11-18,株式会社リバイブ,,株式会社,山梨県,甲州市,勝沼町山９６４番地１,,19,213,4091306,,,2022-11-18,清算の結了等,,,2015-10-05,1,,,,,リバイブ,0
376,2110001015686,登記記録の閉鎖等,0,2022-11-25,2022-11-18,株式会社アトラス,,株式会社,新潟県,燕市,吉田文京町１４番２６号,,15,213,9590266,,,2022-11-18,清算の結了等,,,2015-10-05,1,,,,,アトラス,0
404,2120102024668,登記記録の閉鎖等,0,2022-11-25,2022-11-24,有限会社アカヒロ商会,,有限会社,大阪府,泉佐野市,市場西２丁目１番１４号,,27,213,5980006,,,2022-11-24,清算の結了等,,,2015-10-05,1,,,,,,0
411,2130002016112,登記記録の閉鎖等,0,2022-11-25,2022-11-16,有限会社共伸ビジネスセンター,,有限会社,京都府,宇治市,菟道森本３０番地３６,00114491,26,204,6110000,,,2022-11-16,清算の結了等,,,2015-10-05,1,,,,,キョウシンビジネスセンター,0
425,2180005014835,登記記録の閉鎖等,0,2022-11-25,2022-11-21,一般社団法人事業引継ぎ相談所,,その他の設立登記法人,愛知県,名古屋市中区,栄２丁目２番１７号,,23,106,4600008,,,2022-11-21,清算の結了等,,,2015-10-05,1,,,,,ジギョウヒキツギソウダンジョ,0
429,2200002011196,登記記録の閉鎖等,0,2022-11-25,2022-11-25,有限会社丸明ニツト,,有限会社,岐阜県,羽島市,上中町長間１０２７番地,,21,209,5016311,,,2022-11-25,清算の結了等,,,2015-10-05,1,,,,,マルアケニット,0
437,2250002014161,登記記録の閉鎖等,0,2022-11-25,2022-11-21,伸久タイヤサービス有限会社,,有限会社,山口県,長門市,仙崎８９２番地の１,,35,211,7594106,,,2022-11-21,清算の結了等,,,2015-10-05,1,,,,,シンキュウタイヤサービス,0
463,2330002016208,登記記録の閉鎖等,0,2022-11-25,2022-11-18,照星観光有限会社,,有限会社,熊本県,菊池郡大津町,大字室字桜山１４７３番地５,,43,403,8691235,,,2022-11-18,合併による解散等,7330002012235,令和４年１１月１日大分県別府市山の手町１４番１８号南海興産株式会社（7330002012235）に合併し解散,2015-10-05,1,,,,,,0
478,2370001000951,登記記録の閉鎖等,0,2022-11-25,2022-11-21,東王技研株式会社,,株式会社,宮城県,仙台市泉区,黒松３丁目１２番１号,,04,105,9818006,,,2022-11-21,清算の結了等,,,2015-10-05,1,,,,,トウオウギケン,0
483,2380001009372,登記記録の閉鎖等,0,2022-11-25,2022-11-21,株式会社久納鉄工所,,株式会社,福島県,二本松市,平石高田４丁目２７番地,,07,210,9640981,,,2022-11-21,清算の結了等,,,2015-10-05,1,,,,,クノウテッコウショ,0
486,2390002010246,登記記録の閉鎖等,0,2022-11-25,2022-11-15,有限会社恩田電気,,有限会社,山形県,東田川郡三川町,大字土口字村中１２７番地,,06,426,9971322,,,2022-11-15,清算の結了等,,,2015-10-05,1,,,,,オンダデンキ,0
507,3010001087586,登記記録の閉鎖等,0,2022-11-25,2022-11-21,株式会社スパックインターナショナル,,株式会社,東京都,千代田区,麹町３丁目２番地６,00060650,13,101,1020083,,,2022-11-21,清算の結了等,,,2015-10-05,1,,,,,スパックインターナショナル,0
510,3010001200834,登記記録の閉鎖等,0,2022-11-25,2022-11-16,Ｅｎｋａｃ株式会社,,株式会社,東京都,千代田区,外神田２丁目１番４号松住町別館３０４,,13,101,1010021,,,2022-11-16,合併による解散等,7020001098983,令和４年１０月１日東京都千代田区外神田二丁目１番４－３０４号オチュア株式会社（7020001098983）に合併し解散,2019-05-15,1,,,,,エンカク,0
514,3010003023837,登記記録の閉鎖等,0,2022-11-25,2022-11-17,合同会社ＦＰイノベーション,,合同会社,東京都,港区,西新橋１丁目１５番５号株式会社アイピービー内,,13,103,1050003,,,2022-11-17,清算の結了等,,,2016-07-15,1,,,,,エフピーイノベーション,0
515,3010003025643,登記記録の閉鎖等,0,2022-11-25,2022-11-22,合同会社ＪＲＰＦ亀戸,,合同会社,東京都,千代田区,丸の内３丁目１番１号東京共同会計事務所内,,13,101,1000005,,,2022-11-22,清算の結了等,,,2017-07-11,1,,,,,ジェイアールピーエフカメイド,0
516,3010005008398,登記記録の閉鎖等,0,2022-11-25,2022-11-04,特定非営利活動法人ゴールデンアカデミー,,その他の設立登記法人,東京都,中央区,銀座１丁目１５－７マック銀座ビル３０３,,13,102,1040061,,,2022-11-04,清算の結了等,,,2015-10-05,1,,,,,ゴールデンアカデミー,0
543,3011005007423,登記記録の閉鎖等,0,2022-11-25,2022-11-16,一般社団法人パブリッシャー・マネタイゼーション研究会,,その他の設立登記法人,東京都,渋谷区,円山町２３番２号６階,,13,113,1500044,,,2022-11-16,清算の結了等,,,2017-11-14,1,,,,,パブリッシャーマネタイゼーションケンキュウカイ,0
553,3011403001985,登記記録の閉鎖等,0,2022-11-25,2022-11-22,ＡＮＭＯＬ合同会社,,合同会社,東京都,板橋区,栄町７番地２,,13,119,1730015,,,2022-11-22,清算の結了等,,,2016-12-01,1,,,,,アンモール,0
554,3011501016134,登記記録の閉鎖等,0,2022-11-25,2022-11-22,株式会社グリーンズプラネット,,株式会社,東京都,中央区,日本橋箱崎町３６番２号,,13,102,1030015,,,2022-11-22,合併による解散等,1010001185425,令和４年１１月１日東京都港区高輪三丁目２５番２９号株式会社グリーンズプラネット（1010001185425）に合併し解散,2015-10-05,1,,,,,グリーンズプラネット,0
560,3011601001589,登記記録の閉鎖等,0,2022-11-25,2022-11-21,株式会社キムラヤ,,株式会社,東京都,練馬区,南大泉５丁目２１番１４－２０６号,,13,120,1780064,,,2022-11-21,清算の結了等,,,2015-10-05,1,,,,,キムラヤ,0
566,3012702008011,登記記録の閉鎖等,0,2022-11-25,2022-11-24,有限会社土屋産業,,有限会社,東京都,東久留米市,野火止３丁目１番１１号,,13,222,2030041,,,2022-11-24,清算の結了等,,,2015-10-05,1,,,,,ツチヤサンギョウ,0
574,3020001051525,登記記録の閉鎖等,0,2022-11-25,2022-11-22,ディアロテック株式会社,,株式会社,神奈川県,横浜市青葉区,大場町１７４番地１１,,14,117,2250023,,,2022-11-22,清算の結了等,,,2015-10-05,1,,,,,ディアロテック,0
583,3021001039031,登記記録の閉鎖等,0,2022-11-25,2022-11-14,株式会社ジャパンカレッジオブカイロプラクティック,,株式会社,神奈川県,平塚市,夕陽ケ丘五丁目１１番,,14,203,2540806,,,2022-11-14,清算の結了等,,,2015-10-05,1,,,,,ジャパンカレッジオブカイロプラクティック,0
588,3030001007105,登記記録の閉鎖等,0,2022-11-25,2022-11-18,株式会社ヒカルプランニング,,株式会社,埼玉県,さいたま市見沼区,大字大谷１５２６番１５号,,11,104,3370014,,,2022-11-18,清算の結了等,,,2015-10-05,1,,,,,ヒカルプランニング,0
589,3030001063503,登記記録の閉鎖等,0,2022-11-25,2022-11-17,株式会社浅子長吉商店,,株式会社,埼玉県,越谷市,大字船渡２１１８番地,,11,222,3430003,,,2022-11-17,清算の結了等,,,2015-10-05,1,,,,,アサコチョウキチショウテン,0
590,3030001064393,登記記録の閉鎖等,0,2022-11-25,2022-11-18,株式会社翼企画運輸,,株式会社,埼玉県,北葛飾郡杉戸町,杉戸４丁目１１番２６号,,11,464,3450036,,,2022-11-18,清算の結了等,,,2015-10-05,1,,,,,,0
612,3050002030368,登記記録の閉鎖等,0,2022-11-25,2022-11-21,有限会社神峯観光社,,有限会社,茨城県,日立市,小木津町４丁目２８番１号,,08,202,3191413,,,2022-11-21,清算の結了等,,,2015-10-05,1,,,,,カミネカンコウシャ,0
627,3100002028514,登記記録の閉鎖等,0,2022-11-25,2022-11-22,工建設有限会社,,有限会社,長野県,諏訪市,大字湖南６９２７番地６,,20,206,3920131,,,2022-11-22,清算の結了等,,,2015-10-05,1,,,,,タクミケンセツ,0
682,3160001003561,登記記録の閉鎖等,0,2022-11-25,2022-11-21,株式会社永塩機工,,株式会社,滋賀県,栗東市,手原３丁目１０４６番地２,,25,208,5203047,,,2022-11-21,清算の結了等,,,2015-10-05,1,,,,,ナガシオキコウ,0
685,3180001078486,登記記録の閉鎖等,0,2022-11-25,2022-11-21,株式会社ライフステージ,,株式会社,愛知県,小牧市,小松寺１丁目１８２番地,,23,219,4850828,,,2022-11-21,清算の結了等,,,2015-10-05,1,,,,,ライフステージ,0
694,3180301015387,登記記録の閉鎖等,0,2022-11-25,2022-11-21,東海樹脂工業株式会社,,株式会社,愛知県,碧南市,尾城町３丁目１番地,,23,209,4470036,,,2022-11-21,清算の結了等,,,2015-10-05,1,,,,,トウカイジュシコウギョウ,0
725,3300003000427,登記記録の閉鎖等,0,2022-11-25,2022-11-16,合名会社川久保商店,,合名会社,佐賀県,伊万里市,山代町久原１６３９番地,,41,205,8494256,,,2022-11-16,清算の結了等,,,2015-10-05,1,,,,,カワクボショウテン,0
726,3310001004734,登記記録の閉鎖等,0,2022-11-25,2022-11-21,エスケー整理株式会社,,株式会社,福岡県,福岡市博多区,博多駅前２丁目１１番１６号第２大西ビル７０１号,,40,132,8120011,,,2022-11-21,清算の結了等,,,2015-10-05,1,,,,,エスケーセイリ,0
737,3340002027888,登記記録の閉鎖等,0,2022-11-25,2022-11-22,有限会社鶴野葬祭,,有限会社,鹿児島県,曽於郡大崎町,假宿１９９８番地１,,46,468,8997305,,,2022-11-22,清算の結了等,,,2015-10-05,1,,,,,ツルノソウサイ,0
740,3370001024644,登記記録の閉鎖等,0,2022-11-25,2022-11-18,株式会社小田島,,株式会社,宮城県,仙台市太白区,長町５丁目１０番２０号,,04,104,9820011,,,2022-11-18,清算の結了等,,,2015-10-05,1,,,,,オダシマ,0
749,3400003001464,登記記録の閉鎖等,0,2022-11-25,2022-11-22,３Ｔ．ｂｒｉｌｌｉａｎｔ合同会社,,合同会社,岩手県,花巻市,若葉町３丁目１１番２２号,,03,205,0250097,,,2022-11-22,清算の結了等,,,2015-10-05,1,,,,,スリーティーブリリアント,0
780,4010001118729,登記記録の閉鎖等,0,2022-11-25,2022-11-21,株式会社黎明美術印刷,,株式会社,東京都,渋谷区,代々木１丁目１３番２号,,13,113,1510053,,,2022-11-21,清算の結了等,,,2015-10-05,1,,,,,レイメイビジュツインサツ,0
791,4010003023836,登記記録の閉鎖等,0,2022-11-25,2022-11-17,合同会社レイクプロパティ２,,合同会社,東京都,港区,西新橋１丁目１５番５号株式会社アイピービー内,,13,103,1050003,,,2022-11-17,清算の結了等,,,2016-07-15,1,,,,,レイクプロパティニ,0
799,4010003029965,登記記録の閉鎖等,0,2022-11-25,2022-11-22,合同会社ＪＲＰＦ豊津町,,合同会社,東京都,千代田区,丸の内３丁目１番１号東京共同会計事務所内,,13,101,1000005,,,2022-11-22,清算の結了等,,,2019-06-05,1,,,,,ジェイアールピーエフトヨツチョウ,0
800,4010003032127,登記記録の閉鎖等,0,2022-11-25,2022-11-21,合同会社ＡＮＥＬＡ,,合同会社,東京都,中央区,日本橋室町１丁目８番３号,,13,102,1030022,,,2022-11-21,清算の結了等,,,2020-05-07,1,,,,,アネラ,0
805,4010401144069,登記記録の閉鎖等,0,2022-11-25,2022-11-17,株式会社アイピービー,,株式会社,東京都,港区,西新橋１丁目１５番５号,,13,103,1050003,,,2022-11-17,清算の結了等,,,2019-02-28,1,,,,,アイピービー,0
820,4010901002882,登記記録の閉鎖等,0,2022-11-25,2022-11-21,株式会社上村商店,,株式会社,神奈川県,厚木市,下荻野９９２番地１６,,14,212,2430203,,,2022-11-21,清算の結了等,,,2015-10-05,1,,,,,カミムラショウテン,0
848,4011501014095,登記記録の閉鎖等,0,2022-11-25,2022-11-21,株式会社Ｐｈｏｔｏ　Ｏｆｆｉｃｅ　Ｈｉｒｕｍａ,,株式会社,東京都,北区,王子４丁目１番７号,,13,117,1140002,,,2022-11-21,清算の結了等,,,2015-10-05,1,,,,,フォトオフィスヒルマ,0
853,4011602009473,登記記録の閉鎖等,0,2022-11-25,2022-11-21,有限会社富士事務機,,有限会社,東京都,練馬区,石神井町８丁目４６番１５号,,13,120,1770041,,,2022-11-21,清算の結了等,,,2015-10-05,1,,,,,フジジムキ,0
867,4013301038662,登記記録の閉鎖等,0,2022-11-25,2022-11-21,大黒天宝の院株式会社,,株式会社,東京都,豊島区,駒込３丁目１番３号,,13,116,1700003,,,2022-11-21,清算の結了等,,,2016-04-08,1,,,,,ダイコクテンホウノイン,0
875,4013402001445,登記記録の閉鎖等,0,2022-11-25,2022-11-14,有限会社三笠塗装,,有限会社,東京都,日野市,新町１丁目１３新町一丁目アパート４－３０１,,13,212,1910002,,,2022-11-14,清算の結了等,,,2015-10-05,1,,,,,ミカサトソウ,0
876,4020001072231,登記記録の閉鎖等,0,2022-11-25,2022-11-21,株式会社尾崎酸素工業所,,株式会社,神奈川県,川崎市川崎区,田町３丁目５番１号,,14,131,2100822,,,2022-11-21,清算の結了等,,,2015-10-05,1,,,,,オザキサンソコウギョウショ,0
892,4030001091627,登記記録の閉鎖等,0,2022-11-25,2022-11-18,株式会社岩田塗装工業,,株式会社,埼玉県,秩父市,大野原１２６９番地４,,11,207,3680005,,,2022-11-18,清算の結了等,,,2015-10-05,1,,,,,,0
907,4030002122083,登記記録の閉鎖等,0,2022-11-25,2022-11-18,有限会社秩父食品,,有限会社,埼玉県,秩父郡長瀞町,大字本野上４０３番地７,,11,363,3691304,,,2022-11-18,清算の結了等,,,2015-10-05,1,,,,,チチブショクヒン,0
909,4030003011302,登記記録の閉鎖等,0,2022-11-25,2022-11-17,ニシダジャパン合同会社,,合同会社,埼玉県,川越市,吉田新町２丁目２番地６,,11,201,3500808,,,2022-11-17,清算の結了等,,,2018-01-11,1,,,,,ニシダジャパン,0
912,4040001059788,登記記録の閉鎖等,0,2022-11-25,2022-11-17,企画設計コンサルタント株式会社,,株式会社,千葉県,長生郡一宮町,一宮２５６０番地２,,12,421,2994301,,,2022-11-17,清算の結了等,,,2015-10-05,1,,,,,キカクセッケイコンサルタント,0
914,4040002025145,登記記録の閉鎖等,0,2022-11-25,2022-11-17,有限会社紅谷食品,,有限会社,千葉県,船橋市,海神５丁目３番２２号,,12,204,2730021,,,2022-11-17,清算の結了等,,,2015-10-05,1,,,,,ベニヤショクヒン,0
927,4080001005193,登記記録の閉鎖等,0,2022-11-25,2022-11-16,アートガーデンズキシダ株式会社,,株式会社,静岡県,静岡市駿河区,八幡２丁目１６番２２号,,22,102,4228076,,,2022-11-16,清算の結了等,,,2015-10-05,1,,,,,アートガーデンズキシダ,0
928,4080001015028,登記記録の閉鎖等,0,2022-11-25,2022-11-24,中部食品株式会社,,株式会社,静岡県,焼津市,八楠４丁目２５番地の７,,22,212,4250091,,,2022-11-24,清算の結了等,,,2015-10-05,1,,,,,,0
940,4120001072592,登記記録の閉鎖等,0,2022-11-25,2022-11-18,株式会社ＯＤＳ,,株式会社,京都府,長岡京市,光風台８番地９,,26,209,6170851,,,2022-11-18,清算の結了等,,,2015-10-05,1,,,,,オーディーエス,0
941,4120001082939,登記記録の閉鎖等,0,2022-11-25,2022-11-22,双馬株式会社,,株式会社,大阪府,大阪市中央区,谷町１丁目３番１号,,27,128,5400012,,,2022-11-22,清算の結了等,,,2015-10-05,1,,,,,ソウマ,0
954,4120002026572,登記記録の閉鎖等,0,2022-11-25,2022-11-21,有限会社大阪動物プロダクション,,有限会社,大阪府,茨木市,大字泉原５７２番１,,27,211,5680097,,,2022-11-21,清算の結了等,,,2015-10-05,1,,,,,オオサカドウブツプロダクション,0
962,4120902008554,登記記録の閉鎖等,0,2022-11-25,2022-11-21,有限会社クリーンライフ大阪,,有限会社,大阪府,大阪市東淀川区,北江口２丁目３番９－３０４号,,27,114,5330002,,,2022-11-21,清算の結了等,,,2015-10-05,1,,,,,クリーンライフオオサカ,0
965,4130001013422,登記記録の閉鎖等,0,2022-11-25,2022-11-16,株式会社夢縁舘,,株式会社,京都府,京都市山科区,西野山岩ケ谷町１８番地の３,,26,110,6078309,,,2022-11-16,清算の結了等,,,2015-10-05,1,,,,,ムエンカン,0
990,4180001134916,登記記録の閉鎖等,0,2022-11-25,2022-11-21,株式会社Ｒ３,,株式会社,愛知県,名古屋市名東区,引山４丁目７１４番地１０２号,,23,115,4650002,,,2022-11-21,清算の結了等,,,2018-12-27,1,,,,,アールスリー,0
992,4180002049048,登記記録の閉鎖等,0,2022-11-25,2022-11-18,クリアリレーション有限会社,,有限会社,愛知県,名古屋市北区,平安２丁目３番３号ＭＫ平安８０３号,,23,103,4620819,,,2022-11-18,清算の結了等,,,2015-10-05,1,,,,,クリアリレーション,0
1001,4250001017452,登記記録の閉鎖等,0,2022-11-25,2022-11-21,株式会社Ｂｉｌｌｓ,,株式会社,山口県,下関市,安岡町３丁目６番２５号,,35,201,7596603,,,2022-11-21,清算の結了等,,,2018-12-03,1,,,,,,0
1005,4290001066603,登記記録の閉鎖等,0,2022-11-25,2022-11-21,株式会社ＢＪＣ,,株式会社,福岡県,福岡市博多区,博多駅南４丁目１８番２号明東ビル４Ｆ,,40,132,8120016,,,2022-11-21,合併による解散等,8010401165854,令和４年１１月１日東京都港区赤坂九丁目７番１号株式会社ＢＪＣ（8010401165854）に合併し解散,2015-10-05,1,,,,,ビージェーシー,0
1052,5010001124800,登記記録の閉鎖等,0,2022-11-25,2022-11-18,ＭＯＥエンタープライズ株式会社,,株式会社,東京都,中央区,銀座８丁目６番４号村喜・茂竹ビル,,13,102,1040061,,,2022-11-18,清算の結了等,,,2015-10-05,1,,,,,モエエンタープライズ,0
1059,5010003029964,登記記録の閉鎖等,0,2022-11-25,2022-11-22,合同会社ＪＲＰＦ北堀江,,合同会社,東京都,千代田区,丸の内３丁目１番１号東京共同会計事務所内,,13,101,1000005,,,2022-11-22,清算の結了等,,,2019-06-05,1,,,,,ジェイアールピーエフキタホリエ,0
1077,5010405018235,登記記録の閉鎖等,0,2022-11-25,2022-11-17,一般社団法人ミライ,,その他の設立登記法人,東京都,港区,西新橋１丁目１５番５号アイピービー内,,13,103,1050003,,,2022-11-17,清算の結了等,,,2019-11-07,1,,,,,ミライ,0
1079,5010502004591,登記記録の閉鎖等,0,2022-11-25,2022-11-22,有限会社佐藤商店,,有限会社,東京都,台東区,東浅草２丁目１番１１号,,13,106,1110025,,,2022-11-22,清算の結了等,,,2015-10-05,1,,,,,サトウショウテン,0
1109,5011801036359,登記記録の閉鎖等,0,2022-11-25,2022-11-24,ワールドデザインフォース株式会社,,株式会社,東京都,足立区,江北２丁目１３番１３－１０２号,,13,121,1230872,,,2022-11-24,清算の結了等,,,2019-07-10,1,,,,,ワールドデザインフォース,0
1128,5030001043783,登記記録の閉鎖等,0,2022-11-25,2022-11-16,株式会社大幸,,株式会社,埼玉県,桶川市,大字川田谷７１９０番地,,11,231,3630027,,,2022-11-16,清算の結了等,,,2015-10-05,1,,,,,タイコウ,0
1141,5030002053906,登記記録の閉鎖等,0,2022-11-25,2022-11-15,有限会社サトウ薬局,,有限会社,埼玉県,上尾市,本町４丁目１０番４１号,,11,219,3620014,,,2022-11-15,清算の結了等,,,2015-10-05,1,,,,,サトウヤッキョク,0
1153,5040002057682,登記記録の閉鎖等,0,2022-11-25,2022-11-17,有限会社なかむら,,有限会社,千葉県,印西市,萩原１６１６番地,,12,231,2701601,,,2022-11-17,清算の結了等,,,2015-10-05,1,,,,,ナカムラ,0
1158,5050001010955,登記記録の閉鎖等,0,2022-11-25,2022-11-21,株式会社ジャムジャム,,株式会社,茨城県,土浦市,板谷４丁目７１４番地１２,,08,203,3000007,,,2022-11-21,清算の結了等,,,2015-10-05,1,,,,,ジャムジャム,0
1160,5050001018172,登記記録の閉鎖等,0,2022-11-25,2022-11-18,株式会社クリデン,,株式会社,茨城県,つくば市,森の里２９番地１３,,08,220,3001256,,,2022-11-18,清算の結了等,,,2015-10-05,1,,,,,クリデン,0
1166,5050002021530,登記記録の閉鎖等,0,2022-11-25,2022-11-21,有限会社関谷商事,,有限会社,茨城県,つくば市,桜２丁目４２番地４,,08,220,3050003,,,2022-11-21,清算の結了等,,,2015-10-05,1,,,,,セキヤショウジ,0
1168,5050002043962,登記記録の閉鎖等,0,2022-11-25,2022-11-18,有限会社がらしあ夫人,,有限会社,茨城県,桜川市,御領２丁目３番地１,,08,231,3091215,,,2022-11-18,清算の結了等,,,2015-10-05,1,,,,,ガラシアフジン,0
1169,5050002044985,登記記録の閉鎖等,0,2022-11-25,2022-11-21,有限会社松村運送,,有限会社,茨城県,結城市,大字結城１７０８番地の５,,08,207,3070001,,,2022-11-21,清算の結了等,,,2015-10-05,1,,,,,マツムラウンソウ,0
1177,5070002037178,登記記録の閉鎖等,0,2022-11-25,2022-11-21,有限会社みちよ,,有限会社,群馬県,吾妻郡草津町,大字草津字石古根８６３番地３,,10,426,3771711,,,2022-11-21,清算の結了等,,,2015-10-05,1,,,,,ミチヨ,0
1180,5080102008094,登記記録の閉鎖等,0,2022-11-25,2022-11-21,有限会社栄寿丸,,有限会社,静岡県,伊豆市,土肥６３番地の６,,22,222,4103302,,,2022-11-21,清算の結了等,,,2015-10-05,1,,,,,エイジュマル,0
1182,5080401013902,登記記録の閉鎖等,0,2022-11-25,2022-11-24,株式会社カーリフレッシュホリイ,,株式会社,静岡県,浜松市東区,市野町２９３番地の５,,22,132,4350051,,,2022-11-24,清算の結了等,,,2015-10-05,1,,,,,カーリフレッシュホリイ,0
1228,5140003011686,登記記録の閉鎖等,0,2022-11-25,2022-11-15,合同会社ひだまり,,合同会社,兵庫県,神戸市灘区,高徳町４丁目２番２号プチコーポミッシェル１Ｃ,,28,102,6570025,,,2022-11-15,清算の結了等,,,2016-10-20,1,,,,,ヒダマリ,0
1239,5180002020073,登記記録の閉鎖等,0,2022-11-25,2022-11-21,有限会社エスピー・アーム,,有限会社,愛知県,名古屋市熱田区,幡野町８番６号,,23,109,4560077,,,2022-11-21,清算の結了等,,,2015-10-05,1,,,,,エスピーアーム,0
1248,5200001020534,登記記録の閉鎖等,0,2022-11-25,2022-11-22,株式会社カガミケミカル工販,,株式会社,岐阜県,多治見市,大畑町１丁目８５番地,,21,204,5070818,,,2022-11-22,清算の結了等,,,2015-10-05,1,,,,,カガミケミカルコウハン,0
1256,5260001006346,登記記録の閉鎖等,0,2022-11-25,2022-11-24,株式会社丸福創芸,,株式会社,岡山県,岡山市北区,京橋町９－９－１０１,,33,101,7000831,,,2022-11-24,清算の結了等,,,2015-10-05,1,,,,,マルフクソウゲイ,0
1258,5260001021659,登記記録の閉鎖等,0,2022-11-25,2022-11-25,株式会社長谷川鉄工所,,株式会社,岡山県,備前市,穂浪４０５７番地,,33,211,7050033,,,2022-11-25,清算の結了等,,,2015-10-05,1,,,,,ハセガワテッコウショ,0
1261,5290001041522,登記記録の閉鎖等,0,2022-11-25,2022-11-21,株式会社岳将,,株式会社,福岡県,春日市,須玖南６丁目１４９番地２,,40,218,8160863,,,2022-11-21,清算の結了等,,,2015-10-05,1,,,,,タケショウ,0
1281,5320002020075,登記記録の閉鎖等,0,2022-11-25,2022-11-24,有限会社胡桃屋,,有限会社,大分県,玖珠郡玖珠町,大字森２３番地の２,,44,462,8794404,,,2022-11-24,清算の結了等,,,2015-10-05,1,,,,,,0
1319,5500005006763,登記記録の閉鎖等,0,2022-11-25,2022-11-22,ＮＰＯ法人スポーツ・アンド・ファミリー,,その他の設立登記法人,愛媛県,宇和島市,妙典寺前乙１１８０番地１８,,38,203,7980071,,,2022-11-22,清算の結了等,,,2015-10-05,1,,,,,スポーツアンドファミリー,0
1323,6010001058898,登記記録の閉鎖等,0,2022-11-25,2022-11-21,株式会社メディアビジョン,,株式会社,東京都,中央区,築地４丁目３番１１号アクアビル,,13,102,1040045,,,2022-11-21,清算の結了等,,,2015-10-05,1,,,,,メディアビジョン,0
1324,6010001063502,登記記録の閉鎖等,0,2022-11-25,2022-11-21,株式会社王滝綜合研究所,,株式会社,東京都,中央区,銀座１丁目８番１号,,13,102,1040061,,,2022-11-21,清算の結了等,,,2015-10-05,1,,,,,オウタキソウゴウケンキュウジョ,0
1337,6010401151798,登記記録の閉鎖等,0,2022-11-25,2022-11-17,株式会社成,,株式会社,東京都,港区,麻布十番１丁目２番７－７０１号,,13,103,1060045,,,2022-11-17,清算の結了等,,,2020-03-23,1,,,,,セイ,0
1341,6010802013440,登記記録の閉鎖等,0,2022-11-25,2022-11-16,有限会社マックスミュー,,有限会社,東京都,大田区,南六郷３丁目１４番１８号,,13,111,1440045,,,2022-11-16,清算の結了等,,,2015-10-05,1,,,,,マックスミュー,0
1346,6011001022051,登記記録の閉鎖等,0,2022-11-25,2022-11-17,株式会社増沢建築設計事務所,,株式会社,東京都,渋谷区,大山町１６番１６号,,13,113,1510065,,,2022-11-17,清算の結了等,,,2015-10-05,1,,,,,マスザワケンチクセッケイジムショ,0
1356,6011101043708,登記記録の閉鎖等,0,2022-11-25,2022-11-24,株式会社環境と川研究所,,株式会社,東京都,新宿区,中落合３丁目４番１３－７０１号,,13,104,1610032,,,2022-11-24,清算の結了等,,,2015-10-05,1,,,,,,0
1362,6011101075370,登記記録の閉鎖等,0,2022-11-25,2022-11-22,株式会社キューブリック,,株式会社,東京都,新宿区,西新宿７丁目７番２９号,,13,104,1600023,,,2022-11-22,清算の結了等,,,2015-12-14,1,,,,,キューブリック,0
1364,6011102029499,登記記録の閉鎖等,0,2022-11-25,2022-11-18,有限会社エム総合プランニング,,有限会社,東京都,千代田区,一番町２２番地１ブランズザハウス一番町６０１,,13,101,1020082,,,2022-11-18,清算の結了等,,,2015-10-05,1,,,,,エムソウゴウプランニング,0
1367,6011301018872,登記記録の閉鎖等,0,2022-11-25,2022-11-16,株式会社Ｇ－ｍａｘ建装,,株式会社,東京都,杉並区,和泉４丁目４５番２１－１０７号,,13,115,1680063,,,2022-11-16,清算の結了等,,,2015-10-05,1,,,,,ジーマックスケンソウ,0
1369,6011501005365,登記記録の閉鎖等,0,2022-11-25,2022-11-17,荒川交通株式会社,,株式会社,東京都,荒川区,東日暮里２丁目２９番６号,,13,118,1160014,,,2022-11-17,清算の結了等,,,2015-10-05,1,,,,,アラカワコウツウ,0
1384,6013301014678,登記記録の閉鎖等,0,2022-11-25,2022-11-21,株式会社海峡,,株式会社,東京都,豊島区,池袋２丁目６６番３号,,13,116,1710014,,,2022-11-21,清算の結了等,,,2015-10-05,1,,,,,カイキョウ,0
1391,6020002016326,登記記録の閉鎖等,0,2022-11-25,2022-11-21,株式会社かずもとや産業,,株式会社,神奈川県,横浜市西区,楠町１１番地２,,14,103,2200003,,,2022-11-21,清算の結了等,,,2015-10-05,1,,,,,カズモトヤサンギョウ,0
1396,6021001035044,登記記録の閉鎖等,0,2022-11-25,2022-11-24,株式会社三和コーポレーション,,株式会社,神奈川県,足柄上郡大井町,金子２３８番地,,14,362,2580019,,,2022-11-24,清算の結了等,,,2015-10-05,1,,,,,サンワコーポレーション,0
1408,6030001129474,登記記録の閉鎖等,0,2022-11-25,2022-11-18,株式会社球,,株式会社,埼玉県,草加市,原町１丁目１２番２号,,11,221,3400048,,,2022-11-18,清算の結了等,,,2019-02-12,1,,,,,キュウ,0
1423,6050001020499,登記記録の閉鎖等,0,2022-11-25,2022-11-18,関東珪曹硝子株式会社,,株式会社,東京都,江東区,亀戸９丁目１１番１号,,13,108,1360071,,,2022-11-18,清算の結了等,,,2015-10-05,1,,,,,カントウケイソウガラス,0
1425,6050002030349,登記記録の閉鎖等,0,2022-11-25,2022-11-21,有限会社大ヌキ電気,,有限会社,茨城県,日立市,神田町４１８番地の３,,08,202,3191233,,,2022-11-21,清算の結了等,,,2015-10-05,1,,,,,オオヌキデンキ,0
1428,6050002039480,登記記録の閉鎖等,0,2022-11-25,2022-11-18,有限会社レクサス,,有限会社,茨城県,牛久市,上柏田４丁目１９番地１５,,08,219,3001232,,,2022-11-18,清算の結了等,,,2015-10-05,1,,,,,レクサス,0
1452,6110002019212,登記記録の閉鎖等,0,2022-11-25,2022-11-22,有限会社クレシェーレ,,有限会社,新潟県,燕市,白山町１丁目１４番１９号,,15,213,9591251,,,2022-11-22,清算の結了等,,,2015-10-05,1,,,,,クレシェーレ,0
1454,6120001024220,登記記録の閉鎖等,0,2022-11-25,2022-11-21,株式会社大豊,,株式会社,大阪府,大阪市東成区,中道３丁目９番１５号,,27,115,5370025,,,2022-11-21,清算の結了等,,,2015-10-05,1,,,,,タイホウ,0
1457,6120001248918,登記記録の閉鎖等,0,2022-11-25,2022-11-22,株式会社ココカーサ,,株式会社,大阪府,大阪市北区,松ケ枝町６番２３号,,27,127,5300037,,,2022-11-22,清算の結了等,,,2022-09-20,1,,,,,ココカーサ,0
1466,6120103004087,登記記録の閉鎖等,0,2022-11-25,2022-11-24,合同会社クラウドフードサービス,,合同会社,大阪府,堺市北区,大豆塚町１丁５７,,27,146,5918042,,,2022-11-24,清算の結了等,,,2021-03-15,1,,,,,クラウドフードサービス,0
1482,6130002008007,登記記録の閉鎖等,0,2022-11-25,2022-11-18,有限会社都織布,,有限会社,京都府,京都市下京区,梅小路石橋町３５番地,,26,106,6008855,,,2022-11-18,清算の結了等,,,2015-10-05,1,,,,,ミヤコショクフ,0
1486,6140005005124,登記記録の閉鎖等,0,2022-11-25,2022-11-18,特定非営利活動法人コドモニティ,,その他の設立登記法人,兵庫県,神戸市東灘区,御影３丁目２－１１－１５０,,28,101,6580047,,,2022-11-18,清算の結了等,,,2015-10-05,1,,,,,コドモニティ,0
1491,6170002002781,登記記録の閉鎖等,0,2022-11-25,2022-11-24,有限会社中島板金工芸所,,有限会社,和歌山県,和歌山市,弁財天丁３２番地,,30,201,6408131,,,2022-11-24,清算の結了等,,,2015-10-05,1,,,,,ナカジマバンキンコウゲイショ,0
1493,6180001135549,登記記録の閉鎖等,0,2022-11-25,2022-11-18,株式会社ＴＦＡ,,株式会社,愛知県,名古屋市名東区,高社２丁目２２９番地の２（高社ハイツ２０８号）,,23,115,4650095,,,2022-11-18,清算の結了等,,,2019-02-22,1,,,,,ティーエフエー,0
1504,6250002005495,登記記録の閉鎖等,0,2022-11-25,2022-11-22,有限会社バーバーブー,,有限会社,山口県,宇部市,下条２丁目１番７号,,35,202,7550048,,,2022-11-22,清算の結了等,,,2015-10-05,1,,,,,バーバーブー,0
1511,6290001029533,登記記録の閉鎖等,0,2022-11-25,2022-11-18,株式会社ビーエス技研,,株式会社,福岡県,糟屋郡久山町,大字久原３３５７番地,,40,348,8112501,,,2022-11-18,清算の結了等,,,2015-10-05,1,,,,,ビーエスギケン,0
1527,6320002015636,登記記録の閉鎖等,0,2022-11-25,2022-11-22,有限会社加藤商店,,有限会社,大分県,杵築市,山香町大字久木野尾３８１６番地,,44,210,8791313,,,2022-11-22,清算の結了等,,,2015-10-05,1,,,,,カトウショウテン,0
1528,6340002001007,登記記録の閉鎖等,0,2022-11-25,2022-11-24,有限会社アドマン,,有限会社,鹿児島県,鹿児島市,吉野町８９１５番地の４,,46,201,8920871,,,2022-11-24,清算の結了等,,,2015-10-05,1,,,,,,0
1542,6400005000263,登記記録の閉鎖等,0,2022-11-25,2022-11-21,一般財団法人北日本カレッジ,,その他の設立登記法人,岩手県,盛岡市,盛岡駅西通２丁目５番１５号,,03,201,0200045,,,2022-11-21,清算の結了等,,,2015-10-05,1,,,,,キタニホンカレッジ,0
1555,6500001008639,登記記録の閉鎖等,0,2022-11-25,2022-11-24,えひめ不動産流通株式会社,,株式会社,愛媛県,松山市,岩崎町１丁目２番１０号ヴェルディオ岩崎５０２号,,38,201,7900854,,,2022-11-24,清算の結了等,,,2015-10-05,1,,,,,エヒメフドウサンリュウツウ,0
1556,6500001015040,登記記録の閉鎖等,0,2022-11-25,2022-11-24,株式会社四国中央ソーイング,,株式会社,愛媛県,四国中央市,新宮町新宮１０７２番地,,38,213,7990303,,,2022-11-24,清算の結了等,,,2015-10-05,1,,,,,シコクチュウオウソーイング,0
1557,6500001015379,登記記録の閉鎖等,0,2022-11-25,2022-11-22,河野食品株式会社,,株式会社,愛媛県,宇和島市,寿町２丁目３番５号,,38,203,7980007,,,2022-11-22,清算の結了等,,,2015-10-05,1,,,,,コウノショクヒン,0
1578,7010401132038,登記記録の閉鎖等,0,2022-11-25,2022-11-17,ジョニーノア株式会社,,株式会社,東京都,港区,白金４丁目１０－１８－４０６,,13,103,1080072,,,2022-11-17,清算の結了等,,,2017-06-15,1,,,,,ジョニーノア,0
1587,7010701018746,登記記録の閉鎖等,0,2022-11-25,2022-11-22,小川自動車株式会社,,株式会社,東京都,品川区,西五反田４丁目２８番６号ルフォン不動前２１０,,13,109,1410031,,,2022-11-22,清算の結了等,,,2015-10-05,1,,,,,オガワジドウシャ,0
1591,7010901010593,登記記録の閉鎖等,0,2022-11-25,2022-11-22,株式会社プレステージ,,株式会社,東京都,世田谷区,奥沢７丁目４３番１８号,,13,112,1580083,,,2022-11-22,清算の結了等,,,2015-10-05,1,,,,,プレステージ,0
1594,7010902005519,登記記録の閉鎖等,0,2022-11-25,2022-11-16,有限会社ケッズ,,有限会社,東京都,世田谷区,深沢４丁目１９番１８号,,13,112,1580081,,,2022-11-16,清算の結了等,,,2015-10-05,1,,,,,,0
1604,7011002003198,登記記録の閉鎖等,0,2022-11-25,2022-11-17,有限会社協和興産,,有限会社,東京都,東村山市,秋津町４丁目１６番地３２２,,13,213,1890001,,,2022-11-17,清算の結了等,,,2015-10-05,1,,,,,キョウワコウサン,0
1607,7011101010319,登記記録の閉鎖等,0,2022-11-25,2022-11-22,三幸工業株式会社,,株式会社,東京都,新宿区,神楽坂１丁目１番地,,13,104,1620825,,,2022-11-22,清算の結了等,,,2015-10-05,1,,,,,サンコウコウギョウ,0
1644,7021001038376,登記記録の閉鎖等,0,2022-11-25,2022-11-24,株式会社アースリンク,,株式会社,神奈川県,中郡二宮町,富士見が丘２丁目５番４２号,,14,342,2590122,,,2022-11-24,清算の結了等,,,2015-10-05,1,,,,,アースリンク,0
1648,7030001016300,登記記録の閉鎖等,0,2022-11-25,2022-11-11,株式会社ＪＲＫ,,株式会社,埼玉県,さいたま市南区,大字大谷口１２８２番地５０,,11,108,3360042,,,2022-11-11,清算の結了等,,,2015-10-05,1,,,,,ジェイアールケー,0
1669,7040001010632,登記記録の閉鎖等,0,2022-11-25,2022-11-17,株式会社みかど育種ホールディング,,株式会社,千葉県,千葉市緑区,大野台１丁目４－１１,,12,105,2670056,,,2022-11-17,合併による解散等,9011001006563,令和４年９月１日千葉市緑区大野台一丁目４番１１号ヴィルモランみかど株式会社（9011001006563）に合併し解散,2015-10-05,1,,,,,ミカドイクシュホールディング,0
1679,7050002016371,登記記録の閉鎖等,0,2022-11-25,2022-11-21,有限会社ミウラアンドカンパニー,,有限会社,茨城県,石岡市,若宮１丁目１番３０－３０２号,,08,205,3150017,,,2022-11-21,清算の結了等,,,2015-10-05,1,,,,,ミウラアンドカンパニー,0
1681,7050002042723,登記記録の閉鎖等,0,2022-11-25,2022-11-18,有限会社進栄商事,,有限会社,茨城県,桜川市,真壁町桜井２６１番地の２,,08,231,3004405,,,2022-11-18,清算の結了等,,,2015-10-05,1,,,,,シンエイショウジ,0
1691,7080402009014,登記記録の閉鎖等,0,2022-11-25,2022-11-22,有限会社笑談亭,,有限会社,静岡県,浜松市東区,上新屋町２００番地の２６,,22,132,4350053,,,2022-11-22,清算の結了等,,,2015-10-05,1,,,,,ショウダンテイ,0
1696,7100001029294,登記記録の閉鎖等,0,2022-11-25,2022-11-18,株式会社ＴＭＰ,,株式会社,長野県,上田市,殿城４２５番地１,,20,203,3860004,,,2022-11-18,清算の結了等,,,2016-04-22,1,,,,,ティーエムピー,0
1707,7120001016753,登記記録の閉鎖等,0,2022-11-25,2022-11-24,株式会社アドバン,,株式会社,大阪府,大阪市生野区,巽東３丁目１４番６号,00027186,27,116,5440014,,,2022-11-24,清算の結了等,,,2015-10-05,1,,,,,アドバン,0
1709,7120001126890,登記記録の閉鎖等,0,2022-11-25,2022-11-21,株式会社樹穏,,株式会社,大阪府,大阪市北区,豊崎３丁目８番１４－４０１号,,27,127,5310072,,,2022-11-21,清算の結了等,,,2015-10-05,1,,,,,ジュオン,0
1730,7120902016117,登記記録の閉鎖等,0,2022-11-25,2022-11-21,有限会社楽摂,,有限会社,大阪府,豊能郡豊能町,光風台６丁目２１番地の６,,27,321,5630104,,,2022-11-21,清算の結了等,,,2015-10-05,1,,,,,ラクセツ,0
1740,7140003017806,登記記録の閉鎖等,0,2022-11-25,2022-11-22,合同会社Ｓｔａｒ　ｐｅａｒｌ,,合同会社,兵庫県,神戸市西区,玉津町水谷３４番地の４,,28,111,6512121,,,2022-11-22,清算の結了等,,,2022-06-20,1,,,,,スターパール,0
1741,7150001014696,登記記録の閉鎖等,0,2022-11-25,2022-11-18,株式会社西日本キカイ,,株式会社,奈良県,香芝市,藤山２丁目１１５３番２号,,29,210,6390243,,,2022-11-18,合併による解散等,5010401083134,令和４年１１月７日東京都港区元赤坂一丁目１番８号株式会社イセキ開発工機（5010401083134）に合併し解散,2015-10-05,1,,,,,ニシニホンキカイ,0
1755,7180302009046,登記記録の閉鎖等,0,2022-11-25,2022-11-22,有限会社西駒屋,,有限会社,愛知県,豊橋市,二川町字中町１４８番地,,23,201,4413155,,,2022-11-22,清算の結了等,,,2015-10-05,1,,,,,ニシコマヤ,0
1770,7260002005956,登記記録の閉鎖等,0,2022-11-25,2022-11-24,大有技術有限会社,,有限会社,岡山県,岡山市北区,一宮１８１番地の１２,,33,101,7011211,,,2022-11-24,清算の結了等,,,2022-10-28,1,,,,,ダイユウギジュツ,0
1789,7370001001912,登記記録の閉鎖等,0,2022-11-25,2022-11-18,高野建設株式会社,,株式会社,宮城県,仙台市太白区,長町南２丁目１２番８５号,,04,104,9820012,,,2022-11-18,清算の結了等,,,2015-10-05,1,,,,,,0
1795,7380001001556,登記記録の閉鎖等,0,2022-11-25,2022-11-18,福島メラミン塗装株式会社,,株式会社,福島県,福島市,太平寺字樋田８番地,00082965,07,201,9608151,,,2022-11-18,清算の結了等,,,2015-10-05,1,,,,,フクシマメラミントソウ,0
1803,7380003002395,登記記録の閉鎖等,0,2022-11-25,2022-11-21,合同会社すみれ,,合同会社,福島県,郡山市,緑ケ丘東１丁目１５番地の１２,,07,203,9630702,,,2022-11-21,清算の結了等,,,2015-10-05,1,,,,,スミレ,0
1805,7400003000504,登記記録の閉鎖等,0,2022-11-25,2022-11-22,合同会社建築舎,,合同会社,岩手県,盛岡市,紺屋町３番１０－３０７号,,03,201,0200885,,,2022-11-22,清算の結了等,,,2015-10-05,1,,,,,ケンチクシャ,0
1809,7420003002440,登記記録の閉鎖等,0,2022-11-25,2022-11-22,合同会社雪華,,合同会社,青森県,青森市,大字筒井字八ツ橋１２９３番地５,,02,201,0300944,,,2022-11-22,清算の結了等,,,2022-01-27,1,,,,,セッカ,0
1815,7430001078903,登記記録の閉鎖等,0,2022-11-25,2022-11-21,株式会社和光,,株式会社,北海道,札幌市北区,北二十六条西５丁目２番５－１００１号,,01,102,0010026,,,2022-11-21,清算の結了等,,,2019-05-09,1,,,,,ワコウ,0
1837,8010003030589,登記記録の閉鎖等,0,2022-11-25,2022-11-22,合同会社ＪＲＰＦ大手前,,合同会社,東京都,千代田区,丸の内３丁目１番１号東京共同会計事務所内,,13,101,1000005,,,2022-11-22,清算の結了等,,,2019-09-12,1,,,,,ジェイアールピーエフオオテマエ,0
1863,8010901026795,登記記録の閉鎖等,0,2022-11-25,2022-11-21,株式会社ハイ・スタンダード,,株式会社,東京都,世田谷区,用賀２丁目３６番１５号,,13,112,1580097,,,2022-11-21,清算の結了等,,,2015-10-05,1,,,,,ハイスタンダード,0
1897,8011801033188,登記記録の閉鎖等,0,2022-11-25,2022-11-22,中西工業株式会社,,株式会社,東京都,足立区,千住５丁目１５番３号,,13,121,1200034,,,2022-11-22,清算の結了等,,,2017-04-12,1,,,,,ナカニシコウギョウ,0
1905,8013202005031,登記記録の閉鎖等,0,2022-11-25,2022-11-16,有限会社長谷川精米店,,有限会社,東京都,目黒区,上目黒５丁目２番３号,,13,110,1530051,,,2022-11-16,清算の結了等,,,2015-10-05,1,,,,,ハセガワセイマイテン,0
1906,8013301031085,登記記録の閉鎖等,0,2022-11-25,2022-11-18,株式会社アーキノーバ建築研究所,,株式会社,東京都,豊島区,目白４丁目１０番２－２０６号,,13,116,1710031,,,2022-11-18,清算の結了等,,,2015-10-05,1,,,,,アーキノーバケンチクケンキュウジョ,0
1910,8013303002472,登記記録の閉鎖等,0,2022-11-25,2022-11-24,ピチカ・エフ・エッチ・エル合同会社,,合同会社,東京都,板橋区,蓮根２丁目２７番１２号古谷野ビル,,13,119,1740046,,,2022-11-24,清算の結了等,,,2015-10-05,1,,,,,,0
1971,8070005004370,登記記録の閉鎖等,0,2022-11-25,2022-11-17,医療法人植竹内科医院,,その他の設立登記法人,群馬県,佐波郡玉村町,大字上之手１５２６番地１,,10,464,3701127,,,2022-11-17,清算の結了等,,,2015-10-05,1,,,,,ウエタケナイカイイン,0
1973,8100002002654,登記記録の閉鎖等,0,2022-11-25,2022-11-21,有限会社青陽フアームカンパニー,,有限会社,長野県,長野市,若穂綿内８２７０番地,,20,201,3810101,,,2022-11-21,清算の結了等,,,2015-10-05,1,,,,,セイヨウフアームカンパニー,0
1974,8100002005806,登記記録の閉鎖等,0,2022-11-25,2022-11-18,有限会社レストランまるやま,,有限会社,長野県,長野市,青木島町大塚９６８番地の８,,20,201,3812205,,,2022-11-18,清算の結了等,,,2015-10-05,1,,,,,レストランマルヤマ,0
1975,8100002016076,登記記録の閉鎖等,0,2022-11-25,2022-11-22,有限会社アクト,,有限会社,長野県,上田市,長瀬３５１３番地,,20,203,3860407,,,2022-11-22,清算の結了等,,,2015-10-05,1,,,,,アクト,0
1986,8120001144594,登記記録の閉鎖等,0,2022-11-25,2022-11-22,株式会社ファクトリー・エンジニアリング・サービス,,株式会社,大阪府,大阪市鶴見区,横堤１丁目５番４４号,,27,124,5380052,,,2022-11-22,清算の結了等,,,2015-10-05,1,,,,,ファクトリーエンジニアリングサービス,0
2009,8130002010646,登記記録の閉鎖等,0,2022-11-25,2022-11-18,有限会社笠井製作所,,有限会社,京都府,京都市南区,唐橋経田町３１番地,,26,107,6018454,,,2022-11-18,清算の結了等,,,2015-10-05,1,,,,,カサイセイサクショ,0
2020,8160001006907,登記記録の閉鎖等,0,2022-11-25,2022-11-21,株式会社中川,,株式会社,滋賀県,長浜市,宮前町６番１８号,,25,203,5260053,,,2022-11-21,清算の結了等,,,2015-10-05,1,,,,,ナカガワ,0
2021,8170002001996,登記記録の閉鎖等,0,2022-11-25,2022-11-24,有限会社新伸電気,,有限会社,和歌山県,和歌山市,塩屋５丁目３番６６号,,30,201,6410054,,,2022-11-24,清算の結了等,,,2015-10-05,1,,,,,シンシンデンキ,0
2034,8190005010555,登記記録の閉鎖等,0,2022-11-25,2022-11-21,一般社団法人賢島の里,,その他の設立登記法人,三重県,志摩市,阿児町神明１１８番地,,24,215,5170502,,,2022-11-21,清算の結了等,,,2015-10-05,1,,,,,カシコノサト,0
2042,8210002010316,登記記録の閉鎖等,0,2022-11-25,2022-11-21,有限会社サンエイ事務機販売,,有限会社,福井県,敦賀市,呉竹町２丁目４番２１号,,18,202,9140802,,,2022-11-21,清算の結了等,,,2015-10-05,1,,,,,サンエイジムキハンバイ,0
2061,8290002033961,登記記録の閉鎖等,0,2022-11-25,2022-11-18,有限会社ヨシダ,,有限会社,福岡県,福津市,津屋崎７丁目２９番１－１０３号,,40,224,8113304,,,2022-11-18,清算の結了等,,,2015-10-05,1,,,,,ヨシダ,0
2073,8330002022844,登記記録の閉鎖等,0,2022-11-25,2022-11-21,有限会社白鳩美容室,,有限会社,熊本県,阿蘇市,内牧１１３９番地,,43,214,8692301,,,2022-11-21,清算の結了等,,,2015-10-05,1,,,,,シロハトビヨウシツ,0
2106,8500001015039,登記記録の閉鎖等,0,2022-11-25,2022-11-24,株式会社新宮縫製,,株式会社,愛媛県,四国中央市,新宮町新宮１０７２番地,,38,213,7990303,,,2022-11-24,清算の結了等,,,2015-10-05,1,,,,,シングウホウセイ,0
2114,9010001159074,登記記録の閉鎖等,0,2022-11-25,2022-11-18,株式会社エスファクトリー,,株式会社,東京都,中央区,銀座１丁目２７番８号セントラルビル７０３号,,13,102,1040061,,,2022-11-18,清算の結了等,,,2015-10-05,1,,,,,エスファクトリー,0
2127,9010005033507,登記記録の閉鎖等,0,2022-11-25,2022-11-22,特定非営利活動法人ＮｏｗＤｏｎａｔｉｏｎ,,その他の設立登記法人,東京都,中央区,日本橋人形町３丁目１２番１０号ＢＥＡＫＥＲ５１１,,13,102,1030013,,,2022-11-22,清算の結了等,,,2021-06-15,1,,,,,ナウドネーション,0
2140,9010601048081,登記記録の閉鎖等,0,2022-11-25,2022-11-18,株式会社イクシズ工業,,株式会社,東京都,江東区,南砂２丁目３７番１０－８０１号,,13,108,1360076,,,2022-11-18,清算の結了等,,,2015-10-05,1,,,,,イクシズコウギョウ,0
2170,9011602005625,登記記録の閉鎖等,0,2022-11-25,2022-11-22,有限会社セイ建内装,,有限会社,東京都,練馬区,中村南２丁目２１番１２－６０１号,,13,120,1760025,,,2022-11-22,清算の結了等,,,2015-10-05,1,,,,,セイケンナイソウ,0
2199,9030002030538,登記記録の閉鎖等,0,2022-11-25,2022-11-17,有限会社鍋屋米穀店,,有限会社,埼玉県,所沢市,御幸町１番２６号,,11,208,3591115,,,2022-11-17,清算の結了等,,,2015-10-05,1,,,,,ナベヤベイコクテン,0
2200,9030003005324,登記記録の閉鎖等,0,2022-11-25,2022-11-22,ニューデイライジング株式会社,,株式会社,東京都,品川区,中延２丁目１３番６号,,13,109,1420053,,,2022-11-22,清算の結了等,,,2015-10-05,1,,,,,ニューデイライジング,0
2211,9040003010967,登記記録の閉鎖等,0,2022-11-25,2022-11-16,合同会社トール,,合同会社,千葉県,柏市,高柳１丁目１番地１,,12,217,2770941,,,2022-11-16,合併による解散等,6040003009698,令和４年１１月１６日千葉県柏市高柳１４８８番地１合同会社ブライトリーチ（6040003009698）に合併し解散,2017-12-07,1,,,,,トール,0
2214,9050002004473,登記記録の閉鎖等,0,2022-11-25,2022-11-18,有限会社ヨンテック,,有限会社,茨城県,水戸市,元吉田町２９４３番地の５,,08,201,3100836,,,2022-11-18,清算の結了等,,,2015-10-05,1,,,,,ヨンテック,0
2223,9070002012838,登記記録の閉鎖等,0,2022-11-25,2022-11-22,有限会社ローヤル,,有限会社,群馬県,高崎市,沖町１７９番地の１,,10,202,3700086,,,2022-11-22,清算の結了等,,,2015-10-05,1,,,,,ローヤル,0
2228,9080005004286,登記記録の閉鎖等,0,2022-11-25,2022-11-24,一般社団法人モリス,,その他の設立登記法人,静岡県,静岡市葵区,横山１３９番地,,22,101,4212307,,,2022-11-24,清算の結了等,,,2015-10-05,1,,,,,モリス,0
2235,9110002017015,登記記録の閉鎖等,0,2022-11-25,2022-11-21,有限会社キッドショップ,,有限会社,新潟県,三条市,本町２丁目１０番１４号,,15,204,9550071,,,2022-11-21,清算の結了等,,,2015-10-05,1,,,,,キッドショップ,0
2266,9130002034669,登記記録の閉鎖等,0,2022-11-25,2022-11-18,有限会社南濱米穀販売所,,有限会社,京都府,舞鶴市,字行永１０１番地,,26,202,6250052,,,2022-11-18,清算の結了等,,,2015-10-05,1,,,,,ミナミハマベイコクハンバイショ,0
2279,9180001140950,登記記録の閉鎖等,0,2022-11-25,2022-11-22,株式会社Ｉｎｆｉｎｉｔｙ,,株式会社,愛知県,名古屋市中区,新栄１丁目１６番２号磯野ビル３Ｆ,,23,106,4600007,,,2022-11-22,清算の結了等,,,2020-04-16,1,,,,,インフィニティ,0
2294,9210002000051,登記記録の閉鎖等,0,2022-11-25,2022-11-22,有限会社お肉のほりえ,,有限会社,福井県,福井市,新田塚町３０３番地,,18,201,9100064,,,2022-11-22,清算の結了等,,,2015-10-05,1,,,,,オニクノホリエ,0
2308,9250001005337,登記記録の閉鎖等,0,2022-11-25,2022-11-21,協立造船株式会社,,株式会社,山口県,下関市,彦島江の浦町６丁目４番１９号,,35,201,7500075,,,2022-11-21,清算の結了等,,,2015-10-05,1,,,,,,0
2325,9290002014449,登記記録の閉鎖等,0,2022-11-25,2022-11-21,有限会社エヌエスビル,,有限会社,福岡県,福岡市南区,横手２丁目３８番７号,,40,134,8111311,,,2022-11-21,清算の結了等,,,2015-10-05,1,,,,,エヌエスビル,0
2328,9290802020349,登記記録の閉鎖等,0,2022-11-25,2022-11-22,有限会社須崎板金工業,,有限会社,福岡県,直方市,大字上頓野３０５３番地の３,,40,204,8220003,,,2022-11-22,清算の結了等,,,2015-10-05,1,,,,,スザキバンキンコウギョウ,0
2334,9340001010393,登記記録の閉鎖等,0,2022-11-25,2022-11-24,株式会社ハニーテック,,株式会社,鹿児島県,指宿市,十二町２３４９番地２,,46,210,8910403,,,2022-11-24,清算の結了等,,,2015-10-05,1,,,,,ハニーテック,0
2347,9380002033919,登記記録の閉鎖等,0,2022-11-25,2022-11-18,エムディエス有限会社,,有限会社,福島県,会津若松市,南千石町１番５４号,,07,202,9650816,,,2022-11-18,清算の結了等,,,2015-10-05,1,,,,,エムディエス,0
2353,9410002000213,登記記録の閉鎖等,0,2022-11-25,2022-11-24,有限会社アビコ,,有限会社,秋田県,秋田市,将軍野東３丁目４番４０号,,05,201,0110931,,,2022-11-24,清算の結了等,,,2015-10-05,1,,,,,アビコ,0
2362,9430005013276,登記記録の閉鎖等,0,2022-11-25,2022-11-21,エスポアシティ札幌管理組合法人,,その他の設立登記法人,北海道,札幌市東区,北六条東６丁目１番地２,,01,103,0600906,,,2022-11-21,清算の結了等,,,2017-11-28,1,,,,,エスポアシティサッポロ,0
2363,9450001002586,登記記録の閉鎖等,0,2022-11-25,2022-11-24,株式会社不二苑,,株式会社,北海道,旭川市,常盤通３丁目１９７１番地の４８,,01,204,0700043,,,2022-11-24,清算の結了等,,,2015-10-05,1,,,,,フジエン,0
2370,9500001015038,登記記録の閉鎖等,0,2022-11-25,2022-11-24,株式会社ソーイング伊予,,株式会社,愛媛県,四国中央市,新宮町新宮１０７２番地,,38,213,7990303,,,2022-11-24,清算の結了等,,,2015-10-05,1,,,,,ソーイングイヨ,0
