sequenceNumber,corporateNumber,process,correct,updateDate,changeDate,name,nameImageId,kind,prefectureName,cityName,streetNumber,addressImageId,prefectureCode,cityCode,postCode,addressOutside,addressOutsideImageId,closeDate,closeCause,successorCorporateNumber,changeCause,assignmentDate,latest,enName,enPrefectureName,enCityName,enAddressOutside,furigana,hihyoji
7,1010003044496,新規,0,2024-08-19,2024-08-19,合同会社ＡＳ大洗フロンティア,,合同会社,東京都,千代田区,大手町２丁目１番１号,,13,101,1000004,,,,,,,2024-08-19,1,,,,,エーエスオオアライフロンティア,0
10,1010005038653,新規,0,2024-08-19,2024-08-19,一般財団法人工藤健二・京子財団,,その他の設立登記法人,東京都,千代田区,東神田３丁目２番４号,,13,101,1010031,,,,,,,2024-08-19,1,,,,,クドウケンジキョウコザイダン,0
13,1010401184489,新規,0,2024-08-19,2024-08-19,株式会社ヨミガエ,,株式会社,東京都,港区,西新橋２丁目３４番８－１３０１号,,13,103,1050003,,,,,,,2024-08-19,1,,,,,ヨミガエ,0
14,1010401184605,新規,0,2024-08-19,2024-08-19,株式会社光と風と水と,,株式会社,東京都,港区,芝浦３丁目２－２９,,13,103,1080023,,,,,,,2024-08-19,1,,,,,ヒカリトカゼトミズト,0
26,1010703007298,新規,0,2024-08-19,2024-08-19,ワンズブレイン合同会社,,合同会社,東京都,品川区,大崎２丁目９番２－３３０５号,,13,109,1410032,,,,,,,2024-08-19,1,,,,,ワンズブレイン,0
32,1011001164204,新規,0,2024-08-19,2024-08-19,ＶＩ　Ｊａｐａｎ株式会社,,株式会社,東京都,渋谷区,恵比寿１丁目１９番１９号恵比寿ビジネスタワー１３階,,13,113,1500013,,,,,,,2024-08-19,1,,,,,,0
36,1011003019521,新規,0,2024-08-19,2024-08-19,Ａｋｉｒａ合同会社,,合同会社,東京都,目黒区,中目黒５丁目３番１０号,,13,110,1530061,,,,,,,2024-08-19,1,,,,,,0
37,1011003019819,新規,0,2024-08-19,2024-08-19,合同会社ｕｙｕ,,合同会社,東京都,渋谷区,恵比寿西２丁目８番５号,,13,113,1500021,,,,,,,2024-08-19,1,,,,,ユーワイユー,0
41,1011101108424,新規,0,2024-08-19,2024-08-19,株式会社おうちプロ,,株式会社,東京都,新宿区,新小川町５番２７号ＳＫＲビル１Ｆ,,13,104,1620814,,,,,,,2024-08-19,1,,,,,オウチプロ,0
43,1011203004471,新規,0,2024-08-19,2024-08-19,合同会社ＭＧＫ,,合同会社,東京都,中野区,江原町２丁目１番６号,,13,114,1650023,,,,,,,2024-08-19,1,,,,,エムジーケー,0
45,1011401026334,新規,0,2024-08-19,2024-08-19,株式会社ＳＩグループ,,株式会社,東京都,板橋区,常盤台１丁目３８－９,,13,119,1740071,,,,,,,2024-08-19,1,,,,,エスアイグループ,0
47,1011403004478,新規,0,2024-08-19,2024-08-19,ＯＧＩＶＥ合同会社,,合同会社,東京都,板橋区,加賀１丁目２１番１号プラウドシティ加賀学園通り１１６,,13,119,1730003,,,,,,,2024-08-19,1,,,,,オジーヴ,0
50,1011701027536,新規,0,2024-08-19,2024-08-19,株式会社エムロード,,株式会社,東京都,江戸川区,鹿骨３丁目１０番１３号,,13,123,1330073,,,,,,,2024-08-19,1,,,,,エムロード,0
53,1011801044712,新規,0,2024-08-19,2024-08-19,株式会社星野組,,株式会社,東京都,葛飾区,お花茶屋２丁目１－２２あやめ荘１０３,,13,122,1240003,,,,,,,2024-08-19,1,,,,,ホシノグミ,0
54,1011803006413,新規,0,2024-08-19,2024-08-19,成功合同会社,,合同会社,東京都,足立区,梅田８丁目８番１３号,,13,121,1230851,,,,,,,2024-08-19,1,,,,,セイコウ,0
55,1012401042197,新規,0,2024-08-19,2024-08-19,株式会社インフィニティ,,株式会社,東京都,多摩市,関戸５丁目２５番地の１８,,13,224,2060011,,,,,,,2024-08-19,1,,,,,インフィニティ,0
71,1020001158479,新規,0,2024-08-19,2024-08-19,株式会社Ｏｆｆｓｈｏｒｅ,,株式会社,神奈川県,川崎市中原区,井田杉山町９番２号,,14,133,2110036,,,,,,,2024-08-19,1,,,,,オフショア,0
72,1020001158669,新規,0,2024-08-19,2024-08-19,株式会社こころの介護,,株式会社,神奈川県,横浜市中区,石川町５丁目１８５番地３,,14,104,2310868,,,,,,,2024-08-19,1,,,,,ココロノカイゴ,0
84,1030001161507,新規,0,2024-08-19,2024-08-19,株式会社インテグレス,,株式会社,埼玉県,さいたま市大宮区,仲町３丁目３６番１コンフォリア大宮５０３,,11,103,3300845,,,,,,,2024-08-19,1,,,,,インテグレス,0
93,1040001134949,新規,0,2024-08-19,2024-08-19,株式会社ＴＰＣ　Ｈｏｌｄｉｎｇｓ,,株式会社,千葉県,白井市,七次台３丁目１８番１号,,12,232,2701436,,,,,,,2024-08-19,1,,,,,ティーピーシーホールディングス,0
94,1040001134965,新規,0,2024-08-19,2024-08-19,株式会社ＳＯＴＥＮホールディングス,,株式会社,千葉県,柏市,千代田１丁目１番１３－５０１号,,12,217,2770025,,,,,,,2024-08-19,1,,,,,ソウテンホールディングス,0
99,1070001042083,新規,0,2024-08-19,2024-08-19,株式会社ＦＩＶＥ８ＯＦＦＩＣＥ,,株式会社,群馬県,高崎市,小八木町２０３７番地１シュヴレット１０２,,10,202,3700071,,,,,,,2024-08-19,1,,,,,ファイブエイトオフィス,0
108,1090001018866,新規,0,2024-08-19,2024-08-19,株式会社Ｂｏｎｄｓ,,株式会社,山梨県,南都留郡忍野村,忍草１４８６番地２,,19,424,4010511,,,,,,,2024-08-19,1,,,,,ボンズ,0
109,1100001037757,新規,0,2024-08-19,2024-08-19,株式会社Ａｏｒａｋｉ,,株式会社,長野県,伊那市,富県４９３３番地２,,20,209,3960621,,,,,,,2024-08-19,1,,,,,アオラキ,0
110,1110001038655,新規,0,2024-08-19,2024-08-19,株式会社ＢＯＤＨＩ,,株式会社,新潟県,新発田市,荒川５３９６番地,,15,206,9570045,,,,,,,2024-08-19,1,,,,,ボーディ,0
123,1120001267699,新規,0,2024-08-19,2024-08-19,株式会社フロネシス・マネジメント,,株式会社,大阪府,大阪市中央区,瓦町１丁目５番８号日宝ダイヤビル４階５号,,27,128,5410048,,,,,,,2024-08-19,1,,,,,フロネシスマネジメント,0
124,1120001267798,新規,0,2024-08-19,2024-08-19,株式会社新見プランニング,,株式会社,大阪府,枚方市,香里ケ丘９丁目１２－６－５０６,,27,210,5730084,,,,,,,2024-08-19,1,,,,,ニイミプランニング,0
125,1120001267906,新規,0,2024-08-19,2024-08-19,引力株式会社,,株式会社,大阪府,大阪市生野区,中川西１丁目１７番１０－２Ｄ,,27,116,5440032,,,,,,,2024-08-19,1,,,,,インリキ,0
126,1120005024502,新規,0,2024-08-19,2024-08-19,一般社団法人希望のぞみ,,その他の設立登記法人,大阪府,大阪市東淀川区,上新庄３丁目１３番１７－５０１号,,27,114,5330006,,,,,,,2024-08-19,1,,,,,ノゾミ,0
132,1130001077726,新規,0,2024-08-19,2024-08-19,株式会社Ｒｉｖｅｒ　Ｔｅｎ’ｓ,,株式会社,京都府,京都市北区,紫竹西桃ノ本町３９番地,,26,101,6038208,,,,,,,2024-08-19,1,,,,,リバーテン,0
133,1130001077750,新規,0,2024-08-19,2024-08-19,ＧＭフロンティア株式会社,,株式会社,京都府,京田辺市,松井ケ丘１丁目１５－３,,26,211,6100353,,,,,,,2024-08-19,1,,,,,ジーエムフロンティア,0
136,1140003020971,新規,0,2024-08-19,2024-08-19,ＫＹＯＤＡＩインダストリージャパン合同会社,,合同会社,兵庫県,明石市,大観町９番２号,,28,203,6730897,,,,,,,2024-08-19,1,,,,,キョウダイインダストリージャパン,0
144,1180001162903,新規,0,2024-08-19,2024-08-19,株式会社Ｃｈｌｏｅ　Ｒｏｏｔｓ,,株式会社,愛知県,名古屋市中区,栄５丁目１番２３号（プラウドタワー栄１４０４号）,,23,106,4600008,,,,,,,2024-08-19,1,,,,,クロエルーツ,0
145,1180001162911,新規,0,2024-08-19,2024-08-19,株式会社大勝,,株式会社,愛知県,名古屋市緑区,浦里４丁目２２９番地（県営鳴海住宅Ｄ棟２０８号）,,23,114,4580847,,,,,,,2024-08-19,1,,,,,ダイセイ,0
146,1180001162928,新規,0,2024-08-19,2024-08-19,株式会社Ｈａｓｅｇａｗａ,,株式会社,愛知県,名古屋市港区,七番町５丁目４番地５,,23,111,4550001,,,,,,,2024-08-19,1,,,,,ハセガワ,0
150,1180003027237,新規,0,2024-08-19,2024-08-19,合同会社ＯＧＴ,,合同会社,愛知県,大府市,長根町６丁目３０番地,,23,223,4740021,,,,,,,2024-08-19,1,,,,,オージーティー,0
162,1240001063723,新規,0,2024-08-19,2024-08-19,株式会社Ｊｏｏ,,株式会社,広島県,尾道市,山波町２９３０番地１,,34,205,7220052,,,,,,,2024-08-19,1,,,,,ジョー,0
173,1290001106725,新規,0,2024-08-19,2024-08-19,株式会社ＦＪクルー,,株式会社,福岡県,福岡市西区,姪浜駅南４丁目５番１７号,,40,135,8190006,,,,,,,2024-08-19,1,,,,,エフジェークルー,0
174,1290001106733,新規,0,2024-08-19,2024-08-19,株式会社田中空調設備,,株式会社,福岡県,飯塚市,馬敷２番地,,40,205,8200709,,,,,,,2024-08-19,1,,,,,タナカクウチョウセツビ,0
175,1290001106758,新規,0,2024-08-19,2024-08-19,株式会社インベスト九州,,株式会社,福岡県,福岡市早良区,原３丁目１番３０－４０１号,,40,137,8140022,,,,,,,2024-08-19,1,,,,,インベストキュウシュウ,0
176,1290001106774,新規,0,2024-08-19,2024-08-19,株式会社Ｌｅｏｔａｌ,,株式会社,福岡県,福岡市南区,花畑３丁目４番２号,,40,134,8111356,,,,,,,2024-08-19,1,,,,,レオタル,0
187,1330001032355,新規,0,2024-08-19,2024-08-19,株式会社ＮＥＷ　ＧＡＴＥ,,株式会社,熊本県,熊本市南区,平田１丁目１１番４７号,,43,104,8600826,,,,,,,2024-08-19,1,,,,,ニューゲート,0
190,1360003014241,新規,0,2024-08-19,2024-08-19,合同会社國吉内装,,合同会社,沖縄県,那覇市,具志３丁目３２番２４号,,47,201,9010146,,,,,,,2024-08-19,1,,,,,クニヨシナイソウ,0
201,1410001013909,新規,0,2024-08-19,2024-08-19,株式会社にとき,,株式会社,秋田県,南秋田郡五城目町,字上町２２４番地６－１,,05,361,0181705,,,,,,,2024-08-19,1,,,,,ニトキ,0
211,1430003016692,新規,0,2024-08-19,2024-08-19,合同会社Ｂｒｉｄｇｅ　Ｂｏｏｋ,,合同会社,北海道,小樽市,松ケ枝１丁目８番１２号,,01,203,0470022,,,,,,,2024-08-19,1,,,,,ブリッジブック,0
213,1480002016284,新規,0,2024-08-19,2024-08-19,有限会社杉本メリヤス工業所,,有限会社,徳島県,徳島市,庄町５丁目７１番地,,36,201,7700044,,,,,,,2024-08-19,1,,,,,,0
230,2010001247439,新規,0,2024-08-19,2024-08-19,株式会社弘陽コネクト,,株式会社,東京都,中央区,日本橋室町１丁目１１－１２日本橋水野ビル７階,,13,102,1030022,,,,,,,2024-08-19,1,,,,,コウヨウコネクト,0
231,2010001247587,新規,0,2024-08-19,2024-08-19,株式会社アールアイイージャパン,,株式会社,東京都,中央区,銀座２丁目１３番１８号,,13,102,1040061,,,,,,,2024-08-19,1,,,,,アールアイイージャパン,0
232,2010003044495,新規,0,2024-08-19,2024-08-19,合同会社ＡＳ東海村フロンティア,,合同会社,東京都,千代田区,大手町２丁目１番１号,,13,101,1000004,,,,,,,2024-08-19,1,,,,,エーエストウカイムラフロンティア,0
233,2010003044644,新規,0,2024-08-19,2024-08-19,ＫＸ　Ｊａｐａｎ合同会社,,合同会社,東京都,千代田区,丸の内１丁目６番２号新丸の内センタービルディング２０階,,13,101,1000005,,,,,,,2024-08-19,1,,,,,ケイエックスジャパン,0
239,2010401184488,新規,0,2024-08-19,2024-08-19,アシスト株式会社,,株式会社,東京都,港区,北青山１丁目３番１号３階,,13,103,1070061,,,,,,,2024-08-19,1,,,,,アシスト,0
240,2010401184570,新規,0,2024-08-19,2024-08-19,願い株式会社,,株式会社,東京都,港区,北青山１丁目３番１号アールキューブ青山３階,,13,103,1070061,,,,,,,2024-08-19,1,,,,,ネガイ,0
241,2010401184579,新規,0,2024-08-19,2024-08-19,株式会社ＣＳ‐Ｒ,,株式会社,東京都,港区,芝浦４丁目１３番２３号,,13,103,1080023,,,,,,,2024-08-19,1,,,,,シーエスアール,0
242,2010401184620,新規,0,2024-08-19,2024-08-19,株式会社Ｖｅｒｅｔ,,株式会社,東京都,港区,台場１丁目３番４－３０６号,,13,103,1350091,,,,,,,2024-08-19,1,,,,,ヴェレット,0
244,2010403033239,新規,0,2024-08-19,2024-08-19,ＳＫＹ合同会社,,合同会社,東京都,港区,北青山１丁目３番１号,,13,103,1070061,,,,,,,2024-08-19,1,,,,,エスケーワイ,0
245,2010403033247,新規,0,2024-08-19,2024-08-19,合同会社ｅｓ‐ＢＡＳＥ,,合同会社,東京都,港区,東麻布２丁目２７番４－３０３号,,13,103,1060044,,,,,,,2024-08-19,1,,,,,エスベース,0
247,2010501052719,新規,0,2024-08-19,2024-08-19,株式会社アイビーズ,,株式会社,東京都,台東区,東上野１丁目２０番４‐１３０１号,,13,106,1100015,,,,,,,2024-08-19,1,,,,,アイビーズ,0
255,2010901055809,新規,0,2024-08-19,2024-08-19,株式会社ＡＣＵＡＮＣＨＯＲ,,株式会社,東京都,世田谷区,用賀２丁目２９－２－４０１,,13,112,1580097,,,,,,,2024-08-19,1,,,,,アキュアンカー,0
256,2010901055817,新規,0,2024-08-19,2024-08-19,株式会社ＭＤＨ,,株式会社,東京都,世田谷区,等々力２丁目５番１５号,,13,112,1580082,,,,,,,2024-08-19,1,,,,,エムディーエイチ,0
274,2012401042205,新規,0,2024-08-19,2024-08-19,株式会社オオツカ,,株式会社,東京都,稲城市,向陽台４丁目３番地の２ビューステージ向陽台６０７号,,13,225,2060803,,,,,,,2024-08-19,1,,,,,オオツカ,0
275,2012701018400,新規,0,2024-08-19,2024-08-19,株式会社ｃａｎｖａｓ,,株式会社,東京都,小平市,美園町１丁目７番３号,,13,211,1870041,,,,,,,2024-08-19,1,,,,,キャンバス,0
283,2020001158841,新規,0,2024-08-19,2024-08-19,ＪＯＹＶＥ株式会社,,株式会社,神奈川県,横浜市西区,浅間町１丁目４番３号ウィザードビル４０２,,14,103,2200072,,,,,,,2024-08-19,1,,,,,ジョイヴ,0
286,2020005016509,新規,0,2024-08-19,2024-08-19,一般社団法人ニューロ脳育協会,,その他の設立登記法人,神奈川県,横浜市中区,太田町１丁目１０ＮＧＳ太田町ビル４０１,,14,104,2310011,,,,,,,2024-08-19,1,,,,,ニューロノウイクキョウカイ,0
301,2030003024958,新規,0,2024-08-19,2024-08-19,合同会社品田技建,,合同会社,埼玉県,草加市,青柳４丁目１６番９号ハイムスクエアＩＩ１０５号室,00135996,11,221,3400002,,,,,,,2024-08-19,1,,,,,シナダギケン,0
303,2040001134964,新規,0,2024-08-19,2024-08-19,株式会社ＴＲＩＳ,,株式会社,千葉県,千葉市中央区,中央１丁目６番１号マンションＭＯＭＯ１２千葉中央ビル３階Ｂ室,,12,101,2600013,,,,,,,2024-08-19,1,,,,,トライス,0
304,2040001134972,新規,0,2024-08-19,2024-08-19,株式会社リーテック,,株式会社,千葉県,船橋市,藤原５丁目３８番地,,12,204,2730047,,,,,,,2024-08-19,1,,,,,リーテック,0
309,2050001055276,新規,0,2024-08-19,2024-08-19,ＳＰＨｉｎＸ株式会社,,株式会社,茨城県,つくば市,千現２丁目１番地６,,08,220,3050047,,,,,,,2024-08-19,1,,,,,スフィンクス,0
315,2070001042099,新規,0,2024-08-19,2024-08-19,株式会社ＺＥＤ,,株式会社,群馬県,前橋市,総社町高井４８－１２,,10,201,3710856,,,,,,,2024-08-19,1,,,,,ゼッド,0
318,2080001026456,新規,0,2024-08-19,2024-08-19,緑地不動産株式会社,,株式会社,静岡県,静岡市駿河区,新川２丁目２番１８号,,22,102,4228064,,,,,,,2024-08-19,1,,,,,リョクチフドウサン,0
322,2090001018865,新規,0,2024-08-19,2024-08-19,Ｎｅｘｔ　Ｃｈｅｅｓｅ株式会社,,株式会社,山梨県,中央市,上三條５１１番地１,,19,214,4093823,,,,,,,2024-08-19,1,,,,,ネクストチーズ,0
323,2100005013209,新規,0,2024-08-19,2024-08-19,一般社団法人いきいきライフ協会中信,,その他の設立登記法人,長野県,松本市,宮渕本村４番２０－４号,,20,202,3900864,,,,,,,2024-08-19,1,,,,,イキイキライフキョウカイチュウシン,0
333,2120001267822,新規,0,2024-08-19,2024-08-19,ｓｋｙｉｎｖｅｓｔｃｏ株式会社,,株式会社,大阪府,大阪市阿倍野区,北畠３丁目４番１２－２０２号,,27,119,5450035,,,,,,,2024-08-19,1,,,,,スキンベストコー,0
334,2120003027332,新規,0,2024-08-19,2024-08-19,合同会社パーフェクトストレッチ,,合同会社,大阪府,大阪市北区,曾根崎新地１丁目８番１９号９階,,27,127,5300002,,,,,,,2024-08-19,1,,,,,パーフェクトストレッチ,0
340,2120901049634,新規,0,2024-08-19,2024-08-19,株式会社シンセイ,,株式会社,大阪府,豊中市,服部豊町１丁目１１番１０－７０３号,,27,203,5610859,,,,,,,2024-08-19,1,,,,,シンセイ,0
341,2120901049642,新規,0,2024-08-19,2024-08-19,株式会社アシスト,,株式会社,大阪府,茨木市,水尾３丁目３番４４号,,27,211,5670891,,,,,,,2024-08-19,1,,,,,アシスト,0
344,2130003009800,新規,0,2024-08-19,2024-08-19,合同会社ＳＥＡＶＡＳ,,合同会社,京都府,京都市左京区,下鴨南芝町１８番地２,,26,103,6060841,,,,,,,2024-08-19,1,,,,,シーバス,0
347,2140001135531,新規,0,2024-08-19,2024-08-19,株式会社ＬＩＧＨＴ,,株式会社,兵庫県,神戸市中央区,加納町１丁目３番２号コトノハコ神戸１階,,28,110,6500001,,,,,,,2024-08-19,1,,,,,ライト,0
366,2180003027211,新規,0,2024-08-19,2024-08-19,合同会社ＩＫＵＲＡ,,合同会社,愛知県,春日井市,如意申町４丁目３番地４１,,23,206,4860918,,,,,,,2024-08-19,1,,,,,イクラ,0
367,2180003027236,新規,0,2024-08-19,2024-08-19,合同会社イノベーション,,合同会社,愛知県,名古屋市中区,錦１丁目１６番１３号チサンマンション錦２０６号,,23,106,4600003,,,,,,,2024-08-19,1,,,,,イノベーション,0
372,2200001042845,新規,0,2024-08-19,2024-08-19,株式会社翔建工業,,株式会社,岐阜県,羽島市,竹鼻町１１９９番地９,,21,209,5016241,,,,,,,2024-08-19,1,,,,,ショウケンコウギョウ,0
384,2290001106724,新規,0,2024-08-19,2024-08-19,株式会社トライアングル,,株式会社,福岡県,福岡市博多区,東那珂１丁目７－２２アルナージエッジ４０３,,40,132,8120892,,,,,,,2024-08-19,1,,,,,トライアングル,0
385,2290001106740,新規,0,2024-08-19,2024-08-19,株式会社Ｔ＆Ｃ,,株式会社,福岡県,糸島市,曽根５６６番地５,,40,230,8191561,,,,,,,2024-08-19,1,,,,,ティーアンドシー,0
386,2290001106765,新規,0,2024-08-19,2024-08-19,株式会社ビオプラス,,株式会社,福岡県,福岡市早良区,西新７丁目２番１３－４０２号Ｎ・ユーフォリア,,40,137,8140002,,,,,,,2024-08-19,1,,,,,ビオプラス,0
388,2290003015634,新規,0,2024-08-19,2024-08-19,ＭＩＫ合同会社,,合同会社,福岡県,糸島市,志摩野北１４９７番地４６,,40,230,8191303,,,,,,,2024-08-19,1,,,,,エムアイケイ,0
394,2330002019953,新規,0,2024-08-19,2024-08-19,有限会社荒木商店,,有限会社,熊本県,上益城郡益城町,大字砥川１８８３番地,,43,443,8612222,,,,,,,2024-08-19,1,,,,,アラキショウテン,0
406,2430001092462,新規,0,2024-08-19,2024-08-19,株式会社めぐみメディコ,,株式会社,北海道,札幌市西区,山の手二条６丁目３－８,,01,107,0630002,,,,,,,2024-08-19,1,,,,,メグミメディコ,0
407,2430001092512,新規,0,2024-08-19,2024-08-19,株式会社ラボサヴォリー,,株式会社,北海道,夕張郡長沼町,字加賀団体,,01,428,0691316,,,,,,,2024-08-19,1,,,,,ラボサヴォリー,0
408,2430003016691,新規,0,2024-08-19,2024-08-19,合同会社ｂｒ,,合同会社,北海道,札幌市中央区,南四条東４丁目７番地１,,01,101,0600054,,,,,,,2024-08-19,1,,,,,ビーアール,0
421,3010003044494,新規,0,2024-08-19,2024-08-19,合同会社ＡＳフロンティア,,合同会社,東京都,千代田区,大手町２丁目１番１号,,13,101,1000004,,,,,,,2024-08-19,1,,,,,エーエスフロンティア,0
422,3010003044602,新規,0,2024-08-19,2024-08-19,やはらぎ合同会社,,合同会社,東京都,中央区,築地６丁目２－１２－５１２,,13,102,1040045,,,,,,,2024-08-19,1,,,,,ヤハラギ,0
423,3010003044651,新規,0,2024-08-19,2024-08-19,エネストジャパン７合同会社,,合同会社,東京都,千代田区,四番町２番地１２,,13,101,1020081,,,,,,,2024-08-19,1,,,,,エネストジャパンナナ,0
424,3010005038701,新規,0,2024-08-19,2024-08-19,ＥｄｇｅＣｏｎｎｅＸ　Ｊａｐａｎ１特定目的会社,,その他の設立登記法人,東京都,千代田区,霞が関３丁目２番６号東京倶楽部ビルディング１１階,,13,101,1000013,,,,,,,2024-08-19,1,,,,,エッジコネックスジャパンワン,0
429,3010401184537,新規,0,2024-08-19,2024-08-19,ＪＧ２５株式会社,,株式会社,東京都,港区,虎ノ門１丁目３番１号,,13,103,1050001,,,,,,,2024-08-19,1,,,,,ジェイジーニジュウゴ,0
430,3010401184594,新規,0,2024-08-19,2024-08-19,ＡＳＵＮＯＢＩ株式会社,,株式会社,東京都,港区,西麻布３丁目２１番２０号,,13,103,1060031,,,,,,,2024-08-19,1,,,,,アスノビ,0
431,3010401184603,新規,0,2024-08-19,2024-08-19,株式会社ゾーズ,,株式会社,東京都,港区,虎ノ門１丁目１６番１６号虎ノ門一丁目ＭＧビル２階,,13,103,1050001,,,,,,,2024-08-19,1,,,,,ゾーズ,0
432,3010403033254,新規,0,2024-08-19,2024-08-19,合同会社めうが,,合同会社,東京都,港区,白金１丁目１３番５号,,13,103,1080072,,,,,,,2024-08-19,1,,,,,メウガ,0
433,3010403033270,新規,0,2024-08-19,2024-08-19,合同会社アクア,,合同会社,東京都,港区,芝大門１丁目１１番９－３０４号,,13,103,1050012,,,,,,,2024-08-19,1,,,,,アクア,0
435,3010503007496,新規,0,2024-08-19,2024-08-19,Ｄｉｇｉｔ．ｉｎｋ　Ｊａｐａｎ合同会社,,合同会社,東京都,台東区,西浅草３丁目３－１,,13,106,1110035,,,,,,,2024-08-19,1,,,,,デジットインクジャパン,0
437,3010603011035,新規,0,2024-08-19,2024-08-19,合同会社Ｌｉｌｉａ,,合同会社,東京都,江東区,豊洲６丁目２番３１,,13,108,1350061,,,,,,,2024-08-19,1,,,,,リリア,0
454,3011003019809,新規,0,2024-08-19,2024-08-19,ライトハウス・デベロップメント合同会社,,合同会社,東京都,渋谷区,富ヶ谷１丁目１４番１４号スタンフォードアネックスビル３Ｆ・４Ｆ,,13,113,1510063,,,,,,,2024-08-19,1,,,,,ライトハウスデベロップメント,0
455,3011003019817,新規,0,2024-08-19,2024-08-19,合同会社ＲＵＢＹＣＵＢＥＳ,,合同会社,東京都,目黒区,中目黒１丁目６番５号グレイス中目黒Ｂ棟３０５,,13,110,1530061,,,,,,,2024-08-19,1,,,,,ルビーキューブス,0
461,3011101108496,新規,0,2024-08-19,2024-08-19,株式会社リベルテ,,株式会社,東京都,新宿区,西新宿８丁目３番１号,,13,104,1600023,,,,,,,2024-08-19,1,,,,,リベルテ,0
463,3011401026167,新規,0,2024-08-19,2024-08-19,株式会社Ａｔｈｌｅｔｅ　Ｅｄｕｃａｔｉｏｎ,,株式会社,東京都,板橋区,中丸町２４－９メイスンビル１階,,13,119,1730026,,,,,,,2024-08-19,1,,,,,アスリートエデュケーション,0
467,3011503006190,新規,0,2024-08-19,2024-08-19,合同会社ＳＫＫ,,合同会社,東京都,北区,滝野川２丁目４５番５号ヴェッセル飛鳥山１０１号,,13,117,1140023,,,,,,,2024-08-19,1,,,,,エスケーケー,0
480,3020001158535,新規,0,2024-08-19,2024-08-19,株式会社秀麻堂,,株式会社,神奈川県,横浜市神奈川区,西神奈川１丁目１９番地５,,14,102,2210822,,,,,,,2024-08-19,1,,,,,シュウマドウ,0
481,3020001158650,新規,0,2024-08-19,2024-08-19,株式会社おうちほけん,,株式会社,神奈川県,川崎市中原区,上小田中５丁目２番２－５０５なとりプラザ中原,,14,133,2110053,,,,,,,2024-08-19,1,,,,,オウチホケン,0
486,3020003026632,新規,0,2024-08-19,2024-08-19,Ａｓｎａｉｌ　Ｅｎｇｉｎｅｅｒｉｎｇ合同会社,,合同会社,神奈川県,横浜市青葉区,奈良４丁目２番地１青葉山手台クローバーヒルズ６０９,,14,117,2270038,,,,,,,2024-08-19,1,,,,,アスネイルエンジニアリング,0
487,3020003026640,新規,0,2024-08-19,2024-08-19,ヴェル・サポート合同会社,,合同会社,神奈川県,川崎市麻生区,上麻生５丁目２番１４号,,14,137,2150021,,,,,,,2024-08-19,1,,,,,ヴェルサポート,0
508,3030001162040,新規,0,2024-08-19,2024-08-19,ＳＰＣ株式会社,,株式会社,埼玉県,さいたま市緑区,大間木２丁目１９番地１１,,11,109,3360923,,,,,,,2024-08-19,1,,,,,エスピーシー,0
516,3030003024949,新規,0,2024-08-19,2024-08-19,音咲朝合同会社,,合同会社,埼玉県,越谷市,東越谷７丁目２８番地５アピオン１０４,,11,222,3430023,,,,,,,2024-08-19,1,,,,,オトサクアサ,0
517,3030003024957,新規,0,2024-08-19,2024-08-19,合同会社レイニー,,合同会社,埼玉県,川口市,青木１丁目１５－５青木橋スカイハイツ２１３号,,11,203,3320031,,,,,,,2024-08-19,1,,,,,,0
521,3040001134963,新規,0,2024-08-19,2024-08-19,株式会社Ｔａｋｅ‐ｔｏ,,株式会社,千葉県,船橋市,米ケ崎町１７１番地１,,12,204,2730861,,,,,,,2024-08-19,1,,,,,テイクトゥ,0
522,3040001134971,新規,0,2024-08-19,2024-08-19,株式会社アクセルワークス,,株式会社,千葉県,市川市,福栄４丁目２９番１５号,,12,203,2720137,,,,,,,2024-08-19,1,,,,,アクセルワークス,0
523,3040001134988,新規,0,2024-08-19,2024-08-19,株式会社タツプランニング,,株式会社,千葉県,松戸市,八ケ崎４丁目８番地の１,,12,207,2700023,,,,,,,2024-08-19,1,,,,,タツプランニング,0
524,3040001135029,新規,0,2024-08-19,2024-08-19,日本明星花露水株式会社,,株式会社,千葉県,木更津市,長須賀３０４番地４ハインズＫ５－４０１号,,12,206,2920054,,,,,,,2024-08-19,1,,,,,ニホンミンシンファルースイ,0
526,3040003025608,新規,0,2024-08-19,2024-08-19,ＣｈｅｅｒＭｏｍ合同会社,,合同会社,千葉県,船橋市,本中山４丁目１０番１０－４号,,12,204,2730035,,,,,,,2024-08-19,1,,,,,チアマム,0
528,3050001055267,新規,0,2024-08-19,2024-08-19,ツキノキラボ株式会社,,株式会社,茨城県,つくば市,花室７９４番地２,,08,220,3050025,,,,,,,2024-08-19,1,,,,,ツキノキラボ,0
532,3070003005549,新規,0,2024-08-19,2024-08-19,合同会社フォワード,,合同会社,群馬県,高崎市,緑町１丁目５番地９ヒルトーク１０５号,,10,202,3700073,,,,,,,2024-08-19,1,,,,,,0
534,3090001018856,新規,0,2024-08-19,2024-08-19,株式会社川住制御設計,,株式会社,山梨県,甲斐市,富竹新田１１３３番地川住住宅３号,,19,210,4000113,,,,,,,2024-08-19,1,,,,,カワスミセイギョセッケイ,0
535,3090001018864,新規,0,2024-08-19,2024-08-19,株式会社エイトフィートトレーディング,,株式会社,山梨県,北杜市,小淵沢町５１８６,,19,209,4080044,,,,,,,2024-08-19,1,,,,,エイトフィートトレーディング,0
539,3100001037755,新規,0,2024-08-19,2024-08-19,株式会社まめ,,株式会社,長野県,上水内郡信濃町,大字野尻３７９－２,,20,583,3891303,,,,,,,2024-08-19,1,,,,,マメ,0
540,3100003007715,新規,0,2024-08-19,2024-08-19,合同会社ラピスラズリ,,合同会社,長野県,千曲市,大字倉科１６４０－１,,20,218,3870004,,,,,,,2024-08-19,1,,,,,ラピスラズリ,0
550,3120001267160,新規,0,2024-08-19,2024-08-19,株式会社ジュエリークリエーションリバティ,,株式会社,大阪府,大阪市中央区,南船場３丁目２番１号ラインビルド心斎橋７Ｆ,,27,128,5420081,,,,,,,2024-08-19,1,,,,,ジュエリークリエーションリバティ,0
551,3120001267714,新規,0,2024-08-19,2024-08-19,鹿鳴株式会社,,株式会社,大阪府,大阪市阿倍野区,天王寺町南２丁目２２番３号ＮＡＧＡＩメゾン天王寺南５０２号,,27,119,5450002,,,,,,,2024-08-19,1,,,,,ロクメイ,0
552,3120001267747,新規,0,2024-08-19,2024-08-19,株式会社Ｌｅ　Ｌｉｅｎ,,株式会社,大阪府,大阪市中央区,南船場３丁目２番２２号おおきに南船場ビル２０５,,27,128,5420081,,,,,,,2024-08-19,1,,,,,ルリアン,0
553,3120001267887,新規,0,2024-08-19,2024-08-19,天余商事株式会社,,株式会社,大阪府,大阪市平野区,流町２丁目１番３４号,,27,126,5470032,,,,,,,2024-08-19,1,,,,,テンヨショウジ,0
554,3120001267895,新規,0,2024-08-19,2024-08-19,株式会社Ｗｉｓｔｅｒｉａ,,株式会社,大阪府,寝屋川市,宇谷町７番－２０－１４０５号,,27,215,5720856,,,,,,,2024-08-19,1,,,,,ウィステリア,0
557,3120003027117,新規,0,2024-08-19,2024-08-19,ＨＨＡ合同会社,,合同会社,大阪府,大阪市中央区,常盤町１丁目１－９－６０５,,27,128,5400028,,,,,,,2024-08-19,1,,,,,エイチエイチエー,0
567,3140001135563,新規,0,2024-08-19,2024-08-19,株式会社中村商事,,株式会社,兵庫県,加西市,東笠原町３８７番地,,28,220,6752212,,,,,,,2024-08-19,1,,,,,ナカムラショウジ,0
570,3140003020986,新規,0,2024-08-19,2024-08-19,合同会社Ｓｔｙｌｅ　Ｃａｒｅ,,合同会社,兵庫県,神戸市東灘区,深江南町１丁目６番５号,,28,101,6580022,,,,,,,2024-08-19,1,,,,,スタイルケア,0
580,3180001162827,新規,0,2024-08-19,2024-08-19,ＯＮＥＮＥＳＳ縄文株式会社,,株式会社,愛知県,清須市,土田郷上切４４番地３,,23,233,4520945,,,,,,,2024-08-19,1,,,,,ワンネスジョウモン,0
594,3180003027219,新規,0,2024-08-19,2024-08-19,神楽合同会社,,合同会社,愛知県,海部郡蟹江町,泉１丁目６６番地２,,23,425,4970047,,,,,,,2024-08-19,1,,,,,カグラ,0
599,3200001042844,新規,0,2024-08-19,2024-08-19,株式会社あしおと,,株式会社,岐阜県,多治見市,市之倉町１丁目２番地４０,,21,204,5070814,,,,,,,2024-08-19,1,,,,,アシオト,0
601,3240001063721,新規,0,2024-08-19,2024-08-19,株式会社Ｏｎｅ　Ｓｅｅｄ,,株式会社,広島県,広島市南区,霞２丁目２番４－２０２号,,34,103,7340037,,,,,,,2024-08-19,1,,,,,ワンシード,0
603,3260001039389,新規,0,2024-08-19,2024-08-19,株式会社濱内観光,,株式会社,岡山県,岡山市北区,横井上２００６番地２６,,33,101,7011145,,,,,,,2024-08-19,1,,,,,ハマウチカンコウ,0
605,3290001106707,新規,0,2024-08-19,2024-08-19,株式会社ＴＯ　ＴＯＷＮ,,株式会社,福岡県,春日市,須玖北１丁目１９番地,,40,218,8160864,,,,,,,2024-08-19,1,,,,,トゥータウン,0
606,3290001106715,新規,0,2024-08-19,2024-08-19,株式会社大嶌地所,,株式会社,福岡県,福岡市中央区,大名２丁目１０番４号シャンボール大名Ｄ棟１５０２号,,40,133,8100041,,,,,,,2024-08-19,1,,,,,オオシマジショ,0
607,3290001106723,新規,0,2024-08-19,2024-08-19,株式会社升や,,株式会社,福岡県,宗像市,赤間駅前２丁目８番２号エルフォレスト赤間５階,,40,220,8114185,,,,,,,2024-08-19,1,,,,,マスヤ,0
608,3290001106731,新規,0,2024-08-19,2024-08-19,株式会社ｓｍｉｌｅｓｔ,,株式会社,福岡県,福岡市博多区,博多駅南４丁目１番３０―１２０１号,,40,132,8120016,,,,,,,2024-08-19,1,,,,,スマイリスト,0
609,3290001106756,新規,0,2024-08-19,2024-08-19,株式会社ｌｕｃｅｎｓ,,株式会社,福岡県,福岡市中央区,天神４丁目６－２８天神ファーストビル７階,,40,133,8100001,,,,,,,2024-08-19,1,,,,,ルーチェンス,0
610,3290001106839,新規,0,2024-08-19,2024-08-19,株式会社ＳＩＮＳＩＡ,,株式会社,福岡県,福岡市博多区,東那珂３丁目５番２２－２０８号,,40,132,8120892,,,,,,,2024-08-19,1,,,,,シンシア,0
611,3290001106905,新規,0,2024-08-19,2024-08-19,株式会社エフアセット,,株式会社,福岡県,福岡市城南区,茶山４丁目３番２２号,,40,136,8140111,,,,,,,2024-08-19,1,,,,,エフアセット,0
612,3290003015641,新規,0,2024-08-19,2024-08-19,合同会社わりん,,合同会社,福岡県,糟屋郡粕屋町,大字江辻２４４番地１,00135997,40,349,8112313,,,,,,,2024-08-19,1,,,,,ワリン,0
623,3330001032196,新規,0,2024-08-19,2024-08-19,東洋企画株式会社,,株式会社,熊本県,熊本市中央区,中央街６番７号,,43,101,8600802,,,,,,,2024-08-19,1,,,,,トウヨウキカク,0
624,3330001032386,新規,0,2024-08-19,2024-08-19,株式会社にくばかり,,株式会社,熊本県,上益城郡嘉島町,大字上仲間８６０番地１,,43,442,8613107,,,,,,,2024-08-19,1,,,,,ニクバカリ,0
628,3340005009768,新規,0,2024-08-19,2024-08-19,一般社団法人よみがえれ麓,,その他の設立登記法人,鹿児島県,南さつま市,加世田武田１８２５８番地,,46,220,8970002,,,,,,,2024-08-19,1,,,,,ヨミガエレフモト,0
629,3350003004720,新規,0,2024-08-19,2024-08-19,合同会社ＳｏｌＤｉｅｓｉｓ,,合同会社,宮崎県,宮崎市,柳丸町１２０番地セ・ラ・ヴィ柳丸６０３,,45,201,8800844,,,,,,,2024-08-19,1,,,,,ソルディエシス,0
631,3360005007092,新規,0,2024-08-19,2024-08-19,一般社団法人ｔａ‐ｃｈｉ．ｃｏｎｎｅｃｔ,,その他の設立登記法人,沖縄県,宜野湾市,宇地泊３丁目１２番５号,,47,205,9012227,,,,,,,2024-08-19,1,,,,,ターチコネクト,0
635,3370003006731,新規,0,2024-08-19,2024-08-19,合同会社ララク,,合同会社,宮城県,仙台市青葉区,高野原４丁目１３番１７号,,04,101,9893216,,,,,,,2024-08-19,1,,,,,ララク,0
657,4010001247379,新規,0,2024-08-19,2024-08-19,ＳＴコンサルティング＆ワークス株式会社,,株式会社,東京都,千代田区,富士見１丁目１１－１６第三メゾンサカイ４０１,,13,101,1020071,,,,,,,2024-08-19,1,,,,,エスティーコンサルティングアンドワークス,0
659,4010003044493,新規,0,2024-08-19,2024-08-19,合同会社ＡＳ那珂川町フロンティア,,合同会社,東京都,千代田区,大手町２丁目１番１号,,13,101,1000004,,,,,,,2024-08-19,1,,,,,エーエスナカガワマチフロンティア,0
660,4010003044650,新規,0,2024-08-19,2024-08-19,エネストジャパン６合同会社,,合同会社,東京都,千代田区,四番町２番地１２,,13,101,1020081,,,,,,,2024-08-19,1,,,,,エネストジャパンロク,0
666,4010401184494,新規,0,2024-08-19,2024-08-19,株式会社ＰａｓｓｉＭｏｖｅ,,株式会社,東京都,港区,南青山２丁目２番１５号,,13,103,1070062,,,,,,,2024-08-19,1,,,,,パッシムーブ,0
667,4010401184511,新規,0,2024-08-19,2024-08-19,ハヤランド株式会社,,株式会社,東京都,港区,東麻布１丁目３番２号,,13,103,1060044,,,,,,,2024-08-19,1,,,,,ハヤランド,0
668,4010401184569,新規,0,2024-08-19,2024-08-19,株式会社Ｕｎｓｕｎｇ　Ｆｉｅｌｄｓ,,株式会社,東京都,港区,白金台５丁目１５番５号トゥワインデール２階,,13,103,1080071,,,,,,,2024-08-19,1,,,,,アンサングフィールズ,0
669,4010401184577,新規,0,2024-08-19,2024-08-19,株式会社ドルフィン・バリュー・アップ１６号,,株式会社,東京都,港区,芝公園１丁目１番１号住友不動産御成門タワー７階,,13,103,1050011,,,,,,,2024-08-19,1,,,,,ドルフィンバリューアップジュウロクゴウ,0
670,4010401184593,新規,0,2024-08-19,2024-08-19,株式会社ＩＮＮＯＶＡＴＩＯＮｓ,,株式会社,東京都,港区,南青山３丁目１番３６号青山丸竹ビル６Ｆ,,13,103,1070062,,,,,,,2024-08-19,1,,,,,イノベーションズ,0
672,4010403033121,新規,0,2024-08-19,2024-08-19,高砂制作合同会社,,合同会社,東京都,港区,虎ノ門１丁目１４番２号霊南坂ビル４階,,13,103,1050001,,,,,,,2024-08-19,1,,,,,タカサゴセイサク,0
673,4010403033237,新規,0,2024-08-19,2024-08-19,ＯｐｅｎＰａｔｈ合同会社,,合同会社,東京都,港区,浜松町２丁目７番１７号１００４号室,,13,103,1050013,,,,,,,2024-08-19,1,,,,,オープンパス,0
674,4010403033245,新規,0,2024-08-19,2024-08-19,合同会社かかし,,合同会社,東京都,港区,南青山２丁目２番１５号ＷｉｎＡｏｙａｍａビルＵＣＦ６３５,,13,103,1070062,,,,,,,2024-08-19,1,,,,,カカシ,0
675,4010503007553,新規,0,2024-08-19,2024-08-19,ＩＮＪＡ合同会社,,合同会社,東京都,台東区,元浅草４丁目９－１６,,13,106,1110041,,,,,,,2024-08-19,1,,,,,インジャ,0
679,4010603011034,新規,0,2024-08-19,2024-08-19,合同会社ＦｒｅｅＳｐｒｉｔｓ,,合同会社,東京都,江東区,東雲１丁目９－４－４００６,,13,108,1350062,,,,,,,2024-08-19,1,,,,,フリースピリッツ,0
681,4010803005059,新規,0,2024-08-19,2024-08-19,ＵＦ３合同会社,,合同会社,東京都,大田区,東矢口３丁目１０番５号,,13,111,1460094,,,,,,,2024-08-19,1,,,,,ユーエフスリー,0
683,4010901055815,新規,0,2024-08-19,2024-08-19,株式会社Ｎ．Ｏ．Ｉ,,株式会社,東京都,世田谷区,三軒茶屋１丁目１４番６号,,13,112,1540024,,,,,,,2024-08-19,1,,,,,エヌオーアイ,0
687,4011001164052,新規,0,2024-08-19,2024-08-19,株式会社アップナウ,,株式会社,東京都,渋谷区,道玄坂１丁目９－２ＳＮＴ渋谷ビル７階,,13,113,1500043,,,,,,,2024-08-19,1,,,,,アップナウ,0
688,4011003019808,新規,0,2024-08-19,2024-08-19,合同会社ｍｅｅ,,合同会社,東京都,渋谷区,渋谷２丁目１９－１５宮益坂ビルディング６０９,,13,113,1500002,,,,,,,2024-08-19,1,,,,,エムイーイー,0
689,4011003019840,新規,0,2024-08-19,2024-08-19,合同会社ＬＩＦＥ　ＩＳ　ＰＡＩＮ,,合同会社,東京都,渋谷区,神宮前６丁目２３番４号桑野ビル２階,,13,113,1500001,,,,,,,2024-08-19,1,,,,,ライフイズペイン,0
696,4011101108413,新規,0,2024-08-19,2024-08-19,２１世紀ファイナンシャルテクノロジー株式会社,,株式会社,東京都,新宿区,市谷本村町２－３ＮＯＶＥＬＷＯＲＫＩｃｈｉｇａｙａ６Ｆ,,13,104,1620845,,,,,,,2024-08-19,1,,,,,ニジュウイッセイキファイナンシャルテクノロジー,0
697,4011101108421,新規,0,2024-08-19,2024-08-19,ＳＥＴ　ＳＡＩＬ　ＣＯＮＳＵＬＴＩＮＧ株式会社,,株式会社,東京都,新宿区,市谷甲良町２番２４－１００３号,,13,104,1620856,,,,,,,2024-08-19,1,,,,,セットセイルコンサルティング,0
698,4011103014799,新規,0,2024-08-19,2024-08-19,合同会社Ｓｍａｌｌ　Ｓｔｏｒｍ,,合同会社,東京都,新宿区,大久保２丁目３２番２０－２０６号,,13,104,1690072,,,,,,,2024-08-19,1,,,,,スモールストーム,0
705,4011501031058,新規,0,2024-08-19,2024-08-19,稻盛株式会社,,株式会社,東京都,北区,東田端２丁目９番１７号,,13,117,1140013,,,,,,,2024-08-19,1,,,,,イナモリ,0
706,4011601027988,新規,0,2024-08-19,2024-08-19,金盾株式会社,,株式会社,東京都,練馬区,練馬４丁目１５番１１号３０３室,,13,120,1760001,,,,,,,2024-08-19,1,,,,,キンタテ,0
707,4011701027541,新規,0,2024-08-19,2024-08-19,株式会社Ｗ,,株式会社,東京都,江戸川区,篠崎町３丁目１４－１５－１０７,,13,123,1330061,,,,,,,2024-08-19,1,,,,,ダブリュウ,0
713,4012703003076,新規,0,2024-08-19,2024-08-19,合同会社ｆｏｒｅｓｔ,,合同会社,東京都,小平市,回田町２７２番地の６,,13,211,1870013,,,,,,,2024-08-19,1,,,,,フォレスト,0
719,4020001158484,新規,0,2024-08-19,2024-08-19,株式会社ハウオリ,,株式会社,神奈川県,横浜市神奈川区,栗田谷１５番４１号チャートハウス２０６号,,14,102,2210804,,,,,,,2024-08-19,1,,,,,ハウオリ,0
721,4020003026648,新規,0,2024-08-19,2024-08-19,合同会社ＷＩＮＧＳ,,合同会社,神奈川県,横浜市都筑区,中川６丁目１－１２－１０８,,14,118,2240001,,,,,,,2024-08-19,1,,,,,ウィングス,0
723,4020005016507,新規,0,2024-08-19,2024-08-19,一般社団法人ＦＰ支援アカデミー,,その他の設立登記法人,神奈川県,川崎市川崎区,東田町８番地パレール川崎レッド館３Ｆ,,14,131,2100005,,,,,,,2024-08-19,1,,,,,エフピーシエンアカデミー,0
726,4021001082963,新規,0,2024-08-19,2024-08-19,ＢＥＲＵＮ株式会社,,株式会社,神奈川県,相模原市緑区,日連６５８番地,,14,151,2520185,,,,,,,2024-08-19,1,,,,,ベルン,0
734,4030001162015,新規,0,2024-08-19,2024-08-19,ＭＫ　ＪＡＰＡＮ　ＴＲＡＤＩＮＧ株式会社,,株式会社,埼玉県,加須市,駒場４６０番地１２,,11,210,3491214,,,,,,,2024-08-19,1,,,,,エムケージャパントレーディング,0
740,4030002125499,新規,0,2024-08-19,2024-08-19,有限会社林自動車工業,,有限会社,埼玉県,熊谷市,大字佐谷田１０２６番地１,,11,202,3600000,,,,,,,2024-08-19,1,,,,,ハヤシジドウシャコウギョウ,0
744,4040002100286,新規,0,2024-08-19,2024-08-19,三正企業有限会社,,有限会社,千葉県,南房総市,二部６３１番地,,12,234,2992214,,,,,,,2024-08-19,1,,,,,,0
748,4040003025615,新規,0,2024-08-19,2024-08-19,合同会社豫園,,合同会社,千葉県,木更津市,富士見２丁目５番１６号１階４号室,,12,206,2920831,,,,,,,2024-08-19,1,,,,,ヨエン,0
750,4050001055266,新規,0,2024-08-19,2024-08-19,株式会社Ｂ＆Ｍ,,株式会社,茨城県,つくば市,東新井３６番地１１,,08,220,3050033,,,,,,,2024-08-19,1,,,,,ビーアンドエム,0
751,4050001055282,新規,0,2024-08-19,2024-08-19,大和株式会社,,株式会社,茨城県,笠間市,安居字下平３１４１番２,,08,216,3190206,,,,,,,2024-08-19,1,,,,,ダイワ,0
763,4080101024960,新規,0,2024-08-19,2024-08-19,株式会社ｉＤＩＧＩＴＡＬ,,株式会社,静岡県,三島市,加茂川町１４番１号１００９,,22,206,4110034,,,,,,,2024-08-19,1,,,,,アイデジタル,0
767,4080405007661,新規,0,2024-08-19,2024-08-19,一般社団法人ぺんぎん村水泳教室,,その他の設立登記法人,静岡県,浜松市中央区,入野町９０２９番地の１,,22,138,4328061,,,,,,,2024-08-19,1,,,,,ペンギンムラスイエイキョウシツ,0
771,4090001018863,新規,0,2024-08-19,2024-08-19,株式会社ＲーＤＥＥＰ,,株式会社,山梨県,南アルプス市,下今諏訪５２６番地,,19,208,4000212,,,,,,,2024-08-19,1,,,,,アールディープ,0
776,4100003007722,新規,0,2024-08-19,2024-08-19,合同会社山勝,,合同会社,長野県,須坂市,大字日滝３７１番地,,20,207,3820000,,,,,,,2024-08-19,1,,,,,サンショウ,0
780,4110003005493,新規,0,2024-08-19,2024-08-19,ＫＢＬａｂ合同会社,,合同会社,新潟県,新潟市江南区,曽川甲２１８番地１３,,15,104,9501136,,,,,,,2024-08-19,1,,,,,ケービーラボ,0
789,4120003027322,新規,0,2024-08-19,2024-08-19,合同会社アストラ,,合同会社,大阪府,大阪市北区,与力町２番１６－２１０２号,,27,127,5300036,,,,,,,2024-08-19,1,,,,,アストラ,0
797,4130001077723,新規,0,2024-08-19,2024-08-19,株式会社ついってる,,株式会社,京都府,京都市西京区,山田大吉見町６番地１,,26,111,6158236,,,,,,,2024-08-19,1,,,,,ツイッテル,0
798,4130003009798,新規,0,2024-08-19,2024-08-19,Ｒｅａｌ　Ｖａｌｕｅ合同会社,,合同会社,京都府,京都市南区,唐橋平垣町３２番地１パズ京都西大路２０２,,26,107,6018469,,,,,,,2024-08-19,1,,,,,リアルバリュー,0
802,4140001135546,新規,0,2024-08-19,2024-08-19,株式会社一真機設,,株式会社,兵庫県,相生市,旭５丁目１０番１１号,,28,208,6780031,,,,,,,2024-08-19,1,,,,,イッシンキセツ,0
803,4140001135554,新規,0,2024-08-19,2024-08-19,株式会社伸幸企画,,株式会社,兵庫県,明石市,大久保町大窪２６２０番地１４ＴＡハイツ３１号,,28,203,6740051,,,,,,,2024-08-19,1,,,,,シンコウキカク,0
807,4140003020944,新規,0,2024-08-19,2024-08-19,Ｒｏｏｔｓ＆Ｒｏｕｔｅｓ合同会社,,合同会社,兵庫県,姫路市,忍町１０６三和ビル１Ｆ,,28,201,6700917,,,,,,,2024-08-19,1,,,,,ルーツアンドラウツ,0
808,4140003020985,新規,0,2024-08-19,2024-08-19,合同会社ジュアン,,合同会社,兵庫県,神戸市須磨区,明神町２丁目３番２－２号,,28,107,6540002,,,,,,,2024-08-19,1,,,,,ジュアン,0
809,4160001026173,新規,0,2024-08-19,2024-08-19,株式会社堀会計事務所,,株式会社,滋賀県,野洲市,冨波乙３３３－２０,,25,210,5202352,,,,,,,2024-08-19,1,,,,,ホリカイケイジムショ,0
816,4180001162719,新規,0,2024-08-19,2024-08-19,株式会社チルドレン・トシ,,株式会社,愛知県,名古屋市千種区,竹越２丁目７番１６号,,23,101,4640007,,,,,,,2024-08-19,1,,,,,チルドレントシ,0
817,4180001162941,新規,0,2024-08-19,2024-08-19,株式会社ＴＧＣ＆Ｃｏ．,,株式会社,愛知県,名古屋市中村区,名駅４丁目２４番５号第２森ビル４０１,,23,105,4500002,,,,,,,2024-08-19,1,,,,,ティージーシーアンドカンパニー,0
824,4200001042835,新規,0,2024-08-19,2024-08-19,株式会社ＢｅＢホールディングス,,株式会社,岐阜県,本巣市,石原２３０番地１,,21,218,5010405,,,,,,,2024-08-19,1,,,,,ビービーホールディングス,0
829,4230001020482,新規,0,2024-08-19,2024-08-19,湊ＣＯＮＮＥＣＴ株式会社,,株式会社,富山県,富山市,下大久保２２１９番地６０,,16,201,9392251,,,,,,,2024-08-19,1,,,,,ミナトコネクト,0
835,4260001039297,新規,0,2024-08-19,2024-08-19,カバヤ食品株式会社,,株式会社,岡山県,岡山市北区,御津野々口１１００番地,,33,101,7092117,,,,,,,2024-08-19,1,,,,,カバヤショクヒン,0
839,4290001106706,新規,0,2024-08-19,2024-08-19,ＵＮＤＯＯＲＳ株式会社,,株式会社,福岡県,福岡市博多区,博多駅東１丁目１２番１７号オフィスニューガイア博多駅前３階,,40,132,8120013,,,,,,,2024-08-19,1,,,,,アンドアス,0
840,4290001106747,新規,0,2024-08-19,2024-08-19,ＭｅｄＥｃｋｓ株式会社,,株式会社,福岡県,福岡市博多区,博多駅前１丁目２３番２号ＰａｒｋＦｒｏｎｔ博多駅前１丁目５Ｆ－Ｂ,,40,132,8120011,,,,,,,2024-08-19,1,,,,,メドエックス,0
841,4290001106904,新規,0,2024-08-19,2024-08-19,株式会社ＧＡ　Ａｖｉａｔｉｏｎ,,株式会社,福岡県,福岡市南区,長住２丁目７番６号,,40,134,8111362,,,,,,,2024-08-19,1,,,,,ジーエーアビエーション,0
843,4290003015632,新規,0,2024-08-19,2024-08-19,合同会社ケーシーラボ,,合同会社,福岡県,福岡市博多区,博多駅前１丁目２３番２号ＰａｒｋＦｒｏｎｔ博多駅前一丁目５Ｆ－Ｂ,,40,132,8120011,,,,,,,2024-08-19,1,,,,,ケーシーラボ,0
849,4330001032360,新規,0,2024-08-19,2024-08-19,株式会社濱松水産,,株式会社,熊本県,宇土市,赤瀬町１９６番地１６,,43,211,8693175,,,,,,,2024-08-19,1,,,,,ハママツスイサン,0
851,4350005006251,新規,0,2024-08-19,2024-08-19,特定非営利活動法人カラフルクローバー,,その他の設立登記法人,宮崎県,日南市,南郷町中村乙７０５１番地７,,45,204,8893204,,,,,,,2024-08-19,1,,,,,カラフルクローバー,0
854,4360003014230,新規,0,2024-08-19,2024-08-19,合同会社Ｆｌａｘ,,合同会社,沖縄県,豊見城市,字翁長８５４－１ドン・キホーテ内６Ｆ,,47,212,9010223,,,,,,,2024-08-19,1,,,,,フラックス,0
855,4360003014239,新規,0,2024-08-19,2024-08-19,合同会社雅美組,,合同会社,沖縄県,国頭郡宜野座村,字松田２２６１番地１,,47,313,9041301,,,,,,,2024-08-19,1,,,,,ミヤビグミ,0
858,4370003006730,新規,0,2024-08-19,2024-08-19,合同会社オフィスサクライ,,合同会社,宮城県,仙台市宮城野区,二十人町３０９番地の５クレアホームズ榴ヶ岡公園パークゲート１２０３,,04,102,9830862,,,,,,,2024-08-19,1,,,,,オフィスサクライ,0
870,4420001018838,新規,0,2024-08-19,2024-08-19,クリーンウッドエナジー株式会社,,株式会社,青森県,むつ市,川内町館山下１３１番地１,,02,208,0395201,,,,,,,2024-08-19,1,,,,,クリーンウッドエナジー,0
872,4430003016698,新規,0,2024-08-19,2024-08-19,ニセコソルーションズ合同会社,,合同会社,北海道,虻田郡倶知安町,北四条東４丁目３番地１３７,,01,400,0440004,,,,,,,2024-08-19,1,,,,,ニセコソルーションズ,0
873,4430003016707,新規,0,2024-08-19,2024-08-19,合同会社ＳＨＩＢＵＹＡ,,合同会社,北海道,札幌市北区,篠路一条３丁目１番１２号,,01,102,0028021,,,,,,,2024-08-19,1,,,,,シブヤ,0
877,4500001025834,新規,0,2024-08-19,2024-08-19,株式会社けんしん,,株式会社,愛媛県,松山市,小坂３丁目４番２２号,,38,201,7900963,,,,,,,2024-08-19,1,,,,,ケンシン,0
880,4700150126784,新規,0,2024-08-19,2024-08-19,ＢＬＵＥ　ＳＫＹ　ＥＤＵＣＡＴＩＯＮ　Ｐｔｅ．Ｌｔｄ,,外国会社等,東京都,江東区,有明３丁目７番２６号フロンティアビルＢ棟９階,,13,108,1350063,シンガポール共和国ラッフルズ通り６番地マリーナスクエア０３－３０８号室,,,,,,2024-08-19,1,,,,,ブルースカイエデユケーシヨンプライベートリミテツド,0
898,5010401184329,新規,0,2024-08-19,2024-08-19,株式会社Ｆｅｍｓｈｉｎ,,株式会社,東京都,港区,白金１丁目１２番６号レジデンス白金パークフロント１００２,,13,103,1080072,,,,,,,2024-08-19,1,,,,,フェムシン,0
899,5010401184485,新規,0,2024-08-19,2024-08-19,株式会社ダブルユニバース,,株式会社,東京都,港区,南青山３丁目１番３６号青山丸竹ビル６Ｆ,,13,103,1070062,,,,,,,2024-08-19,1,,,,,ダブルユニバース,0
900,5010401184543,新規,0,2024-08-19,2024-08-19,Ｏｒｉｅｎｔａｌ　Ｐａｒｔｎｅｒｓ株式会社,,株式会社,東京都,港区,芝公園１丁目２番１０－６０６号,,13,103,1050011,,,,,,,2024-08-19,1,,,,,オリエンタルパートナーズ,0
901,5010401184568,新規,0,2024-08-19,2024-08-19,株式会社彩,,株式会社,東京都,港区,赤坂５丁目５番９号赤坂スバルビル５０１,,13,103,1070052,,,,,,,2024-08-19,1,,,,,イロドリ,0
902,5010401184601,新規,0,2024-08-19,2024-08-19,株式会社ピージェイ,,株式会社,東京都,港区,西新橋１丁目１７番１２号２Ｆ,,13,103,1050003,,,,,,,2024-08-19,1,,,,,ピージェイ,0
903,5010403033228,新規,0,2024-08-19,2024-08-19,合同会社立松あゆみデザイン,,合同会社,東京都,港区,赤坂４丁目８番１９号赤坂フロントタウン３階,,13,103,1070052,,,,,,,2024-08-19,1,,,,,タテマツアユミデザイン,0
904,5010403033236,新規,0,2024-08-19,2024-08-19,合同会社ｉｎｆｉｎｉｔｙ,,合同会社,東京都,港区,麻布十番２丁目２０番１０号麻布フラット３０１,,13,103,1060045,,,,,,,2024-08-19,1,,,,,インフィニティ,0
905,5010403033244,新規,0,2024-08-19,2024-08-19,合同会社ＦＩＴ,,合同会社,東京都,港区,芝４丁目２番１０－５０１号,,13,103,1080014,,,,,,,2024-08-19,1,,,,,フィット,0
906,5010403033260,新規,0,2024-08-19,2024-08-19,合同会社ＣＲＯＳＳ　ＴＨＥ　ＡＧＥＳ　ＪＡＰＡＮ,,合同会社,東京都,港区,元麻布３丁目１番６号,,13,103,1060046,,,,,,,2024-08-19,1,,,,,クロスザエイジズジャパン,0
908,5010501052781,新規,0,2024-08-19,2024-08-19,ＰＯＣＡ　ＰＬＡＮＥＴ株式会社,,株式会社,東京都,台東区,上野６丁目８番１９号,,13,106,1100005,,,,,,,2024-08-19,1,,,,,ポカプラネット,0
912,5010701046419,新規,0,2024-08-19,2024-08-19,株式会社デイムーン,,株式会社,東京都,品川区,平塚３丁目４番８号,,13,109,1420051,,,,,,,2024-08-19,1,,,,,デイムーン,0
923,5011101108453,新規,0,2024-08-19,2024-08-19,株式会社ＨｏｗＴｏ,,株式会社,東京都,新宿区,北新宿１丁目２７番１５号Ａｒｔｅ柏木２０２,,13,104,1690074,,,,,,,2024-08-19,1,,,,,ハト,0
924,5011101108503,新規,0,2024-08-19,2024-08-19,株式会社ジャパンイノベーション,,株式会社,東京都,新宿区,百人町１丁目２２番１号ＮＳＫビル６０２,,13,104,1690073,,,,,,,2024-08-19,1,,,,,ジャパンイノベーション,0
925,5011103014781,新規,0,2024-08-19,2024-08-19,合同会社クリアコットン,,合同会社,東京都,新宿区,百人町１丁目６番１８－７０２号,,13,104,1690073,,,,,,,2024-08-19,1,,,,,クリアコットン,0
928,5011401026363,新規,0,2024-08-19,2024-08-19,株式会社エルリクルーティング,,株式会社,東京都,板橋区,成増５丁目２番１２号,,13,119,1750094,,,,,,,2024-08-19,1,,,,,エルリクルーティング,0
929,5011701027540,新規,0,2024-08-19,2024-08-19,株式会社ジャスティスホーム,,株式会社,東京都,江戸川区,一之江２丁目５番１２号,,13,123,1320024,,,,,,,2024-08-19,1,,,,,ジャスティスホーム,0
930,5011801044733,新規,0,2024-08-19,2024-08-19,株式会社グリーンハーモニーズ,,株式会社,東京都,葛飾区,柴又１丁目３１－１３,,13,122,1250052,,,,,,,2024-08-19,1,,,,,グリーンハーモニーズ,0
942,5020001158450,新規,0,2024-08-19,2024-08-19,サイゼン株式会社,,株式会社,神奈川県,横浜市中区,宮川町２丁目５５日ノ出町ＴＫビル１Ｆ,,14,104,2310065,,,,,,,2024-08-19,1,,,,,サイゼン,0
957,5030001162014,新規,0,2024-08-19,2024-08-19,株式会社Ｒｏｏｔｓ,,株式会社,埼玉県,越谷市,瓦曽根２丁目１１番５４号ハイアットプラザ新越谷１Ｆ,,11,222,3430821,,,,,,,2024-08-19,1,,,,,ルーツ,0
958,5030001162022,新規,0,2024-08-19,2024-08-19,ＰＭＣジャパン株式会社,,株式会社,埼玉県,川口市,並木２丁目４１番９号４０５室,,11,203,3320034,,,,,,,2024-08-19,1,,,,,ピーエムシージャパン,0
959,5030001162047,新規,0,2024-08-19,2024-08-19,富吉株式会社,,株式会社,埼玉県,川口市,西青木４丁目４番６号,,11,203,3320035,,,,,,,2024-08-19,1,,,,,フヨシ,0
962,5030003024955,新規,0,2024-08-19,2024-08-19,合同会社トラスト,,合同会社,埼玉県,所沢市,けやき台２丁目３５番地の１０,,11,208,3591118,,,,,,,2024-08-19,1,,,,,トラスト,0
971,5040003025606,新規,0,2024-08-19,2024-08-19,中央ホールディング合同会社,,合同会社,千葉県,松戸市,小金きよしケ丘２丁目１０番地の１２,,12,207,2700013,,,,,,,2024-08-19,1,,,,,チュウオウホールディング,0
973,5050001055265,新規,0,2024-08-19,2024-08-19,株式会社ＲＯＲ,,株式会社,茨城県,下妻市,平方３４番地１,,08,210,3040001,,,,,,,2024-08-19,1,,,,,アールオーアール,0
974,5050001055281,新規,0,2024-08-19,2024-08-19,酒井工業株式会社,,株式会社,茨城県,龍ケ崎市,佐貫３丁目２１番地６,,08,208,3010032,,,,,,,2024-08-19,1,,,,,サカイコウギョウ,0
975,5050002045934,新規,0,2024-08-19,2024-08-19,有限会社田沼縫製工業,,有限会社,茨城県,猿島郡境町,１５１２番地,,08,546,3060433,,,,,,,2024-08-19,1,,,,,タヌマホウセイコウギョウ,0
986,5080001026453,新規,0,2024-08-19,2024-08-19,株式会社クライナーハイネ,,株式会社,静岡県,静岡市駿河区,稲川２丁目１番１５号,,22,102,4228062,,,,,,,2024-08-19,1,,,,,クライナーハイネ,0
987,5080003003277,新規,0,2024-08-19,2024-08-19,合同会社よろず,,合同会社,静岡県,静岡市葵区,昭和町１番地の２スカイタウン１０Ｄ,,22,101,4200033,,,,,,,2024-08-19,1,,,,,ヨロズ,0
990,5080105006450,新規,0,2024-08-19,2024-08-19,一般社団法人賀茂自動車検査場,,その他の設立登記法人,静岡県,下田市,中５５６番地,,22,219,4150016,,,,,,,2024-08-19,1,,,,,,0
994,5090001018862,新規,0,2024-08-19,2024-08-19,株式会社マルタ,,株式会社,山梨県,都留市,中央３丁目１番２５号,,19,204,4020052,,,,,,,2024-08-19,1,,,,,マルタ,0
995,5090003002625,新規,0,2024-08-19,2024-08-19,合同会社きらめき,,合同会社,山梨県,南アルプス市,山寺３９５番地３ドリームハウスＢ号,,19,208,4000308,,,,,,,2024-08-19,1,,,,,キラメキ,0
996,5100001037753,新規,0,2024-08-19,2024-08-19,株式会社Ｔｅｔｒａ　Ｗｉｎ,,株式会社,長野県,飯田市,江戸浜町３６２７－２松ビル１０１,,20,205,3950023,,,,,,,2024-08-19,1,,,,,テトラウィン,0
997,5100003007721,新規,0,2024-08-19,2024-08-19,合同会社大天電設,,合同会社,長野県,佐久市,平賀１４７４番地１３,,20,217,3850034,,,,,,,2024-08-19,1,,,,,ダイテンデンセツ,0
1003,5120001267852,新規,0,2024-08-19,2024-08-19,株式会社ＨＡＬ,,株式会社,大阪府,大阪市東住吉区,桑津５丁目２番１４－３０２号,,27,121,5460041,,,,,,,2024-08-19,1,,,,,ハル,0
1004,5120001267877,新規,0,2024-08-19,2024-08-19,Ｍｒ．Ｗｉｓｈ株式会社,,株式会社,大阪府,大阪市都島区,東野田町４丁目１番５－３０２号,,27,102,5340024,,,,,,,2024-08-19,1,,,,,ミスターウィッシュ,0
1005,5120001267885,新規,0,2024-08-19,2024-08-19,コダマノ株式会社,,株式会社,大阪府,大阪市西淀川区,御幣島１丁目４番２－１５０６号,,27,113,5550012,,,,,,,2024-08-19,1,,,,,コダマノ,0
1007,5120003027338,新規,0,2024-08-19,2024-08-19,ＤａｔａＰｌｕｓ合同会社,,合同会社,大阪府,大阪市東淀川区,東中島１丁目１３番３５－４０８号,,27,114,5330033,,,,,,,2024-08-19,1,,,,,データプラス,0
1017,5122001038358,新規,0,2024-08-19,2024-08-19,株式会社ロックマン,,株式会社,大阪府,八尾市,北亀井町１丁目５番１４号,,27,212,5810066,,,,,,,2024-08-19,1,,,,,ロックマン,0
1019,5130001077739,新規,0,2024-08-19,2024-08-19,Ａｂｒａ‐Ｃａｄａｂｒａ株式会社,,株式会社,京都府,京都市下京区,西石垣通四条下る斎藤町１３８番地９、２階,,26,106,6008012,,,,,,,2024-08-19,1,,,,,アブラカダブラ,0
1020,5130001077755,新規,0,2024-08-19,2024-08-19,株式会社Ｓａｌｏｎ　ｄｅ　Ｗａｌｔｚ,,株式会社,京都府,京都市左京区,岩倉長谷町２３０番地５３,,26,103,6060026,,,,,,,2024-08-19,1,,,,,サロンドワルツ,0
1026,5140001135553,新規,0,2024-08-19,2024-08-19,株式会社ＴＲＵＳＴ,,株式会社,兵庫県,神戸市中央区,栄町通２丁目３番３号,,28,110,6500023,,,,,,,2024-08-19,1,,,,,トラスト,0
1028,5140003020984,新規,0,2024-08-19,2024-08-19,合同会社美ＭＡＹＵ,,合同会社,兵庫県,揖保郡太子町,福地７７－６,,28,464,6711534,,,,,,,2024-08-19,1,,,,,ビマユ,0
1029,5150003003344,新規,0,2024-08-19,2024-08-19,合同会社ゆいまぁる,,合同会社,奈良県,橿原市,土橋町１３０番地の１グリーンヒルズＡ２０１,,29,205,6340844,,,,,,,2024-08-19,1,,,,,ユイマァル,0
1046,5180001162817,新規,0,2024-08-19,2024-08-19,荒畑商事株式会社,,株式会社,愛知県,名古屋市昭和区,御器所通１丁目２番地,,23,107,4660015,,,,,,,2024-08-19,1,,,,,アラハタショウジ,0
1049,5180005020731,新規,0,2024-08-19,2024-08-19,弁護士法人ＮＬＣ,,その他の設立登記法人,愛知県,名古屋市中区,錦１丁目１８番２４号いちご伏見ビル４階,,23,106,4600003,,,,,,,2024-08-19,1,,,,,エヌエルシー,0
1055,5200001042850,新規,0,2024-08-19,2024-08-19,株式会社ＨＤＫ工業,,株式会社,岐阜県,岐阜市,西鶉３丁目１７９番地８,,21,201,5008286,,,,,,,2024-08-19,1,,,,,エイチディーケイコウギョウ,0
1066,5260001039387,新規,0,2024-08-19,2024-08-19,株式会社ＳＨコーポレーション,,株式会社,岡山県,倉敷市,帯高１番地１６,,33,202,7100023,,,,,,,2024-08-19,1,,,,,エスエイチコーポレーション,0
1073,5290001106705,新規,0,2024-08-19,2024-08-19,株式会社ＦＩＮＡＮＣＩＡＬ　ＰＡＳＳＡＧＥ,,株式会社,福岡県,福岡市中央区,薬院４丁目１８番２－４０２号,,40,133,8100022,,,,,,,2024-08-19,1,,,,,ファイナンシャルパッセージ,0
1074,5290001106738,新規,0,2024-08-19,2024-08-19,株式会社エスアイパートナー,,株式会社,福岡県,福岡市中央区,白金１丁目４番２５号,,40,133,8100012,,,,,,,2024-08-19,1,,,,,エスアイパートナー,0
1075,5290001106820,新規,0,2024-08-19,2024-08-19,株式会社ファームむなかた,,株式会社,福岡県,宗像市,葉山１丁目２１番地１８,,40,220,8114171,,,,,,,2024-08-19,1,,,,,ファームムナカタ,0
1076,5290001106845,新規,0,2024-08-19,2024-08-19,株式会社Ｚｓｔａｒ,,株式会社,福岡県,大野城市,錦町３丁目５番１６－２０２号,,40,219,8160935,,,,,,,2024-08-19,1,,,,,ゼットスター,0
1082,5290003015631,新規,0,2024-08-19,2024-08-19,合同会社このみ,,合同会社,福岡県,那珂川市,大字不入道７９６番地７,,40,231,8111231,,,,,,,2024-08-19,1,,,,,コノミ,0
1095,5330003010529,新規,0,2024-08-19,2024-08-19,合同会社あずま,,合同会社,熊本県,球磨郡多良木町,大字多良木１４１８番地１,,43,505,8680501,,,,,,,2024-08-19,1,,,,,アズマ,0
1099,5350001019149,新規,0,2024-08-19,2024-08-19,レジャー工業株式会社,,株式会社,宮崎県,延岡市,北新小路４番地２６,,45,203,8820834,,,,,,,2024-08-19,1,,,,,レジャーコウギョウ,0
1100,5350003004727,新規,0,2024-08-19,2024-08-19,合同会社ソーシャリンク,,合同会社,宮崎県,宮崎市,宮田町１０－２５宮田町ビル３０３,,45,201,8800804,,,,,,,2024-08-19,1,,,,,ソーシャリンク,0
1114,5430001092501,新規,0,2024-08-19,2024-08-19,易銷貿易株式会社,,株式会社,北海道,札幌市北区,北二十一条西５丁目１番１９－２０６号,,01,102,0010021,,,,,,,2024-08-19,1,,,,,エキショウボウエキ,0
1116,5430003016706,新規,0,2024-08-19,2024-08-19,合同会社あまね,,合同会社,北海道,岩見沢市,六条西６丁目６番地５,,01,210,0680026,,,,,,,2024-08-19,1,,,,,アマネ,0
1121,5450003002530,新規,0,2024-08-19,2024-08-19,ＢＲＥＳＴ合同会社,,合同会社,北海道,旭川市,永山二条１８丁目１番３０号,,01,204,0798412,,,,,,,2024-08-19,1,,,,,ブレスト,0
1127,5700150126783,新規,0,2024-08-19,2024-08-19,ＳＡＰＰＨＩＲＥ　ＭＯＴＯＲＳ,,外国会社等,千葉県,山武市,雨坪１０７番地１－Ｇ,,12,237,2891213,スリランカ民主社会主義共和国、キャンディ、アクラナ、７ｔｈマイルポスト、Ｎｏ．１１７／Ａ,,,,,,2024-08-19,1,,,,,サプフイレモータース,0
1136,6010003044649,新規,0,2024-08-19,2024-08-19,エネストジャパン５合同会社,,合同会社,東京都,千代田区,四番町２番地１２,,13,101,1020081,,,,,,,2024-08-19,1,,,,,エネストジャパンゴ,0
1147,6010401184534,新規,0,2024-08-19,2024-08-19,株式会社Ｂｅａｕｔｙ　Ｇｒｏｗ,,株式会社,東京都,港区,南青山１丁目１５番９号,,13,103,1070062,,,,,,,2024-08-19,1,,,,,ビューティーグロウ,0
1148,6010401184567,新規,0,2024-08-19,2024-08-19,株式会社ＫＫアセット,,株式会社,東京都,港区,赤坂５丁目５番９号赤坂スバルビル５０１,,13,103,1070052,,,,,,,2024-08-19,1,,,,,ケーケーアセット,0
1152,6010403033243,新規,0,2024-08-19,2024-08-19,Ｌｉｅｎ合同会社,,合同会社,東京都,港区,南青山３丁目１番３６号青山丸竹ビル６Ｆ,,13,103,1070062,,,,,,,2024-08-19,1,,,,,リアン,0
1155,6010601065765,新規,0,2024-08-19,2024-08-19,ＤＳＪ　Ｉｎｖｅｓｔｍｅｎｔ株式会社,,株式会社,東京都,墨田区,両国２丁目１７番１７号両国ダイヤハイツ２０２－２号室,,13,107,1300026,,,,,,,2024-08-19,1,,,,,ディーエスジェイインベスト,0
1157,6010805003125,新規,0,2024-08-19,2024-08-19,一般社団法人Ｂｌｅｓｓｅｄ,,その他の設立登記法人,東京都,大田区,北糀谷１丁目３番８号,,13,111,1440032,,,,,,,2024-08-19,1,,,,,ブレスド,0
1165,6011103014814,新規,0,2024-08-19,2024-08-19,国盛合同会社,,合同会社,東京都,新宿区,歌舞伎町２丁目１９番１１－７０７号,,13,104,1600021,,,,,,,2024-08-19,1,,,,,コクセイ,0
1166,6011103014822,新規,0,2024-08-19,2024-08-19,合同会社ＤｉＶＡ,,合同会社,東京都,新宿区,左門町１番地５,,13,104,1600017,,,,,,,2024-08-19,1,,,,,ディーバ,0
1167,6011203004467,新規,0,2024-08-19,2024-08-19,合同会社フォワード,,合同会社,東京都,中野区,弥生町４丁目２５－１０井上倉庫２階,,13,114,1640013,,,,,,,2024-08-19,1,,,,,,0
1168,6011301029936,新規,0,2024-08-19,2024-08-19,株式会社ＭＯＲＥ,,株式会社,東京都,杉並区,松ノ木３丁目２６番３号,,13,115,1660014,,,,,,,2024-08-19,1,,,,,モア,0
1171,6011605002597,新規,0,2024-08-19,2024-08-19,特定非営利活動法人Ｕ　Ｊｏｕｒｎｅｙ,,その他の設立登記法人,東京都,練馬区,南大泉１丁目２２番２６号メイプルタウン３０３,,13,120,1780064,,,,,,,2024-08-19,1,,,,,ユージャーニー,0
1172,6011703003943,新規,0,2024-08-19,2024-08-19,合同会社逸,00135988,合同会社,東京都,江戸川区,西一之江３丁目１８－７,,13,123,1320023,,,,,,,2024-08-19,1,,,,,イチ,0
1174,6011801044708,新規,0,2024-08-19,2024-08-19,株式会社むすびや興行,,株式会社,東京都,葛飾区,新宿４丁目７番１９号サンヴィアーレ都２１１号,,13,122,1250051,,,,,,,2024-08-19,1,,,,,ムスビヤコウギョウ,0
1183,6020001158235,新規,0,2024-08-19,2024-08-19,株式会社ネクストプラスｔｏｋｙｏ,,株式会社,神奈川県,川崎市高津区,久本３丁目１６番１５号,,14,134,2130011,,,,,,,2024-08-19,1,,,,,ネクストプラストウキョウ,0
1184,6020001158680,新規,0,2024-08-19,2024-08-19,株式会社ＦＩＥＬＤ,,株式会社,神奈川県,川崎市川崎区,浜町２丁目２３番６号,,14,131,2100851,,,,,,,2024-08-19,1,,,,,フィールド,0
1188,6020003026646,新規,0,2024-08-19,2024-08-19,エイプラン合同会社,,合同会社,神奈川県,横浜市泉区,上飯田町１０８４番地１８,,14,116,2450018,,,,,,,2024-08-19,1,,,,,エイプラン,0
1191,6021001083043,新規,0,2024-08-19,2024-08-19,千歳プロデュース株式会社,,株式会社,神奈川県,藤沢市,鵠沼藤が谷１丁目４番７号,00135989,14,205,2510031,,,,,,,2024-08-19,1,,,,,チトセプロデュース,0
1193,6021003014921,新規,0,2024-08-19,2024-08-19,合同会社Ｍａｕｌｅｐｉ,,合同会社,神奈川県,藤沢市,辻堂元町１丁目４番１１号,,14,205,2510043,,,,,,,2024-08-19,1,,,,,マウレピ,0
1202,6030001162013,新規,0,2024-08-19,2024-08-19,株式会社わるＮｕｔｓ,,株式会社,埼玉県,さいたま市西区,大字水判土４３２－８,,11,101,3310059,,,,,,,2024-08-19,1,,,,,ワルナッツ,0
1208,6030003024962,新規,0,2024-08-19,2024-08-19,合同会社ミライノサカ,,合同会社,埼玉県,戸田市,本町４丁目４－６ＴＢＣ,,11,224,3350023,,,,,,,2024-08-19,1,,,,,ミライノサカ,0
1215,6040001134960,新規,0,2024-08-19,2024-08-19,長内型枠工業株式会社,,株式会社,千葉県,船橋市,駿河台１丁目３番４５号,,12,204,2730862,,,,,,,2024-08-19,1,,,,,オサナイカタワクコウギョウ,0
1216,6040001134985,新規,0,2024-08-19,2024-08-19,株式会社根本農園,,株式会社,千葉県,香取市,本矢作９８８番地,,12,236,2870025,,,,,,,2024-08-19,1,,,,,ネモトノウエン,0
1218,6040003025613,新規,0,2024-08-19,2024-08-19,ＩＢＲＡＬＩＮＫ合同会社,,合同会社,千葉県,野田市,柳沢２６６番地の１北葉ハイツ２０６,,12,208,2780006,,,,,,,2024-08-19,1,,,,,イブラリンク,0
1219,6050001055264,新規,0,2024-08-19,2024-08-19,株式会社Ｎａｏｌｉｐ,,株式会社,茨城県,石岡市,府中４丁目６番２１号,,08,205,3150013,,,,,,,2024-08-19,1,,,,,ナオリップ,0
1220,6050001055272,新規,0,2024-08-19,2024-08-19,剛英建設株式会社,,株式会社,茨城県,つくば市,南中妻３７０番地７,,08,220,3050065,,,,,,,2024-08-19,1,,,,,ゴウエイケンセツ,0
1226,6080003003276,新規,0,2024-08-19,2024-08-19,合同会社Ｌｅｔｉｃｉａ,,合同会社,静岡県,静岡市葵区,両替町２丁目５番地の３小林ビル４階,,22,101,4200032,,,,,,,2024-08-19,1,,,,,レティシア,0
1229,6080101024959,新規,0,2024-08-19,2024-08-19,株式会社カラトラヴァ,,株式会社,静岡県,富士市,大淵２９０９番地の２,,22,210,4170801,,,,,,,2024-08-19,1,,,,,カラトラヴァ,0
1237,6090001018861,新規,0,2024-08-19,2024-08-19,株式会社ＮＥＸＴ　ＷＡＹＳ,,株式会社,山梨県,都留市,桂町８７９番地,,19,204,4020034,,,,,,,2024-08-19,1,,,,,ネクストウェイズ,0
1238,6090003002624,新規,0,2024-08-19,2024-08-19,合同会社カワバタ企画,,合同会社,山梨県,富士吉田市,下吉田３丁目６－３８、１階,,19,202,4030004,,,,,,,2024-08-19,1,,,,,カワバタキカク,0
1242,6100001037736,新規,0,2024-08-19,2024-08-19,株式会社Ｏｆｆｉｃｅ１５２,,株式会社,長野県,小県郡長和町,大門姫木平３５１８－１５３２,,20,350,3860601,,,,,,,2024-08-19,1,,,,,オフィスイチゴニ,0
1253,6120001267728,新規,0,2024-08-19,2024-08-19,株式会社阿波新商店,,株式会社,大阪府,大阪市浪速区,立葉２丁目８番１号,,27,111,5560020,,,,,,,2024-08-19,1,,,,,アワシンショウテン,0
1254,6120001267769,新規,0,2024-08-19,2024-08-19,株式会社ＤＥＬＴＡ　ＰＬＵＳ,,株式会社,大阪府,大阪市淀川区,西中島３丁目１８番９号新大阪日大ビル５０５,,27,123,5320011,,,,,,,2024-08-19,1,,,,,デルタプラス,0
1255,6120001267876,新規,0,2024-08-19,2024-08-19,株式会社Ｋ‐ｃｒｅａｔｅ,,株式会社,大阪府,守口市,佐太中町４丁目６番３号,,27,209,5700002,,,,,,,2024-08-19,1,,,,,ケークリエイト,0
1256,6120003027312,新規,0,2024-08-19,2024-08-19,万益商事合同会社,,合同会社,大阪府,大阪市港区,弁天４丁目５番１１－７０４号,,27,107,5520007,,,,,,,2024-08-19,1,,,,,バンエキショウジ,0
1257,6120003027337,新規,0,2024-08-19,2024-08-19,合同会社サンシャイン,,合同会社,大阪府,大阪市北区,浪花町１番１８－５０７号,,27,127,5300022,,,,,,,2024-08-19,1,,,,,サンシャイン,0
1266,6130001077738,新規,0,2024-08-19,2024-08-19,文心株式会社,,株式会社,京都府,京都市下京区,高辻大宮町１０９番地２コージーハイツ大宮５０３号室,,26,106,6000000,,,,,,,2024-08-19,1,,,,,ブンシン,0
1270,6140001135552,新規,0,2024-08-19,2024-08-19,株式会社水木,,株式会社,兵庫県,尼崎市,西難波町４丁目６番２６号ＺＥＲＯビル５０３,,28,202,6600893,,,,,,,2024-08-19,1,,,,,ミズキ,0
1271,6140001135569,新規,0,2024-08-19,2024-08-19,株式会社ゼブラファーム姫路,,株式会社,兵庫県,姫路市,余部区下余部１６２－１,,28,201,6711261,,,,,,,2024-08-19,1,,,,,ゼブラファームヒメジ,0
1272,6140003020983,新規,0,2024-08-19,2024-08-19,合同会社戸田不動産,,合同会社,兵庫県,神戸市西区,平野町大畑８７番地の１,,28,111,6512264,,,,,,,2024-08-19,1,,,,,トダフドウサン,0
1274,6150003003343,新規,0,2024-08-19,2024-08-19,合同会社ＬＩＦＥ　ＣＯＬＯＲ,,合同会社,奈良県,北葛城郡王寺町,南元町２丁目１１番１８号,,29,425,6360015,,,,,,,2024-08-19,1,,,,,ライフカラー,0
1276,6170001018275,新規,0,2024-08-19,2024-08-19,株式会社たなか,,株式会社,和歌山県,紀の川市,桃山町調月２２０２番地２,,30,208,6496112,,,,,,,2024-08-19,1,,,,,タナカ,0
1290,6200001042841,新規,0,2024-08-19,2024-08-19,株式会社イビリテ,,株式会社,岐阜県,岐阜市,金町６丁目２１岐阜ステーションビル３０４,,21,201,5008842,,,,,,,2024-08-19,1,,,,,イビリテ,0
1293,6230005009405,新規,0,2024-08-19,2024-08-19,一般社団法人和,,その他の設立登記法人,富山県,高岡市,伏木国分１丁目８番１号,,16,202,9330101,,,,,,,2024-08-19,1,,,,,ナギ,0
1295,6260001039386,新規,0,2024-08-19,2024-08-19,操空調設備株式会社,,株式会社,岡山県,岡山市南区,千鳥町４－１５,,33,104,7028037,,,,,,,2024-08-19,1,,,,,ミサオクウチョウセツビ,0
1304,6290001106704,新規,0,2024-08-19,2024-08-19,株式会社な佳や,,株式会社,福岡県,福岡市東区,みなと香椎３丁目１番１号１２７福岡市中央卸売市場青果市場,,40,131,8130019,,,,,,,2024-08-19,1,,,,,ナカヤ,0
1305,6290001106729,新規,0,2024-08-19,2024-08-19,ＳＫ福岡株式会社,,株式会社,福岡県,太宰府市,石坂１丁目１４番１１号,,40,221,8180118,,,,,,,2024-08-19,1,,,,,エスケイフクオカ,0
1306,6290001106745,新規,0,2024-08-19,2024-08-19,株式会社ワンファーム,,株式会社,福岡県,久留米市,田主丸町朝森５７１番地,,40,203,8391227,,,,,,,2024-08-19,1,,,,,ワンファーム,0
1307,6290003015630,新規,0,2024-08-19,2024-08-19,合同会社ＫＵＢＯ　ＤＥＳＩＧＮ　ＳＴＵＤＩＯ,,合同会社,福岡県,糸島市,志摩桜井１８２８－３０,,40,230,8191304,,,,,,,2024-08-19,1,,,,,クボデザインスタジオ,0
1318,6330001032375,新規,0,2024-08-19,2024-08-19,株式会社コネクト,,株式会社,熊本県,熊本市中央区,水前寺４丁目５２番７号,,43,101,8620950,,,,,,,2024-08-19,1,,,,,コネクト,0
1325,6360001034096,新規,0,2024-08-19,2024-08-19,株式会社リウオキ,,株式会社,沖縄県,那覇市,久茂地１丁目１番１号パレットくもじ８階ｒｅｌａｒｋ那覇,,47,201,9000015,,,,,,,2024-08-19,1,,,,,リウオキ,0
1328,6370001051636,新規,0,2024-08-19,2024-08-19,株式会社ＤＣＫ,,株式会社,宮城県,仙台市泉区,泉中央４丁目１５番地の５ライオンズマンション七北田公園１０２,,04,105,9813133,,,,,,,2024-08-19,1,,,,,ディーシーケー,0
1337,6430003016696,新規,0,2024-08-19,2024-08-19,合同会社ＢＥＬＬＥ,,合同会社,北海道,恵庭市,中島町６丁目１番地１１（コンフォール中島２０５号）,,01,231,0611435,,,,,,,2024-08-19,1,,,,,ベル,0
1338,6430003016705,新規,0,2024-08-19,2024-08-19,エーツーアール合同会社,,合同会社,北海道,札幌市白石区,菊水七条４丁目３番２５号,,01,104,0030807,,,,,,,2024-08-19,1,,,,,エーツーアール,0
1341,6450001014386,新規,0,2024-08-19,2024-08-19,株式会社ピリカピリカ,,株式会社,北海道,名寄市,西六条南１丁目１４番地,,01,221,0960016,,,,,,,2024-08-19,1,,,,,ピリカピリカ,0
1344,6470003002701,新規,0,2024-08-19,2024-08-19,Ｓｐａｒｋｍａｄｅ合同会社,,合同会社,香川県,高松市,上天神町６５４番地１エンゼル１１８,,37,201,7618056,,,,,,,2024-08-19,1,,,,,スパークメイド,0
1348,6700150126782,新規,0,2024-08-19,2024-08-19,ＴＯＰ　ＬＩＮＫ　ＭＯＴＯＲＳ,,外国会社等,茨城県,常総市,岡田５２０－１,,08,211,3002743,スリランカ民主社会主義共和国、ゴール、マタラロード、Ｎｏ．１０５,,,,,,2024-08-19,1,,,,,トツプリンクモータース,0
1355,7010001247509,新規,0,2024-08-19,2024-08-19,株式会社Ｙｏｕｅｓｔ,,株式会社,東京都,文京区,西片１丁目１４番１３号,,13,105,1130024,,,,,,,2024-08-19,1,,,,,ユーエスト,0
1356,7010001247566,新規,0,2024-08-19,2024-08-19,ゴルフテクノロジージャパン株式会社,,株式会社,東京都,千代田区,丸の内１丁目６番２号新丸の内センタービル２１階,,13,101,1000005,,,,,,,2024-08-19,1,,,,,ゴルフテクノロジージャパン,0
1366,7010401184467,新規,0,2024-08-19,2024-08-19,株式会社Ｓ．ＲＥＮＯＶＡＴＩＯＮＳ,,株式会社,東京都,港区,南青山３丁目１番３６号青山丸竹ビル６Ｆ,,13,103,1070062,,,,,,,2024-08-19,1,,,,,エスリノベーションズ,0
1367,7010401184509,新規,0,2024-08-19,2024-08-19,東京商会株式会社,,株式会社,東京都,港区,海岸３丁目２番１５－９０３号,,13,103,1080022,,,,,,,2024-08-19,1,,,,,トウキョウショウカイ,0
1368,7010401184517,新規,0,2024-08-19,2024-08-19,株式会社都正幸,,株式会社,東京都,港区,芝公園２丁目１１番１－３００８号,,13,103,1050011,,,,,,,2024-08-19,1,,,,,ミヤコセイコウ,0
1369,7010401184590,新規,0,2024-08-19,2024-08-19,株式会社たびたっち,,株式会社,東京都,港区,南青山２丁目２番１５号,,13,103,1070062,,,,,,,2024-08-19,1,,,,,タビタッチ,0
1370,7010403033234,新規,0,2024-08-19,2024-08-19,合同会社ななつつ,,合同会社,東京都,港区,麻布十番２丁目２－５－３０１,,13,103,1060045,,,,,,,2024-08-19,1,,,,,ナナツツ,0
1375,7010901055829,新規,0,2024-08-19,2024-08-19,株式会社ＳＷＩＴＣＨ,,株式会社,東京都,世田谷区,玉川台２丁目１番１号２階,,13,112,1580096,,,,,,,2024-08-19,1,,,,,スイッチ,0
1379,7010903009295,新規,0,2024-08-19,2024-08-19,合同会社アンシェール,,合同会社,東京都,世田谷区,北沢２丁目１０番１２号,,13,112,1550031,,,,,,,2024-08-19,1,,,,,アンシェール,0
1387,7011101108476,新規,0,2024-08-19,2024-08-19,株式会社トータスコネクトビレッジ,,株式会社,東京都,新宿区,高田馬場２丁目８－５ワシヤビル５Ｂ,,13,104,1690075,,,,,,,2024-08-19,1,,,,,トータスコネクトビレッジ,0
1391,7011203004466,新規,0,2024-08-19,2024-08-19,合同会社エン,,合同会社,東京都,中野区,弥生町４丁目２５－１０井上倉庫２階,,13,114,1640013,,,,,,,2024-08-19,1,,,,,エン,0
1393,7011301029935,新規,0,2024-08-19,2024-08-19,株式会社ハートリハ,,株式会社,東京都,杉並区,上高井戸１丁目１４番７号クレール八幡山Ｂ－４０１,,13,115,1680074,,,,,,,2024-08-19,1,,,,,ハートリハ,0
1397,7011603004421,新規,0,2024-08-19,2024-08-19,ＳａｎｄｚＬａｂ合同会社,,合同会社,東京都,練馬区,東大泉７丁目２－１７,,13,120,1780063,,,,,,,2024-08-19,1,,,,,サンズラボ,0
1400,7011805003386,新規,0,2024-08-19,2024-08-19,一般社団法人ぷれいず,,その他の設立登記法人,東京都,足立区,梅島３丁目４番８号うめじまＫＳビル２０１,,13,121,1210816,,,,,,,2024-08-19,1,,,,,プレイズ,0
1402,7012701018404,新規,0,2024-08-19,2024-08-19,株式会社Ｓｐ‐Ｌｉｎｋ,,株式会社,東京都,東久留米市,八幡町２丁目１４番５８号,,13,222,2030042,,,,,,,2024-08-19,1,,,,,エスピーリンク,0
1404,7012703003073,新規,0,2024-08-19,2024-08-19,ユーピオ合同会社,,合同会社,東京都,小平市,喜平町３丁目２番１０－１０２号,,13,211,1870044,,,,,,,2024-08-19,1,,,,,ユーピオ,0
1406,7012803003485,新規,0,2024-08-19,2024-08-19,合同会社ｋｉｋｕｃｈｉ企画,,合同会社,東京都,国立市,北３丁目３５番の１、１－１００４,,13,215,1860001,,,,,,,2024-08-19,1,,,,,キクチキカク,0
1414,7020003026645,新規,0,2024-08-19,2024-08-19,ＥＮＣＨＡＮＴ　ＷＯＲＫＳ合同会社,,合同会社,神奈川県,横浜市青葉区,美しが丘１丁目１３番地１０吉村ビル１０７,,14,117,2250002,,,,,,,2024-08-19,1,,,,,エンチャントワークス,0
1415,7020003026653,新規,0,2024-08-19,2024-08-19,オニキスリサーチアンドコンサルティング合同会社,,合同会社,神奈川県,横浜市青葉区,市ケ尾町４００－２,,14,117,2250024,,,,,,,2024-08-19,1,,,,,オニキスリサーチアンドコンサルティング,0
1420,7021001083034,新規,0,2024-08-19,2024-08-19,株式会社プラスティコス,,株式会社,神奈川県,座間市,ひばりが丘３丁目３２番３号,,14,216,2520003,,,,,,,2024-08-19,1,,,,,プラスティコス,0
1421,7021001083042,新規,0,2024-08-19,2024-08-19,株式会社ハラケン,,株式会社,神奈川県,横須賀市,三春町６丁目８８番地,,14,201,2380014,,,,,,,2024-08-19,1,,,,,ハラケン,0
1433,7030001162029,新規,0,2024-08-19,2024-08-19,株式会社ＨＡＣＴＨ,,株式会社,埼玉県,さいたま市西区,大字宝来１５０５番地メゾンＨＯＵＲＡＩ２１－１－Ａ,,11,101,3310074,,,,,,,2024-08-19,1,,,,,ハッチ,0
1434,7030001162045,新規,0,2024-08-19,2024-08-19,株式会社ネットワークデリバリーサービス,,株式会社,埼玉県,さいたま市緑区,大字大間木１６７２番地５,,11,109,3360923,,,,,,,2024-08-19,1,,,,,ネットワークデリバリーサービス,0
1439,7030003024945,新規,0,2024-08-19,2024-08-19,合同会社Ｓｍｉｌｅ　ｈｏｕｒ,,合同会社,埼玉県,さいたま市岩槻区,美園東２丁目３５番地６,,11,110,3390028,,,,,,,2024-08-19,1,,,,,スマイルアワー,0
1442,7040001134943,新規,0,2024-08-19,2024-08-19,かぜのおとホールディングス株式会社,,株式会社,千葉県,千葉市美浜区,中瀬２丁目６番地１ワールドビジネスガーデンマリブウエスト２０階,,12,106,2610023,,,,,,,2024-08-19,1,,,,,カゼノオトホールディングス,0
1449,7050001055263,新規,0,2024-08-19,2024-08-19,株式会社丸政板金工業,,株式会社,茨城県,結城市,大字結城８４８８番地５,,08,207,3070001,,,,,,,2024-08-19,1,,,,,マルマサバンキンコウギョウ,0
1450,7050001055271,新規,0,2024-08-19,2024-08-19,株式会社１’ｓ,,株式会社,茨城県,つくば市,研究学園５丁目１１番地２けやきレジデンス壱番館２４０５号,,08,220,3050817,,,,,,,2024-08-19,1,,,,,ワンズ,0
1451,7050003008616,新規,0,2024-08-19,2024-08-19,３ＤＲＡＧＯＮＳ　ＥＮＴＥＲＰＲＩＳＥ合同会社,,合同会社,茨城県,土浦市,西根南１丁目５番３０号根本ハイツ４,,08,203,3000842,,,,,,,2024-08-19,1,,,,,スリードラゴンズエンタープライズ,0
1452,7050005013481,新規,0,2024-08-19,2024-08-19,一般社団法人ＭＹＳＡＴＥＲ,,その他の設立登記法人,茨城県,日立市,大みか町２丁目１２番１１号,,08,202,3191221,,,,,,,2024-08-19,1,,,,,マイサッター,0
1453,7060001037392,新規,0,2024-08-19,2024-08-19,株式会社トーエイ工業,,株式会社,栃木県,鹿沼市,茂呂６４２番地１,,09,205,3220026,,,,,,,2024-08-19,1,,,,,トーエイコウギョウ,0
1459,7080001026451,新規,0,2024-08-19,2024-08-19,株式会社クレセント,,株式会社,静岡県,静岡市駿河区,見瀬１６１－１コーポルサント１０６,,22,102,4228057,,,,,,,2024-08-19,1,,,,,クレセント,0
1463,7080401027388,新規,0,2024-08-19,2024-08-19,株式会社ＪＵＳＴ,,株式会社,静岡県,浜松市浜名区,細江町気賀２３０２番地の７,,22,139,4311305,,,,,,,2024-08-19,1,,,,,ジャスト,0
1467,7090003002623,新規,0,2024-08-19,2024-08-19,合同会社ＭＡＧＵＲＯ,,合同会社,山梨県,北杜市,武川町宮脇９０５－１,,19,209,4080303,,,,,,,2024-08-19,1,,,,,マグロ,0
1469,7090005007645,新規,0,2024-08-19,2024-08-19,一般社団法人Ａｂｅｒｔａ,,その他の設立登記法人,山梨県,甲府市,幸町１６－９,,19,201,4000857,,,,,,,2024-08-19,1,,,,,アベルタ,0
1476,7120001267859,新規,0,2024-08-19,2024-08-19,小卓株式会社,,株式会社,大阪府,大阪市住吉区,大領４丁目１６番４－５０２号,,27,120,5580001,,,,,,,2024-08-19,1,,,,,コタク,0
1490,7130001077737,新規,0,2024-08-19,2024-08-19,樺林株式会社,,株式会社,京都府,京都市下京区,高辻大宮町１０９番地２コージーハイツ大宮７０２号室,,26,106,6000000,,,,,,,2024-08-19,1,,,,,カリン,0
1491,7130001077753,新規,0,2024-08-19,2024-08-19,ソプラノケア株式会社,,株式会社,京都府,京都市北区,大北山原谷乾町３６番１４号パレ大北山２０３号室,,26,101,6038487,,,,,,,2024-08-19,1,,,,,ソプラノケア,0
1492,7130003009787,新規,0,2024-08-19,2024-08-19,合同会社ＢＭコンサルタント,,合同会社,京都府,京都市伏見区,竹田西段川原町１３３番地１,,26,109,6128429,,,,,,,2024-08-19,1,,,,,ビーエムコンサルタント,0
1499,7140003020974,新規,0,2024-08-19,2024-08-19,合同会社Ｔｅａｍ　Ｒｅｓｏｎａｃｔ,,合同会社,兵庫県,神戸市東灘区,本山南町８丁目５－６本山ロイヤルマンション８０６,,28,101,6580015,,,,,,,2024-08-19,1,,,,,チームレゾナクト,0
1500,7140003020990,新規,0,2024-08-19,2024-08-19,プロメテクス合同会社,,合同会社,兵庫県,伊丹市,南鈴原３丁目２２８,,28,207,6640883,,,,,,,2024-08-19,1,,,,,プロメテクス,0
1507,7180001162798,新規,0,2024-08-19,2024-08-19,株式会社クラウンギア,,株式会社,愛知県,名古屋市港区,東茶屋１丁目４９番地の２,,23,111,4550851,,,,,,,2024-08-19,1,,,,,クラウンギア,0
1508,7180001162872,新規,0,2024-08-19,2024-08-19,株式会社箱根ガラスの森美術館,,株式会社,愛知県,名古屋市中村区,那古野１丁目４３番５号,,23,105,4500001,,,,,,,2024-08-19,1,,,,,ハコネガラスノモリビジュツカン,0
1516,7180303006232,新規,0,2024-08-19,2024-08-19,合同会社ＵＰ,,合同会社,愛知県,豊橋市,牧野町２０３番地１,,23,201,4418112,,,,,,,2024-08-19,1,,,,,アップ,0
1524,7240003006815,新規,0,2024-08-19,2024-08-19,合同会社ウェルオブライフ,,合同会社,広島県,広島市西区,南観音町１９－２２,,34,104,7330034,,,,,,,2024-08-19,1,,,,,ウェルオブライフ,0
1527,7260001039344,新規,0,2024-08-19,2024-08-19,ソフィアホールディングス株式会社,,株式会社,岡山県,津山市,河原町２９番地３,,33,203,7080033,,,,,,,2024-08-19,1,,,,,ソフィアホールディングス,0
1528,7260001039385,新規,0,2024-08-19,2024-08-19,株式会社ＩＴＡＬＬ,,株式会社,岡山県,岡山市東区,内ケ原２４番地５,,33,103,7090612,,,,,,,2024-08-19,1,,,,,イタル,0
1533,7290001106694,新規,0,2024-08-19,2024-08-19,株式会社ｔｋｆ,,株式会社,福岡県,福岡市西区,小戸４丁目５番１８－１号ジョリス姪浜１０２号室,,40,135,8190001,,,,,,,2024-08-19,1,,,,,ティーケーエフ,0
1534,7290001106703,新規,0,2024-08-19,2024-08-19,株式会社ＡＳＫａ,,株式会社,福岡県,久留米市,国分町２１６番地１,,40,203,8390863,,,,,,,2024-08-19,1,,,,,アスカ,0
1535,7290001106711,新規,0,2024-08-19,2024-08-19,株式会社ホームベース,,株式会社,福岡県,大牟田市,北磯町２９番地１,,40,202,8360016,,,,,,,2024-08-19,1,,,,,ホームベース,0
1536,7290001106728,新規,0,2024-08-19,2024-08-19,株式会社３９ＧｉｖｉｎＧ,,株式会社,福岡県,福岡市西区,内浜２丁目７番地１５日宝サンセーヌ姪浜８０１号,,40,135,8190005,,,,,,,2024-08-19,1,,,,,サンキューギビング,0
1537,7290001106760,新規,0,2024-08-19,2024-08-19,株式会社宝夢,,株式会社,福岡県,福岡市博多区,博多駅前１丁目２３番２号ＰａｒｋＦｒｏｎｔ博多駅前１丁目５Ｆ－Ｂ,,40,132,8120011,,,,,,,2024-08-19,1,,,,,ホーム,0
1538,7290001106884,新規,0,2024-08-19,2024-08-19,株式会社ＴＥＮＴ,,株式会社,福岡県,福岡市博多区,博多駅前３丁目１２－３－１Ｆ,,40,132,8120011,,,,,,,2024-08-19,1,,,,,テント,0
1539,7290003015638,新規,0,2024-08-19,2024-08-19,合同会社ＲＹＣＫＡ,,合同会社,福岡県,福岡市中央区,草香江２丁目１１番３０－１００３号,,40,133,8100045,,,,,,,2024-08-19,1,,,,,リッカ,0
1549,7330003010527,新規,0,2024-08-19,2024-08-19,合同会社ｓｕｍｍｙ,,合同会社,熊本県,熊本市東区,戸島町３４９番地２７,,43,102,8618031,,,,,,,2024-08-19,1,,,,,サミー,0
1551,7350001019139,新規,0,2024-08-19,2024-08-19,株式会社冴羽,,株式会社,宮崎県,宮崎市,新別府町麓４２４番地６,,45,201,8800834,,,,,,,2024-08-19,1,,,,,サエバ,0
1570,7430001092466,新規,0,2024-08-19,2024-08-19,天空の城株式会社,,株式会社,北海道,小樽市,長橋２丁目２３番３０号１０２室,,01,203,0470036,,,,,,,2024-08-19,1,,,,,テンクウノシロ,0
1571,7430001092516,新規,0,2024-08-19,2024-08-19,株式会社ＣＬＡＳ,,株式会社,北海道,札幌市中央区,南九条西３丁目１番６号,,01,101,0640809,,,,,,,2024-08-19,1,,,,,クラス,0
1579,7430005015051,新規,0,2024-08-19,2024-08-19,一般社団法人みんなのおうち,,その他の設立登記法人,北海道,砂川市,東二条北３丁目１番１号,,01,226,0730152,,,,,,,2024-08-19,1,,,,,ミンナノオウチ,0
1583,7480001012576,新規,0,2024-08-19,2024-08-19,株式会社ｈｕｍａｎ　ｅｃｏ　ｆｒｉｅｎｄｌｙ,,株式会社,徳島県,徳島市,北山町岩崎３－８,,36,201,7708032,,,,,,,2024-08-19,1,,,,,ヒューマンエコフレンドリー,0
1584,7700150126781,新規,0,2024-08-19,2024-08-19,京橋三丁目東地区市街地再開発組合,,その他,東京都,中央区,京橋３丁目６－１８,,13,102,1040031,,,,,,,2024-08-19,1,,,,,キヨウバシサンチヨウメヒガシチクシガイチサイカイハツクミアイ,0
1590,8010003044655,新規,0,2024-08-19,2024-08-19,合同会社ＳＰＣ　Ｈ,,合同会社,東京都,千代田区,平河町１丁目６番１５号シルスフィア会計事務所内,,13,101,1020093,,,,,,,2024-08-19,1,,,,,エスピーシーエイチ,0
1592,8010005038655,新規,0,2024-08-19,2024-08-19,一般社団法人ＳＴＡＹ６,,その他の設立登記法人,東京都,中央区,京橋２丁目１２番６号ＡＯＪ税理士法人内,,13,102,1040031,,,,,,,2024-08-19,1,,,,,ステイシックス,0
1601,8010401184458,新規,0,2024-08-19,2024-08-19,ＡＩ不動産株式会社,,株式会社,東京都,港区,東麻布２丁目２３番３－１０２号,,13,103,1060044,,,,,,,2024-08-19,1,,,,,エーアイフドウサン,0
1602,8010401184508,新規,0,2024-08-19,2024-08-19,ｆ．ｄｅｓｉｇｎ株式会社,,株式会社,東京都,港区,北青山１丁目３番１号アールキューブ青山３階,,13,103,1070061,,,,,,,2024-08-19,1,,,,,エフデザイン,0
1603,8010401184516,新規,0,2024-08-19,2024-08-19,株式会社東京ファンド保証,,株式会社,東京都,港区,赤坂４丁目８番１９号赤坂フロントタウン３階,,13,103,1070052,,,,,,,2024-08-19,1,,,,,トウキョウファンドホショウ,0
1604,8010401184549,新規,0,2024-08-19,2024-08-19,ＴＫＮアドバイザリーサービス株式会社,,株式会社,東京都,港区,北青山１丁目３番１号アールキューブ青山３階,,13,103,1070061,,,,,,,2024-08-19,1,,,,,ティーケーエヌアドバイザリーサービス,0
1605,8010401184581,新規,0,2024-08-19,2024-08-19,株式会社スタジオ１２,,株式会社,東京都,港区,北青山１丁目３番１号アールキューブ青山３階,,13,103,1070061,,,,,,,2024-08-19,1,,,,,スタジオトゥエルブ,0
1606,8010401184607,新規,0,2024-08-19,2024-08-19,株式会社ｔｈｅ　ｆｉｒｓｔ　ｖｅｓｓｅｌ,,株式会社,東京都,港区,南青山２丁目１４番１４号,,13,103,1070062,,,,,,,2024-08-19,1,,,,,ザファーストヴェッセル,0
1607,8010403033266,新規,0,2024-08-19,2024-08-19,Ｃｉｔｙｚｅｎ　Ｔｏｋｙｏ合同会社,,合同会社,東京都,港区,赤坂２丁目１４番５号Ｄａｉｗａ赤坂ビル４階,,13,103,1070052,,,,,,,2024-08-19,1,,,,,シチズントウキョウ,0
1611,8010901055811,新規,0,2024-08-19,2024-08-19,３‐ｔｈｉｎｋ　ｆｏｒ　ｆｉｔｎｅｓｓ株式会社,,株式会社,東京都,世田谷区,三軒茶屋１丁目３６番５号４０１,,13,112,1540024,,,,,,,2024-08-19,1,,,,,スリーシンクフォーフィットネス,0
1614,8011001164049,新規,0,2024-08-19,2024-08-19,ＷｈｉｔｅＣａｎｖａｓ株式会社,,株式会社,東京都,渋谷区,円山町５番５号Ｎａｖｉ渋谷Ｖ３階,,13,113,1500044,,,,,,,2024-08-19,1,,,,,ホワイトキャンバス,0
1615,8011001164164,新規,0,2024-08-19,2024-08-19,株式会社ＭＩＭＯＳＡ,,株式会社,東京都,渋谷区,鶯谷町１４番,,13,113,1500032,,,,,,,2024-08-19,1,,,,,ミモザ,0
1623,8011101108459,新規,0,2024-08-19,2024-08-19,株式会社リバース,,株式会社,東京都,新宿区,四谷４丁目３２番地１吉岡ビルＢ１階,,13,104,1600004,,,,,,,2024-08-19,1,,,,,リバース,0
1624,8011101108475,新規,0,2024-08-19,2024-08-19,株式会社ＲＯＡＤ,,株式会社,東京都,新宿区,若葉１丁目１２番地４カーサ四谷２０６号,,13,104,1600011,,,,,,,2024-08-19,1,,,,,ロード,0
1625,8011103014812,新規,0,2024-08-19,2024-08-19,合同会社ＬＵＣＫＹ,,合同会社,東京都,新宿区,新宿２丁目１６番９号五城ビル,,13,104,1600022,,,,,,,2024-08-19,1,,,,,ラッキー,0
1626,8011103014820,新規,0,2024-08-19,2024-08-19,合同会社Ｙ＆Ｅ,,合同会社,東京都,新宿区,新小川町４番１１号,,13,104,1620814,,,,,,,2024-08-19,1,,,,,ワイアンドイー,0
1628,8011203004440,新規,0,2024-08-19,2024-08-19,合同会社ＮＥＲＶ,,合同会社,東京都,中野区,本町５丁目３０番１１号ハーモニーレジデンス中野本町パークサイド４０２,,13,114,1640012,,,,,,,2024-08-19,1,,,,,ネルフ,0
1630,8011503006186,新規,0,2024-08-19,2024-08-19,合同会社ＴＡＫＡＨＡＳＨＩ．ＩＺＭ,,合同会社,東京都,北区,赤羽１丁目７番９号赤羽第一葉山ビル４Ｆ,,13,117,1150045,,,,,,,2024-08-19,1,,,,,タカハシイズム,0
1632,8011701027538,新規,0,2024-08-19,2024-08-19,株式会社福寿海無量,,株式会社,東京都,江戸川区,江戸川３丁目８番地１,,13,123,1320013,,,,,,,2024-08-19,1,,,,,フクジュカイムリョウ,0
1633,8011701027546,新規,0,2024-08-19,2024-08-19,株式会社キョウシン設備,,株式会社,東京都,江戸川区,松江１丁目２３番１４－１０１号,,13,123,1320025,,,,,,,2024-08-19,1,,,,,キョウシンセツビ,0
1637,8012801023410,新規,0,2024-08-19,2024-08-19,瑞正国際株式会社,,株式会社,東京都,日野市,豊田３丁目４２－１７ドムス・ラグーナ３０１,,13,212,1910053,,,,,,,2024-08-19,1,,,,,ズイショウコクサイ,0
1647,8020001158373,新規,0,2024-08-19,2024-08-19,株式会社シークロス,,株式会社,神奈川県,横浜市港北区,綱島西４丁目１８番１０号ＶＩＬＬＡ・ＫＥＣＩＬ４０４,,14,109,2230053,,,,,,,2024-08-19,1,,,,,シークロス,0
1648,8020001158514,新規,0,2024-08-19,2024-08-19,株式会社サブウェル,,株式会社,神奈川県,川崎市宮前区,有馬４丁目９番地５コーポ宮田Ａ１０２,,14,136,2160003,,,,,,,2024-08-19,1,,,,,サブウェル,0
1649,8020001158522,新規,0,2024-08-19,2024-08-19,株式会社ｊｕｔｏ,,株式会社,神奈川県,横浜市磯子区,森５丁目４番地４号,,14,107,2350023,,,,,,,2024-08-19,1,,,,,ジュウト,0
1650,8020001158539,新規,0,2024-08-19,2024-08-19,株式会社ミラクルムーン,,株式会社,神奈川県,横浜市港北区,高田西３丁目７－２６,,14,109,2230066,,,,,,,2024-08-19,1,,,,,ミラクルムーン,0
1653,8020003026644,新規,0,2024-08-19,2024-08-19,ワンダーゲート合同会社,,合同会社,神奈川県,横浜市西区,北幸１丁目５番１０号ＪＰＲ横浜ビル８階,,14,103,2200004,,,,,,,2024-08-19,1,,,,,ワンダーゲート,0
1654,8020003026652,新規,0,2024-08-19,2024-08-19,ふじらいふ合同会社,,合同会社,神奈川県,横浜市金沢区,能見台６丁目４番地１１,,14,108,2360057,,,,,,,2024-08-19,1,,,,,フジライフ,0
1657,8021001082968,新規,0,2024-08-19,2024-08-19,株式会社佐々木組,,株式会社,神奈川県,横須賀市,大矢部３丁目４番１号,,14,201,2380024,,,,,,,2024-08-19,1,,,,,ササキグミ,0
1664,8030001162011,新規,0,2024-08-19,2024-08-19,株式会社森佰,,株式会社,埼玉県,新座市,新座１丁目３－２,,11,230,3520006,,,,,,,2024-08-19,1,,,,,シンパク,0
1665,8030001162036,新規,0,2024-08-19,2024-08-19,株式会社丸芯,,株式会社,埼玉県,入間市,宮寺２７５６番地１２,,11,225,3580014,,,,,,,2024-08-19,1,,,,,マルシン,0
1670,8040001135024,新規,0,2024-08-19,2024-08-19,株式会社ぜんマーケ,,株式会社,千葉県,船橋市,前原西６丁目５番１－１０５号,,12,204,2740825,,,,,,,2024-08-19,1,,,,,ゼンマーケ,0
1674,8050001055270,新規,0,2024-08-19,2024-08-19,株式会社ねはんドットギフト,,株式会社,茨城県,土浦市,桜ケ丘町１８番７号,,08,203,3000832,,,,,,,2024-08-19,1,,,,,ネハンドットギフト,0
1675,8050001055279,新規,0,2024-08-19,2024-08-19,ＨＱＲ　ＴＲＡＤＩＮＧ株式会社,,株式会社,茨城県,古河市,尾崎３４９０－３１,,08,204,3060101,,,,,,,2024-08-19,1,,,,,エイチキューアールトレーディング,0
1682,8070001042102,新規,0,2024-08-19,2024-08-19,株式会社澤工業,,株式会社,群馬県,甘楽郡甘楽町,大字善慶寺１２０９番地４,,10,384,3702206,,,,,,,2024-08-19,1,,,,,サワコウギョウ,0
1684,8070003005552,新規,0,2024-08-19,2024-08-19,合同会社新井建設,,合同会社,群馬県,藤岡市,中栗須８４番地１３,,10,209,3750015,,,,,,,2024-08-19,1,,,,,アライケンセツ,0
1690,8110001038649,新規,0,2024-08-19,2024-08-19,株式会社マルオシ,,株式会社,新潟県,見附市,下関町９９９番地,,15,211,9540105,,,,,,,2024-08-19,1,,,,,マルオシ,0
1700,8120001267692,新規,0,2024-08-19,2024-08-19,株式会社ＩＤＥＡＬ,,株式会社,大阪府,大阪市北区,梅田１丁目２番２号大阪駅前第２ビル１２－１２,,27,127,5300001,,,,,,,2024-08-19,1,,,,,イデアル,0
1701,8120001267817,新規,0,2024-08-19,2024-08-19,株式会社ＫＯＲＯＭＯ　ＦＡＣＴＯＲＹ,,株式会社,大阪府,大阪市城東区,成育２丁目１６番２５－１０２号,,27,118,5360007,,,,,,,2024-08-19,1,,,,,コロモファクトリー,0
1702,8120001267841,新規,0,2024-08-19,2024-08-19,株式会社Ｒ＆Ｍ,,株式会社,大阪府,大阪市淀川区,宮原２丁目１１番２２号,,27,123,5320003,,,,,,,2024-08-19,1,,,,,アールアンドエム,0
1703,8120001267866,新規,0,2024-08-19,2024-08-19,株式会社エムズサポート,,株式会社,大阪府,大阪市平野区,背戸口２丁目３番１８号,,27,126,5470034,,,,,,,2024-08-19,1,,,,,エムズサポート,0
1706,8120003027327,新規,0,2024-08-19,2024-08-19,合同会社アップデート,,合同会社,大阪府,大阪市北区,鶴野町４番Ａ棟２１４号,,27,127,5300014,,,,,,,2024-08-19,1,,,,,アップデート,0
1713,8120901049637,新規,0,2024-08-19,2024-08-19,エムワイ株式会社,,株式会社,大阪府,豊中市,東豊中町６丁目１０番３５の２号,,27,203,5600003,,,,,,,2024-08-19,1,,,,,エムワイ,0
1717,8130001077728,新規,0,2024-08-19,2024-08-19,株式会社ＦｏｒＬｉｂｅｒｔｙ　Ｐｒｏｄｕｃｔ,,株式会社,京都府,城陽市,寺田東ノ口１２番地の４宮崎マンション２棟４０２号,,26,207,6100121,,,,,,,2024-08-19,1,,,,,フォーリバティープロダクト,0
1721,8140001135559,新規,0,2024-08-19,2024-08-19,株式会社Ｌｅａｐｓ,,株式会社,兵庫県,神戸市東灘区,住吉宮町１丁目４番２０号,,28,101,6580053,,,,,,,2024-08-19,1,,,,,リープス,0
1722,8140003020965,新規,0,2024-08-19,2024-08-19,合同会社Ｇ‐ｎｉｕｓ　ｐｒｏｊｅｃｔ,,合同会社,兵庫県,西宮市,上甲子園４丁目１番２号,,28,204,6638114,,,,,,,2024-08-19,1,,,,,ジーニアスプロジェクト,0
1723,8140003020981,新規,0,2024-08-19,2024-08-19,合同会社Ｇｒｏｏｖｙ,,合同会社,兵庫県,神戸市東灘区,向洋町中６丁目９,,28,101,6580032,,,,,,,2024-08-19,1,,,,,グルーヴィー,0
1728,8180001162946,新規,0,2024-08-19,2024-08-19,ＲＡＫＵＳＯＯ株式会社,,株式会社,愛知県,名古屋市西区,名駅２丁目３４番１７号セントラル名古屋１１０１号,,23,104,4510045,,,,,,,2024-08-19,1,,,,,ラクソー,0
1737,8180305009604,新規,0,2024-08-19,2024-08-19,一般社団法人空き家プロジェクト,,その他の設立登記法人,愛知県,豊川市,下野川町１丁目１５番地の１,,23,207,4420877,,,,,,,2024-08-19,1,,,,,アキヤプロジェクト,0
1741,8200001042848,新規,0,2024-08-19,2024-08-19,株式会社マルエイパスカルエナジー,,株式会社,岐阜県,岐阜市,入舟町４丁目１０番地マルエイグループ共同ビル２階,,21,201,5008152,,,,,,,2024-08-19,1,,,,,マルエイパスカルエナジー,0
1743,8210001019886,新規,0,2024-08-19,2024-08-19,株式会社ｗａｋａ,,株式会社,福井県,坂井市,丸岡町高柳第１６号１３８番地,,18,210,9100373,,,,,,,2024-08-19,1,,,,,ワカ,0
1747,8240003006814,新規,0,2024-08-19,2024-08-19,合同会社オフィスＳＵＧＡ,,合同会社,広島県,広島市西区,己斐上２丁目６７番２３号,,34,104,7330815,,,,,,,2024-08-19,1,,,,,オフィススガ,0
1750,8260002034566,新規,0,2024-08-19,2024-08-19,備北製材有限会社,,有限会社,岡山県,新見市,高尾２４４９番地,,33,210,7180003,,,,,,,2024-08-19,1,,,,,ビホクセイザイ,0
1751,8260003004865,新規,0,2024-08-19,2024-08-19,合同会社オフィス田辺,,合同会社,岡山県,倉敷市,西阿知町新田２２８番地２,,33,202,7100804,,,,,,,2024-08-19,1,,,,,オフィスタナベ,0
1763,8290001106685,新規,0,2024-08-19,2024-08-19,ＨｉｇｈＴｉｄｅ＆Ｃｏ．株式会社,,株式会社,福岡県,福岡市博多区,上川端町９－１武内ビルＩＩ７Ｆ,00135987,40,132,8120026,,,,,,,2024-08-19,1,,,,,ハイタイド,0
1764,8290001106702,新規,0,2024-08-19,2024-08-19,株式会社ｎｅｎ‐ｒｉｎ,,株式会社,福岡県,春日市,紅葉ヶ丘東１０丁目９３番地,,40,218,8160833,,,,,,,2024-08-19,1,,,,,ネンリン,0
1765,8290001106710,新規,0,2024-08-19,2024-08-19,株式会社エムティー,,株式会社,福岡県,嘉麻市,山野２００８番地３５,,40,227,8200202,,,,,,,2024-08-19,1,,,,,エムティー,0
1766,8290001106727,新規,0,2024-08-19,2024-08-19,株式会社ｈａｒｕｎｏｈｉ,,株式会社,福岡県,福岡市中央区,高砂２丁目１番４号オーキッドプレイス天神南８階,,40,133,8100011,,,,,,,2024-08-19,1,,,,,ハルノヒ,0
1767,8290001106768,新規,0,2024-08-19,2024-08-19,株式会社禮福,,株式会社,福岡県,久留米市,山川町１４７５番地３,,40,203,8390817,,,,,,,2024-08-19,1,,,,,ライフク,0
1770,8290003015579,新規,0,2024-08-19,2024-08-19,合同会社サト,,合同会社,福岡県,福岡市東区,若宮３丁目２－８コーポ高松１０２号,,40,131,8130036,,,,,,,2024-08-19,1,,,,,サト,0
1771,8290003015637,新規,0,2024-08-19,2024-08-19,合同会社ＹＣＫ,,合同会社,福岡県,福岡市博多区,博多駅前１丁目２３番２号ＰａｒｋＦｒｏｎｔ博多駅前１丁目５Ｆ－Ｂ,,40,132,8120011,,,,,,,2024-08-19,1,,,,,ワイシーケー,0
1773,8300003002170,新規,0,2024-08-19,2024-08-19,合同会社エールエナジー,,合同会社,佐賀県,佐賀市,諸富町大字山領１１２５番地３,,41,201,8402106,,,,,,,2024-08-19,1,,,,,エールエナジー,0
1774,8320005010178,新規,0,2024-08-19,2024-08-19,無限責任落合負債整理組合,,その他の設立登記法人,大分県,臼杵市,野津町大字落合,,44,206,8750000,,,,,,,2024-08-19,1,,,,,,0
1780,8360001034094,新規,0,2024-08-19,2024-08-19,株式会社南グローバル,,株式会社,沖縄県,中頭郡中城村,字南上原７６２番地Ｍａ．サンセチア６０３号,,47,328,9012424,,,,,,,2024-08-19,1,,,,,ミナミグローバル,0
1782,8360003014235,新規,0,2024-08-19,2024-08-19,合同会社中部資産投資総合研究所,,合同会社,沖縄県,那覇市,字宇栄原７２２番地３,,47,201,9010153,,,,,,,2024-08-19,1,,,,,チュウブシサントウシソウゴウケンキュウショ,0
1788,8370001051667,新規,0,2024-08-19,2024-08-19,ＳＰＩＫＥ株式会社,,株式会社,宮城県,栗原市,一迫片子沢外の沢１１,,04,213,9872302,,,,,,,2024-08-19,1,,,,,スパイク,0
1795,8430001092507,新規,0,2024-08-19,2024-08-19,株式会社ヨシタケ,,株式会社,北海道,札幌市東区,北三十四条東１２丁目３番２－２０１号,,01,103,0070834,,,,,,,2024-08-19,1,,,,,ヨシタケ,0
1802,8430003016694,新規,0,2024-08-19,2024-08-19,合同会社Ａ‐Ｌｉｆｅ,,合同会社,北海道,勇払郡安平町,早来北進７５番地５７,,01,585,0591502,,,,,,,2024-08-19,1,,,,,エーライフ,0
1807,8460101007592,新規,0,2024-08-19,2024-08-19,株式会社ＳｐｒｉｎｇＲａｉｎ,,株式会社,北海道,帯広市,西二十二条南４丁目３４番地４メゾン・ド・エルム１０１,,01,207,0802472,,,,,,,2024-08-19,1,,,,,スプリングレイン,0
1808,8480001012575,新規,0,2024-08-19,2024-08-19,株式会社水翔電工,,株式会社,徳島県,徳島市,名東町３丁目２３番地の６,,36,201,7700047,,,,,,,2024-08-19,1,,,,,スイショウデンコウ,0
1819,9010001247614,新規,0,2024-08-19,2024-08-19,Ｃｏｒｉｎｔｈｉａ　Ｇｌｏｂａｌ　Ｍａｎａｇｅｍｅｎｔ　Ｊａｐａｎ株式会社,,株式会社,東京都,中央区,日本橋３丁目９番１号日本橋三丁目スクエア１１階,,13,102,1030027,,,,,,,2024-08-19,1,,,,,コリンシアグローバルマネジメントジャパン,0
1829,9010401184465,新規,0,2024-08-19,2024-08-19,株式会社イノナカノカエル,,株式会社,東京都,港区,虎ノ門５丁目１０番７号,,13,103,1050001,,,,,,,2024-08-19,1,,,,,イノナカノカエル,0
1830,9010401184473,新規,0,2024-08-19,2024-08-19,Ｘ‐ＦＩＮＡＮＣＩＡＬ　ＧＲＯＵＰ株式会社,,株式会社,東京都,港区,芝浦４丁目１９番１－２９０９号,,13,103,1080023,,,,,,,2024-08-19,1,,,,,エックスフィナンシャルグループ,0
1831,9010401184507,新規,0,2024-08-19,2024-08-19,株式会社資産形成サポート,,株式会社,東京都,港区,赤坂２丁目８番１４－８０４号,,13,103,1070052,,,,,,,2024-08-19,1,,,,,シサンケイセイサポート,0
1832,9010401184515,新規,0,2024-08-19,2024-08-19,株式会社ＴＫＨＳ,,株式会社,東京都,港区,北青山１丁目３番１号,,13,103,1070061,,,,,,,2024-08-19,1,,,,,ティーケーエイチエス,0
1833,9010401184523,新規,0,2024-08-19,2024-08-19,株式会社Ｆｏｒ,,株式会社,東京都,港区,芝３丁目１５番１４号ヒキタカ芝公園ビル９Ｆ,,13,103,1050014,,,,,,,2024-08-19,1,,,,,フォー,0
1834,9010401184580,新規,0,2024-08-19,2024-08-19,株式会社三皓,,株式会社,東京都,港区,白金６丁目１２－２５ザ・パークハウス白金１０５,,13,103,1080072,,,,,,,2024-08-19,1,,,,,サンコウ,0
1835,9010401184614,新規,0,2024-08-19,2024-08-19,ミナヨクコンサルティング株式会社,,株式会社,東京都,港区,南麻布２丁目３番１１号パークホームズ南麻布ザレジデンス１２２２,,13,103,1060047,,,,,,,2024-08-19,1,,,,,ミナヨクコンサルティング,0
1836,9010403033265,新規,0,2024-08-19,2024-08-19,合同会社ＫＡＭ,,合同会社,東京都,港区,芝浦２丁目１４番７号,,13,103,1080023,,,,,,,2024-08-19,1,,,,,ケイエーエム,0
1838,9010501052695,新規,0,2024-08-19,2024-08-19,株式会社ＪＥＤＩ,,株式会社,東京都,台東区,上野３丁目１６－２－７０８室,,13,106,1100005,,,,,,,2024-08-19,1,,,,,ジェディ,0
1839,9010503007549,新規,0,2024-08-19,2024-08-19,Ｂｅ　Ｒｏｕｔｅ合同会社,,合同会社,東京都,台東区,根岸４丁目８－２－１１０３,,13,106,1100003,,,,,,,2024-08-19,1,,,,,ビールート,0
1845,9010901055793,新規,0,2024-08-19,2024-08-19,株式会社ａｒｃｈｉｐｅｌａｇｏ,,株式会社,東京都,世田谷区,北沢２丁目３８―１０,,13,112,1550031,,,,,,,2024-08-19,1,,,,,アーキペラゴ,0
1848,9011001163958,新規,0,2024-08-19,2024-08-19,株式会社Ｂｒｕｄｅ,,株式会社,東京都,渋谷区,神宮前２丁目５番６号,,13,113,1500001,,,,,,,2024-08-19,1,,,,,ブルーデ,0
1850,9011003019737,新規,0,2024-08-19,2024-08-19,カイハツ合同会社,,合同会社,東京都,渋谷区,松濤１丁目２８－６－２０２号室,,13,113,1500046,,,,,,,2024-08-19,1,,,,,カイハツ,0
1852,9011101108466,新規,0,2024-08-19,2024-08-19,ＡＩ　Ｐｏｗｅｒ株式会社,,株式会社,東京都,新宿区,四谷４丁目２８番地４ＹＫＢエンサインビル１２Ｆ,,13,104,1600004,,,,,,,2024-08-19,1,,,,,エーアイパワー,0
1853,9011101108474,新規,0,2024-08-19,2024-08-19,株式会社シナプス,,株式会社,東京都,新宿区,新宿７丁目２０番４号１０１,,13,104,1600022,,,,,,,2024-08-19,1,,,,,シナプス,0
1854,9011101108490,新規,0,2024-08-19,2024-08-19,株式会社Ａ’’ｓｔａｒｔ,,株式会社,東京都,新宿区,歌舞伎町１丁目３番５号相模観光ビル３階Ｂ室,,13,104,1600021,,,,,,,2024-08-19,1,,,,,エースタート,0
1855,9011101108499,新規,0,2024-08-19,2024-08-19,株式会社ｍａｔｓｕｙｏｉ,,株式会社,東京都,新宿区,荒木町９番地ＬＡＰｉＳＰＡＲＫ四谷三丁目４０３,,13,104,1600007,,,,,,,2024-08-19,1,,,,,マツヨイ,0
1858,9011301029925,新規,0,2024-08-19,2024-08-19,東田製薬株式会社,,株式会社,東京都,杉並区,上荻３丁目１５番３号,,13,115,1670043,,,,,,,2024-08-19,1,,,,,トウダセイヤク,0
1867,9011803006406,新規,0,2024-08-19,2024-08-19,合同会社ＡＺＵ,,合同会社,東京都,足立区,花畑５丁目５番３－１０２号,,13,121,1210061,,,,,,,2024-08-19,1,,,,,アズ,0
1878,9020001158488,新規,0,2024-08-19,2024-08-19,株式会社レバレル,,株式会社,神奈川県,横浜市南区,宿町２丁目４０番地大和ビル１０４号室,,14,105,2320017,,,,,,,2024-08-19,1,,,,,レバレル,0
1879,9020001158496,新規,0,2024-08-19,2024-08-19,株式会社Ｕｇａｍｉｎ,,株式会社,神奈川県,川崎市宮前区,有馬１丁目１０番４号,,14,136,2160003,,,,,,,2024-08-19,1,,,,,ウガミン,0
1881,9020003026643,新規,0,2024-08-19,2024-08-19,合同会社ティーエスビー,,合同会社,神奈川県,横浜市西区,北幸２丁目１０番４８号むつみビル３階,,14,103,2200004,,,,,,,2024-08-19,1,,,,,ティーエスビー,0
1886,9021001083040,新規,0,2024-08-19,2024-08-19,株式会社ＯＳ,,株式会社,神奈川県,大和市,中央林間５丁目３番２０号レジデンスダイオー３０１,,14,213,2420007,,,,,,,2024-08-19,1,,,,,オーエス,0
1889,9030001162035,新規,0,2024-08-19,2024-08-19,株式会社陽,,株式会社,埼玉県,所沢市,若狭３丁目２５４０番地の９,,11,208,3591151,,,,,,,2024-08-19,1,,,,,ハル,0
1890,9030001162051,新規,0,2024-08-19,2024-08-19,株式会社オフィスＯＫＡＭＯＴＯ,,株式会社,埼玉県,川口市,幸町２丁目１７番１３－９０２号ライオンズプラザ川口幸町,,11,203,3320016,,,,,,,2024-08-19,1,,,,,オフィスオカモト,0
1894,9030003024968,新規,0,2024-08-19,2024-08-19,合同会社ＭｅｌｌｏｗＦｏｏｄ,,合同会社,埼玉県,入間市,東町１丁目３番地９号豊岡ハウス１１２３,,11,225,3580002,,,,,,,2024-08-19,1,,,,,メローフード,0
1896,9040001135015,新規,0,2024-08-19,2024-08-19,ＪＡＰＡＮ　ＵＳ株式会社,,株式会社,千葉県,佐倉市,吉見６０２番５５,,12,212,2850834,,,,,,,2024-08-19,1,,,,,ジャパンユーエス,0
1899,9040003025610,新規,0,2024-08-19,2024-08-19,合同会社ＭＤＨ,,合同会社,千葉県,松戸市,常盤平５丁目１４番地の５メゾンデイジー２０１号,,12,207,2702261,,,,,,,2024-08-19,1,,,,,エムディーエイチ,0
1900,9050001055278,新規,0,2024-08-19,2024-08-19,株式会社トキミツ,,株式会社,茨城県,常陸太田市,中城町３４２０－８,,08,212,3130061,,,,,,,2024-08-19,1,,,,,トキミツ,0
1901,9050003008622,新規,0,2024-08-19,2024-08-19,ＴＲインターナショナル合同会社,,合同会社,茨城県,かすみがうら市,新治１６２９番地１,,08,230,3150051,,,,,,,2024-08-19,1,,,,,ティーアールインターナショナル,0
1912,9080103003124,新規,0,2024-08-19,2024-08-19,合同会社朱Ｈｏｎｅｙ,,合同会社,静岡県,賀茂郡東伊豆町,稲取１９０６番地の２,,22,301,4130411,,,,,,,2024-08-19,1,,,,,シュハニー,0
1915,9080403005084,新規,0,2024-08-19,2024-08-19,ＰＬＥＡＳＵＲＥ　ＧＡＲＡＧＥ合同会社,,合同会社,静岡県,浜松市中央区,西ケ崎町１７２３番地２,,22,138,4313115,,,,,,,2024-08-19,1,,,,,プレジャーガレージ,0
1918,9090001018859,新規,0,2024-08-19,2024-08-19,株式会社ＨＡＢＡＴＡＫＩ,,株式会社,山梨県,都留市,桂町８８４番地１０,,19,204,4020034,,,,,,,2024-08-19,1,,,,,ハバタキ,0
1919,9090001018867,新規,0,2024-08-19,2024-08-19,ランドフラット株式会社,,株式会社,山梨県,甲府市,中小河原町５６８番地１,,19,201,4000854,,,,,,,2024-08-19,1,,,,,ランドフラット,0
1925,9090003002621,新規,0,2024-08-19,2024-08-19,サンキュー通商合同会社,,合同会社,山梨県,甲府市,北新２丁目１５番８号クオーレ北新Ａ１０８,,19,201,4000005,,,,,,,2024-08-19,1,,,,,サンキューツウショウ,0
1927,9100003007726,新規,0,2024-08-19,2024-08-19,合同会社未知コーポレーション,,合同会社,長野県,塩尻市,大字宗賀１０９番地３,,20,215,3996461,,,,,,,2024-08-19,1,,,,,ミチコーポレーション,0
1930,9100005013210,新規,0,2024-08-19,2024-08-19,一般社団法人ライジング・フィールド,,その他の設立登記法人,長野県,北佐久郡軽井沢町,大字長倉２１２９番地（長倉山国有林）,,20,321,3890111,,,,,,,2024-08-19,1,,,,,ライジングフィールド,0
1932,9110001038656,新規,0,2024-08-19,2024-08-19,株式会社グッドフロー新潟,,株式会社,新潟県,新潟市東区,宝町１０番４号３,,15,102,9500053,,,,,,,2024-08-19,1,,,,,グッドフローニイガタ,0
1940,9120001267725,新規,0,2024-08-19,2024-08-19,株式会社ＡＲＡＧＡＥ,,株式会社,大阪府,大阪市北区,西天満４丁目７番７号サンシステムガストロプラザ１０１,,27,127,5300047,,,,,,,2024-08-19,1,,,,,アラガエ,0
1941,9120001267799,新規,0,2024-08-19,2024-08-19,株式会社８Ｌｉｎｋ,,株式会社,大阪府,大阪市中央区,南船場２丁目１０番２８号,,27,128,5420081,,,,,,,2024-08-19,1,,,,,エイトリンク,0
1942,9120001267849,新規,0,2024-08-19,2024-08-19,株式会社景麗社,,株式会社,大阪府,大阪市中央区,農人橋１丁目１番２９－２４０４号,,27,128,5400011,,,,,,,2024-08-19,1,,,,,ケイレイシャ,0
1943,9120001267865,新規,0,2024-08-19,2024-08-19,株式会社成和工業,,株式会社,大阪府,大阪市東住吉区,鷹合２丁目１２番２５号,,27,121,5460014,,,,,,,2024-08-19,1,,,,,セイワコウギョウ,0
1945,9120003027326,新規,0,2024-08-19,2024-08-19,ＣＸＴ合同会社,,合同会社,大阪府,大阪市東住吉区,湯里２丁目１３－２－４０３,,27,121,5460013,,,,,,,2024-08-19,1,,,,,シーエックスティー,0
1946,9120003027334,新規,0,2024-08-19,2024-08-19,合同会社エーアイティーシステム,,合同会社,大阪府,大阪市城東区,関目２丁目１２番３７－８０２号,,27,118,5360008,,,,,,,2024-08-19,1,,,,,エーアイティーシステム,0
1948,9120005024503,新規,0,2024-08-19,2024-08-19,絆パートナーズ税理士法人,,その他の設立登記法人,大阪府,大阪市北区,西天満３丁目１４番１６号西天満パークビル３号館８階,,27,127,5300047,,,,,,,2024-08-19,1,,,,,キズナパートナーズ,0
1954,9120901049644,新規,0,2024-08-19,2024-08-19,株式会社ｍｉｎａｓｅ,,株式会社,大阪府,三島郡島本町,水無瀬２丁目３番３－６０５号,,27,301,6180014,,,,,,,2024-08-19,1,,,,,ミナセ,0
1955,9120905006641,新規,0,2024-08-19,2024-08-19,一般社団法人アニマルバトン,,その他の設立登記法人,大阪府,豊中市,長興寺南４丁目３番２１号,,27,203,5610874,,,,,,,2024-08-19,1,,,,,アニマルバトン,0
1960,9130001077727,新規,0,2024-08-19,2024-08-19,株式会社ＦｏｒＬｉｂｅｒｔｙ　Ｅｎｒｉｃｈ,,株式会社,京都府,城陽市,寺田東ノ口１２番地の４宮崎マンション２棟４０２号,,26,207,6100121,,,,,,,2024-08-19,1,,,,,フォーリバティーエンリッチ,0
1961,9130003009793,新規,0,2024-08-19,2024-08-19,合同会社ＫＹＯ,,合同会社,京都府,木津川市,山城町上狛老垣外１１番地１,,26,214,6190204,,,,,,,2024-08-19,1,,,,,キョウ,0
1984,9180002094048,新規,0,2024-08-19,2024-08-19,有限会社三友貿易商會,00135843,有限会社,愛知県,あま市,丹波北屋敷８番地の１,,23,237,4901224,,,,,,,2024-08-19,1,,,,,サンユウボウエキショウカイ,0
1996,9220003003820,新規,0,2024-08-19,2024-08-19,ｃａｔｃＨｕｇ合同会社,,合同会社,石川県,野々市市,矢作３丁目１３８番地４,,17,212,9218822,,,,,,,2024-08-19,1,,,,,ケチャッグ,0
2004,9260001039383,新規,0,2024-08-19,2024-08-19,株式会社ｋａｎｍｅｉ,,株式会社,岡山県,岡山市南区,福富東２丁目１０番１１号ファーデン１０１,,33,104,7028033,,,,,,,2024-08-19,1,,,,,カンメイ,0
2010,9280005007624,新規,0,2024-08-19,2024-08-19,一般社団法人ＳＰＥＣ,,その他の設立登記法人,島根県,益田市,東町１９番３５号,,32,204,6980004,,,,,,,2024-08-19,1,,,,,スペック,0
2015,9290001106701,新規,0,2024-08-19,2024-08-19,株式会社ｂｅｅ‐ｐｌｕｓ,,株式会社,福岡県,福岡市中央区,舞鶴１丁目３番３１－５０７号ハイラーク舞鶴,,40,133,8100073,,,,,,,2024-08-19,1,,,,,ビープラス,0
2016,9290001106718,新規,0,2024-08-19,2024-08-19,アイティ久野株式会社,,株式会社,福岡県,春日市,春日原北町２丁目２６番地１サントレモ春日原５０３号,,40,218,8160802,,,,,,,2024-08-19,1,,,,,アイティヒサノ,0
2017,9290001106726,新規,0,2024-08-19,2024-08-19,株式会社ｈａｊｕ,,株式会社,福岡県,福岡市中央区,高砂２丁目１番４号,,40,133,8100011,,,,,,,2024-08-19,1,,,,,ハジュ,0
2018,9290001106742,新規,0,2024-08-19,2024-08-19,株式会社ファンドットリンク,,株式会社,福岡県,福岡市中央区,天神１丁目１－１アクロス福岡ｆａｂｂｉｔ１階,,40,133,8100001,,,,,,,2024-08-19,1,,,,,ファンドットリンク,0
2019,9290001106767,新規,0,2024-08-19,2024-08-19,株式会社ＭＯＣＯ,,株式会社,福岡県,福岡市西区,愛宕３丁目２１番１８号,,40,135,8190015,,,,,,,2024-08-19,1,,,,,モコ,0
2021,9290003015628,新規,0,2024-08-19,2024-08-19,合同会社セシル,,合同会社,福岡県,太宰府市,国分５丁目２２番３９号,,40,221,8180132,,,,,,,2024-08-19,1,,,,,セシル,0
2027,9310001019173,新規,0,2024-08-19,2024-08-19,株式会社青葉堂,,株式会社,長崎県,佐世保市,白岳町１００４番地１１,,42,202,8571164,,,,,,,2024-08-19,1,,,,,アオバドウ,0
2032,9360001034060,新規,0,2024-08-19,2024-08-19,株式会社ＴＲＣライジング,,株式会社,沖縄県,国頭郡今帰仁村,字玉城９２５番地１４６,,47,306,9050415,,,,,,,2024-08-19,1,,,,,ティーアールシーライジング,0
2033,9360003014226,新規,0,2024-08-19,2024-08-19,合同会社ヨツメアート,,合同会社,沖縄県,宜野湾市,大謝名５丁目２０－１・１Ｆ号室,,47,205,9012225,,,,,,,2024-08-19,1,,,,,ヨツメアート,0
2045,9430001092506,新規,0,2024-08-19,2024-08-19,Ｒ＆Ｂ株式会社,,株式会社,北海道,札幌市中央区,大通東７丁目１２番地４８,,01,101,0600041,,,,,,,2024-08-19,1,,,,,アールアンドビー,0
2046,9430001092514,新規,0,2024-08-19,2024-08-19,株式会社肉弁,,株式会社,北海道,札幌市東区,北二十四条東１２丁目１番３０号,,01,103,0650024,,,,,,,2024-08-19,1,,,,,ニクベン,0
