sequenceNumber,corporateNumber,process,correct,updateDate,changeDate,name,nameImageId,kind,prefectureName,cityName,streetNumber,addressImageId,prefectureCode,cityCode,postCode,addressOutside,addressOutsideImageId,closeDate,closeCause,successorCorporateNumber,changeCause,assignmentDate,latest,enName,enPrefectureName,enCityName,enAddressOutside,furigana,hihyoji
7,1010001254452,新規,0,2025-04-24,2025-04-24,株式会社紫紺,,株式会社,東京都,千代田区,飯田橋２丁目１１番１０号総合経営ビル６Ｆ,,13,101,1020072,,,,,,,2025-04-24,1,,,,,シコン,0
8,1010001254477,新規,0,2025-04-24,2025-04-24,株式会社ＤＲＯＯＭＴＵＩＮ,,株式会社,東京都,中央区,東日本橋２丁目１７番６号,,13,102,1030004,,,,,,,2025-04-24,1,,,,,ドロームタン,0
9,1010001254485,新規,0,2025-04-24,2025-04-24,株式会社レジェンド,,株式会社,東京都,千代田区,神田和泉町１番地６の１６ヤマトビル４０５,,13,101,1010024,,,,,,,2025-04-24,1,,,,,レジェンド,0
10,1010001254493,新規,0,2025-04-24,2025-04-24,株式会社ＧＯＫＵＭＩ,,株式会社,東京都,中央区,日本橋蛎殻町１丁目３３－１１,,13,102,1030014,,,,,,,2025-04-24,1,,,,,ゴクミ,0
12,1010003047053,新規,0,2025-04-24,2025-04-24,合同会社ＱＯＬ　Ｏｎｅ,,合同会社,東京都,千代田区,霞が関３丁目２番５号,,13,101,1000013,,,,,,,2025-04-24,1,,,,,キューオーエルワン,0
13,1010003047160,新規,0,2025-04-24,2025-04-24,合同会社柴田商店,,合同会社,東京都,中央区,湊２丁目１３番７号,,13,102,1040043,,,,,,,2025-04-24,1,,,,,シバタショウテン,0
21,1010401189389,新規,0,2025-04-24,2025-04-24,株式会社サザンリアルエステイト,,株式会社,東京都,港区,赤坂２丁目１１番１号,,13,103,1070052,,,,,,,2025-04-24,1,,,,,サザンリアルエステイト,0
27,1010901057186,新規,0,2025-04-24,2025-04-24,株式会社スカイマネージ,,株式会社,東京都,世田谷区,北烏山５丁目１８番２８号,,13,112,1570061,,,,,,,2025-04-24,1,,,,,スカイマネージ,0
28,1010901057211,新規,0,2025-04-24,2025-04-24,ＭＩＲＡＩ組株式会社,,株式会社,東京都,世田谷区,太子堂４丁目１８番１５号マガザン三軒茶屋２－３Ｆ－３,,13,112,1540004,,,,,,,2025-04-24,1,,,,,ミライグミ,0
35,1011001169129,新規,0,2025-04-24,2025-04-24,株式会社Ｋａｉ,,株式会社,東京都,渋谷区,渋谷１丁目７番５号青山セブンハイツ５０１,,13,113,1500002,,,,,,,2025-04-24,1,,,,,カイ,0
36,1011001169145,新規,0,2025-04-24,2025-04-24,株式会社カムグラン,,株式会社,東京都,渋谷区,渋谷２丁目２２番１３号,,13,113,1500002,,,,,,,2025-04-24,1,,,,,カムグラン,0
51,1011301030519,新規,0,2025-04-24,2025-04-24,ノエラコンサルティング株式会社,,株式会社,東京都,杉並区,和田２丁目３１番１０号,,13,115,1660012,,,,,,,2025-04-24,1,,,,,ノエラコンサルティング,0
52,1011501031985,新規,0,2025-04-24,2025-04-24,久澤製薬株式会社,,株式会社,東京都,荒川区,南千住３丁目２７－２浅草ビル５０８,,13,118,1160003,,,,,,,2025-04-24,1,,,,,ヒサザワセイヤク,0
58,1011701028286,新規,0,2025-04-24,2025-04-24,株式会社Ｂｅｙｏｎｄ,,株式会社,東京都,江戸川区,中葛西５丁目４１番２７－５０４号,,13,123,1340083,,,,,,,2025-04-24,1,,,,,ビヨンド,0
61,1011801045999,新規,0,2025-04-24,2025-04-24,株式会社和融社,,株式会社,東京都,葛飾区,金町２丁目２１－５プラーズ金町５０５,,13,122,1250042,,,,,,,2025-04-24,1,,,,,ワユウシャ,0
62,1011801046015,新規,0,2025-04-24,2025-04-24,繁華盛世株式会社,,株式会社,東京都,葛飾区,東金町３丁目１７－１０ＫＢＳ、Ｃ－１１号,,13,122,1250041,,,,,,,2025-04-24,1,,,,,ハンカセイセ,0
63,1011801046023,新規,0,2025-04-24,2025-04-24,株式会社フラワー,,株式会社,東京都,足立区,千住東２丁目５番５号,,13,121,1200025,,,,,,,2025-04-24,1,,,,,フラワー,0
65,1012401043014,新規,0,2025-04-24,2025-04-24,ワイエム相続センター株式会社,,株式会社,東京都,小金井市,梶野町１丁目２番３６号,,13,210,1840002,,,,,,,2025-04-24,1,,,,,ワイエムソウゾクセンター,0
81,1020005016815,新規,0,2025-04-24,2025-04-24,一般社団法人四葉会,,その他の設立登記法人,神奈川県,川崎市中原区,小杉町３丁目２４番地１０－１階,,14,133,2110063,,,,,,,2025-04-24,1,,,,,ヨツバカイ,0
83,1021001085052,新規,0,2025-04-24,2025-04-24,株式会社Ｎｅｏ,,株式会社,神奈川県,横須賀市,池田町６丁目２番２号,,14,201,2390806,,,,,,,2025-04-24,1,,,,,ネオ,0
84,1021001085069,新規,0,2025-04-24,2025-04-24,株式会社ＫＯＥＤＡ,,株式会社,神奈川県,厚木市,中依知８５番地１本厚木スカイハイツ３３７,,14,212,2430805,,,,,,,2025-04-24,1,,,,,コエダ,0
85,1021003015908,新規,0,2025-04-24,2025-04-24,合同会社長久命,,合同会社,神奈川県,相模原市南区,東林間４丁目２１番３号ＫＨＳ東林間３０２,,14,153,2520311,,,,,,,2025-04-24,1,,,,,チョウキュウメイ,0
89,1030001166191,新規,0,2025-04-24,2025-04-24,株式会社エイチ・コーポレーション,,株式会社,埼玉県,川口市,大字里５７８番地の８シーズガーデングリーンパティオ８１１号,,11,203,3340005,,,,,,,2025-04-24,1,,,,,エイチコーポレーション,0
90,1030001166217,新規,0,2025-04-24,2025-04-24,株式会社ＦＭＫテクノロジー,,株式会社,埼玉県,さいたま市大宮区,寿能町２丁目２５１番地１－３０９号,,11,103,3300805,,,,,,,2025-04-24,1,,,,,エフエムケーテクノロジー,0
95,1030003026633,新規,0,2025-04-24,2025-04-24,合同会社ＮＡＰＯ,,合同会社,埼玉県,川口市,西川口２丁目７番２２号ガーデンテラス西川口２０１号,,11,203,3320021,,,,,,,2025-04-24,1,,,,,ナポ,0
96,1030003026658,新規,0,2025-04-24,2025-04-24,合同会社Ｓｅａｉｎｇ,,合同会社,埼玉県,鶴ヶ島市,大字中新田１６０９番地５,,11,241,3502226,,,,,,,2025-04-24,1,,,,,シーイング,0
100,1040001138405,新規,0,2025-04-24,2025-04-24,株式会社ＡｌｉｖｅＺ,,株式会社,千葉県,習志野市,津田沼５丁目１２番１２号サンロード津田沼ビル,,12,216,2750016,,,,,,,2025-04-24,1,,,,,アライブズ,0
101,1040001138413,新規,0,2025-04-24,2025-04-24,株式会社高城煙火店,00138887,株式会社,千葉県,柏市,箕輪９０番地,,12,217,2770912,,,,,,,2025-04-24,1,,,,,タカギエンカテン,0
103,1040003027416,新規,0,2025-04-24,2025-04-24,ハンナ合同会社,,合同会社,千葉県,佐倉市,寺崎北４丁目７番地４エスポワール２０２,,12,212,2850819,,,,,,,2025-04-24,1,,,,,ハンナ,0
109,1050003009223,新規,0,2025-04-24,2025-04-24,合同会社Ｐｕｌｅｂｅ,,合同会社,茨城県,牛久市,栄町６丁目５５番地,,08,219,3001233,,,,,,,2025-04-24,1,,,,,ピュレイブ,0
113,1070001042868,新規,0,2025-04-24,2025-04-24,株式会社元始人,,株式会社,群馬県,高崎市,片岡町３丁目２１７９番地,,10,202,3700862,,,,,,,2025-04-24,1,,,,,ゲンシジン,0
124,1080401027872,新規,0,2025-04-24,2025-04-24,株式会社ＣＲＵＩＳＩＮＧ,,株式会社,静岡県,浜松市浜名区,三ヶ日町三ヶ日５３７番地１２,,22,139,4311414,,,,,,,2025-04-24,1,,,,,クルージング,0
131,1100003008104,新規,0,2025-04-24,2025-04-24,合同会社Ｓｅｃｏｎｄ,,合同会社,長野県,下高井郡木島平村,大字上木島１１０５番地８,,20,562,3892303,,,,,,,2025-04-24,1,,,,,セカンド,0
132,1120001274910,新規,0,2025-04-24,2025-04-24,麓安株式会社,,株式会社,大阪府,大阪市東住吉区,田辺１丁目８番５号６０１号室,,27,121,5460031,,,,,,,2025-04-24,1,,,,,ロクアン,0
133,1120001274984,新規,0,2025-04-24,2025-04-24,椿礼株式会社,,株式会社,大阪府,大阪市都島区,内代町１丁目１番２６号２－３階,,27,102,5340013,,,,,,,2025-04-24,1,,,,,チンレイ,0
134,1120003029164,新規,0,2025-04-24,2025-04-24,Ｕｒｂａｎ　Ｒｅｔｒｅａｔ　Ｐｒｏｐｅｒｔｉｅｓ合同会社,,合同会社,大阪府,大阪市港区,市岡３丁目１３番９号,,27,107,5520012,,,,,,,2025-04-24,1,,,,,アーバンリトリートプロパティーズ,0
135,1120003029189,新規,0,2025-04-24,2025-04-24,ＮＧＵＹＥＮ　ＮＨＩ合同会社,,合同会社,大阪府,大阪市住吉区,長居東４丁目２１－７－４０４,,27,120,5580004,,,,,,,2025-04-24,1,,,,,グエンニー,0
140,1120101071530,新規,0,2025-04-24,2025-04-24,拓心興業株式会社,,株式会社,大阪府,松原市,天美北２丁目７,,27,217,5800031,,,,,,,2025-04-24,1,,,,,タクシンコウギョウ,0
141,1120101071539,新規,0,2025-04-24,2025-04-24,株式会社建正,,株式会社,大阪府,岸和田市,岡山町５２１番地の４,,27,202,5960814,,,,,,,2025-04-24,1,,,,,ケンセイ,0
142,1120101071547,新規,0,2025-04-24,2025-04-24,悠悠子屋株式会社,,株式会社,大阪府,泉佐野市,鶴原１１７１番地の９,,27,213,5980071,,,,,,,2025-04-24,1,,,,,ユウユウコヤ,0
143,1120103006419,新規,0,2025-04-24,2025-04-24,ＨＩ‐ＴＯＰＰＥＲ合同会社,,合同会社,大阪府,富田林市,大字嬉２８３番地８２,,27,214,5840056,,,,,,,2025-04-24,1,,,,,ハイトッパー,0
159,1140001138262,新規,0,2025-04-24,2025-04-24,原田パソコンサービス株式会社,,株式会社,兵庫県,淡路市,里３８８番地,,28,226,6562143,,,,,,,2025-04-24,1,,,,,ハラダパソコンサービス,0
160,1140001138287,新規,0,2025-04-24,2025-04-24,株式会社ＰＭＡ音楽教室,,株式会社,兵庫県,西宮市,学文殿町１丁目１０番１９号,,28,204,6638182,,,,,,,2025-04-24,1,,,,,ピーエムエーオンガクキョウシツ,0
161,1140001138295,新規,0,2025-04-24,2025-04-24,株式会社ＯＲＯＲＡ,,株式会社,兵庫県,尼崎市,東塚口町１丁目１５番１,,28,202,6610011,,,,,,,2025-04-24,1,,,,,オーロラ,0
176,1180001166516,新規,0,2025-04-24,2025-04-24,株式会社ＡＩＰＡＣＥ,,株式会社,愛知県,名古屋市中区,丸の内３丁目２３番２３号,,23,106,4600002,,,,,,,2025-04-24,1,,,,,アイペース,0
177,1180003028367,新規,0,2025-04-24,2025-04-24,合同会社ｆｕｔｕｒｅ,,合同会社,愛知県,名古屋市南区,中江２丁目１２番２０号,,23,112,4570004,,,,,,,2025-04-24,1,,,,,フューチャー,0
179,1180301039751,新規,0,2025-04-24,2025-04-24,株式会社まつい建築,,株式会社,愛知県,新城市,乗本字赤峰１番地２,,23,221,4411633,,,,,,,2025-04-24,1,,,,,マツイケンチク,0
180,1180305009684,新規,0,2025-04-24,2025-04-24,一般財団法人河野財団,,その他の設立登記法人,愛知県,岡崎市,庄司田１丁目１１番地１０,,23,202,4440821,,,,,,,2025-04-24,1,,,,,カワノザイダン,0
186,1200001043670,新規,0,2025-04-24,2025-04-24,株式会社アザレア,,株式会社,岐阜県,高山市,末広町２７番地２,,21,203,5060016,,,,,,,2025-04-24,1,,,,,アザレア,0
197,1230001020865,新規,0,2025-04-24,2025-04-24,株式会社いい色,,株式会社,富山県,滑川市,大崎野３１７番地１,,16,206,9360833,,,,,,,2025-04-24,1,,,,,イイイロ,0
201,1240001064853,新規,0,2025-04-24,2025-04-24,株式会社ＲＯＳＳＯ,,株式会社,広島県,三原市,港町１丁目２番１８号,,34,204,7230017,,,,,,,2025-04-24,1,,,,,ロッソ,0
207,1260001040142,新規,0,2025-04-24,2025-04-24,株式会社ＣＳＲ,,株式会社,岡山県,岡山市南区,万倍４７番地２,,33,104,7000955,,,,,,,2025-04-24,1,,,,,シィエスアール,0
208,1260001040150,新規,0,2025-04-24,2025-04-24,ア・ブレイク工業株式会社,,株式会社,岡山県,岡山市南区,築港ひかり町１２番１８号,,33,104,7028054,,,,,,,2025-04-24,1,,,,,アブレイクコウギョウ,0
216,1280001009417,新規,0,2025-04-24,2025-04-24,株式会社建築大工野田,,株式会社,島根県,邑智郡邑南町,鱒渕４０７番地,,32,449,6960221,,,,,,,2025-04-24,1,,,,,ケンチクダイクノダ,0
219,1290001109810,新規,0,2025-04-24,2025-04-24,株式会社作研,,株式会社,福岡県,福岡市中央区,春吉２丁目１２番１４号デザインセンタービルＩＩ３０７号,00138890,40,133,8100003,,,,,,,2025-04-24,1,,,,,サクケン,0
224,1310001019569,新規,0,2025-04-24,2025-04-24,株式会社西山農園,,株式会社,長崎県,西彼杵郡時津町,久留里郷９５８番地７,,42,308,8512107,,,,,,,2025-04-24,1,,,,,ニシヤマノウエン,0
230,1340001027288,新規,0,2025-04-24,2025-04-24,株式会社ミエル,,株式会社,鹿児島県,いちき串木野市,塩屋町７７番地,,46,219,8960023,,,,,,,2025-04-24,1,,,,,ミエル,0
232,1350001019499,新規,0,2025-04-24,2025-04-24,株式会社ひむかラーニング,,株式会社,宮崎県,日向市,亀崎１丁目３５番地２キコパレス１０５,,45,206,8830066,,,,,,,2025-04-24,1,,,,,ヒムカラーニング,0
239,1360003014860,新規,0,2025-04-24,2025-04-24,合同会社銀色乃月,,合同会社,沖縄県,国頭郡恩納村,字真栄田２６６２番地２－２階２０２号,,47,311,9040417,,,,,,,2025-04-24,1,,,,,ギンイロノツキ,0
243,1380001035254,新規,0,2025-04-24,2025-04-24,株式会社くらしのひととき,,株式会社,福島県,耶麻郡西会津町,上野尻字下沖ノ原２６５０番地１,,07,405,9694512,,,,,,,2025-04-24,1,,,,,クラシノヒトトキ,0
252,1420001019104,新規,0,2025-04-24,2025-04-24,株式会社倖建,,株式会社,青森県,つがる市,柏上古川房田１０６番地６,,02,209,0383103,,,,,,,2025-04-24,1,,,,,コウケン,0
255,1430001094253,新規,0,2025-04-24,2025-04-24,北海道ファシリティ株式会社,,株式会社,北海道,札幌市厚別区,厚別中央三条３丁目４番２号公園ハイツＣ１０３,,01,108,0040053,,,,,,,2025-04-24,1,,,,,ホッカイドウファシリティ,0
260,1450001014606,新規,0,2025-04-24,2025-04-24,株式会社ＫＫＸ,,株式会社,北海道,旭川市,川端町四条４丁目４番７号,,01,204,0700814,,,,,,,2025-04-24,1,,,,,ケーケーエックス,0
272,1700150130178,新規,0,2025-04-24,2025-04-24,Ｎｅａｒｆｉｅｌｄ　Ｉｎｓｔｒｕｍｅｎｔｓ　Ｂ．Ｖ．,,外国会社等,長崎県,長崎市,元船町９－１８　長崎ＢｉｚＰＯＲＴ２Ｆ,,42,201,8500035,Ｖａｒｅｓｅｗｅｇ　５，３０４７　ＡＴ　Ｒｏｔｔｅｒｄａｍ，Ｔｈｅ　Ｎｅｔｈｅｒｌａｎｄｓ．,,,,,,2025-04-24,1,,,,,ニアフイールドインストラメンツ,0
275,2010001254261,新規,0,2025-04-24,2025-04-24,株式会社エンバーク,,株式会社,東京都,中央区,銀座１丁目１２番４号Ｎ＆ＥＢＬＤ．６Ｆ,,13,102,1040061,,,,,,,2025-04-24,1,,,,,エンバーク,0
276,2010001254451,新規,0,2025-04-24,2025-04-24,Ｖｅｄａ株式会社,,株式会社,東京都,千代田区,隼町２番１２号,,13,101,1020092,,,,,,,2025-04-24,1,,,,,ヴェーダ,0
283,2010403034947,新規,0,2025-04-24,2025-04-24,阿賀新潟ＳＰＶ合同会社,,合同会社,東京都,港区,六本木１丁目１０番３－９０１号スウェーデン大使館ビル内,,13,103,1060032,,,,,,,2025-04-24,1,,,,,アガニイガタエスピーブイ,0
286,2010603011515,新規,0,2025-04-24,2025-04-24,ＨａｋｕＺｅｎ　Ｇｒｏｕｐ合同会社,,合同会社,東京都,江東区,有明３丁目７番２６号有明フロンティアビルＢ棟９階,,13,108,1350063,,,,,,,2025-04-24,1,,,,,ハクゼングループ,0
287,2010703007685,新規,0,2025-04-24,2025-04-24,合同会社Ｏｈａｎａ,,合同会社,東京都,品川区,東五反田１丁目２０－１麗佳ビル３階Ｂ号室,,13,109,1410022,,,,,,,2025-04-24,1,,,,,オハナ,0
288,2010803005358,新規,0,2025-04-24,2025-04-24,Ａｌｌ　Ｇｒｅｅｎ合同会社,,合同会社,東京都,大田区,大森北３丁目２４－２真砂ビル２Ｆ,,13,111,1430016,,,,,,,2025-04-24,1,,,,,オールグリーン,0
290,2010901057219,新規,0,2025-04-24,2025-04-24,株式会社Ｒｕｌｅｒ,,株式会社,東京都,世田谷区,太子堂４丁目１８番１５号マガザン三軒茶屋２－３Ｆ－３,,13,112,1540004,,,,,,,2025-04-24,1,,,,,ルーラー,0
295,2011001169136,新規,0,2025-04-24,2025-04-24,株式会社ａｂｒｉ,,株式会社,東京都,渋谷区,神南１丁目１１－４ＦＰＧリンクス神南５階,,13,113,1500041,,,,,,,2025-04-24,1,,,,,アブリ,0
296,2011001169152,新規,0,2025-04-24,2025-04-24,株式会社ＹＳ,,株式会社,東京都,渋谷区,恵比寿西１丁目３０番１３－３０１号,,13,113,1500021,,,,,,,2025-04-24,1,,,,,ワイエス,0
297,2011001169160,新規,0,2025-04-24,2025-04-24,株式会社進園ＲＭＳ,,株式会社,東京都,渋谷区,代々木５丁目１７番１３号,,13,113,1510053,,,,,,,2025-04-24,1,,,,,シンエンアールエムエス,0
298,2011001169169,新規,0,2025-04-24,2025-04-24,株式会社Ｐｅｒｓａｎａ,,株式会社,東京都,渋谷区,松濤１丁目２９番２４号シティコート松濤２０５,,13,113,1500046,,,,,,,2025-04-24,1,,,,,ペルサーナ,0
299,2011001169359,新規,0,2025-04-24,2025-04-24,株式会社ＲＩＴＲＡ,,株式会社,東京都,渋谷区,神山町１７－３テラス神山１Ｆ,,13,113,1500047,,,,,,,2025-04-24,1,,,,,リトラ,0
301,2011003021451,新規,0,2025-04-24,2025-04-24,合同会社ＷａｎｄｅｒＬｉｎｋｓ,,合同会社,東京都,渋谷区,道玄坂１丁目１０番８号渋谷道玄坂東急ビル２Ｆ－Ｃ,,13,113,1500043,,,,,,,2025-04-24,1,,,,,ワンダーリンクス,0
305,2011103015799,新規,0,2025-04-24,2025-04-24,合同会社Ｕｎｉｂｉｔ,,合同会社,東京都,新宿区,西新宿３丁目３番１３号西新宿水間ビル２Ｆ,,13,104,1600023,,,,,,,2025-04-24,1,,,,,ユニビット,0
306,2011103015816,新規,0,2025-04-24,2025-04-24,ＱＳＡ合同会社,,合同会社,東京都,新宿区,西新宿３丁目３番１３号,,13,104,1600023,,,,,,,2025-04-24,1,,,,,キューエスエー,0
308,2011105011400,新規,0,2025-04-24,2025-04-24,一般社団法人日本培養食料学会,,その他の設立登記法人,東京都,新宿区,河田町８番１号東京女子医科大学先端生命医科学研究所,,13,104,1620054,,,,,,,2025-04-24,1,,,,,ニホンバイヨウショクリョウガッカイ,0
309,2011105011409,新規,0,2025-04-24,2025-04-24,特定非営利活動法人新宿・戸山プレイパークの会,,その他の設立登記法人,東京都,新宿区,大久保２丁目３３番３４号（藤山方）,,13,104,1690072,,,,,,,2025-04-24,1,,,,,シンジュクトヤマプレイパークノカイ,0
316,2011501031992,新規,0,2025-04-24,2025-04-24,株式会社誠和グループ,,株式会社,東京都,北区,王子本町１丁目２２－１ＫＳＧビル２０１号室,,13,117,1140022,,,,,,,2025-04-24,1,,,,,セイワグループ,0
322,2011701028277,新規,0,2025-04-24,2025-04-24,株式会社ＭＩＮＤ　ＥＮＥＲＧＹ,,株式会社,東京都,江戸川区,西葛西５丁目７番６号５階５０１,,13,123,1340088,,,,,,,2025-04-24,1,,,,,マインドエナジー,0
332,2020001162538,新規,0,2025-04-24,2025-04-24,株式会社縁結び,,株式会社,神奈川県,川崎市中原区,下小田中２丁目１番１号,,14,133,2110041,,,,,,,2025-04-24,1,,,,,エンムスビ,0
339,2020003028340,新規,0,2025-04-24,2025-04-24,テラナチュロパシカ合同会社,,合同会社,神奈川県,横浜市西区,浅間町１丁目４番地３ウィザードビル４０２,,14,103,2200072,,,,,,,2025-04-24,1,,,,,テラナチュロパシカ,0
343,2021001085027,新規,0,2025-04-24,2025-04-24,株式会社ＫＥＥＰ　ＯＮＥ,,株式会社,神奈川県,厚木市,中町２丁目１０－１１Ｋａｉ－Ｎｅｔビル２Ｆ－Ｂ,,14,212,2430018,,,,,,,2025-04-24,1,,,,,キープワン,0
344,2021001085068,新規,0,2025-04-24,2025-04-24,庄野産業株式会社,,株式会社,神奈川県,小田原市,本町２丁目２番１６号陽輪台小田原２０１,,14,206,2500012,,,,,,,2025-04-24,1,,,,,ショウノサンギョウ,0
350,2030001166034,新規,0,2025-04-24,2025-04-24,ＨｅｉＹａ株式会社,,株式会社,埼玉県,川口市,西川口６丁目４－６第二荻島ビル２階２０４,,11,203,3320021,,,,,,,2025-04-24,1,,,,,ヘイヤ,0
351,2030001166117,新規,0,2025-04-24,2025-04-24,株式会社志高建設,00138908,株式会社,埼玉県,狭山市,入間川２丁目３１番３号Ａｍｂｉｔｉｏｎ入間川２０１,,11,215,3501305,,,,,,,2025-04-24,1,,,,,シコウケンセツ,0
352,2030001166125,新規,0,2025-04-24,2025-04-24,カナウヘルスケア株式会社,,株式会社,埼玉県,越谷市,大字大杉５６１番地１７,,11,222,3430005,,,,,,,2025-04-24,1,,,,,カナウヘルスケア,0
353,2030001166199,新規,0,2025-04-24,2025-04-24,株式会社加藤設計コンサル,,株式会社,埼玉県,越谷市,大成町６丁目３４５番地１,,11,222,3430825,,,,,,,2025-04-24,1,,,,,カトウセッケイコンサル,0
357,2030003026632,新規,0,2025-04-24,2025-04-24,ＫＯＷＡＳＥ合同会社,,合同会社,埼玉県,熊谷市,瀬南４６番地,,11,202,3600834,,,,,,,2025-04-24,1,,,,,コワセ,0
361,2040001138412,新規,0,2025-04-24,2025-04-24,株式会社ＤＡＩＳＨＯ,,株式会社,千葉県,千葉市中央区,本町２丁目１番１６号千葉本町第一生命ビルディング８階,,12,101,2600012,,,,,,,2025-04-24,1,,,,,ダイショウ,0
362,2040001138420,新規,0,2025-04-24,2025-04-24,彩雲株式会社,,株式会社,千葉県,千葉市中央区,神明町１番地２２ガーデンハウス本千葉６０１号,,12,101,2600022,,,,,,,2025-04-24,1,,,,,サイウン,0
363,2040001138445,新規,0,2025-04-24,2025-04-24,帝都リノベーション株式会社,,株式会社,千葉県,千葉市花見川区,幕張町２丁目１２３８－２０５,,12,102,2620032,,,,,,,2025-04-24,1,,,,,テイトリノベーション,0
364,2040001138461,新規,0,2025-04-24,2025-04-24,株式会社ステラアセット,,株式会社,千葉県,船橋市,北本町２丁目６２番５－２１０号,,12,204,2730864,,,,,,,2025-04-24,1,,,,,ステラアセット,0
366,2050001056506,新規,0,2025-04-24,2025-04-24,株式会社タカバン,,株式会社,茨城県,筑西市,布川１５５４番地４,,08,227,3080846,,,,,,,2025-04-24,1,,,,,タカバン,0
370,2070001042883,新規,0,2025-04-24,2025-04-24,株式会社丸和青果,,株式会社,群馬県,高崎市,下大類町１２５８番地,,10,202,3700034,,,,,,,2025-04-24,1,,,,,マルワセイカ,0
372,2080101025465,新規,0,2025-04-24,2025-04-24,エースワン企画株式会社,,株式会社,静岡県,富士宮市,神田川町１１番地の８,,22,207,4180031,,,,,,,2025-04-24,1,,,,,エースワンキカク,0
376,2080403005248,新規,0,2025-04-24,2025-04-24,宮田商事合同会社,,合同会社,静岡県,袋井市,鷲巣１３５番地の１８,,22,216,4370017,,,,,,,2025-04-24,1,,,,,ミヤタショウジ,0
387,2120001274810,新規,0,2025-04-24,2025-04-24,株式会社大喜,,株式会社,大阪府,大阪市住之江区,中加賀屋２丁目２番２５号４階４Ｂ,,27,125,5590017,,,,,,,2025-04-24,1,,,,,タイキ,0
388,2120001274827,新規,0,2025-04-24,2025-04-24,株式会社ＣＧ,,株式会社,大阪府,大阪市浪速区,元町１丁目１３番１７－４０４号,,27,111,5560016,,,,,,,2025-04-24,1,,,,,シージー,0
389,2120001274876,新規,0,2025-04-24,2025-04-24,株式会社Ｆａｙｂｌｅ　Ｊａｐａｎ,,株式会社,大阪府,大阪市浪速区,日本橋西１丁目４番１９号２Ｆ,,27,111,5560004,,,,,,,2025-04-24,1,,,,,フェイブルジャパン,0
390,2120001274950,新規,0,2025-04-24,2025-04-24,明熙株式会社,,株式会社,大阪府,大阪市東淀川区,瑞光１丁目２番１１号、３０３号室,,27,114,5330005,,,,,,,2025-04-24,1,,,,,ミンシー,0
391,2120001275263,新規,0,2025-04-24,2025-04-24,ＧＬＯＢＡＬ　ＳＥＷＡ株式会社,,株式会社,大阪府,大阪市東成区,中本１丁目１１－１９ネオ緑橋ハイツ１０６号室,,27,115,5370022,,,,,,,2025-04-24,1,,,,,グローバルセワ,0
392,2120003029196,新規,0,2025-04-24,2025-04-24,Ｎｅｏ　Ｔｅｃｈ合同会社,,合同会社,大阪府,大阪市西成区,萩之茶屋１丁目１２番７号万葉ビル１０号室,,27,122,5570004,,,,,,,2025-04-24,1,,,,,ネオテック,0
394,2120101071496,新規,0,2025-04-24,2025-04-24,緑縁世紀株式会社,,株式会社,大阪府,堺市西区,平岡町１８５－１２－２０１１,,27,144,5938307,,,,,,,2025-04-24,1,,,,,リョクエンセイキ,0
395,2120101071538,新規,0,2025-04-24,2025-04-24,株式会社ヤマヒコ,,株式会社,大阪府,堺市南区,竹城台１丁２番１０１－１１０８号,,27,145,5900105,,,,,,,2025-04-24,1,,,,,ヤマヒコ,0
396,2120101071554,新規,0,2025-04-24,2025-04-24,東泰株式会社,,株式会社,大阪府,堺市南区,高倉台２丁３３番９号,,27,145,5900117,,,,,,,2025-04-24,1,,,,,トウタイ,0
403,2120901050765,新規,0,2025-04-24,2025-04-24,株式会社Ｕｎｉｔｙ　ＨＯＭＥ,,株式会社,大阪府,高槻市,日吉台六番町６２番３１号,,27,207,5691022,,,,,,,2025-04-24,1,,,,,ユニティホーム,0
404,2122001039111,新規,0,2025-04-24,2025-04-24,Ｏｚ．株式会社,,株式会社,大阪府,大東市,大東町７番４８号サンヴェール住道４０１号,,27,218,5740061,,,,,,,2025-04-24,1,,,,,オズ,0
407,2130001079531,新規,0,2025-04-24,2025-04-24,株式会社ｓＨｏｃＨｉ,,株式会社,京都府,宇治市,小倉町西浦４番地コロネード大西２０８,,26,204,6110042,,,,,,,2025-04-24,1,,,,,ショチ,0
412,2130005017355,新規,0,2025-04-24,2025-04-24,特定非営利活動法人うみのさと,,その他の設立登記法人,京都府,京丹後市,久美浜町浦明２０９番地１,,26,212,6293438,,,,,,,2025-04-24,1,,,,,ウミノサト,0
419,2140001138278,新規,0,2025-04-24,2025-04-24,株式会社ＴＭＫ,,株式会社,兵庫県,神戸市須磨区,車字尾鼻４６２番地の２７,,28,107,6540111,,,,,,,2025-04-24,1,,,,,ティーエムケー,0
420,2140001138286,新規,0,2025-04-24,2025-04-24,Ｇｌｏｂａｌ　ＫＯＢＥ株式会社,,株式会社,兵庫県,神戸市北区,中里町１丁目８番地の３２６,,28,109,6511103,,,,,,,2025-04-24,1,,,,,グローバルコウベ,0
421,2140003021969,新規,0,2025-04-24,2025-04-24,合同会社ＷＨＩＴＥ　ＳＴＡＲ,,合同会社,兵庫県,神戸市中央区,北野町３丁目１番６－３０１号,,28,110,6500002,,,,,,,2025-04-24,1,,,,,ホワイトスター,0
422,2140003021977,新規,0,2025-04-24,2025-04-24,合同会社ニューステップ,,合同会社,兵庫県,三田市,須磨田５３５－３,,28,219,6691352,,,,,,,2025-04-24,1,,,,,,0
423,2150001028065,新規,0,2025-04-24,2025-04-24,株式会社インテグラル,,株式会社,奈良県,香芝市,下田西４丁目１８７番地１・１００１号室,,29,210,6390231,,,,,,,2025-04-24,1,,,,,インテグラル,0
428,2180001166374,新規,0,2025-04-24,2025-04-24,株式会社ルミエール,,株式会社,愛知県,名古屋市東区,泉３丁目２０番２号（Ｐｒｏｇｒｅｓｓ泉２０３号）,,23,102,4610001,,,,,,,2025-04-24,1,,,,,ルミエール,0
429,2180001166507,新規,0,2025-04-24,2025-04-24,緑源科学株式会社,,株式会社,愛知県,名古屋市中区,新栄２丁目２９番５号メゾン・ド・レジャンド２１２号,,23,106,4600007,,,,,,,2025-04-24,1,,,,,リョクゲンカガク,0
435,2180303006542,新規,0,2025-04-24,2025-04-24,合同会社あるきの学校,,合同会社,愛知県,西尾市,東幡豆町鳶山１－１１,,23,213,4440701,,,,,,,2025-04-24,1,,,,,アルキノガッコウ,0
438,2200001043678,新規,0,2025-04-24,2025-04-24,ＬＡＮＤＬＯＲＤ株式会社,,株式会社,岐阜県,多治見市,池田町２丁目１４４番地,,21,204,5070048,,,,,,,2025-04-24,1,,,,,ランドロード,0
439,2200003006781,新規,0,2025-04-24,2025-04-24,合同会社小池電工,,合同会社,岐阜県,高山市,下岡本町２２５３番地２４,,21,203,5060052,,,,,,,2025-04-24,1,,,,,コイケデンコウ,0
440,2220003004016,新規,0,2025-04-24,2025-04-24,合同会社三田工業,,合同会社,石川県,河北郡津幡町,字太田ろ１７４番地５,,17,361,9290345,,,,,,,2025-04-24,1,,,,,ミタコウギョウ,0
441,2230005009466,新規,0,2025-04-24,2025-04-24,医療法人社団富山石金歯科,,その他の設立登記法人,富山県,富山市,石金３丁目１－３８,,16,201,9300966,,,,,,,2025-04-24,1,,,,,トヤマイシガネシカ,0
452,2250003003709,新規,0,2025-04-24,2025-04-24,ＥＭＴＥＣ　Ｌａｂ．合同会社,,合同会社,山口県,宇部市,東小串１丁目１番３６号,,35,202,7550068,,,,,,,2025-04-24,1,,,,,エムテックラボ,0
453,2260001040141,新規,0,2025-04-24,2025-04-24,株式会社Ｒｉｓｅ,,株式会社,岡山県,倉敷市,上富井１８８番地３２,,33,202,7100846,,,,,,,2025-04-24,1,,,,,ライズ,0
459,2290001109710,新規,0,2025-04-24,2025-04-24,株式会社グライスホールディングス,,株式会社,福岡県,福岡市西区,大字羽根戸１６８番地１,,40,135,8190038,,,,,,,2025-04-24,1,,,,,グライスホールディングス,0
461,2290003016748,新規,0,2025-04-24,2025-04-24,Ａｙａｃａ合同会社,,合同会社,福岡県,福岡市博多区,博多駅前１丁目２３番２号ＰａｒｋＦｒｏｎｔ博多駅前一丁目５Ｆ－Ｂ,,40,132,8120011,,,,,,,2025-04-24,1,,,,,アヤカ,0
469,2310005008848,新規,0,2025-04-24,2025-04-24,農事組合法人こもれび,,その他の設立登記法人,長崎県,雲仙市,愛野町乙５７０５番地１３,,42,213,8540302,,,,,,,2025-04-24,1,,,,,,0
474,2330001033138,新規,0,2025-04-24,2025-04-24,株式会社レレレ,,株式会社,熊本県,八代市,鷹辻町１番５１号,00138907,43,202,8660866,,,,,,,2025-04-24,1,,,,,レレレ,0
475,2330002031644,新規,0,2025-04-24,2025-04-24,有限会社松本商会,,有限会社,熊本県,水俣市,大黒町１丁目１番３３号,,43,205,8670043,,,,,,,2025-04-24,1,,,,,マツモトショウカイ,0
477,2370001052506,新規,0,2025-04-24,2025-04-24,株式会社伯,,株式会社,宮城県,仙台市宮城野区,榴岡４丁目１番８号－４Ｆ,,04,102,9830852,,,,,,,2025-04-24,1,,,,,ハク,0
479,2370005010939,新規,0,2025-04-24,2025-04-24,一般社団法人ＷＯＭＡＮ’ｓアカデミー,,その他の設立登記法人,宮城県,仙台市太白区,西中田６丁目８番１０－８０６号,,04,104,9811105,,,,,,,2025-04-24,1,,,,,ウーマンズアカデミー,0
481,2390001017969,新規,0,2025-04-24,2025-04-24,株式会社ヴェリテ,,株式会社,山形県,西置賜郡白鷹町,大字鮎貝７１９３番地,,06,402,9920771,,,,,,,2025-04-24,1,,,,,ヴェリテ,0
486,2420001019103,新規,0,2025-04-24,2025-04-24,株式会社Ｂｒｏｔｈｅｒｓ,,株式会社,青森県,黒石市,大字中町３６番地,,02,204,0360377,,,,,,,2025-04-24,1,,,,,ブラザーズ,0
496,2430001094236,新規,0,2025-04-24,2025-04-24,株式会社丸福ホールディングス,,株式会社,北海道,札幌市中央区,南一条西２丁目１番地２,,01,101,0600061,,,,,,,2025-04-24,1,,,,,マルフクホールディングス,0
501,2450001014605,新規,0,2025-04-24,2025-04-24,株式会社清水商店,,株式会社,北海道,旭川市,永山一条１７丁目２番１２号,,01,204,0798411,,,,,,,2025-04-24,1,,,,,シミズショウテン,0
502,2480003002258,新規,0,2025-04-24,2025-04-24,合同会社ＲＥＢＥＬ,,合同会社,徳島県,徳島市,一番町３丁目２８番地,,36,201,7700833,,,,,,,2025-04-24,1,,,,,レベル,0
505,2490005006990,新規,0,2025-04-24,2025-04-24,特定非営利活動法人実生ゆずアップサイクル研究所,,その他の設立登記法人,高知県,安芸市,本町１丁目２番１４号,,39,203,7840004,,,,,,,2025-04-24,1,,,,,ミショウユズアップサイクルケンキュウショ,0
507,2700150130177,新規,0,2025-04-24,2025-04-24,アザレアタウン中央地区土地区画整理組合,,その他,山梨県,山梨市,小原西６４９－１,,19,205,4050006,,,,,,,2025-04-24,1,,,,,アザレアタウンチユウオウチクトチクカクセイリクミアイ,0
518,3010001254442,新規,0,2025-04-24,2025-04-24,株式会社価値創造,,株式会社,東京都,中央区,銀座１丁目１５番８号銀座耀ビル２Ｆ,,13,102,1040061,,,,,,,2025-04-24,1,,,,,カチソウゾウ,0
519,3010001254450,新規,0,2025-04-24,2025-04-24,株式会社ＬｕｎｏＴｅｋ,,株式会社,東京都,千代田区,神田須田町１丁目７番８号ＶＯＲＴ秋葉原ＩＶ２Ｆ,00138910,13,101,1010041,,,,,,,2025-04-24,1,,,,,ルノテック,0
520,3010001254475,新規,0,2025-04-24,2025-04-24,Ｔｒｅａｓｕｒｅ　Ｇａｔｈｅｒｉｎｇ株式会社,,株式会社,東京都,中央区,新川１丁目７番１－３１２号,,13,102,1040033,,,,,,,2025-04-24,1,,,,,トレジャーギャザリング,0
522,3010003047159,新規,0,2025-04-24,2025-04-24,サンライズ３合同会社,,合同会社,東京都,中央区,日本橋１丁目４番１号,,13,102,1030027,,,,,,,2025-04-24,1,,,,,サンライズスリー,0
536,3010601067153,新規,0,2025-04-24,2025-04-24,ＰＡＣＥ株式会社,,株式会社,東京都,江東区,亀戸９丁目３５番１４号,,13,108,1360071,,,,,,,2025-04-24,1,,,,,ペース,0
541,3010801036081,新規,0,2025-04-24,2025-04-24,株式会社ＶｏＮｏ,,株式会社,東京都,大田区,大森西６丁目１７－１７,,13,111,1430015,,,,,,,2025-04-24,1,,,,,ボノ,0
543,3010901057250,新規,0,2025-04-24,2025-04-24,株式会社Ｈａｍｍｉｎｇ,,株式会社,東京都,世田谷区,等々力７丁目２３番１３号,,13,112,1580082,,,,,,,2025-04-24,1,,,,,ハミング,0
544,3010903009869,新規,0,2025-04-24,2025-04-24,合同会社クアドラ,,合同会社,東京都,世田谷区,祖師谷３丁目４７番１２号,,13,112,1570072,,,,,,,2025-04-24,1,,,,,クアドラ,0
548,3011001169151,新規,0,2025-04-24,2025-04-24,株式会社Ａｒｉ　Ｂｕｆｆ,,株式会社,東京都,渋谷区,道玄坂１丁目１０番８号渋谷道玄坂東急ビル２Ｆ－Ｃ,,13,113,1500043,,,,,,,2025-04-24,1,,,,,アリバフ,0
549,3011001169168,新規,0,2025-04-24,2025-04-24,株式会社ＷＡＹＮＹＳ,,株式会社,東京都,渋谷区,広尾１丁目６番６‐１０２号,,13,113,1500012,,,,,,,2025-04-24,1,,,,,ウェイニーズ,0
550,3011001169408,新規,0,2025-04-24,2025-04-24,株式会社ＧＴＩ‐Ｊａｐａｎ,,株式会社,東京都,渋谷区,渋谷２丁目１９－１５宮益坂ビルディング６０９,,13,113,1500002,,,,,,,2025-04-24,1,,,,,ジーティーアイジャパン,0
551,3011003021467,新規,0,2025-04-24,2025-04-24,２５１合同会社,,合同会社,東京都,渋谷区,恵比寿西２丁目８番４号ＥＸ恵比寿西ビル５階,,13,113,1500021,,,,,,,2025-04-24,1,,,,,ニゴイチ,0
552,3011003021475,新規,0,2025-04-24,2025-04-24,合同会社リシャンス,,合同会社,東京都,渋谷区,道玄坂１丁目１０番８号渋谷道玄坂東急ビル２Ｆ－Ｃ,,13,113,1500043,,,,,,,2025-04-24,1,,,,,リシャンス,0
553,3011003021558,新規,0,2025-04-24,2025-04-24,ＡＲＡＴＡ合同会社,,合同会社,東京都,渋谷区,渋谷２丁目１９－１５宮益坂ビルディング６０９号室,,13,113,1500002,,,,,,,2025-04-24,1,,,,,アラタ,0
556,3011101111467,新規,0,2025-04-24,2025-04-24,ＺＹＺ株式会社,,株式会社,東京都,新宿区,富久町３２－３東新富久町ビル２０８,,13,104,1620067,,,,,,,2025-04-24,1,,,,,ジーゼット,0
563,3011301030541,新規,0,2025-04-24,2025-04-24,株式会社さんかく,,株式会社,東京都,杉並区,上荻２丁目７番１７号,,13,115,1670043,,,,,,,2025-04-24,1,,,,,サンカク,0
564,3011303005517,新規,0,2025-04-24,2025-04-24,ＰＬＩＶＥ合同会社,,合同会社,東京都,杉並区,西荻北３丁目４２番１７－６Ａ号,,13,115,1670042,,,,,,,2025-04-24,1,,,,,プリーブ,0
567,3011501031983,新規,0,2025-04-24,2025-04-24,株式会社ＡｋｏＬｏ,,株式会社,東京都,荒川区,南千住６丁目６６番１２号,,13,118,1160003,,,,,,,2025-04-24,1,,,,,アコロ,0
574,3011801045989,新規,0,2025-04-24,2025-04-24,株式会社ハネクジラ工房,,株式会社,東京都,葛飾区,四つ木１丁目１５番７号ＢＩＺｃｏｍｆｏｒｔ四ツ木０５,,13,122,1240011,,,,,,,2025-04-24,1,,,,,ハネクジラコウボウ,0
575,3011801046013,新規,0,2025-04-24,2025-04-24,株式会社一樹,,株式会社,東京都,足立区,西新井本町１丁目１９番７号,,13,121,1230845,,,,,,,2025-04-24,1,,,,,イッキ,0
576,3011801046021,新規,0,2025-04-24,2025-04-24,株式会社はやぶさ企画,,株式会社,東京都,葛飾区,東金町１丁目１５番１０号メゾンサンテ２０２,,13,122,1250041,,,,,,,2025-04-24,1,,,,,ハヤブサキカク,0
589,3021003015889,新規,0,2025-04-24,2025-04-24,ＲＯＯＪＹモータース合同会社,,合同会社,神奈川県,中郡大磯町,生沢１１３８－１,,14,341,2590102,,,,,,,2025-04-24,1,,,,,ルージモータース,0
593,3030001166124,新規,0,2025-04-24,2025-04-24,株式会社セレンホーム,,株式会社,埼玉県,さいたま市中央区,上落合９丁目８番１２号,,11,105,3380001,,,,,,,2025-04-24,1,,,,,セレンホーム,0
595,3030003026631,新規,0,2025-04-24,2025-04-24,テリハ合同会社,,合同会社,埼玉県,行田市,富士見町１丁目２番地１５,,11,206,3610021,,,,,,,2025-04-24,1,,,,,テリハ,0
600,3040003027406,新規,0,2025-04-24,2025-04-24,合同会社ウェルネクサス,,合同会社,千葉県,野田市,西三ケ尾４８４番地の６,,12,208,2780015,,,,,,,2025-04-24,1,,,,,ウェルネクサス,0
605,3070003005887,新規,0,2025-04-24,2025-04-24,合同会社プライル,,合同会社,群馬県,高崎市,貝沢町７１４番地１サンクレイドル高崎問屋町ステーションアリーナ１１０４号,,10,202,3700042,,,,,,,2025-04-24,1,,,,,プライル,0
615,3100003008102,新規,0,2025-04-24,2025-04-24,合同会社みぎわ,,合同会社,長野県,飯山市,大字瑞穂６１１７番地２,,20,213,3892322,,,,,,,2025-04-24,1,,,,,ミギワ,0
616,3110005017208,新規,0,2025-04-24,2025-04-24,長岡南商工会,,その他の設立登記法人,新潟県,長岡市,浦７１５番地１１,,15,202,9495406,,,,,,新潟県長岡市関原町三丁目字上浦甲５７番地関原地区商工会（8110005011115）と新潟県長岡市青葉台一丁目甲１２０番８二和地区商工会（8110005011123）と新潟県長岡市浦７１５番地１１越路町商工会（9110005011378）と新潟県長岡市山古志竹沢乙４６１番地山古志商工会（8110005011379）と新潟県長岡市東川口１９７４番地２０川口町商工会（5110005012801）と新潟県長岡市小国町法坂７３８番地１小国町商工会（8110005012138）の合併により設立,2025-04-24,1,,,,,ナガオカミナミ,0
622,3120001274660,新規,0,2025-04-24,2025-04-24,ＤＩＮＧＯ株式会社,,株式会社,大阪府,大阪市北区,天神橋１丁目１７番２号,,27,127,5300041,,,,,,,2025-04-24,1,,,,,ディンゴ,0
623,3120001274826,新規,0,2025-04-24,2025-04-24,ＷＭ株式会社,,株式会社,大阪府,大阪市中央区,釣鐘町２丁目３番１１－２０１号,,27,128,5400035,,,,,,,2025-04-24,1,,,,,ダブルエム,0
624,3120001274859,新規,0,2025-04-24,2025-04-24,勁＿株式会社,00138906,株式会社,大阪府,大阪市此花区,春日出北３丁目９番４－１０１号,,27,104,5540021,,,,,,,2025-04-24,1,,,,,ケイコウ,0
625,3120001274883,新規,0,2025-04-24,2025-04-24,盛栄株式会社,,株式会社,大阪府,大阪市天王寺区,堂ケ芝２丁目６番３号エムエムヒルズ堂ヶ芝６Ａ,,27,109,5430033,,,,,,,2025-04-24,1,,,,,セイエイ,0
626,3120001275287,新規,0,2025-04-24,2025-04-24,株式会社ＮＯ　ＬＩＭＩＴ,,株式会社,大阪府,守口市,馬場町１丁目２番地６,,27,209,5700062,,,,,,,2025-04-24,1,,,,,ノーリミット,0
629,3120101071545,新規,0,2025-04-24,2025-04-24,ＪＰＲ株式会社,,株式会社,大阪府,泉南郡熊取町,朝代西４丁目１８番７号,,27,361,5900458,,,,,,,2025-04-24,1,,,,,ジェイピーアール,0
630,3120103006417,新規,0,2025-04-24,2025-04-24,合同会社みんなパートナー,,合同会社,大阪府,堺市堺区,宿院町東４丁１番１号阪南ビル４０１,,27,141,5900955,,,,,,,2025-04-24,1,,,,,ミンナパートナー,0
634,3120903005634,新規,0,2025-04-24,2025-04-24,Ｅ＆Ｊ合同会社,,合同会社,大阪府,豊中市,新千里北町３丁目１番１２,,27,203,5600081,,,,,,,2025-04-24,1,,,,,イーアンドジェイ,0
639,3130001079506,新規,0,2025-04-24,2025-04-24,株式会社ＣＯＬＯＲ３,,株式会社,京都府,京都市中京区,町頭町１１２菊三ビル２０１,,26,104,6048206,,,,,,,2025-04-24,1,,,,,カラースリー,0
647,3140001138252,新規,0,2025-04-24,2025-04-24,株式会社宮岡農園,,株式会社,兵庫県,神戸市東灘区,深江浜町１－１－Ａ２１１,,28,101,6580023,,,,,,,2025-04-24,1,,,,,ミヤオカノウエン,0
648,3140001138269,新規,0,2025-04-24,2025-04-24,ベル・ガーデン株式会社,,株式会社,兵庫県,姫路市,岩端町７５番地２,,28,201,6700028,,,,,,,2025-04-24,1,,,,,ベルガーデン,0
649,3140001138319,新規,0,2025-04-24,2025-04-24,株式会社Ｌｙｃｏｒｉｓ,,株式会社,兵庫県,加古郡稲美町,国岡３丁目３番地の６シャーメゾンＹＯＵ－Ｂ２０１号,,28,381,6751115,,,,,,,2025-04-24,1,,,,,リコリス,0
650,3140003021968,新規,0,2025-04-24,2025-04-24,合同会社Ｌｉｅｎ　Ｆｏｒｔ,,合同会社,兵庫県,神戸市中央区,布引町２丁目４番２２－４０１号,,28,110,6510097,,,,,,,2025-04-24,1,,,,,リアンフォール,0
656,3180001166489,新規,0,2025-04-24,2025-04-24,株式会社リグニオ,,株式会社,愛知県,名古屋市南区,豊２丁目１３番２７号,,23,112,4570863,,,,,,,2025-04-24,1,,,,,リグニオ,0
657,3180001166522,新規,0,2025-04-24,2025-04-24,株式会社みら家,,株式会社,愛知県,名古屋市中区,栄２丁目２番１号広小路伏見中駒ビル５Ｆ,,23,106,4600008,,,,,,,2025-04-24,1,,,,,ミライエ,0
660,3180301039741,新規,0,2025-04-24,2025-04-24,株式会社プロヴィアスタッフ,,株式会社,愛知県,岡崎市,十王町２丁目３１番地１,,23,202,4440034,,,,,,,2025-04-24,1,,,,,プロヴィアスタッフ,0
662,3190005012044,新規,0,2025-04-24,2025-04-24,ＮＰＯ法人晴れる家ふくふく,,その他の設立登記法人,三重県,四日市市,東日野町１２８８番地７０,,24,202,5100942,,,,,,,2025-04-24,1,,,,,ハレルヤフクフク,0
667,3200001043677,新規,0,2025-04-24,2025-04-24,株式会社中部プロポ,,株式会社,岐阜県,可児市,菅刈１３６２番地３－２Ｃ,,21,214,5090262,,,,,,,2025-04-24,1,,,,,チュウブプロポ,0
670,3240003007164,新規,0,2025-04-24,2025-04-24,合同会社Ｍａｌｕｌａｎｉ,,合同会社,広島県,広島市安芸区,矢野南１丁目８番１６号,,34,107,7360086,,,,,,,2025-04-24,1,,,,,マルラニ,0
687,3290801031468,新規,0,2025-04-24,2025-04-24,株式会社原田林業,,株式会社,福岡県,築上郡上毛町,大字下唐原２１４８番地３６,,40,646,8710923,,,,,,,2025-04-24,1,,,,,ハラダリンギョウ,0
688,3300001014156,新規,0,2025-04-24,2025-04-24,株式会社ＵＦパートナーズ,,株式会社,佐賀県,嬉野市,嬉野町大字下宿甲３１９１番地１・１Ｆ,,41,209,8430301,,,,,,,2025-04-24,1,,,,,,0
689,3310003004996,新規,0,2025-04-24,2025-04-24,合同会社リミックス,,合同会社,長崎県,長崎市,賑町５－２１パークサイドトラヤビル２０２,,42,201,8500876,,,,,,,2025-04-24,1,,,,,リミックス,0
690,3310005008847,新規,0,2025-04-24,2025-04-24,農事組合法人ほほえみ農園,,その他の設立登記法人,長崎県,雲仙市,愛野町乙５７０５番地１３,,42,213,8540302,,,,,,,2025-04-24,1,,,,,,0
693,3330001033137,新規,0,2025-04-24,2025-04-24,信和グループ株式会社,,株式会社,熊本県,菊池郡大津町,大字瀬田７６６－１,,43,403,8691214,,,,,,,2025-04-24,1,,,,,シンワグループ,0
697,3340001027286,新規,0,2025-04-24,2025-04-24,株式会社ステップ,,株式会社,鹿児島県,姶良市,加治木町新生町１０番地３５７,,46,225,8995223,,,,,,,2025-04-24,1,,,,,ステップ,0
699,3350003004919,新規,0,2025-04-24,2025-04-24,再木造林合同会社,,合同会社,宮崎県,えびの市,大字大河平４２１２番地７,,45,209,8894314,,,,,,,2025-04-24,1,,,,,サイキゾウリン,0
702,3360001035106,新規,0,2025-04-24,2025-04-24,Ｔｈｅ　Ｅａｒｔｈ株式会社,,株式会社,沖縄県,浦添市,屋富祖３丁目１６番１－２０４号ヤフソひまわり,,47,208,9012127,,,,,,,2025-04-24,1,,,,,ジアース,0
707,3360003014867,新規,0,2025-04-24,2025-04-24,合同会社パースファクトリー,,合同会社,沖縄県,沖縄市,大里１丁目９番２０号大里コーポ２０１号室,,47,211,9042163,,,,,,,2025-04-24,1,,,,,パースファクトリー,0
711,3410001014145,新規,0,2025-04-24,2025-04-24,株式会社ＨＥＡＲＴ,,株式会社,秋田県,由利本荘市,花畑町２丁目５９番地,,05,210,0150075,,,,,,,2025-04-24,1,,,,,ハート,0
712,3410003004086,新規,0,2025-04-24,2025-04-24,合同会社高瀬ファーム,,合同会社,秋田県,雄勝郡羽後町,田代字旦金森１２２番地,,05,463,0121241,,,,,,,2025-04-24,1,,,,,タカセファーム,0
715,3420003003104,新規,0,2025-04-24,2025-04-24,合同会社アオモリピュア,,合同会社,青森県,青森市,新田２丁目２６－１０,,02,201,0380001,,,,,,,2025-04-24,1,,,,,アオモリピュア,0
719,3430001094235,新規,0,2025-04-24,2025-04-24,株式会社森のしずく農園,,株式会社,北海道,北広島市,島松４２４－２,,01,234,0611265,,,,,,,2025-04-24,1,,,,,モリノシズクノウエン,0
720,3430001094243,新規,0,2025-04-24,2025-04-24,株式会社ＢＥＥ　ＦＡＣＴＯＲＹ,,株式会社,北海道,札幌市北区,新川二条１０丁目１番２６－２０３号,,01,102,0010922,,,,,,,2025-04-24,1,,,,,ビーファクトリー,0
721,3430001094251,新規,0,2025-04-24,2025-04-24,株式会社ＧＲＡＴＯＳＡ,,株式会社,北海道,札幌市北区,新琴似五条１丁目４番１号Ｌａｔｏ　Ｐａｒｃｏ１０３号,,01,102,0010905,,,,,,,2025-04-24,1,,,,,グラトーサ,0
724,3430005015204,新規,0,2025-04-24,2025-04-24,一般社団法人札幌マンガ・図書等活用まちづくり機構,,その他の設立登記法人,北海道,札幌市中央区,南一条西６丁目２０番地１,,01,101,0600061,,,,,,,2025-04-24,1,,,,,サッポロマンガトショトウカツヨウマチヅクリキコウ,0
729,3470001020682,新規,0,2025-04-24,2025-04-24,株式会社Ｂｌｏｓｓｏｍ,,株式会社,香川県,高松市,三名町７２３番地１,,37,201,7618083,,,,,,,2025-04-24,1,,,,,ブロッサム,0
732,3700150130176,新規,0,2025-04-24,2025-04-24,西条市下島山土地改良区,,その他,愛媛県,西条市,朔日市１４３－１,,38,206,7930027,,,,,,,2025-04-24,1,,,,,サイジヨウシシモシマヤマトチカイリヨウク,0
737,4010001254334,新規,0,2025-04-24,2025-04-24,株式会社マークラインズソフト開発,,株式会社,東京都,千代田区,永田町２丁目１１番１号,,13,101,1000014,,,,,,,2025-04-24,1,,,,,マークラインズソフトカイハツ,0
738,4010001254482,新規,0,2025-04-24,2025-04-24,夢輝貿易株式会社,,株式会社,東京都,中央区,銀座１丁目１９番１２銀座グラスゲートＢ１,,13,102,1040061,,,,,,,2025-04-24,1,,,,,ムキボウエキ,0
741,4010003047166,新規,0,2025-04-24,2025-04-24,合同会社ＭＵＳＨＯＫＵ,,合同会社,東京都,千代田区,神田須田町１丁目７番８号ＶＯＲＴ秋葉原ＩＶ２Ｆ,00138905,13,101,1010041,,,,,,,2025-04-24,1,,,,,ムショク,0
742,4010003047174,新規,0,2025-04-24,2025-04-24,ワンステップ合同会社,,合同会社,東京都,中央区,日本橋室町１丁目１１番１２号日本橋水野ビル７階,,13,102,1030022,,,,,,,2025-04-24,1,,,,,ワンステップ,0
745,4010101016650,新規,0,2025-04-24,2025-04-24,株式会社ＫＫゲームズ,,株式会社,東京都,八王子市,中町３番１２号三田ビル３Ｆ,,13,201,1920085,,,,,,,2025-04-24,1,,,,,ケーケーゲームズ,0
750,4010401189502,新規,0,2025-04-24,2025-04-24,ロケサーチ株式会社,,株式会社,東京都,港区,白金台２丁目４番４号,,13,103,1080071,,,,,,,2025-04-24,1,,,,,ロケサーチ,0
751,4010401189849,新規,0,2025-04-24,2025-04-24,株式会社とざき,,株式会社,東京都,港区,芝３丁目３２番１２－５０１号,,13,103,1050014,,,,,,,2025-04-24,1,,,,,トザキ,0
757,4010803005356,新規,0,2025-04-24,2025-04-24,合同会社やもり,,合同会社,東京都,大田区,西嶺町３２－３,,13,111,1450075,,,,,,,2025-04-24,1,,,,,ヤモリ,0
767,4011001169019,新規,0,2025-04-24,2025-04-24,株式会社未来創作ＷＥＢ,,株式会社,東京都,渋谷区,道玄坂１丁目１０－８渋谷道玄坂東急ビル２Ｆ,,13,113,1500043,,,,,,,2025-04-24,1,,,,,ミライソウサクウェブ,0
768,4011001169290,新規,0,2025-04-24,2025-04-24,株式会社ＰＩＴｂｉｔ,,株式会社,東京都,渋谷区,道玄坂１丁目１０番８号渋谷道玄坂東急ビル２Ｆ－Ｃ,,13,113,1500043,,,,,,,2025-04-24,1,,,,,ピットビット,0
769,4011003021549,新規,0,2025-04-24,2025-04-24,合同会社ＰＩＣＯ,,合同会社,東京都,渋谷区,円山町５番３号ＭＩＥＵＸ渋谷ビル８階,,13,113,1500044,,,,,,,2025-04-24,1,,,,,ピコ,0
772,4011101111524,新規,0,2025-04-24,2025-04-24,株式会社ＳＴＯＲＹ,,株式会社,東京都,新宿区,新宿１丁目３５番９号カテリーナ新宿蔵王４０１,,13,104,1600022,,,,,,,2025-04-24,1,,,,,ストーリー,0
774,4011103015822,新規,0,2025-04-24,2025-04-24,合同会社ｇｒ８ｅｓｔ,,合同会社,東京都,新宿区,西新宿３丁目３番１３号西新宿水間ビル２Ｆ,,13,104,1600023,,,,,,,2025-04-24,1,,,,,グレイテスト,0
776,4011201026300,新規,0,2025-04-24,2025-04-24,株式会社Ｇｌｏｂａｌ　Ｈｅａｌｔｈ　ＪＡＰＡＮ,,株式会社,東京都,中野区,中野４丁目１０番２号中野セントラルパークサウス,,13,114,1640001,,,,,,,2025-04-24,1,,,,,グローバルヘルスジャパン,0
787,4011601028581,新規,0,2025-04-24,2025-04-24,ＳＡＰＡＮＡ株式会社,,株式会社,東京都,練馬区,氷川台３丁目１０番１４号松花荘３０３,,13,120,1790084,,,,,,,2025-04-24,1,,,,,サパナ,0
790,4011605002649,新規,0,2025-04-24,2025-04-24,一般社団法人アジア発展促進会,,その他の設立登記法人,東京都,練馬区,北町３丁目２０番６号サンテックビル３０１号室,,13,120,1790081,,,,,,,2025-04-24,1,,,,,アジアハッテンソクシンカイ,0
791,4011801046020,新規,0,2025-04-24,2025-04-24,株式会社Ｅｘｉｔｏ,,株式会社,東京都,足立区,千住旭町４３番１２号,,13,121,1200026,,,,,,,2025-04-24,1,,,,,エクシト,0
792,4011801046029,新規,0,2025-04-24,2025-04-24,株式会社愛宝,,株式会社,東京都,足立区,西新井栄町３丁目８番１４号,,13,121,1230843,,,,,,,2025-04-24,1,,,,,,0
812,4020003028347,新規,0,2025-04-24,2025-04-24,合同会社Ｃａｒｉｎａ,,合同会社,神奈川県,横浜市中区,海岸通４丁目１７番地,,14,104,2310002,,,,,,,2025-04-24,1,,,,,カリーナ,0
820,4030001166197,新規,0,2025-04-24,2025-04-24,株式会社ＨＯＴ　Ｐｌａｃｅ　Ｏｆｆｉｃｅ,,株式会社,埼玉県,川口市,大字安行領根岸３０７２番地１,,11,203,3330834,,,,,,,2025-04-24,1,,,,,ホットプレイスオフィス,0
821,4030003026647,新規,0,2025-04-24,2025-04-24,合同会社Ｋ＆Ｒ,,合同会社,埼玉県,越谷市,神明町１丁目１３２－１ラ・ルミエールＢ２０１,,11,222,3430805,,,,,,,2025-04-24,1,,,,,ケーアンドアール,0
828,4040003027388,新規,0,2025-04-24,2025-04-24,合同会社泉屋,,合同会社,千葉県,習志野市,藤崎２丁目７番２３号,,12,216,2750017,,,,,,,2025-04-24,1,,,,,イズミヤ,0
829,4040003027421,新規,0,2025-04-24,2025-04-24,みなせ水道合同会社,,合同会社,千葉県,匝瑳市,春海６８０１番地１,,12,235,2892101,,,,,,,2025-04-24,1,,,,,ミナセスイドウ,0
841,4100001038538,新規,0,2025-04-24,2025-04-24,株式会社Ｒｉｓｅ,,株式会社,長野県,諏訪郡原村,１３７７２番地,,20,363,3910100,,,,,,,2025-04-24,1,,,,,ライズ,0
842,4100003008118,新規,0,2025-04-24,2025-04-24,合同会社ｃａｒａｔ,,合同会社,長野県,須坂市,大字須坂４４７フレグランス高橋Ａ棟２０２,,20,207,3820911,,,,,,,2025-04-24,1,,,,,カラット,0
851,4120001274833,新規,0,2025-04-24,2025-04-24,株式会社アクセプト,,株式会社,大阪府,大阪市西淀川区,千舟３丁目１番２－３０１号,,27,113,5550013,,,,,,,2025-04-24,1,,,,,アクセプト,0
852,4120001274858,新規,0,2025-04-24,2025-04-24,Ａｌｌ　Ｇｏｏｄｓ株式会社,,株式会社,大阪府,大阪市淀川区,三津屋南２丁目５番１５号,,27,123,5320035,,,,,,,2025-04-24,1,,,,,オールグッズ,0
853,4120001274874,新規,0,2025-04-24,2025-04-24,株式会社勝継屋,,株式会社,大阪府,大阪市北区,中崎西１丁目５番２２号,,27,127,5300015,,,,,,,2025-04-24,1,,,,,カツグヤ,0
854,4120001274908,新規,0,2025-04-24,2025-04-24,迦音株式会社,,株式会社,大阪府,大阪市此花区,春日出中１丁目９番１３－２０４Ｂ,,27,104,5540022,,,,,,,2025-04-24,1,,,,,カオン,0
855,4120001275195,新規,0,2025-04-24,2025-04-24,佳康株式会社,,株式会社,大阪府,大阪市東住吉区,東田辺３丁目１－１－１Ｆ－Ｃ,,27,121,5460032,,,,,,,2025-04-24,1,,,,,カコウ,0
856,4120003029194,新規,0,2025-04-24,2025-04-24,合同会社グリーン,,合同会社,大阪府,大阪市旭区,太子橋１丁目２３番１０号太子橋一丁目文化住宅２,,27,117,5350001,,,,,,,2025-04-24,1,,,,,グリーン,0
857,4120003029211,新規,0,2025-04-24,2025-04-24,合同会社ミライワークス,,合同会社,大阪府,大阪市福島区,福島２丁目２番２４－７０７号,,27,103,5530003,,,,,,,2025-04-24,1,,,,,ミライワークス,0
858,4120003029260,新規,0,2025-04-24,2025-04-24,合同会社ＭＡＧＡ　Ｐｒｏｐｅｒｔｙ,,合同会社,大阪府,大阪市阿倍野区,松崎町３丁目６番１８号,,27,119,5450053,,,,,,,2025-04-24,1,,,,,マガプロパティ,0
861,4120101071536,新規,0,2025-04-24,2025-04-24,株式会社ケーズオート,,株式会社,大阪府,羽曳野市,広瀬１５１番地,,27,222,5830845,,,,,,,2025-04-24,1,,,,,ケーズオート,0
865,4120103006416,新規,0,2025-04-24,2025-04-24,ＷＥＮＳＨＵＯ合同会社,,合同会社,大阪府,和泉市,鶴山台３丁目３番１２－２０４号,,27,219,5940013,,,,,,,2025-04-24,1,,,,,ウェンショウ,0
866,4120105010003,新規,0,2025-04-24,2025-04-24,一般社団法人ラ・ポーズヴィレッジ,,その他の設立登記法人,大阪府,貝塚市,東山５丁目１番１４号,,27,208,5970046,,,,,,,2025-04-24,1,,,,,ラポーズヴィレッジ,0
869,4120903005625,新規,0,2025-04-24,2025-04-24,ＩｎｄｉｇｏＪＰ合同会社,,合同会社,大阪府,吹田市,中の島町４番４０号４Ａ,,27,205,5640035,,,,,,,2025-04-24,1,,,,,インデイゴジェイピー,0
870,4120903005633,新規,0,2025-04-24,2025-04-24,安藤設備ＹＳ合同会社,,合同会社,大阪府,豊中市,穂積１丁目２番１４号,,27,203,5610856,,,,,,,2025-04-24,1,,,,,アンドウセツビワイエス,0
873,4122005003821,新規,0,2025-04-24,2025-04-24,一般社団法人ＯＮＥ　ＤＩＶＥ,,その他の設立登記法人,大阪府,八尾市,八尾木６丁目１２０－１,,27,212,5810027,,,,,,,2025-04-24,1,,,,,ワンダイブ,0
876,4130001079463,新規,0,2025-04-24,2025-04-24,株式会社富原建工,,株式会社,京都府,亀岡市,河原町２７番地３,,26,206,6210803,,,,,,,2025-04-24,1,,,,,トミハラケンコウ,0
877,4130001079521,新規,0,2025-04-24,2025-04-24,株式会社ｉｋｋｅｎ家具工房,,株式会社,京都府,京都市左京区,高野東開町１番地２３第３住宅１８－４０６,,26,103,6068107,,,,,,,2025-04-24,1,,,,,イッケンカグコウボウ,0
878,4130003010392,新規,0,2025-04-24,2025-04-24,喜舍合同会社,,合同会社,京都府,京都市北区,出雲路俵町４番地,,26,101,6038135,,,,,,,2025-04-24,1,,,,,キシャ,0
881,4140001138227,新規,0,2025-04-24,2025-04-24,龍門株式会社,,株式会社,兵庫県,神戸市東灘区,岡本７丁目２３－１１,,28,101,6580072,,,,,,,2025-04-24,1,,,,,リュウモン,0
882,4140001138276,新規,0,2025-04-24,2025-04-24,株式会社Ｐａｕｌ　ｅｔ　Ｃｒｅａｍ,,株式会社,兵庫県,姫路市,広畑区西蒲田４８１番地５,,28,201,6711107,,,,,,,2025-04-24,1,,,,,ポールエクリーム,0
883,4140001138284,新規,0,2025-04-24,2025-04-24,株式会社レアリズ,,株式会社,兵庫県,神戸市灘区,六甲台町９番１－６０４号,,28,102,6570013,,,,,,,2025-04-24,1,,,,,レアリズ,0
884,4140003021967,新規,0,2025-04-24,2025-04-24,合同会社ｖｏｌｔｚ,,合同会社,兵庫県,神戸市北区,藤原台中町６丁目１０番３号,,28,109,6511302,,,,,,,2025-04-24,1,,,,,ヴォルツ,0
895,4180001166513,新規,0,2025-04-24,2025-04-24,Ａｉｇｉ株式会社,,株式会社,愛知県,名古屋市西区,則武新町３丁目２番１０号,,23,104,4510051,,,,,,,2025-04-24,1,,,,,アイギ,0
899,4180003028364,新規,0,2025-04-24,2025-04-24,合同会社ＹＤＣ,,合同会社,愛知県,稲沢市,井之口北畑町２４４番地,,23,220,4928151,,,,,,,2025-04-24,1,,,,,ワイディーシー,0
900,4180003028389,新規,0,2025-04-24,2025-04-24,合同会社バズ,,合同会社,愛知県,春日井市,牛山町１２９９－６,,23,206,4860901,,,,,,,2025-04-24,1,,,,,バズ,0
902,4190003005008,新規,0,2025-04-24,2025-04-24,合同会社Ｅｓｐａｃｉｏ　ｓｏｌｕｔｉｏｎ,,合同会社,三重県,津市,香良洲町５５４３番地１,,24,201,5140315,,,,,,,2025-04-24,1,,,,,,0
904,4190005012043,新規,0,2025-04-24,2025-04-24,一般社団法人ＬＩＢＥＲＴＥ,,その他の設立登記法人,三重県,伊勢市,上野町３０７番地２７,,24,203,5161104,,,,,,,2025-04-24,1,,,,,リベルテ,0
906,4200001043676,新規,0,2025-04-24,2025-04-24,Ｔａｃｏｏ株式会社,,株式会社,岐阜県,揖斐郡大野町,大字相羽１０６６番地１６５,,21,403,5010522,,,,,,,2025-04-24,1,,,,,タコー,0
915,4260001040148,新規,0,2025-04-24,2025-04-24,株式会社ヴィータ,,株式会社,岡山県,岡山市中区,関５７番地１,,33,102,7038232,,,,,,,2025-04-24,1,,,,,ヴィータ,0
919,4280003001947,新規,0,2025-04-24,2025-04-24,合同会社でんしん,,合同会社,島根県,出雲市,斐川町富村４０３,,32,203,6990621,,,,,,,2025-04-24,1,,,,,デンシン,0
922,4290801031475,新規,0,2025-04-24,2025-04-24,環九メタル株式会社,,株式会社,福岡県,宮若市,鶴田１８９６番地,,40,226,8230002,,,,,,,2025-04-24,1,,,,,カンキュウメタル,0
924,4290803005031,新規,0,2025-04-24,2025-04-24,合同会社Ｋ’ｓファクトリー,,合同会社,福岡県,京都郡苅田町,大字提３５５１－１,,40,621,8000364,,,,,,,2025-04-24,1,,,,,ケーズファクトリー,0
932,4340001027293,新規,0,2025-04-24,2025-04-24,株式会社フクナ,,株式会社,鹿児島県,鹿児島市,武３丁目２０番１８号,,46,201,8900045,,,,,,,2025-04-24,1,,,,,フクナ,0
937,4360003014882,新規,0,2025-04-24,2025-04-24,和花合同会社,,合同会社,沖縄県,宜野湾市,大謝名１丁目２番２２号１Ｆ,,47,205,9012225,,,,,,,2025-04-24,1,,,,,ワカ,0
952,4430001094234,新規,0,2025-04-24,2025-04-24,テニショク株式会社,,株式会社,北海道,札幌市中央区,南一条東２丁目１１番地１,,01,101,0600051,,,,,,,2025-04-24,1,,,,,テニショク,0
953,4430001094242,新規,0,2025-04-24,2025-04-24,北海道福山田舎株式会社,,株式会社,北海道,札幌市中央区,南五条西１５丁目２－３－５０３,,01,101,0640805,,,,,,,2025-04-24,1,,,,,ホッカイドウフクヤマイナカ,0
960,4462501001030,新規,0,2025-04-24,2025-04-24,株式会社日吉総業,00138892,株式会社,北海道,野付郡別海町,尾岱沼潮見町１８番地,,01,691,0861644,,,,,,,2025-04-24,1,,,,,ヒヨシソウギョウ,0
961,4470003002876,新規,0,2025-04-24,2025-04-24,合同会社ＳＯＨＴＥＣ,,合同会社,香川県,高松市,国分寺町新居１１７５番地１,,37,201,7690101,,,,,,,2025-04-24,1,,,,,,0
963,4480003002256,新規,0,2025-04-24,2025-04-24,地域コンサル助っ人合同会社,,合同会社,徳島県,徳島市,津田海岸町８－２４三紅ビル２階,,36,201,7708001,,,,,,,2025-04-24,1,,,,,チイキコンサルスケット,0
967,4490003002008,新規,0,2025-04-24,2025-04-24,合同会社Ｔ＆Ｊ,,合同会社,高知県,高知市,南はりまや町１丁目１６－２３・４０２,,39,201,7800833,,,,,,,2025-04-24,1,,,,,ティアンドジェイ,0
973,4700150130126,新規,0,2025-04-24,2025-04-24,ＹＵＫＩ　ＦＡＭＩＬＹ　ＨＯＵＳＥ　ＰＴＥ．ＬＴＤ,,外国会社等,,,,,,,,１６０　Ｒｏｂｉｎｓｏｎ　Ｒｏａｄ，＃１４－０４，Ｓｉｎｇａｐｏｒｅ　Ｂｕｓｉｎｅｓｓ　Ｆｅｄｅｒａｔｉｏｎ　ＣｅｎｔｅｒＳｉｎｇａｐｏｒｅ０６８９１４,,,,,,2025-04-24,1,,,,,ユキフアミリーハウスピーテイーイーエルテイーデイー,0
974,4700150130175,新規,0,2025-04-24,2025-04-24,ＰＴ　Ｒｅｋａｙａｓａ　Ｉｎｄｕｓｔｒｉ,,外国会社等,,,,,,,,ＪＩ．Ｋａｌｉｂａｔａ　Ｔｉｍｕｒ　Ｉ　Ｎｏ．３６，Ｋａｌｉｂａｔａ，Ｋｅｃ．Ｐａｎｃｏｒａｎ，Ｋｏｔａ　Ｊａｋａｒｔａ　Ｓｅｌａｔａｎ，Ｄａｅｒａｈ　Ｋｈｕｓｕｓ　Ｉｂｕｋｏｔａ　Ｊａｋａｒｔａ　１２７４０　インドネシア,,,,,,2025-04-24,1,,,,,レカヤサ,0
975,4700150130200,新規,0,2025-04-24,2025-04-24,Ｚｈｕｈａｉ　Ｈｅｎｇｑｉｎ　Ｚｈｉｇｕａｎｇ　Ｒｕｎｈｕａ　Ｉｎｄｕｓｔｒｙ　Ｃｏ．Ｌｔｄ,,外国会社等,,,,,,,,Ｏｆｆｉｃｅ　１００７　Ｎｏ．２７１８，Ｈａｏｊｉａｎｇ　Ｒｏａｄ，Ｈｅｎｇｑｉｎ　Ｎｅｗ　Ｄｉｓｔｒｉｃｔ　Ｚｈｕｈａｉ　Ｃｉｔｙ　ＣＮ　５１９０３１,,,,,,2025-04-24,1,,,,,ジューハイヘンチンチグゥアンルンファインダストゥリーカンパニーリミテッド,0
985,5010001254291,新規,0,2025-04-24,2025-04-24,株式会社Ｍｅｄｌｉｎｋ,,株式会社,東京都,中央区,晴海２丁目３－３０,,13,102,1040053,,,,,,,2025-04-24,1,,,,,メドリンク,0
986,5010001254366,新規,0,2025-04-24,2025-04-24,株式会社にじねこ,,株式会社,東京都,中央区,銀座１丁目１２番４号Ｎ＆Ｅ・ＢＬＤ．７階,,13,102,1040061,,,,,,,2025-04-24,1,,,,,ニジネコ,0
987,5010001254374,新規,0,2025-04-24,2025-04-24,株式会社ＣｙｂｅｒＣｒｅｗ,,株式会社,東京都,千代田区,外神田１丁目１８番１３号,,13,101,1010021,,,,,,,2025-04-24,1,,,,,サイバークルー,0
988,5010001254408,新規,0,2025-04-24,2025-04-24,株式会社ＴＲＩＰＬＥ　ＴＡＳＴＥ,,株式会社,東京都,千代田区,飯田橋１丁目６番９号,,13,101,1020072,,,,,,,2025-04-24,1,,,,,トリプルテイスト,0
989,5010001254481,新規,0,2025-04-24,2025-04-24,青空ランドマーク株式会社,,株式会社,東京都,千代田区,岩本町３丁目１０－７東自機ビル７Ｆ－２４号室,,13,101,1010032,,,,,,,2025-04-24,1,,,,,アオゾラランドマーク,0
990,5010001254523,新規,0,2025-04-24,2025-04-24,株式会社Ｒ＆Ｓ　ＣＲＥＡＴＩＶＥＳ,,株式会社,東京都,文京区,小石川３丁目６番１４－１０１号,,13,105,1120002,,,,,,,2025-04-24,1,,,,,アールアンドエスクリエイティブス,0
991,5010003047165,新規,0,2025-04-24,2025-04-24,合同会社ファルコン,,合同会社,東京都,千代田区,神田須田町１丁目７番８号ＶＯＲＴ秋葉原ＩＶ２Ｆ,00138904,13,101,1010041,,,,,,,2025-04-24,1,,,,,ファルコン,0
993,5010005039978,新規,0,2025-04-24,2025-04-24,一般社団法人１６,,その他の設立登記法人,東京都,千代田区,丸の内１丁目４番１号東京共同会計事務所内,,13,101,1000005,,,,,,,2025-04-24,1,,,,,ジュウロク,0
999,5010401189600,新規,0,2025-04-24,2025-04-24,株式会社Ｂｕｌｋ,,株式会社,東京都,港区,北青山１丁目３－３三橋ビル３Ｆ,,13,103,1070061,,,,,,,2025-04-24,1,,,,,バルク,0
1009,5010801036088,新規,0,2025-04-24,2025-04-24,株式会社ミケット,,株式会社,東京都,大田区,下丸子１丁目５番１９号,,13,111,1460092,,,,,,,2025-04-24,1,,,,,ミケット,0
1010,5010803005355,新規,0,2025-04-24,2025-04-24,合同会社レヴラス,,合同会社,東京都,大田区,田園調布４丁目２９番１０号ヒルトップ田園調布１０２,,13,111,1450071,,,,,,,2025-04-24,1,,,,,レヴラス,0
1019,5010903009867,新規,0,2025-04-24,2025-04-24,合同会社ＬＩＮＤＯ,,合同会社,東京都,世田谷区,太子堂４丁目１８番１５号マガザン三軒茶屋２－３Ｆ－３,,13,112,1540004,,,,,,,2025-04-24,1,,,,,リンド,0
1021,5011001169281,新規,0,2025-04-24,2025-04-24,株式会社サンデータイムズ,,株式会社,東京都,目黒区,自由が丘１丁目３番１９号,,13,110,1520035,,,,,,,2025-04-24,1,,,,,サンデータイムズ,0
1022,5011003021473,新規,0,2025-04-24,2025-04-24,合同会社ＫＡＳＨＩ,,合同会社,東京都,目黒区,碑文谷２丁目９－９みすゞ碑文谷マンション３０２,,13,110,1520003,,,,,,,2025-04-24,1,,,,,カシ,0
1023,5011003021531,新規,0,2025-04-24,2025-04-24,ノベニティ合同会社,,合同会社,東京都,渋谷区,神南１丁目１１番４号ＦＰＧリンクス神南５階,,13,113,1500041,,,,,,,2025-04-24,1,,,,,ノベニティ,0
1024,5011003021564,新規,0,2025-04-24,2025-04-24,Ｓｔａｐｌｅ合同会社,,合同会社,東京都,渋谷区,道玄坂１丁目１０番８号,,13,113,1500043,,,,,,,2025-04-24,1,,,,,ステイプル,0
1026,5011101111481,新規,0,2025-04-24,2025-04-24,株式会社ＡＲＣＡＮＥＷＯＲＫＳ,,株式会社,東京都,新宿区,西新宿３丁目３－１３西新宿水間ビル６Ｆ,,13,104,1600023,,,,,,,2025-04-24,1,,,,,アーケインワークス,0
1027,5011101111507,新規,0,2025-04-24,2025-04-24,株式会社Ｏｎｅ　Ｂｉｏｔｅｃｈ,,株式会社,東京都,新宿区,高田馬場１丁目１７番２２号,,13,104,1690075,,,,,,,2025-04-24,1,,,,,ワンバイオテック,0
1028,5011101111531,新規,0,2025-04-24,2025-04-24,株式会社着ぐるみ堂,,株式会社,東京都,新宿区,西新宿８丁目２番３４号新宿マンション４０７,,13,104,1600023,,,,,,,2025-04-24,1,,,,,キグルミドウ,0
1030,5011103015821,新規,0,2025-04-24,2025-04-24,ＱＵＥＴＴＡ合同会社,,合同会社,東京都,新宿区,西新宿２丁目１番１号新宿三井ビル３０階,,13,104,1600023,,,,,,,2025-04-24,1,,,,,クエタ,0
1031,5011201026308,新規,0,2025-04-24,2025-04-24,云端株式会社,,株式会社,東京都,中野区,上高田４丁目４４番４号メゾン中野ヒルズ２０４,,13,114,1640002,,,,,,,2025-04-24,1,,,,,ウンタン,0
1040,5011801045979,新規,0,2025-04-24,2025-04-24,株式会社雄尚,,株式会社,東京都,葛飾区,立石４丁目２番７号,,13,122,1240012,,,,,,,2025-04-24,1,,,,,ユウショウ,0
1041,5011801046028,新規,0,2025-04-24,2025-04-24,株式会社百瀬,,株式会社,東京都,足立区,関原３丁目２３番１６号,,13,121,1230852,,,,,,,2025-04-24,1,,,,,モモセ,0
1048,5012801023925,新規,0,2025-04-24,2025-04-24,株式会社奥冨地質,,株式会社,東京都,国立市,谷保１５４０番地の８,,13,215,1860011,,,,,,,2025-04-24,1,,,,,オクトミチシツ,0
1057,5020001162345,新規,0,2025-04-24,2025-04-24,エフエーディー株式会社,,株式会社,神奈川県,横浜市栄区,小山台２丁目２３番１７号,,14,115,2470002,,,,,,,2025-04-24,1,,,,,エフエーディー,0
1058,5020001162493,新規,0,2025-04-24,2025-04-24,ＫＳＫホールディングス株式会社,,株式会社,神奈川県,横浜市中区,尾上町３丁目２８番地横浜国際ビル８Ｆ,,14,104,2310015,,,,,,,2025-04-24,1,,,,,ケーエスケーホールディングス,0
1063,5020005016836,新規,0,2025-04-24,2025-04-24,南横浜行政書士法人,,その他の設立登記法人,神奈川県,横浜市港南区,港南中央通６番５号２階,,14,111,2330004,,,,,,,2025-04-24,1,,,,,ミナミヨコハマ,0
1067,5021001085073,新規,0,2025-04-24,2025-04-24,株式会社ＥＶ充電技研,,株式会社,神奈川県,横須賀市,追浜東町３丁目８９番地２,,14,201,2370063,,,,,,,2025-04-24,1,,,,,イーブイジュウデンギケン,0
1071,5030001166122,新規,0,2025-04-24,2025-04-24,天驕株式会社,,株式会社,埼玉県,川口市,芝樋ノ爪１丁目１番２２号３階３０１号,,11,203,3330852,,,,,,,2025-04-24,1,,,,,テンキョウ,0
1072,5030001166130,新規,0,2025-04-24,2025-04-24,リハプライムホールディングス株式会社,,株式会社,埼玉県,さいたま市大宮区,桜木町１丁目７番５号,,11,103,3300854,,,,,,,2025-04-24,1,,,,,リハプライムホールディングス,0
1073,5030001166188,新規,0,2025-04-24,2025-04-24,株式会社美建,,株式会社,埼玉県,川口市,大字安行原１４５６番地の２０,,11,203,3340057,,,,,,,2025-04-24,1,,,,,ビケン,0
1076,5030003026654,新規,0,2025-04-24,2025-04-24,ＡＫＩＫＯ　ＴＥＣＨ合同会社,,合同会社,埼玉県,入間市,豊岡１丁目３番２５号半田ビル２階ＫＩＶオフィス入間Ａ号室,,11,225,3580003,,,,,,,2025-04-24,1,,,,,アキコテック,0
1078,5040001138426,新規,0,2025-04-24,2025-04-24,ＡｄｖａｎｃｅｄＥａｓｅ株式会社,,株式会社,千葉県,千葉市花見川区,幕張本郷４丁目９番３８号,,12,102,2620033,,,,,,,2025-04-24,1,,,,,アドバンスイーズ,0
1079,5040001138442,新規,0,2025-04-24,2025-04-24,Ｕｎｉｔｅｄ　Ｔｏｋｙｏ株式会社,,株式会社,千葉県,大網白里市,みずほ台２丁目２５－１７,,12,239,2993234,,,,,,,2025-04-24,1,,,,,ユナイテッドトウキョウ,0
1083,5050001056569,新規,0,2025-04-24,2025-04-24,株式会社宮本ファームリー,,株式会社,茨城県,つくば市,飯田２６４番地,,08,220,3050874,,,,,,,2025-04-24,1,,,,,ミヤモトファームリー,0
1084,5050001056577,新規,0,2025-04-24,2025-04-24,芳賀機械工業株式会社,,株式会社,茨城県,小美玉市,橋場美２３３番地,,08,236,3190101,,,,,,,2025-04-24,1,,,,,ハガキカイコウギョウ,0
1090,5080005007689,新規,0,2025-04-24,2025-04-24,一般社団法人ｐｅａｃｅｆｕｌ　ｄａｙｓ,,その他の設立登記法人,静岡県,藤枝市,茶町４丁目１２番１０号,,22,214,4260023,,,,,,,2025-04-24,1,,,,,ピースフルデイズ,0
1094,5100003008117,新規,0,2025-04-24,2025-04-24,合同会社うさうさのプチファーム,,合同会社,長野県,大町市,大町２１９４番地１号,,20,212,3980002,,,,,,,2025-04-24,1,,,,,ウサウサノプチファーム,0
1095,5110005017214,新規,0,2025-04-24,2025-04-24,くびきの商工会,,その他の設立登記法人,新潟県,上越市,大潟区四ツ屋浜７７３番地,,15,222,9493111,,,,,,新潟県上越市大潟区四ツ屋浜７７３番地大潟商工会（3110005008066）と新潟県上越市吉川区下町１１２６番地吉川コミュニティプラザ３階吉川商工会（8110005008986）と新潟県上越市名立区名立大町１９３番地４名立商工会（5110005009624）と新潟県上越市頸城区百間町６１５番地の２頸城商工会（5110005008163）の合併により設立,2025-04-24,1,,,,,クビキノ,0
1103,5120001274799,新規,0,2025-04-24,2025-04-24,株式会社Ｏｂｐ,,株式会社,大阪府,大阪市城東区,鴫野東３丁目２１番１９号,,27,118,5360013,,,,,,,2025-04-24,1,,,,,オービーピー,0
1104,5120001274832,新規,0,2025-04-24,2025-04-24,ミツバチ匹株式会社,,株式会社,大阪府,大阪市住吉区,長居２丁目１０番３－２０４号,,27,120,5580003,,,,,,,2025-04-24,1,,,,,ミツバチヒキ,0
1105,5120001274865,新規,0,2025-04-24,2025-04-24,株式会社Ｇｒａｎｄ　Ｃｏｎｎｅｃｔ,,株式会社,大阪府,大阪市北区,梅田１丁目２番２号大阪駅前第２ビル１２－１２,,27,127,5300001,,,,,,,2025-04-24,1,,,,,グランドコネクト,0
1106,5120001274907,新規,0,2025-04-24,2025-04-24,質菩株式会社,,株式会社,大阪府,大阪市此花区,春日出中１丁目９番１３－２０４Ａ,,27,104,5540022,,,,,,,2025-04-24,1,,,,,シチボ,0
1107,5120001275194,新規,0,2025-04-24,2025-04-24,竹石居株式会社,,株式会社,大阪府,大阪市都島区,東野田町４丁目１９番８号シャトー栗原３１号,,27,102,5340024,,,,,,,2025-04-24,1,,,,,タケイシイ,0
1110,5120003029227,新規,0,2025-04-24,2025-04-24,合同会社Ｒ＆Ｉ,,合同会社,大阪府,大阪市生野区,巽南１丁目９番２５号、１０１号室,00138894,27,116,5440015,,,,,,,2025-04-24,1,,,,,アールアンドアイ,0
1117,5120901050779,新規,0,2025-04-24,2025-04-24,株式会社Ｇｌｏｂａｌ　Ｉｍｐａｃｔ　Ｓｔｒｅｔａｇｉｅｓ,,株式会社,大阪府,吹田市,寿町２丁目１６番１０号,,27,205,5640036,,,,,,,2025-04-24,1,,,,,グローバルインパクトストレタジーズ,0
1119,5122001039141,新規,0,2025-04-24,2025-04-24,株式会社エムズファイヴ,,株式会社,大阪府,東大阪市,南上小阪４番１１号２０３,,27,227,5770814,,,,,,,2025-04-24,1,,,,,エムズファイヴ,0
1121,5130001079462,新規,0,2025-04-24,2025-04-24,縁結び株式会社,,株式会社,京都府,京都市下京区,中堂寺南町１３４番地,,26,106,6008813,,,,,,,2025-04-24,1,,,,,エンムスビ,0
1122,5130001079487,新規,0,2025-04-24,2025-04-24,やさしい株式会社,,株式会社,京都府,京都市下京区,大黒町２２７番地第２キョートビル４０２号,,26,106,6008043,,,,,,,2025-04-24,1,,,,,ヤサシイ,0
1123,5130001079504,新規,0,2025-04-24,2025-04-24,株式会社アトラクト・オム,,株式会社,京都府,木津川市,加茂町河原樋用１２,,26,214,6191104,,,,,,,2025-04-24,1,,,,,アトラクトオム,0
1124,5130001079520,新規,0,2025-04-24,2025-04-24,株式会社グローバルエッジ,,株式会社,京都府,京都市中京区,西ノ京月輪町１－１パデシオン御池西ノ京グラン３０７,,26,104,6048444,,,,,,,2025-04-24,1,,,,,グローバルエッジ,0
1135,5140001138275,新規,0,2025-04-24,2025-04-24,株式会社ＫＳＳ警備,,株式会社,兵庫県,神戸市兵庫区,楠谷町３４－１２,,28,105,6520004,,,,,,,2025-04-24,1,,,,,ケイエスエスケイビ,0
1136,5140003021974,新規,0,2025-04-24,2025-04-24,合同会社ＭＩＴＳＵＷＡ,,合同会社,兵庫県,尼崎市,南七松町２丁目４－３５,,28,202,6600053,,,,,,,2025-04-24,1,,,,,ミツワ,0
1137,5150003003583,新規,0,2025-04-24,2025-04-24,Ｈ．Ａ　Ａｕｔｏ合同会社,,合同会社,奈良県,大和高田市,大字大中２５番９－Ｂ号,,29,202,6350095,,,,,,,2025-04-24,1,,,,,エイチエーオート,0
1140,5160005011402,新規,0,2025-04-24,2025-04-24,一般社団法人北の近江マザーレイク共創会議,,その他の設立登記法人,滋賀県,長浜市,西浅井町大浦２５９０番地,,25,203,5290721,,,,,,,2025-04-24,1,,,,,キタノオウミマザーレイクキョウソウカイギ,0
1147,5180001166504,新規,0,2025-04-24,2025-04-24,株式会社Ｆａｉｒ　Ｔｒｅｓ,,株式会社,愛知県,春日井市,如意申町１丁目３番３,,23,206,4860918,,,,,,,2025-04-24,1,,,,,フェアトレス,0
1148,5180001166545,新規,0,2025-04-24,2025-04-24,株式会社エンジョイ,,株式会社,愛知県,あま市,七宝町遠島新開１１２番地,,23,237,4970002,,,,,,,2025-04-24,1,,,,,エンジョイ,0
1154,5180005021069,新規,0,2025-04-24,2025-04-24,名古屋身元保証センター一般社団法人,,その他の設立登記法人,愛知県,名古屋市南区,西又兵ヱ町２丁目１０７番地,,23,112,4570835,,,,,,,2025-04-24,1,,,,,ナゴヤミモトホショウセンター,0
1158,5190003004999,新規,0,2025-04-24,2025-04-24,合同会社Ｋ‐ａｉ,,合同会社,三重県,伊賀市,東高倉２３７８番地の１６,,24,216,5180024,,,,,,,2025-04-24,1,,,,,ケーエーアイ,0
1160,5220001026629,新規,0,2025-04-24,2025-04-24,株式会社Ｍｅｉｂａ,,株式会社,石川県,小松市,安宅町カ６番地,,17,203,9230003,,,,,,,2025-04-24,1,,,,,メイバ,0
1162,5220005008961,新規,0,2025-04-24,2025-04-24,医療法人Ｒｉｃａｍａｔｏｒｅ,,その他の設立登記法人,石川県,金沢市,安江町１４番１号金沢雅壇１０１区画,,17,201,9200854,,,,,,,2025-04-24,1,,,,,リカマトレ,0
1171,5260001040139,新規,0,2025-04-24,2025-04-24,共栄水産株式会社,,株式会社,岡山県,瀬戸内市,邑久町尻海２８５５番地２５,,33,212,7014212,,,,,,,2025-04-24,1,,,,,キョウエイスイサン,0
1176,5290001109757,新規,0,2025-04-24,2025-04-24,４Ｋ株式会社,,株式会社,福岡県,福岡市博多区,千代３丁目３４番１号,,40,132,8120044,,,,,,,2025-04-24,1,,,,,ヨンケー,0
1187,5340003004835,新規,0,2025-04-24,2025-04-24,合同会社ＲＨＥＡ＆ＭＩＡＮ,,合同会社,鹿児島県,鹿児島市,東郡元町１９番１０－８０６号,,46,201,8900068,,,,,,,2025-04-24,1,,,,,リアアンドミアン,0
1188,5360001035095,新規,0,2025-04-24,2025-04-24,株式会社ＫＡＯＲＵ産業,,株式会社,沖縄県,沖縄市,泡瀬２丁目１５番１０号,,47,211,9042172,,,,,,,2025-04-24,1,,,,,カオルサンギョウ,0
1189,5360001035104,新規,0,2025-04-24,2025-04-24,株式会社ギャルマインド,,株式会社,沖縄県,石垣市,字石垣４６４番地１０レジデンスＪ７０１,,47,207,9070023,,,,,,,2025-04-24,1,,,,,ギャルマインド,0
1190,5360003014881,新規,0,2025-04-24,2025-04-24,ＫＯＫＫＡ　ＯＫＩＮＡＷＡ合同会社,,合同会社,沖縄県,那覇市,前島３丁目１６番１８号国吉ビル２０２号,,47,201,9000016,,,,,,,2025-04-24,1,,,,,コッカオキナワ,0
1198,5400001017015,新規,0,2025-04-24,2025-04-24,株式会社ハイパーフード・アクア,,株式会社,岩手県,大船渡市,大船渡町字欠ノ下向１番地２テツゲンメタウォーターアクアアグリ内,,03,203,0220002,,,,,,,2025-04-24,1,,,,,ハイパーフードアクア,0
1201,5400005008480,新規,0,2025-04-24,2025-04-24,公益社団法人花巻共立会,,その他の設立登記法人,岩手県,花巻市,御田屋町４番５６号,,03,205,0250082,,,,,,岩手県花巻市御田屋町４番５６号公益財団法人総合花巻病院（2400005002949）及び岩手県花巻市御田屋町４番５６号一般社団法人花巻共立会（3400005008433）の合併により設立,2025-04-24,1,,,,,ハナマキキョウリツカイ,0
1202,5410001014143,新規,0,2025-04-24,2025-04-24,ライデックス株式会社,,株式会社,秋田県,秋田市,将軍野堰越２番６号,,05,201,0110933,,,,,,,2025-04-24,1,,,,,ライデックス,0
1219,5500003003498,新規,0,2025-04-24,2025-04-24,合同会社イケウチアキヒロ,,合同会社,愛媛県,松山市,市坪南１丁目５番２４号,,38,201,7900947,,,,,,,2025-04-24,1,,,,,イケウチアキヒロ,0
1224,5700150130125,新規,0,2025-04-24,2025-04-24,Ｅｖｅｒｗｉｎ　Ｉｎｔｅｒｎａｔｉｏｎａｌ　Ｉｎｖｅｓｔｍｅｎｔ　Ｈｏｌｄｉｎｇｓ　Ｌｉｍｉｔｅｄ,,外国会社等,,,,,,,,Ｇ／Ｆ　Ｎｏ．４７　Ｔｕｎｇ　Ｓｔｒｅｅｔ　Ｓｈｅｎｇ　Ｗａｎ，ＨｏｎｇＫｏｎｇ,,,,,,2025-04-24,1,,,,,エバーウインインターナシヨナルインベストメントホールデイングスリミテツド,0
1225,5700150130174,新規,0,2025-04-24,2025-04-24,二宮中部土地改良区,,その他,栃木県,真岡市,石島８９３番地１５,,09,209,3214507,,,,,,,2025-04-24,1,,,,,ニノミヤチユウブトチカイリヨウク,0
1226,5700150130199,新規,0,2025-04-24,2025-04-24,ＱＵＡＳＣＡＰ　ＪＡＰＡＮ,,その他,東京都,港区,赤坂２丁目１３番１３号,,13,103,1070052,,,,,,,2025-04-24,1,,,,,カスカップジャパン,0
1227,6010001254209,新規,0,2025-04-24,2025-04-24,ＩＶ　Ｇｒｏｕｐ　Ｊａｐａｎ株式会社,,株式会社,東京都,中央区,銀座７丁目１２－４友野本社ビル８０１,,13,102,1040061,,,,,,,2025-04-24,1,,,,,アイブイグループジャパン,0
1228,6010001254398,新規,0,2025-04-24,2025-04-24,株式会社Ｎｅｘｔ　Ｄｒｅａｍ,,株式会社,東京都,中央区,勝どき６丁目３番２－３６１０号,,13,102,1040054,,,,,,,2025-04-24,1,,,,,ネクストドリーム,0
1229,6010001254407,新規,0,2025-04-24,2025-04-24,株式会社ｐｌｉｃａｒｉ,,株式会社,東京都,千代田区,飯田橋１丁目６番９号,,13,101,1020072,,,,,,,2025-04-24,1,,,,,プリカリ,0
1230,6010001254448,新規,0,2025-04-24,2025-04-24,Ｋｉａ　ＰＢＶジャパン株式会社,,株式会社,東京都,千代田区,内幸町２丁目１番１号,,13,101,1000011,,,,,,,2025-04-24,1,,,,,キアピービーヴィジャパン,0
1231,6010001254480,新規,0,2025-04-24,2025-04-24,夕墨株式会社,,株式会社,東京都,千代田区,神田佐久間町３丁目３８第５東ビル５Ｆ－１７号室,,13,101,1010025,,,,,,,2025-04-24,1,,,,,ユウスミ,0
1232,6010001254522,新規,0,2025-04-24,2025-04-24,日本養殖株式会社,,株式会社,東京都,中央区,銀座１丁目２２番１１号銀座大竹ビジデンス２Ｆ,,13,102,1040061,,,,,,,2025-04-24,1,,,,,ニホンヨウショク,0
1236,6010003047172,新規,0,2025-04-24,2025-04-24,ノダプロ合同会社,,合同会社,東京都,文京区,白山５丁目１３－２－１２０１,,13,105,1120001,,,,,,,2025-04-24,1,,,,,ノダプロ,0
1241,6010401189871,新規,0,2025-04-24,2025-04-24,株式会社エコビジョン・トップライン,,株式会社,東京都,港区,浜松町１丁目２番１４号,,13,103,1050013,,,,,,,2025-04-24,1,,,,,エコビジョントップライン,0
1255,6010605004447,新規,0,2025-04-24,2025-04-24,医療法人社団広瞭会,,その他の設立登記法人,東京都,江東区,亀戸５丁目３番２号サンタモニカ亀戸２階,,13,108,1360071,,,,,,,2025-04-24,1,,,,,コウリョウカイ,0
1258,6010703007681,新規,0,2025-04-24,2025-04-24,エネバランス合同会社,,合同会社,東京都,品川区,西五反田２丁目１３－１プレジデントハイツ五反田３１３,,13,109,1410031,,,,,,,2025-04-24,1,,,,,エネバランス,0
1264,6011001168522,新規,0,2025-04-24,2025-04-24,トリリオン・コネクト・ジャパン株式会社,,株式会社,東京都,渋谷区,千駄ヶ谷５丁目２７番５号リンクスクエア新宿１６階,,13,113,1510051,,,,,,,2025-04-24,1,,,,,トリリオンコネクトジャパン,0
1265,6011001169140,新規,0,2025-04-24,2025-04-24,株式会社山水,,株式会社,東京都,目黒区,上目黒５丁目６番２号レジディア上目黒１０４,,13,110,1530051,,,,,,,2025-04-24,1,,,,,サンスイ,0
1266,6011001169149,新規,0,2025-04-24,2025-04-24,株式会社ビルキッド,,株式会社,東京都,渋谷区,渋谷３丁目１０番１３号Ｂ１,,13,113,1500002,,,,,,,2025-04-24,1,,,,,ビルキッド,0
1267,6011001169157,新規,0,2025-04-24,2025-04-24,株式会社Ｍｉｎａｒｏ,,株式会社,東京都,渋谷区,東２丁目１７番９号ＪＰ－ＢＡＳＥ渋谷５階,,13,113,1500011,,,,,,,2025-04-24,1,,,,,ミナロ,0
1268,6011001169173,新規,0,2025-04-24,2025-04-24,株式会社ココダケ,,株式会社,東京都,渋谷区,渋谷２丁目１９－１５宮益坂ビルディング６０９,,13,113,1500002,,,,,,,2025-04-24,1,,,,,ココダケ,0
1269,6011001169405,新規,0,2025-04-24,2025-04-24,株式会社ダイレクトヒューマンマーケティング,,株式会社,東京都,渋谷区,神宮前６丁目２３番４号桑野ビル２階,,13,113,1500001,,,,,,,2025-04-24,1,,,,,ダイレクトヒューマンマーケティング,0
1270,6011003020879,新規,0,2025-04-24,2025-04-24,Ｌｕｄｉｃ　Ｖｏｙａｇｅ合同会社,,合同会社,東京都,渋谷区,渋谷２丁目１９―１５宮益坂ビルディング６０９,,13,113,1500002,,,,,,,2025-04-24,1,,,,,ルディックボヤージュ,0
1271,6011003021456,新規,0,2025-04-24,2025-04-24,ＳＩＮＥ合同会社,,合同会社,東京都,渋谷区,渋谷２丁目１９－１５宮益坂ビルディング６０９,,13,113,1500002,,,,,,,2025-04-24,1,,,,,サイン,0
1274,6011101111547,新規,0,2025-04-24,2025-04-24,株式会社イデアルクリエイト,,株式会社,東京都,新宿区,百人町１丁目９番１４号,,13,104,1690073,,,,,,,2025-04-24,1,,,,,イデアルクリエイト,0
1277,6011103015804,新規,0,2025-04-24,2025-04-24,創業スタートブック合同会社,,合同会社,東京都,新宿区,新宿１丁目３６番２号第七葉山ビル３階,,13,104,1600022,,,,,,,2025-04-24,1,,,,,ソウギョウスタートブック,0
1278,6011103015820,新規,0,2025-04-24,2025-04-24,合同会社幸福,,合同会社,東京都,新宿区,大久保１丁目１６番２８号アミティホールＶＩ２－Ｂ号室,00138911,13,104,1690072,,,,,,,2025-04-24,1,,,,,コウフク,0
1279,6011103015829,新規,0,2025-04-24,2025-04-24,合同会社ＲＩＶｅ,,合同会社,東京都,新宿区,矢来町４４－１グランパセオ神楽坂４０２,,13,104,1620805,,,,,,,2025-04-24,1,,,,,ライブ,0
1286,6011301030530,新規,0,2025-04-24,2025-04-24,株式会社Ｒ＆Ｍ,,株式会社,東京都,杉並区,成田西１丁目１６番１０号,,13,115,1660016,,,,,,,2025-04-24,1,,,,,アールアンドエム,0
1291,6011503006502,新規,0,2025-04-24,2025-04-24,ＡＢＩＬＩＴＩＥＳ　ＪＡＰＡＮ合同会社,,合同会社,東京都,荒川区,東尾久６丁目３０番１１号,,13,118,1160012,,,,,,,2025-04-24,1,,,,,アビリティーズジャパン,0
1296,6011801046019,新規,0,2025-04-24,2025-04-24,誠和株式会社,,株式会社,東京都,葛飾区,新宿６丁目２番１－４１５号シティタワー金町タワー棟,,13,122,1250051,,,,,,,2025-04-24,1,,,,,セイワ,0
1297,6011801046027,新規,0,2025-04-24,2025-04-24,株式会社モモ,,株式会社,東京都,足立区,関原３丁目２３番１６号,,13,121,1230852,,,,,,,2025-04-24,1,,,,,モモ,0
1298,6011803006821,新規,0,2025-04-24,2025-04-24,ＫＮ　Ｌｉｆｅ　Ｉｎｎｏｖａｔｉｏｎ合同会社,,合同会社,東京都,葛飾区,東金町３丁目１７番１０号ＫＢＳＦ－１８,,13,122,1250041,,,,,,,2025-04-24,1,,,,,ケーエヌライフイノベーション,0
1305,6012801023924,新規,0,2025-04-24,2025-04-24,シルバーコタエ芸術株式会社,,株式会社,東京都,日野市,多摩平６丁目１６－１５ファミーユ池谷３０６号室,,13,212,1910062,,,,,,,2025-04-24,1,,,,,シルバーコタエゲイジュツ,0
1335,6030001166039,新規,0,2025-04-24,2025-04-24,株式会社ＥＣＲＯＳＳ,,株式会社,埼玉県,上尾市,泉台３丁目２２番地２８,,11,219,3620062,,,,,,,2025-04-24,1,,,,,エクロス,0
1336,6030001166121,新規,0,2025-04-24,2025-04-24,株式会社咲和,,株式会社,埼玉県,川口市,元郷２丁目１５番１－４３０５号,,11,203,3320011,,,,,,,2025-04-24,1,,,,,ショウワ,0
1337,6030001166138,新規,0,2025-04-24,2025-04-24,Ｚマネジメント株式会社,,株式会社,埼玉県,さいたま市西区,三橋６丁目１３５７番地５,,11,101,3310052,,,,,,,2025-04-24,1,,,,,ゼットマネジメント,0
1338,6030001166154,新規,0,2025-04-24,2025-04-24,あさけん株式会社,,株式会社,埼玉県,さいたま市浦和区,針ヶ谷２丁目９番２号シティパル童夢３０１,,11,107,3300075,,,,,,,2025-04-24,1,,,,,アサケン,0
1339,6030001166170,新規,0,2025-04-24,2025-04-24,株式会社ＫＴ‐ＵＰ,,株式会社,埼玉県,坂戸市,大字石井１８８４番地２３,,11,239,3500212,,,,,,,2025-04-24,1,,,,,ケーティーアップ,0
1340,6030001166179,新規,0,2025-04-24,2025-04-24,株式会社ＭＫ　ｐｌａｎｎｉｎｇ,,株式会社,埼玉県,ふじみ野市,上福岡１丁目１４－１７－２階,,11,245,3560004,,,,,,,2025-04-24,1,,,,,エムケープランニング,0
1341,6030001166220,新規,0,2025-04-24,2025-04-24,株式会社さんでぃず,,株式会社,埼玉県,鴻巣市,南１丁目１７番７号,,11,217,3690122,,,,,,,2025-04-24,1,,,,,サンディズ,0
1346,6030003026653,新規,0,2025-04-24,2025-04-24,ＳＡＫＵＲＡ　ＷＯＲＫＳ合同会社,,合同会社,埼玉県,入間郡毛呂山町,大字西大久保７１１番地１３,,11,326,3500433,,,,,,,2025-04-24,1,,,,,サクラワークス,0
1350,6040001138292,新規,0,2025-04-24,2025-04-24,絆グローバル株式会社,,株式会社,千葉県,野田市,山崎１５８１番地２,,12,208,2780022,,,,,,,2025-04-24,1,,,,,キズナグローバル,0
1351,6040001138409,新規,0,2025-04-24,2025-04-24,株式会社ｍａｒｕｇｏ,,株式会社,千葉県,南房総市,富浦町原岡２番地,,12,234,2992403,,,,,,,2025-04-24,1,,,,,マルゴ,0
1352,6040003027262,新規,0,2025-04-24,2025-04-24,プライム合同会社,,合同会社,千葉県,富里市,日吉台５丁目１７－１,,12,233,2860201,,,,,,,2025-04-24,1,,,,,プライム,0
1353,6040003027411,新規,0,2025-04-24,2025-04-24,新倍克合同会社,,合同会社,千葉県,松戸市,小山５２３番地の８サングリーン松戸Ｂ－１１５,,12,207,2710093,,,,,,,2025-04-24,1,,,,,シンバイカ,0
1359,6050001056584,新規,0,2025-04-24,2025-04-24,株式会社健心舎,,株式会社,茨城県,龍ケ崎市,松葉５丁目１０番地９,,08,208,3010043,,,,,,,2025-04-24,1,,,,,ケンシンシャ,0
1364,6050003009219,新規,0,2025-04-24,2025-04-24,合同会社ＴＲｉＭ,,合同会社,茨城県,つくばみらい市,絹の台６丁目１２番地２１,,08,235,3002436,,,,,,,2025-04-24,1,,,,,トリム,0
1366,6060003005514,新規,0,2025-04-24,2025-04-24,ＭＡＲＡＬ　ＥＲＤＥＭ合同会社,,合同会社,栃木県,宇都宮市,馬場通り３丁目４番１２号インペリアル宇都宮６０２,,09,201,3200026,,,,,,,2025-04-24,1,,,,,マラルエルデム,0
1368,6070001042871,新規,0,2025-04-24,2025-04-24,セルセラピー株式会社,,株式会社,群馬県,高崎市,江木町４０９番地６エトワール江木６０３号室,,10,202,3700046,,,,,,,2025-04-24,1,,,,,セルセラピー,0
1369,6070003005892,新規,0,2025-04-24,2025-04-24,ＺＩＯＮ合同会社,,合同会社,群馬県,邑楽郡千代田町,大字舞木５１番地の６０,,10,523,3700504,,,,,,,2025-04-24,1,,,,,ジオン,0
1373,6080403005252,新規,0,2025-04-24,2025-04-24,合同会社ヨシダヤ,,合同会社,静岡県,磐田市,鳥之瀬２７番地１ボルーナＩＩ‐２０５,00138909,22,211,4380072,,,,,,,2025-04-24,1,,,,,ヨシダヤ,0
1377,6100003008108,新規,0,2025-04-24,2025-04-24,合同会社ｏｓｈｉ‐ｉｒｅ,,合同会社,長野県,長野市,吉田２丁目３６番２３－３,,20,201,3810043,,,,,,,2025-04-24,1,,,,,オシイレ,0
1388,6120001274336,新規,0,2025-04-24,2025-04-24,南山株式会社,,株式会社,大阪府,大阪市東淀川区,東中島１丁目１３－４３新大阪第１ダイヤモンドマンション５０７室,,27,114,5330033,,,,,,,2025-04-24,1,,,,,ナンザン,0
1389,6120001274856,新規,0,2025-04-24,2025-04-24,中古茶具株式会社,,株式会社,大阪府,大阪市東淀川区,瑞光１丁目２番１１－４０２号,,27,114,5330005,,,,,,,2025-04-24,1,,,,,チュウコチャグ,0
1390,6120001274889,新規,0,2025-04-24,2025-04-24,株式会社ＴＲＵＵ,,株式会社,大阪府,大阪市北区,芝田２丁目８－１１共栄ビル３階,,27,127,5300012,,,,,,,2025-04-24,1,,,,,トゥルー,0
1391,6120003029176,新規,0,2025-04-24,2025-04-24,ＳＫＡＭ合同会社,,合同会社,大阪府,大阪市西区,新町１丁目１４番２１－５０１号,,27,106,5500013,,,,,,,2025-04-24,1,,,,,エスケーエーエム,0
1392,6120003029192,新規,0,2025-04-24,2025-04-24,合同会社ドギーブギー,,合同会社,大阪府,大阪市北区,西天満５丁目６番２０－１１０１号,,27,127,5300047,,,,,,,2025-04-24,1,,,,,ドギーブギー,0
1393,6120101071534,新規,0,2025-04-24,2025-04-24,共栄電設株式会社,,株式会社,大阪府,堺市中区,陶器北４２０番地２,,27,142,5998242,,,,,,,2025-04-24,1,,,,,キョウエイデンセツ,0
1401,6130001079486,新規,0,2025-04-24,2025-04-24,泰来株式会社,,株式会社,京都府,京都市左京区,一乗寺松原町５１番地１,,26,103,6068156,,,,,,,2025-04-24,1,,,,,タイライ,0
1403,6130005017351,新規,0,2025-04-24,2025-04-24,一般社団法人任侠盛力健児,00138888,その他の設立登記法人,京都府,京都市中京区,新町通竹屋町下る弁財天町２９２番地徹ビル１階,,26,104,6040093,,,,,,,2025-04-24,1,,,,,ニンキョウセイリキケンジ,0
1408,6140001138266,新規,0,2025-04-24,2025-04-24,株式会社さくら工業所,,株式会社,兵庫県,赤穂市,寿町１番地２３,,28,212,6780204,,,,,,,2025-04-24,1,,,,,サクラコウギョウショ,0
1409,6140001138274,新規,0,2025-04-24,2025-04-24,株式会社ＨＡＮＡ　ＲＥＡＲＴＨ,,株式会社,兵庫県,神戸市東灘区,向洋町中１丁目１７番地アジアワンセンター２１Ｆ,,28,101,6580032,,,,,,,2025-04-24,1,,,,,ハナリアース,0
1410,6140001138282,新規,0,2025-04-24,2025-04-24,株式会社Ｕｎｄｅｒｄｏｇ,,株式会社,兵庫県,尼崎市,元浜町５丁目４６番地の５,,28,202,6600085,,,,,,,2025-04-24,1,,,,,アンダードッグ,0
1415,6170001018589,新規,0,2025-04-24,2025-04-24,株式会社ＡＮＫＨ,,株式会社,和歌山県,和歌山市,友田町５丁目４３番地ヤマウエビル４階,,30,201,6408342,,,,,,,2025-04-24,1,,,,,アンク,0
1421,6180001166379,新規,0,2025-04-24,2025-04-24,株式会社オプティス,,株式会社,愛知県,名古屋市中村区,名駅３丁目４番１０号,,23,105,4500002,,,,,,,2025-04-24,1,,,,,オプティス,0
1422,6180001166437,新規,0,2025-04-24,2025-04-24,株式会社ＳｋｙＮｅｘｔ,,株式会社,愛知県,名古屋市中川区,八熊１丁目１０番１２号メイクスＷアート金山ウエスト７０３号室,,23,110,4540013,,,,,,,2025-04-24,1,,,,,スカイネクスト,0
1423,6180001166494,新規,0,2025-04-24,2025-04-24,ＳＵＳ未来工業株式会社,,株式会社,愛知県,名古屋市港区,七反野１丁目３１８番地の３,,23,111,4550884,,,,,,,2025-04-24,1,,,,,エスユーエスミライコウギョウ,0
1424,6180003028346,新規,0,2025-04-24,2025-04-24,合同会社Ｆｕｌｌ　Ｈｏｕｓｅ,,合同会社,愛知県,名古屋市中区,栄１丁目２２－２ライオンズ名古屋ビル,,23,106,4600008,,,,,,,2025-04-24,1,,,,,フルハウス,0
1425,6180003028354,新規,0,2025-04-24,2025-04-24,ＨＲＸマーケティング合同会社,,合同会社,愛知県,春日井市,如意申町２丁目２８番地２８,,23,206,4860918,,,,,,,2025-04-24,1,,,,,エイチアールエックスマーケティング,0
1426,6180003028379,新規,0,2025-04-24,2025-04-24,ゴラヤトレーデイング合同会社,,合同会社,愛知県,名古屋市守山区,川宮町４５７番地の５,,23,113,4630081,,,,,,,2025-04-24,1,,,,,ゴラヤトレーデイング,0
1427,6180005021002,新規,0,2025-04-24,2025-04-24,特定非営利活動法人ＮａＮａｉｒｏ,,その他の設立登記法人,愛知県,名古屋市中村区,高道町３丁目３番１５号メルベーユ１０２号,,23,105,4530037,,,,,,,2025-04-24,1,,,,,ナナイロ,0
1429,6190001032167,新規,0,2025-04-24,2025-04-24,株式会社アイエスホールディングス,,株式会社,三重県,桑名市,多度町多度１２６４番地１,,24,205,5110106,,,,,,,2025-04-24,1,,,,,アイエスホールディングス,0
1430,6190001032175,新規,0,2025-04-24,2025-04-24,株式会社一幸フード,,株式会社,三重県,伊勢市,御薗町長屋１９７８番地１,,24,203,5160804,,,,,,,2025-04-24,1,,,,,,0
1431,6200001043666,新規,0,2025-04-24,2025-04-24,株式会社翠,,株式会社,岐阜県,岐阜市,福光西３丁目１４番地１,,21,201,5020814,,,,,,,2025-04-24,1,,,,,カワセミ,0
1433,6200005013756,新規,0,2025-04-24,2025-04-24,一般社団法人Ｉｔｏｓｈｉｋｉ,,その他の設立登記法人,岐阜県,高山市,片野町５丁目６９２番地３６,,21,203,5060824,,,,,,,2025-04-24,1,,,,,イトシキ,0
1439,6220005008960,新規,0,2025-04-24,2025-04-24,医療法人社団鷹鷲会,,その他の設立登記法人,石川県,野々市市,押野２丁目１９８,,17,212,9218802,,,,,,,2025-04-24,1,,,,,ヨウシュウカイ,0
1440,6230001020860,新規,0,2025-04-24,2025-04-24,株式会社高岡ファーム,,株式会社,富山県,高岡市,荒屋敷５００番地２,,16,202,9330319,,,,,,,2025-04-24,1,,,,,タカオカファーム,0
1446,6260005011473,新規,0,2025-04-24,2025-04-24,医療法人社団オリオン歯科クリニック,,その他の設立登記法人,岡山県,小田郡矢掛町,矢掛１８７８番地２階,,33,461,7141201,,,,,,,2025-04-24,1,,,,,オリオンシカクリニック,0
1453,6290001109748,新規,0,2025-04-24,2025-04-24,Ａｕｔｏ　Ｃａｍｉｎｏ株式会社,,株式会社,福岡県,大野城市,つつじケ丘３丁目１１番３６号,,40,219,8160962,,,,,,,2025-04-24,1,,,,,,0
1454,6290001109789,新規,0,2025-04-24,2025-04-24,株式会社福岡建築マネジメント,,株式会社,福岡県,福岡市中央区,薬院１丁目６番３３号修和ビル,,40,133,8100022,,,,,,,2025-04-24,1,,,,,フクオカケンチクマネジメント,0
1457,6290003016752,新規,0,2025-04-24,2025-04-24,合同会社クーヘン,,合同会社,福岡県,福岡市中央区,桜坂１丁目１４番１８号ＥＳハウス６,,40,133,8100024,,,,,,,2025-04-24,1,,,,,クーヘン,0
1469,6340001027283,新規,0,2025-04-24,2025-04-24,株式会社ＯＩＣＯＳ,,株式会社,鹿児島県,霧島市,国分新町１３７５番地８,,46,218,8994351,,,,,,,2025-04-24,1,,,,,オイコス,0
1472,6340002028710,新規,0,2025-04-24,2025-04-24,有限会社海寿水産,,有限会社,鹿児島県,南九州市,知覧町南別府２５８６７番地３,,46,223,8910912,,,,,,,2025-04-24,1,,,,,カイジュスイサン,0
1475,6350003004916,新規,0,2025-04-24,2025-04-24,ＣＨＩＥＡＮＩ合同会社,,合同会社,宮崎県,都城市,一万城町８号１３番地,,45,202,8850041,,,,,,,2025-04-24,1,,,,,チエアニ,0
1477,6360001035103,新規,0,2025-04-24,2025-04-24,南西工業株式会社,,株式会社,沖縄県,那覇市,松川２丁目２番１６号カーサツハ５０２,,47,201,9020062,,,,,,,2025-04-24,1,,,,,ナンセイコウギョウ,0
1483,6380003006018,新規,0,2025-04-24,2025-04-24,合同会社ガレージサイトウ,,合同会社,福島県,いわき市,常磐藤原町別所１５６番地,,07,204,9728326,,,,,,,2025-04-24,1,,,,,ガレージサイトウ,0
1486,6400005008488,新規,0,2025-04-24,2025-04-24,特定非営利活動法人なないろ,,その他の設立登記法人,岩手県,下閉伊郡山田町,飯岡第６地割１番地１,,03,482,0281352,,,,,,,2025-04-24,1,,,,,ナナイロ,0
1489,6410001014142,新規,0,2025-04-24,2025-04-24,秋田アリーナＰＦＩパートナーズ株式会社,,株式会社,秋田県,秋田市,旭北錦町３９番１号,,05,201,0100923,,,,,,,2025-04-24,1,,,,,アキタアリーナピーエフアイパートナーズ,0
1498,6430003017546,新規,0,2025-04-24,2025-04-24,合同会社さくらさく,,合同会社,北海道,岩見沢市,幌向北二条１丁目６１１番地３２,,01,210,0690382,,,,,,,2025-04-24,1,,,,,サクラサク,0
1500,6450001014601,新規,0,2025-04-24,2025-04-24,株式会社晴れま,,株式会社,北海道,上川郡当麻町,四条南３丁目３－１８,,01,454,0781324,,,,,,,2025-04-24,1,,,,,ハレマ,0
1501,6462501001029,新規,0,2025-04-24,2025-04-24,株式会社直コーポレーション,,株式会社,北海道,標津郡中標津町,字武佐二十線北９３番地１０,,01,692,0861271,,,,,,,2025-04-24,1,,,,,ナオコーポレーション,0
1504,6470003002874,新規,0,2025-04-24,2025-04-24,合同会社よこやまカンパニー,,合同会社,香川県,観音寺市,豊浜町和田甲１２６３番地１,,37,205,7691603,,,,,,,2025-04-24,1,,,,,ヨコヤマカンパニー,0
1507,6480001012817,新規,0,2025-04-24,2025-04-24,カン商事株式会社,,株式会社,徳島県,徳島市,沖浜町東畑５９６番地３,,36,201,7708051,,,,,,,2025-04-24,1,,,,,カンショウジ,0
1510,6500001026260,新規,0,2025-04-24,2025-04-24,株式会社藤村組,,株式会社,愛媛県,今治市,本町７丁目３番９号,,38,202,7940018,,,,,,,2025-04-24,1,,,,,フジムラグミ,0
1512,6500003003497,新規,0,2025-04-24,2025-04-24,合同会社ＡＢＢＹ,,合同会社,愛媛県,新居浜市,政枝町１丁目８－３０,,38,205,7920032,,,,,,,2025-04-24,1,,,,,アビー,0
1520,6700150130173,新規,0,2025-04-24,2025-04-24,Ｎｉｎｇｂｏ　Ｌｒｏｌｔｅｆ　Ｉｍｐｏｒｔ　ａｎｄ　Ｅｘｐｏｒｔ　Ｃｏ．，Ｌｔｄ．,,外国会社等,,,,,,,,ｚｈｅｊｉａｎｇ，ｎｉｎｇｂｏ，ｊｉａｎｇｂｅｉ，ｙｕｎｇｕｚｈｏｎｇｘｉｎ２８ｚｈｕａｎｇ６１０－３ｓｈｉ,,,,,,2025-04-24,1,,,,,ニンボールロルテフインポートアンドエクスポートカンパニーリミテッド,0
1521,6700150130198,新規,0,2025-04-24,2025-04-24,ＭＯＬ　ＬＮＧ　ＳＨＩＰ　ＭＡＮＡＧＥＭＥＮＴ　ＰＴＥ．ＬＴＤ．,,外国会社等,東京都,港区,虎ノ門２丁目１番１号,,13,103,1050001,シンガポール共和国シェントンウェイ５番地、ＵＩＣビル＃１４－０６,,,,,,2025-04-24,1,,,,,エムオーエルエルエヌジーシツプマネージメントプライベートリミテツド,0
1537,7010003047163,新規,0,2025-04-24,2025-04-24,合同会社のぞみ,,合同会社,東京都,中央区,勝どき２丁目８番１２号東京ビュック中銀１３１８号,,13,102,1040054,,,,,,,2025-04-24,1,,,,,ノゾミ,0
1547,7010403034967,新規,0,2025-04-24,2025-04-24,合同会社ＣＲＥＡＭＷＯＲＫＳ,,合同会社,東京都,港区,南青山３丁目１番３６号青山丸竹ビル６Ｆ,,13,103,1070062,,,,,,,2025-04-24,1,,,,,クリームワークス,0
1556,7010703007680,新規,0,2025-04-24,2025-04-24,合同会社エネリズム,,合同会社,東京都,品川区,西五反田２丁目１３－１プレジデントハイツ五反田３１３,,13,109,1410031,,,,,,,2025-04-24,1,,,,,エネリズム,0
1560,7010801036086,新規,0,2025-04-24,2025-04-24,株式会社Ｌｉｎｋ　Ｕ．Ｓ．,,株式会社,東京都,大田区,西蒲田７丁目４番４号小山第二ビル６Ｆ,,13,111,1440051,,,,,,,2025-04-24,1,,,,,リンクアス,0
1569,7011001169123,新規,0,2025-04-24,2025-04-24,株式会社オロサロホールディングス,,株式会社,東京都,渋谷区,桜丘町２６番１号セルリアンタワー１５階,,13,113,1500031,,,,,,,2025-04-24,1,,,,,オロサロホールディングス,0
1570,7011001169131,新規,0,2025-04-24,2025-04-24,株式会社オリフル,,株式会社,東京都,渋谷区,恵比寿西２丁目４－８ウィンド恵比寿ビル８Ｆ,,13,113,1500021,,,,,,,2025-04-24,1,,,,,オリフル,0
1571,7011001169172,新規,0,2025-04-24,2025-04-24,株式会社ＮＯＶＡＳＥＥＤ,,株式会社,東京都,渋谷区,恵比寿南１丁目１番１号ヒューマックス恵比寿ビル７階,,13,113,1500022,,,,,,,2025-04-24,1,,,,,ノバシード,0
1572,7011001169288,新規,0,2025-04-24,2025-04-24,株式会社ＹＯＫＯＳＯ　Ｊａｐａｎ,,株式会社,東京都,渋谷区,円山町５番５号Ｎａｖｉ渋谷Ｖ３階,,13,113,1500044,,,,,,,2025-04-24,1,,,,,ヨウコソジャパン,0
1573,7011001169354,新規,0,2025-04-24,2025-04-24,ＨａｐＬｉｎｋ株式会社,,株式会社,東京都,目黒区,目黒本町４丁目３－２,,13,110,1520002,,,,,,,2025-04-24,1,,,,,ハプリンク,0
1575,7011003020928,新規,0,2025-04-24,2025-04-24,合同会社Ｖｉｚ,,合同会社,東京都,目黒区,下目黒１丁目１番１４号コノトラビル７Ｆ,,13,110,1530064,,,,,,,2025-04-24,1,,,,,ビズ,0
1576,7011003021447,新規,0,2025-04-24,2025-04-24,アップストリームパートナーズ合同会社,,合同会社,東京都,渋谷区,神南１丁目１１番４号・ＦＰＧリンクス神南５階,,13,113,1500041,,,,,,,2025-04-24,1,,,,,アップストリームパートナーズ,0
1577,7011003021546,新規,0,2025-04-24,2025-04-24,合同会社ＳＰＩＣＥ,,合同会社,東京都,渋谷区,渋谷２丁目１９－１５宮益坂ビルディング６０９,,13,113,1500002,,,,,,,2025-04-24,1,,,,,スパイス,0
1589,7011301030546,新規,0,2025-04-24,2025-04-24,同人株式会社,,株式会社,東京都,杉並区,高円寺北２丁目３０番１２号ステラレジデンス高円寺４０３号,,13,115,1660002,,,,,,,2025-04-24,1,,,,,ドウジン,0
1591,7011501031996,新規,0,2025-04-24,2025-04-24,株式会社Ｂｉｓａｎ,,株式会社,東京都,北区,中十条２丁目２１番１号,,13,117,1140032,,,,,,,2025-04-24,1,,,,,ビサン,0
1592,7011505002688,新規,0,2025-04-24,2025-04-24,特定非営利活動法人ハートＴｏハート会,,その他の設立登記法人,東京都,北区,王子本町２丁目１６番１３号,,13,117,1140022,,,,,,,2025-04-24,1,,,,,ハートトゥハートカイ,0
1593,7011601028595,新規,0,2025-04-24,2025-04-24,カカオビーンズ株式会社,,株式会社,東京都,練馬区,南大泉３丁目２４番６号,,13,120,1780064,,,,,,,2025-04-24,1,,,,,カカオビーンズ,0
1595,7011701028289,新規,0,2025-04-24,2025-04-24,株式会社ＤＡＩＤＥＮ,,株式会社,東京都,江戸川区,上篠崎２丁目６番１２号,,13,123,1330054,,,,,,,2025-04-24,1,,,,,ダイデン,0
1598,7011801046018,新規,0,2025-04-24,2025-04-24,株式会社日恒ソリューションズ,,株式会社,東京都,葛飾区,亀有４丁目１７番２号,,13,122,1250061,,,,,,,2025-04-24,1,,,,,ニッコウソリューションズ,0
1602,7012803003709,新規,0,2025-04-24,2025-04-24,合同会社凪‐ｈａｎｄｃｒａｆｔ,,合同会社,東京都,国立市,富士見台１丁目１７番地２５ＶＩＰビル２階,,13,215,1860003,,,,,,,2025-04-24,1,,,,,ナギハンドクラフト,0
1609,7020003028344,新規,0,2025-04-24,2025-04-24,カーマクション合同会社,,合同会社,神奈川県,横浜市鶴見区,鶴見中央４丁目８番１２号加瀬ビル１０５－４０２号室,,14,101,2300051,,,,,,,2025-04-24,1,,,,,カーマクション,0
1614,7021001085071,新規,0,2025-04-24,2025-04-24,株式会社タムラ工業,,株式会社,神奈川県,秦野市,平沢９７５番地Ｃ号棟,,14,211,2570015,,,,,,,2025-04-24,1,,,,,タムラコウギョウ,0
1619,7021003015910,新規,0,2025-04-24,2025-04-24,合同会社Ｍｓ　Ｗｏｒｋｓ,,合同会社,神奈川県,茅ヶ崎市,白浜町４番３号,,14,207,2530036,,,,,,,2025-04-24,1,,,,,エムズワークス,0
1636,7030001166038,新規,0,2025-04-24,2025-04-24,株式会社住悦プラス,,株式会社,埼玉県,さいたま市大宮区,桜木町４丁目７５１番地８,,11,103,3300854,,,,,,,2025-04-24,1,,,,,ジュウエツプラス,0
1637,7030001166120,新規,0,2025-04-24,2025-04-24,株式会社イー．アイディール,,株式会社,埼玉県,蕨市,中央７丁目２８番１９号,,11,223,3350004,,,,,,,2025-04-24,1,,,,,イーアイディール,0
1638,7030001166145,新規,0,2025-04-24,2025-04-24,株式会社ＭＳＫ,,株式会社,埼玉県,越谷市,大字南萩島５３４－１,,11,222,3430000,,,,,,,2025-04-24,1,,,,,エムエスケイ,0
1639,7030001166211,新規,0,2025-04-24,2025-04-24,株式会社隼,,株式会社,埼玉県,さいたま市見沼区,深作２丁目２５番地５Ｗｏｎｄｅｒｌａｎｄ２０１,,11,104,3370003,,,,,,,2025-04-24,1,,,,,ハヤブサ,0
1643,7030003026628,新規,0,2025-04-24,2025-04-24,合同会社ＺＥＮＡ,,合同会社,埼玉県,春日部市,新宿新田３４９番地５,,11,214,3440113,,,,,,,2025-04-24,1,,,,,ゼナ,0
1644,7030003026660,新規,0,2025-04-24,2025-04-24,合同会社オフィスレイ,,合同会社,埼玉県,川越市,新宿町３丁目１４番地１６,,11,201,3501124,,,,,,,2025-04-24,1,,,,,オフィスレイ,0
1645,7030005022146,新規,0,2025-04-24,2025-04-24,一般社団法人リンゴン,,その他の設立登記法人,埼玉県,新座市,片山１丁目１３番１４号,,11,230,3520025,,,,,,,2025-04-24,1,,,,,リンゴン,0
1652,7040001138424,新規,0,2025-04-24,2025-04-24,金銘再生資源リサイクル株式会社,,株式会社,千葉県,市原市,犬成１０５９番地４,,12,219,2900166,,,,,,,2025-04-24,1,,,,,キンメイサイセイシゲンリサイクル,0
1653,7040001138440,新規,0,2025-04-24,2025-04-24,Ｃｏｎｎｅｃｔ　Ｉｎｄｉａ　Ｊａｐａｎ株式会社,,株式会社,千葉県,市川市,新井２丁目９番６号,,12,203,2720144,,,,,,,2025-04-24,1,,,,,コネクトインディアジャパン,0
1657,7040002105423,新規,0,2025-04-24,2025-04-24,有限会社千葉大木ハム製造商会,,有限会社,千葉県,山武郡横芝光町,宮川５６１９番地,,12,410,2891727,,,,,,,2025-04-24,1,,,,,,0
1661,7060003005513,新規,0,2025-04-24,2025-04-24,合同会社里山もてぎ,,合同会社,栃木県,芳賀郡茂木町,大字飯１６３２番地３,,09,343,3213626,,,,,,,2025-04-24,1,,,,,サトヤマモテギ,0
1662,7070001042870,新規,0,2025-04-24,2025-04-24,Ａｌｌ　Ｗｏｒｋｓ株式会社,,株式会社,群馬県,高崎市,南大類町１３９１番地８,,10,202,3700036,,,,,,,2025-04-24,1,,,,,オールワークス,0
1673,7100001038535,新規,0,2025-04-24,2025-04-24,ｍ１９Ｊａｐａｎ株式会社,,株式会社,長野県,安曇野市,堀金烏川５０５６番地２１,,20,220,3998211,,,,,,,2025-04-24,1,,,,,エムジュウキュウジャパン,0
1677,7100003008107,新規,0,2025-04-24,2025-04-24,バケーション開発合同会社,,合同会社,長野県,北佐久郡軽井沢町,大字長倉８番地４５,,20,321,3890111,,,,,,,2025-04-24,1,,,,,バケーションカイハツ,0
1683,7120001274797,新規,0,2025-04-24,2025-04-24,ルートＡＩラボ株式会社,,株式会社,大阪府,大阪市住吉区,墨江２丁目５番５３号３０１室,,27,120,5580043,,,,,,,2025-04-24,1,,,,,ルートエイアイラボ,0
1684,7120001274806,新規,0,2025-04-24,2025-04-24,株式会社龍裕,,株式会社,大阪府,大阪市中央区,高津１丁目１０－１４－４０２号室,,27,128,5420072,,,,,,,2025-04-24,1,,,,,リュウユ,0
1685,7120001274839,新規,0,2025-04-24,2025-04-24,小豆秉株式会社,,株式会社,大阪府,大阪市都島区,中野町４丁目３番６号Ｈ２Ｈ大阪桜之宮邸３Ａ－１,,27,102,5340027,,,,,,,2025-04-24,1,,,,,アズキヘイ,0
1686,7120001274847,新規,0,2025-04-24,2025-04-24,株式会社ＳＥＩＷＡ　ＡＤＶＡＮＣＥ,,株式会社,大阪府,大阪市天王寺区,逢阪２丁目５－１８・９０５号,,27,109,5430062,,,,,,,2025-04-24,1,,,,,セイワアドバンス,0
1687,7120001274979,新規,0,2025-04-24,2025-04-24,株式会社Ｓ．Ｅ．Ｒ,,株式会社,大阪府,大阪市阿倍野区,文の里２丁目１５番１号アセットナルミ２０２号,,27,119,5450004,,,,,,,2025-04-24,1,,,,,エスイーアール,0
1691,7120003029191,新規,0,2025-04-24,2025-04-24,合同会社Ｓｐａｃｅ　Ｏ,,合同会社,大阪府,大阪市北区,兎我野町３－３兎我野ハイツ７０２号,,27,127,5300056,,,,,,,2025-04-24,1,,,,,スペースオー,0
1692,7120005024901,新規,0,2025-04-24,2025-04-24,一般社団法人民族格闘技研究所,,その他の設立登記法人,大阪府,枚方市,岡東町２６番３号,,27,210,5730032,,,,,,,2025-04-24,1,,,,,ミンゾクカクトウギケンキュウショ,0
1698,7120101071483,新規,0,2025-04-24,2025-04-24,株式会社ツムギテ,,株式会社,大阪府,堺市北区,長曽根町１３０－４２,,27,146,5918025,,,,,,,2025-04-24,1,,,,,ツムギテ,0
1699,7120101071541,新規,0,2025-04-24,2025-04-24,ＳＡＳ株式会社,,株式会社,大阪府,高石市,千代田１丁目１２番１５号（１Ｆ）,,27,225,5920005,,,,,,,2025-04-24,1,,,,,エスエーエス,0
1716,7140001138249,新規,0,2025-04-24,2025-04-24,株式会社ＺＥＲＯ　ＨａｒＭ,,株式会社,兵庫県,神戸市垂水区,学が丘４丁目７番３号,,28,108,6550004,,,,,,,2025-04-24,1,,,,,ゼロハーム,0
1717,7140001138265,新規,0,2025-04-24,2025-04-24,株式会社ｅｒａｖｕ,,株式会社,兵庫県,西宮市,東山台３丁目３７番地７,,28,204,6691133,,,,,,,2025-04-24,1,,,,,エラブ,0
1718,7140001138281,新規,0,2025-04-24,2025-04-24,さくら咲く株式会社,,株式会社,兵庫県,三田市,中町２番１２号,,28,219,6691527,,,,,,,2025-04-24,1,,,,,サクラサク,0
1720,7140003021972,新規,0,2025-04-24,2025-04-24,ＯＣＥＡＮ　ＣＲＥＷ合同会社,,合同会社,兵庫県,神戸市中央区,八幡通４丁目１番１６号,,28,110,6510085,,,,,,,2025-04-24,1,,,,,オーシャンクルー,0
1724,7180001166502,新規,0,2025-04-24,2025-04-24,株式会社ハシコウ,,株式会社,愛知県,名古屋市北区,平安１丁目１２番５号,,23,103,4620819,,,,,,,2025-04-24,1,,,,,ハシコウ,0
1729,7180003028361,新規,0,2025-04-24,2025-04-24,ＤｏｎｇＸｕａｎ合同会社,,合同会社,愛知県,東海市,高横須賀町５丁目１０２番地,,23,222,4770037,,,,,,,2025-04-24,1,,,,,ドンスアン,0
1737,7200001043681,新規,0,2025-04-24,2025-04-24,株式会社ｉＪＥＴ,,株式会社,岐阜県,各務原市,那加芦原町１丁目３２番地１,,21,213,5040007,,,,,,,2025-04-24,1,,,,,イジェット,0
1745,7230003002419,新規,0,2025-04-24,2025-04-24,合同会社ＹａＢａｔｔｅｒｙ,,合同会社,富山県,射水市,戸破４２６７番地,,16,211,9390351,,,,,,,2025-04-24,1,,,,,ヤバッテリー,0
1754,7260001040137,新規,0,2025-04-24,2025-04-24,株式会社ジェットテック,,株式会社,岡山県,岡山市北区,栢谷１６１６,,33,101,7011144,,,,,,,2025-04-24,1,,,,,ジェットテック,0
1759,7290001109607,新規,0,2025-04-24,2025-04-24,株式会社ｒｅｌａｙｐｏｉｎｔ,,株式会社,福岡県,筑紫野市,大字牛島４３６番地３１,,40,217,8180014,,,,,,,2025-04-24,1,,,,,リレーポイント,0
1762,7290003016735,新規,0,2025-04-24,2025-04-24,合同会社そうえん,,合同会社,福岡県,福岡市博多区,博多駅前４丁目２３番４号アーバンクルーザー博多駅前７０１号,,40,132,8120011,,,,,,,2025-04-24,1,,,,,ソウエン,0
1765,7290801031480,新規,0,2025-04-24,2025-04-24,株式会社ショウエイ,,株式会社,福岡県,北九州市八幡西区,浅川学園台３丁目４番２号,,40,109,8070871,,,,,,,2025-04-24,1,,,,,ショウエイ,0
1770,7340001027282,新規,0,2025-04-24,2025-04-24,株式会社海龍興業,,株式会社,鹿児島県,曽於郡大崎町,永吉６２８７番地,,46,468,8997306,,,,,,,2025-04-24,1,,,,,カイリュウコウギョウ,0
1779,7420001019107,新規,0,2025-04-24,2025-04-24,株式会社須藤建築,,株式会社,青森県,黒石市,青山５２番地３１,,02,204,0360325,,,,,,,2025-04-24,1,,,,,ストウケンチク,0
1784,7430003017545,新規,0,2025-04-24,2025-04-24,ＳＥＡＳＯＮ合同会社,,合同会社,北海道,札幌市豊平区,月寒東二条１８丁目１番１－７０９,,01,105,0620052,,,,,,,2025-04-24,1,,,,,シーズン,0
1787,7450001014600,新規,0,2025-04-24,2025-04-24,ＭＥＪＥＲＡ株式会社,,株式会社,北海道,富良野市,北の峰町１５－１４,,01,229,0760034,,,,,,,2025-04-24,1,,,,,メジェラ,0
1789,7460303000867,新規,0,2025-04-24,2025-04-24,デカロジャパン合同会社,,合同会社,北海道,北見市,常呂町字栄浦２２２番地１,,01,208,0930216,,,,,,,2025-04-24,1,,,,,デカロジャパン,0
1790,7462501001028,新規,0,2025-04-24,2025-04-24,株式会社洋菓子店ポルテ,,株式会社,北海道,標津郡中標津町,大通南２丁目１番地１,,01,692,0861142,,,,,,,2025-04-24,1,,,,,ヨウガシテンポルテ,0
1792,7470001020687,新規,0,2025-04-24,2025-04-24,株式会社ＳＰＲＥＭ,,株式会社,香川県,三豊市,詫間町詫間６１０番地１０Ｉ・Ｔビル１０２,,37,208,7691101,,,,,,,2025-04-24,1,,,,,エスプレム,0
1794,7480001012816,新規,0,2025-04-24,2025-04-24,株式会社Ｙ　ＣＲＡＦＴＥＣＨ,,株式会社,徳島県,鳴門市,大麻町板東字辻見堂８番地６,00138893,36,202,7790232,,,,,,,2025-04-24,1,,,,,ワイクラフテック,0
1802,7700150130172,新規,0,2025-04-24,2025-04-24,ＴＡＩＹＯメディカルケアサービス有限責任会社,,外国会社等,山形県,山形市,あこや町２丁目２番３９号,,06,201,9900025,ベトナム社会主義共和国ハノイ市ハ－ドン区クアンチュン坊クアンチュン通り８番地ＳＨＧビル４階,,,,,,2025-04-24,1,,,,,タイヨウメデイカルケアサービスユウゲンセキニンカイシヤ,0
1803,7700150130197,新規,0,2025-04-24,2025-04-24,Ｍｉｎｎａｎｏ　Ｓａｋｕｒａ　Ｊａｐａｎｅｓｅ　Ｌａｎｇｕａｇｅ　Ｉｎｓｔｉｔｕｔｅ　Ｐｒｉｖａｔｅ　Ｌｉｍｉｔｅｄ,,外国会社等,愛知県,名古屋市中区,栄１丁目２３番３０号　中京ビル３０８,,23,106,4600008,ネパール連邦民主共和国ルンビニ州ルパンデヒ郡ブトワル準大都市第１１番,,,,,,2025-04-24,1,,,,,ミンナノサクラジヤパニーズランゲージインステイテユートプライベートリミテツド,0
1813,8010001254363,新規,0,2025-04-24,2025-04-24,ＪＳＦＰ　ＷＯＬ株式会社,,株式会社,東京都,千代田区,大手町２丁目２番２号,,13,101,1000004,,,,,,,2025-04-24,1,,,,,ジェイエスエフピーダブリュオーエル,0
1814,8010005039967,新規,0,2025-04-24,2025-04-24,仙台長町２施設開発特定目的会社,,その他の設立登記法人,東京都,千代田区,飯田橋４丁目７番１号結和税理士法人内,,13,101,1020072,,,,,,,2025-04-24,1,,,,,センダイナガマチツーシセツカイハツ,0
1818,8010401189671,新規,0,2025-04-24,2025-04-24,ＫＩＢＯＲ株式会社,,株式会社,東京都,港区,南青山２丁目２番１５号ウィン青山９４２,,13,103,1070062,,,,,,,2025-04-24,1,,,,,カイボ,0
1821,8010601067181,新規,0,2025-04-24,2025-04-24,株式会社ＴＯＫＹＯ　ＴＡＭ’Ｓ,,株式会社,東京都,江東区,亀戸９丁目１９番７－１１０９号,,13,108,1360071,,,,,,,2025-04-24,1,,,,,トウキョウタムズ,0
1822,8010601067207,新規,0,2025-04-24,2025-04-24,株式会社ＫＡＮＡ‐ＰＬＵＳ,,株式会社,東京都,江東区,亀戸７丁目４５番８号,,13,108,1360071,,,,,,,2025-04-24,1,,,,,カナプラス,0
1823,8010701047595,新規,0,2025-04-24,2025-04-24,Ｂｅａｕｔｙ８株式会社,,株式会社,東京都,品川区,大崎５丁目４番３号ＯＮＯビル４Ｆ,,13,109,1410032,,,,,,,2025-04-24,1,,,,,ビューティーエイト,0
1835,8010903009864,新規,0,2025-04-24,2025-04-24,合同会社Ｌｉｒ　Ｉｎｎｏｖａｔｉｏｎ,,合同会社,東京都,世田谷区,代田１丁目３５番１４号ウエルケンビル２０３号室,,13,112,1550033,,,,,,,2025-04-24,1,,,,,リアイノベーション,0
1840,8011001169122,新規,0,2025-04-24,2025-04-24,株式会社Ｈｉｂｉｔｏ,,株式会社,東京都,渋谷区,恵比寿西２丁目４番８号ウィンド恵比寿ビル８Ｆ,,13,113,1500021,,,,,,,2025-04-24,1,,,,,ヒビト,0
1841,8011001169130,新規,0,2025-04-24,2025-04-24,株式会社こころは,,株式会社,東京都,渋谷区,東３丁目１７番１１－１０２号,,13,113,1500011,,,,,,,2025-04-24,1,,,,,ココロハ,0
1842,8011001169171,新規,0,2025-04-24,2025-04-24,光武商事株式会社,,株式会社,東京都,目黒区,目黒１丁目４－１６目黒Ｇビル１０階,,13,110,1530063,,,,,,,2025-04-24,1,,,,,ミツタケショウジ,0
1843,8011001169436,新規,0,2025-04-24,2025-04-24,株式会社ボドゲ東京,,株式会社,東京都,渋谷区,渋谷２丁目５－１ステップ青山３階,,13,113,1500002,,,,,,,2025-04-24,1,,,,,ボドゲトウキョウ,0
1857,8011103015843,新規,0,2025-04-24,2025-04-24,Ｄ＆Ｇコンサルティング合同会社,,合同会社,東京都,新宿区,西新宿３丁目３番１３号西新宿水間ビル６階,,13,104,1600023,,,,,,,2025-04-24,1,,,,,ディーアンドジーコンサルティング,0
1858,8011303005520,新規,0,2025-04-24,2025-04-24,八方合同会社,,合同会社,東京都,杉並区,成田東４丁目２９－１３,,13,115,1660015,,,,,,,2025-04-24,1,,,,,ヤッポウ,0
1860,8011501031987,新規,0,2025-04-24,2025-04-24,株式会社ＡＴＴＲＡＦＵＴＥ,,株式会社,東京都,北区,志茂２丁目６０番６号,,13,117,1150042,,,,,,,2025-04-24,1,,,,,アトラフュート,0
1864,8011801046000,新規,0,2025-04-24,2025-04-24,株式会社ＭＴＩ天世設計,,株式会社,東京都,葛飾区,金町２丁目２１－５プラーズ金町５１０,,13,122,1250042,,,,,,,2025-04-24,1,,,,,エムティーアイテンセセッケイ,0
1881,8020001162466,新規,0,2025-04-24,2025-04-24,株式会社ＱＪ,,株式会社,神奈川県,横浜市神奈川区,金港町５番地１４クアドリフォリオ８階,,14,102,2210056,,,,,,,2025-04-24,1,,,,,キュージェー,0
1882,8020001162540,新規,0,2025-04-24,2025-04-24,株式会社Ｄ．Ｄ．Ｇ．ＬＡＢＯ,,株式会社,神奈川県,横浜市中区,長者町９丁目１６９番地翠葉ビルディングＩＩ６Ｆ,00138899,14,104,2310033,,,,,,,2025-04-24,1,,,,,デジタルデンタルゴートラボ,0
1889,8021001085013,新規,0,2025-04-24,2025-04-24,株式会社スティール・ホイールズ,,株式会社,神奈川県,足柄下郡真鶴町,真鶴１９３２番地６,,14,383,2590201,,,,,,,2025-04-24,1,,,,,スティールホイールズ,0
1890,8021001085070,新規,0,2025-04-24,2025-04-24,株式会社ＭＥｇａＲｏ,,株式会社,神奈川県,厚木市,寿町２丁目１番１８号,,14,212,2430003,,,,,,,2025-04-24,1,,,,,メガロ,0
1904,8030001166169,新規,0,2025-04-24,2025-04-24,株式会社エムズ,,株式会社,埼玉県,さいたま市緑区,大字三室１３９２番地２１,,11,109,3360911,,,,,,,2025-04-24,1,,,,,エムズ,0
1907,8030003026643,新規,0,2025-04-24,2025-04-24,合同会社ワイスリーエス,,合同会社,埼玉県,三郷市,彦成３丁目２３番地３,,11,237,3410003,,,,,,,2025-04-24,1,,,,,ワイスリーエス,0
1911,8040001138324,新規,0,2025-04-24,2025-04-24,株式会社ＢＥ　ＨＡＰＰＹ,,株式会社,千葉県,富津市,竹岡３０８番地,,12,226,2991621,,,,,,,2025-04-24,1,,,,,ビーハッピー,0
1918,8050003009209,新規,0,2025-04-24,2025-04-24,合同会社Ｐｒｉｍｅ　Ｐａｓｓ,,合同会社,茨城県,つくば市,上原３８９番８,,08,220,3050055,,,,,,,2025-04-24,1,,,,,プライムパス,0
1921,8060001038126,新規,0,2025-04-24,2025-04-24,株式会社ＴＯＫＩ企画,,株式会社,栃木県,日光市,中宮祠２４７８番地１９,,09,206,3211661,,,,,,,2025-04-24,1,,,,,トキキカク,0
1922,8070001042878,新規,0,2025-04-24,2025-04-24,ＡＬ　ＳＨＡＨ　ＴＲＡＤＩＮＧ株式会社,,株式会社,群馬県,太田市,細谷町１６９０番地１２,,10,205,3730842,,,,,,,2025-04-24,1,,,,,アルシャートレーディング,0
1925,8070003005890,新規,0,2025-04-24,2025-04-24,合同会社赤中北,,合同会社,群馬県,伊勢崎市,西久保町２丁目５３７番地５,,10,204,3792204,,,,,,,2025-04-24,1,,,,,アカチュウキタ,0
1926,8080001026896,新規,0,2025-04-24,2025-04-24,株式会社八福人,,株式会社,静岡県,静岡市葵区,上足洗１丁目７番２４－９号,,22,101,4200841,,,,,,,2025-04-24,1,,,,,ハチフクジン,0
1934,8100001038542,新規,0,2025-04-24,2025-04-24,株式会社須坂の暮らし,,株式会社,長野県,須坂市,大字日滝１１６９番地１エストワール２０１,,20,207,3820902,,,,,,,2025-04-24,1,,,,,,0
1942,8120001274805,新規,0,2025-04-24,2025-04-24,株式会社富士海,,株式会社,大阪府,大阪市生野区,巽北１丁目１番１号２Ｆ－Ｊ,,27,116,5440004,,,,,,,2025-04-24,1,,,,,フジカイ,0
1943,8120001274813,新規,0,2025-04-24,2025-04-24,株式会社きんしばベンダー,,株式会社,大阪府,大阪市住吉区,遠里小野７丁目９番１２号,,27,120,5580032,,,,,,,2025-04-24,1,,,,,キンシバベンダー,0
1944,8120003029190,新規,0,2025-04-24,2025-04-24,金祐合同会社,,合同会社,大阪府,大阪市東住吉区,照ケ丘矢田１丁目２２番１３号,,27,121,5460021,,,,,,,2025-04-24,1,,,,,キンユウ,0
1946,8120005024909,新規,0,2025-04-24,2025-04-24,一般社団法人東住吉みんなでスポーツプロジェクト,,その他の設立登記法人,大阪府,大阪市東住吉区,西今川２丁目６番９号,,27,121,5460042,,,,,,,2025-04-24,1,,,,,ヒガシスミヨシミンナデスポーツプロジェクト,0
1948,8120101071482,新規,0,2025-04-24,2025-04-24,優品堂株式会社,,株式会社,大阪府,堺市堺区,中瓦町１丁２－９－５０２,,27,141,5900077,,,,,,,2025-04-24,1,,,,,ユウヒンドウ,0
1949,8120101071549,新規,0,2025-04-24,2025-04-24,株式会社粋興業,,株式会社,大阪府,堺市北区,百舌鳥梅北町５丁３２４南風マンション５０１号,,27,146,5918031,,,,,,,2025-04-24,1,,,,,イキコウギョウ,0
1952,8130001079476,新規,0,2025-04-24,2025-04-24,みゅう株式会社,,株式会社,京都府,京都市南区,吉祥院宮ノ西町４－２ラーク安田パートＩＩ４０１,00138896,26,107,6018306,,,,,,,2025-04-24,1,,,,,ミュウ,0
1953,8130001079501,新規,0,2025-04-24,2025-04-24,株式会社白方,,株式会社,京都府,京都市下京区,中堂寺前田町２０番地６,,26,106,6008804,,,,,,,2025-04-24,1,,,,,シラカタ,0
1964,8140001138272,新規,0,2025-04-24,2025-04-24,西はりまレンタリース株式会社,,株式会社,兵庫県,たつの市,龍野町富永１７９番地３,,28,229,6794167,,,,,,,2025-04-24,1,,,,,ニシハリマレンタリース,0
1965,8140001138280,新規,0,2025-04-24,2025-04-24,ひふみ修建株式会社,,株式会社,兵庫県,尼崎市,西本町３丁目２５番地,,28,202,6600874,,,,,,,2025-04-24,1,,,,,ヒフミシュウケン,0
1969,8180001166435,新規,0,2025-04-24,2025-04-24,株式会社ＬＵＭＩＲＩＳＥ　ＪＡＰＡＮ,,株式会社,愛知県,北名古屋市,二子曙６３番地１,,23,234,4810013,,,,,,,2025-04-24,1,,,,,ルミライズジャパン,0
1970,8180001166443,新規,0,2025-04-24,2025-04-24,株式会社亜幸,,株式会社,愛知県,名古屋市中村区,名駅４丁目２４番５号（第２森ビル）,,23,105,4500002,,,,,,,2025-04-24,1,,,,,アコウ,0
1971,8180001166534,新規,0,2025-04-24,2025-04-24,株式会社余語鈑金加工所,,株式会社,愛知県,名古屋市港区,港楽２丁目１０番１２号,,23,111,4550014,,,,,,,2025-04-24,1,,,,,ヨゴバンキンカコウジョ,0
1973,8180003028385,新規,0,2025-04-24,2025-04-24,合同会社めくみ,,合同会社,愛知県,名古屋市守山区,藪田町１１１１－３０３,,23,113,4630026,,,,,,,2025-04-24,1,,,,,メクミ,0
1980,8200001043680,新規,0,2025-04-24,2025-04-24,ＤＡＩＭＡＮ株式会社,,株式会社,岐阜県,瑞穂市,生津天王町２丁目７番地２,,21,216,5010216,,,,,,,2025-04-24,1,,,,,ダイマン,0
2001,8290001109705,新規,0,2025-04-24,2025-04-24,ベンダー株式会社,,株式会社,福岡県,久留米市,野中町９５４番地２－２０１,,40,203,8390862,,,,,,,2025-04-24,1,,,,,ベンダー,0
2002,8290001109845,新規,0,2025-04-24,2025-04-24,株式会社建大地所,,株式会社,福岡県,福岡市東区,香椎照葉７丁目６番４６号,,40,131,8130017,,,,,,,2025-04-24,1,,,,,ケンダイジショ,0
2004,8290003016692,新規,0,2025-04-24,2025-04-24,合同会社Ｐｒｏｐｅｌ‐Ｌａｂ,,合同会社,福岡県,福岡市中央区,天神４丁目６－２８天神ファーストビル７階,,40,133,8100001,,,,,,,2025-04-24,1,,,,,プロペルラボ,0
2005,8290003016734,新規,0,2025-04-24,2025-04-24,合同会社ＮＫ,,合同会社,福岡県,久留米市,田主丸町豊城５８７番地,,40,203,8391234,,,,,,,2025-04-24,1,,,,,エヌケイ,0
2011,8320005010236,新規,0,2025-04-24,2025-04-24,行政書士法人ＲＵＢＥＬＥ,,その他の設立登記法人,大分県,大分市,大州浜１丁目９番６号,,44,201,8700906,,,,,,,2025-04-24,1,,,,,ルベル,0
2016,8360001035092,新規,0,2025-04-24,2025-04-24,株式会社グッドプログレス,,株式会社,沖縄県,浦添市,宮城２丁目３５番２号２階,,47,208,9012126,,,,,,,2025-04-24,1,,,,,グッドプログレス,0
2041,8700150130196,新規,0,2025-04-24,2025-04-24,ＰＩＡ　Ｐｒｉｖａｔｅ　Ｉｎｔｅｒｎｅｔ　Ａｃｃｅｓｓ　Ｉｎｃ,,外国会社等,,,,,,,,２５１　Ｌｉｔｔｌｅ　Ｆａｌｌｓ　Ｄｒｉｖｅ，Ｗｉｌｍｉｎｇｔｏｎ，Ｄｅｌａｗａｒｅ，ＵＳＡ,,,,,,2025-04-24,1,,,,,ピーアイエープライベートインターネツトアクセスインク,0
2050,9010003047129,新規,0,2025-04-24,2025-04-24,戸田ソーラーシェアリング合同会社,,合同会社,東京都,中央区,京橋１丁目７番１号,,13,102,1040031,,,,,,,2025-04-24,1,,,,,トダソーラーシェアリング,0
2051,9010003047178,新規,0,2025-04-24,2025-04-24,合同会社ｍｉｄｎｉｇｈｔ,,合同会社,東京都,文京区,大塚６丁目１６番５号Ｓ・Ｔ・ビルディング２０６,,13,105,1120012,,,,,,,2025-04-24,1,,,,,ミッドナイト,0
2058,9010005039958,新規,0,2025-04-24,2025-04-24,一般社団法人國酒テック・イノベーション推進機構,,その他の設立登記法人,東京都,中央区,日本橋人形町２丁目３５番３号カラットビル１Ｆ,,13,102,1030013,,,,,,,2025-04-24,1,,,,,コクシュテックイノベーションスイシンキコウ,0
2064,9010401189786,新規,0,2025-04-24,2025-04-24,Ｔｏｏ　Ｇｏｏｄ　Ｔｏ　Ｇｏ　Ｊａｐａｎ株式会社,,株式会社,東京都,港区,六本木６丁目２番３１号六本木ヒルズノースタワー１７階,,13,103,1060032,,,,,,,2025-04-24,1,,,,,トゥーグッドトゥゴージャパン,0
2074,9010903009863,新規,0,2025-04-24,2025-04-24,ＪＦＤフード東京合同会社,,合同会社,東京都,世田谷区,上北沢５丁目３３－２３ハーモニーテラス八幡山ＩＩ１０３,00138891,13,112,1560057,,,,,,,2025-04-24,1,,,,,ジェエフディフードトウキョウ,0
2083,9011001169014,新規,0,2025-04-24,2025-04-24,トライシアパートナーズ株式会社,,株式会社,東京都,渋谷区,恵比寿南１丁目１－１ヒューマックス恵比寿ビル７階,,13,113,1500022,,,,,,,2025-04-24,1,,,,,トライシアパートナーズ,0
2084,9011001169039,新規,0,2025-04-24,2025-04-24,フードブリッジ株式会社,,株式会社,東京都,渋谷区,桜丘町１８－４二宮ビル１Ｆ－５６,,13,113,1500031,,,,,,,2025-04-24,1,,,,,フードブリッジ,0
2085,9011001169138,新規,0,2025-04-24,2025-04-24,株式会社ホワイトストーン,,株式会社,東京都,渋谷区,道玄坂１丁目１２番１号渋谷マークシティＷ２２階,,13,113,1500043,,,,,,,2025-04-24,1,,,,,ホワイトストーン,0
2086,9011001169146,新規,0,2025-04-24,2025-04-24,ＳＵＫＩ　ＳＵＫＩ株式会社,,株式会社,東京都,渋谷区,神宮前３丁目２１番８号,,13,113,1500001,,,,,,,2025-04-24,1,,,,,スキスキ,0
2087,9011001169154,新規,0,2025-04-24,2025-04-24,株式会社ＭｅｄｉａＸ,,株式会社,東京都,渋谷区,東１丁目２７番１０号,,13,113,1500011,,,,,,,2025-04-24,1,,,,,メディアエックス,0
2088,9011001169170,新規,0,2025-04-24,2025-04-24,株式会社ＳＨＩＳＥＩ　ＰＲＯＭＯＴＩＯＮ,,株式会社,東京都,目黒区,下目黒２丁目１２番３号,,13,110,1530064,,,,,,,2025-04-24,1,,,,,シセイプロモーション,0
2089,9011001169435,新規,0,2025-04-24,2025-04-24,小畑石油採掘株式会社,,株式会社,東京都,目黒区,上目黒２丁目２４－１第一麻生ビル２０１,,13,110,1530051,,,,,,,2025-04-24,1,,,,,オバタセキユサイクツ,0
2090,9011003021222,新規,0,2025-04-24,2025-04-24,合同会社いいな,,合同会社,東京都,渋谷区,渋谷２丁目１９－１５宮益坂ビルディング６０９,,13,113,1500002,,,,,,,2025-04-24,1,,,,,イイナ,0
2091,9011003021453,新規,0,2025-04-24,2025-04-24,Ｍａｒｇａｒｅｔ合同会社,,合同会社,東京都,渋谷区,円山町５番５号,,13,113,1500044,,,,,,,2025-04-24,1,,,,,マーガレット,0
2097,9011101111536,新規,0,2025-04-24,2025-04-24,三ッ輪環境計画株式会社,,株式会社,東京都,新宿区,西新宿８丁目１４番２４号,,13,104,1600023,,,,,,,2025-04-24,1,,,,,ミツワカンキョウケイカク,0
2098,9011101111552,新規,0,2025-04-24,2025-04-24,ＡＧＴ株式会社,,株式会社,東京都,新宿区,北新宿４丁目２１－３青麦ビル１０３号室,,13,104,1690074,,,,,,,2025-04-24,1,,,,,エージーティー,0
2103,9011301030528,新規,0,2025-04-24,2025-04-24,株式会社１２２１,,株式会社,東京都,杉並区,高井戸東４丁目１６番２１号,,13,115,1680072,,,,,,,2025-04-24,1,,,,,イチニイニイイチ,0
2106,9011705001884,新規,0,2025-04-24,2025-04-24,一般社団法人美研究会,,その他の設立登記法人,東京都,江戸川区,春江町２丁目８番８号,,13,123,1320003,,,,,,,2025-04-24,1,,,,,ビケンキュウカイ,0
2113,9012801023921,新規,0,2025-04-24,2025-04-24,株式会社ＫＩＴＴＹＳ,,株式会社,東京都,立川市,錦町２丁目１番３２号,,13,202,1900022,,,,,,,2025-04-24,1,,,,,キティズ,0
2115,9012803003715,新規,0,2025-04-24,2025-04-24,合同会社コンドウコム,,合同会社,東京都,昭島市,美堀町５丁目５番７－１１０号,,13,207,1960001,,,,,,,2025-04-24,1,,,,,コンドウコム,0
2122,9020001162440,新規,0,2025-04-24,2025-04-24,株式会社ＡＭＡＴＲＵ,,株式会社,神奈川県,横浜市青葉区,美しが丘１丁目２０番地たまプラーザ団地５－７棟１０２号,,14,117,2250002,,,,,,,2025-04-24,1,,,,,アマテル,0
2126,9020003028342,新規,0,2025-04-24,2025-04-24,Ｍａｔｔｈｅｗ合同会社,,合同会社,神奈川県,川崎市宮前区,菅生３丁目３９番１０－２号,,14,136,2160015,,,,,,,2025-04-24,1,,,,,マシュー,0
2129,9021001085012,新規,0,2025-04-24,2025-04-24,株式会社ウェイブキッズ,,株式会社,神奈川県,平塚市,中原１丁目１７番１８号３Ｆ,,14,203,2540075,,,,,,,2025-04-24,1,,,,,ウェイブキッズ,0
2130,9021001085086,新規,0,2025-04-24,2025-04-24,株式会社紅順貿易,,株式会社,神奈川県,平塚市,高村２６番地高村団地２７－５０４,,14,203,2540914,,,,,,,2025-04-24,1,,,,,コウジュンボウエキ,0
2132,9021003015891,新規,0,2025-04-24,2025-04-24,合同会社ＫＳＳ　ＦＩＬＭ,,合同会社,神奈川県,藤沢市,羽鳥１丁目３番３４－２０号,,14,205,2510056,,,,,,,2025-04-24,1,,,,,,0
2141,9030001166093,新規,0,2025-04-24,2025-04-24,こしがや不動産株式会社,,株式会社,埼玉県,越谷市,中町７番２２号フェリシティ越谷２０３,,11,222,3430817,,,,,,,2025-04-24,1,,,,,コシガヤフドウサン,0
2151,9040001138406,新規,0,2025-04-24,2025-04-24,株式会社潤辰商事,,株式会社,千葉県,松戸市,新松戸６丁目２７９番地の４８,,12,207,2700034,,,,,,,2025-04-24,1,,,,,ジュンタツ,0
2152,9040001138414,新規,0,2025-04-24,2025-04-24,株式会社Ｒｉｓｏ,,株式会社,千葉県,松戸市,千駄堀１５６９番地,,12,207,2702252,,,,,,,2025-04-24,1,,,,,リーゾ,0
2153,9040001138439,新規,0,2025-04-24,2025-04-24,株式会社Ｕｋｎｉｇｈｔ,,株式会社,千葉県,市川市,南行徳４丁目８－２３,,12,203,2720138,,,,,,,2025-04-24,1,,,,,ユナイト,0
2154,9040001138463,新規,0,2025-04-24,2025-04-24,株式会社Ｃｒｅａｔｅ　Ｆｕｔｕｒｅ,,株式会社,千葉県,市川市,北方町４丁目１９０６番地２コーポ市川５０２,,12,203,2720811,,,,,,,2025-04-24,1,,,,,クリエイトフューチャー,0
2162,9040003027318,新規,0,2025-04-24,2025-04-24,合同会社ＪＡＰＡＮ　ＶＩＬＬＡ　Ｍ,,合同会社,千葉県,富津市,金谷５１７－８,,12,226,2991861,,,,,,,2025-04-24,1,,,,,ジャパンビラエム,0
2163,9040003027383,新規,0,2025-04-24,2025-04-24,Ｔ合同会社,,合同会社,千葉県,松戸市,大橋３８４－７－１０３,,12,207,2702224,,,,,,,2025-04-24,1,,,,,ティー,0
2164,9040003027417,新規,0,2025-04-24,2025-04-24,合同会社ＰＨＯＥＮＩＸ,,合同会社,千葉県,千葉市中央区,南生実町１２２０番地１０,,12,101,2600814,,,,,,,2025-04-24,1,,,,,フェニックス,0
2180,9090002015806,新規,0,2025-04-24,2025-04-24,有限会社芙蓉商事,,有限会社,山梨県,甲府市,中央１丁目１９番１号,,19,201,4000032,,,,,,,2025-04-24,1,,,,,フヨウショウジ,0
2188,9120001274804,新規,0,2025-04-24,2025-04-24,豊茂株式会社,,株式会社,大阪府,大阪市生野区,巽北１丁目１番１号１Ｆ－Ｂ,,27,116,5440004,,,,,,,2025-04-24,1,,,,,ホウモ,0
2189,9120001274861,新規,0,2025-04-24,2025-04-24,株式会社アーチアルクス,,株式会社,大阪府,大阪市東住吉区,田辺３丁目４番２２号,,27,121,5460031,,,,,,,2025-04-24,1,,,,,アーチアルクス,0
2193,9120003029330,新規,0,2025-04-24,2025-04-24,合同会社ねこにゃ,,合同会社,大阪府,枚方市,長尾家具町２丁目７番地の３２,,27,210,5730102,,,,,,,2025-04-24,1,,,,,ネコニャ,0
2199,9120103006403,新規,0,2025-04-24,2025-04-24,合同会社みらい,,合同会社,大阪府,富田林市,錦織東１丁目６番５号－２０２号室,,27,214,5840069,,,,,,,2025-04-24,1,,,,,ミライ,0
2202,9120901050750,新規,0,2025-04-24,2025-04-24,株式会社中江組,,株式会社,大阪府,高槻市,津之江町２丁目５１番８号,,27,207,5690822,,,,,,,2025-04-24,1,,,,,ナカエグミ,0
2214,9140001138197,新規,0,2025-04-24,2025-04-24,株式会社三神,,株式会社,兵庫県,姫路市,夢前町前之庄９８５番地３,,28,201,6712103,,,,,,,2025-04-24,1,,,,,ミカミ,0
2215,9140001138230,新規,0,2025-04-24,2025-04-24,株式会社Ｔ＆Ｃ,,株式会社,兵庫県,西脇市,和田町３７２番地の１,,28,213,6770052,,,,,,,2025-04-24,1,,,,,ティーアンドシー,0
2216,9140001138263,新規,0,2025-04-24,2025-04-24,株式会社ＳＩＮ‐ＥＩ,,株式会社,兵庫県,宝塚市,野上１丁目２番２５号,,28,214,6650022,,,,,,,2025-04-24,1,,,,,シンエイ,0
2217,9140001138271,新規,0,2025-04-24,2025-04-24,株式会社ＫＲＪ,,株式会社,兵庫県,神戸市中央区,八雲通５丁目１番３－２０２号,,28,110,6510078,,,,,,,2025-04-24,1,,,,,ケーアールジェイ,0
2220,9160001026706,新規,0,2025-04-24,2025-04-24,ボズテック株式会社,,株式会社,滋賀県,米原市,高溝２１３番地５８,,25,214,5210074,,,,,,,2025-04-24,1,,,,,ボズテック,0
2224,9180001166475,新規,0,2025-04-24,2025-04-24,株式会社Ｐａｒｋ　Ｃｏｒｐｏｒａｔｉｏｎ,,株式会社,愛知県,名古屋市東区,主税町４丁目７７番地,,23,102,4610018,,,,,,,2025-04-24,1,,,,,パークコーポレーション,0
2225,9180001166509,新規,0,2025-04-24,2025-04-24,株式会社ＣＬＥＡＲ　ＢＥＬＬ,,株式会社,愛知県,海部郡大治町,大字砂子字大宮崎２６４５番地の４４,,23,424,4901143,,,,,,,2025-04-24,1,,,,,クリアベル,0
2226,9180001166541,新規,0,2025-04-24,2025-04-24,株式会社ｋｕｋｕｎａ,,株式会社,愛知県,豊明市,前後町鎌ケ須１８０６番地１０,,23,229,4701151,,,,,,,2025-04-24,1,,,,,ククナ,0
2230,9180301039744,新規,0,2025-04-24,2025-04-24,株式会社テイセイ美装,,株式会社,愛知県,蒲郡市,竹谷町東作間９番地１,,23,214,4430046,,,,,,,2025-04-24,1,,,,,テイセイビソウ,0
2231,9180301039752,新規,0,2025-04-24,2025-04-24,株式会社Ａｍａｚｅ,,株式会社,愛知県,知立市,牛田町高根２１番地２４,,23,225,4720007,,,,,,,2025-04-24,1,,,,,アメーズ,0
2242,9220005008958,新規,0,2025-04-24,2025-04-24,医療法人社団岡山会,,その他の設立登記法人,石川県,小松市,沖町ソ１０８番,,17,203,9230861,,,,,,,2025-04-24,1,,,,,オカヤマカイ,0
2248,9240005015936,新規,0,2025-04-24,2025-04-24,広島県立病院機構職員労働組合,,その他の設立登記法人,広島県,広島市南区,宇品神田１丁目５番５４号,,34,103,7340004,,,,,,,2025-04-24,1,,,,,ヒロシマケンリツビョウインキコウショクイン,0
2259,9260001040135,新規,0,2025-04-24,2025-04-24,株式会社あやめ,,株式会社,岡山県,倉敷市,田ノ上９２１番地１,,33,202,7100831,,,,,,,2025-04-24,1,,,,,アヤメ,0
2260,9260001040143,新規,0,2025-04-24,2025-04-24,公協リゾートビジネス株式会社,,株式会社,岡山県,岡山市中区,下４２６番地１,,33,102,7038222,,,,,,,2025-04-24,1,,,,,コウキョウリゾートビジネス,0
2265,9290001109844,新規,0,2025-04-24,2025-04-24,株式会社Ａｐｒｉｌハイヤー,,株式会社,福岡県,福岡市東区,香椎照葉７丁目６番４６号,,40,131,8130017,,,,,,,2025-04-24,1,,,,,エイプリルハイヤー,0
2266,9290003016725,新規,0,2025-04-24,2025-04-24,合同会社ハートユニット,,合同会社,福岡県,久留米市,城南町８番地１ヴェルパーク久留米城南２０３号,,40,203,8300022,,,,,,,2025-04-24,1,,,,,ハートユニット,0
2267,9290003016741,新規,0,2025-04-24,2025-04-24,Ｅａｒｔｈ　Ｌｏｏｐ合同会社,,合同会社,福岡県,大牟田市,大字岩本２３０９,,40,202,8370913,,,,,,,2025-04-24,1,,,,,アースループ,0
2269,9290005019718,新規,0,2025-04-24,2025-04-24,一般社団法人ＴＥＡＭ　ＰＨＯＥＮＩＸ,,その他の設立登記法人,福岡県,糟屋郡志免町,別府西２丁目２３番３号,,40,343,8112232,,,,,,,2025-04-24,1,,,,,チームフェニックス,0
2274,9310001019578,新規,0,2025-04-24,2025-04-24,株式会社ＣＰＧ　Ｊａｐａｎ,,株式会社,長崎県,長崎市,古川町３番１１号,,42,201,8500851,,,,,,,2025-04-24,1,,,,,シーピージージャパン,0
2278,9320001021070,新規,0,2025-04-24,2025-04-24,株式会社日出空調,,株式会社,大分県,速見郡日出町,大字平道１７９番地２,,44,341,8791508,,,,,,,2025-04-24,1,,,,,ヒジクウチョウ,0
2280,9330001033115,新規,0,2025-04-24,2025-04-24,株式会社ハンモ水上,,株式会社,熊本県,球磨郡水上村,大字岩野２６９６番地２,,43,507,8680701,,,,,,,2025-04-24,1,,,,,ハンモミズカミ,0
2285,9360003014861,新規,0,2025-04-24,2025-04-24,合同会社Ｇｏｌｄｅｎ　Ｂｅａｃｈ,,合同会社,沖縄県,糸満市,字糸満１１番地の５,,47,210,9010361,,,,,,,2025-04-24,1,,,,,ゴールデンビーチ,0
2286,9360003014886,新規,0,2025-04-24,2025-04-24,ＫＩＲＵＴ合同会社,,合同会社,沖縄県,南城市,玉城字船越７７３－１ルネッサンス石原４０７,,47,215,9010618,,,,,,,2025-04-24,1,,,,,キルト,0
2301,9410003004089,新規,0,2025-04-24,2025-04-24,合同会社水谷左官工業,,合同会社,秋田県,横手市,山内土渕字根子２番地２,,05,203,0191108,,,,,,,2025-04-24,1,,,,,ミズタニサカンコウギョウ,0
2305,9430001094270,新規,0,2025-04-24,2025-04-24,株式会社之,,株式会社,北海道,千歳市,豊里４丁目３番２－２号,,01,224,0660022,,,,,,,2025-04-24,1,,,,,イタル,0
2309,9450003002650,新規,0,2025-04-24,2025-04-24,合同会社ＦＵＳＥ,,合同会社,北海道,旭川市,近文町２５丁目２１２２番地の８２,,01,204,0700821,,,,,,,2025-04-24,1,,,,,フューズ,0
2310,9460003001049,新規,0,2025-04-24,2025-04-24,合同会社裕ｏｆｆｉｃｅ,,合同会社,北海道,釧路市,北大通４丁目６番地,,01,206,0850015,,,,,,,2025-04-24,1,,,,,ユウオフィス,0
2313,9700150130195,新規,0,2025-04-24,2025-04-24,Ｂ＋Ｎ　Ｒｅｆｅｒｅｎｃｉａ　Ｚｒｔ．,,外国会社等,,,,,,,,Ｈｕｎｇａｒｙ，３６４４　Ｔａｒｄｏｎａ，Ｋａｔｕｓ　ｈｉｌｌ　１．,,,,,,2025-04-24,1,,,,,ビープラスエヌレフエレンシア,0
