sequenceNumber,corporateNumber,process,correct,updateDate,changeDate,name,nameImageId,kind,prefectureName,cityName,streetNumber,addressImageId,prefectureCode,cityCode,postCode,addressOutside,addressOutsideImageId,closeDate,closeCause,successorCorporateNumber,changeCause,assignmentDate,latest,enName,enPrefectureName,enCityName,enAddressOutside,furigana,hihyoji
1,1010001028071,登記記録の閉鎖等,0,2023-12-26,2023-12-20,株式会社ファビアンコーポレーション,,株式会社,東京都,文京区,小石川５丁目１０番１８号ビスタ竹早１階,,13,105,1120002,,,2023-12-20,清算の結了等,,,2015-10-05,1,,,,,ファビアンコーポレーション,0
2,1010001056196,登記記録の閉鎖等,0,2023-12-26,2023-12-21,株式会社マロニエゲート,,株式会社,東京都,中央区,銀座３丁目２番１号,,13,102,1040061,,,2023-12-21,清算の結了等,,,2015-10-05,1,,,,,マロニエゲート,0
4,1010001119143,登記記録の閉鎖等,0,2023-12-26,2023-12-20,サンアート興産株式会社,,株式会社,東京都,文京区,本郷６丁目２５番１４号,,13,105,1130033,,,2023-12-20,清算の結了等,,,2015-10-05,1,,,,,サンアートコウサン,0
7,1010001177645,登記記録の閉鎖等,0,2023-12-26,2023-12-21,株式会社Ｓｙｎａｍｏｎ,,株式会社,東京都,港区,芝大門１丁目３番１０号,,13,103,1050012,,,2023-12-21,清算の結了等,,,2016-08-16,1,,,,,シナモン,0
8,1010001182050,登記記録の閉鎖等,0,2023-12-26,2023-12-21,株式会社コンピング,,株式会社,東京都,中央区,銀座７丁目１３番６号サガミビル２Ｆ,,13,102,1040061,,,2023-12-21,清算の結了等,,,2017-03-10,1,,,,,コンピング,0
12,1010002006076,登記記録の閉鎖等,0,2023-12-26,2023-12-20,有限会社メディカル・ワン,,有限会社,東京都,文京区,春日２丁目１１番８－４０１号,,13,105,1120003,,,2023-12-20,清算の結了等,,,2015-10-05,1,,,,,メディカルワン,0
15,1010101012322,登記記録の閉鎖等,0,2023-12-26,2023-12-25,株式会社シラサギ・ショウ,,株式会社,東京都,八王子市,子安町４丁目３－３,,13,201,1920904,,,2023-12-25,清算の結了等,,,2016-04-25,1,,,,,,0
17,1010401076975,登記記録の閉鎖等,0,2023-12-26,2023-12-20,株式会社フルライフ,,株式会社,東京都,目黒区,下目黒１丁目１番１４号,,13,110,1530064,,,2023-12-20,清算の結了等,,,2015-10-05,1,,,,,フルライフ,0
25,1010403013167,登記記録の閉鎖等,0,2023-12-26,2023-12-22,合同会社グリーンファイル,,合同会社,東京都,目黒区,青葉台２丁目１９番１０号,,13,110,1530042,,,2023-12-22,清算の結了等,,,2015-10-05,1,,,,,グリーンファイル,0
35,1010901028831,登記記録の閉鎖等,0,2023-12-26,2023-12-19,株式会社二葉システム,,株式会社,東京都,世田谷区,成城２丁目２番１２号,,13,112,1570066,,,2023-12-19,清算の結了等,,,2015-10-05,1,,,,,フタバシステム,0
41,1011001018252,登記記録の閉鎖等,0,2023-12-26,2023-12-20,株式会社野口成功堂,,株式会社,東京都,渋谷区,西原１丁目２０番４号,,13,113,1510066,,,2023-12-20,清算の結了等,,,2015-10-05,1,,,,,ノグチセイコウドウ,0
42,1011001040066,登記記録の閉鎖等,0,2023-12-26,2023-12-21,株式会社メディポート,,株式会社,東京都,渋谷区,恵比寿４丁目２０番３号,,13,113,1500013,,,2023-12-21,清算の結了等,,,2015-10-05,1,,,,,メディポート,0
52,1011002030116,登記記録の閉鎖等,0,2023-12-26,2023-12-19,有限会社エターナルライズ,,有限会社,東京都,世田谷区,宮坂３丁目１９番１４号,,13,112,1560051,,,2023-12-19,清算の結了等,,,2015-10-05,1,,,,,エターナルライズ,0
59,1011201002634,登記記録の閉鎖等,0,2023-12-26,2023-12-20,伸和株式会社,,株式会社,東京都,中野区,中野３丁目３８番２号ヒースローズ２０３号,,13,114,1640001,,,2023-12-20,清算の結了等,,,2015-10-05,1,,,,,シンワ,0
63,1011801028582,登記記録の閉鎖等,0,2023-12-26,2023-12-22,Ｒａｋｕｇａｎａｎ　Ｄｅｓｉｇｎ株式会社,,株式会社,東京都,葛飾区,青戸６丁目１２番１９号,,13,122,1250062,,,2023-12-22,清算の結了等,,,2015-10-05,1,,,,,ラクガナンデザイン,0
67,1011803002387,登記記録の閉鎖等,0,2023-12-26,2023-12-22,合同会社江北学習塾,,合同会社,東京都,足立区,江北４丁目７番２７号,,13,121,1230872,,,2023-12-22,清算の結了等,,,2016-03-08,1,,,,,コウホクガクシュウジュク,0
69,1011805000686,登記記録の閉鎖等,0,2023-12-26,2023-12-01,医療法人社団民政会,,その他の設立登記法人,東京都,足立区,千住東１丁目２０番１２号,,13,121,1200025,,,2023-12-01,合併による解散等,1011805000579,令和５年１２月１日東京都足立区竹の塚四丁目１番１２号医療法人社団苑田会（1011805000579）に合併し解散,2015-10-05,1,,,,,ミンセイカイ,0
71,1013201004858,登記記録の閉鎖等,0,2023-12-26,2023-12-25,株式会社美装,,株式会社,東京都,目黒区,目黒本町５丁目３０番１５号,,13,110,1520002,,,2023-12-25,清算の結了等,,,2015-10-05,1,,,,,ビソウ,0
78,1020001124753,登記記録の閉鎖等,0,2023-12-26,2023-12-19,株式会社三真設備,,株式会社,神奈川県,横浜市鶴見区,馬場７丁目２３番３号,,14,101,2300076,,,2023-12-19,清算の結了等,,,2018-01-24,1,,,,,サンシンセツビ,0
81,1021001067802,登記記録の閉鎖等,0,2023-12-26,2023-12-22,里山工業株式会社,,株式会社,神奈川県,綾瀬市,大上１丁目１０番１号,,14,218,2521104,,,2023-12-22,清算の結了等,,,2019-07-26,1,,,,,サトヤマコウギョウ,0
89,1030001083255,登記記録の閉鎖等,0,2023-12-26,2023-12-21,株式会社ＢＯＮＤ,,株式会社,埼玉県,蕨市,塚越５丁目２４番１０号平泉荘,,11,223,3350002,,,2023-12-21,清算の結了等,,,2015-10-05,1,,,,,,0
102,1050002004877,登記記録の閉鎖等,0,2023-12-26,2023-12-21,有限会社ワイデザイン事務所,,有限会社,茨城県,水戸市,見川５丁目３２１番９号,,08,201,3100912,,,2023-12-21,清算の結了等,,,2015-10-05,1,,,,,ワイデザインジムショ,0
125,1120001100232,登記記録の閉鎖等,0,2023-12-26,2023-12-25,株式会社フロントフォー,,株式会社,大阪府,大阪市北区,芝田１丁目１０番１０号,,27,127,5300012,,,2023-12-25,清算の結了等,,,2015-10-05,1,,,,,フロントフォー,0
132,1120002051697,登記記録の閉鎖等,0,2023-12-26,2023-12-25,有限会社高橋ホテルズ,00106762,有限会社,大阪府,大阪市北区,南森町２丁目１番２９号,,27,127,5300054,,,2023-12-25,清算の結了等,,,2015-10-05,1,,,,,タカハシホテルズ,0
144,1130001041079,登記記録の閉鎖等,0,2023-12-26,2023-12-21,株式会社サンプラザ万助,,株式会社,京都府,福知山市,篠尾新町３丁目５２番地,,26,201,6200055,,,2023-12-21,清算の結了等,,,2015-10-05,1,,,,,サンプラザマンスケ,0
151,1140002050284,登記記録の閉鎖等,0,2023-12-26,2023-12-21,有限会社ハリマテクノ,,有限会社,兵庫県,姫路市,大塩町１２４番地の１,,28,201,6710101,,,2023-12-21,清算の結了等,,,2015-10-05,1,,,,,ハリマテクノ,0
152,1140002064193,登記記録の閉鎖等,0,2023-12-26,2023-12-20,有限会社わかばや酒店,,有限会社,兵庫県,伊丹市,安堂寺町２丁目７８番地,,28,207,6640864,,,2023-12-20,清算の結了等,,,2015-10-05,1,,,,,ワカバヤサケテン,0
153,1140003005188,登記記録の閉鎖等,0,2023-12-26,2023-12-25,合同会社Ｓｔｒｏｎｇ　Ｒｅａｌ　Ｅｓｔａｔｅ２,,合同会社,兵庫県,神戸市中央区,江戸町９６番地ストロングビルディング,,28,110,6500033,,,2023-12-25,清算の結了等,,,2015-10-05,1,,,,,ストロングリアルエステートツー,0
163,1180001084271,登記記録の閉鎖等,0,2023-12-26,2023-12-19,大一テクノ販売株式会社,,株式会社,愛知県,一宮市,上祖父江字南外山１６番地,,23,203,4940014,,,2023-12-19,清算の結了等,,,2015-10-05,1,,,,,ダイイチテクノハンバイ,0
178,1190002009086,登記記録の閉鎖等,0,2023-12-26,2023-12-20,有限会社立野商店,,有限会社,三重県,伊勢市,宇治今在家町１２９番地,,24,203,5160024,,,2023-12-20,清算の結了等,,,2015-10-05,1,,,,,タチノショウテン,0
179,1200001013533,登記記録の閉鎖等,0,2023-12-26,2023-12-22,協和精機株式会社,,株式会社,岐阜県,大垣市,平町字川向６８５番地の１,,21,202,5030841,,,2023-12-22,清算の結了等,,,2015-10-05,1,,,,,キョウワセイキ,0
183,1220005002720,登記記録の閉鎖等,0,2023-12-26,2023-12-22,中川寺,,その他の設立登記法人,石川県,白山市,殿町３５番地,,17,210,9240885,,,2023-12-22,清算の結了等,,,2015-10-05,1,,,,,チュウセンジ,0
186,1240001057733,登記記録の閉鎖等,0,2023-12-26,2023-12-01,Ｒｅくらす株式会社,,株式会社,広島県,福山市,千田町２丁目１番１８号,,34,207,7200017,,,2023-12-01,合併による解散等,4240001057730,広島県福山市千田町二丁目１番１８号リノアークグループ株式会社（4240001057730）に合併し解散,2021-04-05,1,,,,,リクラス,0
190,1250001014221,登記記録の閉鎖等,0,2023-12-26,2023-12-20,株式会社ＴＡＮＡＫＡ．ＬＡＢＯ,,株式会社,山口県,周南市,大字呼坂１１００番地の３２１,,35,215,7450612,,,2023-12-20,清算の結了等,,,2015-10-05,1,,,,,,0
200,1290001047861,登記記録の閉鎖等,0,2023-12-26,2023-12-19,株式会社筑後路の里やまご,,株式会社,福岡県,筑後市,大字熊野２５１番地１,,40,211,8330055,,,2023-12-19,清算の結了等,,,2015-10-05,1,,,,,チクゴジノサトヤマゴ,0
205,1290001085432,登記記録の閉鎖等,0,2023-12-26,2023-12-19,株式会社ＬＩＢＲＡ,,株式会社,福岡県,久留米市,国分町８４４番地３ハウスフリーデＩＩ３０２号,00116824,40,203,8390863,,,2023-12-19,清算の結了等,,,2019-06-07,1,,,,,リブラ,0
228,1350002001539,登記記録の閉鎖等,0,2023-12-26,2023-12-20,有限会社クリッパー,,有限会社,宮崎県,宮崎市,広島１丁目４番５号,,45,201,8800806,,,2023-12-20,清算の結了等,,,2015-10-05,1,,,,,クリッパー,0
230,1360005004868,登記記録の閉鎖等,0,2023-12-26,2023-12-19,沖縄県指定自動車学校事業協同組合,,その他の設立登記法人,沖縄県,那覇市,西３丁目７番１１号,,47,201,9000036,,,2023-12-19,清算の結了等,,,2015-10-05,1,,,,,オキナワケンシテイジドウシャガッコウ,0
251,1450002012146,登記記録の閉鎖等,0,2023-12-26,2023-12-22,有限会社中村,,有限会社,北海道,苫前郡羽幌町,港町１丁目２７番地,,01,484,0784120,,,2023-12-22,清算の結了等,,,2015-10-05,1,,,,,ナカムラ,0
253,1470001004506,登記記録の閉鎖等,0,2023-12-26,2023-12-22,株式会社ケイツー測機,,株式会社,香川県,高松市,多肥下町１５３２番地２,,37,201,7618075,,,2023-12-22,清算の結了等,,,2015-10-05,1,,,,,,0
257,1490001002334,登記記録の閉鎖等,0,2023-12-26,2023-12-25,丸共株式会社,,株式会社,高知県,高知市,玉水町６１番地２,,39,201,7800931,,,2023-12-25,清算の結了等,,,2015-10-05,1,,,,,マルキョウ,0
264,2010001134018,登記記録の閉鎖等,0,2023-12-26,2023-12-21,株式会社コロナジャパン,,株式会社,東京都,中央区,日本橋富沢町４番１２号,,13,102,1030006,,,2023-12-21,清算の結了等,,,2015-10-05,1,,,,,コロナジャパン,0
272,2010005012657,登記記録の閉鎖等,0,2023-12-26,2023-11-17,特定非営利活動法人よみママクラブネット,,その他の設立登記法人,東京都,千代田区,一ツ橋２丁目１番２号国立情報学研究所曽根原研究室,,13,101,1010003,,,2023-11-17,清算の結了等,,,2015-10-05,1,,,,,ヨミママクラブネット,0
287,2010703002901,登記記録の閉鎖等,0,2023-12-26,2023-12-18,Ｆａｒｇ　Ｄｅｓｉｇｎ合同会社,,合同会社,東京都,品川区,平塚２丁目９番１号東武ハイライン戸越銀座３０３,,13,109,1420051,,,2023-12-18,清算の結了等,,,2015-10-27,1,,,,,ファルグデザイン,0
317,2011303001764,登記記録の閉鎖等,0,2023-12-26,2023-12-22,ＯｐｅｎＭｉｎｄＣｏｍｍｕｎｉｃａｔｉｏｎ株式会社,,株式会社,東京都,豊島区,池袋２丁目５７番６号ＭＣオフィス池袋西口ビルＬ号,,13,116,1710014,,,2023-12-22,清算の結了等,,,2015-10-05,1,,,,,オープンマインドコミュニケーション,0
328,2012401018304,登記記録の閉鎖等,0,2023-12-26,2023-12-19,株式会社クレスタント,,株式会社,東京都,国立市,中３丁目１１番地の１－１４０８,,13,215,1860004,,,2023-12-19,清算の結了等,,,2015-10-05,1,,,,,クレスタント,0
331,2012801020842,登記記録の閉鎖等,0,2023-12-26,2023-12-19,Ｈ＆Ｂ株式会社,,株式会社,東京都,国立市,谷保６丁目１２番地の３５,,13,215,1860011,,,2023-12-19,清算の結了等,,,2021-05-21,1,,,,,エイチアンドビー,0
334,2013202007297,登記記録の閉鎖等,0,2023-12-26,2023-12-21,有限会社フジタ,,有限会社,東京都,目黒区,鷹番１丁目１４番２号,,13,110,1520004,,,2023-12-21,清算の結了等,,,2015-10-05,1,,,,,フジタ,0
336,2013301026025,登記記録の閉鎖等,0,2023-12-26,2023-12-21,株式会社マックウィルシスター,,株式会社,東京都,豊島区,東池袋４丁目２１番１－３０１４,,13,116,1700013,,,2023-12-21,清算の結了等,,,2015-10-05,1,,,,,マックウィルシスター,0
344,2020001046798,登記記録の閉鎖等,0,2023-12-26,2023-12-19,株式会社コスモネット,,株式会社,神奈川県,横浜市都筑区,川向町１０２３番１,,14,118,2240044,,,2023-12-19,清算の結了等,,,2015-10-05,1,,,,,コスモネット,0
347,2020001106932,登記記録の閉鎖等,0,2023-12-26,2023-12-20,アダプトＩＰ株式会社,,株式会社,神奈川県,横浜市西区,みなとみらい２丁目２番１号横浜ランドマークタワー,,14,103,2200012,,,2023-12-20,清算の結了等,,,2015-10-05,1,,,,,アダプトアイピー,0
364,2030001128777,登記記録の閉鎖等,0,2023-12-26,2023-12-20,行洲コーポレーション株式会社,,株式会社,埼玉県,三郷市,新三郷ららシティ１丁目１５番２３号,,11,237,3410009,,,2023-12-20,清算の結了等,,,2018-12-20,1,Xingzhou Corporation,Saitama,"LaLaCity 1-15-23, Shim Misato, Misato shi",,コウシュウコーポレーション,0
373,2040001093186,登記記録の閉鎖等,0,2023-12-26,2023-12-15,株式会社Ｋ・Ｆハーモニー,,株式会社,千葉県,流山市,おおたかの森北３丁目１１番地の９,,12,220,2700119,,,2023-12-15,清算の結了等,,,2015-12-07,1,,,,,ケーエフハーモニー,0
382,2080402002659,登記記録の閉鎖等,0,2023-12-26,2023-12-22,有限会社桑原貴金属,,有限会社,静岡県,浜松市中区,肴町３１６番地の３７,,22,131,4300932,,,2023-12-22,清算の結了等,,,2015-10-05,1,,,,,クワバラキキンゾク,0
387,2100002033845,登記記録の閉鎖等,0,2023-12-26,2023-12-18,有限会社池上生産技術研究所,,有限会社,長野県,駒ヶ根市,赤穂２７３３番地,,20,210,3994117,,,2023-12-18,清算の結了等,,,2015-10-05,1,,,,,イケガミセイサンギジュツケンキュウジョ,0
388,2110001003071,登記記録の閉鎖等,0,2023-12-26,2023-12-21,株式会社太陽地所,,株式会社,新潟県,新潟市西区,寺尾上４丁目２番１３号,,15,107,9502055,,,2023-12-21,清算の結了等,,,2015-10-05,1,,,,,タイヨウチショ,0
390,2110002032169,登記記録の閉鎖等,0,2023-12-26,2023-12-20,有限会社小林コンクリート工業,,有限会社,新潟県,小千谷市,大字＿生甲２２２１番地２,00071104,15,208,9470003,,,2023-12-20,清算の結了等,,,2015-10-05,1,,,,,コバヤシコンクリートコウギョウ,0
398,2120002031847,登記記録の閉鎖等,0,2023-12-26,2023-12-20,有限会社Ｍ＆Ｊ,,有限会社,大阪府,大阪市北区,同心１丁目１番１２号,,27,127,5300035,,,2023-12-20,清算の結了等,,,2015-10-05,1,,,,,エムアンドジェイ,0
435,2180001048721,登記記録の閉鎖等,0,2023-12-26,2023-12-18,株式会社プランド,,株式会社,愛知県,名古屋市東区,東桜１丁目１４番５号,,23,102,4610005,,,2023-12-18,清算の結了等,,,2015-10-05,1,,,,,プランド,0
445,2180005008911,登記記録の閉鎖等,0,2023-12-26,2023-12-08,天理教陶明分教会,,その他の設立登記法人,愛知県,瀬戸市,小金町３５番地,,23,204,4890064,,,2023-12-08,合併による解散等,7190005000796,令和５年１２月７日三重県津市岩田２２番１８号天理教津大教会（7190005000796）に合併し解散,2015-10-05,1,,,,,テンリキョウトウメイブンキョウカイ,0
446,2180005009760,登記記録の閉鎖等,0,2023-12-26,2023-12-01,延命寺,,その他の設立登記法人,愛知県,一宮市,萩原町中島字淨土寺１８５１番地,,23,203,4910364,,,2023-12-01,合併による解散等,8180005009994,令和５年１２月１日愛知県一宮市本町通八丁目２３番地地藏寺（8180005009994）に合併し解散,2015-10-05,1,,,,,エンメイジ,0
449,2210001004340,登記記録の閉鎖等,0,2023-12-26,2023-12-21,株式会社ワールド・コム,,株式会社,福井県,福井市,勝見３丁目１０番３０号,,18,201,9100856,,,2023-12-21,清算の結了等,,,2015-10-05,1,,,,,ワールドコム,0
451,2210005008585,登記記録の閉鎖等,0,2023-12-26,2023-12-20,勝福寺,,その他の設立登記法人,福井県,小浜市,田烏９０号１６番地,,18,204,9170101,,,2023-12-20,清算の結了等,,,2015-10-05,1,,,,,ショウフクジ,0
453,2220001012061,登記記録の閉鎖等,0,2023-12-26,2023-12-22,株式会社セントラルモータースカンパニー,,株式会社,石川県,小松市,長田町ロ２１番地２,,17,203,9230034,,,2023-12-22,清算の結了等,,,2015-10-05,1,,,,,セントラルモータースカンパニー,0
457,2250001011374,登記記録の閉鎖等,0,2023-12-26,2023-12-25,株式会社眞田組,,株式会社,山口県,岩国市,三笠町１丁目７番２２号,,35,208,7400016,,,2023-12-25,清算の結了等,,,2015-10-05,1,,,,,,0
461,2270002010225,登記記録の閉鎖等,0,2023-12-26,2023-12-22,有限会社みつわ調剤薬局,,有限会社,鳥取県,倉吉市,井手畑１８７番地,,31,203,6820006,,,2023-12-22,清算の結了等,,,2015-10-05,1,,,,,ミツワチョウザイヤッキョク,0
467,2290001064419,登記記録の閉鎖等,0,2023-12-26,2023-12-21,株式会社ベストスタンプ,,株式会社,福岡県,福岡市南区,高宮４丁目７番４号,,40,134,8150083,,,2023-12-21,清算の結了等,,,2015-10-05,1,,,,,ベストスタンプ,0
507,2360005006302,登記記録の閉鎖等,0,2023-12-26,2023-12-20,一般社団法人美らＳＵＮクラブ,,その他の設立登記法人,沖縄県,豊見城市,字豊崎１番地１１７５－５０６,,47,212,9010225,,,2023-12-20,清算の結了等,,,2020-10-02,1,,,,,チュラサンクラブ,0
513,2400002004675,登記記録の閉鎖等,0,2023-12-26,2023-12-21,有限会社斉藤企画,,有限会社,岩手県,盛岡市,安倍館町４番３２号,,03,201,0200126,,,2023-12-21,清算の結了等,,,2015-10-05,1,,,,,サイトウキカク,0
514,2400002007125,登記記録の閉鎖等,0,2023-12-26,2023-12-21,有限会社塚田工業,,有限会社,岩手県,紫波郡紫波町,犬吠森字境１４５番地の２,,03,321,0283312,,,2023-12-21,清算の結了等,,,2015-10-05,1,,,,,ツカダコウギョウ,0
515,2410003000565,登記記録の閉鎖等,0,2023-12-26,2023-12-22,合名会社クリア企画,,合名会社,秋田県,秋田市,外旭川字待合１番地１,,05,201,0100802,,,2023-12-22,清算の結了等,,,2015-10-05,1,,,,,クリアキカク,0
528,2430002049973,登記記録の閉鎖等,0,2023-12-26,2023-12-19,有限会社岩本写真館,,有限会社,北海道,美唄市,西一条南２丁目２番１５－１号,,01,215,0720024,,,2023-12-19,清算の結了等,,,2015-10-05,1,,,,,イワモトシャシンカン,0
532,2470001009074,登記記録の閉鎖等,0,2023-12-26,2023-12-21,株式会社高須商会,00005109,株式会社,香川県,坂出市,本町２丁目２番４号,,37,203,7620044,,,2023-12-21,清算の結了等,,,2015-10-05,1,,,,,タカスショウカイ,0
544,3010001101215,登記記録の閉鎖等,0,2023-12-26,2023-12-21,株式会社Ｉ・Ｎエステート,,株式会社,東京都,千代田区,九段南２丁目６番８号,,13,101,1020074,,,2023-12-21,清算の結了等,,,2015-10-05,1,,,,,アイエヌエステート,0
556,3010401007409,登記記録の閉鎖等,0,2023-12-26,2023-12-18,株式会社川奈,,株式会社,東京都,港区,西麻布３丁目１番２３号霞一ビル,,13,103,1060031,,,2023-12-18,清算の結了等,,,2015-10-05,1,,,,,カワナ,0
559,3010401112373,登記記録の閉鎖等,0,2023-12-26,2023-12-11,株式会社Ｈ＆Ｋ,,株式会社,東京都,港区,赤坂８丁目１２番８－５０４号,,13,103,1070052,,,2023-12-11,清算の結了等,,,2015-10-05,1,,,,,,0
561,3010401159274,登記記録の閉鎖等,0,2023-12-26,2023-12-18,株式会社おうちでファスティング,,株式会社,東京都,港区,北青山２丁目７－１３プラセオ青山ビル３Ｆ,,13,103,1070061,,,2023-12-18,清算の結了等,,,2021-04-05,1,,,,,オウチデファスティング,0
565,3010403019633,登記記録の閉鎖等,0,2023-12-26,2023-12-20,Ｓｔｒｉｃｔ　Ｓｃｒｅｅｎ　Ｐｒｉｎｔｉｎｇ合同会社,,合同会社,神奈川県,横浜市港北区,新吉田東８丁目５４番１号,,14,109,2230058,,,2023-12-20,清算の結了等,,,2018-11-08,1,,,,,ストリクトスクリーンプリンティング,0
583,3011003011559,登記記録の閉鎖等,0,2023-12-26,2023-12-21,合同会社ネオス・デザイン事務所,,合同会社,東京都,目黒区,碑文谷３丁目１６番２０号コスモ碑文谷１０１,,13,110,1520003,,,2023-12-21,清算の結了等,,,2020-08-26,1,,,,,ネオスデザインジムショ,0
593,3011105010426,登記記録の閉鎖等,0,2023-12-26,2023-12-18,一般社団法人小林久隆先生の前立腺がん光免疫療法研究支援会,,その他の設立登記法人,東京都,新宿区,西新宿３丁目２番８号,,13,104,1600023,,,2023-12-18,清算の結了等,,,2022-09-29,1,,,,,コバヤシヒサタカセンセイノゼンリツセンガンヒカリメンエキリョウホウケンキュウシエンカイ,0
607,3011801011272,登記記録の閉鎖等,0,2023-12-26,2023-12-21,株式会社林田商会,,株式会社,東京都,足立区,東伊興１丁目５番２号,,13,121,1210801,,,2023-12-21,清算の結了等,,,2015-10-05,1,,,,,ハヤシダショウカイ,0
610,3012301010574,登記記録の閉鎖等,0,2023-12-26,2023-12-13,五味観光開発株式会社,,株式会社,東京都,町田市,原町田４丁目１９番１１号,,13,209,1940013,,,2023-12-13,清算の結了等,,,2016-06-07,1,,,,,,0
615,3012405001676,登記記録の閉鎖等,0,2023-12-26,2023-12-21,日本聖公会ナザレ修女会,,その他の設立登記法人,東京都,三鷹市,牟礼４丁目２２番３０号,,13,204,1810002,,,2023-12-21,清算の結了等,,,2015-10-05,1,,,,,ニホンセイコウカイナザレシュウジョカイ,0
616,3012801000174,登記記録の閉鎖等,0,2023-12-26,2023-12-18,岩本電機株式会社,,株式会社,東京都,立川市,若葉町１丁目１６番地５,,13,202,1900001,,,2023-12-18,清算の結了等,,,2015-10-05,1,,,,,イワモトデンキ,0
617,3012801000208,登記記録の閉鎖等,0,2023-12-26,2023-12-15,株式会社ＡＯＴ,,株式会社,東京都,立川市,羽衣町３丁目２６番１４号,,13,202,1900021,,,2023-12-15,清算の結了等,,,2015-10-05,1,,,,,エーオーティー,0
619,3013301043928,登記記録の閉鎖等,0,2023-12-26,2023-12-22,株式会社Ｑｕｏｎ－ＪＡＰＡＮ,,株式会社,東京都,豊島区,南池袋２丁目８番１２号,,13,116,1710022,,,2023-12-22,清算の結了等,,,2019-05-28,1,,,,,クオンジャパン,0
622,3013303005711,登記記録の閉鎖等,0,2023-12-26,2023-12-19,合同会社帝都総建,,合同会社,東京都,豊島区,南長崎２丁目１１番４－１０４号,,13,116,1710052,,,2023-12-19,清算の結了等,,,2021-06-09,1,,,,,テイトソウケン,0
624,3013401002585,登記記録の閉鎖等,0,2023-12-26,2023-12-19,株式会社スイケンエンジニアリング,,株式会社,東京都,日野市,平山２丁目５番地の１,,13,212,1910043,,,2023-12-19,清算の結了等,,,2015-10-05,1,,,,,スイケンエンジニアリング,0
638,3030001086363,登記記録の閉鎖等,0,2023-12-26,2023-12-20,柴崎工業株式会社,00015494,株式会社,埼玉県,大里郡寄居町,大字赤浜１０００番地１,,11,408,3691211,,,2023-12-20,清算の結了等,,,2015-10-05,1,,,,,シバサキコウギョウ,0
648,3040001022227,登記記録の閉鎖等,0,2023-12-26,2023-12-18,株式会社ケントワークス,,株式会社,千葉県,船橋市,松が丘４丁目４９番３号,,12,204,2740064,,,2023-12-18,清算の結了等,,,2015-10-05,1,,,,,ケントワークス,0
659,3080001000385,登記記録の閉鎖等,0,2023-12-26,2023-12-21,株式会社磯部塗工店,,株式会社,静岡県,静岡市駿河区,有東１丁目６番１４号,,22,102,4228032,,,2023-12-21,清算の結了等,,,2015-10-05,1,,,,,イソベトコウテン,0
662,3080102021173,登記記録の閉鎖等,0,2023-12-26,2023-12-22,有限会社名誠社,,有限会社,静岡県,下田市,西本郷１丁目２番５号,,22,219,4150036,,,2023-12-22,清算の結了等,,,2015-10-05,1,,,,,メイセイシャ,0
663,3080401010406,登記記録の閉鎖等,0,2023-12-26,2023-12-21,株式会社楢崎,,株式会社,静岡県,浜松市浜北区,横須賀１３９７番地の６,,22,136,4340036,,,2023-12-21,清算の結了等,,,2015-10-05,1,,,,,ナラサキ,0
671,3110003003358,登記記録の閉鎖等,0,2023-12-26,2023-12-22,合同会社サンフラワー,,合同会社,新潟県,新潟市西区,寺尾西３丁目２４番１４号,,15,107,9502064,,,2023-12-22,清算の結了等,,,2016-09-02,1,,,,,サンフラワー,0
682,3120005000022,登記記録の閉鎖等,0,2023-12-26,2023-12-06,天理教愛大分教会,,その他の設立登記法人,大阪府,大阪市西成区,天下茶屋東２丁目６番１２号,,27,122,5570011,,,2023-12-06,合併による解散等,7500005002356,令和５年１２月４日愛媛県東温市則之内甲２６１０番地１天理教愛河分教会（7500005002356）に合併し解散,2015-10-05,1,,,,,テンリキョウアイダイブンキョウカイ,0
686,3120105008717,登記記録の閉鎖等,0,2023-12-26,2023-12-22,一般財団法人山田満音楽芸術振興会,,その他の設立登記法人,大阪府,大阪市中央区,船越町１丁目６番６号,,27,128,5400036,,,2023-12-22,清算の結了等,,,2017-07-12,1,,,,,ヤマダミツルオンガクゲイジュツシンコウカイ,0
690,3120905003669,登記記録の閉鎖等,0,2023-12-26,2023-12-21,商店街振興組合みのおサンプラザ名店会,,その他の設立登記法人,大阪府,箕面市,箕面６丁目３番１号,,27,220,5620001,,,2023-12-21,清算の結了等,,,2015-10-05,1,,,,,ミノオサンプラザメイテンカイ,0
694,3130001058030,登記記録の閉鎖等,0,2023-12-26,2023-12-21,株式会社ＯＮＥ,,株式会社,京都府,京都市東山区,林下町４２２番地,,26,105,6050062,,,2023-12-21,清算の結了等,,,2016-08-04,1,,,,,ワン,0
695,3130001059937,登記記録の閉鎖等,0,2023-12-26,2023-12-20,株式会社Ｓｈｏｗｔｉｍｅ,,株式会社,京都府,京都市下京区,西洞院通四条下る妙伝寺町６９７番地,,26,106,6008472,,,2023-12-20,清算の結了等,,,2017-06-12,1,,,,,ショータイム,0
698,3130003005897,登記記録の閉鎖等,0,2023-12-26,2023-12-21,合同会社ａｎｋ,,合同会社,京都府,福知山市,大江町夏間２２７番地１９,,26,201,6200353,,,2023-12-21,清算の結了等,,,2019-03-06,1,,,,,アンク,0
714,3180001103120,登記記録の閉鎖等,0,2023-12-26,2023-12-20,株式会社ＷＢＳ,,株式会社,愛知県,北名古屋市,熊之庄古井２２１番地１,,23,234,4810006,,,2023-12-20,清算の結了等,,,2015-10-05,1,,,,,ダブリュビーエス,0
729,3200001022664,登記記録の閉鎖等,0,2023-12-26,2023-12-21,株式会社やすらぎ,,株式会社,岐阜県,瑞浪市,山田町５１５番地の２,,21,208,5096104,,,2023-12-21,清算の結了等,,,2015-10-05,1,,,,,ヤスラギ,0
750,3290002035657,登記記録の閉鎖等,0,2023-12-26,2023-12-20,有限会社ファイン,,有限会社,福岡県,福津市,星ケ丘２７番３５号,,40,224,8113308,,,2023-12-20,清算の結了等,,,2015-10-05,1,,,,,ファイン,0
758,3310001004429,登記記録の閉鎖等,0,2023-12-26,2023-12-25,株式会社オーパ,,株式会社,長崎県,長崎市,下西山町１３番２１号,,42,201,8500004,,,2023-12-25,清算の結了等,,,2015-10-05,1,,,,,,0
765,3340002023581,登記記録の閉鎖等,0,2023-12-26,2023-12-25,有限会社富永薬品,,有限会社,鹿児島県,南さつま市,加世田唐仁原６０２６番地,,46,220,8971121,,,2023-12-25,清算の結了等,,,2015-10-05,1,,,,,トミナガヤクヒン,0
766,3350001000630,登記記録の閉鎖等,0,2023-12-26,2023-12-20,株式会社小松組,,株式会社,宮崎県,宮崎市,大字小松２６１番地８,,45,201,8802112,,,2023-12-20,清算の結了等,,,2015-10-05,1,,,,,コマツグミ,0
767,3360001006247,登記記録の閉鎖等,0,2023-12-26,2023-12-22,株式会社ソフトプラン,,株式会社,東京都,足立区,弘道２丁目２９番１５号－５０７,,13,121,1200013,,,2023-12-22,清算の結了等,,,2015-10-05,1,,,,,ソフトプラン,0
772,3370305000754,登記記録の閉鎖等,0,2023-12-26,2023-12-22,医療法人社団景久会,,その他の設立登記法人,宮城県,石巻市,大手町１番８号,,04,202,9860838,,,2023-12-22,清算の結了等,,,2015-10-05,1,,,,,ケイキュウカイ,0
774,3400002010004,登記記録の閉鎖等,0,2023-12-26,2023-12-20,有限会社ケーエム,,有限会社,岩手県,北上市,大堤東２丁目５５番地,,03,206,0240054,,,2023-12-20,清算の結了等,,,2015-10-05,1,,,,,ケーエム,0
792,3470001012218,登記記録の閉鎖等,0,2023-12-26,2023-12-22,富士大醤油株式会社,00005169,株式会社,香川県,小豆郡土庄町,大部甲３１９８番地の１,,37,322,7614145,,,2023-12-22,清算の結了等,,,2015-10-05,1,,,,,フジダイショウユ,0
796,3490002006183,登記記録の閉鎖等,0,2023-12-26,2023-12-21,有限会社リバーサイド・コーポレーション,,有限会社,高知県,高知市,廿代町６番１０号,,39,201,7800843,,,2023-12-21,清算の結了等,,,2015-10-05,1,,,,,リバーサイドコーポレーション,0
809,4010005015798,登記記録の閉鎖等,0,2023-12-26,2023-12-01,税理士法人永和総合事務所,,その他の設立登記法人,東京都,千代田区,神田錦町３丁目２３番地,,13,101,1010054,,,2023-12-01,合併による解散等,1010005005950,令和５年１２月１日東京都千代田区神田錦町一丁目２１番１号しんわ税理士法人（1010005005950）に合併し解散,2015-10-05,1,,,,,エイワソウゴウジムショ,0
810,4010005019881,登記記録の閉鎖等,0,2023-12-26,2023-12-22,山佐２００４ＨＫ一般社団法人,,その他の設立登記法人,東京都,千代田区,丸の内３丁目１番１号東京共同会計事務所内,,13,101,1000005,,,2023-12-22,清算の結了等,,,2015-10-05,1,,,,,ヤマサニセンヨンエイチケイ,0
825,4010902008284,登記記録の閉鎖等,0,2023-12-26,2023-12-18,有限会社スタジオ・ワイ,,有限会社,東京都,世田谷区,上野毛１丁目２５番４－６０１号,,13,112,1580093,,,2023-12-18,清算の結了等,,,2015-10-05,1,,,,,スタジオワイ,0
852,4012401034761,登記記録の閉鎖等,0,2023-12-26,2023-12-21,株式会社ＳＬＹ,,株式会社,東京都,調布市,布田６丁目８番地３０,,13,208,1820024,,,2023-12-21,清算の結了等,,,2018-12-17,1,,,,,スライ,0
857,4013301007345,登記記録の閉鎖等,0,2023-12-26,2023-12-18,株式会社チーム医療,,株式会社,東京都,豊島区,南大塚２丁目４２番１号,,13,116,1700005,,,2023-12-18,清算の結了等,,,2015-10-05,1,,,,,チームイリョウ,0
893,4060001002267,登記記録の閉鎖等,0,2023-12-26,2023-12-21,株式会社翔美企画,,株式会社,栃木県,宇都宮市,宝木本町１１９２番地１２,,09,201,3200075,,,2023-12-21,清算の結了等,,,2015-10-05,1,,,,,ショウビキカク,0
894,4060002033170,登記記録の閉鎖等,0,2023-12-26,2023-12-21,有限会社栄進製作所,,有限会社,栃木県,栃木市,岩舟町静和８６４番地,,09,203,3294304,,,2023-12-21,清算の結了等,,,2015-10-05,1,,,,,エイシンセイサクジョ,0
900,4080001016406,登記記録の閉鎖等,0,2023-12-26,2023-12-21,株式会社作原産業,,株式会社,静岡県,藤枝市,小石川町４丁目３番４０号,,22,214,4260033,,,2023-12-21,清算の結了等,,,2015-10-05,1,,,,,サクハラサンギョウ,0
904,4080401018200,登記記録の閉鎖等,0,2023-12-26,2023-12-20,株式会社ＹＳファーマ,,株式会社,静岡県,浜松市東区,中野町２２８０番地,,22,132,4350004,,,2023-12-20,合併による解散等,5180001054725,令和５年１２月１日名古屋市緑区南大高四丁目１８０８番地株式会社愛知メディックス（5180001054725）に合併し解散,2015-10-05,1,,,,,ワイエスファーマ,0
908,4100001006775,登記記録の閉鎖等,0,2023-12-26,2023-12-20,株式会社ＢＥＢＡＳ’Ｋ,,株式会社,長野県,長野市,大字風間４５９番地,,20,201,3810023,,,2023-12-20,清算の結了等,,,2015-10-05,1,,,,,ベバスケイ,0
913,4110001014182,登記記録の閉鎖等,0,2023-12-26,2023-12-22,株式会社サン・オフィス,,株式会社,新潟県,三条市,荒町２丁目１１番１６号,,15,204,9550083,,,2023-12-22,清算の結了等,,,2015-10-05,1,,,,,サンオフィス,0
923,4120005020267,登記記録の閉鎖等,0,2023-12-26,2023-12-25,一般社団法人ラフターヨガインターナショナル日本支部,,その他の設立登記法人,大阪府,寝屋川市,清水町１番１２号,,27,215,5720044,,,2023-12-25,清算の結了等,,,2018-07-13,1,,,,,ラフターヨガインターナショナルニホンシブ,0
943,4140002001045,登記記録の閉鎖等,0,2023-12-26,2023-12-22,有限会社アトリエラパン,,有限会社,兵庫県,神戸市中央区,磯上通２丁目２－２５－２０３,,28,110,6510086,,,2023-12-22,清算の結了等,,,2015-10-05,1,,,,,アトリエラパン,0
951,4160002012395,登記記録の閉鎖等,0,2023-12-26,2023-12-25,有限会社帆晃電機,,有限会社,滋賀県,草津市,野路町２４１５－１３,,25,206,5250055,,,2023-12-25,清算の結了等,,,2015-10-05,1,,,,,ハンコウデンキ,0
963,4180002005851,登記記録の閉鎖等,0,2023-12-26,2023-12-15,有限会社桶新,,有限会社,愛知県,名古屋市港区,知多１丁目８０８番地,,23,111,4550883,,,2023-12-15,清算の結了等,,,2015-10-05,1,,,,,オケシン,0
966,4180002055987,登記記録の閉鎖等,0,2023-12-26,2023-12-19,有限会社トランストレイス,,有限会社,愛知県,江南市,中奈良町一ツ目５２,,23,217,4838256,,,2023-12-19,清算の結了等,,,2015-10-05,1,,,,,トランストレイス,0
967,4180002056622,登記記録の閉鎖等,0,2023-12-26,2023-12-20,有限会社スピンアート,,有限会社,愛知県,名古屋市緑区,有松南５０１番地,,23,114,4598004,,,2023-12-20,清算の結了等,,,2015-10-05,1,,,,,スピンアート,0
968,4180002056647,登記記録の閉鎖等,0,2023-12-26,2023-12-21,有限会社ユープランニング,,有限会社,愛知県,名古屋市守山区,西城２丁目１６番１７号,,23,113,4630084,,,2023-12-21,清算の結了等,,,2015-10-05,1,,,,,ユープランニング,0
971,4180002093153,登記記録の閉鎖等,0,2023-12-26,2023-12-21,山晃有限会社,,有限会社,愛知県,名古屋市中川区,中郷３丁目３７６番地,,23,110,4540921,,,2023-12-21,清算の結了等,,,2015-10-05,1,,,,,サンコウ,0
975,4180005013843,登記記録の閉鎖等,0,2023-12-26,2023-12-05,月中庵,,その他の設立登記法人,愛知県,あま市,金岩宮廓１５番地,,23,237,4901221,,,2023-12-05,合併による解散等,5180005000436,令和５年１２月５日名古屋市熱田区旗屋一丁目１０番３９号青大悲寺（5180005000436）に合併し解散,2015-10-05,1,,,,,ゲッチュウアン,0
977,4180301032968,登記記録の閉鎖等,0,2023-12-26,2023-12-18,スリーラボ株式会社,,株式会社,愛知県,安城市,御幸本町２番２号,,23,212,4460032,,,2023-12-18,清算の結了等,,,2019-09-26,1,,,,,スリーラボ,0
980,4190002009117,登記記録の閉鎖等,0,2023-12-26,2023-12-21,有限会社タマル自動車,,有限会社,三重県,度会郡玉城町,勝田１８８０番地,,24,461,5190433,,,2023-12-21,清算の結了等,,,2015-10-05,1,,,,,タマルジドウシャ,0
984,4200005013238,登記記録の閉鎖等,0,2023-12-26,2023-12-22,一般社団法人ちまたファクトリ,,その他の設立登記法人,岐阜県,岐阜市,美殿町４０番地矢沢ビル２０１号室,,21,201,5008182,,,2023-12-22,清算の結了等,,,2021-08-05,1,,,,,チマタファクトリ,0
996,4260005000445,登記記録の閉鎖等,0,2023-12-26,2023-12-07,金光教犬島教会,,その他の設立登記法人,岡山県,岡山市東区,犬島２７４番地,,33,103,7048153,,,2023-12-07,合併による解散等,9260005000440,令和５年１２月７日岡山市東区長沼１０３６番地金光教豊原教会（9260005000440）に合併し解散,2015-10-05,1,,,,,,0
1004,4290002002029,登記記録の閉鎖等,0,2023-12-26,2023-12-21,有限会社建築工房タカ,,有限会社,福岡県,福岡市中央区,薬院４丁目１３番２９号メゾンプールサイド第二ビル　Ｇ４号室,,40,133,8100022,,,2023-12-21,清算の結了等,,,2015-10-05,1,,,,,,0
1022,4320002002727,登記記録の閉鎖等,0,2023-12-26,2023-12-25,有限会社後藤車体,,有限会社,大分県,大分市,原新町１７番１８号,,44,201,8700912,,,2023-12-25,清算の結了等,,,2015-10-05,1,,,,,ゴトウシャタイ,0
1028,4340002007427,登記記録の閉鎖等,0,2023-12-26,2023-12-22,有限会社ニチフク,,有限会社,鹿児島県,鹿児島市,光山２丁目３番６号,,46,201,8910151,,,2023-12-22,清算の結了等,,,2015-10-05,1,,,,,ニチフク,0
1032,4360002012771,登記記録の閉鎖等,0,2023-12-26,2023-12-22,有限会社コウセイ,,有限会社,沖縄県,沖縄市,大里２丁目５番２８号,,47,211,9042163,,,2023-12-22,清算の結了等,,,2015-10-05,1,,,,,コウセイ,0
1039,4400002000235,登記記録の閉鎖等,0,2023-12-26,2023-12-20,有限会社いわて工芸,,有限会社,岩手県,盛岡市,中央通２丁目１０番３０号,,03,201,0200021,,,2023-12-20,清算の結了等,,,2015-10-05,1,,,,,イワテコウゲイ,0
1040,4400002012073,登記記録の閉鎖等,0,2023-12-26,2023-12-21,有限会社三陸大幸保険,,有限会社,岩手県,上閉伊郡大槌町,大槌第２２地割９０番地１,,03,461,0281131,,,2023-12-21,清算の結了等,,,2015-10-05,1,,,,,サンリクダイコウホケン,0
1043,4430001013945,登記記録の閉鎖等,0,2023-12-26,2023-12-18,株式会社聖建築設計,,株式会社,北海道,札幌市中央区,南二十四条西８丁目４番１号,,01,101,0640924,,,2023-12-18,清算の結了等,,,2015-10-05,1,,,,,ヒジリケンチクセッケイ,0
1046,4430002011989,登記記録の閉鎖等,0,2023-12-26,2023-12-19,有限会社高杉住宅設備,,有限会社,北海道,札幌市中央区,南六条西９丁目１０１９番地１２,,01,101,0640806,,,2023-12-19,清算の結了等,,,2015-10-05,1,,,,,タカスギジュウタクセツビ,0
1054,4440001006592,登記記録の閉鎖等,0,2023-12-26,2023-12-21,株式会社石井住宅設備,,株式会社,北海道,檜山郡江差町,字陣屋町６７番地の１,,01,361,0430056,,,2023-12-21,清算の結了等,,,2015-10-05,1,,,,,イシイジュウタクセツビ,0
1055,4450001012292,登記記録の閉鎖等,0,2023-12-26,2023-12-25,株式会社快生,,株式会社,北海道,旭川市,大町二条４丁目２１番地３３,,01,204,0700842,,,2023-12-25,清算の結了等,,,2018-01-10,1,,,,,カイセイ,0
1057,4450005000401,登記記録の閉鎖等,0,2023-12-26,2023-12-01,医療法人社団並木通りクリニック,,その他の設立登記法人,北海道,旭川市,春光三条７丁目７番１号,,01,204,0700873,,,2023-12-01,合併による解散等,3450005000542,令和５年１２月１日北海道旭川市末広三条三丁目１番１５号医療法人社団博彰会（3450005000542）に合併し解散,2015-10-05,1,,,,,ナミキドオリクリニック,0
1061,4500003001750,登記記録の閉鎖等,0,2023-12-26,2023-12-25,ミズグチ電気合同会社,,合同会社,愛媛県,伊予郡砥部町,原町４９２番地,,38,402,7912116,,,2023-12-25,清算の結了等,,,2016-01-06,1,,,,,ミズグチデンキ,0
1091,5010505000753,登記記録の閉鎖等,0,2023-12-26,2023-12-20,協同組合第二東商センター,,その他の設立登記法人,東京都,台東区,柳橋２丁目１番９号,,13,106,1110052,,,2023-12-20,清算の結了等,,,2015-10-05,1,,,,,ダイニトウショウセンター,0
1104,5010902005909,登記記録の閉鎖等,0,2023-12-26,2023-12-19,有限会社小杉ハウジング,,有限会社,東京都,目黒区,東が丘２丁目７番２５号,,13,110,1520021,,,2023-12-19,清算の結了等,,,2015-10-05,1,,,,,コスギハウジング,0
1115,5011001128989,登記記録の閉鎖等,0,2023-12-26,2023-12-01,株式会社Ｔ．Ａｇｅｎｃｙ,,株式会社,東京都,港区,港南２丁目１６－４品川グランドセントラルタワー８Ｆ,,13,103,1080075,,,2023-12-01,合併による解散等,9010401161349,令和５年１２月１日東京都港区新橋一丁目１８番１９号キムラヤ大塚ビル６Ｆ株式会社Ｍｉ－Ｓｏ（9010401161349）に合併し解散,2019-07-16,1,,,,,ティーエージェシー,0
1116,5011001129269,登記記録の閉鎖等,0,2023-12-26,2023-12-20,株式会社Ｍｏ’ｏｄａｆ　Ｔｒａｄｉｎｇ,,株式会社,東京都,渋谷区,恵比寿２丁目２８番１０号,,13,113,1500013,,,2023-12-20,清算の結了等,,,2019-08-01,1,,,,,モダフトレーディング,0
1118,5011001141728,登記記録の閉鎖等,0,2023-12-26,2023-12-21,株式会社Ｎｅｘｔ　Ｐａｔｈ,,株式会社,東京都,渋谷区,幡ヶ谷２丁目１番１０号レジーナ幡ヶ谷２０３,,13,113,1510072,,,2023-12-21,清算の結了等,,,2021-07-15,1,,,,,ネクストパス,0
1130,5011301013701,登記記録の閉鎖等,0,2023-12-26,2023-12-18,株式会社ペリカン,,株式会社,東京都,杉並区,高円寺南５丁目３９番１５号,,13,115,1660003,,,2023-12-18,清算の結了等,,,2015-10-05,1,,,,,ペリカン,0
1132,5011301018691,登記記録の閉鎖等,0,2023-12-26,2023-12-19,株式会社光洋,,株式会社,東京都,杉並区,高円寺南２丁目２０番７号,,13,115,1660003,,,2023-12-19,清算の結了等,,,2015-10-05,1,,,,,コウヨウ,0
1136,5011401016050,登記記録の閉鎖等,0,2023-12-26,2023-12-25,株式会社サムライリンクス,,株式会社,岐阜県,羽島郡岐南町,八剣北１丁目１５４番地Ｅ・ＳＷＯＲＤ１５４－３０１号,,21,302,5016011,,,2023-12-25,清算の結了等,,,2015-10-05,1,,,,,,0
1144,5012403005735,登記記録の閉鎖等,0,2023-12-26,2023-12-19,ＢＡＵＭ合同会社,,合同会社,東京都,小金井市,貫井南町２丁目４番１２号,,13,210,1840014,,,2023-12-19,清算の結了等,,,2022-12-14,1,,,,,バウム,0
1148,5020001029255,登記記録の閉鎖等,0,2023-12-26,2023-12-19,株式会社山二プラスチツク,,株式会社,神奈川県,横浜市中区,日ノ出町２丁目１５８番地,,14,104,2310066,,,2023-12-19,清算の結了等,,,2015-10-05,1,,,,,ヤマニプラスチツク,0
1153,5020001130673,登記記録の閉鎖等,0,2023-12-26,2023-12-20,株式会社本間デンタルスタジオ,,株式会社,神奈川県,横浜市都筑区,池辺町４４３１番地横溝事務所１０１,,14,118,2240053,,,2023-12-20,清算の結了等,,,2019-04-11,1,,,,,ホンマデンタルスタジオ,0
1156,5020002042323,登記記録の閉鎖等,0,2023-12-26,2023-12-20,有限会社ケイケイスタジオ,,有限会社,神奈川県,横浜市南区,南吉田町５丁目４７番地,,14,105,2320012,,,2023-12-20,清算の結了等,,,2015-10-05,1,,,,,ケイケイスタジオ,0
1173,5030001138286,登記記録の閉鎖等,0,2023-12-26,2023-12-20,株式会社ソフィア,,株式会社,埼玉県,さいたま市浦和区,高砂２丁目１１－１３レスタージュ浦和４階,,11,107,3300063,,,2023-12-20,清算の結了等,,,2020-09-14,1,,,,,ソフィア,0
1177,5030002084991,登記記録の閉鎖等,0,2023-12-26,2023-12-21,有限会社いとう時計店,,有限会社,埼玉県,越谷市,越ヶ谷２丁目５番２３号,,11,222,3430813,,,2023-12-21,清算の結了等,,,2015-10-05,1,,,,,イトウトケイテン,0
1182,5050001017752,登記記録の閉鎖等,0,2023-12-26,2023-12-13,株式会社茨城税経センター,00022140,株式会社,茨城県,つくば市,島名２２６４番地１（諏訪Ｃ１５街区４）,,08,220,3002655,,,2023-12-13,合併による解散等,1040001065871,令和５年１２月１日千葉県柏市柏四丁目５番１０号株式会社綜合税経センター（1040001065871）に合併し解散,2015-10-05,1,,,,,イバラキゼイケイセンター,0
1184,5050002013610,登記記録の閉鎖等,0,2023-12-26,2023-12-20,有限会社大嶋工業,,有限会社,茨城県,稲敷郡阿見町,大字福田１９０８番地,,08,443,3001156,,,2023-12-20,清算の結了等,,,2015-10-05,1,,,,,オオシマコウギョウ,0
1188,5060002028046,登記記録の閉鎖等,0,2023-12-26,2023-12-21,大窪産業有限会社,,有限会社,栃木県,小山市,大字網戸１２９０番地,,09,208,3290215,,,2023-12-21,清算の結了等,,,2015-10-05,1,,,,,オオクボサンギョウ,0
1189,5070001006968,登記記録の閉鎖等,0,2023-12-26,2023-12-20,斉藤建設株式会社,,株式会社,群馬県,高崎市,上里見町１０７９番地の２,,10,202,3703345,,,2023-12-20,清算の結了等,,,2015-10-05,1,,,,,サイトウケンセツ,0
1225,5122002006396,登記記録の閉鎖等,0,2023-12-26,2023-12-22,有限会社八旺運輸,,有限会社,大阪府,東大阪市,川俣３丁目１番１６号,,27,227,5770063,,,2023-12-22,清算の結了等,,,2015-10-05,1,,,,,ハチオウ,0
1226,5130001051669,登記記録の閉鎖等,0,2023-12-26,2023-12-21,株式会社ユークリエイト,,株式会社,京都府,福知山市,篠尾新町３丁目９１番地,,26,201,6200055,,,2023-12-21,清算の結了等,,,2015-10-05,1,,,,,ユークリエイト,0
1235,5130005006223,登記記録の閉鎖等,0,2023-12-26,2023-12-01,ＰｗＣ京都監査法人,,その他の設立登記法人,京都府,京都市下京区,四条通烏丸東入ル長刀鉾町８,,26,106,6000000,,,2023-12-01,合併による解散等,8010005011876,令和５年１２月１日東京都千代田区大手町一丁目１番１号大手町パークビルディングＰｗＣあらた有限責任監査法人（8010005011876）に合併し解散,2015-10-05,1,,,,,ピーダブリューシーキョウト,0
1236,5130005008847,登記記録の閉鎖等,0,2023-12-26,2023-12-22,城南中小企業福祉事業協同組合,,その他の設立登記法人,京都府,城陽市,寺田垣内後２８番地,,26,207,6100121,,,2023-12-22,清算の結了等,,,2015-10-05,1,,,,,ジョウナンチュウショウキギョウフクシ,0
1245,5140005015520,登記記録の閉鎖等,0,2023-12-26,2023-12-11,天理教有馬冨士分教会,,その他の設立登記法人,兵庫県,三田市,成谷２８８番地,,28,219,6691517,,,2023-12-11,合併による解散等,2140005006266,令和５年１２月１１日兵庫県三木市吉川町鍛治屋６番地の１天理教中吉川分教会（2140005006266）に合併し解散,2015-10-05,1,,,,,テンリキョウアリマフジブンキョウカイ,0
1257,5180002036367,登記記録の閉鎖等,0,2023-12-26,2023-12-22,有限会社幸心,,有限会社,愛知県,名古屋市瑞穂区,洲山町２丁目３０番地の２,,23,108,4670066,,,2023-12-22,清算の結了等,,,2015-10-05,1,,,,,コウシン,0
1263,5190002001089,登記記録の閉鎖等,0,2023-12-26,2023-12-22,東和不動産有限会社,,有限会社,三重県,津市,東丸之内１３番１３号,,24,201,5140028,,,2023-12-22,清算の結了等,,,2015-10-05,1,,,,,トウワフドウサン,0
1269,5200002022793,登記記録の閉鎖等,0,2023-12-26,2023-12-21,有限会社ミズノ・セラック,,有限会社,岐阜県,土岐市,下石町２７６番地,,21,212,5095202,,,2023-12-21,清算の結了等,,,2015-10-05,1,,,,,ミズノセラック,0
1271,5210001010889,登記記録の閉鎖等,0,2023-12-26,2023-12-20,河原市木材株式会社,,株式会社,福井県,三方郡美浜町,松原３５号１０番地,,18,442,9191122,,,2023-12-20,清算の結了等,,,2015-10-05,1,,,,,カワライチモクザイ,0
1276,5240005002450,登記記録の閉鎖等,0,2023-12-26,2023-12-18,広島県療術業協同組合,,その他の設立登記法人,広島県,広島市佐伯区,杉並台２８番地１７,,34,108,7380514,,,2023-12-18,清算の結了等,,,2015-10-05,1,,,,,ヒロシマケンリョウジュツギョウ,0
1277,5240005005486,登記記録の閉鎖等,0,2023-12-26,2023-12-15,西日本コンストラクション協同組合,,その他の設立登記法人,広島県,庄原市,高野町新市字町裏６５４番１,,34,210,7270402,,,2023-12-15,清算の結了等,,,2015-10-05,1,,,,,ニシニホンコンストラクション,0
1293,5310002007271,登記記録の閉鎖等,0,2023-12-26,2023-12-22,有限会社季創,,有限会社,長崎県,長崎市,京泊２丁目５番１９号エムズ１０１号,,42,201,8512211,,,2023-12-22,清算の結了等,,,2015-10-05,1,,,,,キソウ,0
1296,5320002008021,登記記録の閉鎖等,0,2023-12-26,2023-12-25,有限会社太田設備,,有限会社,大分県,大分市,富士見が丘東４丁目２６番１３号,,44,201,8701176,,,2023-12-25,清算の結了等,,,2015-10-05,1,,,,,オオタセツビ,0
1317,5450002005170,登記記録の閉鎖等,0,2023-12-26,2023-12-25,有限会社まつばクレーン,,有限会社,北海道,旭川市,東光九条１０丁目３番５号,,01,204,0788349,,,2023-12-25,清算の結了等,,,2015-10-05,1,,,,,マツバクレーン,0
1339,6010003026580,登記記録の閉鎖等,0,2023-12-26,2023-12-22,ＡＭＷ　ＭＬ合同会社,,合同会社,東京都,千代田区,丸の内３丁目１番１号東京共同会計事務所内,,13,101,1000005,,,2023-12-22,清算の結了等,,,2017-12-08,1,,,,,エーエムダブリューエムエル,0
1342,6010005014641,登記記録の閉鎖等,0,2023-12-26,2023-12-18,特定非営利活動法人水産資源回復管理支援会,,その他の設立登記法人,東京都,港区,西麻布４丁目１１番１０号,,13,103,1060031,,,2023-12-18,清算の結了等,,,2015-10-05,1,,,,,スイサンシゲンカイフクカンリシエンカイ,0
1343,6010005019772,登記記録の閉鎖等,0,2023-12-26,2023-12-22,山佐ＴＯＭ一般社団法人,,その他の設立登記法人,東京都,千代田区,丸の内３丁目１番１号東京共同会計事務所内,,13,101,1000005,,,2023-12-22,清算の結了等,,,2015-10-05,1,,,,,ヤマサティーオーエム,0
1351,6010401162804,登記記録の閉鎖等,0,2023-12-26,2023-12-22,株式会社Ａｎｙ　Ｓｙｎｃ,,株式会社,神奈川県,鎌倉市,雪ノ下３丁目１番９号,,14,204,2480005,,,2023-12-22,清算の結了等,,,2021-09-28,1,,,,,エニーシンク,0
1386,6011101098909,登記記録の閉鎖等,0,2023-12-26,2023-12-15,株式会社アジア物流,,株式会社,東京都,墨田区,千歳３丁目３番８号,,13,107,1300025,,,2023-12-15,清算の結了等,,,2022-05-20,1,,,,,アジアブツリュウ,0
1395,6011601005372,登記記録の閉鎖等,0,2023-12-26,2023-12-07,株式会社ニック,,株式会社,東京都,板橋区,大山町７番４号,,13,119,1730023,,,2023-12-07,合併による解散等,6010001211060,令和５年１２月１日東京都千代田区神田三崎町二丁目１５番６号ＮＩＣホールディングス株式会社（6010001211060）に合併し解散,2015-10-05,1,,,,,,0
1396,6011801037554,登記記録の閉鎖等,0,2023-12-26,2023-12-22,ＸＡＴコンサルティング株式会社,,株式会社,東京都,足立区,小台１丁目１６番１２－８０５号,,13,121,1200046,,,2023-12-22,清算の結了等,,,2020-04-24,1,,,,,エックスエーティーコンサルティング,0
1400,6012705001992,登記記録の閉鎖等,0,2023-12-26,2023-12-21,一般社団法人ウエスト東京不動産流通ネットワーク,,その他の設立登記法人,東京都,西東京市,富士町１丁目１３番１４号,,13,229,2020014,,,2023-12-21,清算の結了等,,,2017-01-25,1,,,,,ウエストトウキョウフドウサンリュウツウネットワーク,0
1424,6030001046141,登記記録の閉鎖等,0,2023-12-26,2023-12-21,株式会社ベックス・アート,,株式会社,埼玉県,新座市,栗原６丁目３番１７号,,11,230,3520035,,,2023-12-21,清算の結了等,,,2015-10-05,1,,,,,ベックスアート,0
1429,6030002041868,登記記録の閉鎖等,0,2023-12-26,2023-12-20,有限会社中島染工場,,有限会社,埼玉県,羽生市,南１丁目８番１０号,,11,216,3480053,,,2023-12-20,清算の結了等,,,2015-10-05,1,,,,,ナカジマソメコウジョウ,0
1438,6050001028071,登記記録の閉鎖等,0,2023-12-26,2023-12-20,株式会社新日光トラベルサービス,,株式会社,茨城県,牛久市,中央３丁目４番地４,,08,219,3001234,,,2023-12-20,清算の結了等,,,2015-10-05,1,,,,,シンニッコウトラベルサービス,0
1446,6080402018478,登記記録の閉鎖等,0,2023-12-26,2023-12-21,丸事商工有限会社,,有限会社,静岡県,菊川市,棚草２５９７番地,,22,224,4371513,,,2023-12-21,清算の結了等,,,2015-10-05,1,,,,,マルコトショウコウ,0
1449,6110002011557,登記記録の閉鎖等,0,2023-12-26,2023-12-21,有限会社ふるさと会,,有限会社,新潟県,新潟市北区,嘉山２丁目５番２１号,,15,101,9503322,,,2023-12-21,清算の結了等,,,2015-10-05,1,,,,,フルサトカイ,0
1451,6120001012893,登記記録の閉鎖等,0,2023-12-26,2023-12-19,株式会社メンタルサポートマオポポ研究所,,株式会社,福岡県,福岡市東区,大岳１丁目１７－２７－１０６,,40,131,8110322,,,2023-12-19,清算の結了等,,,2015-10-05,1,,,,,,0
1453,6120001107603,登記記録の閉鎖等,0,2023-12-26,2023-12-21,株式会社フューチャーヒット,,株式会社,大阪府,大阪市北区,大深町４番２０号グランフロント大阪タワーＡ,,27,127,5300011,,,2023-12-21,合併による解散等,3130001023678,令和５年１２月１日京都市下京区中堂寺粟田町９１番地京都リサーチパーク株式会社フューチャースピリッツ（3130001023678）に合併し解散,2015-10-05,1,,,,,フューチャーヒット,0
1478,6120903004022,登記記録の閉鎖等,0,2023-12-26,2023-12-22,合同会社ウェブラビット,,合同会社,大阪府,茨木市,片桐町１３－１１,,27,211,5670819,,,2023-12-22,清算の結了等,,,2022-02-08,1,,,,,ウェブラビット,0
1489,6130002024986,登記記録の閉鎖等,0,2023-12-26,2023-12-22,有限会社森本産商,,有限会社,京都府,長岡京市,神足屋敷５０番地,,26,209,6170833,,,2023-12-22,清算の結了等,,,2015-10-05,1,,,,,モリモトサンショウ,0
1500,6140002037450,登記記録の閉鎖等,0,2023-12-26,2023-12-25,有限会社アサヒ薬局,,有限会社,兵庫県,加古郡播磨町,西野添１丁目１４番６号,,28,382,6750160,,,2023-12-25,清算の結了等,,,2015-10-05,1,,,,,,0
1503,6140003011124,登記記録の閉鎖等,0,2023-12-26,2023-10-31,合同会社メロウ,,合同会社,兵庫県,神戸市西区,池上４丁目１３番９号,,28,111,6512111,,,2023-10-31,合併による解散等,3140003004923,令和５年９月３０日神戸市西区池上四丁目１３番９号合資会社テスコムクリエイト（3140003004923）に合併し解散,2016-01-05,1,,,,,メロウ,0
1516,6180001076578,登記記録の閉鎖等,0,2023-12-26,2023-12-19,メーセー産業株式会社,,株式会社,愛知県,小牧市,外堀３丁目１４９番地,,23,219,4850039,,,2023-12-19,清算の結了等,,,2015-10-05,1,,,,,メーセーサンギョウ,0
1517,6180001083203,登記記録の閉鎖等,0,2023-12-26,2023-12-20,東海マルマタ株式会社,,株式会社,愛知県,一宮市,南小渕字小森２６番地の２,,23,203,4910014,,,2023-12-20,清算の結了等,,,2015-10-05,1,,,,,トウカイマルマタ,0
1524,6180001131309,登記記録の閉鎖等,0,2023-12-26,2023-12-19,株式会社太和工房,,株式会社,愛知県,名古屋市北区,大我麻町４３番地,,23,103,4620064,,,2023-12-19,清算の結了等,,,2018-02-27,1,,,,,タイワコウボウ,0
1527,6180003002524,登記記録の閉鎖等,0,2023-12-26,2023-12-21,合資会社共栄木型製作所,,合資会社,愛知県,名古屋市中川区,松年町２丁目４９番地,,23,110,4540854,,,2023-12-21,清算の結了等,,,2015-10-05,1,,,,,キョウエイキガタセイサクショ,0
1533,6200002014666,登記記録の閉鎖等,0,2023-12-26,2023-12-22,有限会社ミタカ産業,,有限会社,岐阜県,海津市,海津町五町１５５番地,,21,221,5030645,,,2023-12-22,清算の結了等,,,2015-10-05,1,,,,,ミタカサンギョウ,0
1535,6210001002415,登記記録の閉鎖等,0,2023-12-26,2023-12-20,中山織物株式会社,,株式会社,福井県,福井市,南居町第５６号３０番地,,18,201,9188034,,,2023-12-20,清算の結了等,,,2015-10-05,1,,,,,ナカヤマオリモノ,0
1538,6220001014450,登記記録の閉鎖等,0,2023-12-26,2023-12-22,株式会社ティ・エス・エル,,株式会社,石川県,小松市,沖町ヘ２７番地１,,17,203,9230861,,,2023-12-22,清算の結了等,,,2015-10-05,1,,,,,ティエスエル,0
1540,6220001022726,登記記録の閉鎖等,0,2023-12-26,2023-12-22,株式会社Ｈ・Ａ・Ｇ,,株式会社,石川県,金沢市,西念３丁目２２番３号,,17,201,9200024,,,2023-12-22,清算の結了等,,,2019-02-15,1,,,,,,0
1550,6290001092432,登記記録の閉鎖等,0,2023-12-26,2023-12-21,Ａｌｖａ株式会社,,株式会社,福岡県,福岡市中央区,大名２丁目６番１１号,,40,133,8100041,,,2023-12-21,清算の結了等,,,2021-03-29,1,,,,,アルバ,0
1567,6370001045480,登記記録の閉鎖等,0,2023-12-26,2023-12-01,株式会社セレソ,,株式会社,宮城県,仙台市泉区,紫山３丁目２３番地の７,,04,105,9813205,,,2023-12-01,合併による解散等,8370001041759,令和５年１２月１日仙台市青葉区柏木一丁目７番２８号株式会社オフィスサニー（8370001041759）に合併し解散,2020-03-03,1,,,,,セレソ,0
1576,6430003011763,登記記録の閉鎖等,0,2023-12-26,2023-12-18,スタリオン合同会社,,合同会社,北海道,千歳市,北光４丁目３－９北光ＡＰ１Ｆ,,01,224,0660033,,,2023-12-18,清算の結了等,,,2020-07-27,1,,,,,スタリオン,0
1579,6470001011266,登記記録の閉鎖等,0,2023-12-26,2023-12-25,株式会社エーゼット,,株式会社,香川県,高松市,十川東町１３３３番地５,,37,201,7610434,,,2023-12-25,清算の結了等,,,2015-10-05,1,,,,,エーゼット,0
1594,7010001217222,登記記録の閉鎖等,0,2023-12-26,2023-12-21,Ｚｅｏｎ　ＣＡＰＩＴＡＬ株式会社,,株式会社,東京都,中央区,銀座１丁目３番３号Ｇ１ビル７階１４９８号,,13,102,1040061,,,2023-12-21,合併による解散等,2010001159766,令和５年１２月２１日東京都品川区大井五丁目２７番１－３０１号株式会社Ｃａｐ（2010001159766）に合併し解散,2021-04-08,1,,,,,ゼオンキャピタル,0
1602,7010005027808,登記記録の閉鎖等,0,2023-12-26,2023-12-22,ＡＭＷ特定目的会社,,その他の設立登記法人,東京都,千代田区,丸の内３丁目１番１号東京共同会計事務所内,,13,101,1000005,,,2023-12-22,清算の結了等,,,2017-12-05,1,,,,,エイエムダブリュー,0
1603,7010005032857,登記記録の閉鎖等,0,2023-12-26,2023-12-22,一般社団法人ラグナ・イグアナ,,その他の設立登記法人,東京都,中央区,日本橋人形町２丁目１８番７号,,13,102,1030013,,,2023-12-22,清算の結了等,,,2021-01-28,1,,,,,ラグナイグアナ,0
1607,7010401068364,登記記録の閉鎖等,0,2023-12-26,2023-12-21,株式会社ドンカンパニー,,株式会社,東京都,新宿区,須賀町９番地２,,13,104,1600018,,,2023-12-21,清算の結了等,,,2015-10-05,1,,,,,ドンカンパニー,0
1614,7010403008995,登記記録の閉鎖等,0,2023-12-26,2023-12-20,株式会社ウッドペッカー・キャピタル,,株式会社,東京都,葛飾区,新小岩２丁目９番１４号,,13,122,1240024,,,2023-12-20,清算の結了等,,,2015-10-05,1,,,,,ウッドペッカーキャピタル,0
1615,7010403018747,登記記録の閉鎖等,0,2023-12-26,2023-12-18,合同会社ＴＳＭ１５０,,合同会社,東京都,港区,芝公園１丁目２番９号花井ビルディング５階ＶｅｃｔｏｒＲｅｎｅｗａｂｌｅｓＪａｐａｎ株式会社内,,13,103,1050011,,,2023-12-18,清算の結了等,,,2018-06-13,1,,,,,ティーエスエムヒャクゴジュウ,0
1642,7011101058457,登記記録の閉鎖等,0,2023-12-26,2023-12-22,株式会社ｅｖｅｒｙ　ｏｎｅ,,株式会社,東京都,新宿区,荒木町１５番地８,,13,104,1600007,,,2023-12-22,清算の結了等,,,2015-10-05,1,,,,,エブリワン,0
1647,7011302003559,登記記録の閉鎖等,0,2023-12-26,2023-12-19,有限会社光洋商事,,有限会社,東京都,杉並区,高円寺南２丁目２０番７号,,13,115,1660003,,,2023-12-19,清算の結了等,,,2015-10-05,1,,,,,コウヨウショウジ,0
1651,7011703002795,登記記録の閉鎖等,0,2023-12-26,2023-12-21,合同会社ＪＯＹ,,合同会社,東京都,渋谷区,東３丁目６番２２号,,13,113,1500011,,,2023-12-21,清算の結了等,,,2021-03-15,1,,,,,ジョイ,0
1652,7011801039772,登記記録の閉鎖等,0,2023-12-26,2023-12-21,株式会社ＰｒｏＩＢ,,株式会社,東京都,足立区,千住緑町２丁目７番５号１階,,13,121,1200044,,,2023-12-21,清算の結了等,,,2021-10-06,1,,,,,プロイボ,0
1655,7012302001288,登記記録の閉鎖等,0,2023-12-26,2023-12-20,有限会社川崎造園,00057776,有限会社,東京都,町田市,小野路町２５７２番地３８,,13,209,1950064,,,2023-12-20,清算の結了等,,,2015-10-05,1,,,,,カワサキゾウエン,0
1664,7013402001500,登記記録の閉鎖等,0,2023-12-26,2023-12-15,有限会社明治電工,,有限会社,東京都,日野市,南平２丁目７２番地の１７コスモ多摩南平５０４,,13,212,1910041,,,2023-12-15,清算の結了等,,,2015-10-05,1,,,,,メイジデンコウ,0
1666,7020001059028,登記記録の閉鎖等,0,2023-12-26,2023-12-19,株式会社ティーエスエイチインターナショナル,,株式会社,神奈川県,横浜市都筑区,東方町１３４番地,,14,118,2240045,,,2023-12-19,清算の結了等,,,2015-10-05,1,,,,,テイーエスエイチインターナショナル,0
1688,7030001121422,登記記録の閉鎖等,0,2023-12-26,2023-12-21,株式会社リライズ,,株式会社,埼玉県,草加市,苗塚町７６番地７ウエストハイム草加苗塚１０２号室,,11,221,3400036,,,2023-12-21,清算の結了等,,,2017-07-25,1,,,,,リライズ,0
1697,7040002023600,登記記録の閉鎖等,0,2023-12-26,2023-12-15,有限会社田爪設備,,有限会社,千葉県,船橋市,丸山４丁目２３番１９号,,12,204,2730048,,,2023-12-15,清算の結了等,,,2015-10-05,1,,,,,タヅメセツビ,0
1702,7050002014796,登記記録の閉鎖等,0,2023-12-26,2023-12-21,有限会社大和田造園,,有限会社,茨城県,小美玉市,堅倉１００３番地,,08,236,3190106,,,2023-12-21,清算の結了等,,,2015-10-05,1,,,,,オオワダゾウエン,0
1705,7070001020265,登記記録の閉鎖等,0,2023-12-26,2023-12-20,薮塚木材工業株式会社,,株式会社,群馬県,伊勢崎市,上植木本町７４５番地,,10,204,3720013,,,2023-12-20,清算の結了等,,,2015-10-05,1,,,,,ヤブヅカモクザイコウギョウ,0
1758,7180001097359,登記記録の閉鎖等,0,2023-12-26,2023-12-20,株式会社セントラル吉村,,株式会社,愛知県,海部郡飛島村,木場２丁目４５番地,,23,427,4901444,,,2023-12-20,清算の結了等,,,2015-10-05,1,,,,,セントラルヨシムラ,0
1768,7180002022002,登記記録の閉鎖等,0,2023-12-26,2023-12-22,有限会社はせがわ学芸堂,,有限会社,愛知県,名古屋市天白区,原４丁目２００１番地の３,,23,116,4680015,,,2023-12-22,清算の結了等,,,2015-10-05,1,,,,,ハセガワガクゲイドウ,0
1776,7210001011514,登記記録の閉鎖等,0,2023-12-26,2023-12-20,オガタ株式会社,,株式会社,福井県,越前市,塚町３１号９番地,,18,209,9150092,,,2023-12-20,清算の結了等,,,2015-10-05,1,,,,,オガタ,0
1780,7250001007079,登記記録の閉鎖等,0,2023-12-26,2023-12-20,株式会社ユーテクノス,,株式会社,山口県,下関市,永田本町３丁目２番１２号,,35,201,7596533,,,2023-12-20,清算の結了等,,,2015-10-05,1,,,,,ユーテクノス,0
1816,7380002010366,登記記録の閉鎖等,0,2023-12-26,2023-12-22,有限会社総合衣料とみやま,,有限会社,福島県,郡山市,大槻町字上町６７番地,,07,203,9630201,,,2023-12-22,清算の結了等,,,2015-10-05,1,,,,,ソウゴウイリョウトミヤマ,0
1824,7430002043212,登記記録の閉鎖等,0,2023-12-26,2023-12-18,有限会社ウッド・ライフ,,有限会社,北海道,石狩市,花川北一条５丁目３９６番地,,01,235,0613211,,,2023-12-18,清算の結了等,,,2015-10-05,1,,,,,ウッドライフ,0
1831,7450002013213,登記記録の閉鎖等,0,2023-12-26,2023-12-25,有限会社重岡商店,,有限会社,北海道,旭川市,三条通８丁目左８号,,01,204,0700033,,,2023-12-25,清算の結了等,,,2023-09-19,1,,,,,シゲオカショウテン,0
1833,7470001013550,登記記録の閉鎖等,0,2023-12-26,2023-12-22,株式会社ケアサポートハート,,株式会社,香川県,さぬき市,鴨庄４４４３番地９１,,37,206,7692102,,,2023-12-22,清算の結了等,,,2015-10-05,1,,,,,ケアサポートハート,0
1837,7480002008326,登記記録の閉鎖等,0,2023-12-26,2023-12-25,有限会社南本組,,有限会社,徳島県,名西郡石井町,浦庄字諏訪９２番地１,,36,341,7793241,,,2023-12-25,清算の結了等,,,2015-10-05,1,,,,,ミナミモトグミ,0
1867,8010401161606,登記記録の閉鎖等,0,2023-12-26,2023-12-18,株式会社プレゼント,,株式会社,東京都,港区,南青山２丁目２番１５号ウィン青山９４２,,13,103,1070062,,,2023-12-18,清算の結了等,,,2021-07-20,1,,,,,プレゼント,0
1872,8010403010728,登記記録の閉鎖等,0,2023-12-26,2023-12-21,タムタム合同会社,,合同会社,神奈川県,伊勢原市,日向１２７３－６,,14,214,2591101,,,2023-12-21,清算の結了等,,,2015-10-05,1,,,,,タムタム,0
1878,8010801018208,登記記録の閉鎖等,0,2023-12-26,2023-12-22,株式会社マナカ,,株式会社,東京都,大田区,北糀谷２丁目１５番１７号,,13,111,1440032,,,2023-12-22,清算の結了等,,,2015-10-05,1,,,,,マナカ,0
1882,8010802009973,登記記録の閉鎖等,0,2023-12-26,2023-12-18,東洋精巧有限会社,,有限会社,東京都,大田区,南馬込６丁目４番２４号,,13,111,1430025,,,2023-12-18,清算の結了等,,,2015-10-05,1,,,,,トウヨウセイコウ,0
1886,8011001146922,登記記録の閉鎖等,0,2023-12-26,2023-12-20,株式会社オーガナイズ・コミュニティ,,株式会社,東京都,渋谷区,円山町５番５号Ｎａｖｉ渋谷Ｖ３階,,13,113,1500044,,,2023-12-20,清算の結了等,,,2022-04-15,1,,,,,オーガナイズコミュニティ,0
1890,8011002024573,登記記録の閉鎖等,0,2023-12-26,2023-12-20,有限会社五味会計事務センター,,有限会社,東京都,渋谷区,代々木２丁目３４番１１－３０５号,,13,113,1510053,,,2023-12-20,清算の結了等,,,2015-10-05,1,,,,,ゴミカイケイジムセンター,0
1891,8011003014656,登記記録の閉鎖等,0,2023-12-26,2023-12-22,合同会社ＲＥＺ　ＤＥＳＩＧＮ,,合同会社,東京都,渋谷区,神宮前３丁目７番１号５Ｆ,,13,113,1500001,,,2023-12-22,清算の結了等,,,2022-05-11,1,,,,,レズデザイン,0
1898,8011501020651,登記記録の閉鎖等,0,2023-12-26,2023-12-19,サラダガーデン株式会社,,株式会社,東京都,荒川区,東日暮里５丁目５１番１１号静屋ビル,,13,118,1160014,,,2023-12-19,清算の結了等,,,2015-10-05,1,,,,,サラダガーデン,0
1899,8011502010148,登記記録の閉鎖等,0,2023-12-26,2023-12-15,有限会社ナイムケイ,,有限会社,東京都,荒川区,南千住６丁目３３番６号,,13,118,1160003,,,2023-12-15,清算の結了等,,,2015-10-05,1,,,,,ナイムケイ,0
1903,8011802011440,登記記録の閉鎖等,0,2023-12-26,2023-12-22,有限会社金澤工業,,有限会社,東京都,足立区,柳原１丁目１６番１６号,,13,121,1200022,,,2023-12-22,清算の結了等,,,2015-10-05,1,,,,,カナザワコウギョウ,0
1904,8012301008498,登記記録の閉鎖等,0,2023-12-26,2023-12-19,株式会社Ｍ＆Ｃフーズ,,株式会社,東京都,町田市,南大谷５１１番地８７,,13,209,1940031,,,2023-12-19,清算の結了等,,,2015-10-05,1,,,,,エムアンドシーフーズ,0
1905,8012401023562,登記記録の閉鎖等,0,2023-12-26,2023-12-15,株式会社ｃｉｅｌ,,株式会社,東京都,国分寺市,南町３丁目１３番５号東城ビル１階,,13,214,1850021,,,2023-12-15,清算の結了等,,,2015-10-05,1,,,,,シール,0
1910,8012701001417,登記記録の閉鎖等,0,2023-12-26,2023-12-21,株式会社シー・エー・シー,,株式会社,東京都,東村山市,萩山町５丁目６番２２－１０６号,,13,213,1890012,,,2023-12-21,清算の結了等,,,2015-10-05,1,,,,,シーエーシー,0
1911,8012705000407,登記記録の閉鎖等,0,2023-12-26,2023-11-20,クリスチャン文書伝道団,,その他の設立登記法人,神奈川県,横浜市神奈川区,子安通３丁目３４２番地１ディアスタ新子安ベイスタイル３０１号,,14,102,2210021,,,2023-11-20,清算の結了等,,,2015-10-05,1,,,,,クリスチャンブンショデンドウダン,0
1915,8013201016046,登記記録の閉鎖等,0,2023-12-26,2023-12-21,株式会社イズ・ファーム,,株式会社,東京都,目黒区,中央町２丁目１番３－３０３号,,13,110,1520001,,,2023-12-21,清算の結了等,,,2015-10-05,1,,,,,イズファーム,0
1918,8013401004957,登記記録の閉鎖等,0,2023-12-26,2023-12-21,株式会社むさし野経営塾,,株式会社,東京都,多摩市,聖ヶ丘２丁目２６番地の５,,13,224,2060022,,,2023-12-21,清算の結了等,,,2015-10-05,1,,,,,ムサシノケイエイジュク,0
1919,8020001000205,登記記録の閉鎖等,0,2023-12-26,2023-12-20,株式会社自然,,株式会社,神奈川県,横浜市栄区,桂町１番地１号３－４０１,,14,115,2470005,,,2023-12-20,清算の結了等,,,2015-10-05,1,,,,,シゼン,0
1925,8020001068770,登記記録の閉鎖等,0,2023-12-26,2023-12-20,株式会社明日香,,株式会社,神奈川県,川崎市中原区,木月住吉町２２番１０－１０１号,,14,133,2110021,,,2023-12-20,清算の結了等,,,2015-10-05,1,,,,,アスカ,0
1933,8020002041834,登記記録の閉鎖等,0,2023-12-26,2023-12-20,有限会社おふぃすちゃみ,,有限会社,神奈川県,横浜市戸塚区,矢部町３２１番地プロムナード矢部３棟９１０号,,14,110,2440002,,,2023-12-20,清算の結了等,,,2015-10-05,1,,,,,オフィスチャミ,0
1941,8030001046445,登記記録の閉鎖等,0,2023-12-26,2023-12-19,株式会社コーリツ,,株式会社,埼玉県,富士見市,東みずほ台２丁目２０番１９号,,11,235,3540015,,,2023-12-19,清算の結了等,,,2015-10-05,1,,,,,コーリツ,0
1965,8060001031502,登記記録の閉鎖等,0,2023-12-26,2023-12-20,ピクチュア株式会社,,株式会社,栃木県,宇都宮市,平松本町３３８番地１,,09,201,3210932,,,2023-12-20,清算の結了等,,,2019-04-18,1,,,,,ピクチュア,0
1993,8120002065410,登記記録の閉鎖等,0,2023-12-26,2023-12-20,有限会社リサイクルネット,,有限会社,大阪府,大阪市浪速区,下寺３丁目１７番１９号,,27,111,5560001,,,2023-12-20,合併による解散等,8120001037872,令和５年１２月２０日大阪市浪速区日本橋東三丁目１６番５号株式会社きわきん（8120001037872）に合併し解散,2015-10-05,1,,,,,リサイクルネット,0
1996,8120005008234,登記記録の閉鎖等,0,2023-12-26,2023-12-22,特定非営利活動法人まんぼう,,その他の設立登記法人,大阪府,大阪市中央区,玉造２丁目３番２０号,,27,128,5400004,,,2023-12-22,清算の結了等,,,2015-10-05,1,,,,,マンボウ,0
2003,8120901032320,登記記録の閉鎖等,0,2023-12-26,2023-12-22,株式会社サンホーム,,株式会社,大阪府,箕面市,西小路３丁目４番２８号,,27,220,5620003,,,2023-12-22,清算の結了等,,,2015-10-05,1,,,,,サンホーム,0
2021,8140003011865,登記記録の閉鎖等,0,2023-12-26,2023-12-15,プレステージ海外自立支援センター合同会社,,合同会社,兵庫県,加古川市,上荘町国包３２５番地の１,,28,210,6751213,,,2023-12-15,清算の結了等,,,2017-01-24,1,,,,,プレステージカイガイジリツシエンセンター,0
2022,8140005015518,登記記録の閉鎖等,0,2023-12-26,2023-12-11,天理教攝北分教会,,その他の設立登記法人,兵庫県,三田市,藍本１８３４番地,,28,219,6691358,,,2023-12-11,合併による解散等,2140005006266,令和５年１２月１１日兵庫県三木市吉川町鍛治屋６番地の１天理教中吉川分教会（2140005006266）に合併し解散,2015-10-05,1,,,,,テンリキョウセツホクブンキョウカイ,0
2024,8150001008846,登記記録の閉鎖等,0,2023-12-26,2023-12-25,ふじや靴下株式会社,,株式会社,奈良県,天理市,田部町５３３番地,,29,204,6320017,,,2023-12-25,清算の結了等,,,2015-10-05,1,,,,,フジヤクツシタ,0
2031,8170002009008,登記記録の閉鎖等,0,2023-12-26,2023-12-22,有限会社ひのき消毒,,有限会社,和歌山県,田辺市,東山１丁目１６番１７号,,30,206,6460022,,,2023-12-22,清算の結了等,,,2015-10-05,1,,,,,ヒノキショウドク,0
2032,8180001043543,登記記録の閉鎖等,0,2023-12-26,2023-12-18,日本エース株式会社,,株式会社,愛知県,名古屋市中川区,助光３丁目１１０４番地の２,,23,110,4540947,,,2023-12-18,清算の結了等,,,2015-10-05,1,,,,,ニホンエース,0
2038,8180002075206,登記記録の閉鎖等,0,2023-12-26,2023-12-19,有限会社丸昌インテリア,,有限会社,愛知県,犬山市,大字前原字向屋敷９５番地の５５,,23,215,4840061,,,2023-12-19,清算の結了等,,,2015-10-05,1,,,,,マルショウインテリア,0
2039,8180003022966,登記記録の閉鎖等,0,2023-12-26,2023-12-20,合同会社アシスト,,合同会社,愛知県,名古屋市瑞穂区,亀城町５丁目３２番地の５・７号室,,23,108,4670876,,,2023-12-20,清算の結了等,,,2021-09-15,1,,,,,アシスト,0
2050,8190005006842,登記記録の閉鎖等,0,2023-12-26,2023-12-04,浄修寺,,その他の設立登記法人,三重県,松阪市,愛宕町２丁目４７番地,,24,204,5150037,,,2023-12-04,合併による解散等,4190005006813,令和５年１２月４日三重県松阪市下村町８３８番地３正福寺（4190005006813）に合併し解散,2015-10-05,1,,,,,ジョウシュウジ,0
2061,8260001023157,登記記録の閉鎖等,0,2023-12-26,2023-12-25,株式会社クレバー,,株式会社,岡山県,岡山市中区,平井３丁目１０１５番地６５,,33,102,7038282,,,2023-12-25,清算の結了等,,,2015-10-05,1,,,,,クレバー,0
2072,8290001099525,登記記録の閉鎖等,0,2023-12-26,2023-12-19,株式会社平嶋工務店,,株式会社,福岡県,嘉麻市,熊ヶ畑１２１１番地３,,40,227,8210013,,,2023-12-19,清算の結了等,,,2022-11-09,1,,,,,ヒラシマコウムテン,0
2086,8310002000793,登記記録の閉鎖等,0,2023-12-26,2023-12-25,エヌ・キュウ長崎有限会社,,有限会社,長崎県,長崎市,中里町１０２９番地２,,42,201,8510103,,,2023-12-25,清算の結了等,,,2015-10-05,1,,,,,,0
2089,8330002005956,登記記録の閉鎖等,0,2023-12-26,2023-12-15,有限会社造園馬場,,有限会社,熊本県,熊本市中央区,琴平１丁目８番２７号,,43,101,8600813,,,2023-12-15,清算の結了等,,,2015-10-05,1,,,,,ゾウエンババ,0
2093,8350002012546,登記記録の閉鎖等,0,2023-12-26,2023-12-21,日の出交通有限会社,,有限会社,宮崎県,延岡市,野田町５０９５番地,,45,203,8820801,,,2023-12-21,清算の結了等,,,2015-10-05,1,,,,,ヒノデコウツウ,0
2094,8360001001929,登記記録の閉鎖等,0,2023-12-26,2023-12-07,株式会社ホテルロイヤルオリオン,,株式会社,沖縄県,那覇市,安里１丁目２番２１号,,47,201,9020067,,,2023-12-07,合併による解散等,7360001008504,令和５年１２月１日沖縄県豊見城市字豊崎１番地４１１オリオンビール株式会社（7360001008504）に合併し解散,2015-10-05,1,,,,,ホテルロイヤルオリオン,0
2139,9010401138891,登記記録の閉鎖等,0,2023-12-26,2023-12-21,晟順株式会社,,株式会社,東京都,台東区,雷門２丁目６番２号マーナマリー浅草雷門ビル５階,,13,106,1110034,,,2023-12-21,清算の結了等,,,2018-06-08,1,,,,,セイジュン,0
2157,9010903003032,登記記録の閉鎖等,0,2023-12-26,2023-12-19,鈴木ビル目白合同会社,,合同会社,東京都,世田谷区,代田２丁目２２番７号,,13,112,1550033,,,2023-12-19,清算の結了等,,,2016-01-26,1,,,,,スズキビルメジロ,0
2162,9011001132839,登記記録の閉鎖等,0,2023-12-26,2023-12-20,株式会社ＺＥＮＣＲＥＡＴＥ,,株式会社,東京都,渋谷区,渋谷１丁目３番９号ヒューリック渋谷一丁目ビル７階,,13,113,1500002,,,2023-12-20,清算の結了等,,,2020-03-11,1,,,,,ゼンクリエイト,0
2173,9011303003944,登記記録の閉鎖等,0,2023-12-26,2023-12-19,合同会社Ｍ＆Ｍ,,合同会社,東京都,杉並区,今川２丁目１１番１１－１０１号,,13,115,1670035,,,2023-12-19,清算の結了等,,,2021-03-12,1,,,,,エムアンドエム,0
2212,9030002119777,登記記録の閉鎖等,0,2023-12-26,2023-12-18,有限会社廣瀬,00018088,有限会社,埼玉県,飯能市,大字双柳７８４番地９７,,11,209,3570021,,,2023-12-18,清算の結了等,,,2015-10-05,1,,,,,ヒロセ,0
2233,9080002015105,登記記録の閉鎖等,0,2023-12-26,2023-12-20,有限会社共同印刷,,有限会社,静岡県,牧之原市,静波２４５２番地の１,,22,226,4210422,,,2023-12-20,清算の結了等,,,2015-10-05,1,,,,,キョウドウインサツ,0
2236,9100002036809,登記記録の閉鎖等,0,2023-12-26,2023-12-20,有限会社塚平鉄工所,,有限会社,長野県,飯田市,鼎切石５００５番地１,,20,205,3950807,,,2023-12-20,清算の結了等,,,2015-10-05,1,,,,,ツカダイラテッコウジョ,0
2239,9110002013501,登記記録の閉鎖等,0,2023-12-26,2023-12-22,有限会社長尾自動車工場,,有限会社,新潟県,阿賀野市,飯森杉２７３番地１,,15,223,9592122,,,2023-12-22,清算の結了等,,,2015-10-05,1,,,,,ナガオジドウシャコウジョウ,0
2251,9120002010167,登記記録の閉鎖等,0,2023-12-26,2023-12-25,有限会社福本印刷所,,有限会社,大阪府,大阪市生野区,桃谷３丁目１番１９号,,27,116,5440034,,,2023-12-25,清算の結了等,,,2015-10-05,1,,,,,フクモトインサツジョ,0
2276,9150005006291,登記記録の閉鎖等,0,2023-12-26,2023-12-22,医療法人枡岡診療所,,その他の設立登記法人,奈良県,香芝市,磯壁４丁目１６２番地の１,,29,210,6390236,,,2023-12-22,清算の結了等,,,2015-10-05,1,,,,,マスオカシンリョウショ,0
2277,9160001016566,登記記録の閉鎖等,0,2023-12-26,2023-12-25,ロータス物流株式会社,,株式会社,滋賀県,東近江市,東沖野２丁目５番３５号,,25,213,5270033,,,2023-12-25,清算の結了等,,,2015-10-05,1,,,,,ロータスブツリュウ,0
2293,9180002036264,登記記録の閉鎖等,0,2023-12-26,2023-12-19,有限会社豊代商事,,有限会社,愛知県,名古屋市南区,豊田２丁目４番８号,,23,112,4570841,,,2023-12-19,清算の結了等,,,2015-10-05,1,,,,,トヨシロショウジ,0
2294,9180002046486,登記記録の閉鎖等,0,2023-12-26,2023-12-21,有限会社ケイ・プランニング,,有限会社,愛知県,名古屋市千種区,徳川山町４丁目１番５５号,,23,101,4640031,,,2023-12-21,清算の結了等,,,2015-10-05,1,,,,,ケイプランニング,0
2296,9180302012378,登記記録の閉鎖等,0,2023-12-26,2023-12-15,有限会社伊藤種苗,,有限会社,愛知県,田原市,西神戸町神明前４４番地１,,23,231,4413423,,,2023-12-15,清算の結了等,,,2015-10-05,1,,,,,イトウシュビョウ,0
2313,9280005005082,登記記録の閉鎖等,0,2023-12-26,2023-12-01,社会福祉法人美都福祉会,,その他の設立登記法人,島根県,益田市,美都町山本イ１４番地２,,32,204,6980204,,,2023-12-01,合併による解散等,9280005005058,令和５年１２月１日島根県益田市高津町イ２５５９番地１社会福祉法人暁ほほえみ福祉会（9280005005058）に合併し解散,2015-10-05,1,,,,,ミトフクシカイ,0
2314,9290001053869,登記記録の閉鎖等,0,2023-12-26,2023-12-20,株式会社白金鉄工所,,株式会社,福岡県,大牟田市,本町３丁目２番地１４,,40,202,8360046,,,2023-12-20,清算の結了等,,,2015-10-05,1,,,,,シラガネテッコウショ,0
2340,9310001009273,登記記録の閉鎖等,0,2023-12-26,2023-12-22,株式会社旬の季,,株式会社,長崎県,諫早市,貝津町１０５１番地１５,,42,204,8540063,,,2023-12-22,清算の結了等,,,2015-10-05,1,,,,,シュンノトキ,0
2343,9320001015972,登記記録の閉鎖等,0,2023-12-26,2023-12-22,株式会社総合建築鬼建,,株式会社,大分県,宇佐市,大字佐野１０５５番地１,,44,211,8790237,,,2023-12-22,清算の結了等,,,2017-10-18,1,,,,,ソウゴウケンチクオニケン,0
2345,9320002015030,登記記録の閉鎖等,0,2023-12-26,2023-12-22,有限会社相原,,有限会社,大分県,宇佐市,大字出光３７８番地,,44,211,8791131,,,2023-12-22,清算の結了等,,,2015-10-05,1,,,,,アイハラ,0
2349,9340002007579,登記記録の閉鎖等,0,2023-12-26,2023-12-25,有限会社ハイ・ソサエティサロン万年青,,有限会社,鹿児島県,鹿児島市,堀江町４番１１号,,46,201,8920824,,,2023-12-25,清算の結了等,,,2015-10-05,1,,,,,,0
2358,9430001007463,登記記録の閉鎖等,0,2023-12-26,2023-12-11,株式会社システムメンテナンス,,株式会社,北海道,札幌市豊平区,平岸五条１２丁目１番２－２２７号,,01,105,0620935,,,2023-12-11,清算の結了等,,,2015-10-05,1,,,,,システムメンテナンス,0
2373,9430002063638,登記記録の閉鎖等,0,2023-12-26,2023-12-18,有限会社克誠,,有限会社,北海道,虻田郡洞爺湖町,入江１９０番地６３,,01,584,0495603,,,2023-12-18,清算の結了等,,,2015-10-05,1,,,,,コクセイ,0
