sequenceNumber,corporateNumber,process,correct,updateDate,changeDate,name,nameImageId,kind,prefectureName,cityName,streetNumber,addressImageId,prefectureCode,cityCode,postCode,addressOutside,addressOutsideImageId,closeDate,closeCause,successorCorporateNumber,changeCause,assignmentDate,latest,enName,enPrefectureName,enCityName,enAddressOutside,furigana,hihyoji
6,1010002049158,登記記録の閉鎖等,0,2021-11-11,2021-11-05,株式会社ＩＴ　ＲＥＮＥＷ　ＪＡＰＡＮ,,株式会社,東京都,千代田区,外神田３丁目６番１４号,,13,101,1010021,,,2021-11-05,清算の結了等,,,2015-10-05,1,,,,,アイティーリニュージャパン,0
18,1010403019619,登記記録の閉鎖等,0,2021-11-11,2021-11-01,ロイヤルホテルうお八合同会社,,合同会社,東京都,港区,西新橋１丁目１０番１号,,13,103,1050003,,,2021-11-01,合併による解散等,6010401084817,令和３年１１月１日東京都港区西新橋一丁目１０番１号株式会社マクソン（6010401084817）に合併し解散,2018-11-07,1,,,,,ロイヤルホテルウオハチ,0
20,1010405002952,登記記録の閉鎖等,0,2021-11-11,2021-10-28,特定非営利活動法人日本ライフセービング協会,,その他の設立登記法人,東京都,港区,浜松町２丁目１番１８号トップスビル１階,,13,103,1050013,,,2021-10-28,清算の結了等,,,2015-10-05,1,,,,,ニホンライフセービングキョウカイ,0
23,1010501038990,登記記録の閉鎖等,0,2021-11-11,2021-11-10,株式会社ユウケブリ・プラス,,株式会社,東京都,台東区,浅草橋１丁目３３番５号,,13,106,1110053,,,2021-11-10,清算の結了等,,,2016-01-08,1,,,,,ユウケブリプラス,0
31,1010701038568,登記記録の閉鎖等,0,2021-11-11,2021-11-05,株式会社ダバズ,,株式会社,東京都,千代田区,九段南１丁目５番６号りそな九段ビル５ＦＫＳフロア,,13,101,1020074,,,2021-11-05,清算の結了等,,,2019-12-03,1,,,,,ダバズ,0
38,1010903002157,登記記録の閉鎖等,0,2021-11-11,2021-11-09,合同会社ケアプラン烏山,,合同会社,東京都,世田谷区,南烏山６丁目２５番１１号,,13,112,1570062,,,2021-11-09,清算の結了等,,,2015-10-05,1,,,,,ケアプランカラスヤマ,0
40,1011001092207,登記記録の閉鎖等,0,2021-11-11,2021-10-27,株式会社バンブーアセットマネジメント,,株式会社,東京都,港区,六本木６丁目１２番３号,,13,103,1060032,,,2021-10-27,清算の結了等,,,2015-10-05,1,,,,,バンブーアセットマネジメント,0
64,1011602005211,登記記録の閉鎖等,0,2021-11-11,2021-11-08,有限会社ジャパン・エア設備,,有限会社,東京都,練馬区,関町北５丁目１８番２０号３０４,,13,120,1770051,,,2021-11-08,清算の結了等,,,2015-10-05,1,,,,,ジャパンエアセツビ,0
69,1012401024609,登記記録の閉鎖等,0,2021-11-11,2021-11-08,株式会社ＦＲＰ,,株式会社,東京都,新宿区,新宿１丁目２８番１１号,,13,104,1600022,,,2021-11-08,合併による解散等,7011101044746,令和３年１０月３１日東京都新宿区新宿一丁目２８番１１号株式会社メディオテック（7011101044746）に合併し解散,2015-10-05,1,,,,,エフアールピー,0
78,1013301026975,登記記録の閉鎖等,0,2021-11-11,2021-11-04,株式会社ユニオンインベスト,,株式会社,東京都,文京区,小石川２丁目１番１号,,13,105,1120002,,,2021-11-04,合併による解散等,5011001023950,令和３年１１月１日東京都新宿区北新宿三丁目１番２０号株式会社ユニオンハウジング（5011001023950）に合併し解散,2015-10-05,1,,,,,ユニオンインベスト,0
82,1013405000851,登記記録の閉鎖等,0,2021-11-11,2021-11-08,特定非営利活動法人水と緑の環境ネットワークの会,,その他の設立登記法人,東京都,日野市,多摩平５丁目２２番２９号,,13,212,1910062,,,2021-11-08,清算の結了等,,,2015-10-05,1,,,,,ミズトミドリノカンキョウネットワークノカイ,0
89,1020001105555,登記記録の閉鎖等,0,2021-11-11,2021-11-09,株式会社鍋田,,株式会社,神奈川県,横浜市鶴見区,獅子ケ谷１丁目４７番１３号,,14,101,2300073,,,2021-11-09,清算の結了等,,,2015-10-05,1,,,,,ナベタ,0
109,1030001136293,登記記録の閉鎖等,0,2021-11-11,2021-11-05,株式会社リシェス,,株式会社,埼玉県,羽生市,大字小須賀字内手１０９１番地２,,11,216,3480042,,,2021-11-05,合併による解散等,6010401089262,令和３年１１月１日東京都新宿区四谷二丁目８番地株式会社ドゥ・ソレイユ（6010401089262）に合併し解散,2020-04-30,1,,,,,リシェス,0
110,1030002009432,登記記録の閉鎖等,0,2021-11-11,2021-11-04,有限会社東半,,有限会社,埼玉県,さいたま市南区,辻１丁目４番２０号南浦和コーポビアネーズ１０１,,11,108,3360026,,,2021-11-04,清算の結了等,,,2015-10-05,1,,,,,トウハン,0
120,1040002042267,登記記録の閉鎖等,0,2021-11-11,2021-10-29,有限会社ＫＴ,,有限会社,千葉県,浦安市,北栄１丁目１６番５号,,12,227,2790002,,,2021-10-29,清算の結了等,,,2015-10-05,1,,,,,ケーティー,0
122,1040002058528,登記記録の閉鎖等,0,2021-11-11,2021-11-02,有限会社成田空港園芸,,有限会社,千葉県,成田市,小菅１３３８番地,,12,211,2860127,,,2021-11-02,清算の結了等,,,2015-10-05,1,,,,,ナリタクウコウエンゲイ,0
162,1130001030965,登記記録の閉鎖等,0,2021-11-11,2021-11-01,株式会社太陽フーズ,,株式会社,京都府,京都市下京区,梅小路高畑町４番地２,,26,106,6008853,,,2021-11-01,清算の結了等,,,2015-10-05,1,,,,,タイヨウフーズ,0
169,1140001072627,登記記録の閉鎖等,0,2021-11-11,2021-11-02,株式会社カーベクターインターナショナル,,株式会社,兵庫県,西宮市,甲陽園目神山町３０番２０号,,28,204,6620011,,,2021-11-02,清算の結了等,,,2015-10-05,1,,,,,カーベクターインターナショナル,0
174,1150005009070,登記記録の閉鎖等,0,2021-11-11,2021-11-10,一般社団法人アイラブナラ推進会,,その他の設立登記法人,奈良県,生駒市,小明町４４７－２ルミエール生駒２０１,,29,209,6300201,,,2021-11-10,清算の結了等,,,2019-04-10,1,,,,,アイラブナラスイシンカイ,0
181,1180001043343,登記記録の閉鎖等,0,2021-11-11,2021-11-01,アスロック株式会社,,株式会社,愛知県,名古屋市北区,平安２丁目１６番３７号,,23,103,4620819,,,2021-11-01,合併による解散等,8180001011715,令和３年１１月１日名古屋市北区平安二丁目１５番５０号リーシングパートナーズ株式会社（8180001011715）に合併し解散,2015-10-05,1,,,,,アスロック,0
183,1180001145230,登記記録の閉鎖等,0,2021-11-11,2021-11-02,株式会社ギフト,,株式会社,愛知県,名古屋市中村区,則武１丁目１１番７号ケイズアプト,,23,105,4530014,,,2021-11-02,清算の結了等,,,2021-03-19,1,,,,,ギフト,0
188,1180003016074,登記記録の閉鎖等,0,2021-11-11,2021-11-02,合同会社日本ゴルフ観光協会,,合同会社,愛知県,名古屋市天白区,平針１丁目１０１番地ホワイトキャッスル平針ＶＩ８０３号室,00121329,23,116,4680011,,,2021-11-02,清算の結了等,,,2015-10-05,1,,,,,ニホンゴルフカンコウキョウカイ,0
214,1290005008554,登記記録の閉鎖等,0,2021-11-11,2021-11-05,特定非営利活動法人ふるさと回帰支援センター飯塚,,その他の設立登記法人,福岡県,飯塚市,川津９５番地１３１,,40,205,8200067,,,2021-11-05,清算の結了等,,,2015-10-05,1,,,,,フルサトカイキシエンセンターイイヅカ,0
226,1330001012266,登記記録の閉鎖等,0,2021-11-11,2021-11-08,株式会社佐藤工務店,,株式会社,熊本県,阿蘇市,竹原４３７番地,,43,214,8692223,,,2021-11-08,清算の結了等,,,2015-10-05,1,,,,,サトウコウムテン,0
255,1430001038961,登記記録の閉鎖等,0,2021-11-11,2021-11-05,株式会社ウッドメイク,,株式会社,北海道,札幌市南区,澄川二条４丁目６番２号,,01,106,0050002,,,2021-11-05,清算の結了等,,,2015-10-05,1,,,,,ウッドメイク,0
257,1430001039398,登記記録の閉鎖等,0,2021-11-11,2021-11-10,株式会社フォーティ・トゥー,,株式会社,北海道,札幌市中央区,南二条東１丁目１番１１号第３泊ビル,,01,101,0600052,,,2021-11-10,清算の結了等,,,2015-10-05,1,,,,,フォーティトゥー,0
261,1430002056277,登記記録の閉鎖等,0,2021-11-11,2021-11-09,有限会社木村電気商会,,有限会社,北海道,余市郡仁木町,西町１丁目１２番地,,01,407,0482406,,,2021-11-09,清算の結了等,,,2015-10-05,1,,,,,キムラデンキショウカイ,0
262,1430003002016,登記記録の閉鎖等,0,2021-11-11,2021-11-05,合同会社アイリュ,,合同会社,北海道,札幌市東区,北三十九条東９丁目２番２４号,,01,103,0070839,,,2021-11-05,清算の結了等,,,2015-10-05,1,,,,,アイリュ,0
283,2010001175747,登記記録の閉鎖等,0,2021-11-11,2021-11-01,株式会社ワイビック,,株式会社,東京都,中央区,八重洲１丁目６番１９号,,13,102,1030028,,,2021-11-01,合併による解散等,3010001130981,令和３年１１月１日東京都中央区日本橋三丁目８番３号ＴＰＯホールディングス株式会社（3010001130981）に合併し解散,2016-05-23,1,,,,,ワイビック,0
292,2010002043077,登記記録の閉鎖等,0,2021-11-11,2021-11-02,有限会社うちなータイム,,有限会社,東京都,中央区,銀座８丁目５番１９号園枝ビル,,13,102,1040061,,,2021-11-02,清算の結了等,,,2015-10-05,1,,,,,ウチナータイム,0
296,2010003028738,登記記録の閉鎖等,0,2021-11-11,2021-11-08,合同会社義理と人情と家,,合同会社,東京都,文京区,水道２丁目９番９－５０２号,,13,105,1120005,,,2021-11-08,清算の結了等,,,2018-11-19,1,,,,,ギリトニンジョウトイエ,0
306,2010401126754,登記記録の閉鎖等,0,2021-11-11,2021-11-02,株式会社Ｅ　Ｇａｔｅ,,株式会社,静岡県,熱海市,下多賀７９３番地１,,22,205,4130102,,,2021-11-02,清算の結了等,,,2016-09-02,1,,,,,イーゲート,0
325,2010902025546,登記記録の閉鎖等,0,2021-11-11,2021-11-09,有限会社アンアンドレイ,,有限会社,東京都,世田谷区,奥沢６丁目９番２０号,,13,112,1580083,,,2021-11-09,清算の結了等,,,2015-10-05,1,,,,,,0
327,2011001068783,登記記録の閉鎖等,0,2021-11-11,2021-11-08,メディコネクト株式会社,,株式会社,神奈川県,川崎市川崎区,本町２丁目１０番地８ＥＸＴＯＬ松山２０１,,14,131,2100001,,,2021-11-08,清算の結了等,,,2015-10-05,1,,,,,メディコネクト,0
347,2011503004708,登記記録の閉鎖等,0,2021-11-11,2021-11-05,東陽レジャー産業合同会社,,合同会社,東京都,北区,田端新町３丁目１２番１０号青山ビル１階,,13,117,1140012,,,2021-11-05,清算の結了等,,,2021-03-25,1,,,,,トウヨウレジャーサンギョウ,0
381,2021001008094,登記記録の閉鎖等,0,2021-11-11,2021-11-08,株式会社湘南工業所,,株式会社,神奈川県,茅ヶ崎市,茅ヶ崎３丁目３番５号,,14,207,2530041,,,2021-11-08,清算の結了等,,,2015-10-05,1,,,,,ショウナンコウギョウショ,0
410,2060001017077,登記記録の閉鎖等,0,2021-11-11,2021-11-04,株式会社上岡工業,,株式会社,栃木県,栃木市,藤岡町太田１４４６番地２,,09,203,3231108,,,2021-11-04,清算の結了等,,,2015-10-05,1,,,,,カミオカコウギョウ,0
419,2080102008106,登記記録の閉鎖等,0,2021-11-11,2021-11-08,有限会社大野養魚場,,有限会社,静岡県,伊豆市,大平柿木猪之田１０１９番地,,22,222,4103217,,,2021-11-08,清算の結了等,,,2015-10-05,1,,,,,オオノヨウギョジョウ,0
426,2100001010110,登記記録の閉鎖等,0,2021-11-11,2021-11-09,株式会社中越屋,,株式会社,長野県,上田市,中央３丁目８番３号,,20,203,3860012,,,2021-11-09,清算の結了等,,,2015-10-05,1,,,,,ナカゴシヤ,0
431,2100002002123,登記記録の閉鎖等,0,2021-11-11,2021-11-08,株式会社信濃工業,,株式会社,長野県,長野市,大字徳間１１６８番地１７,,20,201,3810041,,,2021-11-08,清算の結了等,,,2015-10-05,1,,,,,シナノコウギョウ,0
432,2100002023937,登記記録の閉鎖等,0,2021-11-11,2021-11-09,有限会社平林板金,,有限会社,長野県,安曇野市,三郷明盛４０７２番地９,,20,220,3998101,,,2021-11-09,清算の結了等,,,2015-10-05,1,,,,,ヒラバヤシバンキン,0
443,2120001168533,登記記録の閉鎖等,0,2021-11-11,2021-11-08,オリエンタリスト株式会社,,株式会社,大阪府,大阪市天王寺区,堀越町７番４号,,27,109,5430056,,,2021-11-08,清算の結了等,,,2015-10-05,1,,,,,オリエンタリスト,0
458,2120903001163,登記記録の閉鎖等,0,2021-11-11,2021-11-09,ダイシン乳販配送センター合同会社,,合同会社,大阪府,高槻市,道鵜町２丁目１－１３,,27,207,5690011,,,2021-11-09,清算の結了等,,,2015-10-05,1,,,,,ダイシンニュウハンハイソウセンター,0
482,2180001021174,登記記録の閉鎖等,0,2021-11-11,2021-11-08,八千代第一交通株式会社,,株式会社,愛知県,名古屋市南区,要町４丁目２０番地,,23,112,4570802,,,2021-11-08,合併による解散等,7180001022135,令和３年１１月１日名古屋市熱田区西野町二丁目３３番地大宝第一交通株式会社（7180001022135）に合併し解散,2015-10-05,1,,,,,ヤチヨダイイチコウツウ,0
486,2180001067911,登記記録の閉鎖等,0,2021-11-11,2021-11-01,株式会社日建,,株式会社,愛知県,長久手市,氏神前５０９番地,,23,238,4801125,,,2021-11-01,清算の結了等,,,2015-10-05,1,,,,,ニッケン,0
510,2240001041926,登記記録の閉鎖等,0,2021-11-11,2021-11-10,株式会社ニットワーク,,株式会社,広島県,広島市中区,鶴見町１３－１藤島ビル２０２,,34,101,7300045,,,2021-11-10,清算の結了等,,,2015-10-05,1,,,,,ニットワーク,0
518,2290002000637,登記記録の閉鎖等,0,2021-11-11,2021-11-08,有限会社ダイケー,,有限会社,福岡県,福岡市西区,野方１丁目２６番２１号,,40,135,8190043,,,2021-11-08,清算の結了等,,,2015-10-05,1,,,,,ダイケー,0
524,2310001013546,登記記録の閉鎖等,0,2021-11-11,2021-11-04,株式会社衆遊,,株式会社,長崎県,長崎市,出島町５番３号村川ビル　２－Ｂ号,,42,201,8500862,,,2021-11-04,清算の結了等,,,2015-10-05,1,,,,,シュウユウ,0
534,2350001001084,登記記録の閉鎖等,0,2021-11-11,2021-11-10,株式会社釣好,,株式会社,宮崎県,宮崎市,吉村町北原甲１４２０番地,,45,201,8800841,,,2021-11-10,清算の結了等,,,2015-10-05,1,,,,,ツリヨシ,0
556,2420001002380,登記記録の閉鎖等,0,2021-11-11,2021-11-09,株式会社水口不動産,,株式会社,青森県,青森市,古川２丁目１０番１１号,,02,201,0300862,,,2021-11-09,清算の結了等,,,2015-10-05,1,,,,,ミズグチフドウサン,0
564,2490003000384,登記記録の閉鎖等,0,2021-11-11,2021-11-10,合同会社しなね編集事務所,,合同会社,高知県,高知市,一宮しなね１丁目１５番６号,,39,201,7818131,,,2021-11-10,清算の結了等,,,2015-10-05,1,,,,,シナネヘンシュウジムショ,0
600,3010601012274,登記記録の閉鎖等,0,2021-11-11,2021-11-04,株式会社地引技工所,,株式会社,東京都,墨田区,墨田３丁目３１番１９号,,13,107,1310031,,,2021-11-04,清算の結了等,,,2015-10-05,1,,,,,ジビキギコウショ,0
616,3011101021237,登記記録の閉鎖等,0,2021-11-11,2021-11-05,株式会社モルデンテ,,株式会社,東京都,新宿区,下落合３丁目１６番１５号,,13,104,1610033,,,2021-11-05,清算の結了等,,,2015-10-05,1,,,,,,0
622,3011401000535,登記記録の閉鎖等,0,2021-11-11,2021-11-09,石津工業株式会社,,株式会社,東京都,板橋区,前野町６丁目８番２４号,,13,119,1740063,,,2021-11-09,清算の結了等,,,2015-10-05,1,,,,,イシヅコウギョウ,0
626,3012402008484,登記記録の閉鎖等,0,2021-11-11,2021-11-05,有限会社ファットアマーノ,,有限会社,東京都,府中市,住吉町１丁目８４番地の１ステーザ府中中河原５１１,,13,206,1830034,,,2021-11-05,清算の結了等,,,2015-10-05,1,,,,,ファットアマーノ,0
635,3013201015077,登記記録の閉鎖等,0,2021-11-11,2021-10-25,株式会社アッシュドゥ,,株式会社,東京都,目黒区,鷹番３丁目７番１３号弘洋ハイツ１０１,,13,110,1520004,,,2021-10-25,清算の結了等,,,2015-10-05,1,,,,,アッシュドゥ,0
651,3021001044634,登記記録の閉鎖等,0,2021-11-11,2021-11-08,株式会社エスアイ商事,,株式会社,神奈川県,横須賀市,須軽谷１０６４番地,,14,201,2380314,,,2021-11-08,清算の結了等,,,2015-10-05,1,,,,,,0
657,3030001017186,登記記録の閉鎖等,0,2021-11-11,2021-11-05,墨ホーム企画株式会社,,株式会社,埼玉県,さいたま市西区,大字佐知川１２８７番地４,,11,101,3310064,,,2021-11-05,清算の結了等,,,2015-10-05,1,,,,,スミホームキカク,0
663,3030001133413,登記記録の閉鎖等,0,2021-11-11,2021-11-04,株式会社ＹｏｕｎｇＦｏｒｅｓｔ,,株式会社,埼玉県,さいたま市大宮区,仲町３丁目８９番地１マリオン大宮３０７号室,,11,103,3300845,,,2021-11-04,清算の結了等,,,2019-10-23,1,,,,,ヤングフォレスト,0
667,3030002005495,登記記録の閉鎖等,0,2021-11-11,2021-11-05,有限会社賛光電気商会,,有限会社,埼玉県,さいたま市浦和区,大原１丁目１２番９号,,11,107,3300046,,,2021-11-05,清算の結了等,,,2015-10-05,1,,,,,サンコウデンキショウカイ,0
669,3030002073311,登記記録の閉鎖等,0,2021-11-11,2021-11-05,有限会社小林建築工業,,有限会社,埼玉県,川越市,川鶴１丁目２２番地６,,11,201,3501176,,,2021-11-05,清算の結了等,,,2021-08-30,1,,,,,コバヤシケンチクコウギョウ,0
671,3030005007126,登記記録の閉鎖等,0,2021-11-11,2021-11-02,医療法人社団恵征会,,その他の設立登記法人,埼玉県,富士見市,西みずほ台１丁目２１番４号長野ビル２階,,11,235,3540018,,,2021-11-02,清算の結了等,,,2015-10-05,1,,,,,ケイセイカイ,0
673,3040002028248,登記記録の閉鎖等,0,2021-11-11,2021-11-02,有限会社ワイ・エス・エム・アソシエイツ,,有限会社,千葉県,船橋市,高根台６丁目１７番１３号,,12,204,2740065,,,2021-11-02,清算の結了等,,,2015-10-05,1,,,,,ワイエスエムアソシエイツ,0
676,3040002090388,登記記録の閉鎖等,0,2021-11-11,2021-11-02,有限会社相互電機工業,,有限会社,千葉県,柏市,吉野沢３番１号,,12,217,2770853,,,2021-11-02,清算の結了等,,,2015-10-05,1,,,,,ソウゴデンキコウギョウ,0
692,3080102015299,登記記録の閉鎖等,0,2021-11-11,2021-11-04,有限会社山大工業所,,有限会社,静岡県,富士市,南町３番１８号,,22,210,4170026,,,2021-11-04,清算の結了等,,,2015-10-05,1,,,,,ヤマダイコウギョウショ,0
710,3120002075001,登記記録の閉鎖等,0,2021-11-11,2021-11-08,有限会社フキヤ電気,,有限会社,大阪府,枚方市,伊加賀西町６９番１号,,27,210,5730066,,,2021-11-08,清算の結了等,,,2015-10-05,1,,,,,フキヤデンキ,0
736,3180001025934,登記記録の閉鎖等,0,2021-11-11,2021-11-08,千成第一交通株式会社,,株式会社,愛知県,名古屋市北区,中切町１丁目６３番地,,23,103,4620051,,,2021-11-08,合併による解散等,9180001051727,令和３年１１月１日名古屋市北区中切町一丁目６３番地鯱第一交通株式会社（9180001051727）に合併し解散,2015-10-05,1,,,,,センナリダイイチコウツウ,0
744,3180002064915,登記記録の閉鎖等,0,2021-11-11,2021-11-04,有限会社アーバンリサーチ,,有限会社,愛知県,春日井市,藤山台９丁目２番地の１,,23,206,4870035,,,2021-11-04,清算の結了等,,,2015-10-05,1,,,,,アーバンリサーチ,0
751,3190002018060,登記記録の閉鎖等,0,2021-11-11,2021-11-09,弓矢食品有限会社,,有限会社,三重県,いなべ市,大安町石榑東３６６番地,,24,214,5110264,,,2021-11-09,清算の結了等,,,2015-10-05,1,,,,,ユミヤショクヒン,0
768,3250005003391,登記記録の閉鎖等,0,2021-11-11,2021-11-09,下関漁港漁業協同組合,,その他の設立登記法人,山口県,下関市,大和町１丁目１６番１号,,35,201,7500067,,,2021-11-09,清算の結了等,,,2015-10-05,1,,,,,シモノセキギョコウギョギョウ,0
777,3290002018042,登記記録の閉鎖等,0,2021-11-11,2021-11-04,有限会社ユープロセス,,有限会社,福岡県,福岡市博多区,麦野４丁目１１番１号,,40,132,8120882,,,2021-11-04,清算の結了等,,,2015-10-05,1,,,,,ユープロセス,0
779,3290003004660,登記記録の閉鎖等,0,2021-11-11,2021-11-04,合同会社ＺＥＲＯ,,合同会社,福岡県,福岡市早良区,原６丁目１０番３号,,40,137,8140022,,,2021-11-04,清算の結了等,,,2015-10-05,1,,,,,ゼロ,0
789,3330001020746,登記記録の閉鎖等,0,2021-11-11,2021-11-01,株式会社永里商会,,株式会社,熊本県,葦北郡芦北町,大字湯浦２３３番地３５,,43,482,8695563,,,2021-11-01,清算の結了等,,,2015-10-05,1,,,,,ナガサトショウカイ,0
810,3430002010728,登記記録の閉鎖等,0,2021-11-11,2021-11-05,有限会社スペースプランニング社,,有限会社,北海道,札幌市白石区,東札幌四条４丁目６番１６号,,01,104,0030004,,,2021-11-05,清算の結了等,,,2015-10-05,1,,,,,スペースプランニングシャ,0
813,3450002001254,登記記録の閉鎖等,0,2021-11-11,2021-11-10,有限会社北海産業,,有限会社,北海道,旭川市,東旭川町上兵村４４８番地の３,,01,204,0788207,,,2021-11-10,清算の結了等,,,2015-10-05,1,,,,,ホッカイサンギョウ,0
817,3470005003163,登記記録の閉鎖等,0,2021-11-11,2021-11-08,医療法人社団小田眼科,,その他の設立登記法人,香川県,丸亀市,川西町南４２２番地５,,37,202,7630092,,,2021-11-08,清算の結了等,,,2015-10-05,1,,,,,オダガンカ,0
820,3490002005912,登記記録の閉鎖等,0,2021-11-11,2021-11-10,有限会社徳久工業,,有限会社,高知県,高知市,高須東町１８番１８号,,39,201,7818105,,,2021-11-10,清算の結了等,,,2015-10-05,1,,,,,トクヒサコウギョウ,0
825,4010001038753,登記記録の閉鎖等,0,2021-11-11,2021-11-02,エム・シー・カーボン株式会社,,株式会社,東京都,千代田区,丸の内２丁目６番１号,,13,101,1000005,,,2021-11-02,清算の結了等,,,2015-10-05,1,,,,,エムシーカーボン,0
826,4010001045444,登記記録の閉鎖等,0,2021-11-11,2021-11-02,東京インシュアランスサービス株式会社,,株式会社,東京都,中央区,日本橋浜町２丁目３３番１号,,13,102,1030007,,,2021-11-02,清算の結了等,,,2015-10-05,1,,,,,トウキョウインシュアランスサービス,0
827,4010001045733,登記記録の閉鎖等,0,2021-11-11,2021-11-08,株式会社新和,,株式会社,東京都,中央区,築地４丁目２番１１号新橋演舞場ビル別館３階,,13,102,1040045,,,2021-11-08,清算の結了等,,,2015-10-05,1,,,,,シンワ,0
857,4010601001342,登記記録の閉鎖等,0,2021-11-11,2021-11-01,株式会社尾関商店,,株式会社,東京都,江東区,亀戸２丁目３０番１号,,13,108,1360071,,,2021-11-01,清算の結了等,,,2015-10-05,1,,,,,オゼキショウテン,0
867,4011001113884,登記記録の閉鎖等,0,2021-11-11,2021-10-28,株式会社ＡＬＤＯＣＫ,,株式会社,東京都,港区,新橋２丁目１６番１号ニュー新橋ビル７０２,,13,103,1050004,,,2021-10-28,清算の結了等,,,2016-12-07,1,,,,,アルドック,0
888,4011305002271,登記記録の閉鎖等,0,2021-11-11,2021-11-08,税理士法人アルファ,,その他の設立登記法人,東京都,杉並区,阿佐谷北４丁目２０番７号アルファコート１階,,13,115,1660001,,,2021-11-08,清算の結了等,,,2015-12-03,1,,,,,アルファ,0
906,4013401005240,登記記録の閉鎖等,0,2021-11-11,2021-11-08,オフィスむらかみ株式会社,,株式会社,東京都,日野市,東豊田３丁目１８番地１豊田第３コーポラス３２３,,13,212,1910052,,,2021-11-08,清算の結了等,,,2015-10-05,1,,,,,オフィスムラカミ,0
910,4020001067611,登記記録の閉鎖等,0,2021-11-11,2021-11-08,株式会社川崎松林,,株式会社,神奈川県,川崎市宮前区,水沢１丁目１番１号,,14,136,2160012,,,2021-11-08,清算の結了等,,,2015-10-05,1,,,,,カワサキマツリン,0
938,4030002081239,登記記録の閉鎖等,0,2021-11-11,2021-11-01,有限会社アイレック,,有限会社,埼玉県,本庄市,児玉町児玉５９４番地２,,11,211,3670212,,,2021-11-01,清算の結了等,,,2015-10-05,1,,,,,アイレック,0
962,4080102001439,登記記録の閉鎖等,0,2021-11-11,2021-11-08,有限会社桜工販,,有限会社,静岡県,沼津市,大岡２４１４番地の２,,22,203,4100022,,,2021-11-08,清算の結了等,,,2015-10-05,1,,,,,サクラコウハン,0
965,4080401014224,登記記録の閉鎖等,0,2021-11-11,2021-11-09,株式会社尾崎建設,,株式会社,静岡県,掛川市,葛川１０１２番地の２,,22,213,4360074,,,2021-11-09,清算の結了等,,,2015-10-05,1,,,,,オザキケンセツ,0
968,4090002005266,登記記録の閉鎖等,0,2021-11-11,2021-11-08,有限会社タカノ企画,,有限会社,山梨県,甲府市,下石田２丁目１６番２４号,,19,201,4000046,,,2021-11-08,清算の結了等,,,2015-10-05,1,,,,,タカノキカク,0
970,4100002009447,登記記録の閉鎖等,0,2021-11-11,2021-11-09,高橋産業有限会社,00069446,有限会社,長野県,千曲市,大字稲荷山４８１番地３,,20,218,3870021,,,2021-11-09,清算の結了等,,,2015-10-05,1,,,,,タカハシサンギョウ,0
975,4110005008098,登記記録の閉鎖等,0,2021-11-11,2021-11-08,医療法人社団竹越内科医院,,その他の設立登記法人,新潟県,上越市,五智新町１０番２４号,,15,222,9420084,,,2021-11-08,清算の結了等,,,2015-10-05,1,,,,,タケゴシナイカイイン,0
977,4120001069696,登記記録の閉鎖等,0,2021-11-11,2021-11-08,株式会社フォリオ,,株式会社,大阪府,大阪市中央区,平野町４丁目６番３号大明ビル,,27,128,5410046,,,2021-11-08,合併による解散等,3120001044428,令和３年１１月１日大阪市中央区平野町四丁目６番３号大明ビル株式会社昴（3120001044428）に合併し解散,2015-10-05,1,,,,,フォリオ,0
983,4120001148987,登記記録の閉鎖等,0,2021-11-11,2021-11-08,ありさ住宅株式会社,,株式会社,大阪府,枚方市,西禁野２丁目９番１６号,,27,210,5731192,,,2021-11-08,合併による解散等,5170001000077,令和３年１１月１日和歌山市橋向丁３２番地株式会社あかりホーム（5170001000077）に合併し解散,2015-10-05,1,,,,,,0
988,4120001235678,登記記録の閉鎖等,0,2021-11-11,2021-11-05,株式会社ワールドコーポレーションズ,,株式会社,大阪府,大阪市北区,池田町３番２１－２６０９号,,27,127,5300033,,,2021-11-05,合併による解散等,2011001024456,令和３年１０月２０日東京都渋谷区神宮前四丁目１１番１４号株式会社ワールドコーポレーションズ（2011001024456）に合併し解散,2021-03-03,1,,,,,,0
1004,4122001000748,登記記録の閉鎖等,0,2021-11-11,2021-11-10,魚住電機株式会社,,株式会社,大阪府,東大阪市,下小阪１丁目１９番１４号,,27,227,5770803,,,2021-11-10,清算の結了等,,,2015-10-05,1,,,,,ウオズミデンキ,0
1007,4130001048096,登記記録の閉鎖等,0,2021-11-11,2021-11-08,株式会社山茶林泉,,株式会社,京都府,京都市北区,鷹峯光悦町１番地２,,26,101,6038466,,,2021-11-08,清算の結了等,,,2015-10-05,1,,,,,サザンリンセン,0
1012,4140001051818,登記記録の閉鎖等,0,2021-11-11,2021-11-08,ユニオンフーズ株式会社,,株式会社,兵庫県,尼崎市,次屋４丁目２番３号,,28,202,6610965,,,2021-11-08,清算の結了等,,,2015-10-05,1,,,,,ユニオンフーズ,0
1017,4140002009022,登記記録の閉鎖等,0,2021-11-11,2021-11-08,有限会社丹生田興産,,有限会社,兵庫県,神戸市長田区,菅原通４丁目７５番地,,28,106,6530015,,,2021-11-08,清算の結了等,,,2015-10-05,1,,,,,ニブタコウサン,0
1048,4240002042392,登記記録の閉鎖等,0,2021-11-11,2021-11-01,スチールプロホールディングス株式会社,,株式会社,広島県,福山市,大門町５丁目６番３５号,,34,207,7210926,,,2021-11-01,合併による解散等,2240001031729,令和３年１１月１日広島県福山市大門町五丁目６番３５号瀬戸内スチール株式会社（2240001031729）に合併し解散,2015-10-05,1,,,,,スチールプロホールディングス,0
1050,4240005011535,登記記録の閉鎖等,0,2021-11-11,2021-11-01,株式会社世羅ファーム,,株式会社,広島県,世羅郡世羅町,大字津口２４７番地の３,,34,462,7221731,,,2021-11-01,合併による解散等,8240001043470,令和３年１１月１日広島県三次市青河町５９９番地広島たまご株式会社（8240001043470）に合併し解散,2015-10-05,1,,,,,セラファーム,0
1052,4280005000591,登記記録の閉鎖等,0,2021-11-11,2021-11-09,医療法人紙谷歯科医院,,その他の設立登記法人,島根県,松江市,春日町１８９番地４,,32,201,6900877,,,2021-11-09,清算の結了等,,,2015-10-05,1,,,,,カミダニシカイイン,0
1066,4330003002601,登記記録の閉鎖等,0,2021-11-11,2021-11-08,合資会社アソカラー現像所,,合資会社,熊本県,阿蘇市,一の宮町宮地２３６９番地の２,,43,214,8692612,,,2021-11-08,清算の結了等,,,2015-10-05,1,,,,,アソカラーゲンゾウショ,0
1069,4350002001214,登記記録の閉鎖等,0,2021-11-11,2021-11-09,有限会社カワナベ補聴器センター,,有限会社,宮崎県,宮崎市,橘通西４丁目３番２５号藤栄ビル１階,,45,201,8800001,,,2021-11-09,清算の結了等,,,2015-10-05,1,,,,,カワナベホチョウキセンター,0
1070,4350002003086,登記記録の閉鎖等,0,2021-11-11,2021-11-09,有限会社保険センターヒロ,,有限会社,宮崎県,宮崎市,神宮東２丁目６番１号,,45,201,8800056,,,2021-11-09,清算の結了等,,,2015-10-05,1,,,,,ホケンセンターヒロ,0
1073,4360001016988,登記記録の閉鎖等,0,2021-11-11,2021-11-05,株式会社ＡＫトランスポート,,株式会社,沖縄県,浦添市,西洲２丁目８番地２,,47,208,9012123,,,2021-11-05,清算の結了等,,,2015-10-05,1,,,,,エーケートランスポート,0
1074,4360001022458,登記記録の閉鎖等,0,2021-11-11,2021-11-04,株式会社フレッシュエアープラーシス,,株式会社,沖縄県,糸満市,西崎６丁目５番５号Ｓｕｚｕｙａ，ＢＬＤＩＩＩ２０１,00110514,47,210,9010305,,,2021-11-04,清算の結了等,,,2017-06-13,1,,,,,フレッシュエアープラーシス,0
1075,4360001025279,登記記録の閉鎖等,0,2021-11-11,2021-11-04,株式会社ＹＫコーポレーション,,株式会社,沖縄県,豊見城市,字翁長８３２番地３,,47,212,9010223,,,2021-11-04,清算の結了等,,,2019-02-21,1,,,,,ワイケイコーポレーション,0
1079,4370302001498,登記記録の閉鎖等,0,2021-11-11,2021-11-02,有限会社立町たかはし園,,有限会社,宮城県,石巻市,立町２丁目４番３４号,,04,202,9860824,,,2021-11-02,清算の結了等,,,2015-10-05,1,,,,,タチマチタカハシエン,0
1081,4380001006310,登記記録の閉鎖等,0,2021-11-11,2021-11-09,株式会社向日葵,,株式会社,福島県,郡山市,富久山町久保田字下河原９６番地３,,07,203,9638071,,,2021-11-09,清算の結了等,,,2015-10-05,1,,,,,ヒマワリ,0
1085,4400502000866,登記記録の閉鎖等,0,2021-11-11,2021-11-08,有限会社鈴木製作所,,有限会社,岩手県,一関市,花泉町涌津字向川１番地２,,03,209,0293205,,,2021-11-08,清算の結了等,,,2015-10-05,1,,,,,スズキセイサクショ,0
1087,4430001064443,登記記録の閉鎖等,0,2021-11-11,2021-11-08,株式会社ウォーム総合断熱,,株式会社,北海道,滝川市,朝日町西４丁目２番１５号,,01,225,0730018,,,2021-11-08,清算の結了等,,,2015-10-05,1,,,,,,0
1097,4470001017050,登記記録の閉鎖等,0,2021-11-11,2021-11-08,株式会社Ｍ　ｃｏｎｎｅｃｔ,,株式会社,香川県,高松市,花園町１丁目１３番６号,,37,201,7600072,,,2021-11-08,清算の結了等,,,2018-09-04,1,,,,,エムコネクト,0
1098,4470002003116,登記記録の閉鎖等,0,2021-11-11,2021-11-09,有限会社サンシ不動産,,有限会社,香川県,高松市,元山町８６７番地,,37,201,7610311,,,2021-11-09,清算の結了等,,,2015-10-05,1,,,,,サンシフドウサン,0
1109,5010001213322,登記記録の閉鎖等,0,2021-11-11,2021-11-08,株式会社プレサイス・プロダクツ・ホールディングス,,株式会社,東京都,千代田区,大手町１丁目７番２号,,13,101,1000004,,,2021-11-08,合併による解散等,6180001016360,令和３年１１月１日名古屋市東区矢田三丁目１６番８５号尾張精機株式会社（6180001016360）に合併し解散,2020-10-27,1,,,,,プレサイスプロダクツホールディングス,0
1119,5010005013925,登記記録の閉鎖等,0,2021-11-11,2021-11-09,税理士法人コーチ,,その他の設立登記法人,東京都,中央区,日本橋兜町１６番３号朝日ビル２階,,13,102,1030026,,,2021-11-09,清算の結了等,,,2015-10-05,1,,,,,コーチ,0
1130,5010401147252,登記記録の閉鎖等,0,2021-11-11,2021-10-29,株式会社ＴＲＰ,,株式会社,東京都,港区,浜松町２丁目２番１５号浜松町ダイヤビル２Ｆ,,13,103,1050013,,,2021-10-29,清算の結了等,,,2019-08-07,1,,,,,ティーアールピー,0
1152,5010701038473,登記記録の閉鎖等,0,2021-11-11,2021-11-02,株式会社アスカノ,,株式会社,東京都,品川区,西五反田１丁目２６番２号五反田サンハイツ９１１,,13,109,1410031,,,2021-11-02,清算の結了等,,,2019-11-19,1,,,,,アスカノ,0
1177,5011202011663,登記記録の閉鎖等,0,2021-11-11,2021-11-05,有限会社デンバー,,有限会社,東京都,中野区,江古田２丁目１０番１９－２０１号,,13,114,1650022,,,2021-11-05,清算の結了等,,,2015-10-05,1,,,,,デンバー,0
1195,5013305001483,登記記録の閉鎖等,0,2021-11-11,2021-11-04,一般社団法人臨床歯科理工学会,,その他の設立登記法人,東京都,豊島区,南長崎５丁目３番１６号,,13,116,1710052,,,2021-11-04,清算の結了等,,,2015-10-05,1,,,,,リンショウシカリコウガッカイ,0
1208,5020002063022,登記記録の閉鎖等,0,2021-11-11,2021-11-08,有限会社ジオアクセス,,有限会社,神奈川県,横浜市西区,南浅間町２１番地１藤和西横浜ハイタウン３２０,,14,103,2200074,,,2021-11-08,清算の結了等,,,2015-10-05,1,,,,,ジオアクセス,0
1210,5020005002472,登記記録の閉鎖等,0,2021-11-11,2021-11-05,よこはま建築監理協同組合,,その他の設立登記法人,神奈川県,横浜市中区,山田町５番地１フロール山田第２－１０９,,14,104,2310036,,,2021-11-05,清算の結了等,,,2015-10-05,1,,,,,ヨコハマケンチクカンリ,0
1220,5030001090504,登記記録の閉鎖等,0,2021-11-11,2021-11-02,株式会社ＳＴＥＳ,,株式会社,埼玉県,日高市,大字梅原字田端３５番地,,11,242,3501246,,,2021-11-02,清算の結了等,,,2015-10-05,1,,,,,エステス,0
1230,5030003007431,登記記録の閉鎖等,0,2021-11-11,2021-11-04,合同会社こがばた農園,,合同会社,埼玉県,川越市,大字古谷上４２６２番地,,11,201,3500001,,,2021-11-04,清算の結了等,,,2015-10-05,1,,,,,コガバタノウエン,0
1231,5030003012290,登記記録の閉鎖等,0,2021-11-11,2021-11-05,合同会社ＴＥＩＧＡＫＵ,,合同会社,埼玉県,戸田市,笹目５丁目７番地の１４,,11,224,3350034,,,2021-11-05,清算の結了等,,,2018-08-09,1,,,,,テイガク,0
1253,5070002014235,登記記録の閉鎖等,0,2021-11-11,2021-11-08,有限会社箕輪タクシー,,有限会社,群馬県,高崎市,箕郷町西明屋３３２番地,,10,202,3703105,,,2021-11-08,清算の結了等,,,2015-10-05,1,,,,,ミノワタクシー,0
1258,5090001011339,登記記録の閉鎖等,0,2021-11-11,2021-11-09,株式会社平井工務店,,株式会社,山梨県,北杜市,大泉町谷戸１５８３番地の１,,19,209,4091502,,,2021-11-09,清算の結了等,,,2015-10-05,1,,,,,ヒライコウムテン,0
1259,5090005000008,登記記録の閉鎖等,0,2021-11-11,2021-11-04,医療法人財団許山会,,その他の設立登記法人,山梨県,甲府市,中央１丁目１２番６号,,19,201,4000032,,,2021-11-04,清算の結了等,,,2015-10-05,1,,,,,モトヤマカイ,0
1262,5100002015320,登記記録の閉鎖等,0,2021-11-11,2021-11-09,有限会社メックシステム,,有限会社,長野県,上田市,諏訪形１０７１番地,,20,203,3860032,,,2021-11-09,清算の結了等,,,2015-10-05,1,,,,,メックシステム,0
1283,5120905000053,登記記録の閉鎖等,0,2021-11-11,2021-11-08,正法寺,,その他の設立登記法人,大阪府,茨木市,大字安威２１３９番地,00033969,27,211,5670001,,,2021-11-08,清算の結了等,,,2015-10-05,1,,,,,ショウホウジ,0
1305,5180001015124,登記記録の閉鎖等,0,2021-11-11,2021-11-05,中島産業株式会社,,株式会社,愛知県,名古屋市南区,戸部町３丁目３９番地,,23,112,4570043,,,2021-11-05,清算の結了等,,,2015-10-05,1,,,,,ナカシマサンギョウ,0
1310,5180002004431,登記記録の閉鎖等,0,2021-11-11,2021-11-08,有限会社シヨーエイ,,有限会社,愛知県,名古屋市千種区,内山１丁目２番１８号,,23,101,4640075,,,2021-11-08,清算の結了等,,,2015-10-05,1,,,,,ショーエイ,0
1312,5180002081891,登記記録の閉鎖等,0,2021-11-11,2021-11-08,有限会社サン丸井,,有限会社,愛知県,江南市,宮後町王塚２２２番地,,23,217,4838044,,,2021-11-08,清算の結了等,,,2015-10-05,1,,,,,サンマルイ,0
1313,5180003017069,登記記録の閉鎖等,0,2021-11-11,2021-11-08,プラチナムエスコート合同会社,,合同会社,愛知県,名古屋市東区,東桜２丁目１７番地１５,,23,102,4610005,,,2021-11-08,清算の結了等,,,2016-05-02,1,,,,,プラチナムエスコート,0
1319,5190005003883,登記記録の閉鎖等,0,2021-11-11,2021-11-09,紀伊長島水産加工業協同組合,,その他の設立登記法人,三重県,北牟婁郡紀北町,長島２１８５番地１,,24,543,5193205,,,2021-11-09,清算の結了等,,,2015-10-05,1,,,,,キイナガシマスイサンカコウギョウ,0
1320,5200001035532,登記記録の閉鎖等,0,2021-11-11,2021-11-10,株式会社アイ・プラス,,株式会社,岐阜県,岐阜市,加納愛宕町２３番地,,21,201,5008476,,,2021-11-10,清算の結了等,,,2018-09-18,1,,,,,アイプラス,0
1321,5200005007503,登記記録の閉鎖等,0,2021-11-11,2021-11-09,濃飛運送事業協同組合,,その他の設立登記法人,岐阜県,関市,小瀬字一ノ門１２８４番地の８,,21,205,5013265,,,2021-11-09,清算の結了等,,,2015-10-05,1,,,,,ノウヒウンソウ,0
1334,5240002009556,登記記録の閉鎖等,0,2021-11-11,2021-11-10,有限会社たけい,,有限会社,広島県,広島市南区,宇品神田１丁目４番１７号,,34,103,7340004,,,2021-11-10,清算の結了等,,,2015-10-05,1,,,,,タケイ,0
1335,5240002052218,登記記録の閉鎖等,0,2021-11-11,2021-11-09,清川鉄工有限会社,,有限会社,広島県,尾道市,御調町仁野８５番地の１,,34,205,7220331,,,2021-11-09,清算の結了等,,,2015-10-05,1,,,,,キヨカワテッコウ,0
1340,5260001003624,登記記録の閉鎖等,0,2021-11-11,2021-11-10,株式会社セーヌ,,株式会社,岡山県,岡山市中区,四御神７００番地の５２,,33,102,7038201,,,2021-11-10,清算の結了等,,,2015-10-05,1,,,,,,0
1347,5290001007969,登記記録の閉鎖等,0,2021-11-11,2021-11-05,株式会社シングルゴルフ,,株式会社,福岡県,福岡市中央区,天神５丁目９番２号,,40,133,8100001,,,2021-11-05,清算の結了等,,,2015-10-05,1,,,,,シングルゴルフ,0
1357,5290003004403,登記記録の閉鎖等,0,2021-11-11,2021-11-05,ＥＳＣＡＰＥ合同会社,,合同会社,福岡県,大野城市,南ケ丘４丁目１４番１７号,,40,219,8160964,,,2021-11-05,清算の結了等,,,2015-10-05,1,,,,,エスケープ,0
1366,5330001006421,登記記録の閉鎖等,0,2021-11-11,2021-11-09,株式会社やさしい手熊本,,株式会社,熊本県,熊本市中央区,水前寺公園１２番３６号,,43,101,8620956,,,2021-11-09,清算の結了等,,,2015-10-05,1,,,,,ヤサシイテクマモト,0
1371,5350002002649,登記記録の閉鎖等,0,2021-11-11,2021-11-10,有限会社みどり商事,,有限会社,宮崎県,宮崎市,吉村町中原甲２７０５番地８,,45,201,8800841,,,2021-11-10,清算の結了等,,,2015-10-05,1,,,,,ミドリショウジ,0
1392,5380001028097,登記記録の閉鎖等,0,2021-11-11,2021-11-09,渡辺建材株式会社,,株式会社,福島県,郡山市,大槻町字西ノ宮西１６番地７クレセント西ノ宮１０１,,07,203,9630201,,,2021-11-09,清算の結了等,,,2017-05-10,1,,,,,ワタナベケンザイ,0
1410,5430003001765,登記記録の閉鎖等,0,2021-11-11,2021-11-04,合同会社ミル,,合同会社,北海道,札幌市白石区,栄通１０丁目２番９号マイクレスト栄通１０２号,,01,104,0030021,,,2021-11-04,清算の結了等,,,2015-10-05,1,,,,,ミル,0
1419,5470002010441,登記記録の閉鎖等,0,2021-11-11,2021-11-05,有限会社卯をじ,,有限会社,香川県,高松市,兵庫町１０番地７,,37,201,7600024,,,2021-11-05,清算の結了等,,,2015-10-05,1,,,,,ウヲジ,0
1529,6021002031620,登記記録の閉鎖等,0,2021-11-11,2021-11-09,有限会社コスマック,,有限会社,神奈川県,厚木市,下川入１８３番地の１,,14,212,2430206,,,2021-11-09,清算の結了等,,,2015-10-05,1,,,,,コスマック,0
1530,6021003007818,登記記録の閉鎖等,0,2021-11-11,2021-11-09,合同会社鎌田興業,,合同会社,神奈川県,座間市,緑ケ丘３丁目２９番４号エクレール１０１号,,14,216,2520021,,,2021-11-09,清算の結了等,,,2018-10-02,1,,,,,カマタコウギョウ,0
1558,6070003003913,登記記録の閉鎖等,0,2021-11-11,2021-11-08,合同会社メイクマ,,合同会社,群馬県,みどり市,笠懸町阿左美５６３－１,,10,212,3792311,,,2021-11-08,清算の結了等,,,2020-11-13,1,,,,,メイクマ,0
1563,6080105005740,登記記録の閉鎖等,0,2021-11-11,2021-11-02,一般社団法人グリーンエネルギー推進協議会,,その他の設立登記法人,静岡県,熱海市,咲見町３番８号ソフィア熱海デイサス１０１３,,22,205,4130019,,,2021-11-02,清算の結了等,,,2017-04-20,1,,,,,グリーンエネルギースイシンキョウギカイ,0
1569,6080403002167,登記記録の閉鎖等,0,2021-11-11,2021-11-09,合名会社川合材木店,,合名会社,静岡県,浜松市中区,広沢２丁目９番２７号,,22,131,4328013,,,2021-11-09,清算の結了等,,,2015-10-05,1,,,,,カワイザイモクテン,0
1572,6090002009918,登記記録の閉鎖等,0,2021-11-11,2021-11-05,有限会社教夢,,有限会社,山梨県,上野原市,上野原１６８１番地,,19,212,4090112,,,2021-11-05,清算の結了等,,,2015-10-05,1,,,,,キョウム,0
1587,6120001162301,登記記録の閉鎖等,0,2021-11-11,2021-11-08,シンワジャパン株式会社,,株式会社,大阪府,大阪市中央区,内本町１丁目２番８号,,27,128,5400026,,,2021-11-08,合併による解散等,3130001017201,令和３年１１月１日京都市中京区釜座通竹屋町下る亀屋町３４１番地１株式会社ケンコー（3130001017201）に合併し解散,2015-10-05,1,,,,,シンワジャパン,0
1594,6120001225248,登記記録の閉鎖等,0,2021-11-11,2021-11-08,株式会社華星コンサルタント,,株式会社,大阪府,大阪市北区,天満２丁目９番１７号天満双葉ビル３０６号室,,27,127,5300043,,,2021-11-08,清算の結了等,,,2019-11-22,1,,,,,カセイコンサルタント,0
1604,6122001003930,登記記録の閉鎖等,0,2021-11-11,2021-11-08,杉浦不動産株式会社,,株式会社,大阪府,東大阪市,長堂３丁目２６番６号,,27,227,5770056,,,2021-11-08,清算の結了等,,,2015-10-05,1,,,,,スギウラフドウサン,0
1621,6140002058793,登記記録の閉鎖等,0,2021-11-11,2021-11-08,有限会社カイコーポレーション,,有限会社,兵庫県,西宮市,産所町四丁目８番４０３,,28,204,6620978,,,2021-11-08,合併による解散等,9120001118176,令和３年１１月１日大阪市東淀川区東中島一丁目１９番４号株式会社ジー・ムーブ（9120001118176）に合併し解散,2015-10-05,1,,,,,カイコーポレーション,0
1628,6180001021294,登記記録の閉鎖等,0,2021-11-11,2021-11-05,株式会社吉田製作所,,株式会社,愛知県,名古屋市中川区,愛知町６番１９号,,23,110,4540807,,,2021-11-05,清算の結了等,,,2015-10-05,1,,,,,ヨシダセイサクショ,0
1629,6180001044741,登記記録の閉鎖等,0,2021-11-11,2021-11-01,株式会社セガテム,,株式会社,愛知県,名古屋市北区,平安２丁目１６番３７号,,23,103,4620819,,,2021-11-01,合併による解散等,8180001011715,令和３年１１月１日名古屋市北区平安二丁目１５番５０号リーシングパートナーズ株式会社（8180001011715）に合併し解散,2015-10-05,1,,,,,セガテム,0
1631,6180001135581,登記記録の閉鎖等,0,2021-11-11,2021-11-08,株式会社ＦＩＬＬ,,株式会社,愛知県,一宮市,今伊勢町宮後字稲荷３番地１,,23,203,4910057,,,2021-11-08,清算の結了等,,,2019-02-27,1,,,,,フィル,0
1634,6180301022257,登記記録の閉鎖等,0,2021-11-11,2021-11-09,株式会社朝岡組,,株式会社,愛知県,西尾市,寄住町下田３番地１,,23,213,4450073,,,2021-11-09,清算の結了等,,,2015-10-05,1,,,,,アサオカグミ,0
1643,6210002000376,登記記録の閉鎖等,0,2021-11-11,2021-11-09,有限会社岩佐冷機,,有限会社,福井県,福井市,下東郷町第３号４２番地,,18,201,9102173,,,2021-11-09,清算の結了等,,,2015-10-05,1,,,,,イワサレイキ,0
1645,6230001012841,登記記録の閉鎖等,0,2021-11-11,2021-11-04,北陸福栄鋼材株式会社,,株式会社,富山県,射水市,堀内８１番地の１,,16,211,9390253,,,2021-11-04,合併による解散等,7120001039721,令和３年１１月１日大阪市浪速区幸町一丁目３番１４号福栄鋼材株式会社（7120001039721）に合併し解散,2015-10-05,1,,,,,ホクリクフクエイコウザイ,0
1656,6280002007910,登記記録の閉鎖等,0,2021-11-11,2021-11-09,有限会社井上鉄工所,,有限会社,島根県,大田市,温泉津町温泉津ロ９９番地,,32,205,6992501,,,2021-11-09,清算の結了等,,,2015-10-05,1,,,,,イノウエテッコウショ,0
1682,6380002010573,登記記録の閉鎖等,0,2021-11-11,2021-11-08,有限会社田中フスマ店,,有限会社,福島県,郡山市,喜久田町字松ケ作１７番地の２９,,07,203,9630551,,,2021-11-08,清算の結了等,,,2015-10-05,1,,,,,タナカフスマテン,0
1693,6410001003153,登記記録の閉鎖等,0,2021-11-11,2021-11-08,株式会社北都建設工業,,株式会社,秋田県,秋田市,浜田字宮田沢１４３番地１,,05,201,0101654,,,2021-11-08,清算の結了等,,,2015-10-05,1,,,,,ホクトケンセツコウギョウ,0
1711,6460301003071,登記記録の閉鎖等,0,2021-11-11,2021-11-08,株式会社赤川商店,,株式会社,北海道,網走市,字大曲４２番地の６,,01,211,0930045,,,2021-11-08,清算の結了等,,,2015-10-05,1,,,,,アカガワショウテン,0
1727,7010001187746,登記記録の閉鎖等,0,2021-11-11,2021-11-04,ＨＯＰ株式会社,,株式会社,東京都,大田区,東馬込２丁目１番６号,,13,111,1430022,,,2021-11-04,清算の結了等,,,2017-11-21,1,,,,,ホップ,0
1731,7010002042677,登記記録の閉鎖等,0,2021-11-11,2021-11-02,有限会社高重企画,,有限会社,東京都,文京区,小石川５丁目３番３号,,13,105,1120002,,,2021-11-02,清算の結了等,,,2015-10-05,1,,,,,タカエキカク,0
1745,7010401141716,登記記録の閉鎖等,0,2021-11-11,2021-10-28,ｆｅｔｉｑｕｅｔｔｅ　Ｊａｐａｎ株式会社,,株式会社,東京都,港区,新橋２丁目１６番１号ニュー新橋ビル９Ｆ,,13,103,1050004,,,2021-10-28,清算の結了等,,,2018-10-29,1,,,,,フェチケットジャパン,0
1777,7011005008087,登記記録の閉鎖等,0,2021-11-11,2021-09-15,一般社団法人ＡＨ　ＳＴＹＬＩＮＧ協会,,その他の設立登記法人,東京都,渋谷区,鶯谷町１５番５号,,13,113,1500032,,,2021-09-15,清算の結了等,,,2019-05-07,1,,,,,エイエイチスタイリングキョウカイ,0
1792,7012402011864,登記記録の閉鎖等,0,2021-11-11,2021-11-08,有限会社テクノラボ,,有限会社,東京都,調布市,国領町５丁目６２番地７,,13,208,1820022,,,2021-11-08,清算の結了等,,,2015-10-05,1,,,,,テクノラボ,0
1794,7012701011937,登記記録の閉鎖等,0,2021-11-11,2021-11-04,株式会社ハイライト,,株式会社,埼玉県,上尾市,柏座１丁目７番２２号,,11,219,3620075,,,2021-11-04,清算の結了等,,,2015-10-05,1,,,,,ハイライト,0
1806,7020001094710,登記記録の閉鎖等,0,2021-11-11,2021-11-08,株式会社チェースクリエーションズ,,株式会社,神奈川県,横浜市中区,海岸通４丁目２０番,,14,104,2310002,,,2021-11-08,清算の結了等,,,2015-10-05,1,,,,,チェースクリエーションズ,0
1809,7020001137254,登記記録の閉鎖等,0,2021-11-11,2021-11-05,デリーターキッズ株式会社,,株式会社,神奈川県,川崎市多摩区,登戸新町４３７番地４,,14,135,2140013,,,2021-11-05,合併による解散等,9360001022759,令和３年１１月１日神奈川県三浦市初声町下宮田２８７８番地２株式会社農業生産法人デリーターファーム（9360001022759）に合併し解散,2020-08-13,1,,,,,デリーターキッズ,0
1834,7030002033195,登記記録の閉鎖等,0,2021-11-11,2021-11-04,有限会社岩政,,有限会社,埼玉県,狭山市,大字青柳１５８３番地３,,11,215,3501301,,,2021-11-04,清算の結了等,,,2015-10-05,1,,,,,イワマサ,0
1835,7030002063168,登記記録の閉鎖等,0,2021-11-11,2021-11-01,有限会社汐路,,有限会社,埼玉県,富士見市,西みずほ台１丁目２１番地２０,,11,235,3540018,,,2021-11-01,清算の結了等,,,2015-10-05,1,,,,,シオジ,0
1842,7040001019475,登記記録の閉鎖等,0,2021-11-11,2021-11-01,株式会社ルーフィ,,株式会社,東京都,中央区,日本橋３丁目８番３号,,13,102,1030027,,,2021-11-01,合併による解散等,3010001130981,令和３年１１月１日東京都中央区日本橋三丁目８番３号ＴＰＯホールディングス株式会社（3010001130981）に合併し解散,2015-10-05,1,,,,,ルーフィ,0
1848,7050001019375,登記記録の閉鎖等,0,2021-11-11,2021-11-01,株式会社根菜倶楽部,,株式会社,東京都,中央区,日本橋３丁目８番３号,,13,102,1030027,,,2021-11-01,合併による解散等,3010001130981,令和３年１１月１日東京都中央区日本橋三丁目８番３号ＴＰＯホールディングス株式会社（3010001130981）に合併し解散,2015-10-05,1,,,,,コンサイクラブ,0
1849,7050001031330,登記記録の閉鎖等,0,2021-11-11,2021-11-04,株式会社板谷材木店,,株式会社,茨城県,筑西市,丙８３番地３,,08,227,3080031,,,2021-11-04,清算の結了等,,,2015-10-05,1,,,,,イタヤザイモクテン,0
1853,7070001002916,登記記録の閉鎖等,0,2021-11-11,2021-11-08,株式会社星野総業,,株式会社,群馬県,前橋市,日吉町４丁目３６番地の１,,10,201,3710017,,,2021-11-08,清算の結了等,,,2015-10-05,1,,,,,ホシノソウギョウ,0
1861,7090003001435,登記記録の閉鎖等,0,2021-11-11,2021-11-08,合同会社ＩＯＤリサーチ,,合同会社,山梨県,富士吉田市,新倉２９４６番地,,19,202,4030011,,,2021-11-08,清算の結了等,,,2018-08-15,1,,,,,アイオーディーリサーチ,0
1863,7100002014964,登記記録の閉鎖等,0,2021-11-11,2021-11-09,有限会社山文,,有限会社,長野県,上田市,福田３５番地５,,20,203,3861104,,,2021-11-09,清算の結了等,,,2015-10-05,1,,,,,ヤマブン,0
1869,7110002032899,登記記録の閉鎖等,0,2021-11-11,2021-11-08,有限会社佐田養鱒場,00071153,有限会社,新潟県,南魚沼市,泉新田４６５番地子,,15,226,9497115,,,2021-11-08,清算の結了等,,,2015-10-05,1,,,,,サダヨウソンジョウ,0
1872,7120001023700,登記記録の閉鎖等,0,2021-11-11,2021-11-08,ジャパンナチュラルフード株式会社,,株式会社,大阪府,大阪市天王寺区,堀越町７番４号,,27,109,5430056,,,2021-11-08,清算の結了等,,,2015-10-05,1,,,,,ジャパンナチュラルフード,0
1878,7120001142839,登記記録の閉鎖等,0,2021-11-11,2021-11-05,株式会社エム・アンド・ジー・インターナショナル,,株式会社,大阪府,大阪市中央区,博労町１丁目９番７号,,27,128,5410059,,,2021-11-05,合併による解散等,2011001024456,令和３年１０月２０日東京都渋谷区神宮前四丁目１１番１４号株式会社ワールドコーポレーションズ（2011001024456）に合併し解散,2015-10-05,1,,,,,,0
1901,7122001003269,登記記録の閉鎖等,0,2021-11-11,2021-11-10,株式会社ｓｍｋ,,株式会社,大阪府,東大阪市,永和２丁目１６番１１号,,27,227,5770809,,,2021-11-10,清算の結了等,,,2015-10-05,1,,,,,エスエムケー,0
1903,7130001009509,登記記録の閉鎖等,0,2021-11-11,2021-11-09,株式会社トミヤマ,,株式会社,京都府,京都市東山区,本町新６丁目２０２番地,,26,105,6050989,,,2021-11-09,清算の結了等,,,2015-10-05,1,,,,,,0
1914,7140001112625,登記記録の閉鎖等,0,2021-11-11,2021-11-08,株式会社弘コーポレーション,,株式会社,兵庫県,尼崎市,稲葉荘４丁目６番３号ツゥエルブイナバソウ２０Ｄ,,28,202,6600064,,,2021-11-08,清算の結了等,,,2019-02-04,1,,,,,ヒロコーポレーション,0
1923,7170001005421,登記記録の閉鎖等,0,2021-11-11,2021-11-10,株式会社宇須介護事業所,,株式会社,和歌山県,和歌山市,松江北７丁目７番１４号,,30,201,6408425,,,2021-11-10,清算の結了等,,,2015-10-05,1,,,,,ウズカイゴジギョウショ,0
1943,7180302011398,登記記録の閉鎖等,0,2021-11-11,2021-11-10,有限会社いそ旅行,,有限会社,愛知県,豊橋市,新吉町５３番地,,23,201,4400871,,,2021-11-10,清算の結了等,,,2015-10-05,1,,,,,イソリョコウ,0
1948,7200002012834,登記記録の閉鎖等,0,2021-11-11,2021-11-08,有限会社高巣技研,,有限会社,岐阜県,大垣市,築捨町１丁目３２３番地の２,,21,202,5030854,,,2021-11-08,清算の結了等,,,2015-10-05,1,,,,,タカスギケン,0
1968,7290001044911,登記記録の閉鎖等,0,2021-11-11,2021-11-05,株式会社筑紫野冷機,,株式会社,福岡県,筑紫野市,石崎２丁目９番８号,,40,217,8180068,,,2021-11-05,清算の結了等,,,2015-10-05,1,,,,,チクシノレイキ,0
2005,7410002000512,登記記録の閉鎖等,0,2021-11-11,2021-11-09,有限会社秋田ブラインドサービス,,有限会社,秋田県,秋田市,山王中島町１７番４号,,05,201,0100955,,,2021-11-09,清算の結了等,,,2015-10-05,1,,,,,アキタブラインドサービス,0
2006,7410002010858,登記記録の閉鎖等,0,2021-11-11,2021-11-09,秋田テイケイ有限会社,,有限会社,秋田県,能代市,二ツ井町字比井野３９番地,,05,202,0183155,,,2021-11-09,清算の結了等,,,2015-10-05,1,,,,,アキタテイケイ,0
2013,7450001000922,登記記録の閉鎖等,0,2021-11-11,2021-11-04,北村林業株式会社,,株式会社,北海道,旭川市,六条西５丁目１番７号,,01,204,0700056,,,2021-11-04,清算の結了等,,,2015-10-05,1,,,,,キタムラリンギョウ,0
2022,8010001091765,登記記録の閉鎖等,0,2021-11-11,2021-11-08,東京帝神株式会社,,株式会社,東京都,千代田区,神田佐久間町２丁目１番地,,13,101,1010025,,,2021-11-08,合併による解散等,2140001110930,令和３年１１月１日兵庫県加古川市志方町志方町４４５番地帝神志方ミート株式会社（2140001110930）に合併し解散,2015-10-05,1,,,,,トウキョウテイシン,0
2039,8010003026356,登記記録の閉鎖等,0,2021-11-11,2021-11-05,合同会社開発５１号,,合同会社,東京都,千代田区,一番町９番地８ノザワビルディング６階税理士法人シリウス内,,13,101,1020082,,,2021-11-05,清算の結了等,,,2017-11-02,1,,,,,カイハツゴジュウイチゴウ,0
2054,8010405003317,登記記録の閉鎖等,0,2021-11-11,2021-10-29,フレートネット事業協同組合,,その他の設立登記法人,東京都,港区,芝浦１丁目３番３号,,13,103,1050023,,,2021-10-29,清算の結了等,,,2015-10-05,1,,,,,フレートネット,0
2066,8010602032135,登記記録の閉鎖等,0,2021-11-11,2021-11-02,有限会社デルファイナス,,有限会社,東京都,江東区,大島２丁目１６番１０号,,13,108,1360072,,,2021-11-02,清算の結了等,,,2015-10-05,1,,,,,デルファイナス,0
2092,8011501004258,登記記録の閉鎖等,0,2021-11-11,2021-11-08,北新建設株式会社,,株式会社,東京都,北区,志茂１丁目３０番５号,,13,117,1150042,,,2021-11-08,清算の結了等,,,2015-10-05,1,,,,,ホクシンケンセツ,0
2112,8012802000540,登記記録の閉鎖等,0,2021-11-11,2021-11-08,有限会社オリエンタルフーズ,,有限会社,東京都,立川市,一番町３丁目３４番地の１０,,13,202,1900033,,,2021-11-08,清算の結了等,,,2015-10-05,1,,,,,,0
2130,8021001022453,登記記録の閉鎖等,0,2021-11-11,2021-11-08,兼武樹脂工業株式会社,,株式会社,神奈川県,秦野市,寿町８番３５号,,14,211,2570042,,,2021-11-08,清算の結了等,,,2015-10-05,1,,,,,カネタケジュシコウギョウ,0
2131,8021001041239,登記記録の閉鎖等,0,2021-11-11,2021-11-08,株式会社山崎設備,00012617,株式会社,神奈川県,横須賀市,上町３丁目１２番地,,14,201,2380017,,,2021-11-08,清算の結了等,,,2015-10-05,1,,,,,,0
2164,8040002026701,登記記録の閉鎖等,0,2021-11-11,2021-11-02,有限会社早乙女土建,,有限会社,千葉県,船橋市,二和西２丁目４番３４号,,12,204,2740806,,,2021-11-02,清算の結了等,,,2015-10-05,1,,,,,サオトメドケン,0
2171,8070002023670,登記記録の閉鎖等,0,2021-11-11,2021-11-09,有限会社深桐商事,,有限会社,群馬県,桐生市,川内町２丁目６９３番地,,10,203,3760041,,,2021-11-09,清算の結了等,,,2015-10-05,1,,,,,,0
2174,8080401023601,登記記録の閉鎖等,0,2021-11-11,2021-11-08,株式会社トリニティ,,株式会社,静岡県,浜松市東区,神立町５８４番地の５,,22,132,4300801,,,2021-11-08,清算の結了等,,,2019-05-10,1,,,,,トリニティ,0
2178,8100002023972,登記記録の閉鎖等,0,2021-11-11,2021-11-09,有限会社二木工務店,,有限会社,長野県,安曇野市,豊科４９８３番地１８,,20,220,3998205,,,2021-11-09,清算の結了等,,,2015-10-05,1,,,,,フタツギコウムテン,0
2193,8120002018500,登記記録の閉鎖等,0,2021-11-11,2021-11-08,有限会社岡崎工芸,,有限会社,大阪府,大阪市福島区,海老江８丁目２番２１号,,27,103,5530001,,,2021-11-08,清算の結了等,,,2015-10-05,1,,,,,オカザキコウゲイ,0
2207,8130002019621,登記記録の閉鎖等,0,2021-11-11,2021-11-09,有限会社ピース,,有限会社,京都府,京都市伏見区,住吉町４２５番地５,,26,109,6128314,,,2021-11-09,清算の結了等,,,2015-10-05,1,,,,,,0
2227,8180001138269,登記記録の閉鎖等,0,2021-11-11,2021-11-05,株式会社ＬＩＭＵ　Ｃｏ．，Ｌｔｄ．,,株式会社,愛知県,津島市,唐臼町大島８番地２,,23,208,4960026,,,2021-11-05,清算の結了等,,,2019-10-02,1,,,,,リムシーオードットエルティーディー,0
2238,8190005009746,登記記録の閉鎖等,0,2021-11-11,2021-11-09,特定非営利活動法人ＭＡＹＯ,,その他の設立登記法人,三重県,伊勢市,神社港字三軒屋３０６番地１,,24,203,5160004,,,2021-11-09,清算の結了等,,,2015-10-05,1,,,,,マーヨ,0
2241,8200001038994,登記記録の閉鎖等,0,2021-11-11,2021-11-09,丸ツ柘植産業株式会社,,株式会社,岐阜県,恵那市,中野方町５９８番地の１,,21,210,5098231,,,2021-11-09,清算の結了等,,,2021-08-10,1,,,,,マルツツゲサンギョウ,0
2247,8230002011205,登記記録の閉鎖等,0,2021-11-11,2021-11-02,有限会社伸栄自動車工業,,有限会社,富山県,高岡市,六家８０６番地,,16,202,9330321,,,2021-11-02,清算の結了等,,,2015-10-05,1,,,,,シンエイジドウシャコウギョウ,0
2262,8290001065700,登記記録の閉鎖等,0,2021-11-11,2021-10-28,株式会社古賀ホーム企画,,株式会社,福岡県,古賀市,日吉３丁目３２番３２号,,40,223,8113106,,,2021-10-28,清算の結了等,,,2015-10-05,1,,,,,コガホームキカク,0
2264,8290801020417,登記記録の閉鎖等,0,2021-11-11,2021-11-02,株式会社クリエータープラス福岡,,株式会社,福岡県,北九州市門司区,永黒２丁目２番１８号,,40,101,8000017,,,2021-11-02,清算の結了等,,,2015-10-05,1,,,,,クリエータープラスフクオカ,0
2271,8330005000806,登記記録の閉鎖等,0,2021-11-11,2021-11-08,赤帽熊本県軽自動車運送協同組合,,その他の設立登記法人,熊本県,熊本市南区,流通団地１丁目３１番,,43,104,8620967,,,2021-11-08,清算の結了等,,,2015-10-05,1,,,,,,0
2275,8370001007537,登記記録の閉鎖等,0,2021-11-11,2021-11-01,柿沼電気株式会社,,株式会社,宮城県,仙台市青葉区,小田原４丁目１番２１号,,04,101,9800003,,,2021-11-01,清算の結了等,,,2015-10-05,1,,,,,カキヌマデンキ,0
2280,8380001028862,登記記録の閉鎖等,0,2021-11-11,2021-11-05,株式会社ＳＥＴＳＵＧＯＯＤ,,株式会社,東京都,国分寺市,東恋ヶ窪４丁目２４番７－５０６号,,13,214,1850014,,,2021-11-05,清算の結了等,,,2018-02-19,1,,,,,セツグッド,0
2287,8430001045159,登記記録の閉鎖等,0,2021-11-11,2021-11-05,株式会社ディージェーワールド,,株式会社,北海道,札幌市白石区,平和通１５丁目北１番２１号,,01,104,0030029,,,2021-11-05,合併による解散等,9011501013415,令和３年１０月１日東京都港区芝浦一丁目１２番３号株式会社デジタルソリューション（9011501013415）に合併し解散,2015-10-05,1,,,,,ディージェーワールド,0
2296,8430005001876,登記記録の閉鎖等,0,2021-11-11,2021-11-04,医療法人社団たむら小児科医院,,その他の設立登記法人,北海道,札幌市厚別区,大谷地東４丁目１番２号,,01,108,0040041,,,2021-11-04,清算の結了等,,,2015-10-05,1,,,,,タムラショウニカイイン,0
2311,9010001140884,登記記録の閉鎖等,0,2021-11-11,2021-11-09,株式会社ザイマックスアルファ,,株式会社,東京都,中央区,築地１丁目１３番１０号,,13,102,1040045,,,2021-11-09,合併による解散等,2010401072742,令和３年１１月１日東京都港区赤坂一丁目１番１号株式会社ザイマックス（2010401072742）に合併し解散,2015-10-05,1,,,,,,0
2318,9010005014589,登記記録の閉鎖等,0,2021-11-11,2021-11-08,ＫＳビルディングインベストメント一般社団法人,,その他の設立登記法人,東京都,千代田区,内神田２丁目２番６号５階あすな会計事務所内,,13,101,1010047,,,2021-11-08,清算の結了等,,,2015-10-05,1,,,,,ケイエスビルディングインベストメント,0
2319,9010005027665,登記記録の閉鎖等,0,2021-11-11,2021-11-05,一般社団法人開発５１号,,その他の設立登記法人,東京都,千代田区,一番町９番地８ノザワビルディング６階税理士法人シリウス内,,13,101,1020082,,,2021-11-05,清算の結了等,,,2017-10-31,1,,,,,カイハツゴジュウイチゴウ,0
2320,9010101007356,登記記録の閉鎖等,0,2021-11-11,2021-11-10,株式会社ティ・エム・クリエイション,,株式会社,東京都,八王子市,平町２８３番地１,,13,201,1920022,,,2021-11-10,清算の結了等,,,2015-10-05,1,,,,,,0
2363,9011602023759,登記記録の閉鎖等,0,2021-11-11,2021-11-08,鶴岡発条有限会社,,有限会社,東京都,練馬区,中村北１丁目１１番６－１３０７,,13,120,1760023,,,2021-11-08,清算の結了等,,,2015-10-05,1,,,,,ツルオカハツジョウ,0
2369,9012401024312,登記記録の閉鎖等,0,2021-11-11,2021-11-08,株式会社小金井音楽アカデミー,,株式会社,東京都,小金井市,貫井南町４丁目１３番３８号,,13,210,1840014,,,2021-11-08,清算の結了等,,,2015-10-05,1,,,,,コガネイオンガクアカデミー,0
2373,9013202003208,登記記録の閉鎖等,0,2021-11-11,2021-10-27,有限会社篠塚工業所,00053516,有限会社,東京都,目黒区,中根２丁目４番１２号,,13,110,1520031,,,2021-10-27,清算の結了等,,,2015-10-05,1,,,,,シノヅカコウギョウショ,0
2387,9020002025464,登記記録の閉鎖等,0,2021-11-11,2021-11-08,有限会社アルペンダイヤモンド工業,,有限会社,神奈川県,横浜市神奈川区,松見町２丁目６２０番地の１,,14,102,2210005,,,2021-11-08,清算の結了等,,,2015-10-05,1,,,,,アルペンダイヤモンドコウギョウ,0
2390,9020005014217,登記記録の閉鎖等,0,2021-11-11,2021-11-08,一般社団法人横浜税務承継協会,,その他の設立登記法人,神奈川県,横浜市中区,山下町１番地シルクセンターＭ２階,,14,104,2310023,,,2021-11-08,清算の結了等,,,2019-07-01,1,,,,,ヨコハマゼイムショウケイキョウカイ,0
2395,9021001030240,登記記録の閉鎖等,0,2021-11-11,2021-11-08,株式会社エム・ティ・アイ,,株式会社,神奈川県,座間市,東原４丁目１７番９号,,14,216,2520004,,,2021-11-08,清算の結了等,,,2015-10-05,1,,,,,エムティアイ,0
2409,9030002081300,登記記録の閉鎖等,0,2021-11-11,2021-10-28,有限会社クラハヤシ,,有限会社,埼玉県,本庄市,児玉町金屋５０８番地,,11,211,3670216,,,2021-10-28,清算の結了等,,,2015-10-05,1,,,,,クラハヤシ,0
2411,9040001034662,登記記録の閉鎖等,0,2021-11-11,2021-11-02,株式会社イメージプランニング,,株式会社,千葉県,市川市,塩焼２丁目３番５号,,12,203,2720114,,,2021-11-02,清算の結了等,,,2015-10-05,1,,,,,イメージプランニング,0
2430,9060002027127,登記記録の閉鎖等,0,2021-11-11,2021-11-02,有限会社豊田自動車修理工場,,有限会社,栃木県,矢板市,富田４４８番地３,,09,211,3292145,,,2021-11-02,清算の結了等,,,2015-10-05,1,,,,,トヨタジドウシャシュウリコウジョウ,0
2448,9090002003190,登記記録の閉鎖等,0,2021-11-11,2021-11-08,有限会社山梨電制,,有限会社,山梨県,甲府市,小曲町１２９３番地,,19,201,4000841,,,2021-11-08,清算の結了等,,,2015-10-05,1,,,,,ヤマナシデンセイ,0
2455,9120001086456,登記記録の閉鎖等,0,2021-11-11,2021-11-05,西川ロジテック株式会社,,株式会社,大阪府,大阪市中央区,本町１丁目３番１５号,,27,128,5410053,,,2021-11-05,清算の結了等,,,2015-10-05,1,,,,,ニシカワロジテック,0
2472,9120101044909,登記記録の閉鎖等,0,2021-11-11,2021-11-08,丸正建設株式会社,,株式会社,大阪府,泉南郡岬町,多奈川谷川１９０５番地の３８,,27,366,5990311,,,2021-11-08,清算の結了等,,,2015-10-05,1,,,,,マルショウケンセツ,0
2476,9130001055229,登記記録の閉鎖等,0,2021-11-11,2021-11-09,株式会社レモン＆ブルーグラス,,株式会社,京都府,京都市上京区,下ノ森通下立売上る鳳瑞町２５５番地,,26,102,6028357,,,2021-11-09,清算の結了等,,,2015-10-05,1,,,,,,0
2477,9130002011957,登記記録の閉鎖等,0,2021-11-11,2021-11-08,有限会社エパック,,有限会社,京都府,京都市山科区,西野山桜ノ馬場町２３７番地の３,,26,110,6078308,,,2021-11-08,清算の結了等,,,2015-10-05,1,,,,,エパック,0
2492,9140002069763,登記記録の閉鎖等,0,2021-11-11,2021-11-05,有限会社コンドウ,,有限会社,兵庫県,南あわじ市,潮美台１丁目７番地２,,28,224,6560521,,,2021-11-05,清算の結了等,,,2015-10-05,1,,,,,コンドウ,0
2494,9150001006634,登記記録の閉鎖等,0,2021-11-11,2021-11-01,株式会社中川天理薬局,,株式会社,奈良県,天理市,三島町５８４番地,,29,204,6320015,,,2021-11-01,清算の結了等,,,2015-10-05,1,,,,,ナカガワテンリヤッキョク,0
2496,9160001000883,登記記録の閉鎖等,0,2021-11-11,2021-11-09,柴田自動車工業株式会社,,株式会社,滋賀県,大津市,下阪本１丁目３７番１号,,25,201,5200105,,,2021-11-09,清算の結了等,,,2015-10-05,1,,,,,シバタジドウシャコウギョウ,0
2498,9170001005064,登記記録の閉鎖等,0,2021-11-11,2021-11-10,株式会社ウィンコーポレーション,,株式会社,和歌山県,和歌山市,十三番丁３９番地,,30,201,6408150,,,2021-11-10,清算の結了等,,,2015-10-05,1,,,,,ウインコーポレーション,0
2519,9210001010506,登記記録の閉鎖等,0,2021-11-11,2021-11-09,株式会社河瀬,,株式会社,福井県,敦賀市,相生町２１番１７号,,18,202,9140062,,,2021-11-09,清算の結了等,,,2015-10-05,1,,,,,,0
2533,9250002016449,登記記録の閉鎖等,0,2021-11-11,2021-11-10,有限会社メディカルスター,,有限会社,山口県,下松市,瑞穂町４丁目１１番６号,,35,207,7440075,,,2021-11-10,清算の結了等,,,2015-10-05,1,,,,,メディカルスター,0
2538,9290002000977,登記記録の閉鎖等,0,2021-11-11,2021-11-05,ベスト食品有限会社,,有限会社,福岡県,福岡市西区,周船寺３丁目２４番６号,,40,135,8190373,,,2021-11-05,清算の結了等,,,2015-10-05,1,,,,,ベストショクヒン,0
2540,9290003006627,登記記録の閉鎖等,0,2021-11-11,2021-11-02,合同会社椿トラベル,,合同会社,福岡県,福岡市博多区,博多駅東１丁目１４番３４号,,40,132,8120013,,,2021-11-02,清算の結了等,,,2016-08-10,1,,,,,ツバキトラベル,0
2556,9330001005741,登記記録の閉鎖等,0,2021-11-11,2021-11-08,株式会社エルティ熊本,,株式会社,熊本県,熊本市南区,流通団地１丁目３１番地,,43,104,8620967,,,2021-11-08,清算の結了等,,,2015-10-05,1,,,,,エルティクマモト,0
2557,9330002023874,登記記録の閉鎖等,0,2021-11-11,2021-11-09,田中醤油有限会社,00097859,有限会社,熊本県,宇城市,松橋町松橋１０２１番地,,43,213,8690502,,,2021-11-09,清算の結了等,,,2015-10-05,1,,,,,タナカショウユ,0
2558,9330002030788,登記記録の閉鎖等,0,2021-11-11,2021-10-26,有限会社みらい薬局,,有限会社,熊本県,人吉市,駒井田町２１０番地１５,,43,203,8680006,,,2021-10-26,清算の結了等,,,2015-10-05,1,,,,,ミライヤッキョク,0
2571,9380002007872,登記記録の閉鎖等,0,2021-11-11,2021-11-09,有限会社イトウガラス,,有限会社,福島県,郡山市,八山田４丁目１３２番地,,07,203,9638052,,,2021-11-09,清算の結了等,,,2015-10-05,1,,,,,イトウガラス,0
