sequenceNumber,corporateNumber,process,correct,updateDate,changeDate,name,nameImageId,kind,prefectureName,cityName,streetNumber,addressImageId,prefectureCode,cityCode,postCode,addressOutside,addressOutsideImageId,closeDate,closeCause,successorCorporateNumber,changeCause,assignmentDate,latest,enName,enPrefectureName,enCityName,enAddressOutside,furigana,hihyoji
11,1010002003354,登記記録の閉鎖等,0,2021-08-30,2021-08-24,有限会社正好,,有限会社,東京都,文京区,関口１丁目２０番１０号住友不動産江戸川橋駅前ビル,,13,105,1120014,,,2021-08-24,清算の結了等,,,2015-10-05,1,,,,,セイコウ,0
15,1010401044610,登記記録の閉鎖等,0,2021-08-30,2021-08-12,株式会社ぐみアソシエイツ,,株式会社,東京都,港区,北青山２丁目１１番１０号,,13,103,1070061,,,2021-08-12,清算の結了等,,,2015-10-05,1,,,,,グミアソシエイツ,0
31,1010403024346,登記記録の閉鎖等,0,2021-08-30,2021-08-17,合同会社ＲＣプロジェクト,,合同会社,東京都,港区,元赤坂１丁目１番８号株式会社赤坂国際会計内,,13,103,1070051,,,2021-08-17,清算の結了等,,,2020-12-15,1,,,,,アールシープロジェクト,0
33,1010601058220,登記記録の閉鎖等,0,2021-08-30,2021-08-13,株式会社リリス,,株式会社,東京都,墨田区,墨田５丁目５番２号,,13,107,1310031,,,2021-08-13,清算の結了等,,,2020-10-26,1,,,,,リリス,0
54,1011102026798,登記記録の閉鎖等,0,2021-08-30,2021-08-17,有限会社フクオカ,,有限会社,東京都,新宿区,西新宿７丁目１番７号,,13,104,1600023,,,2021-08-17,清算の結了等,,,2015-10-05,1,,,,,,0
62,1011701015904,登記記録の閉鎖等,0,2021-08-30,2021-08-17,株式会社エフティシー,,株式会社,東京都,江戸川区,小松川４丁目７８番６号,,13,123,1320034,,,2021-08-17,清算の結了等,,,2015-10-05,1,,,,,エフティシー,0
72,1020001049463,登記記録の閉鎖等,0,2021-08-30,2021-08-25,リプロライフ株式会社,,株式会社,神奈川県,横浜市青葉区,荏田北１丁目５番地８メイプルコート江田２０６,,14,117,2250015,,,2021-08-25,清算の結了等,,,2015-10-05,1,,,,,リプロライフ,0
73,1020001101934,登記記録の閉鎖等,0,2021-08-30,2021-08-26,わかほけん株式会社,,株式会社,神奈川県,横浜市鶴見区,東寺尾５丁目１７番２２号,,14,101,2300077,,,2021-08-26,清算の結了等,,,2015-10-05,1,,,,,ワカホケン,0
84,1021002052679,登記記録の閉鎖等,0,2021-08-30,2021-08-23,有限会社中村電興,,有限会社,神奈川県,小田原市,蓮正寺７０７番地の６３,00013644,14,206,2500865,,,2021-08-23,清算の結了等,,,2015-10-05,1,,,,,,0
87,1030001043201,登記記録の閉鎖等,0,2021-08-30,2021-08-19,株式会社高野テクノサービス,00014885,株式会社,埼玉県,上尾市,大字平塚２３８１番地３,,11,219,3620011,,,2021-08-19,清算の結了等,,,2015-10-05,1,,,,,タカノテクノサービス,0
118,1060001032408,登記記録の閉鎖等,0,2021-08-30,2021-08-26,ＳＥＩ株式会社,,株式会社,栃木県,佐野市,栄町７番２号,,09,204,3270816,,,2021-08-26,合併による解散等,1020001002199,令和３年８月２０日横浜市緑区上山二丁目２７番１号竹中機器工業株式会社（1020001002199）に合併し解散,2020-03-13,1,,,,,エスイーアイ,0
119,1060002038791,登記記録の閉鎖等,0,2021-08-30,2021-08-24,有限会社オートカメヤマ,,有限会社,栃木県,佐野市,伊賀町６３７番地,,09,204,3270021,,,2021-08-24,清算の結了等,,,2015-10-05,1,,,,,オートカメヤマ,0
126,1090001014485,登記記録の閉鎖等,0,2021-08-30,2021-08-23,株式会社Ｋ＆Ｋ,,株式会社,山梨県,南アルプス市,下今諏訪３９８番地７,,19,208,4000212,,,2021-08-23,清算の結了等,,,2016-02-26,1,,,,,ケイアンドケイ,0
132,1120001104927,登記記録の閉鎖等,0,2021-08-30,2021-08-20,株式会社ホルム建設,,株式会社,大阪府,大阪市西区,北堀江３丁目１２番１１号,,27,106,5500014,,,2021-08-20,合併による解散等,6120001014980,令和３年８月２０日大阪市西区北堀江三丁目１２番１１号株式会社ＳＡＮＫＯＵ（6120001014980）に合併し解散,2015-10-05,1,,,,,ホルムケンセツ,0
144,1130001060822,登記記録の閉鎖等,0,2021-08-30,2021-08-26,株式会社ファーボ,,株式会社,京都府,宇治市,木幡内畑３４番地の６ユニ宇治マンション１棟２０５号,,26,204,6110002,,,2021-08-26,清算の結了等,,,2017-10-27,1,,,,,ファーボ,0
162,1160001021219,登記記録の閉鎖等,0,2021-08-30,2021-08-25,マリアージュ彦根ウェディング株式会社,,株式会社,滋賀県,彦根市,駅東町１９番地３,,25,202,5220010,,,2021-08-25,清算の結了等,,,2018-10-04,1,,,,,マリアージュヒコネウェディング,0
184,1220001017937,登記記録の閉鎖等,0,2021-08-30,2021-08-20,株式会社アペクシー,,株式会社,石川県,河北郡内灘町,字鶴ケ丘５丁目１番地５７,,17,365,9200271,,,2021-08-20,清算の結了等,,,2015-10-05,1,,,,,アペクシー,0
199,1290001083452,登記記録の閉鎖等,0,2021-08-30,2021-08-05,ベリーズホーム株式会社,,株式会社,福岡県,大野城市,筒井４丁目４番１７号,,40,219,8160931,,,2021-08-05,清算の結了等,,,2018-11-28,1,,,,,ベリーズホーム,0
207,1310001008241,登記記録の閉鎖等,0,2021-08-30,2021-08-26,株式会社長﨑清水,00114239,株式会社,長崎県,諫早市,青葉台２７番地,,42,204,8540068,,,2021-08-26,清算の結了等,,,2015-10-05,1,,,,,ナガサキシミズ,0
212,1330001021358,登記記録の閉鎖等,0,2021-08-30,2021-08-20,Ｔ．Ｕ．ｃｏｍｐａｎｙ株式会社,,株式会社,熊本県,熊本市南区,島町３丁目３番２０号グランディール壱番館１０５号,,43,104,8614133,,,2021-08-20,合併による解散等,1330001019328,令和３年８月１５日熊本県菊池郡大津町大字平川３９９６番地３ＴＹ物流株式会社（1330001019328）に合併し解散,2015-10-05,1,,,,,ティーユーカンパニー,0
238,1370001020570,登記記録の閉鎖等,0,2021-08-30,2021-08-19,株式会社レイソニックスジャパン,,株式会社,宮城県,仙台市若林区,六丁の目元町１４番２５号２Ｆ,,04,103,9840014,,,2021-08-19,清算の結了等,,,2015-10-05,1,,,,,レイソニックスジャパン,0
240,1370401000981,登記記録の閉鎖等,0,2021-08-30,2021-08-24,株式会社メディアクリエイト,,株式会社,宮城県,登米市,中田町石森字町８０番地２,,04,212,9870601,,,2021-08-24,清算の結了等,,,2015-10-05,1,,,,,メディアクリエイト,0
250,1430002000441,登記記録の閉鎖等,0,2021-08-30,2021-08-19,有限会社アールズセミナー,,有限会社,北海道,札幌市南区,川沿一条４丁目１０番３０号,,01,106,0050801,,,2021-08-19,清算の結了等,,,2015-10-05,1,,,,,アールズセミナー,0
257,1460002002633,登記記録の閉鎖等,0,2021-08-30,2021-08-24,有限会社日章建運,,有限会社,北海道,釧路市,星が浦南１丁目５番４０号,,01,206,0840913,,,2021-08-24,清算の結了等,,,2015-10-05,1,,,,,ニッショウケンウン,0
274,2010005024025,登記記録の閉鎖等,0,2021-08-30,2021-08-23,一般社団法人国際ロゴシスト協会,,その他の設立登記法人,山梨県,甲府市,里吉４丁目８番３５号,,19,201,4000822,,,2021-08-23,清算の結了等,,,2015-10-05,1,,,,,コクサイロゴシストキョウカイ,0
275,2010005027283,登記記録の閉鎖等,0,2021-08-30,2021-08-20,Ｌａｖｅｎｄｅｒ　Ｓｋｙ　Ｏｎｅ一般社団法人,,その他の設立登記法人,東京都,千代田区,丸の内３丁目１番１号東京共同会計事務所内,,13,101,1000005,,,2021-08-20,清算の結了等,,,2017-08-14,1,,,,,ラベンダースカイワン,0
292,2010501034064,登記記録の閉鎖等,0,2021-08-30,2021-08-25,株式会社二木野商会,,株式会社,東京都,台東区,上野６丁目１番６号,,13,106,1100005,,,2021-08-25,清算の結了等,,,2015-10-05,1,,,,,ニキノショウカイ,0
307,2011002018003,登記記録の閉鎖等,0,2021-08-30,2021-08-12,有限会社リラクセーションカンパニー,,有限会社,東京都,渋谷区,千駄ヶ谷４丁目２６番１２号,,13,113,1510051,,,2021-08-12,清算の結了等,,,2015-10-05,1,,,,,リラクセーションカンパニー,0
325,2011303003843,登記記録の閉鎖等,0,2021-08-30,2021-08-24,合同会社Ｋａｓｉｔｏ,,合同会社,東京都,杉並区,荻窪３丁目４５－２１,,13,115,1670051,,,2021-08-24,清算の結了等,,,2020-12-02,1,,,,,カシート,0
332,2012402000839,登記記録の閉鎖等,0,2021-08-30,2021-08-26,有限会社キャンドゥ,,有限会社,東京都,府中市,押立町１丁目１６番地の４,,13,206,1830012,,,2021-08-26,清算の結了等,,,2015-10-05,1,,,,,キャンドゥ,0
359,2030002122382,登記記録の閉鎖等,0,2021-08-30,2021-08-12,有限会社町田,,有限会社,埼玉県,秩父郡横瀬町,大字芦ケ久保６４０番地,00018135,11,361,3680071,,,2021-08-12,清算の結了等,,,2015-10-05,1,,,,,マチダ,0
373,2060001024164,登記記録の閉鎖等,0,2021-08-30,2021-08-18,株式会社栄伸,,株式会社,栃木県,鹿沼市,緑町１丁目３番４９号,,09,205,3220025,,,2021-08-18,清算の結了等,,,2015-10-05,1,,,,,エイシン,0
391,2120001000530,登記記録の閉鎖等,0,2021-08-30,2021-08-24,株式会社シーアンドデイ,,株式会社,大阪府,大阪市旭区,高殿５丁目１３番１０－１１３０号,,27,117,5350031,,,2021-08-24,清算の結了等,,,2015-10-05,1,,,,,シーアンドデイ,0
405,2120002056869,登記記録の閉鎖等,0,2021-08-30,2021-08-19,有限会社ディーエフジェイ,,有限会社,大阪府,大阪市阿倍野区,阿倍野筋１丁目１番６１号,,27,119,5450052,,,2021-08-19,清算の結了等,,,2015-10-05,1,,,,,,0
412,2130002006798,登記記録の閉鎖等,0,2021-08-30,2021-08-26,有限会社大島和裁研究所,,有限会社,京都府,京都市下京区,柳馬場通高辻下る吉文字町４４２番地,00037037,26,106,6008069,,,2021-08-26,清算の結了等,,,2015-10-05,1,,,,,オオシマワサイケンキュウショ,0
434,2160005003410,登記記録の閉鎖等,0,2021-08-30,2021-08-25,木之本商店協同組合,,その他の設立登記法人,滋賀県,長浜市,木之本町木之本９４２番地の１,,25,203,5290425,,,2021-08-25,清算の結了等,,,2015-10-05,1,,,,,キノモトショウテン,0
438,2180001055081,登記記録の閉鎖等,0,2021-08-30,2021-08-24,ノベルサイエンス株式会社,,株式会社,神奈川県,川崎市川崎区,砂子１丁目１０番２号,,14,131,2100006,,,2021-08-24,清算の結了等,,,2015-10-05,1,,,,,ノベルサイエンス,0
459,2240002040349,登記記録の閉鎖等,0,2021-08-30,2021-08-18,有限会社桒田住建,00001292,有限会社,広島県,福山市,沖野上町１丁目４番１４号,,34,207,7200825,,,2021-08-18,清算の結了等,,,2015-10-05,1,,,,,クワダジュウケン,0
464,2260002004723,登記記録の閉鎖等,0,2021-08-30,2021-08-26,有限会社ジオインプルーブ,,有限会社,岡山県,岡山市中区,雄町４２５番地１,,33,102,7038204,,,2021-08-26,清算の結了等,,,2015-10-05,1,,,,,ジオインプルーブ,0
467,2280001006108,登記記録の閉鎖等,0,2021-08-30,2021-08-27,株式会社サングローブ,,株式会社,島根県,松江市,玉湯町湯町１９９１番地３,,32,201,6990202,,,2021-08-27,清算の結了等,,,2015-10-05,1,,,,,サングローブ,0
498,2370201000462,登記記録の閉鎖等,0,2021-08-30,2021-08-20,宮城ふるさと酒造株式会社,,株式会社,宮城県,大崎市,古川馬寄字屋敷３番地２,,04,215,9896112,,,2021-08-20,清算の結了等,,,2015-10-05,1,,,,,,0
527,3010001166828,登記記録の閉鎖等,0,2021-08-30,2021-08-26,株式会社ＳＫＫ２,,株式会社,東京都,千代田区,内神田２丁目１５番４号,,13,101,1010047,,,2021-08-26,清算の結了等,,,2015-10-05,1,,,,,エスケーケーツー,0
528,3010001191090,登記記録の閉鎖等,0,2021-08-30,2021-08-23,株式会社ヘルスケアブリッジ,,株式会社,東京都,中央区,日本橋３丁目５番１３号,,13,102,1030027,,,2021-08-23,清算の結了等,,,2018-04-18,1,,,,,ヘルスケアブリッジ,0
542,3010401140176,登記記録の閉鎖等,0,2021-08-30,2021-08-19,株式会社ＲＩＮＤＥＬＬ,,株式会社,北海道,札幌市中央区,南一条西２丁目４番地１,,01,101,0600061,,,2021-08-19,清算の結了等,,,2018-08-15,1,,,,,リンデル,0
551,3010602008180,登記記録の閉鎖等,0,2021-08-30,2021-08-12,有限会社トヨス堂,,有限会社,東京都,江東区,辰巳１丁目９番５１－１０３号,,13,108,1350053,,,2021-08-12,清算の結了等,,,2015-10-05,1,,,,,トヨスドウ,0
552,3010605003625,登記記録の閉鎖等,0,2021-08-30,2021-08-12,特定非営利活動法人海外腎臓移植無料サポート協会,,その他の設立登記法人,東京都,江東区,北砂５丁目１９番１９号,,13,108,1360073,,,2021-08-12,清算の結了等,,,2018-11-06,1,,,,,カイガイジンゾウイショクムリョウサポートキョウカイ,0
558,3010805001577,登記記録の閉鎖等,0,2021-08-30,2021-08-20,特定非営利活動法人ＩＨＤ交流協会,,その他の設立登記法人,東京都,大田区,大森西２丁目７番１１号,,13,111,1430015,,,2021-08-20,清算の結了等,,,2015-10-05,1,,,,,アイエッチディコウリュウキョウカイ,0
591,3020002090464,登記記録の閉鎖等,0,2021-08-30,2021-08-23,有限会社プラン・ユー,,有限会社,神奈川県,川崎市高津区,上作延１４６番地１,,14,134,2130034,,,2021-08-23,清算の結了等,,,2015-10-05,1,,,,,プランユー,0
619,3040001072627,登記記録の閉鎖等,0,2021-08-30,2021-08-23,千葉物流株式会社,,株式会社,東京都,千代田区,神田須田町２丁目４番地,,13,101,1010041,,,2021-08-23,清算の結了等,,,2015-10-05,1,,,,,チバブツリュウ,0
622,3040002031078,登記記録の閉鎖等,0,2021-08-30,2021-08-19,有限会社東野,,有限会社,千葉県,船橋市,市場４丁目１番１棟２０１号,,12,204,2730001,,,2021-08-19,清算の結了等,,,2015-10-05,1,,,,,トウノ,0
638,3060002003397,登記記録の閉鎖等,0,2021-08-30,2021-08-23,有限会社黒川酒店,,有限会社,栃木県,宇都宮市,雀の宮４丁目４番８号,,09,201,3210132,,,2021-08-23,清算の結了等,,,2015-10-05,1,,,,,クロカワサケテン,0
639,3060002029120,登記記録の閉鎖等,0,2021-08-30,2021-08-24,有限会社ビューティー・イシザキ,,有限会社,栃木県,小山市,乙女３丁目１４番２２号,,09,208,3290214,,,2021-08-24,清算の結了等,,,2015-10-05,1,,,,,ビューティーイシザキ,0
648,3090005007005,登記記録の閉鎖等,0,2021-08-30,2021-08-23,一般社団法人日本言霊師協会,,その他の設立登記法人,山梨県,甲府市,里吉４丁目８番３５号,,19,201,4000822,,,2021-08-23,清算の結了等,,,2016-08-26,1,,,,,ニッポンゲンレイシキョウカイ,0
652,3100002005975,登記記録の閉鎖等,0,2021-08-30,2021-08-25,有限会社三恵測量建設,,有限会社,長野県,上水内郡信濃町,大字柏原３９０番地１,,20,583,3891305,,,2021-08-25,清算の結了等,,,2015-10-05,1,,,,,サンケイソクリョウケンセツ,0
654,3110002028728,登記記録の閉鎖等,0,2021-08-30,2021-08-25,有限会社ニューやまや,,有限会社,新潟県,長岡市,宮内２丁目７番２８号,,15,202,9401106,,,2021-08-25,清算の結了等,,,2015-10-05,1,,,,,ニューヤマヤ,0
670,3120002036688,登記記録の閉鎖等,0,2021-08-30,2021-08-24,有限会社泉州産業,,有限会社,大阪府,大阪市中央区,南船場２丁目１２番１号,,27,128,5420081,,,2021-08-24,清算の結了等,,,2015-10-05,1,,,,,センシュウサンギョウ,0
673,3120002079893,登記記録の閉鎖等,0,2021-08-30,2021-08-20,有限会社大熱エンジニアリング,,有限会社,大阪府,門真市,三ツ島４丁目２３番２号,,27,223,5710015,,,2021-08-20,清算の結了等,,,2015-10-05,1,,,,,ダイネツエンジニアリング,0
674,3120005020045,登記記録の閉鎖等,0,2021-08-30,2021-08-26,一般社団法人玄麒,,その他の設立登記法人,大阪府,大阪市北区,天神橋２丁目４番１５号,,27,127,5300041,,,2021-08-26,清算の結了等,,,2018-02-27,1,,,,,ゲンキ,0
679,3122001000385,登記記録の閉鎖等,0,2021-08-30,2021-08-27,株式会社アトムエンタープライズ,,株式会社,大阪府,東大阪市,加納５丁目２番８号,,27,227,5780901,,,2021-08-27,清算の結了等,,,2015-10-05,1,,,,,アトムエンタープライズ,0
696,3170001002455,登記記録の閉鎖等,0,2021-08-30,2021-08-27,南海ヂーゼル株式会社,,株式会社,和歌山県,和歌山市,秋月２２１番地,,30,201,6408322,,,2021-08-27,清算の結了等,,,2015-10-05,1,,,,,ナンカイヂーゼル,0
710,3180302004629,登記記録の閉鎖等,0,2021-08-30,2021-08-25,有限会社松本工業,,有限会社,愛知県,岡崎市,橋目町字大師６番地１,,23,202,4440908,,,2021-08-25,清算の結了等,,,2015-10-05,1,,,,,マツモトコウギョウ,0
712,3190001001661,登記記録の閉鎖等,0,2021-08-30,2021-08-27,株式会社グッドアット,,株式会社,三重県,津市,白塚町２７７６番地,,24,201,5140101,,,2021-08-27,清算の結了等,,,2015-10-05,1,,,,,,0
717,3200001016897,登記記録の閉鎖等,0,2021-08-30,2021-08-26,株式会社ＴＫプランニング,,株式会社,岐阜県,多治見市,大畑町６丁目２０番地,,21,204,5070818,,,2021-08-26,清算の結了等,,,2015-10-05,1,,,,,ティーケープランニング,0
725,3240001030093,登記記録の閉鎖等,0,2021-08-30,2021-08-20,株式会社インタートランスサービス,,株式会社,広島県,福山市,南本庄２丁目５番２８号,,34,207,7200077,,,2021-08-20,清算の結了等,,,2015-10-05,1,,,,,インタートランスサービス,0
727,3240002043961,登記記録の閉鎖等,0,2021-08-30,2021-08-19,有限会社福山ビル,,有限会社,広島県,福山市,駅家町大字万能倉１３３３番地の９,,34,207,7201131,,,2021-08-19,清算の結了等,,,2015-10-05,1,,,,,フクヤマビル,0
729,3250002013947,登記記録の閉鎖等,0,2021-08-30,2021-08-27,有限会社とうどうデンキ,,有限会社,山口県,長門市,油谷新別名１１１０番地の１,,35,211,7594503,,,2021-08-27,清算の結了等,,,2015-10-05,1,,,,,トウドウデンキ,0
737,3290002038528,登記記録の閉鎖等,0,2021-08-30,2021-08-06,朝日興産有限会社,,有限会社,福岡県,筑紫野市,大字筑紫９３８番地の２７,,40,217,8180025,,,2021-08-06,清算の結了等,,,2015-10-05,1,,,,,アサヒコウサン,0
756,3360005005674,登記記録の閉鎖等,0,2021-08-30,2021-08-16,一般社団法人宮古島しまづくり,,その他の設立登記法人,沖縄県,宮古島市,平良字西里７４４番地,,47,214,9060012,,,2021-08-16,清算の結了等,,,2017-09-21,1,,,,,ミヤコジマシマツクリ,0
759,3370201000420,登記記録の閉鎖等,0,2021-08-30,2021-08-20,ホンダオート販売株式会社,,株式会社,宮城県,大崎市,古川駅東１丁目５番１号,,04,215,9896115,,,2021-08-20,清算の結了等,,,2015-10-05,1,,,,,ホンダオートハンバイ,0
761,3370302000666,登記記録の閉鎖等,0,2021-08-30,2021-08-10,有限会社かめやま,,有限会社,宮城県,石巻市,貞山２丁目６番４号,,04,202,9860851,,,2021-08-10,清算の結了等,,,2015-10-05,1,,,,,カメヤマ,0
784,3460302004930,登記記録の閉鎖等,0,2021-08-30,2021-08-26,有限会社みなと食堂,,有限会社,北海道,斜里郡斜里町,本町３２番地４２,,01,545,0994113,,,2021-08-26,清算の結了等,,,2015-10-05,1,,,,,,0
794,4010001136920,登記記録の閉鎖等,0,2021-08-30,2021-08-25,株式会社メディカルネクスト,,株式会社,東京都,中央区,京橋２丁目６番１６号,,13,102,1040031,,,2021-08-25,清算の結了等,,,2015-10-05,1,,,,,メディカルネクスト,0
805,4010002049659,登記記録の閉鎖等,0,2021-08-30,2021-08-25,Ｉｍａｇｉｎｅ　Ｃｏｍｍｕｎｉｃａｔｉｏｎｓ　Ｊａｐａｎ有限会社,,有限会社,東京都,千代田区,霞が関３丁目２番６号東京倶楽部ビルディング１１階,,13,101,1000013,,,2021-08-25,清算の結了等,,,2015-10-05,1,,,,,イマジンコミュニケーションズジャパン,0
809,4010401086633,登記記録の閉鎖等,0,2021-08-30,2021-08-25,三興インターナショナル株式会社,,株式会社,東京都,世田谷区,上用賀４丁目２３番１１号,,13,112,1580098,,,2021-08-25,清算の結了等,,,2015-10-05,1,,,,,サンコウインターナショナル,0
819,4010502014641,登記記録の閉鎖等,0,2021-08-30,2021-08-25,有限会社ナカエ,,有限会社,東京都,台東区,台東４丁目７番８号,,13,106,1100016,,,2021-08-25,清算の結了等,,,2015-10-05,1,,,,,ナカエ,0
820,4010502018403,登記記録の閉鎖等,0,2021-08-30,2021-08-26,有限会社オーサワ,,有限会社,東京都,台東区,浅草２丁目３４番１０－１００２号,,13,106,1110032,,,2021-08-26,清算の結了等,,,2015-10-05,1,,,,,オーサワ,0
822,4010603004780,登記記録の閉鎖等,0,2021-08-30,2021-08-13,田中商店合資会社,,合資会社,東京都,江東区,亀戸５丁目３２番１８号,,13,108,1360071,,,2021-08-13,清算の結了等,,,2015-10-05,1,,,,,,0
827,4010901043654,登記記録の閉鎖等,0,2021-08-30,2021-08-24,株式会社バラク,,株式会社,東京都,世田谷区,瀬田４丁目１５番３６－４０８号,,13,112,1580095,,,2021-08-24,清算の結了等,,,2019-02-15,1,,,,,バラク,0
833,4011001098647,登記記録の閉鎖等,0,2021-08-30,2021-08-11,株式会社Ｕｎｉｍａｐ,,株式会社,東京都,渋谷区,渋谷２丁目１番５号,,13,113,1500002,,,2021-08-11,合併による解散等,4011001065110,令和３年７月２３日東京都渋谷区渋谷二丁目１番５号株式会社アカリク（4011001065110）に合併し解散,2015-10-05,1,,,,,ユニマップ,0
834,4011001133635,登記記録の閉鎖等,0,2021-08-30,2021-08-06,ＴＨＡＴ　ＪＡＰＡＮ株式会社,,株式会社,東京都,渋谷区,西原２丁目１２番７号,,13,113,1510066,,,2021-08-06,清算の結了等,,,2020-05-12,1,,,,,ザットジャパン,0
846,4011102021879,登記記録の閉鎖等,0,2021-08-30,2021-08-13,有限会社いなかやコリア,,有限会社,東京都,新宿区,百人町１丁目５番６号白萩ビル１階,,13,104,1690073,,,2021-08-13,清算の結了等,,,2015-10-05,1,,,,,,0
852,4011801033869,登記記録の閉鎖等,0,2021-08-30,2021-08-16,株式会社Ｃａｎ　Ｆｏｏｔ,,株式会社,東京都,渋谷区,神泉町１７番１５号,,13,113,1500045,,,2021-08-16,清算の結了等,,,2017-09-14,1,,,,,キャンフット,0
855,4012402004169,登記記録の閉鎖等,0,2021-08-30,2021-08-24,有限会社フタバ産業,,有限会社,東京都,国分寺市,本多４丁目１３番３号,,13,214,1850011,,,2021-08-24,清算の結了等,,,2015-10-05,1,,,,,フタバサンギョウ,0
869,4020002004233,登記記録の閉鎖等,0,2021-08-30,2021-08-25,有限会社光信金属,,有限会社,神奈川県,横浜市緑区,青砥町９９１番地３,,14,113,2260022,,,2021-08-25,清算の結了等,,,2015-10-05,1,,,,,コウシンキンゾク,0
871,4020003018380,登記記録の閉鎖等,0,2021-08-30,2021-08-25,合同会社ｏｎｌｙ　ｔｏｄａｙ,,合同会社,神奈川県,横浜市港南区,日野南４丁目３－６－６０５,,14,111,2340055,,,2021-08-25,清算の結了等,,,2020-08-21,1,,,,,オンリートゥデイ,0
890,4030002066421,登記記録の閉鎖等,0,2021-08-30,2021-08-19,有限会社タケエンジニアリング,,有限会社,埼玉県,朝霞市,本町２丁目１７番１９号,,11,227,3510011,,,2021-08-19,清算の結了等,,,2015-10-05,1,,,,,,0
908,4070001025705,登記記録の閉鎖等,0,2021-08-30,2021-08-26,株式会社アクセスコート,,株式会社,群馬県,前橋市,荻窪町２８５番地３,,10,201,3710001,,,2021-08-26,清算の結了等,,,2015-10-05,1,,,,,アクセスコート,0
912,4070001037931,登記記録の閉鎖等,0,2021-08-30,2021-08-26,株式会社Ｒｅｇａｌｏ設計,,株式会社,群馬県,高崎市,棟高町１８６８番地８０,,10,202,3703521,,,2021-08-26,清算の結了等,,,2021-04-20,1,,,,,レガロセッケイ,0
922,4090001015332,登記記録の閉鎖等,0,2021-08-30,2021-08-23,株式会社白川学館大学出版局,,株式会社,山梨県,甲府市,里吉４丁目８番３５号,,19,201,4000822,,,2021-08-23,清算の結了等,,,2017-11-09,1,,,,,シラカワガッカンダイガクシュッパンキョク,0
957,4130005007081,登記記録の閉鎖等,0,2021-08-30,2021-08-27,特定非営利活動法人地域活性推進機構,,その他の設立登記法人,京都府,宇治市,広野町成田１００番地１３４,,26,204,6110031,,,2021-08-27,清算の結了等,,,2015-10-05,1,,,,,チイキカッセイスイシンキコウ,0
976,4180302011392,登記記録の閉鎖等,0,2021-08-30,2021-08-24,有限会社ホーハンサービス,,有限会社,愛知県,豊橋市,牛川薬師町６７番地の２,,23,201,4400015,,,2021-08-24,合併による解散等,4180302009643,令和３年８月１８日愛知県豊橋市牛川薬師町６７番地株式会社豊販（4180302009643）に合併し解散,2015-10-05,1,,,,,ホーハンサービス,0
993,4240001006101,登記記録の閉鎖等,0,2021-08-30,2021-08-19,太平商事株式会社,,株式会社,広島県,広島市南区,大州４丁目５番２７号,,34,103,7320802,,,2021-08-19,清算の結了等,,,2015-10-05,1,,,,,タイヘイショウジ,0
999,4240002006182,登記記録の閉鎖等,0,2021-08-30,2021-08-20,有限会社コバヤシ製本,,有限会社,広島県,広島市西区,東観音町２８番１０号,,34,104,7330032,,,2021-08-20,清算の結了等,,,2015-10-05,1,,,,,コバヤシセイホン,0
1005,4260001015380,登記記録の閉鎖等,0,2021-08-30,2021-08-20,株式会社ヴェールグッド,,株式会社,岡山県,倉敷市,酒津２７１６番地１　２Ｆ,,33,202,7100801,,,2021-08-20,清算の結了等,,,2015-10-05,1,,,,,ヴェールグッド,0
1007,4260001023747,登記記録の閉鎖等,0,2021-08-30,2021-08-26,株式会社旬処うおらく,,株式会社,岡山県,岡山市北区,磨屋町９番３０号,,33,101,7000826,,,2021-08-26,清算の結了等,,,2015-10-05,1,,,,,シュンドコロウオラク,0
1019,4310005008268,登記記録の閉鎖等,0,2021-08-30,2021-08-25,一般社団法人フィランドコイン協会,,その他の設立登記法人,長崎県,平戸市,浦の町７５６番地１,,42,207,8595111,,,2021-08-25,清算の結了等,,,2019-01-30,1,,,,,フィランドコインキョウカイ,0
1035,4370302001275,登記記録の閉鎖等,0,2021-08-30,2021-08-18,有限会社伸和精工,,有限会社,宮城県,石巻市,鹿又字梅木屋敷１０４番地の５,,04,202,9861111,,,2021-08-18,清算の結了等,,,2015-10-05,1,,,,,シンワセイコウ,0
1046,4400001004138,登記記録の閉鎖等,0,2021-08-30,2021-08-26,渡辺建設株式会社,,株式会社,岩手県,八幡平市,大更第２７地割９２番地２３,,03,214,0287111,,,2021-08-26,清算の結了等,,,2015-10-05,1,,,,,ワタナベケンセツ,0
1074,5010005021325,登記記録の閉鎖等,0,2021-08-30,2021-08-18,医療法人社団木犀会,,その他の設立登記法人,東京都,文京区,本駒込１丁目１番２号,,13,105,1130021,,,2021-08-18,清算の結了等,,,2015-10-05,1,,,,,モクセイカイ,0
1084,5010502019664,登記記録の閉鎖等,0,2021-08-30,2021-08-27,有限会社コーラル,,有限会社,東京都,台東区,上野２丁目６番４号,,13,106,1100005,,,2021-08-27,清算の結了等,,,2015-10-05,1,,,,,コーラル,0
1095,5011001099917,登記記録の閉鎖等,0,2021-08-30,2021-08-11,株式会社Ｖ－ＤＲＥＡＭ,,株式会社,東京都,渋谷区,道玄坂１丁目１２番１号渋谷マークシティウェスト１９Ｆ,,13,113,1500043,,,2021-08-11,清算の結了等,,,2015-10-05,1,,,,,ブイドリーム,0
1099,5011001124674,登記記録の閉鎖等,0,2021-08-30,2021-08-25,リードパートナーズ株式会社,,株式会社,東京都,港区,新橋１丁目１８番２号,,13,103,1050004,,,2021-08-25,合併による解散等,8011001058366,令和３年８月１日東京都目黒区上目黒二丁目１番１号ライフワンズ株式会社（8011001058366）に合併し解散,2018-10-11,1,,,,,リードパートナーズ,0
1178,5070002001885,登記記録の閉鎖等,0,2021-08-30,2021-08-27,有限会社グリーンコスモ,,有限会社,群馬県,前橋市,小神明町３１５番地２,,10,201,3710134,,,2021-08-27,清算の結了等,,,2015-10-05,1,,,,,グリーンコスモ,0
1212,5130001037370,登記記録の閉鎖等,0,2021-08-30,2021-08-26,株式会社小崎新聞舗,,株式会社,京都府,木津川市,相楽大徳１６番地２,,26,214,6190222,,,2021-08-26,清算の結了等,,,2015-10-05,1,,,,,コザキシンブンホ,0
1216,5130002004584,登記記録の閉鎖等,0,2021-08-30,2021-08-23,有限会社Ｏ．Ａ．Ｋ,,有限会社,京都府,京都市右京区,山ノ内西裏町２０番地５,,26,108,6150071,,,2021-08-23,清算の結了等,,,2015-10-05,1,,,,,オーエーケー,0
1218,5130002020185,登記記録の閉鎖等,0,2021-08-30,2021-08-26,有限会社豊貴資,,有限会社,京都府,京都市中京区,新京極通三条下る桜之町４０６番地,,26,104,6048035,,,2021-08-26,清算の結了等,,,2015-10-05,1,,,,,ホウキシ,0
1220,5140001099369,登記記録の閉鎖等,0,2021-08-30,2021-08-26,一水化成株式会社,,株式会社,兵庫県,姫路市,南町６３番地,,28,201,6700912,,,2021-08-26,合併による解散等,8120001075303,令和３年８月１日大阪市西区江戸堀一丁目４番２７号プレジールビル一水化成株式会社（8120001075303）に合併し解散,2015-10-05,1,,,,,イッスイカセイ,0
1231,5180001129411,登記記録の閉鎖等,0,2021-08-30,2021-08-26,ＴＫＭコンサルティング株式会社,,株式会社,愛知県,長久手市,東狭間３１２,,23,238,4801123,,,2021-08-26,清算の結了等,,,2017-09-15,1,,,,,ティーケーエムコンサルティング,0
1246,5240001036460,登記記録の閉鎖等,0,2021-08-30,2021-08-20,大栄建設株式会社,,株式会社,広島県,安芸郡府中町,八幡３丁目８番２１号,,34,302,7350012,,,2021-08-20,清算の結了等,,,2015-10-05,1,,,,,ダイエイケンセツ,0
1250,5240002043217,登記記録の閉鎖等,0,2021-08-30,2021-08-19,有限会社ミキ福山,,有限会社,広島県,福山市,奈良津町１丁目２６番１０号,,34,207,7200022,,,2021-08-19,清算の結了等,,,2015-10-05,1,,,,,ミキフクヤマ,0
1265,5300001005946,登記記録の閉鎖等,0,2021-08-30,2021-08-11,山口建設株式会社,,株式会社,佐賀県,伊万里市,松島町４２３番地４２,,41,205,8480045,,,2021-08-11,清算の結了等,,,2015-10-05,1,,,,,ヤマグチケンセツ,0
1275,5400002004318,登記記録の閉鎖等,0,2021-08-30,2021-08-19,有限会社広田建設,,有限会社,岩手県,盛岡市,玉山区日戸字七手役２２番地２,,03,201,0200202,,,2021-08-19,清算の結了等,,,2020-11-13,1,,,,,ヒロタケンセツ,0
1286,5490001005993,登記記録の閉鎖等,0,2021-08-30,2021-08-26,株式会社おしょうファーム,,株式会社,高知県,高岡郡四万十町,宮内４５２番地,,39,412,7860086,,,2021-08-26,清算の結了等,,,2015-10-05,1,,,,,オショウファーム,0
1292,6010001043165,登記記録の閉鎖等,0,2021-08-30,2021-08-25,株式会社光栄電設,,株式会社,東京都,中央区,日本橋馬喰町２丁目６番１０号,,13,102,1030002,,,2021-08-25,清算の結了等,,,2015-10-05,1,,,,,コウエイデンセツ,0
1296,6010001092716,登記記録の閉鎖等,0,2021-08-30,2021-08-25,株式会社アプリ,,株式会社,東京都,中央区,新富１丁目７番６号,,13,102,1040041,,,2021-08-25,清算の結了等,,,2015-10-05,1,,,,,アプリ,0
1304,6010002002161,登記記録の閉鎖等,0,2021-08-30,2021-08-24,有限会社江建,,有限会社,東京都,文京区,向丘２丁目３８番２４号,,13,105,1130023,,,2021-08-24,清算の結了等,,,2015-10-05,1,,,,,コウケン,0
1305,6010002009248,登記記録の閉鎖等,0,2021-08-30,2021-08-17,有限会社紀尾井観光サービス,,有限会社,東京都,港区,虎ノ門４丁目１番２８号,,13,103,1050001,,,2021-08-17,合併による解散等,5010403025423,令和３年８月１７日東京都港区虎ノ門四丁目１番２８号Ｋｙｒｏｎ１合同会社（5010403025423）に合併し解散,2015-10-05,1,,,,,キオイカンコウサービス,0
1313,6010401006795,登記記録の閉鎖等,0,2021-08-30,2021-08-10,株式会社片岡彌商店,,株式会社,東京都,港区,芝浦２丁目１３番１１号,,13,103,1080023,,,2021-08-10,清算の結了等,,,2015-10-05,1,,,,,カタオカワタルショウテン,0
1315,6010401062211,登記記録の閉鎖等,0,2021-08-30,2021-08-16,株式会社麻布ハウス,,株式会社,東京都,港区,麻布十番１丁目５番９号,,13,103,1060045,,,2021-08-16,清算の結了等,,,2015-10-05,1,,,,,,0
1316,6010401073456,登記記録の閉鎖等,0,2021-08-30,2021-08-16,クリスオプティクス株式会社,,株式会社,東京都,港区,虎ノ門５丁目１３－１虎ノ門４０ＭＴビル７階,,13,103,1050001,,,2021-08-16,清算の結了等,,,2015-10-05,1,,,,,クリスオプティクス,0
1326,6010401140693,登記記録の閉鎖等,0,2021-08-30,2021-08-26,ＮＩＴＯテレコム株式会社,,株式会社,東京都,中央区,日本橋兜町１７－１日本橋ロイヤルプラザ６０７号室,,13,102,1030026,,,2021-08-26,清算の結了等,,,2018-09-07,1,,,,,ニトテレコム,0
1339,6010501020110,登記記録の閉鎖等,0,2021-08-30,2021-08-24,株式会社ウェブソリューション,,株式会社,東京都,台東区,上野１丁目１８番１１号,,13,106,1100005,,,2021-08-24,清算の結了等,,,2015-10-05,1,,,,,,0
1342,6010502011876,登記記録の閉鎖等,0,2021-08-30,2021-08-25,有限会社ヤン,,有限会社,東京都,台東区,東上野５丁目１７番８号,,13,106,1100015,,,2021-08-25,清算の結了等,,,2015-10-05,1,,,,,ヤン,0
1349,6010802009372,登記記録の閉鎖等,0,2021-08-30,2021-08-19,有限会社司機工,,有限会社,東京都,大田区,東矢口３丁目１１番２３号,,13,111,1460094,,,2021-08-19,清算の結了等,,,2015-10-05,1,,,,,ツカサキコウ,0
1355,6011001012556,登記記録の閉鎖等,0,2021-08-30,2021-08-13,株式会社セフテイ,,株式会社,東京都,目黒区,碑文谷３丁目１９番８号ＮＣビル７階,,13,110,1520003,,,2021-08-13,清算の結了等,,,2015-10-05,1,,,,,セフテイ,0
1374,6011702009413,登記記録の閉鎖等,0,2021-08-30,2021-08-24,有限会社ハリモト,,有限会社,東京都,江戸川区,清新町１丁目１番３１－４０４号,,13,123,1340087,,,2021-08-24,清算の結了等,,,2015-10-05,1,,,,,ハリモト,0
1398,6021002025341,登記記録の閉鎖等,0,2021-08-30,2021-08-24,有限会社吉原建設工業,,有限会社,神奈川県,相模原市中央区,上矢部１丁目１４番２１号,,14,152,2520201,,,2021-08-24,清算の結了等,,,2015-10-05,1,,,,,ヨシハラケンセツコウギョウ,0
1400,6030001013216,登記記録の閉鎖等,0,2021-08-30,2021-08-19,株式会社渡辺タイル,,株式会社,埼玉県,さいたま市緑区,宮本１丁目２番地２１,,11,109,3360916,,,2021-08-19,清算の結了等,,,2015-10-05,1,,,,,ワタナベタイル,0
1406,6030002051537,登記記録の閉鎖等,0,2021-08-30,2021-08-19,有限会社大和技研,,有限会社,埼玉県,草加市,青柳１丁目４番２号,,11,221,3400002,,,2021-08-19,清算の結了等,,,2015-10-05,1,,,,,ダイワギケン,0
1407,6030002076848,登記記録の閉鎖等,0,2021-08-30,2021-08-17,有限会社朝霞工芸社,,有限会社,埼玉県,入間郡三芳町,大字上富４２１番地２６,,11,324,3540045,,,2021-08-17,清算の結了等,,,2015-10-05,1,,,,,アサカコウゲイシャ,0
1418,6040002051602,登記記録の閉鎖等,0,2021-08-30,2021-08-20,有限会社鹿町工業エンジニアリング,,有限会社,千葉県,流山市,大字東深井４８１番地の５,,12,220,2700101,,,2021-08-20,清算の結了等,,,2015-10-05,1,,,,,,0
1421,6060001003255,登記記録の閉鎖等,0,2021-08-30,2021-08-11,株式会社トリオ北関東販売,,株式会社,栃木県,宇都宮市,西の宮２丁目１６番１３号,,09,201,3200064,,,2021-08-11,清算の結了等,,,2015-10-05,1,,,,,トリオキタカントウハンバイ,0
1443,6120101029409,登記記録の閉鎖等,0,2021-08-30,2021-08-26,株式会社ケーオー建資,,株式会社,大阪府,高石市,羽衣２丁目２番２１－１２３号,,27,225,5920002,,,2021-08-26,清算の結了等,,,2015-10-05,1,,,,,ケーオーケンシ,0
1454,6140001039217,登記記録の閉鎖等,0,2021-08-30,2021-08-26,山崎木材株式会社,,株式会社,兵庫県,宍粟市,山崎町須賀澤８０９番地の１,,28,227,6712500,,,2021-08-26,清算の結了等,,,2015-10-05,1,,,,,ヤマサキモクザイ,0
1466,6180001014315,登記記録の閉鎖等,0,2021-08-30,2021-08-25,株式会社菊屋,,株式会社,愛知県,名古屋市南区,堤町１丁目１６番地,,23,112,4570844,,,2021-08-25,清算の結了等,,,2015-10-05,1,,,,,キクヤ,0
1481,6190002022373,登記記録の閉鎖等,0,2021-08-30,2021-08-26,有限会社メンズショップ一番舘,,有限会社,三重県,四日市市,諏訪栄町２番１１号,,24,202,5100086,,,2021-08-26,清算の結了等,,,2015-10-05,1,,,,,メンズショップイチバンカン,0
1490,6220002014292,登記記録の閉鎖等,0,2021-08-30,2021-08-06,七浜工業有限会社,,有限会社,石川県,七尾市,伊久留町七字１番地先,,17,202,9292114,,,2021-08-06,清算の結了等,,,2015-10-05,1,,,,,ナナハマコウギョウ,0
1491,6230001009557,登記記録の閉鎖等,0,2021-08-30,2021-08-23,株式会社野村産業,,株式会社,富山県,砺波市,千代９３番地４,,16,208,9391351,,,2021-08-23,清算の結了等,,,2015-10-05,1,,,,,ノムラサンギョウ,0
1506,6280002006433,登記記録の閉鎖等,0,2021-08-30,2021-08-25,有限会社フクシマ建設,,有限会社,島根県,出雲市,斐川町直江４７９１番地１,,32,203,6990631,,,2021-08-25,清算の結了等,,,2015-10-05,1,,,,,フクシマケンセツ,0
1515,6310001008336,登記記録の閉鎖等,0,2021-08-30,2021-08-26,株式会社長崎清水２１,,株式会社,長崎県,諫早市,青葉台２７番地,,42,204,8540068,,,2021-08-26,清算の結了等,,,2015-10-05,1,,,,,ナガサキシミズニジュウイチ,0
1518,6320002011676,登記記録の閉鎖等,0,2021-08-30,2021-08-27,有限会社設計動,,有限会社,大分県,別府市,石垣東６丁目７番１７号,,44,202,8740919,,,2021-08-27,清算の結了等,,,2015-10-05,1,,,,,セッケイドウ,0
1524,6340001017870,登記記録の閉鎖等,0,2021-08-30,2021-08-25,株式会社南九州革真塾,,株式会社,鹿児島県,志布志市,志布志町帖６５９２番地,,46,221,8997102,,,2021-08-25,清算の結了等,,,2015-10-05,1,,,,,ミナミキュウシュウカクシンジュク,0
1536,6430001027506,登記記録の閉鎖等,0,2021-08-30,2021-08-19,株式会社サンティー,,株式会社,北海道,札幌市中央区,南五条西１０丁目１２８６番地２,,01,101,0640805,,,2021-08-19,清算の結了等,,,2021-03-17,1,,,,,サンティー,0
1538,6430001051737,登記記録の閉鎖等,0,2021-08-30,2021-08-20,株式会社酒谷組,,株式会社,北海道,磯谷郡蘭越町,港町５４７番地,,01,394,0481341,,,2021-08-20,清算の結了等,,,2015-10-05,1,,,,,サカヤグミ,0
1551,7010001107423,登記記録の閉鎖等,0,2021-08-30,2021-08-11,ハンズインターナショナル株式会社,,株式会社,東京都,渋谷区,渋谷３丁目１０番１４号,,13,113,1500002,,,2021-08-11,清算の結了等,,,2015-10-05,1,,,,,ハンズインターナショナル,0
1554,7010001166725,登記記録の閉鎖等,0,2021-08-30,2021-08-26,日本店舗開発株式会社,,株式会社,東京都,豊島区,北大塚１丁目９番１６－１０５号,,13,116,1700004,,,2021-08-26,清算の結了等,,,2015-10-05,1,,,,,ニホンテンポカイハツ,0
1577,7010403011413,登記記録の閉鎖等,0,2021-08-30,2021-08-26,合同会社トリプルステージ,,合同会社,神奈川県,横浜市神奈川区,三ツ沢上町７番８号ハイツジュネス２０３,,14,102,2210856,,,2021-08-26,清算の結了等,,,2015-10-05,1,,,,,トリプルステージ,0
1579,7010403020967,登記記録の閉鎖等,0,2021-08-30,2021-08-23,合同会社パーム,,合同会社,大阪府,大阪市中央区,今橋２丁目５番８号,,27,128,5410042,,,2021-08-23,清算の結了等,,,2019-07-01,1,,,,,パーム,0
1597,7011101086103,登記記録の閉鎖等,0,2021-08-30,2021-08-13,プレジデンス株式会社,,株式会社,東京都,新宿区,新宿４丁目３番１７号,,13,104,1600022,,,2021-08-13,清算の結了等,,,2018-11-29,1,,,,,プレジデンス,0
1615,7013301017804,登記記録の閉鎖等,0,2021-08-30,2021-08-23,ジャギアドットコム株式会社,,株式会社,東京都,豊島区,駒込１丁目１２番４号,,13,116,1700003,,,2021-08-23,清算の結了等,,,2015-10-05,1,,,,,ジャギアドットコム,0
1618,7020001062221,登記記録の閉鎖等,0,2021-08-30,2021-08-24,ディプロス株式会社,,株式会社,神奈川県,横浜市緑区,霧が丘６丁目２番地７,,14,113,2260016,,,2021-08-24,清算の結了等,,,2015-10-05,1,,,,,ディプロス,0
1637,7030001126090,登記記録の閉鎖等,0,2021-08-30,2021-08-16,ＡＰＥＸ株式会社,,株式会社,埼玉県,白岡市,野牛７６９番地１２,,11,246,3490211,,,2021-08-16,清算の結了等,,,2018-06-12,1,,,,,エイペックス,0
1643,7030002030556,登記記録の閉鎖等,0,2021-08-30,2021-08-19,日本輸入部品販売有限会社,,有限会社,埼玉県,所沢市,東所沢３丁目２０番地の２,,11,208,3590021,,,2021-08-19,清算の結了等,,,2015-10-05,1,,,,,ニホンユニュウブヒンハンバイ,0
1656,7060001018153,登記記録の閉鎖等,0,2021-08-30,2021-08-18,株式会社赤坂捺染,,株式会社,栃木県,足利市,今福町８５番地,,09,202,3260842,,,2021-08-18,清算の結了等,,,2015-10-05,1,,,,,,0
1662,7090001015081,登記記録の閉鎖等,0,2021-08-30,2021-08-23,ＤＣＰ株式会社,,株式会社,山梨県,甲府市,里吉４丁目８番３５号,,19,201,4000822,,,2021-08-23,清算の結了等,,,2017-04-21,1,,,,,ディーシーピー,0
1715,7180302021546,登記記録の閉鎖等,0,2021-08-30,2021-08-26,有限会社エス・シー豊田,,有限会社,愛知県,豊田市,御幸本町３丁目８３番地,,23,211,4730901,,,2021-08-26,清算の結了等,,,2015-10-05,1,,,,,エスシートヨタ,0
1721,7200001021357,登記記録の閉鎖等,0,2021-08-30,2021-08-24,株式会社エスオーディー,,株式会社,岐阜県,土岐市,泉町大富２１７番地の２,,21,212,5095132,,,2021-08-24,清算の結了等,,,2015-10-05,1,,,,,エスオーディー,0
1724,7230001008384,登記記録の閉鎖等,0,2021-08-30,2021-08-24,株式会社林建工,,株式会社,富山県,砺波市,頼成３５５番地,,16,208,9391431,,,2021-08-24,清算の結了等,,,2015-10-05,1,,,,,ハヤシケンコウ,0
1755,7360003010425,登記記録の閉鎖等,0,2021-08-30,2021-08-20,やんばるファーム合同会社,,合同会社,沖縄県,国頭郡今帰仁村,字天底４８１番地,,47,306,9050411,,,2021-08-20,清算の結了等,,,2020-07-20,1,,,,,ヤンバルファーム,0
1756,7370001000674,登記記録の閉鎖等,0,2021-08-30,2021-08-10,株式会社コープトラベル東北,,株式会社,宮城県,仙台市泉区,旭丘堤２丁目２２番２号,,04,105,9818004,,,2021-08-10,清算の結了等,,,2015-10-05,1,,,,,コープトラベルトウホク,0
1762,7390002007799,登記記録の閉鎖等,0,2021-08-30,2021-08-25,有限会社バナナエージェンシー,,有限会社,山形県,酒田市,駅東２丁目１６番地の１,,06,204,9980022,,,2021-08-25,清算の結了等,,,2015-10-05,1,,,,,バナナエージェンシー,0
1765,7420002010221,登記記録の閉鎖等,0,2021-08-30,2021-08-23,有限会社なんぶや,,有限会社,青森県,八戸市,大字河原木字神才２２番地２,,02,203,0391161,,,2021-08-23,清算の結了等,,,2015-10-05,1,,,,,ナンブヤ,0
1778,7500002019114,登記記録の閉鎖等,0,2021-08-30,2021-08-27,松本機工有限会社,,有限会社,愛媛県,今治市,別宮町７丁目２番３９号,,38,202,7940026,,,2021-08-27,清算の結了等,,,2015-10-05,1,,,,,マツモトキコウ,0
1801,8010103001548,登記記録の閉鎖等,0,2021-08-30,2021-08-25,グルメダ合同会社,,合同会社,東京都,八王子市,西寺方町７２４番地７,,13,201,1920153,,,2021-08-25,清算の結了等,,,2020-06-16,1,,,,,,0
1803,8010401095283,登記記録の閉鎖等,0,2021-08-30,2021-08-16,株式会社エイペックス・ビー,,株式会社,東京都,港区,芝公園２丁目９番１０号,,13,103,1050011,,,2021-08-16,清算の結了等,,,2015-10-05,1,,,,,,0
1804,8010401124109,登記記録の閉鎖等,0,2021-08-30,2021-08-16,ふるさとＰＲ株式会社,,株式会社,東京都,港区,赤坂３丁目１７番８号,,13,103,1070052,,,2021-08-16,清算の結了等,,,2016-04-12,1,,,,,フルサトピーアール,0
1821,8010902005914,登記記録の閉鎖等,0,2021-08-30,2021-08-24,有限会社小島工業所,,有限会社,東京都,世田谷区,祖師谷３丁目４番８号,,13,112,1570072,,,2021-08-24,清算の結了等,,,2015-10-05,1,,,,,コジマコウギョウショ,0
1837,8011003010754,登記記録の閉鎖等,0,2021-08-30,2021-08-23,合同会社貝田不動産,,合同会社,東京都,台東区,千束２丁目１３番３号メイボク細川ビル４０１,,13,106,1110031,,,2021-08-23,合併による解散等,8011003008872,令和３年８月２０日東京都台東区千束二丁目１３番３号メイボク細川ビル４０１合同会社ＫｅｙＢｏｗ（8011003008872）に合併し解散,2020-01-16,1,,,,,カイダフドウサン,0
1845,8011701008488,登記記録の閉鎖等,0,2021-08-30,2021-08-24,若潮運輸株式会社,,株式会社,東京都,江戸川区,清新町１丁目４番７－１９０４号,,13,123,1340087,,,2021-08-24,清算の結了等,,,2015-10-05,1,,,,,ワカシオウンユ,0
1853,8012402014635,登記記録の閉鎖等,0,2021-08-30,2021-08-26,有限会社レントカフェ,,有限会社,東京都,調布市,仙川町１丁目１８番地３１,,13,208,1820002,,,2021-08-26,清算の結了等,,,2015-10-05,1,,,,,レントカフェ,0
1855,8012701001458,登記記録の閉鎖等,0,2021-08-30,2021-08-26,伸和電気株式会社,,株式会社,東京都,東村山市,栄町２丁目１９番地３森田ビル１０１号,,13,213,1890013,,,2021-08-26,清算の結了等,,,2015-10-05,1,,,,,シンワデンキ,0
1856,8012702005383,登記記録の閉鎖等,0,2021-08-30,2021-08-26,有限会社葛岡工房バウハウス,,有限会社,東京都,西東京市,緑町１丁目２番４号,,13,229,1880002,,,2021-08-26,清算の結了等,,,2015-10-05,1,,,,,クズオカコウボウバウハウス,0
1859,8013101007483,登記記録の閉鎖等,0,2021-08-30,2021-08-27,株式会社盛徳広昭,,株式会社,東京都,あきる野市,二宮２２３５番地１４,,13,228,1970814,,,2021-08-27,清算の結了等,,,2016-12-02,1,,,,,,0
1865,8020001086038,登記記録の閉鎖等,0,2021-08-30,2021-08-13,株式会社Ｇｒａｖｉｔｙ　Ｆｉｌｍｓ,,株式会社,東京都,江東区,青海２丁目７番４号,,13,108,1350064,,,2021-08-13,清算の結了等,,,2015-10-05,1,,,,,,0
1879,8021002038622,登記記録の閉鎖等,0,2021-08-30,2021-08-23,有限会社ヴォーグ美容室,,有限会社,神奈川県,秦野市,鶴巻北１丁目５番１号,,14,211,2570001,,,2021-08-23,清算の結了等,,,2015-10-05,1,,,,,ヴォーグビヨウシツ,0
1892,8030002087868,登記記録の閉鎖等,0,2021-08-30,2021-08-17,有限会社フルヤ工業,,有限会社,埼玉県,越谷市,大字袋山２５７番地１０,,11,222,3430032,,,2021-08-17,清算の結了等,,,2015-10-05,1,,,,,フルヤコウギョウ,0
1894,8030002105621,登記記録の閉鎖等,0,2021-08-30,2021-08-19,有限会社中村製作所,,有限会社,埼玉県,川口市,大字芝６３０６番地,,11,203,3330866,,,2021-08-19,清算の結了等,,,2015-10-05,1,,,,,ナカムラセイサクショ,0
1916,8060001025867,登記記録の閉鎖等,0,2021-08-30,2021-08-20,株式会社英健企画,,株式会社,栃木県,宇都宮市,今宮３丁目１番１５号,,09,201,3210166,,,2021-08-20,清算の結了等,,,2015-10-05,1,,,,,エイケンキカク,0
1917,8060002007435,登記記録の閉鎖等,0,2021-08-30,2021-08-18,有限会社ハレルヤ食品,,有限会社,栃木県,宇都宮市,今宮１丁目２３番１０号,,09,201,3210166,,,2021-08-18,清算の結了等,,,2015-10-05,1,,,,,,0
1926,8090001012136,登記記録の閉鎖等,0,2021-08-30,2021-08-24,株式会社柳屋,,株式会社,山梨県,南巨摩郡富士川町,青柳町５０８番地,,19,368,4000501,,,2021-08-24,清算の結了等,,,2015-10-05,1,,,,,ヤナギヤ,0
1931,8110002029449,登記記録の閉鎖等,0,2021-08-30,2021-08-26,有限会社山田製作所,,有限会社,新潟県,長岡市,高畑町７７番地５,,15,202,9400825,,,2021-08-26,清算の結了等,,,2015-10-05,1,,,,,ヤマダセイサクショ,0
1944,8120002002693,登記記録の閉鎖等,0,2021-08-30,2021-08-04,有限会社ゼネラルリアルエステイト,,有限会社,大阪府,大阪市北区,堂島１丁目３番１１号,,27,127,5300003,,,2021-08-04,合併による解散等,3010001062829,令和３年７月２７日大阪市北区堂島一丁目３番１１号ワイズクレイン株式会社（3010001062829）に合併し解散,2015-10-05,1,,,,,ゼネラルリアルエステイト,0
1982,8180001136917,登記記録の閉鎖等,0,2021-08-30,2021-08-26,株式会社サイバーグリーン,,株式会社,愛知県,名古屋市中区,丸の内２丁目１７番１３号,,23,106,4600002,,,2021-08-26,清算の結了等,,,2019-06-07,1,,,,,サイバーグリーン,0
1987,8180005018252,登記記録の閉鎖等,0,2021-08-30,2021-08-26,一般社団法人日本子供歯科矯正学会,,その他の設立登記法人,愛知県,名古屋市熱田区,三本松町１３番１９号,,23,109,4560032,,,2021-08-26,清算の結了等,,,2019-05-08,1,,,,,ニホンコドモシカキョウセイガッカイ,0
2001,8240001036243,登記記録の閉鎖等,0,2021-08-30,2021-08-03,株式会社三浦第一ビル,,株式会社,広島県,安芸郡海田町,三迫１丁目５番２０号,,34,304,7360014,,,2021-08-03,合併による解散等,4240001036239,令和３年７月３１日広島県安芸郡海田町浜角３番１２号三浦産業株式会社（4240001036239）に合併し解散,2015-10-05,1,,,,,ミウラダイイチビル,0
2008,8260005005671,登記記録の閉鎖等,0,2021-08-30,2021-08-26,特定非営利活動法人ビビッド経ヶ丸,,その他の設立登記法人,岡山県,井原市,笹賀町２丁目２１番地５,,33,207,7150025,,,2021-08-26,清算の結了等,,,2015-10-05,1,,,,,ビビッドキョウガマル,0
2011,8290001007982,登記記録の閉鎖等,0,2021-08-30,2021-08-03,株式会社新宣組,,株式会社,福岡県,福岡市中央区,警固２丁目１６番６－２０１号,,40,133,8100023,,,2021-08-03,清算の結了等,,,2015-10-05,1,,,,,シンセングミ,0
2024,8330001008423,登記記録の閉鎖等,0,2021-08-30,2021-08-20,千翔株式会社,,株式会社,熊本県,菊池郡大津町,大字平川３９９６番地３,,43,403,8691231,,,2021-08-20,合併による解散等,1330001019328,令和３年８月１５日熊本県菊池郡大津町大字平川３９９６番地３ＴＹ物流株式会社（1330001019328）に合併し解散,2015-10-05,1,,,,,センショウ,0
2045,8380001008492,登記記録の閉鎖等,0,2021-08-30,2021-08-24,株式会社ウサミ電設,,株式会社,福島県,田村郡小野町,大字皮籠石字宮ノ前７１番地,,07,522,9633406,,,2021-08-24,清算の結了等,,,2015-10-05,1,,,,,ウサミデンセツ,0
2046,8380002028250,登記記録の閉鎖等,0,2021-08-30,2021-08-25,ファースト保険サービス株式会社,,株式会社,福島県,相馬市,中村字袋町８番地の３,,07,209,9760042,,,2021-08-25,清算の結了等,,,2015-10-05,1,,,,,ファーストホケンサービス,0
2059,8460301001288,登記記録の閉鎖等,0,2021-08-30,2021-08-27,株式会社６条ドライバー派遣システム,,株式会社,北海道,北見市,栄町４丁目８番地の２,,01,208,0900832,,,2021-08-27,清算の結了等,,,2015-10-05,1,,,,,ロクジョウドライバーハケンシステム,0
2071,9010001109467,登記記録の閉鎖等,0,2021-08-30,2021-08-24,株式会社高森商事,,株式会社,東京都,文京区,湯島３丁目３７番１３号,,13,105,1130034,,,2021-08-24,清算の結了等,,,2015-10-05,1,,,,,タカモリショウジ,0
2078,9010003034028,登記記録の閉鎖等,0,2021-08-30,2021-08-23,合同会社雫石ソーラー,,合同会社,東京都,中央区,八重洲２丁目７番２号,,13,102,1040028,,,2021-08-23,合併による解散等,2010403010972,令和３年８月２１日東京都中央区八重洲二丁目７番２号合同会社Ｄ２Ｋ雫石ソーラー（2010403010972）に合併し解散,2021-01-27,1,,,,,シズクイシソーラー,0
2090,9010401123761,登記記録の閉鎖等,0,2021-08-30,2021-08-20,国境の南株式会社,,株式会社,京都府,京都市上京区,大宮通丸太町上る一町目８４２番地,,26,102,6028134,,,2021-08-20,清算の結了等,,,2016-03-16,1,,,,,コッキョウノミナミ,0
2102,9010701039427,登記記録の閉鎖等,0,2021-08-30,2021-08-27,株式会社マキュリオ,,株式会社,東京都,品川区,旗の台２丁目１３番１６号２Ｆ,,13,109,1420064,,,2021-08-27,清算の結了等,,,2020-06-22,1,,,,,マキュリオ,0
2109,9010801028593,登記記録の閉鎖等,0,2021-08-30,2021-08-19,株式会社クラフトルーム,,株式会社,東京都,大田区,北千束３丁目２４番１４号,,13,111,1450062,,,2021-08-19,清算の結了等,,,2018-03-02,1,,,,,クラフトルーム,0
2110,9010901011978,登記記録の閉鎖等,0,2021-08-30,2021-08-25,明徳産業株式会社,00052682,株式会社,東京都,世田谷区,船橋１丁目３番８号,,13,112,1560055,,,2021-08-25,清算の結了等,,,2015-10-05,1,,,,,メイトクサンギョウ,0
2124,9011001072399,登記記録の閉鎖等,0,2021-08-30,2021-08-13,株式会社アッローラ,,株式会社,東京都,渋谷区,初台２丁目２７番５号,,13,113,1510061,,,2021-08-13,清算の結了等,,,2015-10-05,1,,,,,アッローラ,0
2130,9011001116370,登記記録の閉鎖等,0,2021-08-30,2021-08-16,株式会社Ｌａｎｔｅ,,株式会社,東京都,港区,新橋３丁目９番１０号天翔新橋ビル１０Ｆ,,13,103,1050004,,,2021-08-16,清算の結了等,,,2017-05-16,1,,,,,ランテ,0
2142,9011101036353,登記記録の閉鎖等,0,2021-08-30,2021-08-24,株式会社新栄企画,,株式会社,東京都,新宿区,歌舞伎町１丁目１番８号,,13,104,1600021,,,2021-08-24,合併による解散等,4011001041755,令和３年８月１日東京都渋谷区渋谷三丁目７番７号北青地所株式会社（4011001041755）に合併し解散,2015-10-05,1,,,,,シンエイキカク,0
2148,9011302014389,登記記録の閉鎖等,0,2021-08-30,2021-08-24,有限会社ダイセイシーオー,,有限会社,東京都,杉並区,上高井戸２丁目１２番１６号,,13,115,1680074,,,2021-08-24,清算の結了等,,,2015-10-05,1,,,,,ダイセイシーオー,0
2162,9012705001825,登記記録の閉鎖等,0,2021-08-30,2021-08-23,特定非営利活動法人お年寄りの食と健康と安全を見守るネット,,その他の設立登記法人,東京都,東久留米市,東本町５番２０号東久留米ガーデンハウス６０１号,,13,222,2030014,,,2021-08-23,清算の結了等,,,2015-10-05,1,,,,,オトシヨリノショクトケンコウトアンゼンヲミマモルネット,0
2177,9020002000335,登記記録の閉鎖等,0,2021-08-30,2021-08-25,有限会社佐久間板金工業所,,有限会社,神奈川県,横浜市栄区,上郷町１０５３番地３,,14,115,2470013,,,2021-08-25,清算の結了等,,,2015-10-05,1,,,,,サクマバンキンコウギョウショ,0
2205,9030002037137,登記記録の閉鎖等,0,2021-08-30,2021-08-17,有限会社ユニーク,,有限会社,埼玉県,所沢市,北所沢町２２２６番地,,11,208,3590046,,,2021-08-17,清算の結了等,,,2015-10-05,1,,,,,ユニーク,0
2217,9040001034704,登記記録の閉鎖等,0,2021-08-30,2021-08-20,青沼英語塾株式会社,,株式会社,千葉県,松戸市,松戸二丁目１８４７番地日暮ビル５Ｆ,,12,207,2710092,,,2021-08-20,清算の結了等,,,2015-10-05,1,,,,,アオヌマエイゴジュク,0
2232,9050001012196,登記記録の閉鎖等,0,2021-08-30,2021-08-11,株式会社石岡銀行,,株式会社,茨城県,石岡市,石岡７７３番地,,08,205,3150001,,,2021-08-11,清算の結了等,,,2017-06-15,1,,,,,,0
2236,9050002006172,登記記録の閉鎖等,0,2021-08-30,2021-08-26,有限会社メディカルサポートいのまた,,有限会社,茨城県,水戸市,平須町１８２８番地の４３４,,08,201,3100853,,,2021-08-26,清算の結了等,,,2015-10-05,1,,,,,メディカルサポートイノマタ,0
2237,9050002022368,登記記録の閉鎖等,0,2021-08-30,2021-08-25,有限会社美容室ジョイ,,有限会社,茨城県,つくば市,東新井２１番地の２０,,08,220,3050033,,,2021-08-25,清算の結了等,,,2015-10-05,1,,,,,ビヨウシツジョイ,0
2258,9090002014691,登記記録の閉鎖等,0,2021-08-30,2021-08-24,有限会社天野建築設計室,,有限会社,山梨県,北杜市,小淵沢町１００８２－２,,19,209,4080044,,,2021-08-24,清算の結了等,,,2015-10-05,1,,,,,アマノケンチクセッケイシツ,0
2259,9090003000600,登記記録の閉鎖等,0,2021-08-30,2021-08-23,合同会社ま・め・や,,合同会社,山梨県,南都留郡鳴沢村,１０４４３番地６０１,,19,429,4010320,,,2021-08-23,清算の結了等,,,2015-10-05,1,,,,,,0
2260,9090005007008,登記記録の閉鎖等,0,2021-08-30,2021-08-23,一般社団法人世界鎮魂協会,,その他の設立登記法人,山梨県,甲府市,里吉４丁目８番３５号,,19,201,4000822,,,2021-08-23,清算の結了等,,,2016-09-28,1,,,,,セカイチンコンキョウカイ,0
2265,9110001027023,登記記録の閉鎖等,0,2021-08-30,2021-08-23,株式会社ＥＥＲＩＳ,,株式会社,新潟県,魚沼市,中原８番地３,,15,225,9460024,,,2021-08-23,合併による解散等,3110001026336,令和３年８月１日新潟県南魚沼市津久野９４５番地２株式会社シャメル（3110001026336）に合併し解散,2015-10-05,1,,,,,イイリス,0
2288,9130001022063,登記記録の閉鎖等,0,2021-08-30,2021-08-26,日東染色株式会社,,株式会社,京都府,京都市中京区,壬生神明町１－２８０,,26,104,6048861,,,2021-08-26,清算の結了等,,,2015-10-05,1,,,,,ニットウセンショク,0
2294,9150003000932,登記記録の閉鎖等,0,2021-08-30,2021-08-25,合同会社ライフパートナー希望,,合同会社,奈良県,大和高田市,大字今里川合方９６番地２９,,29,202,6350032,,,2021-08-25,清算の結了等,,,2015-10-05,1,,,,,ライフパートナーキボウ,0
2299,9180002013750,登記記録の閉鎖等,0,2021-08-30,2021-08-25,有限会社三栄工業,,有限会社,愛知県,名古屋市南区,南野２丁目２１７番地,,23,112,4570068,,,2021-08-25,清算の結了等,,,2015-10-05,1,,,,,サンエイコウギョウ,0
2304,9180301033796,登記記録の閉鎖等,0,2021-08-30,2021-08-25,株式会社ディープブルー,,株式会社,愛知県,岡崎市,明大寺町字出口６０番地２,,23,202,4440869,,,2021-08-25,清算の結了等,,,2020-06-10,1,,,,,ディープブルー,0
2311,9240001021434,登記記録の閉鎖等,0,2021-08-30,2021-08-20,株式会社得,,株式会社,広島県,広島市中区,本川町２丁目１番３０号,,34,101,7300802,,,2021-08-20,清算の結了等,,,2015-10-05,1,,,,,トク,0
2314,9240001044690,登記記録の閉鎖等,0,2021-08-30,2021-08-18,株式会社ハートファーム,,株式会社,広島県,庄原市,東城町新免１４１６番地,,34,210,7295131,,,2021-08-18,清算の結了等,,,2015-10-05,1,,,,,ハートファーム,0
2319,9240002004017,登記記録の閉鎖等,0,2021-08-30,2021-08-19,有限会社かなめ,,有限会社,広島県,広島市安佐北区,可部３丁目６番６号,,34,106,7310221,,,2021-08-19,清算の結了等,,,2015-10-05,1,,,,,カナメ,0
2320,9240002016441,登記記録の閉鎖等,0,2021-08-30,2021-08-23,有限会社宮本計装,,有限会社,広島県,広島市西区,横川町１丁目４番３７号,,34,104,7330011,,,2021-08-23,清算の結了等,,,2015-10-05,1,,,,,ミヤモトケイソウ,0
2362,9370002003930,登記記録の閉鎖等,0,2021-08-30,2021-08-23,有限会社丸子架設,,有限会社,宮城県,岩沼市,桜１丁目４番１０号,,04,211,9892433,,,2021-08-23,清算の結了等,,,2015-10-05,1,,,,,マルコカセツ,0
2364,9380001023094,登記記録の閉鎖等,0,2021-08-30,2021-08-25,株式会社白岩製作所,,株式会社,福島県,田村市,常葉町山根字南倉８４番地,,07,211,9634601,,,2021-08-25,清算の結了等,,,2015-10-05,1,,,,,シライワセイサクショ,0
