sequenceNumber,corporateNumber,process,correct,updateDate,changeDate,name,nameImageId,kind,prefectureName,cityName,streetNumber,addressImageId,prefectureCode,cityCode,postCode,addressOutside,addressOutsideImageId,closeDate,closeCause,successorCorporateNumber,changeCause,assignmentDate,latest,enName,enPrefectureName,enCityName,enAddressOutside,furigana,hihyoji
6,1010001241946,新規,0,2024-02-01,2024-02-01,東成ファッションデザイン貿易株式会社,,株式会社,東京都,中央区,日本橋人形町３丁目３－５－６０５号室,,13,102,1030013,,,,,,,2024-02-01,1,,,,,トウセイファッションデザインボウエキ,0
7,1010001241979,新規,0,2024-02-01,2024-02-01,ジャズインベストメント株式会社,,株式会社,東京都,千代田区,霞が関３丁目６番１５号霞が関ＭＨタワーズ６Ｆ,,13,101,1000013,,,,,,,2024-02-01,1,,,,,ジャズインベストメント,0
10,1010003042806,新規,0,2024-02-01,2024-02-01,ｍｉ．ｔｏ．ｐｈａｒｍ　Ｊａｐａｎ合同会社,,合同会社,東京都,千代田区,内幸町２丁目２番２号富国生命ビル１３１１号室,,13,101,1000011,,,,,,,2024-02-01,1,,,,,ミトゥファーム,0
11,1010003042822,新規,0,2024-02-01,2024-02-01,Ｃｏｎｆｉｄｅｎｃｅ合同会社,,合同会社,東京都,中央区,晴海２丁目３番２－３８０２号,,13,102,1040053,,,,,,,2024-02-01,1,,,,,コンフィデンス,0
12,1010003042839,新規,0,2024-02-01,2024-02-01,カタメル合同会社,,合同会社,東京都,千代田区,神田和泉町１番地６－１６ヤマトビル４０５,,13,101,1010024,,,,,,,2024-02-01,1,,,,,カタメル,0
13,1010101015985,新規,0,2024-02-01,2024-02-01,株式会社ホープジョブ＆ビズマッチング,,株式会社,東京都,八王子市,明神町３丁目２０－５エイトビル３階,,13,201,1920046,,,,,,,2024-02-01,1,,,,,,0
27,1010403031870,新規,0,2024-02-01,2024-02-01,Ｍｅｒｃｕｒｉ　Ｕｒｖａｌ合同会社,,合同会社,東京都,港区,六本木１丁目１０番３号,,13,103,1060032,,,,,,,2024-02-01,1,,,,,メルキュリウーヴァル,0
43,1011001159674,新規,0,2024-02-01,2024-02-01,株式会社シャトーラパン,,株式会社,東京都,渋谷区,恵比寿４丁目２０番２－８０５号,,13,113,1500013,,,,,,,2024-02-01,1,,,,,シャトーラパン,0
44,1011001159682,新規,0,2024-02-01,2024-02-01,株式会社サブスリーラボ,,株式会社,東京都,渋谷区,幡ヶ谷３丁目７３番１８号ｓａｓａｚｕｋａ・ｔｏｄａｙ３０８,,13,113,1510072,,,,,,,2024-02-01,1,,,,,サブスリーラボ,0
45,1011001159699,新規,0,2024-02-01,2024-02-01,株式会社ＴＲＩＡ,,株式会社,東京都,渋谷区,道玄坂１丁目１０番８号渋谷道玄坂東急ビル２Ｆ－Ｃ,,13,113,1500043,,,,,,,2024-02-01,1,,,,,トリア,0
46,1011001159732,新規,0,2024-02-01,2024-02-01,株式会社ＧＲＯＷＴＳ,,株式会社,東京都,目黒区,八雲１丁目３番１号,,13,110,1520023,,,,,,,2024-02-01,1,,,,,グローツ,0
57,1011501030252,新規,0,2024-02-01,2024-02-01,日本寿の光生物製薬株式会社,,株式会社,東京都,荒川区,南千住３丁目２７－２浅草ビル,,13,118,1160003,,,,,,,2024-02-01,1,,,,,ニホンジュノヒカリセイブツセイヤク,0
60,1011701026983,新規,0,2024-02-01,2024-02-01,株式会社江戸啓商事,,株式会社,東京都,江戸川区,中央２丁目２０－２１－１０１,,13,123,1320021,,,,,,,2024-02-01,1,,,,,エドケイショウジ,0
66,1013301052006,新規,0,2024-02-01,2024-02-01,株式会社Ａ．Ｃ．Ｔ．,,株式会社,東京都,豊島区,池袋２丁目１７－８天翔オフィス池袋西口ＡＮＮＥＸ３０１,,13,116,1710014,,,,,,,2024-02-01,1,,,,,エーシーティー,0
71,1020001155609,新規,0,2024-02-01,2024-02-01,株式会社一輝,,株式会社,神奈川県,横浜市磯子区,栗木２丁目３８番６号,,14,107,2350041,,,,,,,2024-02-01,1,,,,,イッキ,0
77,1021001081349,新規,0,2024-02-01,2024-02-01,株式会社ＡＲＩＴＡ,,株式会社,神奈川県,藤沢市,大鋸３丁目９番１８号,,14,205,2510002,,,,,,,2024-02-01,1,,,,,アリタ,0
81,1030001158404,新規,0,2024-02-01,2024-02-01,株式会社友翔,,株式会社,埼玉県,桶川市,泉２丁目１０番３号メゾンピルテ３－２０２号,,11,231,3630021,,,,,,,2024-02-01,1,,,,,ユウショウ,0
82,1030001158429,新規,0,2024-02-01,2024-02-01,Ｔ’ｓ　Ａｇｅｎｃｙ株式会社,,株式会社,埼玉県,川越市,仙波町１丁目１２番３８号,,11,201,3500034,,,,,,,2024-02-01,1,,,,,ティーズエージェンシー,0
83,1030001158437,新規,0,2024-02-01,2024-02-01,株式会社ＢＰＸ,,株式会社,埼玉県,さいたま市南区,大字大谷口１４１７番地４,,11,108,3360042,,,,,,,2024-02-01,1,,,,,ビーピーエックス,0
84,1030001158445,新規,0,2024-02-01,2024-02-01,株式会社ＵｎｉｏｎＡＩ,,株式会社,埼玉県,上尾市,大字上１３２７番地１山西第２マンション１０６,,11,219,3620001,,,,,,,2024-02-01,1,,,,,ユニオンエーアイ,0
85,1030001158453,新規,0,2024-02-01,2024-02-01,ワイルドホース株式会社,,株式会社,埼玉県,川口市,西川口１丁目３０番２０－１１１,,11,203,3320021,,,,,,,2024-02-01,1,,,,,ワイルドホース,0
92,1030003023507,新規,0,2024-02-01,2024-02-01,Ｍａｎａｇｅ・ＤｅｓｉｇｎＳ合同会社,,合同会社,埼玉県,川越市,脇田新町５番地１９,,11,201,3501121,,,,,,,2024-02-01,1,,,,,マネージデザインズ,0
93,1030003023515,新規,0,2024-02-01,2024-02-01,合同会社ゴーアップ,,合同会社,埼玉県,川口市,大字新堀７４５,,11,203,3340061,,,,,,,2024-02-01,1,,,,,ゴーアップ,0
105,1040001131995,新規,0,2024-02-01,2024-02-01,日動建設ホールディングス株式会社,,株式会社,千葉県,船橋市,二和東６丁目１６番１２号,,12,204,2740805,,,,,,,2024-02-01,1,,,,,ニチドウケンセツホールディングス,0
106,1040001132011,新規,0,2024-02-01,2024-02-01,株式会社金丸建設,,株式会社,千葉県,柏市,大津ケ丘１丁目２２番地１ビューテラス大津ケ丘Ａ‐１０１号,,12,217,2770921,,,,,,,2024-02-01,1,,,,,カネマルケンセツ,0
108,1040003024248,新規,0,2024-02-01,2024-02-01,合同会社福杉,,合同会社,千葉県,松戸市,小金原１丁目３３番地の１６,,12,207,2700021,,,,,,,2024-02-01,1,,,,,フクスギ,0
109,1040003024264,新規,0,2024-02-01,2024-02-01,合同会社ＡＮＤＹ．,,合同会社,千葉県,船橋市,藤原７丁目３４番２１号,,12,204,2730047,,,,,,,2024-02-01,1,,,,,アンドワイ,0
110,1040005022266,新規,0,2024-02-01,2024-02-01,一般社団法人シリウス,,その他の設立登記法人,千葉県,松戸市,中和倉１４７番地の１,,12,207,2700025,,,,,,,2024-02-01,1,,,,,シリウス,0
112,1050003008118,新規,0,2024-02-01,2024-02-01,合同会社スターキャピタル,,合同会社,茨城県,つくば市,松野木１６７－２－Ｂ２０４,,08,220,3050056,,,,,,,2024-02-01,1,,,,,スターキャピタル,0
118,1110001038143,新規,0,2024-02-01,2024-02-01,株式会社アオキ商事,,株式会社,新潟県,南魚沼市,西泉田５１０番地１,,15,226,9496615,,,,,,,2024-02-01,1,,,,,アオキショウジ,0
126,1120001261842,新規,0,2024-02-01,2024-02-01,株式会社蒼学園,,株式会社,大阪府,大阪市中央区,南船場１丁目３番１４号ストークビル南船場６０６,,27,128,5420081,,,,,,,2024-02-01,1,,,,,アオガクエン,0
127,1120001261850,新規,0,2024-02-01,2024-02-01,Ｈｏｔ　ｓｈａｒｅ株式会社,,株式会社,大阪府,大阪市住吉区,長居２丁目１０番３－１０７号,,27,120,5580003,,,,,,,2024-02-01,1,,,,,ホットシェア,0
128,1120001261859,新規,0,2024-02-01,2024-02-01,恒＿株式会社,00133592,株式会社,大阪府,大阪市都島区,中野町４丁目３番６号Ｈ２Ｈ大阪桜之宮邸２Ｃ－２,,27,102,5340027,,,,,,,2024-02-01,1,,,,,コウケン,0
129,1120001261867,新規,0,2024-02-01,2024-02-01,株式会社ｉｄｅａ,,株式会社,大阪府,大阪市東成区,大今里南４丁目９番６－３０９号,,27,115,5370013,,,,,,,2024-02-01,1,,,,,アイデア,0
130,1120001261875,新規,0,2024-02-01,2024-02-01,株式会社ＩＮＮＯＣＥＮＣＥ,,株式会社,大阪府,門真市,野里町１５－５－Ａ－２０１,,27,223,5710079,,,,,,,2024-02-01,1,,,,,イノセンス,0
131,1120001261900,新規,0,2024-02-01,2024-02-01,白熊義塾株式会社,,株式会社,大阪府,大阪市中央区,難波５丁目１－６０ＷｅＷｏｒｋＮａｍｂａＳｋｙＯ２７－１１１,,27,128,5420076,,,,,,,2024-02-01,1,,,,,シロクマギジュク,0
134,1120003025816,新規,0,2024-02-01,2024-02-01,ＴＨ合同会社,,合同会社,大阪府,大阪市住吉区,我孫子３丁目３番２号１０３号室,,27,120,5580014,,,,,,,2024-02-01,1,,,,,ティーエイチ,0
144,1130001076059,新規,0,2024-02-01,2024-02-01,寶所株式会社,,株式会社,京都府,京都市伏見区,醍醐柏森町８－１０,,26,109,6011336,,,,,,,2024-02-01,1,,,,,ホウショ,0
148,1140001133164,新規,0,2024-02-01,2024-02-01,ＧＥＰ　ＩＮＴＥＲＮＡＴＩＯＮＡＬ株式会社,,株式会社,兵庫県,神戸市北区,有野町唐櫃２６０６番地グリーンビラ六甲１０１室,,28,109,6511331,,,,,,,2024-02-01,1,,,,,ジーイーピーインターナショナル,0
149,1140003020113,新規,0,2024-02-01,2024-02-01,Ｈ＆Ｙコネクション合同会社,,合同会社,兵庫県,神戸市中央区,栄町通２丁目９番４号川泰ビル２階,,28,110,6500023,,,,,,,2024-02-01,1,,,,,エイチアンドワイコネクション,0
150,1140003020121,新規,0,2024-02-01,2024-02-01,合同会社妍,,合同会社,兵庫県,神戸市東灘区,魚崎南町３丁目８番２１－３０１号,,28,101,6580025,,,,,,,2024-02-01,1,,,,,ケン,0
152,1170003001977,新規,0,2024-02-01,2024-02-01,合同会社ＥＲ,,合同会社,和歌山県,海南市,大野中５１５番地９,,30,202,6420022,,,,,,,2024-02-01,1,,,,,イーアール,0
155,1180001159998,新規,0,2024-02-01,2024-02-01,株式会社蒼,,株式会社,愛知県,海部郡大治町,大字三本木字西之川１３７番地１,,23,424,4901142,,,,,,,2024-02-01,1,,,,,アオイ,0
157,1180003026296,新規,0,2024-02-01,2024-02-01,ＺｔｏＳ合同会社,,合同会社,愛知県,名古屋市天白区,道明町５２ＨＥＲＭＩＴＡＧＥ２００５　２０５号,,23,116,4680064,,,,,,,2024-02-01,1,,,,,ズィートゥーエス,0
159,1180301038290,新規,0,2024-02-01,2024-02-01,ＭｉＮＴｓ株式会社,,株式会社,愛知県,豊橋市,清須町字高見６８番地の１,,23,201,4400095,,,,,,,2024-02-01,1,,,,,ミンツ,0
160,1180303005990,新規,0,2024-02-01,2024-02-01,合同会社ゆっくり,,合同会社,愛知県,豊田市,浄水町南平１８７番地１６３,,23,211,4700343,,,,,,,2024-02-01,1,,,,,ユックリ,0
167,1240001062741,新規,0,2024-02-01,2024-02-01,株式会社山北工業,,株式会社,広島県,東広島市,西条町大沢８８５番地１,,34,212,7390034,,,,,,,2024-02-01,1,,,,,ヤマキタコウギョウ,0
169,1240005015712,新規,0,2024-02-01,2024-02-01,特定非営利活動法人広島市テニス競技普及振興協会,,その他の設立登記法人,広島県,広島市西区,己斐上３丁目１８番８号,,34,104,7330815,,,,,,,2024-02-01,1,,,,,ヒロシマシテニスキョウギフキュウシンコウキョウカイ,0
170,1250001020500,新規,0,2024-02-01,2024-02-01,株式会社さわやか,,株式会社,山口県,宇部市,東平原２丁目９番２２号,,35,202,7550807,,,,,,,2024-02-01,1,,,,,サワヤカ,0
178,1290001104522,新規,0,2024-02-01,2024-02-01,株式会社ＣＵＯＲＥ,,株式会社,福岡県,筑紫野市,塔原東４丁目１２番１－４０４号,,40,217,8180059,,,,,,,2024-02-01,1,,,,,クオーレ,0
181,1290801030265,新規,0,2024-02-01,2024-02-01,株式会社ＢＩＳＯＵテック,,株式会社,福岡県,北九州市八幡西区,大浦１丁目３番１３号,,40,109,8070874,,,,,,,2024-02-01,1,,,,,ビソウテック,0
184,1310001018835,新規,0,2024-02-01,2024-02-01,ジェイブリッジ株式会社,,株式会社,長崎県,長崎市,江戸町５番８号,,42,201,8500861,,,,,,,2024-02-01,1,,,,,ジェイブリッジ,0
185,1310003004718,新規,0,2024-02-01,2024-02-01,合同会社大岡機械サービス,,合同会社,長崎県,大村市,玖島２丁目４９７番地５,,42,205,8560834,,,,,,,2024-02-01,1,,,,,オオオカキカイサービス,0
190,1330001031712,新規,0,2024-02-01,2024-02-01,株式会社古処倶楽部,,株式会社,熊本県,菊池市,七城町亀尾６番地１,,43,210,8611342,,,,,,,2024-02-01,1,,,,,コショクラブ,0
203,1390001017508,新規,0,2024-02-01,2024-02-01,株式会社Ｋ２,,株式会社,山形県,山形市,幸町２－９ダイワロイネットホテル山形駅前１階,,06,201,9900038,,,,,,,2024-02-01,1,,,,,ケーツー,0
206,1430001090921,新規,0,2024-02-01,2024-02-01,株式会社ｌｕｚＣｒａｆｔ,,株式会社,北海道,札幌市東区,北二十五条東１５丁目１番１号エルドラード元町３０３号,,01,103,0650025,,,,,,,2024-02-01,1,,,,,ルスクラフト,0
207,1430001090954,新規,0,2024-02-01,2024-02-01,ＮＥＸＴ株式会社,,株式会社,北海道,札幌市中央区,南十二条西２３丁目２番５号ＢＬＡＮＣ旭ヶ丘２階Ｃ号,,01,101,0640912,,,,,,,2024-02-01,1,,,,,ネクスト,0
208,1430001090995,新規,0,2024-02-01,2024-02-01,Ｓｙａｉｎｓ株式会社,,株式会社,北海道,札幌市東区,北八条東４丁目１番２０号サツドラホールディングス株式会社本社２階,,01,103,0600908,,,,,,,2024-02-01,1,,,,,シャインズ,0
214,1470001019999,新規,0,2024-02-01,2024-02-01,ＡＫＨＴＡＲ　ＴＲＡＤＩＮＧ株式会社,,株式会社,香川県,三豊市,豊中町下高野２５２５下高野オフィスビルＢ－１,,37,208,7691508,,,,,,,2024-02-01,1,,,,,アクタールトレーディング,0
217,1500001025440,新規,0,2024-02-01,2024-02-01,高野電機株式会社,00133581,株式会社,愛媛県,四国中央市,川之江町３５７２番地７,,38,213,7990101,,,,,,,2024-02-01,1,,,,,タカノデンキ,0
218,1700150117885,新規,0,2024-02-01,2024-02-01,Ｓｈｅｎｚｈｅｎｓｈｉｘｉｎｂｏｙｕｅｄｉａｎｚｉｙｏｕｘｉａｎｇｏｎｇｓｉ,,外国会社等,,,,,,,,Ｓｈｅｎｚｈｅｎｓｈｉｌｏｎｇｈｕａｑｕｄａｌａｎｇｊｉｅｄａｏｄａｌａｎｇｓｈｅｑｕｔａｉｓｏｎｇｇｏｎｇｙｅｑｕ５ｈａｏ１－５ｃｅｎｇ,,,,,,2024-02-01,1,,,,,シェンジェンシシンボーユエディエンツヨウシエンゴンス,0
219,1700150123743,新規,0,2024-02-01,2024-02-01,サンライフ大名マンション敷地売却組合,,その他,福岡県,福岡市中央区,大名２丁目２番４１号,,40,133,8100041,,,,,,,2024-02-01,1,,,,,サンライフダイミヨウマンシヨンシキチバイキヤククミアイ,0
224,2010001241945,新規,0,2024-02-01,2024-02-01,株式会社ＧＡＩＡ,,株式会社,東京都,千代田区,霞が関１丁目４番１号,,13,101,1000013,,,,,,,2024-02-01,1,,,,,ガイア,0
227,2010003042813,新規,0,2024-02-01,2024-02-01,合同会社アジサイ,,合同会社,東京都,千代田区,二番町３番地麹町スクエア株式会社シリウス・アドバイザリー内,,13,101,1020084,,,,,,,2024-02-01,1,,,,,アジサイ,0
248,2010405022900,新規,0,2024-02-01,2024-02-01,美原デベロップメント特定目的会社,,その他の設立登記法人,東京都,港区,六本木６丁目２番３１号六本木ヒルズノースタワー９階,,13,103,1060032,,,,,,,2024-02-01,1,,,,,ミハラデベロップメント,0
249,2010501051613,新規,0,2024-02-01,2024-02-01,Ｆｉｒｓｔ株式会社,,株式会社,東京都,台東区,花川戸１丁目５－２サテライトフジビル６Ｆ,,13,106,1110033,,,,,,,2024-02-01,1,,,,,ファースト,0
255,2010601064556,新規,0,2024-02-01,2024-02-01,株式会社９１,,株式会社,東京都,墨田区,京島１丁目８番８号,,13,107,1310046,,,,,,,2024-02-01,1,,,,,キュウジュウイチ,0
257,2010603010590,新規,0,2024-02-01,2024-02-01,Ｒｅｐｒｅｃｉｏ合同会社,,合同会社,東京都,江東区,豊洲４丁目１１番５‐１４０８号,,13,108,1350061,,,,,,,2024-02-01,1,,,,,リプレシオ,0
259,2010701045497,新規,0,2024-02-01,2024-02-01,ニューオレンジ株式会社,,株式会社,東京都,品川区,大井１丁目２１番８－６０６号,,13,109,1400014,,,,,,,2024-02-01,1,,,,,ニューオレンジ,0
265,2010903008789,新規,0,2024-02-01,2024-02-01,合同会社レリック,,合同会社,東京都,世田谷区,池尻３丁目２番５－６０３号,,13,112,1540001,,,,,,,2024-02-01,1,,,,,レリック,0
277,2011003018381,新規,0,2024-02-01,2024-02-01,合同会社ＦＲＩＥＬＡＶＡ,,合同会社,東京都,渋谷区,道玄坂１丁目１０番８号渋谷道玄坂東急ビル２Ｆ－Ｃ,,13,113,1500043,,,,,,,2024-02-01,1,,,,,フレラヴァ,0
278,2011003018415,新規,0,2024-02-01,2024-02-01,合同会社５６プロダクション,,合同会社,東京都,渋谷区,道玄坂１丁目１０番８号渋谷道玄坂東急ビル２Ｆ－Ｃ,,13,113,1500043,,,,,,,2024-02-01,1,,,,,ゴーロクプロダクション,0
282,2011105010930,新規,0,2024-02-01,2024-02-01,一般社団法人静岡レジデンシャルファンド,,その他の設立登記法人,東京都,新宿区,四谷４丁目３２番８号ＹＫＢサニービル６階,,13,104,1600004,,,,,,,2024-02-01,1,,,,,シズオカレジデンシャルファンド,0
287,2011303005047,新規,0,2024-02-01,2024-02-01,合同会社セルフィッシュ,,合同会社,東京都,杉並区,善福寺４丁目１４番７号,,13,115,1670041,,,,,,,2024-02-01,1,,,,,セルフィッシュ,0
289,2011501030284,新規,0,2024-02-01,2024-02-01,ＭＡＲＩＥＳ株式会社,,株式会社,東京都,北区,田端５丁目３番２０号サバ・ドゥ・ボヌール３０２号,,13,117,1140014,,,,,,,2024-02-01,1,,,,,マリーズ,0
291,2011503005937,新規,0,2024-02-01,2024-02-01,合同会社アレンジ,,合同会社,東京都,北区,滝野川５丁目４１番５号ＭＩＲＡＣＬＥＩＩＩ－３０１号,00133583,13,117,1140023,,,,,,,2024-02-01,1,,,,,アレンジ,0
293,2011701026982,新規,0,2024-02-01,2024-02-01,英成株式会社,,株式会社,東京都,江戸川区,西葛西５丁目７番６号ＤＡＯＳＰＡＣＥ西葛西５０６号室,,13,123,1340088,,,,,,,2024-02-01,1,,,,,エイセイ,0
299,2011801043721,新規,0,2024-02-01,2024-02-01,克美商事株式会社,,株式会社,東京都,葛飾区,白鳥２丁目６番１０号,,13,122,1250063,,,,,,,2024-02-01,1,,,,,カツミショウジ,0
314,2020001155599,新規,0,2024-02-01,2024-02-01,横通国際株式会社,,株式会社,神奈川県,横浜市南区,日枝町３丁目８７番地１－５０３号,,14,105,2320011,,,,,,,2024-02-01,1,,,,,ヨコツウコクサイ,0
315,2020001155632,新規,0,2024-02-01,2024-02-01,株式会社具志堅工業,,株式会社,神奈川県,川崎市宮前区,南野川３丁目３３番２５号,,14,136,2160042,,,,,,,2024-02-01,1,,,,,グシケンコウギョウ,0
319,2020005016269,新規,0,2024-02-01,2024-02-01,特定非営利活動法人子どもスポーツ体験協会,,その他の設立登記法人,神奈川県,川崎市麻生区,はるひ野４丁目２０番１－６１０号,,14,137,2150036,,,,,,,2024-02-01,1,,,,,コドモスポーツタイケンキョウカイ,0
323,2021001081315,新規,0,2024-02-01,2024-02-01,株式会社Ｈｅａｌｔｈ＆Ｓｔｒｅｎｇｔｈ,,株式会社,神奈川県,相模原市南区,相模大野７丁目１４番３号メゾンリキ１０５,,14,153,2520303,,,,,,,2024-02-01,1,,,,,ヘルスアンドストレングス,0
324,2021001081348,新規,0,2024-02-01,2024-02-01,株式会社ＺＩＫＵＵ,,株式会社,神奈川県,相模原市中央区,淵野辺３丁目９番１７－５２０号,,14,152,2520206,,,,,,,2024-02-01,1,,,,,ジクウ,0
331,2030001158394,新規,0,2024-02-01,2024-02-01,杉浦工業株式会社,,株式会社,埼玉県,南埼玉郡宮代町,大字西粂原１０３３番地２１,,11,442,3450833,,,,,,,2024-02-01,1,,,,,スギウラコウギョウ,0
332,2030001158411,新規,0,2024-02-01,2024-02-01,株式会社ＷＡＫＯ,,株式会社,埼玉県,北足立郡伊奈町,大字小室４６１２番地１,,11,301,3620806,,,,,,,2024-02-01,1,,,,,ワコウ,0
333,2030001158428,新規,0,2024-02-01,2024-02-01,株式会社ヤマユウ,,株式会社,埼玉県,新座市,東北２丁目１７番２２号グリーンハイツ２－４０４,,11,230,3520001,,,,,,,2024-02-01,1,,,,,ヤマユウ,0
334,2030001158436,新規,0,2024-02-01,2024-02-01,株式会社こどな屋,,株式会社,埼玉県,鴻巣市,氷川町３２番地１０,,11,217,3650045,,,,,,,2024-02-01,1,,,,,コドナヤ,0
335,2030001158452,新規,0,2024-02-01,2024-02-01,良林商事株式会社,,株式会社,埼玉県,春日部市,上蛭田７００－３７,,11,214,3440046,,,,,,,2024-02-01,1,,,,,リョウリンショウジ,0
345,2040001131986,新規,0,2024-02-01,2024-02-01,株式会社スタイル,,株式会社,千葉県,君津市,外箕輪３丁目１３番１号,,12,225,2991173,,,,,,,2024-02-01,1,,,,,スタイル,0
349,2040003024239,新規,0,2024-02-01,2024-02-01,合同会社齋藤工業,,合同会社,千葉県,八千代市,大和田新田１０７５番地１３,,12,221,2760046,,,,,,,2024-02-01,1,,,,,サイトウコウギョウ,0
350,2040003024247,新規,0,2024-02-01,2024-02-01,合同会社ＷＯＲＬＤ,,合同会社,千葉県,印旛郡酒々井町,中川２９６番地３,,12,322,2850921,,,,,,,2024-02-01,1,,,,,ワールド,0
353,2050001054212,新規,0,2024-02-01,2024-02-01,株式会社神栖商会,,株式会社,茨城県,神栖市,大野原１丁目５－１幸武ビル１０９、２階２－３号室,,08,232,3140144,,,,,,,2024-02-01,1,,,,,カミスショウカイ,0
360,2070003005260,新規,0,2024-02-01,2024-02-01,合同会社日本国語塾,,合同会社,群馬県,前橋市,表町１丁目２４－１ＫＵＺＯ前橋駅前ビル２階２３・２４号,,10,201,3710024,,,,,,,2024-02-01,1,,,,,ニホンコクゴジュク,0
365,2080401026980,新規,0,2024-02-01,2024-02-01,株式会社ＢＡＳＩＣ,,株式会社,静岡県,浜松市中央区,古人見町１４３２番地の５２,,22,138,4311113,,,,,,,2024-02-01,1,,,,,ベーシック,0
373,2120001261726,新規,0,2024-02-01,2024-02-01,華陽株式会社,,株式会社,大阪府,大阪市淀川区,木川東３丁目４番１１号第一丸善ビル４階,,27,123,5320012,,,,,,,2024-02-01,1,,,,,カヨウ,0
374,2120001261809,新規,0,2024-02-01,2024-02-01,吾家株式会社,,株式会社,大阪府,大阪市東淀川区,瑞光２丁目１２－３３ヴィラ瑞光２０２号室,,27,114,5330005,,,,,,,2024-02-01,1,,,,,ワガヤ,0
375,2120001261833,新規,0,2024-02-01,2024-02-01,ＴＹ株式会社,,株式会社,大阪府,大阪市西成区,玉出西２丁目１３番７号,,27,122,5570045,,,,,,,2024-02-01,1,,,,,ティワイ,0
376,2120001261841,新規,0,2024-02-01,2024-02-01,ＲＨＣ株式会社,,株式会社,大阪府,大阪市中央区,南船場３丁目２－２２－２０５,,27,128,5420081,,,,,,,2024-02-01,1,,,,,アールエイチシー,0
377,2120001261866,新規,0,2024-02-01,2024-02-01,株式会社ムナル,,株式会社,大阪府,大阪市東住吉区,照ケ丘矢田１丁目８番２５号,,27,121,5460021,,,,,,,2024-02-01,1,,,,,ムナル,0
378,2120001261899,新規,0,2024-02-01,2024-02-01,ＮＯ．１株式会社,,株式会社,大阪府,大阪市北区,梅田１丁目１番３号大阪駅前第３ビル２５階,,27,127,5300001,,,,,,,2024-02-01,1,,,,,エヌオーワン,0
379,2120001261908,新規,0,2024-02-01,2024-02-01,東昇株式会社,,株式会社,大阪府,大阪市浪速区,下寺３丁目１－１４エクレール夕陽ケ丘５号２１１室,,27,111,5560001,,,,,,,2024-02-01,1,,,,,トウショウ,0
380,2120001261924,新規,0,2024-02-01,2024-02-01,株式会社ＶＡＭＯＳ　ＪＡＰＡＮ,,株式会社,大阪府,大阪市平野区,長吉六反３丁目１７番２９号２ＦＢ号,,27,126,5470012,,,,,,,2024-02-01,1,,,,,バモスジャパン,0
381,2120001261940,新規,0,2024-02-01,2024-02-01,株式会社勝東龍起,,株式会社,大阪府,大阪市天王寺区,生玉町１１番２９－１００３号,,27,109,5430071,,,,,,,2024-02-01,1,,,,,ショウトウリュウキ,0
382,2120001261949,新規,0,2024-02-01,2024-02-01,株式会社ｃｈｅｌｌｅｒ,,株式会社,大阪府,大阪市中央区,松屋町３番２３－１００３号,,27,128,5420067,,,,,,,2024-02-01,1,,,,,チェリエ,0
384,2120003025815,新規,0,2024-02-01,2024-02-01,合同会社ＴＡＭ　ＡＮ,,合同会社,大阪府,大阪市生野区,田島１丁目１０－１１,,27,116,5440011,,,,,,,2024-02-01,1,,,,,タムアン,0
385,2120901048710,新規,0,2024-02-01,2024-02-01,株式会社ボン・ティール,,株式会社,大阪府,箕面市,白島３丁目５番８３号,,27,220,5620012,,,,,,,2024-02-01,1,,,,,ボンティール,0
398,2140003020120,新規,0,2024-02-01,2024-02-01,ＰＩＣシステム合同会社,,合同会社,兵庫県,神戸市中央区,熊内町２丁目７－１６,,28,110,6510056,,,,,,,2024-02-01,1,,,,,ピーアイシーシステム,0
400,2170001017990,新規,0,2024-02-01,2024-02-01,株式会社ＪＯＹメタル,,株式会社,和歌山県,和歌山市,朝日４４番地１,,30,201,6400344,,,,,,,2024-02-01,1,,,,,ジョイメタル,0
402,2170005007063,新規,0,2024-02-01,2024-02-01,一般財団法人タカショーガーデンライフ振興財団,,その他の設立登記法人,和歌山県,海南市,南赤坂２０番地１,,30,202,6420017,,,,,,,2024-02-01,1,,,,,タカショーガーデンライフシンコウザイダン,0
412,2190001031073,新規,0,2024-02-01,2024-02-01,株式会社ＡＳＡＫＵＲＡ,,株式会社,三重県,多気郡明和町,大字明星２５４０番地４２,,24,442,5150313,,,,,,,2024-02-01,1,,,,,アサクラ,0
421,2230003002142,新規,0,2024-02-01,2024-02-01,合同会社人財マネジメントパートナーズ,,合同会社,富山県,氷見市,島尾１６３４番地,,16,205,9350032,,,,,,,2024-02-01,1,,,,,ジンザイマネジメントパートナーズ,0
424,2240005015711,新規,0,2024-02-01,2024-02-01,一般社団法人ＧＯＪＯｐｌｕｓ,,その他の設立登記法人,広島県,安芸郡熊野町,呉地４丁目２２番６号,,34,307,7314222,,,,,,,2024-02-01,1,,,,,ゴジョプラス,0
427,2260001038722,新規,0,2024-02-01,2024-02-01,株式会社オフィスピーチ,,株式会社,岡山県,岡山市南区,福島３丁目８番２１号,,33,104,7028044,,,,,,,2024-02-01,1,,,,,オフィスピーチ,0
428,2270001008914,新規,0,2024-02-01,2024-02-01,株式会社日進ホームサービス,,株式会社,鳥取県,鳥取市,吉成６４１番地２７,,31,201,6800864,,,,,,,2024-02-01,1,,,,,ニッシンホームサービス,0
439,2310001018834,新規,0,2024-02-01,2024-02-01,株式会社Ｏｎｅ　ｐｅｒ　ｆａｍｉｌｙ,,株式会社,長崎県,長崎市,大黒町１０番１０号ＫｏＫｏＲｏビル６１３２号室,,42,201,8500057,,,,,,,2024-02-01,1,,,,,,0
456,2360001033135,新規,0,2024-02-01,2024-02-01,株式会社ＦＯＡ,,株式会社,沖縄県,中頭郡西原町,上原２丁目２３番地の２サンテラス屋良２０５,,47,329,9030125,,,,,,,2024-02-01,1,,,,,エフオーエー,0
458,2370003006468,新規,0,2024-02-01,2024-02-01,合同会社東仙台,,合同会社,宮城県,仙台市宮城野区,東仙台６丁目１３－１１－６,,04,102,9830833,,,,,,,2024-02-01,1,,,,,ヒガシセンダイ,0
462,2390001017507,新規,0,2024-02-01,2024-02-01,株式会社ニットオカザキ,,株式会社,山形県,寒河江市,大字米沢字富沢５７８番地の２,,06,206,9900525,,,,,,,2024-02-01,1,,,,,ニットオカザキ,0
469,2430003015891,新規,0,2024-02-01,2024-02-01,合同会社ＳＴＥＬＬＡＲ不動産,,合同会社,北海道,千歳市,北斗１丁目１７番５－２０１号,,01,224,0660073,,,,,,,2024-02-01,1,,,,,ステラフドウサン,0
471,2460103001590,新規,0,2024-02-01,2024-02-01,合同会社良水建設,,合同会社,北海道,河東郡音更町,すずらん台北町１丁目９番地１７フラットリリィベル３‐Ａ,,01,631,0800361,,,,,,,2024-02-01,1,,,,,ヨシミケンセツ,0
483,3010001241944,新規,0,2024-02-01,2024-02-01,紫白株式会社,,株式会社,東京都,中央区,日本橋横山町３－８オーヒロローズハイツ１００３Ｂ,,13,102,1030003,,,,,,,2024-02-01,1,,,,,シハク,0
484,3010001241952,新規,0,2024-02-01,2024-02-01,Ｆａｎｄｈｅ株式会社,,株式会社,東京都,文京区,目白台３丁目１５番２号,,13,105,1120015,,,,,,,2024-02-01,1,,,,,ファンダ,0
487,3010003042829,新規,0,2024-02-01,2024-02-01,アカフジ合同会社,,合同会社,東京都,千代田区,神田須田町１丁目７番１号,,13,101,1010041,,,,,,,2024-02-01,1,,,,,アカフジ,0
495,3010401180024,新規,0,2024-02-01,2024-02-01,株式会社ＴＬＥＯグループホールディングス,,株式会社,東京都,港区,西新橋１丁目２０番３号虎ノ門法曹ビル,,13,103,1050003,,,,,,,2024-02-01,1,,,,,ティーエルイーオーグループホールディングス,0
496,3010401180057,新規,0,2024-02-01,2024-02-01,株式会社ゼロゴ,,株式会社,東京都,港区,北青山１丁目３番１号アールキューブ青山３階,,13,103,1070061,,,,,,,2024-02-01,1,,,,,ゼロゴ,0
497,3010401180065,新規,0,2024-02-01,2024-02-01,株式会社ＴｒｅｎｄＴｅｘ,,株式会社,東京都,港区,西麻布２丁目２５番２５号リクレイシア西麻布ＩＩ番館４０２,00133582,13,103,1060031,,,,,,,2024-02-01,1,,,,,トレンドテックス,0
498,3010401180107,新規,0,2024-02-01,2024-02-01,株式会社クロダベース,,株式会社,東京都,港区,南青山４丁目９番２８号,,13,103,1070062,,,,,,,2024-02-01,1,,,,,クロダベース,0
501,3010403031844,新規,0,2024-02-01,2024-02-01,合同会社ＣＲＵＳＨＭＥＴＲＩＣ　ＪＡＰＡＮ,,合同会社,東京都,港区,港南２丁目１５番１号品川インターシティＡ棟２８階,,13,103,1080075,,,,,,,2024-02-01,1,,,,,クラッシュメトリックジャパン,0
510,3010405022908,新規,0,2024-02-01,2024-02-01,Ｌｉｆｅｓｔｙｌｅ２ｃ一般社団法人,,その他の設立登記法人,東京都,港区,六本木１丁目９番１０号アークヒルズ仙石山森タワー４０階,,13,103,1060032,,,,,,,2024-02-01,1,,,,,ライフスタイルツーシー,0
512,3010503007331,新規,0,2024-02-01,2024-02-01,恩璽合同会社,,合同会社,東京都,台東区,上野３丁目１６番２－６１１号,,13,106,1100005,,,,,,,2024-02-01,1,,,,,オンジ,0
529,3011001159425,新規,0,2024-02-01,2024-02-01,株式会社ＣＯＵＫＹＯ,,株式会社,東京都,渋谷区,円山町５番５号Ｎａｖｉ渋谷Ｖ３階,,13,113,1500044,,,,,,,2024-02-01,1,,,,,コウキョウ,0
530,3011001159714,新規,0,2024-02-01,2024-02-01,株式会社ｃｏｏｒｄｉｍａｔｅ,,株式会社,東京都,渋谷区,道玄坂１丁目１０番８号渋谷道玄坂東急ビル２Ｆ－Ｃ,,13,113,1500043,,,,,,,2024-02-01,1,,,,,コーディメイト,0
531,3011001159730,新規,0,2024-02-01,2024-02-01,Ｄ＆Ｉ株式会社,,株式会社,東京都,渋谷区,初台１丁目４９番２－１３０３号,,13,113,1510061,,,,,,,2024-02-01,1,,,,,ディーアンドアイ,0
533,3011003018397,新規,0,2024-02-01,2024-02-01,合同会社ＡＴプロモーション,,合同会社,東京都,渋谷区,渋谷２丁目１９－１５宮益坂ビルディング６０９,,13,113,1500002,,,,,,,2024-02-01,1,,,,,エーティープロモーション,0
534,3011003018414,新規,0,2024-02-01,2024-02-01,ＮａｎＣｒｅｗ合同会社,,合同会社,東京都,渋谷区,渋谷２丁目１２番１３－１１０２号,,13,113,1500002,,,,,,,2024-02-01,1,,,,,ナンクルー,0
537,3011101105980,新規,0,2024-02-01,2024-02-01,株式会社Ｍｉｌｅｔｔａ,,株式会社,東京都,新宿区,下宮比町２番２８号飯田橋ハイタウン１１２７号室,,13,104,1620822,,,,,,,2024-02-01,1,,,,,ミレッタ,0
538,3011101106046,新規,0,2024-02-01,2024-02-01,株式会社ＬＴ　Ｇｒａｐｈ,,株式会社,東京都,新宿区,四谷本塩町８番１０号,,13,104,1600003,,,,,,,2024-02-01,1,,,,,エルティグラフ,0
539,3011103014049,新規,0,2024-02-01,2024-02-01,合同会社ＪＣＦ,,合同会社,東京都,新宿区,四谷１丁目１０番地第二上野ビル１階,,13,104,1600004,,,,,,,2024-02-01,1,,,,,ジェーシーエフ,0
541,3011201025220,新規,0,2024-02-01,2024-02-01,株式会社関東コネクト,,株式会社,東京都,中野区,東中野５丁目１番１－１５０４号,,13,114,1640003,,,,,,,2024-02-01,1,,,,,カントウコネクト,0
542,3011303005046,新規,0,2024-02-01,2024-02-01,フェニックスン合同会社,,合同会社,東京都,杉並区,上井草２丁目３３番２２号トーシンコーポ上井草１０６,,13,115,1670023,,,,,,,2024-02-01,1,,,,,フェニックスン,0
551,3011703003731,新規,0,2024-02-01,2024-02-01,ＨＡＰＰＹ　ＥＮＧＬＩＳＨ合同会社,,合同会社,東京都,江戸川区,西葛西２丁目２２－２６－６０２,,13,123,1340088,,,,,,,2024-02-01,1,,,,,ハッピーイングリッシュ,0
558,3012801022945,新規,0,2024-02-01,2024-02-01,株式会社正飛商事,,株式会社,東京都,武蔵村山市,残堀４丁目６番地の１３,,13,223,2080034,,,,,,,2024-02-01,1,,,,,マサトショウジ,0
560,3013301051996,新規,0,2024-02-01,2024-02-01,株式会社ＣＬＯＵＤＭＤ,,株式会社,東京都,豊島区,南大塚３丁目１番１２－９０２号,,13,116,1700005,,,,,,,2024-02-01,1,,,,,クラウドエムディー,0
565,3021001081347,新規,0,2024-02-01,2024-02-01,オルディザイン株式会社,,株式会社,神奈川県,綾瀬市,小園９２３－１,,14,218,2521121,,,,,,,2024-02-01,1,,,,,オルディザイン,0
566,3021001081355,新規,0,2024-02-01,2024-02-01,株式会社Ｈｏｎｅｙｂｉｚ　Ｊａｐａｎ,,株式会社,神奈川県,大和市,つきみ野６丁目５番地３０,,14,213,2420002,,,,,,,2024-02-01,1,,,,,ハニービズジャパン,0
568,3021003014098,新規,0,2024-02-01,2024-02-01,ＡＵＴＯ王国合同会社,,合同会社,神奈川県,座間市,南栗原４丁目１０－６ドエル柏台１０３,,14,216,2520015,,,,,,,2024-02-01,1,,,,,オートオウコク,0
574,3030001158435,新規,0,2024-02-01,2024-02-01,ビジネスＱ＆Ｈ株式会社,,株式会社,埼玉県,川口市,朝日１丁目１番１－１０７号グリーンビューニュー川口,,11,203,3320001,,,,,,,2024-02-01,1,,,,,ビジネスキューアンドエイチ,0
575,3030001158443,新規,0,2024-02-01,2024-02-01,株式会社Ｓ＆Ｇ　Ｉｎｖｅｓｔｍｅｎｔ,,株式会社,埼玉県,さいたま市岩槻区,大字掛５５５番地１０,,11,110,3390078,,,,,,,2024-02-01,1,,,,,,0
579,3030003023538,新規,0,2024-02-01,2024-02-01,合同会社Ａｉｒ　ｐｅａｋ,,合同会社,埼玉県,朝霞市,岡３丁目１８番２２号,,11,227,3510007,,,,,,,2024-02-01,1,,,,,エアピーク,0
584,3040001131985,新規,0,2024-02-01,2024-02-01,株式会社ＡＲＳ,,株式会社,千葉県,松戸市,新松戸６丁目１２番地の１ヒルズ新松戸中央公園１０１号,,12,207,2700034,,,,,,,2024-02-01,1,,,,,エーアールエス,0
585,3040001131993,新規,0,2024-02-01,2024-02-01,株式会社Ｌ‐ＣＡＳＰ,,株式会社,千葉県,鴨川市,金束９７１番地１,,12,223,2960233,,,,,,,2024-02-01,1,,,,,エルキャスプ,0
589,3040003024246,新規,0,2024-02-01,2024-02-01,合同会社ＲＡＴ,,合同会社,千葉県,野田市,柏寺４９０－２５,,12,208,2700214,,,,,,,2024-02-01,1,,,,,アールエーティー,0
607,3100003007376,新規,0,2024-02-01,2024-02-01,合同会社Ｕ．Ｎ．Ｉ．,,合同会社,長野県,北佐久郡軽井沢町,大字長倉３１１６番９,,20,321,3890111,,,,,,,2024-02-01,1,,,,,ユーエヌアイ,0
619,3120001261667,新規,0,2024-02-01,2024-02-01,株式会社８０８,,株式会社,大阪府,大阪市北区,梅田１丁目２番２号大阪駅前第２ビル１２－１２,,27,127,5300001,,,,,,,2024-02-01,1,,,,,ヤオヤ,0
620,3120001261849,新規,0,2024-02-01,2024-02-01,Ｄｅｓｉｇｎ　Ｓｈａｒｉｎｇ株式会社,,株式会社,大阪府,大阪市住吉区,長居２丁目１０番３－２０４号,,27,120,5580003,,,,,,,2024-02-01,1,,,,,デザインシェアリング,0
621,3120001261881,新規,0,2024-02-01,2024-02-01,株式会社フルバリュー,,株式会社,大阪府,大阪市北区,梅田１丁目１２－１２東京建物梅田ビル１２階,,27,127,5300001,,,,,,,2024-02-01,1,,,,,フルバリュー,0
625,3120003025814,新規,0,2024-02-01,2024-02-01,ＤＡＮ　ＰＨＵＯＮＧ　ＶＩＥＴＦＯＯＤ合同会社,,合同会社,大阪府,大阪市西成区,鶴見橋３丁目６番２７号,,27,122,5570031,,,,,,,2024-02-01,1,,,,,ダンフォンベトフード,0
626,3120003025822,新規,0,2024-02-01,2024-02-01,合同会社７ＷＥＳＴ,,合同会社,大阪府,大阪市北区,曾根崎新地１丁目６番１０号センチュリービル２Ｆ,,27,127,5300002,,,,,,,2024-02-01,1,,,,,セブンウェスト,0
643,3140001133162,新規,0,2024-02-01,2024-02-01,株式会社ケーアンドエム・コミュニティー,,株式会社,兵庫県,神戸市中央区,中山手通１丁目７番３号サントモビル地下１階,,28,110,6500004,,,,,,,2024-02-01,1,,,,,ケーアンドエムコミュニティー,0
647,3140005026932,新規,0,2024-02-01,2024-02-01,労働者協同組合甲南げんき村,,その他の設立登記法人,兵庫県,神戸市東灘区,田中町１丁目１５番１９－４０４号,,28,101,6580081,,,,,,,2024-02-01,1,,,,,コウナンゲンキムラ,0
651,3180005020502,新規,0,2024-02-01,2024-02-01,一般社団法人ＰＤＩＣキャリア,,その他の設立登記法人,愛知県,春日井市,勝川町２丁目１２－１３フォレスト勝川４０３,,23,206,4860945,,,,,,,2024-02-01,1,,,,,ピーディアイシーキャリア,0
652,3180301038289,新規,0,2024-02-01,2024-02-01,株式会社就研社,,株式会社,愛知県,岡崎市,矢作町字西林寺９３番地５グラート岡崎８０２,,23,202,4440943,,,,,,,2024-02-01,1,,,,,シュウケンシャ,0
654,3190001031072,新規,0,2024-02-01,2024-02-01,コジマファーム株式会社,,株式会社,三重県,亀山市,野村町１８３８番地,,24,210,5190146,,,,,,,2024-02-01,1,,,,,コジマファーム,0
671,3250003003427,新規,0,2024-02-01,2024-02-01,合同会社ＡＴＴＲＡＣＴ,,合同会社,山口県,山口市,吉田２７３９－１－Ｂ２０１,,35,203,7530841,,,,,,,2024-02-01,1,,,,,アトラクト,0
672,3260001038721,新規,0,2024-02-01,2024-02-01,株式会社カワハラカンパニー,,株式会社,岡山県,岡山市北区,富原１１７３番地７,,33,101,7011153,,,,,,,2024-02-01,1,,,,,カワハラカンパニー,0
684,3290801030263,新規,0,2024-02-01,2024-02-01,株式会社Ｅ．Ｌ．Ｔ,,株式会社,福岡県,直方市,大字下境３３２１番地１,,40,204,8220007,,,,,,,2024-02-01,1,,,,,イーエルティー,0
686,3310003004716,新規,0,2024-02-01,2024-02-01,合同会社ＲＡＹＡＳ,,合同会社,長崎県,長崎市,曙町３１番２４号サンフラワー２０１,,42,201,8528008,,,,,,,2024-02-01,1,,,,,レイアス,0
689,3320003004285,新規,0,2024-02-01,2024-02-01,合同会社Ｂｒｉｌｌｉａｎｔ,,合同会社,大分県,中津市,大字大新田８１１番地１サンパーク大新田１２号室,,44,203,8710001,,,,,,,2024-02-01,1,,,,,,0
696,3360001033142,新規,0,2024-02-01,2024-02-01,ＢＬＡＮＸ株式会社,,株式会社,沖縄県,那覇市,松尾２丁目１２－２－２Ｆ,,47,201,9000014,,,,,,,2024-02-01,1,,,,,ブランクス,0
697,3360003013670,新規,0,2024-02-01,2024-02-01,合同会社クレスト,,合同会社,沖縄県,浦添市,屋富祖１丁目９番１－３０２号みやぎマンション,,47,208,9012127,,,,,,,2024-02-01,1,,,,,クレスト,0
715,3430001090985,新規,0,2024-02-01,2024-02-01,株式会社ワタナベ運輸,,株式会社,北海道,札幌市白石区,中央二条３丁目１番５３号三晃ビル１階,,01,104,0030012,,,,,,,2024-02-01,1,,,,,ワタナベウンユ,0
725,3700150117751,新規,0,2024-02-01,2024-02-01,ｓｈｅｎｙａｎｇｚｉｍａｏｔｏｕｚｉｆａｚｈａｎｙｏｕｘｉａｎｇｏｎｇｓｉ,,外国会社等,,,,,,,,ｚｉｙｏｕｍａｏｙｉｓｈｉｙａｎｑｕｓｈｅｎｙａｎｇｐｉａｎｑｕｃｈｕａｎｇｘｉｎｅｒｌｕ３９－２ｈａｏｌｉａｏｎｉｎｇ,,,,,,2024-02-01,1,,,,,シェンヤンズマオトウズファーチャンヨウシエンゴンス,0
733,4010001241943,新規,0,2024-02-01,2024-02-01,株式会社ＲｉｓｅＭｏｔｉｏｎ,,株式会社,東京都,中央区,銀座１丁目２２番１１号銀座大竹ビジデンス２Ｆ,,13,102,1040061,,,,,,,2024-02-01,1,,,,,ライズモーション,0
743,4010401180056,新規,0,2024-02-01,2024-02-01,株式会社サマリーボード,,株式会社,東京都,港区,南青山３丁目１番３６号青山丸竹ビル６Ｆ,,13,103,1070062,,,,,,,2024-02-01,1,,,,,サマリーボード,0
744,4010401180080,新規,0,2024-02-01,2024-02-01,株式会社スタジオ南風,,株式会社,東京都,港区,白金６丁目１２番２６号,,13,103,1080072,,,,,,,2024-02-01,1,,,,,スタジオナンプウ,0
746,4010403031835,新規,0,2024-02-01,2024-02-01,ＫＦＯ合同会社,,合同会社,東京都,港区,北青山１丁目３番１号アールキューブ青山３階,,13,103,1070061,,,,,,,2024-02-01,1,,,,,ケイエフオー,0
747,4010403031868,新規,0,2024-02-01,2024-02-01,合同会社ＡＳＢ,,合同会社,東京都,港区,南青山６丁目６番２２号ルナロッサ南青山３Ｆ,,13,103,1070062,,,,,,,2024-02-01,1,,,,,エーエスビー,0
748,4010403031876,新規,0,2024-02-01,2024-02-01,ＢＥＮｉＫＵＲＡ　Ｈｏｌｄｉｎｇｓ合同会社,,合同会社,東京都,港区,南青山３丁目１番３６号青山丸竹ビル６Ｆ,,13,103,1070062,,,,,,,2024-02-01,1,,,,,ベニクラホールディングス,0
751,4010601064570,新規,0,2024-02-01,2024-02-01,株式会社ＮＡＴＴＯＳＹＳＴＥＭ,,株式会社,東京都,江東区,豊洲６丁目２番３１－１９１７号,,13,108,1350061,,,,,,,2024-02-01,1,,,,,ナットシステム,0
758,4010801034745,新規,0,2024-02-01,2024-02-01,日本景賢株式会社,,株式会社,東京都,大田区,東海３丁目７－３東海ビル３０７室,,13,111,1430001,,,,,,,2024-02-01,1,,,,,ニホンケイケン,0
766,4011001159713,新規,0,2024-02-01,2024-02-01,ＰＯＲＴＲＥＰ株式会社,,株式会社,東京都,渋谷区,道玄坂１丁目１０－８,,13,113,1500043,,,,,,,2024-02-01,1,,,,,ポートレップ,0
767,4011001159762,新規,0,2024-02-01,2024-02-01,株式会社ＮＥＷＢＯＡＴ,,株式会社,東京都,渋谷区,恵比寿西２丁目８番４号,,13,113,1500021,,,,,,,2024-02-01,1,,,,,ニューボート,0
768,4011001159770,新規,0,2024-02-01,2024-02-01,株式会社ＮＯ　ＭＯＲＥ,,株式会社,東京都,渋谷区,恵比寿西２丁目４番８号ウィンド恵比寿ビル８Ｆ,,13,113,1500021,,,,,,,2024-02-01,1,,,,,ノーモア,0
773,4011401025820,新規,0,2024-02-01,2024-02-01,株式会社脳活堂,,株式会社,東京都,板橋区,三園１丁目３１－２１－２０５,,13,119,1750091,,,,,,,2024-02-01,1,,,,,ノウカツドウ,0
774,4011601027492,新規,0,2024-02-01,2024-02-01,株式会社ＯＫＡＷＡＲＡ,,株式会社,東京都,練馬区,西大泉６丁目１３番７号,,13,120,1780065,,,,,,,2024-02-01,1,,,,,オカワラ,0
775,4011701026980,新規,0,2024-02-01,2024-02-01,株式会社ｉｉｙｏ,,株式会社,東京都,江戸川区,新堀１丁目２１番１５－７０１号,,13,123,1320001,,,,,,,2024-02-01,1,,,,,イイヨ,0
779,4011803006063,新規,0,2024-02-01,2024-02-01,テクノリボン合同会社,,合同会社,東京都,葛飾区,西亀有２丁目４４番１２号,,13,122,1240002,,,,,,,2024-02-01,1,,,,,テクノリボン,0
789,4020001155572,新規,0,2024-02-01,2024-02-01,株式会社Ｃａｎｏｐｕｓ,,株式会社,神奈川県,川崎市幸区,大宮町２８番地２－２３０２,,14,132,2120014,,,,,,,2024-02-01,1,,,,,カノープス,0
790,4020001155606,新規,0,2024-02-01,2024-02-01,株式会社Ｄｅｃｉｐｈｅｒ,,株式会社,神奈川県,横浜市西区,北幸１丁目１１番１号水信ビル７階,,14,103,2200004,,,,,,,2024-02-01,1,,,,,ディサイファー,0
794,4020003025468,新規,0,2024-02-01,2024-02-01,ＷＩＬＤＳＴＡＲ合同会社,,合同会社,神奈川県,横浜市鶴見区,佃野町２２－１３ドミール鶴見６０７,,14,101,2300061,,,,,,,2024-02-01,1,,,,,ワイルドスター,0
796,4021001081354,新規,0,2024-02-01,2024-02-01,株式会社Ｔｏｔａｌ　Ｇｒａｃｅ,,株式会社,神奈川県,小田原市,飯田岡１５７番地,,14,206,2500854,,,,,,,2024-02-01,1,,,,,トータルグレイス,0
805,4030001158459,新規,0,2024-02-01,2024-02-01,株式会社Ｃｏｌｄ　Ｂｒｅｗ,,株式会社,埼玉県,さいたま市浦和区,木崎４丁目１６番９号サンパーク木崎１Ｆ,,11,107,3300042,,,,,,,2024-02-01,1,,,,,コールドブリュー,0
808,4030003023479,新規,0,2024-02-01,2024-02-01,合同会社小熊,,合同会社,埼玉県,草加市,住吉１丁目１０－３５グローリア初穂２０５,,11,221,3400014,,,,,,,2024-02-01,1,,,,,コグマ,0
809,4030003023504,新規,0,2024-02-01,2024-02-01,仁和合同会社,,合同会社,埼玉県,熊谷市,弥藤吾１６０－６三合ビル２０４号室,,11,202,3600203,,,,,,,2024-02-01,1,,,,,ニンワ,0
810,4030003023512,新規,0,2024-02-01,2024-02-01,合同会社ｏｆｆｉｃｅ藏,,合同会社,埼玉県,さいたま市緑区,大字大門１１７８番地３コーポラス中田１－１０２号,,11,109,3360963,,,,,,,2024-02-01,1,,,,,オフィスクラ,0
814,4040001131910,新規,0,2024-02-01,2024-02-01,株式会社Ｃ‐ｔｅｃｈ,,株式会社,千葉県,市川市,北国分１丁目２８番１９号,,12,203,2720836,,,,,,,2024-02-01,1,,,,,シーテック,0
815,4040001131984,新規,0,2024-02-01,2024-02-01,株式会社ＦＬＯＷＥＲＳ,,株式会社,千葉県,千葉市中央区,祐光４丁目２－２７,,12,101,2600007,,,,,,,2024-02-01,1,,,,,フラワーズ,0
825,4050003008115,新規,0,2024-02-01,2024-02-01,ＴＯＫＹＯ　ＤＡＩＩＣＨＩ　ＡＵＴＯ合同会社,,合同会社,茨城県,猿島郡境町,大字長井戸１７１番地６,,08,546,3060404,,,,,,,2024-02-01,1,,,,,トウキョウダイイチオート,0
826,4060001036785,新規,0,2024-02-01,2024-02-01,ＬＥＭＯＮ株式会社,,株式会社,栃木県,那須郡那須町,大字高久甲５４５１番地１７,,09,407,3250001,,,,,,,2024-02-01,1,,,,,レモン,0
852,4120001261773,新規,0,2024-02-01,2024-02-01,株式会社ライツウィングス,,株式会社,大阪府,大阪市鶴見区,諸口５丁目５番１号スタジオライツ１Ｆ,,27,124,5380051,,,,,,,2024-02-01,1,,,,,ライツウィングス,0
853,4120001261815,新規,0,2024-02-01,2024-02-01,第二世界株式会社,,株式会社,大阪府,大阪市西区,靱本町１丁目１５番１０－５０６号,,27,106,5500004,,,,,,,2024-02-01,1,,,,,ダイニセカイ,0
854,4120001261823,新規,0,2024-02-01,2024-02-01,株式会社福重建築,,株式会社,大阪府,大阪市北区,中津２丁目３－３,,27,127,5310071,,,,,,,2024-02-01,1,,,,,フクシゲケンチク,0
855,4120001261872,新規,0,2024-02-01,2024-02-01,佳和株式会社,,株式会社,大阪府,大阪市住之江区,安立２丁目１０番１４号三坂ビル３０７号室,,27,125,5590003,,,,,,,2024-02-01,1,,,,,ヨシカズ,0
856,4120001261880,新規,0,2024-02-01,2024-02-01,株式会社Ｒｅｂｒｉｇｈｔ,,株式会社,大阪府,大阪市西区,南堀江１丁目２１番５号８０２,,27,106,5500015,,,,,,,2024-02-01,1,,,,,リブライト,0
857,4120003025821,新規,0,2024-02-01,2024-02-01,日本天風松合同会社,,合同会社,大阪府,大阪市中央区,日本橋１丁目１６番３－１０１号,,27,128,5420073,,,,,,,2024-02-01,1,,,,,ニホンテンフウマツ,0
863,4120101068986,新規,0,2024-02-01,2024-02-01,株式会社ＳＯ．Ｌ,,株式会社,大阪府,岸和田市,堺町２－１２ＳＡＫＡＥＢＬＤ４０２,,27,202,5960072,,,,,,,2024-02-01,1,,,,,ソエル,0
866,4120901048709,新規,0,2024-02-01,2024-02-01,ＴＲＩＤＥＮＴ株式会社,,株式会社,大阪府,豊中市,螢池中町２丁目３番１－２０６号,,27,203,5600033,,,,,,,2024-02-01,1,,,,,トライデント,0
878,4130001076262,新規,0,2024-02-01,2024-02-01,盛京交通株式会社,,株式会社,京都府,京都市南区,西九条蔵王町１１,,26,107,6018414,,,,,,,2024-02-01,1,,,,,セイキョウコウツウ,0
882,4140001133161,新規,0,2024-02-01,2024-02-01,株式会社Ｄ．Ｋ,,株式会社,兵庫県,伊丹市,中野北２丁目１０番３４－２０４号,,28,207,6640029,,,,,,,2024-02-01,1,,,,,ディードットケー,0
898,4220001025805,新規,0,2024-02-01,2024-02-01,Ｒａｙ株式会社,,株式会社,石川県,金沢市,神田２丁目３番１号,,17,201,9218027,,,,,,,2024-02-01,1,,,,,レイ,0
909,4260001038720,新規,0,2024-02-01,2024-02-01,株式会社瀬戸内フーズ,,株式会社,岡山県,岡山市中区,湊１９６番地６,,33,102,7038266,,,,,,,2024-02-01,1,,,,,セトウチフーズ,0
913,4290801030262,新規,0,2024-02-01,2024-02-01,株式会社ＡＮＪＩＮ,,株式会社,福岡県,北九州市八幡西区,小嶺台２丁目７番５号,,40,109,8070082,,,,,,,2024-02-01,1,,,,,アンジン,0
914,4310001018840,新規,0,2024-02-01,2024-02-01,さむらい株式会社,,株式会社,長崎県,諫早市,永昌東町８－１０,,42,204,8540071,,,,,,,2024-02-01,1,,,,,サムライ,0
916,4340001026254,新規,0,2024-02-01,2024-02-01,株式会社アイアン工房ＮＯＡＨ,,株式会社,鹿児島県,鹿児島市,下福元町６９６５番地,,46,201,8910144,,,,,,,2024-02-01,1,,,,,アイアンコウボウノア,0
920,4360001033141,新規,0,2024-02-01,2024-02-01,株式会社ｍＴｍ２３,,株式会社,沖縄県,宮古島市,平良字東仲宗根１７５番地２、２Ｆ,,47,214,9060007,,,,,,,2024-02-01,1,,,,,エムティエム,0
922,4360003013570,新規,0,2024-02-01,2024-02-01,合同会社Ｌｅｐｕｓ,,合同会社,沖縄県,那覇市,久米１丁目８番７号,,47,201,9000033,,,,,,,2024-02-01,1,,,,,レプス,0
928,4380003005673,新規,0,2024-02-01,2024-02-01,合同会社ＳＵＮ,,合同会社,福島県,郡山市,大町２丁目５番１４号大町第２阿部ビル５０１,,07,203,9638001,,,,,,,2024-02-01,1,,,,,サン,0
932,4400005008390,新規,0,2024-02-01,2024-02-01,医療法人未央会,,その他の設立登記法人,岩手県,北上市,柳原町５丁目１２番９号,,03,206,0240083,,,,,,,2024-02-01,1,,,,,ミオウカイ,0
937,4430001090984,新規,0,2024-02-01,2024-02-01,株式会社大塚了一商店,,株式会社,北海道,札幌市中央区,南五条東３丁目６番地,,01,101,0600055,,,,,,,2024-02-01,1,,,,,オオツカリョウイチショウテン,0
946,4700150117882,新規,0,2024-02-01,2024-02-01,Ｓｈｅｎｚｈｅｎ　Ａｉｒｕｉｓｅｎ　Ｉｎｔｅｌｌｉｇｅｎｔ　Ｔｅｃｈｎｏｌｏｇｙ　Ｃｏ．，ＬＴＤ,,外国会社等,,,,,,,,Ｓｈａｊｉｎｇ　Ｓｔｒｅｅｔ　Ｄｏｎｇｈｕａｎ　Ｒｏａｄ　Ｎｏ．４６　Ｄａｈｅ　Ｉｎｄｕｓｔｒｉａｌ　Ｂａｏａｎ　Ｄｉｓｔｒｉｃｔ　Ｓｈｅｎｚｈｅｎ，Ｇｕａｎｇｄｏｎｇ　Ｐｒｏｖｉｎｃｅ　５１８０００　ＣＮ,,,,,,2024-02-01,1,,,,,シェンジェンアイルイセンインテリジェントテクノロジーカンパニーリミテッド,0
947,4700150123740,新規,0,2024-02-01,2024-02-01,多摩川住宅二棟団地マンション建替組合,,その他,東京都,狛江市,西和泉２丁目７－１０８,,13,219,2010011,,,,,,,2024-02-01,1,,,,,タマガワジユウタクニトウダンチマンシヨンタテカエクミアイ,0
959,5010001241819,新規,0,2024-02-01,2024-02-01,株式会社スマイルプロアート,,株式会社,東京都,中央区,日本橋室町１丁目１１番１２号日本橋水野ビル７階,,13,102,1030022,,,,,,,2024-02-01,1,,,,,スマイルプロアート,0
960,5010001241942,新規,0,2024-02-01,2024-02-01,株式会社千帆,,株式会社,東京都,千代田区,六番町３－１グランフォルム六番町４０７号,,13,101,1020085,,,,,,,2024-02-01,1,,,,,センハン,0
961,5010001241950,新規,0,2024-02-01,2024-02-01,株式会社ＢＯＮ,,株式会社,東京都,中央区,銀座１丁目２２番１１号銀座大竹ビジデンス２Ｆ,,13,102,1040061,,,,,,,2024-02-01,1,,,,,ボン,0
965,5010003042793,新規,0,2024-02-01,2024-02-01,合同会社日本地域創生エナジー,,合同会社,東京都,中央区,日本橋本町４丁目８番１６号千城ビル９階,,13,102,1030023,,,,,,,2024-02-01,1,,,,,ニホンチイキソウセイエナジー,0
966,5010003042835,新規,0,2024-02-01,2024-02-01,合同会社Ａｃｅｓ,,合同会社,東京都,文京区,千駄木４丁目６番４号ルミエールメゾン千駄木２０５,,13,105,1130022,,,,,,,2024-02-01,1,,,,,エーシーズ,0
967,5010005037825,新規,0,2024-02-01,2024-02-01,一般社団法人Ｇｌｏｂａｌ　Ｓｔｕｄｙ　Ｓｕｐｐｏｒｔ,,その他の設立登記法人,東京都,文京区,千石３丁目１３番１１号,,13,105,1120011,,,,,,,2024-02-01,1,,,,,グローバルスタディサポート,0
972,5010401180055,新規,0,2024-02-01,2024-02-01,株式会社Ｓｔａｒ　Ｂａｓｈ,,株式会社,東京都,港区,六本木６丁目８番２９号５０７号室,,13,103,1060032,,,,,,,2024-02-01,1,,,,,,0
976,5010403031834,新規,0,2024-02-01,2024-02-01,合同会社Ｗｉｎｓｔａｒ．,,合同会社,東京都,港区,南青山３丁目１番３６号青山丸竹ビル６Ｆ,,13,103,1070062,,,,,,,2024-02-01,1,,,,,ウィンスター,0
977,5010403031859,新規,0,2024-02-01,2024-02-01,合同会社トレック・ネプチューン,,合同会社,東京都,港区,赤坂７丁目６番１５号,,13,103,1070052,,,,,,,2024-02-01,1,,,,,,0
986,5010701045503,新規,0,2024-02-01,2024-02-01,トータリゼータカスタマサービス株式会社,,株式会社,東京都,品川区,南大井６丁目２０番１４号,,13,109,1400013,,,,,,,2024-02-01,1,,,,,トータリゼータカスタマサービス,0
988,5010703007039,新規,0,2024-02-01,2024-02-01,合同会社天婦羅割烹田崎,,合同会社,東京都,品川区,中延２丁目８番１４号,,13,109,1420053,,,,,,,2024-02-01,1,,,,,テンプラカッポウタサキ,0
994,5010903008778,新規,0,2024-02-01,2024-02-01,合同会社Ｂｌｕｅ　Ｏｃｅａｎ,,合同会社,東京都,世田谷区,北沢３丁目３４番１０号エルファーロ下北沢３０４,,13,112,1550031,,,,,,,2024-02-01,1,,,,,ブルーオーシャン,0
1001,5011001159745,新規,0,2024-02-01,2024-02-01,株式会社ＯＳＧ,,株式会社,東京都,渋谷区,広尾５丁目１７番１０号ＥａｓｔＷｅｓｔビルＢ１Ｆ－Ｂ,,13,113,1500012,,,,,,,2024-02-01,1,,,,,オーエスジー,0
1005,5011101106028,新規,0,2024-02-01,2024-02-01,株式会社Ｍｏｂｉｌｌｅｔ,,株式会社,東京都,新宿区,西新宿３丁目２番９号新宿ワシントンホテルビル本館,,13,104,1600023,,,,,,,2024-02-01,1,,,,,モビレット,0
1006,5011105010928,新規,0,2024-02-01,2024-02-01,一般社団法人Ｌｉｂｒａ　ｓｕｓｕ,,その他の設立登記法人,東京都,新宿区,下宮比町２番２８号飯田橋ハイタウン１１２７号室,,13,104,1620822,,,,,,,2024-02-01,1,,,,,リブラスス,0
1007,5011201025219,新規,0,2024-02-01,2024-02-01,ＹＪＣ株式会社,,株式会社,東京都,中野区,中野２丁目１９番２号リードシー中野ビル３Ｆ,,13,114,1640001,,,,,,,2024-02-01,1,,,,,ワイジェイシー,0
1009,5011401025811,新規,0,2024-02-01,2024-02-01,ＦＲＳ株式会社,,株式会社,東京都,板橋区,泉町４番４号佐野ハイム２０２号,,13,119,1740055,,,,,,,2024-02-01,1,,,,,,0
1022,5020001155605,新規,0,2024-02-01,2024-02-01,富士石材株式会社,,株式会社,神奈川県,横浜市戸塚区,汲沢町９７２番地１秋元ハイツ１階,,14,110,2450062,,,,,,,2024-02-01,1,,,,,フジセキザイ,0
1040,5030001158409,新規,0,2024-02-01,2024-02-01,株式会社Ｍ’ｓ　ｃｒｅｗ,,株式会社,埼玉県,さいたま市緑区,大字南部領辻３２０４番地１ＰＲＯＳＰＥＲ－ＯＮＥ－Ｗ．Ｏ－２０５,00133585,11,109,3360973,,,,,,,2024-02-01,1,,,,,エムズクルー,0
1041,5030001158417,新規,0,2024-02-01,2024-02-01,株式会社エコ電,,株式会社,埼玉県,川口市,中青木３丁目２１番１３号,,11,203,3320032,,,,,,,2024-02-01,1,,,,,エコデン,0
1042,5030001158425,新規,0,2024-02-01,2024-02-01,株式会社ネイビー,,株式会社,埼玉県,本庄市,小島南１丁目１０番７号,,11,211,3670062,,,,,,,2024-02-01,1,,,,,ネイビー,0
1043,5030001158433,新規,0,2024-02-01,2024-02-01,株式会社ＧＲＡＣＥ,,株式会社,埼玉県,富士見市,関沢２丁目２５番４６号,,11,235,3540025,,,,,,,2024-02-01,1,,,,,グレース,0
1044,5030001158441,新規,0,2024-02-01,2024-02-01,株式会社ＡＳＰ,,株式会社,埼玉県,朝霞市,本町１丁目８番７号錦谷ビル２Ｆ,,11,227,3510011,,,,,,,2024-02-01,1,,,,,エーエスピー,0
1046,5030003023503,新規,0,2024-02-01,2024-02-01,合同会社ＥＵＧＥＮＥ,,合同会社,埼玉県,さいたま市見沼区,大字中川６１６－８,,11,104,3370043,,,,,,,2024-02-01,1,,,,,ユージーン,0
1047,5030003023528,新規,0,2024-02-01,2024-02-01,合同会社美仙子産業,,合同会社,埼玉県,さいたま市北区,宮原町３丁目３５９,,11,102,3310812,,,,,,,2024-02-01,1,,,,,シセンコウサンギョウ,0
1048,5030003023536,新規,0,2024-02-01,2024-02-01,合同会社ＭＡＳＡＫＯ,,合同会社,埼玉県,草加市,氷川町４８６番地９,,11,221,3400034,,,,,,,2024-02-01,1,,,,,マサコ,0
1049,5030003023544,新規,0,2024-02-01,2024-02-01,合同会社Ｎｏａ,,合同会社,埼玉県,さいたま市浦和区,皇山町７番１６号,,11,107,3300045,,,,,,,2024-02-01,1,,,,,ノア,0
1056,5040001131983,新規,0,2024-02-01,2024-02-01,株式会社ＯＳＧ,,株式会社,千葉県,松戸市,馬橋１８９０番地の７モンシャトー松戸１１０２号,,12,207,2710051,,,,,,,2024-02-01,1,,,,,オーエスジー,0
1059,5040003024203,新規,0,2024-02-01,2024-02-01,合同会社Ｅｎ‐Ｆｏｒｗａｒｄ,,合同会社,千葉県,船橋市,本中山４丁目１６番８号,,12,204,2730035,,,,,,,2024-02-01,1,,,,,エンフォワード,0
1060,5040003024236,新規,0,2024-02-01,2024-02-01,合同会社ステップアップ,,合同会社,千葉県,市原市,五井東１丁目９番地１１,,12,219,2900055,,,,,,,2024-02-01,1,,,,,ステップアップ,0
1062,5050001054201,新規,0,2024-02-01,2024-02-01,タケゾノ・プラス株式会社,,株式会社,茨城県,つくば市,竹園２丁目１０番地１５,,08,220,3050032,,,,,,,2024-02-01,1,,,,,タケゾノプラス,0
1069,5090001018524,新規,0,2024-02-01,2024-02-01,株式会社やまなしフレキシビリティカンパニー,,株式会社,山梨県,甲府市,丸の内１丁目６番１号,,19,201,4000031,,,,,,,2024-02-01,1,,,,,ヤマナシフレキシビリティカンパニー,0
1071,5100003007382,新規,0,2024-02-01,2024-02-01,合同会社奥事務所,,合同会社,長野県,上田市,常田１丁目４番９号メゾン２１駅南４０７号,,20,203,3860018,,,,,,,2024-02-01,1,,,,,オクジムショ,0
1073,5100005013115,新規,0,2024-02-01,2024-02-01,一般社団法人上田市防災支援協会,,その他の設立登記法人,長野県,上田市,御所６０６番地１,,20,203,3860033,,,,,,,2024-02-01,1,,,,,ウエダシボウサイシエンキョウカイ,0
1095,5120001261772,新規,0,2024-02-01,2024-02-01,株式会社Ａｌｗａｙｓ　Ａｌｏｈａ　Ｊａｐａｎ,,株式会社,大阪府,大阪市中央区,日本橋１丁目４番１２号クリスタルエグゼ日本橋７０７号室,,27,128,5420073,,,,,,,2024-02-01,1,,,,,オールウェイズアロハジャパン,0
1096,5120001261871,新規,0,2024-02-01,2024-02-01,森島株式会社,,株式会社,大阪府,大阪市住之江区,安立２丁目１０番１４号三坂ビル１０１号室,,27,125,5590003,,,,,,,2024-02-01,1,,,,,モリシマ,0
1097,5120003025853,新規,0,2024-02-01,2024-02-01,プライベートアセットマネージメント合同会社,,合同会社,大阪府,大阪市西淀川区,千舟２丁目６‐３０‐２０２,,27,113,5550013,,,,,,,2024-02-01,1,,,,,プライベートアセットマネージメント,0
1098,5120101068993,新規,0,2024-02-01,2024-02-01,株式会社サムライ,,株式会社,大阪府,堺市南区,高倉台４丁１８番８号,,27,145,5900117,,,,,,,2024-02-01,1,,,,,サムライ,0
1099,5120101069001,新規,0,2024-02-01,2024-02-01,株式会社サンプリント,,株式会社,大阪府,泉大津市,河原町１番１５号,,27,206,5950044,,,,,,,2024-02-01,1,,,,,サンプリント,0
1107,5130003009269,新規,0,2024-02-01,2024-02-01,合同会社Ｍ’ｓ　Ｂｌｕｅ,,合同会社,京都府,京都市上京区,宮垣町９１番地１０２,,26,102,6020853,,,,,,,2024-02-01,1,,,,,エムズブルー,0
1109,5140001133177,新規,0,2024-02-01,2024-02-01,株式会社京樂,,株式会社,兵庫県,川西市,緑台３丁目５番地の７７,,28,217,6660129,,,,,,,2024-02-01,1,,,,,キョウラク,0
1114,5180005020500,新規,0,2024-02-01,2024-02-01,一般社団法人ＭＹＡＮＭＡＲ　ＢＵＤＤＨＩＳＴ　ＵＮＩＴＹ,,その他の設立登記法人,愛知県,名古屋市中川区,万場５丁目４２６番地,,23,110,4540997,,,,,,,2024-02-01,1,,,,,ミャンマーブディストユニティー,0
1116,5190001031070,新規,0,2024-02-01,2024-02-01,株式会社ＲＩＳＥマート,,株式会社,三重県,亀山市,椿世町５７７番地１１,,24,210,5190104,,,,,,,2024-02-01,1,,,,,ライズマート,0
1144,5340001026253,新規,0,2024-02-01,2024-02-01,株式会社鹿家,,株式会社,鹿児島県,鹿屋市,小野原町１７０１番地,,46,203,8912312,,,,,,,2024-02-01,1,,,,,シカヤ,0
1149,5370001050894,新規,0,2024-02-01,2024-02-01,株式会社瀧さわ家,,株式会社,宮城県,宮城郡利府町,赤沼字浜田１００番地８３,,04,406,9810101,,,,,,,2024-02-01,1,,,,,タキサワヤ,0
1151,5380001034277,新規,0,2024-02-01,2024-02-01,株式会社リーフ,,株式会社,福島県,福島市,笹木野字内畑１８番地の２サンステージ笹木野３－Ａ,,07,201,9608057,,,,,,,2024-02-01,1,,,,,リーフ,0
1158,5430001090983,新規,0,2024-02-01,2024-02-01,株式会社ＫＯＵＫＩ,,株式会社,北海道,虻田郡倶知安町,北七条東７丁目１番地３４,,01,400,0440007,,,,,,,2024-02-01,1,,,,,コウキ,0
1159,5430001090991,新規,0,2024-02-01,2024-02-01,株式会社ｎａｍｉｍａｃｈｉ,,株式会社,北海道,札幌市北区,あいの里二条１丁目６番２１号,,01,102,0028072,,,,,,,2024-02-01,1,,,,,ナミマチ,0
1162,5430003015906,新規,0,2024-02-01,2024-02-01,合同会社ｆｌｅｘｃｉｅｌ,,合同会社,北海道,札幌市北区,北七条西４丁目１番１号トーカン札幌第一キャステール６０７,,01,102,0600807,,,,,,,2024-02-01,1,,,,,フレキシエル,0
1165,5450005004392,新規,0,2024-02-01,2024-02-01,行政書士法人加藤事務所,,その他の設立登記法人,北海道,旭川市,四条通２３丁目１１８番地２３,,01,204,0788214,,,,,,,2024-02-01,1,,,,,,0
1166,5460001005864,新規,0,2024-02-01,2024-02-01,株式会社Ｊ‐ＦＩＥＬＤ,,株式会社,北海道,釧路市,愛国西３丁目１番１５号,,01,206,0850057,,,,,,,2024-02-01,1,,,,,ジェイフィールド,0
1169,5480003002081,新規,0,2024-02-01,2024-02-01,スカットジャパン合同会社,,合同会社,徳島県,徳島市,国府町観音寺３２４番地,,36,201,7793123,,,,,,,2024-02-01,1,,,,,スカットジャパン,0
1172,5700150123442,新規,0,2024-02-01,2024-01-19,喜入スポーツクラブ,,その他,鹿児島県,鹿児島市,喜入町６１６６－３,,46,201,8910203,,,,,,,2024-01-19,1,,,,,キイレスポーツクラブ,0
1185,6010001241842,新規,0,2024-02-01,2024-02-01,クリーフワールド株式会社,,株式会社,東京都,中央区,銀座１丁目２２番１１号銀座大竹ビジデンス２Ｆ,,13,102,1040061,,,,,,,2024-02-01,1,,,,,クリーフワールド,0
1186,6010003042792,新規,0,2024-02-01,2024-02-01,波音合同会社,,合同会社,東京都,大島町,差木地１番地,,13,361,1000211,,,,,,,2024-02-01,1,,,,,ナミオト,0
1194,6010401180095,新規,0,2024-02-01,2024-02-01,マインドマーケティング株式会社,,株式会社,東京都,港区,新橋２丁目２０－１５新橋駅前ビル１号館５０９－１,,13,103,1050004,,,,,,,2024-02-01,1,,,,,マインドマーケティング,0
1195,6010401180120,新規,0,2024-02-01,2024-02-01,ジャパン・グロース・アドバイザーズ株式会社,,株式会社,東京都,港区,愛宕１丁目１番１号１３０８,,13,103,1050002,,,,,,,2024-02-01,1,,,,,ジャパングロースアドバイザーズ,0
1202,6010403031866,新規,0,2024-02-01,2024-02-01,合同会社ＮＲａｐｏｎｄ,,合同会社,東京都,港区,新橋５丁目３２番７号,,13,103,1050004,,,,,,,2024-02-01,1,,,,,ラポンド,0
1219,6010903008785,新規,0,2024-02-01,2024-02-01,合同会社オフィス川畑,,合同会社,東京都,世田谷区,南烏山１丁目９番２０号つばきハイツ１０２,,13,112,1570062,,,,,,,2024-02-01,1,,,,,オフィスカワバタ,0
1222,6011001159612,新規,0,2024-02-01,2024-02-01,ピスティ株式会社,,株式会社,東京都,渋谷区,道玄坂１丁目１０番８号渋谷道玄坂東急ビル２Ｆ－Ｃ,,13,113,1500043,,,,,,,2024-02-01,1,,,,,ピスティ,0
1223,6011001159686,新規,0,2024-02-01,2024-02-01,株式会社Ａｎｃｏｒ,,株式会社,東京都,渋谷区,道玄坂１丁目１０番８号渋谷道玄坂東急ビル２Ｆ－Ｃ,,13,113,1500043,,,,,,,2024-02-01,1,,,,,アンカー,0
1224,6011001159744,新規,0,2024-02-01,2024-02-01,株式会社Ｃ．Ａ．Ｐ．Ｓ,,株式会社,東京都,渋谷区,神宮前６丁目２３番４号桑野ビル２階,,13,113,1500001,,,,,,,2024-02-01,1,,,,,シーエーピーエス,0
1225,6011001159752,新規,0,2024-02-01,2024-02-01,株式会社ＣＡＲＲＹ,,株式会社,東京都,目黒区,東山２丁目５番１７号セントフランシス東山３０５,,13,110,1530043,,,,,,,2024-02-01,1,,,,,キャリー,0
1232,6011101106035,新規,0,2024-02-01,2024-02-01,株式会社ＦＵＫＵＳＡＩ,,株式会社,東京都,新宿区,市谷船河原町１１番地飯田橋レインボービル６階,,13,104,1620826,,,,,,,2024-02-01,1,,,,,フクサイ,0
1233,6011101106051,新規,0,2024-02-01,2024-02-01,株式会社Ｖｌａｔａｃｏｍ,,株式会社,東京都,新宿区,西新宿２丁目２番１号京王プラザホテル４１２７,,13,104,1600023,,,,,,,2024-02-01,1,,,,,ブラタコム,0
1234,6011103014054,新規,0,2024-02-01,2024-02-01,合同会社Ｓ５Ｃｒｅａｔｉｏｎ,,合同会社,東京都,新宿区,市谷仲之町３－４５－３０３,,13,104,1620064,,,,,,,2024-02-01,1,,,,,エスファイブクリエーション,0
1237,6011501030272,新規,0,2024-02-01,2024-02-01,博思未来株式会社,,株式会社,東京都,荒川区,荒川３丁目８－５,,13,118,1160002,,,,,,,2024-02-01,1,,,,,ハクシミライ,0
1238,6011603004232,新規,0,2024-02-01,2024-02-01,ｐｒｉｃｅｌｅｓｓｗｏｒｋｓ合同会社,,合同会社,東京都,練馬区,平和台３丁目１５番１２号,,13,120,1790083,,,,,,,2024-02-01,1,,,,,プライスレスワークス,0
1240,6011701026987,新規,0,2024-02-01,2024-02-01,株式会社メイワ,,株式会社,東京都,江戸川区,本一色１丁目５番１６号,,13,123,1330044,,,,,,,2024-02-01,1,,,,,メイワ,0
1245,6012401041475,新規,0,2024-02-01,2024-02-01,株式会社双葉,,株式会社,東京都,小金井市,本町３丁目５番１２号ロイヤルハウスケイツウ２０６,,13,210,1840004,,,,,,,2024-02-01,1,,,,,フタバ,0
1251,6013301052001,新規,0,2024-02-01,2024-02-01,株式会社タスククリエイト,,株式会社,東京都,豊島区,南池袋２丁目４５番２－１３０２号,,13,116,1710022,,,,,,,2024-02-01,1,,,,,タスククリエイト,0
1259,6020001155364,新規,0,2024-02-01,2024-02-01,株式会社ｔｒｅｅｒｏｗｓ,,株式会社,神奈川県,横浜市鶴見区,下末吉５丁目３０－１４,,14,101,2300012,,,,,,,2024-02-01,1,,,,,ツリーロウズ,0
1260,6020001155587,新規,0,2024-02-01,2024-02-01,スマイルスピリット株式会社,,株式会社,神奈川県,横浜市戸塚区,南舞岡４丁目２２番４号,,14,110,2440814,,,,,,,2024-02-01,1,,,,,スマイルスピリット,0
1261,6020001155612,新規,0,2024-02-01,2024-02-01,ぷろぷろ株式会社,,株式会社,神奈川県,横浜市西区,北幸１丁目１１番１号水信ビル７階,,14,103,2200004,,,,,,,2024-02-01,1,,,,,プロプロ,0
1262,6020001155620,新規,0,2024-02-01,2024-02-01,株式会社オルソ,,株式会社,神奈川県,横浜市戸塚区,矢部町５１７番地,,14,110,2440002,,,,,,,2024-02-01,1,,,,,オルソ,0
1264,6021001081344,新規,0,2024-02-01,2024-02-01,株式会社ねむの木,,株式会社,神奈川県,南足柄市,雨坪３１８番地１,,14,217,2500134,,,,,,,2024-02-01,1,,,,,ネムノキ,0
1265,6021001081352,新規,0,2024-02-01,2024-02-01,株式会社ＦＵＬＬ‐ＵＰ,,株式会社,神奈川県,横須賀市,船越町３丁目１９番地,,14,201,2370076,,,,,,,2024-02-01,1,,,,,フルアップ,0
1266,6021001081360,新規,0,2024-02-01,2024-02-01,株式会社Ｐａｒａ,,株式会社,神奈川県,平塚市,中原２丁目１番１９号リバーヒルＩＩ１－Ｅ,00133584,14,203,2540075,,,,,,,2024-02-01,1,,,,,パラ,0
1276,6030001158440,新規,0,2024-02-01,2024-02-01,ＫＥＩＧＡＮ　ＡＲＴ株式会社,,株式会社,埼玉県,さいたま市緑区,馬場１丁目３４番地３,,11,109,3360912,,,,,,,2024-02-01,1,,,,,ケイガンアート,0
1277,6030001158449,新規,0,2024-02-01,2024-02-01,株式会社アレイト,,株式会社,埼玉県,さいたま市南区,文蔵４丁目１５番１７号アベニールｋｉｋｏｒｉ２０１,,11,108,3360025,,,,,,,2024-02-01,1,,,,,アレイト,0
1284,6040001131990,新規,0,2024-02-01,2024-02-01,株式会社スリーアイズ,,株式会社,千葉県,山武郡九十九里町,片貝６６２７番地１,,12,403,2830104,,,,,,,2024-02-01,1,,,,,スリーアイズ,0
1285,6040001132007,新規,0,2024-02-01,2024-02-01,株式会社アイテックス,,株式会社,千葉県,市川市,相之川３丁目５番２１号,,12,203,2720143,,,,,,,2024-02-01,1,,,,,アイテックス,0
1291,6040003024251,新規,0,2024-02-01,2024-02-01,合同会社グリーンライト,,合同会社,千葉県,千葉市中央区,富士見２丁目７番９号富士見ビル６０９号,,12,101,2600015,,,,,,,2024-02-01,1,,,,,グリーンライト,0
1295,6060001036783,新規,0,2024-02-01,2024-02-01,株式会社グッド・フル,,株式会社,栃木県,宇都宮市,松が峰１丁目３番１６号グラン宇都宮６０４号室,,09,201,3200807,,,,,,,2024-02-01,1,,,,,グッドフル,0
1300,6080001026106,新規,0,2024-02-01,2024-02-01,珈琲杜株式会社,,株式会社,静岡県,静岡市駿河区,寿町７－１３,,22,102,4228055,,,,,,,2024-02-01,1,,,,,コーヒーモリ,0
1304,6100001037182,新規,0,2024-02-01,2024-02-01,株式会社はっぱ屋,,株式会社,長野県,上伊那郡中川村,片桐１８５６－２,,20,386,3993802,,,,,,,2024-02-01,1,,,,,ハッパヤ,0
1319,6120001261747,新規,0,2024-02-01,2024-02-01,株式会社ＢＥＡＲ　Ａｄｍｉｎ,,株式会社,大阪府,大阪市東成区,東中本２丁目１７番１７号,,27,115,5370021,,,,,,,2024-02-01,1,,,,,ベアアドミン,0
1320,6120001261846,新規,0,2024-02-01,2024-02-01,株式会社ｒｉａ,,株式会社,大阪府,大阪市淀川区,西中島３丁目８番１５号新大阪ビルディング１００５,,27,123,5320011,,,,,,,2024-02-01,1,,,,,リア,0
1321,6120001261870,新規,0,2024-02-01,2024-02-01,Ｍｏｓｅｙ　Ｓｐａｃｅ株式会社,,株式会社,大阪府,大阪市西淀川区,柏里２丁目５番２３号,,27,113,5550022,,,,,,,2024-02-01,1,,,,,モージースペース,0
1322,6120001261904,新規,0,2024-02-01,2024-02-01,株式会社ＦＯＲ２ＦＩＶＥ,,株式会社,大阪府,大阪市北区,堂島１丁目２番７号,,27,127,5300003,,,,,,,2024-02-01,1,,,,,フォーツーファイブ,0
1323,6120001261912,新規,0,2024-02-01,2024-02-01,株式会社ひなたに咲くひまわり,,株式会社,大阪府,大阪市中央区,玉造１丁目１番２５－２８０５号,,27,128,5400004,,,,,,,2024-02-01,1,,,,,ヒナタニサクヒマワリ,0
1324,6120001261920,新規,0,2024-02-01,2024-02-01,株式会社Ｖｉｎｅｓｓ,,株式会社,大阪府,大阪市中央区,南本町３丁目３番１０号,,27,128,5410054,,,,,,,2024-02-01,1,,,,,ヴィーネス,0
1325,6120003025811,新規,0,2024-02-01,2024-02-01,まほろばＬＡＢ合同会社,,合同会社,大阪府,大阪市中央区,久太郎町４丁目１番３号大阪センタービル６階－２８２,,27,128,5410056,,,,,,,2024-02-01,1,,,,,マホロバラボ,0
1333,6122001037788,新規,0,2024-02-01,2024-02-01,サン・ファクトリー株式会社,,株式会社,大阪府,八尾市,北亀井町２丁目５番１８号,,27,212,5810066,,,,,,,2024-02-01,1,,,,,サンファクトリー,0
1370,6190003004569,新規,0,2024-02-01,2024-02-01,合同会社Ｃｏ‐Ｌａｂ,,合同会社,三重県,四日市市,大字茂福２番地３号,,24,202,5108027,,,,,,,2024-02-01,1,,,,,コラボ,0
1375,6230001020200,新規,0,2024-02-01,2024-02-01,株式会社ハウスメンテ北陸,,株式会社,富山県,富山市,中川原４９番地１ファミールなかがわら１０５号,,16,201,9398015,,,,,,,2024-02-01,1,,,,,ハウスメンテホクリク,0
1382,6290001104575,新規,0,2024-02-01,2024-02-01,クラッチカンパニー株式会社,,株式会社,福岡県,飯塚市,花瀬１００番地１２,,40,205,8200045,,,,,,,2024-02-01,1,,,,,クラッチカンパニー,0
1384,6290801030269,新規,0,2024-02-01,2024-02-01,徳裕商事株式会社,,株式会社,福岡県,京都郡苅田町,大字葛川２５５番地９４,,40,621,8000338,,,,,,,2024-02-01,1,,,,,トクユショウジ,0
1386,6310005008737,新規,0,2024-02-01,2024-02-01,一般社団法人Ｎａｔｕｒｅ　Ｍｉｎｄ　Ｊａｐａｎ,,その他の設立登記法人,長崎県,西彼杵郡時津町,浜田郷７７６番地１３,,42,308,8512102,,,,,,,2024-02-01,1,,,,,ネイチャーマインドジャパン,0
1389,6340001026252,新規,0,2024-02-01,2024-02-01,アートテック株式会社,,株式会社,鹿児島県,鹿児島市,西陵１丁目４２番８号,,46,201,8900032,,,,,,,2024-02-01,1,,,,,アートテック,0
1399,6370005010745,新規,0,2024-02-01,2024-02-01,一般社団法人礎の杜,,その他の設立登記法人,宮城県,仙台市太白区,秋保町長袋字西台１８番地の１５,,04,104,9820243,,,,,,,2024-02-01,1,,,,,イシヅエノモリ,0
1403,6380003005671,新規,0,2024-02-01,2024-02-01,リライフ合同会社,,合同会社,福島県,福島市,松川町美郷２丁目３１番地の８ダイヤモンドプリンセス美郷Ｂ２０１号室,,07,201,9601242,,,,,,,2024-02-01,1,,,,,リライフ,0
1407,6430001090982,新規,0,2024-02-01,2024-02-01,株式会社フォックスデザイン,,株式会社,北海道,札幌市清田区,平岡十条２丁目１４番２０号,,01,110,0040880,,,,,,,2024-02-01,1,,,,,フォックスデザイン,0
1409,6430003015913,新規,0,2024-02-01,2024-02-01,ルアナ・ワークス合同会社,,合同会社,北海道,札幌市西区,山の手二条３丁目３番１９号ダイアパレス山の手４０１号,,01,107,0630002,,,,,,,2024-02-01,1,,,,,ルアナワークス,0
1410,6460001005863,新規,0,2024-02-01,2024-02-01,株式会社ＷｒＭ,,株式会社,北海道,釧路市,花園町１番１号,,01,206,0850038,,,,,,,2024-02-01,1,,,,,ワーム,0
1412,6470003002569,新規,0,2024-02-01,2024-02-01,合同会社Ａ＆Ｔキャピタルパートナーズ,,合同会社,香川県,木田郡三木町,大字上高岡３８５番地２,,37,341,7610613,,,,,,,2024-02-01,1,,,,,エイアンドティーキャピタルパートナーズ,0
1417,7010001241932,新規,0,2024-02-01,2024-02-01,エフティ・シアトリカルズ株式会社,,株式会社,東京都,中央区,日本橋室町１丁目１１－１２日本橋水野ビル７階,,13,102,1030022,,,,,,,2024-02-01,1,,,,,エフティシアトリカルズ,0
1418,7010003042809,新規,0,2024-02-01,2024-02-01,Ｏｒｉｏｎ　Ａｄｖｉｓｏｒｓ合同会社,,合同会社,東京都,千代田区,五番町１２番地７－２０４３,,13,101,1020076,,,,,,,2024-02-01,1,,,,,オリオンアドバイザー,0
1421,7010005037823,新規,0,2024-02-01,2024-02-01,一般社団法人総合歯科経営,,その他の設立登記法人,東京都,千代田区,九段南４丁目６番１１号九段渋木ビル３階,,13,101,1020074,,,,,,,2024-02-01,1,,,,,ソウゴウシカケイエイ,0
1422,7010005037831,新規,0,2024-02-01,2024-02-01,一般社団法人ＮＰＥ２０２３Ｔ,,その他の設立登記法人,東京都,千代田区,丸の内３丁目１番１号東京共同会計事務所内,,13,101,1000005,,,,,,,2024-02-01,1,,,,,エヌピーイーニゼロニサンティー,0
1428,7010401180061,新規,0,2024-02-01,2024-02-01,ＳＴＲＡＴＤＥＥＰ株式会社,,株式会社,東京都,港区,北青山１丁目３番１号,,13,103,1070061,,,,,,,2024-02-01,1,,,,,ストラトディープ,0
1429,7010401180086,新規,0,2024-02-01,2024-02-01,ハレの日ホールディングス株式会社,,株式会社,東京都,港区,六本木６丁目１５番１号六本木ヒルズけやき坂テラス３階,,13,103,1060032,,,,,,,2024-02-01,1,,,,,ハレノヒホールディングス,0
1432,7010403031849,新規,0,2024-02-01,2024-02-01,３ｒｄＰｌａｃｅＭ合同会社,,合同会社,東京都,港区,北青山１丁目３番１号アールキューブ青山３階,,13,103,1070061,,,,,,,2024-02-01,1,,,,,サードプレイスエム,0
1440,7010405022904,新規,0,2024-02-01,2024-02-01,一般社団法人ＤＮＡ科学技術協会,,その他の設立登記法人,東京都,港区,虎ノ門３丁目１８番６号朝日虎ノ門マンション６１４,,13,103,1050001,,,,,,,2024-02-01,1,,,,,ディーエヌエーカガクギジュツキョウカイ,0
1441,7010405022912,新規,0,2024-02-01,2024-02-01,一般社団法人丸の内ワン,,その他の設立登記法人,東京都,港区,六本木１丁目９番１０号アークヒルズ仙石山森タワー４０階,,13,103,1060032,,,,,,,2024-02-01,1,,,,,マルノウチワン,0
1442,7010501051716,新規,0,2024-02-01,2024-02-01,キャリップ株式会社,,株式会社,東京都,台東区,浅草１丁目１３－５井門浅草すしや通りビル,,13,106,1110032,,,,,,,2024-02-01,1,,,,,キャリップ,0
1445,7010701045492,新規,0,2024-02-01,2024-02-01,株式会社＿燿輝,00133586,株式会社,東京都,品川区,大井１丁目１６番１号,,13,109,1400014,,,,,,,2024-02-01,1,,,,,シンヨウキ,0
1449,7010703007037,新規,0,2024-02-01,2024-02-01,合同会社ハンクス,,合同会社,東京都,品川区,戸越１丁目２０番１３号メゾンＮＯＢＵ３－２０３,,13,109,1420041,,,,,,,2024-02-01,1,,,,,ハンクス,0
1457,7010901054640,新規,0,2024-02-01,2024-02-01,深沢興産株式会社,,株式会社,東京都,世田谷区,深沢２丁目１番３－１３０１号,,13,112,1580081,,,,,,,2024-02-01,1,,,,,フカサワコウサン,0
1462,7011001159735,新規,0,2024-02-01,2024-02-01,株式会社ＢｅＱｕｉｅｔ,,株式会社,東京都,目黒区,中目黒４丁目６番６－９０１号,,13,110,1530061,,,,,,,2024-02-01,1,,,,,ビークワイエット,0
1466,7011103014053,新規,0,2024-02-01,2024-02-01,合同会社ＯＮＥ,,合同会社,東京都,新宿区,新宿５丁目１８番１０－６０７号,,13,104,1600022,,,,,,,2024-02-01,1,,,,,ワン,0
1471,7011501030255,新規,0,2024-02-01,2024-02-01,株式会社くじら,,株式会社,東京都,荒川区,西日暮里６丁目４１番３号,,13,118,1160013,,,,,,,2024-02-01,1,,,,,クジラ,0
1472,7011501030271,新規,0,2024-02-01,2024-02-01,博研イノベーション株式会社,,株式会社,東京都,北区,浮間１丁目１番１４号リムジンビル３５３,,13,117,1150051,,,,,,,2024-02-01,1,,,,,ハクケンイノベーション,0
1473,7011603004231,新規,0,2024-02-01,2024-02-01,合同会社ＩＫｏ,,合同会社,東京都,練馬区,大泉学園町６丁目３０番２号フローラ大泉学園１０２号室,,13,120,1780061,,,,,,,2024-02-01,1,,,,,イコ,0
1474,7011701026978,新規,0,2024-02-01,2024-02-01,株式会社テミックス,,株式会社,東京都,江戸川区,中央１丁目１９番２－５０６号,,13,123,1320021,,,,,,,2024-02-01,1,,,,,テミックス,0
1475,7011805003337,新規,0,2024-02-01,2024-02-01,一般社団法人国際再生医療リテラシー教育学会,,その他の設立登記法人,東京都,葛飾区,新小岩１丁目５５番６号メディカルプラザビル３０６,,13,122,1240024,,,,,,,2024-02-01,1,,,,,コクサイサイセイイリョウリテラシーキョウイクガッカイ,0
1476,7012401041474,新規,0,2024-02-01,2024-02-01,株式会社ＡＮＤ　Ｋｏｍｐａｎｙ,,株式会社,東京都,武蔵野市,吉祥寺東町２丁目２４番１２号,,13,203,1800002,,,,,,,2024-02-01,1,,,,,アンドカンパニー,0
1477,7012701018057,新規,0,2024-02-01,2024-02-01,メモリアルコンサルタント株式会社,,株式会社,東京都,西東京市,ひばりが丘北２丁目８番７号サンフラワーひばりヶ丘１０３号,,13,229,2020002,,,,,,,2024-02-01,1,,,,,メモリアルコンサルタント,0
1482,7013301052000,新規,0,2024-02-01,2024-02-01,ＷＳコースト株式会社,,株式会社,東京都,豊島区,巣鴨１丁目２９－７,,13,116,1700002,,,,,,,2024-02-01,1,,,,,ダブリューエスコースト,0
1483,7013301052009,新規,0,2024-02-01,2024-02-01,まるみ株式会社,,株式会社,東京都,豊島区,高田１丁目３５番９号,,13,116,1710033,,,,,,,2024-02-01,1,,,,,マルミ,0
1485,7013303006986,新規,0,2024-02-01,2024-02-01,合同会社ＣｒｏｓｓＢｏｕｎｄ,,合同会社,東京都,豊島区,東池袋３丁目１番１号サンシャイン６０－４５階,,13,116,1700013,,,,,,,2024-02-01,1,,,,,クロスボンド,0
1487,7020001155405,新規,0,2024-02-01,2024-02-01,株式会社ｆｏｏｔｗｏｒｋ,,株式会社,神奈川県,横浜市泉区,上飯田町３６４６番地,,14,116,2450018,,,,,,,2024-02-01,1,,,,,フットワーク,0
1488,7020001155603,新規,0,2024-02-01,2024-02-01,五徳ホールディングス株式会社,,株式会社,神奈川県,横浜市戸塚区,平戸町５４３４番地１,,14,110,2440803,,,,,,,2024-02-01,1,,,,,ゴトクホールディングス,0
1489,7020001155611,新規,0,2024-02-01,2024-02-01,フルーツフレッシュ株式会社,,株式会社,神奈川県,川崎市川崎区,砂子２丁目１０－７ルリエ川崎駅前４０２,,14,131,2100006,,,,,,,2024-02-01,1,,,,,フルーツフレッシュ,0
1490,7020003025465,新規,0,2024-02-01,2024-02-01,明新塗装合同会社,,合同会社,神奈川県,横浜市南区,東蒔田町１６番地２７,,14,105,2320045,,,,,,,2024-02-01,1,,,,,メイシントソウ,0
1492,7021003014103,新規,0,2024-02-01,2024-02-01,ＣＲＯＷＮ　ＴＲＡＤＩＮＧ合同会社,,合同会社,神奈川県,茅ヶ崎市,芹沢２０８７番地Ｃ,,14,207,2530008,,,,,,,2024-02-01,1,,,,,クラウントレーディング,0
1500,7030001158324,新規,0,2024-02-01,2024-02-01,株式会社ＴｓｕｍａｍｉＳｔｕｄｉｏ,,株式会社,埼玉県,川口市,朝日５丁目５番１９号,,11,203,3320001,,,,,,,2024-02-01,1,,,,,ツマミスタジオ,0
1501,7030001158407,新規,0,2024-02-01,2024-02-01,シームーヴメント株式会社,,株式会社,埼玉県,川越市,大字砂新田１４５番地２,,11,201,3501137,,,,,,,2024-02-01,1,,,,,シームーヴメント,0
1502,7030001158423,新規,0,2024-02-01,2024-02-01,株式会社Ｔ＆Ｔディテール,,株式会社,埼玉県,北葛飾郡松伏町,大字松伏２１３５,,11,465,3430111,,,,,,,2024-02-01,1,,,,,ティーアンドティーディテール,0
1512,7040001131998,新規,0,2024-02-01,2024-02-01,ＳＨＩＲ　ＡＦＧＨＡＮ株式会社,,株式会社,千葉県,佐倉市,生谷８４３番地４,,12,212,2850836,,,,,,,2024-02-01,1,,,,,ショーアフガン,0
1515,7040003024242,新規,0,2024-02-01,2024-02-01,ＣＦＤ‐ＬＡＢ合同会社,,合同会社,千葉県,市川市,市川１丁目１９番２０号,,12,203,2720034,,,,,,,2024-02-01,1,,,,,シーエフディーラボ,0
1533,7120001261787,新規,0,2024-02-01,2024-02-01,徳康株式会社,,株式会社,大阪府,大阪市淀川区,十三本町２丁目１１－３－３０２,,27,123,5320024,,,,,,,2024-02-01,1,,,,,トクヤス,0
1534,7120001261853,新規,0,2024-02-01,2024-02-01,株式会社ＦＯＲＭＥ　ａｒｃｈｉｔｅｃｔｓ　ｓｔｕｄｉｏ,,株式会社,大阪府,大阪市都島区,網島町７番３５号,,27,102,5340026,,,,,,,2024-02-01,1,,,,,フォルメアーキテクツスタジオ,0
1535,7120001261911,新規,0,2024-02-01,2024-02-01,株式会社啓程,,株式会社,大阪府,大阪市天王寺区,生玉町１１番２９－５０７号,,27,109,5430071,,,,,,,2024-02-01,1,,,,,ケイテイ,0
1539,7120003025819,新規,0,2024-02-01,2024-02-01,合同会社エムズ,,合同会社,大阪府,大阪市平野区,加美南５丁目５番３２号,,27,126,5470003,,,,,,,2024-02-01,1,,,,,エムズ,0
1540,7120003025827,新規,0,2024-02-01,2024-02-01,信永商貿合同会社,,合同会社,大阪府,大阪市西成区,南津守４丁目１－６３第３Ａハイツ１０５,,27,122,5570063,,,,,,,2024-02-01,1,,,,,ノブナガショウボウ,0
1541,7120003025835,新規,0,2024-02-01,2024-02-01,合同会社世運,,合同会社,大阪府,大阪市生野区,桃谷４丁目１０番８号,,27,116,5440034,,,,,,,2024-02-01,1,,,,,セウン,0
1543,7120101068991,新規,0,2024-02-01,2024-02-01,株式会社久野喜動物病院,,株式会社,大阪府,富田林市,久野喜台２丁目４番３２号,,27,214,5840074,,,,,,,2024-02-01,1,,,,,クノキドウブツビョウイン,0
1547,7120103005654,新規,0,2024-02-01,2024-02-01,合同会社Ａｐｓａｒａｓ,,合同会社,大阪府,高石市,高師浜２丁目１２番２０号,,27,225,5920004,,,,,,,2024-02-01,1,,,,,アプサラス,0
1552,7120903005036,新規,0,2024-02-01,2024-02-01,合同会社Ｍｏｓｃｏｎｅ,,合同会社,大阪府,高槻市,真上町３丁目８番２１号,,27,207,5691121,,,,,,,2024-02-01,1,,,,,モスコニ,0
1554,7122001037738,新規,0,2024-02-01,2024-02-01,旭日日本株式会社,,株式会社,大阪府,東大阪市,小阪２丁目１０番２８号ＪＰ小阪４階４Ｂ,,27,227,5770801,,,,,,,2024-02-01,1,,,,,アサヒニホン,0
1559,7130005016996,新規,0,2024-02-01,2024-02-01,一般社団法人空愛グループ,,その他の設立登記法人,京都府,舞鶴市,字引土２５７番地７,,26,202,6240841,,,,,,,2024-02-01,1,,,,,ソラアイグループ,0
1563,7140001133159,新規,0,2024-02-01,2024-02-01,株式会社神戸ＲＯＯＦ,,株式会社,兵庫県,神戸市垂水区,千鳥が丘１丁目１３番２１号,,28,108,6550011,,,,,,,2024-02-01,1,,,,,コウベルーフ,0
1564,7140003020108,新規,0,2024-02-01,2024-02-01,フェアな合同会社,,合同会社,兵庫県,神戸市北区,藤原台北町４丁目２１番１号,,28,109,6511301,,,,,,,2024-02-01,1,,,,,,0
1565,7140003020116,新規,0,2024-02-01,2024-02-01,合同会社ＥＣａｄ,,合同会社,兵庫県,西宮市,中島町２番１４－２０３号,,28,204,6638105,,,,,,,2024-02-01,1,,,,,イーキャド,0
1568,7150001027054,新規,0,2024-02-01,2024-02-01,株式会社介護屋山崎,00133591,株式会社,奈良県,奈良市,西大寺赤田町２丁目１番３－３０３号,,29,201,6310818,,,,,,,2024-02-01,1,,,,,カイゴヤヤマザキ,0
1572,7180001159984,新規,0,2024-02-01,2024-02-01,ＹＵＵＫＩ株式会社,,株式会社,愛知県,名古屋市港区,入場２丁目１６０７,,23,111,4550803,,,,,,,2024-02-01,1,,,,,ユウキ,0
1579,7190001031069,新規,0,2024-02-01,2024-02-01,三糧グループホールディングス株式会社,,株式会社,三重県,四日市市,曙町７番７号,,24,202,5100054,,,,,,,2024-02-01,1,,,,,サンリョウグループホールディングス,0
1580,7190003004568,新規,0,2024-02-01,2024-02-01,合同会社ＨＤ,,合同会社,三重県,南牟婁郡御浜町,大字志原１８２１番地１４,,24,561,5195202,,,,,,,2024-02-01,1,,,,,エッチディー,0
1586,7220005008803,新規,0,2024-02-01,2024-02-01,一般財団法人倉友会,,その他の設立登記法人,石川県,金沢市,神田２丁目３番１３号,,17,201,9218027,,,,,,,2024-02-01,1,,,,,ソウユウカイ,0
1588,7230001020199,新規,0,2024-02-01,2024-02-01,株式会社ＮＩＫＫＯ　ＥＬＥＶＡＴＯＲ　Ｌｔｄ．,,株式会社,富山県,富山市,池多１６０２番地１３,,16,201,9300158,,,,,,,2024-02-01,1,,,,,ニッコーエレベーターリミテッド,0
1604,7290001104491,新規,0,2024-02-01,2024-02-01,株式会社ＦＫエナジー,,株式会社,福岡県,福岡市中央区,天神２丁目３－１０天神パインクレスト７１９号,,40,133,8100001,,,,,,,2024-02-01,1,,,,,エフケイエナジー,0
1606,7290003014895,新規,0,2024-02-01,2024-02-01,合同会社ＣＡＮＯＮ,,合同会社,福岡県,飯塚市,川島１１番地５,,40,205,8200002,,,,,,,2024-02-01,1,,,,,カノン,0
1608,7290801030268,新規,0,2024-02-01,2024-02-01,株式会社Ｋｉｃｏｒｉｓ,,株式会社,福岡県,北九州市小倉南区,湯川１丁目５番１３号,,40,107,8000257,,,,,,,2024-02-01,1,,,,,キコリス,0
1619,7370003006471,新規,0,2024-02-01,2024-02-01,合同会社菅生ファーム,,合同会社,宮城県,柴田郡村田町,大字菅生字畑中２０番地,,04,322,9891301,,,,,,,2024-02-01,1,,,,,スゴウファーム,0
1621,7370005010744,新規,0,2024-02-01,2024-02-01,ＮＰＯ法人ここから,,その他の設立登記法人,宮城県,仙台市宮城野区,鶴ケ谷２丁目８番地１鶴ケ谷プラザビル３１号,,04,102,9830824,,,,,,,2024-02-01,1,,,,,ココカラ,0
1629,7430001090981,新規,0,2024-02-01,2024-02-01,株式会社ＡＲＫｐｒｏｊｅｃｔ,,株式会社,北海道,札幌市中央区,北一条西３丁目３番地３１古久根ビル９０２号室,,01,101,0600001,,,,,,,2024-02-01,1,,,,,アークプロジェクト,0
1635,7430003015912,新規,0,2024-02-01,2024-02-01,合同会社Ａ‐ＣＲＥＡＴＩＯＮＳ,,合同会社,北海道,札幌市白石区,菊水一条２丁目１番８－１１７号,,01,104,0030801,,,,,,,2024-02-01,1,,,,,エークリエイションズ,0
1638,7462501000979,新規,0,2024-02-01,2024-02-01,株式会社ループライズ運輸,,株式会社,北海道,標津郡中標津町,東当幌２４番地２２,,01,692,0861144,,,,,,,2024-02-01,1,,,,,ループライズウンユ,0
1645,7500001025443,新規,0,2024-02-01,2024-02-01,株式会社ハーミットクラブ鈑金塗装,,株式会社,愛媛県,松山市,久米窪田町６５６番地１,,38,201,7911101,,,,,,,2024-02-01,1,,,,,ハーミットクラブバンキントソウ,0
1648,7700150116139,新規,0,2024-02-01,2024-02-01,ＺＨＯＮＧＳＨＡＮＳＨＩ　ＳＨＥＮＧＷＥＩＳＨＥＹＩＮＧＱＩＣＡＩ　ＹＯＵＸＩＡＮＧＯＮＧＳＩ,,外国会社等,,,,,,,,ｚｈｏｎｇｓｈａｎｓｈｉ，ｓａｎｘｉａｎｇｚｈｅｎ，ｐｉｎｇｎａｎｃｕｎ，ｊｉｎｔａｉｌｕ８ｈａｏＣｄｏｎｇ，Ｃ１０１，Ｃ１０２，Ｃ２０１，Ｃ２０２ｈａｏ,,,,,,2024-02-01,1,,,,,チョンシャンシシェンウェイシュインチーツアイヨウシェンゴンス,0
1649,7700150123762,新規,0,2024-02-01,2024-02-01,ＢＩＺＢＥＥ　ＬＩＭＩＴＥＤ,,外国会社等,,,,,,,,１３／Ｆ　ＦＬＡＴ／ＲＭ　１３０７　ＢＥＶＥＲＬＥＹ　ＣＯＭＭＥＲＣＩＡＬ　ＣＥＮＴＲＥ　８７－１０５　ＣＨＡＴＨＡＭ　ＲＯＡＤ　ＳＯＵＴＨＴＳＩＭ　ＳＨＡ　ＴＳＵＩ　ＫＬ,,,,,,2024-02-01,1,,,,,ビザビリミティッド,0
1652,8010001241774,新規,0,2024-02-01,2024-02-01,株式会社ＭＯＵ,,株式会社,東京都,中央区,勝どき４丁目６番２－４００３号,,13,102,1040054,,,,,,,2024-02-01,1,,,,,エムオーユー,0
1653,8010001241980,新規,0,2024-02-01,2024-02-01,株式会社ファルプトン,,株式会社,東京都,中央区,佃２丁目８番３号,,13,102,1040051,,,,,,,2024-02-01,1,,,,,ファルプトン,0
1654,8010001241989,新規,0,2024-02-01,2024-02-01,株式会社動画の学び舎,,株式会社,東京都,中央区,銀座１丁目２７番８号セントラルビル９０２,,13,102,1040061,,,,,,,2024-02-01,1,,,,,ドウガノマナビヤ,0
1655,8010005037681,新規,0,2024-02-01,2024-02-01,一般社団法人ＧＳＥ研究会,,その他の設立登記法人,東京都,千代田区,麹町４丁目５－２０ＫＳビル,,13,101,1020083,,,,,,,2024-02-01,1,,,,,ジーエスイーケンキュウカイ,0
1662,8010401180044,新規,0,2024-02-01,2024-02-01,Ｋｐａｒｔｎｅｒ　ＦＡＳ株式会社,,株式会社,東京都,港区,北青山１丁目３番１号アールキューブ青山３階,,13,103,1070061,,,,,,,2024-02-01,1,,,,,ケーパートナーファズ,0
1663,8010401180069,新規,0,2024-02-01,2024-02-01,ＣＳＣ　Ｊａｐａｎ　Ｃｏｒｐｏｒａｔｅ　Ｓｅｒｖｉｃｅｓ株式会社,,株式会社,東京都,港区,海岸１丁目２番２０号汐留ビルディング３階,,13,103,1050022,,,,,,,2024-02-01,1,,,,,シーエスシージャパンコーポレートサービシーズ,0
1667,8010403031864,新規,0,2024-02-01,2024-02-01,Ｌｉｆｅｓｔｙｌｅ１２合同会社,,合同会社,東京都,港区,六本木１丁目９番１０号アークヒルズ仙石山森タワー４０階,,13,103,1060032,,,,,,,2024-02-01,1,,,,,ライフスタイルトゥエルブ,0
1672,8010501051707,新規,0,2024-02-01,2024-02-01,株式会社バングラディシュ・ヒューマンリソース,,株式会社,東京都,台東区,浅草４丁目２３番７号浅草三基ビル２階,,13,106,1110032,,,,,,,2024-02-01,1,,,,,バングラディシュヒューマンリソース,0
1673,8010501051723,新規,0,2024-02-01,2024-02-01,株式会社Ｓｍｉｌｅ．ｎｓ,,株式会社,東京都,台東区,浅草２丁目１８番４－３０１号,,13,106,1110032,,,,,,,2024-02-01,1,,,,,スマイルドットエヌエス,0
1684,8010901054631,新規,0,2024-02-01,2024-02-01,株式会社アンノウン,,株式会社,東京都,世田谷区,北沢１丁目３９番７号,,13,112,1550031,,,,,,,2024-02-01,1,,,,,アンノウン,0
1685,8010903008783,新規,0,2024-02-01,2024-02-01,ものぐみ合同会社,,合同会社,東京都,世田谷区,桜新町２丁目２０番６－３０７号,,13,112,1540015,,,,,,,2024-02-01,1,,,,,モノグミ,0
1690,8011001159668,新規,0,2024-02-01,2024-02-01,株式会社３ＳＬ　ＩＰ,,株式会社,東京都,目黒区,上目黒２丁目４８番１０号２階,,13,110,1530051,,,,,,,2024-02-01,1,,,,,スリーエスエルアイピー,0
1691,8011001159750,新規,0,2024-02-01,2024-02-01,株式会社ＩＹＡＢＩ,,株式会社,東京都,渋谷区,神宮前６丁目２３番４号桑野ビル２階,,13,113,1500001,,,,,,,2024-02-01,1,,,,,イヤビ,0
1692,8011001159759,新規,0,2024-02-01,2024-02-01,株式会社Ｒｕｌｉｅ,,株式会社,東京都,渋谷区,道玄坂１丁目１０番８号渋谷道玄坂東急ビル２Ｆ－Ｃ,,13,113,1500043,,,,,,,2024-02-01,1,,,,,,0
1693,8011003018418,新規,0,2024-02-01,2024-02-01,合同会社ＨＢＮ,,合同会社,東京都,渋谷区,渋谷２丁目１９－１５宮益坂ビルディング６０９,,13,113,1500002,,,,,,,2024-02-01,1,,,,,,0
1696,8011101106009,新規,0,2024-02-01,2024-02-01,株式会社ＬＩＭＢＥＲ　ＤＥＳＩＧＮ,,株式会社,東京都,新宿区,高田馬場４丁目４番１７－３０１号,,13,104,1690075,,,,,,,2024-02-01,1,,,,,リンバーデザイン,0
1697,8011103014052,新規,0,2024-02-01,2024-02-01,静岡レジデンシャルファンド合同会社,,合同会社,東京都,新宿区,四谷４丁目３２番８号ＹＫＢサニービル６階,,13,104,1600004,,,,,,,2024-02-01,1,,,,,シズオカレジデンシャルファンド,0
1700,8011501030270,新規,0,2024-02-01,2024-02-01,高沢コンサルティング株式会社,,株式会社,東京都,北区,豊島５丁目５番６－１１１１号,,13,117,1140003,,,,,,,2024-02-01,1,,,,,タカザワコンサルティング,0
1702,8011703003727,新規,0,2024-02-01,2024-02-01,合同会社クロス,,合同会社,東京都,江戸川区,平井５丁目２７番５号,,13,123,1320035,,,,,,,2024-02-01,1,,,,,クロス,0
1703,8011801043724,新規,0,2024-02-01,2024-02-01,株式会社ＴＡＡＳ,,株式会社,東京都,足立区,西竹の塚１丁目５番８号,,13,121,1210822,,,,,,,2024-02-01,1,,,,,タース,0
1705,8011805003336,新規,0,2024-02-01,2024-02-01,一般社団法人アテン,,その他の設立登記法人,東京都,葛飾区,亀有３丁目２１－６,,13,122,1250061,,,,,,,2024-02-01,1,,,,,アテン,0
1709,8013301051926,新規,0,2024-02-01,2024-02-01,株式会社ベストフレーズ,,株式会社,東京都,豊島区,北大塚２丁目３０番５号,,13,116,1700004,,,,,,,2024-02-01,1,,,,,ベストフレーズ,0
1710,8013301052016,新規,0,2024-02-01,2024-02-01,株式会社エクストリームおにやんま,,株式会社,東京都,豊島区,西池袋３丁目２９－９福利ビル４Ｆ,,13,116,1710021,,,,,,,2024-02-01,1,,,,,エクストリームオニヤンマ,0
1711,8013305003568,新規,0,2024-02-01,2024-02-01,ＮＰＯ法人ｂｏｎｄ,,その他の設立登記法人,東京都,豊島区,南大塚２丁目４１番１０号河野ビルＡ棟５階,,13,116,1700005,,,,,,,2024-02-01,1,,,,,ボンド,0
1713,8020001155593,新規,0,2024-02-01,2024-02-01,株式会社Ｇ’ｚ,,株式会社,神奈川県,横浜市中区,蓬莱町２丁目６番地２ライオンズマンション関内第３－７０６号室,,14,104,2310048,,,,,,,2024-02-01,1,,,,,ジーズ,0
1714,8020001155610,新規,0,2024-02-01,2024-02-01,株式会社ＳＯＳＯ,,株式会社,神奈川県,横浜市港北区,下田町２丁目１０番１８号,,14,109,2230064,,,,,,,2024-02-01,1,,,,,ソーソー,0
1715,8020001155619,新規,0,2024-02-01,2024-02-01,シエラホーム株式会社,,株式会社,神奈川県,横浜市西区,久保町２番８号,,14,103,2200061,,,,,,,2024-02-01,1,,,,,シエラホーム,0
1716,8020001155627,新規,0,2024-02-01,2024-02-01,株式会社Ｗａｌｋ　ｗｉｔｈ　ｙｏｕ,,株式会社,神奈川県,横浜市港北区,綱島西６丁目４番１４号ヴィラオアシス２１１,,14,109,2230053,,,,,,,2024-02-01,1,,,,,ウォークウィズユー,0
1719,8021001081342,新規,0,2024-02-01,2024-02-01,株式会社鳳和,,株式会社,神奈川県,相模原市中央区,淵野辺３丁目１０－１３－５０９室,,14,152,2520206,,,,,,,2024-02-01,1,,,,,ホウワ,0
1728,8030001158364,新規,0,2024-02-01,2024-02-01,株式会社福進住建,,株式会社,埼玉県,吉川市,保１丁目１２番地１白井ビル３階,,11,243,3420041,,,,,,,2024-02-01,1,,,,,フクシンジュウケン,0
1729,8030001158389,新規,0,2024-02-01,2024-02-01,のせ商事株式会社,,株式会社,埼玉県,北本市,中丸３丁目１１８－４パークサイド小川２－１０１,,11,233,3640013,,,,,,,2024-02-01,1,,,,,ノセショウジ,0
1730,8030001158422,新規,0,2024-02-01,2024-02-01,億銘株式会社,,株式会社,埼玉県,戸田市,喜沢２丁目１９番５号リベェル・パル１０２号室,,11,224,3350013,,,,,,,2024-02-01,1,,,,,オクメイ,0
1731,8030001158430,新規,0,2024-02-01,2024-02-01,株式会社ディアリンクス,,株式会社,埼玉県,上尾市,大字原市３３３１－２ダイワプラザ上尾４０１,,11,219,3620021,,,,,,,2024-02-01,1,,,,,ディアリンクス,0
1737,8030003023491,新規,0,2024-02-01,2024-02-01,合同会社アマテラスオペレーション,,合同会社,埼玉県,鴻巣市,生出塚１丁目９－３３リヴェール鴻巣２階２０２号室,,11,217,3650033,,,,,,,2024-02-01,1,,,,,アマテラスオペレーション,0
1740,8040001131980,新規,0,2024-02-01,2024-02-01,株式会社Ｊｏｙ　Ｃｏｎｎｅｃｔ,,株式会社,千葉県,印西市,平賀学園台２丁目４番１２号,,12,231,2701606,,,,,,,2024-02-01,1,,,,,ジョイコネクト,0
1746,8040003024241,新規,0,2024-02-01,2024-02-01,Ａｗａｎ　ｇｌｏｂａｌ　ｔｒａｄｅ　ｓｏｌｕｔｉｏｎｓ合同会社,,合同会社,千葉県,成田市,三里塚御料１番地９１５,,12,211,2860116,,,,,,,2024-02-01,1,,,,,アワングローバルトレードソリューションズ,0
1747,8040005022268,新規,0,2024-02-01,2024-02-01,一般社団法人ＤＩＡＭＯＮＤ,,その他の設立登記法人,千葉県,松戸市,本町１７番地の１１,,12,207,2710091,,,,,,,2024-02-01,1,,,,,ダイヤモンド,0
1753,8070005010220,新規,0,2024-02-01,2024-02-01,特定非営利活動法人ＴＳＵＭＵＧＩ,,その他の設立登記法人,群馬県,邑楽郡大泉町,大字寄木戸２４０番地の２,,10,524,3700535,,,,,,,2024-02-01,1,,,,,ツムギ,0
1760,8090001018521,新規,0,2024-02-01,2024-02-01,株式会社ムラジショー,,株式会社,山梨県,甲府市,宮前町７番２１号,,19,201,4000021,,,,,,,2024-02-01,1,,,,,ムラジショー,0
1762,8110001038145,新規,0,2024-02-01,2024-02-01,株式会社エイト,,株式会社,新潟県,北蒲原郡聖籠町,大字網代浜９２０番地の１,,15,307,9570103,,,,,,,2024-02-01,1,,,,,エイト,0
1768,8120001261324,新規,0,2024-02-01,2024-02-01,繁花株式会社,,株式会社,大阪府,大阪市港区,市岡元町３丁目１３番５－４０３号,,27,107,5520002,,,,,,,2024-02-01,1,,,,,ハンカ,0
1769,8120001261869,新規,0,2024-02-01,2024-02-01,株式会社テイスト,,株式会社,大阪府,守口市,八雲東町２丁目２０番３号,,27,209,5700021,,,,,,,2024-02-01,1,,,,,テイスト,0
1771,8120003025818,新規,0,2024-02-01,2024-02-01,合同会社ｔ．ｅ．ｎ,,合同会社,大阪府,大阪市北区,天神橋２丁目２番２８号,,27,127,5300041,,,,,,,2024-02-01,1,,,,,テン,0
1776,8122001037794,新規,0,2024-02-01,2024-02-01,株式会社ケイジーエイト,,株式会社,大阪府,東大阪市,吉田５丁目１番１１号シャーメゾンＴＧＶｉａＳｏｌｅ３０１号,,27,227,5780924,,,,,,,2024-02-01,1,,,,,ケイジーエイト,0
1780,8130001076259,新規,0,2024-02-01,2024-02-01,株式会社石橋工業,,株式会社,京都府,京都市伏見区,桃山町丹後２４番地１０,,26,109,6128018,,,,,,,2024-02-01,1,,,,,イシバシコウギョウ,0
1781,8130001076275,新規,0,2024-02-01,2024-02-01,安水冨株式会社,,株式会社,京都府,京都市下京区,東洞院通七条下る東塩小路町７１７番地１,,26,106,6008216,,,,,,,2024-02-01,1,,,,,アストン,0
1782,8130005016995,新規,0,2024-02-01,2024-02-01,一般社団法人ＣＨＩＧＵＳＡ,,その他の設立登記法人,京都府,宇治市,五ケ庄平野１２番地の１５,,26,204,6110011,,,,,,,2024-02-01,1,,,,,チグサ,0
1786,8140003020107,新規,0,2024-02-01,2024-02-01,のぞみらいふ合同会社,,合同会社,兵庫県,尼崎市,大島１丁目１３番３１号,,28,202,6600076,,,,,,,2024-02-01,1,,,,,ノゾミライフ,0
1790,8180001159892,新規,0,2024-02-01,2024-02-01,株式会社ＴｈｉｎｋＶａｔｅ,,株式会社,愛知県,名古屋市千種区,内山１丁目１８番１６号,,23,101,4640075,,,,,,,2024-02-01,1,,,,,シンクベイト,0
1794,8180303005992,新規,0,2024-02-01,2024-02-01,Ｙ’ｓプロパティ合同会社,,合同会社,愛知県,岡崎市,明大寺町字川端１９番地１４,,23,202,4440864,,,,,,,2024-02-01,1,,,,,ワイズプロパティ,0
1797,8190001031068,新規,0,2024-02-01,2024-02-01,株式会社ＹＡＲＮ,,株式会社,三重県,いなべ市,藤原町長尾３２０番地,,24,214,5110506,,,,,,,2024-02-01,1,,,,,ヤーン,0
1801,8220003003664,新規,0,2024-02-01,2024-02-01,合同会社ＢｅＬＬ教育ラボ,,合同会社,石川県,加賀市,大聖寺南町イ３３番地の甲,,17,206,9220811,,,,,,,2024-02-01,1,,,,,ベルキョウイクラボ,0
1804,8230003002145,新規,0,2024-02-01,2024-02-01,合同会社アシスト機械設計,,合同会社,富山県,富山市,本郷新４８－３,,16,201,9398046,,,,,,,2024-02-01,1,,,,,アシストキカイセッケイ,0
1810,8250001020502,新規,0,2024-02-01,2024-02-01,株式会社馬力,,株式会社,山口県,下関市,大学町４丁目１０番１３－１号,,35,201,7510831,,,,,,,2024-02-01,1,,,,,バリキ,0
1824,8290001104573,新規,0,2024-02-01,2024-02-01,株式会社ＣＡＴ,,株式会社,福岡県,糟屋郡粕屋町,長者原東６丁目１５－１７,,40,349,8112317,,,,,,,2024-02-01,1,,,,,シーエーティー,0
1829,8290801030267,新規,0,2024-02-01,2024-02-01,株式会社Ｍ・Ｗコーポレーション,,株式会社,福岡県,北九州市八幡西区,穴生１丁目１４番２号３Ｆ,,40,109,8060049,,,,,,,2024-02-01,1,,,,,エムダブリューコーポレーション,0
1831,8300001013608,新規,0,2024-02-01,2024-02-01,株式会社ＹＳＳ,,株式会社,佐賀県,佐賀市,木原２丁目２５－１０ＵＴビル１３号,,41,201,8400015,,,,,,,2024-02-01,1,,,,,,0
1836,8340001026242,新規,0,2024-02-01,2024-02-01,株式会社メゾンシナハ,,株式会社,鹿児島県,大島郡与論町,大字茶花２５４－２,,46,535,8919301,,,,,,,2024-02-01,1,,,,,メゾンシナハ,0
1841,8360001033146,新規,0,2024-02-01,2024-02-01,株式会社Ｏｒｉｏｎ不動産,,株式会社,沖縄県,中頭郡北谷町,字宮城３番地１６０,,47,326,9040113,,,,,,,2024-02-01,1,,,,,オリオンフドウサン,0
1843,8360005006981,新規,0,2024-02-01,2024-02-01,一般社団法人天風児童クラブ,,その他の設立登記法人,沖縄県,南城市,玉城字親慶原２５８番地１,,47,215,9010608,,,,,,,2024-02-01,1,,,,,ティンプウジドウクラブ,0
1865,8460101007485,新規,0,2024-02-01,2024-02-01,株式会社ママのＨＯＴステーション,,株式会社,北海道,河東郡音更町,字東和東１線１９番地,,01,631,0800151,,,,,,,2024-02-01,1,,,,,ママノホットステーション,0
1867,8700150117747,新規,0,2024-02-01,2024-02-01,ＤｏｎｇＧｕａｎ　Ｓｈｉ　ＺｈｅｎＤｅ　Ｄｉａｎｚｉ　Ｋｅｊｉ　ＹｏｕＸｉａｎ　ＧｏｎｇＳｉ,,外国会社等,,,,,,,,Ｓｈａ　ｔｏｕ　Ｚｈｅｎ　Ａｎ　Ｚｈｏｎｇ　ｌｕ　３５２　ｈａｏ　８０５　ｓｈｉＣｈａｎｇＡｎ　ＺｈｅｎＤｏｎｇＧｕａｎ　Ｇｕａｎｇｄｏｎｇ　５２３８５０ＣＮ,,,,,,2024-02-01,1,,,,,ドンガンシチェンダディエンツクージヨウシエンゴンス,0
1868,8700150117879,新規,0,2024-02-01,2024-02-01,ｓｈｅｎｚｈｅｎｓｈｉｘｉｎｑｉｓｈｕｍａｙｏｕｘｉａｎｇｏｎｇｓｉ,,外国会社等,,,,,,,,ｓｈｅｎｚｈｅｎｓｈｉｇｕａｎｇｍｉｎｇｑｕｇｕａｎｇｍｉｎｇｊｉｅｄａｏｂｉｙａｎｓｈｅｑｕｈｕａｑｉａｎｇｃｈｕａｎｇｙｉｃｈａｎｙｅｙｕａｎ３ｄｏｎｇＣｚｕｏ１８０１,,,,,,2024-02-01,1,,,,,シェンジェンシシンチシュウマヨウシエンゴンス,0
1869,8700150123761,新規,0,2024-02-01,2024-02-01,Ｚｈｏｎｇｓｈａｎ　Ｇｕｉｚｈｏｎｇ　Ｌｉｇｈｔｉｎｇ　Ｔｅｃｈｎｏｌｏｇｙ　Ｃｏ．，Ｌｔｄ,,外国会社等,,,,,,,,Ｚｈｏｎｇｓｈａｎｓｈｉｇｕｚｈｅｎｃａｏｅｒｗｅｎｈｕａｌｕ２３　ｈａｏｄｉ１－２ｃｅｎｇｄｉ１ｋａ,,,,,,2024-02-01,1,,,,,チュウサンシケイチュウショウメイユウゲンコウシ,0
1876,9010001241922,新規,0,2024-02-01,2024-02-01,Ａｕ　ＪＡＰＡＮ株式会社,,株式会社,東京都,中央区,築地４丁目３－８登喜和ビル５階,,13,102,1040045,,,,,,,2024-02-01,1,,,,,エーユージャパン,0
1877,9010001241963,新規,0,2024-02-01,2024-02-01,株式会社ＦＯＣＵＳＳ,,株式会社,東京都,中央区,日本橋室町１丁目１１番１２号日本橋水野ビル７階,,13,102,1030022,,,,,,,2024-02-01,1,,,,,フォーカス,0
1879,9010003042815,新規,0,2024-02-01,2024-02-01,合同会社スイレン,,合同会社,東京都,千代田区,二番町３番地麹町スクエア株式会社シリウス・アドバイザリー内,,13,101,1020084,,,,,,,2024-02-01,1,,,,,スイレン,0
1892,9010403031863,新規,0,2024-02-01,2024-02-01,Ｌｉｆｅｓｔｙｌｅ１１合同会社,,合同会社,東京都,港区,六本木１丁目９番１０号アークヒルズ仙石山森タワー４０階,,13,103,1060032,,,,,,,2024-02-01,1,,,,,ライフスタイルイレブン,0
1901,9010501051680,新規,0,2024-02-01,2024-02-01,株式会社ＩＮＯＲ,,株式会社,東京都,台東区,千束３丁目２９－１２マリオン浅草４０４,,13,106,1110031,,,,,,,2024-02-01,1,,,,,イノール,0
1902,9010501051722,新規,0,2024-02-01,2024-02-01,株式会社東方,,株式会社,東京都,台東区,東上野６丁目４番４－３０２号,,13,106,1100015,,,,,,,2024-02-01,1,,,,,トウホウ,0
1903,9010601064541,新規,0,2024-02-01,2024-02-01,株式会社Ｋｎｉｇｈｔｈｏｏｄ,,株式会社,東京都,墨田区,横川３丁目４番４－４０３号ツリーサイドＢ錦糸町,,13,107,1300003,,,,,,,2024-02-01,1,,,,,ナイトフッド,0
1904,9010601064558,新規,0,2024-02-01,2024-02-01,株式会社ＴＦＣ,,株式会社,東京都,江東区,新砂３丁目４番３－１３１１号,,13,108,1360075,,,,,,,2024-02-01,1,,,,,ティーエフシー,0
1905,9010701045490,新規,0,2024-02-01,2024-02-01,ランドビッグ株式会社,,株式会社,東京都,品川区,上大崎３丁目１番２－１４０６号,,13,109,1410021,,,,,,,2024-02-01,1,,,,,ランドビッグ,0
1910,9010901054630,新規,0,2024-02-01,2024-02-01,株式会社アイサイト,,株式会社,東京都,世田谷区,三軒茶屋１丁目４１番１２号,,13,112,1540024,,,,,,,2024-02-01,1,,,,,アイサイト,0
1918,9011003018375,新規,0,2024-02-01,2024-02-01,合同会社ピボタル,,合同会社,東京都,渋谷区,恵比寿西２丁目４番８号ウィンド恵比寿ビル８Ｆ,,13,113,1500021,,,,,,,2024-02-01,1,,,,,ピボタル,0
1921,9011101106040,新規,0,2024-02-01,2024-02-01,株式会社真榮,,株式会社,東京都,新宿区,荒木町３番地,,13,104,1600007,,,,,,,2024-02-01,1,,,,,シンエイ,0
1926,9011503005930,新規,0,2024-02-01,2024-02-01,合同会社西田商事,,合同会社,東京都,荒川区,西日暮里２丁目２１番１号Ｍ・Ｃ８８ビル３０１,,13,118,1160013,,,,,,,2024-02-01,1,,,,,ニシダショウジ,0
1928,9011703003726,新規,0,2024-02-01,2024-02-01,合同会社ＭＩＲＡＣＲＥＡＬ,,合同会社,東京都,江戸川区,東葛西２丁目１３番１２－４０５号,,13,123,1340084,,,,,,,2024-02-01,1,,,,,ミラクリアル,0
1930,9012301013761,新規,0,2024-02-01,2024-02-01,株式会社Ｃｒｉｍｓｏｎ,,株式会社,東京都,町田市,相原町１３８番地２０,,13,209,1940211,,,,,,,2024-02-01,1,,,,,クリムゾン,0
1934,9013301051999,新規,0,2024-02-01,2024-02-01,ＷＳカンテラ株式会社,,株式会社,東京都,豊島区,巣鴨１丁目２９－７,,13,116,1700002,,,,,,,2024-02-01,1,,,,,ダブリューエスカンテラ,0
1941,9020001155576,新規,0,2024-02-01,2024-02-01,株式会社ランデブー,,株式会社,神奈川県,横浜市南区,永田山王台３９番２７－４１２号,,14,105,2320074,,,,,,,2024-02-01,1,,,,,ランデブー,0
1942,9020003025471,新規,0,2024-02-01,2024-02-01,合同会社ＢＳＳマネジメント,,合同会社,神奈川県,横浜市磯子区,森１丁目７番３号４０９号室,,14,107,2350023,,,,,,,2024-02-01,1,,,,,ビーエスエスマネジメント,0
1943,9021001081358,新規,0,2024-02-01,2024-02-01,株式会社丸ト建築,,株式会社,神奈川県,藤沢市,羽鳥３丁目１番３５号,,14,205,2510056,,,,,,,2024-02-01,1,,,,,マルトケンチク,0
1952,9030001158181,新規,0,2024-02-01,2024-02-01,株式会社ＨＩＲＵＴＡ,,株式会社,埼玉県,川口市,大字石神１２０６,,11,203,3330823,,,,,,,2024-02-01,1,,,,,ヒルタ,0
1953,9030001158396,新規,0,2024-02-01,2024-02-01,株式会社Ｋ‐ＵＰ,,株式会社,埼玉県,草加市,八幡町１０６０番地１１,,11,221,3400006,,,,,,,2024-02-01,1,,,,,ケーアップ,0
1954,9030001158421,新規,0,2024-02-01,2024-02-01,ＳＱＰ株式会社,,株式会社,埼玉県,戸田市,笹目南町２９－２４オーネスト３０６,,11,224,3350035,,,,,,,2024-02-01,1,,,,,エスキューピー,0
1955,9030001158454,新規,0,2024-02-01,2024-02-01,株式会社ラフォーレサービス,,株式会社,埼玉県,日高市,大字猿田１７８番地９,,11,242,3501236,,,,,,,2024-02-01,1,,,,,ラフォーレサービス,0
1959,9030003023490,新規,0,2024-02-01,2024-02-01,合同会社まいはいＫ,,合同会社,埼玉県,蓮田市,椿山２丁目２番１６号,,11,238,3490144,,,,,,,2024-02-01,1,,,,,マイハイケー,0
1960,9030003023508,新規,0,2024-02-01,2024-02-01,せんばやま合同会社,,合同会社,埼玉県,川越市,仙波町２丁目２－１６,,11,201,3500034,,,,,,,2024-02-01,1,,,,,センバヤマ,0
1961,9030003023540,新規,0,2024-02-01,2024-02-01,らぽーる合同会社,,合同会社,埼玉県,戸田市,大字新曽２５１３－１戸田パークフォルム５０４,,11,224,3350021,,,,,,,2024-02-01,1,,,,,ラポール,0
1964,9040001131988,新規,0,2024-02-01,2024-02-01,株式会社ＣａａａａＺ,,株式会社,千葉県,松戸市,常盤平４丁目１２番地の１０,,12,207,2702261,,,,,,,2024-02-01,1,,,,,カーズ,0
1965,9040001131996,新規,0,2024-02-01,2024-02-01,プライムコンフォート株式会社,,株式会社,千葉県,船橋市,東船橋７丁目１７番１８号,,12,204,2730002,,,,,,,2024-02-01,1,,,,,プライムコンフォート,0
1971,9040003024249,新規,0,2024-02-01,2024-02-01,合同会社ドリコーポレーション,,合同会社,千葉県,館山市,上真倉２０８１番地の５,,12,205,2940038,,,,,,,2024-02-01,1,,,,,ドリコーポレーション,0
1997,9120001261835,新規,0,2024-02-01,2024-02-01,富裕株式会社,,株式会社,大阪府,大阪市淀川区,宮原１丁目１９番２３－４０１号,,27,123,5320003,,,,,,,2024-02-01,1,,,,,フユウ,0
1998,9120001261868,新規,0,2024-02-01,2024-02-01,株式会社オデッセイ,,株式会社,大阪府,大阪市天王寺区,大道２丁目１１番８－２０１号,,27,109,5430052,,,,,,,2024-02-01,1,,,,,オデッセイ,0
1999,9120001261876,新規,0,2024-02-01,2024-02-01,株式会社Ｇｏｅｓ,,株式会社,大阪府,大阪市阿倍野区,晴明通６番２３号,,27,119,5450032,,,,,,,2024-02-01,1,,,,,ゴーズ,0
2000,9120003025825,新規,0,2024-02-01,2024-02-01,合同会社香港キャピタル,,合同会社,大阪府,大阪市東淀川区,淡路４丁目６番８号,,27,114,5330032,,,,,,,2024-02-01,1,,,,,ホンコンキャビタル,0
2001,9120003025833,新規,0,2024-02-01,2024-02-01,Ｓ’ｓ　ＳＥＮＳＥ合同会社,,合同会社,大阪府,大阪市浪速区,難波中１丁目１－６新川橋ビル５０１号,,27,111,5560011,,,,,,,2024-02-01,1,,,,,エスズセンス,0
2005,9120105009825,新規,0,2024-02-01,2024-02-01,一般社団法人占いクリエイター協会,,その他の設立登記法人,大阪府,堺市東区,南野田３６６番地４１,,27,143,5998124,,,,,,,2024-02-01,1,,,,,ウラナイクリエイターキョウカイ,0
2008,9122003002787,新規,0,2024-02-01,2024-02-01,合同会社弥栄,,合同会社,大阪府,東大阪市,加納２丁目１６番９号,,27,227,5780901,,,,,,,2024-02-01,1,,,,,イヤサカ,0
2011,9130005016994,新規,0,2024-02-01,2024-02-01,特定非営利活動法人南大阪皮膚疾患研究会,,その他の設立登記法人,京都府,京都市左京区,松ケ崎西桜木町３１番地,,26,103,6060903,,,,,,,2024-02-01,1,,,,,ミナミオオサカヒフシッカンケンキュウカイ,0
2013,9140001133116,新規,0,2024-02-01,2024-02-01,ピッタ株式会社,,株式会社,兵庫県,西宮市,松山町１６番３３－３０３号,,28,204,6638101,,,,,,,2024-02-01,1,,,,,ピッタ,0
2014,9140001133165,新規,0,2024-02-01,2024-02-01,美佳爽日本衛生用品株式会社,,株式会社,兵庫県,神戸市東灘区,向洋町中１丁目１７,,28,101,6580032,,,,,,,2024-02-01,1,,,,,ビカソウニホンエイセイヨウヒン,0
2015,9140005026935,新規,0,2024-02-01,2024-02-01,弁護士法人イーグル,,その他の設立登記法人,兵庫県,神戸市中央区,三宮町３丁目７番６号神戸元町ユニオンビル７階,,28,110,6500021,,,,,,,2024-02-01,1,,,,,イーグル,0
2017,9150003003175,新規,0,2024-02-01,2024-02-01,合同会社Ｋ３,,合同会社,奈良県,奈良市,押熊町６８９番地の４４,,29,201,6310011,,,,,,,2024-02-01,1,,,,,ケースリー,0
2018,9160005011266,新規,0,2024-02-01,2024-02-01,滋賀ロジスティクス協同組合,,その他の設立登記法人,滋賀県,湖南市,朝国２６１番地４,,25,211,5203251,,,,,,,2024-02-01,1,,,,,シガロジスティクス,0
2025,9180003026297,新規,0,2024-02-01,2024-02-01,合同会社美楽田農園,,合同会社,愛知県,犬山市,大字犬山字専正寺町１６番地２,,23,215,4840081,,,,,,,2024-02-01,1,,,,,ビガクデンノウエン,0
2028,9180303005991,新規,0,2024-02-01,2024-02-01,合同会社ｖｅｒｄｅ　ｌｉｍｏｎｅ,,合同会社,愛知県,豊田市,井上町７丁目１５４番地,,23,211,4700372,,,,,,,2024-02-01,1,,,,,ヴェルデリモーネ,0
2042,9240001062742,新規,0,2024-02-01,2024-02-01,ｅｕｔｅｃｈ株式会社,,株式会社,広島県,広島市西区,大芝２丁目５番２０－１号,,34,104,7330001,,,,,,,2024-02-01,1,,,,,ユーテック,0
2043,9240003006516,新規,0,2024-02-01,2024-02-01,府中商事合同会社,,合同会社,広島県,福山市,能島２丁目２２番７号,,34,207,7210906,,,,,,,2024-02-01,1,,,,,フチュウショウジ,0
2047,9290001104564,新規,0,2024-02-01,2024-02-01,株式会社立,,株式会社,福岡県,福岡市中央区,天神３丁目１－１・８階,,40,133,8100001,,,,,,,2024-02-01,1,,,,,リツ,0
2051,9290003014927,新規,0,2024-02-01,2024-02-01,合同会社Ｔｒｙａｎｇｌｅ,,合同会社,福岡県,久留米市,東町３９－２４天神愛眼ビル１Ｆ,,40,203,8300032,,,,,,,2024-02-01,1,,,,,トライアングル,0
2055,9300001013607,新規,0,2024-02-01,2024-02-01,株式会社ＬＩＦＥＭＥＮＴ,,株式会社,佐賀県,鳥栖市,村田町８４６番地３ユニヴァリィレジデンス２０１,,41,203,8410072,,,,,,,2024-02-01,1,,,,,ライフメント,0
2059,9310003004702,新規,0,2024-02-01,2024-02-01,合同会社高原水産,,合同会社,長崎県,対馬市,上県町御園３０５番地１,,42,209,8171525,,,,,,,2024-02-01,1,,,,,タカハラスイサン,0
2061,9330005010754,新規,0,2024-02-01,2024-02-01,特定非営利活動法人熊本県地域こども食堂支援センターＴＳＵＤＯＵ・ＮＥＴ,,その他の設立登記法人,熊本県,熊本市中央区,帯山４丁目２４番２３号,,43,101,8620924,,,,,,,2024-02-01,1,,,,,,0
2063,9360001033137,新規,0,2024-02-01,2024-02-01,株式会社Ｇｒｅｅｎ,,株式会社,沖縄県,中頭郡嘉手納町,字水釜５４６番地９,,47,325,9040204,,,,,,,2024-02-01,1,,,,,グリーン,0
2065,9360003013673,新規,0,2024-02-01,2024-02-01,合同会社Ｃ．Ｐｌａｎ,,合同会社,沖縄県,南城市,知念字知名９５番地３,,47,215,9011503,,,,,,,2024-02-01,1,,,,,シープラン,0
2066,9370001050890,新規,0,2024-02-01,2024-02-01,株式会社アオキ電設,,株式会社,宮城県,仙台市青葉区,上愛子字雷神２番地の１９,,04,101,9893124,,,,,,,2024-02-01,1,,,,,アオキデンセツ,0
2072,9400003003208,新規,0,2024-02-01,2024-02-01,合同会社微笑会,,合同会社,岩手県,北上市,口内町松坂２２８番地イ号,,03,206,0240211,,,,,,,2024-02-01,1,,,,,ホホエミカイ,0
2075,9430001090971,新規,0,2024-02-01,2024-02-01,株式会社モード,,株式会社,北海道,室蘭市,幌萌町１０４番地,,01,205,0500066,,,,,,,2024-02-01,1,,,,,モード,0
2076,9430001090988,新規,0,2024-02-01,2024-02-01,青浪株式会社,,株式会社,北海道,札幌市中央区,南三条東６丁目１番４,,01,101,0600053,,,,,,,2024-02-01,1,,,,,セイロウ,0
2081,9470001020000,新規,0,2024-02-01,2024-02-01,向日葵株式会社,,株式会社,香川県,三豊市,豊中町下高野２５２５下高野オフィスビルＡ－１,,37,208,7691508,,,,,,,2024-02-01,1,,,,,ヒマワリ,0
2082,9490003001863,新規,0,2024-02-01,2024-02-01,合同会社ＺＹＧ,,合同会社,高知県,高知市,長浜３０３１番地１,,39,201,7810270,,,,,,,2024-02-01,1,,,,,ジグ,0
2085,9500003003180,新規,0,2024-02-01,2024-02-01,合同会社ストレージファーム,,合同会社,愛媛県,松山市,勝岡町４４番地,,38,201,7992661,,,,,,,2024-02-01,1,,,,,ストレージファーム,0
2086,9700150117746,新規,0,2024-02-01,2024-02-01,ｚｈｅｊｉａｎｇｓｈｅｎｇｊｉｅｘｉｎｘｉｋｅｊｉｙｏｕｘｉａｎｇｏｎｇｓｉ,,外国会社等,,,,,,,,ｂｅｉｌｕｎｑｕｘｉｎｑｉｊｉｅｄａｏｍｉｎｇｚｈｏｕｘｉｌｕ１７９ｈａｏ１ｚｈｕａｎｇ６２９－２ｓｈｉｎｉｎｇｂｏｓｈｉｚｈｅｊｉａｎｇｓｈｅｎｇ３１５０００ＣＮ,,,,,,2024-02-01,1,,,,,チェジエンシェンジエシンシクージヨウシエンゴンス,0
2087,9700150118521,新規,0,2024-02-01,2024-02-01,Ｓｈｅｎｚｈｅｎｓｈｉａｉｋｅｘｕｎｋｅｊｉｙｏｕｘｉａｎｇｏｎｇｓｉ,,外国会社等,,,,,,,,ＬｏｎｇｇａｎｇＱｕ　Ｂｕｊｉｊｉｅｄａｏ　ＧａｎｋｅｎｇＣｕｎ１４　Ｘｉａｎｇ　１０　Ｈａｏ　５０３ＳｈｅｎｚｈｅｎＧｕａｎｇｄｏｎｇ５１８０００ＣＮ,,,,,,2024-02-01,1,,,,,シェンジェンシアイコァシュインコァジヨウシエンゴンス,0
2088,9700150123760,新規,0,2024-02-01,2024-02-01,ｍｉｋｅｓｉｄｉａｎｚｉｋｅｊｉｚｅｒｅｎｙｏｕｘｉａｎｇｏｎｇｓｉ,,外国会社等,,,,,,,,Ｒｏｏｍ　１００１，Ｂｕｉｌｄｉｎｇ　５６，Ｄｉｓｔｒｉｃｔ　１，Ｂａｏｓｈａｎ　Ｘｉｎｃｕｎ，Ｌｏｎｇｈｕａ　Ｓｔｒｅｅｔ，Ｌｏｎｇｈｕａ　Ｎｅｗ　Ｄｉｓｔｒｉｃｔ，Ｓｈｅｎｚｈｅｎ，Ｃｈｉｎａ,,,,,,2024-02-01,1,,,,,シエンジエンシーミーコースーデイエンズーコージーヨウシエンゾーレンゴンスー,0
