sequenceNumber,corporateNumber,process,correct,updateDate,changeDate,name,nameImageId,kind,prefectureName,cityName,streetNumber,addressImageId,prefectureCode,cityCode,postCode,addressOutside,addressOutsideImageId,closeDate,closeCause,successorCorporateNumber,changeCause,assignmentDate,latest,enName,enPrefectureName,enCityName,enAddressOutside,furigana,hihyoji
24,1010001244585,新規,0,2024-05-14,2024-05-14,株式会社Ｊ‐Ｃｙｃｌｅ,,株式会社,東京都,中央区,京橋２丁目５番１５号京橋ＲＫビル９階,,13,102,1040031,,,,,,,2024-05-14,1,,,,,ジェイサイクル,0
25,1010001244692,新規,0,2024-05-14,2024-05-14,山田＆パートナーズサステナビリティ株式会社,,株式会社,東京都,千代田区,丸の内１丁目８番１号丸の内トラストタワーＮ館,,13,101,1000005,,,,,,,2024-05-14,1,,,,,ヤマダアンドパートナーズサステナビリティ,0
26,1010001244742,新規,0,2024-05-14,2024-05-14,株式会社ＭＤＰコーポレーション,,株式会社,東京都,文京区,本駒込２丁目１０－９,,13,105,1130021,,,,,,,2024-05-14,1,,,,,エムディピーコーポレーション,0
27,1010001244759,新規,0,2024-05-14,2024-05-14,株式会社Ｗｉｎｐ,,株式会社,東京都,千代田区,神田佐久間町１丁目８番地４アルテール秋葉原７０８,,13,101,1010025,,,,,,,2024-05-14,1,,,,,ウィンプ,0
28,1010001244783,新規,0,2024-05-14,2024-05-14,株式会社Ｄａｌ　Ｃｒｏｃｅ,,株式会社,東京都,中央区,銀座３丁目８番８号太郎坊ビルＢ１Ｆ,,13,102,1040061,,,,,,,2024-05-14,1,,,,,ダルクローチェ,0
29,1010001244791,新規,0,2024-05-14,2024-05-14,Ｒｈｅａ株式会社,,株式会社,東京都,千代田区,永田町２丁目１４番２号山王グランドビル３階スリーアイズキャピタル株式会社内,,13,101,1000014,,,,,,,2024-05-14,1,,,,,レア,0
30,1010003043713,新規,0,2024-05-14,2024-05-14,合同会社じゅげむ,,合同会社,東京都,中央区,佃３丁目３番９号,,13,102,1040051,,,,,,,2024-05-14,1,,,,,ジュゲム,0
31,1010003043721,新規,0,2024-05-14,2024-05-14,合同会社ＦＤ,,合同会社,東京都,千代田区,丸の内１丁目６番１号,,13,101,1000005,,,,,,,2024-05-14,1,,,,,エフディー,0
35,1010401182261,新規,0,2024-05-14,2024-05-14,株式会社フリソス,,株式会社,東京都,港区,浜松町２丁目７番１７号イーグル浜松町ビル１０階１０６１号室,,13,103,1050013,,,,,,,2024-05-14,1,,,,,フリソス,0
36,1010401182377,新規,0,2024-05-14,2024-05-14,株式会社Ｓｏｔｅｒｉａ,,株式会社,東京都,港区,虎ノ門１丁目１７番１号虎ノ門ヒルズビジネスタワー１５Ｆ,,13,103,1050001,,,,,,,2024-05-14,1,,,,,ソテリア,0
37,1010401182402,新規,0,2024-05-14,2024-05-14,株式会社アイステイプ,,株式会社,東京都,港区,南青山３丁目１番３６号青山丸竹ビル６Ｆ,,13,103,1070062,,,,,,,2024-05-14,1,,,,,アイステイプ,0
40,1010403032613,新規,0,2024-05-14,2024-05-14,合同会社ＹＣＨ１６,,合同会社,東京都,港区,南青山２丁目２番１５－８２５号,,13,103,1070062,,,,,,,2024-05-14,1,,,,,ワイシーエイチシックスティーン,0
41,1010501052249,新規,0,2024-05-14,2024-05-14,Ｇｒｅｅｎｔｒｅｅ　Ｌｉｆｅ株式会社,,株式会社,東京都,台東区,三ノ輪１丁目１２番１２号ミツホビル,,13,106,1100011,,,,,,,2024-05-14,1,,,,,グリーンツリーライフ,0
42,1010501052257,新規,0,2024-05-14,2024-05-14,ＣｙｂｅｒＢａｃｈ株式会社,,株式会社,東京都,台東区,清川１丁目２１－５ＷＡＬＬａｐａｒｔｍｅｎｔ５階大区画号室,,13,106,1110022,,,,,,,2024-05-14,1,,,,,サイバーバッハ,0
43,1010501052265,新規,0,2024-05-14,2024-05-14,ひまわり株式会社,,株式会社,東京都,台東区,根岸１丁目６番１２号トーカンマンション鶯谷４０２号室,,13,106,1100003,,,,,,,2024-05-14,1,,,,,ヒマワリ,0
44,1010501052273,新規,0,2024-05-14,2024-05-14,株式会社ブレインプレイス,,株式会社,東京都,台東区,浅草６丁目５番１１－４０１号レムリア浅草,,13,106,1110032,,,,,,,2024-05-14,1,,,,,ブレインプレイス,0
57,1011001161944,新規,0,2024-05-14,2024-05-14,株式会社武神,,株式会社,東京都,渋谷区,笹塚３丁目４３番９号,,13,113,1510073,,,,,,,2024-05-14,1,,,,,ブシン,0
58,1011001161969,新規,0,2024-05-14,2024-05-14,株式会社ＡＩ　Ｍｏｄｅｌ　Ｌａｂｏ,,株式会社,東京都,渋谷区,恵比寿南３丁目１－１９恵比寿ライトビル５階,,13,113,1500022,,,,,,,2024-05-14,1,,,,,エーアイモデルラボ,0
61,1011005010503,新規,0,2024-05-14,2024-05-14,一般社団法人サステナビリティマネジメント＆アシュアランス機構,,その他の設立登記法人,東京都,渋谷区,恵比寿西２丁目４番８号ウィンド恵比寿ビル８Ｆ,,13,113,1500021,,,,,,,2024-05-14,1,,,,,サステナビリティマネジメントアンドアシュアランスキコウ,0
63,1011101107260,新規,0,2024-05-14,2024-05-14,株式会社ＡＲＣ,,株式会社,東京都,新宿区,西新宿３丁目３番１３号西新宿水間ビル６階,,13,104,1600023,,,,,,,2024-05-14,1,,,,,アーク,0
64,1011101107310,新規,0,2024-05-14,2024-05-14,株式会社Ｒｅｇａｌｏ,,株式会社,東京都,新宿区,西新宿４丁目２番１５－５０１号,,13,104,1600023,,,,,,,2024-05-14,1,,,,,リガロ,0
67,1011201025461,新規,0,2024-05-14,2024-05-14,株式会社アクトライズ,,株式会社,東京都,中野区,上鷺宮３丁目１７番８号共栄ビル２０１,,13,114,1650031,,,,,,,2024-05-14,1,,,,,アクトライズ,0
73,1011701027255,新規,0,2024-05-14,2024-05-14,株式会社Ｓｏｌｅｉｌ,,株式会社,東京都,江戸川区,南小岩１丁目１１番８号,,13,123,1330056,,,,,,,2024-05-14,1,,,,,ソレイユ,0
89,1020001157118,新規,0,2024-05-14,2024-05-14,株式会社アンダーカラーデザイン,,株式会社,神奈川県,横浜市中区,本郷町３丁目１５８番地１,,14,104,2310843,,,,,,,2024-05-14,1,,,,,アンダーカラーデザイン,0
90,1020001157183,新規,0,2024-05-14,2024-05-14,株式会社ＲＥＤＲＯＣＫ,,株式会社,神奈川県,横浜市都筑区,荏田東４丁目１番１４号,,14,118,2240006,,,,,,,2024-05-14,1,,,,,レッドロック,0
91,1020001157191,新規,0,2024-05-14,2024-05-14,株式会社船津工務店,,株式会社,神奈川県,横浜市南区,蒔田町字東谷８７８番地３９,,14,105,2320043,,,,,,,2024-05-14,1,,,,,フナツコウムテン,0
95,1020003026064,新規,0,2024-05-14,2024-05-14,ＫＡＮＯＮ　ＨＯＭＥ合同会社,,合同会社,神奈川県,横浜市保土ケ谷区,法泉１丁目４番４－４０６号,,14,106,2400032,,,,,,,2024-05-14,1,,,,,カノンホーム,0
103,1021001082173,新規,0,2024-05-14,2024-05-14,エファプロ株式会社,,株式会社,神奈川県,大和市,中央林間７丁目９番２－９０３号,,14,213,2420007,,,,,,,2024-05-14,1,,,,,エファプロ,0
109,1030001160236,新規,0,2024-05-14,2024-05-14,ソーシャルサポート株式会社,,株式会社,埼玉県,さいたま市岩槻区,美園東１丁目１番地１ルピアグランデ浦和美園１２１３,,11,110,3390028,,,,,,,2024-05-14,1,,,,,ソーシャルサポート,0
110,1030001160252,新規,0,2024-05-14,2024-05-14,株式会社シップ,,株式会社,埼玉県,川口市,並木３丁目３４番２２号,,11,203,3320034,,,,,,,2024-05-14,1,,,,,シップ,0
111,1030001160302,新規,0,2024-05-14,2024-05-14,アテナシステム株式会社,,株式会社,埼玉県,新座市,北野３丁目７番２１－８１０号,,11,230,3520003,,,,,,,2024-05-14,1,,,,,アテナシステム,0
112,1030001160310,新規,0,2024-05-14,2024-05-14,株式会社Ｍｅｓｍｅｒｉｓｅ,,株式会社,埼玉県,朝霞市,本町２丁目２５番８号,,11,227,3510011,,,,,,,2024-05-14,1,,,,,メズマライズ,0
113,1030001160319,新規,0,2024-05-14,2024-05-14,株式会社ＢＥＭＯＳ,,株式会社,埼玉県,さいたま市桜区,道場２丁目１５番１１号,,11,106,3380835,,,,,,,2024-05-14,1,,,,,ベモス,0
120,1030003024281,新規,0,2024-05-14,2024-05-14,富士コンサルティング合同会社,,合同会社,埼玉県,川越市,伊勢原町２丁目１０番地１０,,11,201,3501108,,,,,,,2024-05-14,1,,,,,フジコンサルティング,0
125,1040001133538,新規,0,2024-05-14,2024-05-14,株式会社ビューティーフル,,株式会社,千葉県,船橋市,西船４丁目１９番１号第１１花園ビル３０５,,12,204,2730031,,,,,,,2024-05-14,1,,,,,ビューティーフル,0
126,1040001133562,新規,0,2024-05-14,2024-05-14,株式会社ＵＮＤＥＲ　ＴＨＥ　ＳＫＹ．,,株式会社,千葉県,松戸市,松飛台１４５番地の１０,,12,207,2702214,,,,,,,2024-05-14,1,,,,,,0
127,1040001133595,新規,0,2024-05-14,2024-05-14,株式会社ＢＯＮＡＮＺＡ,,株式会社,千葉県,流山市,加４丁目１３－３エクセル流山２０２,,12,220,2700176,,,,,,,2024-05-14,1,,,,,ボナンザ,0
129,1040003024925,新規,0,2024-05-14,2024-05-14,合同会社石原工業,,合同会社,千葉県,八街市,八街へ２１４番地３６２,,12,230,2891113,,,,,,,2024-05-14,1,,,,,イシハラコウギョウ,0
130,1040003024982,新規,0,2024-05-14,2024-05-14,合同会社サガミ管理,,合同会社,千葉県,松戸市,松戸１７７９番地,,12,207,2710092,,,,,,,2024-05-14,1,,,,,サガミカンリ,0
131,1040003024990,新規,0,2024-05-14,2024-05-14,合同会社Ｒｅｎｚｏエステート,,合同会社,千葉県,四街道市,和良比２７７,,12,228,2840044,,,,,,,2024-05-14,1,,,,,レンゾーエステート,0
139,1050001054725,新規,0,2024-05-14,2024-05-14,株式会社ＴＡＴＡ　ＤＥＳＩＧＮ,,株式会社,茨城県,つくば市,大字上河原崎元宮本１４３番地１（高山Ｃ４街区１０）,,08,220,3002661,,,,,,,2024-05-14,1,,,,,タタデザイン,0
140,1050001054741,新規,0,2024-05-14,2024-05-14,ＡＬ‐ＡＭＩＮ　ＴＲＡＤＩＮＧ株式会社,,株式会社,茨城県,古河市,東山田５３１０番地４９７,,08,204,3060112,,,,,,,2024-05-14,1,,,,,アルアミントレーディング,0
147,1080003003198,新規,0,2024-05-14,2024-05-14,合同会社ＳＺＫ,,合同会社,静岡県,静岡市清水区,大坪１丁目９番５号,,22,103,4240847,,,,,,,2024-05-14,1,,,,,,0
149,1080101024740,新規,0,2024-05-14,2024-05-14,土屋マリンサービス株式会社,,株式会社,静岡県,下田市,武ガ浜７－１,,22,219,4150015,,,,,,,2024-05-14,1,,,,,ツチヤマリンサービス,0
152,1110003005389,新規,0,2024-05-14,2024-05-14,ＪＯＥＹ’Ｓ　ＣＵＳＴＯＭ　ＢＯＯＴ　ＦＩＴＴＩＮＧ合同会社,,合同会社,新潟県,妙高市,大字赤倉４２６番地４３,,15,217,9492111,,,,,,,2024-05-14,1,,,,,ジヨーイズカスタムブーツフィッティング,0
166,1120001264589,新規,0,2024-05-14,2024-05-14,株式会社ＲｉＳＴ,,株式会社,大阪府,大阪市東成区,深江北２丁目９番３号,,27,115,5370001,,,,,,,2024-05-14,1,,,,,リスト,0
167,1120001264671,新規,0,2024-05-14,2024-05-14,株式会社シーダ,,株式会社,大阪府,大阪市平野区,加美南４丁目１番４３－２０５号,,27,126,5470003,,,,,,,2024-05-14,1,,,,,シーダ,0
168,1120001264696,新規,0,2024-05-14,2024-05-14,株式会社リープ,,株式会社,大阪府,大阪市港区,磯路１丁目６番３号,,27,107,5520003,,,,,,,2024-05-14,1,,,,,リープ,0
169,1120001264779,新規,0,2024-05-14,2024-05-14,大黒天株式会社,,株式会社,大阪府,大阪市東成区,玉津１丁目３番２１号ＫＣ玉造イーストビル３０３,,27,115,5370023,,,,,,,2024-05-14,1,,,,,ダイコクテン,0
170,1120001264837,新規,0,2024-05-14,2024-05-14,ライフデザインＤｒ株式会社,,株式会社,大阪府,枚方市,養父丘１丁目１７番３２号,,27,210,5731134,,,,,,,2024-05-14,1,,,,,ライフデザインドクター,0
171,1120001264845,新規,0,2024-05-14,2024-05-14,東寅軒株式会社,,株式会社,大阪府,大阪市都島区,都島本通３丁目２４番６－２０２号,,27,102,5340021,,,,,,,2024-05-14,1,,,,,トウインケン,0
175,1120005024312,新規,0,2024-05-14,2024-05-14,一般社団法人日本ソーシャルサポート協会,,その他の設立登記法人,大阪府,大阪市北区,池田町３番１ー２０１号,,27,127,5300033,,,,,,,2024-05-14,1,,,,,ニホンソーシャルサポートキョウカイ,0
184,1130001077040,新規,0,2024-05-14,2024-05-14,株式会社天グループ,,株式会社,京都府,京田辺市,山手西２丁目１６番地１３,,26,211,6100355,,,,,,,2024-05-14,1,,,,,テングループ,0
192,1140001134261,新規,0,2024-05-14,2024-05-14,株式会社ＴＹ,,株式会社,兵庫県,加古川市,尾上町池田１６９９番地の２,,28,210,6750023,,,,,,,2024-05-14,1,,,,,ティーワイ,0
193,1140001134369,新規,0,2024-05-14,2024-05-14,＿＿商事株式会社,00134751,株式会社,兵庫県,神戸市長田区,丸山町１丁目６－１９－１０１号室,,28,106,6530875,,,,,,,2024-05-14,1,,,,,シンシンショウジ,0
194,1140001134377,新規,0,2024-05-14,2024-05-14,友起建設株式会社,,株式会社,兵庫県,尼崎市,神崎町４０番１－２１０号,,28,202,6610964,,,,,,,2024-05-14,1,,,,,ユウキケンセツ,0
199,1170001018131,新規,0,2024-05-14,2024-05-14,株式会社アジャストワン,,株式会社,和歌山県,海草郡紀美野町,毛原中８７番地,,30,304,6401474,,,,,,,2024-05-14,1,,,,,アジャストワン,0
200,1170003002042,新規,0,2024-05-14,2024-05-14,合同会社ＳＧファーマシー,,合同会社,和歌山県,和歌山市,栄谷１１００番地１１６,,30,201,6408441,,,,,,,2024-05-14,1,,,,,エスジーファーマシー,0
209,1180001161434,新規,0,2024-05-14,2024-05-14,株式会社ハレレア,,株式会社,愛知県,名古屋市北区,田幡２丁目１４番８号田中ビル４０６号,,23,103,4620843,,,,,,,2024-05-14,1,,,,,ハレレア,0
213,1180003026775,新規,0,2024-05-14,2024-05-14,合同会社平松商店,,合同会社,愛知県,名古屋市瑞穂区,初日町２丁目６番地,,23,108,4670028,,,,,,,2024-05-14,1,,,,,ヒラマツショウテン,0
217,1180303006122,新規,0,2024-05-14,2024-05-14,合同会社ＴＵＲＮ,,合同会社,愛知県,岡崎市,三崎町８番地１,,23,202,4440853,,,,,,,2024-05-14,1,,,,,ターン,0
219,1190001031347,新規,0,2024-05-14,2024-05-14,株式会社寿公,,株式会社,三重県,名張市,美旗町中２番１１６番地,,24,208,5180618,,,,,,,2024-05-14,1,,,,,ジュコウ,0
229,1230003002201,新規,0,2024-05-14,2024-05-14,Ｍａｋｅｔｔｏ合同会社,,合同会社,富山県,富山市,雄山町２番４号,,16,201,9398092,,,,,,,2024-05-14,1,,,,,マーケット,0
237,1260005011354,新規,0,2024-05-14,2024-05-14,ひつじや行政書士法人,,その他の設立登記法人,岡山県,岡山市東区,西大寺中２丁目１６番１２号,,33,103,7048116,,,,,,,2024-05-14,1,,,,,ヒツジヤ,0
239,1290001105685,新規,0,2024-05-14,2024-05-14,株式会社うさぎサポート,,株式会社,福岡県,福岡市中央区,舞鶴３丁目２番１３号,,40,133,8100073,,,,,,,2024-05-14,1,,,,,ウサギサポート,0
240,1290001105693,新規,0,2024-05-14,2024-05-14,株式会社Ｍ’ｓ　ｔｅｒｒａｃｅ,,株式会社,福岡県,福岡市博多区,吉塚４丁目６番１２－６０２号,,40,132,8120041,,,,,,,2024-05-14,1,,,,,エムズテラス,0
259,1360001033656,新規,0,2024-05-14,2024-05-14,株式会社ＹＵＲＡＲＩＮ,,株式会社,沖縄県,中頭郡北谷町,字宮城１番地７８２ライオンズマンション美浜北ベイアーク５０３,,47,326,9040113,,,,,,,2024-05-14,1,,,,,ユラリン,0
261,1370001051293,新規,0,2024-05-14,2024-05-14,株式会社双輪商会,,株式会社,宮城県,仙台市若林区,一本杉町１０番２３号,,04,103,9840828,,,,,,,2024-05-14,1,,,,,ソウリンショウカイ,0
268,1380001034537,新規,0,2024-05-14,2024-05-14,株式会社ダイユーエイトリフォームサービスセンター,,株式会社,福島県,福島市,太平寺字堰ノ上５８番地,,07,201,9608151,,,,,,,2024-05-14,1,,,,,ダイユーエイトリフォームサービスセンター,0
283,1430001091804,新規,0,2024-05-14,2024-05-14,株式会社左彩,,株式会社,北海道,小樽市,桜４丁目４番２０号,,01,203,0470156,,,,,,,2024-05-14,1,,,,,シャサイ,0
288,1430003016321,新規,0,2024-05-14,2024-05-14,高橋水道設備合同会社,,合同会社,北海道,小樽市,松ケ枝１丁目２５番８号,,01,203,0470022,,,,,,,2024-05-14,1,,,,,タカハシスイドウセツビ,0
289,1430005014983,新規,0,2024-05-14,2024-05-14,ＭＡＳＴ社会保険労務士法人,,その他の設立登記法人,北海道,札幌市東区,北十一条東１丁目１番４０ＳＡＫＵＲＡ－Ｎ１１,,01,103,0650011,,,,,,,2024-05-14,1,,,,,マスト,0
294,1470001020189,新規,0,2024-05-14,2024-05-14,株式会社そらちファーム,,株式会社,香川県,三豊市,三野町大見乙１１２番地１０２,,37,208,7670031,,,,,,,2024-05-14,1,,,,,ソラチファーム,0
304,1700150116094,新規,0,2024-05-14,2024-05-14,ｔａｎｇｓｈａｎａｎｗｅｉｎａｔａｏｃｉｙｏｕｘｉａｎｇｏｎｇｓｉ,,外国会社等,,,,,,,,Ｚｈｅｎｇｚｈｕａｎｇｚｉ　ｖｉｌｌａｇｅ，Ｈｉｇｈ－ｔｅｃｈ　Ｚｏｎｅ，Ｈｅｂｅｉ　ｐｒｏｖｉｎｃｅ,,,,,,2024-05-14,1,,,,,タンザンアンウェイナタオチユウゲンコウシ,0
305,1700150124808,新規,0,2024-05-14,2024-04-12,フードバンク大和郡山,,その他,奈良県,大和郡山市,魚町４６－１,,29,203,6391168,,,,,,,2024-04-12,1,,,,,フードバンクヤマトコオリヤマ,0
306,1700150125368,新規,0,2024-05-14,2024-05-14,ｐｕｊｉａｎｇｙｕａｎｓｕｊｉａｊｕｙｏｕｘｉａｎｇｏｎｇｓｉ,,外国会社等,,,,,,,,ＰＵＹＡＮＧ　ＳＴＲＥＥＴ，ＳＨＥＮＧＡＯＨＡＮＧＦＵ　ＢＵＩＬＤＩＮＧ７，ＵＮＩＴ１，ＲＯＯＭ　１４０２　ＰＵＪＩＡＮＧ　ＺＨＥＪＩＡＮＧ,,,,,,2024-05-14,1,,,,,プジャンゲンソジャジュユウゲンコウシ,0
307,1700150125376,新規,0,2024-05-14,2024-05-14,徳之島世界遺産センター管理運営協議会,,その他,鹿児島県,大島郡徳之島町,花徳字坂本２２０６番地,,46,530,8917425,,,,,,,2024-05-14,1,,,,,トクノシマセカイイサンセンターカンリウンエイキョウギカイ,0
330,2010001244766,新規,0,2024-05-14,2024-05-14,株式会社ＧＡＶＲＩＦＯＯＤ,,株式会社,東京都,中央区,銀座１丁目１２－４Ｎ＆ＥＢＬＤ．７階,,13,102,1040061,,,,,,,2024-05-14,1,,,,,ガブリフード,0
331,2010001244782,新規,0,2024-05-14,2024-05-14,株式会社Ｎｏａ,,株式会社,東京都,文京区,春日２丁目１９番１２号小石川ウォールズ４０３号室,,13,105,1120003,,,,,,,2024-05-14,1,,,,,ノア,0
332,2010001244790,新規,0,2024-05-14,2024-05-14,Ｑｕｉｒｉｎｕｓ株式会社,,株式会社,東京都,千代田区,永田町２丁目１４番２号山王グランドビル３階スリーアイズキャピタル株式会社内,,13,101,1000014,,,,,,,2024-05-14,1,,,,,クイリヌス,0
333,2010003043695,新規,0,2024-05-14,2024-05-14,ＡＬＩＶＩＯ合同会社,,合同会社,東京都,中央区,銀座１丁目２２番１１号銀座大竹ビジデンス２Ｆ,,13,102,1040061,,,,,,,2024-05-14,1,,,,,アリビオ,0
334,2010005038289,新規,0,2024-05-14,2024-05-14,一般社団法人Ｉｍｏｒｉａ,,その他の設立登記法人,東京都,千代田区,麹町３丁目５－１８柳田ビル４Ｆ,,13,101,1020083,,,,,,,2024-05-14,1,,,,,イモリア,0
347,2010401182376,新規,0,2024-05-14,2024-05-14,ＧＣＪＧ３８株式会社,,株式会社,東京都,港区,元赤坂１丁目１番８号株式会社赤坂国際会計内,,13,103,1070051,,,,,,,2024-05-14,1,,,,,ジーシージェイジーサーティエイト,0
352,2010403032620,新規,0,2024-05-14,2024-05-14,合同会社アップセル,,合同会社,東京都,港区,南青山２丁目２－１５,,13,103,1070062,,,,,,,2024-05-14,1,,,,,アップセル,0
357,2010701045976,新規,0,2024-05-14,2024-05-14,ＱＡＣＳジャパン株式会社,,株式会社,東京都,品川区,北品川１丁目８番１４号,,13,109,1400001,,,,,,,2024-05-14,1,,,,,キューエーシーエスジャパン,0
359,2010801035051,新規,0,2024-05-14,2024-05-14,株式会社ヒカリ,,株式会社,東京都,大田区,西蒲田４丁目３番７号,,13,111,1440051,,,,,,,2024-05-14,1,,,,,ヒカリ,0
370,2011001161860,新規,0,2024-05-14,2024-05-14,株式会社リ・フレーム,,株式会社,東京都,目黒区,鷹番３丁目３番１６号ＹＫビル３０１,,13,110,1520004,,,,,,,2024-05-14,1,,,,,リフレーム,0
371,2011001161877,新規,0,2024-05-14,2024-05-14,株式会社Ｇｅｎｅｓｉｓ　ｔｏｗｎ,,株式会社,東京都,目黒区,青葉台４丁目７－７住友不動産青葉台ヒルズ１Ｆ,,13,110,1530042,,,,,,,2024-05-14,1,,,,,ジェネシスタウン,0
372,2011001161885,新規,0,2024-05-14,2024-05-14,株式会社ＨＡＴＳラボラトリー,,株式会社,東京都,目黒区,中央町２丁目１４番１６号,,13,110,1520001,,,,,,,2024-05-14,1,,,,,ハッツラボラトリー,0
385,2011501030648,新規,0,2024-05-14,2024-05-14,ミンテク株式会社,,株式会社,東京都,北区,岸町１丁目６番７号,,13,117,1140021,,,,,,,2024-05-14,1,,,,,ミンテク,0
395,2012801023135,新規,0,2024-05-14,2024-05-14,株式会社ｓｙｎ,,株式会社,東京都,日野市,万願寺４丁目１０番地の１２シンフォートピア高幡ＩＩ４０７,00134749,13,212,1910024,,,,,,,2024-05-14,1,,,,,シン,0
404,2020001157125,新規,0,2024-05-14,2024-05-14,熱技術開発ホールディングス株式会社,,株式会社,神奈川県,横浜市港北区,新横浜３丁目１８番１４号,,14,109,2220033,,,,,,,2024-05-14,1,,,,,ネツギジュツカイハツホールディングス,0
405,2020001157182,新規,0,2024-05-14,2024-05-14,株式会社銀雅園,,株式会社,神奈川県,横浜市泉区,和泉町５８８３番地８サンフラワー１０３号,,14,116,2450016,,,,,,,2024-05-14,1,,,,,ギンガエン,0
406,2020001157190,新規,0,2024-05-14,2024-05-14,株式会社シロタ建装,,株式会社,神奈川県,横浜市西区,北幸１丁目１１番１号水信ビル７階,,14,103,2200004,,,,,,,2024-05-14,1,,,,,シロタケンソウ,0
407,2020001157240,新規,0,2024-05-14,2024-05-14,株式会社ブルームリング,,株式会社,神奈川県,横浜市西区,北幸２丁目１０番４８号むつみビル３階,,14,103,2200004,,,,,,,2024-05-14,1,,,,,ブルームリング,0
411,2021001082197,新規,0,2024-05-14,2024-05-14,株式会社ブルーツリージャパン,,株式会社,神奈川県,中郡二宮町,百合が丘１丁目１３番５号,,14,342,2590133,,,,,,,2024-05-14,1,,,,,ブルーツリージャパン,0
413,2021003014495,新規,0,2024-05-14,2024-05-14,合同会社ＭＲＴ不動産,,合同会社,神奈川県,厚木市,旭町３丁目１８番１６号ポケットハイツ本厚木３０３号室,,14,212,2430014,,,,,,,2024-05-14,1,,,,,エムアールティフドウサン,0
421,2030001160251,新規,0,2024-05-14,2024-05-14,株式会社ＦＫＣ,,株式会社,埼玉県,草加市,旭町４丁目７番２号,,11,221,3400053,,,,,,,2024-05-14,1,,,,,エフケーシー,0
422,2030001160318,新規,0,2024-05-14,2024-05-14,株式会社柴川架設,,株式会社,埼玉県,さいたま市桜区,南元宿２丁目２１番１６号,,11,106,3380831,,,,,,,2024-05-14,1,,,,,シバカワカセツ,0
423,2030001160334,新規,0,2024-05-14,2024-05-14,株式会社富士建装,,株式会社,埼玉県,坂戸市,大字石井２０３０番地１,,11,239,3500212,,,,,,,2024-05-14,1,,,,,フジケンソウ,0
430,2030003024272,新規,0,2024-05-14,2024-05-14,合同会社たーとる,,合同会社,埼玉県,和光市,南１丁目１３－１０大泉学園サマリヤマンション４０１,,11,229,3510104,,,,,,,2024-05-14,1,,,,,タートル,0
431,2030003024280,新規,0,2024-05-14,2024-05-14,合同会社エムワイエス,,合同会社,埼玉県,春日部市,増富１３３番地６,,11,214,3440041,,,,,,,2024-05-14,1,,,,,エムワイエス,0
432,2030003024289,新規,0,2024-05-14,2024-05-14,合同会社シンスマートサポート,,合同会社,埼玉県,蕨市,中央１丁目３３－１Ｙフラットビル２０２,,11,223,3350004,,,,,,,2024-05-14,1,,,,,シンスマートサポート,0
433,2030005021697,新規,0,2024-05-14,2024-05-14,一般社団法人咲楽,,その他の設立登記法人,埼玉県,蓮田市,本町７番１号,,11,238,3490123,,,,,,,2024-05-14,1,,,,,サクラ,0
442,2040001133553,新規,0,2024-05-14,2024-05-14,株式会社ＳＴＥＥＤ,,株式会社,千葉県,市川市,東国分１丁目１２番１号,,12,203,2720833,,,,,,,2024-05-14,1,,,,,スティード,0
443,2040001133561,新規,0,2024-05-14,2024-05-14,株式会社Ｒ　ａｎｄ　Ｒ　ｆａｃｔｏｒｙ,,株式会社,千葉県,木更津市,新港９番地１リペア工場,,12,206,2920836,,,,,,,2024-05-14,1,,,,,アールアンドアールファクトリー,0
444,2040001133594,新規,0,2024-05-14,2024-05-14,株式会社柿崎創業,00134738,株式会社,千葉県,松戸市,松戸新田４４６番地の１８サンウィッシュ２０１号,,12,207,2702241,,,,,,,2024-05-14,1,,,,,カキザキソウギョウ,0
463,2070001041745,新規,0,2024-05-14,2024-05-14,株式会社ＡＯＫＩ,,株式会社,群馬県,高崎市,箕郷町柏木沢１７５５番地,,10,202,3703101,,,,,,,2024-05-14,1,,,,,アオキ,0
465,2070003005418,新規,0,2024-05-14,2024-05-14,Ｆｏｒｅｓｔ　Ｖｅｎｔｕｒｅｓ合同会社,,合同会社,群馬県,桐生市,宮本町４丁目４番１２号,,10,203,3760056,,,,,,,2024-05-14,1,,,,,フォレストヴェンチャーズ,0
474,2080103003056,新規,0,2024-05-14,2024-05-14,合同会社ＡＬＬ　ＣＯＶＥＲ,,合同会社,静岡県,駿東郡小山町,須走１８３番地１階,,22,344,4101431,,,,,,,2024-05-14,1,,,,,オールカバー,0
475,2080403005009,新規,0,2024-05-14,2024-05-14,合同会社グッドマン,,合同会社,静岡県,袋井市,天神町２丁目５番地の１５,,22,216,4370067,,,,,,,2024-05-14,1,,,,,グッドマン,0
478,2100001037434,新規,0,2024-05-14,2024-05-14,株式会社ゴンテック,,株式会社,長野県,安曇野市,三郷温４５９６番地２０,,20,220,3998102,,,,,,,2024-05-14,1,,,,,ゴンテック,0
485,2120001264646,新規,0,2024-05-14,2024-05-14,よるの世界株式会社,,株式会社,大阪府,大阪市中央区,南船場３丁目２番２２号おおきに南船場ビル２０５,,27,128,5420081,,,,,,,2024-05-14,1,,,,,ヨルノセカイ,0
486,2120001264761,新規,0,2024-05-14,2024-05-14,株式会社クロジメファーム,,株式会社,大阪府,大阪市北区,梅田１丁目１番３号大阪駅前第３ビル２９階１－１－１号室,,27,127,5300001,,,,,,,2024-05-14,1,,,,,クロジメファーム,0
487,2120001264811,新規,0,2024-05-14,2024-05-14,ニュータイプアレックス株式会社,,株式会社,大阪府,大阪市港区,市岡１丁目１３番４号市岡ビル１階,,27,107,5520012,,,,,,,2024-05-14,1,,,,,ニュータイプアレックス,0
489,2120003026565,新規,0,2024-05-14,2024-05-14,合同会社Ａｉレスキュー,,合同会社,大阪府,大阪市東淀川区,相川２丁目４番２４号リビエール２４番館２０１号,,27,114,5330007,,,,,,,2024-05-14,1,,,,,エーアイレスキュー,0
494,2120901049163,新規,0,2024-05-14,2024-05-14,株式会社大艸ホールディングス,,株式会社,大阪府,豊中市,浜１丁目２３番４６号,,27,203,5610817,,,,,,,2024-05-14,1,,,,,オオクサホールディングス,0
496,2120903005172,新規,0,2024-05-14,2024-05-14,合同会社ＭＡＧＯ,,合同会社,大阪府,豊中市,小曽根５丁目３番１－５０６号,,27,203,5610813,,,,,,,2024-05-14,1,,,,,マーゴ,0
500,2130003009552,新規,0,2024-05-14,2024-05-14,合同会社地域のたすけあい,,合同会社,京都府,京都市左京区,一乗寺門口町１９番地２０３号,,26,103,6068154,,,,,,,2024-05-14,1,,,,,チイキノタスケアイ,0
501,2130003009560,新規,0,2024-05-14,2024-05-14,合同会社シンクプロパティ,,合同会社,京都府,長岡京市,勝竜寺８－２３,,26,209,6170836,,,,,,,2024-05-14,1,,,,,シンクプロパティ,0
504,2140001134376,新規,0,2024-05-14,2024-05-14,株式会社ＮＡＲＵＭＩ,,株式会社,兵庫県,姫路市,土山２丁目７番１０号,,28,201,6700996,,,,,,,2024-05-14,1,,,,,ナルミ,0
508,2140003020541,新規,0,2024-05-14,2024-05-14,合同会社Ｅｖｏｌｖｅ,,合同会社,兵庫県,明石市,魚住町金ケ崎９３６番地の３６,,28,203,6740071,,,,,,,2024-05-14,1,,,,,イヴォルヴ,0
509,2140003020566,新規,0,2024-05-14,2024-05-14,ＲＥＦ．ＢＡＬＡＮＣＥ合同会社,,合同会社,兵庫県,加西市,北条町西南４０９番地３,,28,220,6752323,,,,,,,2024-05-14,1,,,,,レフバランス,0
510,2140005027080,新規,0,2024-05-14,2024-05-14,特定非営利活動法人インクルーシブ共育の会,,その他の設立登記法人,兵庫県,神戸市東灘区,西岡本２丁目２６番１－１１６号,,28,101,6580073,,,,,,,2024-05-14,1,,,,,インクルーシブトモイクノカイ,0
511,2150003003248,新規,0,2024-05-14,2024-05-14,インエッジ合同会社,,合同会社,奈良県,北葛城郡王寺町,太子３丁目１２番１号,,29,425,6360023,,,,,,,2024-05-14,1,,,,,インエッジ,0
515,2170003002041,新規,0,2024-05-14,2024-05-14,合同会社アヤナイ,,合同会社,和歌山県,伊都郡かつらぎ町,大字丁ノ町２４６８番地,,30,341,6497121,,,,,,,2024-05-14,1,,,,,アヤナイ,0
526,2190001031346,新規,0,2024-05-14,2024-05-14,株式会社今西造園,,株式会社,三重県,鳥羽市,池上町５番１１号,,24,211,5170012,,,,,,,2024-05-14,1,,,,,イマニシゾウエン,0
539,2240003006662,新規,0,2024-05-14,2024-05-14,トランジション合同会社,,合同会社,広島県,安芸郡府中町,桃山２丁目７番５号,,34,302,7350026,,,,,,,2024-05-14,1,,,,,トランジション,0
542,2280003001841,新規,0,2024-05-14,2024-05-14,合同会社ゼルク,,合同会社,島根県,松江市,上乃木３丁目７番３４号リコウハイツＢ棟２号室,,32,201,6900015,,,,,,,2024-05-14,1,,,,,ゼルク,0
545,2290003015254,新規,0,2024-05-14,2024-05-14,合同会社伊万里バイオマス発電所,,合同会社,福岡県,大野城市,御笠川２丁目１２番１号,,40,219,8160912,,,,,,,2024-05-14,1,,,,,イマリバイオマスハツデンショ,0
549,2300001013729,新規,0,2024-05-14,2024-05-14,人照株式会社,,株式会社,佐賀県,佐賀市,西与賀町大字厘外９５９番地１,,41,201,8400034,,,,,,,2024-05-14,1,,,,,ジンショウ,0
557,2330001032032,新規,0,2024-05-14,2024-05-14,株式会社日翔開発,,株式会社,熊本県,宇土市,住吉町６７７番地１,,43,211,8690401,,,,,,,2024-05-14,1,,,,,ニッショウカイハツ,0
558,2340001026487,新規,0,2024-05-14,2024-05-14,株式会社ＢＩＴ,,株式会社,鹿児島県,薩摩川内市,祁答院町下手６７７４番地３原口住宅２号,00134753,46,215,8951501,,,,,,,2024-05-14,1,,,,,ビット,0
560,2340005009728,新規,0,2024-05-14,2024-05-14,一般社団法人インドネシア日本鹿児島協会,,その他の設立登記法人,鹿児島県,鹿児島市,常盤２丁目９番３号,,46,201,8900047,,,,,,,2024-05-14,1,,,,,インドネシアニホンカゴシマキョウカイ,0
566,2360003013969,新規,0,2024-05-14,2024-05-14,合同会社サンライズ,,合同会社,沖縄県,宮古島市,平良字下里５５７番地Ｄコート４Ｆ,,47,214,9060013,,,,,,,2024-05-14,1,,,,,サンライズ,0
571,2370001051292,新規,0,2024-05-14,2024-05-14,株式会社花康創建,,株式会社,宮城県,多賀城市,笠神３丁目１３番２８号,,04,209,9850831,,,,,,,2024-05-14,1,,,,,カコウソウケン,0
572,2370003006617,新規,0,2024-05-14,2024-05-14,合同会社Ｒｅ．ＬＩＦＥクリーニング,,合同会社,宮城県,仙台市青葉区,堤町２丁目９番２６号,,04,101,9810912,,,,,,,2024-05-14,1,,,,,リライフクリーニング,0
579,2420001018724,新規,0,2024-05-14,2024-05-14,株式会社ＬａｂｏＲｅｅ,,株式会社,青森県,北津軽郡鶴田町,大字鶴田字沖津２０１番地１３,,02,384,0383503,,,,,,,2024-05-14,1,,,,,ラボリー,0
582,2430001091794,新規,0,2024-05-14,2024-05-14,株式会社ＡＳＴＹエージェンシー札幌,,株式会社,北海道,札幌市西区,琴似一条５丁目４番１７号ロイヤルホープビル５０３号室,,01,107,0630811,,,,,,,2024-05-14,1,,,,,アスティエージェンシーサッポロ,0
583,2430001091803,新規,0,2024-05-14,2024-05-14,株式会社ＴｏｍｏＫｏｕ,,株式会社,北海道,苫小牧市,澄川町３丁目７番７号,,01,213,0591271,,,,,,,2024-05-14,1,,,,,トモコウ,0
584,2430001091811,新規,0,2024-05-14,2024-05-14,株式会社ＣＲＡＦＴ電設,,株式会社,北海道,虻田郡京極町,字京極２６番地５,,01,399,0440101,,,,,,,2024-05-14,1,,,,,クラフトデンセツ,0
587,2430003016320,新規,0,2024-05-14,2024-05-14,合同会社たまき相続・不動産オフィス,,合同会社,北海道,札幌市北区,あいの里四条４丁目３番１０号,,01,102,0028074,,,,,,,2024-05-14,1,,,,,タマキソウゾクフドウサンオフィス,0
591,2470001020188,新規,0,2024-05-14,2024-05-14,株式会社ｎａｏ,,株式会社,香川県,高松市,上福岡町２００５番地２５,,37,201,7600077,,,,,,,2024-05-14,1,,,,,ナオ,0
592,2470001020196,新規,0,2024-05-14,2024-05-14,株式会社はやぶさ商事,,株式会社,香川県,高松市,亀田町３９２番地２,,37,201,7610323,,,,,,,2024-05-14,1,,,,,ハヤブサショウジ,0
596,2700150125012,新規,0,2024-05-14,2024-04-22,狭山市観光協会,,その他,埼玉県,狭山市,入間川３丁目２２－８,,11,215,3501305,,,,,,,2024-04-22,1,,,,,サヤマシカンコウキヨウカイ,0
597,2700150125367,新規,0,2024-05-14,2024-05-14,Ｑｉｎｇｙｕａｎ　Ｊｉｅｔｅ　Ｔｒａｄｉｎｇ　Ｃｏ．，Ｌｔｄ．,,外国会社等,,,,,,,,ｈｅｎｇｘｉｎｊｉａｙｕａｎ　１　ｚｈｕａｎｇ　ｓｈｏｕｃｅｎｇ　１０２　Ｑｉｎｇｘｉｎｑｕ　Ｔａｉｈｅｚｈｅｎ　ｘｉｎｃｈｅｎｇｌｕｚｈｏｎｇ　１　ｈａｏ　ｚｈｉｅｒ　Ｑｉｎｇｙｕａｎ　Ｇｕａｎｇｄｏｎｇ　Ｃｈｉｎａ,,,,,,2024-05-14,1,,,,,チンユェンジエテトゥレイディングカンパニーリミテッド,0
618,3010001244823,新規,0,2024-05-14,2024-05-14,上ノ国風力開発株式会社,,株式会社,東京都,千代田区,霞が関３丁目２番５号,,13,101,1000013,,,,,,,2024-05-14,1,,,,,カミノクニフウリョクカイハツ,0
619,3010001244831,新規,0,2024-05-14,2024-05-14,株式会社ムガロ,,株式会社,東京都,中央区,日本橋人形町２丁目１番７－６０３号,,13,102,1030013,,,,,,,2024-05-14,1,,,,,ムガロ,0
620,3010003043678,新規,0,2024-05-14,2024-05-14,Ｈｏｒｉｕｃｈｉ＆Ｃｏｍｐａｎｙ合同会社,,合同会社,東京都,中央区,勝どき４丁目６番２ー４５０６号,,13,102,1040054,,,,,,,2024-05-14,1,,,,,ホリウチアンドカンパニー,0
621,3010003043703,新規,0,2024-05-14,2024-05-14,合同会社ｐｍａコンサルティング,,合同会社,東京都,中央区,銀座１丁目２２番１１号大竹ビジデンス２階,,13,102,1040061,,,,,,,2024-05-14,1,,,,,ピーエムエーコンサルティング,0
627,3010401182409,新規,0,2024-05-14,2024-05-14,株式会社イースト・ライブ,,株式会社,東京都,港区,北青山２丁目９番５号,,13,103,1070061,,,,,,,2024-05-14,1,,,,,イーストライブ,0
628,3010401182417,新規,0,2024-05-14,2024-05-14,株式会社Ａｔｏｍ　Ｐａｒｔｎｅｒｓ,,株式会社,東京都,港区,虎ノ門１丁目１番２１号新虎ノ門実業会館５Ｆ,,13,103,1050001,,,,,,,2024-05-14,1,,,,,アトムパートナーズ,0
631,3010403032578,新規,0,2024-05-14,2024-05-14,合同会社Ｈｏｕｓｅ　Ｃａｌｌ　Ａｇｅｎｃｙ,,合同会社,東京都,港区,白金３丁目１番１３号日恵ビル２階,,13,103,1080072,,,,,,,2024-05-14,1,,,,,ハウスコールエージェンシー,0
632,3010403032586,新規,0,2024-05-14,2024-05-14,ＢＡＴＴＩＳＴＡ合同会社,,合同会社,東京都,港区,六本木６丁目１０番１号六本木ヒルズ森タワー１６階,,13,103,1060032,,,,,,,2024-05-14,1,,,,,バッティスタ,0
633,3010403032603,新規,0,2024-05-14,2024-05-14,パシフィック・グリーン・ゴルフ合同会社,,合同会社,東京都,港区,南青山２丁目１０番８号ＭＤＡｏｙａｍａ４階,,13,103,1070062,,,,,,,2024-05-14,1,,,,,パシフィックグリーンゴルフ,0
635,3010503007439,新規,0,2024-05-14,2024-05-14,合同会社上野経理代行サービス,,合同会社,東京都,台東区,東上野２丁目１８番７号,,13,106,1100015,,,,,,,2024-05-14,1,,,,,ウエノケイリダイコウサービス,0
642,3010801035050,新規,0,2024-05-14,2024-05-14,株式会社ｎａｎｉｍｏｎｏ,,株式会社,東京都,大田区,南六郷３丁目１０－１６六郷ＢＡＳＥ,,13,111,1440045,,,,,,,2024-05-14,1,,,,,ナニモノ,0
643,3010803004945,新規,0,2024-05-14,2024-05-14,合同会社ＹＲＴＣｏｎｓｕｌｔｉｎｇ,,合同会社,東京都,大田区,東雪谷１丁目１７番７号,,13,111,1450065,,,,,,,2024-05-14,1,,,,,ワイアールティーコンサルティング,0
644,3010805003111,新規,0,2024-05-14,2024-05-14,一般社団法人ＢｌｕｅＡｒｃｈ,,その他の設立登記法人,東京都,大田区,大森東２丁目３０－１９－１０４,,13,111,1430012,,,,,,,2024-05-14,1,,,,,ブルーアーチ,0
653,3011001161934,新規,0,2024-05-14,2024-05-14,ＮＡＩＤＩ株式会社,,株式会社,東京都,渋谷区,神宮前３丁目４－５－３Ｆ,,13,113,1500001,,,,,,,2024-05-14,1,,,,,ナイディ,0
654,3011001161942,新規,0,2024-05-14,2024-05-14,ＮＤＸ株式会社,,株式会社,東京都,渋谷区,道玄坂１丁目１０番８号渋谷道玄坂東急ビル２Ｆ－Ｃ,,13,113,1500043,,,,,,,2024-05-14,1,,,,,エヌディーエックス,0
655,3011001161991,新規,0,2024-05-14,2024-05-14,ＰＭＣ株式会社,,株式会社,東京都,渋谷区,広尾３丁目４番１号２－４０９号室,,13,113,1500012,,,,,,,2024-05-14,1,,,,,ピーエムシー,0
660,3011003019123,新規,0,2024-05-14,2024-05-14,ファスト・ツー・オー合同会社,,合同会社,東京都,渋谷区,道玄坂１丁目１０番８号渋谷道玄坂東急ビル２Ｆ－Ｃ,,13,113,1500043,,,,,,,2024-05-14,1,,,,,ファストツーオー,0
666,3011101107275,新規,0,2024-05-14,2024-05-14,株式会社ＲＵＮＥ,,株式会社,東京都,新宿区,大久保１丁目１０番２３号３０１号,,13,104,1690072,,,,,,,2024-05-14,1,,,,,ルネ,0
667,3011101107317,新規,0,2024-05-14,2024-05-14,フォレストアップ株式会社,,株式会社,東京都,新宿区,新宿６丁目２７番２９号,,13,104,1600022,,,,,,,2024-05-14,1,,,,,フォレストアップ,0
670,3011301029658,新規,0,2024-05-14,2024-05-14,株式会社植敏,,株式会社,東京都,杉並区,高井戸西２丁目９番６号,,13,115,1680071,,,,,,,2024-05-14,1,,,,,ウエトシ,0
673,3011401026084,新規,0,2024-05-14,2024-05-14,Ｕｔｔｒａ株式会社,,株式会社,東京都,板橋区,高島平１丁目５８番９号日神パレス西台５階,,13,119,1750082,,,,,,,2024-05-14,1,,,,,アタァル,0
674,3011403004352,新規,0,2024-05-14,2024-05-14,合同会社ＦＥＡＲＬＥＳＳ,,合同会社,東京都,板橋区,徳丸３丁目１２番６号サクセス徳丸ＩＩＩ１０２,00134729,13,119,1750083,,,,,,,2024-05-14,1,,,,,フィアレス,0
675,3011403004377,新規,0,2024-05-14,2024-05-14,合同会社ｉｍｕｓ,,合同会社,東京都,板橋区,大山東町３２－１６エスティメゾン板橋Ｃ６－１００６号室,,13,119,1730014,,,,,,,2024-05-14,1,,,,,アイムス,0
689,3012401041858,新規,0,2024-05-14,2024-05-14,株式会社ＢＩＴＳ‐ＡＺ,,株式会社,東京都,三鷹市,下連雀８丁目１０番３号,,13,204,1810013,,,,,,,2024-05-14,1,,,,,ビッツエイゼット,0
693,3012801023167,新規,0,2024-05-14,2024-05-14,株式会社スリーエイチ,,株式会社,東京都,立川市,曙町２丁目２２番５号ｉｉビル２Ｆ,00134728,13,202,1900012,,,,,,,2024-05-14,1,,,,,スリーエイチ,0
699,3020001157124,新規,0,2024-05-14,2024-05-14,株式会社星野建築構造設計,,株式会社,神奈川県,川崎市多摩区,枡形２丁目１２番１号,,14,135,2140032,,,,,,,2024-05-14,1,,,,,ホシノケンチクコウゾウセッケイ,0
700,3020001157140,新規,0,2024-05-14,2024-05-14,株式会社Ｌｉａ,,株式会社,神奈川県,横浜市瀬谷区,中央二丁目３２番地アメニイテ１Ａ,,14,114,2460014,,,,,,,2024-05-14,1,,,,,リア,0
701,3020001157198,新規,0,2024-05-14,2024-05-14,株式会社ネットフレンド,,株式会社,神奈川県,横浜市保土ケ谷区,新井町１９２番地７,,14,106,2400053,,,,,,,2024-05-14,1,,,,,ネットフレンド,0
702,3020001157207,新規,0,2024-05-14,2024-05-14,株式会社曜霊,00134740,株式会社,神奈川県,横浜市金沢区,福浦２丁目１１番地３,,14,108,2360004,,,,,,,2024-05-14,1,,,,,ヨウレイ,0
708,3021005013107,新規,0,2024-05-14,2024-05-14,一般社団法人ぐるっと広場,,その他の設立登記法人,神奈川県,厚木市,森の里青山１４番１号青山アベニュー１０１,,14,212,2430123,,,,,,,2024-05-14,1,,,,,グルットヒロバ,0
713,3030001160300,新規,0,2024-05-14,2024-05-14,株式会社加藤設備,,株式会社,埼玉県,蕨市,錦町３丁目６番１２号,,11,223,3350005,,,,,,,2024-05-14,1,,,,,カトウセツビ,0
714,3030001160309,新規,0,2024-05-14,2024-05-14,スマイルゲート株式会社,,株式会社,埼玉県,さいたま市大宮区,三橋１丁目４３５－３,,11,103,3300856,,,,,,,2024-05-14,1,,,,,スマイルゲート,0
723,3040001133544,新規,0,2024-05-14,2024-05-14,株式会社木下組,,株式会社,千葉県,香取市,虫幡１２２４番地,,12,236,2890341,,,,,,,2024-05-14,1,,,,,キノシタグミ,0
724,3040001133560,新規,0,2024-05-14,2024-05-14,株式会社Ｒｅｖｅ,,株式会社,千葉県,木更津市,長須賀３７７番地８,,12,206,2920054,,,,,,,2024-05-14,1,,,,,レーヴ,0
725,3040001133577,新規,0,2024-05-14,2024-05-14,株式会社光不動産,,株式会社,千葉県,千葉市中央区,問屋町１４番２号,,12,101,2600025,,,,,,,2024-05-14,1,,,,,,0
726,3040001133593,新規,0,2024-05-14,2024-05-14,みなみ株式会社,,株式会社,千葉県,浦安市,入船２丁目２０番１０３号,,12,227,2790012,,,,,,,2024-05-14,1,,,,,ミナミ,0
740,3060003005070,新規,0,2024-05-14,2024-05-14,ＡｃｃｒｅｔｅＭｉｒａｉ合同会社,,合同会社,栃木県,宇都宮市,西一の沢町１４番２３号,,09,201,3200046,,,,,,,2024-05-14,1,,,,,アクリートミライ,0
741,3060003005079,新規,0,2024-05-14,2024-05-14,合同会社ニバンセンジ,,合同会社,栃木県,真岡市,荒町２０９４番地,,09,209,3214305,,,,,,,2024-05-14,1,,,,,ニバンセンジ,0
768,3120001264760,新規,0,2024-05-14,2024-05-14,株式会社中原通信,,株式会社,大阪府,交野市,郡津２丁目２９番１２号,,27,230,5760053,,,,,,,2024-05-14,1,,,,,ナカハラツウシン,0
769,3120001264802,新規,0,2024-05-14,2024-05-14,株式会社カナバル,,株式会社,大阪府,大阪市淀川区,野中南２丁目５番９－２０号,,27,123,5320022,,,,,,,2024-05-14,1,,,,,カナバル,0
770,3120001264835,新規,0,2024-05-14,2024-05-14,恒吉堂株式会社,,株式会社,大阪府,大阪市城東区,関目５丁目１９番９号関目花博公館４０２Ａ,,27,118,5360008,,,,,,,2024-05-14,1,,,,,コウキチドウ,0
771,3120001264851,新規,0,2024-05-14,2024-05-14,株式会社リン,,株式会社,大阪府,大阪市西成区,千本南２丁目４番８号,,27,122,5570055,,,,,,,2024-05-14,1,,,,,リン,0
776,3120003026382,新規,0,2024-05-14,2024-05-14,佳宸合同会社,,合同会社,大阪府,大阪市港区,市岡２丁目５－１６,,27,107,5520012,,,,,,,2024-05-14,1,,,,,カシン,0
777,3120003026572,新規,0,2024-05-14,2024-05-14,Ｃｈｉｌｌｅｒ合同会社,,合同会社,大阪府,大阪市西成区,天下茶屋北１丁目２番１６－１０１号,,27,122,5570003,,,,,,,2024-05-14,1,,,,,チラー,0
788,3120901049154,新規,0,2024-05-14,2024-05-14,株式会社ｍａｋｅ　ｉｔ,,株式会社,大阪府,箕面市,半町３丁目１４番１６－３０１号,,27,220,5620044,,,,,,,2024-05-14,1,,,,,メイクイット,0
791,3122001038087,新規,0,2024-05-14,2024-05-14,ＫＭＫ株式会社,,株式会社,大阪府,東大阪市,足代北２丁目１５番２２号,,27,227,5770058,,,,,,,2024-05-14,1,,,,,ケイエムケイ,0
792,3130001077006,新規,0,2024-05-14,2024-05-14,外山堂株式会社,,株式会社,京都府,京都市中京区,壬生下溝町１７番地８,,26,104,6048832,,,,,,,2024-05-14,1,,,,,ガイサンドウ,0
793,3130003009543,新規,0,2024-05-14,2024-05-14,合同会社ＫＹＯＮＥＴ,,合同会社,京都府,京田辺市,同志社山手４丁目１番地８９,,26,211,6100315,,,,,,,2024-05-14,1,,,,,キョウネット,0
797,3140001134375,新規,0,2024-05-14,2024-05-14,株式会社成‐ｎａｒｉ,,株式会社,兵庫県,加古郡播磨町,上野添１丁目７番４‐５０６号,,28,382,6750157,,,,,,,2024-05-14,1,,,,,ナリ,0
798,3140001134391,新規,0,2024-05-14,2024-05-14,株式会社おしゃべり,,株式会社,兵庫県,西宮市,仁川町６丁目１１番４２号,,28,204,6620811,,,,,,,2024-05-14,1,,,,,オシャベリ,0
801,3140003020549,新規,0,2024-05-14,2024-05-14,松田企画合同会社,,合同会社,兵庫県,加古川市,東神吉町神吉１５８３－２,,28,210,6750057,,,,,,,2024-05-14,1,,,,,マツダキカク,0
802,3140003020557,新規,0,2024-05-14,2024-05-14,合同会社Ｘ‐ＴＲＡＩＬ,,合同会社,兵庫県,神戸市東灘区,向洋町中５丁目１番地５２３号棟１２０７号室,,28,101,6580032,,,,,,,2024-05-14,1,,,,,エクストレイル,0
803,3140003020565,新規,0,2024-05-14,2024-05-14,合同会社ＨＡＫＵ,,合同会社,兵庫県,伊丹市,南鈴原３丁目１６８番地４,,28,207,6640883,,,,,,,2024-05-14,1,,,,,ハク,0
819,3180001161333,新規,0,2024-05-14,2024-05-14,株式会社具志堅工業,,株式会社,愛知県,東海市,名和町西三宅山１番地の１３,,23,222,4760002,,,,,,,2024-05-14,1,,,,,グシケンコウギョウ,0
820,3180001161432,新規,0,2024-05-14,2024-05-14,株式会社Ｌａ　Ｇｒｅｖｅ,,株式会社,愛知県,名古屋市西区,新道１丁目２５番２１号睦ビル１Ｆ,,23,104,4510043,,,,,,,2024-05-14,1,,,,,ラグレーブ,0
821,3180001161440,新規,0,2024-05-14,2024-05-14,株式会社ＰＳＴ,,株式会社,愛知県,犬山市,大字犬山字西古券６７－２－２Ｆ,,23,215,4840085,,,,,,,2024-05-14,1,,,,,ピーエスティ,0
825,3180003026749,新規,0,2024-05-14,2024-05-14,合同会社ＳＡＬＴＹ’ｓ,,合同会社,愛知県,岩倉市,南新町三反田９８４番地３６,,23,228,4820013,,,,,,,2024-05-14,1,,,,,ソルティーズ,0
834,3210003001789,新規,0,2024-05-14,2024-05-14,合同会社ムラカミ,,合同会社,福井県,小浜市,湊６－３４,,18,204,9170004,,,,,,,2024-05-14,1,,,,,ムラカミ,0
837,3230001020343,新規,0,2024-05-14,2024-05-14,株式会社ＬａＣＡＲ　ＭＤｘ　ＪＡＰＡＮ,,株式会社,富山県,富山市,新庄本町２丁目３番５２号,,16,201,9300996,,,,,,,2024-05-14,1,,,,,ラカーエムディエックスジャパン,0
839,3240001063201,新規,0,2024-05-14,2024-05-14,ＹＴＬＦ株式会社,,株式会社,広島県,福山市,南蔵王町２丁目２０番１７号,,34,207,7210973,,,,,,,2024-05-14,1,,,,,ワイティーエルエフ,0
843,3270001008970,新規,0,2024-05-14,2024-05-14,株式会社アルク,,株式会社,鳥取県,鳥取市,吉方１７３番地９,,31,201,6800842,,,,,,,2024-05-14,1,,,,,アルク,0
847,3290001105659,新規,0,2024-05-14,2024-05-14,株式会社天然堂,,株式会社,福岡県,久留米市,京町２２３番地３,,40,203,8300028,,,,,,,2024-05-14,1,,,,,テンネンドウ,0
853,3300001013728,新規,0,2024-05-14,2024-05-14,株式会社Ｍ１２３ホールディングス,,株式会社,佐賀県,嬉野市,嬉野町大字下宿乙２３３０番地,,41,209,8430301,,,,,,,2024-05-14,1,,,,,エムイチニサンホールディングス,0
855,3310001019014,新規,0,2024-05-14,2024-05-14,対馬ペレット株式会社,,株式会社,長崎県,対馬市,美津島町大船越字菜畑８１３番地１２,,42,209,8170323,,,,,,,2024-05-14,1,,,,,ツシマペレット,0
867,3330001032064,新規,0,2024-05-14,2024-05-14,株式会社Ｊ・Ｉ・Ｎ,,株式会社,熊本県,熊本市東区,新南部４丁目１－５－１Ｆ,,43,102,8618028,,,,,,,2024-05-14,1,,,,,ジン,0
870,3340001026486,新規,0,2024-05-14,2024-05-14,株式会社Ｂｅ　Ｈａｐｐｙ,,株式会社,鹿児島県,鹿児島市,下荒田１丁目１２番１７号川原ビル２０２号,,46,201,8900056,,,,,,,2024-05-14,1,,,,,ビーハッピー,0
871,3340003004473,新規,0,2024-05-14,2024-05-14,長島柑橘直販合同会社,,合同会社,鹿児島県,出水郡長島町,鷹巣１９６１番地２,,46,404,8991401,,,,,,,2024-05-14,1,,,,,ナガシマカンキツチョクハン,0
874,3360001033654,新規,0,2024-05-14,2024-05-14,Ｂ‐ｍｉｎｄ株式会社,,株式会社,沖縄県,中頭郡読谷村,字伊良皆２３７番地１伊良皆アパートＩ,00134731,47,324,9040303,,,,,,,2024-05-14,1,,,,,ビーマインド,0
888,3410003003922,新規,0,2024-05-14,2024-05-14,しらたまグループ合同会社,,合同会社,秋田県,秋田市,寺内鵜ノ木１番３２号アシスト第１０秋田マンション２０７号,,05,201,0110938,,,,,,,2024-05-14,1,,,,,シラタマグループ,0
901,3460101007548,新規,0,2024-05-14,2024-05-14,株式会社ソルプレーサ・イノベーションズ,,株式会社,北海道,上川郡清水町,本通６丁目５番地１,,01,636,0890136,,,,,,,2024-05-14,1,,,,,ソルプレーサイノベーションズ,0
902,3460305002015,新規,0,2024-05-14,2024-05-14,一般社団法人北見まちづくり龍馬会,,その他の設立登記法人,北海道,北見市,新生町５８番地１７,,01,208,0900815,,,,,,,2024-05-14,1,,,,,キタミマチヅクリリョウマカイ,0
903,3470001020195,新規,0,2024-05-14,2024-05-14,ＲＪ株式会社,,株式会社,香川県,高松市,新田町甲４５９番地３,,37,201,7610102,,,,,,,2024-05-14,1,,,,,アールジェイ,0
908,3500003003244,新規,0,2024-05-14,2024-05-14,たなかメディカルサービス合同会社,,合同会社,愛媛県,新居浜市,清水町９番４８号,,38,205,7920861,,,,,,,2024-05-14,1,,,,,タナカメディカルサービス,0
910,3700150005452,新規,0,2024-05-14,2015-10-09,シリコーン工業会,,その他,東京都,港区,西新橋１丁目６－１３柏屋ビル３Ｆ,,13,103,1050003,,,,,,,2015-10-09,1,,,,,シリコーンコウギヨウカイ,0
911,3700150125317,新規,0,2024-05-14,2024-05-14,ニックハイム綱島第一マンション建替組合,,その他,東京都,千代田区,五番町１０番地五番町ＫＵビル　株式会社ユニホー東京支店内,,13,101,1020076,,,,,,,2024-05-14,1,,,,,ニツクハイムツナシマダイイチマンシヨンタテカエクミアイ,0
912,3700150125366,新規,0,2024-05-14,2024-05-14,ｓｈｅｎｚｈｅｎｓｈｉｍａｉｄｏｕｋｅｊｉｙｏｕｘｉａｎｇｏｎｇｓｉ,,外国会社等,,,,,,,,Ｃｈｉｎａ，Ｇｕａｎｇｄｏｎｇｓｈｅｎｇ，Ｓｈｅｎｚｈｅｎｓｈｉ，Ｌｏｎｇｈｕａｑｕｇｕａｎｈｕｊｉｅｄａｏｇｕａｎｃｈｅｎｇｓｈｅｑｕｄａｈｅｇｏｎｇｙｅｑｕ３４ｈａｏ２ｄａｎｙｕａｎ４１１,,,,,,2024-05-14,1,,,,,シンセンシマイドウカギユウゲンコウシ,0
913,3700150125374,新規,0,2024-05-14,2024-05-14,Ｘｉａｍｅｎ　Ｘｉｎｋａｎｇ　Ｆｌａｖｏｒ　＆　Ｆｒａｇｒａｎｃｅ　Ｃｏ．,,外国会社等,,,,,,,,ｘｉａｍｅｎｓｈｉｔｏｎｇａｎｇｏｎｇｙｅｊｉｚｈｏｎｇｑｕｔｏｎｇａｎｙｕａｎ２９２ｈａｏｄｉｓｉｃｅｎｇ,,,,,,2024-05-14,1,,,,,アモイシンカンフレイバーアンドフレイグランスカンパニー,0
933,4010001244748,新規,0,2024-05-14,2024-05-14,株式会社ＳＯＢＬＵＥ,,株式会社,東京都,中央区,日本橋大伝馬町１３－７日本橋大富ビル２－３Ｆ,,13,102,1030011,,,,,,,2024-05-14,1,,,,,ソーブルー,0
934,4010001244789,新規,0,2024-05-14,2024-05-14,Ｐａｌｌａｓ株式会社,,株式会社,東京都,千代田区,永田町２丁目１４番２号山王グランドビル３階スリーアイズキャピタル株式会社内,,13,101,1000014,,,,,,,2024-05-14,1,,,,,パラス,0
937,4010003043702,新規,0,2024-05-14,2024-05-14,合同会社わっしょい,,合同会社,東京都,文京区,小日向４丁目２番１３号ブランズタワー文京小日向８０４号,,13,105,1120006,,,,,,,2024-05-14,1,,,,,ワッショイ,0
938,4010003043719,新規,0,2024-05-14,2024-05-14,合同会社Ｊ　Ｃｏｍｐａｓｓ,,合同会社,東京都,千代田区,大手町１丁目７番２号東京サンケイビル２７階,,13,101,1000004,,,,,,,2024-05-14,1,,,,,ジェイコンパス,0
941,4010005038295,新規,0,2024-05-14,2024-05-14,一般財団法人菅野新也イト子財団,,その他の設立登記法人,東京都,千代田区,麹町１丁目４番地４,,13,101,1020083,,,,,,,2024-05-14,1,,,,,カンノシンヤイトコザイダン,0
942,4010101016122,新規,0,2024-05-14,2024-05-14,株式会社ＩＰＳ,,株式会社,東京都,八王子市,別所１丁目５２番地１１,,13,201,1920363,,,,,,,2024-05-14,1,,,,,アイピーエス,0
954,4010401182250,新規,0,2024-05-14,2024-05-14,株式会社ＡＤＫ　ＡＶｉＣパフォーマンス・デザイン,,株式会社,東京都,港区,虎ノ門１丁目２３番１号,,13,103,1050001,,,,,,,2024-05-14,1,,,,,エイディケイエイビックパフォーマンスデザイン,0
955,4010401182374,新規,0,2024-05-14,2024-05-14,ケーキャッシュ・クエスターキャピタル株式会社,,株式会社,東京都,港区,南青山１丁目１５番１５号乃木坂パークフロント７階,,13,103,1070062,,,,,,,2024-05-14,1,,,,,ケーキャッシュクエスターキャピタル,0
956,4010401182465,新規,0,2024-05-14,2024-05-14,ＧＣＪＧ４０株式会社,,株式会社,東京都,港区,元赤坂１丁目１番８号株式会社赤坂国際会計内,,13,103,1070051,,,,,,,2024-05-14,1,,,,,ジーシージェイジーフォーティ,0
960,4010403032585,新規,0,2024-05-14,2024-05-14,Ｕｎｈｏｏｐ合同会社,,合同会社,東京都,港区,南青山２丁目２－１５ＷＩＮ青山５３１,,13,103,1070062,,,,,,,2024-05-14,1,,,,,アンフープ,0
966,4010701045941,新規,0,2024-05-14,2024-05-14,スマートインダストリーホールディングス株式会社,,株式会社,東京都,品川区,西五反田１丁目２６番２号五反田サンハイツビルディング２階,,13,109,1410031,,,,,,,2024-05-14,1,,,,,スマートインダストリーホールディングス,0
967,4010703007171,新規,0,2024-05-14,2024-05-14,ＫＳホールディングス合同会社,,合同会社,東京都,品川区,上大崎３丁目１番２号,,13,109,1410021,,,,,,,2024-05-14,1,,,,,ケイズホールディングス,0
973,4010903009050,新規,0,2024-05-14,2024-05-14,合同会社ぐりーんばんび,,合同会社,東京都,世田谷区,奥沢７丁目２４－１７,,13,112,1580083,,,,,,,2024-05-14,1,,,,,グリーンバンビ,0
978,4011001161917,新規,0,2024-05-14,2024-05-14,株式会社エイトワークス,,株式会社,東京都,渋谷区,神宮前６丁目２３番４号桑野ビル２階,,13,113,1500001,,,,,,,2024-05-14,1,,,,,エイトワークス,0
981,4011003019106,新規,0,2024-05-14,2024-05-14,合同会社Ｎｅｒｖｏｕｓ,,合同会社,東京都,渋谷区,幡ヶ谷３丁目３９番１２号渋谷ウェストビル１階,,13,113,1510072,,,,,,,2024-05-14,1,,,,,ナーバス,0
982,4011003019147,新規,0,2024-05-14,2024-05-14,合同会社グローバルプラスサービス,,合同会社,東京都,渋谷区,神宮前６丁目２３番４号桑野ビル２階,,13,113,1500001,,,,,,,2024-05-14,1,,,,,グローバルプラスサービス,0
989,4011101107324,新規,0,2024-05-14,2024-05-14,株式会社オルベルトワークス,,株式会社,東京都,新宿区,高田馬場２丁目１７番３号東京三協信用金庫本店ビル８２５,,13,104,1690075,,,,,,,2024-05-14,1,,,,,オルベルトワークス,0
991,4011103014411,新規,0,2024-05-14,2024-05-14,合同会社ｐｅｎｇｕｉｎ　ａｇｅｎｔ,,合同会社,東京都,新宿区,新宿１丁目３６番２号新宿第七葉山ビル９階,,13,104,1600022,,,,,,,2024-05-14,1,,,,,ペンギンエージェント,0
993,4011301029657,新規,0,2024-05-14,2024-05-14,株式会社ＡＬＥＸＹ　ＦＩＴＮＥＳＳ,,株式会社,東京都,杉並区,天沼３丁目６番２号カノン武蔵ビル２Ｆ,,13,115,1670032,,,,,,,2024-05-14,1,,,,,アレクシーフィットネス,0
1001,4011503006058,新規,0,2024-05-14,2024-05-14,ＳＵＮＳ合同会社,,合同会社,東京都,荒川区,東日暮里３丁目３４番９号１０３号室,,13,118,1160014,,,,,,,2024-05-14,1,,,,,サンズ,0
1002,4011601027740,新規,0,2024-05-14,2024-05-14,株式会社なんくるないん,,株式会社,東京都,練馬区,土支田１丁目１８番６－３０５号,,13,120,1790076,,,,,,,2024-05-14,1,,,,,ナンクルナイン,0
1009,4012401041873,新規,0,2024-05-14,2024-05-14,株式会社ＦＵＮＴＥＣＨ,,株式会社,東京都,調布市,布田３丁目４７‐１４パーク布田３０３,,13,208,1820024,,,,,,,2024-05-14,1,,,,,ファンテック,0
1010,4012403006552,新規,0,2024-05-14,2024-05-14,ｅｎｗｏｎｄｅｒ合同会社,,合同会社,東京都,武蔵野市,吉祥寺南町２丁目２９－１２,,13,203,1800003,,,,,,,2024-05-14,1,,,,,エンワンダー,0
1011,4012405004991,新規,0,2024-05-14,2024-05-14,一般社団法人ＩＷＡＢＵＣＨＩ,,その他の設立登記法人,東京都,調布市,深大寺元町５丁目６番地１２,,13,208,1820017,,,,,,,2024-05-14,1,,,,,イワブチ,0
1012,4012701018258,新規,0,2024-05-14,2024-05-14,株式会社Ｄ．Ｂｕｉｌｄ,,株式会社,東京都,東久留米市,滝山５丁目６番３号,,13,222,2030033,,,,,,,2024-05-14,1,,,,,ディービルド,0
1013,4012703002986,新規,0,2024-05-14,2024-05-14,イノベーションキャリア合同会社,,合同会社,東京都,小平市,花小金井南町２丁目１３番３－２０５号,,13,211,1870003,,,,,,,2024-05-14,1,,,,,イノベーションキャリア,0
1014,4012801023166,新規,0,2024-05-14,2024-05-14,いかり企画株式会社,,株式会社,東京都,昭島市,中神町１３６７番地３１,,13,207,1960022,,,,,,,2024-05-14,1,,,,,イカリキカク,0
1019,4013301052481,新規,0,2024-05-14,2024-05-14,株式会社ランダムドア,,株式会社,東京都,豊島区,北大塚１丁目１４番５号メゾン北大塚１階,,13,116,1700004,,,,,,,2024-05-14,1,,,,,ランダムドア,0
1029,4020001157131,新規,0,2024-05-14,2024-05-14,株式会社シャン・ド・フルール,,株式会社,神奈川県,横浜市港北区,新吉田東８丁目４８番１４－３０１号,,14,109,2230058,,,,,,,2024-05-14,1,,,,,シャンドフルール,0
1030,4020001157214,新規,0,2024-05-14,2024-05-14,株式会社イオ川崎,,株式会社,神奈川県,川崎市川崎区,砂子２丁目７番地５サンラビル４階,,14,131,2100006,,,,,,,2024-05-14,1,,,,,イオカワサキ,0
1041,4021001082195,新規,0,2024-05-14,2024-05-14,株式会社アールエムケー,,株式会社,神奈川県,相模原市南区,大野台５丁目６番１８号,,14,153,2520331,,,,,,,2024-05-14,1,,,,,アールエムケー,0
1042,4021001082204,新規,0,2024-05-14,2024-05-14,ＫＥＮＶＯ株式会社,,株式会社,神奈川県,厚木市,中荻野２３３番３２,,14,212,2430202,,,,,,,2024-05-14,1,,,,,ケンヴォ,0
1043,4021001082220,新規,0,2024-05-14,2024-05-14,株式会社タナセツ,,株式会社,神奈川県,綾瀬市,小園南２丁目１３番１１号,,14,218,2521122,,,,,,,2024-05-14,1,,,,,タナセツ,0
1044,4021003014452,新規,0,2024-05-14,2024-05-14,インタラクティブ・コントロール・テクノロジーズ合同会社,,合同会社,神奈川県,中郡二宮町,山西４９９番地の１５,,14,342,2590124,,,,,,,2024-05-14,1,,,,,インタラクティブコントロールテクノロジーズ,0
1045,4021005013106,新規,0,2024-05-14,2024-05-14,一般社団法人トレランシア,,その他の設立登記法人,神奈川県,厚木市,栄町１丁目１７番１２号ラヴィ本厚木２階,,14,212,2430017,,,,,,,2024-05-14,1,,,,,トレランシア,0
1046,4030001160308,新規,0,2024-05-14,2024-05-14,株式会社オリス,,株式会社,埼玉県,八潮市,大瀬４丁目８－１シティテラス八潮８５５,,11,234,3400822,,,,,,,2024-05-14,1,,,,,オリス,0
1047,4030001160332,新規,0,2024-05-14,2024-05-14,シードンケア株式会社,,株式会社,埼玉県,さいたま市岩槻区,大字笹久保１７４６番地２,,11,110,3390034,,,,,,,2024-05-14,1,,,,,シードンケア,0
1051,4030003024287,新規,0,2024-05-14,2024-05-14,ＧＩＴＡＲＵ　ＩＮＴＥＲＮＡＴＩＯＮＡＬ合同会社,,合同会社,埼玉県,川越市,むさし野３６番地６８,,11,201,3501170,,,,,,,2024-05-14,1,,,,,ギタルインターナショナル,0
1052,4030003024295,新規,0,2024-05-14,2024-05-14,ＭＳＣ合同会社,,合同会社,埼玉県,さいたま市北区,土呂町２丁目３６番地１１,,11,102,3310804,,,,,,,2024-05-14,1,,,,,エムエスシー,0
1053,4030003024304,新規,0,2024-05-14,2024-05-14,合同会社ＯＭ総業,,合同会社,埼玉県,朝霞市,三原４丁目１３番５４号,,11,227,3510025,,,,,,,2024-05-14,1,,,,,オーエムソウギョウ,0
1058,4040001133510,新規,0,2024-05-14,2024-05-14,株式会社ＦｒａｍｅＳｃｒｉｐｔ,,株式会社,千葉県,松戸市,松飛台３９６番地の９,,12,207,2702214,,,,,,,2024-05-14,1,,,,,フレームスクリプト,0
1059,4040001133543,新規,0,2024-05-14,2024-05-14,株式会社Ｑｕｖｅ,,株式会社,千葉県,松戸市,松戸１２２８－１松戸ステーションビル５Ｆ,,12,207,2710092,,,,,,,2024-05-14,1,,,,,キューブ,0
1060,4040001133568,新規,0,2024-05-14,2024-05-14,株式会社ＯＭＴホールディングス,,株式会社,千葉県,茂原市,千沢１０９９－１,,12,210,2994103,,,,,,,2024-05-14,1,,,,,オーエムティーホールディングス,0
1068,4050001054739,新規,0,2024-05-14,2024-05-14,株式会社鳶正興業,,株式会社,茨城県,鹿嶋市,大字下津２７３番地２１６,,08,222,3140004,,,,,,,2024-05-14,1,,,,,トビマサコウギョウ,0
1076,4050003008362,新規,0,2024-05-14,2024-05-14,合同会社フォール,,合同会社,茨城県,神栖市,知手７０７番地１４,,08,232,3140115,,,,,,,2024-05-14,1,,,,,フォール,0
1078,4060001037081,新規,0,2024-05-14,2024-05-14,株式会社藤興,,株式会社,栃木県,宇都宮市,緑２丁目２７番５号,,09,201,3210165,,,,,,,2024-05-14,1,,,,,トウコウ,0
1082,4070003005416,新規,0,2024-05-14,2024-05-14,ＲＨＡ　ＴＲＡＤＩＮＧＳ合同会社,,合同会社,群馬県,北群馬郡榛東村,大字新井１２６７,,10,344,3703503,,,,,,,2024-05-14,1,,,,,,0
1085,4080003003195,新規,0,2024-05-14,2024-05-14,合同会社Ｒｅｈａｎ　Ｔｒａｄｉｎｇ,,合同会社,静岡県,静岡市葵区,羽鳥５丁目７番４６号メゾン柿田Ｂ２０１号,,22,101,4211215,,,,,,,2024-05-14,1,,,,,レハントレーディング,0
1086,4080103003046,新規,0,2024-05-14,2024-05-14,合同会社ジェネイル,,合同会社,静岡県,富士市,石坂６３１－１１コスモス３０５号,,22,210,4170862,,,,,,,2024-05-14,1,,,,,ジェネイル,0
1092,4100001037432,新規,0,2024-05-14,2024-05-14,株式会社長寿健康館,,株式会社,長野県,長野市,川中島町御厨２１０９番地３,,20,201,3812221,,,,,,,2024-05-14,1,,,,,チョウジュケンコウカン,0
1101,4120001264784,新規,0,2024-05-14,2024-05-14,株式会社リストランテギオットーネ,,株式会社,大阪府,大阪市西区,西本町２丁目１番３６号ＡＸＩＳ・ＷＥＳＴ・ＯＮＥ２０２号室,,27,106,5500005,,,,,,,2024-05-14,1,,,,,リストランテギオットーネ,0
1102,4120001264801,新規,0,2024-05-14,2024-05-14,東＿商事株式会社,00134730,株式会社,大阪府,大阪市西成区,橘１丁目３番６号,,27,122,5570051,,,,,,,2024-05-14,1,,,,,トウシンショウジ,0
1103,4120001264826,新規,0,2024-05-14,2024-05-14,株式会社ＫＳＫ,,株式会社,大阪府,大阪市住之江区,粉浜３丁目３番１７号,,27,125,5590001,,,,,,,2024-05-14,1,,,,,ケーエスケー,0
1114,4120003026530,新規,0,2024-05-14,2024-05-14,合同会社コネリッチ,,合同会社,大阪府,大阪市中央区,南船場４丁目１０番５号南船場ＳＯＨＯビル７０２,,27,128,5420081,,,,,,,2024-05-14,1,,,,,コネリッチ,0
1116,4120101069571,新規,0,2024-05-14,2024-05-14,株式会社ＴＧ,,株式会社,大阪府,大阪狭山市,西山台１丁目４番８号,,27,231,5890022,,,,,,,2024-05-14,1,,,,,ティージー,0
1119,4120901049129,新規,0,2024-05-14,2024-05-14,株式会社未来,,株式会社,大阪府,豊中市,立花町３丁目４番２０号,,27,203,5600025,,,,,,,2024-05-14,1,,,,,ミライ,0
1135,4140001134358,新規,0,2024-05-14,2024-05-14,株式会社ＡＣＥ　ＨＯＭＥ,,株式会社,兵庫県,神戸市長田区,長田町５丁目３番２号,,28,106,6530812,,,,,,,2024-05-14,1,,,,,エースホーム,0
1136,4140001134390,新規,0,2024-05-14,2024-05-14,株式会社Ａｓｓｉｓｔ,,株式会社,兵庫県,神戸市中央区,下山手通２丁目１番１３号第１３シャルマンビル６階,,28,110,6500011,,,,,,,2024-05-14,1,,,,,アシスト,0
1137,4140001134399,新規,0,2024-05-14,2024-05-14,株式会社ＢＲＧ,,株式会社,兵庫県,加古郡稲美町,岡２０８番地の１,,28,381,6751113,,,,,,,2024-05-14,1,,,,,ビーアールジー,0
1139,4140003020548,新規,0,2024-05-14,2024-05-14,合同会社ビリーヴ,,合同会社,兵庫県,西宮市,生瀬武庫川町２番２－９０９号,,28,204,6691104,,,,,,,2024-05-14,1,,,,,ビリーヴ,0
1140,4140003020556,新規,0,2024-05-14,2024-05-14,合同会社バッテリー,,合同会社,兵庫県,神戸市東灘区,向洋町中５丁目１番地５２３号棟１２０７号室,,28,101,6580032,,,,,,,2024-05-14,1,,,,,バッテリー,0
1141,4140003020572,新規,0,2024-05-14,2024-05-14,合同会社Ａｒａｗ,,合同会社,兵庫県,神戸市北区,京地２丁目１７番地の１１,,28,109,6511304,,,,,,,2024-05-14,1,,,,,アラウ,0
1157,4180001161365,新規,0,2024-05-14,2024-05-14,プルミエール株式会社,,株式会社,愛知県,半田市,南末広町１２５番地の９,,23,205,4750853,,,,,,,2024-05-14,1,,,,,プルミエール,0
1158,4180001161423,新規,0,2024-05-14,2024-05-14,株式会社ＤＲＯＯＭ　ＭＥＩＳＪＥ,,株式会社,愛知県,名古屋市昭和区,鶴舞２丁目１６番１３号（ヴィアーレノルド５０３号）,,23,107,4660064,,,,,,,2024-05-14,1,,,,,ドロームメイシュ,0
1166,4180003026764,新規,0,2024-05-14,2024-05-14,合同会社Ｋｏｃｈｉｒｉｎ,,合同会社,愛知県,名古屋市西区,名西１丁目２０番４１号－１－１０１,,23,104,4510064,,,,,,,2024-05-14,1,,,,,コチリン,0
1167,4180003026780,新規,0,2024-05-14,2024-05-14,合同会社Ｓｅｖｅｎ　Ｌａ　Ｂｒｉｌｌｅｒ,,合同会社,愛知県,名古屋市中村区,名駅４丁目２４番５号第２森ビル４０１,,23,105,4500002,,,,,,,2024-05-14,1,,,,,セブンラヴリエ,0
1181,4200001042505,新規,0,2024-05-14,2024-05-14,株式会社立保ホールディングス,,株式会社,岐阜県,加茂郡東白川村,越原１５７９番地１１,,21,507,5091301,,,,,,,2024-05-14,1,,,,,タテホホールディングス,0
1184,4220001026002,新規,0,2024-05-14,2024-05-14,株式会社Ａ‐ｓｍｉｌｅ,,株式会社,石川県,白山市,千代野西５丁目１３番地２,,17,210,9240072,,,,,,,2024-05-14,1,,,,,エイスマイル,0
1189,4220003003750,新規,0,2024-05-14,2024-05-14,合同会社オアシスＡ・Ｈ,,合同会社,石川県,金沢市,西念２丁目３４番３号,,17,201,9200024,,,,,,,2024-05-14,1,,,,,オアシスエーエッチ,0
1203,4290001105609,新規,0,2024-05-14,2024-05-14,株式会社ｒｏｙ．ｇ．ｂｉｖ,,株式会社,福岡県,福岡市中央区,平尾４丁目５番８号,,40,133,8100014,,,,,,,2024-05-14,1,,,,,ロイジービブ,0
1204,4290003015310,新規,0,2024-05-14,2024-05-14,合同会社メンド,,合同会社,福岡県,福岡市中央区,天神２丁目２番１２号Ｔ＆Ｊビルディング７Ｆ,,40,133,8100001,,,,,,,2024-05-14,1,,,,,メンド,0
1206,4300003002100,新規,0,2024-05-14,2024-05-14,合同会社ＧＲＯＷ,,合同会社,佐賀県,鹿島市,大字納富分２２４番地１,,41,207,8491312,,,,,,,2024-05-14,1,,,,,グロウ,0
1214,4370003006615,新規,0,2024-05-14,2024-05-14,ファントスマイル合同会社,,合同会社,宮城県,仙台市泉区,山の寺２丁目１６番８号,,04,105,9813103,,,,,,,2024-05-14,1,,,,,ファントスマイル,0
1220,4380001034534,新規,0,2024-05-14,2024-05-14,ムラタホールディングス株式会社,,株式会社,福島県,いわき市,好間工業団地１番地の８６,,07,204,9701144,,,,,,,2024-05-14,1,,,,,ムラタホールディングス,0
1230,4420005007903,新規,0,2024-05-14,2024-05-14,一般社団法人Ｂｒｏｋｅｎ　Ｒａｉｎｂｏｗ‐ｊａｐａｎ,,その他の設立登記法人,青森県,青森市,安方１丁目３番２４号,,02,201,0300803,,,,,,,2024-05-14,1,,,,,ブロークンレインボージャパン,0
1237,4430001091751,新規,0,2024-05-14,2024-05-14,株式会社ネクスト,,株式会社,北海道,苫小牧市,拓勇西町１丁目９番１９号,,01,213,0591302,,,,,,,2024-05-14,1,,,,,ネクスト,0
1238,4430001091792,新規,0,2024-05-14,2024-05-14,株式会社花田アルミ,,株式会社,北海道,札幌市北区,新琴似九条９丁目４番１号,,01,102,0010909,,,,,,,2024-05-14,1,,,,,ハナダアルミ,0
1239,4430001091801,新規,0,2024-05-14,2024-05-14,株式会社ＧＲＥＥＮ　ＦＬＡＧ,,株式会社,北海道,札幌市中央区,北七条西１５丁目１－３,,01,101,0600007,,,,,,,2024-05-14,1,,,,,グリーンフラッグ,0
1243,4430003016319,新規,0,2024-05-14,2024-05-14,合同会社ＣＯＣＯＲＯ,,合同会社,北海道,札幌市白石区,菊水元町一条１丁目３番２８号,,01,104,0030821,,,,,,,2024-05-14,1,,,,,ココロ,0
1245,4440003001591,新規,0,2024-05-14,2024-05-14,合同会社Ｇ‐Ｂｌｅｎｄ,,合同会社,北海道,函館市,大手町１８－７,,01,202,0400064,,,,,,,2024-05-14,1,,,,,ジーブレンド,0
1247,4460003000996,新規,0,2024-05-14,2024-05-14,合同会社東方電業,,合同会社,北海道,釧路市,星が浦北５丁目１番２６号,,01,206,0840911,,,,,,,2024-05-14,1,,,,,トウホウデンギョウ,0
1248,4460305002014,新規,0,2024-05-14,2024-05-14,無限責任遠音別負債整理組合,,その他の設立登記法人,北海道,斜里郡斜里町,大字遠音別村,,01,545,0994100,,,,,,,2024-05-14,1,,,,,,0
1250,4470001020186,新規,0,2024-05-14,2024-05-14,株式会社Ｋａｇｕｒａ,,株式会社,香川県,丸亀市,今津町７５０番地８,,37,202,7630051,,,,,,,2024-05-14,1,,,,,カグラ,0
1255,4700150124937,新規,0,2024-05-14,2024-04-17,浅口ベース,,その他,岡山県,浅口市,寄島町７７６４－５,,33,216,7140101,,,,,,,2024-04-17,1,,,,,アサクチベース,0
1256,4700150125365,新規,0,2024-05-14,2024-05-14,Ｓｈｅｎｚｈｅｎ　Ｓｍａｒｔ　Ｃｏｎｎｅｃｔ　Ｔｅｃｈｎｏｌｏｇｙ　Ｃｏ．，ＬＴＤ．,,外国会社等,,,,,,,,Ｓｈｅｎｚｈｅｎｓｈｉ　Ｎａｎｓｈａｎｑｕ　Ｙｕｅｈａｉｊｉｅｄａｏ　Ｍａｌｉｎｇｓｈｅｑｕ　Ｇａｏｘｉｎｚｈｏｎｇｅｒｄａｏ　２ｈａｏ　Ｓｈｅｎｚｈｅｎｒｕａｎｊｉａｎｙｕａｎ　２Ｄｏｎｇ　Ｃ３１０,,,,,,2024-05-14,1,,,,,シンセンスマートコネクトテクノロジーカンパニーリミテッド,0
1257,4700150125373,新規,0,2024-05-14,2024-05-14,ＢＯＫＹ（ＨＯＮＧ　ＫＯＮＧ）ＬＩＭＩＴＥＤ,,外国会社等,,,,,,,,ＳＨＯＰ　１８５　Ｇ／Ｆ　ＨＡＮＧ　ＷＡＩ　ＩＮＤ　ＣＴＲ　ＮＯ　６　ＫＩＮ　ＴＡＩ　ＳＴ　ＴＵＥＮ　ＭＵＮ　ＨＯＮＧ　ＫＯＮＧ,,,,,,2024-05-14,1,,,,,ボキーホンコンリミテッド,0
1276,5010001244722,新規,0,2024-05-14,2024-05-14,株式会社Ｄｗａｖｅ,,株式会社,東京都,中央区,銀座１丁目１２番４号Ｎ＆ＥＢＬＤ．６Ｆ,,13,102,1040061,,,,,,,2024-05-14,1,,,,,ディーウエーブ,0
1277,5010001244771,新規,0,2024-05-14,2024-05-14,魯麗木業ジャパン株式会社,,株式会社,東京都,文京区,音羽１丁目９番１号日本屋ビル４Ｆ,,13,105,1120013,,,,,,,2024-05-14,1,,,,,ロレイモクギョウジャパン,0
1278,5010001244796,新規,0,2024-05-14,2024-05-14,ＰＴＣＪ‐６Ｏホールディングス株式会社,,株式会社,東京都,千代田区,丸の内１丁目９番１号,,13,101,1000005,,,,,,,2024-05-14,1,,,,,ピーティーシージェイシックスオーホールディングス,0
1292,5010401182340,新規,0,2024-05-14,2024-05-14,株式会社エムエス商店,,株式会社,東京都,港区,東麻布１丁目１５番２号,,13,103,1060044,,,,,,,2024-05-14,1,,,,,エムエスショウテン,0
1293,5010401182407,新規,0,2024-05-14,2024-05-14,株式会社Ｎａｖｉ‐ＧａＴＥＣＨ,,株式会社,東京都,港区,六本木４丁目８番５号和幸ビル５階,,13,103,1060032,,,,,,,2024-05-14,1,,,,,ナビゲーテック,0
1294,5010401182423,新規,0,2024-05-14,2024-05-14,株式会社Ｑｏｎ,,株式会社,東京都,港区,海岸３丁目２６番１号バーク芝浦ビル１４階,,13,103,1080022,,,,,,,2024-05-14,1,,,,,クオン,0
1295,5010401182464,新規,0,2024-05-14,2024-05-14,ＧＣＪＧ３９株式会社,,株式会社,東京都,港区,元赤坂１丁目１番８号株式会社赤坂国際会計内,,13,103,1070051,,,,,,,2024-05-14,1,,,,,ジーシージェイジーサーティナイン,0
1297,5010403032584,新規,0,2024-05-14,2024-05-14,合同会社田名部,,合同会社,東京都,港区,芝４丁目１６番２－３３０５号,,13,103,1080014,,,,,,,2024-05-14,1,,,,,タナブ,0
1298,5010403032601,新規,0,2024-05-14,2024-05-14,Ａｓｔｅｒｏｐｅ　Ｔｅｃｈｎｏｌｏｇｉｅｓ合同会社,,合同会社,東京都,港区,南麻布３丁目２１－１４－７１１,,13,103,1060047,,,,,,,2024-05-14,1,,,,,アステローペテクノロジーズ,0
1305,5010503007437,新規,0,2024-05-14,2024-05-14,維嘉合同会社,,合同会社,東京都,台東区,入谷２丁目１６－１０－２０３アムールマンション,,13,106,1100013,,,,,,,2024-05-14,1,,,,,ウェイカ,0
1306,5010601065155,新規,0,2024-05-14,2024-05-14,株式会社ＷｅｅｅｅＢ,,株式会社,東京都,江東区,東雲１丁目９番１６‐４０９号,,13,108,1350062,,,,,,,2024-05-14,1,,,,,ウィーーーーブ,0
1307,5010601065171,新規,0,2024-05-14,2024-05-14,桑名金属工業株式会社,,株式会社,東京都,江東区,豊洲５丁目６番３６号,,13,108,1350061,,,,,,,2024-05-14,1,,,,,クワナキンゾクコウギョウ,0
1323,5011001161949,新規,0,2024-05-14,2024-05-14,株式会社Ｂｕｄｄｙ,,株式会社,東京都,渋谷区,恵比寿西２丁目８番４号ＥＸ恵比寿西ビル５階,,13,113,1500021,,,,,,,2024-05-14,1,,,,,バディ,0
1324,5011001161957,新規,0,2024-05-14,2024-05-14,株式会社Ｇａｎｎｙ,,株式会社,東京都,渋谷区,神宮前６丁目２３番４号桑野ビル２階,,13,113,1500001,,,,,,,2024-05-14,1,,,,,ガニー,0
1331,5011101107224,新規,0,2024-05-14,2024-05-14,茲心株式会社,,株式会社,東京都,新宿区,市谷本村町７番４号,,13,104,1620845,,,,,,,2024-05-14,1,,,,,ジシン,0
1332,5011101107257,新規,0,2024-05-14,2024-05-14,Ｓｕｎｎｙ　Ｃａｐｉｔａｌ株式会社,,株式会社,東京都,新宿区,百人町２丁目７番１－１００３号,,13,104,1690073,,,,,,,2024-05-14,1,,,,,サニーキャピタル,0
1333,5011101107307,新規,0,2024-05-14,2024-05-14,ラ・バーゼ・ノトハラ株式会社,,株式会社,東京都,新宿区,西新宿３丁目３番１３号西新宿水間ビル６階,,13,104,1600023,,,,,,,2024-05-14,1,,,,,ラバーゼノトハラ,0
1335,5011103014410,新規,0,2024-05-14,2024-05-14,合同会社神研,,合同会社,東京都,新宿区,西早稲田３丁目３０番８号,,13,104,1690051,,,,,,,2024-05-14,1,,,,,カミケン,0
1336,5011105011026,新規,0,2024-05-14,2024-05-14,一般社団法人エンパシーフォーケアラー,,その他の設立登記法人,東京都,新宿区,西新宿３丁目３番１３号西新宿水間ビル２Ｆ,,13,104,1600023,,,,,,,2024-05-14,1,,,,,エンパシーフォーケアラー,0
1341,5011501030645,新規,0,2024-05-14,2024-05-14,株式会社ＨＲ総合研究所,,株式会社,東京都,北区,田端１丁目１１番１号勘五郎ビル４０２,,13,117,1140014,,,,,,,2024-05-14,1,,,,,エイチアールソウゴウケンキュウジョ,0
1361,5020001157163,新規,0,2024-05-14,2024-05-14,株式会社ＥＥＧコンサルティング,,株式会社,神奈川県,川崎市川崎区,東田町１１番地２７メットライフ川崎ビル３階,,14,131,2100005,,,,,,,2024-05-14,1,,,,,イーイージーコンサルティング,0
1362,5020001157188,新規,0,2024-05-14,2024-05-14,株式会社アキシャルコア,,株式会社,神奈川県,川崎市川崎区,駅前本町１８番地１メルスサイトー７０２,,14,131,2100007,,,,,,,2024-05-14,1,,,,,アキシャルコア,0
1367,5020003026093,新規,0,2024-05-14,2024-05-14,合同会社ＰＦ‐Ｌｉｆｅ,,合同会社,神奈川県,横浜市神奈川区,金港町５番地１４クアドリフォリオ８階,,14,102,2210056,,,,,,,2024-05-14,1,,,,,ピーエフライフ,0
1368,5020005016415,新規,0,2024-05-14,2024-05-14,はるか社会保険労務士法人,,その他の設立登記法人,神奈川県,横浜市都筑区,加賀原１丁目１４番９号,,14,118,2240055,,,,,,,2024-05-14,1,,,,,ハルカ,0
1370,5021001082203,新規,0,2024-05-14,2024-05-14,株式会社Ａｌｌ　Ｔｈｉｎｇｓ　Ｐｒｏｍｏｔｉｏｎ,,株式会社,神奈川県,相模原市中央区,星が丘１丁目１５番７号,,14,152,2520238,,,,,,,2024-05-14,1,,,,,オールシングスプロモーション,0
1371,5021003014492,新規,0,2024-05-14,2024-05-14,正心正意合同会社,,合同会社,神奈川県,秦野市,弥生町８－１４－９,,14,211,2591311,,,,,,,2024-05-14,1,,,,,セイシンショウイ,0
1374,5030001160117,新規,0,2024-05-14,2024-05-14,ムサシノエンタープライズ株式会社,,株式会社,埼玉県,越谷市,南越谷２丁目８番４２号,,11,222,3430845,,,,,,,2024-05-14,1,,,,,ムサシノエンタープライズ,0
1375,5030001160323,新規,0,2024-05-14,2024-05-14,西藤産業株式会社,,株式会社,埼玉県,戸田市,喜沢２丁目３７番１０カネゴン１０１号室,,11,224,3350013,,,,,,,2024-05-14,1,,,,,ニシフジサンギョウ,0
1379,5030003024278,新規,0,2024-05-14,2024-05-14,合同会社湘洋,,合同会社,埼玉県,さいたま市大宮区,大成町３丁目３４２番地,,11,103,3300852,,,,,,,2024-05-14,1,,,,,ショウヨウ,0
1383,5040001133550,新規,0,2024-05-14,2024-05-14,株式会社オフィス三原,,株式会社,千葉県,市川市,大野町３丁目１６２９番地２（メゾンうぶすな２０３号）,,12,203,2720805,,,,,,,2024-05-14,1,,,,,オフィスミハラ,0
1384,5040001133559,新規,0,2024-05-14,2024-05-14,株式会社ＳＫ,,株式会社,千葉県,船橋市,習志野５丁目３番８号テゾーロ船橋ブライトレジデンス３０６,,12,204,2740071,,,,,,,2024-05-14,1,,,,,エスケイ,0
1385,5040001133567,新規,0,2024-05-14,2024-05-14,ＡＳ　ｃａｒｅ＆ｓｕｐｐｏｒｔ　Ｌｉｎｋ株式会社,,株式会社,千葉県,船橋市,咲が丘２丁目３２番１１号,,12,204,2740807,,,,,,,2024-05-14,1,,,,,アズケアアンドサポートリンク,0
1386,5040001133575,新規,0,2024-05-14,2024-05-14,株式会社フロー,,株式会社,千葉県,習志野市,谷津４丁目７番２８号谷津ビル２階,,12,216,2750026,,,,,,,2024-05-14,1,,,,,フロー,0
1392,5040003024979,新規,0,2024-05-14,2024-05-14,合同会社ＲＥＨｉ,,合同会社,千葉県,松戸市,小金清志町１丁目３６番地の１７－１０６号室プラザドゥクリークＡ棟,,12,207,2700016,,,,,,,2024-05-14,1,,,,,レッハイ,0
1393,5040003024987,新規,0,2024-05-14,2024-05-14,合同会社ＹＫ‐Ｗｏｒｋｓ,,合同会社,千葉県,富里市,中沢６１０－３,,12,233,2860222,,,,,,,2024-05-14,1,,,,,ワイケーワークス,0
1395,5050001054738,新規,0,2024-05-14,2024-05-14,杭進金属株式会社,,株式会社,茨城県,かすみがうら市,深谷１１０３番地１９,,08,230,3000134,,,,,,,2024-05-14,1,,,,,コウシンキンゾク,0
1396,5050001054754,新規,0,2024-05-14,2024-05-14,モトヤホールディングス株式会社,,株式会社,茨城県,つくば市,竹園１丁目６番地１,,08,220,3050032,,,,,,,2024-05-14,1,,,,,モトヤホールディングス,0
1397,5050003008361,新規,0,2024-05-14,2024-05-14,ＳＴＵＤＩＯ　ＭＡＸ合同会社,,合同会社,茨城県,古河市,尾崎３４９９番地１４池田アパートＡ棟,,08,204,3060101,,,,,,,2024-05-14,1,,,,,スタジオマックス,0
1399,5060001037048,新規,0,2024-05-14,2024-05-14,株式会社アマクラ,,株式会社,栃木県,那須塩原市,東栄２丁目５－２６,,09,213,3250016,,,,,,,2024-05-14,1,,,,,アマクラアマクラ,0
1400,5060001037089,新規,0,2024-05-14,2024-05-14,株式会社壬生総合保険サービス,,株式会社,栃木県,下都賀郡壬生町,中央町１５番９号高山店舗１０３,,09,361,3210226,,,,,,,2024-05-14,1,,,,,ミブソウゴウホケンサービス,0
1403,5060003005077,新規,0,2024-05-14,2024-05-14,Ｎｏｖａｒｋ合同会社,,合同会社,栃木県,宇都宮市,駒生町１４１０番地１１８,,09,201,3200065,,,,,,,2024-05-14,1,,,,,ノヴァーク,0
1405,5070001041742,新規,0,2024-05-14,2024-05-14,株式会社ワークリンク,,株式会社,群馬県,太田市,由良町１７５１番地１ロアール８８、１０２号,,10,205,3730036,,,,,,,2024-05-14,1,,,,,ワークリンク,0
1406,5070001041750,新規,0,2024-05-14,2024-05-14,株式会社國分,,株式会社,群馬県,伊勢崎市,境平塚３番地２,,10,204,3700132,,,,,,,2024-05-14,1,,,,,コクブ,0
1414,5080001026305,新規,0,2024-05-14,2024-05-14,プランズ株式会社,,株式会社,静岡県,静岡市清水区,押切８６０－７２,,22,103,4240008,,,,,,,2024-05-14,1,,,,,プランズ,0
1427,5100001037456,新規,0,2024-05-14,2024-05-14,株式会社若聖工業商事,,株式会社,長野県,松本市,大字里山辺３９７９番地３,,20,202,3900221,,,,,,,2024-05-14,1,,,,,ワカセイコウギョウショウジ,0
1428,5100003007531,新規,0,2024-05-14,2024-05-14,タイトナー合同会社,,合同会社,長野県,中野市,大字江部１３１１番地,,20,211,3830045,,,,,,,2024-05-14,1,,,,,タイトナー,0
1441,5120001264544,新規,0,2024-05-14,2024-05-14,イースト株式会社,,株式会社,大阪府,枚方市,高田２丁目３番１８－２０１号,,27,210,5730073,,,,,,,2024-05-14,1,,,,,イースト,0
1442,5120001264734,新規,0,2024-05-14,2024-05-14,株式会社Ｂｒｅｌｌａ,,株式会社,大阪府,大阪市北区,中津１丁目３番１１－１１０４号,,27,127,5310071,,,,,,,2024-05-14,1,,,,,ブレラ,0
1443,5120001264783,新規,0,2024-05-14,2024-05-14,Ｓｔａｙ株式会社,,株式会社,大阪府,大阪市北区,堂山町４番４号４階,,27,127,5300027,,,,,,,2024-05-14,1,,,,,ステイ,0
1444,5120001264817,新規,0,2024-05-14,2024-05-14,株式会社Ｄｌｕｅ,,株式会社,大阪府,枚方市,長尾元町６丁目１７番１７号,,27,210,5730163,,,,,,,2024-05-14,1,,,,,ドルー,0
1445,5120001264825,新規,0,2024-05-14,2024-05-14,株式会社Ｔｈｉｎｃ,,株式会社,大阪府,大阪市西区,江之子島１丁目４番８号１Ｆ,,27,106,5500006,,,,,,,2024-05-14,1,,,,,シンク,0
1446,5120001264833,新規,0,2024-05-14,2024-05-14,輝亜株式会社,,株式会社,大阪府,大阪市生野区,新今里３丁目４番１７号ＯＧビル６０９Ｂ,,27,116,5440001,,,,,,,2024-05-14,1,,,,,キア,0
1450,5120101069587,新規,0,2024-05-14,2024-05-14,株式会社Ｌｉｎｋ,,株式会社,大阪府,岸和田市,西大路町２１番地の１０,,27,202,5960802,,,,,,,2024-05-14,1,,,,,リンク,0
1452,5120103005821,新規,0,2024-05-14,2024-05-14,合同会社サン,,合同会社,大阪府,岸和田市,上松町５５８番地,,27,202,5960827,,,,,,,2024-05-14,1,,,,,サン,0
1468,5130003009558,新規,0,2024-05-14,2024-05-14,まちデザイン合同会社,,合同会社,京都府,京都市左京区,田中関田町２１番地５,,26,103,6068203,,,,,,,2024-05-14,1,,,,,マチデザイン,0
1475,5140003020571,新規,0,2024-05-14,2024-05-14,合同会社１ＧＯ１Ａ,,合同会社,兵庫県,神戸市中央区,琴ノ緒町１丁目６番２号スギビルディング２Ｆ,,28,110,6510094,,,,,,,2024-05-14,1,,,,,イチゴイチエ,0
1477,5150005009587,新規,0,2024-05-14,2024-05-14,友幸協同組合,,その他の設立登記法人,奈良県,橿原市,雲梯町８５７,,29,205,6340834,,,,,,,2024-05-14,1,,,,,ユウコウ,0
1480,5160001025884,新規,0,2024-05-14,2024-05-14,株式会社ＤＡＨＬＩＡ,,株式会社,滋賀県,草津市,北山田町６４７－１,,25,206,5250061,,,,,,,2024-05-14,1,,,,,ダリア,0
1481,5160001025918,新規,0,2024-05-14,2024-05-14,株式会社ライブアシストＪＡＰＡＮ,,株式会社,滋賀県,彦根市,大藪町１６３番地５８,,25,202,5220053,,,,,,,2024-05-14,1,,,,,ライブアシストジャパン,0
1485,5180001161422,新規,0,2024-05-14,2024-05-14,株式会社イヌカイ,,株式会社,愛知県,名古屋市港区,錦町１６番２３号,,23,111,4550843,,,,,,,2024-05-14,1,,,,,イヌカイ,0
1486,5180001161430,新規,0,2024-05-14,2024-05-14,株式会社ブランクページ,,株式会社,愛知県,名古屋市千種区,松軒１丁目４番１９号,,23,101,4640084,,,,,,,2024-05-14,1,,,,,ブランクページ,0
1493,5180003026763,新規,0,2024-05-14,2024-05-14,フジエベレスト合同会社,,合同会社,愛知県,名古屋市港区,九番町１丁目１番地の１九番団地２棟７０３号,,23,111,4550008,,,,,,,2024-05-14,1,,,,,フジエベレスト,0
1494,5180003026771,新規,0,2024-05-14,2024-05-14,濱田安全衛生マネジメント合同会社,00134755,合同会社,愛知県,名古屋市中川区,東春田２丁目２６９番地,,23,110,4540983,,,,,,,2024-05-14,1,,,,,ハマダアンゼンエイセイマネジメント,0
1495,5180301038642,新規,0,2024-05-14,2024-05-14,株式会社ｆｏ．ｓｔａｒ,,株式会社,愛知県,岡崎市,上衣文町字猿田２１０番地５,,23,202,4443504,,,,,,,2024-05-14,1,,,,,フォスター,0
1496,5190001031343,新規,0,2024-05-14,2024-05-14,株式会社名張フードクリエイト,,株式会社,三重県,名張市,薦生１１６６番地３,,24,208,5180606,,,,,,,2024-05-14,1,,,,,ナバリフードクリエイト,0
1502,5210001019757,新規,0,2024-05-14,2024-05-14,株式会社パリエビジョン,,株式会社,福井県,福井市,みのり４丁目１番１９号,,18,201,9188005,,,,,,,2024-05-14,1,,,,,パリエビジョン,0
1504,5220001026001,新規,0,2024-05-14,2024-05-14,株式会社ナニワ興業,,株式会社,石川県,河北郡内灘町,字緑台１丁目３番地,,17,365,9200276,,,,,,,2024-05-14,1,,,,,ナニワコウギョウ,0
1510,5230001020341,新規,0,2024-05-14,2024-05-14,りばいぶ富山株式会社,,株式会社,富山県,富山市,堀川町３７７番地ベラソーニョＢ,,16,201,9398072,,,,,,,2024-05-14,1,,,,,リバイブトヤマ,0
1528,5290001105657,新規,0,2024-05-14,2024-05-14,株式会社小西自動車,,株式会社,福岡県,糸島市,潤３丁目１番５号,,40,230,8191105,,,,,,,2024-05-14,1,,,,,コニシジドウシャ,0
1529,5290001105681,新規,0,2024-05-14,2024-05-14,株式会社ＴＨＲＥＥ,,株式会社,福岡県,福岡市中央区,西中洲１－４プロスぺリタ西中洲ＩＩ,00134752,40,133,8100002,,,,,,,2024-05-14,1,,,,,スリー,0
1535,5320001020456,新規,0,2024-05-14,2024-05-14,株式会社リガテック,,株式会社,大分県,大分市,牧２丁目８番１８号,,44,201,8700924,,,,,,,2024-05-14,1,,,,,,0
1536,5330001032062,新規,0,2024-05-14,2024-05-14,株式会社ｔｒｙ　ｍｅａｔ,,株式会社,熊本県,熊本市中央区,水前寺１丁目５番１号,,43,101,8620950,,,,,,,2024-05-14,1,,,,,トライミート,0
1537,5330003010371,新規,0,2024-05-14,2024-05-14,合同会社ダイニチ,,合同会社,熊本県,熊本市北区,改寄町２４７２番地,,43,105,8615501,,,,,,,2024-05-14,1,,,,,ダイニチ,0
1541,5360001033652,新規,0,2024-05-14,2024-05-14,株式会社若松,,株式会社,沖縄県,宮古島市,平良字下里８２番地,,47,214,9060013,,,,,,,2024-05-14,1,,,,,ワカマツ,0
1549,5370003006614,新規,0,2024-05-14,2024-05-14,合同会社若菜,,合同会社,宮城県,仙台市宮城野区,原町２丁目１番４０号,,04,102,9830841,,,,,,,2024-05-14,1,,,,,ワカナ,0
1557,5380005012832,新規,0,2024-05-14,2024-05-14,一般社団法人煙人,,その他の設立登記法人,福島県,南相馬市,小高区東町１丁目３７番地,,07,212,9792121,,,,,,,2024-05-14,1,,,,,エンジン,0
1569,5430001091800,新規,0,2024-05-14,2024-05-14,鯔背株式会社,,株式会社,北海道,札幌市中央区,盤渓４３５番地５５,,01,101,0640945,,,,,,,2024-05-14,1,,,,,イナセ,0
1572,5440003001590,新規,0,2024-05-14,2024-05-14,合同会社二海サーモン,,合同会社,北海道,二海郡八雲町,熊石雲石町９３２番地１,,01,346,0430416,,,,,,,2024-05-14,1,,,,,フタミサーモン,0
1575,5470001020193,新規,0,2024-05-14,2024-05-14,株式会社ワークプラザ香川,,株式会社,香川県,高松市,屋島東町１００９番地３,,37,201,7610111,,,,,,,2024-05-14,1,,,,,ワークプラザカガワ,0
1576,5500001025627,新規,0,2024-05-14,2024-05-14,株式会社ＭＫＯ,,株式会社,愛媛県,松山市,太山寺町乙２５８番地１０,,38,201,7992662,,,,,,,2024-05-14,1,,,,,エムケイオー,0
1579,5700150125364,新規,0,2024-05-14,2024-05-14,ＢＥＹＯＮＤ　ＬＩＦＥ（ＨＯＮＧ　ＫＯＮＧ）ＬＩＭＩＴＥＤ,,外国会社等,,,,,,,,ＦＬＡＴ／ＲＭ　Ｃ，９／Ｆ，ＷＩＮＮＩＮＧ　ＨＯＵＳＥ，７２－７６，ＷＩＮＧ　ＬＯＫ　ＳＴＲＥＥＴ　ＳＨＥＵＮＧ　ＷＡＮ，ＨＯＮＧ　ＫＯＮＧ,,,,,,2024-05-14,1,,,,,ビヨンドライフホンコンリミテッド,0
1580,5700150125372,新規,0,2024-05-14,2024-05-14,ＨｕＢｅｉ　ＯｕＲｏｕ　Ｎｅｗ　Ｍａｔｅｒｉａｌｓ　Ｃｏ．，Ｌｔｄ．,,外国会社等,,,,,,,,Ｌｕｎｈｅ　１ｓｔ　Ｒｏａｄ，Ｄｏｎｇｓｈａｎｔｏｕ　Ｉｎｄｕｓｔｒｉａｌ　Ｐａｒｋ，Ｘｉａｏｎａｎ　Ｄｉｓｔｒｉｃｔ，Ｘｉａｏｇａｎ，Ｈｕｂｅｉ,,,,,,2024-05-14,1,,,,,フベイオウヨウニューマテリアルズカンパニーリミテッド,0
1597,6010001244804,新規,0,2024-05-14,2024-05-14,株式会社鋭輝,,株式会社,東京都,中央区,湊１丁目１３番３号,,13,102,1040043,,,,,,,2024-05-14,1,,,,,エイキ,0
1599,6010003043725,新規,0,2024-05-14,2024-05-14,合同会社ピッケル,,合同会社,東京都,千代田区,神田佐久間町３丁目３８番地大陽ビル２０１,,13,101,1010025,,,,,,,2024-05-14,1,,,,,ピッケル,0
1610,6010401182281,新規,0,2024-05-14,2024-05-14,日本レンディングサービス株式会社,,株式会社,東京都,港区,新橋２丁目１６番１号３階３０５Ｂ,,13,103,1050004,,,,,,,2024-05-14,1,,,,,ニホンレンディングサービス,0
1611,6010401182307,新規,0,2024-05-14,2024-05-14,株式会社グーフィプランニング,,株式会社,東京都,港区,赤坂４丁目８番１９号赤坂プロントタウン３階,,13,103,1070052,,,,,,,2024-05-14,1,,,,,グーフィプランニング,0
1612,6010401182372,新規,0,2024-05-14,2024-05-14,株式会社ＫａｍＳｈａ　Ｓｔａｇｅ,,株式会社,東京都,港区,六本木７丁目７番７号Ｔｒｉ‐ＳｅｖｅｎＲｏｐｐｏｎｇｉ８階,,13,103,1060032,,,,,,,2024-05-14,1,,,,,カンシャステージ,0
1613,6010401182389,新規,0,2024-05-14,2024-05-14,株式会社ＧＥｒａ,,株式会社,東京都,港区,白金３丁目１１番８号セレ白金１０２号室,,13,103,1080072,,,,,,,2024-05-14,1,,,,,ジエラ,0
1614,6010401182406,新規,0,2024-05-14,2024-05-14,株式会社Ｓｏｆａ,,株式会社,東京都,港区,赤坂４丁目８番１９号赤坂フロントタウン３階,,13,103,1070052,,,,,,,2024-05-14,1,,,,,ソファ,0
1618,6010501019689,新規,0,2024-05-14,2024-05-14,創元社設計株式会社,,株式会社,東京都,台東区,上野３丁目１８番１１号,,13,106,1100005,,,,,,,2024-05-14,1,,,,,ソウゲンシャセッケイ,0
1628,6010601065113,新規,0,2024-05-14,2024-05-14,株式会社ウェルシクジャパン,,株式会社,東京都,江東区,南砂５丁目２１番１－９０１号,,13,108,1360076,,,,,,,2024-05-14,1,,,,,ウェルシクジャパン,0
1629,6010601065162,新規,0,2024-05-14,2024-05-14,炭素回収技術研究機構株式会社,,株式会社,東京都,江東区,有明３丁目７番１８号,,13,108,1350063,,,,,,,2024-05-14,1,,,,,タンソカイシュウギジュツケンキュウキコウ,0
1636,6010901055243,新規,0,2024-05-14,2024-05-14,株式会社ＡＢＣ,,株式会社,東京都,世田谷区,池尻３丁目２４－８－２０５,,13,112,1540001,,,,,,,2024-05-14,1,,,,,エービーシー,0
1637,6010901055251,新規,0,2024-05-14,2024-05-14,株式会社あめふらん,,株式会社,東京都,世田谷区,深沢３丁目２１番１０号,,13,112,1580081,,,,,,,2024-05-14,1,,,,,アメフラン,0
1638,6010905004618,新規,0,2024-05-14,2024-05-14,一般社団法人日本類別協会,,その他の設立登記法人,東京都,世田谷区,上北沢３丁目３１番１５号,,13,112,1560057,,,,,,,2024-05-14,1,,,,,ニホンルイベツキョウカイ,0
1645,6011001161857,新規,0,2024-05-14,2024-05-14,株式会社ｃｈａｒｍａｎｔ,,株式会社,東京都,渋谷区,恵比寿西１丁目８－１０木村ビル５Ｆ,,13,113,1500021,,,,,,,2024-05-14,1,,,,,シャルマン,0
1646,6011001161948,新規,0,2024-05-14,2024-05-14,株式会社Ｇａｔａｒｉ,,株式会社,東京都,渋谷区,道玄坂１丁目１６‐６二葉ビル８ｂ,,13,113,1500043,,,,,,,2024-05-14,1,,,,,ガタリ,0
1647,6011001161989,新規,0,2024-05-14,2024-05-14,株式会社Ｊ‐Ｆｌａｔ,,株式会社,東京都,目黒区,平町１丁目１７番１号,,13,110,1520032,,,,,,,2024-05-14,1,,,,,ジェイフラット,0
1648,6011003019161,新規,0,2024-05-14,2024-05-14,Ａ＆Ａ　Ｃｏｍｐａｎｙ合同会社,,合同会社,東京都,渋谷区,広尾１丁目１３番５号東急セットアップレジデェンス恵比寿９０６,,13,113,1500012,,,,,,,2024-05-14,1,,,,,エーアンドエーカンパニー,0
1652,6011101107297,新規,0,2024-05-14,2024-05-14,Ｗｅｌｌｎｅｓｓ　ＡＰ　Ｓｃｉｅｎｃｅ株式会社,,株式会社,東京都,新宿区,西早稲田１丁目２２番３号,,13,104,1690051,,,,,,,2024-05-14,1,,,,,ウェルネスエーピーサイエンス,0
1653,6011101107314,新規,0,2024-05-14,2024-05-14,株式会社マンモスコーヒージャパン,,株式会社,東京都,新宿区,神楽坂３丁目２番地,,13,104,1620825,,,,,,,2024-05-14,1,,,,,マンモスコーヒージャパン,0
1654,6011201025465,新規,0,2024-05-14,2024-05-14,株式会社ＮＮＫ,,株式会社,東京都,中野区,本町３丁目２８番８－２０３号,,13,114,1640012,,,,,,,2024-05-14,1,,,,,エヌエヌケイ,0
1655,6011205002601,新規,0,2024-05-14,2024-05-14,ライト行政書士法人,,その他の設立登記法人,東京都,中野区,上鷺宮３丁目１１番６号,,13,114,1650031,,,,,,,2024-05-14,1,,,,,ライト,0
1658,6011303005159,新規,0,2024-05-14,2024-05-14,合同会社小池ビル,,合同会社,東京都,杉並区,梅里２丁目９番１１号小池ビル２階,,13,115,1660011,,,,,,,2024-05-14,1,,,,,コイケビル,0
1664,6011501030660,新規,0,2024-05-14,2024-05-14,株式会社エスプロ,,株式会社,東京都,北区,豊島７丁目２１番７－６１１号フィルプレイス王子,,13,117,1140003,,,,,,,2024-05-14,1,,,,,エスプロ,0
1683,6020001157146,新規,0,2024-05-14,2024-05-14,株式会社さんわダイニング,,株式会社,神奈川県,横浜市西区,南幸２丁目１０番１７号ブリラール横浜２Ｆ,,14,103,2200005,,,,,,,2024-05-14,1,,,,,サンワダイニング,0
1684,6020001157162,新規,0,2024-05-14,2024-05-14,株式会社ＭＣＷｏｒｋｓ,,株式会社,神奈川県,横浜市都筑区,荏田東４丁目８番５号プラザ都筑２Ｆ－Ｊ４,,14,118,2240006,,,,,,,2024-05-14,1,,,,,エムシーワークス,0
1685,6020001157237,新規,0,2024-05-14,2024-05-14,コンパウンド・キャピタル株式会社,,株式会社,神奈川県,横浜市神奈川区,白幡西町３６番１号,,14,102,2210074,,,,,,,2024-05-14,1,,,,,コンパウンドキャピタル,0
1691,6020003026134,新規,0,2024-05-14,2024-05-14,合同会社グッドコンサルタント,,合同会社,神奈川県,川崎市幸区,南幸町２丁目２０番２０２,,14,132,2120016,,,,,,,2024-05-14,1,,,,,グッドコンサルタント,0
1694,6021001082193,新規,0,2024-05-14,2024-05-14,ＡｉｌｅＷｅｌｌ株式会社,,株式会社,神奈川県,座間市,西栗原２丁目１番５１号,,14,216,2520016,,,,,,,2024-05-14,1,,,,,エルウェル,0
1695,6021001082202,新規,0,2024-05-14,2024-05-14,ティケイプランニング株式会社,,株式会社,神奈川県,相模原市中央区,富士見２丁目１４番１０号ロイヤル富士見１Ｆ,,14,152,2520236,,,,,,,2024-05-14,1,,,,,ティケイプランニング,0
1696,6021001082210,新規,0,2024-05-14,2024-05-14,株式会社ＴＭＴ建設,,株式会社,神奈川県,厚木市,上荻野１２３３番地,,14,212,2430201,,,,,,,2024-05-14,1,,,,,ティーエムティーケンセツ,0
1703,6030001160272,新規,0,2024-05-14,2024-05-14,相徳商事株式会社,00134734,株式会社,埼玉県,上尾市,井戸木４丁目３３－３２,,11,219,3620071,,,,,,,2024-05-14,1,,,,,ソウトクショウジ,0
1704,6030001160297,新規,0,2024-05-14,2024-05-14,インマックス株式会社,,株式会社,埼玉県,所沢市,東狭山ケ丘１丁目２７番地１－１－５号,,11,208,3591106,,,,,,,2024-05-14,1,,,,,インマックス,0
1705,6030001160314,新規,0,2024-05-14,2024-05-14,株式会社ＲＥＥＬ,,株式会社,埼玉県,越谷市,千間台西３丁目３番地パークタウン１５－１０１,,11,222,3430041,,,,,,,2024-05-14,1,,,,,リール,0
1706,6030001160322,新規,0,2024-05-14,2024-05-14,株式会社関川仮設,,株式会社,埼玉県,所沢市,上新井５丁目３２番地の３－４０４,,11,208,3591142,,,,,,,2024-05-14,1,,,,,セキカワカセツ,0
1707,6030001160330,新規,0,2024-05-14,2024-05-14,株式会社コーギーアールホールディングス,,株式会社,埼玉県,さいたま市北区,櫛引町２丁目３０５番地１杉崎櫛引ビル３階,,11,102,3310825,,,,,,,2024-05-14,1,,,,,コーギーアールホールディングス,0
1708,6030001160339,新規,0,2024-05-14,2024-05-14,株式会社ＲＯＨＡＮ　ＴＲＡＤＩＮＧ,,株式会社,埼玉県,八潮市,緑町１丁目３９番地７－２Ｆ,,11,234,3400808,,,,,,,2024-05-14,1,,,,,ロハントレーディング,0
1711,6030003024269,新規,0,2024-05-14,2024-05-14,合同会社浦商事,,合同会社,埼玉県,川口市,宮町２番２３号,,11,203,3320028,,,,,,,2024-05-14,1,,,,,ウラショウジ,0
1712,6030003024285,新規,0,2024-05-14,2024-05-14,ＳＨＯＷ合同会社,,合同会社,埼玉県,さいたま市桜区,大字大久保領家４６１番地３,,11,106,3380826,,,,,,,2024-05-14,1,,,,,ショウ,0
1713,6030003024293,新規,0,2024-05-14,2024-05-14,ＹＵＣＣａ合同会社,,合同会社,埼玉県,飯能市,大字前ヶ貫２６２番地４９,,11,209,3570043,,,,,,,2024-05-14,1,,,,,ユッカ,0
1725,6040001133533,新規,0,2024-05-14,2024-05-14,株式会社Ｍ＆Ｙ,,株式会社,千葉県,鎌ケ谷市,南鎌ケ谷１丁目８番２７号１０１号室,,12,224,2730106,,,,,,,2024-05-14,1,,,,,エムアンドワイ,0
1726,6040001133558,新規,0,2024-05-14,2024-05-14,株式会社ＲＥＣＹＣＡＲＳ　ＴＯＫＹＯ,,株式会社,千葉県,千葉市中央区,中央２丁目３－１６千葉センタースクエアビル５階,,12,101,2600013,,,,,,,2024-05-14,1,,,,,リサイカーズトウキョウ,0
1727,6040001133566,新規,0,2024-05-14,2024-05-14,株式会社ひまわり,,株式会社,千葉県,鴨川市,広場１２９２番地１,,12,223,2960044,,,,,,,2024-05-14,1,,,,,ヒマワリ,0
1731,6040003024978,新規,0,2024-05-14,2024-05-14,ＭＨ合同会社,,合同会社,千葉県,流山市,大字東深井１１０６番地の３４,,12,220,2700101,,,,,,,2024-05-14,1,,,,,エムエイチ,0
1734,6050001054745,新規,0,2024-05-14,2024-05-14,株式会社豊丸漁業,,株式会社,茨城県,鹿嶋市,大字荒井３番地,,08,222,3112204,,,,,,,2024-05-14,1,,,,,ユタカマルギョギョウ,0
1735,6050001054753,新規,0,2024-05-14,2024-05-14,ｓｉｎｍａｋｅｒ株式会社,,株式会社,茨城県,つくば市,梅園２丁目３４番地４０,,08,220,3050045,,,,,,,2024-05-14,1,,,,,シンメーカー,0
1738,6050003008360,新規,0,2024-05-14,2024-05-14,合同会社ＢＩＫＳ　ＴＲＡＤＩＮＧ　ＣＯＭＰＡＮＹ,,合同会社,茨城県,古河市,諸川１３１５番地１５,,08,204,3060126,,,,,,,2024-05-14,1,,,,,ビックストレーディングカンパニー,0
1739,6060001037063,新規,0,2024-05-14,2024-05-14,株式会社ドリームカンパニー,,株式会社,栃木県,栃木市,平柳町３丁目２５番２６－４号,,09,203,3280012,,,,,,,2024-05-14,1,,,,,ドリームカンパニー,0
1751,6080103003060,新規,0,2024-05-14,2024-05-14,合同会社ＰＵＲＰＬＥ,,合同会社,静岡県,熱海市,春日町１６番４５号熱海プラザ７０４,,22,205,4130005,,,,,,,2024-05-14,1,,,,,パープル,0
1767,6100001037430,新規,0,2024-05-14,2024-05-14,株式会社鎧塚建設工業,,株式会社,長野県,諏訪市,湯の脇１丁目７番１８－１号,,20,206,3920002,,,,,,,2024-05-14,1,,,,,ヨロイヅカケンセツコウギョウ,0
1787,6120001264592,新規,0,2024-05-14,2024-05-14,株式会社ソイル・リンク,,株式会社,大阪府,大阪市西区,北堀江３丁目１０番１７－８０９号,,27,106,5500014,,,,,,,2024-05-14,1,,,,,ソイルリンク,0
1788,6120001264733,新規,0,2024-05-14,2024-05-14,株式会社三草二木,,株式会社,大阪府,大阪市旭区,太子橋３丁目１７番１６号,,27,117,5350001,,,,,,,2024-05-14,1,,,,,サンソウニモク,0
1789,6120001264774,新規,0,2024-05-14,2024-05-14,致豊株式会社,,株式会社,大阪府,大阪市城東区,天王田１５－７－５１１号,,27,118,5360012,,,,,,,2024-05-14,1,,,,,シホウ,0
1790,6120001264799,新規,0,2024-05-14,2024-05-14,ＮＹＴ株式会社,,株式会社,大阪府,大阪市阿倍野区,松虫通３丁目８番９号,,27,119,5450043,,,,,,,2024-05-14,1,,,,,エヌワイティ,0
1791,6120001264808,新規,0,2024-05-14,2024-05-14,逹生株式会社,,株式会社,大阪府,大阪市城東区,東中浜９丁目８番２６号１０７号室,,27,118,5360023,,,,,,,2024-05-14,1,,,,,タツオ,0
1792,6120001264824,新規,0,2024-05-14,2024-05-14,Ｙｏｕ　Ｓｍｉｌｅ株式会社,,株式会社,大阪府,大阪市西区,靱本町３丁目９番９号奥内第２ビル５０８－９号室,,27,106,5500004,,,,,,,2024-05-14,1,,,,,ユースマイル,0
1796,6120003026462,新規,0,2024-05-14,2024-05-14,合同会社コネクトライン,,合同会社,大阪府,大阪市天王寺区,石ケ辻町３－４誠佑ビル３０２号室,00134737,27,109,5430031,,,,,,,2024-05-14,1,,,,,コネクトライン,0
1801,6130001077036,新規,0,2024-05-14,2024-05-14,株式会社ＹＫ３,,株式会社,京都府,京都市西京区,上桂三ノ宮町７８番地１,,26,111,6158224,,,,,,,2024-05-14,1,,,,,ワイケースリー,0
1804,6140001134372,新規,0,2024-05-14,2024-05-14,株式会社オフィス・ユキ,,株式会社,兵庫県,芦屋市,山芦屋町２２番７－２０４号,00134748,28,206,6590082,,,,,,,2024-05-14,1,,,,,オフィスユキ,0
1805,6140001134389,新規,0,2024-05-14,2024-05-14,株式会社珍品,,株式会社,兵庫県,神戸市中央区,生田町３丁目３番２２－６０２号,,28,110,6510092,,,,,,,2024-05-14,1,,,,,チンピン,0
1806,6140001134414,新規,0,2024-05-14,2024-05-14,Ｅ．Ｔｈｏｍｐｓｏｎ株式会社,,株式会社,兵庫県,明石市,二見町東二見４８２番地の８９,,28,203,6740092,,,,,,,2024-05-14,1,,,,,イートンプソン,0
1840,6220003003749,新規,0,2024-05-14,2024-05-14,合同会社いろは土木開発,,合同会社,石川県,金沢市,額乙丸町ロ２４０番地,,17,201,9218146,,,,,,,2024-05-14,1,,,,,イロハドボクカイハツ,0
1842,6230001020340,新規,0,2024-05-14,2024-05-14,ヤークス株式会社,,株式会社,富山県,氷見市,中央町９番４７号,,16,205,9350011,,,,,,,2024-05-14,1,,,,,ヤークス,0
1845,6240001063215,新規,0,2024-05-14,2024-05-14,株式会社ｊｕｓｔｒｅｖ,,株式会社,広島県,広島市西区,己斐本町３丁目１番１－４０１号,,34,104,7330812,,,,,,,2024-05-14,1,,,,,ジャストレヴ,0
1848,6240003006659,新規,0,2024-05-14,2024-05-14,合同会社アドラクション,,合同会社,広島県,広島市安佐北区,口田南７丁目１８番２５号,,34,106,7391733,,,,,,,2024-05-14,1,,,,,アドラクション,0
1849,6240005015773,新規,0,2024-05-14,2024-05-14,行政書士法人広島パートナーズ,,その他の設立登記法人,広島県,広島市南区,比治山町２番５号住宅生協比治山ビル３階,,34,103,7320817,,,,,,,2024-05-14,1,,,,,ヒロシマパートナーズ,0
1850,6250001020652,新規,0,2024-05-14,2024-05-14,株式会社アース・エコ山口,,株式会社,山口県,下関市,伊倉本町１４番２１号,,35,201,7510863,,,,,,,2024-05-14,1,,,,,アースエコヤマグチ,0
1851,6250005008917,新規,0,2024-05-14,2024-05-14,ヤマグチＤＸ協同組合,,その他の設立登記法人,山口県,山口市,白石１丁目１番１号,,35,203,7530070,,,,,,,2024-05-14,1,,,,,ヤマグチディーエックス,0
1860,6290001105689,新規,0,2024-05-14,2024-05-14,株式会社フクミツ建総,,株式会社,福岡県,小郡市,小郡９７番地１９,,40,216,8380141,,,,,,,2024-05-14,1,,,,,フクミツケンソウ,0
1865,6290801030558,新規,0,2024-05-14,2024-05-14,株式会社オーシャンゲート,,株式会社,福岡県,北九州市小倉北区,赤坂３丁目６番１０－４０４号,,40,106,8020032,,,,,,,2024-05-14,1,,,,,オーシャンゲート,0
1877,6340003004479,新規,0,2024-05-14,2024-05-14,合同会社ｈａｎａ　ｈａｎａ,,合同会社,鹿児島県,大島郡宇検村,大字芦検６５９番地,00134754,46,524,8943302,,,,,,,2024-05-14,1,,,,,ハナハナ,0
1881,6350001018959,新規,0,2024-05-14,2024-05-14,株式会社オフィスＥ・Ｋ,,株式会社,宮崎県,都城市,豊満町９８０番地１,,45,202,8850043,,,,,,,2024-05-14,1,,,,,オフィスイーケイ,0
1883,6360001033651,新規,0,2024-05-14,2024-05-14,ＫＯＥＩＧＯ株式会社,,株式会社,沖縄県,沖縄市,胡屋１丁目５－１５マンションカナン４０２,,47,211,9040021,,,,,,,2024-05-14,1,,,,,コエイゴ,0
1885,6370001051280,新規,0,2024-05-14,2024-05-14,株式会社暁,,株式会社,宮城県,石巻市,流留字五性橋３番地１,,04,202,9862103,,,,,,,2024-05-14,1,,,,,アカツキ,0
1894,6380003005762,新規,0,2024-05-14,2024-05-14,合同会社Ｓｕｇａｒ　Ｆｏｏｄ,,合同会社,福島県,郡山市,桑野１丁目５－１０クレスト郡山２０６,,07,203,9638025,,,,,,,2024-05-14,1,,,,,シュガーフード,0
1897,6400003003268,新規,0,2024-05-14,2024-05-14,合同会社Ｄ・ＳＰＯＴ,,合同会社,岩手県,盛岡市,南大通１丁目１２番２４－７０７号,,03,201,0200874,,,,,,,2024-05-14,1,,,,,ディースポット,0
1898,6400005008414,新規,0,2024-05-14,2024-05-14,岩手県キッチンカー協同組合,,その他の設立登記法人,岩手県,盛岡市,青山２丁目８番１３号,,03,201,0200133,,,,,,,2024-05-14,1,,,,,イワテケンキッチンカー,0
1907,6430003016300,新規,0,2024-05-14,2024-05-14,札幌商事合同会社,,合同会社,北海道,札幌市中央区,南四条西１１丁目１２９１－１２－４０３,,01,101,0640804,,,,,,,2024-05-14,1,,,,,サッポロショウジ,0
1915,6500003003241,新規,0,2024-05-14,2024-05-14,ＴＫＭｓｅｃ合同会社,,合同会社,愛媛県,四国中央市,中曽根町６２１番１号グランマスト中曽根２０５,,38,213,7990413,,,,,,,2024-05-14,1,,,,,ティケィエム,0
1918,6700150125363,新規,0,2024-05-14,2024-05-14,ｇｕａｎｇｄｏｎｇｈｏｎｇｚｈｉｚｈｉｎｅｎｇｋｅｊｉｇｕｆｅｎｙｏｕｘｉａｎｇｏｎｇｓｉ,,外国会社等,,,,,,,,Ｗｅｓｔ　ｏｆ　Ｇｕａｎｇｚｈａｎ　Ｈｉｇｈｗａｙ　ｊｕｎｃｔｉｏｎ，Ｇｕａｎｄｕ　Ｔｏｗｎ　Ｚｈａｎｊｉａｎｇ　Ｃｉｔｙ　Ｐｏｔｏｕ　ｄｉｓｔｒｉｃｔ　Ｇｕａｎｇｄｏｎｇ　Ｐｒｏｖｉｎｃｅ,,,,,,2024-05-14,1,,,,,カントンホンジジネンカギグフェンユウゲンコウシ,0
1919,6700150125371,新規,0,2024-05-14,2024-05-14,Ｑｉｎｇｄａｏ　Ｅｃｏｐｕｒｅ　Ｆｉｌｔｅｒ　Ｃｏ．，Ｌｔｄ．,,外国会社等,,,,,,,,Ｎｏ．１３，Ｙｉｓｈｅｎｇｂａｉ　Ｒｄ．Ｅｎｖｉｒｏｎｍｅｎｔａｌ　Ｐｒｏｔｅｃｔｉｏｎ　Ｉｎｄｕｓｔｒｙ　Ｚｏｎｅ，Ｊｉｍｏ　Ｑｉｎｇｄａｏ　Ｓｈａｎｄｏｎｇ　ＣＮ,,,,,,2024-05-14,1,,,,,チンタオエコピュアフィルターカンパニーリミテッド,0
1946,7010001244786,新規,0,2024-05-14,2024-05-14,株式会社ｏｌｉｖｅｒ,,株式会社,東京都,千代田区,神田神保町１丁目３２番地,,13,101,1010051,,,,,,,2024-05-14,1,,,,,オリバー,0
1947,7010001244794,新規,0,2024-05-14,2024-05-14,株式会社マチヤパートナーズ,,株式会社,東京都,千代田区,神田神保町２丁目１４番地朝日神保町プラザ５０４号,,13,101,1010051,,,,,,,2024-05-14,1,,,,,マチヤパートナーズ,0
1964,7010401182256,新規,0,2024-05-14,2024-05-14,株式会社ＵＰＳＩＤＥＲホールディングス,,株式会社,東京都,港区,六本木７丁目１５番７号,,13,103,1060032,,,,,,,2024-05-14,1,,,,,アップサイダーホールディングス,0
1965,7010401182322,新規,0,2024-05-14,2024-05-14,Ｘ　Ｇａｍｉｆｉｃａｔｉｏｎ株式会社,,株式会社,東京都,港区,南青山７丁目１３番２０号,,13,103,1070062,,,,,,,2024-05-14,1,,,,,エックスゲーミフィケーション,0
1966,7010401182371,新規,0,2024-05-14,2024-05-14,株式会社ＳＹＮＣ　ＳＰＩＲＡＬ　ＳＴＡＧＥ,,株式会社,東京都,港区,南麻布３丁目２０番１号Ｄａｉｗａ麻布テラス５階,,13,103,1060047,,,,,,,2024-05-14,1,,,,,シンクスパイラルステージ,0
1967,7010401182413,新規,0,2024-05-14,2024-05-14,株式会社クロノス,,株式会社,東京都,港区,麻布台１丁目２番１－３００８号,,13,103,1060041,,,,,,,2024-05-14,1,,,,,クロノス,0
1969,7010403032608,新規,0,2024-05-14,2024-05-14,アズアンドコントリビュートリープス合同会社,,合同会社,東京都,港区,芝５丁目２番７号丸三ビル２Ｆ,,13,103,1080014,,,,,,,2024-05-14,1,,,,,,0
1982,7010901055259,新規,0,2024-05-14,2024-05-14,レヂル株式会社,,株式会社,東京都,世田谷区,中町４丁目３２番３－２０２号,,13,112,1580091,,,,,,,2024-05-14,1,,,,,レヂル,0
1984,7010903009048,新規,0,2024-05-14,2024-05-14,２５１７合同会社,,合同会社,東京都,世田谷区,経堂２丁目５－１７第一イズミビル４０１,,13,112,1560052,,,,,,,2024-05-14,1,,,,,ニゴイチナナ,0
1988,7011001161724,新規,0,2024-05-14,2024-05-14,株式会社ななねこ,,株式会社,東京都,渋谷区,渋谷２丁目１９－１５宮益坂ビルディング６０９,,13,113,1500002,,,,,,,2024-05-14,1,,,,,ナナネコ,0
1989,7011001161815,新規,0,2024-05-14,2024-05-14,ノアテックソリューションズ株式会社,,株式会社,東京都,渋谷区,渋谷２丁目１９番１５号宮益坂ビルディング６０９,,13,113,1500002,,,,,,,2024-05-14,1,,,,,ノアテックソリューションズ,0
1990,7011001161955,新規,0,2024-05-14,2024-05-14,株式会社ＯＲＴＨＥＣ　ＪＡＰＡＮ,,株式会社,東京都,渋谷区,千駄ヶ谷４丁目１９番１４号４Ｆ,,13,113,1510051,,,,,,,2024-05-14,1,,,,,オーテックジャパン,0
1991,7011001161988,新規,0,2024-05-14,2024-05-14,株式会社Ｊ‐Ｆｉｒｓｔ,,株式会社,東京都,目黒区,平町１丁目１７番１号,,13,110,1520032,,,,,,,2024-05-14,1,,,,,ジェイファースト,0
1993,7011003019103,新規,0,2024-05-14,2024-05-14,山内実験室合同会社,,合同会社,東京都,渋谷区,神宮前６丁目３５－３コープオリンピア７１７,,13,113,1500001,,,,,,,2024-05-14,1,,,,,ヤマウチジッケンシツ,0
1997,7011101107288,新規,0,2024-05-14,2024-05-14,株式会社ぐーちょきパイ,,株式会社,東京都,新宿区,百人町１丁目１７番１４号,,13,104,1690073,,,,,,,2024-05-14,1,,,,,グーチョキパイ,0
1998,7011101107305,新規,0,2024-05-14,2024-05-14,株式会社ＹＯＲＯＺＵＹＡ,,株式会社,東京都,新宿区,西新宿３丁目８番３号,,13,104,1600023,,,,,,,2024-05-14,1,,,,,ヨロズヤ,0
1999,7011101107321,新規,0,2024-05-14,2024-05-14,株式会社ＤａＤａ,,株式会社,東京都,新宿区,大久保１丁目２番１号天翔東新宿ビル６０１,,13,104,1690072,,,,,,,2024-05-14,1,,,,,ダダ,0
2001,7011301029654,新規,0,2024-05-14,2024-05-14,株式会社おそうじガン太,,株式会社,東京都,杉並区,成田東１丁目３７番１４号,,13,115,1660015,,,,,,,2024-05-14,1,,,,,オソウジガンタ,0
2002,7011303005158,新規,0,2024-05-14,2024-05-14,合同会社風の福商店,,合同会社,東京都,杉並区,和泉２丁目２５―１６,,13,115,1680063,,,,,,,2024-05-14,1,,,,,カゼノフクショウテン,0
2003,7011401026080,新規,0,2024-05-14,2024-05-14,総合物販エフォール株式会社,,株式会社,東京都,板橋区,大和町１３－１３板橋本町ステーションレジデンス３０４,,13,119,1730012,,,,,,,2024-05-14,1,,,,,ソウゴウブッパンエフォール,0
2012,7012401041838,新規,0,2024-05-14,2024-05-14,株式会社福田電気工業,,株式会社,東京都,多摩市,落合３丁目２番地４－２０１,,13,224,2060033,,,,,,,2024-05-14,1,,,,,フクダデンキコウギョウ,0
2014,7012701018255,新規,0,2024-05-14,2024-05-14,株式会社ＲＥＶＩＴＡＬ,,株式会社,東京都,西東京市,緑町１丁目３－３,,13,229,1880002,,,,,,,2024-05-14,1,,,,,リバイタル,0
2017,7012801023155,新規,0,2024-05-14,2024-05-14,株式会社あーる,,株式会社,東京都,日野市,多摩平４丁目１番地４明光プラザ１０２,,13,212,1910062,,,,,,,2024-05-14,1,,,,,アール,0
2018,7012803003394,新規,0,2024-05-14,2024-05-14,ベルデーム合同会社,,合同会社,東京都,日野市,旭が丘６丁目２番地の１３,,13,212,1910065,,,,,,,2024-05-14,1,,,,,ベルデーム,0
2019,7012805003269,新規,0,2024-05-14,2024-05-14,一般社団法人最愛の食卓,,その他の設立登記法人,東京都,日野市,多摩平２丁目５番地の１クレヴィア豊田多摩平の森ＲＥＳＩＤＥＮＣＥ６１６,,13,212,1910062,,,,,,,2024-05-14,1,,,,,サイアイノショクタク,0
2020,7013103001337,新規,0,2024-05-14,2024-05-14,合同会社井龍,,合同会社,東京都,西多摩郡瑞穂町,大字武蔵７３番地２,,13,303,1901213,,,,,,,2024-05-14,1,,,,,,0
2030,7020001157244,新規,0,2024-05-14,2024-05-14,株式会社Ｆｉｖｅｒ　Ｆｏｒｃｅ,,株式会社,神奈川県,横浜市神奈川区,金港町５番地１４クアドリフォリオ８階,,14,102,2210056,,,,,,,2024-05-14,1,,,,,ファイバーフォース,0
2033,7020003026125,新規,0,2024-05-14,2024-05-14,合同会社ｒｅｔｏ６９,,合同会社,神奈川県,川崎市多摩区,南生田２丁目１４番１１‐２号,,14,135,2140036,,,,,,,2024-05-14,1,,,,,レトロック,0
2034,7021001082218,新規,0,2024-05-14,2024-05-14,Ｓｉ＆ＧＭ株式会社,,株式会社,神奈川県,厚木市,三田３３３９,,14,212,2430211,,,,,,,2024-05-14,1,,,,,エスアイアンドジーエム,0
2035,7021003014499,新規,0,2024-05-14,2024-05-14,４ｔｈ　Ａｇｅｎｃｙ合同会社,,合同会社,神奈川県,海老名市,中央３丁目１番１７－１００４号,,14,215,2430432,,,,,,,2024-05-14,1,,,,,フォースエージェンシー,0
2036,7021005013103,新規,0,2024-05-14,2024-05-14,マイティ・パートナーズ社会保険労務士法人,,その他の設立登記法人,神奈川県,相模原市中央区,並木１丁目８番１６号,,14,152,2520228,,,,,,,2024-05-14,1,,,,,マイティパートナーズ,0
2044,7030001160296,新規,0,2024-05-14,2024-05-14,株式会社上尾製作所,,株式会社,埼玉県,吉川市,大字半割５０番地２１,,11,243,3420024,,,,,,,2024-05-14,1,,,,,カミオセイサクショ,0
2045,7030001160305,新規,0,2024-05-14,2024-05-14,株式会社つむぎ,,株式会社,埼玉県,鶴ヶ島市,大字鶴ヶ丘７４番地６サンコーポ１階１０１号室,,11,241,3502204,,,,,,,2024-05-14,1,,,,,ツムギ,0
2046,7030001160313,新規,0,2024-05-14,2024-05-14,株式会社アックスタウン,,株式会社,埼玉県,さいたま市南区,南浦和１丁目１７番２１号Ｌｕｍｉｄｅｎｃｅ優１０２,,11,108,3360017,,,,,,,2024-05-14,1,,,,,アックスタウン,0
2047,7030001160321,新規,0,2024-05-14,2024-05-14,環球科技株式会社,,株式会社,埼玉県,羽生市,大字下新郷１９０８番地５,,11,216,3480047,,,,,,,2024-05-14,1,,,,,カンキュウカギ,0
2051,7030003024284,新規,0,2024-05-14,2024-05-14,ｓｚｋ　ｆｉｌｍｓ合同会社,,合同会社,埼玉県,川口市,芝下３丁目３番６号,,11,203,3330848,,,,,,,2024-05-14,1,,,,,エスジーケーフィルムズ,0
2055,7040001133565,新規,0,2024-05-14,2024-05-14,ＩＳＣ株式会社,,株式会社,千葉県,鎌ケ谷市,新鎌ケ谷１丁目１９番３６号フルジェンテ・カーサ２０６号室,,12,224,2730107,,,,,,,2024-05-14,1,,,,,アイエスシー,0
2056,7040001133573,新規,0,2024-05-14,2024-05-14,株式会社ジャパンエル,,株式会社,千葉県,船橋市,咲が丘３丁目１番１２号,,12,204,2740807,,,,,,,2024-05-14,1,,,,,ジャパンエル,0
2057,7040001133598,新規,0,2024-05-14,2024-05-14,株式会社ＱＴＣ,,株式会社,千葉県,流山市,南流山７丁目３２番地の４フロントシティ南流山９０１,,12,220,2700163,,,,,,,2024-05-14,1,,,,,キューティーシー,0
2061,7040003024985,新規,0,2024-05-14,2024-05-14,ＡＵＮＧ合同会社,,合同会社,千葉県,市川市,福栄１丁目８番１９号,,12,203,2720137,,,,,,,2024-05-14,1,,,,,アウン,0
2062,7040005022392,新規,0,2024-05-14,2024-05-14,一般社団法人大金沢共有地管理組合,,その他の設立登記法人,千葉県,千葉市緑区,大金沢町７３６番地,,12,105,2660014,,,,,,,2024-05-14,1,,,,,オオカナザワキョウユウチカンリクミアイ,0
2091,7120001264798,新規,0,2024-05-14,2024-05-14,Ｂ‐ＡＩデア株式会社,,株式会社,大阪府,大阪市中央区,南船場３丁目４番２６号,,27,128,5420081,,,,,,,2024-05-14,1,,,,,ビーアイデア,0
2092,7120001264831,新規,0,2024-05-14,2024-05-14,京都日ノ本株式会社,,株式会社,大阪府,大阪市城東区,今福東１丁目４番１９号,,27,118,5360002,,,,,,,2024-05-14,1,,,,,キョウトヒノモト,0
2096,7120003026569,新規,0,2024-05-14,2024-05-14,合同会社杯乙,,合同会社,大阪府,大阪市東淀川区,東中島２丁目７番１８号ＳＤグランツ新大阪４０３号室,,27,114,5330033,,,,,,,2024-05-14,1,,,,,パイオツ,0
2116,7140001134314,新規,0,2024-05-14,2024-05-14,株式会社Ｉ‐サポート,,株式会社,兵庫県,神戸市北区,有馬町１０４６番地,,28,109,6511401,,,,,,,2024-05-14,1,,,,,アイサポート,0
2117,7140001134371,新規,0,2024-05-14,2024-05-14,株式会社バイクランド,,株式会社,兵庫県,神戸市西区,枝吉１丁目２２３番地,,28,111,6512133,,,,,,,2024-05-14,1,,,,,バイクランド,0
2125,7150001027277,新規,0,2024-05-14,2024-05-14,ＭＫジャパン株式会社,,株式会社,奈良県,奈良市,大宮町３丁目２－５０白樺ハイツ大宮ＩＩＩ６０７号,00134733,29,201,6308115,,,,,,,2024-05-14,1,,,,,エムケイジャパン,0
2126,7150003003251,新規,0,2024-05-14,2024-05-14,合同会社しもいち企画,,合同会社,奈良県,吉野郡下市町,大字＿邑２４０番地,00134739,29,443,6380011,,,,,,,2024-05-14,1,,,,,シモイチキカク,0
2130,7170001018134,新規,0,2024-05-14,2024-05-14,株式会社エクステリア寿,,株式会社,和歌山県,有田郡有田川町,大字徳田１５４２番地３,,30,366,6430801,,,,,,,2024-05-14,1,,,,,エクステリアコトブキ,0
2135,7180001161404,新規,0,2024-05-14,2024-05-14,株式会社ウエスト,,株式会社,愛知県,名古屋市東区,白壁５丁目１５番地,,23,102,4610011,,,,,,,2024-05-14,1,,,,,ウエスト,0
2136,7180001161429,新規,0,2024-05-14,2024-05-14,株式会社Ｎａｎｅａ,,株式会社,愛知県,名古屋市中村区,名駅３丁目４番１０号アルティメイト名駅１ｓｔ２階,,23,105,4500002,,,,,,,2024-05-14,1,,,,,ナネア,0
2148,7190001031341,新規,0,2024-05-14,2024-05-14,環宇商事株式会社,,株式会社,三重県,四日市市,北小松町字道堰７２８番,,24,202,5100955,,,,,,,2024-05-14,1,,,,,カンウショウジ,0
2168,7260001039022,新規,0,2024-05-14,2024-05-14,株式会社縁,,株式会社,岡山県,津山市,沼１９番地１６,,33,203,7080824,,,,,,,2024-05-14,1,,,,,エン,0
2172,7290001105647,新規,0,2024-05-14,2024-05-14,株式会社ヨタプロモーション,,株式会社,福岡県,福岡市博多区,博多駅前１丁目２３番２号ＰａｒｋＦｒｏｎｔ博多駅前１丁目５Ｆ－Ｂ,,40,132,8120011,,,,,,,2024-05-14,1,,,,,ヨタプロモーション,0
2177,7290003015258,新規,0,2024-05-14,2024-05-14,合同会社ウエストフィールド,,合同会社,福岡県,那珂川市,道善４丁目１３番３号,,40,231,8111254,,,,,,,2024-05-14,1,,,,,ウエストフィールド,0
2183,7350001018958,新規,0,2024-05-14,2024-05-14,株式会社水神クラスター,,株式会社,宮崎県,都城市,大岩田町５４３４番地１,,45,202,8850062,,,,,,,2024-05-14,1,,,,,スイジンクラスター,0
2186,7370001051288,新規,0,2024-05-14,2024-05-14,株式会社てらこやん１８,,株式会社,宮城県,仙台市泉区,泉中央１丁目１６番地の１プレミスト泉中央駅前１１０１,,04,105,9813133,,,,,,,2024-05-14,1,,,,,テラコヤンジュウハチ,0
2189,7370003006612,新規,0,2024-05-14,2024-05-14,合同会社ナレッジ,,合同会社,宮城県,黒川郡大和町,吉岡字志田町２８番地の１,,04,421,9813621,,,,,,,2024-05-14,1,,,,,ナレッジ,0
2202,7400001016659,新規,0,2024-05-14,2024-05-14,株式会社ＲＥＰＯエナジー東北,,株式会社,岩手県,盛岡市,盛岡駅西通１丁目２４番１２号,,03,201,0200045,,,,,,,2024-05-14,1,,,,,レポエナジートウホク,0
2212,7430001091807,新規,0,2024-05-14,2024-05-14,株式会社凌煕,,株式会社,北海道,札幌市中央区,北二条西２丁目３２番地第３７桂和ビル５Ｆ,,01,101,0600002,,,,,,,2024-05-14,1,,,,,リョウキ,0
2218,7450003002487,新規,0,2024-05-14,2024-05-14,ブルーシーズＬＬＣ合同会社,,合同会社,北海道,稚内市,大字抜海村字ユーチ１９０番地,,01,214,0970000,,,,,,,2024-05-14,1,,,,,ブルーシーズエルエルシー,0
2220,7470001020191,新規,0,2024-05-14,2024-05-14,株式会社ブランエノワール,,株式会社,香川県,高松市,国分寺町１８００番地５－１・２階東側,,37,201,7600000,,,,,,,2024-05-14,1,,,,,,0
2222,7490001010769,新規,0,2024-05-14,2024-05-14,株式会社ＩＫＪ,,株式会社,高知県,高知市,南はりまや町１丁目３番１号,,39,201,7800833,,,,,,,2024-05-14,1,,,,,アイケイジェイ,0
2223,7700150123911,新規,0,2024-05-14,2024-05-14,ＹＵＳＨＩＮ　ＡＵＴＯＭＡＴＩＯＮ　ＬＩＭＩＴＥＤ,,外国会社等,,,,,,,,Ｕｎｉｔ　１５－１７　Ａｓｔｏｎ　Ｆｉｅｌｄｓ　Ｉｎｄｕｓｔｒｉａｌ　Ｅｓｔａｔｅ，Ａｓｔｏｎ　Ｒｏａｄ，Ｂｒｏｍｓｇｒｏｖｅ，Ｗｏｒｃｅｓｔｅｒｓｈｉｒｅ　Ｂ６０　３ＥＸ，Ｕｎｉｔｅｄ　Ｋｉｎｇｄｏｍ,,,,,,2024-05-14,1,,,,,ユーシンオートメーシヨンリミテツド,0
2224,7700150125214,新規,0,2024-05-14,2024-05-10,山村楽千代事務局,,その他,東京都,江東区,冬木７番６号,,13,108,1350041,,,,,,,2024-05-10,1,,,,,ヤマムララクチヨジムキヨク,0
2225,7700150125362,新規,0,2024-05-14,2024-05-14,ＮＣＳＯＦＴ　Ｃｏｒｐｏｒａｔｉｏｎ,,外国会社等,,,,,,,,１２，Ｄａｅｗａｎｇｐａｎｇｙｏ－ｒｏ　６４４ｂｅｏｎ－ｇｉｌ，Ｂｕｎｄａｎｇ－ｇｕ，Ｓｅｏｎｇｎａｍ－ｓｉ，Ｇｙｅｏｎｇｇｉ－ｄｏ，Ｋｏｒｅａ,,,,,,2024-05-14,1,,,,,エヌシーソフトコーポレーシヨン,0
2226,7700150125370,新規,0,2024-05-14,2024-05-14,Ｈｅｎａｎ　Ｆａｎｎａｉｇｅ　Ｍａｏｙｉｙｏｕｘｉａｎｇｏｎｇｓｉ,,外国会社等,,,,,,,,Ｈｅｎｅｎ　Ｐｒｏｖｉｎｃｅ　Ｚｈｅｎｇｚｈｏｕ　Ｃｉｔｙ　Ｇａｏｘｉｎｊｉｓｈｕｃｈａｎｙｅｋａｉｆａｑｕ　Ｆｅｎｇｙａｎｇｊｉｅ　２９ｈａｏ　１ｈａｏｌｏｕ２ｄａｎｙｕａｎ２７ｃｅｎｇ２２７ｈａｏ,,,,,,2024-05-14,1,,,,,ヘナンファンナイゲマオイユウゲンコウシ,0
2246,8010001244744,新規,0,2024-05-14,2024-05-14,株式会社ＡＫＩＴＡ,,株式会社,東京都,中央区,銀座７丁目１５番８号タウンハイツ銀座４０６,,13,102,1040061,,,,,,,2024-05-14,1,,,,,アキタ,0
2247,8010001244793,新規,0,2024-05-14,2024-05-14,株式会社ＲａｙＭａｙ,,株式会社,東京都,千代田区,丸の内２丁目３－２郵船ビルディング４階,,13,101,1000005,,,,,,,2024-05-14,1,,,,,レイメイ,0
2248,8010001244802,新規,0,2024-05-14,2024-05-14,グローバル事業企画株式会社,,株式会社,東京都,千代田区,大手町１丁目５番１号,,13,101,1000004,,,,,,,2024-05-14,1,,,,,グローバルジギョウキカク,0
2252,8010003043640,新規,0,2024-05-14,2024-05-14,合同会社森田久治郎商店,,合同会社,東京都,文京区,大塚５丁目３番１０号,,13,105,1120012,,,,,,,2024-05-14,1,,,,,モリタキュウジロウショウテン,0
2253,8010003043715,新規,0,2024-05-14,2024-05-14,合同会社アクエリアス,,合同会社,東京都,千代田区,神田神保町３丁目５番地,,13,101,1010051,,,,,,,2024-05-14,1,,,,,アクエリアス,0
2262,8010401182255,新規,0,2024-05-14,2024-05-14,株式会社ＭＴＭＴ,,株式会社,東京都,港区,南青山３丁目１番３６号青山丸竹ビル６階,,13,103,1070062,,,,,,,2024-05-14,1,,,,,エムティエムティ,0
2263,8010401182412,新規,0,2024-05-14,2024-05-14,Ｐｅｂｂｌｅ　Ｇａｍｅｓ株式会社,,株式会社,東京都,港区,西新橋３丁目１番８号,,13,103,1050003,,,,,,,2024-05-14,1,,,,,ペブルゲームズ,0
2268,8010403032598,新規,0,2024-05-14,2024-05-14,ＶＥ　Ｐｌｕｓ合同会社,,合同会社,東京都,港区,麻布台１丁目９番１３号,,13,103,1060041,,,,,,,2024-05-14,1,,,,,ヴィーイープラス,0
2269,8010403032607,新規,0,2024-05-14,2024-05-14,合同会社ＲＪイプシロン,,合同会社,東京都,港区,虎ノ門１丁目２番８号リニューアブル・ジャパン株式会社内,,13,103,1050001,,,,,,,2024-05-14,1,,,,,アールジェイイプシロン,0
2273,8010501052259,新規,0,2024-05-14,2024-05-14,ＮＩＫＡ株式会社,,株式会社,東京都,台東区,西浅草２丁目１１番２－４０２号,,13,106,1110035,,,,,,,2024-05-14,1,,,,,ニカ,0
2297,8011001161830,新規,0,2024-05-14,2024-05-14,株式会社ＹＯＵｅｎ,,株式会社,東京都,渋谷区,西原３丁目３４番１０－１０１号,,13,113,1510066,,,,,,,2024-05-14,1,,,,,ユウエン,0
2298,8011001161896,新規,0,2024-05-14,2024-05-14,株式会社Ｍｉｄｗａｖｅ,,株式会社,東京都,渋谷区,広尾５丁目４番１６号ＥＡＴＰＬＡＹＷＯＲＫＳ３階,,13,113,1500012,,,,,,,2024-05-14,1,,,,,ミッドウェーブ,0
2299,8011001161913,新規,0,2024-05-14,2024-05-14,株式会社デクモ,,株式会社,東京都,目黒区,大岡山２丁目４番２－７０３号秀和大岡山レジデンス,,13,110,1520033,,,,,,,2024-05-14,1,,,,,デクモ,0
2300,8011001161987,新規,0,2024-05-14,2024-05-14,ＰＨＩ株式会社,,株式会社,東京都,渋谷区,道玄坂１丁目１０番８号渋谷道玄坂東急ビル２Ｆ－Ｃ,,13,113,1500043,,,,,,,2024-05-14,1,,,,,ファイ,0
2309,8011101107295,新規,0,2024-05-14,2024-05-14,株式会社Ｒｅｙｚ,,株式会社,東京都,新宿区,歌舞伎町２丁目３６番５号清建ビル２階,,13,104,1600021,,,,,,,2024-05-14,1,,,,,レイズ,0
2310,8011101107312,新規,0,2024-05-14,2024-05-14,株式会社アスター,,株式会社,東京都,新宿区,西新宿７丁目１番７号新宿ダイカンプラザＡ館７１２,,13,104,1600023,,,,,,,2024-05-14,1,,,,,アスター,0
2311,8011101107320,新規,0,2024-05-14,2024-05-14,サンセントジャパン株式会社,,株式会社,東京都,新宿区,西新宿３丁目３番１３号西新宿水間ビル６階,,13,104,1600023,,,,,,,2024-05-14,1,,,,,サンセントジャパン,0
2315,8011301029661,新規,0,2024-05-14,2024-05-14,株式会社エイチトップ,,株式会社,東京都,杉並区,南荻窪３丁目２１番２３号,,13,115,1670052,,,,,,,2024-05-14,1,,,,,エイチトップ,0
2316,8011303005157,新規,0,2024-05-14,2024-05-14,セシャトコンサルティング合同会社,,合同会社,東京都,杉並区,上高井戸１丁目８番２９号木下ビル３０３,,13,115,1680074,,,,,,,2024-05-14,1,,,,,セシャトコンサルティング,0
2329,8012301013903,新規,0,2024-05-14,2024-05-14,株式会社エムケーテクノ,,株式会社,東京都,町田市,木曽東３丁目４番４２号３,,13,209,1940036,,,,,,,2024-05-14,1,,,,,エムケーテクノ,0
2332,8012401041853,新規,0,2024-05-14,2024-05-14,株式会社Ｆｅｉｅｒａｂｅｎｄ,,株式会社,東京都,調布市,小島町２丁目１３－５グランバリュー調布２０１,,13,208,1820026,,,,,,,2024-05-14,1,,,,,ファイアアーベント,0
2333,8012401041861,新規,0,2024-05-14,2024-05-14,Ｌｏｇ　Ｂｒｉｄｇｅ株式会社,,株式会社,東京都,狛江市,東野川３丁目１７番１号,,13,219,2010002,,,,,,,2024-05-14,1,,,,,ログブリッジ,0
2336,8012703002990,新規,0,2024-05-14,2024-05-14,ＫＡＶＩ合同会社,,合同会社,東京都,東村山市,野口町３丁目３１番２号オンザロード１０７号室,,13,213,1890022,,,,,,,2024-05-14,1,,,,,カヴィ,0
2345,8020001157144,新規,0,2024-05-14,2024-05-14,ライトネクスト株式会社,,株式会社,神奈川県,川崎市中原区,小杉陣屋町１丁目２０番１９－１０１号,,14,133,2110062,,,,,,,2024-05-14,1,,,,,ライトネクスト,0
2346,8020001157169,新規,0,2024-05-14,2024-05-14,株式会社Ｆｏｒｔｕｎｅ,,株式会社,神奈川県,横浜市神奈川区,二ツ谷町１４番４号－５Ｆ,,14,102,2210823,,,,,,,2024-05-14,1,,,,,,0
2349,8020003026082,新規,0,2024-05-14,2024-05-14,４０１合同会社,,合同会社,神奈川県,横浜市中区,千代崎町１丁目２５番地２１ライオンズマンション横浜山手４０１号室,,14,104,2310864,,,,,,,2024-05-14,1,,,,,ヨンマルイチ,0
2350,8020003026124,新規,0,2024-05-14,2024-05-14,合同会社メクハ,,合同会社,神奈川県,横浜市都筑区,中川１丁目２１‐１１‐４０５,,14,118,2240001,,,,,,,2024-05-14,1,,,,,メクハ,0
2354,8021001082183,新規,0,2024-05-14,2024-05-14,ＣＡＲ　ＲＩＺＩＮ株式会社,,株式会社,神奈川県,平塚市,上吉沢１２１３－１－１５,,14,203,2591204,,,,,,,2024-05-14,1,,,,,カーライジン,0
2355,8021001082191,新規,0,2024-05-14,2024-05-14,Ｎｉｃｍｏｏ　ｃｏｍｐａｎｙ株式会社,,株式会社,神奈川県,愛甲郡愛川町,中津２０８０番地の３－２０１,,14,401,2430303,,,,,,,2024-05-14,1,,,,,ニクムーカンパニー,0
2356,8021001082209,新規,0,2024-05-14,2024-05-14,株式会社Ｍ＆Ｋ’ｓ,,株式会社,神奈川県,愛甲郡愛川町,中津４４４番地の５,,14,401,2430303,,,,,,,2024-05-14,1,,,,,エムアンドケーズ,0
2357,8021001082217,新規,0,2024-05-14,2024-05-14,株式会社生徒会,,株式会社,神奈川県,鎌倉市,高野１９番地１２,,14,204,2470054,,,,,,,2024-05-14,1,,,,,セイトカイ,0
2363,8030001160312,新規,0,2024-05-14,2024-05-14,株式会社ＣＡＲＣＨＥ,,株式会社,埼玉県,八潮市,大字浮塚１０８７－１メイプルヒルズ２号室,,11,234,3400835,,,,,,,2024-05-14,1,,,,,カルシェ,0
2364,8030001160320,新規,0,2024-05-14,2024-05-14,株式会社ハルトランスポート,,株式会社,埼玉県,春日部市,南中曽根８４９番地６,,11,214,3440048,,,,,,,2024-05-14,1,,,,,ハルトランスポート,0
2365,8030001160329,新規,0,2024-05-14,2024-05-14,株式会社小谷野,,株式会社,埼玉県,さいたま市浦和区,仲町１丁目１０番２３号３Ｆ,,11,107,3300062,,,,,,,2024-05-14,1,,,,,コヤノ,0
2373,8040001133556,新規,0,2024-05-14,2024-05-14,株式会社アディショナルホーム,,株式会社,千葉県,千葉市中央区,椿森２丁目２０番２号,,12,101,2600042,,,,,,,2024-05-14,1,,,,,アディショナルホーム,0
2374,8040001133564,新規,0,2024-05-14,2024-05-14,株式会社八起興業,,株式会社,千葉県,千葉市若葉区,桜木北１丁目３４番３号,,12,104,2640029,,,,,,,2024-05-14,1,,,,,ヤオキコウギョウ,0
2375,8040001133572,新規,0,2024-05-14,2024-05-14,株式会社ＳＴＲＥＡＭ,,株式会社,千葉県,鎌ケ谷市,くぬぎ山１丁目１２番２５号,,12,224,2730128,,,,,,,2024-05-14,1,,,,,ストリーム,0
2382,8040003024984,新規,0,2024-05-14,2024-05-14,合同会社アールアイケイ,,合同会社,千葉県,勝浦市,墨名８１５番地１５,,12,218,2995225,,,,,,,2024-05-14,1,,,,,アールアイケイ,0
2390,8050003008359,新規,0,2024-05-14,2024-05-14,未来合同会社,,合同会社,茨城県,水戸市,石川２丁目４０４８番１号みなみかぜエム２０１号室,,08,201,3100905,,,,,,,2024-05-14,1,,,,,ミライ,0
2391,8060003005058,新規,0,2024-05-14,2024-05-14,Ｐｉｘｅｌ　Ｅｘｐｌｏｒｅｒ合同会社,,合同会社,栃木県,佐野市,高萩町１３０４－１１,,09,204,3270821,,,,,,,2024-05-14,1,,,,,ピクセルエクスプローラー,0
2402,8100001037453,新規,0,2024-05-14,2024-05-14,株式会社平井アイゼンラボ,,株式会社,長野県,岡谷市,４７６９番地３００,,20,204,3940091,,,,,,,2024-05-14,1,,,,,ヒライアイゼンラボ,0
2416,8120001264830,新規,0,2024-05-14,2024-05-14,株式会社ｆａｍｉｌｙ,,株式会社,大阪府,大阪市淀川区,東三国６丁目１番１－１４０９号,,27,123,5320002,,,,,,,2024-05-14,1,,,,,ファミリー,0
2417,8120001264839,新規,0,2024-05-14,2024-05-14,ＰＣＣＷ株式会社,,株式会社,大阪府,大阪市浪速区,元町３丁目１３番２０－１１０８号,,27,111,5560016,,,,,,,2024-05-14,1,,,,,ピイシイシイダブル,0
2418,8120001264847,新規,0,2024-05-14,2024-05-14,株式会社幸久,,株式会社,大阪府,大阪市中央区,南船場１丁目１８番１７号商工中金船場ビル５階,,27,128,5420081,,,,,,,2024-05-14,1,,,,,コウキュウ,0
2419,8120001264855,新規,0,2024-05-14,2024-05-14,株式会社Ｂｅａｔｒｉｇｇｅｒ,,株式会社,大阪府,大阪市西区,靱本町１丁目５－１８Ｎａｎｅｉ本町ビル６０２,,27,106,5500004,,,,,,,2024-05-14,1,,,,,ビートリガー,0
2425,8120003026576,新規,0,2024-05-14,2024-05-14,合同会社ＭｉＬｌｉｏｎ,,合同会社,大阪府,大阪市北区,梅田１丁目２番２号大阪駅前第２ビル１２－１２,,27,127,5300001,,,,,,,2024-05-14,1,,,,,ミリオン,0
2429,8120101069576,新規,0,2024-05-14,2024-05-14,株式会社ＭＴＢ　Ｇｒｏｕｐ,,株式会社,大阪府,富田林市,廿山１丁目４番３３号,,27,214,5840081,,,,,,,2024-05-14,1,,,,,エムティービーグループ,0
2432,8120901049166,新規,0,2024-05-14,2024-05-14,株式会社ＷＬＡＧ,,株式会社,大阪府,高槻市,西五百住町１２－２５,,27,207,5690813,,,,,,,2024-05-14,1,,,,,ウーラグ,0
2441,8130003009563,新規,0,2024-05-14,2024-05-14,合同会社ローグ,,合同会社,京都府,長岡京市,緑が丘９番４号,,26,209,6170838,,,,,,,2024-05-14,1,,,,,ローグ,0
2447,8140001134370,新規,0,2024-05-14,2024-05-14,株式会社Ｗａｋｅ　Ｂｏｄｙ　Ｒｅｓｔａｒｔ,,株式会社,兵庫県,西宮市,甲子園七番町２０番１５号,,28,204,6638177,,,,,,,2024-05-14,1,,,,,ウェイクボディリスタート,0
2448,8140001134387,新規,0,2024-05-14,2024-05-14,株式会社クリア,,株式会社,兵庫県,神戸市中央区,三宮町３丁目７番１１号,,28,110,6500021,,,,,,,2024-05-14,1,,,,,クリア,0
2452,8140003020560,新規,0,2024-05-14,2024-05-14,合同会社トゥールビヨン,,合同会社,兵庫県,芦屋市,船戸町２番１ラポルテ西館８０４,,28,206,6590093,,,,,,,2024-05-14,1,,,,,トゥールビヨン,0
2453,8140003020569,新規,0,2024-05-14,2024-05-14,インコントロ合同会社,,合同会社,兵庫県,淡路市,久留麻２８番地１,,28,226,6562311,,,,,,,2024-05-14,1,,,,,インコントロ,0
2478,8220005008851,新規,0,2024-05-14,2024-05-14,社会福祉法人獅子吼会,,その他の設立登記法人,石川県,白山市,八幡町２４７番地,,17,210,9202113,,,,,,,2024-05-14,1,,,,,シシクカイ,0
2479,8230003002203,新規,0,2024-05-14,2024-05-14,リンク合同会社,,合同会社,富山県,富山市,新屋２１８番地１,,16,201,9300822,,,,,,,2024-05-14,1,,,,,リンク,0
2486,8250001020650,新規,0,2024-05-14,2024-05-14,ケアイノベイション株式会社,,株式会社,山口県,下関市,綾羅木本町４丁目７番１０号,,35,201,7510849,,,,,,,2024-05-14,1,,,,,ケアイノベイション,0
2495,8260005011356,新規,0,2024-05-14,2024-05-14,ＮＰＯ法人Ｇ‐Ｒｏｃｋｅｔｓ,,その他の設立登記法人,岡山県,岡山市北区,伊福町４丁目４番３１号２０１,,33,101,7000013,,,,,,,2024-05-14,1,,,,,ジーロケッツ,0
2497,8290001105638,新規,0,2024-05-14,2024-05-14,株式会社ＫＩＲＩＮＳＴＡＧＥ,,株式会社,福岡県,福岡市南区,塩原３丁目２１番３６号１Ｆ,,40,134,8150032,,,,,,,2024-05-14,1,,,,,キリンステージ,0
2498,8290001105654,新規,0,2024-05-14,2024-05-14,株式会社ＣＲＥＳＴ,,株式会社,福岡県,太宰府市,連歌屋３丁目７－１２,,40,221,8180119,,,,,,,2024-05-14,1,,,,,クレスト,0
2499,8290801030564,新規,0,2024-05-14,2024-05-14,株式会社フォームクリエイション,,株式会社,福岡県,北九州市小倉南区,湯川新町１丁目５番３１号（２Ｆ）,,40,107,8000256,,,,,,,2024-05-14,1,,,,,フォームクリエイション,0
2500,8300001013723,新規,0,2024-05-14,2024-05-14,株式会社Ｐｉｔｓ２７,,株式会社,佐賀県,鳥栖市,元町１２４７番地５吉竹第２ビル５Ｆ,,41,203,8410051,,,,,,,2024-05-14,1,,,,,ピッツニーナナ,0
2504,8320001020478,新規,0,2024-05-14,2024-05-14,株式会社大英建設,,株式会社,大分県,大分市,大字猪野９８６番地の５４,,44,201,8700134,,,,,,,2024-05-14,1,,,,,ダイエイケンセツ,0
2506,8330001032068,新規,0,2024-05-14,2024-05-14,株式会社ペガサス,,株式会社,熊本県,熊本市中央区,花畑町１番１４号Ａ＆ＭＨＡＮＡＢＡＴＡ３０１号,,43,101,8600806,,,,,,,2024-05-14,1,,,,,ペガサス,0
2513,8340005009730,新規,0,2024-05-14,2024-05-14,一般社団法人Ｔ．Ｎｕｄｇｅ,,その他の設立登記法人,鹿児島県,霧島市,霧島田口１９８６番地１,,46,218,8994201,,,,,,,2024-05-14,1,,,,,ティーナッジ,0
2516,8360001033567,新規,0,2024-05-14,2024-05-14,リビング・コンシェルジュ株式会社,,株式会社,沖縄県,宮古島市,平良字下里３０３－１,,47,214,9060013,,,,,,,2024-05-14,1,,,,,リビングコンシェルジュ,0
2518,8360003013971,新規,0,2024-05-14,2024-05-14,合同会社ＧＥＮＫＩ,,合同会社,沖縄県,宜野湾市,大山３丁目２９番１１－４０２号トクムラＡＮＮＥＸＩＩ,00134732,47,205,9012223,,,,,,,2024-05-14,1,,,,,ゲンキ,0
2519,8370001051295,新規,0,2024-05-14,2024-05-14,株式会社鎌,,株式会社,宮城県,仙台市青葉区,国見ケ丘７丁目１４１番地の３,,04,101,9893201,,,,,,,2024-05-14,1,,,,,レン,0
2520,8370005010784,新規,0,2024-05-14,2024-05-14,一般社団法人叶可式手相学協会,,その他の設立登記法人,宮城県,仙台市泉区,紫山５丁目１８番地の５,,04,105,9813205,,,,,,,2024-05-14,1,,,,,カナカシキテソウガクキョウカイ,0
2524,8390001017609,新規,0,2024-05-14,2024-05-14,株式会社Ｙｕｇｅ,,株式会社,山形県,山形市,蔵王温泉９７３－７,,06,201,9902301,,,,,,,2024-05-14,1,,,,,ユゲ,0
2528,8410001013811,新規,0,2024-05-14,2024-05-14,株式会社ねこの手能代,,株式会社,秋田県,能代市,大手町４番１８号,,05,202,0160805,,,,,,,2024-05-14,1,,,,,ネコノテノシロ,0
2535,8430001091797,新規,0,2024-05-14,2024-05-14,ユースフル株式会社,,株式会社,北海道,苫小牧市,字錦岡８９番地の１１,,01,213,0591275,,,,,,,2024-05-14,1,,,,,ユースフル,0
2537,8430003016315,新規,0,2024-05-14,2024-05-14,五洋商貿合同会社,,合同会社,北海道,札幌市中央区,南九条西３丁目２番１号の３１２室,,01,101,0640809,,,,,,,2024-05-14,1,,,,,ゴヨウショウボウ,0
2538,8430003016323,新規,0,2024-05-14,2024-05-14,合同会社ＭＵＲＡＫＩ,,合同会社,北海道,札幌市豊平区,月寒西一条７丁目１番２８号,,01,105,0620021,,,,,,,2024-05-14,1,,,,,ムラキ,0
2541,8470001020190,新規,0,2024-05-14,2024-05-14,ＬＥＭＢＵＲ　ＥＮＴＥＲＰＲＩＳＥＳ株式会社,,株式会社,香川県,観音寺市,流岡町１３４７番地１７鹿隈リゾートタウン１１号地２０２号室,,37,205,7680014,,,,,,,2024-05-14,1,,,,,レンバーエンタープライズ,0
2547,8700150102781,新規,0,2024-05-14,2021-04-12,東京都商工労務経営協会,,その他,東京都,狛江市,岩戸北２丁目８－１９,,13,219,2010004,,,,,,,2021-04-12,1,,,,,トウキヨウトシヨウコウロウムケイエイキヨウカイ,0
2548,8700150124272,新規,0,2024-05-14,2024-05-14,ＴＹ－ＧＡＲＤ　ＩＮＴＥＲＮＡＴＩＯＮＡＬ，ＩＮＣ．,,外国会社等,,,,,,,,６３１４　ＧＥＯＲＧＥＴＯＷＮ　ＰＩＫＥ，ＭＣＬＥＡＮ，ＶＡ　２２１０１―００００，ＵＳＡ,,,,,,2024-05-14,1,,,,,タイガードインターナシヨナル,0
2549,8700150125361,新規,0,2024-05-14,2024-05-14,スパイシーハーブ株式会社,,外国会社等,東京都,渋谷区,神宮前１丁目８番２４号１７５番館別館３０２号室,,13,113,1500001,アメリカ合衆国カリフォルニア州カルバーシティ市コーポレットポイント４００番地３００号室,,,,,,2024-05-14,1,,,,,スパイシーハーブカブシキガイシヤ,0
2567,9010001244743,新規,0,2024-05-14,2024-05-14,株式会社アイズ,,株式会社,東京都,中央区,銀座１丁目１２番４号Ｎ＆ＥＢＬＤ．７階,,13,102,1040061,,,,,,,2024-05-14,1,,,,,アイズ,0
2569,9010005038308,新規,0,2024-05-14,2024-05-14,一般社団法人ＡＰＬＳ鶴ヶ島,,その他の設立登記法人,東京都,千代田区,丸の内３丁目１番１号東京共同会計事務所内,,13,101,1000005,,,,,,,2024-05-14,1,,,,,アプルスツルガシマ,0
2584,9010401182254,新規,0,2024-05-14,2024-05-14,株式会社イーパテント・アクティス,,株式会社,東京都,港区,新橋２丁目２０番１５号新橋駅前ビル１号館６階,,13,103,1050004,,,,,,,2024-05-14,1,,,,,イーパテントアクティス,0
2585,9010401182394,新規,0,2024-05-14,2024-05-14,タリス株式会社,,株式会社,東京都,港区,西新橋１丁目２番９号日比谷セントラルビル１４階,,13,103,1050003,,,,,,,2024-05-14,1,,,,,タリス,0
2588,9010403032589,新規,0,2024-05-14,2024-05-14,デジタル建設合同会社,,合同会社,東京都,港区,赤坂７丁目５－１６オープンレジデンス赤坂テラス１０９,,13,103,1070052,,,,,,,2024-05-14,1,,,,,デジタルケンセツ,0
2591,9010603010816,新規,0,2024-05-14,2024-05-14,合同会社ＮＡＧＯＭＩ,,合同会社,東京都,墨田区,江東橋２丁目６番９号ＨＢ錦糸町ビル３階,,13,107,1300022,,,,,,,2024-05-14,1,,,,,ナゴミ,0
2592,9010603010832,新規,0,2024-05-14,2024-05-14,合同会社大陽商事,,合同会社,東京都,江東区,有明２丁目１番１－２７０９号,,13,108,1350063,,,,,,,2024-05-14,1,,,,,タイヨウショウジ,0
2602,9010901055249,新規,0,2024-05-14,2024-05-14,ＣＬＯＶｉＺ株式会社,,株式会社,東京都,世田谷区,赤堤４丁目１３番７号,,13,112,1560044,,,,,,,2024-05-14,1,,,,,クロービズ,0
2603,9010901055265,新規,0,2024-05-14,2024-05-14,株式会社ノアク,,株式会社,東京都,世田谷区,太子堂２丁目１７番５号佐藤ビル３Ｆ,,13,112,1540004,,,,,,,2024-05-14,1,,,,,ノアク,0
2615,9011003019101,新規,0,2024-05-14,2024-05-14,合同会社ＫＵＭＡ,,合同会社,東京都,渋谷区,神宮前６丁目２３番４号桑野ビル２階,,13,113,1500001,,,,,,,2024-05-14,1,,,,,クマ,0
2616,9011003019167,新規,0,2024-05-14,2024-05-14,合同会社エドヴィザージ,,合同会社,東京都,渋谷区,神宮前３丁目３７番１－４１１号ザ・神宮前レジデンス,,13,113,1500001,,,,,,,2024-05-14,1,,,,,エドヴィザージ,0
2624,9011101107303,新規,0,2024-05-14,2024-05-14,株式会社ＣＣ‐ｉｎｎｏｖａｔｉｏｎ,,株式会社,東京都,新宿区,新宿４丁目３番１５号,,13,104,1600022,,,,,,,2024-05-14,1,,,,,シーシーイノベーション,0
2625,9011105011030,新規,0,2024-05-14,2024-05-14,一般社団法人成美会,,その他の設立登記法人,東京都,新宿区,新宿５丁目１８番２０号新宿オミビル８階,,13,104,1600022,,,,,,,2024-05-14,1,,,,,セイビカイ,0
2626,9011301029660,新規,0,2024-05-14,2024-05-14,株式会社碧柚,,株式会社,東京都,杉並区,清水３丁目２番１７号,,13,115,1670033,,,,,,,2024-05-14,1,,,,,キュウ,0
2635,9011805003368,新規,0,2024-05-14,2024-05-14,一般社団法人足立ボーイズ,,その他の設立登記法人,東京都,足立区,花畑１丁目１６番１２号,,13,121,1210061,,,,,,,2024-05-14,1,,,,,アダチボーイズ,0
2639,9012401041836,新規,0,2024-05-14,2024-05-14,株式会社Ｖｅｒｄｅ,,株式会社,東京都,府中市,八幡町２丁目２７番地の３２ウィンドシティ東府中５０２,,13,206,1830016,,,,,,,2024-05-14,1,,,,,ベルデ,0
2640,9012401041860,新規,0,2024-05-14,2024-05-14,株式会社リトルツリー,,株式会社,東京都,武蔵野市,吉祥寺本町１丁目２９番５号,,13,203,1800004,,,,,,,2024-05-14,1,,,,,リトルツリー,0
2641,9012405004987,新規,0,2024-05-14,2024-05-14,特定非営利活動法人Ｌｏｎｅ　Ｓｔａｒｓ　Ｐｒｏｊｅｃｔ,,その他の設立登記法人,東京都,三鷹市,下連雀３丁目３６番１号３階瀧本歯科医院内,,13,204,1810013,,,,,,,2024-05-14,1,,,,,ローンスターズプロジェクト,0
2652,9020001157102,新規,0,2024-05-14,2024-05-14,Ｒｅｆｓｐｉｒｅ株式会社,,株式会社,神奈川県,横浜市中区,山元町５丁目１９８番地５マイキャッスル横濱山手エクセレントステージ４０５号,,14,104,2310851,,,,,,,2024-05-14,1,,,,,リフスパイア,0
2653,9020001157135,新規,0,2024-05-14,2024-05-14,株式会社Ｉ＆Ｋ,,株式会社,神奈川県,横浜市泉区,弥生台４２番地１,,14,116,2450008,,,,,,,2024-05-14,1,,,,,アイアンドケー,0
2654,9020001157151,新規,0,2024-05-14,2024-05-14,ムスミン株式会社,,株式会社,神奈川県,横浜市西区,みなとみらい５丁目３番１－Ｏ－１４０３号,,14,103,2200012,,,,,,,2024-05-14,1,,,,,ムスミン,0
2655,9020001157184,新規,0,2024-05-14,2024-05-14,株式会社Ｆｏｒ　Ａｌｌ,,株式会社,神奈川県,横浜市西区,浅間町１丁目１３番地５藤江ビル４Ｆ,,14,103,2200072,,,,,,,2024-05-14,1,,,,,フォーオール,0
2658,9020003026098,新規,0,2024-05-14,2024-05-14,合同会社ＲＳＴ,,合同会社,神奈川県,川崎市麻生区,百合丘２丁目６番地,,14,137,2150011,,,,,,,2024-05-14,1,,,,,アールエスティー,0
2661,9021001082182,新規,0,2024-05-14,2024-05-14,株式会社かわしり,,株式会社,神奈川県,相模原市緑区,下九沢１６８９番地１ライオンズマンション橋本南４０６,,14,151,2520134,,,,,,,2024-05-14,1,,,,,カワシリ,0
2665,9021003014480,新規,0,2024-05-14,2024-05-14,ＭＩＳＴＥＭ合同会社,,合同会社,神奈川県,藤沢市,亀井野３丁目８－１１,,14,205,2520813,,,,,,,2024-05-14,1,,,,,ミステム,0
2669,9030001160294,新規,0,2024-05-14,2024-05-14,ＡＵＲＡ株式会社,,株式会社,埼玉県,さいたま市緑区,大字大門２５０番地３,,11,109,3360963,,,,,,,2024-05-14,1,,,,,アウラ,0
2670,9030001160311,新規,0,2024-05-14,2024-05-14,株式会社うな重,,株式会社,埼玉県,越谷市,川柳町３丁目７３番地８,,11,222,3430827,,,,,,,2024-05-14,1,,,,,,0
2671,9030001160328,新規,0,2024-05-14,2024-05-14,株式会社ファシアプライム,,株式会社,埼玉県,さいたま市大宮区,土手町１丁目１４３番地２,,11,103,3300801,,,,,,,2024-05-14,1,,,,,ファシアプライム,0
2681,9040001133539,新規,0,2024-05-14,2024-05-14,金丹株式会社,,株式会社,千葉県,印旛郡酒々井町,東酒々井１丁目１番５０パピヨンハウス２０５室,,12,322,2850923,,,,,,,2024-05-14,1,,,,,キンタン,0
2682,9040001133547,新規,0,2024-05-14,2024-05-14,株式会社バディクル,,株式会社,千葉県,船橋市,大穴南１丁目３７番６号,,12,204,2740067,,,,,,,2024-05-14,1,,,,,バディクル,0
2683,9040001133563,新規,0,2024-05-14,2024-05-14,株式会社ＭＣＮ,,株式会社,千葉県,船橋市,宮本２丁目１番１９号コスモ船橋宮本３０６,,12,204,2730003,,,,,,,2024-05-14,1,,,,,エムシーエヌ,0
2684,9040001133571,新規,0,2024-05-14,2024-05-14,株式会社ＭＡＧＯＦＡＲＭ,,株式会社,千葉県,富津市,西川１４６６番地１,,12,226,2930013,,,,,,,2024-05-14,1,,,,,マゴファーム,0
2686,9040003024983,新規,0,2024-05-14,2024-05-14,合同会社マルカツ,,合同会社,千葉県,東金市,上谷３４６０番地１－Ａ,,12,213,2830046,,,,,,,2024-05-14,1,,,,,マルカツ,0
2690,9050001054759,新規,0,2024-05-14,2024-05-14,株式会社赤塚物流,,株式会社,茨城県,水戸市,赤塚１丁目２０９０番地の２ＦＵＪＩパレス３０３号,,08,201,3114141,,,,,,,2024-05-14,1,,,,,アカツカブツリュウ,0
2691,9050003008366,新規,0,2024-05-14,2024-05-14,ＹＴ合同会社,,合同会社,茨城県,常総市,新石下２５８番地２,,08,211,3002706,,,,,,,2024-05-14,1,,,,,ワイティー,0
2693,9060001037093,新規,0,2024-05-14,2024-05-14,ススムマーケティング株式会社,,株式会社,栃木県,芳賀郡市貝町,大字椎谷４７０番地８３,,09,344,3213414,,,,,,,2024-05-14,1,,,,,,0
2704,9100001037428,新規,0,2024-05-14,2024-05-14,株式会社五月女興産,,株式会社,長野県,北佐久郡軽井沢町,大字長倉４５２６番地１,,20,321,3890111,,,,,,,2024-05-14,1,,,,,サオトメコウサン,0
2705,9100001037436,新規,0,2024-05-14,2024-05-14,Ｃｏｒｅ　Ｐｌａｃｅ株式会社,,株式会社,長野県,長野市,南千歳１丁目８－１,,20,201,3800823,,,,,,,2024-05-14,1,,,,,コアプレイス,0
2721,9120001264846,新規,0,2024-05-14,2024-05-14,ジェミニ株式会社,,株式会社,大阪府,大阪市中央区,日本橋１丁目９番１１－８０２号,,27,128,5420073,,,,,,,2024-05-14,1,,,,,ジェミニ,0
2728,9120005024313,新規,0,2024-05-14,2024-05-14,一般社団法人日本・プロポーズ革命協会,,その他の設立登記法人,大阪府,大阪市中央区,南船場３丁目９番６号日宝心斎橋ビル４０４,,27,128,5420081,,,,,,,2024-05-14,1,,,,,ニホンプロポーズカクメイキョウカイ,0
2731,9120103005818,新規,0,2024-05-14,2024-05-14,合同会社コロレ・ボヌール,,合同会社,大阪府,泉大津市,板原町２丁目１２番２２号,,27,206,5950033,,,,,,,2024-05-14,1,,,,,コロレボヌール,0
2734,9120901049165,新規,0,2024-05-14,2024-05-14,真唐興業株式会社,,株式会社,大阪府,吹田市,東御旅町９番２７号,,27,205,5640033,,,,,,,2024-05-14,1,,,,,シントウコウギョウ,0
2736,9120903005174,新規,0,2024-05-14,2024-05-14,ＩＯＡ合同会社,,合同会社,大阪府,豊中市,緑丘３丁目２９番１５－３１５号,,27,203,5600002,,,,,,,2024-05-14,1,,,,,アイオーエー,0
2741,9130001077033,新規,0,2024-05-14,2024-05-14,株式会社ミカタ,,株式会社,京都府,京都市左京区,下鴨宮崎町１１９番地１,,26,103,6060802,,,,,,,2024-05-14,1,,,,,ミカタ,0
2742,9130001077041,新規,0,2024-05-14,2024-05-14,株式会社ジャパンインスペクト,,株式会社,京都府,京都市西京区,大枝東新林町２丁目１０番地６,,26,111,6101142,,,,,,,2024-05-14,1,,,,,ジャパンインスペクト,0
2750,9140001134378,新規,0,2024-05-14,2024-05-14,株式会社Ｅａｓｔ　Ｖｉｌｌａｇｅ,,株式会社,兵庫県,神戸市中央区,浜辺通６丁目１番１－２０８号,,28,110,6510083,,,,,,,2024-05-14,1,,,,,イーストヴィレッジ,0
2771,9180001161402,新規,0,2024-05-14,2024-05-14,株式会社ほほほ,,株式会社,愛知県,名古屋市南区,豊２丁目３６番地２８号,,23,112,4570863,,,,,,,2024-05-14,1,,,,,ホホホ,0
2772,9180001161427,新規,0,2024-05-14,2024-05-14,株式会社ｉｐｐｏｎ　ｐｒｏｊｅｃｔ,,株式会社,愛知県,長久手市,作田３－３０００,,23,238,4801100,,,,,,,2024-05-14,1,,,,,イッポンプロジェクト,0
2779,9180303006123,新規,0,2024-05-14,2024-05-14,合同会社ｐｏｌａｒｉｓ,,合同会社,愛知県,刈谷市,泉田町半崎２００番地１,,23,210,4480004,,,,,,,2024-05-14,1,,,,,ポラリス,0
2783,9190001031348,新規,0,2024-05-14,2024-05-14,株式会社創知コンサルタント,,株式会社,三重県,松阪市,川井町９８４番地３,,24,204,5150818,,,,,,,2024-05-14,1,,,,,ソウチコンサルタント,0
2786,9200001042459,新規,0,2024-05-14,2024-05-14,株式会社ＳＡＶＡＧＥ,,株式会社,岐阜県,羽島郡岐南町,伏屋７丁目１３５番地の２ミモザＡ棟,,21,302,5016006,,,,,,,2024-05-14,1,,,,,サベージ,0
2796,9240001063204,新規,0,2024-05-14,2024-05-14,村上鑑定株式会社,,株式会社,広島県,尾道市,浦崎町３０３４番地１,,34,205,7200551,,,,,,,2024-05-14,1,,,,,ムラカミカンテイ,0
2805,9290001105629,新規,0,2024-05-14,2024-05-14,株式会社イービーテック,,株式会社,福岡県,福岡市西区,今津３６４１番地２,,40,135,8190165,,,,,,,2024-05-14,1,,,,,イービーテック,0
2806,9290001105711,新規,0,2024-05-14,2024-05-14,株式会社ＴＤＫ,,株式会社,福岡県,福岡市南区,大橋１丁目３番１８号,,40,134,8150033,,,,,,,2024-05-14,1,,,,,ティーディーケー,0
2818,9310003004792,新規,0,2024-05-14,2024-05-14,かなめ労務・給与計算サポートセンター合同会社,,合同会社,長崎県,長崎市,竹の久保町１６番８号,,42,201,8528014,,,,,,,2024-05-14,1,,,,,,0
2821,9330001032067,新規,0,2024-05-14,2024-05-14,Ｇ’ｓ総合設備株式会社,,株式会社,熊本県,熊本市東区,戸島本町１番４０号,,43,102,8618042,,,,,,,2024-05-14,1,,,,,ジーズソウゴウセツビ,0
2826,9380001034496,新規,0,2024-05-14,2024-05-14,ＲｉｋｉＳｈｏ　Ｆｏｒｅｓｔ株式会社,,株式会社,福島県,双葉郡川内村,大字上川内字炭焼場５０７番地,,07,544,9791201,,,,,,,2024-05-14,1,,,,,リキショウフォレスト,0
2828,9390001017608,新規,0,2024-05-14,2024-05-14,株式会社Ｄｅｖｅｌ’ｓ,,株式会社,山形県,山形市,高木１０番地,,06,201,9902346,,,,,,,2024-05-14,1,,,,,ディーベルズ,0
2832,9410001013835,新規,0,2024-05-14,2024-05-14,株式会社Ｓｕｎｎｙ　Ｐａｒｋｓ,,株式会社,秋田県,横手市,駅前町１番１３号,,05,203,0130036,,,,,,,2024-05-14,1,,,,,サニーパークス,0
2834,9410003003925,新規,0,2024-05-14,2024-05-14,高橋４６３合同会社,,合同会社,秋田県,横手市,十文字町梨木字羽場下１０番地９５,,05,203,0190509,,,,,,,2024-05-14,1,,,,,タカハシヨンロクサン,0
2838,9430001091796,新規,0,2024-05-14,2024-05-14,株式会社パイオニア・サービス東北＆北海道,,株式会社,北海道,札幌市中央区,北四条西４丁目１－７ＭＭＳ札幌駅前ビル１Ｆ,,01,101,0600004,,,,,,,2024-05-14,1,,,,,パイオニアサービストウホクアンドホッカイドウ,0
2842,9430003016314,新規,0,2024-05-14,2024-05-14,合同会社北海道文教大学エネルギー,,合同会社,北海道,恵庭市,黄金中央５丁目１９６番地の１,,01,231,0611449,,,,,,,2024-05-14,1,,,,,ホッカイドウブンキョウダイガクエネルギー,0
2849,9490001010767,新規,0,2024-05-14,2024-05-14,穂岐山ホールディングス株式会社,,株式会社,高知県,香美市,土佐山田町栄町３番１５号,,39,212,7820039,,,,,,,2024-05-14,1,,,,,ホキヤマホールディングス,0
2851,9500001025623,新規,0,2024-05-14,2024-05-14,ＤＥＣＯＲＡＴＯＲ　Ｔ２株式会社,,株式会社,愛媛県,松山市,太山寺町４８８番地２,,38,201,7992662,,,,,,,2024-05-14,1,,,,,デコレーターティーツー,0
2852,9700150005546,新規,0,2024-05-14,2015-10-09,エンプラ技術連合会,,その他,東京都,港区,西新橋１丁目６－１３柏屋ビル３Ｆ,,13,103,1050003,,,,,,,2015-10-09,1,,,,,エンプラギジユツレンゴウカイ,0
2854,9700150125369,新規,0,2024-05-14,2024-05-14,Ｓｈｅｎｚｈｅｎｓｈｉｑｉａｎｑｉａｎｍｅｎｇｍａｏｙｉｙｏｕｘｉａｎｇｏｎｇｓｉ,,外国会社等,,,,,,,,ｓｈｅｎｚｈｅｎｓｈｉ　ｌｏｎｇｇａｎｇｑｕ　ｈｅｎｇｇａｎｇｊｉｅｄａｏ　ｌｉｕｙｕｅｓｈｅｑｕ　ｌｏｎｇｔａｎｇｇｏｎｇｙｅｑｕ　５ｈａｏｃｈａｎｇｆａｎｇ１０１,,,,,,2024-05-14,1,,,,,シンセンシチェンチェンメンマオイユウゲンコウシ,0
