sequenceNumber,corporateNumber,process,correct,updateDate,changeDate,name,nameImageId,kind,prefectureName,cityName,streetNumber,addressImageId,prefectureCode,cityCode,postCode,addressOutside,addressOutsideImageId,closeDate,closeCause,successorCorporateNumber,changeCause,assignmentDate,latest,enName,enPrefectureName,enCityName,enAddressOutside,furigana,hihyoji
7,1010001255376,新規,0,2025-05-29,2025-05-29,株式会社ＳＯＤＡ　ＷＯＲＫＳ,,株式会社,東京都,千代田区,神田須田町１丁目７番８号ＶＯＲＴ秋葉原ＩＶ２Ｆ,00139352,13,101,1010041,,,,,,,2025-05-29,1,,,,,ソーダワークス,0
8,1010001255392,新規,0,2025-05-29,2025-05-29,株式会社Ｂａｍｓｅａ,,株式会社,東京都,千代田区,神田和泉町１番地１２の６一光ビル２Ｆ,,13,101,1010024,,,,,,,2025-05-29,1,,,,,バンシー,0
9,1010001255426,新規,0,2025-05-29,2025-05-29,株式会社Ｍａｌ,,株式会社,東京都,文京区,千駄木５丁目２番７号,,13,105,1130022,,,,,,,2025-05-29,1,,,,,マル,0
10,1010001255459,新規,0,2025-05-29,2025-05-29,ＣＳＲＩ３号株式会社,,株式会社,東京都,中央区,京橋１丁目６番１２号,,13,102,1040031,,,,,,,2025-05-29,1,,,,,シーエスアールアイサンゴウ,0
11,1010001255467,新規,0,2025-05-29,2025-05-29,ぼくのポケット株式会社,,株式会社,東京都,中央区,新川１丁目３番２１号ＢＩＺＳＭＡＲＴ茅場町,,13,102,1040033,,,,,,,2025-05-29,1,,,,,ボクノポケット,0
13,1010005040106,新規,0,2025-05-29,2025-05-29,一般社団法人ＬＶＣ３０号,,その他の設立登記法人,東京都,千代田区,紀尾井町３－８第２紀尾井町ビル９０１アクシス綜合会計事務所内,,13,101,1020094,,,,,,,2025-05-29,1,,,,,エルブイシーサンジュウゴウ,0
23,1010401190561,新規,0,2025-05-29,2025-05-29,株式会社コニース,,株式会社,東京都,港区,六本木５丁目３番２号,,13,103,1060032,,,,,,,2025-05-29,1,,,,,コニース,0
24,1010401190594,新規,0,2025-05-29,2025-05-29,株式会社フィールオブプレイスジャパン,,株式会社,東京都,港区,新橋４丁目１４番１号新橋ＡＵＮＢＬＤＧ４階,,13,103,1050004,,,,,,,2025-05-29,1,,,,,フィールオブプレイスジャパン,0
25,1010401190611,新規,0,2025-05-29,2025-05-29,株式会社Ｔｏｐｓｑｕａｒｅ,,株式会社,東京都,港区,西麻布４丁目１４番２３－１０８号,,13,103,1060031,,,,,,,2025-05-29,1,,,,,トップスクエア,0
30,1010405024377,新規,0,2025-05-29,2025-05-29,一般社団法人Ｔａｇ,,その他の設立登記法人,東京都,港区,南青山５丁目５番４号ＬＵＣＥＭＩＮＡＭＩＡＯＹＡＭＡ・Ａ棟Ｂ１Ｆ,,13,103,1070062,,,,,,,2025-05-29,1,,,,,タッグ,0
33,1010503007861,新規,0,2025-05-29,2025-05-29,合同会社Ａｉｌｅｓ　Ｄｅｕｘ,,合同会社,東京都,台東区,千束３丁目１２番７－３０３号グロース千束,,13,106,1110031,,,,,,,2025-05-29,1,,,,,エールドゥ,0
35,1010703007736,新規,0,2025-05-29,2025-05-29,Ｔ１神楽坂合同会社,,合同会社,東京都,品川区,上大崎３丁目１番１号目黒セントラルスクエア１５階,,13,109,1410021,,,,,,,2025-05-29,1,,,,,ティーワンカグラザカ,0
40,1010903009945,新規,0,2025-05-29,2025-05-29,合同会社Ｓ‐ＧＲＩＴ,,合同会社,東京都,世田谷区,三軒茶屋２丁目１３－２０－４０４,,13,112,1540024,,,,,,,2025-05-29,1,,,,,エスグリット,0
49,1011001169847,新規,0,2025-05-29,2025-05-29,ディエンテ株式会社,,株式会社,東京都,渋谷区,円山町５番３号ＭＩＥＵＸ渋谷ビル８階,,13,113,1500044,,,,,,,2025-05-29,1,,,,,ディエンテ,0
54,1011101111782,新規,0,2025-05-29,2025-05-29,株式会社ＫＨ不動産,,株式会社,東京都,新宿区,高田馬場１丁目３１番１６号ワイムビジネスプラザ高田馬場６０４号室,,13,104,1690075,,,,,,,2025-05-29,1,,,,,ケーエイチフドウサン,0
55,1011101111849,新規,0,2025-05-29,2025-05-29,株式会社ＲＥＰＯＴ,,株式会社,東京都,新宿区,新宿５丁目２－１７ルジェンテ新宿御苑前１１０３,,13,104,1600022,,,,,,,2025-05-29,1,,,,,リポット,0
57,1011201026385,新規,0,2025-05-29,2025-05-29,株式会社はすかたり,,株式会社,東京都,中野区,中野３丁目３４－１９,,13,114,1640001,,,,,,,2025-05-29,1,,,,,ハスカタリ,0
61,1011601028667,新規,0,2025-05-29,2025-05-29,リオ株式会社,,株式会社,東京都,練馬区,豊玉北３丁目１１番６号,,13,120,1760012,,,,,,,2025-05-29,1,,,,,リオ,0
62,1011601028691,新規,0,2025-05-29,2025-05-29,株式会社Ｒｅｆｆ,,株式会社,東京都,練馬区,大泉学園町７丁目１７番３号,,13,120,1780061,,,,,,,2025-05-29,1,,,,,レフ,0
66,1011703004260,新規,0,2025-05-29,2025-05-29,合同会社ローフティ・バウンドレス,,合同会社,東京都,江戸川区,西小岩５丁目１３番１３号小出マンション１１３号室,,13,123,1330057,,,,,,,2025-05-29,1,,,,,ローフティバウンドレス,0
68,1011803006883,新規,0,2025-05-29,2025-05-29,ＮＲＴｓｔａｔｉｏｎ合同会社,,合同会社,東京都,足立区,千住東２丁目２１番１－８０８号,,13,121,1200025,,,,,,,2025-05-29,1,,,,,エヌアールティーステーション,0
69,1012301014412,新規,0,2025-05-29,2025-05-29,株式会社ＲｉｖｅＨｏｕｓｅ,,株式会社,東京都,町田市,大蔵町４９６番地９,,13,209,1950062,,,,,,,2025-05-29,1,,,,,リブハウス,0
70,1012401043162,新規,0,2025-05-29,2025-05-29,株式会社ＥＧＯＩＳＴ　ＣＬＯＵＤ,,株式会社,東京都,狛江市,猪方３丁目３６番１０号,,13,219,2010015,,,,,,,2025-05-29,1,,,,,,0
73,1012801023994,新規,0,2025-05-29,2025-05-29,株式会社まるこう,,株式会社,東京都,昭島市,東町４丁目１２番８号,,13,207,1960033,,,,,,,2025-05-29,1,,,,,マルコウ,0
82,1020001163066,新規,0,2025-05-29,2025-05-29,株式会社Ｒｏｏｔ＆Ｂｌｏｏｍ,,株式会社,神奈川県,川崎市多摩区,登戸２５６８番地登戸ゴールデン街ビル６Ｆ,,14,135,2140014,,,,,,,2025-05-29,1,,,,,,0
86,1020003028556,新規,0,2025-05-29,2025-05-29,Ｒｅ‐Ｌｉｇｈｔ合同会社,,合同会社,神奈川県,川崎市中原区,井田３丁目１９番１１号,,14,133,2110035,,,,,,,2025-05-29,1,,,,,リライト,0
87,1020003028572,新規,0,2025-05-29,2025-05-29,合同会社サイ不動産,,合同会社,神奈川県,横浜市保土ケ谷区,峰岡町１丁目７３番地５,,14,106,2400064,,,,,,,2025-05-29,1,,,,,サイフドウサン,0
91,1021003016063,新規,0,2025-05-29,2025-05-29,合同会社技研,,合同会社,神奈川県,秦野市,羽根２８５番地の６,,14,211,2591301,,,,,,,2025-05-29,1,,,,,ギケン,0
95,1030001166729,新規,0,2025-05-29,2025-05-29,代孝千株式会社,,株式会社,埼玉県,三郷市,番匠免１丁目８０番地,,11,237,3410056,,,,,,,2025-05-29,1,,,,,ダイコウセン,0
96,1030001166745,新規,0,2025-05-29,2025-05-29,株式会社３Ｄ　ＨＯＭＥ,,株式会社,埼玉県,さいたま市浦和区,高砂３丁目６番９号,,11,107,3300063,,,,,,,2025-05-29,1,,,,,スリーディーホーム,0
97,1030001166761,新規,0,2025-05-29,2025-05-29,大唐株式会社,,株式会社,埼玉県,蕨市,錦町２丁目２１番９号－４０５,,11,223,3350005,,,,,,,2025-05-29,1,,,,,ダイトウ,0
98,1030001166794,新規,0,2025-05-29,2025-05-29,株式会社ｕｒｕ,,株式会社,埼玉県,川越市,新富町１丁目１０－１,,11,201,3500043,,,,,,,2025-05-29,1,,,,,ウル,0
102,1030003026872,新規,0,2025-05-29,2025-05-29,合同会社エスアールジー,,合同会社,埼玉県,上尾市,井戸木４丁目１２番地４ユニオンハイツＩ２０２,00139355,11,219,3620071,,,,,,,2025-05-29,1,,,,,エスアールジー,0
103,1030003026880,新規,0,2025-05-29,2025-05-29,合同会社なんでもやります,,合同会社,埼玉県,新座市,畑中１丁目１１－４７,,11,230,3520012,,,,,,,2025-05-29,1,,,,,ナンデモヤリマス,0
108,1040001138941,新規,0,2025-05-29,2025-05-29,皓＿株式会社,00139345,株式会社,千葉県,千葉市若葉区,中田町２４７９番地３４,,12,104,2650043,,,,,,,2025-05-29,1,,,,,コウキ,0
109,1040001138966,新規,0,2025-05-29,2025-05-29,株式会社ＫＳＣ,,株式会社,千葉県,鎌ケ谷市,軽井沢１９８１－３ＫＵＶＥＲＡｆｏｏｔｂａｌｌｐａｒｋ．,,12,224,2730131,,,,,,,2025-05-29,1,,,,,ケーエスシー,0
110,1040001138990,新規,0,2025-05-29,2025-05-29,株式会社みんなの警備保障,,株式会社,千葉県,千葉市稲毛区,黒砂台１丁目２３番４－１０３号,,12,103,2630041,,,,,,,2025-05-29,1,,,,,ミンナノケイビホショウ,0
121,1070001042967,新規,0,2025-05-29,2025-05-29,株式会社錦,,株式会社,群馬県,前橋市,上新田町９８１番地,,10,201,3710821,,,,,,,2025-05-29,1,,,,,ニシキ,0
123,1070003005939,新規,0,2025-05-29,2025-05-29,合同会社ＳＰトレーディング,,合同会社,群馬県,太田市,由良町９８１番地２、２号,,10,205,3730036,,,,,,,2025-05-29,1,,,,,エスピートレーディング,0
140,1120001276064,新規,0,2025-05-29,2025-05-29,株式会社ＴＲＴ,,株式会社,大阪府,大阪市西区,九条南２丁目２７番２１－１００６号,,27,106,5500025,,,,,,,2025-05-29,1,,,,,ティーアールティー,0
141,1120001276221,新規,0,2025-05-29,2025-05-29,株式会社ａｂｘｉａ,,株式会社,大阪府,大阪市天王寺区,四天王寺１丁目３－２５,,27,109,5430051,,,,,,,2025-05-29,1,,,,,アビシア,0
142,1120001276254,新規,0,2025-05-29,2025-05-29,喜楽来株式会社,,株式会社,大阪府,大阪市浪速区,大国１丁目９番１４号５０２－Ａ号室,,27,111,5560014,,,,,,,2025-05-29,1,,,,,キラクライ,0
143,1120001276279,新規,0,2025-05-29,2025-05-29,株式会社ＣＵＢＥ　Ｘ,,株式会社,大阪府,大阪市中央区,博労町１丁目９－８堺筋ＭＳビル１Ｆ,,27,128,5410059,,,,,,,2025-05-29,1,,,,,キューブエックス,0
144,1120001276304,新規,0,2025-05-29,2025-05-29,アースエイト株式会社,,株式会社,大阪府,大阪市西成区,千本南２丁目１３番１２号,,27,122,5570055,,,,,,,2025-05-29,1,,,,,アースエイト,0
145,1120001276320,新規,0,2025-05-29,2025-05-29,上元株式会社,,株式会社,大阪府,大阪市東成区,深江北３丁目４番２１号エクラ深江橋５１５Ｂ,,27,115,5370001,,,,,,,2025-05-29,1,,,,,ジョウゲン,0
146,1120001276337,新規,0,2025-05-29,2025-05-29,株式会社時尾コトブキ,,株式会社,大阪府,大阪市淀川区,加島４丁目２番５１号,,27,123,5320031,,,,,,,2025-05-29,1,,,,,トキオコトブキ,0
155,1120901050964,新規,0,2025-05-29,2025-05-29,イーケーロジ株式会社,,株式会社,大阪府,吹田市,南金田２丁目６番５号,,27,205,5640044,,,,,,,2025-05-29,1,,,,,イーケーロジ,0
158,1122001039277,新規,0,2025-05-29,2025-05-29,株式会社Ｃ＆Ｓ,,株式会社,大阪府,東大阪市,下六万寺町３丁目８番６３号シャトークオレ２０５,,27,227,5798066,,,,,,,2025-05-29,1,,,,,シーアンドエス,0
159,1122001039285,新規,0,2025-05-29,2025-05-29,株式会社伊藤ＥＮＧ,,株式会社,大阪府,東大阪市,松原２丁目６番４号,,27,227,5780922,,,,,,,2025-05-29,1,,,,,イトウエンジ,0
161,1130001079771,新規,0,2025-05-29,2025-05-29,株式会社和十和,,株式会社,京都府,京都市北区,西賀茂丸川町２２番地２,,26,101,6038825,,,,,,,2025-05-29,1,,,,,オトワ,0
162,1140003022126,新規,0,2025-05-29,2025-05-29,合同会社スフィア神戸,,合同会社,兵庫県,神戸市中央区,山本通５丁目１０番２８号２０３,,28,110,6500003,,,,,,,2025-05-29,1,,,,,スフィアコウベ,0
167,1170001018643,新規,0,2025-05-29,2025-05-29,株式会社オールアウト,,株式会社,和歌山県,和歌山市,府中１０１１番地１１２,,30,201,6496338,,,,,,,2025-05-29,1,,,,,オールアウト,0
168,1170005007155,新規,0,2025-05-29,2025-05-29,みやもと土地家屋調査士法人,,その他の設立登記法人,和歌山県,田辺市,城山台１７番２号,,30,206,6460217,,,,,,,2025-05-29,1,,,,,ミヤモト,0
173,1180001167019,新規,0,2025-05-29,2025-05-29,株式会社フジフク,,株式会社,愛知県,名古屋市東区,大幸４丁目１２番８号,,23,102,4610043,,,,,,,2025-05-29,1,,,,,フジフク,0
174,1180001167035,新規,0,2025-05-29,2025-05-29,心美体株式会社,,株式会社,愛知県,名古屋市北区,金城町４丁目５０番地の３,,23,103,4620047,,,,,,,2025-05-29,1,,,,,シンビタイ,0
175,1180003028540,新規,0,2025-05-29,2025-05-29,合同会社オフィス雅,,合同会社,愛知県,名古屋市中村区,城屋敷町４丁目５１番地の１,,23,105,4530058,,,,,,,2025-05-29,1,,,,,オフィスミヤビ,0
179,1180301039850,新規,0,2025-05-29,2025-05-29,株式会社ＴｒｙＡｒｔｓ,,株式会社,愛知県,豊田市,寿町７丁目３番地レジデンスカトウ２０７号,,23,211,4710834,,,,,,,2025-05-29,1,,,,,トライアーツ,0
183,1220001026707,新規,0,2025-05-29,2025-05-29,株式会社ミキナリ構造パートナーズ本舗,,株式会社,石川県,金沢市,入江１丁目２５番地土七ビル３０１,,17,201,9218011,,,,,,,2025-05-29,1,,,,,ミキナリコウゾウパートナーズホンポ,0
185,1230001020923,新規,0,2025-05-29,2025-05-29,株式会社土と風,,株式会社,富山県,富山市,蓮町１丁目７番３号,,16,201,9318333,,,,,,,2025-05-29,1,,,,,ツチトカゼ,0
193,1260003005192,新規,0,2025-05-29,2025-05-29,ラックシステム合同会社,,合同会社,岡山県,岡山市北区,清心町１６番３１号１Ｆ,,33,101,7000027,,,,,,,2025-05-29,1,,,,,ラックシステム,0
196,1290001110124,新規,0,2025-05-29,2025-05-29,株式会社サカイ商事,,株式会社,福岡県,福岡市早良区,西新２丁目７番１９－１０３号,,40,137,8140002,,,,,,,2025-05-29,1,,,,,サカイショウジ,0
197,1290001110157,新規,0,2025-05-29,2025-05-29,株式会社ＴＲＹＡＮＧＬＥ　ＲＩＳＥ　ＴＲＡＮＳＰＯＲＴ,,株式会社,福岡県,福岡市中央区,天神４丁目１番１７号３Ｆ,,40,133,8100001,,,,,,,2025-05-29,1,,,,,トライアングルライズトランスポート,0
198,1290001110173,新規,0,2025-05-29,2025-05-29,株式会社Ｂｙｎｕｓ,,株式会社,福岡県,福岡市中央区,天神１丁目１４番４号,,40,133,8100001,,,,,,,2025-05-29,1,,,,,バイナス,0
199,1290001110198,新規,0,2025-05-29,2025-05-29,日本盛康堂株式会社,,株式会社,福岡県,大川市,大字上白垣３０７番地１,,40,212,8310012,,,,,,,2025-05-29,1,,,,,ニホンセイコウドウ,0
202,1290003016906,新規,0,2025-05-29,2025-05-29,ＲＨＩＮＯ　ＩＮＶＥＳＴ合同会社,,合同会社,福岡県,福岡市東区,香椎５丁目４番３０－３４０６号ＭＪＲ香椎参道,,40,131,8130011,,,,,,,2025-05-29,1,,,,,ライノインベスト,0
209,1330001033238,新規,0,2025-05-29,2025-05-29,株式会社わいさーし,,株式会社,熊本県,熊本市西区,松尾２丁目１２番１号,,43,103,8615280,,,,,,,2025-05-29,1,,,,,ワイサーシ,0
210,1330003011027,新規,0,2025-05-29,2025-05-29,合同会社パーパスライフＨ＆Ｓ,,合同会社,熊本県,玉名市,玉名１７８５番地１,,43,206,8650005,,,,,,,2025-05-29,1,,,,,パーパスライフエイチアンドエス,0
214,1360001035264,新規,0,2025-05-29,2025-05-29,株式会社Ｆａｒ　Ｗｅｓｔ　Ａｑｕａ　Ｉｎｎｏｖａｔｉｏｎ,,株式会社,沖縄県,那覇市,小禄１丁目６番１７号,,47,201,9010152,,,,,,,2025-05-29,1,,,,,ファーウエストアクアイノベーション,0
215,1360001035272,新規,0,2025-05-29,2025-05-29,株式会社ネクスト,,株式会社,沖縄県,国頭郡国頭村,字鏡地２４７番地,,47,301,9051416,,,,,,,2025-05-29,1,,,,,ネクスト,0
217,1360003014968,新規,0,2025-05-29,2025-05-29,ヱビス不動産合同会社,,合同会社,沖縄県,名護市,字宮里１４９９番地,,47,209,9050011,,,,,,,2025-05-29,1,,,,,エビスフドウサン,0
218,1370001052639,新規,0,2025-05-29,2025-05-29,株式会社ＭＡＳＡ,,株式会社,宮城県,仙台市宮城野区,新田４丁目１５番１０号ツインズＡ－１０２,,04,102,9830038,,,,,,,2025-05-29,1,,,,,マサ,0
222,1390005009121,新規,0,2025-05-29,2025-05-29,一般社団法人ＶＩＳＩＴおばなざわ,,その他の設立登記法人,山形県,尾花沢市,新町４丁目３番７号,,06,212,9994224,,,,,,,2025-05-29,1,,,,,ビジットオバナザワ,0
229,1430003017690,新規,0,2025-05-29,2025-05-29,合同会社天,,合同会社,北海道,札幌市厚別区,大谷地西５丁目１－１０－２０４,,01,108,0040042,,,,,,,2025-05-29,1,,,,,ソラ,0
232,1500001026315,新規,0,2025-05-29,2025-05-29,株式会社池田屋,,株式会社,愛媛県,今治市,朝倉上甲２４４２番地６１,,38,202,7991607,,,,,,,2025-05-29,1,,,,,イケダヤ,0
240,1700150130764,新規,0,2025-05-29,2025-05-29,Ｉｎｔｅｒｎａｔｉｏｎａｌ　Ｂａｒ　Ａｓｓｏｃｉａｔｉｏｎ,,外国会社等,,,,,,,,５３－６４　Ｃｈａｎｃｅｒｙ　Ｌａｎｅ，Ｌｏｎｄｏｎ，ＷＣ２Ａ　１ＱＳ,,,,,,2025-05-29,1,,,,,インターナシヨナルバーアソシエーシヨン,0
241,1700150130772,新規,0,2025-05-29,2025-05-29,ＢｅｔｔｅｒＭｅ　Ｉｎｔｅｒｎａｔｉｏｎａｌ　Ｌｉｍｉｔｅｄ,,外国会社等,,,,,,,,Ｆｌｏｏｒ　１，Ｆｌａｔ　１０４，３９　Ｔｈｅｍｉｓｔｏｋｌｉ　Ｄｅｒｖｉ，Ｎｉｃｏｓｉａ，Ｃｙｐｒｕｓ,,,,,,2025-05-29,1,,,,,ベターミーインターナシヨナルリミテツド,0
242,1700150130780,新規,0,2025-05-29,2025-05-29,ＲａｙＶｉｓｉｏｎ　ＡＲ　Ｌｉｍｉｔｅｄ,,外国会社等,,,,,,,,Ｂ１０　ＲＭ　２７０３　ＮＥＷ　ＴＲＥＮＤ　ＣＥＮＴＲＥ，７０４　ＰＲＩＮＣＥ　ＥＤＷＡＲＤ　ＲＤ　ＥＡＳＴ，ＳＡＮ　ＰＯ　ＫＯＮＧ，ＨＯＮＧ　ＫＯＮＧ,,,,,,2025-05-29,1,,,,,レイビジヨンエーアールカンパニーリミテツト,0
243,1700150130789,新規,0,2025-05-29,2025-05-29,Ｓｈｅｎ　ｚｈｅｎ　ｓｈｉ　ｍｏ　ｌｉｎ　ａｎ　ｋｅ　ｊｉ　ｙｏｕ　ｘｉａｎ　ｇｏｎｇ　ｓｉ,,外国会社等,,,,,,,,Ｒｏｏｍ　Ｃ１０１２，Ｂｌｏｃｋ　Ｃ，Ｚｈａｎｔａｏ　Ｔｅｃｈｎｏｌｏｇｙ　Ｂｕｉｌｄｉｎｇ，Ｉｎｔｅｒｓｅｃｔｉｏｎ　ｏｆ　Ｍｉｎｚｈｉ　Ａｖｅｎｕｅ　ａｎｄ　Ｇｏｎｇｙｅ　Ｅａｓｔ　Ｒｏａｄ，Ｘｉｎｎｉｕ　Ｃｏｍｍｕｎｉｔｙ，Ｍｉｎｚｈｉ　Ｓｔｒｅｅｔ，Ｌｏｎｇｈｕａ　Ｄｉｓｔｒｉｃｔ，Ｓｈｅｎｚｈｅｎ,,,,,,2025-05-29,1,,,,,シンセンシモレンアンケイジーカンパニーリミテツト,0
246,2010001255367,新規,0,2025-05-29,2025-05-29,プログレッシブワークス株式会社,,株式会社,東京都,中央区,銀座１丁目１２番４号Ｎ＆ＥＢＬＤ．６Ｆ,,13,102,1040061,,,,,,,2025-05-29,1,,,,,プログレッシブワークス,0
247,2010001255458,新規,0,2025-05-29,2025-05-29,ＣＳＲＩ２号株式会社,,株式会社,東京都,中央区,京橋１丁目６番１２号,,13,102,1040031,,,,,,,2025-05-29,1,,,,,シーエスアールアイニゴウ,0
252,2010005040105,新規,0,2025-05-29,2025-05-29,一般社団法人ＬＶＣ２９号,,その他の設立登記法人,東京都,千代田区,紀尾井町３－８第２紀尾井町ビル９０１アクシス綜合会計事務所内,,13,101,1020094,,,,,,,2025-05-29,1,,,,,エルブイシーニジュウキュウゴウ,0
263,2010401190552,新規,0,2025-05-29,2025-05-29,株式会社ＭＫコーポレーション,,株式会社,東京都,港区,麻布永坂町１番地,,13,103,1060043,,,,,,,2025-05-29,1,,,,,エムケーコーポレーション,0
264,2010401190593,新規,0,2025-05-29,2025-05-29,ヤマト通信株式会社,,株式会社,東京都,港区,南青山３丁目１番３６号青山丸竹ビル６Ｆ,,13,103,1070062,,,,,,,2025-05-29,1,,,,,ヤマトツウシン,0
265,2010401190602,新規,0,2025-05-29,2025-05-29,富士忍野リゾート＆リンク株式会社,,株式会社,東京都,港区,西新橋１丁目２番９号日比谷セントラルビル１４階,,13,103,1050003,,,,,,,2025-05-29,1,,,,,フジオシノリゾートアンドリンク,0
267,2010403035251,新規,0,2025-05-29,2025-05-29,アシスト合同会社,,合同会社,東京都,港区,北青山１丁目３番１号アールキューブ青山三階,,13,103,1070061,,,,,,,2025-05-29,1,,,,,アシスト,0
271,2010503007860,新規,0,2025-05-29,2025-05-29,合同会社銀伝堂,,合同会社,東京都,台東区,三筋１丁目３－１３伊藤ビル１階,,13,106,1110055,,,,,,,2025-05-29,1,,,,,ギンデンドウ,0
279,2010903009944,新規,0,2025-05-29,2025-05-29,ＧＵ合同会社,,合同会社,東京都,世田谷区,松原２丁目４番１号,,13,112,1560043,,,,,,,2025-05-29,1,,,,,ジーユー,0
285,2011001170201,新規,0,2025-05-29,2025-05-29,株式会社Ｐｉｔａ　Ｐｒｏ．,,株式会社,東京都,渋谷区,渋谷２丁目２４番１２号,,13,113,1500002,,,,,,,2025-05-29,1,,,,,ピタプロ,0
290,2011301030609,新規,0,2025-05-29,2025-05-29,株式会社ｋｏａ,,株式会社,東京都,杉並区,堀ノ内２丁目１２番１８号,,13,115,1660013,,,,,,,2025-05-29,1,,,,,コア,0
291,2011303005575,新規,0,2025-05-29,2025-05-29,合同会社個別指導塾まなびの森,,合同会社,東京都,杉並区,高井戸西２丁目１０－７ＳＫビルＩ２－Ａ,,13,115,1680071,,,,,,,2025-05-29,1,,,,,,0
295,2011601028690,新規,0,2025-05-29,2025-05-29,株式会社Ｅ‐ｔｅｒｎａ　ＢＩ　Ｍｅｄｉｃａｌ,,株式会社,東京都,練馬区,田柄２丁目２９番８号,,13,120,1790073,,,,,,,2025-05-29,1,,,,,イーテルナビーアイメディカル,0
299,2011701028376,新規,0,2025-05-29,2025-05-29,株式会社晃商,,株式会社,東京都,江戸川区,東葛西４丁目２０番１０号,,13,123,1340084,,,,,,,2025-05-29,1,,,,,コウショウ,0
304,2011801046195,新規,0,2025-05-29,2025-05-29,株式会社Ｌｉｇａｒｅ,,株式会社,東京都,葛飾区,東金町５丁目４７番２号,,13,122,1250041,,,,,,,2025-05-29,1,,,,,リガーレ,0
309,2012301014403,新規,0,2025-05-29,2025-05-29,Ｒ＆Ｓ　Ｌｉｎｋｓ株式会社,,株式会社,東京都,町田市,大蔵町１４８９番地１１,,13,209,1950062,,,,,,,2025-05-29,1,,,,,アールアンドエスリンクス,0
310,2012403007156,新規,0,2025-05-29,2025-05-29,ＦＩＬＩＧＲＡ合同会社,,合同会社,東京都,府中市,紅葉丘２丁目２７番地の４,,13,206,1830004,,,,,,,2025-05-29,1,,,,,,0
311,2012801023993,新規,0,2025-05-29,2025-05-29,株式会社緑彩,,株式会社,東京都,東大和市,芋窪５丁目１１３５番地の３,,13,220,2070033,,,,,,,2025-05-29,1,,,,,ツカサ,0
316,2013301054348,新規,0,2025-05-29,2025-05-29,とんぼや不動産株式会社,,株式会社,東京都,豊島区,東池袋３丁目１番１号サンシャイン６０・４５階,,13,116,1700013,,,,,,,2025-05-29,1,,,,,トンボヤフドウサン,0
322,2020001163057,新規,0,2025-05-29,2025-05-29,株式会社恩豊園,,株式会社,神奈川県,横浜市港北区,鳥山町７３１番地４,,14,109,2220035,,,,,,,2025-05-29,1,,,,,オンホウエン,0
323,2020001163107,新規,0,2025-05-29,2025-05-29,株式会社新人力,,株式会社,神奈川県,川崎市高津区,久地１丁目１９－２５小峰建物１０１,,14,134,2130032,,,,,,,2025-05-29,1,,,,,シンジンリキ,0
326,2020003028588,新規,0,2025-05-29,2025-05-29,合同会社ＳＯＵＴＨ,,合同会社,神奈川県,横浜市西区,東ケ丘３８番地第１５吉田ヒルサイド１０２号,,14,103,2200033,,,,,,,2025-05-29,1,,,,,サウス,0
327,2020005016871,新規,0,2025-05-29,2025-05-29,ＮＰＯ法人ヨコハママンダル,,その他の設立登記法人,神奈川県,横浜市緑区,霧が丘３丁目２４番地霧が丘グリーンタウン２４－６棟４０１号,,14,113,2260016,,,,,,,2025-05-29,1,,,,,ヨコハママンダル,0
331,2021003016062,新規,0,2025-05-29,2025-05-29,合同会社Ｍｔ．Ｆｕｊｉ　Ｅｑｕｉｎｅ,,合同会社,神奈川県,鎌倉市,腰越５丁目３番１１号,,14,204,2480033,,,,,,,2025-05-29,1,,,,,マウントフジエクワイン,0
338,2030001166728,新規,0,2025-05-29,2025-05-29,株式会社エスケリア,,株式会社,埼玉県,八潮市,大字古新田８０２番地９,,11,234,3400823,,,,,,,2025-05-29,1,,,,,エスケリア,0
339,2030001166736,新規,0,2025-05-29,2025-05-29,株式会社Ｔｏ　Ｆｉｘ,,株式会社,埼玉県,川越市,川鶴１丁目７番地２０,,11,201,3501176,,,,,,,2025-05-29,1,,,,,ツフィクス,0
340,2030001166744,新規,0,2025-05-29,2025-05-29,株式会社世一国際,,株式会社,埼玉県,さいたま市西区,大字中野林４６６番地１,,11,101,3310057,,,,,,,2025-05-29,1,,,,,ヨイチコクサイ,0
341,2030001166760,新規,0,2025-05-29,2025-05-29,リノビズ株式会社,,株式会社,埼玉県,朝霞市,朝志ケ丘４丁目９番４１号,,11,227,3510035,,,,,,,2025-05-29,1,,,,,リノビズ,0
342,2030001166769,新規,0,2025-05-29,2025-05-29,株式会社Ｓ＆Ｙコーポレーション,,株式会社,埼玉県,川口市,幸町３丁目１２番３５－６０１号モンシャトー川口,,11,203,3320016,,,,,,,2025-05-29,1,,,,,エスアンドワイコーポレーション,0
343,2030001166793,新規,0,2025-05-29,2025-05-29,株式会社権田工務店,,株式会社,埼玉県,比企郡嵐山町,むさし台１丁目３０番地１,,11,342,3550216,,,,,,,2025-05-29,1,,,,,ゴンダコウムテン,0
345,2030003026847,新規,0,2025-05-29,2025-05-29,合同会社木下,,合同会社,埼玉県,川口市,東領家２丁目５番１３号,,11,203,3320003,,,,,,,2025-05-29,1,,,,,キシタ,0
346,2030003026863,新規,0,2025-05-29,2025-05-29,ＭＫＧ合同会社,,合同会社,埼玉県,川越市,大字上寺山５６０番地１ＡＶＡＮＴＩ・Ａ－１０１号室,,11,201,3500826,,,,,,,2025-05-29,1,,,,,エムケージー,0
347,2040001138882,新規,0,2025-05-29,2025-05-29,株式会社心陽,,株式会社,千葉県,市川市,田尻４丁目１０番６－２０８号,,12,203,2720014,,,,,,,2025-05-29,1,,,,,シンヨウ,0
348,2040001138973,新規,0,2025-05-29,2025-05-29,株式会社山崎,,株式会社,千葉県,市原市,五井中央東２丁目１６番地９,,12,219,2900054,,,,,,,2025-05-29,1,,,,,ヤマザキ,0
349,2040001138981,新規,0,2025-05-29,2025-05-29,株式会社ＧＯＲＯＲＩ,,株式会社,千葉県,香取郡多古町,方田１１６－２,,12,347,2892323,,,,,,,2025-05-29,1,,,,,ゴロリ,0
351,2040003027712,新規,0,2025-05-29,2025-05-29,合同会社ソラトル,,合同会社,千葉県,大網白里市,柿餅１９７番地１,,12,239,2993264,,,,,,,2025-05-29,1,,,,,ソラトル,0
366,2100001038647,新規,0,2025-05-29,2025-05-29,フームズ株式会社,,株式会社,長野県,北佐久郡軽井沢町,大字発地字二子塚１７７番３,,20,321,3890113,,,,,,,2025-05-29,1,,,,,フームズ,0
368,2110001039297,新規,0,2025-05-29,2025-05-29,株式会社ＬＳＴ．,,株式会社,新潟県,新潟市中央区,紫竹１丁目２３番１７号,,15,103,9500864,,,,,,,2025-05-29,1,,,,,エルエスティー,0
369,2110003005768,新規,0,2025-05-29,2025-05-29,ｈａｋｋｏ　ｎｏｔｅ合同会社,,合同会社,新潟県,柏崎市,新田畑８番９－２０２号リバーサイドハウスＢ,,15,205,9450031,,,,,,,2025-05-29,1,,,,,ハッコーノート,0
382,2120001275767,新規,0,2025-05-29,2025-05-29,株式会社天八,,株式会社,大阪府,大阪市中央区,南久宝寺町４丁目４－７Ｍ．ＢＡＬＡＮＣＥ＋ＭＩＤＯＳＵＪＩＨＯＭＭＡＣＨＩ６階,,27,128,5410058,,,,,,,2025-05-29,1,,,,,テンパ,0
383,2120001275973,新規,0,2025-05-29,2025-05-29,株式会社プレースメント,,株式会社,大阪府,大阪市西区,阿波座１丁目１３番１７号ＡＱＵＡ西本町９Ｆ,,27,106,5500011,,,,,,,2025-05-29,1,,,,,プレースメント,0
384,2120001276162,新規,0,2025-05-29,2025-05-29,和興株式会社,,株式会社,大阪府,大阪市北区,本庄東１丁目２３－２アデニウムタワー梅田２３０６,,27,127,5310074,,,,,,,2025-05-29,1,,,,,ワコウ,0
385,2120001276237,新規,0,2025-05-29,2025-05-29,株式会社ＥＳ　ＴＲＵＳＴ,,株式会社,大阪府,大阪市中央区,今橋３丁目２番１２号３階,,27,128,5410042,,,,,,,2025-05-29,1,,,,,エストラスト,0
386,2120001276245,新規,0,2025-05-29,2025-05-29,株式会社Ｓｙｍｂｏｌ,,株式会社,大阪府,大阪市西区,西本町３丁目１番２０－１００１号セレニテ本町ルフレ,,27,106,5500005,,,,,,,2025-05-29,1,,,,,シンボル,0
387,2120001276294,新規,0,2025-05-29,2025-05-29,ＺＩＹＯＵＤＯ株式会社,,株式会社,大阪府,大阪市西成区,橘１丁目１１番２８号オフィスポート橘３０６,,27,122,5570051,,,,,,,2025-05-29,1,,,,,ジヨウドウ,0
388,2120001276352,新規,0,2025-05-29,2025-05-29,胡楊国際株式会社,,株式会社,大阪府,大阪市西成区,花園北１丁目７番１４号５０２－Ａ号室,,27,122,5570016,,,,,,,2025-05-29,1,,,,,コヨウコクサイ,0
389,2120005024955,新規,0,2025-05-29,2025-05-29,一般社団法人ウェルバイオ研究所,,その他の設立登記法人,大阪府,大阪市都島区,東野田町２丁目９番２３号晃進ビル４階,,27,102,5340024,,,,,,,2025-05-29,1,,,,,ウェルバイオケンキュウジョ,0
391,2120901050939,新規,0,2025-05-29,2025-05-29,千里企画株式会社,,株式会社,大阪府,豊中市,新千里北町１丁目２０番１号,,27,203,5600081,,,,,,,2025-05-29,1,,,,,センリキカク,0
398,2130003010493,新規,0,2025-05-29,2025-05-29,合同会社ＢＳＳ,,合同会社,京都府,長岡京市,友岡１丁目１３番２８号ＣａｓａＥｓｔｒｅｌｌａ１０２,,26,209,6170843,,,,,,,2025-05-29,1,,,,,ビーエスエス,0
399,2140001138699,新規,0,2025-05-29,2025-05-29,株式会社シノビープラス,,株式会社,兵庫県,宝塚市,南口２丁目２番２８－５１３号,,28,214,6650011,,,,,,,2025-05-29,1,,,,,シノビープラス,0
405,2170001018642,新規,0,2025-05-29,2025-05-29,株式会社アセトラスト,,株式会社,和歌山県,橋本市,紀見ケ丘３丁目３番５号,,30,203,6480092,,,,,,,2025-05-29,1,,,,,アセトラスト,0
410,2180001167026,新規,0,2025-05-29,2025-05-29,株式会社ＲＤｅｃｏ,,株式会社,愛知県,名古屋市昭和区,桜山町５丁目９９番地６桜山駅前ビル６階,,23,107,4660044,,,,,,,2025-05-29,1,,,,,アールデコ,0
415,2180003028523,新規,0,2025-05-29,2025-05-29,ＪＲＴＳ　Ｊａｐａｎ合同会社,,合同会社,愛知県,名古屋市中区,錦１丁目１８－２４いちご伏見ビル４Ｆ,,23,106,4600003,,,,,,,2025-05-29,1,,,,,ジェイアールティーエスジャパン,0
416,2180003028531,新規,0,2025-05-29,2025-05-29,いろは合同会社,,合同会社,愛知県,名古屋市中区,錦３丁目６番１５号先名古屋テレビ塔３階,,23,106,4600003,,,,,,,2025-05-29,1,,,,,イロハ,0
432,2240003007231,新規,0,2025-05-29,2025-05-29,ハミングバードカンパニー合同会社,,合同会社,広島県,尾道市,向島町３３０１番地１,,34,205,7220073,,,,,,,2025-05-29,1,,,,,ハミングバードカンパニー,0
434,2250003003733,新規,0,2025-05-29,2025-05-29,合同会社Ｍ２,,合同会社,山口県,下関市,安岡町４丁目１６番,,35,201,7596603,,,,,,,2025-05-29,1,,,,,エムツー,0
442,2280001009432,新規,0,2025-05-29,2025-05-29,株式会社ｍｉｃｈｉｂｕｒｉ,,株式会社,島根県,隠岐郡知夫村,仁夫１３００番地８,,32,527,6840105,,,,,,,2025-05-29,1,,,,,ミチブリ,0
446,2290001110148,新規,0,2025-05-29,2025-05-29,株式会社むすぶ,,株式会社,福岡県,宗像市,広陵台１丁目２番地２０,,40,220,8114165,,,,,,,2025-05-29,1,,,,,ムスブ,0
447,2290001110164,新規,0,2025-05-29,2025-05-29,株式会社オラロアパートナーズ,,株式会社,福岡県,福岡市早良区,昭代２丁目１１番８－２０１号アクタス藤崎壱番館,,40,137,8140012,,,,,,,2025-05-29,1,,,,,オラロアパートナーズ,0
452,2290801031568,新規,0,2025-05-29,2025-05-29,株式会社ＩＦエステート,,株式会社,福岡県,行橋市,大字金屋３３０番地１,,40,213,8240004,,,,,,,2025-05-29,1,,,,,アイエフエステート,0
453,2290801031576,新規,0,2025-05-29,2025-05-29,株式会社ＨＩＣ,,株式会社,福岡県,直方市,大字上新入２０３５番地８,,40,204,8220033,,,,,,,2025-05-29,1,,,,,エッチアイシー,0
459,2330001033220,新規,0,2025-05-29,2025-05-29,株式会社ＴＡＫＡＫＵＲＡ,,株式会社,熊本県,熊本市中央区,帯山９丁目２番５９号,,43,101,8620924,,,,,,,2025-05-29,1,,,,,タカクラ,0
461,2330003011026,新規,0,2025-05-29,2025-05-29,合同会社クラッチ,,合同会社,熊本県,熊本市西区,中島町１５０２番地３,,43,103,8615272,,,,,,,2025-05-29,1,,,,,クラッチ,0
467,2360003014975,新規,0,2025-05-29,2025-05-29,Ｋ‐ｗｉｎｇ合同会社,,合同会社,沖縄県,宜野湾市,宇地泊２丁目１５番６号渡嘉敷アパート２－１号,,47,205,9012227,,,,,,,2025-05-29,1,,,,,ケイウィング,0
473,2380001035344,新規,0,2025-05-29,2025-05-29,帝國森林再生建設株式会社,,株式会社,福島県,双葉郡浪江町,大字津島字寺田９番地２,,07,547,9791757,,,,,,,2025-05-29,1,,,,,テイコクシンリンサイセイケンセツ,0
474,2380001035352,新規,0,2025-05-29,2025-05-29,株式会社ＳａｋｕｒａＴｅｒｒａ,,株式会社,福島県,いわき市,常磐関船町３丁目２番地の１－２－５４,,07,204,9728318,,,,,,,2025-05-29,1,,,,,サクラテラ,0
475,2380003006054,新規,0,2025-05-29,2025-05-29,合同会社Ｒｅｌａｔｉｖｅ,,合同会社,福島県,いわき市,内郷高坂町立野１０番地６,,07,204,9738408,,,,,,,2025-05-29,1,,,,,リレイティブ,0
484,2430003017707,新規,0,2025-05-29,2025-05-29,合同会社ＮＣＭ,,合同会社,北海道,札幌市豊平区,豊平四条７丁目３番５－１００３号,,01,105,0620904,,,,,,,2025-05-29,1,,,,,エヌシーエム,0
485,2430003017715,新規,0,2025-05-29,2025-05-29,合同会社クレスティード,,合同会社,北海道,札幌市白石区,東米里２１９９－５,,01,104,0030876,,,,,,,2025-05-29,1,,,,,クレスティード,0
490,2700150130227,新規,0,2025-05-29,2025-05-29,Ｐａｔｒｉａ　Ｌａｎｄ　Ｏｙ,,外国会社等,,,,,,,,Ａｒｋａｄｉａｎｋａｔｕ　２，００１００　Ｈｅｌｓｉｎｋｉ，Ｆｉｎｌａｎｄ,,,,,,2025-05-29,1,,,,,パトリアランドオイ,0
491,2700150130763,新規,0,2025-05-29,2025-05-29,Ｔｒｙｈａｃｋｍｅ　Ｌｔｄ,,外国会社等,,,,,,,,１　Ｐａｒｋ　Ｄｒｉｖｅ，Ｌｏｎｄｏｎ　Ｅ１４　９ＡＴ，Ｕｎｉｔｅｄ　Ｋｉｎｇｄｏｍ,,,,,,2025-05-29,1,,,,,トライハツクミーリミテツド,0
492,2700150130771,新規,0,2025-05-29,2025-05-29,Ｃｌｅｅｎｇ　ＢＶ,,外国会社等,,,,,,,,Ｒｅｉｍｅｒｓｂｅｅｋ　１４，Ａｍｓｔｅｒｄａｍ，Ｎｅｔｈｅｒｌａｎｄｓ,,,,,,2025-05-29,1,,,,,クリーングビーブイ,0
493,2700150130788,新規,0,2025-05-29,2025-05-29,ｓｈｅｎｚｈｅｎｓｈｉｑｉｈｕｉｋｅｊｉｙｏｕｘｉａｎｇｏｎｓｉ,,外国会社等,,,,,,,,ｆｕｔｉａｎｊｉｅｄａｏｆｕｈｕａｓａｎｌｕｙｕｊｉｎｔｉａｎｌｕｊｉａｏｊｉｅｃｈｕｄｏｎｇｎａｎｃｅ　ｚｈｕｏｙｕｅｓｈｉｊｉｈｕａｎｇｇａｎｇｓｈａｎｇｗｕｚｈｏｎｇｘｉｎ１ｈａｏｌｏｕ８０５Ｋ９，Ｓｈｅｎｚｈｅｎ，ｆｕｔｉａｎ，ｇｕａｎｇｄｏｎｇ，Ｃｈｉｎａ,,,,,,2025-05-29,1,,,,,シンセンシチーフイケイジーカンパニーリミテツト,0
500,3010001255300,新規,0,2025-05-29,2025-05-29,ＣＡＲＭＡ　Ａｓｉａ　Ｊａｐａｎ株式会社,,株式会社,東京都,千代田区,五番町１２番地７－２０４３,,13,101,1020076,,,,,,,2025-05-29,1,,,,,カーマアジアジャパン,0
501,3010001255309,新規,0,2025-05-29,2025-05-29,Ａｐｐｌｅ　Ｆｏｒｔｕｎｅ株式会社,,株式会社,東京都,中央区,東日本橋２丁目２７番３号ザ・パームス日本橋６０１,,13,102,1030004,,,,,,,2025-05-29,1,,,,,アップルフォーチュン,0
502,3010001255333,新規,0,2025-05-29,2025-05-29,株式会社ＡＣ‐５,,株式会社,東京都,千代田区,麹町３丁目５番地２,,13,101,1020083,,,,,,,2025-05-29,1,,,,,エーシーフィフス,0
503,3010001255408,新規,0,2025-05-29,2025-05-29,株式会社テンポファスト,,株式会社,東京都,中央区,築地４丁目３－１２－１００６,,13,102,1040045,,,,,,,2025-05-29,1,,,,,テンポファスト,0
504,3010001255457,新規,0,2025-05-29,2025-05-29,株式会社佃キャピタル,,株式会社,東京都,中央区,佃２丁目１１番６－１８０９号,,13,102,1040051,,,,,,,2025-05-29,1,,,,,ツクダキャピタル,0
505,3010001255498,新規,0,2025-05-29,2025-05-29,株式会社ＴＮＫニコート,,株式会社,東京都,中央区,銀座８丁目７番１８号ＨＯＷＡ銀座ビル４Ｆ,,13,102,1040061,,,,,,,2025-05-29,1,,,,,ティーエヌケーニコート,0
508,3010003047472,新規,0,2025-05-29,2025-05-29,合同会社テンペスト,,合同会社,東京都,中央区,銀座１丁目１２番４号Ｎ＆ＥＢＬＤ．６Ｆ,,13,102,1040061,,,,,,,2025-05-29,1,,,,,テンペスト,0
509,3010003047489,新規,0,2025-05-29,2025-05-29,ラトゥール合同会社,,合同会社,東京都,千代田区,平河町１丁目６番１５号シルスフィア会計事務所内,,13,101,1020093,,,,,,,2025-05-29,1,,,,,ラトゥール,0
515,3010401190584,新規,0,2025-05-29,2025-05-29,株式会社ＳＤＳ,,株式会社,東京都,港区,麻布台２丁目３番２２号一乗寺ビル４階,,13,103,1060041,,,,,,,2025-05-29,1,,,,,エスディーエス,0
516,3010401190601,新規,0,2025-05-29,2025-05-29,株式会社ＨＹ　ｈｏｌｄｉｎｇｓ,,株式会社,東京都,港区,南麻布５丁目１０番２７－３１４号,,13,103,1060047,,,,,,,2025-05-29,1,,,,,エイチワイホールディングス,0
522,3010603011588,新規,0,2025-05-29,2025-05-29,合同会社まんさく,,合同会社,東京都,墨田区,石原１丁目２２番１－２０４号,,13,107,1300011,,,,,,,2025-05-29,1,,,,,マンサク,0
525,3010901057449,新規,0,2025-05-29,2025-05-29,ユニコーンサステナブル株式会社,,株式会社,東京都,世田谷区,太子堂４丁目１８番１５号マガザン三軒茶屋２、３Ｆ‐３,,13,112,1540004,,,,,,,2025-05-29,1,,,,,ユニコーンサステナブル,0
529,3011001170118,新規,0,2025-05-29,2025-05-29,Ｊｕｎｃｋｈａｍ＆Ｋｏｏｎｙａ　Ｂｕｓｉｎｅｓｓ　Ｅｎｔｅｒｔａｉｎｍｅｎｔ株式会社,,株式会社,東京都,渋谷区,道玄坂１丁目２番３号フクラス１７階ビジネスエアポート内,,13,113,1500043,,,,,,,2025-05-29,1,,,,,ジュンカムアンドコーニャビジネスエンターテインメント,0
535,3011101111970,新規,0,2025-05-29,2025-05-29,Ｎｕｋｕｍｉ株式会社,,株式会社,東京都,新宿区,西新宿８丁目１５－３松原ビル６０４,,13,104,1600023,,,,,,,2025-05-29,1,,,,,ヌクミ,0
537,3011303005574,新規,0,2025-05-29,2025-05-29,オクト合同会社,,合同会社,東京都,杉並区,南荻窪４丁目４番５号,,13,115,1670052,,,,,,,2025-05-29,1,,,,,オクト,0
539,3011401027124,新規,0,2025-05-29,2025-05-29,株式会社ＹＳＭ,,株式会社,東京都,板橋区,大山西町１番２－２０２号,,13,119,1730033,,,,,,,2025-05-29,1,,,,,ワイエスエム,0
545,3011703004259,新規,0,2025-05-29,2025-05-29,ＮＶＮ合同会社,,合同会社,東京都,江戸川区,西小岩５丁目１０番４号さつき荘１０１,,13,123,1330057,,,,,,,2025-05-29,1,,,,,エヌブイエヌ,0
547,3012301014402,新規,0,2025-05-29,2025-05-29,株式会社ＲｉｚＢｅｒｇ,,株式会社,東京都,町田市,金森２丁目１５番２２号,,13,209,1940012,,,,,,,2025-05-29,1,,,,,リベルク,0
548,3012401043160,新規,0,2025-05-29,2025-05-29,株式会社三友建材工業,,株式会社,東京都,調布市,多摩川２丁目１５番地４９,,13,208,1820025,,,,,,,2025-05-29,1,,,,,サンユウケンザイコウギョウ,0
557,3020001163097,新規,0,2025-05-29,2025-05-29,シルクロードキャピタル株式会社,,株式会社,神奈川県,横浜市西区,平沼２丁目１４番１３－６１２号,,14,103,2200023,,,,,,,2025-05-29,1,,,,,シルクロードキャピタル,0
558,3020001163106,新規,0,2025-05-29,2025-05-29,株式会社グロースバディ,,株式会社,神奈川県,横浜市港北区,綱島東５丁目５番１号,,14,109,2230052,,,,,,,2025-05-29,1,,,,,グロースバディ,0
561,3020003028587,新規,0,2025-05-29,2025-05-29,合同会社ロンシャン,,合同会社,神奈川県,横浜市保土ケ谷区,上星川２丁目５番１５－２０４号,,14,106,2400042,,,,,,,2025-05-29,1,,,,,ロンシャン,0
563,3021001085348,新規,0,2025-05-29,2025-05-29,ＭＣＶネットワークジャパン株式会社,,株式会社,神奈川県,平塚市,高浜台３０番３号グランデージ湘南平塚６０９号室,,14,203,2540805,,,,,,,2025-05-29,1,,,,,エムシーブイネットワークジャパン,0
564,3021001085356,新規,0,2025-05-29,2025-05-29,プラストリーキャピタル株式会社,,株式会社,神奈川県,鎌倉市,浄明寺５丁目３番１０号,,14,204,2480003,,,,,,,2025-05-29,1,,,,,プラストリーキャピタル,0
565,3021001085389,新規,0,2025-05-29,2025-05-29,株式会社アーク,,株式会社,神奈川県,茅ヶ崎市,東海岸北２丁目１１番５２号,,14,207,2530053,,,,,,,2025-05-29,1,,,,,アーク,0
575,3030001166685,新規,0,2025-05-29,2025-05-29,株式会社輝英工業,,株式会社,埼玉県,八潮市,緑町４丁目１０番地１スカイタウン壱番館２０５,,11,234,3400808,,,,,,,2025-05-29,1,,,,,コウエイコウギョウ,0
576,3030001166702,新規,0,2025-05-29,2025-05-29,株式会社ヒトマチ,,株式会社,埼玉県,川越市,砂新田２丁目７番地３,,11,201,3501137,,,,,,,2025-05-29,1,,,,,ヒトマチ,0
577,3030001166776,新規,0,2025-05-29,2025-05-29,株式会社Ｎｏｒｎ,,株式会社,埼玉県,入間市,春日町１丁目１０番５号,,11,225,3580006,,,,,,,2025-05-29,1,,,,,ノルン,0
579,3030003026870,新規,0,2025-05-29,2025-05-29,合同会社笑栄,,合同会社,埼玉県,所沢市,大字南永井５１９番地,,11,208,3590011,,,,,,,2025-05-29,1,,,,,ショウエイ,0
582,3030005022166,新規,0,2025-05-29,2025-05-29,一般社団法人Ｌｅａｆスポーツ,,その他の設立登記法人,埼玉県,春日部市,藤塚８３７番地２,,11,214,3440011,,,,,,,2025-05-29,1,,,,,リーフスポーツ,0
585,3040001138964,新規,0,2025-05-29,2025-05-29,クエスト株式会社,,株式会社,千葉県,君津市,人見４丁目６番１号,,12,225,2991147,,,,,,,2025-05-29,1,,,,,クエスト,0
586,3040001138980,新規,0,2025-05-29,2025-05-29,ＨＹＧＧＥＳＣＡＰＥ株式会社,,株式会社,千葉県,印西市,東の原１丁目２番地５４,,12,231,2701336,,,,,,,2025-05-29,1,,,,,ヒュッゲスケイプ,0
587,3040001138989,新規,0,2025-05-29,2025-05-29,株式会社Ｗｅｌｉｎａ,,株式会社,千葉県,柏市,藤ケ谷１７７７番地１６,,12,217,2770931,,,,,,,2025-05-29,1,,,,,ウェリナ,0
598,3060001038246,新規,0,2025-05-29,2025-05-29,株式会社ロイビルディング,,株式会社,栃木県,小山市,大字喜沢１１８９番地１,,09,208,3230014,,,,,,,2025-05-29,1,,,,,ロイビルディング,0
601,3070001042965,新規,0,2025-05-29,2025-05-29,株式会社群馬建機教習所,,株式会社,群馬県,高崎市,倉賀野町３３６９番地,,10,202,3701201,,,,,,,2025-05-29,1,,,,,グンマケンキキョウシュウジョ,0
602,3070001042973,新規,0,2025-05-29,2025-05-29,株式会社ＫＳＤ,,株式会社,群馬県,前橋市,本町２丁目１番１０号天元ビル１０１,,10,201,3710023,,,,,,,2025-05-29,1,,,,,ケーエスディー,0
610,3080101025514,新規,0,2025-05-29,2025-05-29,株式会社ＫＩＴ,,株式会社,静岡県,賀茂郡松崎町,岩科南側７８９番地,,22,305,4103614,,,,,,,2025-05-29,1,,,,,キット,0
611,3080101025522,新規,0,2025-05-29,2025-05-29,株式会社ＹＳＰ,,株式会社,静岡県,三島市,東本町１丁目１３番４８号シティウインズ三島６１８,,22,206,4110831,,,,,,,2025-05-29,1,,,,,ワイエスピー,0
615,3100001038646,新規,0,2025-05-29,2025-05-29,斧鉞株式会社,,株式会社,長野県,埴科郡坂城町,大字坂城１８４３番地,,20,521,3890601,,,,,,,2025-05-29,1,,,,,フエツ,0
616,3100001038654,新規,0,2025-05-29,2025-05-29,株式会社つばき,,株式会社,長野県,上水内郡信濃町,大字古間４７番地,,20,583,3891313,,,,,,,2025-05-29,1,,,,,ツバキ,0
618,3110001039296,新規,0,2025-05-29,2025-05-29,株式会社ワタナベ企画,,株式会社,新潟県,新潟市江南区,亀田水道町２丁目５番１６号,,15,104,9500123,,,,,,,2025-05-29,1,,,,,ワタナベキカク,0
625,3120001276194,新規,0,2025-05-29,2025-05-29,株式会社菅原重量,,株式会社,大阪府,大阪市東淀川区,豊里７丁目２１番１０号,,27,114,5330013,,,,,,,2025-05-29,1,,,,,スガハラジュウリョウ,0
626,3120001276203,新規,0,2025-05-29,2025-05-29,株式会社ＥＳＴＡＴＥ　ＨＥＲＯ,,株式会社,大阪府,門真市,南野口町８番１２号,,27,223,5710005,,,,,,,2025-05-29,1,,,,,エステートヒーロー,0
627,3120001276228,新規,0,2025-05-29,2025-05-29,自在ＡＩ株式会社,,株式会社,大阪府,大阪市天王寺区,伶人町２番３１号ＳｔａｒＯｆｆｉｃｅ大阪天王寺北４０７号室,,27,109,5430061,,,,,,,2025-05-29,1,,,,,ジザイエーアイ,0
628,3120001276244,新規,0,2025-05-29,2025-05-29,株式会社ＬＩＮＯ,,株式会社,大阪府,大阪市生野区,巽西３丁目８番２２号日の出マンション１０１号室,,27,116,5440012,,,,,,,2025-05-29,1,,,,,リノ,0
629,3120001276277,新規,0,2025-05-29,2025-05-29,ＣａｐｙＰｉｅ　ｔｅｃｈｎｏｌｏｇｙ株式会社,,株式会社,大阪府,大阪市中央区,島之内１丁目１５番９号,,27,128,5420082,,,,,,,2025-05-29,1,,,,,カピパイテクノロジー,0
630,3120001276285,新規,0,2025-05-29,2025-05-29,株式会社リアルファ,,株式会社,大阪府,大阪市都島区,友渕町２丁目３番５号,,27,102,5340016,,,,,,,2025-05-29,1,,,,,リアルファ,0
631,3120001276319,新規,0,2025-05-29,2025-05-29,知本株式会社,,株式会社,大阪府,大阪市城東区,関目５丁目１９番９号関目花博公館５０３Ｂ,,27,118,5360008,,,,,,,2025-05-29,1,,,,,チホン,0
636,3120003029600,新規,0,2025-05-29,2025-05-29,雪山商業管理合同会社,,合同会社,大阪府,大阪市住之江区,新北島１丁目７番３３－３０３号,,27,125,5590024,,,,,,,2025-05-29,1,,,,,ユキヤマショウギョウカンリ,0
641,3120901050863,新規,0,2025-05-29,2025-05-29,ランド・ドア株式会社,,株式会社,大阪府,豊中市,上津島１丁目２番４３号,,27,203,5610843,,,,,,,2025-05-29,1,,,,,ランドドア,0
642,3120901050962,新規,0,2025-05-29,2025-05-29,Ｓａｖｉｏｒ　Ｉｎｔｅｒｎａｔｉｏｎａｌ株式会社,,株式会社,大阪府,茨木市,平田２丁目１２番９－２０４号,,27,211,5670845,,,,,,,2025-05-29,1,,,,,セイビアインターナショナル,0
643,3122001039283,新規,0,2025-05-29,2025-05-29,株式会社Ｌｉｅｎ,,株式会社,大阪府,東大阪市,瓢箪山町４番１号ＴＷＩＮＣＯＳＭＯＳ２０５,,27,227,5798051,,,,,,,2025-05-29,1,,,,,リアン,0
645,3130001079778,新規,0,2025-05-29,2025-05-29,株式会社ＭＡＨＡＬＯ,,株式会社,京都府,京都市伏見区,久我御旅町５－９８,,26,109,6128493,,,,,,,2025-05-29,1,,,,,マハロ,0
646,3130001079794,新規,0,2025-05-29,2025-05-29,徳力アセットマネジメント株式会社,,株式会社,京都府,京都市東山区,祇園町南側５７０番地１２７,00139349,26,105,6050074,,,,,,,2025-05-29,1,,,,,トクリキアセットマネジメント,0
652,3140005027526,新規,0,2025-05-29,2025-05-29,ＮＰＯ法人グーチョキパー,,その他の設立登記法人,兵庫県,加古郡稲美町,国安４３８番地,,28,381,6751114,,,,,,,2025-05-29,1,,,,,グーチョキパー,0
653,3170003002222,新規,0,2025-05-29,2025-05-29,プレホスピタルネットワーク合同会社,,合同会社,和歌山県,岩出市,野上野３６８番地の３,,30,209,6496216,,,,,,,2025-05-29,1,,,,,プレホスピタルネットワーク,0
657,3180001166927,新規,0,2025-05-29,2025-05-29,株式会社Ｓｙｍｐｈｏｎｙ　Ｂｅｙｏｎｄ,,株式会社,愛知県,名古屋市中村区,名駅４丁目２４番５号第２森ビル４０１,,23,105,4500002,,,,,,,2025-05-29,1,,,,,シンフォニービヨンド,0
658,3180001166984,新規,0,2025-05-29,2025-05-29,株式会社ＤＸＵＫコンサルティング,,株式会社,愛知県,名古屋市西区,栄生１丁目３２番７号,,23,104,4510052,,,,,,,2025-05-29,1,,,,,ディーエックスユーケーコンサルティング,0
659,3180001167041,新規,0,2025-05-29,2025-05-29,株式会社アヴリール,,株式会社,愛知県,名古屋市中区,丸の内２丁目２番５号丸の内ヒビノ・オフィスラインズ６Ａ,,23,106,4600002,,,,,,,2025-05-29,1,,,,,アヴリール,0
660,3180003028539,新規,0,2025-05-29,2025-05-29,合同会社ＮＯＶＡＩＲ,,合同会社,愛知県,名古屋市西区,那古野１丁目４番２２号,,23,104,4510042,,,,,,,2025-05-29,1,,,,,ノヴェア,0
667,3180301039849,新規,0,2025-05-29,2025-05-29,株式会社ＩＳＢサポート,,株式会社,愛知県,豊橋市,細谷町字中尾１３９番地１,,23,201,4413113,,,,,,,2025-05-29,1,,,,,アイエスビーサポート,0
671,3200001043826,新規,0,2025-05-29,2025-05-29,株式会社ＴＯＫＵＳＥＮ,,株式会社,岐阜県,養老郡養老町,若宮３５３番地,,21,341,5031265,,,,,,,2025-05-29,1,,,,,トクセン,0
681,3260001040215,新規,0,2025-05-29,2025-05-29,株式会社Ｔｉｐｒｅｓｓ,,株式会社,岡山県,岡山市北区,辛川市場４１９番地１７,,33,101,7011214,,,,,,,2025-05-29,1,,,,,ティプレス,0
682,3260001040223,新規,0,2025-05-29,2025-05-29,株式会社神崎住工,00139346,株式会社,岡山県,岡山市南区,妹尾１２７０番地９,,33,104,7010205,,,,,,,2025-05-29,1,,,,,カンザキジュウコウ,0
685,3260003005190,新規,0,2025-05-29,2025-05-29,合同会社玉翔,,合同会社,岡山県,岡山市南区,平福２丁目７番２６－２号,,33,104,7028043,,,,,,,2025-05-29,1,,,,,タマショウ,0
692,3290001110147,新規,0,2025-05-29,2025-05-29,株式会社ｈａｎａｂｉ,,株式会社,福岡県,宗像市,広陵台１丁目２番地２０,,40,220,8114165,,,,,,,2025-05-29,1,,,,,ハナビ,0
693,3290001110196,新規,0,2025-05-29,2025-05-29,ＮｙＩＴコンサルティング株式会社,,株式会社,福岡県,福岡市博多区,博多駅前１丁目２３番２号ＰａｒｋＦｒｏｎｔ博多駅前１丁目５Ｆ－Ｂ,,40,132,8120011,,,,,,,2025-05-29,1,,,,,ニットコンサルティング,0
694,3290001110205,新規,0,2025-05-29,2025-05-29,株式会社Ｍｙｕｎａ,,株式会社,福岡県,福岡市早良区,有田６丁目１０番８号,,40,137,8140033,,,,,,,2025-05-29,1,,,,,ミューナ,0
695,3290003016904,新規,0,2025-05-29,2025-05-29,合同会社整え日和,,合同会社,福岡県,福岡市中央区,警固２丁目１番１７号,,40,133,8100023,,,,,,,2025-05-29,1,,,,,トトノエビヨリ,0
699,3290005019756,新規,0,2025-05-29,2025-05-29,一般社団法人福岡県児童自立生活援助事業協議会,,その他の設立登記法人,福岡県,春日市,千歳町１丁目３４番地１ツインズ春日２階,,40,218,8160805,,,,,,,2025-05-29,1,,,,,フクオカケンジドウジリツセイカツエンジョジギョウキョウギカイ,0
702,3300005007247,新規,0,2025-05-29,2025-05-29,一般社団法人有田町屋,,その他の設立登記法人,佐賀県,西松浦郡有田町,本町乙３０３８番地２アクアビル２階Ａ室,,41,401,8440018,,,,,,,2025-05-29,1,,,,,アリタマチヤ,0
704,3310003005020,新規,0,2025-05-29,2025-05-29,合同会社ＫＭ,,合同会社,長崎県,北松浦郡佐々町,松瀬免２－１,,42,391,8570322,,,,,,,2025-05-29,1,,,,,ケイエム,0
707,3340001027336,新規,0,2025-05-29,2025-05-29,種子島タクシー株式会社,,株式会社,鹿児島県,熊毛郡南種子町,中之下１８６０番地５４,,46,502,8913704,,,,,,,2025-05-29,1,,,,,タネガシマタクシー,0
708,3340001027352,新規,0,2025-05-29,2025-05-29,エイドプラス株式会社,,株式会社,鹿児島県,鹿児島市,堀江町４－７－４０３,,46,201,8920824,,,,,,,2025-05-29,1,,,,,エイドプラス,0
710,3340003004861,新規,0,2025-05-29,2025-05-29,合同会社Ｒ,,合同会社,鹿児島県,鹿児島市,中央町１９番地４０ザ・パークハウス鹿児島中央タワー１６０９号,,46,201,8900053,,,,,,,2025-05-29,1,,,,,アール,0
712,3360001035279,新規,0,2025-05-29,2025-05-29,株式会社Ｕｎｉｖｅｒｓａｌ　ｒａｍｅｎ　Ｊａｐａｎ,,株式会社,沖縄県,豊見城市,字豊見城９７５番地６,,47,212,9010241,,,,,,,2025-05-29,1,,,,,ユニバーサルラーメンジャパン,0
715,3380001035343,新規,0,2025-05-29,2025-05-29,株式会社内藤,,株式会社,福島県,二本松市,渋川字才ノ神５０番地,,07,210,9691403,,,,,,,2025-05-29,1,,,,,ナイトウ,0
717,3390001018000,新規,0,2025-05-29,2025-05-29,株式会社ＫＩＰＰＩＳ,,株式会社,山形県,酒田市,若竹町１丁目２番２７号,,06,204,9980834,,,,,,,2025-05-29,1,,,,,,0
719,3400003003469,新規,0,2025-05-29,2025-05-29,合同会社福大,,合同会社,岩手県,奥州市,衣川高保呂１４３番地,,03,215,0294342,,,,,,,2025-05-29,1,,,,,ダイフク,0
723,3430001094490,新規,0,2025-05-29,2025-05-29,株式会社ＮＥＸＯＲＡ,,株式会社,北海道,岩見沢市,日の出町９２番地６,,01,210,0680825,,,,,,,2025-05-29,1,,,,,ネクソラ,0
724,3430001094540,新規,0,2025-05-29,2025-05-29,修平株式会社,,株式会社,北海道,札幌市中央区,北十条西１８丁目３６－２２７,,01,101,0600010,,,,,,,2025-05-29,1,,,,,シュウヘイ,0
726,3430003017689,新規,0,2025-05-29,2025-05-29,合同会社滝川アルミ工業,,合同会社,北海道,滝川市,泉町２８６番地８,,01,225,0730042,,,,,,,2025-05-29,1,,,,,タキカワアルミコウギョウ,0
727,3470001020732,新規,0,2025-05-29,2025-05-29,エムデッセ株式会社,,株式会社,香川県,丸亀市,柞原町１１０３番地１,,37,202,7630073,,,,,,,2025-05-29,1,,,,,,0
730,3500001026313,新規,0,2025-05-29,2025-05-29,株式会社Ｆｏｒｅｓｔ,,株式会社,愛媛県,松山市,松末２丁目１番５０号,,38,201,7900915,,,,,,,2025-05-29,1,,,,,フォレスト,0
739,3700150130770,新規,0,2025-05-29,2025-05-29,ＤＲＥＡＭ　ＭＡＫＥＲ　ＥＮＴＥＲＴＡＩＮＭＥＮＴ　ＬＩＭＩＴＥＤ,,外国会社等,,,,,,,,ＳＵＩＴＥ　７０５，ＴＯＷＥＲ　２，ＴＨＥ　ＧＡＴＥＷＡＹ，２５　ＣＡＮＴＯＮ　ＲＯＡＤ，ＴＳＩＭ　ＳＨＡ　ＴＳＵＩ，ＫＬＮ，ＨＯＮＧ　ＫＯＮＧ,,,,,,2025-05-29,1,,,,,ドリームメーカーエンターテインメントリミテツド,0
740,3700150130779,新規,0,2025-05-29,2025-05-29,Ａｎｊｉｇｕｆｅｎｇｊｉａｊｕｙｏｕｘｉａｎｇｏｎｇｓｉ,,外国会社等,,,,,,,,Ｎｏ．２９３９　Ｙｕｎｈｏｎｇ　Ｗｅｓｔ　Ｒｏａｄ，Ｄｉｐｕ　Ｓｔｒｅｅｔ，Ａｎｊｉ　Ｃｏｕｎｔｙ，３Ｆ，Ｂｕｉｌｄｉｎｇ　５，Ｈｕｚｈｏｕ，Ｚｈｅｊｉａｎｇ，Ｃｈｉｎａ,,,,,,2025-05-29,1,,,,,アンジーグーフオンカグカンパニーリミテツト,0
744,4010001255423,新規,0,2025-05-29,2025-05-29,Ｂｅｎｅｖｏ株式会社,,株式会社,東京都,中央区,日本橋室町１丁目１１番１２号日本橋水野ビル７階,,13,102,1030022,,,,,,,2025-05-29,1,,,,,ベネボ,0
745,4010001255497,新規,0,2025-05-29,2025-05-29,株式会社コンチネンタルオフィス,,株式会社,東京都,中央区,銀座８丁目５番２５号エイトビル３階,,13,102,1040061,,,,,,,2025-05-29,1,,,,,コンチネンタルオフィス,0
753,4010401190591,新規,0,2025-05-29,2025-05-29,株式会社ＴＫＲ,,株式会社,東京都,港区,新橋１丁目１６番４号りそな新橋ビル８階,,13,103,1050004,,,,,,,2025-05-29,1,,,,,ティーケーアール,0
754,4010401190609,新規,0,2025-05-29,2025-05-29,株式会社プレステージＩＭＳ,,株式会社,東京都,港区,台場２丁目６番１号グランドニッコー東京台場３Ｆ,,13,103,1350091,,,,,,,2025-05-29,1,,,,,プレステージアイエムエス,0
755,4010401190625,新規,0,2025-05-29,2025-05-29,株式会社３＆Ｄ,,株式会社,東京都,港区,六本木７丁目１５番７号新六本木ビル８１５,,13,103,1060032,,,,,,,2025-05-29,1,,,,,スリーアンドディー,0
756,4010401190666,新規,0,2025-05-29,2025-05-29,株式会社Ｔｗｏ　Ｈｏｌｄｉｎｇｓ,,株式会社,東京都,港区,南青山３丁目１番３号スプライン青山東急ビル３階,,13,103,1070062,,,,,,,2025-05-29,1,,,,,トゥーホールディングス,0
758,4010403035183,新規,0,2025-05-29,2025-05-29,ＴＫ　Ｉｎｖｅｓｔｍｅｎｔ合同会社,,合同会社,東京都,港区,北青山１丁目６番５－１０４号,,13,103,1070061,,,,,,,2025-05-29,1,,,,,ティーケーインベストメント,0
759,4010403035209,新規,0,2025-05-29,2025-05-29,合同会社カチュウノ栗ヲヒロウ,,合同会社,東京都,港区,西麻布１丁目１２－６ダイアンクレストビル８階,,13,103,1060031,,,,,,,2025-05-29,1,,,,,カチュウノクリヲヒロウ,0
761,4010503007859,新規,0,2025-05-29,2025-05-29,合同会社ＬＯ‐Ｖａｃａｔｉｏｎ,,合同会社,東京都,台東区,竜泉２丁目７－７東京ビューマークス８０４,,13,106,1100012,,,,,,,2025-05-29,1,,,,,ローバケーション,0
763,4010603011595,新規,0,2025-05-29,2025-05-29,合同会社ＴＡＫホスピタリティ広島,,合同会社,東京都,江東区,新砂１丁目１番１号,,13,108,1360075,,,,,,,2025-05-29,1,,,,,タックホスピタリティヒロシマ,0
766,4010705003763,新規,0,2025-05-29,2025-05-29,一般社団法人Ｔ１神楽坂,,その他の設立登記法人,東京都,品川区,上大崎３丁目１番１号目黒セントラルスクエア１５階,,13,109,1410021,,,,,,,2025-05-29,1,,,,,ティーワンカグラザカ,0
779,4011001170133,新規,0,2025-05-29,2025-05-29,未来プロパティーズ株式会社,,株式会社,東京都,渋谷区,道玄坂１丁目１０番８号渋谷道玄坂東急ビル２Ｆ－Ｃ,,13,113,1500043,,,,,,,2025-05-29,1,,,,,ミライプロパティーズ,0
782,4011101111796,新規,0,2025-05-29,2025-05-29,ＡｌｌｉｏＮｏｖａ株式会社,,株式会社,東京都,新宿区,西新宿３丁目３番１３号西新宿水間ビル６階,,13,104,1600023,,,,,,,2025-05-29,1,,,,,アリオノバ,0
783,4011101111813,新規,0,2025-05-29,2025-05-29,株式会社バチック,,株式会社,東京都,新宿区,新宿２丁目４番８－１１０３号,,13,104,1600022,,,,,,,2025-05-29,1,,,,,バチック,0
784,4011101111846,新規,0,2025-05-29,2025-05-29,株式会社日本旅行者支援機構,,株式会社,東京都,新宿区,西新宿３丁目３番１３号６階,,13,104,1600023,,,,,,,2025-05-29,1,,,,,ニホンリョコウシャシエンキコウ,0
785,4011201026382,新規,0,2025-05-29,2025-05-29,株式会社ＳＷＡＹＳ,,株式会社,東京都,中野区,大和町１丁目３－９プラネット１０７,,13,114,1650034,,,,,,,2025-05-29,1,,,,,エスウェイズ,0
792,4011601028689,新規,0,2025-05-29,2025-05-29,株式会社ｋｏｃｏｒｉ,,株式会社,東京都,練馬区,高野台３丁目３５番１１－３０１号,,13,120,1770033,,,,,,,2025-05-29,1,,,,,ココリ,0
796,4012301014401,新規,0,2025-05-29,2025-05-29,株式会社Ｊリンク,,株式会社,東京都,町田市,中町４丁目１番４号シャトル中町１０１,,13,209,1940021,,,,,,,2025-05-29,1,,,,,ジェイリンク,0
797,4012303002164,新規,0,2025-05-29,2025-05-29,合同会社エスケイエンジニアリング,,合同会社,東京都,町田市,小川３丁目１８番地２７,,13,209,1940003,,,,,,,2025-05-29,1,,,,,エスケイエンジニアリング,0
798,4012403007154,新規,0,2025-05-29,2025-05-29,リブラクト合同会社,,合同会社,東京都,多摩市,落合１丁目４６－１ココリア多摩センター７階,,13,224,2060033,,,,,,,2025-05-29,1,,,,,リブラクト,0
800,4012801023991,新規,0,2025-05-29,2025-05-29,株式会社ナナアカデミー,,株式会社,東京都,立川市,曙町１丁目３７番６号シティテラス立川Ｎ２２３,00139348,13,202,1900012,,,,,,,2025-05-29,1,,,,,ナナアカデミー,0
804,4013301054305,新規,0,2025-05-29,2025-05-29,株式会社金水商事,,株式会社,東京都,豊島区,東池袋３丁目２１番２１－１７０２号,,13,116,1700013,,,,,,,2025-05-29,1,,,,,キンスイショウジ,0
813,4020003028561,新規,0,2025-05-29,2025-05-29,合同会社ＥＸＰ,,合同会社,神奈川県,横浜市神奈川区,金港町５－１４クアドリフォリオ８階,,14,102,2210056,,,,,,,2025-05-29,1,,,,,イーエックスピー,0
822,4021001085363,新規,0,2025-05-29,2025-05-29,株式会社ＹＫ‐ＣＯＮＳＴＲＵＣＴ,,株式会社,神奈川県,大和市,中央林間２丁目７番１９号ラ・シャンス中央林間第２２・２０１号室,,14,213,2420007,,,,,,,2025-05-29,1,,,,,ワイケーコンストラクト,0
823,4021001085388,新規,0,2025-05-29,2025-05-29,株式会社クイール,,株式会社,神奈川県,平塚市,四之宮３丁目１３番５０－１号,,14,203,2540014,,,,,,,2025-05-29,1,,,,,クイール,0
825,4021003016077,新規,0,2025-05-29,2025-05-29,合同会社ＧＯＲＫＨＡ　ＫＡＬＩＫＡ,,合同会社,神奈川県,小田原市,本町３丁目１１番２４号,,14,206,2500012,,,,,,,2025-05-29,1,,,,,ゴルカカリカ,0
828,4030001166701,新規,0,2025-05-29,2025-05-29,株式会社ＫＯＮＯＨＡ,,株式会社,埼玉県,熊谷市,小八林２１８番地２,,11,202,3690103,,,,,,,2025-05-29,1,,,,,コノハ,0
829,4030001166750,新規,0,2025-05-29,2025-05-29,株式会社ジェムマックス,,株式会社,埼玉県,和光市,白子１丁目１８番３０－５１０号,,11,229,3510101,,,,,,,2025-05-29,1,,,,,ジェムマックス,0
830,4030001166800,新規,0,2025-05-29,2025-05-29,システムＳ株式会社,,株式会社,埼玉県,鴻巣市,原馬室２４２４番地６,,11,217,3650043,,,,,,,2025-05-29,1,,,,,システムエス,0
832,4030003026812,新規,0,2025-05-29,2025-05-29,合同会社Ｒｅ‐Ｖｉｓｉｏｎａｒｙ,,合同会社,埼玉県,川口市,戸塚３丁目２９―１０―３１１,,11,203,3330811,,,,,,,2025-05-29,1,,,,,リビジョナリー,0
840,4040001138963,新規,0,2025-05-29,2025-05-29,株式会社あいうえを,,株式会社,千葉県,市川市,菅野３丁目３番地１５,,12,203,2720824,,,,,,,2025-05-29,1,,,,,アイウエオ,0
841,4040001138971,新規,0,2025-05-29,2025-05-29,株式会社ｆａｌｃｏ,,株式会社,千葉県,市川市,富浜２丁目２番１０号エムズプランドール２０１号室,,12,203,2720115,,,,,,,2025-05-29,1,,,,,ファルコ,0
844,4040003027710,新規,0,2025-05-29,2025-05-29,ｅｃｏ　ｒｉｓｅ合同会社,,合同会社,千葉県,市川市,田尻３丁目４番地２０ー３０２号,,12,203,2720014,,,,,,,2025-05-29,1,,,,,エコライズ,0
846,4050003009294,新規,0,2025-05-29,2025-05-29,合同会社ＬａＦｒｅｎｃｈ　ＢＡＳＥ,,合同会社,茨城県,水戸市,新原１丁目６－３３,,08,201,3100045,,,,,,,2025-05-29,1,,,,,ラフレンチベース,0
848,4060001038245,新規,0,2025-05-29,2025-05-29,株式会社ワイズ,,株式会社,栃木県,那須塩原市,青木２７番地８４１,,09,213,3250103,,,,,,,2025-05-29,1,,,,,ワイズ,0
850,4070001042964,新規,0,2025-05-29,2025-05-29,株式会社伊藤組,,株式会社,群馬県,高崎市,下室田町２４２０番地３,,10,202,3703342,,,,,,,2025-05-29,1,,,,,イトウグミ,0
852,4070003005944,新規,0,2025-05-29,2025-05-29,合同会社スター,,合同会社,群馬県,甘楽郡下仁田町,大字馬山２９１７番地１,,10,382,3702603,,,,,,,2025-05-29,1,,,,,スター,0
857,4080101025521,新規,0,2025-05-29,2025-05-29,株式会社零和,,株式会社,静岡県,富士宮市,大中里１７１２番地の１の１,,22,207,4180044,,,,,,,2025-05-29,1,,,,,レイワ,0
859,4090001019267,新規,0,2025-05-29,2025-05-29,株式会社タテナシ,,株式会社,山梨県,韮崎市,上ノ山９３５号,,19,207,4070011,,,,,,,2025-05-29,1,,,,,,0
873,4120001275410,新規,0,2025-05-29,2025-05-29,Ｗマーケティング株式会社,,株式会社,大阪府,大阪市中央区,本町１丁目４番１３号ＳＳＩ本町ビル５階,,27,128,5410053,,,,,,,2025-05-29,1,,,,,ダブリューマーケティング,0
874,4120001276227,新規,0,2025-05-29,2025-05-29,株式会社結び灯,,株式会社,大阪府,大阪市中央区,南船場１丁目１６番２３パレロワイヤル順慶町２０７,,27,128,5420081,,,,,,,2025-05-29,1,,,,,ムスビビ,0
875,4120001276251,新規,0,2025-05-29,2025-05-29,楓和株式会社,,株式会社,大阪府,大阪市都島区,中野町４丁目３番６号Ｈ２Ｈ大阪桜之宮邸３Ａ－４,,27,102,5340027,,,,,,,2025-05-29,1,,,,,フウワ,0
876,4120001276284,新規,0,2025-05-29,2025-05-29,ＭＩＣＲＯ　ＯＦＦＩＣＥ株式会社,,株式会社,大阪府,大阪市西区,南堀江１丁目１８番１４－４０５号,,27,106,5500015,,,,,,,2025-05-29,1,,,,,マイクロオフィス,0
877,4120001276318,新規,0,2025-05-29,2025-05-29,樹品株式会社,,株式会社,大阪府,大阪市都島区,中野町４丁目３番６号Ｈ２Ｈ大阪桜之宮邸５Ｄ－１,,27,102,5340027,,,,,,,2025-05-29,1,,,,,キヒン,0
878,4120003029566,新規,0,2025-05-29,2025-05-29,スマートデザイン合同会社,,合同会社,大阪府,大阪市城東区,今福東１丁目４－１２－１３１０,,27,118,5360002,,,,,,,2025-05-29,1,,,,,スマートデザイン,0
885,4122001039274,新規,0,2025-05-29,2025-05-29,ＣＲＡＦＴ株式会社,,株式会社,大阪府,東大阪市,柏田西１丁目６番１７号,,27,227,5770835,,,,,,,2025-05-29,1,,,,,クラフト,0
889,4130003010475,新規,0,2025-05-29,2025-05-29,合同会社スパイスリッチマン,,合同会社,京都府,舞鶴市,字引土２２１－２,,26,202,6240841,,,,,,,2025-05-29,1,,,,,スパイスリッチマン,0
890,4130003010500,新規,0,2025-05-29,2025-05-29,合同会社インテグリティ研究所,,合同会社,京都府,京都市上京区,上生洲町１９７番１１号,,26,102,6020855,,,,,,,2025-05-29,1,,,,,インテグリティケンキュウジョ,0
895,4140001138680,新規,0,2025-05-29,2025-05-29,株式会社吉祥,,株式会社,兵庫県,神戸市中央区,栄町通１丁目２番１号,,28,110,6500023,,,,,,,2025-05-29,1,,,,,キッショウ,0
896,4140001138739,新規,0,2025-05-29,2025-05-29,株式会社コアラプロダクション,,株式会社,兵庫県,伊丹市,中野北４丁目２番３号,,28,207,6640029,,,,,,,2025-05-29,1,,,,,コアラプロダクション,0
897,4140005027525,新規,0,2025-05-29,2025-05-29,一般社団法人丹波森林ＬＳＣ,,その他の設立登記法人,兵庫県,丹波市,氷上町石生１５８３番地１,,28,223,6693464,,,,,,,2025-05-29,1,,,,,タンバシンリンエルエスシー,0
898,4150003003618,新規,0,2025-05-29,2025-05-29,合同会社ひさ,,合同会社,奈良県,橿原市,南八木町１丁目４番３－１００８号,,29,205,6340077,,,,,,,2025-05-29,1,,,,,ヒサ,0
899,4160001026792,新規,0,2025-05-29,2025-05-29,株式会社Ａｄｉ,,株式会社,滋賀県,守山市,守山１丁目２番１０号,,25,207,5240022,,,,,,,2025-05-29,1,,,,,アディ,0
904,4180001167032,新規,0,2025-05-29,2025-05-29,株式会社Ｕｎｉｖｅｒｓｗｉｎｇ,,株式会社,愛知県,名古屋市天白区,八事天道８２６番地（ミオパエーゼ八事１０２号）,,23,116,4680061,,,,,,,2025-05-29,1,,,,,ユニバースウィング,0
905,4180001167049,新規,0,2025-05-29,2025-05-29,ＮＳ　ｓｔｏｃｋ株式会社,,株式会社,愛知県,一宮市,木曽川町門間字東郷１５番地１,,23,203,4930002,,,,,,,2025-05-29,1,,,,,エヌエスストック,0
906,4180003028538,新規,0,2025-05-29,2025-05-29,合同会社Ｃａｒａｔ,,合同会社,愛知県,名古屋市中村区,上石川町１丁目３７番地（シャルマン３０１号）,,23,105,4530835,,,,,,,2025-05-29,1,,,,,キャラット,0
907,4180005021111,新規,0,2025-05-29,2025-05-29,一般社団法人にっしん観光まちづくり協会,,その他の設立登記法人,愛知県,日進市,本郷町前田３３番地,,23,230,4700121,,,,,,,2025-05-29,1,,,,,ニッシンカンコウマチヅクリキョウカイ,0
917,4210001020187,新規,0,2025-05-29,2025-05-29,株式会社Ｌｉｉｖ４,,株式会社,福井県,坂井市,丸岡町上安田１８－５１－１,,18,210,9100362,,,,,,,2025-05-29,1,,,,,ライブフォー,0
922,4240001064990,新規,0,2025-05-29,2025-05-29,ＢＬＵＥ　ＳＫＹ株式会社,,株式会社,広島県,広島市西区,横川町２丁目５番１号,,34,104,7330011,,,,,,,2025-05-29,1,,,,,ブルースカイ,0
932,4260001040222,新規,0,2025-05-29,2025-05-29,株式会社リビングワークス,,株式会社,岡山県,岡山市北区,表町３丁目６番３４号,,33,101,7000822,,,,,,,2025-05-29,1,,,,,リビングワークス,0
933,4260001040230,新規,0,2025-05-29,2025-05-29,株式会社レステコホーム,,株式会社,岡山県,井原市,青野町２５９１番地,,33,207,7150012,,,,,,,2025-05-29,1,,,,,レステコホーム,0
937,4270001009209,新規,0,2025-05-29,2025-05-29,麻由株式会社,,株式会社,鳥取県,鳥取市,正蓮寺１１４番地５１,,31,201,6800854,,,,,,,2025-05-29,1,,,,,マユ,0
941,4290001109816,新規,0,2025-05-29,2025-05-29,株式会社八福マネジメント,,株式会社,福岡県,福岡市東区,香椎駅東３丁目１２番６９号,,40,131,8130012,,,,,,,2025-05-29,1,,,,,ハチフクマネジメント,0
942,4290001110146,新規,0,2025-05-29,2025-05-29,株式会社有光堂,,株式会社,福岡県,宗像市,広陵台１丁目２番地２０,,40,220,8114165,,,,,,,2025-05-29,1,,,,,ユウコウドウ,0
943,4290001110162,新規,0,2025-05-29,2025-05-29,株式会社ＮｉｋｏＬａｂ,,株式会社,福岡県,福岡市東区,和白丘３丁目２６－３３,,40,131,8110213,,,,,,,2025-05-29,1,,,,,ニコラボ,0
944,4290001110179,新規,0,2025-05-29,2025-05-29,株式会社Ｐｅｔａｌ,,株式会社,福岡県,福岡市東区,香椎浜４丁目５番２－５１４号,,40,131,8130016,,,,,,,2025-05-29,1,,,,,ペタル,0
945,4290001110220,新規,0,2025-05-29,2025-05-29,株式会社健隼会,,株式会社,福岡県,福岡市東区,多の津５丁目２３番１８号,,40,131,8130034,,,,,,,2025-05-29,1,,,,,ケンシュンカイ,0
946,4290003016911,新規,0,2025-05-29,2025-05-29,ＧＲａＶｉＴＹ合同会社,,合同会社,福岡県,福岡市城南区,西片江２丁目１２－１４,,40,136,8140141,,,,,,,2025-05-29,1,,,,,グラビティー,0
947,4290005019763,新規,0,2025-05-29,2025-05-29,Ｂｒｉｌｌｉａ　Ｔｏｗｅｒ西新管理組合法人,,その他の設立登記法人,福岡県,福岡市早良区,西新４丁目１番１号Ｂｒｉｌｌｉａ　Ｔｏｗｅｒ西新内,,40,137,8140002,,,,,,,2025-05-29,1,,,,,ブリリアタワーニシジン,0
952,4290803005064,新規,0,2025-05-29,2025-05-29,合同会社Ｐｌａｃｅ,,合同会社,福岡県,直方市,大字頓野２０２１番地４,,40,204,8220002,,,,,,,2025-05-29,1,,,,,プレイス,0
957,4330001033235,新規,0,2025-05-29,2025-05-29,株式会社リーフスクエア,,株式会社,熊本県,熊本市北区,武蔵ケ丘９丁目３番１５号４０２号,,43,105,8618001,,,,,,,2025-05-29,1,,,,,リーフスクエア,0
959,4330003011024,新規,0,2025-05-29,2025-05-29,合同会社ＲＥＢＯＲＮ,,合同会社,熊本県,熊本市中央区,水前寺６丁目１０番３１号ホワイトステージ水前寺３０２,,43,101,8620950,,,,,,,2025-05-29,1,,,,,リボーン,0
960,4340001027351,新規,0,2025-05-29,2025-05-29,株式会社つなぐ,,株式会社,鹿児島県,出水市,大野原町３０６番地２,,46,208,8990216,,,,,,,2025-05-29,1,,,,,ツナグ,0
961,4340001027368,新規,0,2025-05-29,2025-05-29,ｎｉｓｓｉｎフロンティア株式会社,,株式会社,鹿児島県,姶良市,東餅田３７７７番地１,,46,225,8995421,,,,,,,2025-05-29,1,,,,,ニッシンフロンティア,0
962,4340003004860,新規,0,2025-05-29,2025-05-29,合同会社絆建装,,合同会社,鹿児島県,薩摩川内市,樋脇町塔之原６６９番地２,,46,215,8951202,,,,,,,2025-05-29,1,,,,,キズナケンソウ,0
967,4360001035261,新規,0,2025-05-29,2025-05-29,ＢＬＵＥ建築設計株式会社,,株式会社,沖縄県,那覇市,字上之屋３１４番地２サンメディアビル３０１,,47,201,9000011,,,,,,,2025-05-29,1,,,,,ブルーケンチクセッケイ,0
968,4360001035278,新規,0,2025-05-29,2025-05-29,株式会社ＬＯＶＥ　ＴＨＡＮＫ　ＹＯＵ　ＴＯＯ,,株式会社,沖縄県,国頭郡国頭村,字辺土名１４２９番地,,47,301,9051411,,,,,,,2025-05-29,1,,,,,ラブセンキュートゥー,0
970,4360003014949,新規,0,2025-05-29,2025-05-29,地域資源でふるさとづくり・国頭浜合同会社,,合同会社,沖縄県,国頭郡国頭村,字浜２３４番地,,47,301,9051415,,,,,,,2025-05-29,1,,,,,チイキシゲンデフルサトヅクリクニガミハマ,0
973,4370001052611,新規,0,2025-05-29,2025-05-29,株式会社Ｅ‐エステート,,株式会社,宮城県,仙台市太白区,東中田１丁目２３番２号,,04,104,9811107,,,,,,,2025-05-29,1,,,,,イーエステート,0
974,4380001035350,新規,0,2025-05-29,2025-05-29,株式会社ｊｏｙ　Ｄ,,株式会社,福島県,双葉郡浪江町,大字権現堂字新町４５番地１,,07,547,9791521,,,,,,,2025-05-29,1,,,,,ジョイディー,0
988,4470001020731,新規,0,2025-05-29,2025-05-29,株式会社ミラシエ,,株式会社,香川県,善通寺市,善通寺町２丁目７番１３号,,37,204,7650003,,,,,,,2025-05-29,1,,,,,ミラシエ,0
997,4700150130778,新規,0,2025-05-29,2025-05-29,Ｄｏｎｇｇｕａｎｓｈｉｒｕｉｔｅｅｒｑｉｙｅｇｕａｎｌｉｙｏｕｘｉａｎｇｏｎｇｓｉ,,外国会社等,,,,,,,,Ｄｏｎｇｃｈｅｎｇｊｉｅｄａｏｓｈｉｈｕａｎｌｕ５ｈａｏ２ｄｏｎｇ４１７９ｓｈｉ，Ｄｏｎｇｇｕａｎｓｈｉ，Ｇｕａｎｇｄｏｎｇｓｈｅｎｇ，５２３１１６,,,,,,2025-05-29,1,,,,,トウガンシルトアキギヨウカンリカンパニーリミテツト,0
998,4700150130794,新規,0,2025-05-29,2025-05-29,Ｍｏｒｇａｎ　Ｓｔａｎｌｅｙ　Ｃａｐｉｔａｌ　Ｇｒｏｕｐ（Ｓｉｎｇａｐｏｒｅ）Ｐｔｅ．,,外国会社等,,,,,,,,２　Ｃｅｎｔｒａｌ　Ｂｏｕｌｅｖａｒｄ　＃２２－０１　Ｗｅｓｔ　Ｔｏｗｅｒ　ＩＯＩ　Ｃｅｎｔｒａｌ　Ｂｏｕｌｅｖａｒｄ　Ｔｏｗｅｒｓ　Ｓｉｎｇａｐｏｒｅ,,,,,,2025-05-29,1,,,,,モルガンスタンレーキヤピタルグループシンガポールプライベートリミテツド,0
1005,5010001255414,新規,0,2025-05-29,2025-05-29,ＲＥＩ　Ｔｏｋｙｏ株式会社,,株式会社,東京都,中央区,日本橋兜町１７番１号日本橋ロイヤルプラザ７０６,,13,102,1030026,,,,,,,2025-05-29,1,,,,,レイトウキョウ,0
1006,5010001255430,新規,0,2025-05-29,2025-05-29,株式会社ＫＧａｉａ,,株式会社,東京都,中央区,日本橋人形町２丁目１０番５号エクセレントＫ６階,,13,102,1030013,,,,,,,2025-05-29,1,,,,,ケイガイア,0
1014,5010003047446,新規,0,2025-05-29,2025-05-29,合同会社ＯＩＪ,,合同会社,東京都,中央区,銀座３丁目３番１４号銀座グランディアＩＩビル６階,00139353,13,102,1040061,,,,,,,2025-05-29,1,,,,,オーアイジェイ,0
1015,5010003047479,新規,0,2025-05-29,2025-05-29,合同会社パイロットタクシー,,合同会社,東京都,文京区,小石川３丁目１７番１８号,,13,105,1120002,,,,,,,2025-05-29,1,,,,,パイロットタクシー,0
1017,5010005040102,新規,0,2025-05-29,2025-05-29,Ｓａｋｕｒａ　Ｂａｔｔｅｒｙ一般社団法人,,その他の設立登記法人,東京都,千代田区,霞が関３丁目２番５号,,13,101,1000013,,,,,,,2025-05-29,1,,,,,サクラバッテリー,0
1021,5010401190533,新規,0,2025-05-29,2025-05-29,株式会社ＲＩＡＴＩＳ　Ｓｐｏｒｔｓ,,株式会社,東京都,港区,新橋４丁目１４番１新橋ＡＵＮＢＬＤＧ４階,,13,103,1050004,,,,,,,2025-05-29,1,,,,,リアティススポーツ,0
1022,5010401190608,新規,0,2025-05-29,2025-05-29,縁武株式会社,,株式会社,東京都,港区,南麻布３丁目１１番４１号,,13,103,1060047,,,,,,,2025-05-29,1,,,,,エンブ,0
1023,5010401190657,新規,0,2025-05-29,2025-05-29,株式会社豊川アドバイザリー,,株式会社,東京都,港区,赤坂４丁目９番２５号新東洋赤坂ビル２Ｆ,,13,103,1070052,,,,,,,2025-05-29,1,,,,,トヨカワアドバイザリー,0
1025,5010403035208,新規,0,2025-05-29,2025-05-29,合同会社ｍｉｃｈｉｔｅｌｌ,,合同会社,東京都,港区,北青山２丁目１２－８,,13,103,1070061,,,,,,,2025-05-29,1,,,,,ミチテル,0
1026,5010405024373,新規,0,2025-05-29,2025-05-29,一般社団法人日本研究所,,その他の設立登記法人,東京都,港区,赤坂１丁目１４番２号,,13,103,1070052,,,,,,,2025-05-29,1,,,,,ニホンケンキュウショ,0
1029,5010603011594,新規,0,2025-05-29,2025-05-29,Ｃｕｒａｌ合同会社,,合同会社,東京都,墨田区,亀沢４丁目１４番１０－６０５号,,13,107,1300014,,,,,,,2025-05-29,1,,,,,キュラル,0
1034,5010705003762,新規,0,2025-05-29,2025-05-29,一般社団法人Ｓｏｃｉａｌ　Ｄａｔａ　Ｌａｂ東京,,その他の設立登記法人,東京都,品川区,西五反田２丁目１８番３号,,13,109,1410031,,,,,,,2025-05-29,1,,,,,ソーシャルデータラボトウキョウ,0
1035,5010803005413,新規,0,2025-05-29,2025-05-29,合同会社ＬｕｕｕＸ,,合同会社,東京都,大田区,南馬込２丁目９－５,,13,111,1430025,,,,,,,2025-05-29,1,,,,,ルークス,0
1045,5011001170074,新規,0,2025-05-29,2025-05-29,株式会社コンタクト,,株式会社,東京都,渋谷区,道玄坂１丁目１０番８号渋谷道玄坂東急ビル２Ｆ－Ｃ,,13,113,1500043,,,,,,,2025-05-29,1,,,,,コンタクト,0
1046,5011001170116,新規,0,2025-05-29,2025-05-29,タロアセット管理株式会社,,株式会社,東京都,渋谷区,千駄ヶ谷３丁目２２番２号,,13,113,1510051,,,,,,,2025-05-29,1,,,,,タロアセットカンリ,0
1049,5011005011019,新規,0,2025-05-29,2025-05-29,弁護士法人エンべディッド,,その他の設立登記法人,東京都,渋谷区,西原２丁目１４－２０－１０５,,13,113,1510066,,,,,,,2025-05-29,1,,,,,エンベディッド,0
1053,5011303005572,新規,0,2025-05-29,2025-05-29,Ｃｅｎｔｒａｌ　Ｆｉｅｌｄ　Ｐａｒｔｎｅｒｓ合同会社,,合同会社,東京都,杉並区,高井戸東１丁目３１番４６号,,13,115,1680072,,,,,,,2025-05-29,1,,,,,セントラルフィールドパートナーズ,0
1054,5011403004714,新規,0,2025-05-29,2025-05-29,合同会社ミルココ,,合同会社,東京都,板橋区,小茂根１丁目１番４１－１２１４号,,13,119,1730037,,,,,,,2025-05-29,1,,,,,ミルココ,0
1055,5011503006552,新規,0,2025-05-29,2025-05-29,合同会社ＨＯＮＯＵＬＡＯ,,合同会社,東京都,荒川区,南千住８丁目１番１－２２７号,,13,118,1160003,,,,,,,2025-05-29,1,,,,,ホノアルアオ,0
1058,5011601028630,新規,0,2025-05-29,2025-05-29,森博株式会社,,株式会社,東京都,練馬区,北町３丁目１０番３号４０３,,13,120,1790081,,,,,,,2025-05-29,1,,,,,モリハク,0
1059,5011703004265,新規,0,2025-05-29,2025-05-29,合同会社Ｂｌｉｓｓ　Ｄｅｌｉ,,合同会社,東京都,江戸川区,松島３丁目１４番５号,,13,123,1320031,,,,,,,2025-05-29,1,,,,,ブレスデリ,0
1062,5012701018892,新規,0,2025-05-29,2025-05-29,在宅ＤＸ支援株式会社,,株式会社,東京都,西東京市,田無町２丁目９－６野崎ビル７０３号室,,13,229,1880011,,,,,,,2025-05-29,1,,,,,ザイタクディーエックスシエン,0
1063,5012703003281,新規,0,2025-05-29,2025-05-29,ＴＡＰ合同会社,,合同会社,東京都,東村山市,栄町１丁目３８番地４７,,13,213,1890013,,,,,,,2025-05-29,1,,,,,タップ,0
1073,5020001163079,新規,0,2025-05-29,2025-05-29,株式会社絆,,株式会社,神奈川県,横浜市保土ケ谷区,権太坂１丁目１０番６号,,14,106,2400026,,,,,,,2025-05-29,1,,,,,キズナ,0
1076,5020003028560,新規,0,2025-05-29,2025-05-29,合同会社ライフアップ,,合同会社,神奈川県,川崎市宮前区,菅生２丁目１４番２４－２号,,14,136,2160015,,,,,,,2025-05-29,1,,,,,ライフアップ,0
1077,5020003028569,新規,0,2025-05-29,2025-05-29,合同会社ＳＫ企画,,合同会社,神奈川県,横浜市鶴見区,生麦５丁目１５番１４号,,14,101,2300052,,,,,,,2025-05-29,1,,,,,エスケイキカク,0
1078,5020003028577,新規,0,2025-05-29,2025-05-29,合同会社ミヤコ電源,,合同会社,神奈川県,横浜市中区,住吉町１丁目１番地第３柳下ビル６０１,,14,104,2310013,,,,,,,2025-05-29,1,,,,,ミヤコデンゲン,0
1079,5020003028585,新規,0,2025-05-29,2025-05-29,合同会社ＥＮＺＯ,,合同会社,神奈川県,川崎市宮前区,けやき平１０番１－２０１号,,14,136,2160023,,,,,,,2025-05-29,1,,,,,エンゾー,0
1081,5021001085362,新規,0,2025-05-29,2025-05-29,ＧＦＥホールディングス株式会社,,株式会社,神奈川県,平塚市,紅谷町１６番７号Ｙｏ－ｎｉｎｅ８階８０１号室,,14,203,2540043,,,,,,,2025-05-29,1,,,,,ジーエフイーホールディングス,0
1087,5030001166741,新規,0,2025-05-29,2025-05-29,株式会社ＥＮＪ　ＦＯＲＣＥ,,株式会社,埼玉県,行田市,中央５－３,,11,206,3610078,,,,,,,2025-05-29,1,,,,,イーエヌジェイフォース,0
1088,5030001166799,新規,0,2025-05-29,2025-05-29,鎌倉総建株式会社,,株式会社,埼玉県,さいたま市岩槻区,宮町２丁目６番４１－６号,,11,110,3390065,,,,,,,2025-05-29,1,,,,,カマクラソウケン,0
1089,5030001166808,新規,0,2025-05-29,2025-05-29,株式会社トトノエ菓子,,株式会社,埼玉県,戸田市,下戸田２丁目１２番１６号北穂１Ｆ,,11,224,3350011,,,,,,,2025-05-29,1,,,,,トトノエガシ,0
1094,5030003026860,新規,0,2025-05-29,2025-05-29,ＳＩＹＯＮ　ＥＮＧＩＮＥＥＲＳ　ＪＡＰＡＮ合同会社,,合同会社,埼玉県,入間市,豊岡１丁目３番２５号半田ビル３階ＫＩＶオフィス入間Ｌ号室,,11,225,3580003,,,,,,,2025-05-29,1,,,,,シヨンエンジニアズジャパン,0
1098,5040001138962,新規,0,2025-05-29,2025-05-29,株式会社ｃｏｃｏ　ａｎｄ　Ｌａｂ．,,株式会社,千葉県,八千代市,八千代台西４丁目１２番７号,,12,221,2760034,,,,,,,2025-05-29,1,,,,,ココアンドラボ,0
1099,5040001138970,新規,0,2025-05-29,2025-05-29,株式会社ＲＹＣＥＮ,,株式会社,千葉県,千葉市若葉区,みつわ台１丁目１３番２号,,12,104,2640032,,,,,,,2025-05-29,1,,,,,ライセン,0
1100,5040001138979,新規,0,2025-05-29,2025-05-29,株式会社尋香流,,株式会社,千葉県,印旛郡酒々井町,中央台２丁目１８番地１８,,12,322,2850922,,,,,,,2025-05-29,1,,,,,ヒロガル,0
1108,5050005013640,新規,0,2025-05-29,2025-05-29,一般社団法人フィエルテＩＢＡＲＡＫＩ,,その他の設立登記法人,茨城県,那珂市,西木倉７８番地１,,08,226,3110115,,,,,,,2025-05-29,1,,,,,フィエルテイバラキ,0
1115,5080005007697,新規,0,2025-05-29,2025-05-29,エターナル八幡マンション管理組合法人,,その他の設立登記法人,静岡県,静岡市駿河区,八幡１丁目３番１３号,,22,102,4228076,,,,,,,2025-05-29,1,,,,,エターナルヤハタマンション,0
1118,5090003002831,新規,0,2025-05-29,2025-05-29,Ｃａｒ　Ｓｅｒｖｉｃｅ　ＡＲＴＥＸ合同会社,,合同会社,山梨県,甲斐市,富竹新田７０８番地７,,19,210,4000113,,,,,,,2025-05-29,1,,,,,カーサービスアルテックス,0
1123,5110001039294,新規,0,2025-05-29,2025-05-29,株式会社尾身電子,,株式会社,新潟県,十日町市,高島１０９８番地,,15,210,9480107,,,,,,,2025-05-29,1,,,,,オミデンシ,0
1130,5120001275970,新規,0,2025-05-29,2025-05-29,ホルニークジャパン株式会社,,株式会社,大阪府,大阪市中央区,谷町１丁目３－２３大手前愛晃ビル４０３,,27,128,5400012,,,,,,,2025-05-29,1,,,,,ホルニークジャパン,0
1131,5120001276226,新規,0,2025-05-29,2025-05-29,株式会社吉悦,,株式会社,大阪府,大阪市淀川区,西宮原２丁目６－１６新大阪コーポビアネーズ１０３２,,27,123,5320004,,,,,,,2025-05-29,1,,,,,キチエツ,0
1132,5120001276259,新規,0,2025-05-29,2025-05-29,株式会社チェンジ,,株式会社,大阪府,大阪市西区,北堀江３丁目１０－１７ＴＨＥ・ＨＩＧＨ・ＨＯＲＩＥ４１４,,27,106,5500014,,,,,,,2025-05-29,1,,,,,チェンジ,0
1133,5120001276275,新規,0,2025-05-29,2025-05-29,株式会社ＰＦ,,株式会社,大阪府,大阪市中央区,南本町２丁目１番１号本町サザンビル４０２号,,27,128,5410054,,,,,,,2025-05-29,1,,,,,ピーエフ,0
1134,5120001276300,新規,0,2025-05-29,2025-05-29,Ｙ．ａｌｉｖｉｏ株式会社,,株式会社,大阪府,大阪市平野区,加美北３丁目９－１１,,27,126,5470001,,,,,,,2025-05-29,1,,,,,ワイアリビオ,0
1135,5120001276317,新規,0,2025-05-29,2025-05-29,嘉麗浩商貿株式会社,,株式会社,大阪府,大阪市大正区,三軒家西３丁目４番１６号中山ビル１０１８,,27,108,5510001,,,,,,,2025-05-29,1,,,,,カレイコウショウボウ,0
1139,5120901050977,新規,0,2025-05-29,2025-05-29,株式会社大西,,株式会社,大阪府,豊中市,蛍池中町二丁目５番８号,,27,203,5600000,,,,,,,2025-05-29,1,,,,,オオニシ,0
1148,5130001079727,新規,0,2025-05-29,2025-05-29,株式会社アガパンサス,,株式会社,京都府,木津川市,相楽台６丁目２番地３０,,26,214,6190223,,,,,,,2025-05-29,1,,,,,アガパンサス,0
1149,5130003010499,新規,0,2025-05-29,2025-05-29,Ｊａｐａｎｅｓｅ　Ａｒｔｓ　Ｘ合同会社,,合同会社,京都府,京都市中京区,西大文字町５９９錦ＨＫビル４０３号,,26,104,6048054,,,,,,,2025-05-29,1,,,,,ジャパニーズアーツエックス,0
1153,5140001138770,新規,0,2025-05-29,2025-05-29,株式会社Ｂｏｗｌ,,株式会社,兵庫県,神戸市中央区,小野柄通５丁目５－５永原ビル２－Ｃ,,28,110,6510088,,,,,,,2025-05-29,1,,,,,ボウル,0
1156,5150001028161,新規,0,2025-05-29,2025-05-29,株式会社ＡＥＣ,,株式会社,奈良県,桜井市,大字川合２７２番地の４,,29,206,6330063,,,,,,,2025-05-29,1,,,,,エイイーシー,0
1157,5160001026791,新規,0,2025-05-29,2025-05-29,アルプス総合警備保障株式会社,,株式会社,滋賀県,長浜市,高田町８番２７号ヴューシャトー１０２号,,25,203,5260037,,,,,,,2025-05-29,1,,,,,アルプスソウゴウケイビホショウ,0
1159,5170003002220,新規,0,2025-05-29,2025-05-29,合同会社ＩＲＯＨＡ,,合同会社,和歌山県,有田郡有田川町,大字奥１３０３番地,,30,366,6430022,,,,,,,2025-05-29,1,,,,,イロハ,0
1166,5180001166982,新規,0,2025-05-29,2025-05-29,株式会社かいごｏｎシェルパ,,株式会社,愛知県,瀬戸市,春雨町３４番地の３３,,23,204,4890893,,,,,,,2025-05-29,1,,,,,カイゴオンシェルパ,0
1167,5180001166999,新規,0,2025-05-29,2025-05-29,Ｗａｙｓ　Ｇｌｏｂａｌ株式会社,,株式会社,愛知県,小牧市,大字岩崎１１００番地フォレストコートＩＩ１０２号,00139356,23,219,4850011,,,,,,,2025-05-29,1,,,,,ウェイズグローバル,0
1168,5180001167023,新規,0,2025-05-29,2025-05-29,ＢｅＥｎｔｏ株式会社,,株式会社,愛知県,名古屋市名東区,丁田町３番地,,23,115,4650027,,,,,,,2025-05-29,1,,,,,ビーエント,0
1169,5180001167048,新規,0,2025-05-29,2025-05-29,株式会社ｃｏｒ,,株式会社,愛知県,名古屋市西区,中小田井３丁目２３８番地の３,,23,104,4520822,,,,,,,2025-05-29,1,,,,,コル,0
1172,5180303006589,新規,0,2025-05-29,2025-05-29,夢叶庵合同会社,,合同会社,愛知県,豊田市,深見町常樂３８０－１,,23,211,4700441,,,,,,,2025-05-29,1,,,,,ユメトアン,0
1177,5220001026711,新規,0,2025-05-29,2025-05-29,株式会社山水壺,,株式会社,石川県,能美市,佐野町ロ３２－１,,17,211,9231112,,,,,,,2025-05-29,1,,,,,サンスイコ,0
1178,5220003004021,新規,0,2025-05-29,2025-05-29,合同会社Ｅｎｓｔｅａ,,合同会社,石川県,小松市,小寺町甲７７番地４,,17,203,9230806,,,,,,,2025-05-29,1,,,,,,0
1182,5240001064973,新規,0,2025-05-29,2025-05-29,株式会社ピリカＰＬＵＳ,,株式会社,広島県,福山市,本庄町中４丁目１４番３号,,34,207,7200076,,,,,,,2025-05-29,1,,,,,ピリカプラス,0
1187,5260003005189,新規,0,2025-05-29,2025-05-29,ＵＳ　ＴＲＡＤＩＮＧ合同会社,,合同会社,岡山県,玉野市,日比３丁目１２－２１,,33,204,7060027,,,,,,,2025-05-29,1,,,,,ユーエストレーディング,0
1188,5260003005197,新規,0,2025-05-29,2025-05-29,ネクサス合同会社,,合同会社,岡山県,岡山市北区,富田町１丁目８－２メゾン富田町６０１号室,,33,101,7000816,,,,,,,2025-05-29,1,,,,,ネクサス,0
1192,5280003001954,新規,0,2025-05-29,2025-05-29,合同会社わらいば,,合同会社,島根県,隠岐郡隠岐の島町,津戸７７,,32,528,6850105,,,,,,,2025-05-29,1,,,,,ワライバ,0
1201,5290001110178,新規,0,2025-05-29,2025-05-29,スカイレッジ株式会社,,株式会社,福岡県,福岡市東区,美和台２丁目２番６号,,40,131,8110212,,,,,,,2025-05-29,1,,,,,スカイレッジ,0
1202,5290001110186,新規,0,2025-05-29,2025-05-29,株式会社ｓｕｍｉｒｅ,,株式会社,福岡県,福岡市早良区,百道１丁目２９番１‐４０２号チュリス百道,,40,137,8140006,,,,,,,2025-05-29,1,,,,,スミレ,0
1203,5290001110194,新規,0,2025-05-29,2025-05-29,株式会社アスメイク,,株式会社,福岡県,八女市,立花町白木２１２９番地,,40,210,8340084,,,,,,,2025-05-29,1,,,,,アスメイク,0
1205,5290003016919,新規,0,2025-05-29,2025-05-29,合同会社コナユキ,,合同会社,福岡県,福岡市西区,大字宮浦１４３３番地１,,40,135,8190201,,,,,,,2025-05-29,1,,,,,コナユキ,0
1207,5290005019762,新規,0,2025-05-29,2025-05-29,一般社団法人ＫｎｏｃｋＫｎｏｃｋ,,その他の設立登記法人,福岡県,福岡市中央区,天神２丁目２番１２号Ｔ＆Ｊビルディング７Ｆ,,40,133,8100001,,,,,,,2025-05-29,1,,,,,ノックノック,0
1209,5300003002289,新規,0,2025-05-29,2025-05-29,合同会社和ご縁,,合同会社,佐賀県,佐賀市,兵庫町大字藤木１２８１番地９,,41,201,8490915,,,,,,,2025-05-29,1,,,,,ワゴエン,0
1215,5330001033226,新規,0,2025-05-29,2025-05-29,株式会社まつもとけんじ,,株式会社,熊本県,熊本市中央区,下通１丁目６番１３号森坂ビル４０１号,,43,101,8600807,,,,,,,2025-05-29,1,,,,,マツモトケンジ,0
1216,5330003011031,新規,0,2025-05-29,2025-05-29,合同会社グレース,,合同会社,熊本県,菊池郡大津町,大字引水２０番８,,43,403,8691234,,,,,,,2025-05-29,1,,,,,グレース,0
1218,5340001027367,新規,0,2025-05-29,2025-05-29,株式会社ナトゥラレサ,,株式会社,鹿児島県,鹿児島市,谷山中央６丁目３２番７号,,46,201,8910141,,,,,,,2025-05-29,1,,,,,ナトゥラレサ,0
1221,5350001019545,新規,0,2025-05-29,2025-05-29,株式会社ＬＵＭＩＲＯ,,株式会社,宮崎県,日向市,春原町１丁目７０,,45,206,8830035,,,,,,,2025-05-29,1,,,,,ルミロ,0
1222,5360001035269,新規,0,2025-05-29,2025-05-29,株式会社８１,,株式会社,沖縄県,那覇市,三原２丁目３７番１４号シャトレ８１、６階,,47,201,9020063,,,,,,,2025-05-29,1,,,,,ハチイチ,0
1223,5360001035277,新規,0,2025-05-29,2025-05-29,株式会社久松製麺所,,株式会社,沖縄県,宮古島市,平良字久貝１０６７番地８,,47,214,9060015,,,,,,,2025-05-29,1,,,,,ヒサマツセイメンジョ,0
1233,5430001094506,新規,0,2025-05-29,2025-05-29,株式会社デジデントワークス,,株式会社,北海道,札幌市南区,真駒内緑町３丁目２番５－５０２号,,01,106,0050013,,,,,,,2025-05-29,1,,,,,デジデントワークス,0
1234,5430001094530,新規,0,2025-05-29,2025-05-29,ＨＡＫＵ　ｃｒｅａｔｉｖｅ　ｃｏｎｃｅｐｔ株式会社,,株式会社,北海道,勇払郡厚真町,新町１５５番地,,01,581,0591623,,,,,,,2025-05-29,1,,,,,ハククリエイティブコンセプト,0
1235,5430003017712,新規,0,2025-05-29,2025-05-29,合同会社Ｃｏｔｏｐｉａ,,合同会社,北海道,札幌市中央区,北三条東３丁目１－９－６０１,,01,101,0600033,,,,,,,2025-05-29,1,,,,,コトピア,0
1236,5470005006627,新規,0,2025-05-29,2025-05-29,ＮＰＯ法人あずきの夢だんだん,,その他の設立登記法人,香川県,小豆郡小豆島町,田浦甲６５４番地１６,,37,324,7614424,,,,,,,2025-05-29,1,,,,,,0
1237,5480001012850,新規,0,2025-05-29,2025-05-29,株式会社Ｒｉｖｉｅｒａ,,株式会社,徳島県,三好市,山城町上名２１４９番７,,36,208,7795452,,,,,,,2025-05-29,1,,,,,リビエラ,0
1239,5500001026311,新規,0,2025-05-29,2025-05-29,株式会社ＭＯＲＡ,,株式会社,愛媛県,松山市,日の出町８番２０号Ｋ３８ｓｅｌｅｃｔｂａｓｅＢ棟,,38,201,7900961,,,,,,,2025-05-29,1,,,,,モラ,0
1242,5700150130769,新規,0,2025-05-29,2025-05-29,ＫＡＩＲＯＳ　ＭＯＭＥＮＴ　ＰＴＥ．ＬＴＤ．,,外国会社等,,,,,,,,３６　Ｄｏｖｅｒ　Ｒｉｓｅ，＃０１　０５，Ｓｉｎｇａｐｏｒｅ　１３８６８５,,,,,,2025-05-29,1,,,,,カイロスモーメントピーテイーイーエルテイーデイー,0
1243,5700150130777,新規,0,2025-05-29,2025-05-29,Ｚｈｅｎｇｚｈｏｕ　Ｇｅｆａｎ　Ｔｅｃｈｎｏｌｏｇｙ　Ｃｏ．，Ｌｔｄ．,,外国会社等,,,,,,,,Ｒｏｏｍ　１６０２，１６Ｆ，Ｂｌｏｃｋ　６，Ｖａｎｋｅ　Ｄａｄｕｈｕｉ　Ｈａｉｙｕｅｙｕａｎ，Ｊｉｎｙｕａｎ　Ｒｏａｄ　Ｗｅｓｔ，Ｙｕｙｉ　Ｒｏａｄ　Ｎｏｒｔｈ，Ｅｒｑｉ　Ｄｉｓｔｒｉｃ　Ｚｈｅｎｇｚｈｏｕ　Ｈｅｎａｎ,,,,,,2025-05-29,1,,,,,ジエンジヨウゲーフアンテクノロジーカンパニーリミテド,0
1244,5700150130793,新規,0,2025-05-29,2025-05-29,ＡＬＩ　ＭＡＣＨＩＮＥＲＩＥＳ,,外国会社等,茨城県,土浦市,桜町３丁目１４番６号,,08,203,3000037,スリランカ民主社会主義共和国、キャンディ、ヒーラッサガラ、ボワラワッタ、Ｎｏ．１８１,,,,,,2025-05-29,1,,,,,アリマシンナリーズ,0
1256,6010001255272,新規,0,2025-05-29,2025-05-29,株式会社グッドスマイルクラッチワークス,,株式会社,東京都,千代田区,外神田３丁目１６番１２号アキバＣＯビル８Ｆ,,13,101,1010021,,,,,,,2025-05-29,1,,,,,グッドスマイルクラッチワークス,0
1259,6010003047362,新規,0,2025-05-29,2025-05-29,Ａｋほうむサービス合同会社,,合同会社,東京都,中央区,日本橋室町１丁目１１番１２号日本橋水野ビル７階,,13,102,1030022,,,,,,,2025-05-29,1,,,,,エーケーホームサービス,0
1260,6010003047445,新規,0,2025-05-29,2025-05-29,ＧＴエナジー合同会社,,合同会社,東京都,中央区,東日本橋１丁目１番２０号,,13,102,1030004,,,,,,,2025-05-29,1,,,,,ジーティーエナジー,0
1263,6010005040084,新規,0,2025-05-29,2025-05-29,一般社団法人地域文化振興機構,,その他の設立登記法人,東京都,文京区,向丘１丁目７番８号Ｎｈｏｕｓｅ１階,,13,105,1130023,,,,,,,2025-05-29,1,,,,,チイキブンカシンコウキコウ,0
1268,6010401190581,新規,0,2025-05-29,2025-05-29,株式会社ガリ,,株式会社,東京都,港区,新橋２丁目１５番１３号,,13,103,1050004,,,,,,,2025-05-29,1,,,,,ガリ,0
1269,6010401190598,新規,0,2025-05-29,2025-05-29,三田４号株式会社,,株式会社,東京都,港区,浜松町２丁目２番１５号浜松町ダイヤビル２階,,13,103,1050013,,,,,,,2025-05-29,1,,,,,ミタヨンゴウ,0
1272,6010403035207,新規,0,2025-05-29,2025-05-29,合同会社ステラリンク,,合同会社,東京都,港区,北青山１丁目３番３号三橋ビル３階,,13,103,1070061,,,,,,,2025-05-29,1,,,,,ステラリンク,0
1273,6010403035223,新規,0,2025-05-29,2025-05-29,ヌーン合同会社,,合同会社,東京都,港区,元麻布３丁目４番９－３０４号,,13,103,1060046,,,,,,,2025-05-29,1,,,,,ヌーン,0
1278,6010801036186,新規,0,2025-05-29,2025-05-29,ｋｏｐｉ株式会社,,株式会社,東京都,大田区,西六郷３丁目２番１４－１３５号,,13,111,1440056,,,,,,,2025-05-29,1,,,,,コピ,0
1284,6010903009949,新規,0,2025-05-29,2025-05-29,浜田宏次郎合同会社,,合同会社,東京都,世田谷区,給田４丁目２７番６－１０７号,,13,112,1570064,,,,,,,2025-05-29,1,,,,,ハマダコウジロウ,0
1286,6011001169990,新規,0,2025-05-29,2025-05-29,Ｙ．Ｉ＆カンパニー株式会社,,株式会社,東京都,目黒区,南１丁目４番１５号,,13,110,1520013,,,,,,,2025-05-29,1,,,,,ワイドットアイアンドカンパニー,0
1292,6011101111811,新規,0,2025-05-29,2025-05-29,東京由米技術株式会社,,株式会社,東京都,新宿区,西新宿１丁目４番１１号,,13,104,1600023,,,,,,,2025-05-29,1,,,,,トウキョウユメギジュツ,0
1293,6011101111943,新規,0,2025-05-29,2025-05-29,ＣＯＤＡ　ＲＯＳＳＡ株式会社,,株式会社,東京都,新宿区,早稲田鶴巻町５７１番地９０１,,13,104,1620041,,,,,,,2025-05-29,1,,,,,コーダロッサ,0
1296,6011301030605,新規,0,2025-05-29,2025-05-29,株式会社トアメイ,,株式会社,東京都,杉並区,久我山３丁目１４番３１－１７号,,13,115,1680082,,,,,,,2025-05-29,1,,,,,トアメイ,0
1297,6011401027121,新規,0,2025-05-29,2025-05-29,株式会社日本エージェント,,株式会社,東京都,板橋区,常盤台４丁目６番８号,,13,119,1740071,,,,,,,2025-05-29,1,,,,,ニホンエージェント,0
1298,6011403004713,新規,0,2025-05-29,2025-05-29,ＮＡＶＩ合同会社,,合同会社,東京都,板橋区,高島平２丁目３３番６－９０９号,,13,119,1750082,,,,,,,2025-05-29,1,,,,,ナビー,0
1304,6012403007160,新規,0,2025-05-29,2025-05-29,みいの合同会社,,合同会社,東京都,三鷹市,北野２丁目１番１７号,,13,204,1810003,,,,,,,2025-05-29,1,,,,,ミイノ,0
1313,6020001163086,新規,0,2025-05-29,2025-05-29,Ｕｎｉｑｕｅ不動産株式会社,,株式会社,神奈川県,横浜市港北区,綱島台１１－４８,,14,109,2230054,,,,,,,2025-05-29,1,,,,,ユニークフドウサン,0
1323,6030001166641,新規,0,2025-05-29,2025-05-29,Ｙ＆Ｍ株式会社,,株式会社,埼玉県,春日部市,大沼３丁目２３番地２,,11,214,3440038,,,,,,,2025-05-29,1,,,,,,0
1324,6030001166732,新規,0,2025-05-29,2025-05-29,株式会社ＧＯＬＤ‐Ｋａｔａｏｋａ,,株式会社,埼玉県,川口市,西川口３丁目３２番９号メゾン里山西側中央店舗,,11,203,3320021,,,,,,,2025-05-29,1,,,,,ゴールドカタオカ,0
1325,6030001166781,新規,0,2025-05-29,2025-05-29,株式会社スナケンワークス,,株式会社,埼玉県,児玉郡美里町,大字円良田２３番地,,11,381,3670116,,,,,,,2025-05-29,1,,,,,スナケンワークス,0
1328,6030003026876,新規,0,2025-05-29,2025-05-29,百盛合同会社,,合同会社,埼玉県,蕨市,南町２丁目３１番２１号,,11,223,3350003,,,,,,,2025-05-29,1,,,,,ヒャクモリ,0
1337,6040003027700,新規,0,2025-05-29,2025-05-29,合同会社００１,,合同会社,千葉県,柏市,酒井根７丁目４番１３号,,12,217,2770053,,,,,,,2025-05-29,1,,,,,ゼロツーワン,0
1338,6040003027709,新規,0,2025-05-29,2025-05-29,Ａｅｒｉａｌｅｎｃｅ　Ｐａｒｔｎｅｒｓ合同会社,,合同会社,千葉県,浦安市,高洲４丁目３番１－１９１０号,,12,227,2790023,,,,,,,2025-05-29,1,,,,,エアリエンスパートナーズ,0
1340,6060001038235,新規,0,2025-05-29,2025-05-29,株式会社セラフォート,,株式会社,栃木県,日光市,森友１５６５番地３,,09,206,3212335,,,,,,,2025-05-29,1,,,,,セラフォート,0
1341,6070001042970,新規,0,2025-05-29,2025-05-29,株式会社亜紀商会,,株式会社,群馬県,前橋市,富士見町石井２４４５番地５１３,,10,201,3710105,,,,,,,2025-05-29,1,,,,,アキショウカイ,0
1342,6070005010395,新規,0,2025-05-29,2025-05-29,一般社団法人ＴａｍａｍｕｒａＴｒａｎｓｆｏｒｍａｔｉｏｎ,,その他の設立登記法人,群馬県,佐波郡玉村町,大字樋越１２４－３,,10,464,3701103,,,,,,,2025-05-29,1,,,,,,0
1344,6080001026956,新規,0,2025-05-29,2025-05-29,株式会社ブルーインミッチェル,,株式会社,静岡県,静岡市葵区,川合１丁目１番１１号,,22,101,4200923,,,,,,,2025-05-29,1,,,,,ブルーインミッチェル,0
1350,6090001019298,新規,0,2025-05-29,2025-05-29,株式会社ＡＬ,,株式会社,山梨県,甲府市,丸の内２丁目３９番４号,,19,201,4000031,,,,,,,2025-05-29,1,,,,,エイエル,0
1351,6100001038635,新規,0,2025-05-29,2025-05-29,株式会社８ｗｅｂ,,株式会社,長野県,諏訪郡原村,９６０９番地１,,20,363,3910100,,,,,,,2025-05-29,1,,,,,ハチウェブ,0
1352,6100003008181,新規,0,2025-05-29,2025-05-29,ＨＡＫＵＢＡ．ＣＺ合同会社,,合同会社,長野県,北安曇郡白馬村,大字北城字南原８２９番地１００,,20,485,3999301,,,,,,,2025-05-29,1,,,,,ハクバシーゼット,0
1353,6100005013361,新規,0,2025-05-29,2025-05-29,一般社団法人コモニング原村,,その他の設立登記法人,長野県,諏訪郡原村,１７２１７番地３８５１,,20,363,3910100,,,,,,,2025-05-29,1,,,,,コモニングハラムラ,0
1355,6110001039293,新規,0,2025-05-29,2025-05-29,株式会社荒井興業,,株式会社,新潟県,上越市,三和区広井１９９番地,,15,222,9420277,,,,,,,2025-05-29,1,,,,,アライコウギョウ,0
1357,6120001276299,新規,0,2025-05-29,2025-05-29,株式会社Ｊａｃｋｆｏｒｄ,,株式会社,大阪府,大阪市北区,天満４丁目８番３号第３ユニオンビル３階,,27,127,5300043,,,,,,,2025-05-29,1,,,,,ジャックフォード,0
1358,6120001276324,新規,0,2025-05-29,2025-05-29,潔瑞株式会社,,株式会社,大阪府,大阪市淀川区,東三国４丁目２１番９－８号,,27,123,5320002,,,,,,,2025-05-29,1,,,,,ケツミズ,0
1361,6120003029432,新規,0,2025-05-29,2025-05-29,力合同会社,,合同会社,大阪府,大阪市西成区,旭１丁目４－２０,,27,122,5570032,,,,,,,2025-05-29,1,,,,,チカラ,0
1366,6122001039272,新規,0,2025-05-29,2025-05-29,株式会社同人,,株式会社,大阪府,東大阪市,中小阪１丁目８番８号,,27,227,5770804,,,,,,,2025-05-29,1,,,,,ドウジン,0
1369,6130001079783,新規,0,2025-05-29,2025-05-29,株式会社ＢＭＢ‐ＣＡＲ,,株式会社,京都府,京都市伏見区,羽束師菱川町３０４番地１,,26,109,6128487,,,,,,,2025-05-29,1,,,,,ビーエムビーーシーエイアール,0
1371,6130003010498,新規,0,2025-05-29,2025-05-29,合同会社ＨＹＳ,,合同会社,京都府,京都市南区,東九条石田町１０番地の３,,26,107,6018032,,,,,,,2025-05-29,1,,,,,エイチワイエス,0
1373,6140001138695,新規,0,2025-05-29,2025-05-29,株式会社森澤装蹄所,,株式会社,兵庫県,尼崎市,田能２丁目２番２号,,28,202,6610951,,,,,,,2025-05-29,1,,,,,モリサワソウテイジョ,0
1382,6180001166998,新規,0,2025-05-29,2025-05-29,株式会社未来堂製薬,,株式会社,愛知県,名古屋市中区,栄１丁目１２番１７号,,23,106,4600008,,,,,,,2025-05-29,1,,,,,ミライドウセイヤク,0
1383,6180001167022,新規,0,2025-05-29,2025-05-29,株式会社Ｓｏｉ,,株式会社,愛知県,大府市,森岡町３丁目４６番地,,23,223,4740038,,,,,,,2025-05-29,1,,,,,ソーイ,0
1384,6180001167030,新規,0,2025-05-29,2025-05-29,株式会社ＣＲＥＳＴ,,株式会社,愛知県,名古屋市中村区,則武本通３丁目４３番地,,23,105,4530017,,,,,,,2025-05-29,1,,,,,クレスト,0
1385,6180001167039,新規,0,2025-05-29,2025-05-29,京通国際株式会社,,株式会社,愛知県,名古屋市南区,天白町２丁目６番地の３８,,23,112,4570803,,,,,,,2025-05-29,1,,,,,ケイツウコクサイ,0
1386,6180001167047,新規,0,2025-05-29,2025-05-29,株式会社ＤＤＤ,,株式会社,愛知県,名古屋市天白区,植田本町１丁目１１０４番,,23,116,4680007,,,,,,,2025-05-29,1,,,,,ディーディーディー,0
1390,6180003028536,新規,0,2025-05-29,2025-05-29,合同会社Ｍａｒｋｅｔ　Ｃｈｏｉｃｅ　Ｔｒａｄｉｎｇ,,合同会社,愛知県,犬山市,天神町３丁目６４番地,,23,215,4840073,,,,,,,2025-05-29,1,,,,,マーケットチョイストレーディング,0
1394,6190003005055,新規,0,2025-05-29,2025-05-29,合同会社Ｔａｎｏ,,合同会社,三重県,度会郡玉城町,田丸１３９番地８,,24,461,5190415,,,,,,,2025-05-29,1,,,,,タノ,0
1396,6200001043831,新規,0,2025-05-29,2025-05-29,株式会社キソウホールディングス,,株式会社,岐阜県,羽島市,桑原町大須７３２番地,,21,209,5016325,,,,,,,2025-05-29,1,,,,,キソウホールディングス,0
1397,6210001020185,新規,0,2025-05-29,2025-05-29,ヘルスケアＡＩ株式会社,,株式会社,福井県,福井市,日之出５丁目１５－１１,,18,201,9100859,,,,,,,2025-05-29,1,,,,,ヘルスケアエーアイ,0
1398,6220001026693,新規,0,2025-05-29,2025-05-29,株式会社ＲＥＢＵＩＬＤ,,株式会社,石川県,金沢市,横山町２２番３７号,,17,201,9200922,,,,,,,2025-05-29,1,,,,,リビルド,0
1400,6220003004045,新規,0,2025-05-29,2025-05-29,ＳＯＬ　ＩＮＦＩＮＩＴＯ合同会社,,合同会社,石川県,加賀市,山代温泉ル１１番地１,,17,206,9220242,,,,,,,2025-05-29,1,,,,,ソルインフィニト,0
1409,6280001009429,新規,0,2025-05-29,2025-05-29,株式会社レスキュー,,株式会社,島根県,松江市,古志原７丁目１０番３４－２号,,32,201,6900012,,,,,,,2025-05-29,1,,,,,レスキュー,0
1414,6290001110160,新規,0,2025-05-29,2025-05-29,株式会社福岡会計サポート,,株式会社,福岡県,福岡市中央区,小笹１丁目５番１６－７０２号,,40,133,8100033,,,,,,,2025-05-29,1,,,,,フクオカカイケイサポート,0
1415,6290001110193,新規,0,2025-05-29,2025-05-29,加藤工業株式会社,,株式会社,福岡県,福岡市東区,千早１丁目３０番１３号,,40,131,8130044,,,,,,,2025-05-29,1,,,,,カトウコウギョウ,0
1416,6290003016918,新規,0,2025-05-29,2025-05-29,福岡伊都総合研究所合同会社,,合同会社,福岡県,福岡市西区,今宿駅前１丁目４番４号ＲＴコート１０１,,40,135,8190168,,,,,,,2025-05-29,1,,,,,フクオカイトソウゴウケンキュウショ,0
1422,6300003002288,新規,0,2025-05-29,2025-05-29,合同会社Ｓｏｌａｒｉｓ,,合同会社,佐賀県,武雄市,武雄町大字永島１６０６０番地１,,41,206,8430021,,,,,,,2025-05-29,1,,,,,ソラリス,0
1424,6310001019606,新規,0,2025-05-29,2025-05-29,株式会社ＬａｎｄＧ,,株式会社,長崎県,長崎市,中川１丁目１１－１５－５０５,,42,201,8500013,,,,,,,2025-05-29,1,,,,,ランドジー,0
1429,6340005009872,新規,0,2025-05-29,2025-05-29,一般社団法人Ｇｌｏｂｅ　Ｖｉｓｉｏｎ　Ｓｃｉｅｎｃｅ,,その他の設立登記法人,鹿児島県,鹿児島市,中央町２９番地４,,46,201,8900053,,,,,,,2025-05-29,1,,,,,グローブビジョンサイエンス,0
1434,6350001019552,新規,0,2025-05-29,2025-05-29,株式会社ＲＵＢＯＮ,,株式会社,宮崎県,都城市,菖蒲原町５街区１号,,45,202,8850034,,,,,,,2025-05-29,1,,,,,ルボン,0
1437,6360001035251,新規,0,2025-05-29,2025-05-29,株式会社タビスル,,株式会社,沖縄県,豊見城市,字豊見城２９８番地２スカイファミール３０２号,,47,212,9010241,,,,,,,2025-05-29,1,,,,,タビスル,0
1438,6360001035284,新規,0,2025-05-29,2025-05-29,ＢＩＬＬＩＯＮＳ　ＴＲＡＶＥＬ　ＣＡＲ　ＲＥＮＴＡＬ株式会社,,株式会社,沖縄県,那覇市,字松川３００番地２－２０１号室,,47,201,9020062,,,,,,,2025-05-29,1,,,,,ビリオンズトラベルカーレンタル,0
1440,6360003014963,新規,0,2025-05-29,2025-05-29,合同会社Ｋａｊｉｙｕｉ,,合同会社,沖縄県,国頭郡今帰仁村,字諸志１１６番地,,47,306,9050426,,,,,,,2025-05-29,1,,,,,カジユイ,0
1446,6400001017047,新規,0,2025-05-29,2025-05-29,株式会社プラスエム,,株式会社,岩手県,大船渡市,大船渡町字地ノ森３３番地４,,03,203,0220002,,,,,,,2025-05-29,1,,,,,プラスエム,0
1454,6430001094521,新規,0,2025-05-29,2025-05-29,ハッピーファクトリー株式会社,,株式会社,北海道,札幌市厚別区,もみじ台西５丁目１２番１５号,,01,108,0040013,,,,,,,2025-05-29,1,,,,,ハッピーファクトリー,0
1455,6430001094538,新規,0,2025-05-29,2025-05-29,株式会社未来環境,,株式会社,北海道,札幌市南区,澄川三条５丁目４番５号,,01,106,0050003,,,,,,,2025-05-29,1,,,,,ミライカンキョウ,0
1461,6450001014634,新規,0,2025-05-29,2025-05-29,株式会社カーム,,株式会社,北海道,利尻郡利尻町,沓形字日出町６２番地１,,01,518,0970401,,,,,,,2025-05-29,1,,,,,カーム,0
1466,6490001011058,新規,0,2025-05-29,2025-05-29,株式会社ステラウェイ,,株式会社,高知県,吾川郡いの町,駅南町４－２,,39,386,7812106,,,,,,,2025-05-29,1,,,,,ステラウェイ,0
1470,6700150130768,新規,0,2025-05-29,2025-05-29,Ｐｒｉｍｅ　Ｌｉｇｈｔ　Ｖｅｎｔｕｒｅｓ　Ｌｉｍｉｔｅｄ,,外国会社等,,,,,,,,Ｐ．Ｏ．Ｂｏｘ　９５７　Ｏｆｆｓｈｏｒｅ　Ｉｎｃｏｒｐｏｒａｔｉｏｎｓ　Ｃｅｎｔｅｒ，Ｒｏａｄ　Ｔｏｗｎ，Ｔｏｒｔｏｌａ，ＢＶＩ,,,,,,2025-05-29,1,,,,,プライムライトベンチヤーズリミテツド,0
1471,6700150130776,新規,0,2025-05-29,2025-05-29,水産業協同組合中央会　大阪貿易事業所,,外国会社等,大阪府,大阪市北区,中崎２丁目４－２大阪韓国人会館４階,,27,127,5300016,ソウル特別市松坡区梧琴路６２（新川洞）,,,,,,2025-05-29,1,,,,,スイサンギヨウキヨウドウクミアイチユウオウカイオオサカボウエキジギヨウシヨ,0
1472,6700150130792,新規,0,2025-05-29,2025-05-29,志手原区,,その他,兵庫県,三田市,志手原４１１番地１,,28,219,6691506,,,,,,,2025-05-29,1,,,,,シデハラク,0
1476,7010001254777,新規,0,2025-05-29,2025-05-29,ＪＣＩＡグループ株式会社,,株式会社,東京都,中央区,日本橋３丁目１３番１１号,,13,102,1030027,,,,,,,2025-05-29,1,,,,,ジェーシーアイエーグループ,0
1477,7010001254991,新規,0,2025-05-29,2025-05-29,株式会社ＳＯＬＵＮＡ　ＪＡＰＡＮ,,株式会社,東京都,中央区,銀座１丁目１２番４号Ｎ＆Ｅ・ＢＬＤ．６Ｆ,,13,102,1040061,,,,,,,2025-05-29,1,,,,,ソルナジャパン,0
1478,7010001255461,新規,0,2025-05-29,2025-05-29,株式会社千河相続不動産鑑定,,株式会社,東京都,中央区,銀座１丁目２８番１２号,,13,102,1040061,,,,,,,2025-05-29,1,,,,,センカワソウゾクフドウサンカンテイ,0
1480,7010003047436,新規,0,2025-05-29,2025-05-29,Ｓｈｉｎｋａ　Ｉｎｄｕｓｔｒｉｅｓ合同会社,,合同会社,東京都,千代田区,霞が関３丁目２番６号東京倶楽部ビルディング１１階,,13,101,1000013,,,,,,,2025-05-29,1,,,,,シンカインダストリーズ,0
1481,7010003047444,新規,0,2025-05-29,2025-05-29,ＫＳ　Ｆｉｒｍａ合同会社,,合同会社,東京都,中央区,銀座１丁目２２番１１号銀座大竹ビジデンス２Ｆ,,13,102,1040061,,,,,,,2025-05-29,1,,,,,ケーエスフィルマ,0
1482,7010003047477,新規,0,2025-05-29,2025-05-29,ＳＩロジスティクスＩＩ合同会社,,合同会社,東京都,千代田区,内神田１丁目３番７号４０１あすな会計事務所内,,13,101,1010047,,,,,,,2025-05-29,1,,,,,エスアイロジスティクスツー,0
1483,7010003047485,新規,0,2025-05-29,2025-05-29,合同会社福岡今津蓄電所,,合同会社,東京都,千代田区,平河町１丁目３番６号４階,,13,101,1020093,,,,,,,2025-05-29,1,,,,,フクオカイマヅチクデンショ,0
1491,7010401190548,新規,0,2025-05-29,2025-05-29,株式会社もみじトラスト,,株式会社,東京都,港区,芝浦４丁目２１番１－３９１０号,,13,103,1080023,,,,,,,2025-05-29,1,,,,,モミジトラスト,0
1492,7010401190589,新規,0,2025-05-29,2025-05-29,株式会社８９ＰＲＯＤＵＣＥ,,株式会社,東京都,港区,北青山１丁目３－３三橋ビル３Ｆ,,13,103,1070061,,,,,,,2025-05-29,1,,,,,エイティーナインプロデュース,0
1493,7010401190597,新規,0,2025-05-29,2025-05-29,ＫｏｒａｌＴｅｃｈ株式会社,,株式会社,東京都,港区,南青山３丁目１番３６号青山丸竹ビル６Ｆ,,13,103,1070062,,,,,,,2025-05-29,1,,,,,コーラルテック,0
1494,7010401190630,新規,0,2025-05-29,2025-05-29,株式会社ＬＩＦＩＸ,,株式会社,東京都,港区,赤坂６丁目１０番４５－４０５号,,13,103,1070052,,,,,,,2025-05-29,1,,,,,リフィックス,0
1497,7010403035197,新規,0,2025-05-29,2025-05-29,合同会社ルミナス,,合同会社,東京都,港区,高輪４丁目１２－１５パレス高輪６０３,,13,103,1080074,,,,,,,2025-05-29,1,,,,,ルミナス,0
1498,7010403035214,新規,0,2025-05-29,2025-05-29,合同会社Ｆｌｏｗｅｒｉｃ,,合同会社,東京都,港区,北青山１丁目３番１号アールキューブ青山３階,,13,103,1070061,,,,,,,2025-05-29,1,,,,,フラワリック,0
1499,7010403035222,新規,0,2025-05-29,2025-05-29,Ｐｒｉｍｅ　Ｌｅａｒｎｅｒｓ合同会社,,合同会社,東京都,港区,北青山１丁目３－３三橋ビル３階,,13,103,1070061,,,,,,,2025-05-29,1,,,,,プライムラーナーズ,0
1500,7010403035230,新規,0,2025-05-29,2025-05-29,ＣＮＴｄｅｓｋ合同会社,,合同会社,東京都,港区,北青山１丁目３－１アールキューブ青山３Ｆ,,13,103,1070061,,,,,,,2025-05-29,1,,,,,シーエヌティーデスク,0
1502,7010601067364,新規,0,2025-05-29,2025-05-29,ｅ‐和楽株式会社,,株式会社,東京都,江東区,枝川２丁目９番２号,,13,108,1350051,,,,,,,2025-05-29,1,,,,,イーワラク,0
1505,7010803005411,新規,0,2025-05-29,2025-05-29,山王マネジメント合同会社,,合同会社,東京都,大田区,山王２丁目１６番１９号,,13,111,1430023,,,,,,,2025-05-29,1,,,,,サンノウマネジメント,0
1516,7011101111744,新規,0,2025-05-29,2025-05-29,株式会社和旭,,株式会社,東京都,新宿区,百人町１丁目１８－８大久保カドビル８階Ａ１０,,13,104,1690073,,,,,,,2025-05-29,1,,,,,ワキュウ,0
1520,7011203004706,新規,0,2025-05-29,2025-05-29,ポウセ合同会社,,合同会社,東京都,中野区,弥生町３丁目３４番１号,,13,114,1640013,,,,,,,2025-05-29,1,,,,,ポウセ,0
1523,7011501032128,新規,0,2025-05-29,2025-05-29,株式会社蘭,,株式会社,東京都,北区,豊島２丁目１０番６号２０７室,,13,117,1140003,,,,,,,2025-05-29,1,,,,,ラン,0
1524,7011501032136,新規,0,2025-05-29,2025-05-29,株式会社空,,株式会社,東京都,北区,西ケ原１丁目５番５号,,13,117,1140024,,,,,,,2025-05-29,1,,,,,ソラ,0
1525,7011501032144,新規,0,2025-05-29,2025-05-29,株式会社善方国際医療グループ,,株式会社,東京都,北区,浮間１丁目７－２３兆豊浮間ビル５０２号室,,13,117,1150051,,,,,,,2025-05-29,1,,,,,ゼンカタコクサイイリョウグループ,0
1539,7011801046125,新規,0,2025-05-29,2025-05-29,株式会社ｕｎｉｏｎ,,株式会社,東京都,葛飾区,西亀有２丁目３９番３号,,13,122,1240002,,,,,,,2025-05-29,1,,,,,ユニオン,0
1540,7011801046208,新規,0,2025-05-29,2025-05-29,Ｓｔａｒｒｙｓｋｙ株式会社,,株式会社,東京都,葛飾区,西新小岩５丁目２８番２０号,,13,122,1240025,,,,,,,2025-05-29,1,,,,,スターリースカイ,0
1541,7011801046224,新規,0,2025-05-29,2025-05-29,株式会社ビルテック．ｃｏｍ,,株式会社,東京都,足立区,西新井栄町２丁目１９番１５号小林ビル１Ｆ,,13,121,1230843,,,,,,,2025-05-29,1,,,,,ビルテックドットコム,0
1557,7020001163052,新規,0,2025-05-29,2025-05-29,ＳＫＹネクスト株式会社,,株式会社,神奈川県,横浜市保土ケ谷区,仏向町１３２０番地９,,14,106,2400044,,,,,,,2025-05-29,1,,,,,スカイネクスト,0
1559,7020003028550,新規,0,2025-05-29,2025-05-29,未来産業合同会社,,合同会社,神奈川県,横浜市保土ケ谷区,上菅田町１３３３番地７,,14,106,2400051,,,,,,,2025-05-29,1,,,,,ミライサンギョウ,0
1560,7020003028583,新規,0,2025-05-29,2025-05-29,合同会社オリット,,合同会社,神奈川県,川崎市中原区,上丸子山王町２丁目１３２１番地１４号,,14,133,2110002,,,,,,,2025-05-29,1,,,,,オリット,0
1566,7030001166698,新規,0,2025-05-29,2025-05-29,株式会社ＳＵＭＢＨＡ,,株式会社,埼玉県,鶴ヶ島市,脚折町１丁目３８番３－１０３号ケイコウコ－ポＩＩＩ,00139354,11,241,3502211,,,,,,,2025-05-29,1,,,,,スンバ,0
1567,7030001166731,新規,0,2025-05-29,2025-05-29,株式会社サンレッジガーデン,,株式会社,埼玉県,ふじみ野市,緑ケ丘２丁目１番１３号,,11,245,3560043,,,,,,,2025-05-29,1,,,,,サンレッジガーデン,0
1568,7030001166780,新規,0,2025-05-29,2025-05-29,株式会社ＳＳ商事,,株式会社,埼玉県,朝霞市,本町２丁目１０番地１,,11,227,3510011,,,,,,,2025-05-29,1,,,,,エスエスショウジ,0
1569,7030001166797,新規,0,2025-05-29,2025-05-29,株式会社ＸＦＯ,,株式会社,埼玉県,ふじみ野市,北野２丁目６番１７号グランディール上福岡ＩＩ２０１,00139357,11,245,3560007,,,,,,,2025-05-29,1,,,,,エックスエフオー,0
1572,7040001138969,新規,0,2025-05-29,2025-05-29,株式会社大仁,,株式会社,千葉県,長生郡長柄町,山根１９８２番地１０,,12,426,2970206,,,,,,,2025-05-29,1,,,,,ダイジン,0
1573,7040001138977,新規,0,2025-05-29,2025-05-29,欣怡株式会社,,株式会社,千葉県,千葉市若葉区,御殿町７２０番地１,,12,104,2650074,,,,,,,2025-05-29,1,,,,,シンイ,0
1574,7040003027674,新規,0,2025-05-29,2025-05-29,合同会社ホワイトボックスプラス,,合同会社,千葉県,我孫子市,湖北台５丁目３番７号,,12,222,2701132,,,,,,,2025-05-29,1,,,,,ホワイトボックスプラス,0
1575,7040003027708,新規,0,2025-05-29,2025-05-29,合同会社北海道みつぼし農園,,合同会社,千葉県,旭市,鎌数７０８３番地４,,12,215,2892505,,,,,,,2025-05-29,1,,,,,ホッカイドウミツボシノウエン,0
1583,7070003005941,新規,0,2025-05-29,2025-05-29,ＵＺＵ合同会社,,合同会社,群馬県,伊勢崎市,境保泉１丁目２１番地１,,10,204,3700128,,,,,,,2025-05-29,1,,,,,ウズ,0
1588,7080101025510,新規,0,2025-05-29,2025-05-29,すぐろ電装株式会社,,株式会社,静岡県,伊豆市,八幡６４９番地の１,,22,222,4102505,,,,,,,2025-05-29,1,,,,,スグロデンソウ,0
1596,7100005013352,新規,0,2025-05-29,2025-05-29,特定非営利活動法人イノセントリング,,その他の設立登記法人,長野県,諏訪市,大和３丁目１４番３号,,20,206,3920001,,,,,,,2025-05-29,1,,,,,イノセントリング,0
1598,7110001039292,新規,0,2025-05-29,2025-05-29,シンセイ工業株式会社,,株式会社,新潟県,新潟市西区,松海が丘１丁目１０番１４号,,15,107,9502075,,,,,,,2025-05-29,1,,,,,シンセイコウギョウ,0
1605,7120001276026,新規,0,2025-05-29,2025-05-29,呈盛商事株式会社,,株式会社,大阪府,大阪市西区,靭本町一丁目１５番１０－５０６号,,27,106,5500000,,,,,,,2025-05-29,1,,,,,テイセイショウジ,0
1606,7120001276216,新規,0,2025-05-29,2025-05-29,株式会社ＹＭＩアカデミー,,株式会社,大阪府,大阪市天王寺区,味原町１３番１２号岩本ビル４階,,27,109,5430023,,,,,,,2025-05-29,1,,,,,ワイエムアイアカデミー,0
1607,7120001276257,新規,0,2025-05-29,2025-05-29,株式会社エスフォト,,株式会社,大阪府,大阪市北区,梅田１丁目２番２号大阪駅前第２ビル１２－１２,,27,127,5300001,,,,,,,2025-05-29,1,,,,,エスフォト,0
1608,7120001276356,新規,0,2025-05-29,2025-05-29,株式会社ソルテックエナジー,,株式会社,大阪府,大阪市北区,太融寺町３番２４号日本生命梅田第二ビル,,27,127,5300051,,,,,,,2025-05-29,1,,,,,ソルテックエナジー,0
1609,7120003029588,新規,0,2025-05-29,2025-05-29,ＯＹ建装合同会社,,合同会社,大阪府,寝屋川市,平池町３１番１９号,,27,215,5720839,,,,,,,2025-05-29,1,,,,,オーワイケンソウ,0
1620,7120901050975,新規,0,2025-05-29,2025-05-29,株式会社不動産管理,,株式会社,大阪府,摂津市,一津屋２丁目１１番２号,,27,224,5660043,,,,,,,2025-05-29,1,,,,,フドウサンカンリ,0
1624,7130001079766,新規,0,2025-05-29,2025-05-29,株式会社ＧＲＡＷＩＮ,,株式会社,京都府,京都市中京区,上松屋町７０１－１－１０２,,26,104,6040035,,,,,,,2025-05-29,1,,,,,グラウィン,0
1625,7130001079774,新規,0,2025-05-29,2025-05-29,株式会社すきま,,株式会社,京都府,京都市左京区,岡崎西福ノ川町１０番地１３,,26,103,6068326,,,,,,,2025-05-29,1,,,,,スキマ,0
1626,7130003010497,新規,0,2025-05-29,2025-05-29,合同会社ＨＹＭＥＴＩＡ,,合同会社,京都府,京都市下京区,七条通油小路東入大黒町２２７番地第２キョートビル４０２,,26,106,6008223,,,,,,,2025-05-29,1,,,,,ハイメティア,0
1627,7140001138728,新規,0,2025-05-29,2025-05-29,株式会社米花,,株式会社,兵庫県,神戸市東灘区,深江北町４丁目１１番６－４０５号,,28,101,6580013,,,,,,,2025-05-29,1,,,,,マイカ,0
1632,7180001166997,新規,0,2025-05-29,2025-05-29,株式会社Ｒｅｗａｒｄ,,株式会社,愛知県,一宮市,萩原町高木字東浦３２番地２,,23,203,4910371,,,,,,,2025-05-29,1,,,,,リワード,0
1633,7180001167054,新規,0,2025-05-29,2025-05-29,三陽グループ株式会社,,株式会社,愛知県,江南市,田代町郷中１５３番地,,23,217,4838138,,,,,,,2025-05-29,1,,,,,サンヨウグループ,0
1636,7180003028535,新規,0,2025-05-29,2025-05-29,合同会社Ｂｌｉｓｓａｖｅｆｕｌ,,合同会社,愛知県,名古屋市中村区,松重町４番５５号（レーベン名古屋松重町ＧＲＡＮＤＡＵＢＥ７０６号）,,23,105,4500004,,,,,,,2025-05-29,1,,,,,ブリスセーブフル,0
1639,7190001032240,新規,0,2025-05-29,2025-05-29,株式会社Ｔ‐ｉｎｎｏｖａｔｉｏｎ,,株式会社,三重県,松阪市,大黒田町１６４５番地１,,24,204,5150063,,,,,,,2025-05-29,1,,,,,ティーイノベーション,0
1641,7200003006851,新規,0,2025-05-29,2025-05-29,合同会社ケアサポートそわか,,合同会社,岐阜県,岐阜市,下土居２丁目１０番２１号,,21,201,5020858,,,,,,,2025-05-29,1,,,,,ケアサポートソワカ,0
1644,7230001020918,新規,0,2025-05-29,2025-05-29,北陸すしアカデミー株式会社,,株式会社,富山県,富山市,新富町１丁目３番９号駅前プラザビル,,16,201,9300002,,,,,,,2025-05-29,1,,,,,ホクリクスシアカデミー,0
1650,7250001021138,新規,0,2025-05-29,2025-05-29,Ｎコンサルティング株式会社,,株式会社,山口県,柳井市,柳井３５６９番地３,,35,212,7420021,,,,,,,2025-05-29,1,,,,,エヌコンサルティング,0
1651,7260001040228,新規,0,2025-05-29,2025-05-29,ｓ　ｓｙｓｔｅｍ株式会社,,株式会社,岡山県,倉敷市,玉島１３６７番地１０,,33,202,7138102,,,,,,,2025-05-29,1,,,,,エスシステム,0
1652,7260003005195,新規,0,2025-05-29,2025-05-29,合同会社Ｈａｎａ,,合同会社,岡山県,岡山市北区,今１丁目５－２７カサ・セレーナ１０３号,,33,101,7000975,,,,,,,2025-05-29,1,,,,,ハナ,0
1658,7290001110143,新規,0,2025-05-29,2025-05-29,株式会社佑仁,,株式会社,福岡県,那珂川市,王塚台２丁目１２６番地,,40,231,8111221,,,,,,,2025-05-29,1,,,,,ユウト,0
1659,7290001110176,新規,0,2025-05-29,2025-05-29,株式会社Ａｏｆｆｉｃｅ,,株式会社,福岡県,福岡市博多区,博多駅前１丁目２３番１号ＰａｒｋＦｒｏｎｔ博多駅前１丁目５Ｆ－Ｂ,,40,132,8120011,,,,,,,2025-05-29,1,,,,,エーオフィス,0
1660,7290001110184,新規,0,2025-05-29,2025-05-29,株式会社ＶｅｒｑｉＡ,,株式会社,福岡県,福岡市中央区,天神２丁目５－２８,,40,133,8100001,,,,,,,2025-05-29,1,,,,,ヴェルキア,0
1661,7290001110192,新規,0,2025-05-29,2025-05-29,Ｋ‐ＶＩＳＩＯＮ株式会社,,株式会社,福岡県,福岡市東区,千早２丁目２７－１,,40,131,8130044,,,,,,,2025-05-29,1,,,,,ケイビジョン,0
1662,7290001110201,新規,0,2025-05-29,2025-05-29,株式会社Ｌｉｇ,,株式会社,福岡県,福岡市西区,愛宕南２丁目１０番９号,,40,135,8190007,,,,,,,2025-05-29,1,,,,,リグ,0
1669,7290801031563,新規,0,2025-05-29,2025-05-29,エヌテック株式会社,,株式会社,福岡県,北九州市若松区,藤ノ木２丁目６番４８号,,40,103,8080074,,,,,,,2025-05-29,1,,,,,エヌテック,0
1670,7300001014202,新規,0,2025-05-29,2025-05-29,株式会社凛,,株式会社,佐賀県,佐賀市,中央本町４番７号カモハラビル１Ｆ,,41,201,8400825,,,,,,,2025-05-29,1,,,,,リン,0
1673,7330001033232,新規,0,2025-05-29,2025-05-29,城南メンテナンス株式会社,,株式会社,熊本県,熊本市南区,城南町永８８３番地２,,43,104,8614234,,,,,,,2025-05-29,1,,,,,ジョウナンメンテナンス,0
1676,7360001035283,新規,0,2025-05-29,2025-05-29,株式会社澄玲,,株式会社,沖縄県,那覇市,牧志１丁目１９番２０号プレサンスロジェ美栄橋ステーションレーヴ６０１,,47,201,9000013,,,,,,,2025-05-29,1,,,,,スレイ,0
1681,7370001052633,新規,0,2025-05-29,2025-05-29,株式会社Ｒａｙ,,株式会社,宮城県,仙台市青葉区,五橋１丁目３番１－１３０２号,,04,101,9800022,,,,,,,2025-05-29,1,,,,,レイ,0
1682,7370005010967,新規,0,2025-05-29,2025-05-29,一般社団法人みさと鉄道,,その他の設立登記法人,宮城県,遠田郡美里町,字藤ケ崎１１６番地１２あっぷるハイツ２０１,,04,505,9870001,,,,,,,2025-05-29,1,,,,,ミサトテツドウ,0
1683,7380001035348,新規,0,2025-05-29,2025-05-29,福島創発技工株式会社,,株式会社,福島県,福島市,渡利字西ノ内２５番地の１４,,07,201,9608141,,,,,,,2025-05-29,1,,,,,フクシマソウハツギコウ,0
1685,7380003006058,新規,0,2025-05-29,2025-05-29,合同会社桜寿建創,,合同会社,福島県,いわき市,勿来町大高高松３６番地５,,07,204,9790144,,,,,,,2025-05-29,1,,,,,オウジュケンソウ,0
1689,7400001017046,新規,0,2025-05-29,2025-05-29,株式会社Ｋ＆Ｔリノベーション,,株式会社,岩手県,九戸郡軽米町,大字軽米第９地割４番地８,,03,501,0286302,,,,,,,2025-05-29,1,,,,,ケイアンドティーリノベーション,0
1692,7410003004108,新規,0,2025-05-29,2025-05-29,合同会社ｗｈｙ　ｎｏｔ,,合同会社,秋田県,鹿角市,花輪字三日市９番地５,,05,209,0185201,,,,,,,2025-05-29,1,,,,,ワイノット,0
1696,7420005007958,新規,0,2025-05-29,2025-05-29,一般社団法人アルビレオ,,その他の設立登記法人,青森県,青森市,大字安田字若松６０番地,,02,201,0380021,,,,,,,2025-05-29,1,,,,,アルビレオ,0
1702,7430001094537,新規,0,2025-05-29,2025-05-29,株式会社ＥＭＩＡＬ,,株式会社,北海道,札幌市南区,北ノ沢４丁目１番４０－１０８号,,01,106,0050832,,,,,,,2025-05-29,1,,,,,エミアル,0
1709,7500003003521,新規,0,2025-05-29,2025-05-29,合同会社テクノロジーセイル,,合同会社,愛媛県,松山市,北久米町４２７番地３,,38,201,7900923,,,,,,,2025-05-29,1,,,,,テクノロジーセイル,0
1714,7700150130767,新規,0,2025-05-29,2025-05-29,ＳＴＡＲＲＩＤＥＳ（ＨＫ）ＴＥＣＨＮＯＬＯＧＹ　ＣＯ．，ＬＩＭＩＴＥＤ,,外国会社等,,,,,,,,Ｈ０２０，３／Ｆ　ＰＨＡＳＥ　２　ＫＷＡＩ　ＳＨＩＮＧ　ＩＮＤ　ＢＬＤＧ　４２－４６　ＴＡＩ　ＬＩＮ　ＰＡＩ　ＲＤ　ＫＷＡＩ　ＣＨＵＮＧ，ＨＯＮＧ　ＫＯＮＧ,,,,,,2025-05-29,1,,,,,スターライドホンコンテクノロジーカンパニーリミテツド,0
1715,7700150130775,新規,0,2025-05-29,2025-05-29,ＪＡＳＯＮ　ＣＯＲＰＯＲＡＴＩＯＮ（ＨＫ）ＬＩＭＩＴＥＤ,,外国会社等,,,,,,,,Ｕｎｉｔ　１１０３，Ｆａｂｒｉｃｏ　Ｆａｃｔｏｒｙ　Ｂｌｄｇ．，７８－８４　Ｋｗａｉ　Ｃｈｅｏｎｇ　Ｒｄ，Ｎ．Ｔ．，Ｈｏｎｇ　Ｋｏｎｇ,,,,,,2025-05-29,1,,,,,ジエイソンコーポレーシヨンホンコンリミテツド,0
1716,7700150130791,新規,0,2025-05-29,2025-05-29,ＣＡＬＤＷＥＬＬ　ＩＮＴＥＬＬＥＣＴＵＡＬ　ＰＲＯＰＥＲＴＹ　ＬＡＷ　ＬＬＣ,,外国会社等,東京都,港区,赤坂２丁目５番８号　ヒューリックＪＰ赤坂ビル,,13,103,1070052,アメリカ合衆国０２１１６マサチューセッツ州、ボストン、クラレンドン・ストリート２００番、５９階,,,,,,2025-05-29,1,,,,,コールドウエルインテレクチユアルプロパテイローエルエルシー,0
1725,8010001255196,新規,0,2025-05-29,2025-05-29,株式会社ＣＹＰＨＩＣ,,株式会社,東京都,千代田区,神田須田町１丁目１４番１号ヒューリック神田須田町ビル２Ｆ,,13,101,1010041,,,,,,,2025-05-29,1,,,,,サイフィク,0
1726,8010001255353,新規,0,2025-05-29,2025-05-29,株式会社ベクトル・ホールディングス,,株式会社,東京都,千代田区,紀尾井町３番１２号紀尾井町ビル６階,,13,101,1020094,,,,,,,2025-05-29,1,,,,,ベクトルホールディングス,0
1727,8010001255477,新規,0,2025-05-29,2025-05-29,株式会社シンリュウ・ホールディングス,,株式会社,東京都,千代田区,神田神保町３丁目１２－３神保町スリービル８階,,13,101,1010051,,,,,,,2025-05-29,1,,,,,シンリュウホールディングス,0
1728,8010003047427,新規,0,2025-05-29,2025-05-29,ロイテクノロジー合同会社,,合同会社,東京都,文京区,千石４丁目１４番９号,,13,105,1120011,,,,,,,2025-05-29,1,,,,,ロイテクノロジー,0
1729,8010003047476,新規,0,2025-05-29,2025-05-29,ＳＩロジスティクスＩ合同会社,,合同会社,東京都,千代田区,内神田１丁目３番７号４０１あすな会計事務所内,,13,101,1010047,,,,,,,2025-05-29,1,,,,,エスアイロジスティクスワン,0
1730,8010003047492,新規,0,2025-05-29,2025-05-29,合同会社ＭＡＲＵ　ｃａｐｉｔａｌ,,合同会社,東京都,千代田区,神田司町２丁目９番地２,,13,101,1010048,,,,,,,2025-05-29,1,,,,,マルキャピタル,0
1741,8010401190605,新規,0,2025-05-29,2025-05-29,株式会社ＦＯＲＴＵＮＥＬＬ,,株式会社,東京都,港区,虎ノ門３丁目１４番１―１６０４号,,13,103,1050001,,,,,,,2025-05-29,1,,,,,フォーチュネル,0
1742,8010401190646,新規,0,2025-05-29,2025-05-29,株式会社ＥＮＹＡ,,株式会社,東京都,港区,南青山３丁目１番３６号青山丸竹ビル６Ｆ,,13,103,1070062,,,,,,,2025-05-29,1,,,,,エンヤ,0
1743,8010401190670,新規,0,2025-05-29,2025-05-29,北境之光株式会社,,株式会社,東京都,港区,麻布台１丁目６番８号,,13,103,1060041,,,,,,,2025-05-29,1,,,,,ホッキョウノヒカリ,0
1744,8010401190679,新規,0,2025-05-29,2025-05-29,株式会社Ｊｉｎｓｉｇｈｔ　Ｔｅｃｈｎｏｌｏｇｉｅｓ,,株式会社,東京都,港区,新橋４丁目２１－３新橋東急ビル２Ｆ・３Ｆ,,13,103,1050004,,,,,,,2025-05-29,1,,,,,ジンサイトテクノロジーズ,0
1752,8010403035221,新規,0,2025-05-29,2025-05-29,合同会社ｉｔｏｍａ,,合同会社,東京都,港区,北青山１丁目３番１号アールキューブ青山３階,,13,103,1070061,,,,,,,2025-05-29,1,,,,,イトマ,0
1760,8010901057452,新規,0,2025-05-29,2025-05-29,株式会社アプリコットホームズ,,株式会社,東京都,世田谷区,下馬６丁目２２番１４号,,13,112,1540002,,,,,,,2025-05-29,1,,,,,アプリコットホームズ,0
1771,8011001169601,新規,0,2025-05-29,2025-05-29,株式会社ＳＥＴ,,株式会社,東京都,目黒区,中町１丁目３３番１０号,,13,110,1530065,,,,,,,2025-05-29,1,,,,,エスイーティー,0
1772,8011001170146,新規,0,2025-05-29,2025-05-29,株式会社マオ,,株式会社,東京都,渋谷区,千駄ヶ谷１丁目１４番１号神宮外苑テラス２０２,,13,113,1510051,,,,,,,2025-05-29,1,,,,,マオ,0
1775,8011003021264,新規,0,2025-05-29,2025-05-29,ＢＵＤＤＹ合同会社,,合同会社,東京都,渋谷区,道玄坂１丁目１０番８号渋谷道玄坂東急ビル２Ｆ－Ｃ,,13,113,1500043,,,,,,,2025-05-29,1,,,,,バディ,0
1776,8011003021776,新規,0,2025-05-29,2025-05-29,ｘａｉ合同会社,,合同会社,東京都,目黒区,下目黒１丁目１番１４号コノトラビル７Ｆ,,13,110,1530064,,,,,,,2025-05-29,1,,,,,サイ,0
1777,8011101111966,新規,0,2025-05-29,2025-05-29,株式会社ジェイ・ケイ・エル,,株式会社,東京都,新宿区,下宮比町１番４号,,13,104,1620822,,,,,,,2025-05-29,1,,,,,ジェイケイエル,0
1778,8011201026387,新規,0,2025-05-29,2025-05-29,株式会社エイト,,株式会社,東京都,中野区,弥生町１丁目６番６－７０３号,,13,114,1640013,,,,,,,2025-05-29,1,,,,,エイト,0
1779,8011301030611,新規,0,2025-05-29,2025-05-29,株式会社猿渡,,株式会社,東京都,杉並区,荻窪４丁目２９番１０号,,13,115,1670051,,,,,,,2025-05-29,1,,,,,サルワタリ,0
1782,8011303005578,新規,0,2025-05-29,2025-05-29,合同会社猿渡,,合同会社,東京都,杉並区,荻窪４丁目２９番１０号,,13,115,1670051,,,,,,,2025-05-29,1,,,,,サルワタリ,0
1783,8011401027128,新規,0,2025-05-29,2025-05-29,株式会社エアデザインサービス,,株式会社,東京都,板橋区,志村１丁目１３－１４ニューライフ志村坂上２０１,,13,119,1740056,,,,,,,2025-05-29,1,,,,,エアデザインサービス,0
1785,8011403004711,新規,0,2025-05-29,2025-05-29,ＣＭ合同会社,,合同会社,東京都,板橋区,板橋４丁目５７番１０－２０６号ハイム小川,,13,119,1730004,,,,,,,2025-05-29,1,,,,,シーエム,0
1787,8011501032135,新規,0,2025-05-29,2025-05-29,株式会社御嵐商事,,株式会社,東京都,北区,中里１丁目２１番２号中里ビル１Ｆ,,13,117,1140015,,,,,,,2025-05-29,1,,,,,オアラシショウジ,0
1789,8011603004726,新規,0,2025-05-29,2025-05-29,合同会社ビズデンタル,,合同会社,東京都,練馬区,北町３丁目５－１４エクセレントシティ練馬北町５０１,,13,120,1790081,,,,,,,2025-05-29,1,,,,,ビズデンタル,0
1790,8011701028370,新規,0,2025-05-29,2025-05-29,株式会社オープンボックス,,株式会社,東京都,江戸川区,平井５丁目１５番１０号平井駅前北口ビル２Ｆ,,13,123,1320035,,,,,,,2025-05-29,1,,,,,オープンボックス,0
1791,8011701028379,新規,0,2025-05-29,2025-05-29,株式会社Ｕ．ｃｒｅ,,株式会社,東京都,江戸川区,東小岩２丁目１番７－１０２号,,13,123,1330052,,,,,,,2025-05-29,1,,,,,ユークレ,0
1794,8011801046207,新規,0,2025-05-29,2025-05-29,サンスマイル株式会社,,株式会社,東京都,葛飾区,東立石４丁目３８番１３号,,13,122,1240013,,,,,,,2025-05-29,1,,,,,サンスマイル,0
1796,8012301014406,新規,0,2025-05-29,2025-05-29,株式会社Ｏｎｅ’ｓ　Ｇａｒｄｅｎ,,株式会社,東京都,町田市,忠生２丁目３番１号ビッグフォレスト町田３０５号室,,13,209,1940035,,,,,,,2025-05-29,1,,,,,ワンズガーデン,0
1798,8012305002134,新規,0,2025-05-29,2025-05-29,一般社団法人コーヒーショップ,,その他の設立登記法人,東京都,町田市,金森４丁目２０－１０エステートピアエリゼ２０３,,13,209,1940012,,,,,,,2025-05-29,1,,,,,コーヒーショップ,0
1801,8012403007159,新規,0,2025-05-29,2025-05-29,合同会社さっくん,,合同会社,東京都,三鷹市,井の頭１丁目１―７Ｓｅｒａ．ｆｉｎｏｋａｓｈｉｒａ１０２,,13,204,1810001,,,,,,,2025-05-29,1,,,,,サックン,0
1814,8020001163092,新規,0,2025-05-29,2025-05-29,株式会社Ｄｉｃｕｏｒｅ,,株式会社,神奈川県,横浜市保土ケ谷区,上菅田町８０６－１８,,14,106,2400051,,,,,,,2025-05-29,1,,,,,ディクオーレ,0
1815,8020003028574,新規,0,2025-05-29,2025-05-29,ＥＲ３１合同会社,,合同会社,神奈川県,横浜市西区,浅間町１丁目４番３号ウィザードビル４０２,,14,103,2200072,,,,,,,2025-05-29,1,,,,,イーアールサーティーワン,0
1816,8020003028590,新規,0,2025-05-29,2025-05-29,合同会社ディアマン商事,,合同会社,神奈川県,横浜市戸塚区,鳥が丘６９番地２０,,14,110,2440001,,,,,,,2025-05-29,1,,,,,ディアマンショウジ,0
1827,8030001166722,新規,0,2025-05-29,2025-05-29,株式会社リンク,,株式会社,埼玉県,所沢市,喜多町９番１２－１０８号,,11,208,3591113,,,,,,,2025-05-29,1,,,,,リンク,0
1828,8030001166730,新規,0,2025-05-29,2025-05-29,株式会社藤野産業,,株式会社,埼玉県,熊谷市,末広３丁目６番１２号アモ末広５０５,,11,202,3600031,,,,,,,2025-05-29,1,,,,,フジノサンギョウ,0
1829,8030001166755,新規,0,2025-05-29,2025-05-29,株式会社山中建設,,株式会社,埼玉県,さいたま市西区,大字三条町１１３番地２,,11,101,3310056,,,,,,,2025-05-29,1,,,,,ヤマナカケンセツ,0
1830,8030001166763,新規,0,2025-05-29,2025-05-29,株式会社Ｌｉｎｅ３,,株式会社,埼玉県,さいたま市南区,大谷場２丁目１４番３６－１０２号,,11,108,3360016,,,,,,,2025-05-29,1,,,,,ラインスリー,0
1832,8030003026866,新規,0,2025-05-29,2025-05-29,合同会社ＴＡＭＥ,,合同会社,埼玉県,鴻巣市,人形２丁目１番７５号,,11,217,3650037,,,,,,,2025-05-29,1,,,,,テイム,0
1838,8040001138968,新規,0,2025-05-29,2025-05-29,株式会社舛沢工業,,株式会社,千葉県,松戸市,六高台８丁目８８番地タウンハウス松戸３棟５号,,12,207,2702203,,,,,,,2025-05-29,1,,,,,マスザワコウギョウ,0
1843,8040003027698,新規,0,2025-05-29,2025-05-29,合同会社テクテク,,合同会社,千葉県,八千代市,萱田町７９１番地の３,,12,221,2760044,,,,,,,2025-05-29,1,,,,,テクテク,0
1844,8040003027731,新規,0,2025-05-29,2025-05-29,ＪＤ　Ｃａｐｉｔａｌ合同会社,,合同会社,千葉県,市川市,相之川４丁目２番９号エムフォレスト２０５号,,12,203,2720143,,,,,,,2025-05-29,1,,,,,ジェーディーキャピタル,0
1849,8070001042960,新規,0,2025-05-29,2025-05-29,株式会社新生商会,,株式会社,群馬県,前橋市,山王町１丁目２７番地１５,,10,201,3792123,,,,,,,2025-05-29,1,,,,,,0
1850,8070001042969,新規,0,2025-05-29,2025-05-29,株式会社高橋建設,,株式会社,群馬県,桐生市,相生町２丁目９８番地の２,,10,203,3760011,,,,,,,2025-05-29,1,,,,,タカハシケンセツ,0
1860,8090003002829,新規,0,2025-05-29,2025-05-29,合同会社虹のカケラ,,合同会社,山梨県,北杜市,長坂町白井沢４０７８,,19,209,4080033,,,,,,,2025-05-29,1,,,,,ニジノカケラ,0
1863,8110001039300,新規,0,2025-05-29,2025-05-29,インサイド株式会社,,株式会社,新潟県,三条市,西裏館３丁目３番７２－２号,,15,204,9550082,,,,,,,2025-05-29,1,,,,,インサイド,0
1870,8120001276248,新規,0,2025-05-29,2025-05-29,Ｓｕｐｅｒ株式会社,,株式会社,大阪府,大阪市大正区,三軒家西３丁目４番１６号中山ビル２１４Ａ,,27,108,5510001,,,,,,,2025-05-29,1,,,,,スーパー,0
1871,8120001276289,新規,0,2025-05-29,2025-05-29,株式会社ＭＡＩＮ,,株式会社,大阪府,大阪市中央区,船場中央２丁目１番４号船場センタービル４号館３２３,,27,128,5410055,,,,,,,2025-05-29,1,,,,,マイン,0
1872,8120001276297,新規,0,2025-05-29,2025-05-29,文和株式会社,,株式会社,大阪府,大阪市浪速区,恵美須東２丁目６番１５－３０３号,,27,111,5560002,,,,,,,2025-05-29,1,,,,,ブンワ,0
1873,8120001276306,新規,0,2025-05-29,2025-05-29,株式会社五徳珈琲,,株式会社,大阪府,大阪市中央区,淡路町２丁目１番１０号ユニ船場３１１,,27,128,5410047,,,,,,,2025-05-29,1,,,,,ゴトクコーヒー,0
1877,8120005024958,新規,0,2025-05-29,2025-05-29,行政書士法人ＯＮＥＣＨＯＩＣＥ,,その他の設立登記法人,大阪府,大阪市中央区,日本橋１丁目１６番２３号,,27,128,5420073,,,,,,,2025-05-29,1,,,,,ワンチョイス,0
1880,8120103006486,新規,0,2025-05-29,2025-05-29,合同会社ブーケガルニエステート,,合同会社,大阪府,堺市堺区,三宝町５丁２９１番地リーガル堺２ー８０５号,,27,141,5900906,,,,,,,2025-05-29,1,,,,,ブーケガルニエステート,0
1886,8122001039279,新規,0,2025-05-29,2025-05-29,辻トランスポート株式会社,,株式会社,大阪府,八尾市,中田３丁目４８番地の２,,27,212,5810014,,,,,,,2025-05-29,1,,,,,ツジトランスポート,0
1887,8122001039287,新規,0,2025-05-29,2025-05-29,株式会社にちふじ不動産,,株式会社,大阪府,東大阪市,御厨東２丁目１０番４６号,,27,227,5770033,,,,,,,2025-05-29,1,,,,,ニチフジフドウサン,0
1891,8130001079749,新規,0,2025-05-29,2025-05-29,株式会社Ｋｓワークス,,株式会社,京都府,京都市右京区,太秦一ノ井町３７番地１４,,26,108,6168107,,,,,,,2025-05-29,1,,,,,ケーズワークス,0
1892,8130001079781,新規,0,2025-05-29,2025-05-29,京楓株式会社,,株式会社,京都府,京都市左京区,一乗寺地蔵本町３７番地４０１,,26,103,6068181,,,,,,,2025-05-29,1,,,,,キョウフウ,0
1894,8130003010488,新規,0,2025-05-29,2025-05-29,合同会社Ｋｉｚｕｋｉ,,合同会社,京都府,京都市伏見区,淀本町１７３番地の１１１,,26,109,6130903,,,,,,,2025-05-29,1,,,,,キズキ,0
1898,8140001138652,新規,0,2025-05-29,2025-05-29,株式会社クオンタムウィング,,株式会社,兵庫県,尼崎市,塚口町５丁目３２番地の３ラ・メゾンクレール３０１,,28,202,6610002,,,,,,,2025-05-29,1,,,,,クオンタムウィング,0
1902,8140005027521,新規,0,2025-05-29,2025-05-29,一般社団法人まなびのかたち研究所,,その他の設立登記法人,兵庫県,丹波市,青垣町佐治５８５番地,,28,223,6693811,,,,,,,2025-05-29,1,,,,,マナビノカタチケンキュウショ,0
1906,8180001166988,新規,0,2025-05-29,2025-05-29,株式会社ＲＯＹ,,株式会社,愛知県,名古屋市熱田区,金山町２丁目４番１２号田中ビル２階,,23,109,4560002,,,,,,,2025-05-29,1,,,,,ロイ,0
1907,8180001167012,新規,0,2025-05-29,2025-05-29,株式会社ＴＧ．ＧＬＡＺＩＥＲＳ,,株式会社,愛知県,名古屋市天白区,一つ山１丁目２番地,,23,116,4680033,,,,,,,2025-05-29,1,,,,,ティージーグレイジアーズ,0
1908,8180001167029,新規,0,2025-05-29,2025-05-29,株式会社Ｓ．Ｈ．ＰＬＡＮ,,株式会社,愛知県,名古屋市緑区,潮見が丘２丁目３２番地・１西側,,23,114,4580037,,,,,,,2025-05-29,1,,,,,エスエイチプラン,0
1911,8180003028542,新規,0,2025-05-29,2025-05-29,飯田ワークス合同会社,,合同会社,愛知県,名古屋市東区,矢田３丁目１２－１コーポ木ケ崎６０６号,,23,102,4610040,,,,,,,2025-05-29,1,,,,,イイダワークス,0
1915,8180301039844,新規,0,2025-05-29,2025-05-29,東海ソリューションエンジニアリング株式会社,,株式会社,愛知県,岡崎市,明大寺町字西郷中３２番地３０,,23,202,4440867,,,,,,,2025-05-29,1,,,,,トウカイソリューションエンジニアリング,0
1921,8200001043846,新規,0,2025-05-29,2025-05-29,株式会社ゆうゆうオフィスサービス,,株式会社,岐阜県,岐阜市,入舟町２丁目４,,21,201,5008152,,,,,,,2025-05-29,1,,,,,ユウユウオフィスサービス,0
1929,8240005015945,新規,0,2025-05-29,2025-05-29,一般社団法人Ｏｎｅ　Ｗｏｒｌｄ,,その他の設立登記法人,広島県,東広島市,西条町吉行２１４９番地,,34,212,7390002,,,,,,,2025-05-29,1,,,,,ワンワールド,0
1931,8250001021161,新規,0,2025-05-29,2025-05-29,かぐら青果株式会社,,株式会社,山口県,宇部市,東藤曲２丁目６番８－２号,,35,202,7550803,,,,,,,2025-05-29,1,,,,,カグラセイカ,0
1932,8250003003736,新規,0,2025-05-29,2025-05-29,合同会社アップデート,,合同会社,山口県,岩国市,由宇町南沖１丁目１０番３１号,,35,208,7401425,,,,,,,2025-05-29,1,,,,,アップデート,0
1934,8260003005186,新規,0,2025-05-29,2025-05-29,心楽合同会社,,合同会社,岡山県,岡山市中区,赤坂台１１番１３号,,33,102,7038287,,,,,,,2025-05-29,1,,,,,ココラク,0
1935,8280003001951,新規,0,2025-05-29,2025-05-29,いづも大黒商店合同会社,,合同会社,島根県,出雲市,稲岡町２０１番地１,,32,203,6930071,,,,,,,2025-05-29,1,,,,,イヅモダイコクショウテン,0
1941,8290001110159,新規,0,2025-05-29,2025-05-29,株式会社ＩＮＦＹＴＥ,,株式会社,福岡県,福岡市中央区,天神４丁目６－２８－７階,,40,133,8100001,,,,,,,2025-05-29,1,,,,,インファイト,0
1942,8290001110167,新規,0,2025-05-29,2025-05-29,オーケス株式会社,,株式会社,福岡県,糸島市,前原西４丁目５－２８－２Ｆ,,40,230,8191117,,,,,,,2025-05-29,1,,,,,オーケス,0
1943,8290001110191,新規,0,2025-05-29,2025-05-29,株式会社ａｖｉｏ,,株式会社,福岡県,福岡市中央区,警固２丁目２－１１シャンボール警固１Ｆ,,40,133,8100023,,,,,,,2025-05-29,1,,,,,アヴィオ,0
1944,8290001110200,新規,0,2025-05-29,2025-05-29,株式会社一双,,株式会社,福岡県,福岡市中央区,六本松３丁目１０番１５号,,40,133,8100044,,,,,,,2025-05-29,1,,,,,イッソウ,0
1947,8290003016916,新規,0,2025-05-29,2025-05-29,合同会社Ｐｏｉｓｅ,,合同会社,福岡県,福岡市中央区,薬院３丁目１１番１０－２０４号,,40,133,8100022,,,,,,,2025-05-29,1,,,,,ポイズ,0
1954,8290801031570,新規,0,2025-05-29,2025-05-29,株式会社土地空間堂,,株式会社,福岡県,北九州市八幡西区,永犬丸５丁目２番２０号,,40,109,8070851,,,,,,,2025-05-29,1,,,,,トチクウカンドウ,0
1955,8290803005060,新規,0,2025-05-29,2025-05-29,合同会社Ａｍｂｅｒ　Ｇｌｏｗ,,合同会社,福岡県,北九州市小倉南区,朽網西４丁目２２－２－２０７,,40,107,8000233,,,,,,,2025-05-29,1,,,,,アンバーグロウ,0
1956,8300001014201,新規,0,2025-05-29,2025-05-29,株式会社ＹＵＲＡＫＵＡＮ,,株式会社,佐賀県,三養基郡みやき町,大字白壁４０４９番地３４,,41,346,8490111,,,,,,,2025-05-29,1,,,,,ユラクアン,0
1958,8330003011029,新規,0,2025-05-29,2025-05-29,合同会社ｇｒｏｕｎｄ　ｕｐ,,合同会社,熊本県,熊本市南区,出仲間６丁目１２番５５号,,43,104,8620963,,,,,,,2025-05-29,1,,,,,グラウンドアップ,0
1963,8350001019559,新規,0,2025-05-29,2025-05-29,株式会社ＭＡＳＵＭＡＳＵ,,株式会社,宮崎県,宮崎市,中央通７番２５号第１０吉野ビル１０４号,,45,201,8800002,,,,,,,2025-05-29,1,,,,,マスマス,0
1964,8360001035258,新規,0,2025-05-29,2025-05-29,縁ｅｉｇｈｔ株式会社,,株式会社,沖縄県,那覇市,松尾１丁目１５番９号,,47,201,9000014,,,,,,,2025-05-29,1,,,,,エニシエイト,0
1965,8360001035274,新規,0,2025-05-29,2025-05-29,株式会社Ｏｋｉｖｉｓ,,株式会社,沖縄県,中頭郡西原町,字棚原５２番地（Ｗｅｓｔ－Ｆｉｅｌｄ－ＴＡ５０１号）,,47,329,9030126,,,,,,,2025-05-29,1,,,,,オキビス,0
1966,8360001035290,新規,0,2025-05-29,2025-05-29,株式会社Ｔ　Ｕｎｄｅｒ,,株式会社,沖縄県,うるま市,勝連比嘉６１８番地５,,47,213,9042316,,,,,,,2025-05-29,1,,,,,ティーアンダー,0
1968,8370001052616,新規,0,2025-05-29,2025-05-29,株式会社千葉ファーム,,株式会社,宮城県,登米市,迫町新田字南深沢４５番地６,,04,212,9894601,,,,,,,2025-05-29,1,,,,,チバファーム,0
1972,8400003003472,新規,0,2025-05-29,2025-05-29,合同会社ポエジー,,合同会社,岩手県,盛岡市,愛宕町１８－４５,,03,201,0200013,,,,,,,2025-05-29,1,,,,,ポエジー,0
1979,8430001094412,新規,0,2025-05-29,2025-05-29,株式会社Ｅｇｇ　Ｐｌａｎｔ,,株式会社,北海道,札幌市中央区,南六条東２丁目７番地１ロイヤルリバー７０５号,,01,101,0600056,,,,,,,2025-05-29,1,,,,,エッグプラント,0
1980,8430001094528,新規,0,2025-05-29,2025-05-29,株式会社ウィードソウル,,株式会社,北海道,千歳市,若草２丁目８番地の２,,01,224,0660057,,,,,,,2025-05-29,1,,,,,ウィードソウル,0
1981,8430001094544,新規,0,2025-05-29,2025-05-29,株式会社ａｎｎ,,株式会社,北海道,札幌市豊平区,月寒東二条１６丁目４番１１号,,01,105,0620052,,,,,,,2025-05-29,1,,,,,アン,0
1990,8700150130766,新規,0,2025-05-29,2025-05-29,Ｔｅｎｓｔｏｒｒｅｎｔ　ＡＩ　ＵＬＣ,,外国会社等,,,,,,,,１５０　Ｆｅｒｒａｎｄ　Ｄｒｉｖｅ，Ｕｎｉｔ　９０１，Ｎｏｒｔｈ　Ｙｏｒｋ，Ｏｎｔａｒｉｏ　Ｍ３Ｃ　３Ｅ５，Ｃａｎａｄａ,,,,,,2025-05-29,1,,,,,テンストレントエイアイユーエルシー,0
1991,8700150130774,新規,0,2025-05-29,2025-05-29,鮪軒貿易股斌有限公司,00139343,外国会社等,,,,,,,,高雄市前鎮區復興四路１２號２樓之１１,,,,,,2025-05-29,1,,,,,ユウケンボウエキコフンユウゲンコウシ,0
1992,8700150130790,新規,0,2025-05-29,2025-05-29,Ｒ．Ｇ．　ＹＯＮＡ　ＥＮＴＥＲＰＲＩＳＥＳ,,外国会社等,神奈川県,愛甲郡愛川町,中津３８２７番地１コーポ愛川１０３－Ａ,,14,401,2430303,スリランカ民主社会主義共和国、ノチチヤガマ、アダンパネ、２１５／１,,,,,,2025-05-29,1,,,,,アールジーヨナエンタープライズ,0
2001,9010001255377,新規,0,2025-05-29,2025-05-29,Ｐｌｕｓ　Ｂｕｄｄｙ株式会社,,株式会社,東京都,中央区,日本橋兜町９番５号兜町平和ダイヤビル１階,,13,102,1030026,,,,,,,2025-05-29,1,,,,,プラスバディ,0
2002,9010001255419,新規,0,2025-05-29,2025-05-29,Ｋｏｔｏ　Ｓｑｕａｒｅ株式会社,,株式会社,東京都,中央区,銀座１丁目１２－４Ｎ＆ＥＢＬＤ．７階,,13,102,1040061,,,,,,,2025-05-29,1,,,,,コトスクエアー,0
2005,9010005040107,新規,0,2025-05-29,2025-05-29,一般社団法人ＬＶＣ３１号,,その他の設立登記法人,東京都,千代田区,紀尾井町３－８第２紀尾井町ビル９０１アクシス綜合会計事務所内,,13,101,1020094,,,,,,,2025-05-29,1,,,,,エルブイシーサンジュウイチゴウ,0
2014,9010401190562,新規,0,2025-05-29,2025-05-29,サイト・シン株式会社,,株式会社,東京都,港区,六本木５丁目３番２号,,13,103,1060032,,,,,,,2025-05-29,1,,,,,サイトシン,0
2015,9010401190604,新規,0,2025-05-29,2025-05-29,株式会社ＹＲＮ,,株式会社,東京都,港区,新橋４丁目２９番１号プラウド新虎通り１１０５,,13,103,1050004,,,,,,,2025-05-29,1,,,,,ワイアールエヌ,0
2016,9010401190612,新規,0,2025-05-29,2025-05-29,株式会社Ｒ‐ファンド８号,,株式会社,東京都,港区,港南２丁目１５番３号,,13,103,1080075,,,,,,,2025-05-29,1,,,,,アールファンドハチゴウ,0
2017,9010401190629,新規,0,2025-05-29,2025-05-29,Ｔｓｕｋｉ　Ｃｏｍｐａｎｙ株式会社,,株式会社,東京都,港区,南青山２丁目２－８ＤＦビル５階,,13,103,1070062,,,,,,,2025-05-29,1,,,,,ツキカンパニー,0
2018,9010401190637,新規,0,2025-05-29,2025-05-29,ＹＴＪＹ　Ｊａｐａｎ株式会社,,株式会社,東京都,港区,西新橋１丁目１８番６号,,13,103,1050003,,,,,,,2025-05-29,1,,,,,ワイティージェイワイジャパン,0
2019,9010403035237,新規,0,2025-05-29,2025-05-29,合同会社目指せ脱炭素２号,,合同会社,東京都,港区,南青山４丁目２１番２６号リュエル青山Ｃ棟Ｂ１細谷総合会計事務所内,,13,103,1070062,,,,,,,2025-05-29,1,,,,,メザセダツタンソニゴウ,0
2021,9010901057451,新規,0,2025-05-29,2025-05-29,株式会社アンジェリー,,株式会社,東京都,世田谷区,給田１丁目１１番１６号,,13,112,1570064,,,,,,,2025-05-29,1,,,,,アンジェリー,0
2026,9011001169682,新規,0,2025-05-29,2025-05-29,人事と経理株式会社,,株式会社,東京都,渋谷区,恵比寿西２丁目８番４号ＥＸ恵比寿西ビル５階,,13,113,1500021,,,,,,,2025-05-29,1,,,,,ジンジトケイリ,0
2028,9011003021668,新規,0,2025-05-29,2025-05-29,合同会社慎,,合同会社,東京都,渋谷区,円山町６－６,,13,113,1500044,,,,,,,2025-05-29,1,,,,,シン,0
2030,9011203004712,新規,0,2025-05-29,2025-05-29,野草合同会社,,合同会社,東京都,中野区,東中野１丁目５６－１大島ビル第一本館５０４,,13,114,1640003,,,,,,,2025-05-29,1,,,,,ノグサ,0
2031,9011301030610,新規,0,2025-05-29,2025-05-29,株式会社Ｌｉｇｈｔ＆Ｇｒｅｅｎ,,株式会社,東京都,杉並区,高円寺南４丁目７番３サンシャイン高円寺８０３号,,13,115,1660003,,,,,,,2025-05-29,1,,,,,ライトアンドグリーン,0
2032,9011303005577,新規,0,2025-05-29,2025-05-29,合同会社Ｐｕｐｕｔｔｏ,,合同会社,東京都,杉並区,永福１丁目１番１－５０５号シャトレ明大前ビル,,13,115,1680064,,,,,,,2025-05-29,1,,,,,ププット,0
2034,9011401027127,新規,0,2025-05-29,2025-05-29,株式会社ｋｏｎａｅｘ,,株式会社,東京都,板橋区,前野町３丁目４４番２－４０７号,,13,119,1740063,,,,,,,2025-05-29,1,,,,,コナエックス,0
2036,9011603004725,新規,0,2025-05-29,2025-05-29,ＪＵＲＩ合同会社,,合同会社,東京都,練馬区,桜台６丁目３３番１６号２Ｆ,,13,120,1760002,,,,,,,2025-05-29,1,,,,,ジュリ,0
2037,9011803006884,新規,0,2025-05-29,2025-05-29,合同会社Ｓｋｙｖａｓｔ,,合同会社,東京都,葛飾区,東金町１丁目３６番４－１１３５号,,13,122,1250041,,,,,,,2025-05-29,1,,,,,スカイヴァスト,0
2038,9012301014405,新規,0,2025-05-29,2025-05-29,株式会社郁雄,,株式会社,東京都,町田市,相原町１８１１番地１,,13,209,1940211,,,,,,,2025-05-29,1,,,,,アヤタカ,0
2039,9012403007158,新規,0,2025-05-29,2025-05-29,ＡＲＭ合同会社,,合同会社,東京都,多摩市,豊ヶ丘１丁目３５番地の１０ＣＡＳＡ柊５０２,,13,224,2060031,,,,,,,2025-05-29,1,,,,,アーム,0
2044,9013301054291,新規,0,2025-05-29,2025-05-29,株式会社前空,,株式会社,東京都,豊島区,雑司が谷３丁目３番２５号,,13,116,1710032,,,,,,,2025-05-29,1,,,,,マエゾラ,0
2049,9020001163050,新規,0,2025-05-29,2025-05-29,株式会社ＪＹ’Ｓ,,株式会社,神奈川県,川崎市麻生区,下麻生３丁目３０－２－５０３,,14,137,2150022,,,,,,,2025-05-29,1,,,,,ジェイワイズ,0
2050,9020001163109,新規,0,2025-05-29,2025-05-29,株式会社カナエルミライ,,株式会社,神奈川県,横浜市中区,羽衣町２丁目６番地３－３０６号,,14,104,2310047,,,,,,,2025-05-29,1,,,,,カナエルミライ,0
2051,9020001163125,新規,0,2025-05-29,2025-05-29,ＫＯＢＡＮＣＥ株式会社,,株式会社,神奈川県,横浜市瀬谷区,阿久和西４丁目２番地４０,,14,114,2460025,,,,,,,2025-05-29,1,,,,,コバンス,0
2057,9021001085334,新規,0,2025-05-29,2025-05-29,株式会社ＰＭファウンデーションラボ,,株式会社,神奈川県,相模原市中央区,上溝４４１３番地５,,14,152,2520243,,,,,,,2025-05-29,1,,,,,ピーエムファウンデーションラボ,0
2058,9021001085391,新規,0,2025-05-29,2025-05-29,株式会社ＨＵＳＫＥＹ,,株式会社,神奈川県,小田原市,本町２丁目１１番２３－１００２号ザ・レジデンス小田原三ノ丸,,14,206,2500012,,,,,,,2025-05-29,1,,,,,ハスキー,0
2060,9021003016056,新規,0,2025-05-29,2025-05-29,メッドアイリス合同会社,,合同会社,神奈川県,相模原市中央区,田名５３４４番地１,,14,152,2520244,,,,,,,2025-05-29,1,,,,,メッドアイリス,0
2061,9021003016064,新規,0,2025-05-29,2025-05-29,合同会社木賃屋,,合同会社,神奈川県,藤沢市,江の島１丁目５番６号,,14,205,2510036,,,,,,,2025-05-29,1,,,,,キチンヤ,0
2064,9030001166770,新規,0,2025-05-29,2025-05-29,株式会社Ｓｏｌｏｔｏ,,株式会社,埼玉県,さいたま市岩槻区,美園東２丁目１５－９,,11,110,3390028,,,,,,,2025-05-29,1,,,,,ソロト,0
2065,9030001166795,新規,0,2025-05-29,2025-05-29,株式会社スニークピーク,,株式会社,埼玉県,春日部市,浜川戸１丁目５番地１１,,11,214,3440054,,,,,,,2025-05-29,1,,,,,スニークピーク,0
2069,9030003026840,新規,0,2025-05-29,2025-05-29,Ｋｏｍａ　Ｈａｕｓ合同会社,,合同会社,埼玉県,所沢市,金山町１２番１１号,,11,208,3591128,,,,,,,2025-05-29,1,,,,,コマハウス,0
2070,9030003026865,新規,0,2025-05-29,2025-05-29,ＣＡＭＰＴ合同会社,,合同会社,埼玉県,入間市,東藤沢３丁目２番１３号ＫＩＶ商会館入間Ｆ号室,,11,225,3580012,,,,,,,2025-05-29,1,,,,,カムピティ,0
2071,9030003026881,新規,0,2025-05-29,2025-05-29,合同会社ＢＥＦ,,合同会社,埼玉県,さいたま市南区,沼影１丁目１１－２Ｃ－５０２,,11,108,3360027,,,,,,,2025-05-29,1,,,,,ビーイーエフ,0
2075,9040001138967,新規,0,2025-05-29,2025-05-29,株式会社ブランハピネス,,株式会社,千葉県,山武郡横芝光町,横芝１５７１番地２,,12,410,2891732,,,,,,,2025-05-29,1,,,,,ブランハピネス,0
2076,9040001138975,新規,0,2025-05-29,2025-05-29,株式会社じんざい開発,,株式会社,千葉県,習志野市,津田沼５丁目４番２７号,,12,216,2750016,,,,,,,2025-05-29,1,,,,,ジンザイカイハツ,0
2077,9040001138983,新規,0,2025-05-29,2025-05-29,アクトサティス株式会社,,株式会社,千葉県,印西市,東の原１丁目２番地５９,,12,231,2701336,,,,,,,2025-05-29,1,,,,,アクトサティス,0
2081,9040003027615,新規,0,2025-05-29,2025-05-29,合同会社丸幸,,合同会社,千葉県,四街道市,鹿放ケ丘３６３番地１,,12,228,2840008,,,,,,,2025-05-29,1,,,,,マルコウ,0
2088,9070001042968,新規,0,2025-05-29,2025-05-29,Ｃｏｌｏｒ　Ｃａｎｖａｓ株式会社,,株式会社,群馬県,佐波郡玉村町,大字八幡原１９７１番地,,10,464,3701125,,,,,,,2025-05-29,1,,,,,カラーキャンバス,0
2096,9110001039299,新規,0,2025-05-29,2025-05-29,株式会社ＳＭＭＲ,,株式会社,新潟県,長岡市,学校町３丁目１１番２６－２０５号,,15,202,9400041,,,,,,,2025-05-29,1,,,,,エスエムエムアール,0
2101,9120001276230,新規,0,2025-05-29,2025-05-29,株式会社４ｙｏｕ,,株式会社,大阪府,大阪市淀川区,西中島５丁目７番１４号大京ビルマンション新大阪９０２号室,,27,123,5320011,,,,,,,2025-05-29,1,,,,,フォーユー,0
2102,9120001276247,新規,0,2025-05-29,2025-05-29,錦匯株式会社,,株式会社,大阪府,大阪市住吉区,長居西１丁目１２番２８号コーポイン長居Ｂ棟,,27,120,5580002,,,,,,,2025-05-29,1,,,,,キンカイ,0
2103,9120001276271,新規,0,2025-05-29,2025-05-29,日の犬株式会社,,株式会社,大阪府,大阪市北区,梅田１丁目３番１号大阪駅前第一ビル５階ＲＯＹＡＬＯＦＦＩＣＥ内,,27,127,5300001,,,,,,,2025-05-29,1,,,,,ヒノイヌ,0
2104,9120001276296,新規,0,2025-05-29,2025-05-29,八千株式会社,,株式会社,大阪府,大阪市港区,弁天３丁目１０番２０号港ＯＧＩビル６号室,,27,107,5520007,,,,,,,2025-05-29,1,,,,,ハッセン,0
2105,9120001276321,新規,0,2025-05-29,2025-05-29,賽邁株式会社,,株式会社,大阪府,大阪市城東区,関目５丁目１９番９号関目花博公館２０３Ａ,,27,118,5360008,,,,,,,2025-05-29,1,,,,,サイマイ,0
2107,9120003029611,新規,0,2025-05-29,2025-05-29,匠健合同会社,,合同会社,大阪府,枚方市,香里園町５－１１－４０３,,27,210,5730086,,,,,,,2025-05-29,1,,,,,タクケン,0
2121,9120901050965,新規,0,2025-05-29,2025-05-29,株式会社誠和,,株式会社,大阪府,茨木市,耳原３丁目８－３３ビエント美奈原１０１号室,,27,211,5670006,,,,,,,2025-05-29,1,,,,,セイワ,0
2122,9122001039278,新規,0,2025-05-29,2025-05-29,株式会社第一金型製作所,,株式会社,大阪府,東大阪市,御厨東２丁目１３番５０号,,27,227,5770033,,,,,,,2025-05-29,1,,,,,ダイイチカナガタセイサクショ,0
2128,9130001079764,新規,0,2025-05-29,2025-05-29,ｃｏｚｙ　ｓｐａｃｅ株式会社,,株式会社,京都府,京都市中京区,観音町８８番地１－７０２,,26,104,6040821,,,,,,,2025-05-29,1,,,,,コージースペース,0
2129,9130001079789,新規,0,2025-05-29,2025-05-29,かける株式会社,,株式会社,京都府,京都市南区,東九条上御霊町６７番地２－２０１,,26,107,6018015,,,,,,,2025-05-29,1,,,,,カケル,0
2131,9130005017373,新規,0,2025-05-29,2025-05-29,一般社団法人ＳｅｅｄＦａｉｒｉｎｇ,,その他の設立登記法人,京都府,京都市左京区,下鴨宮河町４９レジデンスひいらぎ１０３号室,,26,103,6060801,,,,,,,2025-05-29,1,,,,,シードフェアリング,0
2138,9170001018644,新規,0,2025-05-29,2025-05-29,株式会社ＴＲＳ,,株式会社,和歌山県,海南市,小野田３７３番地１４,,30,202,6420014,,,,,,,2025-05-29,1,,,,,ティーアールエス,0
2144,9180001167028,新規,0,2025-05-29,2025-05-29,株式会社Ｃ＆Ｎホールディングス,,株式会社,愛知県,瀬戸市,塩草が丘３丁目５９番地,,23,204,4890899,,,,,,,2025-05-29,1,,,,,シーアンドエヌホールディングス,0
2145,9180001167036,新規,0,2025-05-29,2025-05-29,株式会社ＧＲＵＮＤ,,株式会社,愛知県,名古屋市中村区,名駅３丁目４－１０アルティメイト名駅１ｓｔ２階,,23,105,4500002,,,,,,,2025-05-29,1,,,,,グルント,0
2149,9180003028533,新規,0,2025-05-29,2025-05-29,Ｔｙｅｒｉ　Ｓｔｕｄｉｏｓ合同会社,,合同会社,愛知県,名古屋市守山区,喜多山１丁目１－２９,,23,113,4630017,,,,,,,2025-05-29,1,,,,,テリスタジオ,0
2150,9180003028541,新規,0,2025-05-29,2025-05-29,合同会社ＲＹＵＧＥＮ,,合同会社,愛知県,名古屋市千種区,今池２丁目２２番２０号,,23,101,4640850,,,,,,,2025-05-29,1,,,,,リュウゲン,0
2175,9260001040226,新規,0,2025-05-29,2025-05-29,株式会社アセット＆コレクション,,株式会社,岡山県,倉敷市,中島４３５番地３３,,33,202,7100803,,,,,,,2025-05-29,1,,,,,アセットアンドコレクション,0
2178,9260003005193,新規,0,2025-05-29,2025-05-29,まるは青果合同会社,,合同会社,岡山県,玉野市,明神町９番８号,,33,204,7060025,,,,,,,2025-05-29,1,,,,,マルハセイカ,0
2184,9290001110141,新規,0,2025-05-29,2025-05-29,株式会社ＩＯ,,株式会社,福岡県,福岡市博多区,博多駅東１丁目１９－１６福岡真和ビル１Ｆ,,40,132,8120013,,,,,,,2025-05-29,1,,,,,イオ,0
2185,9290001110166,新規,0,2025-05-29,2025-05-29,株式会社Ｒ３,,株式会社,福岡県,福岡市博多区,博多駅前１丁目２３番２号ＰａｒｋＦｒｏｎｔ博多駅前１丁目５Ｆ－Ｂ,,40,132,8120011,,,,,,,2025-05-29,1,,,,,,0
2186,9290001110174,新規,0,2025-05-29,2025-05-29,株式会社ＰＬＣ,,株式会社,福岡県,福岡市中央区,天神１丁目１４番４号,,40,133,8100001,,,,,,,2025-05-29,1,,,,,ピーエルシー,0
2187,9290001110182,新規,0,2025-05-29,2025-05-29,株式会社やまかつ,,株式会社,福岡県,福岡市南区,清水３丁目１３番５号,,40,134,8150031,,,,,,,2025-05-29,1,,,,,ヤマカツ,0
2188,9290001110199,新規,0,2025-05-29,2025-05-29,株式会社三猿,,株式会社,福岡県,福岡市東区,香椎駅前３丁目２４番３４４号よろい坂団地,,40,131,8130013,,,,,,,2025-05-29,1,,,,,サンエン,0
2189,9290001110216,新規,0,2025-05-29,2025-05-29,ウインデイズ株式会社,,株式会社,福岡県,福岡市中央区,天神２丁目３番１０－７１９号,,40,133,8100001,,,,,,,2025-05-29,1,,,,,ウインデイズ,0
2192,9290003016907,新規,0,2025-05-29,2025-05-29,ク拉貿易合同会社,,合同会社,福岡県,福岡市早良区,飯倉３丁目４５－１７ファミールハピネス原１０５号室,,40,137,8140161,,,,,,,2025-05-29,1,,,,,,0
2209,9360001035265,新規,0,2025-05-29,2025-05-29,株式会社ＡｕｇＭａｒｋ,,株式会社,沖縄県,浦添市,当山１丁目５番２号３０３号室,,47,208,9012104,,,,,,,2025-05-29,1,,,,,アグマーク,0
2210,9360003014969,新規,0,2025-05-29,2025-05-29,合同会社ｔｎｇ,,合同会社,沖縄県,那覇市,曙２丁目２番９－２０１号室,,47,201,9000002,,,,,,,2025-05-29,1,,,,,ティーエヌジー,0
2217,9390001018003,新規,0,2025-05-29,2025-05-29,株式会社リバーイン,,株式会社,山形県,山形市,中桜田３丁目１番３号２Ｆ,,06,201,9902422,,,,,,,2025-05-29,1,,,,,リバーイン,0
2219,9400003003455,新規,0,2025-05-29,2025-05-29,合同会社グリーンバンドル岩神,,合同会社,岩手県,二戸郡一戸町,宇別字椛木平１６１番地１,,03,524,0285131,,,,,,,2025-05-29,1,,,,,グリーンバンドルイワガミ,0
2220,9420001019162,新規,0,2025-05-29,2025-05-29,株式会社センテリア,,株式会社,青森県,青森市,富田５丁目３５番３３号,,02,201,0380004,,,,,,,2025-05-29,1,,,,,センテリア,0
2224,9430001094519,新規,0,2025-05-29,2025-05-29,株式会社渡瀬不動産,,株式会社,北海道,札幌市手稲区,稲穂二条７丁目１３番２０－１０３号,,01,109,0060032,,,,,,,2025-05-29,1,,,,,ワタセフドウサン,0
2227,9430003017717,新規,0,2025-05-29,2025-05-29,合同会社ふく,,合同会社,北海道,札幌市南区,藤野四条６丁目１６番１３号,,01,106,0612284,,,,,,,2025-05-29,1,,,,,フク,0
2230,9700150130765,新規,0,2025-05-29,2025-05-29,Ｊ．Ｃ．ＰＡＲＥＮＴＥ　ＩＮＶＥＳＴＭＥＮＴＳ　ＬＴＤ．,,外国会社等,,,,,,,,２０３　２４０３　ＭＡＲＩＮＥ　ＤＲＩＶＥ　ＷＥＳＴ　ＶＡＮＣＯＵＶＥＲ　ＢＣ　Ｖ７Ｖ　１Ｌ３,,,,,,2025-05-29,1,,,,,ジエイシーパレンテインベストメンツリミテツド,0
2231,9700150130773,新規,0,2025-05-29,2025-05-29,ＲＩＮＫＡＮ　ＬＩＭＩＴＥＤ,,外国会社等,北海道,虻田郡倶知安町,ニセコひらふ五条３丁目８１－５,,01,400,0440086,Ｆｌａｔ　Ｂ１，３ｒｄ　Ｆｌｏｏｒ，Ｂｌｏｃｋ　Ｂ，Ｗｉｓｄｏｍ　Ｃｏｕｒｔ，５　Ｈａｔｔｏｎ　Ｒｏａｄ，Ｈｏｎｇ　Ｋｏｎｇ,,,,,,2025-05-29,1,,,,,リンカンリミテツド,0
