sequenceNumber,corporateNumber,process,correct,updateDate,changeDate,name,nameImageId,kind,prefectureName,cityName,streetNumber,addressImageId,prefectureCode,cityCode,postCode,addressOutside,addressOutsideImageId,closeDate,closeCause,successorCorporateNumber,changeCause,assignmentDate,latest,enName,enPrefectureName,enCityName,enAddressOutside,furigana,hihyoji
17,1010001221411,新規,0,2021-10-22,2021-10-22,株式会社ワイテイツー,,株式会社,東京都,中央区,日本橋兜町１７－２兜町第６葉山ビル４階,,13,102,1030026,,,,,,,2021-10-22,1,,,,,ワイテイツー,0
18,1010001221972,新規,0,2021-10-22,2021-10-22,株式会社エイトコネクティング,,株式会社,東京都,中央区,八丁堀２丁目２２番１２号,,13,102,1040032,,,,,,,2021-10-22,1,,,,,エイトコネクティング,0
19,1010001222005,新規,0,2021-10-22,2021-10-22,リターン株式会社,,株式会社,東京都,中央区,日本橋富沢町１０番２－１２０５号,,13,102,1030006,,,,,,,2021-10-22,1,,,,,リターン,0
20,1010001222021,新規,0,2021-10-22,2021-10-22,株式会社Ｂｌｏｏｍ,,株式会社,東京都,中央区,八丁堀３丁目１１番１３号インプレストレジデンス東京八丁堀ジ・アーキテクト１４０４号,,13,102,1040032,,,,,,,2021-10-22,1,,,,,ブルーム,0
21,1010001222038,新規,0,2021-10-22,2021-10-22,Ｔｏｍｏｒｒｏｗ　Ｍｅｄｉｃａｌ株式会社,,株式会社,東京都,文京区,本郷５丁目１－１６ＶＯＲＴ本郷１１Ｆ,,13,105,1130033,,,,,,,2021-10-22,1,,,,,トゥモローメディカル,0
27,1010101014921,新規,0,2021-10-22,2021-10-22,株式会社ヤマト造園,,株式会社,東京都,八王子市,四谷町７２１番地３,,13,201,1930813,,,,,,,2021-10-22,1,,,,,ヤマトゾウエン,0
33,1010401163385,新規,0,2021-10-22,2021-10-22,リインフォース株式会社,,株式会社,東京都,港区,芝２丁目８番１号,,13,103,1050014,,,,,,,2021-10-22,1,,,,,リインフォース,0
34,1010401163393,新規,0,2021-10-22,2021-10-22,株式会社エルディア東京,,株式会社,東京都,港区,六本木１丁目９番４－２００１号,,13,103,1060032,,,,,,,2021-10-22,1,,,,,エルディアトウキョウ,0
35,1010401163451,新規,0,2021-10-22,2021-10-22,ＧＣＪＧ１６株式会社,,株式会社,東京都,港区,元赤坂１丁目１番８号株式会社赤坂国際会計内,,13,103,1070051,,,,,,,2021-10-22,1,,,,,ジーシージェイジーシックスティーン,0
37,1010403026367,新規,0,2021-10-22,2021-10-22,合同会社アールイージェイホールディングススリー,,合同会社,東京都,港区,六本木６丁目１０番１号六本木ヒルズ森タワー,,13,103,1060032,,,,,,,2021-10-22,1,,,,,アールイージェイホールディングススリー,0
38,1010403026375,新規,0,2021-10-22,2021-10-22,ＵＩ　Ｋｏｔｏ　ＭＬ合同会社,,合同会社,東京都,港区,元赤坂１丁目１番７号,,13,103,1070051,,,,,,,2021-10-22,1,,,,,ユーアイコートーエムエル,0
39,1010403026383,新規,0,2021-10-22,2021-10-22,合同会社ＮＡＧＡＳＡＫＡ,,合同会社,東京都,港区,西麻布３丁目２１番３－１１０４号,,13,103,1060031,,,,,,,2021-10-22,1,,,,,ナガサカ,0
40,1010405020302,新規,0,2021-10-22,2021-10-22,一般社団法人ビジネスマネジメント改革協会,,その他の設立登記法人,東京都,港区,赤坂７丁目６番４３号,,13,103,1070052,,,,,,,2021-10-22,1,,,,,ビジネスマネジメントカイカクキョウカイ,0
41,1010405020351,新規,0,2021-10-22,2021-10-22,Ｋｕｊｉｒａ特定目的会社,,その他の設立登記法人,東京都,港区,虎ノ門３丁目２２番１０－２０１号,,13,103,1050001,,,,,,,2021-10-22,1,,,,,クジラ,0
42,1010505003272,新規,0,2021-10-22,2021-10-22,一般社団法人ＡＭＯＲ,,その他の設立登記法人,東京都,台東区,上野５丁目１９番２号,,13,106,1100005,,,,,,,2021-10-22,1,,,,,アモル,0
47,1010701041679,新規,0,2021-10-22,2021-10-22,株式会社Ｄｅｅｓｓｅ,,株式会社,東京都,品川区,平塚３丁目４番８号,,13,109,1420051,,,,,,,2021-10-22,1,,,,,デッセ,0
54,1010901049654,新規,0,2021-10-22,2021-10-22,株式会社ムード,,株式会社,東京都,世田谷区,三軒茶屋２丁目１５－３,,13,112,1540024,,,,,,,2021-10-22,1,,,,,ムード,0
60,1011001143612,新規,0,2021-10-22,2021-10-22,株式会社Ａｍｏｕｒ,,株式会社,東京都,渋谷区,恵比寿３丁目３番３－６０３号ザ・パークハビオ恵比寿プレイス,,13,113,1500013,,,,,,,2021-10-22,1,,,,,アムール,0
70,1011101096636,新規,0,2021-10-22,2021-10-22,株式会社Ｍｏｖｅ,,株式会社,東京都,新宿区,四谷３丁目１３番地ＳＥＡＢＩＲＤビル２階,,13,104,1600004,,,,,,,2021-10-22,1,,,,,ムーブ,0
71,1011101096652,新規,0,2021-10-22,2021-10-22,モナミラクル株式会社,,株式会社,東京都,新宿区,西新宿８丁目８番２０－１２０５号,,13,104,1600023,,,,,,,2021-10-22,1,,,,,モナミラクル,0
73,1011105010023,新規,0,2021-10-22,2021-10-22,特定非営利活動法人ＯＮＬＹ　ＯＮＥ　ＬＩＦＥ,,その他の設立登記法人,東京都,新宿区,西新宿６丁目１６番９号西新宿ＰＩＮＥＮＥＥＤＬＥ８０３,,13,104,1600023,,,,,,,2021-10-22,1,,,,,,0
89,1012801021180,新規,0,2021-10-22,2021-10-22,株式会社ＰＬＯＷ　ＦＯＯＴ,,株式会社,東京都,国立市,西１丁目１番地の２７－１０３,,13,215,1860005,,,,,,,2021-10-22,1,,,,,プロウフット,0
100,1020001143621,新規,0,2021-10-22,2021-10-22,株式会社Ｐ．Ｃ　Ｂｕｌｌｅｔ,,株式会社,神奈川県,横浜市中区,尾上町３丁目４６－８Ｆ,,14,104,2310015,,,,,,,2021-10-22,1,,,,,ピーシーバレット,0
101,1021001074278,新規,0,2021-10-22,2021-10-22,株式会社Ｄｏ　ｇａｔｈｅｒ,,株式会社,神奈川県,平塚市,桃浜町２５番２１－２０２号ドムス神山,,14,203,2540815,,,,,,,2021-10-22,1,,,,,ドゥーギャザー,0
111,1030001144924,新規,0,2021-10-22,2021-10-22,株式会社スマートカーゴ,,株式会社,埼玉県,川口市,芝樋ノ爪１丁目１０番１１号,,11,203,3330852,,,,,,,2021-10-22,1,,,,,スマートカーゴ,0
146,1100001034738,新規,0,2021-10-22,2021-10-22,長野ＩＴサポート株式会社,,株式会社,長野県,下伊那郡松川町,上片桐４６０４番地,,20,402,3993301,,,,,,,2021-10-22,1,,,,,ナガノアイティーサポート,0
147,1100001034746,新規,0,2021-10-22,2021-10-22,Ｃａｌｉｔｂｅ　Ｊａｐａｎ株式会社,,株式会社,長野県,北佐久郡軽井沢町,大字発地８４９番地７,,20,321,3890113,,,,,,,2021-10-22,1,,,,,キャリイットビージャパン,0
165,1120001241332,新規,0,2021-10-22,2021-10-22,株式会社ＰＨＯＥＮＩＸ,,株式会社,大阪府,大阪市淀川区,十三本町１丁目２１番１６号,,27,123,5320024,,,,,,,2021-10-22,1,,,,,フェニックス,0
166,1120001241349,新規,0,2021-10-22,2021-10-22,株式会社Ｓｕｒｇｅ,,株式会社,大阪府,大阪市東住吉区,桑津５丁目７番２６号,,27,121,5460041,,,,,,,2021-10-22,1,,,,,サージ,0
167,1120001241365,新規,0,2021-10-22,2021-10-22,株式会社誠,,株式会社,大阪府,大阪市中央区,道頓堀１丁目５番９号,,27,128,5420071,,,,,,,2021-10-22,1,,,,,マコト,0
168,1120001241373,新規,0,2021-10-22,2021-10-22,株式会社ｆｒｅｅｌｙ,,株式会社,大阪府,大阪市東淀川区,相川１丁目１０－１１ＳＡＫＵＲＡＯｎｅ３号室,,27,114,5330007,,,,,,,2021-10-22,1,,,,,フリーリー,0
169,1120003020453,新規,0,2021-10-22,2021-10-22,合同会社ＡＮＮ,,合同会社,大阪府,大阪市生野区,中川２丁目１０番１１号,,27,116,5440005,,,,,,,2021-10-22,1,,,,,アン,0
174,1120101064518,新規,0,2021-10-22,2021-10-22,株式会社エーワイフードサービス,,株式会社,大阪府,堺市美原区,北余部西四丁８２番地１,,27,147,5870000,,,,,,,2021-10-22,1,,,,,エーワイフードサービス,0
175,1120101064534,新規,0,2021-10-22,2021-10-22,株式会社阪本興業,,株式会社,大阪府,堺市東区,菩提町５丁９９番地７,,27,143,5998103,,,,,,,2021-10-22,1,,,,,サカモトコウギョウ,0
176,1120903003879,新規,0,2021-10-22,2021-10-22,合同会社おおきに,,合同会社,大阪府,吹田市,朝日が丘町１１番４号,,27,205,5640083,,,,,,,2021-10-22,1,,,,,オオキニ,0
178,1122001035284,新規,0,2021-10-22,2021-10-22,株式会社ワイシービー,,株式会社,大阪府,八尾市,太田新町７丁目２５番地,,27,212,5810039,,,,,,,2021-10-22,1,,,,,ワイシービー,0
199,1180001148373,新規,0,2021-10-22,2021-10-22,株式会社Ｗｒａｉｔｈ　Ｉｎｔｅｒｎａｔｉｏｎａｌ,,株式会社,愛知県,稲沢市,平和町丸渕下３０１番地,,23,220,4901305,,,,,,,2021-10-22,1,,,,,レイスインターナショナル,0
200,1180001148398,新規,0,2021-10-22,2021-10-22,株式会社日本エアコンサービス,,株式会社,愛知県,名古屋市守山区,廿軒家１５番２２号,,23,113,4630065,,,,,,,2021-10-22,1,,,,,ニホンエアコンサービス,0
201,1180001148415,新規,0,2021-10-22,2021-10-22,株式会社鍛冶重,,株式会社,愛知県,小牧市,大字小牧原新田７４５番地５６,,23,219,4850012,,,,,,,2021-10-22,1,,,,,カジシゲ,0
207,1180301035544,新規,0,2021-10-22,2021-10-22,株式会社ココスマイル,,株式会社,愛知県,豊田市,下市場町３丁目４番地１,,23,211,4710875,,,,,,,2021-10-22,1,,,,,ココスマイル,0
210,1200003005355,新規,0,2021-10-22,2021-10-22,長藤合同会社,,合同会社,岐阜県,本巣郡北方町,高屋伊勢田２丁目３８番地３階,,21,421,5010455,,,,,,,2021-10-22,1,,,,,ナガフジ,0
212,1210001018663,新規,0,2021-10-22,2021-10-22,株式会社ジュンゾウ,,株式会社,福井県,坂井市,春江町田端第３４号１番地７４,,18,210,9190477,,,,,,,2021-10-22,1,,,,,ジュンゾウ,0
217,1240001058789,新規,0,2021-10-22,2021-10-22,株式会社中川ハウジング,,株式会社,広島県,広島市東区,温品４丁目１番６号,,34,102,7320033,,,,,,,2021-10-22,1,,,,,ナカガワハウジング,0
218,1240001058797,新規,0,2021-10-22,2021-10-22,Ｓ＆Ｊ株式会社,,株式会社,広島県,広島市南区,皆実町４丁目２４番７号,,34,103,7340007,,,,,,,2021-10-22,1,,,,,エスアンドジェイ,0
219,1240001058806,新規,0,2021-10-22,2021-10-22,株式会社グローバルマネジメント,,株式会社,広島県,広島市中区,鉄砲町４番４－８０１号,,34,101,7300017,,,,,,,2021-10-22,1,,,,,グローバルマネジメント,0
221,1240003005335,新規,0,2021-10-22,2021-10-22,合同会社ＫＩＰ,,合同会社,広島県,広島市安佐南区,毘沙門台２丁目５２番６号,,34,105,7310152,,,,,,,2021-10-22,1,,,,,ケイアイピー,0
226,1250003002926,新規,0,2021-10-22,2021-10-22,合同会社Ｓｙｓｔｅｍ　Ｍａｔｅ,,合同会社,山口県,山口市,吉敷中東１丁目２９番１号,,35,203,7530813,,,,,,,2021-10-22,1,,,,,システムメイト,0
237,1290001095101,新規,0,2021-10-22,2021-10-22,株式会社ｈｏ’ｏｌａｎａ,,株式会社,福岡県,福岡市東区,水谷２丁目５１番３号,,40,131,8130041,,,,,,,2021-10-22,1,,,,,ホオラナ,0
241,1290003011733,新規,0,2021-10-22,2021-10-22,合同会社ＯＢＵＴＯ,,合同会社,福岡県,太宰府市,石坂２丁目２５番３０号,,40,221,8180118,,,,,,,2021-10-22,1,,,,,オブト,0
242,1290003011741,新規,0,2021-10-22,2021-10-22,ハウスサポート合同会社,,合同会社,福岡県,久留米市,通東町２番３７号サンシティビル４Ｆ,,40,203,8300016,,,,,,,2021-10-22,1,,,,,ハウスサポート,0
254,1330001029095,新規,0,2021-10-22,2021-10-22,渡邊創建株式会社,,株式会社,熊本県,山鹿市,鹿本町下高橋２９２番地４,,43,208,8610316,,,,,,,2021-10-22,1,,,,,ワタナベソウケン,0
256,1330005010415,新規,0,2021-10-22,2021-10-22,宇城上天草ダンプ協同組合,,その他の設立登記法人,熊本県,上天草市,大矢野町登立５３２番地,,43,212,8693601,,,,,,,2021-10-22,1,,,,,ウキカミアマクサダンプ,0
257,1340005009357,新規,0,2021-10-22,2021-10-22,特定非営利活動法人ＳＭＡＰＰＹ,,その他の設立登記法人,鹿児島県,大島郡和泊町,大字手々知名７８０番地,,46,533,8919111,,,,,,,2021-10-22,1,,,,,スマッピー,0
269,1430001085228,新規,0,2021-10-22,2021-10-22,バイオテックラボ株式会社,,株式会社,北海道,札幌市清田区,清田二条２丁目１８番２３号,,01,110,0040842,,,,,,,2021-10-22,1,,,,,バイオテックラボ,0
271,1430003013277,新規,0,2021-10-22,2021-10-22,合同会社しおみ接骨院,,合同会社,北海道,小樽市,花園３丁目１番７号,,01,203,0470024,,,,,,,2021-10-22,1,,,,,シオミセッコツイン,0
275,1490001010023,新規,0,2021-10-22,2021-10-22,株式会社ファミリィー住宅,,株式会社,高知県,高知市,二葉町１５番４号,,39,201,7810815,,,,,,,2021-10-22,1,,,,,ファミリィージュウタク,0
310,2010001221988,新規,0,2021-10-22,2021-10-22,Ｉｃｅインテグラル２株式会社,,株式会社,東京都,千代田区,丸の内１丁目９番２号,,13,101,1000005,,,,,,,2021-10-22,1,,,,,アイスインテグラルツー,0
311,2010001222020,新規,0,2021-10-22,2021-10-22,パートナー創建株式会社,,株式会社,東京都,千代田区,九段南１丁目５番６号りそな九段ビル５Ｆ,,13,101,1020074,,,,,,,2021-10-22,1,,,,,パートナーソウケン,0
312,2010001222029,新規,0,2021-10-22,2021-10-22,精化快車株式会社,,株式会社,東京都,中央区,銀座３丁目１２番１９号,,13,102,1040061,,,,,,,2021-10-22,1,,,,,セイカカイシャ,0
317,2010005034131,新規,0,2021-10-22,2021-10-22,四ツ谷ソーラーホールディングス一般社団法人,,その他の設立登記法人,東京都,千代田区,麹町２丁目８番地ＭＬＣ麹町ビル４階フィンポート税理士法人内,,13,101,1020083,,,,,,,2021-10-22,1,,,,,ヨツヤソーラーホールディングス,0
326,2010403026374,新規,0,2021-10-22,2021-10-22,合同会社ＧＣＭアグリ,,合同会社,東京都,港区,赤坂１丁目１２番３２号アーク森ビル１３Ｆ,,13,103,1070052,,,,,,,2021-10-22,1,,,,,ジーシーエムアグリ,0
328,2010405020334,新規,0,2021-10-22,2021-10-22,一般社団法人Ｐｅｎｉｎｓｕｌａ２,,その他の設立登記法人,東京都,港区,虎ノ門５丁目１番４号,,13,103,1050001,,,,,,,2021-10-22,1,,,,,ペニンシュラツー,0
335,2010701041678,新規,0,2021-10-22,2021-10-22,株式会社塗料屋サンライズ,,株式会社,東京都,品川区,北品川１丁目９番７トップルーム品川１０１５号,,13,109,1400001,,,,,,,2021-10-22,1,,,,,トリョウヤサンライズ,0
343,2011003013440,新規,0,2021-10-22,2021-10-22,Ｂｅ　Ｃｒｅａｔｉｖｅ合同会社,,合同会社,東京都,目黒区,中目黒１丁目１０－２５－５０３,,13,110,1530061,,,,,,,2021-10-22,1,,,,,ビークリエイティブ,0
344,2011003013597,新規,0,2021-10-22,2021-10-22,合同会社ＰＬＡＮ－Ｂ,,合同会社,東京都,渋谷区,神宮前６丁目２３番４号桑野ビル２階,,13,113,1500001,,,,,,,2021-10-22,1,,,,,プランビー,0
355,2011101096651,新規,0,2021-10-22,2021-10-22,ＤＩＧＩＵＲＵ株式会社,,株式会社,東京都,新宿区,高田馬場４丁目１８番１０－９０２号,,13,104,1690075,,,,,,,2021-10-22,1,,,,,ディジウル,0
358,2011105010022,新規,0,2021-10-22,2021-10-22,一般社団法人ＫＮ２ホールディングス,,その他の設立登記法人,東京都,新宿区,西新宿８丁目５番１号,,13,104,1600023,,,,,,,2021-10-22,1,,,,,ケーエヌツーホールディングス,0
362,2011403003479,新規,0,2021-10-22,2021-10-22,Ｍａｓｃｏｔ　Ｍｏｎｔｈｌｙ　Ｍｉｘ合同会社,,合同会社,東京都,板橋区,蓮根３丁目１２番１３号メゾンドリッシュ１０１,,13,119,1740046,,,,,,,2021-10-22,1,,,,,マスコットマンスリーミックス,0
368,2011701024788,新規,0,2021-10-22,2021-10-22,株式会社ムーン・ラック,,株式会社,東京都,江戸川区,上篠崎２丁目９番８号,,13,123,1330054,,,,,,,2021-10-22,1,,,,,ムーンラック,0
371,2012701016734,新規,0,2021-10-22,2021-10-22,株式会社ＷＩＮＤ　ＰＯＷＥＲ　ＥＮＥＲＧＹ,,株式会社,東京都,小平市,仲町１９２番地の１４,,13,211,1870042,,,,,,,2021-10-22,1,,,,,ウィンドパワーエナジー,0
374,2012803002632,新規,0,2021-10-22,2021-10-22,合同会社アシスト,,合同会社,東京都,昭島市,つつじが丘３丁目２番１－３１０号,,13,207,1960012,,,,,,,2021-10-22,1,,,,,アシスト,0
383,2020001143595,新規,0,2021-10-22,2021-10-22,株式会社秋元エステート,,株式会社,神奈川県,横浜市緑区,台村町５９２番地１,,14,113,2260014,,,,,,,2021-10-22,1,,,,,アキモトエステート,0
384,2020001143604,新規,0,2021-10-22,2021-10-22,株式会社Ｈａｍａｎｉｓｈｉ　ＤＥＳＩＧＮ,,株式会社,神奈川県,横浜市中区,常盤町２丁目１０番地,,14,104,2310014,,,,,,,2021-10-22,1,,,,,ハマニシデザイン,0
386,2020003020693,新規,0,2021-10-22,2021-10-22,合同会社船旅見聞録,,合同会社,神奈川県,横浜市西区,花咲町４丁目１２３番地２シャルマン横浜２０１,,14,103,2200022,,,,,,,2021-10-22,1,,,,,フナタビケンブンロク,0
389,2021001074252,新規,0,2021-10-22,2021-10-22,株式会社Ｏｒｉｇｉｎａｌ　Ｐｏｓｉｔｉｏｎ,,株式会社,神奈川県,逗子市,新宿１丁目５番１４号,,14,208,2490007,,,,,,,2021-10-22,1,,,,,オリジナルポジション,0
394,2030001144948,新規,0,2021-10-22,2021-10-22,ｌｕｃｋ　ｈｉｌｌ株式会社,,株式会社,埼玉県,戸田市,美女木５丁目５－３,,11,224,3350031,,,,,,,2021-10-22,1,,,,,ラックヒル,0
395,2030001144964,新規,0,2021-10-22,2021-10-22,株式会社ＴＣＯ,,株式会社,埼玉県,草加市,西町１１６２－２－１０３,,11,221,3400035,,,,,,,2021-10-22,1,,,,,ティーシーオー,0
401,2030003018159,新規,0,2021-10-22,2021-10-22,ティファニー合同会社,,合同会社,埼玉県,さいたま市大宮区,仲町２丁目５６番地,,11,103,3300845,,,,,,,2021-10-22,1,,,,,ティファニー,0
402,2030003018183,新規,0,2021-10-22,2021-10-22,ＢＨＵＩＹＡＮ　ＩＮＴＥＲＮＡＴＩＯＮＡＬ　ＴＲＡＤＥ合同会社,,合同会社,埼玉県,川口市,西川口３丁目１２番３号ＬＡＬＡ‐ｂｅｅハイム２０３号室,,11,203,3320021,,,,,,,2021-10-22,1,,,,,ブイアンインターナショナルトレード,0
422,2050003006153,新規,0,2021-10-22,2021-10-22,池田屋合同会社,,合同会社,茨城県,取手市,岡１３５４番地,,08,217,3001546,,,,,,,2021-10-22,1,,,,,イケダヤ,0
431,2070001038568,新規,0,2021-10-22,2021-10-22,株式会社ＪＶＫＭ北関東,,株式会社,群馬県,前橋市,南町２丁目４２番地６ＭＲ前橋南町２階２０１号室,,10,201,3710805,,,,,,,2021-10-22,1,,,,,ジェイブイケイエムキタカントウ,0
438,2100001034745,新規,0,2021-10-22,2021-10-22,株式会社豊富商事,,株式会社,長野県,飯田市,鼎下山８６５番地５,,20,205,3950803,,,,,,,2021-10-22,1,,,,,トヨトミショウジ,0
443,2120001241257,新規,0,2021-10-22,2021-10-22,株式会社ＹＯＰＵｐａｒｔｎｅｒｓ,,株式会社,大阪府,大阪市中央区,宗右衛門町４番６号,,27,128,5420084,,,,,,,2021-10-22,1,,,,,ヨプパートナーズ,0
445,2120003020460,新規,0,2021-10-22,2021-10-22,トミー合同会社,,合同会社,大阪府,大阪市中央区,久太郎町１丁目７番１１－２２０９号,,27,128,5410056,,,,,,,2021-10-22,1,,,,,トミー,0
447,2120101064525,新規,0,2021-10-22,2021-10-22,株式会社希工業,,株式会社,大阪府,羽曳野市,南恵我之荘２丁目２番１２－２０１号,,27,222,5830885,,,,,,,2021-10-22,1,,,,,ノゾミコウギョウ,0
448,2120903003886,新規,0,2021-10-22,2021-10-22,合同会社Ｋ４カンパニー,,合同会社,大阪府,茨木市,田中町１２－３３ジェイグランエル茨木１０２１号,,27,211,5670025,,,,,,,2021-10-22,1,,,,,ケーフォーカンパニー,0
451,2122003002199,新規,0,2021-10-22,2021-10-22,合同会社実技建,,合同会社,大阪府,大東市,寺川５丁目９番３１号,,27,218,5740014,,,,,,,2021-10-22,1,,,,,ミノリギケン,0
452,2130001070366,新規,0,2021-10-22,2021-10-22,東野商事株式会社,,株式会社,京都府,京都市左京区,田中里ノ前町５４－１ハイツ里ノ前４Ｃ,,26,103,6068227,,,,,,,2021-10-22,1,,,,,トウノショウジ,0
453,2130001070374,新規,0,2021-10-22,2021-10-22,株式会社ハイアシスト,,株式会社,京都府,京都市右京区,花園巽南町１７番地６,,26,108,6168051,,,,,,,2021-10-22,1,,,,,ハイアシスト,0
454,2130001070382,新規,0,2021-10-22,2021-10-22,株式会社アフターソフトサービス,,株式会社,京都府,京都市伏見区,竹田田中宮町７番地Ｋ’ｓＶｉｌｌａ堀川３０３号,,26,109,6128444,,,,,,,2021-10-22,1,,,,,アフターソフトサービス,0
455,2130001070390,新規,0,2021-10-22,2021-10-22,ｉＭａｎａｇｅ株式会社,,株式会社,京都府,京都市中京区,壬生神明町１番地３９ａｒｔｉｃｌｅｓ２０６,,26,104,6048861,,,,,,,2021-10-22,1,,,,,アイマネージ,0
462,2140001123560,新規,0,2021-10-22,2021-10-22,株式会社グレープグレープ,,株式会社,兵庫県,神戸市中央区,磯辺通１丁目１番１８号３階－３０１号,,28,110,6510084,,,,,,,2021-10-22,1,,,,,グレープグレープ,0
463,2140001123577,新規,0,2021-10-22,2021-10-22,西近畿文化財株式会社,,株式会社,兵庫県,神戸市垂水区,清玄町２１番地の７,,28,108,6550865,,,,,,,2021-10-22,1,,,,,ニシキンキブンカザイ,0
464,2140003016894,新規,0,2021-10-22,2021-10-22,Ｅｎｊｏｙ　Ｌｉｆｅ　Ｔａｏ合同会社,,合同会社,兵庫県,尼崎市,富松町１丁目３１番３号,,28,202,6610003,,,,,,,2021-10-22,1,,,,,エンジョイライフタオ,0
467,2170001016836,新規,0,2021-10-22,2021-10-22,株式会社アート・シンクタンク＆月下の一群,,株式会社,和歌山県,御坊市,藤田町吉田１０２４番地４,,30,205,6491342,,,,,,,2021-10-22,1,,,,,アートシンクタンクアンドゲッカノイチグン,0
471,2180001148397,新規,0,2021-10-22,2021-10-22,クララコスメ株式会社,,株式会社,愛知県,名古屋市東区,東桜１丁目１０番４号（オープンレジデンシア久屋大通ＴＨＥ・ＣＯＵＲＴ７０２号）,,23,102,4610005,,,,,,,2021-10-22,1,,,,,クララコスメ,0
472,2180001148414,新規,0,2021-10-22,2021-10-22,株式会社ｃｏｔｔ,,株式会社,愛知県,小牧市,篠岡１丁目４５番地,,23,219,4850815,,,,,,,2021-10-22,1,,,,,コット,0
473,2180001148422,新規,0,2021-10-22,2021-10-22,株式会社エイチアンドティー,,株式会社,愛知県,名古屋市中区,栄５丁目２６番３９号ＧＳ栄ビル３Ｆ,,23,106,4600008,,,,,,,2021-10-22,1,,,,,エイチアンドティー,0
481,2200003005354,新規,0,2021-10-22,2021-10-22,合同会社聖,,合同会社,岐阜県,揖斐郡揖斐川町,白樫３７１番地１,,21,401,5010635,,,,,,,2021-10-22,1,,,,,ヒジリ,0
486,2210001018662,新規,0,2021-10-22,2021-10-22,ヨシカワ塗工株式会社,,株式会社,福井県,福井市,北今泉町第２３号１番地３,,18,201,9188212,,,,,,,2021-10-22,1,,,,,ヨシカワトコウ,0
490,2220003003141,新規,0,2021-10-22,2021-10-22,合同会社ナルエステート,,合同会社,石川県,金沢市,木曳野４丁目２９番地７,,17,201,9200339,,,,,,,2021-10-22,1,,,,,ナルエステート,0
494,2240001058796,新規,0,2021-10-22,2021-10-22,株式会社アクシスリード,,株式会社,広島県,東広島市,高屋町大畠５４９番地３５２,,34,212,7392104,,,,,,,2021-10-22,1,,,,,アクシスリード,0
497,2240003005334,新規,0,2021-10-22,2021-10-22,合同会社ジャストフィット,,合同会社,広島県,廿日市市,宮内４丁目１４番１０－１号,,34,213,7380034,,,,,,,2021-10-22,1,,,,,ジャストフィット,0
516,2330001029094,新規,0,2021-10-22,2021-10-22,株式会社弘設計事務所,,株式会社,熊本県,天草市,港町１４番１０号,,43,215,8630021,,,,,,,2021-10-22,1,,,,,ヒロセッケイジムショ,0
517,2330001029103,新規,0,2021-10-22,2021-10-22,株式会社ひかりライン,,株式会社,熊本県,上天草市,松島町教良木２６２８番地２,,43,212,8616105,,,,,,,2021-10-22,1,,,,,ヒカリライン,0
519,2340001024185,新規,0,2021-10-22,2021-10-22,株式会社宮昌本社,,株式会社,鹿児島県,鹿児島市,鷹師２丁目６番１２号,,46,201,8900043,,,,,,,2021-10-22,1,,,,,ミヤショウホンシャ,0
524,2350003003954,新規,0,2021-10-22,2021-10-22,ショップ菅生合同会社,,合同会社,宮崎県,宮崎市,橘通西３丁目５番１２号,,45,201,8800001,,,,,,,2021-10-22,1,,,,,ショップスゴウ,0
528,2360003011510,新規,0,2021-10-22,2021-10-22,Ａｇａｅｓｓｅ　Ｃｏｍｐａｎｙ合同会社,,合同会社,沖縄県,宜野湾市,普天間２丁目４番７－３０１号メゾン宮本,,47,205,9012202,,,,,,,2021-10-22,1,,,,,アガエッセコンパニ,0
529,2370003005445,新規,0,2021-10-22,2021-10-22,クリアライフサポート合同会社,,合同会社,宮城県,石巻市,わかば３丁目１１－２,,04,202,9860867,,,,,,,2021-10-22,1,,,,,クリアライフサポート,0
534,2380001032283,新規,0,2021-10-22,2021-10-22,株式会社ウェルネスト,,株式会社,福島県,福島市,御山町２番１２号,,07,201,9608012,,,,,,,2021-10-22,1,,,,,ウェルネスト,0
546,2430001085219,新規,0,2021-10-22,2021-10-22,株式会社ＹＫ企画,,株式会社,北海道,札幌市中央区,南二条西２６丁目２番２０号サロンレイオフィス,,01,101,0640802,,,,,,,2021-10-22,1,,,,,ワイケーキカク,0
547,2430003013276,新規,0,2021-10-22,2021-10-22,合同会社ＲＥフレックス,,合同会社,北海道,札幌市中央区,南二条西７丁目１番５号２・７ビル２階,,01,101,0600062,,,,,,,2021-10-22,1,,,,,リフレックス,0
549,2470001018785,新規,0,2021-10-22,2021-10-22,ライトストリート株式会社,,株式会社,香川県,高松市,六条町１２６３番地８,,37,201,7610303,,,,,,,2021-10-22,1,,,,,ライトストリート,0
550,2490001010022,新規,0,2021-10-22,2021-10-22,株式会社アシスト高知,,株式会社,高知県,高知市,みずき二丁目１０１１番地,,39,201,7800000,,,,,,,2021-10-22,1,,,,,アシストコウチ,0
552,2700150092319,新規,0,2021-10-22,2019-01-09,世界救世教　明主様と聖地に直結する会,,その他,静岡県,熱海市,桃山町２６－１救世会館１階,,22,205,4130006,,,,,,,2019-01-09,1,,,,,セカイキユウセイキヨウメイシユサマトセイチニチヨツケツスルカイ,0
562,3010001221938,新規,0,2021-10-22,2021-10-22,株式会社ＯｎＴｕｒｎ,,株式会社,東京都,中央区,銀座８丁目１８番１６号,,13,102,1040061,,,,,,,2021-10-22,1,,,,,オンターン,0
563,3010001222028,新規,0,2021-10-22,2021-10-22,株式会社仁和,,株式会社,東京都,千代田区,神田佐久間町１丁目１６番地大橋ビル５０３,,13,101,1010025,,,,,,,2021-10-22,1,,,,,ニンワ,0
568,3010003036062,新規,0,2021-10-22,2021-10-22,合同会社Ｗａｔｅｒ,,合同会社,東京都,中央区,日本橋久松町６番１０号ＳＶＥＬＴＯ５０１号,,13,102,1030005,,,,,,,2021-10-22,1,,,,,ウォーター,0
569,3010003036079,新規,0,2021-10-22,2021-10-22,ヴァジィルゥ合同会社,,合同会社,東京都,中央区,銀座６丁目１３番１６号,,13,102,1040061,,,,,,,2021-10-22,1,,,,,ヴァジィルゥ,0
570,3010005034122,新規,0,2021-10-22,2021-10-22,一般社団法人ＫＳＬＦ１１,,その他の設立登記法人,東京都,千代田区,内幸町２丁目１番６号,,13,101,1000011,,,,,,,2021-10-22,1,,,,,ケイエスエルエフイレブン,0
571,3010005034130,新規,0,2021-10-22,2021-10-22,麹町ソーラーホールディングス一般社団法人,,その他の設立登記法人,東京都,千代田区,麹町２丁目８番地ＭＬＣ麹町ビル４階フィンポート税理士法人内,,13,101,1020083,,,,,,,2021-10-22,1,,,,,コウジマチソーラーホールディングス,0
577,3010501047973,新規,0,2021-10-22,2021-10-22,ＲＵＡＮＹＩＮ投資株式会社,,株式会社,東京都,台東区,上野３丁目１１番５号,,13,106,1100005,,,,,,,2021-10-22,1,,,,,リューアンイン,0
578,3010501048006,新規,0,2021-10-22,2021-10-22,ルーラル・アーティスツ株式会社,,株式会社,東京都,台東区,元浅草４丁目９番７号丸菊レジデンス４０１,,13,106,1110041,,,,,,,2021-10-22,1,,,,,ルーラルアーティスツ,0
588,3010701041660,新規,0,2021-10-22,2021-10-22,ＵＲＵＯＩ株式会社,,株式会社,東京都,品川区,東五反田５丁目２２番３３号ＴＫ池田山ビル２Ｆ,,13,109,1410022,,,,,,,2021-10-22,1,,,,,ウルオイ,0
589,3010701041677,新規,0,2021-10-22,2021-10-22,株式会社モーターガレージ,,株式会社,東京都,品川区,西五反田３丁目１１番６号,,13,109,1410031,,,,,,,2021-10-22,1,,,,,モーターガレージ,0
590,3010703005977,新規,0,2021-10-22,2021-10-22,合同会社Ｒｏｇｅｒ　Ｃｏｎｓｕｌｔｉｎｇ,,合同会社,東京都,品川区,小山３丁目１５－２－１１０４,,13,109,1420062,,,,,,,2021-10-22,1,,,,,ロジャーコンサルティング,0
591,3010705003285,新規,0,2021-10-22,2021-10-22,一般社団法人プロジェクトアドベンチャー協会,,その他の設立登記法人,東京都,品川区,西五反田７丁目８番１１号,,13,109,1410031,,,,,,,2021-10-22,1,,,,,プロジェクトアドベンチャーキョウカイ,0
596,3010901049669,新規,0,2021-10-22,2021-10-22,株式会社ＲＡＬＬＹ　Ｔｏｋｙｏ,,株式会社,東京都,世田谷区,駒沢２丁目２０番６号,,13,112,1540012,,,,,,,2021-10-22,1,,,,,ラリートウキョウ,0
597,3010905004224,新規,0,2021-10-22,2021-10-22,一般社団法人隼人太陽光発電所,,その他の設立登記法人,東京都,世田谷区,経堂５丁目２０番７号,,13,112,1560052,,,,,,,2021-10-22,1,,,,,ハヤトタイヨウコウハツデンショ,0
608,3011003013588,新規,0,2021-10-22,2021-10-22,Ｄｏｍｉｎｇｕｅｚ　Ｈｏｌｄｉｎｇｓ合同会社,,合同会社,東京都,渋谷区,恵比寿南３丁目１番１号恵比寿グリーングラス６－９階,,13,113,1500022,,,,,,,2021-10-22,1,,,,,ドミンゲスホールディングス,0
614,3011101096634,新規,0,2021-10-22,2021-10-22,株式会社オフィスＨＫ,,株式会社,東京都,新宿区,西落合１丁目２１番７－３０６号,,13,104,1610031,,,,,,,2021-10-22,1,,,,,オフィスエイチケイ,0
615,3011101096659,新規,0,2021-10-22,2021-10-22,株式会社なおみさん,,株式会社,東京都,新宿区,早稲田鶴巻町５８０番地,,13,104,1620041,,,,,,,2021-10-22,1,,,,,ナオミサン,0
623,3011801039867,新規,0,2021-10-22,2021-10-22,株式会社Ｊｕｐｉｔｅｒ,,株式会社,東京都,足立区,江北３丁目２３番７号,,13,121,1230872,,,,,,,2021-10-22,1,,,,,ジュピター,0
626,3011805003118,新規,0,2021-10-22,2021-10-22,特定非営利活動法人Ｐｉｇｅｏｎ,,その他の設立登記法人,東京都,葛飾区,東堀切１丁目２０番１６－４０４号,,13,122,1240004,,,,,,,2021-10-22,1,,,,,ピジョン,0
632,3012701016733,新規,0,2021-10-22,2021-10-22,株式会社安島興業,,株式会社,東京都,東村山市,青葉町１丁目１７番地３６,,13,213,1890002,,,,,,,2021-10-22,1,,,,,ヤスジマコウギョウ,0
650,3020001143446,新規,0,2021-10-22,2021-10-22,ランドフィールド株式会社,,株式会社,神奈川県,横浜市中区,山手町２２５番地１,,14,104,2310862,,,,,,,2021-10-22,1,,,,,ランドフィールド,0
651,3020001143545,新規,0,2021-10-22,2021-10-22,安寧不動産株式会社,,株式会社,神奈川県,川崎市川崎区,砂子１丁目２番１２号,,14,131,2100006,,,,,,,2021-10-22,1,,,,,アンネイフドウサン,0
652,3020001143578,新規,0,2021-10-22,2021-10-22,株式会社ららゆう,,株式会社,神奈川県,横浜市栄区,笠間２丁目２番２号ブランズタワー大船１９１４,,14,115,2470006,,,,,,,2021-10-22,1,,,,,ララユウ,0
654,3020003020461,新規,0,2021-10-22,2021-10-22,飯畑設計合同会社,,合同会社,神奈川県,横浜市南区,永田北２丁目８－２サンハイツ,,14,105,2320071,,,,,,,2021-10-22,1,,,,,,0
657,3021001074268,新規,0,2021-10-22,2021-10-22,開進産業株式会社,,株式会社,神奈川県,相模原市緑区,中野１０４５番地１６,,14,151,2520157,,,,,,,2021-10-22,1,,,,,カイシンサンギョウ,0
658,3021001074292,新規,0,2021-10-22,2021-10-22,サンメディック株式会社,,株式会社,神奈川県,相模原市緑区,名倉４３０３番地２階,,14,151,2520187,,,,,,,2021-10-22,1,,,,,サンメディック,0
665,3030001144939,新規,0,2021-10-22,2021-10-22,ハムハウス株式会社,,株式会社,埼玉県,さいたま市大宮区,高鼻町２丁目１番地１,,11,103,3300803,,,,,,,2021-10-22,1,,,,,ハムハウス,0
666,3030001144963,新規,0,2021-10-22,2021-10-22,エスケー・リライアンス株式会社,,株式会社,埼玉県,坂戸市,西坂戸４丁目９－２１,,11,239,3500247,,,,,,,2021-10-22,1,,,,,エスケーリライアンス,0
668,3030003018182,新規,0,2021-10-22,2021-10-22,合同会社ベティ,,合同会社,埼玉県,坂戸市,大字中小坂９２３番地５,,11,239,3500206,,,,,,,2021-10-22,1,,,,,ベティ,0
670,3030005020608,新規,0,2021-10-22,2021-10-22,特定非営利活動法人タイプティー,,その他の設立登記法人,埼玉県,坂戸市,にっさい花みず木７丁目２番地９１,,11,239,3500269,,,,,,,2021-10-22,1,,,,,タイプティー,0
678,3040002104924,新規,0,2021-10-22,2021-10-22,有限会社伊藤工業,,有限会社,千葉県,木更津市,高砂２丁目４番１８号,,12,206,2920016,,,,,,,2021-10-22,1,,,,,,0
681,3050001050020,新規,0,2021-10-22,2021-10-22,興和株式会社,,株式会社,茨城県,稲敷市,中山４３６６番地Ｂ２号,,08,229,3001415,,,,,,,2021-10-22,1,,,,,コウワ,0
687,3060001034220,新規,0,2021-10-22,2021-10-22,株式会社ドリームファクトリー,,株式会社,栃木県,宇都宮市,上横田町７６９番地１イーストアヴェニュー６０３,,09,201,3210106,,,,,,,2021-10-22,1,,,,,,0
690,3070001038567,新規,0,2021-10-22,2021-10-22,株式会社ＣＯＮＹＥＬＬＯ,,株式会社,群馬県,伊勢崎市,連取町３０７７番地５,,10,204,3720812,,,,,,,2021-10-22,1,,,,,コンニャロ,0
696,3080401025437,新規,0,2021-10-22,2021-10-22,株式会社中田運輸,,株式会社,静岡県,磐田市,加茂１０１１番地２,,22,211,4380804,,,,,,,2021-10-22,1,,,,,ナカダウンユ,0
699,3100003006270,新規,0,2021-10-22,2021-10-22,合同会社ｇｒａｆｔ,,合同会社,長野県,長野市,篠ノ井東福寺１４２６番地６,,20,201,3888002,,,,,,,2021-10-22,1,,,,,グラフト,0
701,3110001036129,新規,0,2021-10-22,2021-10-22,株式会社モンファイン,,株式会社,新潟県,長岡市,北陽３丁目１番地１,,15,202,9400871,,,,,,,2021-10-22,1,,,,,モンファイン,0
713,3120001241314,新規,0,2021-10-22,2021-10-22,株式会社ＲＡＳＴ　ＯＮＥ,,株式会社,大阪府,枚方市,中宮東之町１１－６福田ビル２階,,27,210,5731195,,,,,,,2021-10-22,1,,,,,ラストワン,0
714,3120001241322,新規,0,2021-10-22,2021-10-22,株式会社渋谷工業,,株式会社,大阪府,大阪市此花区,春日出北１丁目１３番１４号,,27,104,5540021,,,,,,,2021-10-22,1,,,,,シブタニコウギョウ,0
715,3120001241347,新規,0,2021-10-22,2021-10-22,株式会社アベラＢＰＯ,,株式会社,大阪府,大阪市淀川区,西中島６丁目３－２４－Ｐ４０１,,27,123,5320011,,,,,,,2021-10-22,1,,,,,アベラビーピーオー,0
717,3120003020427,新規,0,2021-10-22,2021-10-22,ＪＹＯＨＯ合同会社,,合同会社,大阪府,大阪市中央区,日本橋１丁目１－３－３０２号,,27,128,5420073,,,,,,,2021-10-22,1,,,,,,0
721,3122001035282,新規,0,2021-10-22,2021-10-22,丸栄商会株式会社,,株式会社,大阪府,東大阪市,衣摺５丁目１１番２０号,00124642,27,227,5770827,,,,,,,2021-10-22,1,,,,,マルエイショウカイ,0
724,3130001070381,新規,0,2021-10-22,2021-10-22,株式会社ＷＡＳＯＯ,,株式会社,京都府,京都市中京区,室町通三条下る烏帽子屋町４８６番地１三条室町アーバンライフ１００３,,26,104,6048165,,,,,,,2021-10-22,1,,,,,ワソー,0
731,3140001123543,新規,0,2021-10-22,2021-10-22,株式会社テイク,,株式会社,兵庫県,川西市,久代２丁目６番１４号,,28,217,6660024,,,,,,,2021-10-22,1,,,,,テイク,0
732,3140001123576,新規,0,2021-10-22,2021-10-22,株式会社ＶＯＯＳＴ,,株式会社,兵庫県,加古川市,加古川町寺家町３５２－４,,28,210,6750066,,,,,,,2021-10-22,1,,,,,ブースト,0
733,3140001123584,新規,0,2021-10-22,2021-10-22,株式会社ａｌｔｏ　Ｇｉｏｒｎｏ,,株式会社,兵庫県,神戸市東灘区,北青木３丁目１３番７号,,28,101,6580014,,,,,,,2021-10-22,1,,,,,アルトジョルノ,0
734,3140001123601,新規,0,2021-10-22,2021-10-22,株式会社ＺＥＲＯ　ｃｏｎｓｔｒｕｃｔｉｏｎ,,株式会社,兵庫県,加古川市,別府町石町８６,,28,210,6750127,,,,,,,2021-10-22,1,,,,,ゼロコンストラクション,0
735,3160001023741,新規,0,2021-10-22,2021-10-22,ｆｒｏｎｔｉｅｒ株式会社,,株式会社,滋賀県,大津市,坂本３丁目９番３号,,25,201,5200113,,,,,,,2021-10-22,1,,,,,フロンティア,0
741,3180003023119,新規,0,2021-10-22,2021-10-22,合同会社ＩＫＭ,,合同会社,愛知県,名古屋市西区,鳥見町３丁目１４番地－９０２,,23,104,4510071,,,,,,,2021-10-22,1,,,,,アイケーエム,0
744,3180303005139,新規,0,2021-10-22,2021-10-22,合同会社ＵＮＩＴＥ,,合同会社,愛知県,安城市,篠目町４丁目２番地９,,23,212,4460073,,,,,,,2021-10-22,1,,,,,ユナイト,0
745,3190001028787,新規,0,2021-10-22,2021-10-22,株式会社丸為,,株式会社,三重県,伊勢市,船江２丁目２０番２２号,,24,203,5160008,,,,,,,2021-10-22,1,,,,,マルタメ,0
749,3200001039312,新規,0,2021-10-22,2021-10-22,株式会社ＥＬＥＮ,,株式会社,岐阜県,岐阜市,野一色２丁目５番地１５,,21,201,5008226,,,,,,,2021-10-22,1,,,,,エレン,0
750,3210001018661,新規,0,2021-10-22,2021-10-22,ＷＥＳＴ株式会社,,株式会社,福井県,吉田郡永平寺町,松岡葵３丁目５１番地,,18,322,9101132,,,,,,,2021-10-22,1,,,,,ウエスト,0
751,3220003003140,新規,0,2021-10-22,2021-10-22,ケイシー合同会社,,合同会社,石川県,金沢市,田上さくら２丁目５１番地,,17,201,9201157,,,,,,,2021-10-22,1,,,,,ケイシー,0
759,3240001058787,新規,0,2021-10-22,2021-10-22,株式会社優心,,株式会社,広島県,安芸郡府中町,みくまり３丁目１５番１１号Ｂ棟２０１,,34,302,7350003,,,,,,,2021-10-22,1,,,,,ユウシン,0
760,3240001058795,新規,0,2021-10-22,2021-10-22,株式会社ＥＩＺＥＮホールディングス,,株式会社,広島県,福山市,東川口町３丁目１８番１３号,,34,207,7200821,,,,,,,2021-10-22,1,,,,,エイゼンホールディングス,0
761,3240001058804,新規,0,2021-10-22,2021-10-22,株式会社ＣＯＬＯＵＲ,,株式会社,広島県,広島市西区,西観音町１番１号１階,,34,104,7330037,,,,,,,2021-10-22,1,,,,,カラー,0
765,3240003005333,新規,0,2021-10-22,2021-10-22,ＥＦＤ未来合同会社,,合同会社,広島県,竹原市,高崎町１７９７番地,,34,203,7292313,,,,,,,2021-10-22,1,,,,,イーエフディーミライ,0
769,3250001019202,新規,0,2021-10-22,2021-10-22,ＴＡＩＫＡＩホールディングス株式会社,,株式会社,山口県,大島郡周防大島町,大字西方１５７１番地８,,35,305,7422921,,,,,,,2021-10-22,1,,,,,タイカイホールディングス,0
770,3250003002924,新規,0,2021-10-22,2021-10-22,合同会社村上商店,,合同会社,山口県,下関市,稗田中町１１番１１号,,35,201,7510856,,,,,,,2021-10-22,1,,,,,ムラカミショウテン,0
776,3290001095074,新規,0,2021-10-22,2021-10-22,株式会社美香空館,,株式会社,福岡県,宗像市,山田１５６３番地１,,40,220,8113411,,,,,,,2021-10-22,1,,,,,ビコウクウカン,0
777,3290001095090,新規,0,2021-10-22,2021-10-22,株式会社永生建設,,株式会社,福岡県,朝倉郡筑前町,二１８番８号,,40,447,8380228,,,,,,,2021-10-22,1,,,,,エイショウケンセツ,0
778,3290001095099,新規,0,2021-10-22,2021-10-22,株式会社Ｇ＆Ｌ,,株式会社,福岡県,福岡市中央区,今泉２丁目３番３６－１３０５号クリオラベルヴィ天神,,40,133,8100021,,,,,,,2021-10-22,1,,,,,ジーアンドエル,0
807,3370001047736,新規,0,2021-10-22,2021-10-22,株式会社おでんホールディングス,,株式会社,宮城県,仙台市青葉区,花京院２丁目１番１０号,,04,101,9800013,,,,,,,2021-10-22,1,,,,,オデンホールディングス,0
818,3390001016648,新規,0,2021-10-22,2021-10-22,株式会社彩花亭時代屋,,株式会社,山形県,上山市,葉山９番５号,,06,207,9993242,,,,,,,2021-10-22,1,,,,,サイカテイジダイヤ,0
826,3430001085218,新規,0,2021-10-22,2021-10-22,株式会社一昭巧建,,株式会社,北海道,札幌市北区,北二十四条西１７丁目２番５号,,01,102,0010024,,,,,,,2021-10-22,1,,,,,イッショウコウケン,0
827,3430001085226,新規,0,2021-10-22,2021-10-22,株式会社ヒラサワコーポレーション,,株式会社,北海道,札幌市豊平区,福住一条３丁目１２番８号,,01,105,0620041,,,,,,,2021-10-22,1,,,,,ヒラサワコーポレーション,0
832,3430003013267,新規,0,2021-10-22,2021-10-22,合同会社三統,,合同会社,北海道,札幌市中央区,南三条東２丁目４番地二条ＧＣビル,,01,101,0600053,,,,,,,2021-10-22,1,,,,,サントウ,0
834,3470001018784,新規,0,2021-10-22,2021-10-22,株式会社こすもす,,株式会社,香川県,高松市,太田下町１８６８番地２,,37,201,7618073,,,,,,,2021-10-22,1,,,,,コスモス,0
841,3500001023748,新規,0,2021-10-22,2021-10-22,Ｋ＆Ｃ１１株式会社,,株式会社,愛媛県,今治市,蒼社町１丁目６番１３号,,38,202,7940058,,,,,,,2021-10-22,1,,,,,ケーアンドシーイレブン,0
858,4010001221978,新規,0,2021-10-22,2021-10-22,ＥＮＡ株式会社,,株式会社,東京都,千代田区,丸の内１丁目２番１号,,13,101,1000005,,,,,,,2021-10-22,1,,,,,イーナ,0
859,4010001222010,新規,0,2021-10-22,2021-10-22,株式会社くらしの不動産,,株式会社,東京都,千代田区,神田佐久間町２丁目２５－２ＩＳＣ秋葉原６Ｆ,,13,101,1010025,,,,,,,2021-10-22,1,,,,,クラシノフドウサン,0
860,4010001222019,新規,0,2021-10-22,2021-10-22,株式会社ＫＮＲ,,株式会社,東京都,中央区,銀座８丁目１０番５号,,13,102,1040061,,,,,,,2021-10-22,1,,,,,ケーエヌアール,0
868,4010003036086,新規,0,2021-10-22,2021-10-22,ＳＲＪ１合同会社,,合同会社,東京都,中央区,銀座１丁目６番１１号土志田ビルディング３Ｆ,,13,102,1040061,,,,,,,2021-10-22,1,,,,,エスアールジェイワン,0
870,4010005034105,新規,0,2021-10-22,2021-10-22,Ｈｅｒｉｔａｇｅ　Ｔｏｋｉｗａｍａｔｓｕ特定目的会社,,その他の設立登記法人,東京都,中央区,八丁堀４丁目２番１０号ＡＯＪ税理士法人内,,13,102,1040032,,,,,,,2021-10-22,1,,,,,ヘリテイジトキワマツ,0
882,4010401163374,新規,0,2021-10-22,2021-10-22,株式会社ＬＩＦＥ　Ｅｎｔｅｒｔａｉｎｍｅｎｔ,,株式会社,東京都,港区,芝浦４丁目２０－２ブルームタワー５１１,,13,103,1080023,,,,,,,2021-10-22,1,,,,,ライフエンターテイメント,0
883,4010401163390,新規,0,2021-10-22,2021-10-22,ＹＴ株式会社,,株式会社,東京都,港区,東麻布１丁目２９番１３号クラッシースイート・ジオ８０３,,13,103,1060044,,,,,,,2021-10-22,1,,,,,ワイティー,0
884,4010401163399,新規,0,2021-10-22,2021-10-22,株式会社良,,株式会社,東京都,港区,新橋２丁目１５番１８号プラザＴ２ビル６階,,13,103,1050004,,,,,,,2021-10-22,1,,,,,リョウ,0
893,4010501048005,新規,0,2021-10-22,2021-10-22,株式会社未生ジュエリー,,株式会社,東京都,台東区,上野５丁目２３番４号,,13,106,1100005,,,,,,,2021-10-22,1,,,,,ミオジュエリー,0
899,4010701041676,新規,0,2021-10-22,2021-10-22,株式会社池田山ラボ,,株式会社,東京都,品川区,上大崎１丁目２０番２４号,,13,109,1410021,,,,,,,2021-10-22,1,,,,,イケダヤマラボ,0
900,4010701041684,新規,0,2021-10-22,2021-10-22,株式会社ＯＮＣＯ,,株式会社,東京都,品川区,東大井５丁目１２番１７号,,13,109,1400011,,,,,,,2021-10-22,1,,,,,オンコ,0
901,4010703005976,新規,0,2021-10-22,2021-10-22,オートノミー合同会社,,合同会社,東京都,品川区,大崎４丁目１番７号,,13,109,1410032,,,,,,,2021-10-22,1,,,,,オートノミー,0
902,4010705003284,新規,0,2021-10-22,2021-10-22,一般社団法人サポートデジタル協会,,その他の設立登記法人,東京都,品川区,西五反田３丁目１１番６号サンウエスト山手ビル５Ｆ,,13,109,1410031,,,,,,,2021-10-22,1,,,,,サポートデジタルキョウカイ,0
903,4010903006881,新規,0,2021-10-22,2021-10-22,ＡＫＱＪＴ合同会社,,合同会社,東京都,世田谷区,北沢３丁目３０番２５－４０５号,,13,112,1550031,,,,,,,2021-10-22,1,,,,,ロイヤルストレート,0
907,4011001143386,新規,0,2021-10-22,2021-10-22,株式会社不動産有料引き取りＳＯＳ,,株式会社,東京都,渋谷区,道玄坂１丁目１８番８号道玄坂プラザ仁科屋ビル,,13,113,1500043,,,,,,,2021-10-22,1,,,,,フドウサンユウリョウヒキトリエスオーエス,0
908,4011001143568,新規,0,2021-10-22,2021-10-22,株式会社ＮＯ　ＦＩＳＨＩＮＧ　ＮＯ　ＬＩＦＥ,,株式会社,東京都,渋谷区,笹塚２丁目３２番３－４０６号,,13,113,1510073,,,,,,,2021-10-22,1,,,,,ノーフィッシングノーライフ,0
909,4011001143601,新規,0,2021-10-22,2021-10-22,株式会社トリアロ,,株式会社,東京都,渋谷区,神宮前６丁目２３番４号桑野ビル２Ｆ,,13,113,1500001,,,,,,,2021-10-22,1,,,,,トリアロ,0
911,4011003013587,新規,0,2021-10-22,2021-10-22,有花果合同会社,,合同会社,東京都,目黒区,大橋１丁目３番６号大橋スカイハイツ６０１,,13,110,1530044,,,,,,,2021-10-22,1,,,,,アリッカ,0
915,4011101096633,新規,0,2021-10-22,2021-10-22,株式会社Ｈａｋｋｙ,,株式会社,東京都,新宿区,西新宿７丁目１番７号新宿ダイカンプラザＡ１０１８,,13,104,1600023,,,,,,,2021-10-22,1,,,,,ハッキー,0
921,4011201023306,新規,0,2021-10-22,2021-10-22,株式会社枯尾花総合商会,,株式会社,東京都,中野区,沼袋２丁目３－１５沼袋ハイム１０１号室,,13,114,1650025,,,,,,,2021-10-22,1,,,,,カレオバナソウゴウショウカイ,0
925,4011403003477,新規,0,2021-10-22,2021-10-22,合同会社伊藤商事,,合同会社,東京都,板橋区,中丸町１６番１３Ｒｏｓｅｔｔａ３０１,,13,119,1730026,,,,,,,2021-10-22,1,,,,,イトウショウジ,0
931,4011801039866,新規,0,2021-10-22,2021-10-22,株式会社Ｍｅｒｃｕｒｙ,,株式会社,東京都,足立区,中川２丁目２３番２号,,13,121,1200002,,,,,,,2021-10-22,1,,,,,マーキュリー,0
932,4011803004843,新規,0,2021-10-22,2021-10-22,合同会社アドバイスおじさん,,合同会社,東京都,葛飾区,立石４丁目１番８号シュガープラザＣ号室,,13,122,1240012,,,,,,,2021-10-22,1,,,,,アドバイスオジサン,0
933,4011805003117,新規,0,2021-10-22,2021-10-22,一般社団法人Ｖｉａｓ,,その他の設立登記法人,東京都,足立区,梅島２丁目１３番１号,,13,121,1210816,,,,,,,2021-10-22,1,,,,,バイアス,0
940,4012701016732,新規,0,2021-10-22,2021-10-22,株式会社ベイツリー,,株式会社,東京都,東久留米市,幸町４丁目３番２１号,,13,222,2030052,,,,,,,2021-10-22,1,,,,,ベイツリー,0
945,4013301048182,新規,0,2021-10-22,2021-10-22,株式会社Ａｃｅｓ,,株式会社,東京都,豊島区,巣鴨２丁目４番４号大豊ビルＢ１,,13,116,1700002,,,,,,,2021-10-22,1,,,,,エイシーズ,0
952,4020001143560,新規,0,2021-10-22,2021-10-22,御堂オーチャード株式会社,,株式会社,神奈川県,横浜市青葉区,大場町２１６－３８,,14,117,2250023,,,,,,,2021-10-22,1,,,,,ミドウオーチャード,0
953,4020001143585,新規,0,2021-10-22,2021-10-22,株式会社ベイモンド,,株式会社,神奈川県,横浜市神奈川区,西寺尾４丁目２２番１６－２号,,14,102,2210001,,,,,,,2021-10-22,1,,,,,ベイモンド,0
954,4020001143602,新規,0,2021-10-22,2021-10-22,株式会社アドグロウ,,株式会社,神奈川県,川崎市多摩区,宿河原６丁目７番１２号,,14,135,2140021,,,,,,,2021-10-22,1,,,,,アドグロウ,0
955,4020001143619,新規,0,2021-10-22,2021-10-22,株式会社ＣＲＡＩＣ,,株式会社,神奈川県,川崎市中原区,北谷町９５番地１ライオンズガーデン平間四季の杜３０５,,14,133,2110015,,,,,,,2021-10-22,1,,,,,クラック,0
960,4020003020700,新規,0,2021-10-22,2021-10-22,合同会社消防防災総合技術研究所,,合同会社,神奈川県,川崎市川崎区,殿町１丁目８番３号２ユナイト殿町アラベスク１０５号,,14,131,2100821,,,,,,,2021-10-22,1,,,,,ショウボウボウサイソウゴウギジュツケンキュウショ,0
966,4021001074259,新規,0,2021-10-22,2021-10-22,Ａ＆Ｔ総合株式会社,,株式会社,神奈川県,藤沢市,長後９２４番地の１４,,14,205,2520801,,,,,,,2021-10-22,1,,,,,エーアンドティーソウゴウ,0
967,4021001074275,新規,0,2021-10-22,2021-10-22,スマートハウス株式会社,,株式会社,神奈川県,座間市,相模が丘５丁目１１番１号リベラル・レジデンス１０１号室,,14,216,2520001,,,,,,,2021-10-22,1,,,,,スマートハウス,0
974,4030001144962,新規,0,2021-10-22,2021-10-22,卓越株式会社,,株式会社,埼玉県,草加市,八幡町６４５番地１Ａ区,,11,221,3400006,,,,,,,2021-10-22,1,,,,,タクエツ,0
978,4030003018132,新規,0,2021-10-22,2021-10-22,合同会社Ｍ＆Ｍ,,合同会社,埼玉県,朝霞市,泉水１丁目４番２４－４０３号,,11,227,3510024,,,,,,,2021-10-22,1,,,,,,0
979,4030003018157,新規,0,2021-10-22,2021-10-22,ｆｕｔｕｒｅ　ａｓｓｅｔ　Ｍ合資会社,,合資会社,埼玉県,幸手市,北２丁目１４番４号,,11,240,3400111,,,,,,,2021-10-22,1,,,,,フューチャーアセットエム,0
980,4030003018181,新規,0,2021-10-22,2021-10-22,合同会社ＷＯＷＡＳＡ,,合同会社,埼玉県,上尾市,柏座２丁目４－２８,,11,219,3620075,,,,,,,2021-10-22,1,,,,,ウワサ,0
981,4030005020598,新規,0,2021-10-22,2021-10-22,特定非営利活動法人全国消防職員退職者等・災害支援員による支えあいネットワーク,,その他の設立登記法人,埼玉県,入間郡毛呂山町,岩井東２丁目１５番地１５神山マンション１０５号室,,11,326,3500467,,,,,,,2021-10-22,1,,,,,ゼンコクショウボウショクインタイショクシャトウサイガイシエンインニヨルササエアイネットワーク,0
982,4030005020607,新規,0,2021-10-22,2021-10-22,医療法人心施和顔施会,,その他の設立登記法人,埼玉県,所沢市,小手指町１丁目１６番地４ビックグラッド小手指ビル２階,,11,208,3591141,,,,,,,2021-10-22,1,,,,,シンセワガンセカイ,0
986,4050001050028,新規,0,2021-10-22,2021-10-22,株式会社大紅興業,,株式会社,茨城県,牛久市,さくら台３丁目１４番地１５,,08,219,3001217,,,,,,,2021-10-22,1,,,,,ダイコウコウギョウ,0
993,4070001038558,新規,0,2021-10-22,2021-10-22,株式会社ＲＡＤ　ＫＵＳＴＯＭＳ,,株式会社,群馬県,邑楽郡明和町,大輪２３４番地,,10,522,3700718,,,,,,,2021-10-22,1,,,,,ラッドカスタムズ,0
997,4080101022865,新規,0,2021-10-22,2021-10-22,久堅株式会社,,株式会社,静岡県,伊東市,池６１５番地の２８,,22,208,4130234,,,,,,,2021-10-22,1,,,,,ヒサカタ,0
1003,4080403004388,新規,0,2021-10-22,2021-10-22,Ｂｅｔｈｅｌ　Ｇｒｏｕｐ合同会社,,合同会社,静岡県,浜松市中区,城北１丁目２５番地７－３号,,22,131,4328011,,,,,,,2021-10-22,1,,,,,ベテルグループ,0
1007,4090005007441,新規,0,2021-10-22,2021-10-22,一般社団法人山梨イノベーションベース,,その他の設立登記法人,山梨県,甲府市,丸の内２丁目２番１号ＣＲＯＳＳ５００　１階,,19,201,4000031,,,,,,,2021-10-22,1,,,,,ヤマナシイノベーションベース,0
1009,4100001034743,新規,0,2021-10-22,2021-10-22,株式会社オフィスベルワン,,株式会社,長野県,飯田市,鼎中平１９６４番地１,,20,205,3950801,,,,,,,2021-10-22,1,,,,,オフィスベルワン,0
1010,4110001036136,新規,0,2021-10-22,2021-10-22,株式会社ジンコミュニケーションズ,,株式会社,新潟県,新潟市中央区,東大通２丁目１１番２５号丸山ビル３１号室,,15,103,9500087,,,,,,,2021-10-22,1,,,,,ジンコミュニケーションズ,0
1018,4120001241338,新規,0,2021-10-22,2021-10-22,株式会社マサヤコーポレーション,,株式会社,大阪府,大阪市西区,北堀江２丁目４番１１号,,27,106,5500014,,,,,,,2021-10-22,1,,,,,マサヤコーポレーション,0
1019,4120001241346,新規,0,2021-10-22,2021-10-22,レイアウト株式会社,,株式会社,大阪府,大阪市中央区,心斎橋筋２丁目１番７号日宝パルテノンビル２階,,27,128,5420085,,,,,,,2021-10-22,1,,,,,レイアウト,0
1020,4120001241362,新規,0,2021-10-22,2021-10-22,株式会社ＪＯＩＮＴ,,株式会社,大阪府,大阪市中央区,内平野町１丁目２番９号グランドビル大手前３０４,,27,128,5400037,,,,,,,2021-10-22,1,,,,,ジョイント,0
1022,4120003020459,新規,0,2021-10-22,2021-10-22,合同会社Ｅａｓｔ　Ｂｌｕｅ,,合同会社,大阪府,大阪市旭区,赤川２丁目１番１４－７０５号ロゼオグランデ,,27,117,5350005,,,,,,,2021-10-22,1,,,,,イーストブルー,0
1030,4120903003884,新規,0,2021-10-22,2021-10-22,合同会社山田和也,,合同会社,大阪府,箕面市,箕面３丁目１７番１２号の１,,27,220,5620001,,,,,,,2021-10-22,1,,,,,ヤマダカズヤ,0
1037,4130001070380,新規,0,2021-10-22,2021-10-22,株式会社南,,株式会社,京都府,京都市南区,八条源町６９番地６,,26,107,6018477,,,,,,,2021-10-22,1,,,,,ミナミ,0
1038,4130001070389,新規,0,2021-10-22,2021-10-22,株式会社おそら,,株式会社,京都府,京都市左京区,北白川小倉町６番地,,26,103,6068264,,,,,,,2021-10-22,1,,,,,オソラ,0
1044,4140001123575,新規,0,2021-10-22,2021-10-22,株式会社ヘームル,,株式会社,兵庫県,神戸市灘区,長峰台１丁目６番５号,,28,102,6570811,,,,,,,2021-10-22,1,,,,,ヘームル,0
1045,4140001123583,新規,0,2021-10-22,2021-10-22,株式会社モタナ,,株式会社,兵庫県,尼崎市,東園田町５丁目１０９番地の２１,,28,202,6610953,,,,,,,2021-10-22,1,,,,,モタナ,0
1048,4140003016901,新規,0,2021-10-22,2021-10-22,合同会社ＳＩＮＳＨＯ,,合同会社,兵庫県,姫路市,四郷町山脇５５９番地２,,28,201,6710248,,,,,,,2021-10-22,1,,,,,シンショウ,0
1050,4160001023740,新規,0,2021-10-22,2021-10-22,株式会社産栄断熱工業,,株式会社,滋賀県,大津市,大江２丁目１２－３０－１０７,,25,201,5202141,,,,,,,2021-10-22,1,,,,,サンエイダンネツコウギョウ,0
1051,4160003002404,新規,0,2021-10-22,2021-10-22,真真日上合同会社,,合同会社,滋賀県,守山市,立入町１８－６９,,25,207,5240031,,,,,,,2021-10-22,1,,,,,シンシンヒカミ,0
1054,4170003001652,新規,0,2021-10-22,2021-10-22,合同会社紀望社中,,合同会社,和歌山県,和歌山市,和歌浦東２丁目９番５４号,,30,201,6410021,,,,,,,2021-10-22,1,,,,,キボウシャチュウ,0
1066,4180001148387,新規,0,2021-10-22,2021-10-22,株式会社ＢｅｓｔＡ,,株式会社,愛知県,日進市,梅森町株山７４番地,,23,230,4700132,,,,,,,2021-10-22,1,,,,,ベスタ,0
1067,4180001148412,新規,0,2021-10-22,2021-10-22,株式会社ＴＡＫＥ,,株式会社,愛知県,名古屋市中川区,万場１丁目１３４６番地,,23,110,4540997,,,,,,,2021-10-22,1,,,,,テイク,0
1069,4180301035541,新規,0,2021-10-22,2021-10-22,株式会社グローバルケア,,株式会社,愛知県,豊田市,神田町１丁目６番地８長谷川ビル５階,,23,211,4710868,,,,,,,2021-10-22,1,,,,,グローバルケア,0
1070,4190001028786,新規,0,2021-10-22,2021-10-22,株式会社ｕｎｋｎｏｗｎ,,株式会社,三重県,多気郡明和町,大字行部２７０番地１,,24,442,5150354,,,,,,,2021-10-22,1,,,,,アンノウン,0
1083,4260001036105,新規,0,2021-10-22,2021-10-22,株式会社ＡＲＭＳ　ｄｅｓｉｇｎ,,株式会社,岡山県,岡山市中区,山崎１３４番地１,,33,102,7038267,,,,,,,2021-10-22,1,,,,,アームスデザイン,0
1092,4290801027928,新規,0,2021-10-22,2021-10-22,玖珠木材株式会社,,株式会社,福岡県,北九州市戸畑区,中原東１丁目１６番７号,,40,105,8040012,,,,,,,2021-10-22,1,,,,,クスモクザイ,0
1096,4330001029092,新規,0,2021-10-22,2021-10-22,株式会社幸石,,株式会社,熊本県,山鹿市,南島８６５番地１,,43,208,8610535,,,,,,,2021-10-22,1,,,,,コウセキ,0
1097,4330001029101,新規,0,2021-10-22,2021-10-22,株式会社リクラ・マテリア,,株式会社,熊本県,熊本市東区,戸島西１丁目３２番１０３号ル・ボノーＩ１０２,00124647,43,102,8618043,,,,,,,2021-10-22,1,,,,,リクラマテリア,0
1099,4330003009101,新規,0,2021-10-22,2021-10-22,合同会社舛永開発,,合同会社,熊本県,上益城郡甲佐町,大字田口１１１３番地,,43,444,8614616,,,,,,,2021-10-22,1,,,,,マスナガカイハツ,0
1118,4390001016647,新規,0,2021-10-22,2021-10-22,ましま家具店株式会社,,株式会社,山形県,酒田市,京田１丁目２番地の１２,,06,204,9980102,,,,,,,2021-10-22,1,,,,,マシマカグテン,0
1119,4420001017625,新規,0,2021-10-22,2021-10-22,株式会社サンシン,,株式会社,青森県,八戸市,大字田向字壇ノ平３７番地８,,02,203,0310011,,,,,,,2021-10-22,1,,,,,サンシン,0
1121,4430001085225,新規,0,2021-10-22,2021-10-22,株式会社マネーインク,,株式会社,北海道,札幌市中央区,北一条西１９丁目１番地２ファミール第二大通３１４号,,01,101,0600001,,,,,,,2021-10-22,1,,,,,マネーインク,0
1128,4450001013514,新規,0,2021-10-22,2021-10-22,株式会社アクスン,,株式会社,北海道,旭川市,東光五条４丁目１番２５号,,01,204,0788345,,,,,,,2021-10-22,1,,,,,アクスン,0
1132,4470001018791,新規,0,2021-10-22,2021-10-22,株式会社津崎工業,00124648,株式会社,香川県,丸亀市,川西町南甲３７番地３,,37,202,7630092,,,,,,,2021-10-22,1,,,,,ツザキコウギョウ,0
1135,4480001011531,新規,0,2021-10-22,2021-10-22,あらたえファーム株式会社,,株式会社,徳島県,吉野川市,山川町天神８０番地,,36,205,7793402,,,,,,,2021-10-22,1,,,,,アラタエファーム,0
1145,4500001023747,新規,0,2021-10-22,2021-10-22,重松建設株式会社,,株式会社,愛媛県,伊予市,八倉７１７番地１,,38,210,7993101,,,,,,,2021-10-22,1,,,,,シゲマツケンセツ,0
1146,4700150104864,新規,0,2021-10-22,2021-09-27,Ｏ企画,,その他,東京都,世田谷区,北沢３丁目２９－３メゾン３２９－１０２,,13,112,1550031,,,,,,,2021-09-27,1,,,,,オーキカク,0
1155,5010001221845,新規,0,2021-10-22,2021-10-22,ＪＤＰ株式会社,,株式会社,東京都,文京区,音羽２丁目１１番１２－６０４号,,13,105,1120013,,,,,,,2021-10-22,1,,,,,ジェーディーピー,0
1156,5010001221993,新規,0,2021-10-22,2021-10-22,ワンデジタル株式会社,,株式会社,東京都,千代田区,麹町４丁目５番２０号ＫＳビルディング８階,,13,101,1020083,,,,,,,2021-10-22,1,,,,,ワンデジタル,0
1157,5010001222018,新規,0,2021-10-22,2021-10-22,株式会社ｍａｌｉｍｏｓ,,株式会社,東京都,中央区,銀座１丁目２２番１１号銀座大竹ビジデンス２階,,13,102,1040061,,,,,,,2021-10-22,1,,,,,マリモス,0
1159,5010005034129,新規,0,2021-10-22,2021-10-22,丸の内ソーラーホールディングス一般社団法人,,その他の設立登記法人,東京都,千代田区,麹町２丁目８番地ＭＬＣ麹町ビル４階フィンポート税理士法人内,,13,101,1020083,,,,,,,2021-10-22,1,,,,,マルノウチソーラーホールディングス,0
1174,5010403026371,新規,0,2021-10-22,2021-10-22,合同会社ＣＯＮＴＲＩＢＵＴＥ,,合同会社,東京都,港区,三田３丁目２番１２号３０２,,13,103,1080073,,,,,,,2021-10-22,1,,,,,コントリビュート,0
1175,5010405020348,新規,0,2021-10-22,2021-10-22,一般社団法人ＥＳＳ事業団,,その他の設立登記法人,東京都,港区,芝浦１丁目６番３８号,,13,103,1050023,,,,,,,2021-10-22,1,,,,,イーエスエスジギョウダン,0
1187,5011001143443,新規,0,2021-10-22,2021-10-22,株式会社大利,,株式会社,東京都,渋谷区,恵比寿西２丁目２０番８号代官山パーフェクトルーム２１６号室,,13,113,1500021,,,,,,,2021-10-22,1,,,,,ダイリ,0
1188,5011001143617,新規,0,2021-10-22,2021-10-22,株式会社Ｖａｌｌｅｙ　ａｎｄ　Ｗｉｎｄ,,株式会社,東京都,渋谷区,広尾５丁目１４番２号,,13,113,1500012,,,,,,,2021-10-22,1,,,,,ヴァレーアンドウィンド,0
1193,5011101096632,新規,0,2021-10-22,2021-10-22,株式会社ＫＮＯＲＫ,,株式会社,東京都,新宿区,歌舞伎町１丁目４番１２号新宿ミヤタビル４Ｆ,,13,104,1600021,,,,,,,2021-10-22,1,,,,,ノーク,0
1194,5011201023346,新規,0,2021-10-22,2021-10-22,株式会社リプロオート,,株式会社,東京都,中野区,江原町１丁目４６番１２号,,13,114,1650023,,,,,,,2021-10-22,1,,,,,リプロオート,0
1205,5011401023781,新規,0,2021-10-22,2021-10-22,東和機械設計株式会社,,株式会社,東京都,板橋区,坂下１丁目４１番１８号,,13,119,1740043,,,,,,,2021-10-22,1,,,,,トウワキカイセッケイ,0
1211,5012305001980,新規,0,2021-10-22,2021-10-22,一般社団法人町田市地域支援協会,,その他の設立登記法人,東京都,町田市,鶴川６丁目８番１３号５０１号室,,13,209,1950061,,,,,,,2021-10-22,1,,,,,マチダシチイキシエンキョウカイ,0
1218,5020001143510,新規,0,2021-10-22,2021-10-22,株式会社ファンザウルス,,株式会社,神奈川県,横浜市都筑区,牛久保西１丁目１－１１,,14,118,2240015,,,,,,,2021-10-22,1,,,,,ファンザウルス,0
1219,5020001143576,新規,0,2021-10-22,2021-10-22,株式会社Ｍ－Ｃｏｎｎｅｃｔ,,株式会社,神奈川県,川崎市川崎区,渡田３丁目１７番１４号,,14,131,2100837,,,,,,,2021-10-22,1,,,,,エムコネクト,0
1223,5020003020690,新規,0,2021-10-22,2021-10-22,合同会社ＬＹＮＸ,,合同会社,神奈川県,横浜市港北区,箕輪町３丁目６－２１－１０６,,14,109,2230051,,,,,,,2021-10-22,1,,,,,リンクス,0
1224,5020003020699,新規,0,2021-10-22,2021-10-22,合同会社ＮＳＩ,,合同会社,神奈川県,横浜市西区,平沼１丁目５番２号,,14,103,2200023,,,,,,,2021-10-22,1,,,,,エヌエスアイ,0
1227,5021001074282,新規,0,2021-10-22,2021-10-22,株式会社ビルプロ,,株式会社,神奈川県,平塚市,紅谷町１２番２６号,,14,203,2540043,,,,,,,2021-10-22,1,,,,,ビルプロ,0
1234,5030001144912,新規,0,2021-10-22,2021-10-22,株式会社ＨＡＰワークライフサポート,,株式会社,埼玉県,川口市,原町５番７－２０３号,,11,203,3320025,,,,,,,2021-10-22,1,,,,,エイチエーピーワークライフサポート,0
1237,5030003018156,新規,0,2021-10-22,2021-10-22,ｆｕｔｕｒｅ　ａｓｓｅｔｓ　Ｎ合資会社,,合資会社,埼玉県,幸手市,北２丁目１４番４号,,11,240,3400111,,,,,,,2021-10-22,1,,,,,フューチャーアセットエヌ,0
1238,5030003018164,新規,0,2021-10-22,2021-10-22,Ｐ－ＨＩＧＨ合同会社,,合同会社,埼玉県,ふじみ野市,霞ケ丘３丁目１番２５棟４０８号,,11,245,3560006,,,,,,,2021-10-22,1,,,,,ピーハイ,0
1239,5030003018180,新規,0,2021-10-22,2021-10-22,早田合同会社,,合同会社,埼玉県,草加市,北谷２丁目３０番２５－１０９号,,11,221,3400046,,,,,,,2021-10-22,1,,,,,ハヤタ,0
1254,5040005021396,新規,0,2021-10-22,2021-10-22,医療法人社団玉歯会,,その他の設立登記法人,千葉県,木更津市,請西南２丁目２４番地１,,12,206,2920807,,,,,,,2021-10-22,1,,,,,,0
1256,5050003006150,新規,0,2021-10-22,2021-10-22,晶通商事合同会社,,合同会社,茨城県,常総市,向石下１９３－１,,08,211,3002742,,,,,,,2021-10-22,1,,,,,セイツウショウジ,0
1265,5070003004276,新規,0,2021-10-22,2021-10-22,アイルコンサルティング合同会社,,合同会社,群馬県,前橋市,緑が丘町１０－１９,,10,201,3710045,,,,,,,2021-10-22,1,,,,,アイルコンサルティング,0
1267,5080001024523,新規,0,2021-10-22,2021-10-22,株式会社モンタージュ,,株式会社,静岡県,静岡市清水区,天神１丁目１－３,,22,103,4240809,,,,,,,2021-10-22,1,,,,,モンタージュ,0
1269,5080101022864,新規,0,2021-10-22,2021-10-22,株式会社オオシマ,,株式会社,静岡県,駿東郡長泉町,下土狩４１７番地の３,,22,342,4110943,,,,,,,2021-10-22,1,,,,,オオシマ,0
1270,5080401025435,新規,0,2021-10-22,2021-10-22,ＡＫＯ株式会社,,株式会社,静岡県,菊川市,中内田１４８０番地の４,,22,224,4390036,,,,,,,2021-10-22,1,,,,,アコー,0
1271,5080403004395,新規,0,2021-10-22,2021-10-22,ＯＫサポートサービス合同会社,,合同会社,静岡県,袋井市,宇刈２００６－１,,22,216,4370121,,,,,,,2021-10-22,1,,,,,オーケーサポートサービス,0
1275,5100001034742,新規,0,2021-10-22,2021-10-22,株式会社ＧＩＬＬＥＡＲＤ,,株式会社,長野県,松本市,大字笹賀４５６９番地１,,20,202,3990033,,,,,,,2021-10-22,1,,,,,ギリアード,0
1286,5120001241312,新規,0,2021-10-22,2021-10-22,株式会社ＣＣＣ,,株式会社,大阪府,大阪市中央区,本町４丁目６－４エスライズ御堂筋１００２,,27,128,5410053,,,,,,,2021-10-22,1,,,,,シーシーシー,0
1287,5120001241329,新規,0,2021-10-22,2021-10-22,株式会社ＧＬＯＷ,,株式会社,大阪府,枚方市,東香里２丁目１番２５号,,27,210,5730075,,,,,,,2021-10-22,1,,,,,グロウ,0
1288,5120001241361,新規,0,2021-10-22,2021-10-22,株式会社寅八,,株式会社,大阪府,大阪市阿倍野区,昭和町２丁目１番１３号,,27,119,5450011,,,,,,,2021-10-22,1,,,,,トラハチ,0
1289,5120001241386,新規,0,2021-10-22,2021-10-22,サンユービルド株式会社,,株式会社,大阪府,大阪市中央区,内本町２丁目１番１９号,,27,128,5400026,,,,,,,2021-10-22,1,,,,,サンユービルド,0
1290,5120003020458,新規,0,2021-10-22,2021-10-22,ＨＡ　ＮＯＩ合同会社,,合同会社,大阪府,大阪市西成区,花園北２丁目１１番１７号ＴＳビル２０１号,,27,122,5570016,,,,,,,2021-10-22,1,,,,,ハノイ,0
1291,5120901045085,新規,0,2021-10-22,2021-10-22,三和ダイン株式会社,,株式会社,大阪府,茨木市,沢良宜西４丁目７番１８号,,27,211,5670868,,,,,,,2021-10-22,1,,,,,サンワダイン,0
1293,5120903003883,新規,0,2021-10-22,2021-10-22,合同会社Ｍ　ＣＯＭＦＯＲＴ,,合同会社,大阪府,豊中市,新千里南町３丁目３０番６号,,27,203,5600084,,,,,,,2021-10-22,1,,,,,エムコンフォート,0
1294,5122001035289,新規,0,2021-10-22,2021-10-22,株式会社ＷＩＣインターナショナル,,株式会社,大阪府,東大阪市,日下町１丁目１番５３号,,27,227,5798003,,,,,,,2021-10-22,1,,,,,ダブリューアイシーインターナショナル,0
1297,5130003007553,新規,0,2021-10-22,2021-10-22,祇をんエンターテイメント合同会社,,合同会社,京都府,京都市中京区,西ノ京伯楽町１８番地１５オー・エヌ・エス２０１,,26,104,6048452,,,,,,,2021-10-22,1,,,,,ギオンエンターテイメント,0
1301,5140001123574,新規,0,2021-10-22,2021-10-22,株式会社朔翔建設,,株式会社,兵庫県,宍粟市,千種町西河内１５８１番地,,28,227,6713233,,,,,,,2021-10-22,1,,,,,サクトケンセツ,0
1302,5140001123582,新規,0,2021-10-22,2021-10-22,かつみ興業株式会社,,株式会社,兵庫県,尼崎市,崇徳院２丁目７７番地の３,,28,202,6600071,,,,,,,2021-10-22,1,,,,,カツミコウギョウ,0
1310,5170003001651,新規,0,2021-10-22,2021-10-22,合同会社まつもとや,,合同会社,和歌山県,海南市,下津町下津１５８３番地,,30,202,6490101,,,,,,,2021-10-22,1,,,,,,0
1311,5180001148394,新規,0,2021-10-22,2021-10-22,株式会社ＫＯＳ,,株式会社,愛知県,知多郡美浜町,大字北方字西側９６番地３,,23,446,4702403,,,,,,,2021-10-22,1,,,,,ケーオーエス,0
1312,5180001148403,新規,0,2021-10-22,2021-10-22,株式会社明豊工務店,,株式会社,愛知県,清須市,西枇杷島町地領１丁目３番地１３,,23,233,4520008,,,,,,,2021-10-22,1,,,,,メイホウコウムテン,0
1319,5180003023117,新規,0,2021-10-22,2021-10-22,ＫＭ合同会社,,合同会社,愛知県,名古屋市港区,善南町４２番地の２,,23,111,4550814,,,,,,,2021-10-22,1,,,,,ケーエム,0
1321,5190001028785,新規,0,2021-10-22,2021-10-22,株式会社エニシア,,株式会社,三重県,三重郡菰野町,大字菰野２１１７番地１,,24,341,5101233,,,,,,,2021-10-22,1,,,,,エニシア,0
1325,5200001039319,新規,0,2021-10-22,2021-10-22,ＣＨＲＯＮＯＩＺＭ株式会社,,株式会社,岐阜県,岐阜市,日野北５丁目５番３号,,21,201,5008207,,,,,,,2021-10-22,1,,,,,クロノイズム,0
1331,5220001024491,新規,0,2021-10-22,2021-10-22,ＡＳＨ株式会社,,株式会社,石川県,金沢市,並木町２番１３号（ロワイヤル・ユウ梅の橋・５０１号）,,17,201,9200928,,,,,,,2021-10-22,1,,,,,エーエスエイチ,0
1339,5240001058777,新規,0,2021-10-22,2021-10-22,株式会社オウエンタイ,,株式会社,広島県,広島市安佐南区,大町西１丁目２４番２５－６号,,34,105,7310125,,,,,,,2021-10-22,1,,,,,オウエンタイ,0
1340,5240001058785,新規,0,2021-10-22,2021-10-22,ＣＩインベストメント株式会社,,株式会社,広島県,呉市,苗代町３１４番地の１,,34,202,7370921,,,,,,,2021-10-22,1,,,,,シーアイインベストメント,0
1341,5240001058802,新規,0,2021-10-22,2021-10-22,株式会社ＡＪ,,株式会社,広島県,三次市,高杉町２１１２番地,,34,209,7296214,,,,,,,2021-10-22,1,,,,,エイジェイ,0
1343,5250001019209,新規,0,2021-10-22,2021-10-22,倉本板金株式会社,,株式会社,山口県,宇部市,大字妻崎開作１２８７番地１,,35,202,7590204,,,,,,,2021-10-22,1,,,,,クラモトバンキン,0
1365,5290003011688,新規,0,2021-10-22,2021-10-22,Ｃｈｏｕ　Ｃｈｏｕ合同会社,,合同会社,福岡県,大野城市,栄町２丁目３番６号,,40,219,8160924,,,,,,,2021-10-22,1,,,,,シュシュ,0
1366,5290003011738,新規,0,2021-10-22,2021-10-22,カカオマテリア合同会社,,合同会社,福岡県,飯塚市,徳前２０７－１１,,40,205,8200033,,,,,,,2021-10-22,1,,,,,カカオマテリア,0
1367,5290005018401,新規,0,2021-10-22,2021-10-22,一般社団法人プロクリエイターズ協会,,その他の設立登記法人,福岡県,福岡市博多区,銀天町３丁目６番２７号２階,,40,132,8120879,,,,,,,2021-10-22,1,,,,,プロクリエイターズキョウカイ,0
1370,5310001017544,新規,0,2021-10-22,2021-10-22,株式会社Ｂｅａｕｔｒｉｐ,,株式会社,長崎県,五島市,三尾野町９９１番地３,,42,211,8530014,,,,,,,2021-10-22,1,,,,,ビュートリップ,0
1374,5330001029091,新規,0,2021-10-22,2021-10-22,株式会社ＮＯＧＵＣＨＩ,,株式会社,熊本県,葦北郡芦北町,大字芦北２０９２番地１,00124639,43,482,8695461,,,,,,,2021-10-22,1,,,,,ノグチ,0
1375,5330001029100,新規,0,2021-10-22,2021-10-22,日本綜合地所株式会社,,株式会社,熊本県,熊本市東区,下江津３丁目１５番２号,,43,102,8620960,,,,,,,2021-10-22,1,,,,,ニホンソウゴウチショ,0
1381,5330003009100,新規,0,2021-10-22,2021-10-22,ナヌーク合同会社,,合同会社,熊本県,阿蘇郡南阿蘇村,大字久石３７２２番地６,,43,433,8691412,,,,,,,2021-10-22,1,,,,,ナヌーク,0
1386,5350001017375,新規,0,2021-10-22,2021-10-22,株式会社カンパニュラ,,株式会社,宮崎県,宮崎市,佐土原町下那珂３５６８番地３,,45,201,8800212,,,,,,,2021-10-22,1,,,,,カンパニュラ,0
1399,5380001032248,新規,0,2021-10-22,2021-10-22,酪王協同乳業株式会社,,株式会社,福島県,本宮市,荒井字下原１４番地,,07,214,9691104,,,,,,福島県郡山市大槻町字古屋敷８０番地１酪王乳業株式会社（8380001008740）及び福島県本宮市荒井字下原１４番地東北協同乳業株式会社（5380001009717）の合併により設立,2021-10-22,1,,,,,ラクオウキョウドウニュウギョウ,0
1400,5380001032280,新規,0,2021-10-22,2021-10-22,株式会社Ｆｌｏｗ,,株式会社,福島県,いわき市,四倉町字和具１１８番地の２,,07,204,9790201,,,,,,,2021-10-22,1,,,,,フロウ,0
1405,5420001017624,新規,0,2021-10-22,2021-10-22,株式会社柏城グループ,,株式会社,青森県,青森市,大字油川字中道２３番地５３,,02,201,0380059,,,,,,,2021-10-22,1,,,,,カシワギグループ,0
1409,5430001085208,新規,0,2021-10-22,2021-10-22,株式会社Ｎｉｌ,,株式会社,北海道,札幌市中央区,南十条西６丁目５番２０号,,01,101,0640810,,,,,,,2021-10-22,1,,,,,ニル,0
1416,5450001013513,新規,0,2021-10-22,2021-10-22,株式会社ミライロードセキュリティー,,株式会社,北海道,稚内市,中央４丁目２番１６号,,01,214,0970022,,,,,,,2021-10-22,1,,,,,ミライロードセキュリティー,0
1424,5470001018790,新規,0,2021-10-22,2021-10-22,株式会社キムラ工業,,株式会社,香川県,高松市,三名町３１１番地４,,37,201,7618083,,,,,,,2021-10-22,1,,,,,キムラコウギョウ,0
1439,6010001221943,新規,0,2021-10-22,2021-10-22,株式会社猫草,,株式会社,東京都,文京区,本郷６丁目１３番６号,,13,105,1130033,,,,,,,2021-10-22,1,,,,,ネコグサ,0
1440,6010001222017,新規,0,2021-10-22,2021-10-22,三浦マリーナ＆リゾート株式会社,,株式会社,東京都,文京区,本郷５丁目２５番１３号,,13,105,1130033,,,,,,,2021-10-22,1,,,,,ミウラマリーナアンドリゾート,0
1441,6010001222025,新規,0,2021-10-22,2021-10-22,政金日本国際株式会社,,株式会社,東京都,中央区,東日本橋２丁目２８番５号５０８,,13,102,1030004,,,,,,,2021-10-22,1,,,,,セイキンニホンコクサイ,0
1446,6010003036092,新規,0,2021-10-22,2021-10-22,四ツ谷ソーラー合同会社,,合同会社,東京都,千代田区,麹町２丁目８番地ＭＬＣ麹町ビル４階フィンポート税理士法人内,,13,101,1020083,,,,,,,2021-10-22,1,,,,,ヨツヤソーラー,0
1458,6010401163389,新規,0,2021-10-22,2021-10-22,株式会社ＡＮパートナーズ,,株式会社,東京都,港区,港南４丁目６番１－２１０３号,,13,103,1080075,,,,,,,2021-10-22,1,,,,,エーエヌパートナーズ,0
1459,6010401163406,新規,0,2021-10-22,2021-10-22,ＬＳ－ＳＨＩＰ第１８号株式会社,,株式会社,東京都,港区,六本木１丁目６番１号,,13,103,1060032,,,,,,,2021-10-22,1,,,,,エルエスシップダイジュウハチゴウ,0
1460,6010403026379,新規,0,2021-10-22,2021-10-22,スプリングス合同会社,,合同会社,東京都,港区,南麻布３丁目１９番２３号オーク南麻布ビル２階,,13,103,1060047,,,,,,,2021-10-22,1,,,,,スプリングス,0
1463,6010503006413,新規,0,2021-10-22,2021-10-22,合同会社Ｆ・Ｅ・Ｅ・Ｄ,,合同会社,東京都,台東区,清川１丁目１０番１０－５０５号,,13,106,1110022,,,,,,,2021-10-22,1,,,,,フィード,0
1477,6010901049666,新規,0,2021-10-22,2021-10-22,株式会社モスト・コンサルタント,,株式会社,東京都,世田谷区,上馬１丁目１番７－１２０号,,13,112,1540011,,,,,,,2021-10-22,1,,,,,モストコンサルタント,0
1479,6011001143533,新規,0,2021-10-22,2021-10-22,Ｂｙｔｅ　Ｂｉｔｅｓ株式会社,,株式会社,東京都,目黒区,洗足１丁目２６－１－２０２,,13,110,1520012,,,,,,,2021-10-22,1,,,,,バイトバイツ,0
1480,6011001143574,新規,0,2021-10-22,2021-10-22,データケミカル株式会社,,株式会社,東京都,渋谷区,神宮前６丁目２３－４桑野ビル２階,,13,113,1500001,,,,,,,2021-10-22,1,,,,,データケミカル,0
1481,6011001143582,新規,0,2021-10-22,2021-10-22,株式会社Ｌｉｆｅｓｕｒｆ,,株式会社,東京都,目黒区,中目黒５丁目１６－６,,13,110,1530061,,,,,,,2021-10-22,1,,,,,ライフサーフ,0
1482,6011001143616,新規,0,2021-10-22,2021-10-22,横浜ホスピタリティ・サービス株式会社,,株式会社,東京都,渋谷区,恵比寿１丁目１８番１８号東急不動産恵比寿ビル,,13,113,1500013,,,,,,,2021-10-22,1,,,,,ヨコハマホスピタリティサービス,0
1485,6011003013585,新規,0,2021-10-22,2021-10-22,合同会社ｎｅｉｇｅ　ｂｌａｎｃｈｅ,,合同会社,東京都,目黒区,上目黒３丁目２４番９号ハイツ上目黒１０２,,13,110,1530051,,,,,,,2021-10-22,1,,,,,ネイジュブランシュ,0
1486,6011003013593,新規,0,2021-10-22,2021-10-22,カニシマ合同会社,,合同会社,東京都,渋谷区,渋谷２丁目５番１４号３０３号,,13,113,1500002,,,,,,,2021-10-22,1,,,,,カニシマ,0
1489,6011101096664,新規,0,2021-10-22,2021-10-22,株式会社Ｓｅｖｅｎ,,株式会社,東京都,新宿区,大久保１丁目１１番３号,,13,104,1690072,,,,,,,2021-10-22,1,,,,,セブン,0
1499,6011801039856,新規,0,2021-10-22,2021-10-22,株式会社Ｒｅ　ｆｌｏｗｅｒ,,株式会社,東京都,葛飾区,青戸３丁目３４番３号フラワーハイム２０２,,13,122,1250062,,,,,,,2021-10-22,1,,,,,リフラワー,0
1500,6011801039864,新規,0,2021-10-22,2021-10-22,株式会社ＬＳメディカル,,株式会社,東京都,葛飾区,青戸１丁目１８番８号,,13,122,1250062,,,,,,,2021-10-22,1,,,,,エルエスメディカル,0
1503,6011803004841,新規,0,2021-10-22,2021-10-22,スマートリンク合同会社,,合同会社,東京都,足立区,舎人３丁目４－９,,13,121,1210831,,,,,,,2021-10-22,1,,,,,スマートリンク,0
1507,6012403005081,新規,0,2021-10-22,2021-10-22,ジャルディーノ合同会社,,合同会社,東京都,武蔵野市,吉祥寺本町２丁目３２番１８－２０３号ハイツ扇山,,13,203,1800004,,,,,,,2021-10-22,1,,,,,ジャルディーノ,0
1525,6020001143583,新規,0,2021-10-22,2021-10-22,株式会社鶴見環境物流,,株式会社,神奈川県,横浜市鶴見区,小野町４３番地３－１００１,,14,101,2300046,,,,,,,2021-10-22,1,,,,,ツルミカンキョウブツリュウ,0
1526,6020001143591,新規,0,2021-10-22,2021-10-22,株式会社フェニックス,,株式会社,神奈川県,横浜市中区,長者町２丁目６番地７－２０１号室,,14,104,2310033,,,,,,,2021-10-22,1,,,,,フェニックス,0
1527,6020001143600,新規,0,2021-10-22,2021-10-22,株式会社光山住宅,,株式会社,神奈川県,横浜市中区,野毛町２丁目７８番地,,14,104,2310064,,,,,,,2021-10-22,1,,,,,,0
1531,6020003020698,新規,0,2021-10-22,2021-10-22,Ｋ＆Ｙ合同会社,,合同会社,神奈川県,横浜市保土ケ谷区,月見台１５番２１号,,14,106,2400012,,,,,,,2021-10-22,1,,,,,ケーアンドワイ,0
1533,6021001074281,新規,0,2021-10-22,2021-10-22,株式会社橘鵠舎,,株式会社,神奈川県,藤沢市,鵠沼橘２丁目１２番３１号,00124650,14,205,2510024,,,,,,,2021-10-22,1,,,,,キッコウシャ,0
1540,6030001144928,新規,0,2021-10-22,2021-10-22,ＣＦＬｏｇｉｓｔｉｃｓ株式会社,,株式会社,埼玉県,桶川市,北１丁目１８番７号ホビースタジオ桶川・加納ＩＣ－Ｄ号,,11,231,3630011,,,,,,,2021-10-22,1,,,,,シーエフロジスティクス,0
1541,6030001144969,新規,0,2021-10-22,2021-10-22,株式会社山崎施工,00124651,株式会社,埼玉県,さいたま市岩槻区,加倉５丁目１０番７５号,,11,110,3390056,,,,,,,2021-10-22,1,,,,,ヤマザキセコウ,0
1542,6030001144985,新規,0,2021-10-22,2021-10-22,株式会社Ｓａｎｊａｙａ　Ｅｎｔｅｒｐｒｉｓｅｓ,,株式会社,埼玉県,加須市,花崎４丁目１０番地５,,11,210,3470032,,,,,,,2021-10-22,1,,,,,サンジャヤエンタープライズ,0
1560,6050001050026,新規,0,2021-10-22,2021-10-22,株式会社エスケイ,,株式会社,茨城県,下妻市,神明１１５番地,,08,210,3040011,,,,,,,2021-10-22,1,,,,,エスケイ,0
1563,6060001034226,新規,0,2021-10-22,2021-10-22,株式会社ＮＫＫ,,株式会社,栃木県,佐野市,関川町９０３番地１５,,09,204,3270811,,,,,,,2021-10-22,1,,,,,エヌケーケー,0
1569,6070001038564,新規,0,2021-10-22,2021-10-22,株式会社ＺＥＮＯＮ,,株式会社,群馬県,邑楽郡板倉町,大字岩田１３１２番地の３,,10,521,3740133,,,,,,,2021-10-22,1,,,,,ゼノン,0
1571,6080101022863,新規,0,2021-10-22,2021-10-22,株式会社ＮＥＸＴ　ＳＴＡＧＥ,,株式会社,静岡県,沼津市,岡宮１２１３番地の１２,,22,203,4100011,,,,,,,2021-10-22,1,,,,,ネクストステージ,0
1572,6080403004394,新規,0,2021-10-22,2021-10-22,合同会社庵,,合同会社,静岡県,浜松市東区,天王町１１３番地の５,,22,132,4350052,,,,,,,2021-10-22,1,,,,,アン,0
1583,6120001241311,新規,0,2021-10-22,2021-10-22,株式会社グランドワン,,株式会社,大阪府,大阪市中央区,心斎橋筋２丁目１番１０号サンボアビル３階,,27,128,5420085,,,,,,,2021-10-22,1,,,,,グランドワン,0
1584,6120001241328,新規,0,2021-10-22,2021-10-22,株式会社田中建築,,株式会社,大阪府,寝屋川市,対馬江西町１４番１２号,,27,215,5720065,,,,,,,2021-10-22,1,,,,,タナカケンチク,0
1585,6120001241336,新規,0,2021-10-22,2021-10-22,Ｕｎｉｖｅｒｓａｌ　Ｓａｋｅ　Ｊａｐａｎ株式会社,,株式会社,大阪府,大阪市中央区,島之内１丁目１２番２９号ハッチ長堀４０１,,27,128,5420082,,,,,,,2021-10-22,1,,,,,ユニバーサルサケジャパン,0
1586,6120001241344,新規,0,2021-10-22,2021-10-22,株式会社木村商員会,,株式会社,大阪府,大阪市城東区,野江１丁目１４番１号－１１０２,,27,118,5360006,,,,,,,2021-10-22,1,,,,,キムラショウインカイ,0
1587,6120001241360,新規,0,2021-10-22,2021-10-22,株式会社Ｌａ・ｖｉｅ工務店,,株式会社,大阪府,大阪市城東区,諏訪４丁目１５番１６号,,27,118,5360021,,,,,,,2021-10-22,1,,,,,ラヴィコウムテン,0
1588,6120001241369,新規,0,2021-10-22,2021-10-22,株式会社マンマミーア,,株式会社,大阪府,大阪市北区,堂島１丁目５番４号,,27,127,5300003,,,,,,,2021-10-22,1,,,,,マンマミーア,0
1589,6120001241377,新規,0,2021-10-22,2021-10-22,株式会社ＧＲＡＴＩＡＳ　ＯＳＡＫＡ,,株式会社,大阪府,枚方市,東船橋２丁目１４６番地の１,,27,210,5731115,,,,,,,2021-10-22,1,,,,,グラティアスオオサカ,0
1591,6120003020457,新規,0,2021-10-22,2021-10-22,合同会社モントレゾール,,合同会社,大阪府,大阪市東成区,中本３丁目１５番３３号グリーンブリッジＡ２０３号,,27,115,5370022,,,,,,,2021-10-22,1,,,,,モントレゾール,0
1595,6120901045084,新規,0,2021-10-22,2021-10-22,株式会社よしたけ,,株式会社,大阪府,高槻市,富田丘町４１番１号,,27,207,5691145,,,,,,,2021-10-22,1,,,,,ヨシタケ,0
1601,6140001123557,新規,0,2021-10-22,2021-10-22,株式会社トリプルエイト,,株式会社,兵庫県,川西市,中央町３－２,,28,217,6660016,,,,,,,2021-10-22,1,,,,,トリプルエイト,0
1602,6140001123581,新規,0,2021-10-22,2021-10-22,アシスト株式会社,,株式会社,兵庫県,伊丹市,鈴原町７丁目２０番地１,,28,207,6640882,,,,,,,2021-10-22,1,,,,,アシスト,0
1605,6170003001650,新規,0,2021-10-22,2021-10-22,合同会社オフィス米山,,合同会社,和歌山県,岩出市,山１２８番地の１,,30,209,6496258,,,,,,,2021-10-22,1,,,,,オフィスヨネヤマ,0
1608,6180001148385,新規,0,2021-10-22,2021-10-22,株式会社アント,,株式会社,愛知県,名古屋市緑区,漆山１００３番地,,23,114,4580832,,,,,,,2021-10-22,1,,,,,アント,0
1609,6180001148435,新規,0,2021-10-22,2021-10-22,株式会社大田塗装,,株式会社,愛知県,あま市,新居屋清明４８番地１,,23,237,4901105,,,,,,,2021-10-22,1,,,,,オオタトソウ,0
1613,6180003023124,新規,0,2021-10-22,2021-10-22,合同会社アイランドファイブ,,合同会社,愛知県,名古屋市中村区,京田町３丁目１１番地の２,,23,105,4530816,,,,,,,2021-10-22,1,,,,,アイランドファイブ,0
1617,6200001039318,新規,0,2021-10-22,2021-10-22,株式会社クックウィル,,株式会社,岐阜県,美濃加茂市,太田町４１７２番地２,,21,211,5050041,,,,,,,2021-10-22,1,,,,,クックウィル,0
1624,6210003001415,新規,0,2021-10-22,2021-10-22,ＮＩＫＫＥＮ合同会社,,合同会社,福井県,福井市,文京４丁目９－１ＭＵＲＡＴＡ．ＢＬＤ２Ｆ,,18,201,9100017,,,,,,,2021-10-22,1,,,,,ニッケン,0
1628,6220001024490,新規,0,2021-10-22,2021-10-22,トライフ空調株式会社,,株式会社,石川県,かほく市,外日角ハ５９番地８,,17,209,9291176,,,,,,,2021-10-22,1,,,,,トライフクウチョウ,0
1632,6240001058792,新規,0,2021-10-22,2021-10-22,株式会社ＲＥＶＩＶＥ,,株式会社,広島県,広島市南区,段原南１丁目１０番１３号,,34,103,7320814,,,,,,,2021-10-22,1,,,,,リバイブ,0
1633,6240001058801,新規,0,2021-10-22,2021-10-22,株式会社マルトウ,,株式会社,広島県,広島市安芸区,船越南４丁目１２番１６号２Ｆ,,34,107,7360082,,,,,,,2021-10-22,1,,,,,マルトウ,0
1639,6250001019208,新規,0,2021-10-22,2021-10-22,株式会社Ｙ．Ｓ．Ｋ．テクノサービス,,株式会社,山口県,周南市,大字徳山９９５番地の２５,,35,215,7450851,,,,,,,2021-10-22,1,,,,,ワイエスケイテクノサービス,0
1640,6260001036111,新規,0,2021-10-22,2021-10-22,株式会社和,,株式会社,岡山県,倉敷市,水島東千鳥町１番１号,,33,202,7128057,,,,,,,2021-10-22,1,,,,,ナゴミ,0
1663,6290003011737,新規,0,2021-10-22,2021-10-22,ヴリル合同会社,,合同会社,福岡県,柳川市,三橋町今古賀２１０番１号,,40,207,8320823,,,,,,,2021-10-22,1,,,,,ヴリル,0
1664,6290801027934,新規,0,2021-10-22,2021-10-22,株式会社オガワ,,株式会社,福岡県,田川市,大字夏吉１６５８番地,,40,206,8250004,,,,,,,2021-10-22,1,,,,,オガワ,0
1668,6330001029099,新規,0,2021-10-22,2021-10-22,株式会社ミチル,,株式会社,熊本県,熊本市北区,植木町木留１６０番地１０,,43,105,8610151,,,,,,,2021-10-22,1,,,,,ミチル,0
1669,6330003009099,新規,0,2021-10-22,2021-10-22,合同会社エムアイ石原,,合同会社,熊本県,菊池郡大津町,大字杉水１１４５番地７,,43,403,8691236,,,,,,,2021-10-22,1,,,,,エムアイイシハラ,0
1679,6360005006538,新規,0,2021-10-22,2021-10-22,沖縄県ウッドクラフト事業協同組合,,その他の設立登記法人,沖縄県,浦添市,城間２丁目２９番３号クロスロードＡＧ,,47,208,9012133,,,,,,,2021-10-22,1,,,,,オキナワケンウッドクラフト,0
1684,6390001016645,新規,0,2021-10-22,2021-10-22,夛田建築株式会社,,株式会社,山形県,東村山郡中山町,大字長崎４５３５番地,,06,302,9900401,,,,,,,2021-10-22,1,,,,,タダケンチク,0
1692,6430001085223,新規,0,2021-10-22,2021-10-22,株式会社大翔,,株式会社,北海道,札幌市北区,東茨戸一条１丁目１番１－６０８号,,01,102,0028041,,,,,,,2021-10-22,1,,,,,ダイショウ,0
1693,6430001085231,新規,0,2021-10-22,2021-10-22,株式会社イール,,株式会社,北海道,札幌市白石区,平和通１丁目北８番１２－１０５号,,01,104,0030029,,,,,,,2021-10-22,1,,,,,イール,0
1696,6430003013272,新規,0,2021-10-22,2021-10-22,合同会社プレシャス,,合同会社,北海道,札幌市中央区,南二条東２丁目１６番地堀尾ビル２Ｆ,,01,101,0600052,,,,,,,2021-10-22,1,,,,,プレシャス,0
1704,6500001023753,新規,0,2021-10-22,2021-10-22,大和株式会社,,株式会社,愛媛県,新居浜市,北内町４丁目１番５１号,,38,205,7920842,,,,,,,2021-10-22,1,,,,,ヤマト,0
1718,7010001222024,新規,0,2021-10-22,2021-10-22,株式会社Ｃａｓｅ,,株式会社,東京都,中央区,銀座１丁目１２番４号Ｎ＆Ｅ，ＢＬＤ．７階,,13,102,1040061,,,,,,,2021-10-22,1,,,,,ケース,0
1721,7010003036067,新規,0,2021-10-22,2021-10-22,合同会社Ｅｄｕｃｕｌ,,合同会社,東京都,千代田区,霞が関１丁目４番１号,,13,101,1000013,,,,,,,2021-10-22,1,,,,,エデュキュル,0
1722,7010003036091,新規,0,2021-10-22,2021-10-22,麹町ソーラー合同会社,,合同会社,東京都,千代田区,麹町２丁目８番地ＭＬＣ麹町ビル４階フィンポート税理士法人内,,13,101,1020083,,,,,,,2021-10-22,1,,,,,コウジマチソーラー,0
1723,7010003036100,新規,0,2021-10-22,2021-10-22,合同会社Ｌｏｕｉｓ,,合同会社,東京都,千代田区,外神田３丁目１番３号,,13,101,1010021,,,,,,,2021-10-22,1,,,,,ルイス,0
1731,7010401163363,新規,0,2021-10-22,2021-10-22,株式会社ＵＢパートナー,,株式会社,東京都,港区,虎ノ門１丁目２番１８号,,13,103,1050001,,,,,,,2021-10-22,1,,,,,ユービーパートナー,0
1734,7010403026361,新規,0,2021-10-22,2021-10-22,Ｓｃａｐｅｓ　Ｊａｐａｎ合同会社,,合同会社,東京都,港区,芝大門２丁目１２－１０Ｔ＆Ｇ浜松町ビル６階,,13,103,1050012,,,,,,,2021-10-22,1,,,,,スケイプスジャパン,0
1736,7010405020346,新規,0,2021-10-22,2021-10-22,一般社団法人大通ホテル管理,,その他の設立登記法人,東京都,港区,虎ノ門５丁目１番４号,,13,103,1050001,,,,,,,2021-10-22,1,,,,,オオドオリホテルカンリ,0
1747,7010705003281,新規,0,2021-10-22,2021-10-22,一般社団法人Ｔｈａｎｋｓ　ｆｏｒ　ｔｈｅ　ｆｏｏｄ,,その他の設立登記法人,東京都,品川区,大崎１丁目１番１号ル・サンク大崎シティタワー２３０５,,13,109,1410032,,,,,,,2021-10-22,1,,,,,サンクスフォーザフード,0
1750,7010803003927,新規,0,2021-10-22,2021-10-22,合同会社めひのこおり,,合同会社,東京都,大田区,南久が原１丁目２４番７号,,13,111,1460084,,,,,,,2021-10-22,1,,,,,メヒノコオリ,0
1751,7010901049673,新規,0,2021-10-22,2021-10-22,株式会社バケットリストリゾート,,株式会社,東京都,世田谷区,北沢２丁目１０番８号ユナイテッドビル２階２０１号室,,13,112,1550031,,,,,,,2021-10-22,1,,,,,,0
1773,7011101096663,新規,0,2021-10-22,2021-10-22,ブリストル・マイヤーズスクイブジェネリック株式会社,,株式会社,東京都,新宿区,西新宿６丁目５番１号,,13,104,1600023,,,,,,,2021-10-22,1,,,,,ブリストルマイヤーズスクイブジェネリック,0
1782,7011301027286,新規,0,2021-10-22,2021-10-22,ビヨンドエイチアール株式会社,,株式会社,東京都,杉並区,阿佐谷南１丁目３６番１６号,,13,115,1660004,,,,,,,2021-10-22,1,,,,,ビヨンドエイチアール,0
1788,7011501027400,新規,0,2021-10-22,2021-10-22,青鳥株式会社,,株式会社,東京都,荒川区,東尾久４丁目３５－３,,13,118,1160012,,,,,,,2021-10-22,1,,,,,アオトリ,0
1789,7011503004942,新規,0,2021-10-22,2021-10-22,合同会社クラウドエンジニアリング,,合同会社,東京都,北区,上十条２丁目５番１３号十条会館１Ｆ,,13,117,1140034,,,,,,,2021-10-22,1,,,,,,0
1794,7011803004840,新規,0,2021-10-22,2021-10-22,ミセル合同会社,,合同会社,東京都,葛飾区,柴又１丁目３８―１５,,13,122,1250052,,,,,,,2021-10-22,1,,,,,ミセル,0
1825,7021001074207,新規,0,2021-10-22,2021-10-22,株式会社ＳＨＫｒｉｎｇ,,株式会社,神奈川県,横須賀市,三春町５丁目１番地１４,,14,201,2380014,,,,,,,2021-10-22,1,,,,,シェアリング,0
1838,7030003018170,新規,0,2021-10-22,2021-10-22,合同会社とちぎや,,合同会社,埼玉県,さいたま市見沼区,東大宮５丁目４８番地１３,,11,104,3370051,,,,,,,2021-10-22,1,,,,,トチギヤ,0
1839,7030003018179,新規,0,2021-10-22,2021-10-22,合同会社ＬＩＮＯＶＡ,,合同会社,埼玉県,さいたま市浦和区,上木崎１丁目２番１－１０９号,,11,107,3300071,,,,,,,2021-10-22,1,,,,,リノバ,0
1853,7050001050025,新規,0,2021-10-22,2021-10-22,株式会社Ｂ班,,株式会社,茨城県,古河市,丘里１０番地６,,08,204,3060206,,,,,,,2021-10-22,1,,,,,ビーハン,0
1859,7060001034225,新規,0,2021-10-22,2021-10-22,株式会社まるきカンパニー,,株式会社,栃木県,佐野市,高萩町６５２番地２,,09,204,3270821,,,,,,,2021-10-22,1,,,,,マルキカンパニー,0
1861,7060003003839,新規,0,2021-10-22,2021-10-22,溶佳合同会社,,合同会社,栃木県,宇都宮市,一番町１番３１号大木ビル３階,,09,201,3200812,,,,,,,2021-10-22,1,,,,,ヨウカ,0
1865,7070003004274,新規,0,2021-10-22,2021-10-22,合同会社小田インシュアランスオフィス,,合同会社,群馬県,前橋市,富士見町皆沢３１９番地８,,10,201,3710102,,,,,,,2021-10-22,1,,,,,オダインシュアランスオフィス,0
1893,7120001241343,新規,0,2021-10-22,2021-10-22,株式会社エリア１０,,株式会社,大阪府,大阪市西区,南堀江４丁目１０番９－３０２号,,27,106,5500015,,,,,,,2021-10-22,1,,,,,エリアテン,0
1894,7120001241376,新規,0,2021-10-22,2021-10-22,荷札工房．ｃｏｍ株式会社,,株式会社,大阪府,大阪市東成区,深江南３丁目１４番１５号,,27,115,5370002,,,,,,,2021-10-22,1,,,,,ニフダコウボウドットコム,0
1903,7120101064520,新規,0,2021-10-22,2021-10-22,株式会社新井建設,,株式会社,大阪府,阪南市,山中渓５２０番地,,27,232,5990214,,,,,,,2021-10-22,1,,,,,アライケンセツ,0
1907,7120901045091,新規,0,2021-10-22,2021-10-22,株式会社まるゆう,,株式会社,大阪府,高槻市,大和１丁目１２番１３号,,27,207,5691047,,,,,,,2021-10-22,1,,,,,マルユウ,0
1908,7120903003881,新規,0,2021-10-22,2021-10-22,ＡＫＹ合同会社,,合同会社,大阪府,箕面市,粟生間谷西７丁目３０番１０号,,27,220,5620023,,,,,,,2021-10-22,1,,,,,アキ,0
1909,7122001035287,新規,0,2021-10-22,2021-10-22,株式会社アサイメント,,株式会社,大阪府,東大阪市,長堂１丁目９番６号,,27,227,5770056,,,,,,,2021-10-22,1,,,,,アサイメント,0
1912,7130001070386,新規,0,2021-10-22,2021-10-22,株式会社フジ投資ファンド,,株式会社,京都府,京都市左京区,田中東高原町２１番地インベスト京都白川７０４,,26,103,6068243,,,,,,,2021-10-22,1,,,,,フジトウシファンド,0
1918,7140001123572,新規,0,2021-10-22,2021-10-22,株式会社アクティブ建物プラン,,株式会社,兵庫県,尼崎市,東園田町９丁目２５番地の８,,28,202,6610953,,,,,,,2021-10-22,1,,,,,アクティブタテモノプラン,0
1919,7140001123589,新規,0,2021-10-22,2021-10-22,Ｉｎｆｏｒｍａｒｅｓｓ株式会社,,株式会社,兵庫県,姫路市,飾磨区英賀甲１９３０番地１,,28,201,6728078,,,,,,,2021-10-22,1,,,,,インフォーマレス,0
1920,7140001123597,新規,0,2021-10-22,2021-10-22,アフィット株式会社,,株式会社,兵庫県,姫路市,花影町４丁目１４番地,,28,201,6700047,,,,,,,2021-10-22,1,,,,,アフィット,0
1921,7140003016865,新規,0,2021-10-22,2021-10-22,Ｓａｆｒａｎ．合同会社,,合同会社,兵庫県,芦屋市,山手町３４－１９,,28,206,6590096,,,,,,,2021-10-22,1,,,,,サフラン,0
1926,7150005009338,新規,0,2021-10-22,2021-10-22,一般社団法人ちいさいおうち,,その他の設立登記法人,奈良県,奈良市,千代ヶ丘３丁目６番地の４,,29,201,6310045,,,,,,,2021-10-22,1,,,,,チイサイオウチ,0
1928,7160001023746,新規,0,2021-10-22,2021-10-22,株式会社自柚基地,,株式会社,滋賀県,甲賀市,信楽町杉山字東南１番５,,25,209,5291834,,,,,,,2021-10-22,1,,,,,ジユウキチ,0
1945,7190001028791,新規,0,2021-10-22,2021-10-22,株式会社Ｋ＆Ｓ,,株式会社,三重県,伊勢市,船江４丁目３番１０号,,24,203,5160008,,,,,,,2021-10-22,1,,,,,ケーアンドエス,0
1951,7200001039325,新規,0,2021-10-22,2021-10-22,株式会社ＰＵＺＺＬＣＥ,,株式会社,岐阜県,岐阜市,竜田町５丁目２番地１,,21,201,5008402,,,,,,,2021-10-22,1,,,,,パズルス,0
1957,7230001019043,新規,0,2021-10-22,2021-10-22,株式会社なんとエナジー,,株式会社,富山県,南砺市,やかた３２９番地,,16,210,9391576,,,,,,,2021-10-22,1,,,,,ナントエナジー,0
1959,7240001058783,新規,0,2021-10-22,2021-10-22,株式会社ネクスティ,,株式会社,広島県,広島市安佐北区,深川５丁目３８番１７号,,34,106,7391751,,,,,,,2021-10-22,1,,,,,ネクスティ,0
1960,7240001058791,新規,0,2021-10-22,2021-10-22,株式会社琥珀組,,株式会社,広島県,福山市,箕島町５８１６番地１３７,,34,207,7210957,,,,,,,2021-10-22,1,,,,,コハクグミ,0
1966,7290001095104,新規,0,2021-10-22,2021-10-22,株式会社有隣,,株式会社,福岡県,福岡市中央区,今泉１丁目１３番１１－３０３号,,40,133,8100021,,,,,,,2021-10-22,1,,,,,ユウリン,0
1968,7290005018399,新規,0,2021-10-22,2021-10-22,一般社団法人ＢＥ　ＴＨＥ　ＢＥＳＴ,,その他の設立登記法人,福岡県,筑紫野市,二日市北７丁目１番２号プロスパー２０２号,,40,217,8180056,,,,,,,2021-10-22,1,,,,,ビーザベスト,0
1976,7310001017542,新規,0,2021-10-22,2021-10-22,ジスコ子ども支援株式会社,,株式会社,長崎県,諫早市,永昌町４番２６号１０階,,42,204,8540072,,,,,,,2021-10-22,1,,,,,ジスココドモシエン,0
1981,7320003003639,新規,0,2021-10-22,2021-10-22,新エネルギー開発合同会社,,合同会社,大分県,大分市,府内町３丁目４番２０号,,44,201,8700021,,,,,,,2021-10-22,1,,,,,シンエネルギーカイハツ,0
1983,7330001029098,新規,0,2021-10-22,2021-10-22,ＡＳＥＲ株式会社,,株式会社,熊本県,阿蘇市,三久保８６６番地３,,43,214,8692302,,,,,,,2021-10-22,1,,,,,エーエスイーアール,0
1984,7330001029107,新規,0,2021-10-22,2021-10-22,株式会社エー・エフ・エフ,,株式会社,熊本県,熊本市北区,万楽寺町４８５番地,,43,105,8615537,,,,,,,2021-10-22,1,,,,,エーエフエフ,0
1989,7330003009098,新規,0,2021-10-22,2021-10-22,合同会社ＡＫアネシス,,合同会社,熊本県,山鹿市,鹿本町来民１１５０番地１リブステージＡ棟２０１号,,43,208,8610331,,,,,,,2021-10-22,1,,,,,エーケーアネシス,0
2003,7380001032279,新規,0,2021-10-22,2021-10-22,ケイストーリー株式会社,,株式会社,福島県,福島市,方木田字北白家２２番地の３２,,07,201,9608163,,,,,,,2021-10-22,1,,,,,ケイストーリー,0
2006,7400001015644,新規,0,2021-10-22,2021-10-22,株式会社ＭＹＫ,,株式会社,岩手県,北上市,村崎野２０地割１９４番地３,,03,206,0240004,,,,,,,2021-10-22,1,,,,,エムワイケー,0
2009,7420003002399,新規,0,2021-10-22,2021-10-22,合同会社織姫,,合同会社,青森県,八戸市,南郷大字市野沢字石窪２９番地３,,02,203,0310111,,,,,,,2021-10-22,1,,,,,オリヒメ,0
2013,7430001085230,新規,0,2021-10-22,2021-10-22,株式会社ｅｕｐｈｏｒｉａ,,株式会社,北海道,札幌市清田区,平岡六条１丁目７番７－７１５号,,01,110,0040876,,,,,,,2021-10-22,1,,,,,ユーフォリア,0
2016,7440001008966,新規,0,2021-10-22,2021-10-22,株式会社Ａｍａｎｏ,,株式会社,北海道,函館市,西桔梗町２４６番地２４,,01,202,0410824,,,,,,,2021-10-22,1,,,,,アマノ,0
2023,7480001011529,新規,0,2021-10-22,2021-10-22,株式会社こころ,,株式会社,徳島県,板野郡板野町,大寺字岡ノ前６番地１,,36,404,7790105,,,,,,,2021-10-22,1,,,,,ココロ,0
2041,8010001222023,新規,0,2021-10-22,2021-10-22,日本壹心国際株式会社,,株式会社,東京都,中央区,東日本橋２丁目２８番５号５０８,,13,102,1030004,,,,,,,2021-10-22,1,,,,,ニホンイッシンコクサイ,0
2047,8010003036082,新規,0,2021-10-22,2021-10-22,合同会社ＫＳＬＦ１１,,合同会社,東京都,千代田区,内幸町２丁目１番６号,,13,101,1000011,,,,,,,2021-10-22,1,,,,,ケイエスエルエフイレブン,0
2048,8010003036090,新規,0,2021-10-22,2021-10-22,丸の内ソーラー合同会社,,合同会社,東京都,千代田区,麹町２丁目８番地ＭＬＣ麹町ビル４階フィンポート税理士法人内,,13,101,1020083,,,,,,,2021-10-22,1,,,,,マルノウチソーラー,0
2061,8010401163230,新規,0,2021-10-22,2021-10-22,アイフィールド株式会社,,株式会社,東京都,港区,南青山３丁目８番４０号,,13,103,1070062,,,,,,,2021-10-22,1,,,,,アイフィールド,0
2062,8010401163362,新規,0,2021-10-22,2021-10-22,株式会社ＬＳパートナー,,株式会社,東京都,港区,虎ノ門１丁目２番１８号,,13,103,1050001,,,,,,,2021-10-22,1,,,,,エルエスパートナー,0
2064,8010403026369,新規,0,2021-10-22,2021-10-22,Ｓｏｌａｒｉａｎｔ　Ｆｕｎｄ　ＳＰＣ　Ｆｏｕｒ合同会社,,合同会社,東京都,港区,六本木６丁目１０番１号六本木ヒルズ森タワー３７階,,13,103,1060032,,,,,,,2021-10-22,1,,,,,ソラリアントファンドエスピーシーフォー,0
2065,8010403026377,新規,0,2021-10-22,2021-10-22,合同会社７ＣｏｌｏｒｓＳｔａｒ,,合同会社,東京都,港区,港南５丁目１－１５ケントピア港南５０３,,13,103,1080075,,,,,,,2021-10-22,1,,,,,セブンカラーズスター,0
2072,8010701041680,新規,0,2021-10-22,2021-10-22,ライフコンパス株式会社,,株式会社,東京都,品川区,北品川５丁目１２番４号リードシー御殿山ビル,,13,109,1410001,,,,,,,2021-10-22,1,,,,,ライフコンパス,0
2081,8010901049656,新規,0,2021-10-22,2021-10-22,株式会社グリーンズタイヤ,,株式会社,東京都,世田谷区,北沢１丁目１２番６号,,13,112,1550031,,,,,,,2021-10-22,1,,,,,グリーンズタイヤ,0
2082,8010901049664,新規,0,2021-10-22,2021-10-22,ＦＯＯＴＭＡＲＫ株式会社,,株式会社,東京都,世田谷区,千歳台６丁目３番４号,,13,112,1570071,,,,,,,2021-10-22,1,,,,,フットマーク,0
2088,8011001143564,新規,0,2021-10-22,2021-10-22,株式会社ＫＩＢＩＤＡＮＧＯ,,株式会社,東京都,渋谷区,広尾５丁目１４番２号,,13,113,1500012,,,,,,,2021-10-22,1,,,,,キビダンゴ,0
2095,8011101096555,新規,0,2021-10-22,2021-10-22,京喬不動産株式会社,,株式会社,東京都,新宿区,山吹町３６５番地１,,13,104,1620801,,,,,,,2021-10-22,1,,,,,ケイキョウフドウサン,0
2107,8011801039862,新規,0,2021-10-22,2021-10-22,株式会社ＣｒｅａｔｉｖｅＡｃｔｉｏｎ,,株式会社,東京都,葛飾区,四つ木４丁目２０－３,,13,122,1240011,,,,,,,2021-10-22,1,,,,,クリエイティブアクション,0
2108,8011801039870,新規,0,2021-10-22,2021-10-22,株式会社クラリス,,株式会社,東京都,足立区,新田１丁目２番１９号新田ＰＨビル１０１号室,,13,121,1230865,,,,,,,2021-10-22,1,,,,,,0
2111,8012401038445,新規,0,2021-10-22,2021-10-22,株式会社桜和,,株式会社,東京都,多摩市,聖ヶ丘２丁目１２番地の９,,13,224,2060022,,,,,,,2021-10-22,1,,,,,サクラワ,0
2117,8013101008754,新規,0,2021-10-22,2021-10-22,株式会社ＴＨＦ,,株式会社,東京都,西多摩郡瑞穂町,大字箱根ケ崎２２１８番地１－１０５,,13,303,1901221,,,,,,,2021-10-22,1,,,,,ティーエイチエフ,0
2130,8020001143508,新規,0,2021-10-22,2021-10-22,株式会社Ｒｅａｌ．Ｉｎ,,株式会社,神奈川県,横浜市西区,平沼１丁目９番１７－５０３号,,14,103,2200023,,,,,,,2021-10-22,1,,,,,リアルイン,0
2131,8020001143598,新規,0,2021-10-22,2021-10-22,株式会社森嶼商会,,株式会社,神奈川県,横浜市中区,千歳町１－１１マンション長者町９０２室,,14,104,2310035,,,,,,,2021-10-22,1,,,,,,0
2137,8020003020655,新規,0,2021-10-22,2021-10-22,合同会社Ｔｈａｌｅｉａ,,合同会社,神奈川県,横浜市神奈川区,台町１－４－６０２,,14,102,2210834,,,,,,,2021-10-22,1,,,,,タレイア,0
2140,8021001074296,新規,0,2021-10-22,2021-10-22,株式会社ｃｅｒｏ－ｕｎｏ,,株式会社,神奈川県,大和市,南林間２丁目８－２０小林ビル１０１,,14,213,2420006,,,,,,,2021-10-22,1,,,,,セロウノ,0
2147,8030001144892,新規,0,2021-10-22,2021-10-22,大雄産業株式会社,,株式会社,埼玉県,さいたま市見沼区,堀崎三丁目２番地,,11,104,3370000,,,,,,,2021-10-22,1,,,,,ダイユウサンギョウ,0
2152,8030003018178,新規,0,2021-10-22,2021-10-22,合同会社エンド・アシスト,,合同会社,埼玉県,さいたま市緑区,大字大門１７６４番地３,,11,109,3360963,,,,,,,2021-10-22,1,,,,,エンドアシスト,0
2168,8070003004273,新規,0,2021-10-22,2021-10-22,ＳＭＳコーポレーション合同会社,,合同会社,群馬県,太田市,東矢島町２６１番地,,10,205,3730816,,,,,,,2021-10-22,1,,,,,エスエムエスコーポレーション,0
2176,8080401025432,新規,0,2021-10-22,2021-10-22,丸定財託株式会社,,株式会社,静岡県,浜松市中区,城北２丁目１９番２３号,,22,131,4328011,,,,,,,2021-10-22,1,,,,,マルサダザイタク,0
2178,8100001034748,新規,0,2021-10-22,2021-10-22,株式会社Ａ＆Ｃｏｍｐａｎｙ,,株式会社,長野県,北佐久郡軽井沢町,大字長倉２１６６番地１０４三井の森内１３０６,,20,321,3890111,,,,,,,2021-10-22,1,,,,,エーアンドカンパニー,0
2190,8120001241243,新規,0,2021-10-22,2021-10-22,株式会社エースワーク,,株式会社,大阪府,大阪市西区,西本町１丁目８番２号三晃ビル８階,,27,106,5500005,,,,,,,2021-10-22,1,,,,,エースワーク,0
2191,8120001241342,新規,0,2021-10-22,2021-10-22,株式会社みなと共生機構,,株式会社,大阪府,大阪市港区,築港３丁目７番１５号港振興ビル２１２,,27,107,5520021,,,,,,,2021-10-22,1,,,,,ミナトキョウセイキコウ,0
2192,8120001241350,新規,0,2021-10-22,2021-10-22,株式会社アシスト,,株式会社,大阪府,大阪市西区,南堀江４丁目１７番１８号,,27,106,5500015,,,,,,,2021-10-22,1,,,,,アシスト,0
2193,8120001241359,新規,0,2021-10-22,2021-10-22,宇佐美ホールディングス株式会社,,株式会社,大阪府,大阪市都島区,都島本通２丁目１６番１１号,,27,102,5340021,,,,,,,2021-10-22,1,,,,,ウサミホールディングス,0
2198,8120005022565,新規,0,2021-10-22,2021-10-22,一般社団法人日本エコラップ協会,,その他の設立登記法人,大阪府,枚方市,北中振１丁目２番８号,,27,210,5730064,,,,,,,2021-10-22,1,,,,,ニホンエコラップキョウカイ,0
2206,8122001035286,新規,0,2021-10-22,2021-10-22,ＳＨＩＧＥＫＩ株式会社,,株式会社,大阪府,東大阪市,足代北２丁目２０番９号,,27,227,5770058,,,,,,,2021-10-22,1,,,,,シゲキ,0
2208,8130003007559,新規,0,2021-10-22,2021-10-22,合同会社ＨＯＭＮＩＳ,,合同会社,京都府,亀岡市,内丸町２５番地６,,26,206,6210864,,,,,,,2021-10-22,1,,,,,ホムニス,0
2210,8140001123571,新規,0,2021-10-22,2021-10-22,株式会社ニシムラ,,株式会社,兵庫県,姫路市,飾磨区構５丁目１６３番地５,,28,201,6728071,,,,,,,2021-10-22,1,,,,,ニシムラ,0
2211,8140001123596,新規,0,2021-10-22,2021-10-22,株式会社藤野商事,,株式会社,兵庫県,神戸市長田区,駒ケ林南町１番８号,,28,106,6530045,,,,,,,2021-10-22,1,,,,,フジノショウジ,0
2215,8140003016897,新規,0,2021-10-22,2021-10-22,合同会社Ｄｒｉｐ,,合同会社,兵庫県,川西市,けやき坂４丁目１９番地の３,,28,217,6660145,,,,,,,2021-10-22,1,,,,,ドリップ,0
2221,8160005011003,新規,0,2021-10-22,2021-10-22,一般社団法人創祐会,,その他の設立登記法人,滋賀県,大津市,桜野町２丁目１６番１８号ラポート西大津２０４号,,25,201,5200026,,,,,,,2021-10-22,1,,,,,ソウユウカイ,0
2233,8180301035538,新規,0,2021-10-22,2021-10-22,カゴノトリ株式会社,,株式会社,愛知県,豊田市,足助町篭ノ鳥４番地,,23,211,4442424,,,,,,,2021-10-22,1,,,,,カゴノトリ,0
2234,8180303005142,新規,0,2021-10-22,2021-10-22,合同会社陣取山ホーム,,合同会社,愛知県,みよし市,東陣取山７６番地,,23,236,4700222,,,,,,,2021-10-22,1,,,,,ジンドリヤマホーム,0
2235,8190001028790,新規,0,2021-10-22,2021-10-22,株式会社ＤＡＩＣＯＳ,,株式会社,三重県,四日市市,河原田町１００７番地２８,,24,202,5100874,,,,,,,2021-10-22,1,,,,,ダイコス,0
2256,8240001058790,新規,0,2021-10-22,2021-10-22,株式会社エムフロア,,株式会社,広島県,尾道市,高須町４７７７番地１０,,34,205,7290141,,,,,,,2021-10-22,1,,,,,エムフロア,0
2257,8240001058799,新規,0,2021-10-22,2021-10-22,株式会社ＧＥＫＫＯ,,株式会社,広島県,広島市中区,上幟町２番３６号スペース・ウイング８０４号,,34,101,7300014,,,,,,,2021-10-22,1,,,,,ゲッコウ,0
2279,8290001095103,新規,0,2021-10-22,2021-10-22,ＡＩＤＥＮ株式会社,,株式会社,福岡県,宗像市,朝野２５６番地,,40,220,8113415,,,,,,,2021-10-22,1,,,,,アイデン,0
2295,8330001029097,新規,0,2021-10-22,2021-10-22,株式会社ＲＩＶＥＲＤＯＯＲ,,株式会社,熊本県,熊本市中央区,花畑町１０番１０号,,43,101,8600806,,,,,,,2021-10-22,1,,,,,リバードア,0
2301,8340003003603,新規,0,2021-10-22,2021-10-22,たしまエンタープライズ合同会社,,合同会社,鹿児島県,薩摩川内市,樋脇町塔之原２６５４番地１,,46,215,8951202,,,,,,,2021-10-22,1,,,,,タシマエンタープライズ,0
2316,8400001015643,新規,0,2021-10-22,2021-10-22,株式会社マルイワ電機住設,,株式会社,岩手県,花巻市,松園町４６９番地３,,03,205,0250066,,,,,,,2021-10-22,1,,,,,マルイワデンキジュウセツ,0
2321,8430001085221,新規,0,2021-10-22,2021-10-22,株式会社菅原サービスセンター,,株式会社,北海道,小樽市,稲穂３丁目７番７号,,01,203,0470032,,,,,,,2021-10-22,1,,,,,スガワラサービスセンター,0
2323,8430003013270,新規,0,2021-10-22,2021-10-22,合同会社及川総業,,合同会社,北海道,札幌市南区,藤野二条６丁目６番２０号,,01,106,0612282,,,,,,,2021-10-22,1,,,,,オイカワソウギョウ,0
2327,8470001018788,新規,0,2021-10-22,2021-10-22,松浦空調株式会社,,株式会社,香川県,高松市,庵治町１８７９番地３,,37,201,7610130,,,,,,,2021-10-22,1,,,,,マツウラクウチョウ,0
2330,8500001023751,新規,0,2021-10-22,2021-10-22,株式会社柴田土建,,株式会社,愛媛県,西条市,明屋敷６６４番地６,,38,206,7930023,,,,,,,2021-10-22,1,,,,,シバタドケン,0
2340,9010001221882,新規,0,2021-10-22,2021-10-22,株式会社Ｂｉｏｔｏｐｏ,,株式会社,東京都,中央区,日本橋２丁目１番１７号,,13,102,1030027,,,,,,,2021-10-22,1,,,,,ビオトーポ,0
2345,9010003036073,新規,0,2021-10-22,2021-10-22,タコバルト合同会社,,合同会社,東京都,中央区,銀座１丁目２２番１１号銀座大竹ビジデンス２階,,13,102,1040061,,,,,,,2021-10-22,1,,,,,タコバルト,0
2346,9010003036081,新規,0,2021-10-22,2021-10-22,合同会社リネッツ,,合同会社,東京都,千代田区,永田町２丁目１３番５号赤坂エイトワンビル２階,,13,101,1000014,,,,,,,2021-10-22,1,,,,,リネッツ,0
2349,9010101014922,新規,0,2021-10-22,2021-10-22,株式会社Ｎ．Ｔ．Ｓ,,株式会社,東京都,八王子市,長房町６２６番地１０,,13,201,1930824,,,,,,,2021-10-22,1,,,,,,0
2356,9010401163403,新規,0,2021-10-22,2021-10-22,株式会社リアライズ,,株式会社,東京都,港区,芝５丁目１６番５号,,13,103,1080014,,,,,,,2021-10-22,1,,,,,リアライズ,0
2358,9010403026368,新規,0,2021-10-22,2021-10-22,合同会社ウエスト・ストリート・ジャパン・ワン,,合同会社,東京都,港区,六本木６丁目１０番１号六本木ヒルズ森タワー,,13,103,1060032,,,,,,,2021-10-22,1,,,,,ウエストストリートジャパンワン,0
2359,9010403026376,新規,0,2021-10-22,2021-10-22,ＵＩ　Ｋｏｔｏ合同会社,,合同会社,東京都,港区,元赤坂１丁目１番７号,,13,103,1070051,,,,,,,2021-10-22,1,,,,,ユーアイコートー,0
2360,9010405020303,新規,0,2021-10-22,2021-10-22,Ｙｕｋｉ　Ｆｕｒａｎｏ特定目的会社,,その他の設立登記法人,東京都,港区,虎ノ門３丁目２２番１０－２０１号,,13,103,1050001,,,,,,,2021-10-22,1,,,,,ユキフラノ,0
2361,9010405020336,新規,0,2021-10-22,2021-10-22,ＵＩ　Ｋｏｔｏ一般社団法人,,その他の設立登記法人,東京都,港区,元赤坂１丁目１番７号,,13,103,1070051,,,,,,,2021-10-22,1,,,,,ユーアイコートー,0
2362,9010405020352,新規,0,2021-10-22,2021-10-22,特定目的会社Ｙｏｓｏ　Ｄｅｖｅｌｏｐｍｅｎｔ,,その他の設立登記法人,東京都,港区,虎ノ門３丁目２２番１０－２０１号,,13,103,1050001,,,,,,,2021-10-22,1,,,,,ヨウソディベロップメント,0
2371,9010901049671,新規,0,2021-10-22,2021-10-22,株式会社Ｃｏｏ,,株式会社,東京都,世田谷区,成城４丁目２０番２９号,,13,112,1570066,,,,,,,2021-10-22,1,,,,,クー,0
2373,9010903006885,新規,0,2021-10-22,2021-10-22,ティーケー企画合同会社,,合同会社,東京都,世田谷区,代田４丁目３２番２０号,,13,112,1550033,,,,,,,2021-10-22,1,,,,,ティーケーキカク,0
2378,9011001143563,新規,0,2021-10-22,2021-10-22,株式会社Ａｃｃｏｌｏｇｙ,,株式会社,東京都,渋谷区,円山町５－５Ｎａｖｉ渋谷Ｖ３階,,13,113,1500044,,,,,,,2021-10-22,1,,,,,アコロジー,0
2379,9011001143596,新規,0,2021-10-22,2021-10-22,株式会社ＣＩＮＣＨ,,株式会社,東京都,目黒区,東が丘１丁目１７番１６号テラス東が丘Ｄ,,13,110,1520021,,,,,,,2021-10-22,1,,,,,シンチ,0
2380,9011001143621,新規,0,2021-10-22,2021-10-22,株式会社ＡＩＭ　ＯＷＥＮＳ,,株式会社,東京都,渋谷区,神宮前６丁目２３番４号桑野ビル２階,,13,113,1500001,,,,,,,2021-10-22,1,,,,,エイムオウエンス,0
2386,9011101096653,新規,0,2021-10-22,2021-10-22,未来建装株式会社,,株式会社,東京都,新宿区,歌舞伎町２丁目９番１５号,,13,104,1600021,,,,,,,2021-10-22,1,,,,,ミライケンソウ,0
2388,9011201023350,新規,0,2021-10-22,2021-10-22,株式会社ＴＲＳパートナー,,株式会社,東京都,中野区,野方６丁目５１番１２号マースコーポ野方１Ｃ,,13,114,1650027,,,,,,,2021-10-22,1,,,,,ティーアールエスパートナー,0
2390,9011401023778,新規,0,2021-10-22,2021-10-22,株式会社コシオカ,,株式会社,東京都,板橋区,赤塚８丁目１番５号,,13,119,1750092,,,,,,,2021-10-22,1,,,,,コシオカ,0
2404,9012703002338,新規,0,2021-10-22,2021-10-22,合同会社アトラス４,,合同会社,東京都,西東京市,下保谷４丁目８－１８アネックスマノア１０１,,13,229,2020004,,,,,,,2021-10-22,1,,,,,アトラスフォー,0
2425,9020001143597,新規,0,2021-10-22,2021-10-22,タマテック株式会社,,株式会社,神奈川県,横浜市保土ケ谷区,瀬戸ケ谷町７１番地３３ハイツイデ１０１号,,14,106,2400024,,,,,,,2021-10-22,1,,,,,タマテック,0
2426,9020001143606,新規,0,2021-10-22,2021-10-22,株式会社キアラ,,株式会社,神奈川県,横浜市西区,高島２丁目７番２－２８１１号,,14,103,2200011,,,,,,,2021-10-22,1,,,,,キアラ,0
2429,9020003020654,新規,0,2021-10-22,2021-10-22,トリュテュ合同会社,,合同会社,神奈川県,横浜市都筑区,中川中央１丁目５番１８―９０３,,14,118,2240003,,,,,,,2021-10-22,1,,,,,トリュテュ,0
2438,9021001074295,新規,0,2021-10-22,2021-10-22,株式会社ｍｅｔｅｏｒ,,株式会社,神奈川県,相模原市南区,上鶴間本町２丁目３３番２号,,14,153,2520318,,,,,,,2021-10-22,1,,,,,メテオ,0
2447,9030001144966,新規,0,2021-10-22,2021-10-22,スノーソーラー株式会社,,株式会社,埼玉県,北本市,本町２丁目６２,,11,233,3640033,,,,,,,2021-10-22,1,,,,,スノーソーラー,0
2455,9030003018177,新規,0,2021-10-22,2021-10-22,合同会社ｕｎｉｔｙｊａｐａｎ,,合同会社,埼玉県,熊谷市,戸出１０６６－２,,11,202,3600022,,,,,,,2021-10-22,1,,,,,ユニティジャパン,0
2468,9050001050031,新規,0,2021-10-22,2021-10-22,谷津不動産企画株式会社,,株式会社,茨城県,水戸市,大足町９９３番地１,,08,201,3190312,,,,,,,2021-10-22,1,,,,,ヤツフドウサンキカク,0
2475,9070001038561,新規,0,2021-10-22,2021-10-22,高崎協同運輸倉庫株式会社,,株式会社,群馬県,高崎市,神戸町３８番地３,,10,202,3703336,,,,,,,2021-10-22,1,,,,,タカサキキョウドウウンユソウコ,0
2476,9070003004272,新規,0,2021-10-22,2021-10-22,合同会社米王倉庫,,合同会社,群馬県,桐生市,菱町２丁目１８１１－９,,10,203,3760001,,,,,,,2021-10-22,1,,,,,コメオウソウコ,0
2482,9080101022860,新規,0,2021-10-22,2021-10-22,株式会社オーガニックカラーズ,,株式会社,静岡県,伊豆の国市,南江間１１０５番地の１,,22,225,4102221,,,,,,,2021-10-22,1,,,,,オーガニックカラーズ,0
2486,9100001034739,新規,0,2021-10-22,2021-10-22,株式会社アライアンス,,株式会社,長野県,松本市,寿北５丁目２１番３号,,20,202,3990011,,,,,,,2021-10-22,1,,,,,アライアンス,0
2487,9100003006273,新規,0,2021-10-22,2021-10-22,合同会社マグライツ,,合同会社,長野県,松本市,中央２丁目２番３号,,20,202,3900811,,,,,,,2021-10-22,1,,,,,マグライツ,0
2504,9120001241325,新規,0,2021-10-22,2021-10-22,株式会社ＥｉＴＯ,,株式会社,大阪府,大阪市西成区,玉出東２丁目３番３３号,,27,122,5570043,,,,,,,2021-10-22,1,,,,,エイト,0
2505,9120001241358,新規,0,2021-10-22,2021-10-22,株式会社ＬＩＦＥ　ＨＡＰＰＹ,,株式会社,大阪府,大阪市天王寺区,上本町６丁目７番２０号３０２,,27,109,5430001,,,,,,,2021-10-22,1,,,,,ライフハッピー,0
2506,9120001241366,新規,0,2021-10-22,2021-10-22,株式会社Ｌｉｅｎｔｙ,,株式会社,大阪府,大阪市鶴見区,放出東３丁目３４番７－２８０３号,,27,124,5380044,,,,,,,2021-10-22,1,,,,,リアンティ,0
2507,9120001241382,新規,0,2021-10-22,2021-10-22,株式会社ＬＯＴＵＳ　ＧＬＯＢＡＬ,,株式会社,大阪府,大阪市西成区,長橋１丁目１３番２２号,,27,122,5570025,,,,,,,2021-10-22,1,,,,,ロータスグローバル,0
2509,9120005022564,新規,0,2021-10-22,2021-10-22,一般社団法人まるごと防災協議会,,その他の設立登記法人,大阪府,大阪市北区,梅田１丁目２番２号大阪駅前第２ビル２階,,27,127,5300001,,,,,,,2021-10-22,1,,,,,マルゴトボウサイキョウギカイ,0
2513,9120101064519,新規,0,2021-10-22,2021-10-22,株式会社Ｐｌｕｍ,,株式会社,大阪府,松原市,田井城２丁目３番１－３１７号,,27,217,5800044,,,,,,,2021-10-22,1,,,,,プラム,0
2516,9122001035285,新規,0,2021-10-22,2021-10-22,株式会社ガーデンファクトリー,,株式会社,大阪府,四條畷市,岡山東４丁目１２番１３号,,27,229,5750003,,,,,,,2021-10-22,1,,,,,ガーデンファクトリー,0
2519,9130001070392,新規,0,2021-10-22,2021-10-22,株式会社栄心,,株式会社,京都府,京都市伏見区,小栗栖岩ケ淵町８番地３,,26,109,6011443,,,,,,,2021-10-22,1,,,,,エイシン,0
2526,9140001123538,新規,0,2021-10-22,2021-10-22,株式会社キム＆ニーズ,,株式会社,兵庫県,川西市,小花２丁目１３－１１,,28,217,6660015,,,,,,,2021-10-22,1,,,,,キムアンドニーズ,0
2527,9140001123587,新規,0,2021-10-22,2021-10-22,株式会社ハント管理,,株式会社,兵庫県,川西市,小花１丁目７番１３号,,28,217,6660015,,,,,,,2021-10-22,1,,,,,ハントカンリ,0
2528,9140001123595,新規,0,2021-10-22,2021-10-22,株式会社キッチンフィールサプライ,,株式会社,兵庫県,姫路市,佃町３６Ｏ－ＢＬＤＩＩＩ２Ｆ,00124641,28,201,6728049,,,,,,,2021-10-22,1,,,,,キッチンフィールサプライ,0
2537,9180001148399,新規,0,2021-10-22,2021-10-22,株式会社日本空調,,株式会社,愛知県,名古屋市守山区,廿軒家１５番２２号,,23,113,4630065,,,,,,,2021-10-22,1,,,,,ニホンクウチョウ,0
2538,9180001148424,新規,0,2021-10-22,2021-10-22,宮野電気工事株式会社,,株式会社,愛知県,名古屋市緑区,鳴海町字神ノ倉１４５番地の１３,,23,114,4580811,,,,,,,2021-10-22,1,,,,,ミヤノデンキコウジ,0
2545,9180301035545,新規,0,2021-10-22,2021-10-22,株式会社スペース,,株式会社,愛知県,蒲郡市,豊岡町下長根１０番地１,,23,214,4430011,,,,,,,2021-10-22,1,,,,,スペース,0
2547,9180303005141,新規,0,2021-10-22,2021-10-22,合同会社ＭＯＲＩ,,合同会社,愛知県,豊橋市,御園町７番地３０,,23,201,4400069,,,,,,,2021-10-22,1,,,,,モリ,0
2550,9200003005356,新規,0,2021-10-22,2021-10-22,合同会社ウィズ企画,,合同会社,岐阜県,岐阜市,加野４丁目３番８号,,21,201,5013107,,,,,,,2021-10-22,1,,,,,ウィズキカク,0
2551,9200005013266,新規,0,2021-10-22,2021-10-22,一般社団法人結喜,,その他の設立登記法人,岐阜県,恵那市,大井町１３２２番地２,,21,210,5097201,,,,,,,2021-10-22,1,,,,,ユイキ,0
2562,9240001058807,新規,0,2021-10-22,2021-10-22,株式会社ダイカム,,株式会社,広島県,廿日市市,宮内４６７９番地１,,34,213,7380034,,,,,,,2021-10-22,1,,,,,ダイカム,0
2564,9250001019205,新規,0,2021-10-22,2021-10-22,株式会社都築設備,,株式会社,山口県,下関市,綾羅木南町３丁目３番２号,,35,201,7510848,,,,,,,2021-10-22,1,,,,,ツヅキセツビ,0
2568,9260001036109,新規,0,2021-10-22,2021-10-22,株式会社トンカチ,,株式会社,岡山県,苫田郡鏡野町,小座１４１４番地１,,33,606,7080363,,,,,,,2021-10-22,1,,,,,トンカチ,0
2571,9260003003701,新規,0,2021-10-22,2021-10-22,合同会社ゆこし,,合同会社,岡山県,赤磐市,桜が丘東１丁目１番７９４,,33,213,7090721,,,,,,,2021-10-22,1,,,,,ユコシ,0
2591,9330001029096,新規,0,2021-10-22,2021-10-22,株式会社企業会計パートナーズ,,株式会社,熊本県,宇城市,豊野町山崎２番地３,,43,213,8614305,,,,,,,2021-10-22,1,,,,,キギョウケイエイパートナーズ,0
2593,9340001024187,新規,0,2021-10-22,2021-10-22,株式会社ＯＣＴＯ,,株式会社,鹿児島県,霧島市,国分中央３丁目７番１１号久保ビルＩ　１Ｆ,00124640,46,218,8994332,,,,,,,2021-10-22,1,,,,,オクト,0
2616,9430001085220,新規,0,2021-10-22,2021-10-22,株式会社マルタ美装,,株式会社,北海道,札幌市白石区,菊水元町八条１丁目１２番２６号グランテラスＢ号,,01,104,0030828,,,,,,,2021-10-22,1,,,,,マルタビソウ,0
2624,9500001023750,新規,0,2021-10-22,2021-10-22,山新株式会社,,株式会社,愛媛県,八幡浜市,松柏丙６１番地,,38,204,7960010,,,,,,,2021-10-22,1,,,,,ヤマシン,0
