sequenceNumber,corporateNumber,process,correct,updateDate,changeDate,name,nameImageId,kind,prefectureName,cityName,streetNumber,addressImageId,prefectureCode,cityCode,postCode,addressOutside,addressOutsideImageId,closeDate,closeCause,successorCorporateNumber,changeCause,assignmentDate,latest,enName,enPrefectureName,enCityName,enAddressOutside,furigana,hihyoji
9,1010001202023,登記記録の閉鎖等,0,2022-01-13,2022-01-04,株式会社プログレスグループ,,株式会社,愛知県,岩倉市,大地新町３丁目７１番地,,23,228,4820025,,,2022-01-04,合併による解散等,7180001087970,令和４年１月１日愛知県岩倉市大地新町三丁目７１番地ＵＴプログレス株式会社（7180001087970）に合併し解散,2019-06-27,1,,,,,ユーティープログレス,0
20,1010102008352,登記記録の閉鎖等,0,2022-01-13,2022-01-11,有限会社ヘンリー,,有限会社,東京都,八王子市,本郷町６番１４号,,13,201,1920052,,,2022-01-11,清算の結了等,,,2015-10-05,1,,,,,,0
43,1010801025516,登記記録の閉鎖等,0,2022-01-13,2022-01-06,株式会社ガス店,,株式会社,東京都,大田区,大森北１丁目３６番４号,,13,111,1430016,,,2022-01-06,清算の結了等,,,2015-10-05,1,,,,,ガステン,0
51,1010901023790,登記記録の閉鎖等,0,2022-01-13,2022-01-04,株式会社エフェメラル・ミュージック・パブリッシング,,株式会社,東京都,港区,六本木１丁目５番１７号,,13,103,1060032,,,2022-01-04,合併による解散等,5010401065289,令和４年１月１日東京都港区六本木一丁目５番１７号株式会社エグジット音楽出版（5010401065289）に合併し解散,2015-10-05,1,,,,,エフェメラルミュージックパブリッシング,0
68,1011401012846,登記記録の閉鎖等,0,2022-01-13,2022-01-11,栗原商事株式会社,,株式会社,東京都,板橋区,大谷口上町８０番２号,,13,119,1730032,,,2022-01-11,清算の結了等,,,2015-10-05,1,,,,,クリハラショウジ,0
70,1011402008166,登記記録の閉鎖等,0,2022-01-13,2022-01-11,有限会社孫銀商店,,有限会社,東京都,板橋区,蓮沼町１９番４号,00055355,13,119,1740052,,,2022-01-11,清算の結了等,,,2015-10-05,1,,,,,マゴギンショウテン,0
72,1011501004710,登記記録の閉鎖等,0,2022-01-13,2021-12-28,株式会社元村自動車,,株式会社,東京都,北区,上中里２丁目４３番３号,,13,117,1140016,,,2021-12-28,清算の結了等,,,2015-10-05,1,,,,,モトムラジドウシャ,0
81,1012401016151,登記記録の閉鎖等,0,2022-01-13,2022-01-13,株式会社エクセシオン・マネジメント,,株式会社,東京都,府中市,晴見町１丁目２８番,,13,206,1830057,,,2022-01-13,登記官による閉鎖,,,2015-10-05,1,,,,,,0
82,1012402017314,登記記録の閉鎖等,0,2022-01-13,2022-01-13,有限会社東京経済研究所,,有限会社,東京都,武蔵野市,吉祥寺本町２丁目３番１号,,13,203,1800004,,,2022-01-13,登記官による閉鎖,,,2015-10-05,1,,,,,,0
89,1013301020350,登記記録の閉鎖等,0,2022-01-13,2022-01-11,ＭＹＹコミュニケーションズ株式会社,,株式会社,埼玉県,川口市,西川口５丁目１３番１４号,,11,203,3320021,,,2022-01-11,清算の結了等,,,2015-10-05,1,,,,,エムワイワイコミュニケーションズ,0
91,1013401000905,登記記録の閉鎖等,0,2022-01-13,2022-01-13,株式会社井上設備,,株式会社,東京都,多摩市,関戸２丁目３番地１,,13,224,2060011,,,2022-01-13,登記官による閉鎖,,,2015-10-05,1,,,,,,0
132,1080402010605,登記記録の閉鎖等,0,2022-01-13,2022-01-07,有限会社稲穂介護サービス,,有限会社,静岡県,浜松市東区,植松町１３３０番地の３,,22,132,4300803,,,2022-01-07,清算の結了等,,,2015-10-05,1,,,,,イナホカイゴサービス,0
133,1090001000048,登記記録の閉鎖等,0,2022-01-13,2022-01-13,暁商事株式会社,,株式会社,山梨県,甲府市,青沼２丁目１５番９号,,19,201,4000867,,,2022-01-13,登記官による閉鎖,,,2015-10-05,1,,,,,,0
134,1090001002770,登記記録の閉鎖等,0,2022-01-13,2022-01-13,株式会社レンタサービス,,株式会社,山梨県,甲斐市,名取２００番地,,19,210,4000112,,,2022-01-13,登記官による閉鎖,,,2015-10-05,1,,,,,,0
135,1090001004429,登記記録の閉鎖等,0,2022-01-13,2022-01-13,金融無尽株式会社,,株式会社,山梨県,甲府市,柳町１０９番地,,19,201,4000000,,,2022-01-13,登記官による閉鎖,,,2016-02-05,1,,,,,,1
137,1090002000542,登記記録の閉鎖等,0,2022-01-13,2022-01-13,有限会社大智不動産,,有限会社,山梨県,甲府市,貢川本町７番２１号,,19,201,4000048,,,2022-01-13,登記官による閉鎖,,,2015-10-05,1,,,,,,0
138,1090002006507,登記記録の閉鎖等,0,2022-01-13,2022-01-13,有限会社テイク・ワン,,有限会社,山梨県,中巨摩郡昭和町,西条２９３４番地１,,19,384,4093866,,,2022-01-13,登記官による閉鎖,,,2015-10-05,1,,,,,,0
139,1090002009393,登記記録の閉鎖等,0,2022-01-13,2022-01-13,志村電設有限会社,,有限会社,山梨県,大月市,猿橋町猿橋６４８番地,,19,206,4090614,,,2022-01-13,登記官による閉鎖,,,2015-10-05,1,,,,,,0
140,1090002011226,登記記録の閉鎖等,0,2022-01-13,2022-01-13,有限会社白川工務店,,有限会社,山梨県,甲州市,塩山下塩後７５２番地,,19,213,4040044,,,2022-01-13,登記官による閉鎖,,,2015-10-05,1,,,,,,0
141,1090002013841,登記記録の閉鎖等,0,2022-01-13,2022-01-13,有限会社平林工業,,有限会社,山梨県,韮崎市,円野町上円井１７３５番地１,,19,207,4070051,,,2022-01-13,登記官による閉鎖,,,2015-10-05,1,,,,,,0
142,1090002014220,登記記録の閉鎖等,0,2022-01-13,2022-01-13,有限会社中田工業所,,有限会社,山梨県,北杜市,高根町清里３５４５番地,,19,209,4070301,,,2022-01-13,登記官による閉鎖,,,2015-10-05,1,,,,,,0
143,1090002015359,登記記録の閉鎖等,0,2022-01-13,2022-01-13,電研開発有限会社,,有限会社,山梨県,南巨摩郡身延町,身延３７３５番地,,19,365,4092524,,,2022-01-13,登記官による閉鎖,,,2015-10-05,1,,,,,,0
144,1090005000580,登記記録の閉鎖等,0,2022-01-13,2022-01-13,甲府購繭協同組合,,その他の設立登記法人,山梨県,甲府市,城東５丁目３番１１号,,19,201,4000861,,,2022-01-13,登記官による閉鎖,,,2015-10-05,1,,,,,,0
145,1090005001926,登記記録の閉鎖等,0,2022-01-13,2022-01-13,櫛形ニツト工業協同組合,00069014,その他の設立登記法人,山梨県,南アルプス市,小笠原１６１７番地,,19,208,4000306,,,2022-01-13,登記官による閉鎖,,,2015-10-05,1,,,,,,0
146,1090005002602,登記記録の閉鎖等,0,2022-01-13,2022-01-13,東八代木材林産協同組合,,その他の設立登記法人,山梨県,笛吹市,石和町今井２番地,,19,211,4060042,,,2022-01-13,登記官による閉鎖,,,2015-10-05,1,,,,,,0
147,1090005004160,登記記録の閉鎖等,0,2022-01-13,2022-01-13,鴻ケ池合繊染色協同組合,,その他の設立登記法人,山梨県,富士吉田市,下吉田４７９１番地,,19,202,4030004,,,2022-01-13,登記官による閉鎖,,,2015-10-05,1,,,,,,0
148,1090005004417,登記記録の閉鎖等,0,2022-01-13,2022-01-13,山梨県地域技術活性化事業協同組合,,その他の設立登記法人,山梨県,南都留郡西桂町,小沼１８１１番地,,19,423,4030022,,,2022-01-13,登記官による閉鎖,,,2015-10-05,1,,,,,,0
151,1100002000796,登記記録の閉鎖等,0,2022-01-13,2022-01-11,有限会社エフ総業,,有限会社,長野県,長野市,大字長野字新町２８３番地,,20,201,3800853,,,2022-01-11,清算の結了等,,,2015-10-05,1,,,,,エフソウギョウ,0
152,1110002000093,登記記録の閉鎖等,0,2022-01-13,2022-01-07,有限会社三協工務所,,有限会社,新潟県,新潟市西区,平島１丁目１２番地３,,15,107,9502004,,,2022-01-07,清算の結了等,,,2015-10-05,1,,,,,サンキョウコウムショ,0
163,1120001216540,登記記録の閉鎖等,0,2022-01-13,2022-01-05,株式会社ＮＡＧＡＨＡＲＵ,,株式会社,大阪府,大阪市鶴見区,横堤３丁目８番１５号,,27,124,5380052,,,2022-01-05,清算の結了等,,,2018-10-16,1,,,,,,0
169,1120002004754,登記記録の閉鎖等,0,2022-01-13,2022-01-07,有限会社伸容エンジニアリング,,有限会社,大阪府,大阪市都島区,都島中通１丁目３番１３号,,27,102,5340022,,,2022-01-07,清算の結了等,,,2015-10-05,1,,,,,シンヨウエンジニアリング,0
208,1180301029380,登記記録の閉鎖等,0,2022-01-13,2022-01-11,加納電気株式会社,,株式会社,愛知県,豊橋市,老津町字的場１７番地３,,23,201,4413301,,,2022-01-11,清算の結了等,,,2016-07-14,1,,,,,カノウデンキ,0
219,1220001014397,登記記録の閉鎖等,0,2022-01-13,2022-01-12,Ａトリプル株式会社,,株式会社,石川県,金沢市,有松４丁目１番１号,,17,201,9218161,,,2022-01-12,登記官による閉鎖,,,2015-10-05,1,,,,,,0
220,1220001015593,登記記録の閉鎖等,0,2022-01-13,2022-01-12,日松建設株式会社,,株式会社,石川県,七尾市,中島町浜田ロ部１１番地１６,,17,202,9292241,,,2022-01-12,登記官による閉鎖,,,2015-10-05,1,,,,,,0
221,1220001017557,登記記録の閉鎖等,0,2022-01-13,2022-01-12,株式会社サンエバン,,株式会社,石川県,かほく市,白尾ナ１４８番地,,17,209,9291177,,,2022-01-12,登記官による閉鎖,,,2015-10-05,1,,,,,,0
223,1220002005016,登記記録の閉鎖等,0,2022-01-13,2022-01-07,有限会社フセ商事,,有限会社,石川県,金沢市,二ツ屋町２番１０号,,17,201,9200065,,,2022-01-07,清算の結了等,,,2015-10-05,1,,,,,フセショウジ,0
224,1220002005825,登記記録の閉鎖等,0,2022-01-13,2022-01-12,有限会社村上測量,,有限会社,石川県,金沢市,糸田１丁目５８番地１,,17,201,9218014,,,2022-01-12,登記官による閉鎖,,,2015-10-05,1,,,,,,0
225,1220002006121,登記記録の閉鎖等,0,2022-01-13,2022-01-12,有限会社山侑工業,,有限会社,石川県,金沢市,八日市出町１５０番地２,,17,201,9218063,,,2022-01-12,登記官による閉鎖,,,2015-10-05,1,,,,,,0
227,1220002012672,登記記録の閉鎖等,0,2022-01-13,2022-01-12,有限会社中谷組,,有限会社,石川県,加賀市,上河崎町２６２番地４,,17,206,9220013,,,2022-01-12,登記官による閉鎖,,,2015-10-05,1,,,,,,0
228,1230001006947,登記記録の閉鎖等,0,2022-01-13,2022-01-13,株式会社エンジョイ,,株式会社,富山県,富山市,五福８区３５１２番地１,,16,201,9300887,,,2022-01-13,登記官による閉鎖,,,2015-10-05,1,,,,,,0
230,1230001009082,登記記録の閉鎖等,0,2022-01-13,2022-01-05,株式会社柴田工業所,,株式会社,富山県,小矢部市,松尾５３０３番地,,16,209,9320845,,,2022-01-05,清算の結了等,,,2015-10-05,1,,,,,,0
231,1230002007580,登記記録の閉鎖等,0,2022-01-13,2022-01-13,有限会社黒崎建設,00079102,有限会社,富山県,魚津市,金山谷３１８番地の甲,,16,204,9370832,,,2022-01-13,登記官による閉鎖,,,2015-10-05,1,,,,,,0
232,1230002011797,登記記録の閉鎖等,0,2022-01-13,2022-01-13,有限会社ハナヤビル,,有限会社,富山県,高岡市,下関町２番２３号,,16,202,9330021,,,2022-01-13,登記官による閉鎖,,,2015-10-05,1,,,,,,0
233,1230002014362,登記記録の閉鎖等,0,2022-01-13,2022-01-13,有限会社石井建築工房,,有限会社,富山県,射水市,浄土寺１０４番地の１４,,16,211,9390321,,,2022-01-13,登記官による閉鎖,,,2015-10-05,1,,,,,,0
234,1230005006654,登記記録の閉鎖等,0,2022-01-13,2022-01-13,協同組合富山県事業支援センター,,その他の設立登記法人,富山県,高岡市,野村１５２９番３号,,16,202,9330014,,,2022-01-13,登記官による閉鎖,,,2015-10-05,1,,,,,,0
244,1250005008459,登記記録の閉鎖等,0,2022-01-13,2021-12-27,通津沖建設資材協同組合,,その他の設立登記法人,山口県,岩国市,通津２３６９番地の１,,35,208,7400044,,,2021-12-27,清算の結了等,,,2018-11-22,1,,,,,ツヅオキケンセツシザイ,0
246,1260002014574,登記記録の閉鎖等,0,2022-01-13,2022-01-12,難波産業有限会社,,有限会社,岡山県,加賀郡吉備中央町,宮地２０９１番地,,33,681,7161553,,,2022-01-12,清算の結了等,,,2015-10-05,1,,,,,ナンバサンギョウ,0
250,1280002001133,登記記録の閉鎖等,0,2022-01-13,2022-01-12,有限会社十路屋商店,,有限会社,島根県,松江市,大庭町４２番地３,,32,201,6900033,,,2022-01-12,清算の結了等,,,2015-10-05,1,,,,,,0
258,1290002011841,登記記録の閉鎖等,0,2022-01-13,2022-01-06,有限会社天榮食品,,有限会社,福岡県,福岡市中央区,今泉１丁目４番５－７０７号,,40,133,8100021,,,2022-01-06,清算の結了等,,,2015-10-05,1,,,,,テンエイショクヒン,0
292,1390001008309,登記記録の閉鎖等,0,2022-01-13,2022-01-06,株式会社まちづくり鶴岡,,株式会社,山形県,鶴岡市,山王町１３番３６号,,06,203,9970028,,,2022-01-06,清算の結了等,,,2015-10-05,1,,,,,,0
297,1400002003182,登記記録の閉鎖等,0,2022-01-13,2022-01-11,三沢産業有限会社,,有限会社,岩手県,盛岡市,黒石野１丁目２８番１号,,03,201,0200111,,,2022-01-11,清算の結了等,,,2015-10-05,1,,,,,ミサワサンギョウ,0
325,1470002000594,登記記録の閉鎖等,0,2022-01-13,2022-01-12,有限会社明田工務店,,有限会社,香川県,高松市,扇町１丁目２９番３５号,,37,201,7600013,,,2022-01-12,登記官による閉鎖,,,2015-10-05,1,,,,,,0
326,1470002006121,登記記録の閉鎖等,0,2022-01-13,2022-01-12,有限会社宝厚建設,,有限会社,香川県,高松市,紙町５６２番地２,,37,201,7618055,,,2022-01-12,登記官による閉鎖,,,2015-10-05,1,,,,,,0
327,1470002012144,登記記録の閉鎖等,0,2022-01-13,2022-01-12,有限会社古市商店,,有限会社,香川県,丸亀市,垂水町１４０７番地,,37,202,7630095,,,2022-01-12,登記官による閉鎖,,,2015-10-05,1,,,,,,0
328,1470002013150,登記記録の閉鎖等,0,2022-01-13,2022-01-12,有限会社優雅建設,,有限会社,香川県,善通寺市,原田町４８番地４,,37,204,7650032,,,2022-01-12,登記官による閉鎖,,,2015-10-05,1,,,,,,0
329,1470002013571,登記記録の閉鎖等,0,2022-01-13,2022-01-12,有限会社森建設,,有限会社,香川県,仲多度郡まんのう町,中通２０７番地第１,,37,406,7660202,,,2022-01-12,登記官による閉鎖,,,2015-10-05,1,,,,,,0
333,1490001003530,登記記録の閉鎖等,0,2022-01-13,2022-01-13,株式会社アトワンス・ムーヴィング・プロジェクト,,株式会社,高知県,高知市,三園町５９番地,,39,201,7800034,,,2022-01-13,登記官による閉鎖,,,2015-10-05,1,,,,,,0
334,1490001004248,登記記録の閉鎖等,0,2022-01-13,2022-01-13,トータルマネジメント株式会社,,株式会社,高知県,高知市,春野町内ノ谷１４２７番地１,,39,201,7810313,,,2022-01-13,登記官による閉鎖,,,2015-10-05,1,,,,,,0
335,1490001005799,登記記録の閉鎖等,0,2022-01-13,2022-01-13,中央印刷株式会社,,株式会社,高知県,須崎市,大間本町８番２０号,,39,206,7850034,,,2022-01-13,登記官による閉鎖,,,2015-10-05,1,,,,,,0
336,1490002004602,登記記録の閉鎖等,0,2022-01-13,2022-01-13,有限会社フルヤ,,有限会社,高知県,高知市,神田２０５０番地１８,,39,201,7808040,,,2022-01-13,登記官による閉鎖,,,2015-10-05,1,,,,,,0
337,1490002009163,登記記録の閉鎖等,0,2022-01-13,2022-01-13,有限会社仁井田フーヅ,,有限会社,高知県,宿毛市,中央７丁目４番４号,,39,208,7880001,,,2022-01-13,登記官による閉鎖,,,2015-10-05,1,,,,,,0
338,1490002011342,登記記録の閉鎖等,0,2022-01-13,2022-01-13,有限会社西川百貨店,,有限会社,高知県,香美市,土佐山田町百石町１丁目１番２４号,,39,212,7820035,,,2022-01-13,登記官による閉鎖,,,2015-10-05,1,,,,,,0
339,1490002012646,登記記録の閉鎖等,0,2022-01-13,2022-01-13,有限会社ティー・ケー・ケー,,有限会社,高知県,南国市,岡豊町常通寺島４３８番地１,,39,204,7830047,,,2022-01-13,登記官による閉鎖,,,2015-10-05,1,,,,,,0
346,2010001011984,登記記録の閉鎖等,0,2022-01-13,2022-01-04,株式会社エス・ヴイ・ピージャパン,,株式会社,東京都,中央区,日本橋蛎殻町１丁目３８番９号,,13,102,1030014,,,2022-01-04,合併による解散等,7010001214665,令和４年１月１日東京都中央区日本橋蛎殻町一丁目３８番９号宮前ビル２Ｆ株式会社ＳＶＰジャパン（7010001214665）に合併し解散,2015-10-05,1,,,,,エスヴイピージャパン,0
349,2010001136996,登記記録の閉鎖等,0,2022-01-13,2022-01-07,ヒロタック株式会社,,株式会社,東京都,千代田区,神田練塀町３番地ベルファース秋葉原１５０８号,,13,101,1010022,,,2022-01-07,清算の結了等,,,2015-10-05,1,,,,,ヒロタック,0
350,2010001139925,登記記録の閉鎖等,0,2022-01-13,2022-01-04,日本フィナンシャルセキュリティーズ株式会社,,株式会社,東京都,中央区,日本橋蛎殻町１丁目３８番１１号,,13,102,1030014,,,2022-01-04,合併による解散等,6120001077375,令和４年１月１日東京都中央区日本橋蛎殻町一丁目３８番１１号岡藤商事株式会社（6120001077375）に合併し解散,2015-10-05,1,,,,,ニホンフィナンシャルセキュリティーズ,0
356,2010001203573,登記記録の閉鎖等,0,2022-01-13,2022-01-05,株式会社インターナショナル・ヘルスケア,,株式会社,東京都,中央区,日本橋蛎殻町１丁目２７番５号,,13,102,1030014,,,2022-01-05,清算の結了等,,,2019-08-29,1,,,,,インターナショナルヘルスケア,0
373,2010501010107,登記記録の閉鎖等,0,2022-01-13,2022-01-12,株式会社上野屋靴店,,株式会社,東京都,台東区,上野３丁目２２番３号,,13,106,1100005,,,2022-01-12,清算の結了等,,,2015-10-05,1,,,,,ウエノヤクツテン,0
385,2010801025969,登記記録の閉鎖等,0,2022-01-13,2022-01-06,株式会社ティーケイエイチ,,株式会社,東京都,大田区,東雪谷５丁目２３番１０号,,13,111,1450065,,,2022-01-06,合併による解散等,4180001091439,令和３年１２月３１日名古屋市西区十方町１００番地株式会社竹野入工業（4180001091439）に合併し解散,2015-10-05,1,,,,,ティーケイエイチ,0
388,2010901006233,登記記録の閉鎖等,0,2022-01-13,2022-01-04,株式会社スリーエヌニットー,,株式会社,東京都,世田谷区,用賀３丁目１１番１２号,,13,112,1580097,,,2022-01-04,合併による解散等,4010901036113,令和３年１２月３１日東京都世田谷区用賀三丁目１１番１２号株式会社クリケット（4010901036113）に合併し解散,2015-10-05,1,,,,,スリーエヌニットー,0
412,2011701009178,登記記録の閉鎖等,0,2022-01-13,2021-12-28,建昇株式会社,,株式会社,東京都,江東区,南砂２丁目３６番１０号,,13,108,1360076,,,2021-12-28,清算の結了等,,,2015-10-05,1,,,,,ケンショウ,0
418,2012401011036,登記記録の閉鎖等,0,2022-01-13,2022-01-13,株式会社共栄電設,,株式会社,東京都,武蔵野市,境南町２丁目２６番７号,,13,203,1800023,,,2022-01-13,登記官による閉鎖,,,2015-10-05,1,,,,,,0
419,2012401011465,登記記録の閉鎖等,0,2022-01-13,2022-01-13,株式会社ティケイライフ,,株式会社,東京都,武蔵野市,吉祥寺本町１丁目２８番６－１０４号,,13,203,1800004,,,2022-01-13,登記官による閉鎖,,,2015-10-05,1,,,,,,0
420,2012401031851,登記記録の閉鎖等,0,2022-01-13,2022-01-13,株式会社ドラゴン,,株式会社,東京都,小金井市,梶野町５丁目８番２９号,,13,210,1840002,,,2022-01-13,登記官による閉鎖,,,2016-09-29,1,,,,,,0
423,2012402000475,登記記録の閉鎖等,0,2022-01-13,2022-01-13,有限会社オービーエス工業社,,有限会社,東京都,府中市,南町３丁目３番地の２０,,13,206,1830026,,,2022-01-13,登記官による閉鎖,,,2015-10-05,1,,,,,,0
424,2012402000789,登記記録の閉鎖等,0,2022-01-13,2022-01-13,有限会社菊池自動車,,有限会社,東京都,府中市,宮町１丁目３５番地６,,13,206,1830023,,,2022-01-13,登記官による閉鎖,,,2015-10-05,1,,,,,,0
425,2012402001333,登記記録の閉鎖等,0,2022-01-13,2022-01-13,有限会社志村シート,,有限会社,東京都,府中市,緑町３丁目６番地の１,,13,206,1830006,,,2022-01-13,登記官による閉鎖,,,2015-10-05,1,,,,,,0
428,2012402012149,登記記録の閉鎖等,0,2022-01-13,2022-01-13,有限会社橋本商店,,有限会社,東京都,調布市,国領町１丁目２３番地４,,13,208,1820022,,,2022-01-13,登記官による閉鎖,,,2015-10-05,1,,,,,,0
429,2012402018708,登記記録の閉鎖等,0,2022-01-13,2022-01-13,有限会社ケイシイサービス,,有限会社,東京都,三鷹市,井の頭４丁目２６番１３号,,13,204,1810001,,,2022-01-13,登記官による閉鎖,,,2015-10-05,1,,,,,,0
430,2012402020218,登記記録の閉鎖等,0,2022-01-13,2022-01-13,有限会社リフレイン,,有限会社,東京都,三鷹市,野崎３丁目１８番４号,,13,204,1810014,,,2022-01-13,登記官による閉鎖,,,2015-10-05,1,,,,,,0
431,2012402020647,登記記録の閉鎖等,0,2022-01-13,2022-01-13,有限会社アドテクノ,,有限会社,東京都,三鷹市,大沢４丁目１４番９号,,13,204,1810015,,,2022-01-13,登記官による閉鎖,,,2015-10-05,1,,,,,,0
432,2012402023204,登記記録の閉鎖等,0,2022-01-13,2022-01-13,有限会社独歩,,有限会社,東京都,小金井市,梶野町４丁目２番３２－１０２号ＭＡＣ東小金井コート,,13,210,1840002,,,2022-01-13,登記官による閉鎖,,,2015-10-05,1,,,,,,0
434,2012801003780,登記記録の閉鎖等,0,2022-01-13,2022-01-05,株式会社新川テクノロジーズ,,株式会社,東京都,武蔵村山市,伊奈平２丁目５１番地の１,,13,223,2080023,,,2022-01-05,合併による解散等,8012801019540,令和４年１月１日東京都武蔵村山市伊奈平二丁目５１番地の１株式会社新川（8012801019540）に合併し解散,2015-10-05,1,,,,,シンカワテクノロジーズ,0
438,2013401005886,登記記録の閉鎖等,0,2022-01-13,2022-01-13,ヴィレッジフィールド株式会社,,株式会社,東京都,多摩市,落合３丁目８番６号,,13,224,2060033,,,2022-01-13,登記官による閉鎖,,,2015-10-05,1,,,,,,0
439,2013402003435,登記記録の閉鎖等,0,2022-01-13,2022-01-13,有限会社黒沢電気工事,,有限会社,東京都,稲城市,矢野口２８０７番地の２,,13,225,2060812,,,2022-01-13,登記官による閉鎖,,,2015-10-05,1,,,,,,0
453,2021001050724,登記記録の閉鎖等,0,2022-01-13,2022-01-04,ＧＴ企画株式会社,,株式会社,神奈川県,横須賀市,野比１丁目１３番６号,,14,201,2390841,,,2022-01-04,合併による解散等,4021001040855,令和４年１月１日神奈川県横須賀市野比一丁目１３番６号株式会社にしづか（4021001040855）に合併し解散,2015-10-05,1,,,,,ジーティーキカク,0
463,2030001047275,登記記録の閉鎖等,0,2022-01-13,2022-01-11,日本商工株式会社,,株式会社,埼玉県,川口市,西川口２丁目１６番１７号,,11,203,3320021,,,2022-01-11,清算の結了等,,,2015-10-05,1,,,,,,0
487,2090001005640,登記記録の閉鎖等,0,2022-01-13,2022-01-13,株式会社タケダ通商,,株式会社,山梨県,甲府市,徳行４丁目６番２７号,,19,201,4000047,,,2022-01-13,登記官による閉鎖,,,2015-10-05,1,,,,,,0
488,2090001008164,登記記録の閉鎖等,0,2022-01-13,2022-01-13,富士総業株式会社,,株式会社,山梨県,上野原市,上野原２５８９番地,,19,212,4090112,,,2022-01-13,登記官による閉鎖,,,2015-10-05,1,,,,,,0
489,2090001014914,登記記録の閉鎖等,0,2022-01-13,2022-01-13,貴泉宝飾株式会社,,株式会社,山梨県,甲府市,住吉１丁目１６番４号,,19,201,4000851,,,2022-01-13,登記官による閉鎖,,,2017-01-12,1,,,,,,0
490,2090002003288,登記記録の閉鎖等,0,2022-01-13,2022-01-13,有限会社ひまわり,,有限会社,山梨県,甲府市,山宮町２６０９番地ハイツ山園１０３,,19,201,4000075,,,2022-01-13,登記官による閉鎖,,,2015-10-05,1,,,,,,0
491,2090002003370,登記記録の閉鎖等,0,2022-01-13,2022-01-13,有限会社横山商店,,有限会社,山梨県,甲府市,湯田１丁目１４番３号,,19,201,4000864,,,2022-01-13,登記官による閉鎖,,,2015-10-05,1,,,,,,0
492,2090002003503,登記記録の閉鎖等,0,2022-01-13,2022-01-13,有限会社若葉土地,,有限会社,山梨県,甲府市,池田１丁目５番９号,,19,201,4000062,,,2022-01-13,登記官による閉鎖,,,2015-10-05,1,,,,,,0
493,2090002006308,登記記録の閉鎖等,0,2022-01-13,2022-01-13,有限会社エル・エフ・ハウジング,,有限会社,山梨県,甲府市,住吉４丁目１４番１７号,,19,201,4000851,,,2022-01-13,登記官による閉鎖,,,2015-10-05,1,,,,,,0
494,2090002007099,登記記録の閉鎖等,0,2022-01-13,2022-01-13,有限会社アサ原精工,,有限会社,山梨県,南アルプス市,浅原４４４番地,,19,208,4000333,,,2022-01-13,登記官による閉鎖,,,2015-10-05,1,,,,,,0
495,2090002012215,登記記録の閉鎖等,0,2022-01-13,2022-01-13,有限会社立川実業,,有限会社,山梨県,富士吉田市,竜ケ丘１丁目１２番４号,,19,202,4030014,,,2022-01-13,登記官による閉鎖,,,2015-10-05,1,,,,,,0
496,2090002013262,登記記録の閉鎖等,0,2022-01-13,2022-01-13,有限会社エリムビバレッジ,,有限会社,山梨県,南都留郡山中湖村,平野若宮３４８０番地,,19,425,4010502,,,2022-01-13,登記官による閉鎖,,,2015-10-05,1,,,,,,0
497,2090005001157,登記記録の閉鎖等,0,2022-01-13,2022-01-13,甲府ジュエリー貿易協同組合,,その他の設立登記法人,山梨県,中巨摩郡昭和町,西条３７１７番地,,19,384,4093866,,,2022-01-13,登記官による閉鎖,,,2015-10-05,1,,,,,,0
498,2090005005686,登記記録の閉鎖等,0,2022-01-13,2022-01-13,特定非営利活動法人なんぶ農援隊,,その他の設立登記法人,山梨県,南巨摩郡南部町,本郷８３２１番地,,19,366,4092217,,,2022-01-13,登記官による閉鎖,,,2015-10-05,1,,,,,,0
564,2180002071887,登記記録の閉鎖等,0,2022-01-13,2022-01-11,有限会社スニップ,,有限会社,愛知県,瀬戸市,窯町５１２番地の６,,23,204,4801219,,,2022-01-11,清算の結了等,,,2015-10-05,1,,,,,スニップ,0
578,2200002021666,登記記録の閉鎖等,0,2022-01-13,2022-01-12,丸保渡邉製陶有限会社,,有限会社,岐阜県,土岐市,泉町定林寺６１６番地の４,,21,212,5095102,,,2022-01-12,清算の結了等,,,2015-10-05,1,,,,,,0
583,2230001003456,登記記録の閉鎖等,0,2022-01-13,2022-01-13,株式会社ユー・ティ・エム,,株式会社,富山県,富山市,古沢６３１番地,,16,201,9300151,,,2022-01-13,登記官による閉鎖,,,2015-10-05,1,,,,,,0
584,2230001004735,登記記録の閉鎖等,0,2022-01-13,2022-01-13,株式会社オクダ,,株式会社,富山県,中新川郡上市町,若杉１０９番地,,16,322,9300314,,,2022-01-13,登記官による閉鎖,,,2015-10-05,1,,,,,,0
585,2230001010782,登記記録の閉鎖等,0,2022-01-13,2022-01-13,風間空調電設株式会社,,株式会社,富山県,高岡市,伏木古府２丁目６番６号,,16,202,9330114,,,2022-01-13,登記官による閉鎖,,,2015-10-05,1,,,,,,0
594,2240002005244,登記記録の閉鎖等,0,2022-01-13,2022-01-06,有限会社藏田本店,,有限会社,広島県,広島市中区,橋本町７番２５号,,34,101,7300015,,,2022-01-06,合併による解散等,8240001015866,令和４年１月１日広島市中区橋本町７番２７号株式会社クラタシステムサポート（8240001015866）に合併し解散,2015-10-05,1,,,,,クラタホンテン,0
603,2260003000746,登記記録の閉鎖等,0,2022-01-13,2022-01-12,合資会社ウィンシャロー,,合資会社,岡山県,倉敷市,笹沖６０番地８,,33,202,7100834,,,2022-01-12,清算の結了等,,,2015-10-05,1,,,,,,0
625,2310002019534,登記記録の閉鎖等,0,2022-01-13,2022-01-11,有限会社ナンバーワン,,有限会社,長崎県,平戸市,前津吉町１２８５番地,,42,207,8595523,,,2022-01-11,清算の結了等,,,2015-10-05,1,,,,,ナンバーワン,0
627,2320002001053,登記記録の閉鎖等,0,2022-01-13,2022-01-12,有限会社岩建工務店,,有限会社,大分県,大分市,高松２丁目４番３３号,,44,201,8700917,,,2022-01-12,清算の結了等,,,2015-10-05,1,,,,,イワケンコウムテン,0
658,2430001032724,登記記録の閉鎖等,0,2022-01-13,2022-01-05,株式会社悠,,株式会社,北海道,札幌市豊平区,平岸一条８丁目８番２０号,,01,105,0620931,,,2022-01-05,合併による解散等,1430001045413,令和４年１月１日札幌市南区南沢五条四丁目１７番１０号株式会社ネイチャー（1430001045413）に合併し解散,2015-10-05,1,,,,,ユウ,0
659,2430001059057,登記記録の閉鎖等,0,2022-01-13,2022-01-11,株式会社華笑,,株式会社,北海道,登別市,登別東町２丁目１５番地２１,,01,230,0590464,,,2022-01-11,清算の結了等,,,2015-10-05,1,,,,,ハナエミ,0
669,2470001007012,登記記録の閉鎖等,0,2022-01-13,2022-01-12,株式会社ＡＱＵＡ,,株式会社,香川県,木田郡三木町,大字田中７６０番地,,37,341,7610611,,,2022-01-12,登記官による閉鎖,,,2015-10-05,1,,,,,,0
670,2470001011105,登記記録の閉鎖等,0,2022-01-13,2022-01-12,大新建材株式会社,,株式会社,香川県,さぬき市,鴨庄３３４９番地,,37,206,7692102,,,2022-01-12,登記官による閉鎖,,,2015-10-05,1,,,,,,0
672,2470002003423,登記記録の閉鎖等,0,2022-01-13,2022-01-12,有限会社新栄工房,,有限会社,香川県,高松市,松島町２丁目６番１２号,,37,201,7600068,,,2022-01-12,登記官による閉鎖,,,2015-10-05,1,,,,,,0
673,2470002005213,登記記録の閉鎖等,0,2022-01-13,2022-01-12,アーバンセキュリティ有限会社,,有限会社,香川県,高松市,太田上町２５３番地１２,,37,201,7618074,,,2022-01-12,登記官による閉鎖,,,2015-10-05,1,,,,,,0
674,2470002013661,登記記録の閉鎖等,0,2022-01-13,2022-01-12,有限会社西日本環境保全センター,,有限会社,香川県,仲多度郡琴平町,上櫛梨１４２３番地５,00005448,37,403,7660006,,,2022-01-12,登記官による閉鎖,,,2015-10-05,1,,,,,,0
675,2470002013810,登記記録の閉鎖等,0,2022-01-13,2022-01-12,有限会社ときわ総合企画,,有限会社,香川県,丸亀市,西平山町１０６番地２,,37,202,7630041,,,2022-01-12,登記官による閉鎖,,,2015-10-05,1,,,,,,0
676,2470002016532,登記記録の閉鎖等,0,2022-01-13,2022-01-12,有限会社藤川生コン,,有限会社,香川県,三豊市,高瀬町佐股乙４８７番地１,,37,208,7670021,,,2022-01-12,登記官による閉鎖,,,2015-10-05,1,,,,,,0
677,2470002018719,登記記録の閉鎖等,0,2022-01-13,2022-01-12,有限会社昌建興業,,有限会社,香川県,さぬき市,鴨部６１２３番地３,,37,206,7692104,,,2022-01-12,登記官による閉鎖,,,2015-10-05,1,,,,,,0
680,2490001006012,登記記録の閉鎖等,0,2022-01-13,2022-01-13,株式会社土佐一心,,株式会社,高知県,須崎市,原町１丁目８番５号,,39,206,7850001,,,2022-01-13,登記官による閉鎖,,,2015-10-05,1,,,,,,0
681,2490001008124,登記記録の閉鎖等,0,2022-01-13,2022-01-12,中山電設株式会社,,株式会社,高知県,土佐市,高岡町甲１８８５番地２,,39,205,7811101,,,2022-01-12,清算の結了等,,,2015-10-05,1,,,,,ナカヤマデンセツ,0
684,2490002002373,登記記録の閉鎖等,0,2022-01-13,2022-01-13,有限会社ジーアンドジー企画,,有限会社,高知県,高知市,栄田町３丁目６番３号,,39,201,7800061,,,2022-01-13,登記官による閉鎖,,,2015-10-05,1,,,,,,0
685,2490002007323,登記記録の閉鎖等,0,2022-01-13,2022-01-13,有限会社大西商店,,有限会社,高知県,高知市,知寄町２丁目２番４１－７０２号,,39,201,7800806,,,2022-01-13,登記官による閉鎖,,,2015-10-05,1,,,,,,0
686,2490002010153,登記記録の閉鎖等,0,2022-01-13,2022-01-13,有限会社大野建材,,有限会社,高知県,高岡郡佐川町,永野１６６３番地１,,39,402,7891231,,,2022-01-13,登記官による閉鎖,,,2015-10-05,1,,,,,,0
713,3010401032910,登記記録の閉鎖等,0,2022-01-13,2022-01-06,株式会社ピーエー,,株式会社,東京都,新宿区,北新宿２丁目２１番１号,,13,104,1690074,,,2022-01-06,合併による解散等,8010401091992,令和３年１２月３０日東京都港区南青山二丁目２番１５号株式会社ギガトレンド（8010401091992）に合併し解散,2015-10-05,1,,,,,ピーエー,0
716,3010401068013,登記記録の閉鎖等,0,2022-01-13,2022-01-04,アメリカン・アプレーザル・ジャパン株式会社,,株式会社,東京都,千代田区,内幸町２丁目２番２号,,13,101,1000011,,,2022-01-04,合併による解散等,3010001097610,令和３年１２月３１日東京都千代田区内幸町二丁目２番２号クロール株式会社（3010001097610）に合併し解散,2015-10-05,1,,,,,アメリカンアプレーザルジャパン,0
738,3011001108373,登記記録の閉鎖等,0,2022-01-13,2021-12-27,株式会社Ｖｅｒｖｅ　Ｇｒｏｕｐ,,株式会社,東京都,中央区,京橋３丁目１番１号東京スクエアガーデン１４階,,13,102,1040031,,,2021-12-27,清算の結了等,,,2015-11-25,1,,,,,ヴァーブグループ,0
757,3012401009203,登記記録の閉鎖等,0,2022-01-13,2022-01-13,株式会社デプロ,,株式会社,東京都,調布市,国領町２丁目３番地６,,13,208,1820022,,,2022-01-13,登記官による閉鎖,,,2015-10-05,1,,,,,,0
758,3012401009392,登記記録の閉鎖等,0,2022-01-13,2022-01-13,株式会社エースボタン,,株式会社,東京都,調布市,下石原３丁目２６番地１,,13,208,1820034,,,2022-01-13,登記官による閉鎖,,,2015-10-05,1,,,,,,0
759,3012401018369,登記記録の閉鎖等,0,2022-01-13,2022-01-13,株式会社医療支援センター,,株式会社,東京都,調布市,下石原３丁目３２番地３０,,13,208,1820034,,,2022-01-13,登記官による閉鎖,,,2015-10-05,1,,,,,,0
760,3012402004863,登記記録の閉鎖等,0,2022-01-13,2022-01-13,有限会社栗原印刷社,,有限会社,東京都,小金井市,貫井北町２丁目１０番２号,,13,210,1840015,,,2022-01-13,登記官による閉鎖,,,2015-10-05,1,,,,,,0
761,3012402008179,登記記録の閉鎖等,0,2022-01-13,2022-01-13,有限会社エーキュー企画,,有限会社,東京都,府中市,府中町１丁目８番地の１２,,13,206,1830055,,,2022-01-13,登記官による閉鎖,,,2015-10-05,1,,,,,,0
762,3012402019432,登記記録の閉鎖等,0,2022-01-13,2022-01-13,有限会社西山プリント,,有限会社,東京都,三鷹市,野崎３丁目８番２０号,,13,204,1810014,,,2022-01-13,登記官による閉鎖,,,2015-10-05,1,,,,,,0
763,3012402021058,登記記録の閉鎖等,0,2022-01-13,2022-01-13,有限会社丸栄電気商会,,有限会社,東京都,三鷹市,中原１丁目２番３８号サンケンビル１０４,,13,204,1810005,,,2022-01-13,登記官による閉鎖,,,2015-10-05,1,,,,,,0
768,3012801018885,登記記録の閉鎖等,0,2022-01-13,2022-01-04,株式会社ＰＡデータサービス,,株式会社,東京都,立川市,柴崎町２丁目２番２３号,,13,202,1900023,,,2022-01-04,合併による解散等,7030001050175,令和４年１月１日東京都立川市柴崎町二丁目２番２３号株式会社ＰＡデータサービス（7030001050175）に合併し解散,2018-07-25,1,,,,,ピーエーデーターサービス,0
774,3020001026213,登記記録の閉鎖等,0,2022-01-13,2022-01-04,リストコンストラクション株式会社,,株式会社,神奈川県,横浜市中区,尾上町４丁目４７番地,,14,104,2310015,,,2022-01-04,合併による解散等,2020001120999,令和４年１月１日横浜市中区尾上町四丁目４７番地リストホームズ株式会社（2020001120999）に合併し解散,2015-10-05,1,,,,,リストコンストラクション,0
795,3030001074541,登記記録の閉鎖等,0,2022-01-13,2022-01-07,株式会社共進製作所,,株式会社,埼玉県,川口市,朝日１丁目６番１４号,,11,203,3320001,,,2022-01-07,清算の結了等,,,2015-10-05,1,,,,,キョウシンセイサクショ,0
835,3090001007306,登記記録の閉鎖等,0,2022-01-13,2022-01-13,株式会社サン・トップ,,株式会社,山梨県,甲斐市,長塚２１０番地１,,19,210,4000125,,,2022-01-13,登記官による閉鎖,,,2015-10-05,1,,,,,,0
836,3090001007636,登記記録の閉鎖等,0,2022-01-13,2022-01-13,株式会社アミューズクリエイト,,株式会社,山梨県,甲府市,湯村３丁目９番６号,,19,201,4000073,,,2022-01-13,登記官による閉鎖,,,2015-10-05,1,,,,,,0
837,3090001014863,登記記録の閉鎖等,0,2022-01-13,2022-01-13,高部繊維産業株式会社,,株式会社,山梨県,都留市,大幡８８番地,,19,204,4020045,,,2022-01-13,登記官による閉鎖,,,2016-11-28,1,,,,,,0
838,3090002012420,登記記録の閉鎖等,0,2022-01-13,2022-01-13,有限会社ビジネスホテル笠井,,有限会社,山梨県,富士吉田市,上吉田３丁目１３番１７号,,19,202,4030005,,,2022-01-13,登記官による閉鎖,,,2015-10-05,1,,,,,,0
839,3090005000356,登記記録の閉鎖等,0,2022-01-13,2022-01-13,甲斐総合土地開発事業協同組合,,その他の設立登記法人,山梨県,甲府市,伊勢３丁目７番６号,,19,201,4000856,,,2022-01-13,登記官による閉鎖,,,2015-10-05,1,,,,,,0
840,3090005000595,登記記録の閉鎖等,0,2022-01-13,2022-01-13,昇仙峡観光商業協同組合,,その他の設立登記法人,山梨県,甲府市,高成町９９５番地,,19,201,4001214,,,2022-01-13,登記官による閉鎖,,,2015-10-05,1,,,,,,0
841,3090005001148,登記記録の閉鎖等,0,2022-01-13,2022-01-13,山梨ダイワグループ事業協同組合,,その他の設立登記法人,山梨県,中央市,流通団地一丁目７番１号,,19,214,4093800,,,2022-01-13,登記官による閉鎖,,,2015-10-05,1,,,,,,0
848,3120001047769,登記記録の閉鎖等,0,2022-01-13,2022-01-04,株式会社三宅商店,,株式会社,大阪府,大阪市西区,新町４丁目１１番１２号,,27,106,5500013,,,2022-01-04,合併による解散等,2120003000768,令和３年１２月３１日大阪市西区新町四丁目１１番１２号くれは合名会社（2120003000768）に合併し解散,2015-10-05,1,,,,,,0
869,3120902018059,登記記録の閉鎖等,0,2022-01-13,2022-01-11,有限会社カメイ,,有限会社,大阪府,豊中市,永楽荘２丁目１番１７－１０１号,,27,203,5600051,,,2022-01-11,清算の結了等,,,2015-10-05,1,,,,,カメイ,0
871,3122001014336,登記記録の閉鎖等,0,2022-01-13,2022-01-07,トップ・スター自動車株式会社,,株式会社,大阪府,東大阪市,東鴻池町４丁目５番２６号,,27,227,5780973,,,2022-01-07,清算の結了等,,,2015-10-05,1,,,,,トップスタージドウシャ,0
880,3130005000764,登記記録の閉鎖等,0,2022-01-13,2021-12-24,天理教朱雀野分教会,,その他の設立登記法人,京都府,京都市中京区,西ノ京池ノ内町２２番地,,26,104,6048375,,,2021-12-24,合併による解散等,4130005000672,令和３年１２月２４日京都市北区紫野上石龍町２３番地天理教上賀茂分教会（4130005000672）に合併し解散,2015-10-05,1,,,,,テンリキョウシュジャクノブンキョウカイ,0
906,3180002019778,登記記録の閉鎖等,0,2022-01-13,2022-01-11,有限会社横井業務店,,有限会社,愛知県,名古屋市中川区,前並町４９番地,,23,110,4540025,,,2022-01-11,清算の結了等,,,2015-10-05,1,,,,,ヨコイギョウムテン,0
919,3200002022432,登記記録の閉鎖等,0,2022-01-13,2022-01-06,有限会社ホワイト・スノー,,有限会社,岐阜県,多治見市,平井町５丁目７２番地,,21,204,5070058,,,2022-01-06,清算の結了等,,,2015-10-05,1,,,,,ホワイトスノー,0
920,3220001002565,登記記録の閉鎖等,0,2022-01-13,2022-01-12,株式会社経営プランニングデスク,,株式会社,石川県,金沢市,泉野出町４丁目１１番３３号,,17,201,9218116,,,2022-01-12,登記官による閉鎖,,,2015-10-05,1,,,,,,0
923,3220002003125,登記記録の閉鎖等,0,2022-01-13,2022-01-06,島田物産有限会社,,有限会社,石川県,金沢市,高畠１丁目３９７番地,,17,201,9218001,,,2022-01-06,清算の結了等,,,2015-10-05,1,,,,,シマダブッサン,0
924,3220002014601,登記記録の閉鎖等,0,2022-01-13,2022-01-12,有限会社山惠,,有限会社,石川県,鹿島郡中能登町,羽坂弐部６５番地,,17,407,9291714,,,2022-01-12,登記官による閉鎖,,,2015-10-05,1,,,,,,0
925,3220002015269,登記記録の閉鎖等,0,2022-01-13,2022-01-12,有限会社本多設備,,有限会社,石川県,羽咋市,千里浜町ト５２番地６,,17,207,9250054,,,2022-01-12,登記官による閉鎖,,,2015-10-05,1,,,,,,0
926,3220002017026,登記記録の閉鎖等,0,2022-01-13,2022-01-12,有限会社中島ゴム,,有限会社,石川県,かほく市,秋浜ハ７２番地２,,17,209,9291175,,,2022-01-12,登記官による閉鎖,,,2015-10-05,1,,,,,,0
927,3220005002470,登記記録の閉鎖等,0,2022-01-13,2022-01-12,山科町団地管理組合法人,,その他の設立登記法人,石川県,金沢市,山科２丁目２番２５号,,17,201,9218175,,,2022-01-12,登記官による閉鎖,,,2015-10-05,1,,,,,,0
928,3230001004610,登記記録の閉鎖等,0,2022-01-13,2022-01-13,丸上木材工業株式会社,,株式会社,富山県,富山市,五番町７番３号,,16,201,9300052,,,2022-01-13,登記官による閉鎖,,,2016-06-15,1,,,,,,0
929,3230002003470,登記記録の閉鎖等,0,2022-01-13,2022-01-13,丸和薬品販売有限会社,,有限会社,富山県,富山市,城北町６番４号,,16,201,9300854,,,2022-01-13,登記官による閉鎖,,,2015-10-05,1,,,,,,0
931,3230005007114,登記記録の閉鎖等,0,2022-01-13,2022-01-13,財団法人富山県小動物医薬品技術普及啓発協会,,その他の設立登記法人,富山県,高岡市,下関町１番１６号,,16,202,9330021,,,2022-01-13,登記官による閉鎖,,,2015-10-05,1,,,,,,0
934,3240002021620,登記記録の閉鎖等,0,2022-01-13,2022-01-06,有限会社トオヤマ,,有限会社,広島県,広島市東区,福田５丁目１０９０番地の３,,34,102,7320029,,,2022-01-06,清算の結了等,,,2015-10-05,1,,,,,トオヤマ,0
936,3250001005672,登記記録の閉鎖等,0,2022-01-13,2022-01-11,下関精麦興業株式会社,,株式会社,山口県,下関市,東大和町１丁目４番２０号,,35,201,7500066,,,2022-01-11,清算の結了等,,,2015-10-05,1,,,,,,0
940,3260002027153,登記記録の閉鎖等,0,2022-01-13,2022-01-12,有限会社小川工務店,,有限会社,岡山県,新見市,石蟹３５番地,,33,210,7180015,,,2022-01-12,清算の結了等,,,2015-10-05,1,,,,,,0
994,3390001004660,登記記録の閉鎖等,0,2022-01-13,2022-01-04,株式会社龍企画ジャパン龍プロ,,株式会社,山形県,天童市,桜町１１番４８号,,06,210,9940027,,,2022-01-04,清算の結了等,,,2015-10-05,1,,,,,リュウキカクジャパンリュウプロ,0
1004,3430001060947,登記記録の閉鎖等,0,2022-01-13,2022-01-05,株式会社ウェイブワークス,,株式会社,北海道,札幌市南区,北ノ沢１丁目７番７号,,01,106,0050832,,,2022-01-05,清算の結了等,,,2015-10-05,1,,,,,ウェイブワークス,0
1016,3470001000255,登記記録の閉鎖等,0,2022-01-13,2022-01-12,株式会社アイアイサービス,,株式会社,香川県,高松市,中新町２番５,,37,201,7600056,,,2022-01-12,登記官による閉鎖,,,2015-10-05,1,,,,,,0
1018,3470001012738,登記記録の閉鎖等,0,2022-01-13,2022-01-12,Ｏｒａｌ　Ｅｓｓｅｎｃｅみつ花株式会社,,株式会社,香川県,善通寺市,碑殿町１１４３番地,,37,204,7650062,,,2022-01-12,登記官による閉鎖,,,2015-10-05,1,,,,,,0
1019,3470002002300,登記記録の閉鎖等,0,2022-01-13,2022-01-12,木村鋼業有限会社,,有限会社,香川県,高松市,下田井町１６番地２,,37,201,7610313,,,2022-01-12,登記官による閉鎖,,,2015-10-05,1,,,,,,0
1020,3470002005369,登記記録の閉鎖等,0,2022-01-13,2022-01-12,ハウス技研有限会社,,有限会社,香川県,高松市,松福町１丁目２番６号,,37,201,7600067,,,2022-01-12,登記官による閉鎖,,,2015-10-05,1,,,,,,0
1021,3470002006805,登記記録の閉鎖等,0,2022-01-13,2022-01-12,有限会社宮武米穀店,,有限会社,香川県,高松市,元山町９７５番地７,,37,201,7610311,,,2022-01-12,登記官による閉鎖,,,2015-10-05,1,,,,,,0
1022,3470002009254,登記記録の閉鎖等,0,2022-01-13,2022-01-12,有限会社ハッピーモーメントストア,,有限会社,香川県,高松市,小村町１１８番地,,37,201,7610431,,,2022-01-12,登記官による閉鎖,,,2015-10-05,1,,,,,,0
1023,3470002010030,登記記録の閉鎖等,0,2022-01-13,2022-01-12,有限会社ナカムラデンキ,,有限会社,香川県,高松市,国分寺町国分２８５５番地６,,37,201,7690102,,,2022-01-12,登記官による閉鎖,,,2015-10-05,1,,,,,,0
1028,3490001003966,登記記録の閉鎖等,0,2022-01-13,2022-01-13,株式会社へいせい介護サービス,,株式会社,高知県,高知市,瀬戸西町２丁目１８８番地８,,39,201,7810251,,,2022-01-13,登記官による閉鎖,,,2015-10-05,1,,,,,,0
1029,3490002002281,登記記録の閉鎖等,0,2022-01-13,2022-01-13,サンデー住宅有限会社,,有限会社,高知県,高知市,秦南町２丁目４番１６号,,39,201,7800026,,,2022-01-13,登記官による閉鎖,,,2015-10-05,1,,,,,,0
1030,3490002004113,登記記録の閉鎖等,0,2022-01-13,2022-01-13,有限会社橋詰テント,,有限会社,高知県,高知市,元町５０番地,,39,201,7800941,,,2022-01-13,登記官による閉鎖,,,2015-10-05,1,,,,,,0
1032,3490002009244,登記記録の閉鎖等,0,2022-01-13,2022-01-13,有限会社メープルハウス,,有限会社,高知県,宿毛市,高砂１番１３号,,39,208,7880012,,,2022-01-13,登記官による閉鎖,,,2015-10-05,1,,,,,,0
1033,3490005005637,登記記録の閉鎖等,0,2022-01-13,2022-01-13,特定非営利活動法人高齢者と障害者を支援する会,,その他の設立登記法人,高知県,室戸市,浮津１２８番地１,,39,202,7817103,,,2022-01-13,登記官による閉鎖,,,2015-10-05,1,,,,,,0
1034,3500001014061,登記記録の閉鎖等,0,2022-01-13,2022-01-11,株式会社かまど会議,,株式会社,愛媛県,喜多郡内子町,重松甲１３９１番地,,38,422,7950304,,,2022-01-11,清算の結了等,,,2015-10-05,1,,,,,カマドカイギ,0
1043,4010001158923,登記記録の閉鎖等,0,2022-01-13,2022-01-04,ダックインベストメント株式会社,,株式会社,東京都,千代田区,丸の内１丁目８番２号,,13,101,1000005,,,2022-01-04,合併による解散等,1010001189896,令和４年１月１日東京都千代田区丸の内一丁目８番２号ダックリアルティ株式会社（1010001189896）に合併し解散,2015-10-05,1,,,,,ダックインベストメント,0
1053,4010401062196,登記記録の閉鎖等,0,2022-01-13,2022-01-04,株式会社テミル,,株式会社,東京都,港区,芝３丁目６番５号,,13,103,1050014,,,2022-01-04,清算の結了等,,,2015-10-05,1,,,,,テミル,0
1064,4010502000798,登記記録の閉鎖等,0,2022-01-13,2022-01-11,有限会社石田住宅機器,,有限会社,東京都,台東区,日本堤２丁目１５番５号,,13,106,1110021,,,2022-01-11,清算の結了等,,,2015-10-05,1,,,,,イシダジュウタクキキ,0
1097,4011202003348,登記記録の閉鎖等,0,2022-01-13,2022-01-05,有限会社青林堂ボックス,,有限会社,東京都,中野区,東中野３丁目１６番９号,,13,114,1640003,,,2022-01-05,清算の結了等,,,2015-10-05,1,,,,,セイリンドウボックス,0
1113,4012401012998,登記記録の閉鎖等,0,2022-01-13,2022-01-13,株式会社マークス,,株式会社,東京都,三鷹市,中原４丁目２２番１７号,,13,204,1810005,,,2022-01-13,登記官による閉鎖,,,2015-10-05,1,,,,,,0
1116,4012402004532,登記記録の閉鎖等,0,2022-01-13,2022-01-13,有限会社イチムラ・エステート,,有限会社,東京都,小金井市,貫井北町２丁目１１番５号,,13,210,1840015,,,2022-01-13,登記官による閉鎖,,,2015-10-05,1,,,,,,0
1120,4012402023391,登記記録の閉鎖等,0,2022-01-13,2022-01-13,有限会社ＷＥＢ　ＣＨＡＮＧＥ,,有限会社,東京都,狛江市,猪方２丁目６番４号,,13,219,2010015,,,2022-01-13,登記官による閉鎖,,,2015-10-05,1,,,,,,0
1121,4012403002287,登記記録の閉鎖等,0,2022-01-13,2022-01-04,合同会社国際言語文化研究所,,合同会社,東京都,府中市,宮西町５丁目２５番地の３,,13,206,1830022,,,2022-01-04,清算の結了等,,,2015-10-05,1,,,,,コクサイゲンゴブンカケンキュウショ,0
1122,4012405002252,登記記録の閉鎖等,0,2022-01-13,2022-01-13,特定非営利活動法人リチャード・アレン・メリット記念館,,その他の設立登記法人,東京都,調布市,布田２丁目９番地６ＣＦビル４０１,,13,208,1820024,,,2022-01-13,登記官による閉鎖,,,2015-10-05,1,,,,,,0
1127,4013402001932,登記記録の閉鎖等,0,2022-01-13,2022-01-13,有限会社榎本酒店,,有限会社,東京都,多摩市,聖ヶ丘２丁目２２番地３－３,,13,224,2060022,,,2022-01-13,登記官による閉鎖,,,2015-10-05,1,,,,,,0
1136,4020002039832,登記記録の閉鎖等,0,2022-01-13,2022-01-11,有限会社百武学園,,有限会社,神奈川県,横浜市鶴見区,駒岡１丁目５番１８号,,14,101,2300071,,,2022-01-11,清算の結了等,,,2015-10-05,1,,,,,ヒャクタケガクエン,0
1140,4020002064178,登記記録の閉鎖等,0,2022-01-13,2022-01-07,有限会社久良岐屋,,有限会社,神奈川県,横浜市港北区,綱島東１丁目５番１７号クリエート綱島１００４,,14,109,2230052,,,2022-01-07,清算の結了等,,,2015-10-05,1,,,,,クラギヤ,0
1152,4021002062361,登記記録の閉鎖等,0,2022-01-13,2022-01-07,有限会社ヘイブ,,有限会社,神奈川県,横須賀市,衣笠栄町２丁目３６番地４,,14,201,2380031,,,2022-01-07,清算の結了等,,,2015-10-05,1,,,,,ヘイブ,0
1154,4030001113216,登記記録の閉鎖等,0,2022-01-13,2022-01-11,和・磋・美株式会社,,株式会社,埼玉県,白岡市,千駄野９４１番地４,,11,246,3490215,,,2022-01-11,合併による解散等,8030003014937,令和４年１月９日埼玉県白岡市千駄野９４１番地４合同会社タロとジロ（8030003014937）に合併し解散,2016-03-11,1,,,,,,0
1169,4050001000932,登記記録の閉鎖等,0,2022-01-13,2022-01-04,光商建材株式会社,,株式会社,茨城県,水戸市,千波町２３５３番地の２１,,08,201,3100851,,,2022-01-04,合併による解散等,4050001011244,令和４年１月１日茨城県石岡市杉並一丁目７番１６号アオキ株式会社（4050001011244）に合併し解散,2015-10-05,1,,,,,コウショウケンザイ,0
1180,4070001033625,登記記録の閉鎖等,0,2022-01-13,2022-01-11,ケイアイネットリアルティ３ｒｄ株式会社,,株式会社,埼玉県,熊谷市,桜町２丁目９番４３号,,11,202,3600814,,,2022-01-11,合併による解散等,5070001033624,令和４年１月１日群馬県高崎市上中居町１７２７番地ケイアイネットリアルティ株式会社（5070001033624）に合併し解散,2017-06-12,1,,,,,ケイアイネットリアルティサード,0
1186,4090001007180,登記記録の閉鎖等,0,2022-01-13,2022-01-13,株式会社イズム,,株式会社,山梨県,甲府市,伊勢４丁目２１番８号,,19,201,4000856,,,2022-01-13,登記官による閉鎖,,,2015-10-05,1,,,,,,0
1187,4090002006990,登記記録の閉鎖等,0,2022-01-13,2022-01-13,有限会社ワイエムアドバンス,,有限会社,山梨県,甲府市,小瀬町１１１５番地５,,19,201,4000836,,,2022-01-13,登記官による閉鎖,,,2015-10-05,1,,,,,,0
1188,4090002010794,登記記録の閉鎖等,0,2022-01-13,2022-01-13,有限会社関口建設,,有限会社,山梨県,山梨市,万力１９７８番地,,19,205,4050031,,,2022-01-13,登記官による閉鎖,,,2015-10-05,1,,,,,,0
1189,4090002010919,登記記録の閉鎖等,0,2022-01-13,2022-01-13,三富タクシー有限会社,,有限会社,山梨県,山梨市,牧丘町窪平１２８番地,,19,205,4040013,,,2022-01-13,登記官による閉鎖,,,2015-10-05,1,,,,,,0
1191,4090002013756,登記記録の閉鎖等,0,2022-01-13,2022-01-13,有限会社戸嶋工業,,有限会社,山梨県,韮崎市,岩下２１０番地,,19,207,4070012,,,2022-01-13,登記官による閉鎖,,,2015-10-05,1,,,,,,0
1192,4090002014878,登記記録の閉鎖等,0,2022-01-13,2022-01-13,有限会社三交タクシー,,有限会社,山梨県,西八代郡市川三郷町,上野２８５１番地,,19,346,4093612,,,2022-01-13,登記官による閉鎖,,,2015-10-05,1,,,,,,0
1193,4090005000470,登記記録の閉鎖等,0,2022-01-13,2022-01-13,山梨県製綿協同組合,,その他の設立登記法人,山梨県,甲府市,塩部３丁目１０番１４号,,19,201,4000026,,,2022-01-13,登記官による閉鎖,,,2015-10-05,1,,,,,,0
1194,4090005000545,登記記録の閉鎖等,0,2022-01-13,2022-01-13,山梨県廃棄物協同組合,,その他の設立登記法人,山梨県,甲府市,愛宕町４３２番地,,19,201,4000023,,,2022-01-13,登記官による閉鎖,,,2015-10-05,1,,,,,,0
1195,4090005007012,登記記録の閉鎖等,0,2022-01-13,2022-01-13,忍野村内野第七農事実行組合,,その他の設立登記法人,山梨県,南都留郡忍野村,,,19,424,4010500,,,2022-01-13,登記官による閉鎖,,,2016-10-20,1,,,,,,0
1266,4190005004932,登記記録の閉鎖等,0,2022-01-13,2021-12-24,天理教宮寳分教会,,その他の設立登記法人,三重県,伊勢市,浦口３丁目３番３４号,,24,203,5160062,,,2021-12-24,合併による解散等,2190005006889,令和３年１２月２４日三重県松阪市塚本町５０９番地５天理教宮勢分教会（2190005006889）に合併し解散,2015-10-05,1,,,,,テンリキョウミヤタカラブンキョウカイ,0
1273,4200002022753,登記記録の閉鎖等,0,2022-01-13,2022-01-12,有限会社藤,,有限会社,岐阜県,多治見市,宝町１１丁目６０番地,,21,204,5070054,,,2022-01-12,清算の結了等,,,2015-10-05,1,,,,,,0
1276,4220002005517,登記記録の閉鎖等,0,2022-01-13,2022-01-12,松本哲有限会社,,有限会社,石川県,金沢市,西泉１丁目８６番地１,,17,201,9218043,,,2022-01-12,登記官による閉鎖,,,2015-10-05,1,,,,,,0
1277,4220002010616,登記記録の閉鎖等,0,2022-01-13,2022-01-12,有限会社小杉建設,,有限会社,石川県,小松市,串町北５５８番地,,17,203,9230965,,,2022-01-12,登記官による閉鎖,,,2015-10-05,1,,,,,,0
1278,4220002017256,登記記録の閉鎖等,0,2022-01-13,2022-01-12,有限会社Ｊ．Ｆ．Ｓ,,有限会社,石川県,河北郡内灘町,字千鳥台４丁目４１番地,,17,365,9200277,,,2022-01-12,登記官による閉鎖,,,2015-10-05,1,,,,,,0
1279,4220003000970,登記記録の閉鎖等,0,2022-01-13,2022-01-12,合同会社セントラル・リバー,,合同会社,石川県,白山市,村井町７１０番地,,17,210,9240032,,,2022-01-12,登記官による閉鎖,,,2015-10-05,1,,,,,,0
1280,4230002006324,登記記録の閉鎖等,0,2022-01-13,2022-01-13,有限会社水馬,,有限会社,富山県,富山市,婦中町安田１８９番地,,16,201,9392751,,,2022-01-13,登記官による閉鎖,,,2015-10-05,1,,,,,,0
1289,4260001015991,登記記録の閉鎖等,0,2022-01-13,2022-01-11,ニシムラ宝飾株式会社,,株式会社,岡山県,総社市,溝口１０８番地６,,33,208,7191135,,,2022-01-11,清算の結了等,,,2015-10-05,1,,,,,ニシムラホウショク,0
1297,4290001057692,登記記録の閉鎖等,0,2022-01-13,2022-01-07,松本フーズ株式会社,,株式会社,福岡県,福岡市西区,愛宕４丁目２番４５－８１２号,,40,135,8190015,,,2022-01-07,清算の結了等,,,2015-10-05,1,,,,,マツモトフーズ,0
1303,4290801024124,登記記録の閉鎖等,0,2022-01-13,2022-01-07,株式会社隼人エーステクノ,,株式会社,福岡県,北九州市小倉北区,熊本２丁目３番４－１０１号,,40,106,8020044,,,2022-01-07,清算の結了等,,,2017-11-13,1,,,,,ハヤトエーステクノ,0
1337,4430001064369,登記記録の閉鎖等,0,2022-01-13,2022-01-11,株式会社Ｓｔｏｉｃ’ｓ,,株式会社,北海道,小樽市,赤岩２丁目３１番１５号,,01,203,0470046,,,2022-01-11,清算の結了等,,,2015-10-05,1,,,,,,0
1341,4470001001871,登記記録の閉鎖等,0,2022-01-13,2022-01-12,四国設計コンサルタント株式会社,,株式会社,香川県,高松市,茜町１８番４２－１０２号,,37,201,7600002,,,2022-01-12,登記官による閉鎖,,,2015-10-05,1,,,,,,0
1342,4470001006128,登記記録の閉鎖等,0,2022-01-13,2022-01-12,株式会社アオノ通信,,株式会社,香川県,高松市,木太町３３８４番地１,,37,201,7600080,,,2022-01-12,登記官による閉鎖,,,2015-10-05,1,,,,,,0
1344,4470001011846,登記記録の閉鎖等,0,2022-01-13,2022-01-12,株式会社中央パッケージ,,株式会社,香川県,観音寺市,豊浜町箕浦乙１８２６番地１５,,37,205,7691604,,,2022-01-12,登記官による閉鎖,,,2015-10-05,1,,,,,,0
1346,4470002001227,登記記録の閉鎖等,0,2022-01-13,2022-01-12,有限会社鵜川タイル,,有限会社,香川県,高松市,鬼無町佐藤６７番地５,,37,201,7618023,,,2022-01-12,登記官による閉鎖,,,2015-10-05,1,,,,,,0
1347,4470002003826,登記記録の閉鎖等,0,2022-01-13,2022-01-12,有限会社壽し竹,,有限会社,香川県,高松市,古馬場町６番地７,,37,201,7600045,,,2022-01-12,登記官による閉鎖,,,2015-10-05,1,,,,,,0
1348,4470002005203,登記記録の閉鎖等,0,2022-01-13,2022-01-12,日本不動産ハウジングセンター有限会社,,有限会社,香川県,高松市,築地町１６番地１３,,37,201,7600061,,,2022-01-12,登記官による閉鎖,,,2015-10-05,1,,,,,,0
1349,4470002009179,登記記録の閉鎖等,0,2022-01-13,2022-01-12,有限会社ＣＡＤハウスＡ＆Ｒ,,有限会社,香川県,高松市,塩江町安原下第１号１３２３番地３,,37,201,7611501,,,2022-01-12,登記官による閉鎖,,,2015-10-05,1,,,,,,0
1350,4470002009897,登記記録の閉鎖等,0,2022-01-13,2022-01-12,有限会社エム・エム・シー,,有限会社,香川県,高松市,国分寺町新名８８７番地１８,,37,201,7690104,,,2022-01-12,登記官による閉鎖,,,2015-10-05,1,,,,,,0
1351,4470002019062,登記記録の閉鎖等,0,2022-01-13,2022-01-12,有限会社畑中石材,,有限会社,香川県,小豆郡土庄町,大部甲１７３６番地６,,37,322,7614145,,,2022-01-12,登記官による閉鎖,,,2015-10-05,1,,,,,,0
1355,4490001003940,登記記録の閉鎖等,0,2022-01-13,2022-01-13,株式会社サンショー,,株式会社,高知県,高知市,愛宕町３丁目１６番２８号,,39,201,7800051,,,2022-01-13,登記官による閉鎖,,,2015-10-05,1,,,,,,0
1357,4490002002470,登記記録の閉鎖等,0,2022-01-13,2022-01-13,有限会社城南スーパーマーケツト,,有限会社,高知県,高知市,竹島町１５８番地１,,39,201,7808018,,,2022-01-13,登記官による閉鎖,,,2015-10-05,1,,,,,,0
1358,4490002010985,登記記録の閉鎖等,0,2022-01-13,2022-01-13,有限会社ショッピングしらかわ,,有限会社,高知県,高岡郡四万十町,十川２４６番地,,39,412,7860504,,,2022-01-13,登記官による閉鎖,,,2015-10-05,1,,,,,,0
1367,5010001179984,登記記録の閉鎖等,0,2022-01-13,2022-01-04,株式会社アイスペース,,株式会社,東京都,文京区,本郷２丁目４０番４号,,13,105,1130033,,,2022-01-04,合併による解散等,2010001075625,令和４年１月１日東京都文京区本郷二丁目４０番４号株式会社シードアイサービス（2010001075625）に合併し解散,2016-12-02,1,,,,,アイスペース,0
1372,5010005016119,登記記録の閉鎖等,0,2022-01-13,2022-01-05,特定非営利活動法人ＮＰＯ地域こどもサポートセンター,,その他の設立登記法人,東京都,中央区,日本橋人形町２丁目３２番４号,,13,102,1030013,,,2022-01-05,清算の結了等,,,2015-10-05,1,,,,,エヌピーオーチイキコドモサポートセンター,0
1378,5010401144225,登記記録の閉鎖等,0,2022-01-13,2022-01-04,ＢＲパートナーズ株式会社,,株式会社,東京都,千代田区,四番町９番地１０－５０５号,,13,101,1020081,,,2022-01-04,合併による解散等,7010001193273,令和４年１月１日東京都千代田区二番町９番３号株式会社新潟マテリアルホールディングス（7010001193273）に合併し解散,2019-03-05,1,,,,,ビーアールパートナーズ,0
1382,5010402007471,登記記録の閉鎖等,0,2022-01-13,2021-12-27,有限会社セキュリティプロフィットサービス,,有限会社,東京都,港区,浜松町２丁目９番３号,,13,103,1050013,,,2021-12-27,清算の結了等,,,2015-10-05,1,,,,,セキュリティプロフィットサービス,0
1400,5010901045286,登記記録の閉鎖等,0,2022-01-13,2021-12-24,株式会社ＴａｉｎｅｒＡｇｅｎｃｙ,,株式会社,東京都,江東区,亀戸８丁目１５番３号６０６,,13,108,1360071,,,2021-12-24,清算の結了等,,,2019-11-27,1,,,,,テイナーエージェンシー,0
1405,5011001065588,登記記録の閉鎖等,0,2022-01-13,2021-12-24,株式会社ノイノイジャパン,,株式会社,東京都,渋谷区,渋谷２丁目６番１４号,,13,113,1500002,,,2021-12-24,清算の結了等,,,2015-10-05,1,,,,,ノイノイジャパン,0
1406,5011001108132,登記記録の閉鎖等,0,2022-01-13,2022-01-05,株式会社Ｊｏｂ２ｇｅｔｈｅｒ,,株式会社,東京都,世田谷区,成城７丁目８番１７号,,13,112,1570066,,,2022-01-05,合併による解散等,7010901034444,令和４年１月１日東京都世田谷区成城七丁目８番１８号株式会社Ｇ＆Ｇワークスホールディングス（7010901034444）に合併し解散,2015-11-11,1,,,,,ジョブトゥギャザー,0
1414,5011101062972,登記記録の閉鎖等,0,2022-01-13,2022-01-04,株式会社アップライズ,,株式会社,東京都,新宿区,西新宿４丁目３番１３号,,13,104,1600023,,,2022-01-04,清算の結了等,,,2015-10-05,1,,,,,アップライズ,0
1423,5012401018499,登記記録の閉鎖等,0,2022-01-13,2022-01-13,株式会社プラウド,,株式会社,東京都,府中市,分梅町３丁目１５番地の１３,,13,206,1830033,,,2022-01-13,登記官による閉鎖,,,2015-10-05,1,,,,,,0
1425,5012402017137,登記記録の閉鎖等,0,2022-01-13,2022-01-13,有限会社第一不動産研究所,,有限会社,東京都,武蔵野市,西久保２丁目３１番５号,,13,203,1800013,,,2022-01-13,登記官による閉鎖,,,2015-10-05,1,,,,,,0
1426,5012402019125,登記記録の閉鎖等,0,2022-01-13,2022-01-13,有限会社染谷工務店,,有限会社,東京都,三鷹市,下連雀３丁目４２番１８号迦葉三鷹マンション７０２号,00058183,13,204,1810013,,,2022-01-13,登記官による閉鎖,,,2015-10-05,1,,,,,,0
1427,5012402019298,登記記録の閉鎖等,0,2022-01-13,2022-01-13,有限会社テクノアート,,有限会社,東京都,三鷹市,大沢４丁目１８番２５号,,13,204,1810015,,,2022-01-13,登記官による閉鎖,,,2015-10-05,1,,,,,,0
1428,5012402020454,登記記録の閉鎖等,0,2022-01-13,2022-01-13,有限会社プランドル,,有限会社,東京都,三鷹市,井の頭２丁目２４番１５号,,13,204,1810001,,,2022-01-13,登記官による閉鎖,,,2015-10-05,1,,,,,,0
1429,5012402022839,登記記録の閉鎖等,0,2022-01-13,2022-01-13,有限会社フラットワン,,有限会社,東京都,調布市,調布ケ丘２丁目１６番地２２,,13,208,1820021,,,2022-01-13,登記官による閉鎖,,,2015-10-05,1,,,,,,0
1430,5012403001387,登記記録の閉鎖等,0,2022-01-13,2022-01-13,サンライト合同会社,,合同会社,東京都,武蔵野市,境南町３丁目１４番１１号,,13,203,1800023,,,2022-01-13,登記官による閉鎖,,,2015-10-05,1,,,,,,0
1434,5013401005925,登記記録の閉鎖等,0,2022-01-13,2022-01-13,株式会社元天,,株式会社,東京都,多摩市,鶴牧４丁目１番地２号３０３,,13,224,2060034,,,2022-01-13,登記官による閉鎖,,,2015-10-05,1,,,,,,0
1443,5021001055613,登記記録の閉鎖等,0,2022-01-13,2022-01-04,株式会社造夢,,株式会社,神奈川県,横須賀市,追浜町３丁目１７番地,,14,201,2370064,,,2022-01-04,清算の結了等,,,2015-10-05,1,,,,,ゾウム,0
1458,5040001094454,登記記録の閉鎖等,0,2022-01-13,2022-01-05,株式会社Ｃａｚｏｚａｃ　Ｊａｐａｎ,,株式会社,千葉県,市川市,二俣４９７,,12,203,2720001,,,2022-01-05,清算の結了等,,,2016-03-14,1,,,,,カゾザックジャパン,0
1469,5060001012380,登記記録の閉鎖等,0,2022-01-13,2022-01-04,株式会社海星,,株式会社,栃木県,那須塩原市,金沢２０９番地１,,09,213,3292812,,,2022-01-04,合併による解散等,3060001011500,令和４年１月１日栃木県那須塩原市共墾社一丁目２番２１号株式会社日榮（3060001011500）に合併し解散,2015-10-05,1,,,,,カイセイ,0
1478,5090001009861,登記記録の閉鎖等,0,2022-01-13,2022-01-13,株式会社大日産業,,株式会社,山梨県,富士吉田市,上吉田３６５５番地１,,19,202,4030005,,,2022-01-13,登記官による閉鎖,,,2015-10-05,1,,,,,,0
1479,5090002007245,登記記録の閉鎖等,0,2022-01-13,2022-01-13,有限会社岳陽,,有限会社,山梨県,南アルプス市,桃園６２０番地３,,19,208,4000301,,,2022-01-13,登記官による閉鎖,,,2015-10-05,1,,,,,,0
1480,5090002007501,登記記録の閉鎖等,0,2022-01-13,2022-01-13,有限会社長田電設,,有限会社,山梨県,中央市,木原１３３８番地,,19,214,4001511,,,2022-01-13,登記官による閉鎖,,,2015-10-05,1,,,,,,0
1481,5090002013739,登記記録の閉鎖等,0,2022-01-13,2022-01-13,千野建設有限会社,,有限会社,山梨県,韮崎市,富士見ケ丘２丁目２番２４号,,19,207,4070021,,,2022-01-13,登記官による閉鎖,,,2015-10-05,1,,,,,,0
1482,5090002014134,登記記録の閉鎖等,0,2022-01-13,2022-01-13,有限会社サンエイ,,有限会社,山梨県,北杜市,小淵沢町５１８６番地,,19,209,4080044,,,2022-01-13,登記官による閉鎖,,,2015-10-05,1,,,,,,0
1483,5090005001864,登記記録の閉鎖等,0,2022-01-13,2022-01-13,甲斐食の匠協同組合,,その他の設立登記法人,山梨県,甲府市,下曽根町２０５５番地の３,,19,201,4001508,,,2022-01-13,登記官による閉鎖,,,2015-10-05,1,,,,,,0
1484,5090005004173,登記記録の閉鎖等,0,2022-01-13,2022-01-13,富士北麓塗装協同組合,,その他の設立登記法人,山梨県,富士吉田市,上吉田９４７番地の１,,19,202,4030005,,,2022-01-13,登記官による閉鎖,,,2015-10-05,1,,,,,,0
1485,5090005007003,登記記録の閉鎖等,0,2022-01-13,2022-01-13,無限責任武川村牧原負債整理組合,,その他の設立登記法人,山梨県,北杜市,武川町牧原９３５番地,,19,209,4080302,,,2022-01-13,登記官による閉鎖,,,2016-08-17,1,,,,,,0
1510,5120102019095,登記記録の閉鎖等,0,2022-01-13,2022-01-11,有限会社鳳機械,,有限会社,大阪府,藤井寺市,林５丁目３番１４号,,27,226,5830007,,,2022-01-11,清算の結了等,,,2015-10-05,1,,,,,オオトリキカイ,0
1518,5130005005729,登記記録の閉鎖等,0,2022-01-13,2022-01-06,特定非営利活動法人京北コミュニティビジネス,,その他の設立登記法人,京都府,京都市右京区,京北周山町下台４番地,,26,108,6010251,,,2022-01-06,清算の結了等,,,2015-10-05,1,,,,,ケイホクコミュニティビジネス,0
1526,5140005001157,登記記録の閉鎖等,0,2022-01-13,2021-12-21,天理教神岬分教会,,その他の設立登記法人,兵庫県,神戸市兵庫区,浜山通４丁目３番地,,28,105,6520871,,,2021-12-21,合併による解散等,9140005014840,令和３年１２月２１日兵庫県神崎郡神河町福本３７２番地天理教福本分教会（9140005014840）に合併し解散,2015-10-05,1,,,,,テンリキョウシンコウブンキョウカイ,0
1527,5150001002934,登記記録の閉鎖等,0,2022-01-13,2022-01-05,株式会社マキト,,株式会社,奈良県,奈良市,敷島町２丁目５４６番地の１３２,,29,201,6310031,,,2022-01-05,清算の結了等,,,2015-10-05,1,,,,,マキト,0
1534,5180001085051,登記記録の閉鎖等,0,2022-01-13,2021-12-27,株式会社Ｏｎｅ－Ｓｔｅｐ　Ｄｉｎｉｎｇ,,株式会社,愛知県,一宮市,小信中島字西九反４７番地１,,23,203,4940007,,,2021-12-27,合併による解散等,5180001084391,令和３年１２月２６日愛知県一宮市小信中島字西九反４７番地１株式会社Ｏｎｅ－Ｓｔｅｐ　Ｃｏｒｐｏｒａｔｉｏｎ（5180001084391）に合併し解散,2015-10-05,1,,,,,ワンステップダイニング,0
1535,5180001109710,登記記録の閉鎖等,0,2022-01-13,2021-12-28,株式会社ユタカバリューズインターナショナル,,株式会社,愛知県,名古屋市中区,金山５丁目１５番５号,,23,106,4600022,,,2021-12-28,合併による解散等,2180001009649,令和３年１２月２８日名古屋市昭和区広路本町四丁目４８番地ユタコロジー株式会社（2180001009649）に合併し解散,2015-10-05,1,,,,,ユタカバリューズインターナショナル,0
1553,5210001001252,登記記録の閉鎖等,0,2022-01-13,2022-01-07,株式会社近藤豊次商店,,株式会社,福井県,福井市,大手３丁目１４番１９号,,18,201,9100005,,,2022-01-07,清算の結了等,,,2015-10-05,1,,,,,コンドウトヨジショウテン,0
1554,5220001014195,登記記録の閉鎖等,0,2022-01-13,2022-01-12,株式会社地産地消ギフト,,株式会社,石川県,加賀市,作見町イ５１番地１,,17,206,9220423,,,2022-01-12,登記官による閉鎖,,,2015-10-05,1,,,,,,0
1556,5220005000126,登記記録の閉鎖等,0,2022-01-13,2022-01-12,社団法人金沢市浄化槽維持管理協会,,その他の設立登記法人,石川県,金沢市,西泉５丁目９３番地,,17,201,9218043,,,2022-01-12,登記官による閉鎖,,,2015-10-05,1,,,,,,0
1557,5220005002493,登記記録の閉鎖等,0,2022-01-13,2022-01-12,特定非営利活動法人　北陸定期借地借家権推進機構,,その他の設立登記法人,石川県,金沢市,泉が丘２丁目１２番３８号,,17,201,9218035,,,2022-01-12,登記官による閉鎖,,,2015-10-05,1,,,,,,0
1560,5220005007278,登記記録の閉鎖等,0,2022-01-13,2022-01-12,特定非営利活動法人ひかり保育園,,その他の設立登記法人,石川県,河北郡内灘町,字大清台３０２番地,,17,365,9200267,,,2022-01-12,登記官による閉鎖,,,2015-10-05,1,,,,,,0
1563,5230005001461,登記記録の閉鎖等,0,2022-01-13,2022-01-13,アケボノ事業協同組合,,その他の設立登記法人,富山県,富山市,曙町６番４０号,00079250,16,201,9300847,,,2022-01-13,登記官による閉鎖,,,2015-10-05,1,,,,,,0
1583,5290001086352,登記記録の閉鎖等,0,2022-01-13,2022-01-05,株式会社ＳＴＲＥＡＫ,,株式会社,福岡県,福岡市博多区,住吉４丁目４番１５号,,40,132,8120018,,,2022-01-05,清算の結了等,,,2019-09-04,1,,,,,ストリーク,0
1593,5300001001111,登記記録の閉鎖等,0,2022-01-13,2021-12-28,株式会社ワイズコーポレーション,,株式会社,佐賀県,佐賀市,日の出１丁目１４番５２号,,41,201,8490923,,,2021-12-28,清算の結了等,,,2015-10-05,1,,,,,ワイズコーポレーション,0
1611,5330002008615,登記記録の閉鎖等,0,2022-01-13,2022-01-12,肥後白蟻消毒有限会社,,有限会社,熊本県,熊本市北区,龍田７丁目３７番１２号,,43,105,8618006,,,2022-01-12,清算の結了等,,,2015-10-05,1,,,,,ヒゴシロアリショウドク,0
1620,5380002024186,登記記録の閉鎖等,0,2022-01-13,2022-01-04,有限会社シャリオ,,有限会社,福島県,いわき市,平字月見町３３番地の５,,07,204,9708026,,,2022-01-04,合併による解散等,7380001013691,令和４年１月１日福島県いわき市平字月見町３３番地の５株式会社一二三屋（7380001013691）に合併し解散,2015-10-05,1,,,,,シャリオ,0
1622,5380003002174,登記記録の閉鎖等,0,2022-01-13,2022-01-04,合同会社一二三屋,,合同会社,福島県,いわき市,平字月見町３３番地の５,,07,204,9708026,,,2022-01-04,合併による解散等,7380001013691,令和４年１月１日福島県いわき市平字月見町３３番地の５株式会社一二三屋（7380001013691）に合併し解散,2015-10-05,1,,,,,ヒフミヤ,0
1624,5390002010227,登記記録の閉鎖等,0,2022-01-13,2022-01-07,有限会社山形新聞藤島専売所,,有限会社,山形県,鶴岡市,藤島字笹花５５番地の４,,06,203,9997601,,,2022-01-07,清算の結了等,,,2015-10-05,1,,,,,ヤマガタシンブンフジシマセンバイジョ,0
1632,5430001050302,登記記録の閉鎖等,0,2022-01-13,2022-01-04,羽角建設株式会社,,株式会社,北海道,小樽市,住吉町１１番１７号,,01,203,0470015,,,2022-01-04,清算の結了等,,,2020-02-21,1,,,,,ハスミケンセツ,0
1638,5430005006589,登記記録の閉鎖等,0,2022-01-13,2022-01-06,協同組合月形デパート,,その他の設立登記法人,北海道,樺戸郡月形町,字本町１７番地の２,,01,430,0610500,,,2022-01-06,清算の結了等,,,2015-10-05,1,,,,,ツキガタデパート,0
1640,5470001001680,登記記録の閉鎖等,0,2022-01-13,2022-01-12,株式会社サン商事,,株式会社,香川県,高松市,新北町２７番２０号,,37,201,7600001,,,2022-01-12,登記官による閉鎖,,,2016-09-06,1,,,,,,0
1641,5470001003594,登記記録の閉鎖等,0,2022-01-13,2022-01-12,富士川建材株式会社,,株式会社,香川県,高松市,田村町２３５番地１,,37,201,7618057,,,2022-01-12,登記官による閉鎖,,,2015-10-05,1,,,,,,0
1642,5470001006143,登記記録の閉鎖等,0,2022-01-13,2022-01-12,株式会社アーレン,,株式会社,香川県,高松市,国分寺町福家甲３１８２番地１,,37,201,7690103,,,2022-01-12,登記官による閉鎖,,,2015-10-05,1,,,,,,0
1643,5470001006176,登記記録の閉鎖等,0,2022-01-13,2022-01-12,株式会社ジュピターコーポレーション,,株式会社,香川県,高松市,庵治町１８８５番地１,,37,201,7610130,,,2022-01-12,登記官による閉鎖,,,2015-10-05,1,,,,,,0
1644,5470001008866,登記記録の閉鎖等,0,2022-01-13,2022-01-12,エスケイオート株式会社,,株式会社,香川県,坂出市,室町３丁目４番１８号,,37,203,7620007,,,2022-01-12,登記官による閉鎖,,,2015-10-05,1,,,,,,0
1645,5470001009286,登記記録の閉鎖等,0,2022-01-13,2022-01-12,カドシステムコンサルタント株式会社,,株式会社,香川県,坂出市,府中町４８８３番地,,37,203,7620024,,,2022-01-12,登記官による閉鎖,,,2015-10-05,1,,,,,,0
1648,5470002003767,登記記録の閉鎖等,0,2022-01-13,2022-01-12,有限会社白ゆり化粧品店,,有限会社,香川県,高松市,片原町４番地の１,,37,201,7600040,,,2022-01-12,登記官による閉鎖,,,2015-10-05,1,,,,,,0
1649,5470002008915,登記記録の閉鎖等,0,2022-01-13,2022-01-12,有限会社讃岐職人屋本舗,,有限会社,香川県,高松市,栗林町２丁目１７番１２号,,37,201,7600073,,,2022-01-12,登記官による閉鎖,,,2015-10-05,1,,,,,,0
1650,5470002009673,登記記録の閉鎖等,0,2022-01-13,2022-01-12,有限会社寛栄商事,,有限会社,香川県,高松市,城東町２丁目７番１７号,,37,201,7600036,,,2022-01-12,登記官による閉鎖,,,2015-10-05,1,,,,,,0
1652,5470002018360,登記記録の閉鎖等,0,2022-01-13,2022-01-12,亀井建設有限会社,,有限会社,香川県,東かがわ市,引田５１８番地,,37,207,7692901,,,2022-01-12,登記官による閉鎖,,,2015-10-05,1,,,,,,0
1653,5490001003477,登記記録の閉鎖等,0,2022-01-13,2022-01-13,株式会社１０．ｃｏｍ　ＪＡＰＡＮ,,株式会社,高知県,高知市,横浜東町１３－２３,,39,201,7810243,,,2022-01-13,登記官による閉鎖,,,2015-10-05,1,,,,,,0
1654,5500001014984,登記記録の閉鎖等,0,2022-01-13,2021-12-16,ジャスティンベスト株式会社,,株式会社,愛媛県,四国中央市,川之江町３１２５番地３,,38,213,7990101,,,2021-12-16,合併による解散等,2500001015201,令和３年１２月１６日愛媛県四国中央市川之江町３１２５番地の３ジャスティンジャスト株式会社（2500001015201）に合併し解散,2015-10-05,1,,,,,ジャスティンベスト,0
1657,5500005006284,登記記録の閉鎖等,0,2022-01-13,2021-12-20,天理教遊子分教会,,その他の設立登記法人,愛媛県,宇和島市,遊子１３４５番地,,38,203,7980103,,,2021-12-20,合併による解散等,2500005006287,令和３年１２月２０日愛媛県宇和島市三浦東２１８６番地天理教三浦村分教会（2500005006287）に合併し解散,2015-10-05,1,,,,,テンリキョウユスブンキョウカイ,0
1667,6010001197770,登記記録の閉鎖等,0,2022-01-13,2022-01-11,ビジネスリーディング株式会社,,株式会社,東京都,中央区,湊３丁目７番１１号,,13,102,1040043,,,2022-01-11,清算の結了等,,,2019-01-21,1,,,,,ビジネスリーディング,0
1680,6010401025226,登記記録の閉鎖等,0,2022-01-13,2021-12-28,株式会社ひばり亭,,株式会社,東京都,港区,赤坂９丁目６番２３号,,13,103,1070052,,,2021-12-28,清算の結了等,,,2015-10-05,1,,,,,ヒバリテイ,0
1703,6010901024710,登記記録の閉鎖等,0,2022-01-13,2022-01-07,スレイベル株式会社,,株式会社,東京都,世田谷区,代沢４丁目２１番１７号,,13,112,1550032,,,2022-01-07,清算の結了等,,,2015-10-05,1,,,,,,0
1724,6011202005359,登記記録の閉鎖等,0,2022-01-13,2022-01-05,有限会社プラム,,有限会社,東京都,中野区,松が丘２丁目３５番４号,,13,114,1650024,,,2022-01-05,清算の結了等,,,2015-10-05,1,,,,,プラム,0
1726,6011501017518,登記記録の閉鎖等,0,2022-01-13,2022-01-04,株式会社ブレスト,,株式会社,千葉県,千葉市稲毛区,小仲台２丁目５番２号,,12,103,2630043,,,2022-01-04,清算の結了等,,,2015-10-05,1,,,,,ブレスト,0
1733,6012401007716,登記記録の閉鎖等,0,2022-01-13,2022-01-13,三栄電子産業株式会社,,株式会社,東京都,調布市,小島町３丁目７８番地１,,13,208,1820026,,,2022-01-13,登記官による閉鎖,,,2015-10-05,1,,,,,,0
1734,6012401008136,登記記録の閉鎖等,0,2022-01-13,2022-01-13,田村住研株式会社,,株式会社,東京都,調布市,深大寺北町６丁目２５番地２,,13,208,1820011,,,2022-01-13,登記官による閉鎖,,,2015-10-05,1,,,,,,0
1737,6012402000752,登記記録の閉鎖等,0,2022-01-13,2022-01-13,有限会社カネト肥田商店,,有限会社,東京都,府中市,矢崎町４丁目１番地,,13,206,1830025,,,2022-01-13,登記官による閉鎖,,,2015-10-05,1,,,,,,0
1738,6012402012649,登記記録の閉鎖等,0,2022-01-13,2022-01-13,有限会社村栄商事,,有限会社,東京都,調布市,深大寺東町７丁目２６番地の３,,13,208,1820012,,,2022-01-13,登記官による閉鎖,,,2015-10-05,1,,,,,,0
1739,6012402021708,登記記録の閉鎖等,0,2022-01-13,2022-01-13,有限会社オフィスクリエイト,,有限会社,東京都,武蔵野市,境南町２丁目１０番７－７０３号,,13,203,1800023,,,2022-01-13,登記官による閉鎖,,,2015-10-05,1,,,,,,0
1742,6012405001896,登記記録の閉鎖等,0,2022-01-13,2022-01-13,特定非営利活動法人赤いほっぺ,,その他の設立登記法人,東京都,狛江市,中和泉５丁目２４番９号,,13,219,2010012,,,2022-01-13,登記官による閉鎖,,,2015-10-05,1,,,,,,0
1752,6013402003919,登記記録の閉鎖等,0,2022-01-13,2022-01-13,有限会社水越タイル工業,,有限会社,東京都,稲城市,矢野口２９３５番地８,,13,225,2060812,,,2022-01-13,登記官による閉鎖,,,2015-10-05,1,,,,,,0
1753,6020001057437,登記記録の閉鎖等,0,2022-01-13,2022-01-06,株式会社エムズ・システム,,株式会社,神奈川県,横浜市保土ケ谷区,西谷町１１２５番地１０号ベルハイム１０８,,14,106,2400052,,,2022-01-06,清算の結了等,,,2015-10-05,1,,,,,エムズシステム,0
1758,6020001140424,登記記録の閉鎖等,0,2022-01-13,2022-01-11,株式会社エスビーティー,,株式会社,神奈川県,川崎市麻生区,はるひ野１丁目６番８号,,14,137,2150036,,,2022-01-11,清算の結了等,,,2021-03-18,1,,,,,エスビーティー,0
1762,6020002049193,登記記録の閉鎖等,0,2022-01-13,2022-01-11,有限会社アキ・プランニング,,有限会社,神奈川県,横浜市鶴見区,東寺尾６丁目４番５号,,14,101,2300077,,,2022-01-11,清算の結了等,,,2015-10-05,1,,,,,アキプランニング,0
1770,6021002034169,登記記録の閉鎖等,0,2022-01-13,2022-01-07,有限会社第二十九作業所,,有限会社,神奈川県,愛甲郡愛川町,三増１０２４番地１４,,14,401,2430308,,,2022-01-07,清算の結了等,,,2015-10-05,1,,,,,ダイニジュウキュウサギョウショ,0
1776,6030001062592,登記記録の閉鎖等,0,2022-01-13,2022-01-06,サクサプレシジョン株式会社,,株式会社,東京都,新宿区,西新宿１丁目１９番５号,,13,104,1600023,,,2022-01-06,合併による解散等,1390001009967,令和４年１月１日山形県米沢市八幡原四丁目３１４６番地の１３サクサテクノ株式会社（1390001009967）に合併し解散,2015-10-05,1,,,,,サクサプレシジョン,0
1788,6040001118220,登記記録の閉鎖等,0,2022-01-13,2022-01-05,セントラル総業株式会社,,株式会社,千葉県,八千代市,ゆりのき台７丁目１５番地１パーク田中１０２号,,12,221,2760042,,,2022-01-05,清算の結了等,,,2021-04-30,1,,,,,セントラルソウギョウ,0
1806,6090001009043,登記記録の閉鎖等,0,2022-01-13,2022-01-13,株式会社甲州銀行,,株式会社,山梨県,甲州市,塩山上於曽１０７９番地,,19,213,4040042,,,2022-01-13,登記官による閉鎖,,,2015-10-05,1,,,,,,0
1808,6090002000711,登記記録の閉鎖等,0,2022-01-13,2022-01-13,鹿島田通信有限会社,,有限会社,山梨県,甲府市,大里町４０９７番地,,19,201,4000053,,,2022-01-13,登記官による閉鎖,,,2015-10-05,1,,,,,,0
1809,6090002006106,登記記録の閉鎖等,0,2022-01-13,2022-01-13,有限会社佐藤建材運輸,,有限会社,山梨県,甲府市,荒川２丁目３番２３号,,19,201,4000061,,,2022-01-13,登記官による閉鎖,,,2015-10-05,1,,,,,,0
1810,6090002006527,登記記録の閉鎖等,0,2022-01-13,2022-01-13,有限会社ＮＥＳＴ,,有限会社,山梨県,甲府市,相生３丁目８番２６号,,19,201,4000858,,,2022-01-13,登記官による閉鎖,,,2015-10-05,1,,,,,,0
1811,6090002008911,登記記録の閉鎖等,0,2022-01-13,2022-01-13,有限会社森企画,,有限会社,山梨県,笛吹市,一宮町東原１７２番地,,19,211,4050075,,,2022-01-13,登記官による閉鎖,,,2015-10-05,1,,,,,,0
1812,6090005003199,登記記録の閉鎖等,0,2022-01-13,2022-01-13,山梨織物協同組合,,その他の設立登記法人,山梨県,大月市,大月町花咲１６０２番地の２,,19,206,4010015,,,2022-01-13,登記官による閉鎖,,,2015-10-05,1,,,,,,0
1813,6090005007010,登記記録の閉鎖等,0,2022-01-13,2022-01-13,忍野村忍草第八農事実行組合,,その他の設立登記法人,山梨県,南都留郡忍野村,,,19,424,4010500,,,2022-01-13,登記官による閉鎖,,,2016-10-04,1,,,,,,0
1849,6130001012901,登記記録の閉鎖等,0,2022-01-13,2022-01-06,大栄電設工業株式会社,,株式会社,京都府,京都市南区,上鳥羽高畠町１０６番地１,,26,107,6018101,,,2022-01-06,清算の結了等,,,2015-10-05,1,,,,,ダイエイデンセツコウギョウ,0
1856,6140001077571,登記記録の閉鎖等,0,2022-01-13,2022-01-04,デスモス株式会社,,株式会社,兵庫県,姫路市,北条１丁目７９番地,,28,201,6700947,,,2022-01-04,合併による解散等,7140001059783,令和４年１月１日兵庫県姫路市北条１０３３番地の１大伸開発株式会社（7140001059783）に合併し解散,2015-10-05,1,,,,,デスモス,0
1873,6180001120071,登記記録の閉鎖等,0,2022-01-13,2022-01-07,株式会社テクノメント,,株式会社,愛知県,名古屋市西区,長先町２９１番地１,,23,104,4520838,,,2022-01-07,清算の結了等,,,2015-10-05,1,,,,,テクノメント,0
1891,6220001008799,登記記録の閉鎖等,0,2022-01-13,2022-01-12,株式会社ダイケン,,株式会社,石川県,能美郡川北町,字土室丁８１番地,,17,324,9231261,,,2022-01-12,登記官による閉鎖,,,2015-10-05,1,,,,,,0
1892,6220002009961,登記記録の閉鎖等,0,2022-01-13,2022-01-12,有限会社米澤義直商店,,有限会社,石川県,金沢市,松村７丁目８７番地,,17,201,9200348,,,2022-01-12,登記官による閉鎖,,,2015-10-05,1,,,,,,0
1893,6220002011397,登記記録の閉鎖等,0,2022-01-13,2022-01-12,有限会社吉川組,,有限会社,石川県,小松市,安宅新町ニ１番地１,,17,203,9230995,,,2022-01-12,登記官による閉鎖,,,2015-10-05,1,,,,,,0
1894,6220002012734,登記記録の閉鎖等,0,2022-01-13,2022-01-12,有限会社ハンズ・オクノ,,有限会社,石川県,加賀市,白山台８番地４２,,17,206,9220437,,,2022-01-12,登記官による閉鎖,,,2015-10-05,1,,,,,,0
1896,6230001010192,登記記録の閉鎖等,0,2022-01-13,2022-01-13,株式会社翔永,,株式会社,富山県,高岡市,野村１６６１番地ユニゾンビル５階,,16,202,9330014,,,2022-01-13,登記官による閉鎖,,,2015-10-05,1,,,,,,0
1897,6230002003344,登記記録の閉鎖等,0,2022-01-13,2022-01-13,有限会社政よし,,有限会社,富山県,富山市,西町９番６号,,16,201,9300062,,,2022-01-13,登記官による閉鎖,,,2015-10-05,1,,,,,,0
1898,6230005005445,登記記録の閉鎖等,0,2022-01-13,2022-01-13,協同組合サンキョ,,その他の設立登記法人,富山県,砺波市,矢木１４５０番地,,16,208,9391317,,,2022-01-13,登記官による閉鎖,,,2015-10-05,1,,,,,,0
1917,6290001051009,登記記録の閉鎖等,0,2022-01-13,2021-12-28,株式会社協和電設,,株式会社,福岡県,久留米市,田主丸町以真恵２５６番地の８,,40,203,8391223,,,2021-12-28,清算の結了等,,,2015-10-05,1,,,,,キョウワデンセツ,0
1952,6390002008567,登記記録の閉鎖等,0,2022-01-13,2022-01-06,有限会社ワコーデンタルラボラトリー,,有限会社,山形県,東田川郡庄内町,余目字猿田４番地の１２,,06,428,9997781,,,2022-01-06,清算の結了等,,,2015-10-05,1,,,,,ワコーデンタルラボラトリー,0
1956,6430001036770,登記記録の閉鎖等,0,2022-01-13,2022-01-06,株式会社ダイフク,,株式会社,北海道,札幌市東区,北二十一条東１丁目３番８号,,01,103,0650021,,,2022-01-06,清算の結了等,,,2015-10-05,1,,,,,ダイフク,0
1958,6430001072072,登記記録の閉鎖等,0,2022-01-13,2022-01-06,ＦＪトレード株式会社,,株式会社,北海道,札幌市中央区,南六条西１３丁目３番１２号,,01,101,0640806,,,2022-01-06,清算の結了等,,,2016-08-01,1,,,,,エフジェイトレード,0
1962,6470001005499,登記記録の閉鎖等,0,2022-01-13,2022-01-06,宮地建材工業株式会社,,株式会社,香川県,高松市,郷東町７９６番地６８,,37,201,7618031,,,2022-01-06,清算の結了等,,,2021-10-19,1,,,,,ミヤジケンザイコウギョウ,0
1963,6470001009483,登記記録の閉鎖等,0,2022-01-13,2022-01-12,株式会社正勇,,株式会社,香川県,丸亀市,郡家町１５２９番地１,,37,202,7630093,,,2022-01-12,登記官による閉鎖,,,2015-10-05,1,,,,,,0
1964,6470001010128,登記記録の閉鎖等,0,2022-01-13,2022-01-12,山下海産株式会社,,株式会社,香川県,観音寺市,柞田町丙１８６１番地１,,37,205,7680040,,,2022-01-12,登記官による閉鎖,,,2015-10-05,1,,,,,,0
1965,6470001015473,登記記録の閉鎖等,0,2022-01-13,2022-01-12,日本分譲住宅株式会社,,株式会社,香川県,高松市,木太町３２３４番地の８,,37,201,7600080,,,2022-01-12,登記官による閉鎖,,,2015-12-28,1,,,,,,0
1969,6470002000185,登記記録の閉鎖等,0,2022-01-13,2022-01-12,丸愛石材有限会社,,有限会社,香川県,高松市,庵治町６３９１番地７７,,37,201,7610130,,,2022-01-12,登記官による閉鎖,,,2015-10-05,1,,,,,,0
1970,6470002005688,登記記録の閉鎖等,0,2022-01-13,2022-01-12,有限会社ビューロー・なかむら,,有限会社,香川県,高松市,錦町１丁目１６番７号,,37,201,7600020,,,2022-01-12,登記官による閉鎖,,,2015-10-05,1,,,,,,0
1971,6470002010655,登記記録の閉鎖等,0,2022-01-13,2022-01-12,有限会社石材センター三木,,有限会社,香川県,木田郡三木町,大字井上２１８８番地,,37,341,7610705,,,2022-01-12,登記官による閉鎖,,,2015-10-05,1,,,,,,0
1973,6470005002022,登記記録の閉鎖等,0,2022-01-13,2022-01-12,特定非営利活動法人民間災害管理機構,,その他の設立登記法人,香川県,高松市,今里町２丁目９番地８,,37,201,7600078,,,2022-01-12,登記官による閉鎖,,,2015-10-05,1,,,,,,0
1974,6470005003664,登記記録の閉鎖等,0,2022-01-13,2022-01-12,協同組合ＩＢＵ香川,,その他の設立登記法人,香川県,丸亀市,飯山町東坂元３２２８番地,,37,202,7620081,,,2022-01-12,登記官による閉鎖,,,2015-10-05,1,,,,,,0
1977,6490001002008,登記記録の閉鎖等,0,2022-01-13,2022-01-13,株式会社富士ビルド,,株式会社,高知県,高知市,南万々８８番地,,39,201,7800971,,,2022-01-13,登記官による閉鎖,,,2015-10-05,1,,,,,,0
1980,6490002003649,登記記録の閉鎖等,0,2022-01-13,2022-01-13,徳村建設有限会社,,有限会社,高知県,高知市,神田１７４６番地２４,,39,201,7808040,,,2022-01-13,登記官による閉鎖,,,2015-10-05,1,,,,,,0
1981,6490002007550,登記記録の閉鎖等,0,2022-01-13,2022-01-13,有限会社エムシステム,,有限会社,高知県,高知市,一宮西町４丁目２２番２９号,,39,201,7818136,,,2022-01-13,登記官による閉鎖,,,2015-10-05,1,,,,,,0
1982,6490002009381,登記記録の閉鎖等,0,2022-01-13,2022-01-13,有限会社いの工業,,有限会社,高知県,吾川郡いの町,池ノ内６５３番地３,,39,386,7812121,,,2022-01-13,登記官による閉鎖,,,2015-10-05,1,,,,,,0
1983,6490002011305,登記記録の閉鎖等,0,2022-01-13,2022-01-13,有限会社太陽精機,,有限会社,高知県,香美市,土佐山田町植１９８番地１,,39,212,7820054,,,2022-01-13,登記官による閉鎖,,,2015-10-05,1,,,,,,0
1984,6490002012063,登記記録の閉鎖等,0,2022-01-13,2022-01-13,有限会社優美ヘルス,,有限会社,高知県,南国市,里改田２３７５番地,,39,204,7830082,,,2022-01-13,登記官による閉鎖,,,2015-10-05,1,,,,,,0
1985,6490002012633,登記記録の閉鎖等,0,2022-01-13,2022-01-13,有限会社ムラカミ写植オフィス,,有限会社,高知県,香南市,香我美町山北９５０番地１,,39,211,7815453,,,2022-01-13,登記官による閉鎖,,,2015-10-05,1,,,,,,0
1986,6490005005642,登記記録の閉鎖等,0,2022-01-13,2022-01-13,無限責任中間法人マナゴ坂生産組合,,その他の設立登記法人,高知県,室戸市,羽根町乙２９１３番地,,39,202,7816742,,,2022-01-13,登記官による閉鎖,,,2015-10-05,1,,,,,,0
2001,7010003024055,登記記録の閉鎖等,0,2022-01-13,2022-01-07,合同会社アミ・アソシエイツ,,合同会社,神奈川県,横浜市保土ケ谷区,岡沢町２７１番地の１１,,14,106,2400062,,,2022-01-07,清算の結了等,,,2016-09-06,1,,,,,アミアソシエイツ,0
2011,7010401114655,登記記録の閉鎖等,0,2022-01-13,2022-01-04,株式会社Ｒｅｉｊｕ,,株式会社,東京都,港区,南青山２丁目２８番５－５０２号,,13,103,1070062,,,2022-01-04,清算の結了等,,,2015-10-05,1,,,,,,0
2017,7010601020166,登記記録の閉鎖等,0,2022-01-13,2022-01-05,滝浦商事株式会社,,株式会社,東京都,墨田区,菊川１丁目７番１１号,,13,107,1300024,,,2022-01-05,清算の結了等,,,2015-10-05,1,,,,,タキウラショウジ,0
2054,7011501019620,登記記録の閉鎖等,0,2022-01-13,2021-12-28,株式会社Ｄ・Ａ,,株式会社,東京都,北区,王子１丁目２２番２号王子一番街ビル２０３号室,,13,117,1140002,,,2021-12-28,清算の結了等,,,2015-10-05,1,,,,,ディーエー,0
2064,7012401003169,登記記録の閉鎖等,0,2022-01-13,2022-01-13,ティー・エス・エム株式会社,,株式会社,東京都,武蔵野市,境２丁目２番１５号グレンデュウシブヤ３０１,,13,203,1800022,,,2022-01-13,登記官による閉鎖,,,2015-10-05,1,,,,,,0
2065,7012401010181,登記記録の閉鎖等,0,2022-01-13,2022-01-13,株式会社新夢建築企画,,株式会社,東京都,調布市,国領町８丁目２番地９ライフタウン国領２－８１２,,13,208,1820022,,,2022-01-13,登記官による閉鎖,,,2015-10-05,1,,,,,,0
2066,7012401012178,登記記録の閉鎖等,0,2022-01-13,2022-01-13,株式会社アリマ,,株式会社,東京都,三鷹市,井口４丁目５番１１号,,13,204,1810011,,,2022-01-13,登記官による閉鎖,,,2015-10-05,1,,,,,,0
2067,7012401020791,登記記録の閉鎖等,0,2022-01-13,2022-01-13,株式会社Ａ－ＢＡＳＥ,,株式会社,東京都,武蔵野市,西久保２丁目２８番３号,,13,203,1800013,,,2022-01-13,登記官による閉鎖,,,2015-10-05,1,,,,,,0
2069,7012401029676,登記記録の閉鎖等,0,2022-01-13,2022-01-04,株式会社ＮＣＩ,,株式会社,東京都,調布市,飛田給１丁目２９番地２セイガステージ飛田給,,13,208,1820036,,,2022-01-04,合併による解散等,3013401005852,令和４年１月１日東京都調布市飛田給一丁目２９番地２－１０３日鋼株式会社（3013401005852）に合併し解散,2015-10-05,1,,,,,エヌシーアイ,0
2071,7012402002979,登記記録の閉鎖等,0,2022-01-13,2022-01-13,有限会社来夢プランニング,,有限会社,東京都,府中市,南町６丁目３６番地３－２号,,13,206,1830026,,,2022-01-13,登記官による閉鎖,,,2015-10-05,1,,,,,,0
2072,7012402019288,登記記録の閉鎖等,0,2022-01-13,2022-01-13,有限会社テイ・アンド・ピー,,有限会社,東京都,三鷹市,中原２丁目１９番３７号,,13,204,1810005,,,2022-01-13,登記官による閉鎖,,,2015-10-05,1,,,,,,0
2073,7012402022011,登記記録の閉鎖等,0,2022-01-13,2022-01-13,有限会社ハウジングハラケン,,有限会社,東京都,武蔵野市,西久保３丁目１３番１９号,,13,203,1800013,,,2022-01-13,登記官による閉鎖,,,2015-10-05,1,,,,,,0
2074,7012402023554,登記記録の閉鎖等,0,2022-01-13,2022-01-13,有限会社Ｙマネージメント,,有限会社,東京都,調布市,国領町７丁目６９番地１７国領ロイヤルＤ２０６号,,13,208,1820022,,,2022-01-13,登記官による閉鎖,,,2015-10-05,1,,,,,,0
2075,7012405000567,登記記録の閉鎖等,0,2022-01-13,2022-01-13,東京ウエストビルメン協同組合,,その他の設立登記法人,東京都,府中市,白糸台５丁目３１番地の１,,13,206,1830011,,,2022-01-13,登記官による閉鎖,,,2015-10-05,1,,,,,,0
2076,7012405001747,登記記録の閉鎖等,0,2022-01-13,2022-01-13,特定非営利活動法人みなおし館,,その他の設立登記法人,東京都,武蔵野市,吉祥寺北町３丁目４番１号,,13,203,1800001,,,2022-01-13,登記官による閉鎖,,,2015-10-05,1,,,,,,0
2085,7013405000664,登記記録の閉鎖等,0,2022-01-13,2022-01-13,特定非営利活動法人タイムマシーンカンパニー,,その他の設立登記法人,東京都,多摩市,諏訪１丁目５３番地の２号ハウスアメニティ３０１号室,,13,224,2060024,,,2022-01-13,登記官による閉鎖,,,2015-10-05,1,,,,,,0
2090,7020001137080,登記記録の閉鎖等,0,2022-01-13,2022-01-07,株式会社オートプラザ,,株式会社,神奈川県,川崎市多摩区,東生田４丁目６番３号,,14,135,2140031,,,2022-01-07,清算の結了等,,,2020-08-03,1,,,,,オートプラザ,0
2101,7030001101465,登記記録の閉鎖等,0,2022-01-13,2022-01-05,株式会社ＫＩＺＵＮＡジャパン,,株式会社,栃木県,小山市,若木町１丁目１１番３７号,,09,208,3230028,,,2022-01-05,合併による解散等,7030001096136,令和４年１月１日栃木県小山市若木町一丁目１１番３７号ＬＡマイスター株式会社（7030001096136）に合併し解散,2015-10-05,1,,,,,キズナジャパン,0
2106,7030002041339,登記記録の閉鎖等,0,2022-01-13,2021-12-22,有限会社日本修復院,,有限会社,埼玉県,加須市,外野５２６番地の３,,11,210,3470002,,,2021-12-22,清算の結了等,,,2015-10-05,1,,,,,,0
2117,7040002058258,登記記録の閉鎖等,0,2022-01-13,2022-01-07,株式会社水処理技研東関東,,株式会社,千葉県,鎌ケ谷市,初富８０１番地２２,,12,224,2730121,,,2022-01-07,合併による解散等,3012401001291,令和４年１月１日東京都府中市若松町三丁目１番１９号株式会社日本水処理技研（3012401001291）に合併し解散,2015-10-05,1,,,,,ミズショリギケンヒガシカントウ,0
2130,7090001000240,登記記録の閉鎖等,0,2022-01-13,2022-01-13,株式会社笹之池工務店,,株式会社,山梨県,甲府市,新田町１５番１３号,,19,201,4000066,,,2022-01-13,登記官による閉鎖,,,2015-10-05,1,,,,,,0
2131,7090001012426,登記記録の閉鎖等,0,2022-01-13,2022-01-13,南部金融株式会社,,株式会社,山梨県,南巨摩郡南部町,南部８３２２番地,,19,366,4092212,,,2022-01-13,登記官による閉鎖,,,2015-10-05,1,,,,,,0
2132,7090002012920,登記記録の閉鎖等,0,2022-01-13,2022-01-13,有限会社渡辺建業,,有限会社,山梨県,南都留郡富士河口湖町,船津３５９４番地の４,,19,430,4010301,,,2022-01-13,登記官による閉鎖,,,2015-10-05,1,,,,,,0
2134,7090005000583,登記記録の閉鎖等,0,2022-01-13,2022-01-13,甲府装身具工業協同組合,,その他の設立登記法人,山梨県,甲府市,宮原町８２番地の１,,19,201,4000058,,,2022-01-13,登記官による閉鎖,,,2015-10-05,1,,,,,,0
2135,7090005004163,登記記録の閉鎖等,0,2022-01-13,2022-01-13,東伸裏地協同組合,,その他の設立登記法人,山梨県,富士吉田市,下吉田４２２番地,,19,202,4030004,,,2022-01-13,登記官による閉鎖,,,2015-10-05,1,,,,,,0
2138,7100005002611,登記記録の閉鎖等,0,2022-01-13,2022-01-12,医療法人さわやか会,,その他の設立登記法人,長野県,長野市,松代町松代１５２番地２,,20,201,3811231,,,2022-01-12,清算の結了等,,,2015-10-05,1,,,,,サワヤカカイ,0
2140,7110003001911,登記記録の閉鎖等,0,2022-01-13,2022-01-06,合資会社大晟興産,,合資会社,新潟県,長岡市,御山町９５番地１０,,15,202,9400828,,,2022-01-06,清算の結了等,,,2015-10-05,1,,,,,タイセイコウサン,0
2143,7120001059678,登記記録の閉鎖等,0,2022-01-13,2022-01-07,日本ポリエステル株式会社,,株式会社,大阪府,大阪市北区,梅田３丁目１番３号（ノースゲートビルディング）,,27,127,5300001,,,2022-01-07,清算の結了等,,,2015-10-05,1,,,,,ニッポンポリエステル,0
2170,7120901016992,登記記録の閉鎖等,0,2022-01-13,2022-01-11,株式会社ｔｎｓ,,株式会社,大阪府,吹田市,竹見台４丁目８番Ａ２－３０５号,,27,205,5650863,,,2022-01-11,清算の結了等,,,2015-10-05,1,,,,,ティエヌエス,0
2203,7200001007694,登記記録の閉鎖等,0,2022-01-13,2022-01-12,川島繊維株式会社,,株式会社,岐阜県,各務原市,川島河田町１０５９番地,,21,213,5016025,,,2022-01-12,清算の結了等,,,2015-10-05,1,,,,,カワシマセンイ,0
2210,7220001010952,登記記録の閉鎖等,0,2022-01-13,2022-01-12,株式会社アドバンスドプロダクツ,,株式会社,石川県,金沢市,鞍月３丁目４５番地,,17,201,9208203,,,2022-01-12,登記官による閉鎖,,,2015-10-05,1,,,,,,0
2211,7220001010985,登記記録の閉鎖等,0,2022-01-13,2022-01-12,ニュージャパントータルサービス株式会社,,株式会社,石川県,金沢市,広岡１丁目１７番２０号,,17,201,9200031,,,2022-01-12,登記官による閉鎖,,,2015-10-05,1,,,,,,0
2213,7220002014044,登記記録の閉鎖等,0,2022-01-13,2022-01-07,有限会社ひらやま内装,,有限会社,石川県,七尾市,飯川町く部６２番地,,17,202,9260826,,,2022-01-07,清算の結了等,,,2015-10-05,1,,,,,ヒラヤマナイソウ,0
2216,7230005006054,登記記録の閉鎖等,0,2022-01-13,2022-01-13,高岡市ホテル旅館事業協同組合,,その他の設立登記法人,富山県,高岡市,大手町１２番１１号,,16,202,9330039,,,2022-01-13,登記官による閉鎖,,,2015-10-05,1,,,,,,0
2234,7290003005787,登記記録の閉鎖等,0,2022-01-13,2022-01-06,合同会社ＹＭＧ会計,,合同会社,福岡県,飯塚市,楽市６８番地６,,40,205,8200074,,,2022-01-06,清算の結了等,,,2015-10-05,1,,,,,ワイエムジーカイケイ,0
2270,7370001019483,登記記録の閉鎖等,0,2022-01-13,2022-01-11,株式会社アスアール,,株式会社,宮城県,仙台市青葉区,本町１丁目１番８号,,04,101,9800014,,,2022-01-11,合併による解散等,5380001006994,令和４年１月１日福島県郡山市字下亀田１７番地の７株式会社ル・プロジェ（5380001006994）に合併し解散,2015-10-05,1,,,,,,0
2277,7370002003164,登記記録の閉鎖等,0,2022-01-13,2022-01-11,有限会社菅井工業,,有限会社,宮城県,仙台市太白区,西中田７丁目１９番４０号,,04,104,9811105,,,2022-01-11,清算の結了等,,,2015-10-05,1,,,,,スガイコウギョウ,0
2298,7470001010928,登記記録の閉鎖等,0,2022-01-13,2022-01-12,株式会社パレスコーポレーション,,株式会社,香川県,観音寺市,豊浜町姫浜１０７６番地,,37,205,7691601,,,2022-01-12,登記官による閉鎖,,,2015-10-05,1,,,,,,0
2299,7470001012494,登記記録の閉鎖等,0,2022-01-13,2022-01-11,株式会社Ｋ＆Ｈ,,株式会社,香川県,高松市,香川町大野１３２番地１メゾンロイヤルＢ－２０３号,,37,201,7611701,,,2022-01-11,清算の結了等,,,2015-10-05,1,,,,,ケイアンドエイチ,0
2302,7470002001323,登記記録の閉鎖等,0,2022-01-13,2022-01-12,有限会社エクセル産業,,有限会社,香川県,高松市,亀田南町１４３番地７,,37,201,7610432,,,2022-01-12,登記官による閉鎖,,,2015-10-05,1,,,,,,0
2303,7470002003105,登記記録の閉鎖等,0,2022-01-13,2022-01-12,佐々木商店有限会社,,有限会社,香川県,高松市,花園町１丁目１２番１３号,,37,201,7600072,,,2022-01-12,登記官による閉鎖,,,2015-10-05,1,,,,,,0
2304,7470002004978,登記記録の閉鎖等,0,2022-01-13,2022-01-12,有限会社鳥井デザイン,,有限会社,香川県,高松市,鶴市町２００８番地２７,,37,201,7618032,,,2022-01-12,登記官による閉鎖,,,2016-03-31,1,,,,,,0
2305,7470002007147,登記記録の閉鎖等,0,2022-01-13,2022-01-12,有限会社山下友成商店,,有限会社,香川県,高松市,高松町２４２７番地,,37,201,7610104,,,2022-01-12,登記官による閉鎖,,,2015-10-05,1,,,,,,0
2306,7470002010316,登記記録の閉鎖等,0,2022-01-13,2022-01-12,松本産業有限会社,,有限会社,香川県,高松市,国分寺町新居１６５７番地の６,,37,201,7690101,,,2022-01-12,登記官による閉鎖,,,2015-10-05,1,,,,,,0
2307,7470002010398,登記記録の閉鎖等,0,2022-01-13,2022-01-12,有限会社グローバルアート,,有限会社,香川県,高松市,藤塚町３丁目１４番１５‐３０４号,,37,201,7600071,,,2022-01-12,登記官による閉鎖,,,2015-10-05,1,,,,,,0
2308,7470002011636,登記記録の閉鎖等,0,2022-01-13,2022-01-12,寿屋酒類販売有限会社,,有限会社,香川県,綾歌郡宇多津町,浜五番丁６５番地,,37,386,7690205,,,2022-01-12,登記官による閉鎖,,,2015-10-05,1,,,,,,0
2309,7470002011784,登記記録の閉鎖等,0,2022-01-13,2022-01-12,下川商事有限会社,,有限会社,香川県,綾歌郡宇多津町,浜八番丁１２２番地９,,37,386,7690208,,,2022-01-12,登記官による閉鎖,,,2015-10-05,1,,,,,,0
2310,7470002018185,登記記録の閉鎖等,0,2022-01-13,2022-01-12,有限会社レヴィー,,有限会社,香川県,さぬき市,志度５００６番地３２,,37,206,7692101,,,2022-01-12,登記官による閉鎖,,,2015-10-05,1,,,,,,0
2312,7490002009348,登記記録の閉鎖等,0,2022-01-13,2022-01-13,有限会社野村土木,,有限会社,高知県,宿毛市,坂ノ下大浦９１６番地４,,39,208,7880053,,,2022-01-13,登記官による閉鎖,,,2015-10-05,1,,,,,,0
2314,7490005001715,登記記録の閉鎖等,0,2022-01-13,2022-01-13,高知県土建産業協同組合,,その他の設立登記法人,高知県,高知市,介良乙３６７５番地,,39,201,7815106,,,2022-01-13,登記官による閉鎖,,,2015-10-05,1,,,,,,0
2320,8010001143855,登記記録の閉鎖等,0,2022-01-13,2022-01-11,オーシャンエンタープライズ株式会社,,株式会社,神奈川県,横浜市保土ケ谷区,川辺町２番地４アリュール横濱星川３０７号,,14,106,2400001,,,2022-01-11,清算の結了等,,,2015-10-05,1,,,,,オーシャンエンタープライズ,0
2331,8010401129537,登記記録の閉鎖等,0,2022-01-13,2022-01-07,サントリーコミュニケーションズ株式会社,,株式会社,東京都,港区,台場２丁目３番３号,,13,103,1350091,,,2022-01-07,合併による解散等,3120001136159,令和４年１月１日大阪市北区堂島浜二丁目１番４０号サントリーホールディングス株式会社（3120001136159）に合併し解散,2017-02-07,1,,,,,サントリーコミュニケーションズ,0
2344,8010701011221,登記記録の閉鎖等,0,2022-01-13,2022-01-04,株式会社スポーツプログラムス,,株式会社,東京都,港区,海岸３丁目３番１５号,,13,103,1080022,,,2022-01-04,合併による解散等,6010702009514,令和４年１月１日東京都港区海岸三丁目３番１５号株式会社フィットネスアポロ社（6010702009514）に合併し解散,2015-10-05,1,,,,,スポーツプログラムス,0
2345,8010901014362,登記記録の閉鎖等,0,2022-01-13,2022-01-06,アウディジャパン株式会社,,株式会社,東京都,品川区,北品川４丁目７番３５号,,13,109,1400001,,,2022-01-06,合併による解散等,4180301006914,令和４年１月１日愛知県豊橋市明海町５番地の１０フォルクスワーゲングループジャパン株式会社（4180301006914）に合併し解散,2015-10-05,1,,,,,アウディジャパン,0
2359,8011005006858,登記記録の閉鎖等,0,2022-01-13,2021-12-28,一般財団法人ブロックチェーン技能認定協会,,その他の設立登記法人,東京都,港区,虎ノ門４丁目１－２８,,13,103,1050001,,,2021-12-28,清算の結了等,,,2016-08-17,1,,,,,ブロックチェーンギノウニンテイキョウカイ,0
2368,8011801013116,登記記録の閉鎖等,0,2022-01-13,2022-01-12,渡邊商事株式会社,00057035,株式会社,東京都,足立区,千住２丁目３７番地,,13,121,1200034,,,2022-01-12,清算の結了等,,,2015-10-05,1,,,,,ワタナベショウジ,0
2369,8011801019591,登記記録の閉鎖等,0,2022-01-13,2022-01-11,株式会社エイト商事,,株式会社,東京都,足立区,関原３丁目３７番２号,,13,121,1230852,,,2022-01-11,清算の結了等,,,2015-10-05,1,,,,,エイトショウジ,0
2371,8012401004892,登記記録の閉鎖等,0,2022-01-13,2022-01-13,株式会社小川工房,,株式会社,東京都,府中市,浅間町４丁目９番地の１７,,13,206,1830001,,,2022-01-13,登記官による閉鎖,,,2015-10-05,1,,,,,,0
2372,8012401005263,登記記録の閉鎖等,0,2022-01-13,2022-01-13,株式会社シーダース,,株式会社,東京都,調布市,佐須町３丁目６番地２５,,13,208,1820016,,,2022-01-13,登記官による閉鎖,,,2015-10-05,1,,,,,,0
2373,8012401016054,登記記録の閉鎖等,0,2022-01-13,2022-01-13,株式会社バードオブパラダイス,,株式会社,東京都,武蔵野市,吉祥寺北町３丁目７番２５号,,13,203,1800001,,,2022-01-13,登記官による閉鎖,,,2015-10-05,1,,,,,,0
2374,8012401018554,登記記録の閉鎖等,0,2022-01-13,2022-01-13,Ｚｅｎ－Ｃｉｔｉ　Ｔｅｃｈｎｏｌｏｇｙ　Ｃｏｍｐａｎｙ株式会社,,株式会社,東京都,武蔵野市,境１丁目１９－１３－２０３,,13,203,1800022,,,2022-01-13,登記官による閉鎖,,,2015-10-05,1,,,,,,0
2375,8012401021566,登記記録の閉鎖等,0,2022-01-13,2022-01-13,株式会社鳳来興産,,株式会社,東京都,調布市,国領町５丁目６番地２－１０２,,13,208,1820022,,,2022-01-13,登記官による閉鎖,,,2015-10-05,1,,,,,,0
2376,8012401035863,登記記録の閉鎖等,0,2022-01-13,2022-01-05,株式会社ｒｕｒｉｈａｒｉ,,株式会社,東京都,狛江市,猪方１丁目１０番１９号,,13,219,2010015,,,2022-01-05,清算の結了等,,,2019-10-23,1,,,,,ルリハリ,0
2377,8012402004990,登記記録の閉鎖等,0,2022-01-13,2022-01-13,有限会社笹屋商事,,有限会社,東京都,小金井市,前原町３丁目４０番２６号,,13,210,1840013,,,2022-01-13,登記官による閉鎖,,,2015-10-05,1,,,,,,0
2378,8012402015872,登記記録の閉鎖等,0,2022-01-13,2022-01-13,有限会社アイサービス,,有限会社,東京都,調布市,若葉町２丁目２２番地１０,,13,208,1820003,,,2022-01-13,登記官による閉鎖,,,2015-10-05,1,,,,,,0
2379,8012403001203,登記記録の閉鎖等,0,2022-01-13,2022-01-13,合同会社フロンティア,,合同会社,東京都,府中市,若松町３丁目４番地の２４,,13,206,1830005,,,2022-01-13,登記官による閉鎖,,,2015-10-05,1,,,,,,0
2385,8013401001888,登記記録の閉鎖等,0,2022-01-13,2022-01-06,株式会社システム・クリエイト,,株式会社,東京都,稲城市,坂浜３９２－１,,13,225,2060822,,,2022-01-06,清算の結了等,,,2015-10-05,1,,,,,システムクリエイト,0
2386,8013402002472,登記記録の閉鎖等,0,2022-01-13,2022-01-13,有限会社多摩商会,,有限会社,東京都,多摩市,永山２丁目１５番地１６－５０１号,,13,224,2060025,,,2022-01-13,登記官による閉鎖,,,2015-10-05,1,,,,,,0
2388,8020001046933,登記記録の閉鎖等,0,2022-01-13,2022-01-06,株式会社ＤＴＭ－Ｃ,,株式会社,神奈川県,横浜市戸塚区,戸塚町３９２９番地サンシャイン渡辺ビル２０２号,,14,110,2440003,,,2022-01-06,清算の結了等,,,2015-10-05,1,,,,,ディティエムシー,0
2396,8020002019310,登記記録の閉鎖等,0,2022-01-13,2022-01-07,有限会社田建築設計事務所,,有限会社,神奈川県,横浜市港南区,丸山台４丁目８番３０－４１０号,,14,111,2330013,,,2022-01-07,清算の結了等,,,2015-10-05,1,,,,,デンケンチクセッケイジムショ,0
2415,8040001000822,登記記録の閉鎖等,0,2022-01-13,2022-01-04,株式会社エー・シー・グローブ,,株式会社,千葉県,市原市,五井５５１１番地２,,12,219,2900056,,,2022-01-04,合併による解散等,2040001008276,令和４年１月１日千葉市中央区本町二丁目９番１３号株式会社ピー・エフ・オー（2040001008276）に合併し解散,2015-10-05,1,,,,,エーシーグローブ,0
2423,8050005003465,登記記録の閉鎖等,0,2022-01-13,2021-12-28,特定非営利活動法人茨城グループホーム協会,00023630,その他の設立登記法人,茨城県,かすみがうら市,下稲吉２２７９番地３,,08,230,3150052,,,2021-12-28,清算の結了等,,,2015-10-05,1,,,,,イバラキグループホームキョウカイ,0
2426,8060001029810,登記記録の閉鎖等,0,2022-01-13,2022-01-04,御料会株式会社,,株式会社,栃木県,塩谷郡高根沢町,宝石台４丁目７番地１２,,09,386,3291231,,,2022-01-04,清算の結了等,,,2017-09-21,1,,,,,ゴリョウカイ,0
2437,8090001004356,登記記録の閉鎖等,0,2022-01-13,2022-01-13,株式会社佐和,,株式会社,山梨県,甲府市,伊勢１丁目２番２４号,,19,201,4000856,,,2022-01-13,登記官による閉鎖,,,2015-10-05,1,,,,,,0
2438,8090001007466,登記記録の閉鎖等,0,2022-01-13,2022-01-13,株式会社ファインズ,,株式会社,山梨県,甲府市,徳行２丁目７番１５号徳行第一マンション７０１号,,19,201,4000047,,,2022-01-13,登記官による閉鎖,,,2015-10-05,1,,,,,,0
2440,8090002001666,登記記録の閉鎖等,0,2022-01-13,2022-01-13,有限会社写真工房ライズ,,有限会社,山梨県,甲府市,徳行５丁目６番１号,,19,201,4000047,,,2022-01-13,登記官による閉鎖,,,2015-10-05,1,,,,,,0
2441,8090002001963,登記記録の閉鎖等,0,2022-01-13,2022-01-13,有限会社タカムラ,,有限会社,山梨県,甲府市,徳行１丁目７番６号,,19,201,4000047,,,2022-01-13,登記官による閉鎖,,,2015-10-05,1,,,,,,0
2442,8090002003885,登記記録の閉鎖等,0,2022-01-13,2022-01-13,有限会社フジハラ,,有限会社,山梨県,甲斐市,竜王新町８１５番地５,,19,210,4000111,,,2022-01-13,登記官による閉鎖,,,2015-10-05,1,,,,,,0
2443,8090002006558,登記記録の閉鎖等,0,2022-01-13,2022-01-13,手塚商事有限会社,,有限会社,山梨県,甲府市,富士見１丁目２２番４号,,19,201,4000027,,,2022-01-13,登記官による閉鎖,,,2016-09-20,1,,,,,,0
2444,8090002013166,登記記録の閉鎖等,0,2022-01-13,2022-01-13,有限会社アモンコーポレーション,,有限会社,山梨県,南都留郡富士河口湖町,船津５１８７番地の４,,19,430,4010301,,,2022-01-13,登記官による閉鎖,,,2015-10-05,1,,,,,,0
2445,8090005003214,登記記録の閉鎖等,0,2022-01-13,2022-01-13,社団法人大月青色申告会,,その他の設立登記法人,山梨県,大月市,駒橋１丁目２番２７号,,19,206,4010011,,,2022-01-13,登記官による閉鎖,,,2015-10-05,1,,,,,,0
2452,8120001034218,登記記録の閉鎖等,0,2022-01-13,2022-01-04,池田工業株式会社,,株式会社,大阪府,大阪市福島区,福島５丁目１７番２１号,,27,103,5530003,,,2022-01-04,合併による解散等,6120001034228,令和４年１月１日大阪市福島区福島五丁目１７番２１号池田株式会社（6120001034228）に合併し解散,2015-10-05,1,,,,,イケダコウギョウ,0
2453,8120001065907,登記記録の閉鎖等,0,2022-01-13,2022-01-06,株式会社セイワメタル,,株式会社,大阪府,大阪市北区,大淀南１丁目４番１号,,27,127,5310075,,,2022-01-06,合併による解散等,9010001060406,令和４年１月１日東京都台東区東上野四丁目２４番１１号ＡＧＣ硝子建材株式会社（9010001060406）に合併し解散,2015-10-05,1,,,,,セイワメタル,0
2482,8122001013168,登記記録の閉鎖等,0,2022-01-13,2022-01-07,トップ・スタータクシー株式会社,,株式会社,大阪府,東大阪市,東鴻池町４丁目５番２６号,,27,227,5780973,,,2022-01-07,清算の結了等,,,2015-10-05,1,,,,,トップスタータクシー,0
2483,8122001013465,登記記録の閉鎖等,0,2022-01-13,2022-01-11,株式会社オータムテック,,株式会社,大阪府,東大阪市,東石切町３丁目６番２７号,,27,227,5798011,,,2022-01-11,清算の結了等,,,2015-10-05,1,,,,,オータムテック,0
2491,8140003011262,登記記録の閉鎖等,0,2022-01-13,2022-01-06,合同会社神戸グリーン,,合同会社,兵庫県,神戸市東灘区,鴨子ケ原３丁目５番１１号,,28,101,6580064,,,2022-01-06,清算の結了等,,,2016-03-04,1,,,,,コウベグリーン,0
2495,8180001027439,登記記録の閉鎖等,0,2022-01-13,2022-01-05,株式会社明和商会,,株式会社,愛知県,名古屋市西区,上名古屋１丁目２番６号,,23,104,4510025,,,2022-01-05,合併による解散等,4180001093807,令和４年１月１日愛知県半田市瑞穂町九丁目１３番地の４杉江ビルＩＤＭ株式会社（4180001093807）に合併し解散,2015-10-05,1,,,,,メイワショウカイ,0
2496,8180001104576,登記記録の閉鎖等,0,2022-01-13,2022-01-12,株式会社クレアナディ,,株式会社,愛知県,名古屋市東区,葵３丁目１４番２０号,,23,102,4610004,,,2022-01-12,清算の結了等,,,2015-10-05,1,,,,,クレアナディ,0
2507,8180005009383,登記記録の閉鎖等,0,2022-01-13,2021-12-16,天理教前原南分教会,,その他の設立登記法人,愛知県,犬山市,大字前原字東野畔７１番地の１,,23,215,4840061,,,2021-12-16,合併による解散等,7180005009376,令和３年１２月１６日愛知県犬山市大字橋爪字巾屋敷３番地天理教岩橋分教会（7180005009376）に合併し解散,2015-10-05,1,,,,,テンリキョウハエハラミナミブンキョウカイ,0
2512,8190002021927,登記記録の閉鎖等,0,2022-01-13,2022-01-11,有限会社本田設計室,,有限会社,三重県,四日市市,楠町北五味塚９１９番地,,24,202,5100103,,,2022-01-11,清算の結了等,,,2015-10-05,1,,,,,ホンダセッケイシツ,0
2513,8190003002810,登記記録の閉鎖等,0,2022-01-13,2022-01-12,Ｊ’ｓ通商合同会社,,合同会社,三重県,四日市市,釆女が丘２丁目１８４番地,,24,202,5100953,,,2022-01-12,清算の結了等,,,2017-12-06,1,,,,,ジェイズツウショウ,0
2516,8220003001239,登記記録の閉鎖等,0,2022-01-13,2022-01-12,合同会社メディカルワークス,,合同会社,石川県,鹿島郡中能登町,徳前１５部８７番地,,17,407,9291817,,,2022-01-12,登記官による閉鎖,,,2015-10-05,1,,,,,,0
2517,8220005003010,登記記録の閉鎖等,0,2022-01-13,2022-01-12,特定非営利活動法人おまつり倶楽部,,その他の設立登記法人,石川県,白山市,相木町３８番地４,,17,210,9240022,,,2022-01-12,登記官による閉鎖,,,2015-10-05,1,,,,,,0
2518,8230001013160,登記記録の閉鎖等,0,2022-01-13,2022-01-13,株式会社新湊釣船センター,,株式会社,富山県,射水市,港町１９番７号,,16,211,9340002,,,2022-01-13,登記官による閉鎖,,,2015-10-05,1,,,,,,0
2520,8230001016460,登記記録の閉鎖等,0,2022-01-13,2022-01-13,正二電機販売株式会社,,株式会社,富山県,高岡市,宮田町２０番４号,,16,202,9330956,,,2022-01-13,登記官による閉鎖,,,2016-05-19,1,,,,,,0
2521,8230002011287,登記記録の閉鎖等,0,2022-01-13,2022-01-13,有限会社昌栄設備,,有限会社,富山県,高岡市,木津１５３８番地の１,,16,202,9330857,,,2022-01-13,登記官による閉鎖,,,2015-10-05,1,,,,,,0
2542,8300005003489,登記記録の閉鎖等,0,2022-01-13,2022-01-07,広平生産森林組合,,その他の設立登記法人,佐賀県,鹿島市,大字三河内己１９１番地,,41,207,8491315,,,2022-01-07,清算の結了等,,,2015-10-05,1,,,,,ヒロダイラ,0
2563,8370001044068,登記記録の閉鎖等,0,2022-01-13,2022-01-11,株式会社川村工業,,株式会社,宮城県,仙台市宮城野区,福室５丁目１番２６号,,04,102,9830005,,,2022-01-11,清算の結了等,,,2019-02-25,1,,,,,,0
2573,8410001007053,登記記録の閉鎖等,0,2022-01-13,2022-01-12,株式会社大原,,株式会社,秋田県,能代市,畠町３番８号,,05,202,0160821,,,2022-01-12,清算の結了等,,,2015-10-05,1,,,,,,0
2582,8470001000580,登記記録の閉鎖等,0,2022-01-13,2022-01-12,株式会社今屋,,株式会社,香川県,高松市,太田上町９５６番地,,37,201,7618074,,,2022-01-12,登記官による閉鎖,,,2015-10-05,1,,,,,,0
2586,8470002003599,登記記録の閉鎖等,0,2022-01-13,2022-01-12,有限会社嶋津酒店,,有限会社,香川県,高松市,屋島西町２４９１番地２,,37,201,7610113,,,2022-01-12,登記官による閉鎖,,,2015-10-05,1,,,,,,0
2587,8470002008004,登記記録の閉鎖等,0,2022-01-13,2022-01-12,有限会社アイエムエフ,,有限会社,香川県,高松市,亀田南町１１３番地２,,37,201,7610432,,,2022-01-12,登記官による閉鎖,,,2015-10-05,1,,,,,,0
2588,8470002012864,登記記録の閉鎖等,0,2022-01-13,2022-01-12,有限会社共同企画,,有限会社,香川県,善通寺市,大麻町３０９番地２６,,37,204,7650052,,,2022-01-12,登記官による閉鎖,,,2015-10-05,1,,,,,,0
2589,8490001003689,登記記録の閉鎖等,0,2022-01-13,2022-01-13,株式会社すしらんど,,株式会社,高知県,高知市,潮新町２丁目１２番３２号,,39,201,7808008,,,2022-01-13,登記官による閉鎖,,,2015-10-05,1,,,,,,0
2590,8490002001015,登記記録の閉鎖等,0,2022-01-13,2022-01-13,有限会社金子商店,,有限会社,高知県,高知市,百石町１丁目１０番１２号,,39,201,7808015,,,2022-01-13,登記官による閉鎖,,,2015-10-05,1,,,,,,0
2591,8490002011419,登記記録の閉鎖等,0,2022-01-13,2022-01-13,有限会社夢野運送,,有限会社,高知県,香美市,土佐山田町神母ノ木４１２番地４,,39,212,7820009,,,2022-01-13,登記官による閉鎖,,,2015-10-05,1,,,,,,0
2592,8490002012978,登記記録の閉鎖等,0,2022-01-13,2022-01-13,有限会社南ハイヤー,,有限会社,高知県,安芸郡田野町,２６７４番地８,,39,303,7816410,,,2022-01-13,登記官による閉鎖,,,2015-10-05,1,,,,,,0
2597,9010001027586,登記記録の閉鎖等,0,2022-01-13,2022-01-05,株式会社神田橋テック,,株式会社,東京都,千代田区,神田錦町３丁目１５番地,,13,101,1010054,,,2022-01-05,合併による解散等,6010001014587,令和４年１月１日東京都千代田区神田錦町三丁目１５番地株式会社錦精社（6010001014587）に合併し解散,2015-10-05,1,,,,,カンダバシテック,0
2600,9010001071452,登記記録の閉鎖等,0,2022-01-13,2022-01-04,株式会社アメリカン・ブック＆シネマ,,株式会社,東京都,千代田区,丸の内３丁目３番１号,,13,101,1000005,,,2022-01-04,合併による解散等,5010001013284,令和３年１２月３１日東京都千代田区丸の内三丁目３番１号株式会社オデッセイコミュニケーションズ（5010001013284）に合併し解散,2015-10-05,1,,,,,アメリカンブックアンドシネマ,0
2601,9010001159652,登記記録の閉鎖等,0,2022-01-13,2022-01-04,株式会社キドコロ,,株式会社,東京都,千代田区,神田佐久間町３丁目２１番地７熊谷ビル１Ｆ,,13,101,1010025,,,2022-01-04,清算の結了等,,,2015-10-05,1,,,,,キドコロ,0
2616,9010401081175,登記記録の閉鎖等,0,2022-01-13,2022-01-07,サントリーＭＯＮＯＺＵＫＵＲＩエキスパート株式会社,,株式会社,東京都,港区,台場２丁目３番３号,,13,103,1350091,,,2022-01-07,合併による解散等,3120001136159,令和４年１月１日大阪市北区堂島浜二丁目１番４０号サントリーホールディングス株式会社（3120001136159）に合併し解散,2015-10-05,1,,,,,サントリーモノヅクリエキスパート,0
2620,9010401088419,登記記録の閉鎖等,0,2022-01-13,2022-01-04,株式会社アスラボ,,株式会社,東京都,港区,南青山１丁目１５番３号ペガサスビル２階,,13,103,1070062,,,2022-01-04,清算の結了等,,,2015-10-05,1,,,,,アスラボ,0
2626,9010801010758,登記記録の閉鎖等,0,2022-01-13,2022-01-05,株式会社ヘルスィ・ケア,,株式会社,東京都,大田区,田園調布１丁目３８番８号,,13,111,1450071,,,2022-01-05,清算の結了等,,,2015-10-05,1,,,,,ヘルスィケア,0
2633,9010802014254,登記記録の閉鎖等,0,2022-01-13,2021-12-27,有限会社宮沢工務店,,有限会社,東京都,大田区,蒲田２丁目１番４号,,13,111,1440052,,,2021-12-27,清算の結了等,,,2015-10-05,1,,,,,ミヤザワコウムテン,0
2643,9011002000615,登記記録の閉鎖等,0,2022-01-13,2022-01-11,有限会社アリス企画,,有限会社,東京都,渋谷区,道玄坂２丁目２０番３号,,13,113,1500043,,,2022-01-11,合併による解散等,6010901013878,令和３年１２月３１日東京都世田谷区経堂二丁目６番３号株式会社ケントエステート（6010901013878）に合併し解散,2015-10-05,1,,,,,アリスキカク,0
2658,9011803004806,登記記録の閉鎖等,0,2022-01-13,2022-01-11,合同会社グリーンシステム,,合同会社,東京都,足立区,鹿浜３丁目３０番１２号第２ワイエスビル３０５,,13,121,1230864,,,2022-01-11,清算の結了等,,,2021-10-05,1,,,,,,0
2660,9012401003035,登記記録の閉鎖等,0,2022-01-13,2022-01-13,昭和工業株式会社,,株式会社,東京都,小金井市,東町４丁目１７番７号,,13,210,1840011,,,2022-01-13,登記官による閉鎖,,,2015-10-05,1,,,,,,0
2661,9012401008554,登記記録の閉鎖等,0,2022-01-13,2022-01-13,株式会社文林堂印刷所,,株式会社,東京都,調布市,国領町１丁目１７番地１５調布第２コーポラス２１５,,13,208,1820022,,,2022-01-13,登記官による閉鎖,,,2015-10-05,1,,,,,,0
2662,9012401010097,登記記録の閉鎖等,0,2022-01-13,2022-01-13,遠東国際商事株式会社,,株式会社,東京都,調布市,入間町１丁目４３番５７号,,13,208,1820004,,,2022-01-13,登記官による閉鎖,,,2015-10-05,1,,,,,,0
2663,9012401015567,登記記録の閉鎖等,0,2022-01-13,2022-01-13,株式会社ビズインターネット,,株式会社,東京都,府中市,矢崎町４丁目１番地,,13,206,1830025,,,2022-01-13,登記官による閉鎖,,,2015-10-05,1,,,,,,0
2664,9012401016367,登記記録の閉鎖等,0,2022-01-13,2022-01-13,株式会社芝商会,,株式会社,東京都,調布市,上石原２丁目２３番地２０,,13,208,1820035,,,2022-01-13,登記官による閉鎖,,,2015-10-05,1,,,,,,0
2666,9012402004932,登記記録の閉鎖等,0,2022-01-13,2021-12-28,有限会社コスモス,,有限会社,東京都,小金井市,貫井南町３丁目１７番２３号,,13,210,1840014,,,2021-12-28,清算の結了等,,,2015-10-05,1,,,,,コスモス,0
2667,9012402011383,登記記録の閉鎖等,0,2022-01-13,2022-01-13,有限会社小栄電工,,有限会社,東京都,調布市,西つつじケ丘４丁目５２番地３,,13,208,1820006,,,2022-01-13,登記官による閉鎖,,,2015-10-05,1,,,,,,0
2668,9012402013256,登記記録の閉鎖等,0,2022-01-13,2022-01-13,有限会社ケイエスモーター,,有限会社,東京都,狛江市,岩戸南４丁目１３番２号,,13,219,2010005,,,2022-01-13,登記官による閉鎖,,,2015-10-05,1,,,,,,0
2695,9030001038714,登記記録の閉鎖等,0,2022-01-13,2022-01-07,菊地化成株式会社,,株式会社,埼玉県,三郷市,鷹野２丁目４７８番地４,,11,237,3410035,,,2022-01-07,清算の結了等,,,2015-10-05,1,,,,,キクチカセイ,0
2720,9040002096157,登記記録の閉鎖等,0,2022-01-13,2022-01-05,有限会社マシモ保険事務所,,有限会社,千葉県,柏市,旭町４丁目１４番１６号,,12,217,2770852,,,2022-01-05,清算の結了等,,,2015-10-05,1,,,,,マシモホケンジムショ,0
2737,9090001000511,登記記録の閉鎖等,0,2022-01-13,2022-01-13,株式会社キタハイ,,株式会社,山梨県,甲府市,飯田４丁目３番５号,,19,201,4000035,,,2022-01-13,登記官による閉鎖,,,2015-10-05,1,,,,,,0
2740,9090002001343,登記記録の閉鎖等,0,2022-01-13,2022-01-13,有限会社青葉レンタカー,,有限会社,山梨県,甲府市,青葉町１１番３６号,,19,201,4000828,,,2022-01-13,登記官による閉鎖,,,2015-10-05,1,,,,,,0
2741,9090002002481,登記記録の閉鎖等,0,2022-01-13,2022-01-13,有限会社原品自動車工業所,,有限会社,山梨県,甲府市,向町３９４番地の２,,19,201,4000813,,,2022-01-13,登記官による閉鎖,,,2015-10-05,1,,,,,,0
2742,9090002006243,登記記録の閉鎖等,0,2022-01-13,2022-01-13,有限会社中込貿易,,有限会社,山梨県,笛吹市,一宮町坪井２６３番地２,,19,211,4050077,,,2022-01-13,登記官による閉鎖,,,2015-10-05,1,,,,,,0
2743,9090002006334,登記記録の閉鎖等,0,2022-01-13,2022-01-13,サープラス有限会社,,有限会社,山梨県,甲府市,中小河原１丁目１１番１０号アサヒ第２ビル３０１号,,19,201,4000855,,,2022-01-13,登記官による閉鎖,,,2015-10-05,1,,,,,,0
2744,9090002007431,登記記録の閉鎖等,0,2022-01-13,2022-01-13,有限会社シンゲン製作所,,有限会社,山梨県,南アルプス市,下市之瀬１５４５番地１０,,19,208,4000314,,,2022-01-13,登記官による閉鎖,,,2015-10-05,1,,,,,,0
2745,9090002008487,登記記録の閉鎖等,0,2022-01-13,2022-01-13,有限会社東営不動産,,有限会社,山梨県,笛吹市,石和町小石和１４７番地の１,,19,211,4060033,,,2022-01-13,登記官による閉鎖,,,2015-10-05,1,,,,,,0
2746,9090002008512,登記記録の閉鎖等,0,2022-01-13,2022-01-13,有限会社中善商事,,有限会社,山梨県,笛吹市,石和町松本１０７７番地３,,19,211,4060021,,,2022-01-13,登記官による閉鎖,,,2015-10-05,1,,,,,,0
2747,9090002009337,登記記録の閉鎖等,0,2022-01-13,2022-01-13,有限会社大月不動産,,有限会社,山梨県,大月市,御太刀１丁目８番１３号,,19,206,4010012,,,2022-01-13,登記官による閉鎖,,,2015-10-05,1,,,,,,0
2748,9090002011771,登記記録の閉鎖等,0,2022-01-13,2022-01-13,小佐野工業有限会社,,有限会社,山梨県,富士吉田市,上吉田１３４１番地の７４,,19,202,4030005,,,2022-01-13,登記官による閉鎖,,,2015-10-05,1,,,,,,0
2749,9090002012084,登記記録の閉鎖等,0,2022-01-13,2022-01-13,有限会社三合,,有限会社,山梨県,南都留郡山中湖村,平野２１６０番地,,19,425,4010502,,,2022-01-13,登記官による閉鎖,,,2015-10-05,1,,,,,,0
2750,9090005000375,登記記録の閉鎖等,0,2022-01-13,2022-01-13,甲府茶商業協同組合,,その他の設立登記法人,山梨県,甲府市,緑が丘２丁目１３番２２号,,19,201,4000008,,,2022-01-13,登記官による閉鎖,,,2015-10-05,1,,,,,,0
2751,9090005000499,登記記録の閉鎖等,0,2022-01-13,2022-01-13,山梨県電話加入者事業協同組合,,その他の設立登記法人,山梨県,甲府市,下飯田３丁目１番３５号,,19,201,4000064,,,2022-01-13,登記官による閉鎖,,,2015-10-05,1,,,,,,0
2752,9090005000532,登記記録の閉鎖等,0,2022-01-13,2022-01-13,山梨県花卉事業協同組合,,その他の設立登記法人,山梨県,甲府市,国母６丁目４番１号,,19,201,4000043,,,2022-01-13,登記官による閉鎖,,,2015-10-05,1,,,,,,0
2753,9090005001142,登記記録の閉鎖等,0,2022-01-13,2022-01-13,昇仙峡写真師事業協同組合,,その他の設立登記法人,山梨県,甲斐市,吉沢３８２１番地,,19,210,4001112,,,2022-01-13,登記官による閉鎖,,,2015-10-05,1,,,,,,0
2754,9090005002611,登記記録の閉鎖等,0,2022-01-13,2022-01-13,山梨県メディカルステーション協同組合,,その他の設立登記法人,山梨県,笛吹市,一宮町国分字大窪１０１４番地１,,19,211,4050074,,,2022-01-13,登記官による閉鎖,,,2015-10-05,1,,,,,,0
2759,9110001030456,登記記録の閉鎖等,0,2022-01-13,2022-01-04,株式会社佐渡バリューアップパートナーズ,,株式会社,新潟県,佐渡市,新穂潟上２４８６番地,,15,224,9520103,,,2022-01-04,清算の結了等,,,2015-10-05,1,,,,,サドバリューアップパートナーズ,0
2808,9180001122321,登記記録の閉鎖等,0,2022-01-13,2022-01-11,株式会社オフィスケイズ,,株式会社,東京都,港区,西麻布１丁目４番４８号,,13,103,1060031,,,2022-01-11,合併による解散等,2011001109760,令和３年１２月２０日東京都渋谷区道玄坂一丁目１５番３号株式会社Ｈ　ｐｌｕｓ　ＥＳＳＥＮＣＥ（2011001109760）に合併し解散,2016-03-02,1,,,,,オフィスケイズ,0
2824,9220001016378,登記記録の閉鎖等,0,2022-01-13,2022-01-12,株式会社シカ,,株式会社,石川県,羽咋郡志賀町,高浜町ノの３６番地,,17,384,9250141,,,2022-01-12,登記官による閉鎖,,,2015-10-05,1,,,,,,0
2825,9220002013754,登記記録の閉鎖等,0,2022-01-13,2022-01-12,有限会社コウエイ梱包,,有限会社,石川県,七尾市,万行町参〇部２番地,,17,202,9260012,,,2022-01-12,登記官による閉鎖,,,2015-10-05,1,,,,,,0
2826,9220002015247,登記記録の閉鎖等,0,2022-01-13,2022-01-12,有限会社藤田機業場,,有限会社,石川県,羽咋市,四柳町ち部２１番地,,17,207,9291573,,,2022-01-12,登記官による閉鎖,,,2015-10-05,1,,,,,,0
2827,9220003001221,登記記録の閉鎖等,0,2022-01-13,2022-01-12,合資会社八十島商店,,合資会社,石川県,羽咋市,柳田町ヘ．９番地１,,17,207,9250018,,,2022-01-12,登記官による閉鎖,,,2015-10-05,1,,,,,,0
2829,9230002005131,登記記録の閉鎖等,0,2022-01-13,2022-01-13,有限会社富山ホンダ自動車販売,,有限会社,富山県,富山市,於保多町３番１６号,,16,201,9300015,,,2022-01-13,登記官による閉鎖,,,2015-10-05,1,,,,,,0
2831,9230005003132,登記記録の閉鎖等,0,2022-01-13,2022-01-13,特定非営利活動法人とやま市民水車を創る会,,その他の設立登記法人,富山県,富山市,西金屋字高山６６７９番地３,,16,201,9300143,,,2022-01-13,登記官による閉鎖,,,2015-10-05,1,,,,,,0
2862,9300002010223,登記記録の閉鎖等,0,2022-01-13,2022-01-04,有限会社唐津中央サービス,,有限会社,佐賀県,唐津市,和多田本村３番２８－１号,,41,202,8470085,,,2022-01-04,合併による解散等,5300001001417,令和４年１月１日佐賀市唐人二丁目２番１２号中央保険サービス株式会社（5300001001417）に合併し解散,2015-10-05,1,,,,,カラツチュウオウサービス,0
2863,9300005005154,登記記録の閉鎖等,0,2022-01-13,2021-12-23,天理教西唐津分教会,,その他の設立登記法人,佐賀県,唐津市,西唐津３丁目６４６０番地,,41,202,8470875,,,2021-12-23,合併による解散等,8300005005147,令和３年１２月２３日佐賀県唐津市唐房六丁目４９０６番地天理教松浦分教会（8300005005147）に合併し解散,2015-10-05,1,,,,,,0
2872,9360002010424,登記記録の閉鎖等,0,2022-01-13,2022-01-07,有限会社東日産自動車,,有限会社,沖縄県,中頭郡西原町,字内間４８０番地２,,47,329,9030121,,,2022-01-07,合併による解散等,6360001008414,令和４年１月１日沖縄県浦添市仲西一丁目７番１号株式会社東日産自動車（6360001008414）に合併し解散,2015-10-05,1,,,,,アズマニッサンジドウシャ,0
2880,9380002025247,登記記録の閉鎖等,0,2022-01-13,2022-01-04,有限会社ナビオ,,有限会社,福島県,いわき市,平字月見町３３番地の５,,07,204,9708026,,,2022-01-04,合併による解散等,7380001013691,令和４年１月１日福島県いわき市平字月見町３３番地の５株式会社一二三屋（7380001013691）に合併し解散,2015-10-05,1,,,,,ナビオ,0
2895,9440002007890,登記記録の閉鎖等,0,2022-01-13,2022-01-07,有限会社中山ファーム,,有限会社,北海道,北斗市,本町２丁目７番５号,,01,236,0411201,,,2022-01-07,清算の結了等,,,2015-10-05,1,,,,,ナカヤマファーム,0
2898,9470001000167,登記記録の閉鎖等,0,2022-01-13,2022-01-12,八栗青果物株式会社,,株式会社,香川県,高松市,牟礼町牟礼２２２０番地,,37,201,7610121,,,2022-01-12,登記官による閉鎖,,,2015-10-05,1,,,,,,0
2899,9470001005950,登記記録の閉鎖等,0,2022-01-13,2022-01-12,株式会社田村興業,,株式会社,香川県,高松市,丸の内９番８－２０７号,,37,201,7600033,,,2022-01-12,登記官による閉鎖,,,2015-10-05,1,,,,,,0
2900,9470001006593,登記記録の閉鎖等,0,2022-01-13,2022-01-12,株式会社Ａｒｔホームズ,,株式会社,香川県,高松市,円座町９４０番地１,,37,201,7618044,,,2022-01-12,登記官による閉鎖,,,2015-10-05,1,,,,,,0
2901,9470001008862,登記記録の閉鎖等,0,2022-01-13,2022-01-12,株式会社上原食品,,株式会社,香川県,坂出市,府中町１０４番地の３,,37,203,7620024,,,2022-01-12,登記官による閉鎖,,,2015-10-05,1,,,,,,0
2902,9470001010876,登記記録の閉鎖等,0,2022-01-13,2022-01-12,株式会社ヴラント,,株式会社,香川県,三豊市,仁尾町仁尾丁１１２２番地４,,37,208,7691407,,,2022-01-12,登記官による閉鎖,,,2015-10-05,1,,,,,,0
2904,9470002000471,登記記録の閉鎖等,0,2022-01-13,2022-01-12,有限会社八栗電機商会,,有限会社,香川県,高松市,牟礼町牟礼２４４７番地１,,37,201,7610121,,,2022-01-12,登記官による閉鎖,,,2015-10-05,1,,,,,,0
2906,9470002003631,登記記録の閉鎖等,0,2022-01-13,2022-01-12,有限会社正一工務店,,有限会社,香川県,高松市,円座町道下３０９番１,,37,201,7618044,,,2022-01-12,登記官による閉鎖,,,2015-10-05,1,,,,,,0
2907,9470002007764,登記記録の閉鎖等,0,2022-01-13,2022-01-11,有限会社アートプランニング,,有限会社,香川県,高松市,木太町４０８３番地１２,,37,201,7600080,,,2022-01-11,清算の結了等,,,2015-10-05,1,,,,,アートプランニング,0
2908,9470002014661,登記記録の閉鎖等,0,2022-01-13,2022-01-12,有限会社岩田電機商会,,有限会社,香川県,坂出市,八幡町１丁目６番２４号,,37,203,7620041,,,2022-01-12,登記官による閉鎖,,,2015-10-05,1,,,,,,0
2909,9470002014744,登記記録の閉鎖等,0,2022-01-13,2022-01-12,オーキッドファンタジー山上園芸有限会社,,有限会社,香川県,坂出市,府中町１４１０番地７４,,37,203,7620024,,,2022-01-12,登記官による閉鎖,,,2015-10-05,1,,,,,,0
2910,9470002017730,登記記録の閉鎖等,0,2022-01-13,2022-01-12,有限会社国方鋼業,,有限会社,香川県,さぬき市,寒川町石田西１５２９番地１,,37,206,7692322,,,2022-01-12,登記官による閉鎖,,,2015-10-05,1,,,,,,0
2911,9470003000371,登記記録の閉鎖等,0,2022-01-13,2022-01-12,合同会社Ｂｅｓｔ　Ｂｒａｉｎｓ総合事務所,,合同会社,香川県,丸亀市,土器町東５丁目１４番地,,37,202,7630082,,,2022-01-12,登記官による閉鎖,,,2015-10-05,1,,,,,,0
2913,9480002005759,登記記録の閉鎖等,0,2022-01-13,2022-01-12,石井塗装有限会社,,有限会社,徳島県,名西郡石井町,石井字城ノ内１６２番地の４,,36,341,7793232,,,2022-01-12,清算の結了等,,,2015-10-05,1,,,,,イシイトソウ,0
2915,9490001004298,登記記録の閉鎖等,0,2022-01-13,2022-01-13,株式会社アリュール,,株式会社,高知県,高知市,薊野北町４丁目１５番２２－６号ファミール薊１０１号室,,39,201,7810011,,,2022-01-13,登記官による閉鎖,,,2015-10-05,1,,,,,,0
2916,9490002000783,登記記録の閉鎖等,0,2022-01-13,2022-01-13,有限会社大豊製パン,,有限会社,高知県,高知市,鴨部１丁目１４番８号,,39,201,7808052,,,2022-01-13,登記官による閉鎖,,,2015-10-05,1,,,,,,0
2917,9490002001385,登記記録の閉鎖等,0,2022-01-13,2022-01-13,有限会社高知エバレヂン工業,,有限会社,高知県,高知市,南川添１６番２号,,39,201,7800082,,,2022-01-13,登記官による閉鎖,,,2015-10-05,1,,,,,,0
2918,9490002002458,登記記録の閉鎖等,0,2022-01-13,2022-01-13,有限会社松寿堂ビル,,有限会社,高知県,高知市,追手筋１丁目４番１３号,,39,201,7800842,,,2022-01-13,登記官による閉鎖,,,2015-10-05,1,,,,,,0
2919,9490002004479,登記記録の閉鎖等,0,2022-01-13,2022-01-13,有限会社フジインターネツト,,有限会社,高知県,高知市,追手筋１丁目４番８号,,39,201,7800842,,,2022-01-13,登記官による閉鎖,,,2015-10-05,1,,,,,,0
2920,9490002005535,登記記録の閉鎖等,0,2022-01-13,2022-01-13,有限会社義光,,有限会社,高知県,高知市,追手筋１丁目１０番３号アーベイン追手筋ビル６Ｆ,,39,201,7800842,,,2022-01-13,登記官による閉鎖,,,2015-10-05,1,,,,,,0
2921,9490002006260,登記記録の閉鎖等,0,2022-01-13,2022-01-13,有限会社アジロ,,有限会社,高知県,高知市,神田１５０６番地１１,,39,201,7808040,,,2022-01-13,登記官による閉鎖,,,2015-10-05,1,,,,,,0
2922,9490002008281,登記記録の閉鎖等,0,2022-01-13,2022-01-13,有限会社オウエン,,有限会社,高知県,四万十市,具同７５１０番地６５,,39,210,7870019,,,2022-01-13,登記官による閉鎖,,,2015-10-05,1,,,,,,0
2923,9490002010923,登記記録の閉鎖等,0,2022-01-13,2022-01-13,有限会社藤田商店,,有限会社,高知県,高岡郡四万十町,本町３番２０号,,39,412,7860005,,,2022-01-13,登記官による閉鎖,,,2015-10-05,1,,,,,,0
2924,9490002011459,登記記録の閉鎖等,0,2022-01-13,2022-01-13,有限会社大栄建設,,有限会社,高知県,香美市,物部町大栃１５３９番地１,,39,212,7814401,,,2022-01-13,登記官による閉鎖,,,2015-10-05,1,,,,,,0
2925,9490002013166,登記記録の閉鎖等,0,2022-01-13,2022-01-13,有限会社中央タクシー,,有限会社,高知県,室戸市,浮津二番町５８番地,,39,202,7817105,,,2022-01-13,登記官による閉鎖,,,2015-10-05,1,,,,,,0
