sequenceNumber,corporateNumber,process,correct,updateDate,changeDate,name,nameImageId,kind,prefectureName,cityName,streetNumber,addressImageId,prefectureCode,cityCode,postCode,addressOutside,addressOutsideImageId,closeDate,closeCause,successorCorporateNumber,changeCause,assignmentDate,latest,enName,enPrefectureName,enCityName,enAddressOutside,furigana,hihyoji
4,1010001252704,新規,0,2025-03-03,2025-03-03,株式会社ｌｉｎｄｅｎ　ｅｎｅｒｇｙ,,株式会社,東京都,千代田区,丸の内３丁目３番１号新東京ビル,,13,101,1000005,,,,,,,2025-03-03,1,,,,,リンデンエナジー,0
5,1010001252811,新規,0,2025-03-03,2025-03-03,Ａｌｉｖｅ株式会社,,株式会社,東京都,中央区,銀座１丁目１２－４Ｎ＆Ｅビル７階,,13,102,1040061,,,,,,,2025-03-03,1,,,,,アライブ,0
16,1010401188416,新規,0,2025-03-03,2025-03-03,株式会社ヒエキカク,,株式会社,東京都,港区,南青山３丁目１番３６号青山丸竹ビル６Ｆ,,13,103,1070062,,,,,,,2025-03-03,1,,,,,ヒエキカク,0
17,1010401188507,新規,0,2025-03-03,2025-03-03,旭英株式会社,,株式会社,東京都,港区,芝浦４丁目２０番２－１２１５号芝浦アイランドブルームタワー,,13,103,1080023,,,,,,,2025-03-03,1,,,,,キョクエイ,0
18,1010401188564,新規,0,2025-03-03,2025-03-03,ＧＣＪＧ５１株式会社,,株式会社,東京都,港区,元赤坂１丁目１番８号株式会社赤坂国際会計内,,13,103,1070051,,,,,,,2025-03-03,1,,,,,ジーシージェイジーフィフティーワン,0
20,1010403034485,新規,0,2025-03-03,2025-03-03,合同会社ウィーン２５,,合同会社,東京都,港区,北青山２丁目１１番１０－４０３号,,13,103,1070061,,,,,,,2025-03-03,1,,,,,ウィーンニジュウゴ,0
35,1011001168114,新規,0,2025-03-03,2025-03-03,ＲＥＺＡ株式会社,,株式会社,東京都,渋谷区,千駄ヶ谷４丁目１９番１４号サンネット千駄ヶ谷ビル３Ｆ西側室,,13,113,1510051,,,,,,,2025-03-03,1,,,,,レザ,0
36,1011003021080,新規,0,2025-03-03,2025-03-03,合同会社ユニコーンスター,,合同会社,東京都,渋谷区,道玄坂１丁目１０番８号渋谷道玄坂東急ビル２Ｆ－Ｃ,,13,113,1500043,,,,,,,2025-03-03,1,,,,,ユニコーンスター,0
37,1011003021114,新規,0,2025-03-03,2025-03-03,合同会社ガナウス,,合同会社,東京都,渋谷区,渋谷２丁目１９‐１５宮益坂ビルディング６０９,,13,113,1500002,,,,,,,2025-03-03,1,,,,,ガナウス,0
39,1011101110784,新規,0,2025-03-03,2025-03-03,ジオネ・グローバル投資株式会社,,株式会社,東京都,新宿区,西新宿５丁目２番１号シティタワー新宿３００９号Ａ室,,13,104,1600023,,,,,,,2025-03-03,1,,,,,ジオネグローバルトウシ,0
40,1011101110792,新規,0,2025-03-03,2025-03-03,株式会社Ｎｏ．９,,株式会社,東京都,新宿区,河田町７－１２－３０２,,13,104,1620054,,,,,,,2025-03-03,1,,,,,ナンバーナイン,0
43,1011201026162,新規,0,2025-03-03,2025-03-03,株式会社咲心クリエイト,,株式会社,東京都,中野区,野方５丁目１７番７号,,13,114,1650027,,,,,,,2025-03-03,1,,,,,サキゴコロクリエイト,0
46,1011203004620,新規,0,2025-03-03,2025-03-03,合同会社ＲＩＤ,,合同会社,東京都,中野区,弥生町３丁目２４－６ホーエンビル３Ｆ,,13,114,1640013,,,,,,,2025-03-03,1,,,,,アールアイディー,0
47,1011301030394,新規,0,2025-03-03,2025-03-03,株式会社シャーゲルジャパン,,株式会社,東京都,杉並区,井草１丁目５番８号,,13,115,1670021,,,,,,,2025-03-03,1,,,,,シャーゲルジャパン,0
52,1012303002118,新規,0,2025-03-03,2025-03-03,シバロク合同会社,,合同会社,東京都,町田市,南成瀬１丁目３－２－２１８,,13,209,1940045,,,,,,,2025-03-03,1,,,,,シバロク,0
57,1012801023739,新規,0,2025-03-03,2025-03-03,Ａｌｍａ　ｆｉｌｍｓ株式会社,,株式会社,東京都,立川市,曙町１丁目２５番１２号,,13,202,1900012,,,,,,,2025-03-03,1,,,,,アルマフィルムズ,0
64,1020001161648,新規,0,2025-03-03,2025-03-03,株式会社大橋ホールディングス,,株式会社,神奈川県,川崎市幸区,下平間２５０番地１０,,14,132,2120053,,,,,,,2025-03-03,1,,,,,オオハシホールディングス,0
72,1030001165111,新規,0,2025-03-03,2025-03-03,株式会社エーコーハウス,,株式会社,埼玉県,狭山市,大字青柳字矢畑１９５番１,,11,215,3501301,,,,,,,2025-03-03,1,,,,,エーコーハウス,0
75,1030003026195,新規,0,2025-03-03,2025-03-03,合同会社はらっぱ,,合同会社,埼玉県,比企郡吉見町,大字地頭方６６７,,11,347,3550104,,,,,,,2025-03-03,1,,,,,ハラッパ,0
76,1030003026237,新規,0,2025-03-03,2025-03-03,合同会社ＹＯＵＲＳ,,合同会社,埼玉県,川口市,前川２丁目２６－１９－１０２,,11,203,3330842,,,,,,,2025-03-03,1,,,,,ユアーズ,0
88,1070003005807,新規,0,2025-03-03,2025-03-03,ＳＴＲ合同会社,,合同会社,群馬県,前橋市,石倉町１丁目５番地１,,10,201,3710841,,,,,,,2025-03-03,1,,,,,エスティーアール,0
95,1080403005208,新規,0,2025-03-03,2025-03-03,ＡＫＥＢＯＮＯ合同会社,,合同会社,静岡県,浜松市中央区,鴨江３丁目８１番１号グリーンプラザ３０１,,22,138,4328023,,,,,,,2025-03-03,1,,,,,アケボノ,0
104,1120001273284,新規,0,2025-03-03,2025-03-03,徳剛株式会社,,株式会社,大阪府,大阪市城東区,野江３丁目２５番６－５０３号室,,27,118,5360006,,,,,,,2025-03-03,1,,,,,トクゴウ,0
105,1120001273318,新規,0,2025-03-03,2025-03-03,株式会社アップルファクトリー,,株式会社,大阪府,守口市,金田町３丁目５７番１０号,,27,209,5700011,,,,,,,2025-03-03,1,,,,,アップルファクトリー,0
106,1120001273326,新規,0,2025-03-03,2025-03-03,株式会社星澤,,株式会社,大阪府,大阪市東住吉区,照ケ丘矢田２丁目５番１５号,,27,121,5460021,,,,,,,2025-03-03,1,,,,,ホシザワ,0
107,1120001273334,新規,0,2025-03-03,2025-03-03,株式会社ＩＭＰＡＣＴ,,株式会社,大阪府,大阪市生野区,小路１丁目９番２０号Ｎ－０４,,27,116,5440002,,,,,,,2025-03-03,1,,,,,インパクト,0
110,1120003028760,新規,0,2025-03-03,2025-03-03,リアクト合同会社,,合同会社,大阪府,大阪市西区,靱本町１丁目１０番４－７０１号,,27,106,5500004,,,,,,,2025-03-03,1,,,,,リアクト,0
111,1120003028769,新規,0,2025-03-03,2025-03-03,合同会社代行屋,,合同会社,大阪府,大阪市北区,長柄東２丁目８さざなみプラザ第８３６－１４０４,,27,127,5310063,,,,,,,2025-03-03,1,,,,,ダイコウヤ,0
116,1122001038931,新規,0,2025-03-03,2025-03-03,豪晴商事株式会社,,株式会社,大阪府,八尾市,北本町１丁目２番２４号,,27,212,5810802,,,,,,,2025-03-03,1,,,,,ゴウセイショウジ,0
118,1122003003132,新規,0,2025-03-03,2025-03-03,合同会社広英,,合同会社,大阪府,東大阪市,藤戸新田２丁目１０番２１号,,27,227,5770017,,,,,,,2025-03-03,1,,,,,コウエイ,0
120,1130001079086,新規,0,2025-03-03,2025-03-03,株式会社ＴＯＡＩ　Ｇｒｏｕｐ　Ｐａｒｔｎｅｒｓ,,株式会社,京都府,京都市中京区,三条通烏丸西入御倉町８５番地１烏丸ビル５階,,26,104,6048166,,,,,,,2025-03-03,1,,,,,トウアイグループパートナーズ,0
127,1140005027387,新規,0,2025-03-03,2025-03-03,一般社団法人友輝,,その他の設立登記法人,兵庫県,姫路市,夢前町菅生澗７４－３３,,28,201,6712134,,,,,,,2025-03-03,1,,,,,ユウキ,0
134,1180001165625,新規,0,2025-03-03,2025-03-03,株式会社ウミト・プラス,,株式会社,愛知県,名古屋市名東区,社が丘１丁目１０２番地－１１０４号,,23,115,4650051,,,,,,,2025-03-03,1,,,,,ウミトプラス,0
135,1180001165641,新規,0,2025-03-03,2025-03-03,株式会社ＫＩＺＵＮＡケアサービス,,株式会社,愛知県,名古屋市瑞穂区,堀田通８丁目１３番地,,23,108,4670862,,,,,,,2025-03-03,1,,,,,キズナケアサービス,0
138,1180003028037,新規,0,2025-03-03,2025-03-03,合同会社ＭＳＤＡ,,合同会社,愛知県,名古屋市千種区,池上町１丁目５番地の９１,,23,101,4640029,,,,,,,2025-03-03,1,,,,,エムエスディーエー,0
139,1180003028053,新規,0,2025-03-03,2025-03-03,合同会社クオーレ,,合同会社,愛知県,名古屋市中村区,野田町字経田３３番地の１,,23,105,4530858,,,,,,,2025-03-03,1,,,,,クオーレ,0
158,1240001064580,新規,0,2025-03-03,2025-03-03,ゴーイングウェル株式会社,,株式会社,広島県,広島市佐伯区,旭園２７番６号,,34,108,7315133,,,,,,,2025-03-03,1,,,,,ゴーイングウェル,0
162,1260003005077,新規,0,2025-03-03,2025-03-03,合同会社Ｌｉｔｔｌｅ,,合同会社,岡山県,倉敷市,庄新町２番２－６号林原方,,33,202,7010102,,,,,,,2025-03-03,1,,,,,リトル,0
164,1290001109109,新規,0,2025-03-03,2025-03-03,株式会社Ｐｏｒｙｔｈｍ　Ｂａｓｅ,,株式会社,福岡県,宗像市,大井南４番１１号,,40,220,8113440,,,,,,,2025-03-03,1,,,,,ポリズムベース,0
165,1290001109117,新規,0,2025-03-03,2025-03-03,株式会社５４７２０ＡＡ,,株式会社,福岡県,福岡市東区,下原３丁目１番２５号,,40,131,8130002,,,,,,,2025-03-03,1,,,,,ツヨシナナニゼロアマノアグリカルチャー,0
173,1370001052300,新規,0,2025-03-03,2025-03-03,株式会社ＴＡＫＡＨＡＳＨＩ　ＳＹＮＥＲＧＹ,,株式会社,宮城県,仙台市宮城野区,高砂１丁目２５番地４,,04,102,9830014,,,,,,,2025-03-03,1,,,,,タカハシシナジー,0
175,1380001035130,新規,0,2025-03-03,2025-03-03,株式会社ＢｏｎｅＴｅｃ,,株式会社,福島県,いわき市,錦町江栗前２７番地の１,,07,204,9748232,,,,,,,2025-03-03,1,,,,,ボーンテック,0
176,1390001017895,新規,0,2025-03-03,2025-03-03,株式会社グラントラスト,,株式会社,山形県,山形市,飯塚町字岡９３３番,,06,201,9900845,,,,,,,2025-03-03,1,,,,,グラントラスト,0
185,1430001093783,新規,0,2025-03-03,2025-03-03,株式会社Ｉ　ｆｉｒｓｔ,,株式会社,北海道,札幌市北区,屯田五条９丁目１－４６－５プレウエストパルクＩ１０５号,00138175,01,102,0020855,,,,,,,2025-03-03,1,,,,,アイファースト,0
186,1430003017328,新規,0,2025-03-03,2025-03-03,合同会社むぎてん,,合同会社,北海道,札幌市西区,八軒八条西３丁目３番６号,,01,107,0630848,,,,,,,2025-03-03,1,,,,,ムギテン,0
197,1700150129402,新規,0,2025-03-03,2025-03-03,Ｓｅａｓｏｎ　Ｗａｌｋ　Ｆａｎｃｙ,,外国会社等,愛知県,岡崎市,連尺通２丁目２９番地,,23,202,4440046,ネパール国、ガンダキ州、カスキ郡、ポカラ大都市０９区、トレードモール,,,,,,2025-03-03,1,,,,,シーズンウオークフアンシー,0
202,2010005039650,新規,0,2025-03-03,2025-03-03,一般社団法人Ｉ＆Ｏｔｈｅｒｓ,,その他の設立登記法人,東京都,千代田区,二番町９番地３,,13,101,1020084,,,,,,,2025-03-03,1,,,,,アイアンドアザーズ,0
204,2010401188407,新規,0,2025-03-03,2025-03-03,株式会社Ｒｉｎ　Ｃａｐｉｔａｌ,,株式会社,東京都,港区,白金台１丁目１－５０グランオフィス白金２１２,,13,103,1080071,,,,,,,2025-03-03,1,,,,,リンキャピタル,0
205,2010401188497,新規,0,2025-03-03,2025-03-03,株式会社Ｒｅｇｉｔｉａ,,株式会社,東京都,港区,南青山２丁目２２番１４－６０１号,,13,103,1070062,,,,,,,2025-03-03,1,,,,,レジティア,0
206,2010401188563,新規,0,2025-03-03,2025-03-03,ＧＣＪＧ５０株式会社,,株式会社,東京都,港区,元赤坂１丁目１番８号株式会社赤坂国際会計内,,13,103,1070051,,,,,,,2025-03-03,1,,,,,ジーシージェイジーフィフティー,0
207,2010403034484,新規,0,2025-03-03,2025-03-03,合同会社日ノ本,,合同会社,東京都,港区,麻布台３丁目１－４第二妹尾ビル４階,,13,103,1060041,,,,,,,2025-03-03,1,,,,,ヒノモト,0
210,2010405024129,新規,0,2025-03-03,2025-03-03,ＬＪＤＣゴウダＲｕｂｙ特定目的会社,,その他の設立登記法人,東京都,港区,六本木１丁目６番１号泉ガーデンタワー１２階,,13,103,1060032,,,,,,,2025-03-03,1,,,,,エルジェーディーシーゴウダルビー,0
213,2010501053700,新規,0,2025-03-03,2025-03-03,株式会社イー・アール・エス,,株式会社,東京都,台東区,駒形１丁目１２番３号,,13,106,1110043,,,,,,,2025-03-03,1,,,,,イーアールエス,0
215,2010503007745,新規,0,2025-03-03,2025-03-03,ＣＬＡＳＳ‐Ａ合同会社,,合同会社,東京都,台東区,根岸３丁目６番３号海老原ビル７Ｆ,,13,106,1100003,,,,,,,2025-03-03,1,,,,,クラスエー,0
222,2010601066866,新規,0,2025-03-03,2025-03-03,株式会社さくらプランニング,,株式会社,東京都,墨田区,墨田５丁目５番２号Ｒビル墨田３階１２号室,,13,107,1310031,,,,,,,2025-03-03,1,,,,,サクラプランニング,0
236,2011001168014,新規,0,2025-03-03,2025-03-03,株式会社Ｃｒａｓｈ　Ｋｅｙｓ,,株式会社,東京都,渋谷区,渋谷２丁目１９－１５宮益坂ビルディング６０９,,13,113,1500002,,,,,,,2025-03-03,1,,,,,クラッシュキーズ,0
237,2011001168096,新規,0,2025-03-03,2025-03-03,Ｍｏｍｏ　Ａｄｖｉｓｏｒｙ株式会社,,株式会社,東京都,目黒区,大岡山１丁目３６番１８号,,13,110,1520033,,,,,,,2025-03-03,1,,,,,モモアドバイザリー,0
238,2011001168105,新規,0,2025-03-03,2025-03-03,ビーハビット株式会社,,株式会社,東京都,渋谷区,渋谷２丁目１９番１５号宮益坂ビルディング６０９,,13,113,1500002,,,,,,,2025-03-03,1,,,,,ビーハビット,0
240,2011003020998,新規,0,2025-03-03,2025-03-03,ＫＯＰＩＹＡ合同会社,,合同会社,東京都,目黒区,青葉台１丁目１４－４ＣＯＮＴＲＡＬＮＡＫＡＭＥＧＵＲＯ＃ＷＬ－０５,,13,110,1530042,,,,,,,2025-03-03,1,,,,,コピヤ,0
241,2011003021088,新規,0,2025-03-03,2025-03-03,合同会社ＰｕｒＰＬｅＣＬａｓｓ,,合同会社,東京都,渋谷区,神泉町１４番１２号,,13,113,1500045,,,,,,,2025-03-03,1,,,,,パープルクラス,0
244,2011101110809,新規,0,2025-03-03,2025-03-03,株式会社ｃａｌｍｉｎｇ,,株式会社,東京都,新宿区,新宿５丁目８番２０－６０５号,,13,104,1600022,,,,,,,2025-03-03,1,,,,,カーミング,0
246,2011103015510,新規,0,2025-03-03,2025-03-03,合同会社メゾン・ヴィータＲＭ,,合同会社,東京都,新宿区,矢来町２１番地３アムール神楽坂３０１,,13,104,1620805,,,,,,,2025-03-03,1,,,,,メゾンヴィータアールエム,0
247,2011203004628,新規,0,2025-03-03,2025-03-03,リーフ企画合同会社,,合同会社,東京都,中野区,弥生町４丁目２５番５－３０１号,,13,114,1640013,,,,,,,2025-03-03,1,,,,,リーフキカク,0
250,2011401026853,新規,0,2025-03-03,2025-03-03,橘ホールディングス株式会社,,株式会社,東京都,板橋区,中丸町９番１－１００６号,,13,119,1730026,,,,,,,2025-03-03,1,,,,,タチバナホールディングス,0
251,2011401026861,新規,0,2025-03-03,2025-03-03,株式会社Ｂｌｏｏｍｉｎｇ,,株式会社,東京都,板橋区,小豆沢４丁目１番２６－４１５号ＶＥＲＸＥＥＤ志村坂上,,13,119,1740051,,,,,,,2025-03-03,1,,,,,ブルーミング,0
256,2011703004144,新規,0,2025-03-03,2025-03-03,合同会社タスカル,,合同会社,東京都,江戸川区,北小岩６丁目１０－４ハイブリッジ北小岩２０３,,13,123,1330051,,,,,,,2025-03-03,1,,,,,タスカル,0
258,2012701018730,新規,0,2025-03-03,2025-03-03,ＩＮＶＩＣＴＵＳ株式会社,,株式会社,東京都,西東京市,東町３丁目１１番２８号山興ビル,,13,229,2020012,,,,,,,2025-03-03,1,,,,,インビクタス,0
262,2013301053845,新規,0,2025-03-03,2025-03-03,株式会社ＷＩＤＥ　ＢＲＩＤＧＥ　ＪＡＰＡＮ,,株式会社,東京都,豊島区,池袋２丁目６２番１号ＰＩＳＯ池袋６０２,,13,116,1710014,,,,,,,2025-03-03,1,,,,,ワイドブリッジジャパン,0
275,2020001161597,新規,0,2025-03-03,2025-03-03,天海コーポレーション株式会社,,株式会社,神奈川県,横浜市戸塚区,矢部町１８１５－９,,14,110,2440002,,,,,,,2025-03-03,1,,,,,アマミコーポレーション,0
276,2020001161655,新規,0,2025-03-03,2025-03-03,Ｔｓｕｋａｓａ＆Ａｓｓｏｃｉａｔｅｓ株式会社,,株式会社,神奈川県,横浜市西区,中央１丁目２１番１４－８０１号,,14,103,2200051,,,,,,,2025-03-03,1,,,,,ツカサアンドアソシエイツ,0
277,2020001161671,新規,0,2025-03-03,2025-03-03,株式会社Ｍｏｓｔｆｕｎ不動産,,株式会社,神奈川県,横浜市港北区,新横浜１丁目１１番地４第一ハマダビル４０２号室,,14,109,2220033,,,,,,,2025-03-03,1,,,,,モストファンフドウサン,0
283,2020003027945,新規,0,2025-03-03,2025-03-03,合同会社ＭＫ　ｃｒａｆｔ,,合同会社,神奈川県,横浜市鶴見区,本町通１丁目２番地ブックストーリー秋１００,,14,101,2300048,,,,,,,2025-03-03,1,,,,,エムケークラフト,0
286,2021003015650,新規,0,2025-03-03,2025-03-03,合同会社ｐｉｌｉｅｒ,,合同会社,神奈川県,逗子市,逗子７丁目３番５２号逗子向陽ビル３Ｆ,,14,208,2490006,,,,,,,2025-03-03,1,,,,,ピリエ,0
291,2030001165093,新規,0,2025-03-03,2025-03-03,オウルブリッジ株式会社,,株式会社,埼玉県,川口市,飯塚４丁目１５番２６－３０３号,,11,203,3320023,,,,,,,2025-03-03,1,,,,,オウルブリッジ,0
292,2030001165110,新規,0,2025-03-03,2025-03-03,株式会社おにぎり道嬉酔,,株式会社,埼玉県,川口市,西川口１丁目２６番１８号須田ビル１０３,,11,203,3320021,,,,,,,2025-03-03,1,,,,,オニギリドウキスイ,0
293,2030001165127,新規,0,2025-03-03,2025-03-03,Ｍ．Ｈ．Ｃ株式会社,,株式会社,埼玉県,上尾市,二ツ宮８０６番地８,,11,219,3620017,,,,,,,2025-03-03,1,,,,,エムエイチシー,0
298,2030003026228,新規,0,2025-03-03,2025-03-03,Ｍ．ＳＵＰＰＯＲＴ合同会社,,合同会社,埼玉県,春日部市,西八木崎３丁目４番１０号,,11,214,3440059,,,,,,,2025-03-03,1,,,,,エムサポート,0
302,2040001137587,新規,0,2025-03-03,2025-03-03,株式会社つむぎ,,株式会社,千葉県,柏市,南柏１丁目５番１４号,,12,217,2770855,,,,,,,2025-03-03,1,,,,,ツムギ,0
303,2040001137595,新規,0,2025-03-03,2025-03-03,ａｐｒｉｃｕｓ株式会社,,株式会社,千葉県,柏市,十余二６２２番地２中央１９３街区２４,,12,217,2770872,,,,,,,2025-03-03,1,,,,,アプリクス,0
305,2040003026978,新規,0,2025-03-03,2025-03-03,合同会社ＺｅｎＭａｓｈｉ,,合同会社,千葉県,木更津市,江川１５１７番地４３,,12,206,2920063,,,,,,,2025-03-03,1,,,,,ゼンマシ,0
306,2050001056225,新規,0,2025-03-03,2025-03-03,株式会社Ｓｏｕｔｈｅｒｎ　Ｃｒｏｓｓ,,株式会社,茨城県,水戸市,百合が丘町８番地の１県営百合が丘アパート１棟２０２号,,08,201,3111134,,,,,,,2025-03-03,1,,,,,サザンクロス,0
307,2050001056233,新規,0,2025-03-03,2025-03-03,ＡＮＤアトラクト株式会社,,株式会社,茨城県,取手市,白山６丁目７番４６号,,08,217,3020023,,,,,,,2025-03-03,1,,,,,アンドアトラクト,0
310,2070001042669,新規,0,2025-03-03,2025-03-03,ＳＵ　ＴＲＡＤＩＮＧ株式会社,,株式会社,群馬県,邑楽郡邑楽町,大字篠塚６０１番地１,,10,525,3700615,,,,,,,2025-03-03,1,,,,,エスユートレーディング,0
321,2100003008012,新規,0,2025-03-03,2025-03-03,フィールド・ブリッジ合同会社,,合同会社,長野県,諏訪郡原村,１７２１７－１６２５,,20,363,3910100,,,,,,,2025-03-03,1,,,,,フィールドブリッジ,0
331,2120001273242,新規,0,2025-03-03,2025-03-03,鹿島産業株式会社,,株式会社,大阪府,大阪市北区,兎我野町３番１９号,,27,127,5300056,,,,,,,2025-03-03,1,,,,,カシマサンギョウ,0
332,2120001273283,新規,0,2025-03-03,2025-03-03,徳天株式会社,,株式会社,大阪府,大阪市城東区,野江３丁目２５番６－５０１号室,,27,118,5360006,,,,,,,2025-03-03,1,,,,,トクテン,0
341,2130001079085,新規,0,2025-03-03,2025-03-03,株式会社ＴＯＡＩ　Ｆｉｎａｎｃｉａｌ　Ｍａｎａｇｅｍｅｎｔ,,株式会社,京都府,京都市中京区,三条通烏丸西入御倉町８５番地１烏丸ビル５階,,26,104,6048166,,,,,,,2025-03-03,1,,,,,トウアイファイナンシャルマネジメント,0
342,2130001079102,新規,0,2025-03-03,2025-03-03,株式会社款工業,,株式会社,京都府,京都市南区,西九条東島町６１－２ステーションパレス京都７０１,,26,107,6018432,,,,,,,2025-03-03,1,,,,,カンコウギョウ,0
343,2130003010238,新規,0,2025-03-03,2025-03-03,合同会社ヤマト,,合同会社,京都府,綾部市,志賀郷町山崎１３番地の１,,26,203,6230343,,,,,,,2025-03-03,1,,,,,ヤマト,0
357,2180003027954,新規,0,2025-03-03,2025-03-03,合同会社Ｕｌｕ,,合同会社,愛知県,海部郡蟹江町,城３丁目４０９,,23,425,4970040,,,,,,,2025-03-03,1,,,,,ウル,0
363,2180303006468,新規,0,2025-03-03,2025-03-03,合同会社ブル,,合同会社,愛知県,安城市,箕輪町唐生５５番地１,,23,212,4460051,,,,,,,2025-03-03,1,,,,,ブル,0
389,2290001109116,新規,0,2025-03-03,2025-03-03,Ｄｉｎｉｎｇ　Ｆｏｒ　Ｙｏｕ株式会社,,株式会社,福岡県,福岡市中央区,赤坂１丁目１０番２２号,,40,133,8100042,,,,,,,2025-03-03,1,,,,,ダイニングフォーユー,0
393,2290005019666,新規,0,2025-03-03,2025-03-03,エヴァーラスティング協同組合,,その他の設立登記法人,福岡県,糸島市,神在西２丁目１２番１号,,40,230,8191148,,,,,,,2025-03-03,1,,,,,エヴァーラスティング,0
401,2340005009819,新規,0,2025-03-03,2025-03-03,一般社団法人みやまきりしま,,その他の設立登記法人,鹿児島県,霧島市,国分中央３丁目７－１４－２,,46,218,8994332,,,,,,,2025-03-03,1,,,,,ミヤマキリシマ,0
407,2370001052241,新規,0,2025-03-03,2025-03-03,株式会社ｎｅｕｒｏｍｉｕｍ,,株式会社,宮城県,仙台市宮城野区,蒲生字鍋沼５番地の１,,04,102,9830002,,,,,,,2025-03-03,1,,,,,ニューロミウム,0
408,2370001052299,新規,0,2025-03-03,2025-03-03,ＴＨＥＣ株式会社,,株式会社,宮城県,仙台市青葉区,中央２丁目２－１０仙都会館５Ｆ、Ｓ－０６,,04,101,9800021,,,,,,,2025-03-03,1,,,,,ザシー,0
409,2370001052308,新規,0,2025-03-03,2025-03-03,株式会社ＭＪ,,株式会社,宮城県,仙台市泉区,七北田字白水沢８６番地の１エミナンス泉中央東６０１,,04,105,9813131,,,,,,,2025-03-03,1,,,,,エムジェイ,0
415,2420001019037,新規,0,2025-03-03,2025-03-03,株式会社ＡＧＲＡＲ外崎農場,,株式会社,青森県,五所川原市,大字原子字紅葉２４０番地２,,02,205,0370622,,,,,,,2025-03-03,1,,,,,アグラルトノサキノウジョウ,0
418,2430003017327,新規,0,2025-03-03,2025-03-03,合同会社ＨＵＢ　ＩＳＬＡＮＤ,,合同会社,北海道,札幌市南区,澄川六条５丁目５番７号第１まるいマンション２０２号,,01,106,0050006,,,,,,,2025-03-03,1,,,,,ハブアイランド,0
419,2440003001668,新規,0,2025-03-03,2025-03-03,合同会社ひつじ亭,,合同会社,北海道,函館市,松風町１０番６号,,01,202,0400035,,,,,,,2025-03-03,1,,,,,ヒツジテイ,0
431,3010001252628,新規,0,2025-03-03,2025-03-03,バナナとフィッシュ株式会社,,株式会社,東京都,中央区,築地６丁目１７番１号,,13,102,1040045,,,,,,,2025-03-03,1,,,,,バナナトフィッシュ,0
432,3010001252702,新規,0,2025-03-03,2025-03-03,出光アグリライフホールディングス株式会社,,株式会社,東京都,千代田区,大手町１丁目２番１号,,13,101,1000004,,,,,,,2025-03-03,1,,,,,イデミツアグリライフホールディングス,0
435,3010005039658,新規,0,2025-03-03,2025-03-03,一般社団法人個人事業主支援協会,,その他の設立登記法人,東京都,中央区,日本橋室町１丁目１１番１２号日本橋水野ビル７階,,13,102,1030022,,,,,,,2025-03-03,1,,,,,コジンジギョウヌシシエンキョウカイ,0
442,3010401188463,新規,0,2025-03-03,2025-03-03,株式会社アトラスホールディングス,,株式会社,東京都,港区,南青山１丁目１５番９号,,13,103,1070062,,,,,,,2025-03-03,1,,,,,アトラスホールディングス,0
443,3010401188505,新規,0,2025-03-03,2025-03-03,株式会社ＳｅｒｖｅＢｏｔＡＩ,,株式会社,東京都,港区,虎ノ門４丁目１番１号神谷町トラストタワー２３Ｆ,,13,103,1050001,,,,,,,2025-03-03,1,,,,,サーヴボットエーアイ,0
444,3010401188521,新規,0,2025-03-03,2025-03-03,株式会社Ｃｌａｂ０,,株式会社,東京都,港区,北青山１丁目３番３号アールキューブ青山３階,,13,103,1070061,,,,,,,2025-03-03,1,,,,,クラボ,0
445,3010401188546,新規,0,2025-03-03,2025-03-03,マグネティックフィールド株式会社,,株式会社,東京都,港区,六本木６丁目１２番３－１８０１号,,13,103,1060032,,,,,,,2025-03-03,1,,,,,マグネティックフィールド,0
446,3010401188554,新規,0,2025-03-03,2025-03-03,株式会社ＮＢＩ地方創生インベストメント,,株式会社,東京都,港区,西新橋１丁目２番９号日比谷セントラルビル５階,,13,103,1050003,,,,,,,2025-03-03,1,,,,,エヌビーアイチホウソウセイインベストメント,0
447,3010403034467,新規,0,2025-03-03,2025-03-03,徳山土地合同会社,,合同会社,東京都,港区,六本木３丁目２番１号六本木グランドタワー,,13,103,1060032,,,,,,,2025-03-03,1,,,,,トクヤマトチ,0
449,3010405024128,新規,0,2025-03-03,2025-03-03,Ａ５ＪＰ　Ｉｚｕ　Ｈｏｔｅｌ特定目的会社,,その他の設立登記法人,東京都,港区,六本木１丁目６番１号泉ガーデンタワー１２階,,13,103,1060032,,,,,,,2025-03-03,1,,,,,エーファイブジェイピーイズホテル,0
450,3010405024144,新規,0,2025-03-03,2025-03-03,一般社団法人ゼウスＳＰＣホールディングス,,その他の設立登記法人,東京都,港区,芝大門２丁目１２番３号共生ビル２号館７階,,13,103,1050012,,,,,,,2025-03-03,1,,,,,ゼウスエスピーシーホールディングス,0
453,3010503007744,新規,0,2025-03-03,2025-03-03,沼田スタッフ合同会社,,合同会社,東京都,台東区,根岸３丁目６番３号海老原ビル７Ｆ,,13,106,1100003,,,,,,,2025-03-03,1,,,,,ヌマタスタッフ,0
455,3010601066857,新規,0,2025-03-03,2025-03-03,株式会社Ａｎｂｅｅ,,株式会社,東京都,江東区,富岡１丁目３番３号ＤｅＬＣＣＳ門前仲町ＩＩ３階,00138173,13,108,1350047,,,,,,,2025-03-03,1,,,,,アンビー,0
456,3010603011407,新規,0,2025-03-03,2025-03-03,ＹＨＡキャピタル合同会社,,合同会社,東京都,江東区,清澄１丁目５番１８－５０４号,,13,108,1350024,,,,,,,2025-03-03,1,,,,,ワイエイチエーキャピタル,0
462,3010903009745,新規,0,2025-03-03,2025-03-03,合同会社Ｋ１０,,合同会社,東京都,世田谷区,代田３丁目１６番７号,,13,112,1550033,,,,,,,2025-03-03,1,,,,,ケーテン,0
466,3011001168120,新規,0,2025-03-03,2025-03-03,株式会社ＩＭＡ’Ｓ　ｓｔｙｌｅ,,株式会社,東京都,渋谷区,恵比寿西２丁目８番４号ＥＸ恵比寿西ビル５階,,13,113,1500021,,,,,,,2025-03-03,1,,,,,イマズスタイル,0
468,3011003021079,新規,0,2025-03-03,2025-03-03,合同会社ＴＴ,,合同会社,東京都,目黒区,鷹番２丁目２０－１７ＴＳビル３０２,,13,110,1520004,,,,,,,2025-03-03,1,,,,,ティーティー,0
472,3011101110741,新規,0,2025-03-03,2025-03-03,株式会社ＡＳＣ,,株式会社,東京都,新宿区,大久保１丁目２－１９アクサス東新宿アジールコート１００１,,13,104,1690072,,,,,,,2025-03-03,1,,,,,エーエスシー,0
473,3011101110766,新規,0,2025-03-03,2025-03-03,株式会社１２３,,株式会社,東京都,新宿区,百人町２丁目６番２号日神シルバープラザ大久保第２、４０２,,13,104,1690073,,,,,,,2025-03-03,1,,,,,イチニーサン,0
475,3011103015559,新規,0,2025-03-03,2025-03-03,フロンティア合同会社,,合同会社,東京都,新宿区,西新宿７丁目１０－１７ダイカンプラザＢ館３０４,,13,104,1600023,,,,,,,2025-03-03,1,,,,,フロンティア,0
476,3011103015583,新規,0,2025-03-03,2025-03-03,ＰＲＥＶＡＩＬ合同会社,,合同会社,東京都,新宿区,西新宿５丁目５番１－３１０９号,,13,104,1600023,,,,,,,2025-03-03,1,,,,,プリヴェイル,0
477,3011103015591,新規,0,2025-03-03,2025-03-03,Ｆａｎｃｙ　ｇｌｏｓｓｙ合同会社,,合同会社,東京都,新宿区,上落合１丁目２３番３号上落合レジデンス３０３,,13,104,1610034,,,,,,,2025-03-03,1,,,,,ファンシーグロッシー,0
478,3011105011358,新規,0,2025-03-03,2025-03-03,リベルテ社会保険労務士法人,,その他の設立登記法人,東京都,新宿区,四谷３丁目１３番地ＳＥＡＢＩＲＤビル２階,,13,104,1600004,,,,,,,2025-03-03,1,,,,,リベルテ,0
482,3011301030392,新規,0,2025-03-03,2025-03-03,株式会社１０ｋｅｙ,,株式会社,東京都,杉並区,和泉３丁目５５番５号,,13,115,1680063,,,,,,,2025-03-03,1,,,,,テンキー,0
483,3011305003031,新規,0,2025-03-03,2025-03-03,一般社団法人明日の政策研究会,,その他の設立登記法人,東京都,杉並区,荻窪４丁目２番１６号,,13,115,1670051,,,,,,,2025-03-03,1,,,,,アスノセイサクケンキュウカイ,0
487,3011501031769,新規,0,2025-03-03,2025-03-03,ＣＯＯＤＹ　ＬＩＦＥ株式会社,,株式会社,東京都,荒川区,東日暮里６丁目２３－６,,13,118,1160014,,,,,,,2025-03-03,1,,,,,クーディライフ,0
488,3011601028459,新規,0,2025-03-03,2025-03-03,株式会社Ｈ５,,株式会社,東京都,練馬区,田柄１丁目１５番１３号,,13,120,1790073,,,,,,,2025-03-03,1,,,,,エイチファイブ,0
490,3011603004623,新規,0,2025-03-03,2025-03-03,合同会社新桜エステート,,合同会社,東京都,練馬区,桜台１丁目３０番６号,,13,120,1760002,,,,,,,2025-03-03,1,,,,,シンサクラエステート,0
491,3012301014278,新規,0,2025-03-03,2025-03-03,株式会社ドッグランドジャパン,,株式会社,東京都,町田市,本町田３０４０番５３,,13,209,1940032,,,,,,,2025-03-03,1,,,,,ドッグランドジャパン,0
492,3012401042765,新規,0,2025-03-03,2025-03-03,株式会社ノビソーム,,株式会社,東京都,小金井市,貫井南町２丁目４番７－２０５号ヴェルハイム小金井,,13,210,1840014,,,,,,,2025-03-03,1,,,,,ノビソーム,0
493,3012403006990,新規,0,2025-03-03,2025-03-03,合同会社まる,,合同会社,東京都,武蔵野市,吉祥寺本町１丁目２０－１吉祥寺永谷シティプラザ内,,13,203,1800004,,,,,,,2025-03-03,1,,,,,マル,0
494,3012403006999,新規,0,2025-03-03,2025-03-03,合同会社ベリーナイス,,合同会社,東京都,三鷹市,牟礼１丁目１４番２号,,13,204,1810002,,,,,,,2025-03-03,1,,,,,ベリーナイス,0
506,3020001161605,新規,0,2025-03-03,2025-03-03,株式会社ＴＳＵＮＡＧＵ,,株式会社,神奈川県,横浜市西区,北幸２丁目１０番４８号３階,,14,103,2200004,,,,,,,2025-03-03,1,,,,,ツナグ,0
507,3020001161613,新規,0,2025-03-03,2025-03-03,株式会社ＴＨＥ　ＧＡＭＥ　ＣＨＡＮＧＥＲ,,株式会社,神奈川県,横浜市中区,桜木町１丁目１０１番地１クロスゲート７階,,14,104,2310062,,,,,,,2025-03-03,1,,,,,ザゲームチェンジャー,0
508,3020001161646,新規,0,2025-03-03,2025-03-03,株式会社ラーテルクス,,株式会社,神奈川県,横浜市港北区,下田町３丁目１番１２号,,14,109,2230064,,,,,,,2025-03-03,1,,,,,ラーテルクス,0
512,3020003027911,新規,0,2025-03-03,2025-03-03,ＪＳＡ合同会社,,合同会社,神奈川県,横浜市西区,浅間町１丁目４番３号ウィザードビル４０２,,14,103,2200072,,,,,,,2025-03-03,1,,,,,ジェーエスエー,0
513,3020003027944,新規,0,2025-03-03,2025-03-03,合同会社ＮｅｘｕｓＬａｂ,,合同会社,神奈川県,横浜市港北区,大曽根１丁目５番１０－３１号,,14,109,2220003,,,,,,,2025-03-03,1,,,,,ネクサスラボ,0
526,3030001165084,新規,0,2025-03-03,2025-03-03,株式会社秀峰架設工業,,株式会社,埼玉県,所沢市,大字荒幡１０１３番地の２７,,11,208,3591133,,,,,,,2025-03-03,1,,,,,シュウホウカセツコウギョウ,0
527,3030001165092,新規,0,2025-03-03,2025-03-03,株式会社三ツ和,,株式会社,埼玉県,川口市,西川口１丁目１９番１０号ホワイトハウスＫ３０２,,11,203,3320021,,,,,,,2025-03-03,1,,,,,ミツワ,0
528,3030001165118,新規,0,2025-03-03,2025-03-03,株式会社フィーカ,,株式会社,埼玉県,川越市,新宿町１丁目１７番地１,,11,201,3501124,,,,,,,2025-03-03,1,,,,,フィーカ,0
539,3040001137594,新規,0,2025-03-03,2025-03-03,雲品株式会社,,株式会社,千葉県,君津市,杢師３丁目９番１７号,,12,225,2991163,,,,,,,2025-03-03,1,,,,,スカイクオリティ,0
541,3040003026977,新規,0,2025-03-03,2025-03-03,合同会社Ｋｅｉ,,合同会社,千葉県,八千代市,萱田１６０９番地１－３１１,,12,221,2760043,,,,,,,2025-03-03,1,,,,,ケイ,0
544,3050001056224,新規,0,2025-03-03,2025-03-03,株式会社ＭＡＸ,,株式会社,茨城県,つくばみらい市,板橋３０２２－３,,08,235,3002307,,,,,,,2025-03-03,1,,,,,マックス,0
545,3050001056249,新規,0,2025-03-03,2025-03-03,株式会社ＳＨＯＵＥＩ,,株式会社,茨城県,ひたちなか市,大字馬渡３６１８番地１,,08,221,3120012,,,,,,,2025-03-03,1,,,,,ショウエイ,0
547,3050003009048,新規,0,2025-03-03,2025-03-03,合同会社ニャンテック,,合同会社,茨城県,稲敷郡阿見町,南平台１丁目５－２１,,08,443,3000312,,,,,,,2025-03-03,1,,,,,ニャンテック,0
550,3070003005805,新規,0,2025-03-03,2025-03-03,合同会社宮一ＦＰ事務所,,合同会社,群馬県,高崎市,寺尾町６４９番地２,,10,202,3700865,,,,,,,2025-03-03,1,,,,,ミヤイチエフピージムショ,0
551,3080003003394,新規,0,2025-03-03,2025-03-03,合同会社Ｂｏｏｓｔｌａｂ,,合同会社,静岡県,静岡市葵区,両替町１丁目４番地の８佐乃春ビル２階,,22,101,4200032,,,,,,,2025-03-03,1,,,,,ブーストラボ,0
557,3100003008011,新規,0,2025-03-03,2025-03-03,ＫｉｔｃｈｅｎＳｉｎｋ合同会社,,合同会社,長野県,東御市,田中１７８－２,,20,219,3890516,,,,,,,2025-03-03,1,,,,,キッチンシンク,0
559,3110001039073,新規,0,2025-03-03,2025-03-03,株式会社ＴＲＥＡＳＵＲＥ　ＰＥＴＳ,,株式会社,新潟県,柏崎市,西山町大津１３０８－８,,15,205,9494203,,,,,,,2025-03-03,1,,,,,トレジャーペッツ,0
572,3120001273349,新規,0,2025-03-03,2025-03-03,元楽拓株式会社,,株式会社,大阪府,大阪市西成区,鶴見橋１丁目１０番１４号２０２室,,27,122,5570031,,,,,,,2025-03-03,1,,,,,ゲンガクタク,0
582,3120101071157,新規,0,2025-03-03,2025-03-03,株式会社ＨＩＢＩＫＩ,,株式会社,大阪府,藤井寺市,小山藤の里町１番６号１０１号室,,27,226,5830034,,,,,,,2025-03-03,1,,,,,ヒビキ,0
584,3122001038938,新規,0,2025-03-03,2025-03-03,じてんしゃメリー株式会社,,株式会社,大阪府,東大阪市,岩田町５丁目１３番２３号,,27,227,5780941,,,,,,,2025-03-03,1,,,,,ジテンシャメリー,0
587,3130001079084,新規,0,2025-03-03,2025-03-03,タイムリープワンダーワークス株式会社,,株式会社,京都府,京都市下京区,中堂寺粟田町９１番地京都リサーチパーク,,26,106,6008815,,,,,,,2025-03-03,1,,,,,タイムリープワンダーワークス,0
590,3140001137568,新規,0,2025-03-03,2025-03-03,株式会社Ｇｅｍｉｎｉ,,株式会社,兵庫県,芦屋市,松ノ内町１０番１１－１－３０１号,,28,206,6590094,,,,,,,2025-03-03,1,,,,,ジェミナイ,0
591,3140001137576,新規,0,2025-03-03,2025-03-03,株式会社ＢＡＲＫ,,株式会社,兵庫県,伊丹市,中央１丁目５－５ボントンビル４階,,28,207,6640851,,,,,,,2025-03-03,1,,,,,バーク,0
592,3140003021687,新規,0,2025-03-03,2025-03-03,ナカテラス合同会社,,合同会社,兵庫県,西宮市,高座町５番３３号,,28,204,6620872,,,,,,,2025-03-03,1,,,,,ナカテラス,0
604,3180001165565,新規,0,2025-03-03,2025-03-03,株式会社柳下堂,,株式会社,愛知県,一宮市,城崎通７丁目１４番地１,,23,203,4910866,,,,,,,2025-03-03,1,,,,,ヤナギシタドウ,0
605,3180001165623,新規,0,2025-03-03,2025-03-03,大聖観光ＳＴＰ株式会社,,株式会社,愛知県,名古屋市港区,野跡２丁目３番６号,,23,111,4550845,,,,,,,2025-03-03,1,,,,,ダイセイカンコウエスティーピー,0
606,3180001165664,新規,0,2025-03-03,2025-03-03,株式会社長次郎,,株式会社,愛知県,名古屋市中村区,名駅５丁目１４番４号,,23,105,4500002,,,,,,,2025-03-03,1,,,,,チョウジロウ,0
609,3190003004951,新規,0,2025-03-03,2025-03-03,合同会社アニマル,,合同会社,三重県,津市,白塚町５０３４番地１,,24,201,5140101,,,,,,,2025-03-03,1,,,,,アニマル,0
610,3200001043479,新規,0,2025-03-03,2025-03-03,ＨＫ　Ｈｏｌｄｉｎｇｓ株式会社,,株式会社,岐阜県,大垣市,新田町５丁目２２番地,,21,202,5030856,,,,,,,2025-03-03,1,,,,,エイチケイホールディングス,0
612,3200003006707,新規,0,2025-03-03,2025-03-03,合同会社ｏｏ,,合同会社,岐阜県,可児市,下恵土６０１３番地１,,21,214,5090203,,,,,,,2025-03-03,1,,,,,オーオ,0
619,3250003003658,新規,0,2025-03-03,2025-03-03,合同会社メイクイット,,合同会社,山口県,山陽小野田市,厚狭１丁目６番５号,,35,216,7570001,,,,,,,2025-03-03,1,,,,,メイクイット,0
630,3290005019665,新規,0,2025-03-03,2025-03-03,一般社団法人日本ゆめイロ空間セラピー,,その他の設立登記法人,福岡県,福岡市南区,老司３丁目３２－２０,,40,134,8111346,,,,,,,2025-03-03,1,,,,,ニホンユメイロクウカンセラピー,0
632,3290801031311,新規,0,2025-03-03,2025-03-03,株式会社ファイブグレイス,,株式会社,福岡県,行橋市,西宮市２丁目１番３４号,,40,213,8240031,,,,,,,2025-03-03,1,,,,,ファイブグレイス,0
640,3330001032931,新規,0,2025-03-03,2025-03-03,ウマミグローバルフーズ株式会社,,株式会社,熊本県,熊本市中央区,練兵町２８ハイムサンシャインＡ７０１,,43,101,8600017,,,,,,,2025-03-03,1,,,,,ウマミグローバルフーズ,0
643,3340003004762,新規,0,2025-03-03,2025-03-03,合同会社Ｄａｗｎｉｓ,,合同会社,鹿児島県,鹿児島市,郡元２丁目１０番１７号,,46,201,8900065,,,,,,,2025-03-03,1,,,,,ドーニス,0
646,3380001035129,新規,0,2025-03-03,2025-03-03,株式会社ＫＡＪＵＡＮ,,株式会社,福島県,福島市,上町２－１８,,07,201,9608101,,,,,,,2025-03-03,1,,,,,カジュアン,0
647,3380003005971,新規,0,2025-03-03,2025-03-03,合同会社ディーシック,,合同会社,福島県,いわき市,平赤井字田町１４,,07,204,9793131,,,,,,,2025-03-03,1,,,,,ディーシック,0
648,3400003003403,新規,0,2025-03-03,2025-03-03,合同会社ＳＵＮＲＩＳＥ,,合同会社,岩手県,九戸郡洋野町,種市第１地割１５番地６７,,03,507,0287903,,,,,,,2025-03-03,1,,,,,サンライズ,0
649,3410005006626,新規,0,2025-03-03,2025-03-03,農事組合法人伊勢居地,,その他の設立登記法人,秋田県,にかほ市,伊勢居地字南野６３番地,,05,214,0180431,,,,,,,2025-03-03,1,,,,,,0
657,3440001009571,新規,0,2025-03-03,2025-03-03,株式会社＿建,00138177,株式会社,北海道,北斗市,中野通１丁目６番１７号,,01,236,0490156,,,,,,,2025-03-03,1,,,,,コウケン,0
665,3700150128212,新規,0,2025-03-03,2024-12-13,道後ロータリークラブ,,その他,愛媛県,松山市,道後樋又９－１９　第二森ビル１階,,38,201,7900825,,,,,,,2024-12-13,1,,,,,ドウゴロータリークラブ,0
673,4010001252701,新規,0,2025-03-03,2025-03-03,Ｒｅｖｖｉｎｇ株式会社,,株式会社,東京都,文京区,関口１丁目６番５－９０３号,,13,105,1120014,,,,,,,2025-03-03,1,,,,,レビング,0
679,4010401188470,新規,0,2025-03-03,2025-03-03,株式会社ＳＬＬ,,株式会社,東京都,港区,三田２丁目３番３４－６０１号,,13,103,1080073,,,,,,,2025-03-03,1,,,,,エスエルエル,0
680,4010401188479,新規,0,2025-03-03,2025-03-03,Ａｖｅｎｉｒ　Ｒｅｖｅ株式会社,,株式会社,東京都,港区,南青山３丁目１番３６号青山丸竹ビル６Ｆ,,13,103,1070062,,,,,,,2025-03-03,1,,,,,アヴニールレーヴ,0
681,4010401188495,新規,0,2025-03-03,2025-03-03,株式会社ＳＲＥ,,株式会社,東京都,港区,南青山３丁目１－３６青山丸竹ビル６階,,13,103,1070062,,,,,,,2025-03-03,1,,,,,エスアールイー,0
682,4010401188553,新規,0,2025-03-03,2025-03-03,株式会社Ｓｕｉｔｅｎ,,株式会社,東京都,港区,南青山３丁目１番３６号青山丸竹ビル６Ｆ,,13,103,1070062,,,,,,,2025-03-03,1,,,,,スイテン,0
684,4010403034409,新規,0,2025-03-03,2025-03-03,合同会社Ｅａｒｔｈ　Ｎｅｓｔ,,合同会社,東京都,港区,東麻布２丁目１２番２－４０３号,,13,103,1060044,,,,,,,2025-03-03,1,,,,,アースネスト,0
685,4010403034458,新規,0,2025-03-03,2025-03-03,合同会社ＶＥＴＡＡＲ,,合同会社,東京都,港区,港南２丁目１１番１７号,,13,103,1080075,,,,,,,2025-03-03,1,,,,,ベタール,0
686,4010403034540,新規,0,2025-03-03,2025-03-03,合同会社Ｉｎｔｒｏ,,合同会社,東京都,港区,虎ノ門３丁目１９番１０,,13,103,1050001,,,,,,,2025-03-03,1,,,,,イントロ,0
692,4010601066864,新規,0,2025-03-03,2025-03-03,株式会社ＢＲＤＤ,,株式会社,東京都,江東区,亀戸１丁目４０－７アイウィステリア１Ｆ,,13,108,1360071,,,,,,,2025-03-03,1,,,,,ビーアールディーディー,0
697,4010903009744,新規,0,2025-03-03,2025-03-03,Ｍｎｔａ合同会社,,合同会社,東京都,世田谷区,大原２丁目８番１４－４０３号,,13,112,1560041,,,,,,,2025-03-03,1,,,,,エムエヌティーエー,0
701,4011001168045,新規,0,2025-03-03,2025-03-03,ＷＸ　ＣＡＰＩＴＡＬ株式会社,,株式会社,東京都,渋谷区,恵比寿４丁目３番５号７０４号室アークアウトソーシング株式会社内,,13,113,1500013,,,,,,,2025-03-03,1,,,,,ダブリューエックスキャピタル,0
705,4011003021061,新規,0,2025-03-03,2025-03-03,合同会社Ｖｉｃｔｏｒ,,合同会社,東京都,渋谷区,本町３丁目３９‐１１Ｍ‐ｓｔａｔｉｏｎ西新宿１０１,,13,113,1510071,,,,,,,2025-03-03,1,,,,,ヴィクトール,0
706,4011003021111,新規,0,2025-03-03,2025-03-03,合同会社ＤＥＫ,,合同会社,東京都,渋谷区,渋谷２丁目１９番１５号宮益坂ビルディング６０９,,13,113,1500002,,,,,,,2025-03-03,1,,,,,デック,0
711,4011101110765,新規,0,2025-03-03,2025-03-03,株式会社Ｒｅｆｌａｍｅ,,株式会社,東京都,新宿区,西新宿７丁目４番３号升本ビル７Ｆ,,13,104,1600023,,,,,,,2025-03-03,1,,,,,リフレイム,0
712,4011103015590,新規,0,2025-03-03,2025-03-03,Ｅｕｐｈｏｒｉｓ合同会社,,合同会社,東京都,新宿区,西新宿３丁目３番１３号西新宿水間ビル６階,,13,104,1600023,,,,,,,2025-03-03,1,,,,,ユーフォリス,0
713,4011103015599,新規,0,2025-03-03,2025-03-03,ＦｉｒｅＬａｕｎｃｈ合同会社,,合同会社,東京都,新宿区,西新宿３丁目３番１３号西新宿水間ビル６階,,13,104,1600023,,,,,,,2025-03-03,1,,,,,ファイアーローンチ,0
718,4011303005433,新規,0,2025-03-03,2025-03-03,合同会社Ｍ３,,合同会社,東京都,杉並区,上荻１丁目２１番３号,,13,115,1670043,,,,,,,2025-03-03,1,,,,,エムスリー,0
722,4011503006438,新規,0,2025-03-03,2025-03-03,Ｗｉｓｈｇｌｅａｍ合同会社,,合同会社,東京都,北区,昭和町１丁目２番３－２０７号昭和町グリーンハイツ,,13,117,1140011,,,,,,,2025-03-03,1,,,,,ウィッシュグリーム,0
725,4012301014277,新規,0,2025-03-03,2025-03-03,株式会社バドミントン,,株式会社,東京都,町田市,金森東１丁目１７番２号,,13,209,1940015,,,,,,,2025-03-03,1,,,,,バドミントン,0
726,4012801023777,新規,0,2025-03-03,2025-03-03,株式会社カンプス,,株式会社,東京都,日野市,豊田３丁目５番地の３８・２Ｆ,,13,212,1910053,,,,,,,2025-03-03,1,,,,,カンプス,0
729,4012805003313,新規,0,2025-03-03,2025-03-03,一般社団法人東京中神教会,,その他の設立登記法人,東京都,昭島市,中神町３丁目７番３４号,,13,207,1960022,,,,,,,2025-03-03,1,,,,,ナカガミキョウカイ,0
735,4020001161595,新規,0,2025-03-03,2025-03-03,ＥＺ株式会社,,株式会社,神奈川県,横浜市中区,富士見町４番地２モアレ横浜富士見町４０９号室,,14,104,2310037,,,,,,,2025-03-03,1,,,,,イージー,0
736,4020001161604,新規,0,2025-03-03,2025-03-03,株式会社ＰＵＴ　ＴＯＧＥＴＨＥＲ,,株式会社,神奈川県,川崎市高津区,北見方１丁目２９－１４,,14,134,2130005,,,,,,,2025-03-03,1,,,,,プットトゥギャザー,0
737,4020001161645,新規,0,2025-03-03,2025-03-03,株式会社セカンド,,株式会社,神奈川県,川崎市多摩区,登戸２６６３番地,,14,135,2140014,,,,,,,2025-03-03,1,,,,,セカンド,0
748,4021001084514,新規,0,2025-03-03,2025-03-03,株式会社ＬＵＣＨＴ,,株式会社,神奈川県,藤沢市,辻堂神台２丁目２―１アイクロス湘南５Ｆ,,14,205,2510041,,,,,,,2025-03-03,1,,,,,ルフト,0
758,4030001165075,新規,0,2025-03-03,2025-03-03,株式会社山本機械,,株式会社,埼玉県,加須市,中種足３２１４番地１１,,11,210,3470114,,,,,,,2025-03-03,1,,,,,ヤマモトキカイ,0
759,4030001165100,新規,0,2025-03-03,2025-03-03,株式会社フェルム,,株式会社,埼玉県,さいたま市大宮区,宮町３丁目６８番２号,,11,103,3300802,,,,,,,2025-03-03,1,,,,,フェルム,0
760,4030001165109,新規,0,2025-03-03,2025-03-03,株式会社サンライズ,,株式会社,埼玉県,草加市,氷川町２１４０番地２１アサヒハイツ３０１,,11,221,3400034,,,,,,,2025-03-03,1,,,,,サンライズ,0
761,4030001165117,新規,0,2025-03-03,2025-03-03,株式会社リノ,,株式会社,埼玉県,川越市,新宿町１丁目１７番地１,,11,201,3501124,,,,,,,2025-03-03,1,,,,,リノ,0
766,4040001137602,新規,0,2025-03-03,2025-03-03,ＩＲＯＮ　ＡＳＳＥＴ　ＪＡＰＡＮ株式会社,,株式会社,千葉県,流山市,東初石３丁目１２５番地の３９,,12,220,2700114,,,,,,,2025-03-03,1,,,,,アイアンアセットジャパン,0
769,4040003027000,新規,0,2025-03-03,2025-03-03,Ｗ　Ｂｏｇｅｙ合同会社,,合同会社,千葉県,千葉市若葉区,都賀３丁目１３－８キャトルセゾン都賀３０５,,12,104,2640025,,,,,,,2025-03-03,1,,,,,ダブルボギー,0
773,4050003009063,新規,0,2025-03-03,2025-03-03,合同会社あゆみそう,,合同会社,茨城県,古河市,中田１３３６番地２,,08,204,3060053,,,,,,,2025-03-03,1,,,,,アユミソウ,0
775,4060003005441,新規,0,2025-03-03,2025-03-03,ユーデザイン合同会社,,合同会社,栃木県,大田原市,美原２丁目３３０５番地１１,,09,210,3240047,,,,,,,2025-03-03,1,,,,,ユーデザイン,0
801,4120001273348,新規,0,2025-03-03,2025-03-03,株式会社ＲａｉＬｕ,,株式会社,大阪府,門真市,四宮６丁目３番１３号,,27,223,5710017,,,,,,,2025-03-03,1,,,,,ライル,0
808,4120901050499,新規,0,2025-03-03,2025-03-03,株式会社祐工業,,株式会社,大阪府,摂津市,千里丘東５丁目９番１１号Ａｓｉｘ１０１,,27,224,5660011,,,,,,,2025-03-03,1,,,,,ユウコウギョウ,0
809,4120901050508,新規,0,2025-03-03,2025-03-03,株式会社ステラランゲージスクール,,株式会社,大阪府,摂津市,千里丘東３丁目２番２１号,,27,224,5660011,,,,,,,2025-03-03,1,,,,,ステラランゲージスクール,0
812,4140001137567,新規,0,2025-03-03,2025-03-03,ラィヒトゥーム株式会社,,株式会社,兵庫県,尼崎市,道意町６丁目２９番地の６,,28,202,6600083,,,,,,,2025-03-03,1,,,,,ラィヒトゥーム,0
816,4150001027908,新規,0,2025-03-03,2025-03-03,株式会社ｅＲ,,株式会社,奈良県,大和高田市,大字秋吉７３－３,,29,202,6350053,,,,,,,2025-03-03,1,,,,,イーアール,0
824,4180001165630,新規,0,2025-03-03,2025-03-03,株式会社ブル・ベア,,株式会社,愛知県,名古屋市中村区,名駅４丁目２４番５号第２森ビル４０１,,23,105,4500002,,,,,,,2025-03-03,1,,,,,ブルベア,0
829,4180003028059,新規,0,2025-03-03,2025-03-03,合同会社ＭＳオレンジ,,合同会社,愛知県,名古屋市昭和区,檀溪通１丁目３６番地ハピネス川名１階,,23,107,4660842,,,,,,,2025-03-03,1,,,,,エムエスオレンジ,0
840,4200001043478,新規,0,2025-03-03,2025-03-03,飛騨五木ホールディングス株式会社,,株式会社,岐阜県,高山市,江名子町２７１５番地１１,,21,203,5060818,,,,,,,2025-03-03,1,,,,,ヒダゴボクホールディングス,0
850,4240003007089,新規,0,2025-03-03,2025-03-03,合同会社スマイルＣ,,合同会社,広島県,東広島市,高屋高美が丘６丁目２番３号,,34,212,7392115,,,,,,,2025-03-03,1,,,,,スマイルシー,0
853,4260001039941,新規,0,2025-03-03,2025-03-03,株式会社ＮｅｘｔＰｌｕｓ,,株式会社,岡山県,岡山市北区,昭和町４番１７号プレミスト岡山ザ・レジデンス１２１１号室,,33,101,7000032,,,,,,,2025-03-03,1,,,,,ネクストプラス,0
859,4290001109031,新規,0,2025-03-03,2025-03-03,株式会社Ｉｎｖｏｌｖｅ　ｇａｒｄｅｎ,,株式会社,福岡県,福岡市中央区,薬院１丁目７番１２号セルクル薬院５階,,40,133,8100022,,,,,,,2025-03-03,1,,,,,インボルブガーデン,0
860,4290001109114,新規,0,2025-03-03,2025-03-03,株式会社ＡＰＬＯ,,株式会社,福岡県,福岡市博多区,博多駅前３丁目２７番２５号８Ｆ,,40,132,8120011,,,,,,,2025-03-03,1,,,,,アプロ,0
864,4300001014097,新規,0,2025-03-03,2025-03-03,株式会社ナンヨウファーム,,株式会社,佐賀県,嬉野市,塩田町大字五町田乙３０８７番地,,41,209,8491426,,,,,,,2025-03-03,1,,,,,ナンヨウファーム,0
870,4360001034841,新規,0,2025-03-03,2025-03-03,株式会社ＳＷＩＴＣＨ　ＰＲＯＪＥＣＴ,,株式会社,沖縄県,中頭郡中城村,字南上原１０６１番地１、８０街区２画地,,47,328,9012424,,,,,,,2025-03-03,1,,,,,スイッチプロジェクト,0
871,4360005007182,新規,0,2025-03-03,2025-03-03,特定非営利活動法人ゆいまーる古宇利,,その他の設立登記法人,沖縄県,那覇市,首里石嶺町２丁目６７番地５ライオンズ首里石嶺１０３,,47,201,9030804,,,,,,,2025-03-03,1,,,,,ユイマールコウリ,0
873,4370001052306,新規,0,2025-03-03,2025-03-03,株式会社Ｂ‐ｓｔｙｌｅ,,株式会社,宮城県,仙台市若林区,上飯田１丁目２２番２８号,,04,103,9840838,,,,,,,2025-03-03,1,,,,,ビースタイル,0
875,4370003006953,新規,0,2025-03-03,2025-03-03,合同会社ＳＫ機工,,合同会社,宮城県,遠田郡涌谷町,小里字岸ケ森東２３０番地,,04,501,9870281,,,,,,,2025-03-03,1,,,,,エスケーキコウ,0
877,4400001016959,新規,0,2025-03-03,2025-03-03,三光レーザー株式会社,,株式会社,岩手県,一関市,真柴字曽根田１０番地４,,03,209,0210901,,,,,,,2025-03-03,1,,,,,サンコウレーザー,0
881,4420001019035,新規,0,2025-03-03,2025-03-03,ディーテクノサービス株式会社,,株式会社,青森県,八戸市,根城１丁目２９番４号,,02,203,0391166,,,,,,,2025-03-03,1,,,,,ディーテクノサービス,0
883,4430001093780,新規,0,2025-03-03,2025-03-03,株式会社壱六商会,,株式会社,北海道,札幌市北区,新川西四条４丁目１０番７号,,01,102,0010934,,,,,,,2025-03-03,1,,,,,イチロクショウカイ,0
884,4430001093789,新規,0,2025-03-03,2025-03-03,株式会社巧美洗,,株式会社,北海道,札幌市中央区,南二十八条西１１丁目２番２号３階,,01,101,0640928,,,,,,,2025-03-03,1,,,,,タクミビセン,0
886,4430003017333,新規,0,2025-03-03,2025-03-03,合同会社オールフローター,,合同会社,北海道,登別市,中央町２丁目１４－５,,01,230,0590012,,,,,,,2025-03-03,1,,,,,オールフローター,0
887,4430005015161,新規,0,2025-03-03,2025-03-03,一般社団法人ＵｎｉｔＳａｐｐｏｒｏ７,,その他の設立登記法人,北海道,札幌市東区,北八条東４丁目１番２０号２階,,01,103,0600908,,,,,,,2025-03-03,1,,,,,ユニットサッポロセブン,0
889,4700150129408,新規,0,2025-03-03,2025-03-03,宮城県仙台第三高等学校尚志会,,その他,宮城県,仙台市宮城野区,鶴ケ谷１丁目１９,,04,102,9830824,,,,,,,2025-03-03,1,,,,,ミヤギケンセンダイダイサンコウトウガッコウショウシカイ,0
899,5010401188552,新規,0,2025-03-03,2025-03-03,株式会社ＩＳＧ,,株式会社,東京都,港区,三田２丁目２番１５号,,13,103,1080073,,,,,,,2025-03-03,1,,,,,アイエスジー,0
900,5010401188569,新規,0,2025-03-03,2025-03-03,株式会社ＮＥＰＡＬ　ＨＹＤＲＯ　ＰＯＷＥＲ　ＨＯＬＤＩＮＧＳ,,株式会社,東京都,港区,東麻布１丁目９番１１号９階,,13,103,1060044,,,,,,,2025-03-03,1,,,,,ネパルハイドロパワーホールディングス,0
901,5010403034366,新規,0,2025-03-03,2025-03-03,合同会社ナンドデモ,,合同会社,東京都,港区,海岸２丁目３番７－２０１号,,13,103,1050022,,,,,,,2025-03-03,1,,,,,ナンドデモ,0
902,5010405024118,新規,0,2025-03-03,2025-03-03,みつばちフェローシップ一般社団法人,,その他の設立登記法人,東京都,港区,浜松町２丁目２番１５号浜松町ダイヤビル２Ｆ,,13,103,1050013,,,,,,,2025-03-03,1,,,,,ミツバチフェローシップ,0
907,5010601066871,新規,0,2025-03-03,2025-03-03,ＭｅｔａｌＷｏｒｋｓ株式会社,,株式会社,東京都,江東区,東陽５丁目２８―６ＴＳビル,,13,108,1350016,,,,,,,2025-03-03,1,,,,,メタルワークス,0
911,5010903009751,新規,0,2025-03-03,2025-03-03,合同会社ロケガモン,,合同会社,東京都,世田谷区,桜上水４丁目１番,,13,112,1560045,,,,,,,2025-03-03,1,,,,,ロケガモン,0
919,5011001168093,新規,0,2025-03-03,2025-03-03,株式会社Ｗｈａｔｅｖｅｒ,,株式会社,東京都,目黒区,中目黒１丁目１番４５号ｎａｋａｍｅＢＯＸＣ１０１,,13,110,1530061,,,,,,,2025-03-03,1,,,,,ワテバー,0
920,5011001168151,新規,0,2025-03-03,2025-03-03,株式会社１０ＭＡＮＩ,,株式会社,東京都,渋谷区,初台１丁目２番５‐５０１号リヴシティ初台,,13,113,1510061,,,,,,,2025-03-03,1,,,,,トマニ,0
922,5011003021119,新規,0,2025-03-03,2025-03-03,合同会社ＧＹＡＫＵＴＥＮ,,合同会社,東京都,渋谷区,神泉町１０‐１５,,13,113,1500045,,,,,,,2025-03-03,1,,,,,ギャクテン,0
928,5011101110789,新規,0,2025-03-03,2025-03-03,株式会社プロキシマ,,株式会社,東京都,新宿区,北新宿１丁目２２番７号ＩＣＭマンション２階２０２号室,,13,104,1690074,,,,,,,2025-03-03,1,,,,,プロキシマ,0
936,5011401026859,新規,0,2025-03-03,2025-03-03,ａｒｔｈｏｕｓｅ株式会社,,株式会社,東京都,板橋区,坂下１丁目５番５－１０２号,,13,119,1740043,,,,,,,2025-03-03,1,,,,,アートハウス,0
937,5011401026867,新規,0,2025-03-03,2025-03-03,株式会社ＵＮＥＡＤ,,株式会社,東京都,板橋区,東山町４７番１０号,,13,119,1740073,,,,,,,2025-03-03,1,,,,,ユニード,0
938,5011501031767,新規,0,2025-03-03,2025-03-03,株式会社道壹商事,,株式会社,東京都,荒川区,西尾久４丁目２５番２－４０４号,,13,118,1160011,,,,,,,2025-03-03,1,,,,,ドウイショウジ,0
942,5012401042821,新規,0,2025-03-03,2025-03-03,株式会社寿,,株式会社,東京都,多摩市,馬引沢１丁目８番地の５－１０１,,13,224,2060023,,,,,,,2025-03-03,1,,,,,コトブキ,0
943,5012403006997,新規,0,2025-03-03,2025-03-03,ＡＡＤＡＲＳＨＡ合同会社,,合同会社,東京都,調布市,八雲台１丁目２６番地８,,13,208,1820015,,,,,,,2025-03-03,1,,,,,アダルシャ,0
944,5012803003644,新規,0,2025-03-03,2025-03-03,オークツリー・キャピタル合同会社,,合同会社,東京都,国立市,西２丁目８番地の１２３,,13,215,1860005,,,,,,,2025-03-03,1,,,,,オークツリーキャピタル,0
950,5013301053859,新規,0,2025-03-03,2025-03-03,株式会社Ｒｅｖｅ,,株式会社,東京都,豊島区,東池袋１丁目９番８号－５階,,13,116,1700013,,,,,,,2025-03-03,1,,,,,レヴ,0
967,5021001084570,新規,0,2025-03-03,2025-03-03,株式会社Ｃ’ｅｓｔ　ｌａ　Ｖｉｅ．ｃｏ,,株式会社,神奈川県,海老名市,上今泉１丁目２０番３４－２号,,14,215,2430431,,,,,,,2025-03-03,1,,,,,セラビィ,0
971,5030001165090,新規,0,2025-03-03,2025-03-03,株式会社ヒロタカ,,株式会社,埼玉県,鶴ヶ島市,大字富士見３４３番地５,,11,241,3502201,,,,,,,2025-03-03,1,,,,,ヒロタカ,0
972,5030001165099,新規,0,2025-03-03,2025-03-03,姿勢美人株式会社,,株式会社,埼玉県,春日部市,備後東４丁目１０番３２号,,11,214,3440032,,,,,,,2025-03-03,1,,,,,シセイビジン,0
973,5030001165124,新規,0,2025-03-03,2025-03-03,Ａｌｌｉｅｄ　Ｐｒｏｆｉｔ　Ｇｒｏｕｐ　Ｊａｐａｎ株式会社,,株式会社,埼玉県,川口市,大字道合６１－１,,11,203,3330835,,,,,,,2025-03-03,1,,,,,アライドプロフィットグループジャパン,0
974,5030001165132,新規,0,2025-03-03,2025-03-03,株式会社ＴＲＫ,,株式会社,埼玉県,戸田市,川岸３丁目３番１１号,,11,224,3350015,,,,,,,2025-03-03,1,,,,,ティーアールケー,0
975,5030003026225,新規,0,2025-03-03,2025-03-03,合同会社デントリペア関東,,合同会社,埼玉県,さいたま市桜区,田島１０丁目１８番１号５１５,,11,106,3380837,,,,,,,2025-03-03,1,,,,,デントリペアカントウ,0
976,5030003026233,新規,0,2025-03-03,2025-03-03,合同会社ムサシトレーディング,,合同会社,埼玉県,坂戸市,中富町４７番地６－１階,,11,239,3500232,,,,,,,2025-03-03,1,,,,,ムサシトレーディング,0
981,5040001137592,新規,0,2025-03-03,2025-03-03,丸賀創業株式会社,,株式会社,千葉県,船橋市,湊町２丁目１１番１３号ライオンズ船橋シーズンフォート８０４,,12,204,2730011,,,,,,,2025-03-03,1,,,,,マルガソウギョウ,0
982,5040003026934,新規,0,2025-03-03,2025-03-03,ＫＮ合同会社,,合同会社,千葉県,市川市,相之川４丁目３番９号,,12,203,2720143,,,,,,,2025-03-03,1,,,,,ケーエヌ,0
983,5040005022675,新規,0,2025-03-03,2025-03-03,ＮＰＯ法人わん’ｓＬｉｎｋ,,その他の設立登記法人,千葉県,君津市,人見２丁目１２番８号,,12,225,2991147,,,,,,,2025-03-03,1,,,,,ワンズリンク,0
986,5050001056247,新規,0,2025-03-03,2025-03-03,株式会社Ｃａｒｅｅｒ　Ｂａｌｍ,,株式会社,茨城県,常総市,水海道川又町４３８番地,,08,211,3030032,,,,,,,2025-03-03,1,,,,,キャリアバーム,0
987,5050003009062,新規,0,2025-03-03,2025-03-03,Ｉ’ｓ合同会社,,合同会社,茨城県,常総市,東野原１６１番地１イーストフィールドＢ２０６,,08,211,3002717,,,,,,,2025-03-03,1,,,,,アイズ,0
988,5060001037956,新規,0,2025-03-03,2025-03-03,大利根マシナリー株式会社,,株式会社,栃木県,足利市,羽刈町５５６番地,,09,202,3260327,,,,,,,2025-03-03,1,,,,,オオトネマシナリー,0
995,5090003002757,新規,0,2025-03-03,2025-03-03,合同会社サポート,,合同会社,山梨県,甲府市,飯田１丁目３－２８,,19,201,4000035,,,,,,,2025-03-03,1,,,,,サポート,0
997,5100001038339,新規,0,2025-03-03,2025-03-03,株式会社アークシェルデザインズ,,株式会社,長野県,茅野市,北山４０３５－１５８５,,20,214,3910301,,,,,,,2025-03-03,1,,,,,アークシェルデザインズ,0
1003,5120001087292,新規,0,2025-03-03,2025-03-03,服部株式会社,,株式会社,大阪府,大阪市中央区,南新町１丁目３番６号,,27,128,5400024,,,,,,,2025-03-03,1,,,,,ハットリ,0
1010,5120001273314,新規,0,2025-03-03,2025-03-03,株式会社シンパシー,,株式会社,大阪府,大阪市中央区,南船場３丁目２番２２号,,27,128,5420081,,,,,,,2025-03-03,1,,,,,シンパシー,0
1011,5120001273330,新規,0,2025-03-03,2025-03-03,株式会社Ｃｈａｌｌｅｎｇｅ　Ｒｏａｄ,,株式会社,大阪府,大阪市東淀川区,豊里７丁目２０番２１号,,27,114,5330013,,,,,,,2025-03-03,1,,,,,チャレンジロード,0
1014,5120003028575,新規,0,2025-03-03,2025-03-03,合同会社ＴＡＫＩＢＩ,,合同会社,大阪府,大阪市福島区,福島７丁目１－１０ＷｉＺｆｕｋｕｓｈｉｍａ２階,,27,103,5530003,,,,,,,2025-03-03,1,,,,,タキビ,0
1015,5120003028732,新規,0,2025-03-03,2025-03-03,合同会社ティティ,,合同会社,大阪府,大阪市生野区,新今里４丁目１１－９－２Ｆ,,27,116,5440001,,,,,,,2025-03-03,1,,,,,ティティ,0
1017,5120903005566,新規,0,2025-03-03,2025-03-03,合同会社Ａｉｌｕｘ,,合同会社,大阪府,吹田市,五月が丘東８番Ａ－８０７号,,27,205,5650831,,,,,,,2025-03-03,1,,,,,アイラックス,0
1020,5130001079033,新規,0,2025-03-03,2025-03-03,株式会社Ａマテリアル,,株式会社,京都府,京田辺市,松井ケ丘３丁目２０番地１８,,26,211,6100353,,,,,,,2025-03-03,1,,,,,エーマテリアル,0
1022,5140001137566,新規,0,2025-03-03,2025-03-03,株式会社ＲＡＨＲ,,株式会社,兵庫県,尼崎市,神田中通３番４９号ログキャビンビル１Ｆ,,28,202,6600000,,,,,,,2025-03-03,1,,,,,ラール,0
1027,5150001027907,新規,0,2025-03-03,2025-03-03,日藥本舗株式会社,,株式会社,奈良県,御所市,大字茅原２２０番地の１,,29,208,6392241,,,,,,,2025-03-03,1,,,,,ニチヤクホンポ,0
1035,5180001165621,新規,0,2025-03-03,2025-03-03,株式会社Ｔ‐Ｃｌａｓｓ,,株式会社,愛知県,名古屋市中区,錦２丁目７番７号プラウドタワー名古屋錦１３１５号,,23,106,4600003,,,,,,,2025-03-03,1,,,,,ティークラス,0
1036,5180001165646,新規,0,2025-03-03,2025-03-03,株式会社Ｄ＆Ｄ,,株式会社,愛知県,名古屋市港区,川間町１丁目２５０番地グランドヒルズＩＩ３０３号,00138179,23,111,4550076,,,,,,,2025-03-03,1,,,,,ディーアンドディー,0
1037,5180001165654,新規,0,2025-03-03,2025-03-03,株式会社Ａｐｐｒｏ‐８ｌｉｎｋ,,株式会社,愛知県,名古屋市西区,笠取町１丁目１１番地の１,,23,104,4510072,,,,,,,2025-03-03,1,,,,,アポロエイトリンク,0
1039,5180003028058,新規,0,2025-03-03,2025-03-03,再エネ塗装コンサルタント合同会社,,合同会社,愛知県,名古屋市南区,大同町３丁目４番地の６,,23,112,4570811,,,,,,,2025-03-03,1,,,,,サイエネトソウコンサルタント,0
1040,5180003028066,新規,0,2025-03-03,2025-03-03,合同会社サンセットオレンジ,,合同会社,愛知県,小牧市,大字本庄２５９７－３４９,,23,219,4850821,,,,,,,2025-03-03,1,,,,,サンセットオレンジ,0
1041,5180301039558,新規,0,2025-03-03,2025-03-03,株式会社ムーブ,,株式会社,愛知県,豊橋市,飯村南５丁目６番地３２,,23,201,4400835,,,,,,,2025-03-03,1,,,,,ムーブ,0
1051,5240001064569,新規,0,2025-03-03,2025-03-03,株式会社ＨＡＭＯＡ,,株式会社,広島県,尾道市,向島町５７９－７,,34,205,7220073,,,,,,,2025-03-03,1,,,,,ハモア,0
1054,5240003007088,新規,0,2025-03-03,2025-03-03,合同会社萬代,,合同会社,広島県,広島市西区,高須３丁目４－１５,,34,104,7330871,,,,,,,2025-03-03,1,,,,,マンダイ,0
1055,5250003003656,新規,0,2025-03-03,2025-03-03,ロンフレ合同会社,,合同会社,山口県,下松市,潮音町３丁目１２番５号パークハイツ２０６号,,35,207,7440074,,,,,,,2025-03-03,1,,,,,ロンフレ,0
1060,5290001108858,新規,0,2025-03-03,2025-03-03,ＹＮＧＷ　ＤＮＡ株式会社,,株式会社,福岡県,柳川市,本城町１２５番地,,40,207,8320061,,,,,,,2025-03-03,1,,,,,ヤナガワディーエヌエー,0
1061,5290001109138,新規,0,2025-03-03,2025-03-03,株式会社ビーネクスト,,株式会社,福岡県,福岡市南区,向新町２丁目２番３３号エスポワール９５－３０３号室,,40,134,8111345,,,,,,,2025-03-03,1,,,,,ビーネクスト,0
1062,5290001109146,新規,0,2025-03-03,2025-03-03,立川船舶商会株式会社,,株式会社,福岡県,福岡市東区,箱崎５丁目１１番３－１５０４号,,40,131,8120053,,,,,,,2025-03-03,1,,,,,タツカワセンパクショウカイ,0
1067,5290003016472,新規,0,2025-03-03,2025-03-03,合同会社Ｂｏｏｓｔｅｒ,,合同会社,福岡県,糟屋郡篠栗町,大字篠栗４１１５番地,,40,342,8112405,,,,,,,2025-03-03,1,,,,,ブースター,0
1081,5380005012923,新規,0,2025-03-03,2025-03-03,一般社団法人コトづくり,,その他の設立登記法人,福島県,南相馬市,小高区本町１丁目８７番地,,07,212,9792124,,,,,,,2025-03-03,1,,,,,コトヅクリ,0
1082,5390001017891,新規,0,2025-03-03,2025-03-03,株式会社ＥＶライフデザイン山形,,株式会社,山形県,山形市,上山家町字下宿７６６番地６,,06,201,9900004,,,,,,,2025-03-03,1,,,,,イーブイライフデザイン,0
1085,5410001014077,新規,0,2025-03-03,2025-03-03,株式会社咲くら,,株式会社,秋田県,大館市,字観音堂３９６番地１,,05,204,0170042,,,,,,,2025-03-03,1,,,,,サクラ,0
1086,5410003004051,新規,0,2025-03-03,2025-03-03,合同会社Ｍネクスト,,合同会社,秋田県,秋田市,泉南３丁目６‐２４,,05,201,0100918,,,,,,,2025-03-03,1,,,,,,0
1093,5700150128689,新規,0,2025-03-03,2025-01-14,パティーナ本所吾妻橋管理組合,,その他,東京都,墨田区,東駒形４丁目１３－１８,,13,107,1300005,,,,,,,2025-01-14,1,,,,,パテイーナホンジヨアズマバシカンリクミアイ,0
1094,5700150129407,新規,0,2025-03-03,2025-03-03,ＷｅｉＳｉＴｅＬｕｏ　ＸｉａＭｅｎ　ＷａｎｇＬｕｏＫｅＪｉＹｏｕＸｉａｎＧｏｎｇＳｉ,,外国会社等,,,,,,,,Ｕｎｉｔ　２０２，Ｎｏ．９９，Ｔａｐｕ　Ｗｅｓｔ　Ｒｏａｄ，Ｘｉａｍｅｎ，Ｓｉｍｉｎｇ　Ｄｉｓｔｒｉｃｔ，Ｃｈｉｎａ,,,,,,2025-03-03,1,,,,,ウェイステロウシャメンワンロウカギユウゲンコウシ,0
1102,6010003046587,新規,0,2025-03-03,2025-03-03,合同会社エム,,合同会社,東京都,中央区,勝どき４丁目６番１－３５２７号,,13,102,1040054,,,,,,,2025-03-03,1,,,,,エム,0
1103,6010005039647,新規,0,2025-03-03,2025-03-03,弁護士法人沖崎綜合法律事務所,,その他の設立登記法人,東京都,千代田区,二番町８番地７二番町パークフォレスト１１階,,13,101,1020084,,,,,,,2025-03-03,1,,,,,オキザキソウゴウホウリツジムショ,0
1104,6010005039655,新規,0,2025-03-03,2025-03-03,ＧＬＰＪＤＰ４ソーラー一般社団法人,,その他の設立登記法人,東京都,千代田区,丸の内１丁目４番１号東京共同会計事務所内,,13,101,1000005,,,,,,,2025-03-03,1,,,,,ジーエルピージェイディーピーフォーソーラー,0
1107,6010401188527,新規,0,2025-03-03,2025-03-03,ＮＡＤＡ株式会社,,株式会社,東京都,港区,北青山１丁目３－３三橋ビル３階,,13,103,1070061,,,,,,,2025-03-03,1,,,,,ナダ,0
1113,6010601066862,新規,0,2025-03-03,2025-03-03,株式会社ＳＯＨＮＥ,,株式会社,東京都,墨田区,吾妻橋２丁目４番１１号武藤ビル３階,,13,107,1300001,,,,,,,2025-03-03,1,,,,,ゾーネ,0
1123,6011001168101,新規,0,2025-03-03,2025-03-03,株式会社ワンホース,,株式会社,東京都,渋谷区,桜丘町１４番１号,,13,113,1500031,,,,,,,2025-03-03,1,,,,,ワンホース,0
1125,6011003021084,新規,0,2025-03-03,2025-03-03,合同会社ＮＥＯ　ＣＡＲＲＹ,,合同会社,東京都,渋谷区,神泉町１０番１５号アネックス神泉３０１,,13,113,1500045,,,,,,,2025-03-03,1,,,,,ネオキャリー,0
1127,6011101110796,新規,0,2025-03-03,2025-03-03,Ｂｕｓｉｎｅｓｓ　Ｖａｌｕｅ　Ｃｏｎｓｕｌｔｉｎｇ株式会社,,株式会社,東京都,新宿区,西新宿７丁目２２－２９エスポワール富士７階７０１,,13,104,1600023,,,,,,,2025-03-03,1,,,,,ビジネスバリューコンサルティング,0
1129,6011201026158,新規,0,2025-03-03,2025-03-03,株式会社未来来夢,,株式会社,東京都,中野区,上高田５丁目２２番６号ボヌール１Ｆ,,13,114,1640002,,,,,,,2025-03-03,1,,,,,ミラクルム,0
1135,6011303005431,新規,0,2025-03-03,2025-03-03,合同会社ｎｕｅｖｅ,,合同会社,東京都,杉並区,高円寺南４丁目７番１３号仲野ビル２号室,,13,115,1660003,,,,,,,2025-03-03,1,,,,,ヌエベ,0
1136,6011401026858,新規,0,2025-03-03,2025-03-03,ＧＯＯＤＳＴＯＲＥ株式会社,,株式会社,東京都,板橋区,板橋１丁目４０番３－２０１号サンライズビル,,13,119,1730004,,,,,,,2025-03-03,1,,,,,グッドストア,0
1137,6011401026866,新規,0,2025-03-03,2025-03-03,株式会社吉田工務店,,株式会社,東京都,板橋区,小茂根３丁目７番２１号,,13,119,1730037,,,,,,,2025-03-03,1,,,,,ヨシダコウムテン,0
1142,6011505002680,新規,0,2025-03-03,2025-03-03,一般社団法人健康マネジメント協会,,その他の設立登記法人,東京都,荒川区,西日暮里２丁目３６番１５号,,13,118,1160013,,,,,,,2025-03-03,1,,,,,ケンコウマネジメントキョウカイ,0
1143,6011601028464,新規,0,2025-03-03,2025-03-03,株式会社フラット・ティ,,株式会社,東京都,練馬区,桜台３丁目３１番１３号,,13,120,1760002,,,,,,,2025-03-03,1,,,,,フラットティ,0
1148,6011803006714,新規,0,2025-03-03,2025-03-03,合同会社ＣＵＴＥ,,合同会社,東京都,足立区,綾瀬５丁目７番６－５０１号ベルシード綾瀬ｄｕｅ＃Ｒ,,13,121,1200005,,,,,,,2025-03-03,1,,,,,キュート,0
1158,6020001161148,新規,0,2025-03-03,2025-03-03,株式会社Ｄａｉｍｍｙ,,株式会社,神奈川県,横浜市旭区,市沢町１１３３番地５ラマージュＸ２０５,,14,112,2410014,,,,,,,2025-03-03,1,,,,,ダイミー,0
1159,6020001161585,新規,0,2025-03-03,2025-03-03,オーシャンリンクスジャパン株式会社,,株式会社,神奈川県,横浜市港南区,下永谷６丁目２４番４９－３０６号,,14,111,2330016,,,,,,,2025-03-03,1,,,,,オーシャンリンクスジャパン,0
1160,6020001161619,新規,0,2025-03-03,2025-03-03,株式会社ＣＲＡＳＩＡ,,株式会社,神奈川県,横浜市瀬谷区,瀬谷６丁目１２番地２７,,14,114,2460031,,,,,,,2025-03-03,1,,,,,クラシア,0
1164,6020003027917,新規,0,2025-03-03,2025-03-03,ｔａｌｙ合同会社,,合同会社,神奈川県,横浜市緑区,霧が丘３丁目６‐１２,,14,113,2260016,,,,,,,2025-03-03,1,,,,,タリー,0
1165,6020003027933,新規,0,2025-03-03,2025-03-03,合同会社歩月映像,,合同会社,神奈川県,横浜市神奈川区,六角橋１丁目２６番６号,,14,102,2210802,,,,,,,2025-03-03,1,,,,,ホヅキエイゾウ,0
1174,6030001165098,新規,0,2025-03-03,2025-03-03,株式会社ＯｐｅｎＳｋｙ,,株式会社,埼玉県,富士見市,関沢２丁目６番３１－２０８号,,11,235,3540025,,,,,,,2025-03-03,1,,,,,オープンスカイ,0
1175,6030001165107,新規,0,2025-03-03,2025-03-03,エスアイエスエス株式会社,,株式会社,埼玉県,さいたま市浦和区,本太３丁目１１番１６－１０号,,11,107,3300052,,,,,,,2025-03-03,1,,,,,エスアイエスエス,0
1176,6030001165115,新規,0,2025-03-03,2025-03-03,紅葉株式会社,,株式会社,埼玉県,新座市,新座１丁目３－２,,11,230,3520006,,,,,,,2025-03-03,1,,,,,コウヨウ,0
1179,6030002122263,新規,0,2025-03-03,2025-03-03,有限会社眞下建築,,有限会社,埼玉県,秩父郡皆野町,大字皆野２５３９番地の６,,11,362,3691412,,,,,,,2025-03-03,1,,,,,マシモケンチク,0
1181,6030003026224,新規,0,2025-03-03,2025-03-03,合同会社清水工芸,,合同会社,埼玉県,さいたま市岩槻区,大字釣上３３番地,,11,110,3390024,,,,,,,2025-03-03,1,,,,,シミズコウゲイ,0
1182,6030003026240,新規,0,2025-03-03,2025-03-03,合同会社ＫＧ　Ｌｉｆｅ　Ｐａｒｔｎｅｒｓ,,合同会社,埼玉県,さいたま市大宮区,桜木町２丁目３番地大宮マルイ７Ｆ,,11,103,3300854,,,,,,,2025-03-03,1,,,,,ケイジーライフパートナーズ,0
1186,6040001137583,新規,0,2025-03-03,2025-03-03,株式会社ユキジャパン,,株式会社,千葉県,千葉市美浜区,高洲３丁目５番１棟１３０９号,,12,106,2610004,,,,,,,2025-03-03,1,,,,,ユキジャパン,0
1187,6040001137591,新規,0,2025-03-03,2025-03-03,株式会社ジェーユーエヌ,,株式会社,千葉県,船橋市,旭町１丁目１５番２１号,,12,204,2730041,,,,,,,2025-03-03,1,,,,,ジェーユーエヌ,0
1204,6100001038338,新規,0,2025-03-03,2025-03-03,株式会社ゴーケン,,株式会社,長野県,松本市,寿北５丁目２８番１１号ＹＫビル３０２,,20,202,3990011,,,,,,,2025-03-03,1,,,,,ゴーケン,0
1213,6120001273239,新規,0,2025-03-03,2025-03-03,優勝株式会社,,株式会社,大阪府,大阪市浪速区,日本橋東２丁目４番２号ＭＯＯビル１階,,27,111,5560006,,,,,,,2025-03-03,1,,,,,ユウショウ,0
1214,6120001273296,新規,0,2025-03-03,2025-03-03,ＺＥＲＯ不動産株式会社,,株式会社,大阪府,大阪市浪速区,難波中３丁目１６番１１号－４５８,,27,111,5560011,,,,,,,2025-03-03,1,,,,,ゼロフドウサン,0
1215,6120001273321,新規,0,2025-03-03,2025-03-03,ＳＲ株式会社,,株式会社,大阪府,大阪市東成区,東小橋１丁目１３－１６,,27,115,5370024,,,,,,,2025-03-03,1,,,,,エスアール,0
1231,6130001079032,新規,0,2025-03-03,2025-03-03,株式会社ＡＹＭマーケティング,,株式会社,京都府,京田辺市,松井ケ丘３丁目２０番地１８,,26,211,6100353,,,,,,,2025-03-03,1,,,,,エーワイエムマーケティング,0
1233,6130003010242,新規,0,2025-03-03,2025-03-03,合同会社Ｍ．Ａ．Ｍ　ｎｏｍａｄ,,合同会社,京都府,京都市伏見区,日野野色町７番地９,,26,109,6011415,,,,,,,2025-03-03,1,,,,,エムエーエムノマド,0
1235,6140001137565,新規,0,2025-03-03,2025-03-03,株式会社ＳＥＣ,,株式会社,兵庫県,高砂市,米田町塩市４４２番地の２,,28,216,6760806,,,,,,,2025-03-03,1,,,,,エスイーシー,0
1237,6160003003409,新規,0,2025-03-03,2025-03-03,合同会社つくし,,合同会社,滋賀県,彦根市,芹橋２丁目１‐１７,,25,202,5220087,,,,,,,2025-03-03,1,,,,,ツクシ,0
1239,6170001018515,新規,0,2025-03-03,2025-03-03,ＳＯＤＥＮ株式会社,,株式会社,和歌山県,和歌山市,秋月５１６番地８,,30,201,6408322,,,,,,,2025-03-03,1,,,,,ソウデン,0
1246,6180001165637,新規,0,2025-03-03,2025-03-03,株式会社上地組,,株式会社,愛知県,名古屋市南区,神松町２丁目２０番地神松荘６棟５０１号,,23,112,4570824,,,,,,,2025-03-03,1,,,,,ウエチグミ,0
1247,6180001165653,新規,0,2025-03-03,2025-03-03,株式会社買取カーマッチ,,株式会社,愛知県,名古屋市西区,笠取町１丁目１１番地の１,,23,104,4510072,,,,,,,2025-03-03,1,,,,,カイトリカーマッチ,0
1253,6180003028057,新規,0,2025-03-03,2025-03-03,ＧＶ合同会社,,合同会社,愛知県,名古屋市中村区,名駅３丁目４－１０アルティメイト名駅１ｓｔ２階,,23,105,4500002,,,,,,,2025-03-03,1,,,,,ジーブイ,0
1276,6240003007087,新規,0,2025-03-03,2025-03-03,合同会社Ｒｉｎｇ,,合同会社,広島県,安芸高田市,美土里町横田４７６６‐１,,34,214,7310611,,,,,,,2025-03-03,1,,,,,リング,0
1281,6260003005080,新規,0,2025-03-03,2025-03-03,合同会社エー・アール・エー,,合同会社,岡山県,倉敷市,宮前３８０番地５６,,33,202,7100065,,,,,,,2025-03-03,1,,,,,エーアールエー,0
1285,6290001108857,新規,0,2025-03-03,2025-03-03,Ｆｕｔｕｒｅ　Ｅｓｔａｔｅ株式会社,,株式会社,福岡県,柳川市,本城町１２５番地,,40,207,8320061,,,,,,,2025-03-03,1,,,,,フューチャーエステート,0
1286,6290001109112,新規,0,2025-03-03,2025-03-03,株式会社ＧＬＡＮＺ,,株式会社,福岡県,糟屋郡粕屋町,大字仲原２８５９番地８,,40,349,8112304,,,,,,,2025-03-03,1,,,,,グランツ,0
1287,6290001109137,新規,0,2025-03-03,2025-03-03,株式会社ＣＬＯＵＤＭＯＮＫＥＹ,,株式会社,福岡県,福岡市南区,井尻１丁目３２－１１－１０２,,40,134,8111302,,,,,,,2025-03-03,1,,,,,クラウドモンキー,0
1291,6300001014095,新規,0,2025-03-03,2025-03-03,ＬＳＣ株式会社,,株式会社,佐賀県,嬉野市,塩田町大字大草野甲１７９９番地,,41,209,8491414,,,,,,,2025-03-03,1,,,,,エルエスシー,0
1292,6300003002230,新規,0,2025-03-03,2025-03-03,とす記帳代行サービス．ＴＫ合同会社,,合同会社,佐賀県,鳥栖市,田代外町６７８番地３,,41,203,8410016,,,,,,,2025-03-03,1,,,,,トスキチョウダイコウサービスティケイ,0
1294,6320001020967,新規,0,2025-03-03,2025-03-03,株式会社栄星,,株式会社,大分県,津久見市,文京町２番３号,,44,207,8792432,,,,,,,2025-03-03,1,,,,,エイショウ,0
1304,6370001052304,新規,0,2025-03-03,2025-03-03,株式会社Ａｎｄ　Ｂ,,株式会社,宮城県,仙台市青葉区,北目町７番２１－３０４号,,04,101,9800023,,,,,,,2025-03-03,1,,,,,アンドビー,0
1308,6380001035118,新規,0,2025-03-03,2025-03-03,株式会社ココデア,,株式会社,福島県,郡山市,長者２丁目２０番１３号,,07,203,9638017,,,,,,,2025-03-03,1,,,,,ココデア,0
1313,6410001014076,新規,0,2025-03-03,2025-03-03,株式会社Ｍｏｎｅ,,株式会社,秋田県,秋田市,卸町１丁目２番３号,,05,201,0100061,,,,,,,2025-03-03,1,,,,,エムワン,0
1322,6430003017323,新規,0,2025-03-03,2025-03-03,合同会社ノース・ドーン,,合同会社,北海道,札幌市西区,発寒七条１１丁目３－１６－１０１,,01,107,0630827,,,,,,,2025-03-03,1,,,,,ノースドーン,0
1327,6470001020597,新規,0,2025-03-03,2025-03-03,株式会社グレア,,株式会社,香川県,仲多度郡多度津町,大字山階１５６７番地１,,37,404,7640034,,,,,,,2025-03-03,1,,,,,グレア,0
1331,6500001026161,新規,0,2025-03-03,2025-03-03,株式会社あいじアグリサービス,,株式会社,愛媛県,北宇和郡鬼北町,大字西野々３３１番地,,38,488,7981372,,,,,,,2025-03-03,1,,,,,アイジアグリサービス,0
1333,6700150129397,新規,0,2025-03-03,2025-03-03,東猯穴土地区画整理組合,,その他,茨城県,牛久市,ひたち野西１丁目１４番１号　プリマベーラ２０６号室,,08,219,3001206,,,,,,,2025-03-03,1,,,,,ヒガシマミアナトチクカクセイリクミアイ,0
1334,6700150129406,新規,0,2025-03-03,2025-03-03,ＧｕａｎｇＺｈｏｕＹｕＢａＤｉａｎＺｉＫｅＪｉＹｏｕＸｉａｎＧｏｎｇＳｉ,,外国会社等,,,,,,,,Ｐａｎｙｕ　２１８，Ｚｈｏｎｇｃｕｎｊｉｅ，ＺｈｏｎｇｗｅｉＬｕ　４９Ｈａｏ　Ｇｕａｎｇｚｈｏｕ　Ｃｈｉｎａ,,,,,,2025-03-03,1,,,,,グゥアンゾウユバデンシカギユウゲンコウシ,0
1343,7010401188526,新規,0,2025-03-03,2025-03-03,株式会社心,,株式会社,東京都,港区,新橋４丁目１４－１新橋ＡＵＮＢＬＤＧ４階,,13,103,1050004,,,,,,,2025-03-03,1,,,,,ココロ,0
1344,7010401188534,新規,0,2025-03-03,2025-03-03,株式会社よすが,,株式会社,東京都,港区,南青山２丁目２番１５号,,13,103,1070062,,,,,,,2025-03-03,1,,,,,ヨスガ,0
1345,7010401188559,新規,0,2025-03-03,2025-03-03,株式会社Ｖａｌｅｎｌｉｆｅ　Ｊａｐａｎ,,株式会社,東京都,港区,南青山２丁目２１番３５号,,13,103,1070062,,,,,,,2025-03-03,1,,,,,バレンライフジャパン,0
1346,7010401188567,新規,0,2025-03-03,2025-03-03,株式会社エスラウンジ,,株式会社,東京都,港区,麻布十番１丁目８番地１０ＴＨＥＶ－ＣＩＴＹ麻布十番ＣＥＮＴＲＥ９階,,13,103,1060045,,,,,,,2025-03-03,1,,,,,エスラウンジ,0
1348,7010403034463,新規,0,2025-03-03,2025-03-03,合同会社Ａ．Ｙ．Ａ,,合同会社,東京都,港区,北青山１丁目３－３三橋ビル３階,,13,103,1070061,,,,,,,2025-03-03,1,,,,,エーワイエー,0
1349,7010403034471,新規,0,2025-03-03,2025-03-03,シノラ合同会社,,合同会社,東京都,港区,東麻布２丁目１４－１１，ＨＯＹＯ東麻布３０１号室,,13,103,1060044,,,,,,,2025-03-03,1,,,,,シノラ,0
1350,7010403034488,新規,0,2025-03-03,2025-03-03,ＴＲＵＳＴ　ＭＥ合同会社,,合同会社,東京都,港区,六本木３丁目４番５－３１１号,,13,103,1060032,,,,,,,2025-03-03,1,,,,,トラストミー,0
1351,7010403034496,新規,0,2025-03-03,2025-03-03,合同会社みなと００５,,合同会社,東京都,港区,虎ノ門３丁目２２番１０－２０１号,,13,103,1050001,,,,,,,2025-03-03,1,,,,,ミナトゼロゼロファイブ,0
1352,7010403034505,新規,0,2025-03-03,2025-03-03,合同会社Ｃｌｅａｎｕｐ．,,合同会社,東京都,港区,新橋２丁目２－５新橋パイオニアビル３－４階,,13,103,1050004,,,,,,,2025-03-03,1,,,,,クリーンアップ,0
1353,7010403034521,新規,0,2025-03-03,2025-03-03,ピーク・エナジー・ジャパン・インベストメント合同会社,,合同会社,東京都,港区,芝大門２丁目１２番３号共生ビル２号館７階,,13,103,1050012,,,,,,,2025-03-03,1,,,,,ピークエナジージャパンインベストメント,0
1354,7010405024108,新規,0,2025-03-03,2025-03-03,特定非営利活動法人中央サポート,,その他の設立登記法人,東京都,港区,赤坂２丁目２１番２２－６０３号,,13,103,1070052,,,,,,,2025-03-03,1,,,,,チュウオウサポート,0
1367,7010903009675,新規,0,2025-03-03,2025-03-03,合同会社ＭＳＤ,,合同会社,東京都,世田谷区,下馬５丁目２９番１１号,,13,112,1540002,,,,,,,2025-03-03,1,,,,,エムエスディ,0
1380,7011003021100,新規,0,2025-03-03,2025-03-03,合同会社べべべ,,合同会社,東京都,渋谷区,神泉町１０番１５号アネックス神泉３０１,,13,113,1500045,,,,,,,2025-03-03,1,,,,,ベベベ,0
1382,7011101110770,新規,0,2025-03-03,2025-03-03,株式会社ａｎｄ　ｍｏｒｅ,,株式会社,東京都,新宿区,西新宿３丁目５番１２－２０９号トーカン新宿第２キャステール,,13,104,1600023,,,,,,,2025-03-03,1,,,,,アンドモア,0
1383,7011103015596,新規,0,2025-03-03,2025-03-03,合同会社和,,合同会社,東京都,新宿区,新宿５丁目１１番３０号新宿第五葉山ビル４階,,13,104,1600022,,,,,,,2025-03-03,1,,,,,ナゴミ,0
1384,7011201026157,新規,0,2025-03-03,2025-03-03,株式会社ユカナカ,,株式会社,東京都,中野区,中央３丁目４０番８号２０４,,13,114,1640011,,,,,,,2025-03-03,1,,,,,ユカナカ,0
1386,7011403004638,新規,0,2025-03-03,2025-03-03,合同会社ｅｓｓｅｎｔｉａｌｉｓ,,合同会社,東京都,板橋区,西台３丁目４０番１６号,,13,119,1750045,,,,,,,2025-03-03,1,,,,,エッセンティアリィス,0
1388,7011501031765,新規,0,2025-03-03,2025-03-03,株式会社９’ｓＰａｌａｃｅ,,株式会社,東京都,北区,赤羽１丁目３６番７号第３ヒロビル８階,,13,117,1150045,,,,,,,2025-03-03,1,,,,,ナインズパレス,0
1391,7011701028116,新規,0,2025-03-03,2025-03-03,株式会社フジクリーンサービス,,株式会社,東京都,江戸川区,南小岩２丁目１番５号,,13,123,1330056,,,,,,,2025-03-03,1,,,,,フジクリーンサービス,0
1404,7013301053849,新規,0,2025-03-03,2025-03-03,睿勝株式会社,,株式会社,東京都,豊島区,巣鴨１丁目１７番３号子野ビル２０３号室,,13,116,1700002,,,,,,,2025-03-03,1,,,,,エイショウ,0
1411,7020001161618,新規,0,2025-03-03,2025-03-03,株式会社Ｒｍｅ,,株式会社,神奈川県,横浜市保土ケ谷区,帷子町２丁目１１４番地９,,14,106,2400013,,,,,,,2025-03-03,1,,,,,アールミー,0
1412,7020001161650,新規,0,2025-03-03,2025-03-03,株式会社Ｍ・Ｎカンパニー,,株式会社,神奈川県,横浜市西区,北幸２丁目１０番４８号むつみビル３階,,14,103,2200004,,,,,,,2025-03-03,1,,,,,エムエヌカンパニー,0
1413,7020001161659,新規,0,2025-03-03,2025-03-03,株式会社ｉｎｉｔｉｏ,,株式会社,神奈川県,横浜市港北区,鳥山町１２３９番地３－２０２号,,14,109,2220035,,,,,,,2025-03-03,1,,,,,イニシオ,0
1414,7020001161667,新規,0,2025-03-03,2025-03-03,株式会社Ｋｎ’ｓ　Ｐｌａｎｎｉｎｇ,,株式会社,神奈川県,川崎市宮前区,犬蔵２丁目４２番２４号,,14,136,2160011,,,,,,,2025-03-03,1,,,,,ケーエヌプランニング,0
1416,7020003027924,新規,0,2025-03-03,2025-03-03,合同会社青空オフィス,,合同会社,神奈川県,横浜市戸塚区,舞岡町８１１,,14,110,2440813,,,,,,,2025-03-03,1,,,,,アオゾラオフィス,0
1417,7020003027932,新規,0,2025-03-03,2025-03-03,合同会社Ａｌｔａｉｒ＆Ｖｅｇａ,,合同会社,神奈川県,横浜市旭区,さちが丘５２番地１アークヒルズ山太４０５,,14,112,2410822,,,,,,,2025-03-03,1,,,,,アルタイルアンドベガ,0
1428,7030001165007,新規,0,2025-03-03,2025-03-03,株式会社ロバスト,,株式会社,埼玉県,戸田市,笹目北町６番地サニーハウス戸田１番館４０４号室,,11,224,3350033,,,,,,,2025-03-03,1,,,,,ロバスト,0
1429,7030001165089,新規,0,2025-03-03,2025-03-03,株式会社ＭＩＹＡ・ＷＯＲＫＳ,,株式会社,埼玉県,さいたま市西区,大字島根４１１番地５,,11,101,3310054,,,,,,,2025-03-03,1,,,,,ミヤワークス,0
1430,7030001165097,新規,0,2025-03-03,2025-03-03,株式会社Ｍ’ｓ　ｓｔｙｌｅ,,株式会社,埼玉県,三郷市,駒形３１７番地１,,11,237,3410008,,,,,,,2025-03-03,1,,,,,エムズスタイル,0
1431,7030001165106,新規,0,2025-03-03,2025-03-03,株式会社ルミナスキャリア,,株式会社,埼玉県,蕨市,錦町６丁目１５番１８号フジハイツＡ棟１０２号,,11,223,3350005,,,,,,,2025-03-03,1,,,,,ルミナスキャリア,0
1432,7030001165114,新規,0,2025-03-03,2025-03-03,株式会社ニューラルリンク,,株式会社,埼玉県,狭山市,大字笹井１９０６－１,,11,215,3501327,,,,,,,2025-03-03,1,,,,,ニューラルリンク,0
1434,7030003026223,新規,0,2025-03-03,2025-03-03,合同会社プラムカンパニー,,合同会社,埼玉県,さいたま市浦和区,北浦和１丁目６番１５号,,11,107,3300074,,,,,,,2025-03-03,1,,,,,プラムカンパニー,0
1435,7030003026231,新規,0,2025-03-03,2025-03-03,合同会社健将,,合同会社,埼玉県,入間市,宮寺３２１３－５コープ石川２０１号室,,11,225,3580014,,,,,,,2025-03-03,1,,,,,ケンショウ,0
1438,7040001137582,新規,0,2025-03-03,2025-03-03,トライアングル株式会社,,株式会社,千葉県,船橋市,日の出２丁目１４番８号,,12,204,2730015,,,,,,,2025-03-03,1,,,,,トライアングル,0
1439,7040001137590,新規,0,2025-03-03,2025-03-03,株式会社ＯＮＯＤＥＲＡ,,株式会社,千葉県,市川市,大野町２丁目１８８４番地３３,,12,203,2720805,,,,,,,2025-03-03,1,,,,,オノデラ,0
1440,7040001137599,新規,0,2025-03-03,2025-03-03,株式会社ＤＡＮＤＡＮ,,株式会社,千葉県,船橋市,東船橋３丁目１７番１０号,,12,204,2730002,,,,,,,2025-03-03,1,,,,,ダンダン,0
1443,7050001056237,新規,0,2025-03-03,2025-03-03,株式会社ｈｉｋｅ　ａｌｏｎｅ,,株式会社,茨城県,つくば市,吾妻１丁目１０－１つくばセンタービル１階ｏｆｆｉｃｅＦ,,08,220,3050031,,,,,,,2025-03-03,1,,,,,ハイクアローン,0
1444,7050001056245,新規,0,2025-03-03,2025-03-03,株式会社地球元氣,,株式会社,茨城県,つくば市,東新井２２番地１５ソレイユ０１号室,,08,220,3050033,,,,,,,2025-03-03,1,,,,,チキュウゲンキ,0
1446,7060001037962,新規,0,2025-03-03,2025-03-03,株式会社ブリスオブハート,,株式会社,栃木県,小山市,中央町３丁目５番２０号カーサロブレＡ－１０４,,09,208,3230023,,,,,,,2025-03-03,1,,,,,ブリスオブハート,0
1455,7080001026773,新規,0,2025-03-03,2025-03-03,富嶽カントリークラブ株式会社,,株式会社,静岡県,静岡市清水区,宍原１７８３番地の１,,22,103,4240301,,,,,,,2025-03-03,1,,,,,フガクカントリークラブ,0
1472,7120001273329,新規,0,2025-03-03,2025-03-03,ｍｍ株式会社,,株式会社,大阪府,大阪市城東区,古市３丁目８－８－１３０１,,27,118,5360001,,,,,,,2025-03-03,1,,,,,エムエムカンパニー,0
1473,7120001273345,新規,0,2025-03-03,2025-03-03,株式会社ＡＣＥＳ,,株式会社,大阪府,大阪市平野区,加美南４丁目４番９－５０１号,,27,126,5470003,,,,,,,2025-03-03,1,,,,,エーシーズ,0
1474,7120001273353,新規,0,2025-03-03,2025-03-03,朗尤照明株式会社,,株式会社,大阪府,大阪市東住吉区,杭全１丁目１７番１７号Ｔｉｎａ天王寺東ビル４０２号室,,27,121,5460002,,,,,,,2025-03-03,1,,,,,ロウユウショウメイ,0
1477,7120101071137,新規,0,2025-03-03,2025-03-03,龜蘋株式会社,,株式会社,大阪府,阪南市,貝掛６３番３号シーサイド貝掛Ｂ棟３０８号室,,27,232,5990231,,,,,,,2025-03-03,1,,,,,カメヒン,0
1481,7130003010233,新規,0,2025-03-03,2025-03-03,合同会社通,,合同会社,京都府,京都市中京区,壬生坊城町５５番地６,,26,104,6048804,,,,,,,2025-03-03,1,,,,,ミチ,0
1482,7130003010241,新規,0,2025-03-03,2025-03-03,合同会社伏まち屋,,合同会社,京都府,京都市伏見区,京町２丁目２１５番地１,,26,109,6128083,,,,,,,2025-03-03,1,,,,,フシマチヤ,0
1485,7140001137564,新規,0,2025-03-03,2025-03-03,ジェネシス株式会社,,株式会社,兵庫県,神戸市中央区,磯辺通１丁目１番１８号カサベラ国際プラザビル７０７号室,,28,110,6510084,,,,,,,2025-03-03,1,,,,,,0
1499,7180001165561,新規,0,2025-03-03,2025-03-03,株式会社ＸＴＲＡＮＳ　ＣＲＥＡＴＩＶＥ　ＪＡＰＡＮ,,株式会社,愛知県,名古屋市中区,上前津２丁目１２番１号,,23,106,4600013,,,,,,,2025-03-03,1,,,,,エクストランスクリエイティブジャパン,0
1500,7180001165594,新規,0,2025-03-03,2025-03-03,株式会社ゴーバナナ,,株式会社,愛知県,名古屋市中村区,若宮町１丁目１９番地（リーデンス名古屋駅西２０１号）,,23,105,4530023,,,,,,,2025-03-03,1,,,,,ゴーバナナ,0
1503,7180003028048,新規,0,2025-03-03,2025-03-03,合同会社川合設計,,合同会社,愛知県,名古屋市天白区,荒池１丁目１２０５番地,,23,116,4680013,,,,,,,2025-03-03,1,,,,,カワイセッケイ,0
1504,7180003028064,新規,0,2025-03-03,2025-03-03,合同会社ブーストコーポレイト,,合同会社,愛知県,名古屋市中村区,名駅４丁目２４番５号第２森ビル４０１,,23,105,4500002,,,,,,,2025-03-03,1,,,,,ブーストコーポレイト,0
1506,7180301039556,新規,0,2025-03-03,2025-03-03,株式会社豊工,,株式会社,愛知県,豊橋市,橋良町字向山４番地２８,,23,201,4418063,,,,,,,2025-03-03,1,,,,,トヨコウ,0
1508,7200003006711,新規,0,2025-03-03,2025-03-03,合同会社Ｒｉｒｉ,,合同会社,岐阜県,羽島郡岐南町,上印食３丁目１５２番地の１,,21,302,5016001,,,,,,,2025-03-03,1,,,,,リリー,0
1537,7290003016470,新規,0,2025-03-03,2025-03-03,合同会社フォレスト・ベア・ライン,,合同会社,福岡県,福岡市博多区,博多駅前１丁目２３番２号ＰａｒｋＦｒｏｎｔ博多駅前１丁目５Ｆ－Ｂ,,40,132,8120011,,,,,,,2025-03-03,1,,,,,フォレストベアライン,0
1544,7300001014094,新規,0,2025-03-03,2025-03-03,株式会社ＨＡＫＵＲＥＮ,,株式会社,佐賀県,唐津市,浜玉町横田上１２３１番地１８,,41,202,8495121,,,,,,,2025-03-03,1,,,,,ハクレン,0
1545,7310005008827,新規,0,2025-03-03,2025-03-03,特定非営利活動法人長崎南風,,その他の設立登記法人,長崎県,長崎市,香焼町１４８１番地７,,42,201,8510310,,,,,,,2025-03-03,1,,,,,ナガサキミナミカゼ,0
1547,7320003004587,新規,0,2025-03-03,2025-03-03,合同会社リアルエステートさくらの森,,合同会社,大分県,大分市,大字玉沢９６５－１,,44,201,8701155,,,,,,,2025-03-03,1,,,,,リアルエステートサクラノモリ,0
1554,7360005007171,新規,0,2025-03-03,2025-03-03,特定非営利活動法人Ａｉｎａ,,その他の設立登記法人,沖縄県,沖縄市,山里１丁目１８番７号２Ｆ,,47,211,9040033,,,,,,,2025-03-03,1,,,,,アイナ,0
1555,7380001035125,新規,0,2025-03-03,2025-03-03,株式会社希栄,,株式会社,福島県,郡山市,小原田４丁目４番２０号,,07,203,9638835,,,,,,,2025-03-03,1,,,,,キエイ,0
1556,7400001016956,新規,0,2025-03-03,2025-03-03,株式会社ＳｏｉＬｏｋ,,株式会社,岩手県,二戸市,石切所字晴山２３番地,,03,213,0286103,,,,,,,2025-03-03,1,,,,,ソイローク,0
1558,7400005008470,新規,0,2025-03-03,2025-03-03,一般社団法人岩手スポーツファンド,,その他の設立登記法人,岩手県,盛岡市,流通センター北１丁目１２番５号,,03,201,0200846,,,,,,,2025-03-03,1,,,,,イワテスポーツファンド,0
1566,7470005006609,新規,0,2025-03-03,2025-03-03,一般社団法人かがわ産アスパラガス普及協会,,その他の設立登記法人,香川県,仲多度郡多度津町,大字葛原１５６２番地２,,37,404,7640028,,,,,,,2025-03-03,1,,,,,カガワサンアスパラガスフキュウキョウカイ,0
1567,7480001012758,新規,0,2025-03-03,2025-03-03,株式会社ＨＡＮＡｂｅ,,株式会社,徳島県,徳島市,南前川町４丁目２０番地,,36,201,7700808,,,,,,,2025-03-03,1,,,,,ハナビ,0
1571,7700150129405,新規,0,2025-03-03,2025-03-03,ｘｕｚｈｏｕｈｕｉｌｉｃｈａｎｇｓｈａｎｇｍａｏｙｏｕｘｉａｎｇｏｎｇｓｉ,,外国会社等,,,,,,,,Ｒｏｏｍ　２００５，Ｙａｎｇｃｈａｎｇ　Ｖｉｌｌａｇｅ　Ｃｏｍｍｉｔｔｅｅ，Ｆａｎｇｃｕｎ　Ｔｏｗｎ，Ｔｏｎｇｓｈａｎ　Ｄｉｓｔｒｉｃｔ，Ｘｕｚｈｏｕ　Ｃｉｔｙ，Ｊｉａｎｇｓｕ　Ｐｒｏｖｉｎｃｅ，Ｃｈｉｎａ,,,,,,2025-03-03,1,,,,,シュージョーホゥイリチャンシャンマオユウゲンコウシ,0
1592,8010401188392,新規,0,2025-03-03,2025-03-03,株式会社イグニス,,株式会社,東京都,港区,東新橋２丁目１８－３,,13,103,1050021,,,,,,,2025-03-03,1,,,,,イグニス,0
1593,8010401188459,新規,0,2025-03-03,2025-03-03,株式会社マキタ,,株式会社,東京都,港区,新橋４丁目１４番１号新橋ＡＵＮＢＬＤＧ４階,,13,103,1050004,,,,,,,2025-03-03,1,,,,,マキタ,0
1594,8010401188491,新規,0,2025-03-03,2025-03-03,ＦｕｓｉｏｎＦｏｏｄｓ株式会社,,株式会社,東京都,港区,浜松町１丁目１１番１２号金井ビル２階,,13,103,1050013,,,,,,,2025-03-03,1,,,,,フュージョンフーズ,0
1595,8010401188509,新規,0,2025-03-03,2025-03-03,株式会社ＭＥＤＥＥＫ,,株式会社,東京都,港区,北青山１丁目３－１アールキューブ青山３階,,13,103,1070061,,,,,,,2025-03-03,1,,,,,メディーク,0
1596,8010401188525,新規,0,2025-03-03,2025-03-03,株式会社ＵＮ　ｅｄｕｃａｔｉｏｎ,,株式会社,東京都,港区,北青山１丁目３番１号アールキューブ青山３階,,13,103,1070061,,,,,,,2025-03-03,1,,,,,アンエデュケーション,0
1597,8010403034479,新規,0,2025-03-03,2025-03-03,Ｄｅｌｕｘｅ　Ｓｅｒｖｉｃｅ　Ｃｏｍｐａｎｙ合同会社,,合同会社,東京都,港区,芝浦４丁目２２－１－１８１８,,13,103,1080023,,,,,,,2025-03-03,1,,,,,デラックスサービスカンパニー,0
1598,8010403034504,新規,0,2025-03-03,2025-03-03,イメージワン合同会社,,合同会社,東京都,港区,新橋２丁目２－５パイオニアビル３－４階,,13,103,1050004,,,,,,,2025-03-03,1,,,,,イメージワン,0
1602,8010501053736,新規,0,2025-03-03,2025-03-03,株式会社スタジオ０,,株式会社,東京都,台東区,千束３丁目１０番地３号野中ビル７０３,,13,106,1110031,,,,,,,2025-03-03,1,,,,,スタジオマル,0
1608,8010601066852,新規,0,2025-03-03,2025-03-03,三二一株式会社,,株式会社,東京都,墨田区,錦糸２丁目４番６号３１５,,13,107,1300013,,,,,,,2025-03-03,1,,,,,サンニイチ,0
1617,8011001168017,新規,0,2025-03-03,2025-03-03,株式会社フラレス,,株式会社,東京都,渋谷区,渋谷２丁目１９－１５宮益坂ビルディング６０９,,13,113,1500002,,,,,,,2025-03-03,1,,,,,フラレス,0
1626,8011101110803,新規,0,2025-03-03,2025-03-03,株式会社ＬＯＴＴＥ　ＨＯＴＥＬＳ　ＪＡＰＡＮ,,株式会社,東京都,新宿区,西新宿３丁目２０番１号,,13,104,1600023,,,,,,,2025-03-03,1,,,,,ロッテホテルズジャパン,0
1630,8011401026856,新規,0,2025-03-03,2025-03-03,魚専株式会社,,株式会社,東京都,板橋区,蓮根３丁目４番２０号,,13,119,1740046,,,,,,,2025-03-03,1,,,,,ウオセン,0
1631,8011401026864,新規,0,2025-03-03,2025-03-03,三岸株式会社,,株式会社,東京都,板橋区,仲宿６３番７号ＯＥＯｆｆｉｃｅＢｌｄｇ．３０６号,,13,119,1730005,,,,,,,2025-03-03,1,,,,,ミギシ,0
1635,8011701028107,新規,0,2025-03-03,2025-03-03,株式会社トップガン,,株式会社,東京都,江戸川区,一之江６丁目１２番２０－５０８号,,13,123,1320024,,,,,,,2025-03-03,1,,,,,トップガン,0
1639,8012401042819,新規,0,2025-03-03,2025-03-03,株式会社さかい,,株式会社,東京都,調布市,上石原１丁目３番地５グランドールＧＴ１１０,,13,208,1820035,,,,,,,2025-03-03,1,,,,,サカイ,0
1640,8012401042827,新規,0,2025-03-03,2025-03-03,株式会社Ｄｉｇｉｔａｌ　Ｓｔｏｎｅ,,株式会社,東京都,武蔵野市,緑町３丁目２番２号,,13,203,1800012,,,,,,,2025-03-03,1,,,,,デジタルストーン,0
1641,8012403006994,新規,0,2025-03-03,2025-03-03,合同会社フューチャーライフ,,合同会社,東京都,府中市,東芝町１番地の６９プラウド府中東芝町３０６,,13,206,1830043,,,,,,,2025-03-03,1,,,,,フューチャーライフ,0
1642,8012701018725,新規,0,2025-03-03,2025-03-03,株式会社粤鼎,,株式会社,東京都,東久留米市,野火止２丁目２２番２２号,,13,222,2030041,,,,,,,2025-03-03,1,,,,,エツテイ,0
1644,8013301053848,新規,0,2025-03-03,2025-03-03,長興株式会社,,株式会社,東京都,豊島区,池袋本町１丁目２５番１４－２Ｄ,,13,116,1700011,,,,,,,2025-03-03,1,,,,,チョウコウ,0
1651,8020001161617,新規,0,2025-03-03,2025-03-03,株式会社ＴｏｐＯＦＦテクノロジーズ,,株式会社,神奈川県,横浜市神奈川区,金港町５番地１４クアドリフォリオ８階,,14,102,2210056,,,,,,,2025-03-03,1,,,,,トップオフテクノロジーズ,0
1655,8020003027898,新規,0,2025-03-03,2025-03-03,合同会社チェリッシュ,,合同会社,神奈川県,横浜市港南区,丸山台２丁目４０－２８－２,,14,111,2330013,,,,,,,2025-03-03,1,,,,,チェリッシュ,0
1656,8020003027923,新規,0,2025-03-03,2025-03-03,はちもく合同会社,,合同会社,神奈川県,横浜市金沢区,能見台東８番,,14,108,2360058,,,,,,,2025-03-03,1,,,,,ハチモク,0
1658,8021001084576,新規,0,2025-03-03,2025-03-03,株式会社一商,,株式会社,神奈川県,足柄下郡箱根町,宮ノ下２２６,,14,382,2500404,,,,,,,2025-03-03,1,,,,,イチショウ,0
1661,8021003015612,新規,0,2025-03-03,2025-03-03,合同会社ＢＥＡＭ,,合同会社,神奈川県,大和市,大和東１丁目４番１４号プラウド大和１３０７,,14,213,2420017,,,,,,,2025-03-03,1,,,,,ビーム,0
1665,8030001165105,新規,0,2025-03-03,2025-03-03,株式会社Ｆｒｅｅ,,株式会社,埼玉県,川口市,芝中田１丁目１８番９号,,11,203,3330847,,,,,,,2025-03-03,1,,,,,フリー,0
1668,8030003026230,新規,0,2025-03-03,2025-03-03,合同会社Ｌ．Ｎ．Ｄ,,合同会社,埼玉県,さいたま市緑区,大字中尾１３９８番地１７,,11,109,3360932,,,,,,,2025-03-03,1,,,,,エルエヌディー,0
1673,8040003026964,新規,0,2025-03-03,2025-03-03,合同会社一商堂,,合同会社,千葉県,柏市,南逆井６丁目３４－３１,,12,217,2770043,,,,,,,2025-03-03,1,,,,,イッショウドウ,0
1680,8070001042671,新規,0,2025-03-03,2025-03-03,株式会社人間健康研究所,,株式会社,群馬県,前橋市,敷島町２４１番地１５,,10,201,3710036,,,,,,,2025-03-03,1,,,,,ニンゲンケンコウケンキュウジョ,0
1699,8120003028630,新規,0,2025-03-03,2025-03-03,合同会社ＡＲＩＡカンパニー,,合同会社,大阪府,大阪市北区,梅田１丁目１－３大阪駅前第３ビル２９階１－１－１号室,,27,127,5300001,,,,,,,2025-03-03,1,,,,,アリアカンパニー,0
1701,8120903005563,新規,0,2025-03-03,2025-03-03,合同会社ＢＥＡＳＴＩＥ,,合同会社,大阪府,豊中市,千里園３丁目６番２０号,,27,203,5600046,,,,,,,2025-03-03,1,,,,,ビースティー,0
1704,8130001079088,新規,0,2025-03-03,2025-03-03,春暉株式会社,,株式会社,京都府,京都市東山区,弓矢町５０番地１・１０１室,,26,105,6050817,,,,,,,2025-03-03,1,,,,,シュンキ,0
1707,8140001137571,新規,0,2025-03-03,2025-03-03,株式会社ＫＯＪＩＲＩＨＯ,,株式会社,兵庫県,西宮市,菊谷町１３番２３－３０１号,,28,204,6620078,,,,,,,2025-03-03,1,,,,,コジリホ,0
1708,8150001027904,新規,0,2025-03-03,2025-03-03,株式会社Ｒｉｎｔａ,,株式会社,奈良県,奈良市,三碓４丁目３番１２号谷垣ビル１０１号室,,29,201,6310061,,,,,,,2025-03-03,1,,,,,リンタ,0
1718,8180001165619,新規,0,2025-03-03,2025-03-03,株式会社ヒーバックファイン,,株式会社,愛知県,名古屋市中区,栄１丁目７番２８号（ローレルタワー名古屋栄２００４号）,,23,106,4600008,,,,,,,2025-03-03,1,,,,,ヒーバックファイン,0
1722,8180003028055,新規,0,2025-03-03,2025-03-03,加藤ケアプランハウス合同会社,,合同会社,愛知県,知多郡阿久比町,大字草木字上鶴若８番地,,23,441,4702211,,,,,,,2025-03-03,1,,,,,カトウケアプランハウス,0
1725,8210005010189,新規,0,2025-03-03,2025-03-03,一般社団法人ヘルスケアマネジメント協会,,その他の設立登記法人,福井県,福井市,大宮３丁目２８番２５号,,18,201,9100016,,,,,,,2025-03-03,1,,,,,ヘルスケアマネジメントキョウカイ,0
1730,8240003007085,新規,0,2025-03-03,2025-03-03,合同会社いつく,,合同会社,広島県,廿日市市,宮島町５８０,,34,213,7390588,,,,,,,2025-03-03,1,,,,,イツク,0
1733,8250001021021,新規,0,2025-03-03,2025-03-03,まえみリンク株式会社,,株式会社,山口県,萩市,大字唐樋町６９番地１１,00138178,35,204,7580044,,,,,,,2025-03-03,1,,,,,マエミリンク,0
1734,8250005008980,新規,0,2025-03-03,2025-03-03,一般社団法人下関医療圏医療連携推進機構,,その他の設立登記法人,山口県,下関市,向洋町１丁目１３番１号,,35,201,7500041,,,,,,,2025-03-03,1,,,,,シモノセキイリョウケンイリョウレンケイスイシンキコウ,0
1736,8260003005079,新規,0,2025-03-03,2025-03-03,Ｄｏｏｒｄｏ合同会社,,合同会社,岡山県,岡山市北区,清輝橋１丁目８番１５号,,33,101,7000861,,,,,,,2025-03-03,1,,,,,ドゥオアドゥ,0
1737,8270001009155,新規,0,2025-03-03,2025-03-03,株式会社メイキングエナジー,,株式会社,鳥取県,鳥取市,吉方温泉４丁目７１９番地ＭＯＲＩビル２Ｆ,,31,201,6800841,,,,,,,2025-03-03,1,,,,,メイキングエナジー,0
1739,8290001109119,新規,0,2025-03-03,2025-03-03,株式会社ＰＲＯＴＥＣＴ　ＡＳＩＡ,,株式会社,福岡県,那珂川市,道善１丁目８７番地,,40,231,8111254,,,,,,,2025-03-03,1,,,,,プロテクトアジア,0
1740,8290001109135,新規,0,2025-03-03,2025-03-03,株式会社マイライフ,,株式会社,福岡県,柳川市,三橋町柳河１２２番地５,,40,207,8320806,,,,,,,2025-03-03,1,,,,,マイライフ,0
1745,8290801031307,新規,0,2025-03-03,2025-03-03,株式会社Ｌｉｖｅ．,,株式会社,福岡県,北九州市小倉北区,浅野２丁目１５番１５－１４０１号,,40,106,8020001,,,,,,,2025-03-03,1,,,,,リブドット,0
1750,8330001032919,新規,0,2025-03-03,2025-03-03,太平洋不動産開発株式会社,,株式会社,熊本県,熊本市中央区,新市街１番２８号ＴＨＥ・ＰＬＡＣＥ花畑ビル６Ｆ,,43,101,8600803,,,,,,,2025-03-03,1,,,,,タイヘイヨウフドウサンカイハツ,0
1759,8340001027141,新規,0,2025-03-03,2025-03-03,株式会社ルクソラ,,株式会社,鹿児島県,鹿児島市,桜ヶ丘２丁目１８番地８,,46,201,8910175,,,,,,,2025-03-03,1,,,,,ルクソラ,0
1767,8370005010917,新規,0,2025-03-03,2025-03-03,特定非営利活動法人あんよ,,その他の設立登記法人,宮城県,仙台市太白区,八本松２丁目６番２６号,,04,104,9820001,,,,,,,2025-03-03,1,,,,,アンヨ,0
1769,8400001016955,新規,0,2025-03-03,2025-03-03,株式会社エミーナ,,株式会社,岩手県,盛岡市,永井２３地割１５番地１,,03,201,0200834,,,,,,,2025-03-03,1,,,,,エミーナ,0
1777,8430001093785,新規,0,2025-03-03,2025-03-03,株式会社ＹＵＲＩＧＡＨＡＲＡ　ＰＡＲＫ　ＦＵＴＵＲＥ　ＬＡＢ,,株式会社,北海道,札幌市中央区,南十一条西１３丁目１番８号,,01,101,0640811,,,,,,,2025-03-03,1,,,,,ユリガハラパークフューチャーラボ,0
1786,8700150129404,新規,0,2025-03-03,2025-03-03,Ｈａｎｇｚｈｏｕｈａｎｐｕｊｉｎｇｙｉｋｅｊｉｙｏｕｘｉａｎｇｏｎｇｓｉ,,外国会社等,,,,,,,,Ｚｈｅｊｉａｎｇ　Ｓｈｅｎｇ　Ｈａｎｇｚｈｏｕ　Ｊｉｎｇｊｉ　Ｊｉｓｈｕ　Ｋａｉｆａｑｕ　Ｘｕｅｙｕａｎ　Ｊｉｅ　２５８　Ｈａｏ　Ｚｈｏｎｇｇｕｏ　Ｊｉｌｉａｎｇ　Ｄａｘｕｅ　Ｄｏｎｇｑｕ　Ｙｉｆｕ　Ｋｅｊｉ　Ｌｏｕ　３　Ｃｅｎｇ　３０８　Ｓｈｉ　４６　Ｈａｏ　Ｇｏｎｇｗｅｉ,,,,,,2025-03-03,1,,,,,ハンゾウハンプジンイカギユウゲンコウシ,0
1796,9010001252713,新規,0,2025-03-03,2025-03-03,株式会社テッスル,,株式会社,東京都,中央区,日本橋浜町２丁目４２番９号,,13,102,1030007,,,,,,,2025-03-03,1,,,,,テッスル,0
1800,9010401188284,新規,0,2025-03-03,2025-03-03,羽田アビエーションサービス株式会社,,株式会社,東京都,港区,赤坂３丁目１４番１０号,,13,103,1070052,,,,,,,2025-03-03,1,,,,,ハネダアビエーションサービス,0
1801,9010401188417,新規,0,2025-03-03,2025-03-03,株式会社ａｎｄｓ,,株式会社,東京都,港区,南青山５丁目４番３５号たつむら青山マンション１３０８号室,,13,103,1070062,,,,,,,2025-03-03,1,,,,,アンズ,0
1802,9010401188490,新規,0,2025-03-03,2025-03-03,ＧＦＡ　Ｉｎｔｅｒｎａｔｉｏｎａｌ株式会社,,株式会社,東京都,港区,南青山２丁目２番１５号,,13,103,1070062,,,,,,,2025-03-03,1,,,,,ジーエフエーインターナショナル,0
1803,9010401188540,新規,0,2025-03-03,2025-03-03,ＳＮＥＰ株式会社,,株式会社,東京都,港区,麻布十番３丁目１２－１ロイヤルプレイス麻布十番３０２,,13,103,1060045,,,,,,,2025-03-03,1,,,,,スネップ,0
1805,9010403034478,新規,0,2025-03-03,2025-03-03,合同会社トング,,合同会社,東京都,港区,虎ノ門４丁目１番３４－９０３号,,13,103,1050001,,,,,,,2025-03-03,1,,,,,トング,0
1806,9010405024130,新規,0,2025-03-03,2025-03-03,一般社団法人みなと００５,,その他の設立登記法人,東京都,港区,虎ノ門３丁目２２番１０－２０１号,,13,103,1050001,,,,,,,2025-03-03,1,,,,,ミナトゼロゼロファイブ,0
1817,9011001168123,新規,0,2025-03-03,2025-03-03,株式会社ｓｉｒｕ,,株式会社,東京都,渋谷区,東１丁目３２番１２号渋谷プロパティータワー１４０９,,13,113,1500011,,,,,,,2025-03-03,1,,,,,シル,0
1819,9011003021107,新規,0,2025-03-03,2025-03-03,合同会社くろまめ,,合同会社,東京都,渋谷区,神山町１１番１５号神山フォレスト３０７,,13,113,1500047,,,,,,,2025-03-03,1,,,,,クロマメ,0
1820,9011005010883,新規,0,2025-03-03,2025-03-03,一般社団法人こどもリビング,,その他の設立登記法人,東京都,渋谷区,桜丘町１３－４アロマ桜丘３０１,,13,113,1500031,,,,,,,2025-03-03,1,,,,,コドモリビング,0
1821,9011005010900,新規,0,2025-03-03,2025-03-03,一般社団法人日本バーテックス協会,,その他の設立登記法人,東京都,渋谷区,恵比寿南１丁目３番８号３階,,13,113,1500022,,,,,,,2025-03-03,1,,,,,ニホンバーテックスキョウカイ,0
1822,9011101110760,新規,0,2025-03-03,2025-03-03,株式会社Ｂｅａｔｉｔｕｄｏ,,株式会社,東京都,新宿区,北新宿３丁目５番２３号ミココリエ北新宿１０７,,13,104,1690074,,,,,,,2025-03-03,1,,,,,ビューティチュード,0
1823,9011101110769,新規,0,2025-03-03,2025-03-03,株式会社Ｗｈｅｉｌｅ,,株式会社,東京都,新宿区,新宿１丁目３６番２号新宿第七葉山ビル３Ｆ,,13,104,1600022,,,,,,,2025-03-03,1,,,,,ウェイル,0
1824,9011101110777,新規,0,2025-03-03,2025-03-03,株式会社Ｌｉｔｔｌｅ　Ｂｉｔｓ,,株式会社,東京都,新宿区,西新宿７丁目７番地３３号新銘ビル５階,,13,104,1600023,,,,,,,2025-03-03,1,,,,,リトルビッツ,0
1825,9011105011352,新規,0,2025-03-03,2025-03-03,特定非営利活動法人シリアの友ネットワーク,,その他の設立登記法人,東京都,新宿区,喜久井町３８番地メゾン菊池１０１,,13,104,1620044,,,,,,,2025-03-03,1,,,,,シリアノトモネットワーク,0
1830,9011803006711,新規,0,2025-03-03,2025-03-03,合同会社拓実,,合同会社,東京都,葛飾区,四つ木１丁目１５番７号,,13,122,1240011,,,,,,,2025-03-03,1,,,,,タクミ,0
1833,9013101009636,新規,0,2025-03-03,2025-03-03,株式会社アスタークリーンサービス,,株式会社,東京都,羽村市,小作台２丁目１７番地１５小作台エンジェルハイツ１０２,,13,227,2050001,,,,,,,2025-03-03,1,,,,,アスタークリーンサービス,0
1850,9020001161673,新規,0,2025-03-03,2025-03-03,株式会社ボーライン,,株式会社,神奈川県,横浜市青葉区,あざみ野南２丁目６番地３０,,14,117,2250012,,,,,,,2025-03-03,1,,,,,ボーライン,0
1854,9020003027864,新規,0,2025-03-03,2025-03-03,火と土合同会社,,合同会社,神奈川県,横浜市戸塚区,上矢部町２４５０番１２号,,14,110,2450053,,,,,,,2025-03-03,1,,,,,,0
1855,9020003027897,新規,0,2025-03-03,2025-03-03,合同会社イズクム,,合同会社,神奈川県,横浜市南区,白金町２丁目２８番地,,14,105,2320005,,,,,,,2025-03-03,1,,,,,イズクム,0
1856,9020003027906,新規,0,2025-03-03,2025-03-03,ｓｔｒｅｅｅａｍ合同会社,,合同会社,神奈川県,横浜市青葉区,大場町３９１番地２０,,14,117,2250023,,,,,,,2025-03-03,1,,,,,ストリーム,0
1857,9020003027922,新規,0,2025-03-03,2025-03-03,Ｓｅｒｅｎｄｉａ合同会社,,合同会社,神奈川県,横浜市神奈川区,金港町５－１４クアドリフォリオ８階,,14,102,2210056,,,,,,,2025-03-03,1,,,,,セレンディア,0
1858,9020005016717,新規,0,2025-03-03,2025-03-03,一般社団法人エターナルフロー,,その他の設立登記法人,神奈川県,川崎市麻生区,上麻生４丁目３１番７号,,14,137,2150021,,,,,,,2025-03-03,1,,,,,エターナルフロー,0
1861,9021003015611,新規,0,2025-03-03,2025-03-03,合同会社ＩＳＩ,,合同会社,神奈川県,相模原市南区,上鶴間本町９丁目３４番１５号セザールつきみ野３０２号,,14,153,2520318,,,,,,,2025-03-03,1,,,,,アイエスアイ,0
1866,9030001165095,新規,0,2025-03-03,2025-03-03,ｃａｌｉｃｏ株式会社,,株式会社,埼玉県,八潮市,八潮６丁目１４番地４,,11,234,3400815,,,,,,,2025-03-03,1,,,,,キャリコ,0
1867,9030001165104,新規,0,2025-03-03,2025-03-03,タレントラボ株式会社,,株式会社,埼玉県,川口市,芝富士２丁目４－１５ＰＬＥＮＤＹ蕨３０３,,11,203,3330854,,,,,,,2025-03-03,1,,,,,タレントラボ,0
1868,9030001165129,新規,0,2025-03-03,2025-03-03,株式会社カナホース,,株式会社,埼玉県,さいたま市大宮区,堀の内町１丁目２３１番地７０１号室,,11,103,3300804,,,,,,,2025-03-03,1,,,,,カナホース,0
1870,9030003026221,新規,0,2025-03-03,2025-03-03,ＮＴＫ　ＴＥＣＨ合同会社,,合同会社,埼玉県,坂戸市,南町３４番７号ＫＩＶオフィス南町Ｂ号室,,11,239,3500233,,,,,,,2025-03-03,1,,,,,エヌティーケーテック,0
1875,9040001137589,新規,0,2025-03-03,2025-03-03,アクアトレーダーズ株式会社,,株式会社,千葉県,市川市,宝２丁目４番７号,,12,203,2720122,,,,,,,2025-03-03,1,,,,,アクアトレーダーズ,0
1877,9050003009059,新規,0,2025-03-03,2025-03-03,合同会社山久電気サービス,,合同会社,茨城県,つくば市,小野崎１番地,,08,220,3050034,,,,,,,2025-03-03,1,,,,,サンキュウデンキサービス,0
1888,9120001066994,新規,0,2025-03-03,2025-03-03,タマキケミカル株式会社,,株式会社,大阪府,大阪市北区,西天満２丁目６番８号堂島ビルデイング第４０２号ビー室,,27,127,5300047,,,,,,,2025-03-03,1,,,,,タマキケミカル,0
1894,9120001273310,新規,0,2025-03-03,2025-03-03,曜紀株式会社,,株式会社,大阪府,大阪市港区,田中２丁目６番１－１４９－Ａ室,,27,107,5520005,,,,,,,2025-03-03,1,,,,,ヨウキ,0
1896,9120003028745,新規,0,2025-03-03,2025-03-03,合同会社かがやき,,合同会社,大阪府,大阪市西成区,南津守７丁目１３番４６－１０１号,,27,122,5570063,,,,,,,2025-03-03,1,,,,,カガヤキ,0
1903,9122001038932,新規,0,2025-03-03,2025-03-03,東海サンダー株式会社,,株式会社,大阪府,東大阪市,若江西新町４丁目１０番３５号,,27,227,5780944,,,,,,,2025-03-03,1,,,,,トウカイサンダー,0
1907,9140001137570,新規,0,2025-03-03,2025-03-03,株式会社ＧＴ．ＴＲＡＤＩＮＧ,,株式会社,兵庫県,加古川市,別府町本町２丁目５２－１４,,28,210,6750126,,,,,,,2025-03-03,1,,,,,ジーティートレーディング,0
1909,9140003021723,新規,0,2025-03-03,2025-03-03,サムライ・ハート合同会社,,合同会社,兵庫県,姫路市,安田４丁目４９－１１Ｈｉ２ビル３０４－１号室,,28,201,6700955,,,,,,,2025-03-03,1,,,,,サムライハート,0
1911,9150001027903,新規,0,2025-03-03,2025-03-03,メンテ株式会社,,株式会社,奈良県,生駒市,元町２丁目８番３９号,,29,209,6300257,,,,,,,2025-03-03,1,,,,,メンテ,0
1924,9180001165626,新規,0,2025-03-03,2025-03-03,株式会社ＮＳ,,株式会社,愛知県,名古屋市緑区,大高台２丁目１５１２番地,,23,114,4598003,,,,,,,2025-03-03,1,,,,,エヌエス,0
1925,9180001165642,新規,0,2025-03-03,2025-03-03,株式会社丸愛エイシンホールディングス,,株式会社,愛知県,名古屋市中村区,名駅４丁目２６番２２号,,23,105,4500002,,,,,,,2025-03-03,1,,,,,マルアイエイシンホールディングス,0
1927,9180003028062,新規,0,2025-03-03,2025-03-03,ライジング・サン合同会社,,合同会社,愛知県,名古屋市北区,成願寺１丁目６ザ・シーン城北Ａ１００９,,23,103,4620021,,,,,,,2025-03-03,1,,,,,ライジングサン,0
1928,9180005020959,新規,0,2025-03-03,2025-03-03,一般社団法人ＴＯＨＯ　ＬＦＣ,,その他の設立登記法人,愛知県,名古屋市名東区,平和が丘３丁目１１番地愛知東邦大学内,,23,115,4650097,,,,,,,2025-03-03,1,,,,,トウホウエルエフシー,0
1934,9190001032032,新規,0,2025-03-03,2025-03-03,セロイ株式会社,,株式会社,三重県,鈴鹿市,東庄内町３９０５番地,,24,207,5190272,,,,,,,2025-03-03,1,,,,,セロイ,0
1935,9200001043465,新規,0,2025-03-03,2025-03-03,フォース株式会社,,株式会社,岐阜県,可児市,川合８４８番地１,,21,214,5090201,,,,,,,2025-03-03,1,,,,,フォース,0
1939,9210003001890,新規,0,2025-03-03,2025-03-03,合同会社愛和,,合同会社,福井県,大野市,吉野町１１７－２,,18,205,9120034,,,,,,,2025-03-03,1,,,,,アイワ,0
1940,9230001020767,新規,0,2025-03-03,2025-03-03,株式会社立川,,株式会社,富山県,小矢部市,興法寺２４４３番地,,16,209,9320127,,,,,,,2025-03-03,1,,,,,タチカワ,0
1945,9250003003660,新規,0,2025-03-03,2025-03-03,ＡＲＳ　ＬＯＮＧＡ合同会社,,合同会社,山口県,周南市,大字鹿野上２９１１番地,,35,215,7450302,,,,,,,2025-03-03,1,,,,,アルスロンガ,0
1952,9290003016460,新規,0,2025-03-03,2025-03-03,合同会社ＡＳＩＴＡＢＡ,,合同会社,福岡県,春日市,昇町１丁目２６－１,,40,218,8160851,,,,,,,2025-03-03,1,,,,,アシタバ,0
1967,9370001052301,新規,0,2025-03-03,2025-03-03,株式会社ＧＥＡＲ　ＤＥＳＩＧＮＳ,,株式会社,宮城県,仙台市青葉区,宮町２丁目２番１６号エスペランサＭＭ２０４,,04,101,9800004,,,,,,,2025-03-03,1,,,,,ギアデザイン,0
1969,9370005010916,新規,0,2025-03-03,2025-03-03,特定非営利活動法人ＧＲＡＮＤＥＳＭＯＮＴＡＮＡフットボールアカデミー,,その他の設立登記法人,宮城県,仙台市青葉区,赤坂３丁目４番地の７,,04,101,9893211,,,,,,,2025-03-03,1,,,,,グランデスモンターニャフットボールアカデミー,0
1974,9380001035123,新規,0,2025-03-03,2025-03-03,株式会社幸建,,株式会社,福島県,郡山市,大槻町字天正坦２０番地の２ベルデュール針生Ａ棟１０２号,,07,203,9630201,,,,,,,2025-03-03,1,,,,,コウケン,0
1981,9430001093784,新規,0,2025-03-03,2025-03-03,株式会社Ｔｈｒｅｅｓｕｎｓ,,株式会社,北海道,札幌市東区,北十七条東２０丁目２番１９号ラフォーレ９０－１０５号室,,01,103,0650017,,,,,,,2025-03-03,1,,,,,スリーサンズ,0
1985,9480001012756,新規,0,2025-03-03,2025-03-03,マイデザイン株式会社,,株式会社,徳島県,徳島市,佐古一番町１３番６号,,36,201,7700021,,,,,,,2025-03-03,1,,,,,マイデザイン,0
1986,9490001010981,新規,0,2025-03-03,2025-03-03,株式会社ＮＡＭＢＵ商事,,株式会社,高知県,高岡郡日高村,岩目地９７０番地３９,,39,410,7812154,,,,,,,2025-03-03,1,,,,,ナンブショウジ,0
