sequenceNumber,corporateNumber,process,correct,updateDate,changeDate,name,nameImageId,kind,prefectureName,cityName,streetNumber,addressImageId,prefectureCode,cityCode,postCode,addressOutside,addressOutsideImageId,closeDate,closeCause,successorCorporateNumber,changeCause,assignmentDate,latest,enName,enPrefectureName,enCityName,enAddressOutside,furigana,hihyoji
4,1010001220842,新規,0,2021-09-06,2021-09-06,株式会社エスケイコンサルティング,,株式会社,東京都,文京区,千駄木４丁目３番１５号,,13,105,1130022,,,,,,,2021-09-06,1,,,,,エスケイコンサルティング,0
5,1010001220891,新規,0,2021-09-06,2021-09-06,株式会社アルバクロス,,株式会社,東京都,千代田区,神田小川町３丁目２８番地５,,13,101,1010052,,,,,,,2021-09-06,1,,,,,アルバクロス,0
6,1010001220925,新規,0,2021-09-06,2021-09-06,株式会社ＭＵＳＵＢＩマーケティング,,株式会社,東京都,中央区,日本橋富沢町４－１０京成日本橋富沢町ビル２Ｆ,,13,102,1030006,,,,,,,2021-09-06,1,,,,,ムスビマーケティング,0
13,1010003035743,新規,0,2021-09-06,2021-09-06,Ｃｒｏｐｓ合同会社,,合同会社,東京都,千代田区,神田多町２丁目１番地神田東山ビル７Ｆ,,13,101,1010046,,,,,,,2021-09-06,1,,,,,クロップス,0
23,1010401162494,新規,0,2021-09-06,2021-09-06,株式会社ＯｎｅＯｋＷｏｒｌｄ,,株式会社,東京都,港区,北青山３丁目５番１７号,,13,103,1070061,,,,,,,2021-09-06,1,,,,,ワンオクワールド,0
24,1010401162503,新規,0,2021-09-06,2021-09-06,株式会社吉澤会計事務所,,株式会社,東京都,港区,芝１丁目２番１号,,13,103,1050014,,,,,,,2021-09-06,1,,,,,ヨシザワカイケイジムショ,0
25,1010401162511,新規,0,2021-09-06,2021-09-06,株式会社チキンダイナマイト,,株式会社,東京都,港区,芝大門１丁目１番２３号,,13,103,1050012,,,,,,,2021-09-06,1,,,,,チキンダイナマイト,0
26,1010401162552,新規,0,2021-09-06,2021-09-06,オーガニックサイエンス株式会社,,株式会社,東京都,港区,虎ノ門５丁目１１番１５号,,13,103,1050001,,,,,,,2021-09-06,1,,,,,オーガニックサイエンス,0
28,1010405020161,新規,0,2021-09-06,2021-09-06,特定目的会社ＴＳＭＺ４,,その他の設立登記法人,東京都,港区,元赤坂１丁目１番７号,,13,103,1070051,,,,,,,2021-09-06,1,,,,,ティーエスエムゼットフォー,0
29,1010405020186,新規,0,2021-09-06,2021-09-06,一般財団法人日本承継協会,,その他の設立登記法人,東京都,港区,虎ノ門４丁目３番１号城山トラストタワー,,13,103,1050001,,,,,,,2021-09-06,1,,,,,ニホンショウケイキョウカイ,0
31,1010501047785,新規,0,2021-09-06,2021-09-06,株式会社グランシャリオ,,株式会社,東京都,台東区,根岸２丁目１６番１０号,,13,106,1100003,,,,,,,2021-09-06,1,,,,,グランシャリオ,0
33,1010503006376,新規,0,2021-09-06,2021-09-06,合同会社３７２１,,合同会社,東京都,台東区,浅草４丁目４４番地３号,,13,106,1110032,,,,,,,2021-09-06,1,,,,,サンシチニジュウイチ,0
34,1010601059879,新規,0,2021-09-06,2021-09-06,株式会社白居,,株式会社,東京都,墨田区,錦糸２丁目１０番７号,,13,107,1300013,,,,,,,2021-09-06,1,,,,,シライ,0
35,1010601059895,新規,0,2021-09-06,2021-09-06,株式会社ユーズフル,,株式会社,東京都,江東区,東砂３丁目２４番１０号,,13,108,1360074,,,,,,,2021-09-06,1,,,,,ユーズフル,0
42,1010803003874,新規,0,2021-09-06,2021-09-06,合同会社ａｔｅｌｉｅｒ　ｄｅｃｏｐａ,,合同会社,東京都,大田区,東馬込１丁目４番１２号,,13,111,1430022,,,,,,,2021-09-06,1,,,,,アトリエデコパ,0
46,1011001142639,新規,0,2021-09-06,2021-09-06,株式会社ミヤマプロジェクト,,株式会社,東京都,渋谷区,元代々木町１６番１２号ジェイパーク代々木上原２０１,,13,113,1510062,,,,,,,2021-09-06,1,,,,,ミヤマプロジェクト,0
47,1011001142647,新規,0,2021-09-06,2021-09-06,株式会社Ｘｅｎ＆ａｓｓｏｃｉａｔｅｓ,,株式会社,東京都,渋谷区,神泉町１８番８号松濤ハイツ１１０４号室,,13,113,1500045,,,,,,,2021-09-06,1,,,,,ゼンアンドアソシエイツ,0
48,1011001142762,新規,0,2021-09-06,2021-09-06,株式会社ＣＲＥＶＩＶＡ,,株式会社,東京都,渋谷区,円山町５番５号Ｎａｖｉ渋谷Ｖ３階,,13,113,1500044,,,,,,,2021-09-06,1,,,,,クリビバ,0
60,1011401023645,新規,0,2021-09-06,2021-09-06,ロボットジャパン株式会社,,株式会社,東京都,板橋区,仲宿５６番７－１００７号,,13,119,1730005,,,,,,,2021-09-06,1,,,,,ロボットジャパン,0
66,1011403003430,新規,0,2021-09-06,2021-09-06,合同会社コハラＡＭ,,合同会社,東京都,板橋区,高島平１丁目８番１９号,,13,119,1750082,,,,,,,2021-09-06,1,,,,,コハラエーエム,0
68,1011501027281,新規,0,2021-09-06,2021-09-06,株式会社大ふく,,株式会社,東京都,荒川区,南千住６丁目６０番１０号,,13,118,1160003,,,,,,,2021-09-06,1,,,,,ダイフク,0
69,1011503004873,新規,0,2021-09-06,2021-09-06,合同会社メリア,,合同会社,東京都,北区,王子５丁目１番１－１４１２号,,13,117,1140002,,,,,,,2021-09-06,1,,,,,メリア,0
72,1011703002933,新規,0,2021-09-06,2021-09-06,合同会社大橋電設,,合同会社,東京都,江戸川区,西葛西７丁目２９番１４－３０５号ロイヤルシラコ,,13,123,1340088,,,,,,,2021-09-06,1,,,,,オオハシデンセツ,0
73,1011803004763,新規,0,2021-09-06,2021-09-06,合同会社おむすＢｉｚ,,合同会社,東京都,足立区,谷中５丁目４番６号,,13,121,1200006,,,,,,,2021-09-06,1,,,,,オムスビズ,0
76,1012403005012,新規,0,2021-09-06,2021-09-06,合同会社スマイル,,合同会社,東京都,調布市,仙川町２丁目８番地１７クレアホームズ仙川２０７,,13,208,1820002,,,,,,,2021-09-06,1,,,,,スマイル,0
81,1013301047971,新規,0,2021-09-06,2021-09-06,株式会社原田管財,,株式会社,東京都,豊島区,西池袋１丁目２９番４－１００６号,,13,116,1710021,,,,,,,2021-09-06,1,,,,,ハラダカンザイ,0
94,1020001142912,新規,0,2021-09-06,2021-09-06,株式会社エアー,,株式会社,神奈川県,横浜市南区,堀ノ内町１丁目１０番地６,,14,105,2320042,,,,,,,2021-09-06,1,,,,,エアー,0
96,1021001073825,新規,0,2021-09-06,2021-09-06,株式会社Ａｕｔｏ　ＢＡＴＨ,,株式会社,神奈川県,愛甲郡愛川町,中津３６０３番地の５グレイスシャンブルⅠ－１０１,00124127,14,401,2430303,,,,,,,2021-09-06,1,,,,,オートバス,0
97,1021001073841,新規,0,2021-09-06,2021-09-06,株式会社紗夢美装,,株式会社,神奈川県,相模原市南区,相模台７丁目１８番１６号,,14,153,2520321,,,,,,,2021-09-06,1,,,,,サユウビソウ,0
98,1021001073858,新規,0,2021-09-06,2021-09-06,株式会社イオスホーム,,株式会社,神奈川県,相模原市中央区,相模原５丁目１番２号相模原ビル４Ｆ,,14,152,2520231,,,,,,,2021-09-06,1,,,,,イオスホーム,0
99,1021001073882,新規,0,2021-09-06,2021-09-06,株式会社ピーステック,,株式会社,神奈川県,茅ヶ崎市,緑が浜９番１－１１３号緑が浜ハイツ,,14,207,2530034,,,,,,,2021-09-06,1,,,,,ピーステック,0
104,1021003010859,新規,0,2021-09-06,2021-09-06,ＰＩＲＯ合同会社,,合同会社,神奈川県,小田原市,栄町２丁目３番１４号栄町ビル２Ｆ,,14,206,2500011,,,,,,,2021-09-06,1,,,,,ピロ,0
105,1030001042830,新規,0,2021-09-06,2021-09-06,株式会社エス・ゼット・ケイ,,株式会社,埼玉県,上尾市,大字領家１４番地の３,,11,219,3620066,,,,,,,2021-09-06,1,,,,,エスゼットケイ,0
112,1030001144131,新規,0,2021-09-06,2021-09-06,ジェイケイプランニング株式会社,,株式会社,埼玉県,三郷市,戸ケ崎３１１０番地４,,11,237,3410044,,,,,,,2021-09-06,1,,,,,ジェイケイプランニング,0
113,1030001144164,新規,0,2021-09-06,2021-09-06,株式会社Ｓ・エージ,,株式会社,埼玉県,さいたま市見沼区,大字中川２０６番地１１,,11,104,3370043,,,,,,,2021-09-06,1,,,,,エスエージ,0
114,1030001144180,新規,0,2021-09-06,2021-09-06,株式会社エイジ,,株式会社,埼玉県,川越市,今成３丁目１１番地４１,,11,201,3501105,,,,,,,2021-09-06,1,,,,,エイジ,0
115,1030001144197,新規,0,2021-09-06,2021-09-06,株式会社ｋｕｓｙｕ,,株式会社,埼玉県,所沢市,くすのき台１丁目１３番地の６,,11,208,3590037,,,,,,,2021-09-06,1,,,,,クシュ,0
116,1030001144206,新規,0,2021-09-06,2021-09-06,Ｍａ　ｍａｉｓｏｎ　Ｇｒｏｕｐ株式会社,,株式会社,埼玉県,狭山市,入間川２丁目１１番１３号,,11,215,3501305,,,,,,,2021-09-06,1,,,,,マメゾングループ,0
117,1030001144214,新規,0,2021-09-06,2021-09-06,株式会社スピネル,,株式会社,埼玉県,越谷市,赤山本町３番地２４ライオンズグローベル越谷ステーションプラザ１２０１号,,11,222,3430808,,,,,,,2021-09-06,1,,,,,スピネル,0
118,1030001144222,新規,0,2021-09-06,2021-09-06,株式会社Ｋ－ｕｐ,,株式会社,埼玉県,川口市,領家３丁目１９番２５号エトワールテラ３０２号,,11,203,3320004,,,,,,,2021-09-06,1,,,,,ケーアップ,0
121,1030003017888,新規,0,2021-09-06,2021-09-06,合同会社一馬組,,合同会社,埼玉県,久喜市,菖蒲町菖蒲５０１３番地２７４,,11,232,3460106,,,,,,,2021-09-06,1,,,,,カズマグミ,0
122,1030003017905,新規,0,2021-09-06,2021-09-06,合同会社クリエル,,合同会社,埼玉県,川口市,西川口３丁目１４番１４－６０８号,,11,203,3320021,,,,,,,2021-09-06,1,,,,,クリエル,0
123,1030005020510,新規,0,2021-09-06,2021-09-06,一般社団法人ＲｅＡｌｉｖｅ,,その他の設立登記法人,埼玉県,さいたま市見沼区,堀崎町２３８番地１,,11,104,3370052,,,,,,,2021-09-06,1,,,,,リアライブ,0
126,1040001120008,新規,0,2021-09-06,2021-09-06,株式会社ＡＲｉｓｅ,,株式会社,千葉県,柏市,逆井１８６１番地１３,,12,217,2770042,,,,,,,2021-09-06,1,,,,,アライズ,0
127,1040001120016,新規,0,2021-09-06,2021-09-06,株式会社加瀬建商,,株式会社,千葉県,匝瑳市,野手１０３２４番地１,,12,235,2893181,,,,,,,2021-09-06,1,,,,,カセケンショウ,0
128,1040001120024,新規,0,2021-09-06,2021-09-06,株式会社スカイテクニカル,,株式会社,千葉県,袖ケ浦市,代宿８５番地３５,,12,229,2990241,,,,,,,2021-09-06,1,,,,,スカイテクニカル,0
129,1040001120032,新規,0,2021-09-06,2021-09-06,株式会社ＨｏＣｏｌｅａｎ．,,株式会社,千葉県,千葉市中央区,仁戸名町７２０番地２１８,,12,101,2600801,,,,,,,2021-09-06,1,,,,,ホックリン,0
130,1040001120107,新規,0,2021-09-06,2021-09-06,株式会社Ｓｔｙｌｅ,,株式会社,千葉県,市川市,大洲３丁目９番１４－３０４号,,12,203,2720032,,,,,,,2021-09-06,1,,,,,スタイル,0
137,1050001049790,新規,0,2021-09-06,2021-09-06,アイラック株式会社,,株式会社,茨城県,古河市,水海２６４７番地,,08,204,3060215,,,,,,,2021-09-06,1,,,,,アイラック,0
138,1050001049799,新規,0,2021-09-06,2021-09-06,アイルガーデン株式会社,,株式会社,茨城県,ひたちなか市,大字足崎１２６３番地６９,,08,221,3120003,,,,,,,2021-09-06,1,,,,,アイルガーデン,0
139,1050001049808,新規,0,2021-09-06,2021-09-06,株式会社Ｗ＆Ｂ,,株式会社,茨城県,つくば市,小田３０２７番地２,,08,220,3004223,,,,,,,2021-09-06,1,,,,,ダブルアンドビー,0
140,1050003006063,新規,0,2021-09-06,2021-09-06,フリーアイＹＫ合同会社,,合同会社,茨城県,土浦市,神立町６９９番地３,,08,203,3000013,,,,,,,2021-09-06,1,,,,,フリーアイワイケー,0
141,1060001034032,新規,0,2021-09-06,2021-09-06,株式会社増田鉄工所,,株式会社,栃木県,足利市,鹿島町１１１０番地１,,09,202,3260844,,,,,,,2021-09-06,1,,,,,,0
146,1070001038387,新規,0,2021-09-06,2021-09-06,株式会社ＭＳＴ,,株式会社,群馬県,高崎市,双葉町２６番２－８号ＬＵＸＵＲＹ、Ｌ号,,10,202,3700843,,,,,,,2021-09-06,1,,,,,エムエスティー,0
147,1070001038395,新規,0,2021-09-06,2021-09-06,株式会社藤沢彩建,,株式会社,群馬県,前橋市,富士見町小暮９５１番地２１,,10,201,3710103,,,,,,,2021-09-06,1,,,,,フジサワサイケン,0
148,1070001038404,新規,0,2021-09-06,2021-09-06,株式会社Ｆａｎｔａｓｙ　Ｆａｒｍ,,株式会社,群馬県,伊勢崎市,西久保町３丁目１０７３番地１,,10,204,3792204,,,,,,,2021-09-06,1,,,,,ファンタジーファーム,0
149,1070003004214,新規,0,2021-09-06,2021-09-06,合同会社ガンバーン,,合同会社,群馬県,高崎市,下豊岡町８７１番地７ユーハイツ２０３号,,10,202,3700873,,,,,,,2021-09-06,1,,,,,ガンバーン,0
150,1070003004222,新規,0,2021-09-06,2021-09-06,合同会社ＹＯＳＨＩＤＡ　ＩＮＴＥＲＮＡＴＩＯＮＡＬ　ＣＯＲＰＯＲＡＴＩＯＮ,,合同会社,群馬県,伊勢崎市,新栄町３８４９番地３サンプラザ新栄町２階,,10,204,3720038,,,,,,,2021-09-06,1,,,,,ヨシダインターナショナルコーポレーション,0
156,1080005007395,新規,0,2021-09-06,2021-09-06,一般社団法人しずおか住環境防災サポートセンター,,その他の設立登記法人,静岡県,静岡市駿河区,国吉田３丁目２番２２－２０８号,,22,102,4228004,,,,,,,2021-09-06,1,,,,,シズオカジュウカンキョウボウサイサポートセンター,0
157,1080101022744,新規,0,2021-09-06,2021-09-06,株式会社ｗｏｏｄ　ｎｕｍｂｅｒ,,株式会社,静岡県,沼津市,大岡２１３８番地の４,,22,203,4100022,,,,,,,2021-09-06,1,,,,,ウッドナンバー,0
158,1080101022752,新規,0,2021-09-06,2021-09-06,株式会社フォーティーン,,株式会社,静岡県,三島市,佐野見晴台２丁目４０番地の１０,,22,206,4110041,,,,,,,2021-09-06,1,,,,,フォーティーン,0
160,1080401025298,新規,0,2021-09-06,2021-09-06,株式会社コミュニティリハビリテーション,,株式会社,静岡県,掛川市,秋葉路４番地の１４,,22,213,4360041,,,,,,,2021-09-06,1,,,,,コミュニティリハビリテーション,0
161,1080401025315,新規,0,2021-09-06,2021-09-06,株式会社ラニトラベル,,株式会社,静岡県,浜松市西区,入野町９８６０番地の１入野パークホームズ６０４,,22,133,4328061,,,,,,,2021-09-06,1,,,,,ラニトラベル,0
162,1090001017174,新規,0,2021-09-06,2021-09-06,株式会社イチカワタイヤ,,株式会社,山梨県,南アルプス市,荊沢３３６番地,,19,208,4000422,,,,,,,2021-09-06,1,,,,,,0
163,1090001017182,新規,0,2021-09-06,2021-09-06,株式会社松場防災設備,,株式会社,山梨県,上野原市,コモアしおつ１丁目１３番６号,,19,212,4090126,,,,,,,2021-09-06,1,,,,,マツバボウサイセツビ,0
165,1110001036007,新規,0,2021-09-06,2021-09-06,株式会社コバテック,,株式会社,新潟県,長岡市,栃尾原町４丁目７番１１号,,15,202,9400134,,,,,,,2021-09-06,1,,,,,コバテック,0
166,1110003004564,新規,0,2021-09-06,2021-09-06,合同会社ワークファイブ,,合同会社,新潟県,阿賀野市,緑町１１番１３号,,15,223,9592034,,,,,,,2021-09-06,1,,,,,ワークファイブ,0
175,1120001240193,新規,0,2021-09-06,2021-09-06,Ｋ’ｓ－ＦＡＣＴＯＲＹ株式会社,,株式会社,大阪府,大阪市平野区,平野西３丁目９番７号１Ｆ,,27,126,5470033,,,,,,,2021-09-06,1,,,,,ケーズファクトリー,0
176,1120001240202,新規,0,2021-09-06,2021-09-06,株式会社ＩＤＴコーポレーション,,株式会社,大阪府,守口市,寺方本通１丁目３番２５号,,27,209,5700048,,,,,,,2021-09-06,1,,,,,アイディティコーポレーション,0
177,1120001240210,新規,0,2021-09-06,2021-09-06,株式会社ｍｕｕ,,株式会社,大阪府,大阪市都島区,毛馬町１丁目１９番１２号,,27,102,5340001,,,,,,,2021-09-06,1,,,,,ムー,0
178,1120001240219,新規,0,2021-09-06,2021-09-06,株式会社Ａｌｂｉｔ,,株式会社,大阪府,守口市,西郷通１丁目１３番１３－１１１０号,,27,209,5700034,,,,,,,2021-09-06,1,,,,,アルビット,0
183,1120003020156,新規,0,2021-09-06,2021-09-06,ｓｉｓｔｅｒｓ合同会社,,合同会社,大阪府,大阪市西区,江戸堀３丁目８番１６－１１０１号,,27,106,5500002,,,,,,,2021-09-06,1,,,,,シスターズ,0
186,1120005022489,新規,0,2021-09-06,2021-09-06,一般社団法人アベレージ,,その他の設立登記法人,大阪府,大阪市旭区,生江２丁目６番９号,,27,117,5350004,,,,,,,2021-09-06,1,,,,,アベレージ,0
189,1120101064229,新規,0,2021-09-06,2021-09-06,株式会社ＮＦマネジメント,,株式会社,大阪府,堺市北区,長曽根町４６番地アクシスクリエイティブセンター３０２,,27,146,5918025,,,,,,,2021-09-06,1,,,,,エヌエフマネジメント,0
190,1120101064237,新規,0,2021-09-06,2021-09-06,株式会社わくわくカンパニー,,株式会社,大阪府,河内長野市,市町２３１番地の２０,,27,216,5860002,,,,,,,2021-09-06,1,,,,,ワクワクカンパニー,0
193,1120901044842,新規,0,2021-09-06,2021-09-06,Ｗａｌｔ　Ｊａｐａｎ株式会社,,株式会社,大阪府,吹田市,広芝町１０番地２８オーク江坂ビル３階,,27,205,5640052,,,,,,,2021-09-06,1,,,,,ウォルトジャパン,0
194,1120901044867,新規,0,2021-09-06,2021-09-06,株式会社ラグラス,,株式会社,大阪府,豊中市,曽根東町６丁目５番２－３０５号,,27,203,5610802,,,,,,,2021-09-06,1,,,,,ラグラス,0
197,1122001035136,新規,0,2021-09-06,2021-09-06,オートリアル株式会社,,株式会社,大阪府,東大阪市,西堤１丁目１番３号,,27,227,5770042,,,,,,,2021-09-06,1,,,,,オートリアル,0
198,1122003002167,新規,0,2021-09-06,2021-09-06,合同会社北口商店,,合同会社,大阪府,大東市,御領３丁目１番１８号,,27,218,5740064,,,,,,,2021-09-06,1,,,,,キタグチショウテン,0
205,1130001070029,新規,0,2021-09-06,2021-09-06,株式会社セルロイドファクトリー,,株式会社,京都府,城陽市,久世芝ケ原１３１番地の８０,,26,207,6100102,,,,,,,2021-09-06,1,,,,,セルロイドファクトリー,0
206,1130001070061,新規,0,2021-09-06,2021-09-06,株式会社ジーピリオド,,株式会社,京都府,向日市,上植野町南開３４番地の３５,,26,208,6170006,,,,,,,2021-09-06,1,,,,,ジーピリオド,0
207,1130003007458,新規,0,2021-09-06,2021-09-06,合同会社ルーク,,合同会社,京都府,八幡市,男山泉１８－１３林第１ビル２階,,26,210,6148366,,,,,,,2021-09-06,1,,,,,ルーク,0
217,1140001122919,新規,0,2021-09-06,2021-09-06,新タイセイ・エンジニアリング株式会社,,株式会社,兵庫県,神戸市須磨区,菅の台６丁目４番地の９,,28,107,6540143,,,,,,,2021-09-06,1,,,,,シンタイセイエンジニアリング,0
218,1140001122943,新規,0,2021-09-06,2021-09-06,ＳＫＴ産業株式会社,,株式会社,兵庫県,神崎郡神河町,東柏尾６８番地,,28,446,6792425,,,,,,,2021-09-06,1,,,,,エスケーティーサンギョウ,0
227,1160001023603,新規,0,2021-09-06,2021-09-06,株式会社ＥＧＲＥＴ,,株式会社,滋賀県,野洲市,小篠原８５９番地１,,25,210,5202331,,,,,,,2021-09-06,1,,,,,イーグレット,0
235,1180001147672,新規,0,2021-09-06,2021-09-06,株式会社青山,,株式会社,愛知県,一宮市,牛野通４丁目１５番地,,23,203,4910846,,,,,,,2021-09-06,1,,,,,アオヤマ,0
236,1180001147680,新規,0,2021-09-06,2021-09-06,ＳＥＮＴＥＮＳＥ株式会社,,株式会社,愛知県,北名古屋市,徳重本郷９０番地１,,23,234,4810038,,,,,,,2021-09-06,1,,,,,センテンス,0
237,1180001147697,新規,0,2021-09-06,2021-09-06,株式会社ＷＩＮＤ,,株式会社,愛知県,名古屋市天白区,植田西３丁目３１４番地,,23,116,4680058,,,,,,,2021-09-06,1,,,,,ウインド,0
238,1180001147706,新規,0,2021-09-06,2021-09-06,小熊屋株式会社,,株式会社,愛知県,名古屋市千種区,豊年町１３番１８号－２,,23,101,4640076,,,,,,,2021-09-06,1,,,,,コグマヤ,0
240,1180003022923,新規,0,2021-09-06,2021-09-06,東風合同会社,,合同会社,愛知県,日進市,東山６丁目２１９,,23,230,4700116,,,,,,,2021-09-06,1,,,,,トウフウ,0
248,1200001039082,新規,0,2021-09-06,2021-09-06,株式会社三宅畳店,,株式会社,岐阜県,恵那市,明智町１８０２番地１の１の３,,21,210,5097731,,,,,,,2021-09-06,1,,,,,ミヤケタタミテン,0
250,1210001018580,新規,0,2021-09-06,2021-09-06,Ｄｅ稲垣株式会社,,株式会社,福井県,福井市,勝見１丁目６－１７,,18,201,9100856,,,,,,,2021-09-06,1,,,,,ディーイナガキ,0
251,1210001018589,新規,0,2021-09-06,2021-09-06,株式会社ニシモトトレーディング,,株式会社,福井県,敦賀市,野神１５号５番地の３,,18,202,9140121,,,,,,,2021-09-06,1,,,,,ニシモトトレーディング,0
257,1220001024405,新規,0,2021-09-06,2021-09-06,株式会社ＦｉｅｌｄＳｔｏｎｅ,,株式会社,石川県,小松市,大川町３丁目１３４番地,,17,203,9230911,,,,,,,2021-09-06,1,,,,,フィールドストーン,0
259,1230001018967,新規,0,2021-09-06,2021-09-06,株式会社ウエストゲート,,株式会社,富山県,富山市,婦中町下轡田１３３番地２,,16,201,9392716,,,,,,,2021-09-06,1,,,,,ウエストゲート,0
265,1240001058525,新規,0,2021-09-06,2021-09-06,株式会社ＭＹＵ,,株式会社,広島県,三原市,宮浦６丁目３番２３号,,34,204,7230051,,,,,,,2021-09-06,1,,,,,ミュウ,0
266,1240001058541,新規,0,2021-09-06,2021-09-06,株式会社ｆｉｘコーポレーション,,株式会社,広島県,広島市中区,加古町１３番１７号,,34,101,7300812,,,,,,,2021-09-06,1,,,,,フィックスコーポレーション,0
267,1240001058566,新規,0,2021-09-06,2021-09-06,株式会社信創,,株式会社,広島県,広島市西区,草津新町２丁目１７番７号,,34,104,7330834,,,,,,,2021-09-06,1,,,,,シンソウ,0
273,1250001019105,新規,0,2021-09-06,2021-09-06,株式会社リアルティ徳山,,株式会社,山口県,周南市,大字徳山４４８２番地の２,,35,215,7450851,,,,,,,2021-09-06,1,,,,,リアルティトクヤマ,0
279,1260003003667,新規,0,2021-09-06,2021-09-06,合同会社Ｕ‐Ｆｉｒｓｔ,,合同会社,岡山県,岡山市北区,大供１丁目７番３‐１０２号,,33,101,7000913,,,,,,,2021-09-06,1,,,,,ユーファースト,0
292,1290001094458,新規,0,2021-09-06,2021-09-06,株式会社ユーステラー,,株式会社,福岡県,福岡市中央区,清川３丁目１６番１９号,,40,133,8100005,,,,,,,2021-09-06,1,,,,,ユーステラー,0
295,1290003011576,新規,0,2021-09-06,2021-09-06,合同会社ＣＥＮＴＲＩＶＥＲ,,合同会社,福岡県,福岡市博多区,千代１丁目２１番２１号イーストパーク２１・２０３号,,40,132,8120044,,,,,,,2021-09-06,1,,,,,セントリバー,0
300,1300003001716,新規,0,2021-09-06,2021-09-06,合同会社ＩＰ企画,,合同会社,佐賀県,佐賀市,三瀬村三瀬２８３番地３,,41,201,8420301,,,,,,,2021-09-06,1,,,,,アイピーキカク,0
307,1320001018578,新規,0,2021-09-06,2021-09-06,株式会社ＬＥＧＡＭＥ　ＪＡＰＡＮ,,株式会社,大分県,別府市,大字平道１５４５番地の１４,,44,202,8740000,,,,,,,2021-09-06,1,,,,,レガメジャパン,0
309,1320005009920,新規,0,2021-09-06,2021-09-06,一般社団法人まち元気おおいた,,その他の設立登記法人,大分県,大分市,府内町２丁目４番８号若竹ビル３１８号室,,44,201,8700021,,,,,,,2021-09-06,1,,,,,マチゲンキオオイタ,0
313,1330001028980,新規,0,2021-09-06,2021-09-06,株式会社祥菊,,株式会社,熊本県,熊本市中央区,細工町４丁目９番１号,,43,101,8600041,,,,,,,2021-09-06,1,,,,,ショウギク,0
319,1340001024079,新規,0,2021-09-06,2021-09-06,新馬場商会株式会社,,株式会社,鹿児島県,鹿屋市,浜田町１２２６番地２,,46,203,8930053,,,,,,,2021-09-06,1,,,,,シンババショウカイ,0
320,1340003003535,新規,0,2021-09-06,2021-09-06,合同会社晴れるスマイル,,合同会社,鹿児島県,奄美市,笠利町用安１２２２－１,,46,222,8940000,,,,,,,2021-09-06,1,,,,,ハレルスマイル,0
324,1360001029332,新規,0,2021-09-06,2021-09-06,株式会社畑ｓｉｅｎｎｅ,,株式会社,沖縄県,宮古島市,平良字東仲宗根添１５３２番地１１７,,47,214,9060011,,,,,,,2021-09-06,1,,,,,パリジェンヌ,0
325,1360001029340,新規,0,2021-09-06,2021-09-06,株式会社楽ドラ,,株式会社,沖縄県,那覇市,高良３丁目７－１－２Ｆ,,47,201,9010145,,,,,,,2021-09-06,1,,,,,ラクドラ,0
332,1370001047548,新規,0,2021-09-06,2021-09-06,株式会社内藤電気工事,,株式会社,宮城県,栗原市,一迫柳目字一の坪１７番地１,,04,213,9872309,,,,,,,2021-09-06,1,,,,,ナイトウデンキコウジ,0
339,1390003001864,新規,0,2021-09-06,2021-09-06,合同会社Ｋ＆Ｔ,,合同会社,山形県,寒河江市,大字日田字五反２４番地の３パシアンＡ２０５,,06,206,9910011,,,,,,,2021-09-06,1,,,,,ケイアンドティ,0
351,1430001084898,新規,0,2021-09-06,2021-09-06,株式会社益子工業,,株式会社,北海道,札幌市手稲区,前田十二条１０丁目１５番２３号,,01,109,0060822,,,,,,,2021-09-06,1,,,,,マスココウギョウ,0
357,1450001013467,新規,0,2021-09-06,2021-09-06,株式会社イースト・フリー,,株式会社,北海道,旭川市,南が丘２丁目９番１２号,,01,204,0708028,,,,,,,2021-09-06,1,,,,,イーストフリー,0
361,1470001018695,新規,0,2021-09-06,2021-09-06,ＡＩＺＳ株式会社,,株式会社,香川県,高松市,庵治町３８８２番地１,,37,201,7610130,,,,,,,2021-09-06,1,,,,,アイズ,0
362,1470003002004,新規,0,2021-09-06,2021-09-06,ｉＧｅｎｅヘルスケアジャパン合同会社,,合同会社,香川県,高松市,西内町４番６号,,37,201,7600022,,,,,,,2021-09-06,1,,,,,アイジーンヘルスケアジャパン,0
364,1500001023667,新規,0,2021-09-06,2021-09-06,Ｍｒ．Ｏｒｇａｎｉｃ株式会社,,株式会社,愛媛県,大洲市,徳森１５７１,,38,207,7950061,,,,,,,2021-09-06,1,,,,,ミスターオーガニック,0
376,2010001220817,新規,0,2021-09-06,2021-09-06,株式会社ＰＦＳ,,株式会社,東京都,中央区,銀座８丁目８番１１号,,13,102,1040061,,,,,,,2021-09-06,1,,,,,ピーエフエス,0
377,2010001220899,新規,0,2021-09-06,2021-09-06,株式会社ＳＨＩＮＫＡ,,株式会社,東京都,中央区,銀座７丁目７番１４号,,13,102,1040061,,,,,,,2021-09-06,1,,,,,シンカ,0
378,2010001220908,新規,0,2021-09-06,2021-09-06,株式会社ササシンオルソサポート,,株式会社,東京都,文京区,西片１丁目１５番７－６０２号,,13,105,1130024,,,,,,,2021-09-06,1,,,,,ササシンオルソサポート,0
379,2010001220924,新規,0,2021-09-06,2021-09-06,株式会社スマートシェアリング,,株式会社,東京都,千代田区,九段南１丁目５番地６りそな九段ビル５Ｆ,,13,101,1020074,,,,,,,2021-09-06,1,,,,,スマートシェアリング,0
380,2010001220932,新規,0,2021-09-06,2021-09-06,株式会社共立フーズマネジメント,,株式会社,東京都,文京区,小石川３丁目３８番１号,,13,105,1120002,,,,,,,2021-09-06,1,,,,,キョウリツフーズマネジメント,0
381,2010001220940,新規,0,2021-09-06,2021-09-06,株式会社ＲＥ－ＡＭＵＣＡ,,株式会社,東京都,千代田区,神田錦町１丁目２３番地８号ＴＨＥＳＫＹＧｒａｎＤＥＡＲ神田錦町１０階,,13,101,1010054,,,,,,,2021-09-06,1,,,,,アールイーアムカ,0
382,2010001220949,新規,0,2021-09-06,2021-09-06,株式会社ミクセファイ,,株式会社,東京都,中央区,銀座１丁目２２－１１－２Ｆ,,13,102,1040061,,,,,,,2021-09-06,1,,,,,ミクセファイ,0
383,2010001220965,新規,0,2021-09-06,2021-09-06,株式会社ＲＭ,,株式会社,東京都,中央区,銀座８丁目６番１９号,,13,102,1040061,,,,,,,2021-09-06,1,,,,,アールエム,0
389,2010401162493,新規,0,2021-09-06,2021-09-06,Ｂ　Ｊｅｗｅｌｒｙ　Ｊａｐａｎ株式会社,,株式会社,東京都,港区,西麻布３丁目６番１号六本木センチュリオンタワー８階,,13,103,1060031,,,,,,,2021-09-06,1,,,,,ビージュエリージャパン,0
390,2010401162510,新規,0,2021-09-06,2021-09-06,株式会社全部,,株式会社,東京都,港区,南麻布２丁目９番６号,,13,103,1060047,,,,,,,2021-09-06,1,,,,,ゼンブ,0
391,2010401162535,新規,0,2021-09-06,2021-09-06,株式会社ＢＯＸＩＮＧ　ＣＬＵＢ,,株式会社,東京都,港区,赤坂３丁目９番４号,,13,103,1070052,,,,,,,2021-09-06,1,,,,,ボクシングクラブ,0
394,2010403026052,新規,0,2021-09-06,2021-09-06,サクセスパートナー合同会社,,合同会社,東京都,港区,南青山２丁目２番１５号,,13,103,1070062,,,,,,,2021-09-06,1,,,,,サクセスパートナー,0
396,2010501047784,新規,0,2021-09-06,2021-09-06,株式会社ＦＯＲＣＥ,,株式会社,東京都,台東区,東上野２丁目１３番８号アルカディア上野ビル８階,,13,106,1100015,,,,,,,2021-09-06,1,,,,,フォース,0
397,2010501047792,新規,0,2021-09-06,2021-09-06,西幕株式会社,,株式会社,東京都,台東区,東上野６丁目２６－６シャトー東上野５０１,,13,106,1100015,,,,,,,2021-09-06,1,,,,,ニシマク,0
401,2010601059886,新規,0,2021-09-06,2021-09-06,株式会社Ｄｅｐａｒｂａｌ,,株式会社,東京都,墨田区,江東橋１丁目７番１２号,,13,107,1300022,,,,,,,2021-09-06,1,,,,,ディパーバル,0
402,2010601059894,新規,0,2021-09-06,2021-09-06,プラス・オン株式会社,,株式会社,東京都,江東区,東雲１丁目１０－１４－５２７,,13,108,1350062,,,,,,,2021-09-06,1,,,,,プラスオン,0
405,2010603009138,新規,0,2021-09-06,2021-09-06,合同会社アールエンジン,,合同会社,東京都,墨田区,錦糸４丁目９－９,,13,107,1300013,,,,,,,2021-09-06,1,,,,,アールエンジン,0
406,2010605003997,新規,0,2021-09-06,2021-09-06,医療法人社団翔翼会,,その他の設立登記法人,東京都,墨田区,江東橋３丁目９番１０号マルイ錦糸町２階,,13,107,1300022,,,,,,,2021-09-06,1,,,,,ショウヨクカイ,0
409,2010701041455,新規,0,2021-09-06,2021-09-06,株式会社Ｅａｒｍｏ,,株式会社,東京都,品川区,上大崎２丁目１３番３０号,,13,109,1410021,,,,,,,2021-09-06,1,,,,,アーモ,0
415,2010803003873,新規,0,2021-09-06,2021-09-06,合同会社陽だまりプライム,,合同会社,東京都,大田区,蒲田４丁目２５番３－７０２号,,13,111,1440052,,,,,,,2021-09-06,1,,,,,ヒダマリプライム,0
416,2010901049372,新規,0,2021-09-06,2021-09-06,株式会社ＮＵＵ,,株式会社,東京都,世田谷区,成城８丁目１６番２１号,,13,112,1570066,,,,,,,2021-09-06,1,,,,,ヌー,0
417,2010901049389,新規,0,2021-09-06,2021-09-06,株式会社石井アソシエイツ,,株式会社,東京都,世田谷区,桜丘３丁目７番１号,,13,112,1560054,,,,,,,2021-09-06,1,,,,,イシイアソシエイツ,0
421,2010905004200,新規,0,2021-09-06,2021-09-06,一般社団法人子どもと地球の未来応援プロジェクト,,その他の設立登記法人,東京都,世田谷区,野毛１丁目１４番８号Ｃ,,13,112,1580092,,,,,,,2021-09-06,1,,,,,コドモトチキュウノミライオウエンプロジェクト,0
430,2011001142621,新規,0,2021-09-06,2021-09-06,株式会社ＡＨ,,株式会社,東京都,目黒区,目黒１丁目２４－９,,13,110,1530063,,,,,,,2021-09-06,1,,,,,エーエイチ,0
431,2011001142646,新規,0,2021-09-06,2021-09-06,株式会社日本書道普及会,,株式会社,東京都,渋谷区,神泉町２番９号,,13,113,1500045,,,,,,,2021-09-06,1,,,,,ニホンショドウフキュウカイ,0
432,2011003013300,新規,0,2021-09-06,2021-09-06,合同会社Ｂｌｏｏｍｉｎｇ　Ｋ２,,合同会社,東京都,目黒区,碑文谷４丁目１０番２号,,13,110,1520003,,,,,,,2021-09-06,1,,,,,ブルーミングケーツー,0
438,2011101096164,新規,0,2021-09-06,2021-09-06,株式会社筑土,,株式会社,東京都,新宿区,荒木町２２番地５０,,13,104,1600007,,,,,,,2021-09-06,1,,,,,ツクド,0
439,2011101096197,新規,0,2021-09-06,2021-09-06,アジア水産開発株式会社,,株式会社,東京都,新宿区,西新宿８丁目１０番３号,,13,104,1600023,,,,,,,2021-09-06,1,,,,,アジアスイサンカイハツ,0
441,2011103010981,新規,0,2021-09-06,2021-09-06,Ｈａｍｍｙ＆Ｃｏ．合同会社,,合同会社,東京都,新宿区,若松町２８番１６号オーベル早稲田２０２,,13,104,1620056,,,,,,,2021-09-06,1,,,,,ハミーアンドコー,0
443,2011301027159,新規,0,2021-09-06,2021-09-06,株式会社エンゼルウイング,,株式会社,東京都,杉並区,阿佐谷北２丁目１３番１６号,,13,115,1660001,,,,,,,2021-09-06,1,,,,,エンゼルウイング,0
444,2011303004156,新規,0,2021-09-06,2021-09-06,合同会社イケガミ,,合同会社,東京都,杉並区,高円寺北３丁目５番２６号,,13,115,1660002,,,,,,,2021-09-06,1,,,,,イケガミ,0
447,2011401023652,新規,0,2021-09-06,2021-09-06,株式会社ＯＫＢ,,株式会社,東京都,板橋区,小茂根２丁目２番２号,,13,119,1730037,,,,,,,2021-09-06,1,,,,,オーケービー,0
458,2011701024680,新規,0,2021-09-06,2021-09-06,シアグランツ株式会社,,株式会社,東京都,江戸川区,南葛西２丁目１番９号サンレガーロ葛西１０１,,13,123,1340085,,,,,,,2021-09-06,1,,,,,シアグランツ,0
460,2012301012695,新規,0,2021-09-06,2021-09-06,株式会社ＳＵＳＵＭＵ住建,,株式会社,東京都,町田市,金森３丁目２９番２号,,13,209,1940012,,,,,,,2021-09-06,1,,,,,ススムジュウケン,0
462,2012801021056,新規,0,2021-09-06,2021-09-06,株式会社ｍｙ．,,株式会社,東京都,昭島市,郷地町１丁目２番６号エノハウスＢ号,,13,207,1960032,,,,,,,2021-09-06,1,,,,,マイドット,0
465,2013301047970,新規,0,2021-09-06,2021-09-06,株式会社ＳＴＡＮＤ,,株式会社,東京都,豊島区,東池袋３丁目１番１号,,13,116,1700013,,,,,,,2021-09-06,1,,,,,スタンド,0
466,2013301047979,新規,0,2021-09-06,2021-09-06,株式会社Ｃｉｐｈｅｒ,,株式会社,東京都,豊島区,南大塚１丁目２１番６号レジデンス南大塚１０１,,13,116,1700005,,,,,,,2021-09-06,1,,,,,サイファー,0
480,2020001142886,新規,0,2021-09-06,2021-09-06,Ｓ．株式会社,,株式会社,神奈川県,横浜市港南区,下永谷６丁目１番８号３Ｆ,,14,111,2330016,,,,,,,2021-09-06,1,,,,,エスドット,0
481,2020001142894,新規,0,2021-09-06,2021-09-06,咲良工業株式会社,,株式会社,神奈川県,横浜市港南区,芹が谷１丁目３０番３３号,,14,111,2330006,,,,,,,2021-09-06,1,,,,,サラコウギョウ,0
482,2020001142903,新規,0,2021-09-06,2021-09-06,株式会社エリートジェノミクス,,株式会社,神奈川県,横浜市西区,みなとみらい２丁目３番１号,,14,103,2200012,,,,,,,2021-09-06,1,,,,,エリートジェノミクス,0
489,2021001073840,新規,0,2021-09-06,2021-09-06,ＫＳ企画株式会社,,株式会社,神奈川県,相模原市南区,古淵１丁目１１番１２号,,14,153,2520344,,,,,,,2021-09-06,1,,,,,ケイエスキカク,0
490,2021001073881,新規,0,2021-09-06,2021-09-06,株式会社栄徳,,株式会社,神奈川県,綾瀬市,深谷南３丁目４番１９号,,14,218,2521106,,,,,,,2021-09-06,1,,,,,エイトク,0
498,2030001144089,新規,0,2021-09-06,2021-09-06,株式会社Ｒｉｐｓｅ,,株式会社,埼玉県,川口市,本蓮２丁目２６－１,00124133,11,203,3340076,,,,,,,2021-09-06,1,,,,,リップス,0
499,2030001144130,新規,0,2021-09-06,2021-09-06,株式会社カミテックス,,株式会社,埼玉県,さいたま市岩槻区,城町１丁目８－５５－４,,11,110,3390053,,,,,,,2021-09-06,1,,,,,カミテックス,0
500,2030001144139,新規,0,2021-09-06,2021-09-06,株式会社ＯＮＥ,,株式会社,埼玉県,久喜市,久喜中央１丁目３番７号宮木ビル２Ｆ,,11,232,3460003,,,,,,,2021-09-06,1,,,,,ワン,0
501,2030001144147,新規,0,2021-09-06,2021-09-06,ベネット・テクノロジーズ株式会社,,株式会社,埼玉県,さいたま市北区,日進町２丁目１１６６番地２,,11,102,3310823,,,,,,,2021-09-06,1,,,,,ベネットテクノロジーズ,0
502,2030001144155,新規,0,2021-09-06,2021-09-06,株式会社アイワコンサルティング,,株式会社,埼玉県,さいたま市緑区,東浦和２丁目４３番地５－２０２号,,11,109,3360926,,,,,,,2021-09-06,1,,,,,アイワコンサルティング,0
503,2030001144163,新規,0,2021-09-06,2021-09-06,株式会社ティーアールケーホーム,,株式会社,埼玉県,北足立郡伊奈町,寿３丁目１９番地ことぶきマンション１０２,,11,301,3620807,,,,,,,2021-09-06,1,,,,,ティーアールケーホーム,0
504,2030001144205,新規,0,2021-09-06,2021-09-06,新白岡輸入販売株式会社,,株式会社,埼玉県,久喜市,久喜本８４７－１４,,11,232,3460031,,,,,,,2021-09-06,1,,,,,シンシラオカユニュウハンバイ,0
505,2030001144213,新規,0,2021-09-06,2021-09-06,愛郷設計株式会社,,株式会社,埼玉県,秩父市,中村町３丁目１５番３１号,,11,207,3680051,,,,,,,2021-09-06,1,,,,,アイキョウセッケイ,0
506,2030001144221,新規,0,2021-09-06,2021-09-06,株式会社ＹＥＮＤＵＹ　ＳＡＩＴＡＭＡ　ＤＲＩＶＩＮＧ　ＳＣＨＯＯＬ,,株式会社,埼玉県,三郷市,中央５丁目４２番地８,,11,237,3410038,,,,,,,2021-09-06,1,,,,,イエンユイサイタマドライビングスクール,0
510,2030003017895,新規,0,2021-09-06,2021-09-06,合同会社ドリームアート,,合同会社,埼玉県,さいたま市見沼区,大和田町２丁目１２８０番地１ルーレル大和田３０６,,11,104,3370053,,,,,,,2021-09-06,1,,,,,ドリームアート,0
514,2040001119981,新規,0,2021-09-06,2021-09-06,株式会社ルボワ,,株式会社,千葉県,木更津市,請西２丁目１５番３９号,,12,206,2920801,,,,,,,2021-09-06,1,,,,,ルボワ,0
515,2040001120023,新規,0,2021-09-06,2021-09-06,新日本サポート株式会社,,株式会社,千葉県,千葉市中央区,登戸１丁目１３番２１号,,12,101,2600032,,,,,,,2021-09-06,1,,,,,シンニホンサポート,0
516,2040001120031,新規,0,2021-09-06,2021-09-06,株式会社ＴＨＲＩＶＥ,,株式会社,千葉県,船橋市,八木が谷１丁目２０番６－２号,,12,204,2740802,,,,,,,2021-09-06,1,,,,,スライブ,0
517,2040001120072,新規,0,2021-09-06,2021-09-06,株式会社アグリシアＪＡＰＡＮ,,株式会社,千葉県,富里市,七栄１１５番地３,,12,233,2860221,,,,,,,2021-09-06,1,,,,,アグリシアジャパン,0
518,2040001120080,新規,0,2021-09-06,2021-09-06,株式会社カーネルコンサルティング,,株式会社,千葉県,市川市,鬼越１丁目１番２４号,,12,203,2720022,,,,,,,2021-09-06,1,,,,,カーネルコンサルティング,0
519,2040001120089,新規,0,2021-09-06,2021-09-06,株式会社ＭＩＲＡＩ,,株式会社,千葉県,市原市,青葉台５丁目２番地の１０,,12,219,2990117,,,,,,,2021-09-06,1,,,,,ミライ,0
521,2040003018439,新規,0,2021-09-06,2021-09-06,合同会社彩,,合同会社,千葉県,松戸市,上本郷４５８１番地ベルピア北松戸３－２－１０２号,,12,207,2710064,,,,,,,2021-09-06,1,,,,,サイ,0
525,2050001049781,新規,0,2021-09-06,2021-09-06,株式会社凌真,,株式会社,茨城県,土浦市,烏山３丁目８７２番地１４,,08,203,3000836,,,,,,,2021-09-06,1,,,,,リョウマ,0
526,2050001049798,新規,0,2021-09-06,2021-09-06,株式会社つくば珍来,,株式会社,茨城県,つくば市,松代１丁目５番地５,,08,220,3050035,,,,,,,2021-09-06,1,,,,,ツクバチンライ,0
527,2050001049807,新規,0,2021-09-06,2021-09-06,株式会社ｇｉｇｉ　ｃｏｍｐａｎｙ,,株式会社,茨城県,古河市,小堤２１４３番地４,,08,204,3060231,,,,,,,2021-09-06,1,,,,,ジジカンパニー,0
528,2050001049815,新規,0,2021-09-06,2021-09-06,株式会社騰勝,,株式会社,茨城県,土浦市,川口１丁目６番２２号,,08,203,3000033,,,,,,,2021-09-06,1,,,,,トウショウ,0
537,2070001038394,新規,0,2021-09-06,2021-09-06,柴﨑冷熱株式会社,00124128,株式会社,群馬県,高崎市,吉井町矢田５００番地４,,10,202,3702106,,,,,,,2021-09-06,1,,,,,シバサキレイネツ,0
538,2070001038403,新規,0,2021-09-06,2021-09-06,株式会社サンワホールディングス,,株式会社,群馬県,高崎市,倉賀野町２６５９番地,,10,202,3701201,,,,,,,2021-09-06,1,,,,,サンワホールディングス,0
548,2080403004357,新規,0,2021-09-06,2021-09-06,アン動物クリニック合同会社,,合同会社,静岡県,掛川市,成滝６４２番地の１,,22,213,4360085,,,,,,,2021-09-06,1,,,,,アンドウブツクリニック,0
549,2090001017173,新規,0,2021-09-06,2021-09-06,株式会社ＧＯＧＯ商事,,株式会社,山梨県,南アルプス市,下今諏訪３４１番地,,19,208,4000212,,,,,,,2021-09-06,1,,,,,,0
550,2090001017181,新規,0,2021-09-06,2021-09-06,ｐ．ｃ．ｃ．メディアマーケティング株式会社,,株式会社,山梨県,甲府市,上石田３丁目８番８号３号室,,19,201,4000041,,,,,,,2021-09-06,1,,,,,,0
555,2110001036006,新規,0,2021-09-06,2021-09-06,株式会社イシダ商工,,株式会社,新潟県,燕市,灰方１８番地２,,15,213,9591201,,,,,,,2021-09-06,1,,,,,イシダショウコウ,0
556,2110001036014,新規,0,2021-09-06,2021-09-06,Ｓ・Ｔ・Ｙ設備工業株式会社,,株式会社,新潟県,妙高市,田町２丁目１番１号,,15,217,9440031,,,,,,,2021-09-06,1,,,,,エスティーワイセツビコウギョウ,0
557,2110001036022,新規,0,2021-09-06,2021-09-06,株式会社千野工業,,株式会社,新潟県,柏崎市,向陽町１２７９番地１２２,,15,205,9451102,,,,,,,2021-09-06,1,,,,,チノコウギョウ,0
562,2110005016706,新規,0,2021-09-06,2021-09-06,農事組合法人ＮＳＹ,,その他の設立登記法人,新潟県,三条市,柳川新田７８０番地,,15,204,9550002,,,,,,,2021-09-06,1,,,,,エヌエスワイ,0
580,2120001240176,新規,0,2021-09-06,2021-09-06,ログバンク株式会社,,株式会社,大阪府,大阪市中央区,平野町２丁目２番７号,,27,128,5410046,,,,,,,2021-09-06,1,,,,,ログバンク,0
581,2120001240184,新規,0,2021-09-06,2021-09-06,株式会社エーラックライフ,,株式会社,大阪府,大阪市淀川区,東三国５丁目１２番２０－５０６号,,27,123,5320002,,,,,,,2021-09-06,1,,,,,エーラックライフ,0
582,2120001240192,新規,0,2021-09-06,2021-09-06,株式会社ＮＡＫＡＳＨＩＭＡ,,株式会社,大阪府,大阪市北区,中崎西１丁目１０－３,,27,127,5300015,,,,,,,2021-09-06,1,,,,,ナカシマ,0
583,2120003020155,新規,0,2021-09-06,2021-09-06,小柳整体アカデミー合同会社,,合同会社,大阪府,大阪市平野区,平野西５丁目５－９,,27,126,5470033,,,,,,,2021-09-06,1,,,,,オヤナギセイタイアカデミー,0
584,2120003020163,新規,0,2021-09-06,2021-09-06,合同会社ＳＫＹ,,合同会社,大阪府,大阪市中央区,糸屋町２丁目１－２プレサンス大手前パークサイド５０１,,27,128,5400022,,,,,,,2021-09-06,1,,,,,エスケイワイ,0
588,2120101064228,新規,0,2021-09-06,2021-09-06,株式会社ごうでん,,株式会社,大阪府,泉南市,新家１７８６番地の１,,27,228,5900503,,,,,,,2021-09-06,1,,,,,ゴウデン,0
589,2120101064236,新規,0,2021-09-06,2021-09-06,株式会社ジーイング,,株式会社,大阪府,藤井寺市,津堂１丁目３番１２号,,27,226,5830037,,,,,,,2021-09-06,1,,,,,ジーイング,0
590,2120101064244,新規,0,2021-09-06,2021-09-06,株式会社メガーインフ,,株式会社,大阪府,堺市堺区,中瓦町１丁４番２２号大阪信用金庫堺東ビル２Ｆ,,27,141,5900077,,,,,,,2021-09-06,1,,,,,メガーインフ,0
592,2120901044841,新規,0,2021-09-06,2021-09-06,株式会社Ｋｍｔ,,株式会社,大阪府,摂津市,学園町１丁目２番２３－４０１号,,27,224,5660033,,,,,,,2021-09-06,1,,,,,ケーエムティー,0
593,2120901044866,新規,0,2021-09-06,2021-09-06,株式会社サンデリア,,株式会社,大阪府,池田市,畑５丁目９番１１－４０３号,,27,204,5630021,,,,,,,2021-09-06,1,,,,,サンデリア,0
595,2120903003812,新規,0,2021-09-06,2021-09-06,合同会社メディカルピーノ,,合同会社,大阪府,高槻市,中川町２番４－３０３号,,27,207,5690066,,,,,,,2021-09-06,1,,,,,メディカルピーノ,0
601,2130001070028,新規,0,2021-09-06,2021-09-06,株式会社シカタ塗装店,,株式会社,京都府,福知山市,厚中町１８番地,,26,201,6200056,,,,,,,2021-09-06,1,,,,,シカタトソウテン,0
602,2130001070044,新規,0,2021-09-06,2021-09-06,株式会社小倉銘木店,,株式会社,京都府,京都市右京区,京北細野町滝ノ向１０番地１,,26,108,6010262,,,,,,,2021-09-06,1,,,,,オグラメイボクテン,0
603,2130001070069,新規,0,2021-09-06,2021-09-06,シンフォニーメディカル株式会社,,株式会社,京都府,京都市左京区,二条通川端東入孫橋町８番地４京都三条紅葉桜ビル,,26,103,6068385,,,,,,,2021-09-06,1,,,,,シンフォニーメディカル,0
606,2130003007457,新規,0,2021-09-06,2021-09-06,ＳＦＣ合同会社,,合同会社,京都府,京都市下京区,中堂寺粟田町９３,,26,106,6008815,,,,,,,2021-09-06,1,,,,,エスエフシー,0
610,2140001122926,新規,0,2021-09-06,2021-09-06,ＺＡＮＡＳＨＯＰ株式会社,,株式会社,兵庫県,三田市,南が丘１丁目１１番９号,,28,219,6691535,,,,,,,2021-09-06,1,,,,,ザナショップ,0
611,2140001122942,新規,0,2021-09-06,2021-09-06,Ｒ．Ｉｎｖｅｓｔｍｅｎｔｓ株式会社,,株式会社,兵庫県,芦屋市,岩園町３８番２５号,,28,206,6590013,,,,,,,2021-09-06,1,,,,,アールインベストメンツ,0
612,2140001122959,新規,0,2021-09-06,2021-09-06,ＹＯＵ株式会社,,株式会社,兵庫県,姫路市,大塩町宮前２８番地,,28,201,6710103,,,,,,,2021-09-06,1,,,,,ユウ,0
615,2140003016713,新規,0,2021-09-06,2021-09-06,合同会社大和体験交流協会,,合同会社,兵庫県,多可郡多可町,八千代区大和１５２０番地１,,28,365,6770132,,,,,,,2021-09-06,1,,,,,ヤマトタイケンコウリュウキョウカイ,0
616,2140003016721,新規,0,2021-09-06,2021-09-06,エカルハ合同会社,,合同会社,兵庫県,神戸市西区,竜が岡２丁目６番地の９,,28,111,6512412,,,,,,,2021-09-06,1,,,,,エカルハ,0
620,2150005009326,新規,0,2021-09-06,2021-09-06,一般社団法人さくら福祉アカデミー,,その他の設立登記法人,奈良県,大和高田市,大字東中８２番地,,29,202,6350066,,,,,,,2021-09-06,1,,,,,サクラフクシアカデミー,0
629,2180001147705,新規,0,2021-09-06,2021-09-06,株式会社インプルーブ・ザ・ワールド,,株式会社,愛知県,名古屋市西区,枇杷島５丁目９番２８号,,23,104,4510053,,,,,,,2021-09-06,1,,,,,インプルーブザワールド,0
630,2180001147721,新規,0,2021-09-06,2021-09-06,株式会社名古屋大橋ボクシングジム,,株式会社,愛知県,名古屋市西区,押切２丁目８番１４号小川ビル２Ｆ,,23,104,4510063,,,,,,,2021-09-06,1,,,,,ナゴヤオオハシボクシングジム,0
631,2180301035329,新規,0,2021-09-06,2021-09-06,株式会社ＩＭＰＥＲＩＯ,,株式会社,愛知県,豊橋市,松葉町１丁目３９番地２階,,23,201,4400897,,,,,,,2021-09-06,1,,,,,インペリオ,0
635,2190001028656,新規,0,2021-09-06,2021-09-06,株式会社清洋ホールディングス,,株式会社,三重県,度会郡南伊勢町,東宮３９３番地,,24,472,5161309,,,,,,,2021-09-06,1,,,,,セイヨウホールディングス,0
636,2190001028664,新規,0,2021-09-06,2021-09-06,株式会社福りんぼう,,株式会社,三重県,員弁郡東員町,大字大木３９５１番地１,,24,324,5110244,,,,,,,2021-09-06,1,,,,,フクリンボウ,0
642,2220001024404,新規,0,2021-09-06,2021-09-06,ＳｕｎＡｃｅ株式会社,,株式会社,石川県,能美市,泉台町中２１８番地,,17,211,9231111,,,,,,,2021-09-06,1,,,,,サンエース,0
643,2220001024412,新規,0,2021-09-06,2021-09-06,株式会社ＨＡＲＡＮ,,株式会社,石川県,金沢市,笠舞２丁目３４番３号,,17,201,9200965,,,,,,,2021-09-06,1,,,,,ハラン,0
650,2240001058549,新規,0,2021-09-06,2021-09-06,株式会社ながれぼし,,株式会社,広島県,東広島市,高屋高美が丘４丁目３２番１６号,,34,212,7392115,,,,,,,2021-09-06,1,,,,,ナガレボシ,0
673,2290001094457,新規,0,2021-09-06,2021-09-06,株式会社ここの里,,株式会社,福岡県,福岡市城南区,別府３丁目２番１３－１００５号,,40,136,8140104,,,,,,,2021-09-06,1,,,,,ココノサト,0
674,2290001094465,新規,0,2021-09-06,2021-09-06,株式会社邦和香,,株式会社,福岡県,福岡市早良区,百道２丁目７－２６－４０２,,40,137,8140006,,,,,,,2021-09-06,1,,,,,ワカオル,0
677,2290003011567,新規,0,2021-09-06,2021-09-06,合同会社サンレンタカー,,合同会社,福岡県,福岡市南区,若久６丁目２６－１９,,40,134,8150042,,,,,,,2021-09-06,1,,,,,サンレンタカー,0
678,2290003011575,新規,0,2021-09-06,2021-09-06,合同会社峰松プランニング,,合同会社,福岡県,福岡市南区,向野２丁目１５番２９号トーカンマンション大橋３０６号,,40,134,8150035,,,,,,,2021-09-06,1,,,,,ミネマツプランニング,0
684,2290005018346,新規,0,2021-09-06,2021-09-06,税理士法人ＮＳパートナーズ,,その他の設立登記法人,福岡県,福岡市南区,野間１丁目２７番１号,,40,134,8150041,,,,,,,2021-09-06,1,,,,,エヌエスパートナーズ,0
689,2300001012615,新規,0,2021-09-06,2021-09-06,株式会社ケイズ,,株式会社,佐賀県,神埼市,神埼町尾崎３３４２番地１,,41,210,8420015,,,,,,,2021-09-06,1,,,,,ケイズ,0
692,2320001018577,新規,0,2021-09-06,2021-09-06,株式会社ＮＥＯＧＩＶＥＲＳ,,株式会社,大分県,別府市,南的ケ浜町５－３１,,44,202,8740929,,,,,,,2021-09-06,1,,,,,ネオギヴァーズ,0
702,2330003009029,新規,0,2021-09-06,2021-09-06,るぱん合同会社,,合同会社,熊本県,球磨郡錦町,大字一武１５４４番地１１,,43,501,8680302,,,,,,,2021-09-06,1,,,,,ルパン,0
705,2340001024086,新規,0,2021-09-06,2021-09-06,株式会社今久保,,株式会社,鹿児島県,薩摩川内市,高城町１７１６番地１,,46,215,8950211,,,,,,,2021-09-06,1,,,,,イマクボ,0
710,2350001017279,新規,0,2021-09-06,2021-09-06,株式会社ＴＲＹ,,株式会社,宮崎県,宮崎市,佐土原町下那珂４５１８番地５２,,45,201,8800212,,,,,,,2021-09-06,1,,,,,トライ,0
717,2380005012471,新規,0,2021-09-06,2021-09-06,司法書士法人城山法務事務所,,その他の設立登記法人,福島県,いわき市,平字二町目２７番地ひかり第二ビル２０３,,07,204,9708026,,,,,,,2021-09-06,1,,,,,シロヤマホウムジムショ,0
720,2390001016582,新規,0,2021-09-06,2021-09-06,ＶＡＬＩＭＯＲ　ＪＡＰＡＮ株式会社,,株式会社,山形県,米沢市,大字下新田２４３４番地の３,,06,202,9920111,,,,,,,2021-09-06,1,,,,,バリモアジャパン,0
722,2390003001863,新規,0,2021-09-06,2021-09-06,合同会社スズキ商店,,合同会社,山形県,山形市,中桜田３丁目３番２号,,06,201,9902422,,,,,,,2021-09-06,1,,,,,スズキショウテン,0
738,2430001084897,新規,0,2021-09-06,2021-09-06,株式会社ＬＩ‐ＳＡ,,株式会社,北海道,札幌市北区,太平五条６丁目４番３３号,,01,102,0028005,,,,,,,2021-09-06,1,,,,,リーサ,0
746,2470001018686,新規,0,2021-09-06,2021-09-06,株式会社ねずカンパニー,,株式会社,香川県,三豊市,高瀬町上高瀬５２３６番地３,,37,208,7670001,,,,,,,2021-09-06,1,,,,,ネズカンパニー,0
747,2470001018694,新規,0,2021-09-06,2021-09-06,株式会社総合設計社,,株式会社,香川県,高松市,上福岡町８９２番地３,,37,201,7600077,,,,,,,2021-09-06,1,,,,,ソウゴウセッケイシャ,0
748,2470003002028,新規,0,2021-09-06,2021-09-06,嘉栄合同会社,,合同会社,香川県,坂出市,林田町３１３３番地１,,37,203,7620012,,,,,,,2021-09-06,1,,,,,カエイ,0
751,2480001011483,新規,0,2021-09-06,2021-09-06,株式会社ＢＩＶＲＥ鴨島,,株式会社,徳島県,板野郡松茂町,笹木野字八北開拓１番地２０１ＢＩＶＲＥＯｆｆｉｃｅ３Ｆ,,36,401,7710219,,,,,,,2021-09-06,1,,,,,ビブレカモジマ,0
758,3010001220840,新規,0,2021-09-06,2021-09-06,株式会社ＡＲＴ,,株式会社,東京都,文京区,本郷１丁目３０番２７－１３１４号,,13,105,1130033,,,,,,,2021-09-06,1,,,,,エーアールティー,0
759,3010001220907,新規,0,2021-09-06,2021-09-06,Ｚエナジー株式会社,,株式会社,東京都,千代田区,大手町２丁目２番１号,,13,101,1000004,,,,,,,2021-09-06,1,,,,,ゼットエナジー,0
760,3010001220915,新規,0,2021-09-06,2021-09-06,トミソウ株式会社,,株式会社,東京都,中央区,月島１丁目１９番９－３０３号,,13,102,1040052,,,,,,,2021-09-06,1,,,,,トミソウ,0
761,3010003035733,新規,0,2021-09-06,2021-09-06,合同会社ｔｈｅ　Ｔｈｉｒｄ　Ｐｌａｃｅ,,合同会社,東京都,中央区,八丁堀３丁目２４－１－１２０７,,13,102,1040032,,,,,,,2021-09-06,1,,,,,ザサードプレイス,0
765,3010101014845,新規,0,2021-09-06,2021-09-06,株式会社東亜コンテンツ,,株式会社,東京都,八王子市,犬目町２７１番地６リバティハウスＢ,,13,201,1930802,,,,,,,2021-09-06,1,,,,,トウアコンテンツ,0
771,3010401162286,新規,0,2021-09-06,2021-09-06,シバルリー株式会社,,株式会社,東京都,港区,高輪３丁目２１－４,,13,103,1080074,,,,,,,2021-09-06,1,,,,,シバルリー,0
772,3010401162484,新規,0,2021-09-06,2021-09-06,和久田株式会社,,株式会社,東京都,港区,赤坂１丁目８番５－８０５号,,13,103,1070052,,,,,,,2021-09-06,1,,,,,ワクタ,0
773,3010401162550,新規,0,2021-09-06,2021-09-06,イノベーションフォース株式会社,,株式会社,東京都,港区,麻布十番１丁目８番１１号,,13,103,1060045,,,,,,,2021-09-06,1,,,,,イノベーションフォース,0
775,3010403026051,新規,0,2021-09-06,2021-09-06,合同会社Ｐ・ＰＣ,,合同会社,東京都,港区,赤坂２丁目１６番６号ＢＩＺＭＡＲＫＳ赤坂,,13,103,1070052,,,,,,,2021-09-06,1,,,,,ピーピーシー,0
782,3010501047783,新規,0,2021-09-06,2021-09-06,遠藤木工株式会社,,株式会社,東京都,台東区,浅草２丁目２９番２１号,,13,106,1110032,,,,,,,2021-09-06,1,,,,,エンドウモッコウ,0
785,3010801032287,新規,0,2021-09-06,2021-09-06,株式会社ＴＳ　Ｅｘｐｒｅｓｓ,,株式会社,東京都,大田区,大森西４丁目１８番１６－２０８号,,13,111,1430015,,,,,,,2021-09-06,1,,,,,ティーエスエクスプレス,0
790,3010901049371,新規,0,2021-09-06,2021-09-06,株式会社ファースト,,株式会社,東京都,世田谷区,中町２丁目６番２２号,,13,112,1580091,,,,,,,2021-09-06,1,,,,,ファースト,0
791,3010901049388,新規,0,2021-09-06,2021-09-06,株式会社ｇｒｏｗ,,株式会社,東京都,世田谷区,桜新町１丁目１７番１４号１Ｆ,,13,112,1540015,,,,,,,2021-09-06,1,,,,,グロウ,0
800,3011001142604,新規,0,2021-09-06,2021-09-06,株式会社ＢＡＳＥ３３,,株式会社,東京都,目黒区,自由が丘２丁目１４－１９－２Ｆルチャリブレ,,13,110,1520035,,,,,,,2021-09-06,1,,,,,ベースサーティースリー,0
802,3011003013274,新規,0,2021-09-06,2021-09-06,ＲｅＢｅａｒ合同会社,,合同会社,東京都,目黒区,原町１丁目２７－２,,13,110,1520011,,,,,,,2021-09-06,1,,,,,リベア,0
803,3011003013299,新規,0,2021-09-06,2021-09-06,ドットシーエンターテイメント合同会社,,合同会社,東京都,渋谷区,広尾３丁目１２－３１－２Ｆ,,13,113,1500012,,,,,,,2021-09-06,1,,,,,ドットシーエンターテイメント,0
806,3011103010980,新規,0,2021-09-06,2021-09-06,合同会社ＭＦＤＬ,,合同会社,東京都,新宿区,中落合１丁目６番２０－３０１号,,13,104,1610032,,,,,,,2021-09-06,1,,,,,エムエフディーエル,0
811,3011201023224,新規,0,2021-09-06,2021-09-06,工新電設株式会社,,株式会社,東京都,中野区,野方２丁目５９番１０号,,13,114,1650027,,,,,,,2021-09-06,1,,,,,コウシンデンセツ,0
814,3011401023651,新規,0,2021-09-06,2021-09-06,株式会社ＭＤＲ,,株式会社,東京都,板橋区,板橋３丁目３１番５号トップ板橋２０１,,13,119,1730004,,,,,,,2021-09-06,1,,,,,エムディーアール,0
817,3011601025373,新規,0,2021-09-06,2021-09-06,株式会社Ｃｕｏｎ,,株式会社,東京都,練馬区,豊玉上２丁目２７番２３号ロイヤルハイツ２Ｆ,,13,120,1760011,,,,,,,2021-09-06,1,,,,,シーユーオーエヌ,0
819,3011701024688,新規,0,2021-09-06,2021-09-06,株式会社カナハト,,株式会社,東京都,江戸川区,南葛西６丁目２０番１４号メゾンオンダ１０１号室,,13,123,1340085,,,,,,,2021-09-06,1,,,,,カナハト,0
821,3011705001691,新規,0,2021-09-06,2021-09-06,医療法人社団ギブネス,,その他の設立登記法人,東京都,江戸川区,東葛西５丁目１番２号第二吉田ビル３階,,13,123,1340084,,,,,,,2021-09-06,1,,,,,ギブネス,0
824,3012401038235,新規,0,2021-09-06,2021-09-06,株式会社ＭｏｔｈｅｒＪＡＰＡＮ,,株式会社,東京都,狛江市,東和泉４丁目３－１５サンエービル１０１号,,13,219,2010014,,,,,,,2021-09-06,1,,,,,マザージャパン,0
827,3012701016650,新規,0,2021-09-06,2021-09-06,株式会社Ｎｅｔｚ,,株式会社,東京都,清瀬市,上清戸１丁目１６番１１号,,13,221,2040013,,,,,,,2021-09-06,1,,,,,ネッツ,0
828,3012703002302,新規,0,2021-09-06,2021-09-06,合同会社ＬＩＢＥＲＴＥＨ,,合同会社,東京都,西東京市,谷戸町３丁目２８番１６－６２３号,,13,229,1880001,,,,,,,2021-09-06,1,,,,,リベルテアッシュ,0
829,3013301047961,新規,0,2021-09-06,2021-09-06,イモーテル株式会社,,株式会社,東京都,豊島区,西池袋３丁目２９番９号,,13,116,1710021,,,,,,,2021-09-06,1,,,,,イモーテル,0
830,3013301047978,新規,0,2021-09-06,2021-09-06,株式会社リモーラ・ミュージック,,株式会社,東京都,豊島区,池袋本町２丁目３３番１４号,,13,116,1700011,,,,,,,2021-09-06,1,,,,,リモーラミュージック,0
842,3020001142869,新規,0,2021-09-06,2021-09-06,株式会社源豊珩,00124132,株式会社,神奈川県,横浜市中区,千代崎町１丁目２５番地４６,,14,104,2310864,,,,,,,2021-09-06,1,,,,,ゲンホウコウ,0
843,3020001142910,新規,0,2021-09-06,2021-09-06,株式会社ＹＯＫＯＨＡＭＡクリエイト,,株式会社,神奈川県,横浜市港北区,大倉山３丁目２番３４号,,14,109,2220037,,,,,,,2021-09-06,1,,,,,ヨコハマクリエイト,0
847,3020003020437,新規,0,2021-09-06,2021-09-06,ＲＭｎｅｔ合同会社,,合同会社,神奈川県,横浜市西区,４－４－２横浜ブルーアベニュー１２Ｆ,,14,103,2200000,,,,,,,2021-09-06,1,,,,,アールエムネット,0
850,3021001073807,新規,0,2021-09-06,2021-09-06,株式会社クライムドア,,株式会社,神奈川県,伊勢原市,東大竹６２８番地の１４,,14,214,2591133,,,,,,,2021-09-06,1,,,,,クライムドア,0
851,3021001073856,新規,0,2021-09-06,2021-09-06,株式会社ディオデルマーレ,,株式会社,神奈川県,足柄上郡中井町,北田３６１番地,,14,361,2590143,,,,,,,2021-09-06,1,,,,,ディオデルマーレ,0
854,3021003010857,新規,0,2021-09-06,2021-09-06,合同会社せいらん住宅メンテナンス,,合同会社,神奈川県,茅ヶ崎市,松が丘１丁目１番８８号,,14,207,2530025,,,,,,,2021-09-06,1,,,,,セイランジュウタクメンテナンス,0
862,3030001144138,新規,0,2021-09-06,2021-09-06,株式会社バンビー,,株式会社,埼玉県,草加市,氷川町２１０２番地７コリンズ上岡ビル４Ｆ,,11,221,3400034,,,,,,,2021-09-06,1,,,,,バンビー,0
863,3030001144154,新規,0,2021-09-06,2021-09-06,サンクレスト株式会社,,株式会社,埼玉県,上尾市,大字瓦葺２０１８番地１,,11,219,3620022,,,,,,,2021-09-06,1,,,,,サンクレスト,0
864,3030001144162,新規,0,2021-09-06,2021-09-06,株式会社不動工業,,株式会社,埼玉県,さいたま市見沼区,大字東門前４５０番地３,,11,104,3370016,,,,,,,2021-09-06,1,,,,,フドウコウギョウ,0
865,3030001144170,新規,0,2021-09-06,2021-09-06,株式会社ピース,,株式会社,埼玉県,川口市,芝塚原１丁目７番３３号,,11,203,3330856,,,,,,,2021-09-06,1,,,,,ピース,0
866,3030001144179,新規,0,2021-09-06,2021-09-06,シーオ－ビー株式会社,,株式会社,埼玉県,川越市,脇田新町１７番地２４,,11,201,3501121,,,,,,,2021-09-06,1,,,,,シーオービー,0
867,3030001144187,新規,0,2021-09-06,2021-09-06,株式会社Ｄ－ｐｉａ,,株式会社,埼玉県,川越市,中原町１丁目１４番地１（ファミーユＡ棟１０１号室）,,11,201,3500042,,,,,,,2021-09-06,1,,,,,ディーピア,0
868,3030001144195,新規,0,2021-09-06,2021-09-06,ｓｏｌｓｓ株式会社,,株式会社,埼玉県,富士見市,東みずほ台３丁目１４番地５スクエアガーデン３０３,,11,235,3540015,,,,,,,2021-09-06,1,,,,,ソルズ,0
869,3030001144229,新規,0,2021-09-06,2021-09-06,ＬＩＮ‐ＮＡＨ株式会社,,株式会社,埼玉県,志木市,幸町４丁目１０－７１,,11,228,3530005,,,,,,,2021-09-06,1,,,,,リンナ,0
870,3030001144237,新規,0,2021-09-06,2021-09-06,株式会社エーケーアール,,株式会社,埼玉県,さいたま市緑区,美園５丁目１３番地５,,11,109,3360967,,,,,,,2021-09-06,1,,,,,エーケーアール,0
874,3030003017853,新規,0,2021-09-06,2021-09-06,ＦＵＦＵＲＡＲＡ　ＪＡＰＡＮ合同会社,,合同会社,埼玉県,さいたま市北区,土呂町１丁目３０－２プレシス大宮土呂３０６号,,11,102,3310804,,,,,,,2021-09-06,1,,,,,フフララジャパン,0
875,3030003017894,新規,0,2021-09-06,2021-09-06,合同会社ギヤテクニカ,,合同会社,埼玉県,所沢市,大字山口５２１６番地の２，１０５－１－４０８,,11,208,3591145,,,,,,,2021-09-06,1,,,,,ギヤテクニカ,0
876,3030003017903,新規,0,2021-09-06,2021-09-06,合同会社アイクリエイション,,合同会社,埼玉県,さいたま市中央区,大戸３丁目４番７号,,11,105,3380012,,,,,,,2021-09-06,1,,,,,アイクリエイション,0
877,3030003017911,新規,0,2021-09-06,2021-09-06,ＲＹ資産運用管理合同会社,,合同会社,埼玉県,ふじみ野市,新駒林１丁目５番２１号,,11,245,3560030,,,,,,,2021-09-06,1,,,,,アールワイシサンウンヨウカンリ,0
882,3040001119997,新規,0,2021-09-06,2021-09-06,ペナシュール房総株式会社,,株式会社,千葉県,南房総市,千倉町南朝夷１０１９番地,,12,234,2950012,,,,,,,2021-09-06,1,,,,,ペナシュールボウソウ,0
883,3040001120014,新規,0,2021-09-06,2021-09-06,ＭＳＣ株式会社,,株式会社,千葉県,市原市,五井西２丁目１６番地１７,,12,219,2900038,,,,,,,2021-09-06,1,,,,,エムエスシー,0
884,3040001120022,新規,0,2021-09-06,2021-09-06,株式会社渡広,,株式会社,千葉県,船橋市,松が丘５丁目２６番２号,,12,204,2740064,,,,,,,2021-09-06,1,,,,,ワタヒロ,0
885,3040001120063,新規,0,2021-09-06,2021-09-06,株式会社なのは,,株式会社,千葉県,いすみ市,大原９１４５番地,,12,238,2980004,,,,,,,2021-09-06,1,,,,,ナノハ,0
886,3040001120071,新規,0,2021-09-06,2021-09-06,株式会社アカラライフ,,株式会社,千葉県,千葉市中央区,生実町１６０１番地４,,12,101,2600813,,,,,,,2021-09-06,1,,,,,アカラライフ,0
887,3040001120096,新規,0,2021-09-06,2021-09-06,株式会社ポノコーポレーション,,株式会社,千葉県,船橋市,坪井町７６３番地２８,,12,204,2740062,,,,,,,2021-09-06,1,,,,,ポノコーポレーション,0
890,3040003018438,新規,0,2021-09-06,2021-09-06,マキソリュー合同会社,,合同会社,千葉県,白井市,笹塚２丁目５－２－８０６,,12,232,2701426,,,,,,,2021-09-06,1,,,,,マキソリュー,0
891,3040003018446,新規,0,2021-09-06,2021-09-06,合同会社Ａｎ,,合同会社,千葉県,市川市,大和田１丁目１－１イオンタウン市川大和田２Ｆ２０１,,12,203,2720025,,,,,,,2021-09-06,1,,,,,アン,0
893,3050001049780,新規,0,2021-09-06,2021-09-06,株式会社ＯＷＭ,,株式会社,茨城県,守谷市,御所ケ丘２丁目１３番地６ＳＣＵＢＥ２０３,,08,224,3020119,,,,,,,2021-09-06,1,,,,,オーダブリューエム,0
894,3050001049806,新規,0,2021-09-06,2021-09-06,株式会社ＷＯＲＭＡｉＤ,,株式会社,茨城県,土浦市,右籾１９９４番地２０,,08,203,3000837,,,,,,,2021-09-06,1,,,,,ワームエイド,0
895,3050001049814,新規,0,2021-09-06,2021-09-06,株式会社Ｍ．ＡＬＩ　ＴＲＡＤＩＮＧ　ＣＯ．,,株式会社,茨城県,筑西市,下野殿７３８番地メゾンルーチェⅢＢ棟１０２号室,00124150,08,227,3080844,,,,,,,2021-09-06,1,,,,,,0
900,3070001038402,新規,0,2021-09-06,2021-09-06,株式会社新群馬サービス,,株式会社,群馬県,高崎市,筑縄町１５番地６,,10,202,3700075,,,,,,,2021-09-06,1,,,,,シングンマサービス,0
902,3070003004212,新規,0,2021-09-06,2021-09-06,からっ風合同会社,,合同会社,群馬県,高崎市,足門町１７９－１,,10,202,3703531,,,,,,,2021-09-06,1,,,,,カラッカゼ,0
903,3070003004220,新規,0,2021-09-06,2021-09-06,合同会社未来村,,合同会社,群馬県,前橋市,富士見町時沢１５８８番地３,,10,201,3710104,,,,,,,2021-09-06,1,,,,,ミライムラ,0
906,3080005007393,新規,0,2021-09-06,2021-09-06,らいちょう税理士法人,,その他の設立登記法人,静岡県,静岡市葵区,山崎２丁目３５番地の３３,,22,101,4211213,,,,,,,2021-09-06,1,,,,,ライチョウ,0
907,3080101022750,新規,0,2021-09-06,2021-09-06,株式会社ヨシテツホールディングス,,株式会社,静岡県,富士市,依田橋２３２番地の３,,22,210,4170002,,,,,,,2021-09-06,1,,,,,ヨシテツホールディングス,0
909,3080401025305,新規,0,2021-09-06,2021-09-06,株式会社ＲＥＦ,,株式会社,静岡県,掛川市,大坂２９３７番地の１,,22,213,4371421,,,,,,,2021-09-06,1,,,,,アールイーエフ,0
918,3100001034587,新規,0,2021-09-06,2021-09-06,株式会社ハンプ,,株式会社,長野県,上伊那郡飯島町,田切１１２番地６３２,,20,384,3993701,,,,,,,2021-09-06,1,,,,,ハンプ,0
929,3120001240134,新規,0,2021-09-06,2021-09-06,株式会社Ｓ．Ｃ．Ｓ,,株式会社,大阪府,大阪市中央区,安土町２丁目５番５号本町明大ビル３０３,,27,128,5410052,,,,,,,2021-09-06,1,,,,,エスシーエス,0
930,3120001240159,新規,0,2021-09-06,2021-09-06,株式会社白庵,,株式会社,大阪府,大阪市淀川区,新高６丁目１２－７三和マンション１Ｆ,,27,123,5320033,,,,,,,2021-09-06,1,,,,,ビャクアン,0
932,3120003020154,新規,0,2021-09-06,2021-09-06,合同会社ＥＭＡＬＩＣＡ,,合同会社,大阪府,大阪市城東区,野江１丁目１２番１２－７０５号,,27,118,5360006,,,,,,,2021-09-06,1,,,,,エマリカ,0
933,3120003020162,新規,0,2021-09-06,2021-09-06,合同会社山鴻商会,,合同会社,大阪府,大阪市天王寺区,大道２丁目４番８号,,27,109,5430052,,,,,,,2021-09-06,1,,,,,ヤマコウショウカイ,0
935,3120101064227,新規,0,2021-09-06,2021-09-06,株式会社兵頭建鉄,,株式会社,大阪府,南河内郡河南町,大字加納５０３,,27,382,5850012,,,,,,,2021-09-06,1,,,,,ヒョウドウケンテツ,0
937,3120901044840,新規,0,2021-09-06,2021-09-06,ｂｏｔａｎｉｃａｌ　ｗｏｒｋｓ株式会社,,株式会社,大阪府,高槻市,神内２丁目２８－７藤田ビル２階,,27,207,5690007,,,,,,,2021-09-06,1,,,,,ボタニカルワークス,0
938,3120901044849,新規,0,2021-09-06,2021-09-06,株式会社リバイテル,,株式会社,大阪府,箕面市,新稲５丁目２番３号,,27,220,5620005,,,,,,,2021-09-06,1,,,,,リバイテル,0
939,3120901044865,新規,0,2021-09-06,2021-09-06,株式会社Ｓｎｕｇｇｌｅ,,株式会社,大阪府,茨木市,島２丁目１１番２５号,,27,211,5670854,,,,,,,2021-09-06,1,,,,,スナグル,0
941,3120903003811,新規,0,2021-09-06,2021-09-06,合同会社よあけパートナーズ,,合同会社,大阪府,茨木市,見付山１丁目８番１８号,,27,211,5670035,,,,,,,2021-09-06,1,,,,,ヨアケパートナーズ,0
943,3122001035134,新規,0,2021-09-06,2021-09-06,株式会社ＩＭＰＲＩＭＥ,,株式会社,大阪府,東大阪市,中新開２丁目６番１５号,,27,227,5780911,,,,,,,2021-09-06,1,,,,,インプライム,0
944,3122001035142,新規,0,2021-09-06,2021-09-06,ＩＮＳＰＩＲＥ株式会社,,株式会社,大阪府,東大阪市,長瀬町３丁目８番８号,,27,227,5770832,,,,,,,2021-09-06,1,,,,,インスパイア,0
945,3130001070027,新規,0,2021-09-06,2021-09-06,株式会社マシモ,,株式会社,京都府,福知山市,大江町在田１番地,,26,201,6200354,,,,,,,2021-09-06,1,,,,,マシモ,0
946,3130001070035,新規,0,2021-09-06,2021-09-06,株式会社カーライフ久美浜,,株式会社,京都府,京丹後市,久美浜町鹿野１２４４番地,,26,212,6293431,,,,,,,2021-09-06,1,,,,,カーライフクミハマ,0
947,3130001070068,新規,0,2021-09-06,2021-09-06,株式会社ＳＥＰ,,株式会社,京都府,京都市下京区,白楽天町５０９・４Ｆ,,26,106,6008422,,,,,,,2021-09-06,1,,,,,エスイーピー,0
949,3130003007464,新規,0,2021-09-06,2021-09-06,合同会社ＩＴＥＱＸ,,合同会社,京都府,京都市南区,吉祥院石原長田町１－１桂川ハイツ３－７０３,,26,107,6018383,,,,,,,2021-09-06,1,,,,,アイテクス,0
955,3140001122883,新規,0,2021-09-06,2021-09-06,株式会社吉田水道,00124134,株式会社,兵庫県,姫路市,白浜町甲７４５－２,,28,201,6728023,,,,,,,2021-09-06,1,,,,,ヨシダスイドウ,0
956,3140001122909,新規,0,2021-09-06,2021-09-06,株式会社ゴールドウェル,,株式会社,兵庫県,三木市,志染町高男寺３５７番地,,28,215,6730504,,,,,,,2021-09-06,1,,,,,ゴールドウェル,0
957,3140001122917,新規,0,2021-09-06,2021-09-06,株式会社秀栄基礎,,株式会社,兵庫県,姫路市,岡田３５０番地１ジヴェルニー岡田９０３号,,28,201,6700982,,,,,,,2021-09-06,1,,,,,シュウエイキソ,0
958,3140001122925,新規,0,2021-09-06,2021-09-06,株式会社宝住工務店,,株式会社,兵庫県,三木市,志染町西自由が丘２丁目２７番地ピアン自由ケ丘２号棟２０１号,,28,215,6730551,,,,,,,2021-09-06,1,,,,,ホウズミコウムテン,0
959,3140001122933,新規,0,2021-09-06,2021-09-06,株式会社ＡＦＴＳＲ,,株式会社,兵庫県,姫路市,増位新町２丁目１９番地野里駅前ビル３０５,,28,201,6700806,,,,,,,2021-09-06,1,,,,,エーエフティエスアール,0
962,3140003016704,新規,0,2021-09-06,2021-09-06,合同会社シルエット,,合同会社,兵庫県,宝塚市,安倉南４丁目４０番２２号,,28,214,6650823,,,,,,,2021-09-06,1,,,,,シルエット,0
963,3140003016712,新規,0,2021-09-06,2021-09-06,ライフカンパニー合同会社,,合同会社,兵庫県,姫路市,飾磨区阿成１３番地６９,,28,201,6728037,,,,,,,2021-09-06,1,,,,,ライフカンパニー,0
964,3140003016720,新規,0,2021-09-06,2021-09-06,合同会社ケイリー,,合同会社,兵庫県,伊丹市,鴻池４丁目１１番３－２０１号,,28,207,6640006,,,,,,,2021-09-06,1,,,,,ケイリー,0
968,3140005025802,新規,0,2021-09-06,2021-09-06,特定非営利活動法人ソイル,,その他の設立登記法人,兵庫県,多可郡多可町,加美区多田１２９番地の１,,28,365,6791203,,,,,,,2021-09-06,1,,,,,ソイル,0
983,3180001147621,新規,0,2021-09-06,2021-09-06,株式会社Ｊｏｙ　Ｌｅａｄ,,株式会社,愛知県,名古屋市中区,丸の内２丁目１７－１３ＮＫ丸の内ビル２Ｆ,,23,106,4600002,,,,,,,2021-09-06,1,,,,,ジョイリード,0
984,3180001147638,新規,0,2021-09-06,2021-09-06,さんだんコンサルティング株式会社,,株式会社,愛知県,日進市,赤池１丁目３００１番地,,23,230,4700125,,,,,,,2021-09-06,1,,,,,サンダンコンサルティング,0
985,3180001147679,新規,0,2021-09-06,2021-09-06,株式会社ワイドワン,,株式会社,愛知県,春日井市,熊野町１５４３番地５,,23,206,4860822,,,,,,,2021-09-06,1,,,,,ワイドワン,0
986,3180001147737,新規,0,2021-09-06,2021-09-06,株式会社コネクト,,株式会社,愛知県,名古屋市守山区,新守山３３１９番地,,23,113,4630070,,,,,,,2021-09-06,1,,,,,コネクト,0
988,3180301035328,新規,0,2021-09-06,2021-09-06,株式会社プレシャス,,株式会社,愛知県,豊橋市,松葉町１丁目１０２ｂａ；ｔビル２Ｆ－Ａ,,23,201,4400897,,,,,,,2021-09-06,1,,,,,プレシャス,0
989,3180303005089,新規,0,2021-09-06,2021-09-06,Ａｎｃｈｕｒｅｅ合同会社,,合同会社,愛知県,岡崎市,上地５丁目８番地１１,,23,202,4440823,,,,,,,2021-09-06,1,,,,,アンチュリー,0
994,3210001018595,新規,0,2021-09-06,2021-09-06,株式会社ミエダ仮設,,株式会社,福井県,鯖江市,冬島町第１７号１番地１３,,18,207,9160072,,,,,,,2021-09-06,1,,,,,ミエダカセツ,0
998,3220001024411,新規,0,2021-09-06,2021-09-06,株式会社ＫＩＹホールディング,,株式会社,石川県,金沢市,増泉２丁目２０番２１号,,17,201,9218025,,,,,,,2021-09-06,1,,,,,ケイアイワイホールディング,0
1002,3240001058556,新規,0,2021-09-06,2021-09-06,株式会社Ａｓｔｅｒコーポレーション,,株式会社,広島県,福山市,山手町６丁目３番３号,,34,207,7200092,,,,,,,2021-09-06,1,,,,,アステルコーポレーション,0
1007,3240005015264,新規,0,2021-09-06,2021-09-06,ノーブル司法書士法人,,その他の設立登記法人,広島県,広島市中区,銀山町２番４号,,34,101,7300022,,,,,,,2021-09-06,1,,,,,ノーブル,0
1015,3270001008351,新規,0,2021-09-06,2021-09-06,株式会社ＥＸＵＳ,,株式会社,鳥取県,鳥取市,寿町７５４番地,,31,201,6800813,,,,,,,2021-09-06,1,,,,,エグザス,0
1016,3270003001346,新規,0,2021-09-06,2021-09-06,Ｍｏｒｉｍｏｔｏ合同会社,,合同会社,鳥取県,米子市,旗ヶ崎７丁目１７番８号,,31,202,6830845,,,,,,,2021-09-06,1,,,,,モリモト,0
1028,3290001094407,新規,0,2021-09-06,2021-09-06,やまと機器株式会社,,株式会社,福岡県,久留米市,東合川７丁目４番地９,,40,203,8390809,,,,,,,2021-09-06,1,,,,,ヤマトキキ,0
1029,3290001094448,新規,0,2021-09-06,2021-09-06,株式会社ＢＲＯＷＮ　ＬＡＢＥＬ　ＪＡＰＡＮ,,株式会社,福岡県,福岡市中央区,大手門３丁目７－９,,40,133,8100074,,,,,,,2021-09-06,1,,,,,ブラウンレーベルジャパン,0
1030,3290001094456,新規,0,2021-09-06,2021-09-06,株式会社パキラディー,,株式会社,福岡県,福岡市博多区,豊１丁目９番３４号クレストファインビュー７０２号室,,40,132,8120042,,,,,,,2021-09-06,1,,,,,パキラディー,0
1031,3290001094472,新規,0,2021-09-06,2021-09-06,株式会社てんきゅう,,株式会社,福岡県,福岡市西区,愛宕３丁目１４番１１号,,40,135,8190015,,,,,,,2021-09-06,1,,,,,テンキュウ,0
1032,3290001094480,新規,0,2021-09-06,2021-09-06,株式会社つかさ,,株式会社,福岡県,福岡市中央区,平和３丁目２０番２０－３０２号,,40,133,8100016,,,,,,,2021-09-06,1,,,,,ツカサ,0
1039,3300001012614,新規,0,2021-09-06,2021-09-06,株式会社ＳＩＧＮＰＯＳＴ,,株式会社,佐賀県,佐賀市,呉服元町１番７号,,41,201,8400824,,,,,,,2021-09-06,1,,,,,サインポスト,0
1042,3310001017455,新規,0,2021-09-06,2021-09-06,株式会社ＳＵＭＩＫＡ,,株式会社,長崎県,佐世保市,日宇町２９１０番地,,42,202,8571151,,,,,,,2021-09-06,1,,,,,スミカ,0
1051,3330001028970,新規,0,2021-09-06,2021-09-06,豊岡土木株式会社,,株式会社,熊本県,八代市,豊原下町３３７７番地,,43,202,8660065,,,,,,,2021-09-06,1,,,,,トヨオカドボク,0
1052,3330001028979,新規,0,2021-09-06,2021-09-06,株式会社内村設備工業,,株式会社,熊本県,上益城郡益城町,大字木山３８１番地１４,,43,443,8612242,,,,,,,2021-09-06,1,,,,,ウチムラセツビコウギョウ,0
1063,3360001029339,新規,0,2021-09-06,2021-09-06,株式会社ＫＲＵＳＴＥＡＺ,,株式会社,沖縄県,中頭郡北谷町,北谷１丁目１２番地１１,,47,326,9040116,,,,,,,2021-09-06,1,,,,,クラステーズ,0
1066,3370001047546,新規,0,2021-09-06,2021-09-06,株式会社スカイアドバンス,,株式会社,宮城県,仙台市宮城野区,中野１丁目２番２５号,,04,102,9830013,,,,,,,2021-09-06,1,,,,,スカイアドバンス,0
1068,3390001016581,新規,0,2021-09-06,2021-09-06,株式会社ｓｔｕｄｉｏ　ＦＬＡＳＨＹ,,株式会社,山形県,山形市,千歳２丁目７番２４号,,06,201,9900812,,,,,,,2021-09-06,1,,,,,スタジオフラッシー,0
1078,3430003013119,新規,0,2021-09-06,2021-09-06,合同会社ＣｔｏＴＳ,,合同会社,北海道,札幌市中央区,南五条東３丁目７番１号ルピナス６０５号室,,01,101,0600055,,,,,,,2021-09-06,1,,,,,シートゥーティーエス,0
1086,3480001011482,新規,0,2021-09-06,2021-09-06,株式会社ＢＩＶＲＥ松茂,,株式会社,徳島県,板野郡松茂町,笹木野字八北開拓１番地２０１ＢＩＶＲＥＯｆｆｉｃｅ３Ｆ,,36,401,7710219,,,,,,,2021-09-06,1,,,,,ビブレマツシゲ,0
1091,3500005008415,新規,0,2021-09-06,2021-09-06,税理士法人篠原会計,,その他の設立登記法人,愛媛県,今治市,末広町３丁目３番地の１８,,38,202,7940038,,,,,,,2021-09-06,1,,,,,シノハラカイケイ,0
1105,4010001220880,新規,0,2021-09-06,2021-09-06,株式会社ＴＡＫＵＭＩ　ＳＴＹＬＥ,,株式会社,東京都,千代田区,飯田橋３丁目２番１０号２階,,13,101,1020072,,,,,,,2021-09-06,1,,,,,タクミスタイル,0
1106,4010001220930,新規,0,2021-09-06,2021-09-06,ＨＲｔｅｐ株式会社,,株式会社,東京都,中央区,京橋３丁目１２番１号,,13,102,1040031,,,,,,,2021-09-06,1,,,,,エイチアールテップ,0
1107,4010001220939,新規,0,2021-09-06,2021-09-06,イージーテック株式会社,,株式会社,東京都,中央区,銀座１丁目２２番１１号銀座大竹ビジデンス２階,,13,102,1040061,,,,,,,2021-09-06,1,,,,,イージーテック,0
1110,4010003035740,新規,0,2021-09-06,2021-09-06,合同会社プレゼンワークス,,合同会社,東京都,千代田区,神田和泉町一丁目８番８号太田商販ビル,,13,101,1010024,,,,,,,2021-09-06,1,,,,,プレゼンワークス,0
1113,4010103001766,新規,0,2021-09-06,2021-09-06,八琉合同会社,,合同会社,東京都,八王子市,東町１番１０－８０２号,,13,201,1920082,,,,,,,2021-09-06,1,,,,,ハル,0
1117,4010401162500,新規,0,2021-09-06,2021-09-06,株式会社Ａｓｔｅｒ,,株式会社,東京都,港区,赤坂１丁目１４番５号,,13,103,1070052,,,,,,,2021-09-06,1,,,,,アスター,0
1118,4010401162509,新規,0,2021-09-06,2021-09-06,株式会社アングラー,,株式会社,東京都,港区,西麻布１丁目８番５号Ｂ１,,13,103,1060031,,,,,,,2021-09-06,1,,,,,アングラー,0
1122,4010403026050,新規,0,2021-09-06,2021-09-06,合同会社ＦＡＩＴＨ　ＡＲＫ,,合同会社,東京都,港区,浜松町２丁目２番１５号浜松町ダイヤビル２Ｆ,,13,103,1050013,,,,,,,2021-09-06,1,,,,,フェイスアーク,0
1125,4010501047782,新規,0,2021-09-06,2021-09-06,株式会社ラボ・キゴシ,,株式会社,東京都,台東区,今戸２丁目９番６号,,13,106,1110024,,,,,,,2021-09-06,1,,,,,ラボキゴシ,0
1126,4010501047790,新規,0,2021-09-06,2021-09-06,株式会社翔大,,株式会社,東京都,台東区,台東３丁目２９番１０号長谷川ビルＭ２Ｆ,,13,106,1100016,,,,,,,2021-09-06,1,,,,,ショウダイ,0
1134,4010801032278,新規,0,2021-09-06,2021-09-06,株式会社Ｆ．Ａ．Ｂ．Ｓ．,,株式会社,東京都,大田区,田園調布１丁目５２番１３号,,13,111,1450071,,,,,,,2021-09-06,1,,,,,ファブス,0
1135,4010805002871,新規,0,2021-09-06,2021-09-06,医療法人社団華楽会,,その他の設立登記法人,東京都,大田区,蒲田本町２丁目４番２号アクシード蒲田本町２階,,13,111,1440053,,,,,,,2021-09-06,1,,,,,カグラカイ,0
1139,4010901049387,新規,0,2021-09-06,2021-09-06,株式会社グレープリーガル,,株式会社,東京都,世田谷区,奥沢５丁目２６番４号ダイヤハイツ自由が丘,,13,112,1580083,,,,,,,2021-09-06,1,,,,,グレープリーガル,0
1140,4010901049395,新規,0,2021-09-06,2021-09-06,株式会社アイズ,,株式会社,東京都,世田谷区,等々力３丁目２３番２０号,,13,112,1580082,,,,,,,2021-09-06,1,,,,,アイズ,0
1141,4010901049404,新規,0,2021-09-06,2021-09-06,株式会社Ｙａｍａｓｈｉｒｏ,,株式会社,東京都,世田谷区,中町４丁目３番２号,,13,112,1580091,,,,,,,2021-09-06,1,,,,,ヤマシロ,0
1143,4010903006774,新規,0,2021-09-06,2021-09-06,合同会社キュムロワークス,,合同会社,東京都,世田谷区,太子堂４丁目２０番２－３０３号,,13,112,1540004,,,,,,,2021-09-06,1,,,,,キュムロワークス,0
1146,4011001142545,新規,0,2021-09-06,2021-09-06,株式会社Ｉｎｎｅｒ　Ｓｕｓｔａｉｎａｂｉｌｉｔｙ,,株式会社,東京都,渋谷区,神宮前６丁目２３－４桑野ビル２Ｆ,,13,113,1500001,,,,,,,2021-09-06,1,,,,,インナーサステイナビリティ,0
1147,4011001142702,新規,0,2021-09-06,2021-09-06,エクレア株式会社,,株式会社,東京都,渋谷区,渋谷３丁目６番２号エクラート渋谷５Ｆ,,13,113,1500002,,,,,,,2021-09-06,1,,,,,エクレア,0
1148,4011001142727,新規,0,2021-09-06,2021-09-06,株式会社Ｈ＆Ｒ,,株式会社,東京都,目黒区,碑文谷２丁目９番１５－１１１号,,13,110,1520003,,,,,,,2021-09-06,1,,,,,エイチアンドアール,0
1156,4011101096179,新規,0,2021-09-06,2021-09-06,株式会社Ｖ１,,株式会社,東京都,新宿区,西新宿１丁目５番１２号,,13,104,1600023,,,,,,,2021-09-06,1,,,,,ブイワン,0
1157,4011201023223,新規,0,2021-09-06,2021-09-06,株式会社ＴＨＥ　Ｃｈｅｍｉｃａｌ,,株式会社,東京都,中野区,野方１丁目４８番５－２０４号,,13,114,1650027,,,,,,,2021-09-06,1,,,,,ザケミカル,0
1159,4011301027157,新規,0,2021-09-06,2021-09-06,株式会社ＩｎＫ,,株式会社,東京都,杉並区,高円寺南２丁目２５番１３－３０３号,,13,115,1660003,,,,,,,2021-09-06,1,,,,,アイエヌケー,0
1161,4011401023650,新規,0,2021-09-06,2021-09-06,株式会社ｒｅａｐｐｌｙ,,株式会社,東京都,板橋区,四葉２丁目２８番１５号,,13,119,1750084,,,,,,,2021-09-06,1,,,,,リアプライ,0
1163,4011501027279,新規,0,2021-09-06,2021-09-06,株式会社桜オーシャン,,株式会社,東京都,北区,滝野川２丁目１９番８－２０１号,,13,117,1140023,,,,,,,2021-09-06,1,,,,,サクラオーシャン,0
1173,4012401038267,新規,0,2021-09-06,2021-09-06,株式会社メディクリーン,,株式会社,東京都,調布市,下石原３丁目４０番地８,,13,208,1820034,,,,,,,2021-09-06,1,,,,,メディクリーン,0
1175,4012703002301,新規,0,2021-09-06,2021-09-06,アットナッジ合同会社,,合同会社,東京都,東村山市,恩多町４丁目１０番地８,,13,213,1890011,,,,,,,2021-09-06,1,,,,,アットナッジ,0
1177,4013301047969,新規,0,2021-09-06,2021-09-06,株式会社プレイシンク,,株式会社,東京都,豊島区,東池袋３丁目１番１号,,13,116,1700013,,,,,,,2021-09-06,1,,,,,プレイシンク,0
1178,4013301047977,新規,0,2021-09-06,2021-09-06,ＮｅｗＲファイナンシャルアドバイザリー株式会社,,株式会社,東京都,豊島区,南池袋３丁目８番３－８０１Ａ号,,13,116,1710022,,,,,,,2021-09-06,1,,,,,ニューアールファイナンシャルアドバイザリー,0
1183,4020001142868,新規,0,2021-09-06,2021-09-06,株式会社シゴトにｋｏｉｓｕｒｕ,,株式会社,神奈川県,横浜市中区,石川町１丁目１３番２号,,14,104,2310868,,,,,,,2021-09-06,1,,,,,シゴトニコイスル,0
1184,4020001142884,新規,0,2021-09-06,2021-09-06,株式会社山田ＦＰ翻訳事務所,,株式会社,神奈川県,横浜市港北区,箕輪町２丁目７番４０－１２１３号,,14,109,2230051,,,,,,,2021-09-06,1,,,,,ヤマダエフピーホンヤクジムショ,0
1185,4020001142892,新規,0,2021-09-06,2021-09-06,長谷Ｒｉｖｅｒ株式会社,,株式会社,神奈川県,川崎市川崎区,砂子２丁目８番地５仲見世共同ビル,,14,131,2100006,,,,,,,2021-09-06,1,,,,,ハセリバー,0
1188,4020005015194,新規,0,2021-09-06,2021-09-06,特許業務法人ｉ．ＰＡＲＴＮＥＲＳ特許事務所,,その他の設立登記法人,神奈川県,横浜市港北区,鳥山町５５５番地,,14,109,2220035,,,,,,,2021-09-06,1,,,,,アイドットパートナーズトッキョジムショ,0
1190,4021001073855,新規,0,2021-09-06,2021-09-06,株式会社未来,,株式会社,神奈川県,藤沢市,高倉２２３７番地の１６,,14,205,2520802,,,,,,,2021-09-06,1,,,,,ミライ,0
1201,4030001144112,新規,0,2021-09-06,2021-09-06,八潮エンジニアリングサービス株式会社,,株式会社,埼玉県,八潮市,大字西袋１４７０番地６,,11,234,3400833,,,,,,,2021-09-06,1,,,,,ヤシオエンジニアリングサービス,0
1202,4030001144129,新規,0,2021-09-06,2021-09-06,株式会社ＨＲオートトレーディング,,株式会社,埼玉県,久喜市,小右衛門５２８番地,,11,232,3491105,,,,,,,2021-09-06,1,,,,,エイチアールオートトレーディング,0
1203,4030001144137,新規,0,2021-09-06,2021-09-06,株式会社オリジネイト,,株式会社,埼玉県,越谷市,宮本町３丁目６９番地１０,,11,222,3430806,,,,,,,2021-09-06,1,,,,,オリジネイト,0
1204,4030001144145,新規,0,2021-09-06,2021-09-06,株式会社Ｆｉｅｌｄ　Ｌｉｆｅ,,株式会社,埼玉県,さいたま市中央区,大字下落合１７１２番地,,11,105,3380002,,,,,,,2021-09-06,1,,,,,フィールドライフ,0
1205,4030001144153,新規,0,2021-09-06,2021-09-06,株式会社健晴メディカル,,株式会社,埼玉県,熊谷市,万吉２５０２番地８７,,11,202,3600161,,,,,,,2021-09-06,1,,,,,タケハルメディカル,0
1206,4030001144161,新規,0,2021-09-06,2021-09-06,株式会社ナシオン,,株式会社,埼玉県,北葛飾郡杉戸町,内田２丁目８番１６号,,11,464,3450035,,,,,,,2021-09-06,1,,,,,ナシオン,0
1207,4030001144194,新規,0,2021-09-06,2021-09-06,株式会社Ｂ＆Ｓエステート,,株式会社,埼玉県,鴻巣市,松原３丁目１５番１０号,,11,217,3650042,,,,,,,2021-09-06,1,,,,,ビーアンドエスエステート,0
1208,4030001144203,新規,0,2021-09-06,2021-09-06,エスダブルティー株式会社,,株式会社,埼玉県,ふじみ野市,築地２丁目３番地２５、Ａ２０２,,11,245,3560026,,,,,,,2021-09-06,1,,,,,エスダブルティー,0
1209,4030001144236,新規,0,2021-09-06,2021-09-06,マニュファクトシステムズ株式会社,,株式会社,埼玉県,川越市,大字古谷上３８７４番地３,,11,201,3500001,,,,,,,2021-09-06,1,,,,,マニュファクトシステムズ,0
1212,4030003017885,新規,0,2021-09-06,2021-09-06,エリス合同会社,,合同会社,埼玉県,白岡市,小久喜６７５番地１パークシティ白岡Ｂ棟７１３,,11,246,3490217,,,,,,,2021-09-06,1,,,,,エリス,0
1213,4030003017893,新規,0,2021-09-06,2021-09-06,ＺＥＲＯ・ＩＮＦＩＮＩＴＹ合同会社,,合同会社,埼玉県,川口市,長蔵２丁目２７番１号ワークオフィスフロンティア１０２,,11,203,3330807,,,,,,,2021-09-06,1,,,,,ゼロインフィニティ,0
1214,4030003017902,新規,0,2021-09-06,2021-09-06,ＲＯＹＡＬ　ＰＲＩＮＣＥ＆ＳＯＮＳ合同会社,,合同会社,埼玉県,越谷市,赤山町２丁目１３番地２０５,,11,222,3430807,,,,,,,2021-09-06,1,,,,,ロイヤルプリンスアンドサンズ,0
1217,4040001120005,新規,0,2021-09-06,2021-09-06,株式会社エスアンドコー,,株式会社,千葉県,印西市,小倉台２丁目２番地１棟１３０１号,,12,231,2701356,,,,,,,2021-09-06,1,,,,,エスアンドコー,0
1218,4040001120013,新規,0,2021-09-06,2021-09-06,株式会社グラビティ,,株式会社,千葉県,袖ケ浦市,蔵波２９０５番地９,,12,229,2990243,,,,,,,2021-09-06,1,,,,,グラビティ,0
1219,4040001120021,新規,0,2021-09-06,2021-09-06,株式会社ＭＧＲアシスト,,株式会社,千葉県,白井市,折立５２８番地の１,,12,232,2701404,,,,,,,2021-09-06,1,,,,,エムジーアールアシスト,0
1220,4040001120079,新規,0,2021-09-06,2021-09-06,Ｇｒｏｕｎｄ．ｅｓ株式会社,,株式会社,千葉県,市川市,北方町４丁目１９４８番地７２,,12,203,2720811,,,,,,,2021-09-06,1,,,,,グラウンドイーエス,0
1224,4040003018461,新規,0,2021-09-06,2021-09-06,合同会社アニー,,合同会社,千葉県,市原市,五井中央西１丁目３７－５サンクレスト２０６,,12,219,2900081,,,,,,,2021-09-06,1,,,,,アニー,0
1227,4050001049788,新規,0,2021-09-06,2021-09-06,コンフォートタカヤ株式会社,,株式会社,茨城県,牛久市,栄町２丁目６番地,,08,219,3001233,,,,,,,2021-09-06,1,,,,,コンフォートタカヤ,0
1228,4050001049796,新規,0,2021-09-06,2021-09-06,光柄工業株式会社,,株式会社,茨城県,東茨城郡茨城町,大字上飯沼９０２番地２,,08,302,3113153,,,,,,,2021-09-06,1,,,,,コウエコウギョウ,0
1234,4070001038392,新規,0,2021-09-06,2021-09-06,株式会社ＫＫＳ,,株式会社,群馬県,沼田市,横塚町４５４番地７,,10,206,3780002,,,,,,,2021-09-06,1,,,,,ケイケイエス,0
1235,4070001038401,新規,0,2021-09-06,2021-09-06,優希クレーン株式会社,,株式会社,群馬県,伊勢崎市,田中島町５１３番地１,,10,204,3720802,,,,,,,2021-09-06,1,,,,,ユウキクレーン,0
1245,4080101022741,新規,0,2021-09-06,2021-09-06,株式会社トライアフレッシュ,,株式会社,静岡県,駿東郡小山町,棚頭７７３番地,,22,344,4101327,,,,,,,2021-09-06,1,,,,,トライアフレッシュ,0
1246,4080101022758,新規,0,2021-09-06,2021-09-06,株式会社ベルワーク,,株式会社,静岡県,沼津市,大岡２１３３番地の５４,,22,203,4100022,,,,,,,2021-09-06,1,,,,,ベルワーク,0
1250,4080401025312,新規,0,2021-09-06,2021-09-06,株式会社粂田会計事務所,,株式会社,静岡県,掛川市,杉谷１丁目７番８号,,22,213,4360017,,,,,,,2021-09-06,1,,,,,クメタカイケイジムショ,0
1254,4090001017171,新規,0,2021-09-06,2021-09-06,株式会社渡辺商会,,株式会社,山梨県,富士吉田市,新西原２丁目３番２７号,,19,202,4030017,,,,,,,2021-09-06,1,,,,,ワタナベショウカイ,0
1255,4090003001941,新規,0,2021-09-06,2021-09-06,リニアサウンドジャパン合同会社,,合同会社,山梨県,甲府市,北口１丁目２番１９号,,19,201,4000024,,,,,,,2021-09-06,1,,,,,リニアサウンドジャパン,0
1262,4110001036020,新規,0,2021-09-06,2021-09-06,Ｊシステム株式会社,,株式会社,新潟県,上越市,頸城区下吉１６８１番地,,15,222,9420146,,,,,,,2021-09-06,1,,,,,ジェイシステム,0
1269,4120001240224,新規,0,2021-09-06,2021-09-06,株式会社ミライズ,,株式会社,大阪府,大阪市福島区,大開１丁目１２－２１,,27,103,5530007,,,,,,,2021-09-06,1,,,,,ミライズ,0
1271,4120003020145,新規,0,2021-09-06,2021-09-06,合同会社くるむすび,,合同会社,大阪府,大阪市中央区,船場中央２丁目１番４－４１０号,,27,128,5410055,,,,,,,2021-09-06,1,,,,,クルムスビ,0
1273,4120005022486,新規,0,2021-09-06,2021-09-06,社会保険労務士法人アコード,,その他の設立登記法人,大阪府,大阪市中央区,大手前１丁目７番３１号ＯＭＭビル８階,,27,128,5400008,,,,,,,2021-09-06,1,,,,,アコード,0
1274,4120101064234,新規,0,2021-09-06,2021-09-06,株式会社４ＳＮ,,株式会社,大阪府,高石市,綾園５丁目７番６４号（学校法人清風南海学園内）,,27,225,5920014,,,,,,,2021-09-06,1,,,,,フォーエスエヌ,0
1276,4120105009441,新規,0,2021-09-06,2021-09-06,税理士法人まごころパートナーズ,,その他の設立登記法人,大阪府,河内長野市,石仏２３番２号,,27,216,5860069,,,,,,,2021-09-06,1,,,,,マゴコロパートナーズ,0
1278,4120901044848,新規,0,2021-09-06,2021-09-06,株式会社フォレストハウスＮｅｏ,,株式会社,大阪府,吹田市,内本町２丁目６番１３号,,27,205,5640032,,,,,,,2021-09-06,1,,,,,フォレストハウスネオ,0
1279,4120901044856,新規,0,2021-09-06,2021-09-06,株式会社ＭＶＣ　ＷＯＲＫＳ,,株式会社,大阪府,摂津市,鳥飼中３丁目１番２７号,,27,224,5660064,,,,,,,2021-09-06,1,,,,,エムブイシーワークス,0
1282,4120905006225,新規,0,2021-09-06,2021-09-06,特定非営利活動法人ハートフェルトスポーツクラブ,,その他の設立登記法人,大阪府,箕面市,桜井３丁目１０番３５号,,27,220,5620043,,,,,,,2021-09-06,1,,,,,ハートフェルトスポーツクラブ,0
1285,4130001070026,新規,0,2021-09-06,2021-09-06,株式会社エマーブル・プロジェ,,株式会社,京都府,城陽市,寺田樋尻６０番地３１,00124142,26,207,6100121,,,,,,,2021-09-06,1,,,,,エマーブルプロジェ,0
1286,4130001070050,新規,0,2021-09-06,2021-09-06,雅フーズ株式会社,,株式会社,京都府,京都市右京区,花園扇野町１１番地４,,26,108,6168044,,,,,,,2021-09-06,1,,,,,ミヤビフーズ,0
1287,4130001070059,新規,0,2021-09-06,2021-09-06,株式会社ブリッジネクスト,,株式会社,京都府,宇治市,木幡金草原２７番地１５イケモトビル,,26,204,6110002,,,,,,,2021-09-06,1,,,,,ブリッジネクスト,0
1288,4130001070067,新規,0,2021-09-06,2021-09-06,株式会社ＭＡＭＯＲＵ,,株式会社,京都府,京都市左京区,田中門前町３２番地２,,26,103,6068225,,,,,,,2021-09-06,1,,,,,マモル,0
1290,4130003007455,新規,0,2021-09-06,2021-09-06,合同会社ＣＧＫ,,合同会社,京都府,京都市左京区,下鴨南芝町５１番地６,,26,103,6060841,,,,,,,2021-09-06,1,,,,,シージーケー,0
1291,4130003007463,新規,0,2021-09-06,2021-09-06,合同会社スタリバ,,合同会社,京都府,京都市上京区,今出川通寺町東入上る一真町７７番地,,26,102,6020824,,,,,,,2021-09-06,1,,,,,スタリバ,0
1299,4140001122899,新規,0,2021-09-06,2021-09-06,株式会社アグナス,,株式会社,兵庫県,川西市,霞ケ丘２丁目５番９号,,28,217,6660031,,,,,,,2021-09-06,1,,,,,アグナス,0
1300,4140001122916,新規,0,2021-09-06,2021-09-06,Ｈｅｉｊｉ株式会社,,株式会社,兵庫県,姫路市,東今宿４丁目５番８号,,28,201,6700056,,,,,,,2021-09-06,1,,,,,ヘイジ,0
1301,4140001122924,新規,0,2021-09-06,2021-09-06,株式会社ラッフィナート,,株式会社,兵庫県,芦屋市,大原町１１番７号１１番ビル,,28,206,6590092,,,,,,,2021-09-06,1,,,,,ラッフィナート,0
1302,4140001122932,新規,0,2021-09-06,2021-09-06,株式会社ｉｋｋａ　ｍｏｒｒｏｗ,,株式会社,兵庫県,多可郡多可町,八千代区中野間８０３－４,,28,365,6770121,,,,,,,2021-09-06,1,,,,,イッカモロウ,0
1303,4140001122965,新規,0,2021-09-06,2021-09-06,株式会社フロントフィールド,,株式会社,兵庫県,神戸市垂水区,南多聞台８丁目１７番１９号,,28,108,6550043,,,,,,,2021-09-06,1,,,,,フロントフィールド,0
1307,4140005025801,新規,0,2021-09-06,2021-09-06,一般社団法人とよおか暮らしバンクＴｏｋｕｂａ,,その他の設立登記法人,兵庫県,豊岡市,中央町５番４７号,,28,209,6680033,,,,,,,2021-09-06,1,,,,,トヨオカクラシバンクトクバ,0
1309,4150001024896,新規,0,2021-09-06,2021-09-06,株式会社下西工務店,,株式会社,奈良県,生駒市,小瀬町５４８番地１,,29,209,6300223,,,,,,,2021-09-06,1,,,,,シモニシコウムテン,0
1310,4150001024905,新規,0,2021-09-06,2021-09-06,株式会社ヨウコウ,,株式会社,奈良県,橿原市,内膳町１丁目３番１０号,,29,205,6340804,,,,,,,2021-09-06,1,,,,,ヨウコウ,0
1315,4160001023583,新規,0,2021-09-06,2021-09-06,株式会社魚徳,,株式会社,滋賀県,長浜市,平方町８６８番地の１,,25,203,5260033,,,,,,,2021-09-06,1,,,,,ウオトク,0
1328,4180001147694,新規,0,2021-09-06,2021-09-06,オルテガ株式会社,,株式会社,愛知県,名古屋市中川区,伏屋５丁目３１３番地,,23,110,4540996,,,,,,,2021-09-06,1,,,,,オルテガ,0
1329,4180001147703,新規,0,2021-09-06,2021-09-06,株式会社オムニシステムサービス,,株式会社,愛知県,名古屋市中区,新栄町２丁目１３番地栄第一生命ビルディング,,23,106,4600004,,,,,,,2021-09-06,1,,,,,オムニシステムサービス,0
1330,4180001147728,新規,0,2021-09-06,2021-09-06,株式会社ＰＬＵＭ,,株式会社,愛知県,名古屋市中区,金山２丁目１４番９号,,23,106,4600022,,,,,,,2021-09-06,1,,,,,プラム,0
1337,4180301035327,新規,0,2021-09-06,2021-09-06,Ｗｅｌｉｎａ株式会社,,株式会社,愛知県,豊川市,桜ケ丘町４３番地２,,23,207,4420064,,,,,,,2021-09-06,1,,,,,ウェリナ,0
1339,4180303005088,新規,0,2021-09-06,2021-09-06,合同会社渡辺メンテナンス,,合同会社,愛知県,岡崎市,法性寺町字上屋敷７１番地,,23,202,4440206,,,,,,,2021-09-06,1,,,,,ワタナベメンテナンス,0
1343,4190001028646,新規,0,2021-09-06,2021-09-06,株式会社徳岡工業,,株式会社,三重県,四日市市,広永町字川原１３８１番地１,,24,202,5128061,,,,,,,2021-09-06,1,,,,,トクオカコウギョウ,0
1345,4200001039088,新規,0,2021-09-06,2021-09-06,株式会社心家,,株式会社,岐阜県,下呂市,乗政３７２番地４,,21,220,5092311,,,,,,,2021-09-06,1,,,,,ココヤ,0
1351,4200003005303,新規,0,2021-09-06,2021-09-06,山田ビジネスコンサルティング合同会社,,合同会社,岐阜県,岐阜市,長良７１１番地１９,,21,201,5020071,,,,,,,2021-09-06,1,,,,,ヤマダビジネスコンサルティング,0
1353,4210001018586,新規,0,2021-09-06,2021-09-06,株式会社ヒカリサービス,,株式会社,福井県,小浜市,深谷第２号２３番地,,18,204,9170352,,,,,,,2021-09-06,1,,,,,ヒカリサービス,0
1357,4220001024410,新規,0,2021-09-06,2021-09-06,株式会社アドアレット,,株式会社,石川県,金沢市,玉鉾１丁目１０１番地,,17,201,9218002,,,,,,,2021-09-06,1,,,,,アドアレット,0
1364,4240001058563,新規,0,2021-09-06,2021-09-06,株式会社ＥＮＧＩＮＥ,,株式会社,広島県,東広島市,入野中山台５丁目７番２６号,,34,212,7392209,,,,,,,2021-09-06,1,,,,,エンジン,0
1392,4290003011581,新規,0,2021-09-06,2021-09-06,合同会社ＤＲＥＡＭ‐ＮＥＸＴ,,合同会社,福岡県,福岡市博多区,美野島１丁目４－５,,40,132,8120017,,,,,,,2021-09-06,1,,,,,ドリームネクスト,0
1398,4290801027746,新規,0,2021-09-06,2021-09-06,株式会社福澤マテリアル,,株式会社,福岡県,中間市,朝霧１丁目２０番１５号,,40,215,8090021,,,,,,,2021-09-06,1,,,,,フクザワマテリアル,0
1399,4290801027754,新規,0,2021-09-06,2021-09-06,株式会社縁,,株式会社,福岡県,北九州市小倉南区,大字志井１１５６番地３,,40,107,8020985,,,,,,,2021-09-06,1,,,,,エニシ,0
1404,4300001012613,新規,0,2021-09-06,2021-09-06,株式会社三田川ホルモン,,株式会社,佐賀県,神埼郡吉野ヶ里町,吉田９４８番地,,41,327,8420031,,,,,,,2021-09-06,1,,,,,ミタガワホルモン,0
1407,4310001017438,新規,0,2021-09-06,2021-09-06,株式会社ＦＥＤ,,株式会社,長崎県,諫早市,原口町６３５番地５,,42,204,8540046,,,,,,,2021-09-06,1,,,,,エフイーディー,0
1408,4310001017446,新規,0,2021-09-06,2021-09-06,株式会社野原設備,,株式会社,長崎県,佐世保市,相浦町２１３番地５,,42,202,8580918,,,,,,,2021-09-06,1,,,,,ノハラセツビ,0
1409,4310001017454,新規,0,2021-09-06,2021-09-06,株式会社川上製麺,,株式会社,長崎県,南島原市,西有家町須川１３６－１,,42,214,8592212,,,,,,,2021-09-06,1,,,,,カワカミセイメン,0
1420,4330001028953,新規,0,2021-09-06,2021-09-06,株式会社元村不動産,,株式会社,熊本県,玉名郡長洲町,大字梅田３０１番地,,43,368,8690122,,,,,,,2021-09-06,1,,,,,モトムラフドウサン,0
1421,4330001028978,新規,0,2021-09-06,2021-09-06,株式会社ジーバイジー,,株式会社,熊本県,熊本市中央区,琴平１丁目２番８号,,43,101,8600813,,,,,,,2021-09-06,1,,,,,ジーバイジー,0
1432,4350001017293,新規,0,2021-09-06,2021-09-06,株式会社亀元興業,,株式会社,宮崎県,都城市,早鈴町１５９８番地２,,45,202,8850055,,,,,,,2021-09-06,1,,,,,カメモトコウギョウ,0
1434,4360001029313,新規,0,2021-09-06,2021-09-06,株式会社まるなか建設,,株式会社,沖縄県,うるま市,石川１丁目２７番１３号,,47,213,9041106,,,,,,,2021-09-06,1,,,,,マルナカケンセツ,0
1441,4380001032166,新規,0,2021-09-06,2021-09-06,株式会社太陽商会,,株式会社,福島県,石川郡石川町,字北町６６番地,,07,501,9637844,,,,,,,2021-09-06,1,,,,,タイヨウショウカイ,0
1442,4380001032174,新規,0,2021-09-06,2021-09-06,深谷創建株式会社,,株式会社,福島県,郡山市,大槻町字下西田７７番地の１６,,07,203,9630201,,,,,,,2021-09-06,1,,,,,フカヤソウケン,0
1447,4390001016589,新規,0,2021-09-06,2021-09-06,ＡＤＡ－ｌｉｎｋ株式会社,,株式会社,山形県,山形市,七日町４丁目１５番２０号ＣＯＲＥ－７４、２階,,06,201,9900042,,,,,,,2021-09-06,1,,,,,エーディーエーリンク,0
1457,4420005007770,新規,0,2021-09-06,2021-09-06,碇ヶ関林檎移出商業協同組合,,その他の設立登記法人,青森県,平川市,碇ヶ関山神堂１２３番地２１,,02,210,0380101,,,,,,,2021-09-06,1,,,,,イカリガセキリンゴイシュツ,0
1464,4430003013118,新規,0,2021-09-06,2021-09-06,合同会社ｉ‐ｅｓｔａｔｅ．,,合同会社,北海道,札幌市東区,北十九条東１３丁目３番１４号,,01,103,0650019,,,,,,,2021-09-06,1,,,,,アイエステート,0
1465,4430005014262,新規,0,2021-09-06,2021-09-06,一般社団法人ＣＡＳＡ　ＪＡＰＡＮ,,その他の設立登記法人,北海道,小樽市,最上２丁目２５番３号,,01,203,0470023,,,,,,,2021-09-06,1,,,,,カサジャパン,0
1472,4470001018692,新規,0,2021-09-06,2021-09-06,ヴェルトライゼ株式会社,,株式会社,香川県,高松市,庵治町丸山６３９０番地８４,,37,201,7610130,,,,,,,2021-09-06,1,,,,,ヴェルトライゼ,0
1475,4480001011481,新規,0,2021-09-06,2021-09-06,株式会社ｌｉｔｔｌｅ北佐古,,株式会社,徳島県,板野郡松茂町,笹木野字八北開拓１番地２０１ＢＩＶＲＥＯｆｆｉｃｅ３Ｆ,,36,401,7710219,,,,,,,2021-09-06,1,,,,,リトルキタサコ,0
1481,4490001009979,新規,0,2021-09-06,2021-09-06,株式会社カーサポートマツオカ,,株式会社,高知県,四万十市,具同５５２２番地１,,39,210,7870019,,,,,,,2021-09-06,1,,,,,カーサポートマツオカ,0
1492,5010001220847,新規,0,2021-09-06,2021-09-06,瑞泰株式会社,,株式会社,東京都,中央区,日本橋馬喰町１丁目１３番１２号一階,,13,102,1030002,,,,,,,2021-09-06,1,,,,,ズイタイ,0
1493,5010001220913,新規,0,2021-09-06,2021-09-06,株式会社ＫＲＯ,,株式会社,東京都,千代田区,神田須田町１丁目２４番地２１加瀬ビル１７３・９０５号,,13,101,1010041,,,,,,,2021-09-06,1,,,,,ケーアールオー,0
1494,5010001220946,新規,0,2021-09-06,2021-09-06,ハオテックジャパン株式会社,,株式会社,東京都,中央区,銀座７丁目１３番６号サガミビル２階,,13,102,1040061,,,,,,,2021-09-06,1,,,,,ハオテックジャパン,0
1499,5010003035731,新規,0,2021-09-06,2021-09-06,レッドリーフ合同会社,,合同会社,東京都,中央区,築地７丁目１１番５号,,13,102,1040045,,,,,,,2021-09-06,1,,,,,レッドリーフ,0
1500,5010003035756,新規,0,2021-09-06,2021-09-06,日光Ｐｌｕｓ２０ホールディング合同会社,,合同会社,東京都,千代田区,丸の内３丁目１番１号東京共同会計事務所内,,13,101,1000005,,,,,,,2021-09-06,1,,,,,ニッコウプラストゥエンティホールディング,0
1501,5010101014835,新規,0,2021-09-06,2021-09-06,株式会社ＣｉＲＣＵＳ,,株式会社,東京都,八王子市,石川町２４４１番地１８,,13,201,1920032,,,,,,,2021-09-06,1,,,,,サーカス,0
1504,5010401162508,新規,0,2021-09-06,2021-09-06,株式会社ｕｎｌｏｃｋ．ｌｙ,,株式会社,東京都,港区,芝浦４丁目２２番１－２９１０号,,13,103,1080023,,,,,,,2021-09-06,1,,,,,アンロックリー,0
1505,5010401162516,新規,0,2021-09-06,2021-09-06,ミラプレ株式会社,,株式会社,東京都,港区,北青山２丁目７番１３号プラセオ青山ビル３階,,13,103,1070061,,,,,,,2021-09-06,1,,,,,ミラプレ,0
1506,5010401162557,新規,0,2021-09-06,2021-09-06,ヘキサフィールズ株式会社,,株式会社,東京都,港区,浜松町２丁目２－１５,,13,103,1050013,,,,,,,2021-09-06,1,,,,,ヘキサフィールズ,0
1517,5010601059875,新規,0,2021-09-06,2021-09-06,ヒロシテック株式会社,,株式会社,東京都,江東区,東陽２丁目２番１４－３０７号,,13,108,1350016,,,,,,,2021-09-06,1,,,,,ヒロシテック,0
1518,5010601059883,新規,0,2021-09-06,2021-09-06,株式会社ＴＡＯ,,株式会社,東京都,江東区,新木場３丁目６番７号,,13,108,1360082,,,,,,,2021-09-06,1,,,,,タオ,0
1525,5010801032277,新規,0,2021-09-06,2021-09-06,株式会社西畑工業,00124138,株式会社,東京都,大田区,鵜の木２丁目３９番１－１００９号,,13,111,1460091,,,,,,,2021-09-06,1,,,,,ニシハタコウギョウ,0
1526,5010803003879,新規,0,2021-09-06,2021-09-06,合同会社ＴｏｋｙｏＦｏｘ,,合同会社,東京都,大田区,大森東４丁目５－８,,13,111,1430012,,,,,,,2021-09-06,1,,,,,トウキョウフォックス,0
1529,5010901049378,新規,0,2021-09-06,2021-09-06,株式会社マーサー,,株式会社,東京都,世田谷区,奥沢５丁目３３番２号,,13,112,1580083,,,,,,,2021-09-06,1,,,,,マーサー,0
1530,5010901049403,新規,0,2021-09-06,2021-09-06,株式会社Ａｓ　ｏｎｅ　ｐｌｅａｓｅｓ,,株式会社,東京都,世田谷区,玉川３丁目４０－２６グレイスコート２０３,,13,112,1580094,,,,,,,2021-09-06,1,,,,,アズワンプリーズィズ,0
1531,5010903006773,新規,0,2021-09-06,2021-09-06,野又ワークス＆スタジオ合同会社,,合同会社,東京都,世田谷区,弦巻２丁目１８番２１－２０３号,,13,112,1540016,,,,,,,2021-09-06,1,,,,,ノマタワークスアンドスタジオ,0
1532,5010905004197,新規,0,2021-09-06,2021-09-06,一般社団法人ニチジョクラブ,,その他の設立登記法人,東京都,世田谷区,北烏山８丁目１９番１号日本女子体育大学内,,13,112,1570061,,,,,,,2021-09-06,1,,,,,ニチジョクラブ,0
1533,5011001020460,新規,0,2021-09-06,2021-09-06,プルメリア株式会社,,株式会社,東京都,渋谷区,代々木３丁目２４番３号,,13,113,1510053,,,,,,,2021-09-06,1,,,,,プルメリア,0
1536,5011001142602,新規,0,2021-09-06,2021-09-06,株式会社Ｓｐｒｅａｄ　Ｃｏｎｓｏｒｔｉｕｍｓ,,株式会社,東京都,渋谷区,東１丁目５番１４－３０１号,,13,113,1500011,,,,,,,2021-09-06,1,,,,,スプレッドコンソーシアムズ,0
1537,5011001142651,新規,0,2021-09-06,2021-09-06,株式会社ＤＩＮＥＳＩＤＥ,,株式会社,東京都,渋谷区,恵比寿西２丁目８番１１号グランベル恵比寿Ⅳ２階,00124148,13,113,1500021,,,,,,,2021-09-06,1,,,,,ダインサイド,0
1538,5011003013289,新規,0,2021-09-06,2021-09-06,合同会社ＰＯＲＯＵＳ,,合同会社,東京都,目黒区,青葉台３丁目１番８号ニュー青葉台マンション３０３,,13,110,1530042,,,,,,,2021-09-06,1,,,,,ポーラス,0
1540,5011005009203,新規,0,2021-09-06,2021-09-06,一般社団法人Ｗｈｏｌｅ　Ｅａｒｔｈ　Ｌｉｆｅ,,その他の設立登記法人,東京都,渋谷区,恵比寿南３丁目７番２号,,13,113,1500022,,,,,,,2021-09-06,1,,,,,ホールアースライフ,0
1545,5011201023222,新規,0,2021-09-06,2021-09-06,ｓｙｎｃ　ｌａｗ株式会社,,株式会社,東京都,中野区,中野５丁目３２番４号,,13,114,1640001,,,,,,,2021-09-06,1,,,,,シンクロウ,0
1547,5011301027148,新規,0,2021-09-06,2021-09-06,Ｍｕｕ株式会社,,株式会社,東京都,杉並区,高井戸西１丁目５番４３号,,13,115,1680071,,,,,,,2021-09-06,1,,,,,ムー,0
1553,5011701024678,新規,0,2021-09-06,2021-09-06,株式会社メーデルホールディングス,,株式会社,東京都,江戸川区,東葛西５丁目５番１号４Ｆ,,13,123,1340084,,,,,,,2021-09-06,1,,,,,メーデルホールディングス,0
1554,5011701024686,新規,0,2021-09-06,2021-09-06,株式会社西葛西出版,,株式会社,東京都,江戸川区,中葛西１丁目３番１２号,,13,123,1340083,,,,,,,2021-09-06,1,,,,,ニシカサイシュッパン,0
1557,5011801039650,新規,0,2021-09-06,2021-09-06,株式会社メルト,,株式会社,東京都,足立区,加平１丁目４番１４－３０２号,,13,121,1210055,,,,,,,2021-09-06,1,,,,,メルト,0
1558,5011801039675,新規,0,2021-09-06,2021-09-06,株式会社ｉｎＣｌｕｖｅ,,株式会社,東京都,足立区,千住東１丁目２６番８号ハウス山岸３０３号室,,13,121,1200025,,,,,,,2021-09-06,1,,,,,インクルブ,0
1562,5012401038266,新規,0,2021-09-06,2021-09-06,株式会社耕全,,株式会社,東京都,調布市,布田４丁目２２番地２,,13,208,1820024,,,,,,,2021-09-06,1,,,,,コウゼン,0
1563,5012401038274,新規,0,2021-09-06,2021-09-06,株式会社アーズ,,株式会社,東京都,多摩市,豊ヶ丘６丁目３番地１－４０１,,13,224,2060031,,,,,,,2021-09-06,1,,,,,アーズ,0
1564,5012403005009,新規,0,2021-09-06,2021-09-06,合同会社リコピンフォルス,,合同会社,東京都,府中市,住吉町２丁目３０－１３－２０２号,,13,206,1830034,,,,,,,2021-09-06,1,,,,,リコピンフォルス,0
1567,5012801021061,新規,0,2021-09-06,2021-09-06,株式会社野田興業,,株式会社,東京都,立川市,西砂町２丁目３番地の２１,,13,202,1900034,,,,,,,2021-09-06,1,,,,,ノダコウギョウ,0
1568,5013301047968,新規,0,2021-09-06,2021-09-06,株式会社カタリヤ,,株式会社,東京都,豊島区,長崎２丁目１番１０号カサメントＫ５０１号,,13,116,1710051,,,,,,,2021-09-06,1,,,,,カタリヤ,0
1569,5013301047976,新規,0,2021-09-06,2021-09-06,株式会社Ｎｅｏ　ｓｏｆｉａ,,株式会社,東京都,豊島区,目白４丁目２２番８号,,13,116,1710031,,,,,,,2021-09-06,1,,,,,ネオソフィア,0
1573,5020001142867,新規,0,2021-09-06,2021-09-06,株式会社ＮＡｃｏｍｐａｎｙ,,株式会社,神奈川県,横浜市青葉区,美しが丘２丁目１番地３,,14,117,2250002,,,,,,,2021-09-06,1,,,,,エヌエーカンパニー,0
1574,5020001142875,新規,0,2021-09-06,2021-09-06,株式会社スクランブルー,,株式会社,神奈川県,川崎市中原区,新丸子町７４３番地１－７０２,,14,133,2110005,,,,,,,2021-09-06,1,,,,,スクランブルー,0
1575,5020001142909,新規,0,2021-09-06,2021-09-06,株式会社大塚創建,,株式会社,神奈川県,横浜市旭区,今宿東町５４７番地エリタージュⅡ１０２号,00124131,14,112,2410032,,,,,,,2021-09-06,1,,,,,オオツカソウケン,0
1579,5020003020435,新規,0,2021-09-06,2021-09-06,合同会社ファースト,,合同会社,神奈川県,横浜市西区,浅間町１丁目１３番地５藤江ビル４Ｆ,,14,103,2200072,,,,,,,2021-09-06,1,,,,,ファースト,0
1580,5020005015193,新規,0,2021-09-06,2021-09-06,司法書士法人きくち事務所,,その他の設立登記法人,神奈川県,横浜市神奈川区,金港町６番地３横浜金港町ビル３階,,14,102,2210056,,,,,,,2021-09-06,1,,,,,キクチジムショ,0
1585,5021005012288,新規,0,2021-09-06,2021-09-06,一般社団法人鈴木ファミリートラスト,,その他の設立登記法人,神奈川県,鎌倉市,梶原２丁目１９番４号,,14,204,2470063,,,,,,,2021-09-06,1,,,,,スズキファミリートラスト,0
1592,5030001144136,新規,0,2021-09-06,2021-09-06,株式会社ＹＥＬＬＯＷＫＮＩＦＥ　ＢＲＥＡＤ　ＣＯＭＰＡＮＹ,,株式会社,埼玉県,さいたま市浦和区,仲町３丁目３番１１号ｓｋｙｅ浦和仲町１０１,,11,107,3300062,,,,,,,2021-09-06,1,,,,,イエローナイフブレッドカンパニー,0
1593,5030001144160,新規,0,2021-09-06,2021-09-06,株式会社Ｄａｙｓ,,株式会社,埼玉県,吉川市,保１丁目３７番地３７,,11,243,3420041,,,,,,,2021-09-06,1,,,,,デイズ,0
1594,5030001144202,新規,0,2021-09-06,2021-09-06,伊藤工業株式会社,,株式会社,埼玉県,白岡市,彦兵衛７７番地９,,11,246,3490224,,,,,,,2021-09-06,1,,,,,イトウコウギョウ,0
1595,5030001144210,新規,0,2021-09-06,2021-09-06,株式会社オリーブ,,株式会社,埼玉県,秩父郡長瀞町,大字本野上１４４番地１,,11,363,3691304,,,,,,,2021-09-06,1,,,,,オリーブ,0
1596,5030001144227,新規,0,2021-09-06,2021-09-06,株式会社笑美ホーム,,株式会社,埼玉県,日高市,大字駒寺野新田４番地２０,,11,242,3501202,,,,,,,2021-09-06,1,,,,,エミホーム,0
1600,5030003017884,新規,0,2021-09-06,2021-09-06,合同会社ドゥ,,合同会社,埼玉県,鶴ヶ島市,脚折町１丁目１９番３８号,,11,241,3502211,,,,,,,2021-09-06,1,,,,,ドゥ,0
1601,5030003017901,新規,0,2021-09-06,2021-09-06,明華合同会社,,合同会社,埼玉県,さいたま市南区,辻４丁目１２－１１ステラ２０２号,00124129,11,108,3360026,,,,,,,2021-09-06,1,,,,,メイカ,0
1603,5040001120012,新規,0,2021-09-06,2021-09-06,株式会社ターフ,,株式会社,千葉県,柏市,新富町２丁目１４番７号,,12,217,2770856,,,,,,,2021-09-06,1,,,,,ターフ,0
1604,5040001120029,新規,0,2021-09-06,2021-09-06,株式会社リストレート,,株式会社,千葉県,鎌ケ谷市,東中沢３丁目７番５７号,,12,224,2730112,,,,,,,2021-09-06,1,,,,,リストレート,0
1605,5040001120037,新規,0,2021-09-06,2021-09-06,株式会社サンスマイル,,株式会社,千葉県,柏市,増尾７丁目１１番２号,,12,217,2770033,,,,,,,2021-09-06,1,,,,,サンスマイル,0
1606,5040001120061,新規,0,2021-09-06,2021-09-06,株式会社ＭｕＮｉ,,株式会社,千葉県,千葉市中央区,弁天２丁目１９番４０号,,12,101,2600045,,,,,,,2021-09-06,1,,,,,ムニ,0
1607,5040001120078,新規,0,2021-09-06,2021-09-06,ブランパレット株式会社,,株式会社,千葉県,浦安市,美浜５丁目１番１００３号,,12,227,2790011,,,,,,,2021-09-06,1,,,,,ブランパレット,0
1608,5040003018460,新規,0,2021-09-06,2021-09-06,ねこプラス合同会社,,合同会社,千葉県,流山市,大字東深井１１０６番地の５３,,12,220,2700101,,,,,,,2021-09-06,1,,,,,ネコプラス,0
1609,5040005021339,新規,0,2021-09-06,2021-09-06,一般社団法人菜々海,,その他の設立登記法人,千葉県,市原市,五所１７５９番地４,,12,219,2900066,,,,,,,2021-09-06,1,,,,,ナナミ,0
1613,5050001049779,新規,0,2021-09-06,2021-09-06,ｉｓ－ａｓｓｉｓｔ株式会社,,株式会社,茨城県,常総市,豊岡町乙１５２７番地１１,,08,211,3030041,,,,,,,2021-09-06,1,,,,,イズアシスト,0
1614,5050001049787,新規,0,2021-09-06,2021-09-06,株式会社子犬のワルツ,,株式会社,茨城県,龍ケ崎市,馴馬町３２４３番地１,,08,208,3010004,,,,,,,2021-09-06,1,,,,,コイヌノワルツ,0
1615,5050001049795,新規,0,2021-09-06,2021-09-06,株式会社金田建設興業,,株式会社,茨城県,牛久市,奥原町３６５４番地,,08,219,3001283,,,,,,,2021-09-06,1,,,,,カネダケンセツコウギョウ,0
1616,5050001049804,新規,0,2021-09-06,2021-09-06,株式会社ワシク,,株式会社,茨城県,水戸市,筑地町４６２番地１,,08,201,3190313,,,,,,,2021-09-06,1,,,,,ワシク,0
1618,5050003006051,新規,0,2021-09-06,2021-09-06,Ｓａｄｅｓａ　Ｊａｐａｎ　Ｌａｎｋａ　Ｅｎｔｅｒｐｒｉｓｅｓ合同会社,,合同会社,茨城県,龍ケ崎市,南中島町６７３番地５,,08,208,3010047,,,,,,,2021-09-06,1,,,,,サデサジャパンランカエンタープライズ,0
1626,5070001038391,新規,0,2021-09-06,2021-09-06,鉄之神工業株式会社,,株式会社,群馬県,富岡市,一ノ宮４１８番地２,,10,210,3702452,,,,,,,2021-09-06,1,,,,,テツノシンコウギョウ,0
1627,5070001038400,新規,0,2021-09-06,2021-09-06,株式会社三光ファーム,,株式会社,群馬県,高崎市,大沢町２２７番地１,,10,202,3700012,,,,,,,2021-09-06,1,,,,,サンコウファーム,0
1629,5070003004219,新規,0,2021-09-06,2021-09-06,合同会社さとう整体院,,合同会社,群馬県,沼田市,横塚町１３１３番地２,,10,206,3780002,,,,,,,2021-09-06,1,,,,,サトウセイタイイン,0
1631,5080101022749,新規,0,2021-09-06,2021-09-06,株式会社さのじろう商店,,株式会社,静岡県,富士宮市,下条４６６番地,,22,207,4180114,,,,,,,2021-09-06,1,,,,,サノジロウショウテン,0
1632,5080101022757,新規,0,2021-09-06,2021-09-06,株式会社小椋創建,,株式会社,静岡県,富士宮市,大岩７２番地の１１,,22,207,4180013,,,,,,,2021-09-06,1,,,,,オグラソウケン,0
1641,5090001017179,新規,0,2021-09-06,2021-09-06,株式会社エンデヴァー山梨,,株式会社,山梨県,笛吹市,春日居町鎮目８８８－３,,19,211,4060015,,,,,,,2021-09-06,1,,,,,,0
1643,5100001034585,新規,0,2021-09-06,2021-09-06,株式会社ＣＯＮＥＳＴ,,株式会社,長野県,諏訪郡富士見町,富士見３２９２番地,,20,362,3990211,,,,,,,2021-09-06,1,,,,,コネスト,0
1645,5110001036028,新規,0,2021-09-06,2021-09-06,株式会社大竹商会,,株式会社,新潟県,三条市,西鱈田８５０番地１,,15,204,9550815,,,,,,,2021-09-06,1,,,,,オオタケショウカイ,0
1646,5110003004569,新規,0,2021-09-06,2021-09-06,おおたけ板金合同会社,,合同会社,新潟県,三条市,新光町１２番３９－２号,,15,204,9550057,,,,,,,2021-09-06,1,,,,,オオタケバンキン,0
1663,5120001240149,新規,0,2021-09-06,2021-09-06,株式会社ｒｏｕｂｕ．,,株式会社,大阪府,大阪市都島区,東野田町４丁目１番１０号,,27,102,5340024,,,,,,,2021-09-06,1,,,,,ロウブ,0
1664,5120001240173,新規,0,2021-09-06,2021-09-06,Ｔｗｉｎ株式会社,,株式会社,大阪府,大阪市北区,紅梅町５番１５－７０７号,,27,127,5300038,,,,,,,2021-09-06,1,,,,,ツイン,0
1665,5120001240181,新規,0,2021-09-06,2021-09-06,ＨＲＢ株式会社,,株式会社,大阪府,寝屋川市,上神田２丁目１１番１号ライゼボックス１,,27,215,5720052,,,,,,,2021-09-06,1,,,,,エイチアールビー,0
1666,5120001240207,新規,0,2021-09-06,2021-09-06,株式会社おくりびと,,株式会社,大阪府,寝屋川市,田井西町２５番３号,,27,215,5720020,,,,,,,2021-09-06,1,,,,,オクリビト,0
1667,5120001240223,新規,0,2021-09-06,2021-09-06,株式会社ａｄａｎｄａ,,株式会社,大阪府,大阪市住之江区,北加賀屋５丁目４番１２号コーポ北加賀屋１０２,,27,125,5590011,,,,,,,2021-09-06,1,,,,,アダンダ,0
1668,5120001240231,新規,0,2021-09-06,2021-09-06,株式会社ＴＯＫ,,株式会社,大阪府,大阪市天王寺区,大道２丁目５番１８号,,27,109,5430052,,,,,,,2021-09-06,1,,,,,ティーオーケー,0
1670,5120003020152,新規,0,2021-09-06,2021-09-06,合同会社Ｗｉｔｈ,,合同会社,大阪府,門真市,脇田町３番２号,,27,223,5710011,,,,,,,2021-09-06,1,,,,,ウィズ,0
1671,5120003020160,新規,0,2021-09-06,2021-09-06,ｓｔｕｄｉｏ　ｌｏｏｐｎｏｔｅｓ合同会社,,合同会社,大阪府,大阪市北区,豊崎３丁目１５－５ＴＫビル,,27,127,5310072,,,,,,,2021-09-06,1,,,,,スタジオループノーツ,0
1674,5120005022485,新規,0,2021-09-06,2021-09-06,一般社団法人住宅保全サービス協会,,その他の設立登記法人,大阪府,大阪市東淀川区,豊里３丁目７番１０号,,27,114,5330013,,,,,,,2021-09-06,1,,,,,ジュウタクホゼンサービスキョウカイ,0
1677,5120101064134,新規,0,2021-09-06,2021-09-06,堺アルミ株式会社,,株式会社,大阪府,堺市堺区,海山町６丁２２４番地,,27,141,5900982,,,,,,,2021-09-06,1,,,,,サカイアルミ,0
1678,5120101064241,新規,0,2021-09-06,2021-09-06,株式会社Ｓｅｖｅｎ,,株式会社,大阪府,泉佐野市,南中岡本９２番地の４,,27,213,5980036,,,,,,,2021-09-06,1,,,,,セブン,0
1679,5120101064258,新規,0,2021-09-06,2021-09-06,株式会社エスリクト,,株式会社,大阪府,松原市,天美東７丁目６５番地,,27,217,5800032,,,,,,,2021-09-06,1,,,,,エスリクト,0
1682,5120103004328,新規,0,2021-09-06,2021-09-06,ビビッドクルー合同会社,,合同会社,大阪府,堺市中区,深井沢町３１２６番地グランドール深井２０２号,,27,142,5998236,,,,,,,2021-09-06,1,,,,,ビビッドクルー,0
1683,5120103004336,新規,0,2021-09-06,2021-09-06,合同会社スタジオフィオレ,,合同会社,大阪府,羽曳野市,はびきの２丁目７番１７－８１８号,,27,222,5830872,,,,,,,2021-09-06,1,,,,,スタジオフィオレ,0
1685,5120901044839,新規,0,2021-09-06,2021-09-06,アルス北大阪株式会社,,株式会社,大阪府,吹田市,岸部中４丁目７番９号,,27,205,5640002,,,,,,,2021-09-06,1,,,,,アルスキタオオサカ,0
1689,5130001070033,新規,0,2021-09-06,2021-09-06,株式会社ルーヤジャパン,,株式会社,京都府,相楽郡精華町,大字下狛小字流口２２番地２,,26,366,6190245,,,,,,,2021-09-06,1,,,,,ルーヤジャパン,0
1690,5130001070041,新規,0,2021-09-06,2021-09-06,株式会社Ｓｌｏｐｅ,,株式会社,京都府,京都市右京区,京北周山町経塚３１番地６,,26,108,6010251,,,,,,,2021-09-06,1,,,,,スロープ,0
1691,5130001070066,新規,0,2021-09-06,2021-09-06,株式会社ＴＮＹＴ,,株式会社,京都府,長岡京市,一文橋１丁目９番９号,,26,209,6170825,,,,,,,2021-09-06,1,,,,,ティーエヌワイティー,0
1702,5140001122898,新規,0,2021-09-06,2021-09-06,株式会社ハギワラ建築工房,,株式会社,兵庫県,尼崎市,猪名寺２丁目１７番５号,,28,202,6610981,,,,,,,2021-09-06,1,,,,,ハギワラケンチクコウボウ,0
1703,5140001122907,新規,0,2021-09-06,2021-09-06,株式会社Ｙａｍａｃｈａｎ動物病院,,株式会社,兵庫県,西宮市,瓦林町３番１５号,,28,204,6638107,,,,,,,2021-09-06,1,,,,,ヤマチャンドウブツビョウイン,0
1704,5140001122915,新規,0,2021-09-06,2021-09-06,株式会社ロジック吉川,,株式会社,兵庫県,加東市,東垂水３９番地,,28,228,6731336,,,,,,,2021-09-06,1,,,,,ロジックヨシカワ,0
1705,5140001122956,新規,0,2021-09-06,2021-09-06,株式会社ＣＲＯＵＤ　ＣＯＮＮＥＣＴ,,株式会社,兵庫県,尼崎市,西本町８丁目３７６,,28,202,6600874,,,,,,,2021-09-06,1,,,,,クラウドコネクト,0
1706,5140001122972,新規,0,2021-09-06,2021-09-06,株式会社Ｓａｉｌ,,株式会社,兵庫県,尼崎市,武庫之荘東１丁目１５番１５－２０５号,,28,202,6610032,,,,,,,2021-09-06,1,,,,,セイル,0
1708,5140003016702,新規,0,2021-09-06,2021-09-06,宮大工養成塾兵庫校合同会社,,合同会社,兵庫県,宍粟市,山崎町野々上３９２番地の１,,28,227,6712528,,,,,,,2021-09-06,1,,,,,ミヤダイクヨウセイジュクヒョウゴコウ,0
1716,5150001024904,新規,0,2021-09-06,2021-09-06,株式会社カリヨン,,株式会社,奈良県,橿原市,内膳町１丁目３番１０号,,29,205,6340804,,,,,,,2021-09-06,1,,,,,カリヨン,0
1726,5180001147693,新規,0,2021-09-06,2021-09-06,ＩＲＯＨＡＴＥＸ株式会社,,株式会社,愛知県,春日井市,神屋町６５４番地４３９,,23,206,4800304,,,,,,,2021-09-06,1,,,,,イロハテックス,0
1727,5180001147710,新規,0,2021-09-06,2021-09-06,株式会社セントラリーラボ,,株式会社,愛知県,名古屋市中村区,名駅４丁目９番１０号,,23,105,4500002,,,,,,,2021-09-06,1,,,,,セントラリーラボ,0
1738,5200001039087,新規,0,2021-09-06,2021-09-06,株式会社居間ノ庭工業,,株式会社,岐阜県,下呂市,萩原町上呂２２０６番地１,,21,220,5092518,,,,,,,2021-09-06,1,,,,,イマニワコウギョウ,0
1739,5200001039104,新規,0,2021-09-06,2021-09-06,株式会社馬渕塗工,,株式会社,岐阜県,岐阜市,下鵜飼１６２５番地５,,21,201,5011172,,,,,,,2021-09-06,1,,,,,マブチトコウ,0
1742,5210001018585,新規,0,2021-09-06,2021-09-06,越ナイフ株式会社,,株式会社,福井県,越前市,東千福町２３番４０号,,18,209,9150847,,,,,,,2021-09-06,1,,,,,エツナイフ,0
1743,5210001018593,新規,0,2021-09-06,2021-09-06,株式会社上中住建,,株式会社,福井県,大飯郡おおい町,名田庄久坂第１号１１番地,,18,483,9170382,,,,,,,2021-09-06,1,,,,,カミナカジュウケン,0
1749,5230001018963,新規,0,2021-09-06,2021-09-06,株式会社ＴＭＲ保険デザイン,,株式会社,富山県,富山市,小杉１５９番地６,,16,201,9398063,,,,,,,2021-09-06,1,,,,,ティーエムアールホケンデザイン,0
1756,5240003005265,新規,0,2021-09-06,2021-09-06,菅原商店合同会社,,合同会社,広島県,呉市,下蒲刈町下島４４０番地の１,,34,202,7370303,,,,,,,2021-09-06,1,,,,,スガワラショウテン,0
1763,5260003003663,新規,0,2021-09-06,2021-09-06,合同会社太陽コーポレーション,,合同会社,岡山県,和気郡和気町,衣笠８９９番地,,33,346,7090441,,,,,,,2021-09-06,1,,,,,タイヨウコーポレーション,0
1772,5290001094396,新規,0,2021-09-06,2021-09-06,株式会社オフィス南舘,,株式会社,福岡県,福岡市早良区,南庄６丁目１１番２０－１０２号ドミール２１,,40,137,8140031,,,,,,,2021-09-06,1,,,,,オフィスミナミダテ,0
1773,5290003011564,新規,0,2021-09-06,2021-09-06,合同会社ｈａｐｐｉｎｅｓｓ,,合同会社,福岡県,福岡市西区,拾六町４丁目４４番２３号,,40,135,8190041,,,,,,,2021-09-06,1,,,,,ハピネス,0
1774,5290003011580,新規,0,2021-09-06,2021-09-06,合同会社Ｔｒａｎｓ‐Ｍｉｓｓｉｏｎ,,合同会社,福岡県,糟屋郡粕屋町,仲原２丁目１７番５号,,40,349,8112304,,,,,,,2021-09-06,1,,,,,トランスミッション,0
1781,5310001017453,新規,0,2021-09-06,2021-09-06,ＦＩＶＥ　ＬＯＧＩＣ株式会社,,株式会社,長崎県,長崎市,三ツ山町１６１１,,42,201,8528142,,,,,,,2021-09-06,1,,,,,ファイブロヂック,0
1783,5310003004152,新規,0,2021-09-06,2021-09-06,合同会社Ｓｏｌｉｓ,,合同会社,長崎県,長崎市,大黒町１０番１０号ＫｏＫｏＲｏビル６ＤＢ号室,,42,201,8500057,,,,,,,2021-09-06,1,,,,,ソリス,0
1784,5320001018574,新規,0,2021-09-06,2021-09-06,株式会社経営サポート甲斐,,株式会社,大分県,大分市,にじが丘２丁目１４番地１,,44,201,8700874,,,,,,,2021-09-06,1,,,,,ケイエイサポートカイ,0
1792,5330003009034,新規,0,2021-09-06,2021-09-06,合同会社ＫＨＯ,,合同会社,熊本県,阿蘇市,内牧３６４－２,,43,214,8692301,,,,,,,2021-09-06,1,,,,,ケイエイチオー,0
1793,5330005010394,新規,0,2021-09-06,2021-09-06,サンセントラル司法書士法人,,その他の設立登記法人,熊本県,熊本市西区,島崎３丁目２４番７４号１階,,43,103,8600073,,,,,,,2021-09-06,1,,,,,サンセントラル,0
1794,5340001024075,新規,0,2021-09-06,2021-09-06,百太郎株式会社,,株式会社,鹿児島県,出水市,下鯖町２１４１番地,,46,208,8990123,,,,,,,2021-09-06,1,,,,,モモタロウ,0
1797,5350001017284,新規,0,2021-09-06,2021-09-06,株式会社ＭＩＺＵＭＡ,,株式会社,宮崎県,小林市,南西方６７６１番地３,,45,205,8860005,,,,,,,2021-09-06,1,,,,,ミズマ,0
1801,5360001029329,新規,0,2021-09-06,2021-09-06,株式会社ＮＳＳ,,株式会社,沖縄県,那覇市,壺川３丁目４番地２１サザンクロス壺川２０３,,47,201,9000025,,,,,,,2021-09-06,1,,,,,エヌエスエス,0
1806,5360003011409,新規,0,2021-09-06,2021-09-06,合同会社ライカサポート,,合同会社,沖縄県,うるま市,与那城照間１０８４番地１,,47,213,9042301,,,,,,,2021-09-06,1,,,,,ライカサポート,0
1809,5370001047569,新規,0,2021-09-06,2021-09-06,株式会社テイクオフ,,株式会社,宮城県,仙台市宮城野区,榴岡２丁目５－５,,04,102,9830852,,,,,,,2021-09-06,1,,,,,テイクオフ,0
1810,5370005010341,新規,0,2021-09-06,2021-09-06,特定非営利活動法人森の美術館,,その他の設立登記法人,宮城県,柴田郡川崎町,大字前川字松葉森山１番１９７,,04,324,9891501,,,,,,,2021-09-06,1,,,,,,0
1814,5380001032173,新規,0,2021-09-06,2021-09-06,株式会社Ｗｏｎｄｅｒ　Ｌａｎｄ,,株式会社,福島県,郡山市,桑野２丁目５番１１号,,07,203,9638025,,,,,,,2021-09-06,1,,,,,ワンダーランド,0
1820,5410003003565,新規,0,2021-09-06,2021-09-06,合同会社パティスリーハラタ,,合同会社,秋田県,潟上市,天王字追分５０番地４,,05,211,0100101,,,,,,,2021-09-06,1,,,,,パティスリーハラタ,0
1826,5430003013117,新規,0,2021-09-06,2021-09-06,ＣＮ　ａｓｓｏｃｉａｔｅ合同会社,,合同会社,北海道,札幌市中央区,北五条西２５丁目１番１２号東和ビル３階,,01,101,0640825,,,,,,,2021-09-06,1,,,,,シーエヌアソシエイト,0
1829,5470001018700,新規,0,2021-09-06,2021-09-06,株式会社曽根工務店,,株式会社,香川県,観音寺市,室本町１０７２番地３,,37,205,7680001,,,,,,,2021-09-06,1,,,,,ソネコウムテン,0
1832,5480001011480,新規,0,2021-09-06,2021-09-06,株式会社すずらん,,株式会社,徳島県,板野郡松茂町,笹木野字八北開拓１番地２０１ＢＩＶＲＥＯｆｆｉｃｅ３Ｆ,,36,401,7710219,,,,,,,2021-09-06,1,,,,,スズラン,0
1836,5500001023671,新規,0,2021-09-06,2021-09-06,渡部興産株式会社,,株式会社,愛媛県,新居浜市,山根町４番１４号,,38,205,7920835,,,,,,,2021-09-06,1,,,,,ワタナベコウサン,0
1841,5700150104491,新規,0,2021-09-06,2021-08-19,日本国際クルーズ協議会,,その他,東京都,港区,虎ノ門３丁目１－１０第２虎の門電気ビルディング４階　一般財団法人みなと総合研究財団内,,13,103,1050001,,,,,,,2021-08-19,1,,,,,ニホンコクサイクルーズキヨウギカイ,0
1855,6010001220879,新規,0,2021-09-06,2021-09-06,株式会社ＡＫＩＲＡ　ＣＯＭＰＡＮＹ,,株式会社,東京都,中央区,京橋２丁目１２番９号ＡＣＮ京橋ビル７Ｆ,,13,102,1040031,,,,,,,2021-09-06,1,,,,,アキラカンパニー,0
1856,6010001220929,新規,0,2021-09-06,2021-09-06,株式会社ＯＶＥＲＳＥＡＳ,,株式会社,東京都,中央区,日本橋横山町８番５号日本橋８８ビル３Ｆ,,13,102,1030003,,,,,,,2021-09-06,1,,,,,オーヴァーシーズ,0
1857,6010001220945,新規,0,2021-09-06,2021-09-06,株式会社薄毛の窓口,,株式会社,東京都,中央区,銀座６丁目１３番１６号銀座ＷａｌｌビルＵＣＦ５０１,,13,102,1040061,,,,,,,2021-09-06,1,,,,,ウスゲノマドグチ,0
1858,6010001220961,新規,0,2021-09-06,2021-09-06,ＦＵＮＭＥＤ株式会社,,株式会社,東京都,中央区,日本橋兜町５番１号兜町第１平和ビル３階,,13,102,1030026,,,,,,,2021-09-06,1,,,,,ファンメド,0
1868,6010401162481,新規,0,2021-09-06,2021-09-06,株式会社ひろがれ音楽,,株式会社,東京都,港区,南青山２丁目２番１５号,,13,103,1070062,,,,,,,2021-09-06,1,,,,,ヒロガレオンガク,0
1869,6010401162515,新規,0,2021-09-06,2021-09-06,Ｃｏｎｎｅｋｔ株式会社,,株式会社,東京都,港区,南麻布３丁目２０番１号Ｄａｉｗａ麻布テラス５階,,13,103,1060047,,,,,,,2021-09-06,1,,,,,コネクト,0
1870,6010401162556,新規,0,2021-09-06,2021-09-06,ＡＭＧ株式会社,,株式会社,東京都,港区,西麻布３丁目３番３号,,13,103,1060031,,,,,,,2021-09-06,1,,,,,エーエムジー,0
1872,6010403026065,新規,0,2021-09-06,2021-09-06,合同会社マサエンタープライズ,,合同会社,東京都,港区,新橋６丁目２２－１アイディ新橋３０３,,13,103,1050004,,,,,,,2021-09-06,1,,,,,マサエンタープライズ,0
1878,6010703005925,新規,0,2021-09-06,2021-09-06,合同会社Ｈｏｎｅｓｔ,,合同会社,東京都,品川区,西五反田８丁目８番１４号マンション五反田２０３,,13,109,1410031,,,,,,,2021-09-06,1,,,,,オネスト,0
1881,6010803003878,新規,0,2021-09-06,2021-09-06,合同会社ＮＡＢＥカンパニー,,合同会社,東京都,大田区,南久が原１丁目２０－１７,,13,111,1460084,,,,,,,2021-09-06,1,,,,,ナベカンパニー,0
1883,6010901049360,新規,0,2021-09-06,2021-09-06,株式会社コズミックウィル,,株式会社,東京都,世田谷区,太子堂１丁目１２番２７号コンフォートテラス１００５,,13,112,1540004,,,,,,,2021-09-06,1,,,,,コズミックウィル,0
1894,6011001142634,新規,0,2021-09-06,2021-09-06,株式会社ＬｕＬｕ,,株式会社,東京都,渋谷区,千駄ヶ谷３丁目５１番１０号,,13,113,1510051,,,,,,,2021-09-06,1,,,,,ルル,0
1896,6011005009210,新規,0,2021-09-06,2021-09-06,医療法人社団相誠会,,その他の設立登記法人,東京都,渋谷区,渋谷１丁目２４番７号宮下パークビル２階２０１,,13,113,1500002,,,,,,,2021-09-06,1,,,,,ソウセイカイ,0
1898,6011101096185,新規,0,2021-09-06,2021-09-06,ｂｌｅｎｄ　ｉｎ株式会社,,株式会社,東京都,新宿区,北新宿１丁目２８－１３,,13,104,1690074,,,,,,,2021-09-06,1,,,,,ブレンドイン,0
1901,6011301027147,新規,0,2021-09-06,2021-09-06,株式会社Ｒ．Ｅ．Ｇｒａｃｅ,,株式会社,東京都,杉並区,西荻南２丁目２９番９号,,13,115,1670053,,,,,,,2021-09-06,1,,,,,アールイーグレイス,0
1904,6011601025370,新規,0,2021-09-06,2021-09-06,株式会社Ｋ,,株式会社,東京都,練馬区,上石神井４丁目２８番１４－０１２号,,13,120,1770044,,,,,,,2021-09-06,1,,,,,ケイ,0
1907,6011701024685,新規,0,2021-09-06,2021-09-06,株式会社３Ａｒｒｏｗｓ新船橋ＣＳ,,株式会社,東京都,江戸川区,小松川３丁目４番１号,,13,123,1320034,,,,,,,2021-09-06,1,,,,,スリーアローズシンフナバシシーエス,0
1910,6011801039682,新規,0,2021-09-06,2021-09-06,株式会社ワイズエイト,,株式会社,東京都,足立区,西新井３丁目３番１６号,,13,121,1230841,,,,,,,2021-09-06,1,,,,,ワイズエイト,0
1921,6013301047967,新規,0,2021-09-06,2021-09-06,株式会社ＴＲＩＯ,,株式会社,東京都,豊島区,南大塚３丁目５０番１号ウィンド大塚ビル３階,,13,116,1700005,,,,,,,2021-09-06,1,,,,,トリオ,0
1922,6013305003256,新規,0,2021-09-06,2021-09-06,税理士法人いぶき会計,,その他の設立登記法人,東京都,豊島区,南大塚３丁目３６番７号南大塚Ｔ＆Ｔビル３階,,13,116,1700005,,,,,,,2021-09-06,1,,,,,イブキカイケイ,0
1923,6020001142825,新規,0,2021-09-06,2021-09-06,株式会社スタジオ夏野菜,,株式会社,神奈川県,横浜市港北区,新横浜１丁目２２番地２クリオ新横浜ザ・イースト１１０５,,14,109,2220033,,,,,,,2021-09-06,1,,,,,スタジオナツヤサイ,0
1924,6020001142858,新規,0,2021-09-06,2021-09-06,株式会社ＴＳＵＫＡ　ＧＵＭＩ,,株式会社,神奈川県,横浜市青葉区,荏田西５丁目１２番地９,,14,117,2250014,,,,,,,2021-09-06,1,,,,,ツカグミ,0
1925,6020001142866,新規,0,2021-09-06,2021-09-06,株式会社Ｍ－ｓｔｙｌｅ,,株式会社,神奈川県,川崎市川崎区,東田町１０番地１６高井ビル３階,,14,131,2100005,,,,,,,2021-09-06,1,,,,,エムスタイル,0
1926,6020001142874,新規,0,2021-09-06,2021-09-06,株式会社Ｒａｄｉｏ５２３３,,株式会社,神奈川県,横浜市瀬谷区,瀬谷３丁目１番地７,,14,114,2460031,,,,,,,2021-09-06,1,,,,,ラジオゴーニーサンサン,0
1928,6020003020418,新規,0,2021-09-06,2021-09-06,合同会社蒼星舎,,合同会社,神奈川県,横浜市中区,住吉町６丁目７８－１－１４０６,,14,104,2310013,,,,,,,2021-09-06,1,,,,,ソウセイシャ,0
1929,6020003020434,新規,0,2021-09-06,2021-09-06,聖恩合同会社,,合同会社,神奈川県,横浜市港南区,上大岡西２丁目２－３,,14,111,2330002,,,,,,,2021-09-06,1,,,,,セイオン,0
1930,6020005015192,新規,0,2021-09-06,2021-09-06,特定非営利活動法人ＣＡＩＴ　ＳＩＴＨ,,その他の設立登記法人,神奈川県,横浜市都筑区,中川中央１丁目２４番２さかぐちビル２Ｆ,,14,118,2240003,,,,,,,2021-09-06,1,,,,,ケットシー,0
1932,6021001073861,新規,0,2021-09-06,2021-09-06,株式会社ｋｏｔｉ,,株式会社,神奈川県,逗子市,小坪１丁目３１番１３号,,14,208,2490008,,,,,,,2021-09-06,1,,,,,コティ,0
1933,6021001073878,新規,0,2021-09-06,2021-09-06,株式会社ＦＩＴ　ＥＸＣＥＥＤ,,株式会社,神奈川県,藤沢市,鵠沼松が岡４丁目１７番２０号１０２,,14,205,2510038,,,,,,,2021-09-06,1,,,,,フィットエクシード,0
1936,6021005012287,新規,0,2021-09-06,2021-09-06,ＬＩＮＫ行政書士法人,,その他の設立登記法人,神奈川県,鎌倉市,大船３丁目２番１５号プロシードＥａｓｔⅡ３Ｆ,00124146,14,204,2470056,,,,,,,2021-09-06,1,,,,,リンク,0
1940,6030001144135,新規,0,2021-09-06,2021-09-06,株式会社フリグマ,,株式会社,埼玉県,富士見市,大字水子５０４７番地５,,11,235,3540011,,,,,,,2021-09-06,1,,,,,フリグマ,0
1941,6030001144184,新規,0,2021-09-06,2021-09-06,株式会社相続経営コンサルティング,,株式会社,埼玉県,所沢市,東所沢和田２丁目３１番地の７,,11,208,3590023,,,,,,,2021-09-06,1,,,,,ソウゾクケイエイコンサルティング,0
1942,6030001144201,新規,0,2021-09-06,2021-09-06,株式会社Ｇｏｏｓｅ,,株式会社,埼玉県,所沢市,大字上安松７５０番地の７,,11,208,3590025,,,,,,,2021-09-06,1,,,,,グース,0
1947,6030003017875,新規,0,2021-09-06,2021-09-06,ＬＴＩＪ合同会社,,合同会社,埼玉県,本庄市,前原２丁目４番７号前原ビル３０１,,11,211,3670047,,,,,,,2021-09-06,1,,,,,エルティーアイジェイ,0
1948,6030003017883,新規,0,2021-09-06,2021-09-06,合同会社埼玉総合佐藤貨物運送ＬＬＣ,,合同会社,埼玉県,新座市,石神４丁目７番１６号レッドストック内,,11,230,3520033,,,,,,,2021-09-06,1,,,,,サイタマソウゴウサトウカモツウンソウエルエルシー,0
1949,6030003017900,新規,0,2021-09-06,2021-09-06,合同会社ＢＧＳ,,合同会社,埼玉県,さいたま市大宮区,吉敷町４丁目２４８番地５,,11,103,3300843,,,,,,,2021-09-06,1,,,,,ビージーエス,0
1955,6040001119929,新規,0,2021-09-06,2021-09-06,スマートライフ株式会社,,株式会社,千葉県,八千代市,萱田町１１２０番地８,,12,221,2760044,,,,,,,2021-09-06,1,,,,,スマートライフ,0
1956,6040001120003,新規,0,2021-09-06,2021-09-06,株式会社Ｃｈａｓｅｒ,,株式会社,千葉県,船橋市,飯山満町２丁目４８８番地６グリーンヒル３０２号,,12,204,2740822,,,,,,,2021-09-06,1,,,,,チェイサー,0
1957,6040001120011,新規,0,2021-09-06,2021-09-06,本間工業株式会社,,株式会社,千葉県,市原市,西広２丁目１番地８,,12,219,2900022,,,,,,,2021-09-06,1,,,,,ホンマコウギョウ,0
1958,6040001120036,新規,0,2021-09-06,2021-09-06,Ｈｅｎｇｓｈｕｎｘｉｎ　Ｃｏｒｐｏｒａｔｉｏｎ　Ｊａｐａｎ株式会社,,株式会社,千葉県,千葉市若葉区,みつわ台５丁目１８番１棟２０３号,,12,104,2640032,,,,,,,2021-09-06,1,,,,,ヘンシュンシンコーポレーションジャパン,0
1959,6040001120085,新規,0,2021-09-06,2021-09-06,株式会社ＫＹＡ,,株式会社,千葉県,流山市,おおたかの森北２丁目１６番地の８,,12,220,2700119,,,,,,,2021-09-06,1,,,,,ケイワイエー,0
1963,6040003018435,新規,0,2021-09-06,2021-09-06,合同会社ＴＴ企画,,合同会社,千葉県,千葉市花見川区,幕張町６丁目９２番地５,,12,102,2620032,,,,,,,2021-09-06,1,,,,,ティーティーキカク,0
1964,6040003018451,新規,0,2021-09-06,2021-09-06,ユーピーアスリート合同会社,,合同会社,千葉県,茂原市,千代田町２丁目８番１０号,,12,210,2970023,,,,,,,2021-09-06,1,,,,,ユーピーアスリート,0
1965,6040003018468,新規,0,2021-09-06,2021-09-06,暉暉集団合同会社,,合同会社,千葉県,船橋市,習志野台１丁目１番７号,,12,204,2740063,,,,,,,2021-09-06,1,,,,,キキシュウダン,0
1968,6050001049778,新規,0,2021-09-06,2021-09-06,株式会社根本興業,,株式会社,茨城県,坂東市,岩井４８９７－１,,08,228,3060631,,,,,,,2021-09-06,1,,,,,ネモトコウギョウ,0
1969,6050001049794,新規,0,2021-09-06,2021-09-06,株式会社エムコーポレーション,,株式会社,茨城県,神栖市,柳川２７３０番地３５,,08,232,3140252,,,,,,,2021-09-06,1,,,,,エムコーポレーション,0
1970,6050001049803,新規,0,2021-09-06,2021-09-06,株式会社ＴＯＭＡＴＯ．ＡＨ,,株式会社,茨城県,守谷市,御所ケ丘２丁目１１番地６,,08,224,3020119,,,,,,,2021-09-06,1,,,,,トマトエーエイチ,0
1973,6050003006059,新規,0,2021-09-06,2021-09-06,Ｌａｎｄｈｏｍｅ合同会社,,合同会社,茨城県,守谷市,大柏６５８番地の１,,08,224,3020116,,,,,,,2021-09-06,1,,,,,ランドホーム,0
1978,6060001034044,新規,0,2021-09-06,2021-09-06,バンクス株式会社,,株式会社,栃木県,足利市,葉鹿町１丁目３２番地７,,09,202,3260143,,,,,,,2021-09-06,1,,,,,バンクス,0
1983,6070001038390,新規,0,2021-09-06,2021-09-06,ヒライ工業株式会社,,株式会社,群馬県,館林市,本町２丁目１６番２８号,,10,207,3740024,,,,,,,2021-09-06,1,,,,,ヒライコウギョウ,0
1984,6070001038399,新規,0,2021-09-06,2021-09-06,恵工業株式会社,,株式会社,群馬県,太田市,市場町７４０番地３,,10,205,3730013,,,,,,,2021-09-06,1,,,,,メグミコウギョウ,0
1986,6070003004218,新規,0,2021-09-06,2021-09-06,合同会社ラスワンテック,,合同会社,群馬県,高崎市,並榎町１０６番地６,,10,202,3700802,,,,,,,2021-09-06,1,,,,,ラスワンテック,0
1987,6080001024398,新規,0,2021-09-06,2021-09-06,株式会社しずロボ,,株式会社,静岡県,藤枝市,新南新屋２０番１８号,,22,214,4260073,,,,,,,2021-09-06,1,,,,,シズロボ,0
1988,6080001024431,新規,0,2021-09-06,2021-09-06,株式会社リベラル,,株式会社,静岡県,藤枝市,瀬戸新屋２７０番地の１,,22,214,4260075,,,,,,,2021-09-06,1,,,,,リベラル,0
1989,6080003002633,新規,0,2021-09-06,2021-09-06,合同会社ｃａｒ村,,合同会社,静岡県,牧之原市,波津２丁目７２番地,,22,226,4210523,,,,,,,2021-09-06,1,,,,,カームラ,0
1991,6080101022748,新規,0,2021-09-06,2021-09-06,株式会社クイール,,株式会社,静岡県,伊東市,富戸１０４５番地の１,,22,208,4130231,,,,,,,2021-09-06,1,,,,,クイール,0
1999,6090001017178,新規,0,2021-09-06,2021-09-06,株式会社コンサルティングＳＴ,,株式会社,山梨県,甲州市,勝沼町等々力１６３７番地１,,19,213,4091315,,,,,,,2021-09-06,1,,,,,コンサルティングエスティー,0
2000,6090005007431,新規,0,2021-09-06,2021-09-06,やまなし素材生産事業協同組合,,その他の設立登記法人,山梨県,大月市,大月町花咲３４３番地,,19,206,4010015,,,,,,,2021-09-06,1,,,,,ヤマナシソザイセイサン,0
2004,6100001034584,新規,0,2021-09-06,2021-09-06,株式会社マクレーン工藝舎,,株式会社,長野県,北佐久郡軽井沢町,大字長倉４７０１番地４０,,20,321,3890111,,,,,,,2021-09-06,1,,,,,マクレーンコウゲイシャ,0
2008,6110001036010,新規,0,2021-09-06,2021-09-06,株式会社小関板金,,株式会社,新潟県,北蒲原郡聖籠町,大字大夫５２番地１,,15,307,9570121,,,,,,,2021-09-06,1,,,,,コセキバンキン,0
2009,6110001036019,新規,0,2021-09-06,2021-09-06,株式会社リビバル,,株式会社,新潟県,新潟市中央区,天神１丁目１プラーカ３、２Ｆ,,15,103,9500917,,,,,,,2021-09-06,1,,,,,リビバル,0
2020,6120001240107,新規,0,2021-09-06,2021-09-06,株式会社ＦＡＩＶ,,株式会社,大阪府,大阪市東住吉区,杭全７丁目４番３１号,,27,121,5460002,,,,,,,2021-09-06,1,,,,,ファイブ,0
2025,6120003020135,新規,0,2021-09-06,2021-09-06,合同会社ＰＥＡＣＨ　ＷＩＮＧ,,合同会社,大阪府,大阪市西区,本田３丁目５番３１号,,27,106,5500022,,,,,,,2021-09-06,1,,,,,ピーチウィング,0
2026,6120101064208,新規,0,2021-09-06,2021-09-06,株式会社Ｉ．Ｔ．Ａ．,,株式会社,大阪府,堺市西区,浜寺元町５丁６１６－１（Ａ）,,27,144,5928343,,,,,,,2021-09-06,1,,,,,アイティーエイ,0
2027,6120101064224,新規,0,2021-09-06,2021-09-06,株式会社佐竹製作所,,株式会社,大阪府,和泉市,旭町１５９番地,,27,219,5940000,,,,,,,2021-09-06,1,,,,,,0
2028,6120101064240,新規,0,2021-09-06,2021-09-06,株式会社ＳＡＳ木村設計,,株式会社,大阪府,和泉市,山荘町３丁目２番２２号,,27,219,5940021,,,,,,,2021-09-06,1,,,,,エスエーエスキムラセッケイ,0
2029,6120101064249,新規,0,2021-09-06,2021-09-06,株式会社畑田板金店,,株式会社,大阪府,羽曳野市,野５８６番地の１,,27,222,5830884,,,,,,,2021-09-06,1,,,,,ハタダバンキンテン,0
2030,6120101064257,新規,0,2021-09-06,2021-09-06,株式会社柏原,,株式会社,大阪府,堺市南区,赤坂台４丁８番３号,,27,145,5900144,,,,,,,2021-09-06,1,,,,,カシハラ,0
2031,6120101064265,新規,0,2021-09-06,2021-09-06,Ｂｅａｕｔｙ　Ｐｌｕｓ株式会社,,株式会社,大阪府,堺市東区,西野３８１番地１,,27,143,5998125,,,,,,,2021-09-06,1,,,,,ビューティープラス,0
2032,6120103004327,新規,0,2021-09-06,2021-09-06,合同会社松屋,,合同会社,大阪府,和泉市,太町４１番地の２１,,27,219,5940003,,,,,,,2021-09-06,1,,,,,マツヤ,0
2039,6120901044838,新規,0,2021-09-06,2021-09-06,株式会社ｒｕｒａｌ,,株式会社,大阪府,豊能郡豊能町,光風台１丁目５番地の４,,27,321,5630104,,,,,,,2021-09-06,1,,,,,ルーラル,0
2040,6120901044846,新規,0,2021-09-06,2021-09-06,株式会社カノア,,株式会社,大阪府,摂津市,別府１丁目４番１５号１階,,27,224,5660046,,,,,,,2021-09-06,1,,,,,カノア,0
2041,6120901044854,新規,0,2021-09-06,2021-09-06,株式会社Ｂｅｌｌ,,株式会社,大阪府,吹田市,片山町１丁目３１番２０号,,27,205,5640082,,,,,,,2021-09-06,1,,,,,ベル,0
2042,6120901044862,新規,0,2021-09-06,2021-09-06,株式会社ワタナベプロ,,株式会社,大阪府,池田市,城山町３番３１号,,27,204,5630052,,,,,,,2021-09-06,1,,,,,ワタナベプロ,0
2044,6120903003809,新規,0,2021-09-06,2021-09-06,合同会社９４３,,合同会社,大阪府,高槻市,唐崎中４丁目２３番１０号,,27,207,5690832,,,,,,,2021-09-06,1,,,,,クヨミ,0
2045,6122001035131,新規,0,2021-09-06,2021-09-06,株式会社コマツ工業,,株式会社,大阪府,東大阪市,新町２番３１－６０５号,,27,227,5798037,,,,,,,2021-09-06,1,,,,,コマツコウギョウ,0
2046,6122003002170,新規,0,2021-09-06,2021-09-06,合同会社陽価,,合同会社,大阪府,柏原市,法善寺３丁目４６１番地の６５,,27,221,5820005,,,,,,,2021-09-06,1,,,,,ヨウカ,0
2053,6130001070032,新規,0,2021-09-06,2021-09-06,平建設株式会社,,株式会社,京都府,八幡市,橋本中ノ町３１番地,,26,210,6148341,,,,,,,2021-09-06,1,,,,,タイラケンセツ,0
2054,6130001070049,新規,0,2021-09-06,2021-09-06,株式会社かんなコーポレーション,,株式会社,京都府,京都市左京区,下鴨水口町６０番地７,,26,103,6060843,,,,,,,2021-09-06,1,,,,,カンナコーポレーション,0
2055,6130001070065,新規,0,2021-09-06,2021-09-06,株式会社ＲＯＹＡＬ,,株式会社,京都府,京都市上京区,河原町通東入る宮垣町９１－１０２,,26,102,6020000,,,,,,,2021-09-06,1,,,,,ロイヤル,0
2056,6130003007461,新規,0,2021-09-06,2021-09-06,合同会社ＥＨＩＱＵ,,合同会社,京都府,京都市山科区,椥辻中在家町２８番地３５０,00124143,26,110,6078161,,,,,,,2021-09-06,1,,,,,エヒク,0
2061,6140001122897,新規,0,2021-09-06,2021-09-06,株式会社森元工務店,,株式会社,兵庫県,佐用郡佐用町,大木谷１２２番地１,,28,501,6795314,,,,,,,2021-09-06,1,,,,,モリモトコウムテン,0
2062,6140001122914,新規,0,2021-09-06,2021-09-06,株式会社ＳＫＹ,,株式会社,兵庫県,姫路市,本町１２７番地大手前ダイネンＢＬＤⅡ３階,00124126,28,201,6700012,,,,,,,2021-09-06,1,,,,,エスケイワイ,0
2063,6140001122930,新規,0,2021-09-06,2021-09-06,株式会社悠真組,,株式会社,兵庫県,尼崎市,若王寺３丁目８番２０号,,28,202,6610974,,,,,,,2021-09-06,1,,,,,ユウシングミ,0
2064,6140001122939,新規,0,2021-09-06,2021-09-06,株式会社ＬｉＶＥＳ,,株式会社,兵庫県,明石市,大久保町江井島８９８番地の１,,28,203,6740064,,,,,,,2021-09-06,1,,,,,ライブズ,0
2065,6140001122947,新規,0,2021-09-06,2021-09-06,株式会社ペトラジャパン,,株式会社,兵庫県,西宮市,山口町船坂字田ノ尻８番地,,28,204,6511423,,,,,,,2021-09-06,1,,,,,ペトラジャパン,0
2073,6140005025799,新規,0,2021-09-06,2021-09-06,チャレンジ行政書士法人,,その他の設立登記法人,兵庫県,尼崎市,南塚口町１丁目７番８号イトービル２０３号室,,28,202,6610012,,,,,,,2021-09-06,1,,,,,チャレンジ,0
2076,6160001023615,新規,0,2021-09-06,2021-09-06,浅井内装株式会社,,株式会社,滋賀県,犬上郡豊郷町,大字下枝３４番地１５,,25,441,5291174,,,,,,,2021-09-06,1,,,,,アサイナイソウ,0
2089,6180001147643,新規,0,2021-09-06,2021-09-06,Ｓａｃｒｅｄ　Ｃａｒｔｅｌ株式会社,,株式会社,愛知県,名古屋市中区,新栄１丁目１１番１４号５階ＡＢ号室,,23,106,4600007,,,,,,,2021-09-06,1,,,,,セイクレッドカルテル,0
2090,6180001147668,新規,0,2021-09-06,2021-09-06,株式会社Ｂａｇｕｓ,,株式会社,愛知県,東海市,加木屋町高見８０番地の１１,,23,222,4770032,,,,,,,2021-09-06,1,,,,,バグース,0
2091,6180001147692,新規,0,2021-09-06,2021-09-06,株式会社トーカイテクノス,,株式会社,愛知県,東海市,大田町細田１８３番地の１,,23,222,4770031,,,,,,,2021-09-06,1,,,,,トーカイテクノス,0
2092,6180001147734,新規,0,2021-09-06,2021-09-06,オリオール株式会社,,株式会社,愛知県,江南市,古知野町日の出９６番地１,,23,217,4838214,,,,,,,2021-09-06,1,,,,,オリオール,0
2093,6180001147742,新規,0,2021-09-06,2021-09-06,株式会社ＤｅＳＩＲＥ,,株式会社,愛知県,名古屋市中村区,名駅４丁目３番１０号,,23,105,4500002,,,,,,,2021-09-06,1,,,,,デザイア,0
2097,6180003022927,新規,0,2021-09-06,2021-09-06,合同会社ダンク,,合同会社,愛知県,瀬戸市,西十三塚町５３番地２,,23,204,4890057,,,,,,,2021-09-06,1,,,,,ダンク,0
2099,6180301035325,新規,0,2021-09-06,2021-09-06,ＳＡＮ・ＡＩ‐ＮＢ株式会社,,株式会社,愛知県,刈谷市,野田新町２丁目２０５番地,,23,210,4480862,,,,,,,2021-09-06,1,,,,,サンアイエヌビー,0
2108,6200001039078,新規,0,2021-09-06,2021-09-06,株式会社ＫＯＺＵ,,株式会社,岐阜県,高山市,花岡町１丁目７番地５,,21,203,5060009,,,,,,,2021-09-06,1,,,,,コズ,0
2109,6200001039103,新規,0,2021-09-06,2021-09-06,株式会社ＲＯＫＵＲＯ　ＷＯＲＫＳ,,株式会社,岐阜県,土岐市,土岐津町高山４００番地の５,,21,212,5095121,,,,,,,2021-09-06,1,,,,,ロクロワークス,0
2113,6220001024400,新規,0,2021-09-06,2021-09-06,株式会社Ｑｕａｒｔｚ,,株式会社,石川県,河北郡内灘町,字鶴ケ丘２丁目１６１番地１,,17,365,9200271,,,,,,,2021-09-06,1,,,,,クウォーツ,0
2115,6230005009165,新規,0,2021-09-06,2021-09-06,医療法人社団砂田歯科医院,,その他の設立登記法人,富山県,富山市,犬島７丁目１３－５,,16,201,9318321,,,,,,,2021-09-06,1,,,,,スナダシカイイン,0
2125,6250001019091,新規,0,2021-09-06,2021-09-06,株式会社長田商事,,株式会社,山口県,下関市,長府才川１丁目３７番２号プラシードⅠ２０３号,00124140,35,201,7520928,,,,,,,2021-09-06,1,,,,,ナガタショウジ,0
2126,6250001019100,新規,0,2021-09-06,2021-09-06,ソリッド株式会社,,株式会社,山口県,下松市,潮音町５丁目２番１号,,35,207,7440074,,,,,,,2021-09-06,1,,,,,ソリッド,0
2128,6250003002888,新規,0,2021-09-06,2021-09-06,合同会社カナイ,,合同会社,山口県,下松市,青柳１丁目５番６号,,35,207,7440004,,,,,,,2021-09-06,1,,,,,カナイ,0
2139,6260003003670,新規,0,2021-09-06,2021-09-06,合同会社藍みらい,,合同会社,岡山県,倉敷市,児島上の町４丁目１９番４０号,,33,202,7110907,,,,,,,2021-09-06,1,,,,,アイミライ,0
2145,6290001094387,新規,0,2021-09-06,2021-09-06,ＬＩＦＥ　ＡＮＩＭＡＴＯ株式会社,,株式会社,福岡県,福岡市博多区,博多駅東３丁目９番２６－８０２号,,40,132,8120013,,,,,,,2021-09-06,1,,,,,ライフアニマート,0
2146,6290001094404,新規,0,2021-09-06,2021-09-06,株式会社あすなろキッチン,,株式会社,福岡県,福岡市中央区,薬院４丁目１１－１１－６０３号,,40,133,8100022,,,,,,,2021-09-06,1,,,,,アスナロキッチン,0
2147,6290001094461,新規,0,2021-09-06,2021-09-06,株式会社ＯＧＳＩＣファーム,,株式会社,福岡県,みやま市,山川町河原内１４３８番地,,40,229,8350104,,,,,,,2021-09-06,1,,,,,オグシックファーム,0
2148,6290001094478,新規,0,2021-09-06,2021-09-06,株式会社カントリーベア,,株式会社,福岡県,飯塚市,綱分６１６－６,,40,205,8200101,,,,,,,2021-09-06,1,,,,,カントリーベア,0
2149,6290001094528,新規,0,2021-09-06,2021-09-06,不二石油販売株式会社,,株式会社,福岡県,筑後市,大字山ノ井９８３番地５,,40,211,8330031,,,,,,,2021-09-06,1,,,,,フジセキユハンバイ,0
2157,6290801027752,新規,0,2021-09-06,2021-09-06,株式会社Ｆｒｅｅ　ＷｏｒｋｅｒＳ,,株式会社,福岡県,北九州市八幡西区,折尾５丁目５番２７号１Ｆ,,40,109,8070825,,,,,,,2021-09-06,1,,,,,フリーワカーズ,0
2158,6290801027769,新規,0,2021-09-06,2021-09-06,ダイキューパレット運輸株式会社,,株式会社,福岡県,宮若市,小伏８番地３株式会社福トラ物流内,,40,226,8220132,,,,,,,2021-09-06,1,,,,,ダイキューパレットウンユ,0
2160,6310001017452,新規,0,2021-09-06,2021-09-06,株式会社ルシール,,株式会社,長崎県,長崎市,中川２丁目２番３－６０１号,,42,201,8500013,,,,,,,2021-09-06,1,,,,,ルシール,0
2176,6330005010393,新規,0,2021-09-06,2021-09-06,税理士法人イクシード,,その他の設立登記法人,熊本県,熊本市南区,御幸笛田１丁目２番３０号,,43,104,8614172,,,,,,,2021-09-06,1,,,,,イクシード,0
2181,6340001024025,新規,0,2021-09-06,2021-09-06,株式会社アクアリンクジャパン,,株式会社,鹿児島県,鹿屋市,旭原町３５９８番地３,,46,203,8930022,,,,,,,2021-09-06,1,,,,,アクアリンクジャパン,0
2182,6340001024066,新規,0,2021-09-06,2021-09-06,株式会社フレア,,株式会社,鹿児島県,鹿児島市,川上町１７５９番地１,,46,201,8920875,,,,,,,2021-09-06,1,,,,,フレア,0
2183,6340001024082,新規,0,2021-09-06,2021-09-06,ＴＸコンサルティング株式会社,,株式会社,鹿児島県,鹿児島市,高麗町１４番１号,,46,201,8900051,,,,,,,2021-09-06,1,,,,,ティーエックスコンサルティング,0
2184,6340003003539,新規,0,2021-09-06,2021-09-06,合同会社東雲空調設備,,合同会社,鹿児島県,鹿児島市,玉里団地１丁目６７番１４号,,46,201,8900011,,,,,,,2021-09-06,1,,,,,シノノメクウチョウセツビ,0
2185,6340003003547,新規,0,2021-09-06,2021-09-06,鹿児島総合事務所合同会社,,合同会社,鹿児島県,鹿児島市,下荒田４丁目１５番１２号,,46,201,8900056,,,,,,,2021-09-06,1,,,,,カゴシマソウゴウジムショ,0
2190,6360001029328,新規,0,2021-09-06,2021-09-06,ＢＬＯ株式会社,,株式会社,沖縄県,中頭郡北谷町,字吉原７９２番地３４,,47,326,9040105,,,,,,,2021-09-06,1,,,,,ビーエルオー,0
2191,6360001029336,新規,0,2021-09-06,2021-09-06,株式会社ＡｕｔｏＬｏｏｐ,,株式会社,沖縄県,沖縄市,比屋根６丁目４番６号,,47,211,9042173,,,,,,,2021-09-06,1,,,,,オートループ,0
2194,6370005010340,新規,0,2021-09-06,2021-09-06,ｔｅｔｏｔｅ行政書士法人,,その他の設立登記法人,宮城県,仙台市青葉区,上杉１丁目７－２８ロイヤルヒルズ上杉３０３号,,04,101,9800011,,,,,,,2021-09-06,1,,,,,テトテギョウセイショシホウジン,0
2200,6390005008911,新規,0,2021-09-06,2021-09-06,社会保険労務士法人ＴＹ労務管理事務所,,その他の設立登記法人,山形県,東村山郡中山町,大字長崎２２７９番地,,06,302,9900401,,,,,,,2021-09-06,1,,,,,ティーワイロウムカンリジムショ,0
2204,6410001012947,新規,0,2021-09-06,2021-09-06,株式会社加藤,,株式会社,秋田県,仙北市,田沢湖生保内字船場７３番地,,05,215,0141201,,,,,,,2021-09-06,1,,,,,カトウ,0
2211,6460303000736,新規,0,2021-09-06,2021-09-06,大和合同会社,,合同会社,北海道,網走郡美幌町,字報徳１３１番地５,,01,543,0920017,,,,,,,2021-09-06,1,,,,,ヤマト,0
2213,6470003002024,新規,0,2021-09-06,2021-09-06,合同会社ＳＯＲＡ,,合同会社,香川県,高松市,藤塚町１丁目１０番３０号,,37,201,7600071,,,,,,,2021-09-06,1,,,,,ソラ,0
2215,6480001011471,新規,0,2021-09-06,2021-09-06,株式会社幸集,,株式会社,徳島県,徳島市,名東町２丁目５４９番地,,36,201,7700047,,,,,,,2021-09-06,1,,,,,コウシュウ,0
2231,7010001220928,新規,0,2021-09-06,2021-09-06,株式会社ＰＡＳＯＲＡ,,株式会社,東京都,中央区,湊２丁目１２番７－６０５号,,13,102,1040043,,,,,,,2021-09-06,1,,,,,パソラ,0
2232,7010001220960,新規,0,2021-09-06,2021-09-06,株式会社ＢＲＡＶＥ　ＣＨＩＣＫＥＮ,,株式会社,東京都,中央区,月島１丁目２２番１－１７１３号,,13,102,1040052,,,,,,,2021-09-06,1,,,,,ブレイブチキン,0
2233,7010003035713,新規,0,2021-09-06,2021-09-06,ＶＥＲＥＤ１合同会社,,合同会社,東京都,中央区,八丁堀４丁目２番１０号ＡＯＪ税理士法人内,,13,102,1040032,,,,,,,2021-09-06,1,,,,,ヴェレッドワン,0
2234,7010005033905,新規,0,2021-09-06,2021-09-06,特定非営利活動法人まほろび,,その他の設立登記法人,東京都,中央区,日本橋富沢町８番１０号,,13,102,1030006,,,,,,,2021-09-06,1,,,,,マホロビ,0
2245,7010401162497,新規,0,2021-09-06,2021-09-06,株式会社Ｋ’ｓプランニング,,株式会社,東京都,港区,高輪３丁目１４番３３号プラチナハウス高輪６０２号室,,13,103,1080074,,,,,,,2021-09-06,1,,,,,ケーズプランニング,0
2246,7010401162506,新規,0,2021-09-06,2021-09-06,株式会社エムワイビジョン,,株式会社,東京都,港区,北青山３丁目６番７号青山パラシオタワー１１階,,13,103,1070061,,,,,,,2021-09-06,1,,,,,エムワイビジョン,0
2247,7010401162514,新規,0,2021-09-06,2021-09-06,株式会社Ａｐｏｌｌｏ,,株式会社,東京都,港区,六本木３丁目９番５号ゼックスバウム館３０１,,13,103,1060032,,,,,,,2021-09-06,1,,,,,アポロ,0
2248,7010401162539,新規,0,2021-09-06,2021-09-06,Ｔｏｐ　Ｗｉｎｇ株式会社,,株式会社,東京都,港区,六本木３丁目１４番１４号ＶＯＲＴ六本木７Ｆ,,13,103,1060032,,,,,,,2021-09-06,1,,,,,トップウィング,0
2249,7010401162547,新規,0,2021-09-06,2021-09-06,株式会社ＨＭメディカルサービス,,株式会社,東京都,港区,赤坂２丁目七番七号,,13,103,1070052,,,,,,,2021-09-06,1,,,,,エイチエムメディカルサービス,0
2250,7010403026056,新規,0,2021-09-06,2021-09-06,合同会社ＩＣＥ１号,,合同会社,東京都,港区,南青山６丁目２番９号ＫＳビル２Ｆ,,13,103,1070062,,,,,,,2021-09-06,1,,,,,アイスイチゴウ,0
2251,7010403026064,新規,0,2021-09-06,2021-09-06,合同会社ＢＨ山梨甲斐,,合同会社,東京都,港区,赤坂２丁目１６番８号,,13,103,1070052,,,,,,,2021-09-06,1,,,,,ビーエイチヤマナシカイ,0
2259,7010601059881,新規,0,2021-09-06,2021-09-06,株式会社アシスト,,株式会社,東京都,墨田区,両国４丁目３４番１３－７０１号,,13,107,1300026,,,,,,,2021-09-06,1,,,,,アシスト,0
2260,7010601059898,新規,0,2021-09-06,2021-09-06,株式会社Ｄａｙ’ｓ　ｅｙｅ,,株式会社,東京都,江東区,南砂２丁目２８番地３－９０２,,13,108,1360076,,,,,,,2021-09-06,1,,,,,デイズアイ,0
2262,7010701041450,新規,0,2021-09-06,2021-09-06,Ｄｈｕｍａ株式会社,,株式会社,東京都,品川区,大井４丁目１３番１６－５号,,13,109,1400014,,,,,,,2021-09-06,1,,,,,ドゥマ,0
2269,7010803003877,新規,0,2021-09-06,2021-09-06,合同会社コロンバージュ,,合同会社,東京都,大田区,西馬込１丁目２６番１５号,,13,111,1430026,,,,,,,2021-09-06,1,,,,,コロンバージュ,0
2271,7010901049368,新規,0,2021-09-06,2021-09-06,アセンションアイ株式会社,,株式会社,東京都,世田谷区,玉堤１丁目５番２１号,,13,112,1580087,,,,,,,2021-09-06,1,,,,,アセンションアイ,0
2272,7010901049376,新規,0,2021-09-06,2021-09-06,ＥＴＯＮＥ株式会社,,株式会社,東京都,世田谷区,池尻２丁目４番５号,,13,112,1540001,,,,,,,2021-09-06,1,,,,,エトネ,0
2273,7010901049392,新規,0,2021-09-06,2021-09-06,株式会社ｍ．ｆａｒｍ,,株式会社,東京都,世田谷区,深沢３丁目２６番３号ナチュレ深沢２０５,,13,112,1580081,,,,,,,2021-09-06,1,,,,,エムドットファーム,0
2276,7011001142550,新規,0,2021-09-06,2021-09-06,株式会社ＭａＶｉｅ,,株式会社,東京都,渋谷区,渋谷２丁目７番１３号ネオメット青山３階,,13,113,1500002,,,,,,,2021-09-06,1,,,,,メヴィ,0
2277,7011001142591,新規,0,2021-09-06,2021-09-06,株式会社コミュニティクリエーション,,株式会社,東京都,渋谷区,千駄ヶ谷４丁目３番１１号ニューベリー千駄ヶ谷Ｂ１Ｆ,,13,113,1510051,,,,,,,2021-09-06,1,,,,,コミュニティクリエーション,0
2278,7011001142609,新規,0,2021-09-06,2021-09-06,株式会社Ｒｅａｌｉｚｅ,,株式会社,東京都,渋谷区,神宮前６丁目２３番４号桑野ビル２階,,13,113,1500001,,,,,,,2021-09-06,1,,,,,リアライズ,0
2279,7011005009201,新規,0,2021-09-06,2021-09-06,一般社団法人ジェンダー総合研究所,,その他の設立登記法人,東京都,渋谷区,幡ヶ谷２丁目２番１８－５０４号,,13,113,1510072,,,,,,,2021-09-06,1,,,,,ジェンダーソウゴウケンキュウショ,0
2281,7011103010985,新規,0,2021-09-06,2021-09-06,合同会社サーノ,,合同会社,東京都,新宿区,横寺町４番地２,,13,104,1620831,,,,,,,2021-09-06,1,,,,,サーノ,0
2282,7011103010993,新規,0,2021-09-06,2021-09-06,合同会社北陸エレテックホールディングス,,合同会社,東京都,新宿区,下宮比町１番４号,,13,104,1620822,,,,,,,2021-09-06,1,,,,,ホクリクエレテックホールディングス,0
2285,7011301027146,新規,0,2021-09-06,2021-09-06,株式会社メイミー,,株式会社,東京都,杉並区,松庵３丁目２５番３号,,13,115,1670054,,,,,,,2021-09-06,1,,,,,メイミー,0
2286,7011401023648,新規,0,2021-09-06,2021-09-06,株式会社ＣＲＯＳＳ　ＳＴＹＬＥ,,株式会社,東京都,板橋区,徳丸７丁目６番１２－７０３号,,13,119,1750083,,,,,,,2021-09-06,1,,,,,クロススタイル,0
2288,7011501027276,新規,0,2021-09-06,2021-09-06,株式会社Ａｕｔｈｏｒ,,株式会社,東京都,北区,赤羽１丁目７番９号赤羽第一葉山ビル４階,,13,117,1150045,,,,,,,2021-09-06,1,,,,,オーサー,0
2294,7011701024684,新規,0,2021-09-06,2021-09-06,アミカル人材紹介株式会社,,株式会社,東京都,江戸川区,松江３丁目７番地６号,,13,123,1320025,,,,,,,2021-09-06,1,,,,,アミカルジンザイショウカイ,0
2300,7011801039665,新規,0,2021-09-06,2021-09-06,株式会社Ｏｆｆｉｃｅゼファー,,株式会社,東京都,足立区,本木東町７－２,,13,121,1230854,,,,,,,2021-09-06,1,,,,,オフィスゼファー,0
2304,7012401038272,新規,0,2021-09-06,2021-09-06,株式会社ＫＳＩ総合設備,,株式会社,東京都,調布市,佐須町４丁目５８番地７,,13,208,1820016,,,,,,,2021-09-06,1,,,,,ケーエスアイソウゴウセツビ,0
2306,7012701016647,新規,0,2021-09-06,2021-09-06,Ｌｌａｎｄａｆｆ　Ｃｒｅａｔｅ株式会社,,株式会社,東京都,東村山市,栄町１丁目１１番地３,,13,213,1890013,,,,,,,2021-09-06,1,,,,,ランダフクリエイト,0
2307,7012703002298,新規,0,2021-09-06,2021-09-06,合同会社Ｃｏａｔｉｎｇ　Ｓｈｏｐ　Ｒａｉｓｅ,,合同会社,東京都,小平市,天神町４丁目２８－１５,,13,211,1870004,,,,,,,2021-09-06,1,,,,,コーティングショップレイズ,0
2308,7012703002307,新規,0,2021-09-06,2021-09-06,合同会社Ｙリバーサル,,合同会社,東京都,小平市,たかの台４０番１０－１号,,13,211,1870024,,,,,,,2021-09-06,1,,,,,ワイリバーサル,0
2315,7013301047974,新規,0,2021-09-06,2021-09-06,スタッフサポート株式会社,,株式会社,東京都,豊島区,南池袋１丁目１６番１５号ダイヤゲート池袋,,13,116,1710022,,,,,,,2021-09-06,1,,,,,スタッフサポート,0
2316,7013305003255,新規,0,2021-09-06,2021-09-06,社会保険労務士法人いぶき,,その他の設立登記法人,東京都,豊島区,南大塚３丁目３６番７号南大塚Ｔ＆Ｔビル３階,,13,116,1700005,,,,,,,2021-09-06,1,,,,,イブキ,0
2333,7020003020433,新規,0,2021-09-06,2021-09-06,合同会社三和本橋鉄工運輸,,合同会社,神奈川県,川崎市川崎区,藤崎３丁目５番１号,,14,131,2100804,,,,,,,2021-09-06,1,,,,,サンワモトハシテッコウウンユ,0
2343,7030001144150,新規,0,2021-09-06,2021-09-06,フィーカ株式会社,,株式会社,埼玉県,上尾市,浅間台４丁目５番地１３,,11,219,3620073,,,,,,,2021-09-06,1,,,,,フィーカ,0
2344,7030001144159,新規,0,2021-09-06,2021-09-06,株式会社新都市開発,,株式会社,埼玉県,さいたま市大宮区,仲町２丁目２５番地,,11,103,3300845,,,,,,,2021-09-06,1,,,,,シントシカイハツ,0
2345,7030001144167,新規,0,2021-09-06,2021-09-06,株式会社Ｌａ　Ｂｌａｎｃｈｅ,,株式会社,埼玉県,さいたま市大宮区,大門町１丁目１８番地キムラヤビル４階,,11,103,3300846,,,,,,,2021-09-06,1,,,,,ラブランシュ,0
2346,7030001144175,新規,0,2021-09-06,2021-09-06,株式会社Ｇｒｏｗ　ｕｐ,,株式会社,埼玉県,さいたま市南区,文蔵４丁目２８番１１号ラピュタ２・３０１,,11,108,3360025,,,,,,,2021-09-06,1,,,,,グローアップ,0
2347,7030001144183,新規,0,2021-09-06,2021-09-06,株式会社大森ホールディングス,,株式会社,埼玉県,越谷市,大字西方２７６１番地,,11,222,3430822,,,,,,,2021-09-06,1,,,,,オオモリホールディングス,0
2348,7030001144209,新規,0,2021-09-06,2021-09-06,コスモスエステート株式会社,,株式会社,埼玉県,川口市,戸塚南２丁目２２番１４号,,11,203,3330817,,,,,,,2021-09-06,1,,,,,コスモスエステート,0
2349,7030001144225,新規,0,2021-09-06,2021-09-06,株式会社キューブジャパン,,株式会社,埼玉県,飯能市,大字中藤下郷４２０－１,,11,209,3570123,,,,,,,2021-09-06,1,,,,,キューブジャパン,0
2351,7030003017899,新規,0,2021-09-06,2021-09-06,合同会社キムラテック,,合同会社,埼玉県,蕨市,南町４丁目７－６,,11,223,3350003,,,,,,,2021-09-06,1,,,,,キムラテック,0
2352,7030003017908,新規,0,2021-09-06,2021-09-06,合同会社Ｂｅｓｔ　Ｐｏｔｅｎｔｉａｌ,,合同会社,埼玉県,八潮市,大字垳３２４番地２,,11,234,3400824,,,,,,,2021-09-06,1,,,,,ベストポテンシャル,0
2353,7030003017916,新規,0,2021-09-06,2021-09-06,合同会社プランエヌ,,合同会社,埼玉県,桶川市,若宮１丁目４番３０－１００１号,,11,231,3630022,,,,,,,2021-09-06,1,,,,,プランエヌ,0
2360,7040001120027,新規,0,2021-09-06,2021-09-06,株式会社ＮＡＬＵ,,株式会社,千葉県,柏市,若柴２７６番地１中央１５６街区１,,12,217,2770871,,,,,,,2021-09-06,1,,,,,ナル,0
2361,7040001120068,新規,0,2021-09-06,2021-09-06,株式会社翔建,,株式会社,千葉県,浦安市,堀江３丁目２７番２０－３０６号,,12,227,2790041,,,,,,,2021-09-06,1,,,,,ショウケン,0
2362,7040001120084,新規,0,2021-09-06,2021-09-06,株式会社ａｔＧＡＬＬＥＲＹ,,株式会社,千葉県,松戸市,二十世紀が丘戸山町８１－９,,12,207,2710082,,,,,,,2021-09-06,1,,,,,アットギャラリー,0
2367,7040003018442,新規,0,2021-09-06,2021-09-06,合同会社琉進,,合同会社,千葉県,千葉市若葉区,桜木６丁目２１番４号グランアルシュⅠ２０３号,00124135,12,104,2640028,,,,,,,2021-09-06,1,,,,,リュウシン,0
2368,7040003018450,新規,0,2021-09-06,2021-09-06,合同会社ＪＯＢ－ＪＯＹ,,合同会社,千葉県,柏市,みどり台３丁目２６番１５号,,12,217,2770884,,,,,,,2021-09-06,1,,,,,ジョブジョイ,0
2369,7040003018459,新規,0,2021-09-06,2021-09-06,合同会社エヌユー不動産,,合同会社,千葉県,香取郡神崎町,今１２番地,,12,342,2890205,,,,,,,2021-09-06,1,,,,,エヌユーフドウサン,0
2371,7050001049785,新規,0,2021-09-06,2021-09-06,株式会社内藤建築,,株式会社,茨城県,鹿嶋市,大字猿田２５２番地１,,08,222,3140044,,,,,,,2021-09-06,1,,,,,ナイトウケンチク,0
2372,7050001049810,新規,0,2021-09-06,2021-09-06,株式会社ＳＫコーポレーション,,株式会社,茨城県,日立市,東大沼町１丁目４番５４号,,08,202,3160023,,,,,,,2021-09-06,1,,,,,エスケイコーポレーション,0
2373,7050001049819,新規,0,2021-09-06,2021-09-06,株式会社ＶＩＮＵＷＩＮ　ＩＮＴＥＲＮＡＴＩＯＮＡＬ,,株式会社,茨城県,土浦市,板谷１丁目７５番地４,,08,203,3000007,,,,,,,2021-09-06,1,,,,,ヴィヌウィンインターナショナル,0
2376,7050003006058,新規,0,2021-09-06,2021-09-06,合同会社ルミエール,,合同会社,茨城県,古河市,北町４番２７号ルネ古河若葉８０５,,08,204,3060005,,,,,,,2021-09-06,1,,,,,ルミエール,0
2381,7070001038398,新規,0,2021-09-06,2021-09-06,シェアフィールドホールディングス株式会社,,株式会社,群馬県,伊勢崎市,境三ツ木２２１番地１２,,10,204,3700113,,,,,,,2021-09-06,1,,,,,シェアフィールドホールディングス,0
2385,7080001024430,新規,0,2021-09-06,2021-09-06,株式会社ブルースカイ,,株式会社,静岡県,藤枝市,高洲４４番地の２１,,22,214,4260046,,,,,,,2021-09-06,1,,,,,ブルースカイ,0
2387,7080101022747,新規,0,2021-09-06,2021-09-06,Ｄａｔｍｙ株式会社,,株式会社,静岡県,富士市,中野５５８番地の４１,,22,210,4170809,,,,,,,2021-09-06,1,,,,,ダットミィー,0
2388,7080101022755,新規,0,2021-09-06,2021-09-06,株式会社ＴＡＫＥ,,株式会社,静岡県,沼津市,植田１１８番地の１,,22,203,4100316,,,,,,,2021-09-06,1,,,,,タケ,0
2391,7080401025318,新規,0,2021-09-06,2021-09-06,株式会社ＯＣＡ　ＪＡＰＡＮ,,株式会社,静岡県,浜松市中区,富塚町１９３３－１佐鳴湖パークタウンサウス２Ｆ,,22,131,4328002,,,,,,,2021-09-06,1,,,,,オカジャパン,0
2394,7090001017177,新規,0,2021-09-06,2021-09-06,株式会社中川機械,,株式会社,山梨県,韮崎市,藤井町北下條１５２３番地９,,19,207,4070003,,,,,,,2021-09-06,1,,,,,,0
2396,7090003001939,新規,0,2021-09-06,2021-09-06,飯沼興業合同会社,,合同会社,山梨県,笛吹市,春日居町熊野堂２３０番地１０,,19,211,4060012,,,,,,,2021-09-06,1,,,,,イイヌマコウギョウ,0
2397,7090005007430,新規,0,2021-09-06,2021-09-06,医療法人さおり皮ふ科クリニック,,その他の設立登記法人,山梨県,韮崎市,若宮２丁目９－４７,,19,207,4070015,,,,,,,2021-09-06,1,,,,,サオリヒフカクリニック,0
2404,7110001036001,新規,0,2021-09-06,2021-09-06,株式会社ＲＣ,,株式会社,新潟県,長岡市,美沢２丁目２４番地６,,15,202,9400856,,,,,,,2021-09-06,1,,,,,アールシー,0
2423,7120001240205,新規,0,2021-09-06,2021-09-06,あさぎ株式会社,,株式会社,大阪府,大阪市中央区,島之内２丁目４－１６－１１０,,27,128,5420082,,,,,,,2021-09-06,1,,,,,アサギ,0
2425,7120003020159,新規,0,2021-09-06,2021-09-06,ＲＡＩＮＢＯＷ合同会社,,合同会社,大阪府,大阪市浪速区,元町２丁目７番１号,,27,111,5560016,,,,,,,2021-09-06,1,,,,,レインボー,0
2426,7120003020167,新規,0,2021-09-06,2021-09-06,ロバステム合同会社,,合同会社,大阪府,大阪市北区,中崎西４丁目３－３２タカ大阪梅田ビル１１階,,27,127,5300015,,,,,,,2021-09-06,1,,,,,ロバステム,0
2428,7120101064231,新規,0,2021-09-06,2021-09-06,神輝株式会社,,株式会社,大阪府,阪南市,下出９９番地３（２Ｆ）,,27,232,5990202,,,,,,,2021-09-06,1,,,,,コウキ,0
2429,7120101064256,新規,0,2021-09-06,2021-09-06,株式会社Ｓ．Ｇｒｏｗ　ｃｏｍｐａｎｙ,,株式会社,大阪府,大阪狭山市,大野東７９番地の３８,,27,231,5890014,,,,,,,2021-09-06,1,,,,,エスグローカンパニー,0
2430,7120101064264,新規,0,2021-09-06,2021-09-06,株式会社ミクニプランニング,,株式会社,大阪府,堺市堺区,大町西１丁２番５－３０２号,,27,141,5900959,,,,,,,2021-09-06,1,,,,,ミクニプランニング,0
2432,7120103004326,新規,0,2021-09-06,2021-09-06,茅乃杜合同会社,,合同会社,大阪府,堺市東区,高松３２３番地,,27,143,5998121,,,,,,,2021-09-06,1,,,,,カヤノモリ,0
2437,7120901044853,新規,0,2021-09-06,2021-09-06,株式会社ＯＮＥ　ＬＩＦＥ,,株式会社,大阪府,豊中市,上新田４丁目３番３１号,,27,203,5600085,,,,,,,2021-09-06,1,,,,,ワンライフ,0
2438,7122001035147,新規,0,2021-09-06,2021-09-06,株式会社伊賀電機工業所,,株式会社,大阪府,東大阪市,川田３丁目１０番２９号,,27,227,5780905,,,,,,,2021-09-06,1,,,,,イガデンキコウギョウショ,0
2447,7130001070064,新規,0,2021-09-06,2021-09-06,株式会社トラストリンク,,株式会社,京都府,京都市右京区,西京極殿田町１２－３－２０２,,26,108,6150834,,,,,,,2021-09-06,1,,,,,トラストリンク,0
2448,7130003007452,新規,0,2021-09-06,2021-09-06,合同会社繋映,,合同会社,京都府,京都市右京区,梅津後藤町２さとう３－５０５,,26,108,6150933,,,,,,,2021-09-06,1,,,,,ケイエイ,0
2459,7140001122905,新規,0,2021-09-06,2021-09-06,株式会社今昔物語,,株式会社,兵庫県,加古郡稲美町,中村１３１１番地,,28,381,6751122,,,,,,,2021-09-06,1,,,,,コンジャクモノガタリ,0
2460,7140001122913,新規,0,2021-09-06,2021-09-06,株式会社ミッドウエスト管理,,株式会社,兵庫県,神戸市中央区,中山手通７丁目１３番１０号,,28,110,6500004,,,,,,,2021-09-06,1,,,,,ミッドウエストカンリ,0
2461,7140001122970,新規,0,2021-09-06,2021-09-06,株式会社キョウリキ,,株式会社,兵庫県,神戸市中央区,海岸通４丁目１番７－１００３号,,28,110,6500024,,,,,,,2021-09-06,1,,,,,キョウリキ,0
2472,7170001016765,新規,0,2021-09-06,2021-09-06,株式会社信新商事,,株式会社,和歌山県,伊都郡かつらぎ町,大字窪３６８,,30,341,6497164,,,,,,,2021-09-06,1,,,,,シンシンショウジ,0
2477,7180001147675,新規,0,2021-09-06,2021-09-06,株式会社アルティア,,株式会社,愛知県,名古屋市緑区,滝ノ水２丁目６０３番地,,23,114,4580021,,,,,,,2021-09-06,1,,,,,アルティア,0
2478,7180001147691,新規,0,2021-09-06,2021-09-06,株式会社Ａ．Ｇ．Ｊ．,,株式会社,愛知県,大府市,宮内町５丁目９６番地,,23,223,4740047,,,,,,,2021-09-06,1,,,,,エージージェイ,0
2479,7180001147700,新規,0,2021-09-06,2021-09-06,株式会社大栄,,株式会社,愛知県,一宮市,千秋町小山字南屋敷７５１番地,,23,203,4910814,,,,,,,2021-09-06,1,,,,,ダイエイ,0
2484,7180301035324,新規,0,2021-09-06,2021-09-06,株式会社ＯＴ１,,株式会社,愛知県,刈谷市,野田新町２丁目２０５番地,,23,210,4480862,,,,,,,2021-09-06,1,,,,,オーティーワン,0
2485,7180301035332,新規,0,2021-09-06,2021-09-06,株式会社ゼウス,,株式会社,愛知県,豊橋市,松葉町１丁目１０２バートビル１Ｆ,,23,201,4400897,,,,,,,2021-09-06,1,,,,,ゼウス,0
2491,7210001018591,新規,0,2021-09-06,2021-09-06,株式会社インクルード,,株式会社,福井県,福井市,石盛町６１３番地,,18,201,9100122,,,,,,,2021-09-06,1,,,,,インクルード,0
2502,7240001058569,新規,0,2021-09-06,2021-09-06,株式会社Ｂｅｌ　ａｖｅｎｉｒ,,株式会社,広島県,広島市佐伯区,観音台３丁目１６番１８号,,34,108,7315157,,,,,,,2021-09-06,1,,,,,ベルアヴニール,0
2503,7250001019099,新規,0,2021-09-06,2021-09-06,株式会社サイケン,,株式会社,山口県,周南市,大字大河内３７６番地の３,,35,215,7450651,,,,,,,2021-09-06,1,,,,,サイケン,0
2517,7290001094403,新規,0,2021-09-06,2021-09-06,株式会社Ｐｅｏｐｌｅ＆Ｃｕｌｔｕｒｅ,,株式会社,福岡県,福岡市博多区,美野島３丁目２２－４２はじめビル３０３,,40,132,8120017,,,,,,,2021-09-06,1,,,,,ピープルアンドカルチャー,0
2526,7290005018341,新規,0,2021-09-06,2021-09-06,一般社団法人再生医療倫理協会,,その他の設立登記法人,福岡県,福岡市西区,今宿東１丁目４番１２号,,40,135,8190161,,,,,,,2021-09-06,1,,,,,サイセイイリョウリンリキョウカイ,0
2527,7290801027751,新規,0,2021-09-06,2021-09-06,青山ＥＣＣ株式会社,,株式会社,福岡県,直方市,大字頓野１７６７番地９,,40,204,8220002,,,,,,,2021-09-06,1,,,,,アオヤマイーシーシー,0
2529,7290803003916,新規,0,2021-09-06,2021-09-06,オフィスヨシダ合同会社,,合同会社,福岡県,北九州市小倉南区,徳力１丁目１７番７号,,40,107,8020974,,,,,,,2021-09-06,1,,,,,オフィスヨシダ,0
2531,7310001017443,新規,0,2021-09-06,2021-09-06,株式会社ｉｎｇ,,株式会社,長崎県,佐世保市,棚方町２２５－１,00124130,42,202,8580907,,,,,,,2021-09-06,1,,,,,イング,0
2536,7330001028967,新規,0,2021-09-06,2021-09-06,こんぱす株式会社,,株式会社,熊本県,荒尾市,八幡台２丁目９番９号,,43,204,8640164,,,,,,,2021-09-06,1,,,,,コンパス,0
2543,7340001024081,新規,0,2021-09-06,2021-09-06,株式会社ＫＡＣＯＩ,,株式会社,鹿児島県,鹿児島市,上竜尾町４８番１号,,46,201,8920851,,,,,,,2021-09-06,1,,,,,カコイ,0
2545,7340003003538,新規,0,2021-09-06,2021-09-06,ホンダ建機合同会社,,合同会社,鹿児島県,薩摩川内市,田崎町９０４番地９,,46,215,8950006,,,,,,,2021-09-06,1,,,,,ホンダケンキ,0
2552,7370001047550,新規,0,2021-09-06,2021-09-06,株式会社Ｒ・Ｓ・Ｐ仙台,,株式会社,宮城県,仙台市宮城野区,扇町４丁目７番３８号,,04,102,9830034,,,,,,,2021-09-06,1,,,,,アールエスピーセンダイ,0
2553,7370001047575,新規,0,2021-09-06,2021-09-06,株式会社ｙｕｎ,,株式会社,宮城県,仙台市太白区,長町５丁目１番２０号,,04,104,9820011,,,,,,,2021-09-06,1,,,,,ユン,0
2558,7380001032163,新規,0,2021-09-06,2021-09-06,株式会社Ｒｅｖｏｌｕｔｉｏｎ,,株式会社,福島県,いわき市,小名浜字吹松１６番地の４グランディールⅢ２０１,00124149,07,204,9718101,,,,,,,2021-09-06,1,,,,,レボリューション,0
2566,7430001084901,新規,0,2021-09-06,2021-09-06,株式会社ダイゲン,,株式会社,北海道,札幌市白石区,菊水三条４丁目１番３８号ブルーノートＡ号室,,01,104,0030803,,,,,,,2021-09-06,1,,,,,ダイゲン,0
2572,7430003013107,新規,0,2021-09-06,2021-09-06,合同会社Ｇｌａｓｓｙ,,合同会社,北海道,札幌市清田区,清田一条２丁目５番５６号,,01,110,0040841,,,,,,,2021-09-06,1,,,,,グラッシー,0
2576,7470001018698,新規,0,2021-09-06,2021-09-06,株式会社ちぴーず,,株式会社,香川県,高松市,多肥下町１５３１番地１２カサデルフェレオ１０５,,37,201,7618075,,,,,,,2021-09-06,1,,,,,チピーズ,0
2578,7480001011479,新規,0,2021-09-06,2021-09-06,株式会社ＢＩＶＲＥ田宮,,株式会社,徳島県,板野郡松茂町,笹木野字八北開拓１番地２０１ＢＩＶＲＥＯｆｆｉｃｅ３Ｆ,,36,401,7710219,,,,,,,2021-09-06,1,,,,,ビブレタミヤ,0
2583,7700150103129,新規,0,2021-09-06,2021-05-10,たまの農地保全広域活動組織,,その他,岡山県,玉野市,宇野１丁目２７番１号,,33,204,7060011,,,,,,,2021-05-10,1,,,,,タマノノウチホゼンコウイキカツドウソシキ,0
2592,8010001220828,新規,0,2021-09-06,2021-09-06,株式会社アイグレ,,株式会社,東京都,千代田区,九段北１丁目１３番５号ヒューリック九段ビル１２Ｆ,,13,101,1020073,,,,,,,2021-09-06,1,,,,,アイグレ,0
2593,8010001220885,新規,0,2021-09-06,2021-09-06,アップグロース株式会社,,株式会社,東京都,中央区,銀座４丁目１４番１１号,,13,102,1040061,,,,,,,2021-09-06,1,,,,,アップグロース,0
2594,8010001220902,新規,0,2021-09-06,2021-09-06,株式会社トゥモローズ,,株式会社,東京都,中央区,日本橋小伝馬町１４－１０,,13,102,1030001,,,,,,,2021-09-06,1,,,,,トゥモローズ,0
2597,8010003035720,新規,0,2021-09-06,2021-09-06,合同会社ｈｕｔａｎ．ｃｏｆｆｅｅ,,合同会社,東京都,文京区,千駄木５丁目１－２,,13,105,1130022,,,,,,,2021-09-06,1,,,,,,0
2598,8010005033929,新規,0,2021-09-06,2021-09-06,一般社団法人日本バイオガス協会,,その他の設立登記法人,東京都,中央区,新川１丁目４番８号,,13,102,1040033,,,,,,,2021-09-06,1,,,,,ニホンバイオガスキョウカイ,0
2606,8010401162496,新規,0,2021-09-06,2021-09-06,株式会社ＳＯＬＩＤＢＯＮＤＳ,,株式会社,東京都,港区,浜松町２丁目２番１５号浜松町ダイヤビル２Ｆ,,13,103,1050013,,,,,,,2021-09-06,1,,,,,ソリッドボンズ,0
2607,8010401162505,新規,0,2021-09-06,2021-09-06,レーベンホテルズ株式会社,,株式会社,東京都,港区,芝１丁目５番１２号,,13,103,1050014,,,,,,,2021-09-06,1,,,,,レーベンホテルズ,0
2608,8010401162513,新規,0,2021-09-06,2021-09-06,株式会社ＴＡＫＡＹＯＳＨＩ,,株式会社,東京都,港区,港南２丁目１６－４品川グランドセントラルタワー１７階,,13,103,1080075,,,,,,,2021-09-06,1,,,,,タカヨシ,0
2609,8010401162521,新規,0,2021-09-06,2021-09-06,株式会社ＧＯＯＶＥ,,株式会社,東京都,港区,白金３丁目１１番８号ピアリッジ白金３０２号室,,13,103,1080072,,,,,,,2021-09-06,1,,,,,グーヴ,0
2610,8010401162546,新規,0,2021-09-06,2021-09-06,盈泰産業株式会社,,株式会社,東京都,港区,新橋６丁目５番４号,,13,103,1050004,,,,,,,2021-09-06,1,,,,,エイタイサンギョウ,0
2611,8010401162554,新規,0,2021-09-06,2021-09-06,株式会社ＡＦＴ１ｔｒａｉｎ,,株式会社,東京都,港区,芝浦４丁目２０番２－２４０７号,,13,103,1080023,,,,,,,2021-09-06,1,,,,,アフトワントレイン,0
2619,8010403026063,新規,0,2021-09-06,2021-09-06,合同会社ＢＨ志生木,,合同会社,東京都,港区,赤坂２丁目１６番８号,,13,103,1070052,,,,,,,2021-09-06,1,,,,,ビーエイチシュウキ,0
2620,8010501047787,新規,0,2021-09-06,2021-09-06,株式会社日の丸商会,,株式会社,東京都,台東区,蔵前３丁目１３番１０号,,13,106,1110051,,,,,,,2021-09-06,1,,,,,ヒノマルショウカイ,0
2622,8010601059889,新規,0,2021-09-06,2021-09-06,株式会社星野,,株式会社,東京都,江東区,亀戸２丁目３９－９和田ビル１０１,,13,108,1360071,,,,,,,2021-09-06,1,,,,,ホシノ,0
2627,8010801032282,新規,0,2021-09-06,2021-09-06,ＡＬＯＨＡグループ株式会社,,株式会社,東京都,大田区,中央６丁目１５番１３号,,13,111,1430024,,,,,,,2021-09-06,1,,,,,,0
2629,8010803003876,新規,0,2021-09-06,2021-09-06,合同会社ビーロード,,合同会社,東京都,大田区,山王２丁目１番８－５０５号,,13,111,1430023,,,,,,,2021-09-06,1,,,,,ビーロード,0
2632,8010901049383,新規,0,2021-09-06,2021-09-06,株式会社ＳＨＩＴＡＭＵＲＡ,,株式会社,東京都,世田谷区,八幡山３丁目１番１２号,,13,112,1560056,,,,,,,2021-09-06,1,,,,,シタムラ,0
2636,8011001142574,新規,0,2021-09-06,2021-09-06,ｋａｍｍｅｋｏ株式会社,,株式会社,東京都,渋谷区,神南１丁目６番５号ＴｈｅＨｉｖｅＪｉｎｎａｎＢｌｄｇ,,13,113,1500041,,,,,,,2021-09-06,1,,,,,カメコ,0
2637,8011001142624,新規,0,2021-09-06,2021-09-06,株式会社スティールアソシエイト,,株式会社,東京都,渋谷区,神宮前５丁目１５－２,,13,113,1500001,,,,,,,2021-09-06,1,,,,,スティールアソシエイト,0
2638,8011001142640,新規,0,2021-09-06,2021-09-06,ｈａｉｒＶＲ株式会社,,株式会社,東京都,目黒区,東山１丁目４番１３号ＡＳＡ東山ビル１Ｂ,,13,110,1530043,,,,,,,2021-09-06,1,,,,,ヘアブイアール,0
2639,8011001142657,新規,0,2021-09-06,2021-09-06,株式会社Ｐａｓｓｐｏｒｔ,,株式会社,東京都,渋谷区,神宮前６丁目２３番４号桑野ビル２階,,13,113,1500001,,,,,,,2021-09-06,1,,,,,パスポート,0
2645,8011103010984,新規,0,2021-09-06,2021-09-06,合同会社たなぼた,,合同会社,東京都,新宿区,新宿１丁目２４番３号,,13,104,1600022,,,,,,,2021-09-06,1,,,,,タナボタ,0
2646,8011105009959,新規,0,2021-09-06,2021-09-06,一般社団法人ＨＡＮＩＷＡ,,その他の設立登記法人,東京都,新宿区,四谷２丁目９番地１５東京ユナイテッド綜合事務所内,,13,104,1600004,,,,,,,2021-09-06,1,,,,,ハニワ,0
2648,8011301027153,新規,0,2021-09-06,2021-09-06,株式会社あじさいケア,,株式会社,東京都,杉並区,荻窪５丁目１１番１７号,,13,115,1670051,,,,,,,2021-09-06,1,,,,,アジサイケア,0
2649,8011401023647,新規,0,2021-09-06,2021-09-06,株式会社テクノイド,,株式会社,東京都,板橋区,富士見町１４－５,,13,119,1740062,,,,,,,2021-09-06,1,,,,,テクノイド,0
2650,8011403003432,新規,0,2021-09-06,2021-09-06,Ｃｈｉｎｏｚｏ合同会社,,合同会社,東京都,板橋区,中板橋２９番１０号Ｃｏｎｔｅｌ中板橋５０３,,13,119,1730016,,,,,,,2021-09-06,1,,,,,チノゾー,0
2652,8011501027275,新規,0,2021-09-06,2021-09-06,株式会社フォアフロント,,株式会社,東京都,北区,王子１丁目２番１号リバーサイドビル３Ｆ,,13,117,1140002,,,,,,,2021-09-06,1,,,,,フォアフロント,0
2653,8011503004875,新規,0,2021-09-06,2021-09-06,合同会社シークス,,合同会社,東京都,北区,赤羽１丁目７番９号赤羽第一葉山ビル４階,,13,117,1150045,,,,,,,2021-09-06,1,,,,,シークス,0
2657,8011601025369,新規,0,2021-09-06,2021-09-06,株式会社ｍｉｌｅｙ,,株式会社,東京都,練馬区,豊玉北４丁目２番７号ブライズ桜台８０３,,13,120,1760012,,,,,,,2021-09-06,1,,,,,マイリー,0
2659,8011701024683,新規,0,2021-09-06,2021-09-06,日中文化メディアセンター株式会社,,株式会社,東京都,江戸川区,西葛西２丁目２２番２６－７０５号,,13,123,1340088,,,,,,,2021-09-06,1,,,,,ニッチュウブンカメディアセンター,0
2661,8011703002935,新規,0,2021-09-06,2021-09-06,合同会社電脳開華,,合同会社,東京都,江戸川区,江戸川３丁目５８－２田島ハイツ２０１,,13,123,1320013,,,,,,,2021-09-06,1,,,,,デンノウカイカ,0
2664,8011801039648,新規,0,2021-09-06,2021-09-06,株式会社ＪＯＳＨＯ,,株式会社,東京都,葛飾区,高砂１丁目６番１１－３０５号,,13,122,1250054,,,,,,,2021-09-06,1,,,,,ジョウショウ,0
2670,8012401038271,新規,0,2021-09-06,2021-09-06,株式会社ヒラタスタジオ,,株式会社,東京都,武蔵野市,吉祥寺本町３丁目４番１１号ウィンズギャラリー３０２号,,13,203,1800004,,,,,,,2021-09-06,1,,,,,ヒラタスタジオ,0
2671,8012401038288,新規,0,2021-09-06,2021-09-06,株式会社レフテ,,株式会社,東京都,小金井市,梶野町５丁目８－２８－３０１,,13,210,1840002,,,,,,,2021-09-06,1,,,,,レフテ,0
2674,8012703002306,新規,0,2021-09-06,2021-09-06,ＷＡＮＩＭＡＴＩＯＮ合同会社,,合同会社,東京都,東村山市,秋津町３丁目１９番地５０,,13,213,1890001,,,,,,,2021-09-06,1,,,,,ワニメーション,0
2675,8012801021059,新規,0,2021-09-06,2021-09-06,株式会社萬月,,株式会社,東京都,国分寺市,光町１丁目３８番地３３,,13,214,1850034,,,,,,,2021-09-06,1,,,,,マンゲツ,0
2679,8013301047965,新規,0,2021-09-06,2021-09-06,三禾商事株式会社,,株式会社,東京都,豊島区,南池袋１丁目９番１８号２４７号室,,13,116,1710022,,,,,,,2021-09-06,1,,,,,ミッカショウジ,0
2680,8013303005814,新規,0,2021-09-06,2021-09-06,ＳＯＮＧＫＨＡＮＧ合同会社,,合同会社,東京都,豊島区,南大塚１丁目３２番１９号増川ビル４階,,13,116,1700005,,,,,,,2021-09-06,1,,,,,ソンカン,0
2688,8020001142897,新規,0,2021-09-06,2021-09-06,株式会社ＥＫＯＬＵ,,株式会社,神奈川県,川崎市川崎区,渡田２丁目２０番６－３号,,14,131,2100837,,,,,,,2021-09-06,1,,,,,エコル,0
2700,8021001073802,新規,0,2021-09-06,2021-09-06,株式会社吉電設,00124147,株式会社,神奈川県,相模原市南区,麻溝台６丁目４番１号,,14,153,2520328,,,,,,,2021-09-06,1,,,,,ヨシデンセツ,0
2701,8021001073835,新規,0,2021-09-06,2021-09-06,中山商会株式会社,,株式会社,神奈川県,横須賀市,岩戸１丁目１１番３号,,14,201,2390844,,,,,,,2021-09-06,1,,,,,ナカヤマショウカイ,0
2702,8021001073868,新規,0,2021-09-06,2021-09-06,株式会社未来人材キャリア開発,,株式会社,神奈川県,中郡二宮町,富士見が丘３丁目７番７号,,14,342,2590122,,,,,,,2021-09-06,1,,,,,ミライジンザイキャリアカイハツ,0
2704,8021003010852,新規,0,2021-09-06,2021-09-06,合同会社湘南ＬＯＶＵ,,合同会社,神奈川県,藤沢市,川名２丁目２番２号,,14,205,2510015,,,,,,,2021-09-06,1,,,,,ショウナンラブユー,0
2707,8030001144166,新規,0,2021-09-06,2021-09-06,株式会社Ｒａｙ’ｓ,,株式会社,埼玉県,さいたま市浦和区,高砂２丁目５番１１－９０６号,,11,107,3300063,,,,,,,2021-09-06,1,,,,,レイズ,0
2708,8030001144182,新規,0,2021-09-06,2021-09-06,株式会社エムティーエス,,株式会社,埼玉県,蕨市,南町４丁目３９番１３号,,11,223,3350003,,,,,,,2021-09-06,1,,,,,エムティーエス,0
2709,8030001144216,新規,0,2021-09-06,2021-09-06,東極株式会社,,株式会社,埼玉県,蕨市,塚越１丁目１５番４号ルームワンＫ１階１０１号,,11,223,3350002,,,,,,,2021-09-06,1,,,,,トウキョク,0
2710,8030001144224,新規,0,2021-09-06,2021-09-06,株式会社武蔵工業,,株式会社,埼玉県,さいたま市西区,大字宝来７６０番地１３,,11,101,3310074,,,,,,,2021-09-06,1,,,,,ムサシコウギョウ,0
2711,8030001144232,新規,0,2021-09-06,2021-09-06,林工業株式会社,,株式会社,埼玉県,川口市,芝富士１丁目４－４,,11,203,3330854,,,,,,,2021-09-06,1,,,,,ハヤシコウギョウ,0
2712,8030001144249,新規,0,2021-09-06,2021-09-06,ＳＡＮＩＬ株式会社,,株式会社,埼玉県,飯能市,緑町２６番地１６－２Ｆ,,11,209,3570024,,,,,,,2021-09-06,1,,,,,サニル,0
2715,8030003017873,新規,0,2021-09-06,2021-09-06,合同会社ＫＮＲ,,合同会社,埼玉県,川口市,中青木３丁目１０番４３号３０２,,11,203,3320032,,,,,,,2021-09-06,1,,,,,ケイエヌアール,0
2716,8030003017898,新規,0,2021-09-06,2021-09-06,ケイ・トレーディング合同会社,,合同会社,埼玉県,蕨市,中央３丁目１６番３号キャニオンマンション蕨１０１,,11,223,3350004,,,,,,,2021-09-06,1,,,,,ケイトレーディング,0
2717,8030003017907,新規,0,2021-09-06,2021-09-06,フェニックス合同会社,,合同会社,埼玉県,越谷市,大字上間久里６９番地１６,,11,222,3430043,,,,,,,2021-09-06,1,,,,,フェニックス,0
2718,8030003017915,新規,0,2021-09-06,2021-09-06,合同会社ＲＫ,,合同会社,埼玉県,川口市,安行出羽４丁目１２－９,,11,203,3340052,,,,,,,2021-09-06,1,,,,,アールケー,0
2725,8040001119992,新規,0,2021-09-06,2021-09-06,株式会社優奏,,株式会社,千葉県,千葉市若葉区,みつわ台４丁目４－４,,12,104,2640032,,,,,,,2021-09-06,1,,,,,ユウカ,0
2726,8040001120001,新規,0,2021-09-06,2021-09-06,株式会社Ａ．Ｍ．サポート,,株式会社,千葉県,船橋市,北本町２丁目６４番１２号,,12,204,2730864,,,,,,,2021-09-06,1,,,,,エーエムサポート,0
2727,8040001120026,新規,0,2021-09-06,2021-09-06,飯島総業株式会社,,株式会社,千葉県,木更津市,祇園２丁目３１番４号,00124136,12,206,2920052,,,,,,,2021-09-06,1,,,,,イイジマソウギョウ,0
2728,8040001120067,新規,0,2021-09-06,2021-09-06,渡辺製薬株式会社,,株式会社,千葉県,香取市,八日市場４８番地１,,12,236,2890311,,,,,,,2021-09-06,1,,,,,ワタナベセイヤク,0
2729,8040001120075,新規,0,2021-09-06,2021-09-06,株式会社中央合同事務所,,株式会社,千葉県,千葉市中央区,中央４丁目１２番９号ひまわり中央ビル１階,,12,101,2600013,,,,,,,2021-09-06,1,,,,,チュウオウゴウドウジムショ,0
2730,8040001120091,新規,0,2021-09-06,2021-09-06,株式会社ＭＡＳＵＴＯ,,株式会社,千葉県,鎌ケ谷市,道野辺本町２丁目２４番２７号,,12,224,2730137,,,,,,,2021-09-06,1,,,,,マスト,0
2731,8040001120109,新規,0,2021-09-06,2021-09-06,ＡＩＳＦＡ株式会社,,株式会社,千葉県,富里市,七栄字南大溜袋８７番地３,,12,233,2860221,,,,,,,2021-09-06,1,,,,,アイスファ,0
2732,8040003018466,新規,0,2021-09-06,2021-09-06,ＢＨＳ合同会社,,合同会社,千葉県,柏市,西柏台２丁目１３番３号,,12,217,2770886,,,,,,,2021-09-06,1,,,,,ビーエイチエス,0
2736,8050001049784,新規,0,2021-09-06,2021-09-06,株式会社富田青果,,株式会社,茨城県,鉾田市,箕輪３４３９番地２,,08,234,3111401,,,,,,,2021-09-06,1,,,,,トミタセイカ,0
2737,8050001049792,新規,0,2021-09-06,2021-09-06,明治商事株式会社,,株式会社,茨城県,笠間市,笠間１２６３番地,,08,216,3091611,,,,,,,2021-09-06,1,,,,,メイジショウジ,0
2742,8060001034042,新規,0,2021-09-06,2021-09-06,株式会社ルリアン・サクラ,,株式会社,栃木県,大田原市,南金丸１６２４番地４,,09,210,3240012,,,,,,,2021-09-06,1,,,,,,0
2747,8070001038389,新規,0,2021-09-06,2021-09-06,株式会社オオマツ,,株式会社,群馬県,高崎市,鶴見町４番地１３,,10,202,3700848,,,,,,,2021-09-06,1,,,,,オオマツ,0
2748,8070001038397,新規,0,2021-09-06,2021-09-06,株式会社裕雅,,株式会社,群馬県,邑楽郡明和町,大佐貫３２３番地１,,10,522,3700715,,,,,,,2021-09-06,1,,,,,ユウガ,0
2749,8070001038406,新規,0,2021-09-06,2021-09-06,株式会社四季,,株式会社,群馬県,渋川市,行幸田９３９番地１,,10,208,3770006,,,,,,,2021-09-06,1,,,,,シキ,0
2752,8070003004208,新規,0,2021-09-06,2021-09-06,合同会社Ｙ－ｓｔｙｌｅ,,合同会社,群馬県,北群馬郡吉岡町,大字大久保１７８２番地３,,10,345,3703602,,,,,,,2021-09-06,1,,,,,ワイスタイル,0
2757,8080101022738,新規,0,2021-09-06,2021-09-06,城ケ崎海岸富戸定置網株式会社,,株式会社,静岡県,伊東市,富戸９８７番地,,22,208,4130231,,,,,,,2021-09-06,1,,,,,ジョウガサキカイガンフトテイチアミ,0
2758,8080103002416,新規,0,2021-09-06,2021-09-06,合同会社リサイコム,,合同会社,静岡県,駿東郡清水町,徳倉１８９２番地スカイコート１０１,,22,341,4110917,,,,,,,2021-09-06,1,,,,,リサイコム,0
2761,8080401025317,新規,0,2021-09-06,2021-09-06,株式会社アイ・ネクサス,,株式会社,静岡県,浜松市中区,小豆餅４丁目３番２３号,,22,131,4338113,,,,,,,2021-09-06,1,,,,,アイネクサス,0
2762,8080401025325,新規,0,2021-09-06,2021-09-06,株式会社Ｍｏｄｅｒｎｉｎｇ,,株式会社,静岡県,浜松市北区,都田町７７１３番地の２４,,22,135,4312102,,,,,,,2021-09-06,1,,,,,モダニング,0
2769,8100001034574,新規,0,2021-09-06,2021-09-06,株式会社サンリフレ,,株式会社,長野県,中野市,大字上今井２２６３番地７,,20,211,3892102,,,,,,,2021-09-06,1,,,,,サンリフレ,0
2772,8100003006225,新規,0,2021-09-06,2021-09-06,合同会社Ｂ・Ｂ,,合同会社,長野県,千曲市,大字磯部１０３６番地,,20,218,3890806,,,,,,,2021-09-06,1,,,,,ビービー,0
2781,8120001240105,新規,0,2021-09-06,2021-09-06,ＬＳＨ株式会社,,株式会社,大阪府,大阪市天王寺区,悲田院町１番３８－１１５号,,27,109,5430055,,,,,,,2021-09-06,1,,,,,エルエスエイチ,0
2782,8120001240146,新規,0,2021-09-06,2021-09-06,株式会社高松屋,00124141,株式会社,大阪府,大阪市福島区,野田４丁目６番２４号,,27,103,5530005,,,,,,,2021-09-06,1,,,,,タカマツヤ,0
2783,8120001240187,新規,0,2021-09-06,2021-09-06,株式会社アニマル商会,,株式会社,大阪府,大阪市天王寺区,舟橋町１８番３号,,27,109,5430024,,,,,,,2021-09-06,1,,,,,アニマルショウカイ,0
2784,8120001240204,新規,0,2021-09-06,2021-09-06,株式会社ＣＨＡＮＧＷＯＮ,,株式会社,大阪府,大阪市淀川区,西中島６丁目３－２４－Ｋ４１３,,27,123,5320011,,,,,,,2021-09-06,1,,,,,チャンウォン,0
2785,8120001240212,新規,0,2021-09-06,2021-09-06,エージェントモーション株式会社,,株式会社,大阪府,大阪市中央区,淡路町１丁目６番９号,,27,128,5410047,,,,,,,2021-09-06,1,,,,,エージェントモーション,0
2789,8120003020158,新規,0,2021-09-06,2021-09-06,合同会社じゃず家,,合同会社,大阪府,大阪市北区,山崎町１番１９号,,27,127,5300024,,,,,,,2021-09-06,1,,,,,ジャズヤ,0
2791,8120005022490,新規,0,2021-09-06,2021-09-06,一般社団法人介護福祉希望の和,,その他の設立登記法人,大阪府,大阪市住吉区,苅田９丁目１４番７号２１コートマルナカ７０３号,,27,120,5580011,,,,,,,2021-09-06,1,,,,,カイゴフクシキボウノワ,0
2795,8120101064255,新規,0,2021-09-06,2021-09-06,国中環境ＧＲＯＵＰ株式会社,,株式会社,大阪府,堺市北区,南花田町４６３番地１,,27,146,5918011,,,,,,,2021-09-06,1,,,,,クニナカカンキョウグループ,0
2799,8120901044828,新規,0,2021-09-06,2021-09-06,株式会社ケー・エヌ・クリエーション,,株式会社,大阪府,高槻市,唐崎中１丁目９番６号,,27,207,5690832,,,,,,,2021-09-06,1,,,,,ケーエヌクリエーション,0
2800,8120901044844,新規,0,2021-09-06,2021-09-06,株式会社リバーサルプラン,,株式会社,大阪府,箕面市,粟生間谷東１丁目３１番１４－１０１号,,27,220,5620022,,,,,,,2021-09-06,1,,,,,リバーサルプラン,0
2804,8122003002169,新規,0,2021-09-06,2021-09-06,合同会社Ｎｏｒｔｈ　ｍｏｕｔｈ,,合同会社,大阪府,大東市,御領３丁目１番１８号,,27,218,5740064,,,,,,,2021-09-06,1,,,,,ノースマウス,0
2806,8130001070030,新規,0,2021-09-06,2021-09-06,株式会社Ｋ’ｚ,,株式会社,京都府,京都市山科区,北花山大林町１－５ハイツ大林３０６,,26,110,6078482,,,,,,,2021-09-06,1,,,,,ケイズ,0
2807,8130001070071,新規,0,2021-09-06,2021-09-06,株式会社味どころしん,,株式会社,京都府,京都市下京区,綾小路通室町西入善長寺町１２９番地,,26,106,6008431,,,,,,,2021-09-06,1,,,,,アジドコロシン,0
2808,8130005016260,新規,0,2021-09-06,2021-09-06,一般社団法人ＡＨＫＴＲＹ,,その他の設立登記法人,京都府,京都市山科区,椥辻西浦町２６番地４,,26,110,6078169,,,,,,,2021-09-06,1,,,,,アークトライ,0
2812,8140001122887,新規,0,2021-09-06,2021-09-06,株式会社福祉ファーム暖,,株式会社,兵庫県,たつの市,龍野町島田７５０番地１,,28,229,6794121,,,,,,,2021-09-06,1,,,,,フクシファームダン,0
2813,8140001122912,新規,0,2021-09-06,2021-09-06,株式会社裕喜電設,,株式会社,兵庫県,宝塚市,紅葉ガ丘１３番１７号,,28,214,6650006,,,,,,,2021-09-06,1,,,,,ユウキデンセツ,0
2814,8140001122929,新規,0,2021-09-06,2021-09-06,株式会社ＧＵＢＡ,,株式会社,兵庫県,神戸市中央区,東川崎町１丁目８番４号神戸市産業振興センター８階,,28,110,6500044,,,,,,,2021-09-06,1,,,,,グーバ,0
2815,8140001122945,新規,0,2021-09-06,2021-09-06,株式会社Ｍ．ＳＵＲＦ,,株式会社,兵庫県,神戸市北区,上津台２丁目３７番２７号,,28,109,6511515,,,,,,,2021-09-06,1,,,,,エムドットサーフ,0
2823,8150001024901,新規,0,2021-09-06,2021-09-06,株式会社アクティブ山本,,株式会社,奈良県,天理市,萱生町９４４番地,,29,204,6320042,,,,,,,2021-09-06,1,,,,,アクティブヤマモト,0
2824,8170001016764,新規,0,2021-09-06,2021-09-06,株式会社Ｉｃｈｉｄａ,,株式会社,和歌山県,田辺市,稲成町２７８７番地の１,,30,206,6460051,,,,,,,2021-09-06,1,,,,,イチダ,0
2832,8180001147716,新規,0,2021-09-06,2021-09-06,株式会社常昭工業,,株式会社,愛知県,常滑市,飛香台６丁目１０番地の４,,23,216,4790868,,,,,,,2021-09-06,1,,,,,ジョウショウコウギョウ,0
2833,8180001147724,新規,0,2021-09-06,2021-09-06,株式会社ＬｅＬｉｓ,,株式会社,愛知県,大府市,明成町４丁目７２番地,,23,223,4740056,,,,,,,2021-09-06,1,,,,,ルリス,0
2834,8180001147732,新規,0,2021-09-06,2021-09-06,Ｒｅ‐ｎｅｕｅ株式会社,,株式会社,愛知県,一宮市,浅井町大野字郷中９９１番地１,,23,203,4910143,,,,,,,2021-09-06,1,,,,,リノイエ,0
2839,8180301035323,新規,0,2021-09-06,2021-09-06,株式会社Ｆｕｎｃｔｉｏｎ,,株式会社,愛知県,岡崎市,康生通西３丁目１５番地７岡崎タワーレジデンス５０６,,23,202,4440059,,,,,,,2021-09-06,1,,,,,ファンクション,0
2841,8190001028659,新規,0,2021-09-06,2021-09-06,株式会社はましん,,株式会社,三重県,鳥羽市,鳥羽１丁目１９６番地１５,,24,211,5170011,,,,,,,2021-09-06,1,,,,,ハマシン,0
2842,8190001028667,新規,0,2021-09-06,2021-09-06,株式会社ドットピープス,,株式会社,三重県,名張市,桔梗が丘４番町三街区１４番地,,24,208,5180624,,,,,,,2021-09-06,1,,,,,ドットピープス,0
2846,8200001039076,新規,0,2021-09-06,2021-09-06,株式会社ナルミ,,株式会社,岐阜県,土岐市,泉町久尻１４７７番地の３７,,21,212,5095142,,,,,,,2021-09-06,1,,,,,ナルミ,0
2847,8200001039092,新規,0,2021-09-06,2021-09-06,株式会社ＷＡＹ　ＯＦ　ＬＩＦＥ,,株式会社,岐阜県,岐阜市,東鶉３丁目５９番地１,,21,201,5008281,,,,,,,2021-09-06,1,,,,,ウェイオブライフ,0
2850,8210005009982,新規,0,2021-09-06,2021-09-06,農事組合法人ファーム清水山,,その他の設立登記法人,福井県,福井市,清水山町第６５号８５番地,,18,201,9103612,,,,,,,2021-09-06,1,,,,,ファームシミズヤマ,0
2857,8240001058535,新規,0,2021-09-06,2021-09-06,株式会社ワタナベタイヤ,,株式会社,広島県,福山市,駅家町大字上山守１５７１番地１,,34,207,7201142,,,,,,,2021-09-06,1,,,,,ワタナベタイヤ,0
2859,8240002045664,新規,0,2021-09-06,2021-09-06,有限会社平田寛美工場,,有限会社,広島県,福山市,新市町大字宮内２２６番地の５,,34,207,7293104,,,,,,,2021-09-06,1,,,,,,0
2863,8250001019107,新規,0,2021-09-06,2021-09-06,エムメイクス株式会社,,株式会社,山口県,下関市,西大坪町１２番３９号,,35,201,7500054,,,,,,,2021-09-06,1,,,,,エムメイクス,0
2866,8260001035937,新規,0,2021-09-06,2021-09-06,株式会社ｋ‐ｒｏｏｔｓ,,株式会社,岡山県,玉野市,田井３丁目１５番４７号,,33,204,7060001,,,,,,,2021-09-06,1,,,,,ケイルーツ,0
2867,8260001035945,新規,0,2021-09-06,2021-09-06,悠翔株式会社,,株式会社,岡山県,岡山市南区,泉田２丁目６番３４‐２号,,33,104,7000944,,,,,,,2021-09-06,1,,,,,ユウト,0
2869,8260003003669,新規,0,2021-09-06,2021-09-06,グッチラボ合同会社,,合同会社,岡山県,岡山市中区,国富４丁目２番２７‐６号,,33,102,7038236,,,,,,,2021-09-06,1,,,,,グッチラボ,0
2874,8290001094476,新規,0,2021-09-06,2021-09-06,株式会社ＥＲＥＮ,,株式会社,福岡県,福岡市中央区,天神１丁目１番１号,,40,133,8100001,,,,,,,2021-09-06,1,,,,,エレン,0
2877,8290003011578,新規,0,2021-09-06,2021-09-06,合同会社ＳＯＥＬＴＥ,,合同会社,福岡県,福岡市南区,大橋２丁目１５番８号,,40,134,8150033,,,,,,,2021-09-06,1,,,,,ソエルテ,0
2881,8290005018340,新規,0,2021-09-06,2021-09-06,一般社団法人ＪＡ‐Ｎｅｔ,,その他の設立登記法人,福岡県,久留米市,梅満町１１１０－１,,40,203,8300048,,,,,,,2021-09-06,1,,,,,ジャネット,0
2883,8290801027750,新規,0,2021-09-06,2021-09-06,株式会社Ｃａｌｍ,,株式会社,福岡県,北九州市小倉北区,京町３丁目７－１　１４０５号,,40,106,8020002,,,,,,,2021-09-06,1,,,,,カーム,0
2884,8290801027767,新規,0,2021-09-06,2021-09-06,株式会社田村電気商会,,株式会社,福岡県,行橋市,大字吉国７２８番地１,,40,213,8240066,,,,,,,2021-09-06,1,,,,,タムラデンキショウカイ,0
2887,8310001017459,新規,0,2021-09-06,2021-09-06,株式会社クニミ建工,,株式会社,長崎県,佐世保市,日宇町１８９５番地２,,42,202,8571151,,,,,,,2021-09-06,1,,,,,クニミケンコウ,0
2898,8330001028982,新規,0,2021-09-06,2021-09-06,株式会社フードアシスト高本,00124145,株式会社,熊本県,熊本市東区,花立３丁目１５－２５鎌倉ビル２Ｆ,,43,102,8612118,,,,,,,2021-09-06,1,,,,,フードアシストタカモト,0
2902,8330003009023,新規,0,2021-09-06,2021-09-06,合同会社青果ナカシマ,,合同会社,熊本県,山鹿市,中１３６２番地３２,,43,208,8610531,,,,,,,2021-09-06,1,,,,,セイカナカシマ,0
2906,8340003003545,新規,0,2021-09-06,2021-09-06,フィックス合同会社,,合同会社,鹿児島県,鹿児島市,皷川町３番１３号,,46,201,8920807,,,,,,,2021-09-06,1,,,,,フィックス,0
2907,8350001017281,新規,0,2021-09-06,2021-09-06,大盛畜産株式会社,,株式会社,宮崎県,北諸県郡三股町,五本松２４番地９,,45,341,8891902,,,,,,,2021-09-06,1,,,,,オオモリチクサン,0
2912,8360003011422,新規,0,2021-09-06,2021-09-06,合同会社シャローム大世,,合同会社,沖縄県,宮古島市,平良字西里１４２４番地２,,47,214,9060012,,,,,,,2021-09-06,1,,,,,シャロームウプユウ,0
2913,8370001047574,新規,0,2021-09-06,2021-09-06,株式会社ｆｒｉｈｅｔ,,株式会社,宮城県,仙台市太白区,長町５丁目１番２０号,,04,104,9820011,,,,,,,2021-09-06,1,,,,,フリーヘット,0
2915,8370003005381,新規,0,2021-09-06,2021-09-06,ストローク＆スキップ合同会社,,合同会社,宮城県,仙台市泉区,桂３丁目２番１号,,04,105,9813134,,,,,,,2021-09-06,1,,,,,ストロークアンドスキップ,0
2922,8380001032162,新規,0,2021-09-06,2021-09-06,小林自動車工業株式会社,,株式会社,福島県,会津若松市,日新町２番１１号,,07,202,9650861,,,,,,,2021-09-06,1,,,,,コバヤシジドウシャコウギョウ,0
2927,8410005006423,新規,0,2021-09-06,2021-09-06,一般財団法人由利本荘市スポーツ協会,,その他の設立登記法人,秋田県,由利本荘市,西目町沼田字弁天前４０番地６１,,05,210,0180604,,,,,,,2021-09-06,1,,,,,ユリホンジョウシスポーツキョウカイ,0
2930,8430001084883,新規,0,2021-09-06,2021-09-06,株式会社リジットモータース,,株式会社,北海道,北広島市,大曲緑ヶ丘１丁目６番地１１,,01,234,0611276,,,,,,,2021-09-06,1,,,,,リジットモータース,0
2931,8430001084900,新規,0,2021-09-06,2021-09-06,株式会社ナレッジオフィス,,株式会社,北海道,札幌市中央区,大通西７丁目２番地２,,01,101,0600042,,,,,,,2021-09-06,1,,,,,ナレッジオフィス,0
2943,8480001011478,新規,0,2021-09-06,2021-09-06,株式会社ｌｉｔｔｌｅ北島,,株式会社,徳島県,板野郡松茂町,笹木野字八北開拓１番地２０１ＢＩＶＲＥＯｆｆｉｃｅ３Ｆ,,36,401,7710219,,,,,,,2021-09-06,1,,,,,リトルキタジマ,0
2956,9010001220851,新規,0,2021-09-06,2021-09-06,株式会社Ｔ．Ｓ．翼,,株式会社,東京都,中央区,晴海３丁目１３番１－４８１７号,,13,102,1040053,,,,,,,2021-09-06,1,,,,,ティーエスツバサ,0
2957,9010001220918,新規,0,2021-09-06,2021-09-06,株式会社ｎｅｕｒｏｎ,,株式会社,東京都,中央区,銀座１丁目１２－４Ｎ＆ＥＢＬＤ．７階,,13,102,1040061,,,,,,,2021-09-06,1,,,,,ニューロン,0
2958,9010001220926,新規,0,2021-09-06,2021-09-06,ＡＨＭ株式会社,,株式会社,東京都,中央区,銀座１丁目１５番７号,,13,102,1040061,,,,,,,2021-09-06,1,,,,,エーエイチエム,0
2959,9010001220967,新規,0,2021-09-06,2021-09-06,株式会社セカンドウインド,,株式会社,東京都,中央区,築地３丁目７番５号,,13,102,1040045,,,,,,,2021-09-06,1,,,,,セカンドウインド,0
2964,9010003035744,新規,0,2021-09-06,2021-09-06,合同会社デザートパレット,,合同会社,東京都,中央区,銀座１丁目２２－１１銀座大竹ビジデンス２階,,13,102,1040061,,,,,,,2021-09-06,1,,,,,デザートパレット,0
2965,9010003035752,新規,0,2021-09-06,2021-09-06,ＧｏｏｇｌｅＬｉｆｅＴｅｃｈ合同会社,,合同会社,東京都,千代田区,神田猿楽町２丁目８番１１号,,13,101,1010064,,,,,,,2021-09-06,1,,,,,グーグルライフテック,0
2972,9010401162487,新規,0,2021-09-06,2021-09-06,株式会社ＦＬＡＴ,,株式会社,東京都,港区,浜松町２丁目２番１５号２階,,13,103,1050013,,,,,,,2021-09-06,1,,,,,フラット,0
2973,9010401162495,新規,0,2021-09-06,2021-09-06,株式会社エルティーアール,,株式会社,東京都,港区,南青山２丁目２６番１号,,13,103,1070062,,,,,,,2021-09-06,1,,,,,エルティーアール,0
2974,9010401162504,新規,0,2021-09-06,2021-09-06,株式会社ディトシティ,,株式会社,東京都,港区,南青山６丁目６番２２－５０１号,,13,103,1070062,,,,,,,2021-09-06,1,,,,,ディトシティ,0
2975,9010401162553,新規,0,2021-09-06,2021-09-06,シンセンフードテックホールディングス株式会社,,株式会社,東京都,港区,虎ノ門５丁目１１番１号オランダヒルズ森タワーＲｏＰ,,13,103,1050001,,,,,,,2021-09-06,1,,,,,シンセンフードテックホールディングス,0
2980,9010403026062,新規,0,2021-09-06,2021-09-06,合同会社ＢＨ磐梯,,合同会社,東京都,港区,赤坂２丁目１６番８号,,13,103,1070052,,,,,,,2021-09-06,1,,,,,ビーエイチバンダイ,0
2983,9010501047786,新規,0,2021-09-06,2021-09-06,株式会社マルコカンパニー,,株式会社,東京都,台東区,蔵前４丁目３７番９号,,13,106,1110051,,,,,,,2021-09-06,1,,,,,マルコカンパニー,0
2984,9010501047794,新規,0,2021-09-06,2021-09-06,株式会社内藤研磨,,株式会社,東京都,台東区,上野５丁目２２番１号東鈴ビル２階,,13,106,1100005,,,,,,,2021-09-06,1,,,,,ナイトウケンマ,0
2985,9010501047803,新規,0,2021-09-06,2021-09-06,株式会社Ｈｅｌｉｅａｒｔｈ,,株式会社,東京都,台東区,入谷１丁目２７－４プラーズ入谷８０２号室,,13,106,1100013,,,,,,,2021-09-06,1,,,,,ヘリアース,0
2987,9010503006377,新規,0,2021-09-06,2021-09-06,合同会社ＥＲＡＭＥＮＴ,,合同会社,東京都,台東区,松が谷４丁目９－４,,13,106,1110036,,,,,,,2021-09-06,1,,,,,エラメント,0
2991,9010701041457,新規,0,2021-09-06,2021-09-06,株式会社ＴＧ,,株式会社,東京都,品川区,上大崎４丁目１番１号目黒ヒルトップウォーク８０５号,,13,109,1410021,,,,,,,2021-09-06,1,,,,,ティージー,0
2993,9010703005930,新規,0,2021-09-06,2021-09-06,合同会社ＢＵＤＤＹ,,合同会社,東京都,品川区,西中延２丁目１６番２２号,,13,109,1420054,,,,,,,2021-09-06,1,,,,,バディー,0
3000,9010901049382,新規,0,2021-09-06,2021-09-06,株式会社ＴＯＫＹＯ　ＢＯＵＮＤ,,株式会社,東京都,世田谷区,太子堂５丁目３番８号,,13,112,1540004,,,,,,,2021-09-06,1,,,,,トウキョウバウンド,0
3001,9010903006778,新規,0,2021-09-06,2021-09-06,Ｐｔａｒｍｉｇａｎ　Ｍｅｄｉａ合同会社,,合同会社,東京都,世田谷区,松原２丁目４１番１１号明治安田生命明大前ビル４階,,13,112,1560043,,,,,,,2021-09-06,1,,,,,ターミガンメディア,0
3005,9011001142581,新規,0,2021-09-06,2021-09-06,株式会社レガロ,,株式会社,東京都,渋谷区,渋谷３丁目６－２エクラート渋谷４Ｆ,,13,113,1500002,,,,,,,2021-09-06,1,,,,,レガロ,0
3006,9011001142656,新規,0,2021-09-06,2021-09-06,株式会社ユニコーン,,株式会社,東京都,目黒区,目黒３丁目２１番５号,,13,110,1530063,,,,,,,2021-09-06,1,,,,,ユニコーン,0
3007,9011101096166,新規,0,2021-09-06,2021-09-06,株式会社稜和リファレンス,,株式会社,東京都,新宿区,新宿１丁目３６番２号,,13,104,1600022,,,,,,,2021-09-06,1,,,,,リョウワリファレンス,0
3009,9011103010983,新規,0,2021-09-06,2021-09-06,ｄｒｏｍｅ合同会社,,合同会社,東京都,新宿区,歌舞伎町２丁目２番１５号ヒルコート東新宿ビル４階,,13,104,1600021,,,,,,,2021-09-06,1,,,,,ドローム,0
3012,9011401023646,新規,0,2021-09-06,2021-09-06,株式会社デザイン工房,,株式会社,東京都,板橋区,徳丸４丁目１６番５号,,13,119,1750083,,,,,,,2021-09-06,1,,,,,デザインコウボウ,0
3015,9011403003431,新規,0,2021-09-06,2021-09-06,サスティナブル合同会社,,合同会社,東京都,板橋区,幸町３１番６号小松レジデンス１０２号,,13,119,1730034,,,,,,,2021-09-06,1,,,,,サスティナブル,0
3017,9011501027282,新規,0,2021-09-06,2021-09-06,株式会社イナック,,株式会社,東京都,荒川区,西尾久２丁目３７番６号ＢＫビル１Ｆ,,13,118,1160011,,,,,,,2021-09-06,1,,,,,イナック,0
3021,9011701024682,新規,0,2021-09-06,2021-09-06,ＹＦ防水株式会社,,株式会社,東京都,江戸川区,東松本１丁目６－９－１１１,,13,123,1330071,,,,,,,2021-09-06,1,,,,,ワイエフボウスイ,0
3022,9011703002934,新規,0,2021-09-06,2021-09-06,合同会社Ｐｅｔ　ＬｉｎＱ　Ｐｌｕｓ,,合同会社,東京都,江戸川区,北葛西５丁目２６番９号,,13,123,1340081,,,,,,,2021-09-06,1,,,,,ペットリンクプラス,0
3025,9011803004764,新規,0,2021-09-06,2021-09-06,合同会社ねすとあ,,合同会社,東京都,葛飾区,亀有２丁目６４番１０号,,13,122,1250061,,,,,,,2021-09-06,1,,,,,ネストア,0
3027,9012401038270,新規,0,2021-09-06,2021-09-06,株式会社ライラック,,株式会社,東京都,三鷹市,大沢３丁目７番１２号,,13,204,1810015,,,,,,,2021-09-06,1,,,,,ライラック,0
3032,9012801021058,新規,0,2021-09-06,2021-09-06,株式会社ＬＩＦＥ－ＢＥＩＮＧ,,株式会社,東京都,立川市,錦町１丁目２４番２７号,,13,202,1900022,,,,,,,2021-09-06,1,,,,,ライフビーイング,0
3035,9013303005813,新規,0,2021-09-06,2021-09-06,合同会社ＬｉｖｅｌｙＣｒｅａ,,合同会社,東京都,豊島区,池袋本町４丁目１０番５号ビジュー池袋レジデンス１０２号,,13,116,1700011,,,,,,,2021-09-06,1,,,,,ライブリークリエ,0
3038,9020001142839,新規,0,2021-09-06,2021-09-06,株式会社セレ・プレイス４１,,株式会社,神奈川県,横浜市都筑区,荏田南２丁目２３番１４号アルカディアＪ,,14,118,2240007,,,,,,,2021-09-06,1,,,,,セレプレイスフォーティーワン,0
3039,9020001142855,新規,0,2021-09-06,2021-09-06,株式会社リライフ,,株式会社,神奈川県,川崎市川崎区,榎町１番１７号,,14,131,2100002,,,,,,,2021-09-06,1,,,,,リライフ,0
3040,9020001142888,新規,0,2021-09-06,2021-09-06,株式会社Ｍ．Ｐ．Ｃ,,株式会社,神奈川県,横浜市戸塚区,戸塚町４０００番地５,,14,110,2440003,,,,,,,2021-09-06,1,,,,,エムピーシー,0
3042,9020003020431,新規,0,2021-09-06,2021-09-06,合同会社ＳｔｕｄｉｏＭａｎｏｍａｎａ,,合同会社,神奈川県,横浜市青葉区,美しが丘１丁目１３番地９プラザ１０－３０３号,,14,117,2250002,,,,,,,2021-09-06,1,,,,,スタジオマノマナ,0
3045,9021001073842,新規,0,2021-09-06,2021-09-06,株式会社アドライナー,,株式会社,神奈川県,大和市,渋谷５丁目１－５,,14,213,2420023,,,,,,,2021-09-06,1,,,,,アドライナー,0
3046,9021001073859,新規,0,2021-09-06,2021-09-06,株式会社マズワ,,株式会社,神奈川県,藤沢市,鵠沼海岸６丁目１３番１７号,,14,205,2510037,,,,,,,2021-09-06,1,,,,,マズワ,0
3047,9021001073883,新規,0,2021-09-06,2021-09-06,株式会社ＷＡＶＥ,,株式会社,神奈川県,座間市,栗原中央２丁目２番１５号,,14,216,2520014,,,,,,,2021-09-06,1,,,,,ウェーブ,0
3060,9030001144108,新規,0,2021-09-06,2021-09-06,株式会社Ｈ＆ＳＢＣｍｏｒｅ,,株式会社,埼玉県,坂戸市,八幡２丁目３番３１号第五レジデンスアゼリア３０１号室,,11,239,3500223,,,,,,,2021-09-06,1,,,,,エイチアンドエスビーシーモア,0
3061,9030001144132,新規,0,2021-09-06,2021-09-06,株式会社美南,,株式会社,埼玉県,吉川市,美南５丁目１２番地１４,,11,243,3420038,,,,,,,2021-09-06,1,,,,,ミナミ,0
3062,9030001144140,新規,0,2021-09-06,2021-09-06,株式会社ｉｒｏｄｏｒｉ,,株式会社,埼玉県,入間市,下藤沢５丁目２番地１１,,11,225,3580011,,,,,,,2021-09-06,1,,,,,イロドリ,0
3063,9030001144157,新規,0,2021-09-06,2021-09-06,株式会社タカソウオート,,株式会社,埼玉県,越谷市,大字増林５３５２番地２,,11,222,3430011,,,,,,,2021-09-06,1,,,,,タカソウオート,0
3064,9030001144165,新規,0,2021-09-06,2021-09-06,株式会社アトム流通,,株式会社,埼玉県,三郷市,谷口５２６番地１,,11,237,3410042,,,,,,,2021-09-06,1,,,,,,0
3065,9030001144207,新規,0,2021-09-06,2021-09-06,株式会社飛駒テック,,株式会社,埼玉県,川口市,大字道合１２４６番地,,11,203,3330835,,,,,,,2021-09-06,1,,,,,ヒコマテック,0
3066,9030001144215,新規,0,2021-09-06,2021-09-06,宝投資ファンド株式会社,,株式会社,埼玉県,三郷市,戸ケ崎３丁目５１５番地,,11,237,3410044,,,,,,,2021-09-06,1,,,,,タカラトウシファンド,0
3067,9030001144223,新規,0,2021-09-06,2021-09-06,株式会社エージェンシーホームズ,,株式会社,埼玉県,草加市,両新田西町１５１－７,,11,221,3400027,,,,,,,2021-09-06,1,,,,,エージェンシーホームズ,0
3069,9030003017889,新規,0,2021-09-06,2021-09-06,バリューズコネクト合同会社,,合同会社,埼玉県,さいたま市見沼区,大字中川５３７－１,,11,104,3370043,,,,,,,2021-09-06,1,,,,,バリューズコネクト,0
3070,9030003017897,新規,0,2021-09-06,2021-09-06,合同会社Ｓｈｕｐｙ,,合同会社,埼玉県,越谷市,大字大林４８３番地６,,11,222,3430021,,,,,,,2021-09-06,1,,,,,シューピー,0
3071,9030003017906,新規,0,2021-09-06,2021-09-06,Ｓｉｔｙ　Ｄｒｉｖｅ合同会社,,合同会社,埼玉県,朝霞市,根岸台７丁目４１番３５号コートヴィレッジ鈴木Ｂ１０２,,11,227,3510005,,,,,,,2021-09-06,1,,,,,シティドライブ,0
3075,9040001120000,新規,0,2021-09-06,2021-09-06,スギタホームズ株式会社,,株式会社,千葉県,成田市,大清水２４２番地３,,12,211,2860122,,,,,,,2021-09-06,1,,,,,スギタホームズ,0
3076,9040001120009,新規,0,2021-09-06,2021-09-06,株式会社アイズカンパニー,,株式会社,千葉県,市川市,八幡２丁目５番８－４０９号,,12,203,2720021,,,,,,,2021-09-06,1,,,,,アイズカンパニー,0
3077,9040001120017,新規,0,2021-09-06,2021-09-06,株式会社佼和テクノスホールディングス,,株式会社,千葉県,市原市,能満２１４３番地７５,,12,219,2900011,,,,,,,2021-09-06,1,,,,,コウワテクノスホールディングス,0
3078,9040001120025,新規,0,2021-09-06,2021-09-06,ペンギンエアコン株式会社,,株式会社,千葉県,白井市,冨士６８－１５,,12,232,2701432,,,,,,,2021-09-06,1,,,,,ペンギンエアコン,0
3079,9040001120033,新規,0,2021-09-06,2021-09-06,リアルユアーズエステート株式会社,,株式会社,千葉県,船橋市,藤原３丁目２１番２７号,,12,204,2730047,,,,,,,2021-09-06,1,,,,,リアルユアーズエステート,0
3080,9040001120066,新規,0,2021-09-06,2021-09-06,株式会社アレスト,,株式会社,千葉県,松戸市,金ケ作３６５番２,,12,207,2702251,,,,,,,2021-09-06,1,,,,,アレスト,0
3081,9040001120074,新規,0,2021-09-06,2021-09-06,ＮＥＷ　ＦＯＲＴＵＮＥ株式会社,,株式会社,千葉県,千葉市中央区,市場町４番８号,,12,101,2600855,,,,,,,2021-09-06,1,,,,,ニューフォーチュン,0
3082,9040001120082,新規,0,2021-09-06,2021-09-06,株式会社松永住設,,株式会社,千葉県,佐倉市,井野１５０３番地１０,,12,212,2850855,,,,,,,2021-09-06,1,,,,,マツナガジュウセツ,0
3083,9040001120090,新規,0,2021-09-06,2021-09-06,株式会社Ｙ．Ｓ．Ｍａｒｔ,,株式会社,千葉県,千葉市中央区,本町３丁目６番３号メゾン本町３０１,,12,101,2600012,,,,,,,2021-09-06,1,,,,,ワイエスマート,0
3084,9040001120108,新規,0,2021-09-06,2021-09-06,株式会社リボーンズ,,株式会社,千葉県,柏市,大津ケ丘１丁目５４番地５棟１０２号,,12,217,2770921,,,,,,,2021-09-06,1,,,,,リボーンズ,0
3088,9040003018440,新規,0,2021-09-06,2021-09-06,合同会社宮本ケアセンター,,合同会社,千葉県,柏市,富里１丁目１番１号,,12,217,2770081,,,,,,,2021-09-06,1,,,,,ミヤモトケアセンター,0
3089,9040003018465,新規,0,2021-09-06,2021-09-06,三和興業合同会社,,合同会社,千葉県,成田市,寺台５５５番地１,,12,211,2860022,,,,,,,2021-09-06,1,,,,,サンワコウギョウ,0
3092,9050001049809,新規,0,2021-09-06,2021-09-06,株式会社ガーデンズ,,株式会社,茨城県,水戸市,鯉淵町４０９４番地の１,,08,201,3190323,,,,,,,2021-09-06,1,,,,,ガーデンズ,0
3093,9050003006056,新規,0,2021-09-06,2021-09-06,合同会社サワデザイン,,合同会社,茨城県,つくば市,下広岡４５０番地３０,,08,220,3050042,,,,,,,2021-09-06,1,,,,,サワデザイン,0
3094,9050003006064,新規,0,2021-09-06,2021-09-06,合同会社マヌルモデルス,,合同会社,茨城県,つくば市,学園南２丁目４番地４パークハウスつくば研究学園さくらレジデンス４０５号,,08,220,3050818,,,,,,,2021-09-06,1,,,,,マヌルモデルス,0
3102,9070001038396,新規,0,2021-09-06,2021-09-06,ぐんまセントラル株式会社,,株式会社,群馬県,前橋市,大手町３丁目１番１０号,,10,201,3710026,,,,,,,2021-09-06,1,,,,,グンマセントラル,0
3107,9080101022737,新規,0,2021-09-06,2021-09-06,クヴェルワークス株式会社,,株式会社,静岡県,富士市,中央町２丁目２番５号文化図書第２ビル２Ｆ,,22,210,4170052,,,,,,,2021-09-06,1,,,,,クヴェルワークス,0
3108,9080103002415,新規,0,2021-09-06,2021-09-06,ａｏ　ａｋｕａ合同会社,,合同会社,静岡県,富士宮市,小泉５７２番地の２２,,22,207,4180022,,,,,,,2021-09-06,1,,,,,アオアクア,0
3110,9080401025316,新規,0,2021-09-06,2021-09-06,株式会社ＮＤ通信,,株式会社,静岡県,浜松市北区,細江町気賀１６４６番地の２０,,22,135,4311305,,,,,,,2021-09-06,1,,,,,エヌディツウシン,0
3115,9090001017175,新規,0,2021-09-06,2021-09-06,株式会社冨土健幸,,株式会社,山梨県,甲府市,大手１丁目２番２１号イノベーションベースＳｏｉｅ１０２,,19,201,4000015,,,,,,,2021-09-06,1,,,,,フジケンコウ,0
3116,9090001017183,新規,0,2021-09-06,2021-09-06,株式会社らくすい,,株式会社,山梨県,甲府市,湯村１丁目１１番５号,,19,201,4000073,,,,,,,2021-09-06,1,,,,,,0
3123,9100003006224,新規,0,2021-09-06,2021-09-06,合同会社シャレード,,合同会社,長野県,佐久市,下越１番地５１,,20,217,3840414,,,,,,,2021-09-06,1,,,,,シャレード,0
3124,9110001036024,新規,0,2021-09-06,2021-09-06,柏崎建設株式会社,,株式会社,新潟県,柏崎市,大字佐藤池新田９０番地１,,15,205,9451354,,,,,,,2021-09-06,1,,,,,カシワザキケンセツ,0
3126,9110003004565,新規,0,2021-09-06,2021-09-06,合同会社メロディ,,合同会社,新潟県,新潟市秋葉区,東島４８番地５,,15,105,9560841,,,,,,,2021-09-06,1,,,,,メロディ,0
3135,9120001240137,新規,0,2021-09-06,2021-09-06,株式会社ＳｅｔｏＷａ,,株式会社,大阪府,大阪市西区,立売堀３丁目６番２１－６０３号,,27,106,5500012,,,,,,,2021-09-06,1,,,,,セトワ,0
3136,9120001240161,新規,0,2021-09-06,2021-09-06,株式会社家根徳,,株式会社,大阪府,大阪市生野区,勝山南３丁目１２番２９号,,27,116,5440021,,,,,,,2021-09-06,1,,,,,ヤネトク,0
3137,9120001240178,新規,0,2021-09-06,2021-09-06,株式会社ＴＣＯ,,株式会社,大阪府,大阪市淀川区,十三本町３丁目６番２７号グリーンハイツ十三１０５号,,27,123,5320024,,,,,,,2021-09-06,1,,,,,ティーシーオー,0
3138,9120001240194,新規,0,2021-09-06,2021-09-06,株式会社セレモニー苑,,株式会社,大阪府,大阪市旭区,中宮１丁目１番５号,,27,117,5350003,,,,,,,2021-09-06,1,,,,,セレモニーエン,0
3139,9120001240211,新規,0,2021-09-06,2021-09-06,Ｐ＆Ｇ株式会社,,株式会社,大阪府,大阪市東淀川区,大隅１丁目６番３６号,,27,114,5330015,,,,,,,2021-09-06,1,,,,,ピーアンドジー,0
3140,9120001240228,新規,0,2021-09-06,2021-09-06,株式会社築地工業,,株式会社,大阪府,門真市,南野口町８－６,,27,223,5710005,,,,,,,2021-09-06,1,,,,,ツイジコウギョウ,0
3141,9120003020157,新規,0,2021-09-06,2021-09-06,合同会社ｓｔｒｅａｍｅ商事,,合同会社,大阪府,大阪市北区,大淀中５丁目１４番２号２０１号,,27,127,5310076,,,,,,,2021-09-06,1,,,,,ストリームショウジ,0
3142,9120005022473,新規,0,2021-09-06,2021-09-06,弁護士法人かがりび綜合法律事務所,,その他の設立登記法人,大阪府,大阪市西区,新町１丁目２番１３号新町ビル１０階,,27,106,5500013,,,,,,,2021-09-06,1,,,,,カガリビソウゴウホウリツジムショ,0
3143,9120005022481,新規,0,2021-09-06,2021-09-06,一般社団法人いちごいちえ,,その他の設立登記法人,大阪府,大阪市中央区,島之内１丁目４番７号,,27,128,5420082,,,,,,,2021-09-06,1,,,,,イチゴイチエ,0
3145,9120101064246,新規,0,2021-09-06,2021-09-06,株式会社ポジティブアイデア,,株式会社,大阪府,泉佐野市,下瓦屋３丁目１５番６５号,,27,213,5980062,,,,,,,2021-09-06,1,,,,,ポジティブアイデア,0
3147,9120901044851,新規,0,2021-09-06,2021-09-06,株式会社Ｍｉｒａｇｅ,,株式会社,大阪府,箕面市,桜２丁目７番２３―２０３号,,27,220,5620041,,,,,,,2021-09-06,1,,,,,ミラージュ,0
3150,9122003002168,新規,0,2021-09-06,2021-09-06,合同会社Ｋ２Ｔ,,合同会社,大阪府,大東市,御領３丁目１番１８号,,27,218,5740064,,,,,,,2021-09-06,1,,,,,ケイツーティー,0
3154,9130001070038,新規,0,2021-09-06,2021-09-06,鈴木工務店株式会社,,株式会社,京都府,長岡京市,友岡西畑４３－１－２０１,,26,209,6170843,,,,,,,2021-09-06,1,,,,,スズキコウムテン,0
3155,9130001070046,新規,0,2021-09-06,2021-09-06,株式会社ＫＲＩ調査測量設計所,,株式会社,京都府,京都市南区,久世中久世町１丁目６１番地,,26,107,6018213,,,,,,,2021-09-06,1,,,,,ケイアールアイチョウサソクリョウセッケイショ,0
3156,9130003007450,新規,0,2021-09-06,2021-09-06,鳳舞楼合同会社,,合同会社,京都府,京都市上京区,仕丁町３２７－７,,26,102,6028071,,,,,,,2021-09-06,1,,,,,ホウマイロウ,0
3157,9130003007467,新規,0,2021-09-06,2021-09-06,パルピテーション合同会社,,合同会社,京都府,京都市北区,上賀茂岡本町２番地,,26,101,6038081,,,,,,,2021-09-06,1,,,,,パルピテーション,0
3164,9140001122903,新規,0,2021-09-06,2021-09-06,株式会社伊藤新聞舗,,株式会社,兵庫県,朝来市,羽渕６４４番地６,,28,225,6793441,,,,,,,2021-09-06,1,,,,,イトウシンブンホ,0
3165,9140001122928,新規,0,2021-09-06,2021-09-06,株式会社ミスタータイヤマンナカシマ,,株式会社,兵庫県,姫路市,花田町一本松３５２番地１,,28,201,6710253,,,,,,,2021-09-06,1,,,,,ミスタータイヤマンナカシマ,0
3166,9140001122944,新規,0,2021-09-06,2021-09-06,株式会社ＤＳコトブキヤ,,株式会社,兵庫県,伊丹市,北野５丁目９番１－１０１号,,28,207,6640007,,,,,,,2021-09-06,1,,,,,ディーエスコトブキヤ,0
3167,9140001122960,新規,0,2021-09-06,2021-09-06,株式会社ＭＥＴＡＬ　ＧＲＯＷ,,株式会社,兵庫県,姫路市,的形町的形３８９３番地６８,,28,201,6710111,,,,,,,2021-09-06,1,,,,,メタルグロー,0
3174,9140003016698,新規,0,2021-09-06,2021-09-06,ＨＩＯＲＩオフィス合同会社,,合同会社,兵庫県,姫路市,苫編１０９番地カーサパレルモ２０５,,28,201,6700986,,,,,,,2021-09-06,1,,,,,ヒオリオフィス,0
3175,9140003016707,新規,0,2021-09-06,2021-09-06,合同会社ＹＣＳＫ,,合同会社,兵庫県,加古郡播磨町,東野添３丁目８番７３号,,28,382,6750159,,,,,,,2021-09-06,1,,,,,ワイシーエスケー,0
3191,9180001147657,新規,0,2021-09-06,2021-09-06,株式会社みはらしデザイン,,株式会社,愛知県,名古屋市西区,名駅１丁目１番１７号名駅ダイヤメイテツビル１１階,,23,104,4510045,,,,,,,2021-09-06,1,,,,,ミハラシデザイン,0
3192,9180001147698,新規,0,2021-09-06,2021-09-06,ｉｎ　ｔｈｅ　Ａｉｒ株式会社,,株式会社,愛知県,名古屋市千種区,稲舟通１丁目１４番地,,23,101,4640824,,,,,,,2021-09-06,1,,,,,インジエアー,0
3193,9180001147707,新規,0,2021-09-06,2021-09-06,株式会社Ｋ’ｓ　ｓｕｐｐｏｒｔ,,株式会社,愛知県,小牧市,大字久保一色１４６０番地１０４,,23,219,4850003,,,,,,,2021-09-06,1,,,,,ケーズサポート,0
3194,9180001147715,新規,0,2021-09-06,2021-09-06,クリタ建築株式会社,,株式会社,愛知県,名古屋市緑区,太子３丁目１４２番地,,23,114,4580823,,,,,,,2021-09-06,1,,,,,クリタケンチク,0
3195,9180001147723,新規,0,2021-09-06,2021-09-06,株式会社ＳＴＡＲ－Ｍ,,株式会社,愛知県,名古屋市中川区,法華西町３丁目２７番地２,,23,110,4540937,,,,,,,2021-09-06,1,,,,,スターム,0
3196,9180001147731,新規,0,2021-09-06,2021-09-06,エーケイ株式会社,,株式会社,愛知県,名古屋市緑区,有松町大字桶狭間字高根３９番第３０８番地,,23,114,4580911,,,,,,,2021-09-06,1,,,,,エーケイ,0
3204,9180003022924,新規,0,2021-09-06,2021-09-06,合同会社ＢＬＵＥ　ＹＡＲＤ,,合同会社,愛知県,名古屋市中区,大須１丁目７番１４号パークＩＭビル２Ｆ,,23,106,4600011,,,,,,,2021-09-06,1,,,,,ブルーヤード,0
3206,9180301035330,新規,0,2021-09-06,2021-09-06,株式会社Ｗｈｉｔｅ,,株式会社,愛知県,豊橋市,松葉町２丁目３２番地,,23,201,4400897,,,,,,,2021-09-06,1,,,,,ホワイト,0
3215,9200001039083,新規,0,2021-09-06,2021-09-06,株式会社総合管理絆,,株式会社,岐阜県,可児市,兼山４１８番地,,21,214,5050130,,,,,,,2021-09-06,1,,,,,ソウゴウカンリキズナ,0
3216,9200001039100,新規,0,2021-09-06,2021-09-06,株式会社服部石材,,株式会社,岐阜県,中津川市,中川町３番６号,,21,206,5080021,,,,,,,2021-09-06,1,,,,,ハットリセキザイ,0
3217,9200003005298,新規,0,2021-09-06,2021-09-06,弘進商事合同会社,,合同会社,岐阜県,恵那市,長島町中野１１６１番地６,,21,210,5097205,,,,,,,2021-09-06,1,,,,,コウシンショウジ,0
3233,9240001058534,新規,0,2021-09-06,2021-09-06,株式会社中田板金,,株式会社,広島県,福山市,新市町大字新市３１０番地１,,34,207,7293103,,,,,,,2021-09-06,1,,,,,ナカタバンキン,0
3234,9240001058550,新規,0,2021-09-06,2021-09-06,株式会社元永工務店,,株式会社,広島県,呉市,焼山宮ヶ迫２丁目１９番１号,,34,202,7370908,,,,,,,2021-09-06,1,,,,,モトナガコウムテン,0
3235,9240001058559,新規,0,2021-09-06,2021-09-06,株式会社エムズルーツ,,株式会社,広島県,広島市南区,皆実町１丁目１９番２５号,,34,103,7340007,,,,,,,2021-09-06,1,,,,,エムズルーツ,0
3240,9250001019097,新規,0,2021-09-06,2021-09-06,株式会社石商千華,,株式会社,山口県,周南市,大字樋口１６６７番地の１,00124139,35,215,7450622,,,,,,,2021-09-06,1,,,,,セキショウセンカ,0
3245,9260001035944,新規,0,2021-09-06,2021-09-06,株式会社Ｄｒｅｓｓ　Ｌｉｆｅ　Ｄｅｓｉｇｎ,,株式会社,岡山県,倉敷市,平田７１６番地４ジョワイユーマーサＣ棟１０７,,33,202,7100003,,,,,,,2021-09-06,1,,,,,ドレスライフデザイン,0
3250,9290001094459,新規,0,2021-09-06,2021-09-06,株式会社宇津木コールド,,株式会社,福岡県,太宰府市,水城４丁目１番１１号,,40,221,8180131,,,,,,,2021-09-06,1,,,,,ウツキコールド,0
3255,9290003011569,新規,0,2021-09-06,2021-09-06,ｕｎｉｖｅｒｓｅ合同会社,,合同会社,福岡県,福岡市博多区,板付６丁目２番３２号Ｄｒｏｏｍ博多南Ｂ棟１０３号,,40,132,8120888,,,,,,,2021-09-06,1,,,,,ユニバース,0
3256,9290003011577,新規,0,2021-09-06,2021-09-06,合同会社Ｂｒｅａｋ　Ｒｏｏｍ,,合同会社,福岡県,福岡市早良区,城西３丁目１３－２３,,40,137,8140003,,,,,,,2021-09-06,1,,,,,ブレイクルーム,0
3259,9290005018356,新規,0,2021-09-06,2021-09-06,ファミリア税理士法人,,その他の設立登記法人,福岡県,大野城市,若草４丁目３番２３－２０１号,,40,219,8160981,,,,,,,2021-09-06,1,,,,,ファミリア,0
3264,9290803003922,新規,0,2021-09-06,2021-09-06,ＡＩＴ合同会社,,合同会社,福岡県,遠賀郡芦屋町,幸町６番４５号,,40,381,8070101,,,,,,,2021-09-06,1,,,,,エーアイティー,0
3266,9310001017458,新規,0,2021-09-06,2021-09-06,歯ッピーヘルス株式会社,,株式会社,長崎県,島原市,上新丁１丁目４１５８番地１まき歯科,,42,203,8550067,,,,,,,2021-09-06,1,,,,,ハッピーヘルス,0
3269,9320001018579,新規,0,2021-09-06,2021-09-06,株式会社Ｓｐｅｃｔｒｕｍ　Ｓｅｃｕｒｅ　Ｔｅｃｈｎｏｌｏｇｙ,,株式会社,大分県,大分市,中春日町１３番５号ボンヌール春日４０３,,44,201,8700039,,,,,,,2021-09-06,1,,,,,スペクトルセキュアテクノロジー,0
3272,9330001028981,新規,0,2021-09-06,2021-09-06,株式会社ＯＴＨＥＬＬＯ,,株式会社,熊本県,熊本市中央区,上通町１０－３緑ビル２Ｆ,,43,101,8600845,,,,,,,2021-09-06,1,,,,,オセロ,0
3278,9340001024063,新規,0,2021-09-06,2021-09-06,株式会社西村ポンプサービス,,株式会社,鹿児島県,鹿児島市,吉野町７８２７番地２,,46,201,8920871,,,,,,,2021-09-06,1,,,,,ニシムラポンプサービス,0
3279,9340003003544,新規,0,2021-09-06,2021-09-06,ＳＴＡＲＴ　ＵＰ合同会社,,合同会社,鹿児島県,鹿児島市,松原町１番１３－９０１号,,46,201,8920833,,,,,,,2021-09-06,1,,,,,スタートアップ,0
3283,9360001029309,新規,0,2021-09-06,2021-09-06,株式会社Ｐａｌｍ　Ｔｒｅｅ,,株式会社,沖縄県,名護市,字屋部８６２番地５９,,47,209,9050007,,,,,,,2021-09-06,1,,,,,パルムツリー,0
3284,9360001029325,新規,0,2021-09-06,2021-09-06,株式会社アリスティ,,株式会社,沖縄県,うるま市,石川伊波４９３番地９,,47,213,9041115,,,,,,,2021-09-06,1,,,,,アリスティ,0
3285,9360001029333,新規,0,2021-09-06,2021-09-06,株式会社Ｒｉｃｈ＆Ｌｉｆｅ,,株式会社,沖縄県,名護市,字為又８４５番地１コーポＹＡＫＡびいまた１０１,,47,209,9050005,,,,,,,2021-09-06,1,,,,,リッチアンドライフ,0
3286,9360001029341,新規,0,2021-09-06,2021-09-06,Ｍａｔｓｏｎ　Ｓｈｉｐｐｉｎｇ　Ｊａｐａｎ株式会社,,株式会社,沖縄県,宜野湾市,大山２丁目２２番１９－２０１号,,47,205,9012223,,,,,,,2021-09-06,1,,,,,マトソンシッピングジャパン,0
3289,9370001047549,新規,0,2021-09-06,2021-09-06,株式会社Ｔｒｉａｄ,,株式会社,宮城県,仙台市青葉区,みやぎ台２丁目３１番１１号,,04,101,9893214,,,,,,,2021-09-06,1,,,,,トライアド,0
3292,9370003005380,新規,0,2021-09-06,2021-09-06,合同会社アルクトス,,合同会社,宮城県,仙台市青葉区,中央２丁目９番７号アーバンブリッジビルディング２階－３区画,,04,101,9800021,,,,,,,2021-09-06,1,,,,,アルクトス,0
3294,9380001032178,新規,0,2021-09-06,2021-09-06,株式会社ミライプレシジョン,,株式会社,福島県,伊達郡川俣町,大字羽田字畝歩内６番地１,,07,308,9601408,,,,,,,2021-09-06,1,,,,,ミライプレシジョン,0
3297,9380005012473,新規,0,2021-09-06,2021-09-06,特定非営利活動法人共創未来,,その他の設立登記法人,福島県,いわき市,四倉町上仁井田字北浜８９番地の２,,07,204,9790202,,,,,,,2021-09-06,1,,,,,キョウソウミライ,0
3300,9390001016584,新規,0,2021-09-06,2021-09-06,株式会社佐藤商店,,株式会社,山形県,天童市,本町１丁目４番１５号,,06,210,9940034,,,,,,,2021-09-06,1,,,,,サトウショウテン,0
3301,9390003001865,新規,0,2021-09-06,2021-09-06,合同会社ハイドロパワー,,合同会社,山形県,酒田市,古湊町７－４１,,06,204,9980071,,,,,,,2021-09-06,1,,,,,ハイドロパワー,0
3305,9400001015592,新規,0,2021-09-06,2021-09-06,株式会社Ｔクリエイト,,株式会社,岩手県,北上市,相去町山根梨の木４３番地１５３,,03,206,0240051,,,,,,,2021-09-06,1,,,,,ティークリエイト,0
3307,9400003002829,新規,0,2021-09-06,2021-09-06,合同会社グラムス,,合同会社,岩手県,盛岡市,本町通２丁目１１番２７号東第２ビル２Ｆ,,03,201,0200015,,,,,,,2021-09-06,1,,,,,グラムス,0
3309,9410001012952,新規,0,2021-09-06,2021-09-06,株式会社男鹿水産加工,,株式会社,秋田県,男鹿市,船川港船川字芦沢２０５番地,00124137,05,206,0100511,,,,,,,2021-09-06,1,,,,,オガスイサンカコウ,0
3312,9410005006422,新規,0,2021-09-06,2021-09-06,農事組合法人象潟ファーム,,その他の設立登記法人,秋田県,にかほ市,象潟町字中橋町１０２番地,,05,214,0180127,,,,,,,2021-09-06,1,,,,,,0
3321,9430003013121,新規,0,2021-09-06,2021-09-06,合同会社シルキー除雪サービス,,合同会社,北海道,札幌市白石区,東米里２０８０番地３,,01,104,0030876,,,,,,,2021-09-06,1,,,,,シルキージョセツサービス,0
3326,9460103001394,新規,0,2021-09-06,2021-09-06,合同会社江藤電機,,合同会社,北海道,帯広市,西十四条南１４丁目１番地２,,01,207,0800024,,,,,,,2021-09-06,1,,,,,エトウデンキ,0
3332,9470001018688,新規,0,2021-09-06,2021-09-06,株式会社スリーエッジ,,株式会社,香川県,高松市,国分寺町柏原９６２番地,,37,201,7690105,,,,,,,2021-09-06,1,,,,,スリーエッジ,0
3333,9470001018696,新規,0,2021-09-06,2021-09-06,株式会社鯉滝流通サービス,,株式会社,香川県,高松市,国分寺町新居３３９５番地,,37,201,7690101,,,,,,,2021-09-06,1,,,,,コイタキリュウツウサービス,0
3335,9480001011477,新規,0,2021-09-06,2021-09-06,株式会社ｌｉｔｔｌｅ藍住,,株式会社,徳島県,板野郡松茂町,笹木野字八北開拓１番地２０１ＢＩＶＲＥＯｆｆｉｃｅ３Ｆ,,36,401,7710219,,,,,,,2021-09-06,1,,,,,リトルアイズミ,0
3337,9500001023668,新規,0,2021-09-06,2021-09-06,どんぐりファーム株式会社,,株式会社,愛媛県,伊予市,中山町出渕４番耕地１２２番地,,38,210,7913204,,,,,,,2021-09-06,1,,,,,ドングリファーム,0
3340,9700150104232,新規,0,2021-09-06,2021-07-30,山木茂後援会,,その他,広島県,広島市西区,庚午北２丁目１番４－３０１号,,34,104,7330821,,,,,,,2021-07-30,1,,,,,ヤマキシゲルコウエンカイ,0
