sequenceNumber,corporateNumber,process,correct,updateDate,changeDate,name,nameImageId,kind,prefectureName,cityName,streetNumber,addressImageId,prefectureCode,cityCode,postCode,addressOutside,addressOutsideImageId,closeDate,closeCause,successorCorporateNumber,changeCause,assignmentDate,latest,enName,enPrefectureName,enCityName,enAddressOutside,furigana,hihyoji
3,1010001086169,登記記録の閉鎖等,0,2021-10-15,2021-10-06,株式会社ヘルス・システム研究所,,株式会社,東京都,千代田区,内神田２丁目５番３号,,13,101,1010047,,,2021-10-06,清算の結了等,,,2015-10-05,1,,,,,ヘルスシステムケンキュウジョ,0
9,1010003034027,登記記録の閉鎖等,0,2021-10-15,2021-10-08,合同会社三沢ソーラー,,合同会社,東京都,中央区,八重洲２丁目７番２号,,13,102,1040028,,,2021-10-08,合併による解散等,9010403013952,令和３年１０月８日東京都中央区八重洲二丁目７番２号合同会社Ｄ２Ｋ三沢ソーラー（9010403013952）に合併し解散,2021-01-27,1,,,,,ミサワソーラー,0
74,1021002030271,登記記録の閉鎖等,0,2021-10-15,2021-10-12,有限会社アルモ・ハウス,,有限会社,神奈川県,相模原市南区,新磯野４丁目６番３－５０７号,,14,153,2520325,,,2021-10-12,清算の結了等,,,2015-10-05,1,,,,,アルモハウス,0
96,1040002047704,登記記録の閉鎖等,0,2021-10-15,2021-10-06,有限会社中山鉄工,,有限会社,千葉県,松戸市,中根長津町２９番地,,12,207,2710054,,,2021-10-06,清算の結了等,,,2015-10-05,1,,,,,ナカヤマテッコウ,0
101,1050001023168,登記記録の閉鎖等,0,2021-10-15,2021-10-01,株式会社バグース,,株式会社,東京都,港区,芝４丁目１番２３号三田ＮＮビル１８階,,13,103,1080014,,,2021-10-01,合併による解散等,4010401130622,令和３年１０月１日東京都港区芝四丁目１番２３号三田ＮＮビル１８階株式会社ダイヤモンドダイニング（4010401130622）に合併し解散,2015-10-05,1,,,,,バグース,0
120,1100002007619,登記記録の閉鎖等,0,2021-10-15,2021-10-12,有限会社ラヴニール,,有限会社,長野県,長野市,吉田５丁目２３番１１号,,20,201,3810043,,,2021-10-12,清算の結了等,,,2015-10-05,1,,,,,ラヴニール,0
135,1120002034941,登記記録の閉鎖等,0,2021-10-15,2021-10-08,有限会社オフィス・エー,,有限会社,大阪府,大阪市中央区,博労町１丁目１番６号,,27,128,5410059,,,2021-10-08,清算の結了等,,,2015-10-05,1,,,,,オフィスエー,0
140,1120105004445,登記記録の閉鎖等,0,2021-10-15,2021-10-14,特定非営利活動法人すたぁと,,その他の設立登記法人,大阪府,堺市南区,槇塚台４丁３番３５号,,27,145,5900114,,,2021-10-14,清算の結了等,,,2015-10-05,1,,,,,スタァト,0
152,1140001057504,登記記録の閉鎖等,0,2021-10-15,2021-10-04,株式会社アイワ工業,,株式会社,兵庫県,姫路市,広畑区長町２丁目１１４番地の１,,28,201,6711125,,,2021-10-04,清算の結了等,,,2021-09-24,1,,,,,アイワコウギョウ,0
172,1180001029838,登記記録の閉鎖等,0,2021-10-15,2021-10-11,株式会社加藤業務店,,株式会社,愛知県,名古屋市中村区,長筬町５丁目１６番地の１,,23,105,4530839,,,2021-10-11,清算の結了等,,,2015-10-05,1,,,,,カトウギョウムテン,0
184,1180302014241,登記記録の閉鎖等,0,2021-10-15,2021-10-13,有限会社吉田靴店,,有限会社,愛知県,豊川市,末広通４丁目１７番地の４,,23,207,4420029,,,2021-10-13,清算の結了等,,,2015-10-05,1,,,,,ヨシダクツテン,0
192,1200002025841,登記記録の閉鎖等,0,2021-10-15,2021-10-12,有限会社飛騨ヘルシーファーム,00077120,有限会社,岐阜県,高山市,問屋町６番地,,21,203,5060002,,,2021-10-12,清算の結了等,,,2015-10-05,1,,,,,ヒダヘルシーファーム,0
208,1240002033469,登記記録の閉鎖等,0,2021-10-15,2021-10-11,豊建設有限会社,,有限会社,広島県,呉市,広古新開５丁目２番１６号,,34,202,7370112,,,2021-10-11,清算の結了等,,,2015-10-05,1,,,,,トヨケンセツ,0
225,1290005005361,登記記録の閉鎖等,0,2021-10-15,2021-10-08,福岡市メンテナンス協同組合,,その他の設立登記法人,福岡県,福岡市西区,姪浜駅南４丁目１２番１２号,,40,135,8190006,,,2021-10-08,清算の結了等,,,2015-10-05,1,,,,,フクオカシメンテナンス,0
239,1340001009757,登記記録の閉鎖等,0,2021-10-15,2021-10-08,株式会社モトムラ,,株式会社,鹿児島県,熊毛郡中種子町,野間５１０１番地２,,46,501,8913604,,,2021-10-08,清算の結了等,,,2015-10-05,1,,,,,,0
248,1360003008425,登記記録の閉鎖等,0,2021-10-15,2021-10-01,合同会社もとぶ食品,,合同会社,沖縄県,名護市,字伊差川５１４番地,,47,209,9051152,,,2021-10-01,清算の結了等,,,2017-09-20,1,,,,,モトブショクヒン,0
252,1370002013722,登記記録の閉鎖等,0,2021-10-15,2021-10-01,有限会社御幸,,有限会社,宮城県,仙台市青葉区,北山１丁目７番１５－４号,,04,101,9810931,,,2021-10-01,清算の結了等,,,2015-10-05,1,,,,,ミユキ,0
253,1370002020371,登記記録の閉鎖等,0,2021-10-15,2021-10-01,有限会社港興業,,有限会社,宮城県,黒川郡大郷町,川内字上新関１９番地,,04,422,9813514,,,2021-10-01,清算の結了等,,,2015-10-05,1,,,,,ミナトコウギョウ,0
254,1380002010693,登記記録の閉鎖等,0,2021-10-15,2021-10-11,有限会社大雅,,有限会社,福島県,郡山市,富久山町久保田字石堂４８番地３,,07,203,9638071,,,2021-10-11,清算の結了等,,,2015-10-05,1,,,,,タイガ,0
256,1390005002308,登記記録の閉鎖等,0,2021-10-15,2021-10-11,医療法人光山会,,その他の設立登記法人,山形県,天童市,大字山口１９１３番地の２,,06,210,9940101,,,2021-10-11,清算の結了等,,,2015-10-05,1,,,,,コウザンカイ,0
260,1430001006910,登記記録の閉鎖等,0,2021-10-15,2021-10-12,澤口板金株式会社,,株式会社,北海道,札幌市白石区,栄通５丁目８番２１号,,01,104,0030021,,,2021-10-12,清算の結了等,,,2015-10-05,1,,,,,サワグチバンキン,0
281,2010001109507,登記記録の閉鎖等,0,2021-10-15,2021-10-04,株式会社サイトウジャパン,,株式会社,埼玉県,川口市,本町２丁目２番１５号クレール川口１０３号,,11,203,3320012,,,2021-10-04,清算の結了等,,,2015-10-05,1,,,,,サイトウジャパン,0
294,2010002048506,登記記録の閉鎖等,0,2021-10-15,2021-10-11,有限会社サントライズ,,有限会社,東京都,中央区,日本橋横山町７－７,,13,102,1030003,,,2021-10-11,清算の結了等,,,2015-10-05,1,,,,,サントライズ,0
301,2010401096584,登記記録の閉鎖等,0,2021-10-15,2021-09-28,石山Ｇａｔｅｗａｙ　Ｈｏｌｄｉｎｇｓ株式会社,,株式会社,東京都,港区,新橋４丁目３０番６号,,13,103,1050004,,,2021-09-28,清算の結了等,,,2015-10-05,1,,,,,イシヤマゲートウェイホールディングス,0
314,2010701031893,登記記録の閉鎖等,0,2021-10-15,2021-10-11,ＨＲソリューションＤＣＳ株式会社,,株式会社,東京都,品川区,東品川４丁目１２番２号,,13,109,1400002,,,2021-10-11,合併による解散等,1010701016549,令和３年１０月１日東京都品川区東品川四丁目１２番２号三菱総研ＤＣＳ株式会社（1010701016549）に合併し解散,2016-01-22,1,,,,,エイチアールソリューションディーシーエス,0
315,2010701033543,登記記録の閉鎖等,0,2021-10-15,2021-10-12,株式会社ハネダコーポレーション,,株式会社,東京都,品川区,北品川１丁目１７番２号,,13,109,1400001,,,2021-10-12,清算の結了等,,,2017-01-11,1,,,,,ハネダコーポレーション,0
337,2011101062199,登記記録の閉鎖等,0,2021-10-15,2021-10-11,株式会社ハートダイニング,,株式会社,東京都,新宿区,歌舞伎町１丁目１６番１２号蓬麻ビル４Ｆ,00053842,13,104,1600021,,,2021-10-11,清算の結了等,,,2015-10-05,1,,,,,,0
354,2012301001888,登記記録の閉鎖等,0,2021-10-15,2021-09-30,株式会社ニューブリージング,,株式会社,東京都,町田市,木曽東１丁目９番２２号,,13,209,1940036,,,2021-09-30,清算の結了等,,,2015-10-05,1,,,,,ニューブリージング,0
412,2100001000573,登記記録の閉鎖等,0,2021-10-15,2021-10-12,株式会社おやきや総本家,,株式会社,長野県,長野市,小島田町７４９番地３,,20,201,3812212,,,2021-10-12,清算の結了等,,,2015-10-05,1,,,,,オヤキヤソウホンケ,0
435,2120101045698,登記記録の閉鎖等,0,2021-10-15,2021-10-11,株式会社アセンション,,株式会社,大阪府,岸和田市,下池田町１丁目５番２９号,,27,202,5960811,,,2021-10-11,清算の結了等,,,2015-10-05,1,,,,,アセンション,0
436,2120901035337,登記記録の閉鎖等,0,2021-10-15,2021-10-12,株式会社ダイチ,,株式会社,大阪府,高槻市,花林苑１８番６号,,27,207,5691018,,,2021-10-12,清算の結了等,,,2015-10-05,1,,,,,ダイチ,0
440,2130003003522,登記記録の閉鎖等,0,2021-10-15,2021-10-12,ドアーズ合同会社,,合同会社,京都府,京都市下京区,中堂寺南町１３４番地,,26,106,6008813,,,2021-10-12,清算の結了等,,,2015-10-05,1,,,,,ドアーズ,0
443,2140001010981,登記記録の閉鎖等,0,2021-10-15,2021-10-12,松屋ビル株式会社,,株式会社,兵庫県,神戸市中央区,磯辺通４丁目２番１号,,28,110,6510084,,,2021-10-12,清算の結了等,,,2015-10-05,1,,,,,マツヤビル,0
456,2140002039145,登記記録の閉鎖等,0,2021-10-15,2021-10-08,有限会社西井運送,,有限会社,兵庫県,養父市,八鹿町朝倉４８番地の１,,28,222,6670024,,,2021-10-08,清算の結了等,,,2015-10-05,1,,,,,ニシイウンソウ,0
468,2180001015102,登記記録の閉鎖等,0,2021-10-15,2021-10-11,友信工業株式会社,,株式会社,愛知県,名古屋市南区,柴田町１丁目３番地の１,,23,112,4570815,,,2021-10-11,清算の結了等,,,2015-10-05,1,,,,,ユウシンコウギョウ,0
481,2180001129884,登記記録の閉鎖等,0,2021-10-15,2021-10-12,株式会社大輝鉄建,,株式会社,愛知県,名古屋市緑区,鳴海町字赤塚９３番地の１,,23,114,4580845,,,2021-10-12,清算の結了等,,,2017-10-24,1,,,,,ダイキテッケン,0
488,2180301023003,登記記録の閉鎖等,0,2021-10-15,2021-10-13,矢野鉄工株式会社,,株式会社,愛知県,西尾市,一色町前野新田７８番地１,,23,213,4440407,,,2021-10-13,清算の結了等,,,2015-10-05,1,,,,,ヤノテッコウ,0
490,2210002012846,登記記録の閉鎖等,0,2021-10-15,2021-10-08,有限会社オートサービス福井,,有限会社,福井県,鯖江市,川去町第２０号４１番地,,18,207,9160088,,,2021-10-08,清算の結了等,,,2015-10-05,1,,,,,オートサービスフクイ,0
498,2240001038187,登記記録の閉鎖等,0,2021-10-15,2021-10-06,株式会社スパイラル,,株式会社,広島県,尾道市,新高山３丁目１１７０番地の１６１,,34,205,7220055,,,2021-10-06,清算の結了等,,,2015-10-05,1,,,,,スパイラル,0
530,2350001011133,登記記録の閉鎖等,0,2021-10-15,2021-10-04,株式会社コンパス,,株式会社,宮崎県,宮崎市,小松台東３丁目１番地１,,45,201,8800953,,,2021-10-04,清算の結了等,,,2015-10-05,1,,,,,コンパス,0
546,2430003006833,登記記録の閉鎖等,0,2021-10-15,2021-10-13,合同会社ｐｏｃｏ　Ａ　ｐｏｃｏ,,合同会社,北海道,札幌市厚別区,厚別中央三条３丁目２番１７号ヴィビ新さっぽろ１階,,01,108,0040053,,,2021-10-13,清算の結了等,,,2015-10-05,1,,,,,ポコアポコ,0
556,2480001002276,登記記録の閉鎖等,0,2021-10-15,2021-10-13,松屋衣料株式会社,,株式会社,徳島県,徳島市,西新町２丁目１３番地,,36,201,7700902,,,2021-10-13,清算の結了等,,,2015-10-05,1,,,,,マツヤイリョウ,0
566,3010001155888,登記記録の閉鎖等,0,2021-10-15,2021-10-04,ＮＲＪ株式会社,,株式会社,東京都,千代田区,神田神保町２丁目１３番地,,13,101,1010051,,,2021-10-04,清算の結了等,,,2015-10-05,1,,,,,エヌアールジェイ,0
596,3011001107524,登記記録の閉鎖等,0,2021-10-15,2021-10-08,株式会社ｓｔｕｄｉｏ　ＧＵＦＦＡＷ,,株式会社,東京都,新宿区,高田馬場４丁目９番１２号,,13,104,1690075,,,2021-10-08,清算の結了等,,,2015-10-05,1,,,,,スタジオグッファウ,0
610,3011202011839,登記記録の閉鎖等,0,2021-10-15,2021-10-11,有限会社フィナンシャルプランナーズオフィース,,有限会社,愛知県,名古屋市昭和区,戸田町５丁目１９番地,,23,107,4660846,,,2021-10-11,清算の結了等,,,2015-10-05,1,,,,,フィナンシャルプランナーズオフィース,0
616,3011501024681,登記記録の閉鎖等,0,2021-10-15,2021-10-12,グレーネス株式会社,,株式会社,東京都,北区,岩淵町８番１０号１０９室,,13,117,1150041,,,2021-10-12,清算の結了等,,,2019-04-22,1,,,,,グレーネス,0
620,3012301010186,登記記録の閉鎖等,0,2021-10-15,2021-09-30,株式会社クレームマスター,,株式会社,東京都,町田市,金井５丁目３２番１２号エクレール森の丘１０４,,13,209,1950072,,,2021-09-30,清算の結了等,,,2015-10-05,1,,,,,クレームマスター,0
645,3030001020982,登記記録の閉鎖等,0,2021-10-15,2021-10-01,株式会社高至保険,00014698,株式会社,埼玉県,蕨市,中央６丁目６番９号,,11,223,3350004,,,2021-10-01,清算の結了等,,,2015-10-05,1,,,,,タカシホケン,0
647,3030001045328,登記記録の閉鎖等,0,2021-10-15,2021-10-05,株式会社日本アドレス・システム,,株式会社,埼玉県,志木市,本町６丁目２３番２１号,,11,228,3530004,,,2021-10-05,清算の結了等,,,2015-10-05,1,,,,,ニホンアドレスシステム,0
655,3030002017136,登記記録の閉鎖等,0,2021-10-15,2021-10-05,有限会社ワイ・オー・ツー,,有限会社,埼玉県,さいたま市見沼区,大字東宮下６５４番地２９,,11,104,3370012,,,2021-10-05,清算の結了等,,,2015-10-05,1,,,,,ワイオーツー,0
668,3050002023529,登記記録の閉鎖等,0,2021-10-15,2021-10-07,有限会社オールモード,,有限会社,茨城県,つくば市,花畑２丁目１５番地２,,08,220,3003261,,,2021-10-07,清算の結了等,,,2015-10-05,1,,,,,,0
672,3060002005716,登記記録の閉鎖等,0,2021-10-15,2021-10-11,有限会社タカセオート,,有限会社,栃木県,宇都宮市,駒生町１７６５番地５,,09,201,3200065,,,2021-10-11,清算の結了等,,,2015-10-05,1,,,,,タカセオート,0
677,3070001002028,登記記録の閉鎖等,0,2021-10-15,2021-10-14,株式会社タカヤマ,,株式会社,群馬県,前橋市,文京町２丁目１４番２０号,,10,201,3710801,,,2021-10-14,清算の結了等,,,2015-10-05,1,,,,,タカヤマ,0
688,3110005016226,登記記録の閉鎖等,0,2021-10-15,2021-10-11,愛の里協同組合,,その他の設立登記法人,新潟県,長岡市,雨池町１５３番地,,15,202,9402055,,,2021-10-11,清算の結了等,,,2018-02-27,1,,,,,アイノサト,0
692,3120001164696,登記記録の閉鎖等,0,2021-10-15,2021-10-11,株式会社エイコー電気保安協会,,株式会社,大阪府,大阪市中央区,南船場２丁目５番２号エイコービル,,27,128,5420081,,,2021-10-11,清算の結了等,,,2015-10-05,1,,,,,エイコーデンキホアンキョウカイ,0
708,3120005013437,登記記録の閉鎖等,0,2021-10-15,2021-10-11,特定非営利活動法人つばさの会大阪,,その他の設立登記法人,大阪府,枚方市,大垣内町１丁目３番１号マインドビル,,27,210,5730027,,,2021-10-11,清算の結了等,,,2015-10-05,1,,,,,ツバサノカイオオサカ,0
709,3120101021789,登記記録の閉鎖等,0,2021-10-15,2021-10-12,株式会社ミヤタ,,株式会社,大阪府,堺市美原区,小寺７３８番地の２,,27,147,5870065,,,2021-10-12,清算の結了等,,,2015-10-05,1,,,,,ミヤタ,0
713,3120901025477,登記記録の閉鎖等,0,2021-10-15,2021-10-11,藤田伝株式会社,,株式会社,大阪府,豊中市,春日町１丁目９番８号,,27,203,5600052,,,2021-10-11,清算の結了等,,,2015-10-05,1,,,,,フジタデン,0
714,3120902007136,登記記録の閉鎖等,0,2021-10-15,2021-10-12,有限会社東西調査設計,,有限会社,大阪府,大阪市旭区,清水２丁目２１番３号,,27,117,5350021,,,2021-10-12,清算の結了等,,,2015-10-05,1,,,,,トウザイチョウサセッケイ,0
718,3122002010251,登記記録の閉鎖等,0,2021-10-15,2021-10-13,有限会社ＢＢ　Ｇｅｎｅｒａｔｉｏｎ　Ｃｏｍｐａｎｙ,,有限会社,大阪府,東大阪市,衣摺３丁目２番３４号,00034801,27,227,5770827,,,2021-10-13,清算の結了等,,,2015-10-05,1,,,,,ビービージェネレーションカンパニー,0
723,3130001043692,登記記録の閉鎖等,0,2021-10-15,2021-10-12,舞鶴ビルサービス株式会社,,株式会社,京都府,舞鶴市,字北田辺２１番地の１,,26,202,6240855,,,2021-10-12,清算の結了等,,,2015-10-05,1,,,,,マイヅルビルサービス,0
733,3140001103140,登記記録の閉鎖等,0,2021-10-15,2021-10-12,ノアエレクトロニクス株式会社,,株式会社,兵庫県,神戸市中央区,磯辺通３丁目１番２,,28,110,6510084,,,2021-10-12,合併による解散等,7010401050297,令和３年１０月１日東京都品川区南大井六丁目２１番１２号ノアソリューション株式会社（7010401050297）に合併し解散,2016-08-18,1,,,,,ノアエレクトロニクス,0
755,3180302022291,登記記録の閉鎖等,0,2021-10-15,2021-10-12,有限会社ジンフードシステムズ,,有限会社,愛知県,豊田市,美里５丁目１２番地１１,,23,211,4710805,,,2021-10-12,清算の結了等,,,2015-10-05,1,,,,,ジンフードシステムズ,0
758,3190003001965,登記記録の閉鎖等,0,2021-10-15,2021-10-08,合同会社尾鷲電気工事引込センター,,合同会社,三重県,尾鷲市,矢浜１丁目１４番３６号,,24,209,5193671,,,2021-10-08,清算の結了等,,,2015-10-05,1,,,,,オワセデンキコウジヒキコミセンター,0
783,3250001004658,登記記録の閉鎖等,0,2021-10-15,2021-10-14,株式会社白泉,,株式会社,山口県,美祢市,美東町大田３５２０番地１,,35,213,7540211,,,2021-10-14,清算の結了等,,,2015-10-05,1,,,,,,0
824,3390002011235,登記記録の閉鎖等,0,2021-10-15,2021-10-08,有限会社栗田整備工場,,有限会社,山形県,最上郡真室川町,大字釜渕８１７番地の５,,06,364,9995604,,,2021-10-08,清算の結了等,,,2015-10-05,1,,,,,クリタセイビコウジョウ,0
832,3430001063578,登記記録の閉鎖等,0,2021-10-15,2021-10-11,株式会社ゴベックスコーポレーション,,株式会社,北海道,札幌市白石区,米里三条２丁目８番２３号,,01,104,0030873,,,2021-10-11,清算の結了等,,,2015-10-05,1,,,,,ゴベックスコーポレーション,0
835,3430002042894,登記記録の閉鎖等,0,2021-10-15,2021-10-13,有限会社カーショップルート６６,,有限会社,北海道,札幌市西区,宮の沢四条５丁目１４番１６号,,01,107,0630054,,,2021-10-13,清算の結了等,,,2015-10-05,1,,,,,,0
836,3430002065086,登記記録の閉鎖等,0,2021-10-15,2021-10-11,有限会社横山時計店,,有限会社,北海道,室蘭市,中央町１丁目３番１２号,,01,205,0510011,,,2021-10-11,清算の結了等,,,2015-10-05,1,,,,,ヨコヤマトケイテン,0
847,4010001164450,登記記録の閉鎖等,0,2021-10-15,2021-10-07,株式会社キビダンゴ,,株式会社,茨城県,守谷市,本町６８６－４４,,08,224,3020109,,,2021-10-07,清算の結了等,,,2015-10-05,1,,,,,キビダンゴ,0
858,4010101003888,登記記録の閉鎖等,0,2021-10-15,2021-10-13,株式会社武蔵野物産,,株式会社,東京都,八王子市,上川町３４１６番地１,,13,201,1920151,,,2021-10-13,清算の結了等,,,2015-10-05,1,,,,,ムサシノブッサン,0
885,4010802002156,登記記録の閉鎖等,0,2021-10-15,2021-10-08,有限会社エザキ,,有限会社,東京都,大田区,南千束３丁目３番１５号,,13,111,1450063,,,2021-10-08,清算の結了等,,,2015-10-05,1,,,,,エザキ,0
899,4011302014476,登記記録の閉鎖等,0,2021-10-15,2021-10-14,有限会社グッドウエーブ,,有限会社,東京都,杉並区,久我山３丁目１０番９号,,13,115,1680082,,,2021-10-14,清算の結了等,,,2015-10-05,1,,,,,グッドウエーブ,0
909,4011702000555,登記記録の閉鎖等,0,2021-10-15,2021-10-08,有限会社アナナス,,有限会社,東京都,千代田区,大手町１丁目５番１号大手町ファーストスクエアイーストタワー４階,,13,101,1000004,,,2021-10-08,清算の結了等,,,2015-10-05,1,,,,,アナナス,0
918,4013201004764,登記記録の閉鎖等,0,2021-10-15,2021-09-28,株式会社ハル印刷情報,,株式会社,東京都,目黒区,洗足１丁目２１番２－１０５号,,13,110,1520012,,,2021-09-28,清算の結了等,,,2015-10-05,1,,,,,ハルインサツジョウホウ,0
923,4013401000704,登記記録の閉鎖等,0,2021-10-15,2021-10-07,株式会社ボルテックス,,株式会社,東京都,日野市,多摩平１丁目５番地８,,13,212,1910062,,,2021-10-07,清算の結了等,,,2015-10-05,1,,,,,ボルテックス,0
952,4030002063468,登記記録の閉鎖等,0,2021-10-15,2021-10-04,有限会社名取屋,,有限会社,埼玉県,富士見市,鶴瀬西２丁目４番２２号,,11,235,3540026,,,2021-10-04,清算の結了等,,,2015-10-05,1,,,,,ナトリヤ,0
955,4040001111219,登記記録の閉鎖等,0,2021-10-15,2021-10-07,株式会社ウエストサイド,,株式会社,千葉県,千葉市花見川区,検見川町３丁目４１７ヘブンズ検見川２０５号室,,12,102,2620023,,,2021-10-07,清算の結了等,,,2019-10-24,1,,,,,ウエストサイド,0
963,4050001008323,登記記録の閉鎖等,0,2021-10-15,2021-10-08,瀧本電設工業株式会社,,株式会社,茨城県,笠間市,南友部１９１６番地６,,08,216,3091734,,,2021-10-08,清算の結了等,,,2015-10-05,1,,,,,,0
966,4060001000774,登記記録の閉鎖等,0,2021-10-15,2021-10-08,株式会社内山,,株式会社,栃木県,宇都宮市,問屋町３１７２番地２２,,09,201,3210911,,,2021-10-08,清算の結了等,,,2015-10-05,1,,,,,ウチヤマ,0
971,4060002002778,登記記録の閉鎖等,0,2021-10-15,2021-10-08,有限会社カネコ内装,,有限会社,栃木県,日光市,長畑１６６４番地３,,09,206,3211108,,,2021-10-08,清算の結了等,,,2015-10-05,1,,,,,カネコナイソウ,0
977,4080102013632,登記記録の閉鎖等,0,2021-10-15,2021-10-05,有限会社岳南サービス,,有限会社,静岡県,富士市,永田町１丁目１３２番地の１,,22,210,4170055,,,2021-10-05,清算の結了等,,,2015-10-05,1,,,,,ガクナンサービス,0
989,4120001037281,登記記録の閉鎖等,0,2021-10-15,2021-10-13,井田商事株式会社,,株式会社,大阪府,大阪市浪速区,桜川２丁目７番２４号,,27,111,5560022,,,2021-10-13,合併による解散等,1010601035558,令和３年１０月１日東京都江東区新木場一丁目７番２２号新木場タワー株式会社ＫＥＹ　ＢＯＡＲＤ（1010601035558）に合併し解散,2015-10-05,1,,,,,,0
991,4120001166956,登記記録の閉鎖等,0,2021-10-15,2021-10-12,株式会社オリエンタル設計二級建築士事務所,,株式会社,大阪府,枚方市,香里園桜木町２０番６号,,27,210,5730088,,,2021-10-12,清算の結了等,,,2015-10-05,1,,,,,,0
997,4120001223591,登記記録の閉鎖等,0,2021-10-15,2021-10-12,株式会社テックビズ西日本,,株式会社,大阪府,大阪市北区,堂山町一丁目５番,,27,127,5300027,,,2021-10-12,合併による解散等,3011001129824,令和３年９月１日東京都渋谷区恵比寿南一丁目１番１号ヒューマックス恵比寿ビル３Ｆ株式会社テックビズ（3011001129824）に合併し解散,2019-09-09,1,,,,,,0
1005,4120003009741,登記記録の閉鎖等,0,2021-10-15,2021-10-11,合同会社つくし,,合同会社,大阪府,大阪市中央区,谷町６丁目４番８号新空堀ビル３０４－２号,,27,128,5420012,,,2021-10-11,清算の結了等,,,2015-10-05,1,,,,,ツクシ,0
1019,4140001033857,登記記録の閉鎖等,0,2021-10-15,2021-10-13,株式会社ユニオンプランニング,,株式会社,兵庫県,神戸市灘区,船寺通１丁目８番２号,,28,102,6570842,,,2021-10-13,清算の結了等,,,2015-10-05,1,,,,,ユニオンプランニング,0
1042,4180301015592,登記記録の閉鎖等,0,2021-10-15,2021-10-14,柳沢鬼瓦株式会社,,株式会社,愛知県,碧南市,堀方町２丁目１３番地,,23,209,4470046,,,2021-10-14,清算の結了等,,,2015-10-05,1,,,,,,0
1051,4220002003792,登記記録の閉鎖等,0,2021-10-15,2021-10-12,有限会社タムラ土地開発,,有限会社,石川県,金沢市,弓取町５番地,,17,201,9200215,,,2021-10-12,清算の結了等,,,2015-10-05,1,,,,,タムラトチカイハツ,0
1057,4240002030810,登記記録の閉鎖等,0,2021-10-15,2021-10-14,有限会社ＳＦＩＭ,,有限会社,広島県,三次市,三原町９１番地５,,34,209,7280027,,,2021-10-14,清算の結了等,,,2015-10-05,1,,,,,,0
1110,4430001081637,登記記録の閉鎖等,0,2021-10-15,2021-10-08,株式会社パーフェクトパートナー管理,,株式会社,北海道,札幌市北区,北七条西５丁目５番地３札幌千代田ビル,,01,102,0600807,,,2021-10-08,合併による解散等,2430001073272,令和３年１０月１日札幌市北区北七条西五丁目５番地３札幌千代田ビルスミタスパートナー株式会社（2430001073272）に合併し解散,2020-06-08,1,,,,,パーフェクトパートナーカンリ,0
1112,4430002020486,登記記録の閉鎖等,0,2021-10-15,2021-10-11,有限会社山口商事,,有限会社,北海道,札幌市西区,山の手三条９丁目１番１４号,,01,107,0630003,,,2021-10-11,清算の結了等,,,2015-10-05,1,,,,,ヤマグチショウジ,0
1113,4440002002310,登記記録の閉鎖等,0,2021-10-15,2021-10-11,有限会社スワパーフエクトモータース,,有限会社,北海道,北斗市,追分４６番地の２,,01,236,0490101,,,2021-10-11,清算の結了等,,,2015-10-05,1,,,,,スワパーフエクトモータース,0
1114,4440002003829,登記記録の閉鎖等,0,2021-10-15,2021-10-11,冨士工業有限会社,,有限会社,北海道,函館市,浅野町４番８号,,01,202,0400076,,,2021-10-11,清算の結了等,,,2015-10-05,1,,,,,フジコウギョウ,0
1118,4470002018997,登記記録の閉鎖等,0,2021-10-15,2021-10-12,有限会社田むら,,有限会社,香川県,小豆郡土庄町,淵崎甲２０１４番地２,,37,322,7614121,,,2021-10-12,清算の結了等,,,2015-10-05,1,,,,,タムラ,0
1124,4500002021601,登記記録の閉鎖等,0,2021-10-15,2021-10-12,有限会社篠原金網店,,有限会社,愛媛県,四国中央市,妻鳥町３１３番地,,38,213,7990113,,,2021-10-12,清算の結了等,,,2015-10-05,1,,,,,シノハラカナモノテン,0
1147,5010002032250,登記記録の閉鎖等,0,2021-10-15,2021-10-13,有限会社カジプランニング,,有限会社,岩手県,北上市,鍛冶町１丁目１１番７２号,,03,206,0240062,,,2021-10-13,清算の結了等,,,2015-10-05,1,,,,,カジプランニング,0
1150,5010401125605,登記記録の閉鎖等,0,2021-10-15,2021-10-01,ツースリー株式会社,,株式会社,東京都,港区,六本木４丁目２番６号,,13,103,1060032,,,2021-10-01,合併による解散等,3010401045111,令和３年１０月１日東京都港区六本木四丁目２番６号株式会社ウエストバウンド（3010401045111）に合併し解散,2016-06-27,1,,,,,ツースリー,0
1161,5010701026024,登記記録の閉鎖等,0,2021-10-15,2021-10-11,株式会社ジェイティービーライフネット,,株式会社,東京都,中央区,日本橋本町４丁目６番７号,,13,102,1030023,,,2021-10-11,合併による解散等,9013301015946,令和３年１０月１日東京都品川区東品川二丁目３番１１号株式会社ＪＴＢビジネストランスフォーム（9013301015946）に合併し解散,2015-10-05,1,,,,,ジェイティービーライフネット,0
1198,5011401002769,登記記録の閉鎖等,0,2021-10-15,2021-10-13,サワダ企業株式会社,,株式会社,東京都,板橋区,大山東町５９番５号サワダビル５０１,,13,119,1730014,,,2021-10-13,清算の結了等,,,2015-10-05,1,,,,,サワダキギョウ,0
1204,5011701020735,登記記録の閉鎖等,0,2021-10-15,2021-10-08,宇井工業株式会社,,株式会社,東京都,江戸川区,平井３丁目５番２－５０７号,,13,123,1320035,,,2021-10-08,清算の結了等,,,2017-04-06,1,,,,,ウイコウギョウ,0
1214,5013105000090,登記記録の閉鎖等,0,2021-10-15,2021-10-12,ライオンズマンション福生管理組合法人,,その他の設立登記法人,東京都,福生市,志茂１６９番地１,,13,218,1970023,,,2021-10-12,清算の結了等,,,2015-10-05,1,,,,,ライオンズマンションフッサ,0
1227,5021002011334,登記記録の閉鎖等,0,2021-10-15,2021-10-14,有限会社草間機械設計,,有限会社,神奈川県,茅ヶ崎市,共恵２丁目１番４３号冨貴堂ビル２０１号室,,14,207,2530056,,,2021-10-14,清算の結了等,,,2015-10-05,1,,,,,クサマキカイセッケイ,0
1235,5030001051365,登記記録の閉鎖等,0,2021-10-15,2021-10-12,ノーリンホームテック株式会社,,株式会社,千葉県,市川市,福栄２丁目９番４号,,12,203,2720137,,,2021-10-12,合併による解散等,7120001058928,令和３年１０月１日大阪市淀川区西中島四丁目６番２０号山中産業株式会社（7120001058928）に合併し解散,2015-10-05,1,,,,,ノーリンホームテック,0
1260,5050001015665,登記記録の閉鎖等,0,2021-10-15,2021-10-07,株式会社常緑園,,株式会社,茨城県,つくば市,柳橋４９６番地,,08,220,3050842,,,2021-10-07,清算の結了等,,,2015-10-05,1,,,,,ジョウリョクエン,0
1272,5060002034515,登記記録の閉鎖等,0,2021-10-15,2021-10-08,有限会社野口建築,,有限会社,栃木県,下都賀郡壬生町,あけぼの町１３番３号,,09,361,3210206,,,2021-10-08,清算の結了等,,,2015-10-05,1,,,,,ノグチケンチク,0
1290,5100001027861,登記記録の閉鎖等,0,2021-10-15,2021-10-12,株式会社永竹,,株式会社,長野県,松本市,南松本２丁目１６番２２号,,20,202,3900832,,,2021-10-12,合併による解散等,5010401159314,令和３年１０月１日東京都港区西新橋二丁目３６番１号株式会社永谷園フーズ（5010401159314）に合併し解散,2015-10-05,1,,,,,ナガタケ,0
1293,5110001034378,登記記録の閉鎖等,0,2021-10-15,2021-10-11,令和株式会社,,株式会社,新潟県,新潟市東区,新松崎３丁目２番５号,,15,102,9500017,,,2021-10-11,清算の結了等,,,2019-10-16,1,,,,,レイワ,0
1295,5120001009379,登記記録の閉鎖等,0,2021-10-15,2021-10-12,株式会社オーディオ・メディカル,,株式会社,大阪府,大阪市東住吉区,鷹合３丁目１１番１６号,,27,121,5460014,,,2021-10-12,清算の結了等,,,2015-10-05,1,,,,,オーディオメディカル,0
1297,5120001051793,登記記録の閉鎖等,0,2021-10-15,2021-10-12,澤島自動車株式会社,,株式会社,大阪府,大阪市東淀川区,西淡路６丁目１番４０号,,27,114,5330031,,,2021-10-12,清算の結了等,,,2015-10-05,1,,,,,サワシマジドウシャ,0
1301,5120001130845,登記記録の閉鎖等,0,2021-10-15,2021-10-11,アーレックス株式会社,,株式会社,大阪府,大阪市淀川区,十三元今里３丁目２番６号,,27,123,5320028,,,2021-10-11,清算の結了等,,,2015-10-05,1,,,,,,0
1310,5120001205762,登記記録の閉鎖等,0,2021-10-15,2021-10-12,エリアエナジー大阪株式会社,,株式会社,東京都,台東区,浅草橋３丁目２０番１５号,,13,106,1110053,,,2021-10-12,清算の結了等,,,2017-05-22,1,,,,,エリアエナジーオオサカ,0
1317,5120002016886,登記記録の閉鎖等,0,2021-10-15,2021-10-11,有限会社福井商店,,有限会社,大阪府,大阪市住之江区,御崎３丁目７番１７－１０４号,,27,125,5590013,,,2021-10-11,清算の結了等,,,2015-10-05,1,,,,,,0
1335,5130001058615,登記記録の閉鎖等,0,2021-10-15,2021-10-12,株式会社ＬＯＮＤＯＮ,,株式会社,京都府,京都市山科区,大宅関生町２８番地,,26,110,6078188,,,2021-10-12,清算の結了等,,,2016-11-04,1,,,,,,0
1345,5140001029326,登記記録の閉鎖等,0,2021-10-15,2021-10-08,ジャパンウェイスト株式会社,,株式会社,東京都,千代田区,丸の内１丁目７番１２号,,13,101,1000005,,,2021-10-08,合併による解散等,4140001019022,令和３年１０月１日神戸市東灘区魚崎浜町２１番地アサヒプリテック株式会社（4140001019022）に合併し解散,2015-10-05,1,,,,,ジャパンウェイスト,0
1363,5180002017334,登記記録の閉鎖等,0,2021-10-15,2021-10-13,有限会社荒久突板,,有限会社,愛知県,名古屋市中川区,柳島町３丁目１５番地,,23,110,4540024,,,2021-10-13,清算の結了等,,,2015-10-05,1,,,,,アラキュウトッパン,0
1388,5280001004042,登記記録の閉鎖等,0,2021-10-15,2021-10-05,木村建設株式会社,,株式会社,島根県,大田市,鳥井町鳥越４１３番地１３,,32,205,6940053,,,2021-10-05,清算の結了等,,,2021-03-29,1,,,,,キムラケンセツ,0
1389,5280002005931,登記記録の閉鎖等,0,2021-10-15,2021-10-05,有限会社ファッションパレス郷,,有限会社,島根県,出雲市,塩冶町１６１１番地１,,32,203,6930021,,,2021-10-05,清算の結了等,,,2015-10-05,1,,,,,ファッションパレスゴウ,0
1396,5290003002662,登記記録の閉鎖等,0,2021-10-15,2021-09-30,合名会社武田青物卸部,,合名会社,福岡県,久留米市,荒木町藤田１３０４番地,,40,203,8300064,,,2021-09-30,清算の結了等,,,2015-10-05,1,,,,,タケダアオモノオロシブ,0
1397,5290005015646,登記記録の閉鎖等,0,2021-10-15,2021-10-13,一般社団法人タビコイ,,その他の設立登記法人,福岡県,福岡市中央区,天神２丁目３番１０号天神パインクレスト１０１８号,,40,133,8100001,,,2021-10-13,清算の結了等,,,2015-11-05,1,,,,,タビコイ,0
1398,5290802003530,登記記録の閉鎖等,0,2021-10-15,2021-10-04,有限会社船場ビル興産,,有限会社,福岡県,北九州市小倉北区,船場町５番５号船場ビル５階,,40,106,8020007,,,2021-10-04,清算の結了等,,,2015-10-05,1,,,,,センバビルコウサン,0
1400,5310005004068,登記記録の閉鎖等,0,2021-10-15,2021-10-12,特定非営利活動法人大地といのちの会,,その他の設立登記法人,長崎県,佐世保市,栄町２番１号,,42,202,8570054,,,2021-10-12,清算の結了等,,,2015-10-05,1,,,,,トクテイヒエイリホウジンダイチトイノチノカイ,0
1407,5360002000024,登記記録の閉鎖等,0,2021-10-15,2021-10-08,有限会社ただお,,有限会社,沖縄県,那覇市,山下町１５番２２号,,47,201,9000027,,,2021-10-08,清算の結了等,,,2015-10-05,1,,,,,タダオ,0
1437,6010001118545,登記記録の閉鎖等,0,2021-10-15,2021-10-06,フォルモサツアーズ株式会社,,株式会社,東京都,中央区,日本橋茅場町１丁目４番５号,,13,102,1030025,,,2021-10-06,清算の結了等,,,2015-10-05,1,,,,,フォルモサツアーズ,0
1468,6010401130769,登記記録の閉鎖等,0,2021-10-15,2021-10-12,ＭＪ　Ｌａｂ株式会社,,株式会社,東京都,江戸川区,南葛西５丁目５－５,,13,123,1340085,,,2021-10-12,合併による解散等,4120001208089,令和３年１０月１日大阪市西区土佐堀二丁目１番６号２階株式会社ＭＪ（4120001208089）に合併し解散,2017-04-12,1,,,,,エムジェイラボ,0
1471,6010601039934,登記記録の閉鎖等,0,2021-10-15,2021-10-01,ＫＳサミットスチール株式会社,,株式会社,埼玉県,富士見市,大字下南畑１５８３番地１,,11,235,3540004,,,2021-10-01,合併による解散等,2030001048950,令和３年１０月１日埼玉県富士見市大字下南畑１５８３番地１紅忠コイルセンター関東株式会社（2030001048950）に合併し解散,2015-10-05,1,,,,,ケイエスサミットスチール,0
1473,6010603007922,登記記録の閉鎖等,0,2021-10-15,2021-10-08,合同会社愛営,,合同会社,栃木県,下都賀郡野木町,大字丸林５８１番地１３,,09,364,3290111,,,2021-10-08,清算の結了等,,,2019-07-24,1,,,,,アイエイ,0
1483,6010902001634,登記記録の閉鎖等,0,2021-10-15,2021-10-12,有限会社一宝堂,,有限会社,東京都,世田谷区,奥沢５丁目１番１０－１０３号,,13,112,1580083,,,2021-10-12,清算の結了等,,,2015-10-05,1,,,,,イッポウドウ,0
1484,6011001056058,登記記録の閉鎖等,0,2021-10-15,2021-09-30,株式会社やまとソリューション,,株式会社,東京都,渋谷区,千駄ヶ谷５丁目２７番３号,,13,113,1510051,,,2021-09-30,清算の結了等,,,2015-10-05,1,,,,,ヤマトソリューション,0
1511,6011501005613,登記記録の閉鎖等,0,2021-10-15,2021-10-12,株式会社エーエスケー,,株式会社,東京都,荒川区,東日暮里５丁目４８番３号レジェンド日暮里２０３,,13,118,1160014,,,2021-10-12,清算の結了等,,,2015-10-05,1,,,,,エーエスケー,0
1519,6012301010183,登記記録の閉鎖等,0,2021-10-15,2021-10-01,東京美術舞台株式会社,,株式会社,東京都,町田市,三輪町７０４番地,,13,209,1950054,,,2021-10-01,清算の結了等,,,2015-10-05,1,,,,,トウキョウビジュツブタイ,0
1537,6020001077897,登記記録の閉鎖等,0,2021-10-15,2021-10-11,株式会社ノダ・コンサルティング,,株式会社,神奈川県,川崎市宮前区,野川台１丁目２３番１５号,,14,136,2160043,,,2021-10-11,清算の結了等,,,2015-10-05,1,,,,,ノダコンサルティング,0
1538,6020001080067,登記記録の閉鎖等,0,2021-10-15,2021-10-11,株式会社クエスト,,株式会社,神奈川県,川崎市中原区,上新城２丁目９番１号,,14,133,2110045,,,2021-10-11,清算の結了等,,,2015-10-05,1,,,,,クエスト,0
1546,6020002010634,登記記録の閉鎖等,0,2021-10-15,2021-10-11,有限会社ホムギャラン,,有限会社,神奈川県,横浜市磯子区,馬場町１２番１７号,,14,107,2350002,,,2021-10-11,清算の結了等,,,2015-10-05,1,,,,,ホムギャラン,0
1549,6021001028881,登記記録の閉鎖等,0,2021-10-15,2021-10-12,株式会社日本瓦斯サービス,,株式会社,神奈川県,綾瀬市,深谷上７丁目２４番４号,,14,218,2521108,,,2021-10-12,清算の結了等,,,2015-10-05,1,,,,,,0
1555,6030001023405,登記記録の閉鎖等,0,2021-10-15,2021-10-05,株式会社ＡＭアルコ,,株式会社,埼玉県,さいたま市緑区,大字大崎１９０９の１,,11,109,3360974,,,2021-10-05,清算の結了等,,,2015-10-05,1,,,,,エイエムアルコ,0
1585,6050002024540,登記記録の閉鎖等,0,2021-10-15,2021-10-07,有限会社コマツ不動産,,有限会社,茨城県,古河市,駒羽根４４番２１,,08,204,3060221,,,2021-10-07,清算の結了等,,,2015-10-05,1,,,,,コマツフドウサン,0
1638,6130001039721,登記記録の閉鎖等,0,2021-10-15,2021-10-11,ＫＩＤ株式会社,,株式会社,京都府,京田辺市,大住ケ丘２丁目２１番地２,,26,211,6100351,,,2021-10-11,清算の結了等,,,2015-10-05,1,,,,,ケイアイディー,0
1650,6140002058182,登記記録の閉鎖等,0,2021-10-15,2021-10-12,有限会社ユタカ園,,有限会社,兵庫県,西宮市,越水町２番１号,,28,204,6620864,,,2021-10-12,清算の結了等,,,2015-10-05,1,,,,,ユタカエン,0
1671,6180301011805,登記記録の閉鎖等,0,2021-10-15,2021-10-05,日本プラネタリウムサービス株式会社,,株式会社,愛知県,豊川市,三上町上屋敷９番地,,23,207,4420812,,,2021-10-05,清算の結了等,,,2015-10-05,1,,,,,ニホンプラネタリウムサービス,0
1674,6190001010940,登記記録の閉鎖等,0,2021-10-15,2021-10-12,株式会社オクトス,,株式会社,三重県,松阪市,広陽町３８番地,,24,204,5150053,,,2021-10-12,合併による解散等,5010401159314,令和３年１０月１日東京都港区西新橋二丁目３６番１号株式会社永谷園フーズ（5010401159314）に合併し解散,2015-10-05,1,,,,,オクトス,0
1675,6190002020047,登記記録の閉鎖等,0,2021-10-15,2021-10-07,有限会社ケイツーファーマシー,,有限会社,東京都,中央区,日本橋２丁目１５番１０号,,13,102,1030027,,,2021-10-07,合併による解散等,4370001013217,令和３年１０月１日仙台市泉区泉中央一丁目７番地の１シップヘルスケアファーマシー東日本株式会社（4370001013217）に合併し解散,2015-10-05,1,,,,,ケイツーファーマシー,0
1680,6220002009367,登記記録の閉鎖等,0,2021-10-15,2021-10-13,有限会社平田建装,,有限会社,石川県,白山市,柏町１番地４,,17,210,9240043,,,2021-10-13,清算の結了等,,,2015-10-05,1,,,,,ヒラタケンソウ,0
1682,6230001000284,登記記録の閉鎖等,0,2021-10-15,2021-10-07,株式会社伊原組,,株式会社,富山県,富山市,丸の内２丁目４番１３号,,16,201,9300085,,,2021-10-07,清算の結了等,,,2015-10-05,1,,,,,イハラグミ,0
1696,6260005003413,登記記録の閉鎖等,0,2021-10-15,2021-10-14,山陽貨物運送事業協同組合,,その他の設立登記法人,岡山県,倉敷市,東塚６丁目１１番１７号,,33,202,7128044,,,2021-10-14,清算の結了等,,,2015-10-05,1,,,,,サンヨウカモツウンソウ,0
1725,6430001067642,登記記録の閉鎖等,0,2021-10-15,2021-10-13,株式会社ＤＯＵＢＬＥ　ＥＩＧＨＴ,,株式会社,北海道,岩見沢市,東町６９８番地４,,01,210,0680015,,,2021-10-13,清算の結了等,,,2015-10-05,1,,,,,,0
1765,7010401083982,登記記録の閉鎖等,0,2021-10-15,2021-10-01,株式会社ＮＤＳ,,株式会社,東京都,港区,港南１丁目６番３４号,,13,103,1080075,,,2021-10-01,合併による解散等,8010401083981,令和３年１０月１日東京都港区港南一丁目６番３４号日本総合サービス株式会社（8010401083981）に合併し解散,2015-10-05,1,,,,,エヌディーエス,0
1797,7011001033205,登記記録の閉鎖等,0,2021-10-15,2021-10-06,株式会社茅場町,,株式会社,東京都,中央区,日本橋茅場町２丁目３番６号宗和ビル７階,,13,102,1030025,,,2021-10-06,清算の結了等,,,2015-10-05,1,,,,,カヤバチョウ,0
1799,7011001054465,登記記録の閉鎖等,0,2021-10-15,2021-09-30,株式会社神社結婚式相談所,,株式会社,東京都,渋谷区,神宮前６丁目２５番１４号,,13,113,1500001,,,2021-09-30,清算の結了等,,,2015-10-05,1,,,,,,0
1817,7011201012669,登記記録の閉鎖等,0,2021-10-15,2021-10-08,株式会社ブレイクポイント,,株式会社,東京都,中野区,本町３丁目２６番８号,,13,114,1640012,,,2021-10-08,清算の結了等,,,2015-10-05,1,,,,,ブレイクポイント,0
1849,7020001034369,登記記録の閉鎖等,0,2021-10-15,2021-10-11,株式会社アクアテックインターナショナル,,株式会社,神奈川県,横浜市港北区,新横浜３丁目２０番地５,,14,109,2220033,,,2021-10-11,清算の結了等,,,2015-10-05,1,,,,,アクアテックインターナショナル,0
1870,7030001085626,登記記録の閉鎖等,0,2021-10-15,2021-10-04,株式会社武廣,,株式会社,埼玉県,行田市,大字白川戸６８７番地,,11,206,3610006,,,2021-10-04,清算の結了等,,,2015-10-05,1,,,,,タケヒロ,0
1873,7030001095781,登記記録の閉鎖等,0,2021-10-15,2021-10-11,株式会社蓮田ロジスティクス,,株式会社,埼玉県,蓮田市,大字井沼字清水４１１番地,,11,238,3490135,,,2021-10-11,合併による解散等,2010001033269,令和３年１０月１日東京都千代田区神田駿河台四丁目３番地日販グループホールディングス株式会社（2010001033269）に合併し解散,2015-10-05,1,,,,,ハスダロジスティクス,0
1874,7030001109483,登記記録の閉鎖等,0,2021-10-15,2021-10-05,株式会社英電工社,,株式会社,埼玉県,新座市,東北２丁目２番１５号,,11,230,3520001,,,2021-10-05,清算の結了等,,,2015-10-05,1,,,,,ハナブサデンコウシャ,0
1882,7030002063333,登記記録の閉鎖等,0,2021-10-15,2021-09-30,有限会社高松,,有限会社,埼玉県,富士見市,大字水子２１３４番地,,11,235,3540011,,,2021-09-30,清算の結了等,,,2015-10-05,1,,,,,タカマツ,0
1918,7110001007613,登記記録の閉鎖等,0,2021-10-15,2021-10-08,八洲産業株式会社,,株式会社,新潟県,新潟市南区,上八枚７７３番地１,,15,106,9501431,,,2021-10-08,清算の結了等,,,2015-10-05,1,,,,,ヤシマサンギョウ,0
1936,7120002001894,登記記録の閉鎖等,0,2021-10-15,2021-10-12,有限会社江南商店,,有限会社,大阪府,大阪狭山市,大野台１丁目３０番１０号,,27,231,5890023,,,2021-10-12,清算の結了等,,,2015-10-05,1,,,,,エナミショウテン,0
1959,7122001016254,登記記録の閉鎖等,0,2021-10-15,2021-10-12,株式会社大栄,,株式会社,大阪府,四條畷市,大字中野３７番地の７,,27,229,5750053,,,2021-10-12,合併による解散等,7150001024431,令和３年１０月１日奈良県橿原市白橿町七丁目１９番３号株式会社岸本ＣＬＩＥ企画（7150001024431）に合併し解散,2015-10-05,1,,,,,タイエイ,0
1989,7180005007933,登記記録の閉鎖等,0,2021-10-15,2021-10-12,特定非営利活動法人なごやっこ,,その他の設立登記法人,愛知県,名古屋市熱田区,沢下町９番７号の３０８,,23,109,4560006,,,2021-10-12,清算の結了等,,,2015-10-05,1,,,,,ナゴヤッコ,0
1992,7180301030548,登記記録の閉鎖等,0,2021-10-15,2021-10-14,株式会社Ｎ．ＳＴＹＬＥ,,株式会社,愛知県,額田郡幸田町,大字坂崎字欠間８７番地１,,23,501,4440104,,,2021-10-14,清算の結了等,,,2017-07-13,1,,,,,エヌスタイル,0
1993,7180302027931,登記記録の閉鎖等,0,2021-10-15,2021-10-12,有限会社丸義興業,,有限会社,愛知県,新城市,細川字日影１１番地,,23,221,4411613,,,2021-10-12,清算の結了等,,,2015-10-05,1,,,,,マルヨシコウギョウ,0
1995,7180305000092,登記記録の閉鎖等,0,2021-10-15,2021-10-13,金松寺,,その他の設立登記法人,愛知県,岡崎市,鴨田町字山畔１番地４２,,23,202,4442121,,,2021-10-13,清算の結了等,,,2015-10-05,1,,,,,キンショウジ,0
1996,7190002007497,登記記録の閉鎖等,0,2021-10-15,2021-10-13,有限会社茶利園,,有限会社,三重県,鈴鹿市,椿一宮町１６０６番地の８,,24,207,5190312,,,2021-10-13,清算の結了等,,,2015-10-05,1,,,,,サリエン,0
2009,7260001014743,登記記録の閉鎖等,0,2021-10-15,2021-10-11,株式会社毎日新聞中四国印刷,,株式会社,岡山県,倉敷市,下庄１４８番地,,33,202,7010112,,,2021-10-11,合併による解散等,2010001029969,令和３年１０月１日東京都千代田区一ツ橋一丁目１番１号株式会社毎日新聞社（2010001029969）に合併し解散,2015-10-05,1,,,,,マイニチシンブンチュウシコクインサツ,0
2039,7360001007217,登記記録の閉鎖等,0,2021-10-15,2021-10-08,株式会社クイナ,,株式会社,沖縄県,那覇市,田原１丁目１５番地１シャトレ高良３０５,,47,201,9010156,,,2021-10-08,清算の結了等,,,2015-10-05,1,,,,,クイナ,0
2051,7370601000149,登記記録の閉鎖等,0,2021-10-15,2021-10-05,株式会社ＳＥＣＯ２０２０,,株式会社,宮城県,宮城郡利府町,しらかし台６丁目４番地の３,,04,406,9810134,,,2021-10-05,清算の結了等,,,2015-10-05,1,,,,,エスイーシーオーニーゼロニーゼロ,0
2053,7380005011766,登記記録の閉鎖等,0,2021-10-15,2021-10-11,一般社団法人空き家・空き地相談センター,,その他の設立登記法人,福島県,いわき市,錦町中央３丁目２番地の９,,07,204,9748233,,,2021-10-11,清算の結了等,,,2016-12-28,1,,,,,アキヤアキチソウダンセンター,0
2112,8010601024364,登記記録の閉鎖等,0,2021-10-15,2021-10-12,株式会社千里,,株式会社,東京都,墨田区,緑２丁目１番３号,,13,107,1300021,,,2021-10-12,合併による解散等,7011701010049,令和３年１０月１日東京都江戸川区松江七丁目８番１０号株式会社トータルサポート（7011701010049）に合併し解散,2015-10-05,1,,,,,センリ,0
2117,8010801015799,登記記録の閉鎖等,0,2021-10-15,2021-10-08,青草書房株式会社,,株式会社,東京都,新宿区,市谷加賀町２丁目４番２５号,,13,104,1620062,,,2021-10-08,清算の結了等,,,2015-10-05,1,,,,,セイソウショボウ,0
2119,8010802006434,登記記録の閉鎖等,0,2021-10-15,2021-09-30,有限会社三葉精機製作所,,有限会社,東京都,目黒区,五本木１丁目２４番５号,,13,110,1530053,,,2021-09-30,清算の結了等,,,2015-10-05,1,,,,,ミツバセイキセイサクジョ,0
2153,8011701020591,登記記録の閉鎖等,0,2021-10-15,2021-10-11,株式会社エムプランニング,,株式会社,東京都,世田谷区,代田１丁目６番６号,,13,112,1550033,,,2021-10-11,合併による解散等,6012301010349,令和３年１０月１０日東京都世田谷区代田一丁目６番６号株式会社エム＆エス（6012301010349）に合併し解散,2017-02-16,1,,,,,エムプランニング,0
2166,8012802006612,登記記録の閉鎖等,0,2021-10-15,2021-10-08,有限会社大道,,有限会社,東京都,立川市,曙町２丁目１４番３２号,00059377,13,202,1900012,,,2021-10-08,清算の結了等,,,2015-10-05,1,,,,,ダイドウ,0
2170,8020001053475,登記記録の閉鎖等,0,2021-10-15,2021-10-08,株式会社啓友建設,,株式会社,神奈川県,横浜市神奈川区,松本町６丁目４１番地１,,14,102,2210841,,,2021-10-08,清算の結了等,,,2015-10-05,1,,,,,ケイユウケンセツ,0
2181,8021002051682,登記記録の閉鎖等,0,2021-10-15,2021-10-12,有限会社公華,,有限会社,神奈川県,小田原市,本町２丁目５番９号,,14,206,2500012,,,2021-10-12,清算の結了等,,,2015-10-05,1,,,,,コウカ,0
2186,8030001096985,登記記録の閉鎖等,0,2021-10-15,2021-10-01,株式会社Ｍ－Ｐｅａｃｅ,,株式会社,埼玉県,熊谷市,美土里町２丁目１９９番地ライオンズマンション３０９号室,,11,202,3600845,,,2021-10-01,清算の結了等,,,2015-10-05,1,,,,,エムピース,0
2192,8040001069577,登記記録の閉鎖等,0,2021-10-15,2021-09-30,株式会社Ｒ＆Ｊ,,株式会社,千葉県,柏市,柏６丁目１０番２７号,,12,217,2770005,,,2021-09-30,清算の結了等,,,2015-10-05,1,,,,,アールアンドジェイ,0
2213,8050001013939,登記記録の閉鎖等,0,2021-10-15,2021-10-01,株式会社染谷食鳥,,株式会社,茨城県,猿島郡境町,大字若林１２６番地,,08,546,3060417,,,2021-10-01,清算の結了等,,,2015-10-05,1,,,,,ソメヤショクチョウ,0
2215,8050002031320,登記記録の閉鎖等,0,2021-10-15,2021-10-08,有限会社光工業所,,有限会社,茨城県,日立市,久慈町５丁目４９番１２号,,08,202,3191222,,,2021-10-08,清算の結了等,,,2015-10-05,1,,,,,ヒカリコウギョウショ,0
2229,8080001021633,登記記録の閉鎖等,0,2021-10-15,2021-10-13,えふ商会株式会社,,株式会社,静岡県,藤枝市,田沼２丁目３番２２号,,22,214,4260061,,,2021-10-13,清算の結了等,,,2017-06-05,1,,,,,エフショウカイ,0
2270,8120902011232,登記記録の閉鎖等,0,2021-10-15,2021-10-13,有限会社北摂保険センター,,有限会社,大阪府,高槻市,浦堂２丁目３５番２号,,27,207,5691027,,,2021-10-13,清算の結了等,,,2015-10-05,1,,,,,ホクセツホケンセンター,0
2286,8140001110784,登記記録の閉鎖等,0,2021-10-15,2021-10-11,泰達国際株式会社,,株式会社,兵庫県,丹波市,山南町玉巻字大蔵２０８番地３,,28,223,6693122,,,2021-10-11,清算の結了等,,,2018-07-26,1,,,,,タイダコクサイ,0
2301,8180001136470,登記記録の閉鎖等,0,2021-10-15,2021-10-12,株式会社Ａｐｏｇｅｅ,,株式会社,愛知県,名古屋市熱田区,外土居町９番３７号,,23,109,4560013,,,2021-10-12,清算の結了等,,,2019-05-10,1,,,,,アポジェ,0
2305,8180002070438,登記記録の閉鎖等,0,2021-10-15,2021-10-12,有限会社エイド,,有限会社,愛知県,春日井市,坂下町１丁目１５７９番地の１９,,23,206,4800305,,,2021-10-12,清算の結了等,,,2015-10-05,1,,,,,エイド,0
2322,8260002004412,登記記録の閉鎖等,0,2021-10-15,2021-10-12,有限会社佐々木工業,,有限会社,岡山県,岡山市南区,藤田６５５番地の７０,,33,104,7010221,,,2021-10-12,清算の結了等,,,2015-10-05,1,,,,,ササキコウギョウ,0
2339,8310002007335,登記記録の閉鎖等,0,2021-10-15,2021-10-13,有限会社辻商店,00095954,有限会社,長崎県,長崎市,下大野町２２５０番地５,,42,201,8512427,,,2021-10-13,清算の結了等,,,2015-10-05,1,,,,,ツジショウテン,0
2354,8360001027800,登記記録の閉鎖等,0,2021-10-15,2021-10-11,株式会社バスプレス,,株式会社,沖縄県,石垣市,字真栄里３９１番地４,,47,207,9070002,,,2021-10-11,清算の結了等,,,2020-11-13,1,,,,,バスプレス,0
2357,8360002022107,登記記録の閉鎖等,0,2021-10-15,2021-10-05,有限会社クリーン環境開発,,有限会社,沖縄県,宮古島市,平良字下里１７６１番地の１,,47,214,9060013,,,2021-10-05,清算の結了等,,,2015-10-05,1,,,,,クリーンカンキョウカイハツ,0
2363,8400501000698,登記記録の閉鎖等,0,2021-10-15,2021-10-14,株式会社ホームゆりの木,,株式会社,岩手県,一関市,川崎町薄衣字町裏４２番地１１,,03,209,0290202,,,2021-10-14,清算の結了等,,,2015-10-05,1,,,,,ホームユリノキ,0
2370,8440002003049,登記記録の閉鎖等,0,2021-10-15,2021-10-11,有限会社トップバリー,,有限会社,北海道,函館市,富岡町１丁目５５番４号,,01,202,0410811,,,2021-10-11,清算の結了等,,,2015-10-05,1,,,,,トップバリー,0
2373,8460101001439,登記記録の閉鎖等,0,2021-10-15,2021-10-13,株式会社美匠,,株式会社,北海道,帯広市,西十条北４丁目１番地１５,,01,207,0800040,,,2021-10-13,清算の結了等,,,2015-10-05,1,,,,,ビショウ,0
2381,9010001009262,登記記録の閉鎖等,0,2021-10-15,2021-10-01,株式会社アイアン,,株式会社,東京都,江東区,若洲２丁目５番７号,,13,108,1360083,,,2021-10-01,合併による解散等,5010601014962,令和３年１０月１日東京都江東区若洲二丁目５番７号株式会社中村ボデー（5010601014962）に合併し解散,2015-10-05,1,,,,,アイアン,0
2382,9010001071543,登記記録の閉鎖等,0,2021-10-15,2021-10-12,アルゴスペースデザイン株式会社,,株式会社,東京都,中央区,新川１丁目１６番３号,,13,102,1040033,,,2021-10-12,合併による解散等,4020001100405,令和３年１０月１日横浜市戸塚区川上町９０番地６アルゴスペースデザイン株式会社（4020001100405）に合併し解散,2015-10-05,1,,,,,アルゴスペースデザイン,0
2395,9010401002445,登記記録の閉鎖等,0,2021-10-15,2021-10-04,イーグルサービス株式会社,,株式会社,東京都,港区,芝大門１丁目１２番１５号,,13,103,1050012,,,2021-10-04,合併による解散等,2010401002451,令和３年１０月１日東京都港区芝大門一丁目１２番１５号イーグル工業株式会社（2010401002451）に合併し解散,2015-10-05,1,,,,,イーグルサービス,0
2420,9010801018388,登記記録の閉鎖等,0,2021-10-15,2021-10-01,アクアエンジニアリング株式会社,,株式会社,東京都,港区,港南１丁目７番１８号,,13,103,1080075,,,2021-10-01,合併による解散等,1010801018437,令和３年１０月１日東京都港区港南一丁目７番１８号水ｉｎｇ株式会社（1010801018437）に合併し解散,2015-10-05,1,,,,,アクアエンジニアリング,0
2435,9011101091010,登記記録の閉鎖等,0,2021-10-15,2021-09-13,株式会社リベクトロ,,株式会社,東京都,新宿区,北新宿３丁目２番１－２００１号,,13,104,1690074,,,2021-09-13,清算の結了等,,,2020-04-09,1,,,,,リベクトロ,0
2466,9013302017454,登記記録の閉鎖等,0,2021-10-15,2021-10-12,有限会社ジョーティヴィギャン,,有限会社,大阪府,吹田市,豊津町１５番１７－５０２号,,27,205,5640051,,,2021-10-12,清算の結了等,,,2015-10-05,1,,,,,ジョーティヴィギャン,0
2501,9040002010530,登記記録の閉鎖等,0,2021-10-15,2021-10-06,有限会社細貝工務店,,有限会社,千葉県,千葉市花見川区,長作町１４２２番地７,,12,102,2620044,,,2021-10-06,清算の結了等,,,2015-10-05,1,,,,,,0
2503,9040003004102,登記記録の閉鎖等,0,2021-10-15,2021-10-11,ＰＡ＆Ｓプランニング合同会社,,合同会社,千葉県,我孫子市,新木３１８６番地の４,,12,222,2701112,,,2021-10-11,合併による解散等,8420003002092,令和３年９月１４日青森県弘前市大字上鞘師町１１番地１東創プランニング合同会社（8420003002092）に合併し解散,2015-10-05,1,,,,,ピーエーアンドエスプランニング,0
2515,9080101014107,登記記録の閉鎖等,0,2021-10-15,2021-10-05,株式会社ジーシーティーコーポレーション,,株式会社,静岡県,伊東市,八幡野１３５７番２１号,,22,208,4130232,,,2021-10-05,清算の結了等,,,2015-10-05,1,,,,,ジーシーティーコーポレーション,0
2537,9120002071449,登記記録の閉鎖等,0,2021-10-15,2021-10-12,有限会社荒木会計不動産システムズ,,有限会社,大阪府,交野市,天野が原町１丁目８番６号,,27,230,5760034,,,2021-10-12,清算の結了等,,,2015-10-05,1,,,,,アラキカイケイフドウサンシステムズ,0
2549,9120901027451,登記記録の閉鎖等,0,2021-10-15,2021-10-14,株式会社ＢＬサポート,,株式会社,大阪府,豊中市,本町２丁目４番５－５０３号,,27,203,5600021,,,2021-10-14,清算の結了等,,,2015-10-05,1,,,,,,0
2554,9120902009911,登記記録の閉鎖等,0,2021-10-15,2021-10-14,有限会社狩野電工,,有限会社,大阪府,高槻市,津之江町２丁目２９番７号,,27,207,5690822,,,2021-10-14,清算の結了等,,,2015-10-05,1,,,,,カリノデンコウ,0
2556,9130001006818,登記記録の閉鎖等,0,2021-10-15,2021-10-13,中和建設株式会社,,株式会社,京都府,京都市左京区,岡崎入江町４２番地の１,,26,103,6068322,,,2021-10-13,清算の結了等,,,2015-10-05,1,,,,,チュウワケンセツ,0
2558,9140001023102,登記記録の閉鎖等,0,2021-10-15,2021-10-12,株式会社マイクロエコテック,,株式会社,兵庫県,神戸市長田区,苅藻島町３丁目１２番２９号,,28,106,6530033,,,2021-10-12,清算の結了等,,,2015-10-05,1,,,,,マイクロエコテック,0
2566,9140002022144,登記記録の閉鎖等,0,2021-10-15,2021-10-13,有限会社エフ・アンド・ティー・ジャパン,,有限会社,兵庫県,神戸市須磨区,磯馴町６丁目２番３０－２０６号,,28,107,6540047,,,2021-10-13,清算の結了等,,,2015-10-05,1,,,,,エフアンドティージャパン,0
2588,9180301022626,登記記録の閉鎖等,0,2021-10-15,2021-10-14,丸昭石油株式会社,,株式会社,愛知県,西尾市,今川町東大城２３番地２,,23,213,4450063,,,2021-10-14,清算の結了等,,,2015-10-05,1,,,,,マルショウセキユ,0
2594,9210002012922,登記記録の閉鎖等,0,2021-10-15,2021-10-08,有限会社くすりのエスオーエス,,有限会社,福井県,鯖江市,御幸町２丁目４番１１号,,18,207,9160015,,,2021-10-08,清算の結了等,,,2015-10-05,1,,,,,クスリノエスオーエス,0
2612,9290001013212,登記記録の閉鎖等,0,2021-10-15,2021-10-11,コムシス九州エンジニアリング株式会社,,株式会社,福岡県,福岡市博多区,千代２丁目１５番１２号,,40,132,8120044,,,2021-10-11,合併による解散等,2010401020809,令和３年１０月１日東京都品川区東五反田二丁目１７番１号コムシスモバイル株式会社（2010401020809）に合併し解散,2015-10-05,1,,,,,,0
2620,9290002002503,登記記録の閉鎖等,0,2021-10-15,2021-09-28,有限会社スマイル,,有限会社,福岡県,福岡市南区,皿山１丁目１３番１１号,,40,134,8111365,,,2021-09-28,清算の結了等,,,2015-10-05,1,,,,,スマイル,0
2642,9370001011117,登記記録の閉鎖等,0,2021-10-15,2021-10-04,株式会社日本オイラー商会,,株式会社,宮城県,仙台市若林区,卸町３丁目１番６号,,04,103,9840015,,,2021-10-04,清算の結了等,,,2015-10-05,1,,,,,ニホンオイラーショウカイ,0
2649,9380001020182,登記記録の閉鎖等,0,2021-10-15,2021-10-11,株式会社渡辺薬局,,株式会社,福島県,双葉郡大熊町,大字下野上字大野２４０番１,,07,545,9791308,,,2021-10-11,清算の結了等,,,2015-10-05,1,,,,,ワタナベヤッキョク,0
2655,9430001036124,登記記録の閉鎖等,0,2021-10-15,2021-10-11,株式会社エーエス,,株式会社,北海道,札幌市中央区,大通西１４丁目３番１号大通丸一ビルヂング７Ｆ,,01,101,0600042,,,2021-10-11,清算の結了等,,,2015-10-05,1,,,,,エーエス,0
