sequenceNumber,corporateNumber,process,correct,updateDate,changeDate,name,nameImageId,kind,prefectureName,cityName,streetNumber,addressImageId,prefectureCode,cityCode,postCode,addressOutside,addressOutsideImageId,closeDate,closeCause,successorCorporateNumber,changeCause,assignmentDate,latest,enName,enPrefectureName,enCityName,enAddressOutside,furigana,hihyoji
5,1010001259732,新規,0,2025-10-29,2025-10-29,ＫＪ００３株式会社,,株式会社,東京都,千代田区,丸の内２丁目１番１号明治安田生命ビル１１階,,13,101,1000005,,,,,,,2025-10-29,1,,,,,ケイジェイゼロゼロスリー,0
6,1010001259749,新規,0,2025-10-29,2025-10-29,ＭＺＫＲ．ＡＩ株式会社,,株式会社,東京都,中央区,日本橋兜町５番１号兜町第１平和ビル３階,,13,102,1030026,,,,,,,2025-10-29,1,,,,,エムゼットケーアールエーアイ,0
7,1010001259781,新規,0,2025-10-29,2025-10-29,株式会社ＵＬＴＩＭＡＴＥ　ＪＡＰＡＮ,,株式会社,東京都,千代田区,麹町３丁目５番地２ビュレックス麹町１１１１－１１１２,,13,101,1020083,,,,,,,2025-10-29,1,,,,,アルティメットジャパン,0
8,1010001259856,新規,0,2025-10-29,2025-10-29,ＳＥＡ　ＡｇｒｉＴｅｃｈ　Ｃｏｎｓｏｒｔｉｕｍ株式会社,,株式会社,東京都,千代田区,外神田６丁目５番４号偕楽ビル５階,,13,101,1010021,,,,,,,2025-10-29,1,,,,,エスイーエーアグリテックコンソーシアム,0
10,1010003049149,新規,0,2025-10-29,2025-10-29,合同会社ＢＡＲＩＫＩ,,合同会社,東京都,千代田区,神田和泉町１番地６－１６ヤマトビル４０５,,13,101,1010024,,,,,,,2025-10-29,1,,,,,バリキ,0
11,1010003049157,新規,0,2025-10-29,2025-10-29,Ｒｅｄ　ＭＬ合同会社,,合同会社,東京都,千代田区,霞が関３丁目２番５号,,13,101,1000013,,,,,,,2025-10-29,1,,,,,レッドエムエル,0
17,1010403036432,新規,0,2025-10-29,2025-10-29,ＨＥＬＩＯ　ＷＯＲＫＳ合同会社,,合同会社,東京都,港区,高輪１丁目５番３３－５１０号,,13,103,1080074,,,,,,,2025-10-29,1,,,,,ヘリオワークス,0
21,1010501054947,新規,0,2025-10-29,2025-10-29,雲林株式会社,,株式会社,東京都,台東区,千束１丁目１０番１７－１０２号,,13,106,1110031,,,,,,,2025-10-29,1,,,,,ウンリン,0
25,1010601068161,新規,0,2025-10-29,2025-10-29,株式会社政虎,,株式会社,東京都,江東区,潮見１丁目１３番８号,,13,108,1350052,,,,,,,2025-10-29,1,,,,,マサトラ,0
26,1010601068203,新規,0,2025-10-29,2025-10-29,株式会社ａｑｕａ,,株式会社,東京都,江東区,大島８丁目２２番８号グランテリア淺野３０３,,13,108,1360072,,,,,,,2025-10-29,1,,,,,アクア,0
43,1011001173139,新規,0,2025-10-29,2025-10-29,株式会社Ｎｉｔｅｙ,,株式会社,東京都,渋谷区,道玄坂１丁目２１－１ＳＨＩＢＵＹＡＳＯＬＡＳＴＡ３ＦＤ－１４,,13,113,1500043,,,,,,,2025-10-29,1,,,,,ナイティー,0
44,1011003022764,新規,0,2025-10-29,2025-10-29,ツインビットジャパン合同会社,,合同会社,東京都,渋谷区,恵比寿４丁目２０番３号恵比寿ガーデンプレイスタワー１８階,,13,113,1500013,,,,,,,2025-10-29,1,,,,,ツインビットジャパン,0
45,1011003022863,新規,0,2025-10-29,2025-10-29,ＡＴＲＹＳＥ合同会社,,合同会社,東京都,渋谷区,広尾１丁目２番地１号ヒカリビル４階,,13,113,1500012,,,,,,,2025-10-29,1,,,,,アトリース,0
50,1011103016567,新規,0,2025-10-29,2025-10-29,ＯＱＫ合同会社,,合同会社,東京都,新宿区,山吹町３６２みどりビル３階,,13,104,1620801,,,,,,,2025-10-29,1,,,,,オキューケー,0
53,1011601029129,新規,0,2025-10-29,2025-10-29,株式会社企画の竹馬,,株式会社,東京都,練馬区,関町北５丁目７番１６号,,13,120,1770051,,,,,,,2025-10-29,1,,,,,キカクノチクバ,0
56,1011703004442,新規,0,2025-10-29,2025-10-29,合同会社和花母店,,合同会社,東京都,江戸川区,南小岩６丁目３１番１０－１００９号・プラウドタワー小岩ファースト,,13,123,1330056,,,,,,,2025-10-29,1,,,,,ワカボテン,0
61,1012405005183,新規,0,2025-10-29,2025-10-29,一般社団法人ｃｏｍａｒｃｈ,,その他の設立登記法人,東京都,狛江市,西野川２丁目３１番１号,,13,219,2010001,,,,,,,2025-10-29,1,,,,,コマチ,0
63,1012701019168,新規,0,2025-10-29,2025-10-29,株式会社ゼンフリ,,株式会社,東京都,西東京市,向台町４丁目２１番３５―７１１号,,13,229,1880013,,,,,,,2025-10-29,1,,,,,ゼンフリ,0
65,1012803003912,新規,0,2025-10-29,2025-10-29,合同会社Ｄｅｘｌａｖ,,合同会社,東京都,国分寺市,本多２丁目１番１５号２０１,,13,214,1850011,,,,,,,2025-10-29,1,,,,,デクスラボ,0
69,1013301055198,新規,0,2025-10-29,2025-10-29,株式会社ＤＲＥＡＭ　ＪＡＰＡＮ,,株式会社,東京都,豊島区,南大塚３丁目４８番７号,,13,116,1700005,,,,,,,2025-10-29,1,,,,,ドリムジャパン,0
70,1013305003780,新規,0,2025-10-29,2025-10-29,一般社団法人ＹＵＫＩ,,その他の設立登記法人,東京都,豊島区,東池袋４丁目２１－１－Ｂ１０２,,13,116,1700013,,,,,,,2025-10-29,1,,,,,ユキ,0
74,1020001165558,新規,0,2025-10-29,2025-10-29,株式会社Ｃｏｎｆｉｄｏ,,株式会社,神奈川県,横浜市瀬谷区,瀬谷３丁目４番地５４,,14,114,2460031,,,,,,,2025-10-29,1,,,,,コンフィード,0
75,1020001165590,新規,0,2025-10-29,2025-10-29,株式会社ＲＯＡＲ,,株式会社,神奈川県,横浜市南区,宮元町２丁目２９番地１Ｄ’クラディア横浜マークス１Ｆ,,14,105,2320016,,,,,,,2025-10-29,1,,,,,ロアー,0
77,1020003029653,新規,0,2025-10-29,2025-10-29,ＡＲＫ　ＮＯＶＡ合同会社,,合同会社,神奈川県,横浜市港北区,新横浜２丁目１４－８－７０２,,14,109,2220033,,,,,,,2025-10-29,1,,,,,アークノヴァ,0
78,1020003029678,新規,0,2025-10-29,2025-10-29,合同会社ｍｏｆｆｓｅｌｅｃｔ,,合同会社,神奈川県,横浜市金沢区,六浦南５丁目１６－４８,,14,108,2360038,,,,,,,2025-10-29,1,,,,,モフセレクト,0
85,1021001086678,新規,0,2025-10-29,2025-10-29,朝日ホテルマネジメント株式会社,,株式会社,神奈川県,大和市,中央１丁目３番１９号,,14,213,2420021,,,,,,,2025-10-29,1,,,,,アサヒホテルマネジメント,0
86,1021001086703,新規,0,2025-10-29,2025-10-29,Ｒｅｂｌｏｏｍ株式会社,,株式会社,神奈川県,中郡大磯町,大磯８７８番地相互ビル２０２,,14,341,2550003,,,,,,,2025-10-29,1,,,,,リブルーム,0
93,1030001169434,新規,0,2025-10-29,2025-10-29,翔雲株式会社,,株式会社,埼玉県,蓮田市,関山４丁目１番４号,,11,238,3490121,,,,,,,2025-10-29,1,,,,,ショウウン,0
102,1040001141086,新規,0,2025-10-29,2025-10-29,株式会社ＴＴＦ　Ｉｍｐｏｒｔ　Ｅｘｐｏｒｔ,,株式会社,千葉県,船橋市,藤原１丁目７－１０グレースヒルズ１０１号,,12,204,2730047,,,,,,,2025-10-29,1,,,,,ティーティーエフインポートエクスポート,0
103,1040001141128,新規,0,2025-10-29,2025-10-29,株式会社ブライト,,株式会社,千葉県,千葉市若葉区,若松町４２４番地３５６,,12,104,2640021,,,,,,,2025-10-29,1,,,,,ブライト,0
104,1040001141160,新規,0,2025-10-29,2025-10-29,ＢＬＵＥ　ＢＯＮＤ株式会社,,株式会社,千葉県,流山市,大字東深井４５４番地の１９,,12,220,2700101,,,,,,,2025-10-29,1,,,,,ブルーボンド,0
105,1040001141210,新規,0,2025-10-29,2025-10-29,株式会社新商,,株式会社,千葉県,千葉市中央区,生実町１９５４番地１５,,12,101,2600813,,,,,,,2025-10-29,1,,,,,アラショウ,0
110,1040003028876,新規,0,2025-10-29,2025-10-29,土門工業合同会社,,合同会社,千葉県,市原市,松ケ島４９５番地３,,12,219,2900035,,,,,,,2025-10-29,1,,,,,ドモンコウギョウ,0
122,1100005013399,新規,0,2025-10-29,2025-10-29,日本有機農業協同組合,,その他の設立登記法人,長野県,伊那市,美篶１１１２番地,,20,209,3960111,,,,,,,2025-10-29,1,,,,,ニホンユウキノウギョウ,0
133,1120001281221,新規,0,2025-10-29,2025-10-29,株式会社ＨＬＡ,,株式会社,大阪府,大阪市生野区,小路東３丁目１７番１９号,,27,116,5440003,,,,,,,2025-10-29,1,,,,,エイチエルエー,0
134,1120001281394,新規,0,2025-10-29,2025-10-29,株式会社ＰＲＯＦＩＴ,,株式会社,大阪府,大阪市阿倍野区,昭和町１丁目３番２９号,,27,119,5450011,,,,,,,2025-10-29,1,,,,,プロフィット,0
135,1120001281436,新規,0,2025-10-29,2025-10-29,ドクターレザー株式会社,,株式会社,大阪府,大阪市西区,西本町２丁目５－１９－３０８号室,,27,106,5500005,,,,,,,2025-10-29,1,,,,,ドクターレザー,0
136,1120001281493,新規,0,2025-10-29,2025-10-29,株式会社オクト工業,,株式会社,大阪府,大阪市平野区,長吉長原東３丁目１番６８－２０２号,,27,126,5470013,,,,,,,2025-10-29,1,,,,,オクトコウギョウ,0
137,1120001281519,新規,0,2025-10-29,2025-10-29,株式会社ビクエスト,,株式会社,大阪府,守口市,西郷通１丁目１１番４号,,27,209,5700034,,,,,,,2025-10-29,1,,,,,ビクエスト,0
142,1120003031112,新規,0,2025-10-29,2025-10-29,合同会社Ａｃｃｏｓ‐ＮＬＰ,,合同会社,大阪府,大阪市城東区,鴫野西２丁目１２番５号,,27,118,5360014,,,,,,,2025-10-29,1,,,,,アッコスエヌエルピー,0
149,1120901051723,新規,0,2025-10-29,2025-10-29,株式会社大阪フーズ,,株式会社,大阪府,摂津市,鳥飼本町１丁目７番２１号,,27,224,5660052,,,,,,,2025-10-29,1,,,,,オオサカフーズ,0
152,1122001039822,新規,0,2025-10-29,2025-10-29,株式会社ＮＫＳ,,株式会社,大阪府,東大阪市,渋川町２丁目１４番３号,,27,227,5770836,,,,,,,2025-10-29,1,,,,,エヌケイエス,0
155,1130001080894,新規,0,2025-10-29,2025-10-29,株式会社森学,,株式会社,京都府,京都市中京区,壬生東高田町２３番地９,,26,104,6048845,,,,,,,2025-10-29,1,,,,,モリガク,0
156,1130001080903,新規,0,2025-10-29,2025-10-29,京兎兎株式会社,,株式会社,京都府,八幡市,八幡隅田口８５番地,,26,210,6148068,,,,,,,2025-10-29,1,,,,,キョウトト,0
165,1140001140516,新規,0,2025-10-29,2025-10-29,鴻達実業株式会社,,株式会社,兵庫県,神戸市中央区,熊内橋通３丁目２番１３－２号,,28,110,6510055,,,,,,,2025-10-29,1,,,,,コウタツジツギョウ,0
166,1140001140549,新規,0,2025-10-29,2025-10-29,株式会社サンメイ,,株式会社,兵庫県,芦屋市,西山町１４番１号,,28,206,6590083,,,,,,,2025-10-29,1,,,,,サンメイ,0
167,1140001140557,新規,0,2025-10-29,2025-10-29,株式会社ＬＡＵＬＥＡＫＩＴＣＨＥＮ,,株式会社,兵庫県,神戸市須磨区,北落合４丁目７番１４号,,28,107,6540151,,,,,,,2025-10-29,1,,,,,ラウレアキッチン,0
170,1160001027174,新規,0,2025-10-29,2025-10-29,株式会社ＧＴＯ,,株式会社,滋賀県,大津市,仰木の里１丁目４番１０号,,25,201,5200246,,,,,,,2025-10-29,1,,,,,ジーティーオー,0
185,1180001169270,新規,0,2025-10-29,2025-10-29,誉コーポレーション株式会社,,株式会社,愛知県,名古屋市昭和区,下構町１丁目９番地,,23,107,4660025,,,,,,,2025-10-29,1,,,,,ホマレコーポレーション,0
186,1180001169287,新規,0,2025-10-29,2025-10-29,株式会社Ｍ‐ＮＥＸＴ,,株式会社,愛知県,名古屋市千種区,末盛通１丁目２０番地の１プラウドタワー覚王山１４０４号室,,23,101,4640821,,,,,,,2025-10-29,1,,,,,エムネクスト,0
187,1180001169312,新規,0,2025-10-29,2025-10-29,ＡＤホールディングス株式会社,,株式会社,愛知県,丹羽郡大口町,二ツ屋１丁目１３４番１,,23,361,4800123,,,,,,,2025-10-29,1,,,,,エーディーホールディングス,0
197,1190001032642,新規,0,2025-10-29,2025-10-29,株式会社Ｊｅｘ,,株式会社,三重県,鈴鹿市,須賀１丁目１５８３番地５,,24,207,5130034,,,,,,,2025-10-29,1,,,,,ジェックス,0
208,1230001021153,新規,0,2025-10-29,2025-10-29,株式会社武テック,,株式会社,富山県,射水市,奈呉の江９番地１２,,16,211,9340031,,,,,,,2025-10-29,1,,,,,タケテック,0
210,1230005009500,新規,0,2025-10-29,2025-10-29,一般社団法人ＢＬＵＥ　ＬＩＮＫ,,その他の設立登記法人,富山県,富山市,豊田本町２丁目１０番７号,,16,201,9318312,,,,,,,2025-10-29,1,,,,,ブルーリンク,0
212,1240001065694,新規,0,2025-10-29,2025-10-29,エフケー株式会社,,株式会社,広島県,広島市中区,大手町１丁目１－２０相生橋ビル７階Ａ号室,,34,101,7300051,,,,,,,2025-10-29,1,,,,,エフケー,0
213,1240003007455,新規,0,2025-10-29,2025-10-29,合同会社Ａｌｉｃｅ　Ｄｅｓｉｇｎ,,合同会社,広島県,東広島市,西条町寺家５６９番地１５,,34,212,7390041,,,,,,,2025-10-29,1,,,,,アリスデザイン,0
226,1290001111386,新規,0,2025-10-29,2025-10-29,株式会社Ｂ‐ｔｒｕｓｔ,,株式会社,福岡県,大牟田市,大正町４丁目１－１０,,40,202,8360047,,,,,,,2025-10-29,1,,,,,ビートラスト,0
227,1290801031981,新規,0,2025-10-29,2025-10-29,株式会社ことのは薬局,,株式会社,福岡県,遠賀郡岡垣町,海老津駅前７番１６号,,40,383,8114236,,,,,,,2025-10-29,1,,,,,コトノハヤッキョク,0
239,1340001027734,新規,0,2025-10-29,2025-10-29,株式会社ひかリハ,,株式会社,鹿児島県,鹿児島市,光山２丁目２２番１号,,46,201,8910151,,,,,,,2025-10-29,1,,,,,ヒカリハ,0
244,1360001035958,新規,0,2025-10-29,2025-10-29,株式会社しもわ工務店,,株式会社,沖縄県,石垣市,字石垣４８７番地１,,47,207,9070023,,,,,,,2025-10-29,1,,,,,シモワコウムテン,0
255,1400003003553,新規,0,2025-10-29,2025-10-29,合同会社ａｖｅｎｉｒ,,合同会社,岩手県,奥州市,水沢中町２３番地４１号遠山ビル１階,,03,215,0230813,,,,,,,2025-10-29,1,,,,,アベニール,0
262,1430005015338,新規,0,2025-10-29,2025-10-29,特定非営利活動法人ライフサポートアサヅマ,,その他の設立登記法人,北海道,札幌市中央区,南七条西６丁目１０３３,,01,101,0640807,,,,,,,2025-10-29,1,,,,,ライフサポートアサヅマ,0
278,2010001259525,新規,0,2025-10-29,2025-10-29,星泓株式会社,,株式会社,東京都,中央区,銀座１丁目１２番４号Ｎ＆ＥＢＬＤ．７階,,13,102,1040061,,,,,,,2025-10-29,1,,,,,セイコウ,0
279,2010001259673,新規,0,2025-10-29,2025-10-29,Ｓｗｅｅｔ　Ｔｉｍｅ株式会社,,株式会社,東京都,千代田区,神田佐久間町２丁目１８番地１秋葉原ＳＴＮフロント１０階,,13,101,1010025,,,,,,,2025-10-29,1,,,,,スウィートタイム,0
280,2010001259780,新規,0,2025-10-29,2025-10-29,株式会社ニューブリッジ,,株式会社,東京都,中央区,新富１丁目８番２号ＡＬＰＨＡＢＬＤＧ．１階,,13,102,1040041,,,,,,,2025-10-29,1,,,,,ニューブリッジ,0
285,2010003049172,新規,0,2025-10-29,2025-10-29,合同会社シュガー,,合同会社,東京都,中央区,銀座２丁目１０番８号マニエラ銀座ビル４階,,13,102,1040061,,,,,,,2025-10-29,1,,,,,シュガー,0
286,2010005040864,新規,0,2025-10-29,2025-10-29,ＡＩ９一般社団法人,,その他の設立登記法人,東京都,中央区,京橋２丁目１２番６号ＡＯＪ税理士法人内,,13,102,1040031,,,,,,,2025-10-29,1,,,,,エーアイナイン,0
293,2010401194157,新規,0,2025-10-29,2025-10-29,ＶＭＩ　Ｊａｐａｎ株式会社,,株式会社,東京都,港区,赤坂１丁目１１番４４号赤坂インターシティ５階Ｆｏｒｖｉｓ・Ｍａｚａｒｓ・Ｊａｐａｎ株式会社内,,13,103,1070052,,,,,,,2025-10-29,1,,,,,ヴィーエムアイジャパン,0
294,2010401194198,新規,0,2025-10-29,2025-10-29,Ｒ３株式会社,,株式会社,東京都,港区,虎ノ門２丁目６番１号虎ノ門ヒルズステーションタワー,,13,103,1050001,,,,,,,2025-10-29,1,,,,,アールスリー,0
295,2010403036472,新規,0,2025-10-29,2025-10-29,ＫＳ２エンジニアリング合同会社,,合同会社,東京都,港区,南青山３丁目１番３６号青山丸竹ビル６Ｆ,,13,103,1070062,,,,,,,2025-10-29,1,,,,,ケーエスツーエンジニアリング,0
298,2010501054938,新規,0,2025-10-29,2025-10-29,株式会社Ｍ’ｓ　Ｗｅｌｌｎｅｓｓ　Ｓｏｌｕｔｉｏｎｓ,,株式会社,東京都,台東区,上野１丁目１７番６号広小路ビル８Ｆ－Ｂ,,13,106,1100005,,,,,,,2025-10-29,1,,,,,エムズウェルネスソリューションズ,0
302,2010601068210,新規,0,2025-10-29,2025-10-29,株式会社Ｂｒｉｖａ,,株式会社,東京都,江東区,塩浜２丁目１６番地６号,,13,108,1350043,,,,,,,2025-10-29,1,,,,,ブリヴァ,0
303,2010601068219,新規,0,2025-10-29,2025-10-29,株式会社クロスロード,,株式会社,東京都,江東区,塩浜１丁目４番３３－６４５号,,13,108,1350043,,,,,,,2025-10-29,1,,,,,クロスロード,0
307,2010801036727,新規,0,2025-10-29,2025-10-29,株式会社Ｎ．ｇｕｉｔａｒ,,株式会社,東京都,大田区,池上３丁目２８－４,,13,111,1460082,,,,,,,2025-10-29,1,,,,,エヌギター,0
309,2010901058340,新規,0,2025-10-29,2025-10-29,株式会社ＳＥＮＳ,,株式会社,東京都,世田谷区,喜多見５丁目２３番４号,,13,112,1570067,,,,,,,2025-10-29,1,,,,,センス,0
319,2011001173195,新規,0,2025-10-29,2025-10-29,株式会社ヒューマンサービス・プラス,,株式会社,東京都,渋谷区,代々木５丁目５５番６号,,13,113,1510053,,,,,,,2025-10-29,1,,,,,ヒューマンサービスプラス,0
320,2011001173419,新規,0,2025-10-29,2025-10-29,株式会社ラブキャラ,,株式会社,東京都,渋谷区,恵比寿西２丁目２０番７－４１８号,,13,113,1500021,,,,,,,2025-10-29,1,,,,,ラブキャラ,0
321,2011003022870,新規,0,2025-10-29,2025-10-29,合同会社エナジーインフラ,,合同会社,東京都,渋谷区,広尾３丁目２番１４号カーサココン１階,,13,113,1500012,,,,,,,2025-10-29,1,,,,,エナジーインフラ,0
332,2011601029128,新規,0,2025-10-29,2025-10-29,株式会社ＳＴ．ＣＲＥＷ,,株式会社,東京都,練馬区,大泉町３丁目３９番２３号,,13,120,1780062,,,,,,,2025-10-29,1,,,,,エスティークリュー,0
335,2011801046988,新規,0,2025-10-29,2025-10-29,株式会社フォーアスＡＩ,,株式会社,東京都,葛飾区,宝町１丁目１０番５－１０５号クリオお花茶屋壱番館,,13,122,1240005,,,,,,,2025-10-29,1,,,,,フォーアスエーアイ,0
337,2012401043756,新規,0,2025-10-29,2025-10-29,株式会社テトラグ,,株式会社,東京都,武蔵野市,吉祥寺南町３丁目２６番９号,,13,203,1800003,,,,,,,2025-10-29,1,,,,,テトラグ,0
341,2013301055206,新規,0,2025-10-29,2025-10-29,ＢＲＯＡＤ　ＣＯＮＣＥＰＴ　ＬＡＮＤ　ＪＡＰＡＮ株式会社,,株式会社,東京都,豊島区,南大塚１丁目４６番１１号,,13,116,1700005,,,,,,,2025-10-29,1,,,,,ブロードコンセプトランドジャパン,0
349,2020001165417,新規,0,2025-10-29,2025-10-29,ＧＨＡＮＡ株式会社,,株式会社,神奈川県,川崎市幸区,塚越２丁目１５５誠和ハイツ３０１,,14,132,2120024,,,,,,,2025-10-29,1,,,,,ガーナ,0
350,2020001165433,新規,0,2025-10-29,2025-10-29,Ｒ＆Ｎパートナーズ株式会社,,株式会社,神奈川県,横浜市都筑区,北山田７丁目１０－３,,14,118,2240021,,,,,,,2025-10-29,1,,,,,アールアンドエヌパートナーズ,0
351,2020001165549,新規,0,2025-10-29,2025-10-29,株式会社かなえ結,,株式会社,神奈川県,横浜市中区,桜木町１丁目１－７ヒューリックみなとみらい１０階,,14,104,2310062,,,,,,,2025-10-29,1,,,,,カナエムスビ,0
355,2020003029702,新規,0,2025-10-29,2025-10-29,合同会社Ｂａｊａｊ＆Ｐａｗａｒ　Ｔｒａｄｉｎｇ,,合同会社,神奈川県,川崎市川崎区,殿町１丁目１３番２１－８号,,14,131,2100821,,,,,,,2025-10-29,1,,,,,バジャジアンドパワルトレーディング,0
356,2020003029710,新規,0,2025-10-29,2025-10-29,Ｊａｖｅｌｉｎ　Ｒｏｖｅｒ合同会社,,合同会社,神奈川県,横浜市保土ケ谷区,保土ケ谷町２丁目１３３番地６,,14,106,2400021,,,,,,,2025-10-29,1,,,,,ジャベリンローバー,0
360,2021001086710,新規,0,2025-10-29,2025-10-29,Ｍアセットマネージメント株式会社,,株式会社,神奈川県,藤沢市,片瀬山３丁目１７番３号,,14,205,2510033,,,,,,,2025-10-29,1,,,,,エムアセットマネージメント,0
376,2030001169425,新規,0,2025-10-29,2025-10-29,株式会社傳福,,株式会社,埼玉県,川口市,戸塚２丁目６番２９号,,11,203,3330811,,,,,,,2025-10-29,1,,,,,デンプク,0
384,2030003027977,新規,0,2025-10-29,2025-10-29,合同会社Ｎｅｘｔｇａｔｅ,,合同会社,埼玉県,東松山市,大字柏崎５４１－２,,11,212,3550034,,,,,,,2025-10-29,1,,,,,ネクストゲート,0
386,2040001141192,新規,0,2025-10-29,2025-10-29,株式会社優光,,株式会社,千葉県,市原市,南国分寺台１丁目２番地１４,,12,219,2900075,,,,,,,2025-10-29,1,,,,,ユウコウ,0
392,2040003028842,新規,0,2025-10-29,2025-10-29,合同会社Ｂｅｙｏｎｄ　Ｓｐｏｒｔｓ,,合同会社,千葉県,市川市,曽谷２丁目３番１１号,,12,203,2720832,,,,,,,2025-10-29,1,,,,,ビヨンドスポーツ,0
393,2040003028875,新規,0,2025-10-29,2025-10-29,合同会社ＭＡＴＳＵＤＥＮ,,合同会社,千葉県,船橋市,田喜野井４丁目３番１７号,,12,204,2740073,,,,,,,2025-10-29,1,,,,,マツデン,0
394,2050001057487,新規,0,2025-10-29,2025-10-29,株式会社Ｓ．ＩＳＬＡＭ　ＩＮＴＥＲＮＡＴＩＯＮＡＬ,,株式会社,茨城県,結城郡八千代町,大字平塚１６００番地２６,,08,521,3003561,,,,,,,2025-10-29,1,,,,,エスイスラムインターナショナル,0
395,2050003009726,新規,0,2025-10-29,2025-10-29,Ｈ．Ｓ．Ｔｒａｄｅｒｓ合同会社,,合同会社,茨城県,坂東市,矢作３１８３番地２１,,08,228,3060624,,,,,,,2025-10-29,1,,,,,エイチエストレーダーズ,0
396,2070001043485,新規,0,2025-10-29,2025-10-29,高見土地株式会社,,株式会社,群馬県,高崎市,江木町１１８番地,,10,202,3700046,,,,,,,2025-10-29,1,,,,,,0
401,2090003002925,新規,0,2025-10-29,2025-10-29,合同会社Ｌａｎｉ,,合同会社,山梨県,中巨摩郡昭和町,清水新居５５８番地３,,19,384,4093867,,,,,,,2025-10-29,1,,,,,ラニ,0
411,2120001281162,新規,0,2025-10-29,2025-10-29,株式会社Ｂｌｉｘ,,株式会社,大阪府,大阪市中央区,南船場２丁目１０－２８Ｎｋビル７０４,,27,128,5420081,,,,,,,2025-10-29,1,,,,,ブリックス,0
412,2120001281385,新規,0,2025-10-29,2025-10-29,株式会社日星,,株式会社,大阪府,大阪市浪速区,下寺３丁目１０－１５,,27,111,5560001,,,,,,,2025-10-29,1,,,,,ニッセイ,0
413,2120001281402,新規,0,2025-10-29,2025-10-29,アダチインダストリー株式会社,,株式会社,大阪府,大阪市鶴見区,横堤２丁目６番７号,,27,124,5380052,,,,,,,2025-10-29,1,,,,,アダチインダストリー,0
414,2120001281518,新規,0,2025-10-29,2025-10-29,ＰＮＴ株式会社,,株式会社,大阪府,大阪市中央区,日本橋１丁目９番１５号ＲＩＨＩＴＯ日本橋ビル３階,,27,128,5420073,,,,,,,2025-10-29,1,,,,,ピーエヌティ,0
415,2120001281526,新規,0,2025-10-29,2025-10-29,株式会社オルタナ,,株式会社,大阪府,大阪市阿倍野区,阪南町１丁目２７番２号昭和町ビル３Ｆ,,27,119,5450021,,,,,,,2025-10-29,1,,,,,オルタナ,0
417,2120003031103,新規,0,2025-10-29,2025-10-29,前原商事合同会社,,合同会社,大阪府,大阪市阿倍野区,昭和町３丁目１１番１９号,,27,119,5450011,,,,,,,2025-10-29,1,,,,,マエハラショウジ,0
420,2120103006814,新規,0,2025-10-29,2025-10-29,ＹＵＡＮ合同会社,,合同会社,大阪府,堺市東区,南野田３３４番地３,,27,143,5998124,,,,,,,2025-10-29,1,,,,,ユアン,0
425,2130003010898,新規,0,2025-10-29,2025-10-29,合同会社ＯＴＯ,,合同会社,京都府,京都市下京区,東洞院通四条下る元悪王子町４２番地サンクタス四条烏丸スティーロレジデンス１３０５,,26,106,6008091,,,,,,,2025-10-29,1,,,,,オト,0
427,2140005027675,新規,0,2025-10-29,2025-10-29,一般社団法人スポーツ育成支援会,,その他の設立登記法人,兵庫県,神戸市中央区,御幸通４丁目２番２７号Ｋｐｍ御幸ビル１階,,28,110,6510087,,,,,,,2025-10-29,1,,,,,スポーツイクセイシエンカイ,0
429,2160001027165,新規,0,2025-10-29,2025-10-29,株式会社ｍｏｒｅ４Ｕ,,株式会社,滋賀県,守山市,小島町１８０９番地９,,25,207,5240002,,,,,,,2025-10-29,1,,,,,モアフォーユー,0
430,2160001027173,新規,0,2025-10-29,2025-10-29,株式会社ＳＲＩ　ＣＯＲＰＯＲＡＴＩＯＮ,,株式会社,滋賀県,東近江市,栄町３番２６－６号,,25,213,5270027,,,,,,,2025-10-29,1,,,,,エスアールアイコーポレーション,0
437,2180001169187,新規,0,2025-10-29,2025-10-29,株式会社心リーガルサポート千葉,,株式会社,愛知県,名古屋市中村区,椿町１４番１３号,,23,105,4530015,,,,,,,2025-10-29,1,,,,,ココロリーガルサポートチバ,0
443,2180003029298,新規,0,2025-10-29,2025-10-29,合同会社Ｐｌｕｓ　ｅｉｇｈｔ,,合同会社,愛知県,名古屋市天白区,一本松１丁目４０６－４０５,,23,116,4680008,,,,,,,2025-10-29,1,,,,,プラスエイト,0
448,2190001032641,新規,0,2025-10-29,2025-10-29,中部メディカルホールディングス株式会社,,株式会社,三重県,四日市市,松原町３３番５号,,24,202,5108015,,,,,,,2025-10-29,1,,,,,チュウブメディカルホールディングス,0
461,2260001040686,新規,0,2025-10-29,2025-10-29,総合設備ＬＬＣ株式会社,,株式会社,岡山県,岡山市南区,浦安本町１１５番地６８,,33,104,7028026,,,,,,,2025-10-29,1,,,,,ソウゴウセツビエルエルシー,0
462,2260003005398,新規,0,2025-10-29,2025-10-29,ｖｉｏｒｔｏ＆Ｃｏ．合同会社,,合同会社,岡山県,岡山市北区,伊島町２丁目１２番４８号,,33,101,7000016,,,,,,,2025-10-29,1,,,,,ヴィオルトアンドコー,0
472,2290801031980,新規,0,2025-10-29,2025-10-29,株式会社ＮＩＫＯＭＩＸ　Ｃａｐｉｔａｌ　Ｊａｐａｎ,,株式会社,福岡県,行橋市,中央３丁目４番７号,,40,213,8240005,,,,,,,2025-10-29,1,,,,,ニコミックスキャピタルジャパン,0
473,2290803005198,新規,0,2025-10-29,2025-10-29,合同会社ゆとり,,合同会社,福岡県,北九州市門司区,柳町１丁目２番４号,,40,101,8000025,,,,,,,2025-10-29,1,,,,,ユトリ,0
477,2320005010266,新規,0,2025-10-29,2025-10-29,大分県豊後高田市清掃事業協同組合,,その他の設立登記法人,大分県,豊後高田市,玉津４６２番地,,44,209,8790606,,,,,,,2025-10-29,1,,,,,オオイタケンブンゴタカダシセイソウジギョウ,0
479,2330001033682,新規,0,2025-10-29,2025-10-29,株式会社心誠産業,,株式会社,熊本県,熊本市西区,島崎３丁目３０番３号,,43,103,8600073,,,,,,,2025-10-29,1,,,,,シンセイサンギョウ,0
522,3010001259739,新規,0,2025-10-29,2025-10-29,アイリジャパン株式会社,,株式会社,東京都,中央区,勝どき４丁目６－１－４３２６,,13,102,1040054,,,,,,,2025-10-29,1,,,,,アイリジャパン,0
523,3010001259747,新規,0,2025-10-29,2025-10-29,株式会社平論社,,株式会社,東京都,千代田区,神田神保町２丁目１０－３１ＩＷビル１Ｆ,,13,101,1010051,,,,,,,2025-10-29,1,,,,,ヘイロンシャ,0
524,3010001259813,新規,0,2025-10-29,2025-10-29,株式会社ＡＩＮＩＴＹ,,株式会社,東京都,中央区,銀座１丁目２２番１１号銀座大竹ビジデンス２Ｆ,,13,102,1040061,,,,,,,2025-10-29,1,,,,,アイニティ,0
525,3010003049114,新規,0,2025-10-29,2025-10-29,ＴＴＩ　Ｅｌｅｃｔｒｏｎｉｃｓ　Ｊａｐａｎ合同会社,,合同会社,東京都,千代田区,霞が関３丁目２番６号東京倶楽部ビルディング１１階,,13,101,1000013,,,,,,,2025-10-29,1,,,,,ティーティーアイエレクトロニクスジャパン,0
526,3010003049147,新規,0,2025-10-29,2025-10-29,合同会社Ｋ．Ａ．ｓｕｐｐｏｒｔ,,合同会社,東京都,中央区,晴海２丁目３番２－４４１４号,,13,102,1040053,,,,,,,2025-10-29,1,,,,,ケイエイサポート,0
527,3010003049155,新規,0,2025-10-29,2025-10-29,ＥＲＧメディアジャパン合同会社,,合同会社,東京都,文京区,小石川３丁目３５番１５号,,13,105,1120002,,,,,,,2025-10-29,1,,,,,イーアールジーメディアジャパン,0
528,3010003049171,新規,0,2025-10-29,2025-10-29,ＬＰインベストメンツ３号合同会社,,合同会社,東京都,中央区,銀座１丁目２４－３ＢｉｚＦｅｅｌＧＩＮＺＡＰＡＲＫＳＩＤＥ４Ｆ,,13,102,1040061,,,,,,,2025-10-29,1,,,,,エルピーインベストメンツサンゴウ,0
529,3010005040863,新規,0,2025-10-29,2025-10-29,ＡＩ８一般社団法人,,その他の設立登記法人,東京都,中央区,京橋２丁目１２番６号ＡＯＪ税理士法人内,,13,102,1040031,,,,,,,2025-10-29,1,,,,,エーアイエイト,0
540,3010401193777,新規,0,2025-10-29,2025-10-29,株式会社Ｂｕｉｌｄ　ＡＩ,,株式会社,東京都,港区,北青山１丁目３－３三橋ビル３階,,13,103,1070061,,,,,,,2025-10-29,1,,,,,ビルドエーアイ,0
541,3010401194156,新規,0,2025-10-29,2025-10-29,マットウエステート株式会社,,株式会社,東京都,港区,新橋２丁目２番１０号鈴木ビル２階,,13,103,1050004,,,,,,,2025-10-29,1,,,,,マットウエステート,0
542,3010401194197,新規,0,2025-10-29,2025-10-29,Ｒ２株式会社,,株式会社,東京都,港区,虎ノ門２丁目６番１号虎ノ門ヒルズステーションタワー,,13,103,1050001,,,,,,,2025-10-29,1,,,,,アールツー,0
545,3010403036471,新規,0,2025-10-29,2025-10-29,合同会社バリューオブジェクト,,合同会社,東京都,港区,北青山１丁目３－３三橋ビル３階,,13,103,1070061,,,,,,,2025-10-29,1,,,,,バリューオブジェクト,0
546,3010405024838,新規,0,2025-10-29,2025-10-29,一般社団法人高齢社会ＤＸ学会,,その他の設立登記法人,東京都,港区,南青山６丁目７番２号ＶＯＲＴ南青山Ｉ－２Ｆ,00141308,13,103,1070062,,,,,,,2025-10-29,1,,,,,コウレイシャカイディーエックスガッカイ,0
547,3010501054937,新規,0,2025-10-29,2025-10-29,株式会社ＭＰＲ,,株式会社,東京都,台東区,三筋１丁目１－１５ライオンズフォーシア蔵前オアシス１１０４,,13,106,1110055,,,,,,,2025-10-29,1,,,,,エムピーアール,0
548,3010503008057,新規,0,2025-10-29,2025-10-29,合同会社ｙｕＲＡｇｉ,,合同会社,東京都,台東区,千束１丁目１４番９号,,13,106,1110031,,,,,,,2025-10-29,1,,,,,ユラギ,0
550,3010601068201,新規,0,2025-10-29,2025-10-29,株式会社リアノーレ,,株式会社,東京都,墨田区,立川４丁目１２番２号,,13,107,1300023,,,,,,,2025-10-29,1,,,,,リアノーレ,0
557,3011001173087,新規,0,2025-10-29,2025-10-29,株式会社Ｎｏｅｖｉｓ,,株式会社,東京都,渋谷区,道玄坂１丁目１０－８渋谷道玄坂東急ビル２Ｆ－Ｃ,,13,113,1500043,,,,,,,2025-10-29,1,,,,,ノエヴィス,0
558,3011001173095,新規,0,2025-10-29,2025-10-29,株式会社Ａｍｕａ,,株式会社,東京都,渋谷区,恵比寿１丁目２２番地８号ＥＢＩＳＵＦＩＲＳＴＰＬＡＣＥ１００３,,13,113,1500013,,,,,,,2025-10-29,1,,,,,アミュア,0
559,3011001173211,新規,0,2025-10-29,2025-10-29,株式会社シンバリュー,,株式会社,東京都,渋谷区,宇田川町３－７ヒューリック渋谷公園通りビル５Ｆ－１２９,,13,113,1500042,,,,,,,2025-10-29,1,,,,,シンバリュー,0
562,3011003022754,新規,0,2025-10-29,2025-10-29,合同会社秋桜,,合同会社,東京都,目黒区,目黒１丁目３番２３－５１１マンション目黒苑,,13,110,1530063,,,,,,,2025-10-29,1,,,,,コスモス,0
563,3011003022762,新規,0,2025-10-29,2025-10-29,ｋｙｏ．Ｃｏ．合同会社,,合同会社,東京都,渋谷区,神南１丁目１１－４ＦＰＧリンクス神南５階,,13,113,1500041,,,,,,,2025-10-29,1,,,,,キョウカンパニー,0
568,3011101113760,新規,0,2025-10-29,2025-10-29,ＴａｕＴｅｃｈ株式会社,,株式会社,東京都,新宿区,西新宿３丁目３番１３号西新宿水間ビル２Ｆ,,13,104,1600023,,,,,,,2025-10-29,1,,,,,タウテック,0
574,3011401027520,新規,0,2025-10-29,2025-10-29,モルフォデザインビルド株式会社,,株式会社,東京都,板橋区,成増１丁目２８番１５号林屋ビル１００３,,13,119,1750094,,,,,,,2025-10-29,1,,,,,モルフォデザインビルド,0
577,3011601029127,新規,0,2025-10-29,2025-10-29,株式会社アルティスト,,株式会社,東京都,練馬区,田柄２丁目５３番４－４０２号,,13,120,1790073,,,,,,,2025-10-29,1,,,,,アルティスト,0
579,3011701028846,新規,0,2025-10-29,2025-10-29,株式会社あゝ,,株式会社,東京都,江戸川区,中葛西３丁目３１－１２カーサフレスコ４０７号,,13,123,1340083,,,,,,,2025-10-29,1,,,,,アア,0
580,3011701028895,新規,0,2025-10-29,2025-10-29,株式会社高嶋工業,00141309,株式会社,東京都,江戸川区,南小岩７丁目２９－１４エクセレントシティ小岩４０３,,13,123,1330056,,,,,,,2025-10-29,1,,,,,タカシマコウギョウ,0
583,3011801046970,新規,0,2025-10-29,2025-10-29,株式会社ｄａｍａｓｃｕｓ,,株式会社,東京都,足立区,古千谷本町３丁目９番１０－１１４号,,13,121,1210832,,,,,,,2025-10-29,1,,,,,ダマスカス,0
587,3012405005181,新規,0,2025-10-29,2025-10-29,特定非営利活動法人猫にゃんネットワーク府中,,その他の設立登記法人,東京都,府中市,西府町４丁目１２番地の６７,,13,206,1830031,,,,,,,2025-10-29,1,,,,,ネコニャンネットワークフチュウ,0
591,3013303007939,新規,0,2025-10-29,2025-10-29,合同会社イリス,,合同会社,東京都,豊島区,池袋３丁目３４－７ビジネスパーク池袋２階,,13,116,1710014,,,,,,,2025-10-29,1,,,,,イリス,0
594,3020001165531,新規,0,2025-10-29,2025-10-29,株式会社アールイー,,株式会社,神奈川県,横浜市中区,本牧和田１１番１７号パークハイム本牧１Ｆ,,14,104,2310827,,,,,,,2025-10-29,1,,,,,アールイー,0
595,3020001165572,新規,0,2025-10-29,2025-10-29,Ｔ＆Ｋエンタープライズ株式会社,,株式会社,神奈川県,横浜市金沢区,瀬戸１７番１８号,,14,108,2360027,,,,,,,2025-10-29,1,,,,,ティーアンドケイエンタープライズ,0
600,3020003029429,新規,0,2025-10-29,2025-10-29,フューチャースキルズ合同会社,,合同会社,神奈川県,横浜市神奈川区,神大寺１丁目２３番２号,,14,102,2210801,,,,,,,2025-10-29,1,,,,,フューチャースキルズ,0
601,3020003029676,新規,0,2025-10-29,2025-10-29,合同会社ＬＵＭＩＮＡ,,合同会社,神奈川県,川崎市麻生区,白山４丁目１－３－２０８,,14,137,2150014,,,,,,,2025-10-29,1,,,,,ルミナ,0
603,3020005017019,新規,0,2025-10-29,2025-10-29,一般社団法人ほっと広場管理会,,その他の設立登記法人,神奈川県,横浜市港北区,富士塚２丁目２９番９号－１,,14,109,2220012,,,,,,,2025-10-29,1,,,,,ホットヒロバカンリカイ,0
623,3030001169192,新規,0,2025-10-29,2025-10-29,株式会社なかまや,,株式会社,埼玉県,さいたま市見沼区,春野１丁目９－３－５０２,,11,104,3370002,,,,,,,2025-10-29,1,,,,,ナカマヤ,0
624,3030001169390,新規,0,2025-10-29,2025-10-29,株式会社Ｏｎｅｍｉｌｅ,,株式会社,埼玉県,三郷市,戸ケ崎１丁目１９８番地６,,11,237,3410044,,,,,,,2025-10-29,1,,,,,ワンマイル,0
625,3030001169449,新規,0,2025-10-29,2025-10-29,Ｇｅｎｅｕｒａ株式会社,,株式会社,埼玉県,春日部市,栄町１丁目３１０番１ジーメゾンリトスメラン北春日部０１０１,,11,214,3440058,,,,,,,2025-10-29,1,,,,,ジェノーラ,0
626,3030001169473,新規,0,2025-10-29,2025-10-29,株式会社ＲＰ１,,株式会社,埼玉県,和光市,新倉１丁目３番２８号アゼリア３０１,,11,229,3510115,,,,,,,2025-10-29,1,,,,,アールピーワン,0
638,3040001141150,新規,0,2025-10-29,2025-10-29,株式会社ＲｅＬｕｘ,,株式会社,千葉県,八千代市,村上南１丁目４番地１ウエリス八千代村上１２３号室,,12,221,2760029,,,,,,,2025-10-29,1,,,,,リラックス,0
639,3040001141183,新規,0,2025-10-29,2025-10-29,株式会社Ｓｐｒｏｕｔ,,株式会社,千葉県,柏市,富里２丁目２番１０－１０６号,,12,217,2770081,,,,,,,2025-10-29,1,,,,,スプラウト,0
640,3040001141200,新規,0,2025-10-29,2025-10-29,ＡＸＣｏｎｓｔＤＸ株式会社,,株式会社,千葉県,千葉市若葉区,都賀２丁目１４番１８号,,12,104,2640025,,,,,,,2025-10-29,1,,,,,エーエックスコンストディーエックス,0
643,3040003028833,新規,0,2025-10-29,2025-10-29,合同会社Ｇｒｏｗｔｈ　Ｍｉｎｄｓｅｔ,,合同会社,千葉県,君津市,白駒５４８－２９,,12,225,2991105,,,,,,,2025-10-29,1,,,,,グロースマインドセット,0
644,3040003028841,新規,0,2025-10-29,2025-10-29,合同会社ＢＨＵＲＥ　ＲＡＪＡ,,合同会社,千葉県,柏市,中新宿３丁目２－１２,,12,217,2770066,,,,,,,2025-10-29,1,,,,,ブレラジャ,0
645,3040003028866,新規,0,2025-10-29,2025-10-29,合同会社ＦａＣａＤｅ,,合同会社,千葉県,野田市,山崎２７０４番地の５９クレールコートＹＭ２０１,,12,208,2780022,,,,,,,2025-10-29,1,,,,,ファサード,0
646,3040003028882,新規,0,2025-10-29,2025-10-29,合同会社丸幸,,合同会社,千葉県,我孫子市,中峠台３６番地３５,,12,222,2701128,,,,,,,2025-10-29,1,,,,,マルコウ,0
647,3040005022941,新規,0,2025-10-29,2025-10-29,特定非営利活動法人つるし柿,,その他の設立登記法人,千葉県,千葉市緑区,茂呂町３番地１,,12,105,2660023,,,,,,,2025-10-29,1,,,,,ツルシガキ,0
657,3080105006543,新規,0,2025-10-29,2025-10-29,たちばな土地家屋調査士法人,,その他の設立登記法人,静岡県,御殿場市,北久原６０２番地の１１,,22,215,4120004,,,,,,,2025-10-29,1,,,,,タチバナ,0
662,3100001039082,新規,0,2025-10-29,2025-10-29,株式会社Ｖｉｓｔａｐｒｉｍｅ,,株式会社,長野県,長野市,早苗町５８番,,20,201,3800812,,,,,,,2025-10-29,1,,,,,ビスタプライム,0
666,3110005017281,新規,0,2025-10-29,2025-10-29,一般社団法人ヨコヤマクミコ,,その他の設立登記法人,新潟県,新潟市西区,小新西３丁目４番１２号,,15,107,9502024,,,,,,,2025-10-29,1,,,,,ヨコヤマクミコ,0
682,3120001280907,新規,0,2025-10-29,2025-10-29,明智株式会社,,株式会社,大阪府,大阪市北区,天神橋８丁目３－４天八フロントビル２階,,27,127,5310041,,,,,,,2025-10-29,1,,,,,メイチ,0
683,3120001281467,新規,0,2025-10-29,2025-10-29,ラポールラシュレ株式会社,,株式会社,大阪府,大阪市福島区,吉野３丁目３番３０号,,27,103,5530006,,,,,,,2025-10-29,1,,,,,ラポールラシュレ,0
684,3120001281509,新規,0,2025-10-29,2025-10-29,金汐株式会社,,株式会社,大阪府,大阪市淀川区,西中島３丁目５番１２号新大阪浪速ビル５０１号室,,27,123,5320011,,,,,,,2025-10-29,1,,,,,キンシオ,0
685,3120001281541,新規,0,2025-10-29,2025-10-29,株式会社フォルモサ・エンタープライズ,,株式会社,大阪府,大阪市淀川区,十八条２丁目１８番１０８号,,27,123,5320001,,,,,,,2025-10-29,1,,,,,フォルモサエンタープライズ,0
687,3120003031102,新規,0,2025-10-29,2025-10-29,合同会社松吉家,,合同会社,大阪府,大阪市城東区,蒲生１丁目８番３２号千寿シークＩＩＩ５Ｇ,00141307,27,118,5360016,,,,,,,2025-10-29,1,,,,,マツヨシヤ,0
693,3120101072709,新規,0,2025-10-29,2025-10-29,株式会社木村屋分割準備会社,,株式会社,大阪府,堺市美原区,平尾２６４８番地４０,,27,147,5870022,,,,,,,2025-10-29,1,,,,,キムラヤブンカツジュンビガイシャ,0
700,3120901051622,新規,0,2025-10-29,2025-10-29,株式会社モリ・オートマシナリー,,株式会社,大阪府,吹田市,円山町３０番３０－１３号,,27,205,5640061,,,,,,,2025-10-29,1,,,,,モリオートマシナリー,0
701,3120901051705,新規,0,2025-10-29,2025-10-29,株式会社Ｂｅｙｏｎｄ　Ｖａｌｕｅ,,株式会社,大阪府,摂津市,正雀３丁目１９番１号３０１,,27,224,5660023,,,,,,,2025-10-29,1,,,,,ビヨンドバリュー,0
702,3120903005915,新規,0,2025-10-29,2025-10-29,ＦＸインフォメーション合同会社,,合同会社,大阪府,高槻市,奈佐原２丁目６番７－３０１号,,27,207,5691041,,,,,,,2025-10-29,1,,,,,エフエックスインフォメーション,0
720,3150003003734,新規,0,2025-10-29,2025-10-29,合同会社ＮＡＲＡ　ＧＲＥＡＴ　ＢＵＤＤＨＥＲＳ,,合同会社,奈良県,奈良市,七条１丁目７－２８,,29,201,6308053,,,,,,,2025-10-29,1,,,,,ナラグレートブッダーズ,0
734,3180001169277,新規,0,2025-10-29,2025-10-29,株式会社Ｋｓワークス,,株式会社,愛知県,一宮市,千秋町小山字高砂２１番地,,23,203,4910814,,,,,,,2025-10-29,1,,,,,ケーエスワークス,0
744,3200001044378,新規,0,2025-10-29,2025-10-29,株式会社ＳＫＭ,,株式会社,岐阜県,不破郡垂井町,宮代２７０６番地,,21,361,5032124,,,,,,,2025-10-29,1,,,,,エスケイエム,0
769,3290801031971,新規,0,2025-10-29,2025-10-29,株式会社ヨリアス,,株式会社,福岡県,北九州市若松区,塩屋１丁目１７番３号,,40,103,8080131,,,,,,,2025-10-29,1,,,,,ヨリアス,0
770,3300001014395,新規,0,2025-10-29,2025-10-29,株式会社リビングアップ,,株式会社,佐賀県,伊万里市,二里町八谷搦１５番５号,,41,205,8480031,,,,,,,2025-10-29,1,,,,,リビングアップ,0
771,3300005007271,新規,0,2025-10-29,2025-10-29,特定非営利活動法人スポーツのちから,,その他の設立登記法人,佐賀県,佐賀市,川副町大字大詫間６４０番地２,,41,201,8402211,,,,,,,2025-10-29,1,,,,,スポーツノチカラ,0
774,3330001033707,新規,0,2025-10-29,2025-10-29,株式会社いろは物産,,株式会社,熊本県,天草市,新和町小宮地１３８４番地１,,43,215,8630101,,,,,,,2025-10-29,1,,,,,イロハブッサン,0
789,3430001095555,新規,0,2025-10-29,2025-10-29,株式会社テクノプラズム,,株式会社,北海道,札幌市中央区,南五条西１５丁目２－３－５０３,,01,101,0640805,,,,,,,2025-10-29,1,,,,,テクノプラズム,0
797,3500001026602,新規,0,2025-10-29,2025-10-29,ＲＮ愛媛株式会社,,株式会社,愛媛県,新居浜市,高木町１０番３８号,,38,205,7920031,,,,,,,2025-10-29,1,,,,,アールエヌエヒメ,0
803,4010001259432,新規,0,2025-10-29,2025-10-29,株式会社ムーブアズワン,,株式会社,東京都,中央区,月島１丁目１０番４号マガザン４,,13,102,1040052,,,,,,,2025-10-29,1,,,,,ムーブアズワン,0
804,4010001259630,新規,0,2025-10-29,2025-10-29,株式会社ミカミ,,株式会社,東京都,中央区,日本橋小網町８－２ＢＩＺＭＡＲＫＳ日本橋茅場町,,13,102,1030016,,,,,,,2025-10-29,1,,,,,ミカミ,0
805,4010001259746,新規,0,2025-10-29,2025-10-29,株式会社ＫＤＮＫ,,株式会社,東京都,千代田区,四番町４番地６パークコート千代田四番町３０８号,,13,101,1020081,,,,,,,2025-10-29,1,,,,,ケーディーエヌケー,0
806,4010001259779,新規,0,2025-10-29,2025-10-29,株式会社メルトワード,,株式会社,東京都,文京区,関口１丁目２９－６松崎ビル１Ｆ,,13,105,1120014,,,,,,,2025-10-29,1,,,,,メルトワード,0
807,4010001259795,新規,0,2025-10-29,2025-10-29,Ｋｉｔａｕｒａ株式会社,,株式会社,東京都,中央区,八丁堀４丁目４番４号梅崎ビル３階,,13,102,1040032,,,,,,,2025-10-29,1,,,,,キタウラ,0
808,4010001259804,新規,0,2025-10-29,2025-10-29,ＮＹＣ株式会社,,株式会社,東京都,千代田区,九段北１丁目１０番３号,,13,101,1020073,,,,,,,2025-10-29,1,,,,,エヌワイシー,0
809,4010001259829,新規,0,2025-10-29,2025-10-29,株式会社ＭＹ１,,株式会社,東京都,千代田区,大手町１丁目９番２号,,13,101,1000004,,,,,,,2025-10-29,1,,,,,エムワイイチ,0
812,4010003049162,新規,0,2025-10-29,2025-10-29,合同会社ＬＬＣ,,合同会社,東京都,中央区,日本橋人形町３丁目１番２号－１Ｆ,,13,102,1030013,,,,,,,2025-10-29,1,,,,,エルエルシー,0
815,4010005040862,新規,0,2025-10-29,2025-10-29,一般社団法人ＬＷ,,その他の設立登記法人,東京都,中央区,新川１丁目１７番１８号,,13,102,1040033,,,,,,,2025-10-29,1,,,,,エルダブリュー,0
821,4010401193982,新規,0,2025-10-29,2025-10-29,株式会社ＮＥＸＴ　ＢＲＩＤＧＥ　ＡＳＩＡ,,株式会社,東京都,港区,麻布台２丁目３番１４号,,13,103,1060041,,,,,,,2025-10-29,1,,,,,,0
822,4010401194080,新規,0,2025-10-29,2025-10-29,ＯＢＩホールディングスジャパン株式会社,,株式会社,東京都,港区,赤坂２丁目２３番１号アークヒルズフロントタワーＲｏＰ１２０５,,13,103,1070052,,,,,,,2025-10-29,1,,,,,オービーアイホールディングスジャパン,0
823,4010401194163,新規,0,2025-10-29,2025-10-29,ディライトワークススポーツマーケティング株式会社,,株式会社,東京都,港区,六本木６丁目１０番１号,,13,103,1060032,,,,,,,2025-10-29,1,,,,,ディライトワークススポーツマーケティング,0
824,4010401194171,新規,0,2025-10-29,2025-10-29,株式会社ＭＩＧ,,株式会社,東京都,港区,芝５丁目２９番２２号,,13,103,1080014,,,,,,,2025-10-29,1,,,,,エムアイジー,0
825,4010401194196,新規,0,2025-10-29,2025-10-29,Ｒ１株式会社,,株式会社,東京都,港区,虎ノ門２丁目６番１号虎ノ門ヒルズステーションタワー,,13,103,1050001,,,,,,,2025-10-29,1,,,,,アールワン,0
826,4010401194205,新規,0,2025-10-29,2025-10-29,株式会社ｖｖｘｏ,,株式会社,東京都,港区,六本木３丁目１６番１２号六本木ＫＳビル５Ｆ,,13,103,1060032,,,,,,,2025-10-29,1,,,,,ヴイヴイエックスオー,0
827,4010403036396,新規,0,2025-10-29,2025-10-29,Ｓｈｏｅｂｉｌｌ合同会社,,合同会社,東京都,港区,虎ノ門２丁目６番１号,,13,103,1050001,,,,,,,2025-10-29,1,,,,,シュービル,0
828,4010403036438,新規,0,2025-10-29,2025-10-29,ヨウネンキ合同会社,,合同会社,東京都,港区,北青山１丁目３‐３三橋ビル３階,,13,103,1070061,,,,,,,2025-10-29,1,,,,,ヨウネンキ,0
829,4010405024928,新規,0,2025-10-29,2025-10-29,一般社団法人日本マイクロクレデンシャル機構,,その他の設立登記法人,東京都,港区,三田２丁目１４番５－１００８号室,,13,103,1080073,,,,,,,2025-10-29,1,,,,,ニホンマイクロクレデンシャルキコウ,0
834,4010601068209,新規,0,2025-10-29,2025-10-29,Ｐｉｕｔｙ　Ｔｅｃｈｎｏｌｏｇｙ株式会社,,株式会社,東京都,墨田区,錦糸２丁目４番６号ＡＬビル,,13,107,1300013,,,,,,,2025-10-29,1,,,,,ピウティテクノロジー,0
835,4010603011892,新規,0,2025-10-29,2025-10-29,合同会社ＨＩ,,合同会社,東京都,江東区,大島３丁目１２－１９レインパレス西大島１０５,,13,108,1360072,,,,,,,2025-10-29,1,,,,,エイチアイ,0
839,4010903010339,新規,0,2025-10-29,2025-10-29,合同会社ジェイディーエムトレーディング,,合同会社,東京都,世田谷区,野沢３丁目１番８号フルハウス学芸大学２０３,,13,112,1540003,,,,,,,2025-10-29,1,,,,,ジェイディーエムトレーディング,0
848,4011003022852,新規,0,2025-10-29,2025-10-29,合同会社Ｚｅｋｋｅｉ　Ｍｅｔｒｏｐｏｌｉｓ,,合同会社,東京都,渋谷区,神宮前６丁目３１番１５号７Ｅ,,13,113,1500001,,,,,,,2025-10-29,1,,,,,ゼッケイメトロポリス,0
854,4011101113743,新規,0,2025-10-29,2025-10-29,株式会社ウェルネスソリューションズ,,株式会社,東京都,新宿区,新宿５丁目１５番６号新宿光陽ビル９Ｆ,,13,104,1600022,,,,,,,2025-10-29,1,,,,,ウェルネスソリューションズ,0
857,4011103016580,新規,0,2025-10-29,2025-10-29,合同会社ＹＯＫＩ　ＭＡＨＲＵ,,合同会社,東京都,新宿区,西新宿３丁目３番１３号西新宿水間ビル２Ｆ,,13,104,1600023,,,,,,,2025-10-29,1,,,,,ヨキマル,0
858,4011103016622,新規,0,2025-10-29,2025-10-29,合同会社凰晴会,,合同会社,東京都,新宿区,西新宿１丁目１９番６号山手新宿ビル８階,,13,104,1600023,,,,,,,2025-10-29,1,,,,,コウセイカイ,0
866,4011701028894,新規,0,2025-10-29,2025-10-29,株式会社フラワーハート,,株式会社,東京都,江戸川区,船堀３丁目７番５－１１０３号,,13,123,1340091,,,,,,,2025-10-29,1,,,,,フラワーハート,0
870,4012303002239,新規,0,2025-10-29,2025-10-29,合同会社ＣＲＡＦＴ,,合同会社,東京都,町田市,本町田２７８７番地８,,13,209,1940032,,,,,,,2025-10-29,1,,,,,クラフト,0
874,4012403007435,新規,0,2025-10-29,2025-10-29,合同会社Ｙ＆Ｔ,,合同会社,東京都,狛江市,中和泉１丁目２１番１０号サンガーデン１０１,,13,219,2010012,,,,,,,2025-10-29,1,,,,,ワイアアンドティー,0
878,4013301055195,新規,0,2025-10-29,2025-10-29,株式会社ネオリス,,株式会社,東京都,豊島区,池袋２丁目１６－１２魚又ビル１Ｆ,,13,116,1710014,,,,,,,2025-10-29,1,,,,,ネオリス,0
879,4013301055204,新規,0,2025-10-29,2025-10-29,松澤都市不動産株式会社,,株式会社,東京都,豊島区,要町３丁目７番１２号リーフィア千川４０１,,13,116,1710043,,,,,,,2025-10-29,1,,,,,マツザワトシフドウサン,0
883,4013303007938,新規,0,2025-10-29,2025-10-29,合同会社ｈｉｎａｒｕ,,合同会社,東京都,豊島区,南池袋１丁目９番１８号,,13,116,1710022,,,,,,,2025-10-29,1,,,,,ヒナル,0
893,4020001165480,新規,0,2025-10-29,2025-10-29,株式会社キラリン,,株式会社,神奈川県,横浜市西区,北幸２丁目１０番４８号むつみビル３階,,14,103,2200004,,,,,,,2025-10-29,1,,,,,キラリン,0
894,4020001165555,新規,0,2025-10-29,2025-10-29,株式会社ＬＵＸ,,株式会社,神奈川県,横浜市西区,北幸１丁目１１番１号水信ビル７階,,14,103,2200004,,,,,,,2025-10-29,1,,,,,ルクス,0
895,4020001165563,新規,0,2025-10-29,2025-10-29,株式会社ｍｅＦ,,株式会社,神奈川県,横浜市中区,山下町２７６番地５－２０４号,,14,104,2310023,,,,,,,2025-10-29,1,,,,,ミーエフ,0
899,4020003029626,新規,0,2025-10-29,2025-10-29,合同会社ＡＧＲＩＥＮＣＥ,,合同会社,神奈川県,川崎市幸区,小向西町４丁目１０２－１グランイーグル鹿島田２０２,,14,132,2120004,,,,,,,2025-10-29,1,,,,,アグリエンス,0
900,4020003029691,新規,0,2025-10-29,2025-10-29,合同会社ＩＣＥ,,合同会社,神奈川県,横浜市金沢区,六浦３丁目２６番２２号,,14,108,2360031,,,,,,,2025-10-29,1,,,,,アイシーイー,0
901,4020003029700,新規,0,2025-10-29,2025-10-29,合同会社Ｌｉｎｋ,,合同会社,神奈川県,川崎市高津区,諏訪３丁目６番５３号,,14,134,2130004,,,,,,,2025-10-29,1,,,,,リンク,0
907,4021003016696,新規,0,2025-10-29,2025-10-29,合同会社意識デザイン,,合同会社,神奈川県,鎌倉市,材木座３丁目２番２３号,,14,204,2480013,,,,,,,2025-10-29,1,,,,,イシキデザイン,0
908,4021003016746,新規,0,2025-10-29,2025-10-29,合同会社Ｇａｚｅｔ　Ｊａｐａｎ　Ｔｒａｄｉｎｇ,,合同会社,神奈川県,相模原市中央区,上溝４丁目９番３５－４号,,14,152,2520243,,,,,,,2025-10-29,1,,,,,ガゼットジャパントレーディング,0
913,4030001169282,新規,0,2025-10-29,2025-10-29,株式会社希興業,,株式会社,埼玉県,富士見市,山室２丁目１８番８号,,11,235,3540022,,,,,,,2025-10-29,1,,,,,ノゾミコウギョウ,0
914,4030001169415,新規,0,2025-10-29,2025-10-29,株式会社エステック,,株式会社,埼玉県,越谷市,赤山本町３番地２４－１２０１号,,11,222,3430808,,,,,,,2025-10-29,1,,,,,エステック,0
915,4030001169423,新規,0,2025-10-29,2025-10-29,株式会社田宝,,株式会社,埼玉県,蕨市,北町３丁目２番１０号,,11,223,3350001,,,,,,,2025-10-29,1,,,,,タホウ,0
916,4030001169456,新規,0,2025-10-29,2025-10-29,東栄創産グループ株式会社,,株式会社,埼玉県,越谷市,レイクタウン８丁目８番地１２５号,,11,222,3430828,,,,,,,2025-10-29,1,,,,,トウエイソウサングループ,0
924,4030003027975,新規,0,2025-10-29,2025-10-29,合同会社ｃｏｏｒｄｙ,,合同会社,埼玉県,さいたま市南区,曲本１丁目１１番４ー３号,,11,108,3360033,,,,,,,2025-10-29,1,,,,,コーディ,0
931,4040001141174,新規,0,2025-10-29,2025-10-29,ミコトライズ株式会社,,株式会社,千葉県,柏市,大津ケ丘１丁目２－１０,,12,217,2770921,,,,,,,2025-10-29,1,,,,,ミコトライズ,0
936,4040003028840,新規,0,2025-10-29,2025-10-29,合同会社ＡＬｋａｈｋｉ,,合同会社,千葉県,船橋市,西船３丁目４番１１－１号,,12,204,2730031,,,,,,,2025-10-29,1,,,,,アルカーキ,0
937,4040003028865,新規,0,2025-10-29,2025-10-29,合同会社Ｈａｒｕｋａ,,合同会社,千葉県,市川市,二俣１丁目１０番２７号ガレージハウスＳ６３－Ｂ号,,12,203,2720001,,,,,,,2025-10-29,1,,,,,ハルカ,0
938,4050001057493,新規,0,2025-10-29,2025-10-29,ＩＢＣ　Ｉｎｔｅｒｎａｔｉｏｎａｌ株式会社,,株式会社,茨城県,土浦市,摩利山新田３２１番地２鶴正コーポ２０２,,08,203,3000838,,,,,,,2025-10-29,1,,,,,アイビーシーインターナショナル,0
939,4050001057502,新規,0,2025-10-29,2025-10-29,株式会社ＯＨＵＲＯ,,株式会社,茨城県,つくば市,谷田部１４６６番地,,08,220,3050861,,,,,,,2025-10-29,1,,,,,オフロ,0
941,4050005013724,新規,0,2025-10-29,2025-10-29,一般社団法人フジテリアパーク,,その他の設立登記法人,茨城県,笠間市,鯉淵６２６１番地６９,,08,216,3091703,,,,,,,2025-10-29,1,,,,,フジテリアパーク,0
951,4090001019572,新規,0,2025-10-29,2025-10-29,株式会社望月自動車,,株式会社,山梨県,南巨摩郡富士川町,小林７８７番地,,19,368,4000504,,,,,,,2025-10-29,1,,,,,モチヅキジドウシャ,0
952,4090003002923,新規,0,2025-10-29,2025-10-29,ＫＮＯＴ合同会社,,合同会社,山梨県,甲州市,塩山竹森１８９４－１,,19,213,4040051,,,,,,,2025-10-29,1,,,,,ノット,0
954,4100001039081,新規,0,2025-10-29,2025-10-29,株式会社ＳＳＥ,,株式会社,長野県,長野市,大字富竹９６５番６,,20,201,3810006,,,,,,,2025-10-29,1,,,,,エスエスイー,0
967,4120001281268,新規,0,2025-10-29,2025-10-29,旺科株式会社,,株式会社,大阪府,大阪市住吉区,遠里小野１丁目４－２６カンサイドリームハイ１０７号室,,27,120,5580032,,,,,,,2025-10-29,1,,,,,オウカ,0
968,4120001281383,新規,0,2025-10-29,2025-10-29,株式会社Ｃｒｏｐ,,株式会社,大阪府,大阪市北区,梅田１丁目１－３大阪駅前第３ビル２９階１－１－１号室,,27,127,5300001,,,,,,,2025-10-29,1,,,,,クロップ,0
969,4120001281433,新規,0,2025-10-29,2025-10-29,株式会社ＦＯＬＬＯＷ　ＴＲＵＳＴ,,株式会社,大阪府,大阪市淀川区,十三本町２丁目１番２２号,,27,123,5320024,,,,,,,2025-10-29,1,,,,,フォロートラスト,0
970,4120001281565,新規,0,2025-10-29,2025-10-29,株式会社バルトフードサービス,,株式会社,大阪府,交野市,私部西３丁目１６番４号,,27,230,5760041,,,,,,,2025-10-29,1,,,,,バルトフードサービス,0
973,4120003031118,新規,0,2025-10-29,2025-10-29,合同会社Ｎａｍｂａ　Ｆｏｏｄ　Ｔｏｕｒｓ,,合同会社,大阪府,大阪市阿倍野区,阪南町１丁目５２番１１－３０１号,,27,119,5450021,,,,,,,2025-10-29,1,,,,,ナンバフードツアーズ,0
983,4130001080883,新規,0,2025-10-29,2025-10-29,Ｙ　ｋｎｏｔ株式会社,,株式会社,京都府,京田辺市,草内一ノ坪三丁目１番エスト京田辺２１０５号室,,26,211,6100311,,,,,,,2025-10-29,1,,,,,ワイノット,0
984,4130001080900,新規,0,2025-10-29,2025-10-29,株式会社ブレイブライト,,株式会社,京都府,京都市北区,西賀茂蟹ケ坂町５番地４,,26,101,6038805,,,,,,,2025-10-29,1,,,,,ブレイブライト,0
986,4140001140579,新規,0,2025-10-29,2025-10-29,株式会社ＡｔｓｕｊｉＴａｂｌｅ,,株式会社,兵庫県,神戸市灘区,千旦通３丁目７－１０田中ビル１０２,,28,102,6570056,,,,,,,2025-10-29,1,,,,,アツジテーブル,0
992,4160001027171,新規,0,2025-10-29,2025-10-29,ＲｉＰｉ株式会社,,株式会社,滋賀県,東近江市,聖徳町４番３５－２号,,25,213,5270038,,,,,,,2025-10-29,1,,,,,リピ,0
994,4180001169301,新規,0,2025-10-29,2025-10-29,株式会社Ｓｈｉｎｅ．ｂ,,株式会社,愛知県,一宮市,藤塚町３丁目８番地МＡＳＴＴОＷＮ藤塚ＩＩＳ１０３号,00141302,23,203,4910027,,,,,,,2025-10-29,1,,,,,シャインビー,0
1001,4180003011238,新規,0,2025-10-29,2025-10-29,合資会社伸明精工,,合資会社,愛知県,犬山市,字本町１７２番地,,23,215,4840000,,,,,,,2025-10-29,1,,,,,シンメイセイコウ,0
1014,4250003003839,新規,0,2025-10-29,2025-10-29,海産物水産合同会社,,合同会社,山口県,長門市,油谷向津具下２１０２番地１,,35,211,7594623,,,,,,,2025-10-29,1,,,,,カイサンブツスイサン,0
1016,4260003005396,新規,0,2025-10-29,2025-10-29,合同会社ＴＥＮ,,合同会社,岡山県,浅口市,金光町占見７００番地８,,33,216,7190105,,,,,,,2025-10-29,1,,,,,テン,0
1017,4280001009538,新規,0,2025-10-29,2025-10-29,株式会社あま・き,,株式会社,島根県,鹿足郡吉賀町,大野原７０番地１,,32,505,6995306,,,,,,,2025-10-29,1,,,,,アマキ,0
1027,4320001021406,新規,0,2025-10-29,2025-10-29,アクトソーイック株式会社,,株式会社,大分県,中津市,大字福島１９０６番地２,,44,203,8790112,,,,,,,2025-10-29,1,,,,,アクトソーイック,0
1031,4340003005000,新規,0,2025-10-29,2025-10-29,奄美電設合同会社,,合同会社,鹿児島県,奄美市,名瀬大字小宿１６０２番地（２０２号）,,46,222,8940046,,,,,,,2025-10-29,1,,,,,アマミデンセツ,0
1032,4340005009916,新規,0,2025-10-29,2025-10-29,特定非営利活動法人鹿児島大旗隊,,その他の設立登記法人,鹿児島県,鹿児島市,鴨池２丁目２５番１号,,46,201,8900063,,,,,,,2025-10-29,1,,,,,カゴシマオオハタタイ,0
1035,4360001035971,新規,0,2025-10-29,2025-10-29,株式会社マーケティング職人,,株式会社,沖縄県,那覇市,久茂地３丁目２６－３２ＹＳＣビル２０２,,47,201,9000015,,,,,,,2025-10-29,1,,,,,マーケティングショクニン,0
1036,4360003015336,新規,0,2025-10-29,2025-10-29,合同会社Ｎ．ｅｕｆ．,,合同会社,沖縄県,国頭郡金武町,字金武６２３番地の３,,47,314,9041201,,,,,,,2025-10-29,1,,,,,ヌフ,0
1049,4430003018281,新規,0,2025-10-29,2025-10-29,合同会社笑吉,,合同会社,北海道,札幌市豊平区,福住三条７丁目１１番５号,,01,105,0620043,,,,,,,2025-10-29,1,,,,,ショウキチ,0
1050,4430005015343,新規,0,2025-10-29,2025-10-29,一般社団法人メディカルアライアンス江別,,その他の設立登記法人,北海道,江別市,高砂町６番地,,01,217,0670074,,,,,,,2025-10-29,1,,,,,メディカルアライアンスエベツ,0
1061,5010001259778,新規,0,2025-10-29,2025-10-29,株式会社ＡＲＣＨＥＳ,,株式会社,東京都,千代田区,神田須田町１丁目７番８号ＶＯＲＴ秋葉原ＩＶ２Ｆ,00141315,13,101,1010041,,,,,,,2025-10-29,1,,,,,アーチズ,0
1062,5010001259786,新規,0,2025-10-29,2025-10-29,Ｊａｐａｎ　Ａｎｉｍｅ　Ｇａｓｔｒｏｎｏｍｙ　Ａｓｓｏｃｉａｔｉｏｎ株式会社,,株式会社,東京都,中央区,京橋３丁目１２番６号ニュー京橋ビル５階,,13,102,1040031,,,,,,,2025-10-29,1,,,,,ジャパンアニメガストロノミーアソシエーション,0
1063,5010001259794,新規,0,2025-10-29,2025-10-29,株式会社Ｒｅｇｉｓｔａ,,株式会社,東京都,文京区,湯島３丁目１６番１３－７０３号,,13,105,1130034,,,,,,,2025-10-29,1,,,,,レジスタ,0
1066,5010003049137,新規,0,2025-10-29,2025-10-29,バックオフィス総研コンサルティング合同会社,,合同会社,東京都,千代田区,神田和泉町１番地６－１６ヤマトビル４０５,,13,101,1010024,,,,,,,2025-10-29,1,,,,,バックオフィスソウケンコンサルティング,0
1067,5010003049178,新規,0,2025-10-29,2025-10-29,合同会社いちもんじ,,合同会社,東京都,千代田区,神田神保町２丁目１０番地３１ＩＷビル１Ｆ,,13,101,1010051,,,,,,,2025-10-29,1,,,,,イチモンジ,0
1068,5010005040861,新規,0,2025-10-29,2025-10-29,一般社団法人Ｔｏｔｓｕ　Ｃａｐｉｔａｌ,,その他の設立登記法人,東京都,中央区,新川１丁目１７番１８号,,13,102,1040033,,,,,,,2025-10-29,1,,,,,トウツウキャピタル,0
1080,5010401194022,新規,0,2025-10-29,2025-10-29,株式会社フィンテグラホールディングス,,株式会社,東京都,港区,六本木５丁目１３番６－８０３号,,13,103,1060032,,,,,,,2025-10-29,1,,,,,フィンテグラホールディングス,0
1081,5010401194146,新規,0,2025-10-29,2025-10-29,株式会社エイティーン,,株式会社,東京都,港区,新橋４丁目１８番４号十合ビル２Ｆ,,13,103,1050004,,,,,,,2025-10-29,1,,,,,エイティーン,0
1082,5010403036263,新規,0,2025-10-29,2025-10-29,アトリエムーン合同会社,,合同会社,東京都,港区,南青山４丁目２１番２９号,,13,103,1070062,,,,,,,2025-10-29,1,,,,,アトリエムーン,0
1083,5010403036354,新規,0,2025-10-29,2025-10-29,アフターファイブ東京合同会社,,合同会社,東京都,港区,北青山１丁目３番１号アールキューブ青山３階,,13,103,1070061,,,,,,,2025-10-29,1,,,,,アフターファイブトウキョウ,0
1085,5010405024943,新規,0,2025-10-29,2025-10-29,日本橋１５一般社団法人,,その他の設立登記法人,東京都,港区,西新橋１丁目２番９号メンターキャピタル税理士法人内,,13,103,1050003,,,,,,,2025-10-29,1,,,,,ニホンバシフィフティーン,0
1087,5010501054935,新規,0,2025-10-29,2025-10-29,株式会社Ｋｅｉｍ,,株式会社,東京都,台東区,西浅草３丁目２２番３－６０７号,,13,106,1110035,,,,,,,2025-10-29,1,,,,,ケイム,0
1091,5010603011891,新規,0,2025-10-29,2025-10-29,ファースト・ステップ資産管理合同会社,,合同会社,東京都,江東区,越中島３丁目２番７号,,13,108,1350044,,,,,,,2025-10-29,1,,,,,ファーストステップシサンカンリ,0
1101,5011001173184,新規,0,2025-10-29,2025-10-29,株式会社Ｍジャンボ振興法人,,株式会社,東京都,渋谷区,桜丘町２６番１号セルリアンタワー１５階,,13,113,1500031,,,,,,,2025-10-29,1,,,,,エムジャンボシンコウホウジン,0
1106,5011101113692,新規,0,2025-10-29,2025-10-29,株式会社ＧＲＡＣＥ,,株式会社,東京都,新宿区,大久保２丁目１－８プラザ新大樹ビル本棟３０１号室,,13,104,1690072,,,,,,,2025-10-29,1,,,,,グレース,0
1107,5011103016613,新規,0,2025-10-29,2025-10-29,合同会社宮城工務店,,合同会社,東京都,新宿区,住吉町８番１６号ビラ中島４０２,,13,104,1620065,,,,,,,2025-10-29,1,,,,,ミヤギコウムテン,0
1111,5011401027527,新規,0,2025-10-29,2025-10-29,Ｂｏｄｈｉ　Ｗｏｒｋｓ株式会社,,株式会社,東京都,板橋区,前野町３丁目３９番１２号,,13,119,1740063,,,,,,,2025-10-29,1,,,,,ボーディワークス,0
1113,5011703004439,新規,0,2025-10-29,2025-10-29,チャールズウェイン合同会社,,合同会社,東京都,江戸川区,上篠崎４丁目２７番１１号,,13,123,1330054,,,,,,,2025-10-29,1,,,,,チャールズウェイン,0
1119,5012401043761,新規,0,2025-10-29,2025-10-29,株式会社Ｂｒｅｓｓｉｎｇ　Ｔｉｍｅ,,株式会社,東京都,調布市,多摩川５丁目４－２－２Ｆ,,13,208,1820025,,,,,,,2025-10-29,1,,,,,ブレッシングタイム,0
1120,5013101009846,新規,0,2025-10-29,2025-10-29,株式会社ＢＥＲＡ　ＣＬＥＡＮ,,株式会社,東京都,西多摩郡瑞穂町,大字石畑２０５－１,,13,303,1901211,,,,,,,2025-10-29,1,,,,,ベラクリーン,0
1123,5020001165397,新規,0,2025-10-29,2025-10-29,ナオンソフト株式会社,,株式会社,神奈川県,横浜市西区,みなとみらい２丁目２－１横浜ランドマークタワー２０階,,14,103,2200012,,,,,,,2025-10-29,1,,,,,ナオンソフト,0
1124,5020001165570,新規,0,2025-10-29,2025-10-29,ＡＵＲＩＯＮ株式会社,,株式会社,神奈川県,横浜市中区,伊勢佐木町２丁目６１番地オリエンタル共同ビル３Ｆ,,14,104,2310045,,,,,,,2025-10-29,1,,,,,オーリオン,0
1128,5020003029591,新規,0,2025-10-29,2025-10-29,Ｇｅａｒ　ａｎｄ　Ｒｏａｄ合同会社,,合同会社,神奈川県,横浜市神奈川区,金港町５－１４クアドリフォリオ８階,,14,102,2210056,,,,,,,2025-10-29,1,,,,,ギヤアンドロード,0
1129,5020003029690,新規,0,2025-10-29,2025-10-29,合同会社ＦＡＺＺ,,合同会社,神奈川県,横浜市西区,伊勢町１丁目７５－１,,14,103,2200045,,,,,,,2025-10-29,1,,,,,ファズ,0
1136,5021003016761,新規,0,2025-10-29,2025-10-29,合同会社人事・総務,,合同会社,神奈川県,横須賀市,根岸町４丁目３９番１号,,14,201,2390807,,,,,,,2025-10-29,1,,,,,ジンジソウム,0
1151,5030003027974,新規,0,2025-10-29,2025-10-29,合同会社メロン,,合同会社,埼玉県,熊谷市,筑波２丁目４９五大ビル４階,,11,202,3600037,,,,,,,2025-10-29,1,,,,,メロン,0
1152,5030003027982,新規,0,2025-10-29,2025-10-29,ジョブディベロッパー合同会社,,合同会社,埼玉県,新座市,畑中１丁目１４番２３号２階,,11,230,3520012,,,,,,,2025-10-29,1,,,,,ジョブディベロッパー,0
1156,5040001141165,新規,0,2025-10-29,2025-10-29,Ｍｉｈａｒｕ株式会社,,株式会社,千葉県,市原市,郡本１丁目２７１番地,,12,219,2900013,,,,,,,2025-10-29,1,,,,,ミハル,0
1157,5040001141173,新規,0,2025-10-29,2025-10-29,株式会社尭康,,株式会社,千葉県,木更津市,ほたる野３丁目２６番地３ドルフ１０３,,12,206,2920038,,,,,,,2025-10-29,1,,,,,タカヤス,0
1158,5040001141207,新規,0,2025-10-29,2025-10-29,株式会社サニーラボ,,株式会社,千葉県,浦安市,入船４丁目４０番５号,,12,227,2790012,,,,,,,2025-10-29,1,,,,,サニーラボ,0
1161,5040003028872,新規,0,2025-10-29,2025-10-29,４８２エナジーファイブ合同会社,,合同会社,千葉県,柏市,若柴１７８番地４柏の葉キャンパス１４８街区２ＫＯＩＬ５,,12,217,2770871,,,,,,,2025-10-29,1,,,,,シバフエナジーファイブ,0
1162,5040003028889,新規,0,2025-10-29,2025-10-29,ベルエステート合同会社,,合同会社,千葉県,浦安市,高洲６丁目１番２号－潮音の街８０３号室,,12,227,2790023,,,,,,,2025-10-29,1,,,,,ベルエステート,0
1163,5040003028897,新規,0,2025-10-29,2025-10-29,合同会社Ｒａｃｃｏ,,合同会社,千葉県,市川市,市川南１丁目７番１４号,,12,203,2720033,,,,,,,2025-10-29,1,,,,,ラッコ,0
1164,5040005022923,新規,0,2025-10-29,2025-10-29,医療法人社団和友会,,その他の設立登記法人,千葉県,四街道市,四街道１５２１番地１５,,12,228,2840005,,,,,,,2025-10-29,1,,,,,ワユウカイ,0
1165,5050001057518,新規,0,2025-10-29,2025-10-29,ヒロ・カンパニー株式会社,,株式会社,茨城県,水戸市,千波町１２９３番地の３,,08,201,3100851,,,,,,,2025-10-29,1,,,,,ヒロカンパニー,0
1167,5050003009715,新規,0,2025-10-29,2025-10-29,合同会社ＤＥＷＡＮ　ＭＵＳＩＣＡＬ,,合同会社,茨城県,龍ケ崎市,愛戸町５４番地２ロイヤル・コート愛戸Ｂ第１０５号室,,08,208,3010838,,,,,,,2025-10-29,1,,,,,デワンミュージカル,0
1169,5050005013723,新規,0,2025-10-29,2025-10-29,一般社団法人Ｄ＆Ａ,,その他の設立登記法人,茨城県,水戸市,見和２丁目２４２番地の１,,08,201,3100911,,,,,,,2025-10-29,1,,,,,ディーアンドエー,0
1172,5060003005820,新規,0,2025-10-29,2025-10-29,ＳＡＱＳＩＡ合同会社,,合同会社,栃木県,那須塩原市,松浦町１２１－４６１,,09,213,3250074,,,,,,,2025-10-29,1,,,,,サクシア,0
1190,5090001019588,新規,0,2025-10-29,2025-10-29,株式会社Ｇｏｒｄｏｎ,,株式会社,山梨県,甲府市,下飯田２丁目２番６号マノアールＡ・Ａ２－１,,19,201,4000064,,,,,,,2025-10-29,1,,,,,,0
1214,5120001281259,新規,0,2025-10-29,2025-10-29,ＭＫグループ株式会社,,株式会社,大阪府,大阪市中央区,本町４丁目８番１号ＳＤ本町ビル７０２号,,27,128,5410053,,,,,,,2025-10-29,1,,,,,エムケイグループ,0
1215,5120001281382,新規,0,2025-10-29,2025-10-29,株式会社ＳＥＯＲＩＴＳＵ　ｈｉｍｍｅｌ,,株式会社,大阪府,大阪市北区,天神橋３丁目１－１６,,27,127,5300041,,,,,,,2025-10-29,1,,,,,セオリツヒメル,0
1216,5120001281498,新規,0,2025-10-29,2025-10-29,株式会社ＳＧ　Ｗｏｒｋｓ,,株式会社,大阪府,大阪市中央区,松屋町４番４号陸田ビル３０３,,27,128,5420067,,,,,,,2025-10-29,1,,,,,エスジーワークス,0
1226,5120003030977,新規,0,2025-10-29,2025-10-29,銘安合同会社,,合同会社,大阪府,大阪市東住吉区,鷹合４丁目１３－２１－２０１室,,27,121,5460014,,,,,,,2025-10-29,1,,,,,メイアン,0
1227,5120003031067,新規,0,2025-10-29,2025-10-29,合同会社ＫＩＮＪＩＴＯ,,合同会社,大阪府,大阪市北区,梅田１丁目１－３大阪駅前第３ビル２９階１－１－１号室,,27,127,5300001,,,,,,,2025-10-29,1,,,,,キンジトウ,0
1228,5120003031091,新規,0,2025-10-29,2025-10-29,合同会社ＦＥＯＨ,,合同会社,大阪府,大阪市北区,梅田１丁目２番２号大阪駅前ビル１２－１２,,27,127,5300001,,,,,,,2025-10-29,1,,,,,フェオ,0
1234,5120901051694,新規,0,2025-10-29,2025-10-29,株式会社三栄自動車,,株式会社,大阪府,豊中市,走井２丁目８番４号,,27,203,5610891,,,,,,,2025-10-29,1,,,,,サンエイジドウシャ,0
1236,5120903005913,新規,0,2025-10-29,2025-10-29,合同会社ＦＡ,,合同会社,大阪府,吹田市,江坂町１丁目２０番地８号グリーナリー江坂公園５０２号室,,27,205,5640063,,,,,,,2025-10-29,1,,,,,エフエー,0
1242,5130001080908,新規,0,2025-10-29,2025-10-29,株式会社とび園,,株式会社,京都府,宇治市,宇治妙楽１７５番地１,,26,204,6110021,,,,,,,2025-10-29,1,,,,,トビエン,0
1247,5140001140553,新規,0,2025-10-29,2025-10-29,Ｓｕｓｈｉ　Ａｉ株式会社,,株式会社,兵庫県,芦屋市,東芦屋町３番６号２０９,00141298,28,206,6590095,,,,,,,2025-10-29,1,,,,,スシエーアイ,0
1249,5140003022782,新規,0,2025-10-29,2025-10-29,セイロン人財合同会社,,合同会社,兵庫県,神戸市長田区,若松町２丁目１３番地２,,28,106,6530038,,,,,,,2025-10-29,1,,,,,セイロンジンザイ,0
1250,5140003022790,新規,0,2025-10-29,2025-10-29,合同会社ＨＳ,,合同会社,兵庫県,西宮市,高木東町２３番１１号藤井ビル１階,,28,204,6638033,,,,,,,2025-10-29,1,,,,,エイチエス,0
1266,5180001169317,新規,0,2025-10-29,2025-10-29,株式会社八咫烏舎,,株式会社,愛知県,名古屋市中区,大須２丁目３番５号,,23,106,4600011,,,,,,,2025-10-29,1,,,,,ヤタガラスシャ,0
1270,5190001032639,新規,0,2025-10-29,2025-10-29,三和コンサルティング株式会社,,株式会社,三重県,南牟婁郡紀宝町,鵜殿１９７２番地の２,,24,562,5195701,,,,,,,2025-10-29,1,,,,,サンワコンサルティング,0
1275,5200001044376,新規,0,2025-10-29,2025-10-29,株式会社ＥＣＯＳ,,株式会社,岐阜県,岐阜市,加納上本町４丁目２６番地大忠ビル２Ａ,,21,201,5008451,,,,,,,2025-10-29,1,,,,,エコス,0
1276,5200003007083,新規,0,2025-10-29,2025-10-29,マザヤ合同会社,,合同会社,岐阜県,揖斐郡揖斐川町,永井上３６７番地９,,21,401,5010600,,,,,,,2025-10-29,1,,,,,マザヤ,0
1287,5240005016005,新規,0,2025-10-29,2025-10-29,一般社団法人イクコ記念社団,,その他の設立登記法人,広島県,広島市中区,上幟町５番１７－３０１号,,34,101,7300014,,,,,,,2025-10-29,1,,,,,イクコキネンシャダン,0
1292,5250001021404,新規,0,2025-10-29,2025-10-29,株式会社シン・キャピタル,,株式会社,山口県,下関市,山の田中央町１－６,,35,201,7510837,,,,,,,2025-10-29,1,,,,,シンキャピタル,0
1297,5290003017561,新規,0,2025-10-29,2025-10-29,合同会社ＭＯＣ,,合同会社,福岡県,久留米市,合川町１９９４番地２,,40,203,8390861,,,,,,,2025-10-29,1,,,,,エムオーシー,0
1298,5290801031978,新規,0,2025-10-29,2025-10-29,株式会社ゴーイージー,,株式会社,福岡県,北九州市小倉北区,浅野２丁目１７番２０－１９０２号,,40,106,8020001,,,,,,,2025-10-29,1,,,,,ゴーイージー,0
1302,5330001033705,新規,0,2025-10-29,2025-10-29,株式会社じぶんメディア,,株式会社,熊本県,熊本市中央区,辛島町６番２号ペアレントビル２０１,,43,101,8600804,,,,,,,2025-10-29,1,,,,,ジブンメディア,0
1319,5430001095553,新規,0,2025-10-29,2025-10-29,株式会社シャケトロたろう,,株式会社,北海道,札幌市中央区,南七条西２４丁目２番１６－１０２号,,01,101,0640807,,,,,,,2025-10-29,1,,,,,シャケトロタロウ,0
1321,5430003018280,新規,0,2025-10-29,2025-10-29,Ｓｉｌｌｙ　ｂｕｔ　Ｈｏｎｅｓｔ合同会社,,合同会社,北海道,札幌市中央区,北十二条西１６丁目１番２６―５０３号,,01,101,0600012,,,,,,,2025-10-29,1,,,,,シリーバットオネスト,0
1323,5460103001753,新規,0,2025-10-29,2025-10-29,合同会社エミナベース,,合同会社,北海道,帯広市,東十条南２丁目１番地３７－２－Ｂ号,,01,207,0800810,,,,,,,2025-10-29,1,,,,,エミナベース,0
1326,5490001011199,新規,0,2025-10-29,2025-10-29,株式会社寿ぐ,,株式会社,高知県,吾川郡仁淀川町,長屋１０番地,,39,387,7811524,,,,,,,2025-10-29,1,,,,,コトホグ,0
1330,6010001259744,新規,0,2025-10-29,2025-10-29,株式会社Ａｔｒａｍｅｎｔｕｍ,,株式会社,東京都,中央区,新川２丁目２１－１５－６０２,,13,102,1040033,,,,,,,2025-10-29,1,,,,,アトラメンタム,0
1331,6010001259777,新規,0,2025-10-29,2025-10-29,株式会社ヘリオス,,株式会社,東京都,中央区,日本橋室町２丁目３番１号,,13,102,1030022,,,,,,,2025-10-29,1,,,,,ヘリオス,0
1332,6010001259785,新規,0,2025-10-29,2025-10-29,Ｍｅｄｉ　Ｏｒｉｎａｓ株式会社,,株式会社,東京都,千代田区,丸の内１丁目１１番１号パシフィックセンチュリープレイス丸の内１３階,,13,101,1000005,,,,,,,2025-10-29,1,,,,,メディオリナス,0
1333,6010001259793,新規,0,2025-10-29,2025-10-29,Ｂｏｃｉａｎ株式会社,,株式会社,東京都,中央区,日本橋室町１丁目１１番１２号日本橋水野ビル７Ｆ,,13,102,1030022,,,,,,,2025-10-29,1,,,,,ボチャン,0
1338,6010003049185,新規,0,2025-10-29,2025-10-29,徳輝合同会社,,合同会社,東京都,文京区,白山１丁目６番４－Ａ１６,,13,105,1130001,,,,,,,2025-10-29,1,,,,,トッキ,0
1339,6010005040860,新規,0,2025-10-29,2025-10-29,一般社団法人Ｔｏｔｓｕ　Ｂｉｚ　Ａｘｉｓ,,その他の設立登記法人,東京都,中央区,新川１丁目１７番１８号,,13,102,1040033,,,,,,,2025-10-29,1,,,,,トウツウビズアクシス,0
1341,6010103002688,新規,0,2025-10-29,2025-10-29,合同会社Ｃｌｅａｒａｎｃｅ　Ｓｕｐｐｏｒｔ,,合同会社,東京都,八王子市,長房町１５０８－３,,13,201,1930824,,,,,,,2025-10-29,1,,,,,クリアランスサポート,0
1355,6010401193865,新規,0,2025-10-29,2025-10-29,株式会社クレア,,株式会社,東京都,港区,南青山３丁目１番３６号青山丸竹ビル６階,,13,103,1070062,,,,,,,2025-10-29,1,,,,,クレア,0
1357,6010403036460,新規,0,2025-10-29,2025-10-29,ＳｅｅｄＸ合同会社,,合同会社,東京都,港区,北青山１丁目３－３三橋ビル３階,,13,103,1070061,,,,,,,2025-10-29,1,,,,,シーデックス,0
1361,6010601068207,新規,0,2025-10-29,2025-10-29,匠味ロボティクス株式会社,,株式会社,東京都,江東区,亀戸４丁目３０番１０号,,13,108,1360071,,,,,,,2025-10-29,1,,,,,タクミロボティクス,0
1366,6010803005593,新規,0,2025-10-29,2025-10-29,合同会社ｎｏｕｒｉｓｈ．Ｋ,,合同会社,東京都,大田区,山王３丁目３番３号,,13,111,1430023,,,,,,,2025-10-29,1,,,,,ナーリッシュドットケイ,0
1374,6011001173150,新規,0,2025-10-29,2025-10-29,株式会社ＫＡＭＡＳＥ,,株式会社,東京都,渋谷区,恵比寿３丁目４５－２コンシェリア恵比寿３０３号室,,13,113,1500013,,,,,,,2025-10-29,1,,,,,カマセ,0
1375,6011001173191,新規,0,2025-10-29,2025-10-29,ＧＲＯＷ株式会社,,株式会社,東京都,目黒区,下目黒２丁目２３番５号,,13,110,1530064,,,,,,,2025-10-29,1,,,,,グロウ,0
1399,6011801046984,新規,0,2025-10-29,2025-10-29,株式会社神恵,,株式会社,東京都,葛飾区,細田１丁目２４番１２号,,13,122,1240021,,,,,,,2025-10-29,1,,,,,ジンケイ,0
1400,6011803007167,新規,0,2025-10-29,2025-10-29,システムサポート合同会社,,合同会社,東京都,足立区,竹の塚７丁目２番２１号赤城フラッツ２階,00141305,13,121,1210813,,,,,,,2025-10-29,1,,,,,システムサポート,0
1403,6012401043760,新規,0,2025-10-29,2025-10-29,株式会社かえでハウス,,株式会社,東京都,武蔵野市,吉祥寺北町１丁目３０番５号,,13,203,1800001,,,,,,,2025-10-29,1,,,,,カエデハウス,0
1408,6012403007433,新規,0,2025-10-29,2025-10-29,合同会社ことのは,,合同会社,東京都,小金井市,緑町４丁目１２番１２号,,13,210,1840003,,,,,,,2025-10-29,1,,,,,コトノハ,0
1422,6013303007936,新規,0,2025-10-29,2025-10-29,合同会社スンリ,,合同会社,東京都,豊島区,北大塚２丁目３４番１４号長田アパート２０２,,13,116,1700004,,,,,,,2025-10-29,1,,,,,スンリ,0
1432,6020001165396,新規,0,2025-10-29,2025-10-29,金海株式会社,,株式会社,神奈川県,横浜市神奈川区,羽沢南１丁目２８－３－２０１,,14,102,2210866,,,,,,,2025-10-29,1,,,,,キンカイ,0
1453,6030001169462,新規,0,2025-10-29,2025-10-29,株式会社ｔｗｅｌｖｅ,,株式会社,埼玉県,さいたま市浦和区,常盤８丁目３‐１４‐４,,11,107,3300061,,,,,,,2025-10-29,1,,,,,トゥエルブ,0
1457,6030003027973,新規,0,2025-10-29,2025-10-29,蜀都合同会社,,合同会社,埼玉県,蕨市,塚越４丁目４番１３号,,11,223,3350002,,,,,,,2025-10-29,1,,,,,ショクト,0
1469,6040001141172,新規,0,2025-10-29,2025-10-29,株式会社さかた,,株式会社,千葉県,成田市,公津の杜２丁目１７番地１１,,12,211,2860048,,,,,,,2025-10-29,1,,,,,サカタ,0
1472,6040003028847,新規,0,2025-10-29,2025-10-29,合同会社カルティボー,,合同会社,千葉県,香取市,大戸１１２７番地２,,12,236,2870043,,,,,,,2025-10-29,1,,,,,カルティボー,0
1473,6040003028871,新規,0,2025-10-29,2025-10-29,４８２エナジーフォー合同会社,,合同会社,千葉県,柏市,若柴１７８番地４柏の葉キャンパス１４８街区２ＫＯＩＬ５,,12,217,2770871,,,,,,,2025-10-29,1,,,,,シバフエナジーフォー,0
1475,6050005013722,新規,0,2025-10-29,2025-10-29,特定非営利活動法人Ｐｅａｃｅ　Ｌｉｎｋ　Ｊａｐａｎ,,その他の設立登記法人,茨城県,ひたちなか市,大成町３番１７号,,08,221,3120055,,,,,,,2025-10-29,1,,,,,ピースリンクジャパン,0
1497,6120001281373,新規,0,2025-10-29,2025-10-29,ＮＥＸＴ　ＶＩＳＩＯＮ　ＴＥＣＨＮＯＬＯＧＩＥＳ株式会社,,株式会社,大阪府,大阪市淀川区,木川西３丁目６番２７－５０５号,,27,123,5320013,,,,,,,2025-10-29,1,,,,,ネクストビジョンテクノロジーズ,0
1498,6120001281381,新規,0,2025-10-29,2025-10-29,株式会社クリタ電機設計,,株式会社,大阪府,大阪市西淀川区,姫島４丁目１１番４号アヴェニール１０１号室,,27,113,5550033,,,,,,,2025-10-29,1,,,,,クリタデンキセッケイ,0
1499,6120001281431,新規,0,2025-10-29,2025-10-29,株式会社イイヨウ,,株式会社,大阪府,大阪市西淀川区,大和田５丁目９番２１号,,27,113,5550032,,,,,,,2025-10-29,1,,,,,イイヨウ,0
1500,6120001281522,新規,0,2025-10-29,2025-10-29,新環軟件株式会社,,株式会社,大阪府,大阪市北区,浮田２丁目１番３－２１０号,,27,127,5300021,,,,,,,2025-10-29,1,,,,,シンカンナンケン,0
1505,6120003031041,新規,0,2025-10-29,2025-10-29,合同会社Ｖ‐Ｌｉｎｋ,,合同会社,大阪府,大阪市阿倍野区,松崎町４丁目１１番２３－９０１号,,27,119,5450053,,,,,,,2025-10-29,1,,,,,ブイリンク,0
1506,6120003031099,新規,0,2025-10-29,2025-10-29,合同会社トリガー,,合同会社,大阪府,寝屋川市,黒原橘町５番１５－３０２号,,27,215,5720058,,,,,,,2025-10-29,1,,,,,トリガー,0
1507,6120003031108,新規,0,2025-10-29,2025-10-29,合同会社Ｂｅｇｉｎｕｓ,,合同会社,大阪府,大阪市西区,千代崎２丁目１１番３号プレサンスロジェドーム前５０１,,27,106,5500023,,,,,,,2025-10-29,1,,,,,ビギナス,0
1510,6120903005929,新規,0,2025-10-29,2025-10-29,合同会社ＣＥ　ＬＡ　ＶＩ　Ｐａｒｔｎｅｒｓ,,合同会社,大阪府,豊中市,上野東２丁目１７番４９号,,27,203,5600013,,,,,,,2025-10-29,1,,,,,セラビパートナーズ,0
1515,6130001080907,新規,0,2025-10-29,2025-10-29,株式会社ｔｅｎｔｅｎ,,株式会社,京都府,京都市中京区,壬生松原町３１番地６,,26,104,6048823,,,,,,,2025-10-29,1,,,,,テンテン,0
1521,6140001140552,新規,0,2025-10-29,2025-10-29,オプス土地管理株式会社,,株式会社,兵庫県,伊丹市,稲野町２丁目２番地２－１３１１号,,28,207,6640861,,,,,,,2025-10-29,1,,,,,オプストチカンリ,0
1522,6140001140585,新規,0,2025-10-29,2025-10-29,株式会社ソーセッケイ,,株式会社,兵庫県,揖保郡太子町,矢田部１６５－２０,,28,464,6711522,,,,,,,2025-10-29,1,,,,,ソーセッケイ,0
1523,6140003022550,新規,0,2025-10-29,2025-10-29,ＩＳＨＩＺＵＥ合同会社,,合同会社,兵庫県,三田市,三田町１７－１１,,28,219,6691533,,,,,,,2025-10-29,1,,,,,イシズエ,0
1524,6140003022749,新規,0,2025-10-29,2025-10-29,合同会社まつやま産業医事務所,,合同会社,兵庫県,尼崎市,杭瀬本町２丁目１２番４号,,28,202,6600814,,,,,,,2025-10-29,1,,,,,マツヤマサンギョウイジムショ,0
1528,6160001027178,新規,0,2025-10-29,2025-10-29,株式会社岡興業,,株式会社,滋賀県,東近江市,宮川町６５７番地１８４,,25,213,5291551,,,,,,,2025-10-29,1,,,,,オカコウギョウ,0
1529,6170003002327,新規,0,2025-10-29,2025-10-29,合同会社ミステッド・マウンテン・ホールディングス,,合同会社,和歌山県,新宮市,丹鶴２丁目４番２号,,30,207,6470010,,,,,,,2025-10-29,1,,,,,ミステッドマウンテンホールディングス,0
1534,6180001169274,新規,0,2025-10-29,2025-10-29,株式会社Ｍｅｍｏｒｉｓ,,株式会社,愛知県,名古屋市天白区,島田３丁目８０１番地,,23,116,4680056,,,,,,,2025-10-29,1,,,,,メモリス,0
1535,6180001169290,新規,0,2025-10-29,2025-10-29,株式会社ＪＯＳＨＩＧＯＴＯ　ＬＩＮＫ,,株式会社,愛知県,名古屋市天白区,土原２丁目４１４番地の２,,23,116,4680026,,,,,,,2025-10-29,1,,,,,ジョシゴトリンク,0
1543,6180301040366,新規,0,2025-10-29,2025-10-29,株式会社ＳＨＯＷＮＡＮ,,株式会社,愛知県,岡崎市,庄司田３丁目９番地１１,,23,202,4440821,,,,,,,2025-10-29,1,,,,,,0
1550,6210003001968,新規,0,2025-10-29,2025-10-29,合同会社フェイス,,合同会社,福井県,鯖江市,小泉町第６号１１番地６,,18,207,9160084,,,,,,,2025-10-29,1,,,,,フェイス,0
1555,6240001065707,新規,0,2025-10-29,2025-10-29,創盛興業株式会社,,株式会社,広島県,広島市安佐北区,深川７丁目３４番１５－７－１号,,34,106,7391751,,,,,,,2025-10-29,1,,,,,ソウセイコウギョウ,0
1557,6240003007459,新規,0,2025-10-29,2025-10-29,合同会社喜感謝,,合同会社,広島県,東広島市,西条土与丸２丁目６番４１－６０３号,,34,212,7390007,,,,,,,2025-10-29,1,,,,,キカンシャ,0
1562,6290001112009,新規,0,2025-10-29,2025-10-29,株式会社Ｃ＆Ａ,,株式会社,福岡県,福岡市中央区,天神２丁目３番１５号天神パインクレスト９１１号室,,40,133,8100001,,,,,,,2025-10-29,1,,,,,シーアンドエー,0
1564,6290003017635,新規,0,2025-10-29,2025-10-29,合同会社サニーリンク,,合同会社,福岡県,春日市,宝町３丁目１１番１－２０８号,,40,218,8160807,,,,,,,2025-10-29,1,,,,,,0
1568,6290803005194,新規,0,2025-10-29,2025-10-29,Ｒｏｖｅｒｉａ合同会社,,合同会社,福岡県,北九州市八幡西区,大浦２丁目１４－１７－４０１,,40,109,8070874,,,,,,,2025-10-29,1,,,,,ロベリア,0
1569,6320001021412,新規,0,2025-10-29,2025-10-29,株式会社Ｔｒｉｎｉｔｙ　Ｍａｒｋｅｔｓ,,株式会社,大分県,大分市,中津留１丁目１番５－４０４号サーパス中津留,,44,201,8700939,,,,,,,2025-10-29,1,,,,,トリニティマーケッツ,0
1571,6330001033704,新規,0,2025-10-29,2025-10-29,株式会社葉月,,株式会社,熊本県,熊本市北区,八景水谷１丁目１９番３号,,43,105,8618064,,,,,,,2025-10-29,1,,,,,ハヅキ,0
1572,6330001033712,新規,0,2025-10-29,2025-10-29,株式会社Ｄａｒｗｉｎ,,株式会社,熊本県,熊本市北区,楡木３丁目２－１９ハーモニーヒルズ３２０６号室,,43,105,8618083,,,,,,,2025-10-29,1,,,,,,0
1573,6330003011278,新規,0,2025-10-29,2025-10-29,合同会社リンドウ,,合同会社,熊本県,熊本市中央区,水道町１４番２１号,,43,101,8600844,,,,,,,2025-10-29,1,,,,,リンドウ,0
1589,6430001095552,新規,0,2025-10-29,2025-10-29,株式会社ＫＯＨＹＡＮＧ　ＰＡＲＴＮＥＲＳ,,株式会社,北海道,札幌市中央区,南八条西７丁目１０３３－４５,,01,101,0640808,,,,,,,2025-10-29,1,,,,,コヒャンパートナーズ,0
1590,6430001095560,新規,0,2025-10-29,2025-10-29,株式会社ｄａｉｓ,,株式会社,北海道,札幌市厚別区,上野幌三条２丁目２８番２１号,,01,108,0040033,,,,,,,2025-10-29,1,,,,,ダイス,0
1600,6700150127153,新規,0,2025-10-29,2024-09-13,合同労働組合「私のユニオン」,,その他,東京都,新宿区,西新宿３丁目３－１３西新宿水間ビル６階,,13,104,1600023,,,,,,,2024-09-13,1,,,,,ゴウドウロウドウクミアイワタシノユニオン,0
1608,7010001259413,新規,0,2025-10-29,2025-10-29,株式会社Ｙｉｎｅｓ　Ｇｌｏｗ,,株式会社,東京都,中央区,日本橋兜町１６－２,,13,102,1030026,,,,,,,2025-10-29,1,,,,,イニスグロウ,0
1609,7010001259735,新規,0,2025-10-29,2025-10-29,Ｍｅｄａｂｌｅ　Ｊａｐａｎ株式会社,,株式会社,東京都,中央区,日本橋３丁目９番１号日本橋三丁目スクエア１１階,,13,102,1030027,,,,,,,2025-10-29,1,,,,,メダブルジャパン,0
1611,7010003049176,新規,0,2025-10-29,2025-10-29,合同会社Ｐｉｘ　Ｈｕｂスタジオ,,合同会社,東京都,中央区,銀座１丁目１２－４Ｎ＆ＥＢＬＤ．７階,,13,102,1040061,,,,,,,2025-10-29,1,,,,,ピックスハブスタジオ,0
1620,7010401194160,新規,0,2025-10-29,2025-10-29,株式会社ＢｉｚＳｌｉｄｅ,,株式会社,東京都,港区,六本木３丁目１６番１２号六本木ＫＳビル５Ｆ,,13,103,1060032,,,,,,,2025-10-29,1,,,,,ビズスライド,0
1622,7010403036006,新規,0,2025-10-29,2025-10-29,Ｒｅｅｋｏｎ　Ｊａｐａｎ合同会社,,合同会社,東京都,港区,港南２丁目１５番１号品川インターシティＡ棟２８階,,13,103,1080075,,,,,,,2025-10-29,1,,,,,リーコンジャパン,0
1629,7010601068214,新規,0,2025-10-29,2025-10-29,保盛株式会社,,株式会社,東京都,墨田区,石原２丁目１６番１０－１０２号,,13,107,1300011,,,,,,,2025-10-29,1,,,,,ホセイ,0
1638,7010801036730,新規,0,2025-10-29,2025-10-29,株式会社ＱＡＥＥ　ＣＯＮＰＵＵＴＥＮＧ,,株式会社,東京都,大田区,南馬込６丁目２６番１０号,,13,111,1430025,,,,,,,2025-10-29,1,,,,,カイコンピューテング,0
1661,7011001173216,新規,0,2025-10-29,2025-10-29,株式会社ＢＯＵＱＵＥＴ,,株式会社,東京都,渋谷区,恵比寿西１丁目７番１１号鈴木ビル２階,,13,113,1500021,,,,,,,2025-10-29,1,,,,,ブーケ,0
1666,7011101113749,新規,0,2025-10-29,2025-10-29,株式会社ＨＩＴＯ　ＧＯＡＴ　ＧＯＡＴ,,株式会社,東京都,新宿区,西新宿３丁目３番１３号西新宿水間ビル６階,,13,104,1600023,,,,,,,2025-10-29,1,,,,,ヒトゴートゴート,0
1672,7011305003077,新規,0,2025-10-29,2025-10-29,一般社団法人らら,,その他の設立登記法人,東京都,杉並区,上荻１丁目５－２コロナビル５Ｆ,,13,115,1670043,,,,,,,2025-10-29,1,,,,,ララ,0
1680,7011801046975,新規,0,2025-10-29,2025-10-29,株式会社ＢＯＣＨＥＮＧ　ＴＲＡＤＩＮＧ,,株式会社,東京都,葛飾区,奥戸２丁目２４番２０－３１４号クレアシティフラン・クオーレ,,13,122,1240022,,,,,,,2025-10-29,1,,,,,ボーチェントレーディング,0
1685,7012801024327,新規,0,2025-10-29,2025-10-29,株式会社ＴｏＰｏＲｏＢｏ研究所,,株式会社,東京都,日野市,旭が丘６丁目６番地東京都立大学日野キャンパスＴＭＵＩｎｎｏｖａｔｉｏｎＨｕｂインキュベーションルームＪ,,13,212,1910065,,,,,,,2025-10-29,1,,,,,トポロボケンキュウジョ,0
1688,7013301055184,新規,0,2025-10-29,2025-10-29,株式会社ゴールデンブリッジジャパン,,株式会社,東京都,豊島区,東池袋５丁目７番３号アゼリア東池袋４０１,,13,116,1700013,,,,,,,2025-10-29,1,,,,,ゴールデンブリッジジャパン,0
1693,7020001165577,新規,0,2025-10-29,2025-10-29,株式会社東宝ハウス新横浜,,株式会社,神奈川県,横浜市港北区,新横浜３丁目７番地８,,14,109,2220033,,,,,,,2025-10-29,1,,,,,トウホウハウスシンヨコハマ,0
1694,7020001165593,新規,0,2025-10-29,2025-10-29,株式会社ブライトアセットコム,,株式会社,神奈川県,横浜市港北区,日吉３丁目１１番３１－２号,,14,109,2230061,,,,,,,2025-10-29,1,,,,,ブライトアセットコム,0
1695,7020001165602,新規,0,2025-10-29,2025-10-29,株式会社Ｓｏｐｈｉａ　Ｎｅｘｕｓ,,株式会社,神奈川県,横浜市保土ケ谷区,峰岡町１丁目３番８号ｂ’ＣＡＳＡ横浜星川,,14,106,2400064,,,,,,,2025-10-29,1,,,,,ソフィアネクサス,0
1697,7020003029689,新規,0,2025-10-29,2025-10-29,日之松合同会社,,合同会社,神奈川県,横浜市西区,北幸２丁目１０番４８号むつみビル３階,,14,103,2200004,,,,,,,2025-10-29,1,,,,,ヒノマツ,0
1702,7021001086697,新規,0,2025-10-29,2025-10-29,株式会社エッジアップ,,株式会社,神奈川県,厚木市,水引１丁目１５番１７号,,14,212,2430004,,,,,,,2025-10-29,1,,,,,エッジアップ,0
1708,7030001169453,新規,0,2025-10-29,2025-10-29,ＺＥＲＯ株式会社,,株式会社,埼玉県,さいたま市大宮区,上小町１１０５番地１－２０３,,11,103,3300855,,,,,,,2025-10-29,1,,,,,ゼロ,0
1712,7030003027972,新規,0,2025-10-29,2025-10-29,合同会社ウルキンソン,,合同会社,埼玉県,三郷市,早稲田８丁目３１番地１アネックス早稲田ＩＩ‐３号,00141299,11,237,3410018,,,,,,,2025-10-29,1,,,,,ウルキンソン,0
1718,7040001140850,新規,0,2025-10-29,2025-10-29,株式会社ジェネサス,,株式会社,千葉県,旭市,三川１４９３７番地,,12,215,2892714,,,,,,,2025-10-29,1,,,,,ジェネサス,0
1719,7040001141188,新規,0,2025-10-29,2025-10-29,セイリョー株式会社,,株式会社,千葉県,市川市,市川１丁目２１番７号,,12,203,2720034,,,,,,,2025-10-29,1,,,,,セイリョー,0
1722,7040003028879,新規,0,2025-10-29,2025-10-29,合同会社はんもっく,,合同会社,千葉県,船橋市,新高根５丁目４番１７号,,12,204,2740814,,,,,,,2025-10-29,1,,,,,ハンモック,0
1724,7050001057508,新規,0,2025-10-29,2025-10-29,株式会社Ｃｈｏｕｃｈｏ,,株式会社,茨城県,つくば市,今鹿島２５００番地２,,08,220,3002641,,,,,,,2025-10-29,1,,,,,チョウチョ,0
1730,7080401028238,新規,0,2025-10-29,2025-10-29,株式会社大商,,株式会社,静岡県,磐田市,上本郷２１３番地６,,22,211,4380822,,,,,,,2025-10-29,1,,,,,ダイショウ,0
1736,7110001039680,新規,0,2025-10-29,2025-10-29,株式会社みちテラス,,株式会社,新潟県,上越市,国府３丁目９番３２号,,15,222,9420082,,,,,,,2025-10-29,1,,,,,ミチテラス,0
1753,7120001281348,新規,0,2025-10-29,2025-10-29,株式会社吉村商会,,株式会社,大阪府,寝屋川市,大利町３０番３号,,27,215,5720048,,,,,,,2025-10-29,1,,,,,ヨシムラショウカイ,0
1754,7120001281455,新規,0,2025-10-29,2025-10-29,株式会社賃貸マーケット,,株式会社,大阪府,大阪市北区,大淀中３丁目５－２１サンビクトリービル３Ｆ,,27,127,5310076,,,,,,,2025-10-29,1,,,,,チンタイマーケット,0
1755,7120001281463,新規,0,2025-10-29,2025-10-29,株式会社一照,,株式会社,大阪府,大阪市東淀川区,小松１丁目１番３号,,27,114,5330004,,,,,,,2025-10-29,1,,,,,イッショウ,0
1756,7120001281488,新規,0,2025-10-29,2025-10-29,株式会社ｓｉｇｎａｌ,,株式会社,大阪府,大阪市北区,天神橋７丁目１４番２号,,27,127,5310041,,,,,,,2025-10-29,1,,,,,シグナル,0
1757,7120001281604,新規,0,2025-10-29,2025-10-29,株式会社Ａｒｂｅｌｌｅ,,株式会社,大阪府,大阪市中央区,日本橋２丁目５番１２号,,27,128,5420073,,,,,,,2025-10-29,1,,,,,アーベル,0
1765,7120003031081,新規,0,2025-10-29,2025-10-29,合同会社ＮＥＮＥＺＩＡ,,合同会社,大阪府,大阪市中央区,瓦屋町１丁目１０番５－３０７号,,27,128,5420066,,,,,,,2025-10-29,1,,,,,ネネジア,0
1766,7120003031107,新規,0,2025-10-29,2025-10-29,合同会社コアトラスト,,合同会社,大阪府,大阪市福島区,大開１丁目９番１６－４０６号,,27,103,5530007,,,,,,,2025-10-29,1,,,,,コアトラスト,0
1767,7120003031115,新規,0,2025-10-29,2025-10-29,合同会社歩,,合同会社,大阪府,大阪市西成区,南津守７丁目１３番３０号,,27,122,5570063,,,,,,,2025-10-29,1,,,,,アユム,0
1778,7120901051726,新規,0,2025-10-29,2025-10-29,グランスター株式会社,,株式会社,大阪府,茨木市,鮎川４丁目３番１８号,,27,211,5670831,,,,,,,2025-10-29,1,,,,,グランスター,0
1790,7140001140601,新規,0,2025-10-29,2025-10-29,おぐら測量株式会社,,株式会社,兵庫県,姫路市,辻井７丁目９番８号,00141306,28,201,6700083,,,,,,,2025-10-29,1,,,,,オグラソクリョウ,0
1791,7140003022723,新規,0,2025-10-29,2025-10-29,合同会社Ｋ’ｓ　ＦＩＥＬＤ,,合同会社,兵庫県,神戸市西区,神出町広谷９－１,,28,111,6512331,,,,,,,2025-10-29,1,,,,,ケーズフィールド,0
1792,7140003022789,新規,0,2025-10-29,2025-10-29,松井楽貿易合同会社,,合同会社,兵庫県,神戸市中央区,海岸通３丁目１－３－１１０１号室,,28,110,6500024,,,,,,,2025-10-29,1,,,,,マツイラクボウエキ,0
1795,7160003003639,新規,0,2025-10-29,2025-10-29,合同会社ｓｍｉｌｅ　ｔｏ　ｓｍｉｌｅ,,合同会社,滋賀県,甲賀市,水口町三大寺１４５２－６５,,25,209,5280046,,,,,,,2025-10-29,1,,,,,スマイルトゥスマイル,0
1798,7170003002326,新規,0,2025-10-29,2025-10-29,合同会社フローラケミカ,,合同会社,和歌山県,橋本市,胡麻生９７７番地,,30,203,6480066,,,,,,,2025-10-29,1,,,,,フローラケミカ,0
1804,7180001169273,新規,0,2025-10-29,2025-10-29,株式会社Ｒ　ｏｆインアクション,,株式会社,愛知県,名古屋市西区,玉池町２７５番地ソレイユＮＯ．１、２０２号,,23,104,4520812,,,,,,,2025-10-29,1,,,,,アールオブインアクション,0
1809,7180003029293,新規,0,2025-10-29,2025-10-29,合同会社アプローズプロジェクト,,合同会社,愛知県,名古屋市名東区,藤里町２１０１番地,,23,115,4650036,,,,,,,2025-10-29,1,,,,,アプローズプロジェクト,0
1811,7180301040365,新規,0,2025-10-29,2025-10-29,株式会社ＳＰサービス,,株式会社,愛知県,豊田市,小坂本町１丁目５番地５ＹＡＭＡＴＯＢＬＤＧ２階,,23,211,4710034,,,,,,,2025-10-29,1,,,,,,0
1814,7200001044374,新規,0,2025-10-29,2025-10-29,スキャルワーク株式会社,,株式会社,岐阜県,本巣市,政田１５９８番地４,,21,218,5010471,,,,,,,2025-10-29,1,,,,,スキャルワーク,0
1817,7210001020366,新規,0,2025-10-29,2025-10-29,株式会社中野工業社,,株式会社,福井県,吉田郡永平寺町,栃原４５号１８番地,,18,322,9101206,,,,,,,2025-10-29,1,,,,,ナカノコウギョウシャ,0
1821,7230001021156,新規,0,2025-10-29,2025-10-29,株式会社ＥｃｏＭｅｔ,,株式会社,富山県,高岡市,深沢３６－１,,16,202,9330811,,,,,,,2025-10-29,1,,,,,エコメット,0
1822,7230003002526,新規,0,2025-10-29,2025-10-29,合同会社澤田,,合同会社,富山県,富山市,太田８０番地１２６,,16,201,9398048,,,,,,,2025-10-29,1,,,,,サワダ,0
1826,7260001040681,新規,0,2025-10-29,2025-10-29,株式会社山崎,00141304,株式会社,岡山県,総社市,下倉４５６１番地,,33,208,7191321,,,,,,,2025-10-29,1,,,,,ヤマサキ,0
1828,7290001111769,新規,0,2025-10-29,2025-10-29,株式会社Ｓａｋｕｒａ　Ｈｕｍａｎ　Ｃａｐｉｔａｌ,,株式会社,福岡県,福岡市南区,横手南町２番３６号１Ｆ,,40,134,8111312,,,,,,,2025-10-29,1,,,,,サクラヒューマンキャピタル,0
1829,7290001111793,新規,0,2025-10-29,2025-10-29,株式会社ＨＡＲＩＹＡ　ＷＯＲＫＳ,,株式会社,福岡県,春日市,下白水北５丁目５９番地サングレート春日２０３,,40,218,8160854,,,,,,,2025-10-29,1,,,,,ハリヤワークス,0
1830,7290001111827,新規,0,2025-10-29,2025-10-29,潤徳商事株式会社,,株式会社,福岡県,福岡市西区,今宿１丁目１２番３５－２０３号,,40,135,8190167,,,,,,,2025-10-29,1,,,,,ジュントクショウジ,0
1831,7290801031984,新規,0,2025-10-29,2025-10-29,株式会社リル・ビー,,株式会社,福岡県,北九州市小倉南区,中吉田３丁目２番１４号,,40,107,8000204,,,,,,,2025-10-29,1,,,,,リルビー,0
1837,7330001033711,新規,0,2025-10-29,2025-10-29,株式会社津田丸水産,,株式会社,熊本県,玉名郡長洲町,大字長洲３３１８番地２４,,43,368,8690123,,,,,,,2025-10-29,1,,,,,ツダマルスイサン,0
1839,7340001027737,新規,0,2025-10-29,2025-10-29,ＭＡＭＵＳＵＢＩ株式会社,,株式会社,鹿児島県,姶良市,西餅田１７７７番地３０,,46,225,8995431,,,,,,,2025-10-29,1,,,,,マムスビ,0
1847,7370001053177,新規,0,2025-10-29,2025-10-29,Ｒｏｃｏ株式会社,,株式会社,宮城県,仙台市青葉区,国分町２丁目９－６ナイタービル地下１階,,04,101,9800803,,,,,,,2025-10-29,1,,,,,ロコ,0
1849,7370003007354,新規,0,2025-10-29,2025-10-29,合同会社マルガリーダ,,合同会社,宮城県,仙台市太白区,袋原４丁目９番６９号,,04,104,9811102,,,,,,,2025-10-29,1,,,,,マルガリーダ,0
1851,7380003006173,新規,0,2025-10-29,2025-10-29,合同会社ライトプランニング,,合同会社,福島県,郡山市,字古川５８番地の１グリンピアハイツ１０６号,,07,203,9638823,,,,,,,2025-10-29,1,,,,,ライトプランニング,0
1855,7410001014307,新規,0,2025-10-29,2025-10-29,嶋崎農営株式会社,,株式会社,秋田県,潟上市,天王字羽立３９番地,,05,211,0100201,,,,,,,2025-10-29,1,,,,,シマザキノウエイ,0
1877,7430001095543,新規,0,2025-10-29,2025-10-29,株式会社ＲＥＭ．３８,,株式会社,北海道,札幌市中央区,南二条西５丁目３１番地１ＲＭＢｌｄ．７０１,,01,101,0600062,,,,,,,2025-10-29,1,,,,,レム,0
1878,7430002022257,新規,0,2025-10-29,2025-10-29,有限会社レストランキャビン,,有限会社,北海道,札幌市南区,真駒内幸町２丁目１番５号,,01,106,0050014,,,,,,,2025-10-29,1,,,,,レストランキャビン,0
1885,7480003002344,新規,0,2025-10-29,2025-10-29,合同会社マイクロＧＸ徳島,,合同会社,徳島県,板野郡松茂町,中喜来字群恵３９番地１,,36,401,7710212,,,,,,,2025-10-29,1,,,,,マイクロジーエックストクシマ,0
1889,7700150132747,新規,0,2025-10-29,2025-10-29,Ｄｒｉｖｅｌｉｎｅ　Ｂａｓｅｂａｌｌ　Ｅｎｔｅｒｐｒｉｓｅｓ，ＬＬＣ,,外国会社等,,,,,,,,２３２１１　６６ｔｈ　Ａｖｅ　Ｓ　Ｋｅｎｔ，ＷＡ　９８０３２，ＵＳＡ,,,,,,2025-10-29,1,,,,,ドライブラインベースボールエンタープライズ,0
1898,8010001259750,新規,0,2025-10-29,2025-10-29,株式会社ビサイドプラス,,株式会社,東京都,千代田区,内神田１丁目２番６号産広美工ビル３階,,13,101,1010047,,,,,,,2025-10-29,1,,,,,ビサイドプラス,0
1899,8010001259759,新規,0,2025-10-29,2025-10-29,株式会社アセンヴィア・パートナーズ,,株式会社,東京都,千代田区,丸の内２丁目７番２号ＪＰタワー１４階,,13,101,1000005,,,,,,,2025-10-29,1,,,,,アセンヴィアパートナーズ,0
1900,8010001259783,新規,0,2025-10-29,2025-10-29,株式会社あんしん不動産サポート,,株式会社,東京都,中央区,日本橋横山町３番１３号,,13,102,1030003,,,,,,,2025-10-29,1,,,,,アンシンフドウサンサポート,0
1903,8010003049175,新規,0,2025-10-29,2025-10-29,オシカウダ合同会社,,合同会社,東京都,中央区,勝どき４丁目６番２－２９１３号,,13,102,1040054,,,,,,,2025-10-29,1,,,,,オシカウダ,0
1904,8010003049241,新規,0,2025-10-29,2025-10-29,合同会社Ｒｅｍｉｎｉｓ,,合同会社,東京都,中央区,銀座１丁目２２番１１号銀座大竹ビジデンス２Ｆ,,13,102,1040061,,,,,,,2025-10-29,1,,,,,レミニス,0
1905,8010005040867,新規,0,2025-10-29,2025-10-29,ＳＭ１一般社団法人,,その他の設立登記法人,東京都,千代田区,霞が関３丁目２番５号,,13,101,1000013,,,,,,,2025-10-29,1,,,,,エスエムワン,0
1916,8010403036434,新規,0,2025-10-29,2025-10-29,ＲＴ．ＩＮＣ合同会社,,合同会社,東京都,港区,芝公園１丁目２番８号ＡＭＡＮＯ芝公園ビル５階,,13,103,1050011,,,,,,,2025-10-29,1,,,,,アールティーインク,0
1917,8010405024899,新規,0,2025-10-29,2025-10-29,一般社団法人ジーシーピー５,,その他の設立登記法人,東京都,港区,元赤坂１丁目１番７－１２０９号株式会社赤坂国際会計内,,13,103,1070051,,,,,,,2025-10-29,1,,,,,ジーシービーファイブ,0
1921,8010601068188,新規,0,2025-10-29,2025-10-29,株式会社Ｒｅｌａｉ,,株式会社,東京都,江東区,有明３丁目７－１１パークビル２０Ｆ,,13,108,1350063,,,,,,,2025-10-29,1,,,,,リライ,0
1922,8010601068221,新規,0,2025-10-29,2025-10-29,株式会社ヴェーヌ,,株式会社,東京都,墨田区,本所２丁目１７番１２号,,13,107,1300004,,,,,,,2025-10-29,1,,,,,ヴェーヌ,0
1923,8010603011889,新規,0,2025-10-29,2025-10-29,合同会社拓業,,合同会社,東京都,江東区,住吉２丁目６番１３号,,13,108,1350002,,,,,,,2025-10-29,1,,,,,タクギョウ,0
1925,8010801036738,新規,0,2025-10-29,2025-10-29,株式会社ＭＡＫＯＴＯ,,株式会社,東京都,大田区,田園調布４丁目４５番２号,,13,111,1450071,,,,,,,2025-10-29,1,,,,,マコト,0
1928,8010901058368,新規,0,2025-10-29,2025-10-29,株式会社ＯＮＯＬＡＹ,,株式会社,東京都,世田谷区,三軒茶屋１丁目３９―５メゾンデスタチュ４０２,,13,112,1540024,,,,,,,2025-10-29,1,,,,,オノレイ,0
1929,8010903010376,新規,0,2025-10-29,2025-10-29,合同会社ＮＡＳＵＣＡ,,合同会社,東京都,世田谷区,若林１丁目１０番１９号メゾン若林２０２,,13,112,1540023,,,,,,,2025-10-29,1,,,,,ナスカ,0
1933,8011001173157,新規,0,2025-10-29,2025-10-29,龍森創意國際株式会社,,株式会社,東京都,渋谷区,本町５丁目３１番７号Ｆｅｌｉｚｈｏｕｓｅ３０２,,13,113,1510071,,,,,,,2025-10-29,1,,,,,リュウシンソウイコクサイ,0
1934,8011001173198,新規,0,2025-10-29,2025-10-29,株式会社エコーグローバル,,株式会社,東京都,目黒区,中目黒２丁目８番７－４０３号ＪＰＡＲＫ中目黒ＩＶ,00141301,13,110,1530061,,,,,,,2025-10-29,1,,,,,エコーグローバル,0
1935,8011001173215,新規,0,2025-10-29,2025-10-29,株式会社ＱＵＷＡＳＥＮＳＥ,,株式会社,東京都,渋谷区,代々木４丁目３８番１６号ＢＰＲレジデンス代々木８０１,,13,113,1510053,,,,,,,2025-10-29,1,,,,,クワセンス,0
1936,8011001173248,新規,0,2025-10-29,2025-10-29,株式会社Ｐａｌｅｔｔａ,,株式会社,東京都,渋谷区,東３丁目１３－１１Ａ－ＰＬＡＣＥ恵比寿東８Ｆ,,13,113,1500011,,,,,,,2025-10-29,1,,,,,パレッタ,0
1937,8011001173454,新規,0,2025-10-29,2025-10-29,株式会社Ｔｒａｃｈｅ,,株式会社,東京都,渋谷区,渋谷２丁目１９番１９号ワコー宮益坂ビル５階,,13,113,1500002,,,,,,,2025-10-29,1,,,,,トレーチェ,0
1938,8011003022733,新規,0,2025-10-29,2025-10-29,ＬａＬａ　Ｃｒｅａｔｉｏｎｓ合同会社,,合同会社,東京都,渋谷区,東１丁目２７－４吉峰ビル８Ｆ,,13,113,1500011,,,,,,,2025-10-29,1,,,,,ララクリエーションズ,0
1939,8011003022766,新規,0,2025-10-29,2025-10-29,合同会社ＭＲ　Ｏｎｅ,,合同会社,東京都,渋谷区,神南１丁目１１番４号ＦＰＧリンクス神南５階,,13,113,1500041,,,,,,,2025-10-29,1,,,,,エムアールワン,0
1953,8011605002678,新規,0,2025-10-29,2025-10-29,一般社団法人地方魅力推活会,,その他の設立登記法人,東京都,練馬区,貫井３丁目２９番４－１１４号,,13,120,1760021,,,,,,,2025-10-29,1,,,,,チホウミリョクオシカツカイ,0
1954,8011703004444,新規,0,2025-10-29,2025-10-29,合同会社Ｎｅｘｕｓ　Ｌｉｍｉｎａｌｉｓ,,合同会社,東京都,江戸川区,南葛西６丁目２７－１９－４０１,,13,123,1340085,,,,,,,2025-10-29,1,,,,,ネクサスリミナリス,0
1961,8011801046974,新規,0,2025-10-29,2025-10-29,株式会社ＹＳＭＰ,,株式会社,東京都,足立区,島根２丁目７番１９号,,13,121,1210815,,,,,,,2025-10-29,1,,,,,ワイエスエムピー,0
1966,8012805003375,新規,0,2025-10-29,2025-10-29,一般財団法人天華文教基金会,,その他の設立登記法人,東京都,昭島市,緑町４丁目２７番地２号,,13,207,1960004,,,,,,,2025-10-29,1,,,,,テンカブンキョウキキンカイ,0
1970,8013301055200,新規,0,2025-10-29,2025-10-29,株式会社Ｄｉｍｍａｂｕｌ,,株式会社,東京都,豊島区,東池袋２丁目６２番８号ＢＩＧオフィスプラザ池袋１２０６,,13,116,1700013,,,,,,,2025-10-29,1,,,,,ディンマブル,0
1978,8020001165551,新規,0,2025-10-29,2025-10-29,佑心ベース株式会社,,株式会社,神奈川県,横浜市青葉区,恩田町１０１１番地２,,14,117,2270065,,,,,,,2025-10-29,1,,,,,ユウミベース,0
1983,8020003029696,新規,0,2025-10-29,2025-10-29,合同会社キャリコ,,合同会社,神奈川県,川崎市幸区,古市場２丁目１１７番地５,,14,132,2120052,,,,,,,2025-10-29,1,,,,,キャリコ,0
1997,8030001169394,新規,0,2025-10-29,2025-10-29,株式会社蓮建設,,株式会社,埼玉県,桶川市,末広１丁目１番１－４０６号,,11,231,3630012,,,,,,,2025-10-29,1,,,,,レンケンセツ,0
1998,8030001169411,新規,0,2025-10-29,2025-10-29,ＣｒｅＢａ株式会社,,株式会社,埼玉県,さいたま市緑区,大字中尾６９１番地８,,11,109,3360932,,,,,,,2025-10-29,1,,,,,クレバ,0
1999,8030001169444,新規,0,2025-10-29,2025-10-29,株式会社世良商事,,株式会社,埼玉県,草加市,谷塚上町７３５－２０,,11,221,3400024,,,,,,,2025-10-29,1,,,,,セラショウジ,0
2012,8040001141170,新規,0,2025-10-29,2025-10-29,川月株式会社,,株式会社,千葉県,香取市,木内１２１４番地,,12,236,2890337,,,,,,,2025-10-29,1,,,,,カワツキ,0
2013,8040001141204,新規,0,2025-10-29,2025-10-29,株式会社福家ハウジング,,株式会社,千葉県,四街道市,四街道１丁目２１番１３号,,12,228,2840005,,,,,,,2025-10-29,1,,,,,フクヤハウジング,0
2014,8040003028894,新規,0,2025-10-29,2025-10-29,ａｏｓｏｒａ合同会社,,合同会社,千葉県,千葉市花見川区,幕張本郷５丁目１９－１７,,12,102,2620033,,,,,,,2025-10-29,1,,,,,アオソラ,0
2015,8040005022887,新規,0,2025-10-29,2025-10-29,一般社団法人白子地曳網保存会,,その他の設立登記法人,千葉県,長生郡白子町,剃金２７３０番地２８,,12,424,2994203,,,,,,,2025-10-29,1,,,,,,0
2036,8120001281215,新規,0,2025-10-29,2025-10-29,株式会社Ｇｌｏｒｙ,,株式会社,大阪府,大阪市淀川区,西中島３丁目１６－１７,,27,123,5320011,,,,,,,2025-10-29,1,,,,,グローリー,0
2037,8120001281413,新規,0,2025-10-29,2025-10-29,株式会社ＳＯＬＯ,,株式会社,大阪府,大阪市北区,梅田１丁目２番２号大阪駅前第２ビル１２－１２,,27,127,5300001,,,,,,,2025-10-29,1,,,,,ソロ,0
2038,8120001281446,新規,0,2025-10-29,2025-10-29,クライム株式会社,,株式会社,大阪府,大阪市天王寺区,東上町８－３トラスティコート２０２,,27,109,5430026,,,,,,,2025-10-29,1,,,,,クライム,0
2039,8120001281504,新規,0,2025-10-29,2025-10-29,株式会社麗澤,,株式会社,大阪府,大阪市中央区,南本町２丁目５番１３－１７０６号,,27,128,5410054,,,,,,,2025-10-29,1,,,,,レイタク,0
2040,8120001281578,新規,0,2025-10-29,2025-10-29,株式会社Ｓｉｇｍａ,,株式会社,大阪府,大阪市都島区,東野田町１丁目１９番６号マイン京橋,,27,102,5340024,,,,,,,2025-10-29,1,,,,,シグマ,0
2050,8120003031064,新規,0,2025-10-29,2025-10-29,合同会社ＯＵＲ　ＮＥＸＴ,,合同会社,大阪府,大阪市北区,梅田１丁目１番３号大阪駅前第３ビル２９階１‐１‐１号室,,27,127,5300001,,,,,,,2025-10-29,1,,,,,アワーネクスト,0
2051,8120003031072,新規,0,2025-10-29,2025-10-29,合同会社Ｌｅ　Ｌｉｅｎ,,合同会社,大阪府,大阪市平野区,加美正覚寺２丁目６－３５,,27,126,5470006,,,,,,,2025-10-29,1,,,,,ルリアン,0
2052,8120003031089,新規,0,2025-10-29,2025-10-29,合同会社輪,,合同会社,大阪府,大阪市浪速区,難波中２丁目１０番５２－２８０３号,,27,111,5560011,,,,,,,2025-10-29,1,,,,,メグル,0
2053,8120003031097,新規,0,2025-10-29,2025-10-29,合同会社ＥＤＵ　ＥＮＧＬＩＳＨ　ＭＯＮＧＯＬＩＡＮ,,合同会社,大阪府,大阪市北区,梅田１丁目２番２号,,27,127,5300001,,,,,,,2025-10-29,1,,,,,ウルジーバトビャムバドゥラム,0
2062,8130001080888,新規,0,2025-10-29,2025-10-29,九運居株式会社,,株式会社,京都府,京都市伏見区,下油掛町１４４番地２Ｆ,,26,109,6128364,,,,,,,2025-10-29,1,,,,,キュウウンイ,0
2069,8140001140559,新規,0,2025-10-29,2025-10-29,株式会社ｉｃｈｉｗｏｒｋｓ,,株式会社,兵庫県,西宮市,甲東園１丁目１－６パセオ甲東１１０,,28,204,6620812,,,,,,,2025-10-29,1,,,,,イチワークス,0
2070,8140001140567,新規,0,2025-10-29,2025-10-29,あけび株式会社,,株式会社,兵庫県,神戸市中央区,琴ノ緒町３丁目３番２０号杉尾第２ビル３０２,,28,110,6510094,,,,,,,2025-10-29,1,,,,,アケビ,0
2071,8140003022796,新規,0,2025-10-29,2025-10-29,合同会社ＯｎｅＧｒａｃｅ,,合同会社,兵庫県,宍粟市,山崎町加生１４７番地３,,28,227,6712570,,,,,,,2025-10-29,1,,,,,ワングレイス,0
2074,8160001027176,新規,0,2025-10-29,2025-10-29,株式会社スミレ,,株式会社,滋賀県,野洲市,吉地３１０番地,,25,210,5202413,,,,,,,2025-10-29,1,,,,,スミレ,0
2075,8170001018843,新規,0,2025-10-29,2025-10-29,株式会社Ｍｈｏｍｅ,,株式会社,和歌山県,岩出市,山７６３－１７,,30,209,6496258,,,,,,,2025-10-29,1,,,,,エムホーム,0
2082,8180001169066,新規,0,2025-10-29,2025-10-29,ジョウホウソース株式会社,,株式会社,愛知県,名古屋市西区,那古野２丁目１４－１なごのキャンパス,,23,104,4510042,,,,,,,2025-10-29,1,,,,,ジョウホウソース,0
2083,8180001169223,新規,0,2025-10-29,2025-10-29,株式会社ｏｆｆｉｃｅ　ＭＡＴＳＵＤＡ,,株式会社,愛知県,名古屋市西区,南川町５７番地ヴィルヌーブ南川Ｂ棟２０１号,,23,104,4520814,,,,,,,2025-10-29,1,,,,,オフィスマツダ,0
2084,8180001169272,新規,0,2025-10-29,2025-10-29,株式会社ＴＨＹ　ＷＩＬＬ,,株式会社,愛知県,小牧市,大字小牧原新田１２７１番地２,,23,219,4850012,,,,,,,2025-10-29,1,,,,,ザイウィル,0
2085,8180001169280,新規,0,2025-10-29,2025-10-29,株式会社福耳,,株式会社,愛知県,東海市,横須賀町二ノ割２３番地１,,23,222,4770036,,,,,,,2025-10-29,1,,,,,フクミミ,0
2097,8180301040356,新規,0,2025-10-29,2025-10-29,株式会社山下園芸,,株式会社,愛知県,安城市,福釜町小六２６番地,,23,212,4460052,,,,,,,2025-10-29,1,,,,,ヤマシタエンゲイ,0
2099,8180303006784,新規,0,2025-10-29,2025-10-29,合同会社愛知土地建物,,合同会社,愛知県,豊橋市,鍛冶町１１,,23,201,4400802,,,,,,,2025-10-29,1,,,,,アイチトチタテモノ,0
2100,8180305009744,新規,0,2025-10-29,2025-10-29,一般社団法人Ｓｅｌｅｃａｎ,,その他の設立登記法人,愛知県,豊橋市,牟呂町字古田２５番地１,,23,201,4418087,,,,,,,2025-10-29,1,,,,,セレソン,0
2102,8190001032644,新規,0,2025-10-29,2025-10-29,株式会社ｃａｌｍ・ｄｅｓｉｇｎ,,株式会社,三重県,四日市市,采女町２２５番地１,,24,202,5100000,,,,,,,2025-10-29,1,,,,,カルムデザイン,0
2103,8190005012080,新規,0,2025-10-29,2025-10-29,一般社団法人フルイチ未来クリエイト,,その他の設立登記法人,三重県,鈴鹿市,道伯２丁目１９番１９号,,24,207,5130823,,,,,,,2025-10-29,1,,,,,フルイチミライクリエイト,0
2105,8200003007122,新規,0,2025-10-29,2025-10-29,肥田カントリーファーム合同会社,,合同会社,岐阜県,土岐市,肥田町肥田４９６番地,,21,212,5095115,,,,,,,2025-10-29,1,,,,,ヒダカントリーファーム,0
2113,8230001021155,新規,0,2025-10-29,2025-10-29,株式会社Ｈａｐｐｙ　Ｍａｎｙ　Ｉｓｌａｎｄ,,株式会社,富山県,小矢部市,和沢４３５番地１４,,16,209,9320822,,,,,,,2025-10-29,1,,,,,ハッピーメニーアイランド,0
2123,8290005019859,新規,0,2025-10-29,2025-10-29,一般社団法人ＢＡＮＺＡＩプロジェクト,,その他の設立登記法人,福岡県,福岡市博多区,千代４丁目１番３３号西鉄千代県庁口ビル１Ｆ,,40,132,8120044,,,,,,,2025-10-29,1,,,,,バンザイプロジェクト,0
2131,8330001033702,新規,0,2025-10-29,2025-10-29,株式会社アザレアヒル春日,,株式会社,熊本県,熊本市東区,湖東２丁目３７番７号,,43,102,8620909,,,,,,,2025-10-29,1,,,,,アザレアヒルカスガ,0
2132,8330001033710,新規,0,2025-10-29,2025-10-29,株式会社クマモト民泊,,株式会社,熊本県,上益城郡御船町,大字辺田見４９７番地２,,43,441,8613206,,,,,,,2025-10-29,1,,,,,クマモトミンパク,0
2138,8360003015357,新規,0,2025-10-29,2025-10-29,合同会社ショー技研,,合同会社,沖縄県,宮古島市,平良字荷川取２７７番地７,,47,214,9060008,,,,,,,2025-10-29,1,,,,,ショーギケン,0
2140,8370003007353,新規,0,2025-10-29,2025-10-29,合同会社和クリエイド,,合同会社,宮城県,仙台市青葉区,中央４丁目４‐１９アーバンネット仙台中央ビル２ＦＹＵＩＮＯＳ内,,04,101,9800021,,,,,,,2025-10-29,1,,,,,ワクリエイド,0
2143,8380001035669,新規,0,2025-10-29,2025-10-29,ＳＳＫホールディングス株式会社,,株式会社,福島県,いわき市,平上荒川字桜町９８番地の１,,07,204,9708034,,,,,,,2025-10-29,1,,,,,エスエスケーホールディングス,0
2146,8410003004172,新規,0,2025-10-29,2025-10-29,合同会社ヒカヒカメグ,,合同会社,秋田県,秋田市,楢山南中町７番４９号,,05,201,0100022,,,,,,,2025-10-29,1,,,,,ヒカヒカメグ,0
2147,8420001019320,新規,0,2025-10-29,2025-10-29,株式会社スタートアップ,,株式会社,青森県,青森市,造道２丁目６番１号,,02,201,0300911,,,,,,,2025-10-29,1,,,,,スタートアップ,0
2157,9010001259568,新規,0,2025-10-29,2025-10-29,東京芸術競売株式会社,,株式会社,東京都,千代田区,神田佐久間町３丁目２８星野ビル４Ｆ５３号室,,13,101,1010025,,,,,,,2025-10-29,1,,,,,トウキョウゲイジュツケイバイ,0
2158,9010001259782,新規,0,2025-10-29,2025-10-29,Ｅ．Ｏ．コンサルティング株式会社,,株式会社,東京都,中央区,銀座１丁目２２番１１号銀座大竹ビジデンス２Ｆ,,13,102,1040061,,,,,,,2025-10-29,1,,,,,イーオーコンサルティング,0
2159,9010001259816,新規,0,2025-10-29,2025-10-29,株式会社ＯｐｔｉＬｅｖｅｌｓ,,株式会社,東京都,千代田区,神田神保町２丁目１０番地３１ＩＷビル１Ｆ,,13,101,1010051,,,,,,,2025-10-29,1,,,,,オプティレベルズ,0
2162,9010003048993,新規,0,2025-10-29,2025-10-29,グレイス合同会社,,合同会社,東京都,文京区,本駒込２丁目１８番１３号シティハウス文京本駒込１１０２,,13,105,1130021,,,,,,,2025-10-29,1,,,,,グレイス,0
2163,9010003049158,新規,0,2025-10-29,2025-10-29,サザンカ０１合同会社,,合同会社,東京都,千代田区,霞が関３丁目２番５号,,13,101,1000013,,,,,,,2025-10-29,1,,,,,サザンカゼロワン,0
2165,9010005040866,新規,0,2025-10-29,2025-10-29,ＴＬＳ７特定目的会社,,その他の設立登記法人,東京都,千代田区,平河町１丁目６番１５号シルスフィア会計事務所内,,13,101,1020093,,,,,,,2025-10-29,1,,,,,ティーエルエスナナ,0
2166,9010101016927,新規,0,2025-10-29,2025-10-29,株式会社カリネ,,株式会社,東京都,八王子市,元本郷町３丁目１６番９号誠光ビル１Ｆ,,13,201,1920051,,,,,,,2025-10-29,1,,,,,カブシキガイシャ,0
2167,9010101016935,新規,0,2025-10-29,2025-10-29,株式会社Ｋ’ｓシャープニング,,株式会社,東京都,八王子市,北野町１２２番地,,13,201,1920906,,,,,,,2025-10-29,1,,,,,ケーズシャープニング,0
2176,9010403036367,新規,0,2025-10-29,2025-10-29,Ｌｉｂｒｅｓ合同会社,,合同会社,東京都,港区,南青山３丁目１番３６号青山丸竹ビル６Ｆ,,13,103,1070062,,,,,,,2025-10-29,1,,,,,,0
2178,9010501054948,新規,0,2025-10-29,2025-10-29,株式会社Ｕｎｉｔｈ　Ｌｉｎｋ,,株式会社,東京都,台東区,台東１丁目３８－９イトーピア清州橋通ビル５Ｆ,,13,106,1100016,,,,,,,2025-10-29,1,,,,,ユニスリンク,0
2182,9010705003817,新規,0,2025-10-29,2025-10-29,一般社団法人フレームワークス,,その他の設立登記法人,東京都,品川区,上大崎１丁目５－５－２０１,,13,109,1410021,,,,,,,2025-10-29,1,,,,,フレームワークス,0
2191,9011001173148,新規,0,2025-10-29,2025-10-29,ＪＢＹ　ｂｅａｕｔｙ株式会社,,株式会社,東京都,目黒区,下目黒１丁目１番１４号コノトラビル７階,,13,110,1530064,,,,,,,2025-10-29,1,,,,,ジェイビーワイビューティー,0
2192,9011001173156,新規,0,2025-10-29,2025-10-29,ＮＹＲＫ株式会社,,株式会社,東京都,渋谷区,広尾２丁目８番１号ＪＰｎｏｉｅ広尾ＴｈｅＲｅｓｉｄｅｎｃｅＢ,,13,113,1500012,,,,,,,2025-10-29,1,,,,,エヌワイアールケイ,0
2195,9011101113755,新規,0,2025-10-29,2025-10-29,アミティエ株式会社,,株式会社,東京都,新宿区,大久保１丁目１２番３号カーサ第二新宿９０２号室,,13,104,1690072,,,,,,,2025-10-29,1,,,,,アミティエ,0
2200,9011703004443,新規,0,2025-10-29,2025-10-29,合同会社ＦＵＫＵ,,合同会社,東京都,江戸川区,平井４丁目２０番１５－１１９号,,13,123,1320035,,,,,,,2025-10-29,1,,,,,フク,0
2205,9011801046965,新規,0,2025-10-29,2025-10-29,株式会社ＳＨＩＯＴＥＣＨ,,株式会社,東京都,葛飾区,西新小岩５丁目２８番２０－１０６号,,13,122,1240025,,,,,,,2025-10-29,1,,,,,シオテック,0
2211,9013305003781,新規,0,2025-10-29,2025-10-29,一般社団法人らしさ研究所,,その他の設立登記法人,東京都,豊島区,東池袋２丁目６２番８号ＢＩＧオフィスプラザ池袋１２０６,,13,116,1700013,,,,,,,2025-10-29,1,,,,,ラシサケンキュウジョ,0
2217,9020001165559,新規,0,2025-10-29,2025-10-29,株式会社ＬＵＭＥＭＯ,,株式会社,神奈川県,川崎市中原区,苅宿４７番３５号３階,,14,133,2110022,,,,,,,2025-10-29,1,,,,,ルメモ,0
2219,9020003029563,新規,0,2025-10-29,2025-10-29,合同会社環凛,,合同会社,神奈川県,横浜市栄区,飯島町２８８２番地２９,,14,115,2440842,,,,,,,2025-10-29,1,,,,,メグリ,0
2220,9020003029695,新規,0,2025-10-29,2025-10-29,合同会社ＹＳインセプション,,合同会社,神奈川県,川崎市多摩区,菅１丁目３番２１号セーリングビル地下１階,,14,135,2140001,,,,,,,2025-10-29,1,,,,,ワイエスインセプション,0
2239,9030001169245,新規,0,2025-10-29,2025-10-29,リュウガアセット株式会社,,株式会社,埼玉県,さいたま市南区,関２丁目１１番９号,,11,108,3360038,,,,,,,2025-10-29,1,,,,,リュウガアセット,0
2240,9030001169286,新規,0,2025-10-29,2025-10-29,株式会社レギーナ,,株式会社,埼玉県,所沢市,緑町４丁目４６－１１,,11,208,3591111,,,,,,,2025-10-29,1,,,,,レギーナ,0
2241,9030001169435,新規,0,2025-10-29,2025-10-29,株式会社ライズ,,株式会社,埼玉県,川越市,大字寺尾８３８番地１９,,11,201,3501141,,,,,,,2025-10-29,1,,,,,ライズ,0
2252,9040001140849,新規,0,2025-10-29,2025-10-29,株式会社ＳＢ‐Ｌａｂ,,株式会社,千葉県,旭市,鏑木３５１０番地２,,12,215,2890511,,,,,,,2025-10-29,1,,,,,エスビーラボ,0
2253,9040001141194,新規,0,2025-10-29,2025-10-29,株式会社ＣＯＺＹ　ＴＥＣＨ,,株式会社,千葉県,佐倉市,西志津６丁目１６番１４号,,12,212,2850845,,,,,,,2025-10-29,1,,,,,コージーテック,0
2258,9040003028877,新規,0,2025-10-29,2025-10-29,合同会社誠風,,合同会社,千葉県,匝瑳市,山桑９１４番地,,12,235,2892105,,,,,,,2025-10-29,1,,,,,セイフウ,0
2259,9040003028885,新規,0,2025-10-29,2025-10-29,合同会社前田企画,,合同会社,千葉県,木更津市,清見台東１丁目２３番８号,,12,206,2920041,,,,,,,2025-10-29,1,,,,,マエダキカク,0
2261,9050001057150,新規,0,2025-10-29,2025-10-29,株式会社九三インテック,,株式会社,茨城県,つくば市,並木２丁目８番地４９,,08,220,3050044,,,,,,,2025-10-29,1,,,,,キュウサンインテック,0
2264,9070001043495,新規,0,2025-10-29,2025-10-29,株式会社ＭＩＲＡＩＣ,,株式会社,群馬県,伊勢崎市,北千木町１４３２番地２,,10,204,3720032,,,,,,,2025-10-29,1,,,,,ミライク,0
2266,9080101025871,新規,0,2025-10-29,2025-10-29,ＭＥＫ株式会社,,株式会社,静岡県,富士宮市,淀平町８４３番地の２サンリット淀平Ｂ－１０２,,22,207,4180052,,,,,,,2025-10-29,1,,,,,エムイーケー,0
2288,9120001281528,新規,0,2025-10-29,2025-10-29,株式会社アメノワ,,株式会社,大阪府,大阪市北区,梅田１丁目１番３号大阪駅前第３ビル２９階１－１－１号室,,27,127,5300001,,,,,,,2025-10-29,1,,,,,アメノワ,0
2289,9120001281577,新規,0,2025-10-29,2025-10-29,株式会社ＳＴＥＰ,,株式会社,大阪府,大阪市中央区,南船場３丁目２番２２号おおきに南船場ビル２０５号,,27,128,5420081,,,,,,,2025-10-29,1,,,,,ステップ,0
2291,9120003031088,新規,0,2025-10-29,2025-10-29,合同会社Ｓｏｌａｎａ,,合同会社,大阪府,大阪市東住吉区,鷹合２丁目１３番２０号,,27,121,5460014,,,,,,,2025-10-29,1,,,,,ソラーナ,0
2293,9120101072703,新規,0,2025-10-29,2025-10-29,株式会社ｏｎｅ　ｇａｒｄｅｎ,,株式会社,大阪府,河内長野市,清見台５丁目５番２０号,,27,216,5860043,,,,,,,2025-10-29,1,,,,,ワンガーデン,0
2294,9120105010080,新規,0,2025-10-29,2025-10-29,一般社団法人センターサークル,,その他の設立登記法人,大阪府,堺市西区,堀上緑町２丁２３番１０号,,27,144,5938305,,,,,,,2025-10-29,1,,,,,センターサークル,0
2306,9130003010883,新規,0,2025-10-29,2025-10-29,合同会社ミライノネイロ,,合同会社,京都府,京都市北区,小山下内河原町３２番地の４,,26,101,6038132,,,,,,,2025-10-29,1,,,,,ミライノネイロ,0
2315,9140001140566,新規,0,2025-10-29,2025-10-29,株式会社ＧＴパートナーズ,,株式会社,兵庫県,神戸市中央区,加納町６丁目３番１－８０７号,,28,110,6500001,,,,,,,2025-10-29,1,,,,,ジーティーパートナーズ,0
2316,9140001140582,新規,0,2025-10-29,2025-10-29,エステーパーク株式会社,,株式会社,兵庫県,姫路市,玉手２丁目７５番地１８,,28,201,6700985,,,,,,,2025-10-29,1,,,,,エステーパーク,0
2319,9150001028505,新規,0,2025-10-29,2025-10-29,株式会社末廣ビル,,株式会社,奈良県,奈良市,下三条町１０番地の１,,29,201,6308236,,,,,,,2025-10-29,1,,,,,スエヒロビル,0
2320,9160001027167,新規,0,2025-10-29,2025-10-29,株式会社ＫＡＮＡＭＥ,,株式会社,滋賀県,大津市,春日町１番５－１３１８号,,25,201,5200055,,,,,,,2025-10-29,1,,,,,カナメ,0
2326,9180001169016,新規,0,2025-10-29,2025-10-29,株式会社Ｓａｋｕｒａｍｂｏ　Ｇｌｏｂａｌ　Ｔｒａｄｉｎｇ,,株式会社,愛知県,名古屋市守山区,小幡中１丁目３番２３号１０６号室,,23,113,4630013,,,,,,,2025-10-29,1,,,,,サクランボグローバルトレーディング,0
2327,9180003029291,新規,0,2025-10-29,2025-10-29,ハジマリノモト合同会社,,合同会社,愛知県,愛知郡東郷町,大字和合字林清池２番地３,,23,302,4700153,,,,,,,2025-10-29,1,,,,,ハジマリノモト,0
2328,9180003029309,新規,0,2025-10-29,2025-10-29,ＨＡＹＡ　ＴＲＡＤＩＮＧ合同会社,,合同会社,愛知県,春日井市,春見町８０‐１,,23,206,4860837,,,,,,,2025-10-29,1,,,,,ハヤトレーディング,0
2334,9200001044380,新規,0,2025-10-29,2025-10-29,株式会社ＲＥＢＥＬ４,,株式会社,岐阜県,本巣市,随原５８６番地１,,21,218,5010416,,,,,,,2025-10-29,1,,,,,レベルフォー,0
2352,9290001111833,新規,0,2025-10-29,2025-10-29,株式会社Ａｑｕａｌｉｎａ,,株式会社,福岡県,福岡市南区,大橋１丁目２３番２３号ロワールマンション大橋２、２０１号,,40,134,8150033,,,,,,,2025-10-29,1,,,,,アクアリーナ,0
2353,9290003017566,新規,0,2025-10-29,2025-10-29,合同会社わじろコンサルティング,,合同会社,福岡県,福岡市東区,和白５丁目１番２０ー９０８号,,40,131,8110202,,,,,,,2025-10-29,1,,,,,ワジロコンサルティング,0
2354,9290801031982,新規,0,2025-10-29,2025-10-29,株式会社タスキカンパニー,,株式会社,福岡県,北九州市八幡西区,町上津役西１丁目１７番２号,,40,109,8070074,,,,,,,2025-10-29,1,,,,,タスキカンパニー,0
2359,9320003004809,新規,0,2025-10-29,2025-10-29,合同会社介護ラボ,,合同会社,大分県,由布市,挾間町谷７２３番地２２,,44,213,8795531,,,,,,,2025-10-29,1,,,,,カイゴラボ,0
2360,9330001033701,新規,0,2025-10-29,2025-10-29,株式会社わさもん,,株式会社,熊本県,熊本市中央区,新町４丁目１番１６号,,43,101,8600004,,,,,,,2025-10-29,1,,,,,ワサモン,0
2362,9350001019789,新規,0,2025-10-29,2025-10-29,株式会社Ｌｉｇｈｔｈｏｕｓｅ,,株式会社,宮崎県,東諸県郡国富町,大字深年３１５１番地２,,45,382,8801224,,,,,,,2025-10-29,1,,,,,ライトハウス,0
2367,9370003007352,新規,0,2025-10-29,2025-10-29,合同会社Ｒｉｎｏｎｏ,,合同会社,宮城県,仙台市若林区,成田町９８－６,,04,103,9840056,,,,,,,2025-10-29,1,,,,,リノノ,0
2371,9400005008527,新規,0,2025-10-29,2025-10-29,一般社団法人いわてグリーフ・ネットワーク,,その他の設立登記法人,岩手県,盛岡市,松園２丁目３２－１２,,03,201,0200107,,,,,,,2025-10-29,1,,,,,イワテグリーフネットワーク,0
2372,9410001014305,新規,0,2025-10-29,2025-10-29,株式会社ＮＥＸＵＳＯＮＥ,,株式会社,秋田県,大館市,清水１丁目３番３７号アルティビル１Ｆ,,05,204,0170046,,,,,,,2025-10-29,1,,,,,ネクサスワン,0
2381,9470001020958,新規,0,2025-10-29,2025-10-29,株式会社高橋青果,,株式会社,香川県,観音寺市,木之郷町１０９３番地１,,37,205,7680051,,,,,,,2025-10-29,1,,,,,タカハシセイカ,0
2385,9700150053974,新規,0,2025-10-29,2015-10-09,岡山県医療労働組合連合会,,その他,岡山県,岡山市北区,下伊福西町１番５３号,,33,101,7000054,,,,,,,2015-10-09,1,,,,,オカヤマケンイリヨウロウドウクミアイレンゴウカイ,0
