sequenceNumber,corporateNumber,process,correct,updateDate,changeDate,name,nameImageId,kind,prefectureName,cityName,streetNumber,addressImageId,prefectureCode,cityCode,postCode,addressOutside,addressOutsideImageId,closeDate,closeCause,successorCorporateNumber,changeCause,assignmentDate,latest,enName,enPrefectureName,enCityName,enAddressOutside,furigana,hihyoji
10,1010001240262,新規,0,2023-11-24,2023-11-24,ＥＥＯ株式会社,,株式会社,東京都,中央区,日本橋室町１丁目１１番１２号日本橋水野ビル７階,,13,102,1030022,,,,,,,2023-11-24,1,,,,,イーイーオー,0
11,1010001240304,新規,0,2023-11-24,2023-11-24,アペックステック株式会社,,株式会社,東京都,千代田区,鍛冶町２丁目７番４号ヨウコービル５Ｆ,,13,101,1010044,,,,,,,2023-11-24,1,,,,,アペックステック,0
29,1010501051416,新規,0,2023-11-24,2023-11-24,日本Ｘ‐ＭＡＸ株式会社,,株式会社,東京都,台東区,松が谷２丁目９番１－４０１号,,13,106,1110036,,,,,,,2023-11-24,1,,,,,ニホンエックスマックス,0
30,1010501051424,新規,0,2023-11-24,2023-11-24,株式会社Ｆａｒｍ,,株式会社,東京都,台東区,浅草橋５丁目２番３号鈴和ビル２Ｆ,,13,106,1110053,,,,,,,2023-11-24,1,,,,,ファーム,0
35,1010601064202,新規,0,2023-11-24,2023-11-24,ＭＯＮＩＫＡ株式会社,,株式会社,東京都,江東区,豊洲５丁目１番１３－４７０７号,,13,108,1350061,,,,,,,2023-11-24,1,,,,,モニカ,0
38,1010701045168,新規,0,2023-11-24,2023-11-24,株式会社ＢＬＵＢＥＬ・ＩＥＢＥＬ,,株式会社,東京都,品川区,上大崎３丁目１－３０－２５０４,,13,109,1410021,,,,,,,2023-11-24,1,,,,,ブルベルイエベル,0
40,1010703006960,新規,0,2023-11-24,2023-11-24,合同会社白糠開発,,合同会社,東京都,品川区,小山４丁目１番６号,,13,109,1420062,,,,,,,2023-11-24,1,,,,,シラヌカカイハツ,0
47,1011001158362,新規,0,2023-11-24,2023-11-24,株式会社先端教育ＩＣＴ推進機構,,株式会社,東京都,渋谷区,渋谷２丁目１９－１５宮益坂ビルディング６０９,,13,113,1500002,,,,,,,2023-11-24,1,,,,,センタンキョウイクアイシーティースイシンキコウ,0
48,1011001158387,新規,0,2023-11-24,2023-11-24,株式会社アンドアール建築設計,,株式会社,東京都,渋谷区,代々木４丁目２３－５代々木スカイハイツ３１０号室,,13,113,1510053,,,,,,,2023-11-24,1,,,,,アンドアールケンチクセッケイ,0
49,1011001158404,新規,0,2023-11-24,2023-11-24,株式会社リテンション,,株式会社,東京都,渋谷区,本町４丁目７番２号,,13,113,1510071,,,,,,,2023-11-24,1,,,,,リテンション,0
50,1011001158412,新規,0,2023-11-24,2023-11-24,ｏｈｐｎｅｒ株式会社,,株式会社,東京都,渋谷区,恵比寿１丁目３４番１１－７１５号,,13,113,1500013,,,,,,,2023-11-24,1,,,,,オープナー,0
51,1011001158429,新規,0,2023-11-24,2023-11-24,Ａｌａｄｄｉｎ株式会社,,株式会社,東京都,渋谷区,神泉町１０番１５号アネックス神泉３０１,,13,113,1500045,,,,,,,2023-11-24,1,,,,,アラジン,0
52,1011003017970,新規,0,2023-11-24,2023-11-24,合同会社ＨＳＮＣ,,合同会社,東京都,渋谷区,代々木１丁目２番９－２０５号,,13,113,1510053,,,,,,,2023-11-24,1,,,,,エイチエスエヌシー,0
63,1011501030038,新規,0,2023-11-24,2023-11-24,株式会社ノスビレッジ,,株式会社,東京都,北区,赤羽１丁目４０番２－５０２号,,13,117,1150045,,,,,,,2023-11-24,1,,,,,ノスビレッジ,0
64,1011601027314,新規,0,2023-11-24,2023-11-24,株式会社ＳＨＩＭＺＡＫ,,株式会社,東京都,練馬区,石神井台２丁目８番４０号,,13,120,1770045,,,,,,,2023-11-24,1,,,,,シムザック,0
68,1011801043400,新規,0,2023-11-24,2023-11-24,株式会社センタービーチ,,株式会社,東京都,足立区,中央本町１丁目１３番１０－２０１号,,13,121,1200011,,,,,,,2023-11-24,1,,,,,センタービーチ,0
69,1011801043409,新規,0,2023-11-24,2023-11-24,株式会社ＵＥ・Ｃｒｅａｔｅ,,株式会社,東京都,足立区,扇１丁目２１番１５号,,13,121,1230873,,,,,,,2023-11-24,1,,,,,ユーイークリエイト,0
72,1012701017948,新規,0,2023-11-24,2023-11-24,株式会社ＫＯＵＥＩ,,株式会社,東京都,小平市,仲町８６番地の３１フォーライフ小平１０８号,,13,211,1870042,,,,,,,2023-11-24,1,,,,,コウエイ,0
75,1012801022781,新規,0,2023-11-24,2023-11-24,株式会社トライム,,株式会社,東京都,立川市,錦町１丁目１７番１３号高野ビル２Ｆ,,13,202,1900022,,,,,,,2023-11-24,1,,,,,トライム,0
79,1013301051676,新規,0,2023-11-24,2023-11-24,株式会社ＳＡＭＵ,,株式会社,東京都,豊島区,池袋２丁目２３番４号池袋見真ビル３０４,,13,116,1710014,,,,,,,2023-11-24,1,,,,,サム,0
83,1020001154627,新規,0,2023-11-24,2023-11-24,株式会社リンクス,,株式会社,神奈川県,川崎市中原区,井田中ノ町７番３５号Ｒ－ＢＲＩＣＫ２０３,,14,133,2110034,,,,,,,2023-11-24,1,,,,,リンクス,0
86,1020005016195,新規,0,2023-11-24,2023-11-24,社会保険労務士法人アクセルパートナーズ,,その他の設立登記法人,神奈川県,川崎市中原区,小杉町３丁目６００番地,,14,133,2110063,,,,,,,2023-11-24,1,,,,,アクセルパートナーズ,0
88,1021001080805,新規,0,2023-11-24,2023-11-24,株式会社さとる設備,,株式会社,神奈川県,足柄下郡湯河原町,中央３丁目１１番地１６,,14,384,2590301,,,,,,,2023-11-24,1,,,,,サトルセツビ,0
89,1021001080813,新規,0,2023-11-24,2023-11-24,株式会社ＬＡＨＡＩＮＡ　Ｍｏｂｉｌｉｔｙ,,株式会社,神奈川県,愛甲郡愛川町,中津１７３１番地の７,,14,401,2430303,,,,,,,2023-11-24,1,,,,,ラハイナモビリティ,0
90,1021001080821,新規,0,2023-11-24,2023-11-24,株式会社Ｕ’ｓ企画,,株式会社,神奈川県,厚木市,温水１９９２－１４,,14,212,2430033,,,,,,,2023-11-24,1,,,,,ユースキカク,0
100,1030001157331,新規,0,2023-11-24,2023-11-24,株式会社クールテクニカ,,株式会社,埼玉県,和光市,白子３丁目１０番７９号,,11,229,3510101,,,,,,,2023-11-24,1,,,,,クールテクニカ,0
115,1040001131046,新規,0,2023-11-24,2023-11-24,株式会社ファーストアップ,,株式会社,千葉県,山武市,蓮沼ハの１９７２番地５,,12,237,2891806,,,,,,,2023-11-24,1,,,,,ファーストアップ,0
116,1040001131054,新規,0,2023-11-24,2023-11-24,株式会社四葉設備,,株式会社,千葉県,八千代市,緑が丘西７丁目２４番地１エピナールＩＶ１０４,00132774,12,221,2760040,,,,,,,2023-11-24,1,,,,,ヨツバセツビ,0
117,1040001131062,新規,0,2023-11-24,2023-11-24,株式会社ピエス,,株式会社,千葉県,千葉市中央区,花輪町４６番地６４,,12,101,2600803,,,,,,,2023-11-24,1,,,,,ピエス,0
118,1040001131070,新規,0,2023-11-24,2023-11-24,株式会社ＫＡＭホールディングス,,株式会社,千葉県,八千代市,大和田新田４６９番地２３２,,12,221,2760046,,,,,,,2023-11-24,1,,,,,ケイエイエムホールディングス,0
119,1040001131087,新規,0,2023-11-24,2023-11-24,株式会社Ｒｅ．クエスト,,株式会社,千葉県,大網白里市,南今泉４７８４－１,,12,239,2993202,,,,,,,2023-11-24,1,,,,,リクエスト,0
120,1040001131095,新規,0,2023-11-24,2023-11-24,株式会社八兵衛,,株式会社,千葉県,千葉市若葉区,若松町５０２番地１５２,,12,104,2640021,,,,,,,2023-11-24,1,,,,,ハチベエ,0
128,1040003023786,新規,0,2023-11-24,2023-11-24,合同会社新町企業,,合同会社,千葉県,銚子市,新町３５５番地３,,12,202,2880825,,,,,,,2023-11-24,1,,,,,シンマチキギョウ,0
133,1060001036573,新規,0,2023-11-24,2023-11-24,株式会社コンティネーション,,株式会社,栃木県,那須塩原市,下永田２丁目１０４４番地３８カームハウスＡ１０２,,09,213,3292712,,,,,,,2023-11-24,1,,,,,コンティネーション,0
134,1060001036581,新規,0,2023-11-24,2023-11-24,株式会社Ｍａｋｅ　Ｉｍｐａｃｔ,,株式会社,栃木県,宇都宮市,城南３丁目１１番６号,,09,201,3210117,,,,,,,2023-11-24,1,,,,,メイクインパクト,0
138,1080103002926,新規,0,2023-11-24,2023-11-24,合同会社Ａｓｐｉ,,合同会社,静岡県,富士市,中之郷３１４－１,,22,210,4213306,,,,,,,2023-11-24,1,,,,,アスピ,0
157,1120001260043,新規,0,2023-11-24,2023-11-24,株式会社トレフル,,株式会社,大阪府,大阪市中央区,南船場１丁目６番１１号,,27,128,5420081,,,,,,,2023-11-24,1,,,,,トレフル,0
158,1120001260068,新規,0,2023-11-24,2023-11-24,Ｐｅｎｇｃｈｅｎ株式会社,,株式会社,大阪府,大阪市城東区,野江３丁目２７－７野江１番館５０７号室,,27,118,5360006,,,,,,,2023-11-24,1,,,,,ボンチェン,0
159,1120001260101,新規,0,2023-11-24,2023-11-24,天嘉商事株式会社,,株式会社,大阪府,大阪市生野区,鶴橋３丁目１－３８－９０７,,27,116,5440031,,,,,,,2023-11-24,1,,,,,テンカショウジ,0
160,1120001260118,新規,0,2023-11-24,2023-11-24,株式会社フレックスレント,,株式会社,大阪府,大阪市平野区,瓜破南２丁目４番１３号,,27,126,5470023,,,,,,,2023-11-24,1,,,,,フレックスレント,0
161,1120001260150,新規,0,2023-11-24,2023-11-24,美嶺株式会社,,株式会社,大阪府,大阪市生野区,新今里５丁目１番３号デイルーチェ上町ＥＡＳＴ３０１号室,,27,116,5440001,,,,,,,2023-11-24,1,,,,,ミレイ,0
165,1120101068584,新規,0,2023-11-24,2023-11-24,株式会社Ｎ　ＭＥＤＩＣＡＬＬＹ,,株式会社,大阪府,富田林市,小金台４丁目１４番１４号,,27,214,5840083,,,,,,,2023-11-24,1,,,,,エヌメディカリー,0
168,1120103005544,新規,0,2023-11-24,2023-11-24,合同会社とんぺえ,,合同会社,大阪府,藤井寺市,藤ケ丘３丁目１１番７号,,27,226,5830017,,,,,,,2023-11-24,1,,,,,トンペエ,0
172,1120901048389,新規,0,2023-11-24,2023-11-24,株式会社オフィスエム,,株式会社,大阪府,吹田市,新芦屋上２－６０－１５１６,00132772,27,205,5650804,,,,,,,2023-11-24,1,,,,,オフィスエム,0
173,1120901048397,新規,0,2023-11-24,2023-11-24,株式会社ＣＬＥＲＥＡ,,株式会社,大阪府,吹田市,豊津町１番４１号タケダビル２－１Ｆ,,27,205,5640051,,,,,,,2023-11-24,1,,,,,クレリア,0
174,1120903004927,新規,0,2023-11-24,2023-11-24,合同会社サカモトウェブ総研,,合同会社,大阪府,豊中市,新千里南町２丁目２番１３－７０１号,,27,203,5600084,,,,,,,2023-11-24,1,,,,,サカモトウェブソウケン,0
176,1130001075779,新規,0,2023-11-24,2023-11-24,株式会社ＲＥＶＩＶＡＬ,,株式会社,京都府,京都市下京区,小坂町１番地１,,26,106,6008821,,,,,,,2023-11-24,1,,,,,リバイバル,0
178,1140001132447,新規,0,2023-11-24,2023-11-24,株式会社ウェストヒルズグローバル,,株式会社,兵庫県,尼崎市,塚口町１丁目１８番２０号,,28,202,6610002,,,,,,,2023-11-24,1,,,,,ウェストヒルズグローバル,0
179,1140001132471,新規,0,2023-11-24,2023-11-24,株式会社にく全,,株式会社,兵庫県,神戸市須磨区,大黒町１丁目２－１２エスポワール板宿１Ｆ,,28,107,6540022,,,,,,,2023-11-24,1,,,,,ニクゼン,0
188,1160001025525,新規,0,2023-11-24,2023-11-24,滋賀テレコム住宅販売株式会社,,株式会社,滋賀県,大津市,茶が崎４番３号,,25,201,5200023,,,,,,,2023-11-24,1,,,,,シガテレコムジュウタクハンバイ,0
191,1170003001952,新規,0,2023-11-24,2023-11-24,合同会社ＳＫ,,合同会社,和歌山県,和歌山市,秋月９８番地１４,,30,201,6408322,,,,,,,2023-11-24,1,,,,,エスケー,0
202,1200001041922,新規,0,2023-11-24,2023-11-24,株式会社ＨＡＳＳＡＮ　ＴＲＡＤＩＮＧ,,株式会社,岐阜県,美濃加茂市,加茂野町今泉１５４７番地２４コーポモナリザ１０３号室,,21,211,5050052,,,,,,,2023-11-24,1,,,,,ハッサントレーディング,0
220,1290001103813,新規,0,2023-11-24,2023-11-24,株式会社メールアンドデリバリー,,株式会社,福岡県,福岡市博多区,博多駅前２丁目１９番１７号,,40,132,8120011,,,,,,,2023-11-24,1,,,,,メールアンドデリバリー,0
226,1290005019196,新規,0,2023-11-24,2023-11-24,ＮＰＯ法人糸島九州ちくわの会,,その他の設立登記法人,福岡県,糸島市,前原中央２丁目１３番３号,,40,230,8191116,,,,,,,2023-11-24,1,,,,,,0
227,1290801030067,新規,0,2023-11-24,2023-11-24,株式会社ファミリエ,,株式会社,福岡県,北九州市小倉北区,今町２丁目１１番３号,,40,106,8030862,,,,,,,2023-11-24,1,,,,,ファミリエ,0
231,1320001020154,新規,0,2023-11-24,2023-11-24,株式会社ピーエムラボ,,株式会社,大分県,大分市,大字三佐７８４番地の１,,44,201,8700108,,,,,,,2023-11-24,1,,,,,ピーエムラボ,0
237,1330001031506,新規,0,2023-11-24,2023-11-24,株式会社須崎屋,,株式会社,熊本県,熊本市東区,広木町２９番４３号,,43,102,8620906,,,,,,,2023-11-24,1,,,,,スザキヤ,0
238,1330003010094,新規,0,2023-11-24,2023-11-24,合同会社７３アンジュ,,合同会社,熊本県,熊本市中央区,城東町５－３７、４階,,43,101,8600846,,,,,,,2023-11-24,1,,,,,シチサンアンジュ,0
245,1360001032848,新規,0,2023-11-24,2023-11-24,株式会社ピックサポート沖縄,,株式会社,沖縄県,那覇市,具志３丁目３２番１８号,,47,201,9010146,,,,,,,2023-11-24,1,,,,,ピックサポートオキナワ,0
247,1370001050659,新規,0,2023-11-24,2023-11-24,株式会社ＡＲＴＥ,,株式会社,宮城県,仙台市泉区,館５丁目２０番地の３,,04,105,9813214,,,,,,,2023-11-24,1,,,,,アルテ,0
252,1370003006386,新規,0,2023-11-24,2023-11-24,合同会社ポリッシュ,,合同会社,宮城県,仙台市泉区,泉中央４丁目２番地の２アルコート泉中央６０４,,04,105,9813133,,,,,,,2023-11-24,1,,,,,ポリッシュ,0
256,1380001034149,新規,0,2023-11-24,2023-11-24,株式会社影山工業,,株式会社,福島県,いわき市,金山町汐見台８６－１,,07,204,9748211,,,,,,,2023-11-24,1,,,,,カゲヤマコウギョウ,0
257,1390001017425,新規,0,2023-11-24,2023-11-24,株式会社Ｍ＆Ｍ,,株式会社,山形県,飽海郡遊佐町,遊佐字石田１９番地の８,,06,461,9998301,,,,,,,2023-11-24,1,,,,,エムアンドエム,0
260,1420003002834,新規,0,2023-11-24,2023-11-24,合同会社ＴＹ　ｅｒａ　ａｒｒｉｖａｌ,,合同会社,青森県,平川市,大字原田字稲元３５番地８,,02,210,0360100,,,,,,,2023-11-24,1,,,,,ティーワイエラアライバル,0
262,1470001019909,新規,0,2023-11-24,2023-11-24,株式会社フジタＮＴＥＣ１,,株式会社,香川県,三豊市,三野町下高瀬１５１１番地１,,37,208,7670032,,,,,,,2023-11-24,1,,,,,フジタエヌテックワン,0
263,1470001019917,新規,0,2023-11-24,2023-11-24,ＧｒｏｗｔｈＭｉｎｄ＆Ｐｒａｃｔｉｃｅｓ株式会社,,株式会社,香川県,高松市,天神前１０番５号高松セントラルスカイビルディング３Ｆｓｏｕｔｈ,,37,201,7600018,,,,,,,2023-11-24,1,,,,,,0
265,1500001025325,新規,0,2023-11-24,2023-11-24,ファンエステート株式会社,,株式会社,愛媛県,松山市,枝松４丁目３番３号さいきビル１－Ｂ,,38,201,7900962,,,,,,,2023-11-24,1,,,,,ファンエステート,0
266,1500005008656,新規,0,2023-11-24,2023-11-24,医療法人おかだ歯科クリニック,,その他の設立登記法人,愛媛県,伊予郡松前町,大字上高柳２２６番地６,,38,401,7913142,,,,,,,2023-11-24,1,,,,,オカダシカクリニック,0
280,2010001240261,新規,0,2023-11-24,2023-11-24,株式会社四月の花,,株式会社,東京都,中央区,日本橋兜町５番１号兜町第一平和ビル３階,,13,102,1030026,,,,,,,2023-11-24,1,,,,,シガツノハナ,0
281,2010001240294,新規,0,2023-11-24,2023-11-24,十里株式会社,,株式会社,東京都,千代田区,神田多町２丁目９番地１２至徳堂ビル,,13,101,1010046,,,,,,,2023-11-24,1,,,,,ジュウリ,0
282,2010001240328,新規,0,2023-11-24,2023-11-24,株式会社フューチャーリンクラボ,,株式会社,東京都,中央区,日本橋室町１丁目１１番１２号日本橋水野ビル７階,,13,102,1030022,,,,,,,2023-11-24,1,,,,,フューチャーリンクラボ,0
292,2010401178556,新規,0,2023-11-24,2023-11-24,株式会社ウカノミタマ,,株式会社,東京都,港区,芝公園２丁目１１番１－２５０２号,,13,103,1050011,,,,,,,2023-11-24,1,,,,,,0
293,2010401178696,新規,0,2023-11-24,2023-11-24,テノン・ホールディングス株式会社,,株式会社,東京都,港区,白金台３丁目１９番１号興和白金台ビル３階,,13,103,1080071,,,,,,,2023-11-24,1,,,,,テノンホールディングス,0
294,2010401178721,新規,0,2023-11-24,2023-11-24,株式会社ＯＴＮ,,株式会社,東京都,港区,新橋４丁目５－１アーバン新橋ビル８階,,13,103,1050004,,,,,,,2023-11-24,1,,,,,オーティーエヌ,0
302,2010701045167,新規,0,2023-11-24,2023-11-24,株式会社ＳＴＡＮＰＩＡ,,株式会社,東京都,品川区,西五反田５丁目６番２９号中一ビル２０２,,13,109,1410031,,,,,,,2023-11-24,1,,,,,スタンピア,0
307,2010901054240,新規,0,2023-11-24,2023-11-24,マルッタ株式会社,,株式会社,東京都,世田谷区,深沢２丁目１番７－２０５号,,13,112,1580081,,,,,,,2023-11-24,1,,,,,マルッタ,0
308,2010903008608,新規,0,2023-11-24,2023-11-24,合同会社Ｋａｂｏ,,合同会社,東京都,世田谷区,松原５丁目１３番１９号,,13,112,1560043,,,,,,,2023-11-24,1,,,,,カボ,0
312,2011001158337,新規,0,2023-11-24,2023-11-24,株式会社Ｂｕｌｚ,,株式会社,東京都,目黒区,自由が丘２丁目１６番１２号ＲＪ３,,13,110,1520035,,,,,,,2023-11-24,1,,,,,ブルズ,0
313,2011001158361,新規,0,2023-11-24,2023-11-24,株式会社アドバンス,,株式会社,東京都,渋谷区,恵比寿２丁目８番４号,,13,113,1500013,,,,,,,2023-11-24,1,,,,,アドバンス,0
314,2011001158378,新規,0,2023-11-24,2023-11-24,株式会社Ｃｏｄｅ　Ｂｅｅ,,株式会社,東京都,渋谷区,神宮前６丁目２３番４号桑野ビル２階,,13,113,1500001,,,,,,,2023-11-24,1,,,,,コードビー,0
315,2011001158386,新規,0,2023-11-24,2023-11-24,株式会社ファイブス,,株式会社,東京都,目黒区,中央町１丁目４番５－４０３号ベルハイム学芸大学,,13,110,1520001,,,,,,,2023-11-24,1,,,,,ファイブス,0
316,2011001158394,新規,0,2023-11-24,2023-11-24,株式会社おうちの窓口,,株式会社,東京都,渋谷区,本町６丁目１９番６号－２０１,,13,113,1510071,,,,,,,2023-11-24,1,,,,,オウチノマドグチ,0
317,2011001158403,新規,0,2023-11-24,2023-11-24,株式会社ｃｈｉｉｉ,,株式会社,東京都,渋谷区,恵比寿西２丁目８番４号ＥＸ恵比寿西ビル５階,,13,113,1500021,,,,,,,2023-11-24,1,,,,,チイ,0
320,2011003017978,新規,0,2023-11-24,2023-11-24,Ｐｒｉｍｏ　Ｖｅｒｅ合同会社,,合同会社,東京都,渋谷区,神宮前３丁目１番２７―６０１号,,13,113,1500001,,,,,,,2023-11-24,1,,,,,プリーモヴェーレ,0
321,2011003017986,新規,0,2023-11-24,2023-11-24,合同会社Ｌｏｃｏ,,合同会社,東京都,渋谷区,渋谷２丁目１９－１５宮益坂ビルディング６０９,,13,113,1500002,,,,,,,2023-11-24,1,,,,,ロコ,0
322,2011005010287,新規,0,2023-11-24,2023-11-24,ＬＤＨ一般社団法人,,その他の設立登記法人,東京都,渋谷区,神宮前１丁目５番８号,,13,113,1500001,,,,,,,2023-11-24,1,,,,,エルディーエイチ,0
325,2011101105206,新規,0,2023-11-24,2023-11-24,株式会社ｔａｋｕｓ,,株式会社,東京都,新宿区,西新宿３丁目３番１３号西新宿水間ビル６階,,13,104,1600023,,,,,,,2023-11-24,1,,,,,タクス,0
326,2011103013778,新規,0,2023-11-24,2023-11-24,ＭＡＹＡ・ＣＯＲＰＯＲＡＴＩＯＮ合同会社,,合同会社,東京都,新宿区,北新宿１丁目１０番７号ハイム町田３０１,,13,104,1690074,,,,,,,2023-11-24,1,,,,,マヤコーポレーション,0
334,2011601027313,新規,0,2023-11-24,2023-11-24,株式会社ＴＯＤＡＴＥ,,株式会社,東京都,練馬区,大泉町２丁目２４番１５号,,13,120,1780062,,,,,,,2023-11-24,1,,,,,トダテ,0
342,2012801022780,新規,0,2023-11-24,2023-11-24,株式会社ＪＱＷＳ　ＪＡＰＡＮ,,株式会社,東京都,立川市,緑町７番地の２－６１１号,,13,202,1900014,,,,,,,2023-11-24,1,,,,,ジェイキュウダブリュウエスジャパン,0
347,2013301051642,新規,0,2023-11-24,2023-11-24,金谷株式会社,,株式会社,東京都,豊島区,北大塚３丁目２５番１１号アサヒ大塚ビル２０１号,,13,116,1700004,,,,,,,2023-11-24,1,,,,,カナヤ,0
349,2020001154618,新規,0,2023-11-24,2023-11-24,株式会社ケイアイ商事,,株式会社,神奈川県,横浜市港南区,上永谷２丁目１番１４号,,14,111,2330012,,,,,,,2023-11-24,1,,,,,ケイアイショウジ,0
354,2021001080812,新規,0,2023-11-24,2023-11-24,株式会社ＢｌｕｅＭ,,株式会社,神奈川県,藤沢市,鵠沼花沢町一丁目１番地藤沢駅前ハイム５０２号室,,14,205,2510023,,,,,,,2023-11-24,1,,,,,ブルーム,0
355,2021001080820,新規,0,2023-11-24,2023-11-24,株式会社ｗｉｌｌ,,株式会社,神奈川県,平塚市,高村２６番地７高村団地４３－４０３号,,14,203,2540914,,,,,,,2023-11-24,1,,,,,ウィル,0
358,2021003013828,新規,0,2023-11-24,2023-11-24,Ａｌｋｉｒｅ＆Ｃｏ．合同会社,,合同会社,神奈川県,鎌倉市,鎌倉山２丁目１８番３５号,,14,204,2480031,,,,,,,2023-11-24,1,,,,,アルカイアアンドカンパニー,0
364,2030001157297,新規,0,2023-11-24,2023-11-24,株式会社エイトピース,,株式会社,埼玉県,行田市,大字前谷８６１番地,,11,206,3610038,,,,,,,2023-11-24,1,,,,,エイトピース,0
374,2040001130955,新規,0,2023-11-24,2023-11-24,斉和貿易株式会社,,株式会社,千葉県,千葉市若葉区,中田町２４４７番地,,12,104,2650043,,,,,,,2023-11-24,1,,,,,キワボウエキ,0
375,2040001131020,新規,0,2023-11-24,2023-11-24,株式会社インライト,,株式会社,千葉県,千葉市中央区,院内１丁目１７番１号ＳｕｎＣｒｅｓｔＩｚｍｉｒ４０２号,,12,101,2600018,,,,,,,2023-11-24,1,,,,,インライト,0
376,2040001131053,新規,0,2023-11-24,2023-11-24,天翼株式会社,,株式会社,千葉県,成田市,三里塚光ケ丘１番地１３４６,,12,211,2860117,,,,,,,2023-11-24,1,,,,,テンヨク,0
377,2040001131061,新規,0,2023-11-24,2023-11-24,株式会社ＩｎｔｅｒｉｏｒＫ,,株式会社,千葉県,印旛郡酒々井町,本佐倉４９７番地２,,12,322,2850926,,,,,,,2023-11-24,1,,,,,インテリアケイ,0
378,2040001131078,新規,0,2023-11-24,2023-11-24,株式会社ＫＡＮＯＡ,,株式会社,千葉県,山武郡横芝光町,栗山４４４９番地１,,12,410,2891733,,,,,,,2023-11-24,1,,,,,カノア,0
379,2040001131086,新規,0,2023-11-24,2023-11-24,株式会社Ｃｒａｆｔ　Ｂｕｉｌｄ,,株式会社,千葉県,東金市,田間１丁目３番地３メゾンベールＢ－２０３,,12,213,2830005,,,,,,,2023-11-24,1,,,,,クラフトビルド,0
380,2040001131094,新規,0,2023-11-24,2023-11-24,株式会社ｂｅｌｌｖｉｅ,,株式会社,千葉県,千葉市中央区,新田町８－１３カーサレジオ１０１,,12,101,2600027,,,,,,,2023-11-24,1,,,,,ベルビー,0
382,2040003023777,新規,0,2023-11-24,2023-11-24,合同会社Ｌｉｌａｃ,,合同会社,千葉県,千葉市花見川区,幕張本郷１丁目１４番１３号５０２,,12,102,2620033,,,,,,,2023-11-24,1,,,,,ライラック,0
383,2040003023785,新規,0,2023-11-24,2023-11-24,合同会社エステート湯浅,,合同会社,千葉県,松戸市,日暮１丁目２番地９－３０１号,,12,207,2702253,,,,,,,2023-11-24,1,,,,,エステートユアサ,0
384,2040003023802,新規,0,2023-11-24,2023-11-24,ＣＥＹＬＯＮ　ＢＡＳＥ合同会社,,合同会社,千葉県,千葉市美浜区,稲毛海岸４丁目７番１７号２階,,12,106,2610005,,,,,,,2023-11-24,1,,,,,セイロンベース,0
388,2060001036580,新規,0,2023-11-24,2023-11-24,株式会社ポパイ,,株式会社,栃木県,栃木市,木野地町３２６番地２,,09,203,3280122,,,,,,,2023-11-24,1,,,,,ポパイ,0
392,2070001041101,新規,0,2023-11-24,2023-11-24,株式会社ＰＯＬＡＲＩＳ,,株式会社,群馬県,高崎市,栄町１２番１７号,,10,202,3700841,,,,,,,2023-11-24,1,,,,,ポラリス,0
397,2080401026857,新規,0,2023-11-24,2023-11-24,株式会社Ｋ．Ｔ．Ｉ,,株式会社,静岡県,磐田市,福田１６０４番地１１,,22,211,4371203,,,,,,,2023-11-24,1,,,,,ケイティアイ,0
408,2120001260075,新規,0,2023-11-24,2023-11-24,株式会社日文商会,,株式会社,大阪府,大阪市西区,境川１丁目４番２６－１４０１号,,27,106,5500024,,,,,,,2023-11-24,1,,,,,ニチブンショウカイ,0
409,2120001260091,新規,0,2023-11-24,2023-11-24,冨田商事株式会社,,株式会社,大阪府,大阪市東淀川区,井高野１丁目２８番５８－３１号,,27,114,5330001,,,,,,,2023-11-24,1,,,,,トミタショウジ,0
410,2120001260117,新規,0,2023-11-24,2023-11-24,株式会社アンモライト,,株式会社,大阪府,大阪市東淀川区,東淡路４丁目１７－１５,,27,114,5330023,,,,,,,2023-11-24,1,,,,,アンモライト,0
411,2120001260125,新規,0,2023-11-24,2023-11-24,新未来住宅株式会社,,株式会社,大阪府,大阪市平野区,喜連１丁目７番４２号,,27,126,5470027,,,,,,,2023-11-24,1,,,,,シンミライジュウタク,0
412,2120001260141,新規,0,2023-11-24,2023-11-24,株式会社青葉ハウス,,株式会社,大阪府,大阪市中央区,日本橋１丁目１８番１号日本一会舘４０１号室,,27,128,5420073,,,,,,,2023-11-24,1,,,,,アオバハウス,0
413,2120003025369,新規,0,2023-11-24,2023-11-24,合同会社ココロノツバサ,,合同会社,大阪府,大阪市西区,新町４丁目１０番２７号６０１,,27,106,5500013,,,,,,,2023-11-24,1,,,,,ココロノツバサ,0
414,2120003025393,新規,0,2023-11-24,2023-11-24,合同会社Ｒｕａｉｎａ,,合同会社,大阪府,大阪市淀川区,三津屋中１丁目５番１９号,,27,123,5320036,,,,,,,2023-11-24,1,,,,,ルアイナ,0
415,2120005024006,新規,0,2023-11-24,2023-11-24,一般社団法人法性宝林協会,,その他の設立登記法人,大阪府,大阪市東成区,中本２丁目１２番１８号福祐ビル,,27,115,5370022,,,,,,,2023-11-24,1,,,,,ホッショウホウリンキョウカイ,0
417,2120101068583,新規,0,2023-11-24,2023-11-24,株式会社アスコンＡＩＣ,,株式会社,大阪府,岸和田市,箕土路町２丁目２０番７号,,27,202,5960801,,,,,,,2023-11-24,1,,,,,アスコンエイアイシー,0
418,2120103005543,新規,0,2023-11-24,2023-11-24,森本商店合同会社,,合同会社,大阪府,羽曳野市,羽曳が丘西３丁目２番２３号,,27,222,5830865,,,,,,,2023-11-24,1,,,,,モリモトショウテン,0
421,2120901048388,新規,0,2023-11-24,2023-11-24,株式会社ＡＲＩＡ　ＳＴＵＤＩＯ,,株式会社,大阪府,豊中市,永楽荘２丁目２番９－１０２号,,27,203,5600051,,,,,,,2023-11-24,1,,,,,アリアスタジオ,0
422,2120901048396,新規,0,2023-11-24,2023-11-24,株式会社久光,,株式会社,大阪府,茨木市,野々宮２丁目３番２０号,,27,211,5670847,,,,,,,2023-11-24,1,,,,,ヒサミツ,0
426,2130001075778,新規,0,2023-11-24,2023-11-24,株式会社洛電設,,株式会社,京都府,京都市伏見区,深草西出町３６番地１,,26,109,6120879,,,,,,,2023-11-24,1,,,,,ラクデンセツ,0
427,2130001075786,新規,0,2023-11-24,2023-11-24,株式会社Ｋｙｏｔｏ　Ｌｅｓｓｏｎ,,株式会社,京都府,京都市下京区,和泉町５２９番地,,26,106,6008188,,,,,,,2023-11-24,1,,,,,キョウトレッスン,0
433,2140001132446,新規,0,2023-11-24,2023-11-24,株式会社奏,,株式会社,兵庫県,たつの市,龍野町堂本３９４番地６,,28,229,6794129,,,,,,,2023-11-24,1,,,,,カナデ,0
434,2140001132462,新規,0,2023-11-24,2023-11-24,株式会社ビィーウォータァー,,株式会社,兵庫県,神戸市垂水区,舞子坂３丁目１７－５Ｂ１０２,,28,108,6550044,,,,,,,2023-11-24,1,,,,,ビィーウォータァー,0
440,2160001025524,新規,0,2023-11-24,2023-11-24,株式会社ＥＡＳＥ,,株式会社,滋賀県,長浜市,余呉町下丹生８０８番地,,25,203,5290514,,,,,,,2023-11-24,1,,,,,イース,0
442,2160005011248,新規,0,2023-11-24,2023-11-24,一般社団法人日本ダイバーシティアシスト協会,,その他の設立登記法人,滋賀県,近江八幡市,上田町１３４５番地１,,25,204,5230015,,,,,,,2023-11-24,1,,,,,ニッポンダイバーシティアシストキョウカイ,0
443,2170001017900,新規,0,2023-11-24,2023-11-24,株式会社光志,,株式会社,和歌山県,有田郡広川町,大字広３０９番地２,,30,362,6430071,,,,,,,2023-11-24,1,,,,,コウシ,0
451,2180001159015,新規,0,2023-11-24,2023-11-24,蘇通株式会社,,株式会社,愛知県,名古屋市中村区,名駅５丁目４番１４号花車ビル北館１階,,23,105,4500002,,,,,,,2023-11-24,1,,,,,ソツウ,0
458,2180003026031,新規,0,2023-11-24,2023-11-24,合同会社Ａｓｏｂｕｚｚ,,合同会社,愛知県,名古屋市中村区,名駅４丁目２４番５号第２森ビル４０１,,23,105,4500002,,,,,,,2023-11-24,1,,,,,アソバズ,0
462,2200001041921,新規,0,2023-11-24,2023-11-24,エール土地建物株式会社,,株式会社,岐阜県,多治見市,本町５丁目６番地１Ｒ．ｏｆｆｉｃｅ４０２,,21,204,5070033,,,,,,,2023-11-24,1,,,,,エールトチタテモノ,0
463,2210001019553,新規,0,2023-11-24,2023-11-24,株式会社にくまきおにぎり,,株式会社,福井県,福井市,本堂町４２－１－３９,,18,201,9188076,,,,,,,2023-11-24,1,,,,,ニクマキオニギリ,0
474,2270001008880,新規,0,2023-11-24,2023-11-24,株式会社エナテクスＳＧ,,株式会社,鳥取県,東伯郡北栄町,田井６５１番地１,,31,372,6892103,,,,,,,2023-11-24,1,,,,,エナテクスエスジー,0
480,2290001103812,新規,0,2023-11-24,2023-11-24,株式会社乙部施工,,株式会社,福岡県,福岡市早良区,田村６丁目１３－３９－２０７,,40,137,8140175,,,,,,,2023-11-24,1,,,,,オトベセコウ,0
482,2290801030074,新規,0,2023-11-24,2023-11-24,株式会社Ｈａｙａｎａｇｉ,,株式会社,福岡県,北九州市小倉北区,浅野３丁目８番１号ＡＩＭビル６階,,40,106,8020001,,,,,,,2023-11-24,1,,,,,ハヤナギ,0
496,2370001050658,新規,0,2023-11-24,2023-11-24,株式会社Ｅａｒｔｈ　Ａｎｇｅｌｓ,,株式会社,宮城県,仙台市泉区,泉中央１丁目１２番地の２泉パークビル３Ｆ,,04,105,9813133,,,,,,,2023-11-24,1,,,,,アースエンジェル,0
501,2370003006385,新規,0,2023-11-24,2023-11-24,合同会社Ｐｉａｃｅｒｅ,,合同会社,宮城県,仙台市若林区,荒井南８番地の１２,,04,103,9840039,,,,,,,2023-11-24,1,,,,,ピアチェーレ,0
506,2420001018492,新規,0,2023-11-24,2023-11-24,株式会社えみい,,株式会社,青森県,青森市,中央２丁目１６番１４号,,02,201,0300822,,,,,,,2023-11-24,1,,,,,エミイ,0
510,2430003015677,新規,0,2023-11-24,2023-11-24,八奏通商合同会社,,合同会社,北海道,勇払郡厚真町,字上厚真１８番地１,,01,581,0591741,,,,,,,2023-11-24,1,,,,,ハッソウツウショウ,0
511,2450001014150,新規,0,2023-11-24,2023-11-24,株式会社真桃組,,株式会社,北海道,旭川市,末広一条４丁目２番２号,,01,204,0718131,,,,,,,2023-11-24,1,,,,,シントウグミ,0
512,2450001014159,新規,0,2023-11-24,2023-11-24,株式会社オールラウンド浦辻,00132786,株式会社,北海道,旭川市,春光台二条３丁目４番８号,,01,204,0718142,,,,,,,2023-11-24,1,,,,,オールラウンドウラツジ,0
516,2460101007466,新規,0,2023-11-24,2023-11-24,株式会社スーパーマン金太郎,,株式会社,北海道,河東郡音更町,木野東通１丁目２番地１０,,01,631,0800112,,,,,,,2023-11-24,1,,,,,スーパーマンキンタロウ,0
518,2470001019916,新規,0,2023-11-24,2023-11-24,株式会社ＦＴクリエイト,,株式会社,香川県,綾歌郡綾川町,陶６３７７番地１７,,37,387,7612103,,,,,,,2023-11-24,1,,,,,エフティークリエイト,0
520,2500001025324,新規,0,2023-11-24,2023-11-24,ウィルピース株式会社,,株式会社,愛媛県,四国中央市,三島中央２丁目１３番１６号,,38,213,7990405,,,,,,,2023-11-24,1,,,,,ウィルピース,0
523,2700150122249,新規,0,2023-11-24,2023-11-24,株式会社Ｉｎｅｅｊｉ,,外国会社等,東京都,千代田区,霞が関３丁目２番５号霞が関ビルディング５階,,13,101,1000013,大韓民国京畿道城南市盆唐区城南大路３３１番通り８，３１６号（亭子洞、キンスタワー）,,,,,,2023-11-24,1,,,,,カブシキガイシヤインイジ,0
531,3010001239889,新規,0,2023-11-24,2023-11-24,ＤＤＣ株式会社,,株式会社,東京都,千代田区,神田三崎町２丁目１３番５号,,13,101,1010061,,,,,,,2023-11-24,1,,,,,ディーディーシー,0
532,3010001240236,新規,0,2023-11-24,2023-11-24,株式会社Ｔｈｅ　Ｍａｒｔｉａｎ　Ｗａｙ,,株式会社,東京都,文京区,白山１丁目２４番６号,,13,105,1130001,,,,,,,2023-11-24,1,,,,,ザマーシャンウェイ,0
533,3010001240260,新規,0,2023-11-24,2023-11-24,株式会社ｍａｉｓｏｎ　ｄｅ　ｓｏｌｅｉｌ,,株式会社,東京都,中央区,銀座６丁目６番１号銀座風月堂ビル５Ｆ,,13,102,1040061,,,,,,,2023-11-24,1,,,,,メゾンドソレイユ,0
534,3010001240302,新規,0,2023-11-24,2023-11-24,株式会社ＺＭ,,株式会社,東京都,中央区,日本橋室町１丁目１１番１２号日本橋水野ビル７階,,13,102,1030022,,,,,,,2023-11-24,1,,,,,ゼットエム,0
538,3010003042283,新規,0,2023-11-24,2023-11-24,合同会社バッテリーファーム,,合同会社,東京都,千代田区,大手町１丁目９番２号大手町フィナンシャルシティグランキューブ１８階１８１２号室,,13,101,1000004,,,,,,,2023-11-24,1,,,,,バッテリーファーム,0
549,3010401178654,新規,0,2023-11-24,2023-11-24,昇佳株式会社,,株式会社,東京都,港区,六本木６丁目１６番１１－２０５号,,13,103,1060032,,,,,,,2023-11-24,1,,,,,ショウケイ,0
550,3010401178679,新規,0,2023-11-24,2023-11-24,Ｔｈｉｒｄ　Ｂｒｉｄｇｅ　Ｊａｐａｎ株式会社,,株式会社,東京都,港区,芝大門２丁目２番１号ＡＣＮ芝大門ビルディング６階・７階,,13,103,1050012,,,,,,,2023-11-24,1,,,,,サードブリッジジャパン,0
551,3010401178695,新規,0,2023-11-24,2023-11-24,株式会社パンドラ,,株式会社,東京都,港区,高輪４丁目２３番６号ハイホーム高輪７０８,,13,103,1080074,,,,,,,2023-11-24,1,,,,,パンドラ,0
552,3010401178704,新規,0,2023-11-24,2023-11-24,ＢＦＭ　Ｔｒａｄｉｎｇ株式会社,,株式会社,東京都,港区,赤坂２丁目１４－１１天翔オフィス赤坂３０６,,13,103,1070052,,,,,,,2023-11-24,1,,,,,ビーエフエムトレーディング,0
558,3010701045166,新規,0,2023-11-24,2023-11-24,株式会社信興商會,,株式会社,東京都,品川区,荏原４丁目１６番８号,,13,109,1420063,,,,,,,2023-11-24,1,,,,,シンコウショウカイ,0
559,3010705003566,新規,0,2023-11-24,2023-11-24,一般社団法人ユーワ,,その他の設立登記法人,東京都,品川区,上大崎３丁目１番１号目黒セントラルスクエア１５階,,13,109,1410021,,,,,,,2023-11-24,1,,,,,ユーワ,0
564,3010903008607,新規,0,2023-11-24,2023-11-24,合同会社花の山,,合同会社,東京都,世田谷区,南烏山２丁目１０番７号エスポワール南烏山１０３,,13,112,1570062,,,,,,,2023-11-24,1,,,,,ハナノヤマ,0
573,3011001158360,新規,0,2023-11-24,2023-11-24,株式会社ＭａｋｅＨＥＲＯ,,株式会社,東京都,渋谷区,桜丘町２３番１７号シティコート桜丘４０８,,13,113,1500031,,,,,,,2023-11-24,1,,,,,メイクヒーロー,0
574,3011001158427,新規,0,2023-11-24,2023-11-24,株式会社七福人,,株式会社,東京都,渋谷区,幡ヶ谷２丁目５０番１８－５０８号,,13,113,1510072,,,,,,,2023-11-24,1,,,,,シチフクジン,0
575,3011003017985,新規,0,2023-11-24,2023-11-24,ＬＯＦＴ　ＡＲＴ合同会社,,合同会社,東京都,渋谷区,道玄坂１丁目１０番８号渋谷道玄坂東急ビル２Ｆ－Ｃ,,13,113,1500043,,,,,,,2023-11-24,1,,,,,ロフトアート,0
579,3011503005853,新規,0,2023-11-24,2023-11-24,ＪＫワークス合同会社,,合同会社,東京都,北区,神谷３丁目２２番３号,,13,117,1150043,,,,,,,2023-11-24,1,,,,,ジェイケイワークス,0
580,3011601027312,新規,0,2023-11-24,2023-11-24,ｉｍｍｅｒｓｉｏｎ株式会社,,株式会社,東京都,練馬区,東大泉７丁目５０番３９号ルミネＳ２０１,,13,120,1780063,,,,,,,2023-11-24,1,,,,,イマージョン,0
581,3011801043398,新規,0,2023-11-24,2023-11-24,株式会社ＮＫＣ,,株式会社,東京都,足立区,入谷７丁目１４番１号,,13,121,1210836,,,,,,,2023-11-24,1,,,,,エヌケーシー,0
585,3012401041255,新規,0,2023-11-24,2023-11-24,株式会社ａｍｅｃｏ,,株式会社,東京都,調布市,佐須町３丁目１３番地１３,,13,208,1820016,,,,,,,2023-11-24,1,,,,,アメコ,0
586,3012403006289,新規,0,2023-11-24,2023-11-24,エンディング・コーディネーター合同会社,,合同会社,東京都,府中市,栄町１丁目１１番地の２６－１階,,13,206,1830051,,,,,,,2023-11-24,1,,,,,エンディングコーディネーター,0
588,3013105001834,新規,0,2023-11-24,2023-11-24,一般社団法人香峰美術作品研究会,,その他の設立登記法人,東京都,あきる野市,入野２５３番地１,,13,228,1900161,,,,,,,2023-11-24,1,,,,,コウホウビジュツサクヒンケンキュウカイ,0
592,3013301051674,新規,0,2023-11-24,2023-11-24,株式会社ティ・エス,,株式会社,東京都,豊島区,東池袋１丁目３４番５号いちご東池袋ビル６階,,13,116,1700013,,,,,,,2023-11-24,1,,,,,ティエス,0
602,3020003025031,新規,0,2023-11-24,2023-11-24,ＹＯＳＨＩＤＡ合同会社,,合同会社,神奈川県,川崎市川崎区,小川町１６番地１７エムエフプラザ４０８,,14,131,2100023,,,,,,,2023-11-24,1,,,,,,0
603,3020005016193,新規,0,2023-11-24,2023-11-24,特定非営利活動法人キッズディレクター,,その他の設立登記法人,神奈川県,横浜市西区,浅間町１丁目４番３号ウィザードビル４０２,,14,103,2200072,,,,,,,2023-11-24,1,,,,,キッズディレクター,0
609,3021001080811,新規,0,2023-11-24,2023-11-24,日新フレーバー株式会社,,株式会社,神奈川県,愛甲郡愛川町,中津３６３６番地の２,,14,401,2430303,,,,,,,2023-11-24,1,,,,,ニッシンフレーバー,0
619,3030001157321,新規,0,2023-11-24,2023-11-24,株式会社相馬,,株式会社,埼玉県,加須市,船越２７８番地２,,11,210,3470021,,,,,,,2023-11-24,1,,,,,ソウマ,0
620,3030001157346,新規,0,2023-11-24,2023-11-24,株式会社トップコート,,株式会社,埼玉県,深谷市,小前田２４０１番地１３,,11,218,3691246,,,,,,,2023-11-24,1,,,,,トップコート,0
624,3030003023059,新規,0,2023-11-24,2023-11-24,合同会社双葉,,合同会社,埼玉県,富士見市,ふじみ野東３丁目１番地１４,,11,235,3540036,,,,,,,2023-11-24,1,,,,,フタバ,0
630,3040001131052,新規,0,2023-11-24,2023-11-24,株式会社アイ電設,,株式会社,千葉県,富里市,七栄１４６番地２８,,12,233,2860221,,,,,,,2023-11-24,1,,,,,アイデンセツ,0
631,3040001131069,新規,0,2023-11-24,2023-11-24,Ｃｈｒｏｎｉｃｌｅ株式会社,,株式会社,千葉県,千葉市稲毛区,山王町１０番地２１・１Ｆ,,12,103,2630002,,,,,,,2023-11-24,1,,,,,クロニクル,0
632,3040001131085,新規,0,2023-11-24,2023-11-24,株式会社ベストウェイ,,株式会社,千葉県,千葉市中央区,本町３丁目４番１号－２０３号,,12,101,2600012,,,,,,,2023-11-24,1,,,,,ベストウェイ,0
634,3040003023784,新規,0,2023-11-24,2023-11-24,合同会社なるはや,,合同会社,千葉県,流山市,野々下６丁目５３８番地の１３アパートメントダイナ１０１,,12,220,2700135,,,,,,,2023-11-24,1,,,,,ナルハヤ,0
635,3040003023801,新規,0,2023-11-24,2023-11-24,合同会社ＢｒｉｇｈｔＷｅｌｌ,,合同会社,千葉県,銚子市,豊里台３丁目１１１０番地の２９４,,12,202,2880874,,,,,,,2023-11-24,1,,,,,ブライトウェル,0
636,3050001053865,新規,0,2023-11-24,2023-11-24,ＴＲ株式会社,,株式会社,茨城県,神栖市,深芝南３丁目２６番地１９,,08,232,3140142,,,,,,,2023-11-24,1,,,,,ティーアール,0
637,3050001053873,新規,0,2023-11-24,2023-11-24,株式会社ＦＩＶＥ　ＳＱＵＡＲＥ,,株式会社,茨城県,土浦市,東真鍋町２０番２１号,,08,203,3000052,,,,,,,2023-11-24,1,,,,,ファイブスクエア,0
639,3070001041100,新規,0,2023-11-24,2023-11-24,サイアールオート・トレーディングジャパン株式会社,,株式会社,群馬県,伊勢崎市,平和町１８番１６号,,10,204,3720041,,,,,,,2023-11-24,1,,,,,サイアールオートトレーディングジャパン,0
653,3120001259950,新規,0,2023-11-24,2023-11-24,株式会社あおぞら,,株式会社,大阪府,大阪市中央区,平野町１丁目５番９号６Ｆ,,27,128,5410046,,,,,,,2023-11-24,1,,,,,アオゾラ,0
654,3120001260099,新規,0,2023-11-24,2023-11-24,株式会社モビリティネクスト,,株式会社,大阪府,大阪市城東区,成育２丁目１３番２０号,,27,118,5360007,,,,,,,2023-11-24,1,,,,,モビリティネクスト,0
655,3120001260116,新規,0,2023-11-24,2023-11-24,株式会社ＳＡＬＴＯ,,株式会社,大阪府,大阪市淀川区,西中島４丁目４番２５号フルーレ新大阪３１４,,27,123,5320011,,,,,,,2023-11-24,1,,,,,サルト,0
656,3120001260132,新規,0,2023-11-24,2023-11-24,株式会社ＳＥＮＤ　ＮＯＷ,,株式会社,大阪府,大阪市鶴見区,浜３丁目１３－１１,,27,124,5380035,,,,,,,2023-11-24,1,,,,,センドナウ,0
657,3120001260149,新規,0,2023-11-24,2023-11-24,東雲株式会社,,株式会社,大阪府,大阪市東淀川区,菅原３丁目８番９号プティハイム菅原７０５号室,,27,114,5330022,,,,,,,2023-11-24,1,,,,,シノノメ,0
662,3120003025351,新規,0,2023-11-24,2023-11-24,合同会社三光堂,,合同会社,大阪府,大阪市北区,梅田１丁目２‐２大阪駅前第２ビル１２‐１２,,27,127,5300001,,,,,,,2023-11-24,1,,,,,サンコウドウ,0
663,3120005024005,新規,0,2023-11-24,2023-11-24,一般社団法人関西中小建設業組合,,その他の設立登記法人,大阪府,大阪市中央区,天満橋京町１番２２号,,27,128,5400032,,,,,,,2023-11-24,1,,,,,カンサイチュウショウケンセツギョウクミアイ,0
664,3120101068566,新規,0,2023-11-24,2023-11-24,広源商事株式会社,,株式会社,大阪府,岸和田市,土生滝町１０１６番１号,,27,202,5960844,,,,,,,2023-11-24,1,,,,,コウゲンショウジ,0
665,3120101068574,新規,0,2023-11-24,2023-11-24,株式会社Ｏｕｒ　Ｐｌａｃｅ,,株式会社,大阪府,堺市西区,上野芝向ヶ丘町１丁２－１５,,27,144,5938303,,,,,,,2023-11-24,1,,,,,アワープレイス,0
666,3120103005550,新規,0,2023-11-24,2023-11-24,合同会社江藤,,合同会社,大阪府,阪南市,岡田七丁目１６９０番地２棟５０８号,,27,232,5990200,,,,,,,2023-11-24,1,,,,,エトウ,0
670,3120901048387,新規,0,2023-11-24,2023-11-24,株式会社こばやかわ,,株式会社,大阪府,吹田市,山田西４丁目６番１－２０３号,,27,205,5650824,,,,,,,2023-11-24,1,,,,,コバヤカワ,0
673,3130001075777,新規,0,2023-11-24,2023-11-24,株式会社しんぐるぼんぐる,,株式会社,京都府,京都市上京区,大宮通椹木町下る一町目８４７番地,,26,102,6028134,,,,,,,2023-11-24,1,,,,,シングルボングル,0
674,3130001075802,新規,0,2023-11-24,2023-11-24,株式会社ヴァルゴ,,株式会社,京都府,京都市中京区,猪熊通御池下る三坊猪熊町北組３６４番地１０,,26,104,6048313,,,,,,,2023-11-24,1,,,,,ヴァルゴ,0
676,3140001132445,新規,0,2023-11-24,2023-11-24,富貴竹アセットマネジメント株式会社,,株式会社,兵庫県,尼崎市,上坂部３丁目１９番５号,,28,202,6610979,,,,,,,2023-11-24,1,,,,,フキタケアセットマネジメント,0
682,3160005011247,新規,0,2023-11-24,2023-11-24,一般社団法人さつきライフサポート,,その他の設立登記法人,滋賀県,野洲市,近江富士５丁目２５番２１号,,25,210,5202324,,,,,,,2023-11-24,1,,,,,サツキライフサポート,0
692,3180001159063,新規,0,2023-11-24,2023-11-24,株式会社Ｈｏｒｓｅ　Ｃｏｎｎｅｃｔ,,株式会社,愛知県,長久手市,市が洞１丁目７０２番地,,23,238,4801147,,,,,,,2023-11-24,1,,,,,ホースコネクト,0
705,3240003006422,新規,0,2023-11-24,2023-11-24,合同会社ルミエール,,合同会社,広島県,広島市中区,流川町３番２－７０２号,,34,101,7300028,,,,,,,2023-11-24,1,,,,,ルミエール,0
726,3370001050657,新規,0,2023-11-24,2023-11-24,株式会社ＭＰＣ,,株式会社,宮城県,仙台市青葉区,上愛子字蛇台原４２番地の３１,,04,101,9893124,,,,,,,2023-11-24,1,,,,,エムピーシー,0
727,3370003006392,新規,0,2023-11-24,2023-11-24,合同会社ＹＡＭＡＴＯ,,合同会社,宮城県,仙台市若林区,中倉１丁目２６番１４号,,04,103,9840821,,,,,,,2023-11-24,1,,,,,ヤマト,0
729,3380001034147,新規,0,2023-11-24,2023-11-24,株式会社トラストワンホールディングス,,株式会社,福島県,南相馬市,原町区日の出町２１６番１,,07,212,9750038,,,,,,,2023-11-24,1,,,,,トラストワンホールディングス,0
732,3420001018491,新規,0,2023-11-24,2023-11-24,株式会社ｎｏｒｔｈｅｒｎ　ｒｉｃｈ,,株式会社,青森県,青森市,大字三内字稲元２０番地５,,02,201,0380031,,,,,,,2023-11-24,1,,,,,ノーザンリッチ,0
733,3430001090498,新規,0,2023-11-24,2023-11-24,株式会社こもく,,株式会社,北海道,札幌市豊平区,西岡三条９丁目７番１８号,,01,105,0620033,,,,,,,2023-11-24,1,,,,,コモク,0
735,3450003002409,新規,0,2023-11-24,2023-11-24,合同会社万事屋誉平,,合同会社,北海道,中川郡中川町,字中川３６７番地１,,01,471,0982802,,,,,,,2023-11-24,1,,,,,,0
743,3700150122248,新規,0,2023-11-24,2023-11-24,ＴＯＹＯＴＡ　ＥＮＴＥＲＰＲＩＳＥＳ,,外国会社等,千葉県,山武郡横芝光町,宮川１９６７番地６８オフィス２,,12,410,2891727,スリランカ民主社会主義共和国、キャンディ、アクラナ、ウダウェリケティヤ、Ｎｏ．５２／２,,,,,,2023-11-24,1,,,,,トヨタエンタープライズ,0
753,4010003042290,新規,0,2023-11-24,2023-11-24,合同会社神木事務所,00132773,合同会社,東京都,中央区,日本橋堀留町１丁目１０番１号カクタビル２階,,13,102,1030012,,,,,,,2023-11-24,1,,,,,カミキジムショ,0
764,4010401178694,新規,0,2023-11-24,2023-11-24,株式会社Ｓｏｒａ　Ｂｅａｎｓ,,株式会社,東京都,港区,南青山３丁目１番３６号青山丸竹ビル６Ｆ,,13,103,1070062,,,,,,,2023-11-24,1,,,,,ソラビーンズ,0
767,4010403031439,新規,0,2023-11-24,2023-11-24,合同会社ＭＥＤ　ＣＯＮＮＥＣＴＩＯＮＳ,,合同会社,東京都,港区,白金台４丁目５番４号コンシェリア白金台１４０３,,13,103,1080071,,,,,,,2023-11-24,1,,,,,メッドコネクションズ,0
769,4010501051413,新規,0,2023-11-24,2023-11-24,三和商事株式会社,,株式会社,東京都,台東区,台東１丁目２６番８号坂本ビル２Ｆ,,13,106,1100016,,,,,,,2023-11-24,1,,,,,サンワショウジ,0
783,4011001158418,新規,0,2023-11-24,2023-11-24,Ｈｕｍａｎ　Ｒｅｓｏｕｒｃｅ株式会社,,株式会社,東京都,渋谷区,代々木１丁目２３番７号第３瑞穂ビル２１０号室,,13,113,1510053,,,,,,,2023-11-24,1,,,,,ヒューマンリソース,0
784,4011001158426,新規,0,2023-11-24,2023-11-24,株式会社ｓ‐ｆｏｒｃｅ,,株式会社,東京都,渋谷区,南平台町１３番４－５１０号,,13,113,1500036,,,,,,,2023-11-24,1,,,,,エスフォース,0
786,4011005010277,新規,0,2023-11-24,2023-11-24,一般社団法人熱帯林行動ネットワーク,,その他の設立登記法人,東京都,渋谷区,千駄ヶ谷１丁目１３─１１,,13,113,1510051,,,,,,,2023-11-24,1,,,,,ネッタイリンコウドウネットワーク,0
787,4011101105237,新規,0,2023-11-24,2023-11-24,株式会社ＡＲＫＨＥ,,株式会社,東京都,新宿区,西新宿１丁目２５番１号新宿センタービル４９階,,13,104,1600023,,,,,,,2023-11-24,1,,,,,アルケー,0
793,4011301029203,新規,0,2023-11-24,2023-11-24,株式会社林屋,,株式会社,東京都,杉並区,松ノ木１丁目２番４３号,,13,115,1660014,,,,,,,2023-11-24,1,,,,,ハヤシヤ,0
800,4011501030035,新規,0,2023-11-24,2023-11-24,株式会社ｅｇａｏ,,株式会社,東京都,荒川区,南千住６丁目４１番１０－１２２号,,13,118,1160003,,,,,,,2023-11-24,1,,,,,エガオ,0
801,4011801043389,新規,0,2023-11-24,2023-11-24,立春堂株式会社,,株式会社,東京都,葛飾区,東金町３丁目１７番１０号ＫＢＳＤ－９号,,13,122,1250041,,,,,,,2023-11-24,1,,,,,リッシュンドウ,0
802,4011801043406,新規,0,2023-11-24,2023-11-24,株式会社ＡＪＤ,,株式会社,東京都,葛飾区,東立石１丁目１２番１６号,,13,122,1240013,,,,,,,2023-11-24,1,,,,,エージェーデー,0
803,4012301013675,新規,0,2023-11-24,2023-11-24,株式会社ブーベグループ,,株式会社,東京都,町田市,小山町１２６７番地１,,13,209,1940212,,,,,,,2023-11-24,1,,,,,ブーベグループ,0
804,4012401041254,新規,0,2023-11-24,2023-11-24,株式会社ａｎｉｍａ,,株式会社,東京都,調布市,佐須町３丁目１３番地１３,,13,208,1820016,,,,,,,2023-11-24,1,,,,,アニマ,0
807,4012803003224,新規,0,2023-11-24,2023-11-24,合同会社ｉｎｉｔｉｕｍ,,合同会社,東京都,国立市,西２丁目３２―２ｖｉｌｌａｍｉｓｕｚｕ１０２,,13,215,1860005,,,,,,,2023-11-24,1,,,,,イニティウム,0
809,4013301051665,新規,0,2023-11-24,2023-11-24,株式会社Ｅ保険プランニング分割準備会社,,株式会社,東京都,豊島区,西池袋１丁目４番１０号,,13,116,1710021,,,,,,,2023-11-24,1,,,,,イーホケンプランニングブンカツジュンビガイシャ,0
822,4020001154616,新規,0,2023-11-24,2023-11-24,株式会社ＢＬＡＮＫ,,株式会社,神奈川県,横浜市港北区,新羽町１７７９番地１グリーンパーク・ドミＩＩ１０２号,00132777,14,109,2230057,,,,,,,2023-11-24,1,,,,,ブランク,0
828,4021001080802,新規,0,2023-11-24,2023-11-24,株式会社ＦｅＬｕｎａ,,株式会社,神奈川県,大和市,福田６０４０番地,,14,213,2420024,,,,,,,2023-11-24,1,,,,,フェルナ,0
829,4021001080810,新規,0,2023-11-24,2023-11-24,成代管工業株式会社,,株式会社,神奈川県,横須賀市,森崎６丁目３番２号,,14,201,2380023,,,,,,,2023-11-24,1,,,,,ナルヨカンコウギョウ,0
830,4021001080819,新規,0,2023-11-24,2023-11-24,株式会社カナリア,,株式会社,神奈川県,小田原市,飯田岡２８５番地,,14,206,2500854,,,,,,,2023-11-24,1,,,,,カナリア,0
835,4021003013826,新規,0,2023-11-24,2023-11-24,合同会社ＫＥＩ,,合同会社,神奈川県,伊勢原市,岡崎６８５８番地の１４,,14,214,2591135,,,,,,,2023-11-24,1,,,,,ケイ,0
838,4030001157295,新規,0,2023-11-24,2023-11-24,株式会社柏澄,,株式会社,埼玉県,川口市,西川口１丁目１６番６－６０４号,,11,203,3320021,,,,,,,2023-11-24,1,,,,,ハクスミ,0
839,4030001157312,新規,0,2023-11-24,2023-11-24,株式会社スリーピース,,株式会社,埼玉県,吉川市,上笹塚３丁目２７番地１,,11,243,3420017,,,,,,,2023-11-24,1,,,,,スリーピース,0
840,4030001157353,新規,0,2023-11-24,2023-11-24,株式会社ＪＹＫ,,株式会社,埼玉県,川口市,川口１丁目４番９－７０３号,,11,203,3320015,,,,,,,2023-11-24,1,,,,,ジェイワイケー,0
848,4030003023058,新規,0,2023-11-24,2023-11-24,合同会社壱咲,,合同会社,埼玉県,加須市,北下新井１６７番地３,,11,210,3491134,,,,,,,2023-11-24,1,,,,,ヒトエ,0
851,4040001131068,新規,0,2023-11-24,2023-11-24,ＹＢＫ京都株式会社,,株式会社,千葉県,東金市,堀之内５２７番地５－２０３号,,12,213,2830027,,,,,,,2023-11-24,1,,,,,ヨウハカイキョウト,0
852,4040001131084,新規,0,2023-11-24,2023-11-24,株式会社藤開発,,株式会社,千葉県,銚子市,柴崎町２丁目４４８番地の５,,12,202,2880842,,,,,,,2023-11-24,1,,,,,フジカイハツ,0
853,4040003023783,新規,0,2023-11-24,2023-11-24,合同会社ＢＵＺＺＯＯＫＡ,,合同会社,千葉県,松戸市,五香西３丁目１０―１４ハミングホーム五香西２０４,,12,207,2702218,,,,,,,2023-11-24,1,,,,,バズーカ,0
854,4040003023791,新規,0,2023-11-24,2023-11-24,合同会社ひらく,,合同会社,千葉県,市川市,大和田４丁目１５番４号,,12,203,2720025,,,,,,,2023-11-24,1,,,,,ヒラク,0
857,4050001053864,新規,0,2023-11-24,2023-11-24,株式会社ハーツネクサス,,株式会社,茨城県,神栖市,萩原１８２番地１,,08,232,3140122,,,,,,,2023-11-24,1,,,,,ハーツネクサス,0
860,4050003007959,新規,0,2023-11-24,2023-11-24,ＯＦＦＥＲ合同会社,,合同会社,茨城県,牛久市,さくら台２丁目４３番地３３,,08,219,3001217,,,,,,,2023-11-24,1,,,,,オファー,0
862,4060001036587,新規,0,2023-11-24,2023-11-24,株式会社Ｃｕｌｍｉｎｅ,,株式会社,栃木県,宇都宮市,石井町２９５９番地２４,,09,201,3210912,,,,,,,2023-11-24,1,,,,,クルミネ,0
863,4060003004815,新規,0,2023-11-24,2023-11-24,合同会社Ｓ．Ｓ．Ｍ．ＴＲＡＤＩＮＧ,,合同会社,栃木県,栃木市,岩舟町静２２６０番地４,,09,203,3294307,,,,,,,2023-11-24,1,,,,,エスエスエムトレーディング,0
864,4070001041099,新規,0,2023-11-24,2023-11-24,株式会社ＣＲＥＳＴ,,株式会社,群馬県,伊勢崎市,馬見塚町１０３５番地３,,10,204,3720842,,,,,,,2023-11-24,1,,,,,クレスト,0
865,4070001041108,新規,0,2023-11-24,2023-11-24,株式会社ココナチュラ,,株式会社,群馬県,前橋市,大手町１丁目１０番１４号,,10,201,3710026,,,,,,,2023-11-24,1,,,,,,0
870,4080001025992,新規,0,2023-11-24,2023-11-24,株式会社樹工業,,株式会社,静岡県,焼津市,大村新田１５７番地の７,,22,212,4250084,,,,,,,2023-11-24,1,,,,,イツキコウギョウ,0
876,4100001036995,新規,0,2023-11-24,2023-11-24,株式会社テクノフロー,,株式会社,長野県,諏訪市,沖田町１丁目８４番地,,20,206,3920013,,,,,,,2023-11-24,1,,,,,テクノフロー,0
878,4110003005221,新規,0,2023-11-24,2023-11-24,合同会社まごころｉ‐Ｂｏｄｙジャパン,,合同会社,新潟県,上越市,本町５丁目５番７号１階,,15,222,9430832,,,,,,,2023-11-24,1,,,,,マゴコロアイボディジャパン,0
893,4120001259917,新規,0,2023-11-24,2023-11-24,大阪十竹斎文化芸術株式会社,,株式会社,大阪府,大阪市住吉区,清水丘２丁目２６－９,,27,120,5580033,,,,,,,2023-11-24,1,,,,,オオサカジュッチクサイブンカゲイジュツ,0
894,4120001260098,新規,0,2023-11-24,2023-11-24,株式会社りとね,,株式会社,大阪府,大阪市西淀川区,竹島３丁目１番２９号,,27,113,5550011,,,,,,,2023-11-24,1,,,,,リトネ,0
897,4120005024012,新規,0,2023-11-24,2023-11-24,一般社団法人Ｃａｒｅ　ｗｉｔｈ　Ｍｕｓｉｃ,,その他の設立登記法人,大阪府,大阪市中央区,心斎橋筋２丁目１－７－４Ｆ,,27,128,5420085,,,,,,,2023-11-24,1,,,,,ケアウィズミュージック,0
902,4120101068573,新規,0,2023-11-24,2023-11-24,株式会社ｓａｋｕｒａ,,株式会社,大阪府,藤井寺市,藤井寺１丁目２番４号,,27,226,5830024,,,,,,,2023-11-24,1,,,,,サクラ,0
905,4120901048394,新規,0,2023-11-24,2023-11-24,株式会社Ｌａｐｉｎ,,株式会社,大阪府,高槻市,天川新町１０番２４号,,27,207,5690027,,,,,,,2023-11-24,1,,,,,ラパン,0
907,4130001075776,新規,0,2023-11-24,2023-11-24,株式会社Ｎ．Ｃ,,株式会社,京都府,城陽市,寺田深谷４８番地３４,,26,207,6100121,,,,,,,2023-11-24,1,,,,,エヌシー,0
914,4140001132452,新規,0,2023-11-24,2023-11-24,谷本鋼業株式会社,,株式会社,兵庫県,豊岡市,日高町鶴岡５５４番地２,,28,209,6695313,,,,,,,2023-11-24,1,,,,,タニモトコウギョウ,0
920,4160001025522,新規,0,2023-11-24,2023-11-24,株式会社珠色,,株式会社,滋賀県,東近江市,宮井町３４５番地,,25,213,5291564,,,,,,,2023-11-24,1,,,,,シュイロ,0
936,4180001159021,新規,0,2023-11-24,2023-11-24,株式会社Ｔ‐Ｓｔｙｌｅ,,株式会社,愛知県,名古屋市中区,栄５丁目２３番１号ＳｕｎＥａｓｔ２Ｆ,,23,106,4600008,,,,,,,2023-11-24,1,,,,,ティースタイル,0
937,4180001159038,新規,0,2023-11-24,2023-11-24,株式会社Ｅｒａｎｔ,,株式会社,愛知県,名古屋市中村区,森田町１丁目７番２２号グランソレイユ６０２号室,,23,105,4530036,,,,,,,2023-11-24,1,,,,,イーラント,0
938,4180001159054,新規,0,2023-11-24,2023-11-24,Ａｍｂｉｔｉｏｕｓ株式会社,,株式会社,愛知県,名古屋市中区,栄４丁目２番１０号栗ビル９階,,23,106,4600008,,,,,,,2023-11-24,1,,,,,アンビシャス,0
942,4180305009533,新規,0,2023-11-24,2023-11-24,一般社団法人Ｚｉｋａｙ　Ｊａｐａｎ,,その他の設立登記法人,愛知県,碧南市,天神町２丁目３２番６号,,23,209,4470033,,,,,,,2023-11-24,1,,,,,ジカイジャパン,0
949,4190001030908,新規,0,2023-11-24,2023-11-24,株式会社アクアクリエイツ,,株式会社,三重県,松阪市,船江町７番地２,,24,204,5150812,,,,,,,2023-11-24,1,,,,,アクアクリエイツ,0
964,4260003004506,新規,0,2023-11-24,2023-11-24,合同会社エフコンサルティング,,合同会社,岡山県,倉敷市,老松町４丁目９番１０号,,33,202,7100826,,,,,,,2023-11-24,1,,,,,エフコンサルティング,0
966,4270001008879,新規,0,2023-11-24,2023-11-24,株式会社エナテクスＨＶ,,株式会社,鳥取県,東伯郡北栄町,田井６５１番地１,,31,372,6892103,,,,,,,2023-11-24,1,,,,,エナテクスエイチブイ,0
970,4290001103711,新規,0,2023-11-24,2023-11-24,株式会社ＳＯＩ,,株式会社,福岡県,福岡市中央区,舞鶴３丁目３番１９号ＫＭビル赤坂５０１,,40,133,8100073,,,,,,,2023-11-24,1,,,,,エスオーアイ,0
971,4290001103819,新規,0,2023-11-24,2023-11-24,株式会社ＪＳＯ,,株式会社,福岡県,福岡市東区,みなと香椎３丁目１番１－４０７号,,40,131,8130019,,,,,,,2023-11-24,1,,,,,ジェイエスオー,0
979,4290005019185,新規,0,2023-11-24,2023-11-24,一般社団法人ＮＴＤｓ　Ｙｏｕｔｈの会,,その他の設立登記法人,福岡県,福岡市博多区,博多駅前３丁目６－１小森ビル４Ａ,,40,132,8120011,,,,,,,2023-11-24,1,,,,,エヌティディズユースノカイ,0
980,4290801030064,新規,0,2023-11-24,2023-11-24,株式会社ｇｏａｐ,,株式会社,福岡県,北九州市若松区,青葉台西５丁目１２番９号,,40,103,8080143,,,,,,,2023-11-24,1,,,,,グープ,0
986,4360003013505,新規,0,2023-11-24,2023-11-24,ＪＯＹプロモーション合同会社,,合同会社,沖縄県,那覇市,長田２丁目３１番１５号,,47,201,9020077,,,,,,,2023-11-24,1,,,,,ジョイプロモーション,0
989,4370001050656,新規,0,2023-11-24,2023-11-24,株式会社ＳＫＯ,,株式会社,宮城県,仙台市若林区,志波町１５番１８号,,04,103,9840041,,,,,,,2023-11-24,1,,,,,エスケーオー,0
993,4380003005624,新規,0,2023-11-24,2023-11-24,テラファーム合同会社,,合同会社,福島県,いわき市,四倉町戸田字南高柳１５番地,,07,204,9790212,,,,,,,2023-11-24,1,,,,,テラファーム,0
996,4420001018490,新規,0,2023-11-24,2023-11-24,株式会社山崎,00132787,株式会社,青森県,八戸市,西白山台３丁目２番９号,,02,203,0391113,,,,,,,2023-11-24,1,,,,,ヤマザキ,0
998,4430001090497,新規,0,2023-11-24,2023-11-24,株式会社ｃｒｉｂ,,株式会社,北海道,札幌市豊平区,中の島一条４丁目１０番１号,,01,105,0620921,,,,,,,2023-11-24,1,,,,,クリブ,0
1002,4450001014157,新規,0,2023-11-24,2023-11-24,株式会社名寄リテール,,株式会社,北海道,上川郡下川町,西町２４０番,,01,468,0981205,,,,,,,2023-11-24,1,,,,,,0
1004,4462501000973,新規,0,2023-11-24,2023-11-24,株式会社達萬,,株式会社,北海道,野付郡別海町,豊原１３番地の８１,,01,691,0860657,,,,,,,2023-11-24,1,,,,,ダルマ,0
1005,4480001012298,新規,0,2023-11-24,2023-11-24,株式会社Ｕｌｕ　Ｌｉｆｅ,,株式会社,徳島県,徳島市,中島田町２丁目６５番地の４,,36,201,7700052,,,,,,,2023-11-24,1,,,,,ウルライフ,0
1010,4700150122247,新規,0,2023-11-24,2023-11-24,ＡＵＴＯ　ＣＩＴＩ　ＰＲＩＶＡＴＥ,,外国会社等,千葉県,佐倉市,大篠塚２７７番地,,12,212,2850806,スリランカ民主社会主義共和国、アクラナ、アンバテンナ、クドゥガラ、マタレロード、１７１,,,,,,2023-11-24,1,,,,,オートシテイプライベート,0
1020,5010001240259,新規,0,2023-11-24,2023-11-24,株式会社都心３区不動産,,株式会社,東京都,千代田区,神田須田町１丁目１０番地４２,,13,101,1010041,,,,,,,2023-11-24,1,,,,,トシンサンクフドウサン,0
1021,5010001240283,新規,0,2023-11-24,2023-11-24,ホーゼルジャパン株式会社,,株式会社,東京都,文京区,本郷４丁目１６番６号天翔オフィスビルディング４０６,,13,105,1130033,,,,,,,2023-11-24,1,,,,,ホーゼルジャパン,0
1022,5010001240300,新規,0,2023-11-24,2023-11-24,ＭＯＵＳＳＡＩＥＦＦ株式会社,,株式会社,東京都,中央区,銀座１丁目２２番１１号銀座大竹ビジデンス２Ｆ,,13,102,1040061,,,,,,,2023-11-24,1,,,,,ムサイエフ,0
1023,5010001240309,新規,0,2023-11-24,2023-11-24,株式会社フロー,,株式会社,東京都,中央区,八重洲１丁目８番１７号,,13,102,1030028,,,,,,,2023-11-24,1,,,,,フロー,0
1026,5010003042273,新規,0,2023-11-24,2023-11-24,合同会社技術融合,,合同会社,東京都,中央区,銀座１丁目２２番１１号銀座大竹ビジデンス２階,,13,102,1040061,,,,,,,2023-11-24,1,,,,,ギジュツユウゴウ,0
1042,5010401178669,新規,0,2023-11-24,2023-11-24,トラスタライズ総研株式会社,,株式会社,東京都,港区,北青山１丁目３番１号,,13,103,1070061,,,,,,,2023-11-24,1,,,,,トラスタライズソウケン,0
1043,5010401178710,新規,0,2023-11-24,2023-11-24,株式会社ヒトリメ,,株式会社,東京都,港区,高輪１丁目２０－１３,,13,103,1080074,,,,,,,2023-11-24,1,,,,,ヒトリメ,0
1047,5010403031438,新規,0,2023-11-24,2023-11-24,二羽の庭ホールディングス合同会社,,合同会社,東京都,港区,元麻布２丁目１１番３号,,13,103,1060046,,,,,,,2023-11-24,1,,,,,ニワノニワホールディングス,0
1048,5010405022724,新規,0,2023-11-24,2023-11-24,ＳＡＯ行政書士法人,,その他の設立登記法人,東京都,港区,赤坂２丁目１４番５号Ｄａｉｗａ赤坂ビル７階,,13,103,1070052,,,,,,,2023-11-24,1,,,,,エスエーオー,0
1062,5011001158409,新規,0,2023-11-24,2023-11-24,ＭＭＣパートナーズ株式会社,,株式会社,東京都,渋谷区,東２丁目１４－２６－１０８,,13,113,1500011,,,,,,,2023-11-24,1,,,,,エムエムシーパートナーズ,0
1063,5011001158417,新規,0,2023-11-24,2023-11-24,株式会社キャリアウィズ,,株式会社,東京都,渋谷区,円山町５番５号Ｎａｖｉ渋谷Ｖ３階,,13,113,1500044,,,,,,,2023-11-24,1,,,,,キャリアウィズ,0
1064,5011001158425,新規,0,2023-11-24,2023-11-24,ｋｉｉ株式会社,,株式会社,東京都,渋谷区,神宮前６丁目８番６号,,13,113,1500001,,,,,,,2023-11-24,1,,,,,キー,0
1071,5011101105236,新規,0,2023-11-24,2023-11-24,株式会社ＯＮＥ　ＦＥＬＣ,,株式会社,東京都,新宿区,四谷３丁目１３番地１０ル・シェルブルー１０４号室,,13,104,1600004,,,,,,,2023-11-24,1,,,,,ワンフェルク,0
1075,5011301029202,新規,0,2023-11-24,2023-11-24,株式会社ワイズアート,,株式会社,東京都,杉並区,阿佐谷南１丁目１７番１９号ウィンズパレ阿佐ヶ谷１Ｆ,,13,115,1660004,,,,,,,2023-11-24,1,,,,,ワイズアート,0
1078,5011501030034,新規,0,2023-11-24,2023-11-24,株式会社政興業,,株式会社,東京都,北区,豊島８丁目１１番１０号,,13,117,1140003,,,,,,,2023-11-24,1,,,,,マサコウギョウ,0
1085,5011801043388,新規,0,2023-11-24,2023-11-24,緑伸建設株式会社,,株式会社,東京都,足立区,本木北町９番１９号ミレニアムコート１階,,13,121,1230857,,,,,,,2023-11-24,1,,,,,リョクシンケンセツ,0
1086,5011801043405,新規,0,2023-11-24,2023-11-24,株式会社ブライト,,株式会社,東京都,足立区,梅島１丁目２４－１９,,13,121,1210816,,,,,,,2023-11-24,1,,,,,ブライト,0
1088,5012401041253,新規,0,2023-11-24,2023-11-24,株式会社藤井,,株式会社,東京都,武蔵野市,吉祥寺本町１丁目３２番３号,,13,203,1800004,,,,,,,2023-11-24,1,,,,,フジイ,0
1089,5012701017969,新規,0,2023-11-24,2023-11-24,株式会社ＳＥＰＰＡＮ,,株式会社,東京都,西東京市,保谷町３丁目１８番２５号エルガーデン１０９号,,13,229,2020015,,,,,,,2023-11-24,1,,,,,セッパン,0
1090,5012703002861,新規,0,2023-11-24,2023-11-24,合同会社合点,,合同会社,東京都,西東京市,富士町４丁目１５番９号武蔵野ビル１階,,13,229,2020014,,,,,,,2023-11-24,1,,,,,ガッテン,0
1092,5013301051664,新規,0,2023-11-24,2023-11-24,株式会社オプタ,,株式会社,東京都,豊島区,南池袋２丁目９番９号,,13,116,1710022,,,,,,,2023-11-24,1,,,,,オプタ,0
1099,5020001154598,新規,0,2023-11-24,2023-11-24,株式会社むぎとろ,,株式会社,神奈川県,横浜市南区,中村町４丁目２７３－２８－１Ｆ,,14,105,2320033,,,,,,,2023-11-24,1,,,,,ムギトロ,0
1100,5020001154607,新規,0,2023-11-24,2023-11-24,Ｅｖｏｌｕｔｉｏｎ株式会社,,株式会社,神奈川県,川崎市川崎区,駅前本町１１番地２フロンティアビル４階,,14,131,2100007,,,,,,,2023-11-24,1,,,,,エボリューション,0
1101,5020001154623,新規,0,2023-11-24,2023-11-24,株式会社Ｏｎｅ　Ｓｉｇｈｔ　Ｔｅｃｈｎｏｌｏｇｙ,,株式会社,神奈川県,横浜市港南区,丸山台２丁目３２－９,,14,111,2330013,,,,,,,2023-11-24,1,,,,,ワンサイトテクノロジー,0
1111,5021001080792,新規,0,2023-11-24,2023-11-24,株式会社ＡＴＯＲＩ,,株式会社,神奈川県,横須賀市,久里浜５丁目１７番９号,,14,201,2390831,,,,,,,2023-11-24,1,,,,,アトリ,0
1116,5030001157278,新規,0,2023-11-24,2023-11-24,株式会社イー・エル・オー２,,株式会社,埼玉県,さいたま市南区,文蔵３丁目３５番１７号Ｉ・Ｔヒルズ３Ｆ,,11,108,3360025,,,,,,,2023-11-24,1,,,,,イーエルオーツー,0
1117,5030001157286,新規,0,2023-11-24,2023-11-24,株式会社奥木興業,,株式会社,埼玉県,川口市,西川口１丁目１９番８号佐内コーポ２０３,,11,203,3320021,,,,,,,2023-11-24,1,,,,,オクギコウギョウ,0
1118,5030001157311,新規,0,2023-11-24,2023-11-24,株式会社ライジング,,株式会社,埼玉県,さいたま市南区,辻２丁目３番２７号,00132775,11,108,3360026,,,,,,,2023-11-24,1,,,,,ライジング,0
1119,5030001157336,新規,0,2023-11-24,2023-11-24,株式会社明窓,,株式会社,埼玉県,朝霞市,膝折町２丁目３番４９号,,11,227,3510014,,,,,,,2023-11-24,1,,,,,メイソウ,0
1120,5030001157352,新規,0,2023-11-24,2023-11-24,株式会社ユナイテッド,,株式会社,埼玉県,新座市,畑中２丁目１番２０号,,11,230,3520012,,,,,,,2023-11-24,1,,,,,ユナイテッド,0
1121,5030001157369,新規,0,2023-11-24,2023-11-24,株式会社富川商事,,株式会社,埼玉県,戸田市,新曽南３丁目１－１９,,11,224,3350026,,,,,,,2023-11-24,1,,,,,トミカワショウジ,0
1130,5040001131059,新規,0,2023-11-24,2023-11-24,株式会社Ｄ．Ｒ‐Ｅｎｇｉｎｅｅｒ,,株式会社,千葉県,成田市,八代８２９番地１,,12,211,2860002,,,,,,,2023-11-24,1,,,,,ディーアールエンジニア,0
1131,5040001131067,新規,0,2023-11-24,2023-11-24,毛富貴株式会社,,株式会社,千葉県,東金市,堀之内５２７番地５－１０２号,,12,213,2830027,,,,,,,2023-11-24,1,,,,,モウフウキ,0
1132,5040001131075,新規,0,2023-11-24,2023-11-24,株式会社藤井商店,,株式会社,千葉県,松戸市,南花島１丁目６番地の７,,12,207,2710065,,,,,,,2023-11-24,1,,,,,フジイショウテン,0
1133,5040001131091,新規,0,2023-11-24,2023-11-24,株式会社Ｊｕｙｅｌｌ,,株式会社,千葉県,千葉市中央区,祐光２丁目１１番１２号ＳＫマンション１０７号室,,12,101,2600007,,,,,,,2023-11-24,1,,,,,ジュエール,0
1134,5040001131109,新規,0,2023-11-24,2023-11-24,ジャパンワークシップ株式会社,,株式会社,千葉県,千葉市稲毛区,作草部２丁目８番４６号,,12,103,2630015,,,,,,,2023-11-24,1,,,,,ジャパンワークシップ,0
1141,5060003004814,新規,0,2023-11-24,2023-11-24,合同会社セブントレジャー,,合同会社,栃木県,宇都宮市,仲町１番１９号３階,,09,201,3200023,,,,,,,2023-11-24,1,,,,,セブントレジャー,0
1146,5070001041107,新規,0,2023-11-24,2023-11-24,株式会社ＮＩＮＥ,,株式会社,群馬県,太田市,新田木崎町５２５番地１８,,10,205,3700321,,,,,,,2023-11-24,1,,,,,,0
1153,5080405007594,新規,0,2023-11-24,2023-11-24,アリアス行政書士法人,,その他の設立登記法人,静岡県,浜松市中区,富塚町３１５番地,,22,131,4328002,,,,,,,2023-11-24,1,,,,,アリアス,0
1156,5110003005220,新規,0,2023-11-24,2023-11-24,合同会社結生,,合同会社,新潟県,北蒲原郡聖籠町,大字二本松１９２０番地１,,15,307,9570123,,,,,,,2023-11-24,1,,,,,ユイ,0
1169,5120001260114,新規,0,2023-11-24,2023-11-24,株式会社Ｎａｖｅｔ,,株式会社,大阪府,大阪市城東区,関目１丁目３番２０－２０１号,,27,118,5360008,,,,,,,2023-11-24,1,,,,,ナヴェ,0
1170,5120001260130,新規,0,2023-11-24,2023-11-24,ＳＤＧオリコス株式会社,,株式会社,大阪府,大阪市北区,天神橋７丁目１番１６－３０１１号,,27,127,5310041,,,,,,,2023-11-24,1,,,,,エスディージーオリコス,0
1171,5120001260139,新規,0,2023-11-24,2023-11-24,株式会社スマイルクローバー,,株式会社,大阪府,大阪市大正区,鶴町１丁目８番２号,,27,108,5510023,,,,,,,2023-11-24,1,,,,,スマイルクローバー,0
1172,5120001260147,新規,0,2023-11-24,2023-11-24,株式会社Ｌｉｎｏｈｅｉ,,株式会社,大阪府,大阪市北区,天満４丁目６番１０号,,27,127,5300043,,,,,,,2023-11-24,1,,,,,リノヘイ,0
1177,5120003025374,新規,0,2023-11-24,2023-11-24,佳禾合同会社,,合同会社,大阪府,大阪市東住吉区,矢田４丁目２番３９－３号室,,27,121,5460023,,,,,,,2023-11-24,1,,,,,ケイカ,0
1181,5120101068515,新規,0,2023-11-24,2023-11-24,ソリューション・サムライ株式会社,,株式会社,大阪府,泉南市,新家３１５８番地,,27,228,5900503,,,,,,,2023-11-24,1,,,,,ソリューションサムライ,0
1182,5120101068580,新規,0,2023-11-24,2023-11-24,株式会社ＣＨＡＲＩＳ,,株式会社,大阪府,岸和田市,別所町１丁目１２番３号,,27,202,5960045,,,,,,,2023-11-24,1,,,,,カリス,0
1183,5120103005549,新規,0,2023-11-24,2023-11-24,合同会社田島,,合同会社,大阪府,阪南市,黒田３９４番地の１－１０５号,,27,232,5990203,,,,,,,2023-11-24,1,,,,,タジマ,0
1193,5140001132245,新規,0,2023-11-24,2023-11-24,株式会社ＭＩＲＡＩＮＡＪＩ,,株式会社,兵庫県,姫路市,別所町佐渡新７７６番地,,28,201,6700000,,,,,,,2023-11-24,1,,,,,ミライナジ,0
1194,5140001132468,新規,0,2023-11-24,2023-11-24,株式会社建,,株式会社,兵庫県,神戸市灘区,五毛通３丁目２番１７号,,28,102,6570814,,,,,,,2023-11-24,1,,,,,ケン,0
1202,5160003003046,新規,0,2023-11-24,2023-11-24,合同会社ライト,,合同会社,滋賀県,大津市,雄琴６丁目２１番２７号,,25,201,5200101,,,,,,,2023-11-24,1,,,,,ライト,0
1203,5170001017897,新規,0,2023-11-24,2023-11-24,Ａ’ｚカンパニー株式会社,,株式会社,和歌山県,海南市,且来９番地,,30,202,6420015,,,,,,,2023-11-24,1,,,,,エーゼットカンパニー,0
1208,5180003026020,新規,0,2023-11-24,2023-11-24,合同会社ＨＡＣＳ,,合同会社,愛知県,尾張旭市,旭ケ丘町山の手３５５番地８,,23,226,4880084,,,,,,,2023-11-24,1,,,,,ハークス,0
1223,5240001062457,新規,0,2023-11-24,2023-11-24,株式会社おっくん堂,,株式会社,広島県,広島市東区,福田３丁目１３番１０号,,34,102,7320029,,,,,,,2023-11-24,1,,,,,オックンドウ,0
1228,5270001008878,新規,0,2023-11-24,2023-11-24,株式会社エナテクスＰＰＡ,,株式会社,鳥取県,東伯郡北栄町,田井６５１番地１,,31,372,6892103,,,,,,,2023-11-24,1,,,,,エナテクスピーピーエー,0
1234,5290001103826,新規,0,2023-11-24,2023-11-24,株式会社ＭＡＫＡ,,株式会社,福岡県,福岡市博多区,諸岡２丁目１４番４７号,,40,132,8120894,,,,,,,2023-11-24,1,,,,,マカ,0
1246,5330001031510,新規,0,2023-11-24,2023-11-24,株式会社蔵,,株式会社,熊本県,上益城郡益城町,大字広崎１１１７番地１１,,43,443,8612236,,,,,,,2023-11-24,1,,,,,クラ,0
1252,5370001050647,新規,0,2023-11-24,2023-11-24,株式会社ＵＴＡ,,株式会社,宮城県,仙台市若林区,連坊小路１３２番地の１、２Ｆ,,04,103,9840053,,,,,,,2023-11-24,1,,,,,ウタ,0
1254,5380001034145,新規,0,2023-11-24,2023-11-24,株式会社金成表具店,,株式会社,福島県,石川郡浅川町,大字浅川字荒町西裏１４番地,,07,504,9636204,,,,,,,2023-11-24,1,,,,,カネナリヒョウグテン,0
1257,5390003002165,新規,0,2023-11-24,2023-11-24,合同会社すかいぷらん,,合同会社,山形県,酒田市,南新町１丁目２番１０号,,06,204,9980063,,,,,,,2023-11-24,1,,,,,スカイプラン,0
1264,5430001090521,新規,0,2023-11-24,2023-11-24,株式会社豊成トランスポート企画,,株式会社,北海道,北広島市,白樺町１丁目８番地５,,01,234,0611144,,,,,,,2023-11-24,1,,,,,ホウセイトランスポートキカク,0
1266,5450001014156,新規,0,2023-11-24,2023-11-24,株式会社えんゆうサポート,,株式会社,北海道,紋別郡雄武町,字雄武２０４番１,,01,563,0981702,,,,,,,2023-11-24,1,,,,,,0
1267,5450003002407,新規,0,2023-11-24,2023-11-24,合同会社マモル君自動車,,合同会社,北海道,紋別市,渚滑町１丁目３９番,,01,219,0995171,,,,,,,2023-11-24,1,,,,,,0
1270,5480003002049,新規,0,2023-11-24,2023-11-24,合同会社Ｍ．Ｋ,,合同会社,徳島県,徳島市,国府町佐野塚字新田８番地１,,36,201,7793101,,,,,,,2023-11-24,1,,,,,エムケイ,0
1271,5700150122246,新規,0,2023-11-24,2023-11-24,Ｇｒａｎｗｏｏｄ　Ｓａｌｅｓ　ａｎｄ　Ｍａｒｋｅｔｉｎｇ　Ｃｏｒｐｏｒａｔｉｏｎ,,外国会社等,東京都,港区,六本木６丁目１番２０号六本木電気ビル６階,,13,103,1060032,フィリピン共和国、ラグナ州サンペドロ市、ポブラシオン、マビーニストリート、ピーエープロパティーズ（グランウッド）ビルディング,,,,,,2023-11-24,1,,,,,グランウツドセールスアンドマーケテイングコーポレーシヨン,0
1278,6010001240225,新規,0,2023-11-24,2023-11-24,株式会社環境計画,,株式会社,東京都,千代田区,麹町１丁目３番地ダイアン麹町ビル３階,,13,101,1020083,,,,,,,2023-11-24,1,,,,,カンキョウケイカク,0
1279,6010001240282,新規,0,2023-11-24,2023-11-24,株式会社ａｌｋａａ,,株式会社,東京都,中央区,銀座７丁目１３番２０号銀座ＴＨビル９階,,13,102,1040061,,,,,,,2023-11-24,1,,,,,アルカー,0
1280,6010001240308,新規,0,2023-11-24,2023-11-24,株式会社Ｐｌａｎｅｔ　Ｌａｂｓ,,株式会社,東京都,千代田区,平河町２丁目５番３号,,13,101,1020093,,,,,,,2023-11-24,1,,,,,プラネットラボズ,0
1281,6010001240324,新規,0,2023-11-24,2023-11-24,きりん環境株式会社,,株式会社,東京都,千代田区,神田司町２丁目２１番地３ガラ・ステージ神田小川町９０１号,,13,101,1010048,,,,,,,2023-11-24,1,,,,,キリンカンキョウ,0
1282,6010003042280,新規,0,2023-11-24,2023-11-24,ＬＵＣＡ　ＧＰ１合同会社,,合同会社,東京都,千代田区,大手町１丁目６－１大手町ビル４階ＦＩＮＯＬＡＢ,,13,101,1000004,,,,,,,2023-11-24,1,,,,,ルカジーピーワン,0
1292,6010401178676,新規,0,2023-11-24,2023-11-24,株式会社サークランドホールディングス,,株式会社,東京都,港区,東麻布２丁目３２番１０号東麻布ＳＳビル,,13,103,1060044,,,,,,,2023-11-24,1,,,,,サークランドホールディングス,0
1298,6010403031437,新規,0,2023-11-24,2023-11-24,合同会社ｈａｌｌｅ,,合同会社,東京都,港区,白金台４丁目７番８－７０４号,,13,103,1080071,,,,,,,2023-11-24,1,,,,,ハレ,0
1299,6010403031445,新規,0,2023-11-24,2023-11-24,ＴＳ合同会社,,合同会社,東京都,港区,新橋４丁目２４番１号ル・グラシエルＢｌｄｇ．５１,,13,103,1050004,,,,,,,2023-11-24,1,,,,,ティーエス,0
1301,6010601064197,新規,0,2023-11-24,2023-11-24,株式会社ＫＫホールディングス,,株式会社,東京都,江東区,潮見１丁目２３番５号,,13,108,1350052,,,,,,,2023-11-24,1,,,,,ケーケーホールディングス,0
1302,6010603010488,新規,0,2023-11-24,2023-11-24,合同会社２ｎｄＤｏｏｒ,,合同会社,東京都,江東区,塩浜２丁目５‐１２‐１１１,,13,108,1350043,,,,,,,2023-11-24,1,,,,,セカンドドア,0
1306,6010901054237,新規,0,2023-11-24,2023-11-24,株式会社ＭＥＬＯＣ,,株式会社,東京都,世田谷区,代沢３丁目１５番１４号,,13,112,1550032,,,,,,,2023-11-24,1,,,,,メロック,0
1307,6010901054245,新規,0,2023-11-24,2023-11-24,株式会社ｌｅ　ｐａｐｉｌｌｏｎ,,株式会社,東京都,世田谷区,奥沢３丁目４７番３２－４０４号,,13,112,1580083,,,,,,,2023-11-24,1,,,,,ルパピヨン,0
1308,6010901054253,新規,0,2023-11-24,2023-11-24,株式会社Ｓｏｔｔ,,株式会社,東京都,世田谷区,代沢５丁目２５－１０ＣｏｒｒａｌＳｈｉｍｏｋｉｔａ１ｓｔＦ,,13,112,1550032,,,,,,,2023-11-24,1,,,,,ソット,0
1311,6011001158390,新規,0,2023-11-24,2023-11-24,株式会社ＭＡＮＺＡ,,株式会社,東京都,渋谷区,恵比寿西２丁目４－８ウィンド恵比寿８階,,13,113,1500021,,,,,,,2023-11-24,1,,,,,マンザ,0
1314,6011003017974,新規,0,2023-11-24,2023-11-24,合同会社フェニックス,,合同会社,東京都,渋谷区,笹塚２丁目４１番９号,,13,113,1510073,,,,,,,2023-11-24,1,,,,,フェニックス,0
1315,6011003017990,新規,0,2023-11-24,2023-11-24,ＬＤＳ合同会社,,合同会社,東京都,渋谷区,神宮前１丁目５番８号,,13,113,1500001,,,,,,,2023-11-24,1,,,,,エルディーエス,0
1317,6011205002576,新規,0,2023-11-24,2023-11-24,一般社団法人ＭＩＮＡＭＩ,,その他の設立登記法人,東京都,中野区,本町４丁目４５番１６号,,13,114,1640012,,,,,,,2023-11-24,1,,,,,ミナミ,0
1324,6011501030041,新規,0,2023-11-24,2023-11-24,三金商事株式会社,,株式会社,東京都,北区,王子２丁目２８番７－１０２号,,13,117,1140002,,,,,,,2023-11-24,1,,,,,サンキンショウジ,0
1325,6011503005859,新規,0,2023-11-24,2023-11-24,合同会社ウエスタン・ジョー,,合同会社,東京都,荒川区,東日暮里３丁目２４番４号,,13,118,1160014,,,,,,,2023-11-24,1,,,,,ウエスタンジョー,0
1332,6011803005955,新規,0,2023-11-24,2023-11-24,合同会社響,,合同会社,東京都,足立区,綾瀬２丁目４６番５号,,13,121,1200005,,,,,,,2023-11-24,1,,,,,ヒビキ,0
1333,6012701017968,新規,0,2023-11-24,2023-11-24,株式会社Ｒｅａｇｅ,,株式会社,東京都,西東京市,谷戸町２丁目１５番１３号ペアパレスインひばりヶ丘５Ｆ,,13,229,1880001,,,,,,,2023-11-24,1,,,,,リアージュ,0
1334,6012703002860,新規,0,2023-11-24,2023-11-24,合同会社クリップライト,,合同会社,東京都,小平市,鈴木町２丁目８４６,,13,211,1870011,,,,,,,2023-11-24,1,,,,,クリップライト,0
1338,6013301051663,新規,0,2023-11-24,2023-11-24,株式会社ＧＡＫＵＴＯ,,株式会社,東京都,豊島区,南池袋３丁目７番８号ベラカーサ南池袋１６０３号,,13,116,1710022,,,,,,,2023-11-24,1,,,,,ガクト,0
1342,6013303006888,新規,0,2023-11-24,2023-11-24,Ｄｒｅａｍ　ｏｆ３合同会社,,合同会社,東京都,豊島区,南大塚１丁目６０－２０天翔大塚駅前ビル５階Ｓ５０６号室,,13,116,1700005,,,,,,,2023-11-24,1,,,,,ドリームオブスリー,0
1348,6020001154589,新規,0,2023-11-24,2023-11-24,ＤＥＬＩＧＨＴ　ｄｅｓｉｇｎ株式会社,,株式会社,神奈川県,横浜市西区,浜松町１１番２１号６０１号室,,14,103,2200055,,,,,,,2023-11-24,1,,,,,ディライトデザイン,0
1350,6020003025053,新規,0,2023-11-24,2023-11-24,合同会社ウィル横浜,,合同会社,神奈川県,横浜市旭区,川島町２０６６番地１５,,14,112,2410011,,,,,,,2023-11-24,1,,,,,ウィルヨコハマ,0
1354,6021001080809,新規,0,2023-11-24,2023-11-24,エイチアールホームズ株式会社,,株式会社,神奈川県,相模原市南区,東林間３丁目４番９号エスティー寿１Ｆ,,14,153,2520311,,,,,,,2023-11-24,1,,,,,エイチアールホームズ,0
1357,6021003013832,新規,0,2023-11-24,2023-11-24,合同会社ｃｈｒｏｍａｍａｇｉｃ,,合同会社,神奈川県,平塚市,宮の前９番２１－４０４号プレディアンスフォート,,14,203,2540035,,,,,,,2023-11-24,1,,,,,クロマジック,0
1363,6030001157319,新規,0,2023-11-24,2023-11-24,株式会社エッセンシャル,,株式会社,埼玉県,さいたま市西区,大字指扇９４１番地,,11,101,3310047,,,,,,,2023-11-24,1,,,,,エッセンシャル,0
1364,6030001157327,新規,0,2023-11-24,2023-11-24,マル・コーポレーション株式会社,,株式会社,埼玉県,川越市,大字大袋５１５番地,,11,201,3501168,,,,,,,2023-11-24,1,,,,,マルコーポレーション,0
1373,6030003023064,新規,0,2023-11-24,2023-11-24,合同会社Ｓｅｎ,,合同会社,埼玉県,志木市,本町２丁目１２番５２号,,11,228,3530004,,,,,,,2023-11-24,1,,,,,セン,0
1377,6040001130844,新規,0,2023-11-24,2023-11-24,ＪＭＢ株式会社,,株式会社,千葉県,松戸市,松戸市横須賀一丁目１番地の１６,,12,207,2710092,,,,,,,2023-11-24,1,,,,,ジェイエムビー,0
1378,6040001130910,新規,0,2023-11-24,2023-11-24,株式会社ｎｅｘｔ　ｌｅｖｅｌ,,株式会社,千葉県,松戸市,小山７５３番地の５,,12,207,2710093,,,,,,,2023-11-24,1,,,,,ネクストレベル,0
1379,6040001131058,新規,0,2023-11-24,2023-11-24,株式会社プルミエプラス,,株式会社,千葉県,松戸市,東松戸１丁目１７番地の４,,12,207,2702225,,,,,,,2023-11-24,1,,,,,プルミエプラス,0
1380,6040001131074,新規,0,2023-11-24,2023-11-24,イーユー株式会社,,株式会社,千葉県,千葉市稲毛区,小仲台３丁目１６番１号,,12,103,2630043,,,,,,,2023-11-24,1,,,,,イーユー,0
1381,6040001131082,新規,0,2023-11-24,2023-11-24,クロスリンク・コンサルティング株式会社,,株式会社,千葉県,千葉市中央区,新千葉１丁目７番２号ペリエ＋ｐｌｕｓビル１Ｆ・２Ｆ・３Ｆ,,12,101,2600031,,,,,,,2023-11-24,1,,,,,クロスリンクコンサルティング,0
1385,6050003007957,新規,0,2023-11-24,2023-11-24,ＫＯＡＳ合同会社,,合同会社,茨城県,水戸市,見川町２５６３番地の６１１アンジュ１０８号,,08,201,3100913,,,,,,,2023-11-24,1,,,,,コアズ,0
1386,6060001036585,新規,0,2023-11-24,2023-11-24,株式会社リベルタス,,株式会社,栃木県,小山市,大字間々田１６５５番地２,,09,208,3290205,,,,,,,2023-11-24,1,,,,,リベルタス,0
1387,6060003004813,新規,0,2023-11-24,2023-11-24,合同会社コネクトわたらせ,,合同会社,栃木県,足利市,南町４２５４番地３,,09,202,3260821,,,,,,,2023-11-24,1,,,,,コネクトワタラセ,0
1388,6070001041106,新規,0,2023-11-24,2023-11-24,株式会社フューチャー,,株式会社,群馬県,館林市,近藤町１８２番地２,,10,207,3740042,,,,,,,2023-11-24,1,,,,,フューチャー,0
1396,6090001018432,新規,0,2023-11-24,2023-11-24,株式会社キクコア,,株式会社,山梨県,笛吹市,御坂町夏目原１３３２番地１０,,19,211,4060804,,,,,,,2023-11-24,1,,,,,キクコア,0
1398,6090003002434,新規,0,2023-11-24,2023-11-24,ライフカルチャーデザイン合同会社,,合同会社,山梨県,甲府市,丸の内２丁目２番１号ＣＲＯＳＳ５００－１Ｆ,,19,201,4000031,,,,,,,2023-11-24,1,,,,,ライフカルチャーデザイン,0
1400,6100001036985,新規,0,2023-11-24,2023-11-24,株式会社Ｊ＆Ｋ,,株式会社,長野県,北佐久郡軽井沢町,大字追分５４番地１７,,20,321,3890115,,,,,,,2023-11-24,1,,,,,ジェイアンドケイ,0
1401,6100001036993,新規,0,2023-11-24,2023-11-24,株式会社エスメンテ,,株式会社,長野県,長野市,青木島町乙８２９番地４市川ビル２０１号,,20,201,3810000,,,,,,,2023-11-24,1,,,,,エスメンテ,0
1418,6120001260071,新規,0,2023-11-24,2023-11-24,ＪＹＪ株式会社,,株式会社,大阪府,大阪市城東区,野江３丁目２７－７野江１番館５０４号室,,27,118,5360006,,,,,,,2023-11-24,1,,,,,ジェイワイジェイ,0
1419,6120001260096,新規,0,2023-11-24,2023-11-24,株式会社Ｓｉｇｎ,,株式会社,大阪府,大阪市中央区,北久宝寺町３丁目６番１号本町南ガーデンシティ７Ｆ,,27,128,5410057,,,,,,,2023-11-24,1,,,,,サイン,0
1420,6120001260113,新規,0,2023-11-24,2023-11-24,株式会社ムーブ管理,,株式会社,大阪府,大阪市住吉区,上住吉２丁目３番４号,,27,120,5580046,,,,,,,2023-11-24,1,,,,,ムーブカンリ,0
1424,6120003025381,新規,0,2023-11-24,2023-11-24,永吉合同会社,,合同会社,大阪府,大阪市此花区,春日出南２丁目３番７号栄ハイツ２０１号室,,27,104,5540023,,,,,,,2023-11-24,1,,,,,エイキチ,0
1430,6120901048392,新規,0,2023-11-24,2023-11-24,株式会社リバティ赤阪,,株式会社,大阪府,豊中市,熊野町４丁目５番９号,,27,203,5600014,,,,,,,2023-11-24,1,,,,,リバティアカサカ,0
1433,6122001037607,新規,0,2023-11-24,2023-11-24,防災Ｍテクノ株式会社,,株式会社,大阪府,大東市,御供田２丁目１８番２３号,,27,218,5740025,,,,,,,2023-11-24,1,,,,,ボウサイエムテクノ,0
1435,6130001075766,新規,0,2023-11-24,2023-11-24,株式会社ＣＹＡＮ,,株式会社,京都府,京都市下京区,東洞院通七条下る東塩小路町５５３番地２・３階,,26,106,6008216,,,,,,,2023-11-24,1,,,,,シアン,0
1436,6130001075782,新規,0,2023-11-24,2023-11-24,株式会社今井不動産企画,,株式会社,京都府,相楽郡精華町,光台４丁目３７番地６,,26,366,6190237,,,,,,,2023-11-24,1,,,,,イマイフドウサンキカク,0
1456,6180001159036,新規,0,2023-11-24,2023-11-24,株式会社山門設備設計,,株式会社,愛知県,名古屋市千種区,山門町１丁目１２番地の６山門九六六２０１号,,23,101,4640064,,,,,,,2023-11-24,1,,,,,サンモンセツビセッケイ,0
1457,6180001159044,新規,0,2023-11-24,2023-11-24,株式会社ＯＴＳ,,株式会社,愛知県,名古屋市守山区,桜坂２丁目２７０３番地,,23,113,4630018,,,,,,,2023-11-24,1,,,,,オーティーエス,0
1464,6200005013541,新規,0,2023-11-24,2023-11-24,一般社団法人確定拠出年金振興協会,,その他の設立登記法人,岐阜県,羽島郡岐南町,八剣北４丁目１１１番地奥田ビル７階,,21,302,5016011,,,,,,,2023-11-24,1,,,,,カクテイキョシュツネンキンシンコウキョウカイ,0
1466,6220001025704,新規,0,2023-11-24,2023-11-24,株式会社３ＰＹ,,株式会社,石川県,白山市,八ツ矢町５７９番地３,,17,210,9240882,,,,,,,2023-11-24,1,,,,,スリーピーワイ,0
1488,6290001103809,新規,0,2023-11-24,2023-11-24,ビックワン株式会社,,株式会社,福岡県,福岡市博多区,博多駅南１丁目６番９号,,40,132,8120016,,,,,,,2023-11-24,1,,,,,ビックワン,0
1493,6290003014640,新規,0,2023-11-24,2023-11-24,合同会社ｓｏａｒ,,合同会社,福岡県,福岡市中央区,高砂１丁目８－８－５０１,,40,133,8100011,,,,,,,2023-11-24,1,,,,,ソアー,0
1494,6290803004551,新規,0,2023-11-24,2023-11-24,ＡＭＣ合同会社,,合同会社,福岡県,北九州市小倉南区,上吉田１丁目６－３,,40,107,8000201,,,,,,,2023-11-24,1,,,,,エイエムシー,0
1496,6310001018723,新規,0,2023-11-24,2023-11-24,株式会社Ｓａｎｃｔｕａｒｙ,,株式会社,長崎県,長崎市,西海町１７５３番地６６,,42,201,8513101,,,,,,,2023-11-24,1,,,,,サンクチュアリー,0
1497,6320001020158,新規,0,2023-11-24,2023-11-24,株式会社Ｃｏｎｎｅｃｔ　Ｇｌｏｂａｌ,,株式会社,大分県,大分市,豊海４丁目１番１号,,44,201,8700018,,,,,,,2023-11-24,1,,,,,コネクトグローバル,0
1498,6330001031501,新規,0,2023-11-24,2023-11-24,株式会社真わ,,株式会社,熊本県,上益城郡益城町,大字宮園４１６,,43,443,8612241,,,,,,,2023-11-24,1,,,,,,0
1502,6350003004494,新規,0,2023-11-24,2023-11-24,大和企画合同会社,,合同会社,宮崎県,宮崎市,大字赤江１４３２番地１３,,45,201,8800912,,,,,,,2023-11-24,1,,,,,ヤマトキカク,0
1504,6360001032851,新規,0,2023-11-24,2023-11-24,株式会社カカサポ,,株式会社,沖縄県,那覇市,楚辺２丁目２６番２２号１２０２,,47,201,9000023,,,,,,,2023-11-24,1,,,,,カカサポ,0
1505,6360003013503,新規,0,2023-11-24,2023-11-24,合同会社ライスシャワー,,合同会社,沖縄県,那覇市,久茂地３丁目２番２３号ザプラスビル３階,,47,201,9000015,,,,,,,2023-11-24,1,,,,,ライスシャワー,0
1506,6370003006381,新規,0,2023-11-24,2023-11-24,合同会社ＨＤＴ東北センター,,合同会社,宮城県,仙台市宮城野区,東仙台４丁目２番７６号,,04,102,9830833,,,,,,,2023-11-24,1,,,,,エイチディティトウホクセンター,0
1512,6420001018489,新規,0,2023-11-24,2023-11-24,株式会社山与鉄工,,株式会社,青森県,八戸市,白銀２丁目４番地１１,,02,203,0310821,,,,,,,2023-11-24,1,,,,,ヤマヨテッコウ,0
1516,6430001090454,新規,0,2023-11-24,2023-11-24,株式会社北海道地所,,株式会社,北海道,苫小牧市,澄川町２丁目１１番１５号,,01,213,0591271,,,,,,,2023-11-24,1,,,,,ホッカイドウジショ,0
1518,6450001014155,新規,0,2023-11-24,2023-11-24,株式会社南宗谷サポート,,株式会社,北海道,稚内市,末広１丁目５番２号,,01,214,0970001,,,,,,,2023-11-24,1,,,,,,0
1524,6490001010646,新規,0,2023-11-24,2023-11-24,双日土佐農人株式会社,,株式会社,高知県,南国市,里改田２１番地３,,39,204,7830082,,,,,,,2023-11-24,1,,,,,ソウジツトサノウジン,0
1537,7010001240273,新規,0,2023-11-24,2023-11-24,ＪＯＹ　ＨＡＲＢＯＲ株式会社,,株式会社,東京都,千代田区,神田佐久間町２丁目１８番地１秋葉原ＳＴＮフロント１０,,13,101,1010025,,,,,,,2023-11-24,1,,,,,ジョイハーバー,0
1538,7010001240281,新規,0,2023-11-24,2023-11-24,株式会社ｇｅｎｉｕｓｔｏｋｙｏ１４１,,株式会社,東京都,中央区,銀座１丁目１２番４号Ｎ＆ＥＢＬＤ．６階,,13,102,1040061,,,,,,,2023-11-24,1,,,,,ジニアストウキョウイシイ,0
1539,7010001240298,新規,0,2023-11-24,2023-11-24,株式会社ＲＯＣＫＳ,,株式会社,東京都,千代田区,神田神保町２丁目２０番４－１３０１号,,13,101,1010051,,,,,,,2023-11-24,1,,,,,ロックス,0
1540,7010001240307,新規,0,2023-11-24,2023-11-24,株式会社４９８,,株式会社,東京都,千代田区,神田東松下町２５－１００６,,13,101,1010042,,,,,,,2023-11-24,1,,,,,ヨンキュウハチ,0
1541,7010001240331,新規,0,2023-11-24,2023-11-24,国紅株式会社,,株式会社,東京都,中央区,日本橋富沢町５番５号エクセルシオール日本橋３０３,,13,102,1030006,,,,,,,2023-11-24,1,,,,,コクコウ,0
1543,7010003042288,新規,0,2023-11-24,2023-11-24,愛出行合同会社,,合同会社,東京都,中央区,入船１丁目１－２６永井ビル７階７０３号室,,13,102,1040042,,,,,,,2023-11-24,1,,,,,アイシュッコウ,0
1546,7010005037559,新規,0,2023-11-24,2023-11-24,一般社団法人海外著作権関係補償金等分配支援機構,,その他の設立登記法人,東京都,中央区,銀座１丁目１２番４号Ｎ＆Ｅビル６Ｆ,,13,102,1040061,,,,,,,2023-11-24,1,,,,,カイガイチョサクケンカンケイホショウキントウブンパイシエンキコウ,0
1568,7010601064196,新規,0,2023-11-24,2023-11-24,株式会社ｓｕｐｅｒｉｏｒｔｒａｎｓｐｏｒｔ,,株式会社,東京都,墨田区,東向島２丁目２番４号,,13,107,1310032,,,,,,,2023-11-24,1,,,,,スペリオールトランスポート,0
1582,7011001158381,新規,0,2023-11-24,2023-11-24,ＳＴＡＲＤＵＳＴ　ＭＥＤＩＡ株式会社,,株式会社,東京都,渋谷区,神宮前６丁目２９番４号原宿ｋｏｍｉｙａビル６階,,13,113,1500001,,,,,,,2023-11-24,1,,,,,スターダストメディア,0
1583,7011001158415,新規,0,2023-11-24,2023-11-24,株式会社マドモアゼル,,株式会社,東京都,渋谷区,恵比寿３丁目４３番３号シティハウス恵比寿伊達坂３０５,,13,113,1500013,,,,,,,2023-11-24,1,,,,,マドモアゼル,0
1584,7011001158431,新規,0,2023-11-24,2023-11-24,暮らしのコンシェルジュ株式会社,,株式会社,東京都,渋谷区,道玄坂１丁目１０番８号,,13,113,1500043,,,,,,,2023-11-24,1,,,,,クラシノコンシェルジュ,0
1588,7011103013773,新規,0,2023-11-24,2023-11-24,ネオメロ合同会社,,合同会社,東京都,新宿区,西新宿３丁目３番１３号西新宿水間ビル２Ｆ,,13,104,1600023,,,,,,,2023-11-24,1,,,,,ネオメロ,0
1590,7011203004235,新規,0,2023-11-24,2023-11-24,合同会社バウン社,,合同会社,東京都,中野区,沼袋１丁目１０番１３号,,13,114,1650025,,,,,,,2023-11-24,1,,,,,バウンシャ,0
1592,7011305002946,新規,0,2023-11-24,2023-11-24,一般社団法人マイパレ,,その他の設立登記法人,東京都,杉並区,和泉３丁目５１－２３,,13,115,1680063,,,,,,,2023-11-24,1,,,,,マイパレ,0
1595,7011503005858,新規,0,2023-11-24,2023-11-24,合同会社リンクル,,合同会社,東京都,北区,岩淵町３７－５－２０１アーンジュ赤羽岩淵,,13,117,1150041,,,,,,,2023-11-24,1,,,,,リンクル,0
1601,7011803005954,新規,0,2023-11-24,2023-11-24,ＺｅｎＢｌｏｏｍ合同会社,,合同会社,東京都,葛飾区,亀有３丁目４３番３－１１０３号エクセレントシティ亀有ステーションスイート,,13,122,1250061,,,,,,,2023-11-24,1,,,,,ゼンブローム,0
1602,7012401041219,新規,0,2023-11-24,2023-11-24,株式会社ワダ建,,株式会社,東京都,府中市,紅葉丘２丁目８番地の１３,,13,206,1830004,,,,,,,2023-11-24,1,,,,,ワダケン,0
1603,7012705002379,新規,0,2023-11-24,2023-11-24,一般社団法人どりーむらぼ,,その他の設立登記法人,東京都,西東京市,緑町３丁目６番３２号,,13,229,1880002,,,,,,,2023-11-24,1,,,,,ドリームラボ,0
1607,7013101009290,新規,0,2023-11-24,2023-11-24,株式会社エスライン,,株式会社,東京都,あきる野市,草花３０２２番地１１,,13,228,1970802,,,,,,,2023-11-24,1,,,,,エスライン,0
1609,7013301051670,新規,0,2023-11-24,2023-11-24,金剛株式会社,,株式会社,東京都,豊島区,池袋４丁目３番５－７０３号,,13,116,1710014,,,,,,,2023-11-24,1,,,,,コンゴウ,0
1610,7013303006887,新規,0,2023-11-24,2023-11-24,合同会社ゆまも,,合同会社,東京都,豊島区,池袋２丁目６２番１号ＰＩＳＯ池袋６０７,,13,116,1710014,,,,,,,2023-11-24,1,,,,,ユマモ,0
1615,7020001154596,新規,0,2023-11-24,2023-11-24,株式会社ＶＡＭＯＳ,,株式会社,神奈川県,川崎市多摩区,南生田３丁目９番１１号,,14,135,2140036,,,,,,,2023-11-24,1,,,,,バモス,0
1617,7020003025052,新規,0,2023-11-24,2023-11-24,合同会社まゆか,,合同会社,神奈川県,川崎市麻生区,早野３９３番地１,,14,137,2150016,,,,,,,2023-11-24,1,,,,,マユカ,0
1628,7030001157318,新規,0,2023-11-24,2023-11-24,株式会社アップグレード,,株式会社,埼玉県,北葛飾郡杉戸町,大字堤根４１３９番地４,,11,464,3450024,,,,,,,2023-11-24,1,,,,,アップグレード,0
1629,7030001157334,新規,0,2023-11-24,2023-11-24,株式会社Ｗｅｌｌｎｅｓｓ　Ｔａｉｌｏｒ,,株式会社,埼玉県,草加市,氷川町２１０４番地３シルフィード氷川１０３,,11,221,3400034,,,,,,,2023-11-24,1,,,,,ウェルネステイラー,0
1636,7030003022940,新規,0,2023-11-24,2023-11-24,ホワイトルーム合同会社,,合同会社,埼玉県,川口市,川口２丁目１７番４８号グリーンビュー第三川口５２０号室,,11,203,3320015,,,,,,,2023-11-24,1,,,,,ホワイトルーム,0
1637,7030003023063,新規,0,2023-11-24,2023-11-24,ＧＲＥＥＮ　ＩＤＥＡ　ＪＡＰＡＮ合同会社,,合同会社,埼玉県,さいたま市南区,別所１丁目３番１８号シャルム別所３０６号室,,11,108,3360021,,,,,,,2023-11-24,1,,,,,グリーンアイディアジャパン,0
1638,7030005021486,新規,0,2023-11-24,2023-11-24,土地家屋調査士法人みらい図,,その他の設立登記法人,埼玉県,草加市,高砂２丁目１８番４号たまらビル３階,,11,221,3400015,,,,,,,2023-11-24,1,,,,,ミライズ,0
1640,7040001131081,新規,0,2023-11-24,2023-11-24,株式会社ほりこし,,株式会社,千葉県,野田市,柳沢５５番地の１,,12,208,2780006,,,,,,,2023-11-24,1,,,,,ホリコシ,0
1643,7040003023780,新規,0,2023-11-24,2023-11-24,千屋興業合同会社,,合同会社,千葉県,館山市,北条３１７番地の７,,12,205,2940045,,,,,,,2023-11-24,1,,,,,センヤコウギョウ,0
1644,7040003023797,新規,0,2023-11-24,2023-11-24,合同会社ＬＤラボ,,合同会社,千葉県,千葉市中央区,末広２丁目２－３－５０２,,12,101,2600843,,,,,,,2023-11-24,1,,,,,エルディーラボ,0
1647,7060001036568,新規,0,2023-11-24,2023-11-24,株式会社ＫＡＲＭＡＣ,,株式会社,栃木県,真岡市,久下田西７丁目３１番地１２サンハイツ二宮パート３－２０２号室,,09,209,3214522,,,,,,,2023-11-24,1,,,,,カーマック,0
1648,7060001036584,新規,0,2023-11-24,2023-11-24,株式会社Ｔｈｉｒｄ　Ｌｉｎｋ,,株式会社,栃木県,鹿沼市,栄町１丁目４番６号,,09,205,3220028,,,,,,,2023-11-24,1,,,,,サードリンク,0
1658,7080101024355,新規,0,2023-11-24,2023-11-24,株式会社サルマンカーン,,株式会社,静岡県,沼津市,植田２８２番地の８,,22,203,4100316,,,,,,,2023-11-24,1,,,,,サルマンカーン,0
1660,7090001018431,新規,0,2023-11-24,2023-11-24,株式会社ピーステリア,,株式会社,山梨県,中央市,若宮１３番地１,,19,214,4093803,,,,,,,2023-11-24,1,,,,,ピーステリア,0
1661,7100001036992,新規,0,2023-11-24,2023-11-24,株式会社Ｓｔａｙ　Ａｘｉｓ,,株式会社,長野県,松本市,梓川梓２３３２番地１５,,20,202,3901702,,,,,,,2023-11-24,1,,,,,ステイアクシス,0
1662,7100003007281,新規,0,2023-11-24,2023-11-24,合同会社北アルプスワークサイト,,合同会社,長野県,安曇野市,穂高柏原４３２６－８,,20,220,3998304,,,,,,,2023-11-24,1,,,,,キタアルプスワークサイト,0
1669,7120001259971,新規,0,2023-11-24,2023-11-24,和美株式会社,,株式会社,大阪府,大阪市東淀川区,菅原１丁目１５－１５－２０３号,,27,114,5330022,,,,,,,2023-11-24,1,,,,,ワミ,0
1670,7120001260070,新規,0,2023-11-24,2023-11-24,Ｙｕａｎ　ｓｕｃｃｅｓｓ株式会社,,株式会社,大阪府,大阪市城東区,野江３丁目２７－７野江１番館５０６号室,,27,118,5360006,,,,,,,2023-11-24,1,,,,,ユーアーンサクセス,0
1671,7120001260120,新規,0,2023-11-24,2023-11-24,株式会社ＢＥＣＯＭＥ,,株式会社,大阪府,大阪市北区,堂島１丁目２番２３号田園ビル２Ｆ,,27,127,5300003,,,,,,,2023-11-24,1,,,,,ビカム,0
1672,7120001260137,新規,0,2023-11-24,2023-11-24,星浩株式会社,,株式会社,大阪府,大阪市港区,弁天１丁目２－１－１４Ｆ,,27,107,5520007,,,,,,,2023-11-24,1,,,,,セイコウ,0
1673,7120001260145,新規,0,2023-11-24,2023-11-24,株式会社ＧＡＩＡソリューションズ,,株式会社,大阪府,大阪市北区,西天満６丁目８番７号ＤＫビル７０３号,,27,127,5300047,,,,,,,2023-11-24,1,,,,,ガイアソリューションズ,0
1684,7120101068579,新規,0,2023-11-24,2023-11-24,株式会社ルシェア,,株式会社,大阪府,河内長野市,南貴望ケ丘３０番１－１００１号,,27,216,5860092,,,,,,,2023-11-24,1,,,,,ルシェア,0
1685,7120103005547,新規,0,2023-11-24,2023-11-24,合同会社ＲＲ,,合同会社,大阪府,堺市西区,草部３８４番地５,,27,144,5938312,,,,,,,2023-11-24,1,,,,,ダブルアール,0
1691,7120901048400,新規,0,2023-11-24,2023-11-24,株式会社昌奏,,株式会社,大阪府,箕面市,萱野４丁目１０番７－１０３号,,27,220,5620014,,,,,,,2023-11-24,1,,,,,ショウソウ,0
1692,7120901048409,新規,0,2023-11-24,2023-11-24,株式会社Ｍアセット,,株式会社,大阪府,摂津市,鳥飼本町１丁目２番４３号,,27,224,5660052,,,,,,,2023-11-24,1,,,,,エムアセット,0
1695,7130001075781,新規,0,2023-11-24,2023-11-24,株式会社京吉田喜,,株式会社,京都府,宇治市,槇島町石橋９番地の５,,26,204,6110041,,,,,,,2023-11-24,1,,,,,キョウヨシダキ,0
1706,7140003019851,新規,0,2023-11-24,2023-11-24,インフェアネス合同会社,,合同会社,兵庫県,神戸市中央区,浜辺通４丁目１番２３号,,28,110,6510083,,,,,,,2023-11-24,1,,,,,インフェアネス,0
1723,7180005020432,新規,0,2023-11-24,2023-11-24,ＴＳＵＮＡＧＵ協同組合,,その他の設立登記法人,愛知県,あま市,上萱津上野３番地５,,23,237,4901112,,,,,,,2023-11-24,1,,,,,ツナグ,0
1727,7200001041909,新規,0,2023-11-24,2023-11-24,一畫美樂株式会社,,株式会社,岐阜県,美濃加茂市,太田町字飛鹿１９４０番１２,,21,211,5050041,,,,,,,2023-11-24,1,,,,,イチエミラク,0
1734,7220005008794,新規,0,2023-11-24,2023-11-24,特定非営利活動法人ふくろうのもり,,その他の設立登記法人,石川県,河北郡津幡町,字津幡ナ６８番地４１,,17,361,9290323,,,,,,,2023-11-24,1,,,,,フクロウノモリ,0
1736,7230001020117,新規,0,2023-11-24,2023-11-24,株式会社タイワホールディングス,,株式会社,富山県,富山市,関１８６番地,,16,201,9398123,,,,,,,2023-11-24,1,,,,,タイワホールディングス,0
1738,7240003006427,新規,0,2023-11-24,2023-11-24,合同会社ライフィー,,合同会社,広島県,広島市安佐南区,西原２丁目２６番３９号,,34,105,7310113,,,,,,,2023-11-24,1,,,,,ライフィー,0
1740,7260001038511,新規,0,2023-11-24,2023-11-24,株式会社三一プロ,,株式会社,岡山県,瀬戸内市,長船町服部６８６番地１,,33,212,7014276,,,,,,,2023-11-24,1,,,,,サンイチプロ,0
1742,7260005011299,新規,0,2023-11-24,2023-11-24,医療法人社団ゆずりは歯科,,その他の設立登記法人,岡山県,岡山市中区,江崎８２番地１,,33,102,7028005,,,,,,,2023-11-24,1,,,,,ユズリハシカ,0
1744,7270001008876,新規,0,2023-11-24,2023-11-24,ｉＴＭＴ株式会社,,株式会社,鳥取県,鳥取市,若葉台南７丁目５番１号,,31,201,6891112,,,,,,,2023-11-24,1,,,,,アイティーエムティー,0
1748,7280001009072,新規,0,2023-11-24,2023-11-24,株式会社ＵＴＡＴＯＢＩ,,株式会社,島根県,松江市,八雲町東岩坂２６７,,32,201,6902102,,,,,,,2023-11-24,1,,,,,ウタトビ,0
1750,7290001103808,新規,0,2023-11-24,2023-11-24,株式会社バーディア,,株式会社,福岡県,福岡市東区,高美台３丁目２０番１０号,,40,131,8110215,,,,,,,2023-11-24,1,,,,,バーディア,0
1758,7300001013526,新規,0,2023-11-24,2023-11-24,株式会社一,,株式会社,佐賀県,三養基郡みやき町,大字白壁１０７４番地３市村清記念メディカルコミュニティセンター２Ｆ,,41,346,8490111,,,,,,,2023-11-24,1,,,,,ハジメ,0
1760,7330001031500,新規,0,2023-11-24,2023-11-24,株式会社岩崎精肉店,00132783,株式会社,熊本県,宇城市,不知火町御領７１０番地１,,43,213,8690551,,,,,,,2023-11-24,1,,,,,イワサキセイニクテン,0
1761,7330001031509,新規,0,2023-11-24,2023-11-24,株式会社林田緑地,,株式会社,熊本県,熊本市北区,改寄町１７１９－２,,43,105,8615501,,,,,,,2023-11-24,1,,,,,ハヤシダリョクチ,0
1762,7330005010723,新規,0,2023-11-24,2023-11-24,社会福祉法人光和会,,その他の設立登記法人,熊本県,上益城郡御船町,大字滝川字南原１７４９番１,,43,441,8613205,,,,,,,2023-11-24,1,,,,,コウワカイ,0
1763,7350001018677,新規,0,2023-11-24,2023-11-24,ＬｕｍｉＤ＆ＮＡファーマ株式会社,,株式会社,宮崎県,宮崎市,学園木花台西１丁目１番地,,45,201,8892155,,,,,,,2023-11-24,1,,,,,ルミディーアンドエヌエーファーマ,0
1764,7350003004493,新規,0,2023-11-24,2023-11-24,合同会社エナジーパートナー,,合同会社,宮崎県,宮崎市,田代町５６番地６,,45,201,8800855,,,,,,,2023-11-24,1,,,,,エナジーパートナー,0
1766,7370001050653,新規,0,2023-11-24,2023-11-24,株式会社ブレスト,,株式会社,宮城県,仙台市青葉区,栗生５丁目１６番地の６,,04,101,9893122,,,,,,,2023-11-24,1,,,,,ブレスト,0
1767,7370005010711,新規,0,2023-11-24,2023-11-24,司法書士法人松尾事務所,,その他の設立登記法人,宮城県,仙台市青葉区,宮町１丁目３番３－９０２号,,04,101,9800004,,,,,,,2023-11-24,1,,,,,マツオジムショ,0
1780,7430001090494,新規,0,2023-11-24,2023-11-24,株式会社ＡＹＵＭＩ,,株式会社,北海道,札幌市白石区,北郷一条１丁目５番７号プレステージ３０３号,,01,104,0030831,,,,,,,2023-11-24,1,,,,,アユミ,0
1781,7430003015648,新規,0,2023-11-24,2023-11-24,Ｎ’ｓリフォーム合同会社,,合同会社,北海道,札幌市東区,北十五条東５丁目１番５１号,,01,103,0650015,,,,,,,2023-11-24,1,,,,,エヌズリフォーム,0
1782,7440005002767,新規,0,2023-11-24,2023-11-24,一般社団法人オーバルライフ,,その他の設立登記法人,北海道,函館市,中道２丁目４７番１４号,,01,202,0410853,,,,,,,2023-11-24,1,,,,,オーバルライフ,0
1783,7450001014154,新規,0,2023-11-24,2023-11-24,株式会社ナガヤマ,,株式会社,北海道,旭川市,流通団地一条１丁目５番３号,,01,204,0798441,,,,,,,2023-11-24,1,,,,,,0
1799,8010001240280,新規,0,2023-11-24,2023-11-24,大和ハウスベンチャーズ株式会社,,株式会社,東京都,千代田区,飯田橋３丁目１３番１号,,13,101,1020072,,,,,,,2023-11-24,1,,,,,ダイワハウスベンチャーズ,0
1803,8010005037566,新規,0,2023-11-24,2023-11-24,一般社団法人ＬＥＶＥＣＨＹ１２号,,その他の設立登記法人,東京都,千代田区,紀尾井町３－８第２紀尾井町ビル９０１アクシス綜合会計事務所内,,13,101,1020094,,,,,,,2023-11-24,1,,,,,レベチージュウニゴウ,0
1808,8010401178666,新規,0,2023-11-24,2023-11-24,株式会社Ｐｌａｙ２Ｓｐｅａｋ．Ｃｏ,,株式会社,東京都,港区,北青山１丁目３番１号アールキューブ青山３階,,13,103,1070061,,,,,,,2023-11-24,1,,,,,プレイトゥスピークコー,0
1809,8010401178699,新規,0,2023-11-24,2023-11-24,株式会社ＳＯＶＡＮＴ　ＳＰＯＲＴＳ,,株式会社,東京都,港区,虎ノ門５丁目１１番１号,,13,103,1050001,,,,,,,2023-11-24,1,,,,,ソヴァンスポーツ,0
1810,8010401178724,新規,0,2023-11-24,2023-11-24,大和インベストメント株式会社,,株式会社,東京都,港区,虎ノ門４丁目１番３４－１１０７号,,13,103,1050001,,,,,,,2023-11-24,1,,,,,ダイワインベストメント,0
1819,8010601064170,新規,0,2023-11-24,2023-11-24,両国ｗｅｂ企画株式会社,,株式会社,東京都,墨田区,錦糸４丁目３－１０リュミエール錦糸５０１,,13,107,1300013,,,,,,,2023-11-24,1,,,,,リョウゴクウェブキカク,0
1820,8010601064179,新規,0,2023-11-24,2023-11-24,株式会社大矢サポート,,株式会社,東京都,江東区,新木場１丁目１２番１９号,,13,108,1360082,,,,,,,2023-11-24,1,,,,,オオヤサポート,0
1823,8010701045161,新規,0,2023-11-24,2023-11-24,株式会社品川クリーンサービス,,株式会社,東京都,品川区,戸越５丁目１１－４,,13,109,1420041,,,,,,,2023-11-24,1,,,,,シナガワクリーンサービス,0
1824,8010801034543,新規,0,2023-11-24,2023-11-24,株式会社アイホーム,,株式会社,東京都,大田区,中央３丁目５番２号,,13,111,1430024,,,,,,,2023-11-24,1,,,,,アイホーム,0
1826,8010901054243,新規,0,2023-11-24,2023-11-24,株式会社Ｃｈｌｏｒｏｐｌａｓｔ,,株式会社,東京都,世田谷区,上野毛１丁目１２－８イング・ケイキューブ２０１,,13,112,1580093,,,,,,,2023-11-24,1,,,,,クロロプラスト,0
1827,8010901054251,新規,0,2023-11-24,2023-11-24,株式会社優建物,,株式会社,東京都,世田谷区,豪徳寺１丁目１番５－２０１号,,13,112,1540021,,,,,,,2023-11-24,1,,,,,ユウタテモノ,0
1832,8011001158380,新規,0,2023-11-24,2023-11-24,Ｂ株式会社,,株式会社,東京都,渋谷区,神宮前５丁目４６番２４号,,13,113,1500001,,,,,,,2023-11-24,1,,,,,ビー,0
1833,8011001158389,新規,0,2023-11-24,2023-11-24,Ｆ．Ｒｅｌａｔｉｏｎ株式会社,,株式会社,東京都,渋谷区,道玄坂１丁目１０番８号渋谷道玄坂東急ビル２Ｆ－Ｃ,,13,113,1500043,,,,,,,2023-11-24,1,,,,,エフリレーション,0
1834,8011001158414,新規,0,2023-11-24,2023-11-24,株式会社イロドリ,,株式会社,東京都,渋谷区,本町１丁目２０番２－８０７号パルムハウス初台,,13,113,1510071,,,,,,,2023-11-24,1,,,,,イロドリ,0
1836,8011005010281,新規,0,2023-11-24,2023-11-24,一般社団法人日本健康スポーツ指導者協会,,その他の設立登記法人,東京都,目黒区,青葉台１丁目１５番１０号ＪＹフラット３Ｆ,,13,110,1530042,,,,,,,2023-11-24,1,,,,,ニホンケンコウスポーツシドウシャキョウカイ,0
1841,8011101105209,新規,0,2023-11-24,2023-11-24,株式会社ＰＥＺ,,株式会社,東京都,新宿区,高田馬場４丁目８番２号,,13,104,1690075,,,,,,,2023-11-24,1,,,,,ペズ,0
1846,8011503005857,新規,0,2023-11-24,2023-11-24,合同会社ゴールド,,合同会社,東京都,北区,赤羽南１丁目８番５号ＴＳビル地下１階,,13,117,1150044,,,,,,,2023-11-24,1,,,,,ゴールド,0
1849,8011601027308,新規,0,2023-11-24,2023-11-24,世大株式会社,,株式会社,東京都,練馬区,北町２丁目４０番１号,,13,120,1790081,,,,,,,2023-11-24,1,,,,,セダイ,0
1856,8012303001906,新規,0,2023-11-24,2023-11-24,合同会社とろり,,合同会社,東京都,町田市,原町田２丁目１番１４号コスモイニシア５０２,,13,209,1940013,,,,,,,2023-11-24,1,,,,,トロリ,0
1857,8012701017966,新規,0,2023-11-24,2023-11-24,株式会社角芝,,株式会社,東京都,東村山市,久米川町１丁目３５番地１ライオンズマンション二番館７０６,,13,213,1890003,,,,,,,2023-11-24,1,,,,,カドシバ,0
1860,8020001154612,新規,0,2023-11-24,2023-11-24,株式会社八十喜,00132776,株式会社,神奈川県,横浜市中区,大芝台４番地,,14,104,2310858,,,,,,,2023-11-24,1,,,,,ハチジュウキ,0
1861,8020001154620,新規,0,2023-11-24,2023-11-24,ＲＫ株式会社,,株式会社,神奈川県,横浜市南区,吉野町１丁目１番地４プランヴェール吉野町２０４,,14,105,2320014,,,,,,,2023-11-24,1,,,,,,0
1871,8021001080815,新規,0,2023-11-24,2023-11-24,株式会社優,,株式会社,神奈川県,相模原市中央区,上溝６丁目８番５－１号,,14,152,2520243,,,,,,,2023-11-24,1,,,,,ユウ,0
1872,8021001080823,新規,0,2023-11-24,2023-11-24,ＢＩＧ　ＯＮＥ株式会社,,株式会社,神奈川県,厚木市,緑ケ丘５丁目５番１号メゾンフルール１０４,,14,212,2430041,,,,,,,2023-11-24,1,,,,,ビッグワン,0
1873,8021003013830,新規,0,2023-11-24,2023-11-24,合同会社花鳥風月,,合同会社,神奈川県,茅ヶ崎市,南湖７丁目１２８６９－１９４,,14,207,2530061,,,,,,,2023-11-24,1,,,,,カチョウフウゲツ,0
1883,8030001157317,新規,0,2023-11-24,2023-11-24,株式会社シェノン,,株式会社,埼玉県,入間市,大字根岸３１８番地６,,11,225,3580034,,,,,,,2023-11-24,1,,,,,シェノン,0
1884,8030001157341,新規,0,2023-11-24,2023-11-24,株式会社ＢＵＤＯ　ＥＸＰＯＲＴ,,株式会社,埼玉県,和光市,白子２丁目２７－５１,,11,229,3510101,,,,,,,2023-11-24,1,,,,,ブドウエクスポート,0
1890,8030003023054,新規,0,2023-11-24,2023-11-24,合同会社Ｗｏｒｌｄ　Ｄｒｏｎｅ　Ｐｒｏｊｅｃｔ,,合同会社,埼玉県,越谷市,蒲生南町２番１４－２号,,11,222,3430833,,,,,,,2023-11-24,1,,,,,ワールドドローンプロジェクト,0
1891,8030003023062,新規,0,2023-11-24,2023-11-24,合同会社ベネヴィス,,合同会社,埼玉県,さいたま市大宮区,上小町３２６番地６,,11,103,3300855,,,,,,,2023-11-24,1,,,,,ベネヴィス,0
1896,8040001131064,新規,0,2023-11-24,2023-11-24,株式会社宮田工業,,株式会社,千葉県,柏市,箕輪１０９番地３,,12,217,2770912,,,,,,,2023-11-24,1,,,,,ミヤタコウギョウ,0
1897,8040001131072,新規,0,2023-11-24,2023-11-24,旭産業株式会社,,株式会社,千葉県,柏市,旭町８丁目５番２０号,,12,217,2770852,,,,,,,2023-11-24,1,,,,,アサヒサンギョウ,0
1900,8040003023788,新規,0,2023-11-24,2023-11-24,合同会社ＩＣＳ,,合同会社,千葉県,千葉市稲毛区,小仲台１丁目５番２６号ハイホーム稲毛チェリーヒルズ６１４号,,12,103,2630043,,,,,,,2023-11-24,1,,,,,アイシーエス,0
1904,8060001036583,新規,0,2023-11-24,2023-11-24,株式会社アニマルウェルフェア,,株式会社,栃木県,宇都宮市,中今泉１丁目１８番１９号グランフォルムＩＩ３０３,00132785,09,201,3210968,,,,,,,2023-11-24,1,,,,,アニマルウェルフェア,0
1907,8070003005172,新規,0,2023-11-24,2023-11-24,合同会社スマイル,,合同会社,群馬県,高崎市,箕郷町白川８０番地,,10,202,3703117,,,,,,,2023-11-24,1,,,,,スマイル,0
1910,8080403004913,新規,0,2023-11-24,2023-11-24,合同会社Ｃｏｕｒａｇｅ‐Ａｓｓｅｔ,,合同会社,静岡県,浜松市中区,領家２丁目２３番１２号,,22,131,4300852,,,,,,,2023-11-24,1,,,,,クラージュアセット,0
1921,8120001260086,新規,0,2023-11-24,2023-11-24,株式会社Ｌｕｍｉｎｏｕｓ,,株式会社,大阪府,守口市,寺方元町１丁目７－２－２階,,27,209,5700047,,,,,,,2023-11-24,1,,,,,ルミナス,0
1922,8120001260136,新規,0,2023-11-24,2023-11-24,株式会社神清建設,,株式会社,大阪府,大阪市天王寺区,烏ケ辻１丁目１番６号,00132788,27,109,5430042,,,,,,,2023-11-24,1,,,,,カミセイケンセツ,0
1931,8120901048408,新規,0,2023-11-24,2023-11-24,株式会社パインホーム,,株式会社,大阪府,茨木市,鮎川３丁目２番３号,,27,211,5670831,,,,,,,2023-11-24,1,,,,,パインホーム,0
1933,8120903004937,新規,0,2023-11-24,2023-11-24,合同会社ＭＲＣ,,合同会社,大阪府,豊中市,緑丘４丁目３４番２２号,,27,203,5600002,,,,,,,2023-11-24,1,,,,,エムアールシー,0
1935,8122001037605,新規,0,2023-11-24,2023-11-24,Ｓ＆Ｓグローバルコーポレーション株式会社,,株式会社,大阪府,東大阪市,御厨３丁目２番２３号,,27,227,5770032,,,,,,,2023-11-24,1,,,,,エスアンドエスグローバルコーポレーション,0
1938,8130001075772,新規,0,2023-11-24,2023-11-24,実現株式会社,,株式会社,京都府,京都市東山区,本町１２丁目２２２番地１２,,26,105,6050981,,,,,,,2023-11-24,1,,,,,ジツゲン,0
1939,8130001075797,新規,0,2023-11-24,2023-11-24,株式会社Ａｒｕ,,株式会社,京都府,京都市右京区,梅津南上田町５８番地ウエストＮビル１Ｆ,,26,108,6150913,,,,,,,2023-11-24,1,,,,,アル,0
1956,8180301038053,新規,0,2023-11-24,2023-11-24,八尾商店株式会社,,株式会社,愛知県,豊田市,東山町２丁目１５９８番地,,23,211,4710014,,,,,,,2023-11-24,1,,,,,ヤオショウテン,0
1960,8190001030904,新規,0,2023-11-24,2023-11-24,ブライトネス・パートナーズ株式会社,,株式会社,三重県,伊勢市,辻久留３丁目５番５２号,,24,203,5160066,,,,,,,2023-11-24,1,,,,,ブライトネスパートナーズ,0
1982,8290001103807,新規,0,2023-11-24,2023-11-24,株式会社ゼロハチ,,株式会社,福岡県,福岡市早良区,野芥３丁目１４番２号,,40,137,8140171,,,,,,,2023-11-24,1,,,,,ゼロハチ,0
1987,8300001013533,新規,0,2023-11-24,2023-11-24,株式会社ＨＯＲＡＮ’Ｉ,,株式会社,佐賀県,佐賀市,久保泉町大字川久保５８３番地,,41,201,8490901,,,,,,,2023-11-24,1,,,,,ホランイ,0
1989,8320001020156,新規,0,2023-11-24,2023-11-24,株式会社ＤＥＡＲＥＳＴ,,株式会社,大分県,大分市,萩原３丁目１０－５ダイヤモンドハウス萩原５０３,,44,201,8700921,,,,,,,2023-11-24,1,,,,,ディアレスト,0
1991,8330003010096,新規,0,2023-11-24,2023-11-24,合同会社ＫＲＥＳ,,合同会社,熊本県,熊本市中央区,壺川２丁目２番６号,,43,101,8600076,,,,,,,2023-11-24,1,,,,,ケイアールイーエス,0
1995,8350001018676,新規,0,2023-11-24,2023-11-24,株式会社Ｏ．Ｅ．Ｔ,,株式会社,宮崎県,宮崎市,中央通１番１９号,,45,201,8800002,,,,,,,2023-11-24,1,,,,,オーイーティー,0
1996,8350003004492,新規,0,2023-11-24,2023-11-24,Ｔ＆Ｏ合同会社,,合同会社,宮崎県,宮崎市,昭和町１８４番地,,45,201,8800874,,,,,,,2023-11-24,1,,,,,ティーアンドオー,0
1997,8370003006396,新規,0,2023-11-24,2023-11-24,合同会社ＳＪＩ,,合同会社,宮城県,仙台市泉区,松森字台８６－１ｃｅｎｔｒａｌ　ｓｏｌｅｉｌＩ－２０３,00132778,04,105,9813111,,,,,,,2023-11-24,1,,,,,エスジェイアイ,0
1999,8380001034150,新規,0,2023-11-24,2023-11-24,株式会社ファースト,,株式会社,福島県,いわき市,常磐藤原町湯ノ岳４２番地２４,,07,204,9728326,,,,,,,2023-11-24,1,,,,,ファースト,0
2006,8450001014153,新規,0,2023-11-24,2023-11-24,株式会社アサヒリバー,,株式会社,北海道,旭川市,流通団地一条１丁目５番３号,,01,204,0798441,,,,,,,2023-11-24,1,,,,,,0
2013,8470003002518,新規,0,2023-11-24,2023-11-24,合同会社ソリューション＆サポート,,合同会社,香川県,高松市,天神前１０番５号,,37,201,7600018,,,,,,,2023-11-24,1,,,,,ソリューションアンドサポート,0
2014,8490001010644,新規,0,2023-11-24,2023-11-24,サウナリージャパン株式会社,,株式会社,高知県,高知市,唐人町１番１６号,,39,201,7800864,,,,,,,2023-11-24,1,,,,,,0
2016,8500001025327,新規,0,2023-11-24,2023-11-24,ＮＰＳ・イヨサン株式会社,,株式会社,愛媛県,四国中央市,豊岡町豊田２３番地１,,38,213,7990433,,,,,,,2023-11-24,1,,,,,エヌピーエスイヨサン,0
2023,9010001240263,新規,0,2023-11-24,2023-11-24,Ｏｖｅｒｓｅａｓ　Ｇｒｏｕｐ株式会社,,株式会社,東京都,千代田区,丸の内１丁目１１番１号パシフィックセンチュリープレイス丸の内１３Ｆ,,13,101,1000005,,,,,,,2023-11-24,1,,,,,オーバーシーグループ,0
2031,9010005037565,新規,0,2023-11-24,2023-11-24,一般社団法人ＬＥＶＥＣＨＹ１１号,,その他の設立登記法人,東京都,千代田区,紀尾井町３－８第２紀尾井町ビル９０１アクシス綜合会計事務所内,,13,101,1020094,,,,,,,2023-11-24,1,,,,,レベチージュウイチゴウ,0
2032,9010401178665,新規,0,2023-11-24,2023-11-24,株式会社ＡＫＡＴＳＵＫＩ,,株式会社,東京都,港区,高輪１丁目２３番２３－３０７号,,13,103,1080074,,,,,,,2023-11-24,1,,,,,アカツキ,0
2039,9010601064203,新規,0,2023-11-24,2023-11-24,株式会社ＡＴＦ,,株式会社,東京都,墨田区,錦糸４丁目１番２６号プラウド錦糸公園５０１,,13,107,1300013,,,,,,,2023-11-24,1,,,,,エーティーエフ,0
2041,9010603010485,新規,0,2023-11-24,2023-11-24,合同会社Ｂｒｉｇｈｔ,,合同会社,東京都,墨田区,亀沢１丁目７番１０号,,13,107,1300014,,,,,,,2023-11-24,1,,,,,ブライト,0
2046,9010901054234,新規,0,2023-11-24,2023-11-24,株式会社ＡＲＯＭＡ　ＪＡＺＺ,,株式会社,東京都,世田谷区,宇奈根２丁目３番１１号,,13,112,1570068,,,,,,,2023-11-24,1,,,,,アロマジャズ,0
2054,9011001158339,新規,0,2023-11-24,2023-11-24,株式会社ＳｐａｒｋＮｏｗ,,株式会社,東京都,渋谷区,神泉町１０番１５号アネックス神泉３０１,,13,113,1500045,,,,,,,2023-11-24,1,,,,,スパークナウ,0
2055,9011001158405,新規,0,2023-11-24,2023-11-24,Ｂｕｉｌｄ　Ｈｏｕｓｅタカ株式会社,,株式会社,東京都,目黒区,下目黒６丁目１３番７号,,13,110,1530064,,,,,,,2023-11-24,1,,,,,ビルドハウスタカ,0
2060,9011201025066,新規,0,2023-11-24,2023-11-24,株式会社ＮＯＭＡＤ　ＳＴＵＤＩＯ,,株式会社,東京都,中野区,東中野５丁目１８－１６－Ｅ１０３,,13,114,1640003,,,,,,,2023-11-24,1,,,,,ノマドスタジオ,0
2061,9011203004233,新規,0,2023-11-24,2023-11-24,合同会社エスポワール,,合同会社,東京都,中野区,新井４丁目２６番８号フィルハーモニア４０２,,13,114,1650026,,,,,,,2023-11-24,1,,,,,エスポワール,0
2064,9011501030030,新規,0,2023-11-24,2023-11-24,Ｍ・Ｓ・Ｐ株式会社,,株式会社,東京都,北区,昭和町２丁目７番４号,,13,117,1140011,,,,,,,2023-11-24,1,,,,,エムエスピー,0
2078,9020001154603,新規,0,2023-11-24,2023-11-24,株式会社蓮工業,,株式会社,神奈川県,横浜市港南区,上永谷１丁目１２番２３号山口ハイツ２－１０２号室,,14,111,2330012,,,,,,,2023-11-24,1,,,,,レンコウギョウ,0
2079,9020001154611,新規,0,2023-11-24,2023-11-24,株式会社シュロ,,株式会社,神奈川県,川崎市多摩区,登戸３１９８番地５,,14,135,2140014,,,,,,,2023-11-24,1,,,,,シュロ,0
2090,9020003024960,新規,0,2023-11-24,2023-11-24,ｍｈ合同会社,,合同会社,神奈川県,横浜市金沢区,並木１丁目１３－１４－３０１,,14,108,2360005,,,,,,,2023-11-24,1,,,,,エムエイチ,0
2094,9021001080797,新規,0,2023-11-24,2023-11-24,株式会社Ｊｏｅ＆Ｃｏｍｐａｎｙ,,株式会社,神奈川県,藤沢市,鵠沼松が岡２丁目１９番５号,00132782,14,205,2510038,,,,,,,2023-11-24,1,,,,,ジョーアンドカンパニー,0
2104,9030001157191,新規,0,2023-11-24,2023-11-24,株式会社かいんど,,株式会社,埼玉県,越谷市,東越谷７丁目４番１４号,,11,222,3430023,,,,,,,2023-11-24,1,,,,,カインド,0
2105,9030001157290,新規,0,2023-11-24,2023-11-24,株式会社ＤＡＩ,,株式会社,埼玉県,さいたま市大宮区,三橋２丁目２４２番地２ワイズヒル３０６,,11,103,3300856,,,,,,,2023-11-24,1,,,,,ダイ,0
2106,9030001157308,新規,0,2023-11-24,2023-11-24,株式会社ＷＯＲＫ　ＯＵＴ,,株式会社,埼玉県,所沢市,若狭３丁目２５２７番地の４４,,11,208,3591151,,,,,,,2023-11-24,1,,,,,ワークアウト,0
2107,9030001157332,新規,0,2023-11-24,2023-11-24,株式会社Ｊａｐａｎ　Ｃａｐｉｔａｌ　Ａｄｖｉｓｏｒｓ,,株式会社,埼玉県,さいたま市西区,三橋６丁目１７０９番地６,,11,101,3310052,,,,,,,2023-11-24,1,,,,,ジャパンキャピタルアドバイザーズ,0
2108,9030001157349,新規,0,2023-11-24,2023-11-24,株式会社Ｈ＆Ｋ,,株式会社,埼玉県,越谷市,南越谷４丁目８番地８かさぷらたビル１０１,,11,222,3430845,,,,,,,2023-11-24,1,,,,,エイチアンドケー,0
2117,9040001131055,新規,0,2023-11-24,2023-11-24,研成株式会社,,株式会社,千葉県,松戸市,西馬橋蔵元町１８３グリーンハイツ平野２０６号,,12,207,2710046,,,,,,,2023-11-24,1,,,,,ケンセイ,0
2118,9040003023804,新規,0,2023-11-24,2023-11-24,合同会社Ｄ＆Ｓ,,合同会社,千葉県,市川市,新田３丁目２４－１９,,12,203,2720035,,,,,,,2023-11-24,1,,,,,ディーアンドエス,0
2120,9050001053868,新規,0,2023-11-24,2023-11-24,アングラーズシステム株式会社,,株式会社,茨城県,北茨城市,中郷町日棚２０１８番地２３,,08,215,3191556,,,,,,,2023-11-24,1,,,,,アングラーズシステム,0
2125,9050003007962,新規,0,2023-11-24,2023-11-24,チャコル合同会社,,合同会社,茨城県,稲敷市,沼田２７２１番地１５,,08,229,3000506,,,,,,,2023-11-24,1,,,,,チャコル,0
2126,9050003007970,新規,0,2023-11-24,2023-11-24,合同会社Ｍｅｄｉａｉｓｏｎ,,合同会社,茨城県,ひたちなか市,石川町６－５,,08,221,3120057,,,,,,,2023-11-24,1,,,,,メディエゾン,0
2130,9080001025996,新規,0,2023-11-24,2023-11-24,ドリームワークス株式会社,,株式会社,静岡県,静岡市駿河区,中吉田２番２号,,22,102,4228001,,,,,,,2023-11-24,1,,,,,ドリームワークス,0
2131,9080103002927,新規,0,2023-11-24,2023-11-24,合同会社ビズウェル,,合同会社,静岡県,三島市,清住町２番１５号,,22,206,4110844,,,,,,,2023-11-24,1,,,,,ビズウェル,0
2134,9100001037007,新規,0,2023-11-24,2023-11-24,株式会社アマゾンカカオ,,株式会社,長野県,北佐久郡軽井沢町,大字発地３４２番地１００,,20,321,3890113,,,,,,,2023-11-24,1,,,,,アマゾンカカオ,0
2147,9120001260077,新規,0,2023-11-24,2023-11-24,株式会社英博商事,,株式会社,大阪府,大阪市城東区,中浜１丁目１７番１４号ルネッサンスシャレード７Ｇ,,27,118,5360024,,,,,,,2023-11-24,1,,,,,エイハクショウジ,0
2148,9120001260085,新規,0,2023-11-24,2023-11-24,丸景興産株式会社,,株式会社,大阪府,大阪市城東区,野江３丁目９番１９号,,27,118,5360006,,,,,,,2023-11-24,1,,,,,マルケイコウサン,0
2149,9120001260119,新規,0,2023-11-24,2023-11-24,株式会社９９,,株式会社,大阪府,大阪市平野区,喜連東５丁目１６番２６号ハイム花水木６０１,,27,126,5470021,,,,,,,2023-11-24,1,,,,,ナインティナイン,0
2150,9120001260143,新規,0,2023-11-24,2023-11-24,株式会社Ｂａｒａａａａｈ　Ｄｅｓｉｇｎ,,株式会社,大阪府,大阪市中央区,北久宝寺町１丁目９番６号ネオフィス堺筋本町１階,,27,128,5410057,,,,,,,2023-11-24,1,,,,,バラーデザイン,0
2151,9120001260151,新規,0,2023-11-24,2023-11-24,エニータイムキャリア株式会社,,株式会社,大阪府,大阪市中央区,南久宝寺町４丁目４番１２号Ｉ．Ｂセンタービル４Ｆ－Ｂ,,27,128,5410058,,,,,,,2023-11-24,1,,,,,エニータイムキャリア,0
2157,9120101068585,新規,0,2023-11-24,2023-11-24,株式会社Ｃ＆Ｒ,,株式会社,大阪府,堺市堺区,北瓦町２丁３番８号堺東北條第二ビル２階Ｂ号室,,27,141,5900076,,,,,,,2023-11-24,1,,,,,シーアンドアール,0
2162,9130001075763,新規,0,2023-11-24,2023-11-24,株式会社香驛,,株式会社,京都府,京都市中京区,西ノ京小倉町２番地１１北側,,26,104,6048414,,,,,,,2023-11-24,1,,,,,コウエキ,0
2163,9130001075796,新規,0,2023-11-24,2023-11-24,株式会社ＬＥＧＥＮＤ,,株式会社,京都府,八幡市,八幡三反長４１番,,26,210,6148075,,,,,,,2023-11-24,1,,,,,レジェンド,0
2164,9130005016937,新規,0,2023-11-24,2023-11-24,一般社団法人はたらくひと日本相互会,,その他の設立登記法人,京都府,京都市右京区,太秦安井柳通町１番地１２,,26,108,6168075,,,,,,,2023-11-24,1,,,,,ハタラクヒトニホンソウゴカイ,0
2174,9150005009526,新規,0,2023-11-24,2023-11-24,一般社団法人リコリス,,その他の設立登記法人,奈良県,奈良市,高天町２７ＳＨＲビル２０１号,,29,201,6308241,,,,,,,2023-11-24,1,,,,,リコリス,0
2180,9180001159058,新規,0,2023-11-24,2023-11-24,海宝株式会社,,株式会社,愛知県,名古屋市東区,泉１丁目７番３４号,,23,102,4610001,,,,,,,2023-11-24,1,,,,,カイホウ,0
2187,9200001041923,新規,0,2023-11-24,2023-11-24,ＳＴサービス株式会社,,株式会社,岐阜県,多治見市,山吹町２丁目１００番地の１,,21,204,5070802,,,,,,,2023-11-24,1,,,,,エスティーサービス,0
2190,9200003006164,新規,0,2023-11-24,2023-11-24,合同会社石榑事務所,,合同会社,岐阜県,岐阜市,六条南１丁目４番１７号,,21,201,5008358,,,,,,,2023-11-24,1,,,,,イシグレジムショ,0
2200,9260003004501,新規,0,2023-11-24,2023-11-24,合同会社ハッピーライフ,,合同会社,岡山県,倉敷市,中島１５２番地４パナランド倉敷１０２,,33,202,7100803,,,,,,,2023-11-24,1,,,,,ハッピーライフ,0
2210,9350003004491,新規,0,2023-11-24,2023-11-24,ｅｍｏｔｉｏｎａｌ　ｃｏｎｎｅｃｔｉｏｎ合同会社,,合同会社,宮崎県,都城市,一万城町７０号８番地１,,45,202,8850041,,,,,,,2023-11-24,1,,,,,エモーショナルコネクション,0
2214,9360001032857,新規,0,2023-11-24,2023-11-24,株式会社ミサテラス,,株式会社,沖縄県,浦添市,城間４丁目３８番５号１Ｆ,,47,208,9012133,,,,,,,2023-11-24,1,,,,,ミサテラス,0
2221,9420003002835,新規,0,2023-11-24,2023-11-24,よしだ塗装合同会社,,合同会社,青森県,十和田市,大字相坂字小林３３５番地１,,02,206,0340041,,,,,,,2023-11-24,1,,,,,ヨシダトソウ,0
2226,9450001014152,新規,0,2023-11-24,2023-11-24,株式会社旭川中央リテール,,株式会社,北海道,旭川市,流通団地一条１丁目５番３号,,01,204,0798441,,,,,,,2023-11-24,1,,,,,,0
2228,9470001019918,新規,0,2023-11-24,2023-11-24,株式会社凛,,株式会社,香川県,丸亀市,大手町３丁目７番１０号多田ビル,,37,202,7630034,,,,,,,2023-11-24,1,,,,,リン,0
2231,9500001025326,新規,0,2023-11-24,2023-11-24,株式会社みみつか,,株式会社,愛媛県,松山市,和泉南１丁目６番５号戸建て４号,,38,201,7900941,,,,,,,2023-11-24,1,,,,,ミミツカ,0
