sequenceNumber,corporateNumber,process,correct,updateDate,changeDate,name,nameImageId,kind,prefectureName,cityName,streetNumber,addressImageId,prefectureCode,cityCode,postCode,addressOutside,addressOutsideImageId,closeDate,closeCause,successorCorporateNumber,changeCause,assignmentDate,latest,enName,enPrefectureName,enCityName,enAddressOutside,furigana,hihyoji
4,1010001214877,登記記録の閉鎖等,0,2023-02-06,2023-01-31,ＫＩＣ狭山日高株式会社,,株式会社,東京都,中央区,銀座１丁目６番１１号土志田ビルディング３Ｆ,,13,102,1040061,,,2023-01-31,清算の結了等,,,2021-01-06,1,,,,,ケーアイシーサヤマヒダカ,0
30,1011001014912,登記記録の閉鎖等,0,2023-02-06,2023-01-24,株式会社デザインフォーラム,,株式会社,東京都,渋谷区,広尾３丁目９番１４－２０１号,,13,113,1500012,,,2023-01-24,清算の結了等,,,2015-10-05,1,,,,,デザインフォーラム,0
52,1011201021725,登記記録の閉鎖等,0,2023-02-06,2023-02-03,株式会社ｐｈａｌａｎｘ,,株式会社,東京都,中野区,中野５丁目５９番１３号１Ｆ,,13,114,1640001,,,2023-02-03,清算の結了等,,,2019-10-21,1,,,,,ファランクス,0
54,1011202000281,登記記録の閉鎖等,0,2023-02-06,2023-02-01,有限会社味のグリル洋一亭,,有限会社,東京都,中野区,東中野１丁目５６番１号,,13,114,1640003,,,2023-02-01,清算の結了等,,,2015-10-05,1,,,,,アジノグリルヨウイチテイ,0
63,1011702007545,登記記録の閉鎖等,0,2023-02-06,2023-02-01,有限会社千代間工業,,有限会社,東京都,江戸川区,中央１丁目１０番２号,,13,123,1320021,,,2023-02-01,清算の結了等,,,2015-10-05,1,,,,,チヨマコウギョウ,0
67,1012301012457,登記記録の閉鎖等,0,2023-02-06,2023-01-30,株式会社金茂住建,,株式会社,東京都,町田市,図師町６６８番地２４,,13,209,1940203,,,2023-01-30,清算の結了等,,,2021-02-22,1,,,,,カネシゲジュウケン,0
91,1020002105397,登記記録の閉鎖等,0,2023-02-06,2023-02-01,有限会社池上化工,,有限会社,神奈川県,川崎市川崎区,四谷上町２９番地７,,14,131,2100828,,,2023-02-01,清算の結了等,,,2015-10-05,1,,,,,,0
111,1030001126096,登記記録の閉鎖等,0,2023-02-06,2023-02-01,株式会社ＵＩＳ－ＴＲＩＯ,,株式会社,埼玉県,さいたま市浦和区,本太５丁目２８番１７号,,11,107,3300052,,,2023-02-01,清算の結了等,,,2018-06-13,1,,,,,ウイストリオ,0
143,1080102022388,登記記録の閉鎖等,0,2023-02-06,2023-01-27,有限会社杉山製罐工業,,有限会社,静岡県,沼津市,下香貫西村１４６９番地,,22,203,4100822,,,2023-01-27,清算の結了等,,,2018-12-20,1,,,,,スギヤマセイカンコウギョウ,0
159,1120001014275,登記記録の閉鎖等,0,2023-02-06,2023-02-02,石原産業株式会社,,株式会社,大阪府,大阪市城東区,諏訪４丁目１番２３号,,27,118,5360021,,,2023-02-02,清算の結了等,,,2015-10-05,1,,,,,イシハラサンギョウ,0
175,1120005000115,登記記録の閉鎖等,0,2023-02-06,2023-01-30,天理教華郷分教会,,その他の設立登記法人,大阪府,大阪市平野区,平野馬場１丁目１９番１４号,,27,126,5470048,,,2023-01-30,合併による解散等,2470005003593,令和５年１月２０日香川県坂出市駒止町一丁目２番５号天理教双名島大教会（2470005003593）に合併し解散,2015-10-05,1,,,,,,0
180,1120101043389,登記記録の閉鎖等,0,2023-02-06,2023-01-31,株式会社シーズウェア,,株式会社,大阪府,和泉市,テクノステージ３丁目７番１６号,,27,219,5941144,,,2023-01-31,合併による解散等,2010401018324,令和５年１月１日東京都港区高輪二丁目１８番１０号株式会社デイ・エム・シー（2010401018324）に合併し解散,2015-10-05,1,,,,,,0
197,1140001028843,登記記録の閉鎖等,0,2023-02-06,2023-02-02,Ｊ－コンサルティング株式会社,,株式会社,兵庫県,神戸市東灘区,鴨子ケ原３丁目９番７号,,28,101,6580064,,,2023-02-02,清算の結了等,,,2015-10-05,1,,,,,ジェイコンサルティング,0
237,1180002087703,登記記録の閉鎖等,0,2023-02-06,2023-02-01,有限会社ザ・アクセス,,有限会社,愛知県,東海市,名和町一番割中３番地の１,,23,222,4760002,,,2023-02-01,清算の結了等,,,2015-10-05,1,,,,,ザアクセス,0
239,1180005002007,登記記録の閉鎖等,0,2023-02-06,2023-01-05,神明社,,その他の設立登記法人,愛知県,清須市,春日神明４５５９番地,,23,233,4520962,,,2023-01-05,合併による解散等,1180005002080,令和５年１月５日愛知県清須市春日冨士塚１番地の２春日八幡宮（1180005002080）に合併し解散,2015-10-05,1,,,,,シンメイシャ,0
252,1210001017640,登記記録の閉鎖等,0,2023-02-06,2023-02-01,ＨＢＰ株式会社,,株式会社,福井県,丹生郡越前町,新保第１３号２０番地,,18,423,9160313,,,2023-02-01,清算の結了等,,,2019-07-24,1,,,,,エイチビーピー,0
274,1290002030049,登記記録の閉鎖等,0,2023-02-06,2023-02-01,有限会社にしき,,有限会社,福岡県,福岡市東区,舞松原１丁目１１番７号,,40,131,8130042,,,2023-02-01,清算の結了等,,,2015-10-05,1,,,,,ニシキ,0
278,1290002048009,登記記録の閉鎖等,0,2023-02-06,2023-01-26,有限会社青木養蜂場,,有限会社,福岡県,八女市,井延２６９－２,,40,210,8340026,,,2023-01-26,清算の結了等,,,2015-10-05,1,,,,,,0
279,1290003008812,登記記録の閉鎖等,0,2023-02-06,2023-02-01,オアシスコーポレーション合同会社,,合同会社,福岡県,福岡市西区,姪の浜２丁目２６番３０号,,40,135,8190002,,,2023-02-01,清算の結了等,,,2019-03-01,1,,,,,オアシスコーポレーション,0
289,1320001000692,登記記録の閉鎖等,0,2023-02-06,2023-02-01,株式会社オーシートラベル,,株式会社,大分県,大分市,末広町２丁目３番２８号,,44,201,8700027,,,2023-02-01,合併による解散等,7320001000687,令和５年２月１日大分市末広町二丁目３番２８号株式会社オーシー（7320001000687）に合併し解散,2015-10-05,1,,,,,オーシートラベル,0
290,1320003002530,登記記録の閉鎖等,0,2023-02-06,2023-02-01,合同会社早良発電所,,合同会社,大分県,日田市,大字庄手８４２番地２,,44,204,8770000,,,2023-02-01,清算の結了等,,,2017-01-06,1,,,,,サワラハツデンショ,0
298,1340001013247,登記記録の閉鎖等,0,2023-02-06,2023-02-03,株式会社信時會,,株式会社,鹿児島県,鹿児島市,西伊敷７丁目５番５号,,46,201,8911202,,,2023-02-03,清算の結了等,,,2015-10-05,1,,,,,シンジアイ,0
300,1360001023558,登記記録の閉鎖等,0,2023-02-06,2023-02-01,日春商事株式会社,,株式会社,沖縄県,那覇市,字松川４３８番地１首里ハイム７１０,,47,201,9020062,,,2023-02-01,清算の結了等,,,2018-02-20,1,,,,,ニチハルショウジ,0
332,1440002005290,登記記録の閉鎖等,0,2023-02-06,2023-02-01,龍宝田口食材有限会社,,有限会社,北海道,函館市,昭和３丁目３１番３３号,,01,202,0410812,,,2023-02-01,清算の結了等,,,2015-10-05,1,,,,,リュウホウタグチショクザイ,0
347,2010001119324,登記記録の閉鎖等,0,2023-02-06,2023-02-02,株式会社シーエフエム出版,,株式会社,千葉県,浦安市,美浜２丁目４番１００１号,,12,227,2790011,,,2023-02-02,清算の結了等,,,2015-10-05,1,,,,,,0
394,2011101059212,登記記録の閉鎖等,0,2023-02-06,2023-02-03,株式会社ケイブルーム,,株式会社,東京都,新宿区,西早稲田３丁目８番１４号,,13,104,1690051,,,2023-02-03,清算の結了等,,,2015-10-05,1,,,,,ケイブルーム,0
416,2011601011449,登記記録の閉鎖等,0,2023-02-06,2023-02-01,株式会社エムエム・サイトー,,株式会社,東京都,練馬区,練馬４丁目２８番２号,,13,120,1760001,,,2023-02-01,清算の結了等,,,2015-10-05,1,,,,,エムエムサイトー,0
419,2011701006480,登記記録の閉鎖等,0,2023-02-06,2023-02-02,株式会社鳩谷工業,,株式会社,東京都,江戸川区,中葛西７丁目２番１１号,,13,123,1340083,,,2023-02-02,清算の結了等,,,2015-10-05,1,,,,,ハトヤコウギョウ,0
426,2011801032864,登記記録の閉鎖等,0,2023-02-06,2023-01-25,株式会社Ｒｅｔｒｅａｔ,,株式会社,東京都,葛飾区,高砂２丁目１９番１号,,13,122,1250054,,,2023-01-25,合併による解散等,4011201020897,令和４年１２月２８日東京都立川市高松町二丁目１１番１７号株式会社Ｄ．Ａ．Ｉ（4011201020897）に合併し解散,2017-02-06,1,,,,,リトリート,0
439,2020001007899,登記記録の閉鎖等,0,2023-02-06,2023-02-01,東戸塚興業株式会社,,株式会社,神奈川県,横浜市戸塚区,名瀬町５７７番地１,,14,110,2450051,,,2023-02-01,清算の結了等,,,2015-10-05,1,,,,,ヒガシトツカコウギョウ,0
506,2070001022497,登記記録の閉鎖等,0,2023-02-06,2023-02-02,株式会社エーワン,,株式会社,群馬県,太田市,新田上田中町１２６１番地１１,,10,205,3700346,,,2023-02-02,清算の結了等,,,2015-10-05,1,,,,,エーワン,0
591,2180302012161,登記記録の閉鎖等,0,2023-02-06,2023-02-01,有限会社ツナツナハッピー,,有限会社,愛知県,豊川市,御油町一ノ坪１２番地,,23,207,4410211,,,2023-02-01,清算の結了等,,,2015-10-05,1,,,,,ツナツナハッピー,0
592,2180302024074,登記記録の閉鎖等,0,2023-02-06,2023-02-01,有限会社木月工房,,有限会社,愛知県,みよし市,天王台１１番地１７,,23,236,4700211,,,2023-02-01,清算の結了等,,,2015-10-05,1,,,,,キヅキコウボウ,0
612,2240005000465,登記記録の閉鎖等,0,2023-02-06,2023-01-30,天理教安巴廣分教会,,その他の設立登記法人,広島県,広島市佐伯区,藤の木４丁目１９番１５号,,34,108,7315103,,,2023-01-30,合併による解散等,7240005000436,令和５年１月３０日広島市中区宝町６番２４号天理教安廣分教会（7240005000436）に合併し解散,2015-10-05,1,,,,,テンリキョウアワヒロブンキョウカイ,0
621,2290001016543,登記記録の閉鎖等,0,2023-02-06,2023-01-25,株式会社ヴィトワ,,株式会社,福岡県,福岡市中央区,長浜２丁目３番６号,,40,133,8100072,,,2023-01-25,合併による解散等,1010001063688,令和５年１月１日東京都中央区銀座六丁目６番１号株式会社クレフ（1010001063688）に合併し解散,2015-10-05,1,,,,,ヴィトワ,0
641,2380001012863,登記記録の閉鎖等,0,2023-02-06,2023-02-01,コマオ金属工業株式会社,,株式会社,福島県,いわき市,小名浜字芳浜１１番地の５１,,07,204,9718101,,,2023-02-01,清算の結了等,,,2015-10-05,1,,,,,コマオキンゾクコウギョウ,0
644,2380002015163,登記記録の閉鎖等,0,2023-02-06,2023-02-01,有限会社サトー商事,,有限会社,福島県,田村市,船引町船引字扇田３３番地,,07,211,9634312,,,2023-02-01,清算の結了等,,,2015-10-05,1,,,,,サトーショウジ,0
658,2430005009124,登記記録の閉鎖等,0,2023-02-06,2023-02-02,特定非営利活動法人ライフケア・ウトナイ,,その他の設立登記法人,北海道,苫小牧市,字植苗２２０番地の２７,,01,213,0591365,,,2023-02-02,清算の結了等,,,2015-10-05,1,,,,,ライフケアウトナイ,0
668,2460302005038,登記記録の閉鎖等,0,2023-02-06,2023-01-31,有限会社服巻産業,,有限会社,北海道,斜里郡小清水町,字共和２５９番地の３,,01,547,0993612,,,2023-01-31,清算の結了等,,,2015-10-05,1,,,,,ハラマキサンギョウ,0
699,3010501032298,登記記録の閉鎖等,0,2023-02-06,2023-02-03,羽田電機株式会社,,株式会社,東京都,台東区,秋葉原３番１０号東京商会秋葉原ビル１階,,13,106,1100006,,,2023-02-03,清算の結了等,,,2015-10-05,1,,,,,ハネダデンキ,0
707,3010705002832,登記記録の閉鎖等,0,2023-02-06,2023-01-27,一般社団法人日本キッチンスター協会,,その他の設立登記法人,東京都,品川区,上大崎３丁目５番１１号,,13,109,1410021,,,2023-01-27,清算の結了等,,,2018-09-20,1,,,,,ニホンキッチンスターキョウカイ,0
722,3011101065705,登記記録の閉鎖等,0,2023-02-06,2023-02-02,株式会社エーアイ企画,,株式会社,東京都,新宿区,新宿６丁目７番１号エルプリメント新宿２０６,,13,104,1600022,,,2023-02-02,清算の結了等,,,2015-10-05,1,,,,,エーアイキカク,0
724,3011103008876,登記記録の閉鎖等,0,2023-02-06,2023-02-02,ＡｒｅａＤ　Ｉｎｃ．合同会社,,合同会社,東京都,新宿区,新宿２丁目１３番１１号,,13,104,1600022,,,2023-02-02,清算の結了等,,,2019-06-20,1,,,,,エリアディインク,0
737,3011701018038,登記記録の閉鎖等,0,2023-02-06,2023-02-02,株式会社ワイエス工業,,株式会社,東京都,江戸川区,一之江７丁目２番１４号,,13,123,1320024,,,2023-02-02,清算の結了等,,,2015-10-05,1,,,,,ワイエスコウギョウ,0
743,3013301026445,登記記録の閉鎖等,0,2023-02-06,2023-02-01,ｅ－エージェント株式会社,,株式会社,東京都,豊島区,南大塚３丁目４３番１２号アライビル３Ｆ,,13,116,1700005,,,2023-02-01,清算の結了等,,,2015-10-05,1,,,,,イーエージェント,0
751,3020001105883,登記記録の閉鎖等,0,2023-02-06,2023-02-02,株式会社ＲＩＫＫＡ,,株式会社,神奈川県,川崎市多摩区,生田７丁目２番１４号,,14,135,2140038,,,2023-02-02,清算の結了等,,,2015-10-05,1,,,,,リッカ,0
786,3030005010492,登記記録の閉鎖等,0,2023-02-06,2023-02-01,特定非営利活動法人フレンドリー大会実行委員会,,その他の設立登記法人,埼玉県,越谷市,川柳町１丁目２６４番地,,11,222,3430827,,,2023-02-01,清算の結了等,,,2015-10-05,1,,,,,フレンドリータイカイジッコウイインカイ,0
799,3050002034996,登記記録の閉鎖等,0,2023-02-06,2023-01-31,有限会社石戸商事,,有限会社,茨城県,龍ケ崎市,藤ケ丘４丁目７番地７７,,08,208,3010855,,,2023-01-31,清算の結了等,,,2015-10-05,1,,,,,イシドショウジ,0
812,3080401021972,登記記録の閉鎖等,0,2023-02-06,2023-02-03,株式会社ＮＣＤ,,株式会社,静岡県,浜松市東区,長鶴町９１番地,,22,132,4350031,,,2023-02-03,清算の結了等,,,2017-01-30,1,,,,,エヌシーディー,0
819,3120001097104,登記記録の閉鎖等,0,2023-02-06,2023-02-02,株式会社ビグト・プランニング,,株式会社,大阪府,大阪市東住吉区,北田辺５丁目１１番１号,,27,121,5460044,,,2023-02-02,清算の結了等,,,2015-10-05,1,,,,,ビグトプランニング,0
831,3120002005395,登記記録の閉鎖等,0,2023-02-06,2023-02-01,有限会社ギャオス,,有限会社,大阪府,大阪市住吉区,我孫子１丁目８番３０号エイデンビル２階２０２号,,27,120,5580014,,,2023-02-01,合併による解散等,2120001033191,令和５年２月１日大阪市住吉区我孫子一丁目８番３０号エイデンビル１階株式会社ツカサハウジング（2120001033191）に合併し解散,2015-10-05,1,,,,,ギャオス,0
832,3120002029403,登記記録の閉鎖等,0,2023-02-06,2023-02-01,有限会社ティーアンドジー,,有限会社,大阪府,豊中市,蛍池西町二丁目７番２６号ＮＡＣＬビル２階,,27,203,5600000,,,2023-02-01,合併による解散等,1120901029216,令和５年２月１日大阪府豊中市服部元町一丁目３－１５Ｌｅｉｗａ服部天神６０１号株式会社ポプラコーポレーション（1120901029216）に合併し解散,2015-10-05,1,,,,,ティーアンドジー,0
835,3120005011341,登記記録の閉鎖等,0,2023-02-06,2023-01-31,特定非営利活動法人エコロジー・プランニング,,その他の設立登記法人,大阪府,大阪市淀川区,宮原５丁目９番３９－４０５号,,27,123,5320003,,,2023-01-31,清算の結了等,,,2015-10-05,1,,,,,エコロジープランニング,0
841,3120102020542,登記記録の閉鎖等,0,2023-02-06,2023-02-02,有限会社ステッピンストーン,,有限会社,大阪府,藤井寺市,藤井寺３丁目１０番３３号,,27,226,5830024,,,2023-02-02,清算の結了等,,,2015-10-05,1,,,,,ステッピンストーン,0
878,3180005002054,登記記録の閉鎖等,0,2023-02-06,2023-01-05,天神社,,その他の設立登記法人,愛知県,清須市,春日天神４８４３番地,,23,233,4520962,,,2023-01-05,合併による解散等,1180005002080,令和５年１月５日愛知県清須市春日冨士塚１番地の２春日八幡宮（1180005002080）に合併し解散,2015-10-05,1,,,,,テンジンシャ,0
884,3190005010320,登記記録の閉鎖等,0,2023-02-06,2023-01-31,三重県獣医師協同組合,,その他の設立登記法人,三重県,四日市市,笹川２丁目１９６番地,,24,202,5100944,,,2023-01-31,清算の結了等,,,2015-10-05,1,,,,,ミエケンジュウイシ,0
899,3240002039778,登記記録の閉鎖等,0,2023-02-06,2023-01-31,大倉土建有限会社,,有限会社,広島県,福山市,東川口町４丁目７番２６－４号,,34,207,7200821,,,2023-01-31,清算の結了等,,,2015-10-05,1,,,,,オオクラドケン,0
903,3260001003782,登記記録の閉鎖等,0,2023-02-06,2023-01-31,善隣ホンダ販売株式会社,,株式会社,岡山県,岡山市南区,新保６７９番地の２５,,33,104,7000945,,,2023-01-31,清算の結了等,,,2022-11-14,1,,,,,ゼンリンホンダハンバイ,0
908,3270002005455,登記記録の閉鎖等,0,2023-02-06,2023-01-31,有限会社遠藤商店,,有限会社,鳥取県,米子市,四日市町４７番地,,31,202,6830061,,,2023-01-31,清算の結了等,,,2015-10-05,1,,,,,エンドウショウテン,0
959,3430002066489,登記記録の閉鎖等,0,2023-02-06,2023-01-31,有限会社レンタロードサービス,,有限会社,北海道,札幌市西区,山の手四条８丁目２番２３号,,01,107,0630004,,,2023-01-31,清算の結了等,,,2015-10-05,1,,,,,レンタロードサービス,0
967,3470001009676,登記記録の閉鎖等,0,2023-02-06,2023-02-03,株式会社ライフスタイル,,株式会社,香川県,丸亀市,郡家町２５１３番地１,,37,202,7630093,,,2023-02-03,清算の結了等,,,2015-10-05,1,,,,,ライフスタイル,0
973,3490005002915,登記記録の閉鎖等,0,2023-02-06,2023-01-27,天理教仁淀分教会,,その他の設立登記法人,高知県,吾川郡いの町,神谷１８７３番地イ,,39,386,7812134,,,2023-01-27,合併による解散等,6490005002929,令和５年１月２７日高知県高岡郡日高村本郷６４０番地天理教日之下分教会（6490005002929）に合併し解散,2015-10-05,1,,,,,テンリキョウニヨドブンキョウカイ,0
978,4010001216672,登記記録の閉鎖等,0,2023-02-06,2023-02-01,株式会社ＹＯＳＨＩ,,株式会社,東京都,中央区,日本橋室町１丁目１０番１１号,,13,102,1030022,,,2023-02-01,清算の結了等,,,2021-03-19,1,,,,,ヨシ,0
998,4010402029871,登記記録の閉鎖等,0,2023-02-06,2023-01-24,有限会社エフ・アール・ティー,,有限会社,東京都,港区,芝大門１丁目３番６号喜多ビル１０１号室,,13,103,1050012,,,2023-01-24,清算の結了等,,,2015-10-05,1,,,,,エフアールティー,0
1004,4010501001285,登記記録の閉鎖等,0,2023-02-06,2023-02-02,株式会社植竹辰五郎商店,,株式会社,東京都,台東区,元浅草１丁目１４番１号,,13,106,1110041,,,2023-02-02,清算の結了等,,,2015-10-05,1,,,,,ウエタケタツゴロウショウテン,0
1005,4010501006458,登記記録の閉鎖等,0,2023-02-06,2023-02-01,株式会社シントミゴルフ,,株式会社,東京都,台東区,上野３丁目１０番１１号,,13,106,1100005,,,2023-02-01,清算の結了等,,,2022-10-26,1,,,,,シントミゴルフ,0
1008,4010601060322,登記記録の閉鎖等,0,2023-02-06,2023-02-01,互助交通株式会社,,株式会社,東京都,墨田区,江東橋４丁目１４番７号,,13,107,1300022,,,2023-02-01,合併による解散等,2010601060076,令和５年２月１日東京都江東区枝川二丁目１８番５号株式会社ハロートーキョー（2010601060076）に合併し解散,2021-12-06,1,,,,,ゴジョコウツウ,0
1009,4010602011695,登記記録の閉鎖等,0,2023-02-06,2023-02-01,小沢印刷有限会社,,有限会社,東京都,墨田区,向島５丁目３６番４号,,13,107,1310033,,,2023-02-01,清算の結了等,,,2015-10-05,1,,,,,,0
1036,4011101096278,登記記録の閉鎖等,0,2023-02-06,2023-02-01,株式会社ＬＩＮＫ,,株式会社,東京都,新宿区,新宿２丁目１６番６号,,13,104,1600022,,,2023-02-01,合併による解散等,3011001125518,令和５年２月１日東京都新宿区新宿二丁目１６番６号株式会社ＨＵＭＡＮ　ＬＩＦＥ（3011001125518）に合併し解散,2021-09-14,1,,,,,リンク,0
1043,4011601020274,登記記録の閉鎖等,0,2023-02-06,2023-02-01,株式会社ソルレヴァンテ,,株式会社,東京都,練馬区,豊玉南１丁目８番１３号,,13,120,1760014,,,2023-02-01,清算の結了等,,,2015-10-05,1,,,,,ソルレヴァンテ,0
1051,4011802005537,登記記録の閉鎖等,0,2023-02-06,2023-02-01,有限会社東立精機営業所,,有限会社,東京都,葛飾区,東立石１丁目７番１０号,,13,122,1240013,,,2023-02-01,清算の結了等,,,2015-10-05,1,,,,,トウリツセイキエイギョウショ,0
1056,4012702006303,登記記録の閉鎖等,0,2023-02-06,2023-02-02,有限会社榎本商事,,有限会社,東京都,東久留米市,八幡町２丁目１０番１５号,,13,222,2030042,,,2023-02-02,清算の結了等,,,2015-10-05,1,,,,,エノモトショウジ,0
1065,4020001071324,登記記録の閉鎖等,0,2023-02-06,2023-02-01,中島木材株式会社,,株式会社,神奈川県,川崎市幸区,鹿島田３丁目９番９号,,14,132,2120058,,,2023-02-01,清算の結了等,,,2015-10-05,1,,,,,ナカジマモクザイ,0
1082,4020005008470,登記記録の閉鎖等,0,2023-02-06,2023-01-31,特定非営利活動法人ＷＥ２１ジャパンみやまえ,,その他の設立登記法人,神奈川県,川崎市宮前区,土橋３丁目２番地６プールサイドスカイマンション１０３,,14,136,2160005,,,2023-01-31,清算の結了等,,,2015-10-05,1,,,,,,0
1085,4021001065951,登記記録の閉鎖等,0,2023-02-06,2023-02-01,株式会社ビックフット,,株式会社,神奈川県,海老名市,杉久保南１丁目１９番３７号,,14,215,2430427,,,2023-02-01,清算の結了等,,,2018-11-02,1,,,,,ビックフット,0
1118,4040003020715,登記記録の閉鎖等,0,2023-02-06,2023-02-02,Ｋ＆Ｓ合同会社,,合同会社,千葉県,柏市,柏５丁目３－６,,12,217,2770005,,,2023-02-02,清算の結了等,,,2022-09-07,1,,,,,ケーアンドエス,0
1138,4110002006121,登記記録の閉鎖等,0,2023-02-06,2023-02-01,有限会社真島興業,,有限会社,新潟県,新潟市北区,松浜６丁目１３番地１３,,15,101,9503126,,,2023-02-01,清算の結了等,,,2015-10-05,1,,,,,マシマコウギョウ,0
1139,4120001010569,登記記録の閉鎖等,0,2023-02-06,2023-02-01,東殖水産株式会社,,株式会社,大阪府,大阪市東住吉区,今林２丁目１６番２４号,,27,121,5460001,,,2023-02-01,清算の結了等,,,2015-10-05,1,,,,,トウショクスイサン,0
1140,4120001015527,登記記録の閉鎖等,0,2023-02-06,2023-02-02,株式会社タニヤマ,,株式会社,大阪府,大阪市城東区,中央２丁目３番１７号,,27,118,5360005,,,2023-02-02,清算の結了等,,,2015-10-05,1,,,,,タニヤマ,0
1144,4120001155901,登記記録の閉鎖等,0,2023-02-06,2023-02-03,株式会社信和商会,,株式会社,大阪府,守口市,神木町４番２１号,,27,209,5700024,,,2023-02-03,清算の結了等,,,2015-10-05,1,,,,,シンワショウカイ,0
1155,4120002021978,登記記録の閉鎖等,0,2023-02-06,2023-02-02,有限会社サンテックエンジニアリング,,有限会社,大阪府,大阪市西区,江戸堀１丁目１８番１２号,,27,106,5500002,,,2023-02-02,清算の結了等,,,2015-10-05,1,,,,,サンテックエンジニアリング,0
1176,4150001018213,登記記録の閉鎖等,0,2023-02-06,2023-02-01,株式会社Ｓｅｒｅｎｄｉｐｉｔｙｌａｂｏ．,,株式会社,奈良県,宇陀市,榛原上井足１１０５,,29,212,6330222,,,2023-02-01,清算の結了等,,,2015-10-05,1,,,,,セレンディピティラボ,0
1180,4180001008979,登記記録の閉鎖等,0,2023-02-06,2023-02-01,中日本通商株式会社,,株式会社,愛知県,名古屋市昭和区,五軒家町１０番地の１０,,23,107,4660838,,,2023-02-01,清算の結了等,,,2015-10-05,1,,,,,ナカニホンツウショウ,0
1189,4180003000471,登記記録の閉鎖等,0,2023-02-06,2023-02-01,合資会社松本工業所,,合資会社,愛知県,名古屋市千種区,今池南１６番６号,,23,101,4640851,,,2023-02-01,清算の結了等,,,2015-10-05,1,,,,,マツモトコウギョウショ,0
1191,4180003012599,登記記録の閉鎖等,0,2023-02-06,2023-02-01,合資会社ＡＩＤ,,合資会社,愛知県,名古屋市守山区,金屋２丁目３６４番地,,23,113,4630072,,,2023-02-01,清算の結了等,,,2015-10-05,1,,,,,エーアイディー,0
1207,4230001009674,登記記録の閉鎖等,0,2023-02-06,2023-02-01,株式会社石崎鋼材店,00078910,株式会社,富山県,高岡市,岩坪２３番５,,16,202,9330974,,,2023-02-01,合併による解散等,2230001010097,令和５年２月１日富山県高岡市岩坪２３番地２三芝硝材株式会社（2230001010097）に合併し解散,2015-10-05,1,,,,,イシザキコウザイテン,0
1215,4240002047086,登記記録の閉鎖等,0,2023-02-06,2023-02-02,日本ユニツク有限会社,,有限会社,広島県,府中市,鵜飼町７２９番地,,34,208,7260002,,,2023-02-02,清算の結了等,,,2015-10-05,1,,,,,ニホンユニツク,0
1223,4280001008647,登記記録の閉鎖等,0,2023-02-06,2023-02-02,旭昇興業株式会社,,株式会社,島根県,安来市,荒島町１１８５番地１,,32,206,6920007,,,2023-02-02,清算の結了等,,,2022-03-03,1,,,,,キョクショウコウギョウ,0
1238,4290801012756,登記記録の閉鎖等,0,2023-02-06,2023-02-03,株式会社アートビルド,,株式会社,福岡県,中間市,岩瀬１丁目１８番８号,,40,215,8090011,,,2023-02-03,清算の結了等,,,2015-10-05,1,,,,,アートビルド,0
1255,4340002014340,登記記録の閉鎖等,0,2023-02-06,2023-02-03,有限会社脇元自動車,,有限会社,鹿児島県,霧島市,国分松木町３９番３２号,,46,218,8994325,,,2023-02-03,清算の結了等,,,2015-10-05,1,,,,,ワキモトジドウシャ,0
1271,4430001019777,登記記録の閉鎖等,0,2023-02-06,2023-02-01,株式会社札幌後楽園ホテル,,株式会社,東京都,文京区,後楽１丁目３番６１号,,13,105,1120004,,,2023-02-01,清算の結了等,,,2015-10-05,1,,,,,サッポロコウラクエンホテル,0
1272,4430001034982,登記記録の閉鎖等,0,2023-02-06,2023-02-01,株式会社ＷＢＳ,,株式会社,北海道,札幌市豊平区,月寒東一条１７丁目１番５５号,,01,105,0620051,,,2023-02-01,合併による解散等,4430001018283,令和５年２月１日札幌市豊平区月寒東一条十七丁目１番５５号株式会社和田商会（4430001018283）に合併し解散,2015-10-05,1,,,,,ダブリュービーエス,0
1274,4430001074806,登記記録の閉鎖等,0,2023-02-06,2023-02-02,株式会社ロア,,株式会社,北海道,札幌市北区,新琴似十一条１５丁目５番１号,,01,102,0010911,,,2023-02-02,清算の結了等,,,2017-08-14,1,,,,,ロア,0
1280,4440005001375,登記記録の閉鎖等,0,2023-02-06,2023-01-31,特定非営利活動法人どうなん学びサポートセンター,,その他の設立登記法人,北海道,函館市,西旭岡町３丁目１３番地２,,01,202,0420915,,,2023-01-31,清算の結了等,,,2015-10-05,1,,,,,ドウナンマナビサポートセンター,0
1283,4460102002753,登記記録の閉鎖等,0,2023-02-06,2023-01-31,有限会社原自動車工業,,有限会社,北海道,帯広市,西二十条北２丁目２番地１,,01,207,0802460,,,2023-01-31,清算の結了等,,,2015-10-05,1,,,,,ハラジドウシャコウギョウ,0
1285,4470002015573,登記記録の閉鎖等,0,2023-02-06,2023-02-02,こうよう海運有限会社,,有限会社,香川県,坂出市,王越町乃生１４６９番地１,,37,203,7620013,,,2023-02-02,清算の結了等,,,2015-10-05,1,,,,,コウヨウカイウン,0
1335,5011101093415,登記記録の閉鎖等,0,2023-02-06,2023-02-03,株式会社Ｅｒｉｓ,,株式会社,東京都,新宿区,西新宿７丁目５番５号,,13,104,1600023,,,2023-02-03,清算の結了等,,,2020-12-09,1,,,,,エリス,0
1346,5011302005458,登記記録の閉鎖等,0,2023-02-06,2023-02-01,有限会社大雅堂,,有限会社,東京都,西東京市,田無町２丁目１番１号,,13,229,1880011,,,2023-02-01,清算の結了等,,,2015-10-05,1,,,,,タイガドウ,0
1349,5011603000199,登記記録の閉鎖等,0,2023-02-06,2023-02-01,合資会社アフレックス,,合資会社,東京都,練馬区,光が丘２丁目１０番２号,,13,120,1790072,,,2023-02-01,清算の結了等,,,2015-10-05,1,,,,,アフレックス,0
1370,5020001034809,登記記録の閉鎖等,0,2023-02-06,2023-01-31,サンスプリング株式会社,,株式会社,東京都,渋谷区,代々木２丁目２２番１号,,13,113,1510053,,,2023-01-31,清算の結了等,,,2015-10-05,1,,,,,サンスプリング,0
1371,5020001077031,登記記録の閉鎖等,0,2023-02-06,2023-02-01,株式会社インタービジョンスタッフィング,,株式会社,神奈川県,川崎市川崎区,日ノ出１丁目１４番３号,,14,131,2100824,,,2023-02-01,清算の結了等,,,2015-10-05,1,,,,,インタービジョンスタッフィング,0
1398,5030001126646,登記記録の閉鎖等,0,2023-02-06,2023-02-01,株式会社アーバンハウス,,株式会社,埼玉県,戸田市,大字新曽７６９番地の１（ライオンズ戸田アークレジデンス５０３号室）,,11,224,3350021,,,2023-02-01,合併による解散等,7030001097836,令和５年２月１日埼玉県戸田市大字新曽７６９番地の１（ライオンズ戸田アークレジデンス５０３号室）白銀マネジメント株式会社（7030001097836）に合併し解散,2018-07-20,1,,,,,アーバンハウス,0
1424,5050002043533,登記記録の閉鎖等,0,2023-02-06,2023-01-31,有限会社佐藤洋品店,,有限会社,茨城県,筑西市,村田１７２８番地の１,,08,227,3004546,,,2023-01-31,清算の結了等,,,2015-10-05,1,,,,,サトウヨウヒンテン,0
1426,5050005011719,登記記録の閉鎖等,0,2023-02-06,2022-12-13,特定非営利活動法人ハナミズキ,,その他の設立登記法人,茨城県,つくば市,高崎２１９１番地１１,,08,220,3001245,,,2022-12-13,清算の結了等,,,2015-10-05,1,,,,,ハナミズキ,0
1428,5060001008478,登記記録の閉鎖等,0,2023-02-06,2023-02-01,トーマス工業株式会社,,株式会社,栃木県,日光市,轟１３６６番地５,,09,206,3212404,,,2023-02-01,清算の結了等,,,2015-10-05,1,,,,,トーマスコウギョウ,0
1473,5122002014696,登記記録の閉鎖等,0,2023-02-06,2023-01-27,有限会社フジ技研,,有限会社,大阪府,八尾市,老原４丁目１６番地,,27,212,5810092,,,2023-01-27,合併による解散等,1122001028809,令和５年１月２６日大阪府八尾市老原四丁目１６番地ＦＤホールディング株式会社（1122001028809）に合併し解散,2015-10-05,1,,,,,フジギケン,0
1501,5180001134972,登記記録の閉鎖等,0,2023-02-06,2023-01-31,株式会社Ａｃｔｉｖａｔｅ　Ｄａｔａ,,株式会社,愛知県,名古屋市中区,富士見町１３番１９号富士見町八木ビル７０１,,23,106,4600014,,,2023-01-31,清算の結了等,,,2018-12-28,1,,,,,アクティベートデータ,0
1518,5180005002003,登記記録の閉鎖等,0,2023-02-06,2023-01-05,神明社,,その他の設立登記法人,愛知県,清須市,春日野田町１００番地,,23,233,4520962,,,2023-01-05,合併による解散等,1180005002080,令和５年１月５日愛知県清須市春日冨士塚１番地の２春日八幡宮（1180005002080）に合併し解散,2015-10-05,1,,,,,シンメイシャ,0
1529,5200001021870,登記記録の閉鎖等,0,2023-02-06,2023-02-01,株式会社西尾土木部,,株式会社,岐阜県,瑞浪市,薬師町５丁目２１番地,,21,208,5096135,,,2023-02-01,清算の結了等,,,2015-10-05,1,,,,,,0
1533,5200002022158,登記記録の閉鎖等,0,2023-02-06,2023-02-02,丸伊陶業有限会社,,有限会社,岐阜県,瑞浪市,陶町猿爪１００３番地の２,,21,208,5096361,,,2023-02-02,清算の結了等,,,2015-10-05,1,,,,,マルイトウギョウ,0
1570,5310002014144,登記記録の閉鎖等,0,2023-02-06,2023-02-01,有限会社福忠商事,,有限会社,長崎県,佐世保市,城山町６番３号,,42,202,8570033,,,2023-02-01,合併による解散等,3310001006152,令和５年２月１日長崎県佐世保市城山町６番３号ラッキー自動車株式会社（3310001006152）に合併し解散,2015-10-05,1,,,,,フクチュウショウジ,0
1576,5360001022317,登記記録の閉鎖等,0,2023-02-06,2023-02-01,ＭＡＣ　Ｏｋｉｎａｗａ株式会社,,株式会社,沖縄県,うるま市,字江洲５４７番地４みらいビル２Ｆ,,47,213,9042244,,,2023-02-01,合併による解散等,8011101062953,令和４年１２月３１日東京都千代田区麹町六丁目６番２号Ｍａｍａｓａｎ＆Ｃｏｍｐａｎｙ株式会社（8011101062953）に合併し解散,2017-05-16,1,,,,,エムエーシーオキナワ,0
1578,5360001030815,登記記録の閉鎖等,0,2023-02-06,2023-01-31,黎明株式会社,,株式会社,沖縄県,那覇市,具志２丁目２０番７号カンセイホーム具志２０６号室,,47,201,9010146,,,2023-01-31,清算の結了等,,,2022-08-18,1,,,,,レイメイ,0
1594,5380005004045,登記記録の閉鎖等,0,2023-02-06,2023-01-27,稲荷神社,,その他の設立登記法人,福島県,二本松市,田沢字石休場６４番地,,07,210,9640431,,,2023-01-27,合併による解散等,8380005004117,令和５年１月２７日福島県二本松市田沢字菅田３番地菅原神社（8380005004117）に合併し解散,2015-10-05,1,,,,,イナリ,0
1627,6010001203487,登記記録の閉鎖等,0,2023-02-06,2023-02-01,ＩＢ　Ａｐｐｌｉｃａｔｉｏｎｓ株式会社,,株式会社,東京都,千代田区,霞が関３丁目２番６号東京倶楽部ビルディング１１階,,13,101,1000013,,,2023-02-01,清算の結了等,,,2019-08-23,1,,,,,アイビーアプリケーションズ,0
1656,6010901032242,登記記録の閉鎖等,0,2023-02-06,2023-02-01,株式会社ＲＥＭインターナショナル,,株式会社,東京都,世田谷区,瀬田２丁目１３番８号,,13,112,1580095,,,2023-02-01,清算の結了等,,,2015-10-05,1,,,,,アールイーエムインターナショナル,0
1660,6010901045186,登記記録の閉鎖等,0,2023-02-06,2023-01-31,株式会社９ｔｈＣＯＤＥ,,株式会社,東京都,世田谷区,駒沢４丁目１２番２６号,,13,112,1540012,,,2023-01-31,清算の結了等,,,2019-11-11,1,,,,,ナインスコード,0
1669,6011101092894,登記記録の閉鎖等,0,2023-02-06,2023-01-31,株式会社ＳＦＬ,,株式会社,東京都,新宿区,新宿１丁目２８番１１号,,13,104,1600022,,,2023-01-31,合併による解散等,7011101044746,令和５年１月３１日東京都新宿区新宿一丁目２８番１１号株式会社メディオテック（7011101044746）に合併し解散,2020-10-21,1,,,,,エスエフエル,0
1683,6011601004770,登記記録の閉鎖等,0,2023-02-06,2023-02-02,東宝ネオン電飾株式会社,,株式会社,東京都,清瀬市,松山１丁目４１番１５号石井コーポ２０１号,,13,221,2040022,,,2023-02-02,清算の結了等,,,2015-10-05,1,,,,,トウホウネオンデンショク,0
1690,6012701003539,登記記録の閉鎖等,0,2023-02-06,2023-02-02,伸栄食品株式会社,,株式会社,東京都,東久留米市,南町３丁目９番２２号,,13,222,2030031,,,2023-02-02,清算の結了等,,,2015-10-05,1,,,,,,0
1699,6020001050499,登記記録の閉鎖等,0,2023-02-06,2023-02-01,株式会社ヤマト,,株式会社,神奈川県,横浜市都筑区,中川１丁目２番地,,14,118,2240001,,,2023-02-01,清算の結了等,,,2015-10-05,1,,,,,ヤマト,0
1715,6021002055256,登記記録の閉鎖等,0,2023-02-06,2023-02-01,有限会社フラワー珊瑚総合商会,,有限会社,神奈川県,足柄上郡松田町,松田惣領８３５番地２,,14,363,2580003,,,2023-02-01,清算の結了等,,,2015-10-05,1,,,,,フラワーサンゴソウゴウショウカイ,0
1723,6030002007828,登記記録の閉鎖等,0,2023-02-06,2023-02-02,有限会社関根建設,,有限会社,埼玉県,さいたま市見沼区,大字東門前３７０番地,,11,104,3370016,,,2023-02-02,清算の結了等,,,2015-10-05,1,,,,,セキネケンセツ,0
1724,6030002040011,登記記録の閉鎖等,0,2023-02-06,2023-02-01,有限会社島田金網製作所,,有限会社,埼玉県,加須市,向古河２４２６番地１,,11,210,3491205,,,2023-02-01,清算の結了等,,,2015-10-05,1,,,,,シマダカナアミセイサクジョ,0
1728,6040001003249,登記記録の閉鎖等,0,2023-02-06,2023-02-01,株式会社志村薬局,,株式会社,千葉県,千葉市花見川区,幕張町４丁目５６６番地,,12,102,2620032,,,2023-02-01,清算の結了等,,,2015-10-05,1,,,,,シムラヤッキョク,0
1730,6040001073382,登記記録の閉鎖等,0,2023-02-06,2023-02-02,株式会社双樹,,株式会社,千葉県,柏市,亀甲台町１丁目２３－７,,12,217,2770031,,,2023-02-02,清算の結了等,,,2015-10-05,1,,,,,ソウジュ,0
1756,6110002022265,登記記録の閉鎖等,0,2023-02-06,2023-02-01,有限会社イシダデンキ,,有限会社,新潟県,上越市,本町６丁目３番７号,,15,222,9430832,,,2023-02-01,清算の結了等,,,2015-10-05,1,,,,,イシダデンキ,0
1757,6120001007522,登記記録の閉鎖等,0,2023-02-06,2023-02-02,株式会社桜之宮ビル,,株式会社,大阪府,大阪市都島区,中野町４丁目２番１５号,,27,102,5340027,,,2023-02-02,清算の結了等,,,2015-10-05,1,,,,,サクラノミヤビル,0
1770,6120101023519,登記記録の閉鎖等,0,2023-02-06,2023-02-03,株式会社伊集院運送,,株式会社,大阪府,堺市東区,高松３６３番地の４３,,27,143,5998121,,,2023-02-03,清算の結了等,,,2015-10-05,1,,,,,,0
1772,6120101038731,登記記録の閉鎖等,0,2023-02-06,2023-02-02,日本環境管理株式会社,,株式会社,大阪府,貝塚市,二色３丁目１９番２号,,27,208,5970091,,,2023-02-02,清算の結了等,,,2015-10-05,1,,,,,ニホンカンキョウカンリ,0
1802,6140002013014,登記記録の閉鎖等,0,2023-02-06,2023-02-02,潮有限会社,,有限会社,兵庫県,神戸市中央区,元町通５丁目４番７－８０１号,,28,110,6500022,,,2023-02-02,清算の結了等,,,2015-10-05,1,,,,,ウシオ,0
1810,6160001021107,登記記録の閉鎖等,0,2023-02-06,2023-02-01,株式会社千成亭農場,,株式会社,滋賀県,彦根市,平田町８０８番地,,25,202,5220041,,,2023-02-01,合併による解散等,1160001011558,令和５年２月１日滋賀県近江八幡市安土町大中４７６番地３株式会社千成亭ファーム（1160001011558）に合併し解散,2018-08-07,1,,,,,センナリテイノウジョウ,0
1827,6180002064334,登記記録の閉鎖等,0,2023-02-06,2023-01-31,有限会社武藤製作所,,有限会社,愛知県,豊明市,新栄町１丁目１６２番地,,23,229,4701154,,,2023-01-31,清算の結了等,,,2015-10-05,1,,,,,ムトウセイサクショ,0
1835,6180302019070,登記記録の閉鎖等,0,2023-02-06,2023-01-31,有限会社山元鉄筋工業所,,有限会社,愛知県,刈谷市,山池町５丁目４０７番地,,23,210,4480036,,,2023-01-31,清算の結了等,,,2015-10-05,1,,,,,ヤマモトテッキンコウギョウショ,0
1836,6190001018653,登記記録の閉鎖等,0,2023-02-06,2023-01-31,株式会社セイ,,株式会社,三重県,伊勢市,御薗町王中島７９６番地,,24,203,5160803,,,2023-01-31,清算の結了等,,,2015-10-05,1,,,,,セイ,0
1841,6200001016647,登記記録の閉鎖等,0,2023-02-06,2023-02-02,株式会社大東メディカル,,株式会社,岐阜県,大垣市,東前１丁目７９番地３,,21,202,5030835,,,2023-02-02,清算の結了等,,,2015-10-05,1,,,,,ダイトウメディカル,0
1864,6270002010320,登記記録の閉鎖等,0,2023-02-06,2023-02-01,有限会社北条特販,,有限会社,鳥取県,東伯郡北栄町,国坂１５２５番地９２,,31,372,6892102,,,2023-02-01,清算の結了等,,,2015-10-05,1,,,,,ホウジョウトクハン,0
1869,6280005007098,登記記録の閉鎖等,0,2023-02-06,2023-02-01,農事組合法人神田,,その他の設立登記法人,島根県,出雲市,斐川町上庄原３６２番地,,32,203,6990505,,,2023-02-01,合併による解散等,2280005006938,令和５年２月１日島根県出雲市斐川町三絡９１１番地１農事組合法人アグリードいずも（2280005006938）に合併し解散,2016-01-07,1,,,,,ジンデン,0
1879,6310003004309,登記記録の閉鎖等,0,2023-02-06,2023-02-02,合同会社インプット,,合同会社,長崎県,佐世保市,柚木元町２４０３番１号,,42,202,8570115,,,2023-02-02,清算の結了等,,,2022-03-22,1,,,,,インプット,0
1904,6380001023345,登記記録の閉鎖等,0,2023-02-06,2023-02-01,株式会社会津テクノサービス,,株式会社,福島県,大沼郡会津美里町,西尾字上字甲３００番地,,07,447,9696244,,,2023-02-01,清算の結了等,,,2015-10-05,1,,,,,アイヅテクノサービス,0
1911,6390002010886,登記記録の閉鎖等,0,2023-02-06,2023-02-01,有限会社せんもん,,有限会社,山形県,新庄市,大町３番２６号,,06,205,9960026,,,2023-02-01,合併による解散等,3390002010798,令和５年２月１日山形県新庄市沖の町５番７号郷栄商事株式会社（3390002010798）に合併し解散,2015-10-05,1,,,,,センモン,0
1946,7010003013405,登記記録の閉鎖等,0,2023-02-06,2023-01-31,合同会社ニュー・パースペクティブ・ワン,,合同会社,東京都,中央区,日本橋１丁目４番１号日本橋一丁目ビルディング,,13,102,1030027,,,2023-01-31,清算の結了等,,,2015-10-05,1,,,,,ニューパースペクティブワン,0
1974,7011001120358,登記記録の閉鎖等,0,2023-02-06,2023-01-31,株式会社ＡＭＤＧ,,株式会社,東京都,渋谷区,広尾５丁目１６番１５号,,13,113,1500012,,,2023-01-31,清算の結了等,,,2018-01-30,1,,,,,エーエムディージー,0
1997,7011601004877,登記記録の閉鎖等,0,2023-02-06,2023-02-01,株式会社トミー商事,,株式会社,東京都,練馬区,田柄３丁目１４番１７号,,13,120,1790073,,,2023-02-01,清算の結了等,,,2015-10-05,1,,,,,トミーショウジ,0
2010,7013301000537,登記記録の閉鎖等,0,2023-02-06,2023-02-01,株式会社アド建築設計事務所,,株式会社,東京都,豊島区,南池袋２丁目８番５－２０３号,,13,116,1710022,,,2023-02-01,清算の結了等,,,2015-10-05,1,,,,,アドケンチクセッケイジムショ,0
2033,7021005012022,登記記録の閉鎖等,0,2023-02-06,2023-01-31,一般社団法人ＥＶバイク協会７１Ｍａｘ,,その他の設立登記法人,神奈川県,相模原市緑区,青野原２３３６番地２,,14,151,2520161,,,2023-01-31,清算の結了等,,,2020-09-30,1,,,,,イーブイバイクキョウカイナナイチマックス,0
2095,7120002074338,登記記録の閉鎖等,0,2023-02-06,2023-01-31,有限会社真商,,有限会社,大阪府,枚方市,出口６丁目１番１－１０４号,,27,210,5730065,,,2023-01-31,清算の結了等,,,2015-10-05,1,,,,,シンショウ,0
2099,7120005019851,登記記録の閉鎖等,0,2023-02-06,2023-02-02,一般社団法人全国外食産業支援機構,,その他の設立登記法人,大阪府,大阪市中央区,本町４丁目５番１５号本町ＯＳビル５０１,,27,128,5410053,,,2023-02-02,清算の結了等,,,2017-12-06,1,,,,,ゼンコクガイショクサンギョウシエンキコウ,0
2130,7180001104387,登記記録の閉鎖等,0,2023-02-06,2023-02-01,瑞穂松栄不動産株式会社,,株式会社,愛知県,豊田市,野見山町３丁目２７番地１４５,,23,211,4710813,,,2023-02-01,清算の結了等,,,2015-10-05,1,,,,,ミズホショウエイフドウサン,0
2142,7180003020483,登記記録の閉鎖等,0,2023-02-06,2023-02-02,合同会社Ｉｔｓｐｌｕｓ,,合同会社,愛知県,稲沢市,祖父江町両寺内千石屋敷３０１番地,,23,220,4950025,,,2023-02-02,清算の結了等,,,2019-10-31,1,,,,,イッツプラス,0
2144,7180005001952,登記記録の閉鎖等,0,2023-02-06,2023-01-05,縣社,,その他の設立登記法人,愛知県,清須市,春日県３７６６番地,,23,233,4520962,,,2023-01-05,合併による解散等,1180005002080,令和５年１月５日愛知県清須市春日冨士塚１番地の２春日八幡宮（1180005002080）に合併し解散,2015-10-05,1,,,,,アガタシャ,0
2147,7180302022981,登記記録の閉鎖等,0,2023-02-06,2023-02-01,有限会社ナカネワークス,,有限会社,愛知県,豊田市,陣中町２丁目１７番地３,,23,211,4710079,,,2023-02-01,清算の結了等,,,2015-10-05,1,,,,,ナカネワークス,0
2160,7230001001249,登記記録の閉鎖等,0,2023-02-06,2023-02-02,株式会社伸陽,,株式会社,富山県,中新川郡立山町,榎１２番地,,16,323,9300235,,,2023-02-02,清算の結了等,,,2015-10-05,1,,,,,シンヨウ,0
2177,7260001012094,登記記録の閉鎖等,0,2023-02-06,2023-01-30,株式会社Ｎ．Ｑ工芸,,株式会社,岡山県,加賀郡吉備中央町,三納谷７０４,,33,681,7092422,,,2023-01-30,清算の結了等,,,2015-10-05,1,,,,,エヌキューコウゲイ,0
2202,7360001021969,登記記録の閉鎖等,0,2023-02-06,2023-02-02,株式会社ＯＵＧＩ,,株式会社,東京都,新宿区,西新宿７丁目１番７号新宿ダイカンプラザＡ１０１８,,13,104,1600023,,,2023-02-02,清算の結了等,,,2017-02-27,1,,,,,オウギ,0
2224,7420001010098,登記記録の閉鎖等,0,2023-02-06,2023-02-02,ニチワラ青森通商株式会社,,株式会社,青森県,平川市,中佐渡南田５番地２,,02,210,0360221,,,2023-02-02,清算の結了等,,,2015-10-05,1,,,,,ニチワラアオモリツウショウ,0
2226,7430001077888,登記記録の閉鎖等,0,2023-02-06,2023-01-31,グランチャージ株式会社,,株式会社,北海道,札幌市手稲区,稲穂二条４丁目１３－１,,01,109,0060032,,,2023-01-31,清算の結了等,,,2018-12-11,1,,,,,グランチャージ,0
2237,7490002011485,登記記録の閉鎖等,0,2023-02-06,2023-02-02,有限会社徳三機工,,有限会社,高知県,南国市,久礼田２００９番地２,,39,204,7830062,,,2023-02-02,清算の結了等,,,2015-10-05,1,,,,,トクサンキコウ,0
2239,8010001013579,登記記録の閉鎖等,0,2023-02-06,2023-01-30,神田外語アソシエイツ株式会社,,株式会社,東京都,千代田区,内神田２丁目１３番９号,,13,101,1010047,,,2023-01-30,清算の結了等,,,2015-10-05,1,,,,,カンダガイゴアソシエイツ,0
2245,8010001214706,登記記録の閉鎖等,0,2023-02-06,2023-02-01,株式会社ブライトセンス,,株式会社,東京都,中央区,日本橋蛎殻町２丁目１０－１１,,13,102,1030014,,,2023-02-01,清算の結了等,,,2020-12-28,1,,,,,ブライトセンス,0
2286,8011101036651,登記記録の閉鎖等,0,2023-02-06,2023-02-02,日本東和株式会社,,株式会社,東京都,新宿区,新宿７丁目１７番１８号,,13,104,1600022,,,2023-02-02,清算の結了等,,,2015-10-05,1,,,,,ニホントウワ,0
2306,8012402000123,登記記録の閉鎖等,0,2023-02-06,2023-02-02,有限会社アジア合金製作所,,有限会社,東京都,府中市,美好町３丁目４１番地の７,,13,206,1830045,,,2023-02-02,清算の結了等,,,2015-10-05,1,,,,,,0
2309,8013105001549,登記記録の閉鎖等,0,2023-02-06,2023-02-02,一般社団法人多摩福祉サポート,,その他の設立登記法人,東京都,福生市,大字熊川１１１０番地６,,13,218,1970003,,,2023-02-02,清算の結了等,,,2015-10-05,1,,,,,,0
2323,8020002055140,登記記録の閉鎖等,0,2023-02-06,2023-02-01,有限会社英和設備,,有限会社,神奈川県,横浜市金沢区,六浦南５丁目２番９号,,14,108,2360038,,,2023-02-01,清算の結了等,,,2015-10-05,1,,,,,エイワセツビ,0
2340,8021002032765,登記記録の閉鎖等,0,2023-02-06,2023-01-27,有限会社パイプアート長谷川,,有限会社,神奈川県,厚木市,上依知４７３番の８,,14,212,2430801,,,2023-01-27,清算の結了等,,,2015-10-05,1,,,,,パイプアートハセガワ,0
2360,8040001056864,登記記録の閉鎖等,0,2023-02-06,2023-02-01,エステートダイア株式会社,,株式会社,千葉県,船橋市,西船４丁目１９番２－１０２号,,12,204,2730031,,,2023-02-01,清算の結了等,,,2015-10-05,1,,,,,エステートダイア,0
2365,8040002053002,登記記録の閉鎖等,0,2023-02-06,2023-02-02,有限会社栄光装備,,有限会社,千葉県,野田市,大殿井字真福寺谷津５８番１９,,12,208,2780017,,,2023-02-02,清算の結了等,,,2015-10-05,1,,,,,,0
2375,8050005012763,登記記録の閉鎖等,0,2023-02-06,2023-02-01,一般社団法人茨城の食と観光推進プロジェクト,,その他の設立登記法人,茨城県,水戸市,南町３丁目２番３１号サザンコート２０２号,,08,201,3100021,,,2023-02-01,清算の結了等,,,2020-10-12,1,,,,,イバラキノショクトカンコウスイシンプロジェクト,0
2384,8090001001601,登記記録の閉鎖等,0,2023-02-06,2023-02-01,株式会社ナルシマ,,株式会社,山梨県,甲府市,朝気３丁目２番１４号,,19,201,4000862,,,2023-02-01,清算の結了等,,,2015-10-05,1,,,,,ナルシマ,0
2391,8120001006811,登記記録の閉鎖等,0,2023-02-06,2023-02-02,相生産業株式会社,,株式会社,大阪府,大阪市都島区,片町１丁目３番４号,,27,102,5340025,,,2023-02-02,清算の結了等,,,2015-10-05,1,,,,,アイオイサンギョウ,0
2450,8180302007073,登記記録の閉鎖等,0,2023-02-06,2023-02-02,有限会社カワイビル,,有限会社,愛知県,豊橋市,羽根井町１７番地５,,23,201,4418025,,,2023-02-02,清算の結了等,,,2015-10-05,1,,,,,カワイビル,0
2454,8200001023773,登記記録の閉鎖等,0,2023-02-06,2023-02-01,株式会社ナルセ時計店,,株式会社,岐阜県,恵那市,大井町２９３番地の１,,21,210,5097201,,,2023-02-01,清算の結了等,,,2015-10-05,1,,,,,ナルセトケイテン,0
2499,8290001029589,登記記録の閉鎖等,0,2023-02-06,2023-02-02,株式会社ＡＭＴ,,株式会社,福岡県,福岡市南区,若久６丁目４番１７号,,40,134,8150042,,,2023-02-02,清算の結了等,,,2015-10-05,1,,,,,エーエムティー,0
2525,8370001010359,登記記録の閉鎖等,0,2023-02-06,2023-02-02,株式会社丸栄,,株式会社,宮城県,仙台市青葉区,堤通雨宮町２番２６号,,04,101,9810914,,,2023-02-02,清算の結了等,,,2015-10-05,1,,,,,マルエイ,0
2534,8380002014291,登記記録の閉鎖等,0,2023-02-06,2023-02-01,有限会社清流,,有限会社,福島県,郡山市,咲田１丁目１５番１０号ＨＯＵＳＥ北の家族３０３,,07,203,9638012,,,2023-02-01,清算の結了等,,,2015-10-05,1,,,,,セイリュウ,0
2542,8430001012035,登記記録の閉鎖等,0,2023-02-06,2023-02-01,株式会社内国商事,,株式会社,北海道,札幌市豊平区,豊平八条１０丁目３番１号グリーンコーポ豊平１１２号,,01,105,0620908,,,2023-02-01,清算の結了等,,,2015-10-05,1,,,,,ナイコクショウジ,0
2553,8430002039515,登記記録の閉鎖等,0,2023-02-06,2023-02-01,有限会社ヴァズ,,有限会社,北海道,札幌市手稲区,前田八条１１丁目３番１８号,,01,109,0060818,,,2023-02-01,清算の結了等,,,2015-10-05,1,,,,,ヴァズ,0
2566,9010001210563,登記記録の閉鎖等,0,2023-02-06,2023-02-03,株式会社日本橋宇田川,,株式会社,東京都,中央区,日本橋浜町３丁目８番５－４０３号,,13,102,1030007,,,2023-02-03,清算の結了等,,,2020-07-01,1,,,,,ニホンバシウダガワ,0
2583,9010701016095,登記記録の閉鎖等,0,2023-02-06,2023-02-02,株式会社アティエック,,株式会社,福島県,郡山市,長者２丁目１０番８号,,07,203,9638017,,,2023-02-02,清算の結了等,,,2015-10-05,1,,,,,アティエック,0
2600,9011002036064,登記記録の閉鎖等,0,2023-02-06,2023-02-02,有限会社オフィスＴ２,,有限会社,東京都,武蔵野市,吉祥寺本町１丁目２６番５号,,13,203,1800004,,,2023-02-02,清算の結了等,,,2015-10-05,1,,,,,オフィスティーツー,0
2608,9011103011874,登記記録の閉鎖等,0,2023-02-06,2023-02-02,合同会社猫会議,,合同会社,東京都,新宿区,早稲田鶴巻町５７９－５安生ビル１Ｆ,,13,104,1620041,,,2023-02-02,清算の結了等,,,2022-06-21,1,,,,,ネコカイギ,0
2612,9011302003342,登記記録の閉鎖等,0,2023-02-06,2023-02-01,有限会社慶屋美術,,有限会社,東京都,杉並区,西荻北４丁目８番２号,,13,115,1670042,,,2023-02-01,清算の結了等,,,2015-10-05,1,,,,,,0
2614,9011501001163,登記記録の閉鎖等,0,2023-02-06,2023-02-01,株式会社木村電気工業,,株式会社,東京都,品川区,南大井３丁目２番２号,,13,109,1400013,,,2023-02-01,清算の結了等,,,2015-10-05,1,,,,,キムラデンキコウギョウ,0
2618,9011703002744,登記記録の閉鎖等,0,2023-02-06,2023-02-02,合同会社フロンティア,,合同会社,東京都,江戸川区,北葛西２丁目２３番１５－２０５号,,13,123,1340081,,,2023-02-02,清算の結了等,,,2021-01-04,1,,,,,フロンティア,0
2634,9020003012131,登記記録の閉鎖等,0,2023-02-06,2023-02-01,合同会社シェラタン,,合同会社,神奈川県,川崎市宮前区,平２丁目１０番３号,,14,136,2160022,,,2023-02-01,清算の結了等,,,2016-12-14,1,,,,,シェラタン,0
2687,9080101001113,登記記録の閉鎖等,0,2023-02-06,2023-02-02,株式会社茶通亭,,株式会社,静岡県,沼津市,大諏訪５５６番地,,22,203,4100873,,,2023-02-02,合併による解散等,6080101000737,令和５年２月１日静岡県沼津市大諏訪５５５番地株式会社茶通亭（6080101000737）に合併し解散,2015-10-05,1,,,,,チャツウテイ,0
2699,9110001027741,登記記録の閉鎖等,0,2023-02-06,2023-02-01,株式会社ヤマキチ,,株式会社,新潟県,佐渡市,両津湊２９１番地,,15,224,9520014,,,2023-02-01,清算の結了等,,,2015-10-05,1,,,,,ヤマキチ,0
2734,9140001014159,登記記録の閉鎖等,0,2023-02-06,2023-02-02,株式会社正井建築設計事務所,,株式会社,兵庫県,神戸市兵庫区,水木通５丁目３番１６号,,28,105,6520802,,,2023-02-02,清算の結了等,,,2015-10-05,1,,,,,マサイケンチクセッケイジムショ,0
2770,9210001013847,登記記録の閉鎖等,0,2023-02-06,2023-02-03,株式会社悠膳,,株式会社,福井県,鯖江市,糺町３３号５番地の３,,18,207,9160004,,,2023-02-03,清算の結了等,,,2015-10-05,1,,,,,ユウゼン,0
2778,9240002039789,登記記録の閉鎖等,0,2023-02-06,2023-02-01,有限会社オーエヌテクノ,,有限会社,広島県,福山市,伊勢丘８丁目１番４号,,34,207,7210915,,,2023-02-01,清算の結了等,,,2015-10-05,1,,,,,オーエヌテクノ,0
2810,9370002004466,登記記録の閉鎖等,0,2023-02-06,2023-02-03,有限会社阿部長鉄工所,,有限会社,宮城県,仙台市若林区,荒井字沖谷地２４番地の５,,04,103,9840032,,,2023-02-03,清算の結了等,,,2015-10-05,1,,,,,アベチョウテッコウジョ,0
2831,9450002008129,登記記録の閉鎖等,0,2023-02-06,2023-01-31,有限会社エフ・ワイコーポレーション,,有限会社,北海道,旭川市,五条通１６丁目１３７９番地,,01,204,0700035,,,2023-01-31,合併による解散等,3450001002022,令和５年１月３１日北海道旭川市五条通十六丁目左１０号株式会社ダスキン西栄（3450001002022）に合併し解散,2015-10-05,1,,,,,エフワイコーポレーション,0
