sequenceNumber,corporateNumber,process,correct,updateDate,changeDate,name,nameImageId,kind,prefectureName,cityName,streetNumber,addressImageId,prefectureCode,cityCode,postCode,addressOutside,addressOutsideImageId,closeDate,closeCause,successorCorporateNumber,changeCause,assignmentDate,latest,enName,enPrefectureName,enCityName,enAddressOutside,furigana,hihyoji
3,1010001128788,登記記録の閉鎖等,0,2025-11-10,2025-10-30,創環境開発株式会社,,株式会社,東京都,中央区,日本橋茅場町２丁目１７番３号,,13,102,1030025,,,2025-10-30,清算の結了等,,,2015-10-05,1,,,,,ハジメカンキョウカイハツ,0
25,1010602031184,登記記録の閉鎖等,0,2025-11-10,2025-11-04,有限会社エヌイーコーポレーション,,有限会社,東京都,墨田区,江東橋４丁目２５番１０号,,13,107,1300022,,,2025-11-04,清算の結了等,,,2015-10-05,1,,,,,エヌイーコーポレーション,0
29,1010802007570,登記記録の閉鎖等,0,2025-11-10,2025-11-07,有限会社杉原鉄鋼器具製作所,,有限会社,東京都,大田区,大森中１丁目１７番８号,,13,111,1430014,,,2025-11-07,清算の結了等,,,2015-10-05,1,,,,,スギハラテッコウキグセイサクショ,0
47,1011105003407,登記記録の閉鎖等,0,2025-11-10,2025-11-04,レステイホテルズ特定目的会社,,その他の設立登記法人,東京都,新宿区,西新宿１丁目２４番１号ＢＤＯ税理士法人内,,13,104,1600023,,,2025-11-04,清算の結了等,,,2015-10-05,1,,,,,レステイホテルズ,0
52,1011702009310,登記記録の閉鎖等,0,2025-11-10,2025-10-30,有限会社馬場工務店,,有限会社,東京都,江戸川区,西一之江３丁目１９番８号,,13,123,1320023,,,2025-10-30,清算の結了等,,,2015-10-05,1,,,,,ババコウムテン,0
54,1011802013922,登記記録の閉鎖等,0,2025-11-10,2025-10-28,有限会社しんめい薬局,,有限会社,東京都,足立区,神明２丁目５番９号,,13,121,1210051,,,2025-10-28,清算の結了等,,,2015-10-05,1,,,,,シンメイヤッキョク,0
62,1013305001529,登記記録の閉鎖等,0,2025-11-10,2025-10-27,特定非営利活動法人豊島多文化共生ネットワーク,,その他の設立登記法人,東京都,豊島区,長崎４丁目８番７号ハイム・レオ４０１号,,13,116,1710051,,,2025-10-27,清算の結了等,,,2015-10-05,1,,,,,トシマタブンカキョウセイネットワーク,0
67,1020001089963,登記記録の閉鎖等,0,2025-11-10,2025-10-22,株式会社創研,,株式会社,神奈川県,横浜市神奈川区,西寺尾４丁目２８番３４号,,14,102,2210001,,,2025-10-22,清算の結了等,,,2015-10-05,1,,,,,ソウケン,0
69,1020001104053,登記記録の閉鎖等,0,2025-11-10,2025-10-31,株式会社Ｊ・Ｋ・Ｔ,,株式会社,三重県,亀山市,能褒野町６４番地６２,,24,210,5190212,,,2025-10-31,清算の結了等,,,2015-10-05,1,,,,,ジェイケイティ,0
70,1020001144149,登記記録の閉鎖等,0,2025-11-10,2025-10-27,株式会社ウェーブフィールド,,株式会社,神奈川県,横浜市港北区,日吉２丁目１８番３３－５号１０１,,14,109,2230061,,,2025-10-27,清算の結了等,,,2021-12-03,1,,,,,ウェーブフィールド,0
76,1020003024695,登記記録の閉鎖等,0,2025-11-10,2025-10-22,レイドバックサウンズ合同会社,,合同会社,神奈川県,川崎市宮前区,宮前平３丁目７番地５クレッセント宮崎台ＩＩ２０７,00132146,14,136,2160006,,,2025-10-22,清算の結了等,,,2023-10-05,1,,,,,レイドバックサウンズ,0
96,1030002015406,登記記録の閉鎖等,0,2025-11-10,2025-10-30,有限会社エスエステクノロジー,,有限会社,埼玉県,さいたま市西区,大字指扇３３２７番地１０,,11,101,3310047,,,2025-10-30,清算の結了等,,,2015-10-05,1,,,,,エスエステクノロジー,0
97,1030002044058,登記記録の閉鎖等,0,2025-11-10,2025-11-04,有限会社コートミズホ,,有限会社,埼玉県,草加市,松原１丁目１番６－２１１２号,,11,221,3400041,,,2025-11-04,清算の結了等,,,2015-10-05,1,,,,,コートミズホ,0
112,1050001007633,登記記録の閉鎖等,0,2025-11-10,2025-10-31,愛功建設株式会社,,株式会社,茨城県,東茨城郡大洗町,成田町１９０番地,,08,309,3111313,,,2025-10-31,清算の結了等,,,2015-10-05,1,,,,,アイコウケンセツ,0
121,1060002031714,登記記録の閉鎖等,0,2025-11-10,2025-11-05,有限会社おおさわ,,有限会社,栃木県,栃木市,倭町１１番５号,,09,203,3280037,,,2025-11-05,清算の結了等,,,2015-10-05,1,,,,,オオサワ,0
123,1070001010528,登記記録の閉鎖等,0,2025-11-10,2025-11-05,株式会社Ｓｏｌｅｉｌ,,株式会社,群馬県,高崎市,下小鳥町８７－１４,,10,202,3700074,,,2025-11-05,清算の結了等,,,2015-10-05,1,,,,,,0
124,1070001036374,登記記録の閉鎖等,0,2025-11-10,2025-11-05,株式会社ルミエス,,株式会社,群馬県,高崎市,片岡町２丁目２２番１７号プレミールＡ１０２,,10,202,3700862,,,2025-11-05,清算の結了等,,,2019-12-11,1,,,,,ルミエス,0
126,1070002036860,登記記録の閉鎖等,0,2025-11-10,2025-10-15,有限会社マルイチ,,有限会社,群馬県,吾妻郡東吾妻町,大字岩下５５９番地１,,10,429,3770815,,,2025-10-15,清算の結了等,,,2015-10-05,1,,,,,マルイチ,0
132,1090001016787,登記記録の閉鎖等,0,2025-11-10,2025-11-04,株式会社山梨レンタル,,株式会社,山梨県,甲府市,貢川本町５番１０号,,19,201,4000048,,,2025-11-04,清算の結了等,,,2021-01-06,1,,,,,ヤマナシレンタル,0
133,1090002012686,登記記録の閉鎖等,0,2025-11-10,2025-10-31,ミクニ産業有限会社,,有限会社,山梨県,富士吉田市,下吉田３丁目２８番１号,,19,202,4030004,,,2025-10-31,清算の結了等,,,2015-10-05,1,,,,,ミクニサンギョウ,0
135,1100002037038,登記記録の閉鎖等,0,2025-11-10,2025-11-04,有限会社野々村製畳,,有限会社,長野県,飯田市,松尾上溝３１０３番地１１,,20,205,3950811,,,2025-11-04,清算の結了等,,,2015-10-05,1,,,,,ノノムラセイジョウ,0
136,1100005011386,登記記録の閉鎖等,0,2025-11-10,2025-10-30,特定非営利活動法人まつもと子ども留学基金,,その他の設立登記法人,長野県,松本市,蟻ケ崎１丁目３番７号,,20,202,3900861,,,2025-10-30,清算の結了等,,,2015-10-05,1,,,,,マツモトコドモリュウガクキキン,0
137,1100005011709,登記記録の閉鎖等,0,2025-11-10,2025-10-31,特定非営利活動法人パウル会,,その他の設立登記法人,長野県,上高井郡小布施町,大字小布施８５１番地の４,,20,541,3810201,,,2025-10-31,清算の結了等,,,2015-10-05,1,,,,,パウルカイ,0
142,1120001069237,登記記録の閉鎖等,0,2025-11-10,2025-11-04,阪神興業株式会社,,株式会社,大阪府,大阪市北区,豊崎６丁目６番８号,,27,127,5310072,,,2025-11-04,清算の結了等,,,2015-10-05,1,,,,,ハンシンコウギョウ,0
145,1120001190141,登記記録の閉鎖等,0,2025-11-10,2025-11-04,株式会社フェリスケア,,株式会社,大阪府,大阪市西区,立売堀１丁目７番１８号国際通信社ビル,,27,106,5500012,,,2025-11-04,合併による解散等,7120002021785,令和７年１１月１日大阪市西区立売堀一丁目７番１８号株式会社れんげリビングサービス（7120002021785）に合併し解散,2015-10-05,1,,,,,フェリスケア,0
147,1120001202441,登記記録の閉鎖等,0,2025-11-10,2025-11-04,株式会社スマイルハート,,株式会社,大阪府,大阪市北区,曾根崎新地１丁目１－１９フロントガーデンビル４Ｆ,,27,127,5300002,,,2025-11-04,清算の結了等,,,2016-12-13,1,,,,,スマイルハート,0
218,1200003002617,登記記録の閉鎖等,0,2025-11-10,2025-11-04,株式会社ｍｕｒａｏ,,株式会社,東京都,世田谷区,成城５丁目２５番１９号ガーデンコート成城ＵＮＩＴＥＤＣＵＢＥＳ１０２,,13,112,1570066,,,2025-11-04,合併による解散等,9012402015211,令和７年１１月１日東京都世田谷区祖師谷一丁目２６番３号藤和祖師谷ホームズ３０１株式会社オフィスｍＲｏ（9012402015211）に合併し解散,2015-10-05,1,,,,,ムラオ,0
230,1260001036165,登記記録の閉鎖等,0,2025-11-10,2025-11-06,株式会社岡山事務機センター,,株式会社,岡山県,岡山市北区,久米２６９番地１,,33,101,7010144,,,2025-11-06,清算の結了等,,,2021-11-02,1,,,,,オカヤマジムキセンター,0
237,1290001021255,登記記録の閉鎖等,0,2025-11-10,2025-10-21,株式会社クオリティー,,株式会社,福岡県,福岡市早良区,西新６丁目３番１７－２０３号,,40,137,8140002,,,2025-10-21,清算の結了等,,,2015-10-05,1,,,,,クオリティー,0
248,1290002005959,登記記録の閉鎖等,0,2025-11-10,2025-10-08,有限会社宝永舗道,,有限会社,福岡県,福岡市東区,雁の巣１丁目１９番５３号,,40,131,8110206,,,2025-10-08,清算の結了等,,,2015-10-05,1,,,,,ホウエイホドウ,0
254,1290005003869,登記記録の閉鎖等,0,2025-11-10,2025-10-10,税理士法人トウマス,,その他の設立登記法人,福岡県,福岡市南区,高宮３丁目２５番１３号,,40,134,8150083,,,2025-10-10,清算の結了等,,,2015-10-05,1,,,,,トウマス,0
280,1430001056666,登記記録の閉鎖等,0,2025-11-10,2025-10-31,クリーンサプライ株式会社,,株式会社,北海道,室蘭市,東町３丁目７番１７号,,01,205,0500083,,,2025-10-31,合併による解散等,9430001056782,令和７年１０月３１日北海道室蘭市御前水町一丁目６番３３号株式会社白ばらクリーニング店（9430001056782）に合併し解散,2015-10-05,1,,,,,クリーンサプライ,0
289,1470001011733,登記記録の閉鎖等,0,2025-11-10,2025-11-04,株式会社テクノバックス,,株式会社,香川県,高松市,今里町４番地８,,37,201,7600078,,,2025-11-04,清算の結了等,,,2015-10-05,1,,,,,テクノバックス,0
293,1500001014559,登記記録の閉鎖等,0,2025-11-10,2025-11-04,株式会社ウイング,,株式会社,愛媛県,四国中央市,妻鳥町１９７２番地２,,38,213,7990113,,,2025-11-04,合併による解散等,3500001014598,令和７年１１月１日愛媛県四国中央市川滝町下山２３２６番地の５カナエ紙工株式会社（3500001014598）に合併し解散,2015-10-05,1,,,,,ウイング,0
301,2010001223794,登記記録の閉鎖等,0,2025-11-10,2025-11-04,株式会社ＤｉｃｅＷｏｒｋｓ,,株式会社,東京都,中央区,日本橋２丁目１１番２号,,13,102,1030027,,,2025-11-04,合併による解散等,5010001125410,令和７年１１月１日東京都中央区日本橋二丁目１１番２号株式会社テラスカイ（5010001125410）に合併し解散,2022-01-13,1,,,,,ダイスワークス,0
328,2010405018725,登記記録の閉鎖等,0,2025-11-10,2025-10-09,一般社団法人熱海デベロップメント,,その他の設立登記法人,東京都,港区,新橋３丁目３番１３号,,13,103,1050004,,,2025-10-09,清算の結了等,,,2020-05-26,1,,,,,アタミデベロップメント,0
338,2010802018526,登記記録の閉鎖等,0,2025-11-10,2025-10-30,有限会社フィールドワン,,有限会社,東京都,大田区,下丸子２丁目１３番２－１３０１号,,13,111,1460092,,,2025-10-30,清算の結了等,,,2015-10-05,1,,,,,フィールドワン,0
342,2011001156299,登記記録の閉鎖等,0,2025-11-10,2025-10-09,新フォレスト株式会社,,株式会社,東京都,目黒区,青葉台１丁目７番１４－４０１号,,13,110,1530042,,,2025-10-09,清算の結了等,,,2023-08-15,1,,,,,シンフォレスト,0
353,2011203001609,登記記録の閉鎖等,0,2025-11-10,2025-11-04,合同会社新井デンタルシステム,,合同会社,東京都,中野区,沼袋４丁目２番１４号,,13,114,1650025,,,2025-11-04,清算の結了等,,,2015-10-05,1,,,,,デンタルシステム,0
357,2011401007366,登記記録の閉鎖等,0,2025-11-10,2025-11-04,株式会社藤村工業,,株式会社,東京都,板橋区,清水町４番２号,,13,119,1740053,,,2025-11-04,清算の結了等,,,2015-10-05,1,,,,,フジムラコウギョウ,0
362,2011601013560,登記記録の閉鎖等,0,2025-11-10,2025-11-04,株式会社恵,,株式会社,東京都,東久留米市,柳窪５丁目５番１９号,,13,222,2030044,,,2025-11-04,清算の結了等,,,2015-10-05,1,,,,,メグミ,0
372,2012701009787,登記記録の閉鎖等,0,2025-11-10,2025-11-04,マコーラ株式会社,,株式会社,東京都,新宿区,百人町１丁目２０番１３号,,13,104,1690073,,,2025-11-04,清算の結了等,,,2015-10-05,1,,,,,マコーラ,0
394,2020005002657,登記記録の閉鎖等,0,2025-11-10,2025-10-17,特定非営利活動法人ユナイテッドかながわ,,その他の設立登記法人,神奈川県,大和市,柳橋２丁目８番６号,,14,213,2420022,,,2025-10-17,清算の結了等,,,2015-10-05,1,,,,,ユナイテッドカナガワ,0
395,2021001008169,登記記録の閉鎖等,0,2025-11-10,2025-10-20,株式会社サン・エスト,,株式会社,神奈川県,茅ヶ崎市,菱沼海岸４番４号,,14,207,2530037,,,2025-10-20,清算の結了等,,,2015-10-05,1,,,,,サンエスト,0
399,2030001060600,登記記録の閉鎖等,0,2025-11-10,2025-10-31,株式会社カンベ,,株式会社,埼玉県,本庄市,児玉町児玉１７２４番地３,,11,211,3670212,,,2025-10-31,清算の結了等,,,2015-10-05,1,,,,,カンベ,0
400,2030001082272,登記記録の閉鎖等,0,2025-11-10,2025-10-29,株式会社ワンズコア,,株式会社,埼玉県,川口市,飯塚２丁目１番３９－２７０７号,,11,203,3320023,,,2025-10-29,清算の結了等,,,2015-10-05,1,,,,,ワンズコア,0
412,2030002054725,登記記録の閉鎖等,0,2025-11-10,2025-10-31,有限会社平山製作所,,有限会社,埼玉県,上尾市,仲町２丁目８番１９号,,11,219,3620035,,,2025-10-31,清算の結了等,,,2015-10-05,1,,,,,ヒラヤマセイサクショ,0
423,2060002035474,登記記録の閉鎖等,0,2025-11-10,2025-11-06,有限会社一般食堂,,有限会社,栃木県,足利市,本城３丁目３９００番地３,,09,202,3260808,,,2025-11-06,清算の結了等,,,2015-10-05,1,,,,,イッパンショクドウ,0
431,2090003001902,登記記録の閉鎖等,0,2025-11-10,2025-10-31,合同会社ＳＰＡＲＫＬＥ　ＧＬОＳＳＹ,,合同会社,山梨県,笛吹市,境川町大窪６１９,,19,211,4060855,,,2025-10-31,清算の結了等,,,2021-07-07,1,,,,,スパークルグロッシー,0
436,2120001194620,登記記録の閉鎖等,0,2025-11-10,2025-11-04,株式会社ハウスコンタクト,,株式会社,大阪府,枚方市,池之宮２丁目２番１５号,,27,210,5730005,,,2025-11-04,合併による解散等,8010001219424,令和７年１１月１日大阪府枚方市池之宮二丁目２番１５号株式会社住まいるプラス１ホールディングス（8010001219424）に合併し解散,2015-11-20,1,,,,,ハウスコンタクト,0
440,2120001229756,登記記録の閉鎖等,0,2025-11-10,2025-11-06,株式会社揚星,,株式会社,大阪府,大阪市住之江区,安立２丁目７番２号３０７号室,,27,125,5590003,,,2025-11-06,清算の結了等,,,2020-06-16,1,,,,,ヨウセイ,0
481,2170005002477,登記記録の閉鎖等,0,2025-11-10,2025-04-01,ありだ農業協同組合,,その他の設立登記法人,和歌山県,有田郡有田川町,大字天満４７番地の１,,30,366,6430032,,,2025-04-01,合併による解散等,3170005007145,令和７年４月１日和歌山市栗栖６４２番地わかやま農業協同組合（3170005000026）と和歌山県海南市大野中７１８番地の１ながみね農業協同組合（4170005001964）と和歌山県紀の川市上野１２番地５紀の里農業協同組合（9170005003056）と和歌山県橋本市高野口町名古曽９２２番地の２紀北川上農業協同組合（8170005004996）と和歌山県有田郡有田川町大字天満４７番地の１ありだ農業協同組合（2170005002477）と和歌山県御坊市湯川町財部６６８番地の１紀州農業協同組合（8170005006340）と和歌山県田辺市朝日ケ丘２４番１７号紀南農業協同組合（4170005004001）と和歌山県東牟婁郡那智勝浦町大字天満１２２番地みくまの農業協同組合（5170005005551）と合併して和歌山市美園町五丁目１番地の１和歌山県農業協同組合（3170005007145）を設立し解散,2015-10-05,1,,,,,アリダノウギョウ,0
486,2180002032435,登記記録の閉鎖等,0,2025-11-10,2025-10-31,有限会社花工房,,有限会社,愛知県,名古屋市熱田区,沢上２丁目４番１号,,23,109,4560012,,,2025-10-31,清算の結了等,,,2015-10-05,1,,,,,ハナコウボウ,0
504,2190002015331,登記記録の閉鎖等,0,2025-11-10,2025-10-31,中勢開発有限会社,,有限会社,三重県,松阪市,立田町４１１番地５,,24,204,5150026,,,2025-10-31,清算の結了等,,,2015-10-05,1,,,,,チュウセイカイハツ,0
505,2200002019603,登記記録の閉鎖等,0,2025-11-10,2025-11-04,有限会社丸美,,有限会社,岐阜県,関市,本町３丁目１７番地,,21,205,5013886,,,2025-11-04,清算の結了等,,,2015-10-05,1,,,,,マルミ,0
508,2220002010774,登記記録の閉鎖等,0,2025-11-10,2025-11-05,有限会社谷口製材所,,有限会社,石川県,小松市,島町ル１６０番地,,17,203,9230303,,,2025-11-05,清算の結了等,,,2015-10-05,1,,,,,タニグチセイザイショ,0
513,2240002008874,登記記録の閉鎖等,0,2025-11-10,2025-10-31,有限会社せとや,,有限会社,広島県,広島市南区,宇品神田５丁目７番１０号,,34,103,7340004,,,2025-10-31,清算の結了等,,,2015-10-05,1,,,,,セトヤ,0
524,2270001007726,登記記録の閉鎖等,0,2025-11-10,2025-11-06,株式会社打吹回廊,,株式会社,鳥取県,倉吉市,明治町１０３２番地１９,,31,203,6820887,,,2025-11-06,清算の結了等,,,2019-04-01,1,,,,,ウツブキカイロウ,0
534,2290001098012,登記記録の閉鎖等,0,2025-11-10,2025-10-23,株式会社山内事務所,,株式会社,福岡県,福岡市城南区,長尾２丁目３番３５４号,,40,136,8140123,,,2025-10-23,清算の結了等,,,2022-06-21,1,,,,,ヤマウチジムショ,0
558,2370001006288,登記記録の閉鎖等,0,2025-11-10,2025-10-29,株式会社ユープラネット,,株式会社,宮城県,仙台市宮城野区,福室字弁当二番２５番地２,,04,102,9830005,,,2025-10-29,清算の結了等,,,2015-10-05,1,,,,,ユープラネット,0
560,2370001041888,登記記録の閉鎖等,0,2025-11-10,2025-10-29,株式会社一己組,,株式会社,宮城県,仙台市宮城野区,岡田字北在家４５番地の１,,04,102,9830003,,,2025-10-29,清算の結了等,,,2017-08-07,1,,,,,イッキグミ,0
563,2370101001791,登記記録の閉鎖等,0,2025-11-10,2025-10-29,リライアント株式会社,,株式会社,宮城県,角田市,角田字町２１７番地,,04,208,9811505,,,2025-10-29,清算の結了等,,,2015-10-05,1,,,,,リライアント,0
565,2380001006898,登記記録の閉鎖等,0,2025-11-10,2025-10-31,株式会社横溝,,株式会社,福島県,郡山市,富久山町八山田字山道１番地の８２,,07,203,9638051,,,2025-10-31,清算の結了等,,,2015-10-05,1,,,,,ヨコミゾ,0
581,2490002011639,登記記録の閉鎖等,0,2025-11-10,2025-11-07,有限会社巨峰ライン,,有限会社,高知県,南国市,廿枝１１８５番地１,,39,204,7830023,,,2025-11-07,清算の結了等,,,2015-10-05,1,,,,,キョホウライン,0
589,3010001210692,登記記録の閉鎖等,0,2025-11-10,2025-10-09,株式会社ＰｌａｎｔＳｔｒｅａｍ,,株式会社,東京都,港区,浜松町２丁目７番１９号,,13,103,1050013,,,2025-10-09,合併による解散等,7080401018908,令和７年１０月１日東京都港区浜松町二丁目７番１９号株式会社Ａｒｅｎｔ（7080401018908）に合併し解散,2020-07-06,1,,,,,プラントストリーム,0
619,3010502008446,登記記録の閉鎖等,0,2025-11-10,2025-10-30,有限会社内藤糊店,,有限会社,東京都,台東区,三ノ輪１丁目９番９号,,13,106,1100011,,,2025-10-30,清算の結了等,,,2015-10-05,1,,,,,ナイトウノリテン,0
620,3010603008171,登記記録の閉鎖等,0,2025-11-10,2025-10-22,合同会社Ｓａｇｅｓｓｅ,,合同会社,東京都,中央区,銀座６丁目１２番１０号銀座龍岡ビル５Ｆ,,13,102,1040061,,,2025-10-22,清算の結了等,,,2020-01-31,1,,,,,サジェス,0
629,3010903007864,登記記録の閉鎖等,0,2025-11-10,2025-10-29,シュプリーム合同会社,,合同会社,東京都,世田谷区,等々力７丁目２４番２１号リムテラス世田谷等々力１０４,,13,112,1580082,,,2025-10-29,清算の結了等,,,2022-12-26,1,,,,,シュプリーム,0
658,3011501006911,登記記録の閉鎖等,0,2025-11-10,2025-11-04,芝浜電機株式会社,,株式会社,埼玉県,草加市,両新田東町２０５番地１インナーコート柳島３０４号,,11,221,3400026,,,2025-11-04,清算の結了等,,,2015-10-05,1,,,,,シバハマデンキ,0
689,3030001061531,登記記録の閉鎖等,0,2025-11-10,2025-11-04,株式会社ユキリカ,,株式会社,埼玉県,本庄市,日の出２丁目４番５９号,,11,211,3670022,,,2025-11-04,清算の結了等,,,2015-10-05,1,,,,,ユキリカ,0
711,3060001014809,登記記録の閉鎖等,0,2025-11-10,2025-11-05,株式会社小山カントリー倶楽部,,株式会社,栃木県,小山市,大字喜沢１１４０番地,,09,208,3230014,,,2025-11-05,清算の結了等,,,2015-10-05,1,,,,,オヤマカントリークラブ,0
720,3120001016212,登記記録の閉鎖等,0,2025-11-10,2025-11-04,マイオール株式会社,,株式会社,大阪府,大阪市阿倍野区,天王寺町北２丁目１番２－３０３号,,27,119,5450001,,,2025-11-04,清算の結了等,,,2015-10-05,1,,,,,マイオール,0
725,3120001138873,登記記録の閉鎖等,0,2025-11-10,2025-11-04,株式会社レッドロック,,株式会社,大阪府,大阪市北区,豊崎３丁目９番７号,,27,127,5310072,,,2025-11-04,清算の結了等,,,2015-10-05,1,,,,,レッドロック,0
731,3120001255594,登記記録の閉鎖等,0,2025-11-10,2025-10-31,株式会社Ｐｌａｙ　ａｔ　Ｗｉｌｌ,,株式会社,大阪府,大阪市福島区,海老江５丁目２－６セイシア大拓２６－７０１号室,,27,103,5530001,,,2025-10-31,清算の結了等,,,2023-06-09,1,,,,,プレイアットエイル,0
734,3120001261031,登記記録の閉鎖等,0,2025-11-10,2025-11-04,蓮花株式会社,,株式会社,大阪府,大阪市阿倍野区,丸山通２丁目３－２０－１０１号室,,27,119,5450042,,,2025-11-04,清算の結了等,,,2024-01-10,1,,,,,レンカ,0
744,3120002003408,登記記録の閉鎖等,0,2025-11-10,2025-11-06,有限会社土佐紙器工業所,,有限会社,大阪府,大阪市阿倍野区,阿倍野元町１８番３６号,,27,119,5450034,,,2025-11-06,清算の結了等,,,2015-10-05,1,,,,,トサシキコウギョウショ,0
745,3120002043123,登記記録の閉鎖等,0,2025-11-10,2025-11-04,有限会社光輝建設,,有限会社,大阪府,大阪市旭区,新森１丁目７番４７号,,27,117,5350022,,,2025-11-04,清算の結了等,,,2015-10-05,1,,,,,,0
746,3120002043552,登記記録の閉鎖等,0,2025-11-10,2025-11-07,有限会社エンパワーケアプラン研究所,,有限会社,大阪府,大阪市東淀川区,東淡路１丁目５番４－９２５号,,27,114,5330023,,,2025-11-07,清算の結了等,,,2015-10-05,1,,,,,エンパワーケアプランケンキュウショ,0
766,3140001034988,登記記録の閉鎖等,0,2025-11-10,2025-10-31,昭和機設産業株式会社,,株式会社,広島県,尾道市,長者原１丁目２２０番地６２,,34,205,7220221,,,2025-10-31,合併による解散等,1240001037900,令和７年１０月３１日広島県尾道市長者原一丁目２２０番地の６２尾道産業株式会社（1240001037900）に合併し解散,2015-10-05,1,,,,,ショウワキセツサンギョウ,0
770,3140001125291,登記記録の閉鎖等,0,2025-11-10,2025-11-04,株式会社ＩＦＡプロデュース,,株式会社,兵庫県,神戸市中央区,下山手通２丁目１３－３,,28,110,6500011,,,2025-11-04,清算の結了等,,,2022-03-16,1,,,,,アイエフエープロデュース,0
781,3170005000026,登記記録の閉鎖等,0,2025-11-10,2025-04-01,わかやま農業協同組合,,その他の設立登記法人,和歌山県,和歌山市,栗栖６４２番地,,30,201,6408305,,,2025-04-01,合併による解散等,3170005007145,令和７年４月１日和歌山市栗栖６４２番地わかやま農業協同組合（3170005000026）と和歌山県海南市大野中７１８番地の１ながみね農業協同組合（4170005001964）と和歌山県紀の川市上野１２番地５紀の里農業協同組合（9170005003056）と和歌山県橋本市高野口町名古曽９２２番地の２紀北川上農業協同組合（8170005004996）と和歌山県有田郡有田川町大字天満４７番地の１ありだ農業協同組合（2170005002477）と和歌山県御坊市湯川町財部６６８番地の１紀州農業協同組合（8170005006340）と和歌山県田辺市朝日ケ丘２４番１７号紀南農業協同組合（4170005004001）と和歌山県東牟婁郡那智勝浦町大字天満１２２番地みくまの農業協同組合（5170005005551）と合併して和歌山市美園町五丁目１番地の１和歌山県農業協同組合（3170005007145）を設立し解散,2015-10-05,1,,,,,ワカヤマノウギョウ,0
786,3180002044446,登記記録の閉鎖等,0,2025-11-10,2025-10-31,有限会社伸栄化工,,有限会社,愛知県,清須市,清洲３５９番地の１,,23,233,4520942,,,2025-10-31,清算の結了等,,,2015-10-05,1,,,,,シンエイカコウ,0
787,3180003028737,登記記録の閉鎖等,0,2025-11-10,2025-11-04,合同会社クリーンシア,,合同会社,愛知県,知多郡武豊町,字中狭１８番地,,23,447,4702315,,,2025-11-04,清算の結了等,,,2025-07-16,1,,,,,クリーンシア,0
800,3220003002010,登記記録の閉鎖等,0,2025-11-10,2025-11-06,合同会社田中実業,,合同会社,石川県,白山市,乙丸町６４６番地２,,17,210,9240826,,,2025-11-06,清算の結了等,,,2015-10-05,1,,,,,タナカジツギョウ,0
803,3230001011301,登記記録の閉鎖等,0,2025-11-10,2025-11-04,山田鉄筋工業株式会社,,株式会社,富山県,高岡市,福岡町三日市５５６番地,,16,202,9390102,,,2025-11-04,清算の結了等,,,2015-10-05,1,,,,,ヤマダテッキンコウギョウ,0
811,3240001031521,登記記録の閉鎖等,0,2025-11-10,2025-11-04,中島建設株式会社,,株式会社,広島県,福山市,木之庄町２丁目１３番３７号,,34,207,7200082,,,2025-11-04,合併による解散等,9240001036696,令和７年１１月１日広島市中区八丁堀１０番１４号株式会社マエダハウジング（9240001036696）に合併し解散,2015-10-05,1,,,,,ナカシマケンセツ,0
815,3250002004302,登記記録の閉鎖等,0,2025-11-10,2025-11-04,宇部自動車有限会社,,有限会社,山口県,宇部市,島３丁目５番１４号,,35,202,7550047,,,2025-11-04,清算の結了等,,,2015-10-05,1,,,,,ウベジドウシャ,0
820,3290001029593,登記記録の閉鎖等,0,2025-11-10,2025-11-04,株式会社サンドア・アセットマネジメント,,株式会社,福岡県,福岡市中央区,笹丘１丁目２８番７４号,,40,133,8100034,,,2025-11-04,合併による解散等,2290003007301,令和７年１１月１日福岡市中央区笹丘一丁目２８番７４号合同会社ＭＲＳ（2290003007301）に合併し解散,2015-10-05,1,,,,,サンドアアセットマネジメント,0
821,3290001069994,登記記録の閉鎖等,0,2025-11-10,2025-06-20,あしたコーポレーション株式会社,,株式会社,福岡県,福岡市中央区,警固２丁目１３番７号,,40,133,8100023,,,2025-06-20,合併による解散等,8120001097974,令和７年６月１６日大阪市福島区福島六丁目１３番６号アイブリッジ株式会社（8120001097974）に合併し解散,2015-10-05,1,,,,,アシタコーポレーション,0
823,3290001088557,登記記録の閉鎖等,0,2025-11-10,2025-10-10,株式会社ＲＩＳＥＴＥＱ,,株式会社,福岡県,福岡市南区,皿山１丁目１３番４５－１号,,40,134,8111365,,,2025-10-10,清算の結了等,,,2020-04-07,1,,,,,ライズテック,0
826,3290002046638,登記記録の閉鎖等,0,2025-11-10,2025-10-20,有限会社テクノ工業,,有限会社,福岡県,嘉麻市,鴨生３６７番地の６,,40,227,8200206,,,2025-10-20,清算の結了等,,,2015-10-05,1,,,,,テクノコウギョウ,0
849,3330002021909,登記記録の閉鎖等,0,2025-11-10,2025-10-31,有限会社美創堂,,有限会社,熊本県,荒尾市,本井手１１４９番地５,,43,204,8640012,,,2025-10-31,清算の結了等,,,2015-10-05,1,,,,,ビソウドウ,0
861,3370001014249,登記記録の閉鎖等,0,2025-11-10,2025-10-29,株式会社岡崎工業,00081478,株式会社,宮城県,仙台市若林区,遠見塚３丁目８番５号,,04,103,9840823,,,2025-10-29,清算の結了等,,,2015-10-05,1,,,,,オカザキコウギョウ,0
865,3370002012227,登記記録の閉鎖等,0,2025-11-10,2025-10-31,有限会社千田総兵衛建築事務所,,有限会社,宮城県,仙台市太白区,長町５丁目９番１６－１００３号,,04,104,9820011,,,2025-10-31,清算の結了等,,,2015-10-05,1,,,,,チダソウベイケンチクジムショ,0
867,3370401000716,登記記録の閉鎖等,0,2025-11-10,2025-10-29,株式会社タムラ電工,,株式会社,宮城県,登米市,迫町森字西表７０番地,,04,212,9870512,,,2025-10-29,清算の結了等,,,2015-10-05,1,,,,,タムラデンコウ,0
869,3380001026012,登記記録の閉鎖等,0,2025-11-10,2025-11-04,株式会社アプレンド,,株式会社,福島県,いわき市,小名浜大原字原木田前２１８番地の２,,07,204,9718111,,,2025-11-04,清算の結了等,,,2015-10-05,1,,,,,アプレンド,0
877,3410002002082,登記記録の閉鎖等,0,2025-11-10,2025-11-06,有限会社白樺,,有限会社,秋田県,秋田市,土崎港中央３丁目１番１３号,,05,201,0110946,,,2025-11-06,清算の結了等,,,2015-10-05,1,,,,,シラカバ,0
886,3430001088435,登記記録の閉鎖等,0,2025-11-10,2025-11-05,株式会社Ｂａｎａｉ,,株式会社,北海道,札幌市豊平区,月寒東一条１５丁目１４番１４号,,01,105,0620051,,,2025-11-05,清算の結了等,,,2023-02-16,1,,,,,バナイ,0
888,3430002012088,登記記録の閉鎖等,0,2025-11-10,2025-10-30,有限会社タカダ総合保険,,有限会社,北海道,札幌市東区,東苗穂十条２丁目１５番７号,,01,103,0070810,,,2025-10-30,清算の結了等,,,2015-10-05,1,,,,,タカダソウゴウホケン,0
889,3450001007252,登記記録の閉鎖等,0,2025-11-10,2025-11-04,株式会社黒川商店,,株式会社,北海道,名寄市,東二条北４丁目２２番地,,01,221,0960052,,,2025-11-04,清算の結了等,,,2015-10-05,1,,,,,クロカワショウテン,0
892,3450002008324,登記記録の閉鎖等,0,2025-11-10,2025-11-05,有限会社イリエ,,有限会社,北海道,旭川市,旭神三条４丁目８番４号,,01,204,0788373,,,2025-11-05,清算の結了等,,,2015-10-05,1,,,,,イリエ,0
896,3480001006020,登記記録の閉鎖等,0,2025-11-10,2025-11-04,株式会社栄寿,,株式会社,徳島県,鳴門市,鳴門町高島字浜中２０５番地,,36,202,7720051,,,2025-11-04,清算の結了等,,,2015-10-05,1,,,,,エイジュ,0
902,4010001012592,登記記録の閉鎖等,0,2025-11-10,2025-11-04,株式会社エムケイ・コーハン,,株式会社,東京都,千代田区,神田淡路町２丁目２３番２号,,13,101,1010063,,,2025-11-04,清算の結了等,,,2015-10-05,1,,,,,エムケイコーハン,0
918,4010101000167,登記記録の閉鎖等,0,2025-11-10,2025-11-05,株式会社いづみ地所ハウジング,,株式会社,東京都,八王子市,泉町１２９３番地,,13,201,1930814,,,2025-11-05,清算の結了等,,,2015-10-05,1,,,,,イヅミジショハウジング,0
923,4010405021173,登記記録の閉鎖等,0,2025-11-10,2025-10-08,一般社団法人グローバルＲＷＥ創出プラットフォーム協議会,,その他の設立登記法人,東京都,港区,虎ノ門５丁目１１番１号オランダヒルズ森タワーＲｏＰ７０４号,,13,103,1050001,,,2025-10-08,清算の結了等,,,2022-07-26,1,,,,,グローバルアールダブリュイーソウシュツプラットフォームキョウギカイ,0
925,4010501007638,登記記録の閉鎖等,0,2025-11-10,2025-10-30,株式会社竹三,,株式会社,東京都,台東区,竜泉１丁目３１番１号,,13,106,1100012,,,2025-10-30,清算の結了等,,,2015-10-05,1,,,,,タケサン,0
929,4010902022302,登記記録の閉鎖等,0,2025-11-10,2025-11-04,有限会社吉橋金属,,有限会社,東京都,世田谷区,南烏山４丁目２３番１１号,,13,112,1570062,,,2025-11-04,合併による解散等,8010901012589,令和７年１１月１日東京都世田谷区南烏山四丁目２３番１１号株式会社吉橋興業（8010901012589）に合併し解散,2015-10-05,1,,,,,ヨシハシキンゾク,0
942,4011101034089,登記記録の閉鎖等,0,2025-11-10,2025-10-07,株式会社コウキ,,株式会社,東京都,新宿区,西新宿４丁目２４番１６号,,13,104,1600023,,,2025-10-07,清算の結了等,,,2015-10-05,1,,,,,コウキ,0
946,4011302008775,登記記録の閉鎖等,0,2025-11-10,2025-10-31,有限会社丸江,,有限会社,埼玉県,吉川市,大字保６２９番地１,,11,243,3420041,,,2025-10-31,清算の結了等,,,2015-10-05,1,,,,,マルエ,0
957,4012701012715,登記記録の閉鎖等,0,2025-11-10,2025-11-04,リビングフォーム株式会社,,株式会社,東京都,西東京市,田無町６丁目８番１４号,,13,229,1880011,,,2025-11-04,清算の結了等,,,2015-10-05,1,,,,,リビングフォーム,0
976,4021001059144,登記記録の閉鎖等,0,2025-11-10,2025-11-04,株式会社Ｍｅｌｉａ,,株式会社,大阪府,大阪市住之江区,南港北１丁目２９－１大阪ベイレジデンス１０１９,,27,125,5590034,,,2025-11-04,清算の結了等,,,2016-04-27,1,,,,,メリア,0
981,4030001029800,登記記録の閉鎖等,0,2025-11-10,2025-10-31,タワーメンテナンス株式会社,,株式会社,埼玉県,入間市,大字野田２９０番地１ベルメゾン元加治ヒルズ３０４,,11,225,3580054,,,2025-10-31,清算の結了等,,,2015-10-05,1,,,,,タワーメンテナンス,0
982,4030001078285,登記記録の閉鎖等,0,2025-11-10,2025-10-31,株式会社アセテク,,株式会社,埼玉県,川口市,在家町２９番１２－１０２号,,11,203,3330863,,,2025-10-31,合併による解散等,8030002101579,令和７年１０月３１日埼玉県川口市在家町２９番１２－１０２号株式会社鍵住（8030002101579）に合併し解散,2015-10-05,1,,,,,アセテク,0
992,4030002085553,登記記録の閉鎖等,0,2025-11-10,2025-10-08,有限会社金子工務店,,有限会社,東京都,渋谷区,幡ヶ谷３丁目３８番１２号,,13,113,1510072,,,2025-10-08,清算の結了等,,,2015-10-05,1,,,,,カネココウムテン,0
993,4030003012564,登記記録の閉鎖等,0,2025-11-10,2025-11-04,合同会社ユニットワン,,合同会社,埼玉県,所沢市,上新井２丁目３３番地２９,,11,208,3591142,,,2025-11-04,清算の結了等,,,2018-10-22,1,,,,,ユニットワン,0
1003,4040002041506,登記記録の閉鎖等,0,2025-11-10,2025-10-09,有限会社ヒューテック,,有限会社,千葉県,浦安市,猫実２丁目３番５４号,,12,227,2790004,,,2025-10-09,清算の結了等,,,2015-10-05,1,,,,,ヒューテック,0
1018,4080002002314,登記記録の閉鎖等,0,2025-11-10,2025-11-04,有限会社サトウ電気,,有限会社,静岡県,静岡市駿河区,豊田３丁目３番２０号,,22,102,4228027,,,2025-11-04,清算の結了等,,,2015-10-05,1,,,,,サトウデンキ,0
1029,4120001039443,登記記録の閉鎖等,0,2025-11-10,2025-11-05,日研技工株式会社,,株式会社,大阪府,大阪市浪速区,元町１丁目５番７号ナンバプラザビル,,27,111,5560016,,,2025-11-05,清算の結了等,,,2015-10-05,1,,,,,ニッケンギコウ,0
1038,4120001239506,登記記録の閉鎖等,0,2025-11-10,2025-11-04,株式会社Ｌｉｅｎ,,株式会社,大阪府,大阪市淀川区,東三国４丁目１４－１６－１０３,,27,123,5320002,,,2025-11-04,清算の結了等,,,2021-08-04,1,,,,,リヤン,0
1077,4170005001964,登記記録の閉鎖等,0,2025-11-10,2025-04-01,ながみね農業協同組合,,その他の設立登記法人,和歌山県,海南市,大野中７１８番地の１,,30,202,6420022,,,2025-04-01,合併による解散等,3170005007145,令和７年４月１日和歌山市栗栖６４２番地わかやま農業協同組合（3170005000026）と和歌山県海南市大野中７１８番地の１ながみね農業協同組合（4170005001964）と和歌山県紀の川市上野１２番地５紀の里農業協同組合（9170005003056）と和歌山県橋本市高野口町名古曽９２２番地の２紀北川上農業協同組合（8170005004996）と和歌山県有田郡有田川町大字天満４７番地の１ありだ農業協同組合（2170005002477）と和歌山県御坊市湯川町財部６６８番地の１紀州農業協同組合（8170005006340）と和歌山県田辺市朝日ケ丘２４番１７号紀南農業協同組合（4170005004001）と和歌山県東牟婁郡那智勝浦町大字天満１２２番地みくまの農業協同組合（5170005005551）と合併して和歌山市美園町五丁目１番地の１和歌山県農業協同組合（3170005007145）を設立し解散,2015-10-05,1,,,,,ナガミネノウギョウ,0
1079,4170005004001,登記記録の閉鎖等,0,2025-11-10,2025-04-01,紀南農業協同組合,,その他の設立登記法人,和歌山県,田辺市,朝日ヶ丘２４番１７号,,30,206,6460027,,,2025-04-01,合併による解散等,3170005007145,令和７年４月１日和歌山市栗栖６４２番地わかやま農業協同組合（3170005000026）と和歌山県海南市大野中７１８番地の１ながみね農業協同組合（4170005001964）と和歌山県紀の川市上野１２番地５紀の里農業協同組合（9170005003056）と和歌山県橋本市高野口町名古曽９２２番地の２紀北川上農業協同組合（8170005004996）と和歌山県有田郡有田川町大字天満４７番地の１ありだ農業協同組合（2170005002477）と和歌山県御坊市湯川町財部６６８番地の１紀州農業協同組合（8170005006340）と和歌山県田辺市朝日ケ丘２４番１７号紀南農業協同組合（4170005004001）と和歌山県東牟婁郡那智勝浦町大字天満１２２番地みくまの農業協同組合（5170005005551）と合併して和歌山市美園町五丁目１番地の１和歌山県農業協同組合（3170005007145）を設立し解散,2015-10-05,1,,,,,キナンノウギョウ,0
1087,4180002083939,登記記録の閉鎖等,0,2025-11-10,2025-10-30,有限会社細江工業所,,有限会社,愛知県,半田市,古浜町１０番地,,23,205,4750806,,,2025-10-30,清算の結了等,,,2015-10-05,1,,,,,ホソエコウギョウショ,0
1103,4200001024651,登記記録の閉鎖等,0,2025-11-10,2025-11-06,株式会社Ｍ’ｓＣｏｒｐｏｒａｔｉｏｎ,,株式会社,岐阜県,多治見市,平井町２丁目３０番地８,,21,204,5070058,,,2025-11-06,清算の結了等,,,2015-10-05,1,,,,,,0
1106,4200001027852,登記記録の閉鎖等,0,2025-11-10,2025-11-06,株式会社ユニゾン,,株式会社,岐阜県,羽島郡笠松町,字柳原町５０番地１,,21,303,5016100,,,2025-11-06,清算の結了等,,,2015-10-05,1,,,,,,0
1108,4200002027645,登記記録の閉鎖等,0,2025-11-10,2025-11-04,馬瀬川工業有限会社,,有限会社,岐阜県,下呂市,金山町祖師野３０４番地,,21,220,5091606,,,2025-11-04,清算の結了等,,,2015-10-05,1,,,,,マゼガワコウギョウ,0
1122,4240001017528,登記記録の閉鎖等,0,2025-11-10,2025-11-04,株式会社ハーセリーズ・インターナショナル,,株式会社,広島県,広島市安佐南区,祇園３丁目２６番３号,,34,105,7310138,,,2025-11-04,合併による解散等,5240001015381,令和７年１１月１日広島市中区幟町１３番４号イービーエス株式会社（5240001015381）に合併し解散,2015-10-05,1,,,,,ハーセリーズインターナショナル,0
1127,4260002018531,登記記録の閉鎖等,0,2025-11-10,2025-11-06,有限会社三友テック,,有限会社,岡山県,倉敷市,玉島乙島５６９番地の１９,,33,202,7138103,,,2025-11-06,清算の結了等,,,2015-10-05,1,,,,,サンユウテック,0
1134,4290001092962,登記記録の閉鎖等,0,2025-11-10,2025-10-20,株式会社カ・ラー,,株式会社,福岡県,福岡市中央区,薬院２丁目１２番２２－６０１号,,40,133,8100022,,,2025-10-20,清算の結了等,,,2021-04-26,1,,,,,カラー,0
1144,4290801012087,登記記録の閉鎖等,0,2025-11-10,2025-11-04,株式会社太田エナジー,,株式会社,福岡県,北九州市若松区,大字安瀬６４番地の１１０,,40,103,8080022,,,2025-11-04,合併による解散等,5290801012078,令和７年１１月１日北九州市若松区大字安瀬６４番地の１１０太田博株式会社（5290801012078）に合併し解散,2015-10-05,1,,,,,オオタエナジー,0
1145,4290801013853,登記記録の閉鎖等,0,2025-11-10,2025-11-05,北九送電株式会社,,株式会社,福岡県,北九州市八幡西区,割子川２丁目３番２２号,,40,109,8060064,,,2025-11-05,合併による解散等,2290001012724,令和７年１０月１日福岡県大野城市山田一丁目２番２６号九建架線工事株式会社（2290001012724）に合併し解散,2015-10-05,1,,,,,キタキュウソウデン,0
1146,4290801022813,登記記録の閉鎖等,0,2025-11-10,2025-10-27,西杵ホールディングス株式会社,,株式会社,福岡県,北九州市戸畑区,川代２丁目４番３号,,40,105,8040071,,,2025-10-27,合併による解散等,9290801011910,令和７年１０月１日北九州市若松区本町一丁目１４番１４号第一港運株式会社（9290801011910）に合併し解散,2016-08-15,1,,,,,ニシキホールディングス,0
1153,4320002018426,登記記録の閉鎖等,0,2025-11-10,2025-11-05,有限会社三重タクシー,,有限会社,大分県,豊後大野市,三重町小坂３７５５番地,,44,212,8797104,,,2025-11-05,清算の結了等,,,2015-10-05,1,,,,,ミエタクシー,0
1158,4340002000712,登記記録の閉鎖等,0,2025-11-10,2025-10-31,有限会社アイエフ設備,,有限会社,鹿児島県,鹿児島市,鴨池新町２５番９－５０１号,,46,201,8900064,,,2025-10-31,清算の結了等,,,2015-10-05,1,,,,,アイエフセツビ,0
1161,4340005007341,登記記録の閉鎖等,0,2025-11-10,2025-10-31,医療法人靖和会,,その他の設立登記法人,鹿児島県,志布志市,志布志町志布志３丁目２番１７号,,46,221,8997103,,,2025-10-31,清算の結了等,,,2015-10-05,1,,,,,セイワカイ,0
1168,4370001022952,登記記録の閉鎖等,0,2025-11-10,2025-10-30,レオ食品株式会社,,株式会社,宮城県,多賀城市,高橋５丁目１０番４号,,04,209,9850853,,,2025-10-30,清算の結了等,,,2015-10-05,1,,,,,レオショクヒン,0
1171,4370001025641,登記記録の閉鎖等,0,2025-11-10,2025-10-29,株式会社齋信工業,,株式会社,宮城県,富谷市,穀田要害３２番地,,04,216,9813327,,,2025-10-29,清算の結了等,,,2015-10-05,1,,,,,サイシンコウギョウ,0
1173,4380001012341,登記記録の閉鎖等,0,2025-11-10,2025-10-31,株式会社いわきの里鬼ヶ城,,株式会社,福島県,いわき市,川前町上桶売字小久田７３番地の３,,07,204,9793203,,,2025-10-31,清算の結了等,,,2015-10-05,1,,,,,イワキノサトオニガジョウ,0
1179,4420002001561,登記記録の閉鎖等,0,2025-11-10,2025-10-27,有限会社エヌ・エス・ピー,,有限会社,神奈川県,川崎市宮前区,神木本町５丁目１７－１７クレスト神木Ａ２０１,,14,136,2160031,,,2025-10-27,清算の結了等,,,2015-10-05,1,,,,,エヌエスピー,0
1186,4470001010807,登記記録の閉鎖等,0,2025-11-10,2025-11-04,ラミュージャパン株式会社,,株式会社,香川県,仲多度郡多度津町,大字山階４５５番地,,37,404,7640034,,,2025-11-04,清算の結了等,,,2015-10-05,1,,,,,ラミュージャパン,0
1198,5010001194835,登記記録の閉鎖等,0,2025-11-10,2025-10-31,Ｂｉａ株式会社,,株式会社,東京都,千代田区,永田町２丁目１４番２号山王グランドビル３階スリーアイズキャピタル株式会社内,,13,101,1000014,,,2025-10-31,清算の結了等,,,2018-09-14,1,,,,,ビア,0
1210,5010005006350,登記記録の閉鎖等,0,2025-11-10,2025-11-06,アオバアンドカンパニー税理士法人,,その他の設立登記法人,東京都,千代田区,隼町２番１０号２１０半蔵門ビル３階,,13,101,1020092,,,2025-11-06,清算の結了等,,,2015-10-05,1,,,,,アオバアンドカンパニー,0
1213,5010401034054,登記記録の閉鎖等,0,2025-11-10,2025-10-10,株式会社イーエフプランニング,,株式会社,東京都,港区,芝大門２丁目１１番５号美和ビル３０１,,13,103,1050012,,,2025-10-10,清算の結了等,,,2015-10-05,1,,,,,イーエフプランニング,0
1230,5011001047090,登記記録の閉鎖等,0,2025-11-10,2025-10-17,フリーナンス株式会社,,株式会社,東京都,品川区,大崎１丁目２番２号,,13,109,1410032,,,2025-10-17,合併による解散等,7010401100770,令和７年１０月１日東京都品川区大崎一丁目２番２号フリー株式会社（7010401100770）に合併し解散,2015-10-05,1,,,,,フリーナンス,0
1247,5011202005038,登記記録の閉鎖等,0,2025-11-10,2025-11-04,有限会社Ｂ・ＬＫｅｎｓｏｕ,,有限会社,東京都,練馬区,南田中４丁目２２番２号石神井ハイツ１０１,,13,120,1770035,,,2025-11-04,清算の結了等,,,2015-10-05,1,,,,,ビルケンソウ,0
1258,5012701010899,登記記録の閉鎖等,0,2025-11-10,2025-11-05,ヒップスタイル東日本株式会社,,株式会社,埼玉県,新座市,あたご３丁目１５番地１７,,11,230,3520021,,,2025-11-05,合併による解散等,3020001103581,令和７年１０月１日横浜市西区みなとみらい二丁目３番５号クイーンズタワーＣ－１０Ｆヒップスタイル株式会社（3020001103581）に合併し解散,2015-10-05,1,,,,,ヒップスタイルヒガシニホン,0
1276,5020002035855,登記記録の閉鎖等,0,2025-11-10,2025-10-22,有限会社益興,,有限会社,神奈川県,横浜市港北区,大倉山７丁目６番１０号,,14,109,2220037,,,2025-10-22,清算の結了等,,,2015-10-05,1,,,,,マスコウ,0
1277,5020003015798,登記記録の閉鎖等,0,2025-11-10,2025-10-20,合同会社Ｎプラザ,,合同会社,神奈川県,横浜市金沢区,六浦４丁目１９番１８号,,14,108,2360031,,,2025-10-20,清算の結了等,,,2019-03-26,1,,,,,エヌプラザ,0
1280,5021001050085,登記記録の閉鎖等,0,2025-11-10,2025-10-22,株式会社Ｍ,,株式会社,神奈川県,横須賀市,若松町１丁目１５番地若松ビル地下１階,,14,201,2380007,,,2025-10-22,清算の結了等,,,2015-10-05,1,,,,,エム,0
1302,5040001072063,登記記録の閉鎖等,0,2025-11-10,2025-10-08,株式会社フォレスタ,,株式会社,千葉県,野田市,堤根１４４番地６,,12,208,2780021,,,2025-10-08,清算の結了等,,,2015-10-05,1,,,,,フォレスタ,0
1321,5070001025506,登記記録の閉鎖等,0,2025-11-10,2025-11-05,株式会社よこづな,,株式会社,群馬県,佐波郡玉村町,大字上之手１７１８番地２,,10,464,3701127,,,2025-11-05,清算の結了等,,,2015-10-05,1,,,,,,0
1326,5080002004565,登記記録の閉鎖等,0,2025-11-10,2025-11-04,有限会社のぼる梅の家,,有限会社,静岡県,静岡市駿河区,登呂１丁目２番１６号,,22,102,4228033,,,2025-11-04,清算の結了等,,,2015-10-05,1,,,,,ノボルウメノヤ,0
1331,5100002014363,登記記録の閉鎖等,0,2025-11-10,2025-11-05,有限会社千曲防災システム,,有限会社,長野県,上田市,別所温泉１７５３番地,,20,203,3861431,,,2025-11-05,清算の結了等,,,2015-10-05,1,,,,,チクマボウサイシステム,0
1332,5100002033644,登記記録の閉鎖等,0,2025-11-10,2025-11-05,有限会社ウェルディング田中製作所,,有限会社,長野県,伊那市,西箕輪６６８３番地,,20,209,3960041,,,2025-11-05,清算の結了等,,,2015-10-05,1,,,,,ウェルディングタナカセイサクジョ,0
1339,5120001237608,登記記録の閉鎖等,0,2025-11-10,2025-11-04,樹商事株式会社,,株式会社,大阪府,大阪市平野区,瓜破２丁目１番６号ウェルバード瓜破４０４号,,27,126,5470024,,,2025-11-04,清算の結了等,,,2021-05-20,1,,,,,イツキショウジ,0
1369,5130001079487,登記記録の閉鎖等,0,2025-11-10,2025-11-05,やさしい株式会社,,株式会社,京都府,京都市下京区,大黒町２２７番地第２キョートビル４０２号,,26,106,6008043,,,2025-11-05,清算の結了等,,,2025-04-24,1,,,,,ヤサシイ,0
1372,5130002031331,登記記録の閉鎖等,0,2025-11-10,2025-10-30,有限会社京都医食研,,有限会社,京都府,京都市伏見区,深草大亀谷万帖敷町３３４番地１５,,26,109,6120846,,,2025-10-30,清算の結了等,,,2015-10-05,1,,,,,キョウトイショクケン,0
1386,5170005005551,登記記録の閉鎖等,0,2025-11-10,2025-04-01,みくまの農業協同組合,,その他の設立登記法人,和歌山県,東牟婁郡那智勝浦町,大字天満１２２番地,,30,421,6495331,,,2025-04-01,合併による解散等,3170005007145,令和７年４月１日和歌山市栗栖６４２番地わかやま農業協同組合（3170005000026）と和歌山県海南市大野中７１８番地の１ながみね農業協同組合（4170005001964）と和歌山県紀の川市上野１２番地５紀の里農業協同組合（9170005003056）と和歌山県橋本市高野口町名古曽９２２番地の２紀北川上農業協同組合（8170005004996）と和歌山県有田郡有田川町大字天満４７番地の１ありだ農業協同組合（2170005002477）と和歌山県御坊市湯川町財部６６８番地の１紀州農業協同組合（8170005006340）と和歌山県田辺市朝日ケ丘２４番１７号紀南農業協同組合（4170005004001）と和歌山県東牟婁郡那智勝浦町大字天満１２２番地みくまの農業協同組合（5170005005551）と合併して和歌山市美園町五丁目１番地の１和歌山県農業協同組合（3170005007145）を設立し解散,2015-10-05,1,,,,,ミクマノノウギョウ,0
1392,5180001139311,登記記録の閉鎖等,0,2025-11-10,2025-10-29,ネクストライン株式会社,,株式会社,愛知県,名古屋市名東区,本郷２丁目５３番地ＬＯＴＵＳ２０１号,,23,115,4650024,,,2025-10-29,清算の結了等,,,2020-01-24,1,,,,,ネクストライン,0
1411,5210002009360,登記記録の閉鎖等,0,2025-11-10,2025-11-06,有限会社エム・ジー電子,,有限会社,福井県,大野市,中挾３丁目１１１１番地,,18,205,9120015,,,2025-11-06,清算の結了等,,,2015-10-05,1,,,,,エムジーデンシ,0
1423,5240002002453,登記記録の閉鎖等,0,2025-11-10,2025-11-05,有限会社エフ計画,,有限会社,広島県,広島市東区,温品２丁目１４番２５号,,34,102,7320033,,,2025-11-05,清算の結了等,,,2015-10-05,1,,,,,エフケイカク,0
1426,5250001005613,登記記録の閉鎖等,0,2025-11-10,2025-11-05,ジヤパン通信株式会社,,株式会社,山口県,下関市,一の宮学園町９番３号,,35,201,7510807,,,2025-11-05,清算の結了等,,,2015-10-05,1,,,,,ジャパンツウシン,0
1432,5260001033027,登記記録の閉鎖等,0,2025-11-10,2025-11-04,ＦＩＲＥ　ＭＯＶＥＭＥＮＴ株式会社,,株式会社,岡山県,岡山市東区,城東台東１丁目７番３号,,33,103,7090622,,,2025-11-04,清算の結了等,,,2019-04-10,1,,,,,ファイアムーブメント,0
1455,5290803002093,登記記録の閉鎖等,0,2025-11-10,2025-11-06,合同会社アソウタイセイプリンティング,,合同会社,福岡県,北九州市八幡東区,祇園１丁目１２番１４号,00118245,40,108,8050067,,,2025-11-06,清算の結了等,,,2015-10-05,1,,,,,アソウタイセイプリンティング,0
1470,5350002017754,登記記録の閉鎖等,0,2025-11-10,2025-11-06,有限会社上村ホンダ販売,,有限会社,宮崎県,小林市,堤３０１７番地１,,45,205,8860003,,,2025-11-06,清算の結了等,,,2015-10-05,1,,,,,カミムラホンダハンバイ,0
1475,5360002012498,登記記録の閉鎖等,0,2025-11-10,2025-11-04,有限会社ミヤヨシ,,有限会社,沖縄県,沖縄市,美里仲原町２１番２２号,,47,211,9042156,,,2025-11-04,清算の結了等,,,2015-10-05,1,,,,,ミヤヨシ,0
1481,5380001025672,登記記録の閉鎖等,0,2025-11-10,2025-11-04,株式会社ジーマップ,,株式会社,福島県,福島市,小倉寺字鬼石１番地の１５,,07,201,9608142,,,2025-11-04,清算の結了等,,,2015-10-05,1,,,,,ジーマップ,0
1489,5430002035120,登記記録の閉鎖等,0,2025-11-10,2025-11-04,有限会社明＿工業,00089402,有限会社,北海道,札幌市北区,篠路町上篠路７４番地４０,,01,102,0028052,,,2025-11-04,合併による解散等,2430002025669,令和７年１１月１日札幌市手稲区手稲前田６１２番地１３４日進工業株式会社（2430002025669）に合併し解散,2015-10-05,1,,,,,メイテツコウギョウ,0
1492,5430005011705,登記記録の閉鎖等,0,2025-11-10,2025-11-05,特定非営利活動法人北海道活性化推進委員会,,その他の設立登記法人,北海道,札幌市東区,北三十八条東１丁目１番１０－２号,,01,103,0070838,,,2025-11-05,清算の結了等,,,2015-10-05,1,,,,,ホッカイドウカッセイカスイシンイインカイ,0
1499,6010001149565,登記記録の閉鎖等,0,2025-11-10,2025-10-09,エトリオン・ジャパン株式会社,,株式会社,東京都,港区,六本木１丁目９番１０号アークヒルズ仙石山森タワー２８Ｆベーカー＆マッケンジー法律事務所内,,13,103,1060032,,,2025-10-09,清算の結了等,,,2015-10-05,1,,,,,エトリオンジャパン,0
1506,6010003023099,登記記録の閉鎖等,0,2025-11-10,2025-10-31,合同会社ディーム,,合同会社,東京都,中央区,新川２丁目２７番１号,,13,102,1040033,,,2025-10-31,清算の結了等,,,2016-02-22,1,,,,,ディーム,0
1507,6010003037479,登記記録の閉鎖等,0,2025-11-10,2025-10-29,合同会社ＧＬマネジメント,,合同会社,東京都,中央区,新川１丁目２８番７号,,13,102,1040033,,,2025-10-29,清算の結了等,,,2022-04-13,1,,,,,ジーエルマネジメント,0
1514,6010401005459,登記記録の閉鎖等,0,2025-11-10,2025-10-09,株式会社エムツー・スーパーセレクション,,株式会社,東京都,港区,港南５丁目３番２３号,,13,103,1080075,,,2025-10-09,清算の結了等,,,2015-10-05,1,,,,,エムツースーパーセレクション,0
1516,6010401095582,登記記録の閉鎖等,0,2025-11-10,2025-11-05,スマホ教室事務局株式会社,,株式会社,東京都,三鷹市,井の頭３丁目１４番２２号,,13,204,1810001,,,2025-11-05,清算の結了等,,,2015-10-05,1,,,,,スマホキョウシツジムキョク,0
1517,6010401102090,登記記録の閉鎖等,0,2025-11-10,2025-10-10,株式会社ＭＩＵ,,株式会社,東京都,港区,北青山１丁目３番１号アールキューブ青山３階,,13,103,1070061,,,2025-10-10,清算の結了等,,,2015-10-05,1,,,,,ミウ,0
1518,6010401135727,登記記録の閉鎖等,0,2025-11-10,2025-10-21,株式会社ＡＺＡＬＥＡ,,株式会社,東京都,港区,浜松町１丁目３番２号,,13,103,1050013,,,2025-10-21,清算の結了等,,,2017-12-28,1,,,,,アザレア,0
1554,6011101074505,登記記録の閉鎖等,0,2025-11-10,2025-10-29,株式会社アクト,,株式会社,東京都,豊島区,東池袋４丁目２３番６号,,13,116,1700013,,,2025-10-29,清算の結了等,,,2015-10-05,1,,,,,アクト,0
1563,6011602010413,登記記録の閉鎖等,0,2025-11-10,2025-11-04,有限会社丸利,,有限会社,東京都,練馬区,平和台４丁目２１番９号,,13,120,1790083,,,2025-11-04,清算の結了等,,,2015-10-05,1,,,,,マルリ,0
1577,6020001145266,登記記録の閉鎖等,0,2025-11-10,2025-10-30,エルティート株式会社,,株式会社,神奈川県,横浜市青葉区,奈良町１８４２番地３,,14,117,2270036,,,2025-10-30,清算の結了等,,,2022-02-18,1,,,,,エルティート,0
1587,6020005005409,登記記録の閉鎖等,0,2025-11-10,2025-10-28,特定非営利活動法人のむぎ地域教育文化センター,,その他の設立登記法人,神奈川県,横浜市青葉区,寺家町１１２番地,,14,117,2270031,,,2025-10-28,清算の結了等,,,2015-10-05,1,,,,,ノムギチイキキョウイクブンカセンター,0
1596,6030001060340,登記記録の閉鎖等,0,2025-11-10,2025-11-04,株式会社東庄エース,,株式会社,埼玉県,本庄市,朝日町３丁目１番４０号,,11,211,3670026,,,2025-11-04,清算の結了等,,,2015-10-05,1,,,,,トウショウエース,0
1606,6030005010655,登記記録の閉鎖等,0,2025-11-10,2025-10-15,特定非営利活動法人男女共同参画こしがやともろう,,その他の設立登記法人,埼玉県,越谷市,北越谷２丁目２１番８号,,11,222,3430026,,,2025-10-15,清算の結了等,,,2015-10-05,1,,,,,ダンジョキョウドウサンカクコシガヤトモロウ,0
1609,6040001046413,登記記録の閉鎖等,0,2025-11-10,2025-10-08,株式会社森の彩,,株式会社,千葉県,千葉市稲毛区,園生町４００番地４３,,12,103,2630051,,,2025-10-08,清算の結了等,,,2015-10-05,1,,,,,モリノイロ,0
1617,6040002073646,登記記録の閉鎖等,0,2025-11-10,2025-10-31,有限会社嶋興業,,有限会社,千葉県,市原市,土宇１４２７番１７,,12,219,2900215,,,2025-10-31,清算の結了等,,,2015-10-05,1,,,,,シマコウギョウ,0
1630,6070002035635,登記記録の閉鎖等,0,2025-11-10,2025-11-05,水上きのこ販売有限会社,,有限会社,群馬県,利根郡みなかみ町,湯原９番地１,,10,449,3791617,,,2025-11-05,清算の結了等,,,2015-10-05,1,,,,,,0
1634,6100001011781,登記記録の閉鎖等,0,2025-11-10,2025-11-06,ＪＢＳスタッフサービス株式会社,,株式会社,長野県,上田市,天神１丁目８番１号,,20,203,3860025,,,2025-11-06,清算の結了等,,,2015-10-05,1,,,,,ジェービーエススタッフサービス,0
1643,6110005015373,登記記録の閉鎖等,0,2025-11-10,2025-10-31,農事組合法人あかり,,その他の設立登記法人,新潟県,上越市,牧区高尾５４０番地,,15,222,9430621,,,2025-10-31,清算の結了等,,,2015-10-05,1,,,,,アカリ,0
1644,6120001001814,登記記録の閉鎖等,0,2025-11-10,2025-11-05,株式会社光布製作所,,株式会社,大阪府,大阪市鶴見区,今津北１丁目１番５号,,27,124,5380041,,,2025-11-05,清算の結了等,,,2015-10-05,1,,,,,コウフセイサクショ,0
1647,6120001098909,登記記録の閉鎖等,0,2025-11-10,2025-11-06,株式会社木村製作所,,株式会社,大阪府,大阪市住吉区,大領４丁目４番７号,,27,120,5580001,,,2025-11-06,清算の結了等,,,2015-10-05,1,,,,,キムラセイサクジョ,0
1649,6120001165320,登記記録の閉鎖等,0,2025-11-10,2025-11-04,株式会社４８組,,株式会社,大阪府,大阪市生野区,巽北１丁目２２番９号,00029575,27,116,5440004,,,2025-11-04,清算の結了等,,,2015-10-05,1,,,,,ヨンジュウハチクミ,0
1665,6120002019517,登記記録の閉鎖等,0,2025-11-10,2025-11-05,有限会社五十嵐商店,,有限会社,大阪府,大阪市浪速区,下寺２丁目６番１３号,,27,111,5560001,,,2025-11-05,清算の結了等,,,2015-10-05,1,,,,,イガラシショウテン,0
1672,6120901042676,登記記録の閉鎖等,0,2025-11-10,2025-10-27,株式会社笑顔,,株式会社,大阪府,高槻市,高槻町１８番９号,,27,207,5690803,,,2025-10-27,清算の結了等,,,2020-04-30,1,,,,,エガオ,0
1702,6180003025260,登記記録の閉鎖等,0,2025-11-10,2025-10-31,イスト合同会社,,合同会社,愛知県,名古屋市千種区,今池１丁目２番５号プラザフェニックス村松苑８０３号,,23,101,4640850,,,2025-10-31,清算の結了等,,,2023-05-23,1,,,,,イスト,0
1705,6180301004833,登記記録の閉鎖等,0,2025-11-10,2025-10-31,サイラス株式会社,,株式会社,愛知県,岡崎市,藤川町字西沖田６９番地,,23,202,4443523,,,2025-10-31,合併による解散等,1180301003567,令和７年１０月３１日愛知県岡崎市柱西二丁目１３番地６アーキテックス株式会社（1180301003567）に合併し解散,2015-10-05,1,,,,,サイラス,0
1711,6190005006571,登記記録の閉鎖等,0,2025-11-10,2025-10-30,一般財団法人松阪スポーツ振興研修センター,,その他の設立登記法人,三重県,松阪市,春日町３丁目１番地,,24,204,5150078,,,2025-10-30,清算の結了等,,,2015-10-05,1,,,,,マツサカスポーツシンコウケンシュウセンター,0
1713,6200001033444,登記記録の閉鎖等,0,2025-11-10,2025-11-04,株式会社さくらアニマルケア,,株式会社,岐阜県,可児市,下切２０８１番地４９,,21,214,5090245,,,2025-11-04,合併による解散等,1200001027574,令和７年１１月１日岐阜県恵那市長島町中野１２１４番地４６株式会社さくらコーポレーション（1200001027574）に合併し解散,2016-11-10,1,,,,,サクラアニマルケア,0
1717,6210001012777,登記記録の閉鎖等,0,2025-11-10,2025-11-06,株式会社笠原眼鏡,,株式会社,福井県,鯖江市,新町第１号１１番地,,18,207,9160035,,,2025-11-06,清算の結了等,,,2015-10-05,1,,,,,カサハラガンキョウ,0
1731,6290001020500,登記記録の閉鎖等,0,2025-11-10,2025-11-04,株式会社チリモ,,株式会社,福岡県,福岡市博多区,東比恵１丁目５番５号,,40,132,8120007,,,2025-11-04,清算の結了等,,,2015-10-05,1,,,,,チリモ,0
1740,6290003002653,登記記録の閉鎖等,0,2025-11-10,2025-10-09,合名会社新屋商店,,合名会社,福岡県,久留米市,本町３番地の１４,,40,203,8300044,,,2025-10-09,清算の結了等,,,2015-10-05,1,,,,,シンヤショウテン,0
1744,6290801004173,登記記録の閉鎖等,0,2025-11-10,2025-10-27,西杵商会株式会社,,株式会社,福岡県,北九州市戸畑区,川代２丁目４番３号,,40,105,8040071,,,2025-10-27,合併による解散等,9290801011910,令和７年１０月１日北九州市若松区本町一丁目１４番１４号第一港運株式会社（9290801011910）に合併し解散,2015-10-05,1,,,,,ニシキショウカイ,0
1747,6330001007039,登記記録の閉鎖等,0,2025-11-10,2025-10-31,株式会社インテック情報システム,,株式会社,熊本県,熊本市中央区,坪井６丁目２７番５号,,43,101,8600863,,,2025-10-31,清算の結了等,,,2015-10-05,1,,,,,インテックジョウホウシステム,0
1752,6360001023900,登記記録の閉鎖等,0,2025-11-10,2025-11-04,株式会社パニパニカンパニーキャステム,,株式会社,沖縄県,宮古島市,上野字上野２４４番地３,,47,214,9060204,,,2025-11-04,清算の結了等,,,2018-05-01,1,,,,,パニパニカンパニーキャステム,0
1762,6380002003981,登記記録の閉鎖等,0,2025-11-10,2025-11-04,有限会社旅館たつき,,有限会社,福島県,福島市,腰浜町２１番１７号,,07,201,9608135,,,2025-11-04,清算の結了等,,,2015-10-05,1,,,,,リョカンタツキ,0
1773,6430002027406,登記記録の閉鎖等,0,2025-11-10,2025-11-04,有限会社黒田設備,,有限会社,北海道,札幌市豊平区,西岡四条４丁目１２番２２号,,01,105,0620034,,,2025-11-04,清算の結了等,,,2015-10-05,1,,,,,クロダセツビ,0
1780,7010001039154,登記記録の閉鎖等,0,2025-11-10,2025-10-29,株式会社大村画荘,,株式会社,東京都,中央区,日本橋蛎殻町１丁目２９番１４号,,13,102,1030014,,,2025-10-29,清算の結了等,,,2015-10-05,1,,,,,オオムラガソウ,0
1796,7010401049752,登記記録の閉鎖等,0,2025-11-10,2025-10-09,株式会社パーク・フレンチ,,株式会社,東京都,港区,芝公園１丁目５番１０号,,13,103,1050011,,,2025-10-09,清算の結了等,,,2015-10-05,1,,,,,パークフレンチ,0
1807,7010403013847,登記記録の閉鎖等,0,2025-11-10,2025-10-09,渡辺美緒デザイン事務所合同会社,,合同会社,東京都,港区,白金４丁目４番１３号,,13,103,1080072,,,2025-10-09,清算の結了等,,,2015-10-05,1,,,,,ワタナベミオデザインジムショ,0
1811,7010601019308,登記記録の閉鎖等,0,2025-11-10,2025-10-31,銅商印刷株式会社,,株式会社,東京都,江東区,古石場１丁目１番５号,,13,108,1350045,,,2025-10-31,清算の結了等,,,2015-10-05,1,,,,,ドウショウインサツ,0
1814,7010701001033,登記記録の閉鎖等,0,2025-11-10,2025-10-02,イハラサイエンス株式会社,,株式会社,東京都,港区,高輪３丁目１１番３号イハラ高輪ビル,,13,103,1080074,,,2025-10-02,合併による解散等,9010701043775,令和７年１０月１日東京都港区高輪三丁目１１番３号イハラ高輪ビルエン・アイ・ム株式会社（9010701043775）に合併し解散,2015-10-05,1,IHARA SCIENCE CORPORATION,Tokyo,"3-11-3, Takanawa, Minato ku",,イハラサイエンス,0
1832,7011101019748,登記記録の閉鎖等,0,2025-11-10,2025-10-30,ホンダ住販株式会社,,株式会社,東京都,新宿区,西新宿７丁目１番７号,,13,104,1600023,,,2025-10-30,清算の結了等,,,2015-10-05,1,,,,,ホンダジュウハン,0
1837,7011103010597,登記記録の閉鎖等,0,2025-11-10,2025-10-06,美容通販製薬東京合同会社,,合同会社,東京都,新宿区,西新宿３丁目３－１３－６Ｆ,,13,104,1600023,,,2025-10-06,清算の結了等,,,2021-04-16,1,,,,,ビヨウツウハンセイヤクトウキョウ,0
1839,7011601027077,登記記録の閉鎖等,0,2025-11-10,2025-11-04,株式会社東京サイバーセキュリティ研究所,,株式会社,東京都,練馬区,氷川台３丁目２９番３号,,13,120,1790084,,,2025-11-04,清算の結了等,,,2023-08-28,1,,,,,トウキョウサイバーセキュリティケンキュウジョ,0
1855,7013305003008,登記記録の閉鎖等,0,2025-11-10,2025-10-27,一般社団法人グローバル・ティーチャー・プライズ・ジャパン,,その他の設立登記法人,東京都,豊島区,巣鴨１丁目９番地１号,,13,116,1700002,,,2025-10-27,清算の結了等,,,2019-12-02,1,,,,,グローバルティーチャープライズジャパン,0
1881,7030002021712,登記記録の閉鎖等,0,2025-11-10,2025-10-30,有限会社ブロードマインド,,有限会社,埼玉県,さいたま市岩槻区,大字飯塚１９３８番地１,,11,110,3390031,,,2025-10-30,清算の結了等,,,2015-10-05,1,,,,,ブロードマインド,0
1882,7030002025770,登記記録の閉鎖等,0,2025-11-10,2025-11-04,有限会社おしゃれの部屋,,有限会社,埼玉県,蕨市,南町３丁目９番１０号,,11,223,3350003,,,2025-11-04,清算の結了等,,,2015-10-05,1,,,,,オシャレノヘヤ,0
1883,7030002055826,登記記録の閉鎖等,0,2025-11-10,2025-11-05,有限会社スーパーマルセイ,,有限会社,埼玉県,桶川市,泉１丁目１２番５号,,11,231,3630021,,,2025-11-05,清算の結了等,,,2015-10-05,1,,,,,スーパーマルセイ,0
1885,7030003017486,登記記録の閉鎖等,0,2025-11-10,2025-11-04,合同会社ＫＳコーポレーション,,合同会社,埼玉県,川口市,南鳩ヶ谷３丁目２２番２６号クールコクテル５０５,,11,203,3340013,,,2025-11-04,清算の結了等,,,2021-06-24,1,,,,,ケーエスコーポレーション,0
1895,7040003012032,登記記録の閉鎖等,0,2025-11-10,2025-10-14,合同会社Ｒｏｏｔ２,,合同会社,千葉県,四街道市,みそら１丁目１９番３２号,,12,228,2840023,,,2025-10-14,清算の結了等,,,2018-08-14,1,,,,,ルーツ,0
1898,7050001033616,登記記録の閉鎖等,0,2025-11-10,2025-11-04,株式会社フィースト,,株式会社,茨城県,下妻市,北大宝１０９８番地,,08,210,3040021,,,2025-11-04,清算の結了等,,,2015-10-05,1,,,,,フィースト,0
1900,7050003005167,登記記録の閉鎖等,0,2025-11-10,2025-10-31,Ｃｏｅｕｒ　Ｓｏｌｅｉｌ合同会社,,合同会社,茨城県,結城市,下り松３丁目１２番地３,,08,207,3070008,,,2025-10-31,清算の結了等,,,2020-04-27,1,,,,,クールソレイユ,0
1903,7060001036601,登記記録の閉鎖等,0,2025-11-10,2025-11-06,Ａｓｉａ　Ｆｏｏｄ　Ｍａｒｔ株式会社,,株式会社,栃木県,栃木市,大平町富田３９９番地１５サンコーポ平成１－１０２,,09,203,3294404,,,2025-11-06,清算の結了等,,,2023-12-05,1,,,,,アジアフードマート,0
1909,7080001002931,登記記録の閉鎖等,0,2025-11-10,2025-11-04,株式会社静岡ビクトリヤホテル,,株式会社,静岡県,静岡市駿河区,稲川３丁目２番２１号,,22,102,4228062,,,2025-11-04,清算の結了等,,,2015-10-05,1,,,,,シズオカビクトリヤホテル,0
1919,7100002034211,登記記録の閉鎖等,0,2025-11-10,2025-11-06,有限会社タクミエンジニアリング信州,,有限会社,長野県,駒ヶ根市,中沢５２９５番地,,20,210,3994231,,,2025-11-06,清算の結了等,,,2015-10-05,1,,,,,タクミエンジニアリングシンシュウ,0
1926,7120001046107,登記記録の閉鎖等,0,2025-11-10,2025-10-23,株式会社ナビツクスデザイン,,株式会社,大阪府,高槻市,明野町１２番２号,,27,207,5690082,,,2025-10-23,清算の結了等,,,2015-10-05,1,,,,,ナビックスデザイン,0
1928,7120001160080,登記記録の閉鎖等,0,2025-11-10,2025-11-04,トップハウス株式会社,,株式会社,大阪府,守口市,大日東町３９番１９号,,27,209,5700016,,,2025-11-04,清算の結了等,,,2015-10-05,1,,,,,トップハウス,0
1936,7120001259352,登記記録の閉鎖等,0,2025-11-10,2025-11-05,株式会社メディカアイライフ,,株式会社,大阪府,大阪市淀川区,宮原３丁目４番３０号ニッセイ新大阪ビル１６階,,27,123,5320003,,,2025-11-05,清算の結了等,,,2023-10-31,1,,,,,メディカアイライフ,0
1946,7120002061294,登記記録の閉鎖等,0,2025-11-10,2025-11-04,有限会社ケイアイエフ,,有限会社,大阪府,大阪市北区,豊崎３丁目９番７号,,27,127,5310072,,,2025-11-04,清算の結了等,,,2015-10-05,1,,,,,ケイアイエフ,0
1948,7120005007708,登記記録の閉鎖等,0,2025-11-10,2025-11-05,特定非営利活動法人エコテクノロジー・センター,,その他の設立登記法人,大阪府,大阪市中央区,粉川町四丁目８番９０１号,,27,128,5400018,,,2025-11-05,清算の結了等,,,2015-10-05,1,,,,,エコテクノロジーセンター,0
1970,7140001105629,登記記録の閉鎖等,0,2025-11-10,2025-10-31,恵美酒鉄工株式会社,,株式会社,兵庫県,姫路市,飾磨区恵美酒３９９番地３－９０３,,28,201,6728057,,,2025-10-31,清算の結了等,,,2017-04-12,1,,,,,エビステッコウ,0
1973,7140001138752,登記記録の閉鎖等,0,2025-11-10,2025-10-31,株式会社木田,,株式会社,兵庫県,西宮市,瓦林町１２番１５号,,28,204,6638107,,,2025-10-31,合併による解散等,6140001069379,令和７年１０月３１日兵庫県西宮市瓦林町１２番１５号巧工務店株式会社（6140001069379）に合併し解散,2025-05-30,1,,,,,キダ,0
1991,7190003001895,登記記録の閉鎖等,0,2025-11-10,2025-11-04,合同会社エアリー,,合同会社,三重県,津市,高茶屋２丁目５４番１８号,,24,201,5140819,,,2025-11-04,清算の結了等,,,2015-10-05,1,,,,,エアリー,0
2017,7260001032217,登記記録の閉鎖等,0,2025-11-10,2025-11-06,株式会社小颯,,株式会社,岡山県,倉敷市,沖新町４５番地３,,33,202,7100837,,,2025-11-06,清算の結了等,,,2018-07-10,1,,,,,コソウ,0
2024,7290002034515,登記記録の閉鎖等,0,2025-11-10,2025-10-23,有限会社ナガシマ企画,,有限会社,福岡県,福津市,津屋崎６丁目５番２３号,,40,224,8113304,,,2025-10-23,清算の結了等,,,2015-10-05,1,,,,,ナガシマキカク,0
2035,7350002003109,登記記録の閉鎖等,0,2025-11-10,2025-10-31,有限会社東京庵,,有限会社,宮崎県,宮崎市,中央通３番５１号,,45,201,8800002,,,2025-10-31,清算の結了等,,,2015-10-05,1,,,,,トウキョウアン,0
2046,7380002001349,登記記録の閉鎖等,0,2025-11-10,2025-11-04,有限会社参栄測量,,有限会社,福島県,福島市,上名倉字栗内２８番地の２,,07,201,9602155,,,2025-11-04,清算の結了等,,,2015-10-05,1,,,,,サンエイソクリョウ,0
2050,7410001001619,登記記録の閉鎖等,0,2025-11-10,2025-11-06,太陽印刷株式会社,,株式会社,秋田県,秋田市,卸町４丁目７番５号,,05,201,0100061,,,2025-11-06,清算の結了等,,,2015-10-05,1,,,,,タイヨウインサツ,0
2055,7450002007561,登記記録の閉鎖等,0,2025-11-10,2025-11-04,有限会社長谷部商事,,有限会社,北海道,深川市,広里町２丁目１番８号,,01,228,0741271,,,2025-11-04,清算の結了等,,,2015-10-05,1,,,,,ハセベショウジ,0
2058,7470002016370,登記記録の閉鎖等,0,2025-11-10,2025-11-04,有限会社竹下商店,,有限会社,香川県,観音寺市,大野原町大野原２０３２番地,,37,205,7691611,,,2025-11-04,清算の結了等,,,2015-10-05,1,,,,,タケシタショウテン,0
2059,7500002015484,登記記録の閉鎖等,0,2025-11-10,2025-11-06,有限会社すこやか堂,,有限会社,愛媛県,西条市,大町１６９５番地４－Ｆビル２０１号,,38,206,7930030,,,2025-11-06,清算の結了等,,,2015-10-05,1,,,,,スコヤカドウ,0
2060,8010001003068,登記記録の閉鎖等,0,2025-11-10,2025-10-27,株式会社サンクス,,株式会社,東京都,文京区,本駒込６丁目３番１３号,,13,105,1130021,,,2025-10-27,清算の結了等,,,2015-10-05,1,,,,,サンクス,0
2076,8010005033895,登記記録の閉鎖等,0,2025-11-10,2025-11-06,一般社団法人ＶＥＲＥＤ１,,その他の設立登記法人,東京都,中央区,八丁堀４丁目２番１０号ＡＯＪ税理士法人内,,13,102,1040032,,,2025-11-06,清算の結了等,,,2021-09-02,1,,,,,ヴェレッドワン,0
2081,8010403022946,登記記録の閉鎖等,0,2025-11-10,2025-10-09,合同会社熱海デベロップメント,,合同会社,東京都,港区,六本木１丁目９番１－３０４号,,13,103,1060032,,,2025-10-09,清算の結了等,,,2020-05-15,1,,,,,アタミデベロップメント,0
2103,8011101031198,登記記録の閉鎖等,0,2025-11-10,2025-10-31,株式会社サァティーズ,,株式会社,東京都,西東京市,ひばりが丘北２丁目２番２１号,,13,229,2020002,,,2025-10-31,清算の結了等,,,2015-10-05,1,,,,,サァティーズ,0
2104,8011101095623,登記記録の閉鎖等,0,2025-11-10,2025-11-04,アンレーゲン株式会社,,株式会社,東京都,新宿区,新宿６丁目２９番２０号ＭＡＴＳＵＤＡＢＬＤ．６階,,13,104,1600022,,,2025-11-04,清算の結了等,,,2021-07-06,1,,,,,アンレーゲン,0
2111,8011601000314,登記記録の閉鎖等,0,2025-11-10,2025-11-04,株式会社アシスト,,株式会社,東京都,練馬区,向山２丁目２２番９号,,13,120,1760022,,,2025-11-04,清算の結了等,,,2015-10-05,1,,,,,アシスト,0
2125,8013202004074,登記記録の閉鎖等,0,2025-11-10,2025-10-07,有限会社アトム調剤薬局,,有限会社,東京都,目黒区,鷹番３丁目１２番７号大和ビル１階,,13,110,1520004,,,2025-10-07,清算の結了等,,,2015-10-05,1,,,,,アトムチョウザイヤッキョク,0
2131,8020001127320,登記記録の閉鎖等,0,2025-11-10,2025-10-27,株式会社健理工業,,株式会社,神奈川県,横浜市戸塚区,戸塚町８９８番地１,,14,110,2440003,,,2025-10-27,清算の結了等,,,2018-07-25,1,,,,,ケンリコウギョウ,0
2148,8030001010789,登記記録の閉鎖等,0,2025-11-10,2025-10-31,株式会社明窓社,,株式会社,東京都,豊島区,南池袋２丁目４９番７号,,13,116,1710022,,,2025-10-31,清算の結了等,,,2015-10-05,1,,,,,メイソウシャ,0
2159,8030002001738,登記記録の閉鎖等,0,2025-11-10,2025-11-04,有限会社宇田米店,,有限会社,埼玉県,さいたま市桜区,西堀７丁目１７番１０号,,11,106,3380832,,,2025-11-04,清算の結了等,,,2015-10-05,1,,,,,ウダコメテン,0
2160,8030002004229,登記記録の閉鎖等,0,2025-11-10,2025-11-05,有限会社九曜興産,,有限会社,埼玉県,さいたま市南区,根岸３丁目２９番２号,,11,108,3360024,,,2025-11-05,清算の結了等,,,2015-10-05,1,,,,,クヨウコウサン,0
2162,8030002032840,登記記録の閉鎖等,0,2025-11-10,2025-10-31,エムエ有限会社,,有限会社,埼玉県,所沢市,小手指元町１丁目２０－１ハイライフ小手指１０１号室,,11,208,3591147,,,2025-10-31,清算の結了等,,,2015-10-05,1,,,,,エムエ,0
2184,8070005005716,登記記録の閉鎖等,0,2025-11-10,2025-11-04,特定非営利活動法人行政文化研究所あっとぐんま,,その他の設立登記法人,群馬県,前橋市,日吉町４丁目３２番地４,,10,201,3710017,,,2025-11-04,清算の結了等,,,2015-10-05,1,,,,,,0
2188,8080401021233,登記記録の閉鎖等,0,2025-11-10,2025-10-21,株式会社優,,株式会社,静岡県,浜松市中央区,中沢町８２番３号,,22,138,4300904,,,2025-10-21,清算の結了等,,,2015-12-22,1,,,,,スグル,0
2196,8100002034482,登記記録の閉鎖等,0,2025-11-10,2025-11-06,有限会社三浦木工,,有限会社,長野県,上伊那郡宮田村,４４０３番地１,,20,388,3994301,,,2025-11-06,清算の結了等,,,2015-10-05,1,,,,,ミウラモッコウ,0
2201,8120001107238,登記記録の閉鎖等,0,2025-11-10,2025-11-05,株式会社ＤＯ・ＣＯＭＰＡＮＹ,,株式会社,大阪府,大阪市住吉区,長居東４丁目１１番１９－４０２号,,27,120,5580004,,,2025-11-05,清算の結了等,,,2015-10-05,1,,,,,ドゥカンパニー,0
2210,8120001259525,登記記録の閉鎖等,0,2025-11-10,2025-11-04,株式会社ＫＡＭＩＩ　ＷＡＴＣＨ,,株式会社,大阪府,大阪市中央区,心斎橋筋１丁目３番４号,,27,128,5420085,,,2025-11-04,清算の結了等,,,2023-11-10,1,,,,,カミイウォッチ,0
2236,8140001120172,登記記録の閉鎖等,0,2025-11-10,2025-10-17,ＡＯ　ＷＯＲＫＳ株式会社,,株式会社,兵庫県,神戸市東灘区,岡本４丁目６－８エステート岡本４２２,,28,101,6580072,,,2025-10-17,清算の結了等,,,2021-01-18,1,,,,,エーオーワークス,0
2246,8170005004996,登記記録の閉鎖等,0,2025-11-10,2025-04-01,紀北川上農業協同組合,,その他の設立登記法人,和歌山県,橋本市,高野口町名古曽９２２番地の２,,30,203,6497203,,,2025-04-01,合併による解散等,3170005007145,令和７年４月１日和歌山市栗栖６４２番地わかやま農業協同組合（3170005000026）と和歌山県海南市大野中７１８番地の１ながみね農業協同組合（4170005001964）と和歌山県紀の川市上野１２番地５紀の里農業協同組合（9170005003056）と和歌山県橋本市高野口町名古曽９２２番地の２紀北川上農業協同組合（8170005004996）と和歌山県有田郡有田川町大字天満４７番地の１ありだ農業協同組合（2170005002477）と和歌山県御坊市湯川町財部６６８番地の１紀州農業協同組合（8170005006340）と和歌山県田辺市朝日ケ丘２４番１７号紀南農業協同組合（4170005004001）と和歌山県東牟婁郡那智勝浦町大字天満１２２番地みくまの農業協同組合（5170005005551）と合併して和歌山市美園町五丁目１番地の１和歌山県農業協同組合（3170005007145）を設立し解散,2015-10-05,1,,,,,キホクカワカミノウギョウ,0
2248,8170005006340,登記記録の閉鎖等,0,2025-11-10,2025-04-01,紀州農業協同組合,,その他の設立登記法人,和歌山県,御坊市,湯川町財部６６８番地の１,,30,205,6440011,,,2025-04-01,合併による解散等,3170005007145,令和７年４月１日和歌山市栗栖６４２番地わかやま農業協同組合（3170005000026）と和歌山県海南市大野中７１８番地の１ながみね農業協同組合（4170005001964）と和歌山県紀の川市上野１２番地５紀の里農業協同組合（9170005003056）と和歌山県橋本市高野口町名古曽９２２番地の２紀北川上農業協同組合（8170005004996）と和歌山県有田郡有田川町大字天満４７番地の１ありだ農業協同組合（2170005002477）と和歌山県御坊市湯川町財部６６８番地の１紀州農業協同組合（8170005006340）と和歌山県田辺市朝日ケ丘２４番１７号紀南農業協同組合（4170005004001）と和歌山県東牟婁郡那智勝浦町大字天満１２２番地みくまの農業協同組合（5170005005551）と合併して和歌山市美園町五丁目１番地の１和歌山県農業協同組合（3170005007145）を設立し解散,2015-10-05,1,,,,,キシュウノウギョウ,0
2252,8180001121695,登記記録の閉鎖等,0,2025-11-10,2025-11-04,株式会社日晶設計,,株式会社,愛知県,名古屋市瑞穂区,中山町６丁目１１番地,,23,108,4670803,,,2025-11-04,清算の結了等,,,2016-01-12,1,,,,,ニッショウセッケイ,0
2253,8180001148193,登記記録の閉鎖等,0,2025-11-10,2025-10-31,株式会社豊田総合研究所,,株式会社,愛知県,名古屋市天白区,古川町１５０番地,,23,116,4680046,,,2025-10-31,清算の結了等,,,2021-10-11,1,,,,,トヨタソウゴウケンキュウジョ,0
2259,8180301036247,登記記録の閉鎖等,0,2025-11-10,2025-11-04,株式会社ＤＨＫ,,株式会社,愛知県,豊川市,宿町野川９５番地,,23,207,4410101,,,2025-11-04,清算の結了等,,,2022-05-24,1,,,,,ディーエイチケー,0
2260,8190001011466,登記記録の閉鎖等,0,2025-11-10,2025-10-31,三つ亀甲ブレイン株式会社,,株式会社,三重県,松阪市,殿町１２８８番地,,24,204,5150073,,,2025-10-31,清算の結了等,,,2015-10-05,1,,,,,ミツキコウブレイン,0
2263,8200001042914,登記記録の閉鎖等,0,2025-11-10,2025-11-06,株式会社ＣｒｉｏｎＯｆｆｉｃｅ,,株式会社,岐阜県,岐阜市,北一色９丁目２１番８号,,21,201,5008227,,,2025-11-06,清算の結了等,,,2024-09-12,1,,,,,クリオンオフィス,0
2265,8220001011818,登記記録の閉鎖等,0,2025-11-10,2025-11-04,株式会社神田呉服店,,株式会社,石川県,小松市,八日市町２０番地,,17,203,9230925,,,2025-11-04,清算の結了等,,,2015-10-05,1,,,,,カンダゴフクテン,0
2266,8220003002187,登記記録の閉鎖等,0,2025-11-10,2025-11-04,グローライズ合同会社,,合同会社,石川県,金沢市,大河端西１丁目８３番地,,17,201,9200210,,,2025-11-04,合併による解散等,3220003002381,令和７年１１月１日石川県金沢市大河端西一丁目８３番地アップグレード合同会社（3220003002381）に合併し解散,2016-10-21,1,,,,,グローライズ,0
2281,8290001025373,登記記録の閉鎖等,0,2025-11-10,2025-10-20,株式会社勝ったら倶楽部,,株式会社,福岡県,福岡市中央区,天神２丁目３番３６号,,40,133,8100001,,,2025-10-20,清算の結了等,,,2015-10-05,1,,,,,カッタラクラブ,0
2291,8310002000595,登記記録の閉鎖等,0,2025-11-10,2025-11-07,有限会社臼井畳店,,有限会社,長崎県,長崎市,相生町３番５号,,42,201,8500922,,,2025-11-07,清算の結了等,,,2015-10-05,1,,,,,ウスイタタミテン,0
2301,8370002019085,登記記録の閉鎖等,0,2025-11-10,2025-10-30,有限会社ケーエスファイブ,,有限会社,宮城県,仙台市青葉区,中央４丁目３番４－１１０３号,,04,101,9800021,,,2025-10-30,清算の結了等,,,2015-10-05,1,,,,,ケーエスファイブ,0
2302,8370002019267,登記記録の閉鎖等,0,2025-11-10,2025-10-28,有限会社ラドゥースヴィインターナショナル,,有限会社,宮城県,仙台市太白区,富沢１丁目１２番２号,,04,104,9820032,,,2025-10-28,清算の結了等,,,2015-10-05,1,,,,,ラドゥースヴィインターナショナル,0
2306,8380002012106,登記記録の閉鎖等,0,2025-11-10,2025-10-31,有限会社方円堂,,有限会社,福島県,郡山市,中町１５番２８号,,07,203,9638004,,,2025-10-31,清算の結了等,,,2015-10-05,1,,,,,ホウエンドウ,0
2311,8430001037288,登記記録の閉鎖等,0,2025-11-10,2025-11-04,株式会社ラスターアイ・シー,,株式会社,北海道,札幌市東区,北二十二条東３丁目１番３５号ハイテクビル・さっぽろ３７８,,01,103,0650022,,,2025-11-04,清算の結了等,,,2015-10-05,1,,,,,ラスターアイシー,0
2323,8490001009934,登記記録の閉鎖等,0,2025-11-10,2025-11-04,株式会社リボーン,,株式会社,高知県,高知市,寿町４番５号ＹＭビル６Ｆ,,39,201,7800043,,,2025-11-04,合併による解散等,1490001003695,令和７年１１月１日高知市寿町４番５号ＹＭビル６Ｆ株式会社土佐商事（1490001003695）に合併し解散,2021-07-21,1,,,,,リボーン,0
2331,9010001236014,登記記録の閉鎖等,0,2025-11-10,2025-10-29,株式会社グローバルワンストップジャパン,,株式会社,東京都,千代田区,内幸町１丁目３番１号,,13,101,1000011,,,2025-10-29,清算の結了等,,,2023-06-14,1,,,,,グローバルワンストップジャパン,0
2340,9010003037195,登記記録の閉鎖等,0,2025-11-10,2025-10-29,合同会社ｐｕｒｅ＆ｆｌｏｗｅｒｙマネジメント,,合同会社,東京都,中央区,新川１丁目２８番７号,,13,102,1040033,,,2025-10-29,清算の結了等,,,2022-03-10,1,,,,,ピュアアンドフラワリーマネジメント,0
2353,9010403035328,登記記録の閉鎖等,0,2025-11-10,2025-10-15,合同会社行田,,合同会社,東京都,港区,南青山２丁目２番１５－８２５号,,13,103,1070062,,,2025-10-15,合併による解散等,1010001057335,令和７年１０月１５日東京都港区南青山二丁目２番１５－８２５号丸平産業株式会社（1010001057335）に合併し解散,2025-06-10,1,,,,,ギョウダ,0
2365,9010702012440,登記記録の閉鎖等,0,2025-11-10,2025-10-23,有限会社東京精神療法研究所,,有限会社,東京都,品川区,上大崎１丁目５番４０号,,13,109,1410021,,,2025-10-23,清算の結了等,,,2015-10-05,1,,,,,,0
2392,9012702005589,登記記録の閉鎖等,0,2025-11-10,2025-10-31,有限会社スタジオロフト,,有限会社,東京都,西東京市,田無町２丁目９－６野崎ビル７０６,,13,229,1880011,,,2025-10-31,清算の結了等,,,2015-10-05,1,,,,,スタジオロフト,0
2405,9020002038375,登記記録の閉鎖等,0,2025-11-10,2025-10-23,有限会社佐野商店,,有限会社,神奈川県,横浜市鶴見区,市場富士見町８番１８号,,14,101,2300026,,,2025-10-23,清算の結了等,,,2015-10-05,1,,,,,サノショウテン,0
2407,9020002047649,登記記録の閉鎖等,0,2025-11-10,2025-10-22,有限会社芝蘭商会,,有限会社,神奈川県,横浜市戸塚区,平戸町６００番地１東戸塚ヒルサイド１０１,,14,110,2440803,,,2025-10-22,清算の結了等,,,2015-10-05,1,,,,,シランショウカイ,0
2408,9020003016594,登記記録の閉鎖等,0,2025-11-10,2025-11-04,ｇｅｎｅ．ｐａｇｅ合同会社,,合同会社,宮崎県,宮崎市,橘通西３丁目１０－３２宮崎ナナイロ東館８Ｆ,,45,201,8800001,,,2025-11-04,清算の結了等,,,2019-09-03,1,,,,,ジェネドットページ,0
2415,9021002057274,登記記録の閉鎖等,0,2025-11-10,2025-10-17,有限会社神奈川通商,,有限会社,神奈川県,平塚市,花水台１８番２３号,,14,203,2540824,,,2025-10-17,清算の結了等,,,2015-10-05,1,,,,,カナガワツウショウ,0
2419,9030001023807,登記記録の閉鎖等,0,2025-11-10,2025-10-31,株式会社岡田,,株式会社,埼玉県,所沢市,向陽町２１６８番地２,,11,208,3591103,,,2025-10-31,清算の結了等,,,2015-10-05,1,,,,,オカダ,0
2427,9030002050593,登記記録の閉鎖等,0,2025-11-10,2025-10-29,有限会社朝日技研,,有限会社,埼玉県,三郷市,新和１丁目５４９番地３,,11,237,3410034,,,2025-10-29,清算の結了等,,,2015-10-05,1,,,,,アサヒギケン,0
2441,9060001012583,登記記録の閉鎖等,0,2025-11-10,2025-11-06,株式会社那須Ａ・Ｉサービス,,株式会社,栃木県,那須塩原市,新町１１５番地８７,,09,213,3250071,,,2025-11-06,清算の結了等,,,2015-10-05,1,,,,,ナスエーアイサービス,0
2442,9060002003961,登記記録の閉鎖等,0,2025-11-10,2025-11-04,コムテック機器有限会社,,有限会社,栃木県,宇都宮市,石井町３４１３番地６１,,09,201,3210912,,,2025-11-04,清算の結了等,,,2015-10-05,1,,,,,コムテックキキ,0
2443,9060002008333,登記記録の閉鎖等,0,2025-11-10,2025-11-06,有限会社丸善商店,,有限会社,栃木県,宇都宮市,清住３丁目８番１４号,,09,201,3200037,,,2025-11-06,清算の結了等,,,2015-10-05,1,,,,,マルゼンショウテン,0
2453,9110001007215,登記記録の閉鎖等,0,2025-11-10,2025-11-04,株式会社タケイシ流通サービス,,株式会社,新潟県,新潟市秋葉区,小須戸４４２４番地,,15,105,9560101,,,2025-11-04,清算の結了等,,,2015-10-05,1,,,,,タケイシリュウツウサービス,0
2454,9110001008642,登記記録の閉鎖等,0,2025-11-10,2025-11-04,株式会社新潟環境技術,,株式会社,新潟県,新潟市西蒲区,巻甲１０６７７番地２４,,15,108,9530041,,,2025-11-04,清算の結了等,,,2015-10-05,1,,,,,ニイガタカンキョウギジュツ,0
2460,9120001116956,登記記録の閉鎖等,0,2025-11-10,2025-11-04,株式会社ウィル,,株式会社,大阪府,大阪市西区,新町１丁目６番２２号,,27,106,5500013,,,2025-11-04,清算の結了等,,,2015-10-05,1,,,,,ウィル,0
2464,9120001190142,登記記録の閉鎖等,0,2025-11-10,2025-11-04,株式会社ＪＡＨＣ,,株式会社,大阪府,大阪市西区,立売堀１丁目７番１８号,,27,106,5500012,,,2025-11-04,合併による解散等,7120002021785,令和７年１１月１日大阪市西区立売堀一丁目７番１８号株式会社れんげリビングサービス（7120002021785）に合併し解散,2015-10-05,1,,,,,ジャック,0
2467,9120001246902,登記記録の閉鎖等,0,2025-11-10,2025-11-04,東陽株式会社,,株式会社,大阪府,門真市,上野口町３６番１４号,,27,223,5710070,,,2025-11-04,清算の結了等,,,2022-06-23,1,,,,,トウヨウ,0
2470,9120001265654,登記記録の閉鎖等,0,2025-11-10,2025-10-10,株式会社Ｒｅｌｕｘ　ｍａｎａｇｅｍｅｎｔｓ,,株式会社,大阪府,大阪市大正区,泉尾４丁目３番１０号,,27,108,5510031,,,2025-10-10,清算の結了等,,,2024-06-07,1,,,,,リラックスマネジメント,0
2476,9120001272502,登記記録の閉鎖等,0,2025-11-10,2025-11-06,株式会社朝陽,,株式会社,大阪府,大阪市平野区,長吉六反３丁目１７番２５号１Ｃ号室,,27,126,5470012,,,2025-11-06,清算の結了等,,,2025-02-03,1,,,,,アサヒ,0
2479,9120002002833,登記記録の閉鎖等,0,2025-11-10,2025-11-04,有限会社エ・ビ・シー,,有限会社,大阪府,大阪市阿倍野区,文の里２丁目１３番１９号ゼファー文の里６０１号,,27,119,5450004,,,2025-11-04,清算の結了等,,,2015-10-05,1,,,,,エビシー,0
2505,9170005003056,登記記録の閉鎖等,0,2025-11-10,2025-04-01,紀の里農業協同組合,,その他の設立登記法人,和歌山県,紀の川市,上野１２番地５,,30,208,6496416,,,2025-04-01,合併による解散等,3170005007145,令和７年４月１日和歌山市栗栖６４２番地わかやま農業協同組合（3170005000026）と和歌山県海南市大野中７１８番地の１ながみね農業協同組合（4170005001964）と和歌山県紀の川市上野１２番地５紀の里農業協同組合（9170005003056）と和歌山県橋本市高野口町名古曽９２２番地の２紀北川上農業協同組合（8170005004996）と和歌山県有田郡有田川町大字天満４７番地の１ありだ農業協同組合（2170005002477）と和歌山県御坊市湯川町財部６６８番地の１紀州農業協同組合（8170005006340）と和歌山県田辺市朝日ケ丘２４番１７号紀南農業協同組合（4170005004001）と和歌山県東牟婁郡那智勝浦町大字天満１２２番地みくまの農業協同組合（5170005005551）と合併して和歌山市美園町五丁目１番地の１和歌山県農業協同組合（3170005007145）を設立し解散,2015-10-05,1,,,,,キノサトノウギョウ,0
2516,9180002067441,登記記録の閉鎖等,0,2025-11-10,2025-10-31,有限会社みなと建設,,有限会社,愛知県,春日井市,前並町１丁目４番地９,,23,206,4860903,,,2025-10-31,清算の結了等,,,2015-10-05,1,,,,,ミナトケンセツ,0
2518,9180003010771,登記記録の閉鎖等,0,2025-11-10,2025-10-31,合資会社野田モータース,,合資会社,愛知県,瀬戸市,川西町２丁目８番地,,23,204,4890926,,,2025-10-31,清算の結了等,,,2015-10-05,1,,,,,ノダモータース,0
2521,9180302015827,登記記録の閉鎖等,0,2025-11-10,2025-11-04,有限会社フタキプラニング,,有限会社,愛知県,蒲郡市,三谷町常徳２７番地,,23,214,4430021,,,2025-11-04,清算の結了等,,,2015-10-05,1,,,,,フタキプラニング,0
2523,9190002019334,登記記録の閉鎖等,0,2025-11-10,2025-10-31,有限会社魚長,,有限会社,三重県,四日市市,あさけが丘２丁目１番地の２５,,24,202,5128055,,,2025-10-31,清算の結了等,,,2015-10-05,1,,,,,ウオチョウ,0
2524,9190005000266,登記記録の閉鎖等,0,2025-11-10,2025-10-29,伊倉津漁業協同組合,,その他の設立登記法人,三重県,津市,雲出伊倉津町字下津１１３８番地の１,,24,201,5140302,,,2025-10-29,清算の結了等,,,2015-10-05,1,,,,,,0
2525,9200001002000,登記記録の閉鎖等,0,2025-11-10,2025-10-31,ゴトウ商事株式会社,,株式会社,岐阜県,岐阜市,福光東１丁目９番８号,,21,201,5020813,,,2025-10-31,清算の結了等,,,2015-10-05,1,,,,,ゴトウショウジ,0
2533,9220003000066,登記記録の閉鎖等,0,2025-11-10,2025-11-05,合名会社水野商店,,合名会社,石川県,金沢市,此花町１番３７号,,17,201,9200852,,,2025-11-05,清算の結了等,,,2015-10-05,1,,,,,ミズノショウテン,0
2573,9350002014153,登記記録の閉鎖等,0,2025-11-10,2025-11-05,有限会社寿湯企画,,有限会社,宮崎県,都城市,蔵原町１０街区２８号,,45,202,8850051,,,2025-11-05,清算の結了等,,,2015-10-05,1,,,,,コトブキユキカク,0
2583,9380003004670,登記記録の閉鎖等,0,2025-11-10,2025-10-31,合同会社メイゲンカンパニー,,合同会社,福島県,須賀川市,狸森字味噌能５９番地,00119868,07,207,9620723,,,2025-10-31,清算の結了等,,,2020-05-29,1,,,,,メイゲンカンパニー,0
2585,9390002005867,登記記録の閉鎖等,0,2025-11-10,2025-11-06,有限会社結城設備,,有限会社,山形県,天童市,大字貫津２１１９番地の１,,06,210,9940022,,,2025-11-06,清算の結了等,,,2015-10-05,1,,,,,ユウキセツビ,0
2586,9400003002432,登記記録の閉鎖等,0,2025-11-10,2025-11-04,合同会社イワブチ２ｎｄ,,合同会社,岩手県,盛岡市,本町通３丁目１１番５０－４０３号,,03,201,0200015,,,2025-11-04,合併による解散等,2400001015500,令和７年１１月１日岩手県盛岡市本町通三丁目１１番５０－４０３号道心株式会社（2400001015500）に合併し解散,2019-02-05,1,,,,,イワブチセカンド,0
2593,9430001092456,登記記録の閉鎖等,0,2025-11-10,2025-11-04,株式会社Ｎｏｒｔｈ　Ｗｉｎ　Ｄｉａｍｏｎｄ,,株式会社,北海道,札幌市中央区,南二条西１０丁目１番地,,01,101,0600062,,,2025-11-04,合併による解散等,3430001058768,令和７年１１月１日札幌市中央区南一条西十六丁目１番地３２３春野ビル３Ｆ株式会社一宝（3430001058768）に合併し解散,2024-08-14,1,,,,,ノースウィンダイアモンド,0
2598,9430002009517,登記記録の閉鎖等,0,2025-11-10,2025-11-04,有限会社篠鉄工業,,有限会社,北海道,札幌市北区,篠路九条２丁目３番１０号,,01,102,0028029,,,2025-11-04,清算の結了等,,,2015-10-05,1,,,,,ショウテツコウギョウ,0
2605,9480001012178,登記記録の閉鎖等,0,2025-11-10,2025-11-06,株式会社リペアテクニカルサービス,,株式会社,徳島県,徳島市,南佐古六番町１番１７号,,36,201,7700036,,,2025-11-06,清算の結了等,,,2023-08-09,1,,,,,リペアテクニカルサービス,0
2606,9490003001442,登記記録の閉鎖等,0,2025-11-10,2025-11-04,合同会社ＣＦＯクラブ高知,,合同会社,高知県,高知市,鷹匠町１丁目３－２２,,39,201,7800862,,,2025-11-04,清算の結了等,,,2020-07-20,1,,,,,,0
