sequenceNumber,corporateNumber,process,correct,updateDate,changeDate,name,nameImageId,kind,prefectureName,cityName,streetNumber,addressImageId,prefectureCode,cityCode,postCode,addressOutside,addressOutsideImageId,closeDate,closeCause,successorCorporateNumber,changeCause,assignmentDate,latest,enName,enPrefectureName,enCityName,enAddressOutside,furigana,hihyoji
5,1010001239445,新規,0,2023-10-24,2023-10-24,ＫＹハーバーエステート株式会社,,株式会社,東京都,中央区,湊２丁目１５番１４－３２１０号,,13,102,1040043,,,,,,,2023-10-24,1,,,,,ケーワイハーバーエステート,0
12,1010005037424,新規,0,2023-10-24,2023-10-24,一般社団法人Ｃ２,,その他の設立登記法人,東京都,千代田区,霞が関３丁目２番５号,,13,101,1000013,,,,,,,2023-10-24,1,,,,,シーツー,0
13,1010101015861,新規,0,2023-10-24,2023-10-24,株式会社東京機器,,株式会社,東京都,八王子市,元横山町２丁目１３番２号,,13,201,1920063,,,,,,,2023-10-24,1,,,,,,0
18,1010401177963,新規,0,2023-10-24,2023-10-24,アンドエル株式会社,,株式会社,東京都,港区,北青山１丁目３番１号アールキューブ青山３階,,13,103,1070061,,,,,,,2023-10-24,1,,,,,アンドエル,0
19,1010401177971,新規,0,2023-10-24,2023-10-24,株式会社Ｌ．ＣＲＡＳ,,株式会社,東京都,港区,赤坂４丁目８番１９号赤坂フロントタウン３階,,13,103,1070052,,,,,,,2023-10-24,1,,,,,エルクラス,0
20,1010401178037,新規,0,2023-10-24,2023-10-24,株式会社ＡＩオーラルテクノロジーズ,,株式会社,東京都,港区,南青山１丁目３番１号,,13,103,1070062,,,,,,,2023-10-24,1,,,,,エイアイオーラルテクノロジーズ,0
21,1010401178045,新規,0,2023-10-24,2023-10-24,株式会社企業戦略フォーラム,,株式会社,東京都,港区,西新橋１丁目１０番１号日美ビル,,13,103,1050003,,,,,,,2023-10-24,1,,,,,キギョウセンリャクフォーラム,0
22,1010401178061,新規,0,2023-10-24,2023-10-24,嘉実株式会社,,株式会社,東京都,港区,新橋６丁目８番１－４０３号室,,13,103,1050004,,,,,,,2023-10-24,1,,,,,カジツ,0
24,1010403031219,新規,0,2023-10-24,2023-10-24,合同会社エスエス,,合同会社,東京都,港区,南青山４丁目２－１２－２０４,,13,103,1070062,,,,,,,2023-10-24,1,,,,,エスエス,0
25,1010501051242,新規,0,2023-10-24,2023-10-24,株式会社クエシア,,株式会社,東京都,台東区,三筋１丁目６－２小林ビル４Ｆ,,13,106,1110055,,,,,,,2023-10-24,1,,,,,クエシア,0
27,1010503007201,新規,0,2023-10-24,2023-10-24,晟清合同会社,,合同会社,東京都,台東区,松が谷４丁目１６番４－２０１号,,13,106,1110036,,,,,,,2023-10-24,1,,,,,アキラセイ,0
30,1010901053994,新規,0,2023-10-24,2023-10-24,Ｑｕｅｅｒ　Ｃｏｎｓｅｎｔ株式会社,,株式会社,東京都,世田谷区,鎌田３丁目２９番１３号ウィル・ガーデンＡ－３,,13,112,1570077,,,,,,,2023-10-24,1,,,,,クィアコンセント,0
32,1011001157711,新規,0,2023-10-24,2023-10-24,株式会社Ｔｗｏ‐Ｋｉｃｋｓ,,株式会社,東京都,渋谷区,渋谷１丁目１番３号,,13,113,1500002,,,,,,,2023-10-24,1,,,,,トゥーキックス,0
33,1011001157736,新規,0,2023-10-24,2023-10-24,株式会社ＰＩＮＣＨ　ＨＩＴＴＥＲ,,株式会社,東京都,渋谷区,神宮前６丁目２９番４号原宿ｋｏｍｉｙａビル６階,,13,113,1500001,,,,,,,2023-10-24,1,,,,,ピンチヒッター,0
34,1011001157851,新規,0,2023-10-24,2023-10-24,ＹＥＯＮ株式会社,,株式会社,東京都,渋谷区,神宮前５丁目２番５号,,13,113,1500001,,,,,,,2023-10-24,1,,,,,ヨン,0
36,1011003017756,新規,0,2023-10-24,2023-10-24,エッジフォーノード合同会社,,合同会社,東京都,渋谷区,渋谷２丁目１９－１５宮益坂ビルディング６０９,,13,113,1500002,,,,,,,2023-10-24,1,,,,,エッジフォーノード,0
47,1011103013622,新規,0,2023-10-24,2023-10-24,合同会社ｔｏｗｉｎｓｔａｌｅ,,合同会社,東京都,新宿区,西新宿３丁目３番１３号西新宿水間ビル６階,,13,104,1600023,,,,,,,2023-10-24,1,,,,,トゥーウィンズテイル,0
48,1011103013647,新規,0,2023-10-24,2023-10-24,貞観合同会社,,合同会社,東京都,新宿区,北新宿４丁目１５番１０－３０２号,,13,104,1690074,,,,,,,2023-10-24,1,,,,,テイカン,0
51,1011503005806,新規,0,2023-10-24,2023-10-24,振華商事合同会社,,合同会社,東京都,荒川区,東尾久４丁目２５番２－４０１号,,13,118,1160012,,,,,,,2023-10-24,1,,,,,シンカショウジ,0
67,1012401041141,新規,0,2023-10-24,2023-10-24,ｃａｍｅｌｌｉａ株式会社,,株式会社,東京都,調布市,染地３丁目５番地９２,,13,208,1820023,,,,,,,2023-10-24,1,,,,,カメリア,0
84,1020003024836,新規,0,2023-10-24,2023-10-24,サンバレー合同会社,,合同会社,神奈川県,川崎市高津区,末長４丁目１９番３５号,,14,134,2130013,,,,,,,2023-10-24,1,,,,,サンバレー,0
92,1021001080516,新規,0,2023-10-24,2023-10-24,株式会社ＧＡＩＤ,,株式会社,神奈川県,愛甲郡愛川町,中津７２８７番地,,14,401,2430303,,,,,,,2023-10-24,1,,,,,ガイド,0
93,1021001080532,新規,0,2023-10-24,2023-10-24,康盛株式会社,,株式会社,神奈川県,鎌倉市,稲村ガ崎５丁目１２番１０－１号,,14,204,2480024,,,,,,,2023-10-24,1,,,,,ヤスモリ,0
94,1021003013713,新規,0,2023-10-24,2023-10-24,ミリナーファンド合同会社,,合同会社,神奈川県,鎌倉市,稲村ガ崎４丁目１０番２号,,14,204,2480024,,,,,,,2023-10-24,1,,,,,ミリナーファンド,0
98,1030001156770,新規,0,2023-10-24,2023-10-24,株式会社ソリューション,,株式会社,埼玉県,さいたま市浦和区,瀬ヶ崎１丁目６番５－１号,,11,107,3300044,,,,,,,2023-10-24,1,,,,,ソリューション,0
103,1030003022847,新規,0,2023-10-24,2023-10-24,合同会社Ｇｏｌｄ,,合同会社,埼玉県,所沢市,和ケ原３丁目３１８番地の２３,,11,208,3591162,,,,,,,2023-10-24,1,,,,,ゴールド,0
104,1030005021442,新規,0,2023-10-24,2023-10-24,一般社団法人真面目リホーム,,その他の設立登記法人,埼玉県,入間郡三芳町,大字竹間沢４１５－８,,11,324,3540043,,,,,,,2023-10-24,1,,,,,マジメリホーム,0
107,1040001130568,新規,0,2023-10-24,2023-10-24,株式会社レゾルバ,,株式会社,千葉県,大網白里市,大網２８４４－３,,12,239,2993251,,,,,,,2023-10-24,1,,,,,レゾルバ,0
119,1060003004776,新規,0,2023-10-24,2023-10-24,合同会社黒磯ＢＡＳＥ,,合同会社,栃木県,那須塩原市,洞島２５７番地１９,,09,213,3250106,,,,,,,2023-10-24,1,,,,,クロイソベース,0
120,1070001040987,新規,0,2023-10-24,2023-10-24,株式会社ＯＳＡＪＩ,,株式会社,群馬県,高崎市,飯塚町１７３３番地の１,,10,202,3700069,,,,,,,2023-10-24,1,,,,,オサジ,0
122,1080003003074,新規,0,2023-10-24,2023-10-24,合同会社アーティ・ジャパン,,合同会社,静岡県,静岡市清水区,草薙１１６９番地の６７ポルタ草薙Ｂ－２０３,,22,103,4240886,,,,,,,2023-10-24,1,,,,,アーティジャパン,0
128,1090001018387,新規,0,2023-10-24,2023-10-24,桜グローバルアールエス株式会社,,株式会社,山梨県,北杜市,白州町上教来石３２番地１,,19,209,4080318,,,,,,,2023-10-24,1,,,,,サクラグローバルアールエス,0
129,1100001036908,新規,0,2023-10-24,2023-10-24,株式会社ＣＲＯＳＳＢＡＳＥ,,株式会社,長野県,茅野市,豊平６５８３番地１,,20,214,3910213,,,,,,,2023-10-24,1,,,,,クロスベース,0
139,1120001259052,新規,0,2023-10-24,2023-10-24,ｅｌｌｉｅ株式会社,,株式会社,大阪府,大阪市中央区,南船場４丁目１０番１９号１Ｆ,,27,128,5420081,,,,,,,2023-10-24,1,,,,,エリー,0
140,1120001259102,新規,0,2023-10-24,2023-10-24,株式会社ＫＡＭＩＴＡＮＩ,,株式会社,大阪府,大阪市北区,茶屋町８－２１,,27,127,5300013,,,,,,,2023-10-24,1,,,,,カミタニ,0
141,1120001259143,新規,0,2023-10-24,2023-10-24,株式会社モンキージャンプ,,株式会社,大阪府,大阪市東成区,東中本３丁目１８番２１号インターアクションビル２０３号（Ａ）,,27,115,5370021,,,,,,,2023-10-24,1,,,,,モンキージャンプ,0
142,1120001259151,新規,0,2023-10-24,2023-10-24,小李株式会社,,株式会社,大阪府,大阪市東淀川区,豊里２丁目１８－１４アヴァンス淀川－ｅａｓｔ,,27,114,5330013,,,,,,,2023-10-24,1,,,,,ショウリ,0
148,1122001037504,新規,0,2023-10-24,2023-10-24,株式会社トビバコ,,株式会社,大阪府,東大阪市,吉田本町３丁目４番３１号,,27,227,5780982,,,,,,,2023-10-24,1,,,,,トビバコ,0
166,1140001132026,新規,0,2023-10-24,2023-10-24,クロス株式会社,,株式会社,兵庫県,神戸市東灘区,深江本町３丁目８－１７スクーデリア東灘,,28,101,6580021,,,,,,,2023-10-24,1,,,,,クロス,0
167,1140001132042,新規,0,2023-10-24,2023-10-24,株式会社カワイ電設,,株式会社,兵庫県,姫路市,西庄乙７４番地１－２０６,,28,201,6700981,,,,,,,2023-10-24,1,,,,,カワイデンセツ,0
168,1140001132100,新規,0,2023-10-24,2023-10-24,アイランド株式会社,,株式会社,兵庫県,尼崎市,御園町２４番地尼崎第一ビル４０２号,,28,202,6600861,,,,,,,2023-10-24,1,,,,,アイランド,0
178,1170003001936,新規,0,2023-10-24,2023-10-24,合同会社一心,,合同会社,和歌山県,和歌山市,つつじが丘６丁目７番地１,,30,201,6400115,,,,,,,2023-10-24,1,,,,,イッシン,0
186,1180001158604,新規,0,2023-10-24,2023-10-24,ＵｒｂａｎＣｈａｉｎ　Ｇｒｏｕｐ株式会社,,株式会社,愛知県,名古屋市中村区,平池町４丁目６０番地の１２グローバルゲート１１階,,23,105,4530872,,,,,,,2023-10-24,1,,,,,アーバンチェイングループ,0
187,1180001158629,新規,0,2023-10-24,2023-10-24,パッシングマークレーシング株式会社,,株式会社,愛知県,名古屋市中川区,供米田２丁目１０８番地,,23,110,4540984,,,,,,,2023-10-24,1,,,,,パッシングマークレーシング,0
196,1190001030836,新規,0,2023-10-24,2023-10-24,株式会社トリネム,,株式会社,三重県,伊賀市,上野西大手町３７４２番地の１,,24,216,5180878,,,,,,,2023-10-24,1,,,,,トリネム,0
206,1240001062304,新規,0,2023-10-24,2023-10-24,株式会社襷,,株式会社,広島県,福山市,駅家町大字近田１１０番地６,,34,207,7201133,,,,,,,2023-10-24,1,,,,,タスキ,0
207,1240001062320,新規,0,2023-10-24,2023-10-24,株式会社丸元水産,,株式会社,広島県,呉市,音戸町田原３丁目６番３号,,34,202,7371216,,,,,,,2023-10-24,1,,,,,マルモトスイサン,0
209,1240003006382,新規,0,2023-10-24,2023-10-24,合同会社祐愛,,合同会社,広島県,福山市,曙町６丁目１１番２２号１０５,,34,207,7210952,,,,,,,2023-10-24,1,,,,,ユウアイ,0
214,1260001038426,新規,0,2023-10-24,2023-10-24,株式会社Ａｌｏｈｉ　ＰＩＫＩ,,株式会社,岡山県,岡山市南区,福成３丁目１０番４７号,,33,104,7028022,,,,,,,2023-10-24,1,,,,,アロヒピキ,0
222,1290001103524,新規,0,2023-10-24,2023-10-24,株式会社ＥＮＩＳＨＩ,,株式会社,福岡県,福岡市南区,若久２丁目１番３号,,40,134,8150042,,,,,,,2023-10-24,1,,,,,エニシ,0
227,1290801029984,新規,0,2023-10-24,2023-10-24,株式会社Ｙ’ｓｓｅｒｖｉ,,株式会社,福岡県,北九州市小倉北区,高坊２丁目１２－１０,,40,106,8020053,,,,,,,2023-10-24,1,,,,,ワイズサービス,0
229,1310001018678,新規,0,2023-10-24,2023-10-24,株式会社アセンブル,,株式会社,長崎県,長崎市,西山台１丁目２３－２５,,42,201,8528122,,,,,,,2023-10-24,1,,,,,アセンブル,0
230,1320001020105,新規,0,2023-10-24,2023-10-24,株式会社バックサポートオフィス,,株式会社,大分県,速見郡日出町,大字豊岡３２８４番地１０,,44,341,8791507,,,,,,,2023-10-24,1,,,,,バックサポートオフィス,0
232,1330001031373,新規,0,2023-10-24,2023-10-24,株式会社ＭＹ,,株式会社,熊本県,八代市,塩屋町１１番１号,,43,202,8660864,,,,,,,2023-10-24,1,,,,,エムワイ,0
233,1330001031381,新規,0,2023-10-24,2023-10-24,株式会社熊本林業,,株式会社,熊本県,八代市,宮地町１７０４番地７,,43,202,8660805,,,,,,,2023-10-24,1,,,,,クマモトリンギョウ,0
243,1360001032732,新規,0,2023-10-24,2023-10-24,株式会社ウルミー,,株式会社,沖縄県,うるま市,字宮里２７０番地４,,47,213,9042243,,,,,,,2023-10-24,1,,,,,ウルミー,0
256,1380001034090,新規,0,2023-10-24,2023-10-24,株式会社今泉新聞店,,株式会社,福島県,伊達市,霊山町山野川字原５０－７,,07,213,9600802,,,,,,,2023-10-24,1,,,,,イマイズミシンブンテン,0
258,1380005012761,新規,0,2023-10-24,2023-10-24,特定非営利活動法人ＬＡＰＯＭ,,その他の設立登記法人,福島県,須賀川市,上人坦１４４番地,,07,207,9620002,,,,,,,2023-10-24,1,,,,,ラポム,0
269,1430001090269,新規,0,2023-10-24,2023-10-24,株式会社サンク・アップ,,株式会社,北海道,北広島市,共栄町４丁目１５－７,,01,234,0611113,,,,,,,2023-10-24,1,,,,,サンクアップ,0
277,1700150121334,新規,0,2023-10-24,2023-10-24,Ｓｈｅｎｚｈｅｎ　Ｈｕａｘｉｎ　Ｚｈｉ　Ｊｉｅ　Ｔｅｃｈｎｏｌｏｇｙ　Ｃｏ．，Ｌｔｄ．,,外国会社等,,,,,,,,Ｒｏｏｍ　５１２，５ｔｈ　ｆｌｏｏｒ　Ｈｕａｌｅ　Ｂｕｉｌｄｉｎｇ　Ｚｈｅｎｈｕａ　Ｒｏａｄ，Ｈｕａｑｉａｎｇｂｅｉ　Ｓｔｒｅｅｔ，Ｆｕｔｉａｎ　Ｄｉｓｔｒｉｃｔ，Ｓｈｅｎｚｈｅｎ　Ｃｉｔｙ，Ｇｕａｎｇｄｏｎｇ　ＣＮ,,,,,,2023-10-24,1,,,,,シンセンホゥアシンジジエテクノロジーカンパニーリミテッド,0
278,1700150121342,新規,0,2023-10-24,2023-10-24,Ｈｅｎａｎ　Ｓｈｕｎｃａｉ　Ｊｉａｎｓｈｅｇｏｎｇｃｈｅｎｇ　Ｙｏｕｘｉａｎｇｏｎｇｓｉ,,外国会社等,,,,,,,,Ａｐａｒｔｍｅｎｔ　２２０５，Ｕｎｉｔ　３，Ｂｕｉｌｄｉｎｇ　１，Ｂｌｏｃｋ　Ｂ，Ｈｅｎｇｆｅｎｇ　Ｃｅｎｔｒａｌ　Ｓｑｕａｒｅ，Ｐｕｙａｎｇ　Ｃｉｔｙ．,,,,,,2023-10-24,1,,,,,ヘナンシュンサイジェンスヘゴンチェンユウゲンコウシ,0
283,2010001239287,新規,0,2023-10-24,2023-10-24,株式会社ＧＴＰ,,株式会社,東京都,千代田区,神田錦町３丁目１９番４号１０階,,13,101,1010054,,,,,,,2023-10-24,1,,,,,ジーティピー,0
284,2010001239460,新規,0,2023-10-24,2023-10-24,株式会社ＡＩＲＡ製作所,,株式会社,東京都,千代田区,神田和泉町１番地６－１６ヤマトビル４０５,,13,101,1010024,,,,,,,2023-10-24,1,,,,,アイラセイサクショ,0
285,2010001239477,新規,0,2023-10-24,2023-10-24,株式会社ＤａｒＷｉｎ,,株式会社,東京都,中央区,築地２丁目８番１０号築地Ｋ＆ＲＩＩＴＯＤＡビル３階,00132382,13,102,1040045,,,,,,,2023-10-24,1,,,,,ダーウィン,0
286,2010003041971,新規,0,2023-10-24,2023-10-24,合同会社ＳＵＢＬＩＭＥ,,合同会社,東京都,中央区,銀座１丁目１２番４号Ｎ＆ＥＢＬＤ．６Ｆ,,13,102,1040061,,,,,,,2023-10-24,1,,,,,サブライム,0
287,2010003041988,新規,0,2023-10-24,2023-10-24,リアンズ合同会社,,合同会社,東京都,千代田区,三番町５番地１９,,13,101,1020075,,,,,,,2023-10-24,1,,,,,リアンズ,0
288,2010005037423,新規,0,2023-10-24,2023-10-24,一般社団法人ＤＬＡＰ１号,,その他の設立登記法人,東京都,千代田区,霞が関３丁目２番５号,,13,101,1000013,,,,,,,2023-10-24,1,,,,,ディーエルエーピーイチゴウ,0
296,2010401177715,新規,0,2023-10-24,2023-10-24,ＤｏｉＴ　Ｉｎｔｅｒｎａｔｉｏｎａｌ　Ｊａｐａｎ株式会社,,株式会社,東京都,港区,赤坂１丁目１１番４４号赤坂インターシティ５階Ｍａｚａｒｓ・Ｊａｐａｎ株式会社内,,13,103,1070052,,,,,,,2023-10-24,1,,,,,ドゥーイットインターナショナルジャパン,0
297,2010401177970,新規,0,2023-10-24,2023-10-24,Ｍａｎｕｐｏｒｔ　Ｌｏｇｉｓｔｉｃｓ　Ｊａｐａｎ株式会社,,株式会社,東京都,港区,新橋４丁目３１番３号第三明和ビル,,13,103,1050004,,,,,,,2023-10-24,1,,,,,マニュポートロジスティクスジャパン,0
298,2010401178003,新規,0,2023-10-24,2023-10-24,Ａｂｏｖｅ株式会社,,株式会社,東京都,港区,南青山３丁目１３－１－５０２,,13,103,1070062,,,,,,,2023-10-24,1,,,,,アボーヴ,0
299,2010401178011,新規,0,2023-10-24,2023-10-24,ＧＬＯＢＡＬ　ＳＰＡＤＥ株式会社,,株式会社,東京都,港区,北青山１丁目３番１号アールキューブ青山３階,,13,103,1070061,,,,,,,2023-10-24,1,,,,,グローバルスペード,0
300,2010401178052,新規,0,2023-10-24,2023-10-24,株式会社ＦＡＴＩＭＡ,,株式会社,東京都,港区,北青山１丁目３番１号アールキューブ青山３階,,13,103,1070061,,,,,,,2023-10-24,1,,,,,ファティマ,0
301,2010401178060,新規,0,2023-10-24,2023-10-24,シグナルジャパン株式会社,,株式会社,東京都,港区,北青山１丁目３番１号アールキューブ青山３階,,13,103,1070061,,,,,,,2023-10-24,1,,,,,シグナルジャパン,0
306,2010403031192,新規,0,2023-10-24,2023-10-24,ＡＩｋｎｏｔコンサルティング合同会社,,合同会社,東京都,港区,港南２丁目１６番１号イーストワンタワー４階４０４号,,13,103,1080075,,,,,,,2023-10-24,1,,,,,アイノットコンサルティング,0
307,2010403031226,新規,0,2023-10-24,2023-10-24,合同会社ＴＴ,,合同会社,東京都,港区,西麻布４丁目１番１号麻布霞町マンション１０１１号室,,13,103,1060031,,,,,,,2023-10-24,1,,,,,ティーティー,0
308,2010501051209,新規,0,2023-10-24,2023-10-24,株式会社グロモア,,株式会社,東京都,台東区,台東４丁目１番４号,,13,106,1100016,,,,,,,2023-10-24,1,,,,,グロモア,0
309,2010501051241,新規,0,2023-10-24,2023-10-24,鯨株式会社,,株式会社,東京都,台東区,東上野３丁目３８番２号,,13,106,1100015,,,,,,,2023-10-24,1,,,,,クジラ,0
310,2010503007200,新規,0,2023-10-24,2023-10-24,合同会社Ｃｉｘｘｉｃ,,合同会社,東京都,台東区,上野３丁目１５番７号,,13,106,1100005,,,,,,,2023-10-24,1,,,,,シクシィ,0
315,2010801034458,新規,0,2023-10-24,2023-10-24,株式会社ＨＩＫＡＲＵ,,株式会社,東京都,大田区,大森東３丁目９番７号,,13,111,1430012,,,,,,,2023-10-24,1,,,,,ヒカル,0
322,2011001157652,新規,0,2023-10-24,2023-10-24,ベータラボ株式会社,,株式会社,東京都,渋谷区,道玄坂１丁目１０番８号渋谷道玄坂東急ビル２Ｆ－Ｃ,,13,113,1500043,,,,,,,2023-10-24,1,,,,,ベータラボ,0
324,2011101104901,新規,0,2023-10-24,2023-10-24,株式会社ＡＢＥＲＥＸ,,株式会社,東京都,新宿区,新宿４丁目１－１９ＦＵＭＩビル３Ｆ,,13,104,1600022,,,,,,,2023-10-24,1,,,,,アベレックス,0
328,2011403004155,新規,0,2023-10-24,2023-10-24,天合同会社,,合同会社,東京都,板橋区,赤塚１丁目５－２０キューブ赤塚２－１０２,,13,119,1750092,,,,,,,2023-10-24,1,,,,,テン,0
329,2011501029905,新規,0,2023-10-24,2023-10-24,株式会社２００２,,株式会社,東京都,荒川区,東尾久５丁目２番１－４０３号エクセレントシティ田端,,13,118,1160012,,,,,,,2023-10-24,1,,,,,ニゼロゼロニ,0
332,2011701009608,新規,0,2023-10-24,2023-10-24,株式会社ナコス,,株式会社,東京都,江戸川区,南小岩７丁目３１番１１号,,13,123,1330056,,,,,,,2023-10-24,1,,,,,ナコス,0
333,2011701026693,新規,0,2023-10-24,2023-10-24,株式会社ツヨシ工業,,株式会社,東京都,江戸川区,平井６丁目２３－１７ウィザードビル３０４号室,,13,123,1320035,,,,,,,2023-10-24,1,,,,,ツヨシコウギョウ,0
334,2011801043218,新規,0,2023-10-24,2023-10-24,株式会社トータルインテリアワークス,,株式会社,東京都,足立区,梅島２丁目１番９号,,13,121,1210816,,,,,,,2023-10-24,1,,,,,トータルインテリアワークス,0
335,2011801043226,新規,0,2023-10-24,2023-10-24,イモータライズ株式会社,,株式会社,東京都,足立区,西新井本町２丁目１６番８号,,13,121,1230845,,,,,,,2023-10-24,1,,,,,イモータライズ,0
336,2012301013636,新規,0,2023-10-24,2023-10-24,株式会社トルネードア,,株式会社,東京都,町田市,小野路町３３８５番地１,,13,209,1950064,,,,,,,2023-10-24,1,,,,,トルネードア,0
340,2012401041140,新規,0,2023-10-24,2023-10-24,株式会社４２０,,株式会社,東京都,府中市,美好町３丁目１４番地の１７メゾン・リュイソー１０１,,13,206,1830045,,,,,,,2023-10-24,1,,,,,フォートゥーオー,0
343,2012803003218,新規,0,2023-10-24,2023-10-24,合同会社猫の掌,,合同会社,東京都,国立市,中３丁目７番地の７５,,13,215,1860004,,,,,,,2023-10-24,1,,,,,ネコノテ,0
351,2013303006850,新規,0,2023-10-24,2023-10-24,合同会社ＡＲＩＡ,,合同会社,東京都,豊島区,雑司が谷１丁目１５番１５号クリアスタイル護国寺１０３号,,13,116,1710032,,,,,,,2023-10-24,1,,,,,アリア,0
353,2013305003532,新規,0,2023-10-24,2023-10-24,一般社団法人絆,,その他の設立登記法人,東京都,豊島区,南大塚２丁目４１番１０号河野ビルＡ棟５階,,13,116,1700005,,,,,,,2023-10-24,1,,,,,キズナ,0
362,2020001154106,新規,0,2023-10-24,2023-10-24,株式会社Ｗｏｏｄ　Ｃｌｏｖｅｒ,,株式会社,神奈川県,横浜市保土ケ谷区,上菅田町７３５番地１カーサＳ五番館１０３号,,14,106,2400051,,,,,,,2023-10-24,1,,,,,ウッドクローバー,0
371,2021003013704,新規,0,2023-10-24,2023-10-24,日本インターナショナル合同会社,,合同会社,神奈川県,厚木市,上荻野７５１－２,,14,212,2430201,,,,,,,2023-10-24,1,,,,,ニホンインターナショナル,0
385,2040003023570,新規,0,2023-10-24,2023-10-24,神隆商会合同会社,,合同会社,千葉県,鎌ケ谷市,西道野辺１３番３８－４０６号,,12,224,2730117,,,,,,,2023-10-24,1,,,,,シンリュウショウカイ,0
386,2040003023612,新規,0,2023-10-24,2023-10-24,ＳＨＩＶＡＯＭ合同会社,,合同会社,千葉県,浦安市,堀江５丁目２番２３号第２大塚コーポ（１０１）,,12,227,2790041,,,,,,,2023-10-24,1,,,,,シヴァオム,0
387,2040005022158,新規,0,2023-10-24,2023-10-24,特定非営利活動法人ＢＡＲＤ,,その他の設立登記法人,千葉県,松戸市,本町１５番４号ハマトモビル４１１号,,12,207,2710091,,,,,,,2023-10-24,1,,,,,バード,0
388,2050001053692,新規,0,2023-10-24,2023-10-24,株式会社ＣＨＲＯＮＩＣＪＡＰＡＮ,,株式会社,茨城県,かすみがうら市,中志筑２２６９番地,,08,230,3150075,,,,,,,2023-10-24,1,,,,,クロニックジャパン,0
390,2050003007894,新規,0,2023-10-24,2023-10-24,合同会社ＨｏｌｌｏｗＣｏｒｐ,,合同会社,茨城県,日立市,滑川本町１丁目９－８５,,08,202,3170051,,,,,,,2023-10-24,1,,,,,ホローコープ,0
393,2060003004775,新規,0,2023-10-24,2023-10-24,Ｊｕｎｉｓ．ＡＬＬ合同会社,,合同会社,栃木県,塩谷郡高根沢町,大字上高根沢３９７５－８,,09,386,3291224,,,,,,,2023-10-24,1,,,,,ジュニスオール,0
396,2070001041002,新規,0,2023-10-24,2023-10-24,株式会社ＡＫＡＴＳＵＫＩ,,株式会社,群馬県,高崎市,並榎町５３１番地１‐４１６,,10,202,3700802,,,,,,,2023-10-24,1,,,,,アカツキ,0
397,2070001041010,新規,0,2023-10-24,2023-10-24,株式会社浩大,,株式会社,群馬県,安中市,中秋間４１５－２,,10,211,3790103,,,,,,,2023-10-24,1,,,,,コウダイ,0
398,2080001025937,新規,0,2023-10-24,2023-10-24,スギモト建設株式会社,,株式会社,静岡県,静岡市駿河区,丸子１丁目２番２－９号,,22,102,4210103,,,,,,,2023-10-24,1,,,,,スギモトケンセツ,0
407,2090001018386,新規,0,2023-10-24,2023-10-24,株式会社ピーチａｎｄカンパニー,,株式会社,山梨県,甲斐市,龍地２１５１番地３９,,19,210,4000104,,,,,,,2023-10-24,1,,,,,ピーチアンドカンパニー,0
408,2100001036915,新規,0,2023-10-24,2023-10-24,阿寺ブルー株式会社,,株式会社,長野県,木曽郡大桑村,大字長野２４５２,,20,430,3995503,,,,,,,2023-10-24,1,,,,,アテラブルー,0
411,2100003007237,新規,0,2023-10-24,2023-10-24,合同会社Ｌｕｍｉｅｒｅ,,合同会社,長野県,諏訪郡原村,３６９１－１,,20,363,3910100,,,,,,,2023-10-24,1,,,,,ルミエール,0
425,2120001258978,新規,0,2023-10-24,2023-10-24,株式会社ＳｕｎＴｒａｉｌ,,株式会社,大阪府,大阪市西区,北堀江２丁目４－１１サンライズビル４Ｆ,,27,106,5500014,,,,,,,2023-10-24,1,,,,,サントレイル,0
426,2120001259092,新規,0,2023-10-24,2023-10-24,株式会社近畿サービスホールディングス,,株式会社,大阪府,大阪市西淀川区,竹島４丁目８番２０号,,27,113,5550011,,,,,,,2023-10-24,1,,,,,キンキサービスホールディングス,0
427,2120001259101,新規,0,2023-10-24,2023-10-24,株式会社しん,,株式会社,大阪府,大阪市東住吉区,湯里２丁目１８番１１号ＳＫコーポ針中野２０５,,27,121,5460013,,,,,,,2023-10-24,1,,,,,シン,0
431,2120005023957,新規,0,2023-10-24,2023-10-24,特定非営利活動法人４ｐｒｏｍｉｓｅｓ,,その他の設立登記法人,大阪府,大阪市北区,堂島３丁目２番９号,,27,127,5300003,,,,,,,2023-10-24,1,,,,,フォープロミシーズ,0
436,2122001037494,新規,0,2023-10-24,2023-10-24,株式会社Ｌｉｅｎ,,株式会社,大阪府,東大阪市,大蓮東２丁目１１－１８,,27,227,5770824,,,,,,,2023-10-24,1,,,,,リアン,0
437,2122001037511,新規,0,2023-10-24,2023-10-24,株式会社Ｆｌａｇ,,株式会社,大阪府,東大阪市,南鴻池町２丁目１７番２２号,,27,227,5780961,,,,,,,2023-10-24,1,,,,,フラッグ,0
438,2122003002711,新規,0,2023-10-24,2023-10-24,合同会社みらい共生社会推進協議会,,合同会社,大阪府,大東市,灰塚４丁目６番１９号,,27,218,5740043,,,,,,,2023-10-24,1,,,,,ミライキョウセイシャカイスイシンキョウギカイ,0
442,2130001075506,新規,0,2023-10-24,2023-10-24,株式会社洛柿舎,,株式会社,京都府,京都市右京区,太秦森ケ西町１３番地１フローラハイツ太秦３０６,,26,108,6168106,,,,,,,2023-10-24,1,,,,,ラクシシャ,0
443,2130002035814,新規,0,2023-10-24,2023-10-24,有限会社信和家団,,有限会社,京都府,京都市北区,紫野花ノ坊町８番地,,26,101,6038302,,,,,,,2023-10-24,1,,,,,シンワカダン,0
444,2140001132140,新規,0,2023-10-24,2023-10-24,株式会社アイルビー不動産,,株式会社,兵庫県,神戸市東灘区,岡本１丁目１３番１６号－２０２,,28,101,6580072,,,,,,,2023-10-24,1,,,,,アイルビーフドウサン,0
446,2140003019699,新規,0,2023-10-24,2023-10-24,合同会社ＮＥＯ　Ｉｎｖｅｓｔｍｅｎｔ,,合同会社,兵庫県,加古郡稲美町,国安３４６番地の４,,28,381,6751114,,,,,,,2023-10-24,1,,,,,ネオインベストメント,0
447,2140005026776,新規,0,2023-10-24,2023-10-24,一般社団法人芸術の森,,その他の設立登記法人,兵庫県,西宮市,小松南町３丁目４番１２－２０４号,,28,204,6638124,,,,,,,2023-10-24,1,,,,,ゲイジュツノモリ,0
448,2150001026829,新規,0,2023-10-24,2023-10-24,株式会社なら和み館,,株式会社,奈良県,奈良市,東紀寺町２丁目１０番１号,,29,201,6308305,,,,,,,2023-10-24,1,,,,,ナラナゴミカン,0
468,2210001019520,新規,0,2023-10-24,2023-10-24,太陽のなかまたち株式会社,,株式会社,福井県,越前市,行松町第５号７番地の５,,18,209,9150853,,,,,,,2023-10-24,1,,,,,タイヨウノナカマタチ,0
471,2220003003612,新規,0,2023-10-24,2023-10-24,合同会社マルチ・ビジョン,,合同会社,石川県,金沢市,無量寺５丁目５７番地２サンライズＩＩ２０１号,00132393,17,201,9200333,,,,,,,2023-10-24,1,,,,,マルチビジョン,0
475,2240001062286,新規,0,2023-10-24,2023-10-24,株式会社トラベルゼセッション,,株式会社,広島県,尾道市,久保３丁目８番３３号,,34,205,7220045,,,,,,,2023-10-24,1,,,,,トラベルゼセッション,0
476,2240001062303,新規,0,2023-10-24,2023-10-24,ＮＡＴＵＲＡＬ８株式会社,,株式会社,広島県,福山市,木之庄町１丁目１４番１９号木之庄ハイツ１０６号,,34,207,7200082,,,,,,,2023-10-24,1,,,,,ナチュラルエイト,0
480,2250001020367,新規,0,2023-10-24,2023-10-24,株式会社聖興工業,,株式会社,山口県,防府市,警固町１丁目５番３８号,,35,206,7470821,,,,,,,2023-10-24,1,,,,,セイコウコウギョウ,0
495,2290001103507,新規,0,2023-10-24,2023-10-24,株式会社飯田建築,,株式会社,福岡県,糸島市,加布里１丁目２１番３号,,40,230,8191124,,,,,,,2023-10-24,1,,,,,イイダケンチク,0
497,2290005019179,新規,0,2023-10-24,2023-10-24,一般社団法人久留米ＤＭＯ,,その他の設立登記法人,福岡県,久留米市,六ツ門町２番地２４,,40,203,8300031,,,,,,,2023-10-24,1,,,,,クルメディーエムオー,0
501,2290801029983,新規,0,2023-10-24,2023-10-24,株式会社レジェンドワン,,株式会社,福岡県,北九州市小倉北区,木町４丁目７番１０号,,40,106,8030851,,,,,,,2023-10-24,1,,,,,レジェンドワン,0
502,2290801029991,新規,0,2023-10-24,2023-10-24,鈴工株式会社,,株式会社,福岡県,北九州市小倉北区,黒原３丁目２１番１５－３０２号,,40,106,8020051,,,,,,,2023-10-24,1,,,,,スズコウ,0
506,2320001020104,新規,0,2023-10-24,2023-10-24,株式会社マルマサ酒舗,,株式会社,大分県,大分市,大字旦野原２６５番地３コーポラスＩＩ番館１０１,00132381,44,201,8701124,,,,,,,2023-10-24,1,,,,,マルマサシュホ,0
512,2340001026017,新規,0,2023-10-24,2023-10-24,リーフ株式会社,,株式会社,鹿児島県,鹿児島市,高麗町１７番５号,,46,201,8900051,,,,,,,2023-10-24,1,,,,,リーフ,0
518,2370001050534,新規,0,2023-10-24,2023-10-24,株式会社ＷＲＣコンサルタント,,株式会社,宮城県,仙台市青葉区,春日町３－４－２０５,,04,101,9800821,,,,,,,2023-10-24,1,,,,,ダブリューアールシーコンサルタント,0
519,2370001050559,新規,0,2023-10-24,2023-10-24,株式会社ドラゴンブルー,,株式会社,宮城県,富谷市,明石台５丁目２番地９,,04,216,9813332,,,,,,,2023-10-24,1,,,,,ドラゴンブルー,0
525,2390001017408,新規,0,2023-10-24,2023-10-24,株式会社佐藤工業,,株式会社,山形県,天童市,北久野本４丁目１１番１７－２号,,06,210,9940011,,,,,,,2023-10-24,1,,,,,サトウコウギョウ,0
533,2430001090243,新規,0,2023-10-24,2023-10-24,株式会社白馬交通北海道,,株式会社,北海道,北広島市,大曲南ヶ丘２丁目１番２４号,,01,234,0611275,,,,,,,2023-10-24,1,,,,,ハクバコウツウホッカイドウ,0
534,2430001090251,新規,0,2023-10-24,2023-10-24,株式会社ＲＩＫＫＡ,,株式会社,北海道,札幌市中央区,南二条西１０丁目１０００－２４ＴＡＫＥＴＯビル２Ｆ,,01,101,0600062,,,,,,,2023-10-24,1,,,,,リッカ,0
535,2430001090268,新規,0,2023-10-24,2023-10-24,株式会社ＥｖｏＱｕｅｓｔ,,株式会社,北海道,札幌市手稲区,稲穂四条６丁目２０番１７号,,01,109,0060034,,,,,,,2023-10-24,1,,,,,エボクエスト,0
536,2430001090284,新規,0,2023-10-24,2023-10-24,ＹＭパートナーズ２株式会社,,株式会社,北海道,札幌市中央区,南七条西４丁目４２２番地１４,,01,101,0640807,,,,,,,2023-10-24,1,,,,,ワイエムパートナーズツー,0
538,2430003015553,新規,0,2023-10-24,2023-10-24,合同会社モテナスプラス,,合同会社,北海道,札幌市清田区,北野五条４丁目８番２号,,01,110,0040865,,,,,,,2023-10-24,1,,,,,モテナスプラス,0
548,2490005006909,新規,0,2023-10-24,2023-10-24,一般社団法人古民家再生協会高知,,その他の設立登記法人,高知県,高知市,塚ノ原１７２番地１６,,39,201,7800952,,,,,,,2023-10-24,1,,,,,コミンカサイセイキョウカイコウチ,0
550,2500005008647,新規,0,2023-10-24,2023-10-24,テント倉庫総合建設協同組合,,その他の設立登記法人,愛媛県,松山市,中野町１３０番地,,38,201,7911121,,,,,,,2023-10-24,1,,,,,,0
551,2700150113974,新規,0,2023-10-24,2023-10-24,Ｇｕａｎｇｄｏｎｇ　Ａｉｚｈｉｈｕｉ　Ｍａｏｙｉ　Ｙｏｕｘｉａｎｇｏｎｇｓｉ,,外国会社等,,,,,,,,Ｙｕｅｘｉｕｑｕ　Ｓａｎｙｕａｎｌｉｄａｄａｏ　１６５ｈａｏ　Ｑｉａｏｙｕｅｄａｓｈａ　８ｌｏｕ　８０５ｓｈｉ　Ｔ２０ｈａｏ　Ｇｕａｎｇｚｈｏｕ　Ｇｕａｎｇｄｏｎｇ　５１０４９９ＣＮ,,,,,,2023-10-24,1,,,,,グゥァンドンアイヂーフゥイマオイーヨウシィェンゴンス,0
552,2700150116003,新規,0,2023-10-24,2023-10-24,ｆｏｓｈａｎｓｈｉｄｏｎｇｚｈｅｎｚｈｕｂａｏｙｏｕｘｉａｎｇｏｎｇｓｉ,,外国会社等,,,,,,,,ｇｕａｎｇｄｏｎｇｓｈｅｎｆｏｓｈａｎｓｈｉｓｈｕｎｄｅｑｕｃｈｅｎｃｕｎｚｈｅｎｈｅｃｈｅｎｇｓｈｅｑｕｂａｉｃｈｅｎｇｏｎｇｌｕ１８９ｈａｏｙｕｅｆｅｎｇｈｕａｙｕａｎ２ｈａｏｐｕｚｈｉｓａｎ,,,,,,2023-10-24,1,,,,,フォーシャンシドンジェンジュウバオヨウシェンゴンスー,0
553,2700150116721,新規,0,2023-10-24,2023-10-24,ｓｈａｎｔｏｕｓｈｉｑｉｓｕｗａｎｇｌｕｏｋｅｊｉｙｏｕｘｉａｎｇｏｎｇｓｉ,,外国会社等,,,,,,,,Ｎｏ．１７，Ｂｕｉｌｄｉｎｇ　Ｃ，Ｎａｎｙｏｎｇ　Ｆａｃｔｏｒｙ　Ａｒｅａ，Ｓｏｕｔｈ　ｏｆ　Ｈｅｚｈｏｎｇ　Ｒｏａｄ，Ｈａｏｊｉａｎｇ　Ｄｉｓｔｒｉｃｔ，Ｓｈａｎｔｏｕ　Ｃｉｔｙ，Ｇｕａｎｇｄｏｎｇ　Ｐｒｏｖｉｎｃｅ　Ｃｈｉｎａ,,,,,,2023-10-24,1,,,,,シャントシチスオネットワークテクノロジー,0
554,2700150118255,新規,0,2023-10-24,2023-10-24,ＨＯＮＦＡＭ　ＩＮＤＵＳＴＲＩＡＬ　ＬＩＭＩＴＥＤ,,外国会社等,,,,,,,,ＦＬＡＴ／ＲＭ　Ａ，１２／Ｆ　ＺＪ　３００，３００　ＬＯＣＫＨＡＲＴ　ＲＯＡＤ，ＷＡＮ　ＣＨＡＩ，ＨＯＮＧ　ＫＯＮＧ,,,,,,2023-10-24,1,,,,,ホンファンインダストリアルリミテッド,0
555,2700150121341,新規,0,2023-10-24,2023-10-24,Ｐｕｙａｎｇ　Ｙｉｍｅｉ　Ｔｅｃｈｎｏｌｏｇｙ　Ｍｅｄｉａ　Ｃｏ．，Ｌｔｄ．,,外国会社等,,,,,,,,Ｂｕｉｌｄｉｎｇ　９，Ｆｕｔｕｒｅ　Ｇａｒｄｅｎ，Ｈｕａｎｇｈｅ　Ｒｏａｄ，Ｘｉｎｑｕ，Ｆａｎｘｉａｎ　Ｃｏｕｎｔｙ，Ｐｕｙａｎｇ　Ｃｉｔｙ，Ｈｅｎａｎ　Ｐｒｏｖｉｎｃｅ，Ｃｈｉｎａ．,,,,,,2023-10-24,1,,,,,プーヤンイーウェイコージーチュワンメイヨウシエンゴンスー,0
558,3010001239360,新規,0,2023-10-24,2023-10-24,株式会社Ｋａｒｔｅ,,株式会社,東京都,中央区,銀座１丁目１２番４号Ｎ＆Ｅ・ＢＬＤ．６Ｆ,,13,102,1040061,,,,,,,2023-10-24,1,,,,,カルテ,0
559,3010001239484,新規,0,2023-10-24,2023-10-24,株式会社ＦｏｒＤｉ,,株式会社,東京都,千代田区,丸の内２丁目５番２号,,13,101,1000005,,,,,,,2023-10-24,1,,,,,フォーディ,0
563,3010003041987,新規,0,2023-10-24,2023-10-24,合同会社八画三画,,合同会社,東京都,中央区,勝どき５丁目５－１４,,13,102,1040054,,,,,,,2023-10-24,1,,,,,ハチカクサンカク,0
575,3010401178010,新規,0,2023-10-24,2023-10-24,株式会社マルコ,,株式会社,東京都,港区,台場１丁目３番２－１７０４号,,13,103,1350091,,,,,,,2023-10-24,1,,,,,マルコ,0
576,3010401178035,新規,0,2023-10-24,2023-10-24,三井物産ファーストワンマイル株式会社,,株式会社,東京都,港区,赤坂３丁目３番３号,,13,103,1070052,,,,,,,2023-10-24,1,,,,,ミツイブッサンファーストワンマイル,0
577,3010501051240,新規,0,2023-10-24,2023-10-24,安寧株式会社,,株式会社,東京都,台東区,台東１丁目２４番９号ブライト秋葉原２階,,13,106,1100016,,,,,,,2023-10-24,1,,,,,アンネイ,0
585,3010601064027,新規,0,2023-10-24,2023-10-24,アークステップ株式会社,,株式会社,東京都,墨田区,京島１丁目６番６－２００２号,,13,107,1310046,,,,,,,2023-10-24,1,,,,,アークステップ,0
590,3010801034449,新規,0,2023-10-24,2023-10-24,株式会社すぎけん,,株式会社,東京都,大田区,南馬込３丁目１番４号,,13,111,1430025,,,,,,,2023-10-24,1,,,,,スギケン,0
591,3010801034457,新規,0,2023-10-24,2023-10-24,オフィスちゃたに株式会社,,株式会社,東京都,大田区,北千束１丁目９番１０号,,13,111,1450062,,,,,,,2023-10-24,1,,,,,オフィスチャタニ,0
597,3011001157288,新規,0,2023-10-24,2023-10-24,株式会社ビーエリート,,株式会社,東京都,目黒区,自由が丘１丁目１６番１０号大森ビル２．３階,,13,110,1520035,,,,,,,2023-10-24,1,,,,,ビーエリート,0
598,3011001157593,新規,0,2023-10-24,2023-10-24,株式会社Ｃａｐｐｒｅｃｉｅｒ,,株式会社,東京都,目黒区,鷹番３丁目８－５利根川屋ビル３階,,13,110,1520004,,,,,,,2023-10-24,1,,,,,カプレスィエ,0
599,3011001157668,新規,0,2023-10-24,2023-10-24,株式会社Ｄｕｎｋ,,株式会社,東京都,渋谷区,道玄坂１丁目１０番８号渋谷道玄坂東急ビル２Ｆ－Ｃ,,13,113,1500043,,,,,,,2023-10-24,1,,,,,ダンク,0
600,3011001157701,新規,0,2023-10-24,2023-10-24,株式会社ＦＯＸＶＩＥＷ,,株式会社,東京都,渋谷区,広尾１丁目１６－３ルモン広尾６０４,,13,113,1500012,,,,,,,2023-10-24,1,,,,,フォックスビュー,0
601,3011001157750,新規,0,2023-10-24,2023-10-24,株式会社Ｍｏｍｏｇｒｉｐ,,株式会社,東京都,渋谷区,恵比寿西２丁目８番４号ＥＸ恵比寿西ビル５階,,13,113,1500021,,,,,,,2023-10-24,1,,,,,モモグリップ,0
604,3011103013637,新規,0,2023-10-24,2023-10-24,グリーンバード合同会社,,合同会社,東京都,新宿区,河田町１１番１８－３０２号,,13,104,1620054,,,,,,,2023-10-24,1,,,,,グリーンバード,0
607,3011203004206,新規,0,2023-10-24,2023-10-24,ＲＩＧＨＴＳ５合同会社,,合同会社,東京都,中野区,東中野３丁目８－２トーシンスペースビルアネックス５Ｆ,,13,114,1640003,,,,,,,2023-10-24,1,,,,,ライツファイブ,0
608,3011301029105,新規,0,2023-10-24,2023-10-24,Ｍａｎｅ株式会社,,株式会社,東京都,杉並区,高円寺南２丁目２番１３号アンビエンス高円寺２０３号室,,13,115,1660003,,,,,,,2023-10-24,1,,,,,マネ,0
609,3011303004948,新規,0,2023-10-24,2023-10-24,合同会社アイキョウ,,合同会社,東京都,杉並区,阿佐谷北４丁目３０番６号１Ｆ,,13,115,1660001,,,,,,,2023-10-24,1,,,,,アイキョウ,0
615,3011801043225,新規,0,2023-10-24,2023-10-24,安速国際株式会社,,株式会社,東京都,足立区,梅田５丁目２７番５号,,13,121,1230851,,,,,,,2023-10-24,1,,,,,アンソクコクサイ,0
616,3011803005900,新規,0,2023-10-24,2023-10-24,合同会社ナチュラル,,合同会社,東京都,葛飾区,亀有３丁目３４番１０号今井マンション１２号,,13,122,1250061,,,,,,,2023-10-24,1,,,,,,0
619,3012401041148,新規,0,2023-10-24,2023-10-24,株式会社Ｌｉｎｋ’ｓ,,株式会社,東京都,多摩市,愛宕１丁目１番地１号棟１０４,,13,224,2060041,,,,,,,2023-10-24,1,,,,,リンクス,0
625,3012405004910,新規,0,2023-10-24,2023-10-24,医療法人社団武蔵野博眞会,,その他の設立登記法人,東京都,武蔵野市,境２丁目２番２０号武蔵境スクエアミューズ１階,,13,203,1800022,,,,,,,2023-10-24,1,,,,,ムサシノハクシンカイ,0
641,3020001154055,新規,0,2023-10-24,2023-10-24,株式会社ラインナップ,,株式会社,神奈川県,横浜市中区,根岸町３丁目１７３－１ＧｒａｎｄＨｉｌｌｓ桜１Ｆ,,14,104,2310836,,,,,,,2023-10-24,1,,,,,ラインナップ,0
642,3020001154088,新規,0,2023-10-24,2023-10-24,株式会社ｇｒｏｗｌｉｎｅ,,株式会社,神奈川県,横浜市港北区,日吉本町４丁目８番５７グランシティ日吉本町１０２号,,14,109,2230062,,,,,,,2023-10-24,1,,,,,グローライン,0
659,3021005012918,新規,0,2023-10-24,2023-10-24,一般社団法人ＭｉＮａｉラボ,,その他の設立登記法人,神奈川県,逗子市,久木８丁目１２番４８号,,14,208,2490001,,,,,,,2023-10-24,1,,,,,ミナイラボ,0
664,3030001156752,新規,0,2023-10-24,2023-10-24,株式会社こぐり,,株式会社,埼玉県,春日部市,中央１丁目８－１５春日部セントラル,,11,214,3440067,,,,,,,2023-10-24,1,,,,,コグリ,0
665,3030001156760,新規,0,2023-10-24,2023-10-24,株式会社ＮＹＣ,,株式会社,埼玉県,鶴ヶ島市,大字藤金８９４番地２エクセル若葉１０６,,11,241,3502206,,,,,,,2023-10-24,1,,,,,エヌワイシー,0
666,3030001156819,新規,0,2023-10-24,2023-10-24,株式会社燈,,株式会社,埼玉県,川口市,大字安行慈林７０４番地の２９,,11,203,3340071,,,,,,,2023-10-24,1,,,,,アカリ,0
675,3040001130649,新規,0,2023-10-24,2023-10-24,株式会社オズテック,,株式会社,千葉県,船橋市,藤原６丁目４２番８号,,12,204,2730047,,,,,,,2023-10-24,1,,,,,オズテック,0
679,3040003023611,新規,0,2023-10-24,2023-10-24,合同会社フリーダム,,合同会社,千葉県,船橋市,前原西４丁目３０番３０号,,12,204,2740825,,,,,,,2023-10-24,1,,,,,フリーダム,0
692,3080001025936,新規,0,2023-10-24,2023-10-24,株式会社ハンプ,,株式会社,静岡県,静岡市清水区,袖師町７６５番地の３,,22,103,4240037,,,,,,,2023-10-24,1,,,,,ハンプ,0
693,3080003003080,新規,0,2023-10-24,2023-10-24,合同会社アップセッター,,合同会社,静岡県,藤枝市,築地３１１番地の１０,,22,214,4260031,,,,,,,2023-10-24,1,,,,,アップセッター,0
694,3080401026807,新規,0,2023-10-24,2023-10-24,酒ハックプロジェクト株式会社,,株式会社,静岡県,浜松市中区,鍛冶町１００番地の１ザザシティ浜松中央館Ｂ１Ｆ,,22,131,4300933,,,,,,,2023-10-24,1,,,,,サケハックプロジェクト,0
695,3100001036906,新規,0,2023-10-24,2023-10-24,高豊建築株式会社,,株式会社,長野県,中野市,大字新保２２９番地１３,,20,211,3830036,,,,,,,2023-10-24,1,,,,,コウホウケンチク,0
696,3100001036914,新規,0,2023-10-24,2023-10-24,株式会社ヌールトレーディング,,株式会社,長野県,小諸市,大字滋野甲２３７３番地１,,20,208,3840809,,,,,,,2023-10-24,1,,,,,ヌールトレーディング,0
710,3120001258829,新規,0,2023-10-24,2023-10-24,ＢＮＢ民泊運営代行株式会社,,株式会社,大阪府,大阪市浪速区,恵美須東１丁目２２番１１号,,27,111,5560002,,,,,,,2023-10-24,1,,,,,ビーエヌビーミンパクウンエイダイコウ,0
711,3120001259034,新規,0,2023-10-24,2023-10-24,ＥＴＫ株式会社,,株式会社,大阪府,大阪市中央区,高津３丁目１６－１１－４０１号,,27,128,5420072,,,,,,,2023-10-24,1,,,,,イーティーケイ,0
712,3120001259042,新規,0,2023-10-24,2023-10-24,株式会社ひなた,,株式会社,大阪府,大阪市平野区,西脇１丁目１号２５番マンション山下４０７,,27,126,5470035,,,,,,,2023-10-24,1,,,,,ヒナタ,0
713,3120001259050,新規,0,2023-10-24,2023-10-24,広源株式会社,,株式会社,大阪府,枚方市,星丘２丁目４番４５号,,27,210,5730013,,,,,,,2023-10-24,1,,,,,コウゲン,0
714,3120001259067,新規,0,2023-10-24,2023-10-24,旭帆株式会社,,株式会社,大阪府,大阪市中央区,内本町２丁目４番１０号ネオハイツ内本町２０７号室,,27,128,5400026,,,,,,,2023-10-24,1,,,,,キョクホ,0
715,3120001259075,新規,0,2023-10-24,2023-10-24,日本Ｈ＆Ｔ株式会社,,株式会社,大阪府,大阪市東淀川区,西淡路３丁目１２番３－２０２号,,27,114,5330031,,,,,,,2023-10-24,1,,,,,ニッポンエイチアンドティー,0
716,3120001259083,新規,0,2023-10-24,2023-10-24,株式会社友だち祭,,株式会社,大阪府,大阪市此花区,西九条１丁目１５－６－４階,,27,104,5540012,,,,,,,2023-10-24,1,,,,,トモダチマツリ,0
717,3120001259117,新規,0,2023-10-24,2023-10-24,株式会社ライフサポート工房,,株式会社,大阪府,大阪市旭区,新森７丁目１６番６－１０３号,,27,117,5350022,,,,,,,2023-10-24,1,,,,,ライフサポートコウボウ,0
718,3120001259265,新規,0,2023-10-24,2023-10-24,株式会社笑福ホーム,,株式会社,大阪府,枚方市,尊延寺６丁目２０－２カトレアハイツ２－２２２号室,,27,210,5730112,,,,,,,2023-10-24,1,,,,,ショウフクホーム,0
724,3120003025153,新規,0,2023-10-24,2023-10-24,合同会社ゲート,,合同会社,大阪府,大阪市淀川区,西宮原１丁目８番３１－１１０２号,,27,123,5320004,,,,,,,2023-10-24,1,,,,,ゲート,0
728,3120101068426,新規,0,2023-10-24,2023-10-24,株式会社Ｙ’ｓ,,株式会社,大阪府,貝塚市,南町１３番４号,,27,208,5970005,,,,,,,2023-10-24,1,,,,,ワイズ,0
729,3120101068434,新規,0,2023-10-24,2023-10-24,Ｌ　Ｆａｉｔｈ株式会社,,株式会社,大阪府,和泉市,唐国町２丁目７番８７－７０２号,,27,219,5941151,,,,,,,2023-10-24,1,,,,,エルフェイス,0
737,3140001132098,新規,0,2023-10-24,2023-10-24,株式会社夢・輪,,株式会社,兵庫県,加古郡稲美町,中村５４０番地の２７,,28,381,6751122,,,,,,,2023-10-24,1,,,,,ユメリン,0
739,3140003019698,新規,0,2023-10-24,2023-10-24,合同会社ＫＥＥＰ　ＦＯＲＷＡＲＤ,,合同会社,兵庫県,尼崎市,南武庫之荘２丁目２５番１号,,28,202,6610033,,,,,,,2023-10-24,1,,,,,キープフォワード,0
740,3140003019707,新規,0,2023-10-24,2023-10-24,合同会社ビーグルズ,,合同会社,兵庫県,丹波篠山市,追入５４２－１,,28,221,6692801,,,,,,,2023-10-24,1,,,,,ビーグルズ,0
741,3140005026775,新規,0,2023-10-24,2023-10-24,一般社団法人いやしろち,,その他の設立登記法人,兵庫県,川辺郡猪名川町,南田原字上丁３６,,28,301,6660235,,,,,,,2023-10-24,1,,,,,イヤシロチ,0
743,3150001026828,新規,0,2023-10-24,2023-10-24,株式会社アジール・奈良,,株式会社,奈良県,奈良市,東紀寺町２丁目１０番１号,,29,201,6308305,,,,,,,2023-10-24,1,,,,,アジールナラ,0
744,3150001026836,新規,0,2023-10-24,2023-10-24,株式会社ＴＯＭＭＵＮＩＣＡＴＥ,,株式会社,奈良県,橿原市,内膳町３丁目８－５ＢｉｚＷｏｒｋ３０３,,29,205,6340804,,,,,,,2023-10-24,1,,,,,トミュニケイト,0
754,3180001158619,新規,0,2023-10-24,2023-10-24,株式会社ＭＥＮＡＧＥ,,株式会社,愛知県,稲沢市,稲沢町前田２０８番地２,,23,220,4928217,,,,,,,2023-10-24,1,,,,,メナージ,0
755,3180001158635,新規,0,2023-10-24,2023-10-24,株式会社ＭＯＮ　ＡＮ　ＶＩＥＴ共和,,株式会社,愛知県,大府市,共栄町８丁目１番地８,,23,223,4740074,,,,,,,2023-10-24,1,,,,,モンアンベトキョウワ,0
759,3180301037935,新規,0,2023-10-24,2023-10-24,株式会社ＳＰ　Ａｕｔｏ　ｗｏｒｋｓ,,株式会社,愛知県,刈谷市,小垣江町本郷下４３番地１８,,23,210,4480813,,,,,,,2023-10-24,1,,,,,エスピーオートワークス,0
762,3210003001715,新規,0,2023-10-24,2023-10-24,合同会社Ｙ’ｓ　Ｅｓｔａｔｅ,,合同会社,福井県,鯖江市,小黒町１丁目８番１７号,,18,207,9160028,,,,,,,2023-10-24,1,,,,,ワイズエステート,0
768,3240001062310,新規,0,2023-10-24,2023-10-24,リテラ産業株式会社,,株式会社,広島県,三次市,三和町敷名１１５０６番２,,34,209,7296702,,,,,,,2023-10-24,1,,,,,リテラサンギョウ,0
769,3240003006380,新規,0,2023-10-24,2023-10-24,Ｌｏｐｐｉｓ合同会社,,合同会社,広島県,広島市中区,吉島西１丁目３１－３,,34,101,7300823,,,,,,,2023-10-24,1,,,,,ロッピス,0
783,3290001103489,新規,0,2023-10-24,2023-10-24,株式会社新事業創造屋,,株式会社,福岡県,福岡市東区,香椎照葉３丁目３－１アイランドタワースカイクラブＣ４２５,,40,131,8130017,,,,,,,2023-10-24,1,,,,,シンジギョウソウゾウヤ,0
784,3290001103506,新規,0,2023-10-24,2023-10-24,株式会社ｔｈｒｅｅｓｉｄｅ,,株式会社,福岡県,福岡市博多区,博多駅前４丁目１４－２３－１２１４,,40,132,8120011,,,,,,,2023-10-24,1,,,,,スリーサイド,0
785,3290001103522,新規,0,2023-10-24,2023-10-24,株式会社ノマド,,株式会社,福岡県,福岡市西区,拾六町５丁目９番３７号,,40,135,8190041,,,,,,,2023-10-24,1,,,,,ノマド,0
789,3290003014536,新規,0,2023-10-24,2023-10-24,合同会社カスミ,,合同会社,福岡県,福岡市東区,香椎駅東４丁目３４番６２号,,40,131,8130012,,,,,,,2023-10-24,1,,,,,カスミ,0
791,3290005019178,新規,0,2023-10-24,2023-10-24,特定非営利活動法人クローバー,,その他の設立登記法人,福岡県,久留米市,上津町１７８９番地２,,40,203,8300052,,,,,,,2023-10-24,1,,,,,クローバー,0
794,3290801029966,新規,0,2023-10-24,2023-10-24,ＹＳソラット株式会社,,株式会社,福岡県,田川市,本町６番１７号,,40,206,8260022,,,,,,,2023-10-24,1,,,,,ワイエスソラット,0
795,3290801029982,新規,0,2023-10-24,2023-10-24,株式会社ステータス,,株式会社,福岡県,北九州市小倉北区,木町４丁目７番１０号,,40,106,8030851,,,,,,,2023-10-24,1,,,,,ステータス,0
798,3290803004521,新規,0,2023-10-24,2023-10-24,Ｉ’ｓ　Ｌａｂｏ合同会社,,合同会社,福岡県,北九州市門司区,大里本町３丁目７番３７－２０２号,,40,101,8000063,,,,,,,2023-10-24,1,,,,,アイズラボ,0
799,3310001018676,新規,0,2023-10-24,2023-10-24,株式会社ｄｏｗｅｌｌ,,株式会社,長崎県,諫早市,多良見町元釜９３番地２,,42,204,8590414,,,,,,,2023-10-24,1,,,,,ドゥウェル,0
801,3320001020103,新規,0,2023-10-24,2023-10-24,株式会社たびざる,,株式会社,大分県,大分市,中島東３丁目４番１－１号,,44,201,8700043,,,,,,,2023-10-24,1,,,,,タビザル,0
811,3370003006327,新規,0,2023-10-24,2023-10-24,リブミンピインベストメント合同会社,,合同会社,宮城県,仙台市青葉区,通町２丁目１－８吉本ビル１階,,04,101,9810915,,,,,,,2023-10-24,1,,,,,リブミンピインベストメント,0
815,3380001034064,新規,0,2023-10-24,2023-10-24,九州工業株式会社,,株式会社,福島県,南相馬市,原町区橋本町１丁目１６－３,,07,212,9750006,,,,,,,2023-10-24,1,,,,,キュウシュウコウギョウ,0
823,3430001090242,新規,0,2023-10-24,2023-10-24,ＭＩＬＫＹＷＡＹ　ＩＭＡＧＥ　ＪＡＰＡＮ株式会社,,株式会社,北海道,札幌市北区,北八条西３丁目３２番地８・３スクエアディーグラフォート札幌ステーションタワー６１３号,,01,102,0600808,,,,,,,2023-10-24,1,,,,,ミルキーウェイイメージジャパン,0
824,3430001090250,新規,0,2023-10-24,2023-10-24,株式会社ワンダーステラ,,株式会社,北海道,札幌市豊平区,月寒西一条１１丁目２番２８号クラリス月寒西４０６号室,,01,105,0620021,,,,,,,2023-10-24,1,,,,,ワンダーステラ,0
825,3430001090259,新規,0,2023-10-24,2023-10-24,株式会社カリプ,,株式会社,北海道,北広島市,共栄町３丁目１３番３号ＳＥＲＡＭ・Ｆ・ＶＩＬＬＡＧＥ３０３号室,,01,234,0611113,,,,,,,2023-10-24,1,,,,,カリプ,0
833,3490003001828,新規,0,2023-10-24,2023-10-24,合同会社Ａｉｎａ虹乃森,,合同会社,高知県,高知市,北竹島町１８４番地３０,,39,201,7808019,,,,,,,2023-10-24,1,,,,,アイナニジノモリ,0
834,3700150113973,新規,0,2023-10-24,2023-10-24,ＮＩＮＧＢＯ　ＳＴＡＲ　ＣＯＬＬＥＣＴＩＯＮＳ　Ｅ－ＣＯＭＭＥＲＣＥ　Ｃｏ．，ＬＴＤ,,外国会社等,,,,,,,,Ｔｏｎｇｊｉｌｕ　１９９　ｈａｏ　９－１　Ｎｉｎｇｂｏ　Ｚｈｅｊｉａｎｇ３１５０３３ＣＮ,,,,,,2023-10-24,1,,,,,ニンブォジュシンピンディェンズーシャンウーヨウシィェンゴンスー,0
835,3700150117727,新規,0,2023-10-24,2023-07-07,フードロス削減コンソーシアム,,その他,北海道,札幌市北区,北二十一条西１１丁目ＦＭＩ国際拠点１階,,01,102,0010021,,,,,,,2023-07-07,1,,,,,フードロスサクゲンコンソーシアム,0
836,3700150121134,新規,0,2023-10-24,2023-10-06,オリナス業務商業管理組合,,その他,東京都,墨田区,太平４丁目１番１号、２号、３号、４号、５号,,13,107,1300012,,,,,,,2023-10-06,1,,,,,オリナスギヨウムシヨウギヨウカンリクミアイ,0
837,3700150121183,新規,0,2023-10-24,2023-10-11,赤松中山間地域集落協定推進協議会,,その他,徳島県,海部郡美波町,赤松字寺野２０４－１,,36,387,7792301,,,,,,,2023-10-11,1,,,,,アカマツチユウサンカンチイキシユウラクキヨウテイスイシンキヨウギカイ,0
838,3700150121340,新規,0,2023-10-24,2023-10-24,Ｂｏｂａｉ　Ｈａｏｓｅｎ　Ｃｒａｆｔ　Ｃｏ．，Ｌｔｄ．,,外国会社等,,,,,,,,ｂｏｂａｉｘｉａｎｓａｎｔａｎｚｈｅｎｄａｗａｎｇｃｕｎｄａｌｉｕｙｕａｎｄｕｉｑｉｎｚｅｗｅｎｆａｎｇｗｕ,,,,,,2023-10-24,1,,,,,ボーバイハオセンゴンイーピンヨウシエンゴンスー,0
844,4010001239392,新規,0,2023-10-24,2023-10-24,ＦＵＬＩＮＣＳ株式会社,,株式会社,東京都,中央区,銀座１丁目１２番４号Ｎ＆ＥＢＬＤ．７階,,13,102,1040061,,,,,,,2023-10-24,1,,,,,フリンクス,0
845,4010001239434,新規,0,2023-10-24,2023-10-24,株式会社ＳＴＯＣＫ１３２,,株式会社,東京都,千代田区,永田町２丁目１２番４号,,13,101,1000014,,,,,,,2023-10-24,1,,,,,ストックヒャクサンジュウニ,0
846,4010001239467,新規,0,2023-10-24,2023-10-24,ＳＫＹホールディングス株式会社,,株式会社,東京都,千代田区,内幸町１丁目３番３号,,13,101,1000011,,,,,,,2023-10-24,1,,,,,スカイホールディングス,0
848,4010003041994,新規,0,2023-10-24,2023-10-24,ＳＴＥＬＬＡ合同会社,,合同会社,東京都,中央区,勝どき６丁目３番１号,,13,102,1040054,,,,,,,2023-10-24,1,,,,,ステラ,0
850,4010005037421,新規,0,2023-10-24,2023-10-24,一般社団法人ファンドドゥ１６号,,その他の設立登記法人,東京都,千代田区,霞が関３丁目２番５号,,13,101,1000013,,,,,,,2023-10-24,1,,,,,ファンドドゥジュウロクゴウ,0
857,4010401178034,新規,0,2023-10-24,2023-10-24,株式会社ロボティクスソリューションズ,,株式会社,東京都,港区,海岸１丁目２－２０汐留ビルディング３Ｆ,,13,103,1050022,,,,,,,2023-10-24,1,,,,,ロボティクスソリューションズ,0
858,4010401178059,新規,0,2023-10-24,2023-10-24,株式会社ＤＫＯ,,株式会社,東京都,港区,虎ノ門３丁目１８番６号朝日虎ノ門マンション６１４号室,,13,103,1050001,,,,,,,2023-10-24,1,,,,,ディーケーオー,0
859,4010401178075,新規,0,2023-10-24,2023-10-24,株式会社ＲＩＯＴ,,株式会社,東京都,港区,六本木４丁目１－２６六本木ＫビルＢ１,,13,103,1060032,,,,,,,2023-10-24,1,,,,,ライオット,0
864,4010405022584,新規,0,2023-10-24,2023-10-24,一般社団法人ＳｐｏｒｔＴｅｃｈ学術機構,,その他の設立登記法人,東京都,港区,北青山１丁目４－５ＶＯＲＴ青山一丁目９０２,,13,103,1070061,,,,,,,2023-10-24,1,,,,,スポートテックガクジュツキコウ,0
869,4010903008548,新規,0,2023-10-24,2023-10-24,ｈｙＤｅｓｉｇｎ合同会社,,合同会社,東京都,世田谷区,上北沢３丁目１４番１０号,,13,112,1560057,,,,,,,2023-10-24,1,,,,,エイチワイデザイン,0
877,4011001157700,新規,0,2023-10-24,2023-10-24,ｉ８株式会社,,株式会社,東京都,渋谷区,道玄坂１丁目１０番８号渋谷道玄坂東急ビル２Ｆ－Ｃ,,13,113,1500043,,,,,,,2023-10-24,1,,,,,アイエイト,0
878,4011001157717,新規,0,2023-10-24,2023-10-24,株式会社Ｒｅ‐Ｂｒａｎｄｉｎｇ,,株式会社,東京都,渋谷区,道玄坂１丁目１０番８号渋谷道玄坂東急ビル２Ｆ－Ｃ,,13,113,1500043,,,,,,,2023-10-24,1,,,,,リブランディング,0
886,4011101104890,新規,0,2023-10-24,2023-10-24,西陽株式会社,,株式会社,東京都,新宿区,新宿７丁目２６番４０号,,13,104,1600022,,,,,,,2023-10-24,1,,,,,セイヨウ,0
888,4011103013652,新規,0,2023-10-24,2023-10-24,合同会社マッチングイベンツナガイ,,合同会社,東京都,新宿区,余丁町５番８号クレアトゥール新宿４０２,,13,104,1620055,,,,,,,2023-10-24,1,,,,,マッチングイベンツナガイ,0
889,4011201024997,新規,0,2023-10-24,2023-10-24,ＨＩＫＡＲＩ株式会社,,株式会社,東京都,中野区,東中野４丁目１７番９号第１よしかめコーポ２０１号,,13,114,1640003,,,,,,,2023-10-24,1,,,,,ヒカリ,0
892,4011301029104,新規,0,2023-10-24,2023-10-24,日吉株式会社,,株式会社,東京都,杉並区,高円寺南２丁目２－１３アンビエンス高円寺３階Ｄ室,,13,115,1660003,,,,,,,2023-10-24,1,,,,,ヒヨシ,0
893,4011303004947,新規,0,2023-10-24,2023-10-24,合同会社ａｎｄ　Ｔ,,合同会社,東京都,杉並区,久我山１丁目４－１８,,13,115,1680082,,,,,,,2023-10-24,1,,,,,アンドティー,0
895,4011503005811,新規,0,2023-10-24,2023-10-24,豆柴合同会社,,合同会社,東京都,荒川区,町屋５丁目１７番２４－１４０６号,,13,118,1160001,,,,,,,2023-10-24,1,,,,,マメシバ,0
896,4011601027195,新規,0,2023-10-24,2023-10-24,桃花源株式会社,,株式会社,東京都,練馬区,旭町２丁目２２－８ソル・レヴェンテ２０１号室,,13,120,1790071,,,,,,,2023-10-24,1,,,,,トカゲン,0
900,4011801043224,新規,0,2023-10-24,2023-10-24,株式会社Ｎ・ｂｒｉｇｈｔ,,株式会社,東京都,足立区,本木２丁目１８番３号,,13,121,1230853,,,,,,,2023-10-24,1,,,,,エヌブライト,0
903,4012303001892,新規,0,2023-10-24,2023-10-24,合同会社クラフト,,合同会社,東京都,町田市,小山町５２３番地４２,,13,209,1940212,,,,,,,2023-10-24,1,,,,,クラフト,0
905,4012401041139,新規,0,2023-10-24,2023-10-24,株式会社ヒロユキ,,株式会社,東京都,稲城市,矢野口６７８番地,,13,225,2060812,,,,,,,2023-10-24,1,,,,,ヒロユキ,0
907,4013101009269,新規,0,2023-10-24,2023-10-24,株式会社ＲＥＡＬＷＯＲＫＳ,,株式会社,東京都,あきる野市,秋川６丁目５番地１５シャンボールパレス２０３号,,13,228,1970804,,,,,,,2023-10-24,1,,,,,リアルワークス,0
915,4020001153997,新規,0,2023-10-24,2023-10-24,株式会社渡辺産業,,株式会社,神奈川県,横浜市泉区,上飯田町８６４番地１,,14,116,2450018,,,,,,,2023-10-24,1,,,,,ワタナベサンギョウ,0
919,4020003024817,新規,0,2023-10-24,2023-10-24,合同会社イノーヴィス,,合同会社,神奈川県,川崎市川崎区,旭町２丁目１２番１４号,,14,131,2100808,,,,,,,2023-10-24,1,,,,,イノーヴィス,0
935,4021005012917,新規,0,2023-10-24,2023-10-24,一般社団法人資産相続相談センター,,その他の設立登記法人,神奈川県,藤沢市,辻堂神台１丁目３番３９号,,14,205,2510041,,,,,,,2023-10-24,1,,,,,シサンソウゾクソウダンセンター,0
940,4030001156801,新規,0,2023-10-24,2023-10-24,キングド株式会社,,株式会社,埼玉県,戸田市,下前２丁目１１番６号エマーユ戸田公園３、２０５号室,,11,224,3350016,,,,,,,2023-10-24,1,,,,,キングド,0
941,4030001156818,新規,0,2023-10-24,2023-10-24,株式会社羅針盤,,株式会社,埼玉県,蕨市,北町１丁目１９番２号,,11,223,3350001,,,,,,,2023-10-24,1,,,,,ラシンバン,0
946,4030003022852,新規,0,2023-10-24,2023-10-24,アーサー解体興業合同会社,,合同会社,埼玉県,川口市,戸塚東４丁目２６番２４号リノヴァーレ１０４号,,11,203,3330802,,,,,,,2023-10-24,1,,,,,アーサーカイタイコウギョウ,0
956,4040001130648,新規,0,2023-10-24,2023-10-24,ＳＢＬ株式会社,,株式会社,千葉県,印西市,鹿黒南２丁目２グッドマンビジネスパークノース,,12,231,2701369,,,,,,,2023-10-24,1,,,,,エスビーエル,0
959,4040003023585,新規,0,2023-10-24,2023-10-24,合同会社ＪＹＭサポート,,合同会社,千葉県,柏市,増尾２丁目１５番１３号,,12,217,2770033,,,,,,,2023-10-24,1,,,,,ジェイワイエムサポート,0
960,4040005022164,新規,0,2023-10-24,2023-10-24,医療法人社団新志会,,その他の設立登記法人,千葉県,市川市,妙典４丁目１０番２８号クリサンテーム妙典ＩＩ１階Ａ・Ｂ号室,00132385,12,203,2720111,,,,,,,2023-10-24,1,,,,,シンシカイ,0
961,4040005022172,新規,0,2023-10-24,2023-10-24,行政書士法人サイオン,,その他の設立登記法人,千葉県,松戸市,本町一丁目２３番Ｗ松戸７階７１０号室,,12,207,2710091,,,,,,,2023-10-24,1,,,,,サイオン,0
974,4070001040992,新規,0,2023-10-24,2023-10-24,ＦＲリンクス株式会社,,株式会社,群馬県,太田市,緑町８１－３,,10,205,3730073,,,,,,,2023-10-24,1,,,,,エフアールリンクス,0
977,4080101024291,新規,0,2023-10-24,2023-10-24,株式会社ローカルブレイクアウト,,株式会社,静岡県,熱海市,梅園町１－１－１１０７,,22,205,4130032,,,,,,,2023-10-24,1,,,,,ローカルブレイクアウト,0
979,4100001036905,新規,0,2023-10-24,2023-10-24,株式会社シルクイン,,株式会社,長野県,飯山市,大字飯山１１４９２番地３７６,,20,213,3892253,,,,,,,2023-10-24,1,,,,,シルクイン,0
989,4120001258877,新規,0,2023-10-24,2023-10-24,株式会社アールエー,,株式会社,大阪府,大阪市天王寺区,東高津町６番７号ドルチェ上本町７０１号,,27,109,5430021,,,,,,,2023-10-24,1,,,,,アールエー,0
990,4120001259058,新規,0,2023-10-24,2023-10-24,ＮＢＳ株式会社,,株式会社,大阪府,大阪市生野区,桃谷１丁目１１番２２－３０１号,,27,116,5440034,,,,,,,2023-10-24,1,,,,,エヌビーエス,0
991,4120001259066,新規,0,2023-10-24,2023-10-24,東大株式会社,,株式会社,大阪府,大阪市大正区,三軒家西３丁目４番１６号中山ビル１０３６,,27,108,5510001,,,,,,,2023-10-24,1,,,,,トウダイ,0
992,4120001259082,新規,0,2023-10-24,2023-10-24,株式会社プラシア,,株式会社,大阪府,大阪市旭区,今市１丁目１８番１１号グレイスビル１Ｆ,,27,117,5350011,,,,,,,2023-10-24,1,,,,,プラシア,0
993,4120001259116,新規,0,2023-10-24,2023-10-24,株式会社ＳＣＳ,,株式会社,大阪府,大阪市中央区,南船場３丁目１１番１０心斎橋大陽ビルＢ１Ｆ,,27,128,5420081,,,,,,,2023-10-24,1,,,,,エスシーエス,0
995,4120003025177,新規,0,2023-10-24,2023-10-24,合同会社喜縁,,合同会社,大阪府,大阪市住吉区,帝塚山西１丁目１１番Ｂ－４０１号,,27,120,5580052,,,,,,,2023-10-24,1,,,,,シエン,0
998,4120901048254,新規,0,2023-10-24,2023-10-24,株式会社さく,,株式会社,大阪府,豊中市,緑丘２丁目１９番１０号,,27,203,5600002,,,,,,,2023-10-24,1,,,,,サク,0
1000,4130001075438,新規,0,2023-10-24,2023-10-24,株式会社ＴＯＳＴＡＲＳ,,株式会社,京都府,京都市東山区,東大路松原上る三丁目下弁天町５２番地,,26,105,6050000,,,,,,,2023-10-24,1,,,,,トースターズ,0
1001,4130001075470,新規,0,2023-10-24,2023-10-24,ＣＬＯＶＥＲＳ株式会社,,株式会社,京都府,京都市伏見区,桃山与五郎町１番地４７４,,26,109,6128025,,,,,,,2023-10-24,1,,,,,クローバーズ,0
1008,4140001132015,新規,0,2023-10-24,2023-10-24,株式会社エトゥールグループホールディングス,,株式会社,兵庫県,尼崎市,崇徳院３丁目５２番地２,,28,202,6600071,,,,,,,2023-10-24,1,,,,,エトゥールグループホールディングス,0
1014,4150003003106,新規,0,2023-10-24,2023-10-24,合同会社プラネデント,,合同会社,奈良県,生駒市,真弓１丁目１番８号ディアコート真弓１階,,29,209,6300122,,,,,,,2023-10-24,1,,,,,プラネデント,0
1016,4160001025448,新規,0,2023-10-24,2023-10-24,株式会社ＩＴＯＧＥＮ,,株式会社,滋賀県,大津市,衣川３丁目２番３７号,,25,201,5200244,,,,,,,2023-10-24,1,,,,,イトゲン,0
1032,4200001041853,新規,0,2023-10-24,2023-10-24,株式会社ＫＭ商事,,株式会社,岐阜県,中津川市,新町８番５号,,21,206,5080038,,,,,,,2023-10-24,1,,,,,ケーエムショウジ,0
1042,4240001062301,新規,0,2023-10-24,2023-10-24,株式会社パワフルエネルギー,,株式会社,広島県,福山市,松浜町１丁目１番３４号,,34,207,7200802,,,,,,,2023-10-24,1,,,,,パワフルエネルギー,0
1045,4250001020365,新規,0,2023-10-24,2023-10-24,株式会社郷人,,株式会社,山口県,周南市,大字栗屋７８６－６,,35,215,7450802,,,,,,,2023-10-24,1,,,,,ゴウト,0
1058,4290001103488,新規,0,2023-10-24,2023-10-24,株式会社ポライト,,株式会社,福岡県,糸島市,志摩桜井２４３５番地２３,,40,230,8191304,,,,,,,2023-10-24,1,,,,,ポライト,0
1059,4290001103496,新規,0,2023-10-24,2023-10-24,株式会社五条,,株式会社,福岡県,大牟田市,大字歴木１８０７番地４７０,,40,202,8370924,,,,,,,2023-10-24,1,,,,,ゴジョウ,0
1061,4290003014527,新規,0,2023-10-24,2023-10-24,よしの米穀合同会社,,合同会社,福岡県,飯塚市,北古賀２２３番地６,,40,205,8200703,,,,,,,2023-10-24,1,,,,,ヨシノベイコク,0
1062,4290003014535,新規,0,2023-10-24,2023-10-24,合同会社ＢＲＳ,,合同会社,福岡県,福岡市南区,曰佐４丁目１８番３７－１１０号ハイツ立川,,40,134,8111313,,,,,,,2023-10-24,1,,,,,ビーアールエス,0
1063,4290005019177,新規,0,2023-10-24,2023-10-24,特定非営利活動法人あーすちゃれんじゃー,,その他の設立登記法人,福岡県,小郡市,希みが丘６丁目１５番地６,,40,216,8380107,,,,,,,2023-10-24,1,,,,,アースチャレンジャー,0
1064,4290801029957,新規,0,2023-10-24,2023-10-24,株式会社点,,株式会社,福岡県,北九州市八幡西区,沖田１丁目１２番２０号,,40,109,8070077,,,,,,,2023-10-24,1,,,,,テン,0
1066,4310001018675,新規,0,2023-10-24,2023-10-24,株式会社ウッドツリー,,株式会社,長崎県,佐世保市,小佐々町黒石１８６番地５,,42,202,8570401,,,,,,,2023-10-24,1,,,,,ウッドツリー,0
1072,4330003010034,新規,0,2023-10-24,2023-10-24,合同会社正源司管財,,合同会社,熊本県,熊本市北区,清水亀井町３９番６８号,,43,105,8618066,,,,,,,2023-10-24,1,,,,,ショウゲンジカンザイ,0
1074,4340003004290,新規,0,2023-10-24,2023-10-24,Ｌｅｔｈｅａｎｙ＆Ｃｏ．合同会社,,合同会社,鹿児島県,姶良市,脇元４９２,,46,225,8995651,,,,,,,2023-10-24,1,,,,,レシアニーアンドコー,0
1076,4360003013389,新規,0,2023-10-24,2023-10-24,合同会社克心会,,合同会社,沖縄県,石垣市,字真栄里２７３－１、Ａ－１０２、１０３,,47,207,9070002,,,,,,,2023-10-24,1,,,,,コクシンカイ,0
1078,4370001050516,新規,0,2023-10-24,2023-10-24,株式会社川島,,株式会社,宮城県,仙台市太白区,日本平１７－１３,,04,104,9820221,,,,,,,2023-10-24,1,,,,,カワシマ,0
1080,4370003006334,新規,0,2023-10-24,2023-10-24,合同会社リクセラレータ,,合同会社,宮城県,仙台市太白区,長町４丁目７－３０－１０６,,04,104,9820011,,,,,,,2023-10-24,1,,,,,リクセラレータ,0
1085,4390001017406,新規,0,2023-10-24,2023-10-24,株式会社Ｄｒｏｎｅ　Ｌｉｆｅあかとんぼ,,株式会社,山形県,山形市,八日町２丁目１－１１,,06,201,9900037,,,,,,,2023-10-24,1,,,,,ドローンライフアカトンボ,0
1086,4410005006550,新規,0,2023-10-24,2023-10-24,淀川村開拓農業協同組合,,その他の設立登記法人,秋田県,大仙市,協和下淀川字馬場２０番地の２,,05,212,0192442,,,,,,,2023-10-24,1,,,,,,0
1089,4430001090266,新規,0,2023-10-24,2023-10-24,株式会社ＷＨＩＴＥ　ＭＥＭＳ,,株式会社,北海道,札幌市中央区,南二条西３丁目１２‐５,,01,101,0600062,,,,,,,2023-10-24,1,,,,,ホワイトメムズ,0
1090,4430001090274,新規,0,2023-10-24,2023-10-24,株式会社まるたけ,,株式会社,北海道,石狩市,花川南五条１丁目１４番地,,01,235,0613205,,,,,,,2023-10-24,1,,,,,マルタケ,0
1095,4450003002399,新規,0,2023-10-24,2023-10-24,合同会社サポート企画,,合同会社,北海道,旭川市,永山六条２３丁目５番２４号,,01,204,0798416,,,,,,,2023-10-24,1,,,,,サポートキカク,0
1098,4490003001827,新規,0,2023-10-24,2023-10-24,開発コンサルタント合同会社,,合同会社,高知県,高知市,宇津野２３番地５,,39,201,7800031,,,,,,,2023-10-24,1,,,,,カイハツコンサルタント,0
1100,4500001025264,新規,0,2023-10-24,2023-10-24,株式会社成松,,株式会社,愛媛県,松山市,堀江町８１６番地５,,38,201,7992651,,,,,,,2023-10-24,1,,,,,ナリマツ,0
1105,4700150113972,新規,0,2023-10-24,2023-10-24,Ｈｏｎｇｋｏｎｇ　Ｇｌｏｂｅｂｉｚ　Ｃｏ．，Ｌｉｍｉｔｅｄ,,外国会社等,,,,,,,,ＦＬＡＴ　ＲＭ　７０５，７／Ｆ，ＦＡ　ＹＵＥＮ　ＣＯＭＭ　ＢＬＤＧ　ＮＯ．７５，ＦＡ　ＹＵＥＮ　ＳＴＲＥＥＴ　ＭＯＮＧ　ＫＯＫ　ＫＬ　９９９０７７　ＨＫ,,,,,,2023-10-24,1,,,,,シィァンガングェァルゥンブーシャンウーヨウシィェンゴンスー,0
1113,5010001239433,新規,0,2023-10-24,2023-10-24,株式会社ＳＴＯＣＫ１３１,,株式会社,東京都,千代田区,永田町２丁目１２番４号,,13,101,1000014,,,,,,,2023-10-24,1,,,,,ストックヒャクサンジュウイチ,0
1114,5010003041985,新規,0,2023-10-24,2023-10-24,ＡＲＣ　Ｗｏｒｋｓ合同会社,,合同会社,東京都,中央区,晴海５丁目１－９晴海テラス２００５号室,,13,102,1040053,,,,,,,2023-10-24,1,,,,,アークワークス,0
1119,5010401177968,新規,0,2023-10-24,2023-10-24,株式会社ＢＡＫＵＧＡＩ,,株式会社,東京都,港区,芝浦４丁目１２番３１号ＶＯＲＴ芝浦ＷａｔｅｒＦｒｏｎｔ３階,,13,103,1080023,,,,,,,2023-10-24,1,,,,,バクガイ,0
1120,5010401178009,新規,0,2023-10-24,2023-10-24,Ｍｉｒｒｏｒ　ｉｎ株式会社,,株式会社,東京都,港区,西麻布３丁目６番１号六本木センチュリオンタワー８階,,13,103,1060031,,,,,,,2023-10-24,1,,,,,ミラーイン,0
1121,5010401178074,新規,0,2023-10-24,2023-10-24,株式会社Ｅｇｒｅｇｉｕｍ,,株式会社,東京都,港区,三田２丁目２１－１６,,13,103,1080073,,,,,,,2023-10-24,1,,,,,エグレギウム,0
1124,5010405022591,新規,0,2023-10-24,2023-10-24,一般社団法人本との出会いホントの出会い,,その他の設立登記法人,東京都,港区,浜松町２丁目２番１５号浜松町ダイヤビル２Ｆ,,13,103,1050013,,,,,,,2023-10-24,1,,,,,ホントノデアイホントノデアイ,0
1127,5010601064000,新規,0,2023-10-24,2023-10-24,アークソフト株式会社,,株式会社,東京都,江東区,深川１丁目１番２号協和ビル（シャンボール門前仲町）２階７号室,,13,108,1350033,,,,,,,2023-10-24,1,,,,,アークソフト,0
1132,5010705003556,新規,0,2023-10-24,2023-10-24,一般社団法人介護・相続お金サポート協会,,その他の設立登記法人,東京都,品川区,二葉１丁目１２番６号,,13,109,1420043,,,,,,,2023-10-24,1,,,,,カイゴソウゾクオカネサポートキョウカイ,0
1141,5011001157682,新規,0,2023-10-24,2023-10-24,株式会社ｗｅｓｔｔｅｒｎ,,株式会社,東京都,渋谷区,代官山町８－７Ｄａｉｗａ代官山ビル３０８,,13,113,1500034,,,,,,,2023-10-24,1,,,,,ウエスターン,0
1142,5011001157699,新規,0,2023-10-24,2023-10-24,ＳＴＹＬＥ　ＶＥＲＳＥ株式会社,,株式会社,東京都,渋谷区,神宮前２丁目３４番１７号,,13,113,1500001,,,,,,,2023-10-24,1,,,,,スタイルバース,0
1143,5011001157831,新規,0,2023-10-24,2023-10-24,株式会社ＣｅｌｌＣｒｅｗｓ,,株式会社,東京都,渋谷区,恵比寿西２丁目１７番８号Ｉ．Ｔ．Ｏ代官山２０３号,,13,113,1500021,,,,,,,2023-10-24,1,,,,,セルクルーズ,0
1147,5011003017686,新規,0,2023-10-24,2023-10-24,合同会社ＡＳ　ＲＥＩＴ,,合同会社,東京都,目黒区,三田２丁目４番３号,,13,110,1530062,,,,,,,2023-10-24,1,,,,,アスリート,0
1149,5011101104898,新規,0,2023-10-24,2023-10-24,株式会社ＵＯＡ,,株式会社,東京都,新宿区,新宿２丁目１２－４アコード新宿ビル３０２,,13,104,1600022,,,,,,,2023-10-24,1,,,,,ユーオーエー,0
1152,5011303004946,新規,0,2023-10-24,2023-10-24,ｍｎｃｏ‐ｔｅｃａ合同会社,,合同会社,東京都,杉並区,下井草５丁目９番１２号,,13,115,1670022,,,,,,,2023-10-24,1,,,,,エムエヌコーテカ,0
1158,5011803005898,新規,0,2023-10-24,2023-10-24,合同会社ルクリステーション,,合同会社,東京都,足立区,梅田１丁目１３―１３,,13,121,1230851,,,,,,,2023-10-24,1,,,,,ルクリステーション,0
1163,5013301051524,新規,0,2023-10-24,2023-10-24,株式会社Ｌｅａｄｉｎｇ　Ｒｏｌｅ,,株式会社,東京都,豊島区,南大塚２丁目２５番１５号,,13,116,1700005,,,,,,,2023-10-24,1,,,,,リーディングロール,0
1174,5020001154086,新規,0,2023-10-24,2023-10-24,株式会社Ｕ‐ＬＩＦＥ,,株式会社,神奈川県,横浜市西区,楠町１番地３－２０３号,,14,103,2200003,,,,,,,2023-10-24,1,,,,,ユーライフ,0
1180,5020005016159,新規,0,2023-10-24,2023-10-24,土地家屋調査士法人ボーダーストーンズ,,その他の設立登記法人,神奈川県,横浜市旭区,本村町３７番地２２,,14,112,2410024,,,,,,,2023-10-24,1,,,,,ボーダーストーンズ,0
1188,5021003013734,新規,0,2023-10-24,2023-10-24,合同会社ｐａｎｄａ．,,合同会社,神奈川県,横須賀市,秋谷４３０９,,14,201,2400105,,,,,,,2023-10-24,1,,,,,パンダ,0
1195,5030001156817,新規,0,2023-10-24,2023-10-24,ｉｍｐＳＴａｇｅ株式会社,,株式会社,埼玉県,さいたま市大宮区,堀の内町３丁目４９番地２,,11,103,3300804,,,,,,,2023-10-24,1,,,,,インプステージ,0
1205,5030005021439,新規,0,2023-10-24,2023-10-24,医療法人みらい会,,その他の設立登記法人,埼玉県,川口市,並木３丁目１番１号第二福原ビル３階,,11,203,3320034,,,,,,,2023-10-24,1,,,,,ミライカイ,0
1210,5050003007883,新規,0,2023-10-24,2023-10-24,合同会社はっぴーやみー,,合同会社,茨城県,行方市,谷島５８番地１コーポ寿２０５,,08,233,3113504,,,,,,,2023-10-24,1,,,,,ハッピーヤミー,0
1212,5060001036470,新規,0,2023-10-24,2023-10-24,株式会社Ｒ＆Ｅ,,株式会社,栃木県,那須塩原市,沓掛２丁目１６番地７（９８８タウンハウスＳ－７号）,,09,213,3293133,,,,,,,2023-10-24,1,,,,,アールアンドイー,0
1216,5070001041008,新規,0,2023-10-24,2023-10-24,株式会社ＭＨＲ,,株式会社,群馬県,高崎市,元島名町１００番地６,,10,202,3700014,,,,,,,2023-10-24,1,,,,,,0
1223,5080101024290,新規,0,2023-10-24,2023-10-24,面白企画開発株式会社,,株式会社,静岡県,伊東市,八幡野１７３９番地の３２浮山Ｄ３３－１,,22,208,4130232,,,,,,,2023-10-24,1,,,,,オモシロキカクカイハツ,0
1228,5090001018391,新規,0,2023-10-24,2023-10-24,株式会社Ｂ・エルモサ,,株式会社,山梨県,甲府市,武田３丁目３－５,,19,201,4000016,,,,,,,2023-10-24,1,,,,,ビーエルモサ,0
1230,5090003002410,新規,0,2023-10-24,2023-10-24,合同会社ｓｏｕｓｕｉ,,合同会社,山梨県,韮崎市,旭町上條北割１８３７番地７６,,19,207,4070044,,,,,,,2023-10-24,1,,,,,ソウスイ,0
1231,5100003007192,新規,0,2023-10-24,2023-10-24,合同会社Ｍａｔａｉｃｏ,,合同会社,長野県,北佐久郡軽井沢町,大字長倉２１３９番地２５０２,,20,321,3890111,,,,,,,2023-10-24,1,,,,,マタイコ,0
1251,5120001259024,新規,0,2023-10-24,2023-10-24,ＪＨＣトラベル株式会社,,株式会社,大阪府,大阪市西淀川区,柏里２丁目７－２６ラ・ピース塚本４０２号室,,27,113,5550022,,,,,,,2023-10-24,1,,,,,ジェイエイチシートラベル,0
1252,5120001259032,新規,0,2023-10-24,2023-10-24,懿＿株式会社,00132379,株式会社,大阪府,大阪市阿倍野区,松崎町３丁目３－１３アベノ松崎町ハイツ５２３室,,27,119,5450053,,,,,,,2023-10-24,1,,,,,イキン,0
1253,5120001259049,新規,0,2023-10-24,2023-10-24,金秋株式会社,,株式会社,大阪府,大阪市中央区,北久宝寺町１丁目５番６－５０８号,,27,128,5410057,,,,,,,2023-10-24,1,,,,,キンシュウ,0
1254,5120001259098,新規,0,2023-10-24,2023-10-24,株式会社ＭＩＵ,,株式会社,大阪府,大阪市東成区,大今里西２丁目１７番１６号７階,,27,115,5370014,,,,,,,2023-10-24,1,,,,,エムアイユー,0
1255,5120001259107,新規,0,2023-10-24,2023-10-24,株式会社小島工業,,株式会社,大阪府,寝屋川市,点野３丁目１２番２０号,,27,215,5720077,,,,,,,2023-10-24,1,,,,,コジマコウギョウ,0
1256,5120001259123,新規,0,2023-10-24,2023-10-24,株式会社Ａｅ,,株式会社,大阪府,枚方市,東香里元町１６番３６号,,27,210,5730076,,,,,,,2023-10-24,1,,,,,エーイー,0
1257,5120001259131,新規,0,2023-10-24,2023-10-24,インテリスク株式会社,,株式会社,大阪府,大阪市中央区,平野町２丁目２－１２,,27,128,5410046,,,,,,,2023-10-24,1,,,,,インテリスク,0
1258,5120001259164,新規,0,2023-10-24,2023-10-24,ユニキャストロボスタッフィング株式会社,,株式会社,大阪府,大阪市中央区,平野町３丁目３番１０号,,27,128,5410046,,,,,,,2023-10-24,1,,,,,ユニキャストロボスタッフィング,0
1263,5120003025135,新規,0,2023-10-24,2023-10-24,ＨａｐｐｙＳｔａｙ合同会社,,合同会社,大阪府,大阪市淀川区,野中北１丁目１３番２号,,27,123,5320034,,,,,,,2023-10-24,1,,,,,ハッピーステイ,0
1264,5120003025151,新規,0,2023-10-24,2023-10-24,合同会社奥山博工務店,,合同会社,大阪府,大阪市住吉区,上住吉１丁目７番６０号クリエオーレ上住吉３０１号,,27,120,5580046,,,,,,,2023-10-24,1,,,,,オクヤマヒロコウムテン,0
1265,5120003025168,新規,0,2023-10-24,2023-10-24,合同会社一粟,,合同会社,大阪府,大阪市生野区,田島５丁目１８番４号２０２号室,,27,116,5440011,,,,,,,2023-10-24,1,,,,,イチゾク,0
1268,5120103005508,新規,0,2023-10-24,2023-10-24,合同会社だんだん整体整骨院,,合同会社,大阪府,貝塚市,澤９７７番地２４,,27,208,5970062,,,,,,,2023-10-24,1,,,,,,0
1269,5120901048237,新規,0,2023-10-24,2023-10-24,株式会社ユリウス,,株式会社,大阪府,摂津市,鳥飼野々１丁目９番４－１０号,,27,224,5660053,,,,,,,2023-10-24,1,,,,,ユリウス,0
1270,5120901048253,新規,0,2023-10-24,2023-10-24,株式会社名人の旅,,株式会社,大阪府,豊中市,豊南町西４丁目２６－１８,,27,203,5610816,,,,,,,2023-10-24,1,,,,,メイジンノタビ,0
1291,5140001132039,新規,0,2023-10-24,2023-10-24,株式会社田中建築,,株式会社,兵庫県,神戸市垂水区,福田５丁目６番７号,,28,108,6550013,,,,,,,2023-10-24,1,,,,,タナカケンチク,0
1292,5140001132047,新規,0,2023-10-24,2023-10-24,株式会社ｅｔ　ｓｅｎｓｅ,,株式会社,兵庫県,神戸市西区,伊川谷町有瀬８００番地の２３,,28,111,6512113,,,,,,,2023-10-24,1,,,,,エセンス,0
1295,5150003003105,新規,0,2023-10-24,2023-10-24,合同会社サンキ配送,,合同会社,奈良県,橿原市,西池尻町２６６番地１２,,29,205,6340821,,,,,,,2023-10-24,1,,,,,サンキハイソウ,0
1305,5180005020401,新規,0,2023-10-24,2023-10-24,特定非営利活動法人ららさぽーと,,その他の設立登記法人,愛知県,稲沢市,松下１丁目１３番２０号,,23,220,4928208,,,,,,,2023-10-24,1,,,,,ララサポート,0
1313,5200003006119,新規,0,2023-10-24,2023-10-24,合同会社成瀬鉄工,,合同会社,岐阜県,瑞浪市,小田町１１６９番地,,21,208,5096112,,,,,,,2023-10-24,1,,,,,ナルセテッコウ,0
1318,5240001062309,新規,0,2023-10-24,2023-10-24,株式会社ＺＥＲＯ‐ＩＣＨＩ,,株式会社,広島県,呉市,警固屋５丁目１０番７号,,34,202,7370012,,,,,,,2023-10-24,1,,,,,ゼロイチ,0
1319,5240001062317,新規,0,2023-10-24,2023-10-24,株式会社栄己建設,,株式会社,広島県,広島市安佐北区,あさひが丘１丁目３０－４,,34,106,7313361,,,,,,,2023-10-24,1,,,,,エイキケンセツ,0
1320,5240003006379,新規,0,2023-10-24,2023-10-24,合同会社フリーサイト,,合同会社,広島県,広島市安佐南区,安東５丁目１９－９－１,,34,105,7310153,,,,,,,2023-10-24,1,,,,,フリーサイト,0
1321,5260001038439,新規,0,2023-10-24,2023-10-24,四木商事株式会社,,株式会社,岡山県,岡山市東区,金田３８４,,33,103,7048196,,,,,,,2023-10-24,1,,,,,,0
1327,5290001103537,新規,0,2023-10-24,2023-10-24,株式会社Ｔｏｒｅａｄｏｒ,,株式会社,福岡県,福岡市中央区,天神４丁目６－２８天神ファーストビル７階,,40,133,8100001,,,,,,,2023-10-24,1,,,,,トレアドール,0
1331,5300001013511,新規,0,2023-10-24,2023-10-24,株式会社三和建設,,株式会社,佐賀県,佐賀市,大和町大字川上５１２番地川上リゾートＣ棟,,41,201,8400214,,,,,,,2023-10-24,1,,,,,サンワケンセツ,0
1350,5430001090158,新規,0,2023-10-24,2023-10-24,株式会社ムビリス,,株式会社,北海道,札幌市中央区,南一条西１６丁目１番地３２３春野ビル３Ｆ,,01,101,0600061,,,,,,,2023-10-24,1,,,,,ムビリス,0
1351,5430001090265,新規,0,2023-10-24,2023-10-24,株式会社ファルムコンサルティング,,株式会社,北海道,札幌市中央区,北五条西１１丁目１５番地４ＢＹＹＡＲＤビル３階,,01,101,0600005,,,,,,,2023-10-24,1,,,,,ファルムコンサルティング,0
1352,5440001009339,新規,0,2023-10-24,2023-10-24,株式会社エスアールディ千代田ファーム,,株式会社,北海道,北斗市,千代田１００番地,,01,236,0411222,,,,,,,2023-10-24,1,,,,,エスアールディチヨダファーム,0
1356,5500001025263,新規,0,2023-10-24,2023-10-24,株式会社Ｎｉａ．,,株式会社,愛媛県,西条市,禎瑞５３２番地１,,38,206,7930061,,,,,,,2023-10-24,1,,,,,ニア,0
1358,5700150109805,新規,0,2023-10-24,2022-06-15,Ｖｏｃｅｓ　Ｔｏｋｙｏ,,その他,神奈川県,横浜市鶴見区,東寺尾中台１７－９,,14,101,2300017,,,,,,,2022-06-15,1,,,,,ボーチエストウキヨウ,0
1359,5700150114747,新規,0,2023-10-24,2023-10-24,ｈｅｚｈｏｕ　ｓｈｉ　ｊｉｎｇｌｉｎｇ　Ｔｅｃｈｎｏｌｏｇｙ　Ｃｏ．，Ｌｔｄ．,,外国会社等,,,,,,,,Ｒｏｏｍ２０１，２ｎｄ　Ｆｌｏｏｒ，Ｂｕｉｌｄｉｎｇ　２４５，Ｊｉａｎｓｈｅ　Ｗｅｓｔ　Ｒｏａｄ，Ｇｕａｎｇｍｉｎｇ　Ｃｏｍｍｕｎｉｔｙ，Ｂａｂｕ　Ｄｉｓｔｒｉｃｔ　Ｈｅｚｈｏｕ　Ｇｕａｎｇｘｉ　５４２８００　ＣＮ,,,,,,2023-10-24,1,,,,,ファアヂョウシージンリンクァアジーヨウシィェンゴンスー,0
1360,5700150114821,新規,0,2023-10-24,2023-10-24,Ｓｈｅｎｚｈｅｎｓｈｉ　Ｃｈｕｂｏｋｅｊｉ　Ｙｏｕｘｉａｎｇｏｎｇｓｉ,,外国会社等,,,,,,,,Ｎｏ．２００８．Ｘｕｅｇａｎｇ　Ｒｏａｄ，Ｇａｎｇｔｏｕ　Ｃｏｍｍｕｎｉｔｙ．Ｂａｎｔｉａｎ　Ｓｔｒｅｅｔ　Ｒｏｏｍ　５０４，５ｔｈ　Ｆｌｏｏｒ，Ｂｕｉｌｄｉｎｇ　Ａ，Ｂａｓｅｕｓ　Ｓｍａｒｔ　Ｐａｒｋ　Ｓｈｅｎｚｈｅｎ　Ｌｏｎｇｇａｎｇ　Ｇｕａｎｇｄｏｎｇ　５１８０００　ＣＮ,,,,,,2023-10-24,1,,,,,シェンヂェンチュブォクァアジーヨウシィェンゴンスー,0
1361,5700150116000,新規,0,2023-10-24,2023-10-24,Ｂｏ　Ｚｈｕｏ　Ｅ－Ｂｕｓｉｎｅｓｓ　Ｃｏｍｐａｎｙ　Ｌｔｄ．,,外国会社等,,,,,,,,Ｒｏｏｍ　５０３，Ｂｕｉｌｄｉｎｇ　Ｂ，Ｔａｏ　Ｍａｌｌ，Ｙｕｅ　Ｊｉｎ　Ｍｉｄ．Ｒｏａｄ，Ｂｅｉｊｉａｏ，Ｓｈｕｎｄｅ　Ｄｉｓｔｒｉｃｔ．Ｆｏｓｈａｎ，Ｇｕａｎｇｄｏｎｇ　５２８３１１　ＣＮ,,,,,,2023-10-24,1,,,,,フォーシャンシボージュオディエンズーシャンウヨウシェンゴンスー,0
1362,5700150117386,新規,0,2023-10-24,2023-10-24,ｓｈｅｎｚｈｅｎｈａｉｃｈｕａｎｇｄｉａｎｓｈａｎｇｋｅｊｉｙｏｕｘｉａｎｇｏｎｇｓｉ,,外国会社等,,,,,,,,Ｍｉｎｌｅ　Ｃｏｍｍｕｎｉｔｙ，Ｍｉｎｚｈｉ　Ｓｔｒｅｅｔ，Ｌｏｎｇｈｕａ　Ｄｉｓｔｒｉｃｔ　１２０９，Ｂｕｉｌｄｉｎｇ　Ｅ，Ｐｈａｓｅ　２，Ｇａｌａｘｙ　ＷＯＲＬＤ　Ｓｈｅｎｚｈｅｎ　Ｇｕａｎｇｄｏｎｇ　Ｃｈｉｎａ,,,,,,2023-10-24,1,,,,,シンセンカイソウデンショウテクノロジーユウゲンカイシャ,0
1363,5700150121339,新規,0,2023-10-24,2023-10-24,Ｓｈｅｎｚｈｅｎｓｈｉ　Ｙａｎｓｈｅｎｇ　Ｔｅｃｈｎｏｌｏｇｙ　Ｃｏ．，Ｌｔｄ,,外国会社等,,,,,,,,１０Ｇ，Ｘｉｎｇｈｕｉ　Ｐａｖｉｌｉｏｎ，Ｎａｎｊｉｎｇ　Ｈａｏｔｉｎｇ，Ｂａｏｌｉｎｇ　Ｃｏｍｍｕｎｉｔｙ，Ｎａｎｗａｎ　Ｓｔｒｅｅｔ，Ｌｏｎｇｇａｎｇ　Ｄｉｓｔｒｉｃｔ，Ｓｈｅｎｚｈｅｎ,,,,,,2023-10-24,1,,,,,シェンジェンシーイエンションコージーヨウシエンゴンスー,0
1370,6010001239432,新規,0,2023-10-24,2023-10-24,株式会社ＳＴＯＣＫ１３０,,株式会社,東京都,千代田区,永田町２丁目１２番４号,,13,101,1000014,,,,,,,2023-10-24,1,,,,,ストックヒャクサンジュウ,0
1371,6010001239449,新規,0,2023-10-24,2023-10-24,株式会社ＩＬＥ,,株式会社,東京都,千代田区,平河町１丁目７番１号ライオンズマンション平河町Ｗ３０１号,,13,101,1020093,,,,,,,2023-10-24,1,,,,,アイル,0
1372,6010001239457,新規,0,2023-10-24,2023-10-24,株式会社レアモ,,株式会社,東京都,中央区,日本橋大伝馬町１２番２０号ＫＫビル１階,,13,102,1030011,,,,,,,2023-10-24,1,,,,,,0
1373,6010003042009,新規,0,2023-10-24,2023-10-24,合同会社ＳＣＳ,,合同会社,東京都,中央区,銀座１丁目１２番４号Ｎ＆Ｅ、ＢＬＤ．７階,,13,102,1040061,,,,,,,2023-10-24,1,,,,,エスシーエス,0
1385,6010401177934,新規,0,2023-10-24,2023-10-24,３ＬＩＮＫＳ株式会社,,株式会社,東京都,港区,赤坂２丁目１７番６５－１０７号,,13,103,1070052,,,,,,,2023-10-24,1,,,,,スリーリンクス,0
1386,6010401177967,新規,0,2023-10-24,2023-10-24,ＢＯＬＤＡＳ株式会社,,株式会社,東京都,港区,北青山１丁目３番１号アールキューブ青山３階,,13,103,1070061,,,,,,,2023-10-24,1,,,,,ボルダス,0
1387,6010401178032,新規,0,2023-10-24,2023-10-24,ＭＵＳＵＢＩ株式会社,,株式会社,東京都,港区,赤坂３丁目２１番５号三銀ビル６０２,,13,103,1070052,,,,,,,2023-10-24,1,,,,,ムスビ,0
1388,6010401178065,新規,0,2023-10-24,2023-10-24,ＨＯＢＯ株式会社,,株式会社,東京都,港区,白金１丁目２番１－Ｅ２９１６号,,13,103,1080072,,,,,,,2023-10-24,1,,,,,ホウボウ,0
1391,6010403031222,新規,0,2023-10-24,2023-10-24,合同会社月詠,,合同会社,東京都,港区,赤坂８丁目１１番１９号エクレール乃木坂１Ｆ,,13,103,1070052,,,,,,,2023-10-24,1,,,,,ツキヨミ,0
1396,6010601064008,新規,0,2023-10-24,2023-10-24,株式会社トライワークス,,株式会社,東京都,江東区,東砂３丁目１６番２０－３０７号,,13,108,1360074,,,,,,,2023-10-24,1,,,,,トライワークス,0
1407,6011103013650,新規,0,2023-10-24,2023-10-24,Ｃｏｍｍｕｎｉｃａｔｉｏｎ　Ｃｏｍｐｏｎｅｎｔｓ　Ａｎｔｅｎｎａ　Ｊａｐａｎ合同会社,,合同会社,東京都,新宿区,新宿２丁目２－１０サニープラザ新宿御苑６０５,,13,104,1600022,,,,,,,2023-10-24,1,,,,,コミュニケーションコンポーネンツアンテナジャパン,0
1408,6011203004203,新規,0,2023-10-24,2023-10-24,合同会社ＣＯＳＭＯ‐ＬＯＧＩ,,合同会社,東京都,中野区,松が丘２丁目１０番１０号カーサドソレイユ,,13,114,1650024,,,,,,,2023-10-24,1,,,,,コスモロジ,0
1413,6011401025554,新規,0,2023-10-24,2023-10-24,八甲田電気株式会社,,株式会社,東京都,板橋区,赤塚２丁目１１の２０５号ＴＯＰ下赤塚１,,13,119,1750092,,,,,,,2023-10-24,1,,,,,ハッコウダデンキ,0
1417,6011701026698,新規,0,2023-10-24,2023-10-24,株式会社Ａｒｉｅｓ,,株式会社,東京都,江戸川区,松島４丁目７番１０号キュリバー３０１号室,,13,123,1320031,,,,,,,2023-10-24,1,,,,,アリエス,0
1419,6011801043222,新規,0,2023-10-24,2023-10-24,Ｌｕｐｉｎａｓ株式会社,,株式会社,東京都,足立区,新田３丁目１番９号,,13,121,1230865,,,,,,,2023-10-24,1,,,,,ルピナス,0
1421,6012301013640,新規,0,2023-10-24,2023-10-24,株式会社ＳＵＮＲＩＳＥ　ＪＡＰＡＮ,,株式会社,東京都,町田市,野津田町２３８番地１１,,13,209,1950063,,,,,,,2023-10-24,1,,,,,サンライズジャパン,0
1435,6020001154110,新規,0,2023-10-24,2023-10-24,株式会社テラコ,,株式会社,神奈川県,横浜市中区,山手町３５番地１山手町コーポラスＢ棟６０７号室,,14,104,2310862,,,,,,,2023-10-24,1,,,,,テラコ,0
1436,6020001154119,新規,0,2023-10-24,2023-10-24,ザ・ブランディング株式会社,,株式会社,神奈川県,横浜市青葉区,美しが丘西３丁目５４番地１５,,14,117,2250001,,,,,,,2023-10-24,1,,,,,ザブランディング,0
1450,6021003013700,新規,0,2023-10-24,2023-10-24,ＣＡＬＩＮＥＲ合同会社,,合同会社,神奈川県,三浦郡葉山町,堀内２１００－１４１,,14,301,2400112,,,,,,,2023-10-24,1,,,,,カリネ,0
1451,6021003013709,新規,0,2023-10-24,2023-10-24,合同会社ＳｕｎＭＩＬＥ,,合同会社,神奈川県,平塚市,御殿１丁目４－２１－１０１,,14,203,2540061,,,,,,,2023-10-24,1,,,,,サンマイル,0
1458,6030001156832,新規,0,2023-10-24,2023-10-24,株式会社川口放課後会,,株式会社,埼玉県,川口市,長蔵１丁目２０番２３号,,11,203,3330807,,,,,,,2023-10-24,1,,,,,カワグチホウカゴカイ,0
1461,6030003022859,新規,0,2023-10-24,2023-10-24,エス・コネクション合同会社,,合同会社,埼玉県,川口市,大字東本郷１７００番地の８,,11,203,3340063,,,,,,,2023-10-24,1,,,,,エスコネクション,0
1463,6040001130646,新規,0,2023-10-24,2023-10-24,株式会社ココ,,株式会社,千葉県,船橋市,夏見４丁目９番１２号,,12,204,2730865,,,,,,,2023-10-24,1,,,,,ココ,0
1470,6040003023609,新規,0,2023-10-24,2023-10-24,合同会社ＯＮＥ　ＴＲＵＳＴ,,合同会社,千葉県,市川市,稲荷木１丁目２６番１２号,,12,203,2720024,,,,,,,2023-10-24,1,,,,,ワントラスト,0
1472,6040005022162,新規,0,2023-10-24,2023-10-24,特定非営利活動法人ＶＩＶＩＴＡ　ＪＡＰＡＮ,,その他の設立登記法人,千葉県,流山市,加１丁目１２２６番７４号,,12,220,2700176,,,,,,,2023-10-24,1,,,,,ヴィヴィータジャパン,0
1480,6060001036478,新規,0,2023-10-24,2023-10-24,株式会社合同,,株式会社,栃木県,宇都宮市,石井町２９１１番地２,,09,201,3210912,,,,,,,2023-10-24,1,,,,,ゴウドウ,0
1482,6070001041015,新規,0,2023-10-24,2023-10-24,ＫＳ　ＴＲＡＤＩＮＧ株式会社,,株式会社,群馬県,太田市,阿久津町１５６番地１,,10,205,3700402,,,,,,,2023-10-24,1,,,,,ケイエストレーディング,0
1486,6080001025933,新規,0,2023-10-24,2023-10-24,株式会社ＡＫＳ,,株式会社,静岡県,静岡市駿河区,東静岡２丁目６番３８－５０２号,,22,102,4228019,,,,,,,2023-10-24,1,,,,,エイケイエス,0
1495,6090001018390,新規,0,2023-10-24,2023-10-24,株式会社コタコード,,株式会社,山梨県,甲府市,下石田２丁目２５番１号,,19,201,4000046,,,,,,,2023-10-24,1,,,,,コタコード,0
1508,6120001259007,新規,0,2023-10-24,2023-10-24,隆中株式会社,,株式会社,大阪府,大阪市住之江区,御崎６丁目３番１１号,,27,125,5590013,,,,,,,2023-10-24,1,,,,,タカナカ,0
1509,6120001259048,新規,0,2023-10-24,2023-10-24,株式会社オンニ,,株式会社,大阪府,大阪市生野区,小路東２丁目２５番１号,,27,116,5440003,,,,,,,2023-10-24,1,,,,,オンニ,0
1510,6120001259080,新規,0,2023-10-24,2023-10-24,高工業株式会社,,株式会社,大阪府,大阪市生野区,巽東３丁目７番６号カーサステラロッサ４０８号,00132380,27,116,5440014,,,,,,,2023-10-24,1,,,,,コウコウギョウ,0
1511,6120001259106,新規,0,2023-10-24,2023-10-24,株式会社こころらぼ,,株式会社,大阪府,大阪市住吉区,杉本２丁目１４番２０号,,27,120,5580022,,,,,,,2023-10-24,1,,,,,ココロラボ,0
1512,6120001259147,新規,0,2023-10-24,2023-10-24,トータルフードラボ株式会社,,株式会社,大阪府,大阪市中央区,船場中央４丁目１番１０－１３３号,,27,128,5410055,,,,,,,2023-10-24,1,,,,,トータルフードラボ,0
1513,6120001259188,新規,0,2023-10-24,2023-10-24,株式会社アイプラス,,株式会社,大阪府,大阪市平野区,喜連東５丁目１６番２６－５０３号,,27,126,5470021,,,,,,,2023-10-24,1,,,,,アイプラス,0
1518,6120101068431,新規,0,2023-10-24,2023-10-24,株式会社ＨＯＰＥ,,株式会社,大阪府,松原市,岡２丁目６番１８号,,27,217,5800014,,,,,,,2023-10-24,1,,,,,ホープ,0
1522,6120901048260,新規,0,2023-10-24,2023-10-24,株式会社コンフィデンスライフ,,株式会社,大阪府,茨木市,真砂玉島台６番５号の１,,27,211,5670850,,,,,,,2023-10-24,1,,,,,コンフィデンスライフ,0
1529,6122003002708,新規,0,2023-10-24,2023-10-24,合同会社ケアプランアポロ,,合同会社,大阪府,柏原市,玉手町６番６１－１０１０号,,27,221,5820028,,,,,,,2023-10-24,1,,,,,ケアプランアポロ,0
1532,6130001075519,新規,0,2023-10-24,2023-10-24,株式会社ｍａｒｕ,,株式会社,京都府,京都市中京区,大黒町７２－１京都六角Ｎビル３Ｆ,,26,104,6040014,,,,,,,2023-10-24,1,,,,,マル,0
1536,6140001132046,新規,0,2023-10-24,2023-10-24,メトロエンターテインメント株式会社,,株式会社,兵庫県,神戸市中央区,北長狭通６丁目２番１５号,,28,110,6500012,,,,,,,2023-10-24,1,,,,,メトロエンターテインメント,0
1537,6140001132070,新規,0,2023-10-24,2023-10-24,ＭＥＤＩＣＡＬ　ＡＴＲＩＵＭ株式会社,,株式会社,兵庫県,神戸市西区,伊川谷町有瀬８４６－１０,,28,111,6512113,,,,,,,2023-10-24,1,,,,,メディカルアトリウム,0
1539,6140005026780,新規,0,2023-10-24,2023-10-24,一般社団法人宝塚ミツバチプロジェクト,00132394,その他の設立登記法人,兵庫県,宝塚市,波豆字北山１番地の２７５,,28,214,6691221,,,,,,,2023-10-24,1,,,,,タカラヅカミツバチプロジェクト,0
1543,6170001017855,新規,0,2023-10-24,2023-10-24,株式会社Ｊ’ｓ　ＨＡＬＬ,,株式会社,和歌山県,新宮市,千穂１丁目１番５３号,,30,207,6470015,,,,,,,2023-10-24,1,,,,,ジェイズホール,0
1554,6180001158566,新規,0,2023-10-24,2023-10-24,Ｂｌｏｏｍ　Ａｇｅｎｔ株式会社,,株式会社,愛知県,名古屋市中村区,名駅５丁目３１番１０号リンクス名駅ビル６Ｆ,,23,105,4500002,,,,,,,2023-10-24,1,,,,,ブルームエージェント,0
1555,6180001158632,新規,0,2023-10-24,2023-10-24,株式会社プレゼンツ,,株式会社,愛知県,名古屋市中区,新栄２丁目２４－５第１５プロスパー新栄ビル２０１,,23,106,4600007,,,,,,,2023-10-24,1,,,,,プレゼンツ,0
1556,6180001158649,新規,0,2023-10-24,2023-10-24,株式会社クリスタライト,,株式会社,愛知県,名古屋市中区,栄３丁目３番２１号,,23,106,4600008,,,,,,,2023-10-24,1,,,,,クリスタライト,0
1561,6180003025871,新規,0,2023-10-24,2023-10-24,吉栄商事合同会社,,合同会社,愛知県,名古屋市中村区,名駅４丁目２４番５号,,23,105,4500002,,,,,,,2023-10-24,1,,,,,ヨシエイショウジ,0
1562,6180005020400,新規,0,2023-10-24,2023-10-24,一般社団法人日本権利擁護支援センター,,その他の設立登記法人,愛知県,名古屋市中村区,太閤通５丁目２０番地後藤ビル２階,,23,105,4530811,,,,,,,2023-10-24,1,,,,,ニホンケンリヨウゴシエンセンター,0
1572,6200001041851,新規,0,2023-10-24,2023-10-24,株式会社ソランサス,,株式会社,岐阜県,羽島市,正木町須賀２１４８番地１,,21,209,5016216,,,,,,,2023-10-24,1,,,,,ソランサス,0
1573,6210001019517,新規,0,2023-10-24,2023-10-24,ＭＴＣＲＡＦＴ株式会社,,株式会社,福井県,敦賀市,松島町７番３－９号,,18,202,9140801,,,,,,,2023-10-24,1,,,,,エムティクラフト,0
1578,6240001062316,新規,0,2023-10-24,2023-10-24,株式会社ベクトラ,,株式会社,広島県,広島市中区,大手町１丁目１－２０相生橋ビル７階Ａ号室,,34,101,7300051,,,,,,,2023-10-24,1,,,,,ベクトラ,0
1585,6260003004479,新規,0,2023-10-24,2023-10-24,合同会社ｓｏｌ,,合同会社,岡山県,岡山市北区,中山下１丁目１１番１５号新田第１ビル４０２,,33,101,7000821,,,,,,,2023-10-24,1,,,,,ソル,0
1617,6360003013395,新規,0,2023-10-24,2023-10-24,ＦｕｎＣｒｕｓｈ　Ｃｒｅａｔｉｖｅ合同会社,,合同会社,沖縄県,国頭郡金武町,字金武１００２番地１,,47,314,9041201,,,,,,,2023-10-24,1,,,,,ファンクラッシュクリエイティブ,0
1618,6360003013404,新規,0,2023-10-24,2023-10-24,合同会社介護タクシーさきやま,,合同会社,沖縄県,那覇市,首里石嶺町４丁目４６ネクステージ丸波４０３号室,,47,201,9030804,,,,,,,2023-10-24,1,,,,,カイゴタクシーサキヤマ,0
1622,6370003006332,新規,0,2023-10-24,2023-10-24,Ｔｒｉｏｎｅｓ　Ｓｃｉｅｎｃｅ合同会社,,合同会社,宮城県,仙台市青葉区,中央３丁目８番５号新仙台駅前ビル２Ｆ－３,,04,101,9800021,,,,,,,2023-10-24,1,,,,,トリオンズサイエンス,0
1624,6380003005597,新規,0,2023-10-24,2023-10-24,合同会社鈴木,,合同会社,福島県,郡山市,田村町上行合字亀河内１４８－６,,07,203,9630724,,,,,,,2023-10-24,1,,,,,スズキ,0
1627,6430001090256,新規,0,2023-10-24,2023-10-24,株式会社ＮＧＣ,,株式会社,北海道,札幌市北区,屯田五条５丁目４番２５－１０１号,,01,102,0020855,,,,,,,2023-10-24,1,,,,,エヌジーシー,0
1632,6430003015558,新規,0,2023-10-24,2023-10-24,合同会社ｐＭｑ,,合同会社,北海道,札幌市中央区,南三条東３丁目８番,,01,101,0600053,,,,,,,2023-10-24,1,,,,,ピーエムキュー,0
1636,6490001010621,新規,0,2023-10-24,2023-10-24,株式会社ＳＴＡＲ・ライフデザイン,,株式会社,高知県,高知市,愛宕町２丁目１８番５号２階,,39,201,7800051,,,,,,,2023-10-24,1,,,,,スターライフデザイン,0
1637,6500001025262,新規,0,2023-10-24,2023-10-24,株式会社ｓｐｉｃａ,,株式会社,愛媛県,喜多郡内子町,大瀬中央４４６３番地,,38,422,7913361,,,,,,,2023-10-24,1,,,,,スピカ,0
1638,6700150114820,新規,0,2023-10-24,2023-10-24,Ｓｈｅｎｚｈｅｎ　Ｈａｉｍａｉｔｏｎｇ　Ｔｒａｄｉｎｇ　Ｃｏ．，Ｌｔｄ．,,外国会社等,,,,,,,,Ｒｏｏｍ　６Ｂ－２２，Ｈａｓｅｅ　Ｃｏｍｐｕｔｅｒ　Ｂｕｉｌｄｉｎｇ　Ｂａｎｔｉａｎ　Ｓｔｒｅｅｔ，Ｌｏｎｇｇａｎｇ　Ｄｉｓｔｒｉｃｔ，Ｓｈｅｎｚｈｅｎ．Ｓｈｅｎｚｈｅｎｓｈｉ　ｇｕａｎｇｄｏｎｇｓｈｅｎｇ　５１８１００　ＣＮ,,,,,,2023-10-24,1,,,,,シェンヂェンハイマイトンマオイーヨウシィェンゴンスー,0
1639,6700150121338,新規,0,2023-10-24,2023-10-24,Ｓｈｅｎｚｈｅｎ　Ｂａｏｆｅｎｇｔｏｎｇ　Ｅｌｅｃｔｒｉｃａｌ　Ａｐｐｌｉａｎｃｅｓ　Ｍａｎｕｆａｃｔｕｒｉｎｇ　Ｃｏ，Ｌｔｄ,,外国会社等,,,,,,,,Ｎｏ．３０１，３ｒｄｆｌｏｏｒ，１０ｔｈ　ｂｕｉｌｄｉｎｇ，ｃｈａｎｇｘｉｎｇ　ｉｎｄｕｓｔｒｉａｌ　ｐａｒｋ，ｗａｎａｎ　Ｒｄ，ｓｈａｙｉ　ｃｏｍｍｕｎｉｔｙ，ｓｈａｊｉｎｇ　ｓｔｒｅｅｔ，ｂａｏａｎ　ｄｉｓｔｒｉｃｔ，ｓｈｅｎｚｈｅｎ，Ｃｈｉｎａ,,,,,,2023-10-24,1,,,,,シェンジェンシーバオフォントンディエンチージーザオヨウシエンゴンスー,0
1648,7010001239299,新規,0,2023-10-24,2023-10-24,徳道健康サービス株式会社,,株式会社,東京都,千代田区,神田三崎町２丁目１０－１１－３Ｂ－７,,13,101,1010061,,,,,,,2023-10-24,1,,,,,トクドウケンコウサービス,0
1649,7010001239340,新規,0,2023-10-24,2023-10-24,株式会社ＧｏＱＭｏｖｉｅ,,株式会社,東京都,中央区,京橋１丁目６番１２号,,13,102,1040031,,,,,,,2023-10-24,1,,,,,ゴクウムービー,0
1650,7010001239373,新規,0,2023-10-24,2023-10-24,株式会社彩蓮,,株式会社,東京都,文京区,本郷５丁目１１番７号,,13,105,1130033,,,,,,,2023-10-24,1,,,,,イロハ,0
1651,7010001239381,新規,0,2023-10-24,2023-10-24,葵インターナショナル株式会社,,株式会社,東京都,千代田区,永田町２丁目９番６号,,13,101,1000014,,,,,,,2023-10-24,1,,,,,アオイインターナショナル,0
1652,7010001239431,新規,0,2023-10-24,2023-10-24,株式会社ＳＴＯＣＫ１２９,,株式会社,東京都,千代田区,永田町２丁目１２番４号,,13,101,1000014,,,,,,,2023-10-24,1,,,,,ストックヒャクニジュウキュウ,0
1653,7010001239480,新規,0,2023-10-24,2023-10-24,株式会社アクーンスＩｎｖｅｓｔｍｅｎｔ,,株式会社,東京都,千代田区,麹町１丁目６番１６号半蔵門海和ビル９階（Ｃ／ＯＪｏｏ－ｒｅａｌｅｓｔａｔｅ－ｏｆｆｉｃｅ）,,13,101,1020083,,,,,,,2023-10-24,1,,,,,アクーンスインベストメント,0
1657,7010003042008,新規,0,2023-10-24,2023-10-24,ＭＡＹＡぷらんにんぐ合同会社,,合同会社,東京都,中央区,銀座７丁目１３番２０号銀座ＴＨビル９階,,13,102,1040061,,,,,,,2023-10-24,1,,,,,マヤプランニンング,0
1658,7010003042016,新規,0,2023-10-24,2023-10-24,ｈｕｍｍ合同会社,,合同会社,東京都,中央区,築地６丁目１５番１０－７０４号,,13,102,1040045,,,,,,,2023-10-24,1,,,,,ハム,0
1671,7010401178031,新規,0,2023-10-24,2023-10-24,ＳＨＯＰＬＩＮＥ　Ｊａｐａｎ株式会社,,株式会社,東京都,港区,北青山１丁目３番１号アールキューブ青山３階,,13,103,1070061,,,,,,,2023-10-24,1,,,,,ショップラインジャパン,0
1672,7010401178080,新規,0,2023-10-24,2023-10-24,株式会社シーティーエフ,,株式会社,東京都,港区,浜松町２丁目２番１５号浜松町ダイヤビル２Ｆ,,13,103,1050013,,,,,,,2023-10-24,1,,,,,シーティーエフ,0
1673,7010403031196,新規,0,2023-10-24,2023-10-24,合同会社ピーエス発電所一号,,合同会社,東京都,港区,赤坂４丁目８番１４号赤坂坂東ビルディング８階,,13,103,1070052,,,,,,,2023-10-24,1,,,,,ピーエスハツデンショイチゴウ,0
1674,7010403031221,新規,0,2023-10-24,2023-10-24,合同会社くいしん坊ＣＡＰＩＴＡＬ,,合同会社,東京都,港区,浜松町１丁目１９番５号滝山ビル２階,,13,103,1050013,,,,,,,2023-10-24,1,,,,,クイシンボウキャピタル,0
1675,7010403031238,新規,0,2023-10-24,2023-10-24,合同会社ラ・グルロ,,合同会社,東京都,港区,南青山２丁目１７番５号,,13,103,1070062,,,,,,,2023-10-24,1,,,,,ラグルロ,0
1676,7010501051187,新規,0,2023-10-24,2023-10-24,株式会社一楊ビジネス,,株式会社,東京都,台東区,三ノ輪２丁目３番８号１０２室,,13,106,1100011,,,,,,,2023-10-24,1,,,,,イチヨウビジネス,0
1677,7010501051253,新規,0,2023-10-24,2023-10-24,Ｌｕｍｕｈａ株式会社,,株式会社,東京都,台東区,鳥越１丁目２－３,,13,106,1110054,,,,,,,2023-10-24,1,,,,,ルムア,0
1680,7010601064015,新規,0,2023-10-24,2023-10-24,明林株式会社,,株式会社,東京都,江東区,亀戸５丁目１０番７号１階,,13,108,1360071,,,,,,,2023-10-24,1,,,,,メイリン,0
1688,7011001157557,新規,0,2023-10-24,2023-10-24,株式会社２７,,株式会社,東京都,渋谷区,恵比寿南２丁目１２番４号せらびＥＢＩＳＵ,,13,113,1500022,,,,,,,2023-10-24,1,,,,,ヴィンチセッチ,0
1689,7011001157747,新規,0,2023-10-24,2023-10-24,マルワプラン株式会社,,株式会社,東京都,渋谷区,渋谷２丁目１９－１５宮益坂ビルディング６０９,,13,113,1500002,,,,,,,2023-10-24,1,,,,,マルワプラン,0
1691,7011003017759,新規,0,2023-10-24,2023-10-24,合同会社ＰｕＰｕＬａｎｄ,,合同会社,東京都,目黒区,柿の木坂１丁目３１番７号,,13,110,1520022,,,,,,,2023-10-24,1,,,,,ププランド,0
1695,7011101104888,新規,0,2023-10-24,2023-10-24,エックス・アイディア株式会社,,株式会社,東京都,新宿区,西早稲田１丁目４番２４号－１０１,,13,104,1690051,,,,,,,2023-10-24,1,,,,,エックスアイディア,0
1696,7011101104896,新規,0,2023-10-24,2023-10-24,ぴちぴち株式会社,,株式会社,東京都,新宿区,西新宿３丁目３番１３号西新宿水間ビル６階,,13,104,1600023,,,,,,,2023-10-24,1,,,,,ピチピチ,0
1702,7011703003629,新規,0,2023-10-24,2023-10-24,合同会社ＲＥコンサル,,合同会社,東京都,江戸川区,南小岩６丁目３１－１０－２００７号室,,13,123,1330056,,,,,,,2023-10-24,1,,,,,アールイーコンサル,0
1705,7012403006236,新規,0,2023-10-24,2023-10-24,合同会社ＮＡＭＡＫＯ,,合同会社,東京都,武蔵野市,吉祥寺本町１丁目２０番１号,,13,203,1800004,,,,,,,2023-10-24,1,,,,,ナマコ,0
1721,7020001154043,新規,0,2023-10-24,2023-10-24,株式会社Ｎｅｘｔ　Ｉｎｎｏｖａｔｉｏｎ,,株式会社,神奈川県,川崎市中原区,上小田中２丁目２１番４３号,,14,133,2110053,,,,,,,2023-10-24,1,,,,,ネクストイノベーション,0
1725,7020005016165,新規,0,2023-10-24,2023-10-24,ＮＰＯ法人屋根のある広場,,その他の設立登記法人,神奈川県,横浜市青葉区,美しが丘西３丁目６３番地８ルネたまプラーザＢ－２０２,,14,117,2250001,,,,,,,2023-10-24,1,,,,,ヤネノアルヒロバ,0
1730,7021001080535,新規,0,2023-10-24,2023-10-24,株式会社社ａｒｄｏｒ,,株式会社,神奈川県,小田原市,板橋７８７番地１－３１６号,,14,206,2500034,,,,,,,2023-10-24,1,,,,,アルドール,0
1732,7021003013641,新規,0,2023-10-24,2023-10-24,合同会社匠クリエイションズ,,合同会社,神奈川県,相模原市緑区,三ケ木３０４番地３,,14,151,2520159,,,,,,,2023-10-24,1,,,,,タクミクリエイションズ,0
1733,7021003013708,新規,0,2023-10-24,2023-10-24,合同会社空,,合同会社,神奈川県,三浦郡葉山町,一色６４２－３,,14,301,2400111,,,,,,,2023-10-24,1,,,,,クウ,0
1741,7030001156823,新規,0,2023-10-24,2023-10-24,株式会社エイセス,,株式会社,埼玉県,春日部市,内牧３８５４番地,,11,214,3440051,,,,,,,2023-10-24,1,,,,,,0
1749,7040001130645,新規,0,2023-10-24,2023-10-24,アイム株式会社,,株式会社,千葉県,松戸市,竹ケ花西町３０６番地の１３,,12,207,2710071,,,,,,,2023-10-24,1,,,,,アイム,0
1750,7040001130653,新規,0,2023-10-24,2023-10-24,株式会社恵先導,,株式会社,千葉県,市原市,五所１７０６番地１,,12,219,2900066,,,,,,,2023-10-24,1,,,,,メグミセンドウ,0
1760,7050003007725,新規,0,2023-10-24,2023-10-24,合同会社七海商運,,合同会社,茨城県,結城市,大字芳賀崎３８４番地,,08,207,3070026,,,,,,,2023-10-24,1,,,,,ナナミショウウン,0
1761,7050003007873,新規,0,2023-10-24,2023-10-24,合同会社ＯＰＵＬＥＮＴ　ＩＮＴＥＲＮＡＴＩＯＮＡＬ,,合同会社,茨城県,龍ケ崎市,野原町６１－３ロイヤル・コート野原第１０２号室,,08,208,3010831,,,,,,,2023-10-24,1,,,,,オピューレントインターナショナル,0
1764,7060001036469,新規,0,2023-10-24,2023-10-24,株式会社大平総業,,株式会社,栃木県,宇都宮市,白沢町６３１番地,,09,201,3291102,,,,,,,2023-10-24,1,,,,,タイヘイソウギョウ,0
1766,7060002020067,新規,0,2023-10-24,2023-10-24,有限会社幸春,,有限会社,栃木県,鹿沼市,茂呂４７番地１,,09,205,3220026,,,,,,,2023-10-24,1,,,,,コウシュン,0
1772,7070003005140,新規,0,2023-10-24,2023-10-24,ライフアドバンステクノロジーズ合同会社,,合同会社,群馬県,高崎市,八島町２７４高崎高徳ビル７Ｆ,,10,202,3700849,,,,,,,2023-10-24,1,,,,,ライフアドバンステクノロジーズ,0
1774,7080101024289,新規,0,2023-10-24,2023-10-24,ＴＲＥＥ　ＬＩＮＥ　ＣＨＩＬＬＡＸ　ＦＩＥＬＤ株式会社,,株式会社,静岡県,富士宮市,人穴７９１番地の１,,22,207,4180102,,,,,,,2023-10-24,1,,,,,ツリーラインチラックスフィールド,0
1780,7100001036919,新規,0,2023-10-24,2023-10-24,株式会社創和,,株式会社,長野県,千曲市,大字上山田３９６番地１０,,20,218,3890822,,,,,,,2023-10-24,1,,,,,ソウワ,0
1782,7100003007216,新規,0,2023-10-24,2023-10-24,合同会社フラクタルフレア,,合同会社,長野県,長野市,川中島町上氷鉋９番地の１,,20,201,3812233,,,,,,,2023-10-24,1,,,,,フラクタルフレア,0
1785,7110003005193,新規,0,2023-10-24,2023-10-24,合同会社Ｉ‐ｍａｃｈｉｎｅ,,合同会社,新潟県,南魚沼市,今町新田２５‐１,,15,226,9497254,,,,,,,2023-10-24,1,,,,,アイマシン,0
1791,7120001259055,新規,0,2023-10-24,2023-10-24,株式会社Ｋｉｌｌｙ,,株式会社,大阪府,大阪市東淀川区,西淡路４丁目７番１３号,,27,114,5330031,,,,,,,2023-10-24,1,,,,,キリー,0
1792,7120001259063,新規,0,2023-10-24,2023-10-24,株式会社ＤＡＢＯ,,株式会社,大阪府,大阪市西成区,萩之茶屋３丁目１番１８－１０４号,,27,122,5570004,,,,,,,2023-10-24,1,,,,,ダボ,0
1793,7120001259105,新規,0,2023-10-24,2023-10-24,株式会社天啓建設,,株式会社,大阪府,大阪市北区,梅田１丁目２番２号大阪駅前第二ビル４０４,,27,127,5300001,,,,,,,2023-10-24,1,,,,,テンケイケンセツ,0
1796,7120003025133,新規,0,2023-10-24,2023-10-24,ＴＲＮＧ合同会社,,合同会社,大阪府,大阪市西成区,太子１丁目１３番１号太子ハイツ３０１号,,27,122,5570002,,,,,,,2023-10-24,1,,,,,ティーアールエヌジー,0
1797,7120003025158,新規,0,2023-10-24,2023-10-24,サニー合同会社,,合同会社,大阪府,大阪市中央区,瓦屋町２丁目１２番１５－９１９号,,27,128,5420066,,,,,,,2023-10-24,1,,,,,サニー,0
1798,7120003025174,新規,0,2023-10-24,2023-10-24,合同会社寿寿,,合同会社,大阪府,大阪市北区,梅田１丁目２番２号大阪駅前第２ビル１２－１２,,27,127,5300001,,,,,,,2023-10-24,1,,,,,ジュジュ,0
1801,7120101068430,新規,0,2023-10-24,2023-10-24,尚幸技建株式会社,,株式会社,大阪府,堺市南区,稲葉２丁１７６０番地６,,27,145,5900156,,,,,,,2023-10-24,1,,,,,ショウコウギケン,0
1808,7130001075360,新規,0,2023-10-24,2023-10-24,エスワイズホールディングス株式会社,,株式会社,京都府,宇治市,小倉町久保８８番地の９,,26,204,6110042,,,,,,,2023-10-24,1,,,,,エスワイズホールディングス,0
1809,7130001075600,新規,0,2023-10-24,2023-10-24,株式会社マキ,,株式会社,京都府,京都市左京区,田中東高原町１６番地,,26,103,6068243,,,,,,,2023-10-24,1,,,,,マキ,0
1811,7130003009052,新規,0,2023-10-24,2023-10-24,神永オフィス合同会社,,合同会社,京都府,京都市下京区,松原通西洞院東入薮下町２５番１,,26,106,6000000,,,,,,,2023-10-24,1,,,,,カミナガオフィス,0
1820,7140001132029,新規,0,2023-10-24,2023-10-24,株式会社キヨリト,,株式会社,兵庫県,神戸市中央区,中山手通１丁目２１番１３号,,28,110,6500004,,,,,,,2023-10-24,1,,,,,キヨリト,0
1821,7140001132045,新規,0,2023-10-24,2023-10-24,株式会社ＳＯＬＡＲＣ,,株式会社,兵庫県,丹波篠山市,西岡屋乙１番地１,,28,221,6692346,,,,,,,2023-10-24,1,,,,,ソルアーク,0
1824,7150001026824,新規,0,2023-10-24,2023-10-24,株式会社浜成金属,,株式会社,奈良県,生駒市,南田原町１１９７番地１,,29,209,6300135,,,,,,,2023-10-24,1,,,,,ハマナリキンゾク,0
1827,7170001017854,新規,0,2023-10-24,2023-10-24,株式会社Ｓｕｎ　Ｆａｒｍ　Ｈｏｔｔａ,,株式会社,和歌山県,海南市,下津町上９６２番地１,,30,202,6490164,,,,,,,2023-10-24,1,,,,,サンファームホッタ,0
1834,7180001158656,新規,0,2023-10-24,2023-10-24,株式会社オートテック,,株式会社,愛知県,名古屋市守山区,高島町４１番地（ヨシトモビル２０１号）,,23,113,4630095,,,,,,,2023-10-24,1,,,,,オートテック,0
1855,7230001020075,新規,0,2023-10-24,2023-10-24,株式会社ファン・プレイス,,株式会社,富山県,富山市,太郎丸本町１丁目１０番地１７,,16,201,9398272,,,,,,,2023-10-24,1,,,,,ファンプレイス,0
1860,7240001062323,新規,0,2023-10-24,2023-10-24,八紘ホールディングス株式会社,,株式会社,広島県,広島市安佐南区,中須１丁目１４番１２号,,34,105,7310121,,,,,,,2023-10-24,1,,,,,ハッコウホールディングス,0
1868,7280001009056,新規,0,2023-10-24,2023-10-24,株式会社シンカイフーズ,,株式会社,島根県,松江市,西嫁島３丁目３番１０号,,32,201,6900048,,,,,,,2023-10-24,1,,,,,シンカイフーズ,0
1876,7290001103502,新規,0,2023-10-24,2023-10-24,株式会社Ｌｉｖｅ．,,株式会社,福岡県,福岡市博多区,博多駅東２丁目５－２８博多偕成ビル８０７,,40,132,8120013,,,,,,,2023-10-24,1,,,,,リブドット,0
1884,7290005019174,新規,0,2023-10-24,2023-10-24,一般社団法人自立支援美徳,,その他の設立登記法人,福岡県,小郡市,横隈１６２４番地４,,40,216,8380105,,,,,,,2023-10-24,1,,,,,ジリツシエンビトク,0
1889,7330001031384,新規,0,2023-10-24,2023-10-24,株式会社ＪＡＮｔｅｃ,,株式会社,熊本県,熊本市中央区,新屋敷３丁目１６番７－３０３号オーヴィジョン新屋敷,,43,101,8620975,,,,,,,2023-10-24,1,,,,,ジャンテック,0
1891,7330003010031,新規,0,2023-10-24,2023-10-24,合同会社ナイトメア,,合同会社,熊本県,熊本市中央区,花畑町１番１４－３０１号,,43,101,8600806,,,,,,,2023-10-24,1,,,,,ナイトメア,0
1894,7340001026004,新規,0,2023-10-24,2023-10-24,株式会社江内柑橘生産組合,,株式会社,鹿児島県,出水市,高尾野町江内６８２４番地,,46,208,8990407,,,,,,,2023-10-24,1,,,,,エウチカンキツセイサンクミアイ,0
1895,7340001026020,新規,0,2023-10-24,2023-10-24,Ｕｎｇｒａｃｅ株式会社,,株式会社,鹿児島県,鹿児島市,上荒田町２８番１８号シャトー司２Ｆ,,46,201,8900055,,,,,,,2023-10-24,1,,,,,アングレイス,0
1898,7340003004296,新規,0,2023-10-24,2023-10-24,合同会社南九州ユニオン,,合同会社,鹿児島県,鹿児島市,柳町５番９号田原ビル７０１号,,46,201,8920819,,,,,,,2023-10-24,1,,,,,,0
1904,7360003013403,新規,0,2023-10-24,2023-10-24,合同会社Ｏ’ＳＣＯＭＰＡＮＹ．ＬＯＧＩ,,合同会社,沖縄県,浦添市,字港川２８１番地３３,,47,208,9012134,,,,,,,2023-10-24,1,,,,,オーズカンパニーロジ,0
1908,7370001050562,新規,0,2023-10-24,2023-10-24,桃太郎株式会社,,株式会社,宮城県,仙台市宮城野区,清水沼１丁目３番１３－５号,,04,102,9830845,,,,,,,2023-10-24,1,,,,,モモタロウ,0
1925,7430001090255,新規,0,2023-10-24,2023-10-24,株式会社Ｋａｎｎａｂｉ　Ｌｉｆｅ,,株式会社,北海道,夕張郡由仁町,山形５３１番地の２２,,01,427,0691208,,,,,,,2023-10-24,1,,,,,カンナビライフ,0
1929,7450005004382,新規,0,2023-10-24,2023-10-24,労働者協同組合フラヌイスコーレ,,その他の設立登記法人,北海道,富良野市,新光町１－４４,,01,229,0760058,,,,,,,2023-10-24,1,,,,,フラヌイスコーレ,0
1931,7470001019861,新規,0,2023-10-24,2023-10-24,株式会社マイスエーホールディングス,,株式会社,香川県,三豊市,山本町辻３０６１番地１,00132386,37,208,7680101,,,,,,,2023-10-24,1,,,,,マイスエーホールディングス,0
1934,7700150115999,新規,0,2023-10-24,2023-10-24,ｓｈｕｎｄｅｑｕｘｉｎｙａｏｔｉａｏｇｕａｎｇｇａｏｃｅｈｕａｙｏｕｘｉａｎｇｏｎｇｓｉ,,外国会社等,,,,,,,,ｓｈｕｎｄｅｑｕｄａｌｉａｎｇｊｉｅｄａｏｘｉｎｇｕｉｂｅｉｌｕ２２１ｈａｏｊｉｎｇｕａｎｇｅ７ｈａｏｐｕｚｈｉｅｒ　ｆｏｓｈａｎｓｈｉ　ｇｕａｎｇｄｏｎｇｓｈｅｎｇ　５２８３９９　ＣＮ,,,,,,2023-10-24,1,,,,,フォーシャンシシュンダチュイシンヤオティェングァンガオツァホアヨウシェンゴンスー,0
1935,7700150121337,新規,0,2023-10-24,2023-10-24,ｗｕｈａｎｗｕｆｕｊｉｎｓｈａｎｇｍａｏｙｏｕｘｉａｎｇｏｎｇｓｉ,,外国会社等,,,,,,,,ｗｕｃｈａｎｇｑｕｗｕｌｕｏｌｕ６２８ｈａｏｙａｍａｏｇｕａｎｇｃｈａｎｇＢｚｕｏ２０ｃｅｎｇ９，１０ｈａｏｒｅｎｔｕｚｈｏｎｇｃｈｕａｎｇｋｏｎｇｊｉａｎｄｉ１２２ｈａｏ,,,,,,2023-10-24,1,,,,,ウーハンウーフージンシャンマオヨウシエンゴンスー,0
1936,7700150121345,新規,0,2023-10-24,2023-10-24,ｘｉｎｆｕｗｕｌｉａｎ（ｂｅｉｊｉｎｇ）ｓｈａｎｇｍａｏｙｏｕｘｉａｎｇｏｎｇｓｉ,,外国会社等,,,,,,,,ｂｅｉｊｉｎｇｓｈｉｆａｎｇｓｈａｎｑｕｄｏｕｄｉａｎｚｈｅｎｌｉｕｐｉｎｇｚｈｕａｎｇｃｕｎ４３ｈａｏ,,,,,,2023-10-24,1,,,,,シンフーウーリエンベイジンシャンマオヨウシエンゴンスー,0
1943,8010001239372,新規,0,2023-10-24,2023-10-24,維頓株式会社,,株式会社,東京都,中央区,銀座１丁目１５番７－６０３号,,13,102,1040061,,,,,,,2023-10-24,1,,,,,イトン,0
1944,8010001239430,新規,0,2023-10-24,2023-10-24,株式会社ＳＴＯＣＫ１２８,,株式会社,東京都,千代田区,永田町２丁目１２番４号,,13,101,1000014,,,,,,,2023-10-24,1,,,,,ストックヒャクニジュウハチ,0
1945,8010001239463,新規,0,2023-10-24,2023-10-24,ＳＭＭＪ株式会社,,株式会社,東京都,千代田区,飯田橋２丁目５－１飯田橋ＳＮビル５０２号室,,13,101,1020072,,,,,,,2023-10-24,1,,,,,エスエムエムジェー,0
1947,8010003042007,新規,0,2023-10-24,2023-10-24,合同会社ヘルスケアアセット・ラムダ,,合同会社,東京都,千代田区,平河町２丁目４番５号,,13,101,1020093,,,,,,,2023-10-24,1,,,,,ヘルスケアアセットラムダ,0
1948,8010003042015,新規,0,2023-10-24,2023-10-24,凛合同会社,,合同会社,東京都,中央区,晴海２丁目３番２－３７０３号,,13,102,1040053,,,,,,,2023-10-24,1,,,,,リン,0
1949,8010003042023,新規,0,2023-10-24,2023-10-24,サンライズＧＰ合同会社,,合同会社,東京都,中央区,八重洲２丁目２番１号,,13,102,1040028,,,,,,,2023-10-24,1,,,,,サンライズジーピー,0
1961,8010401177957,新規,0,2023-10-24,2023-10-24,株式会社ＢＥＥＢＬＥ,,株式会社,東京都,港区,南青山４丁目２０番３号１０３,,13,103,1070062,,,,,,,2023-10-24,1,,,,,ビーブル,0
1963,8010403031162,新規,0,2023-10-24,2023-10-24,合同会社フィリア,,合同会社,東京都,港区,南青山２丁目２番１５号,,13,103,1070062,,,,,,,2023-10-24,1,,,,,フィリア,0
1964,8010403031237,新規,0,2023-10-24,2023-10-24,合同会社エルベファクトリー,,合同会社,東京都,港区,南青山２丁目２番１５号ウィン青山９４２,,13,103,1070062,,,,,,,2023-10-24,1,,,,,エルベファクトリー,0
1965,8010501051244,新規,0,2023-10-24,2023-10-24,フォーエックス株式会社,,株式会社,東京都,台東区,蔵前４丁目１８番７号,,13,106,1110051,,,,,,,2023-10-24,1,,,,,フォーエックス,0
1967,8010605004255,新規,0,2023-10-24,2023-10-24,美松交通労働組合,,その他の設立登記法人,東京都,江東区,毛利１丁目１０番１４号,,13,108,1350001,,,,,,,2023-10-24,1,,,,,ミマツコウツウ,0
1971,8010801034452,新規,0,2023-10-24,2023-10-24,株式会社擁文堂,,株式会社,東京都,大田区,西蒲田３丁目８番１２号２Ｆ,,13,111,1440051,,,,,,,2023-10-24,1,,,,,ヨウブンドウ,0
1984,8011001157622,新規,0,2023-10-24,2023-10-24,株式会社ＳｔａｒｔｕｐＭａｔｅ,,株式会社,東京都,渋谷区,恵比寿１丁目２４番１４号ＥＸＯＳ恵比寿５階,,13,113,1500013,,,,,,,2023-10-24,1,,,,,スタートアップメイト,0
1985,8011001157738,新規,0,2023-10-24,2023-10-24,株式会社アンドサン,,株式会社,東京都,渋谷区,神宮前６丁目２３番４号桑野ビル２階,,13,113,1500001,,,,,,,2023-10-24,1,,,,,アンドサン,0
1992,8011303004943,新規,0,2023-10-24,2023-10-24,Ｏｕｌａ合同会社,,合同会社,東京都,杉並区,和泉２丁目２９番１１号,,13,115,1680063,,,,,,,2023-10-24,1,,,,,ウーラ,0
1995,8011501029908,新規,0,2023-10-24,2023-10-24,株式会社ナビワン,,株式会社,東京都,荒川区,町屋１丁目３０番６号,,13,118,1160001,,,,,,,2023-10-24,1,,,,,ナビワン,0
1997,8011603004107,新規,0,2023-10-24,2023-10-24,合同会社ＬＯＶＥ　ＫＵＳＨ,,合同会社,東京都,練馬区,旭町１丁目４１番１５号,,13,120,1790071,,,,,,,2023-10-24,1,,,,,ラブクス,0
1999,8011701026671,新規,0,2023-10-24,2023-10-24,三興国際株式会社,,株式会社,東京都,江戸川区,北小岩６丁目１５－１０－４０２室,,13,123,1330051,,,,,,,2023-10-24,1,,,,,サンキョウコクサイ,0
2000,8011701026696,新規,0,2023-10-24,2023-10-24,御国山株式会社,,株式会社,東京都,江戸川区,東小岩６丁目１２－１６－１０１,,13,123,1330052,,,,,,,2023-10-24,1,,,,,ミクニヤマ,0
2004,8012401041143,新規,0,2023-10-24,2023-10-24,株式会社Ｓｅｅｋｅｒｓ,,株式会社,東京都,府中市,新町２丁目５９番地の３９,,13,206,1830052,,,,,,,2023-10-24,1,,,,,シーカーズ,0
2005,8012703002834,新規,0,2023-10-24,2023-10-24,Ａｃｔｉｏ合同会社,,合同会社,東京都,西東京市,東町５丁目５番２５号梨苑ハイツＢ棟２０７号,,13,229,2020012,,,,,,,2023-10-24,1,,,,,アクティオ,0
2020,8020001154109,新規,0,2023-10-24,2023-10-24,株式会社Ａｉｋｕｒｕ　Ｒｉｎｇ,,株式会社,神奈川県,横浜市港北区,綱島西１丁目１番６号ＬＯＬビル５Ｆ,,14,109,2230053,,,,,,,2023-10-24,1,,,,,アイクルリング,0
2026,8020002108963,新規,0,2023-10-24,2023-10-24,有限会社かね本商店,,有限会社,神奈川県,横浜市神奈川区,大口通１０番地の１,,14,102,2210002,,,,,,,2023-10-24,1,,,,,カネモトショウテン,0
2027,8020003024821,新規,0,2023-10-24,2023-10-24,合同会社ｂｅ　ｐｅｐｅ　ｓｏｕｌ,,合同会社,神奈川県,横浜市中区,山下町１３２メイゾンチュトワイエ中華街５０３号,,14,104,2310023,,,,,,,2023-10-24,1,,,,,ビペペソウル,0
2031,8021003013723,新規,0,2023-10-24,2023-10-24,ＪＬＳ合同会社,,合同会社,神奈川県,相模原市緑区,久保沢３丁目１２－８,,14,151,2520105,,,,,,,2023-10-24,1,,,,,ジェイエルエス,0
2047,8040001130652,新規,0,2023-10-24,2023-10-24,株式会社サージラボラトリーズ,,株式会社,千葉県,柏市,明原４丁目１２－２１－２Ｆ,,12,217,2770843,,,,,,,2023-10-24,1,,,,,サージラボラトリーズ,0
2052,8040003023615,新規,0,2023-10-24,2023-10-24,合同会社マナタス,,合同会社,千葉県,千葉市中央区,村田町５２番地２,,12,101,2600825,,,,,,,2023-10-24,1,,,,,マナタス,0
2053,8040005022169,新規,0,2023-10-24,2023-10-24,医療法人社団東真会,,その他の設立登記法人,千葉県,船橋市,本中山２丁目１８番１号フローラビル２階,,12,204,2730035,,,,,,,2023-10-24,1,,,,,トウシンカイ,0
2066,8070001040997,新規,0,2023-10-24,2023-10-24,森戸電気株式会社,,株式会社,群馬県,邑楽郡邑楽町,大字篠塚２８０４番地３,,10,525,3700615,,,,,,,2023-10-24,1,,,,,モリトデンキ,0
2073,8080401026802,新規,0,2023-10-24,2023-10-24,エムベステック株式会社,,株式会社,静岡県,浜松市中区,和地山３丁目１番７号,,22,131,4328003,,,,,,,2023-10-24,1,,,,,エムベステック,0
2075,8090005007594,新規,0,2023-10-24,2023-10-24,一般社団法人Ｃａｎｔａｂｉｌｅ,,その他の設立登記法人,山梨県,山梨市,上神内川１１２６番地１山工ビル１階,,19,205,4050018,,,,,,,2023-10-24,1,,,,,カンタービレ,0
2088,8120001258989,新規,0,2023-10-24,2023-10-24,皓株式会社,,株式会社,大阪府,大阪市西成区,鶴見橋２丁目５－１５－２０１号室,,27,122,5570031,,,,,,,2023-10-24,1,,,,,コウ,0
2089,8120001259021,新規,0,2023-10-24,2023-10-24,安心株式会社,,株式会社,大阪府,大阪市中央区,森ノ宮中央２丁目１０番７号ロイヤル難波宮５０３号室,,27,128,5400003,,,,,,,2023-10-24,1,,,,,アンシン,0
2090,8120001259104,新規,0,2023-10-24,2023-10-24,株式会社プレミナクス,,株式会社,大阪府,大阪市都島区,都島北通２丁目２２番３２－２３０３号,,27,102,5340014,,,,,,,2023-10-24,1,,,,,プレミナクス,0
2091,8120001259137,新規,0,2023-10-24,2023-10-24,タカラモンテ株式会社,,株式会社,大阪府,大阪市東成区,大今里３丁目１５番２３号岸田ビル３階,,27,115,5370012,,,,,,,2023-10-24,1,,,,,タカラモンテ,0
2092,8120001259153,新規,0,2023-10-24,2023-10-24,株式会社ＥｍｍＭ,,株式会社,大阪府,大阪市中央区,松屋町７番１７号,,27,128,5420067,,,,,,,2023-10-24,1,,,,,イーム,0
2094,8120003025132,新規,0,2023-10-24,2023-10-24,ＶＵ　ＮＨＡＴ合同会社,,合同会社,大阪府,大阪市阿倍野区,丸山通１丁目６番１６号松虫ハイツ４０１号,,27,119,5450042,,,,,,,2023-10-24,1,,,,,ヴーニャット,0
2095,8120003025157,新規,0,2023-10-24,2023-10-24,合同会社Ｇ‐ＫＵＲＡ,,合同会社,大阪府,大阪市都島区,高倉町２丁目４－６－Ｂ１,,27,102,5340011,,,,,,,2023-10-24,1,,,,,ジークラ,0
2096,8120003025165,新規,0,2023-10-24,2023-10-24,合同会社３ｓｅｖｅｎ,,合同会社,大阪府,門真市,沖町３０番１８号,,27,223,5710022,,,,,,,2023-10-24,1,,,,,スリーセブン,0
2102,8120901048201,新規,0,2023-10-24,2023-10-24,株式会社仁翔,,株式会社,大阪府,箕面市,粟生外院２丁目１７番１４号ライトステージ１Ｆ,,27,220,5620025,,,,,,,2023-10-24,1,,,,,ニト,0
2103,8120901048250,新規,0,2023-10-24,2023-10-24,株式会社ＰｉＰＰｉ　Ｄｅ　Ｈａｐｐｙ　Ｃｏｍｐａｎｙ,,株式会社,大阪府,高槻市,郡家本町５１番１２号,,27,207,5691131,,,,,,,2023-10-24,1,,,,,ピッピデハッピーカンパニー,0
2107,8130003009068,新規,0,2023-10-24,2023-10-24,Ｓｅｎｓａｔｉｏｎ合同会社,,合同会社,京都府,京都市右京区,西院三蔵町９番地リエス西院７１１,,26,108,6160000,,,,,,,2023-10-24,1,,,,,センセーション,0
2112,8140001132011,新規,0,2023-10-24,2023-10-24,ＮＩＦ株式会社,,株式会社,兵庫県,神戸市中央区,中山手通２丁目２４番１－１００１号,,28,110,6500004,,,,,,,2023-10-24,1,,,,,エヌアイエフ,0
2113,8140001132028,新規,0,2023-10-24,2023-10-24,インテディックス株式会社,,株式会社,兵庫県,神戸市東灘区,住吉山手５丁目５番１－４０６号,,28,101,6580063,,,,,,,2023-10-24,1,,,,,インテディックス,0
2114,8140001132036,新規,0,2023-10-24,2023-10-24,株式会社メガネット,,株式会社,兵庫県,西宮市,小松南町１丁目３番３３号,,28,204,6638124,,,,,,,2023-10-24,1,,,,,メガネット,0
2115,8140001132044,新規,0,2023-10-24,2023-10-24,おくだＯｎｅ株式会社,,株式会社,兵庫県,明石市,大久保町大窪２５９６番地の３,,28,203,6740051,,,,,,,2023-10-24,1,,,,,オクダワン,0
2116,8140001132085,新規,0,2023-10-24,2023-10-24,株式会社ＴＫＤ　ＡＲＣＨＩＴＥＣＴ,,株式会社,兵庫県,神戸市長田区,東尻池町２丁目８番７号カーサヤナガワ２０２号,,28,106,6530022,,,,,,,2023-10-24,1,,,,,ティーケーディーアーキテクト,0
2123,8150001026823,新規,0,2023-10-24,2023-10-24,株式会社純良,,株式会社,奈良県,生駒市,北大和５丁目６番地１８,,29,209,6300121,,,,,,,2023-10-24,1,,,,,スミラ,0
2124,8150001026831,新規,0,2023-10-24,2023-10-24,株式会社ソビアル,,株式会社,奈良県,奈良市,東紀寺町２丁目１０番１号,,29,201,6308305,,,,,,,2023-10-24,1,,,,,ソビアル,0
2133,8180003025903,新規,0,2023-10-24,2023-10-24,ＡＫ興産合同会社,,合同会社,愛知県,名古屋市南区,前浜通６丁目１５番地,,23,112,4570058,,,,,,,2023-10-24,1,,,,,エイケイコウサン,0
2144,8210001019523,新規,0,2023-10-24,2023-10-24,株式会社ＭＫ．Ｃｒｅｓｔ,,株式会社,福井県,福井市,上野本町３丁目１６２０－２Ｆ,,18,201,9100134,,,,,,,2023-10-24,1,,,,,エムケークレスト,0
2154,8260001038436,新規,0,2023-10-24,2023-10-24,株式会社ヒーリングセオリー,,株式会社,岡山県,岡山市中区,西川原１１９番地２６－９０１,,33,102,7038258,,,,,,,2023-10-24,1,,,,,ヒーリングセオリー,0
2155,8260003004477,新規,0,2023-10-24,2023-10-24,松田工業合同会社,,合同会社,岡山県,井原市,木之子町１２１番地１,,33,207,7150004,,,,,,,2023-10-24,1,,,,,マツダコウギョウ,0
2165,8290001103518,新規,0,2023-10-24,2023-10-24,株式会社日農研,,株式会社,福岡県,福岡市早良区,田隈２丁目３１－３３アメニティタウン奥田Ｃ－２,,40,137,8140174,,,,,,,2023-10-24,1,,,,,ニチノウケン,0
2169,8290003014531,新規,0,2023-10-24,2023-10-24,合同会社ｌｏｋｋｉ,,合同会社,福岡県,福岡市早良区,昭代２丁目３番６号,,40,137,8140012,,,,,,,2023-10-24,1,,,,,ロッキ,0
2175,8290801029986,新規,0,2023-10-24,2023-10-24,株式会社Ｒｏｃｋ,,株式会社,福岡県,田川市,大字奈良１５３９番地１０８,,40,206,8260043,,,,,,,2023-10-24,1,,,,,ロック,0
2178,8320001020107,新規,0,2023-10-24,2023-10-24,自分株式会社,,株式会社,大分県,大分市,畑中１丁目１０番８８－４号,,44,201,8700856,,,,,,,2023-10-24,1,,,,,ジブン,0
2184,8360003013385,新規,0,2023-10-24,2023-10-24,合同会社マークス,,合同会社,沖縄県,宮古島市,平良字西里９３５番地８県営西里団地１号棟１０１号室,,47,214,9060012,,,,,,,2023-10-24,1,,,,,マークス,0
2191,8390001017410,新規,0,2023-10-24,2023-10-24,株式会社ＨＩ‐ＲＯＸ,,株式会社,山形県,山形市,大字見崎１９番地,,06,201,9900803,,,,,,,2023-10-24,1,,,,,ハイロックス,0
2197,8430001090254,新規,0,2023-10-24,2023-10-24,株式会社Ｌｉｎｋｙ　Ｗｏｒｋｓ,,株式会社,北海道,札幌市豊平区,美園六条６丁目２番１－３０１号,,01,105,0620006,,,,,,,2023-10-24,1,,,,,リンキーワークス,0
2202,8460101007452,新規,0,2023-10-24,2023-10-24,株式会社ゴッドレンタカー,,株式会社,北海道,帯広市,西五条南４１丁目７番地６,,01,207,0800015,,,,,,,2023-10-24,1,,,,,ゴッドレンタカー,0
2204,8470001019860,新規,0,2023-10-24,2023-10-24,株式会社宮下工務店,,株式会社,香川県,小豆郡小豆島町,安田甲８８８番地２,,37,324,7614411,,,,,,,2023-10-24,1,,,,,ミヤシタコウムテン,0
2218,8700150115998,新規,0,2023-10-24,2023-10-24,ｆｏｓｈａｎｓｈｉｓｈｕｎｄｅｑｕｙａｏｔｉａｎｇｕａｎｇｇａｏｃｅｈｕａｙｏｕｘｉａｎｇｏｎｇｓｉ,,外国会社等,,,,,,,,ｓｈｕｎｄｅｑｕｄａｌｉａｎｇｘｉｎｇｕｉｂｅｉｌｕ２２１ｈａｏｊｉｎｇｕａｎｇｅ７ｈａｏｐｕ　ｆｏｓｈａｎｓｈｉ　ｇｕａｎｇｄｏｎｇｓｈｅｎｇ　５２８３１１　ＣＮ,,,,,,2023-10-24,1,,,,,フォーシャンシシュンダチュイヤオティェングァンガオツァホアヨウシェンゴンスー,0
2219,8700150120115,新規,0,2023-10-24,2023-09-12,恵庭市交通安全協会,,その他,北海道,恵庭市,美咲野１丁目４－１,,01,231,0611427,,,,,,,2023-09-12,1,,,,,エニワシコウツウアンゼンキヨウカイ,0
2220,8700150121336,新規,0,2023-10-24,2023-10-24,Ｓｈｅｎｚｈｅｎ　Ｓｈｕｎｈｅｙｕａｎ　Ｅｌｅｃｔｒｏｎｉｃ　Ｃｏｍｍｅｒｃｅ　Ｃｏ．，Ｌｔｄ．,,外国会社等,,,,,,,,ＣＮ，５１８０００，Ｇｕａｎｇｄｏｎｇ，Ｓｈｅｎｚｈｅｎｓｈｉ，Ｌｏｎｇｈｕａｑｕｌｏｎｇｈｕａｊｉｅｄａｏ，ＱｉｎｇｈｕａｓｈｅｑｕｈｕａｑｉｎｇｄａｄａｏｓｈｅｎｌｉｇｏｎｇｙｅｙｕａｎＣｄｏｎｇ２ｃｅｎｇ２１６,,,,,,2023-10-24,1,,,,,シェンジェンシーシュンホーユエンディエンズーシャンウーヨウシエンゴンスー,0
2221,8700150121344,新規,0,2023-10-24,2023-10-24,ＴＵＮＡＩ　ＣＲＥＡＴＩＶＥ　ＩＮＣ．,,外国会社等,,,,,,,,７Ｆ．，Ｎｏ．６４，Ｓｅｃ．１，Ｚｈｏｎｇｓｈａｎ　Ｎ．Ｒｄ．，Ｚｈｏｎｇｓｈａｎ　Ｄｉｓｔ．Ｔａｉｐｅｉ　Ｃｉｔｙ　１０４００１，Ｔａｉｗａｎ（Ｒ．Ｏ．Ｃ．）,,,,,,2023-10-24,1,,,,,テュナイクリアテープインク,0
2228,9010001239330,新規,0,2023-10-24,2023-10-24,株式会社ＡＴＭＳ,,株式会社,東京都,千代田区,平河町１丁目６番１５号ＵＳビル８０２号室,,13,101,1020093,,,,,,,2023-10-24,1,,,,,アトムス,0
2229,9010001239454,新規,0,2023-10-24,2023-10-24,株式会社スマートコネクション,,株式会社,東京都,中央区,銀座１丁目１２番４号Ｎ＆ＥＢＬＤ．６Ｆ,,13,102,1040061,,,,,,,2023-10-24,1,,,,,スマートコネクション,0
2230,9010001239479,新規,0,2023-10-24,2023-10-24,株式会社ｍｐｍ,,株式会社,東京都,千代田区,東神田１丁目２番１０号泰岳ビル４Ｆ,,13,101,1010031,,,,,,,2023-10-24,1,,,,,エムピーエム,0
2231,9010001239487,新規,0,2023-10-24,2023-10-24,株式会社ワールドクリエイティブ,,株式会社,東京都,千代田区,外神田３丁目６番４号,,13,101,1010021,,,,,,,2023-10-24,1,,,,,ワールドクリエイティブ,0
2233,9010003041998,新規,0,2023-10-24,2023-10-24,合同会社恵比寿企画,,合同会社,東京都,中央区,東日本橋３丁目１番４号,,13,102,1030004,,,,,,,2023-10-24,1,,,,,エビスキカク,0
2234,9010003042014,新規,0,2023-10-24,2023-10-24,Ａｐｐａｌｇａ合同会社,,合同会社,東京都,千代田区,東神田１丁目１５－９－９０３,,13,101,1010031,,,,,,,2023-10-24,1,,,,,アパルガ,0
2263,9010901054085,新規,0,2023-10-24,2023-10-24,株式会社ｒｏｏｍ,,株式会社,東京都,世田谷区,奥沢７丁目３９番２７号,,13,112,1580083,,,,,,,2023-10-24,1,,,,,ルーム,0
2266,9010903008519,新規,0,2023-10-24,2023-10-24,ゼロームワークス合同会社,,合同会社,東京都,世田谷区,弦巻４丁目１１－２０－３０３,,13,112,1540016,,,,,,,2023-10-24,1,,,,,ゼロームワークス,0
2274,9011001157737,新規,0,2023-10-24,2023-10-24,株式会社フヒト,,株式会社,東京都,目黒区,青葉台４丁目４番１２号ＴＨＥ－Ｎ３,,13,110,1530042,,,,,,,2023-10-24,1,,,,,,0
2283,9011201025000,新規,0,2023-10-24,2023-10-24,株式会社Ｍｉｎｎａｍｉｇｏ,,株式会社,東京都,中野区,東中野３丁目１４番２６号アイレックス３０３,,13,114,1640003,,,,,,,2023-10-24,1,,,,,ミンナミーゴ,0
2284,9011203004209,新規,0,2023-10-24,2023-10-24,合同会社ｍｉｎｋａ,,合同会社,東京都,中野区,新井２丁目３０－４ＩＦＯビル７ＦＢ,,13,114,1650026,,,,,,,2023-10-24,1,,,,,ミンカ,0
2287,9011303004942,新規,0,2023-10-24,2023-10-24,ＩＢＳ合同会社,,合同会社,東京都,杉並区,梅里２丁目２４番１７号ＰＩＮＥＳＴＩＧＥ梅里１０３,,13,115,1660011,,,,,,,2023-10-24,1,,,,,アイビーエス,0
2295,9012301013638,新規,0,2023-10-24,2023-10-24,Ｋａｎｄｏ‐Ｌｉｆｅ‐Ｄｅｓｉｇｎｓ株式会社,,株式会社,東京都,町田市,南成瀬１丁目６番地９カワタビル１－２０２,,13,209,1940045,,,,,,,2023-10-24,1,,,,,カンドウライフデザイン,0
2301,9013301051529,新規,0,2023-10-24,2023-10-24,株式会社Ｉｎｎｏｖａｔｉｏｎ,,株式会社,東京都,豊島区,池袋４丁目１２番２０号,,13,116,1710014,,,,,,,2023-10-24,1,,,,,イノベーション,0
2307,9020001153992,新規,0,2023-10-24,2023-10-24,Ｄ・Ｓ株式会社,,株式会社,神奈川県,横浜市磯子区,中原３丁目５番２４－１号,,14,107,2350036,,,,,,,2023-10-24,1,,,,,ディーエス,0
2308,9020001154108,新規,0,2023-10-24,2023-10-24,旭電気株式会社,,株式会社,神奈川県,横浜市金沢区,堀口２０番２－４０５号,,14,108,2360054,,,,,,,2023-10-24,1,,,,,アサヒデンキ,0
2309,9020001154116,新規,0,2023-10-24,2023-10-24,盛豪株式会社,,株式会社,神奈川県,横浜市中区,伊勢佐木町４丁目１２１番地ライオンズマンション伊勢佐木町４０５号室,,14,104,2310045,,,,,,,2023-10-24,1,,,,,セイゴウ,0
2310,9020001154124,新規,0,2023-10-24,2023-10-24,株式会社レトロハウス,,株式会社,神奈川県,横浜市神奈川区,鶴屋町２丁目９番２２号日興パレス横浜３階,,14,102,2210835,,,,,,,2023-10-24,1,,,,,レトロハウス,0
2314,9020003024779,新規,0,2023-10-24,2023-10-24,山歌合同会社,,合同会社,神奈川県,横浜市鶴見区,馬場７丁目１０－２－２,,14,101,2300076,,,,,,,2023-10-24,1,,,,,サンカ,0
2332,9030003022823,新規,0,2023-10-24,2023-10-24,金諾エクスポート合同会社,,合同会社,埼玉県,さいたま市岩槻区,大字古ケ場７１７番地５,,11,110,3390072,,,,,,,2023-10-24,1,,,,,キンダクエクスポート,0
2338,9040001130627,新規,0,2023-10-24,2023-10-24,株式会社珠理,,株式会社,千葉県,香取市,分郷２５２番地,,12,236,2890305,,,,,,,2023-10-24,1,,,,,シュリ,0
2339,9040001130651,新規,0,2023-10-24,2023-10-24,株式会社Ｎｅｘｔ　ｓｔａｇｅ,,株式会社,千葉県,東金市,西福俵７２番地２,,12,213,2830816,,,,,,,2023-10-24,1,,,,,ネクストステージ,0
2345,9040003023614,新規,0,2023-10-24,2023-10-24,合同会社Ｂｒｕｂａ,,合同会社,千葉県,浦安市,日の出５丁目５－１－５１４,,12,227,2790013,,,,,,,2023-10-24,1,,,,,ブルーバ,0
2350,9060001036450,新規,0,2023-10-24,2023-10-24,足利断熱株式会社,,株式会社,栃木県,足利市,赤松台２丁目１９番地９,,09,202,3260062,,,,,,,2023-10-24,1,,,,,アシカガダンネツ,0
2355,9070001041012,新規,0,2023-10-24,2023-10-24,株式会社セントモルディング,,株式会社,群馬県,伊勢崎市,大手町２７番地３,,10,204,3720048,,,,,,,2023-10-24,1,,,,,セントモルディング,0
2363,9070003005147,新規,0,2023-10-24,2023-10-24,合同会社Ｎｅｘｔ　Ｇ．ｆｏｏｄ　Ｐｒｏｄｕｃｔｓ,,合同会社,群馬県,高崎市,高浜町甲８８０番地,,10,202,3703333,,,,,,,2023-10-24,1,,,,,ネクストジーフードプロダクツ,0
2364,9080003003083,新規,0,2023-10-24,2023-10-24,静岡メンテ合同会社,,合同会社,静岡県,静岡市駿河区,西脇１１２５番地の４,,22,102,4228044,,,,,,,2023-10-24,1,,,,,シズオカメンテ,0
2367,9090001018388,新規,0,2023-10-24,2023-10-24,株式会社ファーストペンギン,,株式会社,山梨県,南アルプス市,東南湖３１５５番地１,,19,208,4000412,,,,,,,2023-10-24,1,,,,,ファーストペンギン,0
2374,9100001036909,新規,0,2023-10-24,2023-10-24,株式会社デンタルクラフト,,株式会社,長野県,安曇野市,豊科４２７５番地７,,20,220,3998205,,,,,,,2023-10-24,1,,,,,デンタルクラフト,0
2375,9100001036917,新規,0,2023-10-24,2023-10-24,株式会社ＮＡＫ,,株式会社,長野県,千曲市,大字森６３６番地３,,20,218,3870005,,,,,,,2023-10-24,1,,,,,ナック,0
2377,9100003007239,新規,0,2023-10-24,2023-10-24,合同会社ｃｏｚｙ,,合同会社,長野県,長野市,大字長野東後町３６番地３,,20,201,3800832,,,,,,,2023-10-24,1,,,,,コージー,0
2387,9120001259012,新規,0,2023-10-24,2023-10-24,株式会社ＮＩＣＥ,,株式会社,大阪府,大阪市東成区,東小橋２丁目３－２－１Ｆ,,27,115,5370024,,,,,,,2023-10-24,1,,,,,ナイス,0
2388,9120001259103,新規,0,2023-10-24,2023-10-24,株式会社砂金,,株式会社,大阪府,大阪市淀川区,三国本町３丁目９番５４号,,27,123,5320005,,,,,,,2023-10-24,1,,,,,サキン,0
2392,9120003025156,新規,0,2023-10-24,2023-10-24,合同会社ｓｔｏｃｋｍｉｎｄ,,合同会社,大阪府,大阪市北区,梅田１丁目２番２号大阪駅前第２ビル１２－１２,,27,127,5300001,,,,,,,2023-10-24,1,,,,,ストックマインド,0
2399,9120901048241,新規,0,2023-10-24,2023-10-24,株式会社風日,,株式会社,大阪府,吹田市,千里丘下２５番２７号,,27,205,5650813,,,,,,,2023-10-24,1,,,,,フウカ,0
2407,9130001075458,新規,0,2023-10-24,2023-10-24,ＹｅｎＳａｎ株式会社,,株式会社,京都府,京都市東山区,馬町通妙法院北門前妙法院前側町４２９－１６,,26,105,6050000,,,,,,,2023-10-24,1,,,,,イェンサン,0
2409,9140001132084,新規,0,2023-10-24,2023-10-24,株式会社晴の音,,株式会社,兵庫県,姫路市,坂田町１番地１サンヒルズ坂田町３０４,,28,201,6700931,,,,,,,2023-10-24,1,,,,,ハレノオト,0
2410,9140001132101,新規,0,2023-10-24,2023-10-24,木津機設株式会社,,株式会社,兵庫県,尼崎市,大島２丁目５番１１号,,28,202,6600076,,,,,,,2023-10-24,1,,,,,キヅキセツ,0
2411,9140001132126,新規,0,2023-10-24,2023-10-24,株式会社ＧＬＭ,,株式会社,兵庫県,明石市,松江１２２番地,,28,203,6730036,,,,,,,2023-10-24,1,,,,,ジーエルエム,0
2416,9150001026830,新規,0,2023-10-24,2023-10-24,株式会社ホテル関西,,株式会社,奈良県,奈良市,東紀寺町２丁目１０番１号,,29,201,6308305,,,,,,,2023-10-24,1,,,,,ホテルカンサイ,0
2420,9170005007049,新規,0,2023-10-24,2023-10-24,一般社団法人全国盗撮犯罪防止ネットワーク,,その他の設立登記法人,和歌山県,和歌山市,日野３３番地,,30,201,6400111,,,,,,,2023-10-24,1,,,,,ゼンコクトウサツハンザイボウシネットワーク,0
2433,9180302028515,新規,0,2023-10-24,2023-10-24,有限会社丸十重機作業所,,有限会社,愛知県,岡崎市,伊賀町３６６番地,,23,202,4440075,,,,,,,2023-10-24,1,,,,,マルジュウジュウキサギョウショ,0
2435,9190001030837,新規,0,2023-10-24,2023-10-24,株式会社深井総業,,株式会社,三重県,鈴鹿市,住吉５丁目１４番３５号,,24,207,5130826,,,,,,,2023-10-24,1,,,,,フカイソウギョウ,0
2439,9200003006123,新規,0,2023-10-24,2023-10-24,ＧＡＯ合同会社,,合同会社,岐阜県,岐阜市,小野２丁目１３９番地４,,21,201,5011174,,,,,,,2023-10-24,1,,,,,ガオ,0
2447,9240001062313,新規,0,2023-10-24,2023-10-24,株式会社ＴＨＣ,,株式会社,広島県,呉市,広白石３丁目１８番８号,,34,202,7370143,,,,,,,2023-10-24,1,,,,,,0
2449,9240003006383,新規,0,2023-10-24,2023-10-24,合同会社ラポール訪問看護ステーション,,合同会社,広島県,廿日市市,上平良１３６８番地１７,,34,213,7380026,,,,,,,2023-10-24,1,,,,,ラポールホウモンカンゴステーション,0
2451,9250001020369,新規,0,2023-10-24,2023-10-24,株式会社ＳＡＮＥＩ,,株式会社,山口県,山口市,大内千坊２丁目１５番３号,,35,203,7530251,,,,,,,2023-10-24,1,,,,,サンエイ,0
2457,9260001038435,新規,0,2023-10-24,2023-10-24,ｉｔｃ株式会社,,株式会社,岡山県,岡山市中区,中井６１番地の９,,33,102,7038205,,,,,,,2023-10-24,1,,,,,アイティーシー,0
2458,9260001038443,新規,0,2023-10-24,2023-10-24,株式会社ｆｒｅｅｍａｎ,,株式会社,岡山県,岡山市北区,富田３４５番地１ツアンガーデンＡ３０５,,33,101,7000936,,,,,,,2023-10-24,1,,,,,フリーマン,0
2462,9290001103533,新規,0,2023-10-24,2023-10-24,株式会社ＳＴＡＲＴ,,株式会社,福岡県,福岡市中央区,六本松２丁目３番２１号,,40,133,8100044,,,,,,,2023-10-24,1,,,,,スタート,0
2463,9290003014472,新規,0,2023-10-24,2023-10-24,Ｌ＆Ｃ合同会社,,合同会社,福岡県,福岡市東区,和白４丁目２７－８シティベールＹＡＭＡＮＡ１階１０１号室,,40,131,8110202,,,,,,,2023-10-24,1,,,,,エルアンドシー,0
2464,9290801029985,新規,0,2023-10-24,2023-10-24,センタープリント株式会社,,株式会社,福岡県,北九州市八幡東区,大宮町１番２号,,40,108,8050003,,,,,,,2023-10-24,1,,,,,センタープリント,0
2465,9290803004524,新規,0,2023-10-24,2023-10-24,合同会社ＲＡＫＵＤＯ,,合同会社,福岡県,北九州市八幡西区,本城学研台２丁目２０－３－１００３,,40,109,8070807,,,,,,,2023-10-24,1,,,,,ラクド,0
2466,9290803004532,新規,0,2023-10-24,2023-10-24,合同会社かわさき,,合同会社,福岡県,田川郡川崎町,大字田原４０４－１,,40,605,8270004,,,,,,,2023-10-24,1,,,,,カワサキ,0
2470,9310001018679,新規,0,2023-10-24,2023-10-24,株式会社海,,株式会社,長崎県,南松浦郡新上五島町,有川郷２６１３番地２,,42,411,8574211,,,,,,,2023-10-24,1,,,,,ウミ,0
2475,9320001020106,新規,0,2023-10-24,2023-10-24,株式会社ＥＮＤＯ,,株式会社,大分県,大分市,長浜町２丁目８番１９号,,44,201,8700023,,,,,,,2023-10-24,1,,,,,エンド,0
2476,9330001031382,新規,0,2023-10-24,2023-10-24,株式会社濱自動車,,株式会社,熊本県,熊本市東区,八反田１丁目２番１７号丸伊ビル３０３号,,43,102,8618034,,,,,,,2023-10-24,1,,,,,ハマジドウシャ,0
2477,9330001031399,新規,0,2023-10-24,2023-10-24,株式会社モダン・エコ・プロパティーズ,,株式会社,熊本県,熊本市東区,新南部５丁目４番２０号,,43,102,8618028,,,,,,,2023-10-24,1,,,,,モダンエコプロパティーズ,0
2485,9360005006915,新規,0,2023-10-24,2023-10-24,一般社団法人ｋｏｔｏｂｕｋｉ,,その他の設立登記法人,沖縄県,糸満市,西崎６丁目１５番５号,,47,210,9010305,,,,,,,2023-10-24,1,,,,,コトブキ,0
2490,9370001050560,新規,0,2023-10-24,2023-10-24,株式会社千,,株式会社,宮城県,仙台市青葉区,上杉４丁目４番３１号,,04,101,9800011,,,,,,,2023-10-24,1,,,,,セン,0
2493,9390003002153,新規,0,2023-10-24,2023-10-24,Ｑコーポレーション合同会社,,合同会社,山形県,酒田市,幸町１丁目６番３０号,,06,204,9980023,,,,,,,2023-10-24,1,,,,,キュウコーポレーション,0
2495,9410001013629,新規,0,2023-10-24,2023-10-24,株式会社ＰＡＫトレーディング,,株式会社,秋田県,大館市,釈迦内字獅子ケ森１番地１１７,,05,204,0170012,,,,,,,2023-10-24,1,,,,,パークトレーディング,0
2496,9410003003859,新規,0,2023-10-24,2023-10-24,合同会社タナカ,,合同会社,秋田県,秋田市,泉中央２丁目６番１４号,,05,201,0100917,,,,,,,2023-10-24,1,,,,,タナカ,0
2497,9430001090253,新規,0,2023-10-24,2023-10-24,株式会社Ｓ‐ＳＥＮＳＥ　ＦＯＯＤＳ,,株式会社,北海道,苫小牧市,沼ノ端中央３丁目８－１０,,01,213,0591305,,,,,,,2023-10-24,1,,,,,エスセンスフーズ,0
2498,9430001090261,新規,0,2023-10-24,2023-10-24,株式会社ｎｉｃｏｒｏ,,株式会社,北海道,札幌市手稲区,前田七条６丁目５番１６号,,01,109,0060817,,,,,,,2023-10-24,1,,,,,ニコロ,0
2506,9700150114818,新規,0,2023-10-24,2023-10-24,ｓｈｅｎ　ｚｈｅｎ　ａｉ　ｋｕ　ｓｉ　ｋｅ　ｊｉ　ｙｏｕ　ｘｉａｎ　ｇｏｎｇ　ｓｉ,,外国会社等,,,,,,,,Ｅ２１０２，Ｄｏｎｇｃｈｅｎｇ　Ｃｅｎｔｒａｌ　Ｇａｒｄｅｎ（ＰｈａｓｅＩＩ）Ｌｉｕｙｕｅ　Ｃｏｍｍ．，Ｈｅｎｇｇａｎｇ　Ｓｔ．，Ｌｏｎｇｇａｎｇ　Ｄｉｓｔ．,,,,,,2023-10-24,1,,,,,シェンヂェンアイクースーカァージーヨウシィェンゴンスー,0
2507,9700150121335,新規,0,2023-10-24,2023-10-24,Ｓｈｅｎｚｈｅｎ　Ｂｅｒｓｅｍ　Ｉｎｄｕｓｔｒｉａｌ　Ｃｏ．，Ｌｔｄ,,外国会社等,,,,,,,,Ｊｉｎｈａｏ　Ｂｕｉｌｄｉｎｇ　１１１５，Ｎｏ．１０９，Ｆｕｙｏｎｇ　Ｓｅｃｔｉｏｎ，Ｇｕａｎｇｓｈｅｎ　Ｒｏａｄ，Ｆｅｎｇｈｕａｎｇ　Ｃｏｍｍｕｎｉｔｙ，Ｆｕｙｏｎｇ　Ｓｔｒｅｅｔ，Ｂａｏａｎ　Ｄｉｓｔｒｉｃｔ，Ｓｈｅｎｚｈｅｎ，Ｇｕａｎｇｄｏｎｇ,,,,,,2023-10-24,1,,,,,シェンジェンシーバイションシーイエヨウシエンゴンスー,0
2508,9700150121343,新規,0,2023-10-24,2023-10-24,ＦＩＲＭＮＥＳＳ　ＬＩＭＩＴＥＤ,,外国会社等,,,,,,,,ＦＬＡＴ　Ａ　１５／Ｆ　ＧＯＬＤＦＩＥＬＤ　ＩＮＤ　ＢＬＤＧ　１４４－１５０　ＴＡＩ　ＬＩＮ　ＰＡＩ　ＲＯＡＤ　ＫＷＡＩ　ＣＨＵＮＧ　ＮＴ,,,,,,2023-10-24,1,,,,,フィルムネスリミデット,0
