sequenceNumber,corporateNumber,process,correct,updateDate,changeDate,name,nameImageId,kind,prefectureName,cityName,streetNumber,addressImageId,prefectureCode,cityCode,postCode,addressOutside,addressOutsideImageId,closeDate,closeCause,successorCorporateNumber,changeCause,assignmentDate,latest,enName,enPrefectureName,enCityName,enAddressOutside,furigana,hihyoji
6,1010001236921,新規,0,2023-07-18,2023-07-18,波浮港醸造株式会社,,株式会社,東京都,大島町,波浮港４,,13,361,1000212,,,,,,,2023-07-18,1,,,,,ハブミナトジョウゾウ,0
7,1010001236946,新規,0,2023-07-18,2023-07-18,株式会社トートグローバル,,株式会社,東京都,中央区,銀座５丁目１２番１３号伊藤ビル１１Ｆ,,13,102,1040061,,,,,,,2023-07-18,1,,,,,トートグローバル,0
17,1010401175703,新規,0,2023-07-18,2023-07-18,株式会社太真,,株式会社,東京都,港区,白金１丁目９－１１,,13,103,1080072,,,,,,,2023-07-18,1,,,,,タイマ,0
18,1010401175752,新規,0,2023-07-18,2023-07-18,株式会社ｋｍビジネスサービス,,株式会社,東京都,港区,赤坂２丁目８番６号,,13,103,1070052,,,,,,,2023-07-18,1,,,,,ケイエムビジネスサービス,0
19,1010401175777,新規,0,2023-07-18,2023-07-18,ブラックパンサー株式会社,,株式会社,東京都,港区,南麻布４丁目１５番８号,,13,103,1060047,,,,,,,2023-07-18,1,,,,,ブラックパンサー,0
20,1010403030476,新規,0,2023-07-18,2023-07-18,高松市御厩池太陽光発電所合同会社,,合同会社,東京都,港区,港南２丁目１６番４号品川グランドセントラルタワー,,13,103,1080075,,,,,,,2023-07-18,1,,,,,タカマツシミマヤイケタイヨウコウハツデンショ,0
21,1010403030542,新規,0,2023-07-18,2023-07-18,合同会社ＪＫ　ＥＳＳ,,合同会社,東京都,港区,六本木３丁目１６番１９－３０２号,,13,103,1060032,,,,,,,2023-07-18,1,,,,,ジェイケイイーエスエス,0
25,1010501050772,新規,0,2023-07-18,2023-07-18,株式会社Ｑｕｅｅｎｃａ,,株式会社,東京都,台東区,雷門１丁目６番５－７０２号浅草田原町マンション,,13,106,1110034,,,,,,,2023-07-18,1,,,,,クィンカ,0
26,1010501050780,新規,0,2023-07-18,2023-07-18,株式会社ＴＯＰＧＵＮ,,株式会社,東京都,台東区,元浅草２丁目１番１４－４０２号ランバレー元浅草,,13,106,1110041,,,,,,,2023-07-18,1,,,,,トップガン,0
37,1010601063427,新規,0,2023-07-18,2023-07-18,株式会社建大,,株式会社,東京都,墨田区,横川４丁目１２－１３ＧＨマンション６０２号室,,13,107,1300003,,,,,,,2023-07-18,1,,,,,ケンダイ,0
40,1010701044566,新規,0,2023-07-18,2023-07-18,株式会社リバイバルパートナーズ,,株式会社,東京都,品川区,南大井４丁目１０－５－７０６号,,13,109,1400013,,,,,,,2023-07-18,1,,,,,リバイバルパートナーズ,0
42,1010801034161,新規,0,2023-07-18,2023-07-18,サンワハウジング株式会社,,株式会社,東京都,大田区,西六郷３丁目１０番地６号,,13,111,1440056,,,,,,,2023-07-18,1,,,,,サンワハウジング,0
52,1011001155673,新規,0,2023-07-18,2023-07-18,株式会社ＮＡＴＴＯ,,株式会社,東京都,渋谷区,神宮前６丁目２３番４号桑野ビル２Ｆ,,13,113,1500001,,,,,,,2023-07-18,1,,,,,ナット,0
53,1011001155707,新規,0,2023-07-18,2023-07-18,株式会社ＩＮ　ＢＬＯＳＳＯＭ,,株式会社,東京都,目黒区,八雲３丁目８－６,,13,110,1520023,,,,,,,2023-07-18,1,,,,,,0
54,1011001155723,新規,0,2023-07-18,2023-07-18,株式会社ＫｅｎｙＫｉｎｏｐｏｔ,,株式会社,東京都,渋谷区,千駄ヶ谷３丁目３番８号,,13,113,1510051,,,,,,,2023-07-18,1,,,,,ケニーキノポット,0
55,1011001155731,新規,0,2023-07-18,2023-07-18,ドーナツ・フロム・マシン株式会社,,株式会社,東京都,渋谷区,道玄坂１丁目１０番８号,,13,113,1500043,,,,,,,2023-07-18,1,,,,,ドーナツフロムマシン,0
56,1011001155756,新規,0,2023-07-18,2023-07-18,株式会社ＥｎｇｕｎＥｎｇｉｎｅｅｒ,,株式会社,東京都,渋谷区,恵比寿４丁目３－１クイズ恵比寿５１１,,13,113,1500013,,,,,,,2023-07-18,1,,,,,,0
58,1011003017137,新規,0,2023-07-18,2023-07-18,Ｈａｖｅ　ａ　ｎｉｃｅ　ｄａｙｓ　ｃｌｕｂ合同会社,,合同会社,東京都,渋谷区,円山町１５番３号,,13,113,1500044,,,,,,,2023-07-18,1,,,,,ハブアナイスデイズクラブ,0
59,1011003017178,新規,0,2023-07-18,2023-07-18,ＧＳＩ合同会社,,合同会社,東京都,渋谷区,道玄坂１丁目１０番８号渋谷道玄坂東急ビル２Ｆ－Ｃ,,13,113,1500043,,,,,,,2023-07-18,1,,,,,ジーエスアイ,0
74,1011601026984,新規,0,2023-07-18,2023-07-18,株式会社ＤｅｓｉｇｎＭｕｓｔ,,株式会社,東京都,練馬区,下石神井５丁目６番１６号,,13,120,1770042,,,,,,,2023-07-18,1,,,,,デザインマスト,0
89,1011803005737,新規,0,2023-07-18,2023-07-18,合同会社三栄アミューズメント,,合同会社,東京都,葛飾区,東立石１丁目１３番７－５０４号,,13,122,1240013,,,,,,,2023-07-18,1,,,,,サンエイアミューズメント,0
102,1020001152556,新規,0,2023-07-18,2023-07-18,株式会社憩,,株式会社,神奈川県,横浜市緑区,中山４丁目１２番３号,,14,113,2260019,,,,,,,2023-07-18,1,,,,,ケイ,0
109,1021001079608,新規,0,2023-07-18,2023-07-18,Ｅ‐ＴＲＵＳＴ株式会社,,株式会社,神奈川県,藤沢市,藤沢８６番地８,,14,205,2510052,,,,,,,2023-07-18,1,,,,,イートラスト,0
110,1021001079616,新規,0,2023-07-18,2023-07-18,株式会社ＬＩＶＥ湘南,,株式会社,神奈川県,藤沢市,鵠沼藤が谷２丁目１番１号ブランヴェール湘南鵠沼５０１号室,,14,205,2510031,,,,,,,2023-07-18,1,,,,,リブショウナン,0
112,1021003013333,新規,0,2023-07-18,2023-07-18,合同会社Ｒｉｇｈｔｓ　Ｉｎｃｏｍｅ,,合同会社,神奈川県,厚木市,山際１７１番地１４,,14,212,2430803,,,,,,,2023-07-18,1,,,,,ライツインカム,0
120,1030003022137,新規,0,2023-07-18,2023-07-18,合同会社ＡｆｔｅｒＬｉｆｅ,,合同会社,埼玉県,久喜市,上川崎４６２番地３,,11,232,3400204,,,,,,,2023-07-18,1,,,,,アフターライフ,0
121,1030003022178,新規,0,2023-07-18,2023-07-18,エル・アンド・ジー合同会社,,合同会社,埼玉県,新座市,馬場１丁目９－１５,,11,230,3520016,,,,,,,2023-07-18,1,,,,,エルアンドジー,0
124,1040001129206,新規,0,2023-07-18,2023-07-18,ＳＡＴＯ　Ｇｒｏｕｐ　Ｈｏｌｄｉｎｇｓ株式会社,,株式会社,千葉県,流山市,駒木６３１番地,,12,220,2700132,,,,,,,2023-07-18,1,,,,,サトウグループホールディングス,0
125,1040001129263,新規,0,2023-07-18,2023-07-18,株式会社ＤＡＩＳＳＹ,,株式会社,千葉県,松戸市,本町１２番地１５,,12,207,2710091,,,,,,,2023-07-18,1,,,,,デイジー,0
127,1050001053165,新規,0,2023-07-18,2023-07-18,株式会社サスウェル,,株式会社,茨城県,水戸市,谷田町８０４－１,,08,201,3100825,,,,,,,2023-07-18,1,,,,,サスウェル,0
131,1070005010144,新規,0,2023-07-18,2023-07-18,一般社団法人だうぱ,,その他の設立登記法人,群馬県,利根郡みなかみ町,月夜野３２７３－２テレワークセンターＭＩＮＡＫＡＭＩ,,10,449,3791313,,,,,,,2023-07-18,1,,,,,ダウパ,0
139,1100001036593,新規,0,2023-07-18,2023-07-18,株式会社Ｓ３‐ＧＡＲＡＧＥ,,株式会社,長野県,長野市,豊野町蟹沢２８００,,20,201,3891103,,,,,,,2023-07-18,1,,,,,エススリーガレージ,0
140,1100001036602,新規,0,2023-07-18,2023-07-18,中村興業株式会社,,株式会社,長野県,諏訪郡下諏訪町,社１１番地２４,,20,361,3930000,,,,,,,2023-07-18,1,,,,,ナカムラコウギョウ,0
142,1100005013044,新規,0,2023-07-18,2023-07-18,一般社団法人ひかり奨学会,,その他の設立登記法人,長野県,千曲市,大字磯部１４８６番地,,20,218,3890806,,,,,,,2023-07-18,1,,,,,ヒカリショウガッカイ,0
159,1120001256207,新規,0,2023-07-18,2023-07-18,株式会社グロースシフト,,株式会社,大阪府,大阪市中央区,高麗橋４丁目１番１号大阪興銀ビル１０階,,27,128,5410043,,,,,,,2023-07-18,1,,,,,グロースシフト,0
160,1120001256421,新規,0,2023-07-18,2023-07-18,株式会社ｍｏｃｈｉｋｕｒｏ,,株式会社,大阪府,大阪市西区,南堀江４丁目１２番１９号７０１,,27,106,5500015,,,,,,,2023-07-18,1,,,,,モチクロ,0
161,1120001256479,新規,0,2023-07-18,2023-07-18,株式会社Ｓ‐Ｌｉｎｋｓ,,株式会社,大阪府,大阪市北区,梅田１丁目２番２号大阪駅前第２ビル１２－１２,,27,127,5300001,,,,,,,2023-07-18,1,,,,,エスリンクス,0
162,1120001256495,新規,0,2023-07-18,2023-07-18,株式会社Ｓｉｌｌ,,株式会社,大阪府,大阪市北区,豊崎１丁目２番２２－２０１号室,,27,127,5310072,,,,,,,2023-07-18,1,,,,,シル,0
163,1120001256504,新規,0,2023-07-18,2023-07-18,株式会社ＷＯＲＴＨ,,株式会社,大阪府,大阪市淀川区,木川東２丁目５番４１号Ｋ－２ＥＡＳＴ２０６,,27,123,5320012,,,,,,,2023-07-18,1,,,,,ワース,0
164,1120001256529,新規,0,2023-07-18,2023-07-18,株式会社深川コンツェルン,,株式会社,大阪府,大阪市北区,中津３丁目６番１５号,,27,127,5310071,,,,,,,2023-07-18,1,,,,,フカガワコンツェルン,0
165,1120001256545,新規,0,2023-07-18,2023-07-18,ナニコレソリューションズ株式会社,,株式会社,大阪府,大阪市浪速区,敷津西２丁目５番７－１０１０号,,27,111,5560015,,,,,,,2023-07-18,1,,,,,ナニコレソリューションズ,0
170,1120101067891,新規,0,2023-07-18,2023-07-18,奥河内ラジオ株式会社,,株式会社,大阪府,河内長野市,美加の台５丁目１６番４号,,27,216,5860044,,,,,,,2023-07-18,1,,,,,オクカワチラジオ,0
171,1120101067909,新規,0,2023-07-18,2023-07-18,ＢＥＳＴ　ＰＡＣＥ株式会社,,株式会社,大阪府,和泉市,緑ケ丘２丁目１３番８号,,27,219,5941155,,,,,,,2023-07-18,1,,,,,ベストペース,0
175,1120105009741,新規,0,2023-07-18,2023-07-18,医療法人ＳＯＴ,,その他の設立登記法人,大阪府,岸和田市,土生町５丁目１番３４号プリマード東岸和田１０２号,,27,202,5960825,,,,,,,2023-07-18,1,,,,,エスオーティー,0
177,1120901047779,新規,0,2023-07-18,2023-07-18,株式会社ＦＬＹＯＶＥＲ,,株式会社,大阪府,茨木市,太田東芝町２番７号の７,,27,211,5670013,,,,,,,2023-07-18,1,,,,,フライオーバー,0
192,1140001130896,新規,0,2023-07-18,2023-07-18,Ｍｕｓｅｓ株式会社,,株式会社,兵庫県,神戸市須磨区,衣掛町５丁目２番４－２０３号,,28,107,6540048,,,,,,,2023-07-18,1,,,,,ミューズ,0
194,1140003019312,新規,0,2023-07-18,2023-07-18,海風貿易合同会社,,合同会社,兵庫県,神戸市灘区,赤坂通８丁目６番６号サンヴェール青谷２０３号室,,28,102,6570821,,,,,,,2023-07-18,1,,,,,ウミカゼボウエキ,0
195,1140003019320,新規,0,2023-07-18,2023-07-18,合同会社播州Ｂａｓｅ,,合同会社,兵庫県,西脇市,西脇１０４７番地,,28,213,6770015,,,,,,,2023-07-18,1,,,,,バンシュウベース,0
196,1140005026686,新規,0,2023-07-18,2023-07-18,一般社団法人社会福祉共役会,,その他の設立登記法人,兵庫県,芦屋市,月若町７番１９－２０２号,,28,206,6590084,,,,,,,2023-07-18,1,,,,,シャカイフクシキョウヤクカイ,0
197,1150001026549,新規,0,2023-07-18,2023-07-18,株式会社ＭＯＣＨＩＤＡ　ＧＲＯＵＰ,,株式会社,奈良県,奈良市,鹿野園町８３１番地,,29,201,6308425,,,,,,,2023-07-18,1,,,,,モチダグループ,0
198,1160001025194,新規,0,2023-07-18,2023-07-18,カミタ株式会社,,株式会社,滋賀県,近江八幡市,東川町８２５番地７,,25,204,5230027,,,,,,,2023-07-18,1,,,,,カミタ,0
210,1180001157168,新規,0,2023-07-18,2023-07-18,株式会社ｏｒｃｈｉｄ,,株式会社,愛知県,一宮市,本町４丁目９番２０号,,23,203,4910859,,,,,,,2023-07-18,1,,,,,オーキッド,0
211,1180001157184,新規,0,2023-07-18,2023-07-18,東洋ホールディングス株式会社,,株式会社,愛知県,名古屋市瑞穂区,下坂町３丁目５０番地の８,,23,108,4670827,,,,,,,2023-07-18,1,,,,,トウヨウホールディングス,0
215,1180301037573,新規,0,2023-07-18,2023-07-18,株式会社ｎｉｋｏ　ｆａｒｍ,,株式会社,愛知県,豊橋市,富久縞町字富久縞１３番地,,23,201,4418005,,,,,,,2023-07-18,1,,,,,ニコファーム,0
221,1200001041501,新規,0,2023-07-18,2023-07-18,株式会社０,,株式会社,岐阜県,揖斐郡池田町,願成寺２５９番地の２,,21,404,5032405,,,,,,,2023-07-18,1,,,,,ゼロ,0
222,1200005013505,新規,0,2023-07-18,2023-07-18,一般社団法人岐志塾,,その他の設立登記法人,岐阜県,岐阜市,薮田南３丁目７番２０号,,21,201,5008384,,,,,,,2023-07-18,1,,,,,ギシジュク,0
224,1210001019380,新規,0,2023-07-18,2023-07-18,株式会社清水マイカー,,株式会社,福井県,越前市,家久町第４６号１６番地,,18,209,9150801,,,,,,,2023-07-18,1,,,,,シミズマイカー,0
225,1210003001667,新規,0,2023-07-18,2023-07-18,合同会社ＨＯＯＰ,,合同会社,福井県,福井市,大宮１丁目１１番３５号近藤ビル２０１,,18,201,9100016,,,,,,,2023-07-18,1,,,,,フープ,0
229,1240001061826,新規,0,2023-07-18,2023-07-18,あかりホーム株式会社,,株式会社,広島県,福山市,川口町２丁目５番１０号三村ビル１Ｆ,,34,207,7200822,,,,,,,2023-07-18,1,,,,,アカリホーム,0
230,1240003006226,新規,0,2023-07-18,2023-07-18,ＴＯＯＬ　ＤＯＯＲ合同会社,,合同会社,広島県,広島市東区,牛田中２丁目９番８号,,34,102,7320065,,,,,,,2023-07-18,1,,,,,ツールドア,0
236,1270003001538,新規,0,2023-07-18,2023-07-18,オオクラデンキ合同会社,,合同会社,鳥取県,鳥取市,立川町１丁目１２番地,,31,201,6800061,,,,,,,2023-07-18,1,,,,,オオクラデンキ,0
239,1280001008988,新規,0,2023-07-18,2023-07-18,株式会社モデルスタジオミューズ,,株式会社,島根県,松江市,内中原町３００番地４,,32,201,6900873,,,,,,,2023-07-18,1,,,,,モデルスタジオミューズ,0
248,1290801029712,新規,0,2023-07-18,2023-07-18,株式会社チャムズ,,株式会社,福岡県,北九州市小倉北区,香春口１丁目１５番１０－６０２号,,40,106,8020084,,,,,,,2023-07-18,1,,,,,チャムズ,0
261,1350001018443,新規,0,2023-07-18,2023-07-18,リトルパーク株式会社,,株式会社,宮崎県,宮崎市,小松台東１丁目６－７,,45,201,8800953,,,,,,,2023-07-18,1,,,,,リトルパーク,0
264,1360001032253,新規,0,2023-07-18,2023-07-18,株式会社Ｋ‐ＩＮＦＩＮＩＴＹ,,株式会社,沖縄県,豊見城市,字豊崎３番地の５９,,47,212,9010225,,,,,,,2023-07-18,1,,,,,ケーインフィニティ,0
265,1360001032261,新規,0,2023-07-18,2023-07-18,株式会社ＳＯＬ,,株式会社,沖縄県,那覇市,おもろまち４丁目１４番５号ＳｐｒｉｎｇＯｎｅ４０１,,47,201,9000006,,,,,,,2023-07-18,1,,,,,ソル,0
266,1360001032278,新規,0,2023-07-18,2023-07-18,株式会社メディラボ,,株式会社,沖縄県,うるま市,字田場８２６番地５,,47,213,9042213,,,,,,,2023-07-18,1,,,,,メディラボ,0
267,1360001032286,新規,0,2023-07-18,2023-07-18,株式会社アンジェ,,株式会社,沖縄県,那覇市,松山１丁目１番１０号京ビル５ロマネスク５階,,47,201,9000032,,,,,,,2023-07-18,1,,,,,アンジェ,0
268,1360001032294,新規,0,2023-07-18,2023-07-18,株式会社アレンアレック,,株式会社,沖縄県,那覇市,泊１丁目３番８号ミルコマンション泊リヴィエラ７０１号室,,47,201,9000012,,,,,,,2023-07-18,1,,,,,アレンアレック,0
280,1410001013553,新規,0,2023-07-18,2023-07-18,株式会社ＹＯＳＨＩＤＡ,,株式会社,秋田県,秋田市,広面字谷内佐渡３３番地１,,05,201,0100041,,,,,,,2023-07-18,1,,,,,ヨシダ,0
281,1410005006529,新規,0,2023-07-18,2023-07-18,ＳＡＴ事業協同組合,,その他の設立登記法人,秋田県,横手市,寿町３番３号,,05,203,0130025,,,,,,,2023-07-18,1,,,,,,0
291,1430003015273,新規,0,2023-07-18,2023-07-18,合同会社ＬＥＦＴＯ,,合同会社,北海道,札幌市東区,北二十六条東１８丁目１‐１９,,01,103,0650026,,,,,,,2023-07-18,1,,,,,レフト,0
296,1470003002458,新規,0,2023-07-18,2023-07-18,合同会社傳,,合同会社,香川県,高松市,花ノ宮町１丁目１２番１５号,,37,201,7618063,,,,,,,2023-07-18,1,,,,,ツタエ,0
299,1700150118462,新規,0,2023-07-18,2023-07-18,Ｎｉｎｇｙｕｅ　Ｔｒａｄｉｎｇ（Ｈｕｂｅｉ）Ｃｏ．，Ｌｔｄ,,外国会社等,,,,,,,,Ｓｏｕｔｈ　ｓｉｄｅ　ｏｆ　Ｇｏｌｄｅｎ　Ａｖｅｎｕｅ，Ｓｈａｚｕｉ　Ｓｔｒｅｅｔ　Ｒｏｏｍ　３００１，Ｆｌｏｏｒ　３，Ｕｎｉｔ　１，Ｘｉｎｔｉａｎｄｉ　Ｂｕｉｌｄｉｎｇ，Ｘｉａｎｔａｏ，Ｈｕｂｅｉ,,,,,,2023-07-18,1,,,,,ニンユエトゥレイディングフベイカンパニーリミテッド,0
306,2010001236904,新規,0,2023-07-18,2023-07-18,株式会社梅,,株式会社,東京都,千代田区,神田神保町２丁目１４番地朝日神保町プラザ８１０号,,13,101,1010051,,,,,,,2023-07-18,1,,,,,ウメ,0
307,2010001236937,新規,0,2023-07-18,2023-07-18,株式会社ＶＷＣジャパン,,株式会社,東京都,中央区,銀座１丁目１２番４号Ｎ＆ＥＢＬＤ．６Ｆ,,13,102,1040061,,,,,,,2023-07-18,1,,,,,ブイダブリューシージャパン,0
308,2010001236994,新規,0,2023-07-18,2023-07-18,株式会社ＫＧＮ,,株式会社,東京都,中央区,銀座１丁目１２－４Ｎ＆Ｅ・ＢＬＤ．７階,,13,102,1040061,,,,,,,2023-07-18,1,,,,,ケージーエヌ,0
325,2010401175529,新規,0,2023-07-18,2023-07-18,株式会社Ｂｉｇａｓ,,株式会社,東京都,港区,港南２丁目１７－１京王品川ビル２Ｆ,,13,103,1080075,,,,,,,2023-07-18,1,,,,,ビーガス,0
326,2010401175603,新規,0,2023-07-18,2023-07-18,お受験サポート株式会社,,株式会社,東京都,港区,南青山２丁目２番８号ＤＦビル,,13,103,1070062,,,,,,,2023-07-18,1,,,,,オジュケンサポート,0
327,2010401175652,新規,0,2023-07-18,2023-07-18,株式会社ＢＬＯＯＭ,,株式会社,東京都,港区,南青山５丁目９番１０号サンク青山８階,,13,103,1070062,,,,,,,2023-07-18,1,,,,,ブルーム,0
328,2010401175719,新規,0,2023-07-18,2023-07-18,株式会社みらい,,株式会社,東京都,港区,北青山１丁目３番１号アールキューブ青山３階,,13,103,1070061,,,,,,,2023-07-18,1,,,,,ミライ,0
332,2010403030475,新規,0,2023-07-18,2023-07-18,合同会社リンガベル,,合同会社,東京都,港区,麻布十番１丁目２番７号,,13,103,1060045,,,,,,,2023-07-18,1,,,,,リンガベル,0
333,2010403030500,新規,0,2023-07-18,2023-07-18,合同会社大石雅之建築設計事務所一級建築士事務所,,合同会社,東京都,港区,赤坂６丁目９－５,,13,103,1070052,,,,,,,2023-07-18,1,,,,,オオイシマサユキケンチクセッケイジムショイッキュウケンチクシジムショ,0
336,2010503007084,新規,0,2023-07-18,2023-07-18,合同会社ピース,,合同会社,東京都,台東区,西浅草２丁目２５番１５号ブランシール浅草１０３,,13,106,1110035,,,,,,,2023-07-18,1,,,,,ピース,0
340,2010703006778,新規,0,2023-07-18,2023-07-18,合同会社イノベーションスタジオ,,合同会社,東京都,品川区,西五反田１丁目２６番２号五反田サンハイツ９１１,,13,109,1410031,,,,,,,2023-07-18,1,,,,,イノベーションスタジオ,0
341,2010805003038,新規,0,2023-07-18,2023-07-18,税理士法人Ａ＆Ｉ,,その他の設立登記法人,東京都,大田区,大森北４丁目８番４号河内ビル４階,,13,111,1430016,,,,,,,2023-07-18,1,,,,,エーアンドアイ,0
342,2010901053449,新規,0,2023-07-18,2023-07-18,株式会社１９３１,,株式会社,東京都,世田谷区,野沢３丁目１５番１－４０５号,,13,112,1540003,,,,,,,2023-07-18,1,,,,,イチキュウサンイチ,0
344,2011001155689,新規,0,2023-07-18,2023-07-18,株式会社ｔｏｕｊｏｕｒｓ,,株式会社,東京都,渋谷区,恵比寿４丁目２２番１号サンハウスＡ号室,,13,113,1500013,,,,,,,2023-07-18,1,,,,,トゥジュー,0
345,2011001155730,新規,0,2023-07-18,2023-07-18,株式会社あすかペイロールプロ,,株式会社,東京都,目黒区,青葉台１丁目８番１号,,13,110,1530042,,,,,,,2023-07-18,1,,,,,アスカペイロールプロ,0
347,2011003017177,新規,0,2023-07-18,2023-07-18,柏キャピタル合同会社,,合同会社,東京都,目黒区,平町１丁目２２番１７－２１１号,,13,110,1520032,,,,,,,2023-07-18,1,,,,,カシワキャピタル,0
348,2011003017185,新規,0,2023-07-18,2023-07-18,合同会社官民ファンド機構,,合同会社,東京都,渋谷区,桜丘町８番１６号パークアクシス渋谷桜丘ウエスト２０６,,13,113,1500031,,,,,,,2023-07-18,1,,,,,,0
349,2011003017193,新規,0,2023-07-18,2023-07-18,合同会社トリリオン,,合同会社,東京都,渋谷区,渋谷２丁目１９－１５宮益坂ビルディング６０９,,13,113,1500002,,,,,,,2023-07-18,1,,,,,,0
352,2011101103639,新規,0,2023-07-18,2023-07-18,株式会社Ｑｕｓｅ,,株式会社,東京都,新宿区,大久保１丁目２番２０－１１０５号,,13,104,1690072,,,,,,,2023-07-18,1,,,,,キューズ,0
354,2011103013266,新規,0,2023-07-18,2023-07-18,合同会社Ｐｉｇｅｏｎｗｏｒｋｓ,,合同会社,東京都,新宿区,西新宿３丁目３番１３号西新宿水間ビル２Ｆ,,13,104,1600023,,,,,,,2023-07-18,1,,,,,ピジョンワークス,0
364,2011601026983,新規,0,2023-07-18,2023-07-18,株式会社フロレゾン,,株式会社,東京都,練馬区,上石神井３丁目３０番９号フロレゾン１０１,,13,120,1770044,,,,,,,2023-07-18,1,,,,,フロレゾン,0
370,2011803005736,新規,0,2023-07-18,2023-07-18,合同会社夏の陣,,合同会社,東京都,足立区,南花畑２丁目２番３号２０７号室,,13,121,1210062,,,,,,,2023-07-18,1,,,,,ナツノジン,0
377,2020001152530,新規,0,2023-07-18,2023-07-18,グローバル・ホームズ安株式会社,,株式会社,神奈川県,横浜市保土ケ谷区,岩井町４０４番地２２,,14,106,2400023,,,,,,,2023-07-18,1,,,,,グローバルホームズアン,0
378,2020001152539,新規,0,2023-07-18,2023-07-18,マシンフィールド株式会社,,株式会社,神奈川県,横浜市中区,山下町２２０番４号東源ビル地下１階,,14,104,2310023,,,,,,,2023-07-18,1,,,,,マシンフィールド,0
379,2020001152571,新規,0,2023-07-18,2023-07-18,ウエルグロー株式会社,,株式会社,神奈川県,川崎市中原区,井田中ノ町１２番２３号前田ビル１Ｆ,,14,133,2110034,,,,,,,2023-07-18,1,,,,,ウエルグロー,0
388,2021001079615,新規,0,2023-07-18,2023-07-18,ササジマデザインコープ株式会社,,株式会社,神奈川県,藤沢市,辻堂東海岸１丁目４－２１－２,,14,205,2510045,,,,,,,2023-07-18,1,,,,,ササジマデザインコープ,0
393,2030001154971,新規,0,2023-07-18,2023-07-18,ＡＴＳＵＭＩ株式会社,,株式会社,埼玉県,戸田市,上戸田２丁目３－３ルネサンス戸田公園８０２号,,11,224,3350022,,,,,,,2023-07-18,1,,,,,アツミ,0
396,2040001129270,新規,0,2023-07-18,2023-07-18,株式会社クオリア,,株式会社,千葉県,船橋市,西習志野３丁目２８－８,,12,204,2740815,,,,,,,2023-07-18,1,,,,,クオリア,0
397,2040001129279,新規,0,2023-07-18,2023-07-18,株式会社ＫＡＩＴＯ,,株式会社,千葉県,茂原市,法目３３５２番地,,12,210,2994113,,,,,,,2023-07-18,1,,,,,カイト,0
398,2040001129295,新規,0,2023-07-18,2023-07-18,株式会社ＴＮライフ企画,,株式会社,千葉県,千葉市若葉区,千城台東３丁目１２番２号,,12,104,2640002,,,,,,,2023-07-18,1,,,,,ティーエヌライフキカク,0
404,2050001053172,新規,0,2023-07-18,2023-07-18,ｍｕｕｕ株式会社,,株式会社,茨城県,笠間市,旭町３２１番地２,,08,216,3091717,,,,,,,2023-07-18,1,,,,,ムー,0
408,2050003007639,新規,0,2023-07-18,2023-07-18,ＡＫＢ　ＩＮＴＥＲＮＡＴＩＯＮＡＬ合同会社,,合同会社,茨城県,常総市,山口６０番地３,,08,211,3002715,,,,,,,2023-07-18,1,,,,,エーケービーインターナショナル,0
419,2100001036592,新規,0,2023-07-18,2023-07-18,コネクトファーム株式会社,,株式会社,長野県,長野市,大字鶴賀問御所町１２４１番地１,,20,201,3800834,,,,,,,2023-07-18,1,,,,,コネクトファーム,0
439,2120001256478,新規,0,2023-07-18,2023-07-18,株式会社エミライズ,,株式会社,大阪府,大阪市平野区,長吉六反３丁目１４番８号セレブリティ長吉プレミアムＣ１０１号,,27,126,5470012,,,,,,,2023-07-18,1,,,,,エミライズ,0
440,2120001256503,新規,0,2023-07-18,2023-07-18,株式会社ｙｅｌｌｏｗｂｕｃｋｓ,,株式会社,大阪府,大阪市淀川区,東三国３丁目１１番３２－５０６号,,27,123,5320002,,,,,,,2023-07-18,1,,,,,イエローバックス,0
441,2120001256536,新規,0,2023-07-18,2023-07-18,株式会社ヤスマミ,,株式会社,大阪府,大阪市西区,江戸堀１丁目１５番６号,,27,106,5500002,,,,,,,2023-07-18,1,,,,,ヤスマミ,0
442,2120003024420,新規,0,2023-07-18,2023-07-18,トゥルーパートナー合同会社,,合同会社,大阪府,大阪市城東区,鴫野東１丁目８－２０－０１号,,27,118,5360013,,,,,,,2023-07-18,1,,,,,トゥルーパートナー,0
443,2120003024486,新規,0,2023-07-18,2023-07-18,三矢パートナーズ合同会社,,合同会社,大阪府,枚方市,大垣内町２丁目１７番５号ダイショウビル２階,,27,210,5730027,,,,,,,2023-07-18,1,,,,,ミツヤパートナーズ,0
444,2120003024494,新規,0,2023-07-18,2023-07-18,合同会社ＦＲＥＥＤ,,合同会社,大阪府,大阪市北区,紅梅町４－２３,,27,127,5300038,,,,,,,2023-07-18,1,,,,,フリード,0
445,2120003024511,新規,0,2023-07-18,2023-07-18,合同会社自然生活ラボ,,合同会社,大阪府,大阪市中央区,上汐２丁目１番１３－２０２号,,27,128,5420064,,,,,,,2023-07-18,1,,,,,シゼンセイカツラボ,0
449,2120101067890,新規,0,2023-07-18,2023-07-18,株式会社細原,,株式会社,大阪府,河内長野市,市町５８４－２,,27,216,5860002,,,,,,,2023-07-18,1,,,,,ホソハラ,0
450,2120103005329,新規,0,2023-07-18,2023-07-18,合同会社ＢＯＳＳ,,合同会社,大阪府,藤井寺市,藤ケ丘３丁目７番１９号,,27,226,5830017,,,,,,,2023-07-18,1,,,,,ボス,0
453,2120901047803,新規,0,2023-07-18,2023-07-18,Ｍ株式会社,,株式会社,大阪府,摂津市,鳥飼上２丁目１番５２－３０１号,,27,224,5660062,,,,,,,2023-07-18,1,,,,,エム,0
456,2122001037164,新規,0,2023-07-18,2023-07-18,株式会社Ｕ＆Ｐ,,株式会社,大阪府,大東市,諸福３丁目１１－５,,27,218,5740044,,,,,,,2023-07-18,1,,,,,ユーアンドプー,0
457,2122001037172,新規,0,2023-07-18,2023-07-18,ＮＭロジ株式会社,,株式会社,大阪府,八尾市,高美町１丁目３番２４号,,27,212,5810017,,,,,,,2023-07-18,1,,,,,エヌエムロジ,0
466,2130005016828,新規,0,2023-07-18,2023-07-18,一般社団法人日本茜伝承プロジェクト,,その他の設立登記法人,京都府,南丹市,美山町安掛上ノ滝４６番地,,26,213,6010722,,,,,,,2023-07-18,1,,,,,ニホンアカネデンショウプロジェクト,0
479,2150001026548,新規,0,2023-07-18,2023-07-18,株式会社ソラフィニティ,,株式会社,奈良県,生駒郡三郷町,立野北２丁目２３番４号,,29,343,6360821,,,,,,,2023-07-18,1,,,,,ソラフィニティ,0
481,2160001025185,新規,0,2023-07-18,2023-07-18,株式会社ＴＡＮＡＫＡ工業,,株式会社,滋賀県,大津市,大萱３丁目１番２７－Ｃ号,,25,201,5202144,,,,,,,2023-07-18,1,,,,,タナカコウギョウ,0
482,2160001025193,新規,0,2023-07-18,2023-07-18,株式会社むらやま工務店,,株式会社,滋賀県,東近江市,大萩町２５７番地,,25,213,5270174,,,,,,,2023-07-18,1,,,,,ムラヤマコウムテン,0
491,2180001157142,新規,0,2023-07-18,2023-07-18,株式会社市鈴,,株式会社,愛知県,稲沢市,北市場本町２丁目９番地３４,,23,220,4928178,,,,,,,2023-07-18,1,,,,,イチリン,0
492,2180001157167,新規,0,2023-07-18,2023-07-18,力欧株式会社,,株式会社,愛知県,名古屋市昭和区,向山町１丁目５０番５号メゾンドスイート３０７号,,23,107,4660829,,,,,,,2023-07-18,1,,,,,リオ,0
493,2180001157175,新規,0,2023-07-18,2023-07-18,株式会社プロテクト,,株式会社,愛知県,名古屋市中区,千代田１丁目１０番２号ＲＥＳＩＤＥＮＣＥ・ＲＡＭＩＡ５０２号,,23,106,4600012,,,,,,,2023-07-18,1,,,,,プロテクト,0
494,2180001157183,新規,0,2023-07-18,2023-07-18,株式会社蔦茂,,株式会社,愛知県,名古屋市中村区,井深町１番１号,,23,105,4530012,,,,,,,2023-07-18,1,,,,,ツタモ,0
501,2180005020288,新規,0,2023-07-18,2023-07-18,国際支援マネジメント協同組合,,その他の設立登記法人,愛知県,名古屋市中村区,太閤１丁目８番１号,,23,105,4530801,,,,,,,2023-07-18,1,,,,,コクサイシエンマネジメント,0
513,2210001019388,新規,0,2023-07-18,2023-07-18,株式会社北陸産業,,株式会社,福井県,敦賀市,松葉町８番２０２号,,18,202,9140807,,,,,,,2023-07-18,1,,,,,ホクリクサンギョウ,0
517,2240001061833,新規,0,2023-07-18,2023-07-18,株式会社Ｋ．ｓ　ＳＰＡＣＥ,,株式会社,広島県,広島市安芸区,上瀬野２丁目１２－４１,,34,107,7390301,,,,,,,2023-07-18,1,,,,,ケイズスペース,0
520,2250001020169,新規,0,2023-07-18,2023-07-18,株式会社トラストエンジ,,株式会社,山口県,宇部市,松山町１丁目７番３５号,,35,202,7550026,,,,,,,2023-07-18,1,,,,,トラストエンジ,0
531,2290003014132,新規,0,2023-07-18,2023-07-18,合同会社ｂｌｏｏｍ,,合同会社,福岡県,福岡市博多区,博多駅前１丁目２３番２号ＰａｒｋＦｒｏｎｔ博多駅前１丁目５Ｆ－８,,40,132,8120011,,,,,,,2023-07-18,1,,,,,ブルーム,0
533,2290801029694,新規,0,2023-07-18,2023-07-18,株式会社ジャスティス,,株式会社,福岡県,遠賀郡水巻町,頃末南３丁目２０番２２号,,40,382,8070025,,,,,,,2023-07-18,1,,,,,ジャスティス,0
534,2290801029703,新規,0,2023-07-18,2023-07-18,Ｂ　ｐｌｕｓ株式会社,,株式会社,福岡県,北九州市小倉南区,長尾２丁目５番１０号,,40,107,8030274,,,,,,,2023-07-18,1,,,,,ビープラス,0
535,2290801029711,新規,0,2023-07-18,2023-07-18,株式会社ＧＯＺ,,株式会社,福岡県,北九州市門司区,北川町２番３２号,,40,101,8000004,,,,,,,2023-07-18,1,,,,,ゴーズ,0
536,2290803004464,新規,0,2023-07-18,2023-07-18,合同会社Ｓｕｐｐｏｒｔ　Ｏｎ　Ｓｏｌｕｔｉｏｎ,,合同会社,福岡県,北九州市八幡西区,市瀬２丁目１２番７号,,40,109,8060063,,,,,,,2023-07-18,1,,,,,サポートオンソリューション,0
545,2330001031059,新規,0,2023-07-18,2023-07-18,ＷｉｚＴｒｙ株式会社,,株式会社,熊本県,熊本市中央区,黒髪１丁目７番９号リ・ジュール黒髪１０３,,43,101,8600862,,,,,,,2023-07-18,1,,,,,ウィズトライ,0
554,2360001032252,新規,0,2023-07-18,2023-07-18,天通株式会社,,株式会社,沖縄県,宜野湾市,大山６丁目３－３,,47,205,9012223,,,,,,,2023-07-18,1,,,,,テンツウ,0
555,2360001032260,新規,0,2023-07-18,2023-07-18,株式会社Ｃｒｅｗ．Ｇｉｖｅｒ,,株式会社,沖縄県,浦添市,仲西１丁目２４番１－６０３号ライオンズマンション仲西,,47,208,9012125,,,,,,,2023-07-18,1,,,,,クルーギバー,0
556,2360001032277,新規,0,2023-07-18,2023-07-18,城次株式会社,,株式会社,沖縄県,沖縄市,比屋根７丁目１３番２１号,,47,211,9042173,,,,,,,2023-07-18,1,,,,,ジョウジ,0
559,2360003013127,新規,0,2023-07-18,2023-07-18,ＹＳＫ合同会社,,合同会社,沖縄県,中頭郡北谷町,字桑江６１８番地７,,47,326,9040103,,,,,,,2023-07-18,1,,,,,ワイエスケー,0
560,2360003013135,新規,0,2023-07-18,2023-07-18,合同会社ＳＵＣＫ,,合同会社,沖縄県,宮古島市,平良字東仲宗根８０５番地９ほわいとＭＳ１０５,,47,214,9060007,,,,,,,2023-07-18,1,,,,,サック,0
580,2430001089459,新規,0,2023-07-18,2023-07-18,株式会社ビィ,,株式会社,北海道,札幌市北区,新琴似五条１丁目４番１２－１０３号,,01,102,0010905,,,,,,,2023-07-18,1,,,,,ビィ,0
581,2430001089467,新規,0,2023-07-18,2023-07-18,結城ホールディングス株式会社,,株式会社,北海道,小樽市,銭函３丁目２５６番２,,01,203,0470261,,,,,,,2023-07-18,1,,,,,ユウキホールディングス,0
582,2430001089574,新規,0,2023-07-18,2023-07-18,株式会社ノース・トラスト,,株式会社,北海道,札幌市中央区,南一条西１６丁目１番地３２３春野ビル３Ｆ,,01,101,0600061,,,,,,,2023-07-18,1,,,,,ノーストラスト,0
588,2460301005162,新規,0,2023-07-18,2023-07-18,株式会社メロティピ,,株式会社,北海道,北見市,端野町三区４６７番地１８,,01,208,0992103,,,,,,,2023-07-18,1,,,,,メロティピ,0
589,2462501000959,新規,0,2023-07-18,2023-07-18,株式会社マウントエース,,株式会社,北海道,野付郡別海町,上風連２７４番地の５,,01,691,0860131,,,,,,,2023-07-18,1,,,,,マウントエース,0
596,2700150118461,新規,0,2023-07-18,2023-07-18,Ｚｈｕｚｈｏｕ　ｗｅｉｋｅｄａ　ｚｈａｏｍｉｎｇ　ｇｏｎｇｃｈｅｎｇ　ｙｏｕｘｉａｎ　ｇｏｎｇｓｉ,,外国会社等,,,,,,,,Ｌｕｓｏｎｇ，Ｓｈｅｚｈｕｉｚｈｕ，Ｔａｎｊｉａｄｕａｎ　ｃｕｎ，Ｑｕｃｈｉｘｉａｎｇ　Ｌｉｕｆｕｌｉａｎｇ　ｓｉｚｈａｉ　Ｚｈｕｚｈｏｕ　Ｈｕｎａｎ　ＣＮ,,,,,,2023-07-18,1,,,,,ヂュヂョウウェイケダヂァオミンゴンチェンユウゲンコウシ,0
610,3010001236878,新規,0,2023-07-18,2023-07-18,株式会社ニンジャタウロス,,株式会社,東京都,中央区,銀座１丁目１２番４号Ｎ＆Ｅ．ＢＬＤ．６Ｆ,,13,102,1040061,,,,,,,2023-07-18,1,,,,,ニンジャタウロス,0
611,3010001236969,新規,0,2023-07-18,2023-07-18,ＡＩＲ株式会社,,株式会社,東京都,中央区,銀座７丁目３番１３号,,13,102,1040061,,,,,,,2023-07-18,1,,,,,エーアイアール,0
615,3010103002179,新規,0,2023-07-18,2023-07-18,ＬｉＢパートナーズ合同会社,,合同会社,東京都,八王子市,大和田町２丁目２１番２２号,,13,201,1920045,,,,,,,2023-07-18,1,,,,,リブパートナーズ,0
626,3010401175742,新規,0,2023-07-18,2023-07-18,ＪＡＰＡＮ　ＥＸＰＯ株式会社,,株式会社,東京都,港区,東新橋２丁目１番６号－４階,,13,103,1050021,,,,,,,2023-07-18,1,,,,,ジャパンエキスポ,0
627,3010403030490,新規,0,2023-07-18,2023-07-18,合同会社Ｒｉｓｅ,,合同会社,東京都,港区,南青山３丁目１番３６号青山丸竹ビル６Ｆ,,13,103,1070062,,,,,,,2023-07-18,1,,,,,ライズ,0
628,3010403030516,新規,0,2023-07-18,2023-07-18,ミナトラボ合同会社,,合同会社,東京都,港区,芝５丁目２７番３号ＭＢＣ－Ｂ－１５７号,,13,103,1080014,,,,,,,2023-07-18,1,,,,,ミナトラボ,0
637,3010503007083,新規,0,2023-07-18,2023-07-18,合同会社ドロップムーン,,合同会社,東京都,台東区,谷中４丁目４番１５号メゾン小暮２０１,,13,106,1100001,,,,,,,2023-07-18,1,,,,,ドロップムーン,0
644,3010901053448,新規,0,2023-07-18,2023-07-18,株式会社１８３４,,株式会社,東京都,世田谷区,野沢３丁目１５番１－４０５号,,13,112,1540003,,,,,,,2023-07-18,1,,,,,イチハチサンヨン,0
647,3011001155671,新規,0,2023-07-18,2023-07-18,株式会社シンコキュウ,,株式会社,東京都,渋谷区,神泉町１０番１５号,,13,113,1500045,,,,,,,2023-07-18,1,,,,,シンコキュウ,0
648,3011001155688,新規,0,2023-07-18,2023-07-18,株式会社ｂｅｓｉｇｎ,,株式会社,東京都,渋谷区,円山町５番５号Ｎａｖｉ渋谷Ｖ３階,00131196,13,113,1500044,,,,,,,2023-07-18,1,,,,,ベザイン,0
649,3011001155713,新規,0,2023-07-18,2023-07-18,株式会社キッズグリーン,,株式会社,東京都,渋谷区,神宮前４丁目１番２４号オフィスイワタ第１－３０１,,13,113,1500001,,,,,,,2023-07-18,1,,,,,キッズグリーン,0
650,3011001155738,新規,0,2023-07-18,2023-07-18,株式会社ＲＭ,,株式会社,東京都,渋谷区,千駄ヶ谷３丁目５３番１１号カルム原宿２０２,,13,113,1510051,,,,,,,2023-07-18,1,,,,,アールエム,0
651,3011003017184,新規,0,2023-07-18,2023-07-18,ＭＪ‐Ｍｅｄｉｃ合同会社,,合同会社,東京都,渋谷区,神宮前６丁目２３番４号,,13,113,1500001,,,,,,,2023-07-18,1,,,,,,0
652,3011003017192,新規,0,2023-07-18,2023-07-18,ＳｕｇａｒＡｎｄＳａｌｔ合同会社,,合同会社,東京都,目黒区,大岡山１丁目３６番８－３０３号,,13,110,1520033,,,,,,,2023-07-18,1,,,,,,0
659,3011103013257,新規,0,2023-07-18,2023-07-18,合同会社みわきょうわ,,合同会社,東京都,新宿区,市谷台町９番９号,,13,104,1620066,,,,,,,2023-07-18,1,,,,,ミワキョウワ,0
669,3011603003988,新規,0,2023-07-18,2023-07-18,ＫＩＲＡＭＥＫＩ合同会社,,合同会社,東京都,練馬区,田柄２丁目４番４号３０１,,13,120,1790073,,,,,,,2023-07-18,1,,,,,キラメキ,0
672,3011801042730,新規,0,2023-07-18,2023-07-18,株式会社シュピーレ,,株式会社,東京都,足立区,扇１丁目２０番４号,,13,121,1230873,,,,,,,2023-07-18,1,,,,,シュピーレ,0
675,3012701017748,新規,0,2023-07-18,2023-07-18,株式会社ウミヤマ,,株式会社,東京都,小平市,御幸町５４番地グランド・エステート４０３号,,13,211,1870012,,,,,,,2023-07-18,1,,,,,ウミヤマ,0
677,3013301051047,新規,0,2023-07-18,2023-07-18,日昇株式会社,,株式会社,東京都,豊島区,池袋２丁目５８番５－５０１号,,13,116,1710014,,,,,,,2023-07-18,1,,,,,ニッショウ,0
685,3020001152554,新規,0,2023-07-18,2023-07-18,株式会社Ｋｏｉ,,株式会社,神奈川県,横浜市都筑区,東山田３丁目１４番５号,,14,118,2240023,,,,,,,2023-07-18,1,,,,,コイ,0
686,3020001152570,新規,0,2023-07-18,2023-07-18,株式会社初田商事,,株式会社,神奈川県,横浜市保土ケ谷区,岩井町１０番地の５,,14,106,2400023,,,,,,,2023-07-18,1,,,,,ハツタショウジ,0
687,3020001152579,新規,0,2023-07-18,2023-07-18,株式会社金井組,,株式会社,神奈川県,横浜市瀬谷区,中央３５番地１,,14,114,2460014,,,,,,,2023-07-18,1,,,,,カナイグミ,0
688,3020001152587,新規,0,2023-07-18,2023-07-18,株式会社ラパン,,株式会社,神奈川県,横浜市青葉区,新石川３丁目３４番地２,,14,117,2250003,,,,,,,2023-07-18,1,,,,,ラパン,0
690,3020003024248,新規,0,2023-07-18,2023-07-18,合同会社創進建設,,合同会社,神奈川県,横浜市磯子区,汐見台３丁目２番地２,,14,107,2350022,,,,,,,2023-07-18,1,,,,,ソウシンケンセツ,0
708,3030003022127,新規,0,2023-07-18,2023-07-18,ｉｍｐ合同会社,,合同会社,埼玉県,深谷市,中瀬１２２９番地,,11,218,3660001,,,,,,,2023-07-18,1,,,,,インプ,0
711,3040001129294,新規,0,2023-07-18,2023-07-18,株式会社光里ホーム,,株式会社,千葉県,市川市,原木２丁目１８番３６号,,12,203,2720004,,,,,,,2023-07-18,1,,,,,ヒカリホーム,0
713,3040003022968,新規,0,2023-07-18,2023-07-18,京珠堂合同会社,,合同会社,千葉県,千葉市若葉区,原町９０５番地６,,12,104,2640034,,,,,,,2023-07-18,1,,,,,キョウジュドウ,0
719,3050003007638,新規,0,2023-07-18,2023-07-18,合同会社フジ商事,,合同会社,茨城県,古河市,平和町１１番９号,,08,204,3060006,,,,,,,2023-07-18,1,,,,,フジショウジ,0
731,3080401026609,新規,0,2023-07-18,2023-07-18,スターソース株式会社,,株式会社,静岡県,浜松市中区,砂山町３２３番地の５,,22,131,4300926,,,,,,,2023-07-18,1,,,,,スターソース,0
732,3100001036591,新規,0,2023-07-18,2023-07-18,株式会社湯沢ふぁーむ,,株式会社,長野県,飯田市,座光寺４８４２番地２,,20,205,3950001,,,,,,,2023-07-18,1,,,,,ユザワファーム,0
734,3100003007112,新規,0,2023-07-18,2023-07-18,合同会社Ｋ‐ＴＥＣ,,合同会社,長野県,茅野市,玉川１１１１９番地,,20,214,3910011,,,,,,,2023-07-18,1,,,,,ケイテック,0
736,3110001037705,新規,0,2023-07-18,2023-07-18,株式会社ＧＲＩＤ,,株式会社,新潟県,新潟市中央区,西堀通５番町８３８番地２西堀アームス２階,,15,103,9518061,,,,,,,2023-07-18,1,,,,,グリッド,0
753,3120001256452,新規,0,2023-07-18,2023-07-18,株式会社プレパス,,株式会社,大阪府,大阪市中央区,瓦町４丁目４番３号Ｆ・ＭＢｕｉｌｄｉｎｇ２Ｆ,,27,128,5410048,,,,,,,2023-07-18,1,,,,,プレパス,0
754,3120001256469,新規,0,2023-07-18,2023-07-18,ライフサポート株式会社,,株式会社,大阪府,寝屋川市,日之出町１番３号２階,,27,215,5720835,,,,,,,2023-07-18,1,,,,,ライフサポート,0
755,3120001256493,新規,0,2023-07-18,2023-07-18,株式会社Ｃｏｌｏｒｆｕｌ　Ｅｎｇｌｉｓｈ,,株式会社,大阪府,大阪市天王寺区,勝山３丁目５番１７号,,27,109,5430043,,,,,,,2023-07-18,1,,,,,カラフルイングリッシュ,0
756,3120001256510,新規,0,2023-07-18,2023-07-18,Ｃｈａｒｌｉｅ　Ｈｏｎｇ株式会社,,株式会社,大阪府,大阪市淀川区,西中島５丁目７番１７－４０３号,,27,123,5320011,,,,,,,2023-07-18,1,,,,,チャーリーホン,0
757,3120001256519,新規,0,2023-07-18,2023-07-18,株式会社ＡＮＤＲ,,株式会社,大阪府,大阪市中央区,島之内２丁目２番２０号白扇ビル１０１,,27,128,5420082,,,,,,,2023-07-18,1,,,,,アンドアール,0
758,3120001256527,新規,0,2023-07-18,2023-07-18,株式会社壱志建設,,株式会社,大阪府,寝屋川市,池田本町１３番１号,,27,215,5720030,,,,,,,2023-07-18,1,,,,,イッシンケンセツ,0
759,3120001256535,新規,0,2023-07-18,2023-07-18,株式会社ＹＥＭＡＯＬＶ,,株式会社,大阪府,大阪市生野区,中川４丁目２番４－３０４号,,27,116,5440005,,,,,,,2023-07-18,1,,,,,イエーマオールイ,0
763,3120003024510,新規,0,2023-07-18,2023-07-18,合同会社おじゃこ堂管財,,合同会社,大阪府,大阪市生野区,新今里１丁目１０番１２号,,27,116,5440001,,,,,,,2023-07-18,1,,,,,オジャコドウカンザイ,0
766,3120005023741,新規,0,2023-07-18,2023-07-18,一般社団法人えこんて,,その他の設立登記法人,大阪府,大阪市平野区,平野市町１丁目１番１０号,,27,126,5470042,,,,,,,2023-07-18,1,,,,,エコンテ,0
770,3120901047793,新規,0,2023-07-18,2023-07-18,株式会社ｉｎｖｅｎｔ,,株式会社,大阪府,吹田市,垂水町１丁目４１番３２号,,27,205,5640062,,,,,,,2023-07-18,1,,,,,インヴェント,0
772,3122001037171,新規,0,2023-07-18,2023-07-18,株式会社ジーエムプラ,,株式会社,大阪府,東大阪市,長瀬町３丁目６番１４号,,27,227,5770832,,,,,,,2023-07-18,1,,,,,ジーエムプラ,0
782,3140001130886,新規,0,2023-07-18,2023-07-18,株式会社ラックプラック,,株式会社,兵庫県,神戸市灘区,中原通５丁目３－１０王子マンション１Ｆ,,28,102,6570825,,,,,,,2023-07-18,1,,,,,ラックプラック,0
783,3140001130928,新規,0,2023-07-18,2023-07-18,ＨｉｇｈＬａｎｄｓ　Ｔｒｅｅ株式会社,,株式会社,兵庫県,神戸市中央区,三宮町１丁目３番５号,,28,110,6500021,,,,,,,2023-07-18,1,,,,,ハイランズツリー,0
787,3140005026684,新規,0,2023-07-18,2023-07-18,一般社団法人ｎｉｃｈｅ,,その他の設立登記法人,兵庫県,芦屋市,茶屋之町３番３－３０１号,,28,206,6590067,,,,,,,2023-07-18,1,,,,,ニッチ,0
790,3150001026555,新規,0,2023-07-18,2023-07-18,株式会社ＤＡＲＵＭＡ,,株式会社,奈良県,吉野郡黒滝村,大字脇川１５２番地の１,,29,444,6380202,,,,,,,2023-07-18,1,,,,,ダルマ,0
791,3160001025192,新規,0,2023-07-18,2023-07-18,株式会社ＳＵＮＳＥＴ,,株式会社,滋賀県,長浜市,高橋町５４１番地６,,25,203,5260046,,,,,,,2023-07-18,1,,,,,サンセット,0
799,3180001157174,新規,0,2023-07-18,2023-07-18,株式会社ｄｉｇｇｉｎ,,株式会社,愛知県,名古屋市千種区,青柳町５丁目６番地,,23,101,4640852,,,,,,,2023-07-18,1,,,,,ディギン,0
800,3180001157190,新規,0,2023-07-18,2023-07-18,株式会社スマホーム,,株式会社,愛知県,名古屋市天白区,植田３丁目７１４番地,,23,116,4680051,,,,,,,2023-07-18,1,,,,,スマホーム,0
813,3210001019387,新規,0,2023-07-18,2023-07-18,株式会社Ｋ３,,株式会社,福井県,福井市,黒丸町第１１号３４番地１,,18,201,9100052,,,,,,,2023-07-18,1,,,,,ケースリー,0
814,3210003001665,新規,0,2023-07-18,2023-07-18,越前吉野瀬川水力合同会社,,合同会社,福井県,越前市,東千福町３番１８号,,18,209,9150847,,,,,,,2023-07-18,1,,,,,エチゼンヨシノセガワスイリョク,0
817,3230001019922,新規,0,2023-07-18,2023-07-18,株式会社ＭＫサポート,,株式会社,富山県,高岡市,問屋町３８番地,,16,202,9330804,,,,,,,2023-07-18,1,,,,,エムケーサポート,0
818,3240001061832,新規,0,2023-07-18,2023-07-18,株式会社デルタリゾート,,株式会社,広島県,広島市佐伯区,八幡東４丁目２２番１７号,,34,108,7315115,,,,,,,2023-07-18,1,,,,,デルタリゾート,0
824,3260001038135,新規,0,2023-07-18,2023-07-18,株式会社ＣＲＥＡＴＥ＆ＤＮＡ,,株式会社,岡山県,美作市,豊国原３０７番地１,,33,215,7070015,,,,,,,2023-07-18,1,,,,,クリエイトアンドディーエヌエー,0
825,3260003004366,新規,0,2023-07-18,2023-07-18,Ｍ．Ｓ．Ａ．合同会社,,合同会社,岡山県,倉敷市,白楽町３６７番地８,,33,202,7100824,,,,,,,2023-07-18,1,,,,,エムエスエイ,0
832,3290801029702,新規,0,2023-07-18,2023-07-18,株式会社聖天産業,,株式会社,福岡県,北九州市八幡西区,熊西１丁目８番２２号,,40,109,8060031,,,,,,,2023-07-18,1,,,,,セイテンサンギョウ,0
833,3290801029710,新規,0,2023-07-18,2023-07-18,株式会社信栄通信,,株式会社,福岡県,北九州市八幡西区,北筑１丁目３番２７号,,40,109,8070857,,,,,,,2023-07-18,1,,,,,シンエイツウシン,0
834,3290801029719,新規,0,2023-07-18,2023-07-18,株式会社ＤＬＰ１３,,株式会社,福岡県,北九州市小倉北区,井堀３丁目１６番３号,,40,106,8030835,,,,,,,2023-07-18,1,,,,,ディーエルピーサーティーン,0
835,3290803004463,新規,0,2023-07-18,2023-07-18,合同会社ライフサポート,,合同会社,福岡県,北九州市小倉南区,下城野３丁目７番９号,,40,107,8020804,,,,,,,2023-07-18,1,,,,,ライフサポート,0
842,3320001019896,新規,0,2023-07-18,2023-07-18,株式会社ＳＡＮＴＡ,,株式会社,大分県,日田市,中央１丁目１番９号,,44,204,8770015,,,,,,,2023-07-18,1,,,,,サンタ,0
847,3360001032284,新規,0,2023-07-18,2023-07-18,株式会社３０１,,株式会社,沖縄県,沖縄市,宮里４丁目１２番５号,,47,211,9042165,,,,,,,2023-07-18,1,,,,,サンマルイチ,0
848,3360001032292,新規,0,2023-07-18,2023-07-18,株式会社グリーンパートナーズ沖縄,,株式会社,沖縄県,中頭郡北中城村,字屋宜原７９３番地屋宜原テラスＹ－７,,47,327,9012304,,,,,,,2023-07-18,1,,,,,グリーンパートナーズオキナワ,0
850,3360003013118,新規,0,2023-07-18,2023-07-18,合同会社フォーツリー,,合同会社,沖縄県,中頭郡嘉手納町,字屋良１０２６番地３、２階,,47,325,9040202,,,,,,,2023-07-18,1,,,,,フォーツリー,0
861,3430003015263,新規,0,2023-07-18,2023-07-18,合同会社かなた,,合同会社,北海道,札幌市北区,北三十二条西３丁目２番１３号ルテール４０３号,,01,102,0010032,,,,,,,2023-07-18,1,,,,,カナタ,0
866,3462501000958,新規,0,2023-07-18,2023-07-18,株式会社一の市,,株式会社,北海道,野付郡別海町,別海宮舞町５１番地の４,,01,691,0860201,,,,,,,2023-07-18,1,,,,,イチノイチ,0
868,3470001019709,新規,0,2023-07-18,2023-07-18,株式会社スプラッシュ,,株式会社,香川県,高松市,国分寺町福家甲３９１０番地１,,37,201,7690103,,,,,,,2023-07-18,1,,,,,スプラッシュ,0
869,3470003002456,新規,0,2023-07-18,2023-07-18,合同会社三好うどん,,合同会社,香川県,三豊市,高瀬町比地１５８３番地１,,37,208,7670004,,,,,,,2023-07-18,1,,,,,ミヨシウドン,0
872,3700150118460,新規,0,2023-07-18,2023-07-18,Ｒｅｈａｎｄ　Ｍｅｄｉｃａｌ　Ｔｅｃｈｎｏｌｏｇｙ　Ｃｏ．，Ｌｔｄ．,,外国会社等,,,,,,,,ｂａｏａｎｑｕｘｉｎａｎｊｉｅｄａｏｘｉｎｇｄｏｎｇｓｈｅｑｕ７２ｑｕ　ｍａｂｉａｎｄａｓｈａｃｄｏｎｇ２０９　Ｓｈｅｎｚｈｅｎ　Ｇｕａｎｇｄｏｎｇ　ＣＮ,,,,,,2023-07-18,1,,,,,レハンドメディカルテクノロジーカンパニーリミテッド,0
878,4010003041086,新規,0,2023-07-18,2023-07-18,合同会社Ｑｂｉｃ,,合同会社,東京都,千代田区,神田和泉町１番地６－１６ヤマトビル４０５,,13,101,1010024,,,,,,,2023-07-18,1,,,,,キュービック,0
879,4010003041111,新規,0,2023-07-18,2023-07-18,ハッピーリード合同会社,,合同会社,東京都,中央区,明石町１番３１,,13,102,1040044,,,,,,,2023-07-18,1,,,,,ハッピーリード,0
880,4010003041128,新規,0,2023-07-18,2023-07-18,合同会社ウエハラ,,合同会社,東京都,文京区,向丘１丁目９番２３－４０１号,,13,105,1130023,,,,,,,2023-07-18,1,,,,,ウエハラ,0
889,4010401175659,新規,0,2023-07-18,2023-07-18,Ｊ．Ｃａｎｖａｓ株式会社,,株式会社,東京都,港区,虎ノ門１丁目１７番１号虎ノ門ヒルズビジネスタワー１５階,,13,103,1050001,,,,,,,2023-07-18,1,,,,,ジェイキャンバス,0
890,4010401175675,新規,0,2023-07-18,2023-07-18,株式会社ＳｏｃｉａｌＲｅａｃｈ　Ｊａｐａｎ,,株式会社,東京都,港区,麻布十番２丁目７番５－４０８号,,13,103,1060045,,,,,,,2023-07-18,1,,,,,ソーシャルリーチジャパン,0
891,4010401175766,新規,0,2023-07-18,2023-07-18,Ｌ＆Ｃホールディングス株式会社,,株式会社,東京都,港区,芝浦４丁目２１－１－２９０８,,13,103,1080023,,,,,,,2023-07-18,1,,,,,エルアンドシーホールディングス,0
894,4010501050778,新規,0,2023-07-18,2023-07-18,株式会社ハッシュ,,株式会社,東京都,台東区,北上野２丁目２５番９号－５０３号室,,13,106,1100014,,,,,,,2023-07-18,1,,,,,ハッシュ,0
898,4010801034159,新規,0,2023-07-18,2023-07-18,株式会社ＲＫメンテナンス,,株式会社,東京都,大田区,下丸子４丁目２０番１４－１１６号,,13,111,1460092,,,,,,,2023-07-18,1,,,,,アールケーメンテナンス,0
906,4011001155720,新規,0,2023-07-18,2023-07-18,ＮＥＷ　ＷＯＲＬＤ　ＬＩＮＥ株式会社,,株式会社,東京都,渋谷区,本町３丁目２０番１号二軒屋アパートメント１０３,,13,113,1510071,,,,,,,2023-07-18,1,,,,,ニューワールドライン,0
907,4011001155745,新規,0,2023-07-18,2023-07-18,ＳＫ‐ＴＲＡＤＩＮＧ株式会社,,株式会社,東京都,渋谷区,恵比寿１丁目２５番２－１３０２号,,13,113,1500013,,,,,,,2023-07-18,1,,,,,エスケートレーディング,0
908,4011003017175,新規,0,2023-07-18,2023-07-18,Ｋ＆Ｊマネジメント合同会社,,合同会社,東京都,目黒区,東山１丁目２２番２１号,,13,110,1530043,,,,,,,2023-07-18,1,,,,,ケーアンドジェー,0
914,4011103013264,新規,0,2023-07-18,2023-07-18,合同会社タミキ,,合同会社,東京都,新宿区,西新宿３丁目３番１３号西新宿水間ビル２Ｆ,,13,104,1600023,,,,,,,2023-07-18,1,,,,,タミキ,0
917,4011205002561,新規,0,2023-07-18,2023-07-18,一般社団法人上鷺テラス,,その他の設立登記法人,東京都,中野区,上鷺宮５丁目２６番２０号,,13,114,1650031,,,,,,,2023-07-18,1,,,,,カミサギテラス,0
918,4011305002916,新規,0,2023-07-18,2023-07-18,税理士法人野原・長谷川事務所,,その他の設立登記法人,東京都,杉並区,永福３丁目５６番５号,,13,115,1680064,,,,,,,2023-07-18,1,,,,,ノハラハセガワジムショ,0
919,4011401025275,新規,0,2023-07-18,2023-07-18,株式会社笑びすさん,,株式会社,東京都,板橋区,氷川町４５番３号ハピネスＫ１０２,,13,119,1730013,,,,,,,2023-07-18,1,,,,,エビスサン,0
921,4011501029531,新規,0,2023-07-18,2023-07-18,財之瑞株式会社,,株式会社,東京都,北区,東田端２丁目９番１７号マンション西新宿２０１号室,,13,117,1140013,,,,,,,2023-07-18,1,,,,,タカラノミズ,0
922,4011601026981,新規,0,2023-07-18,2023-07-18,株式会社たけや,,株式会社,東京都,練馬区,三原台３丁目６番２５号,,13,120,1770031,,,,,,,2023-07-18,1,,,,,タケヤ,0
923,4011603003987,新規,0,2023-07-18,2023-07-18,合同会社Ｎｅｏ　Ｖｉｓｉｏｎ,,合同会社,東京都,練馬区,北町７丁目２番１２号エフワンマンション３０３,,13,120,1790081,,,,,,,2023-07-18,1,,,,,ネオビジョン,0
928,4011801042738,新規,0,2023-07-18,2023-07-18,ウィズパートナーズ株式会社,,株式会社,東京都,足立区,竹の塚５丁目３６番１９号,,13,121,1210813,,,,,,,2023-07-18,1,,,,,ウィズパートナーズ,0
932,4012801022507,新規,0,2023-07-18,2023-07-18,株式会社ＶＥＲＳＡＴ,,株式会社,東京都,国分寺市,並木町１丁目３２番地３ダイアパレス国分寺鷹の台５０２,,13,214,1850005,,,,,,,2023-07-18,1,,,,,バーサット,0
933,4012802017373,新規,0,2023-07-18,2023-07-18,有限会社ヨネヤ石材,,有限会社,東京都,立川市,富士見町４丁目７番６号,,13,202,1900013,,,,,,,2023-07-18,1,,,,,,0
935,4013303006709,新規,0,2023-07-18,2023-07-18,東順合同会社,,合同会社,東京都,豊島区,北大塚２丁目２番７－２０１号,,13,116,1700004,,,,,,,2023-07-18,1,,,,,,0
939,4020001152347,新規,0,2023-07-18,2023-07-18,日本パフォーマンス株式会社,,株式会社,神奈川県,横浜市緑区,長津田７丁目２番２０号,,14,113,2260027,,,,,,,2023-07-18,1,,,,,ニホンパフォーマンス,0
940,4020001152504,新規,0,2023-07-18,2023-07-18,株式会社Ｆｅｌｉｃｅ,,株式会社,神奈川県,川崎市高津区,下作延６丁目２０番２５号,,14,134,2130033,,,,,,,2023-07-18,1,,,,,フリーチェ,0
941,4020001152537,新規,0,2023-07-18,2023-07-18,株式会社ひまわり,,株式会社,神奈川県,横浜市保土ケ谷区,今井町４１２番地５ヴィルヌーブ保土ケ谷１０１５号,,14,106,2400035,,,,,,,2023-07-18,1,,,,,ヒマワリ,0
942,4020003024222,新規,0,2023-07-18,2023-07-18,合同会社ボーヌング,,合同会社,神奈川県,横浜市保土ケ谷区,岡沢町２８６番地１シティウインズ横浜三ツ沢公園４１３号,,14,106,2400062,,,,,,,2023-07-18,1,,,,,ボーヌング,0
944,4020005016069,新規,0,2023-07-18,2023-07-18,一般社団法人Ｎボノ,,その他の設立登記法人,神奈川県,川崎市中原区,下沼部１７５３日本電気株式会社玉川総務部気付け,,14,133,2110011,,,,,,,2023-07-18,1,,,,,エヌボノ,0
957,4040001129269,新規,0,2023-07-18,2023-07-18,株式会社エムシーエス,,株式会社,千葉県,山武郡九十九里町,真亀１６７４番地,,12,403,2830114,,,,,,,2023-07-18,1,,,,,エムシーエス,0
958,4040001129277,新規,0,2023-07-18,2023-07-18,株式会社オクトパスソフトウェア,,株式会社,千葉県,松戸市,久保平賀２７４番地の１,,12,207,2700012,,,,,,,2023-07-18,1,,,,,オクトパスソフトウェア,0
959,4040001129302,新規,0,2023-07-18,2023-07-18,株式会社Ｔｅａｍ　Ｎａｖｙ,,株式会社,千葉県,東金市,西中７７８－２,,12,213,2830045,,,,,,,2023-07-18,1,,,,,チームネイビー,0
963,4040003022942,新規,0,2023-07-18,2023-07-18,合同会社雅自動車,,合同会社,千葉県,野田市,五木新町２５番地の４,,12,208,2780053,,,,,,,2023-07-18,1,,,,,ミヤビジドウシャ,0
968,4050003007645,新規,0,2023-07-18,2023-07-18,和合同会社,,合同会社,茨城県,つくば市,高崎３０－５,,08,220,3001245,,,,,,,2023-07-18,1,,,,,ナゴミ,0
969,4050005013294,新規,0,2023-07-18,2023-07-18,農事組合法人美浦エコアグリクラブ,,その他の設立登記法人,茨城県,稲敷郡美浦村,郷中２６７６番地,,08,442,3000420,,,,,,,2023-07-18,1,,,,,ミホエコアグリクラブ,0
984,4100001036590,新規,0,2023-07-18,2023-07-18,株式会社Ｊ‐ＮＥＸＴ,,株式会社,長野県,伊那市,西町４９７１番地４,,20,209,3960026,,,,,,,2023-07-18,1,,,,,ジェイネクスト,0
985,4100001036599,新規,0,2023-07-18,2023-07-18,株式会社ＦＣＡ,,株式会社,長野県,伊那市,西箕輪３９００番地１７３,,20,209,3994501,,,,,,,2023-07-18,1,,,,,エフシーエー,0
986,4100001036608,新規,0,2023-07-18,2023-07-18,株式会社いくさかてらす,,株式会社,長野県,東筑摩郡生坂村,５４９３番地２,,20,448,3997201,,,,,,,2023-07-18,1,,,,,イクサカテラス,0
988,4100003007094,新規,0,2023-07-18,2023-07-18,Ｓｕｎｎｓｎｏｗ　Ｊａｐａｎ合同会社,,合同会社,長野県,北安曇郡小谷村,大字千国乙１２８５６番地１,,20,486,3999422,,,,,,,2023-07-18,1,,,,,サンスノージャパン,0
1004,4120001256468,新規,0,2023-07-18,2023-07-18,株式会社薬安堂,,株式会社,大阪府,大阪市北区,梅田１丁目１番３号大阪駅前第３ビル２３０７,,27,127,5300001,,,,,,,2023-07-18,1,,,,,ヤクアンドウ,0
1005,4120001256518,新規,0,2023-07-18,2023-07-18,東光根株式会社,,株式会社,大阪府,大阪市大正区,千島１丁目１０番１０号エスポワール４３,,27,108,5510003,,,,,,,2023-07-18,1,,,,,トウコウコン,0
1006,4120001256559,新規,0,2023-07-18,2023-07-18,袁氏株式会社,,株式会社,大阪府,大阪市中央区,東心斎橋１丁目１１番１３号（６０６号室）,,27,128,5420083,,,,,,,2023-07-18,1,,,,,エンシ,0
1007,4120003024492,新規,0,2023-07-18,2023-07-18,ｇｃｒｏｃ　ＬＬＣ合同会社,,合同会社,大阪府,大阪市北区,梅田１丁目２番２号大阪駅前第２ビル１２－１２,,27,127,5300001,,,,,,,2023-07-18,1,,,,,ジークロックエルエルシー,0
1009,4120005023740,新規,0,2023-07-18,2023-07-18,医療法人壮大会,,その他の設立登記法人,大阪府,大阪市阿倍野区,松崎町４丁目１０番６号,,27,119,5450053,,,,,,,2023-07-18,1,,,,,ソウダイカイ,0
1010,4120005023757,新規,0,2023-07-18,2023-07-18,医療法人ちかこどもくりにっく,,その他の設立登記法人,大阪府,大阪市福島区,福島５丁目１８番２５号阪神ＮＫ共同ビル３階,,27,103,5530003,,,,,,,2023-07-18,1,,,,,チカコドモクリニック,0
1013,4120103005327,新規,0,2023-07-18,2023-07-18,コスモ合同会社,,合同会社,大阪府,高石市,取石２丁目１２番２１号,,27,225,5920013,,,,,,,2023-07-18,1,,,,,コスモ,0
1014,4120901047801,新規,0,2023-07-18,2023-07-18,株式会社向日葵,,株式会社,大阪府,吹田市,岸部南３丁目２１番７号,,27,205,5640011,,,,,,,2023-07-18,1,,,,,ヒマワリ,0
1018,4130001074662,新規,0,2023-07-18,2023-07-18,株式会社リアルワールドデータ,,株式会社,京都府,京都市下京区,油小路通木津屋橋下る北不動堂町４８０番地,,26,106,6008233,,,,,,,2023-07-18,1,,,,,リアルワールドデータ,0
1033,4140001130885,新規,0,2023-07-18,2023-07-18,株式会社ＡＩＳ,,株式会社,兵庫県,神戸市須磨区,白川台５丁目７－４－９０３号,,28,107,6540103,,,,,,,2023-07-18,1,,,,,アイズ,0
1034,4140001130902,新規,0,2023-07-18,2023-07-18,据和機工株式会社,,株式会社,兵庫県,川西市,火打１丁目１２番８－２０４号,,28,217,6660017,,,,,,,2023-07-18,1,,,,,スワキコウ,0
1035,4140005026683,新規,0,2023-07-18,2023-07-18,一般社団法人こたつむり,,その他の設立登記法人,兵庫県,神戸市須磨区,中落合４丁目１中落合第一住宅４６３－４０６,,28,107,6540154,,,,,,,2023-07-18,1,,,,,コタツムリ,0
1037,4160001025191,新規,0,2023-07-18,2023-07-18,株式会社Ｑ‐ＣＡＲＮＩ,,株式会社,滋賀県,草津市,西大路町１０番２０－９０２号,,25,206,5250037,,,,,,,2023-07-18,1,,,,,キューカルニー,0
1041,4170003001891,新規,0,2023-07-18,2023-07-18,合同会社カラーズ,,合同会社,和歌山県,橋本市,東家５丁目７番８号,,30,203,6480072,,,,,,,2023-07-18,1,,,,,カラーズ,0
1048,4180001157173,新規,0,2023-07-18,2023-07-18,株式会社アイプランニング,,株式会社,愛知県,津島市,越津町字柳之内８５番地,,23,208,4960022,,,,,,,2023-07-18,1,,,,,アイプランニング,0
1050,4180003025502,新規,0,2023-07-18,2023-07-18,沖社労事務合同会社,,合同会社,愛知県,名古屋市西区,五才美町２８１番地１アーバンハイム３０１号,,23,104,4520806,,,,,,,2023-07-18,1,,,,,オキシャロウジム,0
1058,4200001041498,新規,0,2023-07-18,2023-07-18,株式会社トリップコイン,,株式会社,岐阜県,高山市,奥飛騨温泉郷村上１４０６番地,,21,203,5061431,,,,,,,2023-07-18,1,,,,,トリップコイン,0
1060,4220001025508,新規,0,2023-07-18,2023-07-18,株式会社ＧＬＯＲＹ,,株式会社,石川県,金沢市,緑が丘１４番８号,,17,201,9218117,,,,,,,2023-07-18,1,,,,,グローリー,0
1062,4230001019921,新規,0,2023-07-18,2023-07-18,ＴＸＳ株式会社,,株式会社,富山県,富山市,寺町１０７０番地８,,16,201,9300874,,,,,,,2023-07-18,1,,,,,ティエックスエス,0
1064,4240001061831,新規,0,2023-07-18,2023-07-18,株式会社ＭＡＴＳＵＩ,,株式会社,広島県,広島市東区,福田３丁目２９番２９号,,34,102,7320029,,,,,,,2023-07-18,1,,,,,マツイ,0
1072,4270001008813,新規,0,2023-07-18,2023-07-18,株式会社Ｏｎｅ　Ｓｅｅｄ　Ｆａｒｍ,,株式会社,鳥取県,鳥取市,古海６４番地５,,31,201,6800921,,,,,,,2023-07-18,1,,,,,ワンシードファーム,0
1076,4290001102291,新規,0,2023-07-18,2023-07-18,海川株式会社,,株式会社,福岡県,福岡市東区,香椎台４丁目１８番１９号,,40,131,8130014,,,,,,,2023-07-18,1,,,,,カイセン,0
1077,4290001102300,新規,0,2023-07-18,2023-07-18,株式会社アサショウ・ホールディングス,,株式会社,福岡県,久留米市,長門石４丁目３番５号,,40,203,8300027,,,,,,,2023-07-18,1,,,,,アサショウホールディングス,0
1078,4290001102309,新規,0,2023-07-18,2023-07-18,株式会社ティーエムビー,,株式会社,福岡県,飯塚市,津原１２９２番地１,,40,205,8200086,,,,,,,2023-07-18,1,,,,,ティーエムビー,0
1079,4290001102317,新規,0,2023-07-18,2023-07-18,久禾家株式会社,,株式会社,福岡県,福岡市東区,筥松４丁目１番２８号,,40,131,8120061,,,,,,,2023-07-18,1,,,,,ジョホウジャ,0
1080,4290001102325,新規,0,2023-07-18,2023-07-18,ＩＫＤ株式会社,,株式会社,福岡県,福岡市中央区,白金２丁目７番２０号ＦＫＭ白金ＩＩ２０１号,00131203,40,133,8100012,,,,,,,2023-07-18,1,,,,,アイケーディー,0
1081,4290001102333,新規,0,2023-07-18,2023-07-18,株式会社アクティブクリエイト,,株式会社,福岡県,大牟田市,天領町２丁目５５番地３,,40,202,8360054,,,,,,,2023-07-18,1,,,,,アクティブクリエイト,0
1084,4290801029718,新規,0,2023-07-18,2023-07-18,株式会社ＤＬＰ１２,,株式会社,福岡県,北九州市小倉北区,井堀３丁目１６番３号,,40,106,8030835,,,,,,,2023-07-18,1,,,,,ディーエルピートゥエルブ,0
1085,4290803004462,新規,0,2023-07-18,2023-07-18,合同会社ＳＭＩＬＥ　ＵＰ,,合同会社,福岡県,北九州市小倉北区,弁天町８番１６号,,40,106,8030856,,,,,,,2023-07-18,1,,,,,スマイルアップ,0
1086,4300001013371,新規,0,2023-07-18,2023-07-18,株式会社ｎａｎｉｋａ,,株式会社,佐賀県,三養基郡基山町,大字小倉３９９番地３６,,41,341,8410201,,,,,,,2023-07-18,1,,,,,ナニカ,0
1089,4330003009910,新規,0,2023-07-18,2023-07-18,合同会社リューサ,,合同会社,熊本県,熊本市北区,龍田弓削１丁目９番３０号,,43,105,8618007,,,,,,,2023-07-18,1,,,,,リューサ,0
1090,4340001025710,新規,0,2023-07-18,2023-07-18,株式会社豊真,,株式会社,鹿児島県,曽於市,末吉町二之方５９１１番地２,,46,217,8998605,,,,,,,2023-07-18,1,,,,,ホウシン,0
1092,4340003004183,新規,0,2023-07-18,2023-07-18,合同会社リード地研,,合同会社,鹿児島県,鹿児島市,東谷山２丁目３２番６号松田ハイツ２０１,,46,201,8910113,,,,,,,2023-07-18,1,,,,,リードチケン,0
1096,4360001032250,新規,0,2023-07-18,2023-07-18,ユアトリー株式会社,,株式会社,沖縄県,沖縄市,中央１丁目７番８号,,47,211,9040004,,,,,,,2023-07-18,1,,,,,ユアトリー,0
1097,4360001032275,新規,0,2023-07-18,2023-07-18,株式会社赤嶺衛生,,株式会社,沖縄県,豊見城市,字嘉数６５６番地８,,47,212,9010202,,,,,,,2023-07-18,1,,,,,アカミネエイセイ,0
1098,4360001032291,新規,0,2023-07-18,2023-07-18,株式会社コーラルトラベル,,株式会社,沖縄県,那覇市,久米２丁目３－１５,,47,201,9000033,,,,,,,2023-07-18,1,,,,,コーラルトラベル,0
1099,4360001032309,新規,0,2023-07-18,2023-07-18,株式会社ＳＡＭ,,株式会社,沖縄県,宜野湾市,嘉数３丁目２番６号,,47,205,9012226,,,,,,,2023-07-18,1,,,,,サム,0
1101,4360003013133,新規,0,2023-07-18,2023-07-18,合同会社工務店喜樹,,合同会社,沖縄県,沖縄市,美里１丁目４番２５号渡慶次アパート１０２,,47,211,9042153,,,,,,,2023-07-18,1,,,,,コウムテンキキ,0
1102,4360005006878,新規,0,2023-07-18,2023-07-18,一般社団法人ＮＮＣ　Ｒｅｓｅａｒｃｈ　Ｃｅｎｔｅｒ,,その他の設立登記法人,沖縄県,那覇市,赤嶺２丁目１番地の９,,47,201,9010154,,,,,,,2023-07-18,1,,,,,エヌエヌシーリサーチセンター,0
1105,4370001050152,新規,0,2023-07-18,2023-07-18,株式会社ＲＩＳＥＭＯＲＥ,,株式会社,宮城県,仙台市青葉区,旭ケ丘３丁目１４番１号,,04,101,9810904,,,,,,,2023-07-18,1,,,,,ライズモア,0
1119,4470001019708,新規,0,2023-07-18,2023-07-18,さぬき製麺所株式会社,,株式会社,香川県,坂出市,府中町５０３６番地３,,37,203,7620024,,,,,,,2023-07-18,1,,,,,サヌキセイメンショ,0
1121,4470005006512,新規,0,2023-07-18,2023-07-18,一般社団法人瀬戸内ドローン協会,,その他の設立登記法人,香川県,高松市,木太町２６７１番地２,,37,201,7600080,,,,,,,2023-07-18,1,,,,,セトウチドローンキョウカイ,0
1125,4500005008629,新規,0,2023-07-18,2023-07-18,特定非営利活動法人四国イヌネコ希望の会,,その他の設立登記法人,愛媛県,松山市,大街道２丁目３番１号ｗｏｒｌｄラインビル３階,,38,201,7900004,,,,,,,2023-07-18,1,,,,,シコクイヌネコキボウノカイ,0
1132,5010001236810,新規,0,2023-07-18,2023-07-18,株式会社ストロベリーマニア,,株式会社,東京都,中央区,築地４丁目１０番６号,,13,102,1040045,,,,,,,2023-07-18,1,,,,,ストロベリーマニア,0
1133,5010001236876,新規,0,2023-07-18,2023-07-18,Ｋｅｙｓ株式会社,,株式会社,東京都,中央区,日本橋室町１丁目１１番１２号日本橋水野ビル７階,,13,102,1030022,,,,,,,2023-07-18,1,,,,,キーズ,0
1134,5010001236918,新規,0,2023-07-18,2023-07-18,株式会社ＤａｔａＷｉｓｄｏｍ,,株式会社,東京都,千代田区,永田町２丁目１１番１号,,13,101,1000014,,,,,,,2023-07-18,1,,,,,データウィズダム,0
1135,5010001236934,新規,0,2023-07-18,2023-07-18,株式会社ブライト,,株式会社,東京都,千代田区,四番町４番地９東越伯鷹ビル,,13,101,1020081,,,,,,,2023-07-18,1,,,,,ブライト,0
1136,5010001236967,新規,0,2023-07-18,2023-07-18,株式会社ＰＬＡＮ‐Ｒ,,株式会社,東京都,千代田区,九段南１丁目５番６号りそな九段ビル５階ＫＳフロア,,13,101,1020074,,,,,,,2023-07-18,1,,,,,プランアール,0
1137,5010003041077,新規,0,2023-07-18,2023-07-18,合同会社ＩａｍＩ,,合同会社,東京都,中央区,日本橋室町１丁目１１番１２号日本橋水野ビル７階,,13,102,1030022,,,,,,,2023-07-18,1,,,,,アイアムアイ,0
1138,5010003041135,新規,0,2023-07-18,2023-07-18,合同会社ドゥボンヌオーギュル,,合同会社,東京都,文京区,湯島２丁目２３－１３グレースカトレア１Ｆ,,13,105,1130034,,,,,,,2023-07-18,1,,,,,ドゥボンヌオーギュル,0
1144,5010103002177,新規,0,2023-07-18,2023-07-18,合同会社Ｎｅｘｔａｇｅ,,合同会社,東京都,八王子市,長沼町９６番地５ＪＵＮ平山城５０１,,13,201,1920907,,,,,,,2023-07-18,1,,,,,ネクステージ,0
1151,5010401175658,新規,0,2023-07-18,2023-07-18,株式会社ＲｅｎＤｉｇｉ,,株式会社,東京都,港区,赤坂６丁目１４番３号近文ビル２階,,13,103,1070052,,,,,,,2023-07-18,1,,,,,レンデジ,0
1152,5010401175757,新規,0,2023-07-18,2023-07-18,株式会社ＬＹＦＴＯＦＦ,,株式会社,東京都,港区,北青山１丁目３番１号アールキューブ青山３階,,13,103,1070061,,,,,,,2023-07-18,1,,,,,リフトオフ,0
1153,5010401175765,新規,0,2023-07-18,2023-07-18,株式会社Ｒｅｉｎｏｌｚ,,株式会社,東京都,港区,南青山２丁目２番１５号,,13,103,1070062,,,,,,,2023-07-18,1,,,,,レイノルズ,0
1154,5010403030522,新規,0,2023-07-18,2023-07-18,合同会社ｒａｉｓｅ,,合同会社,東京都,港区,南青山２丁目２－１５ＷＩＮ青山５３１,,13,103,1070062,,,,,,,2023-07-18,1,,,,,レイズ,0
1158,5010405022336,新規,0,2023-07-18,2023-07-18,弁護士法人かなえ,,その他の設立登記法人,東京都,港区,新橋１丁目１８番２号,,13,103,1050004,,,,,,,2023-07-18,1,,,,,カナエ,0
1160,5010501050785,新規,0,2023-07-18,2023-07-18,浅草香和株式会社,,株式会社,東京都,台東区,浅草１丁目１２番１０号,,13,106,1110032,,,,,,,2023-07-18,1,,,,,アサクサカグワ,0
1168,5010703006775,新規,0,2023-07-18,2023-07-18,Ｍｕｓｉｃ　Ｏ．Ａ．Ｋ．合同会社,,合同会社,東京都,品川区,小山３丁目２７番５号,,13,109,1420062,,,,,,,2023-07-18,1,,,,,ミュージックオーク,0
1170,5010903008316,新規,0,2023-07-18,2023-07-18,ティルワイズ合同会社,,合同会社,東京都,世田谷区,用賀３丁目２５番１８－５１３号,,13,112,1580097,,,,,,,2023-07-18,1,,,,,ティルワイズ,0
1177,5011001155694,新規,0,2023-07-18,2023-07-18,株式会社ライフサクシード,,株式会社,東京都,渋谷区,道玄坂１丁目１２－１渋谷マークシティＷ２２階,,13,113,1500043,,,,,,,2023-07-18,1,,,,,,0
1178,5011001155744,新規,0,2023-07-18,2023-07-18,株式会社ＮＴＮＬ,,株式会社,東京都,渋谷区,桜丘町２６番１号セルリアンタワー１５階,,13,113,1500031,,,,,,,2023-07-18,1,,,,,,0
1179,5011001155769,新規,0,2023-07-18,2023-07-18,株式会社Ｒｅｉｖｙ,,株式会社,東京都,渋谷区,渋谷２丁目１９－１５宮益坂ビルディング６０９,,13,113,1500002,,,,,,,2023-07-18,1,,,,,レイヴィー,0
1181,5011003017075,新規,0,2023-07-18,2023-07-18,アヲウミ合同会社,,合同会社,東京都,渋谷区,道玄坂１丁目１０番８号,,13,113,1500043,,,,,,,2023-07-18,1,,,,,アヲウミ,0
1182,5011003017182,新規,0,2023-07-18,2023-07-18,ＭＯＶＥＲＥＯＮ合同会社,,合同会社,東京都,渋谷区,神宮前６丁目２３番４号桑野ビル２階,,13,113,1500001,,,,,,,2023-07-18,1,,,,,モヴェレオン,0
1183,5011003017190,新規,0,2023-07-18,2023-07-18,クリスタルアイランド合同会社,,合同会社,東京都,渋谷区,渋谷２丁目１９番１５号宮益坂ビルディング６０９,,13,113,1500002,,,,,,,2023-07-18,1,,,,,クリスタルアイランド,0
1186,5011101103636,新規,0,2023-07-18,2023-07-18,株式会社ゼルコヴァ興行社,,株式会社,東京都,新宿区,西新宿３丁目５番１２号,,13,104,1600023,,,,,,,2023-07-18,1,,,,,ゼルコヴァコウギョウシャ,0
1193,5011501029530,新規,0,2023-07-18,2023-07-18,株式会社アライア,,株式会社,東京都,荒川区,町屋７丁目１－１－４０４,,13,118,1160001,,,,,,,2023-07-18,1,,,,,アライア,0
1199,5012301013526,新規,0,2023-07-18,2023-07-18,株式会社エムオフィス,,株式会社,東京都,町田市,小川６丁目２番４５号,,13,209,1940003,,,,,,,2023-07-18,1,,,,,エムオフィス,0
1201,5012701017754,新規,0,2023-07-18,2023-07-18,株式会社やまと産業,,株式会社,東京都,西東京市,芝久保町５丁目１０番６３号,,13,229,1880014,,,,,,,2023-07-18,1,,,,,ヤマトサンギョウ,0
1209,5020001152577,新規,0,2023-07-18,2023-07-18,アイズヴィジョナリー株式会社,,株式会社,神奈川県,横浜市中区,池袋２６番地,,14,104,2310834,,,,,,,2023-07-18,1,,,,,アイズヴィジョナリー,0
1211,5020003024221,新規,0,2023-07-18,2023-07-18,合同会社三寿堂,,合同会社,神奈川県,横浜市保土ケ谷区,新桜ケ丘２丁目３８番１－５０５号,,14,106,2400036,,,,,,,2023-07-18,1,,,,,サンジュドウ,0
1212,5020003024246,新規,0,2023-07-18,2023-07-18,合同会社ＣＡＲＡ企画,,合同会社,神奈川県,横浜市都筑区,牛久保西４丁目１１番４号,,14,118,2240015,,,,,,,2023-07-18,1,,,,,カーラキカク,0
1215,5021001079612,新規,0,2023-07-18,2023-07-18,株式会社ほけんのチャレンジャー,,株式会社,神奈川県,茅ヶ崎市,矢畑７６５番地４,,14,207,2530085,,,,,,,2023-07-18,1,,,,,ホケンノチャレンジャー,0
1216,5021001079629,新規,0,2023-07-18,2023-07-18,株式会社Ｊ・Ｑｒｅｅｔｅ,,株式会社,神奈川県,綾瀬市,上土棚南５丁目３番６１号,,14,218,2521114,,,,,,,2023-07-18,1,,,,,ジェイクリート,0
1217,5021001079637,新規,0,2023-07-18,2023-07-18,株式会社湘南創泉,,株式会社,神奈川県,平塚市,豊原町７－２４,,14,203,2540051,,,,,,,2023-07-18,1,,,,,ショウナンソウセン,0
1227,5040001129301,新規,0,2023-07-18,2023-07-18,ＳＯＭＥＹＡ　ＷＯＲＫＳ株式会社,,株式会社,千葉県,野田市,中里６４２番地の９,,12,208,2700237,,,,,,,2023-07-18,1,,,,,ソメヤワークス,0
1231,5040003022974,新規,0,2023-07-18,2023-07-18,合同会社Ａｉ,,合同会社,千葉県,八街市,八街に１９３－６３,,12,230,2891103,,,,,,,2023-07-18,1,,,,,アイ,0
1234,5050003007636,新規,0,2023-07-18,2023-07-18,ｔｗｉｎｋｌｕｓ合同会社,,合同会社,茨城県,つくば市,学園南３丁目２５番地５,,08,220,3050818,,,,,,,2023-07-18,1,,,,,トゥインクラス,0
1241,5080401026607,新規,0,2023-07-18,2023-07-18,株式会社Ｈ．Ｓ．Ｍ,,株式会社,静岡県,浜松市南区,金折町１４１７番地の２３,,22,134,4350026,,,,,,,2023-07-18,1,,,,,エイチエスエム,0
1248,5100001036598,新規,0,2023-07-18,2023-07-18,株式会社ｕｎｉｔｅｄ,,株式会社,長野県,松本市,大字笹賀７５７０番地１０,,20,202,3990033,,,,,,,2023-07-18,1,,,,,ユナイテッド,0
1255,5110003005121,新規,0,2023-07-18,2023-07-18,合同会社ヨハクヲト,,合同会社,新潟県,新潟市秋葉区,新津本町１丁目７番２２号,,15,105,9560864,,,,,,,2023-07-18,1,,,,,ヨハクヲト,0
1266,5120001256450,新規,0,2023-07-18,2023-07-18,木葉未来株式会社,,株式会社,大阪府,大阪市中央区,北久宝寺町１丁目５番６－２１１号,,27,128,5410057,,,,,,,2023-07-18,1,,,,,キバミライ,0
1267,5120001256483,新規,0,2023-07-18,2023-07-18,株式会社内村電気工業,,株式会社,大阪府,門真市,打越町２３番３０号ラジャクラブ・０２－２０８号,,27,223,5710029,,,,,,,2023-07-18,1,,,,,ウチムラデンキコウギョウ,0
1268,5120001256500,新規,0,2023-07-18,2023-07-18,ＧＳＣＲＯＳＳ株式会社,,株式会社,大阪府,大阪市淀川区,西中島４丁目３－２１,,27,123,5320011,,,,,,,2023-07-18,1,,,,,ジーエスクロス,0
1269,5120001256541,新規,0,2023-07-18,2023-07-18,＿譽貿易株式会社,00131199,株式会社,大阪府,大阪市浪速区,元町３丁目１番１５号アーデルハイムなにわ２０１号,,27,111,5560016,,,,,,,2023-07-18,1,,,,,カイヨボウエキ,0
1273,5120003024491,新規,0,2023-07-18,2023-07-18,東泰商事合同会社,,合同会社,大阪府,大阪市港区,市岡元町１丁目６－１１フレンドリー一番館４０７号室,,27,107,5520002,,,,,,,2023-07-18,1,,,,,トウタイショウジ,0
1275,5120005023756,新規,0,2023-07-18,2023-07-18,医療法人泰誠会,,その他の設立登記法人,大阪府,大阪市東成区,東小橋３丁目１４番３１号鶴橋ライフビル３階,,27,115,5370024,,,,,,,2023-07-18,1,,,,,タイセイカイ,0
1279,5120101067896,新規,0,2023-07-18,2023-07-18,株式会社ＳＭＡＲＱＵＥＨＯＭＥ,,株式会社,大阪府,高石市,綾園１丁目４番４０号,,27,225,5920014,,,,,,,2023-07-18,1,,,,,スマークホーム,0
1280,5120101067905,新規,0,2023-07-18,2023-07-18,株式会社笑王,,株式会社,大阪府,泉佐野市,上町３丁目８番２５号,,27,213,5980007,,,,,,,2023-07-18,1,,,,,ニオウ,0
1281,5120901047800,新規,0,2023-07-18,2023-07-18,株式会社スマイルプロジェクト,,株式会社,大阪府,吹田市,原町４丁目２８番５－７０３号,,27,205,5640004,,,,,,,2023-07-18,1,,,,,スマイルプロジェクト,0
1284,5130003008824,新規,0,2023-07-18,2023-07-18,合同会社至庵,,合同会社,京都府,京都市右京区,西京極北大入町２９番地１,,26,108,6150881,,,,,,,2023-07-18,1,,,,,シアン,0
1285,5130003008849,新規,0,2023-07-18,2023-07-18,ｍａｒｕ　ｓｔｕｄｉｏ合同会社,,合同会社,京都府,京都市東山区,泉涌寺東林町１７番地５５,,26,105,6050976,,,,,,,2023-07-18,1,,,,,マルスタジオ,0
1286,5130003008857,新規,0,2023-07-18,2023-07-18,ＧｏｏＤ　ＨｏｐＥ合同会社,,合同会社,京都府,京都市左京区,高野泉町１２番地７８,,26,103,6068111,,,,,,,2023-07-18,1,,,,,グッドホープ,0
1287,5130005016833,新規,0,2023-07-18,2023-07-18,医療法人ＭＯＣ,,その他の設立登記法人,京都府,京都市左京区,松ケ崎壱町田町４番地５クレスト松ヶ崎１階,,26,103,6060954,,,,,,,2023-07-18,1,,,,,エムオーシー,0
1295,5140001130901,新規,0,2023-07-18,2023-07-18,株式会社ＴＷＯ　ＡＭＢＩＴＩＯＮ,,株式会社,兵庫県,神戸市中央区,旭通４丁目１番３－１４０４号,,28,110,6510095,,,,,,,2023-07-18,1,,,,,トゥーアンビション,0
1304,5140003019325,新規,0,2023-07-18,2023-07-18,ロッキーポイントガーデン合同会社,,合同会社,兵庫県,神戸市垂水区,桃山台７丁目８番７号,,28,108,6550854,,,,,,,2023-07-18,1,,,,,ロッキーポイントガーデン,0
1305,5150003003006,新規,0,2023-07-18,2023-07-18,合同会社フライングバード,,合同会社,奈良県,橿原市,内膳町２丁目７番２２号,,29,205,6340804,,,,,,,2023-07-18,1,,,,,フライングバード,0
1306,5160001025190,新規,0,2023-07-18,2023-07-18,ＭＹＴ株式会社,,株式会社,滋賀県,彦根市,長曽根南町４４６番地,,25,202,5220052,,,,,,,2023-07-18,1,,,,,マイト,0
1314,5180001157172,新規,0,2023-07-18,2023-07-18,株式会社ＹＡシステム,,株式会社,愛知県,半田市,郷中町１丁目４８番地,,23,205,4750842,,,,,,,2023-07-18,1,,,,,ワイエーシステム,0
1315,5180001157197,新規,0,2023-07-18,2023-07-18,株式会社ＨＡＬ,,株式会社,愛知県,春日井市,瑞穂通１丁目１７８番地１,,23,206,4860845,,,,,,,2023-07-18,1,,,,,ハル,0
1325,5180003025476,新規,0,2023-07-18,2023-07-18,合同会社みんなのさぽーと,,合同会社,愛知県,名古屋市西区,堀越町３丁目９番１６号,,23,104,4510000,,,,,,,2023-07-18,1,,,,,ミンナノサポート,0
1326,5180003025501,新規,0,2023-07-18,2023-07-18,合同会社ＡＪＵＤＡ,,合同会社,愛知県,名古屋市中区,栄１丁目２０番１０号,,23,106,4600008,,,,,,,2023-07-18,1,,,,,アジューダ,0
1327,5180301037578,新規,0,2023-07-18,2023-07-18,株式会社Ｗｏｒｌｄ　Ｍ　Ｃｏｎｓｕｌｔｉｎｇ,,株式会社,愛知県,西尾市,東幡豆町中柴６７番地２,,23,213,4440701,,,,,,,2023-07-18,1,,,,,ワールドエムコンサルティング,0
1333,5220001025507,新規,0,2023-07-18,2023-07-18,株式会社勝野,,株式会社,石川県,金沢市,笠舞本町１丁目１５番１４号,,17,201,9200947,,,,,,,2023-07-18,1,,,,,,0
1340,5240001061830,新規,0,2023-07-18,2023-07-18,株式会社ＬＵＣＩＡＺ,,株式会社,広島県,広島市中区,平野町３番３９号３Ｆ,,34,101,7300047,,,,,,,2023-07-18,1,,,,,ルシアス,0
1341,5240001061839,新規,0,2023-07-18,2023-07-18,株式会社ＨＲＴコンサル,,株式会社,広島県,広島市中区,八丁堀６－１１－６０５,,34,101,7300013,,,,,,,2023-07-18,1,,,,,,0
1349,5280003001748,新規,0,2023-07-18,2023-07-18,合同会社ぜんぜんまる,,合同会社,島根県,仁多郡奥出雲町,下阿井１００番地１,,32,343,6991622,,,,,,,2023-07-18,1,,,,,ゼンゼンマル,0
1351,5290001102308,新規,0,2023-07-18,2023-07-18,株式会社ＢａｓｉｃＤｏｇｇｓ,,株式会社,福岡県,古賀市,今の庄３丁目１６番１１号,,40,223,8113117,,,,,,,2023-07-18,1,,,,,ベーシックドッグス,0
1352,5290001102316,新規,0,2023-07-18,2023-07-18,株式会社スマイルＫスマイル,,株式会社,福岡県,福岡市南区,長丘５丁目２３番１号,,40,134,8150075,,,,,,,2023-07-18,1,,,,,スマイルケースマイル,0
1356,5290003014138,新規,0,2023-07-18,2023-07-18,合同会社韓方生活,,合同会社,福岡県,那珂川市,大字山田５６９番地１０,,40,231,8111244,,,,,,,2023-07-18,1,,,,,カンポウセイカツ,0
1360,5300001013370,新規,0,2023-07-18,2023-07-18,株式会社ピースワーク,,株式会社,佐賀県,三養基郡基山町,大字小倉９７０番地１,,41,341,8410201,,,,,,,2023-07-18,1,,,,,ピースワーク,0
1367,5340003004182,新規,0,2023-07-18,2023-07-18,合同会社ＫＡＺＡＭＩ,,合同会社,鹿児島県,奄美市,名瀬伊津部町１－９,,46,222,8940021,,,,,,,2023-07-18,1,,,,,カザミ,0
1371,5360001032274,新規,0,2023-07-18,2023-07-18,株式会社希工業,,株式会社,沖縄県,島尻郡八重瀬町,字東風平１２６１番地５,,47,362,9010401,,,,,,,2023-07-18,1,,,,,ノゾミコウギョウ,0
1372,5360001032282,新規,0,2023-07-18,2023-07-18,株式会社山幸組,,株式会社,沖縄県,中頭郡嘉手納町,字屋良１０１６番地,,47,325,9040202,,,,,,,2023-07-18,1,,,,,サンコウグミ,0
1373,5360001032290,新規,0,2023-07-18,2023-07-18,株式会社ＴＫ,,株式会社,沖縄県,島尻郡南風原町,字新川１９３番地９・２Ｆ,,47,350,9011105,,,,,,,2023-07-18,1,,,,,ティーケー,0
1374,5360001032299,新規,0,2023-07-18,2023-07-18,朝日ファイナンシャル株式会社,,株式会社,沖縄県,国頭郡宜野座村,字松田２４３０－４イースト・リバー１０２,,47,313,9041301,,,,,,,2023-07-18,1,,,,,アサヒファイナンシャル,0
1376,5360003013108,新規,0,2023-07-18,2023-07-18,メタブル合同会社,,合同会社,沖縄県,国頭郡恩納村,字谷茶１９１９－１,,47,311,9040412,,,,,,,2023-07-18,1,,,,,メタブル,0
1377,5360003013116,新規,0,2023-07-18,2023-07-18,農業生産法人合同会社アバチファーム,,合同会社,沖縄県,石垣市,字大浜４７０番地１２ペルーナマンション２０１,,47,207,9070001,,,,,,,2023-07-18,1,,,,,アバチファーム,0
1378,5370001050168,新規,0,2023-07-18,2023-07-18,株式会社木の実,,株式会社,宮城県,塩竈市,字伊保石３９３番地３,,04,203,9850087,,,,,,,2023-07-18,1,,,,,キノミ,0
1387,5390003002124,新規,0,2023-07-18,2023-07-18,スマイル・サポート合同会社,,合同会社,山形県,寒河江市,緑町８３番地の２,,06,206,9910062,,,,,,,2023-07-18,1,,,,,スマイルサポート,0
1388,5400001016322,新規,0,2023-07-18,2023-07-18,福源商事株式会社,,株式会社,岩手県,花巻市,東和町土沢７区１５６番地１,,03,205,0280114,,,,,,,2023-07-18,1,,,,,フクゲンショウジ,0
1395,5430001089530,新規,0,2023-07-18,2023-07-18,株式会社ヘアーサロンコージ,,株式会社,北海道,札幌市東区,北十六条東１５丁目２番１７号グランドールＫ,,01,103,0650016,,,,,,,2023-07-18,1,,,,,ヘアーサロンコージ,0
1396,5430001089588,新規,0,2023-07-18,2023-07-18,株式会社Ｂｅｆｌｅｘ,,株式会社,北海道,札幌市中央区,南五条東２丁目３番地モデナフィネスト１１０６号,,01,101,0600055,,,,,,,2023-07-18,1,,,,,ビーフレックス,0
1410,5700150115588,新規,0,2023-07-18,2023-07-18,千隱科技有限公司,,外国会社等,,,,,,,,中国香港元朗流浮山深湾路虎草村Ａ楼２１室,,,,,,2023-07-18,1,,,,,センインカギユウゲンコウシ,0
1411,5700150118459,新規,0,2023-07-18,2023-07-18,ｃｈａｎｇ　ｓｈａ　ｓｈｉ　ｂｉｎ　ｇａｎｇ　ｓｈａｎｇ　ｍａｏ　ｙｏｕ　ｘｉａｎ　ｇｏｎｇ　ｓｉ,,外国会社等,,,,,,,,ｗａｎｇｃｈｅｎｇｑｕｊｉｎｇｇａｎｇｘｉｎｊｉｚｈｅｎｆｕｓｈｅｎｇｃｕｎ　ｃｈａｎｇｓｈａ　ｈｕｎａｎ　ＣＮ,,,,,,2023-07-18,1,,,,,チャンシャシビンガンシャンマオユウゲンコウシ,0
1416,6010001236792,新規,0,2023-07-18,2023-07-18,新東方ホールディングス株式会社,,株式会社,東京都,千代田区,隼町２－１２,,13,101,1020092,,,,,,,2023-07-18,1,,,,,シントウホウホールディングス,0
1417,6010001236891,新規,0,2023-07-18,2023-07-18,株式会社ウェーブ・ワークス,,株式会社,東京都,千代田区,二番町７番地８,,13,101,1020084,,,,,,,2023-07-18,1,,,,,ウェーブワークス,0
1418,6010001236966,新規,0,2023-07-18,2023-07-18,ＴＪグローバルアドバイザリー株式会社,,株式会社,東京都,千代田区,九段南１丁目５－６りそな九段ビル５Ｆ,,13,101,1020074,,,,,,,2023-07-18,1,,,,,ティジェーグローバルアドバイザリー,0
1427,6010401175616,新規,0,2023-07-18,2023-07-18,株式会社ヒルパインズ,,株式会社,東京都,港区,芝浦１丁目１２番３号１００２,,13,103,1050023,,,,,,,2023-07-18,1,,,,,ヒルパインズ,0
1428,6010401175624,新規,0,2023-07-18,2023-07-18,ｐｅｒｚｉｋ株式会社,,株式会社,東京都,港区,港南２丁目１７－１京王品川ビル２Ｆ,,13,103,1080075,,,,,,,2023-07-18,1,,,,,ペルジック,0
1429,6010403030471,新規,0,2023-07-18,2023-07-18,合同会社国家安全保障協会,,合同会社,東京都,港区,虎ノ門１丁目１７－１,,13,103,1050001,,,,,,,2023-07-18,1,,,,,コッカアンゼンホショウキョウカイ,0
1430,6010403030513,新規,0,2023-07-18,2023-07-18,合同会社Ｅ’ｓコンサルティング,,合同会社,東京都,港区,三田２丁目７番９－８０３号,,13,103,1080073,,,,,,,2023-07-18,1,,,,,イーズコンサルティング,0
1437,6010601063422,新規,0,2023-07-18,2023-07-18,株式会社ゴージャンクション,,株式会社,東京都,江東区,大島７丁目２２番１６－１１０２号,,13,108,1360072,,,,,,,2023-07-18,1,,,,,ゴージャンクション,0
1443,6010801034157,新規,0,2023-07-18,2023-07-18,東京城南開発株式会社,,株式会社,東京都,大田区,城南島４丁目７番３号,,13,111,1430002,,,,,,,2023-07-18,1,,,,,トウキョウジョウナンカイハツ,0
1444,6010801034165,新規,0,2023-07-18,2023-07-18,株式会社コレイナ,,株式会社,東京都,大田区,大森西１丁目１９番１８号,,13,111,1430015,,,,,,,2023-07-18,1,,,,,コレイナ,0
1445,6010803004604,新規,0,2023-07-18,2023-07-18,一諾合同会社,,合同会社,東京都,大田区,矢口１丁目１６番１９号コスモビルＩＩ３０９,00131197,13,111,1460093,,,,,,,2023-07-18,1,,,,,イチダク,0
1449,6010901053437,新規,0,2023-07-18,2023-07-18,株式会社ＩＣＨＩ　ＲＥＡＬ　ＥＳＴＡＴＥ,,株式会社,東京都,世田谷区,桜丘５丁目３３番１１号,,13,112,1560054,,,,,,,2023-07-18,1,,,,,イチリアルエステート,0
1456,6011001155693,新規,0,2023-07-18,2023-07-18,株式会社Ｈｕｇｍｕ,,株式会社,東京都,渋谷区,円山町５番５号Ｎａｖｉ渋谷Ｖ３階,,13,113,1500044,,,,,,,2023-07-18,1,,,,,ハグム,0
1457,6011001155719,新規,0,2023-07-18,2023-07-18,株式会社Ｈａｇｇｙ,,株式会社,東京都,渋谷区,幡ヶ谷３丁目６６番２号,,13,113,1510072,,,,,,,2023-07-18,1,,,,,ハギー,0
1458,6011001155735,新規,0,2023-07-18,2023-07-18,株式会社カンファーセーフティ,,株式会社,東京都,目黒区,下目黒５丁目７番１８号,,13,110,1530064,,,,,,,2023-07-18,1,,,,,カンファーセーフティ,0
1459,6011001155768,新規,0,2023-07-18,2023-07-18,株式会社水前寺きなこ,,株式会社,東京都,渋谷区,恵比寿南２丁目２４－９恵比寿南ヒルズ３０２,,13,113,1500022,,,,,,,2023-07-18,1,,,,,,0
1461,6011003017074,新規,0,2023-07-18,2023-07-18,ＴＨＥ　ＰＲＡＮＣＩＮＧ　ＰＯＮＹ合同会社,,合同会社,東京都,渋谷区,神宮前６丁目２３番４号桑野ビル２階,,13,113,1500001,,,,,,,2023-07-18,1,,,,,プランシングポニー,0
1464,6011005010143,新規,0,2023-07-18,2023-07-18,一般社団法人オーシャンライフジャパン,,その他の設立登記法人,東京都,渋谷区,神宮前２丁目２２番２号,,13,113,1500001,,,,,,,2023-07-18,1,,,,,オーシャンライフジャパン,0
1467,6011101103635,新規,0,2023-07-18,2023-07-18,株式会社ＳＩＭＮＡ,,株式会社,東京都,新宿区,新宿６丁目２７番１－５０８号,,13,104,1600022,,,,,,,2023-07-18,1,,,,,シムナ,0
1472,6011701026401,新規,0,2023-07-18,2023-07-18,百納株式会社,,株式会社,東京都,江戸川区,清新町１丁目１番９－３０１号,,13,123,1340087,,,,,,,2023-07-18,1,,,,,ヒャクノウ,0
1476,6011801042728,新規,0,2023-07-18,2023-07-18,株式会社Ｄｒｅｓｓ,,株式会社,東京都,足立区,平野３丁目１３番１０号,,13,121,1210076,,,,,,,2023-07-18,1,,,,,ドレス,0
1477,6011803005740,新規,0,2023-07-18,2023-07-18,メグ．ソーイング合同会社,,合同会社,東京都,足立区,入谷９丁目２番１８号,,13,121,1210836,,,,,,,2023-07-18,1,,,,,メグソーイング,0
1479,6012701017753,新規,0,2023-07-18,2023-07-18,株式会社きれいライフサービス,,株式会社,東京都,東久留米市,柳窪４丁目１４番３３号,,13,222,2030044,,,,,,,2023-07-18,1,,,,,キレイライフサービス,0
1481,6012705002363,新規,0,2023-07-18,2023-07-18,一般社団法人ＯＮＴＩＭＥ,,その他の設立登記法人,東京都,清瀬市,松山１丁目４２番６号,,13,221,2040022,,,,,,,2023-07-18,1,,,,,オンタイム,0
1487,6013301051036,新規,0,2023-07-18,2023-07-18,クレスト管理株式会社,,株式会社,東京都,豊島区,池袋２丁目７８番５号,,13,116,1710014,,,,,,,2023-07-18,1,,,,,クレストカンリ,0
1489,6013303006698,新規,0,2023-07-18,2023-07-18,カラーデイズ合同会社,,合同会社,東京都,豊島区,上池袋４丁目２２－３,,13,116,1700012,,,,,,,2023-07-18,1,,,,,カラーデイズ,0
1490,6013303006707,新規,0,2023-07-18,2023-07-18,ライフ合同会社,,合同会社,東京都,豊島区,東池袋２丁目６０番２号池袋パークハイツ２Ｆ,,13,116,1700013,,,,,,,2023-07-18,1,,,,,ライフ,0
1499,6021001079628,新規,0,2023-07-18,2023-07-18,ＭＴＭ株式会社,,株式会社,神奈川県,藤沢市,辻堂太平台２丁目１番３５～６１号,,14,205,2510044,,,,,,,2023-07-18,1,,,,,エムティーエム,0
1500,6021001079636,新規,0,2023-07-18,2023-07-18,株式会社勘藏丸,,株式会社,神奈川県,横須賀市,佐島２丁目１３番５号,,14,201,2400103,,,,,,,2023-07-18,1,,,,,カンゾウマル,0
1503,6021005012857,新規,0,2023-07-18,2023-07-18,一般社団法人アニマルフォート,,その他の設立登記法人,神奈川県,相模原市中央区,相模原２丁目２番地１７号シティプラザ７０２,,14,152,2520231,,,,,,,2023-07-18,1,,,,,アニマルフォート,0
1517,6040001129267,新規,0,2023-07-18,2023-07-18,株式会社イーグルケア,,株式会社,千葉県,印旛郡栄町,安食３６６４番地,,12,329,2701516,,,,,,,2023-07-18,1,,,,,イーグルケア,0
1518,6040003022940,新規,0,2023-07-18,2023-07-18,合同会社チェリーコーポレーション,,合同会社,千葉県,船橋市,湊町２丁目４番２０号,,12,204,2730011,,,,,,,2023-07-18,1,,,,,チェリーコーポレーション,0
1519,6040003022973,新規,0,2023-07-18,2023-07-18,バラーブルット合同会社,,合同会社,千葉県,松戸市,幸谷５８９番地２１号室,,12,207,2700017,,,,,,,2023-07-18,1,,,,,バラーブルット,0
1532,6080001025743,新規,0,2023-07-18,2023-07-18,株式会社ｌａ　ｐｌａｉｓｉｒ,,株式会社,静岡県,島田市,井口１１８０番地,,22,209,4270104,,,,,,,2023-07-18,1,,,,,ラプレジール,0
1534,6080101024125,新規,0,2023-07-18,2023-07-18,株式会社日本財形,,株式会社,静岡県,沼津市,大手町２丁目７番６号,,22,203,4100801,,,,,,,2023-07-18,1,,,,,ニホンザイケイ,0
1539,6100001036597,新規,0,2023-07-18,2023-07-18,株式会社ＫＩＫＯＲＩ,,株式会社,長野県,上田市,上武石７４番地１,,20,203,3860508,,,,,,,2023-07-18,1,,,,,キコリ,0
1540,6100001036606,新規,0,2023-07-18,2023-07-18,株式会社降籏総業,,株式会社,長野県,塩尻市,大字塩尻町７５６番地６,,20,215,3990712,,,,,,,2023-07-18,1,,,,,フリハタソウギョウ,0
1542,6100003007118,新規,0,2023-07-18,2023-07-18,合同会社ビジョンパートナー,,合同会社,長野県,上田市,生田３０８８番地４,,20,203,3860411,,,,,,,2023-07-18,1,,,,,ビジョンパートナー,0
1545,6110005016966,新規,0,2023-07-18,2023-07-18,一般社団法人妻有地域メディカル＆ケアネットワーク,,その他の設立登記法人,新潟県,十日町市,高田町３丁目南４４２番地,,15,210,9480065,,,,,,,2023-07-18,1,,,,,ツマリチイキメディカルアンドケアネットワーク,0
1553,6120001256391,新規,0,2023-07-18,2023-07-18,日中野球交流株式会社,,株式会社,大阪府,大阪市生野区,鶴橋２丁目２番１４号,,27,116,5440031,,,,,,,2023-07-18,1,,,,,ニッチュウヤキュウコウリュウ,0
1554,6120001256466,新規,0,2023-07-18,2023-07-18,株式会社ＫＡＮＡＤＥＮＳＥＴＳＵ,,株式会社,大阪府,寝屋川市,楠根北町１－２５－３,,27,215,5720845,,,,,,,2023-07-18,1,,,,,カナデンセツ,0
1555,6120001256490,新規,0,2023-07-18,2023-07-18,株式会社ＯＮ　Ｔｒｕｓｔ,,株式会社,大阪府,大阪市中央区,日本橋１丁目１７番１７号ピカソ日本一ビル６階,,27,128,5420073,,,,,,,2023-07-18,1,,,,,オントラスト,0
1556,6120001256516,新規,0,2023-07-18,2023-07-18,株式会社ＯＮＥ　ＣＯＭＭＵＮＩＴＹ,,株式会社,大阪府,大阪市天王寺区,真法院町１３番２３号,,27,109,5430041,,,,,,,2023-07-18,1,,,,,ワンコミュニティ,0
1557,6120001256524,新規,0,2023-07-18,2023-07-18,株式会社Ｒａｖｉｅ,,株式会社,大阪府,大阪市北区,西天満４丁目１５番１８号ＰＬＡＺＡＵＭＥＳＨＩＮ７１５号,,27,127,5300047,,,,,,,2023-07-18,1,,,,,ラヴィ,0
1558,6120001256532,新規,0,2023-07-18,2023-07-18,株式会社ＧＧＴ,,株式会社,大阪府,大阪市浪速区,難波中２丁目７番７号ナンバＦＫビル７階,,27,111,5560011,,,,,,,2023-07-18,1,,,,,ジージーティー,0
1559,6120001256540,新規,0,2023-07-18,2023-07-18,呉王株式会社,,株式会社,大阪府,大阪市生野区,新今里３丁目１１－３,,27,116,5440001,,,,,,,2023-07-18,1,,,,,ゴオウ,0
1561,6120003024490,新規,0,2023-07-18,2023-07-18,合同会社ＮＥＬＳＯＮ,,合同会社,大阪府,大阪市西区,京町堀１丁目８番１２号,,27,106,5500003,,,,,,,2023-07-18,1,,,,,ネルソン,0
1563,6120005023739,新規,0,2023-07-18,2023-07-18,一般社団法人ミライのたまご支援機構,,その他の設立登記法人,大阪府,大阪市中央区,南船場３丁目７番２７号ＮＬＣ心斎橋７階,,27,128,5420081,,,,,,,2023-07-18,1,,,,,ミライノタマゴシエンキコウ,0
1567,6120101067879,新規,0,2023-07-18,2023-07-18,ＳＳ　Ｉｎｔｅｒｎａｔｉｏｎａｌ株式会社,,株式会社,大阪府,富田林市,錦織中１丁目１２番１５号,,27,214,5840068,,,,,,,2023-07-18,1,,,,,エスエスインターナショナル,0
1568,6120101067895,新規,0,2023-07-18,2023-07-18,株式会社朝日ライジングカンパニー,,株式会社,大阪府,富田林市,西板持町４丁目１７番９号,,27,214,5840048,,,,,,,2023-07-18,1,,,,,アサヒライジングカンパニー,0
1569,6120101067904,新規,0,2023-07-18,2023-07-18,誠偉貿易株式会社,,株式会社,大阪府,高石市,羽衣１丁目１７番２４号,,27,225,5920002,,,,,,,2023-07-18,1,,,,,セイイボウエキ,0
1571,6120105009737,新規,0,2023-07-18,2023-07-18,医療法人しかたクリニック,,その他の設立登記法人,大阪府,藤井寺市,岡１丁目１５番２９号,,27,226,5830027,,,,,,,2023-07-18,1,,,,,シカタクリニック,0
1572,6120901047799,新規,0,2023-07-18,2023-07-18,株式会社モントレゾール,,株式会社,大阪府,茨木市,新和町４番１０号,,27,211,5670855,,,,,,,2023-07-18,1,,,,,モントレゾール,0
1573,6120903004740,新規,0,2023-07-18,2023-07-18,Ｐｏｒｔｉｃｏ　Ｆｏｏｄｓ合同会社,,合同会社,大阪府,箕面市,箕面６丁目９番１４号,,27,220,5620001,,,,,,,2023-07-18,1,,,,,ポーティコフーズ,0
1580,6122001037169,新規,0,2023-07-18,2023-07-18,株式会社ＲｅＦＡＣＴ,,株式会社,大阪府,八尾市,宮町４丁目５番９号,,27,212,5810815,,,,,,,2023-07-18,1,,,,,リファクト,0
1589,6140001130917,新規,0,2023-07-18,2023-07-18,株式会社Ａ．Ｆ．Ｃ．,,株式会社,兵庫県,川西市,萩原台西２丁目３０２,,28,217,6660006,,,,,,,2023-07-18,1,,,,,エーエフシー,0
1590,6140001130925,新規,0,2023-07-18,2023-07-18,株式会社スタジオランポ,,株式会社,兵庫県,尼崎市,東難波町５丁目２－２６,,28,202,6600892,,,,,,,2023-07-18,1,,,,,スタジオランポ,0
1591,6140001130933,新規,0,2023-07-18,2023-07-18,株式会社ＲＯＭＡＮＣＥ　ＤＡＷＮ,,株式会社,兵庫県,神戸市須磨区,若木町４丁目３番１－４１４号,,28,107,6540014,,,,,,,2023-07-18,1,,,,,ロマンスドーン,0
1597,6140003019308,新規,0,2023-07-18,2023-07-18,嘉千福合同会社,,合同会社,兵庫県,神戸市垂水区,千代が丘２丁目２番３号,,28,108,6550018,,,,,,,2023-07-18,1,,,,,カセンフク,0
1598,6140003019324,新規,0,2023-07-18,2023-07-18,合同会社クラウドホーム,,合同会社,兵庫県,宝塚市,中州１丁目５番１－６０３号,,28,214,6650021,,,,,,,2023-07-18,1,,,,,クラウドホーム,0
1599,6140005026681,新規,0,2023-07-18,2023-07-18,一般社団法人観光クロスオーバー協会,,その他の設立登記法人,兵庫県,神戸市東灘区,向洋町中６丁目９番地神戸ファッションマート８Ｎ－１０,,28,101,6580032,,,,,,,2023-07-18,1,,,,,カンコウクロスオーバーキョウカイ,0
1600,6150003003005,新規,0,2023-07-18,2023-07-18,合同会社Ｊ,,合同会社,奈良県,生駒市,辻町６４４番地１－１０５,00131202,29,209,6300212,,,,,,,2023-07-18,1,,,,,ジェイ,0
1612,6180001156933,新規,0,2023-07-18,2023-07-18,株式会社富久家,,株式会社,愛知県,名古屋市昭和区,雪見町１丁目１５番５号,,23,107,4660005,,,,,,,2023-07-18,1,,,,,フクヤ,0
1613,6180001157188,新規,0,2023-07-18,2023-07-18,株式会社ワースリビング,,株式会社,愛知県,名古屋市中区,栄１丁目２２番２号,,23,106,4600008,,,,,,,2023-07-18,1,,,,,ワースリビング,0
1616,6180003025500,新規,0,2023-07-18,2023-07-18,合同会社ポン,,合同会社,愛知県,名古屋市千種区,見附町１丁目５８番地２０５号,,23,101,4640817,,,,,,,2023-07-18,1,,,,,ポン,0
1620,6180301037577,新規,0,2023-07-18,2023-07-18,株式会社アース,,株式会社,愛知県,豊橋市,東小鷹野４丁目１５番地５,,23,201,4400012,,,,,,,2023-07-18,1,,,,,アース,0
1627,6190003004379,新規,0,2023-07-18,2023-07-18,合同会社アットケア,,合同会社,三重県,四日市市,日永１丁目６番１７号パラシオン日永Ｃ－２０１,,24,202,5100885,,,,,,,2023-07-18,1,,,,,アットケア,0
1629,6200001041496,新規,0,2023-07-18,2023-07-18,株式会社坂口鈑金,,株式会社,岐阜県,本巣市,上高屋１０２３番地１,,21,218,5010411,,,,,,,2023-07-18,1,,,,,サカグチバンキン,0
1632,6210001019384,新規,0,2023-07-18,2023-07-18,株式会社安達商会,,株式会社,福井県,福井市,順化１丁目１５番２９号２Ｆ,,18,201,9100023,,,,,,,2023-07-18,1,,,,,アダチショウカイ,0
1635,6220001025506,新規,0,2023-07-18,2023-07-18,株式会社ＦＩＬＦＩＬ,,株式会社,石川県,金沢市,片町２丁目２６番１４号,,17,201,9200981,,,,,,,2023-07-18,1,,,,,フィルフィル,0
1650,6260001038132,新規,0,2023-07-18,2023-07-18,株式会社ＡＹＡ　ＬＯＧＩＳＴＩＣＳ,,株式会社,岡山県,岡山市南区,築港新町１丁目１３番８号,,33,104,7028056,,,,,,,2023-07-18,1,,,,,アヤロジスティクス,0
1653,6290001102315,新規,0,2023-07-18,2023-07-18,株式会社フォルティス,,株式会社,福岡県,福岡市中央区,渡辺通５丁目１４番１２号,,40,133,8100004,,,,,,,2023-07-18,1,,,,,フォルティス,0
1658,6290003014137,新規,0,2023-07-18,2023-07-18,合同会社Ｓ・Ｔ,,合同会社,福岡県,福岡市東区,香椎照葉３丁目２番２－１２２３号,,40,131,8130017,,,,,,,2023-07-18,1,,,,,,0
1660,6290801029708,新規,0,2023-07-18,2023-07-18,ＢＬＵＥＳＫＹ株式会社,,株式会社,福岡県,京都郡みやこ町,勝山黒田１６０８番地,,40,625,8240822,,,,,,,2023-07-18,1,,,,,ブルースカイ,0
1664,6320001019893,新規,0,2023-07-18,2023-07-18,Ｃｏｔｏｅコンサルタント株式会社,,株式会社,大分県,大分市,上野町１１番３１－１３０１号サーパス上野,,44,201,8700832,,,,,,,2023-07-18,1,,,,,コトエコンサルタント,0
1671,6340003004181,新規,0,2023-07-18,2023-07-18,合同会社カーショップＪ．ｓ,,合同会社,鹿児島県,鹿児島市,東俣町３９１７－１９,,46,201,8911102,,,,,,,2023-07-18,1,,,,,カーショップジェイズ,0
1676,6360001032273,新規,0,2023-07-18,2023-07-18,株式会社うみそらドローン沖縄,,株式会社,沖縄県,那覇市,三原３丁目１２番２０号ウインズ三原３０１,,47,201,9020063,,,,,,,2023-07-18,1,,,,,ウミソラドローンオキナワ,0
1677,6360001032298,新規,0,2023-07-18,2023-07-18,ＭＣ沖縄株式会社,,株式会社,沖縄県,那覇市,久米１丁目１４－５,,47,201,9000033,,,,,,,2023-07-18,1,,,,,エムシーオキナワ,0
1680,6360003013123,新規,0,2023-07-18,2023-07-18,合同会社ｉＭｕｋｏＲｅｖｏ,,合同会社,沖縄県,中頭郡読谷村,字楚辺１２７９番地２８,,47,324,9040304,,,,,,,2023-07-18,1,,,,,アイムコレボ,0
1682,6370001050200,新規,0,2023-07-18,2023-07-18,株式会社ＬＩＦＩＸ,,株式会社,宮城県,石巻市,前谷地字赤羽根４０番地２,,04,202,9871101,,,,,,,2023-07-18,1,,,,,リフィックス,0
1694,6400001016321,新規,0,2023-07-18,2023-07-18,株式会社Ｎｅｏハウス,,株式会社,岩手県,花巻市,浅沢１８７番地１１,,03,205,0250067,,,,,,,2023-07-18,1,,,,,ネオハウス,0
1701,6430001089579,新規,0,2023-07-18,2023-07-18,Ａｅｒｉａｌ　Ｗｏｒｋｓ　Ｎｉｓｅｋｏ株式会社,,株式会社,北海道,虻田郡ニセコ町,字本通２４９番地５,,01,395,0481502,,,,,,,2023-07-18,1,,,,,エアリアルワークスニセコ,0
1714,6500001025072,新規,0,2023-07-18,2023-07-18,高岡ソリューション株式会社,,株式会社,愛媛県,松山市,東石井６丁目３番３６号,,38,201,7900932,,,,,,,2023-07-18,1,,,,,タカオカソリューション,0
1717,6700150118458,新規,0,2023-07-18,2023-07-18,Ｋｅｅｎｓｔｏｎｅ　Ｃｏｒｐｏｒａｔｉｏｎ,,外国会社等,,,,,,,,Ｕｎｉｔｅｄ　Ｓｔａｔｅｓ　２１５９　Ｓｅｐｕｌｖｅｄａ　Ａｖｅ．ＣＡ　Ｍｉｌｐｉｔａｓ,,,,,,2023-07-18,1,,,,,キーンストーンコーポレイション,0
1718,6700150118466,新規,0,2023-07-18,2023-07-18,Ｈｅ　ｎａｎ　ｊｉ　ｄａｏ　ｗａｎｇ　ｌｕｏ　ｋｅ　ｊｉ　ｙｏｕ　ｘｉａｎ　ｇｏｎｇ　ｓｉ,,外国会社等,,,,,,,,Ｇａｏ　ｘｉｎ　ｑｕ　ｘｉａｎ　ｇｅ　ｄａ　ｄａｏ　ｙｕ　ｐｉｎｇ　ｙｕａｎ　ｌｕ　ｊｉａｏ　ｃｈａ　ｋｏｕ　ｈｕａ　ｑｉａｎｇ　ｘｉｎ　ｔｉａｎ　ｄｉ　ｓｈａｎｇ　ｙｅ　２　ｚｈｕａｎｇ　１　Ｂ２０２　ｓｈｉ　Ａｎｙａｎｇ　Ｈｅｎａｎ　ＣＮ,,,,,,2023-07-18,1,,,,,ヘナンジダオワンルオケジユウゲンコウシ,0
1719,6700150118499,新規,0,2023-07-18,2023-07-18,西新宿三丁目西地区市街地再開発組合,,その他,東京都,新宿区,西新宿３丁目１１番１６号第２太閤ビル２階,,13,104,1600023,,,,,,,2023-07-18,1,,,,,ニシシンジユクサンチヨウメニシチクシガイチサイカイハツクミアイ,0
1727,7010001236890,新規,0,2023-07-18,2023-07-18,株式会社Ｋ　Ｔｏｍｏ,,株式会社,東京都,文京区,本駒込６丁目３番２号ＫＤＸ文京千石レジデンス１０２号,,13,105,1130021,,,,,,,2023-07-18,1,,,,,ケートモ,0
1728,7010001236908,新規,0,2023-07-18,2023-07-18,株式会社ＵＭＥ,,株式会社,東京都,千代田区,一番町６番地４－１３０１号,,13,101,1020082,,,,,,,2023-07-18,1,,,,,ユーエムイー,0
1729,7010001236932,新規,0,2023-07-18,2023-07-18,起業支援コンサルティング株式会社,,株式会社,東京都,中央区,銀座１丁目２２番１１号銀座大竹ビジデンス２階,,13,102,1040061,,,,,,,2023-07-18,1,,,,,キギョウシエンコンサルティング,0
1730,7010003041117,新規,0,2023-07-18,2023-07-18,合同会社ＧＬＣ,,合同会社,東京都,中央区,日本橋室町１丁目１１番１２号日本橋水野ビル７階,,13,102,1030022,,,,,,,2023-07-18,1,,,,,ジーエルシー,0
1731,7010005036973,新規,0,2023-07-18,2023-07-18,一般社団法人新エネルギー太陽３,,その他の設立登記法人,東京都,千代田区,霞が関３丁目２番５号霞が関ビルディング３３階,,13,101,1000013,,,,,,,2023-07-18,1,,,,,シンエネルギータイヨウサン,0
1733,7010101015716,新規,0,2023-07-18,2023-07-18,株式会社ＧｌｅｅＨａｒｂｏｒ,,株式会社,東京都,八王子市,大塚５０１ナカジマビル５、３０１号室,,13,201,1920352,,,,,,,2023-07-18,1,,,,,グリーハーバー,0
1737,7010401175631,新規,0,2023-07-18,2023-07-18,ブルーツーリズム株式会社,,株式会社,東京都,港区,芝浦４丁目２１番１－１５１２号,,13,103,1080023,,,,,,,2023-07-18,1,,,,,ブルーツーリズム,0
1738,7010401175730,新規,0,2023-07-18,2023-07-18,株式会社ＴＩＭＥ２,,株式会社,東京都,港区,南青山３丁目１番３６号青山丸竹ビル６階,,13,103,1070062,,,,,,,2023-07-18,1,,,,,タイムツー,0
1739,7010401175763,新規,0,2023-07-18,2023-07-18,株式会社ＦＩＲＳＴ　Ｅｄｕｃａｔｉｏｎａｌ,,株式会社,東京都,港区,南青山２丁目２番１５号,,13,103,1070062,,,,,,,2023-07-18,1,,,,,ファーストエデュケーショナル,0
1740,7010403030520,新規,0,2023-07-18,2023-07-18,合同会社ムービーコネクト,,合同会社,東京都,港区,南青山２丁目２番１５号ウィン青山１２１４号,,13,103,1070062,,,,,,,2023-07-18,1,,,,,ムービーコネクト,0
1747,7010703006781,新規,0,2023-07-18,2023-07-18,澳東合同会社,,合同会社,東京都,品川区,東五反田５丁目１０番１５号,,13,109,1410022,,,,,,,2023-07-18,1,,,,,オウトウ,0
1754,7011001155692,新規,0,2023-07-18,2023-07-18,ｈｕｍａｉｎ株式会社,,株式会社,東京都,目黒区,目黒３丁目１番７号,,13,110,1530063,,,,,,,2023-07-18,1,,,,,ユマン,0
1755,7011001155718,新規,0,2023-07-18,2023-07-18,株式会社Ｌｅ・ｃｌａｓｓ,,株式会社,東京都,目黒区,碑文谷４丁目３番９号,,13,110,1520003,,,,,,,2023-07-18,1,,,,,ルクラス,0
1756,7011001155726,新規,0,2023-07-18,2023-07-18,株式会社ＬＩＦＩＸ,,株式会社,東京都,渋谷区,円山町５番６号キングビル３Ｆ,,13,113,1500044,,,,,,,2023-07-18,1,,,,,リフィックス,0
1757,7011001155742,新規,0,2023-07-18,2023-07-18,株式会社アマノユ,,株式会社,東京都,渋谷区,道玄坂１丁目１０番８号渋谷道玄坂東急ビル２Ｆ－Ｃ,,13,113,1500043,,,,,,,2023-07-18,1,,,,,アマノユ,0
1758,7011003017189,新規,0,2023-07-18,2023-07-18,Ｃａｍａｒａｄｅ合同会社,,合同会社,東京都,渋谷区,本町１丁目２０番２号パルムハウス初台１４１１号,,13,113,1510071,,,,,,,2023-07-18,1,,,,,キャマラード,0
1767,7011601026979,新規,0,2023-07-18,2023-07-18,フェローズシステム株式会社,,株式会社,東京都,練馬区,石神井町４丁目２５番１６号,,13,120,1770041,,,,,,,2023-07-18,1,,,,,フェローズシステム,0
1770,7011801042727,新規,0,2023-07-18,2023-07-18,株式会社ＫＵＲＯ,,株式会社,東京都,足立区,竹の塚４丁目２番１号ＴＢビル５階,,13,121,1210813,,,,,,,2023-07-18,1,,,,,クロ,0
1771,7011801042735,新規,0,2023-07-18,2023-07-18,株式会社ＡＧリクルート,,株式会社,東京都,足立区,東綾瀬１丁目２０－１０,,13,121,1200004,,,,,,,2023-07-18,1,,,,,エージーリクルート,0
1777,7012803003122,新規,0,2023-07-18,2023-07-18,合同会社Ｗ’ＳＪ,,合同会社,東京都,国分寺市,戸倉４丁目１番地１３,,13,214,1850003,,,,,,,2023-07-18,1,,,,,ダブリュズジェイ,0
1779,7013301051035,新規,0,2023-07-18,2023-07-18,新道楽株式会社,,株式会社,東京都,豊島区,東池袋１丁目４４番２号パラッシオ池袋５０１号室,,13,116,1700013,,,,,,,2023-07-18,1,,,,,シンドウラク,0
1787,7020001152559,新規,0,2023-07-18,2023-07-18,株式会社ＹＨワークス,,株式会社,神奈川県,川崎市宮前区,馬絹２丁目６番３号グリーンピア馬絹１階,,14,136,2160035,,,,,,,2023-07-18,1,,,,,ワイエイチワークス,0
1788,7020005016058,新規,0,2023-07-18,2023-07-18,特定非営利活動法人コミュニティーサロン釜利谷ふれあいカフェ,,その他の設立登記法人,神奈川県,横浜市金沢区,釜利谷東４丁目５７番１９号,,14,108,2360042,,,,,,,2023-07-18,1,,,,,コミュニティーサロンカマリヤフレアイカフェ,0
1790,7021001079569,新規,0,2023-07-18,2023-07-18,株式会社ユウシン,,株式会社,神奈川県,足柄上郡開成町,吉田島４４５９番地５,,14,366,2580021,,,,,,,2023-07-18,1,,,,,ユウシン,0
1791,7021001079610,新規,0,2023-07-18,2023-07-18,株式会社モーガンＥ＆Ｒ,,株式会社,神奈川県,横須賀市,小矢部３丁目８番１４号,,14,201,2380026,,,,,,,2023-07-18,1,,,,,モーガンイーアンドアール,0
1792,7021001079619,新規,0,2023-07-18,2023-07-18,株式会社ベクトル,,株式会社,神奈川県,相模原市南区,松が枝町１８番１号オフィス松ケ枝２Ｆ－Ｊ,,14,153,2520313,,,,,,,2023-07-18,1,,,,,ベクトル,0
1793,7021001079627,新規,0,2023-07-18,2023-07-18,富士屋メンテナンス株式会社,,株式会社,神奈川県,藤沢市,湘南台３丁目４－１０水島ＳＯ１０２,,14,205,2520804,,,,,,,2023-07-18,1,,,,,フジヤメンテナンス,0
1794,7021001079643,新規,0,2023-07-18,2023-07-18,株式会社魔法の藍染・蒼き衣,,株式会社,神奈川県,鎌倉市,山ノ内１４８９番地４セゾン北鎌倉１０１号室,,14,204,2470062,,,,,,,2023-07-18,1,,,,,マホウノアイゾメアオキコロモ,0
1800,7021003013328,新規,0,2023-07-18,2023-07-18,合同会社ラビット,,合同会社,神奈川県,足柄下郡湯河原町,土肥４丁目５番地の３３,,14,384,2590303,,,,,,,2023-07-18,1,,,,,ラビット,0
1801,7021005012856,新規,0,2023-07-18,2023-07-18,一般社団法人アン・ハサウェイ,,その他の設立登記法人,神奈川県,小田原市,荻窪４９９番地の３ロードマンション２０２号室,,14,206,2500042,,,,,,,2023-07-18,1,,,,,アンハサウェイ,0
1805,7040001129274,新規,0,2023-07-18,2023-07-18,株式会社タイヨウ,,株式会社,千葉県,市川市,下新宿２１番１４－１０２号,,12,203,2720102,,,,,,,2023-07-18,1,,,,,タイヨウ,0
1806,7040001129290,新規,0,2023-07-18,2023-07-18,株式会社３８５,,株式会社,千葉県,市川市,末広１丁目１８番１３－２０１号（ＳＡＴＯＭＩ－４番館）,,12,203,2720121,,,,,,,2023-07-18,1,,,,,ミヤコ,0
1807,7040001129299,新規,0,2023-07-18,2023-07-18,株式会社ロトム,,株式会社,千葉県,八千代市,勝田台３丁目１７番地１５,,12,221,2760023,,,,,,,2023-07-18,1,,,,,ロトム,0
1809,7040003022972,新規,0,2023-07-18,2023-07-18,しるべ合同会社,,合同会社,千葉県,流山市,大字中野久木５６３－４３,,12,220,2700116,,,,,,,2023-07-18,1,,,,,シルベ,0
1811,7050003007634,新規,0,2023-07-18,2023-07-18,合同会社新期インターナショナル,,合同会社,茨城県,稲敷郡美浦村,大字土屋１９７９－３４９,,08,442,3000426,,,,,,,2023-07-18,1,,,,,シンキインターナショナル,0
1812,7060001036163,新規,0,2023-07-18,2023-07-18,株式会社Ｈｉｎｏｋｉ　Ｃｏｍｐａｎｙ,,株式会社,栃木県,芳賀郡茂木町,大字飯野１６６３番地３,,09,343,3213702,,,,,,,2023-07-18,1,,,,,ヒノキカンパニー,0
1815,7070005010147,新規,0,2023-07-18,2023-07-18,医療法人雅会,,その他の設立登記法人,群馬県,高崎市,南新波町１０７番地４,,10,202,3700083,,,,,,,2023-07-18,1,,,,,ミヤビカイ,0
1816,7080001025742,新規,0,2023-07-18,2023-07-18,株式会社日本ＥＶユナイテッド,,株式会社,静岡県,藤枝市,前島１丁目３番１６号,,22,214,4260067,,,,,,,2023-07-18,1,,,,,ニホンイーブイユナイテッド,0
1824,7090001018217,新規,0,2023-07-18,2023-07-18,株式会社ｂｌｏｏｍ,,株式会社,山梨県,甲斐市,長塚４３３－１,,19,210,4000125,,,,,,,2023-07-18,1,,,,,ブルーム,0
1828,7100001036596,新規,0,2023-07-18,2023-07-18,株式会社Ｋａｒａｍａｔｓｕ　Ｓｕｐｐｏｒｔ　Ｓｅｒｖｉｃｅｓ,,株式会社,長野県,北安曇郡白馬村,大字北城６３５４－３階,,20,485,3999301,,,,,,,2023-07-18,1,,,,,カラマツサポートサービス,0
1829,7100001036605,新規,0,2023-07-18,2023-07-18,株式会社Ｔｒｕｓｔｙ,,株式会社,長野県,塩尻市,大字洗馬４７９番地４,,20,215,3996462,,,,,,,2023-07-18,1,,,,,トラスティ,0
1833,7100003007100,新規,0,2023-07-18,2023-07-18,合同会社Ｄ‐ＴＲＡＤＥ,,合同会社,長野県,上伊那郡南箕輪村,１９４７番地３,,20,385,3994511,,,,,,,2023-07-18,1,,,,,ディートレード,0
1837,7110001037701,新規,0,2023-07-18,2023-07-18,株式会社還,,株式会社,新潟県,新潟市中央区,関新２丁目１番６９号,,15,103,9518141,,,,,,,2023-07-18,1,,,,,メグル,0
1850,7120001256457,新規,0,2023-07-18,2023-07-18,株式会社フロンティアインシュアランス,,株式会社,大阪府,大阪市西区,江戸堀１丁目２３番１９号グラン・ビルド江戸堀４０１号,,27,106,5500002,,,,,,,2023-07-18,1,,,,,フロンティアインシュアランス,0
1851,7120001256465,新規,0,2023-07-18,2023-07-18,株式会社東金町建設,,株式会社,大阪府,大阪市西淀川区,千舟３丁目３番３８号,,27,113,5550013,,,,,,,2023-07-18,1,,,,,ヒガシカナマチケンセツ,0
1852,7120001256498,新規,0,2023-07-18,2023-07-18,株式会社ｈａｍａｄａｃｔｉｏｎ,,株式会社,大阪府,大阪市北区,梅田１丁目２番２号大阪駅前第２ビル１２－１２,,27,127,5300001,,,,,,,2023-07-18,1,,,,,ハマダクション,0
1853,7120001256507,新規,0,2023-07-18,2023-07-18,森田化学ホールディングス株式会社,,株式会社,大阪府,大阪市中央区,久太郎町４丁目１番３号,,27,128,5410056,,,,,,,2023-07-18,1,,,,,モリタカガクホールディングス,0
1854,7120001256515,新規,0,2023-07-18,2023-07-18,株式会社Ｅｘｔｅｌｌａ,,株式会社,大阪府,大阪市阿倍野区,北畠２丁目６番１８号,,27,119,5450035,,,,,,,2023-07-18,1,,,,,エクステラ,0
1855,7120001256655,新規,0,2023-07-18,2023-07-18,株式会社リクシード,,株式会社,大阪府,大阪市北区,豊崎２丁目１番９号,,27,127,5310072,,,,,,,2023-07-18,1,,,,,リクシード,0
1862,7120005023746,新規,0,2023-07-18,2023-07-18,医療法人輝星会,,その他の設立登記法人,大阪府,大阪市都島区,内代町２丁目７番３号オカダ本館ビル１階,,27,102,5340013,,,,,,,2023-07-18,1,,,,,キセイカイ,0
1864,7120101067903,新規,0,2023-07-18,2023-07-18,株式会社Ｗｅｌｌｎｅｓｓ　Ｔｒｅｅ　Ｓｔｕｄｉｏ,,株式会社,大阪府,堺市堺区,大町西３丁３番１７－１１０４号,,27,141,5900959,,,,,,,2023-07-18,1,,,,,ウェルネスツリースタジオ,0
1865,7120101067911,新規,0,2023-07-18,2023-07-18,株式会社ハートビル,,株式会社,大阪府,泉南郡熊取町,つばさが丘西２丁目１９番２号,,27,361,5900443,,,,,,,2023-07-18,1,,,,,ハートビル,0
1868,7120901047798,新規,0,2023-07-18,2023-07-18,株式会社Ｈ３,,株式会社,大阪府,高槻市,天神町１丁目９番６－３０３号,,27,207,5691117,,,,,,,2023-07-18,1,,,,,エイチトリニティー,0
1877,7130001074750,新規,0,2023-07-18,2023-07-18,株式会社アヤナイ,,株式会社,京都府,京都市左京区,上高野車地町１５４番地,,26,103,6060053,,,,,,,2023-07-18,1,,,,,アヤナイ,0
1880,7130005016823,新規,0,2023-07-18,2023-07-18,一般社団法人ＷＡＫＵ,,その他の設立登記法人,京都府,京都市西京区,桂畑ケ田町１９０番地,,26,111,6158004,,,,,,,2023-07-18,1,,,,,ワク,0
1886,7140001130908,新規,0,2023-07-18,2023-07-18,株式会社オストベルク,,株式会社,兵庫県,川辺郡猪名川町,伏見台２丁目２番地１１,,28,301,6660262,,,,,,,2023-07-18,1,,,,,オストベルク,0
1889,7140003019307,新規,0,2023-07-18,2023-07-18,合同会社原田,,合同会社,兵庫県,洲本市,物部３丁目６番１３号,,28,205,6560051,,,,,,,2023-07-18,1,,,,,ハラダ,0
1890,7140003019315,新規,0,2023-07-18,2023-07-18,ペンギンパーク合同会社,,合同会社,兵庫県,神戸市中央区,磯上通８丁目１番２９号カサベラビルＣ＆Ｍ４０３号室,,28,110,6510086,,,,,,,2023-07-18,1,,,,,ペンギンパーク,0
1894,7160001025189,新規,0,2023-07-18,2023-07-18,株式会社Ｋｏａ,,株式会社,滋賀県,守山市,吉身５丁目６番６９号,,25,207,5240021,,,,,,,2023-07-18,1,,,,,コア,0
1896,7170003001889,新規,0,2023-07-18,2023-07-18,合同会社ぽのらぼ,,合同会社,和歌山県,和歌山市,西小二里１丁目４番３６号,,30,201,6410031,,,,,,,2023-07-18,1,,,,,ポノラボ,0
1908,7180001157162,新規,0,2023-07-18,2023-07-18,株式会社ポンデア,,株式会社,愛知県,名古屋市昭和区,福江２丁目９番３３号名古屋ビジネスインキュベータ白金,,23,107,4660059,,,,,,,2023-07-18,1,,,,,ポンデア,0
1909,7180001157170,新規,0,2023-07-18,2023-07-18,株式会社ファーストサービス,,株式会社,愛知県,春日井市,大手町２丁目２３９番地,,23,206,4860807,,,,,,,2023-07-18,1,,,,,ファーストサービス,0
1910,7180001157179,新規,0,2023-07-18,2023-07-18,株式会社エヌケーシーホールディングス,,株式会社,愛知県,名古屋市中区,伊勢山２丁目８番２１号,,23,106,4600026,,,,,,,2023-07-18,1,,,,,エヌケーシーホールディングス,0
1913,7180003025508,新規,0,2023-07-18,2023-07-18,ＴＨＥ　ＭＡＲＫＥＴＩＮＧ合同会社,,合同会社,愛知県,名古屋市中区,栄３丁目２－３名古屋日興證券ビル４階,,23,106,4600008,,,,,,,2023-07-18,1,,,,,ザマーケティング,0
1917,7180301037584,新規,0,2023-07-18,2023-07-18,株式会社長坂養鰻場,,株式会社,愛知県,西尾市,一色町千間上通中５１番地２,,23,213,4440411,,,,,,,2023-07-18,1,,,,,ナガサカヨウマンジョウ,0
1924,7190003004378,新規,0,2023-07-18,2023-07-18,Ｌｕａｎａ合同会社,,合同会社,三重県,松阪市,大口町１３８３番地１エクセル５０５,,24,204,5150001,,,,,,,2023-07-18,1,,,,,ルアナ,0
1927,7210001019383,新規,0,2023-07-18,2023-07-18,Ｄｒ．ＢＥＲＲＹ株式会社,,株式会社,福井県,坂井市,春江町石塚第２０号２番地,,18,210,9190483,,,,,,,2023-07-18,1,,,,,ドクターベリー,0
1933,7240001061820,新規,0,2023-07-18,2023-07-18,株式会社三和光,,株式会社,広島県,広島市安芸区,船越２丁目９番８号,,34,107,7360081,,,,,,,2023-07-18,1,,,,,,0
1941,7260001038131,新規,0,2023-07-18,2023-07-18,株式会社天つ日建設,,株式会社,岡山県,倉敷市,中島７４６－１－Ｃ２０２,,33,202,7100803,,,,,,,2023-07-18,1,,,,,アマツヒケンセツ,0
1946,7290001102306,新規,0,2023-07-18,2023-07-18,株式会社セキュア防災,,株式会社,福岡県,福岡市東区,名島２丁目２０番１１号,,40,131,8130043,,,,,,,2023-07-18,1,,,,,セキュアボウサイ,0
1947,7290001102314,新規,0,2023-07-18,2023-07-18,株式会社ビヨンドラボ,,株式会社,福岡県,福岡市中央区,天神４丁目６番２８号天神ファーストビル７階,,40,133,8100001,,,,,,,2023-07-18,1,,,,,ビヨンドラボ,0
1949,7290003014136,新規,0,2023-07-18,2023-07-18,合同会社ＣＹＢＥＲ　ＶＥＳＳＥＬ,,合同会社,福岡県,福岡市中央区,天神２丁目２番１２号Ｔ＆Ｊビルディング７Ｆ,,40,133,8100001,,,,,,,2023-07-18,1,,,,,サイバーヴェセル,0
1951,7290801029715,新規,0,2023-07-18,2023-07-18,株式会社ＭＫＧｒｏｕｐ,,株式会社,福岡県,北九州市小倉北区,中津口１丁目１０－４５－３０６,,40,106,8020018,,,,,,,2023-07-18,1,,,,,エムケーグループ,0
1954,7310001018516,新規,0,2023-07-18,2023-07-18,株式会社ティート,,株式会社,長崎県,佐世保市,塩浜町８番５０－１１０号,,42,202,8570876,,,,,,,2023-07-18,1,,,,,ティート,0
1963,7360001032297,新規,0,2023-07-18,2023-07-18,おっきなわレンタカー株式会社,,株式会社,沖縄県,那覇市,久米２丁目５番１号,,47,201,9000033,,,,,,,2023-07-18,1,,,,,オッキナワレンタカー,0
1964,7360003013130,新規,0,2023-07-18,2023-07-18,合同会社恩,,合同会社,沖縄県,国頭郡金武町,字金武６６９番地,,47,314,9041201,,,,,,,2023-07-18,1,,,,,エン,0
1965,7360003013139,新規,0,2023-07-18,2023-07-18,ビーアールエス合同会社,,合同会社,沖縄県,国頭郡宜野座村,字松田２８３１番地の１,,47,313,9041301,,,,,,,2023-07-18,1,,,,,ビーアールエス,0
1967,7370001050190,新規,0,2023-07-18,2023-07-18,マインズラボ株式会社,,株式会社,宮城県,仙台市青葉区,五橋１丁目１番１７号仙台ビルディング駅前館５階,,04,101,9800022,,,,,,,2023-07-18,1,,,,,マインズラボ,0
1969,7380001033847,新規,0,2023-07-18,2023-07-18,株式会社秀優,,株式会社,福島県,いわき市,石森１丁目１９番地の７,,07,204,9708017,,,,,,,2023-07-18,1,,,,,シュウユウ,0
1973,7390001017312,新規,0,2023-07-18,2023-07-18,株式会社山欣,,株式会社,山形県,山形市,大字下宝沢４２８番地６,,06,201,9900018,,,,,,,2023-07-18,1,,,,,ヤマヨシ,0
1975,7400001016320,新規,0,2023-07-18,2023-07-18,株式会社ＧＯＴＯ,,株式会社,岩手県,一関市,花泉町涌津字向川８２番地１１６,,03,209,0293205,,,,,,,2023-07-18,1,,,,,ゴトー,0
1987,7700150118457,新規,0,2023-07-18,2023-07-18,Ｓｈｅｎｚｈｅｎ　Ｙａｍａｎｚｉ　Ｔｅｃｈｎｏｌｏｇｙ　Ｃｏ．，Ｌｔｄ,,外国会社等,,,,,,,,５－２０１，３ｔｈ　Ｄｉｓｔｒｉｃｔ　５＃，Ｘｉｎｈｅ　Ｃｏｍｍｕｎｉｔｙ，Ｆｕｈａｉ　Ｓｔｒｅｅｔ，Ｂａｏａｎ　Ｓｈｅｎｚｈｅｎ　Ｃｉｔｙ　Ｇｕａｎｇｄｏｎｇ　ＣＮ,,,,,,2023-07-18,1,,,,,シンセンヤマンジテクノロジーカンパニーリミテッド,0
1988,7700150118465,新規,0,2023-07-18,2023-07-18,Ｈｕｎａｎ　Ｗａｎｔｉｎｇ　Ｗｅｉｓｈｉ　Ｗｅｎｈｕａ　Ｃｈｕａｎｂｏ　Ｃｏ．，Ｌｔｄ,,外国会社等,,,,,,,,Ｒｏｏｍ　２０１，Ｚｈｏｕ　Ｊｉａｎｑｉｕ　Ｐｒｉｖａｔｅ　Ｒｅｓｉｄｅｎｃｅ，Ｍｉａｏ　Ｐｕ　Ｇｒｏｕｐ，Ｈｕａｎｇｈｅ　Ｖｉｌｌａｇｅ，Ｙｕｅｌｕ　Ｓｔｒｅｅｔ，Ｙｕｅｌｕ　Ｄｉｓｔｒｉｃｔ，Ｃｈａｎｇｓｈａ　Ｈｕｎａｎ　ＣＮ,,,,,,2023-07-18,1,,,,,フナンワンティンウェイシウェンフアチュアンボカンパニーリミテッド,0
2000,8010001236923,新規,0,2023-07-18,2023-07-18,株式会社ｏｎ．ｇ,,株式会社,東京都,中央区,佃２丁目２番１０－３３０４号,,13,102,1040051,,,,,,,2023-07-18,1,,,,,オンジー,0
2001,8010001236931,新規,0,2023-07-18,2023-07-18,株式会社アンダーカレント,,株式会社,東京都,中央区,日本橋室町１丁目１１－１２－７Ｆ,,13,102,1030022,,,,,,,2023-07-18,1,,,,,アンダーカレント,0
2002,8010001237005,新規,0,2023-07-18,2023-07-18,株式会社ＪＮＢＫ,,株式会社,東京都,中央区,日本橋室町１丁目１１番１２号日本橋水野ビル７階,,13,102,1030022,,,,,,,2023-07-18,1,,,,,ジェイエヌビーケー,0
2004,8010003041132,新規,0,2023-07-18,2023-07-18,ひなたＢＣ合同会社,,合同会社,東京都,中央区,日本橋室町１丁目１１番１２号日本橋水野ビル７階,,13,102,1030022,,,,,,,2023-07-18,1,,,,,ヒナタビーシー,0
2007,8010401175473,新規,0,2023-07-18,2023-07-18,株式会社ねこぜん,,株式会社,東京都,港区,南青山３丁目１番３６号青山丸竹ビル６Ｆ,,13,103,1070062,,,,,,,2023-07-18,1,,,,,ネコゼン,0
2008,8010401175647,新規,0,2023-07-18,2023-07-18,株式会社ｕｎｅ,,株式会社,東京都,港区,北青山１丁目３番１号アールキューブ青山３階,,13,103,1070061,,,,,,,2023-07-18,1,,,,,ユヌ,0
2009,8010401175696,新規,0,2023-07-18,2023-07-18,株式会社Ｌｉｑｕｉｄ　Ｄｒｏｐ　Ｇｒｏｏｖｅ,,株式会社,東京都,港区,南青山３丁目１番３６号青山丸竹ビル６Ｆ,,13,103,1070062,,,,,,,2023-07-18,1,,,,,リキッドドロップグルーヴ,0
2010,8010401175746,新規,0,2023-07-18,2023-07-18,ＡＮＧＡＩ株式会社,,株式会社,東京都,港区,南青山３丁目１番３６号青山丸竹ビル６Ｆ,,13,103,1070062,,,,,,,2023-07-18,1,,,,,アンガイ,0
2011,8010401175762,新規,0,2023-07-18,2023-07-18,株式会社Ｙ＆Ｋ　Ｃｏｎｓｕｌｔｉｎｇ,,株式会社,東京都,港区,芝４丁目７番６号９０６号室,,13,103,1080014,,,,,,,2023-07-18,1,,,,,ワイアンドケーコンサルティング,0
2013,8010403030503,新規,0,2023-07-18,2023-07-18,合同会社ＭＡＭＯＬＩＳ,,合同会社,東京都,港区,六本木４丁目５番１１号,,13,103,1060032,,,,,,,2023-07-18,1,,,,,マモリス,0
2014,8010403030511,新規,0,2023-07-18,2023-07-18,ブルックシャー合同会社,,合同会社,東京都,港区,赤坂４丁目８番１９号赤阪フロントタウン３Ｆ,,13,103,1070052,,,,,,,2023-07-18,1,,,,,ブルックシャー,0
2016,8010501050766,新規,0,2023-07-18,2023-07-18,華益商事株式会社,,株式会社,東京都,台東区,東上野５丁目１０番２号,,13,106,1100015,,,,,,,2023-07-18,1,,,,,カエキショウジ,0
2020,8010603010247,新規,0,2023-07-18,2023-07-18,Ｆａｃｔｏｒｙ禅桜合同会社,,合同会社,東京都,江東区,北砂５丁目２０番５－１４０５号,,13,108,1360073,,,,,,,2023-07-18,1,,,,,ファクトリーゼンオウ,0
2021,8010701044568,新規,0,2023-07-18,2023-07-18,ＫＯＢＡＲＡＸ株式会社,,株式会社,東京都,品川区,南品川２丁目２番１０号,,13,109,1400004,,,,,,,2023-07-18,1,,,,,コバラクス,0
2022,8010703006772,新規,0,2023-07-18,2023-07-18,合同会社たくみ食堂,,合同会社,東京都,品川区,南大井３丁目３３番４号渋澤ビル１０２,,13,109,1400013,,,,,,,2023-07-18,1,,,,,タクミショクドウ,0
2025,8010901053451,新規,0,2023-07-18,2023-07-18,株式会社ＰＲＯＮＥＸＴ,,株式会社,東京都,世田谷区,経堂２丁目４番８号アンテロープ経堂１０３,,13,112,1560052,,,,,,,2023-07-18,1,,,,,プロネクスト,0
2029,8011001155650,新規,0,2023-07-18,2023-07-18,株式会社カリス,,株式会社,東京都,渋谷区,松濤１丁目１番３号ジョワレ松濤４階,,13,113,1500046,,,,,,,2023-07-18,1,,,,,カリス,0
2030,8011001155709,新規,0,2023-07-18,2023-07-18,ＴＡＭ株式会社,,株式会社,東京都,目黒区,大岡山１丁目１４－２,,13,110,1520033,,,,,,,2023-07-18,1,,,,,,0
2031,8011001155741,新規,0,2023-07-18,2023-07-18,株式会社Ｑホールディングス,,株式会社,東京都,渋谷区,神宮前６丁目２３番４号桑野ビル２階,,13,113,1500001,,,,,,,2023-07-18,1,,,,,,0
2040,8011101103641,新規,0,2023-07-18,2023-07-18,株式会社アルカス,,株式会社,東京都,新宿区,北新宿１丁目３６番６－５０１号,,13,104,1690074,,,,,,,2023-07-18,1,,,,,アルカス,0
2044,8011601026986,新規,0,2023-07-18,2023-07-18,株式会社Ｓｉｋｎｕｋａｒ,,株式会社,東京都,練馬区,旭丘１丁目４３番１３号,,13,120,1760005,,,,,,,2023-07-18,1,,,,,シクヌカラ,0
2050,8012701017751,新規,0,2023-07-18,2023-07-18,株式会社エムアンドエム,,株式会社,東京都,東村山市,恩多町４丁目８番地６,,13,213,1890011,,,,,,,2023-07-18,1,,,,,エムアンドエム,0
2051,8012801022511,新規,0,2023-07-18,2023-07-18,株式会社東京エコハウス,,株式会社,東京都,東大和市,清水６丁目１１７０番地,,13,220,2070004,,,,,,,2023-07-18,1,,,,,トウキョウエコハウス,0
2053,8020001152590,新規,0,2023-07-18,2023-07-18,株式会社ＹＯＤＯＫＯＵ,,株式会社,神奈川県,横浜市中区,伊勢佐木町３丁目１０７番地１２,,14,104,2310045,,,,,,,2023-07-18,1,,,,,ヨドコウ,0
2059,8021001079618,新規,0,2023-07-18,2023-07-18,株式会社ＳＴＹ,,株式会社,神奈川県,厚木市,飯山南４丁目１２番５４号,,14,212,2430218,,,,,,,2023-07-18,1,,,,,エスティーワイ,0
2060,8021001079642,新規,0,2023-07-18,2023-07-18,ＰＥＡＣＥ　ＴＲＡＤＩＮＧ株式会社,,株式会社,神奈川県,相模原市南区,新磯野１９５５番地,,14,153,2520325,,,,,,,2023-07-18,1,,,,,ピーストレーディング,0
2072,8040001129265,新規,0,2023-07-18,2023-07-18,株式会社トレクシード,,株式会社,千葉県,千葉市中央区,生実町１６７２番地３,,12,101,2600813,,,,,,,2023-07-18,1,,,,,トレクシード,0
2073,8040001129273,新規,0,2023-07-18,2023-07-18,株式会社ＴＡＩＫＯＨ,,株式会社,千葉県,千葉市稲毛区,萩台町６６４番地１１,,12,103,2630012,,,,,,,2023-07-18,1,,,,,タイコウ,0
2074,8040001129281,新規,0,2023-07-18,2023-07-18,株式会社ＢＥＹＯＮＤ,,株式会社,千葉県,木更津市,富士見２丁目３番３４号富士見ビル１階,,12,206,2920831,,,,,,,2023-07-18,1,,,,,ビヨンド,0
2075,8040001129298,新規,0,2023-07-18,2023-07-18,株式会社シュウエイハウジング,,株式会社,千葉県,木更津市,真舟３丁目３番５号,,12,206,2920802,,,,,,,2023-07-18,1,,,,,シュウエイハウジング,0
2078,8050001053134,新規,0,2023-07-18,2023-07-18,旭光株式会社,,株式会社,茨城県,鉾田市,沢尻２７番地４０,,08,234,3111404,,,,,,,2023-07-18,1,,,,,キョッコウ,0
2079,8050003007625,新規,0,2023-07-18,2023-07-18,合同会社Ｊｅｙｓｅｌ　ＪＰ　Ｉｎｔｅｒｎａｔｉｏｎａｌ,,合同会社,茨城県,猿島郡境町,４７８番地１,,08,546,3060433,,,,,,,2023-07-18,1,,,,,ジェイセルジェイピーインターナショナル,0
2090,8080101024123,新規,0,2023-07-18,2023-07-18,株式会社ＳＲＪ,,株式会社,静岡県,駿東郡長泉町,中土狩８２１－３０,,22,342,4110942,,,,,,,2023-07-18,1,,,,,エスアールジェイ,0
2099,8100001036595,新規,0,2023-07-18,2023-07-18,意誠軽井沢株式会社,,株式会社,長野県,北佐久郡軽井沢町,大字茂沢４７２－１５,,20,321,3890114,,,,,,,2023-07-18,1,,,,,イセイカルイザワ,0
2116,8120001256349,新規,0,2023-07-18,2023-07-18,株式会社稲垣商店,,株式会社,大阪府,大阪市中央区,北浜２丁目６番１８号,,27,128,5410041,,,,,,,2023-07-18,1,,,,,イナガキショウテン,0
2117,8120001256448,新規,0,2023-07-18,2023-07-18,三木株式会社,,株式会社,大阪府,大阪市住之江区,西加賀屋３丁目２０番１号,,27,125,5590016,,,,,,,2023-07-18,1,,,,,ミキ,0
2118,8120001256480,新規,0,2023-07-18,2023-07-18,株式会社Ｌｉｌａｃ,,株式会社,大阪府,大阪市淀川区,西中島７丁目１番１号興北ビル９階,,27,123,5320011,,,,,,,2023-07-18,1,,,,,ライラック,0
2119,8120001256514,新規,0,2023-07-18,2023-07-18,株式会社ＲＣＣＲ,,株式会社,大阪府,大阪市淀川区,新北野１丁目１１番２３号ハイム北野７０５号,,27,123,5320025,,,,,,,2023-07-18,1,,,,,アールシーシーアール,0
2123,8120003024489,新規,0,2023-07-18,2023-07-18,合同会社スロープリング,,合同会社,大阪府,大阪市淀川区,三津屋北１丁目３６番１０－８０５号,,27,123,5320032,,,,,,,2023-07-18,1,,,,,スロープリング,0
2124,8120003024497,新規,0,2023-07-18,2023-07-18,坤城合同会社,,合同会社,大阪府,大阪市西成区,千本北１丁目１６番１４－４０５号,,27,122,5570053,,,,,,,2023-07-18,1,,,,,コンジョウ,0
2126,8120101067893,新規,0,2023-07-18,2023-07-18,扶桑ホールディングス株式会社,,株式会社,大阪府,堺市堺区,出島西町４番地の２,,27,141,5900831,,,,,,,2023-07-18,1,,,,,フソウホールディングス,0
2129,8120901047797,新規,0,2023-07-18,2023-07-18,ＰＥＸＣＩＡ　ＤＩＮＩＮＧ株式会社,,株式会社,大阪府,高槻市,城北町２丁目２番１３号,,27,207,5690071,,,,,,,2023-07-18,1,,,,,ペクシアダイニング,0
2131,8122001037167,新規,0,2023-07-18,2023-07-18,ＰＬＡＮＴ株式会社,,株式会社,大阪府,東大阪市,長堂１丁目１１番３１号ナニワマンション２Ｆ,,27,227,5770056,,,,,,,2023-07-18,1,,,,,プラント,0
2132,8122005003693,新規,0,2023-07-18,2023-07-18,一般社団法人空き家タカラバコ,,その他の設立登記法人,大阪府,柏原市,大正１丁目２番１８号,,27,221,5820009,,,,,,,2023-07-18,1,,,,,アキヤタカラバコ,0
2147,8140001130873,新規,0,2023-07-18,2023-07-18,株式会社クアドリフォリオ,,株式会社,兵庫県,芦屋市,南宮町１３番３－５０６号,,28,206,6590024,,,,,,,2023-07-18,1,,,,,クアドリフォリオ,0
2148,8140001130898,新規,0,2023-07-18,2023-07-18,アセント・デザイン株式会社,,株式会社,兵庫県,宝塚市,伊孑志４丁目２－６８Ｂ４・Ｂ５,,28,214,6650033,,,,,,,2023-07-18,1,,,,,アセントデザイン,0
2149,8140001130923,新規,0,2023-07-18,2023-07-18,アイエル株式会社,,株式会社,兵庫県,神戸市西区,平野町大畑１３８番地,,28,111,6512264,,,,,,,2023-07-18,1,,,,,アイエル,0
2154,8140003019314,新規,0,2023-07-18,2023-07-18,合同会社円満,,合同会社,兵庫県,神戸市灘区,六甲台町１２番２１－７０１号,,28,102,6570013,,,,,,,2023-07-18,1,,,,,エンマン,0
2155,8140003019322,新規,0,2023-07-18,2023-07-18,合同会社ＲｅＭＡＸ,,合同会社,兵庫県,神戸市西区,神出町古神１５７－２４１,,28,111,6512302,,,,,,,2023-07-18,1,,,,,リマックス,0
2158,8160001025188,新規,0,2023-07-18,2023-07-18,富士産業株式会社,,株式会社,滋賀県,長浜市,宮司町７９５番地７,,25,203,5260831,,,,,,,2023-07-18,1,,,,,フジサンギョウ,0
2160,8160003002929,新規,0,2023-07-18,2023-07-18,合同会社すず屋,,合同会社,滋賀県,彦根市,大藪町２５１０番地,,25,202,5220053,,,,,,,2023-07-18,1,,,,,スズヤ,0
2172,8180001157120,新規,0,2023-07-18,2023-07-18,株式会社丸竜,,株式会社,愛知県,名古屋市熱田区,千年１丁目１番１号,,23,109,4560054,,,,,,,2023-07-18,1,,,,,マルリュウ,0
2173,8180001157153,新規,0,2023-07-18,2023-07-18,水辺とまちの入口ＡＣＴ株式会社,,株式会社,愛知県,名古屋市熱田区,神戸町８０１,,23,109,4560043,,,,,,,2023-07-18,1,,,,,,0
2174,8180001157203,新規,0,2023-07-18,2023-07-18,株式会社Ｗ．Ｅ．Ｓ．Ｔ,,株式会社,愛知県,丹羽郡扶桑町,大字斎藤字榎１９０番地,,23,362,4800104,,,,,,,2023-07-18,1,,,,,ウエスト,0
2182,8180003025507,新規,0,2023-07-18,2023-07-18,ＡＬＩＮＳ　ＩＮＴＥＲＮＡＴＩＯＮＡＬ合同会社,,合同会社,愛知県,東海市,荒尾町寺下２９番地の１,,23,222,4760003,,,,,,,2023-07-18,1,,,,,アリンスインターナショナル,0
2189,8200001041494,新規,0,2023-07-18,2023-07-18,株式会社Ｋａｉｙｕ,,株式会社,岐阜県,岐阜市,長住町７丁目５番地蓑島ビル,,21,201,5008175,,,,,,,2023-07-18,1,,,,,カイユウ,0
2196,8240001061828,新規,0,2023-07-18,2023-07-18,株式会社ＭＫＫ,,株式会社,広島県,尾道市,高須町１２７０番地３,,34,205,7290141,,,,,,,2023-07-18,1,,,,,エムケーケー,0
2197,8240001061836,新規,0,2023-07-18,2023-07-18,株式会社ラドロー,,株式会社,広島県,広島市中区,胡町３番７－５０５号,,34,101,7300021,,,,,,,2023-07-18,1,,,,,ラドロー,0
2227,8320001019891,新規,0,2023-07-18,2023-07-18,株式会社ＣＯＳ,,株式会社,大分県,大分市,三川下２丁目７番２８号カズビル１０３,,44,201,8700142,,,,,,,2023-07-18,1,,,,,シーオーエス,0
2242,8360001032296,新規,0,2023-07-18,2023-07-18,ＴｉｄａｎＬｉｆｅ株式会社,,株式会社,沖縄県,うるま市,石川曙３丁目４番２０号,,47,213,9041107,,,,,,,2023-07-18,1,,,,,ティダンライフ,0
2255,8380003005513,新規,0,2023-07-18,2023-07-18,合同会社Ｙ’ｓ　Ａｎ,,合同会社,福島県,須賀川市,妙見９２番地７,,07,207,9620865,,,,,,,2023-07-18,1,,,,,ワイズアン,0
2263,8430001089528,新規,0,2023-07-18,2023-07-18,株式会社札幌親切不動産,,株式会社,北海道,札幌市中央区,南十一条西６丁目１番２７号,,01,101,0640811,,,,,,,2023-07-18,1,,,,,サッポロシンセツフドウサン,0
2274,8700150118464,新規,0,2023-07-18,2023-07-18,ｓｈｅｎｚｈｅｎ　ｙｉｆｅｎｇｗｕｌｉａｎ　ｙｏｕｘｉａｎｇｏｎｇｓｉ,,外国会社等,,,,,,,,ｌｕｏｈｕｑｕ　ｎａｎｈｕｊｉｅｄａｏ　ｊｉａｂｅｉｓｈｅｑｕ　ｙｉｎｇｃｈｕｎｌｕ１２ｈａｏ　ｈａｉｗａｉｌｉａｎｙｉｄａｓｈａ　１３０３－０９　Ｓｈｅｎｚｈｅｎ　Ｇｕａｎｇｄｏｎｇ　ＣＮ,,,,,,2023-07-18,1,,,,,シンセンイフェンウレンユウゲンコウシ,0
2284,9010001236930,新規,0,2023-07-18,2023-07-18,株式会社お江戸日本橋,,株式会社,東京都,中央区,日本橋兜町１１－１３たちばなやビル３階,,13,102,1030026,,,,,,,2023-07-18,1,,,,,オエドニホンバシ,0
2285,9010001236939,新規,0,2023-07-18,2023-07-18,Ｅｓｃｕｄｏ株式会社,,株式会社,東京都,中央区,銀座３丁目８番５号,,13,102,1040061,,,,,,,2023-07-18,1,,,,,エスクード,0
2286,9010001236947,新規,0,2023-07-18,2023-07-18,株式会社ｅｎａ　ｐａｒｔｎｅｒｓ,,株式会社,東京都,中央区,晴海３丁目１３－１ドゥトゥールＥ４９０８,,13,102,1040053,,,,,,,2023-07-18,1,,,,,エナパートナーズ,0
2289,9010005036955,新規,0,2023-07-18,2023-07-18,一般社団法人エクソフレンズ,,その他の設立登記法人,東京都,中央区,佃２丁目２０番５号,,13,102,1040051,,,,,,,2023-07-18,1,,,,,エクソフレンズ,0
2293,9010401175316,新規,0,2023-07-18,2023-07-18,ソーゴーメンテナンス株式会社,,株式会社,東京都,港区,赤坂２丁目１５番８号,,13,103,1070052,,,,,,,2023-07-18,1,,,,,ソーゴーメンテナンス,0
2294,9010401175654,新規,0,2023-07-18,2023-07-18,株式会社Ｊａｐａｎ　Ｍｅｄｉａ　Ａｒｔｓ,,株式会社,東京都,港区,東新橋２丁目１番６号－４階,,13,103,1050021,,,,,,,2023-07-18,1,,,,,ジャパンメディアアーツ,0
2295,9010401175737,新規,0,2023-07-18,2023-07-18,Ｅｓｑｕａｒｒｅ　Ｃａｐｉｔａｌ　Ｊａｐａｎ株式会社,,株式会社,東京都,港区,虎ノ門４丁目３番１号城山トラストタワー２７階,,13,103,1050001,,,,,,,2023-07-18,1,,,,,エスクエアキャピタルジャパン,0
2296,9010401175778,新規,0,2023-07-18,2023-07-18,株式会社Ｉ　Ｄｅａｒ　Ｗｏｒｌｄ,,株式会社,東京都,港区,北青山３丁目８番８－２０１号,,13,103,1070061,,,,,,,2023-07-18,1,,,,,アイディアーワールド,0
2299,9010403030477,新規,0,2023-07-18,2023-07-18,合同会社ＫＹｌｏｇｉ,,合同会社,東京都,港区,北青山１丁目３番１号アールキューブ青山３階,,13,103,1070061,,,,,,,2023-07-18,1,,,,,ケイワイロジ,0
2300,9010403030510,新規,0,2023-07-18,2023-07-18,強羅ＭＬ合同会社,,合同会社,東京都,港区,虎ノ門５丁目１番４号,,13,103,1050001,,,,,,,2023-07-18,1,,,,,ゴウラエムエル,0
2301,9010403030519,新規,0,2023-07-18,2023-07-18,ＩＲＥ藤岡蓄電所合同会社,,合同会社,東京都,港区,新橋６丁目１７番２１号,,13,103,1050004,,,,,,,2023-07-18,1,,,,,アイアールイーフジオカチクデンショ,0
2303,9010405022340,新規,0,2023-07-18,2023-07-18,一般社団法人横浜新杉田ロジ,,その他の設立登記法人,東京都,港区,元赤坂１丁目１番８号株式会社赤坂国際会計内,,13,103,1070051,,,,,,,2023-07-18,1,,,,,ヨコハマシンスギタロジ,0
2306,9010801034162,新規,0,2023-07-18,2023-07-18,株式会社ＦＯＵＲ　ＦＥＥＴ,,株式会社,東京都,大田区,西六郷４丁目３８番１－３０１号,,13,111,1440056,,,,,,,2023-07-18,1,,,,,フォーフィート,0
2316,9011001155658,新規,0,2023-07-18,2023-07-18,日本簡言株式会社,,株式会社,東京都,渋谷区,代々木２丁目２３－１,,13,113,1510053,,,,,,,2023-07-18,1,,,,,ニホンカンゲン,0
2317,9011001155674,新規,0,2023-07-18,2023-07-18,株式会社イロップ,,株式会社,東京都,渋谷区,代々木１丁目５８番５号代々木吉野ビル５Ｆ,,13,113,1510053,,,,,,,2023-07-18,1,,,,,イロップ,0
2318,9011001155716,新規,0,2023-07-18,2023-07-18,株式会社Ｅｍｐｏｗｅｒ　Ｍｏｒｅ,,株式会社,東京都,渋谷区,神宮前６丁目２３－４桑野ビル２Ｆ,,13,113,1500001,,,,,,,2023-07-18,1,,,,,,0
2327,9011401025287,新規,0,2023-07-18,2023-07-18,株式会社ジェイスターズ,,株式会社,東京都,板橋区,赤塚７丁目２５番２６号,,13,119,1750092,,,,,,,2023-07-18,1,,,,,ジェイスターズ,0
2328,9011501029535,新規,0,2023-07-18,2023-07-18,株式会社トップガン,,株式会社,東京都,北区,豊島５丁目６番１０－１２１８号,,13,117,1140003,,,,,,,2023-07-18,1,,,,,トップガン,0
2329,9011601026985,新規,0,2023-07-18,2023-07-18,セブンレンタルシステム株式会社,,株式会社,東京都,練馬区,春日町１丁目４番３号,,13,120,1790074,,,,,,,2023-07-18,1,,,,,セブンレンタルシステム,0
2340,9020001152565,新規,0,2023-07-18,2023-07-18,Ｒ＆Ｙ　Ｉｎｖｅｓｔｍｅｎｔ株式会社,,株式会社,神奈川県,川崎市川崎区,東門前１丁目１４番１０－２０１号,,14,131,2100812,,,,,,,2023-07-18,1,,,,,アールアンドワイインベストメント,0
2341,9020001152581,新規,0,2023-07-18,2023-07-18,ＥＮＦＩＮＩＴＹ　ＪＡＰＡＮ株式会社,,株式会社,神奈川県,横浜市南区,蒔田町字谷戸田上９７３番地９ルネ横浜蒔田グランヒルズ２０４号,,14,105,2320043,,,,,,,2023-07-18,1,,,,,エンフィニティジャパン,0
2344,9020003024184,新規,0,2023-07-18,2023-07-18,Ｍ．Ｋ．合同会社,,合同会社,神奈川県,横浜市港北区,綱島西２丁目２５番５号リバーサイド道明１０２,,14,109,2230053,,,,,,,2023-07-18,1,,,,,エムケー,0
2345,9020003024242,新規,0,2023-07-18,2023-07-18,Ｋくん合同会社,,合同会社,神奈川県,横浜市港北区,綱島西２丁目９番１６－７０３号,,14,109,2230053,,,,,,,2023-07-18,1,,,,,ケークン,0
2352,9021001079583,新規,0,2023-07-18,2023-07-18,株式会社文兎,,株式会社,神奈川県,平塚市,東真土１丁目６番６号,,14,203,2540018,,,,,,,2023-07-18,1,,,,,フミウサギ,0
2353,9021001079617,新規,0,2023-07-18,2023-07-18,株式会社Ｓｏｌａ　ｔｏ　Ｕｍｉ,,株式会社,神奈川県,藤沢市,片瀬海岸２丁目１７－８－２０４号,,14,205,2510035,,,,,,,2023-07-18,1,,,,,ソラトウミ,0
2354,9021001079641,新規,0,2023-07-18,2023-07-18,フォレストビュー株式会社,,株式会社,神奈川県,相模原市中央区,相模原４丁目９番４号,,14,152,2520231,,,,,,,2023-07-18,1,,,,,フォレストビュー,0
2365,9040001129264,新規,0,2023-07-18,2023-07-18,株式会社リンビス,,株式会社,千葉県,成田市,東ノ台１０８９番地３６,,12,211,2870212,,,,,,,2023-07-18,1,,,,,リンビス,0
2366,9040001129272,新規,0,2023-07-18,2023-07-18,株式会社福田工業,,株式会社,千葉県,市川市,柏井町２丁目６９６番地１０,,12,203,2720802,,,,,,,2023-07-18,1,,,,,フクダコウギョウ,0
2367,9040001129297,新規,0,2023-07-18,2023-07-18,株式会社大建,,株式会社,千葉県,市原市,五井西４丁目１３番地１パークハイムマルサンＤ１０１,,12,219,2900038,,,,,,,2023-07-18,1,,,,,ダイケン,0
2368,9040003022970,新規,0,2023-07-18,2023-07-18,アクセラレイト合同会社,,合同会社,千葉県,大網白里市,仏島４８番地２,,12,239,2993237,,,,,,,2023-07-18,1,,,,,アクセラレイト,0
2370,9040005022069,新規,0,2023-07-18,2023-07-18,一般社団法人みち,,その他の設立登記法人,千葉県,佐倉市,井野１５８６番地２５Ｂ棟４０４号,,12,212,2850855,,,,,,,2023-07-18,1,,,,,ミチ,0
2373,9050003007649,新規,0,2023-07-18,2023-07-18,ＭＵＭＥＩ合同会社,,合同会社,茨城県,ひたちなか市,共栄町９番２１号,,08,221,3120043,,,,,,,2023-07-18,1,,,,,ムメイ,0
2383,9080001025740,新規,0,2023-07-18,2023-07-18,株式会社ＨＩＲＡＫＵ,,株式会社,静岡県,焼津市,小土２６４番地の１,,22,212,4250086,,,,,,,2023-07-18,1,,,,,ヒラク,0
2387,9080401026603,新規,0,2023-07-18,2023-07-18,濱建工業株式会社,,株式会社,静岡県,磐田市,竜洋稗原６３２番地,,22,211,4380213,,,,,,,2023-07-18,1,,,,,ハマケンコウギョウ,0
2388,9090001018231,新規,0,2023-07-18,2023-07-18,株式会社Ｍｕｓｉｑｕｅ　Ｂｏｕｑｕｅｔ,,株式会社,山梨県,南都留郡富士河口湖町,船津２０７１番地１,,19,430,4010301,,,,,,,2023-07-18,1,,,,,ムジークブーケ,0
2389,9100001036594,新規,0,2023-07-18,2023-07-18,株式会社ＳＭＤ総建,,株式会社,長野県,松本市,大字島内７２３６番地１,,20,202,3900851,,,,,,,2023-07-18,1,,,,,エスエムディーソウケン,0
2390,9100001036603,新規,0,2023-07-18,2023-07-18,株式会社ＰＲＯＧＲＥＳＳ,,株式会社,長野県,中野市,大字吉田８４番地１,,20,211,3830015,,,,,,,2023-07-18,1,,,,,プログレス,0
2391,9100003007115,新規,0,2023-07-18,2023-07-18,合同会社陽愛,,合同会社,長野県,安曇野市,明科南陸郷３７２２番地２,,20,220,3997105,,,,,,,2023-07-18,1,,,,,ハルア,0
2411,9120001256447,新規,0,2023-07-18,2023-07-18,株式会社カペラ,,株式会社,大阪府,大阪市港区,市岡２丁目１番２８－３０３号,,27,107,5520012,,,,,,,2023-07-18,1,,,,,カペラ,0
2412,9120001256463,新規,0,2023-07-18,2023-07-18,セイト設備工業株式会社,,株式会社,大阪府,大阪市住之江区,御崎２丁目１０番２８号,,27,125,5590013,,,,,,,2023-07-18,1,,,,,セイトセツビコウギョウ,0
2413,9120001256488,新規,0,2023-07-18,2023-07-18,株式会社ＵＣ,,株式会社,大阪府,大阪市西区,南堀江３丁目１６番１４号Ｂ棟,,27,106,5500015,,,,,,,2023-07-18,1,,,,,ユーシー,0
2414,9120001256496,新規,0,2023-07-18,2023-07-18,耕得綜合株式会社,,株式会社,大阪府,大阪市平野区,瓜破２丁目１番５０号,,27,126,5470024,,,,,,,2023-07-18,1,,,,,コウトクソウゴウ,0
2415,9120001256521,新規,0,2023-07-18,2023-07-18,株式会社ティーワイポニー,,株式会社,大阪府,大阪市北区,梅田２丁目２番２号ヒルトンプラザウェスト１８階,,27,127,5300001,,,,,,,2023-07-18,1,,,,,ティーワイポニー,0
2416,9120001256538,新規,0,2023-07-18,2023-07-18,株式会社シティライツ,,株式会社,大阪府,大阪市北区,菅原町１番２３号西垣ビル３Ｆ,,27,127,5300046,,,,,,,2023-07-18,1,,,,,シティライツ,0
2417,9120001256546,新規,0,2023-07-18,2023-07-18,株式会社ジーピークリエイト,,株式会社,大阪府,大阪市北区,東天満２丁目６番５号,,27,127,5300044,,,,,,,2023-07-18,1,,,,,ジーピークリエイト,0
2420,9120005023744,新規,0,2023-07-18,2023-07-18,医療法人あとま会,,その他の設立登記法人,大阪府,大阪市城東区,今福東３丁目５番６号メディカルモール今福２階,,27,118,5360002,,,,,,,2023-07-18,1,,,,,アトマカイ,0
2421,9120103005330,新規,0,2023-07-18,2023-07-18,合同会社安果,,合同会社,大阪府,岸和田市,松風町１３番５８号春木ｗｏｒｋｓｐａｃｅ２０２号室,,27,202,5960021,,,,,,,2023-07-18,1,,,,,アンカ,0
2422,9120105009742,新規,0,2023-07-18,2023-07-18,医療法人上野芝はやし歯科,,その他の設立登記法人,大阪府,堺市西区,神野町２丁２１番２２号パルファン神野１階,,27,144,5938308,,,,,,,2023-07-18,1,,,,,ウエノシバハヤシシカ,0
2423,9120901047796,新規,0,2023-07-18,2023-07-18,株式会社エーティス,,株式会社,大阪府,吹田市,原町２丁目５５番３３号,,27,205,5640004,,,,,,,2023-07-18,1,,,,,エーティス,0
2431,9130003008853,新規,0,2023-07-18,2023-07-18,古良家合同会社,,合同会社,京都府,京都市上京区,上立売町８番地３階,,26,102,6020000,,,,,,,2023-07-18,1,,,,,コリョウヤ,0
2438,9140003019321,新規,0,2023-07-18,2023-07-18,合同会社ＰＩＬＩＮＡ,,合同会社,兵庫県,尼崎市,御園１丁目４－５－５０２,,28,202,6610984,,,,,,,2023-07-18,1,,,,,ピリナ,0
2440,9160001025187,新規,0,2023-07-18,2023-07-18,株式会社ＢＡＴＣＨ,,株式会社,滋賀県,草津市,追分８丁目１５番１１号,,25,206,5250047,,,,,,,2023-07-18,1,,,,,バッチ,0
2441,9160001025195,新規,0,2023-07-18,2023-07-18,株式会社おおつ紙業所,,株式会社,滋賀県,大津市,月輪１丁目９番５号,,25,201,5202152,,,,,,,2023-07-18,1,,,,,オオツシギョウショ,0
2446,9170005007024,新規,0,2023-07-18,2023-07-18,一般社団法人あすなろ学童保育所,,その他の設立登記法人,和歌山県,西牟婁郡上富田町,朝来２７４１番地,,30,404,6492105,,,,,,,2023-07-18,1,,,,,アスナロガクドウホイクショ,0
2450,9180001157136,新規,0,2023-07-18,2023-07-18,株式会社紫耀,,株式会社,愛知県,名古屋市西区,花原町１８７番地,,23,104,4520809,,,,,,,2023-07-18,1,,,,,ショウ,0
2451,9180001157177,新規,0,2023-07-18,2023-07-18,株式会社福徳製菓,,株式会社,愛知県,名古屋市中村区,森田町２丁目３番９号,,23,105,4530036,,,,,,,2023-07-18,1,,,,,フクトクセイカ,0
2452,9180001157185,新規,0,2023-07-18,2023-07-18,ＡＳＡＨＩ株式会社,,株式会社,愛知県,名古屋市緑区,浦里４丁目１０９番地,,23,114,4580847,,,,,,,2023-07-18,1,,,,,アサヒ,0
2453,9180001157193,新規,0,2023-07-18,2023-07-18,Ｇｏ　ｏｎ株式会社,,株式会社,愛知県,名古屋市北区,田幡２丁目１３番１８号,,23,103,4620843,,,,,,,2023-07-18,1,,,,,ゴーオン,0
2454,9180001157210,新規,0,2023-07-18,2023-07-18,株式会社ＳＥＯ,,株式会社,愛知県,清須市,新清洲４丁目１番地６,,23,233,4520943,,,,,,,2023-07-18,1,,,,,エスイーオー,0
2464,9180003025472,新規,0,2023-07-18,2023-07-18,サフィール合同会社,,合同会社,愛知県,名古屋市緑区,東神の倉２丁目７１４番地,,23,114,4580808,,,,,,,2023-07-18,1,,,,,サフィール,0
2465,9180003025497,新規,0,2023-07-18,2023-07-18,合同会社ＬＩＦＥ　ＳＴＵＤＹ,,合同会社,愛知県,名古屋市天白区,元八事５丁目２０１番地,,23,116,4680066,,,,,,,2023-07-18,1,,,,,ライフスタディ,0
2469,9180301037582,新規,0,2023-07-18,2023-07-18,株式会社ナイン,,株式会社,愛知県,豊橋市,松葉町１丁目４４番地サクラレジャービル２階,,23,201,4400897,,,,,,,2023-07-18,1,,,,,ナイン,0
2474,9190001030589,新規,0,2023-07-18,2023-07-18,Ｉ２株式会社,,株式会社,三重県,四日市市,九の城町８番２号,,24,202,5100072,,,,,,,2023-07-18,1,,,,,アイツー,0
2478,9210001019381,新規,0,2023-07-18,2023-07-18,株式会社レイリホ,,株式会社,福井県,敦賀市,原２３号６番１の２,,18,202,9140824,,,,,,,2023-07-18,1,,,,,レイリホ,0
2480,9220001025503,新規,0,2023-07-18,2023-07-18,株式会社Ｍ’ｏｎｅ,,株式会社,石川県,小松市,白江町ト１２番地１,,17,203,9230811,,,,,,,2023-07-18,1,,,,,エムワン,0
2482,9230001019917,新規,0,2023-07-18,2023-07-18,株式会社ＩＢＴＩＨＡＪ　ＡＵＴＯＳ,,株式会社,富山県,高岡市,伏木東一宮９番４１号,,16,202,9330111,,,,,,,2023-07-18,1,,,,,イフティハジオウトズ,0
2484,9240001061827,新規,0,2023-07-18,2023-07-18,株式会社ＵＮＩＦＥＥＤ,,株式会社,広島県,福山市,三吉町２丁目１番３１号,,34,207,7200031,,,,,,,2023-07-18,1,,,,,ユニフィード,0
2485,9250001020187,新規,0,2023-07-18,2023-07-18,株式会社一期一会,,株式会社,山口県,岩国市,周東町下久原４４１番地１,,35,208,7420417,,,,,,,2023-07-18,1,,,,,イチゴイチエ,0
2492,9280001008989,新規,0,2023-07-18,2023-07-18,株式会社ＥＸＴ,,株式会社,島根県,江津市,二宮町神村２番地９,,32,207,6950023,,,,,,,2023-07-18,1,,,,,エクスト,0
2494,9290001102130,新規,0,2023-07-18,2023-07-18,株式会社青龍,,株式会社,福岡県,柳川市,三橋町下百町２４番地３・３階,,40,207,8320822,,,,,,,2023-07-18,1,,,,,セイリュウ,0
2495,9290001102171,新規,0,2023-07-18,2023-07-18,株式会社イノベート,,株式会社,福岡県,久留米市,津福本町２１９１－１蓮町ヴィレッジＩ１０３号,00131193,40,203,8300047,,,,,,,2023-07-18,1,,,,,イノベート,0
2496,9290001102312,新規,0,2023-07-18,2023-07-18,株式会社ナイスファクトリー,,株式会社,福岡県,福岡市南区,皿山４丁目１４番１４号,,40,134,8111365,,,,,,,2023-07-18,1,,,,,ナイスファクトリー,0
2497,9290001102337,新規,0,2023-07-18,2023-07-18,株式会社はるこころ福岡,,株式会社,福岡県,福岡市東区,箱崎ふ頭５丁目９番４５号,,40,131,8120051,,,,,,,2023-07-18,1,,,,,ハルココロフクオカ,0
2498,9290003014142,新規,0,2023-07-18,2023-07-18,合同会社ビーグルベリィ,,合同会社,福岡県,太宰府市,水城３丁目２２番１号,,40,221,8180131,,,,,,,2023-07-18,1,,,,,ビーグルベリィ,0
2504,9290801029705,新規,0,2023-07-18,2023-07-18,株式会社志進興業,,株式会社,福岡県,北九州市小倉南区,北方２丁目２６番１８号,,40,107,8020841,,,,,,,2023-07-18,1,,,,,シシンコウギョウ,0
2505,9300001013383,新規,0,2023-07-18,2023-07-18,株式会社真栄工業,,株式会社,佐賀県,東松浦郡玄海町,大字今村６５０５番地,,41,387,8471441,,,,,,,2023-07-18,1,,,,,シンエイコウギョウ,0
2511,9320005010094,新規,0,2023-07-18,2023-07-18,農事組合法人オカモトファーム,,その他の設立登記法人,大分県,大分市,大字佐賀関２２７０番地の１,,44,201,8792201,,,,,,,2023-07-18,1,,,,,オカモトファーム,0
2512,9330001031044,新規,0,2023-07-18,2023-07-18,株式会社オフィスＭＧＦ,,株式会社,熊本県,熊本市中央区,神水本町１番３０－１００３号,,43,101,8620955,,,,,,,2023-07-18,1,,,,,オフィスエムジーエフ,0
2513,9330001031052,新規,0,2023-07-18,2023-07-18,株式会社ワイズプラス,,株式会社,熊本県,熊本市東区,八反田３丁目８番５８号,,43,102,8618034,,,,,,,2023-07-18,1,,,,,ワイズプラス,0
2520,9360001032254,新規,0,2023-07-18,2023-07-18,株式会社ｕｍｉｐｒｏ,,株式会社,沖縄県,石垣市,字登野城５１０番地,,47,207,9070004,,,,,,,2023-07-18,1,,,,,ウミプロ,0
2521,9360001032262,新規,0,2023-07-18,2023-07-18,株式会社Ｍ’ｓｇｒｏｕｐ,,株式会社,沖縄県,宮古島市,平良字下里５６３番地１ディープブルーＩＣＨＩＢＡ１０２,,47,214,9060013,,,,,,,2023-07-18,1,,,,,エムズグループ,0
2522,9360001032270,新規,0,2023-07-18,2023-07-18,株式会社美月ｇｒｏｕｐ,,株式会社,沖縄県,宮古島市,平良字西里１１番地奥平ビル１Ｆ,,47,214,9060012,,,,,,,2023-07-18,1,,,,,ミツキグループ,0
2523,9360001032279,新規,0,2023-07-18,2023-07-18,達磨工業株式会社,,株式会社,沖縄県,那覇市,樋川１丁目３５番１３号,00131195,47,201,9000022,,,,,,,2023-07-18,1,,,,,ダルマコウギョウ,0
2525,9360003013129,新規,0,2023-07-18,2023-07-18,ヘルスケアアート合同会社,,合同会社,沖縄県,浦添市,牧港２丁目３１番１５号,,47,208,9012131,,,,,,,2023-07-18,1,,,,,ヘルスケアアート,0
2527,9370001050189,新規,0,2023-07-18,2023-07-18,株式会社天海,,株式会社,宮城県,仙台市太白区,鈎取４丁目２２番２５号アンビエラシュシュＩ－１０５,00131194,04,104,9820804,,,,,,,2023-07-18,1,,,,,アマミ,0
2549,9430001089460,新規,0,2023-07-18,2023-07-18,株式会社エルキート,,株式会社,北海道,札幌市中央区,南二条東２丁目１６番地堀尾ビル３Ｆ,,01,101,0600052,,,,,,,2023-07-18,1,,,,,エルキート,0
2551,9430003015225,新規,0,2023-07-18,2023-07-18,合同会社ケアマネジメントサービス,,合同会社,北海道,江別市,文京台６６番地の１サーム森林公園壱番館６１２号,,01,217,0690833,,,,,,,2023-07-18,1,,,,,,0
2560,9700150116491,新規,0,2023-07-18,2023-07-18,北京東方環球科貿有限公司,,外国会社等,,,,,,,,中国北京市朝陽区阜通東大街１号院３号楼１２層１単元１１１５０７,00131177,,,,,2023-07-18,1,,,,,ペキントウホウカンキュウカボウユウゲンコウシ,0
2561,9700150118463,新規,0,2023-07-18,2023-07-18,ｈｅｂｅｉ　ｓｈｅｎｇｄａｓｉｃｅｈｕｉｇｏｎｇｊｕ　ｙｏｕｘｉａｎｇｏｎｇｓｉ,,外国会社等,,,,,,,,ＮｉｎｇＪｉｎＸｉａｎＳｉＺｈｉＬａｎＺｈｅｎＮａｎＢａｉＤｏｕＣｕｎＣｕｎＤｏｎｇ　ＸｉｎｇＴａｉＳｈｉ　ＨｅＢｅｉＳｈｅｎｇ,,,,,,2023-07-18,1,,,,,ヘベイセンダシチェホゥイゴンジュユウゲンコウシ,0
