sequenceNumber,corporateNumber,process,correct,updateDate,changeDate,name,nameImageId,kind,prefectureName,cityName,streetNumber,addressImageId,prefectureCode,cityCode,postCode,addressOutside,addressOutsideImageId,closeDate,closeCause,successorCorporateNumber,changeCause,assignmentDate,latest,enName,enPrefectureName,enCityName,enAddressOutside,furigana,hihyoji
4,1010001249931,登記記録の閉鎖等,0,2026-02-20,2026-01-13,株式会社アーミーネオン,,株式会社,東京都,中央区,日本橋室町１丁目１１番１２号日本橋水野ビル７階,,13,102,1030022,,,2026-01-13,清算の結了等,,,2024-11-15,1,,,,,アーミーネオン,0
52,1011101090531,登記記録の閉鎖等,0,2026-02-20,2026-01-28,テレワーク・テクノロジーズ株式会社,,株式会社,東京都,新宿区,新宿４丁目３番１５号レイフラット新宿Ｂ棟３Ｆ,,13,104,1600022,,,2026-01-28,清算の結了等,,,2020-02-26,1,,,,,テレワークテクノロジーズ,0
93,1030001030224,登記記録の閉鎖等,0,2026-02-20,2026-02-12,株式会社ＣＯＣＯハウス,,株式会社,埼玉県,所沢市,若狭４丁目２５０７番地の３,,11,208,3591151,,,2026-02-12,清算の結了等,,,2015-10-05,1,,,,,ココハウス,0
96,1030002064782,登記記録の閉鎖等,0,2026-02-20,2026-02-16,有限会社ニュートンボ,,有限会社,埼玉県,志木市,下宗岡１丁目１９番２９号,,11,228,3530003,,,2026-02-16,清算の結了等,,,2015-10-05,1,,,,,ニュートンボ,0
97,1030002117029,登記記録の閉鎖等,0,2026-02-20,2026-02-16,有限会社中里商店,,有限会社,埼玉県,深谷市,大谷１４５８番地,,11,218,3660814,,,2026-02-16,清算の結了等,,,2015-10-05,1,,,,,ナカザトショウテン,0
118,1100002014169,登記記録の閉鎖等,0,2026-02-20,2026-02-17,有限会社シバタ,,有限会社,長野県,上田市,住吉３０５８番地,,20,203,3860002,,,2026-02-17,清算の結了等,,,2015-10-05,1,,,,,シバタ,0
119,1110003003500,登記記録の閉鎖等,0,2026-02-20,2026-02-16,合同会社くりはらケアプラン,,合同会社,新潟県,妙高市,栗原１丁目１０番１号,,15,217,9440007,,,2026-02-16,清算の結了等,,,2017-05-19,1,,,,,クリハラケアプラン,0
121,1120001191313,登記記録の閉鎖等,0,2026-02-20,2026-02-18,株式会社ｅｓｍ　ｃｒｅａｔｅ,,株式会社,大阪府,寝屋川市,対馬江西町１８番１８号,,27,215,5720065,,,2026-02-18,清算の結了等,,,2015-10-05,1,,,,,イズムクリエイト,0
125,1120001224659,登記記録の閉鎖等,0,2026-02-20,2026-02-17,タピＴＡＩＷＡＮ株式会社,,株式会社,大阪府,大阪市北区,梅田１丁目２番２号大阪駅前第２ビル２階５－６号室,,27,127,5300001,,,2026-02-17,清算の結了等,,,2019-10-29,1,,,,,タピタイワン,0
136,1120002057034,登記記録の閉鎖等,0,2026-02-20,2026-02-17,有限会社ＩＤＴ,,有限会社,大阪府,大阪市浪速区,難波中２丁目８番７５号,,27,111,5560011,,,2026-02-17,清算の結了等,,,2015-10-05,1,,,,,アイディーティー,0
137,1120003008069,登記記録の閉鎖等,0,2026-02-20,2026-02-16,サブケア合同会社,,合同会社,大阪府,泉南郡岬町,深日２０００番地の２７,,27,366,5990303,,,2026-02-16,合併による解散等,3122001022405,令和８年１月３１日大阪府八尾市本町六丁目１４番８号－６０１２号室ワン・ファースト株式会社（3122001022405）に合併し解散,2015-10-05,1,,,,,サブケア,0
140,1120101033290,登記記録の閉鎖等,0,2026-02-20,2026-02-16,ベガファーマ株式会社,,株式会社,大阪府,藤井寺市,野中２丁目１２３番地１,,27,226,5830014,,,2026-02-16,合併による解散等,9010401095530,令和８年２月１日東京都中央区八重洲二丁目２番１号株式会社ストレチア（9010401095530）に合併し解散,2015-10-05,1,,,,,ベガファーマ,0
142,1120901020959,登記記録の閉鎖等,0,2026-02-20,2026-02-18,ＣＥＬＥＣ株式会社,,株式会社,大阪府,大阪市中央区,本町１丁目７番７号,,27,128,5410053,,,2026-02-18,清算の結了等,,,2015-10-05,1,,,,,セレク,0
144,1122003000930,登記記録の閉鎖等,0,2026-02-20,2026-02-09,合同会社みどり保育園,,合同会社,大阪府,八尾市,末広町１丁目６番１０号,,27,212,5810001,,,2026-02-09,清算の結了等,,,2015-10-05,1,,,,,ミドリホイクエン,0
153,1140001034305,登記記録の閉鎖等,0,2026-02-20,2026-02-13,株式会社ポラリス,,株式会社,兵庫県,芦屋市,西山町２１番１７－４０３号,,28,206,6590083,,,2026-02-13,清算の結了等,,,2015-10-05,1,,,,,ポラリス,0
173,1200003003490,登記記録の閉鎖等,0,2026-02-20,2026-02-17,合同会社バリュー,,合同会社,岐阜県,多治見市,太平町１丁目４７番地の２,,21,204,5070041,,,2026-02-17,清算の結了等,,,2015-10-05,1,,,,,バリュー,0
184,1240005005011,登記記録の閉鎖等,0,2026-02-20,2026-02-17,医療法人社団大智会,,その他の設立登記法人,広島県,安芸高田市,吉田町吉田８３４番地の１,,34,214,7310501,,,2026-02-17,清算の結了等,,,2015-10-05,1,,,,,オオトモカイ,0
205,1320005010259,登記記録の閉鎖等,0,2026-02-20,2026-02-19,一般社団法人癒し工房サナティオ,,その他の設立登記法人,大分県,大分市,古国府５丁目５番２４号コモドワイズ２０４,,44,201,8700844,,,2026-02-19,清算の結了等,,,2025-09-17,1,,,,,イヤシコウボウサナティオ,0
211,1370001042029,登記記録の閉鎖等,0,2026-02-20,2026-02-18,株式会社ソラッド,,株式会社,宮城県,仙台市宮城野区,榴岡５丁目１番１８号,,04,102,9830852,,,2026-02-18,清算の結了等,,,2017-09-07,1,,,,,ソラッド,0
213,1370301000090,登記記録の閉鎖等,0,2026-02-20,2026-02-17,株式会社石巻医薬品センター,,株式会社,宮城県,石巻市,大街道西２丁目１番２３号,,04,202,9860859,,,2026-02-17,清算の結了等,,,2015-10-05,1,,,,,イシノマキイヤクヒンセンター,0
214,1380002019537,登記記録の閉鎖等,0,2026-02-20,2026-02-16,有限会社あさひ観光,,有限会社,福島県,須賀川市,坂の上町３１番地,,07,207,9620011,,,2026-02-16,清算の結了等,,,2015-10-05,1,,,,,アサヒカンコウ,0
215,1390002000875,登記記録の閉鎖等,0,2026-02-20,2026-02-17,有限会社黒井商事,,有限会社,山形県,山形市,宮町２丁目１１番９号,,06,201,9900057,,,2026-02-17,合併による解散等,3390001002292,令和８年２月１３日山形市宮町二丁目１１番９号株式会社クロイホールディングス（3390001002292）に合併し解散,2015-10-05,1,,,,,クロイショウジ,0
221,1420001013742,登記記録の閉鎖等,0,2026-02-20,2026-02-17,株式会社ホクオウ建設,,株式会社,青森県,八戸市,大字十日市字下谷地２３番地１,,02,203,0310012,,,2026-02-17,清算の結了等,,,2015-10-05,1,,,,,ホクオウケンセツ,0
225,1430001094303,登記記録の閉鎖等,0,2026-02-20,2026-02-18,株式会社ロータスライト,,株式会社,北海道,小樽市,見晴町３番３２号,,01,203,0470263,,,2026-02-18,清算の結了等,,,2025-05-08,1,,,,,ロータスライト,0
234,1480001011658,登記記録の閉鎖等,0,2026-02-20,2026-02-18,株式会社キミラボ,,株式会社,徳島県,徳島市,伊月町１丁目４９番地,,36,201,7700935,,,2026-02-18,清算の結了等,,,2022-02-24,1,,,,,キミラボ,0
247,2010001211551,登記記録の閉鎖等,0,2026-02-20,2026-02-02,Ｌｉｆｅ　Ｗｉｌｌ　Ｃｈａｎｇｅ株式会社,,株式会社,東京都,港区,六本木４丁目１番４号黒崎ビル２階,,13,103,1060032,,,2026-02-02,合併による解散等,9010901030904,令和８年２月１日東京都港区六本木四丁目１番４号黒崎ビル２階アクシス株式会社（9010901030904）に合併し解散,2020-08-13,1,,,,,ライフウィルチェンジ,0
280,2010405016209,登記記録の閉鎖等,0,2026-02-20,2026-02-13,一般社団法人ＴＳＭ１４５,,その他の設立登記法人,東京都,千代田区,丸の内１丁目４番１号東京共同会計事務所内,,13,101,1000005,,,2026-02-13,清算の結了等,,,2017-11-08,1,,,,,ティーエスエムヒャクヨンジュウゴ,0
286,2010801030465,登記記録の閉鎖等,0,2026-02-20,2026-02-16,華勝実業株式会社,,株式会社,東京都,品川区,南大井３丁目１９－３－３０６,,13,109,1400013,,,2026-02-16,清算の結了等,,,2019-12-13,1,,,,,カショウジツギョウ,0
295,2011101008400,登記記録の閉鎖等,0,2026-02-20,2026-02-03,株式会社シー・アール,,株式会社,東京都,千代田区,飯田橋４丁目４番８号,,13,101,1020072,,,2026-02-03,清算の結了等,,,2015-10-05,1,,,,,シーアール,0
298,2011101080713,登記記録の閉鎖等,0,2026-02-20,2026-01-29,株式会社ライブモア,,株式会社,東京都,中央区,銀座１丁目１５番７号,,13,102,1040061,,,2026-01-29,清算の結了等,,,2017-06-12,1,,,,,ライブモア,0
301,2011102009991,登記記録の閉鎖等,0,2026-02-20,2026-01-28,有限会社昇龍,,有限会社,東京都,新宿区,新宿７丁目１２番２５号,,13,104,1600022,,,2026-01-28,清算の結了等,,,2015-10-05,1,,,,,ショウリュウ,0
305,2011501024402,登記記録の閉鎖等,0,2026-02-20,2026-02-18,株式会社ＣＢ教育,,株式会社,愛知県,名古屋市東区,東桜１丁目５番１２号,,23,102,4610005,,,2026-02-18,合併による解散等,9180001070801,令和８年２月１８日名古屋市守山区永森町２６番地株式会社ライトワークス（9180001070801）に合併し解散,2019-01-18,1,,,,,シービーキョウイク,0
309,2011702015869,登記記録の閉鎖等,0,2026-02-20,2026-02-13,有限会社サトーエンジニアリング,,有限会社,東京都,江戸川区,篠崎町４丁目３１番１２号,,13,123,1330061,,,2026-02-13,清算の結了等,,,2015-10-05,1,,,,,サトーエンジニアリング,0
329,2030001011314,登記記録の閉鎖等,0,2026-02-20,2026-02-12,株式会社花の企画社,,株式会社,埼玉県,さいたま市南区,沼影１丁目１２番１－２２１０号,,11,108,3360027,,,2026-02-12,清算の結了等,,,2015-10-05,1,,,,,ハナノキカクシャ,0
335,2030005000759,登記記録の閉鎖等,0,2026-02-20,2026-02-13,大宮環境保全協同組合,,その他の設立登記法人,埼玉県,さいたま市見沼区,大字片柳１０４６番地１,,11,104,3370024,,,2026-02-13,清算の結了等,,,2015-10-05,1,,,,,オオミヤカンキョウホゼン,0
336,2030005018297,登記記録の閉鎖等,0,2026-02-20,2026-02-12,社会保険労務士法人フォレスト,,その他の設立登記法人,埼玉県,さいたま市浦和区,北浦和４丁目５番８号,,11,107,3300074,,,2026-02-12,清算の結了等,,,2017-01-20,1,,,,,フォレスト,0
352,2120001052027,登記記録の閉鎖等,0,2026-02-20,2026-02-17,株式会社信交電気工事,,株式会社,大阪府,大阪市淀川区,木川東４丁目８番１２号,,27,123,5320012,,,2026-02-17,清算の結了等,,,2015-10-05,1,,,,,シンコウデンキコウジ,0
356,2120001223998,登記記録の閉鎖等,0,2026-02-20,2026-02-18,株式会社三木組,,株式会社,大阪府,大阪市住之江区,中加賀屋４丁目３番２５号,,27,125,5590017,,,2026-02-18,清算の結了等,,,2019-09-30,1,,,,,ミキグミ,0
359,2120001273366,登記記録の閉鎖等,0,2026-02-20,2026-02-19,福亜株式会社,,株式会社,大阪府,大阪市西成区,花園北１丁目７番１４号５０６－Ｂ号室,,27,122,5570016,,,2026-02-19,清算の結了等,,,2025-03-05,1,,,,,フクア,0
376,2130001070531,登記記録の閉鎖等,0,2026-02-20,2026-02-17,大田株式会社,,株式会社,京都府,京都市右京区,太秦安井辰巳町２－３０,,26,108,6168072,,,2026-02-17,清算の結了等,,,2021-11-22,1,,,,,オオタ,0
379,2140001076395,登記記録の閉鎖等,0,2026-02-20,2026-02-18,仁木マシナリー株式会社,,株式会社,兵庫県,加古郡稲美町,六分一７１０番地１,,28,381,6751112,,,2026-02-18,合併による解散等,5130001012737,令和８年２月１日京都市南区吉祥院九条町４９番地三共精機株式会社（5130001012737）に合併し解散,2015-10-05,1,,,,,ニキマシナリー,0
386,2180001099277,登記記録の閉鎖等,0,2026-02-20,2026-02-17,株式会社フラッシュシステムズ,,株式会社,愛知県,名古屋市中村区,井深町１番１号,,23,105,4530012,,,2026-02-17,合併による解散等,7011101011259,令和８年１月１日東京都新宿区西新宿六丁目５番１号株式会社ゼネテック（7011101011259）に合併し解散,2015-10-05,1,,,,,フラッシュシステムズ,0
393,2180301014489,登記記録の閉鎖等,0,2026-02-20,2026-02-17,株式会社まるぜん,,株式会社,愛知県,刈谷市,高松町１丁目５番地,,23,210,4480853,,,2026-02-17,清算の結了等,,,2015-10-05,1,,,,,マルゼン,0
394,2180301025511,登記記録の閉鎖等,0,2026-02-20,2026-02-02,デルタ株式会社,,株式会社,愛知県,刈谷市,今岡町西吹戸５番地７,,23,210,4480008,,,2026-02-02,清算の結了等,,,2015-10-05,1,,,,,デルタ,0
405,2290001055013,登記記録の閉鎖等,0,2026-02-20,2026-02-12,株式会社Ｋ・ブリッジ,,株式会社,福岡県,糟屋郡粕屋町,大字柚須６６番地１三愛シティライフ箱崎１５－４０３号,,40,349,8112305,,,2026-02-12,清算の結了等,,,2015-10-05,1,,,,,ケイーブリッジ,0
414,2290802009233,登記記録の閉鎖等,0,2026-02-20,2026-02-16,オオタトレイディング有限会社,,有限会社,福岡県,北九州市門司区,大字田野浦１２５２番３,,40,101,8010803,,,2026-02-16,清算の結了等,,,2015-10-05,1,,,,,オオタトレイディング,0
423,2370001015297,登記記録の閉鎖等,0,2026-02-20,2026-02-19,株式会社ジャム,,株式会社,宮城県,仙台市宮城野区,宮城野１丁目１２番１５号,,04,102,9830045,,,2026-02-19,清算の結了等,,,2015-10-05,1,,,,,ジャム,0
425,2370002011262,登記記録の閉鎖等,0,2026-02-20,2026-02-17,五月建設有限会社,,有限会社,宮城県,仙台市青葉区,吉成２丁目１８番５号,,04,101,9893205,,,2026-02-17,清算の結了等,,,2015-10-05,1,,,,,サツキケンセツ,0
431,2400005007907,登記記録の閉鎖等,0,2026-02-20,2026-02-13,協同組合ＧＲＯＷ夢,,その他の設立登記法人,岩手県,岩手郡岩手町,大字土川第４地割９１番地６,,03,303,0284423,,,2026-02-13,清算の結了等,,,2018-06-12,1,,,,,グローム,0
433,2420002016504,登記記録の閉鎖等,0,2026-02-20,2026-02-16,有限会社大島建築,,有限会社,青森県,十和田市,大字相坂字高見１４７番地２６０,,02,206,0340041,,,2026-02-16,清算の結了等,,,2015-10-05,1,,,,,オオシマケンチク,0
438,2430002007790,登記記録の閉鎖等,0,2026-02-20,2026-02-18,有限会社コスモ薬局,,有限会社,北海道,札幌市東区,北三十五条東２０丁目１番１５号,,01,103,0070835,,,2026-02-18,清算の結了等,,,2015-10-05,1,,,,,コスモヤッキョク,0
449,3010001023244,登記記録の閉鎖等,0,2026-02-20,2026-02-02,株式会社鉄道ジヤーナル社,,株式会社,東京都,新宿区,新小川町１番７号,,13,104,1620814,,,2026-02-02,合併による解散等,8011101037724,令和８年２月１日東京都新宿区新小川町１番７号成美堂出版株式会社（8011101037724）に合併し解散,2015-10-05,1,,,,,テツドウジャーナルシャ,0
454,3010001086927,登記記録の閉鎖等,0,2026-02-20,2026-01-28,株式会社ラウラ,,株式会社,東京都,渋谷区,恵比寿２丁目１６番１号,,13,113,1500013,,,2026-01-28,清算の結了等,,,2015-10-05,1,,,,,ラウラ,0
455,3010001089913,登記記録の閉鎖等,0,2026-02-20,2026-01-29,株式会社ネットビジョン,,株式会社,東京都,千代田区,神田駿河台２丁目８番地瀬川ビル６Ｆ,,13,101,1010062,,,2026-01-29,清算の結了等,,,2015-10-05,1,,,,,ネットビジョン,0
456,3010001103814,登記記録の閉鎖等,0,2026-02-20,2026-02-05,株式会社アイ・ナビゲーター,,株式会社,東京都,中央区,銀座１丁目１５番７号,,13,102,1040061,,,2026-02-05,清算の結了等,,,2015-10-05,1,,,,,アイナビゲーター,0
457,3010001145113,登記記録の閉鎖等,0,2026-02-20,2026-02-02,株式会社ＪＡＭ,,株式会社,東京都,中央区,銀座７丁目１３番６号サガミビル２階,,13,102,1040061,,,2026-02-02,清算の結了等,,,2015-10-05,1,,,,,,0
466,3010003022483,登記記録の閉鎖等,0,2026-02-20,2026-02-17,合同会社カナリーワーフ,,合同会社,大阪府,大阪市北区,天神橋３丁目６番５号ベルニーニ南森町７０５号,,27,127,5300041,,,2026-02-17,合併による解散等,5010003021574,令和８年１月１日東京都港区浜松町二丁目２番１５号合同会社ＴＭＭアセットマネージメント（5010003021574）に合併し解散,2015-10-05,1,,,,,カナリーワーフ,0
467,3010003036756,登記記録の閉鎖等,0,2026-02-20,2026-02-02,合同会社プライムスリーキャピタル,,合同会社,東京都,千代田区,丸の内１丁目６番５号,,13,101,1000005,,,2026-02-02,清算の結了等,,,2022-01-13,1,,,,,プライムスリーキャピタル,0
480,3010403023668,登記記録の閉鎖等,0,2026-02-20,2026-02-03,キングフィッシャーモバイル合同会社,,合同会社,東京都,中央区,日本橋３丁目９番１号日本橋三丁目スクエア１１階,,13,102,1030027,,,2026-02-03,清算の結了等,,,2020-09-08,1,,,,,キングフィッシャーモバイル,0
514,3011403004006,登記記録の閉鎖等,0,2026-02-20,2026-01-28,合同会社メディア,,合同会社,千葉県,四街道市,和良比９１６番地２３,,12,228,2840044,,,2026-01-28,清算の結了等,,,2023-05-23,1,,,,,メディア,0
534,3012701003962,登記記録の閉鎖等,0,2026-02-20,2026-02-09,株式会社久がや工務店,,株式会社,東京都,東久留米市,金山町２丁目４番１３号,,13,222,2030003,,,2026-02-09,清算の結了等,,,2015-10-05,1,,,,,クガヤコウムテン,0
553,3030001091751,登記記録の閉鎖等,0,2026-02-20,2026-02-16,株式会社アクティブ,,株式会社,埼玉県,飯能市,大字小瀬戸３３６番地１,,11,209,3570067,,,2026-02-16,清算の結了等,,,2015-10-05,1,,,,,アクティブ,0
561,3030003026342,登記記録の閉鎖等,0,2026-02-20,2026-02-13,ＢＬＵＥ　ＬＡＢＥＬ　Ｓｏｌｕｔｉｏｎｓ合同会社,,合同会社,埼玉県,さいたま市大宮区,桜木町２丁目３番地大宮マルイ７階,,11,103,3300854,,,2026-02-13,清算の結了等,,,2025-03-17,1,,,,,ブルーレーベルソリューションズ,0
579,3070001028972,登記記録の閉鎖等,0,2026-02-20,2026-02-18,株式会社Ｔモールド,,株式会社,群馬県,館林市,近藤町５９１番地,,10,207,3740042,,,2026-02-18,清算の結了等,,,2015-10-05,1,,,,,,0
581,3080102020712,登記記録の閉鎖等,0,2026-02-20,2026-02-16,有限会社若竹寮,,有限会社,静岡県,伊東市,松原７４５番地,,22,208,4140006,,,2026-02-16,清算の結了等,,,2015-10-05,1,,,,,ワカタケリョウ,0
585,3120001173573,登記記録の閉鎖等,0,2026-02-20,2026-02-18,株式会社ＫＢボードプラスＦ,,株式会社,大阪府,大阪市鶴見区,今津南１丁目４番３８号,,27,124,5380043,,,2026-02-18,清算の結了等,,,2015-10-05,1,,,,,ケービーボードプラスエフ,0
587,3120001206671,登記記録の閉鎖等,0,2026-02-20,2026-02-18,雪本ハウジング株式会社,,株式会社,大阪府,大阪市鶴見区,今津中５丁目４番５号,,27,124,5380042,,,2026-02-18,清算の結了等,,,2017-07-04,1,,,,,ユキモトハウジング,0
600,3120101059920,登記記録の閉鎖等,0,2026-02-20,2026-02-18,株式会社ラストホープ,,株式会社,大阪府,大阪市平野区,平野本町１丁目１２番８号２階,,27,126,5470044,,,2026-02-18,清算の結了等,,,2019-05-29,1,,,,,ラストホープ,0
604,3120102015468,登記記録の閉鎖等,0,2026-02-20,2026-02-09,有限会社マーチトゥエンティーワン,,有限会社,大阪府,松原市,高見の里２丁目２０番地の４０,,27,217,5800021,,,2026-02-09,清算の結了等,,,2015-10-05,1,,,,,,0
610,3122001018163,登記記録の閉鎖等,0,2026-02-20,2026-02-06,株式会社川上製作所,,株式会社,大阪府,八尾市,竹渕３丁目１５５番地,,27,212,5810052,,,2026-02-06,清算の結了等,,,2015-10-05,1,,,,,カワカミセイサクショ,0
617,3140001021482,登記記録の閉鎖等,0,2026-02-20,2026-02-18,株式会社ジーピーインターナショナル,,株式会社,兵庫県,神戸市垂水区,霞ケ丘６丁目１番３５号,,28,108,6550039,,,2026-02-18,清算の結了等,,,2015-10-05,1,,,,,ジーピーインターナショナル,0
633,3180001151680,登記記録の閉鎖等,0,2026-02-20,2026-02-18,株式会社石橋工務店,,株式会社,愛知県,知多郡美浜町,北方５丁目１０５番地,,23,446,4702403,,,2026-02-18,清算の結了等,,,2022-06-13,1,,,,,イシバシコウムテン,0
634,3180001162918,登記記録の閉鎖等,0,2026-02-20,2026-02-17,株式会社心晴,,株式会社,愛知県,清須市,西堀江１４２３番地１,,23,233,4520917,,,2026-02-17,清算の結了等,,,2024-08-15,1,,,,,コハル,0
643,3240001023865,登記記録の閉鎖等,0,2026-02-20,2026-02-17,株式会社中栄ビジネスリサーチ,,株式会社,広島県,東広島市,西条中央７丁目１７番８号,,34,212,7390025,,,2026-02-17,清算の結了等,,,2015-10-05,1,,,,,チュウエイビジネスリサーチ,0
663,3310005008731,登記記録の閉鎖等,0,2026-02-20,2026-02-20,一般社団法人日本無人機協会,,その他の設立登記法人,長崎県,長崎市,琴海戸根町１１７９番地　２Ｆ,,42,201,8513103,,,2026-02-20,清算の結了等,,,2023-12-25,1,,,,,ニホンムジンキキョウカイ,0
671,3360002009471,登記記録の閉鎖等,0,2026-02-20,2026-02-18,有限会社久米水創,,有限会社,沖縄県,島尻郡八重瀬町,字志多伯１９６番地の４,,47,362,9010413,,,2026-02-18,清算の結了等,,,2015-10-05,1,,,,,クメスイソウ,0
705,4010001239483,登記記録の閉鎖等,0,2026-02-20,2026-02-03,ＴＸ東京株式会社,,株式会社,東京都,中央区,晴海１丁目８－１１晴海アイランドトリトンスクエアオフィスタワーＹ棟３７階,,13,102,1040053,,,2026-02-03,清算の結了等,,,2023-10-25,1,,,,,ティーエックストウキョウ,0
708,4010001244979,登記記録の閉鎖等,0,2026-02-20,2026-02-03,ＳＤＩ先端技研株式会社,,株式会社,東京都,中央区,銀座２丁目１５－２ＫＲＧｉｎｚａ２・４Ｆ,,13,102,1040061,,,2026-02-03,清算の結了等,,,2024-05-22,1,,,,,エスディアイセンタンギケン,0
754,4011001063873,登記記録の閉鎖等,0,2026-02-20,2026-01-29,ＡＩＫＥＹ株式会社,,株式会社,東京都,渋谷区,恵比寿３丁目３７番４号,,13,113,1500013,,,2026-01-29,清算の結了等,,,2015-10-05,1,,,,,エイケイ,0
769,4011102000379,登記記録の閉鎖等,0,2026-02-20,2026-01-28,有限会社安齋工務店,,有限会社,東京都,新宿区,中井２丁目７番１７号,,13,104,1610035,,,2026-01-28,清算の結了等,,,2015-10-05,1,,,,,アンザイコウムテン,0
771,4011301008693,登記記録の閉鎖等,0,2026-02-20,2026-02-10,株式会社エムズ・ポートフォリオ・マネージメント,,株式会社,東京都,杉並区,高円寺南４丁目１２番１８号大竹マンション１Ｆ,,13,115,1660003,,,2026-02-10,清算の結了等,,,2015-10-05,1,,,,,エムズポートフォリオマネージメント,0
781,4011805002143,登記記録の閉鎖等,0,2026-02-20,2026-02-17,税理士法人フロンティア・アカウンティング,,その他の設立登記法人,東京都,葛飾区,東新小岩３丁目１番５号たつみ橋マンション７１１号室,,13,122,1240023,,,2026-02-17,清算の結了等,,,2015-10-05,1,,,,,フロンティアアカウンティング,0
792,4020001158625,登記記録の閉鎖等,0,2026-02-20,2026-02-17,ＷＩＴＨＤＯＭ　Ｋａｎａｇａｗａ株式会社,,株式会社,神奈川県,横浜市都筑区,折本町１３８番地,,14,118,2240043,,,2026-02-17,合併による解散等,7290001082498,令和８年２月１日福岡市博多区博多駅東一丁目１８番２５号ＷＩＴＨＤＯＭ　Ｇｒｏｕｐ株式会社（7290001082498）に合併し解散,2024-08-21,1,,,,,ウィズダムカナガワ,0
802,4021002005618,登記記録の閉鎖等,0,2026-02-20,2026-01-30,有限会社やぶ茂,,有限会社,神奈川県,藤沢市,鵠沼松が岡３丁目２７番１６号,,14,205,2510038,,,2026-01-30,清算の結了等,,,2015-10-05,1,,,,,ヤブシゲ,0
830,4080402007160,登記記録の閉鎖等,0,2026-02-20,2026-02-16,有限会社富士美容院,,有限会社,静岡県,浜松市中央区,成子町８０番地の４,,22,138,4328035,,,2026-02-16,清算の結了等,,,2015-10-05,1,,,,,フジビヨウイン,0
834,4100001010744,登記記録の閉鎖等,0,2026-02-20,2026-02-17,高周波科学工業株式会社,,株式会社,長野県,松本市,大字和田３９６７番地３６,,20,202,3901242,,,2026-02-17,清算の結了等,,,2015-10-05,1,,,,,コウシュウハカガクコウギョウ,0
840,4120001064053,登記記録の閉鎖等,0,2026-02-20,2026-02-18,西宝土地開発株式会社,,株式会社,大阪府,大阪市北区,西天満２丁目７番１９号,,27,127,5300047,,,2026-02-18,清算の結了等,,,2015-10-05,1,,,,,,0
844,4120001276920,登記記録の閉鎖等,0,2026-02-20,2026-02-19,瀾潤株式会社,,株式会社,大阪府,大阪市西成区,花園北１丁目７番１４号４０２－Ｃ号室,,27,122,5570016,,,2026-02-19,清算の結了等,,,2025-06-20,1,,,,,ランジュン,0
850,4120003030656,登記記録の閉鎖等,0,2026-02-20,2026-02-18,南方之路合同会社,,合同会社,大阪府,大阪市西淀川区,姫島２丁目４番１０号パークアベニュー２階Ａ室,,27,113,5550033,,,2026-02-18,清算の結了等,,,2025-09-29,1,,,,,ナンポウノミチ,0
861,4122002014391,登記記録の閉鎖等,0,2026-02-20,2026-02-10,有限会社南艸工業,,有限会社,大阪府,八尾市,久宝寺１丁目２番５０号,,27,212,5810072,,,2026-02-10,清算の結了等,,,2015-10-05,1,,,,,ナグサコウギョウ,0
863,4130002004016,登記記録の閉鎖等,0,2026-02-20,2026-02-18,有限会社ティーアイプランニング,,有限会社,京都府,京都市中京区,新町通御池上る中之町３１番地イーグルコート御池新町７０１号室,,26,104,6040032,,,2026-02-18,清算の結了等,,,2015-10-05,1,,,,,ティーアイプランニング,0
870,4180001082396,登記記録の閉鎖等,0,2026-02-20,2026-02-17,株式会社カジ・コーポレーション,,株式会社,愛知県,一宮市,三ツ井２丁目２８番２３号,,23,203,4910827,,,2026-02-17,合併による解散等,9120901010556,令和８年２月１日大阪市北区本庄東一丁目１番１０号株式会社ＥＮＮＥ（9120901010556）に合併し解散,2015-10-05,1,,,,,カジコーポレーション,0
873,4180001123282,登記記録の閉鎖等,0,2026-02-20,2026-02-19,株式会社エクセレント・カンパニー,,株式会社,愛知県,みよし市,莇生町藤塚３０番地２,,23,236,4700206,,,2026-02-19,清算の結了等,,,2016-05-12,1,,,,,エクセレントカンパニー,0
880,4180003016534,登記記録の閉鎖等,0,2026-02-20,2026-02-17,合同会社ＡｂｓｏｌｕｔｅＫ,,合同会社,愛知県,名古屋市西区,那古野１丁目２１番５号,,23,104,4510042,,,2026-02-17,清算の結了等,,,2015-10-05,1,,,,,,0
882,4180003024834,登記記録の閉鎖等,0,2026-02-20,2026-02-10,ＣＴＴＭ合同会社,,合同会社,愛知県,豊明市,前後町善江１６５１番地１Ｌｉｎｄａ１００４号,,23,229,4701151,,,2026-02-10,清算の結了等,,,2023-02-07,1,,,,,,0
885,4180301007870,登記記録の閉鎖等,0,2026-02-20,2026-02-13,株式会社カスヤ,,株式会社,愛知県,田原市,福江町天神９０番地７,,23,231,4413617,,,2026-02-13,清算の結了等,,,2015-10-05,1,,,,,カスヤ,0
888,4180302007325,登記記録の閉鎖等,0,2026-02-20,2026-02-18,有限会社コア金山,,有限会社,愛知県,豊橋市,天伯町字三和１１０番地の３,,23,201,4418122,,,2026-02-18,清算の結了等,,,2015-10-05,1,,,,,コアカナヤマ,0
889,4190001028241,登記記録の閉鎖等,0,2026-02-20,2026-02-18,スペース株式会社,,株式会社,三重県,伊勢市,宮後２丁目２０番３号,,24,203,5160072,,,2026-02-18,清算の結了等,,,2021-04-19,1,,,,,スペース,0
897,4240001011910,登記記録の閉鎖等,0,2026-02-20,2026-02-16,株式会社山一管工,,株式会社,広島県,広島市西区,都町２３番３号,,34,104,7330023,,,2026-02-16,清算の結了等,,,2015-10-05,1,,,,,ヤマイチカンコウ,0
902,4240002050692,登記記録の閉鎖等,0,2026-02-20,2026-02-16,有限会社朱華園,,有限会社,広島県,尾道市,十四日元町４番１２号,,34,205,7220034,,,2026-02-16,清算の結了等,,,2015-10-05,1,,,,,シュカエン,0
904,4280002000495,登記記録の閉鎖等,0,2026-02-20,2026-02-19,有限会社オフィス愛,,有限会社,島根県,松江市,上乃木９丁目１２番４０号,,32,201,6900015,,,2026-02-19,清算の結了等,,,2015-10-05,1,,,,,オフィスアイ,0
905,4280002009792,登記記録の閉鎖等,0,2026-02-20,2026-02-18,有限会社天津薬局,,有限会社,島根県,益田市,乙吉町イ３３６番地３,,32,204,6980003,,,2026-02-18,清算の結了等,,,2015-10-05,1,,,,,アマツヤッキョク,0
906,4290001008308,登記記録の閉鎖等,0,2026-02-20,2026-02-16,株式会社センターヴィレッヂ,,株式会社,福岡県,福岡市中央区,今川２丁目７番６２号,,40,133,8100054,,,2026-02-16,清算の結了等,,,2015-10-05,1,,,,,センターヴィレッヂ,0
921,4290801023415,登記記録の閉鎖等,0,2026-02-20,2026-02-13,株式会社朔企画,,株式会社,福岡県,北九州市小倉北区,熊本３丁目１２番２４号,,40,106,8020044,,,2026-02-13,清算の結了等,,,2017-03-27,1,,,,,ハジメキカク,0
930,4340005006509,登記記録の閉鎖等,0,2026-02-20,2026-02-13,医療法人ひろた耳鼻咽喉科,,その他の設立登記法人,鹿児島県,鹿屋市,札元２丁目３８０８番地１,,46,203,8930013,,,2026-02-13,清算の結了等,,,2015-10-05,1,,,,,ヒロタジビインコウカ,0
947,4430001096206,登記記録の閉鎖等,0,2026-02-20,2026-02-17,成田鋼材株式会社,,株式会社,北海道,石狩市,新港西３丁目７４８番地１,,01,235,0613241,,,2026-02-17,清算の結了等,,,2026-02-13,1,,,,,ナリタコウザイ,0
976,5010401142030,登記記録の閉鎖等,0,2026-02-20,2026-01-29,株式会社ＯＮＥ　ＹＥＡＲ　ＳＭＩＬＥ,,株式会社,東京都,渋谷区,道玄坂１丁目１２番１号渋谷マークシティＷ１６階１０２号室,,13,113,1500043,,,2026-01-29,清算の結了等,,,2018-11-13,1,,,,,ワンイヤースマイル,0
995,5010702003518,登記記録の閉鎖等,0,2026-02-20,2026-02-16,有限会社栄工業,,有限会社,東京都,品川区,西品川１丁目１１番１０号,,13,109,1410033,,,2026-02-16,清算の結了等,,,2015-10-05,1,,,,,サカエコウギョウ,0
1006,5011001163029,登記記録の閉鎖等,0,2026-02-20,2026-02-19,Ｂａｍｂｏｏ　Ｐａｎｄａ株式会社,,株式会社,東京都,渋谷区,代々木２丁目２２番地５－２０１号室,,13,113,1510053,,,2026-02-19,清算の結了等,,,2024-06-28,1,,,,,バンブーパンダ,0
1007,5011003004718,登記記録の閉鎖等,0,2026-02-20,2026-02-18,アップ合同会社,,合同会社,東京都,新宿区,高田馬場２丁目１０番９号戸蒔ビル１０２号,,13,104,1690075,,,2026-02-18,清算の結了等,,,2015-10-05,1,,,,,アップ,0
1028,5012705001498,登記記録の閉鎖等,0,2026-02-20,2026-02-09,特定非営利活動法人世界の子どもたちに暖かいセーターを送る会,,その他の設立登記法人,東京都,西東京市,西原町４丁目３番４５号８－２０９,,13,229,1880004,,,2026-02-09,清算の結了等,,,2015-10-05,1,,,,,セカイノコドモタチニアタタカイセーターヲオクルカイ,0
1031,5020001097418,登記記録の閉鎖等,0,2026-02-20,2026-02-13,株式会社ＥＯＵ,,株式会社,神奈川県,川崎市麻生区,東百合丘３丁目１番１４・２－４０８号,,14,137,2150012,,,2026-02-13,清算の結了等,,,2015-10-05,1,,,,,イーオーユー,0
1035,5020002107043,登記記録の閉鎖等,0,2026-02-20,2026-02-03,有限会社ケーオー,,有限会社,神奈川県,川崎市中原区,小杉町２丁目２８９番地,,14,133,2110063,,,2026-02-03,清算の結了等,,,2015-10-05,1,,,,,ケーオー,0
1059,5040002077887,登記記録の閉鎖等,0,2026-02-20,2026-01-29,有限会社魚和,,有限会社,千葉県,山武郡九十九里町,片貝６７３３番地,,12,403,2830104,,,2026-01-29,清算の結了等,,,2015-10-05,1,,,,,ウオカズ,0
1067,5070003002635,登記記録の閉鎖等,0,2026-02-20,2026-02-19,合同会社凜カンパニー,,合同会社,群馬県,前橋市,若宮町３丁目２０番１０号西棟,,10,201,3710032,,,2026-02-19,清算の結了等,,,2016-04-27,1,,,,,リンカンパニー,0
1100,5120005021826,登記記録の閉鎖等,0,2026-02-20,2026-02-16,一般社団法人食の未来,,その他の設立登記法人,大阪府,大阪市中央区,天満橋京町１番２４号,,27,128,5400032,,,2026-02-16,清算の結了等,,,2020-09-14,1,,,,,ショクノミライ,0
1108,5130001073093,登記記録の閉鎖等,0,2026-02-20,2026-02-17,株式会社Ｌａｒｇｏ,,株式会社,京都府,京都市下京区,朱雀宝蔵町４４番地協栄ビル２階京都朱雀スタジオ,,26,106,6008846,,,2026-02-17,清算の結了等,,,2022-11-17,1,,,,,ラルゴ,0
1161,5340003002509,登記記録の閉鎖等,0,2026-02-20,2026-02-16,合同会社元気,,合同会社,鹿児島県,鹿児島市,西陵８丁目３番８号,,46,201,8900032,,,2026-02-16,清算の結了等,,,2018-01-23,1,,,,,ゲンキ,0
1171,5410002010570,登記記録の閉鎖等,0,2026-02-20,2026-02-17,有限会社ミカミレディス,,有限会社,秋田県,能代市,字中柳１２番２,,05,202,0160183,,,2026-02-17,清算の結了等,,,2015-10-05,1,,,,,ミカミレディス,0
1177,5430001096205,登記記録の閉鎖等,0,2026-02-20,2026-02-17,株式会社ナリタ,,株式会社,北海道,石狩市,花川北六条３丁目１番地８,,01,235,0613216,,,2026-02-17,清算の結了等,,,2026-02-13,1,,,,,ナリタ,0
1178,5430002052982,登記記録の閉鎖等,0,2026-02-20,2026-02-13,有限会社星の島,,有限会社,北海道,芦別市,黄金町９３６番地１,,01,216,0750252,,,2026-02-13,清算の結了等,,,2015-10-05,1,,,,,ホシノシマ,0
1191,6010001146736,登記記録の閉鎖等,0,2026-02-20,2026-02-12,株式会社Ｆ・Ｂプロジェクト,,株式会社,埼玉県,さいたま市南区,沼影１丁目１２番１－２２１０号,,11,108,3360027,,,2026-02-12,清算の結了等,,,2015-10-05,1,,,,,エフビープロジェクト,0
1196,6010001237948,登記記録の閉鎖等,0,2026-02-20,2026-01-29,ＥＶリサーチ＆コンサルティング株式会社,,株式会社,東京都,中央区,日本橋人形町３丁目３番５号,,13,102,1030013,,,2026-01-29,清算の結了等,,,2023-08-24,1,,,,,イーブイリサーチアンドコンサルティング,0
1204,6010003029823,登記記録の閉鎖等,0,2026-02-20,2026-02-05,日光ベル合同会社３,,合同会社,東京都,千代田区,丸の内１丁目４番１号東京共同会計事務所内,,13,101,1000005,,,2026-02-05,清算の結了等,,,2019-05-16,1,,,,,ニッコウベルサン,0
1207,6010101009586,登記記録の閉鎖等,0,2026-02-20,2026-02-18,株式会社ＲＩＳＴ,,株式会社,東京都,八王子市,南大沢４丁目２番地４,,13,201,1920364,,,2026-02-18,清算の結了等,,,2015-10-05,1,,,,,リスト,0
1221,6010701002593,登記記録の閉鎖等,0,2026-02-20,2026-01-28,株式会社共栄サービス,,株式会社,神奈川県,相模原市南区,上鶴間７丁目８番１号ライフコア東林間５１２,,14,153,2520302,,,2026-01-28,清算の結了等,,,2015-10-05,1,,,,,キョウエイサービス,0
1233,6011002016696,登記記録の閉鎖等,0,2026-02-20,2026-01-29,有限会社陽風館,,有限会社,東京都,渋谷区,東１丁目４番２３号オープンハウス３０２号,,13,113,1500011,,,2026-01-29,清算の結了等,,,2015-10-05,1,,,,,ヨウフウカン,0
1244,6011701010330,登記記録の閉鎖等,0,2026-02-20,2026-02-13,株式会社ケイ・エス・コンサルティング,,株式会社,東京都,江戸川区,松本２丁目２１番６号,,13,123,1330043,,,2026-02-13,清算の結了等,,,2015-10-05,1,,,,,ケイエスコンサルティング,0
1271,6030001044590,登記記録の閉鎖等,0,2026-02-20,2026-02-13,株式会社浅野商店,,株式会社,埼玉県,朝霞市,栄町２丁目１０番４８号,,11,227,3510012,,,2026-02-13,清算の結了等,,,2015-10-05,1,,,,,アサノショウテン,0
1279,6040001091038,登記記録の閉鎖等,0,2026-02-20,2026-01-29,アーティストレジャー株式会社,,株式会社,千葉県,市川市,大和田５丁目６番３号,,12,203,2720025,,,2026-01-29,清算の結了等,,,2015-10-05,1,,,,,アーティストレジャー,0
1288,6060001032130,登記記録の閉鎖等,0,2026-02-20,2026-02-19,ＦＯＮＴＥ　Ｊａｐａｎ株式会社,,株式会社,栃木県,小山市,大字下石塚３４２番地,,09,208,3230064,,,2026-02-19,清算の結了等,,,2019-12-03,1,,,,,フォンチジャパン,0
1299,6120001084693,登記記録の閉鎖等,0,2026-02-20,2026-02-17,出合印刷株式会社,,株式会社,大阪府,豊中市,玉井町４丁目３番３号,,27,203,5600026,,,2026-02-17,清算の結了等,,,2015-10-05,1,,,,,デアイインサツ,0
1300,6120001117726,登記記録の閉鎖等,0,2026-02-20,2026-02-18,ヒロセのレンタルボイラ株式会社,,株式会社,大阪府,大阪市西区,立売堀５丁目３番２０号,,27,106,5500012,,,2026-02-18,清算の結了等,,,2015-10-05,1,,,,,ヒロセノレンタルボイラ,0
1309,6120001260402,登記記録の閉鎖等,0,2026-02-20,2026-02-17,Ｃｙｐｈｅｒ株式会社,,株式会社,大阪府,大阪市淀川区,宮原１丁目１番１号新大阪阪急ビル３Ｆ,,27,123,5320003,,,2026-02-17,清算の結了等,,,2023-12-06,1,,,,,サイファー,0
1317,6120101049885,登記記録の閉鎖等,0,2026-02-20,2026-02-09,株式会社アーステック,,株式会社,大阪府,堺市堺区,南向陽町２丁３番２６号,,27,141,5900073,,,2026-02-09,清算の結了等,,,2015-10-05,1,,,,,アーステック,0
1365,6280001000627,登記記録の閉鎖等,0,2026-02-20,2026-02-19,株式会社フジックス,,株式会社,島根県,松江市,西嫁島１丁目３番９号,,32,201,6900048,,,2026-02-19,清算の結了等,,,2015-10-05,1,,,,,フジックス,0
1372,6290005019745,登記記録の閉鎖等,0,2026-02-20,2026-02-16,一般社団法人ｒｙｕｍｅ,,その他の設立登記法人,福岡県,久留米市,津福本町２１９４－１,,40,203,8300047,,,2026-02-16,清算の結了等,,,2025-05-15,1,,,,,リュウム,0
1382,6340001020726,登記記録の閉鎖等,0,2026-02-20,2026-02-13,ふなくら焙煎株式会社,00111769,株式会社,鹿児島県,薩摩川内市,白和町４‐１２第２ふなくらビル,,46,215,8950022,,,2026-02-13,清算の結了等,,,2017-11-10,1,,,,,フナクラバイセン,0
1385,6340005008783,登記記録の閉鎖等,0,2026-02-20,2026-02-16,特定非営利活動法人かごしま不登校ひきこもり支援ひまわり,,その他の設立登記法人,鹿児島県,日置市,吹上町永吉３４５２番地１,,46,216,8993221,,,2026-02-16,清算の結了等,,,2017-10-12,1,,,,,カゴシマフトウコウヒキコモリシエンヒマワリ,0
1391,6380001031983,登記記録の閉鎖等,0,2026-02-20,2026-02-17,株式会社エディソンホールディングス,,株式会社,福島県,郡山市,堤下町１３番８号,,07,203,9638878,,,2026-02-17,合併による解散等,8380001004673,令和８年１月２４日福島県郡山市堤下町１３番８号株式会社エディソン（8380001004673）に合併し解散,2021-07-01,1,,,,,エディソンホールディングス,0
1412,7010001034171,登記記録の閉鎖等,0,2026-02-20,2026-02-02,株式会社東京さくら印刷,,株式会社,東京都,千代田区,岩本町３丁目１０番地７号,,13,101,1010032,,,2026-02-02,清算の結了等,,,2015-10-05,1,,,,,トウキョウサクラインサツ,0
1429,7010003029822,登記記録の閉鎖等,0,2026-02-20,2026-02-05,日光ベル合同会社２,,合同会社,東京都,千代田区,丸の内１丁目４番１号東京共同会計事務所内,,13,101,1000005,,,2026-02-05,清算の結了等,,,2019-05-16,1,,,,,ニッコウベルニ,0
1442,7010401169328,登記記録の閉鎖等,0,2026-02-20,2026-01-27,Ｖａｌｒｉｇｈｔ　Ｇｒｏｗｔｈ　Ｃａｐｉｔａｌ株式会社,,株式会社,東京都,港区,白金台３丁目１６番８－４０９号,,13,103,1080071,,,2026-01-27,清算の結了等,,,2022-09-09,1,,,,,ヴァロライトグロースキャピタル,0
1462,7010702014959,登記記録の閉鎖等,0,2026-02-20,2026-02-16,有限会社ヒュージ・リバーサイド,,有限会社,東京都,品川区,東品川３丁目２３－９田島ビル３０１,,13,109,1400002,,,2026-02-16,清算の結了等,,,2015-10-05,1,,,,,ヒュージリバーサイド,0
1475,7011001114558,登記記録の閉鎖等,0,2026-02-20,2026-01-28,株式会社ＴＩＭＥ　ＦＯＲ　ＩＮＮＯＶＡＴＩＯＮ,,株式会社,東京都,渋谷区,神宮前２丁目１３番１８号,,13,113,1500001,,,2026-01-28,清算の結了等,,,2017-01-30,1,,,,,タイムフォーイノベーション,0
1488,7011203003419,登記記録の閉鎖等,0,2026-02-20,2026-02-09,合同会社ＢＯＯＳＴＥＲ,,合同会社,東京都,世田谷区,太子堂１丁目３－３６ダイナシティ三宿５０７,,13,112,1540004,,,2026-02-09,清算の結了等,,,2020-11-04,1,,,,,ブースター,0
1490,7011502004984,登記記録の閉鎖等,0,2026-02-20,2026-02-18,有限会社平野工務店,,有限会社,東京都,北区,中十条１丁目１６番１７号,,13,117,1140032,,,2026-02-18,清算の結了等,,,2015-10-05,1,,,,,ヒラノコウムテン,0
1516,7030002063440,登記記録の閉鎖等,0,2026-02-20,2026-02-12,有限会社デンキのヤマザキ,,有限会社,埼玉県,富士見市,水谷東２丁目５７番６号,,11,235,3540013,,,2026-02-12,清算の結了等,,,2015-10-05,1,,,,,デンキノヤマザキ,0
1519,7030003022684,登記記録の閉鎖等,0,2026-02-20,2026-02-12,合同会社ＣＯＣＯ・サロン,,合同会社,埼玉県,所沢市,若狭４丁目２５０７番地の３,,11,208,3591151,,,2026-02-12,清算の結了等,,,2023-10-03,1,,,,,ココサロン,0
1520,7030003026826,登記記録の閉鎖等,0,2026-02-20,2026-02-02,恵洋合同会社,,合同会社,埼玉県,東松山市,若松町２丁目５－１１,,11,212,3550037,,,2026-02-02,清算の結了等,,,2025-05-23,1,,,,,ケイヨウ,0
1533,7060003000761,登記記録の閉鎖等,0,2026-02-20,2026-02-18,合同会社庭孝,,合同会社,栃木県,大田原市,北大和久１２３番地,,09,210,3240016,,,2026-02-18,清算の結了等,,,2015-10-05,1,,,,,ニワタカ,0
1541,7080001017426,登記記録の閉鎖等,0,2026-02-20,2026-01-29,株式会社Ｍ＆Ｋ,,株式会社,東京都,中央区,銀座２丁目８番１９号銀座ａビル,,13,102,1040061,,,2026-01-29,清算の結了等,,,2015-10-05,1,,,,,,0
1546,7080401003249,登記記録の閉鎖等,0,2026-02-20,2026-02-19,株式会社ティー・アール・シー,,株式会社,静岡県,浜松市中央区,材木町３８番地,,22,138,4350021,,,2026-02-19,清算の結了等,,,2015-10-05,1,,,,,ティーアールシー,0
1547,7080401005369,登記記録の閉鎖等,0,2026-02-20,2026-02-16,株式会社ムトウクレジット,,株式会社,静岡県,浜松市中央区,佐藤２丁目２４番１号,,22,138,4300807,,,2026-02-16,清算の結了等,,,2015-10-05,1,,,,,ムトウクレジット,0
1556,7110001008479,登記記録の閉鎖等,0,2026-02-20,2026-02-16,株式会社東江総業,,株式会社,新潟県,新潟市東区,向陽１丁目１４５番地１３,,15,102,9500011,,,2026-02-16,清算の結了等,,,2015-10-05,1,,,,,トウコウソウギョウ,0
1559,7110005000556,登記記録の閉鎖等,0,2026-02-20,2026-02-13,全新潟タクシー労働組合都分会,,その他の設立登記法人,新潟県,新潟市中央区,下所島２丁目２番１２号,,15,103,9500991,,,2026-02-13,清算の結了等,,,2015-10-05,1,,,,,ゼンニイガタタクシートブンカイ,0
1581,7120903003130,登記記録の閉鎖等,0,2026-02-20,2026-02-17,合同会社いしがき,,合同会社,大阪府,摂津市,一津屋３丁目９番４号,,27,224,5660043,,,2026-02-17,清算の結了等,,,2020-02-19,1,,,,,イシガキ,0
1588,7140002053133,登記記録の閉鎖等,0,2026-02-20,2026-02-18,竹國木材有限会社,,有限会社,兵庫県,神崎郡神河町,岩屋６４９番地,,28,446,6792405,,,2026-02-18,清算の結了等,,,2015-10-05,1,,,,,タケクニモクザイ,0
1590,7160001007393,登記記録の閉鎖等,0,2026-02-20,2026-02-13,株式会社メイコー,,株式会社,滋賀県,大津市,大門通３番１０号,,25,201,5200033,,,2026-02-13,清算の結了等,,,2015-10-05,1,,,,,メイコー,0
1603,7180005018451,登記記録の閉鎖等,0,2026-02-20,2026-02-09,一般社団法人みらい教育総研,,その他の設立登記法人,愛知県,津島市,東柳原町５丁目２３番地３,,23,208,4960045,,,2026-02-09,清算の結了等,,,2019-10-04,1,,,,,ミライキョウイクソウケン,0
1608,7200001010962,登記記録の閉鎖等,0,2026-02-20,2026-02-17,岐阜鋼業株式会社,,株式会社,岐阜県,羽島郡岐南町,平成１丁目６８番地,,21,302,5016013,,,2026-02-17,合併による解散等,6010401190598,令和８年１月３１日東京都港区浜松町二丁目２番１５号浜松町ダイヤビル２階岐阜鋼業株式会社（6010401190598）に合併し解散,2015-10-05,1,,,,,,0
1612,7200005001099,登記記録の閉鎖等,0,2026-02-20,2026-02-13,岐阜県消防設備協同組合,,その他の設立登記法人,岐阜県,岐阜市,茶屋新田１丁目５７番地の８,,21,201,5016135,,,2026-02-13,清算の結了等,,,2015-10-05,1,,,,,ギフケンショウボウセツビ,0
1613,7200005009506,登記記録の閉鎖等,0,2026-02-20,2026-02-16,医療法人守生会,,その他の設立登記法人,岐阜県,中津川市,福岡９３９番地の１６,,21,206,5080203,,,2026-02-16,清算の結了等,,,2015-10-05,1,,,,,シュセイカイ,0
1619,7240002003813,登記記録の閉鎖等,0,2026-02-20,2026-02-17,有限会社カサハラ,,有限会社,広島県,広島市中区,吉島東１丁目２４番２９号,,34,101,7300822,,,2026-02-17,合併による解散等,6240001002206,令和８年１月１日広島市中区吉島東一丁目２４番２９号笠原木材株式会社（6240001002206）に合併し解散,2015-10-05,1,,,,,カサハラ,0
1625,7290001037642,登記記録の閉鎖等,0,2026-02-20,2026-02-16,株式会社身揺気,,株式会社,福岡県,古賀市,米多比１２５１番地１４,,40,223,8113123,,,2026-02-16,清算の結了等,,,2015-10-05,1,,,,,ミユキ,0
1644,7330002021236,登記記録の閉鎖等,0,2026-02-20,2026-02-13,有限会社武藤食品,,有限会社,熊本県,玉名市,岩崎１１７４番１,,43,206,8650016,,,2026-02-13,清算の結了等,,,2015-10-05,1,,,,,ムトウショクヒン,0
1646,7340001022580,登記記録の閉鎖等,0,2026-02-20,2026-02-12,株式会社デイズ,,株式会社,鹿児島県,鹿児島市,鴨池新町２９番１２－１２号,,46,201,8900064,,,2026-02-12,清算の結了等,,,2020-01-21,1,,,,,デイズ,0
1649,7360001027933,登記記録の閉鎖等,0,2026-02-20,2026-02-18,株式会社ＳＴＡＮＤＳ,,株式会社,沖縄県,那覇市,泉崎１丁目３番１９号泉崎レンガビル,,47,201,9000021,,,2026-02-18,清算の結了等,,,2020-11-16,1,,,,,スタンズ,0
1651,7360003005796,登記記録の閉鎖等,0,2026-02-20,2026-02-17,農業生産法人合同会社宝,,合同会社,沖縄県,宮古島市,平良字西里９８１番地６,,47,214,9060012,,,2026-02-17,清算の結了等,,,2015-10-05,1,,,,,ノウギョウセイサンホウジンタカラ,0
1654,7380001011241,登記記録の閉鎖等,0,2026-02-20,2026-02-17,商品倉庫株式会社,,株式会社,福島県,須賀川市,諏訪町２４番地,,07,207,9620847,,,2026-02-17,清算の結了等,,,2015-10-05,1,,,,,ショウヒンソウコ,0
1662,7430001012952,登記記録の閉鎖等,0,2026-02-20,2026-02-19,株式会社ニユーバツクアイ,,株式会社,北海道,札幌市東区,北十八条東１３丁目１番５号,,01,103,0650018,,,2026-02-19,清算の結了等,,,2015-10-05,1,,,,,,0
1668,7440002004700,登記記録の閉鎖等,0,2026-02-20,2026-02-16,有限会社水島工務店,,有限会社,北海道,函館市,鍛治１丁目３２番１５号,,01,202,0410852,,,2026-02-16,清算の結了等,,,2015-10-05,1,,,,,ミズシマコウムテン,0
1677,8010001225629,登記記録の閉鎖等,0,2026-02-20,2026-02-02,インフロニアデジタルソリューション株式会社,,株式会社,東京都,千代田区,富士見２丁目１０番２号,,13,101,1020071,,,2026-02-02,合併による解散等,3010001221541,令和８年１月３１日東京都千代田区富士見二丁目１０番２号インフロニア・ホールディングス株式会社（3010001221541）に合併し解散,2022-04-06,1,,,,,インフロニアデジタルソリューション,0
1686,8010003028765,登記記録の閉鎖等,0,2026-02-20,2026-01-30,Ｖａｒｉｓｃａｌｅ　Ｓｅｒｖｉｃｅｓ＆Ｅｎｇｉｎｅｅｒｉｎｇ　Ｊａｐａｎ合同会社,,合同会社,東京都,千代田区,霞が関３丁目２番６号東京倶楽部ビルディング１１階,,13,101,1000013,,,2026-01-30,清算の結了等,,,2018-11-21,1,,,,,バリスケールサービシズアンドエンジニアリングジャパン,0
1703,8010403018523,登記記録の閉鎖等,0,2026-02-20,2026-01-23,たけうち合同会社,,合同会社,東京都,港区,東麻布２丁目１２番４号,,13,103,1060044,,,2026-01-23,清算の結了等,,,2018-05-02,1,,,,,タケウチ,0
1715,8011001039531,登記記録の閉鎖等,0,2026-02-20,2026-01-29,株式会社ミック,,株式会社,東京都,文京区,本郷３丁目４４番地７号,,13,105,1130033,,,2026-01-29,清算の結了等,,,2015-10-05,1,,,,,ミック,0
1729,8011101027320,登記記録の閉鎖等,0,2026-02-20,2026-01-22,株式会社水道アセットサービス,,株式会社,東京都,港区,芝５丁目３４番２号,,13,103,1080014,,,2026-01-22,合併による解散等,8040001126345,令和８年１月１０日東京都港区芝五丁目３４番２号株式会社スカイアクアサービス（8040001126345）に合併し解散,2015-10-05,1,,,,,スイドウアセットサービス,0
1747,8012401024040,登記記録の閉鎖等,0,2026-02-20,2026-02-16,ケアフードサービス株式会社,,株式会社,東京都,府中市,東芝町１番地の６４,,13,206,1830043,,,2026-02-16,清算の結了等,,,2015-10-05,1,,,,,ケアフードサービス,0
1778,8021003009928,登記記録の閉鎖等,0,2026-02-20,2026-01-30,ミヤコフーズ合同会社,,合同会社,神奈川県,相模原市緑区,大島３１０２番地１,,14,151,2520135,,,2026-01-30,清算の結了等,,,2020-12-09,1,,,,,ミヤコフーズ,0
1781,8030001084627,登記記録の閉鎖等,0,2026-02-20,2026-02-18,株式会社精美堂,,株式会社,埼玉県,熊谷市,江南中央１丁目７番地２,,11,202,3600114,,,2026-02-18,合併による解散等,8050001050379,令和８年１月３１日東京都港区赤坂四丁目５番２１号バルミー赤坂３１７号室メモリーテックつくば株式会社（8050001050379）に合併し解散,2015-10-05,1,,,,,セイビドウ,0
1788,8030002105019,登記記録の閉鎖等,0,2026-02-20,2026-02-16,有限会社津守木型製作所,,有限会社,埼玉県,川口市,元郷５丁目２４番１５号,,11,203,3320011,,,2026-02-16,清算の結了等,,,2015-10-05,1,,,,,ツモリキガタセイサクショ,0
1789,8030002105225,登記記録の閉鎖等,0,2026-02-20,2026-02-13,有限会社東星電機,,有限会社,埼玉県,川口市,大字東内野６０４番地３,,11,203,3330821,,,2026-02-13,清算の結了等,,,2015-10-05,1,,,,,トウセイデンキ,0
1802,8040005019405,登記記録の閉鎖等,0,2026-02-20,2026-01-26,ＮＰＯ法人線維筋痛症ちば友の会,,その他の設立登記法人,千葉県,千葉市中央区,都町１０３７番地８,,12,101,2600001,,,2026-01-26,清算の結了等,,,2017-01-25,1,,,,,センイキンツウショウチバトモノカイ,0
1812,8060005010270,登記記録の閉鎖等,0,2026-02-20,2026-01-30,一般社団法人栃木スカイモビリティネットワーク,,その他の設立登記法人,栃木県,宇都宮市,中央３丁目１－４栃木県産業会館３階宇都宮ベンチャーズ内,,09,201,3200806,,,2026-01-30,清算の結了等,,,2024-11-15,1,,,,,トチギスカイモビリティネットワーク,0
1817,8080403003816,登記記録の閉鎖等,0,2026-02-20,2026-02-19,ロコモ合同会社,,合同会社,静岡県,浜松市中央区,大平台４丁目１番１２号ＳＡ２０１,,22,138,4328068,,,2026-02-19,清算の結了等,,,2019-03-06,1,,,,,ロコモ,0
1829,8120001161342,登記記録の閉鎖等,0,2026-02-20,2026-02-18,株式会社アクシアプラス,,株式会社,大阪府,大阪市北区,本庄西１丁目８番１２号,,27,127,5310073,,,2026-02-18,清算の結了等,,,2015-10-05,1,,,,,アクシアプラス,0
1830,8120001232944,登記記録の閉鎖等,0,2026-02-20,2026-02-18,株式会社ＩＮＦＩＮＩＴＹ,,株式会社,大阪府,大阪市西区,北堀江２丁目４番１１号サンライズビル５階,,27,106,5500014,,,2026-02-18,清算の結了等,,,2020-11-11,1,,,,,インフィニティー,0
1840,8120101010135,登記記録の閉鎖等,0,2026-02-20,2026-02-09,寿敷物株式会社,,株式会社,大阪府,堺市中区,深阪６丁３番７号,,27,142,5998253,,,2026-02-09,清算の結了等,,,2015-10-05,1,,,,,,0
1843,8120102024241,登記記録の閉鎖等,0,2026-02-20,2026-02-09,有限会社岩本工作所,,有限会社,大阪府,泉南郡田尻町,吉見９３番地５,,27,362,5980092,,,2026-02-09,清算の結了等,,,2015-10-05,1,,,,,イワモトコウサクショ,0
1845,8120901042889,登記記録の閉鎖等,0,2026-02-20,2026-02-17,Ｄｉｖａ株式会社,,株式会社,大阪府,豊中市,上野坂１丁目１０番３５－１０５号,,27,203,5600012,,,2026-02-17,清算の結了等,,,2020-06-23,1,,,,,ディーヴァ,0
1847,8122001025345,登記記録の閉鎖等,0,2026-02-20,2026-02-06,株式会社ネクスト,,株式会社,大阪府,八尾市,垣内１丁目１７９番地,,27,212,5810881,,,2026-02-06,清算の結了等,,,2015-10-05,1,,,,,ネクスト,0
1854,8140001067133,登記記録の閉鎖等,0,2026-02-20,2026-02-10,株式会社マイルドタイム,,株式会社,兵庫県,三田市,けやき台６丁目１９番地８,,28,219,6691321,,,2026-02-10,清算の結了等,,,2015-10-05,1,,,,,マイルドタイム,0
1855,8140001074889,登記記録の閉鎖等,0,2026-02-20,2026-02-13,株式会社ケイユーエス,,株式会社,兵庫県,加東市,社７７番地３５,,28,228,6731431,,,2026-02-13,清算の結了等,,,2015-10-05,1,,,,,ケイユーエス,0
1866,8170005004633,登記記録の閉鎖等,0,2026-02-20,2026-02-13,高野町商業協同組合,,その他の設立登記法人,和歌山県,伊都郡高野町,大字高野山７８１番地,,30,344,6480211,,,2026-02-13,清算の結了等,,,2015-10-05,1,,,,,コウヤチョウショウギョウ,0
1871,8180002037189,登記記録の閉鎖等,0,2026-02-20,2026-02-10,有限会社飛騨牛乳城北販売店,,有限会社,愛知県,名古屋市西区,城北町２丁目８５番地,,23,104,4510023,,,2026-02-10,清算の結了等,,,2015-10-05,1,,,,,ヒダギュウニュウジョウホクハンバイテン,0
1874,8180302011629,登記記録の閉鎖等,0,2026-02-20,2026-02-16,有限会社カフェ・プリムラ,,有限会社,愛知県,豊橋市,佐藤１丁目１３番地の１７,,23,201,4400853,,,2026-02-16,清算の結了等,,,2015-10-05,1,,,,,カフェプリムラ,0
1877,8190001028502,登記記録の閉鎖等,0,2026-02-20,2026-02-16,丸正商事株式会社,,株式会社,三重県,伊勢市,朝熊町４５８０番地２,,24,203,5160021,,,2026-02-16,清算の結了等,,,2021-07-12,1,,,,,マルセイショウジ,0
1907,8340002018552,登記記録の閉鎖等,0,2026-02-20,2026-02-16,エクセレント指宿有限会社,,有限会社,鹿児島県,指宿市,湯の浜５丁目２７番１４号,,46,210,8910406,,,2026-02-16,清算の結了等,,,2015-10-05,1,,,,,,0
1908,8350002009385,登記記録の閉鎖等,0,2026-02-20,2026-02-16,有限会社聖陵酒店,,有限会社,宮崎県,西都市,聖陵町１丁目９４番地,,45,208,8810015,,,2026-02-16,清算の結了等,,,2015-10-05,1,,,,,セイリョウサケテン,0
1915,8370002009375,登記記録の閉鎖等,0,2026-02-20,2026-02-16,有限会社アンジェリーナ,,有限会社,宮城県,仙台市青葉区,国分町３丁目１１番１３－５０２号,,04,101,9800803,,,2026-02-16,清算の結了等,,,2015-10-05,1,,,,,アンジェリーナ,0
1917,8380002032888,登記記録の閉鎖等,0,2026-02-20,2026-02-17,有限会社ぴゅあごーるど,,有限会社,福島県,会津若松市,町北町大字上荒久田字古屋敷３９番地,,07,202,9650053,,,2026-02-17,清算の結了等,,,2015-10-05,1,,,,,ピュアゴールド,0
1922,8400502000904,登記記録の閉鎖等,0,2026-02-20,2026-02-12,有限会社丸健ストアー,,有限会社,岩手県,一関市,花泉町永井字粒乱田６６番地の３,,03,209,0293206,,,2026-02-12,清算の結了等,,,2015-10-05,1,,,,,マルケンストアー,0
1927,8430001063706,登記記録の閉鎖等,0,2026-02-20,2026-02-16,株式会社道央建産,,株式会社,北海道,札幌市豊平区,月寒東五条９丁目５番１３号,,01,105,0620055,,,2026-02-16,清算の結了等,,,2015-10-05,1,,,,,ドウオウケンサン,0
1966,9010005037301,登記記録の閉鎖等,0,2026-02-20,2026-02-17,一般社団法人相続土地管財,,その他の設立登記法人,東京都,中央区,銀座１丁目１２番４号Ｎ＆ＥＢＬＤ．６Ｆ,,13,102,1040061,,,2026-02-17,清算の結了等,,,2023-09-22,1,,,,,ソウゾクトチカンザイ,0
1975,9010401176108,登記記録の閉鎖等,0,2026-02-20,2026-01-29,ダイオクト株式会社,,株式会社,東京都,港区,南青山４丁目１８番１１号フォレストヒルズイーストウィング２Ｆ,,13,103,1070062,,,2026-01-29,清算の結了等,,,2023-08-03,1,,,,,ダイオクト,0
1980,9010501032680,登記記録の閉鎖等,0,2026-02-20,2026-01-29,株式会社Ｂｅ－Ｈｏｍｅ,,株式会社,東京都,千代田区,神田小川町２丁目１４番地１０千葉ビル２階,,13,101,1010052,,,2026-01-29,清算の結了等,,,2015-10-05,1,,,,,ビーホーム,0
1986,9010802007340,登記記録の閉鎖等,0,2026-02-20,2026-02-09,有限会社樹脂工芸白兔,00052363,有限会社,東京都,大田区,大森西１丁目１９番１５号,,13,111,1430015,,,2026-02-09,清算の結了等,,,2015-10-05,1,,,,,ジュシコウゲイハクト,0
1990,9011001108277,登記記録の閉鎖等,0,2026-02-20,2026-02-16,株式会社システム・アド・メディア,,株式会社,北海道,札幌市北区,北七条西４丁目１番１号トーカン札幌第一キャステール６０７,,01,102,0600807,,,2026-02-16,清算の結了等,,,2015-11-18,1,,,,,システムアドメディア,0
1991,9011001122609,登記記録の閉鎖等,0,2026-02-20,2026-01-28,株式会社Ｃｏｏｌａｎｇａｔｔａ,,株式会社,東京都,渋谷区,代々木１丁目４５番４号,,13,113,1510053,,,2026-01-28,清算の結了等,,,2018-06-07,1,,,,,クーランガッタ,0
1998,9011101109472,登記記録の閉鎖等,0,2026-02-20,2026-01-28,株式会社スリーシープ,,株式会社,東京都,新宿区,富久町８番１６号日神パレステージ市谷富久町６０３,,13,104,1620067,,,2026-01-28,清算の結了等,,,2024-11-19,1,,,,,スリーシープ,0
2002,9011301030536,登記記録の閉鎖等,0,2026-02-20,2026-02-12,株式会社未来,,株式会社,東京都,杉並区,和泉３丁目１４番１６号,,13,115,1680063,,,2026-02-12,清算の結了等,,,2025-04-25,1,,,,,ミルク,0
2003,9011302009496,登記記録の閉鎖等,0,2026-02-20,2026-02-12,有限会社山清銘木店,00054569,有限会社,東京都,杉並区,成田東５丁目３５番１２号,,13,115,1660015,,,2026-02-12,清算の結了等,,,2015-10-05,1,,,,,ヤマセイメイモクテン,0
2009,9011601006731,登記記録の閉鎖等,0,2026-02-20,2026-02-18,株式会社都住研,,株式会社,東京都,練馬区,旭丘１丁目６５番１３号,,13,120,1760005,,,2026-02-18,清算の結了等,,,2015-10-05,1,,,,,ミヤコジュウケン,0
2013,9011801025795,登記記録の閉鎖等,0,2026-02-20,2026-02-18,古芸社株式会社,,株式会社,東京都,足立区,青井２丁目２４番５号コートアオイ１０３号室,,13,121,1200012,,,2026-02-18,清算の結了等,,,2015-10-05,1,,,,,コゲイシャ,0
2020,9013301049985,登記記録の閉鎖等,0,2026-02-20,2026-02-18,株式会社セゾンペット,,株式会社,東京都,豊島区,東池袋３丁目１番１号,,13,116,1700013,,,2026-02-18,合併による解散等,3011001064443,令和８年１月１日東京都渋谷区代々木五丁目５７－８パークサイド参宮橋１階株式会社ホスピタリティー＆パートナーズ（3011001064443）に合併し解散,2022-11-25,1,,,,,セゾンペット,0
2028,9020002001837,登記記録の閉鎖等,0,2026-02-20,2026-02-05,有限会社日興化成工業,,有限会社,神奈川県,横浜市瀬谷区,本郷１丁目２番地の４,,14,114,2460015,,,2026-02-05,清算の結了等,,,2015-10-05,1,,,,,ニッコウカセイコウギョウ,0
2032,9021002029166,登記記録の閉鎖等,0,2026-02-20,2026-01-28,有限会社益満製作所,,有限会社,神奈川県,相模原市緑区,青山３０１８番地４,,14,151,2520156,,,2026-01-28,清算の結了等,,,2015-10-05,1,,,,,,0
2047,9030002093931,登記記録の閉鎖等,0,2026-02-20,2026-02-13,有限会社梅乃里,,有限会社,埼玉県,入間郡越生町,大字津久根２０８番地の１,,11,327,3500405,,,2026-02-13,清算の結了等,,,2015-10-05,1,,,,,ウメノサト,0
2055,9040002001686,登記記録の閉鎖等,0,2026-02-20,2026-01-27,有限会社えんが堂,,有限会社,千葉県,茂原市,緑ケ丘１丁目５０番地１８,,12,210,2970065,,,2026-01-27,清算の結了等,,,2015-10-05,1,,,,,エンガドウ,0
2057,9040002069336,登記記録の閉鎖等,0,2026-02-20,2026-01-27,有限会社アドバンステイスト,,有限会社,千葉県,木更津市,清川２丁目２０番１２号,,12,206,2920051,,,2026-01-27,清算の結了等,,,2015-10-05,1,,,,,アドバンステイスト,0
2059,9050001014812,登記記録の閉鎖等,0,2026-02-20,2026-02-17,株式会社オオノ,,株式会社,茨城県,猿島郡境町,大字百戸３１９番地１,,08,546,3060423,,,2026-02-17,清算の結了等,,,2015-10-05,1,,,,,オオノ,0
2084,9120001209272,登記記録の閉鎖等,0,2026-02-20,2026-02-18,株式会社マッチアップＤＡ,,株式会社,大阪府,大阪市西淀川区,中島１丁目１１番１６号,,27,113,5550041,,,2026-02-18,清算の結了等,,,2017-11-06,1,,,,,マッチアップディーエー,0
2102,9122001024866,登記記録の閉鎖等,0,2026-02-20,2026-02-16,株式会社センショー,,株式会社,大阪府,東大阪市,新池島町３丁目７番６号,,27,227,5798065,,,2026-02-16,清算の結了等,,,2015-10-05,1,,,,,センショー,0
2103,9122001032935,登記記録の閉鎖等,0,2026-02-20,2026-02-12,株式会社エンド－医療企画,,株式会社,大阪府,東大阪市,西堤１丁目２番２４号,,27,227,5770042,,,2026-02-12,清算の結了等,,,2019-09-09,1,,,,,エンドーイリョウキカク,0
2107,9130001071300,登記記録の閉鎖等,0,2026-02-20,2026-02-17,ＴＹコーポレーション株式会社,,株式会社,東京都,渋谷区,代々木３丁目３３番９号ウエストアベニュー代々木４０２号室,,13,113,1510053,,,2026-02-17,合併による解散等,5011101061289,令和８年２月１日東京都千代田区神田三崎町三丁目６番１３号共立不動産株式会社（5011101061289）に合併し解散,2022-03-07,1,,,,,ティーワイコーポレーション,0
2114,9150001023745,登記記録の閉鎖等,0,2026-02-20,2026-02-19,株式会社たたみ工房たなか,,株式会社,奈良県,宇陀市,室生龍口１３８番地,,29,212,6330311,,,2026-02-19,清算の結了等,,,2020-05-19,1,,,,,タタミコウボウタナカ,0
2132,9200005002599,登記記録の閉鎖等,0,2026-02-20,2026-02-17,税理士法人トライ,,その他の設立登記法人,岐阜県,岐阜市,菅生１丁目５番１５号,,21,201,5020914,,,2026-02-17,清算の結了等,,,2015-10-05,1,,,,,トライ,0
2133,9210001003303,登記記録の閉鎖等,0,2026-02-20,2026-02-17,福井不動産株式会社,,株式会社,福井県,福井市,松本１丁目７番１２号,,18,201,9100003,,,2026-02-17,清算の結了等,,,2015-10-05,1,,,,,フクイフドウサン,0
2134,9210002009274,登記記録の閉鎖等,0,2026-02-20,2026-02-16,有限会社オザワビルディング,,有限会社,福井県,福井市,大宮１丁目６番１７号,,18,201,9100016,,,2026-02-16,清算の結了等,,,2015-10-05,1,,,,,オザワビルディング,0
2136,9230001016212,登記記録の閉鎖等,0,2026-02-20,2026-02-12,誠信株式会社,,株式会社,長野県,諏訪郡富士見町,富士見１１４９２番地１,,20,362,3990211,,,2026-02-12,清算の結了等,,,2015-12-07,1,,,,,セイシン,0
2166,9320002017753,登記記録の閉鎖等,0,2026-02-20,2026-02-17,有限会社山下紙工所,,有限会社,大分県,佐伯市,大字石間浦７３５番地３,,44,205,8760005,,,2026-02-17,清算の結了等,,,2015-10-05,1,,,,,ヤマシタシコウショ,0
2179,9380002001818,登記記録の閉鎖等,0,2026-02-20,2026-02-16,有限会社すがい商店,,有限会社,福島県,福島市,仲間町１番１２号,,07,201,9608105,,,2026-02-16,清算の結了等,,,2015-10-05,1,,,,,スガイショウテン,0
