sequenceNumber,corporateNumber,process,correct,updateDate,changeDate,name,nameImageId,kind,prefectureName,cityName,streetNumber,addressImageId,prefectureCode,cityCode,postCode,addressOutside,addressOutsideImageId,closeDate,closeCause,successorCorporateNumber,changeCause,assignmentDate,latest,enName,enPrefectureName,enCityName,enAddressOutside,furigana,hihyoji
10,1010001235725,新規,0,2023-06-01,2023-06-01,株式会社ＤＡＩＫＩＣＨＩ,,株式会社,東京都,中央区,築地７丁目３番１０－３０７号,,13,102,1040045,,,,,,,2023-06-01,1,,,,,ダイキチ,0
13,1010003040644,新規,0,2023-06-01,2023-06-01,ＵＰ‐ＡＲＥＡ　ＪＡＰＡＮ合同会社,,合同会社,東京都,中央区,銀座１丁目２２番１１号銀座大竹ビジデンス２Ｆ,,13,102,1040061,,,,,,,2023-06-01,1,,,,,アップエリアジャパン,0
30,1010401174317,新規,0,2023-06-01,2023-06-01,株式会社エコスタ,,株式会社,東京都,港区,海岸１丁目４番２２号ＳＮビル９Ｆ,,13,103,1050022,,,,,,,2023-06-01,1,,,,,エコスタ,0
31,1010401174721,新規,0,2023-06-01,2023-06-01,三つ葉堂株式会社,,株式会社,東京都,港区,白金台２丁目２６番９号,,13,103,1080071,,,,,,,2023-06-01,1,,,,,ミツバドウ,0
33,1010405022158,新規,0,2023-06-01,2023-06-01,特定非営利活動法人Ｊｏｙ　Ｓｈｏｅｓ,,その他の設立登記法人,東京都,港区,赤坂９丁目６番３０－４１９号,,13,103,1070052,,,,,,,2023-06-01,1,,,,,ジョイシューズ,0
43,1011001154774,新規,0,2023-06-01,2023-06-01,株式会社ライフパートナー,,株式会社,東京都,渋谷区,道玄坂１丁目１０番８号渋谷道玄坂東急ビル２Ｆ－Ｃ,,13,113,1500043,,,,,,,2023-06-01,1,,,,,ライフパートナー,0
51,1011103013102,新規,0,2023-06-01,2023-06-01,合同会社ストックパートナー,,合同会社,東京都,新宿区,新宿１丁目３６－２新宿第七葉山ビル３Ｆ,,13,104,1600022,,,,,,,2023-06-01,1,,,,,ストックパートナー,0
55,1011601026860,新規,0,2023-06-01,2023-06-01,株式会社ケーダッシュ,,株式会社,東京都,練馬区,石神井町３丁目２５番２１号,,13,120,1770041,,,,,,,2023-06-01,1,,,,,ケーダッシュ,0
59,1011701026281,新規,0,2023-06-01,2023-06-01,株式会社グローバルアイティー,,株式会社,東京都,江戸川区,北葛西１丁目１３番２１号,,13,123,1340081,,,,,,,2023-06-01,1,,,,,グローバルアイティー,0
64,1012401040580,新規,0,2023-06-01,2023-06-01,株式会社ＧＲＩＤ＆ＣＯＮＳＵＬＴＩＮＧ,,株式会社,東京都,府中市,朝日町２丁目３番地の１、５号棟３０６,,13,206,1830003,,,,,,,2023-06-01,1,,,,,グリッドアンドコンサルティング,0
69,1020001151806,新規,0,2023-06-01,2023-06-01,株式会社ライタス,,株式会社,神奈川県,横浜市神奈川区,台町１１番地３０台ビル１４,,14,102,2210834,,,,,,,2023-06-01,1,,,,,ライタス,0
70,1020001151822,新規,0,2023-06-01,2023-06-01,株式会社ＬＨＹ,,株式会社,神奈川県,横浜市中区,南仲通３丁目３０番地１スギヤマビル３Ａ号室,,14,104,2310006,,,,,,,2023-06-01,1,,,,,エルエイチワイ,0
72,1020003023978,新規,0,2023-06-01,2023-06-01,マセット合同会社,,合同会社,神奈川県,横浜市都筑区,東山田４丁目５番１－８０４号,,14,118,2240023,,,,,,,2023-06-01,1,,,,,マセット,0
79,1030001154080,新規,0,2023-06-01,2023-06-01,瀧洋株式会社,,株式会社,埼玉県,さいたま市岩槻区,大字大口２５７－１,,11,110,3390013,,,,,,,2023-06-01,1,,,,,タキヨウ,0
80,1030001154188,新規,0,2023-06-01,2023-06-01,株式会社平山興業,,株式会社,埼玉県,さいたま市中央区,本町西４丁目１８番７号,,11,105,3380004,,,,,,,2023-06-01,1,,,,,ヒラヤマコウギョウ,0
96,1040005022027,新規,0,2023-06-01,2023-06-01,一般社団法人首都圏バックオフィス支援協会,,その他の設立登記法人,千葉県,千葉市美浜区,中瀬１丁目３番地幕張テクノガーデンＣＢ棟３階,,12,106,2610023,,,,,,,2023-06-01,1,,,,,シュトケンバックオフィスシエンキョウカイ,0
108,1120001255332,新規,0,2023-06-01,2023-06-01,同栄観光株式会社,,株式会社,大阪府,大阪市北区,兎我野町１０番８号平田第二レジャービル４０７号室,,27,127,5300056,,,,,,,2023-06-01,1,,,,,ドウエイカンコウ,0
113,1120103005247,新規,0,2023-06-01,2023-06-01,合同会社Ｎｏｗ,,合同会社,大阪府,堺市堺区,新在家町西１丁１番１０－１００２号,,27,141,5900969,,,,,,,2023-06-01,1,,,,,ナウ,0
121,1140001130319,新規,0,2023-06-01,2023-06-01,株式会社クワトロエンタープライズ,,株式会社,兵庫県,姫路市,田寺東３丁目１２番１０号,,28,201,6700081,,,,,,,2023-06-01,1,,,,,クワトロエンタープライズ,0
122,1140001130335,新規,0,2023-06-01,2023-06-01,株式会社メイフラワーデイサービスセンター,,株式会社,兵庫県,加東市,屋度７３６番地２６２,,28,228,6731422,,,,,,,2023-06-01,1,,,,,メイフラワーデイサービスセンター,0
126,1160001025070,新規,0,2023-06-01,2023-06-01,株式会社こほくエナジー,,株式会社,滋賀県,長浜市,木之本町小山４６５番地,,25,203,5290413,,,,,,,2023-06-01,1,,,,,コホクエナジー,0
135,1180301037433,新規,0,2023-06-01,2023-06-01,ＤＯＯＫ株式会社,,株式会社,愛知県,安城市,東栄町６丁目８番地３,,23,212,4460007,,,,,,,2023-06-01,1,,,,,ドック,0
137,1190001030456,新規,0,2023-06-01,2023-06-01,ＨＡＡＤＨＩＹＡ　ＥＮＴＥＲＰＲＩＳＥＳ株式会社,,株式会社,三重県,鈴鹿市,桜島町５丁目５番地の１６たんぽぽの詞Ｉ１０２号室,00130681,24,207,5130817,,,,,,,2023-06-01,1,,,,,ハーディヤエンタープライジズ,0
141,1200001041352,新規,0,2023-06-01,2023-06-01,ｂｌｕｅ　ｈａｉｒ　ｌｉｆｅ　ｐｌａｃｅ株式会社,,株式会社,岐阜県,岐阜市,入舟町１丁目１８番地４銀座ビル１Ｆ,,21,201,5008152,,,,,,,2023-06-01,1,,,,,ブルーヘアーライフプレイス,0
148,1240001061594,新規,0,2023-06-01,2023-06-01,株式会社獣害サポート,,株式会社,広島県,広島市東区,福田１丁目５９３番地２１,,34,102,7320029,,,,,,,2023-06-01,1,,,,,ジュウガイサポート,0
150,1260001037989,新規,0,2023-06-01,2023-06-01,株式会社ジェニファー,,株式会社,岡山県,倉敷市,酒津２８０７番地１,,33,202,7100801,,,,,,,2023-06-01,1,,,,,ジェニファー,0
160,1290001101701,新規,0,2023-06-01,2023-06-01,株式会社九州キハン,,株式会社,福岡県,福岡市東区,松島４丁目４－３７,,40,131,8130062,,,,,,,2023-06-01,1,,,,,キュウシュウキハン,0
162,1290801029563,新規,0,2023-06-01,2023-06-01,株式会社ＲＥＶＩＶＥＲ,,株式会社,福岡県,豊前市,大字久松１０９‐５,,40,214,8280024,,,,,,,2023-06-01,1,,,,,リバイバー,0
174,1360001032088,新規,0,2023-06-01,2023-06-01,株式会社廃墟ＢＡＲ,,株式会社,沖縄県,那覇市,松尾１丁目２番４号,,47,201,9000014,,,,,,,2023-06-01,1,,,,,ハイキョバー,0
180,1380001033729,新規,0,2023-06-01,2023-06-01,株式会社香村アグア,,株式会社,福島県,伊達郡桑折町,大字万正寺字蛇屋敷１番地の１,,07,301,9691651,,,,,,,2023-06-01,1,,,,,コウソンアグア,0
192,1480001012111,新規,0,2023-06-01,2023-06-01,株式会社ＦＧホールディングス,,株式会社,徳島県,小松島市,赤石町４番１３号,,36,203,7730021,,,,,,,2023-06-01,1,,,,,エフジーホールディングス,0
198,1700150116763,新規,0,2023-06-01,2023-06-01,１ＺＰＲＥＳＳＯ　ＣＯ．，ＬＴＤ．,,外国会社等,,,,,,,,１２８　Ｙａｚｈｏｕ　Ｒｏａｄ，Ｔｕｃｈｅｎｇ　Ｄｉｓｔｒｉｃｔ，Ｎｅｗ　Ｔａｉｐｅｉ　Ｃｉｔｙ，Ｔａｉｗａｎ　２３６,,,,,,2023-06-01,1,,,,,アイカンシーイエヨウシエンゴンスー,0
199,1700150116771,新規,0,2023-06-01,2023-06-01,ｃｈｏｎｇｑｉｎｇｋｅｈｏｎｇａｎｆａｎｇｓｈｅｂｅｉｙｏｕｘｉａｎｇｏｎｇｓｉ,,外国会社等,,,,,,,,Ｎｏ．１８，Ｈｕａｎｄａｏ　Ｅａｓｔ　Ｒｏａｄ，Ｎａｎｐｅｎｇ　Ｓｔｒｅｅｔ　Ｒｏａｄ　Ｌｏｇｉｓｔｉｃｓ　Ｂａｓｅ，Ｂａｎａｎ　Ｄｉｓｔｒｉｃｔ，Ｃｈｏｎｇｑｉｎｇ,,,,,,2023-06-01,1,,,,,ジユケイカコウアンホウセツビテクノロジーユウゲンコウシ,0
200,1700150116788,新規,0,2023-06-01,2023-06-01,ＳＨＥＮＺＨＥＮＳＨＩＨＯＵＤＥＺＨＡＩＷＵＷＥＮＨＵＡＴＵＳＨＵＹＯＵＸＩＳＨＥＮＡＮＧＯＮＧＳＩ,,外国会社等,,,,,,,,ＲＯＯＭ　２０５，ｇｕｉｍｉａｏ　ｎｅｗ　ｖｉｌｌａｇｅ，ｙｕｅｇｕｉ　ｄｉｓｔｒｉｃｔ，ｙｕｅｈａｉ　ｓｔｒｅｅｔ，ｎａｎｓｈａｎ　ｄｉｓｔｒｉｃｔ，ｓｈｅｎｚｈｅｎ　ｃｉｔｙ,,,,,,2023-06-01,1,,,,,シンセンシコウトクタクモノブンカトシヨユウゲンコウシ,0
201,1700150116796,新規,0,2023-06-01,2023-06-01,Ｈａｎｇｚｈｏｕ　Ｔｏｙｏｕｎ　Ｔｅｃｈｎｏｌｏｇｙ　Ｃｏ．，Ｌｔｄ,,外国会社等,,,,,,,,Ｎｉｎｇｗｅｉ　Ｓｔｒｅｅｔ，Ｘｉａｏｓｈａｎ　Ｄｉｓｔｒｉｃｔ　１７ｔｈ　Ｆｌｏｏｒ，Ｂｕｉｌｄｉｎｇ　３，Ｙｕｊｉｎｔａｉ　Ｉｎｔｅｒｎａｔｉｏｎａｌ　Ｃｅｎｔｅｒ　Ｈａｎｇｚｈｏｕ　Ｚｈｅｊｉａｎｇ　３１１２００　ＣＮ,,,,,,2023-06-01,1,,,,,コウシユウトウヨウテクノロジーユウゲンコウシ,0
215,2010001235716,新規,0,2023-06-01,2023-06-01,ＡＭＶＩジャパン株式会社,,株式会社,東京都,中央区,日本橋３丁目１５番８号,,13,102,1030027,,,,,,,2023-06-01,1,,,,,エーエムブイアイジャパン,0
216,2010001235724,新規,0,2023-06-01,2023-06-01,株式会社Ｐｒｏｆｏｒｍｅｒ,,株式会社,東京都,中央区,日本橋浜町２丁目２５番２号,,13,102,1030007,,,,,,,2023-06-01,1,,,,,プロフォーマー,0
217,2010001235732,新規,0,2023-06-01,2023-06-01,株式会社ブルーオーシャン,,株式会社,東京都,神津島村,１０７０番地,,13,364,1000601,,,,,,,2023-06-01,1,,,,,ブルーオーシャン,0
227,2010005036763,新規,0,2023-06-01,2023-06-01,明るいジャパン一般社団法人,,その他の設立登記法人,東京都,千代田区,丸の内３丁目１番１号東京共同会計事務所内,,13,101,1000005,,,,,,,2023-06-01,1,,,,,アカルイジャパン,0
233,2010401174613,新規,0,2023-06-01,2023-06-01,株式会社ＣＨＩＬＬＥＲＳ,,株式会社,東京都,港区,西麻布２丁目１３番６号ケイズ西麻布７階,,13,103,1060031,,,,,,,2023-06-01,1,,,,,チラーズ,0
234,2010401174712,新規,0,2023-06-01,2023-06-01,コンクロス・プレミア株式会社,,株式会社,東京都,港区,赤坂２丁目１１番７号,,13,103,1070052,,,,,,,2023-06-01,1,,,,,コンクロスプレミア,0
235,2010401174720,新規,0,2023-06-01,2023-06-01,日屋良品株式会社,,株式会社,東京都,港区,白金台２丁目２６番９号,,13,103,1080071,,,,,,,2023-06-01,1,,,,,ヒヤリョウヒン,0
237,2010403030228,新規,0,2023-06-01,2023-06-01,合同会社Ｈａｌｅ,,合同会社,東京都,港区,西新橋１丁目２番９号メンターキャピタル税理士法人内,,13,103,1050003,,,,,,,2023-06-01,1,,,,,ハレ,0
239,2010501050532,新規,0,2023-06-01,2023-06-01,株式会社ＫＨ,,株式会社,東京都,台東区,東上野６丁目２９番５号,,13,106,1100015,,,,,,,2023-06-01,1,,,,,ケイエイチ,0
241,2010601063186,新規,0,2023-06-01,2023-06-01,株式会社ｂｏｏｋ　ｍａｎ,,株式会社,東京都,墨田区,両国３丁目２１番１４号両国有泉ビル３階,,13,107,1300026,,,,,,,2023-06-01,1,,,,,ブックマン,0
242,2010603010161,新規,0,2023-06-01,2023-06-01,Ｄａｉｎａｍ合同会社,,合同会社,東京都,墨田区,両国２丁目１７番１１－８０５号大起ビル,,13,107,1300026,,,,,,,2023-06-01,1,,,,,ダイナン,0
247,2010703006712,新規,0,2023-06-01,2023-06-01,合同会社ルーフ,,合同会社,東京都,品川区,小山４丁目１番１０－５０１号,,13,109,1420062,,,,,,,2023-06-01,1,,,,,ルーフ,0
256,2011001154749,新規,0,2023-06-01,2023-06-01,株式会社レゴリス,,株式会社,東京都,渋谷区,道玄坂１丁目１０番８号渋谷道玄坂東急ビル２Ｆ－Ｃ,,13,113,1500043,,,,,,,2023-06-01,1,,,,,レゴリス,0
260,2011003016922,新規,0,2023-06-01,2023-06-01,合同会社Ｔｒｉｇｇｅｒｓ＆Ｓｐａｒｋｓ,,合同会社,東京都,渋谷区,神宮前２丁目２番３９号ザ・コート神宮外苑６０５,,13,113,1500001,,,,,,,2023-06-01,1,,,,,トリガーズアンドスパークス,0
262,2011101103093,新規,0,2023-06-01,2023-06-01,株式会社つのつの,,株式会社,東京都,新宿区,西早稲田２丁目１２番５号,,13,104,1690051,,,,,,,2023-06-01,1,,,,,ツノツノ,0
270,2011503005623,新規,0,2023-06-01,2023-06-01,ＡＣＴＹ合同会社,,合同会社,東京都,北区,浮間３丁目２１番１９号,,13,117,1150051,,,,,,,2023-06-01,1,,,,,アクティ,0
274,2011805003275,新規,0,2023-06-01,2023-06-01,特定非営利活動法人臓器移植ドナー登録推進協議会,,その他の設立登記法人,東京都,足立区,平野１丁目１４番１１号,,13,121,1210076,,,,,,,2023-06-01,1,,,,,,0
277,2012701017674,新規,0,2023-06-01,2023-06-01,株式会社ハッピーリーズン,,株式会社,東京都,西東京市,芝久保町２丁目２１番２３号,,13,229,1880014,,,,,,,2023-06-01,1,,,,,ハッピーリーズン,0
290,2021001079193,新規,0,2023-06-01,2023-06-01,株式会社ウェルウィール,,株式会社,神奈川県,愛甲郡愛川町,半原１６８０番地の４,,14,401,2430307,,,,,,,2023-06-01,1,,,,,ウェルウィール,0
294,2030001154162,新規,0,2023-06-01,2023-06-01,みんなのいえ株式会社,,株式会社,埼玉県,新座市,東北２丁目３９番１０号ドゥーセット弐番館６Ｆ－１１号室,,11,230,3520001,,,,,,,2023-06-01,1,,,,,ミンナノイエ,0
295,2030001154179,新規,0,2023-06-01,2023-06-01,株式会社Ｃｈｅ,,株式会社,埼玉県,川口市,大字藤兵衛新田１１９番地ルミナーレ綾瀬１０１号,,11,203,3330803,,,,,,,2023-06-01,1,,,,,チェ,0
298,2030003021856,新規,0,2023-06-01,2023-06-01,合同会社フーセット,,合同会社,埼玉県,さいたま市岩槻区,美園東３丁目６番１号,,11,110,3390028,,,,,,,2023-06-01,1,,,,,フーセット,0
302,2040005022026,新規,0,2023-06-01,2023-06-01,一般社団法人日本ビジネスモデルアドバイザー協会,,その他の設立登記法人,千葉県,千葉市中央区,新町２２番地１新町５５ビル５階,,12,101,2600028,,,,,,,2023-06-01,1,,,,,ニホンビジネスモデルアドバイザーキョウカイ,0
324,2120001255273,新規,0,2023-06-01,2023-06-01,華卿株式会社,,株式会社,大阪府,大阪市生野区,生野西４丁目１２－３ハイツ西村１０５号室,,27,116,5440024,,,,,,,2023-06-01,1,,,,,カキョウ,0
325,2120001255298,新規,0,2023-06-01,2023-06-01,セブンリリーズコンサルティング株式会社,,株式会社,大阪府,大阪市中央区,南船場２丁目５番１３号心斎橋スポット２１－８０６号室,,27,128,5420081,,,,,,,2023-06-01,1,,,,,セブンリリーズコンサルティング,0
326,2120001255315,新規,0,2023-06-01,2023-06-01,信和鋼材株式会社,,株式会社,大阪府,大阪市住之江区,南港南１丁目１番１７７号,,27,125,5590032,,,,,,,2023-06-01,1,,,,,シンワコウザイ,0
327,2120001255331,新規,0,2023-06-01,2023-06-01,株式会社クローザー,,株式会社,大阪府,大阪市天王寺区,生玉町１０番２３－８０１号,,27,109,5430071,,,,,,,2023-06-01,1,,,,,クローザー,0
330,2120103005246,新規,0,2023-06-01,2023-06-01,合同会社ＣＰＴＸ,,合同会社,大阪府,堺市堺区,南田出井町３丁４番６号,,27,141,5900015,,,,,,,2023-06-01,1,,,,,シーピーティーエックス,0
334,2130001074417,新規,0,2023-06-01,2023-06-01,株式会社セヴー,,株式会社,京都府,京都市下京区,西七条南月読町３２番地マンション春日１０１号室,,26,106,6008885,,,,,,,2023-06-01,1,,,,,セヴー,0
354,2180001156508,新規,0,2023-06-01,2023-06-01,株式会社宇成,,株式会社,愛知県,名古屋市中区,栄３丁目１１番５号栄マンションＳ棟８１４号,,23,106,4600008,,,,,,,2023-06-01,1,,,,,ウセイ,0
359,2200001041351,新規,0,2023-06-01,2023-06-01,株式会社東和創薬,,株式会社,岐阜県,美濃加茂市,加茂野町鷹之巣１７１７番地１,,21,211,5050051,,,,,,,2023-06-01,1,,,,,トウワソウヤク,0
360,2200003005973,新規,0,2023-06-01,2023-06-01,合同会社カシエツ,,合同会社,岐阜県,美濃加茂市,本郷町７丁目１６番９号,,21,211,5050027,,,,,,,2023-06-01,1,,,,,カシエツ,0
372,2290003013976,新規,0,2023-06-01,2023-06-01,１０合同会社,,合同会社,福岡県,福岡市中央区,赤坂１丁目８－２３,,40,133,8100042,,,,,,,2023-06-01,1,,,,,テン,0
380,2330001030894,新規,0,2023-06-01,2023-06-01,株式会社協立経営,,株式会社,熊本県,上益城郡益城町,大字田原２０８１－１０電子応用機械技術研究所内,,43,443,8612202,,,,,,,2023-06-01,1,,,,,キョウリツケイエイ,0
384,2350003004366,新規,0,2023-06-01,2023-06-01,合同会社大建,,合同会社,宮崎県,宮崎市,中村西３丁目１番１４号トモリーノ中村５０１号,,45,201,8800905,,,,,,,2023-06-01,1,,,,,ダイケン,0
387,2380001033736,新規,0,2023-06-01,2023-06-01,株式会社木龍興業,,株式会社,福島県,郡山市,本町１丁目３番１７号,,07,203,9638871,,,,,,,2023-06-01,1,,,,,キリュウコウギョウ,0
389,2390003002102,新規,0,2023-06-01,2023-06-01,合同会社ＯＭＣ,,合同会社,山形県,西置賜郡飯豊町,大字椿１９８０番地３,,06,403,9990604,,,,,,,2023-06-01,1,,,,,オーエムシー,0
396,2430001089211,新規,0,2023-06-01,2023-06-01,株式会社ＤＡＩＳＹ,,株式会社,北海道,札幌市白石区,菊水元町二条４丁目４番１６－３０４号,,01,104,0030822,,,,,,,2023-06-01,1,,,,,デイジー,0
399,2470001019635,新規,0,2023-06-01,2023-06-01,株式会社Ｎｅｘｉｎｔ,,株式会社,香川県,高松市,多肥上町１９４４番地１５,,37,201,7618076,,,,,,,2023-06-01,1,,,,,ネクシント,0
402,2500001024953,新規,0,2023-06-01,2023-06-01,アイトモ株式会社,,株式会社,愛媛県,松山市,北条辻１１２６番地１,00130691,38,201,7992430,,,,,,,2023-06-01,1,,,,,アイトモ,0
406,2700150114626,新規,0,2023-06-01,2023-06-01,Ｄｕｎｌｏｐ　Ｔａｉｋｏｏ　（Ｊｉｎｊｉａｎｇ）Ａｉｒｃｒａｆｔ　Ｔｙｒｅｓ　Ｃｏｍｐａｎｙ　Ｌｉｍｉｔｅｄ,,外国会社等,,,,,,,,Ｎｏ２．Ｔａｉｋｏｏ　Ｒｄ，Ｑｕａｎｚｈｏｕ　Ｅｘｐｏｒｔ　Ｐｒｏｃｅｓｓｉｎｇ　Ｚｏｎｅ，Ｃｉｚａｏ，Ｊｉｎｊｉａｎｇ，Ｆｕｊｉａｎ，Ｃｈｉｎａ,,,,,,2023-06-01,1,,,,,ダンロツプタイクージンジヤアエアクラフトタイヤズカンパニーリミテツド,0
407,2700150116762,新規,0,2023-06-01,2023-06-01,ｓｈｅｎｚｈｅｎ　ｘｕａｎｈｅｎｇ　ｋｅｊｉ　ｙｏｕｘｉａｎ　ｇｏｎｇｓｉ,,外国会社等,,,,,,,,ｂａｏａｎｑｕ　ｆｕｈａｉｊｉｅｄａｏ　ｈｅｐｉｎｇｓｈｅｑｕ　ｆｕｙｕａｎｅｒｌｕ１０ｈａｏ　ｆｕｚｈｅｎｋｅｊｉｙｕａｎＡｄｏｎｇ５０１　ｓｈｅｎｚｈｅｎ　ｇｕａｎｇｄｏｎｇ,,,,,,2023-06-01,1,,,,,シェンジェンシュエンホンコージーヨウシエンゴンスー,0
408,2700150116779,新規,0,2023-06-01,2023-06-01,ｄｏｎｇｇｕａｎｓｈｉｚｈｅｎｇｂｅｉｊｕｄｉａｎｚｉｋｅｊｉｙｏｕｘｉａｎｇｇｏｎｇｓｉ,,外国会社等,,,,,,,,ｇｏｎｇｄｏｎｇｓｈｅｎｇ　ｄｏｎｇｇｕａｎｓｈｉ　ｑｉｎｇｘｉｚｈｅｎ　ｑｉａｎｑｉｕｌｉｎｇｙｉｊｉｅ２０ｈａｏ　３ｈａｏｌｏｕ１０２ｓｈｉ,,,,,,2023-06-01,1,,,,,トウカンシセイカイエレクトロニツクテクノロジーユウゲンコウシ,0
409,2700150116787,新規,0,2023-06-01,2023-06-01,ＸＹ　ＧＥＥＫ　ＣＯ．，ＬＩＭＩＴＥＤ,,外国会社等,,,,,,,,ＲＯＯＭ　７０２，７／Ｆ，ＳＰＡ　ＣＥＮＴＲＥ，ＮＯ．５３－５５　ＬＯＣＫＨＡＲＴ　ＲＯＡＤ，ＷＡＮ　ＣＨＡＩ，ＨＯＮＧ　ＫＯＮＧ,,,,,,2023-06-01,1,,,,,エツクスワイギークカンパニーリミテツド,0
410,2700150116795,新規,0,2023-06-01,2023-06-01,ｇｕａｎｇｚｈｏｕｚｈｕｏｘｉｎｌｉｍａｏｙｉｙｏｕｘｉａｎｇｏｎｇｓｉ,,外国会社等,,,,,,,,ｚｅｎｇｃｈｅｎｇｑｕｙｏｎｇｎｉｎｇｊｉｅｈｅｃｈａｎｇｎａｎｊｉｅ１ｈａｏｚｏｎｇｈｅｌｏｕ３０１ｆａｎｇｇｕａｎｇｚｈｏｕｓｈｉｇｕａｎｇｄｏｎｇｓｈｅｎｇ　５１００００　ＣＮ,,,,,,2023-06-01,1,,,,,コウシユウタクシンリツボウエキユウゲンコウシ,0
421,3010001235384,新規,0,2023-06-01,2023-06-01,株式会社デジクラ,,株式会社,東京都,中央区,銀座１丁目１２番４号Ｎ＆ＥＢＬＤ．６Ｆ,,13,102,1040061,,,,,,,2023-06-01,1,,,,,デジクラ,0
422,3010001235392,新規,0,2023-06-01,2023-06-01,スタジオアルジエ株式会社,,株式会社,東京都,千代田区,麹町５丁目３番地６第７秋山ビルディングＢ１階,,13,101,1020083,,,,,,,2023-06-01,1,,,,,スタジオアルジエ,0
423,3010001235698,新規,0,2023-06-01,2023-06-01,ＣＢＣグローバルマネジメント株式会社,,株式会社,東京都,中央区,月島２丁目１５番１３号,,13,102,1040052,,,,,,,2023-06-01,1,,,,,シービーシーグローバルマネジメント,0
434,3010401174736,新規,0,2023-06-01,2023-06-01,ＳＵＰＥＲＳＴＯＲＭ株式会社,,株式会社,東京都,港区,海岸１丁目９番１５号,,13,103,1050022,,,,,,,2023-06-01,1,,,,,スーパーストーム,0
437,3010503007018,新規,0,2023-06-01,2023-06-01,フェニックスエナジー合同会社,,合同会社,東京都,台東区,東上野６丁目２９番２号,,13,106,1100015,,,,,,,2023-06-01,1,,,,,フェニックスエナジー,0
438,3010701044341,新規,0,2023-06-01,2023-06-01,萬潤科技日本株式会社,,株式会社,東京都,品川区,北品川５丁目６番２４－８０５号,,13,109,1410001,,,,,,,2023-06-01,1,,,,,マンジュンカギニホン,0
449,3011001154764,新規,0,2023-06-01,2023-06-01,株式会社オヤマノオウチ,,株式会社,東京都,渋谷区,富ヶ谷２丁目１３番８号トレステージ富ケ谷１０３,,13,113,1510063,,,,,,,2023-06-01,1,,,,,オヤマノオウチ,0
450,3011001154780,新規,0,2023-06-01,2023-06-01,うぐいす株式会社,,株式会社,東京都,渋谷区,神泉町２０番２１号クロスシー渋谷神泉ビル５－０９,,13,113,1500045,,,,,,,2023-06-01,1,,,,,ウグイス,0
451,3011001154789,新規,0,2023-06-01,2023-06-01,株式会社Ｋｏｍａｔｓｕ,,株式会社,東京都,目黒区,碑文谷５丁目１２番１３号,,13,110,1520003,,,,,,,2023-06-01,1,,,,,コマツ,0
457,3011101102986,新規,0,2023-06-01,2023-06-01,ＳｔａｒｔＳｐａｃｅ株式会社,,株式会社,東京都,新宿区,西新宿３丁目３番１３号西新宿水間ビル２Ｆ,,13,104,1600023,,,,,,,2023-06-01,1,,,,,スタートスペース,0
458,3011101103068,新規,0,2023-06-01,2023-06-01,株式会社ＮＵＭＢＥＲＩＺＥ,,株式会社,東京都,新宿区,新宿４丁目３番１５号レイフラット新宿Ｂ棟３Ｆ,,13,104,1600022,,,,,,,2023-06-01,1,,,,,ナンバライズ,0
460,3011103013100,新規,0,2023-06-01,2023-06-01,ＭＩＲＡＩＳＨＡ　ＯＮＬＩＮＥ　ＢＵＳＩＮＥＳＳ合同会社,,合同会社,東京都,新宿区,大久保２丁目２５番１８－２０３,,13,104,1690072,,,,,,,2023-06-01,1,,,,,ミライシャオンラインビジネス,0
467,3011503005622,新規,0,2023-06-01,2023-06-01,ＡＸＥ合同会社,,合同会社,東京都,荒川区,荒川７丁目２０－１イーストヒル８０５,,13,118,1160002,,,,,,,2023-06-01,1,,,,,アックス,0
485,3020003023984,新規,0,2023-06-01,2023-06-01,合同会社暗黒エンターテイメント,,合同会社,神奈川県,横浜市金沢区,釜利谷西１丁目６４番１６号ルミエール日高１０２,,14,108,2360046,,,,,,,2023-06-01,1,,,,,アンコクエンターテイメント,0
489,3021001079060,新規,0,2023-06-01,2023-06-01,株式会社ＬＯＣＯＭＯ,,株式会社,神奈川県,鎌倉市,常盤９３７番地４６,,14,204,2480022,,,,,,,2023-06-01,1,,,,,ロコモ,0
490,3021001079184,新規,0,2023-06-01,2023-06-01,株式会社ＬＣマネジメント,,株式会社,神奈川県,藤沢市,藤沢５５１番地１,,14,205,2510052,,,,,,,2023-06-01,1,,,,,エルシーマネジメント,0
491,3021001079192,新規,0,2023-06-01,2023-06-01,株式会社ＲＩＴ,,株式会社,神奈川県,藤沢市,辻堂東海岸２丁目４番３号,,14,205,2510045,,,,,,,2023-06-01,1,,,,,リット,0
495,3030001154145,新規,0,2023-06-01,2023-06-01,株式会社ＭＧＬ,,株式会社,埼玉県,深谷市,上野台２７３９番地１０,,11,218,3660801,,,,,,,2023-06-01,1,,,,,エムジーエル,0
496,3030001154161,新規,0,2023-06-01,2023-06-01,東京信友福祉販売株式会社,,株式会社,埼玉県,入間市,下藤沢５丁目１番地２,,11,225,3580011,,,,,,,2023-06-01,1,,,,,トウキョウシンユウフクシハンバイ,0
497,3030003021839,新規,0,2023-06-01,2023-06-01,ＶＩＥＴ　ＮＡＭ　ＧＲＥＥＮ合同会社,,合同会社,埼玉県,さいたま市見沼区,東大宮４丁目１５番地９,,11,104,3370051,,,,,,,2023-06-01,1,,,,,ベトナムグリーン,0
498,3030003021847,新規,0,2023-06-01,2023-06-01,テスラ合同会社,,合同会社,埼玉県,川口市,前川２丁目５番１１号,,11,203,3330842,,,,,,,2023-06-01,1,,,,,テスラ,0
503,3040001128627,新規,0,2023-06-01,2023-06-01,オープンモード株式会社,,株式会社,千葉県,松戸市,河原塚２５番地の６,,12,207,2702254,,,,,,,2023-06-01,1,,,,,オープンモード,0
512,3080403004793,新規,0,2023-06-01,2023-06-01,ＡＬＭＹ合同会社,,合同会社,静岡県,浜松市中区,肴町３１９番地の４,,22,131,4300932,,,,,,,2023-06-01,1,,,,,アルミー,0
513,3080405007547,新規,0,2023-06-01,2023-06-01,如意寺,,その他の設立登記法人,静岡県,浜松市西区,馬郡町５４番地,,22,133,4310203,,,,,,,2023-06-01,1,,,,,,0
526,3120001255289,新規,0,2023-06-01,2023-06-01,株式会社サーイ,,株式会社,大阪府,大阪市西成区,玉出西２丁目２０番６０号,,27,122,5570045,,,,,,,2023-06-01,1,,,,,サーイ,0
527,3120001255297,新規,0,2023-06-01,2023-06-01,株式会社メリー,,株式会社,大阪府,大阪市都島区,善源寺町２丁目２番８－３７１１号,,27,102,5340015,,,,,,,2023-06-01,1,,,,,メリー,0
528,3120001255330,新規,0,2023-06-01,2023-06-01,株式会社Ｌｉｂｅｒｔｙ　Ｅｖｏｌｕｔｉｏｎ,,株式会社,大阪府,大阪市浪速区,日本橋東３丁目１４番１０－１３０３号,,27,111,5560006,,,,,,,2023-06-01,1,,,,,リバティエボリューション,0
529,3120001255339,新規,0,2023-06-01,2023-06-01,株式会社ＲＵＩＴＹ,,株式会社,大阪府,大阪市北区,梅田１丁目１－３大阪駅前第３ビル２９階１－１－１号室,,27,127,5300001,,,,,,,2023-06-01,1,,,,,ルイティー,0
534,3120901047579,新規,0,2023-06-01,2023-06-01,ＭＵＲＡＳＡＫＩ株式会社,,株式会社,大阪府,高槻市,郡家新町１番４３号２Ｃ室,,27,207,5691136,,,,,,,2023-06-01,1,,,,,ムラサキ,0
535,3130001074416,新規,0,2023-06-01,2023-06-01,株式会社ＲＥＩＮＡ,,株式会社,京都府,京都市下京区,西七条御前田町１９番地３,,26,106,6008897,,,,,,,2023-06-01,1,,,,,レイナ,0
542,3140001130333,新規,0,2023-06-01,2023-06-01,株式会社Ｇｒｏｗ　Ａｂｉｌｉｔｙ,,株式会社,兵庫県,神戸市須磨区,稲葉町４丁目１番２５号,,28,107,6540044,,,,,,,2023-06-01,1,,,,,グロウアビリティ,0
551,3160001025069,新規,0,2023-06-01,2023-06-01,株式会社小野板金,,株式会社,滋賀県,米原市,宇賀野２３０番地１２,,25,214,5210062,,,,,,,2023-06-01,1,,,,,オノバンキン,0
553,3170001017627,新規,0,2023-06-01,2023-06-01,株式会社ＭＡＴＳＵＭＯＴＯ,,株式会社,和歌山県,伊都郡かつらぎ町,大字妙寺１６０番地の１０,,30,341,6497113,,,,,,,2023-06-01,1,,,,,マツモト,0
558,3180001156515,新規,0,2023-06-01,2023-06-01,株式会社Ｉ・Ｓ,,株式会社,愛知県,名古屋市中川区,川前町５５番地,,23,110,4540916,,,,,,,2023-06-01,1,,,,,アイエス,0
562,3180003025288,新規,0,2023-06-01,2023-06-01,合同会社ＨａｒｄＴｒｙＨａｒｄ,,合同会社,愛知県,名古屋市中村区,上石川町５丁目２７番地,,23,105,4530835,,,,,,,2023-06-01,1,,,,,ハードトライハード,0
572,3230001019856,新規,0,2023-06-01,2023-06-01,富三商事株式会社,,株式会社,富山県,富山市,中川原２９３番地８,,16,201,9398015,,,,,,,2023-06-01,1,,,,,トミサンショウジ,0
578,3250001020119,新規,0,2023-06-01,2023-06-01,株式会社ＮＹＡ,,株式会社,山口県,宇部市,大字中野開作２０６番地７,,35,202,7590203,,,,,,,2023-06-01,1,,,,,エヌワイエー,0
584,3290001101708,新規,0,2023-06-01,2023-06-01,株式会社ＪＰ商事,,株式会社,福岡県,糟屋郡篠栗町,津波黒２丁目１６‐５,,40,342,8112415,,,,,,,2023-06-01,1,,,,,ジェイピーショウジ,0
585,3290001101716,新規,0,2023-06-01,2023-06-01,株式会社セルビューティー,,株式会社,福岡県,福岡市博多区,博多駅前３丁目９番１４号,,40,132,8120011,,,,,,,2023-06-01,1,,,,,セルビューティー,0
589,3290801029561,新規,0,2023-06-01,2023-06-01,株式会社松梅,,株式会社,福岡県,北九州市八幡西区,黒崎２丁目１番６号１Ｆ１０１号,,40,109,8060021,,,,,,,2023-06-01,1,,,,,マツウメ,0
591,3300001013315,新規,0,2023-06-01,2023-06-01,株式会社和三,,株式会社,佐賀県,唐津市,浜玉町浜崎１１７６番地１,,41,202,8495131,,,,,,,2023-06-01,1,,,,,カズサン,0
602,3350003004365,新規,0,2023-06-01,2023-06-01,合同会社小玉建装,,合同会社,宮崎県,宮崎市,出来島町７番地５シャーメゾン出来島１０３号,,45,201,8800861,,,,,,,2023-06-01,1,,,,,コダマケンソウ,0
603,3360001032086,新規,0,2023-06-01,2023-06-01,株式会社Ｋ＆Ｋ,,株式会社,沖縄県,石垣市,字真栄里２５５番地６オアシスファミリーニューハウスＩＩ１０３号,00130687,47,207,9070002,,,,,,,2023-06-01,1,,,,,ケイアンドケイ,0
612,3420001018277,新規,0,2023-06-01,2023-06-01,株式会社アーキクリエート,,株式会社,青森県,青森市,本町５丁目３番４０号,,02,201,0300802,,,,,,,2023-06-01,1,,,,,アーキクリエート,0
619,3430005014726,新規,0,2023-06-01,2023-06-01,一般社団法人北海道ねっとわーく,,その他の設立登記法人,北海道,札幌市中央区,南八条西２丁目５－７４市民活動プラザ星園３０６号室,,01,101,0640808,,,,,,,2023-06-01,1,,,,,ホッカイドウネットワーク,0
626,3700150113957,新規,0,2023-06-01,2023-01-27,イロドリ,,その他,愛媛県,西宇和郡伊方町,二名津２６４番地１,,38,442,7960813,,,,,,,2023-01-27,1,,,,,イロドリ,0
627,3700150116761,新規,0,2023-06-01,2023-06-01,Ｊｉｕｊｉａｎｇ　Ｙｕａｎｔｅｎｇ　Ｅｌｅｃｔｒｏｎｉｃ　Ｃｏｍｍｅｒｃｅ　Ｃｏ．，Ｌｔｄ．,,外国会社等,,,,,,,,Ｒｏｏｍ　５０２，Ｕｎｉｔ　２，Ｂｕｉｌｄｉｎｇ　１，Ｄｉｓｔｒｉｃｔ　Ｂ５，Ｃｈｅｎｇｘｉｇａｎｇ　Ｄｉｓｔｒｉｃｔ，Ｊｉｕｊｉａｎｇ　Ｅｃｏｎｏｍｉｃ　Ｄｅｖｅｌｏｐｍｅｎｔ　Ｚｏｎｅ,,,,,,2023-06-01,1,,,,,ジュージャンユエントンディエンズーシャンウーヨウシエンゴンスー,0
628,3700150116778,新規,0,2023-06-01,2023-06-01,ｄｏｎｇｇｕａｎｓｈｉ　ｒｕｉ　ｂｏ　ｄｉａｎ　ｚｉ　ｋｅ　ｊｉ　ｙｏｕ　ｘｉａｎ　ｇｏｎｇ　ｓｉ,,外国会社等,,,,,,,,ｓｈｕ　ｔｉａｎ　ｓｈｅ　ｑｕ　ｓｈｕ　ｔｉａｎ　ｌｕ　ｊｕ　ｑｉ　ｄｕａｎ　１３７　ｈａｏ　ｈｕａ　ｔｉａｎ　ｄａ　ｓｈａ　Ｃ　ｄｏｎｇ　３　ｌｏｕ　３１０２　ｈａｏ　ｄｏｎｇ　ｇｕａｎ　ｓｈｉ　ｈｕ　ｍｅｎ　ｚｈｅｎｇ　ＣＮ　５２３９２９,,,,,,2023-06-01,1,,,,,トウカンシエイハクデンシカギユウゲンコウシ,0
629,3700150116786,新規,0,2023-06-01,2023-06-01,ｇｕａｎｇｚｈｏｕｔａｉｋｅｘｉｘｉｎｘｉｋｅｊｉｙｏｕｘｉａｎｇｏｎｇｓｉ,,外国会社等,,,,,,,,ｇｕａｎｇｚｈｏｕｓｈｉｔｉａｎｈｅｑｕｈｕａｘｉａｌｕ　３０ｈａｏ　１８０９ｆａｎｇ,,,,,,2023-06-01,1,,,,,コウシユウカシインフオメーシヨンテクノロジーユウゲンコウシ,0
630,3700150116794,新規,0,2023-06-01,2023-06-01,Ｓｈｅｎｚｈｅｎｓｈｉ　Ｘｉｂｅｎｘｕｎ　Ｅ－Ｂｕｓｉｎｅｓｓ　Ｃｏ．，Ｌｔｄ,,外国会社等,,,,,,,,Ｎｏ．２０６，Ｓｈｅｎｚｈｕｌｕ　Ｄ１，Ｌｉｕｙｕｅ　Ｓｈｅｑｕ，Ｈｅｎｇｇａｎｇｊｉｅｄａｏ，Ｌｏｎｇｇａｎｇｑｕ，Ｓｈｅｎｚｈｅｎ，ＧｕａｎｇｄｏｎｇｚｈｏｎｇｈｕａｎｇｕｏｊｉｇｕａｎｇｃｈａｎｇＡｚｈｕａｎｇ１４０３ｓｈｉ,,,,,,2023-06-01,1,,,,,シンセンシキホンシンイービジネスカンパニーリミテツド,0
643,4010001235714,新規,0,2023-06-01,2023-06-01,株式会社スマートサービス,,株式会社,東京都,千代田区,神田和泉町１番地６－１６ヤマトビル４０５,,13,101,1010024,,,,,,,2023-06-01,1,,,,,スマートサービス,0
644,4010001235722,新規,0,2023-06-01,2023-06-01,株式会社ＦＬＯＷＥＲ,,株式会社,東京都,千代田区,神田猿楽町２丁目２番７号５０２号室,,13,101,1010064,,,,,,,2023-06-01,1,,,,,フラワー,0
645,4010001235747,新規,0,2023-06-01,2023-06-01,株式会社ＲＩＣＨＩＥ,,株式会社,東京都,中央区,銀座１丁目１２番４号Ｎ＆Ｅ・ＢＬＤ．７Ｆ,,13,102,1040061,,,,,,,2023-06-01,1,,,,,リチエ,0
646,4010003040724,新規,0,2023-06-01,2023-06-01,合同会社ＲＳプロパティーズ１,,合同会社,東京都,千代田区,有楽町１丁目２番２号,,13,101,1000006,,,,,,,2023-06-01,1,,,,,アールエスプロパティーズワン,0
647,4010003040740,新規,0,2023-06-01,2023-06-01,合同会社Ｒｅｎｅｗａｂｌｅ　Ｓｏｌｅｉｌ３,,合同会社,東京都,千代田区,一ツ橋２丁目６番３号アクシスインベストメントアドバイザーズ株式会社内,,13,101,1010003,,,,,,,2023-06-01,1,,,,,リニューアブルソレイユスリー,0
650,4010101015669,新規,0,2023-06-01,2023-06-01,吉順株式会社,,株式会社,東京都,八王子市,緑町８８８－４グリーンハイツ１０２,,13,201,1930932,,,,,,,2023-06-01,1,,,,,キチジュン,0
656,4010401174710,新規,0,2023-06-01,2023-06-01,株式会社スター販売レンタル,,株式会社,東京都,港区,三田４丁目１３番１８号,,13,103,1080073,,,,,,,2023-06-01,1,,,,,スターハンバイレンタル,0
657,4010401174727,新規,0,2023-06-01,2023-06-01,株式会社ＳＡＮＰＯ,,株式会社,東京都,港区,南青山２丁目２７番１１号,,13,103,1070062,,,,,,,2023-06-01,1,,,,,サンポ,0
658,4010401174743,新規,0,2023-06-01,2023-06-01,株式会社アカリー,,株式会社,東京都,港区,赤坂３丁目１１番１４号,,13,103,1070052,,,,,,,2023-06-01,1,,,,,アカリー,0
660,4010403030234,新規,0,2023-06-01,2023-06-01,ＡＴ　Ｌａｂ合同会社,,合同会社,東京都,港区,南青山２丁目２番１５号,,13,103,1070062,,,,,,,2023-06-01,1,,,,,エーティーラボ,0
665,4010703006719,新規,0,2023-06-01,2023-06-01,Ｙ４Ｍａｒｉｔｉｍｅ合同会社,,合同会社,東京都,品川区,平塚１丁目６番６号,,13,109,1420051,,,,,,,2023-06-01,1,,,,,ワイフォーマリタイム,0
666,4010803004564,新規,0,2023-06-01,2023-06-01,合同会社ターコイズ,,合同会社,東京都,大田区,南千束２丁目２５番１７－１０５号,,13,111,1450063,,,,,,,2023-06-01,1,,,,,ターコイズ,0
678,4011003016912,新規,0,2023-06-01,2023-06-01,合同会社ＴＥＲＵＭＥ,,合同会社,東京都,渋谷区,猿楽町９－５－２０２,,13,113,1500033,,,,,,,2023-06-01,1,,,,,テルメ,0
685,4011103013099,新規,0,2023-06-01,2023-06-01,ＭＴ合同会社,,合同会社,東京都,新宿区,新宿７丁目２６番５６－１０２号,,13,104,1600022,,,,,,,2023-06-01,1,,,,,エムティー,0
690,4011401025168,新規,0,2023-06-01,2023-06-01,株式会社ＣＡＲＰＥ　ＤＩＥＭ,,株式会社,東京都,板橋区,常盤台４丁目３５番１号大谷ビル１Ｆ,,13,119,1740071,,,,,,,2023-06-01,1,,,,,カルペディエム,0
712,4030001154160,新規,0,2023-06-01,2023-06-01,株式会社ダイア企画,,株式会社,埼玉県,坂戸市,日の出町１０番２号早川ビル２Ｆ,,11,239,3500225,,,,,,,2023-06-01,1,,,,,ダイアキカク,0
713,4030001154177,新規,0,2023-06-01,2023-06-01,ピアース株式会社,,株式会社,埼玉県,川口市,赤井４丁目２７番２８号,,11,203,3340073,,,,,,,2023-06-01,1,,,,,ピアース,0
721,4040001128634,新規,0,2023-06-01,2023-06-01,株式会社森和通商,,株式会社,千葉県,船橋市,東中山２丁目１３番１１号５０５室,,12,204,2730036,,,,,,,2023-06-01,1,,,,,モリワツウショウ,0
727,4080101024036,新規,0,2023-06-01,2023-06-01,ＯａｋＴｒｅｅ株式会社,,株式会社,静岡県,富士宮市,野中６４０番１１号,,22,207,4180039,,,,,,,2023-06-01,1,,,,,オークツリー,0
729,4080103002816,新規,0,2023-06-01,2023-06-01,合同会社Ａ＆Ｏ　ＥＸＰＯＲＴＳ,,合同会社,静岡県,富士市,松岡７５６番地の３,,22,210,4160909,,,,,,,2023-06-01,1,,,,,エーアンドオーエクスポーツ,0
734,4100001036459,新規,0,2023-06-01,2023-06-01,株式会社ＪＡＤＥ　ＲＥＮＴＡＬ　ＣＡＲ,,株式会社,長野県,北安曇郡白馬村,大字北城３０２０番地８３７,,20,485,3999301,,,,,,,2023-06-01,1,,,,,ジェイドレンタルカー,0
735,4100003007037,新規,0,2023-06-01,2023-06-01,合同会社エクラス,,合同会社,長野県,松本市,蟻ケ崎５丁目４番２３－４号,,20,202,3900861,,,,,,,2023-06-01,1,,,,,エクラス,0
736,4100005013025,新規,0,2023-06-01,2023-06-01,一般社団法人巣立ちライフ,,その他の設立登記法人,長野県,千曲市,大字八幡２４８７番地１,,20,218,3870023,,,,,,,2023-06-01,1,,,,,スダチライフ,0
754,4120001255305,新規,0,2023-06-01,2023-06-01,ＡｇＦａｃｉｌｉｔｉｅｓ株式会社,,株式会社,大阪府,大阪市北区,大淀中３丁目１３番１号,,27,127,5310076,,,,,,,2023-06-01,1,,,,,エージーファシリティーズ,0
771,4150001026430,新規,0,2023-06-01,2023-06-01,ＰＦＩナレッジファーム株式会社,,株式会社,奈良県,生駒市,東旭ケ丘７番１７号,,29,209,6300254,,,,,,,2023-06-01,1,,,,,ピーエフアイナレッジファーム,0
785,4210001019329,新規,0,2023-06-01,2023-06-01,株式会社勢川電気,,株式会社,福井県,福井市,上野本町３丁目７０１番地,,18,201,9100134,,,,,,,2023-06-01,1,,,,,セガワデンキ,0
795,4250005008828,新規,0,2023-06-01,2023-06-01,特定非営利活動法人ココメイト山口,,その他の設立登記法人,山口県,山口市,阿東町徳佐中４２１６,,35,203,7530000,,,,,,,2023-06-01,1,,,,,ココメイトヤマグチ,0
802,4290003013966,新規,0,2023-06-01,2023-06-01,合同会社ＳＡＮＴＡＳ,,合同会社,福岡県,福岡市中央区,鳥飼３丁目１２－４,,40,133,8100053,,,,,,,2023-06-01,1,,,,,サンタス,0
809,4380005012718,新規,0,2023-06-01,2023-06-01,特定非営利活動法人さくらの村,,その他の設立登記法人,福島県,伊達市,保原町柱田字武士沢２５番地,,07,213,9600662,,,,,,,2023-06-01,1,,,,,サクラノムラ,0
812,4430001089242,新規,0,2023-06-01,2023-06-01,株式会社ＡＩＧ,,株式会社,北海道,札幌市北区,南あいの里７丁目３番１６号,,01,102,0028091,,,,,,,2023-06-01,1,,,,,エーアイジー,0
813,4430001089259,新規,0,2023-06-01,2023-06-01,株式会社サイ,,株式会社,北海道,札幌市北区,新琴似四条８丁目１番５号,,01,102,0010904,,,,,,,2023-06-01,1,,,,,サイ,0
822,4500003003045,新規,0,2023-06-01,2023-06-01,合同会社オフィスＨ２Ｓ,,合同会社,愛媛県,松山市,南斎院町１０１４番地１,,38,201,7918032,,,,,,,2023-06-01,1,,,,,オフィスエイチツーエス,0
823,4500005008612,新規,0,2023-06-01,2023-06-01,税理士法人ネクスト松山,,その他の設立登記法人,愛媛県,松山市,居相４丁目２２番２６号,,38,201,7900934,,,,,,,2023-06-01,1,,,,,ネクストマツヤマ,0
824,4700150099502,新規,0,2023-06-01,2020-06-19,木場サニータウン管理組合,,その他,東京都,江東区,枝川３丁目９－１０,,13,108,1350051,,,,,,,2020-06-19,1,,,,,キバサニータウンカンリクミアイ,0
825,4700150116769,新規,0,2023-06-01,2023-06-01,ｔａｉａｎｚｈｏｎｇｗａｎｇｊｉｎｇｍａｏｙｏｕｘｉａｎｇｏｎｇｓｉ,,外国会社等,,,,,,,,ｔａｉｓｈａｎｑｕｄｏｎｇｙｕｅｄａｊｉｅａｏｌａｉｘｉｎｔｉａｎｄｉｂｚｕｏ８０３　ｔａｉａｎ　ｓｈａｎｄｏｎｇ　２７１０００　ＣＮ,,,,,,2023-06-01,1,,,,,タイアンジョンワンジンマオヨウシエンゴンスー,0
826,4700150116777,新規,0,2023-06-01,2023-06-01,Ｎｉｎｇｈａｉ　Ｒｅｎｚｈｅｎ　Ｄａｉｌｙ－Ｕｓｅ　Ｃｏ．，Ｌｔｄ．,,外国会社等,,,,,,,,２ｎｄ　Ｆｌｏｏｒ，Ｎｏ．４２，Ｊｉｎｇｏｎｇ　Ｒｏａｄ，Ｔａｏｙｕａｎ　Ｓｔｒｅｅｔ，ＮｉｎｇｈａｉＮｉｎｇｂｏ　Ｚｈｅｊｉａｎｇ,,,,,,2023-06-01,1,,,,,ネイカイニンシンニチヨウヒンユウゲンコウシ,0
827,4700150116785,新規,0,2023-06-01,2023-06-01,ＤＯＮＧＧＵＡＮＳＨＩＪＵＹＵＳＨＵＯＦＵＺＨＵＡＮＧ　Ｃｏ．，Ｌｔｄ．,,外国会社等,,,,,,,,Ｇｕａｎｇｄｏｎｇｓｈｅｎｇ　Ｄｏｎｇｇｕａｎｓｈｉ　Ｃｈａｓｈａｎ　Ｘｉａｌａｎｇ　ｃａｏｔａｎｇｅｒｊｉｅ　３８ｈａｏ　２０１ｓｈｉ,,,,,,2023-06-01,1,,,,,トウカンシシユギヨクシヤクフクソウカンパニーリミテツド,0
828,4700150116793,新規,0,2023-06-01,2023-06-01,Ｓｈｅｎｚｈｅｎｓｈｉ　Ｗｅｉｔａｉ　Ｔｅｃｈｎｏｌｏｇｙ　Ｃｏ．，Ｌｔｄ,,外国会社等,,,,,,,,Ｒｏｏｍ　２０１，Ｎｕｍｂｅｒ　２６，ＢｕｊｉＸｉｎｃｕｎｙｉｑｕ，Ｎａｎｓａｎｓｈｅｑｕ，Ｂｕｊｉ　Ｓｔｒｅｅｔ，Ｌｏｎｇｇａｎｇ　Ｄｉｓｔｒｉｃｔ，Ｓｈｅｎｚｈｅｎ　Ｃｉｔｙ,,,,,,2023-06-01,1,,,,,シンセンシウイタイテクノロジーカンパニーリミテツド,0
838,5010001235762,新規,0,2023-06-01,2023-06-01,株式会社ＡＲＫ　ＰＬＡＮ,,株式会社,東京都,中央区,新富１丁目４番１号,,13,102,1040041,,,,,,,2023-06-01,1,,,,,アークプラン,0
846,5010005036760,新規,0,2023-06-01,2023-06-01,一般社団法人国際キャリア教育協会,,その他の設立登記法人,東京都,千代田区,二番町１番地２,,13,101,1020084,,,,,,,2023-06-01,1,,,,,コクサイキャリアキョウイクキョウカイ,0
852,5010401174718,新規,0,2023-06-01,2023-06-01,ｓｅｔｔｅ　ｍｏｏｎ株式会社,,株式会社,東京都,港区,北青山３丁目６番７号青山パラシオタワー１１階,,13,103,1070061,,,,,,,2023-06-01,1,,,,,セットムーン,0
853,5010403030217,新規,0,2023-06-01,2023-06-01,合同会社ＺＥＲＯ‐ＯＮＥ．ｓｋｙ,,合同会社,東京都,港区,港南２丁目１６番４号品川グランドセントラルタワー８Ｆ,,13,103,1080075,,,,,,,2023-06-01,1,,,,,ゼロワンスカイ,0
857,5010703006718,新規,0,2023-06-01,2023-06-01,長谷川合同会社,,合同会社,東京都,品川区,南大井１丁目６番２号アイディ品川Ｖ６０１,,13,109,1400013,,,,,,,2023-06-01,1,,,,,ハセガワ,0
861,5010901053132,新規,0,2023-06-01,2023-06-01,共栄託産株式会社,,株式会社,東京都,世田谷区,太子堂２丁目１４番２２号,,13,112,1540004,,,,,,,2023-06-01,1,,,,,キョウエイタクサン,0
862,5010901053149,新規,0,2023-06-01,2023-06-01,セミティーエスジャパン株式会社,,株式会社,東京都,世田谷区,羽根木２丁目２６番１７号,,13,112,1560042,,,,,,,2023-06-01,1,,,,,セミティーエスジャパン,0
866,5011001154779,新規,0,2023-06-01,2023-06-01,株式会社Ｔｈｅ　Ｓａｉｌ,,株式会社,東京都,渋谷区,道玄坂１丁目１０番８号渋谷道玄坂東急ビル２Ｆ－Ｃ,,13,113,1500043,,,,,,,2023-06-01,1,,,,,ザセイル,0
870,5011103013098,新規,0,2023-06-01,2023-06-01,Ｍｉｃｈｉ　Ｎａｖｉｇａｔｉｏｎ合同会社,,合同会社,東京都,新宿区,新宿１丁目１２番１号,,13,104,1600022,,,,,,,2023-06-01,1,,,,,ミチナビゲーション,0
871,5011105010671,新規,0,2023-06-01,2023-06-01,一般社団法人日本ライブショッピング協会,,その他の設立登記法人,東京都,新宿区,西新宿３丁目３－１３西新宿水間ビル２階,,13,104,1600023,,,,,,,2023-06-01,1,,,,,ニホンライブショッピングキョウカイ,0
873,5011401025167,新規,0,2023-06-01,2023-06-01,株式会社ケイアンドエス,,株式会社,東京都,板橋区,栄町２４番２号,,13,119,1730015,,,,,,,2023-06-01,1,,,,,ケイアンドエス,0
878,5011701026278,新規,0,2023-06-01,2023-06-01,株式会社Ｆｖ‐Ｋ,,株式会社,東京都,江戸川区,一之江７丁目３２番２６号,,13,123,1320024,,,,,,,2023-06-01,1,,,,,エフブイケイ,0
886,5013101009185,新規,0,2023-06-01,2023-06-01,株式会社テキスプロ,,株式会社,東京都,青梅市,成木５丁目１４９６番地,,13,205,1980001,,,,,,,2023-06-01,1,,,,,テキスプロ,0
893,5020001151802,新規,0,2023-06-01,2023-06-01,株式会社コスモス,,株式会社,神奈川県,横浜市西区,北幸２丁目１０番地２８むつみビル３Ｆ,,14,103,2200004,,,,,,,2023-06-01,1,,,,,コスモス,0
894,5020001151810,新規,0,2023-06-01,2023-06-01,株式会社チャットジーン,,株式会社,神奈川県,川崎市中原区,上小田中３丁目１０番３,,14,133,2110053,,,,,,,2023-06-01,1,,,,,チャットジーン,0
895,5020003023974,新規,0,2023-06-01,2023-06-01,亜旺合同会社,,合同会社,神奈川県,横浜市中区,羽衣町２丁目５番地３ウェルカーサ関内９０１号,,14,104,2310047,,,,,,,2023-06-01,1,,,,,アワン,0
896,5020003023982,新規,0,2023-06-01,2023-06-01,合同会社ソルバ・コンサルティング,,合同会社,神奈川県,横浜市神奈川区,栄町２番地１,,14,102,2210052,,,,,,,2023-06-01,1,,,,,ソルバコンサルティング,0
911,5030001153995,新規,0,2023-06-01,2023-06-01,株式会社ソーワ,,株式会社,埼玉県,蕨市,錦町１丁目１６番１９号,,11,223,3350005,,,,,,,2023-06-01,1,,,,,ソーワ,0
912,5030001154119,新規,0,2023-06-01,2023-06-01,Ｌｉ‐Ｐｉ　Ｒｅｃｏｒｄｓ　Ｔｏｋｙｏ株式会社,,株式会社,埼玉県,八潮市,大字西袋６７７－６－１０２号室,,11,234,3400833,,,,,,,2023-06-01,1,,,,,ライパイレコードトウキョウ,0
913,5030001154176,新規,0,2023-06-01,2023-06-01,株式会社Ａｍｂｌｅｍ　Ｏｎｅ,,株式会社,埼玉県,さいたま市見沼区,大和田町２丁目１５５３番地１－７０３号,,11,104,3370053,,,,,,,2023-06-01,1,,,,,アンブレムワン,0
914,5030001154184,新規,0,2023-06-01,2023-06-01,株式会社ホワイトフィートリー,,株式会社,埼玉県,三郷市,彦糸１丁目１７０番地２－２０３,,11,237,3410001,,,,,,,2023-06-01,1,,,,,ホワイトフィートリー,0
918,5030003021837,新規,0,2023-06-01,2023-06-01,合同会社ＨｏｍｅＤｏｃｋ,,合同会社,埼玉県,川口市,大字木曽呂３２４番地の３グレイスフル２０２,,11,203,3330831,,,,,,,2023-06-01,1,,,,,ホームドック,0
919,5030003021845,新規,0,2023-06-01,2023-06-01,潤商事合同会社,,合同会社,埼玉県,行田市,大字荒木２３１５番,,11,206,3610011,,,,,,,2023-06-01,1,,,,,ジュンショウジ,0
923,5040001128633,新規,0,2023-06-01,2023-06-01,株式会社Ｓ　ａｎｄ　Ｈ,,株式会社,千葉県,千葉市若葉区,上泉町６６６番地,,12,104,2650045,,,,,,,2023-06-01,1,,,,,エスアンドエイチ,0
926,5040003022710,新規,0,2023-06-01,2023-06-01,合同会社しんば,,合同会社,千葉県,旭市,川口３４３８番地１８,,12,215,2892535,,,,,,,2023-06-01,1,,,,,シンバ,0
928,5050001052907,新規,0,2023-06-01,2023-06-01,株式会社ＫＵＤＯＵ薬事衛生サービス,,株式会社,茨城県,鹿嶋市,鉢形台１丁目１２番地２,,08,222,3140033,,,,,,,2023-06-01,1,,,,,クドウヤクジエイセイサービス,0
930,5060003004574,新規,0,2023-06-01,2023-06-01,合同会社Ｏｆｆｉｃｅ　Ｌｕｇｈ,,合同会社,栃木県,那須塩原市,沼野田和４９３－８,,09,213,3293144,,,,,,,2023-06-01,1,,,,,オフィスルー,0
931,5070005010132,新規,0,2023-06-01,2023-06-01,一般社団法人Ｃａｍｐｖａｓ,,その他の設立登記法人,群馬県,前橋市,鶴が谷町２０番地１４,,10,201,3792108,,,,,,,2023-06-01,1,,,,,キャンプバス,0
935,5080003002989,新規,0,2023-06-01,2023-06-01,スナックエンターテイメントジャパン合同会社,,合同会社,静岡県,静岡市駿河区,津島町５番２７－５号,,22,102,4228056,,,,,,,2023-06-01,1,,,,,スナックエンターテイメントジャパン,0
939,5110001037570,新規,0,2023-06-01,2023-06-01,株式会社ＫＡＭＥＤＡｐｌｕｓ,,株式会社,新潟県,新潟市江南区,亀田中島２丁目１番５号,,15,104,9500161,,,,,,,2023-06-01,1,,,,,カメダプラス,0
953,5120001255329,新規,0,2023-06-01,2023-06-01,株式会社ポレポレ,,株式会社,大阪府,大阪市北区,梅田１丁目２番２号大阪駅前第２ビル１２－１２,,27,127,5300001,,,,,,,2023-06-01,1,,,,,ポレポレ,0
967,5180305009482,新規,0,2023-06-01,2023-06-01,一般社団法人Ｎｏｅｌ　Ｈｏｕｓｅ,,その他の設立登記法人,愛知県,岡崎市,東明大寺町７番地１３,,23,202,4440863,,,,,,,2023-06-01,1,,,,,ノエルハウス,0
975,5240005015584,新規,0,2023-06-01,2023-06-01,一般社団法人グラスルーツサッカーアカデミー,,その他の設立登記法人,広島県,広島市安佐北区,亀山１丁目１５－２０Ｂ２０１,,34,106,7310231,,,,,,,2023-06-01,1,,,,,グラスルーツサッカーアカデミー,0
981,5290001101714,新規,0,2023-06-01,2023-06-01,株式会社ゴルカ,,株式会社,福岡県,福岡市東区,箱崎１丁目１２－２７,,40,131,8120053,,,,,,,2023-06-01,1,,,,,ゴルカ,0
989,5290803004420,新規,0,2023-06-01,2023-06-01,合同会社グローアップ,,合同会社,福岡県,北九州市若松区,小敷ひびきの１丁目１１番５号,,40,103,8080139,,,,,,,2023-06-01,1,,,,,グローアップ,0
992,5330005010667,新規,0,2023-06-01,2023-06-01,一般社団法人ｔｅａｍはちどり,,その他の設立登記法人,熊本県,合志市,須屋１３３２番地７,,43,216,8611102,,,,,,,2023-06-01,1,,,,,チームハチドリ,0
993,5350003004363,新規,0,2023-06-01,2023-06-01,合同会社Ｍ．Ｓ,,合同会社,宮崎県,宮崎市,福島町寺山３１０６番地２５,,45,201,8800945,,,,,,,2023-06-01,1,,,,,エムエス,0
1008,5450003002340,新規,0,2023-06-01,2023-06-01,プリズムビジョン合同会社,,合同会社,北海道,旭川市,永山二条４丁目３番２５号フラワーハイツ１０２,,01,204,0798412,,,,,,,2023-06-01,1,,,,,プリズムビジョン,0
1015,5700150114846,新規,0,2023-06-01,2023-06-01,ＭＹＬＡＮ　ＩＲＥＬＡＮＤ　ＬＩＭＩＴＥＤ,,外国会社等,,,,,,,,ＵＮＩＴ　３５／３６　ＧＲＡＮＧＥ　ＰＡＲＡＤＥ　ＢＡＬＤＯＹＬＥ　ＩＮＤＵＳＴＲＩＡＬ　ＥＳＴＡＴＥ　ＤＵＢＬＩＮ　１３　ＤＵＢＬＩＮ　１３　ＤＵＢＬＩＮ　ＩＲＥＬＡＮＤ,,,,,,2023-06-01,1,,,,,マイランアイルランドリミテツド,0
1016,5700150116297,新規,0,2023-06-01,2023-05-19,ラポルテ東館名店会,,その他,兵庫県,芦屋市,船戸町４－１－５０２,,28,206,6590093,,,,,,,2023-05-19,1,,,,,ラポルテヒガシカンメイテンカイ,0
1017,5700150116768,新規,0,2023-06-01,2023-06-01,ＬＵＯ　ＹＡＮＧ　ＺＨＯＮＧＥＮ　ＦＵＲＮＩＴＵＲＥ　Ｃｏ，．Ｌｔｄ．,,外国会社等,,,,,,,,ｌｉｃｕｎｚｈｅｎｙｏｎｇｔａｉｊｉａｙｕａｎ７ｈａｏｌｏｕ２ｄａｎｙｕａｎ１５０１ｓｈｉ，Ｌｕｏｙａｎｇ，Ｈｅｎａｎ，ｙｉｂｉｎｑｕ，４７１０２７,,,,,,2023-06-01,1,,,,,ルオヤンジョンエンジャージーヨウシエンゴンスー,0
1018,5700150116776,新規,0,2023-06-01,2023-06-01,ＳｈｅｎＺｈｅｎＳｈｉＤｉＮｅｎｇＫｅＪｉＹｏｕＸｉａｎＧｏｎｇＳｉ,,外国会社等,,,,,,,,ＳｈｅｎＺｈｅｎＳｈｉＮａｎＳｈａｎＱｕＸｉＬｉＪｉｅＤａｏＹａｎｇＧｕａｎｇＳｈｅＱｕＳｏｎｇＢａｉＬｕ１００８ＨａｏＧａｎｇＨｏｎｇＪｉＧａｏＸｉｎＺｈｉＮｅｎｇＣｈａｎＹｅＹｕａｎＡＤｏｎｇ２０２,,,,,,2023-06-01,1,,,,,シンセイシテイノウテクノロジーユウゲンコウシ,0
1019,5700150116784,新規,0,2023-06-01,2023-06-01,ｓｈｅｎｚｈｅｎｓｈｉｆａｎｇｓｈｉｙｅｙｏｕｘｉａｎｇｏｎｇｓｉ,,外国会社等,,,,,,,,ｌｏｎｇｇａｎｇｑｕｂａｎｔｉａｎｊｉｅｄａｏｍａａｎｔａｎｇｓｈｅｑｕｈｅｂｅｉｚｈｏｎｇｘｉａｎｇ６ｈａｏ２０１　ｓｈｅｎｚｈｅｎ　ｇｕａｎｇｄｏｎｇ　Ｃｈｉｎａ,,,,,,2023-06-01,1,,,,,シンセンジホウジツギヨウユウゲンコウシ,0
1020,5700150116792,新規,0,2023-06-01,2023-06-01,Ｓｈｅｎｚｈｅｎｓｈｉ　Ｌｉａｎｋｅｓｉｔｕｏ　Ｄｉａｎｚｉｓｈａｎｇｗｕｙｏｕｘｉａｎｇｏｎｇｓｉ,,外国会社等,,,,,,,,０３　ｒｏｏｍ　Ａ　ｄｉｓｔｒｉｃｔ　３Ｆ　Ｓｈｅｎｚｈｏｕｄｉａｎｎａｏｄａｓｈａ，Ｊｕｌｉｆｕｒｅｎｄａｄａｏ，Ｗａｎｋｅｃｈｅｎｇｓｈｅｑｕ，ｂａｎｔｉａｎｊｉｅｄａｏ，Ｌｏｎｇｇａｎｇｑｕ，Ｓｈｅｎｚｈｅｎｓｈｉ，Ｇｕａｎｇｄｏｎｇ,,,,,,2023-06-01,1,,,,,シンセンシレンカシタクデンシシヨウムユウゲンコウシ,0
1042,6010001235761,新規,0,2023-06-01,2023-06-01,ＭＯＶＥＭＥＮＴ株式会社,,株式会社,東京都,中央区,銀座８丁目１７番５号,,13,102,1040061,,,,,,,2023-06-01,1,,,,,ムーブメント,0
1045,6010003040689,新規,0,2023-06-01,2023-06-01,京橋電力合同会社,,合同会社,東京都,中央区,京橋２丁目６番１５号,,13,102,1040031,,,,,,,2023-06-01,1,,,,,キョウバシデンリョク,0
1046,6010003040739,新規,0,2023-06-01,2023-06-01,合同会社Ｒｅｎｅｗａｂｌｅ　Ｓｏｌｅｉｌ２,,合同会社,東京都,千代田区,一ツ橋２丁目６番３号アクシスインベストメントアドバイザーズ株式会社内,,13,101,1010003,,,,,,,2023-06-01,1,,,,,リニューアブルソレイユツー,0
1047,6010003040747,新規,0,2023-06-01,2023-06-01,合同会社ｎｏｓｔａ,,合同会社,東京都,中央区,銀座１丁目１２番４号６Ｆ,,13,102,1040061,,,,,,,2023-06-01,1,,,,,ノスタ,0
1054,6010401174675,新規,0,2023-06-01,2023-06-01,ＴｈａｎｋＹｏｕ株式会社,,株式会社,東京都,港区,西麻布１丁目１２－８シグマケミカル西麻布ビル３Ｆ,,13,103,1060031,,,,,,,2023-06-01,1,,,,,サンキュー,0
1055,6010401174709,新規,0,2023-06-01,2023-06-01,ビューティーベース株式会社,,株式会社,東京都,港区,赤坂２丁目１４番５号Ｄａｉｗａ赤坂ビル７階,,13,103,1070052,,,,,,,2023-06-01,1,,,,,ビューティーベース,0
1056,6010401174733,新規,0,2023-06-01,2023-06-01,銘医株式会社,,株式会社,東京都,港区,虎ノ門４丁目１番１１号プラウド虎ノ門３０４,,13,103,1050001,,,,,,,2023-06-01,1,,,,,メイイ,0
1057,6010403030224,新規,0,2023-06-01,2023-06-01,ＡＵＲＡ合同会社,,合同会社,東京都,港区,東麻布１丁目１０番１１号,,13,103,1060044,,,,,,,2023-06-01,1,,,,,オーラ,0
1058,6010403030232,新規,0,2023-06-01,2023-06-01,合同会社ａｎｄａｔａ,,合同会社,東京都,港区,南青山２丁目２番１５号,,13,103,1070062,,,,,,,2023-06-01,1,,,,,アンダータ,0
1063,6010601063182,新規,0,2023-06-01,2023-06-01,株式会社林製作所,,株式会社,東京都,墨田区,本所２丁目１１番１０号,,13,107,1300004,,,,,,,2023-06-01,1,,,,,,0
1064,6010603010133,新規,0,2023-06-01,2023-06-01,合同会社令,,合同会社,東京都,墨田区,向島１丁目５番９－４０３号ブリシア隅田公園,,13,107,1310033,,,,,,,2023-06-01,1,,,,,レイ,0
1067,6010705003514,新規,0,2023-06-01,2023-06-01,一般社団法人ラカリテメンタルヘルスサポート,,その他の設立登記法人,東京都,品川区,西大井４丁目１８番９号,,13,109,1400015,,,,,,,2023-06-01,1,,,,,ラカリテメンタルヘルスサポート,0
1068,6010805003026,新規,0,2023-06-01,2023-06-01,一般社団法人ヒューマンセキュリティ研究所,,その他の設立登記法人,東京都,大田区,田園調布２丁目４２番１２－２０２号,,13,111,1450071,,,,,,,2023-06-01,1,,,,,,0
1078,6011001154778,新規,0,2023-06-01,2023-06-01,株式会社Ｅｕｒｅｋａ　Ｅｎｔｅｒｔａｉｎｍｅｎｔ,,株式会社,東京都,渋谷区,神宮前６丁目２３番４号桑野ビル２階,,13,113,1500001,,,,,,,2023-06-01,1,,,,,ユーリカエンターテイメント,0
1079,6011003016919,新規,0,2023-06-01,2023-06-01,合同会社明東,,合同会社,東京都,渋谷区,渋谷２丁目１９－１５宮益坂ビルディング６０９,,13,113,1500002,,,,,,,2023-06-01,1,,,,,メイトウ,0
1080,6011101102950,新規,0,2023-06-01,2023-06-01,Ｒｏｙａｌ　Ｅｔｅｒｎｉｔｙ株式会社,,株式会社,東京都,新宿区,喜久井町６２番地３－３１０号,,13,104,1620044,,,,,,,2023-06-01,1,,,,,ロイヤルエターニティ,0
1082,6011105010670,新規,0,2023-06-01,2023-06-01,東京基督教会,,その他の設立登記法人,東京都,新宿区,市谷砂土原町１丁目２番５９号,,13,104,1620842,,,,,,,2023-06-01,1,,,,,トウキョウキリストキョウカイ,0
1088,6011403003995,新規,0,2023-06-01,2023-06-01,合同会社ＨＣＣ,,合同会社,東京都,板橋区,中丸町１７－１２ＭＡＸＩＶ大山ＤＵＥ８０１,,13,119,1730026,,,,,,,2023-06-01,1,,,,,エイチシーシー,0
1095,6011703003480,新規,0,2023-06-01,2023-06-01,ＭＱ合同会社,,合同会社,東京都,江戸川区,西葛西７丁目５番１５号カラベル西葛西３０１,,13,123,1340088,,,,,,,2023-06-01,1,,,,,エムキュー,0
1103,6020001151818,新規,0,2023-06-01,2023-06-01,株式会社ＳＫエンジニアリング,,株式会社,神奈川県,川崎市川崎区,日進町１番地５－１４０３,,14,131,2100024,,,,,,,2023-06-01,1,,,,,エスケーエンジニアリング,0
1108,6021003013130,新規,0,2023-06-01,2023-06-01,合同会社ナラハラ,,合同会社,神奈川県,海老名市,杉久保南４丁目２３番３７号,,14,215,2430427,,,,,,,2023-06-01,1,,,,,ナラハラ,0
1115,6030001153978,新規,0,2023-06-01,2023-06-01,はっぴーはぴねす株式会社,,株式会社,埼玉県,志木市,中宗岡２丁目１０番１８号,,11,228,3530002,,,,,,,2023-06-01,1,,,,,ハッピーハピネス,0
1116,6030001154175,新規,0,2023-06-01,2023-06-01,一川株式会社,,株式会社,埼玉県,川口市,西川口１丁目３０番２０－４０７号,,11,203,3320021,,,,,,,2023-06-01,1,,,,,イチカワ,0
1117,6030001154183,新規,0,2023-06-01,2023-06-01,株式会社ホクト,,株式会社,埼玉県,越谷市,瓦曽根１丁目１６番１号,,11,222,3430821,,,,,,,2023-06-01,1,,,,,ホクト,0
1118,6030001154191,新規,0,2023-06-01,2023-06-01,株式会社ＦＳＳ,,株式会社,埼玉県,狭山市,狭山台２丁目１７番地の２５,,11,215,3501304,,,,,,,2023-06-01,1,,,,,エフエスエス,0
1119,6030001154200,新規,0,2023-06-01,2023-06-01,株式会社ＢＬＡＣＫ,,株式会社,埼玉県,児玉郡上里町,大字金久保３１１番地１,,11,385,3690301,,,,,,,2023-06-01,1,,,,,ブラック,0
1126,6030003021852,新規,0,2023-06-01,2023-06-01,合同会社フリーダム,,合同会社,埼玉県,川越市,大字笠幡１５６番地４７２（ＺＥＲＯ笠幡ｓｔａ．２０３号室）,,11,201,3501175,,,,,,,2023-06-01,1,,,,,フリーダム,0
1127,6030003021860,新規,0,2023-06-01,2023-06-01,合同会社ｃｒｏｓｓｐａｃｅ,,合同会社,埼玉県,越谷市,赤山町１丁目１５６番地９,,11,222,3430807,,,,,,,2023-06-01,1,,,,,クロスペース,0
1132,6040001128624,新規,0,2023-06-01,2023-06-01,株式会社Ｌｉｆｅ　Ｍａｔｅ,,株式会社,千葉県,浦安市,美浜５丁目１０番,,12,227,2790011,,,,,,,2023-06-01,1,,,,,ライフメイト,0
1137,6050001052906,新規,0,2023-06-01,2023-06-01,株式会社ＮＩＰＰＯＮ　ＡＵＴＯ　ＴＲＡＤＩＮＧ　ＣＯ,,株式会社,茨城県,坂東市,中里１２０番地２Ｂ,,08,228,3060634,,,,,,,2023-06-01,1,,,,,ニッポンオートトレーディングシーオー,0
1139,6050003007544,新規,0,2023-06-01,2023-06-01,合同会社ＣｏｄｅＷｏｒｋｓ,,合同会社,茨城県,土浦市,右籾２８００ボナールＡ棟１０６,,08,203,3000837,,,,,,,2023-06-01,1,,,,,,0
1140,6060003004573,新規,0,2023-06-01,2023-06-01,ＶＩＳＵＲＡ　ＬＡＮＫＡ　ＴＲＡＤＩＮＧ合同会社,,合同会社,栃木県,栃木市,都賀町合戦場１００４番地１５,,09,203,3280113,,,,,,,2023-06-01,1,,,,,ヴィスラランカトレーディング,0
1147,6100005013023,新規,0,2023-06-01,2023-06-01,一般社団法人ミットデイア,,その他の設立登記法人,長野県,上田市,常磐城６丁目２番２８号,,20,203,3860027,,,,,,,2023-06-01,1,,,,,ミットデイア,0
1163,6120001255328,新規,0,2023-06-01,2023-06-01,阪運商会株式会社,,株式会社,大阪府,大阪市西区,九条３丁目２０番７号,,27,106,5500027,,,,,,,2023-06-01,1,,,,,ハンウンショウカイ,0
1171,6120901047592,新規,0,2023-06-01,2023-06-01,天王寺株式会社,,株式会社,大阪府,箕面市,桜４丁目１５番５２号,,27,220,5620041,,,,,,,2023-06-01,1,,,,,テンノウジ,0
1178,6140001130314,新規,0,2023-06-01,2023-06-01,株式会社メイセイ企画,,株式会社,兵庫県,西宮市,上甲子園１丁目１２番１２号,,28,204,6638114,,,,,,,2023-06-01,1,,,,,,0
1179,6140001130330,新規,0,2023-06-01,2023-06-01,株式会社ＡＳＨＩＹＡ　ＨＯＭＵＲＡ,,株式会社,兵庫県,芦屋市,公光町９番４号アルコーブ芦屋Ｂ１０３,00130683,28,206,6590065,,,,,,,2023-06-01,1,,,,,アシヤホムラ,0
1180,6140001130339,新規,0,2023-06-01,2023-06-01,株式会社Ｆ２Ｏ,,株式会社,兵庫県,神戸市兵庫区,塚本通８丁目１番１１号,,28,105,6520804,,,,,,,2023-06-01,1,,,,,エフツーオー,0
1182,6140005026640,新規,0,2023-06-01,2023-06-01,一般社団法人ａｎｄ　ｓｍｉｌｅ　ＫＯＢＥこどもホスピスプロジェクト,,その他の設立登記法人,兵庫県,神戸市灘区,摩耶海岸通２丁目３番１－９０１号,,28,102,6570855,,,,,,,2023-06-01,1,,,,,アンドスマイルコウベコドモホスピスプロジェクト,0
1183,6150001026429,新規,0,2023-06-01,2023-06-01,株式会社サムズアップ,,株式会社,奈良県,奈良市,上三条町１６番地１,,29,201,6308228,,,,,,,2023-06-01,1,,,,,サムズアップ,0
1185,6160003002889,新規,0,2023-06-01,2023-06-01,合同会社ＯＧＳ,,合同会社,滋賀県,大津市,和邇今宿６７３番地の１セレナーデ１０１号室,,25,201,5200524,,,,,,,2023-06-01,1,,,,,オージーエス,0
1195,6180001156438,新規,0,2023-06-01,2023-06-01,株式会社ＡＣＴ,,株式会社,愛知県,名古屋市中区,栄４丁目７番８号第一オーシャンビル３０５号,,23,106,4600008,,,,,,,2023-06-01,1,,,,,アクト,0
1196,6180001156512,新規,0,2023-06-01,2023-06-01,株式会社Ｓ＆Ｋ,,株式会社,愛知県,名古屋市南区,堤町５丁目９番地の２,,23,112,4570844,,,,,,,2023-06-01,1,,,,,エスアンドケイ,0
1200,6180003025293,新規,0,2023-06-01,2023-06-01,トゥーマッチ合同会社,,合同会社,愛知県,一宮市,千秋町小山字東六反１４番地１,,23,203,4910814,,,,,,,2023-06-01,1,,,,,トゥーマッチ,0
1201,6180005020235,新規,0,2023-06-01,2023-06-01,一般社団法人山採りの木普及協会,,その他の設立登記法人,愛知県,瀬戸市,みずの坂３丁目２２５番地,,23,204,4890909,,,,,,,2023-06-01,1,,,,,ヤマドリノキフキュウキョウカイ,0
1202,6180301037429,新規,0,2023-06-01,2023-06-01,株式会社真基,,株式会社,愛知県,西尾市,平坂町奥辰８３番地８,,23,213,4440305,,,,,,,2023-06-01,1,,,,,マサキ,0
1204,6190001030451,新規,0,2023-06-01,2023-06-01,株式会社緑山,,株式会社,三重県,伊勢市,西豊浜町５８８８番地１,,24,203,5150505,,,,,,,2023-06-01,1,,,,,ミドリヤマ,0
1208,6240003006155,新規,0,2023-06-01,2023-06-01,合同会社はんぞう,,合同会社,広島県,広島市安佐南区,伴南４丁目２６番２７号,,34,105,7313168,,,,,,,2023-06-01,1,,,,,ハンゾウ,0
1223,6290001101705,新規,0,2023-06-01,2023-06-01,明建塗装株式会社,,株式会社,福岡県,糟屋郡志免町,片峰中央３丁目１９番８号,,40,343,8112246,,,,,,,2023-06-01,1,,,,,メイケントソウ,0
1236,6310003004580,新規,0,2023-06-01,2023-06-01,合同会社ウィステリア,,合同会社,長崎県,大村市,東本町５５５番地,,42,205,8560831,,,,,,,2023-06-01,1,,,,,ウィステリア,0
1237,6320003004092,新規,0,2023-06-01,2023-06-01,合同会社大和環境産業,,合同会社,大分県,別府市,浜町４番１７号,,44,202,8740945,,,,,,,2023-06-01,1,,,,,,0
1252,6380005012716,新規,0,2023-06-01,2023-06-01,会津美里町地域づくり事業協同組合,,その他の設立登記法人,福島県,大沼郡会津美里町,字本郷道上１番地,,07,447,9696164,,,,,,,2023-06-01,1,,,,,アイヅミサトマチチイキヅクリ,0
1267,6490001010489,新規,0,2023-06-01,2023-06-01,株式会社ＭＴＴエンタープライズ,,株式会社,高知県,高知市,上町２丁目６番９号,,39,201,7800901,,,,,,,2023-06-01,1,,,,,,0
1268,6700150114151,新規,0,2023-06-01,2023-06-01,Ｃ．Ｆｉｐｋｅ　Ｈｏｌｄｉｎｇｓ　Ｌｔｄ．,,外国会社等,,,,,,,,＃２０３，１６３４－Ｈａｒｖｅｙ　Ａｖｅｎｕｅ，Ｋｅｌｏｗｎａ，Ｂ．Ｃ．Ｃａｎａｄａ,,,,,,2023-06-01,1,,,,,シーフイプケホールデイングスリミテツド,0
1269,6700150116296,新規,0,2023-06-01,2023-05-19,ラポルテ本館名店会,,その他,兵庫県,芦屋市,船戸町４－１－５０２,,28,206,6590093,,,,,,,2023-05-19,1,,,,,ラポルテホンカンメイテンカイ,0
1270,6700150116767,新規,0,2023-06-01,2023-06-01,ｓｈｅｎｚｈｅｎｓｈｉｙｏｕｗｅｉｓｈｅｎｇｋｅｊｉｙｏｕｘｉａｎｇｏｎｇｓｉ,,外国会社等,,,,,,,,ｓｈｅｎｚｈｅｎｓｈｉｌｏｎｇｇａｎｇｑｕｐｉｎｇｈｕｊｉｅｄａｏｈｅｈｕａｓｈｅｑｕｈｕｎａｎｄａｄａｏｙｉｈａｏｈｕａｎａｎｇｕｏｊｉｐｉｇｅ,,,,,,2023-06-01,1,,,,,シェンジェンシーヨウウェイションコージーヨウシエンゴンスー,0
1271,6700150116775,新規,0,2023-06-01,2023-06-01,ｘｉｎｈｕａｘｉａｎｘｕｗｅｉｓｈａｎｇｍａｏｙｏｕｘｉａｎｇｏｎｇｓｉ,,外国会社等,,,,,,,,ｓｈａｎｇｄｕｊｉｅｄａｏｎｉａｎｇｊｉａｃｕｎ２ｚｕ００２ｈａｏｌｏｕｄｉｓｈｉｘｉｎｈｕａｘｉａｎ　ｈｕｎａｎａｓｈｅｎｇ,,,,,,2023-06-01,1,,,,,シンカケンキヨクイシヨウボウユウゲンコウシ,0
1272,6700150116783,新規,0,2023-06-01,2023-06-01,ｄｅｘｉｎｇｕｏｊｉｗｕｌｉｕ（Ｓｈｅｎｚｈｅｎ）ｙｏｕｘｉａｎｇｏｎｇｓｉ,,外国会社等,,,,,,,,ｂｕｌｏｎｇｌｕ３３９ｈａｏｈｏｎｇｓｈｅｎｇｙｕａｎｇｏｎｇｙｅｙｕａｎＡｄｏｎｇ６１８ｓｈｉ　ｌｏｎｇｇａｎｇｑｕｂｕｊｉｊｉｅｄａｏ　Ｓｈｅｎｚｈｅｎｓｈｉ　Ｃｈｉｎａ,,,,,,2023-06-01,1,,,,,トクコウコウクサイブツリユウシンセンユウゲンコウシ,0
1273,6700150116791,新規,0,2023-06-01,2023-06-01,Ｓｈｅｎｚｈｅｎｓｈｉ　Ｈａｏｈａｉｓｈｅｎｇｋｅ　Ｅ－Ｂｕｓｉｎｅｓｓ　Ｃｏ．，Ｌｔｄ,,外国会社等,,,,,,,,Ｒｏｏｍ　５０３，Ｎｏ．５　Ｌａｎｅ．７，Ｓｈａｎｇｓｈａｙｅｓｈｕ　Ｖｉｌｌａｇｅ，Ｓｈａｎｇｓｈａ　Ｃｏｍｍｕｎｉｔｙ，Ｓｈａｔｏｕ　Ｓｔｒｅｅｔ，Ｆｕｔｉａｎ　Ｄｉｓｔｒｉｃｔ，Ｓｈｅｎｚｈｅｎ　Ｃｉｔｙ，Ｇｕａｎｇｄｏｎｇ　Ｐｒｏｖｉｎｃｅ，ＣＮ,,,,,,2023-06-01,1,,,,,シンセンシコウカイセイカイービジネスカンパニーリミテツド,0
1274,6700150116800,新規,0,2023-06-01,2023-06-01,ＹＥＥＤＩ　ＴＥＣＨＮＯＬＯＧＹ　ＬＩＭＩＴＥＤ,,外国会社等,,,,,,,,Ｒｏｏｍ　１２０２，Ｃａｐｉｔｏｌ　Ｃｅｎｔｒｅ，５－１９　Ｊａｒｄｉｎｅ’ｓ　Ｂａｚａａｒ，Ｃａｕｓｅｗａｙ，ＨｏｎｇＫｏｎｇ,,,,,,2023-06-01,1,,,,,イエーデイテクノロジーリミテツド,0
1291,7010003040738,新規,0,2023-06-01,2023-06-01,合同会社オールレンジプロ,,合同会社,東京都,中央区,日本橋室町１丁目１１番１２号日本橋水野ビル７階,,13,102,1030022,,,,,,,2023-06-01,1,,,,,オールレンジプロ,0
1307,7010701044338,新規,0,2023-06-01,2023-06-01,株式会社Ｎｏａｌｏｎｅ,,株式会社,東京都,品川区,小山２丁目１２番１１号ＭＥＧＵＲＯＰＡＲＫＨＩＬＬＳ３０２,,13,109,1420062,,,,,,,2023-06-01,1,,,,,ノアロ,0
1315,7011001154323,新規,0,2023-06-01,2023-06-01,株式会社メディケン,,株式会社,東京都,渋谷区,神泉町１０番１５号,,13,113,1500045,,,,,,,2023-06-01,1,,,,,メディケン,0
1318,7011301028747,新規,0,2023-06-01,2023-06-01,株式会社Ｃａｒｎａｒｖｏｎ,,株式会社,東京都,杉並区,和田１丁目３９番３－４０４号,,13,115,1660012,,,,,,,2023-06-01,1,,,,,カナーボン,0
1337,7020005016017,新規,0,2023-06-01,2023-06-01,司法書士法人杉浦本店,,その他の設立登記法人,神奈川県,横浜市中区,真砂町２丁目２５番地関内中央ビルＫ３０２号室,,14,104,2310016,,,,,,,2023-06-01,1,,,,,スギウラホンテン,0
1345,7030001154141,新規,0,2023-06-01,2023-06-01,ＰＨＵＯＮＧ　ＤＡＮＧ機械輸出国際株式会社,,株式会社,埼玉県,春日部市,緑町６丁目１５番３３号,,11,214,3440063,,,,,,,2023-06-01,1,,,,,フォンダンキカイユシュツコクサイ,0
1346,7030001154174,新規,0,2023-06-01,2023-06-01,新夢株式会社,,株式会社,埼玉県,川口市,西川口１丁目３０番２０－６０５号,,11,203,3320021,,,,,,,2023-06-01,1,,,,,ニイム,0
1347,7030001154182,新規,0,2023-06-01,2023-06-01,株式会社藍屋,,株式会社,埼玉県,蕨市,錦町５丁目３番１２号,,11,223,3350005,,,,,,,2023-06-01,1,,,,,アイヤ,0
1349,7030003021843,新規,0,2023-06-01,2023-06-01,合同会社ＫＳライフ,,合同会社,埼玉県,上尾市,日の出１丁目４番１０－４号,,11,219,3620032,,,,,,,2023-06-01,1,,,,,ケーエスライフ,0
1350,7030003021851,新規,0,2023-06-01,2023-06-01,Ｊ＆Ｗ合同会社,,合同会社,埼玉県,草加市,金明町６７０番地１４,,11,221,3400052,,,,,,,2023-06-01,1,,,,,ジェイアンドダブリュー,0
1371,7110001037569,新規,0,2023-06-01,2023-06-01,株式会社ワールドワイドＫ,,株式会社,新潟県,村上市,飯野西２番１号ひまわりビル３階,,15,212,9580855,,,,,,,2023-06-01,1,,,,,ワールドワイドケイ,0
1392,7120001255327,新規,0,2023-06-01,2023-06-01,ＳＵＭ　ＴＥＡＭ　ＪＡＰＡＮ株式会社,,株式会社,大阪府,大阪市中央区,久太郎町１丁目４番６号和興ビル２０３号,,27,128,5410056,,,,,,,2023-06-01,1,,,,,サンチームジャパン,0
1393,7120001255335,新規,0,2023-06-01,2023-06-01,株式会社ＵＮＩＴＹ,,株式会社,大阪府,門真市,千石西町１３番３６－１号,,27,223,5710014,,,,,,,2023-06-01,1,,,,,ユニティ,0
1414,7160003002888,新規,0,2023-06-01,2023-06-01,合同会社ＴＥＡＭＳｏｌｕｔｉｏｎｓ,,合同会社,滋賀県,近江八幡市,上田町１３４５番地１,,25,204,5230015,,,,,,,2023-06-01,1,,,,,チームソリューションズ,0
1425,7180001156461,新規,0,2023-06-01,2023-06-01,株式会社１０８,,株式会社,愛知県,名古屋市北区,杉栄町４丁目９５番地の１－１００３号,,23,103,4620829,,,,,,,2023-06-01,1,,,,,イチマルパ,0
1426,7180001156503,新規,0,2023-06-01,2023-06-01,株式会社Ｘ,,株式会社,愛知県,名古屋市北区,楠１丁目２００６番地Ｇｒｉｓｎｏｉｒ　Ａ号室,,23,103,4620012,,,,,,,2023-06-01,1,,,,,エックス,0
1432,7180005020234,新規,0,2023-06-01,2023-06-01,一般社団法人知多南部心と地域研究会,,その他の設立登記法人,愛知県,知多郡南知多町,大字内海字奥側４番地,,23,445,4703321,,,,,,,2023-06-01,1,,,,,チタナンブココロトチイキケンキュウカイ,0
1444,7240001061589,新規,0,2023-06-01,2023-06-01,株式会社ロンド・ベル,,株式会社,広島県,福山市,引野町５２１８番地,,34,207,7210942,,,,,,,2023-06-01,1,,,,,ロンドベル,0
1454,7290001101712,新規,0,2023-06-01,2023-06-01,茂寛株式会社,,株式会社,福岡県,福岡市早良区,藤崎１丁目１６－２ハイム藤崎２０３,,40,137,8140013,,,,,,,2023-06-01,1,,,,,シゲヒロ,0
1455,7290001101720,新規,0,2023-06-01,2023-06-01,ＣＲＥＥＴＥ株式会社,,株式会社,福岡県,福岡市東区,唐原１丁目４番３３号１Ｆ,,40,131,8130001,,,,,,,2023-06-01,1,,,,,クリート,0
1470,7430001089264,新規,0,2023-06-01,2023-06-01,初雪株式会社,,株式会社,北海道,虻田郡倶知安町,北四条東４丁目３番１６号,,01,400,0440004,,,,,,,2023-06-01,1,,,,,ハツユキ,0
1473,7460001005796,新規,0,2023-06-01,2023-06-01,株式会社叶結,,株式会社,北海道,釧路市,桜ケ岡６丁目４１番２３号,,01,206,0850805,,,,,,,2023-06-01,1,,,,,カナム,0
1477,7500001024957,新規,0,2023-06-01,2023-06-01,株式会社ゴスペル,,株式会社,愛媛県,松山市,萱町３丁目２－３・９ＣＲＯＳＳ・４０２号,,38,201,7900813,,,,,,,2023-06-01,1,,,,,ゴスペル,0
1479,7700150116601,新規,0,2023-06-01,2023-05-30,労働保険事務組合東海労務親和会,,その他,愛知県,名古屋市中村区,二ツ橋町１丁目６番地１３,,23,105,4530813,,,,,,,2023-05-30,1,,,,,ロウドウホケンジムクミアイトウカイロウムシンワカイ,0
1480,7700150116766,新規,0,2023-06-01,2023-06-01,ｓｈｅｎｚｈｅｎｓｈｉｈａｏｓｈｉｊｉｅｈａｎｇｋｏｎｇｆｕｗｕｙｏｕｘｉａｎｇｏｎｇｓｉ,,外国会社等,,,,,,,,ｌｏｎｇｇａｎｇｑｕｂｕｊｉｊｉｅｄａｏｊｉｎｐａｉｓｈｅｑｕ　ｊｉｎｋｅｎｇｓｈａｎｚｈｕａｎｇｓｉｘｉａｎｇ５ｈａｏ６０１　ｓｈｅｎｚｈｅｎｓｈｉ　ｇｕａｎｇｄｏｎｇｓｈｅｎｇ　５１８１１２　ＣＮ,,,,,,2023-06-01,1,,,,,シェンジェンシーハオシージエハンコンフーウーヨウシエンゴンスー,0
1481,7700150116774,新規,0,2023-06-01,2023-06-01,Ｓｈｅｎｚｈｅｎ　Ｓｈｕｎｙｅ　Ｅｌｅｃｔｒｏｎｉｃ　Ｃｏｍｍｅｒｃｅ　Ｃｏ．，Ｌｔｄ．,,外国会社等,,,,,,,,ｌｏｎｇ　ｈｕａ　ｑｕ　ｌｏｎｇ　ｈｕａ　ｊｉｅ　ｄａｏ　ｑｉｎｇ　ｈｕａ　ｓｈｅ　ｑｕ　ｈｕａ　ｑｉｎｇ　ｄａ　ｄａｏ　ｓｈｅｎ　ｌｉ　ｇｏｎｇ　ｙｅ　ｙｕａｎ　Ｃｄｏｎｇ　３ｃｅｎｇ　３２０　ｓｈｅｎ　ｚｈｅｎ　ｓｈｉ　ｇｕａｎｇｄｏｎｇ　Ｃｈｉｎａ,,,,,,2023-06-01,1,,,,,シンセンジユンギヨウエレクトロニツクコマースカンパニーリミテツド,0
1482,7700150116782,新規,0,2023-06-01,2023-06-01,ｃｈｅｎｇｄｕｒｕｉｘｉｎｓｈｅｎｇｋｅｊｉｙｏｕｘｉａｎｇｏｎｇｓｉ,,外国会社等,,,,,,,,ｃｈｅｎｇｄｕｇａｏｘｉｎｑｕｊｉｔａｉｓａｎｌｕ８ｈａｏ１ｄｏｎｇ１ｄａｎｙｕａｎ１６ｃｅｎｇ３ｈａｏ　ｃｈｅｎｇｄｕ　ｓｉｃｈｕａｎ,,,,,,2023-06-01,1,,,,,セイトズイシンセイテクノロジーユウゲンコウシ,0
1483,7700150116790,新規,0,2023-06-01,2023-06-01,ＦＵＺＨＯＵ　ＤＵＯ　ＹＩ　ＺＨＩ　ＥＬＥＣＴＲＩＣ．，ＬＴＤ,,外国会社等,,,,,,,,ＧＵＬＯＵ　ＱＵ　ＴＯＮＧＨＵＸＩＮ　ＣＵＮ　１２　ＨＡＯ　０４５　ＳＨＩ　ＦＵＺＨＯＵ　ＦＵＪＩＡＮ　ＣＮ　３５００００,,,,,,2023-06-01,1,,,,,フクシユウドウイチエレクトリツクリミテツド,0
1484,7700150116799,新規,0,2023-06-01,2023-06-01,ＳＨＡＮＧＨＡＩ　ＪＩ　ＨＥ　ＤＩＡＮ　ＺＩ　ＳＨＡＮＧ　ＷＵ　ＹＯＵ　ＸＩＡＮ　ＧＯＮＧ　ＳＩ,,外国会社等,,,,,,,,Ｎｏ．３５０，Ｆｕｔｅｄｏｎｇｙｉ　Ｒｄ，Ｒｏｏｍ　１７７，１ｓｔ　Ｆｌｏｏｒ，Ｂｕｉｌｄｉｎｇ　１　Ｒｏｏｍ　１７７，１ｓｔ　Ｆｌｏｏｒ，Ｂｕｉｌｄｉｎｇ　１　Ｃｈｉｎａ（Ｓｈａｎｇｈａｉ）Ｐｉｌｏｔ　Ｆｒｅｅ　Ｓｈａｎｇｈａｉ　Ｓｈａｎｇｈａｉ　Ｃｈｉｎａ　２００１３１,,,,,,2023-06-01,1,,,,,シヤンハイシユウカクデンシシヨウムユウゲンコウシ,0
1496,8010001235710,新規,0,2023-06-01,2023-06-01,ブルーオーシャンメディカル株式会社,,株式会社,東京都,中央区,日本橋人形町３丁目１番１７号日本橋人形町石井ビル７階,,13,102,1030013,,,,,,,2023-06-01,1,,,,,ブルーオーシャンメディカル,0
1500,8010005036766,新規,0,2023-06-01,2023-06-01,一般社団法人菖蒲プロパティ,,その他の設立登記法人,東京都,千代田区,丸の内３丁目１番１号東京共同会計事務所内,,13,101,1000005,,,,,,,2023-06-01,1,,,,,ショウブプロパティ,0
1509,8010401174723,新規,0,2023-06-01,2023-06-01,ＴＰＩｓｏｆｔｗａｒｅ株式会社,,株式会社,東京都,港区,赤坂２丁目８番１４－５０４号,,13,103,1070052,,,,,,,2023-06-01,1,,,,,ティーピーアイソフトウエア,0
1513,8010403030230,新規,0,2023-06-01,2023-06-01,Ｃ３合同会社,,合同会社,東京都,港区,白金台３丁目１０番１０号,,13,103,1080071,,,,,,,2023-06-01,1,,,,,シースリー,0
1520,8010701044337,新規,0,2023-06-01,2023-06-01,株式会社Ｂａｒｓａ　Ｋｅｌｍｅｓ,,株式会社,東京都,品川区,西五反田８丁目２番１２号７Ａ,,13,109,1410031,,,,,,,2023-06-01,1,,,,,バルサケルメス,0
1521,8010703006715,新規,0,2023-06-01,2023-06-01,ピースビルディング合同会社,,合同会社,東京都,品川区,荏原６丁目１９番１３－３１０号,,13,109,1420063,,,,,,,2023-06-01,1,,,,,ピースビルディング,0
1524,8010801034007,新規,0,2023-06-01,2023-06-01,株式会社フラバーガステッド,,株式会社,東京都,大田区,羽田３丁目１６番６号セントヒルダス１０１号室,,13,111,1440043,,,,,,,2023-06-01,1,,,,,フラバーガステッド,0
1527,8010903008206,新規,0,2023-06-01,2023-06-01,合同会社ｓｉｔｙ,,合同会社,東京都,世田谷区,上馬２丁目３１－１３,,13,112,1540011,,,,,,,2023-06-01,1,,,,,シティ,0
1545,8011203004093,新規,0,2023-06-01,2023-06-01,ダブル・ケイ合同会社,,合同会社,東京都,中野区,上高田５丁目３４番６号,,13,114,1640002,,,,,,,2023-06-01,1,,,,,ダブルケイ,0
1549,8011301028746,新規,0,2023-06-01,2023-06-01,谷米株式会社,,株式会社,東京都,杉並区,清水３丁目３１－１０ＹＡＳＨＩＭＡビル３Ｆ－Ｆ,,13,115,1670033,,,,,,,2023-06-01,1,,,,,タニマイ,0
1550,8011303004778,新規,0,2023-06-01,2023-06-01,タッチアップ合同会社,,合同会社,東京都,杉並区,和田３丁目５３番１０号,,13,115,1660012,,,,,,,2023-06-01,1,,,,,タッチアップ,0
1573,8021003013153,新規,0,2023-06-01,2023-06-01,Ａｒｒｏｗ８合同会社,,合同会社,神奈川県,相模原市南区,相模大野６丁目２３,,14,153,2520303,,,,,,,2023-06-01,1,,,,,アローエイト,0
1578,8030001154181,新規,0,2023-06-01,2023-06-01,株式会社ＩＭＡＫＡ,,株式会社,埼玉県,越谷市,南越谷１丁目２６－７南越谷第一マンション２０３,,11,222,3430845,,,,,,,2023-06-01,1,,,,,イマカ,0
1610,8120001255276,新規,0,2023-06-01,2023-06-01,株式会社きずな,,株式会社,大阪府,大阪市淀川区,加島１丁目５６番２０－６０３号,,27,123,5320031,,,,,,,2023-06-01,1,,,,,キズナ,0
1611,8120001255334,新規,0,2023-06-01,2023-06-01,盈之杰株式会社,,株式会社,大阪府,大阪市浪速区,敷津西１丁目１番２８号,,27,111,5560015,,,,,,,2023-06-01,1,,,,,ヨウノケツ,0
1612,8120001255342,新規,0,2023-06-01,2023-06-01,株式会社Ｄ‐ｆｒｏｎｔ,,株式会社,大阪府,大阪市淀川区,十三本町２丁目１０番２号,,27,123,5320024,,,,,,,2023-06-01,1,,,,,ディーフロント,0
1613,8120003024183,新規,0,2023-06-01,2023-06-01,合同会社Ｆａｎｔａｓｉｓｔａ,,合同会社,大阪府,大阪市浪速区,日本橋４丁目１４番３号４Ｆ,,27,111,5560005,,,,,,,2023-06-01,1,,,,,ファンタジスタ,0
1614,8120003024191,新規,0,2023-06-01,2023-06-01,千翼合同会社,,合同会社,大阪府,大阪市東成区,大今里西３丁目１８－２２サンハイツ今里４０１,,27,115,5370014,,,,,,,2023-06-01,1,,,,,チヒロ,0
1615,8120005023654,新規,0,2023-06-01,2023-06-01,一般社団法人湖広会館,,その他の設立登記法人,大阪府,大阪市北区,天満４丁目５番３号,,27,127,5300043,,,,,,,2023-06-01,1,,,,,ココウカイカン,0
1621,8120903004664,新規,0,2023-06-01,2023-06-01,合同会社Ｇ．Ｆｏｒｔｕｎｅ,,合同会社,大阪府,豊中市,服部南町４丁目３－４６－３０７,,27,203,5610853,,,,,,,2023-06-01,1,,,,,ジーフォーチュン,0
1636,8180001156502,新規,0,2023-06-01,2023-06-01,株式会社ＳＣＥＮＥと私と,,株式会社,愛知県,名古屋市守山区,翠松園３丁目３０５番地,,23,113,4630010,,,,,,,2023-06-01,1,,,,,シーントワタシト,0
1642,8180003025283,新規,0,2023-06-01,2023-06-01,アールエムケーコンサルタンツ合同会社,,合同会社,愛知県,名古屋市中区,丸の内３丁目４番３３号,,23,106,4600002,,,,,,,2023-06-01,1,,,,,アールエムケーコンサルタンツ,0
1643,8180003025291,新規,0,2023-06-01,2023-06-01,合同会社アヴァンギャルド,,合同会社,愛知県,名古屋市中区,錦３丁目２０番９号大塚ルーカスビルＩＩ２階,00130690,23,106,4600003,,,,,,,2023-06-01,1,,,,,アヴァンギャルド,0
1669,8290801029557,新規,0,2023-06-01,2023-06-01,株式会社ＤＣ,,株式会社,福岡県,直方市,大字下境１２９２番地６,,40,204,8220007,,,,,,,2023-06-01,1,,,,,ディーシー,0
1674,8370001050017,新規,0,2023-06-01,2023-06-01,株式会社ＥＮＳＯＷＡ,,株式会社,宮城県,亘理郡山元町,山寺字西牛橋３５－１４９,,04,362,9892201,,,,,,,2023-06-01,1,,,,,エンソワ,0
1688,8430001089255,新規,0,2023-06-01,2023-06-01,株式会社ＴＵホームケア,,株式会社,北海道,札幌市中央区,北二条西１０丁目１－６コンフォリア札幌植物園７０２,,01,101,0600002,,,,,,,2023-06-01,1,,,,,ティーユーホームケア,0
1694,8700150037912,新規,0,2023-06-01,2015-10-09,会津食品環境衛生協会,,その他,福島県,会津若松市,城東町５－１２,,07,202,9650807,,,,,,,2015-10-09,1,,,,,アイヅシヨクヒンカンキヨウエイセイキヨウカイ,0
1695,8700150115437,新規,0,2023-06-01,2023-06-01,Ｓｐｒｉｎｇｅｒ　Ｎａｔｕｒｅ　Ｂ．Ｖ．,,外国会社等,,,,,,,,Ｖａｎ　Ｇｏｄｅｗｉｊｃｋｓｔｒａａｔ　３０，Ｄｏｒｄｒｅｃｈｔ　Ｚｕｉｄ－Ｈｏｌｌａｎｄ　３３１１ＧＸ　Ｔｈｅ　Ｎｅｔｈｅｒ　ｌａｎｄｓ,,,,,,2023-06-01,1,,,,,シユプリンガーネイチヤービーブイ,0
1696,8700150116765,新規,0,2023-06-01,2023-06-01,ｓｈｅｎｚｈｅｎｓｈｉｓｏｎｇｘｕｎｄｉａｎｚｉｓｈａｎｇｗｕｙｏｕｘｉａｎｇｏｎｇｓｉ,,外国会社等,,,,,,,,ｇｕａｎｇｄｏｎｇｓｈｅｎｇｓｈｅｎｚｈｅｎｓｈｉｌｏｎｇｇａｎｇｑｕｂｕｊｉｊｉｅｄａｏｌｏｎｇｚｈｕｓｈｅｑｕｊｉｎｇｎａｎｌｕ４ｈａｏｑｕａｎｓｅｎｈｏｎｇｍｕｍｉａｎｃｈｕａｎｇｙｉｙｕａｎｅｒｈａｏｇｏｎｇｙｕＡ６０５,,,,,,2023-06-01,1,,,,,シェンジェンシーソンシンディエンズーシャンウーヨウシエンゴンスー,0
1697,8700150116773,新規,0,2023-06-01,2023-06-01,Ｓｈｅｎｚｈｅｎ　Ｙｉｎｇｆｅｉｌｉ　Ｅｌｅｃｔｒｏｎｉｃ　Ｃｏｍｍｅｒｃｅ　Ｃｏ．，Ｌｔｄ．,,外国会社等,,,,,,,,Ｎｏ．００１，Ｚｈｕｓａｎ　Ｖｉｌｌａｇｅ，Ｘｉｅｊｉａｔａｎ　Ｔｏｗｎ，Ｐｏｙａｎｇ　Ｃｏｕｎｔｙ，Ｓｈａｎｇｒａｏ　Ｃｉｔｙ，Ｊｉａｎｇｘｉ　Ｐｒｏｖｉｎｃｅ,,,,,,2023-06-01,1,,,,,シンセンエイヒリエレクトロニツクコマースカンパニーリミテツド,0
1698,8700150116781,新規,0,2023-06-01,2023-06-01,ｓｈｅｎｚｈｅｎｓｈｉ　ｙｏｕｔｅｎｉｋｅ　ｋｅｊｉ　ｙｏｕｘｉａｎ　ｇｏｎｇｓｉ,,外国会社等,,,,,,,,２１１０，Ｂｌｏｃｋ　Ｂ，Ｂｕｉｌｄｉｎｇ　２，Ｚｈｏｎｇｌｉａｎｇｘｉａｎｇｙｕｎ，Ａｉｌｉａｎ　Ｃｏｍｍｕｎｉｔｙ，Ｌｏｎｇｃｈｅｎｇ　Ｓｔｒｅｅｔ，Ｌｏｎｇｇａｎｇ　Ｄｉｓｔｒｉｃｔ，Ｓｈｅｎｚｈｅｎ,,,,,,2023-06-01,1,,,,,シンセンシユーテニクカギユウゲンコウシ,0
1699,8700150116798,新規,0,2023-06-01,2023-06-01,上海萌宝保人力資源有限公司　日本駐在員事務所,,外国会社等,東京都,台東区,千束３丁目１２－１２キートスビル５０６号室,,13,106,1110031,上海市楊浦区楊樹浦路２３００号３Ａ層Ａ０３室,,,,,,2023-06-01,1,,,,,シヤンハイメンバオバオジンリヨクジゲンユウゲンコウシニホンチユウザイインジムシヨ,0
1710,9010001235726,新規,0,2023-06-01,2023-06-01,株式会社ｖｉｅｘ,,株式会社,東京都,中央区,築地２丁目７番８－２０２号,,13,102,1040045,,,,,,,2023-06-01,1,,,,,ヴィクス,0
1711,9010001235742,新規,0,2023-06-01,2023-06-01,株式会社ユー・アイ商事,,株式会社,東京都,千代田区,麹町３丁目２番地１３ＴＨＥ千代田麹町ＴＯＷＥＲ１５０３号,,13,101,1020083,,,,,,,2023-06-01,1,,,,,ユーアイショウジ,0
1730,9010401174474,新規,0,2023-06-01,2023-06-01,株式会社フォレスト,,株式会社,東京都,港区,赤坂２丁目２１番５号ＡＢＣ,,13,103,1070052,,,,,,,2023-06-01,1,,,,,フォレスト,0
1731,9010401174680,新規,0,2023-06-01,2023-06-01,Ａｌｗａｙｓ　Ｏｎ　Ｔｅｃｈ　Ｊａｐａｎ株式会社,,株式会社,東京都,港区,新橋２丁目１６－１ニュー新橋ビル７０２,,13,103,1050004,,,,,,,2023-06-01,1,,,,,オールウェイズオンテックジャパン,0
1732,9010401174714,新規,0,2023-06-01,2023-06-01,ＳＩＬＡＢ　ＮＯＲＴＨ　ＥＡＳＴ　ＡＳＩＡ株式会社,,株式会社,東京都,港区,東麻布１丁目２３－５ＰＭＣビル,,13,103,1060044,,,,,,,2023-06-01,1,,,,,シラブノースイーストアジア,0
1733,9010401174722,新規,0,2023-06-01,2023-06-01,株式会社ドルフィン・バリュー・アップ１１号,,株式会社,東京都,港区,芝公園１丁目１番１号住友不動産御成門タワー７階,,13,103,1050011,,,,,,,2023-06-01,1,,,,,ドルフィンバリューアップジュウイチゴウ,0
1734,9010401174730,新規,0,2023-06-01,2023-06-01,株式会社あかんぱ,,株式会社,東京都,港区,浜松町２丁目２番１５号浜松町ダイヤビル２Ｆ,,13,103,1050013,,,,,,,2023-06-01,1,,,,,アカンパ,0
1737,9010403030205,新規,0,2023-06-01,2023-06-01,合同会社Ｙコンサルエステート,,合同会社,東京都,港区,愛宕１丁目６番７号愛宕山弁護士ビル３０８,,13,103,1050002,,,,,,,2023-06-01,1,,,,,ワイコンサルエステート,0
1738,9010501050534,新規,0,2023-06-01,2023-06-01,株式会社交差点,,株式会社,東京都,台東区,浅草橋５丁目２－３鈴和ビル２Ｆ,,13,106,1110053,,,,,,,2023-06-01,1,,,,,コウサテン,0
1740,9010605004205,新規,0,2023-06-01,2023-06-01,一般社団法人日中無形文化財交流協会,,その他の設立登記法人,東京都,墨田区,石原１丁目３１番７－１Ｆシャトー白馬ビル,,13,107,1300011,,,,,,,2023-06-01,1,,,,,ニッチュウムケイブンカザイコウリュウキョウカイ,0
1751,9011001154775,新規,0,2023-06-01,2023-06-01,Ｇｒｅｅｎ　Ｉｎｃｕｂａｔｉｏｎ株式会社,,株式会社,東京都,目黒区,青葉台４丁目４番１２号ＴＨＥ・Ｎ３‐３０７,,13,110,1530042,,,,,,,2023-06-01,1,,,,,グリーンインキュベーション,0
1752,9011001154783,新規,0,2023-06-01,2023-06-01,Ｌｉｇｏ　Ｄｅｓｉｇｎ株式会社,,株式会社,東京都,渋谷区,富ヶ谷１丁目１４－１４スタンフォードアネックスビル３Ｆ,,13,113,1510063,,,,,,,2023-06-01,1,,,,,リゴデザイン,0
1758,9011003016916,新規,0,2023-06-01,2023-06-01,井上技術研究開発合同会社,,合同会社,東京都,渋谷区,道玄坂１丁目１０番８号渋谷道玄坂東急ビル２Ｆ－Ｃ,,13,113,1500043,,,,,,,2023-06-01,1,,,,,イノウエギジュツケンキュウカイハツ,0
1761,9011101103054,新規,0,2023-06-01,2023-06-01,株式会社ＥＮＴＣＡ,,株式会社,東京都,新宿区,住吉町１番１７－７０４号,,13,104,1620065,,,,,,,2023-06-01,1,,,,,エントカ,0
1766,9011303004777,新規,0,2023-06-01,2023-06-01,合同会社ムトウ,,合同会社,東京都,杉並区,永福４丁目１６番１０号,,13,115,1680064,,,,,,,2023-06-01,1,,,,,ムトウ,0
1768,9011401025163,新規,0,2023-06-01,2023-06-01,株式会社ＤＡＩ　ＬＯＮＧ,,株式会社,東京都,板橋区,大山金井町５１番１１－３０４号エスポワール大山,,13,119,1730024,,,,,,,2023-06-01,1,,,,,ダイロン,0
1779,9011705001785,新規,0,2023-06-01,2023-06-01,一般社団法人リフォーム管理士協会,,その他の設立登記法人,東京都,江戸川区,西葛西６丁目９番１８号トリヴァンベール１０３,,13,123,1340088,,,,,,,2023-06-01,1,,,,,リフォームカンリシキョウカイ,0
1792,9020001151831,新規,0,2023-06-01,2023-06-01,株式会社丸,,株式会社,神奈川県,横浜市西区,みなとみらい６丁目３番４－２６０９号,,14,103,2200012,,,,,,,2023-06-01,1,,,,,マル,0
1793,9020001151848,新規,0,2023-06-01,2023-06-01,株式会社小車,,株式会社,神奈川県,横浜市都筑区,東方町８９９番地,,14,118,2240045,,,,,,,2023-06-01,1,,,,,オグルマ,0
1801,9021003013152,新規,0,2023-06-01,2023-06-01,合同会社シャルマン,,合同会社,神奈川県,藤沢市,善行１丁目１７番地の２,,14,205,2510871,,,,,,,2023-06-01,1,,,,,シャルマン,0
1804,9030001154197,新規,0,2023-06-01,2023-06-01,株式会社ＨＡＮＡＫＡ,,株式会社,埼玉県,川口市,金山町３－３ライオンズマンション第１０－２０４号,,11,203,3320014,,,,,,,2023-06-01,1,,,,,ハナカ,0
1805,9030001154206,新規,0,2023-06-01,2023-06-01,大波テック株式会社,,株式会社,埼玉県,さいたま市北区,宮原町２丁目６－６４,,11,102,3310812,,,,,,,2023-06-01,1,,,,,オオナミテック,0
1809,9030003021858,新規,0,2023-06-01,2023-06-01,７Ａ工業合同会社,,合同会社,埼玉県,川口市,大字芝３８６１番地,,11,203,3330866,,,,,,,2023-06-01,1,,,,,セブンエーコウギョウ,0
1821,9050001052886,新規,0,2023-06-01,2023-06-01,Ｔｏｋｙｏ　Ｓｅｒｖｉｃｅｓ　Ｃｏｎｓｕｌｔａｎｔ株式会社,,株式会社,茨城県,結城市,大字結城１１３９７－１アーバニティ－２４－２０９号室,,08,207,3070001,,,,,,,2023-06-01,1,,,,,トウキョウサービスコンサルタント,0
1828,9080401026504,新規,0,2023-06-01,2023-06-01,株式会社秋桜,,株式会社,静岡県,浜松市中区,伝馬町３１０番地の７伝馬町クローバービル３Ｆ,,22,131,4300935,,,,,,,2023-06-01,1,,,,,コスモス,0
1831,9090003002324,新規,0,2023-06-01,2023-06-01,合同会社ノウティス,,合同会社,山梨県,大月市,大月１丁目１３番２９号２階,,19,206,4010013,,,,,,,2023-06-01,1,,,,,ノウティス,0
1833,9100001036462,新規,0,2023-06-01,2023-06-01,株式会社ＦＢＢ,,株式会社,長野県,諏訪市,大字中洲２５３４番地５,,20,206,3920015,,,,,,,2023-06-01,1,,,,,エフビービー,0
1840,9120001255259,新規,0,2023-06-01,2023-06-01,株式会社興和,,株式会社,大阪府,大阪市浪速区,日本橋東３丁目８番１３号,,27,111,5560006,,,,,,,2023-06-01,1,,,,,コウワ,0
1841,9120001255283,新規,0,2023-06-01,2023-06-01,株式会社冷凍館,,株式会社,大阪府,大阪市港区,港晴３丁目１３番５号ドミール港１階,,27,107,5520023,,,,,,,2023-06-01,1,,,,,レイトウカン,0
1842,9120001255291,新規,0,2023-06-01,2023-06-01,菲達森株式会社,,株式会社,大阪府,大阪市大正区,三軒家西３丁目４番１６号中山ビル３０５Ａ,,27,108,5510001,,,,,,,2023-06-01,1,,,,,ヒタツモリ,0
1843,9120001255317,新規,0,2023-06-01,2023-06-01,株式会社ＮＩＫＫＩ,,株式会社,大阪府,大阪市住吉区,長居西１丁目４番４８号－２３棟,,27,120,5580002,,,,,,,2023-06-01,1,,,,,ニッキー,0
1844,9120001255333,新規,0,2023-06-01,2023-06-01,Ｓ．Ｅ．Ｔ株式会社,,株式会社,大阪府,大阪市中央区,瓦屋町２丁目１０－１４第３天偉ビル３Ｄ室,,27,128,5420066,,,,,,,2023-06-01,1,,,,,エスイーティー,0
1846,9120003024182,新規,0,2023-06-01,2023-06-01,合同会社ファストライン,,合同会社,大阪府,大阪市西成区,玉出中１丁目１６番４－３０１号,,27,122,5570044,,,,,,,2023-06-01,1,,,,,ファストライン,0
1857,9130001074410,新規,0,2023-06-01,2023-06-01,株式会社ギガモスラ,,株式会社,京都府,京都市左京区,吉田本町３６番地１国際科学イノベーション棟西館１階１０４号室ベンチャーインキュベーションセンター,,26,103,6068317,,,,,,,2023-06-01,1,,,,,ギガモスラ,0
1864,9140005026638,新規,0,2023-06-01,2023-06-01,一般社団法人ＰＬＥＡｚＥＮＴＳ　Ｓｔｒｅｅｔ　Ｄａｎｃｅ．Ｅｎｔ,,その他の設立登記法人,兵庫県,神戸市中央区,国香通３丁目１－１１エテルノ神戸８０１,,28,110,6510066,,,,,,,2023-06-01,1,,,,,プリーゼンツストリートダンスエント,0
1867,9160001025071,新規,0,2023-06-01,2023-06-01,＿海株式会社,00130682,株式会社,滋賀県,栗東市,高野２９５－１１武村店舗２号室,,25,208,5203045,,,,,,,2023-06-01,1,,,,,シンカイ,0
1879,9180001156501,新規,0,2023-06-01,2023-06-01,株式会社ＵＰｓｉｄｅ,,株式会社,愛知県,名古屋市名東区,照が丘３２番地の１,,23,115,4650042,,,,,,,2023-06-01,1,,,,,アップサイド,0
1880,9180003025290,新規,0,2023-06-01,2023-06-01,合同会社ＨＯＷＡ,,合同会社,愛知県,名古屋市天白区,植田東１丁目３０６番地（エグゼ天白植田１０１号）,,23,116,4680006,,,,,,,2023-06-01,1,,,,,ホウワ,0
1881,9180005020232,新規,0,2023-06-01,2023-06-01,特定非営利活動法人Ｗｏｒｋ　ｉｔ　ｏｕｔ,,その他の設立登記法人,愛知県,名古屋市南区,柴田町２丁目１０番地５シバテーブル内,,23,112,4570815,,,,,,,2023-06-01,1,,,,,ワークイットアウト,0
1893,9230001019859,新規,0,2023-06-01,2023-06-01,株式会社チルドレン,,株式会社,富山県,富山市,才覚寺７７５番地,,16,201,9398263,,,,,,,2023-06-01,1,,,,,チルドレン,0
1898,9240001061587,新規,0,2023-06-01,2023-06-01,株式会社ＮＩＫＡ,,株式会社,広島県,広島市東区,東蟹屋町１２－１５－３０１,,34,102,7320055,,,,,,,2023-06-01,1,,,,,ニカ,0
1911,9290001101710,新規,0,2023-06-01,2023-06-01,株式会社クラフトビルディング,,株式会社,福岡県,福岡市早良区,飯倉５丁目２１番１８号,,40,137,8140161,,,,,,,2023-06-01,1,,,,,クラフトビルディング,0
1916,9290005019049,新規,0,2023-06-01,2023-06-01,ＮＰＯ法人いただきます,,その他の設立登記法人,福岡県,福岡市南区,鶴田３丁目１０番４３－２号,,40,134,8111352,,,,,,,2023-06-01,1,,,,,イタダキマス,0
1922,9290801029564,新規,0,2023-06-01,2023-06-01,株式会社ウォルテック,,株式会社,福岡県,北九州市小倉南区,徳力４丁目１５番５号,,40,107,8020974,,,,,,,2023-06-01,1,,,,,ウォルテック,0
1929,9360003013005,新規,0,2023-06-01,2023-06-01,いりえ合同会社,,合同会社,沖縄県,宮古島市,伊良部字国仲１８３－１３－３０８,,47,214,9060505,,,,,,,2023-06-01,1,,,,,イリエ,0
1930,9370001050016,新規,0,2023-06-01,2023-06-01,株式会社Ｒａｍｅｌ,,株式会社,宮城県,仙台市泉区,北高森２０－１,,04,105,9813202,,,,,,,2023-06-01,1,,,,,ラメル,0
1933,9370005010635,新規,0,2023-06-01,2023-06-01,一般社団法人宮城県スイミングクラブ協議会,,その他の設立登記法人,宮城県,仙台市宮城野区,清水沼１丁目１番３０号株式会社仙台スイミングスクール内,,04,102,9830845,,,,,,,2023-06-01,1,,,,,ミヤギケンスイミングクラブキョウギカイ,0
1940,9390003002104,新規,0,2023-06-01,2023-06-01,合同会社学習塾ＮｅｘｔＳｔａｇｅ,,合同会社,山形県,山形市,下条町２丁目１番８号森谷ビル２０２号,,06,201,9900823,,,,,,,2023-06-01,1,,,,,ガクシュウジュクネクストステージ,0
1949,9480001012112,新規,0,2023-06-01,2023-06-01,株式会社青し,,株式会社,徳島県,徳島市,寺島本町東１丁目２０番地,,36,201,7700832,,,,,,,2023-06-01,1,,,,,アオシ,0
1952,9700150116252,新規,0,2023-06-01,2023-05-19,津山市手づくり加工研究会,,その他,岡山県,津山市,籾保５４０番地の２,,33,203,7080803,,,,,,,2023-05-19,1,,,,,ツヤマシテヅクリカコウケンキユウカイ,0
1953,9700150116764,新規,0,2023-06-01,2023-06-01,ｓｈｅｎｚｈｅｎｓｈｉｘｉｎｘｉａｎｇｄｉａｎｚｉｓｈａｎｇｗｕｙｏｕｘｉａｎｇｏｎｇｓｉ,,外国会社等,,,,,,,,ｇｕａｎｇｄｏｎｇｓｈｅｎｇｓｈｅｎｚｈｅｎｓｈｉｌｏｎｇｇａｎｇｑｕｂｕｊｉｊｉｅｄａｏｌｕｏｇａｎｇｓｈｅｑｕｚｈｏｎｇｙｕａｎｌｕ３３ｈａｏＣｄｏｎｇ２３２,,,,,,2023-06-01,1,,,,,シェンジェンシーシンシャンディエンズーシャンウーヨウシエンゴンスー,0
1954,9700150116772,新規,0,2023-06-01,2023-06-01,Ｓｈｅｎｚｈｅｎ　Ｂａｉｓｈｅｎｇｗｅｉ　Ｅｌｅｃｔｒｏｎｉｃ　Ｃｏｍｍｅｒｃｅ　Ｃｏ．，Ｌｔｄ．,,外国会社等,,,,,,,,Ｌｏｎｇｈｕａ　Ｓｔｒｅｅｔ，ｑｉｎｇｈｕａ　Ｃｏｍｍｕｎｉｔｙ，Ｈｕａｑｉｎｇ　Ａｖｅｎｕｅ　Ｓｈｅｎｌｉ　Ｉｎｄｕｓｔｒｉａｌ　Ｐａｒｋ，Ｂｕｉｌｄｉｎｇ　Ａ，２　Ｆｌｏｏｒ　２０３，ｓｈｅｎｚｈｅｎ　Ｌｏｎｇｈｕａ　Ｄｉｓｔｒｉｃｔ　ｇｕａｎｇｄｏｎｇ,,,,,,2023-06-01,1,,,,,シンセンシバイセイイエレクトロニツクコマースカンパニーリミテツド,0
1955,9700150116780,新規,0,2023-06-01,2023-06-01,Ｓｈｅｎｚｈｅｎ　Ｊｉｎｇｗｕ　Ｔｅｃｈｎｏｌｏｇｙ　Ｃｏ．，Ｌｔｄ．,,外国会社等,,,,,,,,２１０９，Ｂｌｏｃｋ　Ｂ，Ｂｕｉｌｄｉｎｇ　２，ＣＯＦＣＯ　Ｘｉａｎｇｙｕｎ，Ａｉｌｉａｎ　Ｃｏｍｍｕｎｉｔｙ，Ｌｏｎｇｃｈｅｎｇ　Ｓｔｒｅｅｔ，Ｌｏｎｇｇａｎｇ　Ｄｉｓｔｒｉｃｔ，Ｓｈｅｎｚｈｅｎ,,,,,,2023-06-01,1,,,,,シンセンジングウテクノロジーカンパニーリミテツド,0
1956,9700150116789,新規,0,2023-06-01,2023-06-01,Ｈｕｂｅｉｔｕｄａｚｈｉｎｅｎｇｋｅｊｉｙｏｕｘｉａｎｇｏｎｇｓｉ,,外国会社等,,,,,,,,ｗｕｈａｎｄｏｎｇｈｕｘｉｎｊｉｓｈｕｋａｉｆａｑｕｇｕａｎｄｏｎｇｊｉｅｄａｏｎａｎｈｕｄａｄａｏ１１６ｈａｏｎａｎｚｈｕｈｕｓｈｉｓｈａｎｇｃｈｅｎｇＫ５ｊｉｎｇｊｉｘｉｎｇｊｉｕｄｉａｎ１－１６　ｆｌｏｏｒｓ　７Ｆ　７０１,,,,,,2023-06-01,1,,,,,コホクトタツインテリジエントテクノロジーユウゲンコウシ,0
1957,9700150116797,新規,0,2023-06-01,2023-06-01,ｈｅｆｅｉｇｕｔｅｎｇｘｉｎｘｉｋｅｊｉｙｏｕｘｉａｎｇｏｎｇｓｉ,,外国会社等,,,,,,,,ｙａｏｈａｉｑｕｓｈｅｎｇｌｉｌｕｙｕｌｉｎｑｕａｎｌｕｊｉａｏｋｏｕｚｈｏｎｇｈｕａｎｇｕｏｊｉｇｕａｎｇｃｈａｎｇ　ｚｈｏｎｇｈｕａｎｇｕｏｊｉｇｕａｎｇｃｈａｎｇＡｚｈｕａｎｇ１４０３ｓｈｉ,,,,,,2023-06-01,1,,,,,ゴウヒコトウインフオメーシヨンテクノロジーユウゲンコウシ,0
