sequenceNumber,corporateNumber,process,correct,updateDate,changeDate,name,nameImageId,kind,prefectureName,cityName,streetNumber,addressImageId,prefectureCode,cityCode,postCode,addressOutside,addressOutsideImageId,closeDate,closeCause,successorCorporateNumber,changeCause,assignmentDate,latest,enName,enPrefectureName,enCityName,enAddressOutside,furigana,hihyoji
9,1010001194707,登記記録の閉鎖等,0,2025-11-14,2025-11-04,イー・パワーＣ株式会社,,株式会社,東京都,千代田区,九段南４丁目８番３４号,,13,101,1020074,,,2025-11-04,清算の結了等,,,2018-09-10,1,,,,,イーパワーシー,0
10,1010001207047,登記記録の閉鎖等,0,2025-11-14,2025-11-07,株式会社アポロ,,株式会社,東京都,台東区,上野５丁目２５番７号２Ｆ,,13,106,1100005,,,2025-11-07,清算の結了等,,,2020-01-30,1,,,,,アポロ,0
18,1010401069979,登記記録の閉鎖等,0,2025-11-14,2025-10-03,株式会社オレンジ,,株式会社,東京都,港区,麻布台１丁目１１番１０号,,13,103,1060041,,,2025-10-03,合併による解散等,6010401133714,令和７年１０月１日東京都港区麻布台一丁目１１番１０号株式会社オレンジ・アンド・パートナーズ（6010401133714）に合併し解散,2015-10-05,1,,,,,オレンジ,0
25,1010402025238,登記記録の閉鎖等,0,2025-11-14,2025-10-17,ＳＰＳジャパン株式会社,,株式会社,東京都,港区,東麻布２丁目１０番２号,,13,103,1060044,,,2025-10-17,清算の結了等,,,2015-10-05,1,,,,,,0
46,1011001104779,登記記録の閉鎖等,0,2025-11-14,2025-10-15,株式会社ｍｅｍｏｒｉ,,株式会社,東京都,渋谷区,代官山町９－１０（ＳｏｄａＣＣｏ）ｃｏ－ｌａｂ代官山,,13,113,1500034,,,2025-10-15,清算の結了等,,,2015-10-05,1,,,,,メモリ,0
47,1011001128290,登記記録の閉鎖等,0,2025-11-14,2025-10-17,株式会社ステップ,,株式会社,東京都,渋谷区,恵比寿４丁目５番２１号,,13,113,1500013,,,2025-10-17,清算の結了等,,,2019-06-03,1,,,,,ステップ,0
52,1011002021825,登記記録の閉鎖等,0,2025-11-14,2025-10-17,有限会社フェニックス,,有限会社,東京都,渋谷区,笹塚２丁目２５番２号,00064943,13,113,1510073,,,2025-10-17,清算の結了等,,,2015-10-05,1,,,,,フェニックス,0
80,1020001013618,登記記録の閉鎖等,0,2025-11-14,2025-11-10,株式会社ヴイーナス,,株式会社,神奈川県,横浜市南区,南太田３丁目８番１２号,,14,105,2320006,,,2025-11-10,清算の結了等,,,2015-10-05,1,,,,,ヴイーナス,0
125,1100001003602,登記記録の閉鎖等,0,2025-11-14,2025-11-12,株式会社山口金物店,,株式会社,長野県,長野市,大字南長野南石堂町１４２３番地ロ号,,20,201,3800824,,,2025-11-12,清算の結了等,,,2015-10-05,1,,,,,ヤマグチカナモノテン,0
131,1120001031576,登記記録の閉鎖等,0,2025-11-14,2025-11-10,株式会社プロパックハウス,,株式会社,大阪府,大阪市住之江区,南港南５丁目２番１００号,,27,125,5590032,,,2025-11-10,清算の結了等,,,2015-10-05,1,,,,,プロパックハウス,0
135,1120001056887,登記記録の閉鎖等,0,2025-11-14,2025-11-05,築山商事株式会社,,株式会社,大阪府,大阪市淀川区,木川東３丁目７番１８号,,27,123,5320012,,,2025-11-05,清算の結了等,,,2015-10-05,1,,,,,ツキヤマショウジ,0
138,1120001193706,登記記録の閉鎖等,0,2025-11-14,2025-11-07,株式会社エフアイリード,,株式会社,大阪府,大阪市中央区,南船場３丁目９番６－３０５号,,27,128,5420081,,,2025-11-07,清算の結了等,,,2015-10-05,1,,,,,エフアイリード,0
139,1120001204751,登記記録の閉鎖等,0,2025-11-14,2025-11-07,家もん株式会社,,株式会社,大阪府,大阪市阿倍野区,阿倍野筋３丁目１０番１号あべのベルタ２２２号,,27,119,5450052,,,2025-11-07,清算の結了等,,,2017-04-05,1,,,,,イエモン,0
149,1120101028241,登記記録の閉鎖等,0,2025-11-14,2025-10-27,株式会社テクノ大徳,,株式会社,大阪府,堺市西区,浜寺石津町中１丁９番１２号,,27,144,5928334,,,2025-10-27,清算の結了等,,,2015-10-05,1,,,,,テクノダイトク,0
151,1120101032747,登記記録の閉鎖等,0,2025-11-14,2025-11-04,株式会社片山製作所,,株式会社,大阪府,羽曳野市,翠鳥園１０番４号,,27,222,5830855,,,2025-11-04,清算の結了等,,,2015-10-05,1,,,,,カタヤマセイサクショ,0
168,1140001084655,登記記録の閉鎖等,0,2025-11-14,2025-11-07,株式会社川道商店,,株式会社,兵庫県,洲本市,栄町２丁目１番３号,,28,205,6560026,,,2025-11-07,清算の結了等,,,2015-10-05,1,,,,,カワミチショウテン,0
170,1140002019809,登記記録の閉鎖等,0,2025-11-14,2025-11-07,有限会社福永トレーディング,,有限会社,兵庫県,神戸市中央区,熊内町５丁目２番６号,,28,110,6510056,,,2025-11-07,清算の結了等,,,2015-10-05,1,,,,,フクナガトレーディング,0
177,1160001012639,登記記録の閉鎖等,0,2025-11-14,2025-11-12,井上金物株式会社,,株式会社,滋賀県,草津市,草津２丁目４番１７号,,25,206,5250034,,,2025-11-12,清算の結了等,,,2015-10-05,1,,,,,イノウエカナモノ,0
189,1180003015068,登記記録の閉鎖等,0,2025-11-14,2025-11-06,合同会社アイチ,,合同会社,愛知県,半田市,銀座本町２丁目５番地,,23,205,4750874,,,2025-11-06,清算の結了等,,,2015-10-05,1,,,,,アイチ,0
193,1190001019128,登記記録の閉鎖等,0,2025-11-14,2025-11-11,株式会社ＫＰＳ研究所,,株式会社,三重県,桑名市,大山田８丁目７番地５,,24,205,5110903,,,2025-11-11,清算の結了等,,,2015-10-05,1,,,,,ケーピーエスケンキュウショ,0
214,1270001004732,登記記録の閉鎖等,0,2025-11-14,2025-11-12,株式会社つくとら,,株式会社,鳥取県,西伯郡伯耆町,宮原１４番地８,,31,390,6894206,,,2025-11-12,清算の結了等,,,2015-10-05,1,,,,,ツクトラ,0
222,1290005006310,登記記録の閉鎖等,0,2025-11-14,2025-11-05,医療法人市來医院,,その他の設立登記法人,福岡県,糟屋郡須惠町,大字旅石１７０番地１４３,,40,344,8112221,,,2025-11-05,清算の結了等,,,2015-10-05,1,,,,,イチキイイン,0
223,1290801023459,登記記録の閉鎖等,0,2025-11-14,2025-11-07,北九州アッシュリサイクルシステムズ株式会社,,株式会社,福岡県,北九州市戸畑区,初音町８－１８ウィングス戸畑１００７,,40,105,8040066,,,2025-11-07,清算の結了等,,,2017-04-11,1,,,,,キタキュウシュウアッシュリサイクルシステムズ,0
228,1320005000243,登記記録の閉鎖等,0,2025-11-14,2025-11-05,農事組合法人後藤酪農組合,,その他の設立登記法人,大分県,大分市,横塚１丁目１１番２７号,,44,201,8700254,,,2025-11-05,清算の結了等,,,2015-10-05,1,,,,,,0
235,1350002007255,登記記録の閉鎖等,0,2025-11-14,2025-11-12,有限会社渡辺設備,,有限会社,宮崎県,東諸県郡国富町,大字岩知野４６番地,,45,382,8801111,,,2025-11-12,清算の結了等,,,2015-10-05,1,,,,,ワタナベセツビ,0
242,1360001032732,登記記録の閉鎖等,0,2025-11-14,2025-11-10,株式会社ウルミー,,株式会社,沖縄県,うるま市,字宮里２７０番地４,,47,213,9042243,,,2025-11-10,清算の結了等,,,2023-10-24,1,,,,,,0
248,1370005010898,登記記録の閉鎖等,0,2025-11-14,2025-10-30,一般社団法人アクエリアス,,その他の設立登記法人,宮城県,仙台市若林区,河原町２丁目６番１３号,,04,103,9840816,,,2025-10-30,清算の結了等,,,2025-01-22,1,,,,,アクエリアス,0
255,1400002008751,登記記録の閉鎖等,0,2025-11-14,2025-11-05,有限会社ヒラエン,,有限会社,岩手県,花巻市,東和町土沢５区４０７番地,,03,205,0280114,,,2025-11-05,清算の結了等,,,2015-10-05,1,,,,,ヒラエン,0
256,1420001000732,登記記録の閉鎖等,0,2025-11-14,2025-11-04,株式会社共立,,株式会社,青森県,青森市,大字宮田字玉水５９４番地,,02,201,0393505,,,2025-11-04,合併による解散等,3420001001489,令和７年１１月１日青森市大字宮田字玉水５９４番地株式会社東商（3420001001489）に合併し解散,2015-10-05,1,,,,,キョウリツ,0
260,1430001049876,登記記録の閉鎖等,0,2025-11-14,2025-11-10,株式会社北建,,株式会社,北海道,小樽市,天神１丁目１０番８号,,01,203,0470011,,,2025-11-10,清算の結了等,,,2015-10-05,1,,,,,キタケン,0
266,1430002053167,登記記録の閉鎖等,0,2025-11-14,2025-11-07,有限会社三木ミシン電気商会,,有限会社,北海道,滝川市,本町１丁目１番２６号,,01,225,0730021,,,2025-11-07,清算の結了等,,,2015-10-05,1,,,,,ミキミシンデンキショウカイ,0
272,1500005008648,登記記録の閉鎖等,0,2025-11-14,2025-11-10,一般社団法人もものき,,その他の設立登記法人,愛媛県,松山市,西垣生町７１６番地１３,,38,201,7918044,,,2025-11-10,清算の結了等,,,2023-10-25,1,,,,,モモノキ,0
276,2010001157019,登記記録の閉鎖等,0,2025-11-14,2025-11-04,アストニッシュコーポレーション株式会社,,株式会社,東京都,中央区,東日本橋２丁目８番１号,,13,102,1030004,,,2025-11-04,清算の結了等,,,2015-10-05,1,,,,,アストニッシュコーポレーション,0
300,2010403022423,登記記録の閉鎖等,0,2025-11-14,2025-10-16,Ｒｏｉ　Ｗｏｒｌｄ合同会社,,合同会社,東京都,渋谷区,恵比寿南１丁目１９番１１－４０３号ＫｅｙａｋｉＴｅｒｒａｃｅ恵比寿南,,13,113,1500022,,,2025-10-16,清算の結了等,,,2020-02-28,1,,,,,ロイワールド,0
301,2010403026597,登記記録の閉鎖等,0,2025-11-14,2025-10-17,合同会社ｆｏｒ　ｕｓ,,合同会社,東京都,港区,芝浦４丁目５番１１－２０２号,,13,103,1080023,,,2025-10-17,清算の結了等,,,2021-11-24,1,,,,,フォーアス,0
304,2010501007689,登記記録の閉鎖等,0,2025-11-14,2025-11-07,株式会社第一江川合紙店,,株式会社,東京都,台東区,松が谷１丁目８番１号,,13,106,1110036,,,2025-11-07,清算の結了等,,,2015-10-05,1,,,,,ダイイチエガワゴウシテン,0
318,2011002016733,登記記録の閉鎖等,0,2025-11-14,2025-10-01,有限会社野中設計事務所,,有限会社,東京都,渋谷区,渋谷１丁目１番６号エムエフ青山,,13,113,1500002,,,2025-10-01,清算の結了等,,,2015-10-05,1,,,,,,0
324,2011101056085,登記記録の閉鎖等,0,2025-11-14,2025-10-14,ルクラム・テクノロジーマーケティング株式会社,,株式会社,東京都,渋谷区,幡ヶ谷３丁目３９番１２号渋谷ウェストビル,,13,113,1510072,,,2025-10-14,清算の結了等,,,2015-10-05,1,,,,,ルクラムテクノロジーマーケティング,0
326,2011101098557,登記記録の閉鎖等,0,2025-11-14,2025-10-09,株式会社新栄彩,,株式会社,東京都,新宿区,榎町３４－３榎町ビル５階,,13,104,1620806,,,2025-10-09,清算の結了等,,,2022-04-15,1,,,,,シンエイサイ,0
329,2011203003621,登記記録の閉鎖等,0,2025-11-14,2025-11-06,大日本食品合同会社,,合同会社,東京都,中野区,沼袋３丁目２番１２号,,13,114,1650025,,,2025-11-06,清算の結了等,,,2021-08-20,1,,,,,,0
330,2011301006138,登記記録の閉鎖等,0,2025-11-14,2025-11-10,株式会社福楽得,,株式会社,東京都,杉並区,桃井１丁目４番４号,,13,115,1670034,,,2025-11-10,清算の結了等,,,2015-10-05,1,,,,,フクラクトク,0
331,2011301008893,登記記録の閉鎖等,0,2025-11-14,2025-11-10,株式会社ＡＳＡ,,株式会社,東京都,杉並区,阿佐谷南１丁目１６番７号,,13,115,1660004,,,2025-11-10,清算の結了等,,,2015-10-05,1,,,,,エーエスエー,0
356,2013201001524,登記記録の閉鎖等,0,2025-11-14,2025-10-14,川村機工株式会社,,株式会社,東京都,目黒区,碑文谷１丁目２１番２号,,13,110,1520003,,,2025-10-14,清算の結了等,,,2015-10-05,1,,,,,カワムラキコウ,0
364,2020001058348,登記記録の閉鎖等,0,2025-11-14,2025-11-06,株式会社田中製作所,,株式会社,神奈川県,横浜市保土ケ谷区,和田２丁目１２番１７号,,14,106,2400065,,,2025-11-06,清算の結了等,,,2015-10-05,1,,,,,タナカセイサクショ,0
374,2021001008854,登記記録の閉鎖等,0,2025-11-14,2025-10-27,株式会社ウィットハウス,,株式会社,神奈川県,鎌倉市,台１７１８番地,,14,204,2470061,,,2025-10-27,清算の結了等,,,2015-10-05,1,,,,,ウィットハウス,0
397,2040002033455,登記記録の閉鎖等,0,2025-11-14,2025-11-12,有限会社カワダ,,有限会社,千葉県,市川市,南大野３丁目２２番１０号,,12,203,2720804,,,2025-11-12,清算の結了等,,,2015-10-05,1,,,,,カワダ,0
407,2050002043866,登記記録の閉鎖等,0,2025-11-14,2025-11-06,有限会社龍道建設,,有限会社,茨城県,筑西市,木戸５３番地の２,,08,227,3080104,,,2025-11-06,清算の結了等,,,2015-10-05,1,,,,,リュウドウケンセツ,0
416,2070002006029,登記記録の閉鎖等,0,2025-11-14,2025-11-10,有限会社アヤタニコーポレーション,,有限会社,群馬県,前橋市,上小出町２丁目１５番地の１,,10,201,3710037,,,2025-11-10,清算の結了等,,,2015-10-05,1,,,,,アヤタニコーポレーション,0
419,2080103002215,登記記録の閉鎖等,0,2025-11-14,2025-11-10,合同会社ブリーズ,,合同会社,静岡県,裾野市,千福が丘２丁目２０番５,,22,220,4101115,,,2025-11-10,清算の結了等,,,2020-09-14,1,,,,,ブリーズ,0
422,2100003005802,登記記録の閉鎖等,0,2025-11-14,2025-11-10,株式会社田中モータース,,株式会社,東京都,千代田区,神田東松下町２５番地,,13,101,1010042,,,2025-11-10,合併による解散等,1020002020828,令和７年１０月２７日横浜市旭区矢指町１９０６番地株式会社オートパシフィックヨコハマ（1020002020828）に合併し解散,2020-09-16,1,,,,,タナカモータース,0
442,2120002018555,登記記録の閉鎖等,0,2025-11-14,2025-11-07,有限会社金森商店,,有限会社,大阪府,大阪市福島区,野田１丁目１番８６号大阪市中央卸売市場本場内,,27,103,5530005,,,2025-11-07,清算の結了等,,,2015-10-05,1,,,,,,0
450,2120101032283,登記記録の閉鎖等,0,2025-11-14,2025-10-31,十洋商事株式会社,,株式会社,大阪府,羽曳野市,羽曳が丘４丁目１２番３号,,27,222,5830864,,,2025-10-31,清算の結了等,,,2015-10-05,1,,,,,トウヨウショウジ,0
481,2180001112898,登記記録の閉鎖等,0,2025-11-14,2025-11-04,平幸株式会社,,株式会社,愛知県,名古屋市中区,新栄２丁目１番４号,,23,106,4600007,,,2025-11-04,清算の結了等,,,2015-10-05,1,,,,,ヒラコウ,0
486,2180003011479,登記記録の閉鎖等,0,2025-11-14,2025-11-10,田中刺繍合名会社,,合名会社,愛知県,一宮市,北方町曽根字村前西３０２番地,,23,203,4938002,,,2025-11-10,清算の結了等,,,2015-10-05,1,,,,,タナカシシュウ,0
491,2180302001593,登記記録の閉鎖等,0,2025-11-14,2025-11-12,有限会社鈴木伸也木材,,有限会社,愛知県,岡崎市,山綱町字恋ノ口３番地１,,23,202,4443513,,,2025-11-12,清算の結了等,,,2015-10-05,1,,,,,スズキシンヤモクザイ,0
492,2190001006216,登記記録の閉鎖等,0,2025-11-14,2025-11-11,株式会社セイキョウ,,株式会社,三重県,鈴鹿市,神戸９丁目１３番２２号,,24,207,5130801,,,2025-11-11,清算の結了等,,,2015-10-05,1,,,,,セイキョウ,0
494,2190002024729,登記記録の閉鎖等,0,2025-11-14,2025-11-06,有限会社三栄工芸社,,有限会社,三重県,四日市市,海山道町１丁目７０番地,,24,202,5100845,,,2025-11-06,清算の結了等,,,2025-08-22,1,,,,,サンエイコウゲイシャ,0
503,2250001012364,登記記録の閉鎖等,0,2025-11-14,2025-11-11,株式会社ユニアル,,株式会社,山口県,岩国市,平田５丁目５１番１９号,,35,208,7410072,,,2025-11-11,清算の結了等,,,2015-10-05,1,,,,,ユニアル,0
507,2290001005232,登記記録の閉鎖等,0,2025-11-14,2025-10-17,株式会社ジー・エヌ・エヌ,,株式会社,福岡県,福岡市中央区,薬院１丁目１１番７号エスビル１Ｆ,,40,133,8100022,,,2025-10-17,清算の結了等,,,2015-10-05,1,,,,,ジーエヌエヌ,0
548,2430001065930,登記記録の閉鎖等,0,2025-11-14,2025-11-07,株式会社ゴーエン,,株式会社,北海道,札幌市東区,北十七条東１６丁目２番１０号,,01,103,0650017,,,2025-11-07,清算の結了等,,,2015-10-05,1,,,,,ゴーエン,0
579,3010003030296,登記記録の閉鎖等,0,2025-11-14,2025-09-29,Ｋｏｋｏｒｏ　Ｃａｒｅ　Ｐａｃｋａｇｅｓ合同会社,,合同会社,東京都,文京区,本郷１丁目２８－３６鳳明ビル５０３,,13,105,1130033,,,2025-09-29,清算の結了等,,,2019-07-29,1,,,,,ココロケアパッケージ,0
601,3010802002173,登記記録の閉鎖等,0,2025-11-14,2025-11-05,有限会社エス・ケイ・ワイ,,有限会社,東京都,大田区,下丸子１丁目５番１９号,,13,111,1460092,,,2025-11-05,清算の結了等,,,2015-10-05,1,,,,,エスケイワイ,0
604,3010901048670,登記記録の閉鎖等,0,2025-11-14,2025-10-17,株式会社ＧＲＥＥＮ,,株式会社,東京都,港区,赤坂４丁目８番１９号赤坂フロントタウン３階,,13,103,1070052,,,2025-10-17,清算の結了等,,,2021-05-17,1,,,,,グリーン,0
609,3011001073816,登記記録の閉鎖等,0,2025-11-14,2025-10-17,株式会社ＢＧＭ,,株式会社,東京都,渋谷区,本町３丁目４８番５号,,13,113,1510071,,,2025-10-17,清算の結了等,,,2015-10-05,1,,,,,ビージーエム,0
641,3012402001290,登記記録の閉鎖等,0,2025-11-14,2025-11-11,有限会社システムワーク,,有限会社,東京都,府中市,紅葉丘１丁目１９番地の２２,,13,206,1830004,,,2025-11-11,清算の結了等,,,2015-10-05,1,,,,,システムワーク,0
642,3012403006751,登記記録の閉鎖等,0,2025-11-14,2025-11-11,未来創造ジパング合同会社,,合同会社,東京都,調布市,国領町２丁目５番１５号コクテイ３Ｆ,,13,208,1820022,,,2025-11-11,清算の結了等,,,2024-09-25,1,,,,,ミライソウゾウジパング,0
647,3012801017342,登記記録の閉鎖等,0,2025-11-14,2025-11-05,株式会社プロダクト,,株式会社,東京都,武蔵村山市,三ツ藤３丁目２１番地の１７,,13,223,2080021,,,2025-11-05,合併による解散等,5012801007861,令和７年１１月１日東京都武蔵村山市三ツ藤三丁目２１番地の１７株式会社藤原機工（5012801007861）に合併し解散,2016-06-30,1,,,,,プロダクト,0
650,3013401004986,登記記録の閉鎖等,0,2025-11-14,2025-11-11,株式会社エー・エム設備,,株式会社,東京都,多摩市,諏訪２丁目４番地Ｅ－７０１,,13,224,2060024,,,2025-11-11,清算の結了等,,,2015-10-05,1,,,,,エーエムセツビ,0
651,3020001003939,登記記録の閉鎖等,0,2025-11-14,2025-11-06,三洋建商株式会社,,株式会社,神奈川県,横浜市港南区,下永谷６丁目３番１号,,14,111,2330016,,,2025-11-06,清算の結了等,,,2015-10-05,1,,,,,サンヨウケンショウ,0
675,3030001031930,登記記録の閉鎖等,0,2025-11-14,2025-11-07,ヤマト住販株式会社,,株式会社,埼玉県,白岡市,小久喜１１５２番地,,11,246,3490217,,,2025-11-07,清算の結了等,,,2015-10-05,1,,,,,ヤマトジュウハン,0
700,3040001108109,登記記録の閉鎖等,0,2025-11-14,2025-11-04,力遥株式会社,,株式会社,神奈川県,川崎市川崎区,南町２－９ハイネスベルグレイス川崎６０３室,,14,131,2100015,,,2025-11-04,清算の結了等,,,2019-02-22,1,,,,,リキハル,0
704,3040002069878,登記記録の閉鎖等,0,2025-11-14,2025-11-06,有限会社加藤ワークス,,有限会社,千葉県,君津市,中島１１５１番地,,12,225,2991106,,,2025-11-06,清算の結了等,,,2015-10-05,1,,,,,,0
709,3050003000964,登記記録の閉鎖等,0,2025-11-14,2025-11-04,合資会社メンズシヨツプマセ,,合資会社,茨城県,猿島郡境町,２９３番地の１０,,08,546,3060433,,,2025-11-04,清算の結了等,,,2015-10-05,1,,,,,メンズシヨツプマセ,0
710,3060001023917,登記記録の閉鎖等,0,2025-11-14,2025-11-12,株式会社自在の里,,株式会社,栃木県,那須塩原市,埼玉１３番地１１０,,09,213,3250033,,,2025-11-12,清算の結了等,,,2015-10-05,1,,,,,ジザイノサト,0
729,3080401021089,登記記録の閉鎖等,0,2025-11-14,2025-11-10,アドテック株式会社,,株式会社,静岡県,浜松市中央区,和田町４５９番,,22,138,4350016,,,2025-11-10,清算の結了等,,,2015-10-05,1,,,,,アドテック,0
740,3110002029404,登記記録の閉鎖等,0,2025-11-14,2025-11-07,有限会社柳屋,,有限会社,新潟県,長岡市,川崎６丁目１２４９番地５,,15,202,9400864,,,2025-11-07,清算の結了等,,,2015-10-05,1,,,,,ヤナギヤ,0
741,3110002030279,登記記録の閉鎖等,0,2025-11-14,2025-11-07,有限会社エビシマ,,有限会社,新潟県,長岡市,飯塚２７４８番地１,,15,202,9495414,,,2025-11-07,清算の結了等,,,2015-10-05,1,,,,,エビシマ,0
743,3110005010030,登記記録の閉鎖等,0,2025-11-14,2025-11-11,特定非営利活動法人妙高自然アカデミー,,その他の設立登記法人,新潟県,妙高市,大字二俣１５２６番地３３４,,15,217,9492101,,,2025-11-11,清算の結了等,,,2015-10-05,1,,,,,ミョウコウシゼンアカデミー,0
746,3120001084449,登記記録の閉鎖等,0,2025-11-14,2025-11-07,中央不動産株式会社,,株式会社,兵庫県,宝塚市,月見山２丁目７番２１号,,28,214,6650002,,,2025-11-07,清算の結了等,,,2015-10-05,1,,,,,チュウオウフドウサン,0
761,3120102016706,登記記録の閉鎖等,0,2025-11-14,2025-10-31,関西ネットワーク有限会社,,有限会社,大阪府,富田林市,向陽台３丁目３番５－７０５号,,27,214,5840082,,,2025-10-31,清算の結了等,,,2015-10-05,1,,,,,カンサイネットワーク,0
773,3140001113957,登記記録の閉鎖等,0,2025-11-14,2025-11-12,株式会社ファーマシーピーチ,,株式会社,兵庫県,西宮市,松ケ丘町１０－１３,,28,204,6620061,,,2025-11-12,合併による解散等,6030001066965,令和７年１０月１日大阪府茨木市西駅前町１３番２５号株式会社ウィーズ（6030001066965）に合併し解散,2019-06-13,1,,,,,ファーマシーピーチ,0
781,3150002005673,登記記録の閉鎖等,0,2025-11-14,2025-11-13,有限会社牛又精肉店,,有限会社,奈良県,天理市,川原城町２７０番地,,29,204,6320016,,,2025-11-13,清算の結了等,,,2015-10-05,1,,,,,ギュウマタセイニクテン,0
790,3180001046732,登記記録の閉鎖等,0,2025-11-14,2025-11-07,株式会社フライト,,株式会社,愛知県,名古屋市中村区,稲葉地本通３丁目９番地,,23,105,4530057,,,2025-11-07,清算の結了等,,,2015-10-05,1,,,,,フライト,0
794,3180003019356,登記記録の閉鎖等,0,2025-11-14,2025-11-07,岳飛合同会社,,合同会社,愛知県,名古屋市緑区,鳴海町字母呂後７５,,23,114,4580801,,,2025-11-07,清算の結了等,,,2018-10-11,1,,,,,ガクヒ,0
798,3180005018471,登記記録の閉鎖等,0,2025-11-14,2025-11-11,一般社団法人ＡＳＩＡ　ｂｅａｕｔｙ　ｆｉｔｎｅｓｓ協会,,その他の設立登記法人,愛知県,瀬戸市,北脇町２７６,,23,204,4890918,,,2025-11-11,清算の結了等,,,2019-10-17,1,,,,,アジアビューティーフィットネスキョウカイ,0
805,3190001027632,登記記録の閉鎖等,0,2025-11-14,2025-11-11,現代機工株式会社,,株式会社,三重県,四日市市,笹川１丁目１５番地１,,24,202,5100944,,,2025-11-11,清算の結了等,,,2020-09-03,1,,,,,ゲンダイキコウ,0
810,3240002042261,登記記録の閉鎖等,0,2025-11-14,2025-11-04,能登シャーリング有限会社,,有限会社,広島県,福山市,箕沖町１０５番地の１２,,34,207,7210956,,,2025-11-04,合併による解散等,9240002043196,令和７年１１月１日広島県福山市大門町五丁目１１番３７号株式会社丸加製作所（9240002043196）に合併し解散,2015-10-05,1,,,,,ノトシャーリング,0
822,3290002001592,登記記録の閉鎖等,0,2025-11-14,2025-10-30,有限会社エム．ケー．塩原,,有限会社,福岡県,福岡市南区,塩原３丁目１４番８号,,40,134,8150032,,,2025-10-30,清算の結了等,,,2015-10-05,1,,,,,エムケーシオバル,0
823,3290002048345,登記記録の閉鎖等,0,2025-11-14,2025-10-17,有限会社アドバンス,,有限会社,福岡県,久留米市,諏訪野町２５４９番地の１,,40,203,8300037,,,2025-10-17,清算の結了等,,,2015-10-05,1,,,,,,0
836,3340001009623,登記記録の閉鎖等,0,2025-11-14,2025-11-06,株式会社東進建設,,株式会社,鹿児島県,鹿児島市,樋之口町５番１９号,00098731,46,201,8920845,,,2025-11-06,清算の結了等,,,2015-10-05,1,,,,,トウシンケンセツ,0
844,3360001025726,登記記録の閉鎖等,0,2025-11-14,2025-11-10,株式会社ミルキーウェイ,,株式会社,沖縄県,那覇市,松山２丁目２６番１６号２階,,47,201,9000032,,,2025-11-10,清算の結了等,,,2019-05-30,1,,,,,,0
853,3390001013034,登記記録の閉鎖等,0,2025-11-14,2025-11-12,株式会社エスアイ,,株式会社,山形県,鶴岡市,下山添字茶屋川原８８番地２３,,06,203,9970341,,,2025-11-12,清算の結了等,,,2015-10-05,1,,,,,エスアイ,0
866,3430002021428,登記記録の閉鎖等,0,2025-11-14,2025-11-06,ワイエス工業有限会社,,有限会社,北海道,札幌市豊平区,平岸二条３丁目３番２８号,,01,105,0620932,,,2025-11-06,清算の結了等,,,2015-10-05,1,,,,,ワイエスコウギョウ,0
873,3500002020331,登記記録の閉鎖等,0,2025-11-14,2025-11-11,織金石材有限会社,,有限会社,愛媛県,今治市,宮窪町宮窪６０６１番地,,38,202,7942203,,,2025-11-11,清算の結了等,,,2015-10-05,1,,,,,オリキンセキザイ,0
879,4010001178814,登記記録の閉鎖等,0,2025-11-14,2025-11-04,株式会社エスアップ,,株式会社,東京都,中央区,日本橋２丁目１６番３号,,13,102,1030027,,,2025-11-04,清算の結了等,,,2016-10-12,1,,,,,エスアップ,0
912,4010502003917,登記記録の閉鎖等,0,2025-11-14,2025-11-10,有限会社コトブキ永生堂薬局,,有限会社,東京都,台東区,寿３丁目１５番１７号,,13,106,1110042,,,2025-11-10,清算の結了等,,,2015-10-05,1,,,,,コトブキエイセイドウヤッキョク,0
914,4010601010979,登記記録の閉鎖等,0,2025-11-14,2025-11-06,株式会社住協,,株式会社,東京都,墨田区,緑３丁目６番１３－５０３号,,13,107,1300021,,,2025-11-06,清算の結了等,,,2015-10-05,1,,,,,スミキョウ,0
916,4010601063267,登記記録の閉鎖等,0,2025-11-14,2025-11-07,錦＿株式会社,00130828,株式会社,東京都,墨田区,東駒形２丁目２番１３東駒形二丁目ビル２０７号室,,13,107,1300005,,,2025-11-07,清算の結了等,,,2023-06-13,1,,,,,キンキ,0
948,4011301015095,登記記録の閉鎖等,0,2025-11-14,2025-11-07,株式会社東京フィナンシャル・アーキテクト,,株式会社,東京都,杉並区,浜田山２丁目１７番１２－３０４号,,13,115,1680065,,,2025-11-07,清算の結了等,,,2015-10-05,1,,,,,トウキョウフィナンシャルアーキテクト,0
949,4011301018313,登記記録の閉鎖等,0,2025-11-14,2025-11-10,株式会社東邦プランニング,,株式会社,神奈川県,横浜市青葉区,あざみ野２丁目１４番７号リーフエスコートあざみ野３０６,,14,117,2250011,,,2025-11-10,清算の結了等,,,2015-10-05,1,,,,,トウホウプランニング,0
962,4013301042623,登記記録の閉鎖等,0,2025-11-14,2025-10-17,スカイ株式会社,,株式会社,東京都,渋谷区,桜丘町２３番１７号シティコート桜丘４０８,,13,113,1500031,,,2025-10-17,清算の結了等,,,2018-08-01,1,,,,,スカイ,0
963,4013401001446,登記記録の閉鎖等,0,2025-11-14,2025-11-11,日本アロエ株式会社,,株式会社,東京都,多摩市,桜ヶ丘１丁目３８番４,,13,224,2060013,,,2025-11-11,清算の結了等,,,2015-10-05,1,,,,,ニホンアロエ,0
981,4021002014395,登記記録の閉鎖等,0,2025-11-14,2025-10-22,有限会社鎌倉中央不動産,,有限会社,神奈川県,鎌倉市,由比ガ浜２丁目５番２３号,,14,204,2480014,,,2025-10-22,清算の結了等,,,2015-10-05,1,,,,,カマクラチュウオウフドウサン,0
982,4021002031275,登記記録の閉鎖等,0,2025-11-14,2025-10-30,有限会社金井モータース,,有限会社,神奈川県,厚木市,上依知１１７番地,,14,212,2430801,,,2025-10-30,清算の結了等,,,2015-10-05,1,,,,,カナイモータース,0
987,4030001146109,登記記録の閉鎖等,0,2025-11-14,2025-11-07,株式会社丸辰,,株式会社,埼玉県,川越市,霞ケ関北１丁目１９番地１５,,11,201,3501109,,,2025-11-07,清算の結了等,,,2022-01-05,1,,,,,マルシン,0
1014,4070001031364,登記記録の閉鎖等,0,2025-11-14,2025-11-11,株式会社ネクサス,,株式会社,群馬県,前橋市,鳥羽町４１７－１０丸三前橋インタービル４Ｆ,,10,201,3710845,,,2025-11-11,清算の結了等,,,2015-10-05,1,,,,,ネクサス,0
1019,4080402007895,登記記録の閉鎖等,0,2025-11-14,2025-11-05,有限会社マル勇内山商会,,有限会社,静岡県,浜松市中央区,根洗町８０２番地,,22,138,4338108,,,2025-11-05,清算の結了等,,,2015-10-05,1,,,,,マルユウウチヤマショウカイ,0
1025,4110001019264,登記記録の閉鎖等,0,2025-11-14,2025-11-07,冨永金属工業株式会社,,株式会社,新潟県,上越市,東本町２丁目３番１４号,,15,222,9430825,,,2025-11-07,清算の結了等,,,2015-10-05,1,,,,,トミナガキンゾクコウギョウ,0
1030,4110002031037,登記記録の閉鎖等,0,2025-11-14,2025-11-07,エルロード有限会社,,有限会社,新潟県,長岡市,金沢６丁目９８１番地３,,15,202,9400135,,,2025-11-07,清算の結了等,,,2015-10-05,1,,,,,エルロード,0
1060,4140001053938,登記記録の閉鎖等,0,2025-11-14,2025-11-07,近畿防災設備株式会社,,株式会社,兵庫県,尼崎市,東園田町５丁目８５番地の２,,28,202,6610953,,,2025-11-07,清算の結了等,,,2015-10-05,1,,,,,キンキボウサイセツビ,0
1061,4140001055133,登記記録の閉鎖等,0,2025-11-14,2025-11-05,株式会社エステファン,,株式会社,兵庫県,神戸市北区,藤原台南町４丁目１５番５号,,28,109,6511303,,,2025-11-05,清算の結了等,,,2015-10-05,1,,,,,エステファン,0
1074,4170002009515,登記記録の閉鎖等,0,2025-11-14,2025-11-12,有限会社紀和総業,,有限会社,和歌山県,日高郡みなべ町,西本庄１６８４番地２,,30,391,6450027,,,2025-11-12,清算の結了等,,,2015-10-05,1,,,,,キワソウギョウ,0
1089,4180002077668,登記記録の閉鎖等,0,2025-11-14,2025-11-07,有限会社マルナカ,,有限会社,愛知県,一宮市,奥町字七丁１８番地,,23,203,4910201,,,2025-11-07,清算の結了等,,,2015-10-05,1,,,,,マルナカ,0
1091,4180005019394,登記記録の閉鎖等,0,2025-11-14,2025-11-13,一般社団法人愛知マンションリノベーション機構,,その他の設立登記法人,愛知県,名古屋市千種区,南明町２丁目６５番地,,23,101,4640845,,,2025-11-13,清算の結了等,,,2021-08-05,1,,,,,アイチマンションリノベーションキコウ,0
1124,4290001089827,登記記録の閉鎖等,0,2025-11-14,2025-10-15,株式会社クレストル,,株式会社,福岡県,福岡市博多区,博多駅前３丁目７番３５号博多ハイテックビル５０５,,40,132,8120011,,,2025-10-15,清算の結了等,,,2020-08-24,1,,,,,クレストル,0
1130,4290002046595,登記記録の閉鎖等,0,2025-11-14,2025-10-31,有限会社丸清,,有限会社,福岡県,飯塚市,片島２丁目１８番９号,,40,205,8200068,,,2025-10-31,清算の結了等,,,2015-10-05,1,,,,,マルセイ,0
1134,4300001009205,登記記録の閉鎖等,0,2025-11-14,2025-11-12,ビジネスコミュニケーションズ株式会社,,株式会社,佐賀県,唐津市,材木町２１０６番地１,,41,202,8470061,,,2025-11-12,清算の結了等,,,2015-10-05,1,,,,,ビジネスコミュニケーションズ,0
1152,4370001008398,登記記録の閉鎖等,0,2025-11-14,2025-11-06,株式会社システムライフ,,株式会社,宮城県,仙台市青葉区,中山吉成２丁目７番２９号,,04,101,9893203,,,2025-11-06,清算の結了等,,,2015-10-05,1,,,,,システムライフ,0
1155,4380005003634,登記記録の閉鎖等,0,2025-11-14,2025-11-06,禄仙寺,,その他の設立登記法人,福島県,田村市,常葉町鹿山字関場４９番地,,07,211,9634604,,,2025-11-06,清算の結了等,,,2015-10-05,1,,,,,ロクセンジ,0
1159,4430001027821,登記記録の閉鎖等,0,2025-11-14,2025-11-10,株式会社サインマック,,株式会社,北海道,札幌市中央区,北五条西１６丁目２番地１６,,01,101,0600005,,,2025-11-10,清算の結了等,,,2015-10-05,1,,,,,サインマック,0
1162,4430002026293,登記記録の閉鎖等,0,2025-11-14,2025-11-11,有限会社丸箭北欧サービス,00089332,有限会社,北海道,札幌市白石区,川北二条３丁目１０番２号,,01,104,0030852,,,2025-11-11,清算の結了等,,,2015-10-05,1,,,,,マルセンホクオウサービス,0
1170,5010001118190,登記記録の閉鎖等,0,2025-11-14,2025-10-17,株式会社リンクス,,株式会社,東京都,港区,赤坂６丁目１８番１１－２０２号,,13,103,1070052,,,2025-10-17,清算の結了等,,,2015-10-05,1,,,,,,0
1187,5010005035580,登記記録の閉鎖等,0,2025-11-14,2025-11-10,社会保険労務士法人スフィア,,その他の設立登記法人,東京都,千代田区,麹町３丁目１０－１ＴＷＧ麹町５階,,13,101,1020083,,,2025-11-10,清算の結了等,,,2022-09-22,1,,,,,スフィア,0
1195,5010403027741,登記記録の閉鎖等,0,2025-11-14,2025-10-17,合同会社知足,,合同会社,東京都,港区,南麻布４丁目１３－８－３Ｆ,,13,103,1060047,,,2025-10-17,清算の結了等,,,2022-05-26,1,,,,,チソク,0
1210,5010901028225,登記記録の閉鎖等,0,2025-11-14,2025-11-12,株式会社タカシマ,,株式会社,東京都,世田谷区,千歳台１丁目３０番１４号,,13,112,1570071,,,2025-11-12,清算の結了等,,,2015-10-05,1,,,,,タカシマ,0
1239,5011402000433,登記記録の閉鎖等,0,2025-11-14,2025-11-10,有限会社東総業,,有限会社,東京都,板橋区,板橋１丁目５７番７号,,13,119,1730004,,,2025-11-10,清算の結了等,,,2015-10-05,1,,,,,アズマソウギョウ,0
1245,5011801012616,登記記録の閉鎖等,0,2025-11-14,2025-11-06,株式会社森見製作所,,株式会社,東京都,足立区,宮城１丁目１１番１８号,,13,121,1200047,,,2025-11-06,清算の結了等,,,2015-10-05,1,,,,,モリミセイサクショ,0
1247,5011801023126,登記記録の閉鎖等,0,2025-11-14,2025-11-10,株式会社アール工房,,株式会社,東京都,葛飾区,柴又４丁目２３番５号,,13,122,1250052,,,2025-11-10,清算の結了等,,,2015-10-05,1,,,,,アールコウボウ,0
1252,5012402001818,登記記録の閉鎖等,0,2025-11-14,2025-11-11,有限会社定友建設,,有限会社,東京都,府中市,緑町１丁目１３番地の８,,13,206,1830006,,,2025-11-11,清算の結了等,,,2015-10-05,1,,,,,テイユウケンセツ,0
1281,5030001044749,登記記録の閉鎖等,0,2025-11-14,2025-11-07,株式会社広研,,株式会社,埼玉県,朝霞市,泉水３丁目３番２４号,,11,227,3510024,,,2025-11-07,清算の結了等,,,2015-10-05,1,,,,,コウケン,0
1284,5030001149762,登記記録の閉鎖等,0,2025-11-14,2025-11-07,株式会社ムサシ工業,,株式会社,埼玉県,さいたま市緑区,大字間宮９７３番地１,,11,109,3360965,,,2025-11-07,清算の結了等,,,2022-08-19,1,,,,,ムサシコウギョウ,0
1290,5030002001518,登記記録の閉鎖等,0,2025-11-14,2025-11-07,有限会社井上設備,,有限会社,埼玉県,さいたま市見沼区,大字御蔵１５３０番地６,,11,104,3370033,,,2025-11-07,清算の結了等,,,2015-10-05,1,,,,,イノウエセツビ,0
1291,5030002025995,登記記録の閉鎖等,0,2025-11-14,2025-11-07,有限会社シャルレ公大,,有限会社,埼玉県,蕨市,錦町４丁目４番２５号,,11,223,3350005,,,2025-11-07,清算の結了等,,,2015-10-05,1,,,,,シャルレコウダイ,0
1300,5030005018823,登記記録の閉鎖等,0,2025-11-14,2025-10-31,ＮＰＯ法人夢幻陣,,その他の設立登記法人,埼玉県,さいたま市北区,土呂町１丁目７０番地１２号マサルマンション１０２号室,,11,102,3310804,,,2025-10-31,清算の結了等,,,2018-01-10,1,,,,,ムゲンジン,0
1315,5060002003585,登記記録の閉鎖等,0,2025-11-14,2025-11-12,有限会社ケンユー企画,,有限会社,栃木県,宇都宮市,下砥上町１５５２番地４,,09,201,3200852,,,2025-11-12,合併による解散等,5060001000708,令和７年１１月１２日栃木県宇都宮市下戸祭一丁目９番５号宇都宮ヤマイチ株式会社（5060001000708）に合併し解散,2015-10-05,1,,,,,ケンユーキカク,0
1339,5120001135943,登記記録の閉鎖等,0,2025-11-14,2025-11-10,株式会社清水防水警備,,株式会社,大阪府,大阪市中央区,釣鐘町２丁目２番８号ＤＤＣ釣鐘ビル,,27,128,5400035,,,2025-11-10,清算の結了等,,,2015-10-05,1,,,,,シミズボウスイケイビ,0
1341,5120001146107,登記記録の閉鎖等,0,2025-11-14,2025-11-06,株式会社エリアント,,株式会社,大阪府,大阪市北区,鶴野町１番９号,,27,127,5300014,,,2025-11-06,清算の結了等,,,2015-10-05,1,,,,,エリアント,0
1350,5120001253027,登記記録の閉鎖等,0,2025-11-14,2025-10-24,株式会社Ｔｈｉｎｋ　Ｆｕｔｕｒｅ,,株式会社,神奈川県,川崎市川崎区,東門前２丁目５番３号Ｒ＆Ｙビル３０４号室,,14,131,2100812,,,2025-10-24,清算の結了等,,,2023-03-09,1,,,,,シンクフューチャー,0
1362,5120003014823,登記記録の閉鎖等,0,2025-11-14,2025-11-04,ＶＥＮＴＯＴＡ株式会社,,株式会社,大阪府,大阪市港区,弁天１丁目２番１号大阪ベイタワーオフィス１９階,,27,107,5520007,,,2025-11-04,合併による解散等,6120001244982,令和７年１１月１日大阪市港区弁天一丁目２番１号大阪ベイタワーオフィス１９階ＴＲＹＡＮＧＲ株式会社（6120001244982）に合併し解散,2018-10-11,1,,,,,ベントータ,0
1367,5120101042767,登記記録の閉鎖等,0,2025-11-14,2025-11-06,株式会社三電社,,株式会社,大阪府,泉北郡忠岡町,高月南２丁目４番２３号,,27,341,5950802,,,2025-11-06,清算の結了等,,,2015-10-05,1,,,,,サンデンシャ,0
1388,5150001017742,登記記録の閉鎖等,0,2025-11-14,2025-11-10,株式会社馬酔木,,株式会社,奈良県,奈良市,富雄川西２丁目２８番１９号,,29,201,6310077,,,2025-11-10,清算の結了等,,,2015-10-05,1,,,,,アシビ,0
1407,5180002063304,登記記録の閉鎖等,0,2025-11-14,2025-11-10,有限会社加藤加工所,,有限会社,愛知県,長久手市,岩作落合３０番地２,,23,238,4801103,,,2025-11-10,清算の結了等,,,2015-10-05,1,,,,,カトウカコウショ,0
1409,5180003005180,登記記録の閉鎖等,0,2025-11-14,2025-11-10,合資会社末広寿司,,合資会社,愛知県,名古屋市中区,大須３丁目３９番３５号,,23,106,4600011,,,2025-11-10,清算の結了等,,,2015-10-05,1,,,,,スエヒロズシ,0
1414,5190002004686,登記記録の閉鎖等,0,2025-11-14,2025-11-11,有限会社三央,,有限会社,三重県,亀山市,能褒野町５１番地の６３,,24,210,5190212,,,2025-11-11,清算の結了等,,,2015-10-05,1,,,,,サンオウ,0
1418,5220001019351,登記記録の閉鎖等,0,2025-11-14,2025-11-12,株式会社アルエス,,株式会社,石川県,羽咋市,石野町ホ５８番地１,,17,207,9250026,,,2025-11-12,合併による解散等,9230001009372,令和７年１１月１日富山県砺波市庄川町天正８８番地株式会社リフォーム屋サカイ（9230001009372）に合併し解散,2015-10-05,1,,,,,アルエス,0
1456,5320001013906,登記記録の閉鎖等,0,2025-11-14,2025-11-12,モバイルコール株式会社,,株式会社,佐賀県,唐津市,材木町２１０６番地１,,41,202,8470061,,,2025-11-12,清算の結了等,,,2015-10-05,1,,,,,モバイルコール,0
1469,5360003011350,登記記録の閉鎖等,0,2025-11-14,2025-11-07,合同会社徳成,00123916,合同会社,沖縄県,那覇市,字小禄１４３１番地１,,47,201,9010152,,,2025-11-07,清算の結了等,,,2021-08-12,1,,,,,トクナリ,0
1479,5420001004309,登記記録の閉鎖等,0,2025-11-14,2025-11-04,株式会社共友企画,,株式会社,青森県,青森市,大字宮田字玉水５９４番地,,02,201,0393505,,,2025-11-04,合併による解散等,9420001000915,令和７年１１月１日青森市大字宮田字玉水５６５番地株式会社佐藤建業（9420001000915）に合併し解散,2015-10-05,1,,,,,キョウユウキカク,0
1483,5430002043899,登記記録の閉鎖等,0,2025-11-14,2025-11-07,有限会社三和マシナリー,,有限会社,北海道,石狩市,新港西３丁目７４７番地５,,01,235,0613241,,,2025-11-07,清算の結了等,,,2015-10-05,1,,,,,サンワマシナリー,0
1488,5470001010104,登記記録の閉鎖等,0,2025-11-14,2025-11-04,株式会社三豊自動車学校,,株式会社,香川県,観音寺市,柞田町乙１６８３番地,,37,205,7680040,,,2025-11-04,合併による解散等,8470001009911,令和７年１１月１日香川県観音寺市有明町６番６号讃岐煉瓦株式会社（8470001009911）に合併し解散,2015-10-05,1,,,,,ミトヨジドウシャガッコウ,0
1492,5500001006065,登記記録の閉鎖等,0,2025-11-14,2025-11-10,株式会社伊予繊維,,株式会社,愛媛県,松山市,東垣生町８４１番地１,,38,201,7918043,,,2025-11-10,清算の結了等,,,2015-10-05,1,,,,,イヨセンイ,0
1493,5500001019133,登記記録の閉鎖等,0,2025-11-14,2025-11-11,株式会社リンシステム,,株式会社,愛媛県,松山市,宮田町１２８４番地荻田ビル１Ｆ西,,38,201,7900066,,,2025-11-11,清算の結了等,,,2015-10-05,1,,,,,,0
1500,6010001031987,登記記録の閉鎖等,0,2025-11-14,2025-11-06,龍美電機株式会社,,株式会社,東京都,台東区,上野３丁目１３番９号,,13,106,1100005,,,2025-11-06,清算の結了等,,,2015-10-05,1,,,,,タツミデンキ,0
1509,6010002032992,登記記録の閉鎖等,0,2025-11-14,2025-11-04,有限会社エフ・トライ,,有限会社,東京都,千代田区,九段南３丁目４番２－５０３号,,13,101,1020074,,,2025-11-04,清算の結了等,,,2015-10-05,1,,,,,エフトライ,0
1511,6010003032901,登記記録の閉鎖等,0,2025-11-14,2025-11-04,合同会社ＧＴＳ,,合同会社,東京都,文京区,千石４丁目７番２－１０２号,,13,105,1120011,,,2025-11-04,清算の結了等,,,2020-08-27,1,,,,,ジーティーエス,0
1519,6010401058845,登記記録の閉鎖等,0,2025-11-14,2025-11-06,株式会社キャプティブ,,株式会社,東京都,港区,虎ノ門３丁目４番７号,,13,103,1050001,,,2025-11-06,清算の結了等,,,2015-10-05,1,,,,,キャプティブ,0
1520,6010401076335,登記記録の閉鎖等,0,2025-11-14,2025-10-17,株式会社リベリュール,,株式会社,東京都,港区,赤坂２丁目８番１５号,,13,103,1070052,,,2025-10-17,清算の結了等,,,2015-10-05,1,,,,,リベリュール,0
1537,6010702006619,登記記録の閉鎖等,0,2025-11-14,2025-11-10,有限会社浜勢,,有限会社,東京都,品川区,小山４丁目５番２０号,,13,109,1420062,,,2025-11-10,清算の結了等,,,2015-10-05,1,,,,,ハマセイ,0
1545,6011001062056,登記記録の閉鎖等,0,2025-11-14,2025-10-14,株式会社ＥＡ,,株式会社,東京都,渋谷区,代々木１丁目３０番１５号,,13,113,1510053,,,2025-10-14,清算の結了等,,,2015-10-05,1,,,,,イーエー,0
1547,6011001134929,登記記録の閉鎖等,0,2025-11-14,2025-10-14,バイオグロー・プロ株式会社,,株式会社,東京都,渋谷区,代々木１丁目３０－１５,,13,113,1510053,,,2025-10-14,清算の結了等,,,2020-07-28,1,,,,,バイオグロープロ,0
1549,6011003016002,登記記録の閉鎖等,0,2025-11-14,2025-10-16,合同会社ＧＪＤＣＰ,,合同会社,東京都,渋谷区,恵比寿１丁目２０番２号７０４号室嶋本公認会計士事務所気付,,13,113,1500013,,,2025-10-16,清算の結了等,,,2022-12-28,1,,,,,ジージェイディーシーピー,0
1554,6011202012454,登記記録の閉鎖等,0,2025-11-14,2025-10-14,有限会社ポイントブレイク,,有限会社,東京都,渋谷区,大山町８番３号１階,,13,113,1510065,,,2025-10-14,清算の結了等,,,2015-10-05,1,,,,,ポイントブレイク,0
1560,6011702008480,登記記録の閉鎖等,0,2025-11-14,2025-11-05,有限会社長島設備工業,,有限会社,東京都,江戸川区,北篠崎１丁目４番２３号,,13,123,1330053,,,2025-11-05,清算の結了等,,,2025-09-02,1,,,,,ナガシマセツビコウギョウ,0
1565,6011802021508,登記記録の閉鎖等,0,2025-11-14,2025-11-10,有限会社エスティ・ニュースワークス,,有限会社,東京都,足立区,江北７丁目５番６号,,13,121,1230872,,,2025-11-10,清算の結了等,,,2015-10-05,1,,,,,エスティニュースワークス,0
1587,6021001007621,登記記録の閉鎖等,0,2025-11-14,2025-11-04,株式会社住地総建チーム,,株式会社,神奈川県,茅ヶ崎市,新栄町２番２４号,,14,207,2530044,,,2025-11-04,合併による解散等,6021001045076,令和７年１１月１日神奈川県茅ヶ崎市新栄町２番２４号株式会社住地総建チーム（6021001045076）に合併し解散,2015-10-05,1,,,,,ジュウチソウケン,0
1588,6021001033279,登記記録の閉鎖等,0,2025-11-14,2025-10-29,山川食品株式会社,,株式会社,神奈川県,小田原市,前川４２５番地,,14,206,2560813,,,2025-10-29,清算の結了等,,,2015-10-05,1,,,,,ヤマカワショクヒン,0
1599,6030001069753,登記記録の閉鎖等,0,2025-11-14,2025-11-10,株式会社チロル,,株式会社,東京都,台東区,上野１丁目９番４号ＳａｔｅｌｌｉｔｅＵＥＮＯＢＬＤ．１Ｆ,,13,106,1100005,,,2025-11-10,清算の結了等,,,2015-10-05,1,,,,,チロル,0
1612,6030002010047,登記記録の閉鎖等,0,2025-11-14,2025-11-10,有限会社ナイス,,有限会社,埼玉県,さいたま市中央区,大戸１丁目２番８号,,11,105,3380012,,,2025-11-10,清算の結了等,,,2015-10-05,1,,,,,ナイス,0
1625,6050002029176,登記記録の閉鎖等,0,2025-11-14,2025-11-10,有限会社アイワ土地,,有限会社,茨城県,行方市,玉造甲２３５５番地,,08,233,3113512,,,2025-11-10,清算の結了等,,,2015-10-05,1,,,,,アイワトチ,0
1627,6060001030489,登記記録の閉鎖等,0,2025-11-14,2025-11-12,株式会社スマイルコネクト,,株式会社,栃木県,小山市,駅東通り１丁目５番１３号,,09,208,3230022,,,2025-11-12,清算の結了等,,,2018-05-07,1,,,,,スマイルコネクト,0
1631,6070001024432,登記記録の閉鎖等,0,2025-11-14,2025-11-10,ワイバンフードコミュニティ株式会社,,株式会社,群馬県,伊勢崎市,連取元町１６６番地５５,,10,204,3720818,,,2025-11-10,清算の結了等,,,2015-10-05,1,,,,,ワイバンフードコミュニティ,0
1634,6080401000379,登記記録の閉鎖等,0,2025-11-14,2025-11-10,株式会社イーグルサービス,,株式会社,静岡県,浜松市中央区,南浅田１丁目１５番７号,,22,138,4328044,,,2025-11-10,清算の結了等,,,2015-10-05,1,,,,,,0
1644,6110001033817,登記記録の閉鎖等,0,2025-11-14,2025-11-12,ＪｉＭＯ株式会社,,株式会社,新潟県,長岡市,川口中山１７６番地,,15,202,9497503,,,2025-11-12,清算の結了等,,,2019-02-04,1,,,,,ジモ,0
1645,6110002000163,登記記録の閉鎖等,0,2025-11-14,2025-11-07,ＪＣテクノス株式会社,,株式会社,新潟県,新潟市西区,木場２２５６番地,,15,107,9501122,,,2025-11-07,清算の結了等,,,2015-10-05,1,,,,,ジェーシーテクノス,0
1647,6120001018313,登記記録の閉鎖等,0,2025-11-14,2025-11-11,株式会社南海商事,,株式会社,大阪府,大阪市生野区,田島１丁目１４番７号,,27,116,5440011,,,2025-11-11,清算の結了等,,,2015-10-05,1,,,,,ナンカイショウジ,0
1648,6120001024229,登記記録の閉鎖等,0,2025-11-14,2025-11-11,株式会社ダイマツ,,株式会社,大阪府,大阪市天王寺区,勝山３丁目１番１号,,27,109,5430043,,,2025-11-11,清算の結了等,,,2015-10-05,1,,,,,ダイマツ,0
1658,6120002032610,登記記録の閉鎖等,0,2025-11-14,2025-11-12,有限会社文丘堂,,有限会社,大阪府,大阪市北区,天神橋３丁目９番１３号,,27,127,5300041,,,2025-11-12,清算の結了等,,,2015-10-05,1,,,,,ブンキュウドウ,0
1661,6120002053581,登記記録の閉鎖等,0,2025-11-14,2025-11-07,有限会社プランニング・モア,,有限会社,大阪府,大阪市城東区,鴫野東２丁目１９番２－２０２号,,27,118,5360013,,,2025-11-07,清算の結了等,,,2015-10-05,1,,,,,プランニングモア,0
1674,6130001017917,登記記録の閉鎖等,0,2025-11-14,2025-11-12,株式会社クレアトーレ,,株式会社,京都府,京都市右京区,西院三蔵町９番地リエス西院２１４号室,,26,108,6150021,,,2025-11-12,清算の結了等,,,2015-10-05,1,,,,,,0
1679,6130001066451,登記記録の閉鎖等,0,2025-11-14,2025-11-12,株式会社ＳＥＫＡＩ重量,,株式会社,京都府,京都市伏見区,向島西堤町５９－１,,26,109,6128116,,,2025-11-12,清算の結了等,,,2020-03-05,1,,,,,セカイジュウリョウ,0
1685,6140001073307,登記記録の閉鎖等,0,2025-11-14,2025-11-06,株式会社レッドポイント,,株式会社,兵庫県,西宮市,広田町１３番２５号,,28,204,6620837,,,2025-11-06,清算の結了等,,,2015-10-05,1,,,,,レッドポイント,0
1687,6140001126493,登記記録の閉鎖等,0,2025-11-14,2025-11-10,株式会社ＡＳＴＲＩＤＥ,,株式会社,福島県,福島市,野田町３丁目４番３６号,,07,201,9608055,,,2025-11-10,清算の結了等,,,2022-06-23,1,,,,,アストライド,0
1692,6140003010019,登記記録の閉鎖等,0,2025-11-14,2025-11-05,合同会社ＵＲＳ３号,,合同会社,大阪府,大阪市中央区,淡路町２丁目６番１１号４階,,27,128,5410047,,,2025-11-05,清算の結了等,,,2015-10-05,1,,,,,ユーアールエスサンゴウ,0
1699,6180001012822,登記記録の閉鎖等,0,2025-11-14,2025-11-10,エコット株式会社,,株式会社,大阪府,大阪市浪速区,日本橋５丁目４番３号,,27,111,5560005,,,2025-11-10,清算の結了等,,,2015-10-05,1,,,,,エコット,0
1701,6180001153220,登記記録の閉鎖等,0,2025-11-14,2025-11-10,株式会社リセントキャリア尾張,,株式会社,愛知県,小牧市,大字三ツ渕９００番地２ファインド舟橋２Ｆ,,23,219,4850075,,,2025-11-10,清算の結了等,,,2022-10-05,1,,,,,リセントキャリアオワリ,0
1711,6180003013810,登記記録の閉鎖等,0,2025-11-14,2025-11-10,合名会社横井商店,,合名会社,愛知県,あま市,蜂須賀東五反地５６６番地,,23,237,4901225,,,2025-11-10,清算の結了等,,,2015-10-05,1,,,,,ヨコイショウテン,0
1712,6180003016318,登記記録の閉鎖等,0,2025-11-14,2025-11-07,株式会社フォレストパートナーズ,,株式会社,愛知県,名古屋市東区,橦木町２丁目１５番地橦木町ゼルクハウス６０１号,,23,102,4610014,,,2025-11-07,清算の結了等,,,2015-10-05,1,,,,,フォレストパートナーズ,0
1717,6190001030550,登記記録の閉鎖等,0,2025-11-14,2025-11-11,棚田観光牧場株式会社,,株式会社,三重県,松阪市,飯南町深野１９０３番地,,24,204,5151301,,,2025-11-11,清算の結了等,,,2023-07-06,1,,,,,タナダカンコウボクジョウ,0
1719,6200001025004,登記記録の閉鎖等,0,2025-11-14,2025-11-04,辻井硝子建材株式会社,00076693,株式会社,岐阜県,高山市,国府町三川５８７番地１,,21,203,5094117,,,2025-11-04,清算の結了等,,,2015-10-05,1,,,,,,0
1730,6240002003178,登記記録の閉鎖等,0,2025-11-14,2025-11-06,有限会社オクダ設備,,有限会社,広島県,広島市佐伯区,五日市町大字石内１１３０番地,,34,108,7315102,,,2025-11-06,清算の結了等,,,2015-10-05,1,,,,,オクダセツビ,0
1744,6290001068903,登記記録の閉鎖等,0,2025-11-14,2025-10-31,株式会社フラワーランド豊田,,株式会社,福岡県,嘉麻市,嘉穂才田１６６３番地２,,40,227,8200336,,,2025-10-31,清算の結了等,,,2015-10-05,1,,,,,フラワーランドトヨタ,0
1747,6290002007513,登記記録の閉鎖等,0,2025-11-14,2025-10-31,有限会社アクアサーブ,,有限会社,福岡県,福岡市早良区,飯倉４丁目２８番４０号,,40,137,8140161,,,2025-10-31,清算の結了等,,,2015-10-05,1,,,,,アクアサーブ,0
1761,6330005010146,登記記録の閉鎖等,0,2025-11-14,2025-11-05,農事組合法人西下アルファーム,,その他の設立登記法人,熊本県,八代市,千丁町古閑出２０５２番地,,43,202,8694704,,,2025-11-05,清算の結了等,,,2020-02-13,1,,,,,ニシシタアルファーム,0
1787,6430001021228,登記記録の閉鎖等,0,2025-11-14,2025-11-10,株式会社トウクラ,,株式会社,北海道,札幌市東区,北十七条東１丁目１番１８号,,01,103,0650017,,,2025-11-10,清算の結了等,,,2015-10-05,1,,,,,トウクラ,0
1797,6430002013736,登記記録の閉鎖等,0,2025-11-14,2025-11-10,有限会社道農測量センター,,有限会社,北海道,札幌市白石区,菊水六条２丁目６番３０号,,01,104,0030806,,,2025-11-10,清算の結了等,,,2015-10-05,1,,,,,ドウノウソクリョウセンター,0
1805,6500001006072,登記記録の閉鎖等,0,2025-11-14,2025-11-10,株式会社ソーイング羽藤,00007383,株式会社,愛媛県,松山市,東垣生町８４１番地１,,38,201,7918043,,,2025-11-10,清算の結了等,,,2015-10-05,1,,,,,ソーイングハトウ,0
1819,7010001177854,登記記録の閉鎖等,0,2025-11-14,2025-10-15,株式会社バサラデザイン,,株式会社,東京都,渋谷区,宇田川町１番１２－３７０８号,,13,113,1500042,,,2025-10-15,清算の結了等,,,2016-08-24,1,,,,,バサラデザイン,0
1828,7010005033517,登記記録の閉鎖等,0,2025-11-14,2025-11-11,一般社団法人オンライン宇宙部活,,その他の設立登記法人,東京都,中央区,日本橋２丁目２番３号ＲＩＳＨＥビルＵＣＦ４階,,13,102,1030027,,,2025-11-11,清算の結了等,,,2021-06-17,1,,,,,オンラインウチュウブカツ,0
1849,7010902015006,登記記録の閉鎖等,0,2025-11-14,2025-11-12,有限会社武藤商店,,有限会社,東京都,世田谷区,下馬２丁目１７番１０号,,13,112,1540002,,,2025-11-12,清算の結了等,,,2015-10-05,1,,,,,ムトウショウテン,0
1855,7011001113502,登記記録の閉鎖等,0,2025-11-14,2025-10-17,株式会社マチノ・クリエイティブ,,株式会社,東京都,渋谷区,広尾５丁目１番４３号,,13,113,1500012,,,2025-10-17,清算の結了等,,,2016-11-09,1,,,,,マチノクリエイティブ,0
1868,7011405001971,登記記録の閉鎖等,0,2025-11-14,2025-11-07,一般社団法人全国論理検定,,その他の設立登記法人,東京都,板橋区,舟渡１丁目９番１９号,,13,119,1740041,,,2025-11-07,清算の結了等,,,2018-06-07,1,,,,,ゼンコクロンリケンテイ,0
1879,7012402012037,登記記録の閉鎖等,0,2025-11-14,2025-11-12,有限会社ナユタプランニング,,有限会社,東京都,調布市,富士見町４丁目３２番地１７,,13,208,1820033,,,2025-11-12,清算の結了等,,,2015-10-05,1,,,,,,0
1883,7013103001048,登記記録の閉鎖等,0,2025-11-14,2025-11-12,合同会社アイジャパン,,合同会社,東京都,青梅市,本町１２１番地の１サンレイ青梅８０２号,,13,205,1980083,,,2025-11-12,清算の結了等,,,2021-05-11,1,,,,,アイジャパン,0
1906,7021001078876,登記記録の閉鎖等,0,2025-11-14,2025-10-29,株式会社波及,,株式会社,神奈川県,茅ヶ崎市,白浜町１番７－８号,,14,207,2530036,,,2025-10-29,清算の結了等,,,2023-04-27,1,,,,,ハキュウ,0
1909,7021002053408,登記記録の閉鎖等,0,2025-11-14,2025-10-30,有限会社ユニ電子工業,,有限会社,神奈川県,小田原市,延清９７番地の８,,14,206,2500218,,,2025-10-30,清算の結了等,,,2015-10-05,1,,,,,ユニデンシコウギョウ,0
1938,7050002042426,登記記録の閉鎖等,0,2025-11-14,2025-11-06,有限会社ふじます,,有限会社,茨城県,筑西市,二木成１４６７番地,,08,227,3080841,,,2025-11-06,清算の結了等,,,2015-10-05,1,,,,,フジマス,0
1956,7080002011527,登記記録の閉鎖等,0,2025-11-14,2025-11-11,有限会社矢崎工業,,有限会社,静岡県,静岡市清水区,葛沢７５番地,,22,103,4240406,,,2025-11-11,清算の結了等,,,2015-10-05,1,,,,,ヤザキコウギョウ,0
1966,7100003005054,登記記録の閉鎖等,0,2025-11-14,2025-11-12,合同会社エヌエフシー長野,,合同会社,長野県,上田市,住吉６０９－８,,20,203,3860002,,,2025-11-12,清算の結了等,,,2018-07-13,1,,,,,エヌエフシーナガノ,0
1969,7110002013461,登記記録の閉鎖等,0,2025-11-14,2025-11-07,有限会社アベ空調機器サービス,,有限会社,新潟県,阿賀野市,小河原３９３番地,,15,223,9592134,,,2025-11-07,清算の結了等,,,2015-10-05,1,,,,,アベクウチョウキキサービス,0
1970,7110002032610,登記記録の閉鎖等,0,2025-11-14,2025-11-10,有限会社アイ・プロジェクト,,有限会社,新潟県,南魚沼市,六日町６１９番地５,,15,226,9496680,,,2025-11-10,清算の結了等,,,2015-10-05,1,,,,,アイプロジェクト,0
1971,7120001063523,登記記録の閉鎖等,0,2025-11-14,2025-11-06,株式会社現代観光,,株式会社,大阪府,寝屋川市,香里新町２３番１３号,,27,215,5720085,,,2025-11-06,清算の結了等,,,2015-10-05,1,,,,,ゲンダイカンコウ,0
1973,7120001208846,登記記録の閉鎖等,0,2025-11-14,2025-11-07,ＡＲＴＥ株式会社,,株式会社,大阪府,大阪市浪速区,恵美須東１丁目２２－１,,27,111,5560002,,,2025-11-07,清算の結了等,,,2017-10-17,1,,,,,アルテ,0
1987,7120003024151,登記記録の閉鎖等,0,2025-11-14,2025-10-28,合同会社ゆきのやど,,合同会社,大阪府,大阪市北区,梅田１丁目２番２号,,27,127,5300001,,,2025-10-28,清算の結了等,,,2023-05-26,1,,,,,ユキノヤド,0
1990,7120101025209,登記記録の閉鎖等,0,2025-11-14,2025-11-11,株式会社サンコウセキュリティサービス,,株式会社,大阪府,大阪市西区,北堀江１丁目５番２号四ツ橋新興産ビル４Ｆ,,27,106,5500014,,,2025-11-11,合併による解散等,2350001000400,令和７年１０月７日宮崎市大塚町流合５１１５番地５株式会社九州ガードシステム（2350001000400）に合併し解散,2015-10-05,1,,,,,サンコウセキュリティサービス,0
1991,7120101025282,登記記録の閉鎖等,0,2025-11-14,2025-11-10,株式会社システムサーベイ,,株式会社,大阪府,松原市,阿保２丁目１９３番地の８,,27,217,5800043,,,2025-11-10,合併による解散等,1120001212408,令和７年１１月１日大阪市旭区清水二丁目１１番２３号株式会社あさひ動物病院（1120001212408）に合併し解散,2015-10-05,1,,,,,システムサーベイ,0
2007,7140001004632,登記記録の閉鎖等,0,2025-11-14,2025-11-07,株式会社近畿開発,,株式会社,兵庫県,神戸市西区,岩岡町古郷１３６１番地,,28,111,6512404,,,2025-11-07,清算の結了等,,,2015-10-05,1,,,,,キンキカイハツ,0
2008,7140001014251,登記記録の閉鎖等,0,2025-11-14,2025-11-10,丸藤商事株式会社,,株式会社,兵庫県,神戸市北区,日の峰３丁目１８番地の４,,28,109,6511233,,,2025-11-10,清算の結了等,,,2015-10-05,1,,,,,マルフジショウジ,0
2011,7140003010018,登記記録の閉鎖等,0,2025-11-14,2025-11-05,Ｌ四七４Ａソーラー発電合同会社,,合同会社,大阪府,大阪市中央区,淡路町２丁目６番１１号４階,,27,128,5410047,,,2025-11-05,清算の結了等,,,2015-10-05,1,,,,,エルヨンナナヨンエーソーラーハツデン,0
2017,7140005018141,登記記録の閉鎖等,0,2025-11-14,2025-11-04,多田漁業協同組合,,その他の設立登記法人,兵庫県,川西市,新田２丁目２番２３号,,28,217,6660125,,,2025-11-04,清算の結了等,,,2015-10-05,1,,,,,タダ,0
2019,7150002001751,登記記録の閉鎖等,0,2025-11-14,2025-11-13,有限会社ミナミダ,,有限会社,奈良県,奈良市,法華寺町１３番地の１７,,29,201,6308001,,,2025-11-13,清算の結了等,,,2015-10-05,1,,,,,,0
2036,7180003021845,登記記録の閉鎖等,0,2025-11-14,2025-11-10,合同会社カントリーロード,,合同会社,愛知県,名古屋市天白区,焼山２丁目４０６番地,,23,116,4680002,,,2025-11-10,清算の結了等,,,2020-11-18,1,,,,,カントリーロード,0
2039,7180302010689,登記記録の閉鎖等,0,2025-11-14,2025-11-11,有限会社笠山荘,,有限会社,愛知県,田原市,浦町前畑４８番地,,23,231,4413403,,,2025-11-11,清算の結了等,,,2015-10-05,1,,,,,カサヤマソウ,0
2050,7220002009201,登記記録の閉鎖等,0,2025-11-14,2025-11-10,有限会社システム建工,,有限会社,石川県,白山市,吉田町８９番地,,17,210,9240837,,,2025-11-10,清算の結了等,,,2015-10-05,1,,,,,システムケンコウ,0
2057,7290001050570,登記記録の閉鎖等,0,2025-11-14,2025-10-16,九州昌一金属株式会社,,株式会社,福岡県,三井郡大刀洗町,大字本郷１０９３番地,,40,503,8301211,,,2025-10-16,清算の結了等,,,2015-10-05,1,,,,,キュウシュウショウイチキンゾク,0
2067,7330002005627,登記記録の閉鎖等,0,2025-11-14,2025-11-06,有限会社スターショット・ジャパン,,有限会社,熊本県,熊本市東区,桜木２丁目２番６号,,43,102,8612101,,,2025-11-06,清算の結了等,,,2015-10-05,1,,,,,スターショットジャパン,0
2083,7360005002387,登記記録の閉鎖等,0,2025-11-14,2025-10-31,特定非営利活動法人ちいろば会,,その他の設立登記法人,沖縄県,豊見城市,字真玉橋３２７番地フィエスタｄｅアスル３－Ａ,,47,212,9010201,,,2025-10-31,清算の結了等,,,2015-10-05,1,,,,,,0
2088,7380005002245,登記記録の閉鎖等,0,2025-11-14,2025-11-07,医療法人慈正会,,その他の設立登記法人,福島県,福島市,笹谷字稲場２３番地４,,07,201,9600241,,,2025-11-07,清算の結了等,,,2015-10-05,1,,,,,ジショウカイ,0
2089,7380005012434,登記記録の閉鎖等,0,2025-11-14,2025-11-06,特定非営利活動法人ゆうゆう昭和,,その他の設立登記法人,福島県,大沼郡昭和村,大字大芦字八反田４－１,,07,446,9680214,,,2025-11-06,清算の結了等,,,2021-05-26,1,,,,,,0
2091,7390002003014,登記記録の閉鎖等,0,2025-11-14,2025-11-12,有限会社横倉工業所,,有限会社,山形県,山形市,立谷川２丁目２０２８番地,,06,201,9902251,,,2025-11-12,清算の結了等,,,2015-10-05,1,,,,,ヨコクラコウギョウショ,0
2093,7410003003316,登記記録の閉鎖等,0,2025-11-14,2025-11-10,合同会社ＫＵＫＵＮＯ,,合同会社,秋田県,秋田市,広面字堤敷５番地６,,05,201,0100041,,,2025-11-10,清算の結了等,,,2019-12-06,1,,,,,,0
2096,7430001017480,登記記録の閉鎖等,0,2025-11-14,2025-11-10,株式会社ヤマダプランニング,,株式会社,北海道,札幌市東区,北四十条東１２丁目１番１８号,,01,103,0070840,,,2025-11-10,清算の結了等,,,2015-10-05,1,,,,,ヤマダプランニング,0
2097,7430001049879,登記記録の閉鎖等,0,2025-11-14,2025-11-10,株式会社木戸商店,,株式会社,北海道,小樽市,稲穂２丁目２０番６０９号,,01,203,0470032,,,2025-11-10,清算の結了等,,,2015-10-05,1,,,,,キドショウテン,0
2102,7470001010523,登記記録の閉鎖等,0,2025-11-14,2025-11-11,株式会社大松家呉服店,,株式会社,香川県,三豊市,詫間町詫間５４４５番地,,37,208,7691101,,,2025-11-11,清算の結了等,,,2015-10-05,1,,,,,オオマツヤゴフクテン,0
2109,8010001027975,登記記録の閉鎖等,0,2025-11-14,2025-11-04,ＢＩ株式会社,,株式会社,東京都,中央区,八丁堀１丁目５－２はごろもビル２階,,13,102,1040032,,,2025-11-04,清算の結了等,,,2015-10-05,1,,,,,ビーアイ,0
2117,8010003000187,登記記録の閉鎖等,0,2025-11-14,2025-11-04,合名会社山口商店,,合名会社,東京都,文京区,西片１丁目１５番１４号,,13,105,1130024,,,2025-11-04,清算の結了等,,,2015-10-05,1,,,,,ヤマグチショウテン,0
2143,8010801028454,登記記録の閉鎖等,0,2025-11-14,2025-11-04,株式会社ＶＩＰ,,株式会社,東京都,中央区,銀座１丁目２２－１１銀座大竹ビジデンス２Ｆ,,13,102,1040061,,,2025-11-04,清算の結了等,,,2018-01-11,1,,,,,,0
2147,8010901048055,登記記録の閉鎖等,0,2025-11-14,2025-11-12,株式会社オーテ,,株式会社,東京都,世田谷区,用賀４丁目１０番１号,,13,112,1580097,,,2025-11-12,清算の結了等,,,2021-02-15,1,,,,,オーテ,0
2149,8011001060215,登記記録の閉鎖等,0,2025-11-14,2025-10-15,株式会社キッズステーション,,株式会社,東京都,渋谷区,恵比寿４丁目２０－３恵比寿ガーデンプレイスタワー,,13,113,1500013,,,2025-10-15,合併による解散等,4010401035425,令和７年１０月１日東京都渋谷区恵比寿四丁目２０－３恵比寿ガーデンプレイスタワー株式会社アニマックスブロードキャスト・ジャパン（4010401035425）に合併し解散,2015-10-05,1,,,,,キッズステーション,0
2162,8011001140900,登記記録の閉鎖等,0,2025-11-14,2025-10-14,株式会社ダイヤモンド企業情報編集社,,株式会社,東京都,渋谷区,桜丘町１番１号,,13,113,1500031,,,2025-10-14,合併による解散等,4010001120965,令和７年１０月１日東京都渋谷区桜丘町１番１号Ｓａｎｓａｎ株式会社（4010001120965）に合併し解散,2021-06-04,1,,,,,ダイヤモンドキギョウジョウホウヘンシュウシャ,0
2163,8011001162795,登記記録の閉鎖等,0,2025-11-14,2025-10-15,国際領袖倶楽部株式会社,,株式会社,東京都,目黒区,自由が丘３丁目１７番２号,,13,110,1520035,,,2025-10-15,清算の結了等,,,2024-06-19,1,,,,,コクサイリョウシュウクラブ,0
2168,8011002033145,登記記録の閉鎖等,0,2025-11-14,2025-10-14,有限会社ベリーズコミュニケーションズ,,有限会社,東京都,渋谷区,代々木２丁目３６番１０号,,13,113,1510053,,,2025-10-14,清算の結了等,,,2015-10-05,1,,,,,,0
2226,8021005011584,登記記録の閉鎖等,0,2025-11-14,2025-10-29,一般社団法人櫻井正則の会,,その他の設立登記法人,神奈川県,三浦市,南下浦町上宮田３２９１番地３,,14,210,2380101,,,2025-10-29,清算の結了等,,,2019-04-15,1,,,,,サクライマサノリノカイ,0
2228,8030001040191,登記記録の閉鎖等,0,2025-11-14,2025-11-10,株式会社エティックテクノ東京,,株式会社,埼玉県,八潮市,大字木曽根字上６７５番地１,,11,234,3400813,,,2025-11-10,合併による解散等,2140001047900,令和７年１１月１日兵庫県尼崎市大浜町二丁目６１番地株式会社エティックテクノ（2140001047900）に合併し解散,2015-10-05,1,,,,,エティックテクノトウキョウ,0
2232,8030001124267,登記記録の閉鎖等,0,2025-11-14,2025-11-07,株式会社サンテック,,株式会社,埼玉県,行田市,大字須加９６８番地２,,11,206,3610004,,,2025-11-07,清算の結了等,,,2018-02-13,1,,,,,サンテック,0
2266,8080101014223,登記記録の閉鎖等,0,2025-11-14,2025-11-05,株式会社伊豆一,,株式会社,静岡県,伊東市,宇佐美１００１番地の３８,,22,208,4140001,,,2025-11-05,清算の結了等,,,2015-10-05,1,,,,,イズイチ,0
2267,8080101016954,登記記録の閉鎖等,0,2025-11-14,2025-11-10,株式会社ドリームシェア,,株式会社,静岡県,沼津市,西椎路４６９番地の１ローゼンハイムＢ２０１,,22,203,4100303,,,2025-11-10,清算の結了等,,,2015-10-05,1,,,,,ドリームシェア,0
2277,8100001018635,登記記録の閉鎖等,0,2025-11-14,2025-11-11,株式会社フジプラン,,株式会社,長野県,諏訪市,高島１丁目４番２７号,,20,206,3920022,,,2025-11-11,清算の結了等,,,2015-10-05,1,,,,,フジプラン,0
2279,8100002001994,登記記録の閉鎖等,0,2025-11-14,2025-11-10,有限会社桜枝町太平堂,,有限会社,長野県,長野市,大字長野桜枝町６３８番地１,,20,201,3800862,,,2025-11-10,清算の結了等,,,2015-10-05,1,,,,,サクラエチョウタイヘイドウ,0
2280,8100002015409,登記記録の閉鎖等,0,2025-11-14,2025-11-11,有限会社内川木材,,有限会社,長野県,上田市,真田町本原１５２９番地５,,20,203,3862202,,,2025-11-11,清算の結了等,,,2015-10-05,1,,,,,ウチカワモクザイ,0
2281,8110001001739,登記記録の閉鎖等,0,2025-11-14,2025-11-06,株式会社久保田製作所,,株式会社,新潟県,新潟市北区,新崎３７２番地１７,,15,101,9503134,,,2025-11-06,清算の結了等,,,2015-10-05,1,,,,,クボタセイサクショ,0
2282,8110003004525,登記記録の閉鎖等,0,2025-11-14,2025-11-12,合同会社ＡＸＩＡＬ,,合同会社,新潟県,新潟市西区,内野西１丁目９－２０,,15,107,9502151,,,2025-11-12,清算の結了等,,,2021-07-07,1,,,,,アクシアル,0
2292,8120001261968,登記記録の閉鎖等,0,2025-11-14,2025-11-10,株式会社ＥＸＬＥＡＤ,,株式会社,大阪府,大阪市北区,芝田２丁目８－１１共栄ビル３階,,27,127,5300012,,,2025-11-10,清算の結了等,,,2024-02-05,1,,,,,エクスリード,0
2299,8120002031890,登記記録の閉鎖等,0,2025-11-14,2025-11-11,有限会社どりぶる,,有限会社,大阪府,大阪市北区,東天満１丁目１０番１２号,,27,127,5300044,,,2025-11-11,清算の結了等,,,2015-10-05,1,,,,,ドリブル,0
2323,8140001027995,登記記録の閉鎖等,0,2025-11-14,2025-11-10,株式会社ダックツアー・タイコー,,株式会社,兵庫県,神戸市中央区,港島中町２丁目２－１、７－２－２０３号,,28,110,6500046,,,2025-11-10,合併による解散等,5120001035482,令和７年９月１８日東京都港区芝浦二丁目４番１号３階株式会社太幸（5120001035482）に合併し解散,2015-10-05,1,,,,,ダックツアータイコー,0
2326,8140002069533,登記記録の閉鎖等,0,2025-11-14,2025-11-06,有限会社林屋,,有限会社,兵庫県,淡路市,岩屋１１６８番地,,28,226,6562401,,,2025-11-06,清算の結了等,,,2015-10-05,1,,,,,ハヤシヤ,0
2328,8140005026309,登記記録の閉鎖等,0,2025-11-14,2025-11-10,一般社団法人先端制御システム研究会,,その他の設立登記法人,兵庫県,神戸市中央区,港島南町５丁目５番地の２,,28,110,6500047,,,2025-11-10,清算の結了等,,,2022-09-08,1,,,,,センタンセイギョシステムケンキュウカイ,0
2344,8180002037362,登記記録の閉鎖等,0,2025-11-14,2025-11-10,株式会社三ツ矢製菓販売,,株式会社,愛知県,名古屋市中川区,富川町４丁目１番地,,23,110,4540037,,,2025-11-10,合併による解散等,6180001163905,令和７年１１月１０日名古屋市中川区富川町四丁目１番地三ツ矢製菓ＨＤ株式会社（6180001163905）に合併し解散,2015-10-05,1,,,,,ミツヤセイカハンバイ,0
2345,8180002081749,登記記録の閉鎖等,0,2025-11-14,2025-11-07,有限会社織部,,有限会社,愛知県,江南市,般若町中山１０１番地,,23,217,4838018,,,2025-11-07,清算の結了等,,,2015-10-05,1,,,,,オリベ,0
2351,8190001004610,登記記録の閉鎖等,0,2025-11-14,2025-11-07,中世古工業株式会社,,株式会社,三重県,尾鷲市,中井町２番１２号,,24,209,5193605,,,2025-11-07,清算の結了等,,,2015-10-05,1,,,,,ナカセココウギョウ,0
2355,8190005009572,登記記録の閉鎖等,0,2025-11-14,2025-11-07,三重中小企業連携協同組合,,その他の設立登記法人,三重県,三重郡川越町,大字当新田６２３番地,,24,344,5108111,,,2025-11-07,清算の結了等,,,2015-10-05,1,,,,,,0
2356,8200001019796,登記記録の閉鎖等,0,2025-11-14,2025-11-10,株式会社ジーアイティー,,株式会社,岐阜県,美濃市,３１１４番地の１,,21,207,5013701,,,2025-11-10,清算の結了等,,,2015-10-05,1,,,,,ジーアイティー,0
2374,8270001008009,登記記録の閉鎖等,0,2025-11-14,2025-11-11,株式会社めぐみ商事,,株式会社,鳥取県,日野郡日南町,霞８６５番地１,,31,401,6895212,,,2025-11-11,清算の結了等,,,2020-05-27,1,,,,,メグミショウジ,0
2397,8290801015929,登記記録の閉鎖等,0,2025-11-14,2025-11-04,株式会社京華興産,,株式会社,福岡県,京都郡苅田町,大字光国３６３１番地３,,40,621,8000363,,,2025-11-04,合併による解散等,5290801015634,令和７年１１月１日福岡県京都郡苅田町光国３６４６－１京華興産株式会社（5290801015634）に合併し解散,2015-10-05,1,,,,,キョウカコウサン,0
2398,8290801022644,登記記録の閉鎖等,0,2025-11-14,2025-10-14,株式会社Ｐｌａｎｅｔ　Ｎｉｎｅ,,株式会社,東京都,渋谷区,千駄ヶ谷３丁目８－６ＬＡＰｉＳ原宿Ｉ１０３,00116922,13,113,1510051,,,2025-10-14,清算の結了等,,,2016-06-16,1,,,,,プラネットナイン,0
2401,8300002004944,登記記録の閉鎖等,0,2025-11-14,2025-11-12,有限会社ツル商事,,有限会社,佐賀県,佐賀市,兵庫町大字渕２５７８番地,,41,201,8490913,,,2025-11-12,清算の結了等,,,2015-10-05,1,,,,,ツルショウジ,0
2404,8330001010214,登記記録の閉鎖等,0,2025-11-14,2025-10-31,石原プロパン株式会社,,株式会社,熊本県,山鹿市,南島９４３番地,,43,208,8610535,,,2025-10-31,清算の結了等,,,2015-10-05,1,,,,,イシハラプロパン,0
2411,8340001000767,登記記録の閉鎖等,0,2025-11-14,2025-11-04,思川建設株式会社,,株式会社,鹿児島県,鹿児島市,本城町２５６４番地,,46,201,8911303,,,2025-11-04,合併による解散等,2340001011530,令和７年１１月１日鹿児島市本城町２５６９番地１株式会社ナンリョウ（2340001011530）に合併し解散,2015-10-05,1,,,,,オモイガワケンセツ,0
2422,8380002032541,登記記録の閉鎖等,0,2025-11-14,2025-11-10,有限会社トーヨコ酒販,,有限会社,福島県,会津若松市,城前８番２７号,,07,202,9650803,,,2025-11-10,清算の結了等,,,2015-10-05,1,,,,,トーヨコシュハン,0
2423,8390002010166,登記記録の閉鎖等,0,2025-11-14,2025-11-11,有限会社小野寺プレス,,有限会社,山形県,鶴岡市,荒俣字谷地田７５番地,,06,203,9997673,,,2025-11-11,清算の結了等,,,2015-10-05,1,,,,,オノデラプレス,0
2433,8430002036933,登記記録の閉鎖等,0,2025-11-14,2025-11-10,有限会社ユースフル,,有限会社,北海道,札幌市手稲区,稲穂一条７丁目８番１８号,,01,109,0060031,,,2025-11-10,清算の結了等,,,2015-10-05,1,,,,,ユースフル,0
2439,8460102000919,登記記録の閉鎖等,0,2025-11-14,2025-11-11,有限会社キムラ,,有限会社,北海道,帯広市,西九条南２７丁目１９番地,,01,207,0800019,,,2025-11-11,清算の結了等,,,2015-10-05,1,,,,,キムラ,0
2446,9010001087399,登記記録の閉鎖等,0,2025-11-14,2025-11-04,ニイガタテクノウィング株式会社,,株式会社,東京都,中央区,八丁堀３丁目１番７号,,13,102,1040032,,,2025-11-04,清算の結了等,,,2015-10-05,1,,,,,ニイガタテクノウィング,0
2454,9010003046254,登記記録の閉鎖等,0,2025-11-14,2025-11-04,太田興産合同会社,,合同会社,東京都,文京区,本駒込４丁目４６番７号,,13,105,1130021,,,2025-11-04,清算の結了等,,,2025-02-04,1,,,,,オオタコウサン,0
2458,9010102007289,登記記録の閉鎖等,0,2025-11-14,2025-11-12,有限会社吉田銅器,,有限会社,東京都,八王子市,元本郷町１丁目２１番１７号,,13,201,1920051,,,2025-11-12,清算の結了等,,,2015-10-05,1,,,,,ヨシダドウキ,0
2474,9011001054851,登記記録の閉鎖等,0,2025-11-14,2025-10-15,株式会社鳳蘭レビューアカデミー,,株式会社,東京都,渋谷区,恵比寿３丁目３７番１５号ユニゾンビル３Ｆ,,13,113,1500013,,,2025-10-15,清算の結了等,,,2015-10-05,1,,,,,オオトリランレビューアカデミー,0
2487,9011201020117,登記記録の閉鎖等,0,2025-11-14,2025-11-04,株式会社星凜ミライ,,株式会社,東京都,新宿区,北新宿１丁目１４－５オークハイム３０２室,,13,104,1690074,,,2025-11-04,清算の結了等,,,2017-08-25,1,,,,,セイリンミライ,0
2496,9012703002759,登記記録の閉鎖等,0,2025-11-14,2025-11-07,合同会社ピトレスク,,合同会社,東京都,西東京市,東町２丁目１６番２４号,,13,229,2020012,,,2025-11-07,清算の結了等,,,2023-07-26,1,,,,,ピトレスク,0
2506,9020003024028,登記記録の閉鎖等,0,2025-11-14,2025-11-07,合同会社ジーニアス,,合同会社,神奈川県,横浜市磯子区,磯子８丁目１５番１－３０１号,,14,107,2350016,,,2025-11-07,清算の結了等,,,2023-06-09,1,,,,,ジーニアス,0
2516,9030001095739,登記記録の閉鎖等,0,2025-11-14,2025-11-07,株式会社エスプランニング,,株式会社,埼玉県,さいたま市西区,大字指扇３５３３番地２５,,11,101,3310047,,,2025-11-07,清算の結了等,,,2015-10-05,1,,,,,エスプランニング,0
2523,9030002085012,登記記録の閉鎖等,0,2025-11-14,2025-11-05,有限会社井戸由管工社,,有限会社,埼玉県,越谷市,御殿町３番４６号,,11,222,3430811,,,2025-11-05,清算の結了等,,,2015-10-05,1,,,,,イドヨシカンコウシャ,0
2538,9060001004498,登記記録の閉鎖等,0,2025-11-14,2025-11-06,八州造園株式会社,,株式会社,栃木県,宇都宮市,鶴田町２１０番地１５,,09,201,3200851,,,2025-11-06,清算の結了等,,,2015-10-05,1,,,,,ヤシュウゾウエン,0
2548,9080403004689,登記記録の閉鎖等,0,2025-11-14,2025-11-05,Ｓｑｕａｒｅ合同会社,,合同会社,静岡県,磐田市,上新屋５８４番地２,,22,211,4380831,,,2025-11-05,清算の結了等,,,2023-01-12,1,,,,,スクエア,0
2551,9110002011133,登記記録の閉鎖等,0,2025-11-14,2025-11-06,有限会社竹内商店,,有限会社,新潟県,新潟市西蒲区,番屋３８６番地,,15,108,9590512,,,2025-11-06,清算の結了等,,,2015-10-05,1,,,,,タケウチショウテン,0
2553,9110002016479,登記記録の閉鎖等,0,2025-11-14,2025-11-12,有限会社正和,,有限会社,新潟県,新発田市,上今泉甲２２番地１,,15,206,9592421,,,2025-11-12,清算の結了等,,,2015-10-05,1,,,,,ショウワ,0
2587,9120102021782,登記記録の閉鎖等,0,2025-11-14,2025-10-31,曙製パン有限会社,,有限会社,大阪府,貝塚市,津田北町６番６号,,27,208,5970013,,,2025-10-31,清算の結了等,,,2015-10-05,1,,,,,アケボノセイパン,0
2590,9122003001764,登記記録の閉鎖等,0,2025-11-14,2025-11-10,合同会社キンキプロパティ,,合同会社,大阪府,東大阪市,長栄寺２－１２ＴｓｕｎａｇａｒｕＢＬＤＧ５Ｆ,,27,227,,,,2025-11-10,合併による解散等,3010401146735,令和７年１１月１日東京都品川区上大崎二丁目２番３－２０１号株式会社チェインフォレスト（3010401146735）に合併し解散,2019-11-22,1,,,,,キンキプロパティ,0
2599,9140001101691,登記記録の閉鎖等,0,2025-11-14,2025-11-10,株式会社隆興重量設備,,株式会社,兵庫県,加古川市,東神吉町天下原３１５番地,,28,210,6750058,,,2025-11-10,清算の結了等,,,2016-04-14,1,,,,,,0
2609,9160005008766,登記記録の閉鎖等,0,2025-11-14,2025-11-13,特定非営利活動法人やおみ,,その他の設立登記法人,滋賀県,近江八幡市,中村町６２８番地,,25,204,5230894,,,2025-11-13,清算の結了等,,,2015-10-05,1,,,,,ヤオミ,0
2616,9180001130241,登記記録の閉鎖等,0,2025-11-14,2025-11-10,株式会社リフレイス,,株式会社,愛知県,大府市,若草町４丁目１９４番地の１,,23,223,4740022,,,2025-11-10,清算の結了等,,,2017-11-28,1,,,,,リフレイス,0
2628,9180002045249,登記記録の閉鎖等,0,2025-11-14,2025-11-10,有限会社ケイテイエム,,有限会社,愛知県,名古屋市瑞穂区,大喜新町４丁目２４番地の１,,23,108,4670868,,,2025-11-10,清算の結了等,,,2015-10-05,1,,,,,ケイテイエム,0
2629,9180002064141,登記記録の閉鎖等,0,2025-11-14,2025-11-07,有限会社外山製作所,,有限会社,愛知県,豊明市,阿野町稲葉５３番地,,23,229,4701144,,,2025-11-07,清算の結了等,,,2015-10-05,1,,,,,トヤマセイサクショ,0
2638,9190001018923,登記記録の閉鎖等,0,2025-11-14,2025-11-06,株式会社大成住建,,株式会社,三重県,伊勢市,宮町１丁目９番２０号,,24,203,5160077,,,2025-11-06,清算の結了等,,,2015-10-05,1,,,,,タイセイジュウケン,0
2641,9190002017305,登記記録の閉鎖等,0,2025-11-14,2025-11-07,有限会社山田製作所,,有限会社,三重県,桑名市,修徳町２７９８番地,,24,205,5110000,,,2025-11-07,清算の結了等,,,2015-10-05,1,,,,,ヤマダセイサクショ,0
2644,9200002018788,登記記録の閉鎖等,0,2025-11-14,2025-11-07,有限会社スーパー立花,,有限会社,岐阜県,美濃市,立花７０９番地の２,,21,207,5013705,,,2025-11-07,清算の結了等,,,2015-10-05,1,,,,,スーパータチバナ,0
2646,9220001006395,登記記録の閉鎖等,0,2025-11-14,2025-11-12,北陸テキスタイル株式会社,,株式会社,石川県,金沢市,駅西新町１丁目３７番５号,,17,201,9200027,,,2025-11-12,清算の結了等,,,2015-10-05,1,,,,,,0
2659,9250001012498,登記記録の閉鎖等,0,2025-11-14,2025-11-10,タニムラ園芸種苗株式会社,,株式会社,山口県,柳井市,柳井４６９５番地１５,,35,212,7420021,,,2025-11-10,清算の結了等,,,2015-10-05,1,,,,,タニムラエンゲイシュビョウ,0
2664,9260002027833,登記記録の閉鎖等,0,2025-11-14,2025-11-07,有限会社エコー,,有限会社,岡山県,津山市,小田中１３０８番地の１４,,33,203,7080006,,,2025-11-07,清算の結了等,,,2015-10-05,1,,,,,エコー,0
2669,9290001057936,登記記録の閉鎖等,0,2025-11-14,2025-10-17,株式会社ｅｎＧｕ,,株式会社,福岡県,福岡市南区,大橋１丁目２３番１４号,,40,134,8150033,,,2025-10-17,清算の結了等,,,2015-10-05,1,,,,,エング,0
2673,9290001095523,登記記録の閉鎖等,0,2025-11-14,2025-10-30,株式会社インザパーク福岡,,株式会社,福岡県,福岡市東区,大字西戸崎１－２,,40,131,8110321,,,2025-10-30,清算の結了等,,,2021-11-25,1,,,,,インザパークフクオカ,0
2678,9290002032855,登記記録の閉鎖等,0,2025-11-14,2025-10-31,有限会社濱地石油店,00093259,有限会社,福岡県,糸島市,前原中央３丁目１９番２０－１４０６号,,40,230,8191116,,,2025-10-31,清算の結了等,,,2015-10-05,1,,,,,ハマチセキユテン,0
2680,9330002010914,登記記録の閉鎖等,0,2025-11-14,2025-11-07,有限会社大和寿司,,有限会社,熊本県,熊本市南区,荒尾２丁目２番２０号,,43,104,8614136,,,2025-11-07,清算の結了等,,,2015-10-05,1,,,,,ヤマトズシ,0
2684,9370001020984,登記記録の閉鎖等,0,2025-11-14,2025-11-13,株式会社メガ・エンジニアリング,,株式会社,宮城県,仙台市泉区,鶴が丘１丁目１４番地の４,,04,105,9813109,,,2025-11-13,清算の結了等,,,2015-10-05,1,,,,,メガエンジニアリング,0
2698,9430002042014,登記記録の閉鎖等,0,2025-11-14,2025-11-10,有限会社Ｆｃｏｍ札幌,,有限会社,北海道,札幌市西区,発寒六条５丁目５番１－５１１号,,01,107,0630826,,,2025-11-10,清算の結了等,,,2015-10-05,1,,,,,エフコムサッポロ,0
2706,9500005002189,登記記録の閉鎖等,0,2025-11-14,2025-11-13,ＮＰＯ法人シン,,その他の設立登記法人,愛媛県,松山市,土居田町５８３番地,,38,201,7900056,,,2025-11-13,清算の結了等,,,2015-10-05,1,,,,,シン,0
