sequenceNumber,corporateNumber,process,correct,updateDate,changeDate,name,nameImageId,kind,prefectureName,cityName,streetNumber,addressImageId,prefectureCode,cityCode,postCode,addressOutside,addressOutsideImageId,closeDate,closeCause,successorCorporateNumber,changeCause,assignmentDate,latest,enName,enPrefectureName,enCityName,enAddressOutside,furigana,hihyoji
18,1010405005872,登記記録の閉鎖等,0,2024-06-04,2024-06-03,特定非営利活動法人ホホコミュニティ,,その他の設立登記法人,滋賀県,彦根市,金亀町７番５号彦根市民活動センター,,25,202,5220061,,,2024-06-03,清算の結了等,,,2015-10-05,1,,,,,ホホコミュニティ,0
51,1011502013149,登記記録の閉鎖等,0,2024-06-04,2024-05-30,タケダホーム有限会社,,有限会社,東京都,北区,浮間２丁目２４番４号,,13,117,1150051,,,2024-05-30,清算の結了等,,,2015-10-05,1,,,,,タケダホーム,0
68,1020001108186,登記記録の閉鎖等,0,2024-06-04,2024-05-30,株式会社保土ケ谷企画,,株式会社,神奈川県,横浜市保土ケ谷区,仏向町８８４番地３,,14,106,2400044,,,2024-05-30,清算の結了等,,,2015-10-05,1,,,,,ホドガヤキカク,0
133,1130002018844,登記記録の閉鎖等,0,2024-06-04,2024-05-31,有限会社ガレージシミズ,,有限会社,京都府,京都市南区,上鳥羽大物町３８番地,,26,107,6018121,,,2024-05-31,清算の結了等,,,2015-10-05,1,,,,,,0
139,1140001127034,登記記録の閉鎖等,0,2024-06-04,2024-05-31,株式会社ＦＰコンサルティング阪神,,株式会社,兵庫県,川西市,湯山台１丁目３番地の７,,28,217,6660137,,,2024-05-31,清算の結了等,,,2022-08-09,1,,,,,エフピーコンサルティングハンシン,0
158,1180002042708,登記記録の閉鎖等,0,2024-06-04,2024-05-15,有限会社中部綜合舞台,,有限会社,愛知県,名古屋市昭和区,曙町１丁目２１番地の１０,,23,107,4660003,,,2024-05-15,清算の結了等,,,2015-10-05,1,,,,,チュウブソウゴウブタイ,0
164,1180301021924,登記記録の閉鎖等,0,2024-06-04,2024-05-28,ヤマダヤコーポレーション株式会社,,株式会社,愛知県,碧南市,東浦町２丁目６６番地,,23,209,4470889,,,2024-05-28,清算の結了等,,,2015-10-05,1,,,,,ヤマダヤコーポレーション,0
168,1200001008979,登記記録の閉鎖等,0,2024-06-04,2024-05-31,株式会社タイヨウ・メイギ,,株式会社,岐阜県,岐阜市,六条大溝２丁目５番１５号,,21,201,5008357,,,2024-05-31,清算の結了等,,,2015-10-05,1,,,,,タイヨウメイギ,0
187,1290001008541,登記記録の閉鎖等,0,2024-06-04,2024-05-10,株式会社大陸総合コンサルタント,,株式会社,福岡県,福岡市南区,高木１丁目８番１８号,,40,134,8150004,,,2024-05-10,清算の結了等,,,2015-10-05,1,,,,,タイリクソウゴウコンサルタント,0
190,1290801016033,登記記録の閉鎖等,0,2024-06-04,2024-05-30,カラーズ株式会社,,株式会社,福岡県,豊前市,大字岸井１８０番地,,40,214,8280043,,,2024-05-30,清算の結了等,,,2015-10-05,1,,,,,カラーズ,0
198,1330002016596,登記記録の閉鎖等,0,2024-06-04,2024-05-31,有限会社オフィス・ケイエム,,有限会社,熊本県,菊池郡大津町,美咲野２丁目２０番４号,,43,403,8691237,,,2024-05-31,清算の結了等,,,2015-10-05,1,,,,,オフィスケイエム,0
208,1380001004993,登記記録の閉鎖等,0,2024-06-04,2024-05-30,株式会社グレート,,株式会社,福島県,郡山市,富久山町久保田字中台１１０番地,,07,203,9638071,,,2024-05-30,清算の結了等,,,2015-10-05,1,,,,,,0
218,1430001021182,登記記録の閉鎖等,0,2024-06-04,2024-05-30,株式会社フジ・コーポレーション,,株式会社,北海道,札幌市西区,八軒六条西３丁目１番７号,,01,107,0630846,,,2024-05-30,合併による解散等,7430001021177,令和６年５月３０日札幌市西区八軒六条西三丁目１番７号フジ交通株式会社（7430001021177）に合併し解散,2015-10-05,1,,,,,フジコーポレーション,0
233,2000020038539,登記記録の閉鎖等,0,2024-06-04,2023-03-31,岩手県沿岸知的障害児施設組合,,地方公共団体,岩手県,宮古市,宮町１丁目１番３０号,,03,202,0270052,,,2023-03-31,その他の清算の結了等,,,2015-10-05,1,Iwate Prefecture Coastal Institution for Mentally Retarded Children Association,Iwate,"1-1-30, Miyamachi, Miyako shi",,イワテケンエンガンチテキショウガイジシセツクミアイ,0
237,2010001064000,登記記録の閉鎖等,0,2024-06-04,2024-05-27,株式会社みなみワールド,,株式会社,東京都,中央区,日本橋浜町２丁目４１番５－６０３号,,13,102,1030007,,,2024-05-27,清算の結了等,,,2015-10-05,1,,,,,ミナミワールド,0
244,2010003028770,登記記録の閉鎖等,0,2024-06-04,2024-05-23,Ｇ６ＳＣ－ＳＵＢ合同会社,,合同会社,東京都,千代田区,九段南３丁目７番７号成和綜合会計事務所内,,13,101,1020074,,,2024-05-23,清算の結了等,,,2018-11-22,1,,,,,ジーシックスエスシーサブ,0
245,2010003031568,登記記録の閉鎖等,0,2024-06-04,2024-05-23,メゾン東京第三合同会社,,合同会社,東京都,千代田区,丸の内３丁目１番１号東京共同会計事務所内,,13,101,1000005,,,2024-05-23,清算の結了等,,,2020-02-04,1,,,,,メゾントウキョウダイサン,0
256,2010501003226,登記記録の閉鎖等,0,2024-06-04,2024-05-31,株式会社クズワ玩具,,株式会社,東京都,台東区,千束４丁目８番８号,,13,106,1110031,,,2024-05-31,清算の結了等,,,2015-10-05,1,,,,,クズワガング,0
257,2010601008117,登記記録の閉鎖等,0,2024-06-04,2024-05-31,株式会社セントラルクリエイティブコーポレーション,,株式会社,東京都,江東区,亀戸２丁目３９番１３－２０３号,,13,108,1360071,,,2024-05-31,清算の結了等,,,2015-10-05,1,,,,,セントラルクリエイティブコーポレーション,0
268,2011001143314,登記記録の閉鎖等,0,2024-06-04,2024-05-20,株式会社ポシビリティー,,株式会社,東京都,渋谷区,恵比寿４丁目３番１４号恵比寿ＳＳビル６Ｆ,,13,113,1500013,,,2024-05-20,清算の結了等,,,2021-10-12,1,,,,,ポシビリティー,0
278,2011101071043,登記記録の閉鎖等,0,2024-06-04,2024-05-21,ｉｒｅｃｏ株式会社,,株式会社,東京都,港区,南青山３丁目８－４０青山センタービル２階,,13,103,1070062,,,2024-05-21,清算の結了等,,,2015-10-05,1,,,,,アイレコ,0
291,2011502009914,登記記録の閉鎖等,0,2024-06-04,2024-05-30,有限会社テック,,有限会社,東京都,荒川区,東尾久１丁目３０番４号,,13,118,1160012,,,2024-05-30,清算の結了等,,,2015-10-05,1,,,,,,0
300,2011803003509,登記記録の閉鎖等,0,2024-06-04,2024-05-30,合同会社忠峰コミュニティ,,合同会社,東京都,足立区,大谷田２丁目３番３５－１－４０３号,,13,121,1200001,,,2024-05-30,清算の結了等,,,2018-11-06,1,,,,,チュウホウコミュニティ,0
301,2012401022033,登記記録の閉鎖等,0,2024-06-04,2024-05-27,テックコンビネーター株式会社,,株式会社,東京都,中央区,銀座１丁目１５番地７号ＭＡＣ銀座ビル３階,,13,102,1040061,,,2024-05-27,清算の結了等,,,2015-10-05,1,,,,,テックコンビネーター,0
310,2020001073438,登記記録の閉鎖等,0,2024-06-04,2024-05-30,株式会社ソフィア,,株式会社,神奈川県,川崎市川崎区,鋼管通２丁目８番３号,,14,131,2100852,,,2024-05-30,清算の結了等,,,2015-10-05,1,,,,,ソフィア,0
311,2020001101850,登記記録の閉鎖等,0,2024-06-04,2024-05-30,株式会社保土ケ谷,,株式会社,神奈川県,横浜市保土ケ谷区,上星川２丁目５番１５号,,14,106,2400042,,,2024-05-30,清算の結了等,,,2015-10-05,1,,,,,ホドガヤ,0
322,2020005006583,登記記録の閉鎖等,0,2024-06-04,2024-05-29,特定非営利活動法人み来,,その他の設立登記法人,神奈川県,横浜市栄区,笠間５丁目３６番１－４０８号,,14,115,2470006,,,2024-05-29,清算の結了等,,,2015-10-05,1,,,,,ミライ,0
337,2030005019163,登記記録の閉鎖等,0,2024-06-04,2024-05-30,一般社団法人明日の福祉研究会,,その他の設立登記法人,埼玉県,所沢市,大字下安松９０８番地の２１,,11,208,3590024,,,2024-05-30,清算の結了等,,,2018-09-28,1,,,,,アスノフクシケンキュウカイ,0
338,2040001056639,登記記録の閉鎖等,0,2024-06-04,2024-06-03,株式会社リオン,,株式会社,東京都,墨田区,緑２丁目２１番１７－３０５ＡＸＡＳＦＯＲＴ両国,,13,107,1300021,,,2024-06-03,清算の結了等,,,2015-10-05,1,,,,,リオン,0
343,2040003011807,登記記録の閉鎖等,0,2024-06-04,2024-05-20,合同会社ＧＲＡＴＩＳ,,合同会社,千葉県,船橋市,藤原７丁目４１番７棟２０１号,,12,204,2730047,,,2024-05-20,清算の結了等,,,2018-06-20,1,,,,,グラティス,0
347,2070001031481,登記記録の閉鎖等,0,2024-06-04,2024-05-31,ＳＡＭＭ　ＥＮＴＥＲＴＡＩＮＭＥＮＴ株式会社,,株式会社,群馬県,伊勢崎市,韮塚町９６４番地２,,10,204,3720813,,,2024-05-31,清算の結了等,,,2015-10-27,1,,,,,,0
360,2110002004390,登記記録の閉鎖等,0,2024-06-04,2024-05-28,有限会社藤間プリントリー,,有限会社,新潟県,新潟市東区,東明７丁目３番地４,,15,102,9500853,,,2024-05-28,清算の結了等,,,2015-10-05,1,,,,,トウマプリントリー,0
376,2120002058436,登記記録の閉鎖等,0,2024-06-04,2024-05-30,有限会社ビーフリー,,有限会社,大阪府,大阪市中央区,島之内１丁目５番１５－８０５号,,27,128,5420082,,,2024-05-30,清算の結了等,,,2015-10-05,1,,,,,ビーフリー,0
404,2140002045738,登記記録の閉鎖等,0,2024-06-04,2024-05-30,有限会社空,,有限会社,兵庫県,尼崎市,常吉２丁目１３－２３、１Ｆ,,28,202,6610042,,,2024-05-30,合併による解散等,2140002022514,令和６年５月２１日神戸市長田区苅藻島町三丁目９番１８号株式会社ビームスコンストラクション（2140002022514）に合併し解散,2015-10-05,1,,,,,クウ,0
408,2140005016562,登記記録の閉鎖等,0,2024-06-04,2024-05-30,特定非営利活動法人アトリエ凹凸,,その他の設立登記法人,兵庫県,西宮市,今津曙町１３番２号,00042420,28,204,6638214,,,2024-05-30,清算の結了等,,,2015-10-05,1,,,,,アトリエオウトツ,0
438,2250001000534,登記記録の閉鎖等,0,2024-06-04,2024-06-03,株式会社山口興電社,,株式会社,山口県,山口市,宝町２番３号,,35,203,7530812,,,2024-06-03,合併による解散等,5250001000218,令和６年６月１日山口市朝田字流通センター１０６０１番地７株式会社興電社（5250001000218）に合併し解散,2015-10-05,1,,,,,ヤマグチコウデンシャ,0
446,2280005006987,登記記録の閉鎖等,0,2024-06-04,2024-06-03,一般社団法人えにし,,その他の設立登記法人,島根県,出雲市,斐川町坂田３６９４番地,,32,203,6990555,,,2024-06-03,清算の結了等,,,2015-10-05,1,,,,,エニシ,0
452,2290003013547,登記記録の閉鎖等,0,2024-06-04,2024-05-10,合同会社Ｆ‐テクノ,,合同会社,福岡県,糟屋郡新宮町,大字原上１１５０－３,,40,345,8110101,,,2024-05-10,清算の結了等,,,2023-02-17,1,,,,,エフテクノ,0
474,2430001056046,登記記録の閉鎖等,0,2024-06-04,2024-05-30,株式会社庄司工務店,,株式会社,北海道,札幌市厚別区,厚別東四条９丁目２番３号,,01,108,0040004,,,2024-05-30,清算の結了等,,,2015-10-05,1,,,,,ショウジコウムテン,0
501,3010001197229,登記記録の閉鎖等,0,2024-06-04,2024-05-27,染谷えつこ為替研究所株式会社,,株式会社,東京都,千代田区,内幸町１丁目１番１号帝国ホテルタワー１５階,,13,101,1000011,,,2024-05-27,清算の結了等,,,2018-12-20,1,,,,,ソメヤエツコカワセケンキュウジョ,0
502,3010001228248,登記記録の閉鎖等,0,2024-06-04,2024-05-24,ｅｍｂｒｉｉ株式会社,,株式会社,東京都,千代田区,神田須田町１丁目２６－６オーキッドプレイス７０１,,13,101,1010041,,,2024-05-24,清算の結了等,,,2022-07-28,1,,,,,エンブリィ,0
507,3010003040246,登記記録の閉鎖等,0,2024-06-04,2024-05-27,ＷＴＫ合同会社,,合同会社,東京都,中央区,銀座１丁目１２番４号,,13,102,1040061,,,2024-05-27,清算の結了等,,,2023-04-07,1,,,,,ダブリューティーケー,0
509,3010005036465,登記記録の閉鎖等,0,2024-06-04,2024-05-30,名古屋ロジスティクス特定目的会社,,その他の設立登記法人,東京都,中央区,日本橋１丁目４番１号日本橋一丁目ビルディング,,13,102,1030027,,,2024-05-30,清算の結了等,,,2023-04-07,1,,,,,ナゴヤロジスティクス,0
520,3010901015027,登記記録の閉鎖等,0,2024-06-04,2024-05-30,マーケット・マネジメント株式会社,,株式会社,東京都,世田谷区,経堂５丁目３８番２３号,,13,112,1560052,,,2024-05-30,清算の結了等,,,2015-10-05,1,,,,,マーケットマネジメント,0
521,3010902023078,登記記録の閉鎖等,0,2024-06-04,2024-05-21,有限会社フューチャーパートナーズ,,有限会社,東京都,世田谷区,成城５丁目７番１０号,,13,112,1570066,,,2024-05-21,清算の結了等,,,2015-10-05,1,,,,,フューチャーパートナーズ,0
553,3020001084302,登記記録の閉鎖等,0,2024-06-04,2024-05-29,株式会社プラトン,,株式会社,愛知県,名古屋市中区,大須４丁目９番７９号,,23,106,4600011,,,2024-05-29,清算の結了等,,,2015-10-05,1,,,,,プラトン,0
563,3021001073410,登記記録の閉鎖等,0,2024-06-04,2024-05-30,株式会社大祐商店,,株式会社,青森県,下北郡大間町,大字大間字大間平３８番地２９７,,02,423,0394601,,,2024-05-30,清算の結了等,,,2021-07-15,1,,,,,ダイスケショウテン,0
566,3021002068970,登記記録の閉鎖等,0,2024-06-04,2024-05-31,有限会社フカイハウス,,有限会社,神奈川県,三浦郡葉山町,堀内９８９番地,,14,301,2400112,,,2024-05-31,清算の結了等,,,2015-10-05,1,,,,,フカイハウス,0
574,3040002004604,登記記録の閉鎖等,0,2024-06-04,2024-05-27,株式会社ＳＡＮＫＯＵ,,株式会社,千葉県,千葉市中央区,新宿２丁目７番１０号,,12,101,2600021,,,2024-05-27,清算の結了等,,,2015-10-05,1,,,,,サンコウ,0
638,3140005024309,登記記録の閉鎖等,0,2024-06-04,2024-05-31,一般社団法人オーバルホープ,,その他の設立登記法人,兵庫県,伊丹市,口酒井１丁目３番１８号１０１号,,28,207,6640844,,,2024-05-31,清算の結了等,,,2018-10-22,1,,,,,オーバルホープ,0
709,3340002011982,登記記録の閉鎖等,0,2024-06-04,2024-05-31,有限会社鹿児島テクノサービス,,有限会社,鹿児島県,鹿児島市,桜ヶ丘３丁目２５番地２,,46,201,8910175,,,2024-05-31,清算の結了等,,,2015-10-05,1,,,,,カゴシマテクノサービス,0
710,3360001014695,登記記録の閉鎖等,0,2024-06-04,2024-06-03,株式会社リルモ・エコ・Ｉ企画,,株式会社,沖縄県,那覇市,泉崎１丁目２２番１１号４０３,,47,201,9000021,,,2024-06-03,清算の結了等,,,2015-10-05,1,,,,,リルモエコアイキカク,0
711,3370001025353,登記記録の閉鎖等,0,2024-06-04,2024-05-30,株式会社イーセブンジャパン,,株式会社,宮城県,仙台市太白区,西多賀３丁目１番５号,,04,104,9820034,,,2024-05-30,清算の結了等,,,2015-10-05,1,,,,,イーセブンジャパン,0
723,3420003001553,登記記録の閉鎖等,0,2024-06-04,2024-05-29,合同会社丸漁漁業部,,合同会社,青森県,下北郡佐井村,大字佐井字糠森３８番地５,,02,426,0394711,,,2024-05-29,清算の結了等,,,2016-02-24,1,,,,,マルギョギョギョウブ,0
726,3430001088410,登記記録の閉鎖等,0,2024-06-04,2024-06-03,株式会社ＯＷＬ,,株式会社,北海道,江別市,野幌美幸町３０番地の１１,,01,217,0690804,,,2024-06-03,清算の結了等,,,2023-02-13,1,,,,,アウル,0
731,3430002007451,登記記録の閉鎖等,0,2024-06-04,2024-06-03,有限会社高翔,,有限会社,北海道,札幌市西区,琴似一条７丁目３４番地,,01,107,0630811,,,2024-06-03,清算の結了等,,,2015-10-05,1,,,,,,0
736,3500002009779,登記記録の閉鎖等,0,2024-06-04,2024-05-30,有限会社正忠,,有限会社,愛媛県,松山市,居相１丁目１番５号,,38,201,7900934,,,2024-05-30,清算の結了等,,,2015-10-05,1,,,,,マサチュウ,0
737,3500002014309,登記記録の閉鎖等,0,2024-06-04,2024-05-28,有限会社たかぎ,,有限会社,愛媛県,西条市,神拝乙１０８番地の１,,38,206,7930021,,,2024-05-28,清算の結了等,,,2015-10-05,1,,,,,タカギ,0
753,4010001222992,登記記録の閉鎖等,0,2024-06-04,2024-05-27,株式会社Ｑ＆Ｎ,,株式会社,東京都,中央区,日本橋兜町１７番２号兜町第６葉山ビル４階,,13,102,1030026,,,2024-05-27,清算の結了等,,,2021-12-03,1,,,,,キューアンドエヌ,0
782,4010903007442,登記記録の閉鎖等,0,2024-06-04,2024-05-31,合同会社ｆａｓｋ,,合同会社,東京都,世田谷区,玉川３丁目２０番２号マノア玉川第３ビル５０１号室,,13,112,1580094,,,2024-05-31,清算の結了等,,,2022-06-13,1,,,,,ファスク,0
853,4080102017641,登記記録の閉鎖等,0,2024-06-04,2024-05-31,有限会社燦,,有限会社,静岡県,富士宮市,淀師１３０６番地の３,,22,207,4180051,,,2024-05-31,清算の結了等,,,2015-10-05,1,,,,,サン,0
858,4080402007771,登記記録の閉鎖等,0,2024-06-04,2024-05-31,有限会社マルタイ建築今田,,有限会社,静岡県,浜松市中央区,協和町３３０番地の４,,22,138,4311205,,,2024-05-31,清算の結了等,,,2015-10-05,1,,,,,,0
866,4120001054293,登記記録の閉鎖等,0,2024-06-04,2024-05-31,小前精密株式会社,,株式会社,大阪府,大阪市淀川区,十三本町２丁目３番８号,,27,123,5320024,,,2024-05-31,清算の結了等,,,2015-10-05,1,,,,,コマエセイミツ,0
882,4120902018751,登記記録の閉鎖等,0,2024-06-04,2024-05-30,有限会社スキルサーヴィス,,有限会社,大阪府,豊中市,永楽荘３丁目１１番３４号,,27,203,5600051,,,2024-05-30,清算の結了等,,,2015-10-05,1,,,,,スキルサーヴィス,0
901,4140002003768,登記記録の閉鎖等,0,2024-06-04,2024-05-31,有限会社松本工務店,,有限会社,兵庫県,神戸市灘区,岩屋北町１丁目１番１４号,,28,102,6570846,,,2024-05-31,清算の結了等,,,2015-10-05,1,,,,,マツモトコウムテン,0
916,4180305009384,登記記録の閉鎖等,0,2024-06-04,2024-05-29,農事組合法人陽耕,,その他の設立登記法人,愛知県,豊田市,上原町上河原８番地１,,23,211,4700341,,,2024-05-29,清算の結了等,,,2022-09-09,1,,,,,ヨウコウ,0
932,4240002025827,登記記録の閉鎖等,0,2024-06-04,2024-06-03,有限会社木本モータース,,有限会社,広島県,広島市南区,段原日出２丁目３番２０号,,34,103,7320818,,,2024-06-03,合併による解散等,2240001005971,令和６年６月１日広島市南区段原日出二丁目３番２０号株式会社ＴＡＩＳＥＩ（2240001005971）に合併し解散,2015-10-05,1,,,,,キモトモータース,0
939,4280005000286,登記記録の閉鎖等,0,2024-06-04,2024-05-31,島根県保険医協同組合,,その他の設立登記法人,島根県,松江市,浜乃木４丁目４番１号,,32,201,6900044,,,2024-05-31,清算の結了等,,,2015-10-05,1,,,,,シマネケンホケンイ,0
946,4290801022053,登記記録の閉鎖等,0,2024-06-04,2024-04-16,株式会社Ｂｅｒｏａｄ,,株式会社,福岡県,福岡市博多区,博多駅南４丁目１８－２,,40,132,8120016,,,2024-04-16,合併による解散等,8010401165854,令和６年４月１５日福岡市博多区博多駅南四丁目１８番２号明東ビル４Ｆ株式会社ＢＪＣ（8010401165854）に合併し解散,2015-12-03,1,,,,,ビロード,0
1000,5010001170679,登記記録の閉鎖等,0,2024-06-04,2024-05-24,株式会社ライフサポート,,株式会社,東京都,台東区,浅草橋５丁目５番５号,,13,106,1110053,,,2024-05-24,合併による解散等,3010501036687,令和５年５月２日東京都台東区浅草橋五丁目５番５号株式会社Ｏｐｕｓ．ｎｅｔ（3010501036687）に合併し解散,2015-10-05,1,,,,,ライフサポート,0
1020,5010403022998,登記記録の閉鎖等,0,2024-06-04,2024-05-21,合同会社Ｄａｒｔ,,合同会社,東京都,港区,虎ノ門５丁目１番４号,,13,103,1050001,,,2024-05-21,清算の結了等,,,2020-05-21,1,,,,,ダート,0
1062,5012401015323,登記記録の閉鎖等,0,2024-06-04,2024-05-30,株式会社ジャパンプランニング,,株式会社,東京都,小平市,天神町１丁目１５番１－７０８号,,13,211,1870004,,,2024-05-30,清算の結了等,,,2015-10-05,1,,,,,ジャパンプランニング,0
1075,5021001069514,登記記録の閉鎖等,0,2024-06-04,2024-05-31,株式会社ワースハンド,,株式会社,神奈川県,海老名市,東柏ケ谷１丁目１４－２９橘ビル２０２,,14,215,2430401,,,2024-05-31,清算の結了等,,,2020-03-16,1,,,,,ワースハンド,0
1096,5070001035249,登記記録の閉鎖等,0,2024-06-04,2024-05-31,株式会社Ｂ－Ｗｉｎｇ,,株式会社,群馬県,高崎市,藤塚町２００番地１８,,10,202,3700875,,,2024-05-31,清算の結了等,,,2018-11-14,1,,,,,ビーウィング,0
1100,5080101007163,登記記録の閉鎖等,0,2024-06-04,2024-06-03,株式会社エンドー洋品店,,株式会社,静岡県,伊豆市,柏久保１３４０番地,,22,222,4102407,,,2024-06-03,清算の結了等,,,2015-10-05,1,,,,,エンドーヨウヒンテン,0
1102,5080102015529,登記記録の閉鎖等,0,2024-06-04,2024-06-03,有限会社ソーワエイド,,有限会社,静岡県,富士市,原田８６３番地の５,,22,210,4170852,,,2024-06-03,清算の結了等,,,2015-10-05,1,,,,,ソーワエイド,0
1108,5120001154217,登記記録の閉鎖等,0,2024-06-04,2024-06-03,株式会社ファーストプラン,,株式会社,大阪府,枚方市,招提中町２丁目１５番２６号,,27,210,5731152,,,2024-06-03,清算の結了等,,,2015-10-05,1,,,,,ファーストプラン,0
1111,5120001247805,登記記録の閉鎖等,0,2024-06-04,2024-05-29,善航株式会社,,株式会社,大阪府,大阪市都島区,東野田町４丁目５－２翠連マンション４０８号室,,27,102,5340024,,,2024-05-29,清算の結了等,,,2022-08-05,1,,,,,ゼンコウ,0
1144,5150001009194,登記記録の閉鎖等,0,2024-06-04,2024-05-30,株式会社あるぼーる,,株式会社,奈良県,桜井市,大字粟殿３５５番地,,29,206,6330062,,,2024-05-30,清算の結了等,,,2024-05-15,1,,,,,アルボール,0
1145,5150001014590,登記記録の閉鎖等,0,2024-06-04,2024-06-03,株式会社コントラワーク,,株式会社,奈良県,葛城市,染野２６３番８,,29,211,6390273,,,2024-06-03,清算の結了等,,,2015-10-05,1,,,,,コントラワーク,0
1162,5180001139583,登記記録の閉鎖等,0,2024-06-04,2024-05-30,株式会社リラクル,,株式会社,愛知県,名古屋市千種区,今池１丁目６番２号第６４プロスパービル２Ｆ,,23,101,4640850,,,2024-05-30,清算の結了等,,,2020-01-14,1,,,,,リラクル,0
1175,5190005007810,登記記録の閉鎖等,0,2024-06-04,2024-05-30,桑名漁業協同組合連合会,,その他の設立登記法人,三重県,桑名市,長島町白鶏字佐藤１番地の１,,24,205,5111136,,,2024-05-30,清算の結了等,,,2015-10-05,1,,,,,クワナ,0
1184,5240001018632,登記記録の閉鎖等,0,2024-06-04,2024-05-31,株式会社ティアコーポレーション,,株式会社,広島県,東広島市,西条町土与丸４０５番地３（２０３）,,34,212,7390003,,,2024-05-31,清算の結了等,,,2015-10-05,1,,,,,ティアコーポレーション,0
1186,5240001048225,登記記録の閉鎖等,0,2024-06-04,2024-05-31,株式会社エレベーター・デポ中国,,株式会社,広島県,広島市西区,都町７番８号,,34,104,7330023,,,2024-05-31,清算の結了等,,,2015-10-05,1,,,,,エレベーターデポチュウゴク,0
1205,5290001066024,登記記録の閉鎖等,0,2024-06-04,2024-05-10,ディア・ヒロイン株式会社,,株式会社,福岡県,福岡市中央区,大名１丁目２番１１号プロテクトＩＩＩビル７Ｆ,00092837,40,133,8100041,,,2024-05-10,清算の結了等,,,2015-10-05,1,,,,,ディアヒロイン,0
1211,5290002027883,登記記録の閉鎖等,0,2024-06-04,2024-05-01,有限会社ＦＯＲＣＥ,,有限会社,福岡県,福岡市中央区,渡辺通４丁目２番２７－２０２号,,40,133,8100004,,,2024-05-01,合併による解散等,6290001020418,令和６年４月３０日福岡市中央区天神二丁目４番２９号株式会社エフ（6290001020418）に合併し解散,2015-10-05,1,,,,,フォルス,0
1229,5360002001162,登記記録の閉鎖等,0,2024-06-04,2024-06-03,有限会社オフィスミネ,,有限会社,沖縄県,那覇市,久米１丁目２４番１３号,,47,201,9000033,,,2024-06-03,清算の結了等,,,2015-10-05,1,,,,,オフィスミネ,0
1239,5420001008672,登記記録の閉鎖等,0,2024-06-04,2024-05-24,株式会社ＹＡＷＡＲＡ,,株式会社,青森県,五所川原市,大字広田字榊森６番地２,00087381,02,205,0370023,,,2024-05-24,清算の結了等,,,2015-10-05,1,,,,,ヤワラ,0
1242,5430001069193,登記記録の閉鎖等,0,2024-06-04,2024-05-31,株式会社弘栄鉄筋工業,,株式会社,北海道,札幌市西区,八軒五条西１０丁目１番４１－３０２号,,01,107,0630845,,,2024-05-31,清算の結了等,,,2015-10-05,1,,,,,コウエイテッキンコウギョウ,0
1293,6010701026279,登記記録の閉鎖等,0,2024-06-04,2024-05-10,株式会社ストレートスピリッツ,,株式会社,福岡県,福岡市城南区,長尾５丁目２７番８号,,40,136,8140123,,,2024-05-10,清算の結了等,,,2015-10-05,1,,,,,ストレートスピリッツ,0
1298,6010903001179,登記記録の閉鎖等,0,2024-06-04,2024-05-24,合同会社ベニーモ,,合同会社,東京都,世田谷区,上用賀１丁目９番５－２０９号,,13,112,1580098,,,2024-05-24,清算の結了等,,,2015-10-05,1,,,,,ベニーモ,0
1304,6011002025912,登記記録の閉鎖等,0,2024-06-04,2024-05-31,フロッピーワン有限会社,,有限会社,東京都,渋谷区,上原１丁目３６番１２号,,13,113,1510064,,,2024-05-31,清算の結了等,,,2015-10-05,1,,,,,フロッピーワン,0
1310,6011101068960,登記記録の閉鎖等,0,2024-06-04,2024-05-27,エフ・マネージメント株式会社,,株式会社,東京都,文京区,水道１丁目１１番７－１０５号,,13,105,1120005,,,2024-05-27,清算の結了等,,,2015-10-05,1,,,,,エフマネージメント,0
1318,6011501009143,登記記録の閉鎖等,0,2024-06-04,2024-05-30,株式会社ヤマナカ,,株式会社,東京都,荒川区,東尾久６丁目２３番９号,,13,118,1160012,,,2024-05-30,清算の結了等,,,2015-10-05,1,,,,,ヤマナカ,0
1324,6012401039429,登記記録の閉鎖等,0,2024-06-04,2024-05-29,商店東京株式会社,,株式会社,東京都,三鷹市,上連雀７丁目２６－２３－３０５,,13,204,1810012,,,2024-05-29,清算の結了等,,,2022-07-15,1,"Shoten Tokyo Co., Ltd.",,,,ショウテントウキョウ,0
1330,6020001098299,登記記録の閉鎖等,0,2024-06-04,2024-05-29,株式会社ＺＬＳ,,株式会社,神奈川県,横浜市中区,本町３丁目２４番地本町中央ビル５０２号室,,14,104,2310005,,,2024-05-29,清算の結了等,,,2015-10-05,1,,,,,ズィーエルエス,0
1338,6021005010010,登記記録の閉鎖等,0,2024-06-04,2024-05-31,一般社団法人日々の暮らしと文化社,,その他の設立登記法人,神奈川県,中郡大磯町,大磯５５,,14,341,2550003,,,2024-05-31,清算の結了等,,,2015-10-05,1,,,,,ヒビノクラシトブンカシャ,0
1339,6030001048773,登記記録の閉鎖等,0,2024-06-04,2024-05-31,株式会社ＨＨＳ,,株式会社,埼玉県,朝霞市,朝志ケ丘１丁目７番１７号メゾン島田３０２号室,,11,227,3510035,,,2024-05-31,清算の結了等,,,2015-10-05,1,,,,,エイチエイチエス,0
1365,6080402005303,登記記録の閉鎖等,0,2024-06-04,2024-05-27,有限会社テラス,,有限会社,静岡県,浜松市中央区,三方原町１８５５番地の４,,22,138,4338105,,,2024-05-27,清算の結了等,,,2015-10-05,1,,,,,テラス,0
1373,6110002025243,登記記録の閉鎖等,0,2024-06-04,2024-05-29,有限会社サンドリーム,,有限会社,新潟県,妙高市,中町３番１１号,,15,217,9440045,,,2024-05-29,清算の結了等,,,2015-10-05,1,,,,,サンドリーム,0
1417,6140002037558,登記記録の閉鎖等,0,2024-06-04,2024-05-30,瀧口工業有限会社,,有限会社,兵庫県,加古郡播磨町,東野添２丁目８番２６号,,28,382,6750159,,,2024-05-30,清算の結了等,,,2015-10-05,1,,,,,タキグチコウギョウ,0
1428,6180001011246,登記記録の閉鎖等,0,2024-06-04,2024-05-30,株式会社森井鉄工所,,株式会社,愛知県,名古屋市瑞穂区,内浜町２５番１５号,,23,108,4670853,,,2024-05-30,合併による解散等,3180001009862,令和６年５月３０日名古屋市瑞穂区内浜町２６番３号エイベックス株式会社（3180001009862）に合併し解散,2015-10-05,1,,,,,モリイテッコウショ,0
1430,6180001110329,登記記録の閉鎖等,0,2024-06-04,2024-05-31,株式会社カラフル,,株式会社,岐阜県,岐阜市,茜部本郷２丁目１６４番地２プロシードエックスドットコム１０３号室,,21,201,5008262,,,2024-05-31,清算の結了等,,,2015-10-05,1,,,,,カラフル,0
1455,6270001006385,登記記録の閉鎖等,0,2024-06-04,2024-05-28,株式会社ＴＭＣ,,株式会社,鳥取県,鳥取市,山城町５－１１,,31,201,6800008,,,2024-05-28,清算の結了等,,,2015-10-05,1,,,,,ティーエムシー,0
1461,6300002005804,登記記録の閉鎖等,0,2024-06-04,2024-05-31,有限会社大坪農機商会,,有限会社,佐賀県,武雄市,武雄町大字武雄５６５０番地,,41,206,8430022,,,2024-05-31,清算の結了等,,,2015-10-05,1,,,,,オオツボノウキショウカイ,0
1474,6340002006030,登記記録の閉鎖等,0,2024-06-04,2024-05-31,有限会社田中運送,,有限会社,鹿児島県,鹿児島市,中山町７４７番地２,,46,201,8910105,,,2024-05-31,清算の結了等,,,2015-10-05,1,,,,,タナカウンソウ,0
1490,6430001070497,登記記録の閉鎖等,0,2024-06-04,2024-05-31,株式会社一幻千歳,,株式会社,北海道,千歳市,美々９８７番地２２,,01,224,0660012,,,2024-05-31,清算の結了等,,,2015-12-25,1,,,,,イチゲンチトセ,0
1502,6480002001067,登記記録の閉鎖等,0,2024-06-04,2024-05-31,有限会社キヤツチギヤラリー,,有限会社,徳島県,徳島市,元町２丁目５番地１,,36,201,7700834,,,2024-05-31,清算の結了等,,,2015-10-05,1,,,,,キヤツチギヤラリー,0
1521,7010002041968,登記記録の閉鎖等,0,2024-06-04,2024-05-24,有限会社伊勢兼ビル,,有限会社,東京都,中央区,日本橋人形町１丁目７番９号,,13,102,1030013,,,2024-05-24,清算の結了等,,,2015-10-05,1,,,,,イセカネビル,0
1538,7010403026584,登記記録の閉鎖等,0,2024-06-04,2024-05-31,栗東湖南ＭＬ合同会社,,合同会社,東京都,中央区,八重洲２丁目２番１号,,13,102,1040028,,,2024-05-31,清算の結了等,,,2021-11-25,1,,,,,リットウコナンエムエル,0
1543,7010405007938,登記記録の閉鎖等,0,2024-06-04,2024-05-31,ＳＭＦＬホールディング２一般社団法人,,その他の設立登記法人,東京都,千代田区,丸の内１丁目３番２号,,13,101,1000005,,,2024-05-31,清算の結了等,,,2015-10-05,1,,,,,エスエムエフエルホールディングツー,0
1544,7010501004566,登記記録の閉鎖等,0,2024-06-04,2024-06-03,株式会社山水社,,株式会社,東京都,墨田区,立花５丁目１番２１号,,13,107,1310043,,,2024-06-03,清算の結了等,,,2015-10-05,1,,,,,サンスイシャ,0
1577,7011801020328,登記記録の閉鎖等,0,2024-06-04,2024-05-30,佑デザインラボラトリー株式会社,,株式会社,北海道,札幌市白石区,栄通１７丁目７－３－１０４,,01,104,0030021,,,2024-05-30,清算の結了等,,,2015-10-05,1,,,,,タスクデザインラボラトリー,0
1585,7020001083481,登記記録の閉鎖等,0,2024-06-04,2024-05-29,ＡＴ‐ソリュションズ株式会社,,株式会社,東京都,調布市,小島町３丁目１０番地２０,,13,208,1820026,,,2024-05-29,清算の結了等,,,2015-10-05,1,,,,,エーティーソリュションズ,0
1601,7021002059322,登記記録の閉鎖等,0,2024-06-04,2024-05-31,有限会社ビーハンズ,,有限会社,神奈川県,平塚市,田村１丁目１番７号ウエハラデンキビル,,14,203,2540013,,,2024-05-31,清算の結了等,,,2015-10-05,1,,,,,ビーハンズ,0
1605,7030001110994,登記記録の閉鎖等,0,2024-06-04,2024-05-30,株式会社中村電気工事,,株式会社,埼玉県,深谷市,大谷１９９７番地２,,11,218,3660814,,,2024-05-30,清算の結了等,,,2015-10-22,1,,,,,ナカムラデンキコウジ,0
1606,7030001124177,登記記録の閉鎖等,0,2024-06-04,2024-05-31,株式会社司工業,,株式会社,埼玉県,さいたま市見沼区,大字小深作６１９番地７,,11,104,3370005,,,2024-05-31,清算の結了等,,,2018-02-07,1,,,,,ツカサコウギョウ,0
1620,7050002043754,登記記録の閉鎖等,0,2024-06-04,2024-05-30,有限会社大栄商事,,有限会社,茨城県,つくば市,山中４９３番地１,,08,220,3050836,,,2024-05-30,清算の結了等,,,2015-10-05,1,,,,,ダイエイショウジ,0
1633,7120001010756,登記記録の閉鎖等,0,2024-06-04,2024-05-31,株式会社濱村電機工業所,00027106,株式会社,大阪府,大阪市東住吉区,鷹合２丁目１０番１７号,,27,121,5460014,,,2024-05-31,清算の結了等,,,2015-10-05,1,,,,,ハマムラデンキコウギョウショ,0
1637,7120001154314,登記記録の閉鎖等,0,2024-06-04,2024-05-31,勝光商事株式会社,,株式会社,大阪府,交野市,妙見東４丁目３番２５号,,27,230,5760012,,,2024-05-31,清算の結了等,,,2015-10-05,1,,,,,ショウコウショウジ,0
1690,7200005002709,登記記録の閉鎖等,0,2024-06-04,2024-05-20,特定非営利活動法人木造建築研究会,,その他の設立登記法人,愛知県,一宮市,笹野字宮西北１３９５－１,,23,203,4910131,,,2024-05-20,清算の結了等,,,2015-10-05,1,,,,,モクゾウケンチクケンキュウカイ,0
1713,7290002048531,登記記録の閉鎖等,0,2024-06-04,2024-05-01,有限会社エシマ自動車,,有限会社,福岡県,久留米市,国分町１５１６番地の１,,40,203,8390863,,,2024-05-01,合併による解散等,8290001051048,令和６年５月１日福岡県久留米市国分町１５１７番地３株式会社ＲＶランド（8290001051048）に合併し解散,2015-10-05,1,,,,,エシマジドウシャ,0
1718,7310002005232,登記記録の閉鎖等,0,2024-06-04,2024-05-31,有限会社松葉企画,,有限会社,長崎県,長崎市,高尾町６番４８号,,42,201,8528111,,,2024-05-31,清算の結了等,,,2015-10-05,1,,,,,マツバキカク,0
1719,7320001009621,登記記録の閉鎖等,0,2024-06-04,2024-05-29,株式会社丸秀工業,,株式会社,大分県,豊後大野市,千歳町長峰２３６３番地１,,44,212,8797404,,,2024-05-29,清算の結了等,,,2015-10-05,1,,,,,マルヒデコウギョウ,0
1746,7430001070496,登記記録の閉鎖等,0,2024-06-04,2024-05-31,株式会社一幻札幌,,株式会社,北海道,札幌市中央区,南七条西９丁目１０２４番地１０,,01,101,0640807,,,2024-05-31,清算の結了等,,,2015-12-24,1,,,,,イチゲンサッポロ,0
1755,7480002008532,登記記録の閉鎖等,0,2024-06-04,2024-05-30,有限会社シンカー,,有限会社,徳島県,徳島市,国府町中１１４－２,,36,201,7793124,,,2024-05-30,清算の結了等,,,2015-10-05,1,,,,,シンカー,0
1760,8010001143995,登記記録の閉鎖等,0,2024-06-04,2024-05-21,ハイパーキューブ株式会社,,株式会社,東京都,港区,台場１丁目１番１－３００６号,,13,103,1350091,,,2024-05-21,清算の結了等,,,2015-10-05,1,,,,,ハイパーキューブ,0
1783,8010405019008,登記記録の閉鎖等,0,2024-06-04,2024-05-31,八千代５ロジスティック特定目的会社,,その他の設立登記法人,東京都,中央区,八重洲２丁目２番１号,,13,102,1040028,,,2024-05-31,清算の結了等,,,2020-08-19,1,,,,,ヤチヨファイブロジスティック,0
1802,8011701021482,登記記録の閉鎖等,0,2024-06-04,2024-05-21,株式会社サクラエクスチェンジフィナンシャル,,株式会社,東京都,港区,東麻布２丁目２２番５号,,13,103,1060044,,,2024-05-21,清算の結了等,,,2018-01-26,1,,,,,サクラエクスチェンジフィナンシャル,0
1815,8020001121265,登記記録の閉鎖等,0,2024-06-04,2024-05-29,キヨフジ技建株式会社,,株式会社,神奈川県,横浜市港南区,笹下５丁目１１番４８号,,14,111,2340052,,,2024-05-29,清算の結了等,,,2017-05-15,1,,,,,キヨフジギケン,0
1824,8021003009275,登記記録の閉鎖等,0,2024-06-04,2024-05-31,合同会社ＭＴ,,合同会社,神奈川県,相模原市南区,旭町１４番６号,,14,153,2520304,,,2024-05-31,清算の結了等,,,2020-04-10,1,,,,,エムティー,0
1825,8021003011280,登記記録の閉鎖等,0,2024-06-04,2024-06-03,関本合同会社,,合同会社,神奈川県,茅ヶ崎市,赤松町１３番２３－１３９号,,14,207,2530013,,,2024-06-03,清算の結了等,,,2022-01-11,1,,,,,セキモト,0
1826,8021003011322,登記記録の閉鎖等,0,2024-06-04,2024-05-10,合同会社Ｂｅｌｌｅ．Ｖｉｔａ,,合同会社,神奈川県,相模原市南区,東林間２丁目１５番７号,,14,153,2520311,,,2024-05-10,清算の結了等,,,2022-01-24,1,,,,,ベルビータ,0
1829,8030001059736,登記記録の閉鎖等,0,2024-06-04,2024-05-29,株式会社ＣＢＣ,,株式会社,埼玉県,川越市,宮下町１丁目２番地３０,,11,201,3500052,,,2024-05-29,清算の結了等,,,2015-10-05,1,,,,,シービーシー,0
1837,8030002048845,登記記録の閉鎖等,0,2024-06-04,2024-05-28,有限会社佐々木製作所,,有限会社,埼玉県,三郷市,高州２丁目８４番地３,,11,237,3410037,,,2024-05-28,清算の結了等,,,2015-10-05,1,,,,,ササキセイサクショ,0
1839,8040001017065,登記記録の閉鎖等,0,2024-06-04,2024-05-24,かねはち水産株式会社,,株式会社,千葉県,船橋市,湊町１丁目１２番１２号,,12,204,2730011,,,2024-05-24,清算の結了等,,,2015-10-05,1,,,,,カネハチスイサン,0
1841,8040001083792,登記記録の閉鎖等,0,2024-06-04,2024-05-27,株式会社ライズフード,,株式会社,千葉県,千葉市花見川区,天戸町３番地２２,,12,102,2620043,,,2024-05-27,清算の結了等,,,2015-10-05,1,,,,,ライズフード,0
1844,8040002102840,登記記録の閉鎖等,0,2024-06-04,2024-05-24,有限会社コースリミテッド,,有限会社,千葉県,勝浦市,沢倉１７７番地の１,,12,218,2995231,,,2024-05-24,清算の結了等,,,2015-10-05,1,,,,,コースリミテッド,0
1855,8080101009198,登記記録の閉鎖等,0,2024-06-04,2024-05-31,株式会社ジンテック,,株式会社,静岡県,富士市,前田３２６番地の１,,22,210,4160937,,,2024-05-31,清算の結了等,,,2015-10-05,1,,,,,ジンテック,0
1856,8080102001468,登記記録の閉鎖等,0,2024-06-04,2024-06-03,有限会社サスタ水産,,有限会社,静岡県,沼津市,志下２１９番地の４,,22,203,4100106,,,2024-06-03,清算の結了等,,,2015-10-05,1,,,,,サスタスイサン,0
1882,8130001018764,登記記録の閉鎖等,0,2024-06-04,2024-05-24,メゾンドツーリズム京都株式会社,,株式会社,東京都,千代田区,霞が関３丁目２番１号,,13,101,1000013,,,2024-05-24,清算の結了等,,,2015-10-05,1,,,,,メゾンドツーリズムキョウト,0
1887,8140001077999,登記記録の閉鎖等,0,2024-06-04,2024-05-30,伊丹シティホテル株式会社,,株式会社,兵庫県,伊丹市,中央６丁目２番３３号,,28,207,6640851,,,2024-05-30,清算の結了等,,,2015-10-05,1,,,,,イタミシティホテル,0
1898,8140002065937,登記記録の閉鎖等,0,2024-06-04,2024-05-29,有限会社ナガタオフィス,,有限会社,兵庫県,川西市,向陽台１丁目２番地の９７,,28,217,6660115,,,2024-05-29,清算の結了等,,,2015-10-05,1,,,,,ナガタオフィス,0
1908,8180001064903,登記記録の閉鎖等,0,2024-06-04,2024-05-29,株式会社聖コーポレーション,,株式会社,愛知県,名古屋市千種区,南ケ丘１丁目１０番８号,,23,101,4640042,,,2024-05-29,清算の結了等,,,2015-10-05,1,,,,,ヒジリコーポレーション,0
1933,8230001011222,登記記録の閉鎖等,0,2024-06-04,2024-06-03,株式会社川原プレス,,株式会社,富山県,高岡市,福岡町下老子２６番地,,16,202,9390121,,,2024-06-03,清算の結了等,,,2015-10-05,1,,,,,カワハラプレス,0
1937,8230003001576,登記記録の閉鎖等,0,2024-06-04,2024-05-31,合同会社双葉,,合同会社,富山県,下新川郡朝日町,平柳９１５番地２,,16,343,9390744,,,2024-05-31,清算の結了等,,,2020-12-15,1,,,,,フタバ,0
1956,8290001053283,登記記録の閉鎖等,0,2024-06-04,2024-05-15,株式会社八千代食品,,株式会社,佐賀県,佐賀市,諸富町大字徳富１８５９番地１２,,41,201,8402104,,,2024-05-15,清算の結了等,,,2015-10-05,1,,,,,ヤチヨショクヒン,0
1959,8290002031627,登記記録の閉鎖等,0,2024-06-04,2024-05-10,有限会社泰土,,有限会社,福岡県,福岡市城南区,樋井川７丁目１７番５号,00093252,40,136,8140153,,,2024-05-10,清算の結了等,,,2015-10-05,1,,,,,タイト,0
1984,8430001070495,登記記録の閉鎖等,0,2024-06-04,2024-05-31,株式会社おおくら山,,株式会社,北海道,札幌市豊平区,平岸一条２２丁目２番１５号,,01,105,0620931,,,2024-05-31,清算の結了等,,,2015-12-24,1,,,,,オオクラヤマ,0
2026,9010401175258,登記記録の閉鎖等,0,2024-06-04,2024-05-22,ＷａｒｍＷａｖｅ株式会社,,株式会社,東京都,港区,北青山２丁目７番２０号猪瀬ビル２Ｆ,,13,103,1070061,,,2024-05-22,清算の結了等,,,2023-06-23,1,,,,,ウォームウェーブ,0
2028,9010403015156,登記記録の閉鎖等,0,2024-06-04,2024-05-20,フォースコム合同会社,,合同会社,東京都,港区,芝浦１丁目６番４１号,,13,103,1050023,,,2024-05-20,清算の結了等,,,2016-08-08,1,,,,,フォースコム,0
2039,9010601061803,登記記録の閉鎖等,0,2024-06-04,2024-05-31,株式会社ユニークウェルビーイング,,株式会社,東京都,江東区,扇橋１丁目２１番５－４２８号,,13,108,1350011,,,2024-05-31,清算の結了等,,,2022-09-06,1,,,,,ユニークウェルビーイング,0
2069,9011701013891,登記記録の閉鎖等,0,2024-06-04,2024-05-27,株式会社アイエージェンツ,,株式会社,東京都,江戸川区,北小岩８丁目１番１号レジデンス下園２０２,,13,123,1330051,,,2024-05-27,清算の結了等,,,2015-10-05,1,,,,,アイエージェンツ,0
2074,9012402018783,登記記録の閉鎖等,0,2024-06-04,2024-05-24,有限会社ＭＫ　ＰＬＡＮＮＩＮＧ,,有限会社,東京都,三鷹市,井の頭５丁目１４番１７号,,13,204,1810001,,,2024-05-24,清算の結了等,,,2015-10-05,1,,,,,エムケイプランニング,0
2077,9020001046775,登記記録の閉鎖等,0,2024-06-04,2024-05-27,株式会社成和,,株式会社,神奈川県,横浜市緑区,中山１丁目２２－３,,14,113,2260019,,,2024-05-27,合併による解散等,2020001113846,令和６年５月２５日横浜市緑区台村町３７０番地１株式会社栄和（2020001113846）に合併し解散,2015-10-05,1,,,,,セイワ,0
2091,9021001052763,登記記録の閉鎖等,0,2024-06-04,2024-05-31,本田篤建築設計事務所株式会社,,株式会社,神奈川県,鎌倉市,岡本１丁目１３番２５号,,14,204,2470072,,,2024-05-31,清算の結了等,,,2015-10-05,1,,,,,ホンダアツシケンチクセッケイジムショ,0
2098,9030001095029,登記記録の閉鎖等,0,2024-06-04,2024-05-17,株式会社Ｌｉｇｈｔｎｉｎｇ,,株式会社,東京都,渋谷区,宇田川町１６番８号渋谷センタービル３Ｆ,,13,113,1500042,,,2024-05-17,清算の結了等,,,2015-10-05,1,,,,,ライトニング,0
2105,9030002035727,登記記録の閉鎖等,0,2024-06-04,2024-05-31,有限会社原田設備工業,,有限会社,埼玉県,入間市,鍵山２丁目１２番２８号,,11,225,3580004,,,2024-05-31,清算の結了等,,,2015-10-05,1,,,,,ハラダセツビコウギョウ,0
2107,9040001003683,登記記録の閉鎖等,0,2024-06-04,2024-05-27,イデアブレーン株式会社,,株式会社,千葉県,千葉市若葉区,加曽利町７３３番５号,,12,104,2640017,,,2024-05-27,清算の結了等,,,2015-10-05,1,,,,,イデアブレーン,0
2142,9120001011769,登記記録の閉鎖等,0,2024-06-04,2024-05-31,株式会社上野歯車工作所,,株式会社,大阪府,大阪市東成区,大今里南４丁目１番７号,,27,115,5370013,,,2024-05-31,清算の結了等,,,2015-10-05,1,,,,,ウエノハグルマコウサクショ,0
2145,9120001073636,登記記録の閉鎖等,0,2024-06-04,2024-05-30,株式会社アースコーポレーション,,株式会社,大阪府,大阪市中央区,安堂寺町１丁目３番６号,,27,128,5420061,,,2024-05-30,合併による解散等,9120001109043,令和６年５月３０日大阪市住吉区千躰一丁目４番３２号株式会社ＮＢＮＤ（9120001109043）に合併し解散,2015-10-05,1,,,,,アースコーポレーション,0
2169,9122001016946,登記記録の閉鎖等,0,2024-06-04,2024-06-03,株式会社大東製作所,,株式会社,大阪府,大東市,灰塚５丁目１３番１８号,,27,218,5740043,,,2024-06-03,清算の結了等,,,2015-10-05,1,,,,,ダイトウセイサクショ,0
2182,9140001069095,登記記録の閉鎖等,0,2024-06-04,2024-05-30,株式会社ジャドコーポレーション,,株式会社,兵庫県,西宮市,寿町４番２２号,,28,204,6620047,,,2024-05-30,清算の結了等,,,2024-04-05,1,,,,,ジャドコーポレーション,0
2191,9140002059616,登記記録の閉鎖等,0,2024-06-04,2024-06-03,有限会社ミヤコンストラクション,,有限会社,兵庫県,西宮市,里中町１丁目３番１２号１０１号室,,28,204,6638183,,,2024-06-03,清算の結了等,,,2015-10-05,1,,,,,ミヤコンストラクション,0
2195,9150001004407,登記記録の閉鎖等,0,2024-06-04,2024-05-30,株式会社自然創健社,,株式会社,奈良県,奈良市,白毫寺町３８４番地の２２,,29,201,6308302,,,2024-05-30,清算の結了等,,,2015-10-05,1,,,,,シゼンソウケンシャ,0
2207,9180002086813,登記記録の閉鎖等,0,2024-06-04,2024-05-29,有限会社エム・ケイ・カンパニー,,有限会社,愛知県,あま市,本郷四反田９番地,,23,237,4901116,,,2024-05-29,清算の結了等,,,2015-10-05,1,,,,,エムケイカンパニー,0
2208,9180003017073,登記記録の閉鎖等,0,2024-06-04,2024-05-29,合同会社友愛,,合同会社,愛知県,名古屋市南区,浜田町２丁目３７番地４,,23,112,4570822,,,2024-05-29,清算の結了等,,,2016-05-09,1,,,,,ユウアイ,0
2210,9180003024128,登記記録の閉鎖等,0,2024-06-04,2024-05-31,零技術研究所合同会社,,合同会社,愛知県,名古屋市緑区,上旭２丁目１３０１番地の８,,23,114,4580016,,,2024-05-31,清算の結了等,,,2022-08-10,1,,,,,レイギジュツケンキュウショ,0
2212,9190002022032,登記記録の閉鎖等,0,2024-06-04,2024-05-31,有限会社松ヤ電測,,有限会社,三重県,四日市市,あかつき台３丁目１番地の５２,,24,202,5128046,,,2024-05-31,清算の結了等,,,2015-10-05,1,,,,,マツヤデンソク,0
2221,9250002019006,登記記録の閉鎖等,0,2024-06-04,2024-05-31,有限会社宮政建設,,有限会社,山口県,岩国市,由宇町由宇崎４番１７号,,35,208,7401426,,,2024-05-31,清算の結了等,,,2015-10-05,1,,,,,ミヤマサケンセツ,0
2223,9260001013743,登記記録の閉鎖等,0,2024-06-04,2024-05-28,成和工業株式会社,,株式会社,岡山県,倉敷市,下庄２５８番地の３,,33,202,7010112,,,2024-05-28,清算の結了等,,,2015-10-05,1,,,,,セイワコウギョウ,0
2224,9260001029649,登記記録の閉鎖等,0,2024-06-04,2024-06-03,株式会社フィット８０８,,株式会社,岡山県,倉敷市,中島２１９３－１,,33,202,7100803,,,2024-06-03,清算の結了等,,,2016-06-06,1,,,,,フィットハチゼロハチ,0
2239,9290003011511,登記記録の閉鎖等,0,2024-06-04,2024-05-10,合同会社ＣＩＡＲＡ,,合同会社,福岡県,福岡市東区,箱崎６丁目４番１２号,,40,131,8120053,,,2024-05-10,清算の結了等,,,2021-08-26,1,,,,,シアラ,0
2249,9330001010700,登記記録の閉鎖等,0,2024-06-04,2024-05-30,西九州ハートフルサービス株式会社,,株式会社,熊本県,熊本市西区,田崎町４８４番地,,43,103,8600058,,,2024-05-30,清算の結了等,,,2015-10-05,1,,,,,ニシキュウシュウハートフルサービス,0
2251,9340002004733,登記記録の閉鎖等,0,2024-06-04,2024-06-03,有限会社新川技研,,有限会社,鹿児島県,鹿児島市,中山１丁目１４番２１号,,46,201,8910108,,,2024-06-03,清算の結了等,,,2015-10-05,1,,,,,シンカワギケン,0
2260,9370205001764,登記記録の閉鎖等,0,2024-06-04,2024-05-29,医療法人社団佐藤内科小児科医院,,その他の設立登記法人,宮城県,栗原市,築館伊豆１丁目１０番２５号,,04,213,9872216,,,2024-05-29,清算の結了等,,,2015-10-05,1,,,,,サトウナイカショウニカイイン,0
2266,9420001013768,登記記録の閉鎖等,0,2024-06-04,2024-05-27,株式会社日本スマート,,株式会社,青森県,青森市,篠田２丁目２２番１９号,,02,201,0380011,,,2024-05-27,清算の結了等,,,2015-10-05,1,,,,,ニホンスマート,0
2276,9450001007668,登記記録の閉鎖等,0,2024-06-04,2024-05-24,株式会社まつや,,株式会社,北海道,士別市,東二条８丁目２６番地,,01,220,0950012,,,2024-05-24,清算の結了等,,,2015-10-05,1,,,,,マツヤ,0
