sequenceNumber,corporateNumber,process,correct,updateDate,changeDate,name,nameImageId,kind,prefectureName,cityName,streetNumber,addressImageId,prefectureCode,cityCode,postCode,addressOutside,addressOutsideImageId,closeDate,closeCause,successorCorporateNumber,changeCause,assignmentDate,latest,enName,enPrefectureName,enCityName,enAddressOutside,furigana,hihyoji
6,1010001233191,新規,0,2023-02-24,2023-02-24,株式会社回縁,,株式会社,東京都,千代田区,九段南１丁目５番６号りそな九段ビル５Ｆ・ＫＳフロア,,13,101,1020074,,,,,,,2023-02-24,1,,,,,カイエン,0
7,1010001233209,新規,0,2023-02-24,2023-02-24,株式会社Ｒテック,,株式会社,東京都,中央区,日本橋本町３丁目３番６号ワカ末ビル７Ｆ,,13,102,1030023,,,,,,,2023-02-24,1,,,,,アールテック,0
8,1010001233282,新規,0,2023-02-24,2023-02-24,株式会社テクノロ,,株式会社,東京都,中央区,東日本橋３丁目４番１８号,,13,102,1030004,,,,,,,2023-02-24,1,,,,,テクノロ,0
9,1010003039892,新規,0,2023-02-24,2023-02-24,合同会社ネクサスワン,,合同会社,東京都,千代田区,丸の内３丁目１番１号東京共同会計事務所内,,13,101,1000005,,,,,,,2023-02-24,1,,,,,ネクサスワン,0
10,1010003039901,新規,0,2023-02-24,2023-02-24,合同会社ＴＹＬ　Ｍａｉｂａｒａ,,合同会社,東京都,千代田区,四番町８番地３ザ・パークハウス四番町レジデンス９０３号,,13,101,1020081,,,,,,,2023-02-24,1,,,,,ティーワイエルマイバラ,0
19,1010401172691,新規,0,2023-02-24,2023-02-24,株式会社Ｅｎｐａｔｈｙ,,株式会社,東京都,港区,新橋２丁目５番２号,,13,103,1050004,,,,,,,2023-02-24,1,,,,,エンパシー,0
22,1010405021837,新規,0,2023-02-24,2023-02-24,Ｆｕｓｉｏｎ特定目的会社,,その他の設立登記法人,東京都,港区,虎ノ門４丁目１番２８号,,13,103,1050001,,,,,,,2023-02-24,1,,,,,フュージョン,0
23,1010501050038,新規,0,2023-02-24,2023-02-24,ＨａｕｏＬｉｌｙ‐ＭＥＤＩＣＡＬ株式会社,,株式会社,東京都,台東区,根岸３丁目２４－３,,13,106,1100003,,,,,,,2023-02-24,1,,,,,ハウオリリィーメディカル,0
26,1010703006597,新規,0,2023-02-24,2023-02-24,平版企画合同会社,,合同会社,東京都,品川区,東五反田３丁目２０番１０号,,13,109,1410022,,,,,,,2023-02-24,1,,,,,ヘイハンキカク,0
36,1010901052600,新規,0,2023-02-24,2023-02-24,株式会社ファイン,,株式会社,東京都,世田谷区,宮坂３丁目２５番２号プライムアーバン経堂４０３,,13,112,1560051,,,,,,,2023-02-24,1,,,,,ファイン,0
41,1011001152687,新規,0,2023-02-24,2023-02-24,株式会社ＯＲＡ‐Ｔｒｉｏ,,株式会社,東京都,渋谷区,円山町５番５号Ｎａｖｉ渋谷Ｖ３階,,13,113,1500044,,,,,,,2023-02-24,1,,,,,オラトリオ,0
42,1011001152778,新規,0,2023-02-24,2023-02-24,株式会社ｎｉｕ,,株式会社,東京都,渋谷区,代々木５丁目２５－２１－１０１,,13,113,1510053,,,,,,,2023-02-24,1,,,,,ニウ,0
44,1011003016337,新規,0,2023-02-24,2023-02-24,合同会社アピア,,合同会社,東京都,渋谷区,恵比寿西１丁目８番８号ライオンズマンション小川恵比寿９０３,,13,113,1500021,,,,,,,2023-02-24,1,,,,,アピア,0
47,1011005009958,新規,0,2023-02-24,2023-02-24,一般社団法人Ｂｅｍｏｄｅｒａｔｉｏｎ,,その他の設立登記法人,東京都,渋谷区,広尾５丁目４番１６号,,13,113,1500012,,,,,,,2023-02-24,1,,,,,ビーモデレーション,0
53,1011101101932,新規,0,2023-02-24,2023-02-24,オフィスマークド株式会社,,株式会社,東京都,新宿区,納戸町２０番地アビテ市ヶ谷納戸町２０６,,13,104,1620837,,,,,,,2023-02-24,1,,,,,オフィスマークド,0
54,1011101101940,新規,0,2023-02-24,2023-02-24,株式会社河合屋,,株式会社,東京都,新宿区,西早稲田３丁目１６番２９号,,13,104,1690051,,,,,,,2023-02-24,1,,,,,カワイヤ,0
56,1011401024924,新規,0,2023-02-24,2023-02-24,Ｏｆｆｓｈｏｒｅ　ＲＳＳ株式会社,,株式会社,東京都,板橋区,板橋１丁目４０－８第２板橋マイコーポ４０３号室,,13,119,1730004,,,,,,,2023-02-24,1,,,,,オフショアアールエスエス,0
57,1011403003918,新規,0,2023-02-24,2023-02-24,合同会社ビッグベン,,合同会社,東京都,板橋区,小茂根４丁目３番１３号,,13,119,1730037,,,,,,,2023-02-24,1,,,,,ビッグベン,0
59,1011503005491,新規,0,2023-02-24,2023-02-24,合同会社タウンカー,,合同会社,東京都,荒川区,西日暮里１丁目４番３－６０３号,,13,118,1160013,,,,,,,2023-02-24,1,,,,,タウンカー,0
61,1011603003825,新規,0,2023-02-24,2023-02-24,ツインズダイナソー合同会社,,合同会社,東京都,練馬区,南田中５丁目１６番２２号,,13,120,1770035,,,,,,,2023-02-24,1,,,,,ツインズダイナソー,0
62,1011801041981,新規,0,2023-02-24,2023-02-24,株式会社ＰＬＡＹＭＯＲＥ,,株式会社,東京都,葛飾区,東立石１丁目３－６－４０４,,13,122,1240013,,,,,,,2023-02-24,1,,,,,プレイモア,0
67,1020001150337,新規,0,2023-02-24,2023-02-24,株式会社ドマノマド,,株式会社,神奈川県,川崎市幸区,小倉１丁目７－４,,14,132,2120054,,,,,,,2023-02-24,1,,,,,ドマノマド,0
68,1020001150394,新規,0,2023-02-24,2023-02-24,株式会社ＳｔｕｄｉｏＳｔａｒｋ,,株式会社,神奈川県,川崎市高津区,溝口６丁目２０番４－２号,,14,134,2130001,,,,,,,2023-02-24,1,,,,,スタジオスターク,0
95,1040001127168,新規,0,2023-02-24,2023-02-24,株式会社藤葉工業,,株式会社,千葉県,印西市,吉田６３１番地７,,12,231,2701617,,,,,,,2023-02-24,1,,,,,トウヨウコウギョウ,0
99,1040003022004,新規,0,2023-02-24,2023-02-24,合同会社ひなた,,合同会社,千葉県,山武市,木原１４７０番地１,,12,237,2891212,,,,,,,2023-02-24,1,,,,,ヒナタ,0
100,1040003022020,新規,0,2023-02-24,2023-02-24,合同会社慈奏会,,合同会社,千葉県,市川市,八幡４丁目１０－５,,12,203,2720021,,,,,,,2023-02-24,1,,,,,ジソウカイ,0
101,1040003022029,新規,0,2023-02-24,2023-02-24,合同会社ゆうあい・らぼ,,合同会社,千葉県,長生郡睦沢町,佐貫１９３４,,12,422,2994425,,,,,,,2023-02-24,1,,,,,ユウアイラボ,0
108,1060003004446,新規,0,2023-02-24,2023-02-24,つばめトラスト合同会社,,合同会社,栃木県,宇都宮市,大通り４丁目１番２０号宇都宮けやき通りビル６階Ｃ号室,,09,201,3200811,,,,,,,2023-02-24,1,,,,,ツバメトラスト,0
114,1080001025475,新規,0,2023-02-24,2023-02-24,株式会社ｈｕｂ,,株式会社,静岡県,静岡市葵区,人宿町１丁目１－１０、３Ｆ,,22,101,4200037,,,,,,,2023-02-24,1,,,,,ハブ,0
116,1090001017991,新規,0,2023-02-24,2023-02-24,アペックスフルーツ株式会社,,株式会社,山梨県,甲州市,塩山下萩原２０３５番地,,19,213,4040024,,,,,,,2023-02-24,1,,,,,アペックスフルーツ,0
117,1090003002240,新規,0,2023-02-24,2023-02-24,合同会社クリーンサービスＲ,,合同会社,山梨県,中央市,浅利３０６９番地,,19,214,4001514,,,,,,,2023-02-24,1,,,,,クリーンサービスアール,0
118,1090003002257,新規,0,2023-02-24,2023-02-24,合同会社エブリス,,合同会社,山梨県,富士吉田市,新西原１丁目７番１２号新西原ビル３Ｆ,,19,202,4030017,,,,,,,2023-02-24,1,,,,,エブリス,0
120,1100001036172,新規,0,2023-02-24,2023-02-24,丸小産業株式会社,,株式会社,長野県,飯田市,江戸浜町３６６６番地６,,20,205,3950023,,,,,,,2023-02-24,1,,,,,マルコサンギョウ,0
122,1110003004985,新規,0,2023-02-24,2023-02-24,合同会社モノクローム,,合同会社,新潟県,新潟市中央区,信濃町１６番２２号,,15,103,9518152,,,,,,,2023-02-24,1,,,,,モノクローム,0
126,1120001252701,新規,0,2023-02-24,2023-02-24,株式会社エイチエムシー,,株式会社,大阪府,大阪市城東区,古市１丁目１９番３０号,,27,118,5360001,,,,,,,2023-02-24,1,,,,,エイチエムシー,0
127,1120001252734,新規,0,2023-02-24,2023-02-24,研川国際株式会社,,株式会社,大阪府,大阪市西成区,山王１丁目１２－５,,27,122,5570001,,,,,,,2023-02-24,1,,,,,ケンカワコクサイ,0
128,1120001252742,新規,0,2023-02-24,2023-02-24,株式会社スマイルワーク,,株式会社,大阪府,大阪市西区,九条南３丁目１３番２４号,,27,106,5500025,,,,,,,2023-02-24,1,,,,,スマイルワーク,0
129,1120001252750,新規,0,2023-02-24,2023-02-24,株式会社ｅｘｅｇｇｅｒｚ,,株式会社,大阪府,大阪市北区,梅田１丁目２番２号大阪駅前第２ビル１２－１２,,27,127,5300001,,,,,,,2023-02-24,1,,,,,エクシガーズ,0
138,1122003002522,新規,0,2023-02-24,2023-02-24,海安合同会社,,合同会社,大阪府,東大阪市,三ノ瀬１丁目９番１７号ハイツ富士パートＩＩ３０３号室,00129530,27,227,5770849,,,,,,,2023-02-24,1,,,,,カイアン,0
147,1140001129220,新規,0,2023-02-24,2023-02-24,株式会社タカダ,,株式会社,兵庫県,西宮市,宮西町１１番３１－２０３号,,28,204,6620976,,,,,,,2023-02-24,1,,,,,タカダ,0
159,1180001155089,新規,0,2023-02-24,2023-02-24,株式会社ｃｕｒｏａ,,株式会社,愛知県,名古屋市中村区,名駅３丁目４番１０号アルティメイト名駅１ｓｔ２Ｆ,,23,105,4500002,,,,,,,2023-02-24,1,,,,,クロエ,0
167,1190003004243,新規,0,2023-02-24,2023-02-24,合同会社優美,,合同会社,三重県,津市,桜橋３丁目３２８番地,,24,201,5140003,,,,,,,2023-02-24,1,,,,,ユウビ,0
168,1190005011790,新規,0,2023-02-24,2023-02-24,特定非営利活動法人保護猫ん家かぎしっぽ,,その他の設立登記法人,三重県,松阪市,清生町６４２番地１,,24,204,5150039,,,,,,,2023-02-24,1,,,,,ホゴネコンチカギシッポ,0
170,1200005013447,新規,0,2023-02-24,2023-02-24,社会保険労務士法人ＴＯＺＡＫＩ,,その他の設立登記法人,岐阜県,岐阜市,今嶺２丁目１１番１０号,,21,201,5008388,,,,,,,2023-02-24,1,,,,,トザキ,0
173,1240001061124,新規,0,2023-02-24,2023-02-24,株式会社ＫＭＥ,,株式会社,広島県,広島市中区,江波二本松２丁目１０番３０号３０３,,34,101,7300834,,,,,,,2023-02-24,1,,,,,ケーエムイー,0
177,1260003004203,新規,0,2023-02-24,2023-02-24,ビクトル合同会社,,合同会社,岡山県,津山市,野村３０３－１,,33,203,7081116,,,,,,,2023-02-24,1,,,,,ビクトル,0
178,1260003004211,新規,0,2023-02-24,2023-02-24,ミトラ合同会社,,合同会社,岡山県,倉敷市,吉岡２６２番地６,,33,202,7100842,,,,,,,2023-02-24,1,,,,,ミトラ,0
192,1290003013564,新規,0,2023-02-24,2023-02-24,Ｇｏｌｄｅｎ　Ｌｉｆｅ　Ｊａｐａｎ合同会社,,合同会社,福岡県,福岡市博多区,美野島２丁目１１－１３,,40,132,8120017,,,,,,,2023-02-24,1,,,,,ゴールデンライフジャパン,0
195,1290801029299,新規,0,2023-02-24,2023-02-24,株式会社工藤,,株式会社,福岡県,北九州市小倉北区,大門２丁目８番７－１号,,40,106,8030811,,,,,,,2023-02-24,1,,,,,クドウ,0
196,1300001013226,新規,0,2023-02-24,2023-02-24,株式会社ナガノ・ビューティ,,株式会社,佐賀県,佐賀市,八戸２丁目２番２号,,41,201,8400854,,,,,,,2023-02-24,1,,,,,ナガノビューティ,0
199,1310001018281,新規,0,2023-02-24,2023-02-24,パーソンズ株式会社,,株式会社,長崎県,長崎市,元船町９番１８号,,42,201,8500035,,,,,,,2023-02-24,1,,,,,パーソンズ,0
204,1330001030623,新規,0,2023-02-24,2023-02-24,株式会社ＧＯＯＤ　ＬＩＦＥアイ,,株式会社,熊本県,熊本市東区,榎町１５番３４号,,43,102,8620917,,,,,,,2023-02-24,1,,,,,グッドライフアイ,0
205,1330005010621,新規,0,2023-02-24,2023-02-24,医療法人イマカルム,,その他の設立登記法人,熊本県,熊本市中央区,本山４丁目１番１５号,,43,101,8600821,,,,,,,2023-02-24,1,,,,,イマカルム,0
206,1340003004054,新規,0,2023-02-24,2023-02-24,合同会社プラス電気,,合同会社,鹿児島県,鹿児島市,西伊敷５丁目１番１４号,,46,201,8911202,,,,,,,2023-02-24,1,,,,,プラスデンキ,0
209,1360001031610,新規,0,2023-02-24,2023-02-24,株式会社スレンテン,,株式会社,沖縄県,宮古島市,平良字下里４４番地１,,47,214,9060013,,,,,,,2023-02-24,1,,,,,スレンテン,0
210,1360003012749,新規,0,2023-02-24,2023-02-24,合同会社ジャスパー,,合同会社,沖縄県,豊見城市,宜保２丁目６番地８－１０３,,47,212,9010244,,,,,,,2023-02-24,1,,,,,ジャスパー,0
214,1370001049619,新規,0,2023-02-24,2023-02-24,株式会社心暖,,株式会社,宮城県,大崎市,古川諏訪３丁目５番２５－４０３号藤ガーデンハイツ,,04,215,9896175,,,,,,,2023-02-24,1,,,,,コハル,0
215,1370001049635,新規,0,2023-02-24,2023-02-24,株式会社宮城県地域観光資源開発推進機構,,株式会社,宮城県,仙台市若林区,卸町２丁目５番７号,,04,103,9840015,,,,,,,2023-02-24,1,,,,,ミヤギケンチイキカンコウシゲンカイハツスイシンキコウ,0
222,1500001024772,新規,0,2023-02-24,2023-02-24,株式会社ｉｍｐｒｏｖｅ,,株式会社,愛媛県,松山市,三番町５丁目５番地１０和泉ビル３０２号,,38,201,7900003,,,,,,,2023-02-24,1,,,,,インプルーブ,0
225,1700150114494,新規,0,2023-02-24,2023-02-24,ＮＩＰＵＮ　ＰＯＬＹＰＡＣＫ　ＩＮＤＵＳＴＲＩＥＳ　ＰＲＩＶＡＴＥ　ＬＩＭＩＴＥＤ,,外国会社等,神奈川県,厚木市,妻田東３丁目２３番５号ガヴァナーズアームスＡー１０５,,14,212,2430813,スリランカ民主社会主義共和国、バトォゴダ、ハディラマ、ウェカダ、Ｎｏ．２２１／Ａ,,,,,,2023-02-24,1,,,,,ニツポンポリパツクインダストリーズプライベートリミテツド,0
237,2010001233018,新規,0,2023-02-24,2023-02-24,Ｐｉｎｇｐｏｎ株式会社,,株式会社,東京都,中央区,銀座１丁目１２番４号Ｎ＆ＥＢＬＤ．６Ｆ．,,13,102,1040061,,,,,,,2023-02-24,1,,,,,ピンポン,0
238,2010001233208,新規,0,2023-02-24,2023-02-24,興月株式会社,,株式会社,東京都,中央区,築地２丁目１５番１５－４１３号,,13,102,1040045,,,,,,,2023-02-24,1,,,,,コウゲツ,0
239,2010001233298,新規,0,2023-02-24,2023-02-24,株式会社ＭＡ‐２,,株式会社,東京都,中央区,銀座１丁目２２番１１号銀座大竹ビジデンス２Ｆ,,13,102,1040061,,,,,,,2023-02-24,1,,,,,エムエーツー,0
240,2010003039891,新規,0,2023-02-24,2023-02-24,赤坂インベストメント・ツー合同会社,,合同会社,東京都,中央区,日本橋１丁目４番１号,,13,102,1030027,,,,,,,2023-02-24,1,,,,,アカサカインベストメントツー,0
249,2010401172682,新規,0,2023-02-24,2023-02-24,Ｎ．Ｉ．Ｋ　ｅｎｔｅｒｔａｉｎｍｅｎｔ株式会社,,株式会社,東京都,港区,麻布台３丁目５番５号,,13,103,1060041,,,,,,,2023-02-24,1,,,,,ニックエンターテイメント,0
252,2010403029583,新規,0,2023-02-24,2023-02-24,Ｇａｌｅｎ　Ｃｏｎｓｕｌｔｉｎｇ合同会社,,合同会社,東京都,港区,西麻布３丁目５番４２号－３０２,,13,103,1060031,,,,,,,2023-02-24,1,,,,,ガレンコンサルティング,0
253,2010501050045,新規,0,2023-02-24,2023-02-24,Ｏｒｄｅｒｌｙ株式会社,,株式会社,東京都,台東区,台東１丁目２４番９号,,13,106,1100016,,,,,,,2023-02-24,1,,,,,オーダリー,0
257,2010701043880,新規,0,2023-02-24,2023-02-24,ＭＥＴ株式会社,,株式会社,東京都,品川区,南品川５丁目５番２－６０７号,,13,109,1400004,,,,,,,2023-02-24,1,,,,,メット,0
258,2010703006596,新規,0,2023-02-24,2023-02-24,合同会社Ｏｎ　Ｔｏｐ,,合同会社,東京都,品川区,荏原３丁目８番７号６０５,,13,109,1420063,,,,,,,2023-02-24,1,,,,,オントップ,0
261,2010805003005,新規,0,2023-02-24,2023-02-24,特定非営利活動法人キャリアキャンパス,,その他の設立登記法人,東京都,大田区,南馬込６丁目２５番８号ロイヤルアメニティー南馬込１０１号室,,13,111,1430025,,,,,,,2023-02-24,1,,,,,キャリアキャンパス,0
262,2010901052590,新規,0,2023-02-24,2023-02-24,株式会社ラピス,,株式会社,東京都,世田谷区,岡本３丁目３４番４号,,13,112,1570076,,,,,,,2023-02-24,1,,,,,ラピス,0
263,2010903007989,新規,0,2023-02-24,2023-02-24,ポッシビリティ・ラボラトリ合同会社,,合同会社,東京都,世田谷区,喜多見３丁目１８番１１号,,13,112,1570067,,,,,,,2023-02-24,1,,,,,ポッシビリティラボラトリ,0
268,2011001152760,新規,0,2023-02-24,2023-02-24,株式会社Ｏｎｙｘ,,株式会社,東京都,渋谷区,恵比寿南１丁目２番１０号エビスユニオンビル７０２号,,13,113,1500022,,,,,,,2023-02-24,1,,,,,オニキス,0
269,2011001152777,新規,0,2023-02-24,2023-02-24,株式会社ベヌスジャパン,,株式会社,東京都,渋谷区,渋谷２丁目２番１７号トランスワークス青山,,13,113,1500002,,,,,,,2023-02-24,1,,,,,ベヌスジャパン,0
270,2011003016303,新規,0,2023-02-24,2023-02-24,合同会社ＲＢＣ１,,合同会社,東京都,渋谷区,恵比寿１丁目２０番４号,,13,113,1500013,,,,,,,2023-02-24,1,,,,,,0
271,2011003016336,新規,0,2023-02-24,2023-02-24,合同会社ナミー,,合同会社,東京都,渋谷区,渋谷２丁目１９－１５宮益坂ビルディング６０９,,13,113,1500002,,,,,,,2023-02-24,1,,,,,ナミー,0
272,2011101101907,新規,0,2023-02-24,2023-02-24,ＢＲＥＡＫ　ＴＨＲＯＵＧＨ株式会社,,株式会社,東京都,新宿区,新宿７丁目２６番７号ビクセル新宿１Ｆ,,13,104,1600022,,,,,,,2023-02-24,1,,,,,ブレイクスルー,0
274,2011203004009,新規,0,2023-02-24,2023-02-24,ＳＡＮＫＯＦＡ合同会社,,合同会社,東京都,中野区,中央５丁目４８番地５号シャンポール中野１０４,,13,114,1640011,,,,,,,2023-02-24,1,,,,,サンコファ,0
277,2011303004676,新規,0,2023-02-24,2023-02-24,合同会社ＦＲＯＭ　ＮＵＲＳＥ,,合同会社,東京都,杉並区,本天沼３丁目１４番３号荻窪オリエントコート１０３号室,,13,115,1670031,,,,,,,2023-02-24,1,,,,,フロムナース,0
280,2011403003917,新規,0,2023-02-24,2023-02-24,合同会社ＮＯＡ,,合同会社,東京都,板橋区,中丸町５３番１５－６０８号ヒルトップ・スクェアー,,13,119,1730026,,,,,,,2023-02-24,1,,,,,ノア,0
285,2011701026033,新規,0,2023-02-24,2023-02-24,Ｔ＆Ｇ住建株式会社,,株式会社,東京都,江戸川区,中葛西７丁目１６番１号,,13,123,1340083,,,,,,,2023-02-24,1,,,,,ティーアンドジージュウケン,0
286,2011801041980,新規,0,2023-02-24,2023-02-24,株式会社東京不動産ＬＡＢ,,株式会社,東京都,葛飾区,新小岩１丁目４１－８,,13,122,1240024,,,,,,,2023-02-24,1,,,,,トウキョウフドウサンラボ,0
288,2011803005538,新規,0,2023-02-24,2023-02-24,合同会社ｃｅｎｉｚａ,,合同会社,東京都,葛飾区,立石８丁目２１番１３号,,13,122,1240012,,,,,,,2023-02-24,1,,,,,セニサ,0
289,2012403005845,新規,0,2023-02-24,2023-02-24,合同会社ＯＫ　Ｓｙｓｔｅｍ,,合同会社,東京都,三鷹市,新川４丁目１０番１０号,,13,204,1810004,,,,,,,2023-02-24,1,,,,,オーケーシステム,0
309,2030001152538,新規,0,2023-02-24,2023-02-24,株式会社Ｔｈｒｅｅ　Ｐｅａｃｅ,,株式会社,埼玉県,三郷市,新和３丁目８１番地１４,,11,237,3410034,,,,,,,2023-02-24,1,,,,,スリーピース,0
323,2050003007259,新規,0,2023-02-24,2023-02-24,ＭＯＳＳ合同会社,,合同会社,茨城県,つくば市,谷田部８３２番地（陣場Ｇ８街区２５）,,08,220,3050861,,,,,,,2023-02-24,1,,,,,モス,0
325,2070001040152,新規,0,2023-02-24,2023-02-24,株式会社ＭＢＫ,,株式会社,群馬県,前橋市,広瀬町１丁目１４番地９,,10,201,3710812,,,,,,,2023-02-24,1,,,,,エムビーケー,0
331,2100001036171,新規,0,2023-02-24,2023-02-24,結株式会社,,株式会社,長野県,上水内郡信濃町,大字大井２７４２番地１９１１,,20,583,3891316,,,,,,,2023-02-24,1,,,,,ユイ,0
345,2120001252683,新規,0,2023-02-24,2023-02-24,株式会社エントランス,,株式会社,大阪府,大阪市西区,江戸堀１丁目１７－４－４階,,27,106,5500002,,,,,,,2023-02-24,1,,,,,エントランス,0
346,2120001252725,新規,0,2023-02-24,2023-02-24,株式会社ＢｒｏＳｔｙｌｅ,,株式会社,大阪府,大阪市中央区,心斎橋筋２丁目６番１７号三津寺辻ビル４Ｆ,,27,128,5420085,,,,,,,2023-02-24,1,,,,,ブロスタイル,0
348,2120003023463,新規,0,2023-02-24,2023-02-24,合同会社ＪＳＥＴ,,合同会社,大阪府,大阪市北区,梅田１丁目２－２大阪駅前第２ビル１２－１２,,27,127,5300001,,,,,,,2023-02-24,1,,,,,ジェイセット,0
349,2120003023505,新規,0,2023-02-24,2023-02-24,Ｇｒａｃｅ合同会社,,合同会社,大阪府,大阪市中央区,東心斎橋１丁目６番１５号ディオレ・クレスト東心斎橋５０７,,27,128,5420083,,,,,,,2023-02-24,1,,,,,グレイス,0
350,2120005023486,新規,0,2023-02-24,2023-02-24,一般社団法人メディカルＡＭＡ,,その他の設立登記法人,大阪府,大阪市西成区,千本南１丁目３番２号,,27,122,5570055,,,,,,,2023-02-24,1,,,,,メディカルエーエムエー,0
354,2120901047183,新規,0,2023-02-24,2023-02-24,株式会社ＨＩ’ｓ,,株式会社,大阪府,豊中市,服部西町３丁目１１番２号,,27,203,5610858,,,,,,,2023-02-24,1,,,,,ハイズ,0
371,2140001129211,新規,0,2023-02-24,2023-02-24,ひょうごＫＡＧＡＹＡＫＩエネルギー株式会社,,株式会社,兵庫県,伊丹市,中央１丁目４番４号塩井ビル２階,,28,207,6640851,,,,,,,2023-02-24,1,,,,,ヒョウゴカガヤキエネルギー,0
372,2140003018750,新規,0,2023-02-24,2023-02-24,合同会社ラリー,,合同会社,兵庫県,神戸市中央区,中山手通１丁目２２番２３号藤正ファインクラフト２０３,,28,110,6500004,,,,,,,2023-02-24,1,,,,,ラリー,0
373,2150001026184,新規,0,2023-02-24,2023-02-24,株式会社ＤＩＡＭＯＮＤ　ＣＡＳＴ,,株式会社,奈良県,宇陀市,室生上笠間１０７２番地１,,29,212,6320202,,,,,,,2023-02-24,1,,,,,ダイヤモンドキャスト,0
381,2180005020115,新規,0,2023-02-24,2023-02-24,特定非営利活動法人東海神経外科疾患研究グループ,,その他の設立登記法人,愛知県,名古屋市西区,則武新町３丁目１番１７号ＮＡＧＯＹＡ　ＧＡＲＤＥＮ　ＣＬＩＮＩＣ内,,23,104,4510051,,,,,,,2023-02-24,1,,,,,トウカイシンケイゲカシッカンケンキュウグループ,0
396,2240001061123,新規,0,2023-02-24,2023-02-24,Ｇｒｏｗ＆Ｒ株式会社,,株式会社,広島県,広島市中区,袋町４番１３－１２０２号,,34,101,7300036,,,,,,,2023-02-24,1,,,,,グロウアンドアール,0
397,2240001061131,新規,0,2023-02-24,2023-02-24,株式会社凛道,,株式会社,広島県,広島市中区,流川町４番１９号マスミビル,,34,101,7300028,,,,,,,2023-02-24,1,,,,,リンドウ,0
401,2250001019970,新規,0,2023-02-24,2023-02-24,株式会社プランナー・Ｋ,,株式会社,山口県,岩国市,山手町１丁目２番１８号,,35,208,7400022,,,,,,,2023-02-24,1,,,,,プランナーケイ,0
402,2260001037666,新規,0,2023-02-24,2023-02-24,株式会社洲脇ホールディングス,,株式会社,岡山県,倉敷市,児島阿津１丁目８番３６号,,33,202,7110923,,,,,,,2023-02-24,1,,,,,スワキホールディングス,0
406,2290001100652,新規,0,2023-02-24,2023-02-24,ぺんぎん不動産管理株式会社,,株式会社,福岡県,福岡市東区,香住ヶ丘３丁目２４番１８号２階,,40,131,8130003,,,,,,,2023-02-24,1,,,,,ペンギンフドウサンカンリ,0
407,2290001100660,新規,0,2023-02-24,2023-02-24,ソフトピース株式会社,,株式会社,福岡県,福岡市中央区,大名１丁目３－４１プリオ大名ビル２Ｆ,,40,133,8100041,,,,,,,2023-02-24,1,,,,,ソフトピース,0
408,2290003013563,新規,0,2023-02-24,2023-02-24,合同会社カゲ,,合同会社,福岡県,春日市,岡本４丁目５３番地３アールズコート春日１０２号,,40,218,8160861,,,,,,,2023-02-24,1,,,,,カゲ,0
411,2290803004349,新規,0,2023-02-24,2023-02-24,ＮＧＵＹＥＮ　ＴＨＡＮＨ　ＣＯＳＭＥＴＩＣＳ合同会社,,合同会社,福岡県,北九州市小倉北区,大田町９番２２－２０２号,,40,106,8020015,,,,,,,2023-02-24,1,,,,,グエンタインコスメティックス,0
416,2330001030622,新規,0,2023-02-24,2023-02-24,株式会社Ｓ‐ｍｉｌｅ　Ｅｓｔａｔｅ,,株式会社,熊本県,熊本市北区,植木町平野３０３番地３,,43,105,8610144,,,,,,,2023-02-24,1,,,,,エスマイルエステート,0
420,2360001031592,新規,0,2023-02-24,2023-02-24,Ｌｅａｓ　Ｐｒｏｄｕｃｔｉｏｎ株式会社,,株式会社,沖縄県,名護市,東江５丁目１１番６－３０２号松樹東江ビル,,47,209,9050021,,,,,,,2023-02-24,1,,,,,レアスプロダクション,0
427,2400005008302,新規,0,2023-02-24,2023-02-24,特定非営利活動法人ＣＨＡＲＭＳ,,その他の設立登記法人,岩手県,盛岡市,材木町７番２７－１０３号,,03,201,0200063,,,,,,,2023-02-24,1,,,,,,0
439,2700150114493,新規,0,2023-02-24,2023-02-24,Ｓｐｌｉｅｔｈｏｆｆ　Ｔｒａｎｓｐｏｒｔ　Ｂ．Ｖ．,,外国会社等,東京都,港区,新橋３丁目７番４号赤レンガ通りビル５階,,13,103,1050004,オランダ王国アムステルダム、１０４２ＡＡ、ラダルウェヒ３６,,,,,,2023-02-24,1,,,,,スピリツトホフトランスポートビーブイ,0
444,3010001233256,新規,0,2023-02-24,2023-02-24,株式会社ＨＢＡ,,株式会社,東京都,中央区,新川１丁目３－１７－８Ｆ,,13,102,1040033,,,,,,,2023-02-24,1,,,,,エイチビーエー,0
447,3010003039899,新規,0,2023-02-24,2023-02-24,ＬＦ物流ファンドスリー合同会社,,合同会社,東京都,千代田区,丸の内３丁目１番１号東京共同会計事務所内,,13,101,1000005,,,,,,,2023-02-24,1,,,,,エルエフブツリュウファンドスリー,0
458,3010401172574,新規,0,2023-02-24,2023-02-24,株式会社Ｕプラス,,株式会社,東京都,港区,港南２丁目１５－１品川インターシティＡ棟２８階,,13,103,1080075,,,,,,,2023-02-24,1,,,,,ユーウプラス,0
459,3010401172673,新規,0,2023-02-24,2023-02-24,株式会社ＫＫホールディングス,,株式会社,東京都,港区,虎ノ門１丁目２３番１号ジャフコグループ株式会社内,,13,103,1050001,,,,,,,2023-02-24,1,,,,,ケーケーホールディングス,0
460,3010401172681,新規,0,2023-02-24,2023-02-24,株式会社レンダ,,株式会社,東京都,港区,南青山５丁目９番１９号ＭＡＲ’Ｓ南青山５Ｆ,,13,103,1070062,,,,,,,2023-02-24,1,,,,,レンダ,0
468,3010601062658,新規,0,2023-02-24,2023-02-24,株式会社ＦＩＧＨＴ　ＡＧＩＮＧ,,株式会社,東京都,墨田区,両国３丁目６番５号ジゼル１１０１,,13,107,1300026,,,,,,,2023-02-24,1,,,,,ファイトエイジング,0
474,3010703006587,新規,0,2023-02-24,2023-02-24,合同会社ＦＡＢＤＥＳＩＧＮ,,合同会社,東京都,品川区,西五反田２丁目１３－１プレジデントハイツ７１４号室,,13,109,1410031,,,,,,,2023-02-24,1,,,,,ファブデザイン,0
478,3011001152066,新規,0,2023-02-24,2023-02-24,株式会社Ｓｉｎｉａｓ,,株式会社,東京都,渋谷区,富ヶ谷２丁目２０－１８ルーブル渋谷松濤２０１,,13,113,1510063,,,,,,,2023-02-24,1,,,,,シニアス,0
479,3011001152611,新規,0,2023-02-24,2023-02-24,株式会社ＬＯＯＴＥＸ　ＪＡＰＡＮ,,株式会社,東京都,渋谷区,道玄坂１丁目２－３渋谷フクラス１７Ｆ,,13,113,1500043,,,,,,,2023-02-24,1,,,,,ルーテックスジャパン,0
480,3011001152719,新規,0,2023-02-24,2023-02-24,Ｓ．Ａ．Ｍ．Ｏ株式会社,,株式会社,東京都,渋谷区,神宮前２丁目６番７号神宮前ファッションビル６Ｆ,,13,113,1500001,,,,,,,2023-02-24,1,,,,,エスエーエムオー,0
481,3011001152743,新規,0,2023-02-24,2023-02-24,株式会社ｂａｃｏｎ　ｓａｎｄｗｉｃｈ,,株式会社,東京都,目黒区,中目黒２丁目１－２３－２０１,,13,110,1530061,,,,,,,2023-02-24,1,,,,,ベーコンサンドウィッチ,0
482,3011001152751,新規,0,2023-02-24,2023-02-24,株式会社Ｎａ美ａ,,株式会社,東京都,渋谷区,千駄ヶ谷５丁目３０番１１号ＭＥＰＯＩビル４Ｆ,,13,113,1510051,,,,,,,2023-02-24,1,,,,,ナビア,0
483,3011001152792,新規,0,2023-02-24,2023-02-24,株式会社デジタルａｎｄ,,株式会社,東京都,渋谷区,元代々木町３０番１３号,,13,113,1510062,,,,,,,2023-02-24,1,,,,,デジタルアンド,0
485,3011003016335,新規,0,2023-02-24,2023-02-24,ＯＴインターナショナル合同会社,,合同会社,東京都,渋谷区,渋谷２丁目１９－１５宮益坂ビルディング６０９,,13,113,1500002,,,,,,,2023-02-24,1,,,,,オーティーインターナショナル,0
491,3011301028486,新規,0,2023-02-24,2023-02-24,株式会社稲荷堂,,株式会社,東京都,杉並区,高円寺南３丁目２４番３１号,,13,115,1660003,,,,,,,2023-02-24,1,,,,,イナリドウ,0
502,3012801022160,新規,0,2023-02-24,2023-02-24,ワイヤポート株式会社,,株式会社,東京都,武蔵村山市,学園１丁目１０番地,,13,223,2080011,,,,,,,2023-02-24,1,,,,,ワイヤポート,0
522,3021003012804,新規,0,2023-02-24,2023-02-24,ＣＲＯＷＮ　ＡＵＴＯ合同会社,,合同会社,神奈川県,厚木市,関口１０１３番地１コーポ一心２号棟１０３号,,14,212,2430804,,,,,,,2023-02-24,1,,,,,クラウンオート,0
528,3030001152512,新規,0,2023-02-24,2023-02-24,株式会社坂本工業,,株式会社,埼玉県,大里郡寄居町,大字鉢形１９１４番地１,,11,408,3691224,,,,,,,2023-02-24,1,,,,,サカモトコウギョウ,0
529,3030001152537,新規,0,2023-02-24,2023-02-24,リコー建設株式会社,,株式会社,埼玉県,朝霞市,三原３丁目３番３号,,11,227,3510025,,,,,,,2023-02-24,1,,,,,リコーケンセツ,0
530,3030001152545,新規,0,2023-02-24,2023-02-24,株式会社クラビス,,株式会社,埼玉県,蕨市,中央７丁目２２番１０号フォレストメゾンパークＣ棟,,11,223,3350004,,,,,,,2023-02-24,1,,,,,クラビス,0
535,3030003021236,新規,0,2023-02-24,2023-02-24,合同会社ＷｅＤｒｅａｍ,,合同会社,埼玉県,吉川市,美南２丁目２２－２９,,11,243,3420038,,,,,,,2023-02-24,1,,,,,エスシーエル,0
542,3040003022010,新規,0,2023-02-24,2023-02-24,合同会社ｐａｔｉｓｓｅｒｉｅ　ｌｅ　ｍｉｅｕｘ,,合同会社,千葉県,野田市,木野崎１６４６－４７,,12,208,2780002,,,,,,,2023-02-24,1,,,,,パティスリールミュウ,0
543,3040003022019,新規,0,2023-02-24,2023-02-24,合同会社ココロカラダ,,合同会社,千葉県,船橋市,新高根６丁目３９番８号,,12,204,2740814,,,,,,,2023-02-24,1,,,,,ココロカラダ,0
544,3040003022027,新規,0,2023-02-24,2023-02-24,合同会社Ｂｌｕｅ　Ａｓｔｅｒ,,合同会社,千葉県,鎌ケ谷市,くぬぎ山５丁目７番１２号（シャルマン・ドミール１０５号室）,,12,224,2730128,,,,,,,2023-02-24,1,,,,,ブルーアステール,0
551,3050005013213,新規,0,2023-02-24,2023-02-24,インクルージョン協同組合,,その他の設立登記法人,茨城県,取手市,取手２丁目１４－３０取手シティハイツヤマザキ２０１,,08,217,3020004,,,,,,,2023-02-24,1,,,,,インクルージョン,0
554,3070001040151,新規,0,2023-02-24,2023-02-24,株式会社Ｗａｌｌａｂｅｅ,,株式会社,群馬県,太田市,新井町２０１番地１２,,10,205,3730852,,,,,,,2023-02-24,1,,,,,ワラビー,0
557,3080403004736,新規,0,2023-02-24,2023-02-24,合同会社ＰＯＴ‐８ｓ,,合同会社,静岡県,浜松市中区,中央２丁目１２番１７号,,22,131,4300929,,,,,,,2023-02-24,1,,,,,ポテイトーズ,0
559,3110003004991,新規,0,2023-02-24,2023-02-24,合同会社ＴＡＫＡＨＡＳＨＩ総建,,合同会社,新潟県,上越市,大字飯２０１０番地１,,15,222,9430896,,,,,,,2023-02-24,1,,,,,タカハシソウケン,0
574,3120001252708,新規,0,2023-02-24,2023-02-24,Ｖａｄａｓ　Ｉｎｔｅｒｎａｔｉｏｎａｌ　Ｊａｐａｎ株式会社,,株式会社,大阪府,大阪市阿倍野区,北畠３丁目４番１２－２０２号,,27,119,5450035,,,,,,,2023-02-24,1,,,,,ベイダスインターナショナルジャパン,0
575,3120001252724,新規,0,2023-02-24,2023-02-24,株式会社八坂ベース,,株式会社,大阪府,寝屋川市,八坂町１３番１９号,,27,215,5720838,,,,,,,2023-02-24,1,,,,,ヤサカベース,0
576,3120001252765,新規,0,2023-02-24,2023-02-24,株式会社Ｂａｎｌｙ,,株式会社,大阪府,大阪市淀川区,西三国４丁目８番１９号三国ビルディング５１３号,,27,123,5320006,,,,,,,2023-02-24,1,,,,,バンリー,0
580,3120101067023,新規,0,2023-02-24,2023-02-24,株式会社マルトムート,,株式会社,大阪府,和泉市,万町２０２８番地,,27,219,5941104,,,,,,,2023-02-24,1,,,,,マルトムート,0
583,3120901047174,新規,0,2023-02-24,2023-02-24,株式会社ドライベア,,株式会社,大阪府,高槻市,唐崎中２丁目９番３４号,,27,207,5690832,,,,,,,2023-02-24,1,,,,,ドライベア,0
594,3140001129219,新規,0,2023-02-24,2023-02-24,株式会社ランド,,株式会社,兵庫県,神戸市西区,春日台５丁目２７番地の８,,28,111,6512276,,,,,,,2023-02-24,1,,,,,ランド,0
604,3180001155038,新規,0,2023-02-24,2023-02-24,株式会社ＴＩＡＭ,,株式会社,愛知県,名古屋市中川区,好本町３丁目２８－１ＫＯＪＡＣ好本Ｅ,,23,110,4540825,,,,,,,2023-02-24,1,,,,,ティアム,0
605,3180001155070,新規,0,2023-02-24,2023-02-24,株式会社ＰＴアイランド,,株式会社,愛知県,一宮市,北方町北方字北曽根１１番地,,23,203,4938001,,,,,,,2023-02-24,1,,,,,ピーティーアイランド,0
606,3180001155087,新規,0,2023-02-24,2023-02-24,株式会社ＰＭＣホールディングス,,株式会社,愛知県,名古屋市緑区,浦里５丁目２６９番地,,23,114,4580847,,,,,,,2023-02-24,1,,,,,ピーエムシーホールディングス,0
611,3180005020114,新規,0,2023-02-24,2023-02-24,特定非営利活動法人インクルーシブダーツクラブ,,その他の設立登記法人,愛知県,知多郡美浜町,大字野間字中新田１０‐１,,23,446,4703235,,,,,,,2023-02-24,1,,,,,インクルーシブダーツクラブ,0
619,3190005011789,新規,0,2023-02-24,2023-02-24,一般社団法人いきいきライフ協会三重桑員,,その他の設立登記法人,三重県,桑名市,長島町葭ケ須２０７番地,,24,205,5111124,,,,,,,2023-02-24,1,,,,,イキイキライフキョウカイミエソウイン,0
626,3240001061130,新規,0,2023-02-24,2023-02-24,株式会社猫の月,,株式会社,広島県,広島市佐伯区,海老園１丁目６番２９－１０２号,,34,108,7315135,,,,,,,2023-02-24,1,,,,,ネコノツキ,0
628,3240003006034,新規,0,2023-02-24,2023-02-24,合同会社Ｋ‐ＧＲＡＣＡ．ＬＬＣ,,合同会社,広島県,広島市安佐北区,白木町大字志路４６６２番地２,,34,106,7391303,,,,,,,2023-02-24,1,,,,,ケーグレイスエルエルシー,0
629,3240005015520,新規,0,2023-02-24,2023-02-24,特定非営利活動法人ＮＰＯあさはら,,その他の設立登記法人,広島県,廿日市市,浅原２６６２番地３,,34,213,7380223,,,,,,,2023-02-24,1,,,,,エヌピーオーアサハラ,0
635,3290001100651,新規,0,2023-02-24,2023-02-24,株式会社Ｆｕｎａｄｅ,,株式会社,福岡県,福岡市中央区,天神１丁目１－１アクロス福岡１階,,40,133,8100001,,,,,,,2023-02-24,1,,,,,フナデ,0
638,3290003013562,新規,0,2023-02-24,2023-02-24,合同会社ストーン,,合同会社,福岡県,糸島市,富５９４番地３,,40,230,8191133,,,,,,,2023-02-24,1,,,,,ストーン,0
639,3290003013570,新規,0,2023-02-24,2023-02-24,合同会社イノウエ,,合同会社,福岡県,福岡市南区,大楠１丁目５番１５－４０５号アーサーコート高宮,,40,134,8150082,,,,,,,2023-02-24,1,,,,,イノウエ,0
648,3340001025389,新規,0,2023-02-24,2023-02-24,株式会社内山組,,株式会社,鹿児島県,志布志市,志布志町志布志２６３８番地８,,46,221,8997103,,,,,,,2023-02-24,1,,,,,ウチヤマグミ,0
654,3360001031583,新規,0,2023-02-24,2023-02-24,株式会社ＮａＲａＳａ,,株式会社,沖縄県,石垣市,字新川１６９５－１２８,,47,207,9070024,,,,,,,2023-02-24,1,,,,,ナラサ,0
655,3360001031600,新規,0,2023-02-24,2023-02-24,ＨＥＡＤ株式会社,,株式会社,沖縄県,豊見城市,字真玉橋３７４－８,,47,212,9010201,,,,,,,2023-02-24,1,,,,,ヘッド,0
657,3360003012755,新規,0,2023-02-24,2023-02-24,合同会社潜跳,,合同会社,沖縄県,宮古島市,上野字宮国６７８番地,,47,214,9060203,,,,,,,2023-02-24,1,,,,,センチョウ,0
672,3430001088484,新規,0,2023-02-24,2023-02-24,ＣＲＡＮＥマネジメント株式会社,,株式会社,北海道,札幌市豊平区,月寒東二条４丁目１番１０号,,01,105,0620052,,,,,,,2023-02-24,1,,,,,クレインマネジメント,0
676,3700150114492,新規,0,2023-02-24,2023-02-24,Ｎｉｒｖａｎａ　Ａｄｖｉｓｏｒｙ　ａｎｄ　Ｂｕｓｉｎｅｓｓ株式会社,,外国会社等,埼玉県,川口市,青木２丁目８－４－１階,,11,203,3320031,ネパール・ポカラ市１７番地,,,,,,2023-02-24,1,,,,,ニルバナアドバイザリーアンドビジネスカブシキガイシヤ,0
683,4010001233222,新規,0,2023-02-24,2023-02-24,株式会社メタバース総合研究所,,株式会社,東京都,千代田区,一番町６相模屋本社ビル７Ｆ,,13,101,1020082,,,,,,,2023-02-24,1,,,,,メタバースソウゴウケンキュウショ,0
691,4010003039898,新規,0,2023-02-24,2023-02-24,ＥＶ充電インフラ１号合同会社,,合同会社,東京都,千代田区,丸の内３丁目１番１号東京共同会計事務所内,,13,101,1000005,,,,,,,2023-02-24,1,,,,,イーブイジュウデンインフライチゴウ,0
693,4010005036258,新規,0,2023-02-24,2023-02-24,特定非営利活動法人国際親善芸術家協会,,その他の設立登記法人,東京都,千代田区,九段南１丁目５番６号りそな九段ビル５ＦＫＳフロア,,13,101,1020074,,,,,,,2023-02-24,1,,,,,コクサイシンゼンゲイジュツカキョウカイ,0
694,4010005036282,新規,0,2023-02-24,2023-02-24,一般社団法人ファンドドゥ１３号,,その他の設立登記法人,東京都,千代田区,霞が関３丁目２番５号,,13,101,1000013,,,,,,,2023-02-24,1,,,,,ファンドドゥジュウサンゴウ,0
698,4010403029615,新規,0,2023-02-24,2023-02-24,ｔｒａｎｓｐａｒｅｎｔ合同会社,,合同会社,東京都,港区,南青山２丁目２番１５号,,13,103,1070062,,,,,,,2023-02-24,1,,,,,トランスペアレント,0
700,4010405021826,新規,0,2023-02-24,2023-02-24,一般社団法人国際アフリカンダンス＆ドラム協会,,その他の設立登記法人,東京都,港区,南青山３丁目１番３６号青山丸竹ビル６階,,13,103,1070062,,,,,,,2023-02-24,1,,,,,コクサイアフリカンダンスアンドドラムキョウカイ,0
701,4010501050051,新規,0,2023-02-24,2023-02-24,芝信機械株式会社,,株式会社,東京都,台東区,上野３丁目１１番５号,,13,106,1100005,,,,,,,2023-02-24,1,,,,,シバシンキカイ,0
704,4010601062657,新規,0,2023-02-24,2023-02-24,株式会社Ｂｒｅｅｚｅ,,株式会社,東京都,江東区,新砂３丁目４番３－６１０号,,13,108,1360075,,,,,,,2023-02-24,1,,,,,ブリーズ,0
711,4010901052597,新規,0,2023-02-24,2023-02-24,Ｔ＆Ｊ　Ｈｏｌｄｉｎｇｓ株式会社,,株式会社,東京都,世田谷区,三宿１丁目１０番２０号三宿トウエイハイツ１０１,,13,112,1540005,,,,,,,2023-02-24,1,,,,,ティーアンドジェイホールディングス,0
713,4010903007995,新規,0,2023-02-24,2023-02-24,合同会社ＴＨＬ,,合同会社,東京都,世田谷区,北沢１丁目２６番１０号,,13,112,1550031,,,,,,,2023-02-24,1,,,,,ティーエイチエル,0
716,4011001152742,新規,0,2023-02-24,2023-02-24,株式会社ｎｏｎａｔ,,株式会社,東京都,渋谷区,道玄坂１丁目１０番８号渋谷道玄坂東急ビル２Ｆ－Ｃ,,13,113,1500043,,,,,,,2023-02-24,1,,,,,ノナット,0
718,4011003016350,新規,0,2023-02-24,2023-02-24,合同会社ＵＵＯＯ,,合同会社,東京都,渋谷区,道玄坂１丁目１０番８号渋谷道玄坂東急ビル２Ｆ－Ｃ,,13,113,1500043,,,,,,,2023-02-24,1,,,,,ユーオー,0
720,4011101101905,新規,0,2023-02-24,2023-02-24,株式会社ＣＡＲＴＡ,,株式会社,東京都,新宿区,西新宿３丁目３番１３号西新宿水間ビル６階,,13,104,1600023,,,,,,,2023-02-24,1,,,,,カルタ,0
721,4011101101946,新規,0,2023-02-24,2023-02-24,ＪＵｃａｎ株式会社,,株式会社,東京都,新宿区,四谷４丁目１番地小島ビル４０１,,13,104,1600004,,,,,,,2023-02-24,1,,,,,ジェイユーキャン,0
722,4011101101954,新規,0,2023-02-24,2023-02-24,株式会社アヤパンサス,,株式会社,東京都,新宿区,西新宿３丁目３番１３号西新宿水間ビル６階,,13,104,1600023,,,,,,,2023-02-24,1,,,,,アヤパンサス,0
725,4011201024444,新規,0,2023-02-24,2023-02-24,株式会社アセオ,,株式会社,東京都,中野区,上高田４丁目１９番６－２０１,,13,114,1640002,,,,,,,2023-02-24,1,,,,,アセオ,0
726,4011301028485,新規,0,2023-02-24,2023-02-24,アイ・デイ・デイ株式会社,,株式会社,東京都,杉並区,浜田山１丁目１７番９号,,13,115,1680065,,,,,,,2023-02-24,1,,,,,アイデイデイ,0
727,4011401024921,新規,0,2023-02-24,2023-02-24,フィールドサービス株式会社,,株式会社,東京都,板橋区,徳丸３丁目１７番７－４０８号新小田ビル,,13,119,1750083,,,,,,,2023-02-24,1,,,,,フィールドサービス,0
731,4012701017490,新規,0,2023-02-24,2023-02-24,株式会社ＳＮＹＴ,,株式会社,東京都,小平市,鈴木町２丁目１７９番地の１６,,13,211,1870011,,,,,,,2023-02-24,1,,,,,エスエヌワイティー,0
742,4020001150400,新規,0,2023-02-24,2023-02-24,株式会社アーバン・ファーム,,株式会社,神奈川県,横浜市金沢区,谷津町１６６番地１ＡＲＩＡ１０３,,14,108,2360016,,,,,,,2023-02-24,1,,,,,アーバンファーム,0
745,4021001078276,新規,0,2023-02-24,2023-02-24,ＮＡＴＵＲＡＬ　ＲＥＳＯＲＴ株式会社,,株式会社,神奈川県,小田原市,栄町１丁目１６番３号,,14,206,2500011,,,,,,,2023-02-24,1,,,,,,0
748,4021005012743,新規,0,2023-02-24,2023-02-24,行政書士法人えにし,,その他の設立登記法人,神奈川県,相模原市中央区,上溝６丁目１番２７号,,14,152,2520243,,,,,,,2023-02-24,1,,,,,エニシ,0
755,4030001152503,新規,0,2023-02-24,2023-02-24,株式会社Ｔｏｙｂｏｘ,,株式会社,埼玉県,比企郡小川町,大字増尾５５番地８,,11,343,3550332,,,,,,,2023-02-24,1,,,,,トイボックス,0
756,4030001152536,新規,0,2023-02-24,2023-02-24,株式会社デーツーデー,,株式会社,埼玉県,さいたま市大宮区,宮町５丁目１７番２号ブランシェ大宮３０４,,11,103,3300802,,,,,,,2023-02-24,1,,,,,デーツーデー,0
757,4030001152544,新規,0,2023-02-24,2023-02-24,株式会社Ｌｉｎｏ,,株式会社,埼玉県,所沢市,けやき台１丁目２９番地の６けやき台パーク・ホームズ１０４,,11,208,3591118,,,,,,,2023-02-24,1,,,,,リノ,0
761,4030003021243,新規,0,2023-02-24,2023-02-24,合同会社ハピネス,,合同会社,埼玉県,志木市,上宗岡３丁目１８番８号,,11,228,3530001,,,,,,,2023-02-24,1,,,,,ハピネス,0
765,4040003022034,新規,0,2023-02-24,2023-02-24,Ｉｖｏｂｓ　Ｇｌｏｂａｌ　Ｔｒａｄｉｎｇ合同会社,,合同会社,千葉県,富里市,新中沢３７６－１,,12,233,2860223,,,,,,,2023-02-24,1,,,,,イボーブスグローバルトレーディング,0
766,4050001052437,新規,0,2023-02-24,2023-02-24,株式会社福岡ホールディングス,,株式会社,茨城県,つくばみらい市,福岡１３３０番地４,,08,235,3002406,,,,,,,2023-02-24,1,,,,,フクオカホールディングス,0
768,4050003007257,新規,0,2023-02-24,2023-02-24,合同会社マザー,,合同会社,茨城県,筑西市,門井１９５５番地１,,08,227,3091107,,,,,,,2023-02-24,1,,,,,マザー,0
781,4100003006897,新規,0,2023-02-24,2023-02-24,Ａｃｈｒｏｍａｔｉｃ合同会社,,合同会社,長野県,松本市,笹部２丁目６番１９号,,20,202,3900847,,,,,,,2023-02-24,1,,,,,アクロマティック,0
798,4120001252608,新規,0,2023-02-24,2023-02-24,株式会社ｂｅｆｉｎｅ,,株式会社,大阪府,守口市,梶町４丁目５番３号,,27,209,5700015,,,,,,,2023-02-24,1,,,,,ビファイン,0
799,4120001252698,新規,0,2023-02-24,2023-02-24,株式会社クリーミーエンターテイメント,,株式会社,大阪府,大阪市北区,浪花町１番２３号８Ｆ,,27,127,5300022,,,,,,,2023-02-24,1,,,,,クリーミーエンターテイメント,0
800,4120001252764,新規,0,2023-02-24,2023-02-24,リザシティ・ジャパン株式会社,,株式会社,大阪府,大阪市西区,九条２丁目１１番２９号,,27,106,5500027,,,,,,,2023-02-24,1,,,,,リザシティジャパン,0
802,4120003023494,新規,0,2023-02-24,2023-02-24,ハーク合同会社,,合同会社,大阪府,寝屋川市,上神田２丁目２８番２０号,,27,215,5720052,,,,,,,2023-02-24,1,,,,,ハーク,0
803,4120003023503,新規,0,2023-02-24,2023-02-24,合同会社ＵＮＩＶＥＲＳＥ,,合同会社,大阪府,大阪市北区,西天満３丁目４番５号,,27,127,5300047,,,,,,,2023-02-24,1,,,,,ユニバース,0
805,4120101067022,新規,0,2023-02-24,2023-02-24,五味建設株式会社,,株式会社,大阪府,泉南市,信達大苗代４７６番地の１,,27,228,5900505,,,,,,,2023-02-24,1,,,,,ゴミケンセツ,0
807,4122001036718,新規,0,2023-02-24,2023-02-24,株式会社きみいろ,,株式会社,大阪府,八尾市,竹渕１丁目２２３番地の４プランメゾン八尾ＩＩ番館９０６号,00129533,27,212,5810052,,,,,,,2023-02-24,1,,,,,キミイロ,0
814,4140001129176,新規,0,2023-02-24,2023-02-24,株式会社ＮＥＸＴ,,株式会社,兵庫県,姫路市,夢前町山之内乙４６７番地,,28,201,6712101,,,,,,,2023-02-24,1,,,,,ネクスト,0
815,4140001129218,新規,0,2023-02-24,2023-02-24,株式会社インテライズ,,株式会社,兵庫県,尼崎市,善法寺町８番２５－１０８号,,28,202,6610973,,,,,,,2023-02-24,1,,,,,インテライズ,0
816,4140003018757,新規,0,2023-02-24,2023-02-24,ＭＯＮＯ　ＯＰＴＩＱＵＥ合同会社,,合同会社,兵庫県,神戸市中央区,元町通３丁目１５番３－３０１号,,28,110,6500022,,,,,,,2023-02-24,1,,,,,モノオプティーク,0
817,4150001026190,新規,0,2023-02-24,2023-02-24,株式会社ＥＮ,,株式会社,奈良県,生駒郡安堵町,大字かしの木台１丁目４番地の２０,,29,345,6391063,,,,,,,2023-02-24,1,,,,,エン,0
818,4150003002891,新規,0,2023-02-24,2023-02-24,合同会社ＬＩＦＥ　ＩＮＮＯＶＡＴＩＯＮ,,合同会社,奈良県,奈良市,三条町６０６－９６田中ビル３階,,29,201,6308244,,,,,,,2023-02-24,1,,,,,ライフイノベーション,0
819,4160001024854,新規,0,2023-02-24,2023-02-24,ＭＡＩＬＥ’ｋａｎｏａ株式会社,,株式会社,滋賀県,大津市,茶が崎４番１－３２６号,,25,201,5200023,,,,,,,2023-02-24,1,,,,,マイレカノア,0
825,4180001155061,新規,0,2023-02-24,2023-02-24,株式会社ｈａｐｒｅａｔ,,株式会社,愛知県,名古屋市中区,松原１丁目１４番１１号－１,,23,106,4600017,,,,,,,2023-02-24,1,,,,,ハピリート,0
826,4180001155078,新規,0,2023-02-24,2023-02-24,旭測建株式会社,,株式会社,愛知県,尾張旭市,西大道町前田３８００番地７,,23,226,4880814,,,,,,,2023-02-24,1,,,,,アサヒソクケン,0
827,4180001155086,新規,0,2023-02-24,2023-02-24,株式会社龍昇産業,,株式会社,愛知県,知多市,日長字赤坂５５番地の１,,23,224,4780041,,,,,,,2023-02-24,1,,,,,リュウショウサンギョウ,0
832,4180003024867,新規,0,2023-02-24,2023-02-24,望合同会社,,合同会社,愛知県,北名古屋市,二子栄和３９番地,,23,234,4810013,,,,,,,2023-02-24,1,,,,,ノゾミ,0
833,4180003024883,新規,0,2023-02-24,2023-02-24,合同会社ＳＴＫ,,合同会社,愛知県,瀬戸市,東松山町１８０番地の１,,23,204,4890069,,,,,,,2023-02-24,1,,,,,エスティーケー,0
850,4240003006033,新規,0,2023-02-24,2023-02-24,合同会社吉田工業,00129532,合同会社,広島県,広島市南区,金屋町８番６－５０１号,,34,103,7320825,,,,,,,2023-02-24,1,,,,,ヨシダコウギョウ,0
858,4280001008886,新規,0,2023-02-24,2023-02-24,株式会社Ｗｉｎｇ,,株式会社,島根県,松江市,上乃木３丁目１６－２５ルミナリエ３０７号,,32,201,6900015,,,,,,,2023-02-24,1,,,,,ウイング,0
867,4290001100650,新規,0,2023-02-24,2023-02-24,株式会社ｓｉｎ,,株式会社,福岡県,福岡市博多区,東光寺町２丁目２番１３－５０３,,40,132,8120896,,,,,,,2023-02-24,1,,,,,シン,0
868,4290003013561,新規,0,2023-02-24,2023-02-24,Ｗｉｔｈ　ｔｏｄａｙ合同会社,,合同会社,福岡県,福岡市中央区,天神２丁目３番１０号天神パインクレスト７１９号,,40,133,8100001,,,,,,,2023-02-24,1,,,,,ウィズトゥディ,0
874,4320003004029,新規,0,2023-02-24,2023-02-24,合同会社新博多,,合同会社,大分県,別府市,大字鉄輪２４０番地の４,,44,202,8740000,,,,,,,2023-02-24,1,,,,,シンハカタ,0
875,4330001030604,新規,0,2023-02-24,2023-02-24,株式会社白鷺,,株式会社,熊本県,八代市,新地町７番３０号,,43,202,8660016,,,,,,,2023-02-24,1,,,,,シラサギ,0
878,4360001031616,新規,0,2023-02-24,2023-02-24,株式会社バーレスク東京沖縄,,株式会社,沖縄県,那覇市,松山１丁目５番１号－２Ｆ,,47,201,9000032,,,,,,,2023-02-24,1,,,,,バーレスクトウキョウオキナワ,0
881,4360003012754,新規,0,2023-02-24,2023-02-24,合同会社ＲＩＫＵＡＩ,,合同会社,沖縄県,名護市,字辺野古１０１０番地１８８（１０７号室）,,47,209,9052171,,,,,,,2023-02-24,1,,,,,リクアイ,0
889,4410001013402,新規,0,2023-02-24,2023-02-24,株式会社ネクストゲート,,株式会社,秋田県,大仙市,大曲栄町９番２１号,,05,212,0140061,,,,,,,2023-02-24,1,,,,,ネクストゲート,0
893,4700150114491,新規,0,2023-02-24,2023-02-24,ＴＥＥ－ＫＡＹ　ＴＥＣＨ　ＨＯＬＤＩＮＧＳ　ＰＶＴ　ＬＴＤ,,外国会社等,千葉県,八街市,文違６０番地４Ａ,,12,230,2891104,スリランカ民主社会主義共和国、コロンボ１２、プリンセスゲート、９８－６,,,,,,2023-02-24,1,,,,,テイーケイテツクホールデイングスピーヴイテイエルテイデイ,0
894,4700150114500,新規,0,2023-02-24,2023-02-24,東海名和駅西土地区画整理組合,,その他,愛知県,東海市,大田町東畑１１９番地東海市中心街整備事務所内,,23,222,4770031,,,,,,,2023-02-24,1,,,,,トウカイナワエキニシトチクカクセイリクミアイ,0
900,5010001233171,新規,0,2023-02-24,2023-02-24,株式会社ミクス,,株式会社,東京都,千代田区,神田猿楽町２丁目１番２号鎌形ビル４階,,13,101,1010064,,,,,,,2023-02-24,1,,,,,ミクス,0
901,5010001233254,新規,0,2023-02-24,2023-02-24,Ｃ＆Ｙ　Ｇｌｏｂａｌ　Ｇｒｏｕｐ　Ｊａｐａｎ株式会社,,株式会社,東京都,中央区,京橋２丁目６番１７号ＶＯＲＴ京橋ＩＩＩ８Ｆ,00129537,13,102,1040031,,,,,,,2023-02-24,1,,,,,シーアンドワイグローバルグループジャパン,0
906,5010003039897,新規,0,2023-02-24,2023-02-24,合同会社ながずみ,,合同会社,東京都,千代田区,丸の内３丁目１番１号東京共同会計事務所内,,13,101,1000005,,,,,,,2023-02-24,1,,,,,ナガズミ,0
909,5010105002200,新規,0,2023-02-24,2023-02-24,一般社団法人日本女性薬局経営者の会,,その他の設立登記法人,東京都,八王子市,明神町４丁目８番１３号ＳＩＣビル３Ｆ医薬情報研究所株式会社エス・アイ・シー内,,13,201,1920046,,,,,,,2023-02-24,1,,,,,ニホンジョセイヤッキョクケイエイシャノカイ,0
910,5010401172696,新規,0,2023-02-24,2023-02-24,株式会社Ｅｄｇｅ　ｏｆ　Ｉｍｐａｃｔ,,株式会社,東京都,港区,南青山３丁目１番３６号青山丸竹ビル６Ｆ,,13,103,1070062,,,,,,,2023-02-24,1,,,,,エッジオブインパクト,0
911,5010401172705,新規,0,2023-02-24,2023-02-24,株式会社ＬＵＣＫＹ７,,株式会社,東京都,港区,南青山４丁目１７番１３号２０１室,,13,103,1070062,,,,,,,2023-02-24,1,,,,,ラッキーセブン,0
914,5010405021825,新規,0,2023-02-24,2023-02-24,クロスポイント税理士法人,,その他の設立登記法人,東京都,港区,西麻布１丁目１２番５号ＳＷ六本木通ビル３階,,13,103,1060031,,,,,,,2023-02-24,1,,,,,クロスポイント,0
915,5010405021858,新規,0,2023-02-24,2023-02-24,一般社団法人日本事業振興センター,,その他の設立登記法人,東京都,港区,芝大門２丁目１３－５坂入ビル１階,,13,103,1050012,,,,,,,2023-02-24,1,,,,,ニホンジギョウシンコウセンター,0
916,5010501050050,新規,0,2023-02-24,2023-02-24,左辺株式会社,,株式会社,東京都,台東区,上野６丁目７－１６川久保ビル７０５号,,13,106,1100005,,,,,,,2023-02-24,1,,,,,サヘン,0
919,5010701043878,新規,0,2023-02-24,2023-02-24,株式会社ｅＮ　Ｄｅｓｉｇｎ,,株式会社,東京都,品川区,荏原１丁目１０番８号,,13,109,1420063,,,,,,,2023-02-24,1,,,,,イーエヌデザイン,0
930,5010901052596,新規,0,2023-02-24,2023-02-24,株式会社Ｉｒｉｓ,,株式会社,東京都,世田谷区,成城３丁目１３番２３号,,13,112,1570066,,,,,,,2023-02-24,1,,,,,アイリス,0
931,5010903007994,新規,0,2023-02-24,2023-02-24,クレイン合同会社,,合同会社,東京都,世田谷区,若林２丁目１２番１０号カーサフレスカ２０５,,13,112,1540023,,,,,,,2023-02-24,1,,,,,クレイン,0
936,5011001152717,新規,0,2023-02-24,2023-02-24,ＪＡＧＳＨＩＰ株式会社,,株式会社,東京都,渋谷区,宇田川町１番１２号,,13,113,1500042,,,,,,,2023-02-24,1,,,,,ジャグシップ,0
937,5011001152733,新規,0,2023-02-24,2023-02-24,ハクナマタタ株式会社,,株式会社,東京都,目黒区,青葉台１丁目２６－１－２０７号,,13,110,1530042,,,,,,,2023-02-24,1,,,,,,0
938,5011001152741,新規,0,2023-02-24,2023-02-24,株式会社Ｂｅａｂｌａｓｔ,,株式会社,東京都,渋谷区,道玄坂１丁目１０番８号渋谷道玄坂東急ビル２Ｆ－Ｃ,,13,113,1500043,,,,,,,2023-02-24,1,,,,,ビアブラスト,0
939,5011001152774,新規,0,2023-02-24,2023-02-24,株式会社ＳＳＫＹ,,株式会社,東京都,渋谷区,幡ヶ谷２丁目１３番４号幡ヶ谷中央ビル２階,,13,113,1510072,,,,,,,2023-02-24,1,,,,,エスエスケイワイ,0
941,5011101101920,新規,0,2023-02-24,2023-02-24,株式会社ユニオン工業,,株式会社,東京都,新宿区,上落合３丁目１５－１中井プラムレジデンス５０４,,13,104,1610034,,,,,,,2023-02-24,1,,,,,ユニオンコウギョウ,0
942,5011103012736,新規,0,2023-02-24,2023-02-24,合同会社ＡＵＲＯＲＡ,,合同会社,東京都,新宿区,北新宿１丁目２０番１１号イスタナ北新宿４０２,,13,104,1690074,,,,,,,2023-02-24,1,,,,,オーロラ,0
944,5011401024920,新規,0,2023-02-24,2023-02-24,株式会社ＩＩＣＯＭＢＩＮＥＤ　ＪＡＰＡＮ,,株式会社,東京都,板橋区,赤塚新町３丁目２６番１６号,,13,119,1750093,,,,,,,2023-02-24,1,,,,,アイアイコンバインドジャパン,0
947,5011403003922,新規,0,2023-02-24,2023-02-24,合同会社生プラス,,合同会社,東京都,板橋区,板橋１丁目３０番１－２０１号,,13,119,1730004,,,,,,,2023-02-24,1,,,,,ナマプラス,0
952,5011501028986,新規,0,2023-02-24,2023-02-24,株式会社今できること,,株式会社,東京都,荒川区,東日暮里３丁目３１－５,,13,118,1160014,,,,,,,2023-02-24,1,,,,,イマデキルコト,0
955,5011603003838,新規,0,2023-02-24,2023-02-24,空の森ジャパン合同会社,,合同会社,東京都,練馬区,北町１丁目４４－２７－３０３,,13,120,1790081,,,,,,,2023-02-24,1,,,,,ソラノモリジャパン,0
962,5012803003017,新規,0,2023-02-24,2023-02-24,合同会社ＵＰ,,合同会社,東京都,東大和市,桜が丘２丁目１４２番地の１２－２０３,,13,220,2070022,,,,,,,2023-02-24,1,,,,,アップ,0
964,5020001150399,新規,0,2023-02-24,2023-02-24,クウファクトリー株式会社,,株式会社,神奈川県,横浜市保土ケ谷区,峰沢町６９－２０,,14,106,2400061,,,,,,,2023-02-24,1,,,,,クウファクトリー,0
966,5020003023388,新規,0,2023-02-24,2023-02-24,合同会社ＲＫＭ,,合同会社,神奈川県,横浜市瀬谷区,三ツ境１２６番地８,,14,114,2460022,,,,,,,2023-02-24,1,,,,,アールケイエム,0
967,5020003023396,新規,0,2023-02-24,2023-02-24,めるも合同会社,,合同会社,神奈川県,横浜市港北区,新吉田東３丁目１１番４号,,14,109,2230058,,,,,,,2023-02-24,1,,,,,メルモ,0
973,5021003012802,新規,0,2023-02-24,2023-02-24,河野アセットマネジメント合同会社,,合同会社,神奈川県,綾瀬市,深谷上６丁目３９番３１号,,14,218,2521108,,,,,,,2023-02-24,1,,,,,カワノアセットマネジメント,0
982,5030003021242,新規,0,2023-02-24,2023-02-24,ａＴＬａｂ合同会社,,合同会社,埼玉県,桶川市,末広１丁目１番４４号ウェルネスハイツ１０６号,,11,231,3630012,,,,,,,2023-02-24,1,,,,,アットラボ,0
992,5040001127206,新規,0,2023-02-24,2023-02-24,ＴＵＲＫＭＡＮＩ　ＩＮＴＥＲＮＡＴＩＯＮＡＬ株式会社,,株式会社,千葉県,佐倉市,表町１丁目１０番地３エクセルいしぐろ２０６,,12,212,2850811,,,,,,,2023-02-24,1,,,,,トウルクマニインターナショナル,0
997,5050001052436,新規,0,2023-02-24,2023-02-24,株式会社ファームテック岡野,,株式会社,茨城県,稲敷市,椎塚２１３２番地１,,08,229,3000512,,,,,,,2023-02-24,1,,,,,ファームテックオカノ,0
1004,5080401026334,新規,0,2023-02-24,2023-02-24,株式会社ペンタゴン,,株式会社,静岡県,浜松市北区,三ヶ日町大崎１０２１番地の４,,22,135,4311403,,,,,,,2023-02-24,1,,,,,ペンタゴン,0
1020,5120001252680,新規,0,2023-02-24,2023-02-24,株式会社ＩＴ　ＳＥＬＥＣＴ,,株式会社,大阪府,大阪市中央区,南船場３丁目７－２７ＮＬＣ心斎橋ビル,,27,128,5420081,,,,,,,2023-02-24,1,,,,,アイティーセレクト,0
1021,5120001252706,新規,0,2023-02-24,2023-02-24,時年株式会社,,株式会社,大阪府,大阪市大正区,三軒家西３丁目４番１６号中山ビル２０６Ａ,,27,108,5510001,,,,,,,2023-02-24,1,,,,,ジネン,0
1022,5120001252739,新規,0,2023-02-24,2023-02-24,エーピーエス株式会社,,株式会社,大阪府,寝屋川市,田井町３８番７号,,27,215,5720021,,,,,,,2023-02-24,1,,,,,エーピーエス,0
1025,5120003023469,新規,0,2023-02-24,2023-02-24,合同会社ＡＹＵ,,合同会社,大阪府,大阪市北区,西天満４丁目１１番８号おおきに老松通りビル６０１号,,27,127,5300047,,,,,,,2023-02-24,1,,,,,アユ,0
1026,5120003023477,新規,0,2023-02-24,2023-02-24,Ｍｒ　Ｍｏｏｎ合同会社,,合同会社,大阪府,大阪市中央区,北久宝寺町１丁目５番６号堺筋本町アーバンライフ１００４,,27,128,5410057,,,,,,,2023-02-24,1,,,,,ミスタームーン,0
1029,5120101067021,新規,0,2023-02-24,2023-02-24,ＦＨ株式会社,,株式会社,大阪府,藤井寺市,沢田３丁目６番４８号,,27,226,5830011,,,,,,,2023-02-24,1,,,,,エフエイチ,0
1031,5120901047172,新規,0,2023-02-24,2023-02-24,株式会社コガユニット,,株式会社,大阪府,吹田市,山田西２丁目８番Ａ５－２０９号,,27,205,5650824,,,,,,,2023-02-24,1,,,,,コガユニット,0
1034,5130001073721,新規,0,2023-02-24,2023-02-24,株式会社六角運送,,株式会社,京都府,京都市山科区,西野山百々町１８５番地５ハイツ村田３０５,,26,110,6078301,,,,,,,2023-02-24,1,,,,,ロッカクウンソウ,0
1036,5140001129217,新規,0,2023-02-24,2023-02-24,株式会社マルベックシステム,,株式会社,兵庫県,尼崎市,東園田町３丁目３１番地の４,,28,202,6610953,,,,,,,2023-02-24,1,,,,,マルベックシステム,0
1038,5170001017484,新規,0,2023-02-24,2023-02-24,株式会社ＦフィールＤｏむすび,,株式会社,和歌山県,橋本市,岸上５２２番地の１,,30,203,6480085,,,,,,,2023-02-24,1,,,,,エフフィールドムスビ,0
1048,5180001154987,新規,0,2023-02-24,2023-02-24,株式会社エムビー,,株式会社,愛知県,北名古屋市,加島新田加島西４５番地１,,23,234,4810044,,,,,,,2023-02-24,1,,,,,エムビー,0
1049,5180001155093,新規,0,2023-02-24,2023-02-24,株式会社ｃｏｃｏｋａｒａ,,株式会社,愛知県,一宮市,牛野通４丁目１５番地,,23,203,4910846,,,,,,,2023-02-24,1,,,,,ココカラ,0
1061,5180301037116,新規,0,2023-02-24,2023-02-24,株式会社美ｄｉｃａｌ,,株式会社,愛知県,西尾市,平坂町長堀町４９番地１,,23,213,4440305,,,,,,,2023-02-24,1,,,,,ビディカル,0
1077,5220005008730,新規,0,2023-02-24,2023-02-24,特定非営利活動法人Ｓｕｎ,,その他の設立登記法人,石川県,七尾市,旭町い部１０４番１,,17,202,9260833,,,,,,,2023-02-24,1,,,,,サン,0
1081,5240001061129,新規,0,2023-02-24,2023-02-24,株式会社ＷＥＬＭＩ,,株式会社,広島県,山県郡安芸太田町,大字加計３２６５番地３,,34,368,7313501,,,,,,,2023-02-24,1,,,,,ウェルミ,0
1082,5240003006032,新規,0,2023-02-24,2023-02-24,合同会社コミュニティアカデミー,,合同会社,広島県,広島市中区,舟入南４丁目１３番７号,,34,101,7300847,,,,,,,2023-02-24,1,,,,,コミュニティアカデミー,0
1083,5250001019976,新規,0,2023-02-24,2023-02-24,株式会社アクト・アセット・マネジメント,,株式会社,山口県,山口市,鋳銭司５７１０番地１,,35,203,7471221,,,,,,,2023-02-24,1,,,,,アクトアセットマネジメント,0
1092,5290001100658,新規,0,2023-02-24,2023-02-24,ミズタスタイル株式会社,,株式会社,福岡県,福岡市博多区,博多駅南３丁目２５番１７－１００７号,,40,132,8120016,,,,,,,2023-02-24,1,,,,,ミズタスタイル,0
1095,5290003013569,新規,0,2023-02-24,2023-02-24,ＦＡＭＩＬＹ合同会社,,合同会社,福岡県,福岡市東区,箱崎４丁目３７番１１－５０５号,,40,131,8120053,,,,,,,2023-02-24,1,,,,,,0
1105,5360003012745,新規,0,2023-02-24,2023-02-24,合同会社楓,,合同会社,沖縄県,中頭郡中城村,字当間６８８番地,,47,328,9012406,,,,,,,2023-02-24,1,,,,,カエデ,0
1110,5370003006003,新規,0,2023-02-24,2023-02-24,ＮＦＣ合同会社,,合同会社,宮城県,仙台市青葉区,錦ケ丘７丁目１４番地の１０,,04,101,9893123,,,,,,,2023-02-24,1,,,,,エヌエフシー,0
1116,5430001088482,新規,0,2023-02-24,2023-02-24,株式会社桜丘ホーム,,株式会社,北海道,札幌市中央区,南四条西１８丁目１番１０－２０２号,,01,101,0640804,,,,,,,2023-02-24,1,,,,,サクラオカホーム,0
1117,5430005014641,新規,0,2023-02-24,2023-02-24,一般社団法人ｋａｋａ　ｒｅｌａｔｉｏｎｓｈｉｐ,,その他の設立登記法人,北海道,札幌市中央区,南二条西１２丁目３２３番地８ＲｏｙａｌＨｙａｔｔ４０３号,,01,101,0600062,,,,,,,2023-02-24,1,,,,,カカリレーションシップ,0
1120,5470001019483,新規,0,2023-02-24,2023-02-24,ブルーノーバ株式会社,,株式会社,香川県,丸亀市,富士見町５丁目１９番１１号,,37,202,7630011,,,,,,,2023-02-24,1,,,,,ブルーノーバ,0
1121,5480001012017,新規,0,2023-02-24,2023-02-24,株式会社若松園,,株式会社,徳島県,板野郡藍住町,笠木字中野４０番地３,,36,403,7711262,,,,,,,2023-02-24,1,,,,,ワカマツエン,0
1122,5490001010408,新規,0,2023-02-24,2023-02-24,株式会社香和商事,,株式会社,高知県,香美市,土佐山田町楠目１４８１番地１,,39,212,7820051,,,,,,,2023-02-24,1,,,,,コウワショウジ,0
1124,5700150114490,新規,0,2023-02-24,2023-02-24,ＴＨＩＷＡＮＫＡ　ＥＮＴＥＲＰＲＩＳＥＳ,,外国会社等,千葉県,八街市,文違６０番地３４,,12,230,2891104,スリランカ民主社会主義共和国、ピリヤンダラ、マムペ、ワワナワスタ、２６,,,,,,2023-02-24,1,,,,,テイワンカエンタープライズ,0
1125,5700150114499,新規,0,2023-02-24,2023-02-24,久井町会,,その他,大阪府,和泉市,久井町５３２番地,,27,219,5941142,,,,,,,2023-02-24,1,,,,,ヒサイチヨウカイ,0
1131,6010001233212,新規,0,2023-02-24,2023-02-24,株式会社しごとーる,,株式会社,東京都,千代田区,六番町６番地４ＬＨ番町スクエア５階,,13,101,1020085,,,,,,,2023-02-24,1,,,,,シゴトール,0
1132,6010001233245,新規,0,2023-02-24,2023-02-24,ジャパン・エクステンシブ・インフラストラクチャー株式会社,,株式会社,東京都,千代田区,丸の内１丁目４番１号,,13,101,1000005,,,,,,,2023-02-24,1,,,,,ジャパンエクステンシブインフラストラクチャー,0
1133,6010001233253,新規,0,2023-02-24,2023-02-24,ミライシステム株式会社,,株式会社,東京都,中央区,日本橋富沢町１０番２－１３０７号,,13,102,1030006,,,,,,,2023-02-24,1,,,,,ミライシステム,0
1135,6010003039896,新規,0,2023-02-24,2023-02-24,ＫＲＯインベストメント合同会社,,合同会社,東京都,中央区,日本橋１丁目４番１号,,13,102,1030027,,,,,,,2023-02-24,1,,,,,ケーアールオーインベストメント,0
1137,6010101015527,新規,0,2023-02-24,2023-02-24,株式会社アトランティス,,株式会社,東京都,八王子市,天神町１８－１メゾン・ド・ノア天神町６０３号,,13,201,1920074,,,,,,,2023-02-24,1,,,,,アトランティス,0
1144,6010405021824,新規,0,2023-02-24,2023-02-24,司法書士法人アンサンブル,,その他の設立登記法人,東京都,港区,北青山３丁目１２番７号,,13,103,1070061,,,,,,,2023-02-24,1,,,,,アンサンブル,0
1150,6010703006592,新規,0,2023-02-24,2023-02-24,メタ・モル合同会社,,合同会社,東京都,品川区,東五反田２丁目９番１号,,13,109,1410022,,,,,,,2023-02-24,1,,,,,メタモル,0
1155,6010901052587,新規,0,2023-02-24,2023-02-24,Ｈｙミルク商店株式会社,,株式会社,東京都,世田谷区,桜丘５丁目２１番４号,,13,112,1560054,,,,,,,2023-02-24,1,,,,,エイチワイミルクショウテン,0
1160,6011001152724,新規,0,2023-02-24,2023-02-24,誠和株式会社,,株式会社,東京都,目黒区,東が丘１丁目８番３号,,13,110,1520021,,,,,,,2023-02-24,1,,,,,セイワ,0
1161,6011001152732,新規,0,2023-02-24,2023-02-24,株式会社ｔａｇｏｔｏｍｉ,,株式会社,東京都,渋谷区,神宮前６丁目２３番４号桑野ビル２階,,13,113,1500001,,,,,,,2023-02-24,1,,,,,タゴトミ,0
1162,6011001152740,新規,0,2023-02-24,2023-02-24,株式会社デライト・ビルダー,,株式会社,東京都,渋谷区,円山町２８番１号渋谷道玄坂スカイビル１１Ｆ,,13,113,1500044,,,,,,,2023-02-24,1,,,,,デライトビルダー,0
1163,6011001152757,新規,0,2023-02-24,2023-02-24,株式会社ＳＴＥＰＰＬＥ,,株式会社,東京都,渋谷区,渋谷２丁目１９番１５号宮益坂ビルディング６０９,,13,113,1500002,,,,,,,2023-02-24,1,,,,,ステップル,0
1164,6011003016349,新規,0,2023-02-24,2023-02-24,合同会社ＢａｍｂｏｏＨｅａｌｔｈ,,合同会社,東京都,目黒区,自由が丘１丁目１７番１４号ウィンディ・ヒル３０１,,13,110,1520035,,,,,,,2023-02-24,1,,,,,バンブーヘルス,0
1168,6011103012735,新規,0,2023-02-24,2023-02-24,合同会社七里香,,合同会社,東京都,新宿区,西早稲田２丁目６番１－６０４号,,13,104,1690051,,,,,,,2023-02-24,1,,,,,シチリコウ,0
1169,6011401024928,新規,0,2023-02-24,2023-02-24,株式会社ＶＥＲＴＥＸ,,株式会社,東京都,板橋区,弥生町１－５,,13,119,1730021,,,,,,,2023-02-24,1,,,,,バーテックス,0
1170,6011403003921,新規,0,2023-02-24,2023-02-24,Ｅ　Ａｄｖｅｎｔｕｒｅｓ合同会社,,合同会社,東京都,板橋区,成増１丁目１６－２５江口ハイツ１０２,,13,119,1750094,,,,,,,2023-02-24,1,,,,,イーアドベンチャーズ,0
1175,6012401040213,新規,0,2023-02-24,2023-02-24,株式会社ケイアイパック,,株式会社,東京都,府中市,押立町１丁目３４番地の１コープ野村府中３－２０１,,13,206,1830012,,,,,,,2023-02-24,1,,,,,ケイアイパック,0
1184,6020001150381,新規,0,2023-02-24,2023-02-24,朝日住まいる株式会社,,株式会社,神奈川県,川崎市多摩区,堰２丁目１番１８－３０３号,,14,135,2140022,,,,,,,2023-02-24,1,,,,,アサヒスマイル,0
1185,6020001150398,新規,0,2023-02-24,2023-02-24,株式会社華平,,株式会社,神奈川県,横浜市南区,真金町２丁目１６－１ハイツ大通り公園２０７,,14,105,2320021,,,,,,,2023-02-24,1,,,,,カヘイ,0
1191,6021001078274,新規,0,2023-02-24,2023-02-24,ＪＮエクスプレス株式会社,,株式会社,神奈川県,茅ヶ崎市,浜之郷９９０番地２１４,,14,207,2530086,,,,,,,2023-02-24,1,,,,,ジェイエヌエクスオウレス,0
1196,6021003012801,新規,0,2023-02-24,2023-02-24,鈴木オルガン合同会社,,合同会社,神奈川県,横須賀市,佐原３丁目２０－９,,14,201,2390835,,,,,,,2023-02-24,1,,,,,スズキオルガン,0
1203,6030001152526,新規,0,2023-02-24,2023-02-24,株式会社Ｐｌｅａｓａｎｔ,,株式会社,埼玉県,戸田市,大字新曽１９９５番地７－１Ｆ,,11,224,3350021,,,,,,,2023-02-24,1,,,,,プレザント,0
1212,6040003021991,新規,0,2023-02-24,2023-02-24,徳輝合同会社,,合同会社,千葉県,柏市,緑ケ丘１１－９緑ハイム３０１,,12,217,2770082,,,,,,,2023-02-24,1,,,,,トッキ,0
1227,6110003004989,新規,0,2023-02-24,2023-02-24,合同会社ＮＳＴＥ,,合同会社,新潟県,燕市,日之出町１６５番地３,,15,213,9591242,,,,,,,2023-02-24,1,,,,,エヌエスティーイー,0
1231,6120001252688,新規,0,2023-02-24,2023-02-24,株式会社ＭＢ,,株式会社,大阪府,大阪市西成区,太子１丁目１番１８号ワカバビル２Ｆ,,27,122,5570002,,,,,,,2023-02-24,1,,,,,エムビー,0
1232,6120001252696,新規,0,2023-02-24,2023-02-24,リバティ株式会社,,株式会社,大阪府,大阪市西区,西本町１丁目１３番３８号,,27,106,5500005,,,,,,,2023-02-24,1,,,,,リバティ,0
1234,6120003023402,新規,0,2023-02-24,2023-02-24,合同会社ＳＥＮＴＯ,,合同会社,大阪府,大阪市福島区,鷺洲５丁目１番１５号セレンディップ鷺洲３０２号,,27,103,5530002,,,,,,,2023-02-24,1,,,,,セント,0
1235,6120003023476,新規,0,2023-02-24,2023-02-24,ＭＴ　ＴＲＡＤＩＮＧ合同会社,,合同会社,大阪府,大阪市西成区,花園南１丁目７番２１号ＪＰＭＥＴＲＯ花園町１階１０４号室,,27,122,5570015,,,,,,,2023-02-24,1,,,,,エムティートレーディング,0
1236,6120003023484,新規,0,2023-02-24,2023-02-24,Ｊａｐａｎ　Ｂｅａｕｔｙ　Ｈｏｓｐｉｔａｌｉｔｙ合同会社,,合同会社,大阪府,大阪市西区,新町１丁目５－７－６階,,27,106,5500013,,,,,,,2023-02-24,1,,,,,ジャパンビューティーホスピタリティ,0
1245,6130001073737,新規,0,2023-02-24,2023-02-24,ＬＡＩ株式会社,,株式会社,京都府,宇治市,小倉町久保１１０－１辻岩ビル本館３０２,,26,204,6110042,,,,,,,2023-02-24,1,,,,,エルエーアイ,0
1259,6160005011161,新規,0,2023-02-24,2023-02-24,社会保険労務士法人木村事務所,,その他の設立登記法人,滋賀県,近江八幡市,西元町２５番地,,25,204,5230887,,,,,,,2023-02-24,1,,,,,キムラジムショ,0
1268,6180001155068,新規,0,2023-02-24,2023-02-24,株式会社四季華彩,,株式会社,愛知県,名古屋市中村区,熊野町１丁目６９番地の２,,23,105,4530814,,,,,,,2023-02-24,1,,,,,シキカサイ,0
1269,6180001155076,新規,0,2023-02-24,2023-02-24,株式会社はすね,,株式会社,愛知県,豊明市,大久伝町南４番地１８,,23,229,4701111,,,,,,,2023-02-24,1,,,,,ハスネ,0
1270,6180001155092,新規,0,2023-02-24,2023-02-24,株式会社ＲＥＳＴＡ,,株式会社,愛知県,日進市,赤池町箕ノ手２番地５８１,,23,230,4700126,,,,,,,2023-02-24,1,,,,,リスタ,0
1277,6200001040993,新規,0,2023-02-24,2023-02-24,株式会社イー・エム・フォーエバー,,株式会社,岐阜県,安八郡安八町,森部１７５９番地の６,,21,383,5030114,,,,,,,2023-02-24,1,,,,,イーエムフォーエバー,0
1289,6240003006031,新規,0,2023-02-24,2023-02-24,合同会社晶和,,合同会社,広島県,呉市,天応西条３丁目２４番１５号,,34,202,7370883,,,,,,,2023-02-24,1,,,,,ショウワ,0
1301,6290005018961,新規,0,2023-02-24,2023-02-24,一般社団法人あたる,,その他の設立登記法人,福岡県,福岡市博多区,博多駅南４丁目４番１号,,40,132,8120016,,,,,,,2023-02-24,1,,,,,アタル,0
1305,6310003004523,新規,0,2023-02-24,2023-02-24,合同会社麻生コンサルティング・企画,,合同会社,長崎県,長崎市,かき道３丁目８番１３号,,42,201,8510115,,,,,,,2023-02-24,1,,,,,アソウコンサルティングキカク,0
1314,6370001049630,新規,0,2023-02-24,2023-02-24,登米ウォーターサービス株式会社,,株式会社,宮城県,登米市,豊里町新田町１９３番地７,,04,212,9870361,,,,,,,2023-02-24,1,,,,,トメウォーターサービス,0
1337,6700150114218,新規,0,2023-02-24,2023-02-24,島浦町区,,その他,宮崎県,延岡市,島浦町７４５－１,,45,203,8820096,,,,,,,2023-02-24,1,,,,,シマウラチヨウク,0
1338,6700150114498,新規,0,2023-02-24,2023-02-24,Ｓ．Ｎ．Ｒ．，ＭＯＴＯＲ　ＬＡＮＫＡ,,外国会社等,神奈川県,厚木市,及川２丁目２０番４３号伊勢宮ハイツ１０２,,14,212,2430212,スリランカ民主社会主義共和国、サマンチュライ、Ｔ．Ｃ．ロード、Ｎｏ．４０／１,,,,,,2023-02-24,1,,,,,エスエヌアールモーターランカ,0
1350,7010001233277,新規,0,2023-02-24,2023-02-24,フレア・テクノロジー株式会社,,株式会社,東京都,文京区,湯島４丁目１２番１２－４０３号,,13,105,1130034,,,,,,,2023-02-24,1,,,,,フレアテクノロジー,0
1353,7010003039904,新規,0,2023-02-24,2023-02-24,ＨＬＢ１３号合同会社,,合同会社,東京都,千代田区,霞が関３丁目２番５号,,13,101,1000013,,,,,,,2023-02-24,1,,,,,エイチエルビージュウサンゴウ,0
1362,7010401172694,新規,0,2023-02-24,2023-02-24,株式会社Ｈ＆Ｍ,,株式会社,東京都,港区,赤坂２丁目１７番５０号赤坂タワーレジデンストップオブザヒル３４０３,,13,103,1070052,,,,,,,2023-02-24,1,,,,,エイチアンドエム,0
1366,7010403029604,新規,0,2023-02-24,2023-02-24,合同会社キイロ,,合同会社,東京都,港区,南青山４丁目１７番４号,,13,103,1070062,,,,,,,2023-02-24,1,,,,,キイロ,0
1367,7010403029612,新規,0,2023-02-24,2023-02-24,ＯＮＥ　Ｅｘｐｅｒｔｉｓｅ＆Ｇｕｉｄａｎｃｅ合同会社,,合同会社,東京都,港区,港南１丁目８番１５号,,13,103,1080075,,,,,,,2023-02-24,1,,,,,オーエヌイーエクスパタイズアンドガイダンス,0
1368,7010501050049,新規,0,2023-02-24,2023-02-24,株式会社冰之雨,,株式会社,東京都,台東区,千束３丁目２１番１２号４０５号室,,13,106,1110031,,,,,,,2023-02-24,1,,,,,ヒョウノアメ,0
1372,7010703006600,新規,0,2023-02-24,2023-02-24,国土建設ホールディングス合同会社,,合同会社,東京都,品川区,上大崎３丁目１番１号目黒セントラルスクエア１５階,,13,109,1410021,,,,,,,2023-02-24,1,,,,,コクドケンセツホールディングス,0
1377,7011001152772,新規,0,2023-02-24,2023-02-24,株式会社メアブリック,,株式会社,東京都,目黒区,上目黒３丁目１４番１２号,,13,110,1530051,,,,,,,2023-02-24,1,,,,,メアブリック,0
1378,7011003016331,新規,0,2023-02-24,2023-02-24,合同会社サンス・ベリア,,合同会社,東京都,渋谷区,初台１丁目１８番３号,,13,113,1510061,,,,,,,2023-02-24,1,,,,,サンスベリア,0
1386,7011101101836,新規,0,2023-02-24,2023-02-24,株式会社３８９代行サービス,,株式会社,東京都,新宿区,北新宿１丁目７番１８号,,13,104,1690074,,,,,,,2023-02-24,1,,,,,ミンパクダイコウサービス,0
1387,7011101101910,新規,0,2023-02-24,2023-02-24,Ａ　Ｂｉｚ　Ｓｃｈｏｏｌ株式会社,,株式会社,東京都,新宿区,大京町５番地２,,13,104,1600015,,,,,,,2023-02-24,1,,,,,エイビズスクール,0
1389,7011103012742,新規,0,2023-02-24,2023-02-24,合同会社天々奉謝,,合同会社,東京都,新宿区,西落合１丁目１７番１６号４０４号室,,13,104,1610031,,,,,,,2023-02-24,1,,,,,テンテンホウシャ,0
1392,7011301028482,新規,0,2023-02-24,2023-02-24,Ｙｚ‐Ｅ株式会社,,株式会社,東京都,杉並区,阿佐谷南２丁目２１番地１号,,13,115,1660004,,,,,,,2023-02-24,1,,,,,ワイズイー,0
1394,7011403003920,新規,0,2023-02-24,2023-02-24,合同会社フラル,,合同会社,東京都,板橋区,向原２丁目９番３号,,13,119,1730036,,,,,,,2023-02-24,1,,,,,フラル,0
1395,7011603003836,新規,0,2023-02-24,2023-02-24,ＫＣファーマコンサルティング合同会社,,合同会社,東京都,練馬区,大泉学園町２丁目２２番３０号ウェルフェアステージ大泉学園通り５０１,,13,120,1780061,,,,,,,2023-02-24,1,,,,,ケーシーファーマコンサルティング,0
1398,7012401040204,新規,0,2023-02-24,2023-02-24,株式会社ＮｅｗＢｉｚｚ,,株式会社,東京都,調布市,緑ケ丘２丁目５１番地５１,,13,208,1820001,,,,,,,2023-02-24,1,,,,,ニュービズ,0
1400,7012801022157,新規,0,2023-02-24,2023-02-24,株式会社喬,,株式会社,東京都,武蔵村山市,大南５丁目８番地の２５,,13,223,2080013,,,,,,,2023-02-24,1,,,,,タカシ,0
1403,7013303006508,新規,0,2023-02-24,2023-02-24,合同会社ＴＫＤ,,合同会社,東京都,豊島区,雑司が谷３丁目３―２５―１０１,,13,116,1710032,,,,,,,2023-02-24,1,,,,,ティーケーディー,0
1417,7020001150389,新規,0,2023-02-24,2023-02-24,株式会社ＲｉＲＡ,,株式会社,神奈川県,横浜市保土ケ谷区,月見台３６番１１号２０１,,14,106,2400012,,,,,,,2023-02-24,1,,,,,リラ,0
1418,7020001150406,新規,0,2023-02-24,2023-02-24,株式会社ウェイン,,株式会社,神奈川県,横浜市神奈川区,大口通１３０－８ＫＯＹＯ大口ビル４０１号室,,14,102,2210002,,,,,,,2023-02-24,1,,,,,ウェイン,0
1421,7020003023386,新規,0,2023-02-24,2023-02-24,誠瑞合同会社,,合同会社,神奈川県,川崎市川崎区,貝塚１丁目８－５安倍ビル３０５,,14,131,2100014,,,,,,,2023-02-24,1,,,,,セイズイ,0
1424,7021001078273,新規,0,2023-02-24,2023-02-24,株式会社フィッテッド,,株式会社,神奈川県,藤沢市,鵠沼橘１丁目１５番１号,,14,205,2510024,,,,,,,2023-02-24,1,,,,,フィッテッド,0
1428,7021003012791,新規,0,2023-02-24,2023-02-24,合同会社あやひか,,合同会社,神奈川県,横須賀市,坂本町２丁目４２番,,14,201,2380043,,,,,,,2023-02-24,1,,,,,アヤヒカ,0
1437,7040001127204,新規,0,2023-02-24,2023-02-24,途易Ｔｒｉｐ株式会社,,株式会社,千葉県,成田市,加良部２丁目２番地１,,12,211,2860036,,,,,,,2023-02-24,1,,,,,トエキトリップ,0
1440,7040003022031,新規,0,2023-02-24,2023-02-24,合同会社Ｆｉｎ‐ｓ,,合同会社,千葉県,印西市,牧の原４丁目１９－１９６,,12,231,2701331,,,,,,,2023-02-24,1,,,,,フィンズ,0
1441,7050001052434,新規,0,2023-02-24,2023-02-24,株式会社ＴＬ企画,,株式会社,茨城県,古河市,鴻巣４１７番地５５,,08,204,3060041,,,,,,,2023-02-24,1,,,,,ティーエルキカク,0
1449,7110001037313,新規,0,2023-02-24,2023-02-24,株式会社リバイタルテクノロジーズ,,株式会社,新潟県,糸魚川市,大町１丁目１－３２清水ビル２階,,15,216,9410061,,,,,,,2023-02-24,1,,,,,リバイタルテクノロジーズ,0
1455,7120001252654,新規,0,2023-02-24,2023-02-24,豊英株式会社,,株式会社,大阪府,大阪市港区,市岡２丁目１０番５号,,27,107,5520012,,,,,,,2023-02-24,1,,,,,ホウエイ,0
1456,7120001252679,新規,0,2023-02-24,2023-02-24,路易吉株式会社,,株式会社,大阪府,大阪市北区,中津１丁目２番３－５０３号,,27,127,5310071,,,,,,,2023-02-24,1,,,,,ルイージ,0
1457,7120001252687,新規,0,2023-02-24,2023-02-24,一高商事株式会社,,株式会社,大阪府,門真市,南野口町９番５号,,27,223,5710005,,,,,,,2023-02-24,1,,,,,イッコウショウジ,0
1458,7120001252695,新規,0,2023-02-24,2023-02-24,株式会社ソアン,,株式会社,大阪府,大阪市阿倍野区,文の里２丁目５番７号,,27,119,5450004,,,,,,,2023-02-24,1,,,,,ソアン,0
1459,7120001252712,新規,0,2023-02-24,2023-02-24,悠揚株式会社,,株式会社,大阪府,大阪市住吉区,万代東１丁目３－２２メゾン東和１０５号室,,27,120,5580056,,,,,,,2023-02-24,1,,,,,ユウヨウ,0
1461,7120003023500,新規,0,2023-02-24,2023-02-24,合同会社アンカー,,合同会社,大阪府,枚方市,招提中町２丁目３２番１３号,,27,210,5731152,,,,,,,2023-02-24,1,,,,,アンカー,0
1468,7120903004509,新規,0,2023-02-24,2023-02-24,合同会社ＬＡＺＹ,,合同会社,大阪府,池田市,古江町８６－１４,,27,204,5630015,,,,,,,2023-02-24,1,,,,,レイジー,0
1475,7140001129215,新規,0,2023-02-24,2023-02-24,エスレージ株式会社,,株式会社,兵庫県,神戸市中央区,旭通５丁目１番２号,,28,110,6510095,,,,,,,2023-02-24,1,,,,,エスレージ,0
1476,7140001129223,新規,0,2023-02-24,2023-02-24,エイチ・ツー・ジャパン株式会社,,株式会社,兵庫県,三田市,弥生が丘１丁目４番地５,,28,219,6691546,,,,,,,2023-02-24,1,,,,,エイチツージャパン,0
1478,7140003018754,新規,0,2023-02-24,2023-02-24,ａｒｒｏｗ　ｖｉｌｌｅｇ合同会社,,合同会社,兵庫県,神戸市長田区,神楽町２丁目２番１１号,,28,106,6530836,,,,,,,2023-02-24,1,,,,,アロウビレッジ,0
1484,7150001026188,新規,0,2023-02-24,2023-02-24,こども建設株式会社,,株式会社,奈良県,橿原市,醍醐町２９６番地の１,,29,205,6340072,,,,,,,2023-02-24,1,,,,,コドモケンセツ,0
1486,7160003002806,新規,0,2023-02-24,2023-02-24,平容合同会社,,合同会社,滋賀県,大津市,大谷町１１番１１号,,25,201,5200062,,,,,,,2023-02-24,1,,,,,ヘイヨウ,0
1493,7180001155050,新規,0,2023-02-24,2023-02-24,イルミメディカル株式会社,,株式会社,愛知県,尾張旭市,北原山町六田池２１４０番地９,,23,226,4880061,,,,,,,2023-02-24,1,,,,,イルミメディカル,0
1494,7180001155100,新規,0,2023-02-24,2023-02-24,株式会社チカラ,,株式会社,愛知県,名古屋市中川区,山王１丁目２番２９号,,23,110,4540011,,,,,,,2023-02-24,1,,,,,チカラ,0
1498,7180303005622,新規,0,2023-02-24,2023-02-24,合同会社Ｒｉｎｇ　Ｂｅｌｌｓ,,合同会社,愛知県,豊橋市,東高田町６１５番地の３,,23,201,4418115,,,,,,,2023-02-24,1,,,,,リングベルズ,0
1500,7200003005861,新規,0,2023-02-24,2023-02-24,きよみストア合同会社,,合同会社,岐阜県,高山市,清見町三日町３００番地,,21,203,5060102,,,,,,,2023-02-24,1,,,,,キヨミストア,0
1503,7240001061127,新規,0,2023-02-24,2023-02-24,株式会社輝勇,,株式会社,広島県,広島市中区,西平塚９－１７－２０１,,34,101,7300000,,,,,,,2023-02-24,1,,,,,キユウ,0
1507,7250001019974,新規,0,2023-02-24,2023-02-24,株式会社Ｒ‐ＳＴＡＧＥ,,株式会社,山口県,山口市,緑ヶ丘６番１２号,,35,203,7530016,,,,,,,2023-02-24,1,,,,,アールステージ,0
1516,7290001100648,新規,0,2023-02-24,2023-02-24,株式会社ＲＥＮＥＸＵＳ,,株式会社,福岡県,福岡市中央区,大濠２丁目２番２１号,,40,133,8100052,,,,,,,2023-02-24,1,,,,,リネクサス,0
1519,7290003013567,新規,0,2023-02-24,2023-02-24,合同会社Ｖｏｌａｎｔｅ,,合同会社,福岡県,福岡市東区,香住ヶ丘１丁目２７番４５号,,40,131,8130003,,,,,,,2023-02-24,1,,,,,ボランチ,0
1520,7290005018960,新規,0,2023-02-24,2023-02-24,一般社団法人国際美容事業協会,,その他の設立登記法人,福岡県,福岡市博多区,綱場町９番１４号,,40,132,8120024,,,,,,,2023-02-24,1,,,,,コクサイビヨウジギョウキョウカイ,0
1522,7300003001941,新規,0,2023-02-24,2023-02-24,合同会社ＮＯＡ,,合同会社,佐賀県,佐賀市,駅南本町二丁目１番ＭＴ－１６駅南本町３０６号室,,41,201,8400816,,,,,,,2023-02-24,1,,,,,ノア,0
1526,7320001019587,新規,0,2023-02-24,2023-02-24,ＭｉｌｋｏｍｅｄａＲ株式会社,,株式会社,大分県,豊後高田市,界２７６番地,,44,209,8790615,,,,,,,2023-02-24,1,,,,,ミルコメダアール,0
1527,7330001030618,新規,0,2023-02-24,2023-02-24,株式会社ビクトリー,,株式会社,熊本県,熊本市東区,若葉４丁目６番４号,,43,102,8612103,,,,,,,2023-02-24,1,,,,,ビクトリー,0
1528,7340005009558,新規,0,2023-02-24,2023-02-24,一般社団法人未来栄光舎,,その他の設立登記法人,鹿児島県,鹿児島市,吉野町５３７７番地１３,,46,201,8920871,,,,,,,2023-02-24,1,,,,,ミライエイコウシャ,0
1529,7360001031613,新規,0,2023-02-24,2023-02-24,株式会社ピンク・フラ・アミーゴ,,株式会社,沖縄県,那覇市,牧志１丁目１９番２０－８０３号プレサンスロジェ美栄橋ステーションレーヴ,,47,201,9000013,,,,,,,2023-02-24,1,,,,,ピンクフラアミーゴ,0
1533,7370003006001,新規,0,2023-02-24,2023-02-24,合同会社結寿,,合同会社,宮城県,東松島市,赤井字南新町１２番地５,,04,214,9810501,,,,,,,2023-02-24,1,,,,,ユズ,0
1539,7420003002671,新規,0,2023-02-24,2023-02-24,合同会社伸美龍,,合同会社,青森県,上北郡おいらせ町,向山４丁目２番地１７３９,,02,412,0392151,,,,,,,2023-02-24,1,,,,,シンビリュウ,0
1543,7700150114489,新規,0,2023-02-24,2023-02-24,ＭＡＣＲＯ　ＥＭＰＩＲＥ　ＨＯＬＤＩＮＧＳ　ＰＲＩＶＡＴＥ　ＬＩＭＩＴＥＤ,,外国会社等,千葉県,八街市,文違１３１－３１赤尾住宅Ｎｏ．７,,12,230,2891104,スリランカ民主社会主義共和国、コロンボ－１０、スリサッダルママワタ、Ｎｏ：２４３／１－１／１,,,,,,2023-02-24,1,,,,,メクロエムパヤホルデイングスプライベートリミテツド,0
1544,7700150114497,新規,0,2023-02-24,2023-02-24,ＬＡＳＨＷＥＩＮ　ＭＯＴＯＲＳ,,外国会社等,神奈川県,厚木市,妻田東３丁目２３－４ガヴァナーズアームスＢ２０２号室,,14,212,2430813,スリランカ民主社会主義共和国、イヤッカッチ、コッタンダルクラム,,,,,,2023-02-24,1,,,,,ラシユワインモーターズ,0
1550,8010001233185,新規,0,2023-02-24,2023-02-24,株式会社Ｉｒｉｅ＆Ｃｏ．,,株式会社,東京都,中央区,築地１丁目９番１１－３０４号,,13,102,1040045,,,,,,,2023-02-24,1,,,,,アイリーアンドコー,0
1551,8010001233251,新規,0,2023-02-24,2023-02-24,Ｒｅ＆ＮＫ　Ｇｒｏｕｐ株式会社,,株式会社,東京都,中央区,銀座７丁目１３番２０号銀座ＴＨビル９階,,13,102,1040061,,,,,,,2023-02-24,1,,,,,リーアンドエヌケイグループ,0
1553,8010003039878,新規,0,2023-02-24,2023-02-24,ＣｏｚｙＳｐａｃｅ合同会社,,合同会社,東京都,中央区,銀座７丁目７－９山市ビルＢ１Ｆ,,13,102,1040061,,,,,,,2023-02-24,1,,,,,コージースペース,0
1554,8010003039886,新規,0,2023-02-24,2023-02-24,合同会社ＣＡＲＡＣ,,合同会社,東京都,中央区,勝どき６丁目３番２－５４１６号,,13,102,1040054,,,,,,,2023-02-24,1,,,,,カラク,0
1562,8010401172470,新規,0,2023-02-24,2023-02-24,株式会社Ｍｒ＆Ｃｏ．,,株式会社,東京都,港区,赤坂９丁目５－２６パレ乃木坂５０１,,13,103,1070052,,,,,,,2023-02-24,1,,,,,エムアールアンドコー,0
1563,8010401172693,新規,0,2023-02-24,2023-02-24,株式会社ＫＡＲＡＤＥＭＯ,,株式会社,東京都,港区,麻布十番２丁目４番２号ザ・Ｖシティ麻布十番Ｉアベニュー８階,00129531,13,103,1060045,,,,,,,2023-02-24,1,,,,,カラディーモ,0
1564,8010403029594,新規,0,2023-02-24,2023-02-24,合同会社Ｄｉａｍａｎｔｅ,,合同会社,東京都,港区,元赤坂１丁目１番７－１００６号,,13,103,1070051,,,,,,,2023-02-24,1,,,,,ディアマンテ,0
1572,8010501050056,新規,0,2023-02-24,2023-02-24,株式会社ＩＮ　ＴＨＥ　ＬＯＯＰ,,株式会社,東京都,台東区,浅草橋２丁目２－１０アーバンアートビルＢ１,,13,106,1110053,,,,,,,2023-02-24,1,,,,,インザループ,0
1574,8010601062653,新規,0,2023-02-24,2023-02-24,株式会社フォースロジ,,株式会社,東京都,江東区,佐賀１丁目１番１２号,,13,108,1350031,,,,,,,2023-02-24,1,,,,,フォースロジ,0
1576,8010703006599,新規,0,2023-02-24,2023-02-24,合同会社Ｙ＆Ａ,,合同会社,東京都,品川区,大崎１丁目２０－４－２０１,,13,109,1410032,,,,,,,2023-02-24,1,,,,,ワイアンドエー,0
1577,8010705003479,新規,0,2023-02-24,2023-02-24,一般社団法人国土建設,,その他の設立登記法人,東京都,品川区,上大崎３丁目１番１号目黒セントラルスクエア１５階,,13,109,1410021,,,,,,,2023-02-24,1,,,,,コクドケンセツ,0
1578,8010801033710,新規,0,2023-02-24,2023-02-24,ツインハートメディカル株式会社,,株式会社,東京都,大田区,蒲田４丁目３７番１４号,,13,111,1440052,,,,,,,2023-02-24,1,,,,,ツインハートメディカル,0
1581,8011001152664,新規,0,2023-02-24,2023-02-24,株式会社ヒューマンブリリアンス,,株式会社,東京都,渋谷区,道玄坂１丁目１０番８号渋谷道玄坂東急ビル２Ｆ－Ｃ,,13,113,1500043,,,,,,,2023-02-24,1,,,,,ヒューマンブリリアンス,0
1582,8011001152680,新規,0,2023-02-24,2023-02-24,日本ＢＩＭ標準機構株式会社,,株式会社,東京都,渋谷区,渋谷２丁目１０番１５号１０１号室,,13,113,1500002,,,,,,,2023-02-24,1,,,,,ニホンビムヒョウジュンキコウ,0
1583,8011001152722,新規,0,2023-02-24,2023-02-24,株式会社Ｗｉｎｋ　Ｍａｇｉｃ,,株式会社,東京都,渋谷区,神泉町１０番１５号アネックス神泉３０１,,13,113,1500045,,,,,,,2023-02-24,1,,,,,ウィンクマジック,0
1584,8011001152730,新規,0,2023-02-24,2023-02-24,株式会社ＩＴ‐ｅｎｔｒａｎｃｅ,,株式会社,東京都,渋谷区,円山町５－５Ｎａｖｉ渋谷Ｖ３階,,13,113,1500044,,,,,,,2023-02-24,1,,,,,アイティーエントランス,0
1585,8011001152747,新規,0,2023-02-24,2023-02-24,株式会社ＳＩＶ,,株式会社,東京都,渋谷区,恵比寿南２丁目１４番８号ドミールベルチェリー１０２,,13,113,1500022,,,,,,,2023-02-24,1,,,,,シブイ,0
1586,8011001152763,新規,0,2023-02-24,2023-02-24,株式会社ルジール,,株式会社,東京都,渋谷区,千駄ヶ谷１丁目９番１１号フレンシア外苑西２０５,,13,113,1510051,,,,,,,2023-02-24,1,,,,,ルジール,0
1587,8011001152771,新規,0,2023-02-24,2023-02-24,株式会社ｂｅｅｓ,,株式会社,東京都,渋谷区,東１丁目２６番３２号,,13,113,1500011,,,,,,,2023-02-24,1,,,,,ビーズ,0
1593,8011101101934,新規,0,2023-02-24,2023-02-24,株式会社レオ,,株式会社,東京都,新宿区,下落合２丁目１９番５号,,13,104,1610033,,,,,,,2023-02-24,1,,,,,レオ,0
1594,8011101101942,新規,0,2023-02-24,2023-02-24,株式会社ＫＥＹＳＨＵ,,株式会社,東京都,新宿区,西新宿３丁目３番１３号西新宿水間ビル６階,,13,104,1600023,,,,,,,2023-02-24,1,,,,,キーシュ,0
1596,8011601026607,新規,0,2023-02-24,2023-02-24,株式会社グットライフホーム,,株式会社,東京都,練馬区,豊玉北１丁目６番２－３０１号,,13,120,1760012,,,,,,,2023-02-24,1,,,,,グットライフホーム,0
1597,8011603003835,新規,0,2023-02-24,2023-02-24,ペーパークラフト合同会社,,合同会社,東京都,練馬区,早宮４丁目１９番１５－４０４号,,13,120,1790085,,,,,,,2023-02-24,1,,,,,ペーパークラフト,0
1602,8012401040186,新規,0,2023-02-24,2023-02-24,ハイランド・クリーク株式会社,,株式会社,東京都,武蔵野市,吉祥寺本町１丁目２０－１,,13,203,1800004,,,,,,,2023-02-24,1,,,,,ハイランドクリーク,0
1610,8020001150388,新規,0,2023-02-24,2023-02-24,株式会社ＦＡＩＲ　ＪＡＰＡＮ,,株式会社,神奈川県,横浜市都筑区,勝田南２丁目２番２４－３０２号,,14,118,2240036,,,,,,,2023-02-24,1,,,,,フェアジャパン,0
1613,8020003023393,新規,0,2023-02-24,2023-02-24,合同会社ＳＫＧｓ,,合同会社,神奈川県,川崎市多摩区,菅仙谷１丁目１０番３８－１号,,14,135,2140006,,,,,,,2023-02-24,1,,,,,エスケージーズ,0
1615,8021001078264,新規,0,2023-02-24,2023-02-24,ＳＰサポーターズ株式会社,,株式会社,神奈川県,座間市,入谷西３丁目２４番９号,,14,216,2520029,,,,,,,2023-02-24,1,,,,,エスピーサポーターズ,0
1626,8030003021231,新規,0,2023-02-24,2023-02-24,ＭＥＥＤＵＭＩ　ＥＮＴＥＲＰＲＩＳＥＳ　ＪＡＰＡＮ合同会社,,合同会社,埼玉県,坂戸市,花影町７番２５号ＫＩＶオフィス花影Ｅ号室,,11,239,3500236,,,,,,,2023-02-24,1,,,,,ミードゥミエンタープライズジャパン,0
1630,8040001127203,新規,0,2023-02-24,2023-02-24,京英ホールディングス株式会社,,株式会社,千葉県,市原市,五井５９２３番地１,,12,219,2900056,,,,,,,2023-02-24,1,,,,,キョウエイホールディングス,0
1635,8040003021998,新規,0,2023-02-24,2023-02-24,ＤＪＭＡＣ合同会社,,合同会社,千葉県,浦安市,明海６丁目１番１２号,,12,227,2790014,,,,,,,2023-02-24,1,,,,,ディージェーマック,0
1639,8050001052441,新規,0,2023-02-24,2023-02-24,ゴールドファミリーバンク株式会社,,株式会社,茨城県,水戸市,上水戸４丁目５番１号,,08,201,3100041,,,,,,,2023-02-24,1,,,,,ゴールドファミリーバンク,0
1646,8090003002259,新規,0,2023-02-24,2023-02-24,合同会社Ｐｏｋｋａｃｈａｎ,,合同会社,山梨県,北杜市,小淵沢町上笹尾３３３２－１５１０,,19,209,4080041,,,,,,,2023-02-24,1,,,,,ポッカチャン,0
1648,8100001036174,新規,0,2023-02-24,2023-02-24,トレンス株式会社,,株式会社,長野県,安曇野市,穂高有明７７４４番地５１,,20,220,3998301,,,,,,,2023-02-24,1,,,,,トレンス,0
1649,8110003004987,新規,0,2023-02-24,2023-02-24,合同会社みのり,,合同会社,新潟県,上越市,柿崎区上下浜１６３２番地のサ,,15,222,9493255,,,,,,,2023-02-24,1,,,,,ミノリ,0
1660,8120001252653,新規,0,2023-02-24,2023-02-24,株式会社ＣＤＣ,,株式会社,大阪府,大阪市中央区,南船場４丁目１３－１１,,27,128,5420081,,,,,,,2023-02-24,1,,,,,シーディーシー,0
1661,8120001252678,新規,0,2023-02-24,2023-02-24,ＪＡＣ通商株式会社,,株式会社,大阪府,大阪市北区,豊崎５丁目７番１５－２１０号,,27,127,5310072,,,,,,,2023-02-24,1,,,,,ジェイエイシーツウショウ,0
1663,8120003023508,新規,0,2023-02-24,2023-02-24,Ｆ‐ＦＩＥＬＤ　ＮＥＴＷＯＲＫＳ合同会社,,合同会社,大阪府,大阪市北区,梅田１丁目２番２号大阪駅前第２ビル１２－１２,,27,127,5300001,,,,,,,2023-02-24,1,,,,,エフフィールドネットワークス,0
1671,8130001073735,新規,0,2023-02-24,2023-02-24,株式会社ＷＥＬＬＭＡＮ‐ＥＲＡ,,株式会社,京都府,京都市上京区,黒門通中立売下る榎町３９０番地１ウエストスクエア５０１,,26,102,6028251,,,,,,,2023-02-24,1,,,,,ウェルマンエラ,0
1676,8140001129197,新規,0,2023-02-24,2023-02-24,ビッグウエスト株式会社,,株式会社,兵庫県,姫路市,東山６８６番地７,,28,201,6728014,,,,,,,2023-02-24,1,,,,,ビッグウエスト,0
1677,8140003018753,新規,0,2023-02-24,2023-02-24,合同会社リクシワ,,合同会社,兵庫県,三田市,中町７番１４号,,28,219,6691527,,,,,,,2023-02-24,1,,,,,リクシワ,0
1680,8150001026187,新規,0,2023-02-24,2023-02-24,株式会社ＮＳＴ,,株式会社,奈良県,大和高田市,大字神楽１１２－１,,29,202,6350026,,,,,,,2023-02-24,1,,,,,エヌエスティー,0
1691,8180001155025,新規,0,2023-02-24,2023-02-24,株式会社三ツ星物産,,株式会社,愛知県,名古屋市南区,堤起町２丁目２８番地の１,,23,112,4570825,,,,,,,2023-02-24,1,,,,,ミツボシブッサン,0
1692,8180001155066,新規,0,2023-02-24,2023-02-24,株式会社富士マテリア,,株式会社,愛知県,尾張旭市,北本地ケ原町４丁目４５番地,,23,226,4880043,,,,,,,2023-02-24,1,,,,,フジマテリア,0
1693,8180001155082,新規,0,2023-02-24,2023-02-24,株式会社コウホウボウ商事,,株式会社,愛知県,名古屋市東区,徳川町１９０９番地コンミュベルス４０３号,,23,102,4610023,,,,,,,2023-02-24,1,,,,,コウホウボウショウジ,0
1694,8180001155099,新規,0,2023-02-24,2023-02-24,株式会社サンク,,株式会社,愛知県,名古屋市守山区,苗代２丁目４番２７号,,23,113,4630046,,,,,,,2023-02-24,1,,,,,サンク,0
1695,8180003024871,新規,0,2023-02-24,2023-02-24,コトネ合同会社,,合同会社,愛知県,名古屋市東区,泉１丁目２１番２４号プラウド久屋大通７０４,,23,102,4610001,,,,,,,2023-02-24,1,,,,,コトネ,0
1701,8200001040991,新規,0,2023-02-24,2023-02-24,ＣｒｏｗｄＧｒｅｅｎ株式会社,,株式会社,岐阜県,岐阜市,萱場南３丁目３番７号,,21,201,5020936,,,,,,,2023-02-24,1,,,,,クラウドグリーン,0
1705,8230005009279,新規,0,2023-02-24,2023-02-24,農事組合法人島尾営農組合,,その他の設立登記法人,富山県,氷見市,島尾７７８番地,,16,205,9350032,,,,,,,2023-02-24,1,,,,,シマオエイノウクミアイ,0
1710,8260003004213,新規,0,2023-02-24,2023-02-24,合同会社シントリア,,合同会社,岡山県,岡山市北区,田町２丁目１４番４号,,33,101,7000825,,,,,,,2023-02-24,1,,,,,シントリア,0
1721,8290001100647,新規,0,2023-02-24,2023-02-24,株式会社アスクム,,株式会社,福岡県,糟屋郡志免町,片峰中央２丁目３番１０号,,40,343,8112246,,,,,,,2023-02-24,1,,,,,アスクム,0
1724,8290801029301,新規,0,2023-02-24,2023-02-24,株式会社ドラゴンフライ,,株式会社,福岡県,北九州市小倉北区,上富野３丁目８番９号,,40,106,8020022,,,,,,,2023-02-24,1,,,,,ドラゴンフライ,0
1727,8320001019586,新規,0,2023-02-24,2023-02-24,株式会社ケイビス,,株式会社,大分県,大分市,大字曲１１３０番地の７,,44,201,8700946,,,,,,,2023-02-24,1,,,,,ケイビス,0
1731,8330001030625,新規,0,2023-02-24,2023-02-24,株式会社颯爽,,株式会社,熊本県,熊本市中央区,本荘６丁目２番２号オン・スクエア本荘,,43,101,8600811,,,,,,,2023-02-24,1,,,,,サッソウ,0
1735,8350001018197,新規,0,2023-02-24,2023-02-24,株式会社カラー,,株式会社,宮崎県,西都市,大字下三財７７８０番地１,,45,208,8810113,,,,,,,2023-02-24,1,,,,,カラー,0
1750,8380003005397,新規,0,2023-02-24,2023-02-24,合同会社ＷＩサポート,,合同会社,福島県,いわき市,小名浜字田ノ入１番地ヤノビル３階,,07,204,9718101,,,,,,,2023-02-24,1,,,,,ダブルアイサポート,0
1751,8380005012680,新規,0,2023-02-24,2023-02-24,一般社団法人原ドリームコミュニティ,,その他の設立登記法人,福島県,西白河郡泉崎村,大字泉崎字愛宕山２５番地,,07,464,9690101,,,,,,,2023-02-24,1,,,,,,0
1763,8700150114496,新規,0,2023-02-24,2023-02-24,ＰＬＡＴＩＮＵＭ　ＨＯＵＳＥ　ＰＴＥ．ＬＴＤ．,,外国会社等,東京都,千代田区,霞が関３丁目２番５号,,13,101,1000013,シンガポール共和国２３８１６４サマーセット１１１サマーセット通り♯０７－０７,,,,,,2023-02-24,1,,,,,プラチナムハウスピーテイーイーエルテイーデイー,0
1766,9010001233234,新規,0,2023-02-24,2023-02-24,株式会社ＹＵＫＩ,,株式会社,東京都,中央区,日本橋茅場町２丁目２番１２－２０２号,,13,102,1030025,,,,,,,2023-02-24,1,,,,,ユウキ,0
1767,9010001233267,新規,0,2023-02-24,2023-02-24,株式会社Ｍａｎａｔｅｅ,,株式会社,東京都,中央区,銀座１丁目１２番４号Ｎ＆ＥＢＬＤ．６Ｆ,,13,102,1040061,,,,,,,2023-02-24,1,,,,,マナティー,0
1768,9010001233300,新規,0,2023-02-24,2023-02-24,株式会社インターナルオーディット,,株式会社,東京都,千代田区,神田神保町１丁目７番地１５源興號ビル５階,,13,101,1010051,,,,,,,2023-02-24,1,,,,,インターナルオーディット,0
1774,9010005036278,新規,0,2023-02-24,2023-02-24,弁理士法人アクセル特許事務所,,その他の設立登記法人,東京都,中央区,銀座１丁目２２番１１号銀座大竹ビジデンス,,13,102,1040061,,,,,,,2023-02-24,1,,,,,アクセルトッキョジムショ,0
1779,9010401172544,新規,0,2023-02-24,2023-02-24,株式会社ＱＷＥＲＴＹ,,株式会社,東京都,港区,赤坂８丁目４番１４号青山タワープレイス８階,,13,103,1070052,,,,,,,2023-02-24,1,,,,,クワーティ,0
1780,9010401172684,新規,0,2023-02-24,2023-02-24,株式会社バックオフィストウキョー,,株式会社,東京都,港区,南青山４丁目１７－３３,,13,103,1070062,,,,,,,2023-02-24,1,,,,,バックオフィストウキョー,0
1792,9010701043890,新規,0,2023-02-24,2023-02-24,株式会社ＤＮＳカンパニー,,株式会社,東京都,品川区,北品川４丁目７番２５号,,13,109,1400001,,,,,,,2023-02-24,1,,,,,ディエヌエスカンパニー,0
1796,9010703006598,新規,0,2023-02-24,2023-02-24,ヒューマンクラウド合同会社,,合同会社,東京都,品川区,上大崎４丁目１番１－２００３号,,13,109,1410021,,,,,,,2023-02-24,1,,,,,ヒューマンクラウド,0
1806,9011001152738,新規,0,2023-02-24,2023-02-24,株式会社デライト・キャピタル,,株式会社,東京都,渋谷区,円山町２８番１号渋谷道玄坂スカイビル１１Ｆ,,13,113,1500044,,,,,,,2023-02-24,1,,,,,デライトキャピタル,0
1807,9011001152746,新規,0,2023-02-24,2023-02-24,ＢＸ　ＪＡＰＡＮ株式会社,,株式会社,東京都,渋谷区,渋谷１丁目７－４青山小林ビル２Ｆ,,13,113,1500002,,,,,,,2023-02-24,1,,,,,ビーエックスジャパン,0
1808,9011001152787,新規,0,2023-02-24,2023-02-24,株式会社アトリア,,株式会社,東京都,渋谷区,神宮前６丁目２３番４号,,13,113,1500001,,,,,,,2023-02-24,1,,,,,アトリア,0
1809,9011001152804,新規,0,2023-02-24,2023-02-24,株式会社ティーマネジメント,,株式会社,東京都,渋谷区,恵比寿南２丁目２８－４グランメール恵比寿３０３,,13,113,1500022,,,,,,,2023-02-24,1,,,,,ティーマネジメント,0
1815,9011101101925,新規,0,2023-02-24,2023-02-24,株式会社Ｒｅ‐ｖｉｖ,,株式会社,東京都,新宿区,河田町３番１０号３Ｆ,,13,104,1620054,,,,,,,2023-02-24,1,,,,,リバイブ,0
1816,9011101101933,新規,0,2023-02-24,2023-02-24,株式会社エムロード,,株式会社,東京都,新宿区,新宿７丁目２６番３－４０３号,,13,104,1600022,,,,,,,2023-02-24,1,,,,,エムロード,0
1817,9011103012740,新規,0,2023-02-24,2023-02-24,埼玉米山会計合同会社,,合同会社,東京都,新宿区,西新宿３丁目３番１３号西新宿水間ビル６階,,13,104,1600023,,,,,,,2023-02-24,1,,,,,サイタマヨネヤマカイケイ,0
1828,9012403005830,新規,0,2023-02-24,2023-02-24,合同会社Ｋ＆Ｍ,,合同会社,東京都,三鷹市,牟礼３丁目９番６－１２１号,,13,204,1810002,,,,,,,2023-02-24,1,,,,,ケーアンドエム,0
1829,9012701017494,新規,0,2023-02-24,2023-02-24,木水株式会社,,株式会社,東京都,東久留米市,浅間町３丁目２番９号パレスひばりが丘２０１号,,13,222,2030012,,,,,,,2023-02-24,1,,,,,キミズ,0
1830,9012705002344,新規,0,2023-02-24,2023-02-24,一般社団法人ソーシャル・ヘルスケア協会,,その他の設立登記法人,東京都,西東京市,柳沢５丁目２番３２－５０６号,,13,229,2020022,,,,,,,2023-02-24,1,,,,,ソーシャルヘルスケアキョウカイ,0
1834,9020001150404,新規,0,2023-02-24,2023-02-24,株式会社ｒｕｎ　ｒｕｎ,,株式会社,神奈川県,川崎市川崎区,四谷上町１３番２５－１０１号,,14,131,2100828,,,,,,,2023-02-24,1,,,,,ルンルン,0
1835,9020001150412,新規,0,2023-02-24,2023-02-24,株式会社サンライズ,,株式会社,神奈川県,横浜市西区,北幸２丁目１０番地２８むつみビル３Ｆ,,14,103,2200004,,,,,,,2023-02-24,1,,,,,サンライズ,0
1844,9021001078230,新規,0,2023-02-24,2023-02-24,ＨＡＹＡＭＡ株式会社,,株式会社,神奈川県,大和市,深見台１丁目６番１－９１４号,,14,213,2420013,,,,,,,2023-02-24,1,,,,,ハヤマ,0
1852,9030001152507,新規,0,2023-02-24,2023-02-24,株式会社Ｎｕｔｓ,,株式会社,埼玉県,坂戸市,大字浅羽１４９４番地３,,11,239,3500238,,,,,,,2023-02-24,1,,,,,ナッツ,0
1861,9040001127193,新規,0,2023-02-24,2023-02-24,株式会社悠愛シニアサポート,,株式会社,千葉県,千葉市中央区,登戸１丁目１－７－２Ｆ,,12,101,2600032,,,,,,,2023-02-24,1,,,,,ユウアイシニアサポート,0
1865,9040003022005,新規,0,2023-02-24,2023-02-24,合同会社デイジー,,合同会社,千葉県,印旛郡酒々井町,中央台１丁目６－１３Ｃ号室,,12,322,2850922,,,,,,,2023-02-24,1,,,,,デイジー,0
1866,9040003022021,新規,0,2023-02-24,2023-02-24,ＣＨＩＢＡ　ＮＲＭ　ＬＡＮＫＡ　ＥＮＴＥＲＰＲＩＳＥＳ合同会社,,合同会社,千葉県,山武市,大木６８９番地８６ハッピーハイツＡ,,12,237,2891211,,,,,,,2023-02-24,1,,,,,チバエヌアールエムランカエンタープライズ,0
1867,9040005021905,新規,0,2023-02-24,2023-02-24,金剛密寺,,その他の設立登記法人,千葉県,千葉市緑区,越智町７３７番地４３,,12,105,2670055,,,,,,,2023-02-24,1,,,,,コンゴウミツジ,0
1873,9050003007260,新規,0,2023-02-24,2023-02-24,Ｓ・Ｌ　ＡＵＴＯ　ＴＲＡＤＩＮＧ合同会社,,合同会社,茨城県,猿島郡境町,２１６５番地８,,08,546,3060433,,,,,,,2023-02-24,1,,,,,エスエルオートトレーディング,0
1881,9090003002258,新規,0,2023-02-24,2023-02-24,合同会社ＰＲカンパニー,,合同会社,山梨県,笛吹市,石和町四日市場１８０９,,19,211,4060032,,,,,,,2023-02-24,1,,,,,ピーアールカンパニー,0
1888,9110001037311,新規,0,2023-02-24,2023-02-24,株式会社佐藤電工,,株式会社,新潟県,三条市,南四日町２丁目４番１号,,15,204,9550852,,,,,,,2023-02-24,1,,,,,サトウデンコウ,0
1892,9120001252594,新規,0,2023-02-24,2023-02-24,株式会社Ｓｔｏｒｋｓ,,株式会社,大阪府,大阪市西区,北堀江３丁目８番１６号,,27,106,5500014,,,,,,,2023-02-24,1,,,,,ストークス,0
1893,9120001252644,新規,0,2023-02-24,2023-02-24,寺川介業株式会社,,株式会社,大阪府,大阪市東成区,大今里西１丁目２７番２号,,27,115,5370014,,,,,,,2023-02-24,1,,,,,テラカワカイギョウ,0
1894,9120001252693,新規,0,2023-02-24,2023-02-24,柔整鍼灸療術協会株式会社,,株式会社,大阪府,大阪市東淀川区,東中島１丁目２０番１２号,,27,114,5330033,,,,,,,2023-02-24,1,,,,,ジュウセイシンキュウリョウジュツキョウカイ,0
1895,9120001252727,新規,0,2023-02-24,2023-02-24,エイチ・ツー・オーコミュニケーションＮＥＸＴ株式会社,,株式会社,大阪府,大阪市北区,角田町８番７号,,27,127,5300017,,,,,,,2023-02-24,1,,,,,エイチツーオーコミュニケーションネクスト,0
1896,9120001252743,新規,0,2023-02-24,2023-02-24,株式会社Ｅ‐ＷＩＳＥ,,株式会社,大阪府,寝屋川市,田井町１６番２０号,,27,215,5720021,,,,,,,2023-02-24,1,,,,,イーワイズ,0
1897,9120001252768,新規,0,2023-02-24,2023-02-24,株式会社Ｃｏｍｆｏｒｔ　Ｓｔａｙ,,株式会社,大阪府,大阪市天王寺区,大道４丁目１番１号,,27,109,5430052,,,,,,,2023-02-24,1,,,,,コンフォートステイ,0
1898,9120001252776,新規,0,2023-02-24,2023-02-24,株式会社ｔｅｍｉｒｕ,,株式会社,大阪府,大阪市北区,梅田１丁目１番３－２００号,,27,127,5300001,,,,,,,2023-02-24,1,,,,,テミル,0
1900,9120003023481,新規,0,2023-02-24,2023-02-24,合同会社ティーエー,,合同会社,大阪府,大阪市中央区,中寺１丁目２番－２３－３０２号,,27,128,5420065,,,,,,,2023-02-24,1,,,,,ティーエー,0
1905,9120103005090,新規,0,2023-02-24,2023-02-24,合同会社キュアズ,,合同会社,大阪府,泉大津市,下条町１７番３１－３号,,27,206,5950027,,,,,,,2023-02-24,1,,,,,キュアズ,0
1924,9180001155065,新規,0,2023-02-24,2023-02-24,小景株式会社,,株式会社,愛知県,小牧市,久保一色南１丁目２４５番,,23,219,4850007,,,,,,,2023-02-24,1,,,,,ショウケイ,0
1925,9180001155081,新規,0,2023-02-24,2023-02-24,東和株式会社,,株式会社,愛知県,東海市,加木屋町東島田３番地の１,,23,222,4770032,,,,,,,2023-02-24,1,,,,,トウワ,0
1936,9190001030184,新規,0,2023-02-24,2023-02-24,ＣＯＬＯＭＢＯ　ＴＲＡＤＩＮＧ株式会社,,株式会社,三重県,鈴鹿市,上田町２２７３番地の１,,24,207,5130018,,,,,,,2023-02-24,1,,,,,コロンボトレーディング,0
1938,9200001040982,新規,0,2023-02-24,2023-02-24,アテナ株式会社,,株式会社,岐阜県,多治見市,宝町８丁目１５番地,,21,204,5070054,,,,,,,2023-02-24,1,,,,,アテナ,0
1942,9220003003457,新規,0,2023-02-24,2023-02-24,レッドホッグ合同会社,,合同会社,石川県,野々市市,稲荷２丁目１３２番地Ｂ‐１号室,,17,212,9218805,,,,,,,2023-02-24,1,,,,,レッドホッグ,0
1947,9230005009278,新規,0,2023-02-24,2023-02-24,一般社団法人日本海ガス絆ホールディングスグループ三星会,,その他の設立登記法人,富山県,富山市,城北町２番３６号,,16,201,9300854,,,,,,,2023-02-24,1,,,,,ニホンカイガスキズナホールディングスグループサンセイカイ,0
1954,9260003004212,新規,0,2023-02-24,2023-02-24,合同会社エステート大元,,合同会社,岡山県,岡山市北区,西古松１丁目１７番５号Ａ１０１,,33,101,7000927,,,,,,,2023-02-24,1,,,,,エステートオオモト,0
1959,9290003013565,新規,0,2023-02-24,2023-02-24,合同会社Ｍ４マネジメント,,合同会社,福岡県,糟屋郡篠栗町,大字尾仲８９７番地,,40,342,8112413,,,,,,,2023-02-24,1,,,,,エムフォーマネジメント,0
1961,9290005018959,新規,0,2023-02-24,2023-02-24,一般社団法人ぱるくんて,,その他の設立登記法人,福岡県,久留米市,大善寺町藤吉１１３番地８,,40,203,8300076,,,,,,,2023-02-24,1,,,,,パルクンテ,0
1962,9290803004350,新規,0,2023-02-24,2023-02-24,合同会社ピーノランド,,合同会社,福岡県,行橋市,西宮市２丁目３番１－３０２号,,40,213,8240031,,,,,,,2023-02-24,1,,,,,ピーノランド,0
1967,9320005010053,新規,0,2023-02-24,2023-02-24,無限責任入蔵第参負債整理組合,,その他の設立登記法人,大分県,大分市,大字入蔵１７０番地,,44,201,8701202,,,,,,,2023-02-24,1,,,,,,0
1970,9330001030624,新規,0,2023-02-24,2023-02-24,株式会社ＴＡＩＧＡ,,株式会社,熊本県,熊本市東区,榎町１５番３４号,,43,102,8620917,,,,,,,2023-02-24,1,,,,,タイガ,0
1977,9360001031603,新規,0,2023-02-24,2023-02-24,株式会社ＭｉＨ,,株式会社,沖縄県,那覇市,牧志２丁目１７－２７－４０１,,47,201,9000013,,,,,,,2023-02-24,1,,,,,エムアイエイチ,0
1978,9370001049636,新規,0,2023-02-24,2023-02-24,株式会社ＨａｒｕＭｏｅ,,株式会社,宮城県,仙台市青葉区,一番町２丁目９番２８－１０１０号,,04,101,9800811,,,,,,,2023-02-24,1,,,,,ハルモエ,0
1987,9400003003034,新規,0,2023-02-24,2023-02-24,合同会社ＧＭ,,合同会社,岩手県,盛岡市,大通２丁目５番７号第一偕楽苑ビル２階,,03,201,0200022,,,,,,,2023-02-24,1,,,,,ジーエム,0
1995,9462501000944,新規,0,2023-02-24,2023-02-24,株式会社ＵＮＩＴＩＮＧ　ＷＯＲＬＤ２０３０,,株式会社,北海道,野付郡別海町,中春別２３番地３,,01,691,0860654,,,,,,,2023-02-24,1,,,,,ユナイティングワールドトゥエンティサーティ,0
1998,9700150114495,新規,0,2023-02-24,2023-02-24,ＳＡＭ　ＩＮＴＥＲＮＡＴＩＯＮＡＬ　ＴＲＡＤＩＮＧ　ＰＲＩＶＡＴＥ　ＬＩＭＩＴＥＤ　,,外国会社等,神奈川県,厚木市,及川２丁目２０番４３号伊勢宮ハイツ２０１,,14,212,2430212,スリランカ民主社会主義共和国、アクラナ、タラガハカンダ、Ｎｏ．１９７／Ａ,,,,,,2023-02-24,1,,,,,サムインターナシヨナルトレーデイングプライベートリミテツド,0
