sequenceNumber,corporateNumber,process,correct,updateDate,changeDate,name,nameImageId,kind,prefectureName,cityName,streetNumber,addressImageId,prefectureCode,cityCode,postCode,addressOutside,addressOutsideImageId,closeDate,closeCause,successorCorporateNumber,changeCause,assignmentDate,latest,enName,enPrefectureName,enCityName,enAddressOutside,furigana,hihyoji
2,1010001083298,登記記録の閉鎖等,0,2022-04-15,2022-04-08,ライフコミュニティ株式会社,,株式会社,東京都,千代田区,岩本町２丁目１番１０号神田ＮＫビル,,13,101,1010032,,,2022-04-08,合併による解散等,5120001086344,令和４年４月１日大阪市中央区難波五丁目１番６０号南海ビルサービス株式会社（5120001086344）に合併し解散,2015-10-05,1,,,,,ライフコミュニティ,0
28,1010601042785,登記記録の閉鎖等,0,2022-04-15,2022-04-12,株式会社サンクストレーディング,,株式会社,東京都,墨田区,両国４丁目３０番８号,,13,107,1300026,,,2022-04-12,合併による解散等,1180001034441,令和４年４月１日名古屋市中区橘一丁目１６番３７号ウチダ株式会社（1180001034441）に合併し解散,2015-10-05,1,,,,,サンクストレーディング,0
32,1010801002688,登記記録の閉鎖等,0,2022-04-15,2022-04-11,カネレイ株式会社,,株式会社,東京都,大田区,城南島５丁目１番１号,,13,111,1430002,,,2022-04-11,合併による解散等,4010401055118,令和４年４月１日東京都中央区銀座一丁目１０番６号銀座ファーストビル兼松食品株式会社（4010401055118）に合併し解散,2015-10-05,1,,,,,,0
43,1011001134000,登記記録の閉鎖等,0,2022-04-15,2022-04-01,株式会社Ｓｅｄｎａ　Ｈｅａｌｉｎｇ,,株式会社,東京都,渋谷区,神宮前６丁目５番６号サンポウ綜合ビル４０２,,13,113,1500001,,,2022-04-01,清算の結了等,,,2020-05-28,1,,,,,セドナヒーリング,0
48,1011003013680,登記記録の閉鎖等,0,2022-04-15,2022-04-01,リディファインダイニング合併準備合同会社,,合同会社,東京都,渋谷区,宇田川町３１番１号ＨＵＬＩＣ＆ＮｅｗＳＨＩＢＵＹＡ８Ｆ,,13,113,1500042,,,2022-04-01,合併による解散等,1011001113474,令和４年４月１日東京都渋谷区南平台町２－１２渋谷南平台久保ビル１０階株式会社リディファインダイニング（1011001113474）に合併し解散,2021-11-09,1,,,,,リディファインダイニングガッペイジュンビ,0
50,1011101014069,登記記録の閉鎖等,0,2022-04-15,2022-04-12,東神商事株式会社,,株式会社,東京都,新宿区,新宿１丁目３６番７号,,13,104,1600022,,,2022-04-12,合併による解散等,7011001138961,令和４年４月１日東京都渋谷区宇田川町３３番７号アイ・アンド・イー株式会社（7011001138961）に合併し解散,2015-10-05,1,,,,,トウシンショウジカブシキカイシャ,0
85,1020002021132,登記記録の閉鎖等,0,2022-04-15,2022-04-07,栗原運送有限会社,,有限会社,神奈川県,横浜市旭区,川井本町６９番地５,,14,112,2410803,,,2022-04-07,清算の結了等,,,2015-10-05,1,,,,,クリハラウンソウ,0
115,1040002092873,登記記録の閉鎖等,0,2022-04-15,2022-04-05,有限会社藤栄電業社,,有限会社,千葉県,我孫子市,天王台３丁目２６番１３号,,12,222,2701143,,,2022-04-05,清算の結了等,,,2015-10-05,1,,,,,トウエイデンギョウシャ,0
142,1110002033093,登記記録の閉鎖等,0,2022-04-15,2022-04-08,有限会社ちんらい,,有限会社,新潟県,南魚沼郡湯沢町,大字湯沢３５８番地４,,15,461,9496101,,,2022-04-08,清算の結了等,,,2015-10-05,1,,,,,チンライ,0
174,1120901011982,登記記録の閉鎖等,0,2022-04-15,2022-04-12,株式会社北摂オートバックス,,株式会社,大阪府,高槻市,大塚町１丁目２番６号,,27,207,5690034,,,2022-04-12,合併による解散等,4122001017288,令和４年４月１日大阪府四條畷市砂三丁目１４番１１号株式会社オートバックス関西販売（4122001017288）に合併し解散,2015-10-05,1,,,,,ホクセツオートバックス,0
177,1122001004355,登記記録の閉鎖等,0,2022-04-15,2022-04-04,ダイトー機販株式会社,,株式会社,大阪府,東大阪市,水走５丁目２番１３号,,27,227,5780921,,,2022-04-04,合併による解散等,5180001030627,令和４年４月１日名古屋市中村区名駅三丁目２８番１２号新東工業株式会社（5180001030627）に合併し解散,2015-10-05,1,,,,,ダイトーキハン,0
197,1140003009726,登記記録の閉鎖等,0,2022-04-15,2022-04-12,合同会社シエロ,,合同会社,兵庫県,神戸市兵庫区,大開通７丁目１番１４号,,28,105,6520803,,,2022-04-12,合併による解散等,3120901005173,令和４年４月１日大阪府吹田市江の木町１７番１号有信アクロス株式会社（3120901005173）に合併し解散,2015-10-05,1,,,,,シエロ,0
205,1180001087803,登記記録の閉鎖等,0,2022-04-15,2022-04-06,株式会社間瀬設備工業,,株式会社,愛知県,岩倉市,旭町２丁目３９番地の２,,23,228,4820024,,,2022-04-06,清算の結了等,,,2015-10-05,1,,,,,マセセツビコウギョウ,0
228,1250002017710,登記記録の閉鎖等,0,2022-04-15,2022-04-08,有限会社岩国芸城学院,,有限会社,広島県,大竹市,油見３丁目２０番１５号,,34,211,7390612,,,2022-04-08,清算の結了等,,,2015-10-05,1,,,,,イワクニゲイジョウガクイン,0
237,1290001065970,登記記録の閉鎖等,0,2022-04-15,2022-04-06,株式会社エヌストック,,株式会社,福岡県,福岡市東区,青葉３丁目３０番２号,,40,131,8130025,,,2022-04-06,清算の結了等,,,2015-10-05,1,,,,,エヌストック,0
238,1290002002881,登記記録の閉鎖等,0,2022-04-15,2022-04-06,有限会社トーア都市開発研究所,,有限会社,福岡県,福岡市南区,老司５丁目４２番６号,,40,134,8111346,,,2022-04-06,清算の結了等,,,2015-10-05,1,,,,,トーアトシカイハツケンキュウショ,0
252,1360001016974,登記記録の閉鎖等,0,2022-04-15,2022-04-04,株式会社太明,,株式会社,沖縄県,豊見城市,字平良８１番地１,,47,212,9010212,,,2022-04-04,清算の結了等,,,2015-10-05,1,,,,,タイメイ,0
290,2010002006661,登記記録の閉鎖等,0,2022-04-15,2022-04-04,有限会社ルピラート,,有限会社,東京都,文京区,小石川５丁目４番４号,,13,105,1120002,,,2022-04-04,清算の結了等,,,2015-10-05,1,,,,,ルピラート,0
297,2010401000240,登記記録の閉鎖等,0,2022-04-15,2022-03-31,株式会社リビエラプロパティマネジメント,,株式会社,東京都,港区,南青山３丁目３番３号,,13,103,1070062,,,2022-03-31,合併による解散等,2010401064797,令和４年３月３１日東京都港区南青山三丁目３番３号株式会社リビエラホールディングス（2010401064797）に合併し解散,2015-10-05,1,,,,,リビエラプロパティマネジメント,0
303,2010401149929,登記記録の閉鎖等,0,2022-04-15,2022-04-01,株式会社ＴＡＫＩ,,株式会社,東京都,港区,赤坂３丁目１４番１号,,13,103,1070052,,,2022-04-01,清算の結了等,,,2019-12-19,1,,,,,タキ,0
321,2010805000373,登記記録の閉鎖等,0,2022-04-15,2022-03-28,天理教本種分教会,,その他の設立登記法人,東京都,大田区,東六郷３丁目２番１１号,,13,111,1440046,,,2022-03-28,合併による解散等,4010605000448,令和４年３月２３日東京都墨田区本所一丁目１３番１７号天理教東本大教会（4010605000448）に合併し解散,2015-10-05,1,,,,,テンリキョウホンタネブンキョウカイ,0
352,2011601011696,登記記録の閉鎖等,0,2022-04-15,2022-04-13,クリアテクノ株式会社,,株式会社,東京都,練馬区,石神井町８丁目１８番１７号,,13,120,1770041,,,2022-04-13,清算の結了等,,,2015-10-05,1,,,,,,0
360,2013201015210,登記記録の閉鎖等,0,2022-04-15,2022-03-31,株式会社デザインファクトリー,,株式会社,東京都,渋谷区,猿楽町１２番３７号,,13,113,1500033,,,2022-03-31,合併による解散等,5013201014003,令和４年３月３１日東京都渋谷区猿楽町１２番３７号株式会社ヒットデザインワークス（5013201014003）に合併し解散,2015-10-05,1,,,,,デザインファクトリー,0
362,2013301030893,登記記録の閉鎖等,0,2022-04-15,2022-04-11,株式会社協立ケアサービス,,株式会社,東京都,豊島区,巣鴨１丁目２４番３号小島ビル１階,,13,116,1700002,,,2022-04-11,清算の結了等,,,2015-10-05,1,,,,,キョウリツケアサービス,0
374,2020002046120,登記記録の閉鎖等,0,2022-04-15,2022-04-06,有限会社ロンフォン,,有限会社,神奈川県,横浜市中区,山下町１３１番地,,14,104,2310023,,,2022-04-06,清算の結了等,,,2015-10-05,1,,,,,ロンフォン,0
391,2040001045443,登記記録の閉鎖等,0,2022-04-15,2022-04-06,株式会社トランスポートセキヤ,,株式会社,千葉県,印西市,大森２５１３番地１１レッツパレス２－２０２号,,12,231,2701327,,,2022-04-06,清算の結了等,,,2015-10-05,1,,,,,トランスポートセキヤ,0
414,2110001003014,登記記録の閉鎖等,0,2022-04-15,2022-04-07,大正興産株式会社,,株式会社,新潟県,新潟市江南区,下早通２丁目５番１０号,,15,104,9500149,,,2022-04-07,合併による解散等,3110001000976,令和４年４月１日新潟市江南区下早通二丁目５番１０号北日本水研株式会社（3110001000976）に合併し解散,2015-10-05,1,,,,,タイショウコウサン,0
428,2120001182906,登記記録の閉鎖等,0,2022-04-15,2022-04-08,株式会社フジキンホールディングス,,株式会社,大阪府,大阪市北区,大深町３番４０－４３０２号,,27,127,5300011,,,2022-04-08,清算の結了等,,,2015-10-05,1,,,,,フジキンホールディングス,0
432,2120001218379,登記記録の閉鎖等,0,2022-04-15,2022-04-06,華庄電子株式会社,,株式会社,大阪府,大阪市中央区,本町２丁目５番７号メットライフ本町スクエア１Ｆ,,27,128,5410053,,,2022-04-06,清算の結了等,,,2019-01-22,1,,,,,カショウデンシ,0
449,2130001021063,登記記録の閉鎖等,0,2022-04-15,2022-04-04,島津エス・ディー株式会社,,株式会社,京都府,京都市中京区,西ノ京徳大寺町１番地,,26,104,6048445,,,2022-04-04,合併による解散等,1130001021064,令和４年４月１日京都市中京区西ノ京徳大寺町１番地島津トラステック株式会社（1130001021064）に合併し解散,2015-10-05,1,,,,,シマヅエスディー,0
471,2170001001235,登記記録の閉鎖等,0,2022-04-15,2022-04-11,広陽株式会社,,株式会社,和歌山県,和歌山市,野崎１５１番地,,30,201,6408402,,,2022-04-11,清算の結了等,,,2015-10-05,1,,,,,コウヨウ,0
474,2180001062862,登記記録の閉鎖等,0,2022-04-15,2022-04-04,株式会社ＡＣＴ,,株式会社,愛知県,名古屋市中川区,八剱町３丁目９９番地の５,,23,110,4540054,,,2022-04-04,清算の結了等,,,2015-10-05,1,,,,,,0
505,2320001009403,登記記録の閉鎖等,0,2022-04-15,2022-04-11,株式会社アクアファーム,,株式会社,大分県,佐伯市,上浦大字最勝海浦３６２０番地の７,,44,205,8792603,,,2022-04-11,合併による解散等,5340001006585,令和４年４月１日鹿児島市黒神町２５８７番地４３株式会社マルハニチロＡＱＵＡ（5340001006585）に合併し解散,2015-10-05,1,,,,,アクアファーム,0
506,2320002005698,登記記録の閉鎖等,0,2022-04-15,2022-04-06,有限会社ヒロコ,,有限会社,大分県,大分市,大字駄原１８０１番地の１５,,44,201,8700100,,,2022-04-06,清算の結了等,,,2015-10-05,1,,,,,ヒロコ,0
526,2390001011162,登記記録の閉鎖等,0,2022-04-15,2022-04-07,株式会社富士不動産,,株式会社,山形県,長井市,四ツ谷２丁目１番３１号,,06,209,9930015,,,2022-04-07,清算の結了等,,,2015-10-05,1,,,,,フジフドウサン,0
585,3010405010037,登記記録の閉鎖等,0,2022-04-15,2022-04-01,一般社団法人日本シニアホールディングス,,その他の設立登記法人,東京都,港区,虎ノ門４丁目３番１号城山トラストタワー３３階,,13,103,1050001,,,2022-04-01,清算の結了等,,,2015-10-05,1,,,,,ニホンシニアホールディングス,0
602,3011002027580,登記記録の閉鎖等,0,2022-04-15,2022-04-11,有限会社あお,,有限会社,兵庫県,尼崎市,塚口町１丁目１０番地の４ブランズ塚口町一丁目３０２号,,28,202,6610002,,,2022-04-11,清算の結了等,,,2015-10-05,1,,,,,アオ,0
606,3011101097211,登記記録の閉鎖等,0,2022-04-15,2022-04-11,ＯＯＨＬ株式会社,,株式会社,東京都,新宿区,四谷４丁目３３番２号,,13,104,1600004,,,2022-04-11,清算の結了等,,,2021-12-20,1,,,,,オール,0
609,3011102008349,登記記録の閉鎖等,0,2022-04-15,2022-04-11,有限会社土屋材木店,,有限会社,東京都,新宿区,若松町６番８号,,13,104,1620056,,,2022-04-11,清算の結了等,,,2015-10-05,1,,,,,ツチヤザイモクテン,0
623,3011802008904,登記記録の閉鎖等,0,2022-04-15,2022-04-07,アート商事有限会社,,有限会社,東京都,足立区,神明３丁目１４番２号,,13,121,1210051,,,2022-04-07,清算の結了等,,,2015-10-05,1,,,,,アートショウジ,0
630,3013301013393,登記記録の閉鎖等,0,2022-04-15,2022-04-01,株式会社西武プロパティーズ,,株式会社,東京都,豊島区,南池袋１丁目１６番１５号,,13,116,1710022,,,2022-04-01,合併による解散等,5013301022046,令和４年４月１日東京都豊島区南池袋一丁目１６番１５号株式会社西武リアルティソリューションズ（5013301022046）に合併し解散,2015-10-05,1,,,,,セイブプロパティーズ,0
632,3020001034496,登記記録の閉鎖等,0,2022-04-15,2022-04-12,ニッソーサービス株式会社,,株式会社,神奈川県,横浜市中区,山下町１９４番地,,14,104,2310023,,,2022-04-12,合併による解散等,9011001017676,令和４年４月１日東京都渋谷区神宮前二丁目２１番９号ヒトトヒト株式会社（9011001017676）に合併し解散,2015-10-05,1,,,,,ニッソーサービス,0
650,3030001144716,登記記録の閉鎖等,0,2022-04-15,2022-04-08,株式会社Ｉｍａｇｉｎｅ　Ｄｅ　Ｗｏｒｌｄ　Ｊａｐａｎ,,株式会社,埼玉県,さいたま市桜区,栄和４丁目２番４号,,11,106,3380823,,,2022-04-08,清算の結了等,,,2021-10-07,1,,,,,イマジンデワールドジャパン,0
653,3030002063618,登記記録の閉鎖等,0,2022-04-15,2022-03-31,有限会社富晴商事,,有限会社,埼玉県,富士見市,針ケ谷１丁目１３番地１,,11,235,3540017,,,2022-03-31,清算の結了等,,,2015-10-05,1,,,,,トミセイショウジ,0
662,3040001095438,登記記録の閉鎖等,0,2022-04-15,2022-04-11,株式会社シーコスメ,,株式会社,東京都,武蔵野市,西久保２丁目２－３,,13,203,1800013,,,2022-04-11,清算の結了等,,,2016-05-30,1,,,,,シーコスメ,0
664,3040002043809,登記記録の閉鎖等,0,2022-04-15,2022-04-12,有限会社商店街情報センター,,有限会社,千葉県,市川市,大和田３丁目１７番１１号,,12,203,2720025,,,2022-04-12,清算の結了等,,,2015-10-05,1,,,,,ショウテンガイジョウホウセンター,0
673,3050001003093,登記記録の閉鎖等,0,2022-04-15,2022-04-06,株式会社モトーレン・アイ＆エフ,,株式会社,茨城県,水戸市,吉沢町１０１６番地１,,08,201,3100845,,,2022-04-06,清算の結了等,,,2015-10-05,1,,,,,モトーレンアイアンドエフ,0
675,3050001015650,登記記録の閉鎖等,0,2022-04-15,2022-04-06,株式会社桜造園土木,,株式会社,茨城県,つくば市,栗原３５１７番地,,08,220,3050001,,,2022-04-06,清算の結了等,,,2015-10-05,1,,,,,サクラゾウエンドボク,0
685,3080002004014,登記記録の閉鎖等,0,2022-04-15,2022-04-13,有限会社ティーエスシー,,有限会社,静岡県,静岡市葵区,松富１丁目１番５－２０４号,,22,101,4200941,,,2022-04-13,清算の結了等,,,2015-10-05,1,,,,,ティーエスシー,0
702,3120001165645,登記記録の閉鎖等,0,2022-04-15,2022-04-05,株式会社ナカムラ,,株式会社,大阪府,大阪市生野区,巽南１丁目１３番１６号,00029578,27,116,5440015,,,2022-04-05,清算の結了等,,,2015-10-05,1,,,,,ナカムラ,0
704,3120001176485,登記記録の閉鎖等,0,2022-04-15,2022-04-13,株式会社テザック神鋼ワイヤロープ,,株式会社,大阪府,大阪市中央区,北浜２丁目６番１８号,,27,128,5410041,,,2022-04-13,合併による解散等,2140001049112,令和４年４月１日兵庫県尼崎市中浜町１０番地１神鋼鋼線工業株式会社（2140001049112）に合併し解散,2015-10-05,1,,,,,,0
705,3120001179389,登記記録の閉鎖等,0,2022-04-15,2022-04-06,株式会社ライブオン,,株式会社,大阪府,大阪市西区,江戸堀１丁目６－１７－３６０６,,27,106,5500002,,,2022-04-06,清算の結了等,,,2015-10-05,1,,,,,ライブオン,0
722,3122001015160,登記記録の閉鎖等,0,2022-04-15,2022-04-05,株式会社大宮工務店,,株式会社,大阪府,大東市,灰塚５丁目９番２８号,,27,218,5740043,,,2022-04-05,清算の結了等,,,2015-10-05,1,,,,,オオミヤコウムテン,0
724,3122002011539,登記記録の閉鎖等,0,2022-04-15,2022-04-08,有限会社ビューティトレイド,,有限会社,大阪府,大東市,北条１丁目１番６号,,27,218,5740011,,,2022-04-08,清算の結了等,,,2015-10-05,1,,,,,ビューティトレイド,0
731,3140001025401,登記記録の閉鎖等,0,2022-04-15,2022-04-08,株式会社神戸中小企業サービスセンター,,株式会社,兵庫県,神戸市中央区,栄町通６丁目１番１７－２０２号,,28,110,6500023,,,2022-04-08,清算の結了等,,,2015-10-05,1,,,,,コウベチュウショウキギョウサービスセンター,0
744,3180001003031,登記記録の閉鎖等,0,2022-04-15,2022-04-11,明興電機株式会社,,株式会社,愛知県,名古屋市名東区,よもぎ台１丁目１１１０番地の１,,23,115,4650091,,,2022-04-11,合併による解散等,6120001066568,令和４年４月１日大阪市北区天神橋八丁目９番１３号株式会社大成商会（6120001066568）に合併し解散,2015-10-05,1,,,,,メイコウデンキ,0
745,3180001007131,登記記録の閉鎖等,0,2022-04-15,2022-04-11,日名運輸株式会社,,株式会社,愛知県,名古屋市港区,一州町８６番地の１,,23,111,4550841,,,2022-04-11,合併による解散等,9190001014947,令和４年４月１日三重県四日市市富田三丁目２２番７９号三岐通運株式会社（9190001014947）に合併し解散,2015-10-05,1,,,,,ニチメイウンユ,0
751,3180001141038,登記記録の閉鎖等,0,2022-04-15,2022-04-01,株式会社エスエフ商事,,株式会社,愛知県,名古屋市天白区,原２丁目１２０５番地,,23,116,4680015,,,2022-04-01,合併による解散等,8180001023735,令和４年４月１日名古屋市天白区原二丁目１２０５番地鈴木産業株式会社（8180001023735）に合併し解散,2020-05-07,1,,,,,エスエフショウジ,0
757,3180302007796,登記記録の閉鎖等,0,2022-04-15,2022-04-06,有限会社シムカ,,有限会社,愛知県,豊橋市,石巻本町字萱野２９番地の１,,23,201,4411115,,,2022-04-06,清算の結了等,,,2015-10-05,1,,,,,シムカ,0
769,3230002002860,登記記録の閉鎖等,0,2022-04-15,2022-04-06,有限会社ビデオテクニカ,,有限会社,富山県,富山市,若竹町４丁目５番地,,16,201,9398181,,,2022-04-06,清算の結了等,,,2015-10-05,1,,,,,,0
774,3240002006712,登記記録の閉鎖等,0,2022-04-15,2022-04-11,有限会社中国新聞沼田販売所,,有限会社,広島県,広島市安佐南区,伴中央１丁目６番７号,,34,105,7313165,,,2022-04-11,清算の結了等,,,2015-10-05,1,,,,,チュウゴクシンブンヌマタハンバイショ,0
775,3260001018277,登記記録の閉鎖等,0,2022-04-15,2022-04-13,高松被服株式会社,,株式会社,岡山県,井原市,大江町３４５０番地の７,,33,207,7150023,,,2022-04-13,清算の結了等,,,2015-10-05,1,,,,,,0
776,3260001034588,登記記録の閉鎖等,0,2022-04-15,2022-04-14,株式会社まかねソフト,,株式会社,岡山県,岡山市北区,錦町５番１０号,,33,101,7000902,,,2022-04-14,清算の結了等,,,2020-08-05,1,,,,,マカネソフト,0
786,3290005013511,登記記録の閉鎖等,0,2022-04-15,2022-04-13,ＮＰＯ法人エデュアソシエ,,その他の設立登記法人,福岡県,福岡市早良区,次郎丸４丁目１０番５４－１０７号,,40,137,8140165,,,2022-04-13,清算の結了等,,,2015-10-05,1,,,,,エデュアソシエ,0
800,3340001018062,登記記録の閉鎖等,0,2022-04-15,2022-04-11,株式会社エナジードリーム,,株式会社,鹿児島県,鹿児島市,中央町８番地２,,46,201,8900053,,,2022-04-11,合併による解散等,4340001003385,令和４年４月１日鹿児島市中央町８番地２日本瓦斯株式会社（4340001003385）に合併し解散,2015-10-05,1,,,,,エナジードリーム,0
823,3430002030932,登記記録の閉鎖等,0,2022-04-15,2022-04-06,有限会社サンキュー,,有限会社,北海道,札幌市豊平区,豊平五条５丁目３番２０―１００２号,,01,105,0620905,,,2022-04-06,清算の結了等,,,2015-10-05,1,,,,,サンキュー,0
830,3500001008294,登記記録の閉鎖等,0,2022-04-15,2022-04-08,桐万長酒造株式会社,,株式会社,愛媛県,八幡浜市,保内町川之石３番耕地１１番地第３,,38,204,7960201,,,2022-04-08,清算の結了等,,,2015-10-05,1,,,,,キリマンチョウシュゾウ,0
837,4010001092817,登記記録の閉鎖等,0,2022-04-15,2022-04-01,アステラスグリーンサプライ株式会社,,株式会社,東京都,中央区,日本橋本町２丁目５番１号,,13,102,1030023,,,2022-04-01,合併による解散等,5010001034966,令和４年４月１日東京都中央区日本橋本町二丁目５番１号アステラス製薬株式会社（5010001034966）に合併し解散,2015-10-05,1,,,,,アステラスグリーンサプライ,0
844,4010001203175,登記記録の閉鎖等,0,2022-04-15,2022-04-01,Ｔｒｕｓｏｎａ株式会社,,株式会社,東京都,中央区,日本橋室町４丁目３番９号,,13,102,1030022,,,2022-04-01,清算の結了等,,,2019-08-09,1,,,,,トルソナ,0
847,4010003033959,登記記録の閉鎖等,0,2022-04-15,2022-04-04,Ｍ２合同会社,,合同会社,東京都,中央区,東日本橋２丁目２８番４号日本橋ＣＥＴビル２階,,13,102,1030004,,,2022-04-04,清算の結了等,,,2021-01-20,1,,,,,エムツー,0
852,4010401045218,登記記録の閉鎖等,0,2022-04-15,2022-04-13,株式会社ディー・ティー・ジャパン,,株式会社,東京都,墨田区,石原３丁目２番３号,,13,107,1300011,,,2022-04-13,合併による解散等,8050001050379,令和４年４月１日茨城県筑西市宮後字猫内２１９３番１メモリーテックつくば株式会社（8050001050379）に合併し解散,2015-10-05,1,,,,,ディーティージャパン,0
876,4010701032295,登記記録の閉鎖等,0,2022-04-15,2022-04-08,株式会社リレイション,,株式会社,東京都,新宿区,四谷本塩町３番３号,,13,104,1600003,,,2022-04-08,清算の結了等,,,2016-04-15,1,,,,,リレイション,0
883,4010902012716,登記記録の閉鎖等,0,2022-04-15,2022-04-11,有限会社ひろみ,,有限会社,東京都,世田谷区,上馬４丁目６番１４号,,13,112,1540011,,,2022-04-11,清算の結了等,,,2015-10-05,1,,,,,ヒロミ,0
888,4011001122431,登記記録の閉鎖等,0,2022-04-15,2022-04-11,株式会社アシェット・ブルー,,株式会社,東京都,世田谷区,上祖師谷１丁目１０番６号,,13,112,1570065,,,2022-04-11,清算の結了等,,,2018-06-01,1,,,,,アシェットブルー,0
897,4011401005558,登記記録の閉鎖等,0,2022-04-15,2022-04-13,株式会社古川工務店,,株式会社,東京都,板橋区,常盤台３丁目３２番１０号,,13,119,1740071,,,2022-04-13,清算の結了等,,,2015-10-05,1,,,,,,0
909,4011805002696,登記記録の閉鎖等,0,2022-04-15,2022-04-07,一般社団法人対外文化交流協会,,その他の設立登記法人,東京都,足立区,中川４丁目１９番５－２０５号,,13,121,1200002,,,2022-04-07,清算の結了等,,,2017-08-01,1,,,,,タイガイブンカコウリュウキョウカイ,0
911,4012305001841,登記記録の閉鎖等,0,2022-04-15,2022-04-08,一般社団法人ＱＵＩＬＴＢＡＧ’ｓサポートセンター,,その他の設立登記法人,東京都,町田市,小山田桜台１丁目１６番地８９－１,,13,209,1940204,,,2022-04-08,清算の結了等,,,2018-06-21,1,,,,,キルトバッグズサポートセンター,0
914,4012401031528,登記記録の閉鎖等,0,2022-04-15,2022-04-06,株式会社美しくみせる家電の法則社,,株式会社,東京都,三鷹市,牟礼６丁目１８番１０号,,13,204,1810002,,,2022-04-06,清算の結了等,,,2016-06-15,1,,,,,ウツクシクミセルカデンノホウソクシャ,0
918,4013301030842,登記記録の閉鎖等,0,2022-04-15,2022-04-08,株式会社ＳＰＣ,,株式会社,埼玉県,熊谷市,筑波２丁目４９番１号,,11,202,3600037,,,2022-04-08,清算の結了等,,,2015-10-05,1,,,,,エスピーシー,0
939,4030001100643,登記記録の閉鎖等,0,2022-04-15,2022-04-08,株式会社ＴＨジャパン,,株式会社,埼玉県,さいたま市南区,文蔵２丁目２１番１－１０３号,,11,108,3360025,,,2022-04-08,清算の結了等,,,2015-10-05,1,,,,,ティエイチジャパン,0
946,4030002116036,登記記録の閉鎖等,0,2022-04-15,2022-03-29,有限会社寄居通商,,有限会社,埼玉県,大里郡寄居町,大字保田原２９７番地９,,11,408,3691221,,,2022-03-29,清算の結了等,,,2015-10-05,1,,,,,ヨリイツウショウ,0
959,4060001013181,登記記録の閉鎖等,0,2022-04-15,2022-04-11,株式会社日清畜産センター,,株式会社,栃木県,大田原市,湯津上３２７３番地,,09,210,3240403,,,2022-04-11,合併による解散等,4010001020182,令和４年４月１日東京都中央区日本橋室町四丁目５番１号ピクアジェネティクス株式会社（4010001020182）に合併し解散,2015-10-05,1,,,,,ニッシンチクサンセンター,0
973,4090001015456,登記記録の閉鎖等,0,2022-04-15,2022-04-11,株式会社ＭＯＴＴＯ,,株式会社,山梨県,甲府市,国母７丁目８番２８号コアプレイス４Ｆ,,19,201,4000043,,,2022-04-11,清算の結了等,,,2018-03-06,1,,,,,,0
975,4100002031517,登記記録の閉鎖等,0,2022-04-15,2022-04-11,株式会社ＴＢＫ,,株式会社,長野県,岡谷市,若宮２丁目５番５８号,,20,204,3940032,,,2022-04-11,清算の結了等,,,2015-10-05,1,,,,,ティービーケー,0
993,4120002053055,登記記録の閉鎖等,0,2022-04-15,2022-04-12,有限会社プロスパー,,有限会社,大阪府,堺市堺区,浅香山町３丁９番１２号,,27,141,5900012,,,2022-04-12,清算の結了等,,,2015-10-05,1,,,,,プロスパー,0
1004,4120102027487,登記記録の閉鎖等,0,2022-04-15,2022-04-12,有限会社オクムラ,,有限会社,大阪府,泉南市,樽井５丁目１６番１１号,,27,228,5900521,,,2022-04-12,清算の結了等,,,2015-10-05,1,,,,,オクムラ,0
1008,4122001002744,登記記録の閉鎖等,0,2022-04-15,2022-04-07,株式会社三彩工芸社,,株式会社,大阪府,東大阪市,柏田東町３番３１号,,27,227,5770833,,,2022-04-07,清算の結了等,,,2015-10-05,1,,,,,サンサイコウゲイシャ,0
1012,4130001034864,登記記録の閉鎖等,0,2022-04-15,2022-04-11,エムアイユニティー株式会社,,株式会社,京都府,南丹市,園部町横田１号７１番地,,26,213,6220051,,,2022-04-11,清算の結了等,,,2015-10-05,1,,,,,エムアイユニティー,0
1021,4140001056593,登記記録の閉鎖等,0,2022-04-15,2022-04-11,株式会社寿荘,,株式会社,兵庫県,美方郡新温泉町,湯１５６１番地の１,,28,586,6696821,,,2022-04-11,清算の結了等,,,2015-10-05,1,,,,,,0
1038,4180001056383,登記記録の閉鎖等,0,2022-04-15,2022-04-04,株式会社セッティング,,株式会社,愛知県,名古屋市中区,栄５丁目２１番３７号,,23,106,4600008,,,2022-04-04,清算の結了等,,,2015-10-05,1,,,,,セッティング,0
1061,4240001008287,登記記録の閉鎖等,0,2022-04-15,2022-04-11,株式会社二上銘木店,,株式会社,広島県,広島市中区,河原町６番１０号,,34,101,7300856,,,2022-04-11,清算の結了等,,,2015-10-05,1,,,,,ニウエメイボクテン,0
1089,4290801014199,登記記録の閉鎖等,0,2022-04-15,2022-04-01,谷弥商事株式会社,,株式会社,福岡県,直方市,神正町３番３２号,,40,204,8220023,,,2022-04-01,合併による解散等,8290801014179,令和４年４月１日福岡県直方市神正町３番３２号谷弥石油株式会社（8290801014179）に合併し解散,2015-10-05,1,,,,,タニヤショウジ,0
1090,4290802021376,登記記録の閉鎖等,0,2022-04-15,2022-04-07,有限会社喜楽荘,,有限会社,福岡県,宮若市,湯原１３９８番地,,40,226,8220121,,,2022-04-07,清算の結了等,,,2015-10-05,1,,,,,キラクソウ,0
1097,4330001005291,登記記録の閉鎖等,0,2022-04-15,2022-04-12,株式会社熊本オートバックス,,株式会社,熊本県,熊本市東区,西原１丁目１１番７号,,43,102,8618029,,,2022-04-12,合併による解散等,5240001016462,令和４年４月１日広島市南区東雲三丁目７番１８号株式会社オートバックス南日本販売（5240001016462）に合併し解散,2015-10-05,1,,,,,クマモトオートバックス,0
1129,4470002013750,登記記録の閉鎖等,0,2022-04-15,2022-04-11,有限会社四国エルエス,,有限会社,香川県,丸亀市,昭和町１８番地,,37,202,7630061,,,2022-04-11,清算の結了等,,,2015-10-05,1,,,,,シコクエルエス,0
1133,4500003002559,登記記録の閉鎖等,0,2022-04-15,2022-04-12,合同会社Ｌａ　Ｌｕｚ,,合同会社,愛媛県,八幡浜市,４２５,,38,204,7960088,,,2022-04-12,清算の結了等,,,2021-01-12,1,,,,,ラルス,0
1136,5010001021329,登記記録の閉鎖等,0,2022-04-15,2022-04-13,株式会社ソニー・ミュージックダイレクト,,株式会社,東京都,港区,赤坂９丁目７番１号,,13,103,1070052,,,2022-04-13,合併による解散等,9010001075932,令和４年４月１日東京都千代田区六番町４番地５株式会社ソニー・ミュージックレーベルズ（9010001075932）に合併し解散,2015-10-05,1,,,,,ソニーミュージックダイレクト,0
1164,5010405004466,登記記録の閉鎖等,0,2022-04-15,2022-04-01,ディー・ティー・シー・ファイブ特定目的会社,,その他の設立登記法人,東京都,港区,虎ノ門３丁目２２番１０－２０１号,,13,103,1050001,,,2022-04-01,清算の結了等,,,2015-10-05,1,,,,,ディーティーシーファイブ,0
1176,5010902002039,登記記録の閉鎖等,0,2022-04-15,2022-04-12,株式会社ファーマみらいサポート,,株式会社,東京都,世田谷区,用賀２丁目３６番８号,,13,112,1580097,,,2022-04-12,合併による解散等,9010401095530,令和４年４月１日東京都千代田区丸の内一丁目９番２号株式会社ストレチア（9010401095530）に合併し解散,2015-10-05,1,,,,,ファーマミライサポート,0
1184,5011101001014,登記記録の閉鎖等,0,2022-04-15,2022-04-13,株式会社アド・ムーン,,株式会社,東京都,新宿区,新宿１丁目２３番１１号,,13,104,1600022,,,2022-04-13,清算の結了等,,,2015-10-05,1,,,,,アドムーン,0
1185,5011101007820,登記記録の閉鎖等,0,2022-04-15,2022-04-11,株式会社山商,,株式会社,東京都,新宿区,大久保１丁目１番２号,,13,104,1690072,,,2022-04-11,清算の結了等,,,2015-10-05,1,,,,,ヤマショウ,0
1201,5011501012016,登記記録の閉鎖等,0,2022-04-15,2022-04-08,株式会社サン・プランニング,,株式会社,東京都,八王子市,狭間町１４６３番地,,13,201,1930941,,,2022-04-08,合併による解散等,1010101001804,令和４年４月１日東京都八王子市狭間町１４６３番地株式会社ジャノメサービス（1010101001804）に合併し解散,2015-10-05,1,,,,,サンプランニング,0
1204,5011601002222,登記記録の閉鎖等,0,2022-04-15,2022-04-13,広和工業株式会社,,株式会社,東京都,練馬区,南田中５丁目１５番１１号,,13,120,1770035,,,2022-04-13,清算の結了等,,,2015-10-05,1,,,,,コウワコウギョウ,0
1239,5021002056858,登記記録の閉鎖等,0,2022-04-15,2022-04-07,有限会社今里綜合食品ストアー,,有限会社,神奈川県,平塚市,四之宮３丁目１３番１２号,,14,203,2540014,,,2022-04-07,清算の結了等,,,2015-10-05,1,,,,,イマザトソウゴウショクヒンストアー,0
1253,5040002073044,登記記録の閉鎖等,0,2022-04-15,2022-04-05,有限会社クリーンワールド,,有限会社,千葉県,市原市,五井９１１７番地,,12,219,2900056,,,2022-04-05,清算の結了等,,,2015-10-05,1,,,,,クリーンワールド,0
1269,5050002031117,登記記録の閉鎖等,0,2022-04-15,2022-04-07,有限会社西野ビル,,有限会社,茨城県,日立市,鹿島町１丁目６番９号,,08,202,3170071,,,2022-04-07,清算の結了等,,,2015-10-05,1,,,,,ニシノビル,0
1270,5060001017867,登記記録の閉鎖等,0,2022-04-15,2022-04-07,友和テック株式会社,,株式会社,栃木県,栃木市,樋ノ口町５０９番地１,00024099,09,203,3280024,,,2022-04-07,清算の結了等,,,2015-10-05,1,,,,,ユウワテック,0
1274,5070002034712,登記記録の閉鎖等,0,2022-04-15,2022-04-07,有限会社金井商事,,有限会社,群馬県,沼田市,横塚町１３４５番地,,10,206,3780002,,,2022-04-07,清算の結了等,,,2015-10-05,1,,,,,カナイショウジ,0
1295,5120001167540,登記記録の閉鎖等,0,2022-04-15,2022-04-07,ログジー株式会社,,株式会社,大阪府,大阪市西淀川区,御幣島１丁目９番２１号,,27,113,5550012,,,2022-04-07,清算の結了等,,,2015-10-05,1,,,,,ログジー,0
1311,5120102006647,登記記録の閉鎖等,0,2022-04-15,2022-04-08,有限会社スリーエー,,有限会社,大阪府,堺市東区,大美野３６番８平井マンション１０１号,,27,143,5998126,,,2022-04-08,清算の結了等,,,2015-10-05,1,,,,,スリーエー,0
1320,5130001049779,登記記録の閉鎖等,0,2022-04-15,2022-04-07,株式会社Ｐｒｏｓｐｅｒ,,株式会社,京都府,久世郡久御山町,佐山東代１２番地３,,26,322,6130034,,,2022-04-07,清算の結了等,,,2015-10-05,1,,,,,プロスパー,0
1321,5130001068705,登記記録の閉鎖等,0,2022-04-15,2022-04-08,株式会社ストリングス京都,,株式会社,京都府,舞鶴市,字公文名５６４－１,,26,202,6240821,,,2022-04-08,清算の結了等,,,2021-02-25,1,,,,,ストリングスキョウト,0
1334,5160001011934,登記記録の閉鎖等,0,2022-04-15,2022-04-12,株式会社シンコー,,株式会社,滋賀県,大津市,一里山５丁目２１番３７号,,25,201,5202153,,,2022-04-12,合併による解散等,4210001002879,令和４年４月１日福井市中毘沙門町第１号１番地１セキサンピーシー株式会社（4210001002879）に合併し解散,2015-10-05,1,,,,,シンコー,0
1352,5190001011766,登記記録の閉鎖等,0,2022-04-15,2022-04-06,株式会社びんび,,株式会社,三重県,松阪市,笠松町６７５番地８,,24,204,5152103,,,2022-04-06,清算の結了等,,,2015-10-05,1,,,,,ビンビ,0
1359,5240001047656,登記記録の閉鎖等,0,2022-04-15,2022-04-11,株式会社パティスリー・アマンド,,株式会社,広島県,広島市佐伯区,五日市町大字石内６５０２の５,,34,108,7315102,,,2022-04-11,清算の結了等,,,2015-10-05,1,,,,,パティスリーアマンド,0
1374,5290801005759,登記記録の閉鎖等,0,2022-04-15,2022-04-01,門司舗材工業株式会社,,株式会社,福岡県,北九州市門司区,大字畑２３４１番地の１,,40,101,8000112,,,2022-04-01,合併による解散等,4290801000752,令和４年４月１日北九州市門司区畑２３４１番地１勝山建設工業株式会社（4290801000752）に合併し解散,2015-10-05,1,,,,,モジホザイコウギョウ,0
1404,5410001010803,登記記録の閉鎖等,0,2022-04-15,2022-04-01,株式会社ティー・アイ観光,,株式会社,秋田県,能代市,浅内字船沢７３番地１２５,,05,202,0160179,,,2022-04-01,合併による解散等,9410001007515,令和４年４月１日秋田県能代市浅内字成合２０番地８株式会社今野興業（9410001007515）に合併し解散,2015-10-05,1,,,,,ティーアイカンコウ,0
1423,5490005003060,登記記録の閉鎖等,0,2022-04-15,2022-03-29,天理教高石分教会,00007001,その他の設立登記法人,高知県,土佐市,用石１３２３番地,,39,205,7811152,,,2022-03-29,合併による解散等,3490005003062,令和４年３月２９日高知県土佐市宇佐町宇佐字土居１８６２番地天理教土南分教会（3490005003062）に合併し解散,2015-10-05,1,,,,,テンリキョウタカイシブンキョウカイ,0
1432,6010001185767,登記記録の閉鎖等,0,2022-04-15,2022-04-01,株式会社ＳＫＷＩＣ,,株式会社,東京都,千代田区,三番町２番地三番町ＫＳビル,,13,101,1020075,,,2022-04-01,合併による解散等,2010003018664,令和４年４月１日東京都千代田区三番町２番地三番町ＫＳビルＳＫＷ　Ｊａｐａｎ　Ｈｏｌｄｉｎｇｓ合同会社（2010003018664）に合併し解散,2017-08-18,1,,,,,エスケーダブリュアイシー,0
1433,6010001198991,登記記録の閉鎖等,0,2022-04-15,2022-04-07,スタイルリンク株式会社,,株式会社,東京都,中央区,湊２丁目２番５号,,13,102,1040043,,,2022-04-07,合併による解散等,7180001018505,令和４年４月１日名古屋市東区泉二丁目１３番２３号矢作ビル＆ライフ株式会社（7180001018505）に合併し解散,2019-03-15,1,,,,,スタイルリンク,0
1455,6010405016452,登記記録の閉鎖等,0,2022-04-15,2022-04-01,富船ホールディング２一般社団法人,,その他の設立登記法人,東京都,港区,虎ノ門３丁目２２番１０－２０１号,,13,103,1050001,,,2022-04-01,清算の結了等,,,2018-02-19,1,,,,,トミフネホールディングツー,0
1459,6010601039686,登記記録の閉鎖等,0,2022-04-15,2022-04-01,セイノー引越株式会社,,株式会社,東京都,江東区,木場２丁目１番３号,,13,108,1350042,,,2022-04-01,合併による解散等,9010601041061,令和４年４月１日東京都江東区辰巳三丁目１０番２３号セイノースーパーエクスプレス株式会社（9010601041061）に合併し解散,2015-10-05,1,,,,,セイノーヒッコシ,0
1467,6010801016700,登記記録の閉鎖等,0,2022-04-15,2022-04-06,セントラルビジネスサポート株式会社,,株式会社,東京都,大田区,中央６丁目１１番１４号,,13,111,1430024,,,2022-04-06,清算の結了等,,,2015-10-05,1,,,,,セントラルビジネスサポート,0
1474,6011001101400,登記記録の閉鎖等,0,2022-04-15,2022-04-01,株式会社アプメスエージェント,,株式会社,東京都,港区,虎ノ門５丁目１番５号,,13,103,1050001,,,2022-04-01,合併による解散等,4011001060912,令和４年４月１日東京都港区虎ノ門五丁目１番５号株式会社アプメス（4011001060912）に合併し解散,2015-10-05,1,,,,,アプメスエージェント,0
1475,6011001111382,登記記録の閉鎖等,0,2022-04-15,2022-04-01,株式会社パスチャー,,株式会社,東京都,渋谷区,恵比寿４丁目４番６号ＭＡＲＩＸ恵比寿ビル６Ｆ,,13,113,1500013,,,2022-04-01,合併による解散等,2011101076579,令和４年４月１日東京都渋谷区道玄坂一丁目１２番１号渋谷マークシティウエスト２０階株式会社ライスカレー（2011101076579）に合併し解散,2016-06-10,1,,,,,パスチャー,0
1481,6011101069604,登記記録の閉鎖等,0,2022-04-15,2022-04-01,株式会社ウィッシュカンパニー,,株式会社,東京都,港区,麻布十番１丁目５番３０号十番董友ビル,,13,103,1060045,,,2022-04-01,清算の結了等,,,2015-10-05,1,,,,,ウィッシュカンパニー,0
1493,6011502000506,登記記録の閉鎖等,0,2022-04-15,2022-04-12,有限会社石島製版印刷,,有限会社,東京都,北区,岸町２丁目８番３号,,13,117,1140021,,,2022-04-12,清算の結了等,,,2015-10-05,1,,,,,イシジマセイハンインサツ,0
1507,6013301035294,登記記録の閉鎖等,0,2022-04-15,2022-04-01,株式会社シンク,,株式会社,東京都,中央区,日本橋本町４丁目３番地２プラウドフラット三越前９０４,,13,102,1030023,,,2022-04-01,清算の結了等,,,2015-10-05,1,,,,,シンク,0
1513,6020001100072,登記記録の閉鎖等,0,2022-04-15,2022-04-11,パナソニックモバイルコミュニケーションズ株式会社,,株式会社,神奈川県,横浜市都筑区,佐江戸町６００番地,,14,118,2240054,,,2022-04-11,合併による解散等,3010001129215,令和４年４月１日福岡市博多区美野島四丁目１番６２号パナソニックコネクト株式会社（3010001129215）に合併し解散,2015-10-05,1,,,,,パナソニックモバイルコミュニケーションズ,0
1520,6020003015590,登記記録の閉鎖等,0,2022-04-15,2022-03-30,合同会社ＦＰ,,合同会社,埼玉県,川越市,大字藤間２１４－１４,,11,201,3501142,,,2022-03-30,清算の結了等,,,2019-02-12,1,,,,,エフピー,0
1531,6021002018824,登記記録の閉鎖等,0,2022-04-15,2022-04-08,有限会社奥平デザイン,,有限会社,神奈川県,相模原市中央区,上溝３１２５番地,,14,152,2520243,,,2022-04-08,清算の結了等,,,2015-10-05,1,,,,,オクヒラデザイン,0
1553,6040001078927,登記記録の閉鎖等,0,2022-04-15,2022-04-06,株式会社倉敷工務店,,株式会社,千葉県,千葉市若葉区,千城台西１丁目２番１号ピカリコビル２０２,,12,104,2640004,,,2022-04-06,清算の結了等,,,2015-10-05,1,,,,,クラシキコウムテン,0
1562,6050001046635,登記記録の閉鎖等,0,2022-04-15,2022-04-06,株式会社ＷＫＰ,,株式会社,茨城県,水戸市,千波町６２４番地の１０,,08,201,3100851,,,2022-04-06,清算の結了等,,,2019-10-08,1,,,,,ダブリューケーピー,0
1566,6060002019548,登記記録の閉鎖等,0,2022-04-15,2022-04-08,有限会社市花建設,,有限会社,栃木県,鹿沼市,千渡１９７２番地１,,09,205,3220002,,,2022-04-08,清算の結了等,,,2015-10-05,1,,,,,,0
1567,6070002002370,登記記録の閉鎖等,0,2022-04-15,2022-04-06,有限会社サンサンすてっぷ,,有限会社,群馬県,前橋市,今井町道下９３１番地１４,,10,201,3792116,,,2022-04-06,清算の結了等,,,2015-10-05,1,,,,,サンサンステップ,0
1593,6120001066782,登記記録の閉鎖等,0,2022-04-15,2022-04-06,高千穂産業株式会社,,株式会社,大阪府,大阪市北区,西天満６丁目６番１１号,,27,127,5300047,,,2022-04-06,清算の結了等,,,2015-10-05,1,,,,,,0
1624,6130001014724,登記記録の閉鎖等,0,2022-04-15,2022-04-08,株式会社シヨツパ水谷,,株式会社,京都府,京都市伏見区,淀本町１７３番地,,26,109,6130903,,,2022-04-08,清算の結了等,,,2015-10-05,1,,,,,ショッパミズタニ,0
1626,6130001033765,登記記録の閉鎖等,0,2022-04-15,2022-04-12,株式会社角屋,00036215,株式会社,京都府,宇治市,槇島町目川７８番１,,26,204,6110041,,,2022-04-12,清算の結了等,,,2015-10-05,1,,,,,カドヤ,0
1643,6180001069722,登記記録の閉鎖等,0,2022-04-15,2022-04-06,株式会社豊明電機,,株式会社,愛知県,豊明市,新田町前原１番地ナビライフ豊明マンションＩ番館Ｂ棟７０７号,00072250,23,229,4701115,,,2022-04-06,清算の結了等,,,2015-10-05,1,,,,,トヨアケデンキ,0
1644,6180001126028,登記記録の閉鎖等,0,2022-04-15,2022-04-01,株式会社ＢＩＧＳＭＩＬＥ,,株式会社,愛知県,名古屋市名東区,朝日が丘１０１番地,,23,115,4650041,,,2022-04-01,合併による解散等,7180002052800,令和４年４月１日名古屋市瑞穂区軍水町三丁目４番地株式会社アシスタ（7180002052800）に合併し解散,2016-12-26,1,,,,,ビッグスマイル,0
1676,6270001000198,登記記録の閉鎖等,0,2022-04-15,2022-04-01,株式会社ケーオウエイ情報通信,,株式会社,鳥取県,鳥取市,千代水３丁目１３２番地,,31,201,6800911,,,2022-04-01,合併による解散等,3270001003229,令和４年４月１日鳥取県米子市両三柳３２８番地株式会社ケーオウエイ（3270001003229）に合併し解散,2015-10-05,1,,,,,ケーオウエイジョウホウツウシン,0
1684,6290001063739,登記記録の閉鎖等,0,2022-04-15,2022-04-06,株式会社ＵＭＩＴ,,株式会社,福岡県,福岡市西区,横浜２丁目２０番２７号,,40,135,8190166,,,2022-04-06,清算の結了等,,,2015-10-05,1,,,,,ユミト,0
1696,6310005008019,登記記録の閉鎖等,0,2022-04-15,2022-04-05,特定非営利活動法人五島列島デザイン会議,,その他の設立登記法人,長崎県,五島市,吉久木町３１７番地４,,42,211,8530031,,,2022-04-05,清算の結了等,,,2016-11-16,1,,,,,ゴトウレットウデザインカイギ,0
1709,6370501000828,登記記録の閉鎖等,0,2022-04-15,2022-04-01,株式会社南三陸新聞,,株式会社,宮城県,本吉郡南三陸町,志津川字中瀬町６７番地１,,04,606,9860767,,,2022-04-01,清算の結了等,,,2015-10-05,1,,,,,ミナミサンリクシンブン,0
1712,6380002019854,登記記録の閉鎖等,0,2022-04-15,2022-04-07,有限会社ササキ靴店,,有限会社,福島県,須賀川市,中町４８番地,,07,207,9620845,,,2022-04-07,清算の結了等,,,2015-10-05,1,,,,,,0
1745,7010001139549,登記記録の閉鎖等,0,2022-04-15,2022-04-01,アステラスファーマテック株式会社,,株式会社,東京都,中央区,日本橋本町２丁目５番１号,,13,102,1030023,,,2022-04-01,合併による解散等,5010001034966,令和４年４月１日東京都中央区日本橋本町二丁目５番１号アステラス製薬株式会社（5010001034966）に合併し解散,2015-10-05,1,,,,,アステラスファーマテック,0
1746,7010001165693,登記記録の閉鎖等,0,2022-04-15,2022-04-01,株式会社オデオクリエーション,,株式会社,東京都,中央区,銀座７丁目９番１５号,,13,102,1040061,,,2022-04-01,清算の結了等,,,2015-10-05,1,,,,,オデオクリエーション,0
1762,7010401088305,登記記録の閉鎖等,0,2022-04-15,2022-04-04,スタイラスグループ株式会社,,株式会社,大阪府,大阪市中央区,平野町３丁目３番１１,,27,128,5410046,,,2022-04-04,合併による解散等,2010401088920,令和４年３月３１日大阪市中央区平野町三丁目３番１１スタイラス・ワン株式会社（2010401088920）に合併し解散,2015-10-05,1,,,,,スタイラスグループ,0
1806,7011101050307,登記記録の閉鎖等,0,2022-04-15,2022-04-11,日本ワンスピン・ソリューションズ株式会社,,株式会社,神奈川県,横浜市中区,尾上町４丁目５７番地横浜尾上町ビルディング８階,,14,104,2310015,,,2022-04-11,合併による解散等,7010701009720,令和４年４月１日東京都品川区北品川四丁目７番３５号シーメンスＥＤＡジャパン株式会社（7010701009720）に合併し解散,2015-10-05,1,,,,,ニホンワンスピンソリューションズ,0
1807,7011101063184,登記記録の閉鎖等,0,2022-04-15,2022-04-11,サイネオス・ファーマ・パートナーズ株式会社,,株式会社,東京都,品川区,西五反田８丁目９番５号,,13,109,1410031,,,2022-04-11,合併による解散等,2010401105007,令和４年４月１日東京都港区港南一丁目２番７０号サイネオス・ヘルス・クリニカル株式会社（2010401105007）に合併し解散,2015-10-05,1,,,,,サイネオスファーマパートナーズ,0
1823,7011601014414,登記記録の閉鎖等,0,2022-04-15,2022-04-13,株式会社サンクレスト,,株式会社,東京都,練馬区,富士見台３丁目２３番８号,,13,120,1770034,,,2022-04-13,清算の結了等,,,2015-10-05,1,,,,,サンクレスト,0
1839,7020001054433,登記記録の閉鎖等,0,2022-04-15,2022-04-11,株式会社アプラ,,株式会社,神奈川県,横浜市青葉区,新石川３丁目１４番地５,,14,117,2250003,,,2022-04-11,合併による解散等,7010401008196,令和４年４月１日東京都港区虎ノ門一丁目３番１号株式会社ケイミックス（7010401008196）に合併し解散,2015-10-05,1,,,,,アプラ,0
1847,7020002051735,登記記録の閉鎖等,0,2022-04-15,2022-04-07,有限会社テイケイ・レジスト,,有限会社,神奈川県,横浜市保土ケ谷区,上星川３丁目１０番８号,,14,106,2400042,,,2022-04-07,清算の結了等,,,2015-10-05,1,,,,,テイケイレジスト,0
1851,7021005009588,登記記録の閉鎖等,0,2022-04-15,2022-04-07,特定非営利活動法人湘南パートナーズ心理教育総合研究所,,その他の設立登記法人,神奈川県,藤沢市,石川６丁目２５－１１,,14,205,2520815,,,2022-04-07,清算の結了等,,,2015-10-05,1,,,,,ショウナンパートナーズシンリキョウイクソウゴウケンキュウジョ,0
1866,7040002068091,登記記録の閉鎖等,0,2022-04-15,2022-04-05,有限会社和田興業,,有限会社,千葉県,木更津市,新田１丁目４番１号,,12,206,2920832,,,2022-04-05,清算の結了等,,,2015-10-05,1,,,,,,0
1880,7070001011553,登記記録の閉鎖等,0,2022-04-15,2022-04-06,株式会社ひろき,,株式会社,群馬県,高崎市,栄町５番１７－１００１号ポレスター高崎グランディオース,,10,202,3700841,,,2022-04-06,清算の結了等,,,2015-10-05,1,,,,,,0
1881,7070002008846,登記記録の閉鎖等,0,2022-04-15,2022-04-06,有限会社ヴィーグラ,,有限会社,群馬県,高崎市,石原町５０２番地１,,10,202,3700864,,,2022-04-06,清算の結了等,,,2015-10-05,1,,,,,ヴィーグラ,0
1891,7090001003268,登記記録の閉鎖等,0,2022-04-15,2022-04-08,明康物流株式会社,,株式会社,山梨県,甲府市,国玉町８８０番地,,19,201,4000815,,,2022-04-08,合併による解散等,5012801002326,令和４年４月１日大阪市天王寺区東高津町３番２号タマパック株式会社（5012801002326）に合併し解散,2015-10-05,1,,,,,メイコウブツリュウ,0
1904,7120001146609,登記記録の閉鎖等,0,2022-04-15,2022-04-01,株式会社ＧＩ・ネクサス,,株式会社,大阪府,堺市西区,鳳東町７丁８５３番地,,27,144,5938324,,,2022-04-01,合併による解散等,2120101009562,令和４年４月１日大阪府堺市西区鳳東町七丁８５３番地株式会社グローブイン（2120101009562）に合併し解散,2015-10-05,1,,,,,ジイアイネクサス,0
1905,7120001152350,登記記録の閉鎖等,0,2022-04-15,2022-04-07,株式会社マツダ,,株式会社,大阪府,寝屋川市,八坂町７番１０号,,27,215,5720838,,,2022-04-07,清算の結了等,,,2015-10-05,1,,,,,マツダ,0
1907,7120001204746,登記記録の閉鎖等,0,2022-04-15,2022-04-07,シオノギデジタルサイエンス株式会社,,株式会社,大阪府,大阪市中央区,淡路町３丁目６番３号御堂筋ＭＴＲビル４階,,27,128,5410047,,,2022-04-07,清算の結了等,,,2017-04-12,1,,,,,シオノギデジタルサイエンス,0
1928,7140001023252,登記記録の閉鎖等,0,2022-04-15,2022-04-07,大栄環境運輸株式会社,,株式会社,兵庫県,神戸市東灘区,向洋町東２丁目２番４,,28,101,6580031,,,2022-04-07,清算の結了等,,,2015-10-05,1,,,,,ダイエイカンキョウウンユ,0
1963,7190001013868,登記記録の閉鎖等,0,2022-04-15,2022-04-06,株式会社塩谷陸送,,株式会社,三重県,桑名市,大字江場８６４番地,,24,205,5110836,,,2022-04-06,清算の結了等,,,2015-10-05,1,,,,,エンヤリクソウ,0
1966,7200001002571,登記記録の閉鎖等,0,2022-04-15,2022-04-15,株式会社自由書房,,株式会社,岐阜県,岐阜市,神田町５丁目４番地,,21,201,5008833,,,2022-04-15,清算の結了等,,,2015-10-05,1,,,,,ジユウショボウ,0
1967,7200001015094,登記記録の閉鎖等,0,2022-04-15,2022-04-14,株式会社ミヤジマ,,株式会社,岐阜県,大垣市,小泉町３９１番地２,,21,202,5030816,,,2022-04-14,清算の結了等,,,2015-10-05,1,,,,,ミヤジマ,0
1976,7240001009497,登記記録の閉鎖等,0,2022-04-15,2022-04-12,エネクス石油販売西日本株式会社,,株式会社,広島県,広島市東区,戸坂中町２番２４号,,34,102,7320003,,,2022-04-12,合併による解散等,5120001137106,令和４年４月１日大阪市淀川区西宮原二丁目１番３号エネクスフリート株式会社（5120001137106）に合併し解散,2015-10-05,1,,,,,エネクスセキユハンバイニシニホン,0
1989,7290801014320,登記記録の閉鎖等,0,2022-04-15,2022-04-01,福岡礦油株式会社,,株式会社,福岡県,直方市,神正町３番３２号,,40,204,8220023,,,2022-04-01,合併による解散等,8290801014179,令和４年４月１日福岡県直方市神正町３番３２号谷弥石油株式会社（8290801014179）に合併し解散,2015-10-05,1,,,,,フクオカコウユ,0
1999,7330005009195,登記記録の閉鎖等,0,2022-04-15,2022-04-05,ＮＰＯ法人アクアマリン,,その他の設立登記法人,熊本県,天草市,北浜町２６０１番１０,,43,215,8630011,,,2022-04-05,清算の結了等,,,2015-10-05,1,,,,,アクアマリン,0
2021,7430001068474,登記記録の閉鎖等,0,2022-04-15,2022-04-04,ゴールドホース株式会社,,株式会社,北海道,札幌市中央区,南六条西１１丁目１２８４番地２１開運館,,01,101,0640806,,,2022-04-04,清算の結了等,,,2015-10-05,1,,,,,ゴールドホース,0
2028,7470002013426,登記記録の閉鎖等,0,2022-04-15,2022-04-07,有限会社坂本商会,,有限会社,香川県,仲多度郡まんのう町,公文６０２番地,,37,406,7660011,,,2022-04-07,清算の結了等,,,2015-10-05,1,,,,,サカモトショウカイ,0
2033,7500002021383,登記記録の閉鎖等,0,2022-04-15,2022-04-11,有限会社ヤマニシ,,有限会社,愛媛県,四国中央市,上柏町１００２－３,,38,213,7990412,,,2022-04-11,清算の結了等,,,2015-10-05,1,,,,,,0
2062,8010903002893,登記記録の閉鎖等,0,2022-04-15,2022-04-12,合同会社ＧｏＤｏ,,合同会社,茨城県,守谷市,御所ケ丘２丁目１０番１１号,,08,224,3020119,,,2022-04-12,合併による解散等,3011001052638,令和４年３月３１日茨城県守谷市御所ケ丘二丁目１０番１１号株式会社ｓｏｕｎｄ　ｄｅｓｉｇｎ　ＯＮ（3011001052638）に合併し解散,2015-10-05,1,,,,,ゴウドウ,0
2063,8011001002398,登記記録の閉鎖等,0,2022-04-15,2022-04-01,株式会社インターナショナルレストランサービス,,株式会社,東京都,渋谷区,南平台町５番６号,,13,113,1500036,,,2022-04-01,合併による解散等,3013201003998,令和４年４月１日東京都目黒区碑文谷六丁目７番２２号株式会社東急グルメフロント（3013201003998）に合併し解散,2015-10-05,1,,,,,インターナショナルレストランサービス,0
2065,8011001070008,登記記録の閉鎖等,0,2022-04-15,2022-03-31,株式会社スプレックス,,株式会社,東京都,渋谷区,渋谷２丁目１２番９号,,13,113,1500002,,,2022-03-31,合併による解散等,1011001045024,令和４年３月３１日東京都渋谷区渋谷二丁目１２番９号株式会社ゼネラルリンク（1011001045024）に合併し解散,2015-10-05,1,,,,,スプレックス,0
2072,8011001129506,登記記録の閉鎖等,0,2022-04-15,2022-04-04,ＭｏＭｏ　Ｔｒａｄｉｎｇ株式会社,,株式会社,東京都,渋谷区,神宮前６丁目２８番９号,,13,113,1500001,,,2022-04-04,清算の結了等,,,2019-08-19,1,,,,,モモトレーディング,0
2090,8011405000493,登記記録の閉鎖等,0,2022-04-15,2022-03-28,天理教本梓分教会,,その他の設立登記法人,東京都,板橋区,小豆沢３丁目８番３８号,,13,119,1740051,,,2022-03-28,合併による解散等,4010605000448,令和４年３月２３日東京都墨田区本所一丁目１３番１７号天理教東本大教会（4010605000448）に合併し解散,2015-10-05,1,,,,,,0
2095,8011602002227,登記記録の閉鎖等,0,2022-04-15,2022-04-13,有限会社尾崎建設工業,,有限会社,東京都,練馬区,上石神井１丁目６番８号,,13,120,1770044,,,2022-04-13,清算の結了等,,,2015-10-05,1,,,,,オザキケンセツコウギョウ,0
2096,8011602003530,登記記録の閉鎖等,0,2022-04-15,2022-04-13,有限会社健美サロンテヅカ,,有限会社,東京都,練馬区,東大泉３丁目３番９号,,13,120,1780063,,,2022-04-13,清算の結了等,,,2015-10-05,1,,,,,ケンビサロンテヅカ,0
2097,8011605001985,登記記録の閉鎖等,0,2022-04-15,2022-04-13,特定非営利活動法人ライフサポートソリューション,,その他の設立登記法人,東京都,練馬区,北町３丁目９番５－６０１号,,13,120,1790081,,,2022-04-13,清算の結了等,,,2015-10-05,1,,,,,ライフサポートソリューション,0
2117,8020001136692,登記記録の閉鎖等,0,2022-04-15,2022-04-07,株式会社スカイムーン,,株式会社,埼玉県,川越市,脇田本町１３番地５,,11,201,3501123,,,2022-04-07,合併による解散等,5013301028506,令和４年４月１日埼玉県川越市脇田本町１３番地５イントロン株式会社（5013301028506）に合併し解散,2020-07-07,1,,,,,スカイムーン,0
2122,8020002046008,登記記録の閉鎖等,0,2022-04-15,2022-04-07,有限会社和栗食肉店,,有限会社,神奈川県,横浜市中区,石川町５丁目２１０番地７,,14,104,2310868,,,2022-04-07,清算の結了等,,,2015-10-05,1,,,,,ワグリショクニクテン,0
2126,8020003008535,登記記録の閉鎖等,0,2022-04-15,2022-04-11,合同会社トリガー,,合同会社,東京都,新宿区,新小川町６番１８－４０１号,,13,104,1620814,,,2022-04-11,清算の結了等,,,2015-10-05,1,,,,,トリガー,0
2127,8020005014688,登記記録の閉鎖等,0,2022-04-15,2022-04-07,一般社団法人スパイスシュムック協会,,その他の設立登記法人,神奈川県,横浜市中区,本郷町３丁目１４９番地,,14,104,2310843,,,2022-04-07,清算の結了等,,,2020-06-10,1,,,,,スパイスシュムックキョウカイ,0
2158,8070001009869,登記記録の閉鎖等,0,2022-04-15,2022-04-11,株式会社ＮＲＥ高崎サービス,,株式会社,群馬県,高崎市,栄町１番２５号,,10,202,3700841,,,2022-04-11,合併による解散等,3011101042662,令和４年４月１日東京都渋谷区千駄ヶ谷五丁目３３番８号株式会社ＪＲ東日本クロスステーション（3011101042662）に合併し解散,2015-10-05,1,,,,,エヌアールイータカサキサービス,0
2161,8080401000864,登記記録の閉鎖等,0,2022-04-15,2022-04-08,日産ボディサービス浜松株式会社,,株式会社,静岡県,浜松市東区,和田町６８５番地,,22,132,4350016,,,2022-04-08,合併による解散等,3080401010967,令和４年４月１日浜松市東区和田町５９７番地浜松日産自動車株式会社（3080401010967）に合併し解散,2015-10-05,1,,,,,ニッサンボディサービスハママツ,0
2174,8110003002231,登記記録の閉鎖等,0,2022-04-15,2022-04-08,合資会社写真のタカハシ,,合資会社,新潟県,南魚沼郡湯沢町,大字湯沢２８２番地,,15,461,9496101,,,2022-04-08,清算の結了等,,,2015-10-05,1,,,,,シャシンノタカハシ,0
2175,8120001025869,登記記録の閉鎖等,0,2022-04-15,2022-04-08,渡辺金属工業株式会社,,株式会社,大阪府,大阪市阿倍野区,阿倍野元町１６番９号－２０７,,27,119,5450034,,,2022-04-08,清算の結了等,,,2015-10-05,1,,,,,ワタナベキンゾクコウギョウ,0
2177,8120001099987,登記記録の閉鎖等,0,2022-04-15,2022-04-12,株式会社ネイチャー・アセスメント,,株式会社,大阪府,堺市堺区,浅香山町３丁９番１２号,,27,141,5900012,,,2022-04-12,清算の結了等,,,2015-10-05,1,,,,,ネイチャーアセスメント,0
2197,8120003009374,登記記録の閉鎖等,0,2022-04-15,2022-04-07,合同会社大阪八粋堂,,合同会社,大阪府,大阪市北区,豊崎２丁目１番９号,,27,127,5310072,,,2022-04-07,清算の結了等,,,2015-10-05,1,,,,,オオサカハッスイドウ,0
2240,8180001120648,登記記録の閉鎖等,0,2022-04-15,2022-04-01,名鉄西部交通北部株式会社,,株式会社,愛知県,一宮市,緑３丁目８番２４号,,23,203,4910862,,,2022-04-01,合併による解散等,2180001084064,令和４年４月１日愛知県一宮市緑三丁目８番２４号名鉄西部交通株式会社（2180001084064）に合併し解散,2015-10-22,1,,,,,メイテツセイブコウツウホクブ,0
2242,8180001133121,登記記録の閉鎖等,0,2022-04-15,2022-04-04,株式会社更紗,,株式会社,愛知県,瀬戸市,窯町３２２番地の５１,,23,204,4801219,,,2022-04-04,清算の結了等,,,2018-07-23,1,,,,,サラサ,0
2255,8200003001604,登記記録の閉鎖等,0,2022-04-15,2022-04-12,合資会社浅野商行,,合資会社,岐阜県,大垣市,築捨町１丁目８２番地の２,,21,202,5030854,,,2022-04-12,清算の結了等,,,2015-10-05,1,,,,,アサノショウコウ,0
2266,8240002038924,登記記録の閉鎖等,0,2022-04-15,2022-04-11,有限会社宮野塗装,,有限会社,広島県,福山市,神辺町字道上１３８０番地の１,,34,207,7202104,,,2022-04-11,清算の結了等,,,2015-10-05,1,,,,,ミヤノトソウ,0
2282,8290801001458,登記記録の閉鎖等,0,2022-04-15,2022-04-12,小倉興産エネルギー株式会社,,株式会社,福岡県,北九州市小倉北区,高浜１丁目５番２７号,,40,106,8020021,,,2022-04-12,合併による解散等,5120001137106,令和４年４月１日大阪市淀川区西宮原二丁目１番３号エネクスフリート株式会社（5120001137106）に合併し解散,2015-10-05,1,,,,,コクラコウサンエネルギー,0
2288,8330002008554,登記記録の閉鎖等,0,2022-04-15,2022-04-04,有限会社美光,,有限会社,熊本県,熊本市南区,田井島３丁目７番８号,,43,104,8620965,,,2022-04-04,清算の結了等,,,2015-10-05,1,,,,,ビコウ,0
2307,8410002003332,登記記録の閉鎖等,0,2022-04-15,2022-04-05,有限会社紅華,,有限会社,秋田県,秋田市,手形新栄町４番３号,,05,201,0100865,,,2022-04-05,清算の結了等,,,2015-10-05,1,,,,,ベニハナ,0
2326,8490005003875,登記記録の閉鎖等,0,2022-04-15,2022-03-29,天理教野見分教会,,その他の設立登記法人,高知県,須崎市,野見字北山１７８番地１・２,,39,206,7850056,,,2022-03-29,合併による解散等,3490005003062,令和４年３月２９日高知県土佐市宇佐町宇佐字土居１８６２番地天理教土南分教会（3490005003062）に合併し解散,2015-10-05,1,,,,,,0
2349,9010102007842,登記記録の閉鎖等,0,2022-04-15,2022-04-12,小倉商事有限会社,,有限会社,東京都,八王子市,上野町１００番地の３４,,13,201,1920902,,,2022-04-12,清算の結了等,,,2015-10-05,1,,,,,オグラショウジ,0
2357,9010405016292,登記記録の閉鎖等,0,2022-04-15,2022-04-01,富船ホールディング１一般社団法人,,その他の設立登記法人,東京都,港区,虎ノ門３丁目２２番１０－２０１号,,13,103,1050001,,,2022-04-01,清算の結了等,,,2017-12-07,1,,,,,トミフネホールディングワン,0
2361,9010705001374,登記記録の閉鎖等,0,2022-04-15,2022-04-04,特定非営利活動法人健康生活推進会,,その他の設立登記法人,東京都,目黒区,下目黒３丁目７番３号２階,,13,110,1530064,,,2022-04-04,清算の結了等,,,2015-10-05,1,,,,,ケンコウセイカツスイシンカイ,0
2363,9010801019659,登記記録の閉鎖等,0,2022-04-15,2022-04-01,株式会社ジェイ・チーム,,株式会社,東京都,港区,港南１丁目７番１８号,,13,103,1080075,,,2022-04-01,合併による解散等,4010401137015,令和４年４月１日東京都港区港南一丁目７番１８号水ｉｎｇＡＭ株式会社（4010401137015）に合併し解散,2015-10-05,1,,,,,ジェイチーム,0
2375,9011001073091,登記記録の閉鎖等,0,2022-04-15,2022-04-01,株式会社やまとアニバーサリー,,株式会社,東京都,渋谷区,千駄ヶ谷５丁目２７番３号,,13,113,1510051,,,2022-04-01,合併による解散等,7011001006053,令和４年４月１日東京都渋谷区千駄ケ谷五丁目２７番３号株式会社アニバーサリー（7011001006053）に合併し解散,2015-10-05,1,,,,,ヤマトアニバーサリー,0
2377,9011001126832,登記記録の閉鎖等,0,2022-04-15,2022-04-04,株式会社Ｍｉｎｄ　ｏｆ　Ｒｅｘ,,株式会社,東京都,渋谷区,神宮前６丁目６番６号穏田１ｓｔ４０１号,,13,113,1500001,,,2022-04-04,清算の結了等,,,2019-03-04,1,,,,,マインドオブレックス,0
2380,9011005008655,登記記録の閉鎖等,0,2022-04-15,2022-04-04,一般社団法人ＳＨＴ,,その他の設立登記法人,東京都,目黒区,洗足２丁目１６番１９号,,13,110,1520012,,,2022-04-04,清算の結了等,,,2020-07-17,1,,,,,エスエイチティー,0
2385,9011202001693,登記記録の閉鎖等,0,2022-04-15,2022-04-04,有限会社キクヤ商事,,有限会社,東京都,中野区,東中野４丁目９番２６号,,13,114,1640003,,,2022-04-04,清算の結了等,,,2015-10-05,1,,,,,キクヤショウジ,0
2386,9011203003532,登記記録の閉鎖等,0,2022-04-15,2022-04-11,合同会社ＴＰＭ,,合同会社,東京都,新宿区,西新宿７丁目２番６号西新宿Ｋ－１ビル４階４２６号室,,13,104,1600023,,,2022-04-11,清算の結了等,,,2021-04-28,1,,,,,ティーピーエム,0
2387,9011405000451,登記記録の閉鎖等,0,2022-04-15,2022-03-28,天理教本財分教会,,その他の設立登記法人,東京都,板橋区,仲宿３５番６号,,13,119,1730005,,,2022-03-28,合併による解散等,4010605000448,令和４年３月２３日東京都墨田区本所一丁目１３番１７号天理教東本大教会（4010605000448）に合併し解散,2015-10-05,1,,,,,,0
2389,9011505000269,登記記録の閉鎖等,0,2022-04-15,2022-03-29,天理教美都分教会,,その他の設立登記法人,東京都,北区,西ケ原１丁目１０番７号,,13,117,1140024,,,2022-03-29,合併による解散等,1010505000419,令和４年３月８日東京都台東区根岸四丁目１１番８号天理教修美分教会（1010505000419）に合併し解散,2015-10-05,1,,,,,テンリキョウミトブンキョウカイ,0
2392,9011802003040,登記記録の閉鎖等,0,2022-04-15,2022-04-07,有限会社齋木ゴム工業所,,有限会社,東京都,葛飾区,西亀有１丁目３１番３号,,13,122,1240002,,,2022-04-07,清算の結了等,,,2015-10-05,1,,,,,,0
2427,9040002054882,登記記録の閉鎖等,0,2022-04-15,2022-04-06,有限会社エスアンドエスジャンボパーキング,,有限会社,千葉県,成田市,取香５１３番地４２,,12,211,2860106,,,2022-04-06,清算の結了等,,,2015-10-05,1,,,,,エスアンドエスジャンボパーキング,0
2430,9050002001165,登記記録の閉鎖等,0,2022-04-15,2022-04-07,有限会社熊倉ガラス店,,有限会社,茨城県,水戸市,見川町２１３１番地の１３４８,,08,201,3100913,,,2022-04-07,清算の結了等,,,2015-10-05,1,,,,,クマクラガラステン,0
2445,9080001004372,登記記録の閉鎖等,0,2022-04-15,2022-04-13,株式会社メディアハウスエージェンシー関西,,株式会社,大阪府,大阪市北区,堂島１丁目５番３０号,,27,127,5300003,,,2022-04-13,合併による解散等,5011101021045,令和４年４月１日東京都新宿区神楽坂二丁目１７番地株式会社メディアハウスホールディングス（5011101021045）に合併し解散,2015-10-05,1,,,,,,0
2446,9080101020344,登記記録の閉鎖等,0,2022-04-15,2022-04-13,株式会社ＡＣプランニング,,株式会社,静岡県,駿東郡長泉町,桜堤１丁目３番６号,,22,342,4110951,,,2022-04-13,清算の結了等,,,2018-02-28,1,,,,,エーシープランニング,0
2460,9100005003161,登記記録の閉鎖等,0,2022-04-15,2022-04-11,相澤寺,,その他の設立登記法人,長野県,佐久市,臼田字西住吉６４５番地,,20,217,3840301,,,2022-04-11,清算の結了等,,,2015-10-05,1,,,,,ソウタクジ,0
2490,9130001014424,登記記録の閉鎖等,0,2022-04-15,2022-04-11,幸和建設株式会社,,株式会社,京都府,京都市伏見区,醍醐和泉町１５番地の２,,26,109,6011351,,,2022-04-11,清算の結了等,,,2015-10-05,1,,,,,コウワケンセツ,0
2515,9180001047361,登記記録の閉鎖等,0,2022-04-15,2022-04-08,株式会社リクルート東海カーセンサー,,株式会社,愛知県,名古屋市中区,栄２丁目１番１号,,23,106,4600008,,,2022-04-08,合併による解散等,5430001025650,令和４年４月１日東京都中央区銀座八丁目４番１７号株式会社リクルートカーセンサー（5430001025650）に合併し解散,2015-10-05,1,,,,,リクルートトウカイカーセンサー,0
2516,9180001120647,登記記録の閉鎖等,0,2022-04-15,2022-04-01,名鉄西部交通西部株式会社,,株式会社,愛知県,一宮市,緑３丁目８番２４号,,23,203,4910862,,,2022-04-01,合併による解散等,2180001084064,令和４年４月１日愛知県一宮市緑三丁目８番２４号名鉄西部交通株式会社（2180001084064）に合併し解散,2015-10-22,1,,,,,メイテツセイブコウツウセイブ,0
2559,9290001027451,登記記録の閉鎖等,0,2022-04-15,2022-04-07,株式会社博多しんよう,,株式会社,福岡県,福岡市東区,松島３丁目３１番１号,,40,131,8130062,,,2022-04-07,清算の結了等,,,2015-10-05,1,,,,,ハカタシンヨウ,0
2575,9310002001931,登記記録の閉鎖等,0,2022-04-15,2022-04-11,有限会社サンエック,,有限会社,長崎県,長崎市,田中町１１６９番地６,,42,201,8510134,,,2022-04-11,合併による解散等,1120001041369,令和４年４月１日大阪市西区立売堀三丁目８番２号井上定株式会社（1120001041369）に合併し解散,2015-10-05,1,,,,,サンエック,0
2579,9330005002198,登記記録の閉鎖等,0,2022-04-15,2022-04-05,特定非営利活動法人熊本自然災害研究会,,その他の設立登記法人,熊本県,熊本市東区,錦ケ丘３３番１７号,,43,102,8620912,,,2022-04-05,清算の結了等,,,2015-10-05,1,,,,,クマモトシゼンサイガイケンキュウカイ,0
2611,9490005003899,登記記録の閉鎖等,0,2022-04-15,2022-03-29,天理教高久分教会,,その他の設立登記法人,高知県,高岡郡中土佐町,久礼中島６２０３番地１３,,39,401,7891301,,,2022-03-29,合併による解散等,3490005003062,令和４年３月２９日高知県土佐市宇佐町宇佐字土居１８６２番地天理教土南分教会（3490005003062）に合併し解散,2015-10-05,1,,,,,テンリキョウタカヒサブンキョウカイ,0
