sequenceNumber,corporateNumber,process,correct,updateDate,changeDate,name,nameImageId,kind,prefectureName,cityName,streetNumber,addressImageId,prefectureCode,cityCode,postCode,addressOutside,addressOutsideImageId,closeDate,closeCause,successorCorporateNumber,changeCause,assignmentDate,latest,enName,enPrefectureName,enCityName,enAddressOutside,furigana,hihyoji
8,1010001230131,新規,0,2022-10-18,2022-10-18,株式会社ＪＹプラス,,株式会社,東京都,中央区,銀座１丁目１２番４号Ｎ＆ＥＢＬＤ．６Ｆ,,13,102,1040061,,,,,,,2022-10-18,1,,,,,ジェイワイプラス,0
9,1010001230222,新規,0,2022-10-18,2022-10-18,株式会社ＴＨＥ　ＳＨＡＰＥＲ,,株式会社,東京都,千代田区,丸の内１丁目５番１号,,13,101,1000005,,,,,,,2022-10-18,1,,,,,ザシェーパー,0
19,1010005035683,新規,0,2022-10-18,2022-10-18,一般社団法人双葉会倶楽部,,その他の設立登記法人,東京都,中央区,月島１丁目５番１－３７１２号,,13,102,1040052,,,,,,,2022-10-18,1,,,,,フタバカイクラブ,0
27,1010401170299,新規,0,2022-10-18,2022-10-18,アンダーツリー株式会社,,株式会社,東京都,港区,港南３丁目６番２１―２８１２号,,13,103,1080075,,,,,,,2022-10-18,1,,,,,アンダーツリー,0
36,1010701043287,新規,0,2022-10-18,2022-10-18,株式会社ＷＯＷ　ＷＯＲＬＤ　ＧＲＯＵＰ,,株式会社,東京都,品川区,西五反田７丁目２０番９号ＫＤＸ西五反田ビル４階,,13,109,1410031,,,,,,,2022-10-18,1,,,,,ワオワールドグループ,0
40,1010901051809,新規,0,2022-10-18,2022-10-18,株式会社オーチャンコネクト,,株式会社,東京都,世田谷区,池尻３丁目２６番５号グリュックブルグ落合１０１号室,,13,112,1540001,,,,,,,2022-10-18,1,,,,,オーチャンコネクト,0
52,1011001150170,新規,0,2022-10-18,2022-10-18,サンドーホールディングス株式会社,,株式会社,東京都,渋谷区,神宮前６丁目１６番１９号,,13,113,1500001,,,,,,,2022-10-18,1,,,,,サンドーホールディングス,0
53,1011001150344,新規,0,2022-10-18,2022-10-18,株式会社ＴＯＣＨＫＡ,,株式会社,東京都,目黒区,目黒２丁目１１－３印刷工場１階,,13,110,1530063,,,,,,,2022-10-18,1,,,,,トーチカ,0
55,1011003015504,新規,0,2022-10-18,2022-10-18,ニコラス合同会社,,合同会社,東京都,渋谷区,道玄坂１丁目１０番８号渋谷道玄坂東急ビル２Ｆ－Ｃ,,13,113,1500043,,,,,,,2022-10-18,1,,,,,ニコラス,0
62,1011103012269,新規,0,2022-10-18,2022-10-18,合同会社パギ,,合同会社,東京都,新宿区,西新宿３丁目３番１３号西新宿水間ビル６階,,13,104,1600023,,,,,,,2022-10-18,1,,,,,パギ,0
66,1011201024166,新規,0,2022-10-18,2022-10-18,株式会社ＡＭｕクリエイション,,株式会社,東京都,中野区,野方１丁目４１番５号,,13,114,1650027,,,,,,,2022-10-18,1,,,,,アムクリエイション,0
67,1011301028174,新規,0,2022-10-18,2022-10-18,株式会社ＳＩＮＣＥＲＥ,,株式会社,東京都,杉並区,西荻北３丁目２０番１２－２０２号グラツィオーソ西荻窪,,13,115,1670042,,,,,,,2022-10-18,1,,,,,シンシア,0
70,1011302017416,新規,0,2022-10-18,2022-10-18,有限会社八木治郎事務所,,有限会社,東京都,杉並区,浜田山２丁目４番８号,,13,115,1680065,,,,,,,2022-10-18,1,,,,,,0
77,1011501028544,新規,0,2022-10-18,2022-10-18,株式会社マウンテン,,株式会社,東京都,北区,東十条１丁目１２－７,,13,117,1140001,,,,,,,2022-10-18,1,,,,,マウンテン,0
79,1011603003726,新規,0,2022-10-18,2022-10-18,合同会社ライフ・バリュー・クリエーション,,合同会社,東京都,練馬区,上石神井２丁目３１番２４号,,13,120,1770044,,,,,,,2022-10-18,1,,,,,ライフバリュークリエーション,0
81,1011803005316,新規,0,2022-10-18,2022-10-18,合同会社ダックス,,合同会社,東京都,足立区,西新井４丁目２４番１７号,,13,121,1230841,,,,,,,2022-10-18,1,,,,,ダックス,0
84,1012401039755,新規,0,2022-10-18,2022-10-18,株式会社ＷＩＮＧＳ,,株式会社,東京都,武蔵野市,御殿山１丁目５番５号沢田ビル２Ｆ,,13,203,1800005,,,,,,,2022-10-18,1,,,,,ウイングズ,0
91,1013301049794,新規,0,2022-10-18,2022-10-18,株式会社クオリア・リレーションズ,,株式会社,東京都,豊島区,南大塚３丁目４６番３号,,13,116,1700005,,,,,,,2022-10-18,1,,,,,クオリアリレーションズ,0
92,1013301049811,新規,0,2022-10-18,2022-10-18,株式会社ＭＯＤＥＲＮＷＯＲＫＳ　ＪＡＰＡＮ,,株式会社,東京都,豊島区,東池袋５丁目７番３号アゼリア東池袋４０１,,13,116,1700013,,,,,,,2022-10-18,1,,,,,モダンワークスジャパン,0
101,1020001148447,新規,0,2022-10-18,2022-10-18,株式会社山岸工業,,株式会社,神奈川県,横浜市泉区,和泉町５９９８番地８ルミネいずみ野Ｂ３０１号,,14,116,2450016,,,,,,,2022-10-18,1,,,,,ヤマギシコウギョウ,0
102,1020001148620,新規,0,2022-10-18,2022-10-18,株式会社子安裕樹ＲＣ,,株式会社,神奈川県,横浜市港北区,篠原西町１８番３号,,14,109,2220025,,,,,,,2022-10-18,1,,,,,コヤスユウキアールシー,0
108,1020003022575,新規,0,2022-10-18,2022-10-18,ＷＨＩＳＵＫＩ合同会社,,合同会社,神奈川県,横浜市西区,北幸１丁目１番８号エキニア横浜５階ＨａｍａＰｏｒｔ内,,14,103,2200004,,,,,,,2022-10-18,1,,,,,ウイスキ,0
114,1021001077157,新規,0,2022-10-18,2022-10-18,株式会社秀建,,株式会社,神奈川県,足柄下郡湯河原町,門川４９７番地の７,,14,384,2590302,,,,,,,2022-10-18,1,,,,,シュウケン,0
124,1030001150609,新規,0,2022-10-18,2022-10-18,株式会社ＢＥＣ,,株式会社,埼玉県,富士見市,大字下南畑８番１４号,,11,235,3540004,,,,,,,2022-10-18,1,,,,,ベック,0
125,1030001150617,新規,0,2022-10-18,2022-10-18,株式会社Ｆｉｎｅ　ｔｒａｄｉｎｇ,,株式会社,埼玉県,草加市,八幡町５９４番地１０,,11,221,3400006,,,,,,,2022-10-18,1,,,,,ファイントレーディング,0
130,1030003020388,新規,0,2022-10-18,2022-10-18,合同会社Ｄ‐ｓｉｇｎ,,合同会社,埼玉県,春日部市,小渕４４６番１号セフィラオオツカＡ２０１,,11,214,3440007,,,,,,,2022-10-18,1,,,,,ディーサイン,0
131,1030003020421,新規,0,2022-10-18,2022-10-18,エーワイ・エンタープライズ合同会社,,合同会社,埼玉県,入間市,豊岡１丁目３番２９号淺見ビル５階,,11,225,3580003,,,,,,,2022-10-18,1,,,,,エーワイエンタープライズ,0
136,1040001125394,新規,0,2022-10-18,2022-10-18,株式会社アクア,,株式会社,千葉県,船橋市,高野台３丁目１４番３－４０２,,12,204,2740801,,,,,,,2022-10-18,1,,,,,アクア,0
137,1040001125452,新規,0,2022-10-18,2022-10-18,株式会社さんうぇるびー,,株式会社,千葉県,館山市,八幡４９３番地の４,,12,205,2940047,,,,,,,2022-10-18,1,,,,,サンウェルビー,0
138,1040001125485,新規,0,2022-10-18,2022-10-18,株式会社庄司工業,,株式会社,千葉県,佐倉市,中志津３丁目１５番１０号,,12,212,2850843,,,,,,,2022-10-18,1,,,,,ショウジコウギョウ,0
140,1040003021071,新規,0,2022-10-18,2022-10-18,合同会社広橋商会,,合同会社,千葉県,船橋市,金杉７丁目５１番２３号,,12,204,2730853,,,,,,,2022-10-18,1,,,,,ヒロハシショウカイ,0
169,1120001249482,新規,0,2022-10-18,2022-10-18,株式会社レガシス,,株式会社,大阪府,大阪市西区,立売堀４丁目６番２５－１２０１,,27,106,5500012,,,,,,,2022-10-18,1,,,,,レガシス,0
170,1120001249623,新規,0,2022-10-18,2022-10-18,ＴＫＲ株式会社,,株式会社,大阪府,大阪市都島区,内代町２丁目９番６－１５０１号,,27,102,5340013,,,,,,,2022-10-18,1,,,,,ティーケーアール,0
171,1120001249631,新規,0,2022-10-18,2022-10-18,株式会社ＫＯＤＺＵＫＩ,,株式会社,大阪府,門真市,北岸和田２丁目５番３４－６０８号,,27,223,5710007,,,,,,,2022-10-18,1,,,,,コウヅキ,0
176,1120003022656,新規,0,2022-10-18,2022-10-18,合同会社トラストスリーエステート,,合同会社,大阪府,大阪市東住吉区,山坂３丁目５番１７号,,27,121,5460035,,,,,,,2022-10-18,1,,,,,トラストスリーエステート,0
177,1120003022680,新規,0,2022-10-18,2022-10-18,高信合同会社,,合同会社,大阪府,大阪市西淀川区,中島２丁目１１番９８号,,27,113,5550041,,,,,,,2022-10-18,1,,,,,コウシン,0
178,1120005023248,新規,0,2022-10-18,2022-10-18,一般社団法人子どもとママの隠れ家わいわい,,その他の設立登記法人,大阪府,大阪市東住吉区,今川２丁目３番７号,,27,121,5460003,,,,,,,2022-10-18,1,,,,,コドモトママノカクレガワイワイ,0
188,1130001072826,新規,0,2022-10-18,2022-10-18,株式会社Ｈｏｊａｓ,,株式会社,京都府,京都市左京区,松ケ崎御所ノ内町２３,,26,103,6060944,,,,,,,2022-10-18,1,,,,,オーハ,0
195,1150001025889,新規,0,2022-10-18,2022-10-18,株式会社木田商事,,株式会社,奈良県,奈良市,北之庄町７３６番地の１,,29,201,6308451,,,,,,,2022-10-18,1,,,,,キダショウジ,0
209,1180003024382,新規,0,2022-10-18,2022-10-18,合同会社４５Ｆａｃｔｏｒｙ,,合同会社,愛知県,名古屋市北区,黒川本通４丁目７番地の１,,23,103,4620841,,,,,,,2022-10-18,1,,,,,ヨンゴーファクトリー,0
214,1180301036740,新規,0,2022-10-18,2022-10-18,株式会社高商,00128168,株式会社,愛知県,西尾市,鶴舞町７７番地２,,23,213,4450845,,,,,,,2022-10-18,1,,,,,タカショウ,0
216,1180305009404,新規,0,2022-10-18,2022-10-18,特定非営利活動法人石巻発展実行委員会,,その他の設立登記法人,愛知県,豊橋市,石巻町字上屋敷２０番地３,,23,201,4411112,,,,,,,2022-10-18,1,,,,,イシマキハッテンジッコウイインカイ,0
217,1190001029845,新規,0,2022-10-18,2022-10-18,株式会社Ｂｅ　Ｆｒｅｅ,,株式会社,三重県,名張市,瀬古口１３４番地の２ハートアイランド２階,,24,208,5180445,,,,,,,2022-10-18,1,,,,,ビーフリー,0
220,1200001040560,新規,0,2022-10-18,2022-10-18,株式会社ティーアールワイ,,株式会社,岐阜県,土岐市,泉町定林寺８０６番地の４,,21,212,5095102,,,,,,,2022-10-18,1,,,,,ティーアールワイ,0
225,1220003003381,新規,0,2022-10-18,2022-10-18,千代田工建合同会社,,合同会社,石川県,金沢市,利屋町る３０番地,,17,201,9200101,,,,,,,2022-10-18,1,,,,,チヨダコウケン,0
248,1290001099110,新規,0,2022-10-18,2022-10-18,株式会社心渡,,株式会社,福岡県,福岡市中央区,天神３丁目１５－２４三天第一ビル２０５号,,40,133,8100001,,,,,,,2022-10-18,1,,,,,ココロワタリ,0
249,1290001099259,新規,0,2022-10-18,2022-10-18,株式会社アルカラフ,,株式会社,福岡県,福岡市博多区,中洲中島町３番１５号,,40,132,8100802,,,,,,,2022-10-18,1,,,,,アルカラフ,0
254,1290003013077,新規,0,2022-10-18,2022-10-18,ＢＡＮ合同会社,,合同会社,福岡県,福岡市博多区,吉塚１丁目１６番７号ステーションサイド吉塚４０７号,,40,132,8120041,,,,,,,2022-10-18,1,,,,,バン,0
256,1300001013102,新規,0,2022-10-18,2022-10-18,株式会社ＩＥ,,株式会社,佐賀県,唐津市,中原２８２５番地４,,41,202,8470034,,,,,,,2022-10-18,1,,,,,イエ,0
265,1360003012385,新規,0,2022-10-18,2022-10-18,合同会社結まーる,,合同会社,沖縄県,中頭郡西原町,字翁長５９４番地、２Ｅ,,47,329,9030117,,,,,,,2022-10-18,1,,,,,ユイマール,0
267,1370001049156,新規,0,2022-10-18,2022-10-18,株式会社ＳＩＲＯ,,株式会社,宮城県,仙台市青葉区,木町通２丁目６番２７号,,04,101,9800801,,,,,,,2022-10-18,1,,,,,シロ,0
271,1380005012638,新規,0,2022-10-18,2022-10-18,一般社団法人福島県自動車販売店協会,,その他の設立登記法人,福島県,福島市,吉倉字名倉１番地の１,,07,201,9608165,,,,,,,2022-10-18,1,,,,,フクシマケンジドウシャハンバイテンキョウカイ,0
277,1430001087604,新規,0,2022-10-18,2022-10-18,株式会社粉もん屋八ＮＯＲＴＨ　ＧＲＯＵＰ,,株式会社,北海道,札幌市西区,琴似一条２丁目５番６号,,01,107,0630811,,,,,,,2022-10-18,1,,,,,コナモンヤハチノースグループ,0
278,1430001087678,新規,0,2022-10-18,2022-10-18,株式会社スピンキャリア,,株式会社,北海道,札幌市中央区,南六条西１２丁目１３０１番地３ＭＯＤＥＮＡ　ＳＩＡＮ６０８号,,01,101,0640806,,,,,,,2022-10-18,1,,,,,スピンキャリア,0
314,2010001230188,新規,0,2022-10-18,2022-10-18,株式会社ＭｂＭ,,株式会社,東京都,中央区,銀座８丁目６番２０号幸佑ビル１Ｆ,,13,102,1040061,,,,,,,2022-10-18,1,,,,,エムビーエム,0
316,2010003038877,新規,0,2022-10-18,2022-10-18,ＳＲＥＷＦ合同会社,,合同会社,東京都,中央区,日本橋１丁目４番１号,,13,102,1030027,,,,,,,2022-10-18,1,,,,,エスアールイーダブリューエフ,0
319,2010005035633,新規,0,2022-10-18,2022-10-18,一般社団法人食と安全研究会,,その他の設立登記法人,東京都,千代田区,永田町２丁目９番６号,,13,101,1000014,,,,,,,2022-10-18,1,,,,,ショクトアンゼンケンキュウカイ,0
339,2010701043352,新規,0,2022-10-18,2022-10-18,囲碁ひだまり株式会社,,株式会社,東京都,品川区,西五反田１丁目２６番２号五反田サンハイツ９１１,,13,109,1410031,,,,,,,2022-10-18,1,,,,,イゴヒダマリ,0
345,2010901051799,新規,0,2022-10-18,2022-10-18,株式会社Ｇｅｃｋｏ　Ａｒｃｈｉｔｅｃｔｓ　Ｄｅｓｉｇｎ,,株式会社,東京都,世田谷区,弦巻１丁目５０番６号,,13,112,1540016,,,,,,,2022-10-18,1,,,,,ゲッコーアーキテクツデザイン,0
360,2011005009767,新規,0,2022-10-18,2022-10-18,ＩＮＧ社会保険労務士法人,,その他の設立登記法人,東京都,渋谷区,神宮前６丁目２３－４,,13,113,1500001,,,,,,,2022-10-18,1,,,,,アイエヌジー,0
366,2011201024165,新規,0,2022-10-18,2022-10-18,宇川株式会社,,株式会社,東京都,中野区,野方３丁目２３番３号,,13,114,1650027,,,,,,,2022-10-18,1,,,,,ウガワ,0
376,2011601026315,新規,0,2022-10-18,2022-10-18,日中商務株式会社,,株式会社,東京都,練馬区,豊玉北４丁目２２－３－４０１室,,13,120,1760012,,,,,,,2022-10-18,1,,,,,ニッチュウショウム,0
379,2011801041378,新規,0,2022-10-18,2022-10-18,株式会社Ｓｕｎ　Ｒｏａｄ,,株式会社,東京都,足立区,谷在家２丁目９番１１－３０６号,,13,121,1230863,,,,,,,2022-10-18,1,,,,,サンロード,0
380,2011801041411,新規,0,2022-10-18,2022-10-18,株式会社ＴＡＩ,,株式会社,東京都,葛飾区,南水元１丁目４番２０号,,13,122,1250035,,,,,,,2022-10-18,1,,,,,ティーエーアイ,0
383,2012301013165,新規,0,2022-10-18,2022-10-18,株式会社オット,,株式会社,東京都,町田市,金森１丁目３番１号浜野屋ビル２０３,,13,209,1940012,,,,,,,2022-10-18,1,,,,,オット,0
394,2012803002888,新規,0,2022-10-18,2022-10-18,合同会社ＮＹアセットマネジメント,,合同会社,東京都,日野市,旭が丘５丁目１２番５３－２０５号,,13,212,1910065,,,,,,,2022-10-18,1,,,,,エヌワイアセットマネジメント,0
397,2013301049802,新規,0,2022-10-18,2022-10-18,株式会社スリーラボ,,株式会社,東京都,豊島区,東池袋１丁目１８－１ＨａｒｅｚａＴｏｗｅｒ,,13,116,1700013,,,,,,,2022-10-18,1,,,,,スリーラボ,0
398,2013303006330,新規,0,2022-10-18,2022-10-18,合同会社Ｓｍａｒｔ　Ｂｅａｎｓ　Ｃｏｎｓｕｌｔｉｎｇ,,合同会社,東京都,豊島区,北大塚１丁目１９－１２－６Ｆ－３３,,13,116,1700004,,,,,,,2022-10-18,1,,,,,スマートビーンズコンサルティング,0
399,2013303006339,新規,0,2022-10-18,2022-10-18,川野中嶋合同会社,,合同会社,東京都,豊島区,東池袋１丁目３６番３号,,13,116,1700013,,,,,,,2022-10-18,1,,,,,カワノナカジマ,0
416,2020003022566,新規,0,2022-10-18,2022-10-18,合同会社ＣｈａｍｅｌｅｏｎＭｅｍｅ,,合同会社,神奈川県,川崎市幸区,戸手４丁目１０番３－９０１号クリオ川崎リバーサイド,,14,132,2120005,,,,,,,2022-10-18,1,,,,,カメレオンミーム,0
420,2020005015691,新規,0,2022-10-18,2022-10-18,特定非営利活動法人横浜青葉リトルシニア野球協会,,その他の設立登記法人,神奈川県,横浜市都筑区,葛が谷１－７０３,,14,118,2240062,,,,,,,2022-10-18,1,,,,,ヨコハマアオバリトルシニアヤキュウキョウカイ,0
425,2021001077206,新規,0,2022-10-18,2022-10-18,株式会社ＯＮＥ’Ｓ,,株式会社,神奈川県,厚木市,飯山南４丁目２０番２７号,,14,212,2430218,,,,,,,2022-10-18,1,,,,,ワンズ,0
426,2021001077214,新規,0,2022-10-18,2022-10-18,株式会社ａｌｌｉａ,,株式会社,神奈川県,大和市,南林間３丁目７番２０号グレース２０５,,14,213,2420006,,,,,,,2022-10-18,1,,,,,アリア,0
427,2021001077230,新規,0,2022-10-18,2022-10-18,株式会社Ｓｈａｂａｎｉ,,株式会社,神奈川県,愛甲郡愛川町,中津４０６１番地の３内陸コーポ２３３,,14,401,2430303,,,,,,,2022-10-18,1,,,,,シャバーニ,0
428,2021001077239,新規,0,2022-10-18,2022-10-18,株式会社Ｒｏａｒ　Ｈｚ,,株式会社,神奈川県,茅ヶ崎市,中海岸３丁目１２９８６番２５号,,14,207,2530055,,,,,,,2022-10-18,1,,,,,ロアヘルツ,0
432,2021003012268,新規,0,2022-10-18,2022-10-18,合同会社グッドクラウド,,合同会社,神奈川県,足柄上郡大井町,西大井５８５－２４,,14,362,2580017,,,,,,,2022-10-18,1,,,,,グッドクラウド,0
442,2030001150351,新規,0,2022-10-18,2022-10-18,株式会社嶋津工業,,株式会社,埼玉県,鶴ヶ島市,大字藤金８９８番地１０,,11,241,3502206,,,,,,,2022-10-18,1,,,,,シマヅコウギョウ,0
443,2030001150558,新規,0,2022-10-18,2022-10-18,株式会社ＴＨＵ　ＨＵＯＮＧ国際貿易ＧＲＯＵＰ,,株式会社,埼玉県,春日部市,粕壁東１丁目１番１４号田口ビル４０１号室,,11,214,3440062,,,,,,,2022-10-18,1,,,,,トゥフンコクサイボウエキグループ,0
444,2030001150608,新規,0,2022-10-18,2022-10-18,株式会社Ｔｉ‐ＰＲＯＯＦ,,株式会社,埼玉県,越谷市,大字袋山１５５番地１サンフルール１０３,,11,222,3430032,,,,,,,2022-10-18,1,,,,,ティーアイプルーフ,0
445,2030001150624,新規,0,2022-10-18,2022-10-18,株式会社ステルラ,,株式会社,埼玉県,さいたま市見沼区,大和田町１丁目１４６２－１,,11,104,3370053,,,,,,,2022-10-18,1,,,,,ステルラ,0
450,2030003020412,新規,0,2022-10-18,2022-10-18,合同会社埼玉アセット,,合同会社,埼玉県,上尾市,二ツ宮７９５番地１３,,11,219,3620017,,,,,,,2022-10-18,1,,,,,サイタマアセット,0
451,2030003020420,新規,0,2022-10-18,2022-10-18,合同会社陶徳堂研究所,,合同会社,埼玉県,さいたま市岩槻区,大字本宿４７０番９号,,11,110,3390074,,,,,,,2022-10-18,1,,,,,トウトクドウケンキュウジョ,0
452,2030005021029,新規,0,2022-10-18,2022-10-18,医療法人社団さとじび,,その他の設立登記法人,埼玉県,草加市,松原１丁目７番２２号さいゆうヴィレッジ２階,,11,221,3400041,,,,,,,2022-10-18,1,,,,,サトジビ,0
457,2040003021054,新規,0,2022-10-18,2022-10-18,合同会社おおたかピクルス,,合同会社,千葉県,松戸市,新作３８４番地の１,,12,207,2710052,,,,,,,2022-10-18,1,,,,,オオタカピクルス,0
465,2080003002892,新規,0,2022-10-18,2022-10-18,合同会社セカンド,,合同会社,静岡県,静岡市駿河区,広野５丁目１１－２,,22,102,4210121,,,,,,,2022-10-18,1,,,,,セカンド,0
471,2100005012929,新規,0,2022-10-18,2022-10-18,医療法人すがわら小児クリニック,,その他の設立登記法人,長野県,茅野市,ちの２５７番地３,,20,214,3910001,,,,,,,2022-10-18,1,,,,,スガワラショウニクリニック,0
484,2120001249507,新規,0,2022-10-18,2022-10-18,株式会社珀月,,株式会社,大阪府,枚方市,春日元町１丁目４１番１３号,,27,210,5730135,,,,,,,2022-10-18,1,,,,,ハヅキ,0
485,2120001249556,新規,0,2022-10-18,2022-10-18,太豊株式会社,,株式会社,大阪府,大阪市北区,天満２丁目１－１２天満橋ＳＥビル４階,,27,127,5300043,,,,,,,2022-10-18,1,,,,,タイホウ,0
486,2120001249597,新規,0,2022-10-18,2022-10-18,株式会社Ａｔｅｌｉｅｒ,,株式会社,大阪府,大阪市中央区,内本町２丁目４番１６号,,27,128,5400026,,,,,,,2022-10-18,1,,,,,アトリエ,0
487,2120001249606,新規,0,2022-10-18,2022-10-18,株式会社フレームワーク,,株式会社,大阪府,大阪市住吉区,墨江２丁目１番４号－４Ｆ,,27,120,5580043,,,,,,,2022-10-18,1,,,,,フレームワーク,0
488,2120003022655,新規,0,2022-10-18,2022-10-18,合同会社トラストツーエステート,,合同会社,大阪府,大阪市東住吉区,山坂３丁目５番１７号,,27,121,5460035,,,,,,,2022-10-18,1,,,,,トラストツーエステート,0
491,2120103004867,新規,0,2022-10-18,2022-10-18,合同会社ＫＩＲ,,合同会社,大阪府,南河内郡太子町,大字葉室１３８４－２,,27,381,5830994,,,,,,,2022-10-18,1,,,,,ケイアイアール,0
493,2122001036331,新規,0,2022-10-18,2022-10-18,株式会社グローバルフォーカス,,株式会社,大阪府,東大阪市,横枕西１１番７号,,27,227,5780956,,,,,,,2022-10-18,1,,,,,グローバルフォーカス,0
497,2130001072833,新規,0,2022-10-18,2022-10-18,株式会社Ｊ・Ｆｏｒｃｅ,,株式会社,京都府,京都市中京区,新烏丸通御霊図子下る東椹木町１２６番地２,,26,104,6040906,,,,,,,2022-10-18,1,,,,,ジェイフォース,0
512,2150001025888,新規,0,2022-10-18,2022-10-18,株式会社リッキーマート,,株式会社,奈良県,磯城郡田原本町,大字阪手６８９番地,,29,363,6360247,,,,,,,2022-10-18,1,,,,,リッキーマート,0
524,2180001153380,新規,0,2022-10-18,2022-10-18,株式会社鴻陽,,株式会社,愛知県,名古屋市千種区,法王町２丁目３番地日生覚王山第二コープラストＢ棟１０１,,23,101,4640057,,,,,,,2022-10-18,1,,,,,コウヨウ,0
528,2180003024357,新規,0,2022-10-18,2022-10-18,合同会社ＴＲＩＢＥ,,合同会社,愛知県,常滑市,保示町３丁目１７４番地,,23,216,4790827,,,,,,,2022-10-18,1,,,,,トライブ,0
533,2180301036731,新規,0,2022-10-18,2022-10-18,ファーマーズ広場株式会社,,株式会社,愛知県,刈谷市,築地町５丁目１０番地９,,23,210,4480011,,,,,,,2022-10-18,1,,,,,ファーマーズヒロバ,0
537,2190001029828,新規,0,2022-10-18,2022-10-18,株式会社ＣＬｅａｒ,,株式会社,三重県,四日市市,東富田町１４番４号,,24,202,5108006,,,,,,,2022-10-18,1,,,,,クリア,0
547,2240001060521,新規,0,2022-10-18,2022-10-18,広島商事株式会社,,株式会社,広島県,東広島市,志和町七条椛坂１７００番地,,34,212,7390264,,,,,,,2022-10-18,1,,,,,ヒロシマショウジ,0
555,2290001099266,新規,0,2022-10-18,2022-10-18,日本消防・防災デザイン株式会社,,株式会社,福岡県,福岡市中央区,天神２丁目３番１０号天神パインクレスト４０７号,,40,133,8100001,,,,,,,2022-10-18,1,,,,,ニホンショウボウボウサイデザイン,0
562,2290003013076,新規,0,2022-10-18,2022-10-18,ＥＮＩＳＨＩ合同会社,,合同会社,福岡県,福岡市博多区,下呉服町３番１９－７０３号クリオラベルヴィ呉服町,,40,132,8120034,,,,,,,2022-10-18,1,,,,,エニシ,0
567,2320001019377,新規,0,2022-10-18,2022-10-18,株式会社高橋工業,00128163,株式会社,大分県,竹田市,大字小塚２３６８番地,00128164,44,208,8796181,,,,,,,2022-10-18,1,,,,,タカハシコウギョウ,0
576,2360001031080,新規,0,2022-10-18,2022-10-18,株式会社ＥｍｉＬ,,株式会社,沖縄県,那覇市,西２丁目６番１１号,,47,201,9000036,,,,,,,2022-10-18,1,,,,,エミル,0
577,2360001031089,新規,0,2022-10-18,2022-10-18,株式会社中村塗装工業,,株式会社,沖縄県,石垣市,字真栄里４１２番地５,,47,207,9070002,,,,,,,2022-10-18,1,,,,,ナカムラトソウコウギョウ,0
596,2430001087644,新規,0,2022-10-18,2022-10-18,株式会社アムテン,,株式会社,北海道,札幌市中央区,大通東２丁目６番地シティタワー札幌大通２２０３号,,01,101,0600041,,,,,,,2022-10-18,1,,,,,アムテン,0
597,2430001087669,新規,0,2022-10-18,2022-10-18,株式会社ＬＯＯＰ,,株式会社,北海道,札幌市南区,藤野五条５丁目２４番２号,,01,106,0612285,,,,,,,2022-10-18,1,,,,,ループ,0
603,2430003014373,新規,0,2022-10-18,2022-10-18,合同会社ｒｅｌｉｔｙ,,合同会社,北海道,札幌市厚別区,大谷地西３丁目３番３号,,01,108,0040042,,,,,,,2022-10-18,1,,,,,レリティ,0
607,2460103001491,新規,0,2022-10-18,2022-10-18,合同会社ＫＭＩ．Ｉｎｔｅｒｎａｔｉｏｎａｌ,,合同会社,北海道,帯広市,西十七条南３丁目３５番１５号,,01,207,0800027,,,,,,,2022-10-18,1,,,,,カムイインターナショナル,0
628,3010001230006,新規,0,2022-10-18,2022-10-18,株式会社Ｒｅｖｉｄ,,株式会社,東京都,中央区,新川２丁目２７番４－１９１７号,,13,102,1040033,,,,,,,2022-10-18,1,,,,,リビッド,0
631,3010003038884,新規,0,2022-10-18,2022-10-18,合同会社Ｅｖｅｒｂｒｉｄｇｅ　Ａｄｖｉｓｏｒｓ,,合同会社,東京都,中央区,日本橋２丁目２番３号ＲＩＳＨＥビルＵＣＦ４階,,13,102,1030027,,,,,,,2022-10-18,1,,,,,エバーブリッジアドバイザーズ,0
641,3010401170314,新規,0,2022-10-18,2022-10-18,ＪＥ　ＦＯＲＥＳＴ株式会社,,株式会社,東京都,港区,港南２丁目１６番１号品川イーストワンタワー４階,,13,103,1080075,,,,,,,2022-10-18,1,,,,,ジェイイーフォレスト,0
644,3010403028725,新規,0,2022-10-18,2022-10-18,合同会社Ｏｙｍｌ,,合同会社,東京都,港区,北青山３丁目５番１４号６階,,13,103,1070061,,,,,,,2022-10-18,1,,,,,オユマル,0
645,3010403028733,新規,0,2022-10-18,2022-10-18,合同会社ＴＩＬＬＩＮＧ,,合同会社,東京都,港区,白金台５丁目３番３号協立興産白金台ビル３Ａ,,13,103,1080071,,,,,,,2022-10-18,1,,,,,ティリング,0
649,3010503006754,新規,0,2022-10-18,2022-10-18,合同会社梅屋,,合同会社,東京都,台東区,浅草４丁目９番３号石村ビル１Ｆ,,13,106,1110032,,,,,,,2022-10-18,1,,,,,ウメヤ,0
666,3011003015510,新規,0,2022-10-18,2022-10-18,ｉＣｏｍａ合同会社,,合同会社,東京都,渋谷区,道玄坂１丁目１０番８号渋谷道玄坂東急ビル２Ｆ－Ｃ,,13,113,1500043,,,,,,,2022-10-18,1,,,,,アイコマ,0
667,3011005009782,新規,0,2022-10-18,2022-10-18,医療法人社団駒桜会,,その他の設立登記法人,東京都,目黒区,八雲５丁目９－２１駒沢マンション１０２,,13,110,1520023,,,,,,,2022-10-18,1,,,,,コマオウカイ,0
689,3011801041410,新規,0,2022-10-18,2022-10-18,株式会社シノダ,,株式会社,東京都,葛飾区,金町５丁目３０番８号,,13,122,1250042,,,,,,,2022-10-18,1,,,,,シノダ,0
701,3013301049776,新規,0,2022-10-18,2022-10-18,ＡＬＬ　ＳＴＡＦＦ　ＪＡＰＡＮ株式会社,,株式会社,東京都,豊島区,西池袋３丁目３０番１１号泰共フラットビル６０７号室,,13,116,1710021,,,,,,,2022-10-18,1,,,,,オールスタッフジャパン,0
702,3013301049818,新規,0,2022-10-18,2022-10-18,株式会社ショップリサーチコンサルティング,,株式会社,東京都,豊島区,南池袋２丁目２６番５号,,13,116,1710022,,,,,,,2022-10-18,1,,,,,ショップリサーチコンサルティング,0
709,3020001148610,新規,0,2022-10-18,2022-10-18,横浜モビリティ株式会社,,株式会社,神奈川県,横浜市中区,豆口台１４６番地－１０１,,14,104,2310838,,,,,,,2022-10-18,1,,,,,ヨコハマモビリティ,0
716,3020003022581,新規,0,2022-10-18,2022-10-18,ホサカリサーチ合同会社,,合同会社,神奈川県,横浜市港北区,樽町１丁目１２番４１号,,14,109,2220001,,,,,,,2022-10-18,1,,,,,ホサカリサーチ,0
720,3021005012629,新規,0,2022-10-18,2022-10-18,一般社団法人真鶴町シルバー人材センター,,その他の設立登記法人,神奈川県,足柄下郡真鶴町,真鶴１７８９番地,,14,383,2590201,,,,,,,2022-10-18,1,,,,,マナヅルマチシルバージンザイセンター,0
728,3030001150417,新規,0,2022-10-18,2022-10-18,株式会社木造技術研究所,,株式会社,埼玉県,所沢市,西所沢１丁目１６番３１号,,11,208,3591144,,,,,,,2022-10-18,1,,,,,モクゾウギジュツケンキュウジョ,0
729,3030001150598,新規,0,2022-10-18,2022-10-18,株式会社ＰＣ事務・技術センター,,株式会社,埼玉県,所沢市,星の宮２丁目６番２５号,,11,208,3591127,,,,,,,2022-10-18,1,,,,,ピーシージムギジュツセンター,0
730,3030001150615,新規,0,2022-10-18,2022-10-18,株式会社Ｖａｌｍｅｋ,,株式会社,埼玉県,川越市,泉町２番地２－３１７,,11,201,3500026,,,,,,,2022-10-18,1,,,,,バルメク,0
731,3030001150623,新規,0,2022-10-18,2022-10-18,株式会社癒庵堂,,株式会社,埼玉県,川口市,西川口１丁目２６番４号,,11,203,3320021,,,,,,,2022-10-18,1,,,,,ユアンドウ,0
732,3030001150631,新規,0,2022-10-18,2022-10-18,株式会社ｐｏｌｅｐｏｌｅ,,株式会社,埼玉県,所沢市,西狭山ケ丘１丁目２４４３番地の２１,,11,208,3591163,,,,,,,2022-10-18,1,,,,,ポレポレ,0
738,3030003020428,新規,0,2022-10-18,2022-10-18,Ｓｔａｒ　Ｓｈｉｐ　Ｓｏｌｕｔｉｏｎｓ合同会社,,合同会社,埼玉県,上尾市,仲町１丁目１２番１８－１０８号,,11,219,3620035,,,,,,,2022-10-18,1,,,,,スターシップソリューションズ,0
739,3030005021028,新規,0,2022-10-18,2022-10-18,医療法人Ａｌｏｈａｎａ,,その他の設立登記法人,埼玉県,さいたま市西区,大字指扇１７１２番地４プルミエＶ１階,,11,101,3310047,,,,,,,2022-10-18,1,,,,,アロハナ,0
743,3040001125459,新規,0,2022-10-18,2022-10-18,株式会社ダイヤオート,,株式会社,千葉県,茂原市,茂原６４７番地４１,,12,210,2970026,,,,,,,2022-10-18,1,,,,,ダイヤオート,0
747,3040003021061,新規,0,2022-10-18,2022-10-18,合同会社スカイマークソリューション,,合同会社,千葉県,習志野市,藤崎２丁目１６番１７－２０２号,,12,216,2750017,,,,,,,2022-10-18,1,,,,,スカイマークソリューション,0
750,3040005021778,新規,0,2022-10-18,2022-10-18,西船橋住宅管理組合法人,,その他の設立登記法人,千葉県,船橋市,山野町１０３番地１,,12,204,2730026,,,,,,,2022-10-18,1,,,,,ニシフナバシジュウタク,0
764,3070001039747,新規,0,2022-10-18,2022-10-18,株式会社ＡＭＹ,,株式会社,群馬県,前橋市,宮地町３３番地６８,,10,201,3710814,,,,,,,2022-10-18,1,,,,,アミー,0
768,3080003002891,新規,0,2022-10-18,2022-10-18,合同会社嵐,,合同会社,静岡県,静岡市葵区,幸町６－１９フェリジータ５０２,,22,101,4200067,,,,,,,2022-10-18,1,,,,,アラシ,0
777,3100005012928,新規,0,2022-10-18,2022-10-18,特定非営利活動法人ランテラス,,その他の設立登記法人,長野県,大町市,平２５９８番地４,,20,212,3980001,,,,,,,2022-10-18,1,,,,,ランテラス,0
793,3120001249555,新規,0,2022-10-18,2022-10-18,雲海株式会社,,株式会社,大阪府,大阪市北区,天満２丁目１－１２天満橋ＳＥビル４階,,27,127,5300043,,,,,,,2022-10-18,1,,,,,ウンカイ,0
794,3120001249596,新規,0,2022-10-18,2022-10-18,株式会社ＮＯＶＡＩ,,株式会社,大阪府,大阪市中央区,島之内１丁目１３番３号おおきに東心斎橋ビル１００３号,,27,128,5420082,,,,,,,2022-10-18,1,,,,,ノヴァイ,0
795,3120001249613,新規,0,2022-10-18,2022-10-18,株式会社フリーポート,,株式会社,大阪府,寝屋川市,小路南町８番３８号,,27,215,5720866,,,,,,,2022-10-18,1,,,,,フリーポート,0
798,3120003022670,新規,0,2022-10-18,2022-10-18,クロスジャパン合同会社,,合同会社,大阪府,大阪市阿倍野区,西田辺町２丁目８－６,,27,119,5450014,,,,,,,2022-10-18,1,,,,,クロスジャパン,0
801,3120901046622,新規,0,2022-10-18,2022-10-18,株式会社ＨＲＣ,,株式会社,大阪府,豊中市,寺内２丁目２番２６－１０５号,,27,203,5610872,,,,,,,2022-10-18,1,,,,,エイチアールシー,0
809,3130005016612,新規,0,2022-10-18,2022-10-18,キャンバス事業協同組合,,その他の設立登記法人,京都府,京都市下京区,北不動堂町４８２ＹＭビル４階,,26,106,6008233,,,,,,,2022-10-18,1,,,,,キャンバス,0
815,3140001127742,新規,0,2022-10-18,2022-10-18,株式会社エクステリアデザイン神戸,,株式会社,兵庫県,神戸市垂水区,下畑町字木之下８９４番地,,28,108,6550861,,,,,,,2022-10-18,1,,,,,エクステリアデザインコウベ,0
820,3140003018254,新規,0,2022-10-18,2022-10-18,合同会社柏田,,合同会社,兵庫県,尼崎市,西川２丁目９番１号ベストレジデンス尼崎ＩＩ５０１,00128162,28,202,6610966,,,,,,,2022-10-18,1,,,,,カシワダ,0
821,3150001025887,新規,0,2022-10-18,2022-10-18,アヲラス株式会社,,株式会社,奈良県,大和高田市,大字市場１６７番地１,,29,202,6350074,,,,,,,2022-10-18,1,,,,,アヲラス,0
844,3180003024380,新規,0,2022-10-18,2022-10-18,合同会社徳松,,合同会社,愛知県,小牧市,桜井本町５３番地,,23,219,4850043,,,,,,,2022-10-18,1,,,,,トクマツ,0
859,3190001029835,新規,0,2022-10-18,2022-10-18,株式会社クオーレ・アーク,,株式会社,三重県,四日市市,別名４丁目２番３３号,,24,202,5100007,,,,,,,2022-10-18,1,,,,,クオーレアーク,0
872,3240001060520,新規,0,2022-10-18,2022-10-18,東亜アドバンス株式会社,,株式会社,広島県,広島市安佐南区,大塚西３丁目３番４５－１２０３号,,34,105,7313167,,,,,,,2022-10-18,1,,,,,トウアアドバンス,0
876,3260001037327,新規,0,2022-10-18,2022-10-18,株式会社ＸＥＮＩＡＬ,,株式会社,岡山県,岡山市南区,古新田８２８番１,,33,104,7010203,,,,,,,2022-10-18,1,,,,,ジニアル,0
877,3260003004069,新規,0,2022-10-18,2022-10-18,Ｔ’ｓアドバンス合同会社,,合同会社,岡山県,倉敷市,茶屋町早沖７９６番地,,33,202,7101102,,,,,,,2022-10-18,1,,,,,ティーズアドバンス,0
885,3290001099265,新規,0,2022-10-18,2022-10-18,シントミ・ジャパン株式会社,,株式会社,福岡県,久留米市,国分町１０１６番地５,,40,203,8390863,,,,,,,2022-10-18,1,,,,,シントミジャパン,0
886,3290003013075,新規,0,2022-10-18,2022-10-18,合同会社グーニーズ,,合同会社,福岡県,福岡市中央区,小笹４丁目１２番１２－７１６号,,40,133,8100033,,,,,,,2022-10-18,1,,,,,グーニーズ,0
891,3310001006689,新規,0,2022-10-18,2022-10-18,株式会社今井建材店,,株式会社,長崎県,佐世保市,白岳町１０７番地１１,,42,202,8571164,,,,,,,2022-10-18,1,,,,,イマイケンザイテン,0
893,3310003004468,新規,0,2022-10-18,2022-10-18,合同会社Ｆ．Ｕ,,合同会社,長崎県,長崎市,曙町２５番２０－３０３号,,42,201,8528008,,,,,,,2022-10-18,1,,,,,エフユー,0
898,3340001025100,新規,0,2022-10-18,2022-10-18,株式会社Ｒ‐ＪＡＰＡＮ,,株式会社,鹿児島県,鹿児島市,錦江台１丁目４１番１５－４１号,,46,201,8910145,,,,,,,2022-10-18,1,,,,,アールジャパン,0
906,3360003012383,新規,0,2022-10-18,2022-10-18,ＵＭＵＳＡＮ　ＢＡＳＥ合同会社,,合同会社,沖縄県,豊見城市,字豊見城３４番地安座名門中アパート１０１号室,,47,212,9010241,,,,,,,2022-10-18,1,,,,,ウムサンベース,0
908,3370003005865,新規,0,2022-10-18,2022-10-18,合同会社Ｓｔｒｅｅｔ　Ｓｍａｒｔ,,合同会社,宮城県,仙台市青葉区,国分町２丁目５番１０号石井ビル２階２０４号室,,04,101,9800803,,,,,,,2022-10-18,1,,,,,ストリートスマート,0
918,3430001087684,新規,0,2022-10-18,2022-10-18,株式会社ビオトープ,,株式会社,北海道,札幌市白石区,菊水七条２丁目８番２５－１０３号,,01,104,0030807,,,,,,,2022-10-18,1,,,,,ビオトープ,0
923,3450001013820,新規,0,2022-10-18,2022-10-18,株式会社おく屋,,株式会社,北海道,旭川市,東光二条１丁目３番２４号,,01,204,0788342,,,,,,,2022-10-18,1,,,,,オクヤ,0
924,3460101007267,新規,0,2022-10-18,2022-10-18,株式会社鴨川農場,,株式会社,北海道,河東郡音更町,字豊田東８線３８番地,,01,631,0800561,,,,,,,2022-10-18,1,,,,,カモガワノウジョウ,0
929,3480001011862,新規,0,2022-10-18,2022-10-18,株式会社クロスメディスン,,株式会社,徳島県,徳島市,名東町１丁目１２７番地の１,,36,201,7700047,,,,,,,2022-10-18,1,,,,,クロスメディスン,0
930,3480005006925,新規,0,2022-10-18,2022-10-18,一般社団法人海と日本プロジェクトｉｎとくしま,,その他の設立登記法人,徳島県,徳島市,中徳島町２丁目５番地の２,,36,201,7700853,,,,,,,2022-10-18,1,,,,,ウミトニッポンプロジェクトイントクシマ,0
938,3700150112001,新規,0,2022-10-18,2022-10-05,雉子音舎,,その他,岩手県,盛岡市,盛岡駅西通１丁目５－１４,,03,201,0200045,,,,,,,2022-10-05,1,,,,,キジネシヤ,0
944,4010001230120,新規,0,2022-10-18,2022-10-18,ノース・スター・トレーディング株式会社,,株式会社,東京都,千代田区,有楽町１丁目２番２号東宝日比谷ビル９階,,13,101,1000006,,,,,,,2022-10-18,1,,,,,ノーススタートレーディング,0
960,4010501049515,新規,0,2022-10-18,2022-10-18,株式会社ゴーヒョー,,株式会社,東京都,台東区,寿３丁目２番３号山直ビル１階,,13,106,1110042,,,,,,,2022-10-18,1,,,,,ゴーヒョー,0
974,4010901051806,新規,0,2022-10-18,2022-10-18,ＳＡＫＥ　ＣＯＬＬＥＣＴＩＶＥ株式会社,,株式会社,東京都,世田谷区,祖師谷３丁目１０－１３、１階,,13,112,1570072,,,,,,,2022-10-18,1,,,,,サケコレクティブ,0
982,4011005009773,新規,0,2022-10-18,2022-10-18,特定非営利活動法人地域密着新聞ネットワーク,,その他の設立登記法人,東京都,渋谷区,恵比寿西四丁目１３番２号,,13,113,1500000,,,,,,,2022-10-18,1,,,,,チイキミッチャクシンブンネットワーク,0
986,4011101100543,新規,0,2022-10-18,2022-10-18,株式会社インプルーブ,,株式会社,東京都,新宿区,若松町６番５－７０４,,13,104,1620056,,,,,,,2022-10-18,1,,,,,インプループ,0
995,4011803005321,新規,0,2022-10-18,2022-10-18,Ｓｅｌｅｎｅ合同会社,,合同会社,東京都,葛飾区,西亀有２丁目４４－８,,13,122,1240002,,,,,,,2022-10-18,1,,,,,セレーネ,0
999,4013301049800,新規,0,2022-10-18,2022-10-18,南洋起点株式会社,,株式会社,東京都,豊島区,東池袋２丁目６２番８号ビックオフィスプラザ池袋２０７号室,,13,116,1700013,,,,,,,2022-10-18,1,,,,,ナンヨウキテン,0
1000,4013303006337,新規,0,2022-10-18,2022-10-18,合同会社ＬＥＡＤｉＡ,,合同会社,東京都,豊島区,南池袋２丁目４５番２－４５０３号,,13,116,1710022,,,,,,,2022-10-18,1,,,,,リーディア,0
1012,4020005015673,新規,0,2022-10-18,2022-10-18,一般社団法人焚き火ダイアローグ協会,,その他の設立登記法人,神奈川県,横浜市青葉区,松風台３１番４８,,14,117,2270067,,,,,,,2022-10-18,1,,,,,タキビダイアローグキョウカイ,0
1019,4021001077220,新規,0,2022-10-18,2022-10-18,株式会社タイセイ,,株式会社,神奈川県,小田原市,久野７５２番地の４プチメゾンイセトヨ１０３号室,,14,206,2500055,,,,,,,2022-10-18,1,,,,,タイセイ,0
1035,4030001150614,新規,0,2022-10-18,2022-10-18,株式会社ＨＯＵＳＥ　Ｄｒ．,,株式会社,埼玉県,比企郡滑川町,大字月輪９８番地１,,11,341,3550813,,,,,,,2022-10-18,1,,,,,ハウスドクター,0
1036,4030001150622,新規,0,2022-10-18,2022-10-18,株式会社ＡＤＡＲ,,株式会社,埼玉県,川口市,芝３丁目１６番１８号原田アパート２Ｆ,,11,203,3330866,,,,,,,2022-10-18,1,,,,,アダル,0
1039,4030003020377,新規,0,2022-10-18,2022-10-18,合同会社澤運,,合同会社,埼玉県,川口市,上青木１丁目１４番３５－１０１号室,,11,203,3330844,,,,,,,2022-10-18,1,,,,,サワウン,0
1040,4030003020393,新規,0,2022-10-18,2022-10-18,合同会社Ｍ＆Ｋ,,合同会社,埼玉県,上尾市,仲町２丁目６番１６号プリムローズ上尾仲町１０３,,11,219,3620035,,,,,,,2022-10-18,1,,,,,エムアンドケー,0
1041,4030003020410,新規,0,2022-10-18,2022-10-18,合同会社ＳＴＴ,,合同会社,埼玉県,さいたま市西区,三橋６丁目１６４５番１マーレム大宮１０７,,11,101,3310052,,,,,,,2022-10-18,1,,,,,エスティーティー,0
1042,4030003020419,新規,0,2022-10-18,2022-10-18,朝日自動車商会合同会社,,合同会社,埼玉県,羽生市,大字藤井上組６９４番地１リトルアニマルＢ－２,,11,216,3480064,,,,,,,2022-10-18,1,,,,,アサヒジドウシャショウカイ,0
1043,4030003020427,新規,0,2022-10-18,2022-10-18,合同会社豊栄商事,,合同会社,埼玉県,さいたま市北区,吉野町１丁目３３番地１２,,11,102,3310811,,,,,,,2022-10-18,1,,,,,ホウエイショウジ,0
1051,4040001125474,新規,0,2022-10-18,2022-10-18,ＬＩＧＨＴＮＩＮＧ株式会社,,株式会社,千葉県,佐倉市,城１９０番地６２,,12,212,2850815,,,,,,,2022-10-18,1,,,,,ライトニング,0
1052,4040003021077,新規,0,2022-10-18,2022-10-18,Ｊｕｓｔａｌｙ合同会社,,合同会社,千葉県,千葉市稲毛区,轟町２丁目４番２２号トーエンハイツ３０１号,,12,103,2630021,,,,,,,2022-10-18,1,,,,,ジャスタリ,0
1060,4050001051827,新規,0,2022-10-18,2022-10-18,株式会社陸奥,,株式会社,茨城県,神栖市,大野原１丁目９番３１号,,08,232,3140144,,,,,,,2022-10-18,1,,,,,ミチノク,0
1062,4050003006928,新規,0,2022-10-18,2022-10-18,合同会社愛真,,合同会社,茨城県,土浦市,並木３丁目１０番２４号,,08,203,3000061,,,,,,,2022-10-18,1,,,,,アイマ,0
1074,4080401026104,新規,0,2022-10-18,2022-10-18,株式会社ＡＹ’ｚ　Ｄｅｓｉｇｎ,,株式会社,静岡県,浜松市中区,佐鳴台３丁目５４－４５ダウントン１０１,,22,131,4328021,,,,,,,2022-10-18,1,,,,,アイズデザイン,0
1077,4100005012927,新規,0,2022-10-18,2022-10-18,一般社団法人里山エデュケーション,,その他の設立登記法人,長野県,下伊那郡阿智村,清内路３１２３番地２６,,20,407,3950401,,,,,,,2022-10-18,1,,,,,サトヤマエデュケーション,0
1087,4120001249554,新規,0,2022-10-18,2022-10-18,友和株式会社,,株式会社,大阪府,大阪市北区,天満２丁目１－１２天満橋ＳＥビル４階,,27,127,5300043,,,,,,,2022-10-18,1,,,,,ユウワ,0
1088,4120001249562,新規,0,2022-10-18,2022-10-18,株式会社幸田マオ,,株式会社,大阪府,大阪市北区,西天満５丁目９番１０号古河梅ヶ枝ビル５０４,,27,127,5300047,,,,,,,2022-10-18,1,,,,,コウダマオ,0
1089,4120001249604,新規,0,2022-10-18,2022-10-18,株式会社テクニカルサービス葵,,株式会社,大阪府,守口市,西郷通４丁目１０番２号,,27,209,5700034,,,,,,,2022-10-18,1,,,,,テクニカルサービスアオイ,0
1090,4120001249612,新規,0,2022-10-18,2022-10-18,株式会社Ｃｒｅｄｏ,,株式会社,大阪府,大阪市中央区,南船場４丁目１１番１６号,,27,128,5420081,,,,,,,2022-10-18,1,,,,,クレド,0
1102,4130001072823,新規,0,2022-10-18,2022-10-18,とらいあんぐる株式会社,,株式会社,京都府,京都市山科区,東野百拍子町１９番地１０,,26,110,6078153,,,,,,,2022-10-18,1,,,,,トライアングル,0
1114,4180001153404,新規,0,2022-10-18,2022-10-18,株式会社ＳＵＮＳＨＩＮＥ　ＡＵＴＯＳ,,株式会社,愛知県,一宮市,馬見塚字長畑３３番地ハイツ樹１０２号,,23,203,4910874,,,,,,,2022-10-18,1,,,,,サンシャインオートズ,0
1121,4180003024371,新規,0,2022-10-18,2022-10-18,ＬＵＰＡＣＯＲＰＯＲＡＴＩＯＮ合同会社,,合同会社,愛知県,名古屋市中川区,豊成町１番５,,23,110,4540803,,,,,,,2022-10-18,1,,,,,ルパコーポレーション,0
1126,4180301036738,新規,0,2022-10-18,2022-10-18,株式会社Ｍ’ｓ　ｉｎｎｏｖａｔｉｏｎ,,株式会社,愛知県,豊田市,古瀬間町坂能瀬１１４番地１８５,,23,211,4710801,,,,,,,2022-10-18,1,,,,,エムズイノベーション,0
1141,4250001019812,新規,0,2022-10-18,2022-10-18,株式会社ヒューマン２４,,株式会社,山口県,宇部市,上野中町１番１２号,,35,202,7550092,,,,,,,2022-10-18,1,,,,,ヒューマンニジュウヨン,0
1145,4260001037276,新規,0,2022-10-18,2022-10-18,ＳＳ株式会社,,株式会社,岡山県,美作市,江見２７４－６,,33,215,7094234,,,,,,,2022-10-18,1,,,,,エスエス,0
1153,4290001099198,新規,0,2022-10-18,2022-10-18,株式会社ハッピー．エステート,,株式会社,福岡県,福岡市中央区,白金２丁目８番１２号,,40,133,8100012,,,,,,,2022-10-18,1,,,,,ハッピーエステート,0
1154,4290001099248,新規,0,2022-10-18,2022-10-18,株式会社大石測量設計事務所,,株式会社,福岡県,大川市,大字榎津３１５番地２,,40,212,8310004,,,,,,,2022-10-18,1,,,,,オオイシソクリョウセッケイジムショ,0
1171,4360001031062,新規,0,2022-10-18,2022-10-18,株式会社ＣＨＵＲＡＴＨＥ,,株式会社,沖縄県,那覇市,銘苅１丁目１－１２グランツＫ１０１,,47,201,9000004,,,,,,,2022-10-18,1,,,,,チュラザ,0
1172,4360001031079,新規,0,2022-10-18,2022-10-18,株式会社アクトアライズ,,株式会社,沖縄県,那覇市,字安里４５番地,,47,201,9020067,,,,,,,2022-10-18,1,,,,,アクトアライズ,0
1173,4360001031087,新規,0,2022-10-18,2022-10-18,株式会社Ｕｎｉｑｕｅｓ,,株式会社,沖縄県,浦添市,内間３丁目２番２８号沖縄総建アパート４０２,,47,208,9012121,,,,,,,2022-10-18,1,,,,,ユニークス,0
1187,4430001087667,新規,0,2022-10-18,2022-10-18,株式会社悠想工業,,株式会社,北海道,江別市,緑ケ丘５３番地の８,,01,217,0690823,,,,,,,2022-10-18,1,,,,,ユウソウコウギョウ,0
1188,4430001087683,新規,0,2022-10-18,2022-10-18,株式会社エスプロ,,株式会社,北海道,札幌市白石区,菊水二条３丁目１番１０－６０３号,,01,104,0030802,,,,,,,2022-10-18,1,,,,,エスプロ,0
1191,4430003014371,新規,0,2022-10-18,2022-10-18,合同会社ワーシップ,,合同会社,北海道,札幌市中央区,南五条西２４丁目１番２５号,,01,101,0640805,,,,,,,2022-10-18,1,,,,,ワーシップ,0
1195,4470001019294,新規,0,2022-10-18,2022-10-18,株式会社三原商店,,株式会社,香川県,丸亀市,山北町４１９番地１０,,37,202,7630072,,,,,,,2022-10-18,1,,,,,ミハラショウテン,0
1218,5010001230160,新規,0,2022-10-18,2022-10-18,ＴＹキャピタルマネジメント株式会社,,株式会社,東京都,千代田区,内神田１丁目５番８号,,13,101,1010047,,,,,,,2022-10-18,1,,,,,ティーワイキャピタルマネジメント,0
1230,5010401170295,新規,0,2022-10-18,2022-10-18,株式会社メグラスオイル,,株式会社,東京都,港区,港南４丁目６番４－２５０２号,,13,103,1080075,,,,,,,2022-10-18,1,,,,,メグラスオイル,0
1231,5010401170337,新規,0,2022-10-18,2022-10-18,ｃｏｏ株式会社,,株式会社,東京都,港区,高輪４丁目１１－２２－１０１,,13,103,1080074,,,,,,,2022-10-18,1,,,,,クウ,0
1238,5010603009787,新規,0,2022-10-18,2022-10-18,樹楽墨田八広合同会社,,合同会社,東京都,墨田区,八広６丁目４１－１０,,13,107,1310041,,,,,,,2022-10-18,1,,,,,キラクスミダヤヒロ,0
1243,5010803004316,新規,0,2022-10-18,2022-10-18,合同会社永よし,,合同会社,東京都,大田区,山王２丁目１２番２－１０１号,,13,111,1430023,,,,,,,2022-10-18,1,,,,,,0
1245,5010901051813,新規,0,2022-10-18,2022-10-18,株式会社ＦＬＡＰ,,株式会社,東京都,世田谷区,大原１丁目１１番１１－３０３号,,13,112,1560041,,,,,,,2022-10-18,1,,,,,フラップ,0
1251,5011005009772,新規,0,2022-10-18,2022-10-18,一般社団法人日本パーソナルコスメ協会,,その他の設立登記法人,東京都,渋谷区,恵比寿南１丁目２０－２シェモア恵比寿４Ｆ,,13,113,1500022,,,,,,,2022-10-18,1,,,,,ニホンパーソナルコスメキョウカイ,0
1257,5011201024162,新規,0,2022-10-18,2022-10-18,株式会社八都人,,株式会社,東京都,中野区,上高田１丁目３０番３号,,13,114,1640002,,,,,,,2022-10-18,1,,,,,ヤトヒコ,0
1271,5013301049808,新規,0,2022-10-18,2022-10-18,株式会社Ｄｏｗｎ　ｔｏ　Ｅａｒｔｈ　Ｉｎｃ．,,株式会社,東京都,豊島区,高田１丁目１１番１４号,,13,116,1710033,,,,,,,2022-10-18,1,,,,,ダウントゥアース,0
1278,5020001148559,新規,0,2022-10-18,2022-10-18,株式会社マチノタネ,,株式会社,神奈川県,川崎市川崎区,駅前本町１１番地２川崎フロンティアビル４階,,14,131,2100007,,,,,,,2022-10-18,1,,,,,マチノタネ,0
1279,5020001148575,新規,0,2022-10-18,2022-10-18,株式会社ＰＥＲＳｉＳＴＯＮＥ,,株式会社,神奈川県,川崎市麻生区,高石６丁目１３－４－１,,14,137,2150003,,,,,,,2022-10-18,1,,,,,パーシストン,0
1280,5020001148583,新規,0,2022-10-18,2022-10-18,株式会社京倭,,株式会社,神奈川県,横浜市鶴見区,潮田町１丁目５３番３号,,14,101,2300041,,,,,,,2022-10-18,1,,,,,キョウワ,0
1281,5020001148617,新規,0,2022-10-18,2022-10-18,株式会社富,,株式会社,神奈川県,川崎市川崎区,境町１番１－３０１号,,14,131,2100838,,,,,,,2022-10-18,1,,,,,トミ,0
1285,5020003022571,新規,0,2022-10-18,2022-10-18,ＹＰ合同会社,,合同会社,神奈川県,横浜市港北区,新横浜３丁目７番地１８号,,14,109,2220033,,,,,,,2022-10-18,1,,,,,ワイピー,0
1289,5021001077236,新規,0,2022-10-18,2022-10-18,株式会社電工社,,株式会社,神奈川県,平塚市,明石町１１番９号４Ｆ,,14,203,2540042,,,,,,,2022-10-18,1,,,,,デンコウシャ,0
1298,5030001150448,新規,0,2022-10-18,2022-10-18,株式会社伊東組,,株式会社,埼玉県,川口市,大字道合９１８番地の３３,,11,203,3330835,,,,,,,2022-10-18,1,,,,,イトウグミ,0
1299,5030001150596,新規,0,2022-10-18,2022-10-18,愛得先端材料株式会社,,株式会社,埼玉県,越谷市,レイクタウン５丁目１２番地２－８３０,,11,222,3430828,,,,,,,2022-10-18,1,,,,,アイトクセンタンザイリョウ,0
1305,5030003020384,新規,0,2022-10-18,2022-10-18,ＴＴ　Ｔｅｃｈｎｏｌｏｇｙ合同会社,,合同会社,埼玉県,さいたま市見沼区,大字南中丸１５４３－７,,11,104,3370041,,,,,,,2022-10-18,1,,,,,ティティテクノロジー,0
1306,5030003020392,新規,0,2022-10-18,2022-10-18,合同会社ワイエスフーズ,,合同会社,埼玉県,入間市,大字下藤沢１０３８－４－２０３,,11,225,3580011,,,,,,,2022-10-18,1,,,,,ワイエスフーズ,0
1307,5030003020426,新規,0,2022-10-18,2022-10-18,合同会社ＦＵＲＩＫＫＡ,,合同会社,埼玉県,富士見市,ふじみ野西２丁目１番地１アイムふじみ野タワー西館１９０８,,11,235,3540035,,,,,,,2022-10-18,1,,,,,フリッカ,0
1312,5040001125440,新規,0,2022-10-18,2022-10-18,株式会社ｔｒｅｂｏｌ,,株式会社,千葉県,成田市,倉水１６４番地２４,,12,211,2890113,,,,,,,2022-10-18,1,,,,,トレボル,0
1313,5040001125473,新規,0,2022-10-18,2022-10-18,株式会社ワンプランニング,,株式会社,千葉県,柏市,増尾８丁目１２番１号,,12,217,2770033,,,,,,,2022-10-18,1,,,,,ワンプランニング,0
1314,5040001125498,新規,0,2022-10-18,2022-10-18,正和株式会社,,株式会社,千葉県,八千代市,八千代台南１丁目２８－４－１０２,,12,221,2760033,,,,,,,2022-10-18,1,,,,,セイワ,0
1316,5040003020953,新規,0,2022-10-18,2022-10-18,合同会社ボヌールジャパン,,合同会社,千葉県,柏市,西原６丁目６番１５－１０７号,,12,217,2770885,,,,,,,2022-10-18,1,,,,,ボヌールジャパン,0
1322,5050005013161,新規,0,2022-10-18,2022-10-18,一般社団法人ｅＮ,,その他の設立登記法人,茨城県,水戸市,吉沢町８３４番地の１６,,08,201,3100845,,,,,,,2022-10-18,1,,,,,エン,0
1329,5080101023573,新規,0,2022-10-18,2022-10-18,ＳＯＧＡＵＲＡ　ＢＥＡＣＨ株式会社,,株式会社,静岡県,熱海市,上多賀１０２７番地の８,,22,205,4130101,,,,,,,2022-10-18,1,,,,,ソガウラビーチ,0
1347,5120001249603,新規,0,2022-10-18,2022-10-18,ＨＥＣサプライチェーン株式会社,,株式会社,大阪府,大阪市東淀川区,東中島１丁目２０－１２ユニゾーン新大阪８１１号室,,27,114,5330033,,,,,,,2022-10-18,1,,,,,エイチイーシーサプライチェーン,0
1348,5120001249636,新規,0,2022-10-18,2022-10-18,株式会社ジャスミン,,株式会社,大阪府,大阪市中央区,玉造２丁目２７番２８号,,27,128,5400004,,,,,,,2022-10-18,1,,,,,ジャスミン,0
1353,5120003022660,新規,0,2022-10-18,2022-10-18,合同会社ＳＳＳ,,合同会社,大阪府,大阪市淀川区,木川西１丁目８番２３号５０２号室,,27,123,5320013,,,,,,,2022-10-18,1,,,,,スリーエス,0
1354,5120003022669,新規,0,2022-10-18,2022-10-18,Ａ９‐ＧＲＯＵＰ合同会社,,合同会社,大阪府,大阪市生野区,新今里１丁目４番７号,,27,116,5440001,,,,,,,2022-10-18,1,,,,,エーナイングループ,0
1355,5120003022677,新規,0,2022-10-18,2022-10-18,ひかり合同会社,,合同会社,大阪府,大阪市北区,梅田１丁目１番３号大阪駅前第３ビル２９階１－１－１号室,,27,127,5300001,,,,,,,2022-10-18,1,,,,,ヒカリ,0
1363,5130001072673,新規,0,2022-10-18,2022-10-18,ＦＬＹＢＥ　ＣＡＭＰＩＮＧ株式会社,,株式会社,京都府,京都市伏見区,深草下川原町５０番地４－２０８,,26,109,6128401,,,,,,,2022-10-18,1,,,,,フライビーキャンピング,0
1364,5130003008238,新規,0,2022-10-18,2022-10-18,合同会社ホンマモリ,,合同会社,京都府,福知山市,夜久野町末２９６番地,,26,201,6291312,,,,,,,2022-10-18,1,,,,,ホンマモリ,0
1366,5130005016593,新規,0,2022-10-18,2022-10-18,一般社団法人関西地域振興社,,その他の設立登記法人,京都府,京田辺市,飯岡権田２６,,26,211,6100312,,,,,,,2022-10-18,1,,,,,カンサイチイキシンコウシャ,0
1367,5130005016610,新規,0,2022-10-18,2022-10-18,一般社団法人和文化智恵協会,,その他の設立登記法人,京都府,京都市上京区,五辻通大宮西入五辻町３３番地３,00128170,26,102,6028446,,,,,,,2022-10-18,1,,,,,ワブンカチエキョウカイ,0
1373,5140005026344,新規,0,2022-10-18,2022-10-18,ひょうご森林林業協同組合連合会,,その他の設立登記法人,兵庫県,神戸市中央区,北長狭通５丁目５番１８号,,28,110,6500012,,,,,,,2022-10-18,1,,,,,ヒョウゴシンリンリンギョウ,0
1375,5150001025885,新規,0,2022-10-18,2022-10-18,株式会社うなぎ,,株式会社,奈良県,北葛城郡上牧町,大字上牧３４２３－１,,29,424,6390214,,,,,,,2022-10-18,1,,,,,ウナギ,0
1377,5170003001783,新規,0,2022-10-18,2022-10-18,合同会社ＴＮＧＲ,,合同会社,和歌山県,和歌山市,有家１２８－１０,,30,201,6408316,,,,,,,2022-10-18,1,,,,,ティーエヌジーアール,0
1391,5180303005475,新規,0,2022-10-18,2022-10-18,合同会社ＥｓＫｅＴｒａｄｉｎｇ,,合同会社,愛知県,豊田市,小坂本町１丁目５－５ＹＡＭＡＴＯＢＬＤＧ２Ｆ,,23,211,4710034,,,,,,,2022-10-18,1,,,,,エスケートレイイディング,0
1392,5190001029841,新規,0,2022-10-18,2022-10-18,株式会社ネクストワンサポート,,株式会社,三重県,名張市,夏見３３０３番地,,24,208,5180441,,,,,,,2022-10-18,1,,,,,ネクストワンサポート,0
1408,5260001037325,新規,0,2022-10-18,2022-10-18,ムーンライズファーム株式会社,,株式会社,岡山県,岡山市北区,表町３丁目５－４３,,33,101,7000822,,,,,,,2022-10-18,1,,,,,ムーンライズファーム,0
1412,5270001008647,新規,0,2022-10-18,2022-10-18,Ｔ．Ｓ．ＯＮＥ株式会社,,株式会社,鳥取県,倉吉市,生田４８５番地,,31,203,6820855,,,,,,,2022-10-18,1,,,,,ティーエスワン,0
1428,5300005007105,新規,0,2022-10-18,2022-10-18,一般社団法人佐賀エナジーツーリズム推進協議会,,その他の設立登記法人,佐賀県,唐津市,呼子町呼子３６４６番地６,,41,202,8470303,,,,,,,2022-10-18,1,,,,,サガエナジーツーリズムスイシンキョウギカイ,0
1442,5360001031078,新規,0,2022-10-18,2022-10-18,株式会社Ｔｉｅｓ　Ｈｏｕｓｉｎｇ,,株式会社,沖縄県,うるま市,字赤道１８０番地３又吉ビル２階,,47,213,9042245,,,,,,,2022-10-18,1,,,,,タイズハウジング,0
1448,5400001016033,新規,0,2022-10-18,2022-10-18,株式会社ＰＯＰ．ＵＰ‐１,,株式会社,岩手県,花巻市,東和町落合１区４９６番地,,03,205,0280151,,,,,,,2022-10-18,1,,,,,ポップアップファースト,0
1455,5430001087658,新規,0,2022-10-18,2022-10-18,株式会社リタライズ,,株式会社,北海道,札幌市厚別区,厚別北三条５丁目１番２－３１２号,,01,108,0040073,,,,,,,2022-10-18,1,,,,,リタライズ,0
1456,5430001087682,新規,0,2022-10-18,2022-10-18,株式会社Ｐ＆Ｐ,,株式会社,北海道,札幌市中央区,南八条西１丁目１３－１８－３０６,,01,101,0640808,,,,,,,2022-10-18,1,,,,,ピーアンドピー,0
1461,5430003014370,新規,0,2022-10-18,2022-10-18,合同会社ＬＩＯ,,合同会社,北海道,札幌市東区,伏古八条３丁目２番７号,,01,103,0070868,,,,,,,2022-10-18,1,,,,,ライオ,0
1464,5440001009173,新規,0,2022-10-18,2022-10-18,株式会社長俣設備,,株式会社,北海道,函館市,亀田港町３番２号,,01,202,0410822,,,,,,,2022-10-18,1,,,,,ナガマタセツビ,0
1472,5700150028410,新規,0,2022-10-18,2015-10-09,西宮中小企業労務協会,,その他,兵庫県,西宮市,段上町２丁目１－３１,,28,204,6638006,,,,,,,2015-10-09,1,,,,,ニシノミヤチユウシヨウキギヨウロウムキヨウカイ,0
1478,5700150112008,新規,0,2022-10-18,2022-10-05,火の国うたまつり実行委員会,,その他,熊本県,熊本市中央区,大江３丁目２番１０－９０１号ＭＪＲ大江,,43,101,8620971,,,,,,,2022-10-05,1,,,,,ヒノクニウタマツリジツコウイインカイ,0
1488,6010001230143,新規,0,2022-10-18,2022-10-18,あんしんあんぜん株式会社,,株式会社,東京都,中央区,日本橋室町１丁目１１番２号二葉ビル２階,,13,102,1030022,,,,,,,2022-10-18,1,,,,,アンシンアンゼン,0
1493,6010003038865,新規,0,2022-10-18,2022-10-18,ごぎょう合同会社,,合同会社,東京都,千代田区,一ツ橋２丁目６番３号アクシスインベストメントアドバイザーズ株式会社内,,13,101,1010003,,,,,,,2022-10-18,1,,,,,ゴギョウ,0
1494,6010003038881,新規,0,2022-10-18,2022-10-18,Ｄｏｙｌｅ合同会社,,合同会社,東京都,千代田区,丸の内３丁目１番１号東京共同会計事務所内,,13,101,1000005,,,,,,,2022-10-18,1,,,,,ドイル,0
1497,6010401170229,新規,0,2022-10-18,2022-10-18,Ｉｎｔｅｌｌｅｃｔ　Ｊａｐａｎ株式会社,,株式会社,東京都,港区,虎ノ門１丁目１７番１号虎ノ門ヒルズビジネスタワー１５階,,13,103,1050001,,,,,,,2022-10-18,1,,,,,インテレクトジャパン,0
1498,6010401170253,新規,0,2022-10-18,2022-10-18,株式会社Ａ‐ＫＩＣＫ,,株式会社,東京都,港区,南青山５丁目１０番１号,,13,103,1070062,,,,,,,2022-10-18,1,,,,,エイキック,0
1499,6010401170328,新規,0,2022-10-18,2022-10-18,ＴＨＥ　ＢＵＺＺ　ＡＧＥＮＣＹ株式会社,,株式会社,東京都,港区,赤坂２丁目１３番２０号ツムギビル,,13,103,1070052,,,,,,,2022-10-18,1,,,,,ザバズエージェンシー,0
1500,6010401170336,新規,0,2022-10-18,2022-10-18,株式会社テコイレ,,株式会社,東京都,港区,三田２丁目８番７号桜ヒルズ三田５０１,,13,103,1080073,,,,,,,2022-10-18,1,,,,,テコイレ,0
1510,6010901051795,新規,0,2022-10-18,2022-10-18,株式会社３Ｄ　ＧＩＳ,,株式会社,東京都,世田谷区,下馬５丁目２８番１６号下馬ハウスＤ,,13,112,1540002,,,,,,,2022-10-18,1,,,,,スリージーアイエス,0
1511,6010901051812,新規,0,2022-10-18,2022-10-18,Ｍａｉｎｓｔｒｅａｍ　Ｒｅｎｅｗａｂｌｅ　Ｐｏｗｅｒ　Ｊａｐａｎ株式会社,,株式会社,東京都,世田谷区,玉川田園調布１丁目１６番１０号,,13,112,1580085,,,,,,,2022-10-18,1,,,,,メインストリームリニューアブルパワージャパン,0
1512,6010903007696,新規,0,2022-10-18,2022-10-18,合同会社ダブルシュガー,,合同会社,東京都,世田谷区,奥沢３丁目５―６棚橋６号館３０３,,13,112,1580083,,,,,,,2022-10-18,1,,,,,ダブルシュガー,0
1523,6011001150257,新規,0,2022-10-18,2022-10-18,株式会社リーチ,,株式会社,東京都,渋谷区,渋谷２丁目１－７ＮＪＫマーキス２０４,,13,113,1500002,,,,,,,2022-10-18,1,,,,,リーチ,0
1524,6011001150281,新規,0,2022-10-18,2022-10-18,ＬＡＲＳ株式会社,,株式会社,東京都,渋谷区,広尾１丁目８番６号１８６ビル１Ｆ,,13,113,1500012,,,,,,,2022-10-18,1,,,,,エルエーアールエス,0
1533,6011105010448,新規,0,2022-10-18,2022-10-18,一般社団法人オリブ会,,その他の設立登記法人,東京都,新宿区,西新宿５丁目２４番１４－１２０１号,,13,104,1600023,,,,,,,2022-10-18,1,,,,,オリブカイ,0
1536,6011401024606,新規,0,2022-10-18,2022-10-18,ＡＨＹＡＮ株式会社,,株式会社,東京都,板橋区,東坂下１丁目９番５号,,13,119,1740042,,,,,,,2022-10-18,1,,,,,アヤン,0
1546,6011801041408,新規,0,2022-10-18,2022-10-18,株式会社ビットトリプル,,株式会社,東京都,葛飾区,新小岩２丁目７－２東京ｔｅｂｉｋｉ７Ｂ,,13,122,1240024,,,,,,,2022-10-18,1,,,,,ビットトリプル,0
1549,6012401039759,新規,0,2022-10-18,2022-10-18,株式会社Ｂｒｉｇｈｔ　Ｌｉｇｈｔ,,株式会社,東京都,三鷹市,新川３丁目１２番３号ドゥマンクレール三鷹１０５,,13,204,1810004,,,,,,,2022-10-18,1,,,,,ブライトライト,0
1553,6013301049807,新規,0,2022-10-18,2022-10-18,ワールドキャピタル株式会社,,株式会社,東京都,豊島区,池袋４丁目６番８号,,13,116,1710014,,,,,,,2022-10-18,1,,,,,ワールドキャピタル,0
1554,6013303006335,新規,0,2022-10-18,2022-10-18,合同会社ｎａｎａｈｏｓｈｉ,,合同会社,東京都,豊島区,池袋３丁目８番１１号カーサ池袋２０１号,,13,116,1710014,,,,,,,2022-10-18,1,,,,,ナナホシ,0
1561,6020001148624,新規,0,2022-10-18,2022-10-18,株式会社アルキーン,,株式会社,神奈川県,横浜市港南区,芹が谷１丁目５番１１号,,14,111,2330006,,,,,,,2022-10-18,1,,,,,アルキーン,0
1562,6020001148632,新規,0,2022-10-18,2022-10-18,株式会社ＨＯＭ,,株式会社,神奈川県,横浜市神奈川区,泉町６番１,,14,102,2210842,,,,,,,2022-10-18,1,,,,,ホム,0
1563,6020003022570,新規,0,2022-10-18,2022-10-18,ユニキャスト合同会社,,合同会社,神奈川県,横浜市港北区,新横浜３丁目７番地１８号,,14,109,2220033,,,,,,,2022-10-18,1,,,,,ユニキャスト,0
1564,6020003022579,新規,0,2022-10-18,2022-10-18,アルコン・テクノロジー合同会社,,合同会社,神奈川県,横浜市港北区,新横浜２丁目５－１４ＷＩＳＥＮＥＸＴ新横浜３Ｆ,,14,109,2220033,,,,,,,2022-10-18,1,,,,,アルコンテクノロジー,0
1565,6020003022587,新規,0,2022-10-18,2022-10-18,ものピクス合同会社,,合同会社,神奈川県,横浜市金沢区,富岡東１丁目３４番２２号,,14,108,2360051,,,,,,,2022-10-18,1,,,,,モノピクス,0
1585,6030001150554,新規,0,2022-10-18,2022-10-18,ＭｏｎｏＤｉ株式会社,,株式会社,埼玉県,川口市,大字安行慈林４４８番地の５８,,11,203,3340071,,,,,,,2022-10-18,1,,,,,モノディ,0
1586,6030001150587,新規,0,2022-10-18,2022-10-18,株式会社祐企画,,株式会社,埼玉県,和光市,白子１丁目１３番２１号,,11,229,3510101,,,,,,,2022-10-18,1,,,,,ユウキカク,0
1587,6030001150604,新規,0,2022-10-18,2022-10-18,株式会社秋元ハウジング,,株式会社,埼玉県,春日部市,大場９９１武蔵ビル２Ｆ,,11,214,3440021,,,,,,,2022-10-18,1,,,,,アキモトハウジング,0
1588,6030001150612,新規,0,2022-10-18,2022-10-18,株式会社タイビックス,,株式会社,埼玉県,春日部市,中央１丁目５６番地９ライフピア春日部第２－２０１号,,11,214,3440067,,,,,,,2022-10-18,1,,,,,タイビックス,0
1589,6030001150620,新規,0,2022-10-18,2022-10-18,Ａ‐ＳＴＹＬＥ株式会社,,株式会社,埼玉県,熊谷市,津田新田３５７番地,,11,202,3600132,,,,,,,2022-10-18,1,,,,,エースタイル,0
1590,6030001150629,新規,0,2022-10-18,2022-10-18,関東消防技術株式会社,,株式会社,埼玉県,所沢市,東所沢和田１丁目５番地の４ラックヌーボ１０５,,11,208,3590023,,,,,,,2022-10-18,1,,,,,カントウショウボウギジュツ,0
1600,6030005021017,新規,0,2022-10-18,2022-10-18,医療法人社団秀知会,,その他の設立登記法人,埼玉県,白岡市,小久喜１０８２番地２,,11,246,3490217,,,,,,,2022-10-18,1,,,,,シュウチカイ,0
1601,6030005021025,新規,0,2022-10-18,2022-10-18,特定非営利活動法人奥武蔵ピースラボ,,その他の設立登記法人,埼玉県,日高市,武蔵台５丁目１６番１１号,,11,242,3501255,,,,,,,2022-10-18,1,,,,,オクムサシピースラボ,0
1605,6040001125480,新規,0,2022-10-18,2022-10-18,株式会社ＴＯＫＡＷＡ,,株式会社,千葉県,野田市,尾崎３９７番地の５,,12,208,2700235,,,,,,,2022-10-18,1,,,,,トカワ,0
1608,6040003021083,新規,0,2022-10-18,2022-10-18,合同会社ＧＳ　ＥＮＴＥＲＰＲＩＳＥＳ,,合同会社,千葉県,印西市,戸神６２６番地６,,12,231,2701348,,,,,,,2022-10-18,1,,,,,ジーエスエンタープライセス,0
1613,6050003006918,新規,0,2022-10-18,2022-10-18,ＬＯＣ　ＱＵＡＮ合同会社,,合同会社,茨城県,結城市,大字結城４２５４番地,,08,207,3070001,,,,,,,2022-10-18,1,,,,,ロッククアン,0
1614,6050003006926,新規,0,2022-10-18,2022-10-18,合同会社ＳＫＹ　ＭＯＴＯＲＳ,,合同会社,茨城県,坂東市,生子５０１５番地,,08,228,3060504,,,,,,,2022-10-18,1,,,,,スカイモーターズ,0
1619,6070001039703,新規,0,2022-10-18,2022-10-18,株式会社ＲＩＢＯＮ,,株式会社,群馬県,藤岡市,白石１２５６番地６,,10,209,3750055,,,,,,,2022-10-18,1,,,,,リボン,0
1621,6080403004634,新規,0,2022-10-18,2022-10-18,ＨａＨ合同会社,,合同会社,静岡県,磐田市,西貝塚３４８０番地８６,,22,211,4380026,,,,,,,2022-10-18,1,,,,,エイチエーエイチ,0
1626,6100001035797,新規,0,2022-10-18,2022-10-18,株式会社万治,,株式会社,長野県,松本市,清水２丁目１－３５,,20,202,3900805,,,,,,,2022-10-18,1,,,,,マンジ,0
1636,6120001249536,新規,0,2022-10-18,2022-10-18,株式会社ｗｅｅｋｅｎｄ,,株式会社,大阪府,大阪市中央区,北久宝寺町１丁目１－２アメニティ北久宝寺２０１,,27,128,5410057,,,,,,,2022-10-18,1,,,,,ウィークエンド,0
1637,6120001249544,新規,0,2022-10-18,2022-10-18,株式会社ＩＴ教育社,,株式会社,大阪府,大阪市北区,梅田１丁目１１番４号大阪梅田第四ビル１０Ｆ,,27,127,5300001,,,,,,,2022-10-18,1,,,,,アイティーキョウイクシャ,0
1638,6120001249560,新規,0,2022-10-18,2022-10-18,株式会社紡,,株式会社,大阪府,大阪市北区,梅田２丁目２－２ヒルトンプラザウエストオフィスタワー１９階,,27,127,5300001,,,,,,,2022-10-18,1,,,,,ツムグ,0
1639,6120001249602,新規,0,2022-10-18,2022-10-18,ＣＹＮ株式会社,,株式会社,大阪府,大阪市福島区,福島８丁目１６－１５ロイヤルプラザ福島３０２号室,,27,103,5530003,,,,,,,2022-10-18,1,,,,,シーワイエヌ,0
1640,6120001249643,新規,0,2022-10-18,2022-10-18,アリエッタ株式会社,,株式会社,大阪府,大阪市西区,立売堀１丁目９番１５号,,27,106,5500012,,,,,,,2022-10-18,1,,,,,アリエッタ,0
1645,6120003022668,新規,0,2022-10-18,2022-10-18,合同会社Ｅｃｏｌｏｇｉｃａｌ　Ｌａｎｄｓｃａｐｅ　Ｊａｐａｎ,,合同会社,大阪府,大阪市浪速区,元町１丁目１番２０号,,27,111,5560016,,,,,,,2022-10-18,1,,,,,エコロジカルランドスケープジャパン,0
1646,6120003022676,新規,0,2022-10-18,2022-10-18,合同会社ｇｏｏｄ　ｊｏｂ,,合同会社,大阪府,大阪市港区,市岡元町１丁目４番２６号,,27,107,5520002,,,,,,,2022-10-18,1,,,,,グッドジョブ,0
1648,6120005023243,新規,0,2022-10-18,2022-10-18,一般社団法人日本有害鳥獣駆除・防除管理協会,,その他の設立登記法人,大阪府,大阪市中央区,島之内１丁目２１番１９号オリエンタル堺筋ビル９０１,,27,128,5420082,,,,,,,2022-10-18,1,,,,,ニホンユウガイチョウジュウクジョボウジョカンリキョウカイ,0
1665,6140003018251,新規,0,2022-10-18,2022-10-18,合同会社オボドーロ,,合同会社,兵庫県,神戸市北区,有馬町８２０番地,,28,109,6511401,,,,,,,2022-10-18,1,,,,,オボドーロ,0
1666,6140005026343,新規,0,2022-10-18,2022-10-18,社会福祉法人たんなん,,その他の設立登記法人,兵庫県,朝来市,山東町柿坪３００１番地９,,28,225,6695143,,,,,,,2022-10-18,1,,,,,タンナン,0
1668,6150003002799,新規,0,2022-10-18,2022-10-18,合同会社ジャストビズ,,合同会社,奈良県,奈良市,西登美ヶ丘８丁目４番４－１号,,29,201,6310006,,,,,,,2022-10-18,1,,,,,ジャストビズ,0
1672,6170003001782,新規,0,2022-10-18,2022-10-18,ＳＥスクール合同会社,,合同会社,和歌山県,田辺市,東陽２５－３６－２０２,,30,206,6460029,,,,,,,2022-10-18,1,,,,,エスイースクール,0
1690,6200001040564,新規,0,2022-10-18,2022-10-18,株式会社Ｓｇｏａｌ,,株式会社,岐阜県,岐阜市,六条大溝３丁目３番２号カメーリエ大溝１０５号室,,21,201,5008357,,,,,,,2022-10-18,1,,,,,エスゴール,0
1692,6230005009264,新規,0,2022-10-18,2022-10-18,立山支部建設業協同組合,,その他の設立登記法人,富山県,富山市,安住町３番１４号,,16,201,9300094,,,,,,,2022-10-18,1,,,,,タテヤマシブケンセツギョウ,0
1704,6290001099246,新規,0,2022-10-18,2022-10-18,株式会社ＳＫＹ　ＨＯＬＤＩＮＧＳ,,株式会社,福岡県,福岡市中央区,赤坂１丁目１４番２２号,,40,133,8100042,,,,,,,2022-10-18,1,,,,,スカイホールディングス,0
1705,6290001099262,新規,0,2022-10-18,2022-10-18,株式会社上野工業,,株式会社,福岡県,福岡市中央区,今川２丁目５番２５－２０６号,,40,133,8100054,,,,,,,2022-10-18,1,,,,,ウエノコウギョウ,0
1708,6290801028973,新規,0,2022-10-18,2022-10-18,エマックリンク株式会社,,株式会社,福岡県,北九州市小倉北区,馬借１丁目５番３号,,40,106,8020077,,,,,,,2022-10-18,1,,,,,エマックリンク,0
1713,6320005010023,新規,0,2022-10-18,2022-10-18,ＮＰＯ法人豊後住まいるサポート,,その他の設立登記法人,大分県,大分市,東大道２丁目４番２２号,,44,201,8700823,,,,,,,2022-10-18,1,,,,,ブンゴスマイルサポート,0
1714,6330001030206,新規,0,2022-10-18,2022-10-18,マクロギバーズ株式会社,,株式会社,熊本県,熊本市北区,津浦町７番３５号,,43,105,8600088,,,,,,,2022-10-18,1,,,,,マクロギバーズ,0
1719,6360001031036,新規,0,2022-10-18,2022-10-18,ＳＹＭＷＡホールディングス株式会社,,株式会社,沖縄県,那覇市,港町２丁目７番１６号,,47,201,9000001,,,,,,,2022-10-18,1,,,,,シンワホールディングス,0
1720,6360003012389,新規,0,2022-10-18,2022-10-18,東普久原合同会社,,合同会社,沖縄県,那覇市,安謝１丁目１番２４号普久原ビル３階,,47,201,9000003,,,,,,,2022-10-18,1,,,,,アガリフクハラ,0
1730,6400003002988,新規,0,2022-10-18,2022-10-18,合同会社リッチヒルズレジデンス,,合同会社,岩手県,盛岡市,材木町４番３１号,,03,201,0200063,,,,,,,2022-10-18,1,,,,,リッチヒルズレジデンス,0
1738,6430001087681,新規,0,2022-10-18,2022-10-18,株式会社ユニーク,,株式会社,北海道,札幌市白石区,菊水上町四条２丁目５２番地４２８号Ａ,,01,104,0030814,,,,,,,2022-10-18,1,,,,,ユニーク,0
1743,6430003014378,新規,0,2022-10-18,2022-10-18,合同会社大翔リフォーム,,合同会社,北海道,北広島市,西の里東２丁目１５番地１２,,01,234,0611105,,,,,,,2022-10-18,1,,,,,ダイショウリフォーム,0
1763,7010001230118,新規,0,2022-10-18,2022-10-18,株式会社ＧＰＳホールディングス,,株式会社,東京都,中央区,日本橋３丁目８番７号坂本ビル,,13,102,1030027,,,,,,,2022-10-18,1,,,,,ジーピーエスホールディングス,0
1765,7010003038880,新規,0,2022-10-18,2022-10-18,合同会社さくら,,合同会社,東京都,千代田区,丸の内３丁目１番１号東京共同会計事務所内,,13,101,1000005,,,,,,,2022-10-18,1,,,,,サクラ,0
1768,7010005035620,新規,0,2022-10-18,2022-10-18,一般社団法人中小企業戦略研究所,,その他の設立登記法人,東京都,千代田区,五番町１２番地ドミール五番町１－０８６号,,13,101,1020076,,,,,,,2022-10-18,1,,,,,チュウショウキギョウセンリャクケンキュウジョ,0
1769,7010005035678,新規,0,2022-10-18,2022-10-18,一般社団法人パンデミックレディ・コンソーシアム,,その他の設立登記法人,東京都,文京区,本郷２丁目１番１号,,13,105,1130033,,,,,,,2022-10-18,1,,,,,パンデミックレディコンソーシアム,0
1770,7010401017073,新規,0,2022-10-18,2022-10-18,高橋商事株式会社,,株式会社,東京都,港区,芝浦３丁目６番７号,,13,103,1080023,,,,,,,2022-10-18,1,,,,,,0
1781,7010401170260,新規,0,2022-10-18,2022-10-18,株式会社アルゲス,,株式会社,東京都,港区,六本木３丁目１３番８号ｚｏｎａｎビル６Ｆ,,13,103,1060032,,,,,,,2022-10-18,1,,,,,アルゲス,0
1782,7010401170310,新規,0,2022-10-18,2022-10-18,サピエンス・キャピタル株式会社,,株式会社,東京都,港区,赤坂１丁目７番１号,,13,103,1070052,,,,,,,2022-10-18,1,,,,,サピエンスキャピタル,0
1787,7010403028564,新規,0,2022-10-18,2022-10-18,Ｓｗｉｆｔ　Ｍａｒｉｎｅ　Ｊａｐａｎ合同会社,,合同会社,東京都,港区,赤坂２丁目２３番１号アークヒルズ・フロントタワーＩｎＣｏｎｔｒｏｌ内,,13,103,1070052,,,,,,,2022-10-18,1,,,,,スウィフトマリンジャパン,0
1802,7011005009779,新規,0,2022-10-18,2022-10-18,一般社団法人木猫会,,その他の設立登記法人,東京都,渋谷区,道玄坂１丁目１５－３－６１１,,13,113,1500043,,,,,,,2022-10-18,1,,,,,キネコカイ,0
1803,7011101100400,新規,0,2022-10-18,2022-10-18,株式会社ＵＫＮＯＷ,,株式会社,東京都,新宿区,西新宿３丁目３番１３号西新宿水間ビル２Ｆ,,13,104,1600023,,,,,,,2022-10-18,1,,,,,ユーノウ,0
1807,7011103012255,新規,0,2022-10-18,2022-10-18,ＯＭＳＡＹ工業合同会社,,合同会社,東京都,新宿区,中落合１丁目８－２,,13,104,1610032,,,,,,,2022-10-18,1,,,,,オムセイコウギョウ,0
1808,7011103012271,新規,0,2022-10-18,2022-10-18,合同会社Ｔｒｉｓｈｕｌａ,,合同会社,東京都,新宿区,西新宿３丁目３番１３号西新宿水間ビル６階,,13,104,1600023,,,,,,,2022-10-18,1,,,,,トリシューラ,0
1811,7011301028169,新規,0,2022-10-18,2022-10-18,株式会社ダシヨコーポレーション,,株式会社,東京都,杉並区,西荻南１丁目１４番１０号,,13,115,1670053,,,,,,,2022-10-18,1,,,,,ダシヨコーポレーション,0
1813,7011501028555,新規,0,2022-10-18,2022-10-18,株式会社ピースワン,,株式会社,東京都,荒川区,南千住２丁目１番２－２０１号コンフォール三ノ輪,,13,118,1160003,,,,,,,2022-10-18,1,,,,,ピースワン,0
1816,7011601026302,新規,0,2022-10-18,2022-10-18,ＪＤＣテクノロジー株式会社,,株式会社,東京都,練馬区,高野台２丁目６番２０号,,13,120,1770033,,,,,,,2022-10-18,1,,,,,ジェイディーシーテクノロジー,0
1818,7012301013169,新規,0,2022-10-18,2022-10-18,株式会社ｄｏｎｕｔｓ,,株式会社,東京都,町田市,大蔵町１３７９番地１,,13,209,1950062,,,,,,,2022-10-18,1,,,,,ドーナッツ,0
1822,7013301049814,新規,0,2022-10-18,2022-10-18,ＴＫＣホールディングス株式会社,,株式会社,東京都,豊島区,高田３丁目８番５号,,13,116,1710033,,,,,,,2022-10-18,1,,,,,ティーケーシーホールディングス,0
1828,7020001148524,新規,0,2022-10-18,2022-10-18,ＮＥＷ　ＷＡＬＤ株式会社,,株式会社,神奈川県,横浜市磯子区,森１丁目８番地１２ナイスアーバン磯子ＩＩ６０３号室,00128167,14,107,2350023,,,,,,,2022-10-18,1,,,,,ニューヴァルド,0
1829,7020001148607,新規,0,2022-10-18,2022-10-18,株式会社グリューネベルク,,株式会社,神奈川県,横浜市緑区,中山１丁目２番７号ラルーチェ１階,,14,113,2260019,,,,,,,2022-10-18,1,,,,,グリューネベルク,0
1836,7020003022578,新規,0,2022-10-18,2022-10-18,ナノステップ合同会社,,合同会社,神奈川県,川崎市幸区,中幸町４丁目１９番地川崎パークホームズ２０３,,14,132,2120012,,,,,,,2022-10-18,1,,,,,ナノステップ,0
1837,7020003022586,新規,0,2022-10-18,2022-10-18,合同会社ｂｉａｎｃａ,,合同会社,神奈川県,横浜市都筑区,北山田２丁目４番１－４０１号,,14,118,2240021,,,,,,,2022-10-18,1,,,,,ビアンカ,0
1849,7030001150644,新規,0,2022-10-18,2022-10-18,株式会社ダイシ,,株式会社,埼玉県,川口市,飯塚３丁目５番２３－１１１号,,11,203,3320023,,,,,,,2022-10-18,1,,,,,ダイシ,0
1855,7030003020259,新規,0,2022-10-18,2022-10-18,合同会社シグマサー,,合同会社,埼玉県,比企郡鳩山町,松ヶ丘３丁目２１－６,,11,348,3500313,,,,,,,2022-10-18,1,,,,,シグマサー,0
1856,7030003020408,新規,0,2022-10-18,2022-10-18,合同会社ＹＫ　ＬＡＮＤ,,合同会社,埼玉県,春日部市,内牧５０３３－１１グリーンパーク春日部４－３０２,,11,214,3440051,,,,,,,2022-10-18,1,,,,,ワイケーランド,0
1857,7030003020424,新規,0,2022-10-18,2022-10-18,合同会社インテグラル,,合同会社,埼玉県,川口市,西川口１丁目２０番６号,,11,203,3320021,,,,,,,2022-10-18,1,,,,,インテグラル,0
1858,7030005021016,新規,0,2022-10-18,2022-10-18,医療法人社団新葉会,,その他の設立登記法人,埼玉県,所沢市,狭山ケ丘２丁目６４番地の２,,11,208,3591161,,,,,,,2022-10-18,1,,,,,シンヨウカイ,0
1865,7040001125455,新規,0,2022-10-18,2022-10-18,株式会社ＫＭトレーディング,,株式会社,千葉県,野田市,木間ケ瀬１５５０番地１１,,12,208,2700222,,,,,,,2022-10-18,1,,,,,ケイエムトレーディング,0
1866,7040001125488,新規,0,2022-10-18,2022-10-18,株式会社山田うなぎ店,,株式会社,千葉県,香取市,佐原イ６０７番地６,,12,236,2870003,,,,,,,2022-10-18,1,,,,,ヤマダウナギテン,0
1870,7040003021082,新規,0,2022-10-18,2022-10-18,合同会社和佳奈,,合同会社,千葉県,我孫子市,下ケ戸１８１１－５，１０１号室,,12,222,2701138,,,,,,,2022-10-18,1,,,,,ワカナ,0
1871,7040003021090,新規,0,2022-10-18,2022-10-18,合同会社クリエイティブ教育ラボ,,合同会社,千葉県,市川市,堀之内３丁目５－２７－２０１ルネ市川北国分,,12,203,2720837,,,,,,,2022-10-18,1,,,,,クリエイティブキョウイクラボ,0
1872,7040005021758,新規,0,2022-10-18,2022-10-18,社会福祉法人成幸会,,その他の設立登記法人,千葉県,富里市,七栄字獅子穴６４７番９,,12,233,2860221,,,,,,,2022-10-18,1,,,,,セイコウカイ,0
1875,7060001035363,新規,0,2022-10-18,2022-10-18,宇都宮トラベル株式会社,,株式会社,栃木県,下都賀郡壬生町,大字壬生甲３６９１－５,,09,361,3210214,,,,,,,2022-10-18,1,,,,,ウツノミヤトラベル,0
1880,7080101023571,新規,0,2022-10-18,2022-10-18,株式会社クック匠,,株式会社,静岡県,沼津市,原９５４番地の１,,22,203,4100312,,,,,,,2022-10-18,1,,,,,クックタクミ,0
1891,7110003004889,新規,0,2022-10-18,2022-10-18,合同会社ＮＫ地所,,合同会社,新潟県,上越市,東雲町２丁目６番１号,,15,222,9420071,,,,,,,2022-10-18,1,,,,,エヌケイチショ,0
1898,7120001249444,新規,0,2022-10-18,2022-10-18,株式会社スナグル,,株式会社,大阪府,大阪市中央区,天満橋京町２番６号天満橋八千代ビル別館７階Ａ号室,,27,128,5400032,,,,,,,2022-10-18,1,,,,,スナグル,0
1899,7120001249502,新規,0,2022-10-18,2022-10-18,株式会社せせらぎ出版,,株式会社,大阪府,大阪市北区,天満１丁目６番８号,,27,127,5300043,,,,,,,2022-10-18,1,,,,,セセラギシュッパン,0
1900,7120001249568,新規,0,2022-10-18,2022-10-18,ＥＳ．ＧＡＴＥ株式会社,,株式会社,大阪府,大阪市中央区,谷町２丁目９－３ザ・ファインタワー大手前３６０２号室,,27,128,5400012,,,,,,,2022-10-18,1,,,,,エスゲート,0
1901,7120001249601,新規,0,2022-10-18,2022-10-18,智海株式会社,,株式会社,大阪府,大阪市東淀川区,東中島１丁目１７－５ステュディオ新大阪１０３６号室,,27,114,5330033,,,,,,,2022-10-18,1,,,,,チカイ,0
1902,7120001249626,新規,0,2022-10-18,2022-10-18,株式会社ｃｏｃｏｔｉｅｓ,,株式会社,大阪府,大阪市都島区,大東町３丁目３番７－１１０２,,27,102,5340002,,,,,,,2022-10-18,1,,,,,ココタイズ,0
1910,7120903004335,新規,0,2022-10-18,2022-10-18,合同会社円,,合同会社,大阪府,茨木市,並木町１９番３４号ラフィーヌシャトー１０６号,,27,211,5670892,,,,,,,2022-10-18,1,,,,,マドカ,0
1917,7130001072820,新規,0,2022-10-18,2022-10-18,株式会社ＬＵＮＡＳＯＬ,,株式会社,京都府,京都市山科区,西野山桜ノ馬場町１１－１１,,26,110,6078308,,,,,,,2022-10-18,1,,,,,ルナソル,0
1931,7140001127672,新規,0,2022-10-18,2022-10-18,株式会社Ｐｉｎｏ　Ｊｏｙ,,株式会社,兵庫県,加東市,社４０３－３－３０１,,28,228,6731431,,,,,,,2022-10-18,1,,,,,ピノジョイ,0
1932,7140003018250,新規,0,2022-10-18,2022-10-18,グランシャリオ合同会社,,合同会社,兵庫県,西宮市,中須佐町９番８－１１０１号,,28,204,6620851,,,,,,,2022-10-18,1,,,,,グランシャリオ,0
1942,7180001153401,新規,0,2022-10-18,2022-10-18,株式会社ＳＥＮ,,株式会社,愛知県,日進市,岩崎町石兼７番地４,,23,230,4700131,,,,,,,2022-10-18,1,,,,,セン,0
1945,7180003024369,新規,0,2022-10-18,2022-10-18,ＧＲＩＴ合同会社,,合同会社,愛知県,名古屋市千種区,下方町６丁目２８番地ハニリリカＩＩ３０６,00128165,23,101,4640096,,,,,,,2022-10-18,1,,,,,グリット,0
1946,7180003024377,新規,0,2022-10-18,2022-10-18,ＨＶ　ＧＲＯＵＰ合同会社,,合同会社,愛知県,名古屋市千種区,今池５丁目２番４号,,23,101,4640850,,,,,,,2022-10-18,1,,,,,エイチヴィグループ,0
1947,7180301036735,新規,0,2022-10-18,2022-10-18,株式会社ジャパンキャピタルソリューション,,株式会社,愛知県,安城市,緑町２丁目９番地１７,,23,212,4460055,,,,,,,2022-10-18,1,,,,,ジャパンキャピタルソリューション,0
1958,7210003001570,新規,0,2022-10-18,2022-10-18,合同会社エムアイ企画,,合同会社,福井県,福井市,飯塚町３１－２４６－９,,18,201,9188067,,,,,,,2022-10-18,1,,,,,エムアイキカク,0
1969,7260003004065,新規,0,2022-10-18,2022-10-18,合同会社ＳＴＫ,,合同会社,岡山県,倉敷市,茶屋町早沖７９６番地,,33,202,7101102,,,,,,,2022-10-18,1,,,,,エスティーケー,0
1978,7290001099261,新規,0,2022-10-18,2022-10-18,株式会社ＰＬＩＥＲＳ,,株式会社,福岡県,那珂川市,今光１丁目４５番地,,40,231,8111211,,,,,,,2022-10-18,1,,,,,プライヤーズ,0
1980,7290003013071,新規,0,2022-10-18,2022-10-18,合同会社たちばな商会,,合同会社,福岡県,大牟田市,大字吉野１２９８番地３,,40,202,8370904,,,,,,,2022-10-18,1,,,,,タチバナショウカイ,0
1981,7290801028972,新規,0,2022-10-18,2022-10-18,株式会社ＳＡＭ,,株式会社,福岡県,北九州市小倉北区,霧ケ丘２丁目２番２１号,,40,106,8020052,,,,,,,2022-10-18,1,,,,,サム,0
1983,7300005007103,新規,0,2022-10-18,2022-10-18,一般社団法人しんゆ,,その他の設立登記法人,佐賀県,神埼市,神埼町田道ヶ里２１８４番地２,,41,210,8420002,,,,,,,2022-10-18,1,,,,,シンユ,0
1987,7320001019380,新規,0,2022-10-18,2022-10-18,株式会社ＬｕＬｕＤｉ,,株式会社,大分県,大分市,小佐井３丁目３番２０号,,44,201,8700327,,,,,,,2022-10-18,1,,,,,ルルディ,0
1989,7330001030205,新規,0,2022-10-18,2022-10-18,株式会社神輝,,株式会社,熊本県,熊本市中央区,水前寺１丁目３番１２号,,43,101,8620950,,,,,,,2022-10-18,1,,,,,コウキ,0
1991,7330003009536,新規,0,2022-10-18,2022-10-18,合同会社エルフリー,,合同会社,熊本県,熊本市南区,近見１丁目１２－３７,,43,104,8614101,,,,,,,2022-10-18,1,,,,,エルフリー,0
1993,7360003012388,新規,0,2022-10-18,2022-10-18,合同会社ａｎｄ．Ａ,,合同会社,沖縄県,那覇市,銘苅１丁目１－１２グランツＫ１０２,,47,201,9000004,,,,,,,2022-10-18,1,,,,,アンドットエ,0
1995,7370001049150,新規,0,2022-10-18,2022-10-18,ＳＨＡＨＥＥＮ＆ＳＯＮＳ株式会社,,株式会社,宮城県,大崎市,岩出山字浦小路１６番地岩出山オフィスビルＡ－１,,04,215,9896435,,,,,,,2022-10-18,1,,,,,シャヒーンアンドサンズ,0
1998,7370005010538,新規,0,2022-10-18,2022-10-18,一般社団法人ｗｉｎ‐ｗｉｎ‐ｗｉｎ,,その他の設立登記法人,宮城県,仙台市太白区,東中田６丁目３番３０号,,04,104,9811107,,,,,,,2022-10-18,1,,,,,ウィンウィンウィン,0
2010,7430001087664,新規,0,2022-10-18,2022-10-18,株式会社人にやさしく,,株式会社,北海道,札幌市豊平区,中の島一条１丁目２番１４号第１５松井ビル,,01,105,0620921,,,,,,,2022-10-18,1,,,,,ヒトニヤサシク,0
2014,7430003014369,新規,0,2022-10-18,2022-10-18,合同会社ＣＲＥＳ,,合同会社,北海道,札幌市中央区,南一条西１丁目１５番地３ＳＡＫＵＲＡ－Ｓ１Ｅ室,,01,101,0600061,,,,,,,2022-10-18,1,,,,,クレス,0
2015,7440001009171,新規,0,2022-10-18,2022-10-18,株式会社大山商事,,株式会社,北海道,北斗市,大工川１２２番地の１,,01,236,0490153,,,,,,,2022-10-18,1,,,,,オオヤマショウジ,0
2035,8010001230100,新規,0,2022-10-18,2022-10-18,株式会社Ｍ・Ｙ・Ｇ,,株式会社,東京都,千代田区,丸の内１丁目８－３丸の内トラストタワー本館２０階,,13,101,1000005,,,,,,,2022-10-18,1,,,,,エムワイジー,0
2036,8010001230199,新規,0,2022-10-18,2022-10-18,東京書房出版株式会社,,株式会社,東京都,千代田区,九段北１丁目５番５号,,13,101,1020073,,,,,,,2022-10-18,1,,,,,トウキョウショボウシュッパン,0
2037,8010001230232,新規,0,2022-10-18,2022-10-18,株式会社ＳＩＮＧＵＬＩＯＮ,,株式会社,東京都,千代田区,神田猿楽町２丁目８番１１号ＶＯＲＴ水道橋ＩＩＩ,00128166,13,101,1010064,,,,,,,2022-10-18,1,,,,,シンギュリオン,0
2038,8010003038871,新規,0,2022-10-18,2022-10-18,合同会社らぴたる,,合同会社,東京都,中央区,銀座８丁目１６番３ー７０６号,,13,102,1040061,,,,,,,2022-10-18,1,,,,,ラピタル,0
2049,8010401170301,新規,0,2022-10-18,2022-10-18,株式会社Ｂｌａｎ．ｃ,,株式会社,東京都,港区,浜松町２丁目２番１５号浜松町ダイヤビル２Ｆ,,13,103,1050013,,,,,,,2022-10-18,1,,,,,ブランク,0
2065,8011001150115,新規,0,2022-10-18,2022-10-18,株式会社ｂａｌｉｂａｌｉ,,株式会社,東京都,渋谷区,幡ヶ谷３丁目３９番１２号渋谷ウェストビル１階,,13,113,1510072,,,,,,,2022-10-18,1,,,,,バリバリ,0
2066,8011001150172,新規,0,2022-10-18,2022-10-18,クロスサイドホールディングス株式会社,,株式会社,東京都,渋谷区,神宮前６丁目１６番１９号,,13,113,1500001,,,,,,,2022-10-18,1,,,,,クロスサイドホールディングス,0
2067,8011001150404,新規,0,2022-10-18,2022-10-18,Ｓａｎｃｕｓ株式会社,,株式会社,東京都,渋谷区,桜丘町２６－１セルリアンタワー１５階,,13,113,1500031,,,,,,,2022-10-18,1,,,,,サンカス,0
2076,8011105010446,新規,0,2022-10-18,2022-10-18,税理士法人Ａｍｂｉｔｉｏｕｓ,,その他の設立登記法人,東京都,新宿区,西新宿７丁目１９番１５号ＫＹＳ西新宿ビル１階,,13,104,1600023,,,,,,,2022-10-18,1,,,,,アンビシャス,0
2087,8011801041406,新規,0,2022-10-18,2022-10-18,株式会社ＫＬＯＴＨ,,株式会社,東京都,足立区,梅田８丁目５番７号はじまるビル２０１,,13,121,1230851,,,,,,,2022-10-18,1,,,,,クロス,0
2096,8013301049788,新規,0,2022-10-18,2022-10-18,景山株式会社,,株式会社,東京都,豊島区,北大塚２丁目１８番８－３０２号,,13,116,1700004,,,,,,,2022-10-18,1,,,,,ケイザン,0
2097,8013301049813,新規,0,2022-10-18,2022-10-18,株式会社Ｎｏｅｌ,,株式会社,東京都,豊島区,池袋２丁目５２番３－２階,,13,116,1710014,,,,,,,2022-10-18,1,,,,,ノエル,0
2102,8020001148556,新規,0,2022-10-18,2022-10-18,株式会社桜美林エリアデザイン研究所,,株式会社,神奈川県,横浜市港北区,大豆戸町１５３番地２・３０３,,14,109,2220032,,,,,,,2022-10-18,1,,,,,オウビリンエリアデザインケンキュウジョ,0
2103,8020001148564,新規,0,2022-10-18,2022-10-18,株式会社要道,,株式会社,神奈川県,横浜市都筑区,折本町１１４４,,14,118,2240043,,,,,,,2022-10-18,1,,,,,ヨウドウ,0
2104,8020001148606,新規,0,2022-10-18,2022-10-18,ＭＫ　ｔｒａｎｓｐｏｒｔ株式会社,,株式会社,神奈川県,横浜市戸塚区,平戸２丁目９番３０号,,14,110,2440802,,,,,,,2022-10-18,1,,,,,,0
2106,8020003022577,新規,0,2022-10-18,2022-10-18,合同会社ｒｓ,,合同会社,神奈川県,横浜市神奈川区,高島台２２－３ディアレンス高島台４０２,,14,102,2210833,,,,,,,2022-10-18,1,,,,,,0
2107,8020005015694,新規,0,2022-10-18,2022-10-18,一般社団法人日本顧問パッケージ協会,,その他の設立登記法人,神奈川県,横浜市瀬谷区,橋戸３丁目５１番地１タウンハウス瀬谷４棟２号,,14,114,2460037,,,,,,,2022-10-18,1,,,,,ニホンコモンパッケージキョウカイ,0
2124,8030001150610,新規,0,2022-10-18,2022-10-18,株式会社ＧＲＥＥＮ　ＳＴＡＲ,,株式会社,埼玉県,川口市,芝１丁目１８－６,,11,203,3330866,,,,,,,2022-10-18,1,,,,,グリーンスター,0
2125,8030001150635,新規,0,2022-10-18,2022-10-18,株式会社藤井制御,,株式会社,埼玉県,春日部市,大場１４８７番地２８,,11,214,3440021,,,,,,,2022-10-18,1,,,,,フジイセイギョ,0
2130,8030003020349,新規,0,2022-10-18,2022-10-18,フェリックスコンサルティング合同会社,,合同会社,埼玉県,さいたま市浦和区,常盤７丁目１２番１７号,,11,107,3300061,,,,,,,2022-10-18,1,,,,,フェリックスコンサルティング,0
2131,8030003020423,新規,0,2022-10-18,2022-10-18,逸喜合同会社,,合同会社,埼玉県,熊谷市,石原２丁目１４番地１ビレッタ熊谷１０４号,,11,202,3600816,,,,,,,2022-10-18,1,,,,,イツキ,0
2132,8030005021023,新規,0,2022-10-18,2022-10-18,一般社団法人任意後見さいたま事務所,,その他の設立登記法人,埼玉県,さいたま市大宮区,吉敷町４丁目８４番地３ウィルローズさいたま新都心８０２号,,11,103,3300843,,,,,,,2022-10-18,1,,,,,ニンイコウケンサイタマジムショ,0
2136,8040001125446,新規,0,2022-10-18,2022-10-18,株式会社Ｘ‐ＧＯＬＦ　ＪＡＰＡＮ,,株式会社,千葉県,松戸市,松戸１４０１番地１０,,12,207,2710092,,,,,,,2022-10-18,1,,,,,エックスゴルフジャパン,0
2137,8040001125454,新規,0,2022-10-18,2022-10-18,株式会社ビック・リボーン・エステート,,株式会社,千葉県,松戸市,常盤平３丁目２番地の３８,,12,207,2702261,,,,,,,2022-10-18,1,,,,,ビックリボーンエステート,0
2140,8040003021073,新規,0,2022-10-18,2022-10-18,合同会社ＧＲＥＥＮ　ＷＯＲＬＤ,,合同会社,千葉県,山武市,埴谷１８７３番地４１,,12,237,2891223,,,,,,,2022-10-18,1,,,,,グリーンワールド,0
2141,8040003021081,新規,0,2022-10-18,2022-10-18,合同会社イナズマ,,合同会社,千葉県,千葉市美浜区,高洲３丁目４番６号３０６,,12,106,2610004,,,,,,,2022-10-18,1,,,,,イナズマ,0
2143,8040005021773,新規,0,2022-10-18,2022-10-18,税理士法人上田会計事務所,,その他の設立登記法人,千葉県,白井市,堀込３丁目１２番８号,,12,232,2701424,,,,,,,2022-10-18,1,,,,,ウエダカイケイジムショ,0
2144,8040005021781,新規,0,2022-10-18,2022-10-18,医療法人社団ジロ吉,,その他の設立登記法人,千葉県,習志野市,鷺沼３丁目２０番８号,,12,216,2750014,,,,,,,2022-10-18,1,,,,,ジロキチ,0
2148,8050001051823,新規,0,2022-10-18,2022-10-18,株式会社モッテ,,株式会社,茨城県,つくば市,小田３１４０番地,,08,220,3004223,,,,,,,2022-10-18,1,,,,,モッテ,0
2152,8060003004274,新規,0,2022-10-18,2022-10-18,コスモスの丘補習校ｏｎｌｉｎｅ合同会社,,合同会社,栃木県,那須塩原市,島方２０９番地３,,09,213,3293152,,,,,,,2022-10-18,1,,,,,コスモスノオカホシュウコウオンライン,0
2158,8070003004637,新規,0,2022-10-18,2022-10-18,合同会社オヤジニアＳ＆Ｈ,,合同会社,群馬県,前橋市,堀越町２２９７‐５フリーランスＢ２０２,,10,201,3710231,,,,,,,2022-10-18,1,,,,,オヤジニアエスアンドエイチ,0
2159,8070003004653,新規,0,2022-10-18,2022-10-18,合同会社マウント・ストリート,,合同会社,群馬県,伊勢崎市,連取町２３６３‐３１,,10,204,3720812,,,,,,,2022-10-18,1,,,,,マウントストリート,0
2168,8090003002184,新規,0,2022-10-18,2022-10-18,合同会社ポストグローバルプランニング,,合同会社,山梨県,南都留郡富士河口湖町,船津３４３３番地２,,19,430,4010301,,,,,,,2022-10-18,1,,,,,ポストグローバルプランニング,0
2172,8100001035795,新規,0,2022-10-18,2022-10-18,株式会社オートショップアオ,,株式会社,長野県,塩尻市,大字洗馬５５３１番地１,,20,215,3996462,,,,,,,2022-10-18,1,,,,,オートショップアオ,0
2186,8120001249352,新規,0,2022-10-18,2022-10-18,株式会社ニッコー・ケイサービスみかげ倶楽部,,株式会社,大阪府,大阪市西区,本田３丁目２番１号,,27,106,5500022,,,,,,,2022-10-18,1,,,,,ニッコーケイサービスミカゲクラブ,0
2187,8120001249492,新規,0,2022-10-18,2022-10-18,誠安捷株式会社,,株式会社,大阪府,大阪市北区,万歳町１－６Ｓｔａｒｓビル４階,,27,127,5300028,,,,,,,2022-10-18,1,,,,,セイアンコウ,0
2188,8120001249591,新規,0,2022-10-18,2022-10-18,株式会社ＪａｓＯｎｅ,,株式会社,大阪府,大阪市東淀川区,西淡路１丁目１－３５幹線東ビル９Ｆ,,27,114,5330031,,,,,,,2022-10-18,1,,,,,ジャスワン,0
2189,8120001249600,新規,0,2022-10-18,2022-10-18,四阿哥株式会社,,株式会社,大阪府,大阪市中央区,高津３丁目８－１９スターレジデンス黒門８０５号室,,27,128,5420072,,,,,,,2022-10-18,1,,,,,シアカ,0
2190,8120001249617,新規,0,2022-10-18,2022-10-18,ｎｏｎｅｔ株式会社,,株式会社,大阪府,大阪市天王寺区,夕陽丘町４－２ＭｅｔｒｏＰｏｒｔｅ四天王寺前夕陽ケ丘ＩＩＩ,00128176,27,109,5430075,,,,,,,2022-10-18,1,,,,,ノネット,0
2195,8120003022674,新規,0,2022-10-18,2022-10-18,阪急阪神不動産ジョインＩＤ‐ＤＣＰ合同会社,,合同会社,大阪府,大阪市北区,芝田１丁目１番４号,,27,127,5300012,,,,,,,2022-10-18,1,,,,,ハンキュウハンシンフドウサンジョインアイディーディーシーピー,0
2210,8140001127630,新規,0,2022-10-18,2022-10-18,株式会社ＨＡＣＨＩ,,株式会社,兵庫県,宝塚市,中筋２丁目１１番１－４０８号,,28,214,6650874,,,,,,,2022-10-18,1,,,,,ハチ,0
2216,8150001025890,新規,0,2022-10-18,2022-10-18,株式会社Ｓｈａｏｎ,,株式会社,奈良県,香芝市,平野１０６９番地,,29,210,6390263,,,,,,,2022-10-18,1,,,,,シャオン,0
2221,8170001017333,新規,0,2022-10-18,2022-10-18,株式会社ＨＡＮＤＳ,,株式会社,和歌山県,和歌山市,太田２丁目１４番６号第一生命ビル２階,,30,201,6408323,,,,,,,2022-10-18,1,,,,,ハンズ,0
2237,8180001153417,新規,0,2022-10-18,2022-10-18,株式会社ＡＳＴＲＯ,,株式会社,愛知県,名古屋市千種区,星ケ丘１丁目２３番４号アーバンラフレ星ケ丘１０号棟３０７号室,,23,101,4640801,,,,,,,2022-10-18,1,,,,,アストロ,0
2244,8190003004113,新規,0,2022-10-18,2022-10-18,合同会社誠美エステート,,合同会社,三重県,桑名市,松ノ木２丁目１８番地１１,,24,205,5110902,,,,,,,2022-10-18,1,,,,,セイビエステート,0
2245,8200001040562,新規,0,2022-10-18,2022-10-18,株式会社中総業,,株式会社,岐阜県,岐阜市,北一色８丁目３番１３－１号,,21,201,5008227,,,,,,,2022-10-18,1,,,,,ナカソウギョウ,0
2262,8290001099244,新規,0,2022-10-18,2022-10-18,株式会社宇木商店,,株式会社,福岡県,大牟田市,松原町２番地７,,40,202,8360033,,,,,,,2022-10-18,1,,,,,ウキショウテン,0
2264,8290003013062,新規,0,2022-10-18,2022-10-18,合同会社ｗｅｂデザイン,,合同会社,福岡県,福岡市中央区,天神４丁目６‐２８天神ファーストビル７階,,40,133,8100001,,,,,,,2022-10-18,1,,,,,ウェブデザイン,0
2265,8290003013070,新規,0,2022-10-18,2022-10-18,合同会社ＶＩＳＩＯＮＡＲＹ．Ｋ,,合同会社,福岡県,福岡市西区,室見が丘３丁目２１番２６号,,40,135,8190030,,,,,,,2022-10-18,1,,,,,ヴィジョナリーケイ,0
2279,8340003003933,新規,0,2022-10-18,2022-10-18,合同会社Ｓ．Ｂ．Ｓ．Ｔインベストメント,,合同会社,鹿児島県,霧島市,国分野口町１１番１１号ＫＯＳＥＩ　ＢＬＤ　Ｂ１－１,,46,218,8994342,,,,,,,2022-10-18,1,,,,,エスビーエスティーインベストメント,0
2283,8350003004195,新規,0,2022-10-18,2022-10-18,合同会社Ｆｏｒｅｖｅｒ　Ｆｒｉｅｎｄ,,合同会社,宮崎県,宮崎市,末広１丁目１０番１０号,,45,201,8800012,,,,,,,2022-10-18,1,,,,,フォーエバーフレンド,0
2284,8360001031067,新規,0,2022-10-18,2022-10-18,株式会社ＩＮＡＴ,,株式会社,沖縄県,名護市,宮里１丁目５－４１－３０３,,47,209,9050011,,,,,,,2022-10-18,1,,,,,アイナット,0
2301,8430001087663,新規,0,2022-10-18,2022-10-18,株式会社原田商事,,株式会社,北海道,伊達市,北黄金町４９番地５１５,,01,233,0590272,,,,,,,2022-10-18,1,,,,,ハラダショウジ,0
2302,8430001087671,新規,0,2022-10-18,2022-10-18,株式会社ｅ冷熱,,株式会社,北海道,札幌市北区,新琴似一条１１丁目６番１号,,01,102,0010901,,,,,,,2022-10-18,1,,,,,イーレイネツ,0
2304,8430003014376,新規,0,2022-10-18,2022-10-18,エイトアローズ合同会社,,合同会社,北海道,札幌市中央区,南一条西１１丁目３２７,,01,101,0600061,,,,,,,2022-10-18,1,,,,,エイトアローズ,0
2305,8430003014384,新規,0,2022-10-18,2022-10-18,合同会社ＳＨＩＥＮ,,合同会社,北海道,札幌市中央区,南四条西１２丁目１２９６番地３４,,01,101,0640804,,,,,,,2022-10-18,1,,,,,シエン,0
2306,8450003002255,新規,0,2022-10-18,2022-10-18,合同会社サンリバー,,合同会社,北海道,旭川市,東光五条７丁目２番２号,,01,204,0788345,,,,,,,2022-10-18,1,,,,,サンリバー,0
2322,9010001230041,新規,0,2022-10-18,2022-10-18,５ＳＴＡＲ　ｉｎｔｅｒｎａｔｉｏｎａｌ株式会社,,株式会社,東京都,中央区,銀座６丁目１３番１６号銀座ＷａｌｌＢｕｉｌｄｉｎｇ５Ｆ,,13,102,1040061,,,,,,,2022-10-18,1,,,,,ファイブスターインターナショナル,0
2323,9010001230140,新規,0,2022-10-18,2022-10-18,Ｆｉｎｔｅｃｈｃｏｍ株式会社,,株式会社,東京都,中央区,月島１丁目１５－１０－１５０２,,13,102,1040052,,,,,,,2022-10-18,1,,,,,フィンテックコム,0
2324,9010001230223,新規,0,2022-10-18,2022-10-18,ＴＴＣホールディングス株式会社,,株式会社,東京都,千代田区,丸の内１丁目５番１号,,13,101,1000005,,,,,,,2022-10-18,1,,,,,ティーティーシーホールディングス,0
2325,9010003038870,新規,0,2022-10-18,2022-10-18,Ｌｕｎｏａ合同会社,,合同会社,東京都,中央区,入船３丁目８番１－１００２号,,13,102,1040042,,,,,,,2022-10-18,1,,,,,ルノア,0
2333,9010401170300,新規,0,2022-10-18,2022-10-18,みらいパートナーズ株式会社,,株式会社,東京都,港区,南青山３丁目１番３６号青山丸竹ビル６Ｆ,,13,103,1070062,,,,,,,2022-10-18,1,,,,,ミライパートナーズ,0
2334,9010401170333,新規,0,2022-10-18,2022-10-18,株式会社Ｌｅｉｓ,,株式会社,東京都,港区,芝５丁目２０番９号東化ビル４階,,13,103,1080014,,,,,,,2022-10-18,1,,,,,レイズ,0
2336,9010403028728,新規,0,2022-10-18,2022-10-18,合同会社ＨａｒｕＨａｒｕ,,合同会社,東京都,港区,赤坂４丁目２番２号赤坂ＤＮプラザビル４０２,,13,103,1070052,,,,,,,2022-10-18,1,,,,,ハルハル,0
2339,9010405021474,新規,0,2022-10-18,2022-10-18,特定非営利活動法人ＨＡＲＵ　ｆｏｒ　ｍｅ,,その他の設立登記法人,東京都,港区,南青山２丁目２番１５号ＷＩＮ青山ビル５階５３１号室,,13,103,1070062,,,,,,,2022-10-18,1,,,,,ハルフォーミー,0
2347,9010501049469,新規,0,2022-10-18,2022-10-18,株式会社倉,,株式会社,東京都,台東区,下谷１丁目６番９号,,13,106,1100004,,,,,,,2022-10-18,1,,,,,クラ,0
2351,9010901051801,新規,0,2022-10-18,2022-10-18,ＬＡ　ＤＯＬＣＥ　ＶＩＴＡ株式会社,,株式会社,東京都,世田谷区,砧３丁目４番４号,,13,112,1570073,,,,,,,2022-10-18,1,,,,,ラドルチェヴィータ,0
2352,9010903007727,新規,0,2022-10-18,2022-10-18,ブリューウェル合同会社,,合同会社,東京都,世田谷区,松原１丁目７番７号２０３室,,13,112,1560043,,,,,,,2022-10-18,1,,,,,ブリューウェル,0
2359,9011001150056,新規,0,2022-10-18,2022-10-18,株式会社Ｎｅａｒｓｉｄｅ,,株式会社,東京都,目黒区,下目黒６丁目２－１０,,13,110,1530064,,,,,,,2022-10-18,1,,,,,ニアサイド,0
2360,9011001150361,新規,0,2022-10-18,2022-10-18,株式会社ＲＯＩＤＺ　ＴＥＣＨ,,株式会社,東京都,渋谷区,千駄ヶ谷３丁目８番６号,,13,113,1510051,,,,,,,2022-10-18,1,,,,,ロイズテック,0
2361,9011001150403,新規,0,2022-10-18,2022-10-18,Ｓｔｒｉｄｅｆｏｒｔｈ株式会社,,株式会社,東京都,渋谷区,桜丘町２６－１セルリアンタワー１５階,,13,113,1500031,,,,,,,2022-10-18,1,,,,,ストライドフォース,0
2362,9011005009785,新規,0,2022-10-18,2022-10-18,一般社団法人Ｗｅｂ３Ｊａｐａｎ,,その他の設立登記法人,東京都,渋谷区,東１丁目１６番８号,,13,113,1500011,,,,,,,2022-10-18,1,,,,,ウェブスリージャパン,0
2370,9011303004554,新規,0,2022-10-18,2022-10-18,クアッドコンピテンス合同会社,,合同会社,東京都,杉並区,高円寺北１丁目１８番９号メゾンセキ３０６,,13,115,1660002,,,,,,,2022-10-18,1,,,,,クアッドコンピテンス,0
2377,9011801041405,新規,0,2022-10-18,2022-10-18,ＰＰＬ株式会社,,株式会社,東京都,足立区,皿沼２丁目１１番３号,,13,121,1230862,,,,,,,2022-10-18,1,,,,,ピーピーエル,0
2379,9012301013167,新規,0,2022-10-18,2022-10-18,大和建物管理株式会社,,株式会社,東京都,町田市,原町田６丁目９番８号ＡＥＴＡ町田４階,,13,209,1940013,,,,,,,2022-10-18,1,,,,,ダイワタテモノカンリ,0
2382,9012401039748,新規,0,2022-10-18,2022-10-18,株式会社イスカスアカデメイアソフト,,株式会社,東京都,調布市,調布ケ丘１丁目５番地１,,13,208,1820021,,,,,,,2022-10-18,1,,,,,イスカスアカデメイアソフト,0
2398,9020001148555,新規,0,2022-10-18,2022-10-18,株式会社先端技術無人航空機トレーニングセンター,,株式会社,神奈川県,横浜市西区,北幸１丁目１１番１号,,14,103,2200004,,,,,,,2022-10-18,1,,,,,センタンギジュツムジンコウクウキトレーニングセンター,0
2399,9020001148605,新規,0,2022-10-18,2022-10-18,株式会社リバーウィン,,株式会社,神奈川県,横浜市青葉区,荏田町４４７番地６,,14,117,2250013,,,,,,,2022-10-18,1,,,,,リバーウィン,0
2400,9020001148613,新規,0,2022-10-18,2022-10-18,ＮＴマネジメント株式会社,,株式会社,神奈川県,横浜市都筑区,茅ケ崎東２丁目２番１０－２０２号,,14,118,2240033,,,,,,,2022-10-18,1,,,,,エヌティマネジメント,0
2404,9020003022584,新規,0,2022-10-18,2022-10-18,合同会社ビッグフェザー,,合同会社,神奈川県,横浜市港南区,上大岡東１丁目３９番３０号,,14,111,2330001,,,,,,,2022-10-18,1,,,,,ビッグフェザー,0
2406,9020005015693,新規,0,2022-10-18,2022-10-18,一般社団法人Ｐａｔａｎｊａｌｉ　Ｊａｐａｎ　Ｆｏｕｎｄａｔｉｏｎ,,その他の設立登記法人,神奈川県,川崎市宮前区,犬蔵２丁目１３番２３号テラス１２Ｋ,,14,136,2160011,,,,,,,2022-10-18,1,,,,,パタンジャリジャパンファウンデーション,0
2411,9021001077232,新規,0,2022-10-18,2022-10-18,株式会社ＺＥＲＯ　ＷＯＲＫＳ,,株式会社,神奈川県,横須賀市,長沢１丁目２９番４号,,14,201,2390842,,,,,,,2022-10-18,1,,,,,ゼロワークス,0
2419,9030001150584,新規,0,2022-10-18,2022-10-18,株式会社ＨＵＩ　Ｓｅｃｏｎｄ,,株式会社,埼玉県,川口市,桜町３丁目２番１７号フラッツァルーエ２０１号,,11,203,3340001,,,,,,,2022-10-18,1,,,,,エイチユーアイセカンド,0
2425,9030003020414,新規,0,2022-10-18,2022-10-18,ｊａｍ合同会社,,合同会社,埼玉県,さいたま市見沼区,大字中川６２０－１,,11,104,3370043,,,,,,,2022-10-18,1,,,,,ジャム,0
2426,9030005021014,新規,0,2022-10-18,2022-10-18,医療法人社団志誠会,,その他の設立登記法人,埼玉県,川口市,川口２丁目８番１９号伊東ビル３階,,11,203,3320015,,,,,,,2022-10-18,1,,,,,シセイカイ,0
2427,9030005021022,新規,0,2022-10-18,2022-10-18,医療法人かまなか内科・呼吸器内科クリニック,,その他の設立登記法人,埼玉県,久喜市,久喜東５丁目６番４０－２号,,11,232,3460016,,,,,,,2022-10-18,1,,,,,カマナカナイカコキュウキナイカクリニック,0
2428,9030005021030,新規,0,2022-10-18,2022-10-18,医療法人翔馬会,,その他の設立登記法人,埼玉県,志木市,中宗岡５丁目１６番２－２号,,11,228,3530002,,,,,,,2022-10-18,1,,,,,ショウマカイ,0
2438,9040001125486,新規,0,2022-10-18,2022-10-18,ＣＭＣ設計株式会社,,株式会社,千葉県,千葉市中央区,中央３丁目１３番７号コスモ千葉中央ビル４０６号室,,12,101,2600013,,,,,,,2022-10-18,1,,,,,シーエムシーセッケイ,0
2439,9040003021072,新規,0,2022-10-18,2022-10-18,合同会社ラフキ,,合同会社,千葉県,香取市,小見川８１２－６天神ビル２０１,,12,236,2890313,,,,,,,2022-10-18,1,,,,,ラフキ,0
2440,9040005021780,新規,0,2022-10-18,2022-10-18,医療法人社団千聡会,,その他の設立登記法人,千葉県,習志野市,本大久保３丁目９番２４号田久保ビル,,12,216,2750012,,,,,,,2022-10-18,1,,,,,チソウカイ,0
2448,9050003006923,新規,0,2022-10-18,2022-10-18,合同会社Ｒｅｎｏｎ,,合同会社,茨城県,神栖市,深芝２５５５,,08,232,3140148,,,,,,,2022-10-18,1,,,,,レノン,0
2459,9080001025253,新規,0,2022-10-18,2022-10-18,株式会社４Ｄｓ,,株式会社,静岡県,静岡市葵区,川合３丁目１８番５号,,22,101,4200923,,,,,,,2022-10-18,1,,,,,フォーディーエス,0
2467,9100003006728,新規,0,2022-10-18,2022-10-18,合同会社ＲＯＯＴＳ,,合同会社,長野県,小県郡長和町,和田５８７－２,,20,350,3860701,,,,,,,2022-10-18,1,,,,,ルーツ,0
2468,9100005012930,新規,0,2022-10-18,2022-10-18,医療法人えん,,その他の設立登記法人,長野県,上田市,天神２丁目１番２２号ＯＡＵビル５Ｆ－Ｂ,,20,203,3860025,,,,,,,2022-10-18,1,,,,,エン,0
2475,9120001249582,新規,0,2022-10-18,2022-10-18,株式会社ｂｅ　ｔｏ　ｓｐａｃｅ,,株式会社,大阪府,大阪市福島区,福島４丁目１番６７－４－Ｂ号,,27,103,5530003,,,,,,,2022-10-18,1,,,,,ビィトゥスペース,0
2476,9120001249616,新規,0,2022-10-18,2022-10-18,モンスターモンスター株式会社,,株式会社,大阪府,大阪市東住吉区,矢田２丁目１７番８号,,27,121,5460023,,,,,,,2022-10-18,1,,,,,モンスターモンスター,0
2477,9120003022657,新規,0,2022-10-18,2022-10-18,合同会社トラストフォーエステート,,合同会社,大阪府,大阪市東住吉区,山坂３丁目５番１７号,,27,121,5460035,,,,,,,2022-10-18,1,,,,,トラストフォーエステート,0
2478,9120003022681,新規,0,2022-10-18,2022-10-18,合同会社ＳｏｏＣｏｏＬ,,合同会社,大阪府,大阪市城東区,東中浜８丁目８番２３－５１２号,,27,118,5360023,,,,,,,2022-10-18,1,,,,,ソークール,0
2482,9122001036333,新規,0,2022-10-18,2022-10-18,株式会社ＵＳＫ,,株式会社,大阪府,八尾市,上尾町２丁目２６番地,,27,212,5810851,,,,,,,2022-10-18,1,,,,,ユーエスケー,0
2486,9130001072793,新規,0,2022-10-18,2022-10-18,株式会社アイエス,,株式会社,京都府,京都市中京区,笹屋町４３６永和御池ビル６０６号,,26,104,6040983,,,,,,,2022-10-18,1,,,,,アイエス,0
2487,9130001072835,新規,0,2022-10-18,2022-10-18,株式会社ブライラント,,株式会社,京都府,京都市下京区,松原通堺町東入杉屋町２８３番地,,26,106,6008078,,,,,,,2022-10-18,1,,,,,ブライラント,0
2490,9130003008250,新規,0,2022-10-18,2022-10-18,バク合同会社,,合同会社,京都府,京都市右京区,太秦森ケ前町１６番地,,26,108,6168105,,,,,,,2022-10-18,1,,,,,バク,0
2495,9150005009427,新規,0,2022-10-18,2022-10-18,一般社団法人広陵ステーションプラス１クラブ,,その他の設立登記法人,奈良県,北葛城郡広陵町,大字疋相１９番地１２,,29,426,6350824,,,,,,,2022-10-18,1,,,,,コウリョウステーションプラスワンクラブ,0
2517,9200001040561,新規,0,2022-10-18,2022-10-18,株式会社ＮＥＯ　ＰＬＵＳ,,株式会社,岐阜県,関市,千疋７２５番地２,,21,205,5013954,,,,,,,2022-10-18,1,,,,,ネオプラス,0
2534,9290003013078,新規,0,2022-10-18,2022-10-18,合同会社ＫＵＪＩＲＡ＆ＷＥＢ,,合同会社,福岡県,福岡市中央区,長浜３丁目１６番２－９１０号モントーレセントラルベイコート,,40,133,8100072,,,,,,,2022-10-18,1,,,,,クジラアンドウェブ,0
2549,9380001033184,新規,0,2022-10-18,2022-10-18,株式会社ＢＥＮ,,株式会社,福島県,郡山市,小原田４丁目１４番３３号ユニヴェール１０５号,,07,203,9638835,,,,,,,2022-10-18,1,,,,,ベン,0
2550,9380001033192,新規,0,2022-10-18,2022-10-18,株式会社クシダ工務店,,株式会社,福島県,いわき市,勿来町窪田上り途１番地の３,,07,204,9790141,,,,,,,2022-10-18,1,,,,,クシダコウムテン,0
2553,9420001018040,新規,0,2022-10-18,2022-10-18,株式会社村上保険事務所,,株式会社,青森県,青森市,大字石江字岡部５１番地２,,02,201,0380003,,,,,,,2022-10-18,1,,,,,ムラカミホケンジムショ,0
2558,9430001087638,新規,0,2022-10-18,2022-10-18,株式会社Ｇ　ｇｒｏｗ,,株式会社,北海道,札幌市西区,発寒四条６丁目５番１３号,,01,107,0630824,,,,,,,2022-10-18,1,,,,,ジーグロー,0
2559,9430001087646,新規,0,2022-10-18,2022-10-18,株式会社オカモトファーム,,株式会社,北海道,浦河郡浦河町,字西舎４５０番地の６,,01,607,0570171,,,,,,,2022-10-18,1,,,,,オカモトファーム,0
2560,9430001087679,新規,0,2022-10-18,2022-10-18,株式会社メディアプラント,,株式会社,北海道,札幌市白石区,平和通６丁目北１０番２０号,,01,104,0030029,,,,,,,2022-10-18,1,,,,,メディアプラント,0
2568,9430003014375,新規,0,2022-10-18,2022-10-18,合同会社キャンバス,,合同会社,北海道,札幌市白石区,本通１５丁目南２番７号,,01,104,0030026,,,,,,,2022-10-18,1,,,,,キャンバス,0
2573,9490003001707,新規,0,2022-10-18,2022-10-18,柿内自動車合同会社,,合同会社,高知県,幡多郡黒潮町,入野１１７８番地,,39,428,7891931,,,,,,,2022-10-18,1,,,,,カキウチジドウシャ,0
2585,9700150112020,新規,0,2022-10-18,2022-10-05,福井県私立幼稚園・認定こども園ＰＴＡ連合会,,その他,福井県,福井市,松本３丁目１６－１０福井合同庁舎５Ｆ,,18,201,9100003,,,,,,,2022-10-05,1,,,,,フクイケンシリツヨウチエンニンテイコドモエンピーテイーエーレンゴウカイ,0
