sequenceNumber,corporateNumber,process,correct,updateDate,changeDate,name,nameImageId,kind,prefectureName,cityName,streetNumber,addressImageId,prefectureCode,cityCode,postCode,addressOutside,addressOutsideImageId,closeDate,closeCause,successorCorporateNumber,changeCause,assignmentDate,latest,enName,enPrefectureName,enCityName,enAddressOutside,furigana,hihyoji
25,1010405018115,登記記録の閉鎖等,0,2021-11-01,2021-10-19,一般社団法人エネルギー１,,その他の設立登記法人,東京都,港区,虎ノ門３丁目２２番１０－２０１号,,13,103,1050001,,,2021-10-19,清算の結了等,,,2019-10-03,1,,,,,エネルギーイチ,0
27,1010601010833,登記記録の閉鎖等,0,2021-11-01,2021-10-19,新栄ゴム工業株式会社,,株式会社,東京都,墨田区,業平２丁目１０番２号,,13,107,1300002,,,2021-10-19,清算の結了等,,,2015-10-05,1,,,,,シンエイゴムコウギョウ,0
37,1010901010946,登記記録の閉鎖等,0,2021-11-01,2021-10-28,ベストインターナショナル株式会社,,株式会社,東京都,世田谷区,三軒茶屋１丁目３５番２２号,,13,112,1540024,,,2021-10-28,清算の結了等,,,2015-10-05,1,,,,,ベストインターナショナル,0
47,1011101078667,登記記録の閉鎖等,0,2021-11-01,2021-10-18,株式会社ｅｎｉｇｍａ,,株式会社,東京都,新宿区,西新宿１丁目２２番２号,,13,104,1600023,,,2021-10-18,合併による解散等,4011101062271,令和３年１０月１日東京都新宿区西新宿一丁目２２番２号株式会社ネオキャリア（4011101062271）に合併し解散,2016-11-07,1,,,,,エニグマ,0
56,1011402017712,登記記録の閉鎖等,0,2021-11-01,2021-10-27,有限会社松志,,有限会社,東京都,板橋区,本町１７番５－３０１号,,13,119,1730001,,,2021-10-27,清算の結了等,,,2015-10-05,1,,,,,,0
61,1012401010831,登記記録の閉鎖等,0,2021-11-01,2021-10-26,伊藤電気株式会社,,株式会社,東京都,武蔵野市,桜堤３丁目２３番２６号,,13,203,1800021,,,2021-10-26,清算の結了等,,,2015-10-05,1,,,,,イトウデンキ,0
66,1012701008237,登記記録の閉鎖等,0,2021-11-01,2021-10-26,株式会社光伸電設,,株式会社,東京都,東久留米市,下里７丁目５番２２号,,13,222,2030043,,,2021-10-26,清算の結了等,,,2015-10-05,1,,,,,コウシンデンセツ,0
70,1013301037048,登記記録の閉鎖等,0,2021-11-01,2021-10-19,株式会社Ｔｒａｉｍｍｕ,,株式会社,東京都,港区,港南２丁目１６番３号品川グランドセントラルタワー２４Ｆ,,13,103,1080075,,,2021-10-19,合併による解散等,4010401108833,令和３年１０月１３日東京都港区港南二丁目１６番３号品川グランドセントラルタワー２４Ｆ株式会社Ｌｅｇａｓｅｅｄ（4010401108833）に合併し解散,2015-10-05,1,,,,,トレイム,0
100,1030003000745,登記記録の閉鎖等,0,2021-11-01,2021-10-25,合同会社サルガク・コミュニケーション・デザイン,,合同会社,埼玉県,さいたま市中央区,鈴谷７丁目６番２－５０４号,,11,105,3380013,,,2021-10-25,清算の結了等,,,2015-10-05,1,,,,,サルガクコミュニケーションデザイン,0
105,1030005013233,登記記録の閉鎖等,0,2021-11-01,2021-10-04,天理教玉昭分教会,,その他の設立登記法人,埼玉県,熊谷市,柿沼字遠新田９３３番地２,,11,202,3600803,,,2021-10-04,合併による解散等,1030005013753,令和３年１０月４日埼玉県深谷市仲町１２番６号天理教埼玉分教会（1030005013753）に合併し解散,2015-10-05,1,,,,,テンリキョウタマアキブンキョウカイ,0
118,1050001008433,登記記録の閉鎖等,0,2021-11-01,2021-10-27,株式会社ＭＣＭファーム,,株式会社,茨城県,ひたちなか市,殿山町２丁目１２番地ノ３,,08,221,3111212,,,2021-10-27,清算の結了等,,,2015-10-05,1,,,,,,0
124,1070001025617,登記記録の閉鎖等,0,2021-11-01,2021-10-29,株式会社クリエイティブジャパン,,株式会社,群馬県,高崎市,沖町２７３番地,,10,202,3700086,,,2021-10-29,清算の結了等,,,2015-10-05,1,,,,,クリエイティブジャパン,0
127,1080001002763,登記記録の閉鎖等,0,2021-11-01,2021-10-29,株式会社静岡ソクバイ,,株式会社,静岡県,静岡市駿河区,中野新田３４６番地の２,,22,102,4228051,,,2021-10-29,清算の結了等,,,2015-10-05,1,,,,,シズオカソクバイ,0
140,1110002008244,登記記録の閉鎖等,0,2021-11-01,2021-10-28,有限会社田辺サッシ,,有限会社,新潟県,新潟市江南区,所島１丁目８番１７号,,15,104,9500135,,,2021-10-28,清算の結了等,,,2015-10-05,1,,,,,,0
149,1120001062233,登記記録の閉鎖等,0,2021-11-01,2021-10-29,株式会社片野商店,,株式会社,大阪府,大阪市北区,天神西町４番１３号,,27,127,5300045,,,2021-10-29,清算の結了等,,,2015-10-05,1,,,,,カタノショウテン,0
174,1120905004520,登記記録の閉鎖等,0,2021-11-01,2021-10-29,公益財団法人豊中市スポーツ振興事業団,,その他の設立登記法人,大阪府,豊中市,服部西町５丁目１番１号（豊中市立豊島温水プール内）,,27,203,5610858,,,2021-10-29,清算の結了等,,,2015-10-05,1,,,,,トヨナカシスポーツシンコウジギョウダン,0
177,1130002015635,登記記録の閉鎖等,0,2021-11-01,2021-10-27,有限会社井関忠商店,,有限会社,京都府,長岡京市,久貝２丁目１２番１号,,26,209,6170837,,,2021-10-27,清算の結了等,,,2015-10-05,1,,,,,イゼキチュウショウテン,0
179,1130005011739,登記記録の閉鎖等,0,2021-11-01,2021-10-07,天理教九景海分教会,,その他の設立登記法人,京都府,舞鶴市,字北田辺１７番地,,26,202,6240855,,,2021-10-07,合併による解散等,5130005011743,令和３年１０月７日京都府舞鶴市字引土９３０番地天理教山陰大教会（5130005011743）に合併し解散,2015-10-05,1,,,,,テンリキョウクケノウミブンキョウカイ,0
205,1180303001271,登記記録の閉鎖等,0,2021-11-01,2021-10-28,合資会社鳥文白井商店,,合資会社,愛知県,豊橋市,岩屋町字岩屋下６２番地,,23,201,4400842,,,2021-10-28,清算の結了等,,,2015-10-05,1,,,,,トリブンシライショウテン,0
208,1190005003912,登記記録の閉鎖等,0,2021-11-01,2021-10-08,天理教昭陽分教会,,その他の設立登記法人,三重県,北牟婁郡紀北町,東長島字玉３３５１番地２,,24,543,5193204,,,2021-10-08,合併による解散等,9190005003913,令和３年１０月８日三重県北牟婁郡紀北町長島１４１９番地天理教東陽分教会（9190005003913）に合併し解散,2015-10-05,1,,,,,テンリキョウショウヨウブンキョウカイ,0
214,1200005007300,登記記録の閉鎖等,0,2021-11-01,2021-10-28,特定非営利活動法人卒寿会,,その他の設立登記法人,岐阜県,加茂郡川辺町,中川辺４０番地１,,21,503,5090304,,,2021-10-28,清算の結了等,,,2015-10-05,1,,,,,ソツジュカイ,0
221,1240005013708,登記記録の閉鎖等,0,2021-11-01,2021-10-04,特定非営利活動法人ひろしま県防災教育振興協会,,その他の設立登記法人,広島県,広島市安佐北区,可部６丁目３番１２号,,34,106,7310221,,,2021-10-04,清算の結了等,,,2015-10-05,1,,,,,ヒロシマケンボウサイキョウイクシンコウキョウカイ,0
225,1260002024391,登記記録の閉鎖等,0,2021-11-01,2021-10-29,有限会社ＥＹＥ企画,,有限会社,岡山県,倉敷市,中庄６０２番地１５,,33,202,7100016,,,2021-10-29,清算の結了等,,,2015-10-05,1,,,,,,0
226,1280001006728,登記記録の閉鎖等,0,2021-11-01,2021-10-07,ダノベータインターナショナル株式会社,,株式会社,島根県,松江市,魚町４９番地,,32,201,6900062,,,2021-10-07,合併による解散等,6280001008166,令和３年９年３０日島根県雲南市吉田町吉田２４０７番地株式会社ＴＡＮＡＢＥ　グローバルキッチン（6280001008166）に合併し解散,2015-10-05,1,,,,,ダノベータインターナショナル,0
239,1300005006374,登記記録の閉鎖等,0,2021-11-01,2021-10-27,特定非営利活動法人みやき振興,,その他の設立登記法人,佐賀県,三養基郡みやき町,大字江口７５６１番地,,41,346,8490112,,,2021-10-27,清算の結了等,,,2015-10-05,1,,,,,ミヤキシンコウ,0
242,1320001011847,登記記録の閉鎖等,0,2021-11-01,2021-10-28,株式会社ナーテック,,株式会社,大分県,大分市,大字皆春１０８番地の２コスモシティ皆春,,44,201,8700131,,,2021-10-28,清算の結了等,,,2015-10-05,1,,,,,ナーテック,0
248,1350002000755,登記記録の閉鎖等,0,2021-11-01,2021-10-28,有限会社オーク,,有限会社,宮崎県,日南市,吾田東９丁目２番５号,,45,204,8892541,,,2021-10-28,清算の結了等,,,2015-10-05,1,,,,,オーク,0
260,1370102000307,登記記録の閉鎖等,0,2021-11-01,2021-10-21,有限会社庄司産業,,有限会社,宮城県,柴田郡柴田町,船岡中央３丁目２１番２２－１号,,04,323,9891601,,,2021-10-21,清算の結了等,,,2015-10-05,1,,,,,ショウジサンギョウ,0
275,1430001039836,登記記録の閉鎖等,0,2021-11-01,2021-10-29,株式会社ハートライフカンパニーズ,,株式会社,北海道,札幌市北区,屯田四条８丁目８番１４号,,01,102,0020854,,,2021-10-29,清算の結了等,,,2015-10-05,1,,,,,ハートライフカンパニーズ,0
283,1460002005727,登記記録の閉鎖等,0,2021-11-01,2021-10-26,有限会社牛崎家具センター,,有限会社,北海道,川上郡標茶町,字旭町３番地,,01,664,0882300,,,2021-10-26,清算の結了等,,,2021-04-01,1,,,,,ウシザキカグセンター,0
284,1460101005982,登記記録の閉鎖等,0,2021-11-01,2021-10-06,エア・ウォーター十勝食品株式会社,,株式会社,北海道,河西郡更別村,字更別１９４番地５,,01,639,0891542,,,2021-10-06,合併による解散等,3450001001998,令和３年１０月１日北海道旭川市永山北一条十丁目１３番５号株式会社トミイチ（3450001001998）に合併し解散,2016-08-04,1,,,,,エアウォータートカチショクヒン,0
286,1470002017110,登記記録の閉鎖等,0,2021-11-01,2021-10-27,有限会社三野金物店,,有限会社,香川県,三豊市,詫間町詫間５４７２番地１,,37,208,7691101,,,2021-10-27,清算の結了等,,,2015-10-05,1,,,,,ミノカナモノテン,0
311,2010403007572,登記記録の閉鎖等,0,2021-11-01,2021-10-27,合同会社インペリアル,,合同会社,東京都,港区,港南４丁目６番６－２４０６号,,13,103,1080075,,,2021-10-27,清算の結了等,,,2015-10-05,1,,,,,インペリアル,0
332,2011001048843,登記記録の閉鎖等,0,2021-11-01,2021-10-15,株式会社アンティテージ,,株式会社,東京都,渋谷区,恵比寿１丁目８番６号,,13,113,1500013,,,2021-10-15,合併による解散等,8011003005936,令和３年１０月１５日東京都渋谷区千駄ヶ谷三丁目３番３１－２０２号Ｌａｌｌａ　Ｆａｔｉｍａ合同会社（8011003005936）に合併し解散,2015-10-05,1,,,,,アンティテージ,0
367,2012402012677,登記記録の閉鎖等,0,2021-11-01,2021-10-27,有限会社モールス,,有限会社,東京都,調布市,深大寺東町１丁目１５番地９,,13,208,1820012,,,2021-10-27,清算の結了等,,,2015-10-05,1,,,,,モールス,0
370,2012801000241,登記記録の閉鎖等,0,2021-11-01,2021-10-11,株式会社エム・アイ,,株式会社,東京都,立川市,曙町２丁目３４番地の１３オリンピック第３ビル,,13,202,1900012,,,2021-10-11,合併による解散等,7010801019941,令和３年１０月１日東京都港区愛宕二丁目５番１号愛宕グリーンヒルズＭＯＲＩタワー２５階カエルネットワークス株式会社（7010801019941）に合併し解散,2015-10-05,1,,,,,,0
374,2020001021561,登記記録の閉鎖等,0,2021-11-01,2021-10-04,富士通ミドルウェア株式会社,,株式会社,神奈川県,横浜市港北区,新横浜２丁目１５番１６,,14,109,2220033,,,2021-10-04,合併による解散等,1020001071491,令和３年１０月１日川崎市中原区上小田中四丁目１番１号富士通株式会社（1020001071491）に合併し解散,2015-10-05,1,,,,,フジツウミドルウェア,0
392,2021001051763,登記記録の閉鎖等,0,2021-11-01,2021-10-27,相建株式会社,,株式会社,神奈川県,相模原市中央区,田名４３２１－１まるやす第２ビル２階,,14,152,2520244,,,2021-10-27,清算の結了等,,,2015-10-05,1,,,,,,0
399,2021002028975,登記記録の閉鎖等,0,2021-11-01,2021-10-27,有限会社酒のたかぎ,,有限会社,神奈川県,相模原市緑区,根小屋２８８７番地,,14,151,2520153,,,2021-10-27,清算の結了等,,,2015-10-05,1,,,,,サケノタカギ,0
414,2040001010199,登記記録の閉鎖等,0,2021-11-01,2021-10-27,株式会社オーツカ,,株式会社,千葉県,千葉市中央区,浜野町１９２番地１０,,12,101,2600824,,,2021-10-27,清算の結了等,,,2015-10-05,1,,,,,オーツカ,0
417,2040001104991,登記記録の閉鎖等,0,2021-11-01,2021-10-27,ｎｍｓロジスティクス＆テクニカルソリューション株式会社,,株式会社,千葉県,柏市,大青田７２４番地２,,12,217,2770805,,,2021-10-27,合併による解散等,7011101078380,令和３年１０月１日東京都新宿区西新宿三丁目２０番２号日本マニュファクチャリングサービス株式会社（7011101078380）に合併し解散,2018-06-14,1,,,,,エヌエムエスロジスティクスアンドテクニカルソリューション,0
419,2040002010933,登記記録の閉鎖等,0,2021-11-01,2021-10-25,有限会社マロー,,有限会社,千葉県,千葉市中央区,新町１番地６ラポール千葉新町３０３,,12,101,2600028,,,2021-10-25,清算の結了等,,,2015-10-05,1,,,,,マロー,0
420,2040002079028,登記記録の閉鎖等,0,2021-11-01,2021-10-22,有限会社スペース・バディ,,有限会社,千葉県,東金市,小野２２８番地１４,,12,213,2830821,,,2021-10-22,清算の結了等,,,2015-10-05,1,,,,,スペースバディ,0
424,2040005003884,登記記録の閉鎖等,0,2021-11-01,2021-10-25,習志野コーポラス管理組合法人,,その他の設立登記法人,千葉県,習志野市,大久保２丁目４番１号,,12,216,2750011,,,2021-10-25,清算の結了等,,,2015-10-05,1,,,,,ナラシノコーポラス,0
442,2120001022797,登記記録の閉鎖等,0,2021-11-01,2021-11-01,岡本化成株式会社,,株式会社,大阪府,大阪市天王寺区,石ケ辻町１２番３６号,00027792,27,109,5430031,,,2021-11-01,清算の結了等,,,2015-10-05,1,,,,,オカモトカセイ,0
463,2120101050789,登記記録の閉鎖等,0,2021-11-01,2021-10-28,株式会社Ａ・Ｎ・Ｓコーポレーション,,株式会社,大阪府,羽曳野市,樫山１６８－８,,27,222,5830875,,,2021-10-28,清算の結了等,,,2015-10-05,1,,,,,エーエヌエスコーポレーシュン,0
473,2130001025898,登記記録の閉鎖等,0,2021-11-01,2021-10-15,株式会社プライマルセンス,,株式会社,京都府,京都市下京区,烏丸通五条下る大坂町３９６番地第３キョートビル５階,,26,106,6008177,,,2021-10-15,合併による解散等,5010401034839,令和３年１０月１日東京都港区麻布台一丁目９番１９号エナ麻布台２Ｆ株式会社ヴイ・エス・テクノロジー（5010401034839）に合併し解散,2015-10-05,1,,,,,プライマルセンス,0
480,2140001056926,登記記録の閉鎖等,0,2021-11-01,2021-10-27,株式会社テイクワン,,株式会社,兵庫県,美方郡香美町,香住区香住１１７８番地,,28,585,6696544,,,2021-10-27,清算の結了等,,,2015-10-05,1,,,,,テイクワン,0
481,2140001063542,登記記録の閉鎖等,0,2021-11-01,2021-10-22,日産チエリー福崎販売株式会社,,株式会社,兵庫県,神崎郡福崎町,東田原１２３１番地の６,,28,443,6792205,,,2021-10-22,清算の結了等,,,2015-10-05,1,,,,,ニッサンチエリーフクサキハンバイ,0
495,2140002024114,登記記録の閉鎖等,0,2021-11-01,2021-10-26,有限会社プラクト,,有限会社,兵庫県,神戸市北区,杉尾台２丁目１９番８号,,28,109,6511146,,,2021-10-26,清算の結了等,,,2015-10-05,1,,,,,プラクト,0
501,2160002009534,登記記録の閉鎖等,0,2021-11-01,2021-10-27,湖東運送有限会社,,有限会社,滋賀県,東近江市,聖和町１０番１８号,,25,213,5270036,,,2021-10-27,清算の結了等,,,2015-10-05,1,,,,,コトウウンソウ,0
507,2180001077126,登記記録の閉鎖等,0,2021-11-01,2021-10-28,株式会社エフケーテック,,株式会社,愛知県,春日井市,牛山町２９３３番地の７,,23,206,4860901,,,2021-10-28,清算の結了等,,,2015-10-05,1,,,,,エフケーテック,0
531,2240002036339,登記記録の閉鎖等,0,2021-11-01,2021-10-29,有限会社アワード,,有限会社,広島県,廿日市市,下平良３８３番地の２,,34,213,7380023,,,2021-10-29,清算の結了等,,,2015-10-05,1,,,,,アワード,0
558,2360001000713,登記記録の閉鎖等,0,2021-11-01,2021-10-06,株式会社カイケンエンジニアリング,,株式会社,沖縄県,那覇市,楚辺３丁目１番１０号,,47,201,9000023,,,2021-10-06,合併による解散等,2360001000498,令和３年１０月５日沖縄県那覇市楚辺三丁目１番１０号株式会社沖縄物理探査（2360001000498）に合併し解散,2015-10-05,1,,,,,カイケンエンジニアリング,0
571,2430003001611,登記記録の閉鎖等,0,2021-11-01,2021-10-27,Ｒｏｕｔｅ２７４合同会社,,合同会社,北海道,北広島市,共栄５８３番地１２,,01,234,0611112,,,2021-10-27,清算の結了等,,,2015-10-05,1,,,,,ルートニイナナヨン,0
603,3010401126448,登記記録の閉鎖等,0,2021-11-01,2021-10-07,株式会社キット,,株式会社,神奈川県,横浜市中区,本町２丁目２２番地,,14,104,2310005,,,2021-10-07,合併による解散等,1010401154847,令和３年１０月１日東京都港区虎ノ門四丁目１番２８号虎ノ門タワーズオフィス１７階株式会社ＡＰ６９（1010401154847）に合併し解散,2016-08-12,1,,,,,キット,0
608,3010405013221,登記記録の閉鎖等,0,2021-11-01,2021-10-19,一般社団法人日本ファッション産業協議会,,その他の設立登記法人,東京都,港区,北青山１丁目２番３号青山ビル,,13,103,1070061,,,2021-10-19,清算の結了等,,,2015-10-05,1,,,,,ニホンファッションサンギョウキョウギカイ,0
613,3010803000837,登記記録の閉鎖等,0,2021-11-01,2021-10-26,合名会社ワタナベテーラー,,合名会社,東京都,大田区,北糀谷１丁目１１番７号,,13,111,1440032,,,2021-10-26,清算の結了等,,,2015-10-05,1,,,,,ワタナベテーラー,0
641,3011503002099,登記記録の閉鎖等,0,2021-11-01,2021-10-26,合同会社アヤメ介護センター,,合同会社,東京都,荒川区,東日暮里３丁目１５番１７号,,13,118,1160014,,,2021-10-26,清算の結了等,,,2015-10-05,1,,,,,アヤメカイゴセンター,0
644,3011702008161,登記記録の閉鎖等,0,2021-11-01,2021-10-28,有限会社藤和建設,,有限会社,東京都,江戸川区,北小岩８丁目１４番１２号,,13,123,1330051,,,2021-10-28,清算の結了等,,,2015-10-05,1,,,,,トウワケンセツ,0
645,3011801014390,登記記録の閉鎖等,0,2021-11-01,2021-10-28,株式会社フロンティア,,株式会社,東京都,足立区,梅島３丁目６番１２号,,13,121,1210816,,,2021-10-28,清算の結了等,,,2015-10-05,1,,,,,フロンティア,0
651,3012401018088,登記記録の閉鎖等,0,2021-11-01,2021-10-14,アクメックス株式会社,,株式会社,東京都,国立市,東３丁目１番地の９,,13,215,1860002,,,2021-10-14,清算の結了等,,,2015-10-05,1,,,,,アクメックス,0
653,3012402019663,登記記録の閉鎖等,0,2021-11-01,2021-10-26,有限会社宝珠企画,,有限会社,東京都,中央区,銀座１丁目１５番７号ＭＡＣ銀座ビル３階,,13,102,1040061,,,2021-10-26,清算の結了等,,,2015-10-05,1,,,,,ホウジュキカク,0
702,3080005005777,登記記録の閉鎖等,0,2021-11-01,2021-10-07,天理教錦藤枝分教会,,その他の設立登記法人,静岡県,藤枝市,田沼４丁目２番２号,,22,214,4260061,,,2021-10-07,合併による解散等,6080005005394,令和３年１０月７日静岡県焼津市上新田２７５番地の１天理教錦道分教会（6080005005394）に合併し解散,2015-10-05,1,,,,,,0
742,3122005000654,登記記録の閉鎖等,0,2021-11-01,2021-10-11,天理教俊徳分教会,,その他の設立登記法人,大阪府,東大阪市,小若江３９７番地の４,,27,227,5770000,,,2021-10-11,合併による解散等,8240005008627,令和３年１０月４日広島県福山市藤江町２９８番地の２天理教中國分教会（8240005008627）に合併し解散,2015-10-05,1,,,,,テンリキョウシュントクブンキョウカイ,0
769,3190002012781,登記記録の閉鎖等,0,2021-11-01,2021-10-28,有限会社ナカイ宝飾,,有限会社,三重県,伊賀市,阿保１３８５番地の１,,24,216,5180226,,,2021-10-28,清算の結了等,,,2015-10-05,1,,,,,ナカイホウショク,0
774,3220001004017,登記記録の閉鎖等,0,2021-11-01,2021-10-28,高崎商事株式会社,00078246,株式会社,石川県,金沢市,上荒屋７丁目３７番地,,17,201,9218065,,,2021-10-28,清算の結了等,,,2015-10-05,1,,,,,タカサキショウジ,0
786,3290001029800,登記記録の閉鎖等,0,2021-11-01,2021-10-26,株式会社クワンネ,,株式会社,福岡県,福岡市東区,馬出２丁目２２番２４－３０２号,,40,131,8120054,,,2021-10-26,清算の結了等,,,2015-10-05,1,,,,,クワンネ,0
801,3290002046976,登記記録の閉鎖等,0,2021-11-01,2021-10-25,有限会社一の瀬印刷,,有限会社,福岡県,筑後市,大字和泉２２５番地,,40,211,8330041,,,2021-10-25,清算の結了等,,,2015-10-05,1,,,,,,0
804,3290801018374,登記記録の閉鎖等,0,2021-11-01,2021-10-19,吉田海運株式会社,,株式会社,福岡県,北九州市小倉南区,大字吉田２７７８番地の２,,40,107,8000202,,,2021-10-19,清算の結了等,,,2015-10-05,1,,,,,ヨシダカイウン,0
813,3300002001723,登記記録の閉鎖等,0,2021-11-01,2021-10-26,有限会社古賀定鉄筋,,有限会社,佐賀県,佐賀市,久保田町大字徳万８８９番地第１,,41,201,8490201,,,2021-10-26,清算の結了等,,,2015-10-05,1,,,,,コガサダシテッキン,0
849,3430002055194,登記記録の閉鎖等,0,2021-11-01,2021-10-28,有限会社干場青果,,有限会社,北海道,小樽市,有幌町１番１０号,,01,203,0470006,,,2021-10-28,清算の結了等,,,2015-10-05,1,,,,,ホシバセイカ,0
853,3460005000062,登記記録の閉鎖等,0,2021-11-01,2021-10-08,天理教旭一分教会,,その他の設立登記法人,北海道,釧路市,益浦２丁目１８番１０号,,01,206,0850803,,,2021-10-08,合併による解散等,9460305001374,令和３年１０月４日北海道網走市潮見二丁目９番１４号天理教旭網分教会（9460305001374）に合併し解散,2015-10-05,1,,,,,,0
854,3460005000079,登記記録の閉鎖等,0,2021-11-01,2021-10-08,天理教八十桜分教会,,その他の設立登記法人,北海道,釧路市,桜ケ岡３丁目８番２１号,,01,206,0850805,,,2021-10-08,合併による解散等,1460305001373,令和３年１０月４日北海道網走市北三条西六丁目３番地天理教網走大教会（1460305001373）に合併し解散,2015-10-05,1,,,,,テンリキョウヤソザクラブンキョウカイ,0
860,3480002014328,登記記録の閉鎖等,0,2021-11-01,2021-10-29,有限会社西川製作所,,有限会社,徳島県,那賀郡那賀町,延野字槇谷１１４番地,,36,368,7715406,,,2021-10-29,清算の結了等,,,2021-08-30,1,,,,,ニシカワセイサクショ,0
861,3480005003154,登記記録の閉鎖等,0,2021-11-01,2021-10-05,天滿神社,,その他の設立登記法人,徳島県,阿波市,市場町市場字町筋１０３番地,,36,206,7711604,,,2021-10-05,合併による解散等,7480005003150,令和３年１０月５日徳島県阿波市市場町市場字上野段２２４番地若宮神社（7480005003150）に合併し解散,2015-10-05,1,,,,,,0
866,4010001020884,登記記録の閉鎖等,0,2021-11-01,2021-10-27,株式会社セイビ,,株式会社,東京都,千代田区,神田須田町１丁目５番地,,13,101,1010041,,,2021-10-27,清算の結了等,,,2015-10-05,1,,,,,セイビ,0
877,4010401000197,登記記録の閉鎖等,0,2021-11-01,2021-10-19,株式会社青山エンタープライズ,,株式会社,東京都,港区,南青山３丁目８番３７号,,13,103,1070062,,,2021-10-19,清算の結了等,,,2015-10-05,1,,,,,アオヤマエンタープライズ,0
903,4011101026664,登記記録の閉鎖等,0,2021-11-01,2021-10-13,イーバスメディカル株式会社,,株式会社,東京都,文京区,後楽１丁目４番２５号日教販ビル６階,,13,105,1120004,,,2021-10-13,合併による解散等,2010001074420,令和３年１０月１日東京都文京区西片一丁目１５番１５号株式会社アルバース（2010001074420）に合併し解散,2015-10-05,1,,,,,イーバスメディカル,0
906,4011102022134,登記記録の閉鎖等,0,2021-11-01,2021-10-11,有限会社さらしな總本店,00054063,有限会社,東京都,新宿区,西新宿７丁目２２番１８号,,13,104,1600023,,,2021-10-11,合併による解散等,4011202000502,令和３年１０月１日東京都中野区中野二丁目３０番１３号株式会社飯野（4011202000502）に合併し解散,2015-10-05,1,,,,,サラシナソウホンテン,0
932,4020001070136,登記記録の閉鎖等,0,2021-11-01,2021-10-04,株式会社富士通コンピュータテクノロジーズ,,株式会社,神奈川県,川崎市中原区,上小田中４丁目１番１号,,14,133,2110053,,,2021-10-04,合併による解散等,1020001071491,令和３年１０月１日川崎市中原区上小田中四丁目１番１号富士通株式会社（1020001071491）に合併し解散,2015-10-05,1,,,,,フジツウコンピュータテクノロジーズ,0
954,4030001100008,登記記録の閉鎖等,0,2021-11-01,2021-10-26,株式会社Ｔ．Ｋ．Ｂ,,株式会社,埼玉県,さいたま市岩槻区,南平野４丁目６番地８,,11,110,3390051,,,2021-10-26,清算の結了等,,,2015-10-05,1,,,,,ティーケイビー,0
967,4040001090768,登記記録の閉鎖等,0,2021-11-01,2021-10-27,株式会社石橋運輸,,株式会社,千葉県,山武市,埴谷２０３２番地,,12,237,2891223,,,2021-10-27,清算の結了等,,,2015-10-05,1,,,,,イシバシウンユ,0
971,4040002050548,登記記録の閉鎖等,0,2021-11-01,2021-10-27,有限会社ナガイ解体興業,,有限会社,千葉県,柏市,南逆井４丁目１８番４０号,,12,217,2770043,,,2021-10-27,清算の結了等,,,2015-10-05,1,,,,,ナガイカイタイコウギョウ,0
975,4050002014329,登記記録の閉鎖等,0,2021-11-01,2021-10-26,有限会社丸和,,有限会社,茨城県,かすみがうら市,市川６２５番地,,08,230,3150071,,,2021-10-26,清算の結了等,,,2015-10-05,1,,,,,マルワ,0
979,4060002018469,登記記録の閉鎖等,0,2021-11-01,2021-10-26,有限会社町井縫製,,有限会社,栃木県,芳賀郡茂木町,大字黒田５１７番地,,09,343,3213557,,,2021-10-26,清算の結了等,,,2015-10-05,1,,,,,マチイホウセイ,0
1001,4120002010163,登記記録の閉鎖等,0,2021-11-01,2021-10-28,有限会社平岡商事,,有限会社,大阪府,大阪市生野区,田島３丁目３番７号,,27,116,5440011,,,2021-10-28,清算の結了等,,,2015-10-05,1,,,,,ヒラオカショウジ,0
1002,4120002064143,登記記録の閉鎖等,0,2021-11-01,2021-10-27,有限会社グラフェニックス,,有限会社,大阪府,大阪市城東区,今福西５丁目５番２３号,,27,118,5360004,,,2021-10-27,清算の結了等,,,2015-10-05,1,,,,,グラフェニックス,0
1014,4140001099163,登記記録の閉鎖等,0,2021-11-01,2021-10-12,株式会社ＬＩＧＨＴ　ＨＯＵＳＥ,,株式会社,兵庫県,神戸市北区,上津台６丁目２０番２０号,,28,109,6511515,,,2021-10-12,清算の結了等,,,2015-10-05,1,,,,,ライトハウス,0
1015,4140001101317,登記記録の閉鎖等,0,2021-11-01,2021-10-27,ＳＡＩフーズ株式会社,,株式会社,兵庫県,三田市,中町２番１２号,,28,219,6691527,,,2021-10-27,清算の結了等,,,2016-03-11,1,,,,,サイフーズ,0
1029,4180001134602,登記記録の閉鎖等,0,2021-11-01,2021-10-28,華や株式会社,,株式会社,愛知県,名古屋市中村区,佐古前町１０番３０号,,23,105,4530018,,,2021-10-28,清算の結了等,,,2018-12-03,1,,,,,ハナヤ,0
1037,4180301024940,登記記録の閉鎖等,0,2021-11-01,2021-10-29,株式会社にこまる,,株式会社,愛知県,豊川市,金沢町天王１５番地１,,23,207,4411212,,,2021-10-29,清算の結了等,,,2015-10-05,1,,,,,ニコマル,0
1066,4260002028877,登記記録の閉鎖等,0,2021-11-01,2021-10-27,津山生コン有限会社,,有限会社,岡山県,津山市,横山１１６９番地の１,,33,203,7080862,,,2021-10-27,清算の結了等,,,2015-10-05,1,,,,,ツヤマナマコン,0
1111,4390002001623,登記記録の閉鎖等,0,2021-11-01,2021-10-27,有限会社武田カバン店,,有限会社,山形県,山形市,七日町５丁目１番３０号,,06,201,9900042,,,2021-10-27,清算の結了等,,,2015-10-05,1,,,,,タケダカバンテン,0
1118,4400005002583,登記記録の閉鎖等,0,2021-11-01,2021-10-28,安代林産協同組合,,その他の設立登記法人,岩手県,八幡平市,蛇石１０番地１,,03,214,0287618,,,2021-10-28,清算の結了等,,,2015-10-05,1,,,,,,0
1125,4450001003283,登記記録の閉鎖等,0,2021-11-01,2021-10-28,株式会社山カ梅津商店,,株式会社,北海道,上川郡愛別町,字本町１１２番地,,01,456,0781405,,,2021-10-28,清算の結了等,,,2015-10-05,1,,,,,ヤマカウメツショウテン,0
1131,4480002003635,登記記録の閉鎖等,0,2021-11-01,2021-10-29,有限会社西川環境コンサルタント,,有限会社,徳島県,徳島市,八万町内浜７３番地の２カーサ内浜２０３号,,36,201,7708076,,,2021-10-29,清算の結了等,,,2015-10-05,1,,,,,ニシカワカンキョウコンサルタント,0
1137,5010001086082,登記記録の閉鎖等,0,2021-11-01,2021-10-27,サイマル株式会社,,株式会社,東京都,中央区,日本橋本石町３丁目３番１０号斉丸日本橋ビル,,13,102,1030021,,,2021-10-27,清算の結了等,,,2015-10-05,1,,,,,サイマル,0
1162,5010901027326,登記記録の閉鎖等,0,2021-11-01,2021-10-28,株式会社一栄企画,,株式会社,東京都,世田谷区,鎌田１丁目５番５号,,13,112,1570077,,,2021-10-28,清算の結了等,,,2015-10-05,1,,,,,イチエイキカク,0
1218,5030001109675,登記記録の閉鎖等,0,2021-11-01,2021-10-08,株式会社Ｓ＆Ｔ　ＯＵＴＣＯＭＥＳ,,株式会社,東京都,豊島区,千早１丁目１１番１２号ソラ・ヴィーダ３Ｆ,,13,116,1710044,,,2021-10-08,合併による解散等,2020001004698,令和３年１０月１日横浜市西区北幸一丁目１１番５号株式会社アサヒ安全業務社（2020001004698）に合併し解散,2015-10-05,1,,,,,エスアンドティアウトカムズ,0
1225,5030002005527,登記記録の閉鎖等,0,2021-11-01,2021-10-26,有限会社さきたまケアサポート,,有限会社,埼玉県,さいたま市浦和区,北浦和２丁目４番３号,,11,107,3300074,,,2021-10-26,清算の結了等,,,2015-10-05,1,,,,,サキタマケアサポート,0
1227,5030002036332,登記記録の閉鎖等,0,2021-11-01,2021-10-26,有限会社ケーアンドエム,,有限会社,埼玉県,狭山市,入間川４丁目２３番１６号,,11,215,3501305,,,2021-10-26,清算の結了等,,,2015-10-05,1,,,,,ケーアンドエム,0
1228,5030002090065,登記記録の閉鎖等,0,2021-11-01,2021-10-25,有限会社北むら,,有限会社,埼玉県,吉川市,中野４６番地２,,11,243,3420042,,,2021-10-25,清算の結了等,,,2015-10-05,1,,,,,キタムラ,0
1231,5030003013280,登記記録の閉鎖等,0,2021-11-01,2021-10-26,合同会社えがおの実,,合同会社,埼玉県,深谷市,緑ケ丘３番１３号,,11,218,3660054,,,2021-10-26,清算の結了等,,,2019-03-20,1,,,,,エガオノミ,0
1240,5040001091906,登記記録の閉鎖等,0,2021-11-01,2021-10-25,株式会社イーエフテック,,株式会社,千葉県,野田市,野田５９３番地,,12,208,2780037,,,2021-10-25,清算の結了等,,,2015-10-05,1,,,,,イーエフテック,0
1263,5100002000693,登記記録の閉鎖等,0,2021-11-01,2021-11-01,有限会社エイド,,有限会社,長野県,長野市,若穂綿内５２６５番地,,20,201,3810101,,,2021-11-01,清算の結了等,,,2015-10-05,1,,,,,エイド,0
1293,5122002003088,登記記録の閉鎖等,0,2021-11-01,2021-10-27,有限会社中庸,,有限会社,大阪府,東大阪市,上石切町１丁目４番１１号,,27,227,5798012,,,2021-10-27,清算の結了等,,,2015-10-05,1,,,,,チュウヨウ,0
1297,5130005012007,登記記録の閉鎖等,0,2021-11-01,2021-10-07,一般財団法人日本こども財団,,その他の設立登記法人,長崎県,諫早市,宇都町２０番２７号,,42,204,8540061,,,2021-10-07,合併による解散等,6130005015660,令和３年１０月１日京都市左京区岡崎北御所町２５番地一般社団法人国際社会疫学研究所（6130005015660）に合併し解散,2015-10-05,1,,,,,ニホンコドモザイダン,0
1301,5140001074917,登記記録の閉鎖等,0,2021-11-01,2021-10-27,関西商事株式会社,,株式会社,兵庫県,加東市,下滝野１３番地,,28,228,6790212,,,2021-10-27,清算の結了等,,,2015-10-05,1,,,,,カンサイショウジ,0
1308,5140003013947,登記記録の閉鎖等,0,2021-11-01,2021-10-27,遊々団合同会社,,合同会社,兵庫県,神戸市中央区,中町通３丁目１番１６号サンビル５０２,,28,110,6500027,,,2021-10-27,清算の結了等,,,2019-05-23,1,,,,,ユウユウダン,0
1374,5290002053087,登記記録の閉鎖等,0,2021-11-01,2021-10-25,大川ミノル化学有限会社,,有限会社,福岡県,大川市,大字榎津３５９番地の１,,40,212,8310004,,,2021-10-25,清算の結了等,,,2015-10-05,1,,,,,,0
1388,5330001011561,登記記録の閉鎖等,0,2021-11-01,2021-10-27,株式会社西嶋海苔,,株式会社,熊本県,玉名市,岱明町古閑２３９番地の１,,43,206,8690233,,,2021-10-27,清算の結了等,,,2015-10-05,1,,,,,,0
1389,5330001011669,登記記録の閉鎖等,0,2021-11-01,2021-10-27,株式会社フジ精機,,株式会社,熊本県,荒尾市,高浜１８２５番地１９,,43,204,8640025,,,2021-10-27,清算の結了等,,,2015-10-05,1,,,,,,0
1405,5380002011762,登記記録の閉鎖等,0,2021-11-01,2021-10-28,有限会社平野屋水産,,有限会社,福島県,郡山市,大槻町字向原１１４番地,,07,203,9630201,,,2021-10-28,清算の結了等,,,2015-10-05,1,,,,,ヒラノヤスイサン,0
1406,5390001009088,登記記録の閉鎖等,0,2021-11-01,2021-10-27,株式会社軽部組,,株式会社,山形県,村山市,大字湯野沢２９２６番地の２,,06,208,9950112,,,2021-10-27,清算の結了等,,,2015-10-05,1,,,,,カルベグミ,0
1411,5420002013110,登記記録の閉鎖等,0,2021-11-01,2021-10-27,有限会社北日本印刷,,有限会社,青森県,弘前市,大字小友字神原２９０番地５,,02,202,0383613,,,2021-10-27,清算の結了等,,,2015-10-05,1,,,,,,0
1416,5430001076520,登記記録の閉鎖等,0,2021-11-01,2021-10-27,グレイス株式会社,,株式会社,北海道,札幌市南区,澄川五条１０丁目７番１６号,,01,106,0050005,,,2021-10-27,清算の結了等,,,2018-05-07,1,,,,,グレイス,0
1432,6010001162527,登記記録の閉鎖等,0,2021-11-01,2021-10-26,株式会社トイズクリエイション,,株式会社,東京都,新宿区,四谷３丁目１２丸正総本店ビル５Ｆ,,13,104,1600004,,,2021-10-26,清算の結了等,,,2015-10-05,1,,,,,トイズクリエイション,0
1455,6010603005769,登記記録の閉鎖等,0,2021-11-01,2021-10-19,合同会社ＭＰ１８,,合同会社,東京都,江東区,森下３丁目１６番７号,,13,108,1350004,,,2021-10-19,清算の結了等,,,2015-10-05,1,,,,,エムピージュウハチ,0
1494,6012401000844,登記記録の閉鎖等,0,2021-11-01,2021-10-26,株式会社成和技研,,株式会社,東京都,府中市,南町１丁目４３番地の４４,,13,206,1830026,,,2021-10-26,清算の結了等,,,2015-10-05,1,,,,,セイワギケン,0
1537,6050001044358,登記記録の閉鎖等,0,2021-11-01,2021-10-13,株式会社Ｍｉｎｄｏｎｅ,,株式会社,東京都,目黒区,下目黒１丁目８番３１号目黒パークハイツ２０１号,,13,110,1530064,,,2021-10-13,清算の結了等,,,2018-04-26,1,,,,,,0
1610,6140002069007,登記記録の閉鎖等,0,2021-11-01,2021-10-27,有限会社平山製核所,,有限会社,兵庫県,洲本市,由良４丁目１６番２号,,28,205,6562541,,,2021-10-27,清算の結了等,,,2015-10-05,1,,,,,ヒラヤマセイカクショ,0
1618,6170005004528,登記記録の閉鎖等,0,2021-11-01,2021-10-08,天理教初湯分教会,,その他の設立登記法人,和歌山県,日高郡日高川町,大字初湯川２１３番地,,30,392,6441231,,,2021-10-08,合併による解散等,5170005004520,令和３年１０月８日和歌山県日高郡日高川町大字高津尾６５０番地天理教日高川分教会（5170005004520）に合併し解散,2015-10-05,1,,,,,,0
1625,6180002003688,登記記録の閉鎖等,0,2021-11-01,2021-10-27,有限会社宇作豆ふ,,有限会社,愛知県,名古屋市千種区,霞ケ丘２丁目８番７０号,,23,101,4640041,,,2021-10-27,清算の結了等,,,2015-10-05,1,,,,,ウサクトウフ,0
1640,6220002006265,登記記録の閉鎖等,0,2021-11-01,2021-10-28,有限会社米林硝子,,有限会社,石川県,金沢市,諸江町下丁３０３番地２,,17,201,9200017,,,2021-10-28,清算の結了等,,,2015-10-05,1,,,,,ヨネバヤシガラス,0
1675,6370001038930,登記記録の閉鎖等,0,2021-11-01,2021-10-20,株式会社エコシステム,,株式会社,宮城県,仙台市泉区,住吉台西４丁目１０番地の１４,,04,105,9813223,,,2021-10-20,清算の結了等,,,2015-12-09,1,,,,,エコシステム,0
1687,6390005002906,登記記録の閉鎖等,0,2021-11-01,2021-10-26,医療法人齋藤クリニック,,その他の設立登記法人,山形県,酒田市,あきほ町６５４番地の８,,06,204,9980828,,,2021-10-26,清算の結了等,,,2015-10-05,1,,,,,サイトウクリニック,0
1697,6430001046984,登記記録の閉鎖等,0,2021-11-01,2021-10-26,高橋木材工業株式会社,00088578,株式会社,北海道,樺戸郡月形町,字知来乙２６１番地の１,,01,430,0610516,,,2021-10-26,清算の結了等,,,2015-10-05,1,,,,,タカハシモクザイコウギョウ,0
1703,6462505000126,登記記録の閉鎖等,0,2021-11-01,2021-10-08,天理教羅臼分教会,,その他の設立登記法人,北海道,目梨郡羅臼町,礼文町２６番地２,,01,694,0861834,,,2021-10-08,合併による解散等,1460305001373,令和３年１０月４日北海道網走市北三条西六丁目３番地天理教網走大教会（1460305001373）に合併し解散,2015-10-05,1,,,,,,0
1710,7010001159729,登記記録の閉鎖等,0,2021-11-01,2021-10-19,ジーアイシーティアンドアール株式会社,,株式会社,東京都,墨田区,石原１丁目４１番１４号,,13,107,1300011,,,2021-10-19,合併による解散等,6010001139161,令和３年１０月１日東京都墨田区緑一丁目２１番１０号グローバルイノベーションコンサルティング株式会社（6010001139161）に合併し解散,2015-10-05,1,,,,,ジーアイシーティアンドアール,0
1713,7010001162716,登記記録の閉鎖等,0,2021-11-01,2021-10-19,株式会社銀座立田野,,株式会社,東京都,江東区,東陽６丁目３番２号イースト２１タワー,,13,108,1350016,,,2021-10-19,清算の結了等,,,2015-10-05,1,,,,,ギンザタツタノ,0
1726,7010401068439,登記記録の閉鎖等,0,2021-11-01,2021-10-18,株式会社エクスクラフト,,株式会社,東京都,港区,三田３丁目９番７号,,13,103,1080073,,,2021-10-18,合併による解散等,7010401065122,令和３年１０月１６日東京都港区三田三丁目９番７号株式会社エクスチェンジ（7010401065122）に合併し解散,2015-10-05,1,,,,,エクスクラフト,0
1734,7010405017152,登記記録の閉鎖等,0,2021-11-01,2021-10-19,一般社団法人エネルギー６,,その他の設立登記法人,東京都,港区,虎ノ門３丁目２２番１０－２０１号,,13,103,1050001,,,2021-10-19,清算の結了等,,,2018-10-15,1,,,,,エネルギーロク,0
1744,7011001000568,登記記録の閉鎖等,0,2021-11-01,2021-10-20,株式会社アイムス,,株式会社,東京都,町田市,相原町１８０６番地５５,,13,209,1940211,,,2021-10-20,清算の結了等,,,2015-10-05,1,,,,,アイムス,0
1785,7030001000989,登記記録の閉鎖等,0,2021-11-01,2021-10-27,株式会社牛島建築設計事務所,,株式会社,埼玉県,さいたま市北区,吉野町２丁目２１６番地の８,,11,102,3310811,,,2021-10-27,清算の結了等,,,2015-10-05,1,,,,,ウシジマケンチクセッケイジムショ,0
1812,7040003005234,登記記録の閉鎖等,0,2021-11-01,2021-10-27,合同会社商栄,,合同会社,千葉県,流山市,大字南８２番地,,12,220,2700124,,,2021-10-27,清算の結了等,,,2015-10-05,1,,,,,ショウエイ,0
1826,7120001004122,登記記録の閉鎖等,0,2021-11-01,2021-10-28,阪南工業株式会社,,株式会社,大阪府,大阪市西成区,玉出西２丁目２０番５６号,,27,122,5570045,,,2021-10-28,清算の結了等,,,2015-10-05,1,,,,,ハンナンコウギョウ,0
1841,7120002067011,登記記録の閉鎖等,0,2021-11-01,2021-10-29,有限会社信和工業,,有限会社,大阪府,大阪市東淀川区,菅原２丁目１３番２２号,,27,114,5330022,,,2021-10-29,清算の結了等,,,2015-10-05,1,,,,,シンワコウギョウ,0
1852,7140001010226,登記記録の閉鎖等,0,2021-11-01,2021-10-26,林繊維株式会社,,株式会社,兵庫県,神戸市中央区,下山手通４丁目６番３号,,28,110,6500011,,,2021-10-26,清算の結了等,,,2015-10-05,1,,,,,ハヤシセンイ,0
1856,7140001117500,登記記録の閉鎖等,0,2021-11-01,2021-10-27,株式会社Ｕｎｆｏｌｄ．ｉｎｇ,,株式会社,兵庫県,神戸市中央区,若菜通４丁目２番４号,,28,110,6510091,,,2021-10-27,清算の結了等,,,2020-05-28,1,,,,,アンフォールディング,0
1860,7160001007170,登記記録の閉鎖等,0,2021-11-01,2021-10-28,株式会社菱栄,,株式会社,滋賀県,米原市,大鹿５８番地,,25,214,5210214,,,2021-10-28,清算の結了等,,,2015-10-05,1,,,,,リョウエイ,0
1864,7170001002658,登記記録の閉鎖等,0,2021-11-01,2021-10-29,八紘産業株式会社,,株式会社,和歌山県,和歌山市,有家７２番地の１０,,30,201,6408316,,,2021-10-29,清算の結了等,,,2015-10-05,1,,,,,ハッコウサンギョウ,0
1866,7180001039419,登記記録の閉鎖等,0,2021-11-01,2021-10-26,日本フレツクス株式会社,,株式会社,愛知県,名古屋市中区,錦１丁目１５番１３号,,23,106,4600003,,,2021-10-26,清算の結了等,,,2015-10-05,1,,,,,ニホンフレツクス,0
1881,7180301005426,登記記録の閉鎖等,0,2021-11-01,2021-10-29,カワイハウジング開発株式会社,,株式会社,愛知県,豊橋市,羽根井町１７番地５,,23,201,4418025,,,2021-10-29,清算の結了等,,,2015-10-05,1,,,,,カワイハウジングカイハツ,0
1893,7210002004590,登記記録の閉鎖等,0,2021-11-01,2021-10-28,有限会社ウェルハウス,,有限会社,福井県,福井市,文京１丁目１２番１７号,,18,201,9100017,,,2021-10-28,清算の結了等,,,2015-10-05,1,,,,,ウェルハウス,0
1931,7350005005077,登記記録の閉鎖等,0,2021-11-01,2021-10-28,特定非営利活動法人ドリームサポート,,その他の設立登記法人,宮崎県,宮崎市,小松台東２丁目１０番地１２,,45,201,8800953,,,2021-10-28,清算の結了等,,,2015-10-05,1,,,,,ドリームサポート,0
1940,7420001005718,登記記録の閉鎖等,0,2021-11-01,2021-10-29,株式会社カワイ産業,,株式会社,青森県,八戸市,沼館１丁目２番２１号ウエスタンビル２Ｆ,,02,203,0310071,,,2021-10-29,清算の結了等,,,2015-10-05,1,,,,,カワイサンギョウ,0
1944,7430002008710,登記記録の閉鎖等,0,2021-11-01,2021-10-18,有限会社佐竹タイル,,有限会社,北海道,札幌市東区,東苗穂十四条２丁目６番１７号,,01,103,0070814,,,2021-10-18,清算の結了等,,,2015-10-05,1,,,,,サタケタイル,0
1960,8010003017132,登記記録の閉鎖等,0,2021-11-01,2021-10-27,Ｔｅｎｊｉｎ－１　Ｒｅｔａｉｌ　Ｊａｐａｎ合同会社,,合同会社,東京都,千代田区,霞が関３丁目２番５号霞が関ビル,,13,101,1000013,,,2021-10-27,清算の結了等,,,2015-10-05,1,,,,,テンジンワンリテールジャパン,0
1970,8010405012763,登記記録の閉鎖等,0,2021-11-01,2021-10-19,一般社団法人企業価値リサーチ・インスティテュート,,その他の設立登記法人,東京都,港区,西新橋３丁目２３番１２号,,13,103,1050003,,,2021-10-19,清算の結了等,,,2015-10-05,1,,,,,キギョウカチリサーチインスティテュート,0
1971,8010405018117,登記記録の閉鎖等,0,2021-11-01,2021-10-19,一般社団法人エネルギー４,,その他の設立登記法人,東京都,港区,虎ノ門３丁目２２番１０－２０１号,,13,103,1050001,,,2021-10-19,清算の結了等,,,2019-10-03,1,,,,,エネルギーヨン,0
1973,8010501044999,登記記録の閉鎖等,0,2021-11-01,2021-10-29,株式会社Ｆｒｅｉｈｅｉｔ,,株式会社,東京都,台東区,小島２丁目２０番１１号,,13,106,1110056,,,2021-10-29,清算の結了等,,,2019-12-06,1,,,,,フライハイト,0
1974,8010601022401,登記記録の閉鎖等,0,2021-11-01,2021-10-20,株式会社ジャンク,,株式会社,東京都,墨田区,両国２丁目１１番４号,,13,107,1300026,,,2021-10-20,清算の結了等,,,2015-10-05,1,,,,,,0
1981,8010603007474,登記記録の閉鎖等,0,2021-11-01,2021-10-19,合同会社Ｋ２パートナーズ,,合同会社,東京都,江東区,豊洲３丁目６番８－３８０２号,,13,108,1350061,,,2021-10-19,清算の結了等,,,2018-10-04,1,,,,,ケイツーパートナーズ,0
1984,8010701003895,登記記録の閉鎖等,0,2021-11-01,2021-10-12,株式会社サガミヤ,,株式会社,東京都,品川区,大井３丁目１７番２号,,13,109,1400014,,,2021-10-12,清算の結了等,,,2015-10-05,1,,,,,サガミヤ,0
1986,8010701025691,登記記録の閉鎖等,0,2021-11-01,2021-10-18,Ｕｎｉｓｔｙｌｅ株式会社,,株式会社,東京都,新宿区,西新宿１丁目２２番２号,,13,104,1600023,,,2021-10-18,合併による解散等,4011101062271,令和３年１０月１日東京都新宿区西新宿一丁目２２番２号株式会社ネオキャリア（4011101062271）に合併し解散,2015-10-05,1,,,,,ユニスタイル,0
1990,8011001045166,登記記録の閉鎖等,0,2021-11-01,2021-10-28,油井アソシェイツ株式会社,,株式会社,東京都,世田谷区,中町３丁目２２番５号,,13,112,1580091,,,2021-10-28,清算の結了等,,,2015-10-05,1,,,,,ユイアソシェイツ,0
2002,8011101066095,登記記録の閉鎖等,0,2021-11-01,2021-10-18,株式会社ネオラボ,,株式会社,東京都,新宿区,西新宿１丁目２２番２号,,13,104,1600023,,,2021-10-18,合併による解散等,4011101062271,令和３年１０月１日東京都新宿区西新宿一丁目２２番２号株式会社ネオキャリア（4011101062271）に合併し解散,2015-10-05,1,,,,,ネオラボ,0
2003,8011101076152,登記記録の閉鎖等,0,2021-11-01,2021-10-21,一光株式会社,,株式会社,東京都,新宿区,新宿６丁目２９番８号新宿福智ビル５階,,13,104,1600022,,,2021-10-21,清算の結了等,,,2016-02-26,1,,,,,イッコウ,0
2015,8012302003184,登記記録の閉鎖等,0,2021-11-01,2021-10-15,有限会社デイシィティ,,有限会社,東京都,町田市,成瀬５０９２番地３エステ・スクエア成瀬壱番館１０１,,13,209,1940044,,,2021-10-15,清算の結了等,,,2015-10-05,1,,,,,デイシィティ,0
2025,8020001019740,登記記録の閉鎖等,0,2021-11-01,2021-10-25,株式会社オレンジノート,,株式会社,静岡県,田方郡函南町,平井１７５３番地の１６３０－３１０,,22,325,4190107,,,2021-10-25,清算の結了等,,,2015-10-05,1,,,,,オレンジノート,0
2029,8020001081088,登記記録の閉鎖等,0,2021-11-01,2021-10-27,株式会社ジェイピー・セキュア,,株式会社,神奈川県,川崎市幸区,堀川町５８０番地ソリッドスクエア東館６階,,14,132,2120013,,,2021-10-27,合併による解散等,7010001139350,令和３年１０月１日東京都港区虎ノ門一丁目２番８号ＥＧセキュアソリューションズ株式会社（7010001139350）に合併し解散,2015-10-05,1,,,,,ジェイピーセキュア,0
2030,8020001106290,登記記録の閉鎖等,0,2021-11-01,2021-10-28,株式会社ＦｉＮＣ　Ｆｉｔ,,株式会社,東京都,千代田区,平河町１丁目６番１５号ＵＳビル８Ｆ,,13,101,1020093,,,2021-10-28,清算の結了等,,,2015-10-05,1,,,,,フィンクフィット,0
2046,8021003010472,登記記録の閉鎖等,0,2021-11-01,2021-10-04,合同会社ＭＡＲＶＥＬＯＵＳ,,合同会社,神奈川県,藤沢市,長後７５５－１－１０４,,14,205,2520801,,,2021-10-04,清算の結了等,,,2021-05-17,1,,,,,マーヴェラス,0
2062,8040001007685,登記記録の閉鎖等,0,2021-11-01,2021-10-27,株式会社友輝,,株式会社,千葉県,千葉市若葉区,小倉台６丁目２６番６号,,12,104,2640006,,,2021-10-27,清算の結了等,,,2015-10-05,1,,,,,,0
2070,8040002048753,登記記録の閉鎖等,0,2021-11-01,2021-10-22,有限会社松嶋,,有限会社,千葉県,松戸市,松戸１６８９番地,,12,207,2710092,,,2021-10-22,清算の結了等,,,2015-10-05,1,,,,,マツシマ,0
2074,8040003013987,登記記録の閉鎖等,0,2021-11-01,2021-10-25,アカマルジャパン人材開発合同会社,,合同会社,千葉県,松戸市,三ケ月１２８６番地の１,,12,207,2700026,,,2021-10-25,清算の結了等,,,2019-09-05,1,,,,,アカマルジャパンジンザイカイハツ,0
2082,8070001008152,登記記録の閉鎖等,0,2021-11-01,2021-10-07,株式会社ビッグアップル,,株式会社,群馬県,高崎市,若田町１１番地４,,10,202,3700885,,,2021-10-07,合併による解散等,1010401060112,令和３年１０月１日東京都港区港南２－１６－４品川グランドセントラルタワ－１７階株式会社ビッグファイブ（1010401060112）に合併し解散,2015-10-05,1,,,,,ビッグアップル,0
2083,8070002036937,登記記録の閉鎖等,0,2021-11-01,2021-10-27,有限会社山崎自動車,00025949,有限会社,群馬県,吾妻郡東吾妻町,大字郷原３４８番地の１,,10,429,3770811,,,2021-10-27,清算の結了等,,,2015-10-05,1,,,,,ヤマザキジドウシャ,0
2088,8090001009768,登記記録の閉鎖等,0,2021-11-01,2021-10-27,株式会社彩鳳堂企画,,株式会社,山梨県,南都留郡山中湖村,山中１１８２番地の１,,19,425,4010501,,,2021-10-27,清算の結了等,,,2015-10-05,1,,,,,サイホウドウキカク,0
2091,8100002016885,登記記録の閉鎖等,0,2021-11-01,2021-10-28,有限会社宮下精工,,有限会社,長野県,埴科郡坂城町,大字南条４９９番地１,,20,521,3890603,,,2021-10-28,清算の結了等,,,2015-10-05,1,,,,,ミヤシタセイコウ,0
2111,8120003016767,登記記録の閉鎖等,0,2021-11-01,2021-10-26,合同会社２８０ｂｌｏｃｋｅｒ,,合同会社,愛知県,名古屋市中区,錦２丁目５番１２号,,23,106,4600003,,,2021-10-26,合併による解散等,9180001066502,令和３年１０月２６日名古屋市中区錦二丁目５番１２号トビラシステムズ株式会社（9180001066502）に合併し解散,2019-12-27,1,,,,,ニーハチマルブロッカー,0
2125,8140001034050,登記記録の閉鎖等,0,2021-11-01,2021-10-29,株式会社ネクサス,,株式会社,兵庫県,明石市,朝霧南町１丁目１８０番地の１,,28,203,6730870,,,2021-10-29,清算の結了等,,,2015-10-05,1,,,,,ネクサス,0
2134,8140002031039,登記記録の閉鎖等,0,2021-11-01,2021-10-28,有限会社永尾金属工業所,,有限会社,兵庫県,三木市,平田６０番地の２,,28,215,6730405,,,2021-10-28,清算の結了等,,,2015-10-05,1,,,,,ナガオキンゾクコウギョウショ,0
2135,8140002047357,登記記録の閉鎖等,0,2021-11-01,2021-10-28,有限会社アレキサンドル美容室,,有限会社,兵庫県,姫路市,綿町１２５番地,,28,201,6700921,,,2021-10-28,清算の結了等,,,2015-10-05,1,,,,,アレキサンドルビヨウシツ,0
2143,8170005004518,登記記録の閉鎖等,0,2021-11-01,2021-10-08,天理教紀日分教会,,その他の設立登記法人,和歌山県,日高郡日高川町,大字姉子１８７番地の１,,30,392,6441132,,,2021-10-08,合併による解散等,5170005004520,令和３年１０月８日和歌山県日高郡日高川町大字高津尾６５０番地天理教日高川分教会（5170005004520）に合併し解散,2015-10-05,1,,,,,テンリキョウキジツブンキョウカイ,0
2150,8180001078275,登記記録の閉鎖等,0,2021-11-01,2021-10-28,株式会社ティーオーシステム,,株式会社,愛知県,春日井市,田楽町１７６５番地６,,23,206,4860808,,,2021-10-28,清算の結了等,,,2015-10-05,1,,,,,ティーオーシステム,0
2182,8250002008744,登記記録の閉鎖等,0,2021-11-01,2021-10-28,有限会社ミヤエー商事,,有限会社,山口県,下関市,山の田本町３番３２号,,35,201,7510838,,,2021-10-28,清算の結了等,,,2015-10-05,1,,,,,ミヤエーショウジ,0
2205,8320002011245,登記記録の閉鎖等,0,2021-11-01,2021-10-29,有限会社共同印刷,,有限会社,大分県,別府市,末広町４番３２号,,44,202,8740938,,,2021-10-29,清算の結了等,,,2015-10-05,1,,,,,キョウドウインサツ,0
2215,8370001017362,登記記録の閉鎖等,0,2021-11-01,2021-10-26,株式会社ワールドビジネス,,株式会社,宮城県,仙台市宮城野区,小田原２丁目６番１０号,,04,102,9830803,,,2021-10-26,清算の結了等,,,2015-10-05,1,,,,,ワールドビジネス,0
2220,8380002021890,登記記録の閉鎖等,0,2021-11-01,2021-10-27,有限会社会田車体整備工業,,有限会社,福島県,いわき市,平下荒川字川前１７番地の１０,,07,204,9708032,,,2021-10-27,清算の結了等,,,2015-10-05,1,,,,,アイタシャタイセイビコウギョウ,0
2224,8430002019657,登記記録の閉鎖等,0,2021-11-01,2021-10-26,有限会社みやはら商会,,有限会社,北海道,札幌市白石区,栄通５丁目４番１０－１０７,,01,104,0030021,,,2021-10-26,清算の結了等,,,2015-10-05,1,,,,,ミヤハラショウカイ,0
2231,8460005000082,登記記録の閉鎖等,0,2021-11-01,2021-10-08,天理教桜森分教会,,その他の設立登記法人,北海道,釧路郡釧路町,わらび１丁目１８番地,,01,661,0882157,,,2021-10-08,合併による解散等,1460305001373,令和３年１０月４日北海道網走市北三条西六丁目３番地天理教網走大教会（1460305001373）に合併し解散,2015-10-05,1,,,,,,0
2242,9010001156105,登記記録の閉鎖等,0,2021-11-01,2021-10-25,株式会社東京パーツセンター,,株式会社,東京都,中央区,日本橋人形町２丁目３２番１１号早佑ビル３Ｆ,,13,102,1030013,,,2021-10-25,清算の結了等,,,2015-10-05,1,,,,,トウキョウパーツセンター,0
2271,9010405018116,登記記録の閉鎖等,0,2021-11-01,2021-10-19,一般社団法人エネルギー雫石,,その他の設立登記法人,東京都,港区,虎ノ門３丁目２２番１０－２０１号,,13,103,1050001,,,2021-10-19,清算の結了等,,,2019-10-03,1,,,,,エネルギーシズクイシ,0
2272,9010405019031,登記記録の閉鎖等,0,2021-11-01,2021-10-04,一般社団法人パーソナルヘルスカウンセラー認定協会,,その他の設立登記法人,東京都,港区,浜松町２丁目２番１５号浜松町ダイヤビル２Ｆ,,13,103,1050013,,,2021-10-04,清算の結了等,,,2020-08-31,1,,,,,パーソナルヘルスカウンセラーニンテイキョウカイ,0
2312,9020001011234,登記記録の閉鎖等,0,2021-11-01,2021-10-27,株式会社グリーンコーポレーション,,株式会社,神奈川県,横浜市青葉区,市ケ尾町２１４９番１３,,14,117,2250024,,,2021-10-27,清算の結了等,,,2015-10-05,1,,,,,グリーンコーポレーション,0
2315,9020001107511,登記記録の閉鎖等,0,2021-11-01,2021-10-27,株式会社五鈷杵会,,株式会社,神奈川県,川崎市中原区,市ノ坪４５番地,,14,133,2110016,,,2021-10-27,清算の結了等,,,2015-10-05,1,,,,,ゴコショカイ,0
2323,9020002008915,登記記録の閉鎖等,0,2021-11-01,2021-10-28,有限会社マツシタ,,有限会社,神奈川県,横浜市金沢区,町屋町３１番２０号醍醐マンション２０２,,14,108,2360022,,,2021-10-28,清算の結了等,,,2015-10-05,1,,,,,マツシタ,0
2349,9030003008161,登記記録の閉鎖等,0,2021-11-01,2021-10-06,ガイアヘッジ合同会社,,合同会社,愛媛県,西条市,三芳１９２０番地,,38,206,7991301,,,2021-10-06,合併による解散等,7030003009780,令和３年１０月１日静岡県富士市中野８４番地の１クリアロータス合同会社（7030003009780）に合併し解散,2015-12-07,1,,,,,ガイアヘッジ,0
2380,9090002002465,登記記録の閉鎖等,0,2021-11-01,2021-10-27,有限会社ハヤカワ装身具製作所,,有限会社,山梨県,甲府市,住吉３丁目２５番１９号,,19,201,4000851,,,2021-10-27,清算の結了等,,,2015-10-05,1,,,,,,0
2381,9100001027965,登記記録の閉鎖等,0,2021-11-01,2021-10-28,株式会社心源,,株式会社,長野県,諏訪市,大字豊田２８３番地１,,20,206,3920016,,,2021-10-28,清算の結了等,,,2015-10-05,1,,,,,シンゲン,0
2413,9120905000264,登記記録の閉鎖等,0,2021-11-01,2021-10-01,医療法人篤靜会,,その他の設立登記法人,大阪府,茨木市,春日１丁目１６番５９号,,27,211,5670031,,,2021-10-01,合併による解散等,9120005005552,令和３年１０月１日大阪府吹田市岸部中四丁目２５番６号医療法人京優会（9120005005552）に合併し解散,2015-10-05,1,,,,,トクセイカイ,0
2415,9130001057175,登記記録の閉鎖等,0,2021-11-01,2021-10-29,株式会社ＡＴＲ－Ｉｎｃｕｂａｔｏｒ,,株式会社,京都府,相楽郡精華町,光台２丁目２番地２,,26,366,6190237,,,2021-10-29,清算の結了等,,,2016-04-11,1,,,,,エーティーアールインキュベーター,0
2458,9220001007807,登記記録の閉鎖等,0,2021-11-01,2021-10-28,株式会社ナルコ,,株式会社,石川県,金沢市,出雲町イ４１０番地,,17,201,9200056,,,2021-10-28,清算の結了等,,,2015-10-05,1,,,,,ナルコ,0
2476,9250003002480,登記記録の閉鎖等,0,2021-11-01,2021-10-28,合同会社イーマシンジャパン,,合同会社,山口県,萩市,大字椿東２８４８－６４,,35,204,7580011,,,2021-10-28,清算の結了等,,,2019-07-22,1,,,,,イーマシンジャパン,0
2479,9260001017604,登記記録の閉鎖等,0,2021-11-01,2021-10-29,株式会社Ｍ・エステート,,株式会社,岡山県,倉敷市,児島稗田町２７８７番地,00003234,33,202,7110937,,,2021-10-29,清算の結了等,,,2015-10-05,1,,,,,エムエステート,0
2484,9260002022140,登記記録の閉鎖等,0,2021-11-01,2021-10-29,渡辺食品有限会社,,有限会社,岡山県,倉敷市,堀南７２５番地の５,,33,202,7100841,,,2021-10-29,清算の結了等,,,2015-10-05,1,,,,,,0
2495,9290001082843,登記記録の閉鎖等,0,2021-11-01,2021-10-26,井上商事株式会社,,株式会社,福岡県,福岡市東区,馬出４丁目１２番６号,,40,131,8120054,,,2021-10-26,清算の結了等,,,2018-10-01,1,,,,,イノウエショウジ,0
2498,9290003001859,登記記録の閉鎖等,0,2021-11-01,2021-10-21,落合合名会社,,合名会社,福岡県,太宰府市,都府楼南３丁目１８番３号,,40,221,8180105,,,2021-10-21,清算の結了等,,,2015-10-05,1,,,,,オチアイ,0
2508,9310003003794,登記記録の閉鎖等,0,2021-11-01,2021-10-26,合同会社ＳＡＩ,,合同会社,長崎県,長崎市,柳谷町１６番２号,,42,201,8528046,,,2021-10-26,清算の結了等,,,2020-01-10,1,,,,,エスエーアイ,0
2528,9370001044406,登記記録の閉鎖等,0,2021-11-01,2021-10-15,結システムズ株式会社,,株式会社,宮城県,仙台市太白区,富沢字鍛冶屋敷９－５（７６Ｂ－４Ｌ）ＰＡＳＳＩＯＮＥ　ＩＶ,,04,104,9820032,,,2021-10-15,清算の結了等,,,2019-05-23,1,,,,,ユイシステムズ,0
2532,9410005003353,登記記録の閉鎖等,0,2021-11-01,2021-10-06,天理教鹿岩分教会,,その他の設立登記法人,秋田県,鹿角郡小坂町,小坂鉱山字古川２６番地の１,,05,303,0170202,,,2021-10-06,合併による解散等,2410005003426,令和３年１０月６日秋田県鹿角市十和田錦木字室田３４番地天理教鹿角分教会（2410005003426）に合併し解散,2015-10-05,1,,,,,,0
2550,9500002008825,登記記録の閉鎖等,0,2021-11-01,2021-10-28,有限会社石山環境設備,,有限会社,愛媛県,松山市,本町３丁目２番地１１,,38,201,7900811,,,2021-10-28,清算の結了等,,,2015-10-05,1,,,,,イシヤマカンキョウセツビ,0
