sequenceNumber,corporateNumber,process,correct,updateDate,changeDate,name,nameImageId,kind,prefectureName,cityName,streetNumber,addressImageId,prefectureCode,cityCode,postCode,addressOutside,addressOutsideImageId,closeDate,closeCause,successorCorporateNumber,changeCause,assignmentDate,latest,enName,enPrefectureName,enCityName,enAddressOutside,furigana,hihyoji
9,1010001221997,新規,0,2021-10-26,2021-10-26,株式会社彌満和ホールディングス,,株式会社,東京都,中央区,京橋３丁目１３番１０号,,13,102,1040031,,,,,,,2021-10-26,1,,,,,ヤマワホールディングス,0
10,1010001222062,新規,0,2021-10-26,2021-10-26,株式会社城知,,株式会社,東京都,中央区,銀座７丁目５番１５号Ｂ１,,13,102,1040061,,,,,,,2021-10-26,1,,,,,ジョウチ,0
25,1010401163410,新規,0,2021-10-26,2021-10-26,株式会社ＭＩＢＵＲＯ,,株式会社,東京都,港区,白金６丁目１６番４１号ゼクス白金２０１,,13,103,1080072,,,,,,,2021-10-26,1,,,,,ミブロ,0
31,1010601060127,新規,0,2021-10-26,2021-10-26,株式会社ロボティックジェーコンピュータ,,株式会社,東京都,江東区,東陽５丁目２３番６－４０５号,,13,108,1350016,,,,,,,2021-10-26,1,,,,,ロボティックジェーコンピュータ,0
40,1010701041687,新規,0,2021-10-26,2021-10-26,株式会社Ｋｎｊ,,株式会社,東京都,品川区,西大井６丁目１５番８号春沢ビル２０３,,13,109,1400015,,,,,,,2021-10-26,1,,,,,ケイエヌジェイ,0
48,1011001143661,新規,0,2021-10-26,2021-10-26,株式会社ピリングス,,株式会社,東京都,渋谷区,富ヶ谷１丁目６番９号Ａ－１ビルディング２階,,13,113,1510063,,,,,,,2021-10-26,1,,,,,ピリングス,0
57,1011101096693,新規,0,2021-10-26,2021-10-26,株式会社Ｔｈｒｅｅ　Ｓｔａｒｓ,,株式会社,東京都,新宿区,天神町６３番地１５ライオンズマンション神楽坂第５（１００２号室）,,13,104,1620808,,,,,,,2021-10-26,1,,,,,スリースターズ,0
58,1011101096702,新規,0,2021-10-26,2021-10-26,株式会社サイド・エフェクト,,株式会社,東京都,新宿区,矢来町１１８番地ＳＹ１１８－１２,,13,104,1620805,,,,,,,2021-10-26,1,,,,,サイドエフェクト,0
59,1011103011114,新規,0,2021-10-26,2021-10-26,ＢＯＮＯ合同会社,,合同会社,東京都,新宿区,新宿１丁目２５－１４関根ビル５階,,13,104,1600022,,,,,,,2021-10-26,1,,,,,ボノ,0
64,1011401023777,新規,0,2021-10-26,2021-10-26,トラストパートナーズ株式会社,,株式会社,東京都,板橋区,本町４１－１４ホワイトヒルズ２０１,,13,119,1730001,,,,,,,2021-10-26,1,,,,,トラストパートナーズ,0
67,1011501027422,新規,0,2021-10-26,2021-10-26,株式会社ａｎｄ　Ｖｅｔ,,株式会社,東京都,北区,滝野川２丁目５６番２号,,13,117,1140023,,,,,,,2021-10-26,1,,,,,,0
72,1011603003420,新規,0,2021-10-26,2021-10-26,合同会社アルカディア,,合同会社,東京都,練馬区,中村南３丁目１９番１６－５０２号,,13,120,1760025,,,,,,,2021-10-26,1,,,,,アルカディア,0
76,1012301012746,新規,0,2021-10-26,2021-10-26,資源開発株式会社,,株式会社,東京都,町田市,本町田２５７７番地公社住宅ホ２２－１０２,,13,209,1940032,,,,,,,2021-10-26,1,,,,,シゲンカイハツ,0
96,1030001144998,新規,0,2021-10-26,2021-10-26,株式会社ＫＫ設備,,株式会社,埼玉県,富士見市,山室２丁目１５番１号,,11,235,3540022,,,,,,,2021-10-26,1,,,,,ケイケイセツビ,0
97,1030003018201,新規,0,2021-10-26,2021-10-26,ハルヤ土木合同会社,,合同会社,埼玉県,さいたま市西区,大字内野本郷４８６－２３,,11,101,3310045,,,,,,,2021-10-26,1,,,,,ハルヤドボク,0
99,1040001120635,新規,0,2021-10-26,2021-10-26,株式会社ＭＯＣＡＣＯ,,株式会社,千葉県,柏市,若柴１７８番地４柏の葉キャンパス１４８街区１パークシティ柏の葉キャンパスザ・ゲートタワーウェスト３Ｆ,,12,217,2770871,,,,,,,2021-10-26,1,,,,,モカコ,0
100,1040001120718,新規,0,2021-10-26,2021-10-26,株式会社Ｃａｌｍ,,株式会社,千葉県,松戸市,古ケ崎１丁目３０６９番地の１,,12,207,2710068,,,,,,,2021-10-26,1,,,,,カーム,0
103,1040003018811,新規,0,2021-10-26,2021-10-26,合同会社鈴木企画,,合同会社,千葉県,柏市,逆井２丁目３３－２－１０２,,12,217,2770042,,,,,,,2021-10-26,1,,,,,スズキキカク,0
107,1050001050030,新規,0,2021-10-26,2021-10-26,株式会社諏訪商店,,株式会社,茨城県,古河市,稲宮１１１１番地３,,08,204,3060202,,,,,,,2021-10-26,1,,,,,スワショウテン,0
155,1120901045089,新規,0,2021-10-26,2021-10-26,株式会社ＭＹＴＨＥＬ,,株式会社,大阪府,豊中市,東寺内町１３番２３号,,27,203,5610871,,,,,,,2021-10-26,1,,,,,ミセル,0
156,1130001024835,新規,0,2021-10-26,2021-10-26,繁栄産業株式会社,,株式会社,京都府,京都市伏見区,深草西浦町８丁目１１５番地,,26,109,6120029,,,,,,,2021-10-26,1,,,,,ハンエイサンギョウ,0
163,1140001123578,新規,0,2021-10-26,2021-10-26,株式会社熊水設備,,株式会社,兵庫県,姫路市,新在家１丁目１２番１０号,,28,201,6700095,,,,,,,2021-10-26,1,,,,,クマスイセツビ,0
164,1140001123586,新規,0,2021-10-26,2021-10-26,内海総建株式会社,,株式会社,兵庫県,姫路市,別所町佐土１丁目９８番地１,,28,201,6710224,,,,,,,2021-10-26,1,,,,,ウツミソウケン,0
178,1180001148407,新規,0,2021-10-26,2021-10-26,株式会社ｂｅｓｐｒｅａｄ,,株式会社,愛知県,名古屋市千種区,穂波町１丁目２４番地,,23,101,4640822,,,,,,,2021-10-26,1,,,,,ビースプレッド,0
211,1290001095126,新規,0,2021-10-26,2021-10-26,株式会社ユニバーサル・ブレイン,,株式会社,福岡県,福岡市中央区,大名２丁目４番２２号,,40,133,8100041,,,,,,,2021-10-26,1,,,,,ユニバーサルブレイン,0
218,1310003004197,新規,0,2021-10-26,2021-10-26,合同会社Ｎｉｎｅｒｓ,,合同会社,長崎県,雲仙市,瑞穂町西郷辛４７８番地１,,42,213,8591206,,,,,,,2021-10-26,1,,,,,ナイナーズ,0
232,1370001047738,新規,0,2021-10-26,2021-10-26,株式会社ＬＩＦＥ　ＷＯＲＫＳ,,株式会社,宮城県,柴田郡柴田町,大字上川名字梅沢８６番地,,04,323,9891742,,,,,,,2021-10-26,1,,,,,ライフワークス,0
250,1462501000910,新規,0,2021-10-26,2021-10-26,渡辺工機株式会社,,株式会社,北海道,標津郡中標津町,東三十四条北１丁目１１番地,,01,692,0861074,,,,,,,2021-10-26,1,,,,,ワタナベコウキ,0
251,1470001018786,新規,0,2021-10-26,2021-10-26,株式会社ＫＫ,,株式会社,香川県,高松市,昭和町１丁目４番３０－８０１号,,37,201,7600014,,,,,,,2021-10-26,1,,,,,ケーケー,0
256,1700150105519,新規,0,2021-10-26,2021-10-26,ＲＥＵＮＩＯＮ　ＷＩＮＮＥＲ　ＬＩＭＩＴＥＤ,,外国会社等,大阪府,大阪市住之江区,南港東４丁目５－２３,,27,125,5590031,Ｓｅａ　Ｍｅａｄｏｗ　Ｈｏｕｓｅ，Ｂｌａｃｋｂｕｒｎｅ　Ｈｉｇｈｗａｙ，Ｒｏａｄ　Ｔｏｗｎ，Ｔｏｒｔｏｌａ，Ｂｒｉｔｉｓｈ　Ｖｉｒｇｉｎ　Ｉｓｌａｎｄｓ,,,,,,2021-10-26,1,,,,,リユニオンウイナーリミテツド,0
262,2010001222045,新規,0,2021-10-26,2021-10-26,イーメディカルジャパン株式会社,,株式会社,東京都,中央区,日本橋３丁目１番４号７０１号室,,13,102,1030027,,,,,,,2021-10-26,1,,,,,イーメディカルジャパン,0
276,2010401163434,新規,0,2021-10-26,2021-10-26,株式会社新Ｄ４ｃ,,株式会社,東京都,港区,南麻布５丁目２番３２号,,13,103,1060047,,,,,,,2021-10-26,1,,,,,シンディーフォーシー,0
280,2010405020326,新規,0,2021-10-26,2021-10-26,一般社団法人ＰＤＩＥグループ,,その他の設立登記法人,東京都,港区,赤坂９丁目６番１２号,,13,103,1070052,,,,,,,2021-10-26,1,,,,,ピーディーアイイーグループ,0
283,2010701041686,新規,0,2021-10-26,2021-10-26,株式会社ｈａＢｉｔ,,株式会社,東京都,品川区,大井４丁目２９番５号,,13,109,1400014,,,,,,,2021-10-26,1,,,,,ハビット,0
284,2010703005986,新規,0,2021-10-26,2021-10-26,合同会社ＳＤ,,合同会社,東京都,品川区,西品川３丁目４番４号舘野ハイツ３０１,,13,109,1410033,,,,,,,2021-10-26,1,,,,,エスディー,0
302,2011101096676,新規,0,2021-10-26,2021-10-26,株式会社レイ,,株式会社,東京都,新宿区,新宿５丁目１０番２０号ＪＫＫ本社ビル２Ｆ,,13,104,1600022,,,,,,,2021-10-26,1,,,,,レイ,0
303,2011101096692,新規,0,2021-10-26,2021-10-26,株式会社ＮＥＸＴ,,株式会社,東京都,新宿区,歌舞伎町２丁目３２番７－２０３号,,13,104,1600021,,,,,,,2021-10-26,1,,,,,ネクスト,0
305,2011103011105,新規,0,2021-10-26,2021-10-26,合同会社ＥＭＰＥＴ,,合同会社,東京都,新宿区,水道町１番１４－２０７号,,13,104,1620811,,,,,,,2021-10-26,1,,,,,エムペット,0
306,2011201023349,新規,0,2021-10-26,2021-10-26,株式会社アスフィード,,株式会社,東京都,中野区,野方４丁目２番６号,,13,114,1650027,,,,,,,2021-10-26,1,,,,,アスフィード,0
308,2011305002785,新規,0,2021-10-26,2021-10-26,一般社団法人健康知財推進機構,,その他の設立登記法人,東京都,杉並区,久我山５丁目３７番２２号,,13,115,1680082,,,,,,,2021-10-26,1,,,,,,0
312,2011503004947,新規,0,2021-10-26,2021-10-26,ＧＯＬＤＥＮ　ＥＡＧＬＥ　ＮＥＴＷＯＲＫＳ合同会社,,合同会社,東京都,荒川区,荒川３丁目３６番２号第三北城荘２階２０１号室,,13,118,1160002,,,,,,,2021-10-26,1,,,,,ゴールデンイーグルネットワークス,0
336,2020003020702,新規,0,2021-10-26,2021-10-26,Ｌ．Ｄ．Ｇｒｏｕｐ合同会社,,合同会社,神奈川県,川崎市中原区,木月３丁目２２番１８－２０２号,,14,133,2110025,,,,,,,2021-10-26,1,,,,,エルディーグループ,0
339,2021001074319,新規,0,2021-10-26,2021-10-26,ＯＮＬＹ　ＴＩＭＥ株式会社,,株式会社,神奈川県,相模原市中央区,淵野辺４丁目４－５菱和パレス淵野辺３０６,,14,152,2520206,,,,,,,2021-10-26,1,,,,,オンリータイム,0
341,2021003011022,新規,0,2021-10-26,2021-10-26,やもりハウス合同会社,,合同会社,神奈川県,大和市,つきみ野１丁目６番地９グランアリーナレジデンス３０３,,14,213,2420002,,,,,,,2021-10-26,1,,,,,ヤモリハウス,0
346,2030001144956,新規,0,2021-10-26,2021-10-26,みのり株式会社,,株式会社,埼玉県,春日部市,立野７５番地１,,11,214,3440134,,,,,,,2021-10-26,1,,,,,ミノリ,0
347,2030001144997,新規,0,2021-10-26,2021-10-26,株式会社レジャーライフ光,,株式会社,埼玉県,川口市,西川口３丁目２９番２３－６０１号,,11,203,3320021,,,,,,,2021-10-26,1,,,,,レジャーライフヒカル,0
349,2030003018200,新規,0,2021-10-26,2021-10-26,合同会社シツラエ,,合同会社,埼玉県,入間郡毛呂山町,大字滝ノ入８２０番地１,,11,326,3500456,,,,,,,2021-10-26,1,,,,,シツラエ,0
353,2040001120717,新規,0,2021-10-26,2021-10-26,株式会社東方システムズ,,株式会社,千葉県,千葉市中央区,千葉港７番２号９０２,,12,101,2600026,,,,,,,2021-10-26,1,,,,,トウホウシステムズ,0
354,2040001120758,新規,0,2021-10-26,2021-10-26,株式会社こちょっと,,株式会社,千葉県,船橋市,旭町４丁目１４番１７号,,12,204,2730041,,,,,,,2021-10-26,1,,,,,コチョット,0
358,2050001050038,新規,0,2021-10-26,2021-10-26,チャンドゥトレーディング株式会社,,株式会社,茨城県,結城市,大字結城１１７４５番地８,,08,207,3070001,,,,,,,2021-10-26,1,,,,,チャンドゥトレーディング,0
361,2050005012959,新規,0,2021-10-26,2021-10-26,一般社団法人水戸市民俗芸能団体協議会,,その他の設立登記法人,茨城県,水戸市,梅香１丁目５番２４号,,08,201,3100022,,,,,,,2021-10-26,1,,,,,ミトシミンゾクゲイノウダンタイキョウギカイ,0
363,2060001034221,新規,0,2021-10-26,2021-10-26,株式会社アライブ,,株式会社,栃木県,宇都宮市,宮原５丁目２番１４号セーフガーデンＡ１０１,,09,201,3200835,,,,,,,2021-10-26,1,,,,,アライブ,0
370,2070002037726,新規,0,2021-10-26,2021-10-26,亀井不動産有限会社,,有限会社,群馬県,伊勢崎市,今井町９１番地,,10,204,3720823,,,,,,,2021-10-26,1,,,,,カメイフドウサン,0
380,2090003001976,新規,0,2021-10-26,2021-10-26,金忠貿易合同会社,,合同会社,山梨県,甲府市,酒折１丁目１０－２５酒折駅前事務所３Ｆ,,19,201,4000805,,,,,,,2021-10-26,1,,,,,キンチュウボウエキ,0
406,2120001240952,新規,0,2021-10-26,2021-10-26,株式会社ＳＢＲ,,株式会社,大阪府,大阪市淀川区,西宮原１丁目４番２３－５０１号,,27,123,5320004,,,,,,,2021-10-26,1,,,,,エスビーアール,0
407,2120001241232,新規,0,2021-10-26,2021-10-26,ＮＥＸＴモータース株式会社,,株式会社,大阪府,門真市,岸和田３丁目１３番１８号,,27,223,5710002,,,,,,,2021-10-26,1,,,,,,0
408,2120001241348,新規,0,2021-10-26,2021-10-26,株式会社Ｏｒａｎｇｅ,,株式会社,大阪府,大阪市生野区,巽北１丁目１番１号２Ｆ－Ｈ,,27,116,5440004,,,,,,,2021-10-26,1,,,,,オレンジ,0
409,2120001241372,新規,0,2021-10-26,2021-10-26,株式会社ｉｎｇｓ,,株式会社,大阪府,大阪市西区,南堀江３丁目１５番９号,,27,106,5500015,,,,,,,2021-10-26,1,,,,,イングス,0
410,2120001241380,新規,0,2021-10-26,2021-10-26,株式会社ＯＦＦＩＣＥ　Ｋ,,株式会社,大阪府,大阪市中央区,難波４丁目４番１号４Ｆ,,27,128,5420076,,,,,,,2021-10-26,1,,,,,オフィスケイ,0
417,2120005022570,新規,0,2021-10-26,2021-10-26,特定非営利活動法人伝統芸能杉本組,,その他の設立登記法人,大阪府,寝屋川市,成田南町２番１２号,,27,215,5720003,,,,,,,2021-10-26,1,,,,,デントウゲイノウスギモトグミ,0
418,2120105009468,新規,0,2021-10-26,2021-10-26,特定非営利活動法人キリンこども応援団,,その他の設立登記法人,大阪府,泉佐野市,鶴原８２０－９,,27,213,5980071,,,,,,,2021-10-26,1,,,,,キリンコドモオウエンダン,0
430,2140001123585,新規,0,2021-10-26,2021-10-26,宏鼎商事株式会社,,株式会社,兵庫県,宍粟市,山崎町山崎１７７番地,,28,227,6712577,,,,,,,2021-10-26,1,,,,,コウテイショウジ,0
431,2140001123619,新規,0,2021-10-26,2021-10-26,株式会社ゆかり,,株式会社,兵庫県,西宮市,花園町３番６号,,28,204,6638187,,,,,,,2021-10-26,1,,,,,ユカリ,0
433,2140003016903,新規,0,2021-10-26,2021-10-26,ＡＯＫ合同会社,,合同会社,兵庫県,神戸市中央区,港島中町３丁目１－４７－２０９,,28,110,6500046,,,,,,,2021-10-26,1,,,,,エーオーケイ,0
435,2150001025046,新規,0,2021-10-26,2021-10-26,株式会社ＮＡＲＡ　ＤＲＥＡＭ　ＬＩＮＥ,,株式会社,奈良県,奈良市,大安寺３丁目９番１１－Ｗ７号,,29,201,6308133,,,,,,,2021-10-26,1,,,,,ナラドリームライン,0
446,2180001148430,新規,0,2021-10-26,2021-10-26,株式会社カネリ,,株式会社,愛知県,名古屋市西区,天塚町１丁目４９番地,,23,104,4510021,,,,,,,2021-10-26,1,,,,,カネリ,0
447,2180001148439,新規,0,2021-10-26,2021-10-26,株式会社ＡＲＴ,,株式会社,愛知県,名古屋市港区,当知３丁目２９０２番地リバーサイドマンション１Ｆ,,23,111,4550804,,,,,,,2021-10-26,1,,,,,アート,0
479,2290001095034,新規,0,2021-10-26,2021-10-26,入江農園株式会社,,株式会社,福岡県,糸島市,大門７１番地７,,40,230,8191564,,,,,,,2021-10-26,1,,,,,イリエノウエン,0
490,2290803003961,新規,0,2021-10-26,2021-10-26,合同会社宮美建,,合同会社,福岡県,北九州市若松区,桜町６番１８号２０３,,40,103,8080026,,,,,,,2021-10-26,1,,,,,ミヤビケン,0
492,2300001012680,新規,0,2021-10-26,2021-10-26,株式会社ロジコムグループホールディングス,,株式会社,佐賀県,佐賀市,鍋島町大字森田２４３９番地１,,41,201,8490936,,,,,,,2021-10-26,1,,,,,ロジコムグループホールディングス,0
502,2360001029554,新規,0,2021-10-26,2021-10-26,Ｗａｔａｓｕｍｉ株式会社,,株式会社,沖縄県,国頭郡恩納村,字谷茶１９１９番地１,,47,311,9040412,,,,,,,2021-10-26,1,,,,,ワタスミ,0
508,2370003005453,新規,0,2021-10-26,2021-10-26,合同会社ラポールＳ,,合同会社,宮城県,仙台市若林区,大和町５丁目１８番１０号,,04,103,9840042,,,,,,,2021-10-26,1,,,,,ラポールエス,0
512,2390003001888,新規,0,2021-10-26,2021-10-26,バンビ・アセット合同会社,,合同会社,山形県,山形市,印役町５丁目５番２４号,,06,201,9900066,,,,,,,2021-10-26,1,,,,,バンビアセット,0
521,2430001085243,新規,0,2021-10-26,2021-10-26,未来トス株式会社,,株式会社,北海道,札幌市厚別区,厚別中央四条３丁目２－１０　４０５,,01,108,0040054,,,,,,,2021-10-26,1,,,,,ミライトス,0
525,2450001013516,新規,0,2021-10-26,2021-10-26,株式会社ネクストドア,,株式会社,北海道,深川市,あけぼの町２３番２３号,,01,228,0740031,,,,,,,2021-10-26,1,,,,,ネクストドア,0
527,2460003000866,新規,0,2021-10-26,2021-10-26,合同会社笑夢,,合同会社,北海道,釧路市,駒場町３番３２号,,01,206,0850048,,,,,,,2021-10-26,1,,,,,エム,0
528,2460401001235,新規,0,2021-10-26,2021-10-26,ネムロニュース株式会社,,株式会社,北海道,根室市,昆布盛１４９番地１２,,01,223,0881784,,,,,,,2021-10-26,1,,,,,ネムロニュース,0
533,2700150105518,新規,0,2021-10-26,2021-10-26,ＬＥＡＤＰＲＩＤＥ　ＣＡＰＩＴＡＬ　ＳＧ　ＰＴＥ　ＬＴＤ,,外国会社等,北海道,虻田郡倶知安町,字樺山２４番地２,,01,400,0440078,シンガポール共和国，０４８５８０，ラッフルズクウェイ６，＃１４－０６,,,,,,2021-10-26,1,,,,,リードプライドキヤピタルエスジーピーテイーイーエルテイーデイー,0
538,3010001222011,新規,0,2021-10-26,2021-10-26,株式会社Ｈプランニング,,株式会社,東京都,中央区,晴海３丁目１３番２－３６０３号,,13,102,1040053,,,,,,,2021-10-26,1,,,,,エイチプランニング,0
539,3010001222060,新規,0,2021-10-26,2021-10-26,株式会社ＦＯＲＬＯＶＲＩＬ,,株式会社,東京都,中央区,銀座３丁目１４番２号白鳥ビル１階,,13,102,1040061,,,,,,,2021-10-26,1,,,,,フォラブリル,0
548,3010003036112,新規,0,2021-10-26,2021-10-26,ＧＳＳＧ　Ｓｏｌａｒ　Ｊａｐａｎ　Ｈｏｌｄｉｎｇｓ４ａ合同会社,,合同会社,東京都,千代田区,丸の内３丁目１番１号東京共同会計事務所内,,13,101,1000005,,,,,,,2021-10-26,1,,,,,ジーエスエスジーソーラージャパンホールディングスフォーエー,0
549,3010005034106,新規,0,2021-10-26,2021-10-26,櫻正国際行政書士法人,,その他の設立登記法人,東京都,千代田区,有楽町２丁目７番１号有楽町イトシア１２階,,13,101,1000006,,,,,,,2021-10-26,1,,,,,オウセイコクサイ,0
551,3010103001800,新規,0,2021-10-26,2021-10-26,３６９合同会社,,合同会社,東京都,八王子市,七国４丁目２９番５号,,13,201,1920919,,,,,,,2021-10-26,1,,,,,サンロック,0
559,3010401162947,新規,0,2021-10-26,2021-10-26,株式会社ＷＥ　Ａｓｓｏｃｉａｔｅｓ,,株式会社,東京都,港区,六本木５丁目１５番２１－６０１号,,13,103,1060032,,,,,,,2021-10-26,1,,,,,ウィーアソシエーツ,0
566,3010601060109,新規,0,2021-10-26,2021-10-26,株式会社Ｘ３,,株式会社,東京都,江東区,豊洲６丁目２番３１－２１０８号,,13,108,1350061,,,,,,,2021-10-26,1,,,,,エックススリー,0
567,3010601060125,新規,0,2021-10-26,2021-10-26,株式会社Ｃｕｌｌｉｎａｎ’ｓ,,株式会社,東京都,江東区,亀戸３丁目４６番１５号ＴＲＣビル６０３,,13,108,1360071,,,,,,,2021-10-26,1,,,,,カリナンズ,0
574,3010803003930,新規,0,2021-10-26,2021-10-26,合同会社芝公園四丁目再開発事業法人,,合同会社,東京都,大田区,蒲田３丁目１９番４号,,13,111,1440052,,,,,,,2021-10-26,1,,,,,シバコウエンヨンチョウメサイカイハツジギョウホウジン,0
583,3011001143635,新規,0,2021-10-26,2021-10-26,株式会社Ｈｕｎｇｒｙ　Ｄｏｇ,,株式会社,東京都,渋谷区,恵比寿２丁目３７番８号グランデュオ広尾６０２,,13,113,1500013,,,,,,,2021-10-26,1,,,,,ハングリードッグ,0
602,3011101096683,新規,0,2021-10-26,2021-10-26,ＣＵホールディングス株式会社,,株式会社,東京都,新宿区,神楽坂６丁目６７番地,,13,104,1620825,,,,,,,2021-10-26,1,,,,,シーユーホールディングス,0
608,3011603003419,新規,0,2021-10-26,2021-10-26,Ｓａｋｕｒａ　Ａｃｃｏｕｎｔｉｎｇ合同会社,,合同会社,東京都,練馬区,桜台４丁目１９－１７,,13,120,1760002,,,,,,,2021-10-26,1,,,,,サクラアカウンティング,0
622,3020001143636,新規,0,2021-10-26,2021-10-26,みらいサポート株式会社,,株式会社,神奈川県,横浜市旭区,万騎が原８３番８号,,14,112,2410836,,,,,,,2021-10-26,1,,,,,ミライサポート,0
643,3030003018199,新規,0,2021-10-26,2021-10-26,合同会社ふすふす,,合同会社,埼玉県,朝霞市,西弁財２丁目３番２３号かつみマンション１０５号室,,11,227,3510021,,,,,,,2021-10-26,1,,,,,フスフス,0
647,3040001120708,新規,0,2021-10-26,2021-10-26,株式会社ＧＬＡＤ　ｆａｒｍ,,株式会社,千葉県,旭市,上永井１０８８番地,,12,215,2892704,,,,,,,2021-10-26,1,,,,,グラッドファーム,0
648,3040001120716,新規,0,2021-10-26,2021-10-26,株式会社ｓａｓａｋｉ　ｆａｃｔｏｒｙ,,株式会社,千葉県,習志野市,屋敷１丁目１３番１１－１号,,12,216,2750004,,,,,,,2021-10-26,1,,,,,ササキファクトリー,0
656,3050001050012,新規,0,2021-10-26,2021-10-26,株式会社グッドミライ,,株式会社,茨城県,つくば市,研究学園５丁目２４番地１５,,08,220,3050817,,,,,,,2021-10-26,1,,,,,グッドミライ,0
678,3080405007398,新規,0,2021-10-26,2021-10-26,一般社団法人ＯＷＮ　ＷＡＹ,,その他の設立登記法人,静岡県,浜松市北区,引佐町井伊谷１１２５番地の４,,22,135,4312212,,,,,,,2021-10-26,1,,,,,オウンウェイ,0
712,3120001241355,新規,0,2021-10-26,2021-10-26,株式会社Ｌｉｆｅ　ｓｔａｇｅ,,株式会社,大阪府,大阪市中央区,難波４丁目３番２１号ＺＡナンバビル,,27,128,5420076,,,,,,,2021-10-26,1,,,,,ライフステージ,0
713,3120001241371,新規,0,2021-10-26,2021-10-26,株式会社ＩＤＥＡＬ,,株式会社,大阪府,大阪市西区,新町１丁目２４番３号,,27,106,5500013,,,,,,,2021-10-26,1,,,,,アイディール,0
714,3120001241396,新規,0,2021-10-26,2021-10-26,株式会社ＤＩＣ,,株式会社,大阪府,大阪市福島区,海老江４丁目１番１９－１０２号,,27,103,5530001,,,,,,,2021-10-26,1,,,,,ディーアイシー,0
719,3120003020443,新規,0,2021-10-26,2021-10-26,合同会社マッシュ,,合同会社,大阪府,大阪市港区,築港２丁目６－７,,27,107,5520021,,,,,,,2021-10-26,1,,,,,マッシュ,0
728,3120901045087,新規,0,2021-10-26,2021-10-26,株式会社ＭＹＴＨＥＬ　ＴＯＫＹＯ,,株式会社,大阪府,豊中市,東寺内町１３番２３号,,27,203,5610871,,,,,,,2021-10-26,1,,,,,ミセルトウキョウ,0
730,3130001070407,新規,0,2021-10-26,2021-10-26,ＫＭＪ株式会社,,株式会社,京都府,亀岡市,追分町薮ノ下２１番地１ブレイクアベニュー３Ｆ,,26,206,6210804,,,,,,,2021-10-26,1,,,,,ケーエムジェー,0
735,3140005025868,新規,0,2021-10-26,2021-10-26,一般社団法人ＩＫＵＨＡＲＴ企画,,その他の設立登記法人,兵庫県,淡路市,育波６５番地,,28,226,6561602,,,,,,,2021-10-26,1,,,,,イクハートキカク,0
738,3150001025045,新規,0,2021-10-26,2021-10-26,株式会社ｈｅａｒｔ,,株式会社,奈良県,橿原市,内膳町４丁目４番１４－３０１号,,29,205,6340804,,,,,,,2021-10-26,1,,,,,ハート,0
744,3170001016835,新規,0,2021-10-26,2021-10-26,鼎誠株式会社,,株式会社,和歌山県,海南市,日方１２７１－２３－１Ｆ２号室,,30,202,6420002,,,,,,,2021-10-26,1,,,,,テイセイ,0
754,3180001148405,新規,0,2021-10-26,2021-10-26,株式会社Ｓ　Ａ　ＴＲＡＤＩＮＧ,,株式会社,愛知県,名古屋市名東区,引山３丁目５２８番地,,23,115,4650002,,,,,,,2021-10-26,1,,,,,エスエートレーディング,0
755,3180001148413,新規,0,2021-10-26,2021-10-26,成蹊エンジニアリング株式会社,,株式会社,愛知県,名古屋市千種区,今池５丁目２７番１９号タウンＭ＆Ｅ・Ｂ棟１１８号室,,23,101,4640850,,,,,,,2021-10-26,1,,,,,セイケイエンジニアリング,0
756,3180001148421,新規,0,2021-10-26,2021-10-26,株式会社ドゥオモインターナショナル,,株式会社,愛知県,一宮市,丹羽字井端１２２６番地１５７,,23,203,4910083,,,,,,,2021-10-26,1,,,,,ドゥオモインターナショナル,0
757,3180001148446,新規,0,2021-10-26,2021-10-26,株式会社ナチュラルファーム,,株式会社,愛知県,豊明市,前後町仙人塚１７３６番地１７７,,23,229,4701152,,,,,,,2021-10-26,1,,,,,ナチュラルファーム,0
764,3180301035550,新規,0,2021-10-26,2021-10-26,株式会社Ｌａ,,株式会社,愛知県,豊川市,平井町水戸田６５,,23,207,4410104,,,,,,,2021-10-26,1,,,,,エルエー,0
772,3190001028795,新規,0,2021-10-26,2021-10-26,アイスタイリング株式会社,,株式会社,三重県,志摩市,阿児町鵜方３９３番地２６２,,24,215,5170501,,,,,,,2021-10-26,1,,,,,アイスタイリング,0
773,3190005011632,新規,0,2021-10-26,2021-10-26,一般社団法人ＨｙｇｇｅＣｉｒｃｌｅｓ,,その他の設立登記法人,三重県,いなべ市,大安町石榑南２９９９番地５,,24,214,5110266,,,,,,,2021-10-26,1,,,,,ヒュゲサークルズ,0
783,3260001036106,新規,0,2021-10-26,2021-10-26,株式会社ＡＣＥ,,株式会社,岡山県,備前市,浦伊部１０００番地７３,,33,211,7050002,,,,,,,2021-10-26,1,,,,,エース,0
784,3260001036122,新規,0,2021-10-26,2021-10-26,株式会社おりえ,,株式会社,岡山県,倉敷市,酒津２７３９,,33,202,7100801,,,,,,,2021-10-26,1,,,,,オリエ,0
794,3290001095108,新規,0,2021-10-26,2021-10-26,株式会社リバストン,,株式会社,福岡県,福岡市東区,多の津５丁目１１番２７号,,40,131,8130034,,,,,,,2021-10-26,1,,,,,リバストン,0
803,3290803003960,新規,0,2021-10-26,2021-10-26,合同会社クロレホーム,,合同会社,福岡県,北九州市小倉北区,鍛冶町１丁目１－１北九州東洋ビル５Ｆ,,40,106,8020004,,,,,,,2021-10-26,1,,,,,クロレホーム,0
810,3320003003642,新規,0,2021-10-26,2021-10-26,ＴＦイノベーション合同会社,,合同会社,大分県,国東市,安岐町塩屋１１２番地１６,,44,214,8730212,,,,,,,2021-10-26,1,,,,,ティーエフイノベーション,0
814,3340003003608,新規,0,2021-10-26,2021-10-26,合同会社ｉ－ＮＯＴＥ,,合同会社,鹿児島県,霧島市,国分府中１４５０番地１０,,46,218,8994345,,,,,,,2021-10-26,1,,,,,アイノテ,0
827,3430001085242,新規,0,2021-10-26,2021-10-26,株式会社エピファニー,,株式会社,北海道,北広島市,共栄町１丁目２０番地３,,01,234,0611113,,,,,,,2021-10-26,1,,,,,エピファニー,0
833,3460001005619,新規,0,2021-10-26,2021-10-26,株式会社三和貿易,,株式会社,北海道,釧路郡釧路町,南陽台１丁目６－２,,01,661,0882152,,,,,,,2021-10-26,1,,,,,サンワボウエキ,0
835,3460101007077,新規,0,2021-10-26,2021-10-26,株式会社イチゴミルク牧場,,株式会社,北海道,河東郡音更町,字中音更西６線４番地,,01,631,0800578,,,,,,,2021-10-26,1,,,,,イチゴミルクボクジョウ,0
843,3700150105517,新規,0,2021-10-26,2021-10-26,ＵＡＢ　ＣＧＴｒａｄｅｒ,,外国会社等,,,,,,,,Ａｎｔａｋａｌｎｉｏ　ｓｔｒ．１７，Ｖｉｌｎｉｕｓ，Ｌｉｔｈｕａｎｉａ　ＬＴ－１０３１２,,,,,,2021-10-26,1,,,,,ユーエービーシージートレーダー,0
853,4010001221994,新規,0,2021-10-26,2021-10-26,株式会社ＶＩＶＥ　ＬＥ　ＶＩＮ,,株式会社,東京都,中央区,銀座１丁目２２番１２号マドリガル銀座１Ｆ,,13,102,1040061,,,,,,,2021-10-26,1,,,,,ヴィヴルヴァン,0
854,4010001222051,新規,0,2021-10-26,2021-10-26,株式会社Ｂｒａｖｏ,,株式会社,東京都,中央区,日本橋蛎殻町１丁目６番４号,,13,102,1030014,,,,,,,2021-10-26,1,,,,,ブラボー,0
855,4010003036111,新規,0,2021-10-26,2021-10-26,ＧＳＳＧ　Ｓｏｌａｒ　Ｊａｐａｎ　Ｈｏｌｄｉｎｇｓ３ａ合同会社,,合同会社,東京都,千代田区,丸の内３丁目１番１号東京共同会計事務所内,,13,101,1000005,,,,,,,2021-10-26,1,,,,,ジーエスエスジーソーラージャパンホールディングススリーエー,0
864,4010401163440,新規,0,2021-10-26,2021-10-26,株式会社ＯＳ．,,株式会社,東京都,港区,南青山２丁目２番１５－５３１号ＷＩＮ青山,,13,103,1070062,,,,,,,2021-10-26,1,,,,,オーエス,0
868,4010403026158,新規,0,2021-10-26,2021-10-26,合同会社私と手を組まないか,,合同会社,東京都,港区,南青山２丁目２番１５号,,13,103,1070062,,,,,,,2021-10-26,1,,,,,ワタシトテヲクマナイカ,0
877,4010701041692,新規,0,2021-10-26,2021-10-26,株式会社エムアールジャパン,,株式会社,東京都,品川区,東大井１丁目２４番１６号サメズミツワビル３０３号室,,13,109,1400011,,,,,,,2021-10-26,1,,,,,エムアールジャパン,0
878,4010701041701,新規,0,2021-10-26,2021-10-26,株式会社ヒューリズム,,株式会社,東京都,品川区,北品川５丁目５番１５号,,13,109,1410001,,,,,,,2021-10-26,1,,,,,ヒューリズム,0
889,4011001143592,新規,0,2021-10-26,2021-10-26,株式会社Ｔｗｉｎｓ,,株式会社,東京都,目黒区,中央町２丁目２８番１６号１Ｆ,,13,110,1520001,,,,,,,2021-10-26,1,,,,,ツインズ,0
890,4011001143634,新規,0,2021-10-26,2021-10-26,株式会社キャンビー,,株式会社,東京都,渋谷区,松濤１丁目２８番２号ワークコート渋谷松濤,,13,113,1500046,,,,,,,2021-10-26,1,,,,,キャンビー,0
891,4011005009261,新規,0,2021-10-26,2021-10-26,一般社団法人事業継続研究所,,その他の設立登記法人,東京都,渋谷区,松濤１丁目２６番１６－５０４号,,13,113,1500046,,,,,,,2021-10-26,1,,,,,ジギョウケイゾクケンキュウジョ,0
897,4011101096591,新規,0,2021-10-26,2021-10-26,株式会社ＦＬＩＮＥ,,株式会社,東京都,新宿区,舟町７舟町ビル１Ｆ,,13,104,1600006,,,,,,,2021-10-26,1,,,,,エフライン,0
898,4011101096690,新規,0,2021-10-26,2021-10-26,ＧＮＲ株式会社,,株式会社,東京都,新宿区,西新宿８丁目１４番１９号,,13,104,1600023,,,,,,,2021-10-26,1,,,,,ジーエヌアール,0
899,4011101096699,新規,0,2021-10-26,2021-10-26,株式会社新宿経理おたすけ隊,,株式会社,東京都,新宿区,住吉町７番３号－３０１号,,13,104,1620065,,,,,,,2021-10-26,1,,,,,シンジュクケイリオタスケタイ,0
900,4011103011111,新規,0,2021-10-26,2021-10-26,アールエステート合同会社,,合同会社,東京都,新宿区,喜久井町４６番地２１－１０４,,13,104,1620044,,,,,,,2021-10-26,1,,,,,アールエステート,0
901,4011401023782,新規,0,2021-10-26,2021-10-26,株式会社Ｎｉｆｅｅ　Ｄｅｅｂｉｒｕ,,株式会社,東京都,板橋区,上板橋１丁目１５番２１号,,13,119,1740076,,,,,,,2021-10-26,1,,,,,ニフェーデービル,0
904,4011601025496,新規,0,2021-10-26,2021-10-26,株式会社モタナ,,株式会社,東京都,練馬区,東大泉６丁目４９番２号,,13,120,1780063,,,,,,,2021-10-26,1,,,,,モタナ,0
908,4012301012751,新規,0,2021-10-26,2021-10-26,株式会社ＢＯＮＤ,,株式会社,東京都,町田市,森野２丁目３１番１１号シャレー三井６０２,,13,209,1940022,,,,,,,2021-10-26,1,,,,,ボンド,0
929,4021001074309,新規,0,2021-10-26,2021-10-26,株式会社岡部興業,,株式会社,神奈川県,藤沢市,湘南台４丁目２０番地の１美風館３０３,,14,205,2520804,,,,,,,2021-10-26,1,,,,,オカベコウギョウ,0
934,4030001144995,新規,0,2021-10-26,2021-10-26,株式会社岡野町商会,,株式会社,埼玉県,春日部市,中央１丁目４６番地５,,11,214,3440067,,,,,,,2021-10-26,1,,,,,オカノマチショウカイ,0
947,4040001120707,新規,0,2021-10-26,2021-10-26,ロクイチ企画株式会社,,株式会社,千葉県,流山市,南流山１丁目７番６－２０３号,,12,220,2700163,,,,,,,2021-10-26,1,,,,,ロクイチキカク,0
950,4050001050036,新規,0,2021-10-26,2021-10-26,株式会社光栄工業,,株式会社,茨城県,ひたちなか市,幸町９番地１７,,08,221,3111226,,,,,,,2021-10-26,1,,,,,コウエイコウギョウ,0
986,4120001241354,新規,0,2021-10-26,2021-10-26,株式会社ＰＹＦ,,株式会社,大阪府,大阪市北区,中津１丁目１８番１８号４Ｆ,,27,127,5310071,,,,,,,2021-10-26,1,,,,,ピーワイエフ,0
987,4120001241370,新規,0,2021-10-26,2021-10-26,株式会社ＬＥＯＮ,,株式会社,大阪府,大阪市西区,北堀江１丁目２３番９号,,27,106,5500014,,,,,,,2021-10-26,1,,,,,レオン,0
988,4120001241379,新規,0,2021-10-26,2021-10-26,株式会社ＲＫＰ,,株式会社,大阪府,大阪市港区,田中２丁目１３番１１号,,27,107,5520005,,,,,,,2021-10-26,1,,,,,アールケイピー,0
989,4120001241412,新規,0,2021-10-26,2021-10-26,株式会社Ｎｉｃｏｌｅ,,株式会社,大阪府,大阪市天王寺区,上本町６丁目９番２－３０５号,,27,109,5430001,,,,,,,2021-10-26,1,,,,,ニコル,0
996,4120003020467,新規,0,2021-10-26,2021-10-26,合同会社ＣＯＬＬＯＮ,,合同会社,大阪府,大阪市淀川区,西中島３丁目１３番５号,,27,123,5320011,,,,,,,2021-10-26,1,,,,,コロン,0
997,4120003020475,新規,0,2021-10-26,2021-10-26,柳アドバイザリー合同会社,,合同会社,大阪府,大阪市中央区,南船場４丁目１０番５号南船場ＳＯＨＯビル７０２,,27,128,5420081,,,,,,,2021-10-26,1,,,,,ヤナギアドバイザリー,0
1020,4140005025867,新規,0,2021-10-26,2021-10-26,一般社団法人さとのわ,,その他の設立登記法人,兵庫県,神戸市西区,押部谷町木幡３５７番地,,28,111,6512221,,,,,,,2021-10-26,1,,,,,サトノワ,0
1025,4160003002412,新規,0,2021-10-26,2021-10-26,アップルリーフ合同会社,,合同会社,滋賀県,彦根市,日夏町３７２９番地２７,,25,202,5220047,,,,,,,2021-10-26,1,,,,,アップルリーフ,0
1030,4180001148420,新規,0,2021-10-26,2021-10-26,株式会社ＴＲＢ,,株式会社,愛知県,名古屋市南区,星宮町２３５番地リバーサイド２３５‐３０３,,23,112,4570055,,,,,,,2021-10-26,1,,,,,ティーアールビー,0
1031,4180001148429,新規,0,2021-10-26,2021-10-26,株式会社オリオン,,株式会社,愛知県,春日井市,宮町３丁目７番地２,,23,206,4860904,,,,,,,2021-10-26,1,,,,,オリオン,0
1032,4180001148445,新規,0,2021-10-26,2021-10-26,株式会社まるごと越前,,株式会社,愛知県,名古屋市千種区,千種通７丁目１０１番地,,23,101,4640855,,,,,,,2021-10-26,1,,,,,マルゴトエチゼン,0
1049,4240001058811,新規,0,2021-10-26,2021-10-26,株式会社Ｒａｉｓｅ３,,株式会社,広島県,広島市中区,吉島西３丁目１６番１－１２０２号,,34,101,7300823,,,,,,,2021-10-26,1,,,,,レイズスリー,0
1060,4290003011747,新規,0,2021-10-26,2021-10-26,合同会社ｍｏｒｉｔａｂａ,,合同会社,福岡県,小郡市,小郡２３９０番地２,,40,216,8380141,,,,,,,2021-10-26,1,,,,,モリタバ,0
1076,4370001047735,新規,0,2021-10-26,2021-10-26,株式会社ＧＲＡＮＴ,,株式会社,宮城県,石巻市,魚町２丁目１２番地３,,04,202,9860022,,,,,,,2021-10-26,1,,,,,グラント,0
1079,4370003005451,新規,0,2021-10-26,2021-10-26,合同会社シーズム,,合同会社,宮城県,仙台市青葉区,本町１丁目５番２８号カーニープレイス仙台駅前通６０３号室,,04,101,9800014,,,,,,,2021-10-26,1,,,,,シーズム,0
1088,4430001085233,新規,0,2021-10-26,2021-10-26,株式会社エッジワークス,,株式会社,北海道,札幌市豊平区,平岸一条９丁目２番１５－３０５号,,01,105,0620931,,,,,,,2021-10-26,1,,,,,エッジワークス,0
1089,4430001085241,新規,0,2021-10-26,2021-10-26,株式会社ＫＳＭコーポレーション,,株式会社,北海道,石狩市,花川南八条１丁目１１７番地１,,01,235,0613208,,,,,,,2021-10-26,1,,,,,ケーエスエムコーポレーション,0
1097,4430005014320,新規,0,2021-10-26,2021-10-26,ライオンズマンション第７大通管理組合法人,,その他の設立登記法人,北海道,札幌市中央区,大通西１４丁目３番地１４,,01,101,0600042,,,,,,,2021-10-26,1,,,,,ライオンズマンションダイナナオオドオリ,0
1103,4700150105508,新規,0,2021-10-26,2021-10-26,Ｈ．Ｒ．ＥＮＴＥＲＰＲＩＳＥＳ,,外国会社等,千葉県,山武市,木原１４０２番地オフィス９号,,12,237,2891212,スリランカ民主社会主義共和国、ガルヒンナ、モスクロード、１７１－Ｃ,,,,,,2021-10-26,1,,,,,エイチアールエンタープライセス,0
1104,4700150105516,新規,0,2021-10-26,2021-10-26,株式会社ハンファ,,外国会社等,,,,,,,,８６，Ｃｈｅｏｎｇｇｙｅｃｈｅｏｎ－ｒｏ，Ｊｕｎｇ－ｇｕ，Ｓｅｏｕｌ，Ｋｏｒｅａ,,,,,,2021-10-26,1,,,,,カブシキガイシヤハンフア,0
1112,5010001222001,新規,0,2021-10-26,2021-10-26,Ｔｒｉｎｉｔｙ　Ｃｒｅａｔｉｏｎ株式会社,,株式会社,東京都,中央区,晴海１丁目８番１０号晴海アイランドトリトンスクエアＸ棟２３階,,13,102,1040053,,,,,,,2021-10-26,1,,,,,トリニティクリエイション,0
1113,5010001222050,新規,0,2021-10-26,2021-10-26,株式会社Ｃ＆Ｃ,,株式会社,東京都,中央区,日本橋蛎殻町１丁目６番４号,,13,102,1030014,,,,,,,2021-10-26,1,,,,,シーアンドシー,0
1116,5010003036085,新規,0,2021-10-26,2021-10-26,ステラプレイン合同会社,,合同会社,東京都,文京区,千駄木５丁目４１番１２号,,13,105,1130022,,,,,,,2021-10-26,1,,,,,ステラプレイン,0
1117,5010003036093,新規,0,2021-10-26,2021-10-26,奘治資本合同会社,,合同会社,東京都,中央区,湊３丁目１番３－５０４号,,13,102,1040043,,,,,,,2021-10-26,1,,,,,ジョウジシホン,0
1126,5010401163407,新規,0,2021-10-26,2021-10-26,百福株式会社,,株式会社,東京都,港区,六本木４丁目２番３５号,,13,103,1060032,,,,,,,2021-10-26,1,,,,,モモフク,0
1127,5010401163431,新規,0,2021-10-26,2021-10-26,株式会社Ｚｅｎｉｃａｌ,,株式会社,東京都,港区,浜松町２丁目２番１５号浜松町ダイヤビル２Ｆ,,13,103,1050013,,,,,,,2021-10-26,1,,,,,ゼニカル,0
1128,5010401163448,新規,0,2021-10-26,2021-10-26,Ｏａｋｇｏｌｄ　Ａｓｓｏｃｉａｔｅｓ　Ｋ．Ｋ株式会社,,株式会社,東京都,港区,白金１丁目１４番３号,,13,103,1080072,,,,,,,2021-10-26,1,,,,,オークゴールドアソシエイツ,0
1136,5010705003283,新規,0,2021-10-26,2021-10-26,一般社団法人地域健幸事業研究所,,その他の設立登記法人,東京都,品川区,北品川５丁目７番９号,,13,109,1410001,,,,,,,2021-10-26,1,,,,,チイキケンコウジギョウケンキュウショ,0
1138,5010803003929,新規,0,2021-10-26,2021-10-26,清華合同会社,,合同会社,東京都,大田区,蒲田２丁目１７番１号第二和泉ビル５Ｃ,,13,111,1440052,,,,,,,2021-10-26,1,,,,,セイカ,0
1141,5010901049683,新規,0,2021-10-26,2021-10-26,ＴＯＫＹＯ　ＴＷＩＳＴ株式会社,,株式会社,東京都,世田谷区,世田谷１丁目３１番２２号,,13,112,1540017,,,,,,,2021-10-26,1,,,,,,0
1145,5011001143600,新規,0,2021-10-26,2021-10-26,株式会社クロスポイント,,株式会社,東京都,渋谷区,恵比寿１丁目１９番１９号,,13,113,1500013,,,,,,,2021-10-26,1,,,,,クロスポイント,0
1146,5011003013603,新規,0,2021-10-26,2021-10-26,ＡＧＩパートナーズ合同会社,,合同会社,東京都,渋谷区,代々木４丁目２１番３号,,13,113,1510053,,,,,,,2021-10-26,1,,,,,エージーアイパートナーズ,0
1150,5011101096698,新規,0,2021-10-26,2021-10-26,アナリティクエッジ株式会社,,株式会社,東京都,新宿区,西新宿３丁目２番９号新宿ワシントンホテルビル本館２Ｆ,,13,104,1600023,,,,,,,2021-10-26,1,,,,,アナリティクエッジ,0
1154,5011301027288,新規,0,2021-10-26,2021-10-26,スマイルアップ株式会社,,株式会社,東京都,杉並区,浜田山１丁目１５番３号松本ハイツ１－１,,13,115,1680065,,,,,,,2021-10-26,1,,,,,スマイルアップ,0
1157,5011401023773,新規,0,2021-10-26,2021-10-26,ＬＩＮ　ＳＴＡＲ株式会社,,株式会社,東京都,板橋区,赤塚５丁目７番３号ネオハイム１０２号室,,13,119,1750092,,,,,,,2021-10-26,1,,,,,リンスター,0
1159,5011501027419,新規,0,2021-10-26,2021-10-26,日本ボスト株式会社,,株式会社,東京都,北区,田端新町１丁目７－１４ビズフィールド西日暮里３０６,,13,117,1140012,,,,,,,2021-10-26,1,,,,,ニホンボスト,0
1160,5011503004944,新規,0,2021-10-26,2021-10-26,合同会社ＩＮＳＴＩＮＣＴ,,合同会社,東京都,北区,志茂４丁目７番３号,,13,117,1150042,,,,,,,2021-10-26,1,,,,,インスティンクト,0
1162,5011601025495,新規,0,2021-10-26,2021-10-26,株式会社ＺＥＮＰＡＫＵ,,株式会社,東京都,練馬区,羽沢２丁目３４番９号,,13,120,1760003,,,,,,,2021-10-26,1,,,,,ゼンパク,0
1181,5013303005874,新規,0,2021-10-26,2021-10-26,合同会社ザイホー,,合同会社,東京都,豊島区,池袋２丁目６８番１０号１００４,,13,116,1710014,,,,,,,2021-10-26,1,,,,,ザイホー,0
1185,5020001143584,新規,0,2021-10-26,2021-10-26,株式会社二号,,株式会社,神奈川県,川崎市川崎区,大師町１６番３号,,14,131,2100816,,,,,,,2021-10-26,1,,,,,ニゴウ,0
1186,5020001143634,新規,0,2021-10-26,2021-10-26,株式会社ユーテック,,株式会社,神奈川県,横浜市南区,南太田１丁目１４番１－５０１号,,14,105,2320006,,,,,,,2021-10-26,1,,,,,ユーテック,0
1192,5020003020674,新規,0,2021-10-26,2021-10-26,ＪＡＶＩＥＴ合同会社,,合同会社,神奈川県,横浜市南区,中島町４丁目８９番７号,,14,105,2320055,,,,,,,2021-10-26,1,,,,,ジャヴィエット,0
1198,5021001074290,新規,0,2021-10-26,2021-10-26,株式会社ほねごりＦＧＳ,,株式会社,神奈川県,相模原市中央区,星が丘４丁目１６番１４号,,14,152,2520238,,,,,,,2021-10-26,1,,,,,ホネゴリエフジーエス,0
1199,5021001074308,新規,0,2021-10-26,2021-10-26,ＨＳＧエンジニアリング株式会社,,株式会社,神奈川県,厚木市,旭町５丁目４０番２５－１号,,14,212,2430014,,,,,,,2021-10-26,1,,,,,エッチエスジーエンジニアリング,0
1201,5021003011011,新規,0,2021-10-26,2021-10-26,合同会社セリザワ内装,,合同会社,神奈川県,藤沢市,長後１２２５番地の１－９１６,,14,205,2520801,,,,,,,2021-10-26,1,,,,,セリザワナイソウ,0
1209,5030001144994,新規,0,2021-10-26,2021-10-26,株式会社ＳＹＳ　ｃｏｍｐａｎｙ,,株式会社,埼玉県,さいたま市大宮区,仲町１丁目１１１番地２,,11,103,3300845,,,,,,,2021-10-26,1,,,,,エスワイエスカンパニー,0
1210,5030001145002,新規,0,2021-10-26,2021-10-26,株式会社オクタゴン,,株式会社,埼玉県,蕨市,中央４丁目１１番１２号アネックス蕨３０１,,11,223,3350004,,,,,,,2021-10-26,1,,,,,オクタゴン,0
1225,5040001120706,新規,0,2021-10-26,2021-10-26,株式会社ＪＯＹ　ＳＵＰＰＯＲＴＥＲＳ,,株式会社,千葉県,成田市,並木町４１番地９２アルキオネビル２０１,,12,211,2860045,,,,,,,2021-10-26,1,,,,,ジョイサポーターズ,0
1226,5040001120714,新規,0,2021-10-26,2021-10-26,株式会社飛達商事,,株式会社,千葉県,四街道市,上野３３５番地２,,12,228,2840041,,,,,,,2021-10-26,1,,,,,ヒタツショウジ,0
1237,5050001050027,新規,0,2021-10-26,2021-10-26,株式会社常磐木,,株式会社,茨城県,水戸市,田野町７８８番地の４,,08,201,3100901,,,,,,,2021-10-26,1,,,,,トキワギ,0
1238,5050001050035,新規,0,2021-10-26,2021-10-26,岩津株式会社,,株式会社,茨城県,つくば市,天久保２丁目２１番地３天久保二丁目事務所Ａ１０２号室,,08,220,3050005,,,,,,,2021-10-26,1,,,,,イワツ,0
1260,5120001035136,新規,0,2021-10-26,2021-10-26,株式会社三昇建設,,株式会社,大阪府,大阪市福島区,福島２丁目１０番１９号,,27,103,5530003,,,,,,,2021-10-26,1,,,,,サンショウケンセツ,0
1269,5120001241254,新規,0,2021-10-26,2021-10-26,株式会社Ａｙ　Ｆｉｔｎｅｓｓ,,株式会社,大阪府,大阪市北区,菅原町１０番１２－２２０７号,,27,127,5300046,,,,,,,2021-10-26,1,,,,,アイフィットネス,0
1270,5120001241394,新規,0,2021-10-26,2021-10-26,ＨＥＲＩＴＡＧＥ　ＷＯＲＫＳ株式会社,,株式会社,大阪府,大阪市都島区,片町２丁目８番６号,,27,102,5340025,,,,,,,2021-10-26,1,,,,,ヘリテージワークス,0
1274,5120005022568,新規,0,2021-10-26,2021-10-26,ＮＰＯ法人サーフアンドシー,,その他の設立登記法人,大阪府,大阪市中央区,南船場２丁目７番１１号,,27,128,5420081,,,,,,,2021-10-26,1,,,,,サーフアンドシー,0
1278,5120105009465,新規,0,2021-10-26,2021-10-26,ＮＰＯ法人いいねきーたん実行委員会,,その他の設立登記法人,大阪府,岸和田市,春木旭町３６番５１－３１０号,,27,202,5960005,,,,,,,2021-10-26,1,,,,,イイネキータンジッコウイインカイ,0
1293,5140001123599,新規,0,2021-10-26,2021-10-26,株式会社ネクストステージ,,株式会社,兵庫県,加古川市,野口町長砂９９８番地日光ハイツ加古川壱番館１００３号,,28,210,6750016,,,,,,,2021-10-26,1,,,,,ネクストステージ,0
1294,5140001123608,新規,0,2021-10-26,2021-10-26,株式会社ｇｌｏｗ８,,株式会社,兵庫県,神戸市中央区,海岸通２８－１０１１,,28,110,6500024,,,,,,,2021-10-26,1,,,,,グロウエイト,0
1302,5180001148444,新規,0,2021-10-26,2021-10-26,株式会社じぶんスペース,,株式会社,愛知県,名古屋市東区,泉１丁目１１番６号,,23,102,4610001,,,,,,,2021-10-26,1,,,,,ジブンスペース,0
1306,5180005019492,新規,0,2021-10-26,2021-10-26,一般社団法人ベル福祉会,,その他の設立登記法人,愛知県,名古屋市中村区,森末町４丁目８６番地の２,,23,105,4530052,,,,,,,2021-10-26,1,,,,,ベルフクシカイ,0
1325,5290001095097,新規,0,2021-10-26,2021-10-26,株式会社アクアップ,,株式会社,福岡県,八女市,稲富字蔵ノ町１２９番１,,40,210,8340047,,,,,,,2021-10-26,1,,,,,アクアップ,0
1329,5290003011746,新規,0,2021-10-26,2021-10-26,ソリューションコンサルティング合同会社,,合同会社,福岡県,福岡市博多区,上牟田１丁目１７番６号,,40,132,8120006,,,,,,,2021-10-26,1,,,,,ソリューションコンサルティング,0
1332,5290801027935,新規,0,2021-10-26,2021-10-26,株式会社ＢＲＩＤＧＥ,,株式会社,福岡県,京都郡苅田町,大字新津２８７番地２,,40,621,8000344,,,,,,,2021-10-26,1,,,,,ブリッジ,0
1339,5340001024190,新規,0,2021-10-26,2021-10-26,株式会社ＫＲＩＪ,,株式会社,鹿児島県,霧島市,国分中央１丁目７番３－１号,,46,218,8994332,,,,,,,2021-10-26,1,,,,,カリジェ,0
1343,5360001029551,新規,0,2021-10-26,2021-10-26,株式会社八城ファーム,,株式会社,沖縄県,糸満市,字真栄平６３９番地,,47,210,9010331,,,,,,,2021-10-26,1,,,,,ヤシロファーム,0
1344,5360005006539,新規,0,2021-10-26,2021-10-26,一般社団法人くもじ地域福祉協議会,,その他の設立登記法人,沖縄県,那覇市,牧志１丁目１０番４号,,47,201,9000013,,,,,,,2021-10-26,1,,,,,クモジチイキフクシキョウギカイ,0
1350,5380001032289,新規,0,2021-10-26,2021-10-26,会津ポンプ株式会社,,株式会社,福島県,会津若松市,門田町大字飯寺字村東５７７番地の５６,,07,202,9650846,,,,,,,2021-10-26,1,,,,,アイヅポンプ,0
1353,5400001015646,新規,0,2021-10-26,2021-10-26,株式会社フォルクス,,株式会社,岩手県,盛岡市,永井２０地割１番地３２,,03,201,0200834,,,,,,,2021-10-26,1,,,,,フォルクス,0
1364,5480001011530,新規,0,2021-10-26,2021-10-26,株式会社阿南葬祭,,株式会社,徳島県,阿南市,富岡町西池田口２１番地３,,36,204,7740030,,,,,,,2021-10-26,1,,,,,,0
1365,5500001023754,新規,0,2021-10-26,2021-10-26,株式会社秀光物流,,株式会社,愛媛県,松山市,西長戸町９９番地１１,,38,201,7918017,,,,,,,2021-10-26,1,,,,,シュウコウブツリュウ,0
1371,6010001221984,新規,0,2021-10-26,2021-10-26,株式会社清幸社,,株式会社,東京都,中央区,東日本橋２丁目２８番４号日本橋ＣＥＴビル２階,,13,102,1030004,,,,,,,2021-10-26,1,,,,,セイコウシャ,0
1372,6010001222000,新規,0,2021-10-26,2021-10-26,東京シティ電工株式会社,,株式会社,東京都,中央区,日本橋小網町１番４号,,13,102,1030016,,,,,,,2021-10-26,1,,,,,トウキョウシティデンコウ,0
1373,6010003036101,新規,0,2021-10-26,2021-10-26,合同会社まんのう・丸亀ＹＫＬ発電所,,合同会社,東京都,中央区,日本橋浜町２丁目７番１号小田ビル３Ｆ,,13,102,1030007,,,,,,,2021-10-26,1,,,,,マンノウマルガメワイケーエルハツデンショ,0
1374,6010005034136,新規,0,2021-10-26,2021-10-26,一般社団法人Ｌｏｓ　Ａｎｇｅｌｅｓ,,その他の設立登記法人,東京都,中央区,銀座１丁目６番１１号土志田ビルディング３Ｆ,,13,102,1040061,,,,,,,2021-10-26,1,,,,,ロサンゼルス,0
1375,6010005034144,新規,0,2021-10-26,2021-10-26,ＧＳＳＧ　Ｓｏｌａｒ　Ｊａｐａｎ　Ｈｏｌｄｉｎｇｓ４ａ一般社団法人,,その他の設立登記法人,東京都,千代田区,丸の内３丁目１番１号東京共同会計事務所内,,13,101,1000005,,,,,,,2021-10-26,1,,,,,ジーエスエスジーソーラージャパンホールディングスフォーエー,0
1383,6010401163414,新規,0,2021-10-26,2021-10-26,株式会社ＴＥＮＫＡＩ,,株式会社,東京都,港区,白金３丁目２番１４－４０３号,,13,103,1080072,,,,,,,2021-10-26,1,,,,,テンカイ,0
1384,6010401163430,新規,0,2021-10-26,2021-10-26,株式会社Ｌｉｌｉｅ,,株式会社,東京都,港区,赤坂６丁目１１番４－１１０２号,,13,103,1070052,,,,,,,2021-10-26,1,,,,,リリー,0
1385,6010401163455,新規,0,2021-10-26,2021-10-26,オクタゴンマネジメント株式会社,,株式会社,東京都,港区,六本木７丁目６番３号,,13,103,1060032,,,,,,,2021-10-26,1,,,,,オクタゴンマネジメント,0
1386,6010403026387,新規,0,2021-10-26,2021-10-26,楽活合同会社,,合同会社,東京都,港区,新橋５丁目３１番８－９０２号,,13,103,1050004,,,,,,,2021-10-26,1,,,,,ラクカツ,0
1390,6010501048011,新規,0,2021-10-26,2021-10-26,株式会社ＴＫ,,株式会社,東京都,台東区,柳橋１丁目１２－１１－４０３,,13,106,1110052,,,,,,,2021-10-26,1,,,,,ティーケー,0
1402,6010903006896,新規,0,2021-10-26,2021-10-26,美しい鳥合同会社,,合同会社,東京都,世田谷区,深沢５丁目２－１安島ビル１階,,13,112,1580081,,,,,,,2021-10-26,1,,,,,ウツクシイトリ,0
1411,6011001143608,新規,0,2021-10-26,2021-10-26,株式会社ハイロード,,株式会社,東京都,渋谷区,神宮前３丁目３８番２号高橋ビル２Ｆ,,13,113,1500001,,,,,,,2021-10-26,1,,,,,ハイロード,0
1412,6011001143640,新規,0,2021-10-26,2021-10-26,株式会社ＡＩＭ,,株式会社,東京都,渋谷区,千駄ヶ谷５丁目３０番１号ＺＯＯＭ新宿南Ｓｅｃｏｎｄ１２０４,,13,113,1510051,,,,,,,2021-10-26,1,,,,,エイム,0
1413,6011001143649,新規,0,2021-10-26,2021-10-26,株式会社イネブラ,,株式会社,東京都,渋谷区,広尾５丁目４番１１－５０６号,,13,113,1500012,,,,,,,2021-10-26,1,,,,,イネブラ,0
1418,6011101096573,新規,0,2021-10-26,2021-10-26,株式会社Ｌ－ａｒｋ,,株式会社,東京都,新宿区,新宿１丁目３６番２新宿第七葉山ビル３階,,13,104,1600022,,,,,,,2021-10-26,1,,,,,ラーク,0
1419,6011101096656,新規,0,2021-10-26,2021-10-26,耳順株式会社,,株式会社,東京都,新宿区,北新宿１丁目２８番３号,,13,104,1690074,,,,,,,2021-10-26,1,,,,,ジジュン,0
1420,6011101096689,新規,0,2021-10-26,2021-10-26,株式会社ノドナド,,株式会社,東京都,新宿区,新宿５丁目１１番１８号,,13,104,1600022,,,,,,,2021-10-26,1,,,,,ノドナド,0
1426,6011501027418,新規,0,2021-10-26,2021-10-26,株式会社Ｈｉｍｉｋｏ,,株式会社,東京都,荒川区,南千住３丁目３０番１０号,,13,118,1160003,,,,,,,2021-10-26,1,,,,,ヒミコ,0
1427,6011501027426,新規,0,2021-10-26,2021-10-26,株式会社リパロ,,株式会社,東京都,北区,赤羽１丁目５１番２－２０１号,,13,117,1150045,,,,,,,2021-10-26,1,,,,,リパロ,0
1428,6011503004951,新規,0,2021-10-26,2021-10-26,高知４１ＰＸ合同会社,,合同会社,東京都,荒川区,西日暮里２丁目６番１８－２０１号,,13,118,1160013,,,,,,,2021-10-26,1,,,,,コウチフォーティーワンピーエックス,0
1443,6013101008756,新規,0,2021-10-26,2021-10-26,大石設備株式会社,,株式会社,東京都,あきる野市,牛沼２６６番地１０,,13,228,1970826,,,,,,,2021-10-26,1,,,,,オオイシセツビ,0
1444,6013103001081,新規,0,2021-10-26,2021-10-26,天海合同会社,,合同会社,東京都,羽村市,小作台５丁目２２番地４ロイヤルハイツＩＩ４０５,00124668,13,227,2050001,,,,,,,2021-10-26,1,,,,,テンカイ,0
1452,6020005015250,新規,0,2021-10-26,2021-10-26,一般社団法人マリアの炎,,その他の設立登記法人,神奈川県,横浜市鶴見区,鶴見中央４丁目３４番２６号ニックハイム鶴見千代田ビル８１０号,,14,101,2300051,,,,,,,2021-10-26,1,,,,,マリアノホノオ,0
1457,6021005012329,新規,0,2021-10-26,2021-10-26,社会保険労務士法人坂間事務所,,その他の設立登記法人,神奈川県,小田原市,浜町１丁目１番１０号,,14,206,2500004,,,,,,,2021-10-26,1,,,,,サカマジムショ,0
1466,6030001144936,新規,0,2021-10-26,2021-10-26,株式会社吉野建設工業,00124670,株式会社,埼玉県,深谷市,小前田８８７番地１,,11,218,3691246,,,,,,,2021-10-26,1,,,,,ヨシノケンセツコウギョウ,0
1467,6030001145001,新規,0,2021-10-26,2021-10-26,株式会社Ｗ・Ｃ・Ｐ,,株式会社,埼玉県,深谷市,上野台６０８番地２４,,11,218,3660801,,,,,,,2021-10-26,1,,,,,ダブリューシーピー,0
1476,6040001120705,新規,0,2021-10-26,2021-10-26,株式会社織戸技建,,株式会社,千葉県,船橋市,馬込町９４６番地１３－１０５号,,12,204,2730851,,,,,,,2021-10-26,1,,,,,オリドギケン,0
1481,6050001050034,新規,0,2021-10-26,2021-10-26,株式会社ケーアイプロジェクト,,株式会社,茨城県,常総市,豊岡町乙１１９３－２６ＥｘｃｅｌｌｅｎｔＰａｌａｃｅ１０１,,08,211,3030041,,,,,,,2021-10-26,1,,,,,ケーアイプロジェクト,0
1485,6070001038572,新規,0,2021-10-26,2021-10-26,株式会社初山ホールディングス,,株式会社,群馬県,邑楽郡千代田町,大字赤岩９７９番地,,10,523,3700503,,,,,,,2021-10-26,1,,,,,ハツヤマホールディングス,0
1488,6070003004275,新規,0,2021-10-26,2021-10-26,阪東ホールディングス合同会社,,合同会社,群馬県,渋川市,渋川８７５番地２,,10,208,3770008,,,,,,,2021-10-26,1,,,,,バンドーホールディングス,0
1490,6080401025434,新規,0,2021-10-26,2021-10-26,株式会社１９２９,,株式会社,静岡県,浜松市中区,蜆塚１丁目１８番２９号,,22,131,4328018,,,,,,,2021-10-26,1,,,,,イチキュウニキュウ,0
1498,6100001034758,新規,0,2021-10-26,2021-10-26,株式会社百華,,株式会社,長野県,長野市,大字中御所岡田町１３０番地９キャピタル長野１階,,20,201,3800936,,,,,,,2021-10-26,1,,,,,ヒャッカ,0
1512,6120001241352,新規,0,2021-10-26,2021-10-26,株式会社一心ホールディングス,,株式会社,大阪府,大阪市平野区,瓜破１丁目１番１１－１００２号,,27,126,5470024,,,,,,,2021-10-26,1,,,,,イッシンホールディングス,0
1513,6120001241393,新規,0,2021-10-26,2021-10-26,Ｓｗｏｒｄ株式会社,,株式会社,大阪府,大阪市淀川区,十三本町１丁目６番１９号１４０２号,,27,123,5320024,,,,,,,2021-10-26,1,,,,,ソード,0
1517,6120003020465,新規,0,2021-10-26,2021-10-26,合同会社ＫＳフードサービス,,合同会社,大阪府,大阪市東淀川区,下新庄２丁目２番１３号,,27,114,5330021,,,,,,,2021-10-26,1,,,,,ケイエスフードサービス,0
1523,6120105009464,新規,0,2021-10-26,2021-10-26,一般社団法人Ｗｈｉｔｅ,,その他の設立登記法人,大阪府,松原市,阿保３丁目１７番２７号,,27,217,5800043,,,,,,,2021-10-26,1,,,,,ホワイト,0
1549,6140001123607,新規,0,2021-10-26,2021-10-26,株式会社エイチティサービス,,株式会社,兵庫県,姫路市,西新町１２３番地,,28,201,6700033,,,,,,,2021-10-26,1,,,,,エイチティサービス,0
1551,6140003016899,新規,0,2021-10-26,2021-10-26,Ｏｃｔｅｔ合同会社,,合同会社,兵庫県,宝塚市,山本台３丁目５番１３号,,28,214,6650885,,,,,,,2021-10-26,1,,,,,オクテット,0
1552,6140003016908,新規,0,2021-10-26,2021-10-26,合同会社両荘の里,,合同会社,兵庫県,加古川市,加古川町粟津３１０番地の４リベール加古川Ｆ’Ｓコート６０２号,,28,210,6750039,,,,,,,2021-10-26,1,,,,,リョウソウノサト,0
1555,6150001025042,新規,0,2021-10-26,2021-10-26,河合商事株式会社,,株式会社,奈良県,桜井市,大字河西１８番地,,29,206,6330051,,,,,,,2021-10-26,1,,,,,カワイショウジ,0
1556,6160001023747,新規,0,2021-10-26,2021-10-26,株式会社夏みかん,,株式会社,滋賀県,米原市,宇賀野１０５番地１３,,25,214,5210062,,,,,,,2021-10-26,1,,,,,ナツミカン,0
1569,6180003023116,新規,0,2021-10-26,2021-10-26,合資会社Ｍｉｒａｃｌｅ,,合資会社,愛知県,名古屋市中区,金山１丁目１５番６号,,23,106,4600022,,,,,,,2021-10-26,1,,,,,ミラクル,0
1584,6200001039326,新規,0,2021-10-26,2021-10-26,浅井建設株式会社,,株式会社,岐阜県,羽島市,竹鼻町丸の内８丁目２９,,21,209,5016244,,,,,,,2021-10-26,1,,,,,アサイケンセツ,0
1599,6240002029677,新規,0,2021-10-26,2021-10-26,有限会社吉川木工所,,有限会社,広島県,山県郡北広島町,阿坂３３４１番地,,34,369,7311222,,,,,,,2021-10-26,1,,,,,キッカワモッコウショ,0
1611,6290001095105,新規,0,2021-10-26,2021-10-26,株式会社ＩＲＩＳ,,株式会社,福岡県,八女市,本町１番地２６６,,40,210,8340031,,,,,,,2021-10-26,1,,,,,イーリス,0
1613,6290003011753,新規,0,2021-10-26,2021-10-26,ＮＹ合同会社,,合同会社,福岡県,福岡市博多区,青木１丁目１９－１,,40,132,8120851,,,,,,,2021-10-26,1,,,,,エヌワイ,0
1614,6290005018400,新規,0,2021-10-26,2021-10-26,一般社団法人九州台湾商会,,その他の設立登記法人,福岡県,福岡市中央区,天神２丁目９番９号新天町地下街ファーボストーンパーク内,,40,133,8100001,,,,,,,2021-10-26,1,,,,,キュウシュウタイワンショウカイ,0
1620,6330001029108,新規,0,2021-10-26,2021-10-26,株式会社ＴＯＲＹＯ,,株式会社,熊本県,阿蘇郡西原村,大字小森６１８番地１１,,43,432,8612402,,,,,,,2021-10-26,1,,,,,トウリョウ,0
1627,6350003003950,新規,0,2021-10-26,2021-10-26,合同会社ＭＥＲ,,合同会社,宮崎県,宮崎市,橘通東４丁目１－４,,45,201,8800805,,,,,,,2021-10-26,1,,,,,エムイーアール,0
1628,6360001029550,新規,0,2021-10-26,2021-10-26,株式会社ＡＧＡＲＩ,,株式会社,沖縄県,国頭郡大宜味村,字根路銘２２６８番地３,,47,302,9051307,,,,,,,2021-10-26,1,,,,,アガリ,0
1631,6370005010373,新規,0,2021-10-26,2021-10-26,特定非営利活動法人ヴィータ,,その他の設立登記法人,宮城県,仙台市青葉区,柏木２丁目４番１６－１０４号,,04,101,9810933,,,,,,,2021-10-26,1,,,,,ヴィータ,0
1643,6430003013289,新規,0,2021-10-26,2021-10-26,合同会社Ｕ,,合同会社,北海道,石狩市,生振５４０番５８,,01,235,0613245,,,,,,,2021-10-26,1,,,,,ユー,0
1647,6490002013409,新規,0,2021-10-26,2021-10-26,有限会社嶋田豆腐店,,有限会社,高知県,土佐市,高岡町乙１３９５番地１,,39,205,7811102,,,,,,,2021-10-26,1,,,,,シマダトウフテン,0
1651,6700150105522,新規,0,2021-10-26,2021-10-26,ＦＵＪＩ　ＡＵＴＯ　ＦＬＡＳＨ　ＰＲＩＶＡＴＥ　ＬＩＭＩＴＥＤ,,外国会社等,千葉県,柏市,逆井２丁目１９－１５コーポ高津１,,12,217,2770042,スリランカ民主社会主義共和国ウェンナップワ州チロウ・ロードＮｏ．２７９,,,,,,2021-10-26,1,,,,,フジオートフラツシユプライベートリミテツド,0
1663,7010001222049,新規,0,2021-10-26,2021-10-26,株式会社ＳＧＴサービス,,株式会社,東京都,中央区,日本橋蛎殻町１丁目６番４号,,13,102,1030014,,,,,,,2021-10-26,1,,,,,エスジーティーサービス,0
1665,7010003036083,新規,0,2021-10-26,2021-10-26,ＯｎｅＳｉｄｅ合同会社,,合同会社,東京都,千代田区,内神田１丁目１２番７号,,13,101,1010047,,,,,,,2021-10-26,1,,,,,ワンサイド,0
1666,7010003036109,新規,0,2021-10-26,2021-10-26,合同会社Ｋｏｌｌａｂｏ．ｂｉＺ,,合同会社,東京都,千代田区,丸の内１丁目８番３号丸の内トラストタワー本館２０階,,13,101,1000005,,,,,,,2021-10-26,1,,,,,コラボドットビズ,0
1667,7010005034143,新規,0,2021-10-26,2021-10-26,ＧＳＳＧ　Ｓｏｌａｒ　Ｊａｐａｎ　Ｈｏｌｄｉｎｇｓ３ａ一般社団法人,,その他の設立登記法人,東京都,千代田区,丸の内３丁目１番１号東京共同会計事務所内,,13,101,1000005,,,,,,,2021-10-26,1,,,,,ジーエスエスジーソーラージャパンホールディングススリーエー,0
1685,7010401163446,新規,0,2021-10-26,2021-10-26,アルカナエナジー株式会社,,株式会社,東京都,港区,六本木１丁目４番５号,,13,103,1060032,,,,,,,2021-10-26,1,,,,,アルカナエナジー,0
1686,7010401163454,新規,0,2021-10-26,2021-10-26,ＡＨＲＥＳ株式会社,,株式会社,東京都,港区,北青山３丁目５番１７号,,13,103,1070061,,,,,,,2021-10-26,1,,,,,アーレス,0
1688,7010403026386,新規,0,2021-10-26,2021-10-26,合同会社よろづや,,合同会社,東京都,港区,赤坂７丁目６番３０号,,13,103,1070052,,,,,,,2021-10-26,1,,,,,ヨロヅヤ,0
1700,7010703005981,新規,0,2021-10-26,2021-10-26,合同会社カルペ・ディエム,,合同会社,東京都,品川区,西大井１丁目１番２－２００７号,,13,109,1400015,,,,,,,2021-10-26,1,,,,,カルペディエム,0
1705,7011001143607,新規,0,2021-10-26,2021-10-26,ＣＩコンサルティング株式会社,,株式会社,東京都,渋谷区,東３丁目２２番１４号,,13,113,1500011,,,,,,,2021-10-26,1,,,,,シーアイコンサルティング,0
1711,7011101096696,新規,0,2021-10-26,2021-10-26,株式会社ケイアイ,,株式会社,東京都,新宿区,西新宿８丁目１３番１０号,,13,104,1600023,,,,,,,2021-10-26,1,,,,,ケイアイ,0
1715,7011405002169,新規,0,2021-10-26,2021-10-26,ＮＩＣＥ　ＵＲＢＡＮ池袋山手通り管理組合法人,,その他の設立登記法人,東京都,板橋区,熊野町２番１０号,,13,119,1730025,,,,,,,2021-10-26,1,,,,,ナイスアーバンイケブクロヤマテドオリ,0
1717,7011501027409,新規,0,2021-10-26,2021-10-26,双鹿国際株式会社,,株式会社,東京都,荒川区,荒川２丁目４２番３号,,13,118,1160002,,,,,,,2021-10-26,1,,,,,ソウロクコクサイ,0
1718,7011501027425,新規,0,2021-10-26,2021-10-26,株式会社ロイヤル商事,,株式会社,東京都,北区,東十条３丁目１６番９号第一ヒロビル４Ｆ,,13,117,1140001,,,,,,,2021-10-26,1,,,,,ロイヤルショウジ,0
1722,7011601025485,新規,0,2021-10-26,2021-10-26,株式会社ハブ塗装,,株式会社,東京都,練馬区,錦１丁目１９番２０号,,13,120,1790082,,,,,,,2021-10-26,1,,,,,ハブトソウ,0
1723,7011603003423,新規,0,2021-10-26,2021-10-26,合同会社ワンスタイル,,合同会社,東京都,練馬区,田柄５丁目６番９－２０２号,,13,120,1790073,,,,,,,2021-10-26,1,,,,,ワンスタイル,0
1728,7011703002977,新規,0,2021-10-26,2021-10-26,ＭＡＳＵＭ・Ｋ合同会社,,合同会社,東京都,江戸川区,南小岩５丁目２番４号,,13,123,1330056,,,,,,,2021-10-26,1,,,,,マスムケー,0
1734,7012801021183,新規,0,2021-10-26,2021-10-26,ＡＣＥ株式会社,,株式会社,東京都,日野市,程久保３丁目２０－７,,13,212,1910042,,,,,,,2021-10-26,1,,,,,エーシーイー,0
1740,7013301048196,新規,0,2021-10-26,2021-10-26,株式会社Ｆооｔｍａｒｋｓ,,株式会社,東京都,豊島区,巣鴨１丁目２１番５－８０２号,,13,116,1700002,,,,,,,2021-10-26,1,,,,,フットマークス,0
1751,7020003020689,新規,0,2021-10-26,2021-10-26,合同会社シーナリーＲ,,合同会社,神奈川県,川崎市多摩区,布田１５－１３ハウスＫ２０１,,14,135,2140011,,,,,,,2021-10-26,1,,,,,シーナリーアール,0
1760,7021001074272,新規,0,2021-10-26,2021-10-26,株式会社吉田組,00124622,株式会社,神奈川県,厚木市,上依知２１６番地,,14,212,2430801,,,,,,,2021-10-26,1,,,,,ヨシダグミ,0
1761,7021001074322,新規,0,2021-10-26,2021-10-26,株式会社ここみらい,,株式会社,神奈川県,横須賀市,馬堀海岸２丁目２５番１０号,,14,201,2390801,,,,,,,2021-10-26,1,,,,,ココミライ,0
1792,7040001120712,新規,0,2021-10-26,2021-10-26,株式会社ゆう企画設計,,株式会社,千葉県,船橋市,松が丘１丁目３８番１２号,,12,204,2740064,,,,,,,2021-10-26,1,,,,,ユウキカクセッケイ,0
1793,7040001120729,新規,0,2021-10-26,2021-10-26,株式会社ゼッド・エス・トレーディング,,株式会社,千葉県,袖ケ浦市,川原井２０１８番地５,,12,229,2990201,,,,,,,2021-10-26,1,,,,,ゼッドエストレーディング,0
1806,7070001038563,新規,0,2021-10-26,2021-10-26,株式会社オフィスＭ,,株式会社,群馬県,高崎市,飯塚町３３５番地１セイラＢＯＸ飯塚ＩＩ２０５号,00124669,10,202,3700069,,,,,,,2021-10-26,1,,,,,オフィスエム,0
1818,7100005012783,新規,0,2021-10-26,2021-10-26,医療法人一理堂,,その他の設立登記法人,長野県,上田市,中央３丁目１６番３号,,20,203,3860012,,,,,,,2021-10-26,1,,,,,イチリドウ,0
1835,7120001241351,新規,0,2021-10-26,2021-10-26,株式会社ライズ,,株式会社,大阪府,大阪市東淀川区,東中島４丁目１番１８号,,27,114,5330033,,,,,,,2021-10-26,1,,,,,ライズ,0
1836,7120001241384,新規,0,2021-10-26,2021-10-26,株式会社ライフプラス,,株式会社,大阪府,大阪市浪速区,難波中３丁目５番１７号８階,,27,111,5560011,,,,,,,2021-10-26,1,,,,,ライフプラス,0
1839,7120003020464,新規,0,2021-10-26,2021-10-26,合同会社さくら堂,,合同会社,大阪府,大阪市生野区,中川東２丁目１１番８－２１６号,,27,116,5440006,,,,,,,2021-10-26,1,,,,,サクラドウ,0
1846,7120903003857,新規,0,2021-10-26,2021-10-26,合同会社ｍｉｅｕｘ,,合同会社,大阪府,茨木市,主原町７番茨木主原ビューハイツ１０７,,27,211,5670897,,,,,,,2021-10-26,1,,,,,ミユー,0
1859,7140003016898,新規,0,2021-10-26,2021-10-26,ディバイン・プラン・ジャパン合同会社,,合同会社,兵庫県,神戸市西区,糀台２丁目２６番地１－１２１４号,,28,111,6512273,,,,,,,2021-10-26,1,,,,,ディバインプランジャパン,0
1860,7140003016907,新規,0,2021-10-26,2021-10-26,フジエントリー合同会社,,合同会社,兵庫県,西宮市,戸田町５－１,,28,204,6620916,,,,,,,2021-10-26,1,,,,,フジエントリー,0
1867,7160005011004,新規,0,2021-10-26,2021-10-26,一般社団法人コニャンナーレ,,その他の設立登記法人,滋賀県,湖南市,吉永１８０番地４（１０２号）,,25,211,5203222,,,,,,,2021-10-26,1,,,,,コニャンナーレ,0
1877,7180001148343,新規,0,2021-10-26,2021-10-26,株式会社エスロップ栄,,株式会社,愛知県,春日井市,東野新町１丁目４番地の１,,23,206,4860816,,,,,,,2021-10-26,1,,,,,エスロップサカエ,0
1879,7180003023115,新規,0,2021-10-26,2021-10-26,合同会社ヤマモト・トラスト,,合同会社,愛知県,名古屋市中区,千代田３丁目３２番８号アーバンラフレ鶴舞公園１棟７０５号,,23,106,4600012,,,,,,,2021-10-26,1,,,,,ヤマモトトラスト,0
1881,7180005019490,新規,0,2021-10-26,2021-10-26,行政書士法人ラバール,,その他の設立登記法人,愛知県,名古屋市中村区,香取町２丁目７番地の３,,23,105,4530055,,,,,,,2021-10-26,1,,,,,ラバール,0
1885,7180301035547,新規,0,2021-10-26,2021-10-26,株式会社ＳＩＬＬＹ,,株式会社,愛知県,豊橋市,東森岡１丁目２番地１９,,23,201,4411113,,,,,,,2021-10-26,1,,,,,シリー,0
1900,7240001058800,新規,0,2021-10-26,2021-10-26,株式会社Ｌｉｖ　ｉｎｖｅｓｔ,,株式会社,広島県,広島市佐伯区,石内北１丁目２２番１号,,34,108,7315109,,,,,,,2021-10-26,1,,,,,リブインヴェスト,0
1904,7260001036119,新規,0,2021-10-26,2021-10-26,はち株式会社,,株式会社,岡山県,岡山市中区,土田４７８－９,,33,102,7038217,,,,,,,2021-10-26,1,,,,,ハチ,0
1906,7260003003703,新規,0,2021-10-26,2021-10-26,冨岡商事合同会社,,合同会社,岡山県,倉敷市,福田町古新田８９２番地４,,33,202,7128046,,,,,,,2021-10-26,1,,,,,トミオカショウジ,0
1915,7290001095137,新規,0,2021-10-26,2021-10-26,株式会社デジタルエージェンシー橋口,,株式会社,福岡県,福岡市博多区,須崎町１１－３－７０２,,40,132,8120028,,,,,,,2021-10-26,1,,,,,デジタルエージェンシーハシグチ,0
1923,7320001018688,新規,0,2021-10-26,2021-10-26,株式会社コウシンテック,,株式会社,大分県,大分市,望みが丘３番地の５,,44,201,8700270,,,,,,,2021-10-26,1,,,,,,0
1936,7360005006537,新規,0,2021-10-26,2021-10-26,一般社団法人沖縄しまづくり政策連携機構,,その他の設立登記法人,沖縄県,宮古島市,平良字久貝７２６ー１,,47,214,9060015,,,,,,,2021-10-26,1,,,,,オキナワシマヅクリセイサクレンケイキコウ,0
1950,7430003013288,新規,0,2021-10-26,2021-10-26,合同会社ノルダレボ,,合同会社,北海道,札幌市清田区,有明１４１番７号,,01,110,0040821,,,,,,,2021-10-26,1,,,,,ノルダレボ,0
1962,7700150105513,新規,0,2021-10-26,2021-10-26,Ｍ．Ｎ．ＥＮＴＥＲＰＲＩＳＥＳ,,外国会社等,千葉県,山武市,木原１４０２番地オフィス１０号,,12,237,2891212,スリランカ民主社会主義共和国、ガルヒンナ、カッタップワ、２０１－１,,,,,,2021-10-26,1,,,,,エムエヌエンタープライセス,0
1969,8010001222007,新規,0,2021-10-26,2021-10-26,ＫｉｎｄＡｇｅｎｔ株式会社,,株式会社,東京都,千代田区,麹町２丁目１０番３号エキスパートオフィス麹町,,13,101,1020083,,,,,,,2021-10-26,1,,,,,カインドエージェント,0
1974,8010003036099,新規,0,2021-10-26,2021-10-26,合同会社Ｎｉｋｋｉ,,合同会社,東京都,中央区,銀座１丁目６番１１号土志田ビルディング３Ｆ,,13,102,1040061,,,,,,,2021-10-26,1,,,,,ニッキ,0
1979,8010401163412,新規,0,2021-10-26,2021-10-26,株式会社９ｓｅｃｏｎｄ,,株式会社,東京都,港区,南青山３丁目８番５号ＤｅＬＣＣＳ南青山３Ｆ,,13,103,1070062,,,,,,,2021-10-26,1,,,,,ナインセカンド,0
1980,8010401163429,新規,0,2021-10-26,2021-10-26,株式会社ＣＶＣ,,株式会社,東京都,港区,南青山７丁目１番２１－７０２号,,13,103,1070062,,,,,,,2021-10-26,1,,,,,シーヴイシー,0
1981,8010401163445,新規,0,2021-10-26,2021-10-26,株式会社Ｔｒｅａｔｅ．,,株式会社,東京都,港区,浜松町２丁目２番地１５号ダイヤビル２階,,13,103,1050013,,,,,,,2021-10-26,1,,,,,トリート,0
1992,8010601060120,新規,0,2021-10-26,2021-10-26,すこやかフーズ株式会社,,株式会社,東京都,墨田区,業平１丁目１８番５号,,13,107,1300002,,,,,,,2021-10-26,1,,,,,スコヤカフーズ,0
1999,8010805002892,新規,0,2021-10-26,2021-10-26,一般社団法人アクア・サイエンス・プロダクト協会,,その他の設立登記法人,東京都,大田区,西馬込２丁目３１番６号ルクレ西馬込３０１号室,,13,111,1430026,,,,,,,2021-10-26,1,,,,,アクアサイエンスプロダクトキョウカイ,0
2000,8010901049680,新規,0,2021-10-26,2021-10-26,株式会社レーヴィズプロダクション,,株式会社,東京都,世田谷区,北沢２丁目３６番１４号ガーデンテラス下北沢３０１,,13,112,1550031,,,,,,,2021-10-26,1,,,,,レーヴィズプロダクション,0
2005,8011001143614,新規,0,2021-10-26,2021-10-26,株式会社スタンドバイミー,,株式会社,東京都,渋谷区,神宮前６丁目２３番４号桑野ビル２階,,13,113,1500001,,,,,,,2021-10-26,1,,,,,スタンドバイミー,0
2021,8011703002976,新規,0,2021-10-26,2021-10-26,合同会社東京葛南建築事務所,,合同会社,東京都,江戸川区,南葛西５丁目１７番５－４１２号,,13,123,1340085,,,,,,,2021-10-26,1,,,,,トウキョウカツナンケンチクジムショ,0
2023,8011801039879,新規,0,2021-10-26,2021-10-26,相双商事株式会社,,株式会社,東京都,足立区,新田３丁目３１番６－４０１号,,13,121,1230865,,,,,,,2021-10-26,1,,,,,,0
2031,8012401038461,新規,0,2021-10-26,2021-10-26,株式会社ｔｏｋｙｏ　ＡＭＡＭＩ,,株式会社,東京都,武蔵野市,吉祥寺本町１丁目２５番１０号ＫＳ－２ビル,,13,203,1800004,,,,,,,2021-10-26,1,,,,,トウキョウアマミ,0
2033,8012703002339,新規,0,2021-10-26,2021-10-26,合同会社ＨＬＣ,,合同会社,東京都,東久留米市,南沢１丁目１６番２７号リバーサイドハイムＣ１０７号室,,13,222,2030023,,,,,,,2021-10-26,1,,,,,エイチエルシー,0
2038,8013301048204,新規,0,2021-10-26,2021-10-26,ＤＣファイナンシャル・パートナーズ株式会社,,株式会社,東京都,豊島区,東池袋１丁目４２番１４号,,13,116,1700013,,,,,,,2021-10-26,1,,,,,ディーシーファイナンシャルパートナーズ,0
2039,8013303005871,新規,0,2021-10-26,2021-10-26,オフィスＦＵＪＩＭＯＴＯ合資会社,,合資会社,東京都,豊島区,高松２丁目１１番１３号,,13,116,1710042,,,,,,,2021-10-26,1,,,,,オフィスフジモト,0
2044,8020001143623,新規,0,2021-10-26,2021-10-26,株式会社ヒグチ,,株式会社,神奈川県,横浜市都筑区,中川中央１丁目２３番４号,,14,118,2240003,,,,,,,2021-10-26,1,,,,,ヒグチ,0
2045,8020001143631,新規,0,2021-10-26,2021-10-26,株式会社マツモトフーズ,,株式会社,神奈川県,横浜市港北区,日吉本町１丁目３８番３－４１９号,,14,109,2230062,,,,,,,2021-10-26,1,,,,,マツモトフーズ,0
2047,8020003020705,新規,0,2021-10-26,2021-10-26,合同会社ＫＥＹ．ｗａｄ,,合同会社,神奈川県,横浜市鶴見区,鶴見中央４丁目３０番４－７０３号,,14,101,2300051,,,,,,,2021-10-26,1,,,,,キーワダ,0
2048,8020005015249,新規,0,2021-10-26,2021-10-26,一般社団法人ＡＥＩ,,その他の設立登記法人,神奈川県,横浜市鶴見区,栄町通１丁目４番地１２号,,14,101,2300038,,,,,,,2021-10-26,1,,,,,エーイーアイ,0
2053,8030001144934,新規,0,2021-10-26,2021-10-26,株式会社イコール,,株式会社,埼玉県,蓮田市,蓮田２丁目２５１番地２,,11,238,3490115,,,,,,,2021-10-26,1,,,,,イコール,0
2054,8030001144967,新規,0,2021-10-26,2021-10-26,株式会社ＳＡＩＫＥＮ工業,,株式会社,埼玉県,加須市,北小浜８１７番地２,,11,210,3470011,,,,,,,2021-10-26,1,,,,,サイケンコウギョウ,0
2068,8040001120711,新規,0,2021-10-26,2021-10-26,株式会社プリンセス通商,,株式会社,千葉県,柏市,あけぼの３丁目１番２１号,,12,217,2770841,,,,,,,2021-10-26,1,,,,,プリンセスツウショウ,0
2071,8040003018805,新規,0,2021-10-26,2021-10-26,合同会社サイメンス,,合同会社,千葉県,船橋市,本町２丁目２１番２６号２０１,,12,204,2730005,,,,,,,2021-10-26,1,,,,,サイメンス,0
2074,8050001050016,新規,0,2021-10-26,2021-10-26,太陽建設株式会社,,株式会社,茨城県,猿島郡境町,大字長井戸１６８９番地の１,,08,546,3060404,,,,,,,2021-10-26,1,,,,,タイヨウケンセツ,0
2075,8050001050040,新規,0,2021-10-26,2021-10-26,株式会社Ｄｏｅｓｎ’ｔ　ｍａｔｔｅｒ,,株式会社,茨城県,結城市,下り松３丁目２５－６,,08,207,3070008,,,,,,,2021-10-26,1,,,,,ダズントマター,0
2093,8080101022861,新規,0,2021-10-26,2021-10-26,株式会社ノースフィールド,,株式会社,静岡県,伊東市,宇佐美３５９４－４１１,,22,208,4140001,,,,,,,2021-10-26,1,,,,,ノースフィールド,0
2099,8100003006274,新規,0,2021-10-26,2021-10-26,ロピード合同会社,,合同会社,長野県,松本市,寿北５丁目１９番５号,,20,202,3990011,,,,,,,2021-10-26,1,,,,,ロピード,0
2117,8120001241276,新規,0,2021-10-26,2021-10-26,株式会社Ｃａｒｓ　ＪＡＰＡＮ,,株式会社,大阪府,大阪市生野区,巽東４丁目６番２０号,,27,116,5440014,,,,,,,2021-10-26,1,,,,,カーズジャパン,0
2121,8120003020471,新規,0,2021-10-26,2021-10-26,合同会社ＮＡＮＡＩＲＯ　ＫＩＫＡＫＵ,,合同会社,大阪府,大阪市北区,梅田１丁目１１番４号大阪駅前第４ビル９階９２３－１６０６号,,27,127,5300001,,,,,,,2021-10-26,1,,,,,ナナイロキカク,0
2123,8120101064544,新規,0,2021-10-26,2021-10-26,株式会社ファミリームレジデンス,,株式会社,大阪府,泉佐野市,日根野３８８４番地の１２,,27,213,5980021,,,,,,,2021-10-26,1,,,,,ファミリームレジデンス,0
2126,8120903003856,新規,0,2021-10-26,2021-10-26,合同会社ｓｉｄａ,,合同会社,大阪府,茨木市,別院町３番３４号,,27,211,5670817,,,,,,,2021-10-26,1,,,,,シダ,0
2127,8120903003880,新規,0,2021-10-26,2021-10-26,デイジーＭｉｎｏｈ合同会社,,合同会社,大阪府,箕面市,小野原西３丁目２２番８号,,27,220,5620032,,,,,,,2021-10-26,1,,,,,デイジーミノオ,0
2132,8130001070402,新規,0,2021-10-26,2021-10-26,株式会社ＴＲＹ　ＡＧＡＩＮ,,株式会社,京都府,京都市上京区,七本松通五辻上る老松町１０４６番地２,00124671,26,102,6028318,,,,,,,2021-10-26,1,,,,,トライアゲイン,0
2140,8140003016889,新規,0,2021-10-26,2021-10-26,合同会社Ｔ．ｃｏｌｌｅｃｔｉｏｎｓ,,合同会社,兵庫県,高砂市,中島１丁目１７番２１－３号,,28,216,6760001,,,,,,,2021-10-26,1,,,,,ティーコレクションズ,0
2142,8140005025871,新規,0,2021-10-26,2021-10-26,一般社団法人日本３Ｄ教育協会,,その他の設立登記法人,兵庫県,三田市,あかしあ台３丁目２７番地２・４棟３０３号,,28,219,6691323,,,,,,,2021-10-26,1,,,,,ニホンスリーディーキョウイクキョウカイ,0
2144,8150003002533,新規,0,2021-10-26,2021-10-26,ホルバル合同会社,,合同会社,奈良県,橿原市,葛本町１４７番地の３,,29,205,6340007,,,,,,,2021-10-26,1,,,,,ホルバル,0
2147,8180001148409,新規,0,2021-10-26,2021-10-26,株式会社ＳＴプラン,,株式会社,愛知県,名古屋市中川区,八剱町４丁目１０番地,00124667,23,110,4540054,,,,,,,2021-10-26,1,,,,,エスティプラン,0
2148,8180001148425,新規,0,2021-10-26,2021-10-26,彌榮株式会社,,株式会社,愛知県,名古屋市西区,花の木１丁目１番１７号,,23,104,4510062,,,,,,,2021-10-26,1,,,,,イヤサカエ,0
2153,8180301035546,新規,0,2021-10-26,2021-10-26,株式会社あずま商店,,株式会社,愛知県,西尾市,東幡豆町森７番地,,23,213,4440701,,,,,,,2021-10-26,1,,,,,アズマショウテン,0
2160,8230001019050,新規,0,2021-10-26,2021-10-26,株式会社ジャパンパワーボトラーズ,,株式会社,富山県,魚津市,石垣３３１－２,,16,204,9370814,,,,,,,2021-10-26,1,,,,,ジャパンパワーボトラーズ,0
2167,8240003005337,新規,0,2021-10-26,2021-10-26,合同会社アトリエ芸術社,,合同会社,広島県,広島市西区,横川町３丁目５番２７号,,34,104,7330011,,,,,,,2021-10-26,1,,,,,アトリエゲイジュツシャ,0
2170,8260001036118,新規,0,2021-10-26,2021-10-26,裕建工業株式会社,,株式会社,岡山県,倉敷市,鳥羽１２１４－３,,33,202,7100012,,,,,,,2021-10-26,1,,,,,ユウケンコウギョウ,0
2173,8260003003702,新規,0,2021-10-26,2021-10-26,一合同会社,,合同会社,岡山県,倉敷市,林２１７１－３,,33,202,7100142,,,,,,,2021-10-26,1,,,,,ハジメ,0
2174,8260005010985,新規,0,2021-10-26,2021-10-26,一般社団法人ＪＣＣ,,その他の設立登記法人,岡山県,岡山市北区,中井町２丁目１－６第２松島ビル１階,,33,101,7000804,,,,,,,2021-10-26,1,,,,,ジェイシーシー,0
2182,8290001095111,新規,0,2021-10-26,2021-10-26,株式会社Ｎａｔｕｒａｌ‐Ｇｒｏｗｔｈ,,株式会社,福岡県,福津市,宮司浜４丁目２番１５号Ｍａｕｉ２０５,,40,224,8113311,,,,,,,2021-10-26,1,,,,,ナチュラルグロウス,0
2183,8290001095136,新規,0,2021-10-26,2021-10-26,株式会社アールティーアール,,株式会社,福岡県,福岡市中央区,清川２丁目５番３３号アクタス渡辺通りパークシティ１００２,,40,133,8100005,,,,,,,2021-10-26,1,,,,,アールティーアール,0
2188,8290003011743,新規,0,2021-10-26,2021-10-26,合同会社タイト,,合同会社,福岡県,久留米市,東櫛原町７４３番地５,00124675,40,203,8300003,,,,,,,2021-10-26,1,,,,,タイト,0
2190,8290801027932,新規,0,2021-10-26,2021-10-26,株式会社和正,,株式会社,福岡県,北九州市小倉北区,紺屋町１番１－６０１号,,40,106,8020081,,,,,,,2021-10-26,1,,,,,ワセイ,0
2192,8290803003964,新規,0,2021-10-26,2021-10-26,トータルシステム合同会社,,合同会社,福岡県,北九州市戸畑区,牧山１丁目４番１０号,,40,105,8040053,,,,,,,2021-10-26,1,,,,,トータルシステム,0
2197,8290805009480,新規,0,2021-10-26,2021-10-26,特定非営利活動法人猪倉里山を守る会,,その他の設立登記法人,福岡県,北九州市八幡東区,猪倉町５番１０号,,40,108,8050037,,,,,,,2021-10-26,1,,,,,イノクラサトヤマヲマモルカイ,0
2200,8320001018687,新規,0,2021-10-26,2021-10-26,株式会社ネクストイノベーション,,株式会社,大分県,大分市,大字下郡６７０番地の２９,,44,201,8700951,,,,,,,2021-10-26,1,,,,,ネクストイノベーション,0
2204,8330001029106,新規,0,2021-10-26,2021-10-26,株式会社丸石建築,,株式会社,熊本県,熊本市南区,城南町舞原１９９番地１１,,43,104,8614214,,,,,,,2021-10-26,1,,,,,マルイシケンチク,0
2206,8340001024196,新規,0,2021-10-26,2021-10-26,株式会社ＳｍｉｌｅｓＭｉｌｅｓ,,株式会社,鹿児島県,奄美市,名瀬塩浜町２番１９号,,46,222,8940035,,,,,,,2021-10-26,1,,,,,スマイルズマイルズ,0
2219,8370003005456,新規,0,2021-10-26,2021-10-26,合同会社ＦＬＡＴ,,合同会社,宮城県,仙台市青葉区,一番町２丁目２－８ＩＫＩビル４Ｆ－１,,04,101,9800811,,,,,,,2021-10-26,1,,,,,フラット,0
2241,8430001085238,新規,0,2021-10-26,2021-10-26,株式会社ストーンリバー,,株式会社,北海道,札幌市手稲区,前田五条１１丁目２番２５号,,01,109,0060815,,,,,,,2021-10-26,1,,,,,ストーンリバー,0
2243,8430003013287,新規,0,2021-10-26,2021-10-26,合同会社吉田経営研究所,,合同会社,北海道,札幌市中央区,南一条東２丁目１１番地１ノーザンヒルズ大通東９階Ｈ室,,01,101,0600051,,,,,,,2021-10-26,1,,,,,ヨシダケイエイケンキュウショ,0
2246,8480003001741,新規,0,2021-10-26,2021-10-26,合同会社サービスＴＶＨ,,合同会社,徳島県,徳島市,寺島本町東２丁目３１番地１階,,36,201,7700832,,,,,,,2021-10-26,1,,,,,サービスティーブイエイチ,0
2248,8700150105512,新規,0,2021-10-26,2021-10-26,ＲＹＯＴＯ　ＨＯＬＤＩＮＧＳ　ＰＶＴ　ＬＴＤ,,外国会社等,千葉県,山武郡九十九里町,藤下１０２７タマオフィスサポート九十九里１－Ｃ,,12,403,2830112,スリランカ民主社会主義共和国、バツゴダ、カサワッタ、Ｎｏ：４７３／３,,,,,,2021-10-26,1,,,,,リヨトホールデイングスプライベートリミテツド,0
2254,9010001222014,新規,0,2021-10-26,2021-10-26,株式会社ＲＩＳＥ,,株式会社,東京都,中央区,日本橋２丁目２番３号ＲＩＳＨＥビルＵＣＦ４階,,13,102,1030027,,,,,,,2021-10-26,1,,,,,ライズ,0
2255,9010001222071,新規,0,2021-10-26,2021-10-26,サンエス不動産管理株式会社,,株式会社,東京都,中央区,銀座１丁目５番２号,,13,102,1040061,,,,,,,2021-10-26,1,,,,,サンエスフドウサンカンリ,0
2258,9010005034125,新規,0,2021-10-26,2021-10-26,一般社団法人日本児童相談業務評価機関,,その他の設立登記法人,東京都,文京区,水道２丁目４番３号オフィス大岩４０２,,13,105,1120005,,,,,,,2021-10-26,1,,,,,ニホンジドウソウダンギョウムヒョウカキカン,0
2265,9010401163394,新規,0,2021-10-26,2021-10-26,株式会社Ｆａｃｉｌｏ,,株式会社,東京都,港区,六本木４丁目８－７,,13,103,1060032,,,,,,,2021-10-26,1,,,,,ファシロ,0
2266,9010401163428,新規,0,2021-10-26,2021-10-26,株式会社ＤＡＷＮ,,株式会社,東京都,港区,六本木４丁目５番１１号ＳＩＸ４階,,13,103,1060032,,,,,,,2021-10-26,1,,,,,ドーン,0
2267,9010401163436,新規,0,2021-10-26,2021-10-26,株式会社ＡｎｎＲｏｃｋ,,株式会社,東京都,港区,南青山２丁目２－１５ＷＩＮ青山５３１,,13,103,1070062,,,,,,,2021-10-26,1,,,,,アンロック,0
2268,9010401163444,新規,0,2021-10-26,2021-10-26,株式会社ＫＳプランニング,,株式会社,東京都,港区,南青山５丁目１７番２号,,13,103,1070062,,,,,,,2021-10-26,1,,,,,ケイエスプランニング,0
2269,9010403026401,新規,0,2021-10-26,2021-10-26,合同会社Ｅｉｇｈｔ　Ｃａｐｉｔａｌ　Ｊａｐａｎ,,合同会社,東京都,港区,西麻布３丁目２番１３－８０６号,,13,103,1060031,,,,,,,2021-10-26,1,,,,,エイトキャピタルジャパン,0
2278,9010901049663,新規,0,2021-10-26,2021-10-26,株式会社３ラン,,株式会社,東京都,世田谷区,深沢３丁目１１番１２号,,13,112,1580081,,,,,,,2021-10-26,1,,,,,ミラン,0
2286,9011001143605,新規,0,2021-10-26,2021-10-26,ｇｏｏｏｏｄｓ株式会社,,株式会社,東京都,渋谷区,宇田川町２番１号,,13,113,1500042,,,,,,,2021-10-26,1,,,,,グッズ,0
2287,9011001143662,新規,0,2021-10-26,2021-10-26,株式会社デトロイトシックス,,株式会社,東京都,目黒区,上目黒３丁目１２番１０号コージーコート２０１,,13,110,1530051,,,,,,,2021-10-26,1,,,,,デトロイトシックス,0
2298,9011101096686,新規,0,2021-10-26,2021-10-26,クラウドバンド株式会社,,株式会社,東京都,新宿区,西新宿３丁目２番９号新宿ワシントンホテルビル本館２Ｆ、ＴＨＥ－ＨＵＢ新宿ワシントン,,13,104,1600023,,,,,,,2021-10-26,1,,,,,クラウドバンド,0
2299,9011101096694,新規,0,2021-10-26,2021-10-26,株式会社ＪＷ　ＩＮＴＥＲＮＡＴＩＯＮＡＬ,,株式会社,東京都,新宿区,荒木町１８番地７－３０２号,,13,104,1600007,,,,,,,2021-10-26,1,,,,,,0
2300,9011103011107,新規,0,2021-10-26,2021-10-26,ＧＬＡＤ　Ｓｏｕｎｄ合同会社,,合同会社,東京都,新宿区,高田馬場４丁目１０番１４号,,13,104,1690075,,,,,,,2021-10-26,1,,,,,グラッドサウンド,0
2303,9011203003672,新規,0,2021-10-26,2021-10-26,合同会社みらくるだいち,,合同会社,東京都,中野区,中央２丁目２６－６－３０１,,13,114,1640011,,,,,,,2021-10-26,1,,,,,ミラクルダイチ,0
2306,9011501027423,新規,0,2021-10-26,2021-10-26,株式会社のぞみ,,株式会社,東京都,北区,赤羽南１丁目１５番３－４０７号モア・クレスト赤羽公園,,13,117,1150044,,,,,,,2021-10-26,1,,,,,ノゾミ,0
2308,9011505002430,新規,0,2021-10-26,2021-10-26,社会保険労務士法人ＧＲＯＷＩＮＧ　ＵＰ,,その他の設立登記法人,東京都,北区,赤羽２丁目４番１４号,,13,117,1150045,,,,,,,2021-10-26,1,,,,,グローイングアップ,0
2313,9011603003421,新規,0,2021-10-26,2021-10-26,合同会社アエラス,,合同会社,東京都,練馬区,石神井町４丁目３－１５,,13,120,1770041,,,,,,,2021-10-26,1,,,,,アエラス,0
2322,9012701016736,新規,0,2021-10-26,2021-10-26,株式会社火災保険請求相談センター,,株式会社,東京都,小平市,花小金井４丁目３番１１号,,13,211,1870002,,,,,,,2021-10-26,1,,,,,カサイホケンセイキュウソウダンセンター,0
2329,9020001143589,新規,0,2021-10-26,2021-10-26,株式会社ワイズエムシステム,,株式会社,神奈川県,横浜市南区,別所５丁目６番１６－８０９号,,14,105,2320064,,,,,,,2021-10-26,1,,,,,ワイズエムシステム,0
2332,9020003020695,新規,0,2021-10-26,2021-10-26,合同会社Ｈ　Ｐｒｏｊｅｃｔ,,合同会社,神奈川県,横浜市都筑区,中川中央１丁目３０番１号プレミアヨコハマ３Ｆ,,14,118,2240003,,,,,,,2021-10-26,1,,,,,エイチプロジェクト,0
2339,9021001074312,新規,0,2021-10-26,2021-10-26,神都電設株式会社,,株式会社,神奈川県,茅ヶ崎市,高田２丁目９番１６号１０１,,14,207,2530002,,,,,,,2021-10-26,1,,,,,シントデンセツ,0
2351,9030001144974,新規,0,2021-10-26,2021-10-26,株式会社サンエスオート４０７,,株式会社,埼玉県,熊谷市,中奈良７４８番地１,,11,202,3600801,,,,,,,2021-10-26,1,,,,,サンエスオートヨンマルナナ,0
2368,9040001120710,新規,0,2021-10-26,2021-10-26,株式会社ＭＫＭ,,株式会社,千葉県,富里市,新橋６６３番地４,,12,233,2860224,,,,,,,2021-10-26,1,,,,,エムケイエム,0
2369,9040001120719,新規,0,2021-10-26,2021-10-26,株式会社エムトライ,,株式会社,千葉県,船橋市,みやぎ台４丁目２３番５号,,12,204,2740804,,,,,,,2021-10-26,1,,,,,エムトライ,0
2370,9040001120751,新規,0,2021-10-26,2021-10-26,株式会社ディーエーコミュニケーションズ,,株式会社,千葉県,松戸市,松戸１６５０番地の７７千代田ハイツ２０２号,,12,207,2710092,,,,,,,2021-10-26,1,,,,,ディーエーコミュニケーションズ,0
2375,9050003006155,新規,0,2021-10-26,2021-10-26,ＴＯＫＹＯ　ＴＲＡＤＩＮＧ合同会社,,合同会社,茨城県,筑西市,女方９５３番地７,,08,227,3080854,,,,,,,2021-10-26,1,,,,,トウキョウトレーディング,0
2376,9050005012960,新規,0,2021-10-26,2021-10-26,環境エコメンテナンス企業組合,,その他の設立登記法人,茨城県,那珂市,菅谷３１８４番地９号堀江ハイツ２号,,08,226,3110105,,,,,,,2021-10-26,1,,,,,カンキョウエコメンテナンス,0
2378,9060003003812,新規,0,2021-10-26,2021-10-26,Ｓｕｎ＆Ｇｒｅｅｎ　ｃｏｍｐａｎｙ合同会社,,合同会社,栃木県,足利市,小俣町２６２３番地２,,09,202,3260141,,,,,,,2021-10-26,1,,,,,サンアンドグリーンカンパニー,0
2392,9100001034722,新規,0,2021-10-26,2021-10-26,株式会社栂池ホテル,,株式会社,長野県,北安曇郡小谷村,大字千国乙２１６番地,,20,486,3999422,,,,,,,2021-10-26,1,,,,,ツガイケホテル,0
2414,9120001241028,新規,0,2021-10-26,2021-10-26,株式会社ａｉｓａｎｃｅ,,株式会社,大阪府,大阪市北区,梅田１丁目２番２号大阪駅前第二ビル,,27,127,5300001,,,,,,,2021-10-26,1,,,,,エゾンス,0
2415,9120001241283,新規,0,2021-10-26,2021-10-26,興福株式会社,,株式会社,大阪府,大阪市西区,九条南２丁目２８番１８号,,27,106,5500025,,,,,,,2021-10-26,1,,,,,コウフク,0
2416,9120001241374,新規,0,2021-10-26,2021-10-26,ＧＤハウス株式会社,,株式会社,大阪府,大阪市中央区,内平野町２丁目１番１３号,,27,128,5400037,,,,,,,2021-10-26,1,,,,,ジーディーハウス,0
2417,9120001241390,新規,0,2021-10-26,2021-10-26,株式会社Ｏｎｅ,,株式会社,大阪府,大阪市北区,長柄西１丁目１番２２号,,27,127,5310061,,,,,,,2021-10-26,1,,,,,ワン,0
2418,9120001241399,新規,0,2021-10-26,2021-10-26,株式会社イチトモ,,株式会社,大阪府,大阪市西成区,花園北１丁目９番２９－９０１号,,27,122,5570016,,,,,,,2021-10-26,1,,,,,イチトモ,0
2420,9120003020470,新規,0,2021-10-26,2021-10-26,合同会社Ｙ’ｓ　ｅｓｔａｔｅ,,合同会社,大阪府,大阪市北区,梅田１丁目２番２号,,27,127,5300001,,,,,,,2021-10-26,1,,,,,ワイズエステート,0
2423,9120903003855,新規,0,2021-10-26,2021-10-26,合同会社ｆｆ,,合同会社,大阪府,箕面市,牧落３丁目８番１１号,,27,220,5620004,,,,,,,2021-10-26,1,,,,,フォルテシモ,0
2434,9140001123612,新規,0,2021-10-26,2021-10-26,株式会社Ｙｏｕｒ　Ｐｒｏ,,株式会社,兵庫県,神戸市中央区,磯上通８丁目１番２９号カサベラビルＣ＆Ｍ４０３号室,,28,110,6510086,,,,,,,2021-10-26,1,,,,,ユアプロ,0
2437,9140003016896,新規,0,2021-10-26,2021-10-26,プロレトロＸ合同会社,,合同会社,兵庫県,神戸市中央区,下山手通５丁目７番７－３１０号,,28,110,6500011,,,,,,,2021-10-26,1,,,,,プロレトロエックス,0
2438,9140003016905,新規,0,2021-10-26,2021-10-26,ＳＰＡＣＥ　ＷＯＲＫＳ合同会社,,合同会社,兵庫県,神戸市灘区,灘北通２丁目３番１９号,,28,102,6570835,,,,,,,2021-10-26,1,,,,,,0
2443,9150003002532,新規,0,2021-10-26,2021-10-26,ａｂｏｋａｄｏ不動産合同会社,,合同会社,奈良県,桜井市,大字西之宮３１１－１１,,29,206,6330066,,,,,,,2021-10-26,1,,,,,アボカドフドウサン,0
2447,9160003002416,新規,0,2021-10-26,2021-10-26,合同会社Ｂｒｉｌｌｏ　Ｃｏｄｅ,,合同会社,滋賀県,大津市,大江４丁目２３番６０号開発オフィス,,25,201,5202141,,,,,,,2021-10-26,1,,,,,ブリージョコード,0
2456,9180001148432,新規,0,2021-10-26,2021-10-26,株式会社ＫＯＤＫ,,株式会社,愛知県,名古屋市千種区,覚王山通８丁目３４,,23,101,4640841,,,,,,,2021-10-26,1,,,,,ケーオーディーケー,0
2458,9180003023121,新規,0,2021-10-26,2021-10-26,合同会社響,,合同会社,愛知県,名古屋市熱田区,沢下町９－２５,,23,109,4560006,,,,,,,2021-10-26,1,,,,,ヒビキ,0
2460,9180301035537,新規,0,2021-10-26,2021-10-26,株式会社リーガルテック,,株式会社,愛知県,安城市,里町森５９番地３,,23,212,4460001,,,,,,,2021-10-26,1,,,,,リーガルテック,0
2479,9250001019213,新規,0,2021-10-26,2021-10-26,株式会社ブリリアン,,株式会社,山口県,光市,大字立野１３８７番地７,,35,210,7430062,,,,,,,2021-10-26,1,,,,,ブリリアン,0
2481,9260001036125,新規,0,2021-10-26,2021-10-26,株式会社一燈社,,株式会社,岡山県,和気郡和気町,大中山１５４７番地１,,33,346,7090432,,,,,,,2021-10-26,1,,,,,イットウシャ,0
2482,9260005010984,新規,0,2021-10-26,2021-10-26,一般社団法人未来箱,,その他の設立登記法人,岡山県,倉敷市,新田２４１５－１－６０９,,33,202,7100038,,,,,,,2021-10-26,1,,,,,,0
2495,9290001095119,新規,0,2021-10-26,2021-10-26,株式会社ＡＢＲソリューション,,株式会社,福岡県,福岡市中央区,小笹１丁目１番５号武田ビル２階,,40,133,8100033,,,,,,,2021-10-26,1,,,,,エービーアールソリューション,0
2501,9330005010416,新規,0,2021-10-26,2021-10-26,一般社団法人森のこもれび,,その他の設立登記法人,熊本県,菊池郡大津町,美咲野３丁目２８番３号,,43,403,8691237,,,,,,,2021-10-26,1,,,,,モリノコモレビ,0
2511,9370003005455,新規,0,2021-10-26,2021-10-26,合同会社Ｓｅｎｓｅ　Ｊａｐａｎ,,合同会社,宮城県,仙台市太白区,西中田６丁目１４－３１－１０１,,04,104,9811105,,,,,,,2021-10-26,1,,,,,,0
2525,9430003013286,新規,0,2021-10-26,2021-10-26,合同会社アドバンス,,合同会社,北海道,札幌市東区,北四十二条東８丁目３番１８号,,01,103,0070842,,,,,,,2021-10-26,1,,,,,アドバンス,0
