sequenceNumber,corporateNumber,process,correct,updateDate,changeDate,name,nameImageId,kind,prefectureName,cityName,streetNumber,addressImageId,prefectureCode,cityCode,postCode,addressOutside,addressOutsideImageId,closeDate,closeCause,successorCorporateNumber,changeCause,assignmentDate,latest,enName,enPrefectureName,enCityName,enAddressOutside,furigana,hihyoji
3,1010001210050,登記記録の閉鎖等,0,2025-04-08,2025-04-01,イノベリオス株式会社,,株式会社,東京都,千代田区,三番町６番地１,,13,101,1020075,,,2025-04-01,合併による解散等,1010001091664,令和７年４月１日東京都千代田区三番町６番地１三菱地所コミュニティ株式会社（1010001091664）に合併し解散,2020-06-15,1,,,,,イノベリオス,0
23,1010601027951,登記記録の閉鎖等,0,2025-04-08,2025-03-28,サンテーラ株式会社,,株式会社,東京都,中央区,日本橋２丁目７番１号,,13,102,1030027,,,2025-03-28,清算の結了等,,,2015-10-05,1,,,,,サンテーラ,0
37,1010901041413,登記記録の閉鎖等,0,2025-04-08,2025-03-31,株式会社エイチツーオー,,株式会社,埼玉県,狭山市,柏原１６１２番地,,11,215,3501335,,,2025-03-31,清算の結了等,,,2018-01-16,1,,,,,エイチツーオー,0
43,1010905002452,登記記録の閉鎖等,0,2025-04-08,2025-03-10,特定非営利活動法人フードデザイナーズネットワーク,,その他の設立登記法人,東京都,渋谷区,千駄ヶ谷３丁目５２番９号,,13,113,1510051,,,2025-03-10,清算の結了等,,,2015-10-05,1,,,,,フードデザイナーズネットワーク,0
64,1011703002355,登記記録の閉鎖等,0,2025-04-08,2025-04-02,フラット合同会社,,合同会社,東京都,江戸川区,東小岩３丁目７番１８号,,13,123,1330052,,,2025-04-02,清算の結了等,,,2019-09-05,1,,,,,フラット,0
80,1020001034424,登記記録の閉鎖等,0,2025-04-08,2025-03-31,株式会社フリースタイル,,株式会社,神奈川県,横浜市緑区,霧が丘１丁目１３番地５,,14,113,2260016,,,2025-03-31,清算の結了等,,,2015-10-05,1,,,,,フリースタイル,0
92,1020002004137,登記記録の閉鎖等,0,2025-04-08,2025-03-28,有限会社黒滝鈑金塗装工業,,有限会社,神奈川県,横浜市緑区,鴨居１丁目１０番３０号,,14,113,2260003,,,2025-03-28,清算の結了等,,,2015-10-05,1,,,,,クロタキバンキントソウコウギョウ,0
96,1021001052804,登記記録の閉鎖等,0,2025-04-08,2025-04-04,ｍｉｃｒｏｓｔａｙ株式会社,,株式会社,神奈川県,鎌倉市,稲村ガ崎３丁目３番２７号,,14,204,2480024,,,2025-04-04,清算の結了等,,,2015-10-05,1,,,,,マイクロステイ,0
103,1030001090672,登記記録の閉鎖等,0,2025-04-08,2025-03-31,エクシード株式会社,,株式会社,埼玉県,秩父市,桜木町１０番２７号,,11,207,3680025,,,2025-03-31,清算の結了等,,,2015-10-05,1,,,,,エクシード,0
108,1030002054585,登記記録の閉鎖等,0,2025-04-08,2025-04-01,有限会社西上尾ゴルフガーデン,,有限会社,埼玉県,上尾市,大字小敷谷４０７番地,,11,219,3620064,,,2025-04-01,合併による解散等,6030001084562,令和７年４月１日埼玉県熊谷市新堀新田６１４番地１株式会社カゴハラゴルフ（6030001084562）に合併し解散,2015-10-05,1,,,,,ニシアゲオゴルフガーデン,0
109,1030002072620,登記記録の閉鎖等,0,2025-04-08,2025-04-01,有限会社大室商事,,有限会社,埼玉県,川越市,大字福田１００１番地１,,11,201,3500821,,,2025-04-01,清算の結了等,,,2015-10-05,1,,,,,オオムロショウジ,0
110,1030002085911,登記記録の閉鎖等,0,2025-04-08,2025-04-01,有限会社幸栄総業,,有限会社,埼玉県,さいたま市岩槻区,大字徳力５１２番地２,,11,110,3390004,,,2025-04-01,清算の結了等,,,2015-10-05,1,,,,,コウエイソウギョウ,0
117,1040001003352,登記記録の閉鎖等,0,2025-04-08,2025-03-31,株式会社昭和コンジット,,株式会社,千葉県,千葉市若葉区,殿台町２４７番地６,,12,104,2640036,,,2025-03-31,清算の結了等,,,2015-10-05,1,,,,,ショウワコンジット,0
135,1050001006866,登記記録の閉鎖等,0,2025-04-08,2025-04-01,株式会社大栄オート,,株式会社,茨城県,ひたちなか市,大字枝川２４５６番地,,08,221,3120035,,,2025-04-01,合併による解散等,2050001027580,令和７年４月１日茨城県取手市桑原６８０番地１株式会社ナオイオート（2050001027580）に合併し解散,2015-10-05,1,,,,,ダイエイオート,0
136,1050001052786,登記記録の閉鎖等,0,2025-04-08,2025-04-04,阿さ川製菓株式会社,,株式会社,茨城県,笠間市,福原１３０５番地１,,08,216,3091634,,,2025-04-04,合併による解散等,2090001016010,令和７年４月１日山形県山形市蔵王松ケ丘二丁目１番３号株式会社シベール（2090001016010）に合併し解散,2023-05-16,1,,,,,アサカワセイカ,0
139,1050002042051,登記記録の閉鎖等,0,2025-04-08,2025-04-03,有限会社桜井製缶工業,,有限会社,茨城県,筑西市,神分６６番地の３,,08,227,3080063,,,2025-04-03,合併による解散等,4200001019098,令和７年４月１日岐阜県美濃市須原６５０番地株式会社ベルテクノプラント工業（4200001019098）に合併し解散,2015-10-05,1,,,,,サクライセイカンコウギョウ,0
165,1120001092503,登記記録の閉鎖等,0,2025-04-08,2025-04-01,ローレル機械株式会社,,株式会社,大阪府,大阪市中央区,西心斎橋１丁目１５番８号,,27,128,5420086,,,2025-04-01,合併による解散等,3120001092501,令和７年４月１日大阪市中央区西心斎橋一丁目１５番８号ローレルプレシジョン株式会社（3120001092501）に合併し解散,2015-10-05,1,,,,,ローレルキカイ,0
167,1120001168294,登記記録の閉鎖等,0,2025-04-08,2025-03-25,株式会社Ｗｈｏｏｐ,,株式会社,大阪府,大阪市北区,堂島２丁目２番２２号,,27,127,5300003,,,2025-03-25,清算の結了等,,,2015-10-05,1,,,,,ウープ,0
168,1120001172503,登記記録の閉鎖等,0,2025-04-08,2025-03-28,株式会社ＭＭＫエナジー,,株式会社,大阪府,大阪市中央区,備後町３丁目３番３号,,27,128,5410051,,,2025-03-28,清算の結了等,,,2015-10-05,1,,,,,エムエムケイエナジー,0
178,1120002058668,登記記録の閉鎖等,0,2025-04-08,2025-03-28,有限会社ヨドガワ機工,,有限会社,大阪府,大阪市福島区,大開３丁目８番１６号,,27,103,5530007,,,2025-03-28,清算の結了等,,,2015-10-05,1,,,,,ヨドガワキコウ,0
183,1120101022905,登記記録の閉鎖等,0,2025-04-08,2025-03-31,株式会社トゥースアンドネイル,,株式会社,大阪府,高石市,羽衣１丁目６番２９号,,27,225,5920002,,,2025-03-31,清算の結了等,,,2015-10-05,1,,,,,,0
190,1120901038258,登記記録の閉鎖等,0,2025-04-08,2025-04-01,株式会社ケイ・エス設計,,株式会社,大阪府,茨木市,西河原１丁目１番３７号,,27,211,5670023,,,2025-04-01,清算の結了等,,,2017-04-10,1,,,,,ケイエスセッケイ,0
197,1130001031699,登記記録の閉鎖等,0,2025-04-08,2025-03-26,株式会社きずな,,株式会社,大阪府,大阪市東淀川区,豊新３丁目１番２１号,,27,114,5330014,,,2025-03-26,清算の結了等,,,2015-10-05,1,,,,,キズナ,0
198,1130001053974,登記記録の閉鎖等,0,2025-04-08,2025-04-02,株式会社ラポール,,株式会社,京都府,久世郡久御山町,林北畑９２番地１４,,26,322,6130033,,,2025-04-02,清算の結了等,,,2015-10-05,1,,,,,ラポール,0
203,1140001061019,登記記録の閉鎖等,0,2025-04-08,2025-04-01,株式会社姫路ホンダ,,株式会社,兵庫県,姫路市,保城９３７番地の１０,,28,201,6700804,,,2025-04-01,合併による解散等,4140001058887,令和７年４月１日兵庫県姫路市大津区天満２５６番地の１是川ホンダ販売株式会社（4140001058887）に合併し解散,2015-10-05,1,,,,,ヒメジホンダ,0
217,1140002064490,登記記録の閉鎖等,0,2025-04-08,2025-04-02,有限会社栄エステート,,有限会社,兵庫県,川西市,大和西２丁目４番地の５,,28,217,6660112,,,2025-04-02,清算の結了等,,,2015-10-05,1,,,,,サカエエステート,0
218,1140003005840,登記記録の閉鎖等,0,2025-04-08,2025-03-31,合同会社ケーズ・マリン＆クラフト・サービス,,合同会社,兵庫県,明石市,朝霧台３７７６番地の６８,,28,203,6730852,,,2025-03-31,清算の結了等,,,2015-10-05,1,,,,,ケーズマリンクラフトサービス,0
232,1170002005137,登記記録の閉鎖等,0,2025-04-08,2025-04-03,有限会社アトリエ乗,,有限会社,和歌山県,和歌山市,梶取３１６番地の３４,,30,201,6408411,,,2025-04-03,清算の結了等,,,2015-10-05,1,,,,,アトリエジョウ,0
242,1180002074247,登記記録の閉鎖等,0,2025-04-08,2025-04-01,有限会社板津燃料店,,有限会社,愛知県,犬山市,大字犬山字東古券４０９番地の５,,23,215,4840083,,,2025-04-01,清算の結了等,,,2015-10-05,1,,,,,イタツネンリョウテン,0
246,1180301032624,登記記録の閉鎖等,0,2025-04-08,2025-03-31,藤川酒店株式会社,,株式会社,愛知県,豊橋市,花田町字荒木２９番地の１,,23,201,4418019,,,2025-03-31,清算の結了等,,,2019-06-05,1,,,,,フジカワサケテン,0
247,1190001003271,登記記録の閉鎖等,0,2025-04-08,2025-04-01,株式会社全旅みえ,,株式会社,三重県,津市,神戸２０２番地津スポーツセンター２Ｆ,,24,201,5140824,,,2025-04-01,清算の結了等,,,2015-10-05,1,,,,,ゼンリョミエ,0
248,1190001014467,登記記録の閉鎖等,0,2025-04-08,2025-04-01,株式会社ダイヤコンパウンド四日市,,株式会社,三重県,四日市市,川尻町１０００番地,,24,202,5100871,,,2025-04-01,合併による解散等,5190001016798,令和７年４月１日三重県四日市市大字塩浜１９１番地１株式会社ロンビック（5190001016798）に合併し解散,2015-10-05,1,,,,,ダイヤコンパウンドヨッカイチ,0
249,1200001012881,登記記録の閉鎖等,0,2025-04-08,2025-04-02,株式会社ゴールドラッシュ,,株式会社,岐阜県,岐阜市,六条片田１丁目１９番５－１号,,21,201,5008355,,,2025-04-02,清算の結了等,,,2015-10-05,1,,,,,ゴールドラッシュ,0
267,1240002029723,登記記録の閉鎖等,0,2025-04-08,2025-04-03,有限会社小田瓦産業,,有限会社,広島県,山県郡安芸太田町,大字下筒賀２３３６番地,,34,368,7313621,,,2025-04-03,清算の結了等,,,2015-10-05,1,,,,,オダカワラサンギョウ,0
283,1290002043728,登記記録の閉鎖等,0,2025-04-08,2025-03-26,有限会社ドリス福岡,,有限会社,福岡県,朝倉郡筑前町,野町１４０５番地の１,,40,447,8380815,,,2025-03-26,清算の結了等,,,2015-10-05,1,,,,,ドリスフクオカ,0
307,1380001005975,登記記録の閉鎖等,0,2025-04-08,2025-04-01,ネッツトヨタノヴェルふくしま株式会社,,株式会社,福島県,郡山市,字川向１番地１,,07,203,9638843,,,2025-04-01,合併による解散等,5380001006508,令和７年４月１日福島県郡山市字川向１番地１福島トヨペット株式会社（5380001006508）に合併し解散,2015-10-05,1,,,,,ネッツトヨタノヴェルフクシマ,0
321,1430002011942,登記記録の閉鎖等,0,2025-04-08,2025-03-31,有限会社拓建企画,,有限会社,北海道,札幌市南区,澄川六条１１丁目７番２３号,,01,106,0050006,,,2025-03-31,清算の結了等,,,2015-10-05,1,,,,,タクケンキカク,0
327,1470001018448,登記記録の閉鎖等,0,2025-04-08,2025-03-31,株式会社ＡＬＩ,,株式会社,香川県,丸亀市,土器町東７丁目４７,,37,202,7630082,,,2025-03-31,清算の結了等,,,2021-04-02,1,,,,,アリ,0
333,1500001013602,登記記録の閉鎖等,0,2025-04-08,2025-03-31,ＴＳ興業株式会社,,株式会社,愛媛県,今治市,高橋甲１２５２番地１０,,38,202,7940066,,,2025-03-31,清算の結了等,,,2015-10-05,1,,,,,ティーエスコウギョウ,0
343,2010001185358,登記記録の閉鎖等,0,2025-04-08,2025-03-28,株式会社エム・エル・ホールディングス,,株式会社,東京都,千代田区,大手町１丁目４番２号,,13,101,1000004,,,2025-03-28,清算の結了等,,,2017-08-02,1,,,,,エムエルホールディングス,0
346,2010001207748,登記記録の閉鎖等,0,2025-04-08,2025-03-28,ＴＧＶインベストメント株式会社,,株式会社,東京都,千代田区,大手町１丁目４番２号,,13,101,1000004,,,2025-03-28,清算の結了等,,,2020-02-25,1,,,,,ティージーブイインベストメント,0
353,2010003023193,登記記録の閉鎖等,0,2025-04-08,2025-03-31,日光ＩＶ合同会社８,,合同会社,東京都,千代田区,丸の内１丁目４番１号東京共同会計事務所内,,13,101,1000005,,,2025-03-31,清算の結了等,,,2016-03-08,1,,,,,ニッコウフォーハチ,0
367,2010405019608,登記記録の閉鎖等,0,2025-04-08,2025-03-10,一般社団法人ＶＩＤネットワーク,,その他の設立登記法人,東京都,港区,西新橋３丁目５番２号西新橋第一法規ビル３階,,13,103,1050003,,,2025-03-10,清算の結了等,,,2021-03-22,1,,,,,ブイアイディーネットワーク,0
387,2010901048440,登記記録の閉鎖等,0,2025-04-08,2025-04-04,株式会社アルン,,株式会社,東京都,世田谷区,桜新町１丁目６番１６号,,13,112,1540015,,,2025-04-04,清算の結了等,,,2021-04-06,1,,,,,アルン,0
400,2011401007003,登記記録の閉鎖等,0,2025-04-08,2025-04-01,東京精密プラスチック株式会社,,株式会社,東京都,板橋区,前野町３丁目４８番１号,,13,119,1740063,,,2025-04-01,清算の結了等,,,2015-10-05,1,,,,,トウキョウセイミツプラスチック,0
417,2012801017392,登記記録の閉鎖等,0,2025-04-08,2025-03-24,株式会社Ｍａｓｔ,,株式会社,東京都,日野市,平山４丁目１２番地の４３,,13,212,1910043,,,2025-03-24,清算の結了等,,,2016-07-20,1,,,,,マスト,0
420,2012802000224,登記記録の閉鎖等,0,2025-04-08,2025-03-24,有限会社インターアイランド,,有限会社,東京都,立川市,砂川町４丁目６６番地の１４,,13,202,1900031,,,2025-03-24,清算の結了等,,,2015-10-05,1,,,,,インターアイランド,0
424,2020001071383,登記記録の閉鎖等,0,2025-04-08,2025-03-27,葉山工業株式会社,,株式会社,神奈川県,川崎市幸区,小向西町４丁目１３６番地の２,,14,132,2120004,,,2025-03-27,清算の結了等,,,2015-10-05,1,,,,,ハヤマコウギョウ,0
474,2050002007697,登記記録の閉鎖等,0,2025-04-08,2025-03-31,有限会社伸企,,有限会社,茨城県,水戸市,泉町３丁目７番３０号,,08,201,3100026,,,2025-03-31,清算の結了等,,,2015-10-05,1,,,,,シンキ,0
488,2080101006416,登記記録の閉鎖等,0,2025-04-08,2025-04-01,スルガスタッフサービス株式会社,,株式会社,静岡県,沼津市,通横町２３番地,,22,203,4100891,,,2025-04-01,合併による解散等,6080101005777,令和７年４月１日静岡県駿東郡長泉町東野字八分平５００番地の１２スルガコンピューターサービス株式会社（6080101005777）に合併し解散,2015-10-05,1,,,,,スルガスタッフサービス,0
498,2100002025074,登記記録の閉鎖等,0,2025-04-08,2025-04-01,有限会社ツボイ不動産,,有限会社,長野県,塩尻市,大門三番町６番２号,,20,215,3990733,,,2025-04-01,清算の結了等,,,2015-10-05,1,,,,,ツボイフドウサン,0
499,2100003004960,登記記録の閉鎖等,0,2025-04-08,2025-03-26,ＧＰＴ合同会社,,合同会社,長野県,松本市,梓川梓２５６９番地,,20,202,3901702,,,2025-03-26,清算の結了等,,,2018-04-16,1,,,,,ジーピーティー,0
501,2120001031187,登記記録の閉鎖等,0,2025-04-08,2025-04-01,カナート株式会社,,株式会社,大阪府,大阪市住之江区,南港中２丁目１番１０９号,,27,125,5590033,,,2025-04-01,合併による解散等,7120001117832,令和７年４月１日大阪市北区角田町８番７号イズミヤ・阪急オアシス株式会社（7120001117832）に合併し解散,2015-10-05,1,,,,,カナート,0
507,2120001151225,登記記録の閉鎖等,0,2025-04-08,2025-04-01,ＡＬＳＯＫライフサポート株式会社,,株式会社,大阪府,枚方市,楠葉花園町１４番１０号,,27,210,5731121,,,2025-04-01,合併による解散等,6120001097084,令和７年４月１日大阪市北区西天満四丁目１４番３号ＡＬＳＯＫジョイライフ株式会社（6120001097084）に合併し解散,2015-10-05,1,,,,,アルソックライフサポート,0
508,2120001160564,登記記録の閉鎖等,0,2025-04-08,2025-04-03,株式会社ドリームサポートワークス,,株式会社,大阪府,門真市,末広町２４番１－４０２号,,27,223,5710030,,,2025-04-03,清算の結了等,,,2015-10-05,1,,,,,ドリームサポートワークス,0
509,2120001179811,登記記録の閉鎖等,0,2025-04-08,2025-04-01,ＫＳアドバンス株式会社,,株式会社,大阪府,大阪市中央区,高麗橋３丁目１番８号,,27,128,5410043,,,2025-04-01,合併による解散等,9120001001778,令和７年４月１日大阪市中央区高麗橋三丁目１番８号株式会社国元商会（9120001001778）に合併し解散,2015-10-05,1,,,,,ケイエスアドバンス,0
510,2120001214774,登記記録の閉鎖等,0,2025-04-08,2025-03-26,株式会社トランジスター,,株式会社,大阪府,大阪市都島区,片町２丁目６番１１号庄司ビル５０１号室,,27,102,5340025,,,2025-03-26,清算の結了等,,,2018-07-20,1,,,,,トランジスター,0
537,2140001015551,登記記録の閉鎖等,0,2025-04-08,2025-04-01,株式会社ワールド,,株式会社,兵庫県,神戸市北区,鈴蘭台東町４丁目６番２０号,,28,109,6511112,,,2025-04-01,清算の結了等,,,2015-10-05,1,,,,,ワールド,0
539,2140001104123,登記記録の閉鎖等,0,2025-04-08,2025-04-04,スタートインベスターズ株式会社,,株式会社,大阪府,門真市,上島町２１番５号,,27,223,5710071,,,2025-04-04,合併による解散等,4120001229399,令和７年３月３１日神戸市中央区八幡通三丁目１番１５号Ｋｏｂｅｂｕｌｌ株式会社（4120001229399）に合併し解散,2016-11-21,1,,,,,スタートインベスターズ,0
578,2180003012923,登記記録の閉鎖等,0,2025-04-08,2025-04-01,合資会社鍜治為工業所,,合資会社,愛知県,大府市,横根町平子４５番地,,23,223,4740011,,,2025-04-01,合併による解散等,1180001093669,令和７年４月１日愛知県大府市横根町平子４５番地株式会社ケイジェイ（1180001093669）に合併し解散,2015-10-05,1,,,,,カジタメコウギョウショ,0
583,2200001028704,登記記録の閉鎖等,0,2025-04-08,2025-04-01,美山鋳造株式会社,,株式会社,岐阜県,山県市,東深瀬９４番地２,,21,215,5012104,,,2025-04-01,合併による解散等,8200001006638,令和７年４月１日岐阜県山県市東深瀬９４番地２株式会社水生活製作所（8200001006638）に合併し解散,2015-10-05,1,,,,,ミヤマチュウゾウ,0
592,2230002008421,登記記録の閉鎖等,0,2025-04-08,2025-04-01,有限会社吉田縫製,,有限会社,富山県,下新川郡入善町,入膳３８９７番地の９,,16,342,9390626,,,2025-04-01,清算の結了等,,,2015-10-05,1,,,,,ヨシダホウセイ,0
593,2230002010765,登記記録の閉鎖等,0,2025-04-08,2025-04-01,有限会社大江商店,,有限会社,富山県,高岡市,博労本町１４番１６号,,16,202,9330935,,,2025-04-01,清算の結了等,,,2015-10-05,1,,,,,オオエショウテン,0
595,2240001010253,登記記録の閉鎖等,0,2025-04-08,2025-04-01,株式会社深井ビル,,株式会社,広島県,広島市中区,富士見町１番１号,,34,101,7300043,,,2025-04-01,合併による解散等,9240001000322,令和７年４月１日広島市中区富士見町１番１号株式会社アクティブ（9240001000322）に合併し解散,2015-10-05,1,,,,,フカイビル,0
606,2270002004615,登記記録の閉鎖等,0,2025-04-08,2025-04-01,有限会社ＴＴＪコーポレーション,,有限会社,鳥取県,鳥取市,覚寺６２番地１０,,31,201,6800003,,,2025-04-01,清算の結了等,,,2015-10-05,1,,,,,ティーティージェイコーポレーション,0
656,2430001029209,登記記録の閉鎖等,0,2025-04-08,2025-04-01,エア・ウォーター・ライフサポート株式会社,,株式会社,北海道,札幌市中央区,南十九条西６丁目３番５号,,01,101,0640919,,,2025-04-01,合併による解散等,7430001032521,令和７年４月１日札幌市豊平区月寒東二条十六丁目１番６号エア・ウォーター・ライフソリューション株式会社（7430001032521）に合併し解散,2015-10-05,1,,,,,エアウォーターライフサポート,0
657,2430001033441,登記記録の閉鎖等,0,2025-04-08,2025-04-01,三和交通株式会社,,株式会社,北海道,札幌市白石区,菊水上町四条４丁目９５番地１４,,01,104,0030814,,,2025-04-01,合併による解散等,4430001015099,令和７年４月１日札幌市北区新琴似四条十六丁目５番６号北びしハイヤー株式会社（4430001015099）に合併し解散,2015-10-05,1,,,,,サンワコウツウ,0
679,3010001065377,登記記録の閉鎖等,0,2025-04-08,2025-03-14,株式会社タイムワールド,,株式会社,東京都,中央区,京橋３丁目７番１号相互館１１０タワー,,13,102,1040031,,,2025-03-14,合併による解散等,4010001251109,令和７年２月２８日東京都中央区京橋三丁目７番１号株式会社タイムワールド（4010001251109）に合併し解散,2015-10-05,1,,,,,タイムワールド,0
681,3010001161507,登記記録の閉鎖等,0,2025-04-08,2025-04-01,三菱地所コミュニティホールディングス株式会社,,株式会社,東京都,千代田区,三番町６番地１,,13,101,1020075,,,2025-04-01,合併による解散等,1010001091664,令和７年４月１日東京都千代田区三番町６番地１三菱地所コミュニティ株式会社（1010001091664）に合併し解散,2015-10-05,1,,,,,ミツビシジショコミュニティホールディングス,0
690,3010003020603,登記記録の閉鎖等,0,2025-04-08,2025-03-31,日光アクイジション３合同会社,,合同会社,東京都,千代田区,丸の内１丁目４番１号東京共同会計事務所内,,13,101,1000005,,,2025-03-31,清算の結了等,,,2015-10-05,1,,,,,ニッコウアクイジションスリー,0
691,3010003023192,登記記録の閉鎖等,0,2025-04-08,2025-03-31,日光ＩＶ合同会社７,,合同会社,東京都,千代田区,丸の内１丁目４番１号東京共同会計事務所内,,13,101,1000005,,,2025-03-31,清算の結了等,,,2016-03-08,1,,,,,ニッコウフォーナナ,0
708,3010501025723,登記記録の閉鎖等,0,2025-04-08,2025-03-26,株式会社ピンクピンク,,株式会社,東京都,台東区,浅草橋１丁目１１番５号,,13,106,1110053,,,2025-03-26,清算の結了等,,,2015-10-05,1,,,,,ピンクピンク,0
709,3010601004809,登記記録の閉鎖等,0,2025-04-08,2025-03-31,株式会社鶴賀,00051456,株式会社,東京都,江東区,牡丹１丁目１４番４号,,13,108,1350046,,,2025-03-31,清算の結了等,,,2015-10-05,1,,,,,ツルガ,0
717,3011001059179,登記記録の閉鎖等,0,2025-04-08,2025-03-31,株式会社Ｋ．ＳＰＩＣＡ,,株式会社,東京都,渋谷区,東３丁目１５番４号,,13,113,1500011,,,2025-03-31,清算の結了等,,,2015-10-05,1,,,,,,0
718,3011001141630,登記記録の閉鎖等,0,2025-04-08,2025-03-10,株式会社ｖｉｓｏｕｎｄ,,株式会社,東京都,渋谷区,恵比寿１丁目２２番３－６０４号,,13,113,1500013,,,2025-03-10,清算の結了等,,,2021-07-12,1,,,,,ビサウンド,0
743,3011801034810,登記記録の閉鎖等,0,2025-04-08,2025-04-01,株式会社コーワコーポレーション,,株式会社,東京都,葛飾区,奥戸１丁目１７番９号,,13,122,1240022,,,2025-04-01,合併による解散等,5011802027852,令和７年４月１日東京都葛飾区東新小岩五丁目１６番６号株式会社光和（5011802027852）に合併し解散,2018-06-06,1,,,,,コーワコーポレーション,0
761,3020001025099,登記記録の閉鎖等,0,2025-04-08,2025-03-31,秋山解体株式会社,,株式会社,神奈川県,横浜市中区,花咲町２丁目７１番地,,14,104,2310063,,,2025-03-31,清算の結了等,,,2015-10-05,1,,,,,,0
762,3020001118761,登記記録の閉鎖等,0,2025-04-08,2025-03-28,株式会社柿芝,,株式会社,神奈川県,横浜市港北区,箕輪町２丁目５番地の５,,14,109,2230051,,,2025-03-28,清算の結了等,,,2016-11-21,1,,,,,,0
770,3020002096429,登記記録の閉鎖等,0,2025-04-08,2025-03-28,有限会社川崎工業,,有限会社,神奈川県,川崎市川崎区,渡田東町７番６号,,14,131,2100842,,,2025-03-28,清算の結了等,,,2015-10-05,1,,,,,,0
771,3020002099480,登記記録の閉鎖等,0,2025-04-08,2025-03-31,有限会社六ツ角自動車整備工場,,有限会社,神奈川県,川崎市川崎区,渡田東町１２番９号,,14,131,2100842,,,2025-03-31,清算の結了等,,,2015-10-05,1,,,,,ムツカドジドウシャセイビコウジョウ,0
780,3021002050160,登記記録の閉鎖等,0,2025-04-08,2025-04-03,有限会社ナイトー,,有限会社,神奈川県,足柄下郡湯河原町,宮下２９番地,,14,384,2590304,,,2025-04-03,清算の結了等,,,2015-10-05,1,,,,,ナイトー,0
786,3030001083716,登記記録の閉鎖等,0,2025-04-08,2025-04-01,株式会社東立工芸,,株式会社,埼玉県,川口市,戸塚６丁目２１番２２号,,11,203,3330811,,,2025-04-01,合併による解散等,3030001159557,令和７年４月１日埼玉県川口市戸塚六丁目２１番１号株式会社トーリツ（3030001159557）に合併し解散,2015-10-05,1,,,,,トウリツコウゲイ,0
800,3030002103142,登記記録の閉鎖等,0,2025-04-08,2025-04-01,有限会社フォーグレース,,有限会社,埼玉県,川口市,並木１丁目１４番２６号,,11,203,3320034,,,2025-04-01,清算の結了等,,,2015-10-05,1,,,,,フォーグレース,0
815,3050002029559,登記記録の閉鎖等,0,2025-04-08,2025-03-31,遠峰運輸有限会社,,有限会社,茨城県,鉾田市,上幡木１６５６番地の９,,08,234,3112113,,,2025-03-31,清算の結了等,,,2015-10-05,1,,,,,トオミネウンユ,0
821,3070001016473,登記記録の閉鎖等,0,2025-04-08,2025-04-01,株式会社美食工房,,株式会社,群馬県,桐生市,相生町１丁目１４３番地４,,10,203,3760011,,,2025-04-01,合併による解散等,2070001016549,令和７年４月１日群馬県桐生市相生町一丁目１４３番地４株式会社ボストンハウス（2070001016549）に合併し解散,2015-10-05,1,,,,,ビショクコウボウ,0
822,3070001024286,登記記録の閉鎖等,0,2025-04-08,2025-04-01,健康菜園株式会社,,株式会社,群馬県,桐生市,相生町１丁目１４３番地４,,10,203,3760011,,,2025-04-01,合併による解散等,2070001016549,令和７年４月１日群馬県桐生市相生町一丁目１４３番地４株式会社ボストンハウス（2070001016549）に合併し解散,2015-10-05,1,,,,,ケンコウサイエン,0
823,3070001035696,登記記録の閉鎖等,0,2025-04-08,2025-03-31,株式会社Ｔワークス,,株式会社,群馬県,藤岡市,藤岡２１１８番地３,,10,209,3750024,,,2025-03-31,合併による解散等,6070001012049,令和７年３月３１日群馬県甘楽郡下仁田町大字川井１０９番地１西毛建設株式会社（6070001012049）に合併し解散,2019-05-07,1,,,,,ティーワークス,0
826,3070002006580,登記記録の閉鎖等,0,2025-04-08,2025-03-31,有限会社エム・ワイ・ケー,,有限会社,群馬県,前橋市,日吉町３丁目３２番地の９,,10,201,3710017,,,2025-03-31,清算の結了等,,,2015-10-05,1,,,,,エムワイケー,0
834,3080102001225,登記記録の閉鎖等,0,2025-04-08,2025-04-01,有限会社光秀堂石川,,有限会社,静岡県,沼津市,吉田町２４番１号,,22,203,4100836,,,2025-04-01,合併による解散等,7080101002410,令和７年４月１日静岡県沼津市小諏訪９０２番地ショウレイ自動車株式会社（7080101002410）に合併し解散,2015-10-05,1,,,,,コウシュウドウイシカワ,0
848,3120001146785,登記記録の閉鎖等,0,2025-04-08,2025-03-26,株式会社エイト不動産,,株式会社,大阪府,大阪市北区,兎我野町３－２２ハイキャッスル梅田４０１,,27,127,5300056,,,2025-03-26,清算の結了等,,,2015-10-05,1,,,,,エイトフドウサン,0
875,3130001061216,登記記録の閉鎖等,0,2025-04-08,2025-04-03,株式会社プロモ・プラスワン,,株式会社,京都府,宇治市,小倉町蓮池１５１番地の３０,,26,204,6110042,,,2025-04-03,清算の結了等,,,2018-01-04,1,,,,,プロモプラスワン,0
895,3150005007857,登記記録の閉鎖等,0,2025-04-08,2025-04-02,一般社団法人日本在宅ホスピス・緩和ケアネットワーク,,その他の設立登記法人,奈良県,奈良市,三碓６丁目９番２３,,29,201,6310061,,,2025-04-02,清算の結了等,,,2015-10-05,1,,,,,ニホンザイタクホスピスカンワケアネットワーク,0
903,3180001007750,登記記録の閉鎖等,0,2025-04-08,2025-04-01,株式会社ＡＴビジネス,,株式会社,愛知県,名古屋市昭和区,高辻町６番８号,00071767,23,107,4660057,,,2025-04-01,合併による解散等,2180001007751,令和７年４月１日名古屋市昭和区高辻町６番８号株式会社ＡＴグループ（2180001007751）に合併し解散,2015-10-05,1,,,,,エーティービジネス,0
907,3180001081119,登記記録の閉鎖等,0,2025-04-08,2025-03-31,株式会社吉野工務店,,株式会社,愛知県,犬山市,字寺西１１４番地,,23,215,4840866,,,2025-03-31,清算の結了等,,,2015-10-05,1,,,,,ヨシノコウムテン,0
922,3200001005495,登記記録の閉鎖等,0,2025-04-08,2025-04-01,株式会社森金型製作所,,株式会社,岐阜県,岐阜市,大字鷺山字向井２２４１番地の２,,21,201,5000000,,,2025-04-01,清算の結了等,,,2015-10-05,1,,,,,モリカナガタセイサクショ,0
940,3250002016933,登記記録の閉鎖等,0,2025-04-08,2025-04-01,有限会社儀本歯科技工所,,有限会社,山口県,光市,浅江３丁目２５番９号,,35,210,7430021,,,2025-04-01,清算の結了等,,,2015-10-05,1,,,,,,0
980,3390005008765,登記記録の閉鎖等,0,2025-04-08,2025-03-31,一般社団法人障がい者相談支援センターほっとらいふ,,その他の設立登記法人,山形県,北村山郡大石田町,緑町１３番１５号サンコーポグリーン５０３号,,06,341,9994112,,,2025-03-31,清算の結了等,,,2019-04-08,1,,,,,ショウガイシャソウダンシエンセンターホットライフ,0
983,3410002011827,登記記録の閉鎖等,0,2025-04-08,2025-04-01,有限会社堀内建材店,,有限会社,秋田県,大仙市,大曲上栄町１２番２２号,,05,212,0140062,,,2025-04-01,清算の結了等,,,2015-10-05,1,,,,,ホリウチケンザイテン,0
986,3420002011074,登記記録の閉鎖等,0,2025-04-08,2025-04-01,有限会社ケンコー薬局,,有限会社,青森県,五所川原市,字上平井町８３番地,,02,205,0370054,,,2025-04-01,清算の結了等,,,2015-10-05,1,,,,,ケンコーヤッキョク,0
991,3430002063783,登記記録の閉鎖等,0,2025-04-08,2025-03-31,有限会社矢野アグリ,,有限会社,北海道,虻田郡洞爺湖町,洞爺町４４４番地の６,,01,584,0495802,,,2025-03-31,清算の結了等,,,2015-10-05,1,,,,,ヤノアグリ,0
1004,3500002016890,登記記録の閉鎖等,0,2025-04-08,2025-03-31,有限会社ハルヤ,,有限会社,愛媛県,新居浜市,中筋町２丁目２番１４号,,38,205,7920841,,,2025-03-31,清算の結了等,,,2015-10-05,1,,,,,ハルヤ,0
1016,4010001233726,登記記録の閉鎖等,0,2025-04-08,2025-04-03,シーアイジャパン株式会社,,株式会社,東京都,八王子市,本町２番６号プラネット本町３－Ｂ,,13,201,1920066,,,2025-04-03,清算の結了等,,,2023-03-16,1,,,,,シーアイジャパン,0
1036,4010501009592,登記記録の閉鎖等,0,2025-04-08,2025-03-26,株式会社中沢金網,,株式会社,東京都,台東区,元浅草４丁目７番１５号,,13,106,1110041,,,2025-03-26,清算の結了等,,,2015-10-05,1,,,,,ナカザワカナアミ,0
1041,4010701019136,登記記録の閉鎖等,0,2025-04-08,2025-04-01,株式会社プレジャーキャスト,,株式会社,東京都,港区,芝浦３丁目１番３５号,,13,103,1080023,,,2025-04-01,合併による解散等,6010801015479,令和７年４月１日東京都港区芝浦三丁目１番３５号株式会社バンダイナムコアミューズメント（6010801015479）に合併し解散,2015-10-05,1,,,,,プレジャーキャスト,0
1054,4011001066067,登記記録の閉鎖等,0,2025-04-08,2025-03-10,株式会社ＩＷＹ,,株式会社,東京都,渋谷区,神宮前３丁目２１－１６ＮＫ－１ビル３Ｆ,,13,113,1500001,,,2025-03-10,清算の結了等,,,2015-10-05,1,,,,,,0
1062,4011101063088,登記記録の閉鎖等,0,2025-04-08,2025-03-24,株式会社プリマデッラプリマ,,株式会社,東京都,新宿区,下落合３丁目２２番１８号,,13,104,1610033,,,2025-03-24,清算の結了等,,,2015-10-05,1,,,,,プリマデッラプリマ,0
1066,4011101092112,登記記録の閉鎖等,0,2025-04-08,2025-03-12,株式会社ｕｎｔｉｔｌｅｄ,,株式会社,東京都,渋谷区,神南１丁目２０－２第一清水ビル４Ｆ,,13,113,1500041,,,2025-03-12,清算の結了等,,,2020-08-07,1,,,,,アンタイトル,0
1083,4011802023349,登記記録の閉鎖等,0,2025-04-08,2025-04-03,有限会社ケイジェイエスシステムデザイン,,有限会社,東京都,葛飾区,東堀切２丁目２１番１０－２０１号,,13,122,1240004,,,2025-04-03,清算の結了等,,,2015-10-05,1,,,,,ケイジェイエスシステムデザイン,0
1094,4020001038406,登記記録の閉鎖等,0,2025-04-08,2025-03-27,株式会社圓企画,,株式会社,神奈川県,横浜市中区,常盤町４丁目３９番地,,14,104,2310014,,,2025-03-27,清算の結了等,,,2015-10-05,1,,,,,マドカキカク,0
1096,4020001101337,登記記録の閉鎖等,0,2025-04-08,2025-03-26,株式会社プランニング不動産,,株式会社,神奈川県,川崎市中原区,井田中ノ町１９番１５号,,14,133,2110034,,,2025-03-26,清算の結了等,,,2015-10-05,1,,,,,プランニングフドウサン,0
1097,4020001145053,登記記録の閉鎖等,0,2025-04-08,2025-03-31,株式会社ＩＧＳＪ,,株式会社,神奈川県,横浜市西区,中央２丁目５３番１２号ノーテアンビエンタリヨコハマ２０３,,14,103,2200051,,,2025-03-31,清算の結了等,,,2022-02-01,1,,,,,アイジーエスジェー,0
1098,4020001145656,登記記録の閉鎖等,0,2025-04-08,2025-03-24,株式会社広,,株式会社,神奈川県,横浜市中区,桜木町１丁目１番７号,,14,104,2310062,,,2025-03-24,清算の結了等,,,2022-03-15,1,,,,,コウ,0
1102,4020002074202,登記記録の閉鎖等,0,2025-04-08,2025-03-31,ピーヴィージー・ジャパン有限会社,,有限会社,神奈川県,横浜市青葉区,あざみ野３丁目２８番地２２,,14,117,2250011,,,2025-03-31,清算の結了等,,,2015-10-05,1,,,,,ピーヴィージージャパン,0
1104,4021001042612,登記記録の閉鎖等,0,2025-04-08,2025-04-01,株式会社マハロ,,株式会社,東京都,千代田区,大手町１丁目３番１号,,13,101,1000004,,,2025-04-01,合併による解散等,2070001029807,令和７年４月１日東京都千代田区大手町一丁目３番１号さくら薬局株式会社（2070001029807）に合併し解散,2015-10-05,1,,,,,マハロ,0
1105,4021001051092,登記記録の閉鎖等,0,2025-04-08,2025-04-03,株式会社プロスケアネット,,株式会社,神奈川県,大和市,大和東３丁目３番１５号,,14,213,2420017,,,2025-04-03,清算の結了等,,,2015-10-05,1,,,,,プロスケアネット,0
1122,4040001021590,登記記録の閉鎖等,0,2025-04-08,2025-04-01,京成バスシステム株式会社,,株式会社,千葉県,船橋市,栄町１丁目１０番１０号,,12,204,2730018,,,2025-04-01,合併による解散等,9040001043696,令和７年４月１日千葉県船橋市栄町一丁目１０番１０号京成バス千葉セントラル株式会社（9040001043696）に合併し解散,2015-10-05,1,,,,,ケイセイバスシステム,0
1157,4080002000516,登記記録の閉鎖等,0,2025-04-08,2025-03-28,有限会社いずみ,,有限会社,静岡県,静岡市葵区,鷹匠１丁目４番５号,,22,101,4200839,,,2025-03-28,清算の結了等,,,2015-10-05,1,,,,,イズミ,0
1159,4080101013856,登記記録の閉鎖等,0,2025-04-08,2025-03-31,株式会社ユニコーン,,株式会社,静岡県,伊東市,竹の内２丁目６番２９号,,22,208,4140027,,,2025-03-31,清算の結了等,,,2015-10-05,1,,,,,ユニコーン,0
1165,4100001029867,登記記録の閉鎖等,0,2025-04-08,2025-04-01,株式会社食ぱん道,,株式会社,長野県,長野市,篠ノ井横田６３２番地,,20,201,3888005,,,2025-04-01,清算の結了等,,,2016-12-21,1,,,,,ショクパンドウ,0
1169,4120001006914,登記記録の閉鎖等,0,2025-04-08,2025-03-26,株式会社アートファクトリー,,株式会社,大阪府,大阪市都島区,片町１丁目５番１３号大手前センチュリービル,,27,102,5340025,,,2025-03-26,清算の結了等,,,2015-10-05,1,,,,,アートファクトリー,0
1171,4120001117075,登記記録の閉鎖等,0,2025-04-08,2025-04-03,株式会社カラーコスモ,,株式会社,大阪府,大阪市中央区,淡路町３丁目６番３号,,27,128,5410047,,,2025-04-03,合併による解散等,9120001065575,令和７年４月１日大阪市中央区淡路町三丁目６番３号株式会社ＰＬＡＳｉＳＴ（9120001065575）に合併し解散,2015-10-05,1,,,,,カラーコスモ,0
1176,4120001188100,登記記録の閉鎖等,0,2025-04-08,2025-04-02,株式会社プラスク,,株式会社,大阪府,大阪市北区,大淀南２丁目９番７号,,27,127,5310075,,,2025-04-02,清算の結了等,,,2015-10-05,1,,,,,プラスク,0
1186,4120002015526,登記記録の閉鎖等,0,2025-04-08,2025-04-03,有限会社三協商事,,有限会社,大阪府,大阪市港区,弁天６丁目５番４０号,,27,107,5520007,,,2025-04-03,清算の結了等,,,2015-10-05,1,,,,,サンキョウショウジ,0
1202,4120103005855,登記記録の閉鎖等,0,2025-04-08,2025-04-01,合同会社ＧＬＯＲＹ　ＳＨＩＰ,,合同会社,大阪府,堺市北区,黒土町２２－１,,27,146,5918024,,,2025-04-01,清算の結了等,,,2024-05-23,1,,,,,グローリーシップ,0
1216,4140001083357,登記記録の閉鎖等,0,2025-04-08,2025-04-01,株式会社ライトボックス０９,,株式会社,兵庫県,宝塚市,逆瀬台１丁目３番Ｂ－５０３号,,28,214,6650024,,,2025-04-01,清算の結了等,,,2015-10-05,1,,,,,ライトボックスゼロキュウ,0
1251,4190002009100,登記記録の閉鎖等,0,2025-04-08,2025-03-26,株式会社ＴＳ,,株式会社,大阪府,大阪市中央区,道修町１丁目６番７号ＪＭＦビル北浜０１（９階）,,27,128,5410045,,,2025-03-26,清算の結了等,,,2015-10-05,1,,,,,ティーエス,0
1295,4310002009797,登記記録の閉鎖等,0,2025-04-08,2025-04-01,有限会社クリーン．シティ,,有限会社,長崎県,佐世保市,干尽町３番地４７,,42,202,8570852,,,2025-04-01,合併による解散等,7310001005332,令和７年４月１日長崎県佐世保市干尽町３番地４７株式会社縣北衛生社（7310001005332）に合併し解散,2015-10-05,1,,,,,クリーンシティ,0
1297,4330001017709,登記記録の閉鎖等,0,2025-04-08,2025-04-04,株式会社パートナーズ,,株式会社,熊本県,八代市,本町２丁目４番１６号,,43,202,8660861,,,2025-04-04,合併による解散等,9340001001814,令和７年４月１日鹿児島市西別府町２９４１番地２６株式会社オーリック（9340001001814）に合併し解散,2015-10-05,1,,,,,パートナーズ,0
1299,4330002006124,登記記録の閉鎖等,0,2025-04-08,2025-03-31,有限会社大甲園,,有限会社,熊本県,熊本市中央区,草葉町４番地５,,43,101,8600843,,,2025-03-31,清算の結了等,,,2015-10-05,1,,,,,,0
1301,4340001022534,登記記録の閉鎖等,0,2025-04-08,2025-04-02,株式会社フィールドヘッド,,株式会社,鹿児島県,鹿児島市,城山町４番２０－３０４号,,46,201,8920853,,,2025-04-02,清算の結了等,,,2020-01-08,1,,,,,フィールドヘッド,0
1305,4350003000025,登記記録の閉鎖等,0,2025-04-08,2025-04-02,合同会社大橋モータース,,合同会社,宮崎県,宮崎市,大塚町馬場崎３５８４番地７,,45,201,8800951,,,2025-04-02,清算の結了等,,,2015-10-05,1,,,,,オオハシモータース,0
1342,4430002048478,登記記録の閉鎖等,0,2025-04-08,2025-03-31,有限会社若葉園,,有限会社,北海道,恵庭市,北柏木町１丁目１番１１号,,01,231,0611433,,,2025-03-31,清算の結了等,,,2015-10-05,1,,,,,ワカバエン,0
1347,4450002002565,登記記録の閉鎖等,0,2025-04-08,2025-04-01,有限会社阿部自動車,,有限会社,北海道,旭川市,豊岡九条６丁目４番９号,,01,204,0788239,,,2025-04-01,清算の結了等,,,2015-10-05,1,,,,,アベジドウシャ,0
1357,5010001006882,登記記録の閉鎖等,0,2025-04-08,2025-04-01,フクダライフテック株式会社,,株式会社,東京都,文京区,本郷３丁目３９番４号,,13,105,1130033,,,2025-04-01,合併による解散等,7010001006880,令和７年４月１日東京都文京区本郷三丁目３９番４号フクダ電子株式会社（7010001006880）に合併し解散,2015-10-05,1,,,,,フクダライフテック,0
1359,5010001205815,登記記録の閉鎖等,0,2025-04-08,2025-03-27,株式会社ＨＯＵＮＤ,,株式会社,東京都,豊島区,池袋本町２丁目５番３号カルドアンビエンテ３Ｆ,,13,116,1700011,,,2025-03-27,清算の結了等,,,2019-12-11,1,,,,,ハウンド,0
1363,5010003020980,登記記録の閉鎖等,0,2025-04-08,2025-03-31,日光２９ウインベル東蒲田合同会社,,合同会社,東京都,千代田区,丸の内１丁目４番１号東京共同会計事務所内,,13,101,1000005,,,2025-03-31,清算の結了等,,,2015-10-05,1,,,,,ニッコウトゥエンティーナインウインベルヒガシカマタ,0
1384,5010502016067,登記記録の閉鎖等,0,2025-04-08,2025-03-26,有限会社第一商工,,有限会社,東京都,台東区,東浅草１丁目１１番１１号,,13,106,1110025,,,2025-03-26,清算の結了等,,,2015-10-05,1,,,,,ダイイチショウコウ,0
1390,5010901016989,登記記録の閉鎖等,0,2025-04-08,2025-04-03,株式会社ベアーズ,,株式会社,東京都,世田谷区,祖師谷１丁目２９番１号,,13,112,1570072,,,2025-04-03,清算の結了等,,,2015-10-05,1,,,,,ベアーズ,0
1392,5010902011048,登記記録の閉鎖等,0,2025-04-08,2025-04-03,有限会社ナンカイ,,有限会社,東京都,世田谷区,代沢２丁目４０番２２号,,13,112,1550032,,,2025-04-03,清算の結了等,,,2015-10-05,1,,,,,ナンカイ,0
1425,5012802000493,登記記録の閉鎖等,0,2025-04-08,2025-03-24,有限会社オクムラ,,有限会社,東京都,立川市,若葉町２丁目１６番地７,,13,202,1900001,,,2025-03-24,清算の結了等,,,2015-10-05,1,,,,,オクムラ,0
1431,5020001047851,登記記録の閉鎖等,0,2025-04-08,2025-03-28,株式会社光信興業,,株式会社,神奈川県,横浜市中区,簑沢１０６番地簑沢テラスハウス１号,,14,104,2310856,,,2025-03-28,清算の結了等,,,2015-10-05,1,,,,,コウシンコウギョウ,0
1434,5020001109131,登記記録の閉鎖等,0,2025-04-08,2025-03-24,株式会社クレッシェンド,,株式会社,神奈川県,横浜市緑区,十日市場町８３１番地１５,,14,113,2260025,,,2025-03-24,清算の結了等,,,2015-10-05,1,,,,,クレッシェンド,0
1435,5020001138948,登記記録の閉鎖等,0,2025-04-08,2025-03-31,株式会社ＲＯＸ’Ｓ,,株式会社,神奈川県,川崎市麻生区,王禅寺西３丁目１番４３号,,14,137,2150017,,,2025-03-31,清算の結了等,,,2020-12-18,1,,,,,ロックス,0
1436,5020001142834,登記記録の閉鎖等,0,2025-04-08,2025-03-26,株式会社エイタックＳＳ,,株式会社,神奈川県,横浜市港北区,新吉田町５５８１番地,,14,109,2230056,,,2025-03-26,清算の結了等,,,2021-09-02,1,,,,,,0
1440,5020002011682,登記記録の閉鎖等,0,2025-04-08,2025-03-31,有限会社くりはら商店,,有限会社,神奈川県,横浜市戸塚区,平戸１丁目２２番７号,,14,110,2440802,,,2025-03-31,清算の結了等,,,2015-10-05,1,,,,,クリハラショウテン,0
1446,5021001012085,登記記録の閉鎖等,0,2025-04-08,2025-04-03,株式会社コンビック,,株式会社,神奈川県,相模原市中央区,小町通１丁目７番７号,,14,152,2520217,,,2025-04-03,清算の結了等,,,2015-10-05,1,,,,,コンビック,0
1464,5030003012638,登記記録の閉鎖等,0,2025-04-08,2025-04-01,合同会社こち,,合同会社,埼玉県,上尾市,大字大谷本郷７１９番地１,,11,219,3620044,,,2025-04-01,合併による解散等,8030001149966,令和７年４月１日埼玉県さいたま市大宮区吉敷町１－１０３大宮大鷹ビル５０４株式会社あしたの花（8030001149966）に合併し解散,2018-11-06,1,,,,,コチ,0
1474,5040003004089,登記記録の閉鎖等,0,2025-04-08,2025-03-28,ジェイビークル合同会社,,合同会社,千葉県,柏市,中新宿２丁目１７番１４号,,12,217,2770066,,,2025-03-28,清算の結了等,,,2015-10-05,1,,,,,ジェイビークル,0
1477,5050001005526,登記記録の閉鎖等,0,2025-04-08,2025-04-01,茨城リース株式会社,,株式会社,茨城県,水戸市,千波町１９４８番地,,08,201,3100851,,,2025-04-01,合併による解散等,6050001006102,令和７年４月１日茨城県水戸市千波町１９４９番地１株式会社茨日不動産（6050001006102）に合併し解散,2015-10-05,1,,,,,イバラキリース,0
1496,5080102007014,登記記録の閉鎖等,0,2025-04-08,2025-03-28,有限会社紫羅花,,有限会社,静岡県,御殿場市,二子５０８番地の２,,22,215,4120032,,,2025-03-28,清算の結了等,,,2015-10-05,1,,,,,シラカ,0
1503,5090002007724,登記記録の閉鎖等,0,2025-04-08,2025-03-27,有限会社日向鉄工所,,有限会社,山梨県,南巨摩郡身延町,車田１２０１番地の４,,19,365,4093116,,,2025-03-27,清算の結了等,,,2015-10-05,1,,,,,ヒュウガテッコウショ,0
1512,5120001019543,登記記録の閉鎖等,0,2025-04-08,2025-04-04,株式会社イナハドレス,,株式会社,大阪府,大阪市平野区,西脇２丁目１番４号,,27,126,5470035,,,2025-04-04,清算の結了等,,,2015-10-05,1,,,,,イナハドレス,0
1513,5120001109385,登記記録の閉鎖等,0,2025-04-08,2025-03-26,株式会社満帆,,株式会社,大阪府,大阪市淀川区,宮原１丁目１７番１２号,,27,123,5320003,,,2025-03-26,清算の結了等,,,2015-10-05,1,,,,,,0
1515,5120001166179,登記記録の閉鎖等,0,2025-04-08,2025-03-27,株式会社ギャレ,,株式会社,大阪府,大阪市中央区,久太郎町２丁目６番１４号,,27,128,5410056,,,2025-03-27,清算の結了等,,,2015-10-05,1,,,,,ギャレ,0
1516,5120001172961,登記記録の閉鎖等,0,2025-04-08,2025-03-31,株式会社Ｌｉｂｅｒｔｙ＆Ｃｏ．,,株式会社,愛知県,名古屋市中村区,名駅３丁目４番１０号アルティメイト名駅１ｓｔ２階,,23,105,4500002,,,2025-03-31,清算の結了等,,,2015-10-05,1,,,,,リバティーアンドコー,0
1517,5120001229992,登記記録の閉鎖等,0,2025-04-08,2025-03-26,株式会社リブリンク,,株式会社,大阪府,大阪市福島区,福島６丁目１２番１６号矢山ビル４０１号,,27,103,5530003,,,2025-03-26,清算の結了等,,,2020-06-29,1,,,,,リブリンク,0
1534,5120102021365,登記記録の閉鎖等,0,2025-04-08,2025-04-01,有限会社東光湯,,有限会社,大阪府,岸和田市,野田町１丁目４番２０号,,27,202,5960076,,,2025-04-01,清算の結了等,,,2015-10-05,1,,,,,トウコウユ,0
1546,5140001094832,登記記録の閉鎖等,0,2025-04-08,2025-04-01,株式会社千種川ファーム,,株式会社,兵庫県,赤穂郡上郡町,上郡１５８番地５,,28,481,6781231,,,2025-04-01,合併による解散等,5140001061353,令和７年４月１日兵庫県姫路市北条１０８０番地２フジコー株式会社（5140001061353）に合併し解散,2015-10-05,1,,,,,チクサガワファーム,0
1573,5150002005250,登記記録の閉鎖等,0,2025-04-08,2025-04-01,有限会社丸栄加工,,有限会社,奈良県,大和郡山市,馬司町７２０番地１,,29,203,6391124,,,2025-04-01,合併による解散等,3150001005971,令和７年４月１日奈良県大和郡山市馬司町６４２番地の２奈良丸栄産業株式会社（3150001005971）に合併し解散,2015-10-05,1,,,,,マルエイカコウ,0
1584,5180001027078,登記記録の閉鎖等,0,2025-04-08,2025-04-03,ホリベマシナリー株式会社,,株式会社,愛知県,名古屋市西区,又穂町２丁目１１番地,,23,104,4510014,,,2025-04-03,合併による解散等,7130001000054,令和７年４月１日京都市南区吉祥院南落合町３番地村田機械株式会社（7130001000054）に合併し解散,2015-10-05,1,"HORIBE MACHINERY CO.,LTD.",Aichi,"2-11 Mataho-cho, Nishi ku Nagoya shi",,ホリベマシナリー,0
1598,5180301029435,登記記録の閉鎖等,0,2025-04-08,2025-03-31,株式会社豊田デンソーサービス,,株式会社,愛知県,豊田市,寺部町２丁目５番地,,23,211,4710017,,,2025-03-31,清算の結了等,,,2016-07-25,1,,,,,トヨタデンソーサービス,0
1600,5180302016515,登記記録の閉鎖等,0,2025-04-08,2025-03-31,有限会社神谷鉄工所,,有限会社,愛知県,安城市,東栄町５丁目８番地４,,23,212,4460007,,,2025-03-31,清算の結了等,,,2015-10-05,1,,,,,カミヤテッコウジョ,0
1605,5200001007416,登記記録の閉鎖等,0,2025-04-08,2025-04-02,日鋼建設株式会社,,株式会社,岐阜県,各務原市,那加桐野町３丁目２１番地の２,,21,213,5040008,,,2025-04-02,清算の結了等,,,2015-10-05,1,,,,,ニッコウケンセツ,0
1607,5200002005278,登記記録の閉鎖等,0,2025-04-08,2025-04-03,有限会社ワイ・ティー,,有限会社,岐阜県,岐阜市,早田大通２丁目１１番地,,21,201,5020902,,,2025-04-03,清算の結了等,,,2015-10-05,1,,,,,ワイティー,0
1628,5280001000487,登記記録の閉鎖等,0,2025-04-08,2025-04-01,株式会社テック販売山陰,,株式会社,島根県,松江市,浜乃木２丁目３番１２号,,32,201,6900044,,,2025-04-01,合併による解散等,9280001005581,令和７年４月１日島根県雲南市木次町下熊谷１５４５番地３株式会社えすみ（9280001005581）に合併し解散,2015-10-05,1,,,,,テックハンバイサンイン,0
1648,5310001001606,登記記録の閉鎖等,0,2025-04-08,2025-04-01,西日本設計株式会社,,株式会社,長崎県,長崎市,橋口町７番７号,,42,201,8528114,,,2025-04-01,合併による解散等,8310001004283,令和７年４月１日長崎市橋口町７番７号ネクストエンジニアリング株式会社（8310001004283）に合併し解散,2015-10-05,1,,,,,ニシニホンセッケイ,0
1673,5360003006219,登記記録の閉鎖等,0,2025-04-08,2025-04-01,フォーカス合同会社,,合同会社,沖縄県,糸満市,西崎町３丁目７番地の９県営西崎第二団地１号棟３０４号,,47,210,9010306,,,2025-04-01,清算の結了等,,,2015-10-05,1,,,,,フォーカス,0
1697,5430001038669,登記記録の閉鎖等,0,2025-04-08,2025-03-12,株式会社Ｈ＆Ｋ,,株式会社,東京都,渋谷区,神宮前２丁目３１番９号,,13,113,1500001,,,2025-03-12,清算の結了等,,,2015-10-05,1,,,,,エイチアンドケー,0
1709,5470001010558,登記記録の閉鎖等,0,2025-04-08,2025-03-31,詫間興業株式会社,,株式会社,香川県,三豊市,詫間町詫間６４３番地,,37,208,7691101,,,2025-03-31,清算の結了等,,,2015-10-05,1,,,,,タクマコウギョウ,0
1711,5470002017692,登記記録の閉鎖等,0,2025-04-08,2025-03-31,有限会社プラントエンジ,,有限会社,香川県,さぬき市,長尾東１７４８番地,,37,206,7692301,,,2025-03-31,清算の結了等,,,2015-10-05,1,,,,,プラントエンジ,0
1714,5480002015217,登記記録の閉鎖等,0,2025-04-08,2025-03-31,有限会社ラフ,,有限会社,徳島県,美馬市,脇町字拝原１１６０番地１,,36,207,7793601,,,2025-03-31,清算の結了等,,,2015-10-05,1,,,,,ラフ,0
1720,6010001035996,登記記録の閉鎖等,0,2025-04-08,2025-03-28,株式会社アポロアート,,株式会社,東京都,中央区,銀座８丁目１６番１０号中銀カプセルタワービルＢ－８０６,,13,102,1040061,,,2025-03-28,清算の結了等,,,2015-10-05,1,,,,,アポロアート,0
1725,6010001185370,登記記録の閉鎖等,0,2025-04-08,2025-04-01,株式会社神高管理,,株式会社,大阪府,大阪市北区,角田町８番７号,,27,127,5300017,,,2025-04-01,合併による解散等,6120001126727,令和７年４月１日大阪市北区角田町８番７号株式会社阪急阪神百貨店（6120001126727）に合併し解散,2017-08-03,1,,,,,シンコウカンリ,0
1726,6010001194875,登記記録の閉鎖等,0,2025-04-08,2025-03-24,ＢｌｏｃｋＢａｓｅ株式会社,,株式会社,東京都,新宿区,袋町５番地１,,13,104,1620828,,,2025-03-24,清算の結了等,,,2018-09-18,1,,,,,ブロックベース,0
1732,6010003021144,登記記録の閉鎖等,0,2025-04-08,2025-03-31,日光８８フィラ新百合ヶ丘合同会社,,合同会社,東京都,千代田区,丸の内１丁目４番１号東京共同会計事務所内,,13,101,1000005,,,2025-03-31,清算の結了等,,,2015-10-05,1,,,,,ニッコウエイティーエイトフィラシンユリガオカ,0
1738,6010401171631,登記記録の閉鎖等,0,2025-04-08,2025-03-13,株式会社ｉｎ　ｔｈｅ　ＺＯＮＥ,,株式会社,東京都,港区,浜松町２丁目２番１５号浜松町ダイヤビル２Ｆ,,13,103,1050013,,,2025-03-13,清算の結了等,,,2023-01-04,1,,,,,インザゾーン,0
1741,6010403026338,登記記録の閉鎖等,0,2025-04-08,2025-03-13,合同会社ｒｏｋｕ,,合同会社,東京都,港区,浜松町２丁目２番１５号浜松町ダイヤビル２Ｆ,,13,103,1050013,,,2025-03-13,清算の結了等,,,2021-10-19,1,,,,,ロク,0
1742,6010405013326,登記記録の閉鎖等,0,2025-04-08,2025-04-01,一般社団法人那須山荘を維持する会,,その他の設立登記法人,東京都,中央区,湊１丁目７番３号,,13,102,1040043,,,2025-04-01,清算の結了等,,,2015-10-05,1,,,,,ナスサンソウヲイジスルカイ,0
1743,6010405018192,登記記録の閉鎖等,0,2025-04-08,2025-03-21,一般社団法人マーズ,,その他の設立登記法人,東京都,港区,虎ノ門３丁目２２番１０－２０１号,,13,103,1050001,,,2025-03-21,清算の結了等,,,2019-10-24,1,,,,,マーズ,0
1749,6010602031584,登記記録の閉鎖等,0,2025-04-08,2025-03-31,有限会社マキ,,有限会社,東京都,江東区,南砂２丁目３番８－４２１号,,13,108,1360076,,,2025-03-31,清算の結了等,,,2015-10-05,1,,,,,マキ,0
1755,6010901020701,登記記録の閉鎖等,0,2025-04-08,2025-03-10,株式会社イレブングラフィックス,,株式会社,東京都,目黒区,東山２丁目６番９号,,13,110,1530043,,,2025-03-10,清算の結了等,,,2015-10-05,1,,,,,,0
1760,6011001012044,登記記録の閉鎖等,0,2025-04-08,2025-03-07,株式会社スピリツ,,株式会社,東京都,渋谷区,千駄ヶ谷４丁目１９番１４号,,13,113,1510051,,,2025-03-07,清算の結了等,,,2015-10-05,1,,,,,,0
1761,6011001070901,登記記録の閉鎖等,0,2025-04-08,2025-03-10,株式会社陶響青,,株式会社,東京都,渋谷区,桜丘町２３番１７号,,13,113,1500031,,,2025-03-10,清算の結了等,,,2015-10-05,1,,,,,トウキョウシリウス,0
1766,6011201014377,登記記録の閉鎖等,0,2025-04-08,2025-04-04,株式会社ＹＫＵ,,株式会社,東京都,文京区,音羽１丁目２６番１３号ソレイユ音羽,,13,105,1120013,,,2025-04-04,清算の結了等,,,2015-10-05,1,,,,,ワイケイユー,0
1767,6011203004244,登記記録の閉鎖等,0,2025-04-08,2025-03-31,ＬａＶｉｅ　Ｃｏｕｃｏｕ合同会社,,合同会社,東京都,中野区,弥生町１丁目４３番１号アーデルホーフ弥生町１Ｅ,,13,114,1640013,,,2025-03-31,清算の結了等,,,2023-12-06,1,,,,,ラヴィクウクウ,0
1774,6011601016122,登記記録の閉鎖等,0,2025-04-08,2025-03-26,株式会社宝永キャピタル・パートナーズ,,株式会社,東京都,練馬区,富士見台４丁目３６番１９号,,13,120,1770034,,,2025-03-26,清算の結了等,,,2015-10-05,1,,,,,,0
1775,6011601026518,登記記録の閉鎖等,0,2025-04-08,2025-03-24,電測株式会社,,株式会社,東京都,練馬区,北町５丁目５番７－２０３号,,13,120,1790081,,,2025-03-24,清算の結了等,,,2023-01-23,1,,,,,デンソク,0
1776,6011605001491,登記記録の閉鎖等,0,2025-04-08,2025-03-24,特定非営利活動法人日本粒状改良土協会,,その他の設立登記法人,東京都,練馬区,関町東２丁目１５番７号,,13,120,1770052,,,2025-03-24,清算の結了等,,,2015-10-05,1,,,,,ニホンリュウジョウカイリョウドキョウカイ,0
1791,6012403002649,登記記録の閉鎖等,0,2025-04-08,2025-03-28,Ｏｒｉｏｎ合同会社,,合同会社,東京都,大田区,仲池上２丁目１５番２,,13,111,1460081,,,2025-03-28,清算の結了等,,,2016-02-23,1,,,,,オリオン,0
1804,6020001109353,登記記録の閉鎖等,0,2025-04-08,2025-03-28,株式会社ドラゴンママ,,株式会社,神奈川県,川崎市麻生区,上麻生３丁目１３番１号ベルクレェ新百合ヶ丘９０１,,14,137,2150021,,,2025-03-28,清算の結了等,,,2015-10-05,1,,,,,ドラゴンママ,0
1810,6020002071305,登記記録の閉鎖等,0,2025-04-08,2025-03-31,有限会社マルニ清水,,有限会社,神奈川県,横浜市神奈川区,羽沢南２丁目２５番３－５０１号,,14,102,2210866,,,2025-03-31,清算の結了等,,,2015-10-05,1,,,,,マルニシミズ,0
1811,6020002099949,登記記録の閉鎖等,0,2025-04-08,2025-03-31,有限会社早稲田義塾,,有限会社,神奈川県,川崎市川崎区,新川通４番１６号,,14,131,2100013,,,2025-03-31,清算の結了等,,,2015-10-05,1,,,,,ワセダギジュク,0
1819,6030001022539,登記記録の閉鎖等,0,2025-04-08,2025-04-01,エルシーワークス株式会社,,株式会社,埼玉県,川口市,川口６丁目３番１４号３Ｆ,,11,203,3320015,,,2025-04-01,合併による解散等,9011501015948,令和７年４月１日埼玉県川口市川口六丁目３番１４号３Ｆ株式会社ＭＩＲＡＴＺ（9011501015948）に合併し解散,2015-10-05,1,,,,,エルシーワークス,0
1827,6030002031539,登記記録の閉鎖等,0,2025-04-08,2025-04-01,有限会社山康,,有限会社,埼玉県,所沢市,大字久米３４９番地,,11,208,3591131,,,2025-04-01,清算の結了等,,,2015-10-05,1,,,,,ヤマコウ,0
1828,6030003009939,登記記録の閉鎖等,0,2025-04-08,2025-03-31,合同会社リトルアイランドホームズ,,合同会社,埼玉県,さいたま市大宮区,櫛引町１丁目３２４番地２－３２９号,,11,103,3300851,,,2025-03-31,清算の結了等,,,2017-02-22,1,,,,,リトルアイランドホームズ,0
1847,6050001044507,登記記録の閉鎖等,0,2025-04-08,2025-03-31,株式会社健康増進会,,株式会社,茨城県,神栖市,堀割１丁目５番４号ラヴェリテ１０２,,08,232,3140135,,,2025-03-31,清算の結了等,,,2018-06-07,1,,,,,ケンコウゾウシンカイ,0
1863,6080101021519,登記記録の閉鎖等,0,2025-04-08,2025-03-31,株式会社ＩＫＥ　ＳＴＹＬＥ,,株式会社,静岡県,沼津市,高沢町１３番３７－８０２号マストスクエア沼津,,22,203,4100057,,,2025-03-31,清算の結了等,,,2019-12-09,1,,,,,アイケイイースタイル,0
1873,6100001031383,登記記録の閉鎖等,0,2025-04-08,2025-04-01,株式会社ＳＪＭ,,株式会社,長野県,佐久市,臼田２２９７番地３,,20,217,3840301,,,2025-04-01,清算の結了等,,,2018-06-25,1,,,,,エスジェイエム,0
1878,6120001053541,登記記録の閉鎖等,0,2025-04-08,2025-04-01,朝日エンジニアリング株式会社,,株式会社,大阪府,大阪市淀川区,三国本町１丁目１２番３０号,,27,123,5320005,,,2025-04-01,合併による解散等,1120001057571,令和７年４月１日大阪市淀川区三国本町一丁目１２番３０号日新興業株式会社（1120001057571）に合併し解散,2015-10-05,1,,,,,アサヒエンジニアリング,0
1880,6120001096474,登記記録の閉鎖等,0,2025-04-08,2025-04-02,株式会社エッグ,,株式会社,大阪府,大阪市淀川区,宮原３丁目４番３０号ニッセイ新大阪ビル,,27,123,5320003,,,2025-04-02,合併による解散等,6120001056148,令和７年４月１日大阪市淀川区宮原三丁目４番３０号ニッセイ新大阪ビルＳｋｙ株式会社（6120001056148）に合併し解散,2015-10-05,1,,,,,エッグ,0
1882,6120001100368,登記記録の閉鎖等,0,2025-04-08,2025-04-01,株式会社クリアパス,,株式会社,大阪府,大阪市浪速区,湊町１丁目２番３号,,27,111,5560017,,,2025-04-01,合併による解散等,2120001137521,令和７年４月１日大阪市浪速区湊町一丁目２番３号株式会社アプラス（2120001137521）に合併し解散,2015-10-05,1,,,,,クリアパス,0
1886,6120001197355,登記記録の閉鎖等,0,2025-04-08,2025-03-26,株式会社Ｂ．Ｂ,,株式会社,大阪府,大阪市北区,西天満６丁目６番９号日宝エンパイヤビル３階,,27,127,5300047,,,2025-03-26,清算の結了等,,,2016-04-12,1,,,,,,0
1894,6120005021619,登記記録の閉鎖等,0,2025-04-08,2025-04-04,一般社団法人全日本華人飲食同心連盟,,その他の設立登記法人,大阪府,大阪市浪速区,下寺３丁目３番２９号,,27,111,5560001,,,2025-04-04,清算の結了等,,,2020-06-02,1,,,,,ゼンニホンカジンインショクドウシンレンメイ,0
1895,6120101022330,登記記録の閉鎖等,0,2025-04-08,2025-04-01,東綱ワイヤロープ販売株式会社,,株式会社,東京都,江東区,永代２丁目３７番２８号,,13,108,1350034,,,2025-04-01,合併による解散等,7010001034997,令和７年４月１日東京都江東区永代二丁目３７番２８号東京製綱株式会社（7010001034997）に合併し解散,2015-10-05,1,,,,,トウコウワイヤロープハンバイ,0
1909,6130001055801,登記記録の閉鎖等,0,2025-04-08,2025-04-03,株式会社うかわ,,株式会社,京都府,京丹後市,丹後町袖志１４９３番地,,26,212,6270245,,,2025-04-03,清算の結了等,,,2015-10-05,1,,,,,ウカワ,0
1911,6140001005094,登記記録の閉鎖等,0,2025-04-08,2025-04-01,株式会社デンソーテンテクノセプタ,,株式会社,兵庫県,神戸市西区,室谷１丁目６番４,,28,111,6512241,,,2025-04-01,合併による解散等,7140001070443,令和７年４月１日兵庫県尼崎市道意町七丁目１番３冨士デジテック株式会社（7140001070443）に合併し解散,2015-10-05,1,,,,,デンソーテンテクノセプタ,0
1926,6180001080183,登記記録の閉鎖等,0,2025-04-08,2025-03-28,株式会社本田薬局,,株式会社,愛知県,尾張旭市,旭前町５丁目７番地２７,,23,226,4880855,,,2025-03-28,清算の結了等,,,2015-10-05,1,,,,,ホンダヤッキョク,0
1938,6180005019112,登記記録の閉鎖等,0,2025-04-08,2025-03-31,一般社団法人セレンディピティジャパン,,その他の設立登記法人,愛知県,名古屋市緑区,鳴丘２丁目３００１番地の１,,23,114,4580005,,,2025-03-31,清算の結了等,,,2021-01-18,1,,,,,セレンディピティジャパン,0
1951,6230002010596,登記記録の閉鎖等,0,2025-04-08,2025-03-31,有限会社アライ,,有限会社,富山県,高岡市,井口本江５４４番地の２,,16,202,9330807,,,2025-03-31,清算の結了等,,,2015-10-05,1,,,,,アライ,0
1954,6250001003491,登記記録の閉鎖等,0,2025-04-08,2025-04-01,西日本住宅企業株式会社,,株式会社,山口県,宇部市,大字妻崎開作２２２番地の３,,35,202,7590204,,,2025-04-01,合併による解散等,6250001014638,令和７年４月１日山口県宇部市大字妻崎開作９７３番地４宇部工業ホールディング株式会社（6250001014638）に合併し解散,2015-10-05,1,,,,,ニシニホンジュウタクキギョウ,0
1959,6250002010009,登記記録の閉鎖等,0,2025-04-08,2025-04-02,有限会社常見屋本店,,有限会社,山口県,下関市,小月本町１丁目９番９号,,35,201,7501142,,,2025-04-02,清算の結了等,,,2015-10-05,1,,,,,ツネミヤホンテン,0
1971,6290001069141,登記記録の閉鎖等,0,2025-04-08,2025-04-04,エス・ワンセキュリティ株式会社,,株式会社,福岡県,糟屋郡新宮町,美咲２丁目１番４１号,,40,345,8110121,,,2025-04-04,合併による解散等,3290801010158,令和７年４月１日北九州市八幡西区引野三丁目１７番２３号善光ビルメインテナンス株式会社（3290801010158）に合併し解散,2015-10-05,1,,,,,エスワンセキュリティ,0
1984,6310001001092,登記記録の閉鎖等,0,2025-04-08,2025-04-07,田中食品株式会社,,株式会社,長崎県,長崎市,住吉町１４番２３号,,42,201,8528154,,,2025-04-07,清算の結了等,,,2015-10-05,1,,,,,タナカショクヒン,0
1993,6340001002492,登記記録の閉鎖等,0,2025-04-08,2025-04-01,サザンタイガード株式会社,,株式会社,鹿児島県,鹿児島市,真砂本町３番６１号,,46,201,8900067,,,2025-04-01,清算の結了等,,,2015-10-05,1,,,,,サザンタイガード,0
2016,6420001001247,登記記録の閉鎖等,0,2025-04-08,2025-04-02,株式会社田澤工務店,,株式会社,青森県,青森市,大字三内字稲元１０６番地１３,,02,201,0380031,,,2025-04-02,清算の結了等,,,2015-10-05,1,,,,,タザワコウムテン,0
2040,7010001061414,登記記録の閉鎖等,0,2025-04-08,2025-04-01,東京製綱テクノス株式会社,,株式会社,東京都,江東区,永代２丁目３７番２８号,,13,108,1350034,,,2025-04-01,合併による解散等,7010001034997,令和７年４月１日東京都江東区永代二丁目３７番２８号東京製綱株式会社（7010001034997）に合併し解散,2015-10-05,1,,,,,トウキョウセイコウテクノス,0
2048,7010005026207,登記記録の閉鎖等,0,2025-04-08,2025-04-01,一般社団法人グローバル・ビジネスコミュニケーション協会,,その他の設立登記法人,東京都,文京区,本郷１丁目１５番２号,,13,105,1130033,,,2025-04-01,清算の結了等,,,2017-01-10,1,,,,,グローバルビジネスコミュニケーションキョウカイ,0
2049,7010005028541,登記記録の閉鎖等,0,2025-04-08,2025-03-31,一般社団法人ＦＩＤＥＭ　ＪＡＰＡＮ,,その他の設立登記法人,東京都,文京区,向丘１丁目４番９号,,13,105,1130023,,,2025-03-31,清算の結了等,,,2018-05-21,1,,,,,フィデムジャパン,0
2050,7010005036115,登記記録の閉鎖等,0,2025-04-08,2025-03-31,表参道特定目的会社,,その他の設立登記法人,東京都,千代田区,丸の内１丁目８番２号鉄鋼ビルディング４階,,13,101,1000005,,,2025-03-31,清算の結了等,,,2023-01-17,1,,,,,オモテサンドウ,0
2054,7010401036841,登記記録の閉鎖等,0,2025-04-08,2025-04-01,虎ノ門リアルエステート株式会社,,株式会社,東京都,千代田区,霞が関１丁目４番１号,,13,101,1000013,,,2025-04-01,合併による解散等,6010001033496,令和７年４月１日東京都千代田区霞が関一丁目４番１号中央日本土地建物株式会社（6010001033496）に合併し解散,2015-10-05,1,,,,,トラノモンリアルエステート,0
2057,7010401125743,登記記録の閉鎖等,0,2025-04-08,2025-03-31,株式会社ビージンズ,,株式会社,神奈川県,横浜市西区,戸部町６丁目２１７番地１陽光ビル３０１,,14,103,2200042,,,2025-03-31,清算の結了等,,,2016-07-15,1,,,,,ビージンズ,0
2067,7010405009959,登記記録の閉鎖等,0,2025-04-08,2025-03-31,セキュア有限責任監査法人,,その他の設立登記法人,東京都,千代田区,麹町２丁目６番地７,,13,101,1020083,,,2025-03-31,清算の結了等,,,2015-10-05,1,,,,,セキュア,0
2083,7011001142311,登記記録の閉鎖等,0,2025-04-08,2025-03-10,Ｅ－Ｍｅｄｉｃａｌ株式会社,,株式会社,東京都,渋谷区,千駄ヶ谷５丁目２７番５号リンクスクエア新宿１６Ｆ,,13,113,1510051,,,2025-03-10,清算の結了等,,,2021-08-17,1,,,,,イーメディカル,0
2086,7011101016308,登記記録の閉鎖等,0,2025-04-08,2025-04-01,日本化成サービス株式会社,,株式会社,東京都,新宿区,歌舞伎町２丁目３番２２号,,13,104,1600021,,,2025-04-01,合併による解散等,3010401181534,令和７年４月１日東京都新宿区歌舞伎町二丁目３番２２号日本化成株式会社（3010401181534）に合併し解散,2015-10-05,1,,,,,ニホンカセイサービス,0
2097,7011503005981,登記記録の閉鎖等,0,2025-04-08,2025-04-01,合同会社ロイテ,,合同会社,東京都,北区,赤羽１丁目６６番５号グリーンコーポＩＩ１Ｆ,00133962,13,117,1150045,,,2025-04-01,清算の結了等,,,2024-03-06,1,,,,,ロイテ,0
2100,7011701022597,登記記録の閉鎖等,0,2025-04-08,2025-04-01,株式会社剛力ＡＬＦＡ,,株式会社,東京都,江戸川区,南葛西６丁目１３番１４号,,13,123,1340085,,,2025-04-01,合併による解散等,7011701010841,令和７年４月１日東京都江戸川区南葛西六丁目１３番１４号株式会社ＧＯＵＲＩＫＩコーポレーション（7011701010841）に合併し解散,2019-04-18,1,,,,,ゴウリキアルファ,0
2115,7020001022506,登記記録の閉鎖等,0,2025-04-08,2025-03-24,株式会社エス・インターナショナル,,株式会社,神奈川県,横浜市中区,桜木町１丁目１番７号,,14,104,2310062,,,2025-03-24,清算の結了等,,,2015-10-05,1,,,,,エスインターナショナル,0
2116,7020001022951,登記記録の閉鎖等,0,2025-04-08,2025-03-24,株式会社ケヒコ,,株式会社,神奈川県,横浜市中区,桜木町１丁目１番７号,,14,104,2310062,,,2025-03-24,清算の結了等,,,2015-10-05,1,,,,,ケヒコ,0
2119,7020001097647,登記記録の閉鎖等,0,2025-04-08,2025-03-28,プーリーズ株式会社,,株式会社,広島県,福山市,若松町２番２２号,,34,207,7200034,,,2025-03-28,清算の結了等,,,2015-10-05,1,,,,,プーリーズ,0
2123,7020001149076,登記記録の閉鎖等,0,2025-04-08,2025-03-31,株式会社ソレイユ,,株式会社,神奈川県,横浜市鶴見区,寺谷２丁目４番２４－１０５号,,14,101,2300015,,,2025-03-31,清算の結了等,,,2022-11-21,1,,,,,ソレイユ,0
2133,7020002053277,登記記録の閉鎖等,0,2025-04-08,2025-03-31,有限会社ジャケットハウス,,有限会社,神奈川県,横浜市緑区,霧が丘１丁目１３番地５,,14,113,2260016,,,2025-03-31,清算の結了等,,,2015-10-05,1,,,,,ジャケットハウス,0
2134,7020002067459,登記記録の閉鎖等,0,2025-04-08,2025-03-27,有限会社ビオス,,有限会社,神奈川県,横浜市港北区,綱島東１丁目９番２５号,,14,109,2230052,,,2025-03-27,清算の結了等,,,2015-10-05,1,,,,,ビオス,0
2136,7020005008534,登記記録の閉鎖等,0,2025-04-08,2025-03-31,特定非営利活動法人ノアール,,その他の設立登記法人,神奈川県,川崎市宮前区,西野川１丁目２３番１０－１０１号市営住宅,,14,136,2160044,,,2025-03-31,清算の結了等,,,2015-10-05,1,,,,,ノアール,0
2148,7030001090584,登記記録の閉鎖等,0,2025-04-08,2025-04-01,株式会社中野科研,,株式会社,埼玉県,日高市,武蔵台１丁目４６番９号,,11,242,3501255,,,2025-04-01,清算の結了等,,,2015-10-05,1,,,,,ナカノカケン,0
2206,7120001171383,登記記録の閉鎖等,0,2025-04-08,2025-03-26,株式会社ますだレッカーサービス,,株式会社,大阪府,守口市,八雲中町２丁目１２番３５号,,27,209,5700005,,,2025-03-26,清算の結了等,,,2015-10-05,1,,,,,マスダレッカーサービス,0
2222,7120005023647,登記記録の閉鎖等,0,2025-04-08,2025-04-04,税理士法人ＯＫＵＤＡ＆Ｐａｒｔｎｅｒｓ,,その他の設立登記法人,大阪府,大阪市中央区,北久宝寺町３丁目５番１４号,,27,128,5410057,,,2025-04-04,清算の結了等,,,2023-05-29,1,,,,,オクダアンドパートナーズ,0
2237,7130002035859,登記記録の閉鎖等,0,2025-04-08,2025-04-02,有限会社志茂運送店,,有限会社,京都府,京都市南区,吉祥院這登中町５１番地,,26,107,6018353,,,2025-04-02,清算の結了等,,,2024-11-11,1,,,,,シモウンソウテン,0
2253,7150001006719,登記記録の閉鎖等,0,2025-04-08,2025-04-02,株式会社ペバックス,,株式会社,奈良県,天理市,中山町５２１番地,,29,204,6320051,,,2025-04-02,清算の結了等,,,2015-10-05,1,,,,,ペバックス,0
2260,7170001002501,登記記録の閉鎖等,0,2025-04-08,2025-04-01,株式会社サンクプランニング,,株式会社,和歌山県,和歌山市,西高松１丁目３番１号,,30,201,6410051,,,2025-04-01,合併による解散等,4170001010564,令和７年４月１日和歌山市西高松一丁目３番１号西本興産株式会社（4170001010564）に合併し解散,2015-10-05,1,,,,,サンクプランニング,0
2266,7180001117579,登記記録の閉鎖等,0,2025-04-08,2025-04-01,株式会社ＫＯＤＯ,,株式会社,愛知県,名古屋市中川区,柳森町２７０８番地板倉ビル３０３,,23,110,4540871,,,2025-04-01,清算の結了等,,,2015-10-05,1,,,,,コードー,0
2275,7180003022785,登記記録の閉鎖等,0,2025-04-08,2025-04-01,株式会社Ｙ’Ｓ　ＯＣＥＡＮ,,株式会社,愛知県,名古屋市千種区,山添町１丁目６６番地,,23,101,4640832,,,2025-04-01,合併による解散等,9180001159297,令和７年４月１日名古屋市千種区山添町一丁目６６番地株式会社ＮＥＸＴ　ＯＣＥＡＮ（9180001159297）に合併し解散,2021-07-29,1,,,,,ワイズオーシャン,0
2296,7240002042027,登記記録の閉鎖等,0,2025-04-08,2025-04-01,有限会社トラストハウジング,,有限会社,広島県,福山市,東川口町５丁目８番７号,,34,207,7200821,,,2025-04-01,清算の結了等,,,2015-10-05,1,,,,,トラストハウジング,0
2299,7250001005396,登記記録の閉鎖等,0,2025-04-08,2025-04-04,合田燃料機器株式会社,,株式会社,山口県,下関市,大字延行１１９－１,,35,201,7510867,,,2025-04-04,合併による解散等,1240001000998,令和７年４月１日広島市安芸区中野一丁目７番２号イワタニ山陽株式会社（1240001000998）に合併し解散,2015-10-05,1,,,,,ゴウダネンリョウキキ,0
2324,7330001003243,登記記録の閉鎖等,0,2025-04-08,2025-02-21,トシワ開発株式会社,,株式会社,熊本県,熊本市,水前寺１丁目２１番４５号,,43,201,8620950,,,2025-02-21,清算の結了等,,,2016-03-17,1,,,,,トシワカイハツ,0
2325,7330001009190,登記記録の閉鎖等,0,2025-04-08,2025-04-01,株式会社スペースハウス・アンド・プランニング,,株式会社,熊本県,菊池郡菊陽町,大字原水１１５７番地３,,43,404,8691102,,,2025-04-01,清算の結了等,,,2015-10-05,1,,,,,スペースハウスアンドプランニング,0
2345,7390002016180,登記記録の閉鎖等,0,2025-04-08,2025-03-28,有限会社アイロック,,有限会社,山形県,寒河江市,六供町１丁目１番６号,,06,206,9910024,,,2025-03-28,清算の結了等,,,2015-10-05,1,,,,,アイロック,0
2353,7430001081444,登記記録の閉鎖等,0,2025-04-08,2025-04-01,株式会社案山子,,株式会社,北海道,札幌市中央区,大通西２２丁目１番１０－３０２号,,01,101,0640820,,,2025-04-01,合併による解散等,5430001085315,令和７年４月１日札幌市中央区南一条西二十三丁目１番３３号株式会社リバーサル（5430001085315）に合併し解散,2020-05-14,1,,,,,カカシ,0
2369,8010001081931,登記記録の閉鎖等,0,2025-04-08,2025-03-31,日本ＸＩＮＵＯＳ株式会社,,株式会社,東京都,中央区,日本橋２丁目２番３号ＲＩＳＨＥビルＵＣＦ４階,,13,102,1030027,,,2025-03-31,清算の結了等,,,2015-10-05,1,,,,,ニホンジヌオーエス,0
2377,8010003021084,登記記録の閉鎖等,0,2025-04-08,2025-03-31,日光１３２レスカール松原合同会社,,合同会社,東京都,千代田区,丸の内１丁目４番１号東京共同会計事務所内,,13,101,1000005,,,2025-03-31,清算の結了等,,,2015-10-05,1,,,,,ニッコウワンハンドレッドサーティーツーレスカールマツバラ,0
2386,8010402017096,登記記録の閉鎖等,0,2025-04-08,2025-03-24,有限会社フットステップス,,有限会社,東京都,港区,白金６丁目１２－１８,,13,103,1080072,,,2025-03-24,清算の結了等,,,2015-10-05,1,,,,,フットステップス,0
2398,8010802019618,登記記録の閉鎖等,0,2025-04-08,2025-03-28,有限会社ウェルフェアバンク,,有限会社,東京都,大田区,池上６丁目１４－１５コート・ドール池上,,13,111,1460082,,,2025-03-28,清算の結了等,,,2015-10-05,1,,,,,ウェルフェアバンク,0
2402,8010902011152,登記記録の閉鎖等,0,2025-04-08,2025-04-04,有限会社中春工芸,,有限会社,東京都,世田谷区,弦巻１丁目４６番１０号,,13,112,1540016,,,2025-04-04,清算の結了等,,,2015-10-05,1,,,,,ナカハルコウゲイ,0
2405,8011001021175,登記記録の閉鎖等,0,2025-04-08,2025-04-03,フランセス商事株式会社,,株式会社,東京都,渋谷区,恵比寿西２丁目１９番９号,,13,113,1500021,,,2025-04-03,合併による解散等,6120001151205,令和７年３月３１日大阪府枚方市桜町９番１号株式会社ソウ・ツー（6120001151205）に合併し解散,2015-10-05,1,,,,,フランセスショウジ,0
2409,8011002002232,登記記録の閉鎖等,0,2025-04-08,2025-03-10,有限会社小俣工業所,,有限会社,東京都,渋谷区,笹塚１丁目６０番１号,00064687,13,113,1510073,,,2025-03-10,清算の結了等,,,2015-10-05,1,,,,,オマタコウギョウショ,0
2412,8011101052418,登記記録の閉鎖等,0,2025-04-08,2025-04-01,日本化成プロダクト株式会社,,株式会社,東京都,新宿区,歌舞伎町２丁目３番２２号,,13,104,1600021,,,2025-04-01,合併による解散等,3010401181534,令和７年４月１日東京都新宿区歌舞伎町二丁目３番２２号日本化成株式会社（3010401181534）に合併し解散,2015-10-05,1,,,,,ニホンカセイプロダクト,0
2445,8020001097398,登記記録の閉鎖等,0,2025-04-08,2025-03-31,Ｄ２Ｄサービス株式会社,,株式会社,神奈川県,横浜市南区,平楽１３７番１８号,,14,105,2320035,,,2025-03-31,清算の結了等,,,2015-10-05,1,,,,,ディーツーディーサービス,0
2448,8020001130415,登記記録の閉鎖等,0,2025-04-08,2025-03-31,株式会社ＲＢＲ　ＢＩＯ　ＪＡＰＡＮ,,株式会社,神奈川県,横浜市中区,山吹町一丁目３番地,,14,104,2310038,,,2025-03-31,清算の結了等,,,2019-03-25,1,,,,,アールビーアールバイオジャパン,0
2466,8030001069066,登記記録の閉鎖等,0,2025-04-08,2025-04-01,グリーンガス株式会社,,株式会社,埼玉県,鶴ヶ島市,脚折町１丁目１０番１１号,,11,241,3502211,,,2025-04-01,合併による解散等,8030001160733,令和７年４月１日埼玉県さいたま市大宮区桜木町一丁目１１番地５株式会社ガスワン埼玉（8030001160733）に合併し解散,2015-10-05,1,,,,,グリーンガス,0
2500,8080401005863,登記記録の閉鎖等,0,2025-04-08,2025-03-03,ルモンド株式会社,,株式会社,静岡県,浜松市,篠ケ瀬町１３０９番地の２,,22,202,4350042,,,2025-03-03,清算の結了等,,,2024-10-30,1,,,,,ルモンド,0
2519,8120001113863,登記記録の閉鎖等,0,2025-04-08,2025-03-26,株式会社Ｄｒｅａｍ　Ｂｒｉｄｇｅ,,株式会社,大阪府,大阪市東淀川区,東中島２丁目８番８号,,27,114,5330033,,,2025-03-26,清算の結了等,,,2015-10-05,1,,,,,ドリームブリッジ,0
2524,8120001221278,登記記録の閉鎖等,0,2025-04-08,2025-03-26,ＯＧ株式会社,,株式会社,大阪府,大阪市北区,堂島１丁目３番９号日宝堂島センターＢ１,,27,127,5300003,,,2025-03-26,清算の結了等,,,2019-05-28,1,,,,,オージー,0
2539,8120101037698,登記記録の閉鎖等,0,2025-04-08,2025-03-31,明星通信工業株式会社,,株式会社,大阪府,岸和田市,池尻町２２３番地の２４,,27,202,5960813,,,2025-03-31,清算の結了等,,,2015-10-05,1,,,,,メイセイツウシンコウギョウ,0
2573,8150001004762,登記記録の閉鎖等,0,2025-04-08,2025-04-01,岡田精密株式会社,,株式会社,奈良県,生駒市,高山町７６８９番地の１,,29,209,6300101,,,2025-04-01,合併による解散等,1150001004769,令和７年４月１日奈良県生駒市高山町７６８９番地の１オーケーディー株式会社（1150001004769）に合併し解散,2015-10-05,1,,,,,オカダセイミツ,0
2575,8150003000578,登記記録の閉鎖等,0,2025-04-08,2025-04-02,合資会社クリーンケア,,合資会社,奈良県,橿原市,見瀬町６１７－３・安田ビル,,29,205,6340064,,,2025-04-02,清算の結了等,,,2015-10-05,1,,,,,クリーンケア,0
2600,8230001019109,登記記録の閉鎖等,0,2025-04-08,2025-03-31,株式会社ｃｏｒｒｅｃｔ,,株式会社,富山県,富山市,婦中町分田１番地１３,,16,201,9392718,,,2025-03-31,清算の結了等,,,2021-11-18,1,,,,,コレクト,0
2608,8250001000578,登記記録の閉鎖等,0,2025-04-08,2025-04-02,山口スバル株式会社,,株式会社,山口県,山口市,朝田１０４９番地１,,35,203,7530871,,,2025-04-02,合併による解散等,4240001009368,令和７年４月１日広島市西区中広町一丁目３番１７号スバル中四国株式会社（4240001009368）に合併し解散,2015-10-05,1,,,,,ヤマグチスバル,0
2610,8250002019964,登記記録の閉鎖等,0,2025-04-08,2025-04-01,有限会社大田和光農園,,有限会社,山口県,熊毛郡平生町,大字佐賀１０００２番地の１３,,35,344,7421111,,,2025-04-01,合併による解散等,2250001010203,令和７年４月１日山口県光市光井四丁目２７番２０号光徳産業株式会社（2250001010203）に合併し解散,2015-10-05,1,,,,,オオタワコウノウエン,0
2616,8290001068447,登記記録の閉鎖等,0,2025-04-08,2025-04-04,株式会社皆吉不動産,,株式会社,福岡県,福岡市博多区,博多駅南４丁目１７番３０号－１０１号室,,40,132,8120016,,,2025-04-04,合併による解散等,9340001001814,令和７年４月１日鹿児島市西別府町２９４１番地２６株式会社オーリック（9340001001814）に合併し解散,2015-10-05,1,,,,,ミナヨシフドウサン,0
2634,8330001004612,登記記録の閉鎖等,0,2025-04-08,2025-04-01,村上食品工業株式会社,,株式会社,熊本県,熊本市中央区,新町４丁目４番７号,,43,101,8600004,,,2025-04-01,清算の結了等,,,2015-10-05,1,,,,,ムラカミショクヒンコウギョウ,0
2658,8380001020010,登記記録の閉鎖等,0,2025-04-08,2025-03-24,株式会社あぶくま保険事務所,,株式会社,福島県,福島市,矢剣町８番１５号,,07,201,9608066,,,2025-03-24,清算の結了等,,,2015-10-05,1,,,,,アブクマホケンジムショ,0
2665,8410002002425,登記記録の閉鎖等,0,2025-04-08,2025-04-01,有限会社滝田建設,,有限会社,秋田県,秋田市,浜田字滝ノ元３０７番地の３,,05,201,0101654,,,2025-04-01,清算の結了等,,,2015-10-05,1,,,,,タキタケンセツ,0
2688,9010001111266,登記記録の閉鎖等,0,2025-04-08,2025-04-01,株式会社アトモスト,,株式会社,岐阜県,大垣市,外野２丁目１００番地,,21,202,5030933,,,2025-04-01,清算の結了等,,,2015-10-05,1,,,,,アトモスト,0
2696,9010005034083,登記記録の閉鎖等,0,2025-04-08,2025-04-01,一般財団法人Ｒｕｇｂｙ　Ｓｃｈｏｏｌ　Ｊａｐａｎ設立準備財団,,その他の設立登記法人,東京都,千代田区,四番町７番地１４新和ビル２Ｆ,,13,101,1020081,,,2025-04-01,清算の結了等,,,2021-10-20,1,,,,,ラグビースクールジャパンセツリツジュンビザイダン,0
2709,9010601012987,登記記録の閉鎖等,0,2025-04-08,2025-04-01,千葉海浜交通株式会社,,株式会社,千葉県,千葉市美浜区,高浜２丁目３番１号,,12,106,2610003,,,2025-04-01,合併による解散等,9040001043696,令和７年４月１日千葉県船橋市栄町一丁目１０番１０号京成バス千葉セントラル株式会社（9040001043696）に合併し解散,2015-10-05,1,,,,,チバカイヒンコウツウ,0
2719,9011001021026,登記記録の閉鎖等,0,2025-04-08,2025-03-10,株式会社ブルーノート,,株式会社,東京都,渋谷区,千駄ヶ谷５丁目１７番６号,,13,113,1510051,,,2025-03-10,清算の結了等,,,2015-10-05,1,,,,,ブルーノート,0
2724,9011002011711,登記記録の閉鎖等,0,2025-04-08,2025-03-07,タニグチ有限会社,,有限会社,東京都,渋谷区,代官山町２０番１４号２０３号室,,13,113,1500034,,,2025-03-07,清算の結了等,,,2015-10-05,1,,,,,タニグチ,0
2776,9021002005332,登記記録の閉鎖等,0,2025-04-08,2025-04-07,株式会社ライセン,,株式会社,神奈川県,藤沢市,天神町３丁目２１番地の６,,14,205,2520814,,,2025-04-07,清算の結了等,,,2015-10-05,1,,,,,ライセン,0
2777,9021002026907,登記記録の閉鎖等,0,2025-04-08,2025-04-03,有限会社グローバルオート関口,,有限会社,神奈川県,相模原市南区,大野台６丁目６番１３号,,14,153,2520331,,,2025-04-03,清算の結了等,,,2015-10-05,1,,,,,グローバルオートセキグチ,0
2795,9050001028201,登記記録の閉鎖等,0,2025-04-08,2025-03-28,株式会社アイデア技研,,株式会社,茨城県,守谷市,御所ケ丘２丁目１３番地１１,,08,224,3020119,,,2025-03-28,清算の結了等,,,2015-10-05,1,,,,,アイデアギケン,0
2800,9060002027548,登記記録の閉鎖等,0,2025-04-08,2025-03-31,大太有限会社,,有限会社,栃木県,大田原市,河原５７番地,,09,210,3240207,,,2025-03-31,清算の結了等,,,2015-10-05,1,,,,,ダイタイ,0
2801,9060003001691,登記記録の閉鎖等,0,2025-04-08,2025-04-01,合同会社陽東メディア,,合同会社,栃木県,宇都宮市,陽東７丁目３番９号,,09,201,3210904,,,2025-04-01,清算の結了等,,,2015-10-05,1,,,,,ヨウトウメディア,0
2808,9080101000180,登記記録の閉鎖等,0,2025-04-08,2025-03-31,伊富水産株式会社,,株式会社,静岡県,沼津市,上香貫槇島町１２８２番地の３,,22,203,4100834,,,2025-03-31,清算の結了等,,,2015-10-05,1,,,,,イトミスイサン,0
2809,9080102002143,登記記録の閉鎖等,0,2025-04-08,2025-03-31,有限会社大東電設工業,,有限会社,静岡県,沼津市,旭町７７番地,,22,203,4100852,,,2025-03-31,清算の結了等,,,2015-10-05,1,,,,,ダイトウデンセツコウギョウ,0
2811,9080401003619,登記記録の閉鎖等,0,2025-04-08,2025-04-04,株式会社トヨタレンタリース浜松,,株式会社,静岡県,浜松市中央区,西浅田２丁目６番４３号,,22,138,4328045,,,2025-04-04,合併による解散等,3080001002885,令和７年４月１日静岡市駿河区国吉田二丁目３番１号静岡トヨタ自動車株式会社（3080001002885）に合併し解散,2015-10-05,1,,,,,トヨタレンタリースハママツ,0
2818,9100003006199,登記記録の閉鎖等,0,2025-04-08,2025-04-01,合同会社フォースネクスト,,合同会社,長野県,上伊那郡宮田村,６６９４番地,,20,388,3994301,,,2025-04-01,清算の結了等,,,2021-08-05,1,,,,,フォースネクスト,0
2830,9120001136260,登記記録の閉鎖等,0,2025-04-08,2025-04-01,株式会社プロモテック,,株式会社,大阪府,大阪市西区,江戸堀２丁目６番３３号,,27,106,5500002,,,2025-04-01,合併による解散等,3120001031541,令和７年４月１日大阪市住之江区南港北一丁目７番８９号カナデビア株式会社（3120001031541）に合併し解散,2015-10-05,1,,,,,プロモテック,0
2832,9120001199332,登記記録の閉鎖等,0,2025-04-08,2025-04-01,株式会社阪急フードプロセス,,株式会社,大阪府,大阪市北区,角田町８番７号,,27,127,5300017,,,2025-04-01,合併による解散等,7120001117832,令和７年４月１日大阪市北区角田町８番７号イズミヤ・阪急オアシス株式会社（7120001117832）に合併し解散,2016-07-11,1,,,,,ハンキュウフードプロセス,0
2843,9120101060971,登記記録の閉鎖等,0,2025-04-08,2025-03-31,株式会社ＡＲＳ　ＩＮＤＵＳＴＲＩＥＳ,,株式会社,大阪府,高石市,千代田３丁目１０番７号,,27,225,5920005,,,2025-03-31,清算の結了等,,,2019-12-17,1,,,,,アルスインダストリーズ,0
2844,9120102017418,登記記録の閉鎖等,0,2025-04-08,2025-03-31,有限会社ナミタヤ,,有限会社,大阪府,藤井寺市,小山２丁目１５番２９号,,27,226,5830033,,,2025-03-31,清算の結了等,,,2015-10-05,1,,,,,ナミタヤ,0
2846,9120901014160,登記記録の閉鎖等,0,2025-04-08,2025-04-01,株式会社望月自動車,,株式会社,大阪府,高槻市,真上町３丁目１０番１３号,,27,207,5691121,,,2025-04-01,清算の結了等,,,2015-10-05,1,,,,,,0
2848,9122001000776,登記記録の閉鎖等,0,2025-04-08,2025-04-02,株式会社上西,,株式会社,大阪府,東大阪市,大蓮東３丁目１６番１２号,,27,227,5770824,,,2025-04-02,清算の結了等,,,2015-10-05,1,,,,,ウエニシ,0
2877,9170001001682,登記記録の閉鎖等,0,2025-04-08,2025-04-03,株式会社スーパーホンダ和歌山,,株式会社,和歌山県,和歌山市,大谷３９２番地の１,,30,201,6408472,,,2025-04-03,合併による解散等,7150001001265,令和７年４月１日奈良市登美ヶ丘四丁目５番５号株式会社ホンダネットキンキ（7150001001265）に合併し解散,2015-10-05,1,,,,,スーパーホンダワカヤマ,0
2881,9180001028048,登記記録の閉鎖等,0,2025-04-08,2025-04-01,株式会社黒石自動車,,株式会社,愛知県,名古屋市緑区,黒沢台１丁目１１２５番地,,23,114,4580003,,,2025-04-01,清算の結了等,,,2015-10-05,1,,,,,クロイシジドウシャ,0
2883,9180001142071,登記記録の閉鎖等,0,2025-04-08,2025-04-01,若樸科技株式会社,,株式会社,埼玉県,草加市,柳島町５１３番地７,,11,221,3400033,,,2025-04-01,清算の結了等,,,2020-07-17,1,,,,,ワカボクカギ,0
2898,9180301035009,登記記録の閉鎖等,0,2025-04-08,2025-03-31,株式会社ペイフォワード,,株式会社,愛知県,みよし市,福谷町棚田２９番地の１６,,23,236,4700207,,,2025-03-31,清算の結了等,,,2021-06-03,1,,,,,ペイフォワード,0
2905,9200001021875,登記記録の閉鎖等,0,2025-04-08,2025-04-01,株式会社野平木材,,株式会社,岐阜県,瑞浪市,松ヶ瀬町１丁目９番地,,21,208,5096134,,,2025-04-01,清算の結了等,,,2015-10-05,1,,,,,ノヒラモクザイ,0
2911,9220001006354,登記記録の閉鎖等,0,2025-04-08,2025-04-01,株式会社北陸スタツフ,,株式会社,石川県,金沢市,本多町３丁目２番１号,,17,201,9200964,,,2025-04-01,合併による解散等,4220001006441,令和７年４月１日石川県金沢市本多町三丁目２番１号株式会社北陸アイティエス（4220001006441）に合併し解散,2015-10-05,1,,,,,,0
2915,9230001007401,登記記録の閉鎖等,0,2025-04-08,2025-04-01,日通黒部運輸株式会社,,株式会社,富山県,黒部市,沓掛９９番地,,16,207,9380013,,,2025-04-01,清算の結了等,,,2015-10-05,1,,,,,ニッツウクロベウンユ,0
2923,9250001013546,登記記録の閉鎖等,0,2025-04-08,2025-03-31,株式会社ヒカリテクノ,,株式会社,山口県,下関市,大字内日下３７９番地１,,35,201,7500253,,,2025-03-31,清算の結了等,,,2015-10-05,1,,,,,ヒカリテクノ,0
2946,9320001017820,登記記録の閉鎖等,0,2025-04-08,2025-03-26,株式会社フォレストコア,,株式会社,福岡県,福岡市博多区,博多駅南１丁目１５番６－３０２号,,40,132,8120016,,,2025-03-26,清算の結了等,,,2020-07-17,1,,,,,フォレストコア,0
2978,9430001071666,登記記録の閉鎖等,0,2025-04-08,2025-04-03,株式会社ＢＵＺＺ,,株式会社,北海道,札幌市中央区,北二条西３丁目１番地１５,,01,101,0600002,,,2025-04-03,合併による解散等,6011001090305,令和７年３月１日東京都渋谷区渋谷一丁目９番８号株式会社ＬＡＬＬヒューマンホールディングス（6011001090305）に合併し解散,2016-05-27,1,,,,,バズ,0
2991,9490005002579,登記記録の閉鎖等,0,2025-04-08,2025-04-04,医療法人真誠会,,その他の設立登記法人,高知県,宿毛市,宿毛字鷺洲５３６１番地７,,39,208,7880000,,,2025-04-04,清算の結了等,,,2015-10-05,1,,,,,シンセイカイ,0
