sequenceNumber,corporateNumber,process,correct,updateDate,changeDate,name,nameImageId,kind,prefectureName,cityName,streetNumber,addressImageId,prefectureCode,cityCode,postCode,addressOutside,addressOutsideImageId,closeDate,closeCause,successorCorporateNumber,changeCause,assignmentDate,latest,enName,enPrefectureName,enCityName,enAddressOutside,furigana,hihyoji
1,1010001057351,登記記録の閉鎖等,0,2024-03-12,2024-03-05,丸紅メイト株式会社,,株式会社,東京都,千代田区,大手町１丁目４番２号,,13,101,1000004,,,2024-03-05,清算の結了等,,,2015-10-05,1,,,,,マルベニメイト,0
20,1010101004740,登記記録の閉鎖等,0,2024-03-12,2024-03-04,株式会社ＳＫＩＬ,,株式会社,東京都,八王子市,めじろ台１丁目４３番地の５,,13,201,1930833,,,2024-03-04,清算の結了等,,,2015-10-05,1,,,,,スキル,0
25,1010102008336,登記記録の閉鎖等,0,2024-03-12,2024-03-04,有限会社エム・エフ・マネジメント,,有限会社,東京都,八王子市,長沼町１０４番地の２（６－５）,,13,201,1920907,,,2024-03-04,清算の結了等,,,2015-10-05,1,,,,,エムエフマネジメント,0
27,1010401108613,登記記録の閉鎖等,0,2024-03-12,2024-03-08,株式会社Ａｔｅｌｉｅｒ　Ｈ,,株式会社,東京都,港区,南青山２丁目２番１５号ウィン青山１４階,,13,103,1070062,,,2024-03-08,合併による解散等,4011001124089,令和６年３月１日東京都渋谷区桜丘町２３番１７号シティコート桜丘４０８株式会社ＧＹＯＵ（4011001124089）に合併し解散,2015-10-05,1,,,,,アトリエエイチ,0
41,1010703004915,登記記録の閉鎖等,0,2024-03-12,2024-03-07,渋川グリーンエナジー合同会社,,合同会社,東京都,品川区,上大崎３丁目１４番３７号,,13,109,1410021,,,2024-03-07,清算の結了等,,,2019-08-13,1,,,,,シブカワグリーンエナジー,0
44,1010901041751,登記記録の閉鎖等,0,2024-03-12,2024-03-08,株式会社ＨＯＯＨＯＯ,,株式会社,東京都,新宿区,中落合３丁目２９番１３号,,13,104,1610032,,,2024-03-08,清算の結了等,,,2018-03-22,1,,,,,ホーホー,0
45,1010901048251,登記記録の閉鎖等,0,2024-03-12,2024-03-07,株式会社ＣＡＬ　ＧＡＲＤＥＮ,,株式会社,東京都,世田谷区,代田６丁目８番３１号,,13,112,1550033,,,2024-03-07,清算の結了等,,,2021-03-16,1,,,,,カルガーデン,0
46,1010901048301,登記記録の閉鎖等,0,2024-03-12,2024-03-07,株式会社ＭＡＣＯＴＴＹ　ＥＡＲＴＨ,,株式会社,東京都,世田谷区,代田６丁目８番３１号,,13,112,1550033,,,2024-03-07,清算の結了等,,,2021-03-22,1,,,,,マコッティアース,0
81,1020001059685,登記記録の閉鎖等,0,2024-03-12,2024-03-07,株式会社ソウコウ,,株式会社,神奈川県,横浜市泉区,中田西３丁目２７番２９号,,14,116,2450015,,,2024-03-07,清算の結了等,,,2015-10-05,1,,,,,ソウコウ,0
103,1030001055287,登記記録の閉鎖等,0,2024-03-12,2024-03-06,日本ファーマシィー株式会社,,株式会社,埼玉県,ふじみ野市,上福岡１丁目１２番１１号,,11,245,3560004,,,2024-03-06,清算の結了等,,,2015-10-05,1,,,,,ニホンファーマシー,0
118,1040001116170,登記記録の閉鎖等,0,2024-03-12,2024-03-01,株式会社ＡＲＭＯＲ　ＧＲＯＵＰ,,株式会社,千葉県,市原市,大厩１８１０番地７８,,12,219,2900002,,,2024-03-01,清算の結了等,,,2020-12-07,1,,,,,アルモアグループ,0
125,1040002070986,登記記録の閉鎖等,0,2024-03-12,2024-03-07,有限会社一山,,有限会社,千葉県,富津市,篠部４５番地,,12,226,2930024,,,2024-03-07,清算の結了等,,,2015-10-05,1,,,,,イチヤマ,0
140,1080001010881,登記記録の閉鎖等,0,2024-03-12,2024-03-08,株式会社カーサービス内藤,,株式会社,静岡県,静岡市葵区,瀬名中央４丁目６番３３号,,22,101,4200916,,,2024-03-08,清算の結了等,,,2015-10-05,1,,,,,カーサービスナイトウ,0
141,1080002000171,登記記録の閉鎖等,0,2024-03-12,2024-03-07,有限会社アクト・テン,,有限会社,静岡県,静岡市駿河区,中野新田５７番地の１７,,22,102,4228051,,,2024-03-07,清算の結了等,,,2015-10-05,1,,,,,アクトテン,0
145,1080402008822,登記記録の閉鎖等,0,2024-03-12,2024-03-11,有限会社ライトフィルム,,有限会社,静岡県,浜松市中央区,和合北１丁目１番４５－１０４号,,22,138,4338127,,,2024-03-11,清算の結了等,,,2015-10-05,1,,,,,ライトフィルム,0
151,1110001025950,登記記録の閉鎖等,0,2024-03-12,2024-03-08,稲福株式会社,,株式会社,新潟県,長岡市,来迎寺１８７６番地,,15,202,9495411,,,2024-03-08,清算の結了等,,,2015-10-05,1,,,,,イナフク,0
159,1120001020785,登記記録の閉鎖等,0,2024-03-12,2024-03-07,株式会社ＤＫ,,株式会社,大阪府,大阪市平野区,長吉川辺３丁目１４番１０号,,27,126,5470014,,,2024-03-07,清算の結了等,,,2015-10-05,1,,,,,ディーケイ,0
183,1130001051235,登記記録の閉鎖等,0,2024-03-12,2024-03-04,トリプレッタ株式会社,,株式会社,京都府,京都市中京区,三条通烏丸西入御倉町８５番地１烏丸ビル５階,,26,104,6048166,,,2024-03-04,合併による解散等,5130001021770,令和６年３月１日京都市中京区三条通烏丸西入御倉町８５番地１烏丸ビル５階株式会社ＴＯＡＩ（5130001021770）に合併し解散,2015-10-05,1,,,,,トリプレッタ,0
185,1130002030469,登記記録の閉鎖等,0,2024-03-12,2024-03-07,有限会社松本酒店,,有限会社,京都府,八幡市,美濃山西ノ口１１番地の４,,26,210,6148278,,,2024-03-07,清算の結了等,,,2015-10-05,1,,,,,,0
225,1240005004021,登記記録の閉鎖等,0,2024-03-12,2024-03-05,特定非営利活動法人エコロジーひろしま,,その他の設立登記法人,広島県,東広島市,西条町大沢１１４０番地,,34,212,7390034,,,2024-03-05,清算の結了等,,,2015-10-05,1,,,,,エコロジーヒロシマ,0
243,1290002002246,登記記録の閉鎖等,0,2024-03-12,2024-03-01,有限会社サンポート,,有限会社,福岡県,福岡市東区,若宮１丁目４番２１号,,40,131,8130036,,,2024-03-01,清算の結了等,,,2015-10-05,1,,,,,サンポート,0
254,1340001010442,登記記録の閉鎖等,0,2024-03-12,2024-03-11,株式会社形数療法研究所,,株式会社,鹿児島県,鹿児島市,田上６丁目１１番８号,,46,201,8900034,,,2024-03-11,清算の結了等,,,2015-10-05,1,,,,,ケイスウリョウホウケンキュウジョ,0
324,2010003038472,登記記録の閉鎖等,0,2024-03-12,2024-02-29,合同会社バウハウス,,合同会社,東京都,中央区,銀座７丁目１３－２１,,13,102,1040061,,,2024-02-29,清算の結了等,,,2022-08-25,1,,,,,バウハウス,0
331,2010401014372,登記記録の閉鎖等,0,2024-03-12,2024-03-07,株式会社日音アーティスト,,株式会社,東京都,港区,赤坂４丁目２番６号住友不動産新赤坂ビル,,13,103,1070052,,,2024-03-07,清算の結了等,,,2015-10-05,1,,,,,ニチオンアーティスト,0
367,2011001002445,登記記録の閉鎖等,0,2024-03-12,2024-03-11,株式会社インターリベルト,,株式会社,東京都,渋谷区,渋谷１丁目１０番７号,,13,113,1500002,,,2024-03-11,清算の結了等,,,2015-10-05,1,,,,,インターリベルト,0
417,2021001025998,登記記録の閉鎖等,0,2024-03-12,2024-03-11,株式会社モデラート工房,,株式会社,神奈川県,綾瀬市,大上１丁目２５番２６号,,14,218,2521104,,,2024-03-11,清算の結了等,,,2015-10-05,1,,,,,,0
432,2040001031096,登記記録の閉鎖等,0,2024-03-12,2024-03-07,岡本テクノ株式会社,,株式会社,千葉県,船橋市,山手３丁目８番１棟２０２号,,12,204,2730045,,,2024-03-07,清算の結了等,,,2015-10-05,1,,,,,オカモトテクノ,0
434,2040001078039,登記記録の閉鎖等,0,2024-03-12,2024-03-04,株式会社金木犀,,株式会社,千葉県,木更津市,ほたる野４丁目２６－７,,12,206,2920038,,,2024-03-04,清算の結了等,,,2015-10-05,1,,,,,キンモクセイ,0
435,2040001115353,登記記録の閉鎖等,0,2024-03-12,2024-03-06,日建セントラル株式会社,,株式会社,千葉県,船橋市,二和西６丁目４番１０号,,12,204,2740806,,,2024-03-06,清算の結了等,,,2020-10-09,1,,,,,ニッケンセントラル,0
443,2060001027704,登記記録の閉鎖等,0,2024-03-12,2024-03-05,株式会社ＮＥＸＲＡＩＳＥ,,株式会社,栃木県,宇都宮市,馬場通り３丁目３番３号ナインローズ３階,,09,201,3200026,,,2024-03-05,清算の結了等,,,2015-11-20,1,,,,,ネクスレイズ,0
448,2070001015492,登記記録の閉鎖等,0,2024-03-12,2024-03-06,株式会社あおい,,株式会社,群馬県,桐生市,境野町６丁目６２３番地５,,10,203,3760002,,,2024-03-06,清算の結了等,,,2015-10-05,1,,,,,アオイ,0
451,2080001013231,登記記録の閉鎖等,0,2024-03-12,2024-03-01,株式会社サンロマンホールディングス,,株式会社,福岡県,福岡市東区,多の津１丁目１０番３号,,40,131,8130034,,,2024-03-01,合併による解散等,5290001003209,令和６年３月１日福岡市東区多の津一丁目１０番３号株式会社サンロマン（5290001003209）に合併し解散,2015-10-05,1,,,,,サンロマンホールディングス,0
479,2120002016022,登記記録の閉鎖等,0,2024-03-12,2024-03-11,有限会社明龍,,有限会社,大阪府,大阪市港区,磯路２丁目１６番１９－８０１号,,27,107,5520003,,,2024-03-11,清算の結了等,,,2015-10-05,1,,,,,メイリュウ,0
488,2122001031506,登記記録の閉鎖等,0,2024-03-12,2024-03-08,株式会社真成,,株式会社,大阪府,八尾市,永畑町３丁目１番４０－１２０６号,,27,212,5810083,,,2024-03-08,清算の結了等,,,2018-04-18,1,,,,,シンセイ,0
489,2122005002775,登記記録の閉鎖等,0,2024-03-12,2024-03-08,特定非営利活動法人かしわらイイネット,,その他の設立登記法人,大阪府,柏原市,平野１丁目１１番８号パレ・デ・アルシオン３０５号,,27,221,5820019,,,2024-03-08,清算の結了等,,,2015-10-05,1,,,,,カシワライイネット,0
505,2140002023157,登記記録の閉鎖等,0,2024-03-12,2024-03-07,有限会社ミット,,有限会社,兵庫県,神戸市中央区,港島９丁目１１番地１,,28,110,6500045,,,2024-03-07,清算の結了等,,,2015-10-05,1,,,,,ミット,0
511,2150003001862,登記記録の閉鎖等,0,2024-03-12,2024-03-11,合同会社雅こすもす会,,合同会社,奈良県,奈良市,菅野台１６番３－７号,,29,201,6310043,,,2024-03-11,清算の結了等,,,2018-12-18,1,,,,,ミヤビコスモスカイ,0
515,2180001063365,登記記録の閉鎖等,0,2024-03-12,2024-03-07,株式会社ホーム渋谷,,株式会社,愛知県,名古屋市名東区,香流３丁目１００８番地,,23,115,4650005,,,2024-03-07,清算の結了等,,,2015-10-05,1,,,,,ホームシブヤ,0
516,2180001074916,登記記録の閉鎖等,0,2024-03-12,2024-03-06,株式会社ホームセンター・アント,,株式会社,愛知県,春日井市,大留町４丁目６番地の３,,23,206,4870024,,,2024-03-06,合併による解散等,7200001031521,令和６年３月１日岐阜県多治見市大針町６６１番地の１株式会社ホームセンターバロー（7200001031521）に合併し解散,2015-10-05,1,,,,,ホームセンターアント,0
521,2180005019446,登記記録の閉鎖等,0,2024-03-12,2024-03-05,行政書士法人寿限無,,その他の設立登記法人,愛知県,名古屋市千種区,大久手町６丁目１３番地の４,,23,101,4640854,,,2024-03-05,清算の結了等,,,2021-09-24,1,,,,,ジュゲム,0
533,2200003003812,登記記録の閉鎖等,0,2024-03-12,2024-03-08,スタジオマヤ合同会社,,合同会社,岐阜県,各務原市,蘇原東島町３丁目８４番地,,21,213,5040816,,,2024-03-08,清算の結了等,,,2016-07-15,1,,,,,スタジオマヤ,0
535,2210003001179,登記記録の閉鎖等,0,2024-03-12,2024-03-11,合同会社ヨシダ商店,,合同会社,福井県,福井市,宝永３丁目６番３号,,18,201,9100004,,,2024-03-11,清算の結了等,,,2019-08-05,1,,,,,ヨシダショウテン,0
537,2220003002754,登記記録の閉鎖等,0,2024-03-12,2024-03-08,合同会社ケイ・フリー,,合同会社,石川県,金沢市,大浦町ロ７８番地１,,17,201,9200205,,,2024-03-08,清算の結了等,,,2020-03-02,1,,,,,ケイフリー,0
558,2300001003928,登記記録の閉鎖等,0,2024-03-12,2024-03-07,株式会社マリトピア,,株式会社,佐賀県,佐賀市,新栄東３丁目７番８号,,41,201,8400850,,,2024-03-07,合併による解散等,1310001002186,令和６年３月１日長崎市稲佐町２番２号株式会社メモリード（1310001002186）に合併し解散,2015-10-05,1,,,,,マリトピア,0
559,2300001005321,登記記録の閉鎖等,0,2024-03-12,2024-03-07,株式会社アレー,,株式会社,佐賀県,武雄市,武雄町大字永島１５７５０番地１,,41,206,8430021,,,2024-03-07,合併による解散等,1310001002186,令和６年３月１日長崎市稲佐町２番２号株式会社メモリード（1310001002186）に合併し解散,2015-10-05,1,,,,,アレー,0
564,2320001008099,登記記録の閉鎖等,0,2024-03-12,2024-03-08,株式会社美雷,,株式会社,大分県,宇佐市,大字長洲１４９４番地６,,44,211,8720001,,,2024-03-08,清算の結了等,,,2015-10-05,1,,,,,ミライ,0
570,2320201000525,登記記録の閉鎖等,0,2024-03-12,2024-03-07,株式会社さとう工房,,株式会社,大分県,臼杵市,大字市浜字上市４０６番地の９,,44,206,8750052,,,2024-03-07,清算の結了等,,,2015-10-05,1,,,,,,0
583,2380002026961,登記記録の閉鎖等,0,2024-03-12,2024-03-07,有限会社潤澤,,有限会社,福島県,いわき市,郷ケ丘４丁目３５番地の４,,07,204,9708045,,,2024-03-07,清算の結了等,,,2015-10-05,1,,,,,ジュンタク,0
588,2400602001659,登記記録の閉鎖等,0,2024-03-12,2024-03-07,有限会社愛光,,有限会社,岩手県,奥州市,水沢佐倉河字後樋２７番地１,00112955,03,215,0230003,,,2024-03-07,合併による解散等,9400602000340,令和６年３月７日岩手県奥州市水沢佐倉河字後樋２７番地１株式会社シー・エヌ・システム（9400602000340）に合併し解散,2015-10-05,1,,,,,,0
598,2460302000294,登記記録の閉鎖等,0,2024-03-12,2024-03-07,桶谷電機有限会社,,有限会社,北海道,北見市,光西町１７０番地,,01,208,0900835,,,2024-03-07,清算の結了等,,,2015-10-05,1,,,,,オケヤデンキ,0
618,3010003026939,登記記録の閉鎖等,0,2024-03-12,2024-03-05,恵比寿南一丁目合同会社,,合同会社,東京都,千代田区,内神田２丁目２番６号５階あすな会計事務所内,,13,101,1010047,,,2024-03-05,清算の結了等,,,2018-02-09,1,,,,,エビスミナミイッチョウメ,0
641,3010602012281,登記記録の閉鎖等,0,2024-03-12,2024-03-05,有限会社茶茶,,有限会社,東京都,墨田区,錦糸４丁目１１番５号,,13,107,1300013,,,2024-03-05,清算の結了等,,,2015-10-05,1,,,,,チャチャ,0
658,3011003017960,登記記録の閉鎖等,0,2024-03-12,2024-03-07,合同会社千葉万仁土地,,合同会社,東京都,渋谷区,神宮前１丁目５番８号,,13,113,1500001,,,2024-03-07,合併による解散等,8010001029534,令和６年３月１日東京都千代田区鍛冶町二丁目４番４号万仁土地株式会社（8010001029534）に合併し解散,2023-11-17,1,,,,,チバマンニトチ,0
684,3012802004876,登記記録の閉鎖等,0,2024-03-12,2024-03-05,有限会社橋本工務店,,有限会社,東京都,武蔵村山市,伊奈平５丁目７４番地２,,13,223,2080023,,,2024-03-05,清算の結了等,,,2015-10-05,1,,,,,ハシモトコウムテン,0
691,3020001051483,登記記録の閉鎖等,0,2024-03-12,2024-03-08,株式会社ＫＵコーポレーション,,株式会社,神奈川県,川崎市川崎区,港町７番１１号川崎宇部生コンクリート株式会社内,,14,131,2100807,,,2024-03-08,合併による解散等,6011001105211,令和６年３月１日東京都目黒区柿の木坂二丁目２７番５号株式会社タスク（6011001105211）に合併し解散,2015-10-05,1,,,,,ケーユーコーポレーション,0
694,3020001096974,登記記録の閉鎖等,0,2024-03-12,2024-03-08,株式会社ケアビジネスプランニング,,株式会社,静岡県,静岡市葵区,竜南１丁目５－５カーサフェリーチェＡ２０２号,,22,101,4200804,,,2024-03-08,清算の結了等,,,2015-10-05,1,,,,,ケアビジネスプランニング,0
702,3021001049658,登記記録の閉鎖等,0,2024-03-12,2024-03-11,株式会社オーデイケイ,,株式会社,神奈川県,平塚市,下島３５８番地の２,,14,203,2540003,,,2024-03-11,清算の結了等,,,2015-10-05,1,,,,,オーデイケイ,0
710,3030001091859,登記記録の閉鎖等,0,2024-03-12,2024-03-06,株式会社竹内商事,,株式会社,埼玉県,熊谷市,池上４９２番地１５,,11,202,3600011,,,2024-03-06,清算の結了等,,,2015-10-05,1,,,,,タケウチショウジ,0
721,3030002120229,登記記録の閉鎖等,0,2024-03-12,2024-03-07,有限会社秀工業,,有限会社,埼玉県,日高市,大字中鹿山１８１番地,,11,242,3501232,,,2024-03-07,清算の結了等,,,2015-10-05,1,,,,,ヒデコウギョウ,0
722,3030003001337,登記記録の閉鎖等,0,2024-03-12,2024-03-06,合資会社舞夢,,合資会社,埼玉県,所沢市,大字北岩岡２６３番地２２,,11,208,3590007,,,2024-03-06,清算の結了等,,,2015-10-05,1,,,,,マイム,0
723,3030003007887,登記記録の閉鎖等,0,2024-03-12,2024-03-08,Ｍｏｎｅｙ　Ｌｏｖｅｒ’ｓ　Ｐｌａｎｅｔ合同会社,,合同会社,埼玉県,上尾市,緑丘２丁目１１番１４号プログレス緑丘壱番館１０１,,11,219,3620015,,,2024-03-08,清算の結了等,,,2015-10-05,1,,,,,マネーラバーズプラネット,0
732,3040002071017,登記記録の閉鎖等,0,2024-03-12,2024-03-07,有限会社エム・アイ,,有限会社,千葉県,富津市,二間塚１７５８番地の５,,12,226,2930002,,,2024-03-07,清算の結了等,,,2015-10-05,1,,,,,エムアイ,0
735,3050001038362,登記記録の閉鎖等,0,2024-03-12,2024-03-07,株式会社メディカルパーク,,株式会社,東京都,港区,芝浦４丁目１６番２５号,,13,103,1080023,,,2024-03-07,合併による解散等,5010401081856,令和６年３月１日東京都港区芝浦四丁目１６番２５号エンパワーヘルスケア株式会社（5010401081856）に合併し解散,2015-10-05,1,,,,,メディカルパーク,0
741,3060002023098,登記記録の閉鎖等,0,2024-03-12,2024-03-06,有限会社相馬石油店,,有限会社,栃木県,那須郡那須町,大字高久甲４３０４番地,,09,407,3250001,,,2024-03-06,合併による解散等,8040001067705,令和６年３月１日千葉県我孫子市天王台一丁目５番１号バイオシステム株式会社（8040001067705）に合併し解散,2015-10-05,1,,,,,ソウマセキユテン,0
751,3070002027734,登記記録の閉鎖等,0,2024-03-12,2024-03-05,有限会社ＰＳサポート,,有限会社,栃木県,佐野市,大橋町１１４２番地７,,09,204,3270003,,,2024-03-05,清算の結了等,,,2015-10-05,1,,,,,ピーエスサポート,0
756,3080001019723,登記記録の閉鎖等,0,2024-03-12,2024-03-08,ＣＲＥＡＭ株式会社,,株式会社,静岡県,静岡市葵区,昭和町３－１静岡昭和町ビル,,22,101,4200033,,,2024-03-08,清算の結了等,,,2015-10-05,1,,,,,クリーム,0
775,3120001225127,登記記録の閉鎖等,0,2024-03-12,2024-03-08,ＹＳアドバンス株式会社,,株式会社,大阪府,大阪市平野区,加美北５丁目８番４７号,,27,126,5470001,,,2024-03-08,清算の結了等,,,2019-11-14,1,,,,,ワイエスアドバンス,0
794,3140001067740,登記記録の閉鎖等,0,2024-03-12,2024-03-06,株式会社ＫＥＮ　ＮＡＫＡＫＩＴＡ,,株式会社,兵庫県,尼崎市,武庫之荘３丁目１３番１号,,28,202,6610035,,,2024-03-06,清算の結了等,,,2015-10-05,1,,,,,ケンナカキタ,0
808,3150003002892,登記記録の閉鎖等,0,2024-03-12,2024-03-11,合同会社アイネット,,合同会社,奈良県,磯城郡田原本町,１９８番地の７マンションキタヤ２０６号室,,29,363,6360300,,,2024-03-11,清算の結了等,,,2023-02-28,1,,,,,アイネット,0
813,3160003002462,登記記録の閉鎖等,0,2024-03-12,2024-03-11,りふれいん合同会社,,合同会社,滋賀県,大津市,唐崎２丁目１番１５号,,25,201,5200106,,,2024-03-11,清算の結了等,,,2022-01-06,1,,,,,リフレイン,0
827,3190001025165,登記記録の閉鎖等,0,2024-03-12,2024-03-08,株式会社井上産業,,株式会社,三重県,度会郡玉城町,岩出４０２番地３,,24,461,5190425,,,2024-03-08,清算の結了等,,,2017-12-18,1,,,,,イノウエサンギョウ,0
837,3220002005757,登記記録の閉鎖等,0,2024-03-12,2024-03-11,有限会社宮島工務店,,有限会社,石川県,金沢市,千日町９番１０号,,17,201,9218023,,,2024-03-11,清算の結了等,,,2015-10-05,1,,,,,ミヤジマコウムテン,0
855,3270005005262,登記記録の閉鎖等,0,2024-03-12,2024-02-22,農事組合法人狩屋原ｄｅ百笑一起,,その他の設立登記法人,鳥取県,日野郡日南町,福寿実１０９５番地１,,31,401,6895545,,,2024-02-22,清算の結了等,,,2017-02-06,1,,,,,カリヤバラデヒャクショウイッキ,0
862,3290001069607,登記記録の閉鎖等,0,2024-03-12,2024-03-08,株式会社サイバートレーディング,,株式会社,福岡県,福岡市中央区,天神３丁目２－２２川村天神荘ビル５Ｆ,,40,133,8100001,,,2024-03-08,合併による解散等,5430001042274,令和６年２月２８日札幌市北区北九条西三丁目１５株式会社パステック（5430001042274）に合併し解散,2015-10-05,1,,,,,サイバートレーディング,0
875,3340005007788,登記記録の閉鎖等,0,2024-03-12,2024-03-12,特定非営利活動法人性同一性障害まりあの会,,その他の設立登記法人,鹿児島県,鹿児島市,坂之上３丁目２７番１８号,,46,201,8910150,,,2024-03-12,清算の結了等,,,2015-10-05,1,,,,,セイドウイツセイショウガイマリアノカイ,0
880,3370001022458,登記記録の閉鎖等,0,2024-03-12,2024-03-08,株式会社バリュー・ザ・ホテル宮城,,株式会社,宮城県,名取市,上余田字千刈田５５５番１,,04,207,9811222,,,2024-03-08,合併による解散等,5010001128140,令和６年３月１日東京都千代田区岩本町一丁目１２番３号ポラリス・ホールディングス株式会社（5010001128140）に合併し解散,2015-10-05,1,,,,,バリューザホテルミヤギ,0
886,3370602002239,登記記録の閉鎖等,0,2024-03-12,2024-03-07,有限会社鈴乃音,,有限会社,宮城県,宮城郡七ヶ浜町,松ヶ浜字神明裏３番地の１,,04,404,9850812,,,2024-03-07,清算の結了等,,,2015-10-05,1,,,,,スズノネ,0
888,3380002005824,登記記録の閉鎖等,0,2024-03-12,2024-02-29,有限会社フレッシュ辺見,,有限会社,福島県,伊達郡川俣町,字本町１５番地,,07,308,9601451,,,2024-02-29,清算の結了等,,,2015-10-05,1,,,,,フレッシュヘンミ,0
912,3500005001997,登記記録の閉鎖等,0,2024-03-12,2024-03-08,特定非営利活動法人愛媛県環境保全協会,,その他の設立登記法人,愛媛県,松山市,北吉田町７７番地,,38,201,7918041,,,2024-03-08,清算の結了等,,,2015-10-05,1,,,,,エヒメケンカンキョウホゼンキョウカイ,0
943,4010401148037,登記記録の閉鎖等,0,2024-03-12,2024-03-07,株式会社ＥＨ,,株式会社,東京都,港区,芝浦４丁目１６番２５号,,13,103,1080023,,,2024-03-07,合併による解散等,5010401081856,令和６年３月１日東京都港区芝浦四丁目１６番２５号エンパワーヘルスケア株式会社（5010401081856）に合併し解散,2019-09-12,1,,,,,イーエイチ,0
946,4010401165874,登記記録の閉鎖等,0,2024-03-12,2024-03-08,株式会社エーネックス,,株式会社,東京都,港区,芝５丁目２７番３号ＭＢＣ,,13,103,1080014,,,2024-03-08,合併による解散等,9010401169020,令和６年３月１日東京都豊島区東池袋一丁目１８番１号ＨａｒｅｚａＴｏｗｅｒエイトビット株式会社（9010401169020）に合併し解散,2022-03-02,1,,,,,エーネックス,0
992,4011603002394,登記記録の閉鎖等,0,2024-03-12,2024-03-08,鈴木ＤＣＭＣ合同会社,,合同会社,東京都,練馬区,光が丘７丁目３番７－１２０９号,,13,120,1790072,,,2024-03-08,清算の結了等,,,2018-07-23,1,,,,,スズキディーシーエムシー,0
995,4011801012278,登記記録の閉鎖等,0,2024-03-12,2024-03-05,株式会社三浦商事,,株式会社,東京都,足立区,東和３丁目１４番２５号,,13,121,1200003,,,2024-03-05,合併による解散等,5011801012277,令和６年３月１日東京都足立区東和三丁目１４番２５号株式会社三浦工務店（5011801012277）に合併し解散,2015-10-05,1,,,,,ミウラショウジ,0
1045,4040003012621,登記記録の閉鎖等,0,2024-03-12,2024-03-05,合同会社ブレイヴ,,合同会社,栃木県,小山市,中央町３丁目７番地１号ロブレ７階,,09,208,3230023,,,2024-03-05,清算の結了等,,,2018-12-17,1,,,,,ブレイヴ,0
1059,4070001030465,登記記録の閉鎖等,0,2024-03-12,2024-03-06,株式会社如月,,株式会社,群馬県,邑楽郡大泉町,大字吉田１７０４番地の３,,10,524,3700523,,,2024-03-06,清算の結了等,,,2015-10-05,1,,,,,キサラギ,0
1063,4080001020580,登記記録の閉鎖等,0,2024-03-12,2024-03-08,株式会社企画工房,,株式会社,静岡県,静岡市駿河区,高松３０８８番地の１４,,22,102,4228034,,,2024-03-08,清算の結了等,,,2015-11-06,1,,,,,キカクコウボウ,0
1064,4080101005259,登記記録の閉鎖等,0,2024-03-12,2024-03-07,株式会社朝霧,,株式会社,静岡県,駿東郡清水町,徳倉１１９２番地の１,,22,341,4110917,,,2024-03-07,清算の結了等,,,2015-10-05,1,,,,,アサギリ,0
1066,4080102019448,登記記録の閉鎖等,0,2024-03-12,2024-03-07,有限会社上原電工,,有限会社,静岡県,伊東市,玖須美元和田７１６番地の５５１,,22,208,4140045,,,2024-03-07,清算の結了等,,,2015-10-05,1,,,,,ウエハラデンコウ,0
1076,4110003000775,登記記録の閉鎖等,0,2024-03-12,2024-03-08,合資会社伊勢治,,合資会社,新潟県,新発田市,大栄町１丁目２番２号,,15,206,9570056,,,2024-03-08,清算の結了等,,,2015-10-05,1,,,,,イセジ,0
1084,4120001163664,登記記録の閉鎖等,0,2024-03-12,2024-03-07,株式会社エムアールワイコーポレーション,,株式会社,大阪府,大阪市鶴見区,中茶屋１丁目１５番２０号,,27,124,5380033,,,2024-03-07,清算の結了等,,,2015-10-05,1,,,,,エムアールワイコーポレーション,0
1125,4140005009093,登記記録の閉鎖等,0,2024-03-12,2024-03-11,医療法人社団川西内科医院,,その他の設立登記法人,兵庫県,加古川市,平岡町二俣７６１番地の１,,28,210,6750111,,,2024-03-11,清算の結了等,,,2015-10-05,1,,,,,カワニシナイカイイン,0
1137,4180002000191,登記記録の閉鎖等,0,2024-03-12,2024-03-07,有限会社打田螺子,,有限会社,愛知県,名古屋市守山区,翠松園３丁目１５１２番地,,23,113,4630010,,,2024-03-07,清算の結了等,,,2015-10-05,1,,,,,ウチダラシ,0
1148,4210001012333,登記記録の閉鎖等,0,2024-03-12,2024-03-04,織田織物株式会社,,株式会社,福井県,丹生郡越前町,細野第７５号１２４番地１,,18,423,9160202,,,2024-03-04,合併による解散等,5210001013297,令和６年３月１日福井県鯖江市舟津町一丁目４番１１号マルイテキスタイル株式会社（5210001013297）に合併し解散,2015-10-05,1,,,,,オタオリモノ,0
1167,4290802021772,登記記録の閉鎖等,0,2024-03-12,2024-03-07,有限会社賢プランニング一級建築士事務所,,有限会社,福岡県,豊前市,大字八屋２６０１番１１,,40,214,8280021,,,2024-03-07,清算の結了等,,,2015-10-05,1,,,,,ケンプランニングイッキュウケンチクシジムショ,0
1186,4330001023954,登記記録の閉鎖等,0,2024-03-12,2024-03-01,株式会社ノジマリサーチ,,株式会社,熊本県,上益城郡嘉島町,大字井寺２５０番地,,43,442,8613103,,,2024-03-01,合併による解散等,2330001023956,令和６年３月１日熊本県上益城郡嘉島町井寺２５０番地株式会社ノジマバックオフィス（2330001023956）に合併し解散,2017-04-17,1,,,,,ノジマリサーチ,0
1200,4430001076439,登記記録の閉鎖等,0,2024-03-12,2024-03-05,株式会社スリーク,,株式会社,北海道,札幌市豊平区,豊平二条６丁目２番１号,,01,105,0620902,,,2024-03-05,清算の結了等,,,2018-04-23,1,,,,,スリーク,0
1225,5010001195981,登記記録の閉鎖等,0,2024-03-12,2024-03-05,株式会社Ｔ’ｓフィナンシャルグループ関東,,株式会社,東京都,中央区,銀座７丁目１５番８号タウンハイツ銀座４０６,,13,102,1040061,,,2024-03-05,清算の結了等,,,2018-11-01,1,,,,,ティーズフィナンシャルグループカントウ,0
1232,5010005030152,登記記録の閉鎖等,0,2024-03-12,2024-03-07,ＶＣ銀座特定目的会社,,その他の設立登記法人,東京都,千代田区,丸の内３丁目１番１号東京共同会計事務所内,,13,101,1000005,,,2024-03-07,清算の結了等,,,2019-05-14,1,,,,,ブイシーギンザ,0
1245,5010402014798,登記記録の閉鎖等,0,2024-03-12,2024-03-07,有限会社泉水,,有限会社,東京都,港区,六本木５丁目２番２号,,13,103,1060032,,,2024-03-07,清算の結了等,,,2015-10-05,1,,,,,センスイ,0
1264,5011001071297,登記記録の閉鎖等,0,2024-03-12,2024-03-11,日立Ａｓｔｅｍｏ厚木ブレーキシステムズ株式会社,,株式会社,神奈川県,厚木市,恩名４丁目７番１号,,14,212,2430032,,,2024-03-11,清算の結了等,,,2015-10-05,1,,,,,ヒタチアステモアツギブレーキシステムズ,0
1267,5011001140003,登記記録の閉鎖等,0,2024-03-12,2024-03-04,株式会社ビューティーユニバース,,株式会社,東京都,渋谷区,恵比寿１丁目１９番１５号ウノサワ東急ビル６Ｆ,,13,113,1500013,,,2024-03-04,清算の結了等,,,2021-04-27,1,,,,,ビューティーユニバース,0
1274,5011102005063,登記記録の閉鎖等,0,2024-03-12,2024-03-01,有限会社齋藤貢司商店,,有限会社,東京都,新宿区,納戸町１５番地,,13,104,1620837,,,2024-03-01,清算の結了等,,,2015-10-05,1,,,,,サイトウケンジショウテン,0
1298,5012802007183,登記記録の閉鎖等,0,2024-03-12,2024-03-07,有限会社アイ・ケー・エス・パーツ,,有限会社,東京都,武蔵村山市,伊奈平１丁目１３番地３,,13,223,2080023,,,2024-03-07,清算の結了等,,,2015-10-05,1,,,,,,0
1311,5021002002779,登記記録の閉鎖等,0,2024-03-12,2024-03-11,湘南リフォーム株式会社,,株式会社,神奈川県,藤沢市,高倉１１９６番地１,,14,205,2520802,,,2024-03-11,清算の結了等,,,2015-10-05,1,,,,,,0
1324,5030002027281,登記記録の閉鎖等,0,2024-03-12,2024-03-07,有限会社栗城工務店,,有限会社,埼玉県,さいたま市北区,奈良町１４７番地１,,11,102,3310822,,,2024-03-07,清算の結了等,,,2015-10-05,1,,,,,クリキコウムテン,0
1330,5030003011185,登記記録の閉鎖等,0,2024-03-12,2024-03-07,合同会社譚劇,,合同会社,埼玉県,川口市,朝日１丁目１番１－１１５号グリーンビューニュー川口,,11,203,3320001,,,2024-03-07,清算の結了等,,,2017-12-18,1,,,,,タンゲキ,0
1350,5080003001594,登記記録の閉鎖等,0,2024-03-12,2024-03-08,マルシゲ合同会社,,合同会社,静岡県,静岡市駿河区,丸子新田３１２番地の４,,22,102,4210111,,,2024-03-08,清算の結了等,,,2015-10-05,1,,,,,,0
1351,5080101001083,登記記録の閉鎖等,0,2024-03-12,2024-03-07,株式会社田中建設,,株式会社,静岡県,沼津市,中沢田３６３番地の１５,,22,203,4100006,,,2024-03-07,清算の結了等,,,2015-10-05,1,,,,,タナカケンセツ,0
1357,5080402004719,登記記録の閉鎖等,0,2024-03-12,2024-03-11,有限会社高倉金属工業,,有限会社,静岡県,浜松市中央区,花川町１２８８番地,,22,138,4338109,,,2024-03-11,清算の結了等,,,2015-10-05,1,,,,,タカクラキンゾクコウギョウ,0
1359,5080402020055,登記記録の閉鎖等,0,2024-03-12,2024-03-11,葵開発有限会社,,有限会社,静岡県,磐田市,森下１１２番地１,,22,211,4380834,,,2024-03-11,清算の結了等,,,2015-10-05,1,,,,,アオイカイハツ,0
1369,5120001248919,登記記録の閉鎖等,0,2024-03-12,2024-03-08,株式会社エスユーイー,,株式会社,大阪府,大阪市西区,新町３丁目５番８－７０２号,,27,106,5500013,,,2024-03-08,清算の結了等,,,2022-09-16,1,,,,,エスユーイー,0
1375,5120102025408,登記記録の閉鎖等,0,2024-03-12,2024-03-11,堂雄毛糸有限会社,,有限会社,大阪府,和泉市,春木町９９２番地の１,,27,219,5941141,,,2024-03-11,清算の結了等,,,2015-10-05,1,,,,,ドウユウケイト,0
1391,5140001006309,登記記録の閉鎖等,0,2024-03-12,2024-03-06,株式会社うネ,,株式会社,兵庫県,神戸市中央区,元町通１丁目８番１６号,,28,110,6500022,,,2024-03-06,清算の結了等,,,2015-10-05,1,,,,,ウネ,0
1394,5140001119770,登記記録の閉鎖等,0,2024-03-12,2024-03-07,株式会社神明米粉,,株式会社,兵庫県,神戸市中央区,栄町通６丁目１番２１号,,28,110,6500023,,,2024-03-07,合併による解散等,9010001191011,令和６年３月１日東京都中央区日本橋小網町１６番１５号株式会社神明（9010001191011）に合併し解散,2020-12-11,1,,,,,シンメイコメコ,0
1406,5180001081892,登記記録の閉鎖等,0,2024-03-12,2024-03-05,株式会社アレックス,,株式会社,愛知県,一宮市,桜１丁目７番２６号,,23,203,4910036,,,2024-03-05,合併による解散等,6180001081966,令和６年３月１日愛知県一宮市桜一丁目７番２６号株式会社アスディック（6180001081966）に合併し解散,2015-10-05,1,,,,,アレックス,0
1412,5180302012877,登記記録の閉鎖等,0,2024-03-12,2024-03-05,有限会社エム・ワイ,,有限会社,愛知県,豊川市,御油町炮六土３３番地の９２,,23,207,4410215,,,2024-03-05,清算の結了等,,,2015-10-05,1,,,,,エムワイ,0
1416,5200001032190,登記記録の閉鎖等,0,2024-03-12,2024-03-11,株式会社恵企画,,株式会社,岐阜県,各務原市,蘇原古市場町４丁目１０１番地３,,21,213,5040852,,,2024-03-11,清算の結了等,,,2015-10-20,1,,,,,ケイキカク,0
1428,5250002015207,登記記録の閉鎖等,0,2024-03-12,2024-03-07,有限会社光電設,,有限会社,山口県,周南市,御山町１番２９号,,35,215,7450863,,,2024-03-07,清算の結了等,,,2015-10-05,1,,,,,ヒカリデンセツ,0
1453,5320002000226,登記記録の閉鎖等,0,2024-03-12,2024-03-06,有限会社大分住宅リフォーム,,有限会社,大分県,大分市,大字市８８８番地の１４０,,44,201,8701151,,,2024-03-06,清算の結了等,,,2015-10-05,1,,,,,,0
1454,5320202000744,登記記録の閉鎖等,0,2024-03-12,2024-03-08,有限会社港屋,,有限会社,大分県,津久見市,高洲町２１番１０号,,44,207,8792412,,,2024-03-08,清算の結了等,,,2015-10-05,1,,,,,,0
1462,5340005007547,登記記録の閉鎖等,0,2024-03-12,2024-03-11,特定非営利活動法人なのはな倶楽部,,その他の設立登記法人,鹿児島県,曽於市,末吉町諏訪方７９１８番地２,,46,217,8998604,,,2024-03-11,清算の結了等,,,2015-10-05,1,,,,,ナノハナクラブ,0
1471,5370601002527,登記記録の閉鎖等,0,2024-03-12,2024-03-08,株式会社やまや塩釜ファクトリー,,株式会社,宮城県,塩竈市,新浜町３丁目１０９番３１号,,04,203,9850001,,,2024-03-08,合併による解散等,1290001017815,令和６年３月１日福岡県糟屋郡篠栗町彩り台１番１号株式会社やまやコミュニケーションズ（1290001017815）に合併し解散,2015-10-05,1,,,,,ヤマヤシオガマファクトリー,0
1500,5490002007436,登記記録の閉鎖等,0,2024-03-12,2024-03-08,有限会社ジャパーナ,,有限会社,高知県,高知市,高見町２０８番地１１,,39,201,7808027,,,2024-03-08,清算の結了等,,,2015-10-05,1,,,,,ジャパーナ,0
1501,5500002013416,登記記録の閉鎖等,0,2024-03-12,2024-03-07,長田衛生社有限会社,,有限会社,愛媛県,八幡浜市,五反田１番耕地２８番地５,,38,204,7968010,,,2024-03-07,清算の結了等,,,2015-10-05,1,,,,,ナガタエイセイシャ,0
1502,5500005007365,登記記録の閉鎖等,0,2024-03-12,2024-03-11,ＮＰＯ法人ＮＥＸＴ　ＣＯＮＥＸＩＯＮ,,その他の設立登記法人,愛媛県,松山市,山越１丁目１５番３３号,,38,201,7918013,,,2024-03-11,清算の結了等,,,2015-10-05,1,,,,,ネクストコネクション,0
1506,6010001092690,登記記録の閉鎖等,0,2024-03-12,2024-03-05,ブレインズ株式会社,,株式会社,東京都,千代田区,三番町１４番７号,,13,101,1020075,,,2024-03-05,清算の結了等,,,2015-10-05,1,,,,,ブレインズ,0
1507,6010001120451,登記記録の閉鎖等,0,2024-03-12,2024-03-08,株式会社エムプラニング,,株式会社,沖縄県,糸満市,西崎６丁目１７－１－１７０５,,47,210,9010305,,,2024-03-08,清算の結了等,,,2015-10-05,1,,,,,エムプラニング,0
1513,6010001227742,登記記録の閉鎖等,0,2024-03-12,2024-03-05,株式会社アドバレス,,株式会社,東京都,千代田区,神田三崎町３丁目７番１３号三大ビル６階,,13,101,1010061,,,2024-03-05,清算の結了等,,,2022-07-04,1,,,,,アドバレス,0
1528,6010005000906,登記記録の閉鎖等,0,2024-03-12,2024-03-08,医療法人社団林内科クリニック,,その他の設立登記法人,東京都,千代田区,外神田２丁目１７番４号ビルデンス石村２階２０２号,,13,101,1010021,,,2024-03-08,清算の結了等,,,2015-10-05,1,,,,,ハヤシナイカクリニック,0
1530,6010101013679,登記記録の閉鎖等,0,2024-03-12,2024-03-04,株式会社ノースファクト,,株式会社,東京都,八王子市,横川町３９１番地７－２０３号,,13,201,1930823,,,2024-03-04,清算の結了等,,,2019-04-10,1,,,,,ノースファクト,0
1532,6010401064232,登記記録の閉鎖等,0,2024-03-12,2024-03-07,ソニーペイメントサービス株式会社,,株式会社,東京都,港区,高輪１丁目３番１３号,,13,103,1080074,,,2024-03-07,合併による解散等,4010003041771,令和６年３月１日東京都千代田区丸の内三丁目１番１号東京共同会計事務所内ソニーペイメントサービス株式会社（4010003041771）に合併し解散,2015-10-05,1,,,,,ソニーペイメントサービス,0
1538,6010401179492,登記記録の閉鎖等,0,2024-03-12,2024-03-08,株式会社Ｘ‐ＶＥＲＳＥ　ＰＬＵＳ,,株式会社,東京都,港区,六本木６丁目８番１０号,,13,103,1060032,,,2024-03-08,合併による解散等,9011102028779,令和６年３月１日東京都豊島区西池袋一丁目１１番１号株式会社テンダゲームス（9011102028779）に合併し解散,2024-01-04,1,,,,,クロスバースプラス,0
1545,6010501043391,登記記録の閉鎖等,0,2024-03-12,2024-03-07,株式会社ＲＯＯＴＳ,,株式会社,東京都,豊島区,東池袋１丁目３１番５号池袋アビタシオン４０５号,,13,116,1700013,,,2024-03-07,清算の結了等,,,2018-12-03,1,,,,,ルーツ,0
1549,6010701002305,登記記録の閉鎖等,0,2024-03-12,2024-03-08,ジャックス・ペイメント・ソリューションズ株式会社,,株式会社,東京都,品川区,東品川４丁目１２番１号,,13,109,1400002,,,2024-03-08,合併による解散等,2440001001001,令和６年３月１日北海道函館市若松町２番５号株式会社ジャックス（2440001001001）に合併し解散,2015-10-05,1,,,,,ジャックスペイメントソリューションズ,0
1559,6010901026681,登記記録の閉鎖等,0,2024-03-12,2024-03-08,株式会社フレームワークデザイン,,株式会社,東京都,品川区,西五反田２丁目１３番６号５Ｆ,,13,109,1410031,,,2024-03-08,清算の結了等,,,2015-10-05,1,,,,,,0
1579,6011501022039,登記記録の閉鎖等,0,2024-03-12,2024-03-01,株式会社コウザキ,,株式会社,東京都,北区,志茂２丁目５番１４号,,13,117,1150042,,,2024-03-01,清算の結了等,,,2016-10-25,1,,,,,コウザキ,0
1583,6011602023563,登記記録の閉鎖等,0,2024-03-12,2024-03-04,有限会社金丸,,有限会社,東京都,杉並区,浜田山３丁目２７番２３号アミ浜田山３０１号,,13,115,1680065,,,2024-03-04,清算の結了等,,,2015-10-05,1,,,,,カナマル,0
1594,6020001081981,登記記録の閉鎖等,0,2024-03-12,2024-03-06,株式会社鳥海商会,,株式会社,神奈川県,川崎市川崎区,扇町６番２号,,14,131,2100867,,,2024-03-06,清算の結了等,,,2015-10-05,1,,,,,トリウミショウカイ,0
1603,6020005013667,登記記録の閉鎖等,0,2024-03-12,2024-03-07,一般社団法人感共建築ラボ,,その他の設立登記法人,神奈川県,川崎市中原区,等々力１７番５号,,14,133,2110052,,,2024-03-07,清算の結了等,,,2018-05-08,1,,,,,カンキョウケンチクラボ,0
1606,6021001072021,登記記録の閉鎖等,0,2024-03-12,2024-03-08,株式会社戸田研究所,,株式会社,神奈川県,小田原市,板橋３８０番地の３７,,14,206,2500034,,,2024-03-08,清算の結了等,,,2021-02-05,1,,,,,トダケンキュウジョ,0
1636,6040002004782,登記記録の閉鎖等,0,2024-03-12,2024-03-06,有限会社サセ,,有限会社,千葉県,千葉市稲毛区,天台２丁目１６番８号,,12,103,2630016,,,2024-03-06,清算の結了等,,,2015-10-05,1,,,,,サセ,0
1639,6040002066253,登記記録の閉鎖等,0,2024-03-12,2024-03-06,有限会社オグラアソシエイツ,,有限会社,千葉県,木更津市,貝渕３丁目６番２号,,12,206,2920833,,,2024-03-06,清算の結了等,,,2015-10-05,1,,,,,オグラアソシエイツ,0
1640,6040002097018,登記記録の閉鎖等,0,2024-03-12,2024-03-06,有限会社サンエーオート,,有限会社,千葉県,野田市,みずき２丁目１３番地の２９,,12,208,2780027,,,2024-03-06,清算の結了等,,,2015-10-05,1,,,,,サンエーオート,0
1665,6120001030417,登記記録の閉鎖等,0,2024-03-12,2024-03-11,大岡莫大小株式会社,,株式会社,大阪府,大阪市住之江区,粉浜西３丁目２番１９号,,27,125,5590007,,,2024-03-11,清算の結了等,,,2015-10-05,1,,,,,オオオカメリヤス,0
1666,6120001031068,登記記録の閉鎖等,0,2024-03-12,2024-03-11,株式会社達屋,,株式会社,大阪府,大阪市住之江区,北島３丁目１６番２６号,,27,125,5590014,,,2024-03-11,清算の結了等,,,2015-10-05,1,,,,,タツヤ,0
1686,6120102022726,登記記録の閉鎖等,0,2024-03-12,2024-03-08,有限会社カマノ,,有限会社,大阪府,貝塚市,王子３８９番地の８,,27,208,5970051,,,2024-03-08,清算の結了等,,,2015-10-05,1,,,,,カマノ,0
1733,6180005017644,登記記録の閉鎖等,0,2024-03-12,2024-03-07,一般社団法人つながるＣｏＣｏねっと,,その他の設立登記法人,愛知県,名古屋市緑区,横吹町１９１５番地,,23,114,4580816,,,2024-03-07,清算の結了等,,,2018-01-16,1,,,,,ツナガルココネット,0
1752,6290001073110,登記記録の閉鎖等,0,2024-03-12,2024-03-04,株式会社イーストメディカ,,株式会社,福岡県,大川市,大字坂井７３６番地１,,40,212,8310025,,,2024-03-04,清算の結了等,,,2016-03-04,1,,,,,イーストメディカ,0
1766,6310003003269,登記記録の閉鎖等,0,2024-03-12,2024-03-08,合同会社ウィールウインド,,合同会社,長崎県,西彼杵郡時津町,久留里郷１４５９番地,,42,308,8512107,,,2024-03-08,清算の結了等,,,2017-03-24,1,,,,,ウィールウインド,0
1796,6380001026703,登記記録の閉鎖等,0,2024-03-12,2024-03-07,株式会社オクト,,株式会社,福島県,郡山市,島１丁目３番５号上村貸家北棟,,07,203,9638034,,,2024-03-07,清算の結了等,,,2016-04-07,1,,,,,オクト,0
1818,7010001078565,登記記録の閉鎖等,0,2024-03-12,2024-03-05,新生証券株式会社,,株式会社,東京都,中央区,日本橋室町２丁目４番３号,,13,102,1030022,,,2024-03-05,清算の結了等,,,2015-10-05,1,,,,,シンセイショウケン,0
1826,7010002025104,登記記録の閉鎖等,0,2024-03-12,2024-03-05,有限会社丸市,,有限会社,東京都,中央区,日本橋兜町１６番６号,,13,102,1030026,,,2024-03-05,清算の結了等,,,2015-10-05,1,,,,,マルイチ,0
1828,7010003027495,登記記録の閉鎖等,0,2024-03-12,2024-03-06,ＡＧＡＷＡＮＩ　ＩＮＤＵＳＴＲＩＥＳ合同会社,,合同会社,東京都,港区,浜松町２丁目２番１５号浜松町ダイヤビル２階,,13,103,1050013,,,2024-03-06,清算の結了等,,,2018-05-15,1,,,,,アガワニインダストリーズ,0
1840,7010402012536,登記記録の閉鎖等,0,2024-03-12,2024-03-05,有限会社南青山しぶさわ,,有限会社,神奈川県,横浜市青葉区,すすき野３丁目４番地２１,,14,117,2250021,,,2024-03-05,清算の結了等,,,2015-10-05,1,,,,,ミナミアオヤマシブサワ,0
1849,7010701001842,登記記録の閉鎖等,0,2024-03-12,2024-03-07,株式会社大井商店,,株式会社,東京都,目黒区,中根２丁目１４番１８－５０１号,,13,110,1520031,,,2024-03-07,清算の結了等,,,2015-10-05,1,,,,,オオイショウテン,0
1855,7011001022637,登記記録の閉鎖等,0,2024-03-12,2024-03-06,三菱商事建材株式会社,,株式会社,東京都,千代田区,丸の内２丁目３番１号,,13,101,1000005,,,2024-03-06,清算の結了等,,,2015-10-05,1,,,,,ミツビシショウジケンザイ,0
1857,7011001111555,登記記録の閉鎖等,0,2024-03-12,2024-03-08,株式会社Ｊａｐａｎｉｚｅ,,株式会社,東京都,新宿区,四谷４丁目２１番地,,13,104,1600004,,,2024-03-08,清算の結了等,,,2016-06-24,1,,,,,ジャパナイズ,0
1866,7011101017149,登記記録の閉鎖等,0,2024-03-12,2024-03-07,株式会社バードハウス,,株式会社,埼玉県,川口市,大字西立野７８７番地の２,,11,203,3330813,,,2024-03-07,清算の結了等,,,2015-10-05,1,,,,,バードハウス,0
1867,7011101025572,登記記録の閉鎖等,0,2024-03-12,2024-03-01,株式会社日本メディケートプラン,,株式会社,神奈川県,横浜市港北区,新横浜２丁目１２番１０号,,14,109,2220033,,,2024-03-01,合併による解散等,9122001012301,令和６年３月１日横浜市港北区新横浜二丁目１２番地１１フルタイズ株式会社（9122001012301）に合併し解散,2015-10-05,1,,,,,ニホンメディケートプラン,0
1869,7011101054836,登記記録の閉鎖等,0,2024-03-12,2024-03-08,株式会社リクエスト,,株式会社,東京都,新宿区,中落合３丁目１６－１４－４０６,,13,104,1610032,,,2024-03-08,清算の結了等,,,2015-10-05,1,,,,,リクエスト,0
1880,7011401011974,登記記録の閉鎖等,0,2024-03-12,2024-03-08,株式会社山上金属工業,,株式会社,東京都,板橋区,宮本町２５番１０号,,13,119,1740054,,,2024-03-08,清算の結了等,,,2015-10-05,1,,,,,ヤマカミキンゾクコウギョウ,0
1898,7012801007736,登記記録の閉鎖等,0,2024-03-12,2024-03-06,昭島電子工業株式会社,,株式会社,東京都,昭島市,松原町１丁目３５番６号,,13,207,1960003,,,2024-03-06,清算の結了等,,,2015-10-05,1,,,,,アキシマデンシコウギョウ,0
1906,7013302002409,登記記録の閉鎖等,0,2024-03-12,2024-03-01,有限会社大山塗装店,,有限会社,東京都,豊島区,駒込１丁目１８番１号,,13,116,1700003,,,2024-03-01,清算の結了等,,,2015-10-05,1,,,,,オオヤマトソウテン,0
1913,7020001149233,登記記録の閉鎖等,0,2024-03-12,2024-03-07,株式会社ＧＫＩジャパン,,株式会社,神奈川県,横浜市青葉区,つつじが丘２９番地２２ビューハイツアゼリア２０４,,14,117,2270055,,,2024-03-07,清算の結了等,,,2022-12-06,1,,,,,ジーケーアイジャパン,0
1917,7021001002605,登記記録の閉鎖等,0,2024-03-12,2024-03-06,湘南藤沢インキュベーション株式会社,,株式会社,神奈川県,藤沢市,藤沢６０７番地の１藤沢商工会館２階,,14,205,2510052,,,2024-03-06,清算の結了等,,,2015-10-05,1,,,,,ショウナンフジサワインキュベーション,0
1944,7040005022104,登記記録の閉鎖等,0,2024-03-12,2024-03-04,一般社団法人Ｌｉｔｔｌｅ　Ｆｌｏｗｅｒ,,その他の設立登記法人,千葉県,野田市,柳沢８４番地,,12,208,2780006,,,2024-03-04,清算の結了等,,,2023-09-01,1,,,,,リトルフラワー,0
1947,7050002018418,登記記録の閉鎖等,0,2024-03-12,2024-03-05,有限会社幸橋屋米穀店,,有限会社,茨城県,猿島郡境町,５０４番地の１,,08,546,3060433,,,2024-03-05,清算の結了等,,,2015-10-05,1,,,,,コウハシヤベイコクテン,0
1955,7080002003169,登記記録の閉鎖等,0,2024-03-12,2024-03-08,有限会社静岡データアドバンス,,有限会社,静岡県,静岡市葵区,岳美３番５－４号,,22,101,4200934,,,2024-03-08,清算の結了等,,,2015-10-05,1,,,,,シズオカデータアドバンス,0
1956,7080402000328,登記記録の閉鎖等,0,2024-03-12,2024-03-07,有限会社朝霧牛乳浜松,,有限会社,静岡県,浜松市中央区,笠井新田町１８９０番地の１,,22,138,4313105,,,2024-03-07,清算の結了等,,,2015-10-05,1,,,,,アサギリギュウニュウハママツ,0
1968,7110003004872,登記記録の閉鎖等,0,2024-03-12,2024-03-08,合同会社ビーゼア,,合同会社,新潟県,新潟市西区,五十嵐２の町８０５０番地ＮｏｔｔｈｅＵｎｉｖｅｒｓｉｔｙ内,,15,107,9502102,,,2024-03-08,清算の結了等,,,2022-09-28,1,,,,,ビーゼア,0
1990,7130001057573,登記記録の閉鎖等,0,2024-03-12,2024-03-04,株式会社とも吉ホールディングス,,株式会社,京都府,京都市中京区,三条通烏丸西入御倉町８５番地１烏丸ビル５階,,26,104,6048166,,,2024-03-04,合併による解散等,5130001021770,令和６年３月１日京都市中京区三条通烏丸西入御倉町８５番地１烏丸ビル５階株式会社ＴＯＡＩ（5130001021770）に合併し解散,2016-05-24,1,,,,,トモヨシホールディングス,0
1992,7140001079492,登記記録の閉鎖等,0,2024-03-12,2024-03-05,株式会社ツヤマ,,株式会社,兵庫県,川西市,新田１丁目１番７号,,28,217,6660125,,,2024-03-05,清算の結了等,,,2015-10-05,1,,,,,ツヤマ,0
1997,7140001104093,登記記録の閉鎖等,0,2024-03-12,2024-03-05,株式会社Ｃｈａｎｇｅ,,株式会社,兵庫県,西宮市,甲子園高潮町１番２４号,,28,204,6638166,,,2024-03-05,清算の結了等,,,2016-11-16,1,,,,,,0
2000,7140002016924,登記記録の閉鎖等,0,2024-03-12,2024-03-11,有限会社オフィス松本,,有限会社,兵庫県,明石市,明南町２丁目１番２０－８０６号,,28,203,6730001,,,2024-03-11,清算の結了等,,,2015-10-05,1,,,,,オフィスマツモト,0
2007,7160001016246,登記記録の閉鎖等,0,2024-03-12,2024-03-07,株式会社こころ,,株式会社,滋賀県,守山市,勝部２丁目３番３９号,,25,207,5240041,,,2024-03-07,清算の結了等,,,2015-10-05,1,,,,,ココロ,0
2010,7170001000018,登記記録の閉鎖等,0,2024-03-12,2024-03-08,株式会社アイエヌジー,,株式会社,和歌山県,和歌山市,和歌浦東３丁目５番４７号,,30,201,6410021,,,2024-03-08,合併による解散等,5130001041232,令和６年３月１日京都府福知山市石原二丁目３８番地広瀬産業株式会社（5130001041232）に合併し解散,2015-10-05,1,,,,,アイエヌジー,0
2021,7180303003915,登記記録の閉鎖等,0,2024-03-12,2024-03-08,合同会社ブリスクリエーション,,合同会社,愛知県,豊橋市,八町通１丁目２８番地,,23,201,4400806,,,2024-03-08,清算の結了等,,,2017-09-12,1,,,,,ブリスクリエーション,0
2022,7200001024608,登記記録の閉鎖等,0,2024-03-12,2024-03-11,株式会社大和,,株式会社,岐阜県,可児市,羽生ケ丘５丁目１３番地,,21,214,5090223,,,2024-03-11,清算の結了等,,,2015-10-05,1,,,,,,0
2042,7260002033271,登記記録の閉鎖等,0,2024-03-12,2024-03-07,有限会社藤原益男商店,00003900,有限会社,岡山県,玉野市,八浜町八浜８８０番地,,33,204,7060221,,,2024-03-07,清算の結了等,,,2015-10-05,1,,,,,フジワラマスオショウテン,0
2057,7300001009160,登記記録の閉鎖等,0,2024-03-12,2024-03-07,鳥栖セレモニー株式会社,,株式会社,佐賀県,鳥栖市,藤木町字若桜２番２,,41,203,8410048,,,2024-03-07,合併による解散等,1310001002186,令和６年３月１日長崎市稲佐町２番２号株式会社メモリード（1310001002186）に合併し解散,2015-10-05,1,,,,,トスセレモニー,0
2062,7310001002569,登記記録の閉鎖等,0,2024-03-12,2024-03-11,株式会社長崎高島水産センター,,株式会社,長崎県,長崎市,牧島町１６１９番地,,42,201,8510114,,,2024-03-11,清算の結了等,,,2015-10-05,1,,,,,,0
2069,7320202000668,登記記録の閉鎖等,0,2024-03-12,2024-03-08,有限会社津久見給食センター,,有限会社,大分県,津久見市,高洲町２１番１２号,,44,207,8792412,,,2024-03-08,清算の結了等,,,2015-10-05,1,,,,,,0
2077,7350003002191,登記記録の閉鎖等,0,2024-03-12,2024-03-11,合同会社ビッグサン,,合同会社,宮崎県,西都市,大字岩爪２５９９番地１,,45,208,8810106,,,2024-03-11,清算の結了等,,,2015-10-05,1,,,,,ビッグサン,0
2081,7360003007966,登記記録の閉鎖等,0,2024-03-12,2024-03-07,合同会社ＮＳペイメントコンサルティング,,合同会社,沖縄県,宜野湾市,喜友名２丁目４－１７チュナリーヒルズイースト４０３,,47,205,9012222,,,2024-03-07,清算の結了等,,,2017-01-17,1,,,,,エヌエスペイメントコンサルティング,0
2094,7400502000203,登記記録の閉鎖等,0,2024-03-12,2024-03-11,有限会社アロー商事,,有限会社,岩手県,一関市,大町２番４３号,,03,209,0210881,,,2024-03-11,清算の結了等,,,2015-10-05,1,,,,,,0
2109,7480001002321,登記記録の閉鎖等,0,2024-03-12,2024-03-11,株式会社マルダイ,,株式会社,徳島県,徳島市,庄町４丁目９９番地の５,,36,201,7700044,,,2024-03-11,清算の結了等,,,2015-10-05,1,,,,,マルダイ,0
2137,8010102002381,登記記録の閉鎖等,0,2024-03-12,2024-02-29,有限会社ケーシーアイ,,有限会社,東京都,八王子市,並木町３番８号,,13,201,1930831,,,2024-02-29,清算の結了等,,,2015-10-05,1,,,,,ケーシーアイ,0
2145,8010402033457,登記記録の閉鎖等,0,2024-03-12,2024-03-11,有限会社未宇コーポレーション,,有限会社,東京都,港区,赤坂１丁目１２番３２号アーク森ビル１９階株式会社ワークスアプリケーションズ内,,13,103,1070052,,,2024-03-11,清算の結了等,,,2015-10-05,1,,,,,,0
2160,8010902016795,登記記録の閉鎖等,0,2024-03-12,2024-03-06,有限会社ワールドリース,,有限会社,東京都,世田谷区,世田谷３丁目１６番８号,,13,112,1540017,,,2024-03-06,清算の結了等,,,2015-10-05,1,,,,,ワールドリース,0
2164,8011001015862,登記記録の閉鎖等,0,2024-03-12,2024-03-01,株式会社ホテルサンバレー本社,,株式会社,東京都,渋谷区,渋谷３丁目２８番１５号,,13,113,1500002,,,2024-03-01,合併による解散等,7011401003889,令和６年３月１日東京都渋谷区渋谷三丁目２８番１５号株式会社ＮＫ（7011401003889）に合併し解散,2015-10-05,1,,,,,ホテルサンバレーホンシャ,0
2175,8011101031784,登記記録の閉鎖等,0,2024-03-12,2024-03-07,株式会社オープンドリーム,,株式会社,東京都,新宿区,新宿１丁目２８番１０号,,13,104,1600022,,,2024-03-07,清算の結了等,,,2015-10-05,1,,,,,オープンドリーム,0
2178,8011101065568,登記記録の閉鎖等,0,2024-03-12,2024-03-08,株式会社七転び八起き,,株式会社,東京都,新宿区,四谷３丁目２番２号,,13,104,1600004,,,2024-03-08,清算の結了等,,,2015-10-05,1,,,,,ナナコロビヤオキ,0
2179,8011101079262,登記記録の閉鎖等,0,2024-03-12,2024-03-08,株式会社みけつかみ,,株式会社,東京都,新宿区,改代町２２番地,,13,104,1620802,,,2024-03-08,清算の結了等,,,2017-01-17,1,,,,,ミケツカミ,0
2192,8011702016300,登記記録の閉鎖等,0,2024-03-12,2024-03-06,有限会社ストリーム　ライン,,有限会社,東京都,江戸川区,南篠崎町２丁目１０番１１号,,13,123,1330065,,,2024-03-06,清算の結了等,,,2015-10-05,1,,,,,ストリームライン,0
2197,8013202000965,登記記録の閉鎖等,0,2024-03-12,2024-03-04,有限会社ウエルパイン,,有限会社,東京都,目黒区,目黒本町４丁目２番１号,,13,110,1520002,,,2024-03-04,清算の結了等,,,2015-10-05,1,,,,,ウエルパイン,0
2199,8013302017678,登記記録の閉鎖等,0,2024-03-12,2024-03-04,有限会社ケイ・デンタル,,有限会社,東京都,豊島区,南長崎３丁目８番１３号,,13,116,1710052,,,2024-03-04,清算の結了等,,,2015-10-05,1,,,,,ケイデンタル,0
2202,8020003005144,登記記録の閉鎖等,0,2024-03-12,2024-03-07,合名会社食と暮らし研究舎,,合名会社,神奈川県,横浜市緑区,寺山町１７１番地３,,14,113,2260013,,,2024-03-07,清算の結了等,,,2015-10-05,1,,,,,ショクトクラシケンキュウシャ,0
2214,8030001140561,登記記録の閉鎖等,0,2024-03-12,2024-03-07,株式会社エクスプレス・スリー・ディビット,,株式会社,埼玉県,熊谷市,万吉７４８番地９,,11,202,3600161,,,2024-03-07,清算の結了等,,,2021-02-03,1,,,,,エクスプレススリーディビット,0
2254,8050001043143,登記記録の閉鎖等,0,2024-03-12,2024-02-29,株式会社ＨＡＴＡＫＥオーガニックファーム,,株式会社,茨城県,つくば市,西高野１４７０番地５,,08,220,3002613,,,2024-02-29,清算の結了等,,,2017-07-28,1,,,,,ハタケオーガニックファーム,0
2255,8050002002560,登記記録の閉鎖等,0,2024-03-12,2024-03-06,有限会社パーソン,,有限会社,茨城県,水戸市,千波町２６１１番地の５,,08,201,3100851,,,2024-03-06,清算の結了等,,,2015-10-05,1,,,,,パーソン,0
2264,8080101008051,登記記録の閉鎖等,0,2024-03-12,2024-03-07,株式会社朝霧乳販,,株式会社,静岡県,富士市,高島町９６番地の２,,22,210,4170048,,,2024-03-07,清算の結了等,,,2015-10-05,1,,,,,アサギリニュウハン,0
2266,8080401021910,登記記録の閉鎖等,0,2024-03-12,2024-03-08,ＬＯＳＡ＆ＬＵＣＡ株式会社,,株式会社,静岡県,浜松市中央区,広沢３丁目２４番２３号,,22,138,4328013,,,2024-03-08,清算の結了等,,,2016-12-21,1,,,,,ロサアンドルカ,0
2273,8120001010029,登記記録の閉鎖等,0,2024-03-12,2024-03-07,株式会社伸光化工,,株式会社,大阪府,大阪市東住吉区,杭全２丁目６番３号,,27,121,5460002,,,2024-03-07,清算の結了等,,,2015-10-05,1,,,,,シンコウカコウ,0
2312,8150003002013,登記記録の閉鎖等,0,2024-03-12,2024-03-11,合同会社タケマル,,合同会社,奈良県,香芝市,高２３８番地１１,,29,210,6390241,,,2024-03-11,清算の結了等,,,2019-10-01,1,,,,,タケマル,0
2347,8250003003307,登記記録の閉鎖等,0,2024-03-12,2024-03-06,合同会社壱,,合同会社,山口県,下関市,豊前田一丁目１番１５号,,35,201,7500000,,,2024-03-06,清算の結了等,,,2023-07-19,1,,,,,イチ,0
2349,8260002025697,登記記録の閉鎖等,0,2024-03-12,2024-03-06,坂本電機工業有限会社,,有限会社,岡山県,井原市,井原町３３０番地の１,,33,207,7150019,,,2024-03-06,清算の結了等,,,2015-10-05,1,,,,,サカモトデンキコウギョウ,0
2375,8350001013462,登記記録の閉鎖等,0,2024-03-12,2024-03-08,株式会社地頭鶏恵,,株式会社,宮崎県,日南市,大字塚田乙１９２２番地１,,45,204,8893155,,,2024-03-08,清算の結了等,,,2015-10-05,1,,,,,ジトッコメグミ,0
2395,8380001026486,登記記録の閉鎖等,0,2024-03-12,2024-03-07,株式会社アルコン・あさくら,,株式会社,福島県,郡山市,大槻町字六角北３８番地の５,,07,203,9630201,,,2024-03-07,清算の結了等,,,2016-02-17,1,,,,,アルコンアサクラ,0
2403,8420002006152,登記記録の閉鎖等,0,2024-03-12,2024-03-06,有限会社石舘建設,,有限会社,青森県,八戸市,吹上４丁目７番２号,,02,203,0310003,,,2024-03-06,清算の結了等,,,2015-10-05,1,,,,,イシダテケンセツ,0
2425,9010001223664,登記記録の閉鎖等,0,2024-03-12,2024-03-06,ＢＩＯＣＯＭＭＡ株式会社,,株式会社,東京都,中央区,勝どき５丁目１２番４－１２０３号,,13,102,1040054,,,2024-03-06,清算の結了等,,,2022-01-07,1,,,,,バイオコンマ,0
2438,9010401082264,登記記録の閉鎖等,0,2024-03-12,2024-03-07,東和ランディック株式会社,,株式会社,東京都,港区,新橋３丁目２０番１号,,13,103,1050004,,,2024-03-07,合併による解散等,8010501025958,令和６年３月１日東京都台東区根岸五丁目２２番１０号東和エンタープライズ株式会社（8010501025958）に合併し解散,2015-10-05,1,,,,,トウワランディック,0
2450,9010403023191,登記記録の閉鎖等,0,2024-03-12,2024-03-05,合同会社青山アセットマネジメント,,合同会社,東京都,港区,赤坂８丁目４番１４号青山タワープレイス７階,,13,103,1070052,,,2024-03-05,清算の結了等,,,2020-06-26,1,,,,,アオヤマアセットマネジメント,0
2452,9010405020575,登記記録の閉鎖等,0,2024-03-12,2024-03-07,宇治田原ファシリティ特定目的会社,,その他の設立登記法人,東京都,港区,六本木１丁目６番１号泉ガーデンタワー,,13,103,1060032,,,2024-03-07,清算の結了等,,,2022-01-06,1,,,,,ウジタワラファシリティ,0
2462,9010703006301,登記記録の閉鎖等,0,2024-03-12,2024-03-08,冷泉合同会社,,合同会社,東京都,品川区,大崎１丁目１－１－４０７,,13,109,1410032,,,2024-03-08,清算の結了等,,,2022-07-07,1,,,,,レイゼイ,0
2465,9010902014435,登記記録の閉鎖等,0,2024-03-12,2024-03-07,有限会社マルキ薬局,,有限会社,東京都,世田谷区,弦巻４丁目１８番１１号,,13,112,1540016,,,2024-03-07,清算の結了等,,,2015-10-05,1,,,,,マルキヤッキョク,0
2489,9011303000347,登記記録の閉鎖等,0,2024-03-12,2024-03-04,合名会社ヴィクトリーアイ,,合名会社,東京都,杉並区,阿佐谷北４丁目３番１６号２０２号,,13,115,1660001,,,2024-03-04,清算の結了等,,,2015-10-05,1,,,,,ビクトリーアイ,0
2512,9020003021891,登記記録の閉鎖等,0,2024-03-12,2024-03-06,デジタルＢＣＭ合同会社,,合同会社,神奈川県,横浜市神奈川区,松見町１丁目３５番地の１－５０４,,14,102,2210005,,,2024-03-06,清算の結了等,,,2022-06-09,1,,,,,デジタルビーシーエム,0
2516,9021002004103,登記記録の閉鎖等,0,2024-03-12,2024-03-08,有限会社ビットコム,,有限会社,神奈川県,藤沢市,南藤沢９番１２－４０６号,,14,205,2510055,,,2024-03-08,清算の結了等,,,2015-10-05,1,,,,,ビットコム,0
2517,9021002012254,登記記録の閉鎖等,0,2024-03-12,2024-03-11,有限会社明和サービス,,有限会社,神奈川県,中郡大磯町,国府本郷１４０５番地１３,,14,341,2590111,,,2024-03-11,清算の結了等,,,2015-10-05,1,,,,,,0
2519,9021002059378,登記記録の閉鎖等,0,2024-03-12,2024-03-06,有限会社ヒラサキ,,有限会社,神奈川県,平塚市,南原１丁目４番２３号,,14,203,2540065,,,2024-03-06,清算の結了等,,,2015-10-05,1,,,,,ヒラサキ,0
2528,9030002062283,登記記録の閉鎖等,0,2024-03-12,2024-03-04,有限会社ホンダ木材,,有限会社,埼玉県,新座市,東北２丁目２４番３１号,,11,230,3520001,,,2024-03-04,清算の結了等,,,2015-10-05,1,,,,,,0
2533,9040001113706,登記記録の閉鎖等,0,2024-03-12,2024-03-07,エムエスホールディングス株式会社,,株式会社,千葉県,千葉市花見川区,花園２丁目１番２５号,,12,102,2620025,,,2024-03-07,合併による解散等,8010001029534,令和６年３月１日東京都千代田区鍛冶町二丁目４番４号万仁土地株式会社（8010001029534）に合併し解散,2020-05-21,1,,,,,エムエスホールディングス,0
2549,9060005007324,登記記録の閉鎖等,0,2024-03-12,2024-03-01,一般社団法人栃木県古民家再生協会,,その他の設立登記法人,栃木県,那須塩原市,鍋掛１０８８番地４８,,09,213,3250013,,,2024-03-01,清算の結了等,,,2015-10-05,1,,,,,トチギケンコミンカサイセイキョウカイ,0
2566,9080402004120,登記記録の閉鎖等,0,2024-03-12,2024-03-07,有限会社スズランハウジング,,有限会社,静岡県,浜松市中央区,西山町１５３１番地の１８,,22,138,4328001,,,2024-03-07,清算の結了等,,,2015-10-05,1,,,,,スズランハウジング,0
2606,9130001006974,登記記録の閉鎖等,0,2024-03-12,2024-03-07,株式会社Ｎスタイルウェディング,,株式会社,京都府,京都市北区,上賀茂今井河原町１０番地１１,,26,101,6038063,,,2024-03-07,合併による解散等,6140001029903,令和６年３月１日神戸市中央区港島一丁目１番地１５金子真珠株式会社（6140001029903）に合併し解散,2015-10-05,1,,,,,エヌスタイルウェディング,0
2615,9140002028587,登記記録の閉鎖等,0,2024-03-12,2024-03-05,有限会社オフィス工房,,有限会社,兵庫県,明石市,西明石西町１丁目７番１９号,,28,203,6730049,,,2024-03-05,清算の結了等,,,2015-10-05,1,,,,,オフィスコウボウ,0
2622,9180002072020,登記記録の閉鎖等,0,2024-03-12,2024-03-06,有限会社徳陶,,有限会社,愛知県,瀬戸市,赤津町９５番地,,23,204,4890022,,,2024-03-06,清算の結了等,,,2015-10-05,1,,,,,トクトウ,0
2643,9270002005953,登記記録の閉鎖等,0,2024-03-12,2024-03-07,有限会社坂口経理指導センター,,有限会社,鳥取県,米子市,角盤町４丁目１０９番地,,31,202,6830812,,,2024-03-07,清算の結了等,,,2015-10-05,1,,,,,サカグチケイリシドウセンター,0
2657,9290802011414,登記記録の閉鎖等,0,2024-03-12,2024-03-08,有限会社ナルイチ北九州,,有限会社,福岡県,北九州市小倉北区,新高田２丁目２番１６号,,40,106,8030852,,,2024-03-08,清算の結了等,,,2015-10-05,1,,,,,ナルイチキタキュウシュウ,0
2658,9290802016272,登記記録の閉鎖等,0,2024-03-12,2024-03-07,有限会社タカトーファーマシー,,有限会社,福岡県,北九州市八幡西区,菅原町３番８号,,40,109,8060027,,,2024-03-07,合併による解散等,6010901003581,令和６年３月１日東京都世田谷区成城七丁目８番１８号株式会社グラム（6010901003581）に合併し解散,2015-10-05,1,,,,,タカトーファーマシー,0
2659,9290802025067,登記記録の閉鎖等,0,2024-03-12,2024-03-06,有限会社ファニス工芸,,有限会社,福岡県,田川郡糸田町,３７４８番地の１８,,40,604,8221300,,,2024-03-06,清算の結了等,,,2015-10-05,1,,,,,ファニスコウゲイ,0
2661,9310002004331,登記記録の閉鎖等,0,2024-03-12,2024-03-11,有限会社長谷川電気,,有限会社,長崎県,長崎市,宝町６番２号,,42,201,8500045,,,2024-03-11,清算の結了等,,,2015-10-05,1,,,,,,0
2670,9370002008228,登記記録の閉鎖等,0,2024-03-12,2024-03-05,有限会社俊工務店,,有限会社,宮城県,仙台市宮城野区,岩切２丁目１１番１７号,,04,102,9830821,,,2024-03-05,清算の結了等,,,2015-10-05,1,,,,,トシコウムテン,0
2671,9370101002239,登記記録の閉鎖等,0,2024-03-12,2024-03-08,株式会社蔵王高原フーズ,,株式会社,宮城県,白石市,福岡長袋字坪家沢裏１９番地１,,04,206,9890232,,,2024-03-08,合併による解散等,3420001006810,令和６年３月１日青森県三戸郡三戸町大字川守田字沖中６８番地太子食品工業株式会社（3420001006810）に合併し解散,2015-10-05,1,,,,,ザオウコウゲンフーズ,0
2672,9380001009754,登記記録の閉鎖等,0,2024-03-12,2024-03-06,東陽工業株式会社,,株式会社,福島県,本宮市,和田字諏訪１０番地,,07,214,9691205,,,2024-03-06,合併による解散等,4140001042998,令和６年３月１日兵庫県小野市匠台６３番地ＪＲＣＣ＆Ｍ株式会社（4140001042998）に合併し解散,2015-10-05,1,,,,,トウヨウコウギョウ,0
2673,9380001024844,登記記録の閉鎖等,0,2024-03-12,2024-03-07,株式会社グレード,,株式会社,福島県,郡山市,待池台１丁目３９番地,,07,203,9630215,,,2024-03-07,清算の結了等,,,2015-10-05,1,,,,,グレード,0
