sequenceNumber,corporateNumber,process,correct,updateDate,changeDate,name,nameImageId,kind,prefectureName,cityName,streetNumber,addressImageId,prefectureCode,cityCode,postCode,addressOutside,addressOutsideImageId,closeDate,closeCause,successorCorporateNumber,changeCause,assignmentDate,latest,enName,enPrefectureName,enCityName,enAddressOutside,furigana,hihyoji
6,1010003045379,新規,0,2024-11-07,2024-11-07,合同会社うーまのおはな,,合同会社,東京都,中央区,銀座１丁目１２番４号Ｎ＆ＥＢＬＤ．６Ｆ,,13,102,1040061,,,,,,,2024-11-07,1,,,,,ウーマノオハナ,0
27,1010401186163,新規,0,2024-11-07,2024-11-07,株式会社ミライル,,株式会社,東京都,港区,南青山３丁目１番３６号青山丸竹ビル６階,,13,103,1070062,,,,,,,2024-11-07,1,,,,,ミライル,0
28,1010401186205,新規,0,2024-11-07,2024-11-07,株式会社メディスリープ,,株式会社,東京都,港区,三田３丁目４番１８号二葉ビル６０２,,13,103,1080073,,,,,,,2024-11-07,1,,,,,メディスリープ,0
29,1010403033743,新規,0,2024-11-07,2024-11-07,合同会社鹿児島ホテルオペレーションズ,,合同会社,東京都,港区,元赤坂１丁目１番８号株式会社赤坂国際会計内,,13,103,1070051,,,,,,,2024-11-07,1,,,,,カゴシマホテルオペレーションズ,0
33,1010601066223,新規,0,2024-11-07,2024-11-07,株式会社スリーシーズ,,株式会社,東京都,江東区,扇橋３丁目２１番１０号,,13,108,1350011,,,,,,,2024-11-07,1,,,,,スリーシーズ,0
44,1010901056270,新規,0,2024-11-07,2024-11-07,株式会社Ｌｉｆｅｓ．,,株式会社,東京都,世田谷区,用賀４丁目５番３号ラグゼナ用賀４０７号,,13,112,1580097,,,,,,,2024-11-07,1,,,,,ライフズ,0
52,1010903009474,新規,0,2024-11-07,2024-11-07,合同会社スズキアセットマネジメント,,合同会社,東京都,世田谷区,新町３丁目２番３－８０５号,,13,112,1540014,,,,,,,2024-11-07,1,,,,,スズキアセットマネジメント,0
53,1010903009482,新規,0,2024-11-07,2024-11-07,合同会社龍樹,,合同会社,東京都,世田谷区,下馬４丁目５番９号２０２,,13,112,1540002,,,,,,,2024-11-07,1,,,,,リュウジュ,0
55,1011001165631,新規,0,2024-11-07,2024-11-07,株式会社ＨＡＫＵＭＵ,,株式会社,東京都,渋谷区,道玄坂１丁目１０番８号渋谷道玄坂東急ビル２Ｆ－Ｃ,,13,113,1500043,,,,,,,2024-11-07,1,,,,,ハクム,0
56,1011001165656,新規,0,2024-11-07,2024-11-07,Ｄｏｋｏ　Ｄｉｓｃｏｖｅｒ株式会社,,株式会社,東京都,渋谷区,恵比寿３丁目１番４号,,13,113,1500013,,,,,,,2024-11-07,1,,,,,ドコディスカバー,0
58,1011101109455,新規,0,2024-11-07,2024-11-07,株式会社功刀屋,,株式会社,東京都,新宿区,新宿１丁目７番２号,,13,104,1600022,,,,,,,2024-11-07,1,,,,,クヌギヤ,0
63,1011201025908,新規,0,2024-11-07,2024-11-07,みちお商事株式会社,,株式会社,東京都,中野区,中央１丁目５１番６号,,13,114,1640011,,,,,,,2024-11-07,1,,,,,ミチオショウジ,0
64,1011301030139,新規,0,2024-11-07,2024-11-07,株式会社アトリエウォールナッツ,,株式会社,東京都,杉並区,下井草３丁目３３番１２号,,13,115,1670022,,,,,,,2024-11-07,1,,,,,,0
65,1011303005337,新規,0,2024-11-07,2024-11-07,合同会社ナート,,合同会社,東京都,杉並区,高井戸西２丁目１４番７－３号,,13,115,1680071,,,,,,,2024-11-07,1,,,,,ナート,0
71,1011701027726,新規,0,2024-11-07,2024-11-07,株式会社東南アジアリクルートメント,,株式会社,東京都,江戸川区,平井７丁目４番２－８０９号,,13,123,1320035,,,,,,,2024-11-07,1,,,,,トウナンアジアリクルートメント,0
72,1011701027775,新規,0,2024-11-07,2024-11-07,株式会社Ｓｏｕｌ‐Ｓｕｃｃｅｅｄ,,株式会社,東京都,江戸川区,西一之江１丁目１０番１０号,,13,123,1320023,,,,,,,2024-11-07,1,,,,,ソウルサクシード,0
76,1011801045082,新規,0,2024-11-07,2024-11-07,Ｅ＆Ｎ株式会社,,株式会社,東京都,葛飾区,青戸６丁目３―３,,13,122,1250062,,,,,,,2024-11-07,1,,,,,イーアンドエヌ,0
77,1012401042453,新規,0,2024-11-07,2024-11-07,株式会社ギャラリー本間,,株式会社,東京都,多摩市,連光寺２丁目１６番地の１８,,13,224,2060021,,,,,,,2024-11-07,1,,,,,ギャラリーホンマ,0
78,1012801023557,新規,0,2024-11-07,2024-11-07,ＮＦＣコンストラクションズ株式会社,,株式会社,東京都,立川市,錦町１丁目４番４号立川サニーハイツ８号室,,13,202,1900022,,,,,,,2024-11-07,1,,,,,エヌエフシーコンストラクションズ,0
79,1013105001860,新規,0,2024-11-07,2024-11-07,一般社団法人仁屋,,その他の設立登記法人,東京都,青梅市,東青梅３丁目２４番地の３４,,13,205,1980042,,,,,,,2024-11-07,1,,,,,ニイヤ,0
84,1020001159865,新規,0,2024-11-07,2024-11-07,ＨＥホールディングス株式会社,,株式会社,神奈川県,横浜市戸塚区,品濃町２７７番地,,14,110,2440801,,,,,,,2024-11-07,1,,,,,エイチイーホールディングス,0
87,1020003027186,新規,0,2024-11-07,2024-11-07,合同会社ベルウッド,,合同会社,神奈川県,川崎市川崎区,渡田向町２０番１２号,,14,131,2100841,,,,,,,2024-11-07,1,,,,,ベルウッド,0
88,1020003027194,新規,0,2024-11-07,2024-11-07,合同会社Ｒｉｎｏ‐Ｅｘ,,合同会社,神奈川県,横浜市港北区,下田町５丁目２５番１１号２０１,,14,109,2230064,,,,,,,2024-11-07,1,,,,,リノエクスチェンジ,0
92,1021003015180,新規,0,2024-11-07,2024-11-07,ＭＯＭＯＫＡ合同会社,,合同会社,神奈川県,鎌倉市,山ノ内１２９４番地３,,14,204,2470062,,,,,,,2024-11-07,1,,,,,モモカ,0
98,1030001163255,新規,0,2024-11-07,2024-11-07,株式会社さぼり場,,株式会社,埼玉県,戸田市,本町４丁目１４番１４号プラージュ戸田公園２階,,11,224,3350023,,,,,,,2024-11-07,1,,,,,サボリバ,0
103,1040001136020,新規,0,2024-11-07,2024-11-07,株式会社大塗工業,,株式会社,千葉県,柏市,大津ケ丘２丁目３１番地６棟２０２号,,12,217,2770921,,,,,,,2024-11-07,1,,,,,オオトコウギョウ,0
104,1040001136029,新規,0,2024-11-07,2024-11-07,株式会社Ｏｎｅ　ｐｈｒａｓｅ,,株式会社,千葉県,我孫子市,天王台２丁目１０番地７,,12,222,2701143,,,,,,,2024-11-07,1,,,,,ワンフレーズ,0
105,1040001136045,新規,0,2024-11-07,2024-11-07,キラキラハウス株式会社,,株式会社,千葉県,木更津市,桜井８１９番１,,12,206,2920822,,,,,,,2024-11-07,1,,,,,キラキラハウス,0
106,1040001136053,新規,0,2024-11-07,2024-11-07,おしのたまご株式会社,,株式会社,千葉県,市川市,相之川１丁目５－１２,,12,203,2720143,,,,,,,2024-11-07,1,,,,,オシノタマゴ,0
109,1040003026112,新規,0,2024-11-07,2024-11-07,合同会社グリーンライト,,合同会社,千葉県,習志野市,津田沼１丁目１３番２４－４０９号,,12,216,2750016,,,,,,,2024-11-07,1,,,,,グリーンライト,0
110,1040003026120,新規,0,2024-11-07,2024-11-07,合同会社エイトステップ,,合同会社,千葉県,松戸市,新松戸７丁目５６０番地,,12,207,2700034,,,,,,,2024-11-07,1,,,,,エイトステップ,0
112,1060001037621,新規,0,2024-11-07,2024-11-07,ＡＬ‐ＦＡＴＥＨ株式会社,,株式会社,栃木県,足利市,小俣町１０２８番地１,,09,202,3260141,,,,,,,2024-11-07,1,,,,,アルファテ,0
113,1060001037638,新規,0,2024-11-07,2024-11-07,イリス株式会社,,株式会社,栃木県,鹿沼市,晃望台１１番地７,,09,205,3220024,,,,,,,2024-11-07,1,,,,,イリス,0
115,1060003005312,新規,0,2024-11-07,2024-11-07,にゃんこ・ホーム合同会社,,合同会社,栃木県,芳賀郡芳賀町,大字西水沼４３６番地６,,09,345,3213324,,,,,,,2024-11-07,1,,,,,ニャンコホーム,0
117,1070001042331,新規,0,2024-11-07,2024-11-07,株式会社Ｔ．Ａ,,株式会社,群馬県,伊勢崎市,連取町３０９９番地１１,,10,204,3720812,,,,,,,2024-11-07,1,,,,,ティーエー,0
118,1080001026572,新規,0,2024-11-07,2024-11-07,株式会社ライフステージ,,株式会社,静岡県,藤枝市,田沼３丁目２０番２８号,,22,214,4260061,,,,,,,2024-11-07,1,,,,,ライフステージ,0
119,1080001026580,新規,0,2024-11-07,2024-11-07,株式会社ＲＯＮＩＩ,,株式会社,静岡県,藤枝市,志太２丁目２番３０号,,22,214,4260071,,,,,,,2024-11-07,1,,,,,ロニイ,0
120,1080101025111,新規,0,2024-11-07,2024-11-07,株式会社ｆｏｒｅｓｔ,,株式会社,静岡県,下田市,大賀茂１０３５番地の８,,22,219,4150038,,,,,,,2024-11-07,1,,,,,フォレスト,0
121,1080103003189,新規,0,2024-11-07,2024-11-07,合同会社ライト,,合同会社,静岡県,富士宮市,万野原新田３０１５番地の５,,22,207,4180001,,,,,,,2024-11-07,1,,,,,ライト,0
123,1080401027550,新規,0,2024-11-07,2024-11-07,株式会社とわ工業,,株式会社,静岡県,浜松市浜名区,新都田２丁目２１番２４号,,22,139,4312103,,,,,,,2024-11-07,1,,,,,トワコウギョウ,0
125,1100005013250,新規,0,2024-11-07,2024-11-07,一般財団法人平松ジャポニスム芸術研究財団,,その他の設立登記法人,長野県,北佐久郡軽井沢町,大字長倉１９番地２４３,,20,321,3890111,,,,,,,2024-11-07,1,,,,,ヒラマツジャポニスムゲイジュツケンキュウザイダン,0
128,1110001038829,新規,0,2024-11-07,2024-11-07,株式会社滝沢デザイン事務所,,株式会社,新潟県,新潟市南区,朝捲４番地８,00136905,15,106,9501413,,,,,,,2024-11-07,1,,,,,タキザワデザインジムショ,0
132,1120001270018,新規,0,2024-11-07,2024-11-07,株式会社ＫＵＰコミュニケーションズ,,株式会社,大阪府,大阪市北区,梅田１丁目１－３大阪駅前第３ビル２９階１－１－１号室,,27,127,5300001,,,,,,,2024-11-07,1,,,,,ケーユーピーコミュニケーションズ,0
133,1120001270050,新規,0,2024-11-07,2024-11-07,オペレーションサポートシステム株式会社,,株式会社,大阪府,大阪市西成区,太子２丁目３番４０号,,27,122,5570002,,,,,,,2024-11-07,1,,,,,オペレーションサポートシステム,0
137,1120003027903,新規,0,2024-11-07,2024-11-07,合同会社ＡＫＩ,,合同会社,大阪府,大阪市城東区,今福東２丁目１５番２３－４０４号,,27,118,5360002,,,,,,,2024-11-07,1,,,,,アキ,0
138,1120003027911,新規,0,2024-11-07,2024-11-07,合同会社京,,合同会社,大阪府,大阪市北区,堂島２丁目２番８－１２０３号,,27,127,5300003,,,,,,,2024-11-07,1,,,,,キョウ,0
142,1120101070524,新規,0,2024-11-07,2024-11-07,株式会社ＲＡＮＧＥ,,株式会社,大阪府,羽曳野市,向野２丁目１２番８号,,27,222,5830883,,,,,,,2024-11-07,1,,,,,レンジ,0
143,1120101070540,新規,0,2024-11-07,2024-11-07,株式会社ＳＡＫＵ,,株式会社,大阪府,藤井寺市,野中４丁目１４番２８号,,27,226,5830014,,,,,,,2024-11-07,1,,,,,サク,0
148,1130001078278,新規,0,2024-11-07,2024-11-07,京慶国際株式会社,,株式会社,京都府,京都市左京区,二条通川端東入ル三筋目大文字町１５８番ハイツサンフラワー１０２号室,,26,103,6060000,,,,,,,2024-11-07,1,,,,,キョウケイコクサイ,0
154,1140001136316,新規,0,2024-11-07,2024-11-07,株式会社ＣＯＣＯ,,株式会社,兵庫県,姫路市,書写９５３番地１３,,28,201,6712201,,,,,,,2024-11-07,1,,,,,ココ,0
155,1140001136340,新規,0,2024-11-07,2024-11-07,株式会社ＴＨＥ　ＨＩＤＥＡＷＡＹ　ＧＡＲＡＧＥ,,株式会社,兵庫県,神戸市東灘区,岡本１丁目６番１４号,,28,101,6580072,,,,,,,2024-11-07,1,,,,,ザハイドアウェイガレージ,0
156,1140001136357,新規,0,2024-11-07,2024-11-07,株式会社太陽,,株式会社,兵庫県,神戸市灘区,深田町３丁目１８番地１－２０２,,28,102,6570038,,,,,,,2024-11-07,1,,,,,,0
159,1140003021276,新規,0,2024-11-07,2024-11-07,合同会社くぉんたむ・たんぐる,,合同会社,兵庫県,西宮市,段上町６丁目７番１９号ファミーユハイツ１０２号,,28,204,6638006,,,,,,,2024-11-07,1,,,,,クォンタムタングル,0
163,1160001026341,新規,0,2024-11-07,2024-11-07,株式会社ＣＯＬＯＲＳ不動産販売,,株式会社,滋賀県,草津市,野路４丁目１番７号,,25,206,5250059,,,,,,,2024-11-07,1,,,,,カラーズフドウサンハンバイ,0
180,1180001163991,新規,0,2024-11-07,2024-11-07,バランスプラス株式会社,,株式会社,愛知県,名古屋市北区,中味鋺２丁目１０１６番地の１,,23,103,4620015,,,,,,,2024-11-07,1,,,,,バランスプラス,0
187,1180301039198,新規,0,2024-11-07,2024-11-07,株式会社いろは工房,,株式会社,愛知県,豊田市,田中町５丁目３９番地７３,,23,211,4710845,,,,,,,2024-11-07,1,,,,,イロハコウボウ,0
195,1220001026319,新規,0,2024-11-07,2024-11-07,株式会社Ｌｕｋｋａ,,株式会社,石川県,白山市,菜の花１丁目３１番地,,17,210,9240810,,,,,,,2024-11-07,1,,,,,ルッカ,0
201,1230001020601,新規,0,2024-11-07,2024-11-07,ｒｉｔａ株式会社,,株式会社,富山県,富山市,常盤台１番４１号,,16,201,9300983,,,,,,,2024-11-07,1,,,,,リタ,0
204,1240001064044,新規,0,2024-11-07,2024-11-07,株式会社尚輝,,株式会社,広島県,福山市,神辺町字道上５２０番地１２,,34,207,7202104,,,,,,,2024-11-07,1,,,,,ショウキ,0
205,1240001064052,新規,0,2024-11-07,2024-11-07,株式会社中国新聞ＦＣ西条西,,株式会社,広島県,東広島市,西条町下見４３０９番地２,,34,212,7390044,,,,,,,2024-11-07,1,,,,,チュウゴクシンブンエフシーサイジョウニシ,0
206,1240001064077,新規,0,2024-11-07,2024-11-07,株式会社ＫＴＮ,,株式会社,広島県,広島市佐伯区,海老山南１丁目１番２８－１０１号,,34,108,7315138,,,,,,,2024-11-07,1,,,,,ケイティエヌ,0
207,1250001020888,新規,0,2024-11-07,2024-11-07,株式会社ゼフィロス,,株式会社,山口県,柳井市,中央３丁目１５番３０－３０４号,,35,212,7420035,,,,,,,2024-11-07,1,,,,,ゼフィロス,0
209,1260001039606,新規,0,2024-11-07,2024-11-07,株式会社Ｏｎｅ　Ｓｃｅｎｅ,,株式会社,岡山県,岡山市北区,奉還町４丁目７－１５ＮＡＷＡＴＥ,,33,101,7000026,,,,,,,2024-11-07,1,,,,,ワンシーン,0
210,1260001039614,新規,0,2024-11-07,2024-11-07,株式会社想新,,株式会社,岡山県,岡山市東区,城東台西１丁目５番４号,,33,103,7090624,,,,,,,2024-11-07,1,,,,,ソウシン,0
215,1280001009284,新規,0,2024-11-07,2024-11-07,株式会社Ｕｎｄｅｒ　Ｖｉｌｌａｇｅ,,株式会社,島根県,松江市,東津田町１１８６番地１０（３７７ビル２Ｆ）,,32,201,6900011,,,,,,,2024-11-07,1,,,,,アンダービレッジ,0
220,1290003016030,新規,0,2024-11-07,2024-11-07,合同会社九州ビジネス総研,,合同会社,福岡県,福岡市中央区,天神４丁目６－２８天神ファーストビル７階,,40,133,8100001,,,,,,,2024-11-07,1,,,,,キュウシュウビジネスソウケン,0
224,1290801031008,新規,0,2024-11-07,2024-11-07,株式会社Ｍ．ＴＯＫＥＮ,,株式会社,福岡県,北九州市八幡西区,大平２丁目８－２,,40,109,8070083,,,,,,,2024-11-07,1,,,,,エムトケン,0
229,1310001019313,新規,0,2024-11-07,2024-11-07,株式会社ＩＲＯＤＯＲＩ　ＣＵＢＥ,,株式会社,長崎県,長崎市,浜町２番１８号ファサネイト浜町２０２号室,,42,201,8500853,,,,,,,2024-11-07,1,,,,,イロドリキューブ,0
234,1330001032628,新規,0,2024-11-07,2024-11-07,日産熊本ホールディングス株式会社,,株式会社,熊本県,熊本市西区,上熊本２丁目４番１５号,,43,103,8600079,,,,,,,2024-11-07,1,,,,,ニッサンクマモトホールディングス,0
236,1340001026918,新規,0,2024-11-07,2024-11-07,みのるホーミーズ株式会社,,株式会社,鹿児島県,志布志市,志布志町安楽６８４番地４,,46,221,8997104,,,,,,,2024-11-07,1,,,,,ミノルホーミーズ,0
238,1350001019268,新規,0,2024-11-07,2024-11-07,株式会社愛宕福祉会,,株式会社,宮崎県,延岡市,愛宕町３丁目２６番地,,45,203,8820872,,,,,,,2024-11-07,1,,,,,アタゴフクシカイ,0
241,1360001034398,新規,0,2024-11-07,2024-11-07,ＡｓｔｒｏＢｌｕｅ株式会社,,株式会社,沖縄県,那覇市,久茂地２丁目１７番１８－３０２号久茂地第２マンション,,47,201,9000015,,,,,,,2024-11-07,1,,,,,アストロブルー,0
244,1370001051905,新規,0,2024-11-07,2024-11-07,Ｎｅｔｐａｓｓ株式会社,,株式会社,宮城県,仙台市宮城野区,福室５丁目１番２２号１０２,,04,102,9830005,,,,,,,2024-11-07,1,,,,,ネットパス,0
246,1380001034891,新規,0,2024-11-07,2024-11-07,株式会社Ｓｕｒｅ,,株式会社,福島県,須賀川市,南町２７７番地１コーポ・ナナ１０１,,07,207,9620838,,,,,,,2024-11-07,1,,,,,シュアー,0
247,1390001017788,新規,0,2024-11-07,2024-11-07,株式会社モトファクトリー,,株式会社,山形県,鶴岡市,白山字村北５１番地１,,06,203,9970841,,,,,,,2024-11-07,1,,,,,モトファクトリー,0
250,1400003003347,新規,0,2024-11-07,2024-11-07,合同会社アドベンチャー・リッジ・ベンチャーズ,,合同会社,岩手県,八幡平市,安比高原１１７番地１７,,03,214,0287306,,,,,,,2024-11-07,1,,,,,アドベンチャーリッジベンチャーズ,0
252,1400005008451,新規,0,2024-11-07,2024-11-07,一般社団法人小田代共有林管理機構,,その他の設立登記法人,岩手県,奥州市,江刺田原字宮地３５番地５,,03,215,0230171,,,,,,,2024-11-07,1,,,,,コダシロキョウユウリンカンリキコウ,0
265,1440001009516,新規,0,2024-11-07,2024-11-07,株式会社大和,,株式会社,北海道,函館市,本町９－８くれないビル１Ｆ,,01,202,0400011,,,,,,,2024-11-07,1,,,,,ヤマト,0
278,2010001249674,新規,0,2024-11-07,2024-11-07,株式会社なみなみブックス,,株式会社,東京都,千代田区,六番町７―１１,,13,101,1020085,,,,,,,2024-11-07,1,,,,,ナミナミブックス,0
281,2010003045378,新規,0,2024-11-07,2024-11-07,合同会社ＢｉｚＮｏｖａ,,合同会社,東京都,中央区,銀座１丁目１２番４号Ｎ＆ＥＢＬＤ．６Ｆ,,13,102,1040061,,,,,,,2024-11-07,1,,,,,ビズノバ,0
282,2010003045386,新規,0,2024-11-07,2024-11-07,合同会社ピーチシルバー,,合同会社,東京都,文京区,関口１丁目２４番２－６０４号,,13,105,1120014,,,,,,,2024-11-07,1,,,,,ピーチシルバー,0
308,2010401186187,新規,0,2024-11-07,2024-11-07,株式会社ＳＨＩＳＥＩ,,株式会社,東京都,港区,赤坂４丁目８番１９号赤坂フロントタウン３階,,13,103,1070052,,,,,,,2024-11-07,1,,,,,シセイ,0
309,2010401186237,新規,0,2024-11-07,2024-11-07,ウィングス株式会社,,株式会社,東京都,港区,南青山２丁目２番１５号ウィン青山９４２,,13,103,1070062,,,,,,,2024-11-07,1,,,,,ウィングス,0
312,2010403033726,新規,0,2024-11-07,2024-11-07,Ｃｏｌｌｅｃｔｉｖｅ　Ａｉ合同会社,,合同会社,東京都,港区,南青山３丁目１番３６号青山丸竹ビル６Ｆ,,13,103,1070062,,,,,,,2024-11-07,1,,,,,コレクティブエーアイ,0
313,2010403033734,新規,0,2024-11-07,2024-11-07,Ｊａｐａｎ　Ｓｔｏｒａｇｅ　Ｂａｔｔｅｒｙ合同会社,,合同会社,東京都,港区,六本木１丁目６番１号泉ガーデンタワー,,13,103,1060032,,,,,,,2024-11-07,1,,,,,ジャパンストレージバッテリー,0
314,2010403033742,新規,0,2024-11-07,2024-11-07,ＷＡＧＭＩ合同会社,,合同会社,東京都,港区,赤坂８丁目１２番３０号マノー乃木坂４０１,,13,103,1070052,,,,,,,2024-11-07,1,,,,,ワグミ,0
316,2010405023717,新規,0,2024-11-07,2024-11-07,一般社団法人日本金融経済機構,,その他の設立登記法人,東京都,港区,南青山２丁目２番１５号,,13,103,1070062,,,,,,,2024-11-07,1,,,,,ニホンキンユウケイザイキコウ,0
317,2010501053139,新規,0,2024-11-07,2024-11-07,ＸＭＷ株式会社,,株式会社,東京都,台東区,北上野２丁目２５番９号－３０６号室,,13,106,1100014,,,,,,,2024-11-07,1,,,,,エックスエムダブリュー,0
318,2010601066222,新規,0,2024-11-07,2024-11-07,株式会社前東工業,,株式会社,東京都,墨田区,菊川２丁目７番３号,,13,107,1300024,,,,,,,2024-11-07,1,,,,,マエヒガシコウギョウ,0
319,2010603011192,新規,0,2024-11-07,2024-11-07,播摩屋合同会社,,合同会社,東京都,江東区,門前仲町１丁目１９－１１－１２０５,,13,108,1350048,,,,,,,2024-11-07,1,,,,,ハリマヤ,0
326,2010903009473,新規,0,2024-11-07,2024-11-07,合同会社ＣＯＭＩＴＡ,,合同会社,東京都,世田谷区,玉川２丁目１番１６号,,13,112,1580094,,,,,,,2024-11-07,1,,,,,コミタ,0
333,2011001165622,新規,0,2024-11-07,2024-11-07,Ｆｒｏｎｔｉｅｒ＆Ｃｏ株式会社,,株式会社,東京都,目黒区,上目黒１丁目１４－６メゾンベルウッド１階店舗区画,,13,110,1530051,,,,,,,2024-11-07,1,,,,,フロンティアアンドコー,0
334,2011001165630,新規,0,2024-11-07,2024-11-07,株式会社ｓｈａｎａｒｉ,,株式会社,東京都,渋谷区,道玄坂１丁目１０番８号渋谷道玄坂東急ビル２Ｆ－Ｃ,,13,113,1500043,,,,,,,2024-11-07,1,,,,,シャナリ,0
335,2011001165705,新規,0,2024-11-07,2024-11-07,ｌｕｃｉｆｅｒ　ｒｅｓｅａｒｃｈ株式会社,,株式会社,東京都,渋谷区,大山町３４番２３号,,13,113,1510065,,,,,,,2024-11-07,1,,,,,ルシファーリサーチ,0
336,2011001165762,新規,0,2024-11-07,2024-11-07,株式会社グランデカーサービス,,株式会社,東京都,目黒区,中目黒１丁目１番３４号,,13,110,1530061,,,,,,,2024-11-07,1,,,,,グランデカーサービス,0
338,2011003020313,新規,0,2024-11-07,2024-11-07,合同会社エクシアイノベーション,,合同会社,東京都,渋谷区,道玄坂１丁目１０番８号渋谷道玄坂東急ビル２Ｆ－Ｃ,,13,113,1500043,,,,,,,2024-11-07,1,,,,,エクシアイノベーション,0
339,2011101109512,新規,0,2024-11-07,2024-11-07,Ｖｉｄａ　Ａｐｐｓ株式会社,,株式会社,東京都,新宿区,西新宿３丁目３番１３号西新宿水間ビル２Ｆ,,13,104,1600023,,,,,,,2024-11-07,1,,,,,ヴィダアップス,0
340,2011103015147,新規,0,2024-11-07,2024-11-07,合同会社ＮＳＩＰ２０２４,,合同会社,東京都,新宿区,西新宿８丁目５番１号,,13,104,1600023,,,,,,,2024-11-07,1,,,,,エヌシップニーゼロニーヨン,0
342,2011105011219,新規,0,2024-11-07,2024-11-07,一般社団法人ＡＥＳ　Ｊａｐａｎ　Ｃｏｎｓｏｒｔｉｕｍ,,その他の設立登記法人,東京都,新宿区,西新宿７丁目２番４号新宿喜楓ビル３階,,13,104,1600023,,,,,,,2024-11-07,1,,,,,エーイーエスジャパンコンソーシアム,0
343,2011201025907,新規,0,2024-11-07,2024-11-07,祖宏株式会社,,株式会社,東京都,中野区,上高田３丁目５－４,,13,114,1640002,,,,,,,2024-11-07,1,,,,,ソコウ,0
348,2011501031340,新規,0,2024-11-07,2024-11-07,株式会社ＧｅｕｍＣｒｅｗ’ｚ,,株式会社,東京都,荒川区,町屋５丁目３－１８,,13,118,1160001,,,,,,,2024-11-07,1,,,,,ゲウムクルーズ,0
350,2011603004517,新規,0,2024-11-07,2024-11-07,合同会社ＲＳ,,合同会社,東京都,練馬区,南田中３丁目１５－７,,13,120,1770035,,,,,,,2024-11-07,1,,,,,アールエス,0
352,2011801045098,新規,0,2024-11-07,2024-11-07,株式会社ＫＯＢＡＫＥＮ,,株式会社,東京都,足立区,保木間４丁目４番６－８０４号,,13,121,1210064,,,,,,,2024-11-07,1,,,,,コバケン,0
354,2011803006528,新規,0,2024-11-07,2024-11-07,合同会社ＣＴ　ＧＲＯＵＰ,,合同会社,東京都,足立区,綾瀬１丁目２７番１８号クレスト綾瀬１０７,,13,121,1200005,,,,,,,2024-11-07,1,,,,,シーティーグループ,0
359,2013301053341,新規,0,2024-11-07,2024-11-07,株式会社ネクストワン,,株式会社,東京都,豊島区,南大塚２丁目３２－１０－６０２号,,13,116,1700005,,,,,,,2024-11-07,1,,,,,ネクストワン,0
364,2020001159906,新規,0,2024-11-07,2024-11-07,株式会社ニブイチ,,株式会社,神奈川県,横浜市南区,若宮町４丁目５１番,,14,105,2320057,,,,,,,2024-11-07,1,,,,,ニブイチ,0
365,2020001159922,新規,0,2024-11-07,2024-11-07,ＲＡＤＨＡ　ＫＲＩＳＨＮＡ株式会社,,株式会社,神奈川県,横浜市南区,大岡１丁目１２番地８号奈良橋荘２０３号室,,14,105,2320061,,,,,,,2024-11-07,1,,,,,ラーダクリシュナ,0
366,2020001159930,新規,0,2024-11-07,2024-11-07,興辰株式会社,,株式会社,神奈川県,横浜市中区,弥生町４丁目３９番地１ライオンズマンション横浜大通り公園第弐－７０１,,14,104,2310058,,,,,,,2024-11-07,1,,,,,オキタツ,0
367,2020001159955,新規,0,2024-11-07,2024-11-07,Ａｐｐ　Ｔｒｕｓｔ株式会社,,株式会社,神奈川県,横浜市青葉区,青葉台１丁目５－４青葉台サンクスビル３Ｆ,,14,117,2270062,,,,,,,2024-11-07,1,,,,,アップトラスト,0
368,2020003027193,新規,0,2024-11-07,2024-11-07,合同会社ＨＥＹ,,合同会社,神奈川県,川崎市高津区,下作延２丁目３７番４０－２０２号,,14,134,2130033,,,,,,,2024-11-07,1,,,,,ヘイ,0
369,2020003027202,新規,0,2024-11-07,2024-11-07,合同会社三野,,合同会社,神奈川県,川崎市中原区,小杉御殿町１丁目９３６番地,,14,133,2110068,,,,,,,2024-11-07,1,,,,,ミツノ,0
377,2021003015188,新規,0,2024-11-07,2024-11-07,ＦＭＫコンサルティング合同会社,,合同会社,神奈川県,厚木市,旭町２丁目１３番８号,,14,212,2430014,,,,,,,2024-11-07,1,,,,,エフエムケイコンサルティング,0
385,2030001163337,新規,0,2024-11-07,2024-11-07,株式会社山崎工業,00136919,株式会社,埼玉県,富士見市,大字下南畑３８０６番地１１,,11,235,3540004,,,,,,,2024-11-07,1,,,,,ヤマザキコウギョウ,0
391,2040001136011,新規,0,2024-11-07,2024-11-07,株式会社シンシア・エナジー,,株式会社,千葉県,我孫子市,根戸３４９番地の１６,,12,222,2701168,,,,,,,2024-11-07,1,,,,,シンシアエナジー,0
392,2040001136028,新規,0,2024-11-07,2024-11-07,株式会社テラジマ,,株式会社,千葉県,松戸市,常盤平３丁目９番地の３,,12,207,2702261,,,,,,,2024-11-07,1,,,,,テラジマ,0
393,2040001136044,新規,0,2024-11-07,2024-11-07,株式会社啓翔電設,,株式会社,千葉県,我孫子市,高野山３５４番地の５,,12,222,2701145,,,,,,,2024-11-07,1,,,,,ケイショウデンセツ,0
394,2040001136077,新規,0,2024-11-07,2024-11-07,ＳＢ　Ｉｎｔｅｒｎａｔｉｏｎａｌ株式会社,,株式会社,千葉県,我孫子市,天王台６丁目２０番１４号（２０１号）,,12,222,2701143,,,,,,,2024-11-07,1,,,,,エスビーインターナショナル,0
396,2050001055656,新規,0,2024-11-07,2024-11-07,株式会社デライト,,株式会社,茨城県,水戸市,鯉淵町５５１１番地の８,,08,201,3190323,,,,,,,2024-11-07,1,,,,,デライト,0
400,2060001037629,新規,0,2024-11-07,2024-11-07,株式会社ＴＫＨＲＫ,,株式会社,栃木県,足利市,西砂原後町１１８０番地３,,09,202,3260065,,,,,,,2024-11-07,1,,,,,ティーケーエイチアールケー,0
405,2080001026571,新規,0,2024-11-07,2024-11-07,株式会社大翔,,株式会社,静岡県,牧之原市,道場１８番地１ソシアＡ２０１,,22,226,4210415,,,,,,,2024-11-07,1,,,,,ダイショウ,0
410,2100001037995,新規,0,2024-11-07,2024-11-07,株式会社味菜,,株式会社,長野県,上水内郡小川村,大字高府１５０２番地２,,20,588,3813302,,,,,,,2024-11-07,1,,,,,アジサイ,0
411,2100001038003,新規,0,2024-11-07,2024-11-07,株式会社伊藤工務店,,株式会社,長野県,諏訪郡富士見町,境８６０３番地,,20,362,3990101,,,,,,,2024-11-07,1,,,,,イトウコウムテン,0
414,2110001038811,新規,0,2024-11-07,2024-11-07,株式会社オブザーブ,,株式会社,新潟県,新潟市中央区,南笹口１丁目１―３８コープオリンピア８０８,,15,103,9500912,,,,,,,2024-11-07,1,,,,,オブザーブ,0
415,2110001038828,新規,0,2024-11-07,2024-11-07,株式会社津南スズキ,,株式会社,新潟県,中魚沼郡津南町,大字下船渡戊６６６番地,,15,482,9498201,,,,,,,2024-11-07,1,,,,,ツナンスズキ,0
418,2120001087394,新規,0,2024-11-07,2024-11-07,浜本化学工業株式会社,,株式会社,大阪府,大阪市中央区,久太郎町１丁目６番１３号,,27,128,5410056,,,,,,,2024-11-07,1,,,,,ハマモトカガクコウギョウ,0
426,2120001269793,新規,0,2024-11-07,2024-11-07,株式会社ＣＩ,,株式会社,大阪府,大阪市中央区,南船場３丁目１２－２５ＺＡＩ心斎橋ビル５０１号室,,27,128,5420081,,,,,,,2024-11-07,1,,,,,シーアイ,0
427,2120001269926,新規,0,2024-11-07,2024-11-07,ＹＱトレーディング株式会社,,株式会社,大阪府,大阪市中央区,博労町１丁目６－１３－３０４,,27,128,5410059,,,,,,,2024-11-07,1,,,,,ワイキュートレーディング,0
428,2120001269983,新規,0,2024-11-07,2024-11-07,株式会社ＶｏｉｌａＴｅｃｈ,,株式会社,大阪府,大阪市住之江区,粉浜西３丁目７番１８号,,27,125,5590007,,,,,,,2024-11-07,1,,,,,ヴォイラテック,0
429,2120001270009,新規,0,2024-11-07,2024-11-07,株式会社Ｉｎｎ　Ｃｏｎｎｅｃｔ　Ｈｏｔｅｌ　Ｍａｎａｇｅｍｅｎｔ,,株式会社,大阪府,大阪市港区,築港１丁目６番５号,,27,107,5520021,,,,,,,2024-11-07,1,,,,,インコネクトホテルマネジメント,0
430,2120001270066,新規,0,2024-11-07,2024-11-07,株式会社逸騰,,株式会社,大阪府,大阪市生野区,田島４丁目５番３１号,,27,116,5440011,,,,,,,2024-11-07,1,,,,,イツトウ,0
431,2120001270090,新規,0,2024-11-07,2024-11-07,大昇龍株式会社,,株式会社,大阪府,大阪市阿倍野区,阿倍野筋２丁目２番８－９０３号,,27,119,5450052,,,,,,,2024-11-07,1,,,,,ダイショウリュウ,0
438,2120003027902,新規,0,2024-11-07,2024-11-07,ラボア・ビズサポート合同会社,,合同会社,大阪府,門真市,三ツ島６丁目９番１３号,,27,223,5710015,,,,,,,2024-11-07,1,,,,,ラボアビズサポート,0
439,2120003027910,新規,0,2024-11-07,2024-11-07,ＫＡＮ合同会社,,合同会社,大阪府,大阪市北区,神山町１０－９－３Ｆ,,27,127,5300026,,,,,,,2024-11-07,1,,,,,カン,0
440,2120101001940,新規,0,2024-11-07,2024-11-07,九州建設株式会社,,株式会社,大阪府,堺市東区,白鷺町１丁９番１５号,,27,143,5998107,,,,,,,2024-11-07,1,,,,,キュウシュウケンセツ,0
442,2120101070531,新規,0,2024-11-07,2024-11-07,Ｒｅｌｅｋｓ株式会社,,株式会社,大阪府,羽曳野市,西浦５丁目１５９番地の１２３,,27,222,5830861,,,,,,,2024-11-07,1,,,,,リレクス,0
445,2120901049997,新規,0,2024-11-07,2024-11-07,スリーワンジャパン株式会社,,株式会社,大阪府,摂津市,別府１丁目１５番６０号ハピネスコートＩＩＩ２０２号室,00136907,27,224,5660046,,,,,,,2024-11-07,1,,,,,スリーワンジャパン,0
447,2120903005404,新規,0,2024-11-07,2024-11-07,合同会社エスアンドエヌ,,合同会社,大阪府,吹田市,広芝町１０番８号江坂董友ビル,,27,205,5640052,,,,,,,2024-11-07,1,,,,,エスアンドエヌ,0
457,2140001136315,新規,0,2024-11-07,2024-11-07,株式会社ＰＯＴＥ,,株式会社,兵庫県,西宮市,屋敷町２２番２４号,,28,204,6620963,,,,,,,2024-11-07,1,,,,,ポテ,0
458,2140001136331,新規,0,2024-11-07,2024-11-07,株式会社トータルサービス,,株式会社,兵庫県,川西市,笹部１丁目１０番４号３１３,,28,217,6660104,,,,,,,2024-11-07,1,,,,,トータルサービス,0
460,2140003021291,新規,0,2024-11-07,2024-11-07,キヨリサイクル合同会社,,合同会社,兵庫県,神戸市長田区,三番町３丁目１４番地市住２８－５１０号,,28,106,6530011,,,,,,,2024-11-07,1,,,,,キヨリサイクル,0
462,2140005027254,新規,0,2024-11-07,2024-11-07,一般社団法人廃石膏イノベーション協会,,その他の設立登記法人,兵庫県,川西市,山下町２０番地の２０－１０１号,,28,217,6660106,,,,,,,2024-11-07,1,,,,,ハイセッコウイノベーションキョウカイ,0
463,2150003003405,新規,0,2024-11-07,2024-11-07,七五三合同会社,,合同会社,奈良県,橿原市,土橋町５１５番地,,29,205,6340844,,,,,,,2024-11-07,1,,,,,ナゴミ,0
467,2160001026340,新規,0,2024-11-07,2024-11-07,株式会社吉田産業,,株式会社,滋賀県,湖南市,若竹町５番地２７,,25,211,5203216,,,,,,,2024-11-07,1,,,,,ヨシダサンギョウ,0
477,2180001163958,新規,0,2024-11-07,2024-11-07,株式会社ゼロワン,,株式会社,愛知県,名古屋市中区,栄４丁目２１番２３号ライオン進光ビル２Ｆ,,23,106,4600008,,,,,,,2024-11-07,1,,,,,ゼロワン,0
478,2180001163990,新規,0,2024-11-07,2024-11-07,創進電設株式会社,,株式会社,愛知県,名古屋市北区,西味鋺１丁目６１５番地の１,,23,103,4620016,,,,,,,2024-11-07,1,,,,,ソウシンデンセツ,0
479,2180001163999,新規,0,2024-11-07,2024-11-07,株式会社エスモデレ,,株式会社,愛知県,名古屋市中村区,大秋町３丁目４０番地（新栄マンション１０２号室）,,23,105,4530042,,,,,,,2024-11-07,1,,,,,エスモデレ,0
480,2180001164015,新規,0,2024-11-07,2024-11-07,株式会社ユーアイクリーン,,株式会社,愛知県,名古屋市千種区,千種１丁目１３番３号,,23,101,4640858,,,,,,,2024-11-07,1,,,,,ユーアイクリーン,0
486,2180003027574,新規,0,2024-11-07,2024-11-07,ＧＦＣ合同会社,,合同会社,愛知県,名古屋市守山区,桔梗平３丁目２４０３番地の５,,23,113,4630814,,,,,,,2024-11-07,1,,,,,ジーエフシー,0
487,2180005020825,新規,0,2024-11-07,2024-11-07,一般社団法人つながりの樹,,その他の設立登記法人,愛知県,名古屋市守山区,城南町２番３２号,,23,113,4630014,,,,,,,2024-11-07,1,,,,,ツナガリノキ,0
492,2180301039197,新規,0,2024-11-07,2024-11-07,ホームデザリ株式会社,,株式会社,愛知県,豊橋市,南大清水町字元町１８３番地１,,23,201,4418132,,,,,,,2024-11-07,1,,,,,ホームデザリ,0
495,2190001031783,新規,0,2024-11-07,2024-11-07,株式会社明伸マルイ,,株式会社,三重県,四日市市,小林町３０２６番地の１０,,24,202,5100946,,,,,,,2024-11-07,1,,,,,メイシンマルイ,0
502,2200001043091,新規,0,2024-11-07,2024-11-07,株式会社ＭＡＳＵＭＩコーポレーション,,株式会社,岐阜県,瑞浪市,益見町２丁目６３番地,,21,208,5096108,,,,,,,2024-11-07,1,,,,,マスミコーポレーション,0
510,2230001020600,新規,0,2024-11-07,2024-11-07,株式会社ラクヨ物流,,株式会社,富山県,滑川市,上小泉２１８３番地,,16,206,9360053,,,,,,,2024-11-07,1,,,,,ラクヨブツリュウ,0
511,2240001064035,新規,0,2024-11-07,2024-11-07,株式会社クローバーアーク,,株式会社,広島県,福山市,神辺町字道上４９０番地４,,34,207,7202104,,,,,,,2024-11-07,1,,,,,クローバーアーク,0
512,2240001064043,新規,0,2024-11-07,2024-11-07,株式会社Ｎコーポレーション,,株式会社,広島県,東広島市,高屋町造賀４４７３番地２,,34,212,7392101,,,,,,,2024-11-07,1,,,,,エヌコーポレーション,0
513,2240001064076,新規,0,2024-11-07,2024-11-07,株式会社ゆく年・くる年,,株式会社,広島県,広島市中区,幟町１０番１８号幟町Ｓビル３Ｆ,,34,101,7300016,,,,,,,2024-11-07,1,,,,,ユクトシクルトシ,0
517,2240003006927,新規,0,2024-11-07,2024-11-07,合同会社Ｃｈｉｃ,,合同会社,広島県,広島市南区,猿猴橋町４番１５－１－６０２号,,34,103,7320823,,,,,,,2024-11-07,1,,,,,シック,0
519,2250003003584,新規,0,2024-11-07,2024-11-07,合同会社大田,,合同会社,山口県,美祢市,大嶺町東分来福台７丁目９番地４,,35,213,7592212,,,,,,,2024-11-07,1,,,,,オオタ,0
529,2290003016005,新規,0,2024-11-07,2024-11-07,合同会社ムーブメント,,合同会社,福岡県,福津市,東福間５丁目４番４号,,40,224,8113225,,,,,,,2024-11-07,1,,,,,ムーブメント,0
537,2310001019312,新規,0,2024-11-07,2024-11-07,ハルクエステート株式会社,,株式会社,長崎県,諫早市,栄田町２０番３３号,,42,204,8540081,,,,,,,2024-11-07,1,,,,,ハルクエステート,0
539,2330001032610,新規,0,2024-11-07,2024-11-07,永輝株式会社,,株式会社,熊本県,熊本市北区,弓削４丁目８番４７号コーポムサシ１Ｆ,,43,105,8618002,,,,,,,2024-11-07,1,,,,,エイキ,0
543,2350001019275,新規,0,2024-11-07,2024-11-07,サクラ興産株式会社,,株式会社,宮崎県,延岡市,柚の木田町１４０９番地,,45,203,8820026,,,,,,,2024-11-07,1,,,,,サクラコウサン,0
557,2400001016845,新規,0,2024-11-07,2024-11-07,株式会社ＨＥＣＴＩＣ,,株式会社,岩手県,盛岡市,前九年３丁目２６番１号,,03,201,0200127,,,,,,,2024-11-07,1,,,,,ヘクティック,0
558,2400003003346,新規,0,2024-11-07,2024-11-07,合同会社セレニティ・ショアーズ・エステート,,合同会社,岩手県,八幡平市,安比高原１１７番地１７,,03,214,0287306,,,,,,,2024-11-07,1,,,,,セレニティショアーズエステート,0
560,2410003004005,新規,0,2024-11-07,2024-11-07,合同会社東風,,合同会社,秋田県,湯沢市,小野字大沢田２００番２１‐１Ｆ,,05,207,0190205,,,,,,,2024-11-07,1,,,,,,0
561,2420001018914,新規,0,2024-11-07,2024-11-07,ＢＵＩＬＤ　ＲＩＳＥ株式会社,,株式会社,青森県,八戸市,大字鮫町字高森３０番地１０,,02,203,0310841,,,,,,,2024-11-07,1,,,,,ビルドライズ,0
568,2430003016980,新規,0,2024-11-07,2024-11-07,ナチュラルワイン合同会社,,合同会社,北海道,札幌市中央区,北七条西１２丁目１３番地２クリーンリバーフィネス桑園北７条２０６号,,01,101,0600007,,,,,,,2024-11-07,1,,,,,ナチュラルワイン,0
569,2430005015106,新規,0,2024-11-07,2024-11-07,一般社団法人ボーダレスアートサポート北海道,,その他の設立登記法人,北海道,夕張市,平和１番地４４,,01,209,0680423,,,,,,,2024-11-07,1,,,,,ボーダレスアートサポートホッカイドウ,0
572,2490003001952,新規,0,2024-11-07,2024-11-07,合同会社Ｏｆｆｉｃｅ・Ｈａｒｎａ,,合同会社,高知県,高知市,本町５丁目６番４８号,,39,201,7800870,,,,,,,2024-11-07,1,,,,,オフィスハーナ,0
581,3010001249450,新規,0,2024-11-07,2024-11-07,株式会社Ｓ　ａｎｄ　ｍｏｒｅ,,株式会社,東京都,中央区,月島１丁目１８番１－５０４号,,13,102,1040052,,,,,,,2024-11-07,1,,,,,エスアンドモア,0
615,3010401186161,新規,0,2024-11-07,2024-11-07,株式会社ハニトラ,,株式会社,東京都,港区,南青山３丁目１番３６号青山丸竹ビル６Ｆ,,13,103,1070062,,,,,,,2024-11-07,1,,,,,ハニトラ,0
616,3010401186269,新規,0,2024-11-07,2024-11-07,先進テクノロジー株式会社,,株式会社,東京都,港区,元麻布３丁目１番６号,,13,103,1060046,,,,,,,2024-11-07,1,,,,,センシンテクノロジー,0
617,3010401186277,新規,0,2024-11-07,2024-11-07,株式会社ＢＥＥ　ＲａｉＺ,,株式会社,東京都,港区,赤坂２丁目１７番６３号,,13,103,1070052,,,,,,,2024-11-07,1,,,,,ビーライズ,0
618,3010403033741,新規,0,2024-11-07,2024-11-07,合同会社ＳＹＭ,,合同会社,東京都,港区,新橋２丁目２－２パルプンテ内,,13,103,1050004,,,,,,,2024-11-07,1,,,,,エスワイエム,0
620,3010501053146,新規,0,2024-11-07,2024-11-07,株式会社ベターコール,,株式会社,東京都,台東区,浅草５丁目４４番５号Ａ－５－１,,13,106,1110032,,,,,,,2024-11-07,1,,,,,ベターコール,0
621,3010501053154,新規,0,2024-11-07,2024-11-07,株式会社テクルーズ,,株式会社,東京都,台東区,浅草１丁目１３番５号井門浅草すしや通りビルＣ７４,,13,106,1110032,,,,,,,2024-11-07,1,,,,,テクルーズ,0
622,3010503007629,新規,0,2024-11-07,2024-11-07,合同会社シバサキ,,合同会社,東京都,台東区,蔵前４丁目１７番７－８０２号ＥＴＥＲＮＡ,,13,106,1110051,,,,,,,2024-11-07,1,,,,,シバサキ,0
623,3010601066238,新規,0,2024-11-07,2024-11-07,株式会社ストーンエッジ,,株式会社,東京都,墨田区,緑４丁目２１番１０号３０６,,13,107,1300021,,,,,,,2024-11-07,1,,,,,ストーンエッジ,0
631,3010803005159,新規,0,2024-11-07,2024-11-07,合同会社東円商事,,合同会社,東京都,大田区,中央３丁目１２－７,,13,111,1430024,,,,,,,2024-11-07,1,,,,,トウエンショウジ,0
637,3010901056269,新規,0,2024-11-07,2024-11-07,株式会社ＣＡＢＥＲ,,株式会社,東京都,世田谷区,梅丘３丁目１８番２号,,13,112,1540022,,,,,,,2024-11-07,1,,,,,カバー,0
638,3010903009472,新規,0,2024-11-07,2024-11-07,合同会社大澄,,合同会社,東京都,世田谷区,用賀１丁目１１番１９号,,13,112,1580097,,,,,,,2024-11-07,1,,,,,オオスミ,0
644,3011001165480,新規,0,2024-11-07,2024-11-07,株式会社バイオプラ,,株式会社,東京都,渋谷区,代々木２丁目２３番１号ニューステイトメナー１２０３号,,13,113,1510053,,,,,,,2024-11-07,1,,,,,バイオプラ,0
645,3011001165621,新規,0,2024-11-07,2024-11-07,株式会社リノー,,株式会社,東京都,渋谷区,円山町５番５号Ｎａｖｉ渋谷Ｖ３階,,13,113,1500044,,,,,,,2024-11-07,1,,,,,,0
646,3011001165638,新規,0,2024-11-07,2024-11-07,株式会社ＨＡＭ,,株式会社,東京都,渋谷区,神南１丁目５番１４－２２０１号,,13,113,1500041,,,,,,,2024-11-07,1,,,,,エイチエーエム,0
653,3011103015146,新規,0,2024-11-07,2024-11-07,ＰｌａｙＯｆｆｉｃｅ合同会社,,合同会社,東京都,新宿区,西新宿１丁目３番３号品川ステーションビル新宿４１０,,13,104,1600023,,,,,,,2024-11-07,1,,,,,プレイオフィス,0
654,3011301030137,新規,0,2024-11-07,2024-11-07,株式会社ホームライフケア,,株式会社,東京都,杉並区,善福寺３丁目１０番２号,,13,115,1670041,,,,,,,2024-11-07,1,,,,,,0
659,3011701027781,新規,0,2024-11-07,2024-11-07,壹次心株式会社,,株式会社,東京都,江戸川区,江戸川６丁目４０番１４－２１３号,,13,123,1340013,,,,,,,2024-11-07,1,,,,,イチゴ,0
660,3011801045080,新規,0,2024-11-07,2024-11-07,株式会社クラルス,,株式会社,東京都,葛飾区,東金町１丁目４２番５号豊勢金町ビル４Ｆ,,13,122,1250041,,,,,,,2024-11-07,1,,,,,クラルス,0
663,3012401012306,新規,0,2024-11-07,2024-11-07,岡田建設株式会社,,株式会社,東京都,三鷹市,井の頭２丁目５番２１号,,13,204,1810001,,,,,,,2024-11-07,1,,,,,オカダケンセツ,0
664,3012403006834,新規,0,2024-11-07,2024-11-07,ＥＮＧ合同会社,,合同会社,東京都,狛江市,和泉本町１丁目１０－１クィーポ狛江４０６号,,13,219,2010003,,,,,,,2024-11-07,1,,,,,イーエヌジー,0
668,3020001159921,新規,0,2024-11-07,2024-11-07,株式会社ゲームラボ,,株式会社,神奈川県,横浜市西区,北幸２丁目１０－４８むつみビル３階,,14,103,2200004,,,,,,,2024-11-07,1,,,,,ゲームラボ,0
669,3020001159938,新規,0,2024-11-07,2024-11-07,Ｂｒｉｇｈｔ　Ａｉｄ株式会社,,株式会社,神奈川県,横浜市神奈川区,金港町５－１４クアドリフォリオ８階,,14,102,2210056,,,,,,,2024-11-07,1,,,,,ブライトエイド,0
670,3020001159954,新規,0,2024-11-07,2024-11-07,大興株式会社,,株式会社,神奈川県,横浜市南区,唐沢５５番地３３,,14,105,2320034,,,,,,,2024-11-07,1,,,,,ダイコウ,0
673,3020003027184,新規,0,2024-11-07,2024-11-07,合同会社Ｈ＆Ａ,,合同会社,神奈川県,川崎市川崎区,貝塚１丁目１５番８号,,14,131,2100014,,,,,,,2024-11-07,1,,,,,エイチアンドエー,0
676,3021001083681,新規,0,2024-11-07,2024-11-07,株式会社ビークラブ,,株式会社,神奈川県,茅ヶ崎市,新栄町１３－４５鴨志田ビルＢ１Ｆ,,14,207,2530044,,,,,,,2024-11-07,1,,,,,ビークラブ,0
694,3040001136027,新規,0,2024-11-07,2024-11-07,株式会社ＲＣＺ日本橋,,株式会社,千葉県,千葉市花見川区,花園町１５６６番地１１,,12,102,2620021,,,,,,,2024-11-07,1,,,,,アールシーゼットニホンバシ,0
699,3040003026110,新規,0,2024-11-07,2024-11-07,ＭＴ＆ＭＨ合同会社,,合同会社,千葉県,船橋市,二宮２丁目１７番２０号,,12,204,2740823,,,,,,,2024-11-07,1,,,,,エムティアンドエムエイチ,0
700,3040003026119,新規,0,2024-11-07,2024-11-07,ＴＨＡＭＢＡＰＡＮＮＩ　ＦＯＲＥＩＧＮ　ＥＭＰＬＯＹＭＥＮＴ　ＡＧＥＮＣＹ合同会社,,合同会社,千葉県,大網白里市,金谷郷２８３番地１２,,12,239,2993242,,,,,,,2024-11-07,1,,,,,タンバパンニフォーリンエンプロイメントエージェンシー,0
701,3040005022561,新規,0,2024-11-07,2024-11-07,一般社団法人Ｗａｇｏｔａｎ,,その他の設立登記法人,千葉県,習志野市,津田沼１丁目１３番２４号１０４号,,12,216,2750016,,,,,,,2024-11-07,1,,,,,ワゴタン,0
706,3050003008751,新規,0,2024-11-07,2024-11-07,合同会社慧実,,合同会社,茨城県,笠間市,長兎路１１５５番地１２８,,08,216,3091712,,,,,,,2024-11-07,1,,,,,エミ,0
718,3080401027540,新規,0,2024-11-07,2024-11-07,株式会社花嶋空調設備,,株式会社,静岡県,浜松市中央区,佐藤２丁目２０番２号,,22,138,4300807,,,,,,,2024-11-07,1,,,,,ハナジマクウチョウセツビ,0
721,3100001037994,新規,0,2024-11-07,2024-11-07,株式会社Ｌｉｎｏ,,株式会社,長野県,松本市,蟻ケ崎３丁目６番７号,,20,202,3900861,,,,,,,2024-11-07,1,,,,,リノ,0
722,3100001038010,新規,0,2024-11-07,2024-11-07,株式会社蓮見企画,,株式会社,長野県,上田市,中央１丁目８－２５レジデンス中央２０１,,20,203,3860012,,,,,,,2024-11-07,1,,,,,ハスミキカク,0
724,3110001038827,新規,0,2024-11-07,2024-11-07,株式会社ＦＬＡＮ,,株式会社,新潟県,長岡市,宮原３丁目１２番４号,,15,202,9400083,,,,,,,2024-11-07,1,,,,,フラン,0
726,3110003005569,新規,0,2024-11-07,2024-11-07,合同会社アプレズ,,合同会社,新潟県,十日町市,本町６の２丁目７０番地５１,,15,210,9480003,,,,,,,2024-11-07,1,,,,,アプレズ,0
731,3120001270008,新規,0,2024-11-07,2024-11-07,株式会社ぴあらぶ,,株式会社,大阪府,大阪市北区,西天満４丁目５番５号,,27,127,5300047,,,,,,,2024-11-07,1,,,,,ピアラブ,0
732,3120001270016,新規,0,2024-11-07,2024-11-07,株式会社マネジメントパートナーズ,,株式会社,大阪府,大阪市中央区,上本町西１丁目３番２号８０２,,27,128,5420062,,,,,,,2024-11-07,1,,,,,マネジメントパートナーズ,0
733,3120001270024,新規,0,2024-11-07,2024-11-07,株式会社Ｓｏｍｅｔｈｉｎｇ　Ｎｅｗ,,株式会社,大阪府,枚方市,大峰元町１丁目１２番２５－２０２号,,27,210,5730146,,,,,,,2024-11-07,1,,,,,サムシングニュー,0
734,3120001270057,新規,0,2024-11-07,2024-11-07,株式会社ビー・クリエイト,,株式会社,大阪府,大阪市西区,立売堀２丁目５番４１号合田ビル７０７,,27,106,5500012,,,,,,,2024-11-07,1,,,,,ビークリエイト,0
735,3120001270065,新規,0,2024-11-07,2024-11-07,株式会社ＳＯＲＡ,,株式会社,大阪府,大阪市西成区,萩之茶屋１丁目１４‐１３,,27,122,5570004,,,,,,,2024-11-07,1,,,,,ソラ,0
739,3120101070530,新規,0,2024-11-07,2024-11-07,株式会社ＯＮＥ　ＳＰＥＣ,,株式会社,大阪府,松原市,岡７丁目２３８番地,,27,217,5800014,,,,,,,2024-11-07,1,,,,,ワンスペック,0
743,3120901049988,新規,0,2024-11-07,2024-11-07,株式会社堂山興産,,株式会社,大阪府,豊中市,蛍池北町一丁目１２番８号,,27,203,5600000,,,,,,,2024-11-07,1,,,,,ドウヤマコウサン,0
744,3120901049996,新規,0,2024-11-07,2024-11-07,株式会社Ｄ‐ＭＡＴＥ,,株式会社,大阪府,豊中市,新千里東町１丁目１番５号大阪モノレール千里中央ビル,,27,203,5600082,,,,,,,2024-11-07,1,,,,,ディーメイト,0
753,3130001078292,新規,0,2024-11-07,2024-11-07,株式会社ＰＯＭ,,株式会社,京都府,京都市下京区,大黒町２２７番地第２キョートビル４０２,,26,106,6008043,,,,,,,2024-11-07,1,,,,,ポム,0
759,3140001136306,新規,0,2024-11-07,2024-11-07,株式会社ＨＩＴ,,株式会社,兵庫県,神戸市垂水区,瑞ヶ丘９番９号,,28,108,6550025,,,,,,,2024-11-07,1,,,,,ヒット,0
760,3140001136322,新規,0,2024-11-07,2024-11-07,株式会社Ｔｈｅ　Ｚｏｄｉａｃ　Ｓｉｇｎ,,株式会社,兵庫県,神戸市長田区,御屋敷通４丁目１－１７－２Ｆ,,28,106,6530843,,,,,,,2024-11-07,1,,,,,ザゾディアックサイン,0
761,3140001136330,新規,0,2024-11-07,2024-11-07,ジャパンモビリティソリューションズ株式会社,,株式会社,兵庫県,三田市,三輪１丁目８番１５号,,28,219,6691513,,,,,,,2024-11-07,1,,,,,ジャパンモビリティソリューションズ,0
762,3140001136339,新規,0,2024-11-07,2024-11-07,株式会社ＢＣＴ,,株式会社,兵庫県,神戸市中央区,元町通６丁目３番２６号エルパラッツォ元町通六丁目,,28,110,6500022,,,,,,,2024-11-07,1,,,,,ビーシーティー,0
763,3140001136347,新規,0,2024-11-07,2024-11-07,ＡＭＰＥＲ株式会社,,株式会社,兵庫県,芦屋市,大桝町５番１２号３,,28,206,6590066,,,,,,,2024-11-07,1,,,,,アンパー,0
764,3140001136355,新規,0,2024-11-07,2024-11-07,ＳＡＮＷＡ　ＨＯＲＩＺＯＮ　ＣＯＮＳＵＬＴＩＮＧ株式会社,,株式会社,兵庫県,明石市,朝霧山手町７番２１号,,28,203,6730853,,,,,,,2024-11-07,1,,,,,サンワホリズンコンサルティング,0
765,3140001136363,新規,0,2024-11-07,2024-11-07,カイラス株式会社,,株式会社,兵庫県,神戸市垂水区,西舞子９丁目２１番３７号,,28,108,6550048,,,,,,,2024-11-07,1,,,,,カイラス,0
770,3140003021274,新規,0,2024-11-07,2024-11-07,合同会社ｂｅｌｉｅｆ,,合同会社,兵庫県,加古川市,平岡町山之上６６１－１,,28,210,6750112,,,,,,,2024-11-07,1,,,,,ビリーフ,0
771,3140003021290,新規,0,2024-11-07,2024-11-07,アステラス合同会社,,合同会社,兵庫県,神戸市長田区,三番町３丁目１４番地市住２８－４０９号,,28,106,6530011,,,,,,,2024-11-07,1,,,,,アステラス,0
774,3150003003404,新規,0,2024-11-07,2024-11-07,合同会社マツシタコウジ,,合同会社,奈良県,宇陀市,榛原天満台西２丁目３番の１３,,29,212,6330206,,,,,,,2024-11-07,1,,,,,マツシタコウジ,0
777,3160003003329,新規,0,2024-11-07,2024-11-07,合同会社福福亭,,合同会社,滋賀県,近江八幡市,鷹飼町北２丁目４番地４,,25,204,5230896,,,,,,,2024-11-07,1,,,,,プクプクテイ,0
788,3180001164022,新規,0,2024-11-07,2024-11-07,株式会社山口商会,,株式会社,愛知県,名古屋市天白区,島田が丘８０６番地ラ・メゾン島田２Ｂ号,,23,116,4680029,,,,,,,2024-11-07,1,,,,,ヤマグチショウカイ,0
789,3180001164030,新規,0,2024-11-07,2024-11-07,株式会社ネクストエデュケーション,,株式会社,愛知県,名古屋市中区,錦１丁目１８－１１ＣＫ２１広小路伏見ビル２階,,23,106,4600003,,,,,,,2024-11-07,1,,,,,ネクストエデュケーション,0
790,3180001164039,新規,0,2024-11-07,2024-11-07,株式会社Ｄｕ　ｍｏｎｄｅ,,株式会社,愛知県,一宮市,小信中島字西山２番地,,23,203,4940007,,,,,,,2024-11-07,1,,,,,ダモンデ,0
791,3180001164047,新規,0,2024-11-07,2024-11-07,株式会社ジャパンネットワークテクノロジーズ,,株式会社,愛知県,名古屋市中区,錦１丁目４番１６号,,23,106,4600003,,,,,,,2024-11-07,1,,,,,ジャパンネットワークテクノロジーズ,0
792,3180001164055,新規,0,2024-11-07,2024-11-07,株式会社ＲＯＳＥ　ＦＡＣＴＯＲＹ,,株式会社,愛知県,一宮市,柚木颪字池ノ内３０－１,,23,203,4910011,,,,,,,2024-11-07,1,,,,,ローズファクトリー,0
796,3180003027598,新規,0,2024-11-07,2024-11-07,合同会社ワールドワイド,,合同会社,愛知県,一宮市,公園通６丁目１３番地１,,23,203,4910842,,,,,,,2024-11-07,1,,,,,ワールドワイド,0
797,3180301039196,新規,0,2024-11-07,2024-11-07,株式会社北川事務所,,株式会社,愛知県,豊橋市,弥生町字中原８７番地の１,,23,201,4418106,,,,,,,2024-11-07,1,,,,,キタガワジムショ,0
802,3190001031782,新規,0,2024-11-07,2024-11-07,株式会社ＮＵＬＬ‐ＷＫ,,株式会社,三重県,津市,一志町庄村４２４番地１,,24,201,5152501,,,,,,,2024-11-07,1,,,,,ナルウィーク,0
812,3240001064042,新規,0,2024-11-07,2024-11-07,ユウケンクリエイト株式会社,,株式会社,広島県,東広島市,西条町田口６１３番地９,,34,212,7390036,,,,,,,2024-11-07,1,,,,,ユウケンクリエイト,0
813,3240001064050,新規,0,2024-11-07,2024-11-07,株式会社フロー,,株式会社,広島県,福山市,南松永町１丁目８番２７号,,34,207,7290105,,,,,,,2024-11-07,1,,,,,フロー,0
814,3240001064067,新規,0,2024-11-07,2024-11-07,株式会社Ｖ‐Ｐｌｕｓ,,株式会社,広島県,福山市,青葉台４丁目１９－１７－１,,34,207,7210911,,,,,,,2024-11-07,1,,,,,ブイプラス,0
824,3260001039604,新規,0,2024-11-07,2024-11-07,仲和株式会社,,株式会社,岡山県,岡山市中区,中井３丁目２０番９号,,33,102,7038205,,,,,,,2024-11-07,1,,,,,チュウワ,0
825,3260001039612,新規,0,2024-11-07,2024-11-07,株式会社オプス,,株式会社,岡山県,岡山市北区,津高７０８番地１ＯｆｆｉｃｅＡＯＹＡＭＡ５Ｆ,,33,101,7011152,,,,,,,2024-11-07,1,,,,,オプス,0
835,3290003016004,新規,0,2024-11-07,2024-11-07,合同会社モルテ,,合同会社,福岡県,糟屋郡志免町,片峰１丁目４番５号,,40,343,8112245,,,,,,,2024-11-07,1,,,,,,0
838,3310001019311,新規,0,2024-11-07,2024-11-07,株式会社ＰＯＷＥＲＳ,,株式会社,長崎県,佐世保市,大宮町２５番２２号２０２,,42,202,8570841,,,,,,,2024-11-07,1,,,,,パワーズ,0
842,3320003004509,新規,0,2024-11-07,2024-11-07,合同会社ｋｌｅｕｒ,,合同会社,大分県,大分市,東大道１丁目８－１５カサベルデ駅南２Ｆ,,44,201,8700823,,,,,,,2024-11-07,1,,,,,クルール,0
843,3330001032618,新規,0,2024-11-07,2024-11-07,株式会社ＲｅＺｏｕ,,株式会社,熊本県,菊池郡大津町,大字岩坂５７８番地,,43,403,8691222,,,,,,,2024-11-07,1,,,,,リゾウ,0
846,3340001026916,新規,0,2024-11-07,2024-11-07,Ｋ＆Ｊコーポレーション株式会社,,株式会社,鹿児島県,鹿児島市,城山１丁目３１番４号,,46,201,8900013,,,,,,,2024-11-07,1,,,,,ケーアンドジェイコーポレーション,0
847,3350001019274,新規,0,2024-11-07,2024-11-07,ＪＳアドバンス株式会社,,株式会社,宮崎県,宮崎市,橘通東４丁目１番４号,,45,201,8800805,,,,,,,2024-11-07,1,,,,,ジェイエスアドバンス,0
860,3400001016844,新規,0,2024-11-07,2024-11-07,株式会社佐藤電気管理事務所,,株式会社,岩手県,盛岡市,北天昌寺町３番３号,,03,201,0200136,,,,,,,2024-11-07,1,,,,,サトウデンキカンリジムショ,0
863,3410003004004,新規,0,2024-11-07,2024-11-07,合同会社アセットマネジメント,,合同会社,秋田県,横手市,十文字町上鍋倉字掵大道西２９番地,,05,203,0190507,,,,,,,2024-11-07,1,,,,,アセットマネジメント,0
870,3430003016971,新規,0,2024-11-07,2024-11-07,合同会社そばに,,合同会社,北海道,小樽市,銭函１丁目３３番７号ライブヒルズ１０５号,,01,203,0470261,,,,,,,2024-11-07,1,,,,,ソバニ,0
876,3470001020451,新規,0,2024-11-07,2024-11-07,株式会社庭柘ＭＡＴＳＵＯＫＡ,,株式会社,香川県,高松市,国分寺町新居３４６番地８,,37,201,7690101,,,,,,,2024-11-07,1,,,,,テイシャマツオカ,0
881,3480001012638,新規,0,2024-11-07,2024-11-07,株式会社サンサン,,株式会社,徳島県,吉野川市,鴨島町西麻植字広畑７１番地,,36,205,7760020,,,,,,,2024-11-07,1,,,,,サンサン,0
891,4010001249581,新規,0,2024-11-07,2024-11-07,株式会社トーショー,,株式会社,東京都,文京区,湯島２丁目３２番１４号,,13,105,1130034,,,,,,,2024-11-07,1,,,,,トーショー,0
892,4010001249631,新規,0,2024-11-07,2024-11-07,旭化成ライフサイエンス株式会社,,株式会社,東京都,千代田区,有楽町１丁目１番２号,,13,101,1000006,,,,,,,2024-11-07,1,,,,,アサヒカセイライフサイエンス,0
893,4010001249680,新規,0,2024-11-07,2024-11-07,レイワエクセレンス株式会社,,株式会社,東京都,文京区,本駒込１丁目２５番２２号,,13,105,1130021,,,,,,,2024-11-07,1,,,,,レイワエクセレンス,0
913,4010103002442,新規,0,2024-11-07,2024-11-07,合同会社メディアリンク,,合同会社,東京都,八王子市,高尾町１７３３－７－３０２,,13,201,1930844,,,,,,,2024-11-07,1,,,,,メディアリンク,0
921,4010401186152,新規,0,2024-11-07,2024-11-07,ドクターズラウンジ株式会社,,株式会社,東京都,港区,赤坂３丁目１番１６号ＢＩビル６Ｆ,,13,103,1070052,,,,,,,2024-11-07,1,,,,,ドクターズラウンジ,0
922,4010401186193,新規,0,2024-11-07,2024-11-07,株式会社Ｍａｎｕｆａｃｔｚ,,株式会社,東京都,港区,虎ノ門４丁目１番２８号虎ノ門タワーズオフィス１９階,,13,103,1050001,,,,,,,2024-11-07,1,,,,,マニュファクツ,0
923,4010401186202,新規,0,2024-11-07,2024-11-07,エスネクスト株式会社,,株式会社,東京都,港区,三田１丁目３番４０号２０３号室,,13,103,1080073,,,,,,,2024-11-07,1,,,,,エスネクスト,0
924,4010401186235,新規,0,2024-11-07,2024-11-07,株式会社プラチナケア,,株式会社,東京都,港区,白金６丁目１４番３号,,13,103,1080072,,,,,,,2024-11-07,1,,,,,プラチナケア,0
925,4010403033732,新規,0,2024-11-07,2024-11-07,ステイシー新大阪合同会社,,合同会社,東京都,港区,新橋２丁目１２番１１号,,13,103,1050004,,,,,,,2024-11-07,1,,,,,ステイシーシンオオサカ,0
926,4010403033740,新規,0,2024-11-07,2024-11-07,合同会社ＧＯステージ,,合同会社,東京都,港区,赤坂９丁目１－７－７１１,,13,103,1070052,,,,,,,2024-11-07,1,,,,,ゴーステージ,0
927,4010403033749,新規,0,2024-11-07,2024-11-07,合同会社ＡＮＡＰファンダー,,合同会社,東京都,港区,新橋２丁目１６番１号ニュー新橋ビル９階－９０３,,13,103,1050004,,,,,,,2024-11-07,1,,,,,アナップ,0
928,4010501053120,新規,0,2024-11-07,2024-11-07,新東栄ホールディングス株式会社,,株式会社,東京都,台東区,北上野２丁目８番７号,,13,106,1100014,,,,,,,2024-11-07,1,,,,,シントウエイホールディングス,0
929,4010501053137,新規,0,2024-11-07,2024-11-07,ＺＥＮＲＯＵＴＥ　ＪＡＰＡＮ株式会社,,株式会社,東京都,台東区,浅草２丁目１９番３－１１０３号,,13,106,1110032,,,,,,,2024-11-07,1,,,,,ゼンルートジャパン,0
930,4010501053145,新規,0,2024-11-07,2024-11-07,株式会社萩田,,株式会社,東京都,台東区,台東４丁目３番１号,,13,106,1100016,,,,,,,2024-11-07,1,,,,,ハギタ,0
931,4010501053153,新規,0,2024-11-07,2024-11-07,株式会社ザ・グローバルサービス,,株式会社,東京都,台東区,台東２丁目５番１号,,13,106,1100016,,,,,,,2024-11-07,1,,,,,ザグローバルサービス,0
933,4010601066229,新規,0,2024-11-07,2024-11-07,君誠株式会社,,株式会社,東京都,江東区,豊洲６丁目２番３１－１９１７号,,13,108,1350061,,,,,,,2024-11-07,1,,,,,クンセイ,0
934,4010901056268,新規,0,2024-11-07,2024-11-07,株式会社ＦＯＲＷＡＲＤ,,株式会社,東京都,世田谷区,太子堂５丁目３１番１４号,,13,112,1540004,,,,,,,2024-11-07,1,,,,,フォワード,0
935,4010901056284,新規,0,2024-11-07,2024-11-07,株式会社ＳＴＡＴＥＳＭＡＮ,,株式会社,東京都,世田谷区,船橋１丁目５１番１号ワイズコート１０１,,13,112,1560055,,,,,,,2024-11-07,1,,,,,ステータスマン,0
948,4011001165620,新規,0,2024-11-07,2024-11-07,株式会社アスラック,,株式会社,東京都,渋谷区,神南１丁目１１番４号ＦＰＧリンクス神南５階,,13,113,1500041,,,,,,,2024-11-07,1,,,,,アスラック,0
949,4011001165629,新規,0,2024-11-07,2024-11-07,株式会社ＶＩＳＩＴＯＲＳ,,株式会社,東京都,目黒区,柿の木坂１丁目１７番１号永大マンション１Ａ,,13,110,1520022,,,,,,,2024-11-07,1,,,,,ヴィジターズ,0
950,4011001165785,新規,0,2024-11-07,2024-11-07,Ｅａｒｔｈｓｈｉｐ株式会社,,株式会社,東京都,渋谷区,道玄坂１丁目１０番８号渋谷道玄坂東急ビル２Ｆ－Ｃ,,13,113,1500043,,,,,,,2024-11-07,1,,,,,アースシップ,0
953,4011101109485,新規,0,2024-11-07,2024-11-07,株式会社ｓｏｗ　ａｎｄ　ｇｒｏｗ,,株式会社,東京都,新宿区,西新宿３丁目３番１３号,,13,104,1600023,,,,,,,2024-11-07,1,,,,,ソーアンドグロー,0
954,4011303005334,新規,0,2024-11-07,2024-11-07,合同会社ＬＯＬｅｒ,,合同会社,東京都,杉並区,高円寺南１丁目７番３－４０６号山手杉並ビル,,13,115,1660003,,,,,,,2024-11-07,1,,,,,ロウラー,0
956,4011501031339,新規,0,2024-11-07,2024-11-07,株式会社ヨギヤ,,株式会社,東京都,荒川区,東日暮里１丁目１７番１１号,,13,118,1160014,,,,,,,2024-11-07,1,,,,,ヨギヤ,0
960,4011601028177,新規,0,2024-11-07,2024-11-07,ｅｃｏＢｉｚ株式会社,,株式会社,東京都,練馬区,平和台３丁目１８番３１号ＶｉｎＶｅｌｌｅＨｅｉｗａｄａｉ３０３号,,13,120,1790083,,,,,,,2024-11-07,1,,,,,エコビズ,0
961,4011603004498,新規,0,2024-11-07,2024-11-07,ＳＭＩＬＥＹ合同会社,,合同会社,東京都,練馬区,南大泉５丁目３２－３メゾン南大泉Ａ－２階Ａ１２号室,,13,120,1780064,,,,,,,2024-11-07,1,,,,,スマイリー,0
963,4011801045096,新規,0,2024-11-07,2024-11-07,楽言商事株式会社,,株式会社,東京都,葛飾区,金町４丁目１１－１１－１Ｆ,,13,122,1250042,,,,,,,2024-11-07,1,,,,,ラクエンショウジ,0
967,4012403006833,新規,0,2024-11-07,2024-11-07,Ｍアカウンティング合同会社,,合同会社,東京都,武蔵野市,中町１丁目１２番１０－１８０１号,,13,203,1800006,,,,,,,2024-11-07,1,,,,,エムアカウンティング,0
977,4020001159937,新規,0,2024-11-07,2024-11-07,株式会社ＬＤ,,株式会社,神奈川県,横浜市中区,長者町２丁目５番地５長者町ビジネスマンション５０９号,,14,104,2310033,,,,,,,2024-11-07,1,,,,,,0
978,4020001160093,新規,0,2024-11-07,2024-11-07,株式会社ｍｉｒａＮＥＸ,,株式会社,神奈川県,横浜市西区,北幸１丁目１１番１号水信ビル７階,,14,103,2200004,,,,,,,2024-11-07,1,,,,,ミラネックス,0
983,4020003027191,新規,0,2024-11-07,2024-11-07,Ｌｉｂｏｐｃｉｏｎ合同会社,,合同会社,神奈川県,川崎市川崎区,駅前本町１８番地１メルスサイトー７０２,,14,131,2100007,,,,,,,2024-11-07,1,,,,,リブオプション,0
987,4021003015178,新規,0,2024-11-07,2024-11-07,合同会社湘南観光,,合同会社,神奈川県,藤沢市,南藤沢２０番１９号第三ハルミビル４階Ａ号室,,14,205,2510055,,,,,,,2024-11-07,1,,,,,ショウナンカンコウ,0
992,4030001163319,新規,0,2024-11-07,2024-11-07,株式会社Ｏ．Ｇ．,,株式会社,埼玉県,戸田市,大字新曽２１９６－１ミラージュガーデン７０６,,11,224,3350021,,,,,,,2024-11-07,1,,,,,オージー,0
993,4030001163335,新規,0,2024-11-07,2024-11-07,エピック株式会社,,株式会社,埼玉県,さいたま市見沼区,大字大谷８０４番地３０,,11,104,3370014,,,,,,,2024-11-07,1,,,,,エピック,0
999,4040003026134,新規,0,2024-11-07,2024-11-07,ＭＡＲＵＥＤＯ合同会社,,合同会社,千葉県,柏市,柏３丁目７番１１－５０５号,,12,217,2770005,,,,,,,2024-11-07,1,,,,,,0
1000,4040003026142,新規,0,2024-11-07,2024-11-07,合同会社ＭＦＣ　ｇｒｏｗｉｎｇ,,合同会社,千葉県,流山市,木１丁目７番地の１ＡＱＵＡＳＵＩＴＥ２２０,,12,220,2700162,,,,,,,2024-11-07,1,,,,,エムエフシーグローイング,0
1008,4080001026578,新規,0,2024-11-07,2024-11-07,株式会社Ｉ‐ｓｈｉｎ鋼電,,株式会社,静岡県,榛原郡吉田町,川尻１２３１番地,,22,424,4210302,,,,,,,2024-11-07,1,,,,,アイシンコウデン,0
1009,4080003003328,新規,0,2024-11-07,2024-11-07,やまみち合同会社,,合同会社,静岡県,静岡市清水区,楠新田４３７番地の１６,,22,103,4240882,,,,,,,2024-11-07,1,,,,,ヤマミチ,0
1010,4080401027556,新規,0,2024-11-07,2024-11-07,株式会社ヒトトイロ,,株式会社,静岡県,浜松市中央区,福塚町５４番地の２,,22,138,4300843,,,,,,,2024-11-07,1,,,,,ヒトトイロ,0
1011,4080403005139,新規,0,2024-11-07,2024-11-07,合同会社えれきまる,,合同会社,静岡県,浜松市中央区,中沢町３４番９号,,22,138,4300904,,,,,,,2024-11-07,1,,,,,エレキマル,0
1015,4100001038001,新規,0,2024-11-07,2024-11-07,株式会社Ｓｆｉｄａ,,株式会社,長野県,長野市,篠ノ井布施五明７９番地９,,20,201,3888011,,,,,,,2024-11-07,1,,,,,スフィーダ,0
1017,4100003007854,新規,0,2024-11-07,2024-11-07,合同会社Ｆｕｊｉ‐ＴＳ,,合同会社,長野県,諏訪市,高島４丁目１４８９番地１テナントＢ,,20,206,3920022,,,,,,,2024-11-07,1,,,,,フジティーエス,0
1020,4110001038826,新規,0,2024-11-07,2024-11-07,株式会社統建,,株式会社,新潟県,新潟市東区,一日市２２１９番地４いまり・ＩＩＩ２０３号,00136910,15,102,9500802,,,,,,,2024-11-07,1,,,,,トウケン,0
1032,4120001270007,新規,0,2024-11-07,2024-11-07,株式会社ＯＮＥ　ＮＥＸＴ,,株式会社,大阪府,大阪市淀川区,西宮原１丁目８番１０号３Ｆ,,27,123,5320004,,,,,,,2024-11-07,1,,,,,ワンネクスト,0
1033,4120001270031,新規,0,2024-11-07,2024-11-07,株式会社辰巳屋食品,,株式会社,大阪府,守口市,大宮通２丁目２０番１２,,27,209,5700033,,,,,,,2024-11-07,1,,,,,タツミヤショクヒン,0
1034,4120001270056,新規,0,2024-11-07,2024-11-07,株式会社ベクル,,株式会社,大阪府,大阪市中央区,鎗屋町１丁目２－６ザ・スペース鑓屋町６０１,00136920,27,128,5400027,,,,,,,2024-11-07,1,,,,,ベクル,0
1035,4120001270072,新規,0,2024-11-07,2024-11-07,株式会社ＳＫ‐ＨＯＰＥ,,株式会社,大阪府,大阪市西区,阿波座１丁目１１番１９号新興ビル４階Ｄ４,,27,106,5500011,,,,,,,2024-11-07,1,,,,,エスケイホープ,0
1036,4120001270089,新規,0,2024-11-07,2024-11-07,株式会社Ｉｎｆｉｎｉｔｙ,,株式会社,大阪府,大阪市北区,西天満４丁目３番４号御影ビル６階,,27,127,5300047,,,,,,,2024-11-07,1,,,,,インフィニティ,0
1037,4120001270097,新規,0,2024-11-07,2024-11-07,株式会社ブリス,,株式会社,大阪府,大阪市淀川区,東三国６丁目２２番２－６０１号,,27,123,5320002,,,,,,,2024-11-07,1,,,,,ブリス,0
1043,4120101070554,新規,0,2024-11-07,2024-11-07,アールセット株式会社,,株式会社,大阪府,堺市中区,深阪４－１４－３１,,27,142,5998253,,,,,,,2024-11-07,1,,,,,アールセット,0
1047,4120901049995,新規,0,2024-11-07,2024-11-07,ＺＵＭＩＸ株式会社,,株式会社,大阪府,高槻市,茶川町二丁目１番１９－３０４号,,27,207,5690000,,,,,,,2024-11-07,1,,,,,ズミックス,0
1048,4122001038598,新規,0,2024-11-07,2024-11-07,シンエイホールディングス株式会社,,株式会社,大阪府,東大阪市,小阪本町２丁目４番２１号,,27,227,5770802,,,,,,,2024-11-07,1,,,,,シンエイホールディングス,0
1049,4122005003788,新規,0,2024-11-07,2024-11-07,特定非営利活動法人共育機構Ｏｈｍａ,,その他の設立登記法人,大阪府,東大阪市,客坊町１３番４２号,,27,227,5798043,,,,,,,2024-11-07,1,,,,,キョウイクキコウオーマ,0
1060,4140001136321,新規,0,2024-11-07,2024-11-07,株式会社オフィスリュバン,,株式会社,兵庫県,姫路市,白銀町７５番地,,28,201,6700902,,,,,,,2024-11-07,1,,,,,オフィスリュバン,0
1065,4150001027651,新規,0,2024-11-07,2024-11-07,株式会社トリプルエー,,株式会社,奈良県,奈良市,中登美ヶ丘６丁目１２番８－９１６号,,29,201,6310003,,,,,,,2024-11-07,1,,,,,トリプルエー,0
1066,4150003003403,新規,0,2024-11-07,2024-11-07,ＷＡＮＷＡＮ工房合同会社,,合同会社,奈良県,奈良市,二名２丁目２４８８番地の４８,,29,201,6310072,,,,,,,2024-11-07,1,,,,,ワンワンコウボウ,0
1067,4160003003328,新規,0,2024-11-07,2024-11-07,合同会社Ｓ・Ｋ　ｔｅｃｈｎｏｌｏｇｙ,,合同会社,滋賀県,湖南市,菩提寺北２丁目１０番３８号,,25,211,5203246,,,,,,,2024-11-07,1,,,,,エスケーテクノロジー,0
1074,4180001163931,新規,0,2024-11-07,2024-11-07,浩洋株式会社,,株式会社,愛知県,名古屋市港区,藤前４丁目２０８番地,,23,111,4550855,,,,,,,2024-11-07,1,,,,,コウヨウ,0
1075,4180001163989,新規,0,2024-11-07,2024-11-07,株式会社長寿園,,株式会社,愛知県,名古屋市中川区,西伏屋３丁目８０２番地の２,,23,110,4540982,,,,,,,2024-11-07,1,,,,,チョウジュエン,0
1076,4180001164021,新規,0,2024-11-07,2024-11-07,ツカモト賃貸株式会社,,株式会社,愛知県,名古屋市中村区,名駅４丁目２４番５号第２森ビル４０１,,23,105,4500002,,,,,,,2024-11-07,1,,,,,ツカモトチンタイ,0
1077,4180001164054,新規,0,2024-11-07,2024-11-07,株式会社Ｍ．Ｄ　ＴＩＲＥ,,株式会社,愛知県,名古屋市瑞穂区,直来町４丁目３５番地の１,,23,108,4670865,,,,,,,2024-11-07,1,,,,,エムディータイヤ,0
1080,4180301039212,新規,0,2024-11-07,2024-11-07,タイリーラー株式会社,,株式会社,愛知県,刈谷市,若松町４丁目３２番地１マンションサンパレス１０１号,,23,210,4480858,,,,,,,2024-11-07,1,,,,,タイリーラー,0
1083,4190003004851,新規,0,2024-11-07,2024-11-07,ＲｅｍｉｅＬｅｎｏ合同会社,,合同会社,三重県,四日市市,中部１７番１４‐１１０２号ファミール四日市,,24,202,5100082,,,,,,,2024-11-07,1,,,,,リミエレノ,0
1089,4210001019964,新規,0,2024-11-07,2024-11-07,株式会社木村スプリングス,,株式会社,福井県,小浜市,府中１５号２６番地,,18,204,9170023,,,,,,,2024-11-07,1,,,,,キムラスプリングス,0
1092,4230001020607,新規,0,2024-11-07,2024-11-07,株式会社ラテラル,,株式会社,富山県,富山市,布瀬町南２丁目１番地９,,16,201,9398208,,,,,,,2024-11-07,1,,,,,ラテラル,0
1094,4240001064074,新規,0,2024-11-07,2024-11-07,株式会社ＲＥＳＴ,,株式会社,広島県,広島市西区,草津新町１丁目８番１３－１０３号,,34,104,7330834,,,,,,,2024-11-07,1,,,,,レスト,0
1096,4250001020860,新規,0,2024-11-07,2024-11-07,株式会社ＳＩＭｃｏｖｅｒ,,株式会社,山口県,下関市,大字綾羅木３９５番地３,,35,201,7510866,,,,,,,2024-11-07,1,,,,,シンカバー,0
1097,4250001020877,新規,0,2024-11-07,2024-11-07,株式会社ひかり,,株式会社,山口県,光市,大字光井６２番地１,,35,210,7430011,,,,,,,2024-11-07,1,,,,,ヒカリ,0
1099,4260001039603,新規,0,2024-11-07,2024-11-07,株式会社Ｅ‐Ｗｏｒｋｓ,,株式会社,岡山県,倉敷市,羽島９５番地５１,,33,202,7100043,,,,,,,2024-11-07,1,,,,,イーワークス,0
1100,4260001039611,新規,0,2024-11-07,2024-11-07,株式会社喜想,,株式会社,岡山県,岡山市東区,金田２１９番地１０,,33,103,7048196,,,,,,,2024-11-07,1,,,,,キソウ,0
1103,4290003016036,新規,0,2024-11-07,2024-11-07,合同会社ビズプロト,,合同会社,福岡県,福岡市博多区,博多駅前１丁目２３番２号５Ｆ－Ｂ,,40,132,8120011,,,,,,,2024-11-07,1,,,,,ビズプロト,0
1105,4290801031005,新規,0,2024-11-07,2024-11-07,株式会社イーシス,,株式会社,福岡県,直方市,古町１２番８号,,40,204,8220027,,,,,,,2024-11-07,1,,,,,イーシス,0
1113,4320003004508,新規,0,2024-11-07,2024-11-07,合同会社かなえる,,合同会社,大分県,別府市,京町５番１３号ヴィラフィオーレＢ－５,,44,202,8740926,,,,,,,2024-11-07,1,,,,,カナエル,0
1115,4330001032625,新規,0,2024-11-07,2024-11-07,株式会社宍戸住電工,,株式会社,熊本県,玉名市,岩崎８３８番地１,,43,206,8650016,,,,,,,2024-11-07,1,,,,,シシドジュウデンコウ,0
1117,4330003010629,新規,0,2024-11-07,2024-11-07,合同会社プラネットアローズ,,合同会社,熊本県,熊本市東区,健軍１丁目３４番３－２０５号,,43,102,8620911,,,,,,,2024-11-07,1,,,,,プラネットアローズ,0
1124,4340003004654,新規,0,2024-11-07,2024-11-07,合同会社ル・リアン,,合同会社,鹿児島県,日置市,伊集院町妙円寺２丁目８８番地２９,,46,216,8992503,,,,,,,2024-11-07,1,,,,,ルリアン,0
1125,4350001019265,新規,0,2024-11-07,2024-11-07,シンシアハート株式会社,,株式会社,宮崎県,児湯郡新富町,富田南１丁目１１４番地,,45,402,8891414,,,,,,,2024-11-07,1,,,,,シンシアハート,0
1126,4350001019281,新規,0,2024-11-07,2024-11-07,株式会社ブロイラー山鶏,,株式会社,宮崎県,東臼杵郡美郷町,南郷神門２４３４番地,,45,431,8830306,,,,,,,2024-11-07,1,,,,,ブロイラーヤマドリ,0
1130,4360003014445,新規,0,2024-11-07,2024-11-07,ＲＩＮＴＯ企画合同会社,,合同会社,沖縄県,中頭郡読谷村,字喜名２７８番地,,47,324,9040302,,,,,,,2024-11-07,1,,,,,リントキカク,0
1135,4370003006805,新規,0,2024-11-07,2024-11-07,ＮＡＭＡ太郎合同会社,,合同会社,宮城県,仙台市泉区,明石南６丁目３番地の５,,04,105,9813101,,,,,,,2024-11-07,1,,,,,ナマタロウ,0
1139,4420001018912,新規,0,2024-11-07,2024-11-07,ＭＡＳＴＥＲ　ＰＬＡＮ株式会社,,株式会社,青森県,十和田市,ひがしの２丁目１３番４３号,,02,206,0340004,,,,,,,2024-11-07,1,,,,,マスタープラン,0
1144,4430001093013,新規,0,2024-11-07,2024-11-07,株式会社ＬＩＧ,,株式会社,北海道,札幌市東区,北二十六条東１８丁目１番１３号,,01,103,0650026,,,,,,,2024-11-07,1,,,,,リグ,0
1145,4430001093021,新規,0,2024-11-07,2024-11-07,株式会社アトリエ・ルフレ,,株式会社,北海道,札幌市西区,八軒八条東４丁目３番２０号第５２藤栄ビル,,01,107,0630868,,,,,,,2024-11-07,1,,,,,アトリエルフレ,0
1150,4430003016979,新規,0,2024-11-07,2024-11-07,合同会社Ａｌｌｃｏｎｎｅｃｔ,,合同会社,北海道,勇払郡むかわ町,豊城６３２番地,,01,586,0540003,,,,,,,2024-11-07,1,,,,,オールコネクト,0
1152,4430005015104,新規,0,2024-11-07,2024-11-07,一般社団法人白老おもてなしガイドセンター,,その他の設立登記法人,北海道,白老郡白老町,若草町１丁目３番２１号,,01,578,0590902,,,,,,,2024-11-07,1,,,,,シラオイオモテナシガイドセンター,0
1164,5010001249671,新規,0,2024-11-07,2024-11-07,ＦＭホールディングス株式会社,,株式会社,東京都,千代田区,永田町２丁目１０番３号,,13,101,1000014,,,,,,,2024-11-07,1,,,,,エフエムホールディングス,0
1165,5010001249696,新規,0,2024-11-07,2024-11-07,ベストキャピタル２号株式会社,,株式会社,東京都,千代田区,丸の内２丁目７番２号ＪＰタワー２２階,,13,101,1000005,,,,,,,2024-11-07,1,,,,,ベストキャピタルニゴウ,0
1200,5010401186184,新規,0,2024-11-07,2024-11-07,東京中国商品ギャラリー株式会社,,株式会社,東京都,港区,南青山６丁目７番５号ドミール南青山１０１,,13,103,1070062,,,,,,,2024-11-07,1,,,,,トウキョウチュウゴクショウヒンギャラリー,0
1201,5010401186201,新規,0,2024-11-07,2024-11-07,株式会社ＯＫＵＲＩＴＥ,,株式会社,東京都,港区,浜松町２丁目２番１５号浜松町ダイヤビル２Ｆ,,13,103,1050013,,,,,,,2024-11-07,1,,,,,オクリテ,0
1205,5010405023755,新規,0,2024-11-07,2024-11-07,お台場ホテルマネジメント一般社団法人,,その他の設立登記法人,東京都,港区,六本木１丁目６番１号泉ガーデンタワー,,13,103,1060032,,,,,,,2024-11-07,1,,,,,オダイバホテルマネジメント,0
1208,5010601066236,新規,0,2024-11-07,2024-11-07,株式会社デリスラボ,,株式会社,東京都,江東区,東雲１丁目１０－１４－１５０２,,13,108,1350062,,,,,,,2024-11-07,1,,,,,デリスラボ,0
1211,5010901056267,新規,0,2024-11-07,2024-11-07,株式会社Ｔｒａｃｋ’ｓ,,株式会社,東京都,世田谷区,北烏山１丁目１１－３ＬＩＶＥ北烏山２０２,,13,112,1570061,,,,,,,2024-11-07,1,,,,,トラックス,0
1212,5010901056275,新規,0,2024-11-07,2024-11-07,エンナレッジ株式会社,,株式会社,東京都,世田谷区,上馬４丁目３番１８号,,13,112,1540011,,,,,,,2024-11-07,1,,,,,エンナレッジ,0
1213,5010901056291,新規,0,2024-11-07,2024-11-07,株式会社ａｒｕｉｍａ,,株式会社,東京都,世田谷区,宮坂１丁目７番８号,,13,112,1560051,,,,,,,2024-11-07,1,,,,,アルイマ,0
1220,5011001165628,新規,0,2024-11-07,2024-11-07,株式会社３６５日ｎｉｔｔｉｏ,,株式会社,東京都,渋谷区,恵比寿２丁目６－３２ｉｄ１０２,,13,113,1500013,,,,,,,2024-11-07,1,,,,,サンビャクロクジュウゴニチニッティ,0
1223,5011003020319,新規,0,2024-11-07,2024-11-07,合同会社アルソラ,,合同会社,東京都,目黒区,目黒１丁目９－４オーベル目黒３１４,,13,110,1530063,,,,,,,2024-11-07,1,,,,,アルソラ,0
1230,5011301030135,新規,0,2024-11-07,2024-11-07,西武製薬株式会社,,株式会社,東京都,杉並区,和泉１丁目１５番１２号,,13,115,1680063,,,,,,,2024-11-07,1,,,,,セイブセイヤク,0
1231,5011401026537,新規,0,2024-11-07,2024-11-07,株式会社ＳＳＳ　Ｗｏｒｋｓ,,株式会社,東京都,板橋区,板橋１丁目４８－８ダイアパレス新板橋１Ｆ,,13,119,1730004,,,,,,,2024-11-07,1,,,,,エスエスエスワークス,0
1232,5011401026561,新規,0,2024-11-07,2024-11-07,株式会社Ｗｉｓｔｅｒｉａ,,株式会社,東京都,板橋区,双葉町２９番６号,,13,119,1730011,,,,,,,2024-11-07,1,,,,,ウィステリア,0
1234,5011601028168,新規,0,2024-11-07,2024-11-07,嘉信株式会社,,株式会社,東京都,練馬区,桜台１丁目７番７－４１２号,,13,120,1760002,,,,,,,2024-11-07,1,,,,,カシン,0
1235,5011601028176,新規,0,2024-11-07,2024-11-07,株式会社ソラリ,,株式会社,東京都,練馬区,豊玉北５丁目３２番２号ル・シエル豊玉３０１,,13,120,1760012,,,,,,,2024-11-07,1,,,,,ソラリ,0
1236,5011701027788,新規,0,2024-11-07,2024-11-07,株式会社Ｍｉｙｏｎｇ,,株式会社,東京都,江戸川区,松江５丁目１１番２２号,,13,123,1320025,,,,,,,2024-11-07,1,,,,,ミヨン,0
1239,5011801045120,新規,0,2024-11-07,2024-11-07,株式会社スマイルパートナーズ,,株式会社,東京都,足立区,花畑２丁目４番２号,,13,121,1210061,,,,,,,2024-11-07,1,,,,,スマイルパートナーズ,0
1240,5011805003405,新規,0,2024-11-07,2024-11-07,一般社団法人カナラボ,,その他の設立登記法人,東京都,葛飾区,東金町１丁目１８番６号斎藤ホワイトビル３階,,13,122,1250041,,,,,,,2024-11-07,1,,,,,カナラボ,0
1242,5012401042458,新規,0,2024-11-07,2024-11-07,株式会社ＴＯＰ　ＧＲＯＵＰ,,株式会社,東京都,府中市,緑町１丁目２６番地の１１ＶｅｒｉｔｅＦＵＣＨＵ１０２,,13,206,1830006,,,,,,,2024-11-07,1,,,,,トップグループ,0
1256,5020001159960,新規,0,2024-11-07,2024-11-07,ＯＦＢ株式会社,,株式会社,神奈川県,横浜市神奈川区,菅田町４８３番地１３,,14,102,2210864,,,,,,,2024-11-07,1,,,,,オーエフビー,0
1259,5020003027182,新規,0,2024-11-07,2024-11-07,合同会社広田企画,,合同会社,神奈川県,横浜市南区,山王町２丁目２２番地２５,,14,105,2320013,,,,,,,2024-11-07,1,,,,,ヒロタキカク,0
1264,5021001083696,新規,0,2024-11-07,2024-11-07,株式会社遊Ｂｅｉｎｇ,,株式会社,神奈川県,南足柄市,岩原２４０番地１,,14,217,2500113,,,,,,,2024-11-07,1,,,,,アソビーイング,0
1269,5021003015185,新規,0,2024-11-07,2024-11-07,ラリンエグラツィオ合同会社,,合同会社,神奈川県,大和市,上草柳９丁目１８番１２－２号,,14,213,2420029,,,,,,,2024-11-07,1,,,,,ラリンエグラツィオ,0
1270,5021003015193,新規,0,2024-11-07,2024-11-07,合同会社Ｎｏｖａ　Ｃｏｎｎｅｃｔ,,合同会社,神奈川県,秦野市,北矢名２０７番地の１１グリーンヒルズ１０１号,,14,211,2570006,,,,,,,2024-11-07,1,,,,,ノバコネクト,0
1274,5030001163342,新規,0,2024-11-07,2024-11-07,株式会社Ｃｉｒｃｌｅ,,株式会社,埼玉県,さいたま市大宮区,三橋３丁目１９８番地６,,11,103,3300856,,,,,,,2024-11-07,1,,,,,サークル,0
1280,5040001136000,新規,0,2024-11-07,2024-11-07,新港水産株式会社,,株式会社,千葉県,船橋市,習志野台４丁目９番３号ＮＫ習志野ビル２０３号,,12,204,2740063,,,,,,,2024-11-07,1,,,,,シンコウスイサン,0
1281,5040001136017,新規,0,2024-11-07,2024-11-07,ＩＳＡＮＡ株式会社,,株式会社,千葉県,市川市,須和田２丁目３５番２６号,,12,203,2720825,,,,,,,2024-11-07,1,,,,,イサナ,0
1282,5040001136025,新規,0,2024-11-07,2024-11-07,株式会社ウィステリア,,株式会社,千葉県,千葉市若葉区,若松町４１３番地６５,,12,104,2640021,,,,,,,2024-11-07,1,,,,,ウィステリア,0
1283,5040001136033,新規,0,2024-11-07,2024-11-07,株式会社アーネスト防災,,株式会社,千葉県,木更津市,羽鳥野２丁目９番地１４,,12,206,2920819,,,,,,,2024-11-07,1,,,,,アーネストボウサイ,0
1285,5050003008799,新規,0,2024-11-07,2024-11-07,合同会社Ｍｉｓｔ,,合同会社,茨城県,那珂郡東海村,舟石川駅東３丁目２番２７号石川コーポ１０１,,08,341,3191118,,,,,,,2024-11-07,1,,,,,ミスト,0
1286,5060001037618,新規,0,2024-11-07,2024-11-07,株式会社Ｍ‐Ｔｅｃｋ,,株式会社,栃木県,佐野市,閑馬町２０３２番地２,,09,204,3270321,,,,,,,2024-11-07,1,,,,,エムテック,0
1290,5070001007900,新規,0,2024-11-07,2024-11-07,中島住宅工業株式会社,,株式会社,群馬県,高崎市,島野町８９０番地の９,,10,202,3700015,,,,,,,2024-11-07,1,,,,,ナカジマジュウタクコウギョウ,0
1297,5070001042344,新規,0,2024-11-07,2024-11-07,株式会社ＳＥＳＨＡＴ　ＨＤ,,株式会社,群馬県,北群馬郡榛東村,大字新井７８２番地１０,,10,344,3703503,,,,,,,2024-11-07,1,,,,,セシャトホールディングス,0
1301,5080401027539,新規,0,2024-11-07,2024-11-07,株式会社ＭＩＣ,,株式会社,静岡県,浜松市中央区,田町３３０番地の１マビーセブンビル７Ｆ,,22,138,4300944,,,,,,,2024-11-07,1,,,,,エムアイシー,0
1302,5080401027547,新規,0,2024-11-07,2024-11-07,株式会社アイティオーホールディングス,,株式会社,静岡県,浜松市中央区,半田山６丁目１８番１０号,,22,138,4313125,,,,,,,2024-11-07,1,,,,,アイティオーホールディングス,0
1303,5080401027555,新規,0,2024-11-07,2024-11-07,株式会社ＩＮＣ,,株式会社,静岡県,掛川市,日坂４８－１,,22,213,4360003,,,,,,,2024-11-07,1,,,,,アイエヌシー,0
1311,5110003005567,新規,0,2024-11-07,2024-11-07,合同会社まちたびデザイン,,合同会社,新潟県,新潟市西区,松海が丘２丁目２１番４号,,15,107,9502075,,,,,,,2024-11-07,1,,,,,マチタビデザイン,0
1319,5120001269997,新規,0,2024-11-07,2024-11-07,株式会社ロゼステイト,,株式会社,大阪府,寝屋川市,池田本町１２番１０号,,27,215,5720030,,,,,,,2024-11-07,1,,,,,ロゼステイト,0
1320,5120001270039,新規,0,2024-11-07,2024-11-07,ＨＲＫ株式会社,,株式会社,大阪府,大阪市北区,野崎町６番８－３０５号,,27,127,5300055,,,,,,,2024-11-07,1,,,,,エイチアールケー,0
1321,5120001270055,新規,0,2024-11-07,2024-11-07,佳美和商事株式会社,,株式会社,大阪府,大阪市東淀川区,西淡路５丁目１番１号２階２０４－３号室,,27,114,5330031,,,,,,,2024-11-07,1,,,,,ヨシミワショウジ,0
1322,5120001270088,新規,0,2024-11-07,2024-11-07,株式会社Ｒｅｄｅａｌ,,株式会社,大阪府,大阪市北区,中之島６丁目１番３８号,,27,127,5300005,,,,,,,2024-11-07,1,,,,,リディアル,0
1323,5120001270096,新規,0,2024-11-07,2024-11-07,ＳＤＫ株式会社,,株式会社,大阪府,大阪市中央区,島之内１丁目２２番２２号,,27,128,5420082,,,,,,,2024-11-07,1,,,,,エスディーケイ,0
1325,5120003027908,新規,0,2024-11-07,2024-11-07,合同会社ＡＬＬ．,,合同会社,大阪府,大阪市北区,神山町１４番３号,,27,127,5300026,,,,,,,2024-11-07,1,,,,,オールドット,0
1326,5120003027916,新規,0,2024-11-07,2024-11-07,ビッグツリー合同会社,,合同会社,大阪府,枚方市,三栗１丁目１２番５－２０２号,,27,210,5731171,,,,,,,2024-11-07,1,,,,,ビッグツリー,0
1330,5120005024606,新規,0,2024-11-07,2024-11-07,社会保険労務士法人古田事務所,,その他の設立登記法人,大阪府,寝屋川市,末広町１０番９号,,27,215,5720009,,,,,,,2024-11-07,1,,,,,フルタジムショ,0
1333,5120101070537,新規,0,2024-11-07,2024-11-07,株式会社ＡＲＴＹ,,株式会社,大阪府,富田林市,若松町５丁目１２番５４－４号,,27,214,5840024,,,,,,,2024-11-07,1,,,,,アーティー,0
1336,5120901049986,新規,0,2024-11-07,2024-11-07,株式会社Ｌｉｅｎ,,株式会社,大阪府,茨木市,真砂１丁目１６番１３号,,27,211,5670851,,,,,,,2024-11-07,1,,,,,リアン,0
1337,5122001038597,新規,0,2024-11-07,2024-11-07,株式会社Ｓｍａｌｌ　Ｂｅａｃｈ,,株式会社,大阪府,東大阪市,柏田東町７番２１号１０２,,27,227,5770833,,,,,,,2024-11-07,1,,,,,スモールビーチ,0
1341,5130001078316,新規,0,2024-11-07,2024-11-07,遠藤ピエロ株式会社,,株式会社,京都府,京都市中京区,六角通油小路東入本能寺町９６番地１,,26,104,6048243,,,,,,,2024-11-07,1,,,,,エンドウピエロ,0
1342,5140001136320,新規,0,2024-11-07,2024-11-07,株式会社サード・プレイス,,株式会社,兵庫県,姫路市,鷹匠町４１番地鷹匠荘１Ｆ東,,28,201,6700024,,,,,,,2024-11-07,1,,,,,サードプレイス,0
1343,5140001136329,新規,0,2024-11-07,2024-11-07,サンタムジカ株式会社,,株式会社,兵庫県,西宮市,段上町６丁目６番１８号,,28,204,6638006,,,,,,,2024-11-07,1,,,,,サンタムジカ,0
1344,5140001136337,新規,0,2024-11-07,2024-11-07,株式会社藤不動産,,株式会社,兵庫県,明石市,二見町西二見１１５２番地の１,,28,203,6740094,,,,,,,2024-11-07,1,,,,,フジフドウサン,0
1348,5140003021272,新規,0,2024-11-07,2024-11-07,合同会社栞寧,,合同会社,兵庫県,川辺郡猪名川町,木津字東山６５番地の４６,,28,301,6660225,,,,,,,2024-11-07,1,,,,,カンネ,0
1355,5150005009637,新規,0,2024-11-07,2024-11-07,特定非営利活動法人わかもの就労支援デサフィオ,,その他の設立登記法人,奈良県,生駒市,壱分町１８２番地２ネオハイツ３１０,,29,209,6300222,,,,,,,2024-11-07,1,,,,,ワカモノシュウロウシエンデサフィオ,0
1377,5180001163988,新規,0,2024-11-07,2024-11-07,株式会社そあか,,株式会社,愛知県,名古屋市千種区,竹越２丁目８番２７号,,23,101,4640007,,,,,,,2024-11-07,1,,,,,ソアカ,0
1378,5180001164004,新規,0,2024-11-07,2024-11-07,株式会社ＦＢＣ,,株式会社,愛知県,名古屋市千種区,田代本通４丁目２番地,,23,101,4640827,,,,,,,2024-11-07,1,,,,,エフビーシー,0
1379,5180001164029,新規,0,2024-11-07,2024-11-07,株式会社トーソーホールディングス,,株式会社,愛知県,名古屋市中区,上前津２丁目６番６号,,23,106,4600013,,,,,,,2024-11-07,1,,,,,トーソーホールディングス,0
1380,5180001164053,新規,0,2024-11-07,2024-11-07,株式会社與語総建,,株式会社,愛知県,長久手市,前熊一ノ井７０－１,,23,238,4801102,,,,,,,2024-11-07,1,,,,,ヨゴソウケン,0
1383,5180301039203,新規,0,2024-11-07,2024-11-07,株式会社シーエスオーエム,,株式会社,愛知県,西尾市,一色町味浜屋下１５番地３,,23,213,4440422,,,,,,,2024-11-07,1,,,,,シーエスオーエム,0
1384,5180303006333,新規,0,2024-11-07,2024-11-07,ＭＴＣＳ‐Ｏｍｎｉ　Ｃｏｎｓｕｌｔｉｎｇ合同会社,,合同会社,愛知県,豊田市,荒井町寿田２５０番地２プリーアディーズ２０１号,,23,211,4700333,,,,,,,2024-11-07,1,,,,,エムトスオムニコンサルティング,0
1385,5180305009623,新規,0,2024-11-07,2024-11-07,特定非営利活動法人あいちエデュケーションズ,,その他の設立登記法人,愛知県,岡崎市,上六名町字木ノ座１４番地５,,23,202,4440859,,,,,,,2024-11-07,1,,,,,アイチエデュケーションズ,0
1389,5200001043097,新規,0,2024-11-07,2024-11-07,株式会社河翔,,株式会社,岐阜県,多治見市,小泉町４丁目２２１番地の１・ＧＲＥＥＮ．ＤＡＹＳ．ＫＯＩＺＵＭＩ－１０１,,21,204,5070073,,,,,,,2024-11-07,1,,,,,カワショウ,0
1392,5200003006572,新規,0,2024-11-07,2024-11-07,村井内装合同会社,,合同会社,岐阜県,岐阜市,金華町２丁目１７番地８,,21,201,5020828,,,,,,,2024-11-07,1,,,,,ムライナイソウ,0
1393,5210001019963,新規,0,2024-11-07,2024-11-07,株式会社ゼンヤサイキカク,,株式会社,福井県,福井市,東郷中島町第３号７番地１,,18,201,9102176,,,,,,,2024-11-07,1,,,,,ゼンヤサイキカク,0
1397,5240001064040,新規,0,2024-11-07,2024-11-07,株式会社呉風呂センター,,株式会社,広島県,東広島市,黒瀬楢原東３丁目６番２２号,,34,212,7392628,,,,,,,2024-11-07,1,,,,,クレフロセンター,0
1398,5240001064057,新規,0,2024-11-07,2024-11-07,株式会社Ｎｉｃｏ,,株式会社,広島県,広島市中区,吉島西２丁目１１番２号,,34,101,7300823,,,,,,,2024-11-07,1,,,,,ニコ,0
1399,5250001020884,新規,0,2024-11-07,2024-11-07,株式会社吉永建設,,株式会社,山口県,周南市,原宿町２番１号梅田ビル３Ｆ,,35,215,7450065,,,,,,,2024-11-07,1,,,,,ヨシナガケンセツ,0
1404,5260001039602,新規,0,2024-11-07,2024-11-07,三栄住設株式会社,,株式会社,岡山県,赤磐市,桜が丘西３丁目６番９号,,33,213,7090802,,,,,,,2024-11-07,1,,,,,サンエイジュウセツ,0
1405,5260001039610,新規,0,2024-11-07,2024-11-07,株式会社ｕｎｉ,,株式会社,岡山県,岡山市中区,桜橋４丁目１－１６タカショービル２０１,,33,102,7038285,,,,,,,2024-11-07,1,,,,,ユニ,0
1407,5260003004959,新規,0,2024-11-07,2024-11-07,合同会社シェリー,,合同会社,岡山県,岡山市北区,中山下１丁目１１番１５号新田第一ビル４０２,,33,101,7000821,,,,,,,2024-11-07,1,,,,,シェリー,0
1410,5300003002198,新規,0,2024-11-07,2024-11-07,合同会社ＮＥＸＩＡ　ＪＡＰＡＮ,,合同会社,佐賀県,武雄市,山内町大字大野７０９９番地１,,41,206,8492304,,,,,,,2024-11-07,1,,,,,ネクシアジャパン,0
1412,5330001032624,新規,0,2024-11-07,2024-11-07,株式会社ＣＯＣＯＮＯＴＡＮＥ,,株式会社,熊本県,熊本市東区,長嶺南２丁目５番６６号,,43,102,8618039,,,,,,,2024-11-07,1,,,,,ココノタネ,0
1413,5330001032632,新規,0,2024-11-07,2024-11-07,株式会社星野開発,,株式会社,熊本県,熊本市南区,近見１丁目１６－２８シャルマンメゾン２０２,,43,104,8614101,,,,,,,2024-11-07,1,,,,,ホシノカイハツ,0
1419,5350001019272,新規,0,2024-11-07,2024-11-07,Ｒａｐｐｏｒｔ株式会社,,株式会社,宮崎県,宮崎市,新別府町前浜１４０１番地２１２,,45,201,8800834,,,,,,,2024-11-07,1,,,,,ラポール,0
1420,5350005006267,新規,0,2024-11-07,2024-11-07,一般社団法人つまサッカースクール,,その他の設立登記法人,宮崎県,西都市,大字三宅４５０６番地１１,,45,208,8810005,,,,,,,2024-11-07,1,,,,,ツマサッカースクール,0
1422,5360001034411,新規,0,2024-11-07,2024-11-07,株式会社ＺＥＮＡ　ＧＡＲＡＧＥ,,株式会社,沖縄県,沖縄市,高原４丁目２６番１０－２号,,47,211,9042171,,,,,,,2024-11-07,1,,,,,ゼナガレージ,0
1423,5360003014436,新規,0,2024-11-07,2024-11-07,Ｋｅｙｓｔｏｎｅ．合同会社,,合同会社,沖縄県,那覇市,首里石嶺町２丁目１３９ドミール２１・３０２,,47,201,9030804,,,,,,,2024-11-07,1,,,,,キーストーン,0
1425,5370003006804,新規,0,2024-11-07,2024-11-07,合同会社石巻医食同源プロジェクト,,合同会社,宮城県,石巻市,立町１丁目５番１１号,,04,202,9860824,,,,,,,2024-11-07,1,,,,,イシノマキイショクドウゲンプロジェクト,0
1428,5380003005887,新規,0,2024-11-07,2024-11-07,合同会社ｙｏｕ＆ｍｅ,,合同会社,福島県,いわき市,佐糠町２丁目７番地の５,,07,204,9748223,,,,,,,2024-11-07,1,,,,,ユーアンドミー,0
1439,5460001005947,新規,0,2024-11-07,2024-11-07,株式会社佐々木牧場,,株式会社,北海道,厚岸郡浜中町,姉別北２線１２９番地,,01,663,0881648,,,,,,,2024-11-07,1,,,,,ササキボクジョウ,0
1442,5480001012636,新規,0,2024-11-07,2024-11-07,株式会社Ｃｙｂｅｒ　Ｓｈｅｅｅｐ,,株式会社,徳島県,徳島市,寺島本町西１丁目５０番の１号１階,,36,201,7700831,,,,,,,2024-11-07,1,,,,,サイバーシープ,0
1446,5500001025981,新規,0,2024-11-07,2024-11-07,今治計器サービス株式会社,,株式会社,愛媛県,今治市,大西町九王甲２０９０番地６,,38,202,7992201,,,,,,,2024-11-07,1,,,,,イマバリケイキサービス,0
1452,6010001249695,新規,0,2024-11-07,2024-11-07,株式会社ＦＯＲＥＦＲＯＮＴ,,株式会社,東京都,中央区,月島１丁目８番１－２１１１号,,13,102,1040052,,,,,,,2024-11-07,1,,,,,フォアフロント,0
1483,6010401186084,新規,0,2024-11-07,2024-11-07,株式会社従業員承継パートナーズ,,株式会社,東京都,港区,新橋２丁目１－１山口ビルディング１階,,13,103,1050004,,,,,,,2024-11-07,1,,,,,ジュウギョウインショウケイパートナーズ,0
1484,6010401186200,新規,0,2024-11-07,2024-11-07,エスアセット株式会社,,株式会社,東京都,港区,三田１丁目３番４０号２０３号室,,13,103,1080073,,,,,,,2024-11-07,1,,,,,エスアセット,0
1486,6010403033739,新規,0,2024-11-07,2024-11-07,合同会社Ｉｔ’ｓ　ｋｅｙ,,合同会社,東京都,港区,南青山２丁目２番１５号,,13,103,1070062,,,,,,,2024-11-07,1,,,,,イッツキー,0
1488,6010501053143,新規,0,2024-11-07,2024-11-07,株式会社フラボリンク,,株式会社,東京都,台東区,台東４丁目２６番８号,,13,106,1100016,,,,,,,2024-11-07,1,,,,,フラボリンク,0
1490,6010503007626,新規,0,2024-11-07,2024-11-07,合同会社トウキョウスクエア,,合同会社,東京都,台東区,東上野４丁目１番９号ヤワタ上野ビル３階,,13,106,1100015,,,,,,,2024-11-07,1,,,,,トウキョウスクエア,0
1494,6010601066219,新規,0,2024-11-07,2024-11-07,株式会社ＯＮＥ,,株式会社,東京都,江東区,北砂３丁目４番３２号,,13,108,1360073,,,,,,,2024-11-07,1,,,,,ワン,0
1497,6010701046780,新規,0,2024-11-07,2024-11-07,株式会社ｌｉｎｏ,,株式会社,東京都,品川区,大井６丁目４番４号,,13,109,1400014,,,,,,,2024-11-07,1,,,,,リノ,0
1498,6010901056266,新規,0,2024-11-07,2024-11-07,株式会社ＡＩ　ｔｅｃｈｎｏｌｏｇｙｓ,,株式会社,東京都,世田谷区,松原１丁目４２番１７号レヴリ２０３,,13,112,1560043,,,,,,,2024-11-07,1,,,,,エーアイテクノロジーズ,0
1499,6010901056274,新規,0,2024-11-07,2024-11-07,株式会社ｆｕｌｌｍｅＲ,,株式会社,東京都,世田谷区,太子堂２丁目２番２３号ＭＧＡハウス２０１,,13,112,1540004,,,,,,,2024-11-07,1,,,,,フルメル,0
1503,6011001165643,新規,0,2024-11-07,2024-11-07,株式会社キララワールドｒｉｂｂｏｎ　ｄｒｏｐｓ,,株式会社,東京都,目黒区,八雲３丁目４番１０号藤和目黒八雲ホームズ３０４,,13,110,1520023,,,,,,,2024-11-07,1,,,,,キララワールドリボンドロップス,0
1504,6011001165833,新規,0,2024-11-07,2024-11-07,株式会社Ａｕｒｏｒａ　ｓｏｕｐ,,株式会社,東京都,渋谷区,渋谷２丁目１９－１５宮益坂ビルディング６０９,,13,113,1500002,,,,,,,2024-11-07,1,,,,,オーロラスープ,0
1510,6011301030142,新規,0,2024-11-07,2024-11-07,株式会社ＫＨＵＳＨＩ,,株式会社,東京都,杉並区,高円寺南５丁目１０番１７号昭和コーポ１０２,,13,115,1660003,,,,,,,2024-11-07,1,,,,,シャクシ,0
1511,6011501031337,新規,0,2024-11-07,2024-11-07,Ｑｕａｎｔｕｍ　Ｎｅｔｗｏｒｋ　Ｓｏｌｕｔｉｏｎｓ株式会社,,株式会社,東京都,北区,上十条４丁目１５番１号１Ｆ,,13,117,1140034,,,,,,,2024-11-07,1,,,,,クオンタムネットワークソリューションズ,0
1513,6011701027787,新規,0,2024-11-07,2024-11-07,ＲＥＤＧＥ株式会社,,株式会社,東京都,江戸川区,南篠崎町２丁目４３番３号,,13,123,1330065,,,,,,,2024-11-07,1,,,,,レッジ,0
1514,6011801045094,新規,0,2024-11-07,2024-11-07,株式会社ペアー,,株式会社,東京都,足立区,西加平２丁目５番１－７０２号,,13,121,1210074,,,,,,,2024-11-07,1,,,,,ペアー,0
1515,6012301014143,新規,0,2024-11-07,2024-11-07,ＡＬＥＧＬＥ株式会社,,株式会社,東京都,町田市,南成瀬１丁目２番地１,,13,209,1940045,,,,,,,2024-11-07,1,,,,,アレグレ,0
1520,6013101009556,新規,0,2024-11-07,2024-11-07,株式会社Ｓｏｆｔ　Ｇ　Ｃｏｎｓｕｌｔｉｎｇ,,株式会社,東京都,青梅市,二俣尾４丁目９０１番地の６,,13,205,1980171,,,,,,,2024-11-07,1,,,,,ソフトジーコンサルティング,0
1525,6020001159844,新規,0,2024-11-07,2024-11-07,榮桂商事株式会社,,株式会社,神奈川県,横浜市中区,不老町３丁目１４番地２ライオンズマンション伊勢佐木長者町１０１,,14,104,2310032,,,,,,,2024-11-07,1,,,,,エイケイショウジ,0
1526,6020001159927,新規,0,2024-11-07,2024-11-07,株式会社ＡＬＬＵＲＵ,,株式会社,神奈川県,横浜市中区,弥生町３丁目３４－１－６０２,,14,104,2310058,,,,,,,2024-11-07,1,,,,,アリウル,0
1527,6020001159935,新規,0,2024-11-07,2024-11-07,株式会社Ｓｐａｄａ,,株式会社,神奈川県,川崎市宮前区,白幡台１丁目１２番地１白幡台住宅１０－５０１,,14,136,2160025,,,,,,,2024-11-07,1,,,,,スパーダ,0
1529,6020003027157,新規,0,2024-11-07,2024-11-07,合同会社ＩＮＯＵＥＧＲＯＵＰ,,合同会社,神奈川県,横浜市西区,浅間町１丁目４番３号ウィザードビル４０２,,14,103,2200072,,,,,,,2024-11-07,1,,,,,イノウエグループ,0
1530,6020003027181,新規,0,2024-11-07,2024-11-07,合同会社フォーハウス,,合同会社,神奈川県,横浜市南区,堀ノ内町１丁目９番地２３,,14,105,2320042,,,,,,,2024-11-07,1,,,,,フォーハウス,0
1538,6030001163333,新規,0,2024-11-07,2024-11-07,ＮＯＧＵ‐ＬＡＢ株式会社,,株式会社,埼玉県,草加市,清門２丁目１８－７,,11,221,3400055,,,,,,,2024-11-07,1,,,,,ノグラボ,0
1542,6030005021925,新規,0,2024-11-07,2024-11-07,一般社団法人日本クルド建設業協会,,その他の設立登記法人,埼玉県,川口市,芝新町７－９アドバンスＶ４０２,00136908,11,203,3330851,,,,,,,2024-11-07,1,,,,,ニホンクルドケンセツギョウキョウカイ,0
1546,6040001136008,新規,0,2024-11-07,2024-11-07,シーゲート株式会社,,株式会社,千葉県,柏市,若柴１７８－４－１４８－１ウェスト３階Ｖ１２７,,12,217,2770871,,,,,,,2024-11-07,1,,,,,シーゲート,0
1547,6040001136016,新規,0,2024-11-07,2024-11-07,株式会社Ｋ２,,株式会社,千葉県,鎌ケ谷市,西道野辺３番２０－５０４号,,12,224,2730117,,,,,,,2024-11-07,1,,,,,ケーツー,0
1548,6040001136024,新規,0,2024-11-07,2024-11-07,アカオレンタル株式会社,,株式会社,千葉県,印西市,小林浅間１丁目１番地１,,12,231,2701315,,,,,,,2024-11-07,1,,,,,アカオレンタル,0
1551,6040005022518,新規,0,2024-11-07,2024-11-07,一般社団法人１００夢Ｐｒｏｊｅｃｔ,,その他の設立登記法人,千葉県,船橋市,本中山２丁目１８番１９号,,12,204,2730035,,,,,,,2024-11-07,1,,,,,ヒャクユメプロジェクト,0
1553,6050001055685,新規,0,2024-11-07,2024-11-07,株式会社Ｌｅｆｒａｉｎ,,株式会社,茨城県,水戸市,宮町１丁目２番地４号ＭＹＭビル３階,,08,201,3100015,,,,,,,2024-11-07,1,,,,,リフレイン,0
1556,6050005013516,新規,0,2024-11-07,2024-11-07,土地家屋調査士法人かなめ,,その他の設立登記法人,茨城県,つくばみらい市,福岡１３７７番地１,,08,235,3002406,,,,,,,2024-11-07,1,,,,,カナメ,0
1561,6060001037617,新規,0,2024-11-07,2024-11-07,株式会社倉田総建,,株式会社,栃木県,宇都宮市,上小倉町２１０７番地２,,09,201,3210401,,,,,,,2024-11-07,1,,,,,クラタソウケン,0
1562,6060001037633,新規,0,2024-11-07,2024-11-07,Ｃｏｍｍｏｎｏ．Ｄｅｓｉｇｎ株式会社,,株式会社,栃木県,宇都宮市,上戸祭町２９６７番地８,,09,201,3200051,,,,,,,2024-11-07,1,,,,,コモノデザイン,0
1563,6070001042335,新規,0,2024-11-07,2024-11-07,株式会社ＮＡＢＩＮＡ＆Ｒｈｙｔｈｍ．ｄｍ,,株式会社,群馬県,前橋市,青柳町４３２番地１白井マンション２０５号,,10,201,3710056,,,,,,,2024-11-07,1,,,,,ナビナアンドリズムドットディーエム,0
1564,6070001042343,新規,0,2024-11-07,2024-11-07,株式会社Ｓｐｒｉｎｔ,,株式会社,群馬県,前橋市,元総社町２０４９番地２,,10,201,3710846,,,,,,,2024-11-07,1,,,,,スプリント,0
1565,6080001026576,新規,0,2024-11-07,2024-11-07,株式会社チャレンジバリュー,,株式会社,静岡県,藤枝市,仮宿１４７５番地の８,,22,214,4260001,,,,,,,2024-11-07,1,,,,,チャレンジバリュー,0
1566,6080101025107,新規,0,2024-11-07,2024-11-07,株式会社ｗｉｔｈ　ｉｎｎｏｖａｔｉｏｎ,,株式会社,静岡県,富士市,天間８１２番地の１１,,22,210,4190205,,,,,,,2024-11-07,1,,,,,ウィズイノベーション,0
1568,6080401027546,新規,0,2024-11-07,2024-11-07,森欽ホールディングス株式会社,,株式会社,静岡県,浜松市中央区,入野町１９９５４番地の７４７,,22,138,4328061,,,,,,,2024-11-07,1,,,,,モリキンホールディングス,0
1570,6100001038008,新規,0,2024-11-07,2024-11-07,株式会社左京,,株式会社,長野県,諏訪郡富士見町,落合１２０２３番地２,,20,362,3990214,,,,,,,2024-11-07,1,,,,,サキョウ,0
1587,6120001269963,新規,0,2024-11-07,2024-11-07,Ｅｘｐｒｅｓｓ　Ｌｉｎｅ　Ｊａｐａｎ株式会社,,株式会社,大阪府,大阪市中央区,瓦町４丁目４番８号おおきにＫＯＫＯＤＥＳＵ瓦町四丁目７Ｃ,,27,128,5410048,,,,,,,2024-11-07,1,,,,,エクスプレスラインジャパン,0
1588,6120001270013,新規,0,2024-11-07,2024-11-07,康孚登特株式会社,,株式会社,大阪府,大阪市生野区,新今里６丁目３番１０号エクラ新今里３０６号室,,27,116,5440001,,,,,,,2024-11-07,1,,,,,コウフトウトク,0
1589,6120001270021,新規,0,2024-11-07,2024-11-07,株式会社ルナコ,,株式会社,大阪府,大阪市港区,市岡元町３丁目１３番５号ウエストエリアビル４１６号,,27,107,5520002,,,,,,,2024-11-07,1,,,,,ルナコ,0
1590,6120001270038,新規,0,2024-11-07,2024-11-07,株式会社Ｌａｖｏ,,株式会社,大阪府,大阪市北区,梅田１丁目１－３大阪駅前第３ビル２９階１－１－１号室,,27,127,5300001,,,,,,,2024-11-07,1,,,,,ラボ,0
1591,6120001270046,新規,0,2024-11-07,2024-11-07,株式会社ＢＥＹＯＮＤシッター,,株式会社,大阪府,大阪市北区,梅田１丁目２番２号大阪駅前第２ビル１２－１２,,27,127,5300001,,,,,,,2024-11-07,1,,,,,ビヨンドシッター,0
1592,6120001270054,新規,0,2024-11-07,2024-11-07,株式会社ＧＲＥＥＮ,,株式会社,大阪府,大阪市都島区,内代町１丁目２番２３－２０１号,,27,102,5340013,,,,,,,2024-11-07,1,,,,,グリーン,0
1593,6120001270104,新規,0,2024-11-07,2024-11-07,株式会社アンフィニ,,株式会社,大阪府,大阪市西区,立売堀５丁目７番９－１２０２号,,27,106,5500012,,,,,,,2024-11-07,1,,,,,アンフィニ,0
1594,6120003027832,新規,0,2024-11-07,2024-11-07,合同会社ツギノカタチ,,合同会社,大阪府,大阪市北区,天神橋２丁目２番２３号,,27,127,5300041,,,,,,,2024-11-07,1,,,,,ツギノカタチ,0
1595,6120003027898,新規,0,2024-11-07,2024-11-07,合同会社ＰＡＮＤＡコンサルティング,,合同会社,大阪府,大阪市北区,梅田１丁目１番３大阪駅前第３ビル２９階１－１－１号室,,27,127,5300001,,,,,,,2024-11-07,1,,,,,パンダコンサルティング,0
1596,6120003027915,新規,0,2024-11-07,2024-11-07,合同会社デコキューブ,,合同会社,大阪府,大阪市東住吉区,南田辺１丁目１０番３９号エストヴァリ千扇２０３号,,27,121,5460033,,,,,,,2024-11-07,1,,,,,デコキューブ,0
1600,6120101070528,新規,0,2024-11-07,2024-11-07,Ｅ‐ＡＳＴ株式会社,,株式会社,大阪府,岸和田市,春木大小路町５－１１,,27,202,5960031,,,,,,,2024-11-07,1,,,,,イースト,0
1610,6140001136328,新規,0,2024-11-07,2024-11-07,ＳｏｎｉｃａＭｕｓｅ株式会社,,株式会社,兵庫県,西宮市,段上町６丁目６番１８号,,28,204,6638006,,,,,,,2024-11-07,1,,,,,ソニカミューズ,0
1611,6140001136336,新規,0,2024-11-07,2024-11-07,株式会社ゆたかマネジメント,,株式会社,兵庫県,神戸市中央区,琴ノ緒町３丁目２－２２シェワズレガリア４０２号,,28,110,6510094,,,,,,,2024-11-07,1,,,,,ユタカマネジメント,0
1626,6180001164036,新規,0,2024-11-07,2024-11-07,株式会社Ｃｅｎｔｒａｌ　Ｊａｐａｎ　Ｉｎｎｏｖａｔｉｏｎ　Ｃａｐｉｔａｌ,,株式会社,愛知県,名古屋市千種区,不老町１番,,23,101,4640814,,,,,,,2024-11-07,1,,,,,セントラルジャパンイノベーションキャピタル,0
1632,6180003027579,新規,0,2024-11-07,2024-11-07,合同会社縁光,,合同会社,愛知県,愛西市,立田町船頭平２１０番地,,23,232,4960946,,,,,,,2024-11-07,1,,,,,エンコウ,0
1633,6180305009622,新規,0,2024-11-07,2024-11-07,特定非営利活動法人縁の下の応援団,,その他の設立登記法人,愛知県,豊橋市,鍵田町１０６番地,,23,201,4400856,,,,,,,2024-11-07,1,,,,,エンノシタノオウエンダン,0
1641,6200003006571,新規,0,2024-11-07,2024-11-07,合同会社シティ,,合同会社,岐阜県,可児市,徳野南２丁目８５番地,,21,214,5090205,,,,,,,2024-11-07,1,,,,,シティ,0
1645,6240001064048,新規,0,2024-11-07,2024-11-07,株式会社翔健工業,,株式会社,広島県,福山市,駅家町大字法成寺１２５７番地８,,34,207,7202413,,,,,,,2024-11-07,1,,,,,ショウケンコウギョウ,0
1646,6240001064072,新規,0,2024-11-07,2024-11-07,株式会社メイプル,,株式会社,広島県,広島市西区,西観音町１番２２－８０５号,,34,104,7330037,,,,,,,2024-11-07,1,,,,,メイプル,0
1648,6240003006931,新規,0,2024-11-07,2024-11-07,合同会社ふぁいぶているず,,合同会社,広島県,福山市,山手町３５４７番地１,,34,207,7200092,,,,,,,2024-11-07,1,,,,,ファイブテイルズ,0
1650,6250001020883,新規,0,2024-11-07,2024-11-07,大海電機ホールディングス株式会社,,株式会社,山口県,防府市,大字田島３３３番地の５,,35,206,7470834,,,,,,,2024-11-07,1,,,,,オオミデンキホールディングス,0
1654,6260003004958,新規,0,2024-11-07,2024-11-07,合同会社響コンサルティング,,合同会社,岡山県,岡山市中区,雄町３５８番地４,,33,102,7038204,,,,,,,2024-11-07,1,,,,,ヒビキコンサルティング,0
1659,6290001107917,新規,0,2024-11-07,2024-11-07,株式会社ふかまる,,株式会社,福岡県,福岡市中央区,港２丁目１２番１６－５０３号,,40,133,8100075,,,,,,,2024-11-07,1,,,,,フカマル,0
1662,6290801031003,新規,0,2024-11-07,2024-11-07,株式会社ＧＣＴ,,株式会社,福岡県,中間市,上蓮花寺１丁目２番１号２階,,40,215,8090013,,,,,,,2024-11-07,1,,,,,ジーシーティー,0
1664,6310001019309,新規,0,2024-11-07,2024-11-07,宮本電装株式会社,,株式会社,長崎県,長崎市,毛井首町５０６番地１,,42,201,8500976,,,,,,,2024-11-07,1,,,,,ミヤモトデンソウ,0
1668,6330001032631,新規,0,2024-11-07,2024-11-07,Ｗｉｔｈ　ｙｏｕレンタリース株式会社,,株式会社,熊本県,熊本市南区,白藤１丁目２４番９４号,,43,104,8614112,,,,,,,2024-11-07,1,,,,,ウィズユーレンタリース,0
1672,6340001026905,新規,0,2024-11-07,2024-11-07,ａｎトレード株式会社,,株式会社,鹿児島県,霧島市,隼人町姫城３丁目５９番地２,,46,218,8995111,,,,,,,2024-11-07,1,,,,,アントレード,0
1673,6340001026913,新規,0,2024-11-07,2024-11-07,はやと農産株式会社,,株式会社,鹿児島県,霧島市,隼人町真孝２６１５番地２８,,46,218,8995102,,,,,,,2024-11-07,1,,,,,ハヤトノウサン,0
1677,6340003004652,新規,0,2024-11-07,2024-11-07,合同会社ＯＲ．,,合同会社,鹿児島県,垂水市,柊原４６番地５,,46,214,8912116,,,,,,,2024-11-07,1,,,,,オア,0
1680,6360001034402,新規,0,2024-11-07,2024-11-07,株式会社フジタ電設,,株式会社,沖縄県,豊見城市,字高安９３５番地,,47,212,9010242,,,,,,,2024-11-07,1,,,,,フジタデンセツ,0
1685,6370001051883,新規,0,2024-11-07,2024-11-07,株式会社秋田屋商店,,株式会社,宮城県,仙台市青葉区,水の森２丁目５番１０号水の森ハイム１０３,,04,101,9810962,,,,,,,2024-11-07,1,,,,,アキタヤショウテン,0
1686,6380001034895,新規,0,2024-11-07,2024-11-07,株式会社福海商事,,株式会社,福島県,会津若松市,滝沢町７番４８号,,07,202,9650022,,,,,,,2024-11-07,1,,,,,フクウミショウジ,0
1689,6400001016841,新規,0,2024-11-07,2024-11-07,株式会社中村生花店,,株式会社,岩手県,下閉伊郡山田町,中央町６番２３号,,03,482,0281332,,,,,,,2024-11-07,1,,,,,ナカムラセイカテン,0
1690,6410005006607,新規,0,2024-11-07,2024-11-07,無限責任鮎川村負債整理組合,,その他の設立登記法人,秋田県,由利本荘市,鮎川村,,05,210,0150000,,,,,,,2024-11-07,1,,,,,,0
1691,6420003003019,新規,0,2024-11-07,2024-11-07,ＯＡＳＩＳ合同会社,,合同会社,青森県,八戸市,大字田向字十二役１４－５９,,02,203,0310011,,,,,,,2024-11-07,1,,,,,,0
1697,6430001093011,新規,0,2024-11-07,2024-11-07,株式会社イレブン,,株式会社,北海道,室蘭市,中島町４丁目１７番２３号,,01,205,0500074,,,,,,,2024-11-07,1,,,,,イレブン,0
1705,7010001249620,新規,0,2024-11-07,2024-11-07,株式会社あさまずめ,,株式会社,東京都,文京区,関口１丁目１０番１１－２０２号,,13,105,1120014,,,,,,,2024-11-07,1,,,,,アサマズメ,0
1728,7010005039076,新規,0,2024-11-07,2024-11-07,オパール一般社団法人,,その他の設立登記法人,東京都,千代田区,丸の内１丁目４番１号東京共同会計事務所内,,13,101,1000005,,,,,,,2024-11-07,1,,,,,オパール,0
1733,7010401186249,新規,0,2024-11-07,2024-11-07,ドルーピー・イヤーズ株式会社,,株式会社,東京都,港区,南青山４丁目１６番１１号,,13,103,1070062,,,,,,,2024-11-07,1,,,,,ドルーピーイヤーズ,0
1737,7010405023729,新規,0,2024-11-07,2024-11-07,ＭＦ４ＪＰＮ４特定目的会社,,その他の設立登記法人,東京都,港区,虎ノ門３丁目２２番１０－２０１号,,13,103,1050001,,,,,,,2024-11-07,1,,,,,エムエフフォージェイピーエヌフォー,0
1741,7010501053142,新規,0,2024-11-07,2024-11-07,福澤株式会社,,株式会社,東京都,台東区,千束３丁目２６番４号,,13,106,1110031,,,,,,,2024-11-07,1,,,,,フクザワ,0
1742,7010501053150,新規,0,2024-11-07,2024-11-07,株式会社ユアシェルパ,,株式会社,東京都,台東区,浅草１丁目１３－５井門浅草すしや通りビル,,13,106,1110032,,,,,,,2024-11-07,1,,,,,ユアシェルパ,0
1743,7010502019316,新規,0,2024-11-07,2024-11-07,有限会社メディアライン,,有限会社,東京都,台東区,千束４丁目１７番１８号,,13,106,1110031,,,,,,,2024-11-07,1,,,,,メディアライン,0
1744,7010601066218,新規,0,2024-11-07,2024-11-07,ワンフレーム株式会社,,株式会社,東京都,江東区,扇橋３丁目９番１４－８０１号,,13,108,1350011,,,,,,,2024-11-07,1,,,,,ワンフレーム,0
1747,7010703007400,新規,0,2024-11-07,2024-11-07,合同会社Ａｎｎｏｌｕｃｅ,,合同会社,東京都,品川区,上大崎３丁目３―９秀和目黒駅前レジデンス７２２,,13,109,1410021,,,,,,,2024-11-07,1,,,,,アンノルーチェ,0
1748,7010801035542,新規,0,2024-11-07,2024-11-07,株式会社ｇｕ　ａｒｃｈｉｔｅｃｔｓ,,株式会社,東京都,大田区,山王２丁目５－６ＳＡＮＮＯＢＲＩＤＧＥ４Ｆ－１８,,13,111,1430023,,,,,,,2024-11-07,1,,,,,ジーユーアーキテクツ,0
1749,7010901056273,新規,0,2024-11-07,2024-11-07,株式会社ばこぱ,,株式会社,東京都,世田谷区,祖師谷１丁目５番１号,,13,112,1570072,,,,,,,2024-11-07,1,,,,,バコパ,0
1750,7010901056281,新規,0,2024-11-07,2024-11-07,株式会社エフリターン,,株式会社,東京都,世田谷区,若林１丁目１番２－４０３号,,13,112,1540023,,,,,,,2024-11-07,1,,,,,エフリターン,0
1756,7011001165618,新規,0,2024-11-07,2024-11-07,株式会社ＳＵＧ,,株式会社,東京都,渋谷区,道玄坂２丁目２１番７号,,13,113,1500043,,,,,,,2024-11-07,1,,,,,サグ,0
1757,7011001165642,新規,0,2024-11-07,2024-11-07,株式会社ｍｕｄｄｌｅｒ,,株式会社,東京都,渋谷区,東１丁目３番１－７０２号,,13,113,1500011,,,,,,,2024-11-07,1,,,,,マドラー,0
1758,7011001165758,新規,0,2024-11-07,2024-11-07,ハイブリッドメディカル株式会社,,株式会社,東京都,渋谷区,渋谷１丁目２３番２１号,,13,113,1500002,,,,,,,2024-11-07,1,,,,,ハイブリッドメディカル,0
1759,7011001165790,新規,0,2024-11-07,2024-11-07,株式会社ｃｅｅ,,株式会社,東京都,渋谷区,神宮前５丁目３４－１０－１Ｆ,,13,113,1500001,,,,,,,2024-11-07,1,,,,,シー,0
1761,7011003020309,新規,0,2024-11-07,2024-11-07,ＥＦＥＩＴＯ合同会社,,合同会社,東京都,渋谷区,千駄ヶ谷２丁目２９番８号さかえビル６０２,,13,113,1510051,,,,,,,2024-11-07,1,,,,,エフェイト,0
1762,7011101013998,新規,0,2024-11-07,2024-11-07,株式会社トオクニ,,株式会社,東京都,新宿区,下落合１丁目１５番２１号,,13,104,1610033,,,,,,,2024-11-07,1,,,,,トオクニ,0
1771,7011601028174,新規,0,2024-11-07,2024-11-07,万銀株式会社,,株式会社,東京都,練馬区,旭町１丁目８番１号サンフラワー徳力４２８号室,,13,120,1790071,,,,,,,2024-11-07,1,,,,,マンギン,0
1774,7011703004024,新規,0,2024-11-07,2024-11-07,合同会社ＳＰＩＣＥ　ＲＯＵＴＥ,,合同会社,東京都,江戸川区,小松川１丁目５番１－４０９号,,13,123,1320034,,,,,,,2024-11-07,1,,,,,スパイスルート,0
1778,7011801045093,新規,0,2024-11-07,2024-11-07,株式会社イールズ,,株式会社,東京都,葛飾区,青戸４丁目２４番２０号,,13,122,1250062,,,,,,,2024-11-07,1,,,,,イールズ,0
1779,7011801045102,新規,0,2024-11-07,2024-11-07,三農株式会社,,株式会社,東京都,葛飾区,柴又３丁目１１－１１カエデ柴又１０４,,13,122,1250052,,,,,,,2024-11-07,1,,,,,サンノウ,0
1780,7011805003403,新規,0,2024-11-07,2024-11-07,首都圏総合ユニオン,,その他の設立登記法人,東京都,葛飾区,奥戸４丁目２０－１６,,13,122,1240022,,,,,,,2024-11-07,1,,,,,シュトケンソウゴウユニオン,0
1781,7012301014142,新規,0,2024-11-07,2024-11-07,株式会社ＪＰ　Ｐａｃｉｆｉｃ,,株式会社,東京都,町田市,中町２丁目５番１７号フォーラム共栄４０１,,13,209,1940021,,,,,,,2024-11-07,1,,,,,ジェイピーパシフィック,0
1783,7012401042456,新規,0,2024-11-07,2024-11-07,データウィザード株式会社,,株式会社,東京都,多摩市,桜ヶ丘１丁目２３番地の１１,,13,224,2060013,,,,,,,2024-11-07,1,,,,,データウィザード,0
1786,7020001159884,新規,0,2024-11-07,2024-11-07,すじ株式会社,,株式会社,神奈川県,横浜市西区,北幸２丁目１０番４８号むつみビル３階,,14,103,2200004,,,,,,,2024-11-07,1,,,,,スジ,0
1789,7020003027230,新規,0,2024-11-07,2024-11-07,合同会社ＣＨＯＵＪＩＮ,,合同会社,神奈川県,川崎市川崎区,南町９番地１３－３０４,,14,131,2100015,,,,,,,2024-11-07,1,,,,,チョウジン,0
1794,7021001083678,新規,0,2024-11-07,2024-11-07,株式会社智建設,,株式会社,神奈川県,横須賀市,太田和２丁目１４番３０号,,14,201,2380311,,,,,,,2024-11-07,1,,,,,サトシケンセツ,0
1804,7040001136015,新規,0,2024-11-07,2024-11-07,株式会社コネクト,,株式会社,千葉県,柏市,布施新町３丁目４番４号,,12,217,2770823,,,,,,,2024-11-07,1,,,,,コネクト,0
1805,7040001136023,新規,0,2024-11-07,2024-11-07,Ｂｒｉｇｈｔ　Ｃａｐｉｔａｌ　Ｒｅａｌｔｙ株式会社,,株式会社,千葉県,市川市,市川３丁目２０番３号,,12,203,2720034,,,,,,,2024-11-07,1,,,,,ブライトキャピタルリアリティ,0
1806,7040001136056,新規,0,2024-11-07,2024-11-07,錦騰商事株式会社,,株式会社,千葉県,柏市,松ケ崎１１９１番地４８,,12,217,2770835,,,,,,,2024-11-07,1,,,,,キントウショウジ,0
1810,7050001055627,新規,0,2024-11-07,2024-11-07,株式会社Ｓｏｌｆ,,株式会社,茨城県,古河市,本町２丁目５－３９,,08,204,3060023,,,,,,,2024-11-07,1,,,,,ソルフ,0
1814,7060001037632,新規,0,2024-11-07,2024-11-07,オンネア株式会社,,株式会社,栃木県,鹿沼市,貝島町５８７番地１レジデンス大森Ａ１０２,,09,205,3220027,,,,,,,2024-11-07,1,,,,,オンネア,0
1818,7080101025106,新規,0,2024-11-07,2024-11-07,株式会社ＳＵＮＮＹ,,株式会社,静岡県,伊豆市,下白岩３１４番地の８ベルハイツ１０２号,,22,222,4102501,,,,,,,2024-11-07,1,,,,,サニー,0
1819,7080101025114,新規,0,2024-11-07,2024-11-07,株式会社凜,,株式会社,静岡県,富士宮市,宮原３１０番地の６,,22,207,4180005,,,,,,,2024-11-07,1,,,,,リン,0
1820,7080105006465,新規,0,2024-11-07,2024-11-07,社会保険労務士法人杉村労務,,その他の設立登記法人,静岡県,伊東市,音無町６番１７号,,22,208,4140032,,,,,,,2024-11-07,1,,,,,スギムラロウム,0
1821,7080401027553,新規,0,2024-11-07,2024-11-07,株式会社学びのＭ＆Ａ,,株式会社,静岡県,浜松市中央区,旭町６番地の１一条タワー９０３号,,22,138,4300927,,,,,,,2024-11-07,1,,,,,マナビノエムアンドエー,0
1822,7080403005136,新規,0,2024-11-07,2024-11-07,ＬｅｘｉＣａｒｅ合同会社,,合同会社,静岡県,浜松市中央区,佐鳴台１丁目２３番２０－２０６号,,22,138,4328021,,,,,,,2024-11-07,1,,,,,レクシケア,0
1827,7090001018984,新規,0,2024-11-07,2024-11-07,株式会社コークーリエ,,株式会社,山梨県,南巨摩郡富士川町,小林３８０－１ジー・アール株式会社本社内,,19,368,4000504,,,,,,,2024-11-07,1,,,,,,0
1830,7100001037999,新規,0,2024-11-07,2024-11-07,株式会社Ｍ．ｓｔｙｌｅ,,株式会社,長野県,安曇野市,三郷小倉６０６６番地１６,,20,220,3998103,,,,,,,2024-11-07,1,,,,,エムスタイル,0
1831,7100001038007,新規,0,2024-11-07,2024-11-07,匠フーズ株式会社,,株式会社,長野県,須坂市,大字幸高２４６番地,,20,207,3820000,,,,,,,2024-11-07,1,,,,,タクミフーズ,0
1842,7120001269863,新規,0,2024-11-07,2024-11-07,睿智佳人株式会社,,株式会社,大阪府,大阪市生野区,中川５丁目９－１３,,27,116,5440005,,,,,,,2024-11-07,1,,,,,レイチカジン,0
1843,7120001270029,新規,0,2024-11-07,2024-11-07,株式会社Ｃａｍｅｌ,,株式会社,大阪府,大阪市中央区,心斎橋筋１丁目２番２２号,,27,128,5420085,,,,,,,2024-11-07,1,,,,,カメル,0
1844,7120001270045,新規,0,2024-11-07,2024-11-07,遇安国際株式会社,,株式会社,大阪府,大阪市天王寺区,空清町４－１１杉野ビル５０４号,,27,109,5430018,,,,,,,2024-11-07,1,,,,,グウアンコクサイ,0
1845,7120001270053,新規,0,2024-11-07,2024-11-07,株式会社ミユ,,株式会社,大阪府,大阪市中央区,南久宝寺町２丁目５番７－１３０２号,,27,128,5410058,,,,,,,2024-11-07,1,,,,,ミユ,0
1846,7120001270103,新規,0,2024-11-07,2024-11-07,株式会社２Ｔｈｒｅｅ．ｌａｂ,,株式会社,大阪府,大阪市北区,長柄西１丁目３番５４－６１７号,,27,127,5310061,,,,,,,2024-11-07,1,,,,,ツースリーラボ,0
1850,7120003027889,新規,0,2024-11-07,2024-11-07,合同会社ハウスクルー,,合同会社,大阪府,大阪市中央区,東心斎橋２丁目５番１０号八幡筋ギャラクシービル２号館９０１号室,,27,128,5420083,,,,,,,2024-11-07,1,,,,,ハウスクルー,0
1851,7120101070519,新規,0,2024-11-07,2024-11-07,ＫＩＮＧ　ＲＯＡＤ　Ｌｏｇｉｓｔｉｃｓ株式会社,,株式会社,大阪府,堺市西区,浜寺石津町東４丁９番２１－５号,,27,144,5928335,,,,,,,2024-11-07,1,,,,,キングロードロジスティックス,0
1852,7120101070527,新規,0,2024-11-07,2024-11-07,ＵＢＫ　ＪＡＰＡＮ株式会社,,株式会社,大阪府,岸和田市,小松里町２２６７番地,,27,202,5960821,,,,,,,2024-11-07,1,,,,,ユービーケイジャパン,0
1853,7120101070551,新規,0,2024-11-07,2024-11-07,株式会社電創,,株式会社,大阪府,泉大津市,上之町７番１３－２号,,27,206,5950046,,,,,,,2024-11-07,1,,,,,デンソウ,0
1854,7120103006124,新規,0,2024-11-07,2024-11-07,合同会社カウント,,合同会社,大阪府,松原市,阿保２丁目２９番地の９,,27,217,5800043,,,,,,,2024-11-07,1,,,,,カウント,0
1857,7120901049992,新規,0,2024-11-07,2024-11-07,Ｔと凹株式会社,,株式会社,大阪府,豊中市,穂積１丁目４－５－Ｂ,,27,203,5610856,,,,,,,2024-11-07,1,,,,,ティートボコ,0
1859,7122005003785,新規,0,2024-11-07,2024-11-07,特定非営利活動法人Ｔ‐ｃｏｌｏｒ,,その他の設立登記法人,大阪府,八尾市,西高安町３丁目７,,27,212,5810852,,,,,,,2024-11-07,1,,,,,ティーカラー,0
1866,7140001136335,新規,0,2024-11-07,2024-11-07,株式会社リバースタート,,株式会社,兵庫県,宝塚市,山本丸橋３丁目２番７－５０２号,,28,214,6650815,,,,,,,2024-11-07,1,,,,,リバースタート,0
1867,7140001136368,新規,0,2024-11-07,2024-11-07,株式会社ＡＫＩＳＥＩ,,株式会社,兵庫県,神戸市須磨区,権現町３丁目７番２号,,28,107,6540031,,,,,,,2024-11-07,1,,,,,アキセイ,0
1873,7140003021270,新規,0,2024-11-07,2024-11-07,シエリア合同会社,,合同会社,兵庫県,神戸市中央区,下手山通四丁目１３番１２－８０４号,,28,110,6500000,,,,,,,2024-11-07,1,,,,,シエリア,0
1874,7140003021295,新規,0,2024-11-07,2024-11-07,合同会社シャイニング,,合同会社,兵庫県,神戸市中央区,磯辺通１丁目１番１８号－７０７号室,,28,110,6510084,,,,,,,2024-11-07,1,,,,,シャイニング,0
1875,7140005027258,新規,0,2024-11-07,2024-11-07,特定非営利活動法人投資詐欺被害者の会,,その他の設立登記法人,兵庫県,丹波篠山市,東本荘４２８,,28,221,6692403,,,,,,,2024-11-07,1,,,,,トウシサギヒガイシャノカイ,0
1893,7180001163920,新規,0,2024-11-07,2024-11-07,株式会社Ｒ＆Ｄ,,株式会社,愛知県,名古屋市西区,八筋町６２番地葵３０２号,,23,104,4520815,,,,,,,2024-11-07,1,,,,,アールアンドディー,0
1894,7180001164010,新規,0,2024-11-07,2024-11-07,あいち化粧品株式会社,,株式会社,愛知県,清須市,西枇杷島町上新３１番地２アークハイツ１０,,23,233,4520022,,,,,,,2024-11-07,1,,,,,アイチケショウヒン,0
1895,7180001164019,新規,0,2024-11-07,2024-11-07,株式会社零,,株式会社,愛知県,一宮市,開明字南井保里３５番地１,,23,203,4940001,,,,,,,2024-11-07,1,,,,,ゼロ,0
1896,7180001164035,新規,0,2024-11-07,2024-11-07,デザインライフ株式会社,,株式会社,愛知県,日進市,浅田町上ノ山３２番地１０,,23,230,4700124,,,,,,,2024-11-07,1,,,,,デザインライフ,0
1897,7180001164043,新規,0,2024-11-07,2024-11-07,ＨＯＭＥＳＥＡＬＳ株式会社,,株式会社,愛知県,北名古屋市,高田寺１６００番地５８,,23,234,4810011,,,,,,,2024-11-07,1,,,,,ホームシールズ,0
1900,7180003027578,新規,0,2024-11-07,2024-11-07,合同会社ＫＷＴ,,合同会社,愛知県,名古屋市北区,杉村１丁目２７番１４号,,23,103,4620835,,,,,,,2024-11-07,1,,,,,ケーダブリュティー,0
1901,7180003027586,新規,0,2024-11-07,2024-11-07,合同会社ゆりのはな,,合同会社,愛知県,小牧市,小松寺３丁目８０番地,,23,219,4850828,,,,,,,2024-11-07,1,,,,,ユリノハナ,0
1902,7180003027594,新規,0,2024-11-07,2024-11-07,合同会社Ｃｌｅｆ　Ｏｎｚｅ,,合同会社,愛知県,名古屋市中村区,塩池町１丁目１１番１４号,,23,105,4530032,,,,,,,2024-11-07,1,,,,,クレオンズ,0
1908,7200001043095,新規,0,2024-11-07,2024-11-07,株式会社ＩＣＨＩＤＥＮ,,株式会社,岐阜県,恵那市,大井町２２３６番地２９３,,21,210,5097201,,,,,,,2024-11-07,1,,,,,イチデン,0
1909,7200005013680,新規,0,2024-11-07,2024-11-07,社会保険労務士法人増田事務所,,その他の設立登記法人,岐阜県,大垣市,川口２丁目３２１番地,,21,202,5030941,,,,,,,2024-11-07,1,,,,,マスダジムショ,0
1915,7240003006930,新規,0,2024-11-07,2024-11-07,合同会社ＹＴコンサルティング,,合同会社,広島県,福山市,瀬戸町大字地頭分４４２番地１,,34,207,7200837,,,,,,,2024-11-07,1,,,,,ワイティコンサルティング,0
1916,7250001020866,新規,0,2024-11-07,2024-11-07,株式会社ＢＯＯＳＴ　ＳＷＩＴＣＨ,,株式会社,山口県,周南市,大字櫛ヶ浜１３－２１,00136906,35,215,7450805,,,,,,,2024-11-07,1,,,,,ブーストスイッチ,0
1917,7250001020882,新規,0,2024-11-07,2024-11-07,株式会社ＭＩＮＮＡ,,株式会社,山口県,下関市,大字延行４番地１１,,35,201,7510867,,,,,,,2024-11-07,1,,,,,ミンナ,0
1925,7290801031002,新規,0,2024-11-07,2024-11-07,株式会社玉建,,株式会社,福岡県,行橋市,大字津留８２４番地１,,40,213,8240016,,,,,,,2024-11-07,1,,,,,ヒスイケン,0
1927,7330001032622,新規,0,2024-11-07,2024-11-07,株式会社ＭＦ,,株式会社,熊本県,熊本市西区,春日２丁目１１番７－１２０３号,,43,103,8600047,,,,,,,2024-11-07,1,,,,,エムエフ,0
1930,7350001019270,新規,0,2024-11-07,2024-11-07,株式会社ＬＯＧ　ＬＩＦＥ,,株式会社,宮崎県,延岡市,下伊形町７３３１番地２,,45,203,8890504,,,,,,,2024-11-07,1,,,,,ログライフ,0
1932,7360003014442,新規,0,2024-11-07,2024-11-07,合同会社Ｋ．Ｎプラン,,合同会社,沖縄県,宜野湾市,大山４丁目９番１号３Ｆ,,47,205,9012223,,,,,,,2024-11-07,1,,,,,ケーエヌプラン,0
1947,7430001093002,新規,0,2024-11-07,2024-11-07,ＡＦＲ株式会社,,株式会社,北海道,札幌市中央区,北六条西２６丁目２番１１－５０９号,,01,101,0640826,,,,,,,2024-11-07,1,,,,,エーエフアール,0
1948,7430001093027,新規,0,2024-11-07,2024-11-07,株式会社Ｓ．Ｓ．Ｌｉｎｋ,,株式会社,北海道,札幌市西区,山の手六条１丁目１番２５－３１２号,,01,107,0630006,,,,,,,2024-11-07,1,,,,,エスエスリンク,0
1949,7430001093035,新規,0,2024-11-07,2024-11-07,株式会社長門自動車,,株式会社,北海道,札幌市北区,東茨戸二条１丁目２０番５号,,01,102,0028042,,,,,,,2024-11-07,1,,,,,ナガトジドウシャ,0
1950,7430003016976,新規,0,2024-11-07,2024-11-07,合同会社ＹＡＭＡＢＩＫＯ,,合同会社,北海道,札幌市中央区,南四条西２０丁目１番１５－３０１号,,01,101,0640804,,,,,,,2024-11-07,1,,,,,ヤマビコ,0
1962,8010001249693,新規,0,2024-11-07,2024-11-07,株式会社アルファコンサル,,株式会社,東京都,千代田区,二番町１番地２,,13,101,1020084,,,,,,,2024-11-07,1,,,,,アルファコンサル,0
1965,8010003045372,新規,0,2024-11-07,2024-11-07,合同会社ｆａｎｔａｓｉｓｔａ　ｔｏｋｙｏ　ＰＳＳ,,合同会社,東京都,中央区,銀座３丁目１０番６号マルイト銀座第３ビル８階,,13,102,1040061,,,,,,,2024-11-07,1,,,,,ファンタジスタトウキョウピーエスエス,0
1966,8010003045380,新規,0,2024-11-07,2024-11-07,ＢＳＰプロパティファンド１号合同会社,,合同会社,東京都,千代田区,九段南１丁目６番５号九段会館テラス,,13,101,1020074,,,,,,,2024-11-07,1,,,,,ビーエスピープロパティファンドイチゴウ,0
1967,8010003045389,新規,0,2024-11-07,2024-11-07,合同会社ツリーオブライフ,,合同会社,東京都,文京区,千駄木３丁目４３番３号,,13,105,1130022,,,,,,,2024-11-07,1,,,,,ツリーオブライフ,0
2003,8010403033729,新規,0,2024-11-07,2024-11-07,お台場ホテルマネジメント合同会社,,合同会社,東京都,港区,六本木１丁目６番１号泉ガーデンタワー,,13,103,1060032,,,,,,,2024-11-07,1,,,,,オダイバホテルマネジメント,0
2005,8010601066183,新規,0,2024-11-07,2024-11-07,株式会社ＦＬＴ,,株式会社,東京都,江東区,大島８丁目２８番５－２５０４号,,13,108,1360072,,,,,,,2024-11-07,1,,,,,エフエルティ,0
2007,8010603011195,新規,0,2024-11-07,2024-11-07,カンジャノキモチ合同会社,,合同会社,東京都,江東区,亀戸５丁目１番６－１０１２号,,13,108,1360071,,,,,,,2024-11-07,1,,,,,カンジャノキモチ,0
2008,8010701046779,新規,0,2024-11-07,2024-11-07,株式会社Ｍｅ　ａｎｄ,,株式会社,東京都,品川区,平塚１丁目２番１６－５０２号,,13,109,1420051,,,,,,,2024-11-07,1,,,,,ミーアンド,0
2010,8010901056272,新規,0,2024-11-07,2024-11-07,株式会社アルア,,株式会社,東京都,世田谷区,用賀４丁目２９番５号,,13,112,1580097,,,,,,,2024-11-07,1,,,,,アルア,0
2011,8010901056280,新規,0,2024-11-07,2024-11-07,株式会社プラマーケ,,株式会社,東京都,世田谷区,松原１丁目２３番２号セルリジェール２０４,,13,112,1560043,,,,,,,2024-11-07,1,,,,,プラマーケ,0
2012,8010901056289,新規,0,2024-11-07,2024-11-07,ＴＫＭマネジメント株式会社,,株式会社,東京都,世田谷区,桜上水１丁目２８番１５号,,13,112,1560045,,,,,,,2024-11-07,1,,,,,ティーケーエムマネジメント,0
2016,8011001165625,新規,0,2024-11-07,2024-11-07,リビルドテクノロジー株式会社,,株式会社,東京都,渋谷区,神宮前６丁目２３番４号桑野ビル２階,,13,113,1500001,,,,,,,2024-11-07,1,,,,,リビルテクノロジー,0
2017,8011001165633,新規,0,2024-11-07,2024-11-07,株式会社ＭＯＯＯＯＦ,,株式会社,東京都,渋谷区,道玄坂１丁目１０番８号渋谷道玄坂東急ビル２Ｆ－Ｃ,,13,113,1500043,,,,,,,2024-11-07,1,,,,,ムーフ,0
2018,8011001165773,新規,0,2024-11-07,2024-11-07,株式会社ｂｅａｇｌｅ,,株式会社,東京都,渋谷区,神宮前５丁目２７番８号,,13,113,1500001,,,,,,,2024-11-07,1,,,,,ビーグル,0
2019,8011001165807,新規,0,2024-11-07,2024-11-07,ＯＸＹＮ株式会社,,株式会社,東京都,渋谷区,神宮前６丁目２３番４号桑野ビル２階,,13,113,1500001,,,,,,,2024-11-07,1,,,,,オキシン,0
2021,8011003020308,新規,0,2024-11-07,2024-11-07,合同会社ＯＴＯ,,合同会社,東京都,目黒区,目黒本町２丁目１４番５号,,13,110,1520002,,,,,,,2024-11-07,1,,,,,オト,0
2022,8011003020316,新規,0,2024-11-07,2024-11-07,エスマスト合同会社,,合同会社,東京都,渋谷区,道玄坂１丁目１０番８号渋谷道玄坂東急ビル２Ｆ－Ｃ,,13,113,1500043,,,,,,,2024-11-07,1,,,,,エスマスト,0
2028,8011101109440,新規,0,2024-11-07,2024-11-07,株式会社ジャービス＆ヴィランズ,,株式会社,東京都,新宿区,新宿７丁目２６番３７－７０１号,,13,104,1600022,,,,,,,2024-11-07,1,,,,,ジャービスアンドヴィランズ,0
2029,8011401026567,新規,0,2024-11-07,2024-11-07,株式会社スプリード,,株式会社,東京都,板橋区,大谷口上町１３番８－３０３号,,13,119,1730032,,,,,,,2024-11-07,1,,,,,スプリード,0
2037,8011801045101,新規,0,2024-11-07,2024-11-07,康域株式会社,,株式会社,東京都,葛飾区,柴又３丁目１１－１１カエデ柴又１０１,,13,122,1250052,,,,,,,2024-11-07,1,,,,,コウイキ,0
2040,8011803006539,新規,0,2024-11-07,2024-11-07,東楓国際合同会社,,合同会社,東京都,葛飾区,新小岩４丁目４５－６,,13,122,1240024,,,,,,,2024-11-07,1,,,,,トウフウコクサイ,0
2045,8013101009554,新規,0,2024-11-07,2024-11-07,株式会社ラクショウ,,株式会社,東京都,あきる野市,油平２３番地１１,,13,228,1970827,,,,,,,2024-11-07,1,,,,,ラクショウ,0
2056,8020001159917,新規,0,2024-11-07,2024-11-07,株式会社アットシービーディー,,株式会社,神奈川県,川崎市川崎区,砂子２丁目１－７太陽軒ビル５階,,14,131,2100006,,,,,,,2024-11-07,1,,,,,アットシービーディー,0
2057,8020001159958,新規,0,2024-11-07,2024-11-07,株式会社ＢＬＯＯＭ,,株式会社,神奈川県,横浜市神奈川区,羽沢町１０４４番地１６,,14,102,2210863,,,,,,,2024-11-07,1,,,,,ブルーム,0
2058,8020001160016,新規,0,2024-11-07,2024-11-07,株式会社ＪＩＭ＆Ｃｏ．,,株式会社,神奈川県,横浜市港北区,新横浜３丁目７－７ＡｒｅｎａＳｔＢｌｄｇ３Ｆ,,14,109,2220033,,,,,,,2024-11-07,1,,,,,ジムアンドコー,0
2070,8030003025439,新規,0,2024-11-07,2024-11-07,合同会社Ｇ‐ＰＲＯ,,合同会社,埼玉県,さいたま市岩槻区,本町２丁目３番１１号,,11,110,3390057,,,,,,,2024-11-07,1,,,,,ジープロ,0
2074,8040001136030,新規,0,2024-11-07,2024-11-07,株式会社アキラ興業,,株式会社,千葉県,市原市,海士有木１１６番地,,12,219,2900207,,,,,,,2024-11-07,1,,,,,アキラコウギョウ,0
2075,8040001136039,新規,0,2024-11-07,2024-11-07,株式会社誠華,,株式会社,千葉県,市原市,今津朝山２５１番地８,,12,219,2990106,,,,,,,2024-11-07,1,,,,,セイカ,0
2076,8040001136047,新規,0,2024-11-07,2024-11-07,株式会社ゆるやかステップ,,株式会社,千葉県,千葉市美浜区,中瀬１丁目３番地幕張テクノガーデンＣＢ棟３階ＭＢＰ,,12,106,2610023,,,,,,,2024-11-07,1,,,,,ユルヤカステップ,0
2078,8040003026106,新規,0,2024-11-07,2024-11-07,合同会社誠,,合同会社,千葉県,市川市,南行徳１丁目１１番１８－３０１号（ｍｉｎｄｈｏｕｓｅＯｓＩＩ）,00136909,12,203,2720138,,,,,,,2024-11-07,1,,,,,マコト,0
2079,8040003026114,新規,0,2024-11-07,2024-11-07,ＡＮＨＡ　ＴＲＡＤＩＮＧ合同会社,,合同会社,千葉県,山武市,木原９３８番地８７,,12,237,2891212,,,,,,,2024-11-07,1,,,,,アンハトレーディング,0
2087,8060001037631,新規,0,2024-11-07,2024-11-07,株式会社ＴＥＴＲＯＳ,,株式会社,栃木県,宇都宮市,インターパーク１丁目８番地８,,09,201,3210118,,,,,,,2024-11-07,1,,,,,テトロス,0
2089,8070001042333,新規,0,2024-11-07,2024-11-07,株式会社Ｃ　ｆｏｒ　Ｃ,,株式会社,群馬県,甘楽郡甘楽町,大字小幡１０７０番地３,,10,384,3702202,,,,,,,2024-11-07,1,,,,,シーフォーシー,0
2090,8080001026582,新規,0,2024-11-07,2024-11-07,バオデザインスタジオ株式会社,,株式会社,静岡県,静岡市清水区,谷田１０番５号Ｔｉｍｅｌａｐｓｅ谷田１０３,,22,103,4240887,,,,,,,2024-11-07,1,,,,,バオデザインスタジオ,0
2091,8080101025113,新規,0,2024-11-07,2024-11-07,株式会社秋山,,株式会社,静岡県,三島市,安久３０２番地,,22,206,4110815,,,,,,,2024-11-07,1,,,,,アキヤマ,0
2100,8100001037998,新規,0,2024-11-07,2024-11-07,株式会社Ｒ‐Ｗｏｒｋｓ,,株式会社,長野県,松本市,大字笹賀５４０番地４,,20,202,3990033,,,,,,,2024-11-07,1,,,,,アールワークス,0
2101,8100001038006,新規,0,2024-11-07,2024-11-07,株式会社ＫＡＬＵＧＩＩ,,株式会社,長野県,松本市,高宮北１７番９号パインコート高宮北Ｉ１０２号室,00136921,20,202,3900836,,,,,,,2024-11-07,1,,,,,カルギイ,0
2102,8100005013252,新規,0,2024-11-07,2024-11-07,一般社団法人白馬八方尾根スキースクール,,その他の設立登記法人,長野県,北安曇郡白馬村,大字北城３９０１番地,,20,485,3999301,,,,,,,2024-11-07,1,,,,,ハクバハッポウオネスキースクール,0
2103,8110001038822,新規,0,2024-11-07,2024-11-07,株式会社トヤマコーポレーション,,株式会社,新潟県,新潟市中央区,親松１７８番地１１,,15,103,9500952,,,,,,,2024-11-07,1,,,,,トヤマコーポレーション,0
2104,8110001038830,新規,0,2024-11-07,2024-11-07,株式会社北翔,,株式会社,新潟県,新発田市,佐々木２６２１番地１,,15,206,9570082,,,,,,,2024-11-07,1,,,,,ホクショウ,0
2105,8110003005572,新規,0,2024-11-07,2024-11-07,合同会社杵渕建築,,合同会社,新潟県,長岡市,長倉西町１３１番地１,,15,202,9400849,,,,,,,2024-11-07,1,,,,,キネフチケンチク,0
2106,8110005017153,新規,0,2024-11-07,2024-11-07,特定非営利活動法人成長の森,,その他の設立登記法人,新潟県,南蒲原郡田上町,大字川船河甲１３５０番地２００,,15,361,9591513,,,,,,,2024-11-07,1,,,,,セイチョウノモリ,0
2114,8120001269978,新規,0,2024-11-07,2024-11-07,株式会社ＳＴＡＮＤ　ＵＰ,,株式会社,大阪府,大阪市浪速区,日本橋３丁目１番２７号,,27,111,5560005,,,,,,,2024-11-07,1,,,,,スタンドアップ,0
2115,8120001269986,新規,0,2024-11-07,2024-11-07,株式会社シンバ,,株式会社,大阪府,大阪市生野区,巽東４丁目５番１０号,00136911,27,116,5440014,,,,,,,2024-11-07,1,,,,,シンバ,0
2116,8120001270028,新規,0,2024-11-07,2024-11-07,株式会社アストラプロ,,株式会社,大阪府,大阪市北区,東天満２丁目２－５第２新興ビル３０１,,27,127,5300044,,,,,,,2024-11-07,1,,,,,アストラプロ,0
2117,8120001270044,新規,0,2024-11-07,2024-11-07,株式会社ａｎｔｉｑｕｅ,,株式会社,大阪府,大阪市中央区,南船場３丁目２番２８号ＮＩＰＰＯタイヨービル５１１,,27,128,5420081,,,,,,,2024-11-07,1,,,,,アンティーク,0
2118,8120001270127,新規,0,2024-11-07,2024-11-07,雪域株式会社,,株式会社,大阪府,大阪市西淀川区,福町２丁目３番２１号２階,,27,113,5550034,,,,,,,2024-11-07,1,,,,,ユキイキ,0
2119,8120001270151,新規,0,2024-11-07,2024-11-07,株式会社ＧＭ　Ｏｆｆｉｃｅ,,株式会社,大阪府,大阪市中央区,高麗橋２丁目３番１５号ＲＥ北浜ビルディング,,27,128,5410043,,,,,,,2024-11-07,1,,,,,ジーエムオフィス,0
2121,8120003027905,新規,0,2024-11-07,2024-11-07,ネクストブレイン合同会社,,合同会社,大阪府,大阪市中央区,内久宝寺町４丁目１番７－２７０５号,,27,128,5400013,,,,,,,2024-11-07,1,,,,,ネクストブレイン,0
2124,8120101070518,新規,0,2024-11-07,2024-11-07,株式会社吉建,,株式会社,大阪府,堺市北区,中百舌鳥町５丁７４４番地,,27,146,5918023,,,,,,,2024-11-07,1,,,,,ヨシケン,0
2125,8120101070526,新規,0,2024-11-07,2024-11-07,それいけ株式会社,,株式会社,大阪府,堺市堺区,南花田口町２丁３番２０号三共堺東ビル６階,,27,141,5900075,,,,,,,2024-11-07,1,,,,,ソレイケ,0
2126,8120101070550,新規,0,2024-11-07,2024-11-07,株式会社ユビスイ,,株式会社,大阪府,泉大津市,寿町８番１８－２０１号,,27,206,5950014,,,,,,,2024-11-07,1,,,,,ユビスイ,0
2130,8120901049991,新規,0,2024-11-07,2024-11-07,株式会社Ｔｅｅ　Ａｒｒｏｗｓ,,株式会社,大阪府,茨木市,西太田町２４－３,,27,211,5670015,,,,,,,2024-11-07,1,,,,,ティアローズ,0
2131,8120901050000,新規,0,2024-11-07,2024-11-07,株式会社Ｕａｎ,,株式会社,大阪府,茨木市,田中町１２番３３－３０３号,,27,211,5670025,,,,,,,2024-11-07,1,,,,,ユーアン,0
2141,8130001078214,新規,0,2024-11-07,2024-11-07,株式会社Ｓ＆Ｋエステート,,株式会社,京都府,京都市西京区,川島調子町７３番地２５,,26,111,6158125,,,,,,,2024-11-07,1,,,,,エスアンドケーエステート,0
2144,8130003009976,新規,0,2024-11-07,2024-11-07,合同会社Ｌｕｃｋｙ　ｒａｂｂｉｔ,,合同会社,京都府,京都市西京区,大枝北沓掛町１丁目５番地１サンシティー桂坂ロイヤル壱番館３０７,,26,111,6101101,,,,,,,2024-11-07,1,,,,,ラッキーラビット,0
2151,8140001136318,新規,0,2024-11-07,2024-11-07,株式会社ＯＮＯ,,株式会社,兵庫県,南あわじ市,松帆高屋甲１４番地,,28,224,6560315,,,,,,,2024-11-07,1,,,,,オノ,0
2152,8140001136326,新規,0,2024-11-07,2024-11-07,栄塗建株式会社,,株式会社,兵庫県,神戸市西区,平野町印路６５７番地,,28,111,6512266,,,,,,,2024-11-07,1,,,,,サカエトケン,0
2153,8140001136334,新規,0,2024-11-07,2024-11-07,ＫＯＴＯ３Ｄ株式会社,,株式会社,兵庫県,姫路市,南町６３番地,,28,201,6700912,,,,,,,2024-11-07,1,,,,,コトスリーディー,0
2155,8150001027648,新規,0,2024-11-07,2024-11-07,株式会社Ｓ‐ＴＵＲＫＡ,,株式会社,奈良県,奈良市,富雄川西１丁目３１番２号,,29,201,6310077,,,,,,,2024-11-07,1,,,,,エスツルカ,0
2156,8150001027656,新規,0,2024-11-07,2024-11-07,鈴木電設株式会社,,株式会社,奈良県,生駒市,あすか野北２丁目１４－１６,,29,209,6300134,,,,,,,2024-11-07,1,,,,,スズキデンセツ,0
2159,8160005011358,新規,0,2024-11-07,2024-11-07,社会保険労務士法人ＴＥＲＡＳ,,その他の設立登記法人,滋賀県,大津市,中央３丁目４番２８号,,25,201,5200043,,,,,,,2024-11-07,1,,,,,テラス,0
2169,8180001163985,新規,0,2024-11-07,2024-11-07,株式会社Ｓｎｏｗ　Ｗｈｉｔｅ,,株式会社,愛知県,名古屋市東区,徳川１丁目８番４１号ＡＶＡＮＴＹＴＯＫＵＧＡＷＡ３０３,,23,102,4610025,,,,,,,2024-11-07,1,,,,,スノーホワイト,0
2170,8180001163993,新規,0,2024-11-07,2024-11-07,株式会社ＲｏｏｔＢｏｏｋ,,株式会社,愛知県,清須市,土器野１７３番地３,,23,233,4520914,,,,,,,2024-11-07,1,,,,,ルートブック,0
2171,8180001164001,新規,0,2024-11-07,2024-11-07,株式会社サイビット,,株式会社,愛知県,名古屋市南区,前浜通７丁目１５番地ヤマダビル３Ｆ,,23,112,4570058,,,,,,,2024-11-07,1,,,,,サイビット,0
2172,8180001164042,新規,0,2024-11-07,2024-11-07,株式会社アブリバ,,株式会社,愛知県,名古屋市瑞穂区,松月町２丁目２２番地,,23,108,4670004,,,,,,,2024-11-07,1,,,,,アブリバ,0
2176,8180003027577,新規,0,2024-11-07,2024-11-07,合同会社パインローズ,,合同会社,愛知県,名古屋市守山区,西島町２２番５号ラ・ヴァンス瓢箪山２０２号,,23,113,4630015,,,,,,,2024-11-07,1,,,,,パインローズ,0
2181,8190001031786,新規,0,2024-11-07,2024-11-07,株式会社ＲｅＲｅ,,株式会社,三重県,伊勢市,楠部町４６番地１０,,24,203,5160014,,,,,,,2024-11-07,1,,,,,レレ,0
2190,8230001020603,新規,0,2024-11-07,2024-11-07,株式会社ＡＵＴＯ　ＬＩＮＸ,,株式会社,富山県,富山市,呉羽町６９２７番地１７,,16,201,9300138,,,,,,,2024-11-07,1,,,,,オートリンクス,0
2191,8230001020611,新規,0,2024-11-07,2024-11-07,株式会社志田健リフォーム,,株式会社,富山県,射水市,小島８番地２,,16,211,9390274,,,,,,,2024-11-07,1,,,,,シダケンリフォーム,0
2195,8240001064054,新規,0,2024-11-07,2024-11-07,株式会社ＫＯＺＩ,,株式会社,広島県,広島市安佐北区,可部南２丁目３番４７号,,34,106,7310223,,,,,,,2024-11-07,1,,,,,コージ,0
2196,8240001064062,新規,0,2024-11-07,2024-11-07,株式会社播磨建設工業,,株式会社,広島県,東広島市,高屋町高屋堀２４１５番地１６,,34,212,7392111,,,,,,,2024-11-07,1,,,,,ハリマケンセツコウギョウ,0
2198,8240005015854,新規,0,2024-11-07,2024-11-07,土地家屋調査士法人大山事務所,,その他の設立登記法人,広島県,福山市,神辺町新湯野５４番地８,,34,207,7210000,,,,,,,2024-11-07,1,,,,,オオヤマジムショ,0
2199,8250001020881,新規,0,2024-11-07,2024-11-07,株式会社ｍａｗａｒｉ,,株式会社,山口県,下関市,秋根上町３丁目２番３６号ＫＳビル１０１号,,35,201,7510878,,,,,,,2024-11-07,1,,,,,マワリ,0
2214,8290003016040,新規,0,2024-11-07,2024-11-07,合同会社ファファラ,,合同会社,福岡県,福岡市中央区,大名２丁目１０－３８ディー・ウィングタワー１３０３,,40,133,8100041,,,,,,,2024-11-07,1,,,,,ファファラ,0
2215,8290801031018,新規,0,2024-11-07,2024-11-07,株式会社Ｏｆｆｉｃｅ‐Ｇ,,株式会社,福岡県,北九州市小倉北区,若富士町５番１８－３０３号,,40,106,8020063,,,,,,,2024-11-07,1,,,,,オフィスジー,0
2220,8340001026894,新規,0,2024-11-07,2024-11-07,株式会社ぬたぐみ,,株式会社,鹿児島県,薩摩川内市,入来町浦之名３２６８番地,,46,215,8951402,,,,,,,2024-11-07,1,,,,,ヌタグミ,0
2222,8340003004650,新規,0,2024-11-07,2024-11-07,Ｓａｎｃ合同会社,,合同会社,鹿児島県,鹿児島市,小川町２２－６プランドール小川町４０２,,46,201,8920817,,,,,,,2024-11-07,1,,,,,サンク,0
2223,8350001019278,新規,0,2024-11-07,2024-11-07,株式会社副田工業,,株式会社,宮崎県,宮崎市,村角町長山２８２３番地２,,45,201,8800837,,,,,,,2024-11-07,1,,,,,ソエダコウギョウ,0
2229,8370001051881,新規,0,2024-11-07,2024-11-07,株式会社宮谷,,株式会社,宮城県,仙台市青葉区,春日町３番１６号,,04,101,9800821,,,,,,,2024-11-07,1,,,,,ミヤタニ,0
2236,8390003002303,新規,0,2024-11-07,2024-11-07,合同会社Ｆｕｇａ,,合同会社,山形県,山形市,銅町１丁目５番１９号,,06,201,9900051,,,,,,,2024-11-07,1,,,,,フウガ,0
2247,8430001092993,新規,0,2024-11-07,2024-11-07,Ｋｕｒｏｊｉ経営株式会社,,株式会社,北海道,札幌市中央区,北四条東１丁目１番地１シティタワー札幌１４０６号,,01,101,0600034,,,,,,,2024-11-07,1,,,,,クロジケイエイ,0
2268,9010001249619,新規,0,2024-11-07,2024-11-07,ＧＸ株式会社,,株式会社,東京都,千代田区,紀尾井町３番２９号ＮＧＡ紀尾井町ビル４階,,13,101,1020094,,,,,,,2024-11-07,1,,,,,ジーエックス,0
2269,9010001249668,新規,0,2024-11-07,2024-11-07,ヤマグチレーシング株式会社,,株式会社,東京都,千代田区,九段南１丁目５番６号りそな九段ビル５階ＫＳフロア,,13,101,1020074,,,,,,,2024-11-07,1,,,,,ヤマグチレーシング,0
2293,9010401029323,新規,0,2024-11-07,2024-11-07,株式会社メゾン青山,,株式会社,東京都,港区,西麻布１丁目４番４９号,,13,103,1060031,,,,,,,2024-11-07,1,,,,,メゾンアオヤマ,0
2302,9010401186172,新規,0,2024-11-07,2024-11-07,Ｍホールディングス株式会社,,株式会社,東京都,港区,赤坂５丁目３番１号赤坂Ｂｉｚタワー２９階,,13,103,1070052,,,,,,,2024-11-07,1,,,,,エムホールディングス,0
2303,9010401186197,新規,0,2024-11-07,2024-11-07,ＡＶＦＬＵＸ株式会社,,株式会社,東京都,港区,浜松町２丁目２番１５号浜松町ダイヤビル２Ｆ,,13,103,1050013,,,,,,,2024-11-07,1,,,,,エヴィフラックス,0
2304,9010401186230,新規,0,2024-11-07,2024-11-07,ＰＲ　Ｂｕｎｄｌｅ株式会社,,株式会社,東京都,港区,南青山３丁目１番３６号青山丸竹ビル６Ｆ,,13,103,1070062,,,,,,,2024-11-07,1,,,,,ピーアールバンドル,0
2312,9010601066216,新規,0,2024-11-07,2024-11-07,株式会社ＫｉｉＮＯ,,株式会社,東京都,江東区,北砂４丁目３８番１５号,,13,108,1360073,,,,,,,2024-11-07,1,,,,,キーノ,0
2313,9010601066224,新規,0,2024-11-07,2024-11-07,株式会社ＯＤホールディングス,,株式会社,東京都,墨田区,業平３丁目１１－１１大室ビル,,13,107,1300002,,,,,,,2024-11-07,1,,,,,オーディーホールディングス,0
2318,9010803005153,新規,0,2024-11-07,2024-11-07,キズナ・ジャパン合同会社,,合同会社,東京都,大田区,中央１丁目１２番２号,,13,111,1430024,,,,,,,2024-11-07,1,,,,,キズナジャパン,0
2326,9010903009475,新規,0,2024-11-07,2024-11-07,莵道合同会社,,合同会社,東京都,世田谷区,代沢４丁目２８番６号下北沢パークホームズ３０３,,13,112,1550032,,,,,,,2024-11-07,1,,,,,トドウ,0
2334,9011001165632,新規,0,2024-11-07,2024-11-07,ルミナ株式会社,,株式会社,東京都,目黒区,自由が丘２丁目１６番１２号ＲＪ３,,13,110,1520035,,,,,,,2024-11-07,1,,,,,ルミナ,0
2335,9011001165657,新規,0,2024-11-07,2024-11-07,株式会社ファイブスリーテクノ,,株式会社,東京都,渋谷区,桜丘町３番１号,,13,113,1500031,,,,,,,2024-11-07,1,,,,,ファイブスリーテクノ,0
2336,9011001165748,新規,0,2024-11-07,2024-11-07,株式会社コマスピ,,株式会社,東京都,目黒区,駒場４丁目３番６号,,13,110,1530041,,,,,,,2024-11-07,1,,,,,コマスピ,0
2337,9011003020315,新規,0,2024-11-07,2024-11-07,合同会社Ｏ．Ｄ．Ｃ,,合同会社,東京都,渋谷区,渋谷２丁目１９－１５宮益坂ビルディング６０９,,13,113,1500002,,,,,,,2024-11-07,1,,,,,オーディーシー,0
2341,9011101109456,新規,0,2024-11-07,2024-11-07,株式会社東京アセットワークス,,株式会社,東京都,新宿区,西新宿３丁目３番１３号西新宿水間ビル６階,,13,104,1600023,,,,,,,2024-11-07,1,,,,,トウキョウアセットワークス,0
2345,9011401026566,新規,0,2024-11-07,2024-11-07,株式会社かわにゃん村,,株式会社,東京都,板橋区,南常盤台１丁目１１－６レフア南常盤台１０１号室,,13,119,1740072,,,,,,,2024-11-07,1,,,,,カワニャンムラ,0
2352,9011603004502,新規,0,2024-11-07,2024-11-07,合同会社ＢＡＦＩＸ,,合同会社,東京都,練馬区,春日町２丁目１１番２３号,,13,120,1790074,,,,,,,2024-11-07,1,,,,,ベフィックス,0
2353,9011701027784,新規,0,2024-11-07,2024-11-07,株式会社Ｔ．ＣＯＭＰＡＮＹ,,株式会社,東京都,江戸川区,篠崎町３丁目２４番３号レイバー長蔵１０２,,13,123,1330061,,,,,,,2024-11-07,1,,,,,ティーカンパニー,0
2355,9011801045100,新規,0,2024-11-07,2024-11-07,株式会社古性,,株式会社,東京都,足立区,伊興３丁目２２番２４号,,13,121,1210823,,,,,,,2024-11-07,1,,,,,フルショウ,0
2356,9011801045117,新規,0,2024-11-07,2024-11-07,株式会社スパイラル,,株式会社,東京都,足立区,舎人５丁目２９番１２号,,13,121,1210831,,,,,,,2024-11-07,1,,,,,スパイラル,0
2359,9011803006538,新規,0,2024-11-07,2024-11-07,千住販売合同会社,,合同会社,東京都,足立区,関原２丁目３０番２号,,13,121,1230852,,,,,,,2024-11-07,1,,,,,センジュハンバイ,0
2367,9013101009553,新規,0,2024-11-07,2024-11-07,株式会社ＴＯＹ’ｓ,,株式会社,東京都,あきる野市,小川東２丁目８番地３３,,13,228,1970822,,,,,,,2024-11-07,1,,,,,トイズ,0
2371,9020001159949,新規,0,2024-11-07,2024-11-07,株式会社トリニシス,,株式会社,神奈川県,横浜市都筑区,あゆみが丘１５番１２号,,14,118,2240016,,,,,,,2024-11-07,1,,,,,トリニシス,0
2380,9040001135989,新規,0,2024-11-07,2024-11-07,株式会社杏栄,,株式会社,千葉県,市原市,ちはら台東５丁目２０番地８Ｄ‐ｒｏｏｍちはら台Ｈ棟１０６,,12,219,2900141,,,,,,,2024-11-07,1,,,,,キョウエイ,0
2381,9040003026105,新規,0,2024-11-07,2024-11-07,合同会社アクアトロニクス,,合同会社,千葉県,袖ケ浦市,神納１丁目１６番地１０,,12,229,2990257,,,,,,,2024-11-07,1,,,,,アクアトロニクス,0
2382,9040003026113,新規,0,2024-11-07,2024-11-07,合同会社Ｗｏｒｋ’ｉｎ,,合同会社,千葉県,大網白里市,ながた野２丁目１９番地１０,,12,239,2993232,,,,,,,2024-11-07,1,,,,,ワーキン,0
2383,9040003026121,新規,0,2024-11-07,2024-11-07,合同会社凪コンサルティング,,合同会社,千葉県,船橋市,東船橋５丁目６番１－３１７号,,12,204,2730002,,,,,,,2024-11-07,1,,,,,ナギコンサルティング,0
2384,9040003026138,新規,0,2024-11-07,2024-11-07,合同会社Ｅ　Ｐｉｋｅ,,合同会社,千葉県,船橋市,本町３丁目８－３０,,12,204,2730005,,,,,,,2024-11-07,1,,,,,イーストパイク,0
2388,9050005013513,新規,0,2024-11-07,2024-11-07,一般社団法人アールイーライフ,,その他の設立登記法人,茨城県,土浦市,永国１０５９番地１永井ビル１０２,,08,203,3000817,,,,,,,2024-11-07,1,,,,,アールイーライフ,0
2393,9060003005313,新規,0,2024-11-07,2024-11-07,合同会社ＪＯＭＥＳＳ,,合同会社,栃木県,栃木市,大宮町２６１６番地２１,,09,203,3280011,,,,,,,2024-11-07,1,,,,,ジョメス,0
2395,9070001042349,新規,0,2024-11-07,2024-11-07,ＮＥＸＴ工業株式会社,,株式会社,群馬県,桐生市,新里町高泉２８番地１,,10,203,3760135,,,,,,,2024-11-07,1,,,,,ネクストコウギョウ,0
2400,9080101025104,新規,0,2024-11-07,2024-11-07,株式会社オオムラ,,株式会社,静岡県,富士市,今泉３丁目１番３２号,,22,210,4170001,,,,,,,2024-11-07,1,,,,,オオムラ,0
2407,9090001018974,新規,0,2024-11-07,2024-11-07,東京住福株式会社,,株式会社,山梨県,南都留郡山中湖村,平野５４８番地１４,,19,425,4010502,,,,,,,2024-11-07,1,,,,,,0
2413,9110003005571,新規,0,2024-11-07,2024-11-07,ロムニー工房合同会社,,合同会社,新潟県,新潟市中央区,東出来島１２番２３号,,15,103,9500961,,,,,,,2024-11-07,1,,,,,ロムニーコウボウ,0
2422,9120001269969,新規,0,2024-11-07,2024-11-07,株式会社嘉銘,,株式会社,大阪府,大阪市阿倍野区,播磨町１丁目２３番２２号３０３,,27,119,5450022,,,,,,,2024-11-07,1,,,,,カメイ,0
2423,9120001269985,新規,0,2024-11-07,2024-11-07,株式会社藏萬,,株式会社,大阪府,大阪市住吉区,沢之町１丁目３番２１号,,27,120,5580031,,,,,,,2024-11-07,1,,,,,クラマン,0
2424,9120001269993,新規,0,2024-11-07,2024-11-07,ナカイエステート株式会社,,株式会社,大阪府,守口市,大久保町５丁目６２番２１号,,27,209,5700012,,,,,,,2024-11-07,1,,,,,ナカイエステート,0
2425,9120001270002,新規,0,2024-11-07,2024-11-07,ＭＡＳＴＥＲ株式会社,,株式会社,大阪府,大阪市城東区,鴫野西５丁目２０番２５号ユーミーハイツ鴫野２Ｃ号室,,27,118,5360014,,,,,,,2024-11-07,1,,,,,マスター,0
2426,9120001270051,新規,0,2024-11-07,2024-11-07,パンダリンク株式会社,,株式会社,大阪府,大阪市淀川区,木川西４丁目２８番７号,,27,123,5320013,,,,,,,2024-11-07,1,,,,,パンダリンク,0
2427,9120001270084,新規,0,2024-11-07,2024-11-07,Ｓｃｏｔｔｅｃｈｓ株式会社,,株式会社,大阪府,大阪市中央区,北久宝寺町１丁目５番６－１０１３号,,27,128,5410057,,,,,,,2024-11-07,1,,,,,スコーテック,0
2431,9120003027912,新規,0,2024-11-07,2024-11-07,合同会社じゃんけんポン,,合同会社,大阪府,大阪市北区,池田町９－１０ツイキ天満ビル１階,,27,127,5300033,,,,,,,2024-11-07,1,,,,,ジャンケンポン,0
2433,9120005024610,新規,0,2024-11-07,2024-11-07,一般社団法人ＳＰホールディングス,,その他の設立登記法人,大阪府,大阪市中央区,南船場２丁目６－３第２ＢＳビル６０１号室,,27,128,5420081,,,,,,,2024-11-07,1,,,,,エスピーホールディングス,0
2434,9120101070525,新規,0,2024-11-07,2024-11-07,株式会社タクト,,株式会社,大阪府,富田林市,甲田２丁目６番２号,,27,214,5840036,,,,,,,2024-11-07,1,,,,,タクト,0
2435,9120101070541,新規,0,2024-11-07,2024-11-07,ＺＥＲＯ　Ｐｌｕｓ株式会社,,株式会社,大阪府,大阪狭山市,大野台５丁目６番１号,,27,231,5890023,,,,,,,2024-11-07,1,,,,,ゼロプラス,0
2437,9120103006122,新規,0,2024-11-07,2024-11-07,Ｔ‐ｍｏｒｅ合同会社,,合同会社,大阪府,大阪狭山市,山本東３番地の５７,,27,231,5890036,,,,,,,2024-11-07,1,,,,,ティーモア,0
2438,9120901049990,新規,0,2024-11-07,2024-11-07,株式会社ＳａｂｌｉｅＲ,,株式会社,大阪府,吹田市,泉町２丁目３３番１５号,,27,205,5640041,,,,,,,2024-11-07,1,,,,,サブリエ,0
2440,9120903005406,新規,0,2024-11-07,2024-11-07,合同会社ＳＰＥＣＫ　ＧＲＯＵＰ,,合同会社,大阪府,豊中市,長興寺北２丁目７番２５号,,27,203,5610875,,,,,,,2024-11-07,1,,,,,スペックグループ,0
2442,9122001038610,新規,0,2024-11-07,2024-11-07,株式会社Ｒｅｂｏｒｎ,,株式会社,大阪府,八尾市,東山本新町３丁目３－２３－２０３,,27,212,5810866,,,,,,,2024-11-07,1,,,,,リボーン,0
2446,9130001078312,新規,0,2024-11-07,2024-11-07,株式会社チアーウィンズ,,株式会社,京都府,長岡京市,西の京１５－１５０,,26,209,6170816,,,,,,,2024-11-07,1,,,,,チアーウィンズ,0
2452,9140001136309,新規,0,2024-11-07,2024-11-07,Ｓｏｕｔｈ　Ｓｔａｒ株式会社,,株式会社,兵庫県,神戸市兵庫区,上三条町１番２３号、４０３号室,,28,105,6520013,,,,,,,2024-11-07,1,,,,,サウススター,0
2453,9140001136333,新規,0,2024-11-07,2024-11-07,株式会社フォーサイトビジョン,,株式会社,兵庫県,姫路市,本町６８にの屋敷Ｄ－２,,28,201,6700012,,,,,,,2024-11-07,1,,,,,フォーサイトビジョン,0
2457,9140003021277,新規,0,2024-11-07,2024-11-07,合同会社Ｇｏｏｄ　Ｔｉｍｅｓ,,合同会社,兵庫県,姫路市,駅前町２５１石田ビル１階,,28,201,6700927,,,,,,,2024-11-07,1,,,,,グッドタイムズ,0
2458,9140003021293,新規,0,2024-11-07,2024-11-07,ＬＥＴＳ合同会社,,合同会社,兵庫県,神戸市長田区,大橋町３丁目２番４－９０４号,,28,106,6530037,,,,,,,2024-11-07,1,,,,,レッツ,0
2462,9150003003407,新規,0,2024-11-07,2024-11-07,ＮｕＲｉＲｉＮ　Ｊａｐａｎ合同会社,,合同会社,奈良県,大和高田市,大字築山１７９番地３３,,29,202,6350071,,,,,,,2024-11-07,1,,,,,ヌリリンジャパン,0
2472,9180001163398,新規,0,2024-11-07,2024-11-07,Ｌｅｖｉ’ｓ商会株式会社,,株式会社,愛知県,知多市,つつじが丘４丁目１３―２―１１３―５０２,,23,224,4780054,,,,,,,2024-11-07,1,,,,,レヴィズショウカイ,0
2473,9180001164025,新規,0,2024-11-07,2024-11-07,株式会社ＣＭＳ,,株式会社,愛知県,名古屋市中川区,打中１丁目１５５番地の３,,23,110,4540927,,,,,,,2024-11-07,1,,,,,シーエムエス,0
2475,9180003027576,新規,0,2024-11-07,2024-11-07,合同会社Ａ　ＤＡＹ　ＩＮ　ＴＨＥ　ＬＩＦＥ,,合同会社,愛知県,東海市,富木島町新石根１番地の１サニーコートＩＩ１階,00136912,23,222,4760011,,,,,,,2024-11-07,1,,,,,アデイインザライフ,0
2478,9180301039199,新規,0,2024-11-07,2024-11-07,株式会社ＴＯＹＡＭＡ,,株式会社,愛知県,豊川市,大堀町１５１番地の１,,23,207,4420013,,,,,,,2024-11-07,1,,,,,トヤマ,0
2484,9190001031785,新規,0,2024-11-07,2024-11-07,株式会社ＩＭＰＡＣＴ,,株式会社,三重県,四日市市,野田１丁目８番３８号,,24,202,5100815,,,,,,,2024-11-07,1,,,,,インパクト,0
2495,9230001020610,新規,0,2024-11-07,2024-11-07,株式会社富山産業,,株式会社,富山県,富山市,宮成５７番地,,16,201,9318425,,,,,,,2024-11-07,1,,,,,トヤマサンギョウ,0
2497,9240001064020,新規,0,2024-11-07,2024-11-07,株式会社Ａｄ‐ＲＥＡＲＶ,,株式会社,広島県,広島市西区,井口２丁目１６－１３第二酒井ビル１０２,,34,104,7330842,,,,,,,2024-11-07,1,,,,,アドリアーヴ,0
2498,9240001064045,新規,0,2024-11-07,2024-11-07,ＯＮＥＳＰＩＲＩＴ株式会社,,株式会社,広島県,東広島市,安芸津町風早１４２２番地１,,34,212,7392403,,,,,,,2024-11-07,1,,,,,ワンスピリット,0
2499,9240001064053,新規,0,2024-11-07,2024-11-07,株式会社山中総業,,株式会社,広島県,東広島市,安芸津町風早１３５８番地,,34,212,7392403,,,,,,,2024-11-07,1,,,,,ヤマナカソウギョウ,0
2500,9240001064078,新規,0,2024-11-07,2024-11-07,株式会社コウエイ,,株式会社,広島県,広島市安佐北区,口田３丁目４番１９－２０１号,,34,106,7391734,,,,,,,2024-11-07,1,,,,,コウエイ,0
2502,9240003006929,新規,0,2024-11-07,2024-11-07,ＭＡＲＩＧＯＬＤ合同会社,,合同会社,広島県,広島市東区,矢賀新町２丁目４番１４－１３１１号,,34,102,7320044,,,,,,,2024-11-07,1,,,,,マリーゴールド,0
2504,9250003003586,新規,0,2024-11-07,2024-11-07,合同会社エフランド,,合同会社,山口県,山口市,小郡大江町７番４－６０３号,,35,203,7540015,,,,,,,2024-11-07,1,,,,,エフランド,0
2505,9260001039615,新規,0,2024-11-07,2024-11-07,なごみ商事株式会社,,株式会社,岡山県,倉敷市,玉島道口６３０番地１,,33,202,7138115,,,,,,,2024-11-07,1,,,,,ナゴミショウジ,0
2508,9290001107848,新規,0,2024-11-07,2024-11-07,Ａｓｓｅｔ　Ｔａｉｌｏｒ株式会社,,株式会社,福岡県,福岡市中央区,薬院４丁目１３番６２－１３０４号,,40,133,8100022,,,,,,,2024-11-07,1,,,,,アセットテーラー,0
2509,9290001107906,新規,0,2024-11-07,2024-11-07,株式会社ビッグノーマル,,株式会社,福岡県,福岡市博多区,中洲２丁目５番１３号,,40,132,8100801,,,,,,,2024-11-07,1,,,,,ビッグノーマル,0
2511,9290003015982,新規,0,2024-11-07,2024-11-07,合同会社ひともじ,,合同会社,福岡県,糸島市,志摩新町３９５番地,,40,230,8191333,,,,,,,2024-11-07,1,,,,,ヒトモジ,0
2517,9330001032612,新規,0,2024-11-07,2024-11-07,スターエステート株式会社,,株式会社,熊本県,荒尾市,大正町２丁目２番２７号,,43,204,8640054,,,,,,,2024-11-07,1,,,,,スターエステート,0
2518,9340001026910,新規,0,2024-11-07,2024-11-07,株式会社コウシ,,株式会社,鹿児島県,薩摩郡さつま町,神子３１９７番地,,46,392,8952102,,,,,,,2024-11-07,1,,,,,コウシ,0
2519,9350001019277,新規,0,2024-11-07,2024-11-07,九州防犯カメラ株式会社,,株式会社,宮崎県,宮崎市,末広１丁目４番２９号,,45,201,8800012,,,,,,,2024-11-07,1,,,,,キュウシュウボウハンカメラ,0
2520,9360001034408,新規,0,2024-11-07,2024-11-07,ｏｋｉｎａ　Ｏｎｅ　Ｈｏｍｅ株式会社,,株式会社,沖縄県,中頭郡北谷町,字桑江５７５番地５、１Ｆ,,47,326,9040103,,,,,,,2024-11-07,1,,,,,オキナワンホーム,0
2522,9380003005875,新規,0,2024-11-07,2024-11-07,合同会社ＷＣＴ,,合同会社,福島県,西白河郡泉崎村,大字北平山字ミト内２８番地８,,07,464,9690103,,,,,,,2024-11-07,1,,,,,ダブリューシーティー,0
2523,9410001013983,新規,0,2024-11-07,2024-11-07,株式会社ＳＢＹ不動産,,株式会社,秋田県,秋田市,外旭川字三後田２６６番地１,,05,201,0100802,,,,,,,2024-11-07,1,,,,,エスビーワイフドウサン,0
2533,9430001093025,新規,0,2024-11-07,2024-11-07,株式会社シタッケネ,,株式会社,北海道,札幌市豊平区,月寒西二条６丁目２番１１－１０３号,,01,105,0620022,,,,,,,2024-11-07,1,,,,,シタッケネ,0
2534,9430001093033,新規,0,2024-11-07,2024-11-07,株式会社ＡＢＥＳＴ,,株式会社,北海道,札幌市北区,屯田七条９丁目１４番１号,,01,102,0020857,,,,,,,2024-11-07,1,,,,,アベスト,0
2545,9460101007625,新規,0,2024-11-07,2024-11-07,株式会社マルク・ファーム,,株式会社,北海道,帯広市,八千代町西４線１７６番地６,,01,207,0802336,,,,,,,2024-11-07,1,,,,,マルクファーム,0
