sequenceNumber,corporateNumber,process,correct,updateDate,changeDate,name,nameImageId,kind,prefectureName,cityName,streetNumber,addressImageId,prefectureCode,cityCode,postCode,addressOutside,addressOutsideImageId,closeDate,closeCause,successorCorporateNumber,changeCause,assignmentDate,latest,enName,enPrefectureName,enCityName,enAddressOutside,furigana,hihyoji
10,1010001260483,新規,0,2025-12-02,2025-12-02,Ｈ．モーザージャパン株式会社,,株式会社,東京都,千代田区,霞が関３丁目２番１号,,13,101,1000013,,,,,,,2025-12-02,1,,,,,エイチモーザージャパン,0
11,1010001260756,新規,0,2025-12-02,2025-12-02,ＡＲＩＡ株式会社,,株式会社,東京都,中央区,銀座７丁目７番６号,,13,102,1040061,,,,,,,2025-12-02,1,,,,,アリア,0
12,1010001260822,新規,0,2025-12-02,2025-12-02,株式会社ＰＲＳ　ＮＥＴＷＯＲＫ,,株式会社,東京都,中央区,新川２丁目２２番６号,,13,102,1040033,,,,,,,2025-12-02,1,,,,,ピーアールエスネットワーク,0
17,1010005041021,新規,0,2025-12-02,2025-12-02,一般社団法人セルフラブ協会,,その他の設立登記法人,東京都,千代田区,九段南１丁目５番６号りそな九段ビル５階ＫＳフロア,,13,101,1020074,,,,,,,2025-12-02,1,,,,,セルフラブキョウカイ,0
22,1010401194876,新規,0,2025-12-02,2025-12-02,ケイト・ジャパン株式会社,,株式会社,東京都,港区,虎ノ門３丁目２２番１号,,13,103,1050001,,,,,,,2025-12-02,1,,,,,ケイトジャパン,0
32,1010503008100,新規,0,2025-12-02,2025-12-02,Ｇｏｎｇｗｅｌｌ　Ｓｅｒｖｉｃｅｓ合同会社,,合同会社,東京都,台東区,上野１丁目１７番６号広小路ビル８Ｆ－Ｂ,,13,106,1100005,,,,,,,2025-12-02,1,,,,,ゴングウェルサービス,0
35,1010603011937,新規,0,2025-12-02,2025-12-02,合同会社ｗａｋａ組,,合同会社,東京都,墨田区,太平３丁目９番６－１４０３号,,13,107,1300012,,,,,,,2025-12-02,1,,,,,ワカグミ,0
36,1010605004526,新規,0,2025-12-02,2025-12-02,特定非営利活動法人英語で茶の湯にふれる会,,その他の設立登記法人,東京都,江東区,毛利１丁目１２番１０－８０４号,,13,108,1350001,,,,,,,2025-12-02,1,,,,,エイゴデチャノユニフレルカイ,0
37,1010701048666,新規,0,2025-12-02,2025-12-02,株式会社ＧＲＯＷＴＨ　Ｅｓｔａｔｅ,,株式会社,東京都,品川区,西五反田７丁目２２番１７号ＴＯＣビル１０階５８室,,13,109,1410031,,,,,,,2025-12-02,1,,,,,グロースエステート,0
38,1010701048674,新規,0,2025-12-02,2025-12-02,Ｋｏｓｈｏ　Ｔｒｕｓｔ　Ｍａｎａｇｅｍｅｎｔ株式会社,,株式会社,東京都,品川区,東品川５丁目９番１５－９０８号,,13,109,1400002,,,,,,,2025-12-02,1,,,,,コショウトラストマネジメント,0
39,1010701048690,新規,0,2025-12-02,2025-12-02,Ｅｎｍｒ株式会社,,株式会社,東京都,品川区,南品川２丁目１０番６号,,13,109,1400004,,,,,,,2025-12-02,1,,,,,エンマー,0
40,1010701048699,新規,0,2025-12-02,2025-12-02,ＭＵＳＵＢＩ株式会社,,株式会社,東京都,品川区,北品川５丁目１１－１９ハーミットクラブハウスノールノール１１１,,13,109,1410001,,,,,,,2025-12-02,1,,,,,ムスビ,0
42,1010801036827,新規,0,2025-12-02,2025-12-02,のぞみ株式会社,,株式会社,東京都,大田区,中央４丁目１５番２号,,13,111,1430024,,,,,,,2025-12-02,1,,,,,ノゾミ,0
49,1010903010366,新規,0,2025-12-02,2025-12-02,合同会社ＴＥＲＲＡＮＯＡ,,合同会社,東京都,世田谷区,羽根木２丁目１番１号,,13,112,1560042,,,,,,,2025-12-02,1,,,,,テラノア,0
54,1011001173948,新規,0,2025-12-02,2025-12-02,株式会社ティアエージェント,,株式会社,東京都,渋谷区,神泉町１０番１５号アネックス神泉３０１,,13,113,1500045,,,,,,,2025-12-02,1,,,,,ティアエージェント,0
55,1011001173980,新規,0,2025-12-02,2025-12-02,Ｖｉｓｉｏｎ　Ｆｉｎａｎｃｉａｌ　Ｓｅｒｖｉｃｅｓ株式会社,,株式会社,東京都,渋谷区,道玄坂１丁目１０番８号渋谷道玄坂東急ビル２Ｆ－Ｃ,,13,113,1500043,,,,,,,2025-12-02,1,,,,,ビジョンフィナンシャルサービス,0
57,1011003023044,新規,0,2025-12-02,2025-12-02,ＥＭネクスト合同会社,,合同会社,東京都,渋谷区,恵比寿西２丁目４番８号ウィンド恵比寿ビル８Ｆ,,13,113,1500021,,,,,,,2025-12-02,1,,,,,イーエムネクスト,0
58,1011005011261,新規,0,2025-12-02,2025-12-02,一般財団法人孝道文化芸術財団,,その他の設立登記法人,東京都,渋谷区,道玄坂２丁目１５番１号ノア道玄坂２１５号室,,13,113,1500043,,,,,,,2025-12-02,1,,,,,コウドウブンカゲイジュツザイダン,0
65,1011103016716,新規,0,2025-12-02,2025-12-02,合同会社ＦＬＹＩＮＧ　ＬＡＰ,,合同会社,東京都,新宿区,百人町２丁目１番４号盛好堂ビル１Ｆ,,13,104,1690073,,,,,,,2025-12-02,1,,,,,フライングラップ,0
67,1011105011673,新規,0,2025-12-02,2025-12-02,ＯＲＬ一般社団法人,,その他の設立登記法人,東京都,新宿区,四谷２丁目９番地１５東京ユナイテッド綜合事務所内,,13,104,1600004,,,,,,,2025-12-02,1,,,,,オーアールエル,0
71,1011401027613,新規,0,2025-12-02,2025-12-02,株式会社ＭｅｄｉＬｉｎｋ,,株式会社,東京都,板橋区,蓮根２丁目２７番１２号古谷野ビル２Ｆ－１５,,13,119,1740046,,,,,,,2025-12-02,1,,,,,メディリンク,0
80,1012401043864,新規,0,2025-12-02,2025-12-02,株式会社ＦＴＳ,,株式会社,東京都,府中市,宮町１丁目１００番地１４０３,,13,206,1830023,,,,,,,2025-12-02,1,,,,,エフティーエス,0
81,1012401043880,新規,0,2025-12-02,2025-12-02,株式会社Ｌｉｅｎ　Ｐｌｕｓ,,株式会社,東京都,府中市,西府町４丁目１５番地の５,,13,206,1830031,,,,,,,2025-12-02,1,,,,,リアンプラス,0
87,1012801024365,新規,0,2025-12-02,2025-12-02,株式会社ＳＦＡＭ,,株式会社,東京都,国立市,中３丁目６番地の１４,,13,215,1860004,,,,,,,2025-12-02,1,,,,,エスエフエーエム,0
94,1013301055371,新規,0,2025-12-02,2025-12-02,テックマインド株式会社,,株式会社,東京都,豊島区,池袋２丁目４２－６,,13,116,1710014,,,,,,,2025-12-02,1,,,,,テックマインド,0
102,1020001166052,新規,0,2025-12-02,2025-12-02,Ｚｅｒｏ　Ｐｅｎｇｕｉｎ株式会社,,株式会社,神奈川県,横浜市鶴見区,仲通１丁目５４番地２２,,14,101,2300042,,,,,,,2025-12-02,1,,,,,ゼロペンギン,0
103,1020001166060,新規,0,2025-12-02,2025-12-02,株式会社フレームワン,,株式会社,神奈川県,横浜市南区,永田みなみ台１番１－４１４号,,14,105,2320075,,,,,,,2025-12-02,1,,,,,フレームワン,0
110,1021001086868,新規,0,2025-12-02,2025-12-02,株式会社リプラン工業,,株式会社,神奈川県,相模原市緑区,青山４８１番地１,,14,151,2520156,,,,,,,2025-12-02,1,,,,,リプランコウギョウ,0
117,1030003028167,新規,0,2025-12-02,2025-12-02,吉拓商事合同会社,,合同会社,埼玉県,鴻巣市,緑町３番１５号,,11,217,3650053,,,,,,,2025-12-02,1,,,,,ヨシヒラショウジ,0
124,1040001141573,新規,0,2025-12-02,2025-12-02,株式会社Ｖ‐Ｌｅａｄ,,株式会社,千葉県,千葉市稲毛区,作草部２丁目９番１６号笠原ビル２００,,12,103,2630015,,,,,,,2025-12-02,1,,,,,ブイリード,0
125,1040001141581,新規,0,2025-12-02,2025-12-02,株式会社Ｖａｌｕｅ　Ｔｒａｉｎｅｒ,,株式会社,千葉県,大網白里市,清名幸谷８９５番地１２,,12,239,2993267,,,,,,,2025-12-02,1,,,,,バリュートレーナー,0
137,1080001027298,新規,0,2025-12-02,2025-12-02,株式会社ＦｕｔｕｒｅＣｌｏｃｋ,,株式会社,静岡県,静岡市葵区,紺屋町１７‐１葵タワー,,22,101,4200852,,,,,,,2025-12-02,1,,,,,フューチャークロック,0
144,1100001039150,新規,0,2025-12-02,2025-12-02,株式会社珠屋,,株式会社,長野県,長野市,大字南長野南石堂町１２２１番地８グランドハイツ山王１２０２,,20,201,3800824,,,,,,,2025-12-02,1,,,,,タマヤ,0
163,1120001282302,新規,0,2025-12-02,2025-12-02,ホープ株式会社,,株式会社,大阪府,大阪市港区,弁天３丁目４番４号,,27,107,5520007,,,,,,,2025-12-02,1,,,,,ホープ,0
164,1120001282343,新規,0,2025-12-02,2025-12-02,株式会社なにわコンサルタントサポート,,株式会社,大阪府,大阪市北区,梅田１丁目２番２号大阪駅前第２ビル１２－１２,,27,127,5300001,,,,,,,2025-12-02,1,,,,,ナニワコンサルタントサポート,0
165,1120001282351,新規,0,2025-12-02,2025-12-02,株式会社Ｆｅｌｉｚ,,株式会社,大阪府,大阪市平野区,加美西１丁目１２番１５号,,27,126,5470005,,,,,,,2025-12-02,1,,,,,フェリス,0
166,1120001282368,新規,0,2025-12-02,2025-12-02,株式会社クレイクチュール,,株式会社,大阪府,大阪市中央区,備後町２丁目１－１第２野村ビルディング,,27,128,5410051,,,,,,,2025-12-02,1,,,,,クレイクチュール,0
167,1120001282418,新規,0,2025-12-02,2025-12-02,株式会社ＭｕｓｅＭＪ,,株式会社,大阪府,大阪市北区,本庄東１丁目２３番２号－２７０１号,,27,127,5310074,,,,,,,2025-12-02,1,,,,,ミューズエムジェイ,0
179,1120901051888,新規,0,2025-12-02,2025-12-02,株式会社Ｎｅｘｔ　Ｏｒｔｈａｎｔ,,株式会社,大阪府,箕面市,牧落５丁目８－２－５１０,,27,220,5620004,,,,,,,2025-12-02,1,,,,,ネクストオーサント,0
180,1120901051896,新規,0,2025-12-02,2025-12-02,株式会社アロール,,株式会社,大阪府,高槻市,如是町３９番６号１０１号室,,27,207,5690827,,,,,,,2025-12-02,1,,,,,アロール,0
181,1120903005974,新規,0,2025-12-02,2025-12-02,ＣＡＮ　ＡＩ合同会社,,合同会社,大阪府,豊中市,岡町南３丁目２番１５号,,27,203,5610883,,,,,,,2025-12-02,1,,,,,キャンエーアイ,0
186,1122001039946,新規,0,2025-12-02,2025-12-02,株式会社ＴＮＡ,,株式会社,大阪府,東大阪市,荒本北１丁目４番地１号南館２２２５室,,27,227,5770011,,,,,,,2025-12-02,1,,,,,ティーエヌエー,0
193,1130003010957,新規,0,2025-12-02,2025-12-02,合同会社アークライン,,合同会社,京都府,京都市北区,大宮西総門口町７番地１０５号,,26,101,6038835,,,,,,,2025-12-02,1,,,,,アークライン,0
198,1140001140929,新規,0,2025-12-02,2025-12-02,Ｋａｆｕｕ　Ｖｉｓｉｏｎ株式会社,,株式会社,兵庫県,尼崎市,長洲本通１丁目１４番５４号,,28,202,6600803,,,,,,,2025-12-02,1,,,,,カフービジョン,0
199,1140001140937,新規,0,2025-12-02,2025-12-02,株式会社スペシアス,,株式会社,兵庫県,神戸市東灘区,御影郡家１丁目１０番２０－３０４号,,28,101,6580048,,,,,,,2025-12-02,1,,,,,スペシアス,0
201,1140003022902,新規,0,2025-12-02,2025-12-02,合同会社ＭＡＲＧＥ　ＰＬＵＳ,,合同会社,兵庫県,西宮市,泉町７－１７,,28,204,6620932,,,,,,,2025-12-02,1,,,,,マージプラス,0
204,1170001018899,新規,0,2025-12-02,2025-12-02,大希設備株式会社,,株式会社,和歌山県,和歌山市,府中３２４番地１９,,30,201,6496338,,,,,,,2025-12-02,1,,,,,ダイキセツビ,0
210,1180001169634,新規,0,2025-12-02,2025-12-02,株式会社スリーピース,,株式会社,愛知県,名古屋市西区,枇杷島５丁目８番２２号,,23,104,4510053,,,,,,,2025-12-02,1,,,,,スリーピース,0
211,1180001169691,新規,0,2025-12-02,2025-12-02,ＲｅＨｏｐｅ　Ｂａｓｅ株式会社,,株式会社,愛知県,名古屋市中区,大須４丁目１番１１号,,23,106,4600011,,,,,,,2025-12-02,1,,,,,リホープベイス,0
212,1180001169717,新規,0,2025-12-02,2025-12-02,株式会社ＬＡＵＮＯ,,株式会社,愛知県,名古屋市千種区,西山元町２丁目２８番地,,23,101,4640063,,,,,,,2025-12-02,1,,,,,ラウノ,0
213,1180005021320,新規,0,2025-12-02,2025-12-02,税理士法人奥村会計事務所,,その他の設立登記法人,愛知県,名古屋市中村区,十王町９番５号,,23,105,4530035,,,,,,,2025-12-02,1,,,,,オクムラカイケイジムショ,0
219,1180301040453,新規,0,2025-12-02,2025-12-02,メドチョップ株式会社,,株式会社,愛知県,豊橋市,神野新田町字ナノ割２７番地,,23,201,4418077,,,,,,,2025-12-02,1,,,,,メドチョップ,0
224,1190001032725,新規,0,2025-12-02,2025-12-02,ＴＢホールディングス株式会社,,株式会社,三重県,四日市市,高角町２９９７番地,,24,202,5120923,,,,,,,2025-12-02,1,,,,,ティービーホールディングス,0
236,1250005009044,新規,0,2025-12-02,2025-12-02,一般社団法人コレガーレひらお,,その他の設立登記法人,山口県,熊毛郡平生町,大字平生町５０５番地３０,,35,344,7421101,,,,,,,2025-12-02,1,,,,,コレガーレヒラオ,0
238,1260001040778,新規,0,2025-12-02,2025-12-02,株式会社共栄電工,,株式会社,岡山県,岡山市南区,藤田４２５番地６６９,,33,104,7010221,,,,,,,2025-12-02,1,,,,,キョウエイデンコウ,0
242,1270001009335,新規,0,2025-12-02,2025-12-02,株式会社カレッジ,,株式会社,鳥取県,米子市,皆生温泉３丁目１５番１８号メゾンクレヴァ３０３,,31,202,6830001,,,,,,,2025-12-02,1,,,,,カレッジ,0
249,1290001112310,新規,0,2025-12-02,2025-12-02,株式会社ｓｙｎｃｈｕｂ,,株式会社,福岡県,福岡市博多区,諸岡３丁目１８－１３アソシア博多諸岡テラス５０５,,40,132,8120894,,,,,,,2025-12-02,1,,,,,シンクハブ,0
250,1290001112343,新規,0,2025-12-02,2025-12-02,株式会社ＧｏＧｉ,,株式会社,福岡県,福岡市中央区,六本松２丁目３番２１号ルポ六本松８１２号,,40,133,8100044,,,,,,,2025-12-02,1,,,,,ゴギ,0
254,1310001019866,新規,0,2025-12-02,2025-12-02,アニマルパートナーズながさきＰＦＩ株式会社,,株式会社,長崎県,長崎市,西坂町２番３号,,42,201,8500051,,,,,,,2025-12-02,1,,,,,アニマルパートナーズナガサキピーエフアイ,0
256,1320003004840,新規,0,2025-12-02,2025-12-02,合同会社ＳＫ　Ｐｈａｒｍａ,,合同会社,大分県,大分市,萩原１丁目１－１１パークサイド萩原３０５,,44,201,8700921,,,,,,,2025-12-02,1,,,,,エスケイファーマ,0
259,1360003015438,新規,0,2025-12-02,2025-12-02,合同会社Ｗｏｒｔｈ　Ｌｉｖｉｎｇ,,合同会社,沖縄県,糸満市,字米須１７７４番地,,47,210,9010335,,,,,,,2025-12-02,1,,,,,ワースリビング,0
265,1370003007401,新規,0,2025-12-02,2025-12-02,合同会社ＶＵＶＯ,,合同会社,宮城県,多賀城市,笠神１丁目９番２１号,,04,209,9850831,,,,,,,2025-12-02,1,,,,,ヴーヴォ,0
267,1380003006195,新規,0,2025-12-02,2025-12-02,合同会社月香,,合同会社,福島県,郡山市,富田町東二丁目９４番地の１ノーブルハイツＩＩＩ－Ａ１０２,00141694,07,203,9638041,,,,,,,2025-12-02,1,,,,,ツキノカオリ,0
275,1430001095763,新規,0,2025-12-02,2025-12-02,株式会社奏の詩ホールディングス,,株式会社,北海道,登別市,緑町２丁目１０番地５,,01,230,0590024,,,,,,,2025-12-02,1,,,,,カナデノウタホールディングス,0
285,1500001026653,新規,0,2025-12-02,2025-12-02,株式会社ＳＴＣワークス,,株式会社,愛媛県,松山市,小坂４丁目７番８号－２０６号,,38,201,7900963,,,,,,,2025-12-02,1,,,,,エスティーシーワークス,0
293,2010001260466,新規,0,2025-12-02,2025-12-02,臺和文化堂株式会社,,株式会社,東京都,中央区,勝どき１丁目１３－６－３６１３,,13,102,1040054,,,,,,,2025-12-02,1,,,,,タイワブンカドウ,0
294,2010001260714,新規,0,2025-12-02,2025-12-02,株式会社ＵＢ研究所,,株式会社,東京都,中央区,日本橋２丁目１６－４ｒｅｍｉｘ日本橋６階,,13,102,1030027,,,,,,,2025-12-02,1,,,,,ユービーケンキュウジョ,0
295,2010001260747,新規,0,2025-12-02,2025-12-02,Ｓｔｅｐ　Ｈｕｂ株式会社,,株式会社,東京都,中央区,日本橋室町１丁目１１番１２号日本橋水野ビル７階,,13,102,1030022,,,,,,,2025-12-02,1,,,,,ステップハブ,0
296,2010001260771,新規,0,2025-12-02,2025-12-02,Ｕｌｙｐｏ株式会社,,株式会社,東京都,中央区,銀座１丁目１２番４号Ｎ＆ＥＢＬＤ．６Ｆ,,13,102,1040061,,,,,,,2025-12-02,1,,,,,ユリポ,0
298,2010003049412,新規,0,2025-12-02,2025-12-02,合同会社ぶんきょう,,合同会社,東京都,文京区,小石川５丁目２０番１４号,,13,105,1120002,,,,,,,2025-12-02,1,,,,,ブンキョウ,0
299,2010003049569,新規,0,2025-12-02,2025-12-02,合同会社Ｂｉｇｉｎｏｖａ,,合同会社,東京都,中央区,日本橋茅場町１丁目８－１,,13,102,1030025,,,,,,,2025-12-02,1,,,,,ビギノバ,0
305,2010103002709,新規,0,2025-12-02,2025-12-02,合同会社クレシェンド,,合同会社,東京都,八王子市,みなみ野５丁目１９番１―１１０１号,,13,201,1920916,,,,,,,2025-12-02,1,,,,,クレシェンド,0
313,2010401194842,新規,0,2025-12-02,2025-12-02,ＮＢｒｉｄｇｅ株式会社,,株式会社,東京都,港区,高輪１丁目２０－２ヌーク白金高輪１０２,,13,103,1080074,,,,,,,2025-12-02,1,,,,,エヌブリッジ,0
317,2010501055119,新規,0,2025-12-02,2025-12-02,ポートランドマイクロサーキットジャパン株式会社,,株式会社,東京都,台東区,台東２丁目２７番３号ＮＳＫビル１０Ｆ,,13,106,1100016,,,,,,,2025-12-02,1,,,,,ポートランドマイクロサーキットジャパン,0
322,2010601068359,新規,0,2025-12-02,2025-12-02,株式会社ＢＡＹ　ＳＴＯＲＭ,,株式会社,東京都,江東区,東陽５丁目３０番１６号とびたビル２階Ａ室,,13,108,1350016,,,,,,,2025-12-02,1,,,,,ベイストーム,0
323,2010603011944,新規,0,2025-12-02,2025-12-02,Ｌｕｋｅ１合同会社,,合同会社,東京都,江東区,南砂１丁目３番２号,,13,108,1360076,,,,,,,2025-12-02,1,,,,,ルークワン,0
324,2010701048681,新規,0,2025-12-02,2025-12-02,株式会社ＴｒｉＣ,,株式会社,東京都,品川区,西五反田１丁目２６番２号五反田サンハイツビル２階,,13,109,1410031,,,,,,,2025-12-02,1,,,,,トリック,0
326,2010801036834,新規,0,2025-12-02,2025-12-02,駐車場総合研究所株式会社,,株式会社,東京都,大田区,南雪谷５丁目１５番１－３１１号,,13,111,1450066,,,,,,,2025-12-02,1,,,,,チュウシャジョウソウゴウケンキュウジョ,0
331,2010901058522,新規,0,2025-12-02,2025-12-02,株式会社セノ,,株式会社,東京都,世田谷区,奥沢５丁目３９番１号アドレ自由が丘１階,,13,112,1580083,,,,,,,2025-12-02,1,,,,,セノ,0
333,2010903010448,新規,0,2025-12-02,2025-12-02,合同会社ＢＲＢ,,合同会社,東京都,世田谷区,瀬田４丁目１５番３６－７０１号ザ・パークハウス二子玉川ガーデン,,13,112,1580095,,,,,,,2025-12-02,1,,,,,ビーアールビー,0
344,2011001173872,新規,0,2025-12-02,2025-12-02,株式会社ＳＲＣＰ１号,,株式会社,東京都,渋谷区,道玄坂１丁目１０番８号渋谷道玄坂東急ビル２Ｆ－Ｃ,,13,113,1500043,,,,,,,2025-12-02,1,,,,,エスアールシーピーイチゴウ,0
345,2011001173930,新規,0,2025-12-02,2025-12-02,株式会社エイチエーシー,,株式会社,東京都,渋谷区,道玄坂１丁目１０番８号渋谷道玄坂東急ビル２Ｆ－Ｃ,,13,113,1500043,,,,,,,2025-12-02,1,,,,,エイチエーシー,0
346,2011001173947,新規,0,2025-12-02,2025-12-02,センカワ株式会社,,株式会社,東京都,渋谷区,神南１丁目１１－４ＦＰＧリンクス神南５階,,13,113,1500041,,,,,,,2025-12-02,1,,,,,センカワ,0
352,2011101114000,新規,0,2025-12-02,2025-12-02,株式会社健創,,株式会社,東京都,新宿区,高田馬場４丁目４－３４第２ＡＲＳビル５階,,13,104,1690075,,,,,,,2025-12-02,1,,,,,ケンソウ,0
353,2011101114149,新規,0,2025-12-02,2025-12-02,株式会社湯縁,,株式会社,東京都,新宿区,高田馬場１丁目３３番１３号千年ビル８０４,,13,104,1690075,,,,,,,2025-12-02,1,,,,,ユエン,0
354,2011103016797,新規,0,2025-12-02,2025-12-02,ＯＲＬ合同会社,,合同会社,東京都,新宿区,四谷２丁目９番地１５東京ユナイテッド綜合事務所内,,13,104,1600004,,,,,,,2025-12-02,1,,,,,オーアールエル,0
355,2011103016806,新規,0,2025-12-02,2025-12-02,合同会社グッドＣＭ,,合同会社,東京都,新宿区,西新宿３丁目３番１３号西新宿水間ビル２Ｆ,,13,104,1600023,,,,,,,2025-12-02,1,,,,,グッドシーエム,0
369,2011603004938,新規,0,2025-12-02,2025-12-02,合同会社犬,,合同会社,東京都,練馬区,豊玉中２丁目１４番３号,,13,120,1760013,,,,,,,2025-12-02,1,,,,,イヌ,0
378,2012403007478,新規,0,2025-12-02,2025-12-02,合同会社Ｓａｋａｅ,,合同会社,東京都,府中市,府中町１丁目５番６号高橋ビル３Ｆ,,13,206,1830055,,,,,,,2025-12-02,1,,,,,サカエ,0
380,2013101009873,新規,0,2025-12-02,2025-12-02,株式会社かわい,,株式会社,東京都,西多摩郡奥多摩町,川井６６３番地３,,13,308,1980102,,,,,,,2025-12-02,1,,,,,カワイ,0
401,2020003029867,新規,0,2025-12-02,2025-12-02,合同会社ふゆねこ,,合同会社,神奈川県,川崎市高津区,末長１丁目５０―１６,,14,134,2130013,,,,,,,2025-12-02,1,,,,,フユネコ,0
402,2020003029900,新規,0,2025-12-02,2025-12-02,ブルグリ合同会社,,合同会社,神奈川県,横浜市保土ケ谷区,上菅田町５７８番地１２,,14,106,2400051,,,,,,,2025-12-02,1,,,,,ブルグリ,0
403,2021001086933,新規,0,2025-12-02,2025-12-02,株式会社Ｎｅｓｔ,,株式会社,神奈川県,横須賀市,舟倉１丁目３番７号,,14,201,2390805,,,,,,,2025-12-02,1,,,,,ネスト,0
405,2021003016863,新規,0,2025-12-02,2025-12-02,合同会社スタジオファイ,,合同会社,神奈川県,座間市,南栗原２丁目１‐５５‐３０５ディースクエアさがみ野,,14,216,2520015,,,,,,,2025-12-02,1,,,,,スタジオファイ,0
414,2030005022349,新規,0,2025-12-02,2025-12-02,一般財団法人聖の里文化財団,,その他の設立登記法人,埼玉県,さいたま市見沼区,大和田町１丁目１９０３－６,,11,104,3370053,,,,,,,2025-12-02,1,,,,,ヒジリノサトブンカザイダン,0
420,2040001141572,新規,0,2025-12-02,2025-12-02,きたかど株式会社,,株式会社,千葉県,船橋市,印内２丁目３番１５号ＴＯＰ西船橋第一１０４,,12,204,2730039,,,,,,,2025-12-02,1,,,,,キタカド,0
422,2040003028990,新規,0,2025-12-02,2025-12-02,Ｍａｃｈ　Ｔｅｃｈｎｏｌｏｇｉｅｓ合同会社,,合同会社,千葉県,千葉市若葉区,みつわ台５丁目２７番,,12,104,2640032,,,,,,,2025-12-02,1,,,,,マックテクノロジーズ,0
423,2050001057652,新規,0,2025-12-02,2025-12-02,株式会社ひきでんき,,株式会社,茨城県,笠間市,押辺１８１１番地,,08,216,3190205,,,,,,,2025-12-02,1,,,,,ヒキデンキ,0
426,2060001038800,新規,0,2025-12-02,2025-12-02,株式会社丸山自動車,,株式会社,栃木県,足利市,福居町３９３番地の１,,09,202,3260338,,,,,,,2025-12-02,1,,,,,マルヤマジドウシャ,0
431,2090001019632,新規,0,2025-12-02,2025-12-02,株式会社ＨＹＢＲＩＸ,,株式会社,山梨県,中央市,下三條９０７番地１,,19,214,4093822,,,,,,,2025-12-02,1,,,,,ハイブリックス,0
445,2120001282359,新規,0,2025-12-02,2025-12-02,株式会社森源,,株式会社,大阪府,大阪市中央区,難波千日前１１番２６号,,27,128,5420075,,,,,,,2025-12-02,1,,,,,シンゲン,0
446,2120001282367,新規,0,2025-12-02,2025-12-02,株式会社メイクライン,,株式会社,大阪府,大阪市北区,堂島浜１丁目４番４号アクア堂島フォンターナ,,27,127,5300004,,,,,,,2025-12-02,1,,,,,メイクライン,0
453,2120005025284,新規,0,2025-12-02,2025-12-02,一般社団法人大阪公立大学サービス,,その他の設立登記法人,大阪府,大阪市城東区,森之宮１丁目６番８５号３階,,27,118,5360025,,,,,,,2025-12-02,1,,,,,オオサカコウリツダイガクサービス,0
458,2120901051879,新規,0,2025-12-02,2025-12-02,株式会社インテレクチュアルマネジメント,,株式会社,大阪府,豊中市,東豊中町１丁目１５番３号,,27,203,5600003,,,,,,,2025-12-02,1,,,,,インテレクチュアルマネジメント,0
470,2130001081132,新規,0,2025-12-02,2025-12-02,株式会社１０８０,,株式会社,京都府,京都市西京区,大枝北沓掛町２－３－１１,,26,111,6100000,,,,,,,2025-12-02,1,,,,,テンエイティ,0
472,2130003010972,新規,0,2025-12-02,2025-12-02,ＣｏｌｄＯｎｅ合同会社,,合同会社,京都府,京都市下京区,七条通油小路東入大黒町２２７番地第２キョートビル４０２,,26,106,6008223,,,,,,,2025-12-02,1,,,,,コールドワン,0
480,2140001140886,新規,0,2025-12-02,2025-12-02,株式会社ＯＤＳ　Ｊａｐａｎ,,株式会社,兵庫県,三田市,学園６丁目５番地３,,28,219,6691337,,,,,,,2025-12-02,1,,,,,オーディーエスジャパン,0
481,2140001140928,新規,0,2025-12-02,2025-12-02,池上不動産株式会社,,株式会社,兵庫県,姫路市,別所町別所４８５番地３,,28,201,6710221,,,,,,,2025-12-02,1,,,,,イケガミフドウサン,0
486,2140003022926,新規,0,2025-12-02,2025-12-02,合同会社ティムマッマッ,,合同会社,兵庫県,神戸市東灘区,向洋町中３丁目１番の１０５番館４０７,,28,101,6580032,,,,,,,2025-12-02,1,,,,,ティムマッマッ,0
489,2170001018898,新規,0,2025-12-02,2025-12-02,リニュー株式会社,,株式会社,和歌山県,和歌山市,出口甲賀丁５０番地,,30,201,6408282,,,,,,,2025-12-02,1,,,,,リニュー,0
496,2180001169690,新規,0,2025-12-02,2025-12-02,株式会社ＢＯＮＤ,,株式会社,愛知県,名古屋市中区,栄３丁目１１番５栄マンション４１６号室,,23,106,4600008,,,,,,,2025-12-02,1,,,,,ボンド,0
497,2180001169708,新規,0,2025-12-02,2025-12-02,株式会社人建,,株式会社,愛知県,知多郡武豊町,大字東大高字知里付１番地,,23,447,4702521,,,,,,,2025-12-02,1,,,,,ヒトケン,0
510,2240001065850,新規,0,2025-12-02,2025-12-02,株式会社クリスタルリゾート,,株式会社,広島県,広島市佐伯区,薬師が丘４丁目９番１６号,,34,108,7315154,,,,,,,2025-12-02,1,,,,,クリスタルリゾート,0
518,2250005009043,新規,0,2025-12-02,2025-12-02,特定非営利活動法人長府文化村,,その他の設立登記法人,山口県,下関市,長府松小田中町６番４７号,,35,201,7520935,,,,,,,2025-12-02,1,,,,,チョウフブンカムラ,0
521,2260001040777,新規,0,2025-12-02,2025-12-02,ミズリア設備株式会社,,株式会社,岡山県,岡山市東区,富士見町１丁目７番１２号,,33,103,7048184,,,,,,,2025-12-02,1,,,,,ミズリアセツビ,0
533,2290003017713,新規,0,2025-12-02,2025-12-02,合同会社アスハネ,,合同会社,福岡県,福岡市西区,徳永北７番１１号,,40,135,8190378,,,,,,,2025-12-02,1,,,,,アスハネ,0
540,2310001019865,新規,0,2025-12-02,2025-12-02,ＫＥＴＲＡ株式会社,,株式会社,長崎県,長崎市,旭町５番１－９０３号,,42,201,8528003,,,,,,,2025-12-02,1,,,,,ケトラ,0
541,2310001019873,新規,0,2025-12-02,2025-12-02,株式会社プラスターズ,,株式会社,長崎県,佐世保市,黒髪町３５４－１０,,42,202,8571152,,,,,,,2025-12-02,1,,,,,プラスターズ,0
548,2340001027790,新規,0,2025-12-02,2025-12-02,株式会社マヅルカ,,株式会社,鹿児島県,鹿児島市,下荒田４丁目１７番１７号,,46,201,8900056,,,,,,,2025-12-02,1,,,,,マヅルカ,0
554,2360001036088,新規,0,2025-12-02,2025-12-02,株式会社玉屋,,株式会社,沖縄県,那覇市,具志１丁目１７番３１号ライオンズマンション具志３０３,,47,201,9010146,,,,,,,2025-12-02,1,,,,,タマヤ,0
557,2360005007325,新規,0,2025-12-02,2025-12-02,一般社団法人医療防災エールアンドケア,,その他の設立登記法人,沖縄県,島尻郡八重瀬町,字富盛６０４番地１,,47,362,9010402,,,,,,,2025-12-02,1,,,,,イリョウボウサイエールアンドケア,0
560,2370001053272,新規,0,2025-12-02,2025-12-02,株式会社ｏｎＣＲＥＡＴＥ,,株式会社,宮城県,仙台市太白区,西の平２丁目１３番１６号,,04,104,9820825,,,,,,,2025-12-02,1,,,,,オンクリエイト,0
561,2370003007400,新規,0,2025-12-02,2025-12-02,ジョイビズ合同会社,,合同会社,宮城県,東松島市,赤井字鷲塚２６,,04,214,9810501,,,,,,,2025-12-02,1,,,,,ジョイビズ,0
563,2380001035724,新規,0,2025-12-02,2025-12-02,ＹＯＩＮ株式会社,,株式会社,福島県,郡山市,駅前１丁目９番１５号エリート５７ビル１Ｆ、２Ｆ,,07,203,9638002,,,,,,,2025-12-02,1,,,,,ヨイン,0
567,2400001017240,新規,0,2025-12-02,2025-12-02,株式会社ハイブリッジ・ファーム,,株式会社,岩手県,花巻市,鍋倉字東山居５５番地,,03,205,0250046,,,,,,,2025-12-02,1,,,,,ハイブリッジファーム,0
571,2430001095738,新規,0,2025-12-02,2025-12-02,株式会社藤電気ホールディングス,,株式会社,北海道,札幌市豊平区,西岡二条８丁目１番３８号,,01,105,0620032,,,,,,,2025-12-02,1,,,,,フジデンキホールディングス,0
572,2430001095770,新規,0,2025-12-02,2025-12-02,株式会社ＳｏｕｎｄＣｏｎｔｅｘｔｕｒｅ,,株式会社,北海道,札幌市中央区,大通西１４丁目３－１４　４０５号,,01,101,0600042,,,,,,,2025-12-02,1,,,,,サウンドコンテクチャー,0
591,3010001260705,新規,0,2025-12-02,2025-12-02,ＰｒｏＭａｎａｇｅ株式会社,,株式会社,東京都,千代田区,神田須田町１丁目７番８号ＶＯＲＴ秋葉原ＩＶ２Ｆ,00141696,13,101,1010041,,,,,,,2025-12-02,1,,,,,プロマネージ,0
592,3010001260746,新規,0,2025-12-02,2025-12-02,株式会社ＣＲＥＳＴ,,株式会社,東京都,中央区,勝どき４丁目６番２－３８２３号,,13,102,1040054,,,,,,,2025-12-02,1,,,,,クレスト,0
594,3010003049601,新規,0,2025-12-02,2025-12-02,ＳｙｚｅｎＴｏ合同会社,,合同会社,東京都,中央区,日本橋室町１丁目１１番１２号日本橋水野ビル７階,,13,102,1030022,,,,,,,2025-12-02,1,,,,,シゼント,0
602,3010401194734,新規,0,2025-12-02,2025-12-02,株式会社ＭＥアセット,,株式会社,東京都,港区,虎ノ門３丁目２番２号虎ノ門３０森ビル８階,,13,103,1050001,,,,,,,2025-12-02,1,,,,,エムイーアセット,0
603,3010401194882,新規,0,2025-12-02,2025-12-02,株式会社ＧＥＮ気ホールディングス,,株式会社,東京都,港区,六本木６丁目１０番１号六本木ヒルズ森タワー１６５４,,13,103,1060032,,,,,,,2025-12-02,1,,,,,ゲンキホールディングス,0
607,3010405025010,新規,0,2025-12-02,2025-12-02,一般社団法人日本生活支援協会,,その他の設立登記法人,東京都,港区,南青山２丁目２番１５号,,13,103,1070062,,,,,,,2025-12-02,1,,,,,ニホンセイカツシエンキョウカイ,0
608,3010501055118,新規,0,2025-12-02,2025-12-02,株式会社ＡｎｔｅＱ,,株式会社,東京都,台東区,東浅草２丁目１０－６ファブリック東浅草レジデンス６０２,,13,106,1110025,,,,,,,2025-12-02,1,,,,,アンテック,0
616,3010601068366,新規,0,2025-12-02,2025-12-02,株式会社豆音,,株式会社,東京都,江東区,東陽１丁目３２番１５号,,13,108,1350016,,,,,,,2025-12-02,1,,,,,マメオト,0
619,3010701048680,新規,0,2025-12-02,2025-12-02,株式会社デンエイアース,,株式会社,東京都,品川区,大井１丁目３８番８号エフェル品川８０１,,13,109,1400014,,,,,,,2025-12-02,1,,,,,デンエイアース,0
636,3011001173789,新規,0,2025-12-02,2025-12-02,株式会社Ｔ＆Ａアセットホールディングス,,株式会社,東京都,渋谷区,笹塚２丁目３７番７号,,13,113,1510073,,,,,,,2025-12-02,1,,,,,ティーアンドエーアセットホールディングス,0
637,3011001173847,新規,0,2025-12-02,2025-12-02,ＭＣＨ　Ｒｅｖｉｔａｌ＆Ｐａｒｔｎｅｒｓ株式会社,,株式会社,東京都,渋谷区,桜丘町２６－１セルリアンタワー１５階,,13,113,1500031,,,,,,,2025-12-02,1,,,,,エムシーエイチリバイタルアンドパートナーズ,0
638,3011001173855,新規,0,2025-12-02,2025-12-02,思源株式会社,,株式会社,東京都,渋谷区,神宮前６丁目２３番４号桑野ビル２階,,13,113,1500001,,,,,,,2025-12-02,1,,,,,シゲン,0
639,3011001173946,新規,0,2025-12-02,2025-12-02,株式会社ｓｔｒｉｎｇｅｒ,,株式会社,東京都,渋谷区,神南１丁目１１番４号ＦＰＧリンクス神南５階,,13,113,1500041,,,,,,,2025-12-02,1,,,,,ストリンガー,0
640,3011001173979,新規,0,2025-12-02,2025-12-02,Ｓｌａｓｈ　Ｖｉｓｉｏｎ　Ｊａｐａｎ株式会社,,株式会社,東京都,渋谷区,渋谷２丁目２４番１２号渋谷スクランブルスクエア３９階,,13,113,1500002,,,,,,,2025-12-02,1,,,,,スラッシュビジョンジャパン,0
642,3011003023042,新規,0,2025-12-02,2025-12-02,合同会社ＥＳＰＭ,,合同会社,東京都,渋谷区,代々木２丁目４０番９号Ｖｉｌｌａ．Ｖａｌｌｅ．Ｙｏｙｏｇｉ２０１,,13,113,1510053,,,,,,,2025-12-02,1,,,,,イーエスピーエム,0
644,3011101114131,新規,0,2025-12-02,2025-12-02,ＸＥＬＧＥＮ株式会社,,株式会社,東京都,新宿区,南元町１５－５９Ｈｉｒａｔａ,,13,104,1600012,,,,,,,2025-12-02,1,,,,,エクセルジェン,0
645,3011103016805,新規,0,2025-12-02,2025-12-02,Ｂｅｔ合同会社,,合同会社,東京都,新宿区,西新宿３丁目３番１３号西新宿水間ビル２Ｆ,,13,104,1600023,,,,,,,2025-12-02,1,,,,,ベット,0
652,3011403004955,新規,0,2025-12-02,2025-12-02,ＦｏｒＢｒｉｇｈｔＤｒｅａｍｓ合同会社,,合同会社,東京都,板橋区,弥生町６８－１,,13,119,1730021,,,,,,,2025-12-02,1,,,,,フォーブライトドリームス,0
653,3011501032858,新規,0,2025-12-02,2025-12-02,株式会社Ａｏｎｅｋｏ,,株式会社,東京都,北区,西ケ原４丁目１４番６号,,13,117,1140024,,,,,,,2025-12-02,1,,,,,アオネコ,0
654,3011601029201,新規,0,2025-12-02,2025-12-02,株式会社要,,株式会社,東京都,練馬区,向山２丁目９番２－１０１号,,13,120,1760022,,,,,,,2025-12-02,1,,,,,カナメ,0
664,3011801047143,新規,0,2025-12-02,2025-12-02,ネストリー株式会社,,株式会社,東京都,葛飾区,東水元２丁目１番１０号,,13,122,1250033,,,,,,,2025-12-02,1,,,,,ネストリー,0
672,3020001166059,新規,0,2025-12-02,2025-12-02,Ｆｉｄｅｘ株式会社,,株式会社,神奈川県,横浜市西区,北幸２丁目１０番４８号むつみビル３階,,14,103,2200004,,,,,,,2025-12-02,1,,,,,フィデクス,0
675,3020003029874,新規,0,2025-12-02,2025-12-02,合同会社一二三,,合同会社,神奈川県,川崎市川崎区,駅前本町１１番地２川崎フロンティアビル４階,,14,131,2100007,,,,,,,2025-12-02,1,,,,,ヒフミ,0
676,3020003029882,新規,0,2025-12-02,2025-12-02,ＳＡＩＬＯＵＴ２５合同会社,,合同会社,神奈川県,横浜市西区,北幸２丁目１０番４８号むつみビル３階,,14,103,2200004,,,,,,,2025-12-02,1,,,,,セールアウトトゥーファイブ,0
688,3040001141530,新規,0,2025-12-02,2025-12-02,株式会社Ｇｏｌｄｅｎ　Ａｐｅｘ,,株式会社,千葉県,佐倉市,城内町１３０番地１０,,12,212,2850017,,,,,,,2025-12-02,1,,,,,ゴールデンアペックス,0
689,3040001141555,新規,0,2025-12-02,2025-12-02,株式会社まちづくり野田,,株式会社,千葉県,野田市,宮崎１３３番地の３４,,12,208,2780005,,,,,,,2025-12-02,1,,,,,マチヅクリノダ,0
697,3050003009782,新規,0,2025-12-02,2025-12-02,合同会社本図設備,,合同会社,茨城県,土浦市,木田余東台３丁目２５番３３号,,08,203,3000027,,,,,,,2025-12-02,1,,,,,モトズセツビ,0
706,3080105006551,新規,0,2025-12-02,2025-12-02,社会保険労務士法人オオタケ,,その他の設立登記法人,静岡県,沼津市,岡宮９６９番地の１,,22,203,4100011,,,,,,,2025-12-02,1,,,,,オオタケ,0
713,3110001039750,新規,0,2025-12-02,2025-12-02,株式会社陽瑠,,株式会社,新潟県,新潟市中央区,鐙西２丁目１９番１６号,,15,103,9500915,,,,,,,2025-12-02,1,,,,,ハルル,0
732,3120001282366,新規,0,2025-12-02,2025-12-02,株式会社ｔｏ‐ｗａ,,株式会社,大阪府,大阪市西区,北堀江２丁目８番１７号オービットステージ北堀江３０２号室,,27,106,5500014,,,,,,,2025-12-02,1,,,,,トーワ,0
733,3120001282382,新規,0,2025-12-02,2025-12-02,株式会社ｂｒａｎｃ．,,株式会社,大阪府,大阪市北区,天満３丁目１番３号,,27,127,5300043,,,,,,,2025-12-02,1,,,,,ブラン,0
737,3120003031358,新規,0,2025-12-02,2025-12-02,暉青合同会社,,合同会社,大阪府,大阪市淀川区,宮原２丁目１２番１４－８２０号,,27,123,5320003,,,,,,,2025-12-02,1,,,,,キセイ,0
739,3120005025275,新規,0,2025-12-02,2025-12-02,ＮＰＯ法人えそらの会,,その他の設立登記法人,大阪府,大阪市北区,梅田３丁目２番１２３号,,27,127,5300001,,,,,,,2025-12-02,1,,,,,エソラノカイ,0
750,3120901051886,新規,0,2025-12-02,2025-12-02,株式会社ソルナワーク,,株式会社,大阪府,吹田市,豊津町１－１８エクラート江坂ビル３Ｆ１０号室,,27,205,5640051,,,,,,,2025-12-02,1,,,,,ソルナワーク,0
759,3130001081131,新規,0,2025-12-02,2025-12-02,ＩＣ加藤株式会社,,株式会社,京都府,京都市右京区,花園宮ノ上町１５,,26,108,6168047,,,,,,,2025-12-02,1,,,,,アイシーカトウ,0
769,3140001140927,新規,0,2025-12-02,2025-12-02,株式会社宮本熔接工業所,,株式会社,兵庫県,高砂市,時光寺町１１番６号,,28,216,6760813,,,,,,,2025-12-02,1,,,,,ミヤモトヨウセツコウギョウショ,0
770,3140001140935,新規,0,2025-12-02,2025-12-02,株式会社ＩＫＩＤ,,株式会社,兵庫県,尼崎市,次屋１丁目１２番２７号,,28,202,6610965,,,,,,,2025-12-02,1,,,,,アイキッド,0
773,3140005027716,新規,0,2025-12-02,2025-12-02,神戸市下水道維持事業協同組合,,その他の設立登記法人,兵庫県,神戸市兵庫区,本町２丁目４番１１,,28,105,6520834,,,,,,,2025-12-02,1,,,,,コウベシゲスイドウイジ,0
774,3160001027247,新規,0,2025-12-02,2025-12-02,株式会社Ｏｎｅｆａｍｉｌｙ,,株式会社,滋賀県,長浜市,湖北町海老江４０９番地,,25,203,5290367,,,,,,,2025-12-02,1,,,,,ワンファミリー,0
775,3170001018880,新規,0,2025-12-02,2025-12-02,株式会社マエダ,,株式会社,和歌山県,和歌山市,友田町３丁目３８番地シャルマンフジスマート友田町１３０３号室,,30,201,6408342,,,,,,,2025-12-02,1,,,,,マエダ,0
796,3180001169698,新規,0,2025-12-02,2025-12-02,株式会社メイト,,株式会社,愛知県,北名古屋市,熊之庄石原７５番地３,,23,234,4810006,,,,,,,2025-12-02,1,,,,,メイト,0
797,3180001169715,新規,0,2025-12-02,2025-12-02,株式会社Ｓ’ａｌｌｉｅｒ,,株式会社,愛知県,名古屋市中村区,十王町１２番２号グリーズ本陣３０３号,,23,105,4530035,,,,,,,2025-12-02,1,,,,,サリエ,0
807,3180303006822,新規,0,2025-12-02,2025-12-02,合同会社ＮＯＢＵＫＩ,,合同会社,愛知県,岡崎市,稲熊町字７丁目４１番地１１５,,23,202,4440071,,,,,,,2025-12-02,1,,,,,ノブキ,0
811,3220001027042,新規,0,2025-12-02,2025-12-02,株式会社わくらす,,株式会社,石川県,七尾市,和倉町ワ部２０番地２,,17,202,9260175,,,,,,,2025-12-02,1,,,,,ワクラス,0
816,3250003003848,新規,0,2025-12-02,2025-12-02,おくやましろ合同会社,,合同会社,山口県,岩国市,錦町宇佐郷８４３番地２,,35,208,7400902,,,,,,,2025-12-02,1,,,,,オクヤマシロ,0
831,3310001019872,新規,0,2025-12-02,2025-12-02,株式会社濱崎建設,00141697,株式会社,長崎県,長崎市,磯道町５３３番地２３,,42,201,8500971,,,,,,,2025-12-02,1,,,,,ハマサキケンセツ,0
833,3310003005136,新規,0,2025-12-02,2025-12-02,合同会社フレイルゼロ,,合同会社,長崎県,大村市,竹松本町１１２２番地,,42,205,8560805,,,,,,,2025-12-02,1,,,,,フレイルゼロ,0
857,3450003002747,新規,0,2025-12-02,2025-12-02,Ｎｓ　ＳＴＹＬＥ合同会社,,合同会社,北海道,上川郡東神楽町,北三条東２丁目５番１１号,,01,453,0711515,,,,,,,2025-12-02,1,,,,,エヌズスタイル,0
862,3500001026651,新規,0,2025-12-02,2025-12-02,ＭＩＲＡＩホールディングス愛媛株式会社,,株式会社,愛媛県,四国中央市,土居町津根３９０番地１,,38,213,7990704,,,,,,,2025-12-02,1,,,,,ミライホールディングスエヒメ,0
870,4010001260745,新規,0,2025-12-02,2025-12-02,Ｄｉｇｉｔａｌ　Ｇａｒｄｅｎ株式会社,,株式会社,東京都,千代田区,平河町２丁目１１番１０号パークウエストひらかわ１０２号室,,13,101,1020093,,,,,,,2025-12-02,1,,,,,デジタルガーデン,0
871,4010001260794,新規,0,2025-12-02,2025-12-02,株式会社令和研究所,,株式会社,東京都,中央区,築地２丁目１番２号秀和築地レジデンス５０３号室,,13,102,1040045,,,,,,,2025-12-02,1,,,,,レイワケンキュウショ,0
873,4010003049468,新規,0,2025-12-02,2025-12-02,Ｖａｓｅ　Ｂｅａｕｔｙ合同会社,,合同会社,東京都,中央区,銀座１丁目２１番１３号７階,,13,102,1040061,,,,,,,2025-12-02,1,,,,,ベースビューティー,0
874,4010003049583,新規,0,2025-12-02,2025-12-02,十玄舎合同会社,,合同会社,東京都,千代田区,内神田３丁目４－１２トーハン第７ビル８階,,13,101,1010047,,,,,,,2025-12-02,1,,,,,ジュウゲンシャ,0
875,4010003049591,新規,0,2025-12-02,2025-12-02,ソニア・セラピューティクス合同会社,,合同会社,東京都,中央区,日本橋本町３丁目１１番５号,,13,102,1030023,,,,,,,2025-12-02,1,,,,,ソニアセラピューティクス,0
877,4010005041027,新規,0,2025-12-02,2025-12-02,天神一丁目開発プロジェクト特定目的会社,,その他の設立登記法人,東京都,千代田区,平河町１丁目６番１５号シルスフィア会計事務所内,,13,101,1020093,,,,,,,2025-12-02,1,,,,,テンジンイッチョウメカイハツプロジェクト,0
881,4010401194709,新規,0,2025-12-02,2025-12-02,サジェムコムジャパン株式会社,,株式会社,東京都,港区,東麻布１丁目２３番５号,,13,103,1060044,,,,,,,2025-12-02,1,,,,,サジェムコムジャパン,0
882,4010401194857,新規,0,2025-12-02,2025-12-02,株式会社森羅,,株式会社,東京都,港区,南青山４丁目１８番２１号,,13,103,1070062,,,,,,,2025-12-02,1,,,,,シンラ,0
887,4010405025067,新規,0,2025-12-02,2025-12-02,ＧＴＯ１一般社団法人,,その他の設立登記法人,東京都,港区,虎ノ門３丁目２２番１０－２０１号,,13,103,1050001,,,,,,,2025-12-02,1,,,,,ジーティーオーワン,0
889,4010501055117,新規,0,2025-12-02,2025-12-02,六晶科技日本株式会社,,株式会社,東京都,台東区,台東２丁目２７番３号ＮＳＫビル１０Ｆ,,13,106,1100016,,,,,,,2025-12-02,1,,,,,ロクショウカギニホン,0
893,4010803005629,新規,0,2025-12-02,2025-12-02,合同会社ＩＴＱエステート,,合同会社,東京都,大田区,上池台４丁目７番１－１００１号,,13,111,1450064,,,,,,,2025-12-02,1,,,,,アイティーキューエステート,0
895,4010901058561,新規,0,2025-12-02,2025-12-02,Ｋｕｒｏｓａｗａ　ｇｒａｎｄｓｏｎｓ株式会社,,株式会社,東京都,世田谷区,玉堤２丁目１０番１４号,,13,112,1580087,,,,,,,2025-12-02,1,,,,,クロサワグランドサンズ,0
903,4011001173846,新規,0,2025-12-02,2025-12-02,株式会社イージーソリューションズ,,株式会社,東京都,渋谷区,神南１丁目１１－４ＦＰＧリンクス神南５階,,13,113,1500041,,,,,,,2025-12-02,1,,,,,イージーソリューションズ,0
904,4011001173862,新規,0,2025-12-02,2025-12-02,株式会社ルートサイド,,株式会社,東京都,目黒区,青葉台１丁目１７番５号メゾン・青葉４０１,,13,110,1530042,,,,,,,2025-12-02,1,,,,,ルートサイド,0
905,4011001173945,新規,0,2025-12-02,2025-12-02,株式会社ＴＡＥＳＡＮ　Ｉｎｔｅｒｎａｔｉｏｎａｌ,,株式会社,東京都,目黒区,上目黒２丁目１番２－９０５号中目黒ＧＴハイツ,,13,110,1530051,,,,,,,2025-12-02,1,,,,,テサンインターナショナル,0
918,4011403004954,新規,0,2025-12-02,2025-12-02,合同会社ＲＡＶＥＮ,,合同会社,東京都,板橋区,大和町２３－３カイホウブルータワー,,13,119,1730012,,,,,,,2025-12-02,1,,,,,レイブン,0
919,4011501032857,新規,0,2025-12-02,2025-12-02,リリトラ株式会社,,株式会社,東京都,荒川区,町屋３丁目２－１－Ｂ１１０,,13,118,1160001,,,,,,,2025-12-02,1,,,,,リリトラ,0
923,4012401043878,新規,0,2025-12-02,2025-12-02,インターブルー・パートナーズ株式会社,,株式会社,東京都,三鷹市,井の頭４丁目２０番１７号,,13,204,1810001,,,,,,,2025-12-02,1,,,,,インターブルーパートナーズ,0
926,4012801024395,新規,0,2025-12-02,2025-12-02,株式会社Ｕｎｌｉｍｉｔｅｄ　Ｗｏｒｋｓ,,株式会社,東京都,日野市,西平山２丁目６番地の１６３,,13,212,1910055,,,,,,,2025-12-02,1,,,,,アンリミテッドワークス,0
931,4020001165984,新規,0,2025-12-02,2025-12-02,横浜ライフ・サポート株式会社,,株式会社,神奈川県,横浜市中区,西之谷町１０８－３山手グリーンハウス２号館１０２,,14,104,2310844,,,,,,,2025-12-02,1,,,,,ヨコハマライフサポート,0
935,4020003029832,新規,0,2025-12-02,2025-12-02,合同会社ティー・ツー,,合同会社,神奈川県,川崎市宮前区,東有馬５丁目３９－１４－１,,14,136,2160002,,,,,,,2025-12-02,1,,,,,ティーツー,0
936,4020003029873,新規,0,2025-12-02,2025-12-02,合同会社ＦＵＴＵＲＥ,,合同会社,神奈川県,横浜市港南区,大久保１丁目１１－３ケーアールハイツ上大岡２０２,,14,111,2330007,,,,,,,2025-12-02,1,,,,,フューチャー,0
937,4020003029915,新規,0,2025-12-02,2025-12-02,カリュード合同会社,,合同会社,神奈川県,横浜市西区,北幸２丁目１０番４８号むつみビル３階,,14,103,2200004,,,,,,,2025-12-02,1,,,,,カリュード,0
940,4020005017067,新規,0,2025-12-02,2025-12-02,一般社団法人葵育会,,その他の設立登記法人,神奈川県,川崎市宮前区,東有馬５丁目１番２号メディカルプラザＤ東有馬３階Ａ,,14,136,2160002,,,,,,,2025-12-02,1,,,,,アオイイクカイ,0
942,4021001086923,新規,0,2025-12-02,2025-12-02,株式会社ジェスティオーネ,,株式会社,神奈川県,逗子市,桜山５丁目２７番２０号,,14,208,2490005,,,,,,,2025-12-02,1,,,,,ジェスティオーネ,0
946,4030001169919,新規,0,2025-12-02,2025-12-02,株式会社ＯＴＡ,,株式会社,埼玉県,さいたま市浦和区,岸町６丁目７番２７号,,11,107,3300064,,,,,,,2025-12-02,1,,,,,オーティーエー,0
950,4030003028164,新規,0,2025-12-02,2025-12-02,合同会社コービー,,合同会社,埼玉県,川口市,飯塚３１３－１９コンフォールノグチ４０２号,,11,203,3320000,,,,,,,2025-12-02,1,,,,,コービー,0
951,4030005022355,新規,0,2025-12-02,2025-12-02,一般社団法人ＷＨＩＳＫＥＹ　ＦＯＲＥＳＴ,,その他の設立登記法人,埼玉県,川口市,栄町３丁目１３番１樹モールプラザ２０９号,,11,203,3320017,,,,,,,2025-12-02,1,,,,,ウィスキーフォレスト,0
958,4040001141579,新規,0,2025-12-02,2025-12-02,株式会社セントラルビレッジ,,株式会社,千葉県,柏市,あけぼの４丁目１１番９号,,12,217,2770841,,,,,,,2025-12-02,1,,,,,セントラルビレッジ,0
964,4040003029070,新規,0,2025-12-02,2025-12-02,丸岡合同会社,,合同会社,千葉県,白井市,西白井２丁目２６番地１９ラフレシール１０２号,,12,232,2701408,,,,,,,2025-12-02,1,,,,,マルオカ,0
966,4050001057642,新規,0,2025-12-02,2025-12-02,株式会社２ｎｄ　Ｐｈａｓｅ,,株式会社,茨城県,ひたちなか市,高場６丁目５番地１３,,08,221,3120062,,,,,,,2025-12-02,1,,,,,セカンドフェイズ,0
974,4080101025926,新規,0,2025-12-02,2025-12-02,株式会社ＳＡＮＯＴＡＩ,,株式会社,静岡県,富士市,岩本１８６３番地の１,,22,210,4160901,,,,,,,2025-12-02,1,,,,,サノタイ,0
977,4090001019630,新規,0,2025-12-02,2025-12-02,依田アセットコンサルティング株式会社,,株式会社,山梨県,甲斐市,富竹新田２４５－２昭和土地ビル２号館３階２８,,19,210,4000113,,,,,,,2025-12-02,1,,,,,ヨダアセットコンサルティング,0
989,4110003005956,新規,0,2025-12-02,2025-12-02,合同会社マネジオン,,合同会社,新潟県,新潟市西区,五十嵐２の町８０５０ＮＯＴＴＨＥＵＮＩＶＥＲＳＩＴＹ,,15,107,9502102,,,,,,,2025-12-02,1,,,,,マネジオン,0
995,4120001282316,新規,0,2025-12-02,2025-12-02,ＰＡＴＯＳＨＡ株式会社,,株式会社,大阪府,大阪市西区,立売堀１丁目６番１３－４０２号,,27,106,5500012,,,,,,,2025-12-02,1,,,,,パトシャ,0
996,4120001282357,新規,0,2025-12-02,2025-12-02,井川株式会社,,株式会社,大阪府,大阪市生野区,田島４丁目１５－７,,27,116,5440011,,,,,,,2025-12-02,1,,,,,イガワ,0
1000,4120003031290,新規,0,2025-12-02,2025-12-02,合同会社音葉,,合同会社,大阪府,大阪市生野区,新今里４丁目８番３号,,27,116,5440001,,,,,,,2025-12-02,1,,,,,オトハ,0
1001,4120003031357,新規,0,2025-12-02,2025-12-02,合同会社ＨＥＲＯ,,合同会社,大阪府,大阪市中央区,常盤町２丁目１番１３－２０１号,,27,128,5400028,,,,,,,2025-12-02,1,,,,,ヒーロー,0
1013,4120901051869,新規,0,2025-12-02,2025-12-02,株式会社ピオニエーレ,,株式会社,大阪府,高槻市,宮が谷町５５番２号,,27,207,5691023,,,,,,,2025-12-02,1,,,,,ピオニエーレ,0
1014,4120901051877,新規,0,2025-12-02,2025-12-02,株式会社エコサーチ,,株式会社,大阪府,吹田市,岸部南２丁目２６番５－１号,,27,205,5640011,,,,,,,2025-12-02,1,,,,,エコサーチ,0
1015,4120903005971,新規,0,2025-12-02,2025-12-02,合同会社ＨｍＳ　ＬＡＢ．,,合同会社,大阪府,豊中市,上野坂１丁目１８番１３号,,27,203,5600012,,,,,,,2025-12-02,1,,,,,ヒムスラボ,0
1020,4122003003402,新規,0,2025-12-02,2025-12-02,合同会社Ｌｙｃｋａ,,合同会社,大阪府,東大阪市,南鴻池町１丁目７－４,,27,227,5780961,,,,,,,2025-12-02,1,,,,,リッカ,0
1021,4122003003410,新規,0,2025-12-02,2025-12-02,合同会社ＹＡＭＡＤＡＮ’ｓ,,合同会社,大阪府,東大阪市,柏田東町１０番６号,,27,227,5770833,,,,,,,2025-12-02,1,,,,,ヤマダンズ,0
1024,4130001081106,新規,0,2025-12-02,2025-12-02,ローズハート株式会社,,株式会社,京都府,京都市東山区,池殿町２１１番地３,,26,105,6050848,,,,,,,2025-12-02,1,,,,,ローズハート,0
1025,4130001081122,新規,0,2025-12-02,2025-12-02,株式会社福香,,株式会社,京都府,京都市下京区,二帖半敷町６４７番地２オンリー烏丸ビル１Ｆ・２Ｆ,,26,106,6008412,,,,,,,2025-12-02,1,,,,,フッカ,0
1026,4130003010970,新規,0,2025-12-02,2025-12-02,合同会社サンクアンシス,,合同会社,京都府,京都市南区,久世高田町３７３番地１京都桂川つむぎの街グランスクエア１３１１,,26,107,6018211,,,,,,,2025-12-02,1,,,,,サンクアンシス,0
1027,4130005017527,新規,0,2025-12-02,2025-12-02,一般社団法人みのりの会,,その他の設立登記法人,京都府,福知山市,三和町友渕７０１番地の２,,26,201,6201424,,,,,,,2025-12-02,1,,,,,ミノリノカイ,0
1035,4140003022858,新規,0,2025-12-02,2025-12-02,合同会社ｃｏｌｏｒ,,合同会社,兵庫県,加古郡播磨町,古宮６丁目６２７－４,,28,382,6750163,,,,,,,2025-12-02,1,,,,,カラー,0
1036,4140003022899,新規,0,2025-12-02,2025-12-02,合同会社リノマハロ,,合同会社,兵庫県,姫路市,苫編６５３番地１３,,28,201,6700986,,,,,,,2025-12-02,1,,,,,リノマハロ,0
1039,4150001028575,新規,0,2025-12-02,2025-12-02,ＴＩＣ株式会社,,株式会社,奈良県,奈良市,高天市町４９番地,,29,201,6308238,,,,,,,2025-12-02,1,,,,,ティーアイシー,0
1048,4180001169689,新規,0,2025-12-02,2025-12-02,株式会社研鑽ワークス,,株式会社,愛知県,東海市,富貴ノ台６丁目２１４番地の２,,23,222,4760014,,,,,,,2025-12-02,1,,,,,ケンサンワークス,0
1050,4180003029445,新規,0,2025-12-02,2025-12-02,小島合同会社,,合同会社,愛知県,東海市,名和町砂崎８番地,,23,222,4760002,,,,,,,2025-12-02,1,,,,,コジマ,0
1056,4190001032730,新規,0,2025-12-02,2025-12-02,株式会社ＺＥＲＯＭ　ＷＥＳＴ,,株式会社,三重県,津市,安濃町清水１０２番地２,,24,201,5142305,,,,,,,2025-12-02,1,,,,,ゼロムウエスト,0
1067,4230001021200,新規,0,2025-12-02,2025-12-02,株式会社カーラ,,株式会社,富山県,富山市,今泉北部町１番地５,,16,201,9398282,,,,,,,2025-12-02,1,,,,,カーラ,0
1072,4250001021446,新規,0,2025-12-02,2025-12-02,リーベクト株式会社,,株式会社,山口県,下関市,菊川町大字下岡枝１６８番地３,,35,201,7500317,,,,,,,2025-12-02,1,,,,,リーベクト,0
1073,4260001040775,新規,0,2025-12-02,2025-12-02,株式会社Ｕｎｉ．,,株式会社,岡山県,倉敷市,児島通生２５８９番地４,,33,202,7110933,,,,,,,2025-12-02,1,,,,,ユニ,0
1083,4290001112241,新規,0,2025-12-02,2025-12-02,株式会社ＧＬＡＮＺ,,株式会社,福岡県,大野城市,瓦田４丁目１４番２０－７０２号,,40,219,8160932,,,,,,,2025-12-02,1,,,,,グランツ,0
1084,4290001112357,新規,0,2025-12-02,2025-12-02,株式会社福重,,株式会社,福岡県,福岡市西区,福重３丁目８番１７－１０８号,,40,135,8190022,,,,,,,2025-12-02,1,,,,,フクシゲ,0
1094,4360003015435,新規,0,2025-12-02,2025-12-02,Ｊｕｎｋｅｔ合同会社,,合同会社,沖縄県,那覇市,久茂地１丁目６番地１,,47,201,9000015,,,,,,,2025-12-02,1,,,,,ジャンケット,0
1095,4360003015443,新規,0,2025-12-02,2025-12-02,合同会社梯紘,,合同会社,沖縄県,沖縄市,登川２丁目２７番１８号,,47,211,9042142,,,,,,,2025-12-02,1,,,,,テイコウ,0
1099,4370001053270,新規,0,2025-12-02,2025-12-02,株式会社Ｋ,,株式会社,宮城県,仙台市若林区,霞目２丁目２６番３５号レオネクストスエヒロ１０３,,04,103,9840035,,,,,,,2025-12-02,1,,,,,ケイ,0
1100,4370001053279,新規,0,2025-12-02,2025-12-02,北都科学株式会社,,株式会社,宮城県,白石市,旭町４丁目１番１８－３号,,04,206,9890223,,,,,,,2025-12-02,1,,,,,ホクトカガク,0
1102,4370003007398,新規,0,2025-12-02,2025-12-02,合同会社Ａ‐Ｒｉｎｇ　Ｓｔｕｄｉｏ,,合同会社,宮城県,仙台市太白区,茂庭台２丁目２番１７号,,04,104,9820252,,,,,,,2025-12-02,1,,,,,エーリングスタジオ,0
1103,4390003002471,新規,0,2025-12-02,2025-12-02,マルベイ合同会社,,合同会社,山形県,尾花沢市,上町６丁目５番３０号,,06,212,9994228,,,,,,,2025-12-02,1,,,,,マルベイ,0
1112,4450003002746,新規,0,2025-12-02,2025-12-02,合同会社イエールホスピタリティ,,合同会社,北海道,旭川市,東光十条６丁目３番１１号,,01,204,0788350,,,,,,,2025-12-02,1,,,,,イエールホスピタリティ,0
1113,4450005004468,新規,0,2025-12-02,2025-12-02,一般社団法人森の暮らし,,その他の設立登記法人,北海道,上川郡上川町,中央町５６６番,,01,457,0781741,,,,,,,2025-12-02,1,,,,,モリノクラシ,0
1117,4480005007113,新規,0,2025-12-02,2025-12-02,特定非営利活動法人かがやき,,その他の設立登記法人,徳島県,徳島市,新南福島１丁目４番２９－２号,,36,201,7700867,,,,,,,2025-12-02,1,,,,,カガヤキ,0
1124,5010001260736,新規,0,2025-12-02,2025-12-02,伊勢食品株式会社,,株式会社,東京都,文京区,千石４丁目１４番９号,,13,105,1120011,,,,,,,2025-12-02,1,,,,,イゼイショクヒン,0
1125,5010005041026,新規,0,2025-12-02,2025-12-02,ＢＲ　ＳＨＩＮＡＧＡＷＡ一般社団法人,,その他の設立登記法人,東京都,千代田区,丸の内１丁目４番１号東京共同会計事務所内,,13,101,1000005,,,,,,,2025-12-02,1,,,,,ビーアールシナガワ,0
1141,5010501055116,新規,0,2025-12-02,2025-12-02,株式会社ＳＨＩＮ,,株式会社,東京都,台東区,東上野４丁目４番９－１４０３号,,13,106,1100015,,,,,,,2025-12-02,1,,,,,シン,0
1143,5010601068356,新規,0,2025-12-02,2025-12-02,ＶＡＩＲＯＳ株式会社,,株式会社,東京都,江東区,豊洲５丁目６番３６号豊洲プライムスクエア１０Ｆ,,13,108,1350061,,,,,,,2025-12-02,1,,,,,バイロス,0
1144,5010601068364,新規,0,2025-12-02,2025-12-02,Ｘ　Ｇｅｍ株式会社,,株式会社,東京都,江東区,亀戸６丁目４７－１,,13,108,1360071,,,,,,,2025-12-02,1,,,,,クロスジェム,0
1145,5010601068372,新規,0,2025-12-02,2025-12-02,株式会社東京下町正直屋,,株式会社,東京都,墨田区,向島５丁目３１番１３号,,13,107,1310033,,,,,,,2025-12-02,1,,,,,トウキョウシタマチショウジキヤ,0
1146,5010701048687,新規,0,2025-12-02,2025-12-02,株式会社みんサポ,,株式会社,東京都,品川区,上大崎２丁目１５番１９号,,13,109,1410021,,,,,,,2025-12-02,1,,,,,ミンサポ,0
1147,5010703008012,新規,0,2025-12-02,2025-12-02,合同会社ＴＫデベロップメント,,合同会社,東京都,品川区,西五反田５丁目２１番１３号,,13,109,1410031,,,,,,,2025-12-02,1,,,,,ティーケーデベロップメント,0
1148,5010703008020,新規,0,2025-12-02,2025-12-02,アバンダンシア合同会社,,合同会社,東京都,品川区,豊町３丁目１０－８,,13,109,1420042,,,,,,,2025-12-02,1,,,,,アバンダンシア,0
1149,5010801036831,新規,0,2025-12-02,2025-12-02,株式会社ＹＡＲＤＳ,,株式会社,東京都,大田区,久が原５丁目８番３号,,13,111,1460085,,,,,,,2025-12-02,1,,,,,ヤード,0
1156,5010901058560,新規,0,2025-12-02,2025-12-02,株式会社Ｏｓｍａｎｔｈｕｓ,,株式会社,東京都,世田谷区,用賀２丁目８番１０号,,13,112,1580097,,,,,,,2025-12-02,1,,,,,オスマンサス,0
1164,5011001173655,新規,0,2025-12-02,2025-12-02,株式会社ＩＷＡＩ,,株式会社,東京都,渋谷区,宇田川町４２－４ワイリービル２階,,13,113,1500042,,,,,,,2025-12-02,1,,,,,イワイ,0
1165,5011001173911,新規,0,2025-12-02,2025-12-02,株式会社ＡｃｃｅｌＳｈｉｆｔ,,株式会社,東京都,目黒区,下目黒１丁目１番１４号コノトラビル７Ｆ,,13,110,1530064,,,,,,,2025-12-02,1,,,,,アクセルシフト,0
1167,5011003023049,新規,0,2025-12-02,2025-12-02,Ｆｏｒｉｇｅ　Ｃａｐｉｔａｌ合同会社,,合同会社,東京都,目黒区,下目黒１丁目１番１４号コノトラビル７Ｆ,,13,110,1530064,,,,,,,2025-12-02,1,,,,,フォリッジキャピタル,0
1173,5011301031083,新規,0,2025-12-02,2025-12-02,株式会社ｔｍｚ,,株式会社,東京都,杉並区,阿佐谷南２丁目１０番１１号,,13,115,1660004,,,,,,,2025-12-02,1,,,,,ティーエムゼット,0
1178,5011401027626,新規,0,2025-12-02,2025-12-02,クロースメーカーズ株式会社,,株式会社,東京都,板橋区,泉町１３番５号,,13,119,1740055,,,,,,,2025-12-02,1,,,,,クロースメーカーズ,0
1183,5012401043869,新規,0,2025-12-02,2025-12-02,ＭＩＯファシリティーズ株式会社,,株式会社,東京都,府中市,小柳町４丁目１３番７号,,13,206,1830013,,,,,,,2025-12-02,1,,,,,ミオファシリティーズ,0
1184,5012403007483,新規,0,2025-12-02,2025-12-02,合同会社山海,,合同会社,東京都,武蔵野市,吉祥寺本町１丁目１２番１１号第二柏栄ビル三階,,13,203,1800004,,,,,,,2025-12-02,1,,,,,サンカイ,0
1193,5020001166065,新規,0,2025-12-02,2025-12-02,株式会社吉美,,株式会社,神奈川県,川崎市川崎区,京町１丁目７番９号菅原コーポ１０１,,14,131,2100848,,,,,,,2025-12-02,1,,,,,ヨシミ,0
1195,5020003029864,新規,0,2025-12-02,2025-12-02,合同会社あるけみすと,,合同会社,神奈川県,横浜市神奈川区,金港町５―１４クアドリフォリオ８階,,14,102,2210056,,,,,,,2025-12-02,1,,,,,アルケミスト,0
1196,5020003029906,新規,0,2025-12-02,2025-12-02,合同会社Ａｒｏｖｉｌｌ,,合同会社,神奈川県,川崎市宮前区,神木本町１丁目１７番６－２号,,14,136,2160031,,,,,,,2025-12-02,1,,,,,アロヴィル,0
1198,5021001086906,新規,0,2025-12-02,2025-12-02,日本アロエ科学株式会社,,株式会社,神奈川県,相模原市緑区,日連２０６番地２,,14,151,2520185,,,,,,,2025-12-02,1,,,,,,0
1205,5030003028007,新規,0,2025-12-02,2025-12-02,アイリンクグループホールディングス合同会社,,合同会社,埼玉県,さいたま市大宮区,北袋町１丁目２８５－７,,11,103,3300835,,,,,,,2025-12-02,1,,,,,アイリンクグループホールディングス,0
1212,5050003009780,新規,0,2025-12-02,2025-12-02,合同会社ＴＨＡＲＵ　ＩＮＴＥＲＮＡＴＩＯＮＡＬ,,合同会社,茨城県,下妻市,比毛３６番地１,,08,210,3040032,,,,,,,2025-12-02,1,,,,,タルインターナショナル,0
1213,5060001038797,新規,0,2025-12-02,2025-12-02,柏倉ホールディングス株式会社,,株式会社,栃木県,日光市,高徳４４０番地,,09,206,3212523,,,,,,,2025-12-02,1,,,,,カシクラホールディングス,0
1214,5070001043607,新規,0,2025-12-02,2025-12-02,懸け橋株式会社,,株式会社,群馬県,太田市,尾島町３３６番地７,,10,205,3700401,,,,,,,2025-12-02,1,,,,,カケハシ,0
1226,5100001039155,新規,0,2025-12-02,2025-12-02,ネクサス株式会社,,株式会社,長野県,長野市,稲里町中央３丁目１７番３３号,,20,201,3812217,,,,,,,2025-12-02,1,,,,,ネクサス,0
1235,5120001150050,新規,0,2025-12-02,2025-12-02,大一住宅株式会社,,株式会社,大阪府,枚方市,中宮山戸町１番１７－１０１号,,27,210,5730011,,,,,,,2025-12-02,1,,,,,ダイイチジュウタク,0
1241,5120001282224,新規,0,2025-12-02,2025-12-02,株式会社ＡＲＢＯＲ,,株式会社,大阪府,大阪市住吉区,長峡町４番４１号ウェルホームズ住吉大社５０８号,,27,120,5580044,,,,,,,2025-12-02,1,,,,,アーバー,0
1242,5120001282331,新規,0,2025-12-02,2025-12-02,ＮＤＣ株式会社,,株式会社,大阪府,大阪市北区,梅田１丁目１－３大阪駅前第３ビル２９階１－１－１号室,,27,127,5300001,,,,,,,2025-12-02,1,,,,,エヌディーシー,0
1243,5120001282356,新規,0,2025-12-02,2025-12-02,アクト株式会社,,株式会社,大阪府,大阪市住之江区,平林南２丁目８番３７号,,27,125,5590025,,,,,,,2025-12-02,1,,,,,アクト,0
1244,5120001282414,新規,0,2025-12-02,2025-12-02,Ｆ　Ｂａｓｅ株式会社,,株式会社,大阪府,大阪市中央区,谷町５丁目１‐６エスレジデンス谷町五丁目１３０２号室,,27,128,5400012,,,,,,,2025-12-02,1,,,,,エフベース,0
1245,5120001282455,新規,0,2025-12-02,2025-12-02,ＭＴＭ　ＨＯＴＥＬＳ株式会社,,株式会社,大阪府,大阪市西成区,梅南２丁目４番２６号,,27,122,5570033,,,,,,,2025-12-02,1,,,,,エムティーエムホテルズ,0
1250,5120003031356,新規,0,2025-12-02,2025-12-02,合同会社疾風,,合同会社,大阪府,大阪市生野区,生野西１丁目３－３号,,27,116,5440024,,,,,,,2025-12-02,1,,,,,ハヤテ,0
1255,5120903005979,新規,0,2025-12-02,2025-12-02,ＴＲＡＩＬ　ＭＡＲＫ合同会社,,合同会社,大阪府,吹田市,山田北８番１６－１０４号,,27,205,5650825,,,,,,,2025-12-02,1,,,,,トレイルマーク,0
1259,5130001081121,新規,0,2025-12-02,2025-12-02,株式会社ＳＯＡＬＬＡ,,株式会社,京都府,京都市下京区,仏光寺通烏丸東入上柳町３３１タカノハスクエア,,26,106,6008099,,,,,,,2025-12-02,1,,,,,ソアラ,0
1265,5150001028566,新規,0,2025-12-02,2025-12-02,株式会社ＢＲＥＡＤＷＩＮＮＥＲ,,株式会社,奈良県,橿原市,八木町３丁目４番２３号,,29,205,6340078,,,,,,,2025-12-02,1,,,,,ブレッドウィナー,0
1275,5180001169696,新規,0,2025-12-02,2025-12-02,株式会社ＧＦ,,株式会社,愛知県,江南市,宮後町砂場東３８３番地,,23,217,4838044,,,,,,,2025-12-02,1,,,,,ジーエフ,0
1279,5180003029444,新規,0,2025-12-02,2025-12-02,Ｒｉｎｂｅｌｌ合同会社,,合同会社,愛知県,名古屋市中区,大須３丁目４４番３９号ラムセス大須９０１号,,23,106,4600011,,,,,,,2025-12-02,1,,,,,リンベル,0
1280,5180005021325,新規,0,2025-12-02,2025-12-02,ＮＰＯ法人ナラティブ・カウンセリング・ネットワーク,,その他の設立登記法人,愛知県,名古屋市西区,貴生町２３－４第９平松マンション４０５号,,23,104,4520816,,,,,,,2025-12-02,1,,,,,ナラティブカウンセリングネットワーク,0
1296,5260001040766,新規,0,2025-12-02,2025-12-02,株式会社レンタルライフサポート,,株式会社,岡山県,岡山市北区,富田町１丁目６－１０東光第一ビル１０１号,,33,101,7000816,,,,,,,2025-12-02,1,,,,,レンタルライフサポート,0
1297,5260001040774,新規,0,2025-12-02,2025-12-02,タケウチ商事株式会社,,株式会社,岡山県,赤磐市,桜が丘西９丁目４番１２９号,,33,213,7090802,,,,,,,2025-12-02,1,,,,,タケウチショウジ,0
1318,5310001019870,新規,0,2025-12-02,2025-12-02,株式会社七彩本舗,,株式会社,長崎県,大村市,宮小路２丁目２０４番地２エミールハウス１０２,,42,205,8560807,,,,,,,2025-12-02,1,,,,,ナナイロホンポ,0
1330,5360003015426,新規,0,2025-12-02,2025-12-02,合同会社沖縄くれんちゅマーケット,,合同会社,沖縄県,那覇市,鏡原町２５番１号フジマンション１０２,,47,201,9010151,,,,,,,2025-12-02,1,,,,,オキナワクレンチュマーケット,0
1331,5360003015434,新規,0,2025-12-02,2025-12-02,合同会社Ｗｅｌｌ‐ｂｅｉｎｇ,,合同会社,沖縄県,うるま市,石川１８７２番地１・２階,,47,213,9041106,,,,,,,2025-12-02,1,,,,,ウェルビーイング,0
1332,5360003015442,新規,0,2025-12-02,2025-12-02,合同会社グローバルビジネス沖縄,,合同会社,沖縄県,中頭郡中城村,字南上原７６５番地２ＨＱＤＭ星光３０３号,,47,328,9012424,,,,,,,2025-12-02,1,,,,,グローバルビジネスオキナワ,0
1340,5430001095768,新規,0,2025-12-02,2025-12-02,株式会社祐匠,,株式会社,北海道,札幌市豊平区,福住一条３丁目９番３９号,,01,105,0620041,,,,,,,2025-12-02,1,,,,,ユウショウ,0
1347,5470001020994,新規,0,2025-12-02,2025-12-02,株式会社あなぶきアクアポニックス,,株式会社,香川県,高松市,紺屋町３番地６,,37,201,7600027,,,,,,,2025-12-02,1,,,,,アナブキアクアポニックス,0
1348,5470002019706,新規,0,2025-12-02,2025-12-02,有限会社勝恵ビル,,有限会社,香川県,高松市,今里町１丁目３番地７,,37,201,7600078,,,,,,,2025-12-02,1,,,,,,0
1358,6010001260181,新規,0,2025-12-02,2025-12-02,株式会社大蔵商事,,株式会社,東京都,中央区,晴海５丁目５－３－１５０５,,13,102,1040053,,,,,,,2025-12-02,1,,,,,オオクラショウジ,0
1359,6010001260363,新規,0,2025-12-02,2025-12-02,株式会社およねさん,,株式会社,東京都,中央区,月島１丁目１０番４号マガザン４,,13,102,1040052,,,,,,,2025-12-02,1,,,,,オヨネサン,0
1360,6010001260735,新規,0,2025-12-02,2025-12-02,桜花麗人株式会社,,株式会社,東京都,文京区,千石４丁目１４番９号,,13,105,1120011,,,,,,,2025-12-02,1,,,,,サクラレイジン,0
1361,6010001260751,新規,0,2025-12-02,2025-12-02,株式会社Ｆ＆Ｐ　ＬＬ‐ｐｒｏｐｅｒｔｙ,,株式会社,東京都,中央区,日本橋小網町７番２号,,13,102,1030016,,,,,,,2025-12-02,1,,,,,エフアンドピーエルエルプロパティ,0
1362,6010001260792,新規,0,2025-12-02,2025-12-02,株式会社丸誉長寿バイオテック研究院,,株式会社,東京都,中央区,銀座７丁目１３番２０号銀座ＴＨビル９階,,13,102,1040061,,,,,,,2025-12-02,1,,,,,マルヨチョウジュバイオテックケンキュウイン,0
1363,6010001260834,新規,0,2025-12-02,2025-12-02,株式会社Ｏｒｔｕｓ　Ａｄｖｉｓｏｒｓ　Ｊａｐａｎ,,株式会社,東京都,文京区,本郷１丁目３０番１６号３０４号室,,13,105,1130033,,,,,,,2025-12-02,1,,,,,オータスアドバーザーズジャパン,0
1366,6010003049417,新規,0,2025-12-02,2025-12-02,合同会社ＥＲ８,,合同会社,東京都,中央区,日本橋２丁目１番３号,,13,102,1030027,,,,,,,2025-12-02,1,,,,,イーアールエイト,0
1367,6010003049565,新規,0,2025-12-02,2025-12-02,ＭＴ貿易合同会社,,合同会社,東京都,中央区,銀座１丁目１２番４号Ｎ＆ＥＢＬＤ．６Ｆ,,13,102,1040061,,,,,,,2025-12-02,1,,,,,エムティーボウエキ,0
1368,6010003049607,新規,0,2025-12-02,2025-12-02,ＢＲ　ＳＨＩＮＡＧＡＷＡ合同会社,,合同会社,東京都,千代田区,丸の内１丁目４番１号東京共同会計事務所内,,13,101,1000005,,,,,,,2025-12-02,1,,,,,ビーアールシナガワ,0
1370,6010005041025,新規,0,2025-12-02,2025-12-02,一般社団法人コースト,,その他の設立登記法人,東京都,千代田区,丸の内１丁目４番１号東京共同会計事務所内,,13,101,1000005,,,,,,,2025-12-02,1,,,,,コースト,0
1383,6010601068371,新規,0,2025-12-02,2025-12-02,ＡＩネイティブファクトリー株式会社,,株式会社,東京都,江東区,新木場１丁目１８番７号,,13,108,1360082,,,,,,,2025-12-02,1,,,,,エーアイネイティブファクトリー,0
1384,6010603011932,新規,0,2025-12-02,2025-12-02,合同会社ＢＵＲＳＴ,,合同会社,東京都,墨田区,江東橋３丁目５番８号Ｋビル１階,,13,107,1300022,,,,,,,2025-12-02,1,,,,,バースト,0
1385,6010603011940,新規,0,2025-12-02,2025-12-02,合同会社Ｋ．Ｔ,,合同会社,東京都,墨田区,江東橋３丁目５－８Ｋビル８階ＤＥ号室,,13,107,1300022,,,,,,,2025-12-02,1,,,,,ケーティ,0
1391,6010801036830,新規,0,2025-12-02,2025-12-02,株式会社クッキー,,株式会社,東京都,大田区,西蒲田７丁目２９番５号ニューカマタビル１１１号室,,13,111,1440051,,,,,,,2025-12-02,1,,,,,クッキー,0
1411,6011001174108,新規,0,2025-12-02,2025-12-02,株式会社ＲＥＶＩＶＥ,,株式会社,東京都,渋谷区,渋谷２丁目１９番１９号ワコー宮益坂ビル５階,,13,113,1500002,,,,,,,2025-12-02,1,,,,,リバイブ,0
1413,6011003023031,新規,0,2025-12-02,2025-12-02,合同会社Ｌｉｎｋ　ＵＰ,,合同会社,東京都,渋谷区,道玄坂１丁目１０番８号渋谷道玄坂東急ビル２Ｆ－Ｃ,,13,113,1500043,,,,,,,2025-12-02,1,,,,,リンクアップ,0
1447,6030001169867,新規,0,2025-12-02,2025-12-02,日本ネオン株式会社,,株式会社,埼玉県,さいたま市南区,辻１丁目２６－５,,11,108,3360026,,,,,,,2025-12-02,1,,,,,ニホンネオン,0
1448,6030001169883,新規,0,2025-12-02,2025-12-02,Ｈａｒｍｏｎｉｃ　Ｈｏｕｓｅ　Ｅｎｔｅｒｔａｉｎｍｅｎｔ株式会社,,株式会社,埼玉県,八潮市,大字鶴ケ曽根１５６８番地１レオパレスアリーナレジデンス３０３,,11,234,3400802,,,,,,,2025-12-02,1,,,,,ハーモニックハウスエンターテイメント,0
1457,6040001141536,新規,0,2025-12-02,2025-12-02,株式会社明野ファーム,,株式会社,千葉県,四街道市,四街道１５２２番地６８,,12,228,2840005,,,,,,,2025-12-02,1,,,,,アケノファーム,0
1458,6040001141585,新規,0,2025-12-02,2025-12-02,株式会社Ｆ．Ｖ．Ｃ．,,株式会社,千葉県,柏市,みどり台２丁目１８番２号,,12,217,2770884,,,,,,,2025-12-02,1,,,,,エフヴィーシー,0
1459,6040001141602,新規,0,2025-12-02,2025-12-02,ワクト株式会社,,株式会社,千葉県,松戸市,六高台４丁目１６番地の９,,12,207,2702203,,,,,,,2025-12-02,1,,,,,ワクト,0
1460,6040001141619,新規,0,2025-12-02,2025-12-02,ＴＯＺ株式会社,,株式会社,千葉県,船橋市,浜町２丁目４番７号三井不動産ロジスティクスパーク船橋３－３０１号室,,12,204,2730012,,,,,,,2025-12-02,1,,,,,ティーオーゼット,0
1463,6050001057649,新規,0,2025-12-02,2025-12-02,株式会社タグチモーターサイクル,,株式会社,茨城県,稲敷市,柴崎８４３３,,08,229,3001412,,,,,,,2025-12-02,1,,,,,タグチモーターサイクル,0
1470,6070001043606,新規,0,2025-12-02,2025-12-02,株式会社マギーズ,,株式会社,群馬県,太田市,内ケ島町１２６０―４０,,10,205,3730813,,,,,,,2025-12-02,1,,,,,マギーズ,0
1473,6080001027302,新規,0,2025-12-02,2025-12-02,株式会社Ｑｌｉｖｅ　Ｃｏｍｐａｎｙ,,株式会社,静岡県,静岡市駿河区,池田１８００番地の１,,22,102,4228005,,,,,,,2025-12-02,1,,,,,クライブカンパニー,0
1474,6080003003615,新規,0,2025-12-02,2025-12-02,合同会社コムスター,,合同会社,静岡県,静岡市駿河区,根古屋１３７番１号,,22,102,4228011,,,,,,,2025-12-02,1,,,,,コムスター,0
1491,6120001282058,新規,0,2025-12-02,2025-12-02,ＰＯＮＯＬＡＭＡ株式会社,,株式会社,大阪府,大阪市北区,梅田２丁目５番６号,,27,127,5300001,,,,,,,2025-12-02,1,,,,,ポノラマ,0
1492,6120001282280,新規,0,2025-12-02,2025-12-02,シンタカ株式会社,,株式会社,大阪府,大阪市西区,新町１丁目１４番２１－４３０６号,,27,106,5500013,,,,,,,2025-12-02,1,,,,,シンタカ,0
1493,6120001282314,新規,0,2025-12-02,2025-12-02,株式会社シルエット・ワークス,,株式会社,大阪府,大阪市平野区,平野宮町１丁目１番３２号２Ｆ,,27,126,5470046,,,,,,,2025-12-02,1,,,,,シルエットワークス,0
1494,6120001282347,新規,0,2025-12-02,2025-12-02,エスケーＮｅｘｕｓ株式会社,,株式会社,大阪府,大阪市都島区,都島本通５丁目１２番地４号,,27,102,5340021,,,,,,,2025-12-02,1,,,,,エスケーネクサス,0
1495,6120001282355,新規,0,2025-12-02,2025-12-02,株式会社Ａ．Ｎ．Ｘ,,株式会社,大阪府,大阪市北区,万歳町３番３９－１００１号,,27,127,5300028,,,,,,,2025-12-02,1,,,,,エーエヌエックス,0
1496,6120001282363,新規,0,2025-12-02,2025-12-02,株式会社ＳＱＵＡＲＥ,,株式会社,大阪府,大阪市城東区,天王田４番１６号,,27,118,5360012,,,,,,,2025-12-02,1,,,,,スクエア,0
1497,6120001282388,新規,0,2025-12-02,2025-12-02,株式会社ＴＯＮＤＡ,,株式会社,大阪府,大阪市中央区,高津１丁目９－１０インテリジェンスビル２０１号,,27,128,5420072,,,,,,,2025-12-02,1,,,,,トンダ,0
1526,6140003022897,新規,0,2025-12-02,2025-12-02,合同会社ＳＡＭＵＲＡＩ　ＥＮＧＩＮＥ,,合同会社,兵庫県,明石市,小久保２丁目６－１ウエストアカシ５Ｆ－Ｅ,,28,203,6730005,,,,,,,2025-12-02,1,,,,,サムライエンジン,0
1527,6140003022906,新規,0,2025-12-02,2025-12-02,合同会社エトワール,,合同会社,兵庫県,宝塚市,仁川北３丁目１２番３８－３０６号,,28,214,6650061,,,,,,,2025-12-02,1,,,,,エトワール,0
1528,6140003022914,新規,0,2025-12-02,2025-12-02,合同会社ＧＵＴＳ,,合同会社,兵庫県,姫路市,香寺町土師１０８９番地,,28,201,6792163,,,,,,,2025-12-02,1,,,,,ガッツ,0
1532,6170003002343,新規,0,2025-12-02,2025-12-02,ビルシスデザイン合同会社,,合同会社,和歌山県,和歌山市,中之島３０８番地７,,30,201,6408392,,,,,,,2025-12-02,1,,,,,ビルシスデザイン,0
1540,6180001169704,新規,0,2025-12-02,2025-12-02,株式会社Ａｌｔｅｓｔｅｌｌａ,,株式会社,愛知県,名古屋市中村区,名駅南１丁目１１番１２号－Ｋｉｎｊｉｒｏ名駅Ｍｉｎａｍｉビル１Ｆ－Ｃ４９,,23,105,4500003,,,,,,,2025-12-02,1,,,,,アルテステラ,0
1541,6180001169720,新規,0,2025-12-02,2025-12-02,株式会社チア・プラス,,株式会社,愛知県,名古屋市西区,名駅２丁目２７番８号,,23,104,4510045,,,,,,,2025-12-02,1,,,,,チアプラス,0
1546,6180003029443,新規,0,2025-12-02,2025-12-02,合同会社介護ふじＪｒ．,,合同会社,愛知県,名古屋市中川区,中郷３丁目１６６番地,,23,110,4540921,,,,,,,2025-12-02,1,,,,,カイゴフジジュニア,0
1556,6200003007149,新規,0,2025-12-02,2025-12-02,ＭＩＡＮ　ＴＲＡＤＩＮＧ合同会社,,合同会社,岐阜県,美濃加茂市,加茂野町加茂野１－４８－４０６,,21,211,5050054,,,,,,,2025-12-02,1,,,,,ミアントレーディング,0
1559,6220001027048,新規,0,2025-12-02,2025-12-02,株式会社Ｂ・Ｂコーポレーション,,株式会社,石川県,金沢市,矢木２丁目８０番地２,,17,201,9218066,,,,,,,2025-12-02,1,,,,,ビービーコーポレーション,0
1565,6250001021452,新規,0,2025-12-02,2025-12-02,株式会社鮮魚流通,,株式会社,山口県,宇部市,港町１丁目１１番４０号,,35,202,7550027,,,,,,,2025-12-02,1,,,,,センギョリュウツウ,0
1566,6260001040773,新規,0,2025-12-02,2025-12-02,株式会社Ｓｔａｎｄ　ｕｐ,,株式会社,岡山県,倉敷市,玉島阿賀崎２５１３－４フォルモント２０２,,33,202,7138121,,,,,,,2025-12-02,1,,,,,スタンドアップ,0
1568,6280001009552,新規,0,2025-12-02,2025-12-02,株式会社ＳａｉＫｅｎ,,株式会社,島根県,松江市,宍道町東来待７６１番地４,,32,201,6990404,,,,,,,2025-12-02,1,,,,,サイケン,0
1574,6290001112289,新規,0,2025-12-02,2025-12-02,株式会社ＹＡＴＵ　ＪＡＰＡＮ,,株式会社,福岡県,福岡市博多区,博多駅前４丁目３３番地１１－５１４号,,40,132,8120011,,,,,,,2025-12-02,1,,,,,ヤァートゥージャパン,0
1575,6290001112330,新規,0,2025-12-02,2025-12-02,株式会社青楓,,株式会社,福岡県,糟屋郡須惠町,大字須惠２３６－２,,40,344,8112113,,,,,,,2025-12-02,1,,,,,セイフウ,0
1576,6290001112355,新規,0,2025-12-02,2025-12-02,株式会社Ｒ,,株式会社,福岡県,福岡市南区,大池２丁目１番７－２号,,40,134,8150073,,,,,,,2025-12-02,1,,,,,アール,0
1583,6340001027820,新規,0,2025-12-02,2025-12-02,中間花店株式会社,,株式会社,鹿児島県,指宿市,山川新生町９４－２,,46,210,8910504,,,,,,,2025-12-02,1,,,,,ナカマハナテン,0
1586,6350001019833,新規,0,2025-12-02,2025-12-02,株式会社アップリカー,,株式会社,宮崎県,宮崎市,大字生目２６９番地４,,45,201,8802103,,,,,,,2025-12-02,1,,,,,アップリカー,0
1596,6370001053269,新規,0,2025-12-02,2025-12-02,株式会社Ｆ．Ｓ．Ｄ,,株式会社,宮城県,塩竈市,大日向町１３番１１号,,04,203,9850046,,,,,,,2025-12-02,1,,,,,エフエスディー,0
1597,6370001053277,新規,0,2025-12-02,2025-12-02,株式会社白石レンタル,,株式会社,宮城県,仙台市青葉区,芋沢字横向山１６１番地,,04,101,9893212,,,,,,,2025-12-02,1,,,,,,0
1602,6420001019339,新規,0,2025-12-02,2025-12-02,株式会社Ｕｌｕｒａ,,株式会社,青森県,三戸郡三戸町,大字在府小路町２９－１,,02,441,0390132,,,,,,,2025-12-02,1,,,,,ウルラ,0
1610,6430001095767,新規,0,2025-12-02,2025-12-02,株式会社ＡＺＴＡＩ,,株式会社,北海道,札幌市清田区,真栄一条１丁目４番２５号,,01,110,0040831,,,,,,,2025-12-02,1,,,,,アズタイ,0
1611,6460101007784,新規,0,2025-12-02,2025-12-02,株式会社くったりデーリィ,,株式会社,北海道,上川郡新得町,字屈足東１線８４番地,,01,635,0810154,,,,,,,2025-12-02,1,,,,,クッタリデーリィ,0
1614,6500001026649,新規,0,2025-12-02,2025-12-02,株式会社ＦＹＮＥＬ,,株式会社,愛媛県,四国中央市,三島中央２丁目１３番５号,,38,213,7990405,,,,,,,2025-12-02,1,,,,,フィネル,0
1628,7010003049572,新規,0,2025-12-02,2025-12-02,ＺＣｕｂｅ合同会社,,合同会社,東京都,千代田区,二番町１番地２－２２４号,,13,101,1020084,,,,,,,2025-12-02,1,,,,,ゼットキューブ,0
1629,7010003049606,新規,0,2025-12-02,2025-12-02,合同会社コースト,,合同会社,東京都,千代田区,丸の内１丁目４番１号東京共同会計事務所内,,13,101,1000005,,,,,,,2025-12-02,1,,,,,コースト,0
1633,7010101016986,新規,0,2025-12-02,2025-12-02,株式会社Ｗａｔｅｒ　Ｈｉｌｌ　Ｇａｒｄｅｎ,,株式会社,東京都,八王子市,松木１３番地１,,13,201,1920362,,,,,,,2025-12-02,1,,,,,ウォーターヒルガーデン,0
1634,7010103002704,新規,0,2025-12-02,2025-12-02,合同会社Ｐｒｉｍｅ　ＫＩＮＧｓ,,合同会社,東京都,八王子市,大塚３０３－１９,,13,201,1920352,,,,,,,2025-12-02,1,,,,,プライムキングス,0
1643,7010403036724,新規,0,2025-12-02,2025-12-02,デルタインベストメンツ合同会社,,合同会社,東京都,港区,六本木１丁目６番１号泉ガーデンタワー,,13,103,1060032,,,,,,,2025-12-02,1,,,,,デルタインベストメンツ,0
1649,7010501055048,新規,0,2025-12-02,2025-12-02,Ｌｕｋ　Ｆｏｏｋ　Ｊｅｗｅｌｌｅｙ＆Ｇｏｌｄｓｍｉｔｈ　Ｊａｐａｎ株式会社,,株式会社,東京都,台東区,松が谷１丁目４番６－５０２号ライオンズマンション上野松が谷,,13,106,1110036,,,,,,,2025-12-02,1,,,,,ルックフックジュエリーアンドゴールドスミスジャパン,0
1650,7010501055114,新規,0,2025-12-02,2025-12-02,Ｍｏｎｏｍｙｔｈ株式会社,,株式会社,東京都,台東区,北上野２丁目２９番６－９０６号,,13,106,1100014,,,,,,,2025-12-02,1,,,,,モノミス,0
1657,7010701048693,新規,0,2025-12-02,2025-12-02,株式会社Ｃｏｃｏｉｎｋ,,株式会社,東京都,品川区,東品川４丁目１２番６号,,13,109,1400002,,,,,,,2025-12-02,1,,,,,ココインク,0
1667,7011001173975,新規,0,2025-12-02,2025-12-02,株式会社ＮＥＸＡ　ＯＮＥ,,株式会社,東京都,渋谷区,道玄坂１丁目１０番８号渋谷道玄坂東急ビル２Ｆ－Ｃ,,13,113,1500043,,,,,,,2025-12-02,1,,,,,ネクサワン,0
1672,7011003023022,新規,0,2025-12-02,2025-12-02,合同会社スタジオスピカ,,合同会社,東京都,渋谷区,神南１丁目１１番４号ＦＰＧリンクス神南５階,,13,113,1500041,,,,,,,2025-12-02,1,,,,,スタジオスピカ,0
1673,7011003023047,新規,0,2025-12-02,2025-12-02,合同会社Ｒｅｚｉａｎｃｅ,,合同会社,東京都,渋谷区,宇田川町３番５号ＳｐａｒｋＳＨＩＢＵＹＡ７階,,13,113,1500042,,,,,,,2025-12-02,1,,,,,レジアンス,0
1683,7011101113939,新規,0,2025-12-02,2025-12-02,株式会社アスタラビスタ,,株式会社,東京都,新宿区,神楽坂４丁目５－２階,,13,104,1620825,,,,,,,2025-12-02,1,,,,,アスタラビスタ,0
1684,7011101114152,新規,0,2025-12-02,2025-12-02,株式会社ＡｉｏｎＬｉｎｋ,,株式会社,東京都,新宿区,新宿１丁目３６番２号新宿第七葉山ビル３Ｆ,,13,104,1600022,,,,,,,2025-12-02,1,,,,,アイオンリンク,0
1685,7011103016702,新規,0,2025-12-02,2025-12-02,合同会社ＨＡＺＵＭＵ,,合同会社,東京都,新宿区,西新宿３丁目３番１３号西新宿水間ビル６階,,13,104,1600023,,,,,,,2025-12-02,1,,,,,ハズム,0
1688,7011401027624,新規,0,2025-12-02,2025-12-02,株式会社ｍｉｎｐｒｏ,,株式会社,東京都,板橋区,常盤台１丁目３７－６,,13,119,1740071,,,,,,,2025-12-02,1,,,,,ミンプロ,0
1691,7011501032862,新規,0,2025-12-02,2025-12-02,株式会社クリーム,,株式会社,東京都,北区,赤羽２丁目４９番９号赤羽ローヤルコーポ１Ｆ２Ｆ,,13,117,1150045,,,,,,,2025-12-02,1,,,,,クリーム,0
1697,7012303002252,新規,0,2025-12-02,2025-12-02,合同会社ブリリアントライフ,,合同会社,東京都,町田市,能ヶ谷５丁目７番２９号,,13,209,1950053,,,,,,,2025-12-02,1,,,,,ブリリアントライフ,0
1700,7012801024392,新規,0,2025-12-02,2025-12-02,株式会社ＣＡＰＲＡ,,株式会社,東京都,国分寺市,光町１丁目４０番７―４０５号,,13,214,1850034,,,,,,,2025-12-02,1,,,,,カプラ,0
1712,7013303007976,新規,0,2025-12-02,2025-12-02,あさまる合同会社,,合同会社,東京都,豊島区,東池袋２丁目６２番８号ＢＩＧオフィスプラザ池袋１２０６,,13,116,1700013,,,,,,,2025-12-02,1,,,,,アサマル,0
1724,7020003029846,新規,0,2025-12-02,2025-12-02,ＦａｂＳｙｎＸ合同会社,,合同会社,神奈川県,横浜市旭区,万騎が原７５番地７,,14,112,2410836,,,,,,,2025-12-02,1,,,,,ファブシンクス,0
1725,7020003029879,新規,0,2025-12-02,2025-12-02,合同会社モジーインク,,合同会社,神奈川県,横浜市西区,浅間町１丁目４番３号ウィザードビル４０２,,14,103,2200072,,,,,,,2025-12-02,1,,,,,モジーインク,0
1726,7021001086920,新規,0,2025-12-02,2025-12-02,株式会社ナイングッド,,株式会社,神奈川県,厚木市,旭町１丁目１番４号松岡ビル２階,,14,212,2430014,,,,,,,2025-12-02,1,,,,,ナイングッド,0
1728,7021003016859,新規,0,2025-12-02,2025-12-02,合同会社りとらい,,合同会社,神奈川県,海老名市,国分北４丁目１５番１号,,14,215,2430406,,,,,,,2025-12-02,1,,,,,リトライ,0
1736,7040001141519,新規,0,2025-12-02,2025-12-02,株式会社アポスワン,,株式会社,千葉県,千葉市花見川区,幕張本郷１丁目３０番３１－３０３号,,12,102,2620033,,,,,,,2025-12-02,1,,,,,アポスワン,0
1737,7040001141576,新規,0,2025-12-02,2025-12-02,株式会社ＯＲＣＡ,,株式会社,千葉県,千葉市花見川区,長作町５９番地６６,,12,102,2620044,,,,,,,2025-12-02,1,,,,,オルカ,0
1738,7040001141584,新規,0,2025-12-02,2025-12-02,株式会社ウィステリア,,株式会社,千葉県,市川市,南八幡１丁目６番４号,,12,203,2720023,,,,,,,2025-12-02,1,,,,,ウィステリア,0
1739,7040001141618,新規,0,2025-12-02,2025-12-02,株式会社ＧＹ,,株式会社,千葉県,鎌ケ谷市,粟野８１３－９５,,12,224,2730132,,,,,,,2025-12-02,1,,,,,ジーワイ,0
1743,7060001038804,新規,0,2025-12-02,2025-12-02,株式会社フロー,,株式会社,栃木県,足利市,伊勢町３丁目４番地８,,09,202,3260053,,,,,,,2025-12-02,1,,,,,フロー,0
1746,7070003006205,新規,0,2025-12-02,2025-12-02,合同会社ストリーブエンターテインメント,,合同会社,群馬県,前橋市,富士見町米野３８６番地３,,10,201,3710111,,,,,,,2025-12-02,1,,,,,ストリーブエンターテインメント,0
1747,7080401028287,新規,0,2025-12-02,2025-12-02,株式会社シンセカイ,,株式会社,静岡県,浜松市中央区,飯田町７３９番地の３,,22,138,4350028,,,,,,,2025-12-02,1,,,,,シンセカイ,0
1749,7100001039145,新規,0,2025-12-02,2025-12-02,株式会社Ｉ．Ｆ．Ｈｉｖｅ,,株式会社,長野県,松本市,大字里山辺３８４７番地４,,20,202,3900221,,,,,,,2025-12-02,1,,,,,アイエフハイブ,0
1750,7100001039153,新規,0,2025-12-02,2025-12-02,株式会社ＮｕｒｔｕＣａｒｅ,,株式会社,長野県,長野市,大字川合新田４３８－２,,20,201,3800913,,,,,,,2025-12-02,1,,,,,ナーチュケア,0
1771,7120001282354,新規,0,2025-12-02,2025-12-02,ＵＣＡＫＳ株式会社,,株式会社,大阪府,大阪市中央区,南船場１丁目１８番１７号商工中金船場ビル１０階,,27,128,5420081,,,,,,,2025-12-02,1,,,,,ユーシーエーケーエス,0
1772,7120001282387,新規,0,2025-12-02,2025-12-02,株式会社トミパートナーズ,,株式会社,大阪府,大阪市城東区,鴫野西２丁目８番３４－８０１号,,27,118,5360014,,,,,,,2025-12-02,1,,,,,トミパートナーズ,0
1778,7120003031271,新規,0,2025-12-02,2025-12-02,合同会社ピロサポ,,合同会社,大阪府,大阪市北区,梅田１丁目２番２号大阪駅前第２ビル１２－１２,,27,127,5300001,,,,,,,2025-12-02,1,,,,,ピロサポ,0
1779,7120003031354,新規,0,2025-12-02,2025-12-02,合同会社ＳＩＴＳ,,合同会社,大阪府,大阪市北区,梅田１丁目２番２号大阪駅前第２ビル１２－１２,,27,127,5300001,,,,,,,2025-12-02,1,,,,,シッツ,0
1789,7120901051890,新規,0,2025-12-02,2025-12-02,株式会社ステイ・ゴールデン,,株式会社,大阪府,吹田市,古江台２丁目９番９号,,27,205,5650874,,,,,,,2025-12-02,1,,,,,ステイゴールデン,0
1790,7120903005977,新規,0,2025-12-02,2025-12-02,研スタ合同会社,,合同会社,大阪府,豊中市,服部南町４丁目１番３４－２０１号,,27,203,5610853,,,,,,,2025-12-02,1,,,,,ケンスタ,0
1798,7140001140931,新規,0,2025-12-02,2025-12-02,株式会社ＣＡＮｆｏｏｄ,,株式会社,兵庫県,姫路市,西今宿１丁目４７４－１,,28,201,6700061,,,,,,,2025-12-02,1,,,,,キャンフード,0
1805,7140003022888,新規,0,2025-12-02,2025-12-02,合同会社ヴァールチュー・アンド・リワード,,合同会社,兵庫県,三木市,志染町中自由が丘２丁目１４４番地,,28,215,6730552,,,,,,,2025-12-02,1,,,,,ヴァールチューアンドリワード,0
1806,7140003022905,新規,0,2025-12-02,2025-12-02,合同会社ＲＣ,,合同会社,兵庫県,尼崎市,杭瀬北新町２丁目４番７号,,28,202,6600815,,,,,,,2025-12-02,1,,,,,アールシー,0
1808,7140005027712,新規,0,2025-12-02,2025-12-02,一般財団法人覚者播磨屋助次郎令和救世会,,その他の設立登記法人,兵庫県,豊岡市,神美台１番地１,,28,209,6680831,,,,,,,2025-12-02,1,,,,,カクシャハリマヤスケジロウレイワキュウセイカイ,0
1813,7170003002342,新規,0,2025-12-02,2025-12-02,ＮａｔｕｒｅＬｉｎｋ合同会社,,合同会社,和歌山県,西牟婁郡上富田町,市ノ瀬１３３６番の１,,30,404,6492107,,,,,,,2025-12-02,1,,,,,ネイチャーリンク,0
1820,7180001169686,新規,0,2025-12-02,2025-12-02,株式会社ＬＣ．ＬＡＢ,,株式会社,愛知県,名古屋市中区,丸の内３丁目１９番２４号財形久屋セントラルハイツ１１０５号,,23,106,4600002,,,,,,,2025-12-02,1,,,,,エルシーラボ,0
1821,7180001169711,新規,0,2025-12-02,2025-12-02,株式会社ハルテック,,株式会社,愛知県,名古屋市東区,大幸２丁目５番１６号,,23,102,4610043,,,,,,,2025-12-02,1,,,,,ハルテック,0
1824,7180005021323,新規,0,2025-12-02,2025-12-02,一般社団法人アントレード,,その他の設立登記法人,愛知県,名古屋市天白区,池場３丁目１１７番地カーサ東田面１０５号,,23,116,4680055,,,,,,,2025-12-02,1,,,,,アントレード,0
1829,7190001032728,新規,0,2025-12-02,2025-12-02,株式会社ホワイトナイト,,株式会社,三重県,四日市市,尾上町１９番地６中,,24,202,5100059,,,,,,,2025-12-02,1,,,,,ホワイトナイト,0
1834,7200001044473,新規,0,2025-12-02,2025-12-02,株式会社ケーエス,,株式会社,岐阜県,大垣市,本今１丁目７０番地,,21,202,5030931,,,,,,,2025-12-02,1,,,,,ケーエス,0
1835,7210001020408,新規,0,2025-12-02,2025-12-02,株式会社ユウフクヤ,,株式会社,福井県,坂井市,三国町宿１丁目１１番４２号,,18,210,9130056,,,,,,,2025-12-02,1,,,,,ユウフクヤ,0
1837,7240003007499,新規,0,2025-12-02,2025-12-02,みんなの不動産パートナーズ合同会社,,合同会社,広島県,広島市中区,平野町７番１１－１２０１号,,34,101,7300047,,,,,,,2025-12-02,1,,,,,ミンナノフドウサンパートナーズ,0
1842,7250001021451,新規,0,2025-12-02,2025-12-02,あおばファーム株式会社,,株式会社,山口県,山口市,青葉台１４番１５号,,35,203,7530012,,,,,,,2025-12-02,1,,,,,アオバファーム,0
1845,7260001040772,新規,0,2025-12-02,2025-12-02,武聖ホールディングス株式会社,,株式会社,岡山県,岡山市北区,津島西坂１丁目１番２７号,,33,101,7000086,,,,,,,2025-12-02,1,,,,,タケサトホールディングス,0
1855,7290001112346,新規,0,2025-12-02,2025-12-02,ＧＥＥＶＯＨＯＭＥ株式会社,,株式会社,福岡県,福岡市中央区,平尾１丁目１０－２６ダイナコート平尾３０３号室,,40,133,8100014,,,,,,,2025-12-02,1,,,,,ギーオーホーム,0
1863,7300001014425,新規,0,2025-12-02,2025-12-02,株式会社ライフ,,株式会社,佐賀県,佐賀市,大和町大字久留間４６６８番地,,41,201,8400213,,,,,,,2025-12-02,1,,,,,ライフ,0
1864,7300005007276,新規,0,2025-12-02,2025-12-02,医療法人明香会,,その他の設立登記法人,佐賀県,佐賀市,鍋島２丁目２番１２号,,41,201,8490937,,,,,,,2025-12-02,1,,,,,メイコウカイ,0
1870,7360001036091,新規,0,2025-12-02,2025-12-02,株式会社縁,,株式会社,沖縄県,那覇市,久茂地１丁目１番１号９階,,47,201,9000015,,,,,,,2025-12-02,1,,,,,エニシ,0
1871,7370001053276,新規,0,2025-12-02,2025-12-02,株式会社ＭａｋｅＬｅｉｓｕｒｅ,,株式会社,宮城県,大崎市,古川駅前大通４丁目４番１８号,,04,215,9896162,,,,,,,2025-12-02,1,,,,,メイクレジャー,0
1872,7370001053284,新規,0,2025-12-02,2025-12-02,株式会社吉岡屋グループホールディングス,,株式会社,宮城県,仙台市青葉区,栗生５丁目３番３号,,04,101,9893122,,,,,,,2025-12-02,1,,,,,ヨシオカヤグループホールディングス,0
1874,7370005011032,新規,0,2025-12-02,2025-12-02,学校法人こども未来館,,その他の設立登記法人,宮城県,亘理郡亘理町,字祝田９－１,,04,361,9892351,,,,,,,2025-12-02,1,,,,,コドモミライカン,0
1884,7430003018378,新規,0,2025-12-02,2025-12-02,合同会社ＡＴＲＡＳ不動産,,合同会社,北海道,札幌市北区,篠路二条３丁目１‐６,,01,102,0028022,,,,,,,2025-12-02,1,,,,,アトラスフドウサン,0
1888,7500001026648,新規,0,2025-12-02,2025-12-02,株式会社爽のしずく,,株式会社,愛媛県,松山市,千舟町５丁目３番地１７,,38,201,7900011,,,,,,,2025-12-02,1,,,,,ソウノシズク,0
1889,7500003003637,新規,0,2025-12-02,2025-12-02,ミライズ合同会社,,合同会社,愛媛県,松山市,北斎院町６４番地サヤコート５号,,38,201,7918031,,,,,,,2025-12-02,1,,,,,ミライズ,0
1898,8010001260790,新規,0,2025-12-02,2025-12-02,株式会社ＳＩＤＸ,,株式会社,東京都,中央区,銀座２丁目９－１３ＧＩＮＺＡ－２－２Ｆ,,13,102,1040061,,,,,,,2025-12-02,1,,,,,サイデックス,0
1900,8010101016985,新規,0,2025-12-02,2025-12-02,株式会社Ｃｏｚｍｉｃ　Ｍｉ,,株式会社,東京都,八王子市,石川町１７９６番地２７,,13,201,1920032,,,,,,,2025-12-02,1,,,,,コズミックミー,0
1910,8010503008102,新規,0,2025-12-02,2025-12-02,合同会社Ｋｎｏｗｌｅｄｇｅ　Ｅａｒｔｈ,,合同会社,東京都,台東区,柳橋２丁目１３－２,,13,106,1110052,,,,,,,2025-12-02,1,,,,,ナレッジアース,0
1911,8010601068361,新規,0,2025-12-02,2025-12-02,株式会社ＯＲＧホールディングス,,株式会社,東京都,墨田区,錦糸３丁目１３番１２号Ｌ・Ｙビル２階,,13,107,1300013,,,,,,,2025-12-02,1,,,,,オロゲホールディングス,0
1912,8010601068378,新規,0,2025-12-02,2025-12-02,株式会社ＦＯＮＴＡＵＲＡ,,株式会社,東京都,江東区,有明１丁目４番１１－３００２号,,13,108,1350063,,,,,,,2025-12-02,1,,,,,フォンターラ,0
1917,8010603011939,新規,0,2025-12-02,2025-12-02,ＦｕｎＦｕｎ合同会社,,合同会社,東京都,江東区,東雲１丁目５－３０－１４０１,,13,108,1350062,,,,,,,2025-12-02,1,,,,,ファンファン,0
1925,8010903010426,新規,0,2025-12-02,2025-12-02,合同会社ＡＫクリエーション,,合同会社,東京都,世田谷区,赤堤５丁目３９番１０号,,13,112,1560044,,,,,,,2025-12-02,1,,,,,エーケークリエーション,0
1937,8011105011650,新規,0,2025-12-02,2025-12-02,ＮＰＯ法人ウエルネス研究所,,その他の設立登記法人,東京都,新宿区,北町２１番地１Ｋｅｌｉｉ５０１,,13,104,1620834,,,,,,,2025-12-02,1,,,,,ウエルネスケンキュウジョ,0
1939,8011301031089,新規,0,2025-12-02,2025-12-02,Ｌｏｕｃａｌｙｐｔｕｓ株式会社,,株式会社,東京都,杉並区,成田西２丁目１２番２０－４０３号,,13,115,1660016,,,,,,,2025-12-02,1,,,,,ローカリプタス,0
1943,8011401027549,新規,0,2025-12-02,2025-12-02,株式会社Ａｎｕｅｎｕｅ,,株式会社,東京都,板橋区,赤塚新町３丁目２０－６,,13,119,1750093,,,,,,,2025-12-02,1,,,,,アヌエヌエ,0
1944,8011401027623,新規,0,2025-12-02,2025-12-02,株式会社縁,,株式会社,東京都,板橋区,大山東町４３番１号,,13,119,1730014,,,,,,,2025-12-02,1,,,,,エニシ,0
1951,8011601029205,新規,0,2025-12-02,2025-12-02,カサベルデ株式会社,,株式会社,東京都,練馬区,東大泉７丁目１５番２０号,,13,120,1780063,,,,,,,2025-12-02,1,,,,,カサベルデ,0
1959,8011801047114,新規,0,2025-12-02,2025-12-02,株式会社ＪＡＰＡＴＯＮＩＣ,,株式会社,東京都,足立区,千住緑町３丁目２番１５－８０２号,,13,121,1200044,,,,,,,2025-12-02,1,,,,,ジャパトニック,0
1971,8020003029903,新規,0,2025-12-02,2025-12-02,ファーマコンフィダント合同会社,,合同会社,神奈川県,横浜市戸塚区,秋葉町５２９－１８,,14,110,2450052,,,,,,,2025-12-02,1,,,,,ファーマコンフィダント,0
1972,8021001086928,新規,0,2025-12-02,2025-12-02,湘南鎌倉リゾート株式会社,,株式会社,神奈川県,鎌倉市,小町２丁目１番５号,,14,204,2480006,,,,,,,2025-12-02,1,,,,,ショウナンカマクラリゾート,0
1980,8030001169964,新規,0,2025-12-02,2025-12-02,株式会社ＭＵＺＯＵ,,株式会社,埼玉県,川口市,中青木４丁目１０―１８,,11,203,3320032,,,,,,,2025-12-02,1,,,,,ムゾウ,0
1983,8030003028193,新規,0,2025-12-02,2025-12-02,ＳＴＵＤＩＯ９０９合同会社,,合同会社,埼玉県,川越市,霞ケ関東１丁目４―１１シャルム２Ｆ,,11,201,3501103,,,,,,,2025-12-02,1,,,,,スタジオキュウマルキュウ,0
1985,8030005022351,新規,0,2025-12-02,2025-12-02,ＮＰＯ法人埼玉県日台親善協会,,その他の設立登記法人,埼玉県,ふじみ野市,駒林元町３丁目２番２０号パンセフローラ１０１号室,,11,245,3560038,,,,,,,2025-12-02,1,,,,,サイタマケンニッタイシンゼンキョウカイ,0
1998,8070003006204,新規,0,2025-12-02,2025-12-02,合同会社くぼでん,,合同会社,群馬県,高崎市,中尾町７１９番地５２,,10,202,3700001,,,,,,,2025-12-02,1,,,,,,0
1999,8080001027300,新規,0,2025-12-02,2025-12-02,株式会社ホイミー,,株式会社,静岡県,榛原郡吉田町,川尻３０３８番地の１,,22,424,4210302,,,,,,,2025-12-02,1,,,,,ホイミー,0
2006,8100001039144,新規,0,2025-12-02,2025-12-02,マルシェ・サンク株式会社,,株式会社,長野県,安曇野市,穂高５６４４番地２,,20,220,3998303,,,,,,,2025-12-02,1,,,,,マルシェサンク,0
2008,8110001039754,新規,0,2025-12-02,2025-12-02,株式会社ＮＨＳ・ＪＡＰＡＮ,,株式会社,新潟県,新潟市北区,嘉山５０３番地２,,15,101,9503322,,,,,,,2025-12-02,1,,,,,エヌエイチエスジャパン,0
2023,8120003031353,新規,0,2025-12-02,2025-12-02,合同会社カネダパートナーズ,,合同会社,大阪府,大阪市都島区,東野田町４丁目１６番８号,,27,102,5340024,,,,,,,2025-12-02,1,,,,,カネダパートナーズ,0
2027,8120901051857,新規,0,2025-12-02,2025-12-02,株式会社千里山ブラックジャガーズ,,株式会社,大阪府,吹田市,豊津町１－１８エクラート江坂ビル３Ｆ,,27,205,5640051,,,,,,,2025-12-02,1,,,,,センリヤマブラックジャガーズ,0
2030,8122003003407,新規,0,2025-12-02,2025-12-02,合同会社Ｌｕｃｋ,,合同会社,大阪府,八尾市,曙川東７丁目４７－１エクセレント曙川東２０２,,27,212,5810020,,,,,,,2025-12-02,1,,,,,ラック,0
2032,8130001081093,新規,0,2025-12-02,2025-12-02,株式会社ＭｉｔｏＷｅｌｌ　Ｎａｖｉｇａｔｉｏｎ,,株式会社,京都府,京都市下京区,小稲荷町８５－２Ｇｒａｎｄ－Ｋ京都駅前ビル２０１,,26,106,6008208,,,,,,,2025-12-02,1,,,,,ミトウェルナビゲーション,0
2033,8130001081127,新規,0,2025-12-02,2025-12-02,株式会社ＯＮＥ　ＳＴＯＲＹ,,株式会社,京都府,京都市南区,東九条上殿田町１５番地,,26,107,6018002,,,,,,,2025-12-02,1,,,,,ワンストーリー,0
2040,8140001140939,新規,0,2025-12-02,2025-12-02,株式会社ＭＩＲｙＯＫＵ,,株式会社,兵庫県,西宮市,甲東園１丁目１番６パセオ甲東１１０、ＩＤＥＣＯＬＡＢＯ内,,28,204,6620812,,,,,,,2025-12-02,1,,,,,ミリョク,0
2042,8140003022904,新規,0,2025-12-02,2025-12-02,ＺＥＧＲＡＣＥ　Ｊａｐａｎ合同会社,,合同会社,兵庫県,たつの市,新宮町光都２丁目１０番４８号,,28,229,6795165,,,,,,,2025-12-02,1,,,,,ゼグラスジャパン,0
2043,8140003022912,新規,0,2025-12-02,2025-12-02,合同会社アロマスタイル,,合同会社,兵庫県,神戸市中央区,中山手通１丁目１３番７号２Ｆ,,28,110,6500004,,,,,,,2025-12-02,1,,,,,アロマスタイル,0
2046,8160001027250,新規,0,2025-12-02,2025-12-02,株式会社Ｇｒａｎｄ　Ｍｅｄｉｃａｌ,,株式会社,滋賀県,東近江市,伊庭町１０１－１０,,25,213,5211235,,,,,,,2025-12-02,1,,,,,グランドメディカル,0
2058,8180001169693,新規,0,2025-12-02,2025-12-02,株式会社ａｋ,,株式会社,愛知県,名古屋市中川区,石場町４丁目７番地の３,,23,110,4540023,,,,,,,2025-12-02,1,,,,,エーケー,0
2059,8180001169702,新規,0,2025-12-02,2025-12-02,株式会社至誠論,,株式会社,愛知県,名古屋市名東区,赤松台６１０番地ＹＮ赤松台２０２号,,23,115,4650016,,,,,,,2025-12-02,1,,,,,シセイロ,0
2060,8180001169719,新規,0,2025-12-02,2025-12-02,十色ＬＡＢ株式会社,,株式会社,愛知県,名古屋市中村区,名駅４丁目２４番５号第２森ビル４０１,,23,105,4500002,,,,,,,2025-12-02,1,,,,,トイロラボ,0
2062,8180003029433,新規,0,2025-12-02,2025-12-02,合同会社萬代商事,,合同会社,愛知県,津島市,白浜町字深坪１３番地,,23,208,4960016,,,,,,,2025-12-02,1,,,,,バンダイショウジ,0
2072,8190003005284,新規,0,2025-12-02,2025-12-02,合同会社ＢＲＩＧＨＴ,,合同会社,三重県,津市,東丸之内１３番８号,,24,201,5140028,,,,,,,2025-12-02,1,,,,,ブライト,0
2077,8210001020407,新規,0,2025-12-02,2025-12-02,株式会社ＳＨＩＫＡＫＥＲＵ,,株式会社,福井県,福井市,文京１丁目２６番６号,,18,201,9100017,,,,,,,2025-12-02,1,,,,,シカケル,0
2082,8220001027046,新規,0,2025-12-02,2025-12-02,株式会社宇宙軒食堂,,株式会社,石川県,金沢市,片町１丁目５番２９号,,17,201,9200981,,,,,,,2025-12-02,1,,,,,ウチュウケンショクドウ,0
2086,8230003002541,新規,0,2025-12-02,2025-12-02,小雪食品合同会社,,合同会社,富山県,射水市,東太閤山３丁目１０６番地,,16,211,9390319,,,,,,,2025-12-02,1,,,,,コユキショクヒン,0
2089,8250003003851,新規,0,2025-12-02,2025-12-02,合同会社ＳＩＡ,,合同会社,山口県,萩市,大字山田４９９７,,35,204,7580063,,,,,,,2025-12-02,1,,,,,,0
2091,8260003005434,新規,0,2025-12-02,2025-12-02,合同会社テイク,,合同会社,岡山県,倉敷市,連島町鶴新田１１１７番地１５,,33,202,7128006,,,,,,,2025-12-02,1,,,,,テイク,0
2093,8270001009337,新規,0,2025-12-02,2025-12-02,株式会社オンパーク,,株式会社,鳥取県,米子市,古豊千６５５番地１,,31,202,6893537,,,,,,,2025-12-02,1,,,,,オンパーク,0
2095,8270003001812,新規,0,2025-12-02,2025-12-02,田中技研合同会社,,合同会社,鳥取県,鳥取市,古海３０７番地２,,31,201,6800921,,,,,,,2025-12-02,1,,,,,タナカギケン,0
2098,8290001112378,新規,0,2025-12-02,2025-12-02,株式会社八法経営研究所,,株式会社,福岡県,福岡市博多区,麦野６丁目２０番１４－１０２号,,40,132,8120882,,,,,,,2025-12-02,1,,,,,ハッポウケイエイケンキュウジョ,0
2101,8290801032065,新規,0,2025-12-02,2025-12-02,株式会社ヴィリオレジデンス,,株式会社,福岡県,北九州市小倉北区,京町１丁目５番１５号３Ｆ,,40,106,8020002,,,,,,,2025-12-02,1,,,,,ヴィリオレジデンス,0
2104,8290805009877,新規,0,2025-12-02,2025-12-02,一般社団法人美蘭会,,その他の設立登記法人,福岡県,北九州市小倉北区,魚町１丁目１番１号西日本小倉ビル４階,,40,106,8020006,,,,,,,2025-12-02,1,,,,,ビランカイ,0
2106,8300001014432,新規,0,2025-12-02,2025-12-02,株式会社ゆう建Ｈｏｍｅ,,株式会社,佐賀県,佐賀市,本庄町大字鹿子５５４番地スターレット本庄２０２,,41,201,8400025,,,,,,,2025-12-02,1,,,,,ユウケンホーム,0
2109,8320001021476,新規,0,2025-12-02,2025-12-02,株式会社マチッチャ大分,,株式会社,大分県,大分市,府内町２丁目４番８号,,44,201,8700021,,,,,,,2025-12-02,1,,,,,マチッチャオオイタ,0
2116,8370003007403,新規,0,2025-12-02,2025-12-02,合同会社ＯＮＥ　ＶＩＬＬＡＧＥ,,合同会社,宮城県,亘理郡山元町,坂元字山作１５番,,04,362,9892111,,,,,,,2025-12-02,1,,,,,ワンヴィレッジ,0
2117,8370005011031,新規,0,2025-12-02,2025-12-02,特定非営利活動法人胆道閉鎖症のミカタ,,その他の設立登記法人,宮城県,仙台市宮城野区,鶴ケ谷２丁目４番地鶴ケ谷第一市営住宅６棟２１０,,04,102,9830824,,,,,,,2025-12-02,1,,,,,タンドウヘイサショウノミカタ,0
2126,8430001095749,新規,0,2025-12-02,2025-12-02,株式会社Ｎｂ．ｔｅｃｈ,,株式会社,北海道,札幌市白石区,本通１丁目南２番２０号,,01,104,0030026,,,,,,,2025-12-02,1,,,,,エヌビーテック,0
2127,8430001095765,新規,0,2025-12-02,2025-12-02,株式会社Ｎａｍ,,株式会社,北海道,札幌市中央区,北一条東３丁目３番地,,01,101,0600031,,,,,,,2025-12-02,1,,,,,ナム,0
2130,8430003018352,新規,0,2025-12-02,2025-12-02,合同会社ほろいちファーム,,合同会社,北海道,岩見沢市,北村幌達布５６２１,,01,210,0681215,,,,,,,2025-12-02,1,,,,,ホロイチファーム,0
2131,8430005015364,新規,0,2025-12-02,2025-12-02,一般社団法人Ｌｅｇａｌ　Ｂｒｉｄｇｅ,,その他の設立登記法人,北海道,札幌市中央区,南二条西５丁目３１番地１ＲＭＢｌｄ．７０１,,01,101,0600062,,,,,,,2025-12-02,1,,,,,リーガルブリッジ,0
2135,8450003002742,新規,0,2025-12-02,2025-12-02,合同会社ＢＯＷ,,合同会社,北海道,上川郡東神楽町,１９号南５番地東神楽大学内,,01,453,0711549,,,,,,,2025-12-02,1,,,,,ボウ,0
2144,8500001026647,新規,0,2025-12-02,2025-12-02,株式会社菊屋,,株式会社,愛媛県,宇和島市,中央町２丁目３番３３号,,38,203,7980040,,,,,,,2025-12-02,1,,,,,キクヤ,0
2145,8700150008211,新規,0,2025-12-02,2015-10-09,ＮＧＦ　日本,,その他,東京都,渋谷区,幡ヶ谷３丁目３９－１２渋谷ウェストビル１Ｆ,,13,113,1510072,,,,,,,2015-10-09,1,,,,,エヌジーエフニホン,0
2160,9010003049604,新規,0,2025-12-02,2025-12-02,合同会社はばたき,,合同会社,東京都,中央区,日本橋ニ丁目１６番４号ｒｅｍｉｘ日本橋６階,,13,102,1030000,,,,,,,2025-12-02,1,,,,,ハバタキ,0
2168,9010401194885,新規,0,2025-12-02,2025-12-02,株式会社ＵＭＡＭＩ　ＬＡＢ,,株式会社,東京都,港区,西麻布１丁目８番１２号ＡＲＩＳＴＯ西麻布３Ｆ,,13,103,1060031,,,,,,,2025-12-02,1,,,,,ウマミラボ,0
2169,9010403036714,新規,0,2025-12-02,2025-12-02,合同会社ＤＩＧＩＴＡＬＩＯ　ａｐｐ　ｌａｂ,,合同会社,東京都,港区,虎ノ門２丁目６番１号虎ノ門ヒルズステーションタワー３６階,,13,103,1050001,,,,,,,2025-12-02,1,,,,,デジタリオアプラボ,0
2170,9010405025013,新規,0,2025-12-02,2025-12-02,一般社団法人サステナブル地盤再利用協会,,その他の設立登記法人,東京都,港区,東麻布１丁目５－３パシフィックビル,,13,103,1060044,,,,,,,2025-12-02,1,,,,,サステナブルジバンサイリヨウキョウカイ,0
2181,9010603011938,新規,0,2025-12-02,2025-12-02,合同会社ＮＥＯ,,合同会社,東京都,墨田区,緑４丁目２０番１６－５０１号,,13,107,1300021,,,,,,,2025-12-02,1,,,,,ネオ,0
2185,9010703008009,新規,0,2025-12-02,2025-12-02,ＰＥＷ　ＷＯＲＫＳ合同会社,,合同会社,東京都,品川区,南品川１丁目５番３号ＭＫ南品川ビル５Ｆ,,13,109,1400004,,,,,,,2025-12-02,1,,,,,ピューワークス,0
2191,9011001173841,新規,0,2025-12-02,2025-12-02,株式会社細川雄太デザイン研究所,,株式会社,東京都,渋谷区,神宮前２丁目３１番９号,,13,113,1500001,,,,,,,2025-12-02,1,,,,,ホソカワユウタデザインケンキュウショ,0
2197,9011003023029,新規,0,2025-12-02,2025-12-02,Ｅｂｂ　Ｅｑｕａｔｉｏｎ合同会社,,合同会社,東京都,渋谷区,代官山町８－７スクウェア代官山ビルＳ－０２号室,,13,113,1500034,,,,,,,2025-12-02,1,,,,,エブイクウェション,0
2203,9011101113920,新規,0,2025-12-02,2025-12-02,株式会社Ａｒｂｏｒｉｓ,,株式会社,東京都,新宿区,四谷坂町１１番８号ラクラス四谷三丁目２０４,,13,104,1600002,,,,,,,2025-12-02,1,,,,,アーボリス,0
2204,9011101114159,新規,0,2025-12-02,2025-12-02,株式会社ホライズン,,株式会社,東京都,新宿区,新宿１丁目３６番２号,,13,104,1600022,,,,,,,2025-12-02,1,,,,,ホライズン,0
2210,9011301031088,新規,0,2025-12-02,2025-12-02,カムオン株式会社,,株式会社,東京都,杉並区,高円寺南５丁目１５番１５号ケイアンドティ中野２０６号,,13,115,1660003,,,,,,,2025-12-02,1,,,,,カムオン,0
2212,9011401027622,新規,0,2025-12-02,2025-12-02,株式会社ＨＹＡＴ,,株式会社,東京都,板橋区,徳丸１丁目３０－１７－３０３,,13,119,1750083,,,,,,,2025-12-02,1,,,,,ハイアット,0
2215,9011501032869,新規,0,2025-12-02,2025-12-02,株式会社ａｎｇｅ,,株式会社,東京都,北区,赤羽３丁目５番１３号サンモリッツ３０１号,,13,117,1150045,,,,,,,2025-12-02,1,,,,,アンジュ,0
2217,9011703004468,新規,0,2025-12-02,2025-12-02,ＰＰＭＣ合同会社,,合同会社,東京都,江戸川区,西葛西３丁目１５番１６－５０３号ＩＲＩＳ,,13,123,1340088,,,,,,,2025-12-02,1,,,,,ピーピーエムシー,0
2223,9011805003500,新規,0,2025-12-02,2025-12-02,ＮＰＯ法人ＳｏｕＲｉｒｅ　ｂａｌｌｏｏｎ,,その他の設立登記法人,東京都,葛飾区,東金町６丁目１３番２７号,,13,122,1250041,,,,,,,2025-12-02,1,,,,,スーリールバルーン,0
2244,9020001166004,新規,0,2025-12-02,2025-12-02,株式会社ＩＤＫ,,株式会社,神奈川県,川崎市麻生区,東百合丘２丁目２２番８号,,14,137,2150012,,,,,,,2025-12-02,1,,,,,アイディーケー,0
2246,9020003029902,新規,0,2025-12-02,2025-12-02,合同会社ローンスター,,合同会社,神奈川県,横浜市港北区,日吉５丁目２１－２７－４０８,,14,109,2230061,,,,,,,2025-12-02,1,,,,,ローンスター,0
2248,9021001086919,新規,0,2025-12-02,2025-12-02,株式会社ｉＮＯＷ．,,株式会社,神奈川県,足柄上郡大井町,金子１４２８番地３,,14,362,2580019,,,,,,,2025-12-02,1,,,,,アイノウ,0
2250,9030001169798,新規,0,2025-12-02,2025-12-02,グアバ住建株式会社,,株式会社,埼玉県,戸田市,南町８番５－４０６号,,11,224,3350025,,,,,,,2025-12-02,1,,,,,グアバジュウケン,0
2251,9030001169889,新規,0,2025-12-02,2025-12-02,株式会社ＷＩＬＬＢＡ,,株式会社,埼玉県,上尾市,大字原市３４９６番地３４,,11,219,3620021,,,,,,,2025-12-02,1,,,,,ウィルバ,0
2252,9030001169897,新規,0,2025-12-02,2025-12-02,株式会社ハレズン,,株式会社,埼玉県,所沢市,大字牛沼２５７番地の７,,11,208,3590026,,,,,,,2025-12-02,1,,,,,ハレズン,0
2271,9070001043603,新規,0,2025-12-02,2025-12-02,株式会社Ｆｕｎ　Ａｓｐｉｒａｔｉｏｎｓ,,株式会社,群馬県,伊勢崎市,本町９番地１,,10,204,3720047,,,,,,,2025-12-02,1,,,,,ファンアスピレイションズ,0
2272,9080001027299,新規,0,2025-12-02,2025-12-02,勝治屋株式会社,,株式会社,静岡県,藤枝市,瀬戸ノ谷７３０２,,22,214,4260131,,,,,,,2025-12-02,1,,,,,ショウジヤ,0
2274,9080401028285,新規,0,2025-12-02,2025-12-02,株式会社御園,,株式会社,静岡県,浜松市中央区,寺脇町２６５番地の５,,22,138,4300841,,,,,,,2025-12-02,1,,,,,ゴエン,0
2279,9100001039143,新規,0,2025-12-02,2025-12-02,Ｍｅｃｈａｔｒｏｎｉｃ株式会社,,株式会社,長野県,伊那市,中央４９９１番地,,20,209,3960015,,,,,,,2025-12-02,1,,,,,メカトロニック,0
2283,9110003005984,新規,0,2025-12-02,2025-12-02,合同会社太陽工業,,合同会社,新潟県,新潟市東区,牡丹山６丁目１１番１号コーポソフィア２０５,,15,102,9500872,,,,,,,2025-12-02,1,,,,,タイヨウコウギョウ,0
2294,9120001282253,新規,0,2025-12-02,2025-12-02,株式会社ＢＧＩホールディングス,,株式会社,大阪府,大阪市西区,京町堀２丁目９番８号,,27,106,5500003,,,,,,,2025-12-02,1,,,,,ビージーアイホールディングス,0
2295,9120001282336,新規,0,2025-12-02,2025-12-02,株式会社Ｌ．Ｉ．Ｊ　Ｗｏｒｋ,,株式会社,大阪府,守口市,日吉町１丁目２番３号,,27,209,5700081,,,,,,,2025-12-02,1,,,,,エルアイジェーワーク,0
2296,9120001282344,新規,0,2025-12-02,2025-12-02,Ｚｅｎｃａｒｄｓ株式会社,,株式会社,大阪府,大阪市中央区,船越町１丁目３番５号,,27,128,5400036,,,,,,,2025-12-02,1,,,,,ゼンカーズ,0
2297,9120001282360,新規,0,2025-12-02,2025-12-02,株式会社Ａｌｗａｙｓニコニコ,,株式会社,大阪府,大阪市西区,北堀江１丁目１７番１８号２０３,,27,106,5500014,,,,,,,2025-12-02,1,,,,,オールウェイズニコニコ,0
2298,9120001282369,新規,0,2025-12-02,2025-12-02,株式会社Ｆｒｅｅ　Ｓｔｕｄｉｏ,,株式会社,大阪府,大阪市平野区,西脇１丁目１２番１号,,27,126,5470035,,,,,,,2025-12-02,1,,,,,フリースタジオ,0
2303,9120003031352,新規,0,2025-12-02,2025-12-02,レネソーラエナジー第一合同会社,,合同会社,大阪府,大阪市阿倍野区,播磨町１丁目２３－２２、５Ｂ,,27,119,5450022,,,,,,,2025-12-02,1,,,,,レネソーラエナジーダイイチ,0
2304,9120005025278,新規,0,2025-12-02,2025-12-02,一般社団法人ひとつなぎ協会,,その他の設立登記法人,大阪府,大阪市西区,立売堀１丁目４－１２立売堀スクエアビル８Ｆ,,27,106,5500012,,,,,,,2025-12-02,1,,,,,ヒトツナギキョウカイ,0
2308,9120101072876,新規,0,2025-12-02,2025-12-02,株式会社ＳＤＮＩ,,株式会社,大阪府,泉南市,岡田６丁目２５番９号,,27,228,5900531,,,,,,,2025-12-02,1,,,,,エスディーエヌアイ,0
2314,9130001081126,新規,0,2025-12-02,2025-12-02,株式会社ウインスリーホールディングス,,株式会社,京都府,京都市伏見区,竹田西桶ノ井町４０番地,,26,109,6128428,,,,,,,2025-12-02,1,,,,,ウインスリーホールディングス,0
2321,9140001140896,新規,0,2025-12-02,2025-12-02,Ｉｎｌｏｖｅ　Ｐｅａｒｌ株式会社,,株式会社,兵庫県,神戸市中央区,山本通１丁目７－２３北野ヒルズ２０３号,,28,110,6500003,,,,,,,2025-12-02,1,,,,,インラブパール,0
2329,9170003002340,新規,0,2025-12-02,2025-12-02,合同会社Ｃａｒｉｎｇ　Ｈａｎｄｓ　Ａｍａｎｅ,,合同会社,和歌山県,岩出市,相谷５４３番地の１７,,30,209,6496257,,,,,,,2025-12-02,1,,,,,ケアリングハンズアマネ,0
2347,9190001032726,新規,0,2025-12-02,2025-12-02,株式会社南昭工業,,株式会社,三重県,四日市市,山城町１８２３番地,,24,202,5128048,,,,,,,2025-12-02,1,,,,,ナンショウコウギョウ,0
2349,9200001044471,新規,0,2025-12-02,2025-12-02,株式会社山勝,,株式会社,岐阜県,多治見市,笠原町４４６２番地,,21,204,5070901,,,,,,,2025-12-02,1,,,,,ヤマショウ,0
2355,9240001065836,新規,0,2025-12-02,2025-12-02,ナインテラス株式会社,,株式会社,広島県,安芸郡坂町,坂西３丁目３番３２号,,34,309,7314314,,,,,,,2025-12-02,1,,,,,ナインテラス,0
2360,9270001009336,新規,0,2025-12-02,2025-12-02,株式会社岡田商店,,株式会社,鳥取県,境港市,幸神町３５３番地,,31,204,6840056,,,,,,,2025-12-02,1,,,,,オカダショウテン,0
2364,9290001112352,新規,0,2025-12-02,2025-12-02,株式会社Ｌｕｘ　Ａｕｒｅａ,,株式会社,福岡県,福岡市博多区,上川端町１－５花村ビル５０３号,,40,132,8120026,,,,,,,2025-12-02,1,,,,,ルクスアウレア,0
2365,9290003017780,新規,0,2025-12-02,2025-12-02,合同会社つばさ運送,,合同会社,福岡県,福岡市博多区,千代５丁目３番２１－５０１号スカイシャトレ,,40,132,8120044,,,,,,,2025-12-02,1,,,,,ツバサウンソウ,0
2366,9290005019890,新規,0,2025-12-02,2025-12-02,一般社団法人ＣｏＬｉｖｉｎｇ　Ｔａｍａｒｅｅ,,その他の設立登記法人,福岡県,春日市,光町３丁目５６番地,,40,218,8160806,,,,,,,2025-12-02,1,,,,,コリビングタマリー,0
2370,9300001014423,新規,0,2025-12-02,2025-12-02,ＡＬＫＴ　Ｌｉｎｋ株式会社,,株式会社,佐賀県,三養基郡みやき町,大字東尾２２７－２,,41,346,8490113,,,,,,,2025-12-02,1,,,,,アルクトリンク,0
2381,9360003015439,新規,0,2025-12-02,2025-12-02,クラフトスタジオケイズ合同会社,,合同会社,沖縄県,南城市,玉城字百名１２８３番地１,,47,215,9010603,,,,,,,2025-12-02,1,,,,,クラフトスタジオケイズ,0
2382,9360005007327,新規,0,2025-12-02,2025-12-02,一般社団法人はくまーる,,その他の設立登記法人,沖縄県,宜野湾市,上原２丁目４－１０,,47,205,9012204,,,,,,,2025-12-02,1,,,,,ハクマール,0
2393,9430001095748,新規,0,2025-12-02,2025-12-02,株式会社Ｇｒａｎｄ　Ｄｙｎａｍｉｃ,,株式会社,北海道,札幌市手稲区,明日風３丁目７－１６－２,,01,109,0060861,,,,,,,2025-12-02,1,,,,,グランドダイナミック,0
2394,9430001095756,新規,0,2025-12-02,2025-12-02,株式会社旭,,株式会社,北海道,札幌市東区,丘珠町１６７番地１３,,01,103,0070880,,,,,,,2025-12-02,1,,,,,アサヒ,0
2395,9430001095764,新規,0,2025-12-02,2025-12-02,株式会社一か七か,,株式会社,北海道,札幌市中央区,南二十条西６丁目１番１２号,,01,101,0640920,,,,,,,2025-12-02,1,,,,,イチカナナカ,0
