sequenceNumber,corporateNumber,process,correct,updateDate,changeDate,name,nameImageId,kind,prefectureName,cityName,streetNumber,addressImageId,prefectureCode,cityCode,postCode,addressOutside,addressOutsideImageId,closeDate,closeCause,successorCorporateNumber,changeCause,assignmentDate,latest,enName,enPrefectureName,enCityName,enAddressOutside,furigana,hihyoji
12,1010001238744,新規,0,2023-09-28,2023-09-28,炬来株式会社,,株式会社,東京都,千代田区,神田三崎町３丁目５番９号天翔水道橋ビル２階２０５‐Ｇ,,13,101,1010061,,,,,,,2023-09-28,1,,,,,キョライ,0
17,1010003041766,新規,0,2023-09-28,2023-09-28,合同会社ＴＯＫＹＯ　ＢＨＡＶＡＮ,,合同会社,東京都,千代田区,飯田橋１丁目１２番７号日新ＭＳビル,,13,101,1020072,,,,,,,2023-09-28,1,,,,,トーキョーバワン,0
25,1010403031020,新規,0,2023-09-28,2023-09-28,合同会社ＯＹＨインベストメント,,合同会社,東京都,港区,南青山２丁目９番１４号,,13,103,1070062,,,,,,,2023-09-28,1,,,,,オーワイエイチインベストメント,0
28,1010501051127,新規,0,2023-09-28,2023-09-28,株式会社Ｌ‐Ｓｔｙｌｅ,,株式会社,東京都,台東区,上野３丁目１２番５号,,13,106,1100005,,,,,,,2023-09-28,1,,,,,エルスタイル,0
32,1010603010385,新規,0,2023-09-28,2023-09-28,ブリスク合同会社,,合同会社,東京都,江東区,大島３丁目９－４,,13,108,1360072,,,,,,,2023-09-28,1,,,,,ブリスク,0
35,1010903008476,新規,0,2023-09-28,2023-09-28,合同会社ＢｅＣＶ,,合同会社,東京都,世田谷区,用賀２丁目３９－１７用賀駅ビル３階,,13,112,1580097,,,,,,,2023-09-28,1,,,,,ビーシーブイ,0
38,1011003017616,新規,0,2023-09-28,2023-09-28,合同会社アクセス,,合同会社,東京都,渋谷区,渋谷１丁目２２番１０号第２東邦ビル３階,,13,113,1500002,,,,,,,2023-09-28,1,,,,,アクセス,0
39,1011101104522,新規,0,2023-09-28,2023-09-28,株式会社心島,,株式会社,東京都,新宿区,百人町２丁目４番５号ライオンズマンション新大久保６０５,,13,104,1690073,,,,,,,2023-09-28,1,,,,,シントウ,0
40,1011101104539,新規,0,2023-09-28,2023-09-28,株式会社Ｆｌｕｓｓ,,株式会社,東京都,新宿区,西新宿７丁目５番地５号プラザ７０９,,13,104,1600023,,,,,,,2023-09-28,1,,,,,フルス,0
45,1011103013531,新規,0,2023-09-28,2023-09-28,合同会社プロモットワークス,,合同会社,東京都,新宿区,西新宿３丁目３番１３号西新宿水間ビル６階,,13,104,1600023,,,,,,,2023-09-28,1,,,,,プロモットワークス,0
51,1011403004131,新規,0,2023-09-28,2023-09-28,合同会社Ｎ５,,合同会社,東京都,板橋区,加賀１丁目２１番１号,,13,119,1730003,,,,,,,2023-09-28,1,,,,,エヌファイブ,0
52,1011501029781,新規,0,2023-09-28,2023-09-28,株式会社百信,,株式会社,東京都,北区,浮間１丁目１－１４リムジンビル１２４号,,13,117,1150051,,,,,,,2023-09-28,1,,,,,ヒャクシン,0
53,1011801043086,新規,0,2023-09-28,2023-09-28,株式会社ＨＥＸデータ,,株式会社,東京都,葛飾区,東堀切３丁目２４番１号,,13,122,1240004,,,,,,,2023-09-28,1,,,,,ヘクスデータ,0
56,1012401041042,新規,0,2023-09-28,2023-09-28,株式会社ＳＥＩＫＯ,,株式会社,東京都,多摩市,落合４丁目３番地の５－２０６,,13,224,2060033,,,,,,,2023-09-28,1,,,,,セイコー,0
62,1013303006810,新規,0,2023-09-28,2023-09-28,合同会社もみじ,,合同会社,東京都,豊島区,東池袋１丁目１５番１２号,,13,116,1700013,,,,,,,2023-09-28,1,,,,,モミジ,0
67,1020001153678,新規,0,2023-09-28,2023-09-28,ＢＥＡＣＨ　ＺＯＮＥ株式会社,,株式会社,神奈川県,川崎市多摩区,堰３丁目１０番１４号,,14,135,2140022,,,,,,,2023-09-28,1,,,,,ビーチゾーン,0
72,1021001080292,新規,0,2023-09-28,2023-09-28,山崎家株式会社,,株式会社,神奈川県,藤沢市,石川４６６１番３,,14,205,2520815,,,,,,,2023-09-28,1,,,,,ヤマザキヤ,0
81,1030001156044,新規,0,2023-09-28,2023-09-28,株式会社長竹コーポレーション,,株式会社,埼玉県,川口市,大字安行吉岡１６１０番地の１２,,11,203,3340072,,,,,,,2023-09-28,1,,,,,ナガタケコーポレーション,0
82,1030001156052,新規,0,2023-09-28,2023-09-28,株式会社トランキーロ,,株式会社,埼玉県,北葛飾郡松伏町,大字松伏２１０５－１,,11,465,3430111,,,,,,,2023-09-28,1,,,,,トランキーロ,0
83,1030001156077,新規,0,2023-09-28,2023-09-28,株式会社リオカ,,株式会社,埼玉県,熊谷市,本石２丁目７番地,,11,202,3600815,,,,,,,2023-09-28,1,,,,,リオカ,0
91,1030003022500,新規,0,2023-09-28,2023-09-28,Ｕｒａｎ　Ｍｕｕ　Ｄｅｓｉｇｎ合同会社,,合同会社,埼玉県,新座市,東１丁目１３－３５アーベイン志木キッズガーデン１０３号,,11,230,3520002,,,,,,,2023-09-28,1,,,,,ウランムーデザイン,0
92,1030003022533,新規,0,2023-09-28,2023-09-28,合同会社Ｓｕｉｐｈ,,合同会社,埼玉県,越谷市,レイクタウン７丁目１４番地７ＬａｋｅＣｏｎｆｏｒｔ２０５,,11,222,3430828,,,,,,,2023-09-28,1,,,,,スイフ,0
93,1030003022566,新規,0,2023-09-28,2023-09-28,合同会社カメレオン,,合同会社,埼玉県,加須市,麦倉１５８番地１３ハイツヴァンティアンＣ棟２０２号,,11,210,3491212,,,,,,,2023-09-28,1,,,,,カメレオン,0
94,1030003022681,新規,0,2023-09-28,2023-09-28,ＫＩＳＭＡＴ合同会社,,合同会社,埼玉県,川越市,大字砂８５７番地１３プラザ、ドゥ、リージェンド１０３,,11,201,3501133,,,,,,,2023-09-28,1,,,,,キスマット,0
99,1040001130262,新規,0,2023-09-28,2023-09-28,株式会社岩川設備,,株式会社,千葉県,鎌ケ谷市,丸山２丁目１０番７０－１０３号,,12,224,2730103,,,,,,,2023-09-28,1,,,,,イワガワセツビ,0
100,1040001130295,新規,0,2023-09-28,2023-09-28,株式会社Ｕ‐ＤＩＧＩＴ,,株式会社,千葉県,八千代市,緑が丘西６丁目１２番地４２,,12,221,2760040,,,,,,,2023-09-28,1,,,,,ユーデギット,0
103,1050001053537,新規,0,2023-09-28,2023-09-28,株式会社平野設備,,株式会社,茨城県,結城市,大字結城９８１８番地１０,,08,207,3070001,,,,,,,2023-09-28,1,,,,,ヒラノセツビ,0
104,1050001053553,新規,0,2023-09-28,2023-09-28,オージーアイ株式会社,,株式会社,茨城県,守谷市,本町２９７－５５,,08,224,3020109,,,,,,,2023-09-28,1,,,,,オージーアイ,0
106,1050003007821,新規,0,2023-09-28,2023-09-28,合同会社ＫＢＲ電設,,合同会社,茨城県,下妻市,宗道２６４番地３,,08,210,3040814,,,,,,,2023-09-28,1,,,,,ケービーアールデンセツ,0
111,1080005007569,新規,0,2023-09-28,2023-09-28,税理士法人ヒカリヲ,,その他の設立登記法人,静岡県,静岡市駿河区,中田１丁目８番１０号,,22,102,4228041,,,,,,,2023-09-28,1,,,,,ヒカリヲ,0
115,1110001037863,新規,0,2023-09-28,2023-09-28,株式会社プラコー鈴木,,株式会社,新潟県,新潟市西蒲区,橋本９８８番地,,15,108,9530103,,,,,,,2023-09-28,1,,,,,プラコースズキ,0
121,1120001258351,新規,0,2023-09-28,2023-09-28,株式会社ゆゆゆ,,株式会社,大阪府,大阪市北区,大淀中５丁目１４番１－４１２号,,27,127,5310076,,,,,,,2023-09-28,1,,,,,ユユユ,0
122,1120001258368,新規,0,2023-09-28,2023-09-28,ジャパンシーマンライン株式会社,,株式会社,大阪府,大阪市天王寺区,堀越町８番２０号サンクレールナンガ５０４,,27,109,5430056,,,,,,,2023-09-28,1,,,,,ジャパンシーマンライン,0
123,1120001258392,新規,0,2023-09-28,2023-09-28,株式会社東盛商会,,株式会社,大阪府,大阪市住之江区,西加賀屋１丁目３番１－１４２２号,,27,125,5590016,,,,,,,2023-09-28,1,,,,,トウセイショウカイ,0
126,1120101068270,新規,0,2023-09-28,2023-09-28,株式会社スイーパー,,株式会社,大阪府,堺市堺区,南三国ヶ丘町６丁３番８号２,,27,141,5900023,,,,,,,2023-09-28,1,,,,,スイーパー,0
127,1120901048091,新規,0,2023-09-28,2023-09-28,株式会社ＣＴＥＮ,,株式会社,大阪府,吹田市,広芝町４－３４江坂第一ビル５０１号室,,27,205,5640052,,,,,,,2023-09-28,1,,,,,シテン,0
129,1130001075275,新規,0,2023-09-28,2023-09-28,株式会社クルーズライフ,,株式会社,京都府,京都市伏見区,深草兜山町５４番地１ビューハイツ３０６,,26,109,6120826,,,,,,,2023-09-28,1,,,,,クルーズライフ,0
130,1130001075358,新規,0,2023-09-28,2023-09-28,ＧＲＪ　ａｒｃｈｉｔｅｃｔｓ株式会社,,株式会社,京都府,京都市上京区,大宮通五辻上る西入紋屋町３２３,,26,102,6028447,,,,,,,2023-09-28,1,,,,,ジーアールジェイアーチテクツ,0
139,1140003019601,新規,0,2023-09-28,2023-09-28,ティッツ合同会社,,合同会社,兵庫県,神戸市東灘区,向洋町中６丁目３番地の８４,,28,101,6580032,,,,,,,2023-09-28,1,,,,,ティッツ,0
140,1150001026739,新規,0,2023-09-28,2023-09-28,株式会社Ｘｅｒ,,株式会社,奈良県,生駒市,辻町２２０番地１,00132060,29,209,6300212,,,,,,,2023-09-28,1,,,,,エクサー,0
146,1180001158166,新規,0,2023-09-28,2023-09-28,ＢＳホールディングス株式会社,,株式会社,愛知県,名古屋市中区,錦１丁目１５番１０号,,23,106,4600003,,,,,,,2023-09-28,1,,,,,ビーエスホールディングス,0
147,1180001158190,新規,0,2023-09-28,2023-09-28,株式会社こころざし,,株式会社,愛知県,名古屋市中区,丸の内２丁目７番１７号ＡＲＥＸ丸の内ＩＩ１００４,00132062,23,106,4600002,,,,,,,2023-09-28,1,,,,,ココロザシ,0
148,1180001158208,新規,0,2023-09-28,2023-09-28,株式会社Ｃａｌｍ　Ｉｎｃｒｅａｓｅ,,株式会社,愛知県,名古屋市南区,豊田１丁目２番２号,,23,112,4570841,,,,,,,2023-09-28,1,,,,,カルムインクリース,0
153,1180005020371,新規,0,2023-09-28,2023-09-28,特定非営利活動法人和み,,その他の設立登記法人,愛知県,名古屋市南区,三吉町２丁目５７番地,,23,112,4570805,,,,,,,2023-09-28,1,,,,,ナゴミ,0
155,1180301037854,新規,0,2023-09-28,2023-09-28,株式会社皆昇企画,,株式会社,愛知県,豊橋市,三本木町字元三本木９番地１ユトリロスター２１１号,,23,201,4418152,,,,,,,2023-09-28,1,,,,,キショウキカク,0
157,1200001041757,新規,0,2023-09-28,2023-09-28,株式会社森栄舎,,株式会社,岐阜県,高山市,昭和町２丁目１１７番地５,,21,203,5060053,,,,,,,2023-09-28,1,,,,,シンエイシャ,0
169,1290001103160,新規,0,2023-09-28,2023-09-28,株式会社叶鑑,,株式会社,福岡県,福岡市東区,多の津５丁目１－８－２０８,,40,131,8130034,,,,,,,2023-09-28,1,,,,,カナカン,0
170,1290001103169,新規,0,2023-09-28,2023-09-28,株式会社ＰＵＲＰＬＥ　ＭＡＸ,,株式会社,福岡県,福岡市城南区,友泉亭７番１７号１Ｆ,,40,136,8140122,,,,,,,2023-09-28,1,,,,,パープルマックス,0
171,1290001103177,新規,0,2023-09-28,2023-09-28,株式会社きゃりー,,株式会社,福岡県,飯塚市,下三緒３５番地６１１,,40,205,8200012,,,,,,,2023-09-28,1,,,,,キャリー,0
180,1300001013481,新規,0,2023-09-28,2023-09-28,フラワースティック株式会社,,株式会社,佐賀県,佐賀市,本庄町大字本庄４５５番地４０,,41,201,8400027,,,,,,,2023-09-28,1,,,,,フラワースティック,0
181,1320005010102,新規,0,2023-09-28,2023-09-28,一般社団法人ｗａｔａｓｈｉ,,その他の設立登記法人,大分県,日田市,丸山２丁目４番４８号,,44,204,8770008,,,,,,,2023-09-28,1,,,,,,0
185,1330003009995,新規,0,2023-09-28,2023-09-28,合同会社ＳＥＢＡＳＵ,,合同会社,熊本県,熊本市北区,龍田１丁目２０番３８号,,43,105,8618006,,,,,,,2023-09-28,1,,,,,セバス,0
198,1370003006304,新規,0,2023-09-28,2023-09-28,合同会社せのび,,合同会社,宮城県,大崎市,古川前田町１０番７号ラフィネ２１Ａ棟２０１号,,04,215,9896172,,,,,,,2023-09-28,1,,,,,セノビ,0
203,1410001013603,新規,0,2023-09-28,2023-09-28,株式会社高倍家福本商店,,株式会社,秋田県,にかほ市,金浦字上林５番地４０,,05,214,0180311,,,,,,,2023-09-28,1,,,,,タカベヤフクモトショウテン,0
207,1420003002801,新規,0,2023-09-28,2023-09-28,新栄合同会社,,合同会社,青森県,上北郡七戸町,字荒熊内６７番地７００,,02,402,0392501,,,,,,,2023-09-28,1,,,,,シンエイ,0
221,1700150120807,新規,0,2023-09-28,2023-09-28,ＳＴＡＲＴＵＰ　ＨＯＫＫＡＩＤＯ　実行委員会,,その他,北海道,札幌市中央区,大通西３丁目６番地北海道新聞社本社ビル２Ｆ（ＳＡＰＰＯＲＯ　ＩＮＣＵＢＡＴＩＯＮ　ＨＵＢ　ＤＲＩＶＥ内）,,01,101,0600042,,,,,,,2023-09-28,1,,,,,スタートアップホッカイドウジッコウイインカイ,0
222,1700150120831,新規,0,2023-09-28,2023-09-28,ｆｕｚｈｏｕｘｉｎｌｕｄｉａｎｚｉｓｈａｎｇｗｕ　ｙｏｕｘｉａｎｇｏｎｇｓｉ,,外国会社等,,,,,,,,ｎａｎｙｕｚｈｅｎ　ｗｕｌｏｎｇｊｉａｎｇｎａｎｄａｄａｏ７９ｈａｏ　ｘｉｎｔｏｎｇｇｕｏｊｉｚｈｏｎｇｘｉｎＡｄｉｋｕａｉ３＃ｌｏｕ１３ｃｅｎｇ１３１９ｂａｎｇｏｎｇ－１　ｆｕｚｈｏｕ　ｇａｏｘｉｎｑｕ　ｆｕｊｉａｎｓｈｅｎｇ,,,,,,2023-09-28,1,,,,,フクシュウシンルデンシショウムユウゲンコウシ,0
235,2010001238776,新規,0,2023-09-28,2023-09-28,株式会社ＫＹＵＶ,,株式会社,東京都,中央区,銀座１丁目２２番１１号銀座大竹ビジデンス２Ｆ,,13,102,1040061,,,,,,,2023-09-28,1,,,,,キューブ,0
248,2010401177335,新規,0,2023-09-28,2023-09-28,株式会社ＶＡＬＡＬＬ,,株式会社,東京都,港区,芝大門２丁目２－１ＡＣＮ芝大門ビルディング６階,,13,103,1050012,,,,,,,2023-09-28,1,,,,,ヴァルオール,0
249,2010401177434,新規,0,2023-09-28,2023-09-28,株式会社ＰＯＳＴキャリア,,株式会社,東京都,港区,赤坂１丁目１１番４４号,,13,103,1070052,,,,,,,2023-09-28,1,,,,,ポストキャリア,0
251,2010403030995,新規,0,2023-09-28,2023-09-28,Ｋｕｄｏｓ合同会社,,合同会社,東京都,港区,港南３丁目５番１０－１４０６号,,13,103,1080075,,,,,,,2023-09-28,1,,,,,クドーズ,0
256,2010601063863,新規,0,2023-09-28,2023-09-28,株式会社鴻昇,,株式会社,東京都,江東区,亀戸５丁目３６番６－７０４号ＢＥＬＩＳＴＡ亀戸,00132064,13,108,1360071,,,,,,,2023-09-28,1,,,,,コウショウ,0
257,2010603010384,新規,0,2023-09-28,2023-09-28,合同会社アイテック,,合同会社,東京都,江東区,木場１丁目５番２５号深川ギャザリアタワーＳ棟４階,,13,108,1350042,,,,,,,2023-09-28,1,,,,,アイテック,0
260,2010701044895,新規,0,2023-09-28,2023-09-28,株式会社ＰＯＩＴＯ,,株式会社,東京都,品川区,戸越銀座五丁目１７番１２号矢田ビル２Ｆ,,13,109,1400000,,,,,,,2023-09-28,1,,,,,ポイト,0
266,2010903008475,新規,0,2023-09-28,2023-09-28,ＫＡＲＲＹＳ合同会社,,合同会社,東京都,世田谷区,粕谷２丁目１１番２５－１０２号,,13,112,1570063,,,,,,,2023-09-28,1,,,,,カリーズ,0
277,2011001157198,新規,0,2023-09-28,2023-09-28,ＢＲＯＨ株式会社,,株式会社,東京都,渋谷区,桜丘町２９番１６号セルフィスタ渋谷６０１号室,,13,113,1500031,,,,,,,2023-09-28,1,,,,,ブロウ,0
278,2011003017615,新規,0,2023-09-28,2023-09-28,合同会社ｃａｒｅｔ０,,合同会社,東京都,渋谷区,道玄坂１丁目１０番８号渋谷道玄坂東急ビル２Ｆ－Ｃ,,13,113,1500043,,,,,,,2023-09-28,1,,,,,キャレットゼロ,0
281,2011103013522,新規,0,2023-09-28,2023-09-28,ＫＲＥＡ合同会社,,合同会社,東京都,新宿区,河田町３番５１－２１０３号,,13,104,1620054,,,,,,,2023-09-28,1,,,,,クレア,0
282,2011103013539,新規,0,2023-09-28,2023-09-28,合同会社小鯖工業,,合同会社,東京都,新宿区,西新宿３丁目１７番１号,,13,104,1600023,,,,,,,2023-09-28,1,,,,,コサバコウギョウ,0
283,2011201024941,新規,0,2023-09-28,2023-09-28,アズールコンサルティング株式会社,,株式会社,東京都,中野区,中野４丁目１０－２セントラルパークサウス２Ｆ,,13,114,1640001,,,,,,,2023-09-28,1,,,,,,0
288,2011301029031,新規,0,2023-09-28,2023-09-28,木新明株式会社,,株式会社,東京都,杉並区,天沼１丁目３２番６号,,13,115,1670032,,,,,,,2023-09-28,1,,,,,モクシンメイ,0
290,2011403004130,新規,0,2023-09-28,2023-09-28,合同会社ライズ,,合同会社,東京都,板橋区,常盤台２丁目５番１号常盤台ビル本館２階,,13,119,1740071,,,,,,,2023-09-28,1,,,,,ライズ,0
297,2011703003600,新規,0,2023-09-28,2023-09-28,ＭＩＹＡＢＩ合同会社,,合同会社,東京都,江戸川区,平井５丁目３２番１１号伊藤荘２０５,,13,123,1320035,,,,,,,2023-09-28,1,,,,,ミヤビ,0
302,2012301013603,新規,0,2023-09-28,2023-09-28,株式会社ＤＥＵ,,株式会社,東京都,町田市,森野４丁目７番１号２階,,13,209,1940022,,,,,,,2023-09-28,1,,,,,デュー,0
307,2020001153669,新規,0,2023-09-28,2023-09-28,株式会社Ｌｏｕｐｉｓａｐｏ,,株式会社,神奈川県,横浜市都筑区,仲町台１丁目７番１８号ビュロー仲町台３０４,,14,118,2240041,,,,,,,2023-09-28,1,,,,,ルピサポ,0
309,2020003024637,新規,0,2023-09-28,2023-09-28,合同会社横浜サスケ,,合同会社,神奈川県,横浜市保土ケ谷区,権太坂２丁目２２‐９,,14,106,2400026,,,,,,,2023-09-28,1,,,,,ヨコハマサスケ,0
310,2021001080201,新規,0,2023-09-28,2023-09-28,株式会社Ｆｒｅｓｃｏ,,株式会社,神奈川県,海老名市,望地２丁目１１番２６号,,14,215,2430403,,,,,,,2023-09-28,1,,,,,フレスコ,0
311,2021001080283,新規,0,2023-09-28,2023-09-28,株式会社ＮＥＸＴ,,株式会社,神奈川県,平塚市,宮の前１２番１７号,,14,203,2540035,,,,,,,2023-09-28,1,,,,,ネクスト,0
312,2021001080291,新規,0,2023-09-28,2023-09-28,株式会社ＡＤＶＡＮＣＥ,,株式会社,神奈川県,平塚市,東中原１丁目１３番３２－２号,,14,203,2540077,,,,,,,2023-09-28,1,,,,,アドバンス,0
313,2021003013605,新規,0,2023-09-28,2023-09-28,合同会社オーエーワールド,,合同会社,神奈川県,鎌倉市,今泉台６丁目４番３号,,14,204,2470053,,,,,,,2023-09-28,1,,,,,オーエーワールド,0
314,2021003013613,新規,0,2023-09-28,2023-09-28,ｉ　Ｐｒｅ　Ｌａｂｏ合同会社,,合同会社,神奈川県,相模原市緑区,東橋本２丁目２５番４－４号,,14,151,2520144,,,,,,,2023-09-28,1,,,,,アイプレラボ,0
315,2021003013621,新規,0,2023-09-28,2023-09-28,合同会社ＣＨＡＭ,,合同会社,神奈川県,相模原市南区,相模台７丁目１２番３号,,14,153,2520321,,,,,,,2023-09-28,1,,,,,,0
322,2030001155986,新規,0,2023-09-28,2023-09-28,株式会社Ｐｒｕｎｕｓ,,株式会社,埼玉県,東松山市,大字大谷１５４９番地３,,11,212,3550008,,,,,,,2023-09-28,1,,,,,プラナス,0
323,2030001156019,新規,0,2023-09-28,2023-09-28,ＹＯＮＯ　ＳＴＡＲ株式会社,,株式会社,埼玉県,朝霞市,泉水３丁目１０－１５コスモ朝霞台フォレスト２０６,,11,227,3510024,,,,,,,2023-09-28,1,,,,,ヨノスッタ,0
329,2030003022524,新規,0,2023-09-28,2023-09-28,合同会社永瀬工所,,合同会社,埼玉県,川口市,中青木５丁目２番３２号デュオ川口８０２号,,11,203,3320032,,,,,,,2023-09-28,1,,,,,ナガセコウショ,0
330,2040001130138,新規,0,2023-09-28,2023-09-28,株式会社Ｃｌｕｔｃｈ,,株式会社,千葉県,千葉市中央区,道場北２丁目１２番１４号,,12,101,2600006,,,,,,,2023-09-28,1,,,,,クラッチ,0
331,2040001130195,新規,0,2023-09-28,2023-09-28,ｉｉＮＡ商事株式会社,,株式会社,千葉県,松戸市,五香南１丁目２０番１１号,,12,207,2702212,,,,,,,2023-09-28,1,,,,,イイナショウジ,0
332,2040001130286,新規,0,2023-09-28,2023-09-28,株式会社一心社,,株式会社,千葉県,印西市,小林２９４－１６ジュエリーＣ１０３室,,12,231,2701318,,,,,,,2023-09-28,1,,,,,イッシンシャ,0
333,2040001130294,新規,0,2023-09-28,2023-09-28,太陽商事株式会社,,株式会社,千葉県,千葉市中央区,稲荷町３丁目１０番２２号,,12,101,2600833,,,,,,,2023-09-28,1,,,,,,0
339,2040003023406,新規,0,2023-09-28,2023-09-28,ＬＩＧＨＴＨＯＵＳＥ合同会社,,合同会社,千葉県,柏市,増尾５丁目２１―３５,,12,217,2770033,,,,,,,2023-09-28,1,,,,,ライトハウス,0
343,2050001053536,新規,0,2023-09-28,2023-09-28,株式会社Ｍｏｏｎ　Ｆｌｏｗｅｒ,,株式会社,茨城県,筑西市,竹垣４８７番地,,08,227,3004543,,,,,,,2023-09-28,1,,,,,ムーンフラワー,0
345,2050003007820,新規,0,2023-09-28,2023-09-28,合同会社Ｙ工業,,合同会社,茨城県,桜川市,高久２１３１番地４０,,08,231,3091243,,,,,,,2023-09-28,1,,,,,ワイコウギョウ,0
346,2060003004734,新規,0,2023-09-28,2023-09-28,ＮＳＴ合同会社,,合同会社,栃木県,栃木市,境町２５番１３号,,09,203,3280043,,,,,,,2023-09-28,1,,,,,エヌエスティ,0
355,2110001037854,新規,0,2023-09-28,2023-09-28,渡辺医療機株式会社,,株式会社,新潟県,新潟市中央区,白山浦１丁目６１３番地３,,15,103,9518131,,,,,,,2023-09-28,1,,,,,ワタナベイリョウキ,0
361,2120001258318,新規,0,2023-09-28,2023-09-28,株式会社キャンサーイミュノセラピー大阪,,株式会社,大阪府,大阪市北区,梅田２丁目２番２号ヒルトンプラザウエストオフィスタワー１９階,,27,127,5300001,,,,,,,2023-09-28,1,,,,,キャンサーイミュノセラピーオオサカ,0
362,2120001258383,新規,0,2023-09-28,2023-09-28,株式会社八多利繁蔵商会,,株式会社,大阪府,大阪市中央区,谷町６丁目４番２５号,,27,128,5420012,,,,,,,2023-09-28,1,,,,,ハッタリハンゾウショウカイ,0
363,2120001258466,新規,0,2023-09-28,2023-09-28,株式会社天満デベロッパー,,株式会社,大阪府,大阪市淀川区,塚本２丁目３番２５号,,27,123,5320026,,,,,,,2023-09-28,1,,,,,テンマデベロッパー,0
368,2120003024981,新規,0,2023-09-28,2023-09-28,合同会社ＪＯ,,合同会社,大阪府,大阪市中央区,北浜３丁目１番１４号,,27,128,5410041,,,,,,,2023-09-28,1,,,,,ジョー,0
373,2120101068278,新規,0,2023-09-28,2023-09-28,ＫＮグループ株式会社,,株式会社,大阪府,堺市堺区,甲斐町東６丁１番３０号,,27,141,5900953,,,,,,,2023-09-28,1,,,,,ケイエヌグループ,0
374,2120103005460,新規,0,2023-09-28,2023-09-28,合同会社ネクスト,,合同会社,大阪府,泉大津市,春日町９番１号ネオメゾン春日町２０３号,,27,206,5950061,,,,,,,2023-09-28,1,,,,,ネクスト,0
375,2120901048090,新規,0,2023-09-28,2023-09-28,Ｈａｗｉｓｈ株式会社,,株式会社,大阪府,吹田市,長野東２９－５８,,27,205,5650816,,,,,,,2023-09-28,1,,,,,ハーウィッシュ,0
376,2122001037412,新規,0,2023-09-28,2023-09-28,株式会社ＬＥＡＦ,,株式会社,大阪府,東大阪市,稲田新町２丁目１５番４号ロイヤルヴィラ東大阪５０６,,27,227,5770004,,,,,,,2023-09-28,1,,,,,リーフ,0
377,2130001075258,新規,0,2023-09-28,2023-09-28,株式会社ＲＡＮ,,株式会社,京都府,京都市南区,久世大藪町２２１番地４,,26,107,6010000,,,,,,,2023-09-28,1,,,,,ラン,0
378,2130001075308,新規,0,2023-09-28,2023-09-28,都スパイス株式会社,,株式会社,京都府,京都市中京区,富小路通二条上る鍛冶屋町３８３,,26,104,6040964,,,,,,,2023-09-28,1,,,,,ミヤコスパイス,0
379,2130001075357,新規,0,2023-09-28,2023-09-28,株式会社Ｆｉｎａｎｃｉａｌ　ｌｉｂｒａｒｙ,,株式会社,京都府,京都市東山区,泉涌寺東林町４３－３８,,26,105,6050976,,,,,,,2023-09-28,1,,,,,ファイナンシャルライブラリー,0
383,2140001131753,新規,0,2023-09-28,2023-09-28,マスエコー株式会社,,株式会社,兵庫県,神戸市中央区,御幸通６丁目１番１５号御幸ビル２０１号,,28,110,6510087,,,,,,,2023-09-28,1,,,,,マスエコー,0
384,2140003019600,新規,0,2023-09-28,2023-09-28,合同会社ブルエッタ,,合同会社,兵庫県,高砂市,美保里２６番２３号,,28,216,6760804,,,,,,,2023-09-28,1,,,,,ブルエッタ,0
387,2160001025367,新規,0,2023-09-28,2023-09-28,株式会社レーヴ,,株式会社,滋賀県,大津市,粟津町１２番１９号シャトー石山５０２号,,25,201,5200832,,,,,,,2023-09-28,1,,,,,レーヴ,0
392,2180001158132,新規,0,2023-09-28,2023-09-28,株式会社ジョブファイン,,株式会社,愛知県,名古屋市中区,大須１丁目３４番２４号Ｎ・ａｐａｒｔｍｅｎｔ１１０１号,,23,106,4600011,,,,,,,2023-09-28,1,,,,,ジョブファイン,0
393,2180001158140,新規,0,2023-09-28,2023-09-28,株式会社ココロバレ,,株式会社,愛知県,名古屋市中区,金山２丁目１４番１７号,,23,106,4600022,,,,,,,2023-09-28,1,,,,,ココロバレ,0
394,2180001158157,新規,0,2023-09-28,2023-09-28,株式会社ベスト,,株式会社,愛知県,名古屋市中川区,伏屋２丁目５０３番地－１０２号室,,23,110,4540996,,,,,,,2023-09-28,1,,,,,ベスト,0
396,2180003025768,新規,0,2023-09-28,2023-09-28,長博興業合同会社,,合同会社,愛知県,名古屋市守山区,大森４丁目２０１８番地,,23,113,4630021,,,,,,,2023-09-28,1,,,,,ナガヒロコウギョウ,0
397,2180003025776,新規,0,2023-09-28,2023-09-28,ＨＩＬＩ合同会社,,合同会社,愛知県,名古屋市西区,那古野１丁目１３番１２号おきなビル２階南,,23,104,4510042,,,,,,,2023-09-28,1,,,,,ヒリ,0
398,2180003025792,新規,0,2023-09-28,2023-09-28,合同会社ＳＥＲＡＩ建設,,合同会社,愛知県,稲沢市,井之口大坪町７９番地１,,23,220,4928164,,,,,,,2023-09-28,1,,,,,セライケンセツ,0
403,2190001030752,新規,0,2023-09-28,2023-09-28,小畑タオル株式会社,,株式会社,三重県,津市,一志町波瀬４５５０番地,,24,201,5152522,,,,,,,2023-09-28,1,,,,,オバタタオル,0
414,2240003006332,新規,0,2023-09-28,2023-09-28,合同会社夢なる樹,,合同会社,広島県,東広島市,西条町寺家６４２７番１－９０９号,,34,212,7390041,,,,,,,2023-09-28,1,,,,,ユメナルキ,0
415,2250001020292,新規,0,2023-09-28,2023-09-28,株式会社ルース,,株式会社,山口県,山口市,小郡上郷１７４５番地１,,35,203,7540001,,,,,,,2023-09-28,1,,,,,ルース,0
416,2250003003353,新規,0,2023-09-28,2023-09-28,Ｌ’ｓ　Ｌｉｆｅ合同会社,,合同会社,山口県,岩国市,田原４６５－１,,35,208,7410093,,,,,,,2023-09-28,1,,,,,エルズライフ,0
426,2290003014388,新規,0,2023-09-28,2023-09-28,合同会社爽,,合同会社,福岡県,福岡市南区,塩原４丁目６番３３号,,40,134,8150032,,,,,,,2023-09-28,1,,,,,ソウ,0
429,2290801029901,新規,0,2023-09-28,2023-09-28,株式会社オーエス企画,,株式会社,福岡県,築上郡築上町,大字日奈古５９５番地１,,40,647,8290322,,,,,,,2023-09-28,1,,,,,オーエスキカク,0
436,2330001031307,新規,0,2023-09-28,2023-09-28,株式会社ＫＮＳ,,株式会社,熊本県,熊本市北区,植木町亀甲字中原２６９番地,,43,105,8610127,,,,,,,2023-09-28,1,,,,,ケイエヌエス,0
438,2330005010703,新規,0,2023-09-28,2023-09-28,農事組合法人宇土市粗飼料生産組合,,その他の設立登記法人,熊本県,宇土市,城塚町８４６番地,,43,211,8690462,,,,,,,2023-09-28,1,,,,,ウトシソシリョウセイサンクミアイ,0
444,2380001034008,新規,0,2023-09-28,2023-09-28,株式会社ＲｏｌＲｏａ,,株式会社,福島県,郡山市,駅前１丁目９－１５古泉ビル３階,,07,203,9638002,,,,,,,2023-09-28,1,,,,,ロルロア,0
445,2380003005576,新規,0,2023-09-28,2023-09-28,ＲＢＳ合同会社,,合同会社,福島県,西白河郡西郷村,字屋敷裏東１１番地西郷ハンズＣ２,,07,461,9618046,,,,,,,2023-09-28,1,,,,,アールビーエス,0
448,2420003002800,新規,0,2023-09-28,2023-09-28,ＦＡＳＴ合同会社,,合同会社,青森県,十和田市,東十三番町３１番２５号,,02,206,0340023,,,,,,,2023-09-28,1,,,,,ファスト,0
450,2430001090061,新規,0,2023-09-28,2023-09-28,ティーオーシステム株式会社,,株式会社,北海道,札幌市西区,西町北９丁目４番３－Ｂ１０１号,,01,107,0630061,,,,,,,2023-09-28,1,,,,,ティーオーシステム,0
456,2480001012226,新規,0,2023-09-28,2023-09-28,建設ＩＣＴ株式会社,,株式会社,徳島県,徳島市,川内町下別宮西２３１番地９,,36,201,7710105,,,,,,,2023-09-28,1,,,,,,0
457,2700150120830,新規,0,2023-09-28,2023-09-28,Ｓｈｅｎｚｈｅｎｓｈｉｈａｂｉｘｉａｎｇｋｅｊｉ　ｙｏｕｘｉａｎｇｏｎｇｓｉ,,外国会社等,,,,,,,,Ｂ－Ａ１５２，１９ｔｈ　Ｆｌｏｏｒ，Ｂｕｉｌｄｉｎｇ　ＡＢ，Ｎａｎｆａｎｇ　Ｓｅｃｕｒｉｔｉｅｓ　Ｂｕｉｌｄｉｎｇ，Ｎｏ．２０１６　Ｊｉａｎｓｈｅ　Ｒｏａｄ，Ｊｉａｂｅｉ　Ｃｏｍｍｕｎｉｔｙ，Ｎａｎｈｕ　Ｓｔｒｅｅｔ，Ｌｕｏｈｕ　Ｄｉｓｔｒｉｃｔ，Ｓｈｅｎｚｈｅｎ,,,,,,2023-09-28,1,,,,,シンセンシハビシャンカギユウゲンコウシ,0
458,2700150120839,新規,0,2023-09-28,2023-09-28,Ｇｕａｎｇｚｈｏｕ　Ｊｉｅｓｈｕｏ　ｅｌｅｃｔｒｏｎｉｃ　ｔｒａｄｅ　Ｃｏ．，ＬＴＤ,,外国会社等,,,,,,,,Ｎｏ．４１６Ｄ　４ｔｈＦｌｏｏｒ　ＧｕａｎｇｚｈｏｕＴｉａｎｈｅＣｏｍｐｕｔｅｒＣｉｔｙ　５０２ＴｉａｎｈｅＲｏａｄ　ＴｉａｎｈｅＤｉｓｔｒｉｃｔ　Ｇｕａｎｇｚｈｏｕ,,,,,,2023-09-28,1,,,,,コウシュウジエソオイレクトゥロニックトレードカンパニーリミテッド,0
467,3010001238759,新規,0,2023-09-28,2023-09-28,株式会社サーチファンド・ジャパン０５,,株式会社,東京都,千代田区,丸の内１丁目８番２号,,13,101,1000005,,,,,,,2023-09-28,1,,,,,サーチファンドジャパンゼロファイブ,0
483,3010401177342,新規,0,2023-09-28,2023-09-28,ＢＹＭＫ株式会社,,株式会社,東京都,港区,新橋１丁目１番１３号アーバンネット内幸町ビル,,13,103,1050004,,,,,,,2023-09-28,1,,,,,バイマーク,0
484,3010401177375,新規,0,2023-09-28,2023-09-28,株式会社ＦＲＳ,,株式会社,東京都,港区,白金台２丁目２６番１２－１９０４号,,13,103,1080071,,,,,,,2023-09-28,1,,,,,エフアールエス,0
487,3010405022503,新規,0,2023-09-28,2023-09-28,医療法人社団麻布会,,その他の設立登記法人,東京都,港区,赤坂８丁目５番３２号田中駒ビル１階,,13,103,1070052,,,,,,,2023-09-28,1,,,,,アザブカイ,0
490,3010501051125,新規,0,2023-09-28,2023-09-28,株式会社ＲＥｓｅｔｕｐ,,株式会社,東京都,台東区,上野１丁目３番３号ＧＲＡＮＰＡＳＥＯ上野黒門町２０１号室,,13,106,1100005,,,,,,,2023-09-28,1,,,,,リセットアップ,0
493,3010603010383,新規,0,2023-09-28,2023-09-28,合同会社サクセス,,合同会社,東京都,江東区,東陽４丁目１０番４号東陽町ＳＨビル３階,,13,108,1350016,,,,,,,2023-09-28,1,,,,,サクセス,0
496,3010705003541,新規,0,2023-09-28,2023-09-28,一般社団法人日本自然エネルギー研究所,,その他の設立登記法人,東京都,品川区,上大崎３丁目１番１号目黒セントラルスクエア１５階,,13,109,1410021,,,,,,,2023-09-28,1,,,,,ニホンシゼンエネルギーケンキュウショ,0
507,3011001157180,新規,0,2023-09-28,2023-09-28,株式会社ＡｉｒＦｉｌｍｓＪＡＰＡＮ,,株式会社,東京都,渋谷区,道玄坂１丁目１０番８号渋谷道玄坂東急ビル２Ｆ－Ｃ,,13,113,1500043,,,,,,,2023-09-28,1,,,,,エアフィルムズジャパン,0
508,3011003017614,新規,0,2023-09-28,2023-09-28,合同会社アシスト,,合同会社,東京都,目黒区,自由が丘１丁目８番２０号自由が丘第一ビル５階,,13,110,1520035,,,,,,,2023-09-28,1,,,,,アシスト,0
509,3011005010229,新規,0,2023-09-28,2023-09-28,医療法人社団慶政会,,その他の設立登記法人,東京都,渋谷区,代々木４丁目３２番１号トーシンビルミレニアム４階,,13,113,1510053,,,,,,,2023-09-28,1,,,,,ケイセイカイ,0
519,3011301029039,新規,0,2023-09-28,2023-09-28,株式会社いわみ産業医事務所,,株式会社,東京都,杉並区,久我山４丁目１５－２,,13,115,1680082,,,,,,,2023-09-28,1,,,,,イワミサンギョウイジムショ,0
525,3011501029813,新規,0,2023-09-28,2023-09-28,ＳＡＭＵＲＡＩ株式会社,,株式会社,東京都,北区,赤羽西４丁目２５番５号栄コーポ１０１,,13,117,1150055,,,,,,,2023-09-28,1,,,,,サムライ,0
530,3011701026619,新規,0,2023-09-28,2023-09-28,株式会社ＭＩＮＡＭＡＬＬ,,株式会社,東京都,江戸川区,松島２丁目８－１８,,13,123,1320031,,,,,,,2023-09-28,1,,,,,ミナモール,0
532,3012301013602,新規,0,2023-09-28,2023-09-28,株式会社ａｏｓｉｓ,,株式会社,東京都,町田市,小野路町１２１１番地６,,13,209,1950064,,,,,,,2023-09-28,1,,,,,アオシス,0
535,3012403006173,新規,0,2023-09-28,2023-09-28,スターニングオーバー合同会社,,合同会社,東京都,多摩市,貝取１８１６－６,,13,224,2060012,,,,,,,2023-09-28,1,,,,,スターニングオーバー,0
538,3012703002806,新規,0,2023-09-28,2023-09-28,合同会社ＡＫＩＲＡダイニング,,合同会社,東京都,西東京市,ひばりが丘北３丁目３番１４号美照堂ビル３階,,13,229,2020002,,,,,,,2023-09-28,1,,,,,アキラダイニング,0
539,3012705002366,新規,0,2023-09-28,2023-09-28,一般社団法人ＨａＳ,,その他の設立登記法人,東京都,東久留米市,新川町１丁目７番８号シャトレＹＳ１階,,13,222,2030013,,,,,,,2023-09-28,1,,,,,ハス,0
543,3013301051402,新規,0,2023-09-28,2023-09-28,株式会社山木デバイス,,株式会社,東京都,豊島区,巣鴨１丁目１７番３号２０１号室,,13,116,1700002,,,,,,,2023-09-28,1,,,,,ヤマキデバイス,0
544,3013301051410,新規,0,2023-09-28,2023-09-28,株式会社ＲｅＢＲＥＡＴＨ,,株式会社,東京都,豊島区,南池袋１丁目２５番４号ＲＳビル２Ｆ,,13,116,1710022,,,,,,,2023-09-28,1,,,,,リブレス,0
545,3013303006809,新規,0,2023-09-28,2023-09-28,合同会社小川企画,,合同会社,東京都,豊島区,南長崎６丁目２１番１８号,,13,116,1710052,,,,,,,2023-09-28,1,,,,,オガワキカク,0
549,3020001153668,新規,0,2023-09-28,2023-09-28,株式会社ＨＹジャパン,,株式会社,神奈川県,横浜市中区,山下町１９４番地,,14,104,2310023,,,,,,,2023-09-28,1,,,,,エイチワイジャパン,0
550,3020001153676,新規,0,2023-09-28,2023-09-28,株式会社ＧＲＩＰ,,株式会社,神奈川県,横浜市中区,海岸通４丁目２０番地２ＹＴ馬車道ビル,,14,104,2310002,,,,,,,2023-09-28,1,,,,,グリップ,0
555,3021001080266,新規,0,2023-09-28,2023-09-28,株式会社アシスト工業,,株式会社,神奈川県,横須賀市,平作５丁目７番２号公栄コーポ１０１,,14,201,2380032,,,,,,,2023-09-28,1,,,,,アシストコウギョウ,0
556,3021001080274,新規,0,2023-09-28,2023-09-28,株式会社風雅,,株式会社,神奈川県,横須賀市,芦名２丁目１８番２４号,00132061,14,201,2400104,,,,,,,2023-09-28,1,,,,,フウガ,0
560,3021003013562,新規,0,2023-09-28,2023-09-28,ｓｈｅ’ｌｌ合同会社,,合同会社,神奈川県,横須賀市,大矢部２丁目３－５－９,,14,201,2380024,,,,,,,2023-09-28,1,,,,,シール,0
569,3030001155993,新規,0,2023-09-28,2023-09-28,株式会社ソオア,,株式会社,埼玉県,坂戸市,日の出町３４番地６号,,11,239,3500225,,,,,,,2023-09-28,1,,,,,ソオア,0
570,3030001156083,新規,0,2023-09-28,2023-09-28,Ａｓｓｅｍｂｌｅ株式会社,,株式会社,埼玉県,さいたま市大宮区,桜木町１丁目３７８,,11,103,3300854,,,,,,,2023-09-28,1,,,,,アセンブル,0
571,3030001156091,新規,0,2023-09-28,2023-09-28,株式会社フォーエバーハウス,,株式会社,埼玉県,川越市,大字下新河岸８８番地８,,11,201,3501136,,,,,,,2023-09-28,1,,,,,フォーエバーハウス,0
572,3030001156273,新規,0,2023-09-28,2023-09-28,株式会社ハートグロース,,株式会社,埼玉県,熊谷市,石原２丁目１０２番地１,,11,202,3600816,,,,,,,2023-09-28,1,,,,,ハートグロース,0
578,3030003022473,新規,0,2023-09-28,2023-09-28,福源商事合同会社,,合同会社,埼玉県,川口市,芝中田２丁目２２番５号,,11,203,3330847,,,,,,,2023-09-28,1,,,,,フクゲンショウジ,0
579,3030003022531,新規,0,2023-09-28,2023-09-28,合同会社さやま企画,,合同会社,埼玉県,志木市,本町６丁目１－７エスポワール古家２０７,,11,228,3530004,,,,,,,2023-09-28,1,,,,,サヤマキカク,0
580,3030003022548,新規,0,2023-09-28,2023-09-28,合同会社ディサイド,,合同会社,埼玉県,さいたま市見沼区,大字東新井３８７番地３リリーハイムＣ棟２０５号,,11,104,3370032,,,,,,,2023-09-28,1,,,,,ディサイド,0
587,3040001130252,新規,0,2023-09-28,2023-09-28,株式会社金房住設,,株式会社,千葉県,千葉市花見川区,横戸町８０２番地１６,,12,102,2620001,,,,,,,2023-09-28,1,,,,,カナフサジュウセツ,0
588,3040001130269,新規,0,2023-09-28,2023-09-28,株式会社ゼンエンジニアリング,,株式会社,千葉県,柏市,豊四季５２０番地６１,,12,217,2770863,,,,,,,2023-09-28,1,,,,,ゼンエンジニアリング,0
590,3050001053535,新規,0,2023-09-28,2023-09-28,Ｅｒｆｏｌｇ株式会社,,株式会社,茨城県,つくば市,春日３丁目１３－１６ー２０２,,08,220,3050821,,,,,,,2023-09-28,1,,,,,エアフォルク,0
603,3090001018344,新規,0,2023-09-28,2023-09-28,株式会社昭和動物病院,,株式会社,山梨県,中巨摩郡昭和町,西条１１２０番地８,,19,384,4093866,,,,,,,2023-09-28,1,,,,,ショウワドウブツビョウイン,0
614,3120001258382,新規,0,2023-09-28,2023-09-28,アトラット株式会社,,株式会社,大阪府,大阪市北区,芝田１丁目１０番１０号,,27,127,5300012,,,,,,,2023-09-28,1,,,,,アトラット,0
616,3120101068269,新規,0,2023-09-28,2023-09-28,株式会社山伸,,株式会社,大阪府,富田林市,大字甘南備１５６９番地,,27,214,5840054,,,,,,,2023-09-28,1,,,,,ヤマシン,0
620,3122003002677,新規,0,2023-09-28,2023-09-28,合同会社アドバンテージ,,合同会社,大阪府,八尾市,旭ケ丘１丁目２７番地の１ビオトープ旭ヶ丘２１３号,,27,212,5810833,,,,,,,2023-09-28,1,,,,,アドバンテージ,0
621,3122005003707,新規,0,2023-09-28,2023-09-28,一般社団法人プロテクション,,その他の設立登記法人,大阪府,東大阪市,日下町２丁目５－２５－２０１号,,27,227,5798003,,,,,,,2023-09-28,1,,,,,プロテクション,0
622,3130001075273,新規,0,2023-09-28,2023-09-28,株式会社たくみ,,株式会社,京都府,長岡京市,西の京９番地３,,26,209,6170816,,,,,,,2023-09-28,1,,,,,タクミ,0
623,3130001075298,新規,0,2023-09-28,2023-09-28,株式会社つむぎ,,株式会社,京都府,宇治市,六地蔵奈良町６７番１,,26,204,6110001,,,,,,,2023-09-28,1,,,,,ツムギ,0
631,3140001131769,新規,0,2023-09-28,2023-09-28,タニシン商会株式会社,,株式会社,兵庫県,高砂市,高砂町藍屋町１４２１番地の２９,,28,216,6760037,,,,,,,2023-09-28,1,,,,,タニシンショウカイ,0
637,3170003001926,新規,0,2023-09-28,2023-09-28,合同会社禅,,合同会社,和歌山県,和歌山市,善明寺２８１番地１,,30,201,6408471,,,,,,,2023-09-28,1,,,,,ゼン,0
640,3180001158164,新規,0,2023-09-28,2023-09-28,株式会社グッドモーニング,,株式会社,愛知県,名古屋市守山区,大字上志段味字大塚１２４３番地５,,23,113,4630001,,,,,,,2023-09-28,1,,,,,グッドモーニング,0
641,3180001158172,新規,0,2023-09-28,2023-09-28,ｎｅｕｆ　ＪＡＰＡＮ株式会社,,株式会社,愛知県,あま市,七宝町伊福新家西６４番地,,23,237,4970005,,,,,,,2023-09-28,1,,,,,ヌフジャパン,0
642,3180001158180,新規,0,2023-09-28,2023-09-28,ＭＲＴ株式会社,,株式会社,愛知県,一宮市,奥町字下川田７７番地の６,,23,203,4910201,,,,,,,2023-09-28,1,,,,,エムアールティー,0
643,3180003025775,新規,0,2023-09-28,2023-09-28,合同会社アイティラボ,,合同会社,愛知県,東海市,富木島町新長口１番地２３９,,23,222,4760011,,,,,,,2023-09-28,1,,,,,アイティラボ,0
650,3180303005849,新規,0,2023-09-28,2023-09-28,合同会社ＭＯＮＯ豊橋,,合同会社,愛知県,田原市,相川町美里台３１３番地,,23,231,4413418,,,,,,,2023-09-28,1,,,,,モノトヨハシ,0
656,3240003006331,新規,0,2023-09-28,2023-09-28,ＬＯＮＧ　ＣＨＡＵ合同会社,,合同会社,広島県,福山市,霞町４丁目４番２２号,,34,207,7200812,,,,,,,2023-09-28,1,,,,,ロンチャウ,0
672,3290001103167,新規,0,2023-09-28,2023-09-28,株式会社アンフォールデッド,,株式会社,福岡県,福岡市中央区,天神２丁目２番１２号Ｔ＆Ｊビルディング７Ｆ,,40,133,8100001,,,,,,,2023-09-28,1,,,,,アンフォールデッド,0
673,3290003014412,新規,0,2023-09-28,2023-09-28,合同会社オアシス,,合同会社,福岡県,福岡市東区,唐原４丁目１６番１３号,,40,131,8130001,,,,,,,2023-09-28,1,,,,,オアシス,0
676,3290805009675,新規,0,2023-09-28,2023-09-28,一般社団法人Ｕｋｕｌｅｌｅ　Ｃｒｏｓｓｅｓ　Ｂｏｒｄｅｒｓ,,その他の設立登記法人,福岡県,北九州市八幡西区,南鷹見町３番１９号,,40,109,8070833,,,,,,,2023-09-28,1,,,,,ウクレレクロシイズボーダーズ,0
677,3310001018619,新規,0,2023-09-28,2023-09-28,株式会社ＭＴ,,株式会社,長崎県,東彼杵郡波佐見町,岳辺田郷３５０番地１８,,42,323,8593722,,,,,,,2023-09-28,1,,,,,エムティ,0
681,3320001020020,新規,0,2023-09-28,2023-09-28,株式会社匠翔,,株式会社,大分県,宇佐市,安心院町木裳２８５番地の１０,,44,211,8720507,,,,,,,2023-09-28,1,,,,,タクショウ,0
687,3360001032598,新規,0,2023-09-28,2023-09-28,株式会社沖縄ｓｉｒｏｉｒｏ　ｓｔｙｌｅ,,株式会社,沖縄県,那覇市,久米１丁目１－１－２０２,,47,201,9000033,,,,,,,2023-09-28,1,,,,,オキナワシロイロスタイル,0
689,3360003013324,新規,0,2023-09-28,2023-09-28,グラント合同会社,,合同会社,沖縄県,国頭郡国頭村,字奥間１６８７番地３,,47,301,9051412,,,,,,,2023-09-28,1,,,,,グラント,0
692,3370003006293,新規,0,2023-09-28,2023-09-28,Ｒｅｌｉａｎｃｅ合同会社,,合同会社,宮城県,仙台市若林区,大和町５丁目１３－５－２０１,,04,103,9840042,,,,,,,2023-09-28,1,,,,,リライアンス,0
704,3470002013363,新規,0,2023-09-28,2023-09-28,森岡縫製有限会社,,有限会社,香川県,仲多度郡琴平町,上櫛梨１２５３番地,00132023,37,403,7660006,,,,,,,2023-09-28,1,,,,,モリオカホウセイ,0
705,3470003002497,新規,0,2023-09-28,2023-09-28,富士知財合同会社,,合同会社,香川県,高松市,サンポート２番１号高松シンボルタワー　タワー棟５階,,37,201,7600019,,,,,,,2023-09-28,1,,,,,フジチザイ,0
709,3700150120838,新規,0,2023-09-28,2023-09-28,ｘｉａｍｅｎｎｕｏｚｈｉｍｉｄｉａｎｚｉｓｈａｎｇｗｕ　ｙｏｕｘｉａｎｇｏｎｇｓｉ,,外国会社等,,,,,,,,ｘｉａｍｅｎｓｈｉｓｉｍｉｎｇｑｕｊｉｎｂａｎｇｎａｎｅｒｌｕ１２ｈａｏ－４,,,,,,2023-09-28,1,,,,,シャメンノジミデンシショウムユウゲンコウシ,0
719,4010001238758,新規,0,2023-09-28,2023-09-28,株式会社フィノバテック,,株式会社,東京都,千代田区,神田東松下町４１番地１,,13,101,1010042,,,,,,,2023-09-28,1,,,,,フィノバテック,0
720,4010001238782,新規,0,2023-09-28,2023-09-28,株式会社Ｄｒｉｖａｄｓ,,株式会社,東京都,中央区,銀座１丁目２２番１１号銀座大竹ビジデンス２Ｆ,,13,102,1040061,,,,,,,2023-09-28,1,,,,,ドライバズ,0
728,4010401177341,新規,0,2023-09-28,2023-09-28,株式会社ｅｔｅｒＮＡＬ　ＬｉｇｈＴ,,株式会社,東京都,港区,南麻布４丁目５番４８号フォーサイト南麻布４Ｆ,,13,103,1060047,,,,,,,2023-09-28,1,,,,,エターナルライト,0
729,4010401177390,新規,0,2023-09-28,2023-09-28,株式会社Ｈｕｂｉｓｅ,,株式会社,東京都,港区,南青山５丁目１７番２号,,13,103,1070062,,,,,,,2023-09-28,1,,,,,ハビス,0
730,4010401177440,新規,0,2023-09-28,2023-09-28,株式会社デックステック,,株式会社,東京都,港区,南青山２丁目２番１５号,,13,103,1070062,,,,,,,2023-09-28,1,,,,,デックステック,0
733,4010403031001,新規,0,2023-09-28,2023-09-28,Ｏａｓｉｓ　Ｊａｐａｎ合同会社,,合同会社,東京都,港区,北青山１丁目３番１号アールキューブ青山３階,,13,103,1070061,,,,,,,2023-09-28,1,,,,,オアシスジャパン,0
734,4010403031018,新規,0,2023-09-28,2023-09-28,Ｕｎｄｅｒｇｒｏｕｎｄ　Ｍｅｄｉａ合同会社,,合同会社,東京都,港区,三田１丁目３番４０号,,13,103,1080073,,,,,,,2023-09-28,1,,,,,アンダーグラウンドメディア,0
735,4010405022502,新規,0,2023-09-28,2023-09-28,医療法人社団長坂歯科,,その他の設立登記法人,東京都,港区,芝５丁目３４番６号新田町ビル２階,,13,103,1080014,,,,,,,2023-09-28,1,,,,,ナガサカシカ,0
737,4010501051124,新規,0,2023-09-28,2023-09-28,株式会社エイトカラー,,株式会社,東京都,台東区,東上野３丁目２５番９号,,13,106,1100015,,,,,,,2023-09-28,1,,,,,エイトカラー,0
739,4010601063845,新規,0,2023-09-28,2023-09-28,株式会社岡武,,株式会社,東京都,墨田区,立花３丁目３－８－４０１,,13,107,1310043,,,,,,,2023-09-28,1,,,,,オカタケ,0
741,4010701044902,新規,0,2023-09-28,2023-09-28,株式会社コンクルー,,株式会社,東京都,品川区,西五反田８丁目２－１２アール五反田７Ａ,,13,109,1410031,,,,,,,2023-09-28,1,,,,,コンクルー,0
743,4010903008465,新規,0,2023-09-28,2023-09-28,合同会社ＩＮｒａｉｎ,,合同会社,東京都,世田谷区,梅丘２丁目２４番１２－１０４号,,13,112,1540022,,,,,,,2023-09-28,1,,,,,インレイン,0
744,4010903008473,新規,0,2023-09-28,2023-09-28,Ｃａｙｅｎｎｅ　Ｃａｐｉｔａｌ合同会社,,合同会社,東京都,世田谷区,弦巻５丁目１番８号７０１号室,,13,112,1540016,,,,,,,2023-09-28,1,,,,,カイエンキャピタル,0
750,4011001157221,新規,0,2023-09-28,2023-09-28,株式会社ａｍｅ,,株式会社,東京都,目黒区,目黒本町１丁目１３番２１－３０２号,,13,110,1520002,,,,,,,2023-09-28,1,,,,,アメ,0
753,4011003017596,新規,0,2023-09-28,2023-09-28,迎光合同会社,,合同会社,東京都,渋谷区,道玄坂１丁目１０番８号渋谷道玄坂東急ビル２Ｆ－Ｃ,,13,113,1500043,,,,,,,2023-09-28,1,,,,,ゲイコウ,0
757,4011101104528,新規,0,2023-09-28,2023-09-28,株式会社アンチドーテ,,株式会社,東京都,新宿区,新宿２丁目７番３－３０３号,,13,104,1600022,,,,,,,2023-09-28,1,,,,,アンチドーテ,0
763,4011301029038,新規,0,2023-09-28,2023-09-28,株式会社濱川,,株式会社,東京都,杉並区,堀ノ内１丁目１３番７号,,13,115,1660013,,,,,,,2023-09-28,1,,,,,ハマカワ,0
767,4011501029812,新規,0,2023-09-28,2023-09-28,株式会社Ｏｎｅ・Ａｃｈｉｅｖｅ,,株式会社,東京都,荒川区,東尾久５丁目１４番５号,,13,118,1160012,,,,,,,2023-09-28,1,,,,,ワンアチーブ,0
774,4012403006197,新規,0,2023-09-28,2023-09-28,合同会社ｋｏｍｏｒｅｂｉ,,合同会社,東京都,武蔵野市,御殿山２丁目１０番３号,,13,203,1800005,,,,,,,2023-09-28,1,,,,,コモレビ,0
778,4013303006808,新規,0,2023-09-28,2023-09-28,合同会社ＲＵＳＨ,,合同会社,東京都,豊島区,東池袋１丁目３４番５号,,13,116,1700013,,,,,,,2023-09-28,1,,,,,ラッシュ,0
784,4020005016127,新規,0,2023-09-28,2023-09-28,行政書士法人ドットプロ,,その他の設立登記法人,神奈川県,川崎市中原区,木月住吉町１８番１６号カーサエスペランサ１０１,,14,133,2110021,,,,,,,2023-09-28,1,,,,,ドットプロ,0
785,4021001080265,新規,0,2023-09-28,2023-09-28,株式会社Ｕｍ,,株式会社,神奈川県,横須賀市,ハイランド３丁目２７番２４号,,14,201,2390833,,,,,,,2023-09-28,1,,,,,ウム,0
794,4030001156041,新規,0,2023-09-28,2023-09-28,ＰＴＧサービス株式会社,,株式会社,埼玉県,加須市,土手２丁目１１番４号,,11,210,3470056,,,,,,,2023-09-28,1,,,,,ピーティージーサービス,0
795,4030003022563,新規,0,2023-09-28,2023-09-28,合同会社ザイゼーリー,,合同会社,埼玉県,戸田市,美女木３丁目１８番地の１９,,11,224,3350031,,,,,,,2023-09-28,1,,,,,ザイゼーリー,0
796,4030003022571,新規,0,2023-09-28,2023-09-28,環境調和型企業合同会社,,合同会社,埼玉県,さいたま市北区,東大成町１丁目２３１番地９,,11,102,3310814,,,,,,,2023-09-28,1,,,,,カンキョウチョウワガタキギョウ,0
799,4040001130268,新規,0,2023-09-28,2023-09-28,株式会社落描楽座,,株式会社,千葉県,船橋市,前原西４丁目３番１８号,,12,204,2740825,,,,,,,2023-09-28,1,,,,,ラクガキラクザ,0
802,4040003023271,新規,0,2023-09-28,2023-09-28,合同会社阿部企画,,合同会社,千葉県,船橋市,行田２丁目２番３棟８０６号,,12,204,2730044,,,,,,,2023-09-28,1,,,,,アベキカク,0
803,4040003023412,新規,0,2023-09-28,2023-09-28,ＳＡＡＤ　ＴＲＡＤＩＮＧ合同会社,,合同会社,千葉県,我孫子市,中峠３０６５番地の６９（１Ｆ）,,12,222,2701121,,,,,,,2023-09-28,1,,,,,サードトレーディング,0
804,4040003023437,新規,0,2023-09-28,2023-09-28,合同会社Ｂｅｖｅｇｅｌａｂｏ,,合同会社,千葉県,浦安市,高洲２丁目１－１０,,12,227,2790023,,,,,,,2023-09-28,1,,,,,ビベジラボ,0
807,4050001053534,新規,0,2023-09-28,2023-09-28,株式会社ＡＫ　ＴＲＡＤＩＮＧ,,株式会社,茨城県,坂東市,矢作３５０番地１３,,08,228,3060624,,,,,,,2023-09-28,1,,,,,エーケートレーデイング,0
814,4060003004732,新規,0,2023-09-28,2023-09-28,合同会社ティー・ケイ・ビー,,合同会社,栃木県,宇都宮市,緑３丁目２４番９号,,09,201,3210165,,,,,,,2023-09-28,1,,,,,ティーケイビー,0
818,4080401026756,新規,0,2023-09-28,2023-09-28,株式会社ＡｒｃＬｕｃｅ,,株式会社,静岡県,浜松市東区,宮竹町６３９番地の６,,22,132,4350043,,,,,,,2023-09-28,1,,,,,アークルーチェ,0
820,4090001018343,新規,0,2023-09-28,2023-09-28,株式会社ＭＦＪ　ＳＰＲＥＡＤ,,株式会社,山梨県,南都留郡富士河口湖町,船津９９６番地２１ヨウザンサンプラザ７,,19,430,4010301,,,,,,,2023-09-28,1,,,,,エムエフジェイスプレッド,0
824,4110001037869,新規,0,2023-09-28,2023-09-28,株式会社新翔,,株式会社,新潟県,新潟市東区,船江町２丁目１１番２５号,,15,102,9500031,,,,,,,2023-09-28,1,,,,,シンショウ,0
834,4120001258274,新規,0,2023-09-28,2023-09-28,株式会社華炎空間設計,,株式会社,大阪府,大阪市中央区,船越町１丁目５－８－４０４号室,,27,128,5400036,,,,,,,2023-09-28,1,,,,,カエンクウカンセッケイ,0
835,4120001258381,新規,0,2023-09-28,2023-09-28,株式会社オバダイヤ,,株式会社,大阪府,大阪市中央区,瓦町４丁目５番４号マスザキヤ瓦町ビル２０３号,,27,128,5410048,,,,,,,2023-09-28,1,,,,,オバダイヤ,0
837,4120101068276,新規,0,2023-09-28,2023-09-28,株式会社栄心工業,,株式会社,大阪府,堺市南区,美木多上１－２,,27,145,5900136,,,,,,,2023-09-28,1,,,,,エイシンコウギョウ,0
839,4120103005459,新規,0,2023-09-28,2023-09-28,Ｋ＆Ｒ合同会社,,合同会社,大阪府,堺市西区,平岡町２８番１３号,,27,144,5938307,,,,,,,2023-09-28,1,,,,,ケーアンドアール,0
842,4120903004841,新規,0,2023-09-28,2023-09-28,庭織合同会社,,合同会社,大阪府,茨木市,北春日丘３丁目９番２７号,,27,211,5670048,,,,,,,2023-09-28,1,,,,,ニワオリ,0
843,4122001037410,新規,0,2023-09-28,2023-09-28,株式会社オージーズ,,株式会社,大阪府,東大阪市,東鴻池町４丁目２番５６号,,27,227,5780973,,,,,,,2023-09-28,1,,,,,オージーズ,0
846,4130001075306,新規,0,2023-09-28,2023-09-28,株式会社Ｎｅｗ　Ｓｔｅｐ,,株式会社,京都府,京都市伏見区,深草大亀谷大山町３４番地２０,,26,109,6120847,,,,,,,2023-09-28,1,,,,,ニューステップ,0
855,4150001026744,新規,0,2023-09-28,2023-09-28,株式会社かとでん,,株式会社,奈良県,五條市,田園４丁目２９番地の１３,,29,207,6370093,,,,,,,2023-09-28,1,,,,,カトデン,0
867,4180005020369,新規,0,2023-09-28,2023-09-28,一般社団法人整形外科リハビリテーション学会,,その他の設立登記法人,愛知県,名古屋市中村区,名駅３丁目４番１０号,,23,105,4500002,,,,,,,2023-09-28,1,,,,,セイケイゲカリハビリテーションガッカイ,0
869,4180303005848,新規,0,2023-09-28,2023-09-28,合同会社アライブパートナー,,合同会社,愛知県,豊田市,乙部ケ丘４丁目７番地１９,,23,211,4700346,,,,,,,2023-09-28,1,,,,,アライブパートナー,0
875,4240001062177,新規,0,2023-09-28,2023-09-28,株式会社暢栄,,株式会社,広島県,広島市佐伯区,美の里１丁目１７番７－１９０６号,,34,108,7315137,,,,,,,2023-09-28,1,,,,,チョウエイ,0
876,4240003006330,新規,0,2023-09-28,2023-09-28,合同会社コト成レ,,合同会社,広島県,福山市,新涯町１丁目３３番３３号,,34,207,7210955,,,,,,,2023-09-28,1,,,,,コトナレ,0
881,4280001009042,新規,0,2023-09-28,2023-09-28,株式会社ＳＰＣしまね医療,,株式会社,島根県,出雲市,姫原町２６２番地,,32,203,6930061,,,,,,,2023-09-28,1,,,,,エスピーシーシマネイリョウ,0
885,4290001103166,新規,0,2023-09-28,2023-09-28,株式会社ＡＲＥＲＥ,,株式会社,福岡県,福岡市城南区,梅林３丁目２３番３５号,,40,136,8140144,,,,,,,2023-09-28,1,,,,,アレア,0
886,4290003014411,新規,0,2023-09-28,2023-09-28,新世代ＤＶＫ合同会社,,合同会社,福岡県,福岡市南区,高木３丁目１６番５号,,40,134,8150004,,,,,,,2023-09-28,1,,,,,シンセダイディーブイケー,0
894,4320003004185,新規,0,2023-09-28,2023-09-28,合同会社ますの環境,,合同会社,大分県,佐伯市,蒲江大字竹野浦河内１２番地６,,44,205,8762301,,,,,,,2023-09-28,1,,,,,マスノカンキョウ,0
896,4330003009984,新規,0,2023-09-28,2023-09-28,合同会社スリーピース,,合同会社,熊本県,熊本市中央区,下通１丁目９－４ＳＨＩＧＥＯＫＡビル３Ｆ,,43,101,8600807,,,,,,,2023-09-28,1,,,,,スリーピース,0
898,4350001018589,新規,0,2023-09-28,2023-09-28,株式会社陽工業,,株式会社,宮崎県,児湯郡新富町,大字新田１６３４８番地８,,45,402,8891406,,,,,,,2023-09-28,1,,,,,ハルコウギョウ,0
904,4380003005574,新規,0,2023-09-28,2023-09-28,合同会社ＨＫ電気制御,,合同会社,福島県,いわき市,内郷高坂町立野９５番地,,07,204,9738408,,,,,,,2023-09-28,1,,,,,エイチケイデンキセイギョ,0
907,4410005006542,新規,0,2023-09-28,2023-09-28,農事組合法人サワタ園芸,,その他の設立登記法人,秋田県,鹿角市,十和田錦木字冠田３９番地,,05,209,0185336,,,,,,,2023-09-28,1,,,,,サワタエンゲイ,0
914,4450001014099,新規,0,2023-09-28,2023-09-28,株式会社ラナトレーディングジャパン,,株式会社,北海道,旭川市,末広四条７丁目４番８号,,01,204,0718134,,,,,,,2023-09-28,1,,,,,ラナトレーディングジャパン,0
919,4480003002025,新規,0,2023-09-28,2023-09-28,合同会社ｕｐｓｔａｒｔ,,合同会社,徳島県,鳴門市,撫養町小桑島字前浜２６５番地１,,36,202,7720012,,,,,,,2023-09-28,1,,,,,アップスタート,0
923,4700150120812,新規,0,2023-09-28,2023-09-28,Ａｉｎａｏ　Ｘｉｎｘｉｋｅｊｉ（Ｓｈａｎｇｈａｉ）Ｙｏｕｘｉａｎｇｏｎｇｓｉ,,外国会社等,,,,,,,,Ｒｏｏｍ　９０１，９ｔｈ　Ｆｌｏｏｒ，Ｎｏ．２０００，Ｚｈｏｎｇｓｈａｎ　Ｎｏｒｔｈ　Ｒｏａｄ，Ｐｕｔｕｏ　Ｄｉｓｔｒｉｃｔ，Ｓｈａｎｇｈａｉ，Ｃｈｉｎａ,,,,,,2023-09-28,1,,,,,アイナオシンシカギシャンハイユウゲンコウシ,0
924,4700150120829,新規,0,2023-09-28,2023-09-28,ｌｏｕｄｉｓｈｉｍａｎｃａｎｇｄｉａｎｚｉｓｈａｎｇｗｕ　ｙｏｕｘｉａｎｇｏｎｇｓｉ,,外国会社等,,,,,,,,ｈｕｎａｎｓｈｅｎｇ　ｌｏｕｄｉｓｈｉ　ｘｉｎｈｕａｘｉａｎ　ｓｈａｎｇｄｕｊｉｅｄａｏｚｈｅｎｘｉｎｇｂｅｉｌｕｙｕｓｈａｎｇｍｅｉｄｏｎｇｌｕｊｉａｏｈｕｉｃｈｕｊｉｎｂｉｓｈａｎｇｙｅｇｕａｎｇｃｈａｎｇ１ｄｏｎｇ１０２ｆａｎｇ,,,,,,2023-09-28,1,,,,,ロディシマンカンデンシショウムユウゲンコウシ,0
925,4700150120837,新規,0,2023-09-28,2023-09-28,ｓｈｅｎｚｈｅｎ　ｈｕａｌｉｑｉｏｎｇ　ｔｒａｄｅ　ｃｏｍｐａｎｙ　Ｌｉｍｉｔｅｄ,,外国会社等,,,,,,,,Ｂｕｉｌｄｉｎｇ　５７，Ｎｏ．４６６　Ｓｈａｘｉａｎ，Ｍｉｎｚｈｉ　Ｓｔｒｅｅｔ，Ｌｏｎｇｈｕａ　Ｎｅｗ　Ｄｉｓ，ｓｈｅｎｚｈｅｎ,,,,,,2023-09-28,1,,,,,シンセンフアリチョントレードカンパニーリミテッド,0
934,5010001238781,新規,0,2023-09-28,2023-09-28,株式会社カルマ,,株式会社,東京都,中央区,銀座７丁目３番１６号東五ビル２ＦＢ,,13,102,1040061,,,,,,,2023-09-28,1,,,,,カルマ,0
935,5010003041779,新規,0,2023-09-28,2023-09-28,ｂｅｔｔｅｒ合同会社,,合同会社,東京都,中央区,銀座１丁目１２－４Ｎ＆ＥＢＬＤ．７階,,13,102,1040061,,,,,,,2023-09-28,1,,,,,ベター,0
937,5010103002210,新規,0,2023-09-28,2023-09-28,英智ソリューションズ合同会社,,合同会社,東京都,八王子市,西寺方町１０１９－３０３,,13,201,1920153,,,,,,,2023-09-28,1,,,,,エイチソリューションズ,0
943,5010401177290,新規,0,2023-09-28,2023-09-28,株式会社ソーシャルグッド会計事務所,,株式会社,東京都,港区,元麻布１丁目１番１８号秀和元麻布レジデンス２０８号,,13,103,1060046,,,,,,,2023-09-28,1,,,,,ソーシャルグッドカイケイジムショ,0
944,5010401177316,新規,0,2023-09-28,2023-09-28,株式会社ｗａｎｗａｙ,,株式会社,東京都,港区,南青山３丁目１番３６号青山丸竹ビル６Ｆ,,13,103,1070062,,,,,,,2023-09-28,1,,,,,ワンウェイ,0
946,5010403030984,新規,0,2023-09-28,2023-09-28,合同会社ハプニング,,合同会社,東京都,港区,港南３丁目６－２１,,13,103,1080075,,,,,,,2023-09-28,1,,,,,ハプニング,0
947,5010403030992,新規,0,2023-09-28,2023-09-28,合同会社Ｒａｖｉ,,合同会社,東京都,港区,南青山２丁目２番１５号,,13,103,1070062,,,,,,,2023-09-28,1,,,,,ラヴィ,0
951,5010701044868,新規,0,2023-09-28,2023-09-28,株式会社ＩＴＣＥＮジャパン,,株式会社,東京都,品川区,南大井３丁目２８－１０・ＯＲＩＥＮＴ．ＢＬＤ．Ｎｏ．１４０．ＯＩトレーディングビル６０２号,,13,109,1400013,,,,,,,2023-09-28,1,,,,,アイティセンジャパン,0
954,5010803004695,新規,0,2023-09-28,2023-09-28,ＰＶＤ合同会社,,合同会社,東京都,大田区,山王３丁目１番１１号ｆｏｎｓＴＯＭＩＹＡｂｌｄｇ,,13,111,1430023,,,,,,,2023-09-28,1,,,,,ピーブイディー,0
962,5011001157154,新規,0,2023-09-28,2023-09-28,株式会社ハコス,,株式会社,東京都,目黒区,目黒本町５丁目１６番１号アクエアー２６－２０１,,13,110,1520002,,,,,,,2023-09-28,1,,,,,ハコス,0
963,5011001157229,新規,0,2023-09-28,2023-09-28,株式会社セナオス,,株式会社,東京都,渋谷区,神宮前６丁目２３番４号桑野ビル２階,,13,113,1500001,,,,,,,2023-09-28,1,,,,,セナオス,0
968,5011101104312,新規,0,2023-09-28,2023-09-28,株式会社ＮＭ,,株式会社,東京都,新宿区,大京町２１番地２プラウド四谷大京町２０６,,13,104,1600015,,,,,,,2023-09-28,1,,,,,エヌエム,0
970,5011101104510,新規,0,2023-09-28,2023-09-28,ＧＲＯＷＡＲＭＳ株式会社,,株式会社,東京都,新宿区,新宿２丁目１２番１３号新宿アントレサロンビル２Ｆ,,13,104,1600022,,,,,,,2023-09-28,1,,,,,グローワームズ,0
971,5011101104527,新規,0,2023-09-28,2023-09-28,株式会社エディットライフヨコボウ,,株式会社,東京都,新宿区,市谷八幡町１６番地,,13,104,1620844,,,,,,,2023-09-28,1,,,,,エディットライフヨコボウ,0
972,5011103013536,新規,0,2023-09-28,2023-09-28,合同会社ＧＲＡＣＥ　Ｊａｐａｎ,,合同会社,東京都,新宿区,西新宿３丁目９番１２号西新宿ダイヤモンドビル１１０１,,13,104,1600023,,,,,,,2023-09-28,1,,,,,グレイスジャパン,0
973,5011201024939,新規,0,2023-09-28,2023-09-28,株式会社ＮｅｏＲｉｇｈｔｓ,,株式会社,東京都,中野区,弥生町３丁目５－１アーバンハイツ中野３０１,,13,114,1640013,,,,,,,2023-09-28,1,,,,,ネオライツ,0
978,5011401025472,新規,0,2023-09-28,2023-09-28,千寒テクノロジーグループ株式会社,,株式会社,東京都,板橋区,中台３丁目５－１マルワコーポ１階,,13,119,1740064,,,,,,,2023-09-28,1,,,,,センカンテクノロジーグループ,0
979,5011403004128,新規,0,2023-09-28,2023-09-28,合同会社アデポ,,合同会社,東京都,板橋区,板橋２丁目２０番５－８０３号,,13,119,1730004,,,,,,,2023-09-28,1,,,,,アデポ,0
980,5011405002261,新規,0,2023-09-28,2023-09-28,一般社団法人和敬会,,その他の設立登記法人,東京都,板橋区,大原町３番９号,,13,119,1740061,,,,,,,2023-09-28,1,,,,,ワケイカイ,0
985,5011603004068,新規,0,2023-09-28,2023-09-28,Ｔｅｃｈ　Ｔｏｒｃｈ合同会社,,合同会社,東京都,練馬区,立野町２８－１４,,13,120,1770054,,,,,,,2023-09-28,1,,,,,テックトーチ,0
992,5011703003606,新規,0,2023-09-28,2023-09-28,合同会社Ｗｒａｉｔｈ,,合同会社,東京都,江戸川区,南小岩５丁目１番１１号コーポウカイ１０３,,13,123,1330056,,,,,,,2023-09-28,1,,,,,レイス,0
997,5012401041039,新規,0,2023-09-28,2023-09-28,株式会社ＤＭＮ,,株式会社,東京都,府中市,本町２丁目６番地の７マンションアゼリア４０１,,13,206,1830027,,,,,,,2023-09-28,1,,,,,ディーエムエヌ,0
1006,5013303006815,新規,0,2023-09-28,2023-09-28,合同会社エハヴァ,,合同会社,東京都,豊島区,東池袋３丁目１番４号メゾンサンシャイン１００１,,13,116,1700013,,,,,,,2023-09-28,1,,,,,エハヴァ,0
1025,5030001155942,新規,0,2023-09-28,2023-09-28,バルサマ株式会社,,株式会社,埼玉県,さいたま市緑区,大字中尾１０４番地２３,,11,109,3360932,,,,,,,2023-09-28,1,,,,,バルサマ,0
1026,5030001156049,新規,0,2023-09-28,2023-09-28,株式会社ＥＶＮＬ,,株式会社,埼玉県,比企郡川島町,大字上大屋敷１９７－１,,11,346,3500142,,,,,,,2023-09-28,1,,,,,エブネル,0
1027,5030001156073,新規,0,2023-09-28,2023-09-28,株式会社ＩＲＩＳＥ,,株式会社,埼玉県,川口市,並木３丁目５－２５サンハイツ１０１,,11,203,3320034,,,,,,,2023-09-28,1,,,,,イリゼ,0
1035,5030003022471,新規,0,2023-09-28,2023-09-28,合同会社インテルメッゾ,,合同会社,埼玉県,越谷市,レイクタウン５丁目１８番地８,,11,222,3430828,,,,,,,2023-09-28,1,,,,,インテルメッゾ,0
1036,5030003022521,新規,0,2023-09-28,2023-09-28,合同会社ＨＮＳ,,合同会社,埼玉県,越谷市,赤山町２丁目１４６番地８,,11,222,3430807,,,,,,,2023-09-28,1,,,,,エイチエヌエス,0
1037,5030003022562,新規,0,2023-09-28,2023-09-28,ＫＩＺＵＴＩ合同会社,,合同会社,埼玉県,比企郡滑川町,大字羽尾３００２番地１,,11,341,3550811,,,,,,,2023-09-28,1,,,,,キヅチ,0
1038,5030003022579,新規,0,2023-09-28,2023-09-28,ＷＨＥＥＬＳ＆ＤＥＡＬＳ　ＴＲＡＤＩＮＧ合同会社,,合同会社,埼玉県,三郷市,彦成３丁目９番２－８０３号,,11,237,3410003,,,,,,,2023-09-28,1,,,,,ホイールズアンドディールズトレーディング,0
1043,5040001130275,新規,0,2023-09-28,2023-09-28,株式会社オールマイティー,,株式会社,千葉県,市川市,幸２丁目１番２－１１１４号（サニーハウス南行徳Ｂ棟）,,12,203,2720123,,,,,,,2023-09-28,1,,,,,オールマイティー,0
1050,5040003023411,新規,0,2023-09-28,2023-09-28,合同会社ＫＴ産業,,合同会社,千葉県,大網白里市,四天木乙２６２２番地１４,,12,239,2993203,,,,,,,2023-09-28,1,,,,,ケーティーサンギョウ,0
1052,5050001053541,新規,0,2023-09-28,2023-09-28,株式会社ＨＩＲＥ　ＦＡＳＴ,,株式会社,茨城県,結城市,大字結城１５４１番地,,08,207,3070001,,,,,,,2023-09-28,1,,,,,ハイヤーファスト,0
1054,5050003007818,新規,0,2023-09-28,2023-09-28,イシ合同会社,,合同会社,茨城県,つくば市,北条３４６－１０１号室,,08,220,3004231,,,,,,,2023-09-28,1,,,,,イシ,0
1055,5050003007826,新規,0,2023-09-28,2023-09-28,ＰＡＢＩ合同会社,,合同会社,茨城県,古河市,東２丁目２４番２６号,,08,204,3060011,,,,,,,2023-09-28,1,,,,,パビ,0
1063,5080003003062,新規,0,2023-09-28,2023-09-28,合同会社マルケン,,合同会社,静岡県,藤枝市,青南町５丁目９番地の１０,,22,214,4260063,,,,,,,2023-09-28,1,,,,,マルケン,0
1064,5080401026755,新規,0,2023-09-28,2023-09-28,株式会社クロップ,,株式会社,静岡県,浜松市東区,原島町３９番地,,22,132,4350047,,,,,,,2023-09-28,1,,,,,クロップ,0
1083,5120901048096,新規,0,2023-09-28,2023-09-28,株式会社ＳＡＮＫＩ地質,,株式会社,大阪府,豊中市,服部寿町２丁目１４番１２号,,27,203,5610857,,,,,,,2023-09-28,1,,,,,サンキチシツ,0
1088,5130001075296,新規,0,2023-09-28,2023-09-28,中谷商店株式会社,,株式会社,京都府,京都市下京区,綾小路通富小路東入塩屋町６５番地,,26,106,6008052,,,,,,,2023-09-28,1,,,,,ナカタニショウテン,0
1089,5130001075354,新規,0,2023-09-28,2023-09-28,オークフロー株式会社,,株式会社,京都府,船井郡京丹波町,市場家田１番地,,26,407,6291116,,,,,,,2023-09-28,1,,,,,オークフロー,0
1094,5140001131759,新規,0,2023-09-28,2023-09-28,株式会社ハミングテック,,株式会社,兵庫県,神戸市灘区,篠原伯母野山町３丁目１６番１１号,,28,102,6570015,,,,,,,2023-09-28,1,,,,,ハミングテック,0
1098,5150001026743,新規,0,2023-09-28,2023-09-28,プロパティバンク株式会社,,株式会社,奈良県,磯城郡田原本町,殿町２０１番地１,,29,363,6360317,,,,,,,2023-09-28,1,,,,,プロパティバンク,0
1106,5180001158121,新規,0,2023-09-28,2023-09-28,株式会社ＭｃＥ,,株式会社,愛知県,名古屋市中区,錦３丁目６番２０号,,23,106,4600003,,,,,,,2023-09-28,1,,,,,マックイー,0
1107,5180001158170,新規,0,2023-09-28,2023-09-28,株式会社Ｔａｍａｎ　Ｔｒａｄｉｎｇ,,株式会社,愛知県,知多郡東浦町,大字石浜字飛山池上１５番地の１４３,,23,442,4702103,,,,,,,2023-09-28,1,,,,,タマントレーディング,0
1112,5180003025798,新規,0,2023-09-28,2023-09-28,ノースエイト合同会社,,合同会社,愛知県,名古屋市千種区,宮根台２丁目１２－１,,23,101,4640008,,,,,,,2023-09-28,1,,,,,ノースエイト,0
1116,5180301037842,新規,0,2023-09-28,2023-09-28,株式会社石黒運送,,株式会社,愛知県,蒲郡市,浜町１４番地浜町ビルディング（３０８号室）,,23,214,4430036,,,,,,,2023-09-28,1,,,,,イシグロウンソウ,0
1126,5240001062168,新規,0,2023-09-28,2023-09-28,山陽警備株式会社,,株式会社,広島県,広島市中区,榎町七丁目６番４０２号,,34,101,7300851,,,,,,,2023-09-28,1,,,,,サンヨウケイビ,0
1127,5250003003359,新規,0,2023-09-28,2023-09-28,合同会社ＴＡＫＥＯＵＴ,,合同会社,山口県,山口市,秋穂東１０３番地５,,35,203,7541101,,,,,,,2023-09-28,1,,,,,テイクアウト,0
1129,5260001038348,新規,0,2023-09-28,2023-09-28,株式会社緒馬築炉,,株式会社,岡山県,倉敷市,有城１２１７－１,,33,202,7100031,,,,,,,2023-09-28,1,,,,,オウマチクロ,0
1140,5290003014410,新規,0,2023-09-28,2023-09-28,合同会社Ｒｅ,,合同会社,福岡県,柳川市,三橋町百町１４５８番地２,,40,207,8320821,,,,,,,2023-09-28,1,,,,,リー,0
1143,5300005007154,新規,0,2023-09-28,2023-09-28,特定非営利活動法人ＤｒｅａｍｓＢａｎｋ,,その他の設立登記法人,佐賀県,鳥栖市,宿町１３７８番地１,,41,203,8410052,,,,,,,2023-09-28,1,,,,,ドリームスバンク,0
1147,5320001020019,新規,0,2023-09-28,2023-09-28,株式会社Ｃａｂｏｎ　ｃｏＭＰａｎｙ・３５,,株式会社,大分県,大分市,大字片島５７８番地の１,,44,201,8700943,,,,,,,2023-09-28,1,,,,,カボンカンパニーサンゴ,0
1151,5330001031295,新規,0,2023-09-28,2023-09-28,株式会社Ｓｅｅｄｓ　Ｃｏｎｎｅｃｔ,,株式会社,熊本県,熊本市北区,植木町滴水４５１番地８,,43,105,8610133,,,,,,,2023-09-28,1,,,,,シーズコネクト,0
1153,5360001032596,新規,0,2023-09-28,2023-09-28,ＳＥＶＥＮＩＮＫ株式会社,,株式会社,沖縄県,沖縄市,中央３丁目１４－３－３階,,47,211,9040004,,,,,,,2023-09-28,1,,,,,セブンインク,0
1159,5380001034013,新規,0,2023-09-28,2023-09-28,株式会社桃源郷,,株式会社,福島県,いわき市,平沼ノ内字新街２３２番地の５,,07,204,9700222,,,,,,,2023-09-28,1,,,,,トウゲンキョウ,0
1169,5480003002024,新規,0,2023-09-28,2023-09-28,メゾンドエクリュ合同会社,,合同会社,徳島県,徳島市,山城町東浜傍示５番地の３６７,,36,201,7708055,,,,,,,2023-09-28,1,,,,,メゾンドエクリュ,0
1170,5500003003102,新規,0,2023-09-28,2023-09-28,鬼灯屋合同会社,,合同会社,愛媛県,北宇和郡鬼北町,大字奈良１８２４‐１,,38,488,7981351,,,,,,,2023-09-28,1,,,,,ホオズキヤ,0
1173,5700150120811,新規,0,2023-09-28,2023-09-28,ｓｈｅｎｚｈｅｎｓｈｉｙｕｅｘｉａｎｇｗａｎｇｌｕｏｋｅｊｉ　ｙｏｕｘｉａｎｇｏｎｇｓｉ,,外国会社等,,,,,,,,Ｒｏｏｍ　８０３，Ｂｕｉｌｄｉｎｇ　Ｂ，Ｃｈｕａｎｇｘｉｎｈｕａｔｉｎｇ，Ｘｉｎｔｉａｎ　Ｖｉｌｌａｇｅ，Ｇｕａｎｌａｎ　Ｓｔｒｅｅｔ，Ｌｏｎｇｈｕａ　Ｄｉｓｔｒｉｃｔ，Ｓｈｅｎｚｈｅｎ，Ｃｈｉｎａ,,,,,,2023-09-28,1,,,,,シンセンシユエシャンワンルオカギユウゲンコウシ,0
1174,5700150120828,新規,0,2023-09-28,2023-09-28,Ｓｈａｒｐａｌ　Ｉｎｃ．,,外国会社等,,,,,,,,７８０　Ｅ　ＦＲＡＮＣＩＳ　ＳＴ　＃Ｔ　ＯＮＴＡＲＩＯ　ＣＡ　９１７６１,,,,,,2023-09-28,1,,,,,シャーパルインコーポレーション,0
1175,5700150120836,新規,0,2023-09-28,2023-09-28,ｓｈｅｎｚｈｅｎｓｈｉａｏｃｈｅｎｇｄｉａｎｚｉｋｅｊｉ　ｙｏｕｘｉａｎｇｏｎｇｓｉ,,外国会社等,,,,,,,,ｓｈｅｎｚｈｅｎｓｈｉ　ｌｏｎｇｈｕａｑｕ　ｇｕａｎｌａｎｊｉｅｄａｏｇｕｉｘｉａｎｇｓｈｅｑｕｄａｓｈａｈｅｘｉｎｃｕｎ６ｈａｏ３０３,,,,,,2023-09-28,1,,,,,シンセンシアオチェンデンシカギユウゲンコウシ,0
1200,6010003041803,新規,0,2023-09-28,2023-09-28,清水エナジー企画合同会社,,合同会社,東京都,中央区,日本橋室町１丁目１１番１２号日本橋水野ビル７階,,13,102,1030022,,,,,,,2023-09-28,1,,,,,シミズエナジーキカク,0
1203,6010101015832,新規,0,2023-09-28,2023-09-28,株式会社Ｄａｉｒｙ＆Ｆａｒｍｙ,,株式会社,東京都,八王子市,小比企町１６７３－１,,13,201,1930934,,,,,,,2023-09-28,1,,,,,デイリーアンドファーミー,0
1220,6010701044909,新規,0,2023-09-28,2023-09-28,株式会社ＥＥＢＡ,,株式会社,東京都,品川区,上大崎１丁目３番１１号,,13,109,1410021,,,,,,,2023-09-28,1,,,,,イーイービーエー,0
1224,6010803004694,新規,0,2023-09-28,2023-09-28,ＧＩＴＡＩ　Ｊａｐａｎ合同会社,,合同会社,東京都,大田区,羽田１丁目２０番１３号,,13,111,1440043,,,,,,,2023-09-28,1,,,,,ギタイジャパン,0
1236,6011001157186,新規,0,2023-09-28,2023-09-28,株式会社ＰＬＥＹ,,株式会社,東京都,渋谷区,初台１丁目３９－９初台鈴木ビル２０１,,13,113,1510061,,,,,,,2023-09-28,1,,,,,プレイ,0
1240,6011005010226,新規,0,2023-09-28,2023-09-28,一般社団法人晴天会,,その他の設立登記法人,東京都,渋谷区,神宮前６丁目２３番４号桑野ビル２階,,13,113,1500001,,,,,,,2023-09-28,1,,,,,セイテンカイ,0
1244,6011101104526,新規,0,2023-09-28,2023-09-28,＿和株式会社,00132070,株式会社,東京都,新宿区,百人町２丁目２１－３－４Ｆ,,13,104,1690073,,,,,,,2023-09-28,1,,,,,ネイワ,0
1245,6011101104534,新規,0,2023-09-28,2023-09-28,Ｊ＆Ｌ株式会社,,株式会社,東京都,新宿区,西新宿３丁目３番１３号西新宿水間ビル２Ｆ,,13,104,1600023,,,,,,,2023-09-28,1,,,,,ジェイアンドエル,0
1252,6011503005776,新規,0,2023-09-28,2023-09-28,ｉＦＡＲＭ合同会社,,合同会社,東京都,荒川区,西日暮里５丁目１４番１２号第２池田ビル５０１号室,,13,118,1160013,,,,,,,2023-09-28,1,,,,,アイファーム,0
1254,6012301013599,新規,0,2023-09-28,2023-09-28,株式会社エコサイクル東京,,株式会社,東京都,町田市,真光寺町２１５番地４,,13,209,1950051,,,,,,,2023-09-28,1,,,,,エコサイクルトウキョウ,0
1255,6012301013608,新規,0,2023-09-28,2023-09-28,株式会社ＥＣＯＬＳＥ,,株式会社,東京都,町田市,原町田６丁目１１－１５,,13,209,1940013,,,,,,,2023-09-28,1,,,,,エコルス,0
1256,6012401041038,新規,0,2023-09-28,2023-09-28,フルボコーポレーション株式会社,,株式会社,東京都,小金井市,東町１丁目４５番２１号,,13,210,1840011,,,,,,,2023-09-28,1,,,,,フルボコーポレーション,0
1257,6012403006195,新規,0,2023-09-28,2023-09-28,ＭＩＴＯＢＥ．Ｍ合同会社,,合同会社,東京都,稲城市,向陽台４丁目２番地みはらしの家Ｂ－３０４,,13,225,2060803,,,,,,,2023-09-28,1,,,,,ミトベドットエム,0
1267,6013301051399,新規,0,2023-09-28,2023-09-28,株式会社Ｏｋｏｇｅ,,株式会社,東京都,豊島区,東池袋１丁目１２番１０号ヤンズビル７階,,13,116,1700013,,,,,,,2023-09-28,1,,,,,オコゲ,0
1274,6020001153681,新規,0,2023-09-28,2023-09-28,株式会社ホーメスト,,株式会社,神奈川県,横浜市鶴見区,仲通３丁目７２番１２号ユナイト仲通マリアージュの杜１０１号室,,14,101,2300042,,,,,,,2023-09-28,1,,,,,ホーメスト,0
1279,6021001080296,新規,0,2023-09-28,2023-09-28,株式会社湘南はなまる不動産,,株式会社,神奈川県,藤沢市,南藤沢８番３プレジデント藤沢２０８号,,14,205,2510055,,,,,,,2023-09-28,1,,,,,ショウナンハナマルフドウサン,0
1280,6021003013618,新規,0,2023-09-28,2023-09-28,合同会社ミライズｐｌｕｓ,,合同会社,神奈川県,小田原市,南鴨宮３丁目４－１２ふくもと南鴨宮ビル１階Ｂ号室,,14,206,2500875,,,,,,,2023-09-28,1,,,,,ミライズプラス,0
1289,6030001156031,新規,0,2023-09-28,2023-09-28,株式会社和Ｔｏｔａｌ　Ｉｎｔｅｒｉｏｒ,,株式会社,埼玉県,新座市,新堀１丁目１４－３６－２６,,11,230,3520032,,,,,,,2023-09-28,1,,,,,カズトータルインテリア,0
1290,6030001156378,新規,0,2023-09-28,2023-09-28,株式会社ザ・エムトラベル,,株式会社,埼玉県,川口市,本町４丁目７番４－２０５号シティハウス川口ステーションコート,,11,203,3320012,,,,,,,2023-09-28,1,,,,,ザエムトラベル,0
1292,6030003022520,新規,0,2023-09-28,2023-09-28,合同会社ＲＮ,,合同会社,埼玉県,さいたま市西区,大字指扇２６１７番地オーベル大宮指扇１１５号,,11,101,3310047,,,,,,,2023-09-28,1,,,,,アールエヌ,0
1293,6030003022660,新規,0,2023-09-28,2023-09-28,フロックス合同会社,,合同会社,埼玉県,新座市,あたご３丁目１１番２９号,,11,230,3520021,,,,,,,2023-09-28,1,,,,,フロックス,0
1301,6040001130266,新規,0,2023-09-28,2023-09-28,株式会社Ａｓｔｙｌｅ,,株式会社,千葉県,市川市,北方２丁目２２番５号,,12,203,2720815,,,,,,,2023-09-28,1,,,,,エースタイル,0
1302,6040001130282,新規,0,2023-09-28,2023-09-28,株式会社Ｐｅｔ・ファミティア,,株式会社,千葉県,松戸市,栄町７丁目５４２番地の１３,,12,207,2710062,,,,,,,2023-09-28,1,,,,,ペットファミティア,0
1308,6040003023410,新規,0,2023-09-28,2023-09-28,合同会社京桝屋舞台,,合同会社,千葉県,松戸市,古ケ崎２丁目３１５２番地の１３,,12,207,2710068,,,,,,,2023-09-28,1,,,,,キョウマスヤブタイ,0
1309,6040003023419,新規,0,2023-09-28,2023-09-28,合同会社ノダスト,,合同会社,千葉県,白井市,冨士１５１番地の２白井ロジュマン４２２号,,12,232,2701432,,,,,,,2023-09-28,1,,,,,ノダスト,0
1318,6050003007817,新規,0,2023-09-28,2023-09-28,合同会社Ｔｓｕｋｕｂａ　Ｍｏｎｋｅｙ　Ｍａｇｉｃ,,合同会社,茨城県,つくば市,吾妻１丁目５－７ダイワロイネットホテルつくばビル２Ｆ,,08,220,3050031,,,,,,,2023-09-28,1,,,,,ツクバモンキーマジック,0
1319,6050003007825,新規,0,2023-09-28,2023-09-28,合同会社駒形事務所,,合同会社,茨城県,日立市,滑川本町１丁目１番２号,,08,202,3170051,,,,,,,2023-09-28,1,,,,,コマガタジムショ,0
1320,6060001036387,新規,0,2023-09-28,2023-09-28,株式会社中山工務店,,株式会社,栃木県,宇都宮市,中岡本町２６６３番地５９,,09,201,3291105,,,,,,,2023-09-28,1,,,,,ナカヤマコウムテン,0
1322,6060005010132,新規,0,2023-09-28,2023-09-28,企業組合上南摩そばネットワーク,,その他の設立登記法人,栃木県,鹿沼市,上南摩町２５番地,,09,205,3220346,,,,,,,2023-09-28,1,,,,,カミナンマソバネットワーク,0
1337,6120003024978,新規,0,2023-09-28,2023-09-28,シェアハピネス合同会社,,合同会社,大阪府,大阪市城東区,成育５丁目１番３号モリハイツ１０１,,27,118,5360007,,,,,,,2023-09-28,1,,,,,シェアハピネス,0
1338,6120003025002,新規,0,2023-09-28,2023-09-28,合同会社彼岸花,,合同会社,大阪府,大阪市北区,梅田１丁目１‐３大阪駅前第３ビル２９階１‐１‐１号室,,27,127,5300001,,,,,,,2023-09-28,1,,,,,ヒガンバナ,0
1340,6120101068274,新規,0,2023-09-28,2023-09-28,株式会社建志,,株式会社,大阪府,松原市,丹南４丁目１９８番地の１,,27,217,5800013,,,,,,,2023-09-28,1,,,,,ケンシ,0
1341,6120101068282,新規,0,2023-09-28,2023-09-28,株式会社ベリターツ,,株式会社,大阪府,阪南市,尾崎町８丁目３６番１１号,,27,232,5990201,,,,,,,2023-09-28,1,,,,,ベリターツ,0
1342,6120103005457,新規,0,2023-09-28,2023-09-28,リューズ・マネジメント合同会社,,合同会社,大阪府,堺市堺区,一条通１５番２２号ビレッジＳＨビル２階,,27,141,5900048,,,,,,,2023-09-28,1,,,,,リューズマネジメント,0
1345,6122003002682,新規,0,2023-09-28,2023-09-28,合同会社土と人,,合同会社,大阪府,東大阪市,中石切町１丁目８番２７号,,27,227,5798014,,,,,,,2023-09-28,1,,,,,ツチトヒト,0
1359,6160001025371,新規,0,2023-09-28,2023-09-28,株式会社リノスタッフ京都,,株式会社,滋賀県,彦根市,八坂町３０７３番地１,,25,202,5220057,,,,,,,2023-09-28,1,,,,,リノスタッフキョウト,0
1360,6170001017797,新規,0,2023-09-28,2023-09-28,Ｈｂａｓｉｓ株式会社,,株式会社,和歌山県,和歌山市,新在家２３３番地２,,30,201,6408345,,,,,,,2023-09-28,1,,,,,エイチベイシス,0
1363,6180001158194,新規,0,2023-09-28,2023-09-28,株式会社メロウリング,,株式会社,愛知県,名古屋市中村区,名駅４丁目２４番５号第２森ビル４０１,,23,105,4500002,,,,,,,2023-09-28,1,,,,,メロウリング,0
1367,6180003025797,新規,0,2023-09-28,2023-09-28,合同会社エール,,合同会社,愛知県,日進市,岩崎台３丁目１１０９番地ラビング・ヴェール３Ｓ,,23,230,4700135,,,,,,,2023-09-28,1,,,,,エール,0
1376,6200005013525,新規,0,2023-09-28,2023-09-28,一般社団法人下呂身障福祉協力会,,その他の設立登記法人,岐阜県,下呂市,森６８８番地７,,21,220,5092202,,,,,,,2023-09-28,1,,,,,ゲロシンショウフクシキョウリョクカイ,0
1377,6220001025613,新規,0,2023-09-28,2023-09-28,株式会社ＧＲＰ,,株式会社,石川県,金沢市,新保本４丁目４番地,,17,201,9218062,,,,,,,2023-09-28,1,,,,,ジーアールピー,0
1380,6240001062167,新規,0,2023-09-28,2023-09-28,北海製作所株式会社,,株式会社,広島県,広島市中区,十日市町１丁目３－２７,,34,101,7300805,,,,,,,2023-09-28,1,,,,,ホッカイセイサクショ,0
1382,6250001020297,新規,0,2023-09-28,2023-09-28,ＩｏＹｏｕ株式会社,,株式会社,山口県,下関市,岬之町１４番１号,,35,201,7500014,,,,,,,2023-09-28,1,,,,,アイオーユー,0
1386,6260001038339,新規,0,2023-09-28,2023-09-28,株式会社服部建装,,株式会社,岡山県,岡山市南区,古新田２８番地８,,33,104,7010203,,,,,,,2023-09-28,1,,,,,ハットリケンソウ,0
1390,6290001103107,新規,0,2023-09-28,2023-09-28,ＲＨサクセション株式会社,,株式会社,福岡県,久留米市,山川安居野３丁目９番１号,,40,203,8390812,,,,,,,2023-09-28,1,,,,,アールエイチサクセション,0
1391,6290001103164,新規,0,2023-09-28,2023-09-28,株式会社Ｍサポート,,株式会社,福岡県,久留米市,北野町大城５１番地１５,,40,203,8301104,,,,,,,2023-09-28,1,,,,,エムサポート,0
1392,6290001103172,新規,0,2023-09-28,2023-09-28,株式会社ゲンデン,,株式会社,福岡県,春日市,上白水７丁目１１７番地（１０４号）,,40,218,8160844,,,,,,,2023-09-28,1,,,,,ゲンデン,0
1399,6300001013477,新規,0,2023-09-28,2023-09-28,アイエス地所株式会社,,株式会社,佐賀県,佐賀市,木原２丁目３番２７号,,41,201,8400015,,,,,,,2023-09-28,1,,,,,アイエスチショ,0
1401,6310001018624,新規,0,2023-09-28,2023-09-28,ＪＩＮ株式会社,,株式会社,長崎県,西彼杵郡時津町,日並郷１０５６番地１フラットＡ２０１,,42,308,8512108,,,,,,,2023-09-28,1,,,,,ジン,0
1403,6330001031294,新規,0,2023-09-28,2023-09-28,株式会社ＬＩＦ,,株式会社,熊本県,熊本市南区,近見３丁目１４番３５号,,43,104,8614101,,,,,,,2023-09-28,1,,,,,リフ,0
1406,6340001025931,新規,0,2023-09-28,2023-09-28,株式会社山下不動産研究所,,株式会社,鹿児島県,鹿児島市,光山２丁目１５番１６号,,46,201,8910151,,,,,,,2023-09-28,1,,,,,ヤマシタフドウサンケンキュウジョ,0
1409,6350003004445,新規,0,2023-09-28,2023-09-28,エムケイチャイルドケア合同会社,,合同会社,宮崎県,都城市,中町１街区７号,,45,202,8850071,,,,,,,2023-09-28,1,,,,,エムケイチャイルドケア,0
1410,6360001032612,新規,0,2023-09-28,2023-09-28,株式会社松田ＦＲＰ工業,,株式会社,沖縄県,宜野湾市,大謝名５丁目１番２３号１Ｆ,,47,205,9012225,,,,,,,2023-09-28,1,,,,,マツダエフアールピーコウギョウ,0
1412,6360003013321,新規,0,2023-09-28,2023-09-28,合同会社ＣｈｒｏｎｏＸ,,合同会社,沖縄県,那覇市,真嘉比３丁目２０－２２安寿の杜１０８,,47,201,9020068,,,,,,,2023-09-28,1,,,,,クロノエックス,0
1419,6380003005572,新規,0,2023-09-28,2023-09-28,合同会社Ｈｅａｌｅｒｓ,,合同会社,福島県,郡山市,朝日２丁目２０番２５号,,07,203,9638024,,,,,,,2023-09-28,1,,,,,ヒーラーズ,0
1427,6400003003152,新規,0,2023-09-28,2023-09-28,合同会社Ｃｕｒｅ＆Ｃａｒｅ,,合同会社,岩手県,盛岡市,天神町１２番２７号,,03,201,0200881,,,,,,,2023-09-28,1,,,,,キュアアンドケア,0
1429,6420001018415,新規,0,2023-09-28,2023-09-28,株式会社リーフ,,株式会社,青森県,八戸市,大字市川町字尻引堤沢２０－３３,,02,203,0392241,,,,,,,2023-09-28,1,,,,,リーフ,0
1433,6430003015475,新規,0,2023-09-28,2023-09-28,オフィス北彩合同会社,,合同会社,北海道,石狩市,花川南一条４丁目１７番地,,01,235,0613201,,,,,,,2023-09-28,1,,,,,オフィスホクサイ,0
1439,6700150120810,新規,0,2023-09-28,2023-09-28,ＱｕａｎＺｈｏｕＦｅｎｇＺｅＪｉＺｈｅｎｇＣｒｏｓｓ－ＢｏｄｅｒＥ－ｃｏｍｍｅｒｃｅ　Ｃｏ．，ｌｔｄ．,,外国会社等,,,,,,,,１＃８２１，ＧｕｏｊｉＨｕａＣｈｅｎｇ　ｂｕｉｌｄｉｎｇ，Ｃｉ　Ｔｏｎｇ　Ｒｏａｄ，Ｆｅｎｇｚｅ　Ｄｉｓｔｒｉｃｔ　ｑｕａｎｚｈｏｕ　ｆｕｊｉａｎ，Ｃｈｉｎａ,,,,,,2023-09-28,1,,,,,センシュウフェンゼジゼンクロスボーダーイーコマースカンパニーリミテッド,0
1440,6700150120827,新規,0,2023-09-28,2023-09-28,Ｓｈｅｎｚｈｅｎ　Ｆｅｎｇｙｕ　Ｉｎｄｕｓｔｒｉａｌ　Ｍａｔｅｒｉａｌ　Ｃｏ．，ＬＴＤ,,外国会社等,,,,,,,,８ｔｈＦｌｏｏｒ　ＢｕｉｌｄｉｎｇＡ　ＦａｃｔｏｒｙＮｏ．３５７Ｘｉｎｇｙｅ１ｓｔＲｏａｄ　ＰｈｏｅｎｉｘＣｏｍｍｕｎｉｔｙ　ＦｕｙｏｎｇＳｔｒｅｅｔ　ＢａｏａｎＤｉｓｔｒｉｃｔ　Ｓｈｅｎｚｈｅｎ,,,,,,2023-09-28,1,,,,,シンセンフェンユインダストゥリアルマテリアルカンパニーリミテッド,0
1441,6700150120835,新規,0,2023-09-28,2023-09-28,Ｎｉｎｇｂｏ　Ｈｕｉｊｉａｊｉａｊｕ　Ｙｏｕｘｉａｎｇｏｎｇｓｉ,,外国会社等,,,,,,,,Ｚｈｅｊｉａｎｇ　Ｓｈｅｎｇ　Ｎｉｎｇｂｏ　Ｓｈｉ　Ｈａｉｓｈｕ　Ｑｕ　Ｈｅｎｇｊｉｅ　Ｚｈｅｎ　Ｔａｏｙｕａｎ　Ｃｕｎ,,,,,,2023-09-28,1,,,,,ネイハフイジアジアジュユウゲンコウシ,0
1457,7010401177330,新規,0,2023-09-28,2023-09-28,Ｋ１インベスター株式会社,,株式会社,東京都,港区,芝大門１丁目１０番１１号芝大門センタービル１０Ｆ,,13,103,1050012,,,,,,,2023-09-28,1,,,,,ケイワンインベスター,0
1458,7010401177479,新規,0,2023-09-28,2023-09-28,株式会社ノクス,,株式会社,東京都,港区,六本木２丁目２番４－１１０５号,,13,103,1060032,,,,,,,2023-09-28,1,,,,,ノクス,0
1463,7010403030999,新規,0,2023-09-28,2023-09-28,合同会社ＩＬＬＵＭ,,合同会社,東京都,港区,赤坂２丁目１６番２－１００２号,,13,103,1070052,,,,,,,2023-09-28,1,,,,,イルム,0
1466,7010405022499,新規,0,2023-09-28,2023-09-28,一般社団法人セカンド,,その他の設立登記法人,東京都,港区,虎ノ門４丁目１番２８号虎ノ門タワーズオフィス１９Ｆ,,13,103,1050001,,,,,,,2023-09-28,1,,,,,セカンド,0
1467,7010405022508,新規,0,2023-09-28,2023-09-28,一般社団法人幹細胞再生歯科医学会,,その他の設立登記法人,東京都,港区,六本木３丁目７番１号,,13,103,1060032,,,,,,,2023-09-28,1,,,,,カンサイボウサイセイシカイガッカイ,0
1468,7010501051138,新規,0,2023-09-28,2023-09-28,Ｕｒａｎ株式会社,,株式会社,東京都,台東区,入谷１丁目２７－５共栄入谷ビル４Ｆ,,13,106,1100013,,,,,,,2023-09-28,1,,,,,ユラン,0
1472,7010601063859,新規,0,2023-09-28,2023-09-28,株式会社ミチナビ,,株式会社,東京都,江東区,東雲１丁目９番３２－２５１２号,,13,108,1350062,,,,,,,2023-09-28,1,,,,,ミチナビ,0
1473,7010603010388,新規,0,2023-09-28,2023-09-28,佐倉デザイン合同会社,,合同会社,東京都,江東区,新大橋２丁目１１－１７－５０６,,13,108,1350007,,,,,,,2023-09-28,1,,,,,サクラデザイン,0
1478,7010705003538,新規,0,2023-09-28,2023-09-28,特定非営利活動法人ブランドカレッジ,,その他の設立登記法人,東京都,品川区,北品川５丁目７番１４号グローリア初穂御殿山６１５号室,,13,109,1410001,,,,,,,2023-09-28,1,,,,,ブランドカレッジ,0
1486,7011001157152,新規,0,2023-09-28,2023-09-28,株式会社ｓｏｕｚｅｎ,,株式会社,東京都,渋谷区,道玄坂１丁目１０番８号渋谷道玄坂東急ビル２Ｆ－Ｃ,,13,113,1500043,,,,,,,2023-09-28,1,,,,,ソウゼン,0
1487,7011001157185,新規,0,2023-09-28,2023-09-28,株式会社ＴｅｃｈＳｑｕａｒｅ,,株式会社,東京都,渋谷区,道玄坂１丁目１０－８渋谷道玄坂東急ビル２Ｆ－Ｃ,,13,113,1500043,,,,,,,2023-09-28,1,,,,,テックスクエア,0
1488,7011001157210,新規,0,2023-09-28,2023-09-28,株式会社法楽,,株式会社,東京都,目黒区,中目黒３丁目１番６号,,13,110,1530061,,,,,,,2023-09-28,1,,,,,ホウラク,0
1489,7011003017619,新規,0,2023-09-28,2023-09-28,ベッケライ・ブーランジェリー・ベンジャミン合同会社,,合同会社,東京都,目黒区,中目黒１丁目１番３号ランデン代官山２０６,,13,110,1530061,,,,,,,2023-09-28,1,,,,,ベッケライブーランジェリーベンジャミン,0
1490,7011003017627,新規,0,2023-09-28,2023-09-28,ＫＡＮＤＹ　ＷＯＲＫＳ合同会社,,合同会社,東京都,渋谷区,本町４丁目１番１６－３０２号,,13,113,1510071,,,,,,,2023-09-28,1,,,,,キャンディワークス,0
1495,7011101104525,新規,0,2023-09-28,2023-09-28,日本在宅サポート株式会社,,株式会社,東京都,新宿区,四谷２丁目５番地さくらマンション１Ｆ,,13,104,1600004,,,,,,,2023-09-28,1,,,,,ニホンザイタクサポート,0
1496,7011101104533,新規,0,2023-09-28,2023-09-28,ユニワン商事株式会社,,株式会社,東京都,新宿区,舟町３－１Ｂｒｉｌｌｉａ四谷三丁目５０４号室,,13,104,1600006,,,,,,,2023-09-28,1,,,,,ユニワンショウジ,0
1503,7011701026623,新規,0,2023-09-28,2023-09-28,夢晴文化株式会社,,株式会社,東京都,江戸川区,本一色２丁目１８－２,,13,123,1330044,,,,,,,2023-09-28,1,,,,,ムセイブンカ,0
1507,7011801043089,新規,0,2023-09-28,2023-09-28,安川技研株式会社,,株式会社,東京都,足立区,鹿浜２丁目２８番１４号,,13,121,1230864,,,,,,,2023-09-28,1,,,,,ヤスカワギケン,0
1510,7012301013607,新規,0,2023-09-28,2023-09-28,ひまわり工務店株式会社,,株式会社,東京都,町田市,高ヶ坂６丁目１１番２２号,,13,209,1940014,,,,,,,2023-09-28,1,,,,,ヒマワリコウムテン,0
1511,7012401041037,新規,0,2023-09-28,2023-09-28,株式会社黒組,,株式会社,東京都,武蔵野市,吉祥寺本町１丁目２０番１号吉祥寺永谷シティプラザ１００２,,13,203,1800004,,,,,,,2023-09-28,1,,,,,クログミ,0
1512,7012801022652,新規,0,2023-09-28,2023-09-28,株式会社大地,,株式会社,東京都,立川市,羽衣町１丁目７番１２号鈴木ビル１階,,13,202,1900021,,,,,,,2023-09-28,1,,,,,ダイチ,0
1515,7013301051398,新規,0,2023-09-28,2023-09-28,株式会社ビューティーコンサルティング,,株式会社,東京都,豊島区,池袋４丁目２６番１号ミワビル１Ｆ,,13,116,1710014,,,,,,,2023-09-28,1,,,,,ビューティーコンサルティング,0
1530,7021003013617,新規,0,2023-09-28,2023-09-28,合同会社ＯＮＥ　ＬＩＮＫ,,合同会社,神奈川県,厚木市,妻田北２丁目１８番１４号,,14,212,2430812,,,,,,,2023-09-28,1,,,,,ワンリンク,0
1536,7030003022560,新規,0,2023-09-28,2023-09-28,合同会社Ｗｉｌｄｂｏａｒ,,合同会社,埼玉県,さいたま市中央区,新中里３丁目３－９,,11,105,3380011,,,,,,,2023-09-28,1,,,,,ワイルドボア,0
1543,7040001130257,新規,0,2023-09-28,2023-09-28,株式会社Ｂｕｄｄｙ,,株式会社,千葉県,市川市,大野町４丁目３０１３番地３八功ハイツ弐番館１０６,,12,203,2720805,,,,,,,2023-09-28,1,,,,,バディ,0
1544,7040001130265,新規,0,2023-09-28,2023-09-28,株式会社Ｏ・Ｗ・Ｓ,,株式会社,千葉県,君津市,郡２丁目１番８号,,12,225,2991127,,,,,,,2023-09-28,1,,,,,オーダブルエス,0
1545,7040001130273,新規,0,2023-09-28,2023-09-28,株式会社佐ェ門,,株式会社,千葉県,香取市,玉造６０３番地５,,12,236,2870041,,,,,,,2023-09-28,1,,,,,サエモン,0
1550,7050001053548,新規,0,2023-09-28,2023-09-28,ＡＲＩＦ　ＴＲＡＤＩＮＧ株式会社,,株式会社,茨城県,筑西市,藤ケ谷２０９１番地ロマ１号,,08,227,3080112,,,,,,,2023-09-28,1,,,,,アリフトレーディング,0
1576,7120001258271,新規,0,2023-09-28,2023-09-28,東疆株式会社,,株式会社,大阪府,大阪市西成区,天下茶屋２丁目１２番１０号森マンション３０２号,,27,122,5570014,,,,,,,2023-09-28,1,,,,,トウコウ,0
1577,7120001258379,新規,0,2023-09-28,2023-09-28,株式会社ＭＴＫ,,株式会社,大阪府,大阪市旭区,高殿２丁目１７番１７号,,27,117,5350031,,,,,,,2023-09-28,1,,,,,エムティケイ,0
1578,7120001258387,新規,0,2023-09-28,2023-09-28,株式会社Ｓｕｎｎｙ　Ｔｅｃｈ,,株式会社,大阪府,大阪市北区,梅田１丁目２番２号大阪駅前第２ビル１２－１２,,27,127,5300001,,,,,,,2023-09-28,1,,,,,サニーテック,0
1583,7120101068273,新規,0,2023-09-28,2023-09-28,株式会社ＫＡＩ,,株式会社,大阪府,堺市堺区,神石市之町７番６号,,27,141,5900813,,,,,,,2023-09-28,1,,,,,カイ,0
1584,7120103005456,新規,0,2023-09-28,2023-09-28,天晟産業合同会社,,合同会社,大阪府,和泉市,仏並町１２４３番地,,27,219,5941136,,,,,,,2023-09-28,1,,,,,テンセイサンギョウ,0
1585,7120901048111,新規,0,2023-09-28,2023-09-28,株式会社兵庫ライフスタイル,,株式会社,大阪府,池田市,満寿美町２番１９号,,27,204,5630041,,,,,,,2023-09-28,1,,,,,ヒョウゴライフスタイル,0
1586,7120903004839,新規,0,2023-09-28,2023-09-28,合同会社ＯＮ　Ｒｏａｄ,,合同会社,大阪府,吹田市,江坂町１丁目１２－１－６Ｆ,,27,205,5640063,,,,,,,2023-09-28,1,,,,,オンロード,0
1589,7122001037399,新規,0,2023-09-28,2023-09-28,株式会社盛佑,,株式会社,大阪府,東大阪市,足代新町２１番地１０号,,27,227,5770057,,,,,,,2023-09-28,1,,,,,セイユウ,0
1590,7122001037408,新規,0,2023-09-28,2023-09-28,株式会社華陽,,株式会社,大阪府,八尾市,上之島町北１丁目３７番地,,27,212,5810845,,,,,,,2023-09-28,1,,,,,カヨウ,0
1591,7122001037416,新規,0,2023-09-28,2023-09-28,株式会社ＬＳパートナーズ,,株式会社,大阪府,東大阪市,瓜生堂２丁目２４番１４号,,27,227,5780946,,,,,,,2023-09-28,1,,,,,エルエスパートナーズ,0
1592,7130003009011,新規,0,2023-09-28,2023-09-28,合同会社花水木,,合同会社,京都府,京都市左京区,下鴨高木町４５クロスフィールド１Ｆ,,26,103,6060864,,,,,,,2023-09-28,1,,,,,ハナミズキ,0
1599,7160001025370,新規,0,2023-09-28,2023-09-28,株式会社リノスタッフ岐阜,,株式会社,滋賀県,彦根市,八坂町３０７３番地１,,25,202,5220057,,,,,,,2023-09-28,1,,,,,リノスタッフギフ,0
1605,7180001158185,新規,0,2023-09-28,2023-09-28,株式会社アンナプルナ,,株式会社,愛知県,長久手市,東浦５０８番地,,23,238,4801174,,,,,,,2023-09-28,1,,,,,アンナプルナ,0
1606,7180001158193,新規,0,2023-09-28,2023-09-28,株式会社ＮＥＸＴ,,株式会社,愛知県,名古屋市中村区,名駅４丁目２４番５号第２森ビル４０１,,23,105,4500002,,,,,,,2023-09-28,1,,,,,ネクスト,0
1607,7180001158202,新規,0,2023-09-28,2023-09-28,株式会社ＴＣＣ,,株式会社,愛知県,愛西市,大野山町三日月７８番地,,23,232,4968017,,,,,,,2023-09-28,1,,,,,ティーシーシー,0
1626,7250003003357,新規,0,2023-09-28,2023-09-28,合同会社まる,,合同会社,山口県,下関市,長府松小田中町６番２３－２０３号原田ビル,,35,201,7520935,,,,,,,2023-09-28,1,,,,,マル,0
1634,7290001103139,新規,0,2023-09-28,2023-09-28,株式会社ＥＳＰＡＤＡ,,株式会社,福岡県,福岡市西区,西の丘２丁目３番－１－５１２号ネアシティガーデン西の丘,,40,135,8190046,,,,,,,2023-09-28,1,,,,,エスパーダ,0
1635,7290001103155,新規,0,2023-09-28,2023-09-28,森創建ＨＯＬＤＩＮＧＳ株式会社,,株式会社,福岡県,福岡市中央区,大名２丁目９－１７アリスト大名１０Ｆ,,40,133,8100041,,,,,,,2023-09-28,1,,,,,モリソウケンホールディングス,0
1636,7290001103163,新規,0,2023-09-28,2023-09-28,株式会社ＢＵＮＧＯＤＡＮ,,株式会社,福岡県,福岡市西区,室見が丘３丁目２２番４号,,40,135,8190030,,,,,,,2023-09-28,1,,,,,ブンゴダン,0
1650,7340001025930,新規,0,2023-09-28,2023-09-28,サカス工業株式会社,,株式会社,鹿児島県,鹿屋市,旭原町３５９８番地４メイツ旭原Ａ棟１０４,,46,203,8930022,,,,,,,2023-09-28,1,,,,,サカスコウギョウ,0
1652,7350001018586,新規,0,2023-09-28,2023-09-28,小松Ｆｏｒｅｓｔｒｙ株式会社,,株式会社,宮崎県,児湯郡高鍋町,大字南高鍋８５４番地１８ＤＡＮ１０２,,45,401,8840003,,,,,,,2023-09-28,1,,,,,コマツフォレストリー,0
1653,7350003004444,新規,0,2023-09-28,2023-09-28,合同会社ＲＹＵＫＥＮ,,合同会社,宮崎県,小林市,野尻町三ケ野山１３１１番地４号,,45,205,8860213,,,,,,,2023-09-28,1,,,,,リュウケン,0
1654,7360003013320,新規,0,2023-09-28,2023-09-28,合同会社シーサーＭ,,合同会社,沖縄県,那覇市,首里石嶺町３丁目８１番地１アバックス６－Ｂ,,47,201,9030804,,,,,,,2023-09-28,1,,,,,シーサーエム,0
1662,7480005006987,新規,0,2023-09-28,2023-09-28,一般社団法人金沢二丁目水利組合,,その他の設立登記法人,徳島県,徳島市,金沢１丁目４番５８号,,36,201,7700871,,,,,,,2023-09-28,1,,,,,カナザワニチョウメスイリクミアイ,0
1663,7700150120826,新規,0,2023-09-28,2023-09-28,ｈｕｉｚｈｏｕｓｈｉｓｈａｎｇｓｈａｎｇｙｕａｎｍａｏｙｉ　ｙｏｕｘｉａｎｇｏｎｇｓｉ,,外国会社等,,,,,,,,ｈｕｉｚｈｏｕｓｈｉｌｏｎｇｆｅｎｇｋｅｄｕ３８ｄｏｎｇ６０１ｆａｎｇ,,,,,,2023-09-28,1,,,,,ホゥイゾオシサンサンユェンマオイユウゲンコウシ,0
1664,7700150120834,新規,0,2023-09-28,2023-09-28,Ｓｈａｎｇｈａｉ　ＱＦＬ　ｔｒａｄｅ　Ｃｏ．，Ｌｔｄ,,外国会社等,,,,,,,,Ｒｏｏｍ　１７１７，Ｎｏ．３３３　Ｊｉｎｇａｎｇ　Ｒｏａｄ，Ｃｈｉｎａ（Ｓｈａｎｇｈａｉ）Ｐｉｌｏｔ　Ｆｒｅｅ　Ｔｒａｄｅ　Ｚｏｎｅ,,,,,,2023-09-28,1,,,,,シャンハイキューエフエルトレードカンパニーリミテッド,0
1672,8010001238787,新規,0,2023-09-28,2023-09-28,正信株式会社,,株式会社,東京都,千代田区,四番町４番地９新東京国際リーガル内,,13,101,1020081,,,,,,,2023-09-28,1,,,,,セイシン,0
1674,8010003041784,新規,0,2023-09-28,2023-09-28,富士製作所合同会社,,合同会社,東京都,文京区,大塚５丁目１８番２５－２０８,,13,105,1120012,,,,,,,2023-09-28,1,,,,,フジセイサクショ,0
1677,8010401177214,新規,0,2023-09-28,2023-09-28,株式会社マイセイ,,株式会社,東京都,港区,北青山１丁目３番１号,,13,103,1070061,,,,,,,2023-09-28,1,,,,,マイセイ,0
1678,8010401177313,新規,0,2023-09-28,2023-09-28,ヒルストン・ジャパン株式会社,,株式会社,東京都,港区,浜松町２丁目２番１５号,,13,103,1050013,,,,,,,2023-09-28,1,,,,,ヒルストンジャパン,0
1679,8010401177420,新規,0,2023-09-28,2023-09-28,株式会社ｊｕｎｉ,,株式会社,東京都,港区,白金台４丁目１５番３号２号室,,13,103,1080071,,,,,,,2023-09-28,1,,,,,ジュニ,0
1683,8010405022507,新規,0,2023-09-28,2023-09-28,フランクフルト特定目的会社,,その他の設立登記法人,東京都,港区,六本木１丁目６番１号泉ガーデンタワー,,13,103,1060032,,,,,,,2023-09-28,1,,,,,フランクフルト,0
1685,8010501051120,新規,0,2023-09-28,2023-09-28,株式会社ＤＩＧ,,株式会社,東京都,台東区,柳橋２丁目２０番１３号,,13,106,1110052,,,,,,,2023-09-28,1,,,,,ディグ,0
1690,8010603010387,新規,0,2023-09-28,2023-09-28,吉本屋不動産合同会社,,合同会社,東京都,墨田区,錦糸４丁目１０番１４－６０３号,,13,107,1300013,,,,,,,2023-09-28,1,,,,,ヨシモトヤフドウサン,0
1691,8010701044907,新規,0,2023-09-28,2023-09-28,株式会社和順,,株式会社,東京都,品川区,西五反田１丁目２６番２号五反田サンハイツ９１１,,13,109,1410031,,,,,,,2023-09-28,1,,,,,ワジュン,0
1695,8010901053889,新規,0,2023-09-28,2023-09-28,株式会社ＯｎＹｏｕｒＭａｒｋ,,株式会社,東京都,世田谷区,桜丘４丁目９－１０ＧｒａｎＤｕｏ千歳船橋Ｖ１０１号室,,13,112,1560054,,,,,,,2023-09-28,1,,,,,オンユアマーク,0
1698,8011001157176,新規,0,2023-09-28,2023-09-28,リンク株式会社,,株式会社,東京都,渋谷区,恵比寿１丁目２１番８号ＶＯＲＴ恵比寿ＩＩＩ２階,00132063,13,113,1500013,,,,,,,2023-09-28,1,,,,,リンク,0
1699,8011001157184,新規,0,2023-09-28,2023-09-28,株式会社ＪＵＳＴ‐ＰＬＡＣＥ,,株式会社,東京都,目黒区,鷹番３丁目１４番１６－４０２号ラフィネジュ学芸大学,,13,110,1520004,,,,,,,2023-09-28,1,,,,,ジャストプレイス,0
1700,8011001157218,新規,0,2023-09-28,2023-09-28,株式会社ＢＡＮＰＵＰ,,株式会社,東京都,渋谷区,恵比寿４丁目２０番３号恵比寿ガーデンプレイスタワー１８階,,13,113,1500013,,,,,,,2023-09-28,1,,,,,バンプップ,0
1708,8011101104516,新規,0,2023-09-28,2023-09-28,株式会社京茶屋,,株式会社,東京都,新宿区,富久町２８番１７号北辰ビル１階,,13,104,1620067,,,,,,,2023-09-28,1,,,,,キョウチャヤ,0
1709,8011101104532,新規,0,2023-09-28,2023-09-28,株式会社フィンプル,,株式会社,東京都,新宿区,大久保１丁目１２番地３カーサ第二新宿７０７号室,,13,104,1690072,,,,,,,2023-09-28,1,,,,,フィンプル,0
1715,8011301029034,新規,0,2023-09-28,2023-09-28,株式会社ジュエルバコ,,株式会社,東京都,杉並区,阿佐谷北１丁目１０番１０号,,13,115,1660001,,,,,,,2023-09-28,1,,,,,ジュエルバコ,0
1716,8011401025486,新規,0,2023-09-28,2023-09-28,株式会社ＴＲ　ｓｍｉｌｅ,,株式会社,東京都,板橋区,宮本町１９－１１,,13,119,1740054,,,,,,,2023-09-28,1,,,,,ティーアールスマイル,0
1718,8011503005774,新規,0,2023-09-28,2023-09-28,合同会社ＩＣＯＩＥ,,合同会社,東京都,荒川区,東尾久１丁目２３番８号,,13,118,1160012,,,,,,,2023-09-28,1,,,,,イコイエ,0
1720,8012301013606,新規,0,2023-09-28,2023-09-28,株式会社ファーストライズ,,株式会社,東京都,町田市,根岸町１０１８番地１７,,13,209,1940034,,,,,,,2023-09-28,1,,,,,ファーストライズ,0
1721,8012303001880,新規,0,2023-09-28,2023-09-28,コバヤシ合同会社,,合同会社,東京都,町田市,真光寺３丁目２４番地２０,,13,209,1950057,,,,,,,2023-09-28,1,,,,,コバヤシ,0
1722,8012401041044,新規,0,2023-09-28,2023-09-28,株式会社シンフォニア,,株式会社,東京都,府中市,紅葉丘２丁目１３番地の１３サンハイツミキＢ－１０７,,13,206,1830004,,,,,,,2023-09-28,1,,,,,シンフォニア,0
1731,8021003013616,新規,0,2023-09-28,2023-09-28,合同会社ｃｌａｓｓｉｃＴ,,合同会社,神奈川県,座間市,相模が丘５丁目４－１８オズコート２１１,,14,216,2520001,,,,,,,2023-09-28,1,,,,,クラシックティ,0
1741,8030001156269,新規,0,2023-09-28,2023-09-28,株式会社ＨＩ‐ＦＩＥＬＤ,,株式会社,埼玉県,さいたま市大宮区,北袋町２丁目３９４番地２,,11,103,3300835,,,,,,,2023-09-28,1,,,,,ハイフィールド,0
1745,8040001130215,新規,0,2023-09-28,2023-09-28,株式会社Ｒ,,株式会社,千葉県,市川市,柏井町３丁目６２０番１号,,12,203,2720802,,,,,,,2023-09-28,1,,,,,アール,0
1746,8040001130272,新規,0,2023-09-28,2023-09-28,ＴＩＮＡ　ＳＥＩＲ　ＴＯＫＹＯ株式会社,,株式会社,千葉県,白井市,富塚字宮ノ前７２６番１,,12,232,2701405,,,,,,,2023-09-28,1,,,,,ティナセイレトウキョウ,0
1747,8040001130280,新規,0,2023-09-28,2023-09-28,ＮＡＦコンサルティング株式会社,,株式会社,千葉県,八千代市,緑が丘西１丁目４番地４シティテラス八千代緑が丘ステーションコート１００９,,12,221,2760040,,,,,,,2023-09-28,1,,,,,エヌエーエフコンサルティング,0
1750,8040003023417,新規,0,2023-09-28,2023-09-28,合同会社新垣電気工業,,合同会社,千葉県,市川市,国分２丁目７番４号ラ・モアレ３号棟,,12,203,2720834,,,,,,,2023-09-28,1,,,,,アラカキデンキコウギョウ,0
1751,8040003023425,新規,0,2023-09-28,2023-09-28,ＡＺ合同会社,,合同会社,千葉県,八街市,八街ろ１４７番地５１,,12,230,2891144,,,,,,,2023-09-28,1,,,,,エイゼット,0
1754,8050003007815,新規,0,2023-09-28,2023-09-28,ＭＥＴＴＯ　ＪＡＰＡＮ合同会社,,合同会社,茨城県,常総市,向石下２６８番地５,,08,211,3002742,,,,,,,2023-09-28,1,,,,,メットジャパン,0
1759,8060005010130,新規,0,2023-09-28,2023-09-28,特定非営利活動法人とちぎ多胎ネット,,その他の設立登記法人,栃木県,小山市,東城南５丁目１８番地１９,,09,208,3230829,,,,,,,2023-09-28,1,,,,,トチギタタイネット,0
1766,8080103002894,新規,0,2023-09-28,2023-09-28,ＪＮＴ合同会社,,合同会社,静岡県,沼津市,幸町１８１番地東海プラント第２ビル２Ｆ,,22,203,4100862,,,,,,,2023-09-28,1,,,,,ジェイエヌティ,0
1771,8110001037865,新規,0,2023-09-28,2023-09-28,株式会社ＧＸテクノロジー,,株式会社,新潟県,南魚沼郡湯沢町,大字土樽２３３番地１,,15,461,9496103,,,,,,,2023-09-28,1,,,,,ジーエックステクノロジー,0
1772,8110003005168,新規,0,2023-09-28,2023-09-28,Ｂａｇｓｙ　Ｍｅ合同会社,,合同会社,新潟県,新潟市中央区,新和２丁目１４番６号,,15,103,9500972,,,,,,,2023-09-28,1,,,,,バグジーミー,0
1779,8120001258394,新規,0,2023-09-28,2023-09-28,ＢＩＺＨＵＢ株式会社,,株式会社,大阪府,大阪市浪速区,元町１丁目５番７号ナンバプラザビル９０９号,,27,111,5560016,,,,,,,2023-09-28,1,,,,,ビズハブ,0
1780,8120001258428,新規,0,2023-09-28,2023-09-28,株式会社ＮＡＯ,,株式会社,大阪府,大阪市中央区,瓦屋町１丁目８番９号,,27,128,5420066,,,,,,,2023-09-28,1,,,,,エヌエーオー,0
1785,8120005023902,新規,0,2023-09-28,2023-09-28,特定非営利活動法人大阪府ウオーキング協会,,その他の設立登記法人,大阪府,大阪市北区,西天満３丁目２番１５号竹田ビル２階,,27,127,5300047,,,,,,,2023-09-28,1,,,,,オオサカフウオーキングキョウカイ,0
1786,8120103005447,新規,0,2023-09-28,2023-09-28,合同会社Ｗｉｎ　ｗｉｎ,,合同会社,大阪府,堺市堺区,七道西町１２番８－１－１０８号,,27,141,5900911,,,,,,,2023-09-28,1,,,,,,0
1788,8120903004838,新規,0,2023-09-28,2023-09-28,ＤＦＫカンパニー合同会社,,合同会社,大阪府,豊中市,曽根西町３丁目４番１３－２０７号,,27,203,5610801,,,,,,,2023-09-28,1,,,,,ディーエフケーカンパニー,0
1789,8120903004846,新規,0,2023-09-28,2023-09-28,合同会社はせがわ不動産,,合同会社,大阪府,茨木市,山手台１丁目３番１２号,,27,211,5670009,,,,,,,2023-09-28,1,,,,,ハセガワフドウサン,0
1791,8122001037415,新規,0,2023-09-28,2023-09-28,株式会社絆,,株式会社,大阪府,東大阪市,若江南町４丁目５番２６号,,27,227,5780943,,,,,,,2023-09-28,1,,,,,キズナ,0
1794,8130001075293,新規,0,2023-09-28,2023-09-28,アイエヌエス・キャピタル株式会社,,株式会社,京都府,京都市上京区,今出川通室町西入堀出シ町２８８番地アトラス京都御所西２０２,,26,102,6020931,,,,,,,2023-09-28,1,,,,,アイエヌエスキャピタル,0
1795,8130001075302,新規,0,2023-09-28,2023-09-28,霖星株式会社,,株式会社,京都府,京都市東山区,豊浦町３５１めぞんＩＣＨＩ３０２号室,,26,105,6050905,,,,,,,2023-09-28,1,,,,,リンセイ,0
1801,8140001131756,新規,0,2023-09-28,2023-09-28,株式会社三村製作所,,株式会社,兵庫県,姫路市,夢前町菅生澗１６１番地１２７,,28,201,6712134,,,,,,,2023-09-28,1,,,,,ミムラセイサクショ,0
1805,8140003019603,新規,0,2023-09-28,2023-09-28,ａｉｒＰＬＡＮ合同会社,,合同会社,兵庫県,姫路市,東辻井４丁目７－１５,,28,201,6700084,,,,,,,2023-09-28,1,,,,,エアープラン,0
1807,8140005026754,新規,0,2023-09-28,2023-09-28,一般社団法人ＭＳＯ,,その他の設立登記法人,兵庫県,芦屋市,大桝町１番２５号アクセシオ芦屋１Ｆ,00132069,28,206,6590066,,,,,,,2023-09-28,1,,,,,エムエスオー,0
1808,8150001026740,新規,0,2023-09-28,2023-09-28,株式会社ＥＡＧＬＥ,,株式会社,奈良県,奈良市,六条西３丁目２０番２６－１８号,,29,201,6308044,,,,,,,2023-09-28,1,,,,,イーグル,0
1809,8160001025361,新規,0,2023-09-28,2023-09-28,Ａｉｌｅ　ｔｏ　Ｙｅｌｌ株式会社,,株式会社,滋賀県,草津市,野村４丁目１０番１９号,,25,206,5250027,,,,,,,2023-09-28,1,,,,,エールトゥーエール,0
1820,8180001158168,新規,0,2023-09-28,2023-09-28,株式会社ローカルカンパニー,,株式会社,愛知県,名古屋市熱田区,大宝１丁目９番８号,,23,109,4560062,,,,,,,2023-09-28,1,,,,,ローカルカンパニー,0
1821,8180001158192,新規,0,2023-09-28,2023-09-28,豊田産業教育株式会社,,株式会社,愛知県,名古屋市東区,東大曽根町３番２１号,,23,102,4610022,,,,,,,2023-09-28,1,,,,,トヨタサンギョウキョウイク,0
1822,8180001158201,新規,0,2023-09-28,2023-09-28,株式会社Ｉ・Ｂ・Ｆ,,株式会社,愛知県,稲沢市,北市場本町２丁目６番地８フレアシェルＫ３０２,,23,220,4928178,,,,,,,2023-09-28,1,,,,,アイビーエフ,0
1830,8180005020373,新規,0,2023-09-28,2023-09-28,医療法人絢南会,,その他の設立登記法人,愛知県,春日井市,大手町４丁目７番地１,,23,206,4860807,,,,,,,2023-09-28,1,,,,,アヤナカイ,0
1834,8190001030755,新規,0,2023-09-28,2023-09-28,小森工業株式会社,,株式会社,三重県,鈴鹿市,高岡台１丁目１１番３号,,24,207,5130019,,,,,,,2023-09-28,1,,,,,コモリコウギョウ,0
1840,8220001025611,新規,0,2023-09-28,2023-09-28,Ｏｒｃｈｅｓｔｒａｔｉｏｎ株式会社,,株式会社,石川県,七尾市,小島町ヌ部３９番地５,,17,202,9260852,,,,,,,2023-09-28,1,,,,,オーケストレーション,0
1845,8240003006335,新規,0,2023-09-28,2023-09-28,合同会社Ｋ．Ｍ．Ｒ,,合同会社,広島県,広島市中区,江波南１丁目１２番９号,,34,101,7300835,,,,,,,2023-09-28,1,,,,,ケーエムアール,0
1856,8290001103170,新規,0,2023-09-28,2023-09-28,株式会社Ｍｕｐｐｉ,,株式会社,福岡県,福岡市中央区,渡辺通２丁目８番２６号,,40,133,8100004,,,,,,,2023-09-28,1,,,,,ムッピ,0
1861,8290003014416,新規,0,2023-09-28,2023-09-28,合同会社ヒロイックデザイン,,合同会社,福岡県,久留米市,国分町１４３０－１２中野第２ビル,,40,203,8390863,,,,,,,2023-09-28,1,,,,,ヒロイックデザイン,0
1865,8310001018622,新規,0,2023-09-28,2023-09-28,扇精光グループ株式会社,,株式会社,長崎県,長崎市,田中町５８５番地５,,42,201,8510134,,,,,,,2023-09-28,1,,,,,オウギセイコウグループ,0
1870,8330003009997,新規,0,2023-09-28,2023-09-28,合同会社宮村電気,,合同会社,熊本県,八代市,鏡町下有佐１３－１,,43,202,8694212,,,,,,,2023-09-28,1,,,,,ミヤムラデンキ,0
1872,8340003004262,新規,0,2023-09-28,2023-09-28,合同会社ＨＡＹＡＴＯ工業,,合同会社,鹿児島県,奄美市,名瀬末広町９－１８－３Ｆ,,46,222,8940027,,,,,,,2023-09-28,1,,,,,ハヤトコウギョウ,0
1873,8350001018585,新規,0,2023-09-28,2023-09-28,株式会社くつろぎ,,株式会社,宮崎県,宮崎市,清水２丁目１番１号森口ビル１Ｆ,,45,201,8800021,,,,,,,2023-09-28,1,,,,,クツロギ,0
1886,8420001018421,新規,0,2023-09-28,2023-09-28,株式会社津軽産直ファーム,,株式会社,青森県,青森市,浪岡大字女鹿沢字東富田１０８番地,,02,201,0381331,,,,,,,2023-09-28,1,,,,,ツガルサンチョクファーム,0
1888,8430001090015,新規,0,2023-09-28,2023-09-28,ｙｅｓ　ｍａｍａ株式会社,,株式会社,北海道,札幌市中央区,南九条西４丁目３－１アムスタワー２７０１,,01,101,0640809,,,,,,,2023-09-28,1,,,,,イエスママ,0
1894,8480001012229,新規,0,2023-09-28,2023-09-28,ＬＥＤ’Ｓ四国株式会社,,株式会社,徳島県,板野郡北島町,鯛浜字川久保８７番地１,,36,402,7710204,,,,,,,2023-09-28,1,,,,,レッズシコク,0
1899,8700150120809,新規,0,2023-09-28,2023-09-28,ｓｈａｎｘｉｍｅｉｙｕａｎｃｈｅｎｓｈａｎｇｍａｏ　ｙｏｕｘｉａｎｇｏｎｇｓｉ,,外国会社等,,,,,,,,Ｒｏｏｍ２５２１　ＪｉｎｙｉｎＢｕｉｌｄｉｎｇ　ＢａｙｉＳｔｒｅｅｔ　ＬｉａｎｈｕａｃｈｉＳｔｒｅｅｔ　ＬｉｓｈｉＤｉｓｔｒｉｃｔ　ＬｕｌｉａｎｇＣｉｔｙ　ＳｈａｎｘｉＰｒｏｖｉｎｃｅ，Ｃｈｉｎａ,,,,,,2023-09-28,1,,,,,サンシメイユェンチェンシャンマオユウゲンコウシ,0
1900,8700150120825,新規,0,2023-09-28,2023-09-28,ｓｈｅｎｚｈｅｎｓｈｉｊｉｎｔａｉｙａｎｇｄｉａｎｚｉ　ｙｏｕｘｉａｎｇｏｎｇｓｉ,,外国会社等,,,,,,,,Ｎｏ．４９ＤａｂａｏＲｏａｄ　ＤａｌａｎｇＣｏｍｍｕｎｉｔｙ　Ｘｉｎ’ａｎＳｔｒｅｅｔ　Ｂａｏ’ａｎＤｉｓｔｒｉｃｔ　ＳｈｅｎｚｈｅｎＣｉｔｙ　ＺｈｏｎｇｌｉＥｎｔｒｅｐｒｅｎｅｕｒｓｈｉｐＣｏｍｍｕｎｉｔｙ　ＨｏｎｇｌａｎｇＮｏｒｔｈ２０４,,,,,,2023-09-28,1,,,,,シンセンシジンタイヤンデンシユウゲンコウシ,0
1901,8700150120833,新規,0,2023-09-28,2023-09-28,ｑｉｎｇｄａｏｄｏｎｇｆａｎｇｘｉａｎｆｅｎｇｆａｎｇｚｈｉ　ｙｏｕｘｉａｎｇｏｎｇｓｉ,,外国会社等,,,,,,,,ｈｕａｎｇｄａｏｑｕ　ｌｉｎｇａｎｇｃｈａｎｙｅｊｉａｇｏｎｇｑｕ　ｑｉｎｇｄａｏｓｈｉ,,,,,,2023-09-28,1,,,,,チンダオドンファンセンフェンファンジユウゲンコウシ,0
1902,8700150120841,新規,0,2023-09-28,2023-09-28,ｇｕａｎｇｚｈｏｕｈａｏｘｉａｏｆａｎｇｚｈｉ　ｙｏｕｘｉａｎｇｏｎｇｓｉ,,外国会社等,,,,,,,,ｇｕａｎｇｚｈｏｕｓｈｉｈａｉｚｈｕｑｕｗｕｃｕｎｓｕｚｈｕｇａｎｇ３１ｈａｏｓｈｏｕｚｈｉ７ｃｅｎｇｚｉｂｉａｎｈａｏ１０１９ｆａｎｇ,,,,,,2023-09-28,1,,,,,コウシュウハオシャオファンジユウゲンコウシ,0
1912,9010001238745,新規,0,2023-09-28,2023-09-28,株式会社日洋,,株式会社,東京都,中央区,日本橋堀留町２丁目１番７－３０６号,,13,102,1030012,,,,,,,2023-09-28,1,,,,,ニチヨウ,0
1914,9010003041783,新規,0,2023-09-28,2023-09-28,トライアングルテック合同会社,,合同会社,東京都,中央区,銀座１丁目１２－４Ｎ＆ＥＢＬＤ．７階,,13,102,1040061,,,,,,,2023-09-28,1,,,,,トライアングルテック,0
1924,9010403030956,新規,0,2023-09-28,2023-09-28,合同会社ヤマブキ,,合同会社,東京都,港区,南青山３丁目１番１６号青山丸竹ビル６Ｆ,,13,103,1070062,,,,,,,2023-09-28,1,,,,,ヤマブキ,0
1925,9010405022506,新規,0,2023-09-28,2023-09-28,ハノーファー特定目的会社,,その他の設立登記法人,東京都,港区,六本木１丁目６番１号泉ガーデンタワー,,13,103,1060032,,,,,,,2023-09-28,1,,,,,ハノーファー,0
1926,9010501051128,新規,0,2023-09-28,2023-09-28,丸新工業株式会社,,株式会社,東京都,台東区,松が谷２丁目３番２号土屋ＴＨビル５０１号室,,13,106,1110036,,,,,,,2023-09-28,1,,,,,マルシンコウギョウ,0
1928,9010603010386,新規,0,2023-09-28,2023-09-28,ウエイト合同会社,,合同会社,東京都,江東区,永代１丁目３番４－４０２号,,13,108,1350034,,,,,,,2023-09-28,1,,,,,ウエイト,0
1930,9010701044906,新規,0,2023-09-28,2023-09-28,スカイラインジャパン株式会社,,株式会社,東京都,品川区,西五反田１丁目２６番２号五反田サンハイツ９１１,,13,109,1410031,,,,,,,2023-09-28,1,,,,,スカイラインジャパン,0
1931,9010703006887,新規,0,2023-09-28,2023-09-28,日本自然エネルギー研究所ホールディングス合同会社,,合同会社,東京都,品川区,上大崎３丁目１番１号目黒セントラルスクエア１５階,,13,109,1410021,,,,,,,2023-09-28,1,,,,,ニホンシゼンエネルギーケンキュウショホールディングス,0
1934,9010903008477,新規,0,2023-09-28,2023-09-28,合同会社ハロウレザージャパン,,合同会社,東京都,世田谷区,松原２丁目１９番３号ピーアス明大前３０６,,13,112,1560043,,,,,,,2023-09-28,1,,,,,ハロウレザージャパン,0
1947,9011003017609,新規,0,2023-09-28,2023-09-28,ＨＥＲＯ　Ｐｈａｒｍ　Ｊａｐａｎ合同会社,,合同会社,東京都,渋谷区,神宮前６丁目２３番４号桑野ビル２階,,13,113,1500001,,,,,,,2023-09-28,1,,,,,ヒーローファームジャパン,0
1950,9011101104531,新規,0,2023-09-28,2023-09-28,Ｕｎｉｔｙ　Ｗｅａｌｔｈ　ｍａｎａｇｅｍｅｎｔ株式会社,,株式会社,東京都,新宿区,新宿５丁目１８番２０号ルックハイツ新宿８０３号室,,13,104,1600022,,,,,,,2023-09-28,1,,,,,ユニティウェルスマネジメント,0
1955,9011401025485,新規,0,2023-09-28,2023-09-28,株式会社ユニオンシード,,株式会社,東京都,板橋区,中丸町４７番１０号,,13,119,1730026,,,,,,,2023-09-28,1,,,,,ユニオンシード,0
1961,9011805003302,新規,0,2023-09-28,2023-09-28,一般社団法人つくしＣｈｉｌｄＣａｒｅ,,その他の設立登記法人,東京都,足立区,島根１丁目１１番５号,,13,121,1210815,,,,,,,2023-09-28,1,,,,,ツクシチャイルドケア,0
1965,9012401041043,新規,0,2023-09-28,2023-09-28,株式会社ワンノック,,株式会社,東京都,調布市,東つつじケ丘２丁目５番１号,,13,208,1820005,,,,,,,2023-09-28,1,,,,,ワンノック,0
1966,9012403006201,新規,0,2023-09-28,2023-09-28,合同会社出雲コンサルタント,,合同会社,東京都,三鷹市,井の頭２丁目３４番８号,,13,204,1810001,,,,,,,2023-09-28,1,,,,,イズモコンサルタント,0
1968,9012803003194,新規,0,2023-09-28,2023-09-28,合同会社わたがし,,合同会社,東京都,日野市,多摩平３丁目１３番地の１３,,13,212,1910062,,,,,,,2023-09-28,1,,,,,ワタガシ,0
1969,9013303006811,新規,0,2023-09-28,2023-09-28,合同会社Ｔｒｉｇｇｅｒ,,合同会社,東京都,豊島区,南長崎４丁目２９－５Ｂ１,,13,116,1710052,,,,,,,2023-09-28,1,,,,,トリガー,0
1976,9020001153670,新規,0,2023-09-28,2023-09-28,株式会社入船ホールディングス,,株式会社,神奈川県,横浜市港北区,綱島西５丁目２３番２７号,,14,109,2230053,,,,,,,2023-09-28,1,,,,,イリフネホールディングス,0
1977,9020001153679,新規,0,2023-09-28,2023-09-28,リニューアルエンジ株式会社,,株式会社,神奈川県,横浜市西区,浅間町１丁目４番３号ウィザードビル４０２,,14,103,2200072,,,,,,,2023-09-28,1,,,,,リニューアルエンジ,0
1978,9020001153695,新規,0,2023-09-28,2023-09-28,瀬戸海株式会社,,株式会社,神奈川県,横浜市鶴見区,豊岡町２２－２８第１０高橋ビル５階Ａ,,14,101,2300062,,,,,,,2023-09-28,1,,,,,セトウミ,0
1982,9020003024597,新規,0,2023-09-28,2023-09-28,合同会社ａｃｔｓｉａ,,合同会社,神奈川県,横浜市港北区,日吉本町１丁目２４番１７,,14,109,2230062,,,,,,,2023-09-28,1,,,,,アクトシア,0
1988,9021001080244,新規,0,2023-09-28,2023-09-28,株式会社成南,,株式会社,神奈川県,藤沢市,長後６６８番地１号サザン長後ビル２０３号,,14,205,2520801,,,,,,,2023-09-28,1,,,,,,0
1989,9021001080285,新規,0,2023-09-28,2023-09-28,Ｒ‐ＬＩＮＫ株式会社,,株式会社,神奈川県,厚木市,愛名１２１３番地３,,14,212,2430038,,,,,,,2023-09-28,1,,,,,アールリンク,0
1991,9021003013615,新規,0,2023-09-28,2023-09-28,合同会社オカダ,,合同会社,神奈川県,藤沢市,長後１２１７番地,,14,205,2520801,,,,,,,2023-09-28,1,,,,,オカダ,0
2001,9030001156045,新規,0,2023-09-28,2023-09-28,株式会社Ｋｏｂａｋｅｎ,,株式会社,埼玉県,和光市,下新倉２丁目９－２０，グランメリー４０３,,11,229,3510111,,,,,,,2023-09-28,1,,,,,コバケン,0
2004,9030003022534,新規,0,2023-09-28,2023-09-28,合同会社イービージャパン,,合同会社,埼玉県,朝霞市,溝沼２丁目７－１４－３,,11,227,3510023,,,,,,,2023-09-28,1,,,,,イービージャパン,0
2005,9030003022550,新規,0,2023-09-28,2023-09-28,合同会社Ｋｉｎｄ　ｃａｒｅ,,合同会社,埼玉県,三郷市,戸ケ崎２丁目１２８番地,,11,237,3410044,,,,,,,2023-09-28,1,,,,,カインドケア,0
2006,9030003022658,新規,0,2023-09-28,2023-09-28,博旭貿易合同会社,,合同会社,埼玉県,さいたま市岩槻区,大字小溝１３６３番地,,11,110,3390003,,,,,,,2023-09-28,1,,,,,ヒロキボウエキ,0
2019,9040001130255,新規,0,2023-09-28,2023-09-28,大羊株式会社,,株式会社,千葉県,船橋市,前原西２丁目１０番２号,,12,204,2740825,,,,,,,2023-09-28,1,,,,,タイヨウ,0
2020,9040001130263,新規,0,2023-09-28,2023-09-28,株式会社サン・グレイス,,株式会社,千葉県,鎌ケ谷市,鎌ケ谷３丁目１番１号Ｍビル４Ｆ,,12,224,2730105,,,,,,,2023-09-28,1,,,,,サングレイス,0
2021,9040001130271,新規,0,2023-09-28,2023-09-28,株式会社ニューリバー,,株式会社,千葉県,八千代市,萱田２０番地５,,12,221,2760043,,,,,,,2023-09-28,1,,,,,ニューリバー,0
2022,9040001130296,新規,0,2023-09-28,2023-09-28,株式会社ＧＬＲＯＷ,,株式会社,千葉県,八街市,富山１３１４番地３００５,,12,230,2891141,,,,,,,2023-09-28,1,,,,,グロウ,0
2027,9050003007822,新規,0,2023-09-28,2023-09-28,合同会社トータルサポート,,合同会社,茨城県,つくば市,上横場１３９２番地３,,08,220,3050854,,,,,,,2023-09-28,1,,,,,トータルサポート,0
2032,9060001036384,新規,0,2023-09-28,2023-09-28,株式会社Ｅｂａｄａｈ　Ｇｒｏｕｐ,,株式会社,栃木県,宇都宮市,宿郷２丁目１０番１６号外池宿郷ビル２階,,09,201,3210945,,,,,,,2023-09-28,1,,,,,エバダグループ,0
2046,9110001037864,新規,0,2023-09-28,2023-09-28,株式会社マツナガ熔接,,株式会社,新潟県,三条市,嘉坪川２丁目１２番３号シャーメゾンリザイアＡ１０１,,15,204,9550056,,,,,,,2023-09-28,1,,,,,マツナガヨウセツ,0
2059,9120001258385,新規,0,2023-09-28,2023-09-28,株式会社Ｒｅｆｉｎｅ,,株式会社,大阪府,枚方市,牧野阪２丁目１９番１６号,,27,210,5731146,,,,,,,2023-09-28,1,,,,,リファイン,0
2064,9120101068239,新規,0,2023-09-28,2023-09-28,株式会社南工業,,株式会社,大阪府,藤井寺市,春日丘１丁目１番２８号ジュンコビル２Ｆ２１０,,27,226,5830026,,,,,,,2023-09-28,1,,,,,ミナミコウギョウ,0
2065,9120901048084,新規,0,2023-09-28,2023-09-28,リンク株式会社,,株式会社,大阪府,吹田市,広芝町１０番８号,,27,205,5640052,,,,,,,2023-09-28,1,,,,,リンク,0
2066,9120903004845,新規,0,2023-09-28,2023-09-28,ＲＥＰＵＴＯＲＡ合同会社,,合同会社,大阪府,豊中市,庄内西町３丁目１４番１３号,,27,203,5610832,,,,,,,2023-09-28,1,,,,,リプトラ,0
2068,9122001037422,新規,0,2023-09-28,2023-09-28,株式会社リノプラス,,株式会社,大阪府,東大阪市,稲葉４丁目６番１１号,,27,227,5780925,,,,,,,2023-09-28,1,,,,,リノプラス,0
2069,9130001075301,新規,0,2023-09-28,2023-09-28,Ｖｅｒｔｉｐｏｒｔ株式会社,,株式会社,京都府,京都市伏見区,向島柳島１番地,,26,109,6120000,,,,,,,2023-09-28,1,,,,,バーティポート,0
2070,9130001075318,新規,0,2023-09-28,2023-09-28,株式会社ニカファーマシー,,株式会社,京都府,船井郡京丹波町,和田大下４番１号,,26,407,6220311,,,,,,,2023-09-28,1,,,,,ニカファーマシー,0
2072,9140001131755,新規,0,2023-09-28,2023-09-28,株式会社小牧モータース,,株式会社,兵庫県,多可郡多可町,八千代区俵田３３７番地,,28,365,6770113,,,,,,,2023-09-28,1,,,,,コマキモータース,0
2075,9140003019602,新規,0,2023-09-28,2023-09-28,合同会社ラックス,,合同会社,兵庫県,明石市,魚住町西岡５０５番地の５－３階,,28,203,6740084,,,,,,,2023-09-28,1,,,,,ラックス,0
2078,9160001025360,新規,0,2023-09-28,2023-09-28,株式会社Ａｇａｔｔｏ,,株式会社,滋賀県,守山市,勝部３丁目１３番９号,,25,207,5240041,,,,,,,2023-09-28,1,,,,,アガット,0
2085,9180001158183,新規,0,2023-09-28,2023-09-28,Ａｌｅａ　ｊａｃｔａ　ｅｓｔ株式会社,,株式会社,愛知県,名古屋市中村区,上石川町２丁目５０番地,,23,105,4530835,,,,,,,2023-09-28,1,,,,,アーレアヤクタエスト,0
2086,9180001158191,新規,0,2023-09-28,2023-09-28,株式会社ＬＨＦ,,株式会社,愛知県,一宮市,島村字下老光寺１０５番地２－２階,,23,203,4910121,,,,,,,2023-09-28,1,,,,,エルエイチエフ,0
2087,9180001158209,新規,0,2023-09-28,2023-09-28,株式会社ケア・フォレスト,,株式会社,愛知県,名古屋市北区,大杉１丁目２番４号,,23,103,4620837,,,,,,,2023-09-28,1,,,,,ケアフォレスト,0
2090,9180003025794,新規,0,2023-09-28,2023-09-28,合同会社Ｃｒａｄｅｔｓ,,合同会社,愛知県,名古屋市中村区,名駅３丁目４－１０アルティメイト名駅１ｓｔ２階,,23,105,4500002,,,,,,,2023-09-28,1,,,,,クラデッツ,0
2096,9190001030754,新規,0,2023-09-28,2023-09-28,ＲＭ株式会社,,株式会社,三重県,津市,藤方２４７８番地５,,24,201,5140815,,,,,,,2023-09-28,1,,,,,アールエム,0
2100,9190005011866,新規,0,2023-09-28,2023-09-28,行政書士法人ハーブス,,その他の設立登記法人,三重県,桑名市,新西方６丁目１３１番地,,24,205,5110863,,,,,,,2023-09-28,1,,,,,ハーブス,0
2102,9200001041758,新規,0,2023-09-28,2023-09-28,株式会社古川マシナリーワークス,,株式会社,岐阜県,美濃加茂市,山之上町３４１５番地４,,21,211,5050003,,,,,,,2023-09-28,1,,,,,フルカワマシナリーワークス,0
2109,9250001020294,新規,0,2023-09-28,2023-09-28,株式会社Ｉｔｓｕｋｉ,,株式会社,山口県,岩国市,麻里布町１丁目５番３２号,,35,208,7400018,,,,,,,2023-09-28,1,,,,,イツキ,0
2124,9310001018621,新規,0,2023-09-28,2023-09-28,株式会社ＷＩＮＧ,,株式会社,長崎県,佐世保市,柚木元町２５５４番地１シャルムメゾン柚木１０２号室,,42,202,8570115,,,,,,,2023-09-28,1,,,,,ウィング,0
2148,9430001090063,新規,0,2023-09-28,2023-09-28,株式会社導一,,株式会社,北海道,札幌市中央区,南一条西２４丁目１番１７号,,01,101,0640801,,,,,,,2023-09-28,1,,,,,ミチイ,0
2149,9430005014794,新規,0,2023-09-28,2023-09-28,医療法人社団アイリス,,その他の設立登記法人,北海道,岩見沢市,九条西１０丁目１番３４,,01,210,0680029,,,,,,,2023-09-28,1,,,,,アイリス,0
2150,9460003000967,新規,0,2023-09-28,2023-09-28,合同会社ＡＴＯＡ,,合同会社,北海道,釧路市,富士見２丁目５番６号,,01,206,0850832,,,,,,,2023-09-28,1,,,,,アトア,0
2152,9480001012228,新規,0,2023-09-28,2023-09-28,株式会社ＡＱＵＡ　ＢＡＳＥ,,株式会社,徳島県,板野郡松茂町,広島字南ノ川６２番地２５,,36,401,7710220,,,,,,,2023-09-28,1,,,,,アクアベース,0
2155,9700150120808,新規,0,2023-09-28,2023-09-28,ｓｈｅｎｚｈｅｎｂｏｒｕｉｓｉｋｅｊｉ　ｙｏｕｘｉａｎｇｏｎｇｓｉ,,外国会社等,,,,,,,,ＤａｋａｎｇＣｏｍｍｕｎｉｔｙ　ＹｕａｎｓｈａｎＳｔｒｅｅｔ４０５　４ｔｈＦｌｏｏｒ　Ｎｏ．１８ＢａｄｏｕＲｏａｄ　ＤａｗａｎＶｉｌｌａｇｅ　Ｓｈｅｎｚｈｅｎ　Ｌｏｎｇｇａｎｇ，Ｃｈｉｎａ,,,,,,2023-09-28,1,,,,,シンセンボルイシカギユウゲンコウシ,0
2156,9700150120832,新規,0,2023-09-28,2023-09-28,Ｓｈｅｎｚｈｅｎｓｈｉ　ＺｈｉＣｈｕａｎｇＦｅｎｇＤａ　Ｔｅｃｈｎｏｌｏｇｙ　Ｃｏ．，Ｌｔｄ．,,外国会社等,,,,,,,,４０１　Ｎｏ．５ＮａｎｙｕａｎＶｉｌｌａｇｅＥａｓｔＳｔｒｅｅｔ　ＮａｎｙｕａｎＣｏｍｍｕｎｉｔｙ　ＮａｎｓｈａｎＳｔｒｅｅｔ　ＮａｎｓｈａｎＤｉｓｔｒｉｃｔ　ＳｈｅｎＺｈｅｎ,,,,,,2023-09-28,1,,,,,シンセンシジツアンフェンダテクノロジーカンパニーリミテッド,0
2157,9700150120840,新規,0,2023-09-28,2023-09-28,ｄｏｎｇｇｕａｎｓｈｉｘｉｎｊｉｎｇｊｉｅｓｈａｎｇｍａｏ　ｙｏｕｘｉａｎｇｏｎｇｓｉ,,外国会社等,,,,,,,,ｂｅｉｚｈａ　ｄｏｎｇｆａｎｇｃｕｎ　ｓｈｉｅｒｘｉａｎｇ　１７ｈａｏ２０１ｆａｎｇ　Ｄｏｎｇｇｕａｎｓｈｉ　Ｈｕｍｅｎｚｈｅｎ　Ｇｕａｎｇｄｏｎｇｓｈｅｎｇ,,,,,,2023-09-28,1,,,,,トウカンシシンジンジエシャンマオユウゲンコウシ,0
