sequenceNumber,corporateNumber,process,correct,updateDate,changeDate,name,nameImageId,kind,prefectureName,cityName,streetNumber,addressImageId,prefectureCode,cityCode,postCode,addressOutside,addressOutsideImageId,closeDate,closeCause,successorCorporateNumber,changeCause,assignmentDate,latest,enName,enPrefectureName,enCityName,enAddressOutside,furigana,hihyoji
16,1010003044265,新規,0,2024-07-09,2024-07-09,合同会社ＧＲＥＩＧＥ　ＨＯＵＳＥ,,合同会社,東京都,中央区,築地４丁目３－８登喜和ビル５階,,13,102,1040045,,,,,,,2024-07-09,1,,,,,グレージュハウス,0
17,1010003044273,新規,0,2024-07-09,2024-07-09,サファイアツー合同会社,,合同会社,東京都,中央区,日本橋１丁目４番１号日本橋一丁目ビルディング,,13,102,1030027,,,,,,,2024-07-09,1,,,,,サファイアツー,0
18,1010005038488,新規,0,2024-07-09,2024-07-09,一般社団法人こころらいふサポート,,その他の設立登記法人,東京都,千代田区,神田多町２丁目９番地６田中ビルディング３階,,13,101,1010046,,,,,,,2024-07-09,1,,,,,ココロライフサポート,0
26,1010501052562,新規,0,2024-07-09,2024-07-09,匠の心株式会社,,株式会社,東京都,台東区,浅草橋２丁目２９－１４長島エレガンス第６ビル３Ｆ,,13,106,1110053,,,,,,,2024-07-09,1,,,,,タクミノココロ,0
27,1010503007498,新規,0,2024-07-09,2024-07-09,ＪＫＫ　Ｔｅｃｈｎｏｌｏｇｉｅｓ合同会社,,合同会社,東京都,台東区,蔵前３丁目１番１３－７０１号フォンテーヌ蔵前,,13,106,1110051,,,,,,,2024-07-09,1,,,,,ジェーケーケーテクノロジーズ,0
32,1010901055603,新規,0,2024-07-09,2024-07-09,六歩株式会社,,株式会社,東京都,世田谷区,太子堂２丁目１７－５佐藤ビル３階,,13,112,1540004,,,,,,,2024-07-09,1,,,,,ロッポ,0
42,1011101107995,新規,0,2024-07-09,2024-07-09,株式会社Ｉｓｈｔａｒ,,株式会社,東京都,新宿区,新宿１丁目３６－２新宿第七葉山ビル３Ｆ,,13,104,1600022,,,,,,,2024-07-09,1,,,,,イシュタル,0
44,1011103014645,新規,0,2024-07-09,2024-07-09,合同会社ａｍｉきずな,,合同会社,東京都,新宿区,新宿５丁目１４番１２号新宿三丁目オフィス４０８号,,13,104,1600022,,,,,,,2024-07-09,1,,,,,アミキズナ,0
45,1011103014661,新規,0,2024-07-09,2024-07-09,ＣＳ東京今井ＥＳＳ１合同会社,,合同会社,東京都,新宿区,西新宿２丁目１番１号新宿三井ビル４３階,,13,104,1600023,,,,,,,2024-07-09,1,,,,,シーエストウキョウイマイイーエスエスイチ,0
46,1011203004439,新規,0,2024-07-09,2024-07-09,合同会社セッション,,合同会社,東京都,中野区,新井３丁目１２番７号,,13,114,1650026,,,,,,,2024-07-09,1,,,,,セッション,0
52,1011403004437,新規,0,2024-07-09,2024-07-09,ｉｔｏｇｅｎ合同会社,,合同会社,東京都,板橋区,常盤台４丁目２５－２－１０１,,13,119,1740071,,,,,,,2024-07-09,1,,,,,イトゲン,0
60,1011601027883,新規,0,2024-07-09,2024-07-09,株式会社ＹＭＫ,,株式会社,東京都,練馬区,三原台２丁目９番２４号,,13,120,1770031,,,,,,,2024-07-09,1,,,,,ワイエムケイ,0
62,1011603004377,新規,0,2024-07-09,2024-07-09,合同会社Ｒｅ・Ｂｉｒｔｈ,,合同会社,東京都,練馬区,練馬１丁目３番地１０号,,13,120,1760001,,,,,,,2024-07-09,1,,,,,リバース,0
65,1012401042073,新規,0,2024-07-09,2024-07-09,株式会社アースコネクト,,株式会社,東京都,三鷹市,北野３丁目９番９号,,13,204,1810003,,,,,,,2024-07-09,1,,,,,アースコネクト,0
73,1013301052773,新規,0,2024-07-09,2024-07-09,川東株式会社,,株式会社,東京都,豊島区,池袋１丁目８番４号白ゆり荘２０１号,,13,116,1700014,,,,,,,2024-07-09,1,,,,,カワトウ,0
77,1020001157927,新規,0,2024-07-09,2024-07-09,株式会社創造屋,,株式会社,神奈川県,横浜市旭区,今宿町２６７６番地１１０,,14,112,2410813,,,,,,,2024-07-09,1,,,,,ソウゾウヤ,0
78,1020001158041,新規,0,2024-07-09,2024-07-09,株式会社浜達,,株式会社,神奈川県,横浜市南区,南太田４丁目８番１２号,,14,105,2320006,,,,,,,2024-07-09,1,,,,,ハマタツ,0
86,1030001161226,新規,0,2024-07-09,2024-07-09,株式会社しのり,,株式会社,埼玉県,越谷市,千間台西４丁目３番地４４,,11,222,3430041,,,,,,,2024-07-09,1,,,,,シノリ,0
87,1030001161300,新規,0,2024-07-09,2024-07-09,グッドフィーリング株式会社,,株式会社,埼玉県,川口市,芝新町４番８号ＵＲＢＡＮＦＯＲＵＭ蕨,,11,203,3330851,,,,,,,2024-07-09,1,,,,,グッドフィーリング,0
88,1030001161333,新規,0,2024-07-09,2024-07-09,ＬＥ‐ＪａｐａｎＷｏｒｋｓ株式会社,,株式会社,埼玉県,越谷市,蒲生茜町１８－３－２階,,11,222,3430843,,,,,,,2024-07-09,1,,,,,エルイージャパンワークス,0
95,1030003024661,新規,0,2024-07-09,2024-07-09,合同会社イロドリ,,合同会社,埼玉県,川口市,元郷２丁目１５番１－１２１３号,,11,203,3320011,,,,,,,2024-07-09,1,,,,,イロドリ,0
96,1030003024694,新規,0,2024-07-09,2024-07-09,合同会社ｗｅｅｄｓ,,合同会社,埼玉県,春日部市,藤塚１３８９番地１,,11,214,3440011,,,,,,,2024-07-09,1,,,,,ウィーズ,0
108,1040003025378,新規,0,2024-07-09,2024-07-09,合同会社マメゼン,,合同会社,千葉県,市川市,東菅野２丁目１８番１１号,,12,203,2720823,,,,,,,2024-07-09,1,,,,,マメゼン,0
111,1050001055079,新規,0,2024-07-09,2024-07-09,株式会社ＴＫコンストラクト,,株式会社,茨城県,日立市,東大沼町４丁目８番１２号,,08,202,3160023,,,,,,,2024-07-09,1,,,,,ティーケーコンストラクト,0
115,1050003008506,新規,0,2024-07-09,2024-07-09,合同会社Ｓｐａｒｔａｎ　Ｅｎｅｒｇｙ,,合同会社,茨城県,つくば市,吾妻１丁目１６番地２,,08,220,3050031,,,,,,,2024-07-09,1,,,,,スパルタンエナジー,0
119,1070001041944,新規,0,2024-07-09,2024-07-09,シンタク不動産株式会社,,株式会社,群馬県,前橋市,荻窪町３１９番地５,,10,201,3710001,,,,,,,2024-07-09,1,,,,,シンタクフドウサン,0
122,1080001026374,新規,0,2024-07-09,2024-07-09,株式会社鈴桂,,株式会社,静岡県,藤枝市,音羽町２丁目１２番５号,,22,214,4260087,,,,,,,2024-07-09,1,,,,,スズケイ,0
125,1080101024880,新規,0,2024-07-09,2024-07-09,株式会社ＮＡＫＡＭＵＲＡ,,株式会社,静岡県,伊豆市,筏場８６番地,,22,222,4102516,,,,,,,2024-07-09,1,,,,,ナカムラ,0
131,1100001037625,新規,0,2024-07-09,2024-07-09,株式会社樹あん,,株式会社,長野県,大町市,大町７６３１番地,,20,212,3980002,,,,,,,2024-07-09,1,,,,,ジュアン,0
132,1100001037633,新規,0,2024-07-09,2024-07-09,株式会社ＪＲ東日本企画ＰＲＯＨＯＵＳＥ,,株式会社,長野県,塩尻市,大門一番町７番,,20,215,3990736,,,,,,,2024-07-09,1,,,,,ジェイアールヒガシニホンキカクプロハウス,0
133,1100001037641,新規,0,2024-07-09,2024-07-09,株式会社ＲＩＣＨ　ｇｌｏｂａｌ　ｗｏｒｋｓ．,,株式会社,長野県,松本市,中央１丁目２３番２号Ｍウイング北棟１Ｆ,,20,202,3900811,,,,,,,2024-07-09,1,,,,,リッチグローバルワークス,0
134,1100003007642,新規,0,2024-07-09,2024-07-09,合同会社Ｓ．Ｔ,,合同会社,長野県,長野市,大字高田１８５３番地１,,20,201,3810034,,,,,,,2024-07-09,1,,,,,エスティー,0
138,1110001038556,新規,0,2024-07-09,2024-07-09,株式会社かわたれ,,株式会社,新潟県,長岡市,土合４丁目１番１１号,,15,202,9400043,,,,,,,2024-07-09,1,,,,,カワタレ,0
146,1120001266593,新規,0,2024-07-09,2024-07-09,株式会社ｐａｋｉｒａ,,株式会社,大阪府,大阪市淀川区,西中島４丁目１３番１２号,,27,123,5320011,,,,,,,2024-07-09,1,,,,,パキラ,0
149,1120003026995,新規,0,2024-07-09,2024-07-09,合同会社ホコリドーム,,合同会社,大阪府,大阪市東成区,大今里１丁目３１－１２アクセル今里１０２号室,,27,115,5370012,,,,,,,2024-07-09,1,,,,,ホコリドーム,0
156,1120103005940,新規,0,2024-07-09,2024-07-09,合同会社鳳,,合同会社,大阪府,堺市西区,平岡町２７９番地６,,27,144,5938307,,,,,,,2024-07-09,1,,,,,オオトリ,0
157,1120105009873,新規,0,2024-07-09,2024-07-09,一般社団法人日本＿蛋協会,00135516,その他の設立登記法人,大阪府,泉佐野市,鶴原１丁目３番１９号,,27,213,5980071,,,,,,,2024-07-09,1,,,,,ニホングァンダンキョウカイ,0
161,1120901049445,新規,0,2024-07-09,2024-07-09,株式会社ｔｗｏＳＭＩＬＥ,,株式会社,大阪府,茨木市,大手町９－２１マリンビル３階,,27,211,5670883,,,,,,,2024-07-09,1,,,,,トゥースマイル,0
163,1122001038238,新規,0,2024-07-09,2024-07-09,シンリゾホールディングス株式会社,,株式会社,大阪府,東大阪市,菱江３丁目１０番３１号,,27,227,5780984,,,,,,,2024-07-09,1,,,,,シンリゾホールディングス,0
174,1140001135037,新規,0,2024-07-09,2024-07-09,ｅｎ‐ｃｏｕｎｔｅｒ株式会社,,株式会社,兵庫県,宝塚市,逆瀬川２丁目７番１７－２号,,28,214,6650035,,,,,,,2024-07-09,1,,,,,エンカウンター,0
177,1160003003223,新規,0,2024-07-09,2024-07-09,合同会社アンシャルサービス,,合同会社,滋賀県,大津市,石居３丁目３番１９号,,25,201,5202272,,,,,,,2024-07-09,1,,,,,アンシャルサービス,0
189,1180301038794,新規,0,2024-07-09,2024-07-09,大西工業株式会社,,株式会社,愛知県,刈谷市,築地町３丁目３１番地２シンプルタウンＢ１号,,23,210,4480011,,,,,,,2024-07-09,1,,,,,オオニシコウギョウ,0
202,1230001020428,新規,0,2024-07-09,2024-07-09,株式会社ＴＴＬ,,株式会社,富山県,富山市,堀川町２７６番地,,16,201,9398072,,,,,,,2024-07-09,1,,,,,ティーティーエル,0
208,1240005015794,新規,0,2024-07-09,2024-07-09,社会保険労務士法人福場・後藤事務所,,その他の設立登記法人,広島県,福山市,東深津町３丁目１８番３１号,,34,207,7210974,,,,,,,2024-07-09,1,,,,,フクバゴトウジムショ,0
215,1260003004748,新規,0,2024-07-09,2024-07-09,合同会社八十七鈴,,合同会社,岡山県,玉野市,西田井地２１６３,,33,204,7060313,,,,,,,2024-07-09,1,,,,,ハチジュウナナリン,0
216,1260003004772,新規,0,2024-07-09,2024-07-09,合同会社六十七鈴,,合同会社,岡山県,岡山市東区,金岡東町１丁目５番６号マリーアンジュＩＩＡ２０１,00135523,33,103,7048194,,,,,,,2024-07-09,1,,,,,ロクジュウナナリン,0
221,1290001106270,新規,0,2024-07-09,2024-07-09,福発資産管理株式会社,,株式会社,福岡県,福岡市中央区,白金２丁目４番２８－１０７号,,40,133,8100012,,,,,,,2024-07-09,1,,,,,フクハツシサンカンリ,0
222,1290001106411,新規,0,2024-07-09,2024-07-09,株式会社ｏｎｔｓｕｇｉ,,株式会社,福岡県,福岡市博多区,奈良屋町１４－３ルイマーブル奈良屋８０３,,40,132,8120023,,,,,,,2024-07-09,1,,,,,オンツギ,0
224,1290801030694,新規,0,2024-07-09,2024-07-09,株式会社エクステリアＫＯＵＤＡ,,株式会社,福岡県,北九州市小倉南区,石田町３番２６号,,40,107,8020838,,,,,,,2024-07-09,1,,,,,エクステリアコウダ,0
238,1370003006667,新規,0,2024-07-09,2024-07-09,合同会社ＳＯＹＡＮＩ,,合同会社,宮城県,仙台市太白区,柳生４丁目４番１２号,,04,104,9811106,,,,,,,2024-07-09,1,,,,,ソヤニ,0
241,1380001034652,新規,0,2024-07-09,2024-07-09,株式会社茂呂竹,,株式会社,福島県,田村市,船引町笹山字遠馬場３６４番地２,,07,211,9634321,,,,,,,2024-07-09,1,,,,,モロタケ,0
245,1390003002251,新規,0,2024-07-09,2024-07-09,合同会社山形探究,,合同会社,山形県,山形市,宮町５丁目４番３９号ＦｏｒｅｓｔＢｕｉｌ１Ｆ,,06,201,9900057,,,,,,,2024-07-09,1,,,,,ヤマガタタンキュウ,0
253,1430003016528,新規,0,2024-07-09,2024-07-09,鮨八手合同会社,,合同会社,北海道,札幌市西区,山の手三条１丁目２番３０－１５０１号,,01,107,0630003,,,,,,,2024-07-09,1,,,,,スシヤツデ,0
254,1430003016536,新規,0,2024-07-09,2024-07-09,合同会社ＨＲ‐Ｔｒａｄｅ,,合同会社,北海道,小樽市,長橋２丁目８番２号,,01,203,0470036,,,,,,,2024-07-09,1,,,,,エイチアールトレード,0
256,1430005015016,新規,0,2024-07-09,2024-07-09,北海道振興中央事業協同組合,,その他の設立登記法人,北海道,美唄市,西四条南６丁目１番１７号,,01,215,0720027,,,,,,,2024-07-09,1,,,,,ホッカイドウシンコウチュウオウ,0
257,1450001014358,新規,0,2024-07-09,2024-07-09,株式会社はちみつ,,株式会社,北海道,旭川市,豊岡二条７丁目１０番３号,,01,204,0788232,,,,,,,2024-07-09,1,,,,,ハチミツ,0
269,1700150126408,新規,0,2024-07-09,2024-07-09,ＳｈｅｎＺｈｅｎＳｈｉ　ＱｉａｎＷｅｉ　ＤｉａｎＺｉ　ＹｏｕＸｉａｎＧｏｎｇＳｉ,,外国会社等,,,,,,,,Ｒｏｏｍ　１００２，Ｂｕｉｌｄｉｎｇ　６，Ｈｏｎｇｃｈｕａｎｇ　Ｔｅｃｈｎｏｌｏｇｙ　Ｃｅｎｔｅｒ，Ｑｉａｎｋｅｎｇ　Ｃｏｍｍｕｎｉｔｙ，Ｆｕｃｈｅｎｇ　Ｓｔｒｅｅｔ，Ｌｏｎｇｈｕａ　Ｄｉｓｔｒｉｃｔ，Ｓｈｅｎｚｈｅｎ　５１８０００　ＣＮ,,,,,,2024-07-09,1,,,,,シンセンシチェンウェイデンシヨウシエンゴンスー,0
270,1700150126424,新規,0,2024-07-09,2024-07-09,ＤＡＴＯＴＥＫ　ＩＮＴＥＲＮＡＴＩＯＮＡＬ　ＣＯ．，ＬＴＤ．,,外国会社等,,,,,,,,３Ｆ．，Ｎｏ．３４，Ａｌｙ．１８，Ｌｎ．４７８，Ｒｕｉｇｕａｎｇ　Ｒｄ．，Ｎｅｉｈｕ　Ｄｉｓｔ．，Ｔａｉｐｅｉ　Ｃｉｔｙ　１１４０６３，Ｔａｉｗａｎ（Ｒ．Ｏ．Ｃ．）,,,,,,2024-07-09,1,,,,,ダトテックインターナショナルカンパニーリミテッド,0
273,2010001246374,新規,0,2024-07-09,2024-07-09,株式会社カッコウ鳥,,株式会社,東京都,中央区,銀座６丁目１３番１６号銀座ＷａｌｌビルＵＣＦ５０１,,13,102,1040061,,,,,,,2024-07-09,1,,,,,カッコウトリ,0
274,2010001246382,新規,0,2024-07-09,2024-07-09,株式会社ＭＨＹ,,株式会社,東京都,中央区,銀座１丁目１２番４号Ｎ＆ＥＢＬＤ．６Ｆ,,13,102,1040061,,,,,,,2024-07-09,1,,,,,エムエイチワイ,0
275,2010001246390,新規,0,2024-07-09,2024-07-09,Ｌｅｏ‐Ｐｒｉｍｅ　Ｓｐｏｒｔｓ株式会社,,株式会社,東京都,千代田区,九段南３丁目９番１１号マートルコート麹町１１０１,,13,101,1020074,,,,,,,2024-07-09,1,,,,,レオプライムスポーツ,0
276,2010001246408,新規,0,2024-07-09,2024-07-09,Ｆｒｅｄｒｉｋｓ　Ｐａｒｔｎｅｒｓ　Ｊａｐａｎ株式会社,,株式会社,東京都,千代田区,丸の内３丁目２番２号丸の内二重橋ビル３階,,13,101,1000005,,,,,,,2024-07-09,1,,,,,フレドリクスパートナーズジャパン,0
278,2010005038504,新規,0,2024-07-09,2024-07-09,ソーラースフェーンホールディングス一般社団法人,,その他の設立登記法人,東京都,千代田区,麹町２丁目８番地ＭＬＣ麹町ビル４階フィンポート税理士法人内,,13,101,1020083,,,,,,,2024-07-09,1,,,,,ソーラースフェーンホールディングス,0
285,2010401183572,新規,0,2024-07-09,2024-07-09,株式会社エステート３８,,株式会社,東京都,港区,芝浦２丁目４番１号,,13,103,1080023,,,,,,,2024-07-09,1,,,,,エステートサンジュウハチ,0
286,2010401183580,新規,0,2024-07-09,2024-07-09,ＴＣＭ株式会社,,株式会社,東京都,港区,浜松町２丁目２－１５浜松町ダイヤビル２Ｆ,,13,103,1050013,,,,,,,2024-07-09,1,,,,,ティーシーエム,0
289,2010403032991,新規,0,2024-07-09,2024-07-09,ＱＥソーラー合同会社,,合同会社,東京都,港区,芝４丁目１０番１号,,13,103,1080014,,,,,,,2024-07-09,1,,,,,キューイーソーラー,0
291,2010505003536,新規,0,2024-07-09,2024-07-09,一般財団法人文字文明研究所,,その他の設立登記法人,東京都,台東区,根岸４丁目１０番９号,,13,106,1100003,,,,,,,2024-07-09,1,,,,,モジブンメイケンキュウジョ,0
294,2010603010946,新規,0,2024-07-09,2024-07-09,Ｔｏｋｙｏ物語合同会社,,合同会社,東京都,墨田区,京島２丁目２２番４号,,13,107,1310046,,,,,,,2024-07-09,1,,,,,トウキョウモノガタリ,0
299,2010803005003,新規,0,2024-07-09,2024-07-09,Ｂａｔｏｎ合同会社,,合同会社,東京都,大田区,下丸子２丁目１２－２シエルズガーデンリビエルタワー１８０３,,13,111,1460092,,,,,,,2024-07-09,1,,,,,バトン,0
300,2010803005011,新規,0,2024-07-09,2024-07-09,ＭＯＮ合同会社,,合同会社,東京都,大田区,大森本町２丁目２－１－１２１３,,13,111,1430011,,,,,,,2024-07-09,1,,,,,モン,0
302,2010901055602,新規,0,2024-07-09,2024-07-09,株式会社Ｂｒｉｌｌｉａｎｔ　Ｉｎｓｉｇｈｔｓ,,株式会社,東京都,世田谷区,瀬田３丁目１１番２７号－３,,13,112,1580095,,,,,,,2024-07-09,1,,,,,ブリリアントインサイツ,0
304,2011001162875,新規,0,2024-07-09,2024-07-09,株式会社ＳＯＢＡＮＩ,,株式会社,東京都,目黒区,下目黒２丁目２３番１５号下目黒ヘンミビル８階,,13,110,1530064,,,,,,,2024-07-09,1,,,,,ソバニ,0
309,2011101107961,新規,0,2024-07-09,2024-07-09,ＴＭＣ株式会社,,株式会社,東京都,新宿区,西新宿３丁目３番１３号西新宿水間ビル６Ｆ,,13,104,1600023,,,,,,,2024-07-09,1,,,,,ティーエムシー,0
310,2011101107994,新規,0,2024-07-09,2024-07-09,株式会社トラオル,,株式会社,東京都,新宿区,高田馬場１丁目３０番５号,,13,104,1690075,,,,,,,2024-07-09,1,,,,,トラオル,0
313,2011103014644,新規,0,2024-07-09,2024-07-09,ＴｒａｉｌＭａｇｉｃ合同会社,,合同会社,東京都,新宿区,西新宿３丁目３番１３号２Ｆ,,13,104,1600023,,,,,,,2024-07-09,1,,,,,トレイルマジック,0
314,2011103014669,新規,0,2024-07-09,2024-07-09,合同会社ＥｄｕＳｕｐｐｏｒｔ,,合同会社,東京都,新宿区,西新宿３丁目３－１３西新宿水間ビル６Ｆ,,13,104,1600023,,,,,,,2024-07-09,1,,,,,エデュサポート,0
315,2011105011103,新規,0,2024-07-09,2024-07-09,一般社団法人ＫＧＲ,,その他の設立登記法人,東京都,新宿区,四谷２丁目９番地１５東京ユナイテッド綜合事務所内,,13,104,1600004,,,,,,,2024-07-09,1,,,,,ケージーアール,0
319,2011401026250,新規,0,2024-07-09,2024-07-09,東京フィーリン株式会社,,株式会社,東京都,板橋区,蓮根２丁目２７－１２板橋西台オフィス３Ｆ－１９,,13,119,1740046,,,,,,,2024-07-09,1,,,,,トウキョウフィーリン,0
321,2011501030904,新規,0,2024-07-09,2024-07-09,株式会社ライフクリエイション,,株式会社,東京都,北区,滝野川６丁目２１－１パークタワー滝野川６０８号室,,13,117,1140023,,,,,,,2024-07-09,1,,,,,ライフクリエイション,0
322,2011503006142,新規,0,2024-07-09,2024-07-09,合同会社ＥＴＨＥＲＥＡＬ,,合同会社,東京都,北区,田端１丁目３番９号メゾン田端２０１号,,13,117,1140014,,,,,,,2024-07-09,1,,,,,イセリアル,0
325,2011803006321,新規,0,2024-07-09,2024-07-09,泉鈞合同会社,,合同会社,東京都,足立区,東綾瀬２丁目１４番２０－３０４号,,13,121,1200004,,,,,,,2024-07-09,1,,,,,センキン,0
330,2012401042064,新規,0,2024-07-09,2024-07-09,Ｃｏ‐Ｎｅｔ　ｍａｎａｇｅｍｅｎｔ株式会社,,株式会社,東京都,三鷹市,牟礼６丁目２３－８－５２８,,13,204,1810002,,,,,,,2024-07-09,1,,,,,コネットマネジメント,0
331,2012401042072,新規,0,2024-07-09,2024-07-09,株式会社４ＡＰ,,株式会社,東京都,武蔵野市,吉祥寺本町１丁目２０番１号吉祥寺永谷シティプラザ１００２,,13,203,1800004,,,,,,,2024-07-09,1,,,,,フォーエーピー,0
335,2013301052772,新規,0,2024-07-09,2024-07-09,株式会社ＥＧＯ,,株式会社,東京都,豊島区,池袋３丁目５９－１２アルカディア大塚１Ｆ,,13,116,1710014,,,,,,,2024-07-09,1,,,,,エゴ,0
341,2020001158049,新規,0,2024-07-09,2024-07-09,真和不動産株式会社,,株式会社,神奈川県,横浜市青葉区,奈良町２８４６番地１０,,14,117,2270036,,,,,,,2024-07-09,1,,,,,シンワフドウサン,0
344,2020003026476,新規,0,2024-07-09,2024-07-09,ｆａｓｔｃｌｅａｎ合同会社,,合同会社,神奈川県,川崎市高津区,坂戸３丁目１９番２９－２０７号クレストニシムラ,,14,134,2130012,,,,,,,2024-07-09,1,,,,,ファーストクリーン,0
352,2021005013140,新規,0,2024-07-09,2024-07-09,一般社団法人谷ケ共有地管理組合,,その他の設立登記法人,神奈川県,足柄上郡山北町,谷ケ２８４番地の１,,14,364,2580115,,,,,,,2024-07-09,1,,,,,ヤガキョウユウチカンリクミアイ,0
356,2030001161299,新規,0,2024-07-09,2024-07-09,株式会社ピグリット,,株式会社,埼玉県,さいたま市大宮区,桜木町２丁目３番地大宮マルイ７階,,11,103,3300854,,,,,,,2024-07-09,1,,,,,ピグリット,0
357,2030001161324,新規,0,2024-07-09,2024-07-09,スモールホーン株式会社,,株式会社,埼玉県,和光市,新倉１丁目２０－２１ハイムメルシー１０７,,11,229,3510115,,,,,,,2024-07-09,1,,,,,スモールホーン,0
369,2050001055086,新規,0,2024-07-09,2024-07-09,株式会社ＴＧＣ,,株式会社,茨城県,猿島郡境町,大字一ノ谷４３番地,,08,546,3060422,,,,,,,2024-07-09,1,,,,,ティージーシー,0
373,2060001037265,新規,0,2024-07-09,2024-07-09,株式会社高橋弥次右衛門商店,,株式会社,栃木県,日光市,土沢１４４２番地１,,09,206,3211274,,,,,,,2024-07-09,1,,,,,タカハシヤジウエモンショウテン,0
376,2070001041943,新規,0,2024-07-09,2024-07-09,野呂工業株式会社,,株式会社,群馬県,邑楽郡邑楽町,大字篠塚９６７番地５,,10,525,3700615,,,,,,,2024-07-09,1,,,,,ノロコウギョウ,0
377,2080001026373,新規,0,2024-07-09,2024-07-09,株式会社ＬＵＬＵ　ＰＨＯＴＯ,,株式会社,静岡県,静岡市駿河区,中村町２１８番地、１Ｆ,,22,102,4228047,,,,,,,2024-07-09,1,,,,,ルルフォト,0
381,2080401027302,新規,0,2024-07-09,2024-07-09,浜名土地開発株式会社,,株式会社,静岡県,浜松市浜名区,豊保２８３番地の９,,22,139,4340017,,,,,,,2024-07-09,1,,,,,ハマナトチカイハツ,0
382,2080403005058,新規,0,2024-07-09,2024-07-09,合同会社縁起物語,,合同会社,静岡県,浜松市浜名区,本沢合１５３－１コンフォール３０２号室,,22,139,4340014,,,,,,,2024-07-09,1,,,,,エンギモノガタリ,0
390,2100001037624,新規,0,2024-07-09,2024-07-09,株式会社ふく松フーズ,,株式会社,長野県,飯田市,上郷別府６４７番地１,,20,205,3950003,,,,,,,2024-07-09,1,,,,,フクマツフーズ,0
391,2100001037632,新規,0,2024-07-09,2024-07-09,株式会社ととや,,株式会社,長野県,岡谷市,長地柴宮２丁目１２番６号,,20,204,3940083,,,,,,,2024-07-09,1,,,,,トトヤ,0
393,2100003007641,新規,0,2024-07-09,2024-07-09,合同会社庄田建築,,合同会社,長野県,東御市,和７６７８番地６,,20,219,3890505,,,,,,,2024-07-09,1,,,,,ショウダケンチク,0
397,2100005013191,新規,0,2024-07-09,2024-07-09,特定非営利活動法人ＨａｐｐｙＦｒｉｅｎｄｓ,,その他の設立登記法人,長野県,須坂市,大字須坂４６９番地,,20,207,3820000,,,,,,,2024-07-09,1,,,,,ハッピーフレンズ,0
399,2110001038555,新規,0,2024-07-09,2024-07-09,株式会社ｄｄ,,株式会社,新潟県,新潟市西区,上新栄町６丁目１４番７号,,15,107,9502076,,,,,,,2024-07-09,1,,,,,ディーディー,0
416,2120001266535,新規,0,2024-07-09,2024-07-09,ＫＡＬＥＳ株式会社,,株式会社,大阪府,大阪市住之江区,御崎１丁目１１番１９－２０２号,,27,125,5590013,,,,,,,2024-07-09,1,,,,,ケオス,0
417,2120001266626,新規,0,2024-07-09,2024-07-09,株式会社スナイパー商事,,株式会社,大阪府,大阪市西成区,南津守４丁目１番４号,,27,122,5570063,,,,,,,2024-07-09,1,,,,,スナイパーショウジ,0
418,2120001266717,新規,0,2024-07-09,2024-07-09,Ａ‐ＰＯＩＮＴ株式会社,,株式会社,大阪府,大阪市淀川区,東三国２丁目３８－１２,,27,123,5320002,,,,,,,2024-07-09,1,,,,,エーポイント,0
429,2120901049444,新規,0,2024-07-09,2024-07-09,株式会社ＲＩＳＥ,,株式会社,大阪府,高槻市,大塚町２丁目３９番２０号３０１号,,27,207,5690034,,,,,,,2024-07-09,1,,,,,ライズ,0
430,2120903005247,新規,0,2024-07-09,2024-07-09,合同会社Ｏｆｆｉｃｅ　Ｏｎｅ,,合同会社,大阪府,高槻市,南平台１丁目１７番５号,,27,207,5691042,,,,,,,2024-07-09,1,,,,,オフィスワン,0
431,2122001038245,新規,0,2024-07-09,2024-07-09,ＰＲＯＣＥＥＤ株式会社,,株式会社,大阪府,東大阪市,南四条町１４番１６号,,27,227,5798054,,,,,,,2024-07-09,1,,,,,プロシード,0
438,2130001077403,新規,0,2024-07-09,2024-07-09,株式会社京都タナカ,,株式会社,京都府,京都市北区,上賀茂中ノ坂町３９番地３,,26,101,6038024,,,,,,,2024-07-09,1,,,,,キョウトタナカ,0
454,2150001027414,新規,0,2024-07-09,2024-07-09,株式会社ＲＩＮＫ,,株式会社,奈良県,大和郡山市,丹後庄町１２０番地１,,29,203,6391122,,,,,,,2024-07-09,1,,,,,リンク,0
458,2160003003230,新規,0,2024-07-09,2024-07-09,合同会社ＫＡＴＡＨＩＤＥ,,合同会社,滋賀県,蒲生郡日野町,松尾２丁目６９番地アンドロメダ２０１号,,25,383,5291601,,,,,,,2024-07-09,1,,,,,カタヒデ,0
469,2180301038810,新規,0,2024-07-09,2024-07-09,株式会社ｃｕｂｅ,,株式会社,愛知県,豊川市,西香ノ木町２丁目２５番地,,23,207,4420834,,,,,,,2024-07-09,1,,,,,キューブ,0
476,2200001042688,新規,0,2024-07-09,2024-07-09,ＬＹＭ株式会社,,株式会社,岐阜県,羽島市,福寿町千代田３丁目４５番地３０１号,,21,209,5016256,,,,,,,2024-07-09,1,,,,,エルワイエム,0
488,2250001020730,新規,0,2024-07-09,2024-07-09,株式会社ＡＳｉＤＥＮ,,株式会社,山口県,萩市,大字明木３０２３番地,,35,204,7540411,,,,,,,2024-07-09,1,,,,,アシデン,0
493,2260003004755,新規,0,2024-07-09,2024-07-09,合同会社九十三鈴,,合同会社,岡山県,岡山市北区,富田町１丁目２番２７号ロータスマンション岡山３０３号室,,33,101,7000816,,,,,,,2024-07-09,1,,,,,キュウジュウサンリン,0
494,2260003004763,新規,0,2024-07-09,2024-07-09,合同会社九十七鈴,,合同会社,岡山県,岡山市中区,山崎２９－１４誠和コーポ２０１,,33,102,7038267,,,,,,,2024-07-09,1,,,,,キュウジュウナナリン,0
495,2260003004771,新規,0,2024-07-09,2024-07-09,合同会社百一鈴,,合同会社,岡山県,岡山市中区,山崎２９－１４誠和コーポ２０１,,33,102,7038267,,,,,,,2024-07-09,1,,,,,ヒャクイチリン,0
497,2290001106344,新規,0,2024-07-09,2024-07-09,株式会社食人を良くする,,株式会社,福岡県,福岡市東区,和白４丁目２３番２６号,,40,131,8110202,,,,,,,2024-07-09,1,,,,,ショクヒトヲヨクスル,0
508,2330001032206,新規,0,2024-07-09,2024-07-09,株式会社コモンズ,,株式会社,熊本県,菊池郡大津町,大字大津２３９９番地１７１,,43,403,8691233,,,,,,,2024-07-09,1,,,,,コモンズ,0
511,2340003004532,新規,0,2024-07-09,2024-07-09,合同会社ＨＯＰＥ,,合同会社,鹿児島県,大島郡天城町,大字天城５１７－４,,46,531,8917611,,,,,,,2024-07-09,1,,,,,ホープ,0
514,2370001051490,新規,0,2024-07-09,2024-07-09,Ｓｋｉ　Ｐａｎｄａ株式会社,,株式会社,宮城県,角田市,梶賀字一里壇１４７番地４エスポワール・ＩＩ１０２,00135526,04,208,9811523,,,,,,,2024-07-09,1,,,,,スキーパンダ,0
518,2380005012851,新規,0,2024-07-09,2024-07-09,ネオハイツ浜田町管理組合法人,,その他の設立登記法人,福島県,福島市,浜田町８番８号,,07,201,9608107,,,,,,,2024-07-09,1,,,,,ネオハイツハマダチョウ,0
525,2410001013874,新規,0,2024-07-09,2024-07-09,株式会社秋匠,,株式会社,秋田県,秋田市,仁井田字大野３５６－１,,05,201,0101423,,,,,,,2024-07-09,1,,,,,アキタクミ,0
529,2430001092207,新規,0,2024-07-09,2024-07-09,株式会社ＯＨＫＡ　ＣＬＡＳＳ,,株式会社,北海道,札幌市厚別区,大谷地東４丁目１番２１号桜花ビル１階,,01,108,0040041,,,,,,,2024-07-09,1,,,,,オウカクラス,0
531,2430003016527,新規,0,2024-07-09,2024-07-09,ＵＮＩ　ＷＥＳＴ合同会社,,合同会社,北海道,札幌市西区,発寒十五条１丁目５番１１号,,01,107,0630835,,,,,,,2024-07-09,1,,,,,ユニウエスト,0
532,2430005015015,新規,0,2024-07-09,2024-07-09,弁護士法人のぼりべつ法律事務所,,その他の設立登記法人,北海道,登別市,若山町４丁目４０番地３メープル・ペット・ワン３０３号,,01,230,0590026,,,,,,,2024-07-09,1,,,,,ノボリベツホウリツジムショ,0
534,2440001009465,新規,0,2024-07-09,2024-07-09,株式会社大千,,株式会社,北海道,函館市,港町１丁目２０番１３号,,01,202,0410821,,,,,,,2024-07-09,1,,,,,ダイセン,0
547,2700150126407,新規,0,2024-07-09,2024-07-09,ｎｉｎｇｂｏｍｉｇａｏｋｅｊｉｙｏｕｘｉａｎｇｏｎｇｓｉ,,外国会社等,,,,,,,,ｚｈｅｊｉａｎｇｓｈｅｎｇｙｕｙａｏｓｈｉｄｉｔａｎｇｊｉｅｄａｏｚｈｅｎｇｘｉａｎｇｃｕｎｚｈｅｎｇｘｉａｎｇｌｕｄｏｎｇ８１ｈａｏ　３１５４００　ＣＮ,,,,,,2024-07-09,1,,,,,ニンボミガオカギヨウシエンゴンスー,0
548,2700150126423,新規,0,2024-07-09,2024-07-09,ｓｈｅｎｚｈｅｎｓｈｉｗｏｃａｉｗａｉｍａｏｙｏｕｘｉａｎｇｏｎｇｓｉ,,外国会社等,,,,,,,,ｇｕｎｇｄｏｎｇｓｈｅｎｇ，ｓｈｅｎｚｈｅｎｓｈｉ，ｌｏｎｇｈｕａｑｕ，ｌｏｎｇｈｕａｊｉｅｄａｏ，ｈｅｌｉａｎｓｈｅｑｕｇｏｎｇｃｕｎｙｉｑｕ４６ｈａｏＡ８０２,,,,,,2024-07-09,1,,,,,シンセンシオクサイガイボウユウゲンコウシ,0
558,3010001246332,新規,0,2024-07-09,2024-07-09,株式会社オレンジコンサルティング,,株式会社,東京都,中央区,日本橋室町１丁目１１番１２号日本橋水野ビル７階,,13,102,1030022,,,,,,,2024-07-09,1,,,,,オレンジコンサルティング,0
559,3010001246349,新規,0,2024-07-09,2024-07-09,タワーズキャピタル株式会社,,株式会社,東京都,中央区,勝どき６丁目３番１,,13,102,1040054,,,,,,,2024-07-09,1,,,,,タワーズキャピタル,0
560,3010001246381,新規,0,2024-07-09,2024-07-09,タック・ダイナミクス・ジャパン株式会社,,株式会社,東京都,千代田区,六番町６番地４,,13,101,1020085,,,,,,,2024-07-09,1,,,,,タックダイナミクスジャパン,0
561,3010001246398,新規,0,2024-07-09,2024-07-09,株式会社Ｅｌ　Ｄｏｒａｄｏ,,株式会社,東京都,中央区,日本橋兜町１７－２兜町第６葉山ビル４Ｆ,,13,102,1030026,,,,,,,2024-07-09,1,,,,,エルドラド,0
562,3010001246423,新規,0,2024-07-09,2024-07-09,ダントーソーラー株式会社,,株式会社,東京都,中央区,銀座１丁目８番１６号,,13,102,1040061,,,,,,,2024-07-09,1,,,,,ダントーソーラー,0
563,3010005038494,新規,0,2024-07-09,2024-07-09,一般社団法人シルバー３,,その他の設立登記法人,東京都,千代田区,麹町５丁目１番地ＮＫ真和ビル９階,,13,101,1020083,,,,,,,2024-07-09,1,,,,,シルバースリー,0
564,3010005038503,新規,0,2024-07-09,2024-07-09,弁護士法人ＦＤＲ法律事務所,,その他の設立登記法人,東京都,中央区,日本橋１丁目２－１０東洋ビルディング５２１号，同６３０号,,13,102,1030027,,,,,,,2024-07-09,1,,,,,エフディアールホウリツジムショ,0
573,3010501052544,新規,0,2024-07-09,2024-07-09,八千代ソリューションズ株式会社,,株式会社,東京都,台東区,浅草橋５丁目２０番８号,,13,106,1110053,,,,,,,2024-07-09,1,,,,,ヤチヨソリューションズ,0
579,3010701046247,新規,0,2024-07-09,2024-07-09,株式会社ギフト,,株式会社,東京都,品川区,北品川６丁目５－８－４０１,,13,109,1410001,,,,,,,2024-07-09,1,,,,,ギフト,0
598,3011003019544,新規,0,2024-07-09,2024-07-09,ＹＯＵＦＩＲＳＴ合同会社,,合同会社,東京都,目黒区,中目黒１丁目８‐８マイスタイル中目黒１‐１０４,,13,110,1530061,,,,,,,2024-07-09,1,,,,,ユーファースト,0
605,3011401026241,新規,0,2024-07-09,2024-07-09,光住不動産株式会社,,株式会社,東京都,板橋区,赤塚２丁目３６－２９清栄荘１０１,,13,119,1750092,,,,,,,2024-07-09,1,,,,,コウジュウフドウサン,0
609,3011501030886,新規,0,2024-07-09,2024-07-09,株式会社リリズムプロダクション,,株式会社,東京都,北区,西ケ原１丁目５３番１３－６０２号,,13,117,1140024,,,,,,,2024-07-09,1,,,,,リリズムプロダクション,0
610,3011501030894,新規,0,2024-07-09,2024-07-09,ＢＡＯ株式会社,,株式会社,東京都,荒川区,町屋３丁目１８－１２ＮＤビル２１２,,13,118,1160001,,,,,,,2024-07-09,1,,,,,バオ,0
621,3013301052788,新規,0,2024-07-09,2024-07-09,株式会社メレ,,株式会社,東京都,豊島区,上池袋４丁目１番３－７０２号,,13,116,1700012,,,,,,,2024-07-09,1,,,,,メレ,0
627,3020001158015,新規,0,2024-07-09,2024-07-09,株式会社錦鯉,,株式会社,神奈川県,横浜市鶴見区,鶴見１丁目１２番３０－３０３号,,14,101,2300063,,,,,,,2024-07-09,1,,,,,ニシキゴイ,0
643,3030001161298,新規,0,2024-07-09,2024-07-09,株式会社ケイエステート,,株式会社,埼玉県,さいたま市桜区,大字下大久保１２５６番地,,11,106,3380825,,,,,,,2024-07-09,1,,,,,ケイエステート,0
644,3030001161315,新規,0,2024-07-09,2024-07-09,株式会社ＦＯＲＴ,,株式会社,埼玉県,さいたま市浦和区,岸町７丁目１１番２号,,11,107,3300064,,,,,,,2024-07-09,1,,,,,フォート,0
645,3030001161331,新規,0,2024-07-09,2024-07-09,株式会社和田電工,,株式会社,埼玉県,入間市,大字野田３０３０番地６,,11,225,3580054,,,,,,,2024-07-09,1,,,,,ワダデンコウ,0
648,3030005021754,新規,0,2024-07-09,2024-07-09,社会保険労務士法人モリ事務所,,その他の設立登記法人,埼玉県,新座市,野火止５丁目１－４４－１４０１,,11,230,3520011,,,,,,,2024-07-09,1,,,,,モリジムショ,0
652,3040001134385,新規,0,2024-07-09,2024-07-09,宏福株式会社,,株式会社,千葉県,松戸市,西馬橋蔵元町５５番地２Ｆ,,12,207,2710046,,,,,,,2024-07-09,1,,,,,コウフク,0
653,3040001134451,新規,0,2024-07-09,2024-07-09,十川建設株式会社,,株式会社,千葉県,山武市,埴谷８０９番地,,12,237,2891223,,,,,,,2024-07-09,1,,,,,トカワケンセツ,0
654,3040001134468,新規,0,2024-07-09,2024-07-09,金利株式会社,,株式会社,千葉県,成田市,伊能６３９番地１１６,,12,211,2870204,,,,,,,2024-07-09,1,,,,,キンリ,0
655,3040001134476,新規,0,2024-07-09,2024-07-09,ＣＨＥＲＩＳＨ株式会社,,株式会社,千葉県,市川市,八幡２丁目９－１５ブロッサムフォーラム市川Ｃ－５０,,12,203,2720021,,,,,,,2024-07-09,1,,,,,チェリッシュ,0
658,3040003025376,新規,0,2024-07-09,2024-07-09,合同会社ＢＹ　ＹＯＵＲ　ＳＩＤＥ,,合同会社,千葉県,船橋市,山野町１０３番地４西船やまの住宅３０３号,,12,204,2730026,,,,,,,2024-07-09,1,,,,,バイユアサイド,0
659,3040005022438,新規,0,2024-07-09,2024-07-09,一般社団法人ＧＲＡＮＤＩＲ,,その他の設立登記法人,千葉県,流山市,市野谷２６番地の４（運Ａ７２街区１４）,,12,220,2700137,,,,,,,2024-07-09,1,,,,,グランディール,0
660,3050001055069,新規,0,2024-07-09,2024-07-09,株式会社ＢＬＩＳＳＰＨＯＭＹ,,株式会社,茨城県,古河市,山田１４３３番地２,,08,204,3060114,,,,,,,2024-07-09,1,,,,,ブリスフォミー,0
661,3050001055077,新規,0,2024-07-09,2024-07-09,株式会社はやぶさ建興,,株式会社,茨城県,取手市,岡１２２７番地,,08,217,3001546,,,,,,,2024-07-09,1,,,,,ハヤブサケンコウ,0
670,3080001026372,新規,0,2024-07-09,2024-07-09,株式会社リトルビッグツリー,,株式会社,静岡県,静岡市葵区,北安東２丁目１５番２２号,,22,101,4200881,,,,,,,2024-07-09,1,,,,,リトルビッグツリー,0
674,3080401027301,新規,0,2024-07-09,2024-07-09,株式会社ＫＣＰ,,株式会社,静岡県,浜松市中央区,鍛冶町１００番地の１ザザシティ浜松中央館Ｂ１Ｆ,,22,138,4300933,,,,,,,2024-07-09,1,,,,,ケーシーピー,0
675,3080403005057,新規,0,2024-07-09,2024-07-09,合同会社フヨウカイ,,合同会社,静岡県,浜松市中央区,有玉北町７９５番地の１,,22,138,4313121,,,,,,,2024-07-09,1,,,,,フヨウカイ,0
680,3100001037623,新規,0,2024-07-09,2024-07-09,株式会社ｓｉｍａｋｅｎ,,株式会社,長野県,塩尻市,大字広丘吉田４０２番地１１,,20,215,3990701,,,,,,,2024-07-09,1,,,,,シマケン,0
681,3100001037631,新規,0,2024-07-09,2024-07-09,株式会社ＣＦＭファクトリー,,株式会社,長野県,伊那市,美篶３１７１番地１,,20,209,3960111,,,,,,,2024-07-09,1,,,,,シーエフエムファクトリー,0
698,3120001266559,新規,0,2024-07-09,2024-07-09,Ｃｅｌｌ　Ｌｅａｄ　ｉｎｔｅｒｎａｔｉｏｎａｌ株式会社,,株式会社,大阪府,大阪市中央区,島町２丁目１番１５号,,27,128,5400034,,,,,,,2024-07-09,1,,,,,セルリードインターナショナル,0
699,3120001266617,新規,0,2024-07-09,2024-07-09,アルファ株式会社,,株式会社,大阪府,大阪市西区,江戸堀１丁目２６－１８－８０２,,27,106,5500002,,,,,,,2024-07-09,1,,,,,アルファ,0
700,3120003026985,新規,0,2024-07-09,2024-07-09,合同会社スマイル,,合同会社,大阪府,大阪市東住吉区,南田辺５丁目１９番２号,,27,121,5460033,,,,,,,2024-07-09,1,,,,,スマイル,0
701,3120003027001,新規,0,2024-07-09,2024-07-09,合同会社エヌエスピー,,合同会社,大阪府,大阪市西区,南堀江２丁目１番１号ＢｒｉｌｌｅＭｉｎａｍｉｈｏｒｉｅ２階,,27,106,5500015,,,,,,,2024-07-09,1,,,,,エヌエスピー,0
706,3120103005939,新規,0,2024-07-09,2024-07-09,ＧＲＴ合同会社,,合同会社,大阪府,堺市西区,浜寺石津町東４丁８番３１号,,27,144,5928335,,,,,,,2024-07-09,1,,,,,ジーアールティー,0
710,3120903005246,新規,0,2024-07-09,2024-07-09,合同会社ステテコシステムズ,,合同会社,大阪府,豊中市,北緑丘１丁目７番２１号,,27,203,5600001,,,,,,,2024-07-09,1,,,,,ステテコシステムズ,0
715,3130001077393,新規,0,2024-07-09,2024-07-09,株式会社ｇｏｏｄｍａｎ　ｒｏａｓｔｅｒ　ｋｙｏｔｏ,,株式会社,京都府,京都市下京区,綾小路通新町西入矢田町１１５番地２ベアフルートイイノ１階,,26,106,6008442,,,,,,,2024-07-09,1,,,,,グッドマンロースターキョウト,0
716,3130001077410,新規,0,2024-07-09,2024-07-09,Ｃｉｒｃｕｌａｒ　Ｉｎｉｔｉａｔｉｖｅｓ＆Ｐａｒｔｎｅｒｓ株式会社,,株式会社,京都府,京都市北区,大宮釈迦谷１０－４１,,26,101,6038478,,,,,,,2024-07-09,1,,,,,サーキュラーイニシアティヴスアンドパートナーズ,0
718,3130003009683,新規,0,2024-07-09,2024-07-09,クラウドライフ合同会社,,合同会社,京都府,京都市西京区,松尾大利町５５番地８４,,26,111,6158282,,,,,,,2024-07-09,1,,,,,クラウドライフ,0
731,3150003003313,新規,0,2024-07-09,2024-07-09,合同会社ＯＲＣＨＩＤ　ＪＡＰＡＮ,,合同会社,奈良県,生駒市,東生駒月見町１３２番地５,,29,209,6300214,,,,,,,2024-07-09,1,,,,,オーキッドジャパン,0
732,3160003003221,新規,0,2024-07-09,2024-07-09,箕川谷田林業合同会社,,合同会社,滋賀県,東近江市,箕川町１４０番地,,25,213,5270203,,,,,,,2024-07-09,1,,,,,ミノガワタニダリンギョウ,0
734,3180001162224,新規,0,2024-07-09,2024-07-09,株式会社アバンティ,,株式会社,愛知県,名古屋市千種区,下方町１丁目２３番地,,23,101,4640096,,,,,,,2024-07-09,1,,,,,アバンティ,0
735,3180001162307,新規,0,2024-07-09,2024-07-09,ゼロワンクリエーション株式会社,,株式会社,愛知県,名古屋市名東区,代万町２丁目２７番地の６,,23,115,4650086,,,,,,,2024-07-09,1,,,,,ゼロワンクリエーション,0
741,3180301038792,新規,0,2024-07-09,2024-07-09,株式会社ＮＥＸＴ,,株式会社,愛知県,豊橋市,東小鷹野１丁目１８番地９コンフォート小鷹野Ａ１０１,,23,201,4400012,,,,,,,2024-07-09,1,,,,,ネクスト,0
742,3180301038818,新規,0,2024-07-09,2024-07-09,株式会社ＣＩＬＫ,,株式会社,愛知県,知立市,新林町本林７２番地３９,,23,225,4720017,,,,,,,2024-07-09,1,,,,,シルク,0
743,3190001031477,新規,0,2024-07-09,2024-07-09,株式会社オロメン,,株式会社,三重県,三重郡菰野町,大字杉谷２２９５番地５,,24,341,5101326,,,,,,,2024-07-09,1,,,,,オロメン,0
749,3200001042687,新規,0,2024-07-09,2024-07-09,株式会社左京山,,株式会社,岐阜県,高山市,森下町２丁目９１番地１,,21,203,5060823,,,,,,,2024-07-09,1,,,,,サキョウザン,0
755,3220003003784,新規,0,2024-07-09,2024-07-09,合同会社Ｆ＆ＰカンパニーＧ．Ｋ,,合同会社,石川県,白山市,中町２９番地,,17,210,9240877,,,,,,,2024-07-09,1,,,,,エフアンドピーカンパニージーケー,0
756,3240003006752,新規,0,2024-07-09,2024-07-09,立建合同会社,,合同会社,広島県,東広島市,高屋町杵原９９２番地３－Ａ２０３号,,34,212,7392102,,,,,,,2024-07-09,1,,,,,リケン,0
759,3260003004812,新規,0,2024-07-09,2024-07-09,ＳＴｌａｂ合同会社,,合同会社,岡山県,津山市,押入３４８番地,,33,203,7081126,,,,,,,2024-07-09,1,,,,,エスティラボ,0
760,3270001009011,新規,0,2024-07-09,2024-07-09,株式会社ＳＥＴＡＫＥＮ,,株式会社,鳥取県,米子市,青木２２０番地１,,31,202,6830252,,,,,,,2024-07-09,1,,,,,セタケン,0
777,3330001032238,新規,0,2024-07-09,2024-07-09,株式会社ＴＯＮＴＴＵ,,株式会社,熊本県,阿蘇郡南小国町,大字満願寺８６３２番地１,,43,423,8692402,,,,,,,2024-07-09,1,,,,,トントゥ,0
778,3330003010448,新規,0,2024-07-09,2024-07-09,合同会社まどか,,合同会社,熊本県,球磨郡相良村,大字四浦西１７２８,,43,510,8680101,,,,,,,2024-07-09,1,,,,,マドカ,0
779,3330003010456,新規,0,2024-07-09,2024-07-09,合同会社薫果樹園,,合同会社,熊本県,葦北郡芦北町,大字米田１７１５番地,,43,482,8695573,,,,,,,2024-07-09,1,,,,,カオルカジュエン,0
786,3360003014108,新規,0,2024-07-09,2024-07-09,合同会社橋木商事,,合同会社,沖縄県,那覇市,おもろまち１丁目１番２５－１５０６号,,47,201,9000006,,,,,,,2024-07-09,1,,,,,ハシギショウジ,0
791,3380001034650,新規,0,2024-07-09,2024-07-09,安川電気株式会社,,株式会社,福島県,いわき市,泉町滝尻字中ノ坪３６番地の５,,07,204,9718182,,,,,,,2024-07-09,1,,,,,ヤスカワデンキ,0
792,3380001034659,新規,0,2024-07-09,2024-07-09,株式会社ＨＡＩＬＡＮＤ　ｉｎｔｅｒｎａｔｉｏｎａｌ,,株式会社,福島県,西白河郡泉崎村,大字泉崎字舘２８番地２,,07,464,9690101,,,,,,,2024-07-09,1,,,,,ハイランドインターナショナル,0
796,3380005012850,新規,0,2024-07-09,2024-07-09,一般社団法人あらいぶ,,その他の設立登記法人,福島県,田村郡三春町,八島台７丁目６番地の１９,,07,521,9637741,,,,,,,2024-07-09,1,,,,,アライブ,0
801,3430001092156,新規,0,2024-07-09,2024-07-09,ハートランドホールディングス株式会社,,株式会社,北海道,札幌市中央区,北三条西３丁目１番地,,01,101,0600003,,,,,,,2024-07-09,1,,,,,ハートランドホールディングス,0
802,3430001092222,新規,0,2024-07-09,2024-07-09,株式会社ＩＫＯＩ,,株式会社,北海道,札幌市南区,藤野三条７丁目１０番５号,,01,106,0612283,,,,,,,2024-07-09,1,,,,,イコイ,0
807,3500001025744,新規,0,2024-07-09,2024-07-09,株式会社ＳＲＫファーマシー,,株式会社,愛媛県,松山市,持田町１丁目３番５０号,,38,201,7900855,,,,,,,2024-07-09,1,,,,,エスアールケイファーマシー,0
810,3500003003277,新規,0,2024-07-09,2024-07-09,藥師寺ファーム合同会社,,合同会社,愛媛県,宇和島市,吉田町立間１番耕地２１８９番地１,,38,203,7993730,,,,,,,2024-07-09,1,,,,,ヤクシジファーム,0
813,3700150126406,新規,0,2024-07-09,2024-07-09,Ｘｉｎｇｊｉａｄａｄｉａｎｚｉｋｅｊｉ（ｓｈｅｎｚｈｅｎ）ｙｏｕｘｉａｎｇｏｎｇｓｉ,,外国会社等,,,,,,,,３０１（３Ａ０５５－０５４）Ａ　ｚｕｏ　ｂａｏｈｕａｄａｓｈａ　１０１６ｈａｏ　Ｆｕｔｉａｎｑｕ　Ｈｕａｑｉａｎｇｂｅｉｊｉｅｄａｏ　ｆｕｑｉａｎｇｓｈｅｑｕ　ｈｕａｑｉａｎｇｂｅｉｌｕ　Ｓｈｅｎｚｈｅｎ　Ｇｕａｎｇｄｏｎｇ　５１８０００ＣＮ,,,,,,2024-07-09,1,,,,,シンジャダデンシカギシンセンヨウシエンゴンスー,0
824,4010001246091,新規,0,2024-07-09,2024-07-09,株式会社Ｈｙｐｅｒｉｏｎ　Ｙｅｎ　ｔｒａｄｉｎｇ,,株式会社,東京都,千代田区,丸の内２丁目２番１号,,13,101,1000005,,,,,,,2024-07-09,1,,,,,ハイペリオンイエントレーディング,0
825,4010001246216,新規,0,2024-07-09,2024-07-09,株式会社ＲＵＲＩＲＡ,,株式会社,東京都,中央区,晴海５丁目４番５－５０３号,,13,102,1040053,,,,,,,2024-07-09,1,,,,,ルリラ,0
826,4010001246323,新規,0,2024-07-09,2024-07-09,株式会社アクラグ,,株式会社,東京都,中央区,銀座１丁目２２番１１号銀座大竹ビジデンス２Ｆ,,13,102,1040061,,,,,,,2024-07-09,1,,,,,アクラグ,0
827,4010001246414,新規,0,2024-07-09,2024-07-09,蛍火株式会社,,株式会社,東京都,文京区,音羽１丁目１７番１１－９０４号,,13,105,1120013,,,,,,,2024-07-09,1,,,,,ホタルビ,0
831,4010003044254,新規,0,2024-07-09,2024-07-09,合同会社ＧｏＢｕｉｌｄ,,合同会社,東京都,中央区,銀座１丁目１２番４号Ｎ＆ＥＢＬＤ．６Ｆ,,13,102,1040061,,,,,,,2024-07-09,1,,,,,ゴービルド,0
832,4010003044262,新規,0,2024-07-09,2024-07-09,合同会社ＲＦＹ　Ｄｅｓｉｇｎｓ,,合同会社,東京都,中央区,銀座１丁目１２－４Ｎ＆Ｅ・ＢＬＤ．７階,,13,102,1040061,,,,,,,2024-07-09,1,,,,,アールエフワイデザインズ,0
833,4010003044270,新規,0,2024-07-09,2024-07-09,ｚｏｎｅ　ｄｅ　ｓｅｃｕｒｉｔｅ合同会社,,合同会社,東京都,中央区,月島２丁目９－１,,13,102,1040052,,,,,,,2024-07-09,1,,,,,ゾーヌドュセキュリテ,0
834,4010003044287,新規,0,2024-07-09,2024-07-09,西川＆Ａｓｓｏｃｉａｔｅｓ合同会社,,合同会社,東京都,千代田区,飯田橋１丁目８番９号ニューシティハイツ飯田橋７０７,,13,101,1020072,,,,,,,2024-07-09,1,,,,,ニシカワアンドアソシエイツ,0
835,4010005038485,新規,0,2024-07-09,2024-07-09,一般社団法人ＳＵＲＦ　ＳＯＣＩＥＴＹ,,その他の設立登記法人,東京都,中央区,日本橋箱崎町１７番１号,,13,102,1030015,,,,,,,2024-07-09,1,,,,,サーフソサエティー,0
843,4010501052568,新規,0,2024-07-09,2024-07-09,株式会社ＨＯＴ　ＳＰＯＴ　ＬＡＮＤ,,株式会社,東京都,台東区,清川１丁目７番６－８０１号ダイアパレス東浅草,,13,106,1110022,,,,,,,2024-07-09,1,,,,,ホットスポットランド,0
853,4010701046213,新規,0,2024-07-09,2024-07-09,Ｔｏｙｓｍｉｔｈ株式会社,,株式会社,東京都,品川区,旗の台２丁目７－４Ｔ－Ｃｕｂｅ１＿４Ｆ,,13,109,1420064,,,,,,,2024-07-09,1,,,,,トイスミス,0
857,4010901055600,新規,0,2024-07-09,2024-07-09,株式会社ＳＣＵＴＴＹ,,株式会社,東京都,世田谷区,梅丘２丁目１６－７,,13,112,1540022,,,,,,,2024-07-09,1,,,,,スカッティ,0
858,4010903009208,新規,0,2024-07-09,2024-07-09,ｄｉａｄｅｓｉｇｎ合同会社,,合同会社,東京都,世田谷区,玉川３丁目２０番２号マノア玉川第３ビル５０１号室,,13,112,1580094,,,,,,,2024-07-09,1,,,,,ダイアデザイン,0
874,4011403004442,新規,0,2024-07-09,2024-07-09,合同会社サリゴインターナショナル,,合同会社,東京都,板橋区,南常盤台１丁目１１－６レフア南常盤台１０１号室,,13,119,1740072,,,,,,,2024-07-09,1,,,,,サリゴインターナショナル,0
875,4011501030893,新規,0,2024-07-09,2024-07-09,株式会社ゼロエア,,株式会社,東京都,北区,赤羽１丁目３６番６－２０３号,,13,117,1150045,,,,,,,2024-07-09,1,,,,,ゼロエア,0
876,4011601027880,新規,0,2024-07-09,2024-07-09,株式会社ＫＭ‐ケイム,,株式会社,東京都,練馬区,練馬１丁目２０番８号日建練馬ビル２Ｆ,,13,120,1760001,,,,,,,2024-07-09,1,,,,,ケイム,0
886,4011803006328,新規,0,2024-07-09,2024-07-09,サンライズ合同会社,,合同会社,東京都,足立区,竹の塚３丁目１０番５,,13,121,1210813,,,,,,,2024-07-09,1,,,,,サンライズ,0
898,4013301052770,新規,0,2024-07-09,2024-07-09,株式会社ＩＣ,,株式会社,東京都,豊島区,池袋２丁目５番５号千ビル４０１号室,,13,116,1710014,,,,,,,2024-07-09,1,,,,,アイシー,0
905,4020001158006,新規,0,2024-07-09,2024-07-09,株式会社ｓｏｎｅＧ,,株式会社,神奈川県,横浜市南区,真金町１丁目１０番地６－１０１号室,,14,105,2320021,,,,,,,2024-07-09,1,,,,,ソネジー,0
908,4020003026466,新規,0,2024-07-09,2024-07-09,合同会社Ｎｅｗ　Ｋａｎｎａｎ　Ｓｔｏｒｅ,,合同会社,神奈川県,横浜市緑区,西八朔町１２６９番地１シエルＢ１０２号,,14,113,2260024,,,,,,,2024-07-09,1,,,,,ニューカンナンストアー,0
913,4021001082690,新規,0,2024-07-09,2024-07-09,龍澤株式会社,,株式会社,神奈川県,秦野市,鶴巻北２丁目９番２１号,,14,211,2570001,,,,,,,2024-07-09,1,,,,,タツザワ,0
915,4021003014733,新規,0,2024-07-09,2024-07-09,ＶＪＭ　ＴＲＡＤＩＮＧ合同会社,,合同会社,神奈川県,愛甲郡愛川町,三増２６８５,,14,401,2430308,,,,,,,2024-07-09,1,,,,,ブイジェイエムトレーディング,0
923,4030001161314,新規,0,2024-07-09,2024-07-09,株式会社ＴＥＣＨ　ＡＲＴ　ＣＯＮＮＥＣＴ,,株式会社,埼玉県,新座市,片山２丁目８番２号,,11,230,3520025,,,,,,,2024-07-09,1,,,,,テックアートコネクト,0
924,4030001161322,新規,0,2024-07-09,2024-07-09,株式会社ＧＯＧＲＥＭＩＳ,,株式会社,埼玉県,川口市,大字道合７４番地の１１,,11,203,3330835,,,,,,,2024-07-09,1,,,,,ゴゴレミス,0
925,4030001161330,新規,0,2024-07-09,2024-07-09,株式会社ＴＡＹＳ,,株式会社,埼玉県,上尾市,西宮下１丁目８４番地１アンビシャス上尾４０９,,11,219,3620043,,,,,,,2024-07-09,1,,,,,テイズ,0
935,4050001055076,新規,0,2024-07-09,2024-07-09,株式会社リバーフィールズ,,株式会社,茨城県,那珂郡東海村,東海２丁目１７３７番地２７４,,08,341,3191117,,,,,,,2024-07-09,1,,,,,リバーフィールズ,0
943,4070003005498,新規,0,2024-07-09,2024-07-09,合同会社ＲＡＩＳＥＥＥＥ,,合同会社,群馬県,前橋市,南町３丁目５０番地２プラザアン２階Ｄ－６９,,10,201,3710805,,,,,,,2024-07-09,1,,,,,レイジー,0
945,4080003003245,新規,0,2024-07-09,2024-07-09,合同会社Ｅｇａ,,合同会社,静岡県,静岡市葵区,川辺町１丁目２番１８号,,22,101,4200043,,,,,,,2024-07-09,1,,,,,エガ,0
946,4080005007624,新規,0,2024-07-09,2024-07-09,一般社団法人おかねの知識向上Ｌａｂ．,,その他の設立登記法人,静岡県,静岡市駿河区,宮竹１丁目１番８号,,22,102,4228035,,,,,,,2024-07-09,1,,,,,オカネノチシキコウジョウラボ,0
949,4080401027250,新規,0,2024-07-09,2024-07-09,株式会社ＣａｒＳｈｏｐ１３３,,株式会社,静岡県,浜松市中央区,白羽町１６３８番地の２,,22,138,4300846,,,,,,,2024-07-09,1,,,,,カーショップイチサンサン,0
950,4080403005056,新規,0,2024-07-09,2024-07-09,合同会社ＭＩＮＥＲＶＡ,,合同会社,静岡県,浜松市中央区,佐藤２丁目３番１１号グランドガーデンぷらっとＤａｉｊｕ４０１,,22,138,4300807,,,,,,,2024-07-09,1,,,,,ミネルバ,0
952,4100001037614,新規,0,2024-07-09,2024-07-09,ワールドコネクト株式会社,,株式会社,長野県,北佐久郡御代田町,大字広戸６９１番地,,20,323,3890203,,,,,,,2024-07-09,1,,,,,ワールドコネクト,0
953,4100001037622,新規,0,2024-07-09,2024-07-09,ソラ株式会社,,株式会社,長野県,松本市,蟻ケ崎６丁目７－５,,20,202,3900861,,,,,,,2024-07-09,1,,,,,ソラ,0
954,4100001037639,新規,0,2024-07-09,2024-07-09,ＶＩＮａｓｈ株式会社,,株式会社,長野県,長野市,大字南長野南県町１０９９－２０５号室,,20,201,3800836,,,,,,,2024-07-09,1,,,,,ヴィナッシュ,0
961,4120001266558,新規,0,2024-07-09,2024-07-09,株式会社ＯＷＮＥＲＳ,,株式会社,大阪府,大阪市北区,梅田１丁目１番３号大阪駅前第３ビル２９階１－１－１号室,,27,127,5300001,,,,,,,2024-07-09,1,,,,,オーナーズ,0
962,4120001266582,新規,0,2024-07-09,2024-07-09,禾煬株式会社,,株式会社,大阪府,大阪市中央区,松屋町９番２０号ローレルステート松屋町４０４Ｂ,,27,128,5420067,,,,,,,2024-07-09,1,,,,,カヨウ,0
963,4120001266599,新規,0,2024-07-09,2024-07-09,旋風貿易株式会社,,株式会社,大阪府,大阪市住吉区,大領４丁目１６－４、４０２室,,27,120,5580001,,,,,,,2024-07-09,1,,,,,センプウボウエキ,0
964,4120001266632,新規,0,2024-07-09,2024-07-09,萬事達株式会社,,株式会社,大阪府,大阪市住之江区,南加賀屋２丁目１４－１８－３Ｆ,,27,125,5590015,,,,,,,2024-07-09,1,,,,,マンジタツ,0
965,4120001266665,新規,0,2024-07-09,2024-07-09,株式会社Ｃｏｌｌｅｃｔｉｏｎ,,株式会社,大阪府,大阪市北区,中津１丁目２番２１号中津明大ビル１０Ｆ,,27,127,5310071,,,,,,,2024-07-09,1,,,,,コレクション,0
969,4120003026976,新規,0,2024-07-09,2024-07-09,合同会社ＡＲ企画,,合同会社,大阪府,大阪市住吉区,清水丘３丁目１４番－１７－６０２号,,27,120,5580033,,,,,,,2024-07-09,1,,,,,エーアールキカク,0
970,4120003026984,新規,0,2024-07-09,2024-07-09,合同会社ＳＫＯＮＥ,,合同会社,大阪府,大阪市港区,八幡屋２丁目３－２７,,27,107,5520014,,,,,,,2024-07-09,1,,,,,スコーン,0
971,4120003026992,新規,0,2024-07-09,2024-07-09,合同会社ｍｉｌｅｒｍ,,合同会社,大阪府,大阪市城東区,蒲生１丁目１番５号,,27,118,5360016,,,,,,,2024-07-09,1,,,,,ミレーム,0
974,4120005024409,新規,0,2024-07-09,2024-07-09,一般社団法人ドドム,,その他の設立登記法人,大阪府,大阪市中央区,南船場３丁目２番２２号おおきに南船場ビル２０５,,27,128,5420081,,,,,,,2024-07-09,1,,,,,ドドム,0
981,4120103005938,新規,0,2024-07-09,2024-07-09,合同会社ｓｔａｇｅ,,合同会社,大阪府,藤井寺市,岡２丁目９番６号,,27,226,5830027,,,,,,,2024-07-09,1,,,,,ステージ,0
996,4150003003312,新規,0,2024-07-09,2024-07-09,合同会社ＭＩＴ　ＩＮＴＥＲＮＡＴＩＯＮＡＬ,,合同会社,奈良県,生駒市,東生駒月見町１３２番地５,,29,209,6300214,,,,,,,2024-07-09,1,,,,,エムアイティインターナショナル,0
1006,4180005020690,新規,0,2024-07-09,2024-07-09,一般社団法人稔の会,,その他の設立登記法人,愛知県,尾張旭市,庄南町２丁目５番地２８,,23,226,4880823,,,,,,,2024-07-09,1,,,,,ミノリノカイ,0
1007,4180305009590,新規,0,2024-07-09,2024-07-09,一般社団法人ＷＲＦ,,その他の設立登記法人,愛知県,岡崎市,本宿町字上ノ山１番地４５,,23,202,4443505,,,,,,,2024-07-09,1,,,,,ダブルアールエフ,0
1023,4250001020729,新規,0,2024-07-09,2024-07-09,株式会社あおぞら不動産,,株式会社,山口県,山口市,大内矢田南６丁目５番５０号ハイムＢＹ２０２,,35,203,7530222,,,,,,,2024-07-09,1,,,,,アオゾラフドウサン,0
1024,4250003003533,新規,0,2024-07-09,2024-07-09,合同会社岩見屋,,合同会社,山口県,山口市,小郡下郷２６３８番地１,,35,203,7540002,,,,,,,2024-07-09,1,,,,,イワミヤ,0
1027,4260003004753,新規,0,2024-07-09,2024-07-09,合同会社九十二鈴,,合同会社,岡山県,岡山市北区,富田町１丁目２番２７号ロータスマンション岡山３０３号室,,33,101,7000816,,,,,,,2024-07-09,1,,,,,キュウジュウニリン,0
1028,4260003004761,新規,0,2024-07-09,2024-07-09,合同会社九十六鈴,,合同会社,岡山県,岡山市北区,富田町１丁目２番２７号ロータスマンション岡山３０３号室,,33,101,7000816,,,,,,,2024-07-09,1,,,,,キュウジュウロクリン,0
1030,4270003001642,新規,0,2024-07-09,2024-07-09,ｍａｍｏｒｕ合同会社,,合同会社,鳥取県,米子市,両三柳４３２４－１,,31,202,6830853,,,,,,,2024-07-09,1,,,,,マモル,0
1035,4290001106367,新規,0,2024-07-09,2024-07-09,株式会社ａｎｙｗｏｒｋ,,株式会社,福岡県,福岡市博多区,博多駅前２丁目１９番１７号トーカン博多第５ビル３１２号室,,40,132,8120011,,,,,,,2024-07-09,1,,,,,エニイワーク,0
1036,4290001106391,新規,0,2024-07-09,2024-07-09,株式会社ｏｆｆｉｃｅ・ＮＡＧＡＯＫＡ５,,株式会社,福岡県,福岡市城南区,長尾４丁目１０番１５号,,40,136,8140123,,,,,,,2024-07-09,1,,,,,オフィスナガオカファイブ,0
1037,4290001106409,新規,0,2024-07-09,2024-07-09,株式会社インフラリペア,,株式会社,福岡県,福岡市博多区,西月隈３丁目２０番９－１号,,40,132,8120857,,,,,,,2024-07-09,1,,,,,インフラリペア,0
1038,4290001106433,新規,0,2024-07-09,2024-07-09,株式会社ワキ,,株式会社,福岡県,糟屋郡志免町,別府東１丁目１番２号,,40,343,8112231,,,,,,,2024-07-09,1,,,,,ワキ,0
1048,4330003010455,新規,0,2024-07-09,2024-07-09,ＹＯＡＳＯＢＩビジネス合同会社,,合同会社,熊本県,八代市,古閑中町２３５７－６－５リブラ（Ｆ）,,43,202,8660898,,,,,,,2024-07-09,1,,,,,ヨアソビビジネス,0
1050,4340001026642,新規,0,2024-07-09,2024-07-09,株式会社幸栄建装,,株式会社,鹿児島県,鹿児島市,緑ヶ丘町２０番２－１号Ａ棟,,46,201,8911274,,,,,,,2024-07-09,1,,,,,コウエイケンソウ,0
1061,4370001051489,新規,0,2024-07-09,2024-07-09,株式会社みらいパートナーズ,,株式会社,宮城県,仙台市泉区,泉中央３丁目１８番地の１,,04,105,9813133,,,,,,,2024-07-09,1,,,,,ミライパートナーズ,0
1063,4380001034641,新規,0,2024-07-09,2024-07-09,株式会社ＡＭＤＳ,,株式会社,福島県,福島市,南町３１０番地の８,,07,201,9608162,,,,,,,2024-07-09,1,,,,,エーエムディーエス,0
1066,4380003005806,新規,0,2024-07-09,2024-07-09,大丸合同会社,,合同会社,福島県,双葉郡富岡町,大字下郡山字真壁１６６,,07,543,9791132,,,,,,,2024-07-09,1,,,,,ダイマル,0
1074,4430001092221,新規,0,2024-07-09,2024-07-09,株式会社ｒａｙ,,株式会社,北海道,札幌市北区,あいの里三条５丁目１５－２５,,01,102,0028073,,,,,,,2024-07-09,1,,,,,,0
1077,4430003016525,新規,0,2024-07-09,2024-07-09,合同会社フォレスト,,合同会社,北海道,札幌市中央区,南十四条西１丁目１－８イリオス中島公園８０７,,01,101,0640914,,,,,,,2024-07-09,1,,,,,フォレスト,0
1083,4460101007571,新規,0,2024-07-09,2024-07-09,株式会社アースプロダクツシステム,,株式会社,北海道,河東郡音更町,東通２０丁目２番地９,,01,631,0800106,,,,,,,2024-07-09,1,,,,,アースプロダクツシステム,0
1085,4490001010813,新規,0,2024-07-09,2024-07-09,株式会社酔鯨亭,,株式会社,高知県,高知市,長浜５６６番地１,,39,201,7810270,,,,,,,2024-07-09,1,,,,,スイゲイテイ,0
1087,4490003001901,新規,0,2024-07-09,2024-07-09,合同会社Ｒｅｅｆｅｒ,,合同会社,高知県,高知市,春野町秋山１４５８,,39,201,7810321,,,,,,,2024-07-09,1,,,,,,0
1093,4500003003276,新規,0,2024-07-09,2024-07-09,合同会社ＡＲＡＩ,,合同会社,愛媛県,松山市,西長戸町３８３－７五十鈴マンション１Ｆ,,38,201,7918017,,,,,,,2024-07-09,1,,,,,アライ,0
1102,4700150125902,新規,0,2024-07-09,2024-06-12,無溶接工法協会,,その他,埼玉県,川口市,八幡木３丁目２９－１５,,11,203,3340012,,,,,,,2024-06-12,1,,,,,ムヨウセツコウホウキヨウカイ,0
1103,4700150126405,新規,0,2024-07-09,2024-07-09,株式会社エイチソサエティ,,外国会社等,東京都,港区,虎ノ門４丁目３番１号城山トラストタワー２１階,,13,103,1050001,大韓民国ソウル特別市鍾路区ユルゴッ路６、Ｂ洞１７階,,,,,,2024-07-09,1,,,,,カブシキガイシヤエイチソサエテイ,0
1111,5010001246462,新規,0,2024-07-09,2024-07-09,株式会社ＬＯＣ,,株式会社,東京都,千代田区,永田町２丁目１１番１号山王パークタワー５階トラスティーズ・コンサルティングＬＬＰ内,,13,101,1000014,,,,,,,2024-07-09,1,,,,,エルオーシー,0
1113,5010003044286,新規,0,2024-07-09,2024-07-09,ＴＩＭＥ合同会社,,合同会社,東京都,千代田区,東神田２丁目３番９号,,13,101,1010031,,,,,,,2024-07-09,1,,,,,タイム,0
1114,5010003044294,新規,0,2024-07-09,2024-07-09,合同会社Ｒ,,合同会社,東京都,千代田区,神田須田町１丁目２０番地１,,13,101,1010041,,,,,,,2024-07-09,1,,,,,アール,0
1116,5010005038492,新規,0,2024-07-09,2024-07-09,一般社団法人ヨセフ福祉経営アシスト,,その他の設立登記法人,東京都,千代田区,九段北４丁目３番３２号一口坂ＴＳビル４階,,13,101,1020073,,,,,,,2024-07-09,1,,,,,ヨセフフクシケイエイアシスト,0
1121,5010401183586,新規,0,2024-07-09,2024-07-09,株式会社Ｎｅｘｅｒｇｏｎ,,株式会社,東京都,港区,北青山１丁目３番１号アールキューブ青山３階,,13,103,1070061,,,,,,,2024-07-09,1,,,,,ネクサゴン,0
1122,5010401183693,新規,0,2024-07-09,2024-07-09,トーキョーバード株式会社,,株式会社,東京都,港区,赤坂２丁目１７番５０－１４１３号,,13,103,1070052,,,,,,,2024-07-09,1,,,,,トーキョーバード,0
1127,5010601065493,新規,0,2024-07-09,2024-07-09,東方株式会社,,株式会社,東京都,江東区,東砂５丁目５番６－２０６号,,13,108,1360074,,,,,,,2024-07-09,1,,,,,トウホウ,0
1131,5010705003647,新規,0,2024-07-09,2024-07-09,弁理士法人シリウスＩＰ,,その他の設立登記法人,東京都,品川区,北品川５丁目１２番４号,,13,109,1410001,,,,,,,2024-07-09,1,,,,,シリウスアイピー,0
1141,5011003019526,新規,0,2024-07-09,2024-07-09,ピカプロ合同会社,,合同会社,東京都,渋谷区,道玄坂１丁目１０番８号渋谷道玄坂東急ビル２Ｆ－Ｃ,,13,113,1500043,,,,,,,2024-07-09,1,,,,,ピカプロ,0
1145,5011401026248,新規,0,2024-07-09,2024-07-09,ＨＯＭＥ株式会社,,株式会社,東京都,板橋区,前野町２丁目１５番７号ライオンズマンションときわ台第２－１０３号,,13,119,1740063,,,,,,,2024-07-09,1,,,,,,0
1147,5011501030901,新規,0,2024-07-09,2024-07-09,株式会社ＯｒａｎｇｅＪａｃｋｅｔ,,株式会社,東京都,北区,浮間２丁目２２番地９－５０１号サンライフ浮間,,13,117,1150051,,,,,,,2024-07-09,1,,,,,オレンジジャケット,0
1148,5011705001839,新規,0,2024-07-09,2024-07-09,一般社団法人江戸川区中小企業地域振興協会,,その他の設立登記法人,東京都,江戸川区,北葛西２丁目５番１２号,,13,123,1340081,,,,,,,2024-07-09,1,,,,,エドガワクチュウショウキギョウチイキシンコウキョウカイ,0
1154,5011803006327,新規,0,2024-07-09,2024-07-09,合同会社まさのり,,合同会社,東京都,葛飾区,東立石３丁目２２番１３号１階,,13,122,1240013,,,,,,,2024-07-09,1,,,,,マサノリ,0
1155,5012401042061,新規,0,2024-07-09,2024-07-09,ＴＲＹ　ＣＡＰＩＴＡＬ株式会社,,株式会社,東京都,三鷹市,下連雀３丁目４５番１６－８０２号,,13,204,1810013,,,,,,,2024-07-09,1,,,,,トライキャピタル,0
1156,5012403006659,新規,0,2024-07-09,2024-07-09,合同会社Ｃｒｅａｔｉｏｎ　ＬＬＣ,,合同会社,東京都,武蔵野市,吉祥寺本町１丁目３０番７号,,13,203,1800004,,,,,,,2024-07-09,1,,,,,クリエーション,0
1157,5012405005015,新規,0,2024-07-09,2024-07-09,一般社団法人国際美術交流協会,,その他の設立登記法人,東京都,多摩市,聖ヶ丘１丁目３番地４,,13,224,2060022,,,,,,,2024-07-09,1,,,,,コクサイビジュツコウリュウカイ,0
1159,5012803003454,新規,0,2024-07-09,2024-07-09,合同会社ＫＪ,,合同会社,東京都,国分寺市,本町２丁目７番２号ハウスアメニティ９９－８０５号室,,13,214,1850012,,,,,,,2024-07-09,1,,,,,ケイジェイ,0
1162,5013301052778,新規,0,2024-07-09,2024-07-09,株式会社ＤＡ‐１,,株式会社,東京都,豊島区,東池袋４丁目１４番５号黒柳製本ビル３Ｆ,,13,116,1700013,,,,,,,2024-07-09,1,,,,,ディーエーワン,0
1163,5013301052786,新規,0,2024-07-09,2024-07-09,株式会社與芝,,株式会社,東京都,豊島区,南大塚２丁目２５番５号,,13,116,1700005,,,,,,,2024-07-09,1,,,,,ヨシバ,0
1164,5013303007177,新規,0,2024-07-09,2024-07-09,合同会社ｓｕｐｅｒｉｏｒ,,合同会社,東京都,豊島区,西巣鴨２丁目３４－１０－２０２,,13,116,1700001,,,,,,,2024-07-09,1,,,,,スペリオール,0
1170,5020003026473,新規,0,2024-07-09,2024-07-09,合同会社キーマ,,合同会社,神奈川県,横浜市緑区,長津田２丁目３５番１９－１号,,14,113,2260027,,,,,,,2024-07-09,1,,,,,キーマ,0
1171,5020003026481,新規,0,2024-07-09,2024-07-09,合同会社アズマップ,,合同会社,神奈川県,横浜市青葉区,美しが丘１丁目１３番地１０吉村ビル１０７号,,14,117,2250002,,,,,,,2024-07-09,1,,,,,アズマップ,0
1177,5030001161305,新規,0,2024-07-09,2024-07-09,株式会社ｐｓｙｃｈｅ,,株式会社,埼玉県,さいたま市北区,日進町３丁目４９７番地１古久屋マンション２Ａ,,11,102,3310823,,,,,,,2024-07-09,1,,,,,プシュケー,0
1183,5040001134383,新規,0,2024-07-09,2024-07-09,株式会社ハウスオプションサービス,,株式会社,千葉県,野田市,山崎１５１０番地１８,,12,208,2780022,,,,,,,2024-07-09,1,,,,,ハウスオプションサービス,0
1184,5040001134466,新規,0,2024-07-09,2024-07-09,株式会社内田石材,,株式会社,千葉県,野田市,船形２５１７番地の１,,12,208,2700233,,,,,,,2024-07-09,1,,,,,ウチダセキザイ,0
1185,5040001134474,新規,0,2024-07-09,2024-07-09,十八願物流株式会社,,株式会社,千葉県,山武市,埴谷字中遠芝１８８０番地８,,12,237,2891223,,,,,,,2024-07-09,1,,,,,ジュウハチガンブツリュウ,0
1187,5040003025366,新規,0,2024-07-09,2024-07-09,合同会社ＳＣＫＫアセットマネジメント,,合同会社,千葉県,市川市,中山３丁目１４番６号,,12,203,2720813,,,,,,,2024-07-09,1,,,,,エスシーケーケーアセットマネジメント,0
1189,5050001055067,新規,0,2024-07-09,2024-07-09,株式会社シンザグループ,,株式会社,茨城県,取手市,ゆめみ野２丁目２２－１ＧＬＢゆめみ野Ａ棟５号室,,08,217,3020039,,,,,,,2024-07-09,1,,,,,シンザグループ,0
1190,5050001055075,新規,0,2024-07-09,2024-07-09,株式会社アイ・エイチ・エス,,株式会社,茨城県,取手市,野々井１７７９番地４,,08,217,3020032,,,,,,,2024-07-09,1,,,,,アイエイチエス,0
1193,5060001037270,新規,0,2024-07-09,2024-07-09,株式会社ＣＨＯどうぶつびょういん,,株式会社,栃木県,下野市,駅東７丁目１番３１号,,09,216,3290413,,,,,,,2024-07-09,1,,,,,チョウドウブツビョウイン,0
1197,5080001026379,新規,0,2024-07-09,2024-07-09,株式会社壁谷工業,,株式会社,静岡県,静岡市清水区,渋川１丁目１番８号,,22,103,4240053,,,,,,,2024-07-09,1,,,,,カベヤコウギョウ,0
1204,5100001037646,新規,0,2024-07-09,2024-07-09,株式会社ＮＩＳＳＩＮ,,株式会社,長野県,千曲市,大字羽尾１５６３番地,,20,218,3890812,,,,,,,2024-07-09,1,,,,,ニッシン,0
1216,5120001266458,新規,0,2024-07-09,2024-07-09,ＭｅｄｉＶａｔｅ株式会社,,株式会社,大阪府,門真市,千石東町１番地２２門真エスチュアリーハウス１０１号室,,27,223,5710013,,,,,,,2024-07-09,1,,,,,メディベイト,0
1217,5120001266557,新規,0,2024-07-09,2024-07-09,株式会社ラクミル,,株式会社,大阪府,大阪市淀川区,十三元今里２丁目５番１３号メゾンアイ１０１号,,27,123,5320028,,,,,,,2024-07-09,1,,,,,ラクミル,0
1218,5120001266581,新規,0,2024-07-09,2024-07-09,恒馳立仁株式会社,,株式会社,大阪府,大阪市都島区,中野町４丁目３番６号Ｈ２Ｈ大阪桜之宮邸１Ｄ－３,,27,102,5340027,,,,,,,2024-07-09,1,,,,,コウチタチニ,0
1219,5120001266598,新規,0,2024-07-09,2024-07-09,株式会社メディカン,,株式会社,大阪府,大阪市中央区,平野町４丁目２番９号,,27,128,5410046,,,,,,,2024-07-09,1,,,,,メディカン,0
1220,5120001266680,新規,0,2024-07-09,2024-07-09,株式会社Ｋ‐ＴＥＳ,,株式会社,大阪府,寝屋川市,打上元町１１番２９号,,27,215,5720858,,,,,,,2024-07-09,1,,,,,ケイテス,0
1223,5120003026975,新規,0,2024-07-09,2024-07-09,日本創生ソリューション合同会社,,合同会社,大阪府,大阪市福島区,福島６丁目１１番１３号,,27,103,5530003,,,,,,,2024-07-09,1,,,,,ニホンソウセイソリューション,0
1224,5120003027008,新規,0,2024-07-09,2024-07-09,合同会社ＧｌｏｂａｌＬｉｎｋａｇｅ,,合同会社,大阪府,枚方市,山之上北町４０番１６号,,27,210,5730049,,,,,,,2024-07-09,1,,,,,グローバルリンゲージ,0
1225,5120005024408,新規,0,2024-07-09,2024-07-09,一般社団法人ｓｗｅｅｐｅｒ,,その他の設立登記法人,大阪府,大阪市大正区,泉尾１丁目１４番３号,,27,108,5510031,,,,,,,2024-07-09,1,,,,,スイーパー,0
1231,5120101069950,新規,0,2024-07-09,2024-07-09,株式会社Ｆｏｒ　Ｓｅａｓｏｎ,,株式会社,大阪府,堺市中区,福田４６１－１２,,27,142,5998241,,,,,,,2024-07-09,1,,,,,フォーシーズン,0
1240,5130003009673,新規,0,2024-07-09,2024-07-09,恵み合同会社,,合同会社,京都府,京都市山科区,大塚北溝町５１番地８,,26,110,6078134,,,,,,,2024-07-09,1,,,,,メグミ,0
1243,5140001135108,新規,0,2024-07-09,2024-07-09,サンタの学校株式会社,,株式会社,兵庫県,尼崎市,西立花町２丁目３－２４－４０１,,28,202,6600054,,,,,,,2024-07-09,1,,,,,サンタノガッコウ,0
1245,5140003020786,新規,0,2024-07-09,2024-07-09,合同会社小樽蓄電所,,合同会社,兵庫県,神戸市中央区,八幡通３丁目１番１９号日精ビル８階,,28,110,6510085,,,,,,,2024-07-09,1,,,,,オタルチクデンショ,0
1247,5160001026057,新規,0,2024-07-09,2024-07-09,ＴＯＵＢＡ株式会社,,株式会社,滋賀県,栗東市,小野１５番地２０,,25,208,5203016,,,,,,,2024-07-09,1,,,,,トウバ,0
1248,5160003003228,新規,0,2024-07-09,2024-07-09,ＥＬ　ＡＧＵＡコンサルティング合同会社,,合同会社,滋賀県,大津市,今堅田３丁目１２番４５－１４０６号,,25,201,5200241,,,,,,,2024-07-09,1,,,,,,0
1259,5190001031475,新規,0,2024-07-09,2024-07-09,ＳＩホールディングス株式会社,,株式会社,三重県,鈴鹿市,大池３丁目１４番１号,,24,207,5130827,,,,,,,2024-07-09,1,,,,,エスアイホールディングス,0
1260,5190001031483,新規,0,2024-07-09,2024-07-09,株式会社ファン,,株式会社,三重県,松阪市,駅部田町１７６番地４,,24,204,5150045,,,,,,,2024-07-09,1,,,,,ファン,0
1265,5200001042685,新規,0,2024-07-09,2024-07-09,トータルホーム株式会社,,株式会社,岐阜県,養老郡養老町,橋爪１０９８番地２,,21,341,5031331,,,,,,,2024-07-09,1,,,,,トータルホーム,0
1266,5200001042693,新規,0,2024-07-09,2024-07-09,株式会社ＹＯＵＲＧＵＲＴ,,株式会社,岐阜県,瑞穂市,生津天王町１丁目１０３,,21,216,5010216,,,,,,,2024-07-09,1,,,,,ユアグルト,0
1269,5230001020432,新規,0,2024-07-09,2024-07-09,株式会社ＦＲＥＥＤＯＭ,,株式会社,富山県,富山市,桜木町７番１７号ダイヤモンドビル４階,,16,201,9300082,,,,,,,2024-07-09,1,,,,,フリーダム,0
1270,5230003002247,新規,0,2024-07-09,2024-07-09,クリーンＳ合同会社,,合同会社,富山県,魚津市,駅前新町９番１９号Ｊ＆Ｍビル４０２,,16,204,9370051,,,,,,,2024-07-09,1,,,,,クリーンエス,0
1275,5250001020711,新規,0,2024-07-09,2024-07-09,中日企業サービス株式会社,,株式会社,山口県,防府市,大字新田町６１２番１号パナハイツ新田,,35,206,7470825,,,,,,,2024-07-09,1,,,,,チュウニチキギョウサービス,0
1280,5260003004752,新規,0,2024-07-09,2024-07-09,合同会社九十一鈴,,合同会社,岡山県,玉野市,西田井地２１６３,,33,204,7060313,,,,,,,2024-07-09,1,,,,,キュウジュウイチリン,0
1281,5260003004769,新規,0,2024-07-09,2024-07-09,合同会社百鈴,,合同会社,岡山県,岡山市中区,山崎２９－１４誠和コーポ２０１,,33,102,7038267,,,,,,,2024-07-09,1,,,,,ヒャクリン,0
1291,5290001106382,新規,0,2024-07-09,2024-07-09,株式会社ｈａｔｔ建築構造事務所,,株式会社,福岡県,福岡市博多区,博多駅前２丁目１７番１号博多プレステージ本館１Ｆ・２Ｆ,,40,132,8120011,,,,,,,2024-07-09,1,,,,,ハットケンチクコウゾウジムショ,0
1292,5290001106390,新規,0,2024-07-09,2024-07-09,株式会社Ｓ＆Ｈエステート,,株式会社,福岡県,福岡市南区,長丘４丁目１４番１号,,40,134,8150075,,,,,,,2024-07-09,1,,,,,エスアンドエイチエステート,0
1293,5290001106457,新規,0,2024-07-09,2024-07-09,株式会社ＳＣＰＰ２号,,株式会社,福岡県,福岡市中央区,舞鶴２丁目２－７第２赤坂門ビル２階,,40,133,8100073,,,,,,,2024-07-09,1,,,,,エスシーピーピーニゴウ,0
1307,5330001032228,新規,0,2024-07-09,2024-07-09,Ｋ＆Ｗａｉ株式会社,,株式会社,熊本県,合志市,幾久富１９０９番地２１５,,43,216,8611112,,,,,,,2024-07-09,1,,,,,ケーアンドウェイ,0
1329,5410003003953,新規,0,2024-07-09,2024-07-09,合同会社ＨＭ　ＪＡＰＡＮ,,合同会社,秋田県,能代市,落合字上悪土１６２番地,,05,202,0160014,,,,,,,2024-07-09,1,,,,,エイチエムジャパン,0
1338,5430001092220,新規,0,2024-07-09,2024-07-09,ＭＵＢＥＥＮ　ＴＲＡＤＩＮＧ株式会社,,株式会社,北海道,江別市,中島５９番地の１,,01,217,0670053,,,,,,,2024-07-09,1,,,,,ムビーントレーディング,0
1339,5430001092229,新規,0,2024-07-09,2024-07-09,株式会社いぶき工務店,,株式会社,北海道,札幌市手稲区,前田二条９丁目４番２４号,,01,109,0060812,,,,,,,2024-07-09,1,,,,,イブキコウムテン,0
1343,5430003016474,新規,0,2024-07-09,2024-07-09,合同会社ＴｏｗａＴｏｗａ．,,合同会社,北海道,札幌市北区,あいの里三条１丁目９番３号,,01,102,0028073,,,,,,,2024-07-09,1,,,,,トワトワ,0
1344,5430003016524,新規,0,2024-07-09,2024-07-09,合同会社エルク,,合同会社,北海道,札幌市北区,北十一条西１丁目２番１９号ビッグバーンズマンションＮ壱壱１０１号室,,01,102,0010011,,,,,,,2024-07-09,1,,,,,エルク,0
1345,5450003002514,新規,0,2024-07-09,2024-07-09,合同会社シルバー,,合同会社,北海道,紋別市,幸町８丁目２－８,,01,219,0940005,,,,,,,2024-07-09,1,,,,,シルバー,0
1347,5480001012537,新規,0,2024-07-09,2024-07-09,株式会社佐古蒲鉾店,,株式会社,徳島県,徳島市,佐古二番町１６番７号,,36,201,7700022,,,,,,,2024-07-09,1,,,,,サコカマボコテン,0
1354,5700150126404,新規,0,2024-07-09,2024-07-09,浙江＿米生物科技有限公司（ＦＡＲＭＭＩ日本事務所）,00135507,外国会社等,千葉県,千葉市中央区,弁天４丁目１０－１２,,12,101,2600045,浙江省麗水市蓮都区岩泉街道夭＿街８８８号５号楼,00135508,,,,,2024-07-09,1,,,,,セツコウフアーミニホンジムシヨ,0
1355,5700150126412,新規,0,2024-07-09,2024-07-09,Ｇａｌｄｅｒｍａ　ＳＡ,,外国会社等,,,,,,,,Ｚ＿ｈｌｅｒｗｅｇ　１０　６３００　Ｚｕｇ,00135521,,,,,2024-07-09,1,,,,,ガルデルマエスエー,0
1359,6010001246222,新規,0,2024-07-09,2024-07-09,チュインクル株式会社,,株式会社,東京都,中央区,銀座１丁目１２番４号Ｎ＆ＥＢＬＤ．６Ｆ,,13,102,1040061,,,,,,,2024-07-09,1,,,,,チュインクル,0
1360,6010001246362,新規,0,2024-07-09,2024-07-09,スポティフレイトジャパン株式会社,,株式会社,東京都,千代田区,神田小川町３丁目２番３０４号,,13,101,1010052,,,,,,,2024-07-09,1,,,,,スポティフレイトジャパン,0
1361,6010001246387,新規,0,2024-07-09,2024-07-09,株式会社ＣＬＴ,,株式会社,東京都,中央区,銀座１丁目１２番４号Ｎ＆ＥＢＬＤ．６Ｆ,,13,102,1040061,,,,,,,2024-07-09,1,,,,,シーエルティー,0
1362,6010001246453,新規,0,2024-07-09,2024-07-09,株式会社慶立,,株式会社,東京都,中央区,銀座７丁目２番２０号,,13,102,1040061,,,,,,,2024-07-09,1,,,,,ケイリツ,0
1364,6010003044244,新規,0,2024-07-09,2024-07-09,合同会社ｏｉｏ,,合同会社,東京都,中央区,日本橋小網町１番５－７０５号,,13,102,1030016,,,,,,,2024-07-09,1,,,,,オイオ,0
1365,6010003044269,新規,0,2024-07-09,2024-07-09,ＰｅｒｎｉｘＳｙｓ合同会社,,合同会社,東京都,千代田区,神田小川町３丁目１１番Ｅ／Ｆｒｏｎｔビル６階,,13,101,1010052,,,,,,,2024-07-09,1,,,,,ペルニクシス,0
1367,6010005038483,新規,0,2024-07-09,2024-07-09,一般社団法人未踏サイエンスに基づく環境調和型産業振興会,,その他の設立登記法人,東京都,中央区,日本橋本町２丁目３番１１号,,13,102,1030023,,,,,,,2024-07-09,1,,,,,ミトウサイエンスニモトヅクカンキョウチョウワガタサンギョウシンコウカイ,0
1373,6010401183643,新規,0,2024-07-09,2024-07-09,株式会社エクシーズ,,株式会社,東京都,港区,浜松町２丁目２番１５号浜松町ダイヤビル２Ｆ,,13,103,1050013,,,,,,,2024-07-09,1,,,,,エクシーズ,0
1374,6010401183684,新規,0,2024-07-09,2024-07-09,株式会社Ｍｅｒｇｉｎｉｔｅ,,株式会社,東京都,港区,芝浦４丁目２１番１－４００２号,,13,103,1080023,,,,,,,2024-07-09,1,,,,,マージナイト,0
1397,6011001163283,新規,0,2024-07-09,2024-07-09,株式会社Ｓｐｒｉｎｇｆｌｕｔ,,株式会社,東京都,渋谷区,道玄坂１丁目１０番８号渋谷道玄坂東急ビル２Ｆ－Ｃ,,13,113,1500043,,,,,,,2024-07-09,1,,,,,スプリングフルート,0
1398,6011001163317,新規,0,2024-07-09,2024-07-09,株式会社Ａｌｌｕｒｅ,,株式会社,東京都,渋谷区,恵比寿南１丁目１番１号,,13,113,1500022,,,,,,,2024-07-09,1,,,,,アリュール,0
1402,6011101108023,新規,0,2024-07-09,2024-07-09,株式会社ＰＩＯプラットフォーム,,株式会社,東京都,新宿区,西新宿１丁目８番１号,,13,104,1600023,,,,,,,2024-07-09,1,,,,,パイオプラットフォーム,0
1405,6011103014665,新規,0,2024-07-09,2024-07-09,合同会社ＫＧＲ,,合同会社,東京都,新宿区,四谷２丁目９番地１５東京ユナイテッド綜合事務所内,,13,104,1600004,,,,,,,2024-07-09,1,,,,,ケージーアール,0
1420,6012405005014,新規,0,2024-07-09,2024-07-09,特定非営利活動法人Ｌｉｆｅ　Ｌａｂ　Ｔａｍａ,,その他の設立登記法人,東京都,多摩市,落合４丁目１６番地１－１０５,,13,224,2060033,,,,,,,2024-07-09,1,,,,,ライフラボタマ,0
1421,6012803003453,新規,0,2024-07-09,2024-07-09,和慧合同会社,,合同会社,東京都,国分寺市,南町３丁目１－３３－２０１,,13,214,1850021,,,,,,,2024-07-09,1,,,,,ワケイ,0
1422,6013101009457,新規,0,2024-07-09,2024-07-09,株式会社コスメディカル,,株式会社,東京都,青梅市,新町５丁目１８番地の２ディアコート２０１,,13,205,1980024,,,,,,,2024-07-09,1,,,,,コスメディカル,0
1425,6013301052736,新規,0,2024-07-09,2024-07-09,株式会社ＢＢＴＰ,,株式会社,東京都,豊島区,東池袋３丁目１５番５号東池袋マンション４階４０７号室,,13,116,1700013,,,,,,,2024-07-09,1,,,,,ビービーティーピー,0
1426,6013301052769,新規,0,2024-07-09,2024-07-09,株式会社ＡＲＥＡ,,株式会社,東京都,豊島区,池袋２丁目１０番３号第Ｉ絆ビル地下１階,00135517,13,116,1710014,,,,,,,2024-07-09,1,,,,,エリア,0
1430,6020001158086,新規,0,2024-07-09,2024-07-09,株式会社ＪＭ,,株式会社,神奈川県,横浜市西区,浅間町１丁目４番３号ウィザードビル４０２,,14,103,2200072,,,,,,,2024-07-09,1,,,,,ジェイエム,0
1431,6020001158094,新規,0,2024-07-09,2024-07-09,株式会社ＥＥＧリアルエステート,,株式会社,神奈川県,川崎市川崎区,宮本町８番２５,,14,131,2100004,,,,,,,2024-07-09,1,,,,,イーイージーリアルエステート,0
1435,6020003026448,新規,0,2024-07-09,2024-07-09,ＳＵＣＣＥＳＳ合同会社,,合同会社,神奈川県,横浜市神奈川区,西寺尾３丁目１番１２号,,14,102,2210001,,,,,,,2024-07-09,1,,,,,サクセス,0
1448,6030001161320,新規,0,2024-07-09,2024-07-09,株式会社ＨＫＴ,,株式会社,埼玉県,川口市,西川口１丁目１３－１３ラフィネ西川口２０２,,11,203,3320021,,,,,,,2024-07-09,1,,,,,エイチケーティー,0
1449,6030001161329,新規,0,2024-07-09,2024-07-09,株式会社ＦＩＧＯ　ＪＡＰＡＮ,,株式会社,埼玉県,さいたま市岩槻区,大字黒谷２０８０番地１,,11,110,3390033,,,,,,,2024-07-09,1,,,,,フィーゴジャパン,0
1452,6030003024665,新規,0,2024-07-09,2024-07-09,日川合同会社,,合同会社,埼玉県,蕨市,塚越１丁目１８－３Ｋ’ｓビル塚越３０６,,11,223,3350002,,,,,,,2024-07-09,1,,,,,ヒカワ,0
1455,6040001134481,新規,0,2024-07-09,2024-07-09,株式会社田中建設,,株式会社,千葉県,木更津市,八幡台３丁目１番１４号,,12,206,2920814,,,,,,,2024-07-09,1,,,,,タナカケンセツ,0
1457,6040003025365,新規,0,2024-07-09,2024-07-09,松沢商事合同会社,,合同会社,千葉県,松戸市,五香西３丁目２番地の３３,,12,207,2702218,,,,,,,2024-07-09,1,,,,,マツザワショウジ,0
1458,6040003025373,新規,0,2024-07-09,2024-07-09,おじこＴＥＣ合同会社,,合同会社,千葉県,柏市,あかね町２番１８号,,12,217,2770027,,,,,,,2024-07-09,1,,,,,オジコテック,0
1459,6040003025381,新規,0,2024-07-09,2024-07-09,ＨＳ‐ＢＬＯＯＭ合同会社,,合同会社,千葉県,千葉市美浜区,稲毛海岸５丁目２５番１４号,,12,106,2610005,,,,,,,2024-07-09,1,,,,,エイチエスブルーム,0
1461,6040005022443,新規,0,2024-07-09,2024-07-09,司法書士法人むとう事務所,,その他の設立登記法人,千葉県,印西市,舞姫１丁目５番地７ＮＡＭＩＫＡＷＡ舞姫１０１,,12,231,2701608,,,,,,,2024-07-09,1,,,,,ムトウジムショ,0
1462,6050001055074,新規,0,2024-07-09,2024-07-09,株式会社正工業,,株式会社,茨城県,つくば市,吾妻１丁目５－７ダイワロイネットホテルつくばビル２階,,08,220,3050031,,,,,,,2024-07-09,1,,,,,タダシコウギョウ,0
1463,6050003008518,新規,0,2024-07-09,2024-07-09,ほし発達支援オフィス合同会社,,合同会社,茨城県,土浦市,神立東２丁目１５番２７号,,08,203,3000012,,,,,,,2024-07-09,1,,,,,ホシハッタツシエンオフィス,0
1466,6070001041948,新規,0,2024-07-09,2024-07-09,翔産業株式会社,,株式会社,群馬県,邑楽郡大泉町,大字吉田２４１３番地の２,,10,524,3700523,,,,,,,2024-07-09,1,,,,,ツバササンギョウ,0
1490,6120001266408,新規,0,2024-07-09,2024-07-09,日本醇臻株式会社,,株式会社,大阪府,大阪市浪速区,幸町２丁目３－１４ダイトービル３０３号室,,27,111,5560021,,,,,,,2024-07-09,1,,,,,ニホンジュンシン,0
1491,6120001266564,新規,0,2024-07-09,2024-07-09,隼電気工事株式会社,,株式会社,大阪府,大阪市平野区,喜連西１丁目１２番５号,,27,126,5470026,,,,,,,2024-07-09,1,,,,,ハヤブサデンキコウジ,0
1492,6120001266572,新規,0,2024-07-09,2024-07-09,株式会社Ｏ‐ＴＥＣ．,,株式会社,大阪府,大阪市東淀川区,淡路５丁目８番９号,,27,114,5330032,,,,,,,2024-07-09,1,,,,,オーテック,0
1493,6120001266580,新規,0,2024-07-09,2024-07-09,華岩商事株式会社,,株式会社,大阪府,大阪市城東区,関目５丁目１９番９号関目花博公館６０８Ａ,,27,118,5360008,,,,,,,2024-07-09,1,,,,,カガンショウジ,0
1494,6120001266589,新規,0,2024-07-09,2024-07-09,株式会社ウィンストーン,,株式会社,大阪府,大阪市生野区,勝山北２丁目３番８号,,27,116,5440033,,,,,,,2024-07-09,1,,,,,ウィンストーン,0
1495,6120001266614,新規,0,2024-07-09,2024-07-09,株式会社Ｆｏｒｅｓｔ　ｈｉｌｌ,,株式会社,大阪府,大阪市西区,新町２丁目５－１－２４０９,,27,106,5500013,,,,,,,2024-07-09,1,,,,,フォレストヒル,0
1496,6120001266630,新規,0,2024-07-09,2024-07-09,株式会社ＡＩＴＳ,,株式会社,大阪府,大阪市中央区,博労町１丁目４番１０号博労町エステートビル６０３号,,27,128,5410059,,,,,,,2024-07-09,1,,,,,エーアイティーエス,0
1497,6120001266647,新規,0,2024-07-09,2024-07-09,株式会社ｏｐｔｉｍａ,,株式会社,大阪府,大阪市北区,梅田１丁目２番２号大阪駅前第２ビル１２－１２,,27,127,5300001,,,,,,,2024-07-09,1,,,,,オプティマ,0
1498,6120001266655,新規,0,2024-07-09,2024-07-09,センホウ株式会社,,株式会社,大阪府,大阪市中央区,高津３丁目１５番２０号シャトー関本４０１号室,,27,128,5420072,,,,,,,2024-07-09,1,,,,,センホウ,0
1499,6120001266663,新規,0,2024-07-09,2024-07-09,海安株式会社,,株式会社,大阪府,大阪市中央区,上本町西３丁目２番６号柴田興産ビル３０６Ａ,,27,128,5420062,,,,,,,2024-07-09,1,,,,,ウミヤス,0
1500,6120001266671,新規,0,2024-07-09,2024-07-09,株式会社イメージアンプ,,株式会社,大阪府,大阪市北区,西天満６丁目４－１３グラン・ビルド荒木７０２,,27,127,5300047,,,,,,,2024-07-09,1,,,,,イメージアンプ,0
1502,6120003026768,新規,0,2024-07-09,2024-07-09,Ｔｒｕｎｋｕｍ合同会社,,合同会社,大阪府,大阪市阿倍野区,相生通１丁目１番１０号,,27,119,5450033,,,,,,,2024-07-09,1,,,,,トランクム,0
1503,6120003026990,新規,0,2024-07-09,2024-07-09,合同会社クムイ,,合同会社,大阪府,大阪市東成区,大今里西２丁目９－５,,27,115,5370014,,,,,,,2024-07-09,1,,,,,クムイ,0
1505,6120005024415,新規,0,2024-07-09,2024-07-09,医療法人滋徳会松田クリニック,,その他の設立登記法人,大阪府,大阪市平野区,背戸口１丁目１２番１０号,,27,126,5470034,,,,,,,2024-07-09,1,,,,,ジトクカイマツダクリニック,0
1508,6120901049449,新規,0,2024-07-09,2024-07-09,株式会社ＩｔｏＰ,,株式会社,大阪府,摂津市,東正雀１１―３３熊野マンション３０３号室,,27,224,5660025,,,,,,,2024-07-09,1,,,,,アイトップ,0
1510,6130001077390,新規,0,2024-07-09,2024-07-09,ＨＫＳ株式会社,,株式会社,京都府,亀岡市,本梅町西加舎大下１２,,26,206,6210255,,,,,,,2024-07-09,1,,,,,エイチケイエス,0
1520,6140001135065,新規,0,2024-07-09,2024-07-09,モズ株式会社,,株式会社,兵庫県,姫路市,御国野町御着２８７番地,,28,201,6710232,,,,,,,2024-07-09,1,,,,,モズ,0
1521,6140001135073,新規,0,2024-07-09,2024-07-09,株式会社ＣｏｆｆｒｅＫ,,株式会社,兵庫県,三木市,別所町東這田５７０番地の１,,28,215,6730444,,,,,,,2024-07-09,1,,,,,コフレカ,0
1525,6140003020785,新規,0,2024-07-09,2024-07-09,合同会社安平蓄電所,,合同会社,兵庫県,神戸市中央区,八幡通３丁目１番１９号日精ビル８階,,28,110,6510085,,,,,,,2024-07-09,1,,,,,アビラチクデンショ,0
1526,6140003020793,新規,0,2024-07-09,2024-07-09,合同会社宝塚リモートワーク,,合同会社,兵庫県,宝塚市,武庫川町１番３号ロイヤルメゾン宝塚２階,,28,214,6650844,,,,,,,2024-07-09,1,,,,,タカラヅカリモートワーク,0
1531,6140005027143,新規,0,2024-07-09,2024-07-09,一般社団法人Ｍｏｎａｃｏ　Ｗｅｅｋ　Ｉｎｔｅｒｎａｔｉｏｎａｌ,,その他の設立登記法人,兵庫県,神戸市長田区,大谷町３丁目１４番５６号,,28,106,6530838,,,,,,,2024-07-09,1,,,,,モナコウィークインターナショナル,0
1538,6160001026064,新規,0,2024-07-09,2024-07-09,田渕農場株式会社,,株式会社,滋賀県,草津市,北山田町８６３番地,,25,206,5250061,,,,,,,2024-07-09,1,,,,,タブチノウジョウ,0
1539,6160003003227,新規,0,2024-07-09,2024-07-09,ＨＡＬＵＴＯ合同会社,,合同会社,滋賀県,大津市,萱野浦１１番４号,,25,201,5202143,,,,,,,2024-07-09,1,,,,,,0
1550,6180005020689,新規,0,2024-07-09,2024-07-09,一般社団法人Ｃ’ｍｏｎ　Ｍｕｓｉｃ＆Ｐｅｒｆｏｒｍａｎｃｅ　Ａｓｓｏｃｉａｔｉｏｎ,,その他の設立登記法人,愛知県,名古屋市北区,志賀南通２丁目５１番地,,23,103,4620842,,,,,,,2024-07-09,1,,,,,カモンミュージックアンドパフォーマンスアソシエーション,0
1563,6210001019822,新規,0,2024-07-09,2024-07-09,株式会社Ｓｔｕｄｉｏ　Ｍｉｘａｒ,,株式会社,福井県,坂井市,丸岡町上安田第１９号４３番地,,18,210,9100362,,,,,,,2024-07-09,1,,,,,スタジオミキサー,0
1571,6240003006741,新規,0,2024-07-09,2024-07-09,合同会社ＰＯＬＥ　ＰＯＬＥ,,合同会社,広島県,福山市,港町１丁目３－２１,,34,207,7210964,,,,,,,2024-07-09,1,,,,,ポレポレ,0
1575,6260003004751,新規,0,2024-07-09,2024-07-09,合同会社九十鈴,,合同会社,岡山県,玉野市,西田井地２１６３,,33,204,7060313,,,,,,,2024-07-09,1,,,,,キュウジュウリン,0
1587,6290003015523,新規,0,2024-07-09,2024-07-09,合同会社アイケア,,合同会社,福岡県,福岡市博多区,博多駅前２丁目１０番１２号ハイラーク博多駅前６１６号,,40,132,8120011,,,,,,,2024-07-09,1,,,,,アイケア,0
1589,6290803004774,新規,0,2024-07-09,2024-07-09,合同会社ショパン,,合同会社,福岡県,京都郡苅田町,神田町３丁目４番地１１,,40,621,8000361,,,,,,,2024-07-09,1,,,,,ショパン,0
1590,6300001013832,新規,0,2024-07-09,2024-07-09,アース不動産株式会社,,株式会社,佐賀県,三養基郡みやき町,大字白壁４３６１番地７,,41,346,8490111,,,,,,,2024-07-09,1,,,,,アースフドウサン,0
1595,6330001032219,新規,0,2024-07-09,2024-07-09,株式会社ＨＡＳ,,株式会社,熊本県,熊本市東区,戸島１丁目１４番１号,,43,102,8618041,,,,,,,2024-07-09,1,,,,,エイチエイエス,0
1596,6330001032227,新規,0,2024-07-09,2024-07-09,株式会社Ａｍａｋｕｓａ,,株式会社,熊本県,天草市,牛深町１５２２番地８８,,43,215,8631901,,,,,,,2024-07-09,1,,,,,アマクサ,0
1597,6330005010807,新規,0,2024-07-09,2024-07-09,一般社団法人ゆないと,,その他の設立登記法人,熊本県,宇城市,松橋町西下郷１２４５番地,,43,213,8690534,,,,,,,2024-07-09,1,,,,,ユナイト,0
1598,6340003004537,新規,0,2024-07-09,2024-07-09,合同会社ＳＨＰ,,合同会社,鹿児島県,指宿市,東方１３００番地３,,46,210,8910404,,,,,,,2024-07-09,1,,,,,エスエイチピー,0
1605,6380001034656,新規,0,2024-07-09,2024-07-09,新平和流通株式会社,,株式会社,福島県,南相馬市,原町区北原字赤坂１２６番地の１,,07,212,9750037,,,,,,,2024-07-09,1,,,,,シンヘイワリュウツウ,0
1607,6390001017676,新規,0,2024-07-09,2024-07-09,株式会社孝のや,,株式会社,山形県,東根市,一本木２丁目２番５－４－７号,,06,211,9993717,,,,,,,2024-07-09,1,,,,,コウノヤ,0
1610,6420001018794,新規,0,2024-07-09,2024-07-09,株式会社楽楽アグリ,,株式会社,青森県,三戸郡三戸町,大字蛇沼字南清座久保２９番地,,02,441,0390451,,,,,,,2024-07-09,1,,,,,ラクラクアグリ,0
1613,6430003016531,新規,0,2024-07-09,2024-07-09,合同会社ＳＬＤ研究所,,合同会社,北海道,勇払郡安平町,追分本町６丁目１８番地,,01,585,0591911,,,,,,,2024-07-09,1,,,,,エスエルディーケンキュウジョ,0
1615,6450001014361,新規,0,2024-07-09,2024-07-09,株式会社どたじ,,株式会社,北海道,名寄市,風連町本町５６番地２０,,01,221,0980504,,,,,,,2024-07-09,1,,,,,ドタジ,0
1619,6470001020283,新規,0,2024-07-09,2024-07-09,株式会社プラスパ内海,,株式会社,香川県,高松市,木太町１８５５番地,,37,201,7600080,,,,,,,2024-07-09,1,,,,,プラスパウツミ,0
1620,6480001012536,新規,0,2024-07-09,2024-07-09,株式会社ＲＯＯＭ　ＰＯＲＴ,,株式会社,徳島県,板野郡北島町,北村字壱町四反地８０－１,,36,402,7710201,,,,,,,2024-07-09,1,,,,,ルームポート,0
1629,6700150126171,新規,0,2024-07-09,2024-06-24,富山県内科医会,,その他,富山県,富山市,黒崎３３番地,,16,201,9398214,,,,,,,2024-06-24,1,,,,,トヤマケンナイカイカイ,0
1630,6700150126411,新規,0,2024-07-09,2024-07-09,ＤｅｖｏｎｉａｎＴｒａｄｉｎｇＣｏ．，Ｌｔｄ,,外国会社等,,,,,,,,ＦＬＡＴ／ＲＭ　Ａ　１２／Ｆ　ＺＪ　３００　３００　ＬＯＣＫＨＡＲＴ　ＲＤ　ＷＡＮ　ＣＨＡＩ　ＨＫ,,,,,,2024-07-09,1,,,,,デボニアントレーディングカンパニーリミテッド,0
1639,7010001246221,新規,0,2024-07-09,2024-07-09,株式会社地域あきない研究所,,株式会社,東京都,中央区,日本橋兜町１７番１号日本橋ロイヤルプラザ７０６,,13,102,1030026,,,,,,,2024-07-09,1,,,,,チイキアキナイケンキュウショ,0
1640,7010001246262,新規,0,2024-07-09,2024-07-09,株式会社ターゲットマーケティング,,株式会社,東京都,中央区,銀座６丁目１４番８号銀座石井ビルＴＨＥＨＵＢ銀座６丁目,,13,102,1040061,,,,,,,2024-07-09,1,,,,,ターゲットマーケティング,0
1641,7010001246353,新規,0,2024-07-09,2024-07-09,株式会社エスプレサ,,株式会社,東京都,千代田区,外神田１丁目６番１号外神田ビル４階左,,13,101,1010021,,,,,,,2024-07-09,1,,,,,エスプレサ,0
1642,7010001246411,新規,0,2024-07-09,2024-07-09,Ｈ　Ｉｎｖｅｓｔｍｅｎｔ株式会社,,株式会社,東京都,千代田区,丸の内１丁目１１番１号,,13,101,1000005,,,,,,,2024-07-09,1,,,,,エイチインベストメント,0
1643,7010001246452,新規,0,2024-07-09,2024-07-09,株式会社ｌｉｅｎ　ｃｏｌｏｒ,,株式会社,東京都,千代田区,有楽町１丁目６番１０号スクワール日比谷ビル４Ｆ,,13,101,1000006,,,,,,,2024-07-09,1,,,,,リアンカラー,0
1646,7010003044210,新規,0,2024-07-09,2024-07-09,Ｓａｍｐｏａｒｔｓ合同会社,,合同会社,東京都,中央区,日本橋室町１丁目１１番１２号日本橋水野ビル７階,,13,102,1030022,,,,,,,2024-07-09,1,,,,,サンポアーツ,0
1647,7010003044268,新規,0,2024-07-09,2024-07-09,コアストリート合同会社,,合同会社,東京都,中央区,勝どき５丁目３番１－２７０４号,,13,102,1040054,,,,,,,2024-07-09,1,,,,,コアストリート,0
1648,7010003044284,新規,0,2024-07-09,2024-07-09,合同会社ＲＡＮＯ,,合同会社,東京都,千代田区,神田神保町２丁目１２番３号Ｌ＆Ｋビル４Ｆ,,13,101,1010051,,,,,,,2024-07-09,1,,,,,ラノ,0
1650,7010101016227,新規,0,2024-07-09,2024-07-09,株式会社ジェイライブ,,株式会社,東京都,八王子市,子安町３丁目３２－１０－１０１,,13,201,1920904,,,,,,,2024-07-09,1,,,,,ジェイライブ,0
1653,7010403032954,新規,0,2024-07-09,2024-07-09,ｂａｎａｎａ合同会社,,合同会社,東京都,港区,赤坂７丁目１１番１２号４０９,,13,103,1070052,,,,,,,2024-07-09,1,,,,,バナナ,0
1660,7010701046227,新規,0,2024-07-09,2024-07-09,株式会社Ｆｉｅｌｄｃｒｅｓｔ,,株式会社,東京都,品川区,大崎２丁目９番１号,,13,109,1410032,,,,,,,2024-07-09,1,,,,,フィールドクレスト,0
1661,7010801035204,新規,0,2024-07-09,2024-07-09,株式会社ネオスタイルロジ東京,,株式会社,東京都,大田区,西糀谷４丁目２１－１９ハイネストライビル２Ｆ,,13,111,1440034,,,,,,,2024-07-09,1,,,,,,0
1671,7011003019549,新規,0,2024-07-09,2024-07-09,合同会社ボットラボ,,合同会社,東京都,渋谷区,道玄坂１丁目１６－６二葉ビル８ｂ,,13,113,1500043,,,,,,,2024-07-09,1,,,,,ボットラボ,0
1672,7011005010571,新規,0,2024-07-09,2024-07-09,一般社団法人日本風力アカデミー,,その他の設立登記法人,東京都,渋谷区,渋谷３丁目２９番２０号,,13,113,1500002,,,,,,,2024-07-09,1,,,,,ニホンフウリョクアカデミー,0
1680,7011103014648,新規,0,2024-07-09,2024-07-09,ｔａｔａｍｉｙａ合同会社,,合同会社,東京都,新宿区,西新宿３丁目３番１３号西新宿水間ビル２Ｆ,,13,104,1600023,,,,,,,2024-07-09,1,,,,,タタミヤ,0
1681,7011201025621,新規,0,2024-07-09,2024-07-09,ＴＯＳＨＩＦＵＫＵ株式会社,,株式会社,東京都,中野区,弥生町４丁目１９番４号,,13,114,1640013,,,,,,,2024-07-09,1,,,,,トシフク,0
1682,7011301029828,新規,0,2024-07-09,2024-07-09,株式会社西武測量事務所,,株式会社,東京都,杉並区,下井草５丁目２２番１２号,,13,115,1670022,,,,,,,2024-07-09,1,,,,,セイブソクリョウジムショ,0
1685,7011401026238,新規,0,2024-07-09,2024-07-09,福士株式会社,,株式会社,東京都,板橋区,高島平８丁目１５番１０号パレット高島平４３１,,13,119,1750082,,,,,,,2024-07-09,1,,,,,フクシ,0
1687,7011601027878,新規,0,2024-07-09,2024-07-09,株式会社ＹＭＤ,,株式会社,東京都,練馬区,谷原５丁目１３番３５号,,13,120,1770032,,,,,,,2024-07-09,1,,,,,ワイエムディ,0
1693,7011801044525,新規,0,2024-07-09,2024-07-09,株式会社ＪＨＯＹ,,株式会社,東京都,葛飾区,東水元１丁目１９番１５号,,13,122,1250033,,,,,,,2024-07-09,1,,,,,ジョーイ,0
1698,7012403006657,新規,0,2024-07-09,2024-07-09,合同会社ケアラインアナベル,,合同会社,東京都,三鷹市,牟礼６丁目１３番２号,,13,204,1810002,,,,,,,2024-07-09,1,,,,,ケアラインアナベル,0
1699,7013101009456,新規,0,2024-07-09,2024-07-09,Ｙコンサルティング株式会社,,株式会社,東京都,青梅市,河辺町５丁目８番地３グレート５ビル３階,,13,205,1980036,,,,,,,2024-07-09,1,,,,,ワイコンサルティング,0
1700,7013301052768,新規,0,2024-07-09,2024-07-09,株式会社フォワード・クリエイション,,株式会社,東京都,豊島区,西池袋４丁目４番１６号,,13,116,1710021,,,,,,,2024-07-09,1,,,,,フォワードクリエイション,0
1708,7020003026471,新規,0,2024-07-09,2024-07-09,合同会社Ｆｉｖｅ＆ＣｒｅｗＳ,,合同会社,神奈川県,川崎市高津区,梶ケ谷６丁目５番地８,,14,134,2130015,,,,,,,2024-07-09,1,,,,,ファイブアンドクルーズ,0
1711,7021003014747,新規,0,2024-07-09,2024-07-09,合同会社スリーエー,,合同会社,神奈川県,相模原市中央区,由野台１丁目１８番８号,,14,152,2520222,,,,,,,2024-07-09,1,,,,,スリーエー,0
1716,7030001161278,新規,0,2024-07-09,2024-07-09,ライズワン株式会社,,株式会社,埼玉県,坂戸市,大字萱方４３６番地１,,11,239,3500243,,,,,,,2024-07-09,1,,,,,ライズワン,0
1717,7030001161385,新規,0,2024-07-09,2024-07-09,京北物流株式会社,,株式会社,埼玉県,さいたま市見沼区,大字南中丸１２７２番地２１,,11,104,3370041,,,,,,,2024-07-09,1,,,,,ケイホクブツリュウ,0
1729,7040001134464,新規,0,2024-07-09,2024-07-09,株式会社インテリアサービス,,株式会社,千葉県,千葉市若葉区,加曽利町１５８５番地２,,12,104,2640017,,,,,,,2024-07-09,1,,,,,インテリアサービス,0
1732,7040003025364,新規,0,2024-07-09,2024-07-09,とさゆきコンサルティング合同会社,,合同会社,千葉県,市川市,塩焼５丁目３番１―３０４号,,12,203,2720114,,,,,,,2024-07-09,1,,,,,トサユキコンサルティング,0
1733,7040003025372,新規,0,2024-07-09,2024-07-09,Ｄ＆Ｉ‐ＭＥＳＯＣ合同会社,,合同会社,千葉県,我孫子市,我孫子２丁目１番１２１９号グラン・レジデンス,,12,222,2701166,,,,,,,2024-07-09,1,,,,,ディアンドアイメソック,0
1734,7040003025380,新規,0,2024-07-09,2024-07-09,合同会社ＰＬＡＮ‐Ｂ,,合同会社,千葉県,市川市,八幡２丁目５－８－９０５,,12,203,2720021,,,,,,,2024-07-09,1,,,,,プランビー,0
1740,7050001055081,新規,0,2024-07-09,2024-07-09,株式会社ｍｏｒｅ＆Ｆ,,株式会社,茨城県,つくば市,吾妻２丁目５番地１つくば市産業振興センター,,08,220,3050031,,,,,,,2024-07-09,1,,,,,モアアンドエフ,0
1743,7050003008500,新規,0,2024-07-09,2024-07-09,合同会社ｔｒｅｖｌｉｇ　ｒｅｓａ,,合同会社,茨城県,牛久市,上柏田４丁目２８番１４号上柏田アパート２０１号,,08,219,3001232,,,,,,,2024-07-09,1,,,,,トレーヴリグレーサ,0
1747,7070001041922,新規,0,2024-07-09,2024-07-09,株式会社Ｋブロン,,株式会社,群馬県,館林市,小桑原町１０５７番地の１４２つつじ１０号棟－２０２,,10,207,3740037,,,,,,,2024-07-09,1,,,,,ケーブロン,0
1750,7070003005487,新規,0,2024-07-09,2024-07-09,合同会社ＳＫ,,合同会社,群馬県,前橋市,富士見町米野３６８番地２,,10,201,3710111,,,,,,,2024-07-09,1,,,,,エスケー,0
1751,7070003005495,新規,0,2024-07-09,2024-07-09,みなかみ倉庫合同会社,,合同会社,群馬県,沼田市,沼須町７０２番地１１,,10,206,3780012,,,,,,,2024-07-09,1,,,,,ミナカミソウコ,0
1754,7080001026369,新規,0,2024-07-09,2024-07-09,Ｈ＆Ｋ株式会社,,株式会社,静岡県,静岡市葵区,下１０６８番地の１,,22,101,4212108,,,,,,,2024-07-09,1,,,,,エイチアンドケイ,0
1755,7080001026377,新規,0,2024-07-09,2024-07-09,株式会社Ｔ，ＴＦａｃｔｏｒｙ,,株式会社,静岡県,牧之原市,布引原７１１番地１,,22,226,4210407,,,,,,,2024-07-09,1,,,,,ティーティーファクトリー,0
1760,7080405007650,新規,0,2024-07-09,2024-07-09,一般社団法人舞阪町観光協会,,その他の設立登記法人,静岡県,浜松市中央区,舞阪町弁天島３７７５番地の２,,22,138,4310214,,,,,,,2024-07-09,1,,,,,マイサカチョウカンコウキョウカイ,0
1763,7100001037628,新規,0,2024-07-09,2024-07-09,株式会社匠塗工,,株式会社,長野県,安曇野市,豊科高家５９３５番地,,20,220,3998204,,,,,,,2024-07-09,1,,,,,タクミトコウ,0
1767,7110001038550,新規,0,2024-07-09,2024-07-09,株式会社ＮＴＤ,,株式会社,新潟県,新潟市西蒲区,升潟７６３－３,,15,108,9590413,,,,,,,2024-07-09,1,,,,,エヌティーディー,0
1772,7120001266373,新規,0,2024-07-09,2024-07-09,ＳＨＡＮＧ株式会社,,株式会社,大阪府,門真市,幸福町１－２９－１２,,27,223,5710066,,,,,,,2024-07-09,1,,,,,シャン,0
1773,7120001266407,新規,0,2024-07-09,2024-07-09,洋東投資株式会社,,株式会社,大阪府,大阪市中央区,島之内１丁目４番２８号,,27,128,5420082,,,,,,,2024-07-09,1,,,,,ヨウトウトウシ,0
1774,7120001266555,新規,0,2024-07-09,2024-07-09,コーリン株式会社,,株式会社,大阪府,門真市,三ツ島６丁目１１－６,,27,223,5710015,,,,,,,2024-07-09,1,,,,,コーリン,0
1775,7120001266588,新規,0,2024-07-09,2024-07-09,ＡＭＯＳ株式会社,,株式会社,大阪府,大阪市北区,長柄中２丁目５番３０号,,27,127,5310062,,,,,,,2024-07-09,1,,,,,アモス,0
1776,7120001266613,新規,0,2024-07-09,2024-07-09,株式会社オリジン,,株式会社,大阪府,大阪市東成区,深江南２丁目１２番１７号,,27,115,5370002,,,,,,,2024-07-09,1,,,,,オリジン,0
1777,7120001266646,新規,0,2024-07-09,2024-07-09,ＢＴテック株式会社,,株式会社,大阪府,大阪市中央区,上本町西５丁目１番３５－１５０６号,,27,128,5420062,,,,,,,2024-07-09,1,,,,,ビーティーテック,0
1778,7120001266679,新規,0,2024-07-09,2024-07-09,アイエスハウス株式会社,,株式会社,大阪府,大阪市中央区,東心斎橋１丁目５番２号ルミエール東心斎橋２０２号,,27,128,5420083,,,,,,,2024-07-09,1,,,,,アイエスハウス,0
1782,7120003026965,新規,0,2024-07-09,2024-07-09,萠美堂合同会社,,合同会社,大阪府,大阪市北区,豊崎２丁目９－１３セレニテ梅田北３０２,,27,127,5310072,,,,,,,2024-07-09,1,,,,,ホウビドウ,0
1787,7120101069957,新規,0,2024-07-09,2024-07-09,株式会社ＳＨＯＷ・ＷＩＮ,,株式会社,大阪府,堺市堺区,材木町東４丁１番３１号,,27,141,5900942,,,,,,,2024-07-09,1,,,,,ショウイン,0
1799,7130001077398,新規,0,2024-07-09,2024-07-09,株式会社ＫＩＣＣＡ,,株式会社,京都府,京都市右京区,太秦帷子ケ辻町２３－１アルティスタ帷子ノ辻２０１号,,26,108,6168151,,,,,,,2024-07-09,1,,,,,キッカ,0
1800,7130001077423,新規,0,2024-07-09,2024-07-09,株式会社トップメンテ京都,,株式会社,京都府,城陽市,枇杷庄島ノ宮８０番地の５３,,26,207,6100117,,,,,,,2024-07-09,1,,,,,トップメンテキョウト,0
1801,7130001077431,新規,0,2024-07-09,2024-07-09,Ｋコンサル株式会社,,株式会社,京都府,宇治市,五ケ庄折坂５番地の４,,26,204,6110011,,,,,,,2024-07-09,1,,,,,ケイコンサル,0
1805,7140001134925,新規,0,2024-07-09,2024-07-09,株式会社ＪＷパートナーズ,,株式会社,兵庫県,淡路市,久留麻１８６０番地５７,,28,226,6562311,,,,,,,2024-07-09,1,,,,,ジェイダブリューパートナーズ,0
1806,7140001135064,新規,0,2024-07-09,2024-07-09,株式会社ＡＳクリエイト,,株式会社,兵庫県,姫路市,田寺２丁目２番２７号,,28,201,6700086,,,,,,,2024-07-09,1,,,,,エーエスクリエイト,0
1813,7160001026063,新規,0,2024-07-09,2024-07-09,株式会社ＳＡＷＡＤＡ,,株式会社,滋賀県,大津市,穴太２丁目１４番１４号,,25,201,5200114,,,,,,,2024-07-09,1,,,,,サワダ,0
1814,7170001018200,新規,0,2024-07-09,2024-07-09,ワイズカーサービス株式会社,,株式会社,和歌山県,日高郡日高川町,大字小熊３３５５番地,,30,392,6491323,,,,,,,2024-07-09,1,,,,,ワイズカーサービス,0
1818,7180001162278,新規,0,2024-07-09,2024-07-09,株式会社Ａｖｅｏｎ,,株式会社,愛知県,春日井市,岩野町１丁目１８６番地,,23,206,4860805,,,,,,,2024-07-09,1,,,,,エヴオン,0
1825,7190001031481,新規,0,2024-07-09,2024-07-09,株式会社錦月,,株式会社,三重県,鈴鹿市,道伯町１９１６番地の２,,24,207,5130824,,,,,,,2024-07-09,1,,,,,キンゲツ,0
1828,7230001020430,新規,0,2024-07-09,2024-07-09,株式会社日海交協インフォマティクス,,株式会社,富山県,高岡市,福岡町赤丸６５７番地,,16,202,9390101,,,,,,,2024-07-09,1,,,,,ニッカイコウキョウインフォマティクス,0
1836,7260001039253,新規,0,2024-07-09,2024-07-09,株式会社とりこ,,株式会社,岡山県,岡山市北区,津島南１丁目２番１８－１号,,33,101,7000085,,,,,,,2024-07-09,1,,,,,トリコ,0
1841,7260003004750,新規,0,2024-07-09,2024-07-09,合同会社八十九鈴,,合同会社,岡山県,玉野市,西田井地２１６３,,33,204,7060313,,,,,,,2024-07-09,1,,,,,ハチジュウキュウリン,0
1842,7260003004759,新規,0,2024-07-09,2024-07-09,合同会社九十五鈴,,合同会社,岡山県,岡山市北区,富田町１丁目２番２７号ロータスマンション岡山３０３号室,,33,101,7000816,,,,,,,2024-07-09,1,,,,,キュウジュウゴリン,0
1843,7260003004767,新規,0,2024-07-09,2024-07-09,合同会社九十九鈴,,合同会社,岡山県,岡山市中区,山崎２９－１４誠和コーポ２０１,,33,102,7038267,,,,,,,2024-07-09,1,,,,,キュウジュウキュウリン,0
1853,7330001032226,新規,0,2024-07-09,2024-07-09,株式会社前田エンジニアリング,,株式会社,熊本県,熊本市南区,城南町東阿高１１１２番地３,,43,104,8614225,,,,,,,2024-07-09,1,,,,,マエダエンジニアリング,0
1861,7360003014137,新規,0,2024-07-09,2024-07-09,合同会社クリアグレイスコーポレーション,,合同会社,沖縄県,宮古島市,上野字宮国１２８４番４,,47,214,9060203,,,,,,,2024-07-09,1,,,,,クリアグレイスコーポレーション,0
1862,7370001051486,新規,0,2024-07-09,2024-07-09,アスノソフト株式会社,,株式会社,宮城県,仙台市宮城野区,蒲生字北屋ケ城３５番地の３６,,04,102,9830002,,,,,,,2024-07-09,1,,,,,アスノソフト,0
1863,7370005010819,新規,0,2024-07-09,2024-07-09,一般社団法人シゲンラボ,,その他の設立登記法人,宮城県,仙台市青葉区,落合２丁目６番７－７０３号,,04,101,9893126,,,,,,,2024-07-09,1,,,,,シゲンラボ,0
1868,7380003005803,新規,0,2024-07-09,2024-07-09,合同会社会津楽農園,,合同会社,福島県,会津若松市,藤原１丁目９番地の１,,07,202,9650029,,,,,,,2024-07-09,1,,,,,アイヅラクノウエン,0
1874,7390001017675,新規,0,2024-07-09,2024-07-09,株式会社マツキフードサービス,,株式会社,山形県,山形市,大字漆山３３８５番地１,,06,201,9902161,,,,,,,2024-07-09,1,,,,,マツキフードサービス,0
1884,7430001092202,新規,0,2024-07-09,2024-07-09,株式会社１Ｒｅｐ,,株式会社,北海道,岩内郡岩内町,字宮園２７５番地２,,01,402,0450012,,,,,,,2024-07-09,1,,,,,ワンレップ,0
1885,7430001092227,新規,0,2024-07-09,2024-07-09,株式会社ＯＮＥＰＩＥＣＥ北海道,,株式会社,北海道,札幌市北区,屯田三条４丁目４－１１,,01,102,0020853,,,,,,,2024-07-09,1,,,,,ワンピースホッカイドウ,0
1888,7430003016530,新規,0,2024-07-09,2024-07-09,合同会社ＹＵＮＩＣＯＲＮ,,合同会社,北海道,札幌市北区,北二十二条西６丁目２番２１号,,01,102,0010022,,,,,,,2024-07-09,1,,,,,ユニコーン,0
1889,7430003016539,新規,0,2024-07-09,2024-07-09,Ｒｉｖｅｒ　Ｓｉｄｅ　Ｒｅａｌ　Ｅｓｔａｔｅ合同会社,,合同会社,北海道,虻田郡倶知安町,南三条東７丁目４番地１,,01,400,0440013,,,,,,,2024-07-09,1,,,,,リバーサイドリアルエステート,0
1893,7450001014360,新規,0,2024-07-09,2024-07-09,フジ厨設工業株式会社,,株式会社,北海道,旭川市,忠和五条６丁目８番６号,,01,204,0708045,,,,,,,2024-07-09,1,,,,,フジチュウセツコウギョウ,0
1899,7470001020282,新規,0,2024-07-09,2024-07-09,株式会社茶間コンサルタンツ,,株式会社,香川県,高松市,瀬戸内町１９番２５号荒木ビル３Ｆ,,37,201,7600012,,,,,,,2024-07-09,1,,,,,チャマコンサルタンツ,0
1907,7700150126162,新規,0,2024-07-09,2024-06-24,稚内測量設計協会,,その他,北海道,稚内市,末広４丁目４番２号,,01,214,0970001,,,,,,,2024-06-24,1,,,,,ワツカナイソクリヨウセツケイキヨウカイ,0
1908,7700150126410,新規,0,2024-07-09,2024-07-09,ｆｏｓｈａｎｓｈｉｓｕｚｈｅｎｈｕａｎｊｉｎｇｋｅｊｉｙｏｕｘｉａｎｇｏｎｇｓｉ,,外国会社等,,,,,,,,ｎａｎｈａｉｑｕｌｉｓｈｕｉｚｈｅｎｌｉｕｃｈａｏｓｈｕｉｋｕｃｕｎ，ｇｏｎｇｙｕａｎｌｕ１ｈａｏｚｈｉ３，ＦＯＳＨＡＮ　ＧＵＡＮＧＤＯＮＧ,,,,,,2024-07-09,1,,,,,ブツサンシソクシンカンキョウカギユウゲンコウシ,0
1919,8010001246220,新規,0,2024-07-09,2024-07-09,セオリーズ株式会社,,株式会社,東京都,中央区,銀座１丁目１２－４Ｎ＆Ｅ－ＢＬＤ．７階,,13,102,1040061,,,,,,,2024-07-09,1,,,,,セオリーズ,0
1920,8010001246352,新規,0,2024-07-09,2024-07-09,ＭＹＴＡＳ株式会社,,株式会社,東京都,千代田区,九段南４丁目２番９号４０７号室,,13,101,1020074,,,,,,,2024-07-09,1,,,,,マイタス,0
1921,8010001246377,新規,0,2024-07-09,2024-07-09,エクソール株式会社,,株式会社,東京都,千代田区,二番町１番地,,13,101,1020084,,,,,,,2024-07-09,1,,,,,エクソール,0
1922,8010001246402,新規,0,2024-07-09,2024-07-09,株式会社Ｇｌｏｂｉｚ,,株式会社,東京都,中央区,日本橋３丁目８番１３号華蓮日本橋ビル５Ｆ－Ｂ,,13,102,1030027,,,,,,,2024-07-09,1,,,,,グロービズ,0
1923,8010001246410,新規,0,2024-07-09,2024-07-09,傳芳製薬株式会社,,株式会社,東京都,千代田区,外神田６丁目２－４荒井ビル１階,,13,101,1010021,,,,,,,2024-07-09,1,,,,,デンホウセイヤク,0
1924,8010001246451,新規,0,2024-07-09,2024-07-09,株式会社Ｔｗｉｉｄ,,株式会社,東京都,中央区,日本橋室町１丁目２－６日本橋大栄ビル７階,,13,102,1030022,,,,,,,2024-07-09,1,,,,,ツイード,0
1928,8010003044275,新規,0,2024-07-09,2024-07-09,シトリンツー合同会社,,合同会社,東京都,中央区,日本橋１丁目４番１号日本橋一丁目ビルディング,,13,102,1030027,,,,,,,2024-07-09,1,,,,,シトリンツー,0
1943,8010503007509,新規,0,2024-07-09,2024-07-09,朝日合同会社,,合同会社,東京都,台東区,北上野２丁目４－９,,13,106,1100014,,,,,,,2024-07-09,1,,,,,アサヒ,0
1945,8010601065524,新規,0,2024-07-09,2024-07-09,株式会社ＭＯＭＥＮＴＵＭ,,株式会社,東京都,江東区,豊洲３丁目６番８－２９０２号,,13,108,1350061,,,,,,,2024-07-09,1,,,,,モメンタム,0
1956,8011101108005,新規,0,2024-07-09,2024-07-09,株式会社ソラフク,,株式会社,東京都,新宿区,西新宿３丁目４番１１－１３０１号,,13,104,1600023,,,,,,,2024-07-09,1,,,,,ソラフク,0
1957,8011103014639,新規,0,2024-07-09,2024-07-09,合同会社かたちつくり研究所,,合同会社,東京都,新宿区,山吹町３６１番地誠志堂ビル３階,,13,104,1620801,,,,,,,2024-07-09,1,,,,,カタチツクリケンキュウジョ,0
1960,8011301029827,新規,0,2024-07-09,2024-07-09,株式会社ハミングバード,,株式会社,東京都,杉並区,下井草３丁目２５－１０,,13,115,1670022,,,,,,,2024-07-09,1,,,,,,0
1965,8011801044482,新規,0,2024-07-09,2024-07-09,空間工房ＯＫＯＭＥ株式会社,,株式会社,東京都,足立区,千住元町２８番３号,,13,121,1200041,,,,,,,2024-07-09,1,,,,,クウカンコウボウオコメ,0
1966,8011801044516,新規,0,2024-07-09,2024-07-09,株式会社Ｈ‐ＵＰ,,株式会社,東京都,足立区,足立４丁目１７番２０号アデニウム五反野９０２,,13,121,1200015,,,,,,,2024-07-09,1,,,,,ヒーアップ,0
1975,8012401042059,新規,0,2024-07-09,2024-07-09,株式会社ｔａｓｈｉｋａ,,株式会社,東京都,三鷹市,下連雀４丁目２２１番地２０,,13,204,1810013,,,,,,,2024-07-09,1,,,,,タシカ,0
1976,8012401042067,新規,0,2024-07-09,2024-07-09,トランステップ株式会社,,株式会社,東京都,武蔵野市,吉祥寺東町２丁目２６－３,,13,203,1800002,,,,,,,2024-07-09,1,,,,,トランステップ,0
1980,8012701018345,新規,0,2024-07-09,2024-07-09,株式会社グロウ東京,,株式会社,東京都,西東京市,芝久保町２丁目２２番３８－２０２号,,13,229,1880014,,,,,,,2024-07-09,1,,,,,グロウトウキョウ,0
1993,8020001158051,新規,0,2024-07-09,2024-07-09,サギヌマ通商株式会社,,株式会社,神奈川県,川崎市宮前区,有馬１丁目６－１２－１０２号室,,14,136,2160003,,,,,,,2024-07-09,1,,,,,サギヌマツウショウ,0
1997,8020003026470,新規,0,2024-07-09,2024-07-09,合同会社Ｍｙ　Ｇｏｏｄ　Ｐａｒｔｎｅｒ,,合同会社,神奈川県,横浜市西区,北幸２丁目１０番４８号むつみビル３階,,14,103,2200004,,,,,,,2024-07-09,1,,,,,マイグッドパートナー,0
2008,8030001161302,新規,0,2024-07-09,2024-07-09,株式会社韓電機,,株式会社,埼玉県,越谷市,蒲生東町１０番１７号,,11,222,3430841,,,,,,,2024-07-09,1,,,,,カンデンキ,0
2009,8030001161310,新規,0,2024-07-09,2024-07-09,株式会社ＢＵＬＬ,,株式会社,埼玉県,川口市,弥平４丁目８番７号,,11,203,3320002,,,,,,,2024-07-09,1,,,,,ブル,0
2010,8030001161319,新規,0,2024-07-09,2024-07-09,株式会社ＹＥＭＬＩＫ興業,,株式会社,埼玉県,川口市,芝新町４－８ＵＲＢＡＮＦＯＲＵＭ蕨５Ｆ・６Ｆ,,11,203,3330851,,,,,,,2024-07-09,1,,,,,イエムリキコウギョウ,0
2012,8030003024663,新規,0,2024-07-09,2024-07-09,合同会社ＷＡＳＵ　ＴＲＡＤＩＮＧ,,合同会社,埼玉県,久喜市,本町４丁目３番１１号グランハイム駒３０２号室,,11,232,3460005,,,,,,,2024-07-09,1,,,,,ワストレーディング,0
2013,8030005021758,新規,0,2024-07-09,2024-07-09,一般社団法人まちづくりＦＵＫＡＹＡ,,その他の設立登記法人,埼玉県,深谷市,稲荷町１丁目９番４６号,,11,218,3660026,,,,,,,2024-07-09,1,,,,,マチヅクリフカヤ,0
2020,8040003025371,新規,0,2024-07-09,2024-07-09,ＢＬＵＥＲ合同会社,,合同会社,千葉県,習志野市,屋敷５丁目３番１３号,,12,216,2750004,,,,,,,2024-07-09,1,,,,,ブルアー,0
2022,8050001055072,新規,0,2024-07-09,2024-07-09,株式会社ザ・タイズ,,株式会社,茨城県,日立市,砂沢町６５１番地の１,,08,202,3191418,,,,,,,2024-07-09,1,,,,,ザタイズ,0
2023,8050003008524,新規,0,2024-07-09,2024-07-09,清右衛門合同会社,,合同会社,茨城県,神栖市,平泉２４８２番地,,08,232,3140146,,,,,,,2024-07-09,1,,,,,セイウエモン,0
2024,8060001037276,新規,0,2024-07-09,2024-07-09,タムラデンキ株式会社,,株式会社,栃木県,芳賀郡益子町,大字前沢９３５番地２,,09,342,3214214,,,,,,,2024-07-09,1,,,,,タムラデンキ,0
2026,8060005010221,新規,0,2024-07-09,2024-07-09,一般社団法人トップスターユニオン,,その他の設立登記法人,栃木県,宇都宮市,御幸ケ原町１０６番６号パストラル榛名２０３,,09,201,3210982,,,,,,,2024-07-09,1,,,,,トップスターユニオン,0
2030,8070003005486,新規,0,2024-07-09,2024-07-09,合同会社れもん,,合同会社,群馬県,伊勢崎市,喜多町４７番地,,10,204,3720056,,,,,,,2024-07-09,1,,,,,レモン,0
2033,8080001026368,新規,0,2024-07-09,2024-07-09,メイテン設備株式会社,,株式会社,静岡県,静岡市駿河区,下川原南１４番２１号,,22,102,4210117,,,,,,,2024-07-09,1,,,,,メイテンセツビ,0
2039,8100001037635,新規,0,2024-07-09,2024-07-09,のりくら商事株式会社,,株式会社,長野県,松本市,安曇４０８５番地５９,,20,202,3901520,,,,,,,2024-07-09,1,,,,,ノリクラショウジ,0
2046,8110001038558,新規,0,2024-07-09,2024-07-09,株式会社華燕建材,,株式会社,新潟県,燕市,水道町４丁目１７番２５号モデルノ・メゾンＩ２０２号,,15,213,9591262,,,,,,,2024-07-09,1,,,,,カエンケンザイ,0
2053,8120001266455,新規,0,2024-07-09,2024-07-09,株式会社メカワーク,,株式会社,大阪府,大阪市大正区,千島２丁目４番２－６１１号,,27,108,5510003,,,,,,,2024-07-09,1,,,,,メカワーク,0
2054,8120001266570,新規,0,2024-07-09,2024-07-09,株式会社エスライド,,株式会社,大阪府,大阪市北区,天神橋１丁目１９番８号ＭＦ南森町３ビル９階,,27,127,5300041,,,,,,,2024-07-09,1,,,,,エスライド,0
2055,8120001266579,新規,0,2024-07-09,2024-07-09,紫山株式会社,,株式会社,大阪府,大阪市大正区,三軒家西３丁目４番１６号中山ビル１００４,,27,108,5510001,,,,,,,2024-07-09,1,,,,,シサン,0
2056,8120001266612,新規,0,2024-07-09,2024-07-09,株式会社ＬＥＧＡＬＩＳＳ,,株式会社,大阪府,大阪市中央区,西心斎橋２丁目１２番２２－６１３号,,27,128,5420086,,,,,,,2024-07-09,1,,,,,レガリス,0
2058,8120003027005,新規,0,2024-07-09,2024-07-09,合同会社どどんぱ,,合同会社,大阪府,大阪市淀川区,西中島３丁目１７番５号４階,,27,123,5320011,,,,,,,2024-07-09,1,,,,,ドドンパ,0
2060,8120101069881,新規,0,2024-07-09,2024-07-09,和泉開発株式会社,,株式会社,大阪府,和泉市,唐国町９７０番地,,27,219,5941151,,,,,,,2024-07-09,1,,,,,,0
2071,8130001077389,新規,0,2024-07-09,2024-07-09,株式会社壱宣,,株式会社,京都府,京都市伏見区,下鳥羽北円面田町５９番地,,26,109,6128497,,,,,,,2024-07-09,1,,,,,イチセン,0
2072,8130001077430,新規,0,2024-07-09,2024-07-09,株式会社ＬＩＴＡ,,株式会社,京都府,京都市下京区,河原町通松原上る清水町４５４番地林ビル４０８,,26,106,6008025,,,,,,,2024-07-09,1,,,,,リタ,0
2073,8130003009670,新規,0,2024-07-09,2024-07-09,合同会社澤喜ファーム,,合同会社,京都府,久世郡久御山町,佐山新開地２０６番地３,,26,322,6130034,,,,,,,2024-07-09,1,,,,,サワキファーム,0
2077,8140001135063,新規,0,2024-07-09,2024-07-09,株式会社ＳＨＩＴＳＵＫＩ,,株式会社,兵庫県,尼崎市,東園田町４丁目１４９番地の３,,28,202,6610953,,,,,,,2024-07-09,1,,,,,シツキ,0
2079,8140005027141,新規,0,2024-07-09,2024-07-09,特定非営利活動法人力人,,その他の設立登記法人,兵庫県,佐用郡佐用町,上石井１０６１番地,,28,501,6795322,,,,,,,2024-07-09,1,,,,,チカラビト,0
2087,8180001162194,新規,0,2024-07-09,2024-07-09,片山ホールディングス株式会社,,株式会社,愛知県,大府市,横根町箕手４１番地２７３,,23,223,4740011,,,,,,,2024-07-09,1,,,,,カタヤマホールディングス,0
2088,8180001162211,新規,0,2024-07-09,2024-07-09,株式会社サクラス,,株式会社,愛知県,名古屋市昭和区,白金３丁目８番９号,,23,107,4660058,,,,,,,2024-07-09,1,,,,,サクラス,0
2089,8180003027040,新規,0,2024-07-09,2024-07-09,合同会社ｔｉｎｏ,,合同会社,愛知県,名古屋市昭和区,西畑町６１番地,,23,107,4660806,,,,,,,2024-07-09,1,,,,,ティノ,0
2091,8180005020695,新規,0,2024-07-09,2024-07-09,一般社団法人日本リサイクル古物商協会,,その他の設立登記法人,愛知県,名古屋市中川区,吉津１丁目１６０６番地,,23,110,4540981,,,,,,,2024-07-09,1,,,,,ニホンリサイクルコブツショウキョウカイ,0
2103,8240001063502,新規,0,2024-07-09,2024-07-09,Ｉｎｔｅｇｒｅａｔ株式会社,,株式会社,広島県,福山市,沼隈町大字常石１０８３番地,,34,207,7200313,,,,,,,2024-07-09,1,,,,,インテグレート,0
2110,8260003004774,新規,0,2024-07-09,2024-07-09,合同会社六十九鈴,,合同会社,岡山県,岡山市東区,金岡東町１丁目５番６号マリーアンジュＩＩＡ２０１,00135525,33,103,7048194,,,,,,,2024-07-09,1,,,,,ロクジュウキュウリン,0
2116,8290001106421,新規,0,2024-07-09,2024-07-09,株式会社ワイズガーデン,,株式会社,福岡県,福岡市早良区,内野６丁目１２番３８号,,40,137,8111123,,,,,,,2024-07-09,1,,,,,ワイズガーデン,0
2124,8290003015546,新規,0,2024-07-09,2024-07-09,合同会社ＳＯＲＡＲＥＶＯ,,合同会社,福岡県,福岡市南区,野多目３丁目２－６レークヒルズ野多目５０６号,,40,134,8111347,,,,,,,2024-07-09,1,,,,,ソラレボ,0
2130,8290801030696,新規,0,2024-07-09,2024-07-09,日本通信電業株式会社,,株式会社,福岡県,北九州市小倉南区,湯川２丁目９番２０号,,40,107,8000257,,,,,,,2024-07-09,1,,,,,ニホンツウシンデンギョウ,0
2132,8290803004772,新規,0,2024-07-09,2024-07-09,合同会社ＫＡＹ　ＪＥＸ,,合同会社,福岡県,宮若市,山口字中原１２６５－２,,40,226,8220153,,,,,,,2024-07-09,1,,,,,ケイジェックス,0
2137,8320001020585,新規,0,2024-07-09,2024-07-09,株式会社ＫＯＵ,,株式会社,大分県,大分市,大字津守８２３番地の１サンコーポＡ１０１,,44,201,8700945,,,,,,,2024-07-09,1,,,,,コウ,0
2142,8340003004535,新規,0,2024-07-09,2024-07-09,合同会社田畑農場,,合同会社,鹿児島県,志布志市,有明町原田１５２５番地１,,46,221,8997511,,,,,,,2024-07-09,1,,,,,タバタノウジョウ,0
2150,8360001033889,新規,0,2024-07-09,2024-07-09,株式会社Ｆ．ｃｌｏｖｅｒ,,株式会社,沖縄県,石垣市,字真栄里３０９番地２、３－Ａ,,47,207,9070002,,,,,,,2024-07-09,1,,,,,エフクローバー,0
2164,8430005015018,新規,0,2024-07-09,2024-07-09,一般社団法人ＰＧＡ北海道プロゴルフ会,,その他の設立登記法人,北海道,札幌市豊平区,福住二条１丁目５番１号,,01,105,0620042,,,,,,,2024-07-09,1,,,,,ピージーエーホッカイドウプロゴルフカイ,0
2171,8470001020273,新規,0,2024-07-09,2024-07-09,株式会社ＯＵＤＯＮ,,株式会社,香川県,高松市,上之町３丁目９番３０号２階東,,37,201,7618064,,,,,,,2024-07-09,1,,,,,オウドン,0
2181,8700150126112,新規,0,2024-07-09,2024-06-20,里山アニマ,,その他,徳島県,吉野川市,山川町北島５－３１,,36,205,7793404,,,,,,,2024-06-20,1,,,,,サトヤマアニマ,0
2182,8700150126426,新規,0,2024-07-09,2024-07-09,ＫＯＢＥ　ＡＵＴＯ　ＭＡＲＴ　ＰＲＩＶＡＴＥ　ＬＩＭＩＴＥＤ,,外国会社等,茨城県,龍ケ崎市,佐貫町３－２０－８　アークエステート２７－１０５,,08,208,3010033,スリランカ民主社会主義共和国、キャンディ、バトゥゴダ、バムヌポラ、１９２－Ａ２番,,,,,,2024-07-09,1,,,,,コベオートマートプライベートリミテツド,0
2190,9010001246302,新規,0,2024-07-09,2024-07-09,株式会社ＡＵＳＯＵＮＤＳ　ＴＥＣＨＮＯＬＯＧＹ,,株式会社,東京都,文京区,本郷１丁目３５－２７アトル真砂２０２号室,,13,105,1130033,,,,,,,2024-07-09,1,,,,,オーサウンズテクノロジー,0
2191,9010001246351,新規,0,2024-07-09,2024-07-09,株式会社ＲＪＵＤ,,株式会社,東京都,中央区,銀座１丁目１２番４号Ｎ＆ＥＢＬＤ．６階,,13,102,1040061,,,,,,,2024-07-09,1,,,,,アールジェーユーディー,0
2192,9010001246376,新規,0,2024-07-09,2024-07-09,株式会社Ｋ３ＣＯＲＥ,,株式会社,東京都,中央区,日本橋本町３丁目８番５号,,13,102,1030023,,,,,,,2024-07-09,1,,,,,ケイスリーコア,0
2193,9010001246491,新規,0,2024-07-09,2024-07-09,株式会社ＦＩＮＤＯＮＥ,,株式会社,東京都,千代田区,九段南４丁目６番１３号ニュー九段マンション,,13,101,1020074,,,,,,,2024-07-09,1,,,,,ファインドワン,0
2194,9010003044274,新規,0,2024-07-09,2024-07-09,トルマリンツー合同会社,,合同会社,東京都,中央区,日本橋１丁目４番１号日本橋一丁目ビルディング,,13,102,1030027,,,,,,,2024-07-09,1,,,,,トルマリンツー,0
2195,9010005038489,新規,0,2024-07-09,2024-07-09,一般社団法人日本医科大学同窓会橘桜会,,その他の設立登記法人,東京都,文京区,向丘２丁目２０番７号,,13,105,1130023,,,,,,,2024-07-09,1,,,,,ニホンイカダイガクドウソウカイキツオウカイ,0
2201,9010401183649,新規,0,2024-07-09,2024-07-09,ＰＡＣ　Ｇｒｏｕｐ株式会社,,株式会社,東京都,港区,新橋３丁目９番１０号天翔新橋ビル８０７号室,,13,103,1050004,,,,,,,2024-07-09,1,,,,,ピーエーシーグループ,0
2202,9010401183681,新規,0,2024-07-09,2024-07-09,株式会社ＡＩ　Ｈａｃｋ,,株式会社,東京都,港区,愛宕２丁目５番１号愛宕グリーンヒルズＭＯＲＩタワー３４Ｆ,,13,103,1050002,,,,,,,2024-07-09,1,,,,,エーアイハック,0
2204,9010403032977,新規,0,2024-07-09,2024-07-09,合同会社ゆうが,,合同会社,東京都,港区,西新橋１丁目１７番１２号第２横山ビル３Ｆ,,13,103,1050003,,,,,,,2024-07-09,1,,,,,ユウガ,0
2207,9010603010948,新規,0,2024-07-09,2024-07-09,人事創生コンサルティング合同会社,,合同会社,東京都,江東区,冬木１５番１９号２０１号室,,13,108,1350041,,,,,,,2024-07-09,1,,,,,ジンジソウセイコンサルティング,0
2217,9011101108020,新規,0,2024-07-09,2024-07-09,株式会社Ｔｏｋｙｏ　ＤｅｎＳｕｍｍｅｒ,,株式会社,東京都,新宿区,西新宿３丁目３番１３号西新宿水間ビル６階,,13,104,1600023,,,,,,,2024-07-09,1,,,,,トーキョーデンサマー,0
2219,9011103014670,新規,0,2024-07-09,2024-07-09,合同会社Ｋプロダクション,,合同会社,東京都,新宿区,歌舞伎町１丁目１４番５号,,13,104,1600021,,,,,,,2024-07-09,1,,,,,ケープロダクション,0
2225,9011303005230,新規,0,2024-07-09,2024-07-09,合同会社Ｍ＆Ｊ,,合同会社,東京都,杉並区,高円寺南３丁目１－１２,,13,115,1660003,,,,,,,2024-07-09,1,,,,,エムアンドジェイ,0
2233,9011603004378,新規,0,2024-07-09,2024-07-09,合同会社ＺＥＲＯ　ＣＲＥＡＴＩＯＮ,,合同会社,東京都,練馬区,大泉町２丁目４８－５,,13,120,1780062,,,,,,,2024-07-09,1,,,,,ゼロクリエイション,0
2236,9011801044515,新規,0,2024-07-09,2024-07-09,壹岐株式会社,,株式会社,東京都,葛飾区,水元２丁目１０番７号エリービル１３０３,,13,122,1250032,,,,,,,2024-07-09,1,,,,,イキ,0
2240,9012401042066,新規,0,2024-07-09,2024-07-09,株式会社ＫＩＣＨＩＪＯＪＩ,,株式会社,東京都,武蔵野市,吉祥寺南町２丁目５－９エントピア吉祥寺２０３号室,,13,203,1800003,,,,,,,2024-07-09,1,,,,,キチジョウジ,0
2251,9013301052774,新規,0,2024-07-09,2024-07-09,株式会社Ｆｕｎｃｔｉｏｎ　Ｐｌａｎｎｉｎｇ,,株式会社,東京都,豊島区,南大塚３丁目４５番７号ラインビル５階,,13,116,1700005,,,,,,,2024-07-09,1,,,,,ファンクションプランニング,0
2252,9013303007207,新規,0,2024-07-09,2024-07-09,合同会社ＵＫＯＵ　ＦＩＴ,,合同会社,東京都,豊島区,池袋２丁目３１番１６号,,13,116,1710014,,,,,,,2024-07-09,1,,,,,ウコウフィット,0
2253,9013305003617,新規,0,2024-07-09,2024-07-09,一般社団法人未来日本防災女子,,その他の設立登記法人,東京都,豊島区,南大塚２丁目４２番６号,,13,116,1700005,,,,,,,2024-07-09,1,,,,,ミライニホンボウサイジョシ,0
2257,9020001158034,新規,0,2024-07-09,2024-07-09,株式会社ＵｋｉＵｋｉ　Ｐｈａｃｔ．,,株式会社,神奈川県,川崎市幸区,中幸町１丁目１８番５号,,14,132,2120012,,,,,,,2024-07-09,1,,,,,ウキウキファクト,0
2258,9020001158050,新規,0,2024-07-09,2024-07-09,株式会社レインボー,,株式会社,神奈川県,横浜市港北区,富士塚２丁目６番２６号ホルツハイム弐番館１０１,,14,109,2220012,,,,,,,2024-07-09,1,,,,,レインボー,0
2259,9020001158059,新規,0,2024-07-09,2024-07-09,株式会社ＬＯＪＥＬジャパン,,株式会社,神奈川県,横浜市西区,みなとみらい３丁目７番１号ＯｃｅａｎＧａｔｅＭｉｎａｔｏｍｉｒａｉ８階,,14,103,2200012,,,,,,,2024-07-09,1,,,,,ロジョエルジャパン,0
2260,9020003026404,新規,0,2024-07-09,2024-07-09,合同会社ＢＥＬＬＥプランニング,,合同会社,神奈川県,横浜市中区,西竹之丸１０６番地３コスモ山手グレイスフォルム４０７号室,,14,104,2310852,,,,,,,2024-07-09,1,,,,,ベルプランニング,0
2261,9020003026478,新規,0,2024-07-09,2024-07-09,コーディ合同会社,,合同会社,神奈川県,横浜市西区,北幸２丁目１０番４８号むつみビル３階,,14,103,2200004,,,,,,,2024-07-09,1,,,,,コーディ,0
2272,9030001161326,新規,0,2024-07-09,2024-07-09,株式会社クレフル,,株式会社,埼玉県,越谷市,レイクタウン７丁目３番地２４,,11,222,3430828,,,,,,,2024-07-09,1,,,,,クレフル,0
2279,9030003024654,新規,0,2024-07-09,2024-07-09,ＨＢＫ　ＩＭＰＥＸ　ＪＡＰＡＮ合同会社,,合同会社,埼玉県,飯能市,緑町１３番地１２緑町ビル１Ｂ,,11,209,3570024,,,,,,,2024-07-09,1,,,,,エイチビーケーインペックスジャパン,0
2280,9030003024662,新規,0,2024-07-09,2024-07-09,Ｓａｑｒ　Ｐｔｅ合同会社,,合同会社,埼玉県,川越市,大字的場２１６４番地２２レジェンドハイムナカノ２０２号室,,11,201,3501101,,,,,,,2024-07-09,1,,,,,サクアルペティ,0
2291,9040003025379,新規,0,2024-07-09,2024-07-09,合同会社ＷＬＤ,,合同会社,千葉県,船橋市,八木が谷１丁目４０－４,,12,204,2740802,,,,,,,2024-07-09,1,,,,,ダブリューエルディー,0
2293,9050001055055,新規,0,2024-07-09,2024-07-09,ジャパンホームサービス株式会社,,株式会社,茨城県,つくば市,小野崎１６６６番地４,,08,220,3050034,,,,,,,2024-07-09,1,,,,,ジャパンホームサービス,0
2297,9060002036689,新規,0,2024-07-09,2024-07-09,有限会社たちばな,,有限会社,栃木県,足利市,田中町９３４番地１３,,09,202,3260822,,,,,,,2024-07-09,1,,,,,タチバナ,0
2306,9100001037626,新規,0,2024-07-09,2024-07-09,株式会社アイサイ賃貸企画,,株式会社,長野県,安曇野市,穂高３１４２番地２,,20,220,3998303,,,,,,,2024-07-09,1,,,,,アイサイチンタイキカク,0
2307,9100001037634,新規,0,2024-07-09,2024-07-09,株式会社ＴＯＭＯ建,,株式会社,長野県,中野市,大字豊津４１９５番地１０,,20,211,3892101,,,,,,,2024-07-09,1,,,,,トモケン,0
2308,9100001037642,新規,0,2024-07-09,2024-07-09,遠藤建築株式会社,,株式会社,長野県,上高井郡小布施町,大字雁田６０５番地,,20,541,3810211,,,,,,,2024-07-09,1,,,,,エンドウケンチク,0
2309,9100001037650,新規,0,2024-07-09,2024-07-09,株式会社エムプラス,,株式会社,長野県,岡谷市,中央町２丁目２番１号,,20,204,3940027,,,,,,,2024-07-09,1,,,,,エムプラス,0
2310,9100003007643,新規,0,2024-07-09,2024-07-09,合同会社ピックルボールスクエア,,合同会社,長野県,小諸市,御幸町１丁目１４０６番２号,,20,208,3840005,,,,,,,2024-07-09,1,,,,,ピックルボールスクエア,0
2316,9110001038549,新規,0,2024-07-09,2024-07-09,株式会社ＬＯＯＰ,,株式会社,新潟県,阿賀野市,高田２９９番地２,,15,223,9591971,,,,,,,2024-07-09,1,,,,,ループ,0
2326,9120001266446,新規,0,2024-07-09,2024-07-09,株式会社福岡フードサービス,,株式会社,大阪府,大阪市中央区,宗右衛門町１－２５－１Ｆ,,27,128,5420084,,,,,,,2024-07-09,1,,,,,フクオカフードサービス,0
2327,9120001266495,新規,0,2024-07-09,2024-07-09,株式会社エノグ,,株式会社,大阪府,大阪市旭区,赤川３丁目１番１９号,,27,117,5350005,,,,,,,2024-07-09,1,,,,,エノグ,0
2328,9120001266529,新規,0,2024-07-09,2024-07-09,株式会社宇妙,,株式会社,大阪府,大阪市生野区,中川西１丁目４番１９－２１０号,,27,116,5440032,,,,,,,2024-07-09,1,,,,,ウミョウ,0
2329,9120001266561,新規,0,2024-07-09,2024-07-09,勝友商業技術株式会社,,株式会社,大阪府,大阪市西区,南堀江２丁目４番７－７０６号,,27,106,5500015,,,,,,,2024-07-09,1,,,,,カツトモショウギョウギジュツ,0
2330,9120001266611,新規,0,2024-07-09,2024-07-09,株式会社ｒｅｃｔａｎｇｌｅ,,株式会社,大阪府,大阪市北区,梅田１丁目２番２号大阪駅前第２ビル１２－１２,,27,127,5300001,,,,,,,2024-07-09,1,,,,,レクタングル,0
2334,9120003026971,新規,0,2024-07-09,2024-07-09,合同会社ヘアキャリ,,合同会社,大阪府,枚方市,宮之阪１丁目１５－３,,27,210,5730022,,,,,,,2024-07-09,1,,,,,ヘアキャリ,0
2337,9120103005925,新規,0,2024-07-09,2024-07-09,ＦＵＳＡｏ合同会社,,合同会社,大阪府,泉南市,岡田５丁目１６番２８号,,27,228,5900531,,,,,,,2024-07-09,1,,,,,フサオ,0
2340,9120903005257,新規,0,2024-07-09,2024-07-09,合同会社トランスポート,,合同会社,大阪府,茨木市,野々宮２丁目２番３０号カンパーニュアウローラ１０１号,,27,211,5670847,,,,,,,2024-07-09,1,,,,,トランスポート,0
2351,9140001135079,新規,0,2024-07-09,2024-07-09,株式会社エスアールシー,,株式会社,兵庫県,姫路市,中地７０６番地４０６号,,28,201,6700976,,,,,,,2024-07-09,1,,,,,エスアールシー,0
2352,9140001135112,新規,0,2024-07-09,2024-07-09,ラーニングプラスデザイン株式会社,,株式会社,兵庫県,加西市,別府町甲１２９８番地,,28,220,6790103,,,,,,,2024-07-09,1,,,,,ラーニングプラスデザイン,0
2357,9150001027416,新規,0,2024-07-09,2024-07-09,株式会社Ｆｉｒｓｔ　Ｃｌａｓｓ,,株式会社,奈良県,北葛城郡広陵町,馬見北１丁目７－２１中川ビル２階Ｂ－３号,,29,426,6350831,,,,,,,2024-07-09,1,,,,,ファーストクラス,0
2376,9190003004723,新規,0,2024-07-09,2024-07-09,イーフ不動産合同会社,,合同会社,三重県,伊勢市,御薗町高向８５６番地１,,24,203,5160805,,,,,,,2024-07-09,1,,,,,イーフフドウサン,0
2397,9260003004749,新規,0,2024-07-09,2024-07-09,合同会社八十八鈴,,合同会社,岡山県,玉野市,西田井地２１６３,,33,204,7060313,,,,,,,2024-07-09,1,,,,,ハチジュウハチリン,0
2398,9260003004757,新規,0,2024-07-09,2024-07-09,合同会社九十四鈴,,合同会社,岡山県,岡山市北区,富田町１丁目２番２７号ロータスマンション岡山３０３号室,,33,101,7000816,,,,,,,2024-07-09,1,,,,,キュウジュウヨンリン,0
2399,9260003004765,新規,0,2024-07-09,2024-07-09,合同会社九十八鈴,,合同会社,岡山県,岡山市中区,山崎２９－１４誠和コーポ２０１,,33,102,7038267,,,,,,,2024-07-09,1,,,,,キュウジュウハチリン,0
2400,9260003004773,新規,0,2024-07-09,2024-07-09,合同会社六十八鈴,,合同会社,岡山県,岡山市東区,金岡東町１丁目５番６号マリーアンジュＩＩＡ２０１,00135524,33,103,7048194,,,,,,,2024-07-09,1,,,,,ロクジュウハチリン,0
2407,9290001106370,新規,0,2024-07-09,2024-07-09,株式会社カウントダウン,,株式会社,福岡県,福岡市博多区,博多駅前１丁目２３番２号５Ｆ－Ｂ,,40,132,8120011,,,,,,,2024-07-09,1,,,,,カウントダウン,0
2408,9290001106412,新規,0,2024-07-09,2024-07-09,Ｍｉｒａｔｉｙ株式会社,,株式会社,福岡県,福岡市博多区,博多駅南１丁目５番１８号,,40,132,8120016,,,,,,,2024-07-09,1,,,,,ミラティ,0
2419,9310001019090,新規,0,2024-07-09,2024-07-09,株式会社ＧＲＩＴ,,株式会社,長崎県,東彼杵郡川棚町,新谷郷１２１３番地３,,42,322,8593619,,,,,,,2024-07-09,1,,,,,グリット,0
2423,9330001032216,新規,0,2024-07-09,2024-07-09,西川管工株式会社,,株式会社,熊本県,熊本市西区,上代７丁目２７番２０号,,43,103,8600068,,,,,,,2024-07-09,1,,,,,ニシカワカンコウ,0
2424,9340001026638,新規,0,2024-07-09,2024-07-09,ＪＩＮＥＮ株式会社,,株式会社,鹿児島県,熊毛郡屋久島町,平内３４０－１１７パインヒル恋泊Ｎｏ．Ｒ,,46,505,8914406,,,,,,,2024-07-09,1,,,,,ジネン,0
2435,9380001034661,新規,0,2024-07-09,2024-07-09,株式会社鈴木鉄工所,,株式会社,福島県,会津若松市,材木町１丁目１０番４７号,,07,202,9650853,,,,,,,2024-07-09,1,,,,,スズキテッコウショ,0
2443,9430003016520,新規,0,2024-07-09,2024-07-09,合同会社ｏｒｃａ,,合同会社,北海道,札幌市中央区,南三条西３丁目７番地１エテルノビル３階,,01,101,0600063,,,,,,,2024-07-09,1,,,,,オルカ,0
2446,9460305002018,新規,0,2024-07-09,2024-07-09,一般社団法人ＫｉＴ　ＣＵＲＬＩＮＧ　ＣＬＵＢ,,その他の設立登記法人,北海道,北見市,北二条西２丁目８番,,01,208,0900042,,,,,,,2024-07-09,1,,,,,キットカーリングクラブ,0
2448,9470001020280,新規,0,2024-07-09,2024-07-09,ありがとうございます株式会社,,株式会社,香川県,高松市,中野町２９番５号高松プラザビル３Ｆ,,37,201,7600008,,,,,,,2024-07-09,1,,,,,アリガトウゴザイマス,0
2451,9470003002673,新規,0,2024-07-09,2024-07-09,ＡＺ合同会社,,合同会社,香川県,高松市,太田上町２３番地１３,,37,201,7618074,,,,,,,2024-07-09,1,,,,,,0
2453,9490001010809,新規,0,2024-07-09,2024-07-09,株式会社材賢,,株式会社,高知県,四万十市,西土佐江川崎１２４３番地１,,39,210,7871601,,,,,,,2024-07-09,1,,,,,ザイケン,0
2463,9700150126409,新規,0,2024-07-09,2024-07-09,ｄｉａｎｙｉｎｍａｏｙｉｙｏｕｘｉａｎｇｏｎｇｓｉ,,外国会社等,,,,,,,,ｃｈｉｋａｎｑｕｋａｎｇｓｈｕｎｌｕ１１７ｈａｏ，ｈｕａｌｉａｎｄｉａｎｎａｏｃｈｅｎｇｄａｌｏｕ６ｌｏｕ６２３ｓｈｉ，ｚｈａｎｊｉａｎｇｓｈｉ，ｇｕａｎｇｄｏｎｇ,,,,,,2024-07-09,1,,,,,デンキンカントンボウエキユウゲンコウシ,0
2464,9700150126425,新規,0,2024-07-09,2024-07-09,Ｐｕｊｉａｎｇ　Ｍｅｎｇｌｉ　Ｋｎｉｔｔｉｎｇ　Ｃｏ,,外国会社等,,,,,,,,ＺｈｅＪｉａｎｇＳｈｅｎｇＰｕＪｉａｎｇＸｉａｎＨｕａｎｇＺｈａｉＺｈｅｎＺｈｉＹｏｎｇＣｕｎＨｕａｎｇＳｉ３７Ｈａｏ,,,,,,2024-07-09,1,,,,,プージャンモンリージェンジーヨウシエンゴンスー,0
