sequenceNumber,corporateNumber,process,correct,updateDate,changeDate,name,nameImageId,kind,prefectureName,cityName,streetNumber,addressImageId,prefectureCode,cityCode,postCode,addressOutside,addressOutsideImageId,closeDate,closeCause,successorCorporateNumber,changeCause,assignmentDate,latest,enName,enPrefectureName,enCityName,enAddressOutside,furigana,hihyoji
7,1010003031049,登記記録の閉鎖等,0,2025-05-28,2025-05-09,合同会社ロッキーゲートワン,,合同会社,東京都,中央区,日本橋１丁目４番１号,,13,102,1030027,,,2025-05-09,清算の結了等,,,2019-11-14,1,,,,,ロッキーゲートワン,0
15,1010401117317,登記記録の閉鎖等,0,2025-05-28,2025-04-25,株式会社ＴｅｌｅＶＡＮＣＥ,,株式会社,東京都,港区,赤坂４丁目２番１９号,,13,103,1070052,,,2025-04-25,清算の結了等,,,2015-10-05,1,,,,,テレヴァンス,0
17,1010401176890,登記記録の閉鎖等,0,2025-05-28,2025-03-25,株式会社Ｓｈａｍａｎｉｃ　ｃｏｒ,,株式会社,東京都,港区,南青山５丁目６番地９号サウス青山－４０２,,13,103,1070062,,,2025-03-25,清算の結了等,,,2023-09-01,1,,,,,シャーマニックコル,0
31,1010901010715,登記記録の閉鎖等,0,2025-05-28,2025-05-26,株式会社ブルーグラス,,株式会社,東京都,世田谷区,下馬６丁目４５番１０号,,13,112,1540002,,,2025-05-26,清算の結了等,,,2015-10-05,1,,,,,ブルーグラス,0
36,1011001054842,登記記録の閉鎖等,0,2025-05-28,2025-04-24,Ｍｏｎｏｔｙｐｅ株式会社,,株式会社,東京都,港区,北青山３丁目２番４号,,13,103,1070061,,,2025-04-24,合併による解散等,7290001010129,令和７年３月３１日東京都港区北青山三丁目２番４号フォントワークス株式会社（7290001010129）に合併し解散,2015-10-05,1,,,,,モノタイプ,0
51,1011101060955,登記記録の閉鎖等,0,2025-05-28,2025-05-27,株式会社ナローピーク,,株式会社,東京都,新宿区,新宿５丁目１７番１８号,,13,104,1600022,,,2025-05-27,合併による解散等,2013301020432,令和７年３月３１日東京都豊島区西池袋一丁目４番１０号株式会社ＨＣＭＡアルファ（2013301020432）に合併し解散,2015-10-05,1,,,,,ナローピーク,0
64,1013101007580,登記記録の閉鎖等,0,2025-05-28,2025-05-26,株式会社ＢＥＬＬ　ＷＯＯＤ,,株式会社,東京都,あきる野市,切欠１９５３番地４,,13,228,1970824,,,2025-05-26,清算の結了等,,,2017-04-10,1,,,,,ベルウッド,0
77,1020003026997,登記記録の閉鎖等,0,2025-05-28,2025-05-23,合同会社ＰＮＦ,,合同会社,神奈川県,横浜市中区,麦田町２丁目５９ＬＵＭＥＥＤ横濱山手４０１,,14,104,2310849,,,2025-05-23,清算の結了等,,,2024-10-01,1,,,,,ピーエヌエフ,0
79,1020005016088,登記記録の閉鎖等,0,2025-05-28,2025-05-23,一般社団法人ＭＤＳエンターテインメント,,その他の設立登記法人,神奈川県,横浜市都筑区,茅ケ崎中央２３番１６号メイフェアミュゼレトワール２Ｆ,,14,118,2240032,,,2025-05-23,清算の結了等,,,2023-08-18,1,,,,,エムディーエスエンターテインメント,0
101,1070001016590,登記記録の閉鎖等,0,2025-05-28,2025-05-22,丸幸株式会社,,株式会社,群馬県,太田市,清原町５番地の１１,,10,205,3730012,,,2025-05-22,合併による解散等,7010501008071,令和７年５月１日東京都台東区蔵前四丁目１３番７号アゼアス株式会社（7010501008071）に合併し解散,2015-10-05,1,,,,,マルコウ,0
106,1100001034432,登記記録の閉鎖等,0,2025-05-28,2025-05-22,株式会社アスシアコンサル軽井沢,,株式会社,長野県,北佐久郡軽井沢町,大字長倉２１１５番地５０,,20,321,3890111,,,2025-05-22,清算の結了等,,,2021-07-12,1,,,,,アスシアコンサルカルイザワ,0
130,1130001048108,登記記録の閉鎖等,0,2025-05-28,2025-05-22,株式会社窪田,,株式会社,京都府,京都市中京区,寺町通二条下る妙満寺前町４５３番地呉波ビル４階,,26,104,6040932,,,2025-05-22,清算の結了等,,,2018-07-26,1,,,,,クボタ,0
182,1250001003117,登記記録の閉鎖等,0,2025-05-28,2025-05-22,株式会社河村工務店,,株式会社,山口県,宇部市,松山町２丁目４番４７号,,35,202,7550026,,,2025-05-22,清算の結了等,,,2015-10-05,1,,,,,カワムラコウムテン,0
183,1250002003140,登記記録の閉鎖等,0,2025-05-28,2025-05-26,有限会社水建,,有限会社,山口県,防府市,岩畠１丁目４番２０号,,35,206,7470001,,,2025-05-26,清算の結了等,,,2015-10-05,1,,,,,,0
188,1290001032079,登記記録の閉鎖等,0,2025-05-28,2025-05-20,株式会社プレシュア,,株式会社,福岡県,福岡市博多区,山王１丁目１４番１７号,,40,132,8120015,,,2025-05-20,清算の結了等,,,2015-10-05,1,,,,,プレシュア,0
196,1340005002543,登記記録の閉鎖等,0,2025-05-28,2025-05-26,医療法人双昭会,,その他の設立登記法人,鹿児島県,霧島市,国分重久５９０番地１,,46,218,8994301,,,2025-05-26,清算の結了等,,,2015-10-05,1,,,,,ソウショウカイ,0
203,1370001047985,登記記録の閉鎖等,0,2025-05-28,2025-05-20,株式会社ＣａｒＭｅ,,株式会社,宮城県,加美郡加美町,字矢越３４１番地３,,04,445,9814265,,,2025-05-20,清算の結了等,,,2021-12-24,1,,,,,カーミー,0
230,1500003003320,登記記録の閉鎖等,0,2025-05-28,2025-05-23,合同会社アメイク,,合同会社,愛媛県,今治市,玉川町長谷甲９５０番地７,,38,202,7940109,,,2025-05-23,清算の結了等,,,2024-09-02,1,,,,,アメイク,0
265,2010405020755,登記記録の閉鎖等,0,2025-05-28,2025-04-28,一般社団法人依存症科学研究所,,その他の設立登記法人,東京都,港区,南青山２丁目２番１５号,,13,103,1070062,,,2025-04-28,清算の結了等,,,2022-02-28,1,,,,,イゾンショウカガクケンキュウジョ,0
277,2010801006770,登記記録の閉鎖等,0,2025-05-28,2025-05-21,株式会社タウンハウス,,株式会社,東京都,大田区,大森北１丁目２２番２号山王ビル１階,,13,111,1430016,,,2025-05-21,清算の結了等,,,2015-10-05,1,,,,,タウンハウス,0
282,2010901043549,登記記録の閉鎖等,0,2025-05-28,2025-05-09,Ｃｕｒｉｏ株式会社,,株式会社,東京都,千代田区,九段南１丁目５番６号りそな九段ビル５Ｆ・ＫＳフロア,,13,101,1020074,,,2025-05-09,清算の結了等,,,2019-01-25,1,,,,,キュリオ,0
305,2011701019540,登記記録の閉鎖等,0,2025-05-28,2025-05-21,株式会社光,,株式会社,東京都,江戸川区,鹿骨１丁目６１番４号,,13,123,1330073,,,2025-05-21,清算の結了等,,,2016-01-07,1,,,,,ヒカリ,0
339,2021002044551,登記記録の閉鎖等,0,2025-05-28,2025-05-15,有限会社アルカ製作所,,有限会社,神奈川県,海老名市,中野１丁目２６番４８号,,14,215,2430425,,,2025-05-15,清算の結了等,,,2015-10-05,1,,,,,アルカセイサクショ,0
347,2030003013143,登記記録の閉鎖等,0,2025-05-28,2025-05-26,ネオリア合同会社,,合同会社,埼玉県,さいたま市南区,大字太田窪２９００番地１レカン弐番館２０２,,11,108,3360015,,,2025-05-26,清算の結了等,,,2019-02-26,1,,,,,ネオリア,0
360,2040002040484,登記記録の閉鎖等,0,2025-05-28,2025-05-12,有限会社エヌディーワークス,,有限会社,千葉県,浦安市,美浜１丁目１番１０７号,,12,227,2790011,,,2025-05-12,清算の結了等,,,2015-10-05,1,,,,,エヌディワークス,0
375,2090002010994,登記記録の閉鎖等,0,2025-05-28,2025-05-26,有限会社岡部造林,,有限会社,山梨県,山梨市,三富川浦１４７２番地１,,19,205,4040201,,,2025-05-26,清算の結了等,,,2015-10-05,1,,,,,オカベゾウリン,0
376,2090003001002,登記記録の閉鎖等,0,2025-05-28,2025-05-27,糸井建築工房合同会社,,合同会社,山梨県,北杜市,小淵沢町１００６０番地６４４,,19,209,4080044,,,2025-05-27,清算の結了等,,,2015-10-05,1,,,,,イトイケンチクコウボウ,0
380,2110001018284,登記記録の閉鎖等,0,2025-05-28,2025-05-16,山新林業株式会社,,株式会社,新潟県,村上市,瀬波中町１３番３２号,,15,212,9580024,,,2025-05-16,清算の結了等,,,2015-10-05,1,,,,,ヤマシンリンギョウ,0
422,2140001064276,登記記録の閉鎖等,0,2025-05-28,2025-05-26,イー・ドリーム株式会社,,株式会社,兵庫県,姫路市,飾磨区恵美酒１４２番地１,,28,201,6728057,,,2025-05-26,清算の結了等,,,2015-10-05,1,,,,,イードリーム,0
444,2160002007125,登記記録の閉鎖等,0,2025-05-28,2025-05-23,ユタカ建設興業有限会社,,有限会社,滋賀県,米原市,野一色８１６番地,,25,214,5210233,,,2025-05-23,清算の結了等,,,2015-10-05,1,,,,,ユタカケンセツコウギョウ,0
447,2180001085392,登記記録の閉鎖等,0,2025-05-28,2025-05-23,株式会社平林デザイン,,株式会社,愛知県,一宮市,木曽川町黒田八ノ通り８８番地,,23,203,4930001,,,2025-05-23,清算の結了等,,,2015-10-05,1,,,,,ヒラバヤシデザイン,0
458,2180301012955,登記記録の閉鎖等,0,2025-05-28,2025-05-23,彰秀企業株式会社,,株式会社,愛知県,安城市,東栄町６丁目１０番地５,,23,212,4460007,,,2025-05-23,清算の結了等,,,2015-10-05,1,,,,,ショウシュウキギョウ,0
460,2180301020677,登記記録の閉鎖等,0,2025-05-28,2025-05-21,株式会社アースネット,,株式会社,愛知県,豊田市,竹生町４丁目１６番地１,,23,211,4710077,,,2025-05-21,合併による解散等,1180301020694,令和７年５月１日愛知県豊田市竹生町四丁目１６番地１株式会社よろずや（1180301020694）に合併し解散,2015-10-05,1,,,,,アースネット,0
463,2190001022122,登記記録の閉鎖等,0,2025-05-28,2025-05-23,株式会社服部養鶏,,株式会社,三重県,鈴鹿市,石薬師町２６２６番地,,24,207,5130012,,,2025-05-23,清算の結了等,,,2015-10-05,1,,,,,ハットリヨウケイ,0
489,2290003014693,登記記録の閉鎖等,0,2025-05-28,2025-05-20,合同会社ＥＮａｃｔ,,合同会社,福岡県,朝倉郡筑前町,弥永９１９番地,,40,447,8380811,,,2025-05-20,清算の結了等,,,2023-12-07,1,,,,,イナクト,0
494,2320001014675,登記記録の閉鎖等,0,2025-05-28,2025-05-20,株式会社オーディーエス,,株式会社,大分県,宇佐市,大字山本２０９２番地の１２,,44,211,8790467,,,2025-05-20,清算の結了等,,,2016-01-26,1,,,,,オーディーエス,0
507,2360002020792,登記記録の閉鎖等,0,2025-05-28,2025-05-20,有限会社ハイール,,有限会社,沖縄県,国頭郡国頭村,字浜９６番地,,47,301,9051415,,,2025-05-20,清算の結了等,,,2015-10-05,1,,,,,ハイール,0
510,2370001019224,登記記録の閉鎖等,0,2025-05-28,2025-05-22,株式会社大陸,,株式会社,宮城県,仙台市泉区,みずほ台３番地の１桂五番館２０２号,,04,105,9813125,,,2025-05-22,清算の結了等,,,2015-10-05,1,,,,,タイリク,0
511,2370001043595,登記記録の閉鎖等,0,2025-05-28,2025-05-22,株式会社佐藤総業,,株式会社,宮城県,角田市,毛萱字西腰７７番地,,04,208,9811517,,,2025-05-22,清算の結了等,,,2018-10-04,1,,,,,サトウソウギョウ,0
540,2500001014327,登記記録の閉鎖等,0,2025-05-28,2025-05-23,株式会社シルキー,,株式会社,愛媛県,四国中央市,寒川町乙６４番地７３,,38,213,7990431,,,2025-05-23,清算の結了等,,,2015-10-05,1,,,,,シルキー,0
557,3010003031047,登記記録の閉鎖等,0,2025-05-28,2025-05-09,合同会社ロッキーゲートセブン,,合同会社,東京都,中央区,日本橋１丁目４番１号,,13,102,1030027,,,2025-05-09,清算の結了等,,,2019-11-14,1,,,,,ロッキーゲートセブン,0
567,3010401145101,登記記録の閉鎖等,0,2025-05-28,2025-04-28,Ｎｏｒｔｈｌａｎｄ　Ｐｏｗｅｒ　Ｄｅｖｅｌｏｐｍｅｎｔ　Ｓｅｒｖｉｃｅｓ　Ｊａｐａｎ株式会社,,株式会社,東京都,港区,六本木１丁目９番１０号アークヒルズ仙石山森タワー２８階ベーカー＆マッケンジー法律事務所内,,13,103,1060032,,,2025-04-28,清算の結了等,,,2019-04-17,1,,,,,ノースランドパワーデベロップメントサービシズジャパン,0
590,3011001030338,登記記録の閉鎖等,0,2025-05-28,2025-05-22,株式会社スタジオ・ティアンドエス・アーキテクツ,,株式会社,神奈川県,横浜市神奈川区,三ツ沢下町１７番６－３０１号,,14,102,2210852,,,2025-05-22,清算の結了等,,,2015-10-05,1,,,,,スタジオティアンドエスアーキテクツ,0
615,3012401000186,登記記録の閉鎖等,0,2025-05-28,2025-05-22,インターセンサー株式会社,,株式会社,東京都,府中市,西原町２丁目２９番地の２８,,13,206,1830046,,,2025-05-22,清算の結了等,,,2015-10-05,1,,,,,インターセンサー,0
647,3040002042876,登記記録の閉鎖等,0,2025-05-28,2025-05-12,有限会社オフィスキタガワ,,有限会社,千葉県,市川市,南八幡４丁目１８番１９号９０６室,,12,203,2720023,,,2025-05-12,清算の結了等,,,2015-10-05,1,,,,,オフィスキタガワ,0
649,3040002102861,登記記録の閉鎖等,0,2025-05-28,2025-04-23,有限会社インサイトデザイン,,有限会社,千葉県,いすみ市,大原９４０７番地５,,12,238,2980004,,,2025-04-23,清算の結了等,,,2015-10-05,1,,,,,インサイトデザイン,0
656,3050005003486,登記記録の閉鎖等,0,2025-05-28,2025-05-15,特定非営利活動法人いろは,,その他の設立登記法人,茨城県,土浦市,生田町７－１８,,08,203,3000047,,,2025-05-15,清算の結了等,,,2015-10-05,1,,,,,イロハ,0
660,3070005006561,登記記録の閉鎖等,0,2025-05-28,2025-05-13,館林たばこ販売協同組合,,その他の設立登記法人,群馬県,館林市,本町３丁目８番３５号,,10,207,3740024,,,2025-05-13,清算の結了等,,,2015-10-05,1,,,,,タテバヤシタバコハンバイ,0
749,3290801010190,登記記録の閉鎖等,0,2025-05-28,2025-05-26,株式会社大正興産,,株式会社,福岡県,北九州市八幡西区,陣原２丁目６番１６号,,40,109,8070821,,,2025-05-26,清算の結了等,,,2015-10-05,1,,,,,タイショウコウサン,0
752,3320001017421,登記記録の閉鎖等,0,2025-05-28,2025-05-26,株式会社Ｂｏｌｔｓ＆Ｎｕｔｓ,,株式会社,大分県,大分市,弁天２丁目５番３８号,,44,201,8700017,,,2025-05-26,清算の結了等,,,2019-12-02,1,,,,,ボルトアンドナッツ,0
765,3370001008787,登記記録の閉鎖等,0,2025-05-28,2025-05-20,西部電設工業株式会社,,株式会社,宮城県,仙台市青葉区,折立１丁目１９番地の２０,,04,101,9820261,,,2025-05-20,清算の結了等,,,2015-10-05,1,,,,,セイブデンセツコウギョウ,0
767,3370001021781,登記記録の閉鎖等,0,2025-05-28,2025-05-20,株式会社鷲尾建設,,株式会社,宮城県,仙台市泉区,松森字長岫３番１６号レジデンス仙台泉３０３,,04,105,9813111,,,2025-05-20,清算の結了等,,,2015-10-05,1,,,,,ワシオケンセツ,0
769,3370102002111,登記記録の閉鎖等,0,2025-05-28,2025-05-20,有限会社日下鉄筋工業,,有限会社,宮城県,刈田郡蔵王町,宮字上原田東４１番地の３,,04,301,9890701,,,2025-05-20,清算の結了等,,,2015-10-05,1,,,,,クサカテッキンコウギョウ,0
770,3370405000613,登記記録の閉鎖等,0,2025-05-28,2025-05-14,特定非営利活動法人ハピふるネット,,その他の設立登記法人,宮城県,登米市,迫町佐沼字大網２１８番地１,,04,212,9870511,,,2025-05-14,清算の結了等,,,2015-10-05,1,,,,,ハピフルネット,0
806,4010003029338,登記記録の閉鎖等,0,2025-05-28,2025-05-12,ＹＭＳ合同会社,,合同会社,東京都,中央区,築地６丁目１１番１－２０２号,,13,102,1040045,,,2025-05-12,清算の結了等,,,2019-02-25,1,,,,,ワイエムエス,0
807,4010003031046,登記記録の閉鎖等,0,2025-05-28,2025-05-09,合同会社ロッキーゲートシックス,,合同会社,東京都,中央区,日本橋１丁目４番１号,,13,102,1030027,,,2025-05-09,清算の結了等,,,2019-11-14,1,,,,,ロッキーゲートシックス,0
808,4010003031054,登記記録の閉鎖等,0,2025-05-28,2025-05-09,合同会社ロッキーゲートテン,,合同会社,東京都,中央区,日本橋１丁目４番１号,,13,102,1030027,,,2025-05-09,清算の結了等,,,2019-11-14,1,,,,,ロッキーゲートテン,0
813,4010401017191,登記記録の閉鎖等,0,2025-05-28,2025-04-25,株式会社田治,,株式会社,東京都,渋谷区,元代々木町１０－５－１０１,,13,113,1510062,,,2025-04-25,清算の結了等,,,2015-10-05,1,,,,,タジ,0
825,4010501037379,登記記録の閉鎖等,0,2025-05-28,2025-05-09,株式会社ウォームブリッジ,,株式会社,東京都,中央区,日本橋浜町３丁目４１－５ブリリアンス日本橋浜町弐番館８０２号,,13,102,1030007,,,2025-05-09,清算の結了等,,,2015-10-05,1,,,,,ウォームブリッジ,0
836,4010801035768,登記記録の閉鎖等,0,2025-05-28,2025-05-19,株式会社インターナショナルブルースター,,株式会社,東京都,大田区,北糀谷１丁目４番８号,,13,111,1440032,,,2025-05-19,清算の結了等,,,2025-01-21,1,,,,,インターナショナルブルースター,0
838,4010901019786,登記記録の閉鎖等,0,2025-05-28,2025-05-23,株式会社ＳＡＦＡＲＩ,,株式会社,東京都,世田谷区,用賀２丁目６番４号,,13,112,1580097,,,2025-05-23,清算の結了等,,,2015-10-05,1,,,,,サファリ,0
859,4011302009955,登記記録の閉鎖等,0,2025-05-28,2025-05-21,有限会社和田商事,,有限会社,東京都,杉並区,井草３丁目３０番１３号,,13,115,1670021,,,2025-05-21,清算の結了等,,,2015-10-05,1,,,,,ワダショウジ,0
860,4011303005037,登記記録の閉鎖等,0,2025-05-28,2025-05-26,合同会社デルタ,,合同会社,静岡県,磐田市,福田７０９番地１エスポワール１０１,,22,211,4371203,,,2025-05-26,清算の結了等,,,2024-01-23,1,,,,,デルタ,0
866,4011702010752,登記記録の閉鎖等,0,2025-05-28,2025-05-21,有限会社松島工業所,,有限会社,東京都,江戸川区,松江３丁目９番６号,,13,123,1320025,,,2025-05-21,清算の結了等,,,2015-10-05,1,,,,,マツシマコウギョウショ,0
885,4020001140987,登記記録の閉鎖等,0,2025-05-28,2025-05-23,株式会社ビスタ,,株式会社,神奈川県,横浜市中区,日ノ出町１丁目２００番地,,14,104,2310066,,,2025-05-23,清算の結了等,,,2021-04-19,1,,,,,ビスタ,0
894,4020002008317,登記記録の閉鎖等,0,2025-05-28,2025-05-26,有限会社青果つちや,,有限会社,神奈川県,横浜市金沢区,大川７番８－８１３号,,14,108,2360043,,,2025-05-26,清算の結了等,,,2015-10-05,1,,,,,,0
907,4040001073723,登記記録の閉鎖等,0,2025-05-28,2025-05-12,株式会社イイヅカ,,株式会社,千葉県,館山市,国分８４８番地,,12,205,2940018,,,2025-05-12,清算の結了等,,,2015-10-05,1,,,,,イイヅカ,0
913,4040002004900,登記記録の閉鎖等,0,2025-05-28,2025-05-13,有限会社サトー金型工業,,有限会社,千葉県,千葉市稲毛区,園生町４１９番地の３,,12,103,2630051,,,2025-05-13,清算の結了等,,,2015-10-05,1,,,,,サトーカナガタコウギョウ,0
966,4122005001924,登記記録の閉鎖等,0,2025-05-28,2025-05-26,医療法人大西内科,,その他の設立登記法人,大阪府,柏原市,玉手町１０番１９号,,27,221,5820028,,,2025-05-26,清算の結了等,,,2015-10-05,1,,,,,オオニシナイカ,0
1020,4260002009282,登記記録の閉鎖等,0,2025-05-28,2025-05-22,有限会社マキ不動産事務所,,有限会社,岡山県,岡山市北区,津島福居１丁目５番１６－１０８号,,33,101,7000080,,,2025-05-22,清算の結了等,,,2015-10-05,1,,,,,マキフドウサンジムショ,0
1063,4420002013185,登記記録の閉鎖等,0,2025-05-28,2025-05-21,有限会社原子力電機,,有限会社,青森県,弘前市,大字茂森新町１丁目１番地１１,,02,202,0368261,,,2025-05-21,清算の結了等,,,2015-10-05,1,,,,,ゲンシリョクデンキ,0
1064,4420005007275,登記記録の閉鎖等,0,2025-05-28,2025-05-19,医療法人待陽会,,その他の設立登記法人,青森県,平川市,町居山元９５番地３,,02,210,0360114,,,2025-05-19,清算の結了等,,,2015-10-05,1,,,,,タイヨウカイ,0
1076,4430005001723,登記記録の閉鎖等,0,2025-05-28,2025-05-23,医療法人社団くきた整形外科クリニック,,その他の設立登記法人,北海道,札幌市中央区,北一条西４丁目２番２号,,01,101,0600001,,,2025-05-23,清算の結了等,,,2015-10-05,1,,,,,クキタセイケイゲカクリニック,0
1085,5010001127927,登記記録の閉鎖等,0,2025-05-28,2025-05-22,デイトン・タイヤ・ジャパン株式会社,,株式会社,東京都,小平市,小川東町３丁目１番１号,,13,211,1870031,,,2025-05-22,清算の結了等,,,2015-10-05,1,,,,,デイトンタイヤジャパン,0
1097,5010003031045,登記記録の閉鎖等,0,2025-05-28,2025-05-09,合同会社ロッキーゲートファイブ,,合同会社,東京都,中央区,日本橋１丁目４番１号,,13,102,1030027,,,2025-05-09,清算の結了等,,,2019-11-14,1,,,,,ロッキーゲートファイブ,0
1098,5010003031053,登記記録の閉鎖等,0,2025-05-28,2025-05-09,合同会社ロッキーゲートナイン,,合同会社,東京都,中央区,日本橋１丁目４番１号,,13,102,1030027,,,2025-05-09,清算の結了等,,,2019-11-14,1,,,,,ロッキーゲートナイン,0
1148,5011701012724,登記記録の閉鎖等,0,2025-05-28,2025-05-20,株式会社長友,,株式会社,東京都,江戸川区,春江町５丁目１２番地１５,,13,123,1340003,,,2025-05-20,清算の結了等,,,2015-10-05,1,,,,,ナガトモ,0
1149,5011801017648,登記記録の閉鎖等,0,2025-05-28,2025-05-23,株式会社調査のニッピ,,株式会社,東京都,足立区,千住大川町１４番５号,,13,121,1200031,,,2025-05-23,清算の結了等,,,2015-10-05,1,,,,,チョウサノニッピ,0
1208,5080001023277,登記記録の閉鎖等,0,2025-05-28,2025-05-23,株式会社大井川フーズ,,株式会社,静岡県,島田市,金谷中町１７７０－１０,,22,209,4280043,,,2025-05-23,清算の結了等,,,2019-12-26,1,,,,,オオイガワフーズ,0
1211,5080401005775,登記記録の閉鎖等,0,2025-05-28,2025-05-27,株式会社ワシントン,,株式会社,静岡県,浜松市中央区,鴨江３丁目１５番１２号,,22,138,4328023,,,2025-05-27,清算の結了等,,,2015-10-05,1,,,,,ワシントン,0
1217,5100001026252,登記記録の閉鎖等,0,2025-05-28,2025-05-26,株式会社アリスト,,株式会社,長野県,上田市,福田４１２番地１,,20,203,3861104,,,2025-05-26,清算の結了等,,,2015-10-05,1,,,,,アリスト,0
1224,5110002017539,登記記録の閉鎖等,0,2025-05-28,2025-05-16,有限会社樋口材木店,,有限会社,新潟県,三条市,西本成寺２丁目１０番１号,,15,204,9550845,,,2025-05-16,清算の結了等,,,2015-10-05,1,,,,,ヒグチザイモクテン,0
1228,5120001130515,登記記録の閉鎖等,0,2025-05-28,2025-05-21,株式会社アイエーアジア,,株式会社,大阪府,大阪市北区,天満４丁目６－５河野ビル,,27,127,5300043,,,2025-05-21,清算の結了等,,,2015-10-05,1,,,,,アイエーアジア,0
1251,5140001060966,登記記録の閉鎖等,0,2025-05-28,2025-05-23,姫路ダイサン株式会社,,株式会社,兵庫県,姫路市,北条梅原町１１０番地,,28,201,6700945,,,2025-05-23,清算の結了等,,,2015-10-05,1,,,,,ヒメジダイサン,0
1260,5140002060643,登記記録の閉鎖等,0,2025-05-28,2025-05-26,有限会社あらた新社,,有限会社,兵庫県,西宮市,今津真砂町１番２２－１０６号,,28,204,6638224,,,2025-05-26,清算の結了等,,,2015-10-05,1,,,,,アラタシンシャ,0
1268,5160001011447,登記記録の閉鎖等,0,2025-05-28,2025-05-23,株式会社ソリューション・バリュー,,株式会社,滋賀県,近江八幡市,古川町８２０番地,,25,204,5230056,,,2025-05-23,清算の結了等,,,2015-10-05,1,,,,,ソリューションバリュー,0
1283,5190002005098,登記記録の閉鎖等,0,2025-05-28,2025-05-23,有限会社橘商会,,有限会社,三重県,熊野市,久生屋町７７３番地,,24,212,5194326,,,2025-05-23,清算の結了等,,,2015-10-05,1,,,,,タチバナショウカイ,0
1304,5260003001221,登記記録の閉鎖等,0,2025-05-28,2025-04-16,ＭＬＡＴ合同会社,,合同会社,岡山県,美作市,上山２１３５番地,,33,215,7012614,,,2025-04-16,清算の結了等,,,2015-10-05,1,,,,,ムラット,0
1323,5310003003757,登記記録の閉鎖等,0,2025-05-28,2025-05-26,にじいろ企画合同会社,,合同会社,長崎県,長崎市,江の浦町２番２０号,,42,201,8528007,,,2025-05-26,清算の結了等,,,2019-10-18,1,,,,,ニジイロキカク,0
1345,5390002010978,登記記録の閉鎖等,0,2025-05-28,2025-05-22,有限会社福田商事,,有限会社,山形県,新庄市,若葉町６番１号,,06,205,9960025,,,2025-05-22,清算の結了等,,,2015-10-05,1,,,,,フクダショウジ,0
1350,5420002012186,登記記録の閉鎖等,0,2025-05-28,2025-05-23,有限会社菊水工業,,有限会社,青森県,北津軽郡板柳町,大字三千石字木賊１３８番地２,,02,381,0383684,,,2025-05-23,清算の結了等,,,2015-10-05,1,,,,,キクスイコウギョウ,0
1365,6010001120591,登記記録の閉鎖等,0,2025-05-28,2025-05-22,株式会社アイ・イノベーション,,株式会社,神奈川県,川崎市川崎区,中瀬３丁目２０番１８－１００２号,,14,131,2100818,,,2025-05-22,清算の結了等,,,2015-10-05,1,,,,,アイイノベーション,0
1376,6010003031052,登記記録の閉鎖等,0,2025-05-28,2025-05-09,合同会社ロッキーゲートフォー,,合同会社,東京都,中央区,日本橋１丁目４番１号,,13,102,1030027,,,2025-05-09,清算の結了等,,,2019-11-14,1,,,,,ロッキーゲートフォー,0
1379,6010005007158,登記記録の閉鎖等,0,2025-05-28,2025-05-23,一般社団法人エヌツー,,その他の設立登記法人,東京都,千代田区,丸の内２丁目６番１号,,13,101,1000005,,,2025-05-23,清算の結了等,,,2015-10-05,1,,,,,エヌツー,0
1388,6010401121446,登記記録の閉鎖等,0,2025-05-28,2025-04-18,株式会社アトラクトスペース,,株式会社,東京都,港区,三田３丁目７番１６－８０３号,,13,103,1080073,,,2025-04-18,清算の結了等,,,2015-11-10,1,,,,,アトラクトスペース,0
1393,6010403025488,登記記録の閉鎖等,0,2025-05-28,2025-05-16,ＭＳ合同会社,,合同会社,東京都,台東区,上野６丁目１番６号御徒町グリーンハイツ１００５号,,13,106,1100005,,,2025-05-16,清算の結了等,,,2021-06-10,1,,,,,エムエス,0
1397,6010405002353,登記記録の閉鎖等,0,2025-05-28,2025-04-28,全国農林漁業団体職員労働組合連合,,その他の設立登記法人,東京都,港区,浜松町１丁目１９－４佐藤ビル内,,13,103,1050013,,,2025-04-28,清算の結了等,,,2015-10-05,1,,,,,ゼンコクノウリンギョギョウダンタイショクインレンゴウ,0
1407,6010801022368,登記記録の閉鎖等,0,2025-05-28,2025-05-21,株式会社東新製作所,,株式会社,東京都,大田区,大森南４丁目１０番２０号,,13,111,1430013,,,2025-05-21,清算の結了等,,,2015-10-05,1,,,,,トウシンセイサクショ,0
1415,6011001040739,登記記録の閉鎖等,0,2025-05-28,2025-05-26,シーシーエヌ総合研究所株式会社,,株式会社,東京都,町田市,鶴間３丁目３番地７ドレッセタワー南町田グランベリーパーク４０５,,13,209,1940004,,,2025-05-26,清算の結了等,,,2015-10-05,1,,,,,,0
1424,6011005010556,登記記録の閉鎖等,0,2025-05-28,2025-04-25,一般社団法人Ｄｏｔｓ　ｔｏ　Ｃｏｄｅ,,その他の設立登記法人,東京都,渋谷区,道玄坂１丁目１０番８号渋谷道玄坂東急ビル２Ｆ－Ｃ,,13,113,1500043,,,2025-04-25,清算の結了等,,,2024-06-21,1,,,,,ドッツトューコード,0
1461,6020003004494,登記記録の閉鎖等,0,2025-05-28,2025-05-26,合同会社ＰｒｉｚｅＥｎｔｅｒｔａｉｎｍｅｎｔ,,合同会社,神奈川県,横浜市神奈川区,鶴屋町３丁目３２番１４号,,14,102,2210835,,,2025-05-26,清算の結了等,,,2015-10-05,1,,,,,プライズエンターテインメント,0
1472,6030003003438,登記記録の閉鎖等,0,2025-05-28,2025-05-23,合同会社イオシステックス,,合同会社,埼玉県,越谷市,宮本町２丁目２８３番地３号,,11,222,3430806,,,2025-05-23,清算の結了等,,,2015-10-05,1,,,,,イオシステックス,0
1482,6040001116785,登記記録の閉鎖等,0,2025-05-28,2025-05-13,株式会社トイパーク,,株式会社,千葉県,千葉市稲毛区,小仲台６丁目２番１０－４０３号,,12,103,2630043,,,2025-05-13,清算の結了等,,,2021-01-19,1,,,,,トイパーク,0
1486,6050001017520,登記記録の閉鎖等,0,2025-05-28,2025-05-23,株式会社リバティー,,株式会社,茨城県,つくば市,大角豆２０１２番地７１５,,08,220,3050043,,,2025-05-23,清算の結了等,,,2015-10-05,1,,,,,リバティー,0
1519,6110002034401,登記記録の閉鎖等,0,2025-05-28,2025-05-20,河原田商事有限会社,,有限会社,新潟県,佐渡市,河原田本町２７番地,,15,224,9521314,,,2025-05-20,清算の結了等,,,2015-10-05,1,,,,,カワハラダショウジ,0
1523,6120001133087,登記記録の閉鎖等,0,2025-05-28,2025-05-19,ルキアプロジェクト株式会社,,株式会社,大阪府,大阪市中央区,島之内２丁目８番５号,,27,128,5420082,,,2025-05-19,清算の結了等,,,2015-10-05,1,,,,,ルキアプロジェクト,0
1552,6122001008384,登記記録の閉鎖等,0,2025-05-28,2025-05-22,株式会社大阪シー・イー・センター,,株式会社,大阪府,東大阪市,水走２丁目１４番９号,,27,227,5780921,,,2025-05-22,清算の結了等,,,2015-10-05,1,,,,,オオサカシーイーセンター,0
1595,6180001119675,登記記録の閉鎖等,0,2025-05-28,2025-05-26,株式会社忠兵衛,,株式会社,愛知県,名古屋市瑞穂区,村上町１丁目２４番地の１,,23,108,4670008,,,2025-05-26,清算の結了等,,,2015-10-05,1,,,,,チュウベイ,0
1610,6180005017529,登記記録の閉鎖等,0,2025-05-28,2025-05-27,一般社団法人スピリチュアルライフラブ協会,,その他の設立登記法人,愛知県,名古屋市港区,福田２丁目１０９番地,,23,111,4550887,,,2025-05-27,清算の結了等,,,2017-10-26,1,,,,,スピリチュアルライフラブキョウカイ,0
1614,6180302022223,登記記録の閉鎖等,0,2025-05-28,2025-05-19,有限会社シンアイ,,有限会社,愛知県,豊田市,東新町３丁目２８番地３,,23,211,4710045,,,2025-05-19,清算の結了等,,,2015-10-05,1,,,,,シンアイ,0
1625,6240001031320,登記記録の閉鎖等,0,2025-05-28,2025-05-26,株式会社檀上,,株式会社,広島県,福山市,柳津町４丁目８番６号,,34,207,7290114,,,2025-05-26,清算の結了等,,,2015-10-05,1,,,,,ダンジョウ,0
1634,6260002025245,登記記録の閉鎖等,0,2025-05-28,2025-04-11,徳永電工有限会社,,有限会社,岡山県,浅口郡里庄町,大字新庄４４９２番地の２,,33,445,7190302,,,2025-04-11,清算の結了等,,,2015-10-05,1,,,,,トクナガデンコウ,0
1641,6320001017666,登記記録の閉鎖等,0,2025-05-28,2025-05-08,株式会社Ｄｏｔｓ　ａｎｄ　Ｌ,,株式会社,大分県,別府市,大字鉄輪５５９番地の１,,44,202,8740000,,,2025-05-08,合併による解散等,5320003000514,令和７年５月８日大分県別府市大字鉄輪５５９番地の１株式会社海地獄（5320003000514）に合併し解散,2020-04-17,1,,,,,ドッツアンドエル,0
1658,6410001003855,登記記録の閉鎖等,0,2025-05-28,2025-05-26,株式会社ランドマーク不動産,,株式会社,秋田県,秋田市,金足追分字海老穴２６２番地２,,05,201,0100126,,,2025-05-26,清算の結了等,,,2015-10-05,1,,,,,,0
1669,6500001021369,登記記録の閉鎖等,0,2025-05-28,2025-05-27,株式会社ロクマルエンジ,,株式会社,愛媛県,松山市,久米窪田町３３７番地１テクノプラザ愛媛内,00130524,38,201,7911101,,,2025-05-27,清算の結了等,,,2018-05-18,1,,,,,ロクマルエンジ,0
1678,7010003031051,登記記録の閉鎖等,0,2025-05-28,2025-05-09,合同会社ロッキーゲートスリー,,合同会社,東京都,中央区,日本橋１丁目４番１号,,13,102,1030027,,,2025-05-09,清算の結了等,,,2019-11-14,1,,,,,ロッキーゲートスリー,0
1685,7010401104771,登記記録の閉鎖等,0,2025-05-28,2025-05-23,株式会社リアルユナイテッド,,株式会社,東京都,江東区,有明３丁目７番地２６号有明フロンティアビルＢ棟９階,,13,108,1350063,,,2025-05-23,清算の結了等,,,2015-10-05,1,,,,,リアルユナイテッド,0
1686,7010401173973,登記記録の閉鎖等,0,2025-05-28,2025-05-02,株式会社スタートアップキャピタル,,株式会社,東京都,港区,南青山１丁目１５番９号第４５興和ビル,,13,103,1070062,,,2025-05-02,清算の結了等,,,2023-04-25,1,,,,,スタートアップキャピタル,0
1713,7011103010069,登記記録の閉鎖等,0,2025-05-28,2025-05-23,合同会社Ｌｉｏｎｅｌ　Ｖａｎｇｕａｒｄ,,合同会社,東京都,世田谷区,上馬２丁目２６番７－３０１号,,13,112,1540011,,,2025-05-23,清算の結了等,,,2020-10-01,1,,,,,リオネルヴァンガード,0
1748,7020005012858,登記記録の閉鎖等,0,2025-05-28,2025-05-26,医療法人アールシー,,その他の設立登記法人,神奈川県,横浜市西区,みなとみらい２丁目２番１号横浜ランドマークタワー７階７０１区,,14,103,2200012,,,2025-05-26,清算の結了等,,,2016-12-07,1,,,,,アールシー,0
1754,7030001097852,登記記録の閉鎖等,0,2025-05-28,2025-05-26,株式会社ケーテックエンジニアリング,,株式会社,埼玉県,さいたま市見沼区,大字御蔵１１５２番地６,,11,104,3370033,,,2025-05-26,清算の結了等,,,2015-10-05,1,,,,,ケーテックエンジニアリング,0
1773,7040001125793,登記記録の閉鎖等,0,2025-05-28,2025-05-12,株式会社マルイ,,株式会社,千葉県,千葉市花見川区,こてはし台１丁目１－１５－２Ｆ,,12,102,2620005,,,2025-05-12,清算の結了等,,,2022-11-11,1,,,,,マルイ,0
1790,7070001001380,登記記録の閉鎖等,0,2025-05-28,2025-05-23,三共ネクスト株式会社,,株式会社,群馬県,前橋市,三俣町２丁目１番地７,,10,201,3710018,,,2025-05-23,合併による解散等,8030001068035,令和７年４月１日東京都品川区東品川一丁目３９番２０号ミライフ株式会社（8030001068035）に合併し解散,2015-10-05,1,,,,,サンキョウネクスト,0
1791,7070002014209,登記記録の閉鎖等,0,2025-05-28,2025-05-23,有限会社ヒイラギ,,有限会社,群馬県,高崎市,箕郷町善地８８９番地,,10,202,3703112,,,2025-05-23,清算の結了等,,,2015-10-05,1,,,,,ヒイラギ,0
1799,7100002011961,登記記録の閉鎖等,0,2025-05-28,2025-05-23,有限会社源流信濃,,有限会社,長野県,南佐久郡川上村,大字大深山１２３４番地,,20,304,3841405,,,2025-05-23,清算の結了等,,,2015-10-05,1,,,,,ゲンリュウシナノ,0
1800,7100002018395,登記記録の閉鎖等,0,2025-05-28,2025-05-23,有限会社ライディング・モード,,有限会社,長野県,中野市,大字岩船２９７番地４,,20,211,3830041,,,2025-05-23,清算の結了等,,,2015-10-05,1,,,,,ライディングモード,0
1826,7120901012315,登記記録の閉鎖等,0,2025-05-28,2025-05-20,株式会社リベラサンキョウ,,株式会社,大阪府,高槻市,美しが丘１丁目６番３１号,,27,207,5691111,,,2025-05-20,清算の結了等,,,2015-10-05,1,,,,,リベラサンキョウ,0
1847,7140005019453,登記記録の閉鎖等,0,2025-05-28,2025-05-23,医療法人社団河上整形外科,,その他の設立登記法人,兵庫県,淡路市,志筑新島６番地の２７,,28,226,6562132,,,2025-05-23,清算の結了等,,,2015-10-05,1,,,,,カワカミセイケイゲカ,0
1848,7140005021847,登記記録の閉鎖等,0,2025-05-28,2025-05-26,特定非営利活動法人淡路島未来教育支援会,,その他の設立登記法人,兵庫県,淡路市,木曽下１２７７番地１,,28,226,6562154,,,2025-05-26,清算の結了等,,,2015-10-05,1,,,,,アワジシマミライキョウイクシエンカイ,0
1854,7180001067667,登記記録の閉鎖等,0,2025-05-28,2025-05-26,株式会社鶴鉄コーポレーション,,株式会社,愛知県,日進市,浅田平子２丁目２８６番地２０６,,23,230,4700128,,,2025-05-26,清算の結了等,,,2015-10-05,1,,,,,ツルテツコーポレーション,0
1861,7180002080776,登記記録の閉鎖等,0,2025-05-28,2025-05-22,有限会社杉原農園,,有限会社,愛知県,稲沢市,中之庄町辻畑１２５番地,00073479,23,220,4928435,,,2025-05-22,清算の結了等,,,2015-10-05,1,,,,,スギハラノウエン,0
1870,7180302010391,登記記録の閉鎖等,0,2025-05-28,2025-05-21,有限会社山森物産,,有限会社,愛知県,豊橋市,緑ケ丘２丁目２番地の１,,23,201,4400005,,,2025-05-21,清算の結了等,,,2015-10-05,1,,,,,ヤマモリブッサン,0
1873,7190005007800,登記記録の閉鎖等,0,2025-05-28,2025-05-19,医療法人船橋歯科,,その他の設立登記法人,三重県,桑名市,多度町戸津４７０番地の５,,24,205,5110103,,,2025-05-19,清算の結了等,,,2015-10-05,1,,,,,フナハシシカ,0
1876,7200002026173,登記記録の閉鎖等,0,2025-05-28,2025-05-22,有限会社ケン・コーポレーション,,有限会社,岐阜県,高山市,石浦町６丁目４１６番地の８,,21,203,5060825,,,2025-05-22,合併による解散等,6200001024732,令和７年５月２１日岐阜県高山市石浦町六丁目４１６番地の８株式会社ケン・コーポレーション（6200001024732）に合併し解散,2015-10-05,1,,,,,,0
1889,7260005011274,登記記録の閉鎖等,0,2025-05-28,2025-05-26,一般社団法人くらしき地球子家,,その他の設立登記法人,岡山県,倉敷市,阿知３丁目１８－６,,33,202,7100055,,,2025-05-26,清算の結了等,,,2023-09-15,1,,,,,クラシキテラコヤ,0
1908,7330001024322,登記記録の閉鎖等,0,2025-05-28,2025-05-13,株式会社ＣＣＩジャパン日本コミュニケーション・コーチング研究所,,株式会社,熊本県,熊本市北区,植木町豊田８４１番地,,43,105,8610106,,,2025-05-13,清算の結了等,,,2017-07-31,1,,,,,シーシーアイジャパンニホンコミュニケーションコーチングケンキュウショ,0
1912,7340001008290,登記記録の閉鎖等,0,2025-05-28,2025-05-20,株式会社もりなが,,株式会社,鹿児島県,姶良市,加治木町仮屋町３２３番地１,,46,225,8995214,,,2025-05-20,清算の結了等,,,2015-10-05,1,,,,,モリナガ,0
1914,7350001004900,登記記録の閉鎖等,0,2025-05-28,2025-05-22,株式会社芳,,株式会社,宮崎県,宮崎市,月見ケ丘７丁目１４番３５号,,45,201,8800926,,,2025-05-22,清算の結了等,,,2015-10-05,1,,,,,カオル,0
1923,7370001000591,登記記録の閉鎖等,0,2025-05-28,2025-05-19,株式会社協栄金属,,株式会社,宮城県,仙台市泉区,館４丁目５番地の５,,04,105,9813214,,,2025-05-19,清算の結了等,,,2015-10-05,1,,,,,キョウエイキンゾク,0
1927,7370005009002,登記記録の閉鎖等,0,2025-05-28,2025-05-14,農事組合法人五十鈴ファーム,,その他の設立登記法人,宮城県,石巻市,広渕字窪田１１番地,,04,202,9871222,,,2025-05-14,清算の結了等,,,2016-05-23,1,,,,,イスズファーム,0
1941,7420002000643,登記記録の閉鎖等,0,2025-05-28,2025-05-23,有限会社小田燃料,,有限会社,青森県,青森市,中央２丁目５番４号,,02,201,0300822,,,2025-05-23,清算の結了等,,,2015-10-05,1,,,,,オダネンリョウ,0
1952,7500001016319,登記記録の閉鎖等,0,2025-05-28,2025-05-26,株式会社アシストワン,,株式会社,愛媛県,松山市,高浜町１丁目２２４３番地,,38,201,7918081,,,2025-05-26,清算の結了等,,,2015-10-05,1,,,,,アシストワン,0
1960,8010003008924,登記記録の閉鎖等,0,2025-05-28,2025-05-01,合資会社来福亭,,合資会社,東京都,中央区,日本橋人形町１丁目１７番１０号,,13,102,1030013,,,2025-05-01,清算の結了等,,,2015-10-05,1,,,,,ライフクテイ,0
1961,8010003031050,登記記録の閉鎖等,0,2025-05-28,2025-05-09,合同会社ロッキーゲートツー,,合同会社,東京都,中央区,日本橋１丁目４番１号,,13,102,1030027,,,2025-05-09,清算の結了等,,,2019-11-14,1,,,,,ロッキーゲートツー,0
1969,8010401118614,登記記録の閉鎖等,0,2025-05-28,2025-05-23,株式会社クルーレイズ,,株式会社,東京都,江東区,有明３丁目７番２６号有明フロンティアビルＢ棟９階,,13,108,1350063,,,2025-05-23,清算の結了等,,,2015-10-05,1,,,,,クルーレイズ,0
1975,8010403024257,登記記録の閉鎖等,0,2025-05-28,2025-04-28,ｇｏｏｄｈｕｂ合同会社,,合同会社,東京都,港区,浜松町２丁目２番１５号２Ｆ,,13,103,1050013,,,2025-04-28,清算の結了等,,,2020-12-07,1,,,,,グッドハブ,0
1989,8010701015809,登記記録の閉鎖等,0,2025-05-28,2025-05-02,株式会社実電,,株式会社,東京都,品川区,旗の台３丁目４番１０号,,13,109,1420064,,,2025-05-02,清算の結了等,,,2015-10-05,1,,,,,ジツデン,0
2015,8011503004495,登記記録の閉鎖等,0,2025-05-28,2025-05-23,Ｃｏｐｅｌｎｉｘ合同会社,,合同会社,東京都,荒川区,東日暮里５丁目１６－１リーデンスタワー１９０６号,,13,118,1160014,,,2025-05-23,清算の結了等,,,2020-08-27,1,,,,,,0
2030,8013402002646,登記記録の閉鎖等,0,2025-05-28,2025-05-23,有限会社ドミナント,,有限会社,東京都,多摩市,永山５丁目１１番地の７,,13,224,2060025,,,2025-05-23,合併による解散等,2040001120469,令和７年５月１日千葉県松戸市新松戸東９番地１株式会社マツモトキヨシグループ（2040001120469）に合併し解散,2015-10-05,1,,,,,ドミナント,0
2034,8020002059439,登記記録の閉鎖等,0,2025-05-28,2025-05-21,有限会社ピボットシステム,,有限会社,神奈川県,横浜市旭区,柏町７０番地２１クレスト南万騎が原３０６号,,14,112,2410835,,,2025-05-21,清算の結了等,,,2015-10-05,1,,,,,ピボットシステム,0
2071,8040002029794,登記記録の閉鎖等,0,2025-05-28,2025-05-13,有限会社中村商事,,有限会社,千葉県,八千代市,大字上高野４８３番地,,12,221,2760000,,,2025-05-13,清算の結了等,,,2015-10-05,1,,,,,ナカムラショウジ,0
2072,8040002057705,登記記録の閉鎖等,0,2025-05-28,2025-05-12,有限会社成安装蹄所,,有限会社,千葉県,印西市,内野１丁目４番地３棟３０６号,,12,231,2701347,,,2025-05-12,清算の結了等,,,2015-10-05,1,,,,,ナリヤスソウテイショ,0
2088,8110001009435,登記記録の閉鎖等,0,2025-05-28,2025-05-19,株式会社侑荷,,株式会社,新潟県,新潟市北区,葛塚９５番地１,,15,101,9503321,,,2025-05-19,清算の結了等,,,2015-10-05,1,,,,,ユニ,0
2091,8120001142474,登記記録の閉鎖等,0,2025-05-28,2025-05-19,株式会社ＲＥＧＵＬＡＴＯＲ,,株式会社,大阪府,大阪市西区,南堀江１丁目７番３号,,27,106,5500015,,,2025-05-19,清算の結了等,,,2015-10-05,1,,,,,レギュレイト,0
2092,8120001162381,登記記録の閉鎖等,0,2025-05-28,2025-05-19,株式会社金谷建設,,株式会社,大阪府,大阪市東住吉区,杭全５丁目６番３号,,27,121,5460002,,,2025-05-19,清算の結了等,,,2015-10-05,1,,,,,カナヤケンセツ,0
2116,8130002015034,登記記録の閉鎖等,0,2025-05-28,2025-05-23,有限会社水野商店,,有限会社,京都府,京都市伏見区,両替町１４丁目１７２番地,,26,109,6128082,,,2025-05-23,清算の結了等,,,2015-10-05,1,,,,,ミズノショウテン,0
2140,8180001142527,登記記録の閉鎖等,0,2025-05-28,2025-05-26,株式会社ＫＡＩ,,株式会社,愛知県,名古屋市中区,丸の内３丁目１５番２２号,,23,106,4600002,,,2025-05-26,清算の結了等,,,2020-08-25,1,,,,,ケーエーアイ,0
2162,8200001042071,登記記録の閉鎖等,0,2025-05-28,2025-05-26,佳慧株式会社,,株式会社,岐阜県,大垣市,林町８丁目１３４９番地の６アクア大垣２０２号室,,21,202,5030015,,,2025-05-26,清算の結了等,,,2024-01-16,1,,,,,カエ,0
2191,8330001024362,登記記録の閉鎖等,0,2025-05-28,2025-05-22,キー・バランス株式会社,,株式会社,熊本県,合志市,野々島４８４７番地１,,43,216,8611103,,,2025-05-22,清算の結了等,,,2017-08-01,1,,,,,キーバランス,0
2198,8370001042253,登記記録の閉鎖等,0,2025-05-28,2025-05-21,多賀城塗装工業株式会社,,株式会社,宮城県,多賀城市,山王字西町浦６２番地の４,,04,209,9850852,,,2025-05-21,清算の結了等,,,2017-11-06,1,,,,,タガジョウトソウコウギョウ,0
2202,8380002028093,登記記録の閉鎖等,0,2025-05-28,2025-05-19,有限会社あずさ工業,,有限会社,福島県,南相馬市,原町区本陣前２丁目３０番地,,07,212,9750062,,,2025-05-19,清算の結了等,,,2015-10-05,1,,,,,アズサコウギョウ,0
2219,8440002009921,登記記録の閉鎖等,0,2025-05-28,2025-05-14,有限会社村田工務店,,有限会社,北海道,檜山郡江差町,字水堀町１９２番地,,01,361,0430017,,,2025-05-14,清算の結了等,,,2015-10-05,1,,,,,ムラタコウムテン,0
2244,9010401133554,登記記録の閉鎖等,0,2025-05-28,2025-05-08,Ｌａｋｅｓｉｄｅ　Ｓｏｆｔｗａｒｅ　Ｊａｐａｎ株式会社,,株式会社,東京都,中央区,築地５丁目４番１９号,,13,102,1040045,,,2025-05-08,清算の結了等,,,2017-09-05,1,,,,,レイクサイドソフトウェアジャパン,0
2252,9010402033571,登記記録の閉鎖等,0,2025-05-28,2025-04-28,有限会社ワンダーリンク,,有限会社,東京都,港区,元麻布２丁目１番２０号,,13,103,1060046,,,2025-04-28,清算の結了等,,,2015-10-05,1,,,,,ワンダーリンク,0
2260,9010602015650,登記記録の閉鎖等,0,2025-05-28,2025-05-08,有限会社まつい薬品,,有限会社,東京都,文京区,本郷５丁目１番１１号ＫＩＩＨＯＵＳＥ２０２,,13,105,1130033,,,2025-05-08,清算の結了等,,,2015-10-05,1,,,,,マツイヤクヒン,0
2261,9010703004940,登記記録の閉鎖等,0,2025-05-28,2025-05-02,合同会社エスターテ,,合同会社,東京都,品川区,南品川６丁目４番１０号３階,,13,109,1400004,,,2025-05-02,清算の結了等,,,2019-09-06,1,,,,,エスターテ,0
2274,9011001106875,登記記録の閉鎖等,0,2025-05-28,2025-05-12,ｅｓｐｏ株式会社,,株式会社,東京都,目黒区,祐天寺２丁目９番２号中西ビル２階,,13,110,1530052,,,2025-05-12,清算の結了等,,,2015-10-05,1,,,,,イースポ,0
2288,9011701022983,登記記録の閉鎖等,0,2025-05-28,2025-05-23,ＡＩｐｌｕｓ株式会社,,株式会社,東京都,江東区,亀戸１丁目３１－７亀戸センタービル６階,,13,108,1360071,,,2025-05-23,清算の結了等,,,2019-10-02,1,,,,,エーアイプラス,0
2293,9012303000717,登記記録の閉鎖等,0,2025-05-28,2025-05-23,合同会社ａｔｅｌｉｅｒ　ｒｅｐｏｓ,,合同会社,東京都,町田市,大蔵町９４１番地１ドメイン町田鶴川２０２,,13,209,1950062,,,2025-05-23,清算の結了等,,,2015-10-05,1,,,,,アトリエルポ,0
2312,9020003026882,登記記録の閉鎖等,0,2025-05-28,2025-05-26,合同会社Ｔａｌｕｇｉ,,合同会社,神奈川県,横浜市旭区,二俣川１丁目４５－８３機構第一ビル３０３,,14,112,2410821,,,2025-05-26,清算の結了等,,,2024-09-17,1,,,,,タルギ,0
2317,9030001151913,登記記録の閉鎖等,0,2025-05-28,2025-05-21,株式会社すてら,,株式会社,埼玉県,戸田市,大字新曽１６８８－１,,11,224,3350021,,,2025-05-21,清算の結了等,,,2023-01-12,1,,,,,ステラ,0
2345,9060002037349,登記記録の閉鎖等,0,2025-05-28,2025-05-26,有限会社マスダ,,有限会社,栃木県,足利市,錦町３９番地,,09,202,3260047,,,2025-05-26,清算の結了等,,,2015-10-05,1,,,,,マスダ,0
2349,9070005001689,登記記録の閉鎖等,0,2025-05-28,2025-05-23,特定非営利活動法人日本キャリアコンサルティング協会,,その他の設立登記法人,埼玉県,深谷市,田所町１６番２１号,,11,218,3660826,,,2025-05-23,清算の結了等,,,2015-10-05,1,,,,,ニホンキャリアコンサルティングキョウカイ,0
2362,9110002028607,登記記録の閉鎖等,0,2025-05-28,2025-05-16,有限会社北越シヤツター建材,,有限会社,新潟県,長岡市,江陽１丁目９番９号,,15,202,9402015,,,2025-05-16,清算の結了等,,,2015-10-05,1,,,,,ホクエツシヤツターケンザイ,0
2364,9120001025496,登記記録の閉鎖等,0,2025-05-28,2025-05-19,三橋鋼材株式会社,,株式会社,大阪府,門真市,四宮６丁目６番５２号,,27,223,5710017,,,2025-05-19,清算の結了等,,,2015-10-05,1,,,,,ミツハシコウザイ,0
2425,9200002006504,登記記録の閉鎖等,0,2025-05-28,2025-05-26,有限会社外川プレス工業所,,有限会社,岐阜県,山県市,岩佐３１４番地の２,,21,215,5012259,,,2025-05-26,清算の結了等,,,2015-10-05,1,,,,,,0
2436,9240002054243,登記記録の閉鎖等,0,2025-05-28,2025-05-27,有限会社坂昌商事,,有限会社,広島県,三原市,西町２丁目１０番１６号,,34,204,7230063,,,2025-05-27,清算の結了等,,,2015-10-05,1,,,,,サカショウショウジ,0
2442,9290001019218,登記記録の閉鎖等,0,2025-05-28,2025-05-20,株式会社ヤマダエコソリューション,,株式会社,福岡県,福岡市博多区,美野島３丁目１番５号,,40,132,8120017,,,2025-05-20,清算の結了等,,,2015-10-05,1,,,,,ヤマダエコソリューション,0
2452,9310002018488,登記記録の閉鎖等,0,2025-05-28,2025-05-27,有限会社爽美堂,,有限会社,長崎県,島原市,御手水町甲２３０３番地１,,42,203,8550011,,,2025-05-27,清算の結了等,,,2015-10-05,1,,,,,ソウビドウ,0
2466,9370001005143,登記記録の閉鎖等,0,2025-05-28,2025-05-20,株式会社佐松,,株式会社,宮城県,仙台市宮城野区,萩野町１丁目２２－１２,,04,102,9830043,,,2025-05-20,清算の結了等,,,2015-10-05,1,,,,,サマツ,0
2474,9400002010543,登記記録の閉鎖等,0,2025-05-28,2025-05-09,有限会社岡本水道工業,,有限会社,岩手県,宮古市,花輪第１５地割１１番地３,,03,202,0270035,,,2025-05-09,清算の結了等,,,2015-10-05,1,,,,,オカモトスイドウコウギョウ,0
