sequenceNumber,corporateNumber,process,correct,updateDate,changeDate,name,nameImageId,kind,prefectureName,cityName,streetNumber,addressImageId,prefectureCode,cityCode,postCode,addressOutside,addressOutsideImageId,closeDate,closeCause,successorCorporateNumber,changeCause,assignmentDate,latest,enName,enPrefectureName,enCityName,enAddressOutside,furigana,hihyoji
1,1010001004238,登記記録の閉鎖等,0,2024-08-14,2024-08-06,船舶照電株式会社,,株式会社,埼玉県,草加市,草加３丁目４番３１号,,11,221,3400043,,,2024-08-06,清算の結了等,,,2015-10-05,1,,,,,センパクショウデン,0
2,1010001021761,登記記録の閉鎖等,0,2024-08-14,2024-07-30,大信インプラント株式会社,,株式会社,東京都,千代田区,西神田１丁目３番１４号,,13,101,1010065,,,2024-07-30,清算の結了等,,,2015-10-05,1,,,,,ダイシンインプラント,0
3,1010001054076,登記記録の閉鎖等,0,2024-08-14,2024-08-08,株式会社ノルド,,株式会社,北海道,札幌市中央区,北四条西４丁目１－７ＭＭＳ札幌駅前ビル１階,,01,101,0600004,,,2024-08-08,清算の結了等,,,2015-10-05,1,,,,,ノルド,0
5,1010001145503,登記記録の閉鎖等,0,2024-08-14,2024-07-31,株式会社モーティベント,,株式会社,東京都,中央区,日本橋小伝馬町６番１１号,,13,102,1030001,,,2024-07-31,清算の結了等,,,2015-10-05,1,,,,,モーティベント,0
6,1010001231724,登記記録の閉鎖等,0,2024-08-14,2024-07-31,株式会社ジョイントファクトリー,,株式会社,東京都,千代田区,神田須田町２丁目７番地１ＢＩＺＣＯＲＥ神田須田町ビル１０階,,13,101,1010041,,,2024-07-31,清算の結了等,,,2022-12-21,1,,,,,ジョイントファクトリー,0
7,1010001237928,登記記録の閉鎖等,0,2024-08-14,2024-07-31,Ｆｒａｃｔａｌ　Ｊａｐａｎ株式会社,,株式会社,東京都,千代田区,平河町２丁目６番１号平河町ビル７階,,13,101,1020093,,,2024-07-31,清算の結了等,,,2023-08-29,1,,,,,フラクタルジャパン,0
13,1010002008543,登記記録の閉鎖等,0,2024-08-14,2024-07-31,有限会社オービーズ,,有限会社,東京都,千代田区,外神田２丁目１９番２号,,13,101,1010021,,,2024-07-31,清算の結了等,,,2015-10-05,1,,,,,オービーズ,0
14,1010003023764,登記記録の閉鎖等,0,2024-08-14,2024-07-30,ＦＳ　Ｊａｐａｎ　Ｐｒｏｊｅｃｔ３７合同会社,,合同会社,東京都,千代田区,霞が関３丁目２番５号霞が関ビルディング３１階,,13,101,1000013,,,2024-07-30,清算の結了等,,,2016-06-30,1,,,,,エフエスジャパンプロジェクトサンジュウナナ,0
71,1011402000040,登記記録の閉鎖等,0,2024-08-14,2024-08-06,有限会社タスカル,,有限会社,東京都,板橋区,蓮根２丁目３０－７第２友栄荘１３号室,,13,119,1740046,,,2024-08-06,清算の結了等,,,2015-10-05,1,,,,,タスカル,0
89,1012401012497,登記記録の閉鎖等,0,2024-08-14,2024-08-13,株式会社サンセイ商事,,株式会社,東京都,三鷹市,上連雀５丁目２７番２３号,,13,204,1810012,,,2024-08-13,清算の結了等,,,2015-10-05,1,,,,,,0
96,1013102006433,登記記録の閉鎖等,0,2024-08-14,2024-08-09,有限会社安田中央,,有限会社,東京都,青梅市,師岡町２丁目３９４番地１,,13,205,1980031,,,2024-08-09,清算の結了等,,,2015-10-05,1,,,,,ヤスダチュウオウ,0
99,1013302021380,登記記録の閉鎖等,0,2024-08-14,2024-08-06,有限会社アイキュー,,有限会社,埼玉県,入間市,大字下藤沢６２５番地２７,,11,225,3580011,,,2024-08-06,清算の結了等,,,2015-10-05,1,,,,,アイキュー,0
101,1020001116750,登記記録の閉鎖等,0,2024-08-14,2024-07-24,株式会社西力建装,,株式会社,神奈川県,横浜市南区,宮元町１丁目２４番地,,14,105,2320016,,,2024-07-24,清算の結了等,,,2016-06-28,1,,,,,サイリキケンソウ,0
104,1020002022072,登記記録の閉鎖等,0,2024-08-14,2024-07-24,有限会社中島建築,,有限会社,神奈川県,横浜市保土ケ谷区,仏向町６１７番地８,,14,106,2400044,,,2024-07-24,清算の結了等,,,2015-10-05,1,,,,,ナカジマケンチク,0
105,1020002036782,登記記録の閉鎖等,0,2024-08-14,2024-07-23,有限会社アイリスハッピーサービス,,有限会社,神奈川県,横浜市鶴見区,矢向４丁目２５番１５号,,14,101,2300001,,,2024-07-23,清算の結了等,,,2015-10-05,1,,,,,アイリスハッピーサービス,0
116,1021002060847,登記記録の閉鎖等,0,2024-08-14,2024-08-09,有限会社ブレインオフィスジャパン,,有限会社,神奈川県,中郡二宮町,二宮３５番地の２,,14,342,2590123,,,2024-08-09,清算の結了等,,,2015-10-05,1,,,,,ブレインオフィスジャパン,0
118,1021003003400,登記記録の閉鎖等,0,2024-08-14,2024-08-13,合同会社ＮＯＮＡＫＡ　ＭＭＣ,,合同会社,神奈川県,横須賀市,馬堀町４丁目６番１０号,,14,201,2390802,,,2024-08-13,清算の結了等,,,2015-10-05,1,,,,,ノナカエムエムシー,0
131,1030002074204,登記記録の閉鎖等,0,2024-08-14,2024-08-06,有限会社ツーワイ,,有限会社,埼玉県,川越市,大字藤間３５０番地１０,,11,201,3501142,,,2024-08-06,清算の結了等,,,2015-10-05,1,,,,,ツーワイ,0
141,1050001012030,登記記録の閉鎖等,0,2024-08-14,2024-07-30,関鉄グリーンバス株式会社,,株式会社,茨城県,石岡市,行里川５番１８号,,08,205,3150022,,,2024-07-30,合併による解散等,8050001009061,令和６年７月１６日茨城県土浦市真鍋一丁目１０番８号関東鉄道株式会社（8050001009061）に合併し解散,2015-10-05,1,,,,,カンテツグリーンバス,0
154,1120001004219,登記記録の閉鎖等,0,2024-08-14,2024-08-08,プラントエンジニアリング株式会社,,株式会社,大阪府,大阪市西成区,岸里東１丁目２５番３号,,27,122,5570042,,,2024-08-08,清算の結了等,,,2015-10-05,1,,,,,プラントエンジニアリング,0
155,1120001122771,登記記録の閉鎖等,0,2024-08-14,2024-08-09,株式会社グラフィカ,,株式会社,大阪府,大阪市中央区,谷町７丁目１番３９号,,27,128,5420012,,,2024-08-09,清算の結了等,,,2015-10-05,1,,,,,グラフィカ,0
159,1120001225608,登記記録の閉鎖等,0,2024-08-14,2024-08-01,株式会社レイシスメディカルシステム,,株式会社,大阪府,大阪市北区,梅田３丁目３番２０号,,27,127,5300001,,,2024-08-01,合併による解散等,5120001048484,令和６年８月１日大阪市北区梅田三丁目３番２０号レイシスソフトウエアーサービス株式会社（5120001048484）に合併し解散,2019-12-10,1,,,,,レイシスメディカルシステム,0
170,1120002021080,登記記録の閉鎖等,0,2024-08-14,2024-08-08,有限会社有満設計,,有限会社,大阪府,大阪市北区,西天満３丁目５番１８号,,27,127,5300047,,,2024-08-08,清算の結了等,,,2015-10-05,1,,,,,,0
197,1150002009981,登記記録の閉鎖等,0,2024-08-14,2024-08-08,有限会社ベール,,有限会社,奈良県,大和高田市,東中１丁目４番３３号,,29,202,6350065,,,2024-08-08,清算の結了等,,,2015-10-05,1,,,,,ベール,0
201,1160005005218,登記記録の閉鎖等,0,2024-08-14,2024-08-06,西浄寺,,その他の設立登記法人,滋賀県,犬上郡多賀町,大字小原７６番地,,25,443,5220325,,,2024-08-06,清算の結了等,,,2015-10-05,1,,,,,サイジョウジ,0
203,1180001096069,登記記録の閉鎖等,0,2024-08-14,2024-08-01,株式会社がんもく屋,,株式会社,愛知県,東海市,高横須賀町３丁目１６番地,,23,222,4770037,,,2024-08-01,合併による解散等,3180001093452,令和６年８月１日愛知県東海市大田町天尾崎１０７７番地株式会社ＲａｎｄＴカンパニー（3180001093452）に合併し解散,2015-10-05,1,,,,,ガンモクヤ,0
213,1180301015281,登記記録の閉鎖等,0,2024-08-14,2024-08-07,株式会社角谷組,00134399,株式会社,愛知県,碧南市,久沓町４丁目１４４番地,,23,209,4470065,,,2024-08-07,清算の結了等,,,2024-04-17,1,,,,,スミヤグミ,0
221,1220002002442,登記記録の閉鎖等,0,2024-08-14,2024-07-30,有限会社ケイリマン北陸,,有限会社,石川県,金沢市,尾張町１丁目５番２号,,17,201,9200902,,,2024-07-30,清算の結了等,,,2015-10-05,1,,,,,ケイリマンホクリク,0
227,1240002049457,登記記録の閉鎖等,0,2024-08-14,2024-08-08,黒川酒類販売有限会社,,有限会社,広島県,竹原市,港町１丁目７番１号,,34,203,7250024,,,2024-08-08,清算の結了等,,,2015-10-05,1,,,,,クロカワシュルイハンバイ,0
230,1260001002423,登記記録の閉鎖等,0,2024-08-14,2024-08-08,株式会社コウリョー,,株式会社,岡山県,岡山市中区,長岡３３番地,,33,102,7038221,,,2024-08-08,合併による解散等,2140001062123,令和６年８月１日兵庫県姫路市神子岡前一丁目４番３３号株式会社ヤマノ（2140001062123）に合併し解散,2015-10-05,1,,,,,コウリョー,0
235,1290001006363,登記記録の閉鎖等,0,2024-08-14,2024-07-31,株式会社上原商事,,株式会社,福岡県,福岡市中央区,唐人町１丁目１０番１号,,40,133,8100063,,,2024-07-31,清算の結了等,,,2015-10-05,1,,,,,ウエハラショウジ,0
238,1290001076191,登記記録の閉鎖等,0,2024-08-14,2024-07-30,株式会社ライフ＆スマート,,株式会社,東京都,中央区,日本橋１丁目１６番３号,,13,102,1030027,,,2024-07-30,清算の結了等,,,2016-12-22,1,,,,,ライフアンドスマート,0
245,1300002005387,登記記録の閉鎖等,0,2024-08-14,2024-08-07,有限会社ヨコオ電気工業,,有限会社,佐賀県,佐賀市,大和町大字川上４１９０番地３,,41,201,8400214,,,2024-08-07,清算の結了等,,,2015-10-05,1,,,,,ヨコオデンキコウギョウ,0
254,1350001009434,登記記録の閉鎖等,0,2024-08-14,2024-08-05,株式会社黒木商店,,株式会社,宮崎県,日南市,大堂津３丁目１１番８号,,45,204,8893141,,,2024-08-05,清算の結了等,,,2015-10-05,1,,,,,クロキショウテン,0
269,1390003001897,登記記録の閉鎖等,0,2024-08-14,2024-08-01,合同会社ＳＬＯＷＪＡＭ,,合同会社,山形県,山形市,香澄町２丁目８番１号１Ｆ,,06,201,9900039,,,2024-08-01,合併による解散等,1390002001287,令和６年８月１日山形市下条町二丁目２６番３２号株式会社ランドマーク（1390002001287）に合併し解散,2021-11-22,1,,,,,スロージャム,0
275,1410003003528,登記記録の閉鎖等,0,2024-08-14,2024-08-07,合同会社久遠,,合同会社,秋田県,横手市,増田町増田字関ノ口１４２番地１２,,05,203,0190701,,,2024-08-07,清算の結了等,,,2021-04-16,1,,,,,クオン,0
289,1460002004571,登記記録の閉鎖等,0,2024-08-14,2024-08-09,有限会社志賀塗装,,有限会社,北海道,厚岸郡厚岸町,若竹２丁目７６番地,,01,662,0881118,,,2024-08-09,清算の結了等,,,2015-10-05,1,,,,,シガトソウ,0
295,2010001042765,登記記録の閉鎖等,0,2024-08-14,2024-07-31,啓明出版株式会社,,株式会社,東京都,中央区,日本橋小網町１６番１４号（明星ビル）,,13,102,1030016,,,2024-07-31,清算の結了等,,,2015-10-05,1,,,,,ケイメイシュッパン,0
350,2011001057992,登記記録の閉鎖等,0,2024-08-14,2024-07-24,株式会社ユニマックス,,株式会社,東京都,渋谷区,渋谷３丁目５番１号,,13,113,1500002,,,2024-07-24,清算の結了等,,,2015-10-05,1,,,,,ユニマックス,0
361,2011101012063,登記記録の閉鎖等,0,2024-08-14,2024-08-05,大日設計株式会社,,株式会社,東京都,豊島区,池袋本町１丁目１１番９号,,13,116,1700011,,,2024-08-05,清算の結了等,,,2015-10-05,1,,,,,オオヒセッケイ,0
379,2011105010105,登記記録の閉鎖等,0,2024-08-14,2024-07-29,入間ホールディングス一般社団法人,,その他の設立登記法人,東京都,新宿区,四谷２丁目９番地１５東京ユナイテッド綜合事務所内,,13,104,1600004,,,2024-07-29,清算の結了等,,,2022-01-27,1,,,,,イルマホールディングス,0
387,2011402008702,登記記録の閉鎖等,0,2024-08-14,2024-08-06,有限会社宮下工務店,,有限会社,東京都,板橋区,西台１丁目７番１２号,,13,119,1740045,,,2024-08-06,清算の結了等,,,2015-10-05,1,,,,,ミヤシタコウムテン,0
404,2012702008771,登記記録の閉鎖等,0,2024-08-14,2024-08-05,有限会社エムケイメンテナンス工業,,有限会社,東京都,東村山市,栄町３丁目３２番３０号,,13,213,1890013,,,2024-08-05,清算の結了等,,,2015-10-05,1,,,,,エムケイメンテナンスコウギョウ,0
420,2020003009299,登記記録の閉鎖等,0,2024-08-14,2024-07-23,合同会社ＭＨＳ企画,,合同会社,神奈川県,横浜市緑区,白山１丁目９番２７－６０９号,,14,113,2260006,,,2024-07-23,清算の結了等,,,2015-10-05,1,,,,,エムエイチエスキカク,0
444,2060001030591,登記記録の閉鎖等,0,2024-08-14,2024-07-31,株式会社町屋,,株式会社,栃木県,那須郡那須町,大字高久丙３２４６番地２１,,09,407,3250302,,,2024-07-31,清算の結了等,,,2018-06-01,1,,,,,マチヤ,0
454,2110001016552,登記記録の閉鎖等,0,2024-08-14,2024-08-02,株式会社シバデン,,株式会社,新潟県,燕市,中央通３丁目５番２号,,15,213,9591244,,,2024-08-02,合併による解散等,3110001016403,令和６年８月１日新潟県燕市中央通三丁目５番２号三ツ谷電機株式会社（3110001016403）に合併し解散,2015-10-05,1,,,,,シバデン,0
462,2120001253129,登記記録の閉鎖等,0,2024-08-14,2024-07-31,小五株式会社,,株式会社,大阪府,大阪市此花区,春日出中１丁目９番１３－１０１号,,27,104,5540022,,,2024-07-31,清算の結了等,,,2023-03-13,1,,,,,ショウゴ,0
471,2120002071414,登記記録の閉鎖等,0,2024-08-14,2024-08-09,有限会社ヤマモト,,有限会社,大阪府,大阪市生野区,巽南３丁目５番３４号,00107560,27,116,5440015,,,2024-08-09,清算の結了等,,,2015-10-05,1,,,,,ヤマモト,0
473,2120003022481,登記記録の閉鎖等,0,2024-08-14,2024-08-09,合同会社ＺＡＴＳＵＧＩ,,合同会社,大阪府,大阪市北区,梅田１丁目１－３大阪駅前第３ビル２９階１－１－１号室,,27,127,5300001,,,2024-08-09,清算の結了等,,,2022-09-16,1,,,,,ザツギ,0
478,2120101024958,登記記録の閉鎖等,0,2024-08-14,2024-08-06,伊豫工業株式会社,,株式会社,大阪府,松原市,立部１丁目４番３４号,,27,217,5800012,,,2024-08-06,清算の結了等,,,2015-10-05,1,,,,,イヨコウギョウ,0
486,2130002020444,登記記録の閉鎖等,0,2024-08-14,2024-08-07,有限会社ムラタ,,有限会社,京都府,京都市西京区,下津林六反田１番地６２,,26,111,6158063,,,2024-08-07,清算の結了等,,,2015-10-05,1,,,,,ムラタ,0
489,2140001108875,登記記録の閉鎖等,0,2024-08-14,2024-08-08,株式会社いつもの便利屋,,株式会社,兵庫県,神戸市東灘区,御影石町２丁目１３番２０号御影サンハイム２０３,,28,101,6580045,,,2024-08-08,合併による解散等,2140002027901,令和６年８月８日兵庫県芦屋市岩園町５番２１号株式会社シロクス（2140002027901）に合併し解散,2018-01-22,1,,,,,イツモノベンリヤ,0
490,2140001130912,登記記録の閉鎖等,0,2024-08-14,2024-08-07,ＧＭ株式会社,,株式会社,兵庫県,明石市,樽屋町２１番２－６０３号,,28,203,6730898,,,2024-08-07,清算の結了等,,,2023-07-19,1,,,,,ジーエム,0
501,2160001016226,登記記録の閉鎖等,0,2024-08-14,2024-08-06,株式会社ヨシモト商会,,株式会社,滋賀県,守山市,木浜町１９８２番地,,25,207,5240104,,,2024-08-06,清算の結了等,,,2015-10-05,1,,,,,ヨシモトショウカイ,0
510,2180001097347,登記記録の閉鎖等,0,2024-08-14,2024-08-01,櫻井木材加工株式会社,,株式会社,愛知県,海部郡飛島村,木場２丁目１２７番地,,23,427,4901444,,,2024-08-01,合併による解散等,6180001036276,令和６年８月１日名古屋市中川区太平通六丁目１１番地櫻井木材株式会社（6180001036276）に合併し解散,2015-10-05,1,,,,,サクライモクザイカコウ,0
512,2180001112329,登記記録の閉鎖等,0,2024-08-14,2024-07-24,一宮リハビリ・デイサービス株式会社,,株式会社,愛知県,一宮市,三ツ井１丁目１９番１４号,,23,203,4910827,,,2024-07-24,清算の結了等,,,2015-10-05,1,,,,,イチミヤリハビリデイサービス,0
515,2180001124290,登記記録の閉鎖等,0,2024-08-14,2024-07-31,株式会社ＭＥテック,,株式会社,東京都,新宿区,新宿２丁目９－２２多摩川新宿ビル４階,,13,104,1600022,,,2024-07-31,清算の結了等,,,2016-08-01,1,,,,,エムイーテック,0
516,2180001137235,登記記録の閉鎖等,0,2024-08-14,2024-07-31,ルブリック株式会社,,株式会社,愛知県,東海市,大田町下浜田９２番地の１,,23,222,4770031,,,2024-07-31,清算の結了等,,,2019-07-05,1,,,,,ルブリック,0
517,2180001148521,登記記録の閉鎖等,0,2024-08-14,2024-08-02,セガ株式会社,,株式会社,愛知県,名古屋市港区,八百島２丁目１２０７－２Ｆ,,23,111,4550885,,,2024-08-02,清算の結了等,,,2021-11-04,1,,,,,セガ,0
523,2180301015322,登記記録の閉鎖等,0,2024-08-14,2024-08-06,株式会社創和,,株式会社,愛知県,碧南市,福清水町１丁目９７番地,,23,209,4470048,,,2024-08-06,清算の結了等,,,2015-10-05,1,,,,,ソウワ,0
536,2220001015122,登記記録の閉鎖等,0,2024-08-14,2024-08-01,株式会社谷内土木,,株式会社,石川県,金沢市,八日市１丁目１８５番地２,,17,201,9218064,,,2024-08-01,清算の結了等,,,2015-10-05,1,,,,,ヤチドボク,0
539,2230001002929,登記記録の閉鎖等,0,2024-08-14,2024-08-09,北陸医療器株式会社,,株式会社,富山県,富山市,千石町１丁目１番１２号,,16,201,9300066,,,2024-08-09,清算の結了等,,,2015-10-05,1,,,,,ホクリクイリョウキ,0
544,2250005006338,登記記録の閉鎖等,0,2024-08-14,2024-08-01,一般社団法人玖珂医師会,,その他の設立登記法人,山口県,岩国市,玖珂町１４４８番地,,35,208,7420344,,,2024-08-01,合併による解散等,3250005006080,令和６年８月１日山口県岩国市室の木町三丁目６番１１号一般社団法人岩国市医師会（3250005006080）に合併し解散,2015-10-05,1,,,,,クガイシカイ,0
555,2320002015342,登記記録の閉鎖等,0,2024-08-14,2024-08-06,有限会社テイク,,有限会社,大分県,杵築市,大字相原２番地の２１,,44,210,8730011,,,2024-08-06,清算の結了等,,,2015-10-05,1,,,,,,0
556,2320002015722,登記記録の閉鎖等,0,2024-08-14,2024-08-07,有限会社シスマック,,有限会社,大分県,杵築市,山香町大字山浦４９９６番地の１,,44,210,8791315,,,2024-08-07,清算の結了等,,,2015-10-05,1,,,,,シスマック,0
564,2350001017023,登記記録の閉鎖等,0,2024-08-14,2024-08-07,株式会社Ｖａｌｕｅ　Ｂｅｔ,,株式会社,宮崎県,宮崎市,橘通西３丁目１０番３２号宮崎ナナイロ東館８階,,45,201,8800001,,,2024-08-07,合併による解散等,1011403002473,令和６年６月１７日東京都世田谷区北沢二丁目２７番９号ウミガメ株式会社（1011403002473）に合併し解散,2021-04-20,1,,,,,バリューベット,0
570,2380001019248,登記記録の閉鎖等,0,2024-08-14,2024-08-06,森田電装株式会社,,株式会社,福島県,南会津郡南会津町,田島字南下原７４番地,,07,368,9670004,,,2024-08-06,清算の結了等,,,2015-10-05,1,,,,,モリタデンソウ,0
594,3010003016411,登記記録の閉鎖等,0,2024-08-14,2024-07-30,合同会社スノークラウド,,合同会社,東京都,千代田区,丸の内１丁目６番５号,,13,101,1000005,,,2024-07-30,清算の結了等,,,2015-10-05,1,,,,,スノークラウド,0
602,3010401179958,登記記録の閉鎖等,0,2024-08-14,2024-08-08,ＶＣ０１株式会社,,株式会社,東京都,港区,虎ノ門４丁目３番１号,,13,103,1050001,,,2024-08-08,合併による解散等,9230001019735,令和６年７月３１日富山市黒瀬北町二丁目１３番地１イムズビル４Ｆ株式会社Ｇ＆Ｇホールディングス（9230001019735）に合併し解散,2024-01-25,1,,,,,ブイシーゼロワン,0
618,3010901038267,登記記録の閉鎖等,0,2024-08-14,2024-08-07,株式会社ｂ,,株式会社,東京都,世田谷区,若林３丁目１５番１号,,13,112,1540023,,,2024-08-07,清算の結了等,,,2016-06-09,1,,,,,ビイ,0
628,3011005002572,登記記録の閉鎖等,0,2024-08-14,2024-07-25,特定非営利活動法人コミュニティ・カウンセリング・センター,,その他の設立登記法人,東京都,渋谷区,代々木２丁目２３番１－７２７号,,13,113,1510053,,,2024-07-25,清算の結了等,,,2015-10-05,1,,,,,コミュニティカウンセリングセンター,0
658,3011802018408,登記記録の閉鎖等,0,2024-08-14,2024-08-07,有限会社星野商店,,有限会社,東京都,足立区,西新井栄町３丁目９番２号,,13,121,1230843,,,2024-08-07,清算の結了等,,,2015-10-05,1,,,,,ホシノショウテン,0
667,3012702000918,登記記録の閉鎖等,0,2024-08-14,2024-08-05,有限会社寝具のモロオカ,,有限会社,東京都,小平市,たかの台３８番２号,,13,211,1870024,,,2024-08-05,清算の結了等,,,2015-10-05,1,,,,,シングノモロオカ,0
669,3012801006907,登記記録の閉鎖等,0,2024-08-14,2024-08-07,株式会社田中製作所,,株式会社,東京都,武蔵村山市,伊奈平１丁目５６番地の４,,13,223,2080023,,,2024-08-07,清算の結了等,,,2015-10-05,1,,,,,タナカセイサクショ,0
672,3013105001652,登記記録の閉鎖等,0,2024-08-14,2024-08-13,特定非営利活動法人市民後見センターＴＯＭＯＮＩ,,その他の設立登記法人,東京都,あきる野市,油平１１９番地１２,,13,228,1970827,,,2024-08-13,清算の結了等,,,2016-06-24,1,,,,,シミンコウケンセンタートモニ,0
689,3020001116542,登記記録の閉鎖等,0,2024-08-14,2024-07-23,株式会社栄仙,,株式会社,神奈川県,横浜市旭区,若葉台２丁目６番地,,14,112,2410801,,,2024-07-23,清算の結了等,,,2016-06-09,1,,,,,エイセン,0
690,3020001147199,登記記録の閉鎖等,0,2024-08-14,2024-07-24,株式会社コレパン,,株式会社,神奈川県,横浜市青葉区,市ケ尾町４９７番地１６,,14,117,2250024,,,2024-07-24,清算の結了等,,,2022-07-05,1,,,,,コレパン,0
694,3020002076686,登記記録の閉鎖等,0,2024-08-14,2024-07-24,有限会社莎莉＿,00011336,有限会社,神奈川県,横浜市南区,永楽町１丁目６番地４０,,14,105,2320031,,,2024-07-24,清算の結了等,,,2015-10-05,1,,,,,,0
710,3030002079465,登記記録の閉鎖等,0,2024-08-14,2024-08-05,土屋企画有限会社,,有限会社,埼玉県,川越市,吉田新町３丁目１４番地１１,,11,201,3500808,,,2024-08-05,清算の結了等,,,2015-10-05,1,,,,,ツチヤキカク,0
724,3070002003479,登記記録の閉鎖等,0,2024-08-14,2024-08-09,有限会社竪町結城屋支店,,有限会社,群馬県,前橋市,千代田町２丁目２番２０号,,10,201,3710022,,,2024-08-09,清算の結了等,,,2015-10-05,1,,,,,タテチョウユウキヤシテン,0
725,3070002030250,登記記録の閉鎖等,0,2024-08-14,2024-08-08,有限会社東毛ハウジング,,有限会社,群馬県,邑楽郡邑楽町,大字明野４６番地８,,10,525,3700602,,,2024-08-08,清算の結了等,,,2015-10-05,1,,,,,トウモウハウジング,0
731,3100002000753,登記記録の閉鎖等,0,2024-08-14,2024-07-29,有限会社圓秀,,有限会社,長野県,長野市,篠ノ井横田４８０番地ロ号,,20,201,3888005,,,2024-07-29,清算の結了等,,,2015-10-05,1,,,,,マルシュウ,0
734,3110001035072,登記記録の閉鎖等,0,2024-08-14,2024-08-05,株式会社ＭＩＬＬＳリモートＰＲ,,株式会社,新潟県,長岡市,大島本町２丁目甲５５２番地５,,15,202,9402112,,,2024-08-05,清算の結了等,,,2020-08-14,1,,,,,ミルズリモートピーアール,0
751,3120003021672,登記記録の閉鎖等,0,2024-08-14,2024-08-05,イクエイターセラピューティクスジャパン合同会社,,合同会社,大阪府,茨木市,彩都あさぎ７丁目７番１８号彩都バイオヒルズセンター３１０号室,,27,211,5670085,,,2024-08-05,清算の結了等,,,2022-05-12,1,,,,,イクエイターセラピューティクスジャパン,0
761,3122001034615,登記記録の閉鎖等,0,2024-08-14,2024-08-08,株式会社むすび,,株式会社,大阪府,東大阪市,稲田新町２丁目１４番７号,,27,227,5770004,,,2024-08-08,清算の結了等,,,2021-03-19,1,,,,,ムスビ,0
764,3130001073145,登記記録の閉鎖等,0,2024-08-14,2024-08-08,株式会社トイロジー,,株式会社,京都府,京都市中京区,新京極通蛸薬師下る東側町５０１番地３松やビル２階,00128584,26,104,6048046,,,2024-08-08,清算の結了等,,,2022-11-25,1,,,,,トイロジー,0
769,3140001067600,登記記録の閉鎖等,0,2024-08-14,2024-08-07,株式会社ロージー,,株式会社,大阪府,大阪市中央区,南船場４丁目１０番５号南船場ＳＯＨＯビル７０２,,27,128,5420081,,,2024-08-07,清算の結了等,,,2015-10-05,1,,,,,ロージー,0
783,3170001015614,登記記録の閉鎖等,0,2024-08-14,2024-08-07,株式会社ニノマル,,株式会社,和歌山県,有田郡湯浅町,大字山田１６３８番地１,,30,361,6430001,,,2024-08-07,合併による解散等,6120001073127,令和６年８月１日大阪市中央区久太郎町一丁目９番７号株式会社ＩＡＯプランニング＆デザイン（6120001073127）に合併し解散,2019-05-28,1,,,,,ニノマル,0
788,3180002009985,登記記録の閉鎖等,0,2024-08-14,2024-07-31,有限会社中島硝子店,,有限会社,愛知県,名古屋市瑞穂区,平郷町４丁目３番地の４,,23,108,4670879,,,2024-07-31,清算の結了等,,,2015-10-05,1,,,,,ナカジマガラステン,0
791,3180003019141,登記記録の閉鎖等,0,2024-08-14,2024-07-26,合同会社ででん,,合同会社,愛知県,一宮市,三ツ井２丁目７番１１号,,23,203,4910827,,,2024-07-26,清算の結了等,,,2018-07-27,1,,,,,デデン,0
793,3180301033513,登記記録の閉鎖等,0,2024-08-14,2024-08-07,Ｃｅｌｏｍ株式会社,,株式会社,愛知県,豊橋市,西松山町６５番地,,23,201,4400876,,,2024-08-07,清算の結了等,,,2020-03-13,1,,,,,セロム,0
803,3230002006523,登記記録の閉鎖等,0,2024-08-14,2024-08-07,有限会社凌和,,有限会社,富山県,富山市,下大久保２２１番地８,,16,201,9392251,,,2024-08-07,清算の結了等,,,2015-10-05,1,,,,,リョウワ,0
814,3290001098358,登記記録の閉鎖等,0,2024-08-14,2024-07-30,株式会社ｏｔｏｎａｒｉ,,株式会社,福岡県,福岡市中央区,大名１丁目３番２９号,,40,133,8100041,,,2024-07-30,清算の結了等,,,2022-07-25,1,,,,,オトナリ,0
842,3370201002796,登記記録の閉鎖等,0,2024-08-14,2024-07-25,バードランド株式会社,,株式会社,宮城県,大崎市,田尻小塩字南入沢６番地,,04,215,9894305,,,2024-07-25,清算の結了等,,,2015-10-05,1,,,,,バードランド,0
847,3380002032884,登記記録の閉鎖等,0,2024-08-14,2024-08-07,有限会社白虎最中本舗,,有限会社,福島県,会津若松市,七日町１３番３６号,,07,202,9650044,,,2024-08-07,清算の結了等,,,2015-10-05,1,,,,,,0
852,3430001059089,登記記録の閉鎖等,0,2024-08-14,2024-08-05,株式会社アーバンハウス・エステート,,株式会社,北海道,札幌市手稲区,曙九条２丁目８番１号,,01,109,0060839,,,2024-08-05,合併による解散等,5460301002693,令和６年７月３１日北海道北見市本町二丁目４番１０号株式会社ハウジング・サポート・エステート（5460301002693）に合併し解散,2015-10-05,1,,,,,アーバンハウスエステート,0
856,3430002000976,登記記録の閉鎖等,0,2024-08-14,2024-08-08,有限会社アップライトサービス,,有限会社,北海道,札幌市中央区,北一条西２３丁目１番３８号,,01,101,0640821,,,2024-08-08,清算の結了等,,,2015-10-05,1,,,,,アップライトサービス,0
860,3500002005027,登記記録の閉鎖等,0,2024-08-14,2024-08-08,有限会社山幸,,有限会社,愛媛県,東温市,松瀬川添谷乙１１０番地の６,,38,215,7910314,,,2024-08-08,清算の結了等,,,2015-10-05,1,,,,,ヤマコウ,0
895,4010402025251,登記記録の閉鎖等,0,2024-08-14,2024-07-23,久喜産業株式会社,,株式会社,東京都,港区,東新橋１丁目１０番１－４２１０号,,13,103,1050021,,,2024-07-23,清算の結了等,,,2015-10-05,1,,,,,クキサンギョウ,0
903,4010505000903,登記記録の閉鎖等,0,2024-08-14,2024-08-02,東京洋装品卸商協同組合,,その他の設立登記法人,東京都,台東区,小島１丁目１１番１２号,,13,106,1110056,,,2024-08-02,清算の結了等,,,2015-10-05,1,,,,,トウキョウヨウソウヒンオロシショウ,0
907,4010602026421,登記記録の閉鎖等,0,2024-08-14,2024-08-09,有限会社永作製作所,,有限会社,東京都,墨田区,八広１丁目３６番１４号,,13,107,1310041,,,2024-08-09,清算の結了等,,,2015-10-05,1,,,,,ナガサクセイサクショ,0
912,4010902000919,登記記録の閉鎖等,0,2024-08-14,2024-08-07,有限会社アボコジャパン,,有限会社,東京都,世田谷区,上北沢３丁目２１番１２号,,13,112,1560057,,,2024-08-07,清算の結了等,,,2015-10-05,1,,,,,アボコジャパン,0
921,4011001146736,登記記録の閉鎖等,0,2024-08-14,2024-07-24,株式会社うるとら,,株式会社,東京都,渋谷区,東２丁目２６－１６渋谷ＨＡＮＡビル３Ｆ,,13,113,1500011,,,2024-07-24,清算の結了等,,,2022-04-07,1,,,,,ウルトラ,0
957,4020002010099,登記記録の閉鎖等,0,2024-08-14,2024-07-24,有限会社杉山鉄工,,有限会社,神奈川県,横浜市磯子区,磯子６丁目４０番２４号,,14,107,2350016,,,2024-07-24,清算の結了等,,,2015-10-05,1,,,,,スギヤマテッコウ,0
963,4021001066041,登記記録の閉鎖等,0,2024-08-14,2024-08-09,幸輝株式会社,,株式会社,神奈川県,相模原市緑区,太井５４３番地８,,14,151,2520152,,,2024-08-09,清算の結了等,,,2018-11-14,1,,,,,コウキ,0
969,4021003003918,登記記録の閉鎖等,0,2024-08-14,2024-08-05,合同会社さくら,,合同会社,神奈川県,小田原市,堀之内１２番地,,14,206,2500853,,,2024-08-05,清算の結了等,,,2015-10-05,1,,,,,サクラ,0
999,4040003015384,登記記録の閉鎖等,0,2024-08-14,2024-07-26,エルドロップ合同会社,,合同会社,千葉県,八千代市,高津３９０番地３４３,,12,221,2760036,,,2024-07-26,清算の結了等,,,2020-05-21,1,,,,,エルドロップ,0
1001,4040003015863,登記記録の閉鎖等,0,2024-08-14,2024-07-30,ＡＣＣｏ合同会社,,合同会社,千葉県,印西市,竹袋１７５５番地,,12,231,2701325,,,2024-07-30,清算の結了等,,,2020-08-04,1,,,,,アッコ,0
1020,4090002010126,登記記録の閉鎖等,0,2024-08-14,2024-08-06,有限会社女の子,,有限会社,山梨県,都留市,中央１丁目２番１６号,,19,204,4020052,,,2024-08-06,清算の結了等,,,2015-10-05,1,,,,,,0
1022,4100002000240,登記記録の閉鎖等,0,2024-08-14,2024-07-26,有限会社あづまガレージ,,有限会社,長野県,長野市,大字鶴賀七瀬南部５１７番地,,20,201,3800905,,,2024-07-26,清算の結了等,,,2015-10-05,1,,,,,アヅマガレージ,0
1023,4100002035311,登記記録の閉鎖等,0,2024-08-14,2024-07-29,有限会社野竹製材所,,有限会社,長野県,上伊那郡辰野町,大字小野８０２番地,,20,382,3990601,,,2024-07-29,清算の結了等,,,2015-10-05,1,,,,,ノタケセイザイショ,0
1047,4120003018420,登記記録の閉鎖等,0,2024-08-14,2024-08-02,合同会社ＹＡＤＯＲＩＧＩ,,合同会社,大阪府,大阪市浪速区,元町３丁目１３－２１ロードハイツ１階,,27,111,5560016,,,2024-08-02,清算の結了等,,,2020-11-17,1,,,,,ヤドリギ,0
1056,4122001001977,登記記録の閉鎖等,0,2024-08-14,2024-08-08,株式会社共同精機,,株式会社,大阪府,東大阪市,菱江６丁目１１番２４号,,27,227,5780984,,,2024-08-08,清算の結了等,,,2015-10-05,1,,,,,キョウドウセイキ,0
1059,4130001060101,登記記録の閉鎖等,0,2024-08-14,2024-08-09,株式会社ＫＳＧ,,株式会社,京都府,八幡市,男山指月３番地２２－３０２,,26,210,6148361,,,2024-08-09,清算の結了等,,,2017-06-30,1,,,,,,0
1075,4170005005858,登記記録の閉鎖等,0,2024-08-14,2024-08-09,一般社団法人和歌山県建物解体協会,,その他の設立登記法人,和歌山県,和歌山市,北新桶屋町２０番地,,30,201,6408015,,,2024-08-09,清算の結了等,,,2015-10-05,1,,,,,ワカヤマケンタテモノカイタイキョウカイ,0
1078,4180001032640,登記記録の閉鎖等,0,2024-08-14,2024-08-02,株式会社細田工務店,,株式会社,愛知県,名古屋市中村区,道下町３丁目２５番地,,23,105,4530046,,,2024-08-02,清算の結了等,,,2015-10-05,1,,,,,ホソダコウムテン,0
1080,4180001049040,登記記録の閉鎖等,0,2024-08-14,2024-07-29,株式会社ジェフブレーン,,株式会社,愛知県,名古屋市西区,名駅２丁目２５番１０号,,23,104,4510045,,,2024-07-29,清算の結了等,,,2015-10-05,1,,,,,ジェフブレーン,0
1083,4180001134206,登記記録の閉鎖等,0,2024-08-14,2024-08-01,株式会社中村不動産,,株式会社,愛知県,東海市,荒尾町畑田４１番地１,,23,222,4760003,,,2024-08-01,合併による解散等,5180001094465,令和６年８月１日愛知県東海市大田町松崎３３１番地１株式会社中村土木建設（5180001094465）に合併し解散,2018-10-26,1,,,,,ナカムラフドウサン,0
1129,4370001014801,登記記録の閉鎖等,0,2024-08-14,2024-07-29,株式会社及川設備,,株式会社,宮城県,仙台市若林区,大和町５丁目２８番５－１０４号,,04,103,9840042,,,2024-07-29,清算の結了等,,,2015-10-05,1,,,,,オイカワセツビ,0
1135,4390002006333,登記記録の閉鎖等,0,2024-08-14,2024-07-31,有限会社堀野製＿所,00084905,有限会社,山形県,上山市,八日町２番９号,,06,207,9993133,,,2024-07-31,清算の結了等,,,2015-10-05,1,,,,,ホリノセイアンショ,0
1136,4430001012113,登記記録の閉鎖等,0,2024-08-14,2024-08-13,株式会社シンセイ建築設計,,株式会社,北海道,札幌市北区,新川五条６丁目４番１７号,,01,102,0010925,,,2024-08-13,清算の結了等,,,2015-10-05,1,,,,,,0
1162,5010002001503,登記記録の閉鎖等,0,2024-08-14,2024-07-25,有限会社かしわや商店,,有限会社,東京都,文京区,関口１丁目７番１号,,13,105,1120014,,,2024-07-25,清算の結了等,,,2015-10-05,1,,,,,カシワヤショウテン,0
1164,5010002052356,登記記録の閉鎖等,0,2024-08-14,2024-08-01,有限会社エフェシスコ,,有限会社,東京都,千代田区,富士見２丁目１０－３－３３０２,,13,101,1020071,,,2024-08-01,合併による解散等,6010001239663,令和６年８月１日東京都千代田区富士見二丁目１０番３－３３０２号株式会社エフェワンナ（6010001239663）に合併し解散,2015-10-05,1,,,,,エフェシスコ,0
1184,5010802010876,登記記録の閉鎖等,0,2024-08-14,2024-07-24,有限会社成澤技研工業,,有限会社,神奈川県,横浜市旭区,若葉台１丁目８番６０８号,,14,112,2410801,,,2024-07-24,清算の結了等,,,2015-10-05,1,,,,,ナリサワギケンコウギョウ,0
1189,5011001115590,登記記録の閉鎖等,0,2024-08-14,2024-07-24,株式会社セカンドレイル,,株式会社,東京都,目黒区,目黒本町２丁目６番１５号,,13,110,1520002,,,2024-07-24,清算の結了等,,,2017-03-31,1,,,,,セカンドレイル,0
1208,5011402002685,登記記録の閉鎖等,0,2024-08-14,2024-08-07,有限会社キョウエイ,,有限会社,東京都,板橋区,中台３丁目１１番１０－１０４号,,13,119,1740064,,,2024-08-07,清算の結了等,,,2015-10-05,1,,,,,キョウエイ,0
1224,5020001008705,登記記録の閉鎖等,0,2024-08-14,2024-08-13,齋田商事株式会社,,株式会社,神奈川県,横須賀市,佐原１丁目１０番５号山良ビル３０１,,14,201,2390835,,,2024-08-13,清算の結了等,,,2015-10-05,1,,,,,,0
1239,5030001006047,登記記録の閉鎖等,0,2024-08-14,2024-08-06,株式会社アクアスココ,,株式会社,埼玉県,さいたま市西区,大字指扇２７０６番地の１,,11,101,3310047,,,2024-08-06,清算の結了等,,,2015-10-05,1,,,,,アクアスココ,0
1254,5030003022265,登記記録の閉鎖等,0,2024-08-14,2024-08-05,合同会社ＫＯＮＡＴＳＵ,,合同会社,東京都,台東区,上野３丁目１９番５号田沼ビル５,,13,106,1100005,,,2024-08-05,清算の結了等,,,2023-08-21,1,,,,,コナツ,0
1257,5040001083498,登記記録の閉鎖等,0,2024-08-14,2024-07-31,株式会社ｎｉｃｏｒｏ,,株式会社,千葉県,野田市,岩名２丁目５６番地の８,,12,208,2780055,,,2024-07-31,清算の結了等,,,2015-10-05,1,,,,,,0
1266,5070001005838,登記記録の閉鎖等,0,2024-08-14,2024-08-08,シティープラン株式会社,,株式会社,群馬県,前橋市,天川大島町１丁目２９番地１５,,10,201,3792154,,,2024-08-08,清算の結了等,,,2015-10-05,1,,,,,シティープラン,0
1280,5120001116836,登記記録の閉鎖等,0,2024-08-14,2024-08-08,株式会社ＳＡＫＬＩＫＩＴ,,株式会社,大阪府,大阪市西区,江戸堀２丁目１－１,,27,106,5500002,,,2024-08-08,清算の結了等,,,2015-10-05,1,,,,,サクライキ,0
1282,5120001211793,登記記録の閉鎖等,0,2024-08-14,2024-08-01,株式会社ＴＴＭ,,株式会社,東京都,文京区,後楽２丁目６番１号,,13,105,1120004,,,2024-08-01,合併による解散等,8010601045947,令和６年８月１日東京都文京区後楽二丁目６番１号丸紅ＩＴソリューションズ株式会社（8010601045947）に合併し解散,2018-03-05,1,,,,,ティーティーエム,0
1297,5120101039615,登記記録の閉鎖等,0,2024-08-14,2024-07-31,株式会社キックス,,株式会社,大阪府,泉佐野市,本町１番２０号,,27,213,5980057,,,2024-07-31,合併による解散等,2120101039849,令和６年７月３１日大阪府泉佐野市本町１番２０号株式会社内原ホールディングス（2120101039849）に合併し解散,2015-10-05,1,,,,,キックス,0
1302,5120903003074,登記記録の閉鎖等,0,2024-08-14,2024-08-05,キングパンダ合同会社,,合同会社,大阪府,豊中市,西泉丘２丁目２４６９番地（１０１号）,,27,203,5610862,,,2024-08-05,清算の結了等,,,2019-12-17,1,,,,,キングパンダ,0
1333,5180002064533,登記記録の閉鎖等,0,2024-08-14,2024-07-31,有限会社中野薬房,,有限会社,愛知県,豊明市,大久伝町南１９番地２６,,23,229,4701111,,,2024-07-31,清算の結了等,,,2015-10-05,1,,,,,ナカノヤクボウ,0
1345,5200001031548,登記記録の閉鎖等,0,2024-08-14,2024-08-09,株式会社ＷＡＹ　ＴＯ　ＧＯ,,株式会社,岐阜県,岐阜市,鹿島町７丁目１８番地１市川共同ビル３階,,21,201,5008323,,,2024-08-09,清算の結了等,,,2015-10-05,1,,,,,ウエイツウゴウ,0
1347,5200005013410,登記記録の閉鎖等,0,2024-08-14,2024-08-08,特定非営利活動法人トマトなんでも相談室,,その他の設立登記法人,岐阜県,羽島市,江吉良町江中３丁目１０番地,,21,209,5016238,,,2024-08-08,清算の結了等,,,2022-11-10,1,,,,,トマトナンデモソウダンシツ,0
1348,5220001004196,登記記録の閉鎖等,0,2024-08-14,2024-08-02,株式会社田ばた,,株式会社,石川県,金沢市,中央通町２２番８号,,17,201,9200866,,,2024-08-02,清算の結了等,,,2015-10-05,1,,,,,タバタ,0
1355,5240005013241,登記記録の閉鎖等,0,2024-08-14,2024-08-09,一般社団法人竹原薬剤師会,,その他の設立登記法人,広島県,東広島市,安芸津町三津４４２４番地,,34,212,7392402,,,2024-08-09,清算の結了等,,,2015-10-05,1,,,,,タケハラヤクザイシカイ,0
1374,5320001005754,登記記録の閉鎖等,0,2024-08-14,2024-08-06,株式会社元気ファクトリー,,株式会社,大分県,大分市,大字光吉１５０７番地の４,,44,201,8701132,,,2024-08-06,清算の結了等,,,2015-10-05,1,,,,,,0
1397,5430002062593,登記記録の閉鎖等,0,2024-08-14,2024-08-13,有限会社パレスシンセイ,,有限会社,北海道,幌泉郡えりも町,字大和２５４番地の３,,01,609,0580205,,,2024-08-13,清算の結了等,,,2015-10-05,1,,,,,パレスシンセイ,0
1419,6010001236982,登記記録の閉鎖等,0,2024-08-14,2024-07-31,ＹＪホールディングス株式会社,,株式会社,東京都,千代田区,丸の内３丁目４番１号新国際ビル６階,,13,101,1000005,,,2024-07-31,清算の結了等,,,2023-07-14,1,,,,,ワイジェイホールディングス,0
1484,6011402001991,登記記録の閉鎖等,0,2024-08-14,2024-08-06,有限会社小川精機,,有限会社,東京都,板橋区,仲宿１４番７号,,13,119,1730005,,,2024-08-06,清算の結了等,,,2015-10-05,1,,,,,オガワセイキ,0
1506,6020001112489,登記記録の閉鎖等,0,2024-08-14,2024-07-24,リカバリー株式会社,,株式会社,神奈川県,横浜市金沢区,六浦２丁目１３番２５－４０３号,,14,108,2360031,,,2024-07-24,清算の結了等,,,2015-10-05,1,,,,,リカバリー,0
1523,6030001018405,登記記録の閉鎖等,0,2024-08-14,2024-08-06,株式会社佐藤工業所,,株式会社,埼玉県,蓮田市,大字井沼６７５番地１９,,11,238,3490135,,,2024-08-06,清算の結了等,,,2015-10-05,1,,,,,サトウコウギョウショ,0
1542,6040001096350,登記記録の閉鎖等,0,2024-08-14,2024-07-30,ケイズアップ株式会社,,株式会社,千葉県,木更津市,東太田４丁目１３番２１号プラザ東太田１０２号室,,12,206,2920043,,,2024-07-30,清算の結了等,,,2016-08-02,1,,,,,ケイズアップ,0
1553,6080001014589,登記記録の閉鎖等,0,2024-08-14,2024-08-02,株式会社参京,,株式会社,静岡県,島田市,金谷東２丁目３４８３番地の２９０,,22,209,4280013,,,2024-08-02,清算の結了等,,,2015-10-05,1,,,,,,0
1559,6120001246079,登記記録の閉鎖等,0,2024-08-14,2024-08-09,神戸栄養ラボ株式会社,,株式会社,大阪府,大阪市北区,梅田１丁目１番３号大阪駅前第３ビル２５階,,27,127,5300001,,,2024-08-09,清算の結了等,,,2022-05-24,1,,,,,コウベリヨウラボ,0
1581,6130001025523,登記記録の閉鎖等,0,2024-08-14,2024-08-07,三洋ビルバンク株式会社,,株式会社,京都府,京都市中京区,室町通蛸薬師下る山伏山町５５８番地三洋室町ビル,00035954,26,104,6048156,,,2024-08-07,清算の結了等,,,2015-10-05,1,,,,,サンヨウビルバンク,0
1597,6140002029588,登記記録の閉鎖等,0,2024-08-14,2024-08-08,藤井金網有限会社,,有限会社,兵庫県,明石市,材木町９番３０号,,28,203,6730893,,,2024-08-08,清算の結了等,,,2015-10-05,1,,,,,,0
1600,6140005020585,登記記録の閉鎖等,0,2024-08-14,2024-08-09,ニューブ神戸管理組合法人,,その他の設立登記法人,兵庫県,神戸市中央区,北長狭通５丁目４番７号,,28,110,6500012,,,2024-08-09,清算の結了等,,,2015-10-05,1,,,,,ニューブコウベ,0
1615,6180002024866,登記記録の閉鎖等,0,2024-08-14,2024-08-13,有限会社名西設備工業,,有限会社,愛知県,名古屋市西区,幅下１丁目１０番３２号,,23,104,4510041,,,2024-08-13,清算の結了等,,,2015-10-05,1,,,,,メイセイセツビコウギョウ,0
1636,6290003006555,登記記録の閉鎖等,0,2024-08-14,2024-07-08,Ｈ＆Ａカンパニー合同会社,,合同会社,福岡県,福岡市中央区,大濠公園３－３２,,40,133,8100051,,,2024-07-08,清算の結了等,,,2016-06-30,1,,,,,エッチアンドエーカンパニー,0
1645,6320005005923,登記記録の閉鎖等,0,2024-08-14,2024-08-08,農事組合法人明治農産組合,,その他の設立登記法人,大分県,竹田市,大字植木５４２５番地,,44,208,8780001,,,2024-08-08,清算の結了等,,,2015-10-05,1,,,,,メイジノウサンクミアイ,0
1651,6340002015048,登記記録の閉鎖等,0,2024-08-14,2024-08-02,有限会社改元建設,,有限会社,鹿児島県,霧島市,牧園町上中津川１２０３番地２,,46,218,8996504,,,2024-08-02,清算の結了等,,,2015-10-05,1,,,,,カイモトケンセツ,0
1664,6380003005507,登記記録の閉鎖等,0,2024-08-14,2024-08-06,合同会社のびシルベ,,合同会社,福島県,いわき市,常磐上湯長谷町扇田３９ー８,,07,204,9728322,,,2024-08-06,清算の結了等,,,2023-07-11,1,,,,,ノビシルベ,0
1666,6390002015935,登記記録の閉鎖等,0,2024-08-14,2024-07-30,有限会社庄司興業,,有限会社,山形県,西村山郡河北町,西里４０７番地３,,06,321,9993533,,,2024-07-30,清算の結了等,,,2015-10-05,1,,,,,ショウジコウギョウ,0
1673,6430002050093,登記記録の閉鎖等,0,2024-08-14,2024-08-07,有限会社竹山建具製作所,,有限会社,北海道,美唄市,大通東一条南６丁目５番１２号,,01,215,0720011,,,2024-08-07,清算の結了等,,,2015-10-05,1,,,,,タケヤマタテグセイサクショ,0
1677,6460001004493,登記記録の閉鎖等,0,2024-08-14,2024-08-05,株式会社サロンドＶｉＶｉ,,株式会社,北海道,釧路市,星が浦大通１丁目７番１１号,,01,206,0840912,,,2024-08-05,清算の結了等,,,2015-10-05,1,,,,,,0
1684,6470002016859,登記記録の閉鎖等,0,2024-08-14,2024-08-06,有限会社中井電気商会,,有限会社,香川県,三豊市,仁尾町仁尾丙１４９９番地,,37,208,7691403,,,2024-08-06,清算の結了等,,,2015-10-05,1,,,,,ナカイデンキショウカイ,0
1688,6500002015717,登記記録の閉鎖等,0,2024-08-14,2024-08-08,有限会社敷島モータース,,有限会社,愛媛県,新居浜市,西原町１丁目１番７５号,,38,205,7920011,,,2024-08-08,清算の結了等,,,2015-10-05,1,,,,,シキシマモータース,0
1706,7010001207603,登記記録の閉鎖等,0,2024-08-14,2024-07-31,藤花精株式会社,,株式会社,東京都,文京区,湯島３丁目３４番１１－１０２号,,13,105,1130034,,,2024-07-31,清算の結了等,,,2020-02-18,1,,,,,フジハナセイ,0
1715,7010003040589,登記記録の閉鎖等,0,2024-08-14,2024-07-30,天神西インベストメント合同会社,,合同会社,東京都,中央区,日本橋１丁目４番１号,,13,102,1030027,,,2024-07-30,清算の結了等,,,2023-05-16,1,,,,,テンジンニシインベストメント,0
1716,7010003041835,登記記録の閉鎖等,0,2024-08-14,2024-07-31,合同会社ＩＲＳ３,,合同会社,東京都,千代田区,丸の内２丁目６番１号,,13,101,1000005,,,2024-07-31,清算の結了等,,,2023-10-04,1,,,,,アイアールエススリー,0
1722,7010401180391,登記記録の閉鎖等,0,2024-08-14,2024-08-09,株式会社化成,,株式会社,東京都,港区,芝２丁目１０番６号ＥＡＲＴＨＳＨＩＢＡＢＬＤ．３Ｆイントリム内,,13,103,1050014,,,2024-08-09,合併による解散等,2011101016304,令和６年８月１日東京都新宿区歌舞伎町二丁目３番２２号日本化成株式会社（2011101016304）に合併し解散,2024-02-14,1,,,,,カセイ,0
1733,7010601055294,登記記録の閉鎖等,0,2024-08-14,2024-08-07,株式会社Ｂｒｉｄｇｉｎｇ　Ｔｈｅ　Ｇａｐ,,株式会社,東京都,江東区,亀戸６丁目５５番１５－３０４号,,13,108,1360071,,,2024-08-07,清算の結了等,,,2019-04-03,1,,,,,ブリッジングザギャップ,0
1751,7011105004259,登記記録の閉鎖等,0,2024-08-14,2024-07-25,特定非営利活動法人日本葡萄酒振興会,,その他の設立登記法人,東京都,新宿区,上落合１丁目２８番１２号野村ハイム２０１号,,13,104,1610034,,,2024-07-25,清算の結了等,,,2015-10-05,1,,,,,ニホンブドウシュシンコウカイ,0
1757,7011302010547,登記記録の閉鎖等,0,2024-08-14,2024-08-07,有限会社インデックス・ズィー,,有限会社,東京都,杉並区,西荻北５丁目２１番１９号,,13,115,1670042,,,2024-08-07,清算の結了等,,,2015-10-05,1,,,,,インデックスズィー,0
1769,7012801001086,登記記録の閉鎖等,0,2024-08-14,2024-07-30,株式会社テクノホロン,,株式会社,東京都,立川市,柏町４丁目８番地１３号上水パルナス１０３号,,13,202,1900004,,,2024-07-30,清算の結了等,,,2015-10-05,1,,,,,テクノホロン,0
1787,7020003017644,登記記録の閉鎖等,0,2024-08-14,2024-07-23,合同会社和光ＬＩＮＫ,,合同会社,神奈川県,横浜市神奈川区,松見町１丁目５番地１６,,14,102,2210005,,,2024-07-23,清算の結了等,,,2020-03-30,1,,,,,ワコウリンク,0
1804,7030001083241,登記記録の閉鎖等,0,2024-08-14,2024-08-06,株式会社ヨコヤマ,,株式会社,埼玉県,川口市,東領家２丁目３５番７号,,11,203,3320003,,,2024-08-06,清算の結了等,,,2015-10-05,1,,,,,ヨコヤマ,0
1834,7110001020054,登記記録の閉鎖等,0,2024-08-14,2024-08-02,株式会社まこと,,株式会社,新潟県,上越市,大和４丁目４番３９号,,15,222,9430861,,,2024-08-02,清算の結了等,,,2015-10-05,1,,,,,マコト,0
1871,7140003005323,登記記録の閉鎖等,0,2024-08-14,2024-08-06,合同会社ＧＥＶ,,合同会社,兵庫県,神戸市長田区,海運町４丁目３番２３号,,28,106,6530052,,,2024-08-06,清算の結了等,,,2015-10-05,1,,,,,ジーイブイ,0
1883,7180001012540,登記記録の閉鎖等,0,2024-08-14,2024-07-31,株式会社大栄商事,,株式会社,愛知県,名古屋市北区,天道町５丁目１１番地,,23,103,4620034,,,2024-07-31,清算の結了等,,,2015-10-05,1,,,,,ダイエイショウジ,0
1884,7180001074275,登記記録の閉鎖等,0,2024-08-14,2024-08-01,株式会社シンアイ設備,,株式会社,愛知県,名古屋市名東区,引山３丁目３０５番地,,23,115,4650002,,,2024-08-01,清算の結了等,,,2015-10-05,1,,,,,シンアイセツビ,0
1885,7180001095692,登記記録の閉鎖等,0,2024-08-14,2024-07-31,原田商事株式会社,,株式会社,愛知県,知多郡東浦町,大字緒川字上家左川１２５番地の６,,23,442,4702102,,,2024-07-31,清算の結了等,,,2015-10-05,1,,,,,ハラダショウジ,0
1887,7180001139318,登記記録の閉鎖等,0,2024-08-14,2024-07-31,株式会社カミナリ,,株式会社,愛知県,名古屋市天白区,元八事５丁目７７番地,,23,116,4680066,,,2024-07-31,清算の結了等,,,2019-12-20,1,,,,,カミナリ,0
1888,7180001140085,登記記録の閉鎖等,0,2024-08-14,2024-08-01,株式会社サンゲール,,株式会社,愛知県,名古屋市中区,丸の内２丁目１７番１３号,,23,106,4600002,,,2024-08-01,清算の結了等,,,2020-02-14,1,,,,,サンゲール,0
1899,7200001017421,登記記録の閉鎖等,0,2024-08-14,2024-08-08,株式会社大山製紐工業所,,株式会社,岐阜県,加茂郡八百津町,八百津４９０８番地,,21,505,5050301,,,2024-08-08,清算の結了等,,,2015-10-05,1,,,,,オオヤマセイチュウコウギョウショ,0
1916,7260001017234,登記記録の閉鎖等,0,2024-08-14,2024-08-09,株式会社瀬戸大橋夕陽が丘ホテルアンドアーツ,,株式会社,岡山県,倉敷市,下津井１４８２番２５,,33,202,7110927,,,2024-08-09,合併による解散等,6013301019628,令和６年８月１日東京都豊島区南大塚三丁目４６番３号株式会社勝英自動車学校（6013301019628）に合併し解散,2015-10-05,1,,,,,セトオオハシユウヒガオカホテルアンドアーツ,0
1917,7280001006193,登記記録の閉鎖等,0,2024-08-14,2024-08-05,株式会社やすぎ環境センター,,株式会社,島根県,安来市,安来町７６３番地３,,32,206,6920011,,,2024-08-05,清算の結了等,,,2015-10-05,1,,,,,ヤスギカンキョウセンター,0
1923,7320002013325,登記記録の閉鎖等,0,2024-08-14,2024-08-08,有限会社プレイン企画,,有限会社,大分県,別府市,大字鶴見４０２６番地の５１,,44,202,8740840,,,2024-08-08,清算の結了等,,,2015-10-05,1,,,,,,0
1926,7340002000387,登記記録の閉鎖等,0,2024-08-14,2024-08-07,有限会社西村精肉・惣菜店,,有限会社,鹿児島県,鹿児島市,上谷口町１０１９番地３,,46,201,8992703,,,2024-08-07,清算の結了等,,,2015-10-05,1,,,,,ニシムラセイニクソウザイテン,0
1928,7360001006391,登記記録の閉鎖等,0,2024-08-14,2024-08-09,げるま産業株式会社,,株式会社,沖縄県,糸満市,字喜屋武４３２番地,,47,210,9010354,,,2024-08-09,清算の結了等,,,2015-10-05,1,,,,,ゲルマサンギョウ,0
1934,7390002001050,登記記録の閉鎖等,0,2024-08-14,2024-07-31,有限会社横田鉄筋工業,,有限会社,山形県,山形市,新開３丁目１２番地１０,,06,201,9902164,,,2024-07-31,清算の結了等,,,2015-10-05,1,,,,,ヨコタテッキンコウギョウ,0
1956,8010001071098,登記記録の閉鎖等,0,2024-08-14,2024-07-30,株式会社ニュークリアシステム,,株式会社,東京都,千代田区,飯田橋１丁目１２番１４号,,13,101,1020072,,,2024-07-30,清算の結了等,,,2015-10-05,1,,,,,ニュークリアシステム,0
1963,8010001233730,登記記録の閉鎖等,0,2024-08-14,2024-07-30,株式会社ＫＳＴ３,,株式会社,東京都,千代田区,内幸町２丁目１番６号,,13,101,1000011,,,2024-07-30,清算の結了等,,,2023-03-16,1,,,,,ケイエスティースリー,0
1964,8010001234877,登記記録の閉鎖等,0,2024-08-14,2024-07-30,株式会社ＫＳＴ４,,株式会社,東京都,千代田区,内幸町２丁目１番６号,,13,101,1000011,,,2024-07-30,清算の結了等,,,2023-04-28,1,,,,,ケイエスティーフォー,0
1980,8010401139239,登記記録の閉鎖等,0,2024-08-14,2024-08-09,ＳＢＩ　ｅ－Ｓｐｏｒｔｓ株式会社,,株式会社,東京都,港区,六本木１丁目６番１号,,13,103,1060032,,,2024-08-09,合併による解散等,4120001250512,令和６年８月１日大阪市北区中之島三丁目２番１８号ＳＢＩデジタルハブ株式会社（4120001250512）に合併し解散,2018-06-27,1,,,,,エスビーアイイースポーツ,0
1981,8010401171794,登記記録の閉鎖等,0,2024-08-14,2024-07-25,株式会社ＶＩＹＥＬＬ,,株式会社,東京都,渋谷区,恵比寿１丁目１１番４－６０１号,,13,113,1500013,,,2024-07-25,清算の結了等,,,2023-01-13,1,,,,,ビエール,0
1984,8010402013632,登記記録の閉鎖等,0,2024-08-14,2024-07-16,有限会社ワイクリエイト,,有限会社,東京都,港区,西麻布３丁目１番２３号,,13,103,1060031,,,2024-07-16,清算の結了等,,,2015-10-05,1,,,,,,0
1989,8010501007700,登記記録の閉鎖等,0,2024-08-14,2024-08-05,第一工事株式会社,,株式会社,東京都,台東区,三筋２丁目２１番３号,,13,106,1110055,,,2024-08-05,清算の結了等,,,2015-10-05,1,,,,,ダイイチコウジ,0
2018,8011105005545,登記記録の閉鎖等,0,2024-08-14,2024-07-10,特定非営利活動法人全国地域結婚支援センター,,その他の設立登記法人,東京都,渋谷区,神宮前３丁目１番２４号ソフトタウン青山５１３号,,13,113,1500001,,,2024-07-10,清算の結了等,,,2015-10-05,1,,,,,ゼンコクチイキケッコンシエンセンター,0
2020,8011201012528,登記記録の閉鎖等,0,2024-08-14,2024-08-08,株式会社スローシステムズ,,株式会社,東京都,中野区,中野１丁目４９番８号,,13,114,1640001,,,2024-08-08,清算の結了等,,,2015-10-05,1,,,,,スローシステムズ,0
2032,8011802010062,登記記録の閉鎖等,0,2024-08-14,2024-08-07,有限会社上原商店,,有限会社,東京都,足立区,千住寿町１５番７号,,13,121,1200033,,,2024-08-07,清算の結了等,,,2015-10-05,1,,,,,ウエハラショウテン,0
2067,8030002120389,登記記録の閉鎖等,0,2024-08-14,2024-08-07,有限会社バウ設計,,有限会社,埼玉県,日高市,大字高萩７８１番地５６,,11,242,3501213,,,2024-08-07,清算の結了等,,,2015-10-05,1,,,,,バウセッケイ,0
2080,8070001020999,登記記録の閉鎖等,0,2024-08-14,2024-08-07,渡辺運輸倉庫株式会社,,株式会社,群馬県,太田市,龍舞町４６４９番地,,10,205,3730806,,,2024-08-07,合併による解散等,5011401007108,令和６年８月１日東京都板橋区成増三丁目２番１５号日本運輸荷造株式会社（5011401007108）に合併し解散,2015-10-05,1,,,,,ワタナベウンユソウコ,0
2116,8120005007566,登記記録の閉鎖等,0,2024-08-14,2024-08-05,特定非営利活動法人国際整体医学師協会,,その他の設立登記法人,大阪府,東大阪市,小若江２丁目１０番１０号,,27,227,5770818,,,2024-08-05,清算の結了等,,,2015-10-05,1,,,,,コクサイセイタイイガクシキョウカイ,0
2125,8120902022114,登記記録の閉鎖等,0,2024-08-14,2024-08-07,有限会社美砂乃,,有限会社,大阪府,豊中市,西緑丘２丁目６番１８－９０３号,,27,203,5600005,,,2024-08-07,合併による解散等,2120001101956,令和６年８月１日大阪市中央区東高麗橋２番５－１１０１号中川興産株式会社（2120001101956）に合併し解散,2015-10-05,1,,,,,ミサノ,0
2140,8140003008564,登記記録の閉鎖等,0,2024-08-14,2024-08-08,清水建設合同会社,,合同会社,兵庫県,加東市,平木１３１０番地４００,,28,228,6731402,,,2024-08-08,清算の結了等,,,2015-10-05,1,,,,,キヨミズケンセツ,0
2141,8140003014967,登記記録の閉鎖等,0,2024-08-14,2024-07-31,合同会社ＲＥＡＴＨＩＣＳ　ＪＡＰＡＮ,,合同会社,兵庫県,神戸市兵庫区,大開通２丁目３番６号メゾンユニベール２０２,,28,105,6520803,,,2024-07-31,清算の結了等,,,2020-05-19,1,,,,,リーシックスジャパン,0
2149,8180001097060,登記記録の閉鎖等,0,2024-08-14,2024-07-30,三浦精工株式会社,,株式会社,愛知県,弥富市,五之三町西本田１３番地４,,23,235,4980012,,,2024-07-30,清算の結了等,,,2015-10-05,1,,,,,ミウラセイコウ,0
2154,8180002044342,登記記録の閉鎖等,0,2024-08-14,2024-08-01,有限会社東山保険サービス,,有限会社,愛知県,名古屋市千種区,唐山町３丁目３６番地,,23,101,4640806,,,2024-08-01,清算の結了等,,,2015-10-05,1,,,,,ヒガシヤマホケンサービス,0
2156,8180302027666,登記記録の閉鎖等,0,2024-08-14,2024-08-06,有限会社柴田商店,,有限会社,愛知県,新城市,野田字上市場２５番地の７３２,,23,221,4411344,,,2024-08-06,清算の結了等,,,2015-10-05,1,,,,,シバタショウテン,0
2200,8360002022809,登記記録の閉鎖等,0,2024-08-14,2024-08-01,有限会社グルーブ・ワン,,有限会社,沖縄県,島尻郡与那原町,字東浜８５番２６,,47,348,9011304,,,2024-08-01,清算の結了等,,,2015-10-05,1,,,,,グルーブワン,0
2216,8430001036760,登記記録の閉鎖等,0,2024-08-14,2024-08-13,株式会社ＭＥＮＣＥＹ,,株式会社,北海道,江別市,野幌美幸町１７番地７,,01,217,0690804,,,2024-08-13,清算の結了等,,,2015-10-05,1,,,,,メンセイ,0
2231,8500002011656,登記記録の閉鎖等,0,2024-08-14,2024-08-06,有限会社木下建築設計事務所,,有限会社,愛媛県,大洲市,徳森２２４５番地３０,,38,207,7950061,,,2024-08-06,清算の結了等,,,2015-10-05,1,,,,,キノシタケンチクセッケイジムショ,0
2232,8500002017257,登記記録の閉鎖等,0,2024-08-14,2024-08-08,有限会社やまうちや,,有限会社,愛媛県,新居浜市,港町３番９号,,38,205,7920016,,,2024-08-08,清算の結了等,,,2015-10-05,1,,,,,ヤマウチヤ,0
2236,9010001156773,登記記録の閉鎖等,0,2024-08-14,2024-08-09,株式会社ツーエム,,株式会社,東京都,調布市,仙川町１丁目５０番２号,,13,208,1820002,,,2024-08-09,合併による解散等,3011101046903,令和６年８月１日東京都台東区上野五丁目１５番１５号株式会社ルーデン・ビルマネジメント（3011101046903）に合併し解散,2015-10-05,1,,,,,ツーエム,0
2245,9010401031329,登記記録の閉鎖等,0,2024-08-14,2024-07-22,株式会社ラ・ラ・ルー・プロダクションズ,,株式会社,東京都,港区,南麻布２丁目２番７号,,13,103,1060047,,,2024-07-22,清算の結了等,,,2015-10-05,1,,,,,ララループロダクションズ,0
2269,9010701043288,登記記録の閉鎖等,0,2024-08-14,2024-08-05,株式会社学研ファミーユ,,株式会社,東京都,品川区,西五反田２丁目１１番８号,,13,109,1410031,,,2024-08-05,清算の結了等,,,2022-10-07,1,,,,,ガッケンファミーユ,0
2289,9011101095795,登記記録の閉鎖等,0,2024-08-14,2024-07-30,豊賀生物技術株式会社,,株式会社,東京都,新宿区,高田馬場１丁目２３番９号,,13,104,1690075,,,2024-07-30,清算の結了等,,,2021-07-29,1,,,,,トヨガセイブツギジュツ,0
2297,9011205001286,登記記録の閉鎖等,0,2024-08-14,2024-08-02,特定非営利活動法人日中交流倶楽部,,その他の設立登記法人,東京都,豊島区,東池袋４丁目５番１号エアライズタワー３１０９号,,13,116,1700013,,,2024-08-02,清算の結了等,,,2015-10-05,1,,,,,ニッチュウコウリュウクラブ,0
2300,9011302002699,登記記録の閉鎖等,0,2024-08-14,2024-08-07,有限会社共同空調,,有限会社,東京都,杉並区,浜田山４丁目２９番１８－１０１号,,13,115,1680065,,,2024-08-07,清算の結了等,,,2015-10-05,1,,,,,,0
2318,9012401003935,登記記録の閉鎖等,0,2024-08-14,2024-08-05,日塔商事株式会社,,株式会社,東京都,国立市,東１丁目１番地の２５,,13,215,1860002,,,2024-08-05,清算の結了等,,,2015-10-05,1,,,,,ニットウショウジ,0
2333,9013301004544,登記記録の閉鎖等,0,2024-08-14,2024-08-02,産業資材販売株式会社,,株式会社,東京都,豊島区,目白２丁目２３番１４号,,13,116,1710031,,,2024-08-02,清算の結了等,,,2015-10-05,1,,,,,サンギョウシザイハンバイ,0
2346,9020002080146,登記記録の閉鎖等,0,2024-08-14,2024-07-23,有限会社Ｂ＆Ｖ,,有限会社,神奈川県,横浜市港北区,菊名７丁目１２番７号,,14,109,2220011,,,2024-07-23,清算の結了等,,,2015-10-05,1,,,,,ビーアンドヴィー,0
2355,9021002064659,登記記録の閉鎖等,0,2024-08-14,2024-08-08,有限会社シー・ワイエンタープライズ,,有限会社,神奈川県,横須賀市,東逸見町３丁目２番地,,14,201,2380045,,,2024-08-08,清算の結了等,,,2015-10-05,1,,,,,シーワイエンタープライズ,0
2367,9030002101685,登記記録の閉鎖等,0,2024-08-14,2024-08-06,有限会社勝企画,,有限会社,埼玉県,川口市,幸町３丁目１０番１８号,,11,203,3320016,,,2024-08-06,清算の結了等,,,2015-10-05,1,,,,,カツキカク,0
2370,9030003013855,登記記録の閉鎖等,0,2024-08-14,2024-08-06,合同会社サポート・オフィス・ＭＡＳＡＫＯ,,合同会社,埼玉県,所沢市,中新井２丁目２３２番地の３,,11,208,3590041,,,2024-08-06,清算の結了等,,,2019-07-25,1,,,,,サポートオフィスマサコ,0
2384,9070002026053,登記記録の閉鎖等,0,2024-08-14,2024-08-08,有限会社Ｂｌａｎｋｅｔ,,有限会社,群馬県,渋川市,八木原１１０９番地３,,10,208,3770003,,,2024-08-08,清算の結了等,,,2015-10-05,1,,,,,ブランケット,0
2394,9110005013952,登記記録の閉鎖等,0,2024-08-14,2024-08-02,医療法人社団至誠堂耳鼻咽喉科医院,,その他の設立登記法人,新潟県,佐渡市,窪田９３３番地１,,15,224,9521325,,,2024-08-02,清算の結了等,,,2015-10-05,1,,,,,シセイドウジビインコウカイイン,0
2422,9140001040964,登記記録の閉鎖等,0,2024-08-14,2024-08-08,大村薬品株式会社,,株式会社,兵庫県,丹波市,氷上町成松２４５番地,,28,223,6693601,,,2024-08-08,清算の結了等,,,2015-10-05,1,,,,,オオムラヤクヒン,0
2423,9140001101130,登記記録の閉鎖等,0,2024-08-14,2024-08-08,株式会社ヒロコヤ,,株式会社,大阪府,大阪市生野区,桃谷２丁目５番４１号,,27,116,5440034,,,2024-08-08,清算の結了等,,,2016-02-26,1,,,,,ヒロコヤ,0
2436,9160005004765,登記記録の閉鎖等,0,2024-08-14,2024-08-06,特定非営利活動法人学びゅー人,,その他の設立登記法人,滋賀県,米原市,朝妻筑摩８７３番地,,25,214,5210001,,,2024-08-06,清算の結了等,,,2015-10-05,1,,,,,マナビュート,0
2447,9180302009481,登記記録の閉鎖等,0,2024-08-14,2024-08-07,有限会社フジタケ紙工,,有限会社,愛知県,豊橋市,東新町８番地,,23,201,4400812,,,2024-08-07,清算の結了等,,,2015-10-05,1,,,,,フジタケシコウ,0
2453,9200002010357,登記記録の閉鎖等,0,2024-08-14,2024-08-09,有限会社浅征毛織,,有限会社,岐阜県,羽島市,福寿町間島６丁目１４１番地,,21,209,5016251,,,2024-08-09,清算の結了等,,,2015-10-05,1,,,,,アサイケオリ,0
2467,9240005007248,登記記録の閉鎖等,0,2024-08-14,2024-08-09,農事組合法人原田の郷,,その他の設立登記法人,広島県,安芸高田市,高宮町原田２１０９番地,,34,214,7391805,,,2024-08-09,清算の結了等,,,2015-10-05,1,,,,,ハラダノゴウ,0
2483,9290805000711,登記記録の閉鎖等,0,2024-08-14,2024-08-05,北九州個人タクシー協同組合,,その他の設立登記法人,福岡県,北九州市小倉北区,熊谷４丁目１５番２０号,,40,106,8030864,,,2024-08-05,清算の結了等,,,2015-10-05,1,,,,,キタキュウシュウコジンタクシー,0
2506,9430001005302,登記記録の閉鎖等,0,2024-08-14,2024-08-08,株式会社経営創研,,株式会社,北海道,札幌市清田区,真栄四条５丁目１０番１８号,,01,110,0040834,,,2024-08-08,清算の結了等,,,2015-10-05,1,,,,,ケイエイソウケン,0
2509,9430001080337,登記記録の閉鎖等,0,2024-08-14,2024-08-13,北海道福祉車輛サービス株式会社,,株式会社,北海道,札幌市北区,新琴似町１０１０番地４３,,01,102,0010915,,,2024-08-13,清算の結了等,,,2019-11-28,1,,,,,ホッカイドウフクシシャリョウサービス,0
2519,9470002005834,登記記録の閉鎖等,0,2024-08-14,2024-08-08,有限会社藤井フードセンター,,有限会社,香川県,高松市,瀬戸内町１２番５号,,37,201,7600012,,,2024-08-08,清算の結了等,,,2015-10-05,1,,,,,フジイフードセンター,0
