sequenceNumber,corporateNumber,process,correct,updateDate,changeDate,name,nameImageId,kind,prefectureName,cityName,streetNumber,addressImageId,prefectureCode,cityCode,postCode,addressOutside,addressOutsideImageId,closeDate,closeCause,successorCorporateNumber,changeCause,assignmentDate,latest,enName,enPrefectureName,enCityName,enAddressOutside,furigana,hihyoji
9,1010001195077,登記記録の閉鎖等,0,2021-09-14,2021-09-06,ミストシステムズ株式会社,,株式会社,東京都,新宿区,西新宿３丁目２０番２号東京オペラシティタワー４５階,,13,104,1600023,,,2021-09-06,清算の結了等,,,2018-10-02,1,,,,,ミストシステムズ,0
24,1010401127613,登記記録の閉鎖等,0,2021-09-14,2021-09-06,エピジェライフ株式会社,,株式会社,東京都,港区,東麻布３丁目５番１５号,,13,103,1060044,,,2021-09-06,清算の結了等,,,2016-10-18,1,,,,,エピジェライフ,0
46,1010901031587,登記記録の閉鎖等,0,2021-09-14,2021-09-08,株式会社マッキントシヤ,,株式会社,東京都,世田谷区,奥沢３丁目４７番８－１００５号,,13,112,1580083,,,2021-09-08,清算の結了等,,,2015-10-05,1,,,,,マッキントシヤ,0
48,1010903005762,登記記録の閉鎖等,0,2021-09-14,2021-09-08,合同会社ネスタ商会,,合同会社,東京都,世田谷区,北烏山２丁目３番９－４０３号,,13,112,1570061,,,2021-09-08,清算の結了等,,,2020-06-18,1,,,,,ネスタショウカイ,0
56,1011001091043,登記記録の閉鎖等,0,2021-09-14,2021-09-10,株式会社ＭＳ岩手・一関,,株式会社,岩手県,一関市,山目字中野１４０番地５,,03,209,0210053,,,2021-09-10,合併による解散等,9011001090260,令和３年９月１日東京都新宿区西新宿三丁目２０番２号株式会社ジェイエムエス・ワン（9011001090260）に合併し解散,2015-10-05,1,,,,,エムエスイワテイチノセキ,0
57,1011001096166,登記記録の閉鎖等,0,2021-09-14,2021-09-10,株式会社ＳＪ山口・周南,,株式会社,山口県,周南市,大字徳山１０５３番地の１,,35,215,7450851,,,2021-09-10,合併による解散等,2011001094086,令和３年９月１日東京都新宿区西新宿三丁目２０番２号株式会社ジェイエムエス・スリー（2011001094086）に合併し解散,2015-10-05,1,,,,,,0
100,1013302021059,登記記録の閉鎖等,0,2021-09-14,2021-09-07,有限会社ジュンデザイン,,有限会社,東京都,豊島区,南池袋１丁目６番１４号,,13,116,1710022,,,2021-09-07,清算の結了等,,,2015-10-05,1,,,,,ジュンデザイン,0
108,1021001005357,登記記録の閉鎖等,0,2021-09-14,2021-09-09,株式会社ビットシンク,,株式会社,神奈川県,藤沢市,城南３丁目６番６－４１１号,,14,205,2510057,,,2021-09-09,清算の結了等,,,2015-10-05,1,,,,,ビットシンク,0
121,1030001027501,登記記録の閉鎖等,0,2021-09-14,2021-09-03,株式会社エデュコム,,株式会社,埼玉県,入間市,大字下藤沢１１２７番地１,,11,225,3580011,,,2021-09-03,清算の結了等,,,2015-10-05,1,,,,,エデュコム,0
130,1030002021429,登記記録の閉鎖等,0,2021-09-14,2021-09-03,有限会社千葉商店,,有限会社,埼玉県,さいたま市岩槻区,大字笹久保７５０番地の３,,11,110,3390034,,,2021-09-03,清算の結了等,,,2015-10-05,1,,,,,チバショウテン,0
132,1040001000432,登記記録の閉鎖等,0,2021-09-14,2021-09-07,株式会社アルカデイア・トレーデイング,,株式会社,千葉県,館山市,布良無番地,,12,205,2940234,,,2021-09-07,清算の結了等,,,2015-10-05,1,,,,,アルカデイアトレーデイング,0
136,1040001086892,登記記録の閉鎖等,0,2021-09-14,2021-09-06,株式会社三栄,,株式会社,千葉県,市川市,南行徳４丁目２０番１０号,,12,203,2720138,,,2021-09-06,清算の結了等,,,2015-10-05,1,,,,,,0
157,1080402009275,登記記録の閉鎖等,0,2021-09-14,2021-09-13,有限会社三輪管工,,有限会社,静岡県,湖西市,吉美２９０６番地の２２,,22,221,4310441,,,2021-09-13,清算の結了等,,,2015-10-05,1,,,,,ミワカンコウ,0
166,1120002052258,登記記録の閉鎖等,0,2021-09-14,2021-09-07,有限会社速光印刷,,有限会社,大阪府,大阪市西成区,津守３丁目２番３１号,,27,122,5570062,,,2021-09-07,清算の結了等,,,2015-10-05,1,,,,,ソッコウインサツ,0
202,1160001000981,登記記録の閉鎖等,0,2021-09-14,2021-09-10,株式会社信和エンジニアリング,,株式会社,滋賀県,湖南市,サイドタウン２丁目１３番１２号,,25,211,5203244,,,2021-09-10,清算の結了等,,,2015-10-05,1,,,,,シンワエンジニアリング,0
207,1180001003966,登記記録の閉鎖等,0,2021-09-14,2021-09-08,株式会社Ｇ・ワークス,,株式会社,愛知県,名古屋市名東区,本郷２丁目１番地,,23,115,4650024,,,2021-09-08,清算の結了等,,,2015-10-05,1,,,,,ジーワークス,0
219,1180302025107,登記記録の閉鎖等,0,2021-09-14,2021-09-13,有限会社優工業所,,有限会社,愛知県,みよし市,西一色町荒井９０番地の３,,23,236,4700226,,,2021-09-13,清算の結了等,,,2015-10-05,1,,,,,マサルコウギョウショ,0
236,1250001003876,登記記録の閉鎖等,0,2021-09-14,2021-09-09,野村自動車株式会社,,株式会社,山口県,山陽小野田市,大字西高泊５８６番地の５,,35,216,7560057,,,2021-09-09,清算の結了等,,,2015-10-05,1,,,,,,0
253,1320001000156,登記記録の閉鎖等,0,2021-09-14,2021-09-10,サークルフーズ株式会社,,株式会社,大分県,大分市,原新町６番３０号,,44,201,8700912,,,2021-09-10,合併による解散等,8290801001706,令和３年９月１日北九州市若松区本町二丁目１７番１号ベイサイドプラザ若松２Ｆ株式会社サンリブ（8290801001706）に合併し解散,2015-10-05,1,,,,,サークルフーズ,0
254,1320001007184,登記記録の閉鎖等,0,2021-09-14,2021-09-13,株式会社ベツダイホーム,,株式会社,大分県,大分市,高松１丁目７番８号サンメゾン高城１階１０２号,,44,201,8700917,,,2021-09-13,清算の結了等,,,2015-10-05,1,,,,,ベツダイホーム,0
263,1350001004988,登記記録の閉鎖等,0,2021-09-14,2021-09-10,株式会社ケイ・エフ・ジー,,株式会社,宮崎県,宮崎市,広島２丁目１１番１３号広島共栄ビル２Ｆ,,45,201,8800806,,,2021-09-10,清算の結了等,,,2015-10-05,1,,,,,ケイエフジー,0
272,1370501000147,登記記録の閉鎖等,0,2021-09-14,2021-09-06,株式会社北日本ツアーズ,,株式会社,宮城県,気仙沼市,本郷９番地７,,04,205,9880042,,,2021-09-06,清算の結了等,,,2015-10-05,1,,,,,キタニホンツアーズ,0
273,1380001004028,登記記録の閉鎖等,0,2021-09-14,2021-09-07,株式会社福鈴,,株式会社,福島県,伊達郡国見町,大字塚野目字前畑１２番地,,07,303,9691751,,,2021-09-07,清算の結了等,,,2015-10-05,1,,,,,フクスズ,0
274,1380001009340,登記記録の閉鎖等,0,2021-09-14,2021-09-07,株式会社エス・ディー・ケィ,,株式会社,福島県,二本松市,向原２６６番地の７,,07,210,9640916,,,2021-09-07,清算の結了等,,,2015-10-05,1,,,,,エスディーケィ,0
276,1380002017813,登記記録の閉鎖等,0,2021-09-14,2021-09-08,有限会社三友不動産,,有限会社,福島県,白河市,新白河３丁目３１番地,,07,205,9610856,,,2021-09-08,清算の結了等,,,2015-10-05,1,,,,,サンユウフドウサン,0
277,1380002019751,登記記録の閉鎖等,0,2021-09-14,2021-09-07,有限会社キタハタ,,有限会社,福島県,須賀川市,山寺町３０４番地,,07,207,9620062,,,2021-09-07,清算の結了等,,,2015-10-05,1,,,,,キタハタ,0
282,1410002013908,登記記録の閉鎖等,0,2021-09-14,2021-09-08,有限会社タイム堂インターナショナル,,有限会社,秋田県,横手市,増田町増田字中町８３番地,,05,203,0190701,,,2021-09-08,清算の結了等,,,2015-10-05,1,,,,,タイムドウインターナシヨナル,0
287,1430001083487,登記記録の閉鎖等,0,2021-09-14,2021-09-03,株式会社トゥモロービルズ,,株式会社,北海道,札幌市東区,北十九条東１６丁目１番１号,,01,103,0650019,,,2021-09-03,清算の結了等,,,2021-02-25,1,,,,,トゥモロービルズ,0
303,1700150030064,登記記録の閉鎖等,0,2021-09-14,2020-03-16,ニッタ企業年金基金,,その他,奈良県,大和郡山市,池沢町１７２,,29,203,6391032,,,2020-03-16,その他の清算の結了等,,,2015-10-09,1,,,,,ニツタキギヨウネンキンキキン,0
304,1700150062421,登記記録の閉鎖等,0,2021-09-14,2021-03-31,緑川南部土地改良区,,その他,熊本県,熊本市南区,城南町宮地１０５０,,43,104,8614202,,,2021-03-31,その他の清算の結了等,,,2015-10-09,1,,,,,ミドリカワナンブトチカイリヨウク,0
309,2010001085590,登記記録の閉鎖等,0,2021-09-14,2021-09-07,福島中央建設株式会社,,株式会社,福島県,福島市,御山字西壁谷沢２番地の５,,07,201,9608252,,,2021-09-07,清算の結了等,,,2015-10-05,1,,,,,フクシマチュウオウケンセツ,0
312,2010001216897,登記記録の閉鎖等,0,2021-09-14,2021-09-06,株式会社アセット・ファシリティーズ,,株式会社,東京都,千代田区,紀尾井町３番６号,,13,101,1020094,,,2021-09-06,清算の結了等,,,2021-03-30,1,,,,,アセットファシリティーズ,0
317,2010003024489,登記記録の閉鎖等,0,2021-09-14,2021-09-07,合同会社ＫＳＤ２,,合同会社,東京都,千代田区,内幸町２丁目１番６号,,13,101,1000011,,,2021-09-07,清算の結了等,,,2016-12-09,1,,,,,ケイエスディツー,0
341,2010701027727,登記記録の閉鎖等,0,2021-09-14,2021-09-09,株式会社ＤＣコマース,,株式会社,東京都,港区,六本木４丁目３番１１号六本木ユニハウス２２３,,13,103,1060032,,,2021-09-09,合併による解散等,8010701023794,令和３年８月１日東京都目黒区上目黒三丁目６番１６号株式会社ナインメディア（8010701023794）に合併し解散,2015-10-05,1,,,,,ディーシーコマース,0
343,2010901039670,登記記録の閉鎖等,0,2021-09-14,2021-09-08,株式会社ホームメイド,,株式会社,東京都,世田谷区,深沢５丁目３番１３号,,13,112,1580081,,,2021-09-08,清算の結了等,,,2017-03-08,1,,,,,ホームメイド,0
348,2011001091042,登記記録の閉鎖等,0,2021-09-14,2021-09-10,株式会社ＭＳ和歌山・加太,,株式会社,和歌山県,和歌山市,加太大字炭谷２３６２番地の１７,,30,201,6400103,,,2021-09-10,合併による解散等,9011001090260,令和３年９月１日東京都新宿区西新宿三丁目２０番２号株式会社ジェイエムエス・ワン（9011001090260）に合併し解散,2015-10-05,1,,,,,,0
352,2011001127770,登記記録の閉鎖等,0,2021-09-14,2021-08-31,ザ・スタイルワークス株式会社,,株式会社,東京都,渋谷区,千駄ヶ谷３丁目２番１０号,,13,113,1510051,,,2021-08-31,清算の結了等,,,2019-05-10,1,,,,,ザスタイルワークス,0
384,2020001066994,登記記録の閉鎖等,0,2021-09-14,2021-09-07,ベンチャー・キャピタル・ファイナンス株式会社,,株式会社,神奈川県,川崎市高津区,末長１丁目４０番１－６０５号,,14,134,2130013,,,2021-09-07,清算の結了等,,,2015-10-05,1,,,,,ベンチャーキャピタルファイナンス,0
403,2030001022229,登記記録の閉鎖等,0,2021-09-14,2021-09-03,株式会社自転車本舗,,株式会社,埼玉県,蕨市,北町１丁目１８番地５,,11,223,3350001,,,2021-09-03,清算の結了等,,,2015-10-05,1,,,,,ジテンシャホンポ,0
429,2060002021953,登記記録の閉鎖等,0,2021-09-14,2021-09-06,有限会社江戸屋旅舘,,有限会社,栃木県,那須塩原市,板室８６０番地,,09,213,3250111,,,2021-09-06,清算の結了等,,,2015-10-05,1,,,,,,0
431,2070002005410,登記記録の閉鎖等,0,2021-09-14,2021-09-09,茂木商亊有限会社,,有限会社,群馬県,前橋市,富士見町石井４２６番地の１,,10,201,3710105,,,2021-09-09,清算の結了等,,,2015-10-05,1,,,,,モギショウジ,0
441,2080401021536,登記記録の閉鎖等,0,2021-09-14,2021-09-10,株式会社ＡＧＣＤＫ,,株式会社,静岡県,浜松市中区,西浅田１丁目２番５号,,22,131,4328045,,,2021-09-10,清算の結了等,,,2016-06-07,1,,,,,エージーシーディーケイ,0
445,2100002003939,登記記録の閉鎖等,0,2021-09-14,2021-09-10,有限会社日新技研設計事務所,,有限会社,長野県,長野市,吉田５丁目１番２７号,,20,201,3810043,,,2021-09-10,清算の結了等,,,2015-10-05,1,,,,,ニッシンギケンセッケイジムショ,0
448,2110002010315,登記記録の閉鎖等,0,2021-09-14,2021-09-08,有限会社保苅写真館,,有限会社,新潟県,新潟市南区,白根２７４３番地,,15,106,9501217,,,2021-09-08,清算の結了等,,,2015-10-05,1,,,,,ホカリシャシンカン,0
465,2120102015535,登記記録の閉鎖等,0,2021-09-14,2021-09-10,有限会社サンクス,,有限会社,大阪府,松原市,田井城２丁目２０１番地の５,,27,217,5800044,,,2021-09-10,清算の結了等,,,2015-10-05,1,,,,,サンクス,0
509,2180002003519,登記記録の閉鎖等,0,2021-09-14,2021-09-03,朝日土地建物有限会社,,有限会社,愛知県,名古屋市千種区,東山元町１丁目４９番地,,23,101,4640804,,,2021-09-03,合併による解散等,6180001033612,令和３年９月１日名古屋市中区栄三丁目３１番１２号株式会社アイ・ケイ・ケイ（6180001033612）に合併し解散,2015-10-05,1,,,,,アサヒトチタテモノ,0
510,2180002013047,登記記録の閉鎖等,0,2021-09-14,2021-09-08,有限会社若山工業所,,有限会社,愛知県,名古屋市北区,辻町字流７番地の２,00072903,23,103,4620032,,,2021-09-08,清算の結了等,,,2015-10-05,1,,,,,ワカヤマコウギョウショ,0
514,2180301001272,登記記録の閉鎖等,0,2021-09-14,2021-09-10,株式会社エスエルオートジャパン,,株式会社,愛知県,岡崎市,柱４丁目１１番地５,,23,202,4440837,,,2021-09-10,清算の結了等,,,2015-10-05,1,,,,,エスエルオートジャパン,0
532,2220002003159,登記記録の閉鎖等,0,2021-09-14,2021-09-10,有限会社充真,,有限会社,石川県,金沢市,新保本４丁目６番地,,17,201,9218062,,,2021-09-10,清算の結了等,,,2015-10-05,1,,,,,ジュウシン,0
534,2230002013512,登記記録の閉鎖等,0,2021-09-14,2021-09-09,有限会社上田商運,,有限会社,富山県,高岡市,上関７６８番地,,16,202,9330851,,,2021-09-09,清算の結了等,,,2015-10-05,1,,,,,ウエダショウウン,0
535,2240001044540,登記記録の閉鎖等,0,2021-09-14,2021-09-10,株式会社岡峰船舶,,株式会社,広島県,呉市,倉橋町５９１４番地の２,,34,202,7371377,,,2021-09-10,清算の結了等,,,2015-10-05,1,,,,,オカミネセンパク,0
548,2290001021254,登記記録の閉鎖等,0,2021-09-14,2021-09-01,株式会社ランアンドラン,,株式会社,福岡県,福岡市博多区,博多駅中央街５番１１号,,40,132,8120012,,,2021-09-01,清算の結了等,,,2015-10-05,1,,,,,ランアンドラン,0
567,2320001000345,登記記録の閉鎖等,0,2021-09-14,2021-09-13,大分冷藏製氷株式会社,,株式会社,大分県,大分市,新川町２丁目５番２６号,,44,201,8700016,,,2021-09-13,清算の結了等,,,2015-10-05,1,,,,,オオイタレイゾウセイヒョウ,0
596,2430005001015,登記記録の閉鎖等,0,2021-09-14,2021-09-13,一般社団法人北海道産炭地域振興センター,,その他の設立登記法人,北海道,釧路市,黒金町７丁目５番地,,01,206,0850018,,,2021-09-13,清算の結了等,,,2015-10-05,1,,,,,ホッカイドウサンタンチイキシンコウセンター,0
604,2500001016439,登記記録の閉鎖等,0,2021-09-14,2021-09-09,株式会社ＦＬＡＴ,,株式会社,愛媛県,西条市,三津屋南９番２９,,38,206,7991353,,,2021-09-09,清算の結了等,,,2015-10-05,1,,,,,フラット,0
607,2700150062387,登記記録の閉鎖等,0,2021-09-14,2021-03-31,豊田土地改良区,,その他,熊本県,熊本市南区,城南町塚原１８６,,43,104,8614226,,,2021-03-31,その他の清算の結了等,,,2015-10-09,1,,,,,トヨダトチカイリヨウク,0
626,3010002030256,登記記録の閉鎖等,0,2021-09-14,2021-09-08,有限会社サワホームテック,,有限会社,東京都,千代田区,内神田２丁目３番１４号平沢ビル５階,,13,101,1010047,,,2021-09-08,清算の結了等,,,2015-10-05,1,,,,,サワホームテック,0
665,3011001050815,登記記録の閉鎖等,0,2021-09-14,2021-08-31,株式会社マッシュ・ノート,,株式会社,東京都,渋谷区,神宮前１丁目１０番３４号,,13,113,1500001,,,2021-08-31,清算の結了等,,,2015-10-05,1,,,,,マッシュノート,0
669,3011101023233,登記記録の閉鎖等,0,2021-09-14,2021-09-03,株式会社新宿花忠,,株式会社,東京都,新宿区,新宿１丁目２番６号,,13,104,1600022,,,2021-09-03,清算の結了等,,,2015-10-05,1,,,,,シンジュクハナチュウ,0
679,3011101089514,登記記録の閉鎖等,0,2021-09-14,2021-09-03,株式会社ＺｅＮｉｔ,,株式会社,東京都,新宿区,西新宿７丁目５番５号プラザ西新宿７０９,,13,104,1600023,,,2021-09-03,清算の結了等,,,2019-11-12,1,,,,,ゼニト,0
696,3012401003775,登記記録の閉鎖等,0,2021-09-14,2021-09-02,株式会社樹心社,,株式会社,東京都,国立市,富士見台１丁目７番地１－５－４０３,,13,215,1860003,,,2021-09-02,清算の結了等,,,2015-10-05,1,,,,,ジュシンシャ,0
702,3020001008681,登記記録の閉鎖等,0,2021-09-14,2021-09-10,株式会社三紘,,株式会社,神奈川県,横浜市都筑区,池辺町４７３５番地,,14,118,2240053,,,2021-09-10,合併による解散等,5011701004317,令和３年８月１日東京都江戸川区南葛西四丁目１８番２号株式会社スミダパッケージ（5011701004317）に合併し解散,2015-10-05,1,,,,,サンコウ,0
717,3030001028266,登記記録の閉鎖等,0,2021-09-14,2021-09-03,株式会社ＯＴＭ,,株式会社,埼玉県,所沢市,大字山口５０２０番地,,11,208,3591145,,,2021-09-03,清算の結了等,,,2015-10-05,1,,,,,オーティーエム,0
720,3030001111996,登記記録の閉鎖等,0,2021-09-14,2021-08-31,株式会社梅商事,,株式会社,埼玉県,川口市,本町３丁目２番２１号,,11,203,3320012,,,2021-08-31,合併による解散等,2030001096280,令和３年８月３１日埼玉県川口市本町三丁目２番２１号株式会社天意（2030001096280）に合併し解散,2015-12-22,1,,,,,ウメショウジ,0
726,3030001122671,登記記録の閉鎖等,0,2021-09-14,2021-08-03,株式会社東旭こいのぼり,,株式会社,埼玉県,熊谷市,問屋町３丁目１番５号,,11,202,3600024,,,2021-08-03,清算の結了等,,,2017-10-16,1,,,,,トウキョクコイノボリ,0
750,3070003002100,登記記録の閉鎖等,0,2021-09-14,2021-09-10,合同会社スカイアクア,,合同会社,群馬県,伊勢崎市,東上之宮町９３１番地,,10,204,3720815,,,2021-09-10,清算の結了等,,,2015-10-05,1,,,,,スカイアクア,0
754,3080102010283,登記記録の閉鎖等,0,2021-09-14,2021-09-07,有限会社佐藤工業,,有限会社,静岡県,駿東郡長泉町,中土狩２７９番地の１,,22,342,4110942,,,2021-09-07,清算の結了等,,,2015-10-05,1,,,,,サトウコウギョウ,0
806,3180001001613,登記記録の閉鎖等,0,2021-09-14,2021-09-10,伊東工業株式会社,,株式会社,愛知県,名古屋市名東区,文教台１丁目１１１番地,,23,115,4650012,,,2021-09-10,清算の結了等,,,2015-10-05,1,,,,,イトウコウギョウ,0
844,3250001006282,登記記録の閉鎖等,0,2021-09-14,2021-09-08,株式会社フーズ・リョーワ,,株式会社,山口県,下関市,東大和町２丁目１６番１号,,35,201,7500066,,,2021-09-08,合併による解散等,1180001001037,令和３年９月１日名古屋市中区千代田五丁目７番５号日本ゼネラルフード株式会社（1180001001037）に合併し解散,2015-10-05,1,,,,,フーズリョーワ,0
860,3300001000445,登記記録の閉鎖等,0,2021-09-14,2021-09-09,株式会社サツキ商事,,株式会社,佐賀県,佐賀市,西与賀町大字厘外１５９２番地４,,41,201,8400034,,,2021-09-09,清算の結了等,,,2015-10-05,1,,,,,サツキショウジ,0
883,3380001001535,登記記録の閉鎖等,0,2021-09-14,2021-09-08,福島ビル管理株式会社,,株式会社,福島県,福島市,栄町５番１号,,07,201,9608031,,,2021-09-08,清算の結了等,,,2015-10-05,1,,,,,フクシマビルカンリ,0
886,3380002014271,登記記録の閉鎖等,0,2021-09-14,2021-09-07,有限会社イサロフォート,,有限会社,福島県,郡山市,大槻町字北田２６番地の１７,,07,203,9630201,,,2021-09-07,清算の結了等,,,2015-10-05,1,,,,,イサロフォート,0
899,3430003001701,登記記録の閉鎖等,0,2021-09-14,2021-09-06,鹿壺合同会社,,合同会社,北海道,札幌市中央区,南七条西９丁目１０３０番地４,,01,101,0640807,,,2021-09-06,清算の結了等,,,2015-10-05,1,,,,,シカツボ,0
910,3700150003456,登記記録の閉鎖等,0,2021-09-14,2021-06-28,コープビル管理会,,その他,東京都,千代田区,内神田１丁目１－１２,,13,101,1010047,,,2021-06-28,その他の清算の結了等,,,2015-10-09,1,,,,,コープビルカンリカイ,0
911,3700150008488,登記記録の閉鎖等,0,2021-09-14,2021-05-25,道玄坂一丁目駅前地区市街地再開発組合,,その他,東京都,渋谷区,道玄坂１丁目１６－３渋谷センタープレイス,,13,113,1500043,,,2021-05-25,その他の清算の結了等,,,2015-10-09,1,,,,,ドウゲンザカイツチヨウメエキマエチクシガイチサイカイハツクミアイ,0
912,3700150017919,登記記録の閉鎖等,0,2021-09-14,2021-03-31,マーチングバンド・バトントワーリング埼玉県大会実行委員会,,その他,埼玉県,春日部市,中央１丁目４５－１２春日荘２０１,,11,214,3440067,,,2021-03-31,その他の清算の結了等,,,2015-10-09,1,,,,,マーチングバンドバトントワーリングサイタマケンタイカイジツコウイインカイ,0
916,4010001147694,登記記録の閉鎖等,0,2021-09-14,2021-09-09,株式会社エルスタジオ,,株式会社,東京都,中央区,勝どき５丁目３番１－４９２３号,,13,102,1040054,,,2021-09-09,清算の結了等,,,2015-10-05,1,,,,,エルスタジオ,0
940,4010405019382,登記記録の閉鎖等,0,2021-09-14,2021-09-06,税理士法人ワイズブレイシア,,その他の設立登記法人,東京都,港区,高輪３丁目１１番１－３０４号,,13,103,1080074,,,2021-09-06,清算の結了等,,,2021-01-13,1,,,,,ワイズブレイシア,0
985,4020001020875,登記記録の閉鎖等,0,2021-09-14,2021-09-01,太陽空調株式会社,,株式会社,神奈川県,横浜市港北区,菊名３丁目１３番１号,,14,109,2220011,,,2021-09-01,清算の結了等,,,2015-10-05,1,,,,,,0
995,4021001045565,登記記録の閉鎖等,0,2021-09-14,2021-09-06,プログレススタッフ株式会社,,株式会社,神奈川県,横須賀市,米が浜通２丁目３番地,,14,201,2380011,,,2021-09-06,清算の結了等,,,2015-10-05,1,,,,,プログレススタッフ,0
1025,4050001035037,登記記録の閉鎖等,0,2021-09-14,2021-09-08,株式会社コットンオレンジ,,株式会社,茨城県,日立市,小木津町３丁目２４番１５号,,08,202,3191413,,,2021-09-08,清算の結了等,,,2015-10-05,1,,,,,コットンオレンジ,0
1071,4120003010815,登記記録の閉鎖等,0,2021-09-14,2021-09-06,合同会社アシスト,,合同会社,大阪府,大阪市東淀川区,西淡路１丁目１３番１号,,27,114,5330031,,,2021-09-06,清算の結了等,,,2015-10-05,1,,,,,アシスト,0
1092,4140002024582,登記記録の閉鎖等,0,2021-09-14,2021-09-06,有限会社ガード保険サービス,,有限会社,兵庫県,神戸市西区,樫野台３丁目１９番地の３,,28,111,6512275,,,2021-09-06,清算の結了等,,,2015-10-05,1,,,,,ガードホケンサービス,0
1093,4140003016273,登記記録の閉鎖等,0,2021-09-14,2021-09-08,ＭＴＢＩＧ合同会社,,合同会社,兵庫県,明石市,藤江１４１７番１号グリーンシティ５０３,,28,203,6730044,,,2021-09-08,清算の結了等,,,2021-05-19,1,,,,,エムティービッグ,0
1098,4160001012999,登記記録の閉鎖等,0,2021-09-14,2021-09-10,東和警備保障株式会社,,株式会社,滋賀県,草津市,西渋川１丁目１１番３号,,25,206,5250025,,,2021-09-10,合併による解散等,9370001018599,令和３年９月１日仙台市青葉区国分町一丁目７番１８号東洋ワークセキュリティ株式会社（9370001018599）に合併し解散,2015-10-05,1,,,,,トウワケイビホショウ,0
1103,4180001028548,登記記録の閉鎖等,0,2021-09-14,2021-09-08,東陽型範株式会社,,株式会社,愛知県,名古屋市緑区,有松南１０３番地,,23,114,4598004,,,2021-09-08,清算の結了等,,,2015-10-05,1,,,,,トウヨウケイハン,0
1108,4180001094210,登記記録の閉鎖等,0,2021-09-14,2021-09-06,大高電機工業株式会社,,株式会社,愛知県,東海市,名和町後酉２５番地,,23,222,4760002,,,2021-09-06,清算の結了等,,,2015-10-05,1,,,,,オオダカデンキコウギョウ,0
1117,4190002011485,登記記録の閉鎖等,0,2021-09-14,2021-09-10,有限会社清花園,,有限会社,三重県,志摩市,阿児町鵜方５１０７番地,,24,215,5170501,,,2021-09-10,清算の結了等,,,2015-10-05,1,,,,,セイカエン,0
1121,4200002009916,登記記録の閉鎖等,0,2021-09-14,2021-09-13,有限会社井ノ口ハウス,,有限会社,岐阜県,本巣市,長屋３６６番地の３,,21,218,5010412,,,2021-09-13,清算の結了等,,,2015-10-05,1,,,,,,0
1123,4210001002945,登記記録の閉鎖等,0,2021-09-14,2021-09-09,株式会社ハイ・プロ,,株式会社,福井県,福井市,宝永２丁目８番２１号,,18,201,9100004,,,2021-09-09,清算の結了等,,,2015-10-05,1,,,,,ハイプロ,0
1130,4220001020161,登記記録の閉鎖等,0,2021-09-14,2021-09-08,北陸デンタルトラスト株式会社,,株式会社,石川県,金沢市,東山３丁目５番１０号,,17,201,9200831,,,2021-09-08,合併による解散等,8011001123467,令和３年８月３１日東京都千代田区内幸町一丁目３番１号株式会社メディカルサポート（8011001123467）に合併し解散,2015-10-05,1,,,,,ホクリクデンタルトラスト,0
1138,4250002020587,登記記録の閉鎖等,0,2021-09-14,2021-09-09,有限会社イマイ温水器,,有限会社,山口県,柳井市,南浜１丁目６番１８号,,35,212,7420023,,,2021-09-09,清算の結了等,,,2015-10-05,1,,,,,イマイオンスイキ,0
1153,4290002035813,登記記録の閉鎖等,0,2021-09-14,2021-08-30,有限会社三協機工,,有限会社,福岡県,太宰府市,大字北谷１１１６番地８７,,40,221,8180114,,,2021-08-30,清算の結了等,,,2015-10-05,1,,,,,サンキョウキコウ,0
1159,4310002006919,登記記録の閉鎖等,0,2021-09-14,2021-09-09,有限会社玉栄養鶉園,,有限会社,長崎県,長崎市,大籠町１０６５番地１,,42,201,8510302,,,2021-09-09,清算の結了等,,,2015-10-05,1,,,,,タマエイヨウジュンエン,0
1162,4320001014839,登記記録の閉鎖等,0,2021-09-14,2021-09-08,大分アスリード株式会社,,株式会社,大分県,大分市,大字上宗方２４８番地の７,,44,201,8701152,,,2021-09-08,合併による解散等,2320001011557,令和３年７月３１日大分市大字上宗方２５１番地の２株式会社Ｄ．ＫＡＮＺＡＫＩ　Ｃａｒｐｅｎｔｒｙ（2320001011557）に合併し解散,2016-04-07,1,,,,,オオイタアスリード,0
1179,4380002025342,登記記録の閉鎖等,0,2021-09-14,2021-09-07,有限会社根岸石材工業,,有限会社,福島県,いわき市,遠野町上遠野字太田９８番地の１,,07,204,9720161,,,2021-09-07,清算の結了等,,,2015-10-05,1,,,,,ネギシセキザイコウギョウ,0
1181,4380005010663,登記記録の閉鎖等,0,2021-09-14,2021-09-07,ふるさと福島復興企業組合,,その他の設立登記法人,福島県,田村市,船引町堀越字堰下１９５番地,,07,211,9634204,,,2021-09-07,清算の結了等,,,2015-10-05,1,,,,,フルサトフクシマフッコウ,0
1182,4390001004222,登記記録の閉鎖等,0,2021-09-14,2021-09-08,コロナメンテナンス山形株式会社,,株式会社,山形県,山形市,東青田３丁目６番２８号,,06,201,9902423,,,2021-09-08,清算の結了等,,,2015-10-05,1,,,,,コロナメンテナンスヤマガタ,0
1209,4700150053500,登記記録の閉鎖等,0,2021-09-14,2020-03-31,二位ノ浜海水浴場管理団体,,その他,山口県,長門市,日置上５９１４－３長門市役所　日置支所,,35,211,7594401,,,2020-03-31,その他の清算の結了等,,,2015-10-09,1,,,,,ニイノハマカイスイヨクジヨウカンリダンタイ,0
1210,4700150061981,登記記録の閉鎖等,0,2021-09-14,2021-04-01,小浜温泉観光協会,,その他,長崎県,雲仙市,小浜町北本町１４－３９,,42,213,8540514,,,2021-04-01,その他の清算の結了等,,,2015-10-09,1,,,,,オバマオンセンカンコウキヨウカイ,0
1211,4700150087754,登記記録の閉鎖等,0,2021-09-14,2021-02-09,朝霞市宮戸二丁目土地区画整理組合,,その他,埼玉県,朝霞市,宮戸４丁目７－９２サンライフ・ミヤドＡ棟　１０２,,11,227,3510031,,,2021-02-09,その他の清算の結了等,,,2018-03-01,1,,,,,アサカシミヤドニチヨウメトチクカクセイリクミアイ,0
1212,5010001113480,登記記録の閉鎖等,0,2021-09-14,2021-09-03,株式会社エヌ・エル・ディー,,株式会社,東京都,中央区,湊１丁目６番１１号,,13,102,1040043,,,2021-09-03,清算の結了等,,,2015-10-05,1,,,,,エヌエルディー,0
1238,5010702005547,登記記録の閉鎖等,0,2021-09-14,2021-09-10,有限会社東英塗装工業,,有限会社,東京都,品川区,荏原１丁目３番１６号,,13,109,1420063,,,2021-09-10,清算の結了等,,,2015-10-05,1,,,,,トウエイトソウコウギョウ,0
1240,5010801022352,登記記録の閉鎖等,0,2021-09-14,2021-09-03,株式会社ティアラ・ロサ,,株式会社,東京都,港区,南青山２丁目２番１５号ウィン青山９４２,,13,103,1070062,,,2021-09-03,清算の結了等,,,2015-10-05,1,,,,,ティアラロサ,0
1243,5011001091048,登記記録の閉鎖等,0,2021-09-14,2021-09-10,株式会社ＭＳ新潟・胎内,,株式会社,新潟県,胎内市,船戸３３２番地２,,15,227,9592675,,,2021-09-10,合併による解散等,9011001090260,令和３年９月１日東京都新宿区西新宿三丁目２０番２号株式会社ジェイエムエス・ワン（9011001090260）に合併し解散,2015-10-05,1,,,,,エムエスニイガタタイナイ,0
1253,5011005005565,登記記録の閉鎖等,0,2021-09-14,2021-08-30,一般社団法人Ｒｅａｄ　ｆｏｒ　Ａｃｔｉｏｎ,,その他の設立登記法人,東京都,渋谷区,道玄坂１丁目１２番１号渋谷マークシティＷ１６階,,13,113,1500043,,,2021-08-30,清算の結了等,,,2015-10-05,1,,,,,リードフォーアクション,0
1255,5011101047197,登記記録の閉鎖等,0,2021-09-14,2021-09-06,日本ビルダーズ株式会社,,株式会社,東京都,港区,芝大門２丁目９番１６号,,13,103,1050012,,,2021-09-06,清算の結了等,,,2015-10-05,1,,,,,ニホンビルダーズ,0
1279,5012702004520,登記記録の閉鎖等,0,2021-09-14,2021-09-07,有限会社田安,,有限会社,東京都,西東京市,北町５丁目９番３１号,,13,229,2020003,,,2021-09-07,清算の結了等,,,2015-10-05,1,,,,,タヤス,0
1281,5013102001356,登記記録の閉鎖等,0,2021-09-14,2021-09-07,有限会社中野製作所,,有限会社,東京都,羽村市,羽中３丁目１６番４４号,,13,227,2050015,,,2021-09-07,清算の結了等,,,2015-10-05,1,,,,,ナカノセイサクショ,0
1293,5030001036374,登記記録の閉鎖等,0,2021-09-14,2021-09-03,株式会社緑川興業,,株式会社,埼玉県,八潮市,大字木曽根７４３番地１,,11,234,3400813,,,2021-09-03,清算の結了等,,,2015-10-05,1,,,,,ミドリカワコウギョウ,0
1302,5040001008315,登記記録の閉鎖等,0,2021-09-14,2021-09-07,株式会社柳光,,株式会社,千葉県,千葉市中央区,新千葉２丁目３番１３号,,12,101,2600031,,,2021-09-07,清算の結了等,,,2015-10-05,1,,,,,リュウコウ,0
1313,5050001032702,登記記録の閉鎖等,0,2021-09-14,2021-09-03,株式会社有楽町商事,,株式会社,東京都,千代田区,有楽町１丁目７番１号,,13,101,1000006,,,2021-09-03,清算の結了等,,,2015-10-05,1,,,,,ユウラクチョウショウジ,0
1324,5070002021504,登記記録の閉鎖等,0,2021-09-14,2021-09-10,有限会社ティエスケーサービス,,有限会社,群馬県,伊勢崎市,東町２５６６番地５,,10,204,3792231,,,2021-09-10,清算の結了等,,,2015-10-05,1,,,,,,0
1329,5080102020017,登記記録の閉鎖等,0,2021-09-14,2021-09-06,有限会社鈴木メンテナンス,,有限会社,静岡県,伊東市,宇佐美８７１番地の３３,,22,208,4140001,,,2021-09-06,清算の結了等,,,2015-10-05,1,,,,,スズキメンテナンス,0
1355,5120102027057,登記記録の閉鎖等,0,2021-09-14,2021-09-10,有限会社ヴォスコ,,有限会社,大阪府,泉北郡忠岡町,忠岡東２丁目１８番３１号,,27,341,5950805,,,2021-09-10,清算の結了等,,,2015-10-05,1,,,,,ヴォスコ,0
1394,5180001114248,登記記録の閉鎖等,0,2021-09-14,2021-09-08,クラシノネ株式会社,,株式会社,愛知県,名古屋市名東区,代万町３丁目１０番地の１,,23,115,4650086,,,2021-09-08,清算の結了等,,,2015-10-05,1,,,,,クラシノネ,0
1419,5220005001355,登記記録の閉鎖等,0,2021-09-14,2021-09-10,中宮温泉旅館協同組合,,その他の設立登記法人,石川県,白山市,中宮ソ１５番地,,17,210,9202324,,,2021-09-10,清算の結了等,,,2015-10-05,1,,,,,チュウグウオンセンリョカン,0
1420,5230001005144,登記記録の閉鎖等,0,2021-09-14,2021-09-08,株式会社キョーエイ,,株式会社,富山県,富山市,高内４０１番地,,16,201,9392254,,,2021-09-08,合併による解散等,7230001000473,令和３年９月１日富山市赤田４８７番地１株式会社大阪屋ショップ（7230001000473）に合併し解散,2015-10-05,1,,,,,キョーエイ,0
1475,5410002009357,登記記録の閉鎖等,0,2021-09-14,2021-09-09,有限会社岩本商店,,有限会社,秋田県,北秋田市,住吉町２番２号,,05,213,0183322,,,2021-09-09,清算の結了等,,,2015-10-05,1,,,,,イワモトショウテン,0
1478,5430001025634,登記記録の閉鎖等,0,2021-09-14,2021-09-03,札幌アスペンホテル株式会社,,株式会社,東京都,港区,六本木６丁目２番３１号,,13,103,1060032,,,2021-09-03,清算の結了等,,,2015-10-05,1,,,,,サッポロアスペンホテル,0
1483,5450001010709,登記記録の閉鎖等,0,2021-09-14,2021-09-13,株式会社コンピューターアシストサービス,,株式会社,北海道,旭川市,東光七条３丁目１番１８号,,01,204,0788347,,,2021-09-13,清算の結了等,,,2015-10-05,1,,,,,,0
1484,5480001005862,登記記録の閉鎖等,0,2021-09-14,2021-09-07,リングス株式会社,,株式会社,徳島県,板野郡板野町,川端字門井３５番地１,,36,404,7790102,,,2021-09-07,清算の結了等,,,2015-10-05,1,,,,,リングス,0
1486,5480005000133,登記記録の閉鎖等,0,2021-09-14,2021-09-06,医療法人浦上内科・胃腸クリニツク,,その他の設立登記法人,徳島県,徳島市,北沖洲２丁目２番２号,,36,201,7700872,,,2021-09-06,清算の結了等,,,2015-10-05,1,,,,,ウラカミナイカイチョウクリニツク,0
1491,6010001008614,登記記録の閉鎖等,0,2021-09-14,2021-09-08,株式会社東京ニット,,株式会社,東京都,文京区,小石川２丁目２５番１８号,,13,105,1120002,,,2021-09-08,清算の結了等,,,2015-10-05,1,,,,,トウキョウニット,0
1513,6010601004211,登記記録の閉鎖等,0,2021-09-14,2021-08-31,株式会社高の内商店,,株式会社,東京都,江東区,新大橋１丁目４番１１号,,13,108,1350007,,,2021-08-31,清算の結了等,,,2015-10-05,1,,,,,タカノウチショウテン,0
1519,6010901019462,登記記録の閉鎖等,0,2021-09-14,2021-09-03,株式会社高山俊郎事務所,00052705,株式会社,東京都,世田谷区,船橋５丁目３０番１５号,,13,112,1560055,,,2021-09-03,清算の結了等,,,2015-10-05,1,,,,,タカヤマトシロウジムショ,0
1525,6011001063780,登記記録の閉鎖等,0,2021-09-14,2021-08-31,株式会社サニーウェブ,,株式会社,東京都,渋谷区,恵比寿２丁目２８番１０－２１１６号,,13,113,1500013,,,2021-08-31,清算の結了等,,,2015-10-05,1,,,,,サニーウェブ,0
1542,6011501015158,登記記録の閉鎖等,0,2021-09-14,2021-09-10,株式会社メディカルケアサンタ,,株式会社,東京都,北区,神谷３丁目４８番４号,,13,117,1150043,,,2021-09-10,清算の結了等,,,2015-10-05,1,,,,,メディカルケアサンタ,0
1581,6021005007551,登記記録の閉鎖等,0,2021-09-14,2021-09-08,医療法人社団山下内科医院,,その他の設立登記法人,神奈川県,横須賀市,長沢１丁目３４番１０号,,14,201,2390842,,,2021-09-08,清算の結了等,,,2015-10-05,1,,,,,ヤマシタナイカイイン,0
1588,6030001091897,登記記録の閉鎖等,0,2021-09-14,2021-09-01,株式会社エンプラスディスプレイデバイス,,株式会社,埼玉県,川口市,並木２丁目３０番１号,,11,203,3320034,,,2021-09-01,合併による解散等,5030001074060,令和３年９月１日埼玉県川口市並木二丁目３０番１号株式会社エンプラス（5030001074060）に合併し解散,2015-10-05,1,,,,,エンプラスディスプレイデバイス,0
1591,6030002067194,登記記録の閉鎖等,0,2021-09-14,2021-09-03,有限会社インテリア大城,,有限会社,埼玉県,富士見市,山室２丁目１２番１４号,,11,235,3540022,,,2021-09-03,清算の結了等,,,2015-10-05,1,,,,,インテリアオオシロ,0
1604,6050001005302,登記記録の閉鎖等,0,2021-09-14,2021-09-08,株式会社大恵,,株式会社,茨城県,水戸市,赤塚１丁目４１２番地５,,08,201,3114141,,,2021-09-08,清算の結了等,,,2015-10-05,1,,,,,ダイケイ,0
1613,6060002022485,登記記録の閉鎖等,0,2021-09-14,2021-09-07,有限会社東豊シーリング,,有限会社,栃木県,那須塩原市,豊浦１０番地９,,09,213,3250023,,,2021-09-07,清算の結了等,,,2015-10-05,1,,,,,トウホウシーリング,0
1614,6060002024358,登記記録の閉鎖等,0,2021-09-14,2021-09-06,有限会社八木沢建設,,有限会社,栃木県,那須塩原市,上赤田３２１番地,,09,213,3292748,,,2021-09-06,清算の結了等,,,2015-10-05,1,,,,,ヤギサワケンセツ,0
1615,6060002030967,登記記録の閉鎖等,0,2021-09-14,2021-09-06,有限会社ラヴアンドピース,,有限会社,栃木県,下野市,国分寺１３２３番地１９,,09,216,3290417,,,2021-09-06,清算の結了等,,,2015-10-05,1,,,,,,0
1618,6070001022774,登記記録の閉鎖等,0,2021-09-14,2021-09-09,株式会社サンブレイク,,株式会社,群馬県,館林市,緑町２丁目６番地２,,10,207,3740025,,,2021-09-09,合併による解散等,1010001127402,令和３年９月１日東京都中央区日本橋小伝馬町４番２号ＶＯＲＴ日本橋本町２階株式会社ザクティブ（1010001127402）に合併し解散,2015-10-05,1,,,,,,0
1620,6070001036790,登記記録の閉鎖等,0,2021-09-14,2021-09-09,株式会社Ｆｅ,,株式会社,群馬県,前橋市,公田町５８４番地３,,10,201,3792146,,,2021-09-09,清算の結了等,,,2020-04-21,1,,,,,エフイー,0
1623,6070003001099,登記記録の閉鎖等,0,2021-09-14,2021-09-08,星誠織物合資会社,,合資会社,群馬県,桐生市,川内町５丁目４２３番地,,10,203,3760041,,,2021-09-08,清算の結了等,,,2015-10-05,1,,,,,ホシセイオリモノ,0
1629,6080105003884,登記記録の閉鎖等,0,2021-09-14,2021-09-06,協同組合伊豆カラー,,その他の設立登記法人,静岡県,熱海市,下多賀１６４番地タマオキ写真店,,22,205,4130102,,,2021-09-06,清算の結了等,,,2015-10-05,1,,,,,イズカラー,0
1638,6100002001253,登記記録の閉鎖等,0,2021-09-14,2021-09-10,有限会社川辺書林,,有限会社,長野県,須坂市,大字米持１５３番地の５,,20,207,3820000,,,2021-09-10,清算の結了等,,,2015-10-05,1,,,,,カワベショリン,0
1664,6120901018313,登記記録の閉鎖等,0,2021-09-14,2021-09-10,株式会社ダイジ,,株式会社,大阪府,茨木市,東太田３丁目７番７号,,27,211,5670012,,,2021-09-10,清算の結了等,,,2015-10-05,1,,,,,ダイジ,0
1687,6150001016322,登記記録の閉鎖等,0,2021-09-14,2021-09-08,株式会社チカクラ測量,,株式会社,奈良県,五條市,近内町６２３番地,,29,207,6370016,,,2021-09-08,清算の結了等,,,2015-10-05,1,,,,,チカクラソクリョウ,0
1707,6180303002711,登記記録の閉鎖等,0,2021-09-14,2021-09-13,ＴＲＵＳＴ‐ＥＧ合同会社,,合同会社,愛知県,刈谷市,半城土町本郷６２番地,,23,210,4480804,,,2021-09-13,清算の結了等,,,2015-10-05,1,,,,,トラストイージー,0
1719,6200002024351,登記記録の閉鎖等,0,2021-09-14,2021-09-10,有限会社安部材木店,,有限会社,岐阜県,恵那市,山岡町馬場山田１４２７番地の６,,21,210,5097602,,,2021-09-10,清算の結了等,,,2015-10-05,1,,,,,アベザイモクテン,0
1742,6290001021894,登記記録の閉鎖等,0,2021-09-14,2021-08-30,株式会社久進,,株式会社,福岡県,福岡市博多区,那珂３丁目２１番４５号,,40,132,8120893,,,2021-08-30,清算の結了等,,,2015-10-05,1,,,,,キュウシン,0
1754,6300001011167,登記記録の閉鎖等,0,2021-09-14,2021-09-07,株式会社エーエスエス佐賀,,株式会社,佐賀県,佐賀市,愛敬町１３番１３号,,41,201,8400812,,,2021-09-07,合併による解散等,9290001032451,令和３年９月１日福岡市博多区板付四丁目１２番３４号アルファ綜合サービス株式会社（9290001032451）に合併し解散,2018-02-19,1,,,,,エーエスエスサガ,0
1770,6350001006856,登記記録の閉鎖等,0,2021-09-14,2021-09-09,株式会社大成アワダ,,株式会社,宮崎県,延岡市,出北５丁目１５番３１号,,45,203,8820856,,,2021-09-09,清算の結了等,,,2015-10-05,1,,,,,タイセイアワダ,0
1781,6410001000927,登記記録の閉鎖等,0,2021-09-14,2021-09-13,川村鐵工株式会社,,株式会社,秋田県,秋田市,川尻上野町１番１２号,,05,201,0100947,,,2021-09-13,清算の結了等,,,2015-10-05,1,,,,,カワムラテッコウ,0
1782,6410002007310,登記記録の閉鎖等,0,2021-09-14,2021-09-10,有限会社象潟水道瓦斯工業所,,有限会社,秋田県,にかほ市,象潟町字三丁目塩越５３番地,,05,214,0180119,,,2021-09-10,清算の結了等,,,2015-10-05,1,,,,,キサカタスイドウガスコウギョウショ,0
1788,6430002025450,登記記録の閉鎖等,0,2021-09-14,2021-09-06,有限会社マルシンフーズ,,有限会社,北海道,札幌市白石区,川下２１６８番地の１,,01,104,0030869,,,2021-09-06,清算の結了等,,,2015-10-05,1,,,,,マルシンフーズ,0
1796,6460305001352,登記記録の閉鎖等,0,2021-09-14,2021-09-10,宗教法人網走宇佐八幡宮,,その他の設立登記法人,北海道,網走市,錦町１３７番地の５,,01,211,0930043,,,2021-09-10,清算の結了等,,,2015-10-05,1,,,,,,0
1801,6700150061212,登記記録の閉鎖等,0,2021-09-14,2021-05-31,平谷物産直売所,,その他,佐賀県,鹿島市,大字山浦丙３８７１－１０８,,41,207,8491314,,,2021-05-31,その他の清算の結了等,,,2015-10-09,1,,,,,ヒラタニブツサンチヨクバイシヨ,0
1807,7010001148756,登記記録の閉鎖等,0,2021-09-14,2021-09-09,株式会社リンクアップドリーム,,株式会社,東京都,中央区,新川２丁目９番５号第２中村ビル７階,,13,102,1040033,,,2021-09-09,清算の結了等,,,2015-10-05,1,,,,,リンクアップドリーム,0
1811,7010001192317,登記記録の閉鎖等,0,2021-09-14,2021-08-23,株式会社Ｆａｂｒｉｃ　Ｍａｒｋｅｔｉｎｇ,,株式会社,東京都,渋谷区,恵比寿２丁目６番２６号恵比寿クロスサード２階,,13,113,1500013,,,2021-08-23,清算の結了等,,,2018-06-06,1,,,,,ファブリックマーケティング,0
1812,7010002003976,登記記録の閉鎖等,0,2021-09-14,2021-09-06,有限会社ティー・エッチ・ケー本郷,,有限会社,東京都,文京区,根津２丁目３７番３号,,13,105,1130031,,,2021-09-06,清算の結了等,,,2015-10-05,1,,,,,ティーエッチケーホンゴウ,0
1813,7010002036737,登記記録の閉鎖等,0,2021-09-14,2021-09-06,有限会社スマイル,,有限会社,東京都,中央区,月島３丁目１３番４号,,13,102,1040052,,,2021-09-06,清算の結了等,,,2015-10-05,1,,,,,スマイル,0
1814,7010003017810,登記記録の閉鎖等,0,2021-09-14,2021-09-09,合同会社ＪＰＴニュートン,,合同会社,東京都,千代田区,丸の内３丁目１番１号東京共同会計事務所内,,13,101,1000005,,,2021-09-09,清算の結了等,,,2015-10-05,1,,,,,ジェーピーティーニュートン,0
1817,7010003032603,登記記録の閉鎖等,0,2021-09-14,2021-09-07,日本再生可能エネルギー発電２０１７－６号合同会社,,合同会社,東京都,千代田区,丸の内３丁目１番１号東京共同会計事務所内,,13,101,1000005,,,2021-09-07,清算の結了等,,,2020-07-15,1,,,,,ニッポンサイセイカノウエネルギーハツデンニゼロイチナナノロクゴウ,0
1822,7010401084064,登記記録の閉鎖等,0,2021-09-14,2021-09-06,ＲＩＣパートナーズ株式会社,,株式会社,東京都,港区,西新橋３丁目２番１号,,13,103,1050003,,,2021-09-06,清算の結了等,,,2015-10-05,1,,,,,リックパートナーズ,0
1823,7010401085112,登記記録の閉鎖等,0,2021-09-14,2021-09-03,株式会社ウェッジファーストカンパニー,,株式会社,東京都,港区,南青山６丁目３番１０－２０２号,,13,103,1070062,,,2021-09-03,清算の結了等,,,2015-10-05,1,,,,,ウェッジファーストカンパニー,0
1824,7010401107923,登記記録の閉鎖等,0,2021-09-14,2021-09-09,株式会社ライフマスタージャパン,,株式会社,東京都,港区,芝４丁目７番６号芝ビルディング７０４号室,,13,103,1080014,,,2021-09-09,合併による解散等,8010701023794,令和３年８月１日東京都目黒区上目黒三丁目６番１６号株式会社ナインメディア（8010701023794）に合併し解散,2015-10-05,1,,,,,ライフマスタージャパン,0
1845,7010902015055,登記記録の閉鎖等,0,2021-09-14,2021-09-08,有限会社村電サービス,,有限会社,東京都,世田谷区,喜多見７丁目１４番６号,,13,112,1570067,,,2021-09-08,清算の結了等,,,2015-10-05,1,,,,,ムラデンサービス,0
1849,7011001091046,登記記録の閉鎖等,0,2021-09-14,2021-09-10,株式会社ＭＳ岡山・笠岡,,株式会社,岡山県,笠岡市,カブト西町２７番地,,33,205,7140053,,,2021-09-10,合併による解散等,9011001090260,令和３年９月１日東京都新宿区西新宿三丁目２０番２号株式会社ジェイエムエス・ワン（9011001090260）に合併し解散,2015-10-05,1,,,,,エムエスオカヤマカサオカ,0
1862,7011101063845,登記記録の閉鎖等,0,2021-09-14,2021-08-31,株式会社ココシマ,,株式会社,東京都,目黒区,目黒１丁目４番１６号目黒Ｇビル７階,,13,110,1530063,,,2021-08-31,清算の結了等,,,2015-10-05,1,,,,,ココシマ,0
1888,7020001084967,登記記録の閉鎖等,0,2021-09-14,2021-08-26,株式会社山勝,,株式会社,神奈川県,川崎市多摩区,長沢２丁目８番２３号,,14,135,2140035,,,2021-08-26,清算の結了等,,,2015-10-05,1,,,,,ヤマショウ,0
1909,7030002028162,登記記録の閉鎖等,0,2021-09-14,2021-09-03,有限会社伊井建築構造設計事務所,,有限会社,埼玉県,所沢市,青葉台１２８９番地の１０,,11,208,3591105,,,2021-09-03,清算の結了等,,,2015-10-05,1,,,,,イイケンチクコウゾウセッケイジムショ,0
1911,7030002047063,登記記録の閉鎖等,0,2021-09-14,2021-09-03,有限会社サンペイント,,有限会社,埼玉県,八潮市,八潮７丁目１８番地１７,,11,234,3400815,,,2021-09-03,清算の結了等,,,2015-10-05,1,,,,,サンペイント,0
1929,7050002009342,登記記録の閉鎖等,0,2021-09-14,2021-09-10,有限会社ミヤマエ,,有限会社,茨城県,東茨城郡大洗町,大貫町２０４番地,,08,309,3111311,,,2021-09-10,清算の結了等,,,2015-10-05,1,,,,,ミヤマエ,0
1932,7050002043449,登記記録の閉鎖等,0,2021-09-14,2021-09-09,有限会社ＭＩＫＩ保険事務所,,有限会社,茨城県,筑西市,西方１６３２番地１,,08,227,3080845,,,2021-09-09,清算の結了等,,,2015-10-05,1,,,,,ミキホケンジムショ,0
1941,7080102008217,登記記録の閉鎖等,0,2021-09-14,2021-09-07,有限会社ケンコー,,有限会社,静岡県,伊豆市,冷川１００２番地,,22,222,4102507,,,2021-09-07,清算の結了等,,,2015-10-05,1,,,,,ケンコー,0
1959,7120103003674,登記記録の閉鎖等,0,2021-09-14,2021-09-10,ウィズダム合同会社,,合同会社,大阪府,松原市,西野々１丁目１３－２,,27,217,5800004,,,2021-09-10,清算の結了等,,,2020-04-22,1,,,,,ウィズダム,0
1963,7120902021075,登記記録の閉鎖等,0,2021-09-14,2021-09-09,有限会社喜和商店,,有限会社,大阪府,豊中市,中桜塚２丁目２１番６号,,27,203,5610881,,,2021-09-09,清算の結了等,,,2015-10-05,1,,,,,キワショウテン,0
1968,7122002011072,登記記録の閉鎖等,0,2021-09-14,2021-09-10,有限会社駕泉,,有限会社,大阪府,大東市,氷野３丁目３番１３号,,27,218,5740062,,,2021-09-10,清算の結了等,,,2015-10-05,1,,,,,,0
1974,7130005012681,登記記録の閉鎖等,0,2021-09-14,2021-09-09,特定非営利活動法人京都・泰心会,,その他の設立登記法人,京都府,京都市東山区,宮川筋３丁目２７５,,26,105,6050801,,,2021-09-09,清算の結了等,,,2015-10-05,1,,,,,キョウトタイシンカイ,0
1977,7140001065170,登記記録の閉鎖等,0,2021-09-14,2021-09-10,株式会社双樹コーポレーション,,株式会社,兵庫県,姫路市,北条口４丁目５番地,,28,201,6700935,,,2021-09-10,合併による解散等,9010003024870,令和３年９月１日東京都港区赤坂四丁目１４番１４－４２０８号ＳＯＵＪＵ合同会社（9010003024870）に合併し解散,2015-10-05,1,,,,,,0
1996,7180001020741,登記記録の閉鎖等,0,2021-09-14,2021-09-10,福田加工紙株式会社,,株式会社,愛知県,名古屋市中川区,花池町３丁目５２番地,,23,110,4540902,,,2021-09-10,清算の結了等,,,2015-10-05,1,,,,,フクダカコウシ,0
2000,7180001095569,登記記録の閉鎖等,0,2021-09-14,2021-09-08,株式会社荒古組,,株式会社,愛知県,東海市,大田町郷中８８番地,,23,222,4770031,,,2021-09-08,清算の結了等,,,2015-10-05,1,,,,,アラコグミ,0
2013,7180002080495,登記記録の閉鎖等,0,2021-09-14,2021-09-10,伊吹有限会社,,有限会社,愛知県,稲沢市,平和町下起中１７４番地１,,23,220,4901323,,,2021-09-10,清算の結了等,,,2015-10-05,1,,,,,イブキ,0
2018,7190002011788,登記記録の閉鎖等,0,2021-09-14,2021-09-10,有限会社山本プラスチック工業,,有限会社,三重県,志摩市,阿児町神明字長沢１５１６番地１,,24,215,5170502,,,2021-09-10,清算の結了等,,,2015-10-05,1,,,,,,0
2050,7300002001430,登記記録の閉鎖等,0,2021-09-14,2021-09-08,有限会社マルエヌ装備,,有限会社,佐賀県,佐賀市,北川副町大字光法１５９２番地８,,41,201,8400012,,,2021-09-08,清算の結了等,,,2015-10-05,1,,,,,マルエヌソウビ,0
2061,7370001006597,登記記録の閉鎖等,0,2021-09-14,2021-09-06,株式会社ティアンドティ,,株式会社,宮城県,仙台市宮城野区,車町１０１－１デュオヒルズ仙台ザ・マークス１１０２号室,,04,102,9830863,,,2021-09-06,清算の結了等,,,2015-10-05,1,,,,,ティアンドティ,0
2072,7410001007104,登記記録の閉鎖等,0,2021-09-14,2021-09-09,株式会社シティコーポレーション,,株式会社,秋田県,能代市,柳町１３番６２号,,05,202,0160825,,,2021-09-09,清算の結了等,,,2015-10-05,1,,,,,シティコーポレーション,0
2088,7490003000660,登記記録の閉鎖等,0,2021-09-14,2021-09-08,合資会社中根製材所,,合資会社,高知県,香南市,野市町西野５３３番地,,39,211,7815232,,,2021-09-08,清算の結了等,,,2015-10-05,1,,,,,ナカネセイザイショ,0
2096,7700150039182,登記記録の閉鎖等,0,2021-09-14,2021-05-31,野沢農産物加工組合,,その他,青森県,青森市,浪岡大字吉野田字平野１８０,,02,201,0381344,,,2021-05-31,その他の清算の結了等,,,2015-10-09,1,,,,,ノザワノウサンブツカコウクミアイ,0
2097,7700150103161,登記記録の閉鎖等,0,2021-09-14,2021-06-07,亡天野昇　相続財産,,その他,神奈川県,川崎市川崎区,東田町６－２ミヤダイビル８階,,14,131,2100005,,,2021-06-07,その他の清算の結了等,,,2021-05-12,1,,,,,ボウアマノノボルソウゾクザイサン,0
2101,8010001131067,登記記録の閉鎖等,0,2021-09-14,2021-09-09,株式会社Ｔ・Ｈ・Ｅマーケティング,,株式会社,東京都,千代田区,麹町１丁目１２番地１,,13,101,1020083,,,2021-09-09,清算の結了等,,,2015-10-05,1,,,,,ザマーケティング,0
2104,8010001160347,登記記録の閉鎖等,0,2021-09-14,2021-09-09,株式会社ＺＥＲＯ２マネジメント,,株式会社,東京都,中央区,銀座７丁目５番４号毛利ビル７階,,13,102,1040061,,,2021-09-09,合併による解散等,7010401130446,令和３年９月１日東京都港区愛宕二丁目５番１号愛宕グリーンヒルズＭＯＲＩタワー２７階株式会社ビズコーディネーター（7010401130446）に合併し解散,2015-10-05,1,,,,,,0
2106,8010001182952,登記記録の閉鎖等,0,2021-09-14,2021-09-09,日本サインホールディングス株式会社,,株式会社,東京都,千代田区,麹町３丁目２番４号麹町ＨＦビル２階,,13,101,1020083,,,2021-09-09,合併による解散等,8011201016982,令和３年８月３１日大阪市西区立売堀二丁目１番９号日本サイン株式会社（8011201016982）に合併し解散,2017-04-17,1,,,,,ニホンサインホールディングス,0
2125,8010403016782,登記記録の閉鎖等,0,2021-09-14,2021-09-06,ＴＲＣ　ＪＡＰＡＮ合同会社,,合同会社,東京都,港区,西麻布１丁目２番１７－４０１号,,13,103,1060031,,,2021-09-06,清算の結了等,,,2017-06-20,1,,,,,ティーアールシージャパン,0
2138,8010902002977,登記記録の閉鎖等,0,2021-09-14,2021-09-06,有限会社エムティー二十一,,有限会社,東京都,世田谷区,喜多見８丁目１５番２４号,,13,112,1570067,,,2021-09-06,清算の結了等,,,2015-10-05,1,,,,,エムティーニジュウイチ,0
2141,8011001093306,登記記録の閉鎖等,0,2021-09-14,2021-09-03,株式会社ＧＵＩＬＤ,,株式会社,東京都,港区,虎ノ門３丁目８番２５号日総第２３ビル３０１号室,,13,103,1050001,,,2021-09-03,清算の結了等,,,2015-10-05,1,,,,,ギルド,0
2142,8011001096168,登記記録の閉鎖等,0,2021-09-14,2021-09-10,株式会社ＳＪ山口・秋穂,,株式会社,山口県,山口市,秋穂二島４６０４番地,,35,203,7540893,,,2021-09-10,合併による解散等,2011001094086,令和３年９月１日東京都新宿区西新宿三丁目２０番２号株式会社ジェイエムエス・スリー（2011001094086）に合併し解散,2015-10-05,1,,,,,,0
2150,8011101061055,登記記録の閉鎖等,0,2021-09-14,2021-09-08,株式会社Ｂｉｚ・Ｉ,,株式会社,東京都,新宿区,戸山１丁目１－５エールプラザ戸山台１０２号,,13,104,1620052,,,2021-09-08,清算の結了等,,,2015-10-05,1,,,,,ビズアイ,0
2152,8011101073109,登記記録の閉鎖等,0,2021-09-14,2021-09-03,Ｄｒ．ＴＡＫＡ株式会社,,株式会社,東京都,新宿区,喜久井町４番地１,,13,104,1620044,,,2021-09-03,清算の結了等,,,2015-10-05,1,,,,,,0
2154,8011102028020,登記記録の閉鎖等,0,2021-09-14,2021-09-03,株式会社ニッコウ,,株式会社,東京都,新宿区,歌舞伎町２丁目１８番６号ニッコウビル地下１階,,13,104,1600021,,,2021-09-03,清算の結了等,,,2015-10-05,1,,,,,,0
2183,8020002025754,登記記録の閉鎖等,0,2021-09-14,2021-09-07,有限会社大本商会,,有限会社,神奈川県,横浜市神奈川区,西大口１６６番地２６,,14,102,2210004,,,2021-09-07,清算の結了等,,,2015-10-05,1,,,,,,0
2188,8021002042500,登記記録の閉鎖等,0,2021-09-14,2021-09-09,有限会社マルヤマ肉店,,有限会社,神奈川県,大和市,桜森２丁目１９番３号,,14,213,2420028,,,2021-09-09,清算の結了等,,,2015-10-05,1,,,,,マルヤマニクテン,0
2190,8021003009127,登記記録の閉鎖等,0,2021-09-14,2021-09-09,合同会社ジビエマーケット,,合同会社,神奈川県,海老名市,扇町５番７号,,14,215,2430436,,,2021-09-09,清算の結了等,,,2020-02-14,1,,,,,ジビエマーケット,0
2195,8030002120678,登記記録の閉鎖等,0,2021-09-14,2021-09-03,有限会社ささき,,有限会社,埼玉県,日高市,大字高萩７６７番地４３,,11,242,3501213,,,2021-09-03,清算の結了等,,,2015-10-05,1,,,,,ササキ,0
2197,8030005005554,登記記録の閉鎖等,0,2021-09-14,2021-09-02,特定非営利活動法人草加市身体障害者福祉協会,,その他の設立登記法人,埼玉県,草加市,西町１０９０番地４号,,11,221,3400035,,,2021-09-02,清算の結了等,,,2015-10-05,1,,,,,ソウカシシンタイショウガイシャフクシキョウカイ,0
2205,8040002007767,登記記録の閉鎖等,0,2021-09-14,2021-09-07,有限会社土屋建築,,有限会社,千葉県,千葉市稲毛区,長沼原町３２３番地３,,12,103,2630001,,,2021-09-07,清算の結了等,,,2015-10-05,1,,,,,ツチヤケンチク,0
2213,8050002025405,登記記録の閉鎖等,0,2021-09-14,2021-09-09,有限会社小山新聞店,,有限会社,茨城県,古河市,諸川１７９０番地３２,,08,204,3060126,,,2021-09-09,清算の結了等,,,2015-10-05,1,,,,,コヤマシンブンテン,0
2218,8070001014209,登記記録の閉鎖等,0,2021-09-14,2021-09-08,株式会社三貴金型,,株式会社,群馬県,佐波郡玉村町,大字飯倉１１番地３,,10,464,3701116,,,2021-09-08,清算の結了等,,,2015-10-05,1,,,,,サンキカナガタ,0
2256,8122001005413,登記記録の閉鎖等,0,2021-09-14,2021-09-03,ナカノ商事株式会社,,株式会社,奈良県,生駒市,新生駒台６番３号,,29,209,6300242,,,2021-09-03,清算の結了等,,,2015-10-05,1,,,,,ナカノショウジ,0
2287,8180001040185,登記記録の閉鎖等,0,2021-09-14,2021-09-07,株式会社福島,,株式会社,愛知県,名古屋市中区,富士見町６番５号,,23,106,4600014,,,2021-09-07,清算の結了等,,,2015-10-05,1,,,,,フクシマ,0
2288,8180001065158,登記記録の閉鎖等,0,2021-09-14,2021-09-06,株式会社アルファー,,株式会社,愛知県,名古屋市天白区,一つ山３丁目１４番地の６,,23,116,4680033,,,2021-09-06,清算の結了等,,,2015-10-05,1,,,,,アルファー,0
2300,8180002064976,登記記録の閉鎖等,0,2021-09-14,2021-09-08,有限会社アサヒクリーニング,,有限会社,愛知県,春日井市,上条町１０丁目２９０１番地,,23,206,4860833,,,2021-09-08,清算の結了等,,,2015-10-05,1,,,,,アサヒクリーニング,0
2308,8180303005068,登記記録の閉鎖等,0,2021-09-14,2021-09-10,合資会社丸文,,合資会社,愛知県,西尾市,西幡豆町西前田２２番地,,23,213,4440703,,,2021-09-10,清算の結了等,,,2021-08-12,1,,,,,マルブン,0
2318,8200001023823,登記記録の閉鎖等,0,2021-09-14,2021-09-10,安田機工株式会社,,株式会社,岐阜県,恵那市,大井町２６９３番地１３６,,21,210,5097201,,,2021-09-10,清算の結了等,,,2015-10-05,1,,,,,ヤスダキコウ,0
2326,8230001003120,登記記録の閉鎖等,0,2021-09-14,2021-09-08,株式会社まるまん,,株式会社,富山県,富山市,奥田寿町１７番１３号,,16,201,9300852,,,2021-09-08,合併による解散等,7230001000473,令和３年９月１日富山市赤田４８７番地１株式会社大阪屋ショップ（7230001000473）に合併し解散,2015-10-05,1,,,,,マルマン,0
2330,8260001011698,登記記録の閉鎖等,0,2021-09-14,2021-09-10,株式会社武村耕輔設計事務所,,株式会社,岡山県,岡山市南区,新保１１８７番地１西側２階,,33,104,7000945,,,2021-09-10,清算の結了等,,,2015-10-05,1,,,,,タケムラコウスケセッケイジムショ,0
2349,8310001004151,登記記録の閉鎖等,0,2021-09-14,2021-09-10,株式会社パパズミュージック,,株式会社,長崎県,長崎市,昭和２丁目２番１５号,,42,201,8528145,,,2021-09-10,清算の結了等,,,2015-10-05,1,,,,,パパズミュージック,0
2362,8370502000742,登記記録の閉鎖等,0,2021-09-14,2021-09-06,有限会社林健商店,,有限会社,宮城県,気仙沼市,潮見町２丁目１５２番地,,04,205,9880031,,,2021-09-06,清算の結了等,,,2015-10-05,1,,,,,ハヤシタケシショウテン,0
2386,8700150007502,登記記録の閉鎖等,0,2021-09-14,2017-10-01,全国労働衛生機関厚生年金基金,,その他,東京都,品川区,東大井５丁目１２－１０大井朝陽ビル４階,,13,109,1400011,,,2017-10-01,その他の清算の結了等,,,2015-10-09,1,,,,,ゼンコクロウドウエイセイキカンコウセイネンキンキキン,0
2387,8700150014358,登記記録の閉鎖等,0,2021-09-14,2021-03-31,宮ヶ瀬地区公共施設等管理組合,,その他,神奈川県,愛甲郡清川村,宮ヶ瀬９４０－５,,14,402,2430111,,,2021-03-31,その他の清算の結了等,,,2015-10-09,1,,,,,ミヤガセチクコウキヨウシセツトウカンリクミアイ,0
2388,8700150020026,登記記録の閉鎖等,0,2021-09-14,2021-05-31,前橋市母子寡婦会,,その他,群馬県,前橋市,日吉町２丁目１７－１０前橋市総合福祉会館３階,,10,201,3710017,,,2021-05-31,その他の清算の結了等,,,2015-10-09,1,,,,,マエバシシボシカフカイ,0
2398,9010001160775,登記記録の閉鎖等,0,2021-09-14,2021-09-03,株式会社ｂｅｙｏｎｄｖｏｉｃｅ,,株式会社,東京都,千代田区,飯田橋３丁目３番９号,,13,101,1020072,,,2021-09-03,清算の結了等,,,2015-10-05,1,,,,,ビヨンドボイス,0
2437,9011001096167,登記記録の閉鎖等,0,2021-09-14,2021-09-10,株式会社ＳＪ島根・出雲,,株式会社,島根県,出雲市,湖陵町大池２４０番地,,32,203,6990816,,,2021-09-10,合併による解散等,2011001094086,令和３年９月１日東京都新宿区西新宿三丁目２０番２号株式会社ジェイエムエス・スリー（2011001094086）に合併し解散,2015-10-05,1,,,,,エスジェイシマネイズモ,0
2463,9011802030233,登記記録の閉鎖等,0,2021-09-14,2021-09-10,有限会社厚生企業社,,有限会社,東京都,葛飾区,小菅４丁目１番９号,,13,122,1240001,,,2021-09-10,清算の結了等,,,2015-10-05,1,,,,,コウセイキギョウシャ,0
2464,9011803001027,登記記録の閉鎖等,0,2021-09-14,2021-09-10,合同会社システムウェルウェア,,合同会社,東京都,葛飾区,金町２丁目２２番３号,,13,122,1250042,,,2021-09-10,清算の結了等,,,2015-10-05,1,,,,,システムウエルウエア,0
2487,9021001073495,登記記録の閉鎖等,0,2021-09-14,2021-09-10,株式会社川崎モデル製作所,,株式会社,神奈川県,座間市,小松原２丁目５２９３番地３,,14,216,2520002,,,2021-09-10,清算の結了等,,,2021-07-27,1,,,,,,0
2491,9021002037648,登記記録の閉鎖等,0,2021-09-14,2021-09-08,有限会社大戸建材,,有限会社,神奈川県,秦野市,堀川１０３番地の２３,,14,211,2591305,,,2021-09-08,清算の結了等,,,2015-10-05,1,,,,,オオトケンザイ,0
2502,9040002028705,登記記録の閉鎖等,0,2021-09-14,2021-09-07,有限会社オオハタ,,有限会社,千葉県,八千代市,勝田台５丁目４番地１１,,12,221,2760023,,,2021-09-07,清算の結了等,,,2015-10-05,1,,,,,オオハタ,0
2504,9040002084509,登記記録の閉鎖等,0,2021-09-14,2021-09-06,有限会社高野電気商会,,有限会社,千葉県,旭市,鎌数３３１５番地の２,,12,215,2892505,,,2021-09-06,清算の結了等,,,2015-10-05,1,,,,,タカノデンキショウカイ,0
2509,9050002008953,登記記録の閉鎖等,0,2021-09-14,2021-09-07,松本建設有限会社,,有限会社,茨城県,ひたちなか市,田宮原１３２８９番地,,08,221,3111248,,,2021-09-07,清算の結了等,,,2015-10-05,1,,,,,マツモトケンセツ,0
2515,9070002027134,登記記録の閉鎖等,0,2021-09-14,2021-09-10,有限会社エスアンドエス,,有限会社,群馬県,北群馬郡榛東村,大字広馬場２８１４番地,,10,344,3703504,,,2021-09-10,清算の結了等,,,2015-10-05,1,,,,,エスアンドエス,0
2516,9070005005715,登記記録の閉鎖等,0,2021-09-14,2021-09-01,特定非営利活動法人国際福祉経営支援ネットワーク,,その他の設立登記法人,群馬県,渋川市,行幸田３２７番地５,,10,208,3770006,,,2021-09-01,清算の結了等,,,2015-10-05,1,,,,,コクサイフクシケイエイシエンネットワーク,0
2524,9080102008074,登記記録の閉鎖等,0,2021-09-14,2021-09-07,有限会社遠藤商店,,有限会社,静岡県,伊豆市,熊坂７４９番地の１,,22,222,4102411,,,2021-09-07,清算の結了等,,,2015-10-05,1,,,,,エンドウショウテン,0
2557,9140001010802,登記記録の閉鎖等,0,2021-09-14,2021-09-08,株式会社ポート．ジョイ企画,,株式会社,兵庫県,神戸市中央区,熊内橋通２丁目１番２０号,,28,110,6510055,,,2021-09-08,清算の結了等,,,2015-10-05,1,,,,,ポートジョイキカク,0
2566,9140003007722,登記記録の閉鎖等,0,2021-09-14,2021-09-08,キシマシステム合資会社,,合資会社,兵庫県,西宮市,甲子園口２丁目２番１６号,,28,204,6638113,,,2021-09-08,清算の結了等,,,2015-10-05,1,,,,,キシマシステム,0
2585,9180001128269,登記記録の閉鎖等,0,2021-09-14,2021-09-10,株式会社ネオキャスト,,株式会社,愛知県,北名古屋市,石橋惣作６７番地,,23,234,4810046,,,2021-09-10,清算の結了等,,,2017-06-13,1,,,,,ネオキャスト,0
2590,9180301018995,登記記録の閉鎖等,0,2021-09-14,2021-09-10,日本サーキツト工業株式会社,,株式会社,愛知県,豊田市,神池町２丁目１２３６番地,,23,211,4710804,,,2021-09-10,清算の結了等,,,2015-10-05,1,,,,,ニホンサーキットコウギョウ,0
2600,9190005011172,登記記録の閉鎖等,0,2021-09-14,2021-09-10,一般社団法人伝承会,,その他の設立登記法人,三重県,四日市市,西伊倉町１２番６号,,24,202,5100831,,,2021-09-10,清算の結了等,,,2018-04-10,1,,,,,デンショウカイ,0
2610,9220001015173,登記記録の閉鎖等,0,2021-09-14,2021-09-09,七福プリント株式会社,,株式会社,石川県,能美市,湯谷町ホ５５番地,,17,211,9231104,,,2021-09-09,清算の結了等,,,2015-10-05,1,,,,,シチフクプリント,0
2611,9220001020462,登記記録の閉鎖等,0,2021-09-14,2021-09-08,株式会社ホームデンタル,,株式会社,石川県,金沢市,みずき４丁目３６番地,,17,201,9200201,,,2021-09-08,合併による解散等,8011001123467,令和３年８月３１日東京都千代田区内幸町一丁目３番１号株式会社メディカルサポート（8011001123467）に合併し解散,2015-10-05,1,,,,,ホームデンタル,0
2615,9230005007323,登記記録の閉鎖等,0,2021-09-14,2021-09-09,善行寺,,その他の設立登記法人,富山県,射水市,立町２番５号,,16,211,9340013,,,2021-09-09,清算の結了等,,,2015-10-05,1,,,,,ゼンギョウジ,0
2641,9310002004918,登記記録の閉鎖等,0,2021-09-14,2021-09-10,有限会社平源,,有限会社,長崎県,長崎市,鍛冶屋町５番４号,,42,201,8500831,,,2021-09-10,清算の結了等,,,2015-10-05,1,,,,,ヒラゲン,0
2658,9370805000570,登記記録の閉鎖等,0,2021-09-14,2021-08-25,一般社団法人山元未来ネット,,その他の設立登記法人,宮城県,亘理郡山元町,坂元字上西谷地１２－８２番地,,04,362,9892111,,,2021-08-25,清算の結了等,,,2015-10-05,1,,,,,ヤマモトミライネット,0
2666,9390001006395,登記記録の閉鎖等,0,2021-09-14,2021-09-06,株式会社タカハシ会計,,株式会社,山形県,酒田市,大宮町４丁目６番１号,,06,204,9980824,,,2021-09-06,清算の結了等,,,2015-10-05,1,,,,,タカハシカイケイ,0
2689,9700150031328,登記記録の閉鎖等,0,2021-09-14,2021-06-04,貴生川西内貴土地区画整理組合,,その他,滋賀県,甲賀市,水口町貴生川７９０番地,,25,209,5280049,,,2021-06-04,その他の清算の結了等,,,2015-10-09,1,,,,,キブカワニシナイキトチクカクセイリクミアイ,0
2691,9700150094176,登記記録の閉鎖等,0,2021-09-14,2021-03-31,白神山地ガイド会,,その他,青森県,弘前市,大字藤代１丁目１２－１,,02,202,0368373,,,2021-03-31,その他の清算の結了等,,,2019-05-14,1,,,,,シラカミサンチガイドカイ,0
