sequenceNumber,corporateNumber,process,correct,updateDate,changeDate,name,nameImageId,kind,prefectureName,cityName,streetNumber,addressImageId,prefectureCode,cityCode,postCode,addressOutside,addressOutsideImageId,closeDate,closeCause,successorCorporateNumber,changeCause,assignmentDate,latest,enName,enPrefectureName,enCityName,enAddressOutside,furigana,hihyoji
23,1010403025922,登記記録の閉鎖等,0,2023-04-07,2023-03-27,合同会社ＳＡ　ＰＲＯＰＥＲＴＹ５,,合同会社,東京都,港区,虎ノ門５丁目１番４号,,13,103,1050001,,,2023-03-27,清算の結了等,,,2021-08-16,1,,,,,エスエープロパティファイブ,0
33,1010801025788,登記記録の閉鎖等,0,2023-04-07,2023-03-30,株式会社ティープロジェクト,,株式会社,東京都,大田区,西蒲田２丁目８番１５号,,13,111,1440051,,,2023-03-30,清算の結了等,,,2015-10-05,1,,,,,ティープロジェクト,0
34,1010901023873,登記記録の閉鎖等,0,2023-04-07,2023-03-31,株式会社ローマンビューティー,,株式会社,東京都,世田谷区,松原１丁目３８番２７号,,13,112,1560043,,,2023-03-31,清算の結了等,,,2015-10-05,1,,,,,,0
44,1011101020158,登記記録の閉鎖等,0,2023-04-07,2023-04-03,町田商事株式会社,,株式会社,東京都,新宿区,歌舞伎町１丁目６番１号,,13,104,1600021,,,2023-04-03,合併による解散等,1011101003484,令和５年４月１日東京都新宿区歌舞伎町一丁目６番１号エム・エス不動産株式会社（1011101003484）に合併し解散,2015-10-05,1,,,,,マチダショウジ,0
61,1011302002021,登記記録の閉鎖等,0,2023-04-07,2023-03-31,有限会社オフィスエフアンドエイチ,,有限会社,東京都,杉並区,善福寺３丁目２６番２２号,,13,115,1670041,,,2023-03-31,清算の結了等,,,2015-10-05,1,,,,,オフィスエフアンドエイチ,0
65,1011701010228,登記記録の閉鎖等,0,2023-04-07,2023-04-03,株式会社新協テクノス,,株式会社,東京都,江戸川区,北小岩１丁目１５番５号,,13,123,1330051,,,2023-04-03,清算の結了等,,,2015-10-05,1,,,,,シンキョウテクノス,0
72,1011801004162,登記記録の閉鎖等,0,2023-04-07,2023-04-04,藤設備工業株式会社,,株式会社,東京都,葛飾区,鎌倉１丁目１０番８号,,13,122,1250053,,,2023-04-04,清算の結了等,,,2015-10-05,1,,,,,フジセツビコウギョウ,0
114,1040001006149,登記記録の閉鎖等,0,2023-04-07,2023-03-31,長谷川金属株式会社,,株式会社,千葉県,千葉市中央区,仁戸名町５６２番地の４,,12,101,2600801,,,2023-03-31,清算の結了等,,,2015-10-05,1,,,,,ハセガワキンゾク,0
123,1040002101774,登記記録の閉鎖等,0,2023-04-07,2023-03-30,有限会社協和グリーン,,有限会社,千葉県,茂原市,東部台３丁目３番地３,,12,210,2970015,,,2023-03-30,清算の結了等,,,2015-10-05,1,,,,,キョウワグリーン,0
126,1040005003497,登記記録の閉鎖等,0,2023-04-07,2023-03-31,特定非営利活動法人アジア経済知識交流会,,その他の設立登記法人,千葉県,八千代市,大和田新田１０１０番地３７,,12,221,2760046,,,2023-03-31,清算の結了等,,,2015-10-05,1,,,,,アジアケイザイチシキコウリュウカイ,0
225,1210001015421,登記記録の閉鎖等,0,2023-04-07,2023-04-03,株式会社越前クリーンシステム,,株式会社,福井県,丹生郡越前町,朝日５号１７番地の１,,18,423,9160146,,,2023-04-03,合併による解散等,9210001012568,令和５年４月１日福井県丹生郡越前町朝日５号１７番地の１丹南開発株式会社（9210001012568）に合併し解散,2015-10-05,1,,,,,エチゼンクリーンシステム,0
226,1210005005534,登記記録の閉鎖等,0,2023-04-07,2023-04-03,上若生子生産森林組合,,その他の設立登記法人,福井県,大野市,篠座７８号７番地,,18,205,9120061,,,2023-04-03,清算の結了等,,,2015-10-05,1,,,,,カミワカゴ,0
237,1240005004954,登記記録の閉鎖等,0,2023-04-07,2023-04-03,広島北部農業協同組合,,その他の設立登記法人,広島県,安芸高田市,吉田町常友１２１０番地,,34,214,7310521,,,2023-04-03,合併による解散等,3240005015553,令和５年４月３日広島県廿日市市宮内４４７３番地の１佐伯中央農業協同組合（5240005006848）と広島県安芸郡海田町窪町８番８号安芸農業協同組合（2240005010134）と広島県呉市西中央一丁目２番２５号呉農業協同組合（1240005006430）と広島県東広島市西条栄町１０番３５号広島中央農業協同組合（9240005003718）と広島県東広島市安芸津町三津４２５８番地１芸南農業協同組合（9240005004063）と広島県三原市皆実四丁目７番２８号三原農業協同組合（9240005011910）と広島県三次市十日市東三丁目１番１号三次農業協同組合（7240005004651）と広島県庄原市西本町二丁目１４番１号庄原農業協同組合（9240005005202）と合併して広島県東広島市西条栄町１０番３５号ひろしま農業協同組合（3240005015553）を設立し解散,2015-10-05,1,,,,,ヒロシマホクブ,0
238,1240005006430,登記記録の閉鎖等,0,2023-04-07,2023-04-03,呉農業協同組合,,その他の設立登記法人,広島県,呉市,西中央１丁目２番２５号,,34,202,7370811,,,2023-04-03,合併による解散等,3240005015553,令和５年４月３日広島県廿日市市宮内４４７３番地の１佐伯中央農業協同組合（5240005006848）と広島県安芸郡海田町窪町８番８号安芸農業協同組合（2240005010134）と広島県東広島市西条栄町１０番３５号広島中央農業協同組合（9240005003718）と広島県東広島市安芸津町三津４２５８番地１芸南農業協同組合（9240005004063）と広島県三原市皆実四丁目７番２８号三原農業協同組合（9240005011910）と広島県安芸高田市吉田町常友１２１０番地広島北部農業協同組合（1240005004954）と広島県三次市十日市東三丁目１番１号三次農業協同組合（7240005004651）と広島県庄原市西本町二丁目１４番１号庄原農業協同組合（9240005005202）と合併して広島県東広島市西条栄町１０番３５号ひろしま農業協同組合（3240005015553）を設立し解散,2015-10-05,1,,,,,クレ,0
270,1350005001362,登記記録の閉鎖等,0,2023-04-07,2023-03-28,天理教東木脇分教會,,その他の設立登記法人,宮崎県,東諸県郡国富町,大字木脇１１０２番地,,45,382,8801113,,,2023-03-28,合併による解散等,2470005004096,令和５年３月７日香川県観音寺市豊浜町和田浜１２０３番地天理教和田濱分教会（2470005004096）に合併し解散,2015-10-05,1,,,,,テンリキョウヒガシキワキブンキョウカイ,0
300,1430001006381,登記記録の閉鎖等,0,2023-04-07,2023-03-31,株式会社コムメディア,,株式会社,北海道,札幌市中央区,南九条西１０丁目１７８３番地１１,,01,101,0640809,,,2023-03-31,清算の結了等,,,2015-10-05,1,,,,,コムメディア,0
303,1430001039183,登記記録の閉鎖等,0,2023-04-07,2023-03-31,札幌マテリアルエンジニア株式会社,,株式会社,北海道,札幌市東区,北丘珠五条３丁目１５番２６号,,01,103,0070885,,,2023-03-31,清算の結了等,,,2015-10-05,1,,,,,マテリアルエンジニア,0
314,1480005003577,登記記録の閉鎖等,0,2023-04-07,2023-04-03,医療法人藍生会,,その他の設立登記法人,徳島県,板野郡藍住町,矢上字北分９５番地,,36,403,7711252,,,2023-04-03,合併による解散等,4480005000398,令和５年４月１日徳島市勝占町惣田９番地医療法人平成博愛会（4480005000398）に合併し解散,2015-10-05,1,,,,,アイセイカイ,0
315,1490001006797,登記記録の閉鎖等,0,2023-04-07,2023-04-04,株式会社高東ソフトウェアサービス,,株式会社,高知県,安芸市,赤野乙９１５番地,,39,203,7840034,,,2023-04-04,清算の結了等,,,2015-10-05,1,,,,,コウトウソフトウェアサービス,0
329,2010001168073,登記記録の閉鎖等,0,2023-04-07,2023-04-03,スマートレンタル東京株式会社,,株式会社,神奈川県,横浜市神奈川区,沢渡１番地２Ｊプロ高島台サウスビル９階,,14,102,2210844,,,2023-04-03,合併による解散等,9010703005278,令和５年４月１日川崎市中原区下沼部１７０５番地１２株式会社ＣＦＧＡＴＥ（9010703005278）に合併し解散,2015-10-05,1,,,,,スマートレンタルトウキョウ,0
336,2010003029876,登記記録の閉鎖等,0,2023-04-07,2023-04-03,合同会社極楽湯東日本,,合同会社,東京都,千代田区,麹町２丁目４番地,,13,101,1020083,,,2023-04-03,合併による解散等,9010001180674,令和５年４月１日東京都千代田区麹町二丁目４番地株式会社極楽湯（9010001180674）に合併し解散,2019-05-22,1,,,,,ゴクラクユヒガシニホン,0
374,2011101002915,登記記録の閉鎖等,0,2023-04-07,2023-04-03,株式会社エス・イー,,株式会社,東京都,新宿区,四谷１丁目２３番地,,13,104,1600004,,,2023-04-03,合併による解散等,4011101012689,令和５年４月１日東京都新宿区四谷一丁目２３番地株式会社第一ヒューテック（4011101012689）に合併し解散,2015-10-05,1,,,,,エスイー,0
398,2011802017807,登記記録の閉鎖等,0,2023-04-07,2023-04-03,有限会社藤白スリッター,,有限会社,東京都,足立区,西新井４丁目１６番１１号,,13,121,1230841,,,2023-04-03,合併による解散等,3011801022633,令和５年４月１日東京都足立区西新井四丁目１６番１１号株式会社フジシロ（3011801022633）に合併し解散,2015-10-05,1,,,,,フジシロスリッター,0
403,2013101003281,登記記録の閉鎖等,0,2023-04-07,2023-03-31,Ｌｉｆｅ　Ｄｅｓｉｇｎ　Ｗｏｒｋｓ株式会社,,株式会社,東京都,渋谷区,道玄坂２丁目３番２号大外ビルＢ１,,13,113,1500043,,,2023-03-31,合併による解散等,5010401094024,令和５年３月３１日東京都渋谷区渋谷二丁目２４番１２号渋谷スクランブルスクエア３９階Ｗｅｗｏｒｋ内株式会社ＳＨＩＮＫＳ‐Ｋ（5010401094024）に合併し解散,2015-10-05,1,,,,,ライフデザインワークス,0
422,2020002023879,登記記録の閉鎖等,0,2023-04-07,2023-03-31,有限会社ジーアス,,有限会社,神奈川県,横浜市保土ケ谷区,境木町１５７番地,,14,106,2400034,,,2023-03-31,清算の結了等,,,2015-10-05,1,,,,,ジーアス,0
432,2030001032129,登記記録の閉鎖等,0,2023-04-07,2023-03-31,株式会社ミヤコーポレーション,,株式会社,埼玉県,加須市,芋茎２００５番地２,,11,210,3470112,,,2023-03-31,清算の結了等,,,2015-10-05,1,,,,,ミヤコーポレーション,0
435,2030002065037,登記記録の閉鎖等,0,2023-04-07,2023-03-31,有限会社オータ,,有限会社,埼玉県,新座市,栄５丁目１０番３１号,,11,230,3520014,,,2023-03-31,清算の結了等,,,2015-10-05,1,,,,,オータ,0
449,2040003015840,登記記録の閉鎖等,0,2023-04-07,2023-03-30,合同会社ドリブル,,合同会社,千葉県,流山市,前ケ崎２番地の１３０,,12,220,2700144,,,2023-03-30,清算の結了等,,,2020-07-31,1,,,,,ドリブル,0
456,2050001039774,登記記録の閉鎖等,0,2023-04-07,2023-04-03,株式会社マルエイ,,株式会社,茨城県,古河市,三杉町１丁目８番１号,,08,204,3060002,,,2023-04-03,清算の結了等,,,2015-10-05,1,,,,,マルエイ,0
462,2070001034022,登記記録の閉鎖等,0,2023-04-07,2023-04-03,株式会社関東土地開発,,株式会社,群馬県,太田市,飯田町１５４７番地ＯＴＡスクエアビル７Ｆ,,10,205,3730851,,,2023-04-03,合併による解散等,6070001039876,令和５年４月１日群馬県太田市飯田町１５４７番地ＯＴＡスクエアビル７Ｆ関東建設工業ホールディングス株式会社（6070001039876）に合併し解散,2017-10-11,1,,,,,カントウトチカイハツ,0
467,2100001023822,登記記録の閉鎖等,0,2023-04-07,2023-03-29,シナリーホーム株式会社,,株式会社,長野県,佐久市,取出町７９８番地２,,20,217,3850043,,,2023-03-29,清算の結了等,,,2015-10-05,1,,,,,シナリーホーム,0
471,2100002035817,登記記録の閉鎖等,0,2023-04-07,2023-03-31,飯田コンクリート工業有限会社,,有限会社,長野県,飯田市,鼎切石５１１５番地２８,,20,205,3950807,,,2023-03-31,清算の結了等,,,2015-10-05,1,,,,,イイダコンクリートコウギョウ,0
473,2100003004622,登記記録の閉鎖等,0,2023-04-07,2023-03-31,合同会社Ｔ・フォレスト,,合同会社,長野県,長野市,安茂里小市２丁目３番２５号,,20,201,3800961,,,2023-03-31,清算の結了等,,,2017-03-09,1,,,,,ティフォレスト,0
494,2120002080968,登記記録の閉鎖等,0,2023-04-07,2023-03-31,サンワード株式会社,,株式会社,大阪府,大阪市旭区,生江３丁目９番３７号,,27,117,5350004,,,2023-03-31,清算の結了等,,,2015-10-05,1,,,,,サンワード,0
513,2140002041968,登記記録の閉鎖等,0,2023-04-07,2023-03-31,株式会社西岡忠商店,,株式会社,兵庫県,尼崎市,神田南通３丁目７３番地,,28,202,6600885,,,2023-03-31,清算の結了等,,,2015-10-05,1,,,,,ニシオカチュウショウテン,0
517,2140005009095,登記記録の閉鎖等,0,2023-04-07,2023-04-03,医療法人社団かたしま・きたうら産婦人科医院,,その他の設立登記法人,兵庫県,高砂市,米田町米田１３９番地の２,,28,216,6760805,,,2023-04-03,清算の結了等,,,2015-10-05,1,,,,,カタシマキタウラサンフジンカイイン,0
520,2180001031553,登記記録の閉鎖等,0,2023-04-07,2023-04-03,株式会社東海トレーデイング,,株式会社,愛知県,清須市,西枇杷島町子新田１番地２,,23,233,4520068,,,2023-04-03,合併による解散等,6180001031533,令和５年４月１日愛知県清須市西枇杷島町子新田１番地の２東海染工株式会社（6180001031533）に合併し解散,2015-10-05,1,,,,,トウカイトレーデイング,0
551,2240005010134,登記記録の閉鎖等,0,2023-04-07,2023-04-03,安芸農業協同組合,,その他の設立登記法人,広島県,安芸郡海田町,窪町８番８号,,34,304,7360046,,,2023-04-03,合併による解散等,3240005015553,令和５年４月３日広島県廿日市市宮内４４７３番地の１佐伯中央農業協同組合（5240005006848）と広島県呉市西中央一丁目２番２５号呉農業協同組合（1240005006430）と広島県東広島市西条栄町１０番３５号広島中央農業協同組合（9240005003718）と広島県東広島市安芸津町三津４２５８番地１芸南農業協同組合（9240005004063）と広島県三原市皆実四丁目７番２８号三原農業協同組合（9240005011910）と広島県安芸高田市吉田町常友１２１０番地広島北部農業協同組合（1240005004954）と広島県三次市十日市東三丁目１番１号三次農業協同組合（7240005004651）と広島県庄原市西本町二丁目１４番１号庄原農業協同組合（9240005005202）と合併して広島県東広島市西条栄町１０番３５号ひろしま農業協同組合（3240005015553）を設立し解散,2015-10-05,1,,,,,アキ,0
556,2260001021356,登記記録の閉鎖等,0,2023-04-07,2023-04-03,株式会社アドバンテック,,株式会社,大阪府,堺市堺区,築港南町９番１,,27,141,5900987,,,2023-04-03,合併による解散等,9120101038605,令和５年４月１日大阪府堺市堺区築港南町９番１中央興産株式会社（9120101038605）に合併し解散,2015-10-05,1,,,,,アドバンテック,0
561,2290001008895,登記記録の閉鎖等,0,2023-04-07,2023-04-03,株式会社天神町木村家ビル,,株式会社,福岡県,福岡市中央区,天神１丁目１２番３号,,40,133,8100001,,,2023-04-03,合併による解散等,1290001014052,令和５年４月１日福岡市博多区千代一丁目１７番１号西部ガス都市開発株式会社（1290001014052）に合併し解散,2015-10-05,1,,,,,テンジンチョウキムラヤビル,0
584,2330001018163,登記記録の閉鎖等,0,2023-04-07,2023-04-03,熊日総合保険株式会社,,株式会社,熊本県,熊本市中央区,世安１丁目５番１号,,43,101,8600827,,,2023-04-03,合併による解散等,4330001001266,令和５年４月１日熊本市中央区世安一丁目５番１号株式会社熊本日日新聞社内熊日サービス開発株式会社（4330001001266）に合併し解散,2015-10-05,1,,,,,クマニチソウゴウホケン,0
593,2360001016239,登記記録の閉鎖等,0,2023-04-07,2023-03-29,沖縄ＩＴｂｏｏｋ株式会社,,株式会社,沖縄県,浦添市,宮城２丁目１６番２号,,47,208,9012126,,,2023-03-29,清算の結了等,,,2015-10-05,1,,,,,オキナワアイティブック,0
607,2390001010916,登記記録の閉鎖等,0,2023-04-07,2023-03-31,株式会社ＳＹ,,株式会社,山形県,米沢市,小野川町２０７０番地,,06,202,9920076,,,2023-03-31,清算の結了等,,,2015-10-05,1,,,,,エスワイ,0
611,2410001009690,登記記録の閉鎖等,0,2023-04-07,2023-04-03,株式会社山王薬局,,株式会社,秋田県,秋田市,山王２丁目１番４９号,,05,201,0100951,,,2023-04-03,合併による解散等,1410001002804,令和５年４月１日秋田市保戸野通町３番３１号株式会社サノ・ファーマシー（1410001002804）に合併し解散,2015-10-05,1,,,,,サンノウヤッキョク,0
634,2480002011400,登記記録の閉鎖等,0,2023-04-07,2023-04-05,有限会社阿波鴻俊社,,有限会社,徳島県,板野郡上板町,瀬部７４２番地１,,36,405,7711350,,,2023-04-05,清算の結了等,,,2015-10-05,1,,,,,アワコウシュンシャ,0
638,2500002020373,登記記録の閉鎖等,0,2023-04-07,2023-04-04,有限会社八塚土木,,有限会社,愛媛県,今治市,宮窪町宮窪５２５６番地の１,,38,202,7942203,,,2023-04-04,清算の結了等,,,2015-10-05,1,,,,,ヤツヅカドボク,0
688,3011002005751,登記記録の閉鎖等,0,2023-04-07,2023-03-31,有限会社十和エンタープライズ,,有限会社,東京都,練馬区,大泉学園町７丁目８番３３号,,13,120,1780061,,,2023-03-31,清算の結了等,,,2015-10-05,1,,,,,トウワエンタープライズ,0
699,3011602002082,登記記録の閉鎖等,0,2023-04-07,2023-03-31,有限会社オーネット,,有限会社,東京都,練馬区,大泉町２丁目４８番２号,,13,120,1780062,,,2023-03-31,清算の結了等,,,2015-10-05,1,,,,,オーネット,0
716,3013102000228,登記記録の閉鎖等,0,2023-04-07,2023-04-03,有限会社かやの木保険センター,,有限会社,東京都,福生市,大字熊川１６９６番地３,,13,218,1970003,,,2023-04-03,合併による解散等,2013102000212,令和５年４月３日東京都福生市熊川１６９６番地３株式会社かやの木興産（2013102000212）に合併し解散,2015-10-05,1,,,,,カヤノキホケンセンター,0
751,3030003009479,登記記録の閉鎖等,0,2023-04-07,2023-04-03,合同会社サウザンドブレッシング,,合同会社,神奈川県,横浜市神奈川区,子安通３丁目３５１番地１,,14,102,2210021,,,2023-04-03,合併による解散等,1030003011676,令和５年４月１日神奈川県横浜市神奈川区子安通三丁目３５１番地１合同会社ミルグラース（1030003011676）に合併し解散,2016-10-20,1,,,,,サウザンドブレッシング,0
771,3060002001723,登記記録の閉鎖等,0,2023-04-07,2023-03-31,有限会社宇高建築設計事務所,,有限会社,栃木県,宇都宮市,兵庫塚町９番１号プレステージみどり野２０２,,09,201,3210156,,,2023-03-31,清算の結了等,,,2015-10-05,1,,,,,ウタカケンチクセッケイジムショ,0
814,3120101022382,登記記録の閉鎖等,0,2023-04-07,2023-04-03,中外エンジニアリング株式会社,,株式会社,大阪府,堺市西区,石津西町９４番地７,,27,144,5928332,,,2023-04-03,合併による解散等,9120101022311,令和５年４月１日大阪府堺市西区築港新町二丁４番中外プラント株式会社（9120101022311）に合併し解散,2015-10-05,1,,,,,チュウガイエンジニアリング,0
852,3180001090730,登記記録の閉鎖等,0,2023-04-07,2023-04-03,エーティーラボ株式会社,,株式会社,愛知県,名古屋市中区,錦３丁目７番１４号ＡＴビル,,23,106,4600003,,,2023-04-03,合併による解散等,5180001049428,令和５年４月１日名古屋市中区錦三丁目７番１４号ＡＴビルアイサンテクノロジー株式会社（5180001049428）に合併し解散,2015-10-05,1,,,,,エーティーラボ,0
855,3180001146821,登記記録の閉鎖等,0,2023-04-07,2023-03-31,株式会社Ｙ’ｓコーポレーション,,株式会社,愛知県,名古屋市東区,葵１丁目２番６号プレミアムコート葵２０８,,23,102,4610004,,,2023-03-31,清算の結了等,,,2021-07-07,1,,,,,ワイズコーポレーション,0
873,3190001019753,登記記録の閉鎖等,0,2023-04-07,2023-04-03,株式会社ＡＺサポート,,株式会社,三重県,員弁郡東員町,笹尾東４丁目２２番２,,24,324,5110232,,,2023-04-03,清算の結了等,,,2015-10-05,1,,,,,アズサポート,0
874,3190002006726,登記記録の閉鎖等,0,2023-04-07,2023-04-03,有限会社つちやサービス,,有限会社,三重県,鈴鹿市,東磯山４丁目３番２３号,,24,207,5100257,,,2023-04-03,清算の結了等,,,2015-10-05,1,,,,,ツチヤサービス,0
882,3240001045125,登記記録の閉鎖等,0,2023-04-07,2023-03-31,株式会社創新技研,,株式会社,広島県,福山市,神辺町大字新湯野７番地７,,34,207,7202122,,,2023-03-31,清算の結了等,,,2015-10-05,1,,,,,ソウシンギケン,0
887,3260002018128,登記記録の閉鎖等,0,2023-04-07,2023-04-03,有限会社コトウラ薬局,,有限会社,岡山県,岡山市北区,田益１２９０番地１,,33,101,7011154,,,2023-04-03,合併による解散等,4260001008293,令和５年４月１日岡山市北区田益１２９０番地１株式会社マスカット薬局（4260001008293）に合併し解散,2015-10-05,1,,,,,コトウラヤッキョク,0
890,3280001006742,登記記録の閉鎖等,0,2023-04-07,2023-04-03,株式会社ユー,,株式会社,島根県,松江市,菅田町１８０番地アイウォーク菅田ビル２０７号,,32,201,6900824,,,2023-04-03,清算の結了等,,,2015-10-05,1,,,,,ユー,0
893,3290001026954,登記記録の閉鎖等,0,2023-04-07,2023-04-03,株式会社メディカルナビゲーション,,株式会社,福岡県,福岡市博多区,千代１丁目１番５号,,40,132,8120044,,,2023-04-03,合併による解散等,6290001056024,令和５年４月１日福岡市博多区千代一丁目１番５号太陽セランドホールディングス株式会社（6290001056024）に合併し解散,2015-10-05,1,,,,,メディカルナビゲーション,0
935,3380002020212,登記記録の閉鎖等,0,2023-04-07,2023-04-04,有限会社古川電工,,有限会社,福島県,須賀川市,桜岡２７番地の１,,07,207,9620821,,,2023-04-04,清算の結了等,,,2015-10-05,1,,,,,フルカワデンコー,0
948,3430002039024,登記記録の閉鎖等,0,2023-04-07,2023-03-28,有限会社あると,,有限会社,北海道,札幌市手稲区,稲穂四条４丁目１５番１２号,,01,109,0060034,,,2023-03-28,清算の結了等,,,2015-10-05,1,,,,,アルト,0
961,3490002000797,登記記録の閉鎖等,0,2023-04-07,2023-04-03,株式会社大藤建設,,株式会社,高知県,高知市,長尾山町３７番地１,,39,201,7800953,,,2023-04-03,合併による解散等,4490002000796,令和５年４月１日高知市横内３１３番地１株式会社大藤（4490002000796）に合併し解散,2015-10-05,1,,,,,オオトウケンセツ,0
969,4010001006173,登記記録の閉鎖等,0,2023-04-07,2023-04-05,ＭＰマトリックス株式会社,,株式会社,東京都,中央区,日本橋茅場町２丁目１３番１３号,,13,102,1030025,,,2023-04-05,合併による解散等,4080401016195,令和５年４月１日名古屋市中区錦一丁目１３番３１号ミツワ株式会社（4080401016195）に合併し解散,2015-10-05,1,,,,,エムピーマトリックス,0
970,4010001013137,登記記録の閉鎖等,0,2023-04-07,2023-03-31,株式会社オオタケサービス,,株式会社,東京都,千代田区,神田和泉町１番地３の１３,,13,101,1010024,,,2023-03-31,清算の結了等,,,2015-10-05,1,,,,,オオタケサービス,0
982,4010002043307,登記記録の閉鎖等,0,2023-04-07,2023-03-30,中央行政コンサルティング有限会社,,有限会社,東京都,千代田区,岩本町３丁目９番１５号,,13,101,1010032,,,2023-03-30,清算の結了等,,,2015-10-05,1,,,,,チュウオウギョウセイコンサルティング,0
987,4010005017935,登記記録の閉鎖等,0,2023-04-07,2023-04-03,一般財団法人日本ビルヂング経営センター,,その他の設立登記法人,東京都,千代田区,有楽町１丁目１２番１号新有楽町ビル２０４区,,13,101,1000006,,,2023-04-03,合併による解散等,3010005004397,令和５年４月１日東京都千代田区有楽町一丁目１２番１号一般社団法人日本ビルヂング協会連合会（3010005004397）に合併し解散,2015-10-05,1,,,,,ニホンビルヂングケイエイセンター,0
997,4010401171724,登記記録の閉鎖等,0,2023-04-07,2023-04-03,株式会社ＫａｉＵ,,株式会社,東京都,新宿区,神楽坂１丁目１番地,,13,104,1620825,,,2023-04-03,合併による解散等,7011101050802,令和５年３月３０日東京都新宿区神楽坂一丁目１番地株式会社エフ・コード（7011101050802）に合併し解散,2023-01-13,1,,,,,カイユウ,0
1002,4010403022280,登記記録の閉鎖等,0,2023-04-07,2023-03-28,杜の街づくりＰＪ２合同会社,,合同会社,東京都,港区,元赤坂１丁目１番７号,,13,103,1070051,,,2023-03-28,清算の結了等,,,2020-02-07,1,,,,,モリノマチヅクリピージェイツー,0
1035,4011101055135,登記記録の閉鎖等,0,2023-04-07,2023-04-03,株式会社ヒューマンアフェア,,株式会社,東京都,新宿区,西新宿３丁目７番１号,,13,104,1600023,,,2023-04-03,清算の結了等,,,2015-10-05,1,,,,,ヒューマンアフェア,0
1047,4011302006531,登記記録の閉鎖等,0,2023-04-07,2023-03-30,有限会社東京飲料水槽サービス,,有限会社,東京都,杉並区,和泉４丁目５番２号,,13,115,1680063,,,2023-03-30,清算の結了等,,,2015-10-05,1,,,,,,0
1068,4013301026329,登記記録の閉鎖等,0,2023-04-07,2023-04-03,株式会社シニックス,,株式会社,東京都,豊島区,長崎１丁目２５番２２号,,13,116,1710051,,,2023-04-03,清算の結了等,,,2015-10-05,1,,,,,シニックス,0
1082,4021001044204,登記記録の閉鎖等,0,2023-04-07,2023-04-03,株式会社赤おにホールディングス,,株式会社,神奈川県,横須賀市,大滝町２丁目１７番地,,14,201,2380008,,,2023-04-03,合併による解散等,8021002066581,令和５年４月１日神奈川県横須賀市上町二丁目９番地株式会社藤田屋本店（8021002066581）に合併し解散,2015-10-05,1,,,,,アカオニホールディングス,0
1118,4100001020371,登記記録の閉鎖等,0,2023-04-07,2023-03-31,株式会社みさと環境,,株式会社,長野県,諏訪郡富士見町,富士見１１６９３番地７,,20,362,3990211,,,2023-03-31,清算の結了等,,,2015-10-05,1,,,,,ミサトカンキョウ,0
1126,4120001015543,登記記録の閉鎖等,0,2023-04-07,2023-04-03,田中文金属株式会社,,株式会社,大阪府,大阪市城東区,鴫野東３丁目２５番２０号,,27,118,5360013,,,2023-04-03,合併による解散等,6120001015541,令和５年４月１日大阪市城東区鴫野東三丁目２５番２０号田中文金属株式会社（6120001015541）に合併し解散,2015-10-05,1,,,,,タナカブンキンゾク,0
1131,4120001131976,登記記録の閉鎖等,0,2023-04-07,2023-04-03,五栄汽船株式会社,,株式会社,大阪府,大阪市港区,築港４丁目１番１号,,27,107,5520021,,,2023-04-03,清算の結了等,,,2015-10-05,1,,,,,ゴエイキセン,0
1156,4130002006326,登記記録の閉鎖等,0,2023-04-07,2023-04-03,安威不動有限会社,00037011,有限会社,京都府,京都市左京区,下鴨泉川町３６番地の３９,,26,103,6060807,,,2023-04-03,清算の結了等,,,2015-10-05,1,,,,,ヤスイフドウ,0
1160,4140001104526,登記記録の閉鎖等,0,2023-04-07,2023-04-03,株式会社スタイルフォース,,株式会社,兵庫県,神戸市中央区,港島中町６丁目８番１,,28,110,6500046,,,2023-04-03,合併による解散等,5140001104525,令和５年４月１日神戸市中央区港島中町六丁目８番１株式会社アルカスインターナショナル（5140001104525）に合併し解散,2017-01-04,1,,,,,スタイルフォース,0
1172,4180001084277,登記記録の閉鎖等,0,2023-04-07,2023-04-04,大長株式会社,,株式会社,愛知県,一宮市,明地字鞆浦１７番地の２,00072367,23,203,4940012,,,2023-04-04,清算の結了等,,,2015-10-05,1,,,,,ダイチョウ,0
1173,4180001114141,登記記録の閉鎖等,0,2023-04-07,2023-04-03,株式会社ハーツデザインファクトリー,,株式会社,神奈川県,鎌倉市,稲村ガ崎５丁目６番５号,,14,204,2480024,,,2023-04-03,清算の結了等,,,2015-10-05,1,,,,,ハーツデザインファクトリー,0
1185,4190001004382,登記記録の閉鎖等,0,2023-04-07,2023-04-03,株式会社オワセカラー現像所,,株式会社,三重県,尾鷲市,南陽町１０番４３号,,24,209,5193614,,,2023-04-03,清算の結了等,,,2015-10-05,1,,,,,オワセカラーゲンゾウショ,0
1199,4230001013635,登記記録の閉鎖等,0,2023-04-07,2023-04-04,アイアンオーＤＣ株式会社,,株式会社,富山県,富山市,清水中町５番８号,,16,201,9300035,,,2023-04-04,清算の結了等,,,2015-10-05,1,,,,,アイアンオーディーシー,0
1248,4380002009477,登記記録の閉鎖等,0,2023-04-07,2023-04-04,有限会社郡山洋ラン園,,有限会社,福島県,郡山市,喜久田町字入ノ内３０番地,,07,203,9630551,,,2023-04-04,清算の結了等,,,2015-10-05,1,,,,,コオリヤマヨウランエン,0
1249,4380003002786,登記記録の閉鎖等,0,2023-04-07,2023-03-31,あづま小富士第二発電所合同会社,,合同会社,福島県,福島市,渡利字舟場５６番１号東洋ビル２０１号,,07,201,9608141,,,2023-03-31,清算の結了等,,,2015-10-05,1,,,,,アヅマコフジダイニハツデンショ,0
1273,4500002008160,登記記録の閉鎖等,0,2023-04-07,2023-04-06,有限会社眞美鉄工,,有限会社,愛媛県,伊予市,三秋字離山丙６番４４７,,38,210,7993124,,,2023-04-06,清算の結了等,,,2015-10-05,1,,,,,シンビテッコウ,0
1298,5010601033806,登記記録の閉鎖等,0,2023-04-07,2023-04-03,株式会社ゼリックコーポレーション,,株式会社,東京都,台東区,寿４丁目１番２号,,13,106,1110042,,,2023-04-03,合併による解散等,1010501004662,令和５年４月１日東京都台東区寿四丁目１番２号株式会社三栄コーポレーション（1010501004662）に合併し解散,2015-10-05,1,,,,,ゼリックコーポレーション,0
1337,5020001115039,登記記録の閉鎖等,0,2023-04-07,2023-03-31,株式会社マナカイラ,,株式会社,神奈川県,川崎市川崎区,小川町８番地３エクセレントシティ川崎１１０１,,14,131,2100023,,,2023-03-31,清算の結了等,,,2016-03-02,1,,,,,マナカイラ,0
1363,5040001054466,登記記録の閉鎖等,0,2023-04-07,2023-03-24,株式会社ビックワンゴルフ,,株式会社,千葉県,市原市,西広４丁目９番地５,,12,219,2900022,,,2023-03-24,清算の結了等,,,2015-10-05,1,,,,,ビックワンゴルフ,0
1376,5050002018493,登記記録の閉鎖等,0,2023-04-07,2023-04-03,有限会社鈴木屋本店,,有限会社,茨城県,猿島郡境町,１５５２番地,,08,546,3060433,,,2023-04-03,清算の結了等,,,2015-10-05,1,,,,,,0
1399,5110001024354,登記記録の閉鎖等,0,2023-04-07,2023-04-03,株式会社ティエルシー,,株式会社,新潟県,三条市,塚野目２１５３番地５,,15,204,9550055,,,2023-04-03,合併による解散等,3110001014191,令和５年４月１日新潟県三条市塚野目２１５３番地５株式会社ＳＡＮＫＡ（3110001014191）に合併し解散,2015-10-05,1,,,,,ティエルシー,0
1408,5120001037099,登記記録の閉鎖等,0,2023-04-07,2023-04-03,朝野設備工業株式会社,,株式会社,大阪府,大阪市浪速区,恵美須西２丁目１１番１６号,,27,111,5560003,,,2023-04-03,清算の結了等,,,2015-10-05,1,,,,,アサノセツビコウギョウ,0
1409,5120001046793,登記記録の閉鎖等,0,2023-04-07,2023-04-03,株式会社ビフレッシュ,,株式会社,大阪府,大阪市西区,北堀江２丁目１０番１６－３０４号,,27,106,5500014,,,2023-04-03,清算の結了等,,,2015-10-05,1,,,,,ビフレッシュ,0
1426,5120101022307,登記記録の閉鎖等,0,2023-04-07,2023-04-03,株式会社シーアール,,株式会社,大阪府,堺市西区,築港新町２丁４番,,27,144,5928331,,,2023-04-03,合併による解散等,9120101022311,令和５年４月１日大阪府堺市西区築港新町二丁４番中外プラント株式会社（9120101022311）に合併し解散,2015-10-05,1,,,,,シーアール,0
1444,5130002006325,登記記録の閉鎖等,0,2023-04-07,2023-04-03,安威造林有限会社,00037010,有限会社,京都府,京都市左京区,下鴨泉川町３６番地の３９,,26,103,6060807,,,2023-04-03,清算の結了等,,,2015-10-05,1,,,,,ヤスイゾウリン,0
1465,5180001031848,登記記録の閉鎖等,0,2023-04-07,2023-04-04,株式会社メルサ,,株式会社,愛知県,名古屋市中区,栄３丁目７番１３号,,23,106,4600008,,,2023-04-04,合併による解散等,5180001033068,令和５年４月１日名古屋市中村区名駅四丁目８番１８号名鉄都市開発株式会社（5180001033068）に合併し解散,2015-10-05,1,,,,,メルサ,0
1476,5180003016822,登記記録の閉鎖等,0,2023-04-07,2023-03-31,合同会社Ｔ＆Ｔ,,合同会社,愛知県,名古屋市中区,栄５丁目２６番３９号,,23,106,4600008,,,2023-03-31,清算の結了等,,,2016-01-15,1,,,,,ティーアンドティー,0
1489,5210005000713,登記記録の閉鎖等,0,2023-04-07,2023-04-03,ＤＭクラスター株式会社,,株式会社,福井県,坂井市,坂井町福島８字前波１番地５,,18,210,9190516,,,2023-04-03,合併による解散等,6210001003017,令和５年４月１日福井県坂井市坂井町福島８字前波１番地５チャンスメーカー株式会社（6210001003017）に合併し解散,2015-10-05,1,,,,,ディーエムクラスター,0
1490,5220005004556,登記記録の閉鎖等,0,2023-04-07,2023-03-31,七尾西地区開発事業協同組合,,その他の設立登記法人,石川県,七尾市,阿良町１０６番地３５,,17,202,9260807,,,2023-03-31,清算の結了等,,,2015-10-05,1,,,,,ナナオニシチクカイハツ,0
1495,5240005006848,登記記録の閉鎖等,0,2023-04-07,2023-04-03,佐伯中央農業協同組合,,その他の設立登記法人,広島県,廿日市市,宮内４４７３番地の１,,34,213,7380034,,,2023-04-03,合併による解散等,3240005015553,令和５年４月３日広島県安芸郡海田町窪町８番８号安芸農業協同組合（2240005010134）と広島県呉市西中央一丁目２番２５号呉農業協同組合（1240005006430）と広島県東広島市西条栄町１０番３５号広島中央農業協同組合（9240005003718）と広島県東広島市安芸津町三津４２５８番地１芸南農業協同組合（9240005004063）と広島県三原市皆実四丁目７番２８号三原農業協同組合（9240005011910）と広島県安芸高田市吉田町常友１２１０番地広島北部農業協同組合（1240005004954）と広島県三次市十日市東三丁目１番１号三次農業協同組合（7240005004651）と広島県庄原市西本町二丁目１４番１号庄原農業協同組合（9240005005202）と合併して広島県東広島市西条栄町１０番３５号ひろしま農業協同組合（3240005015553）を設立し解散,2015-10-05,1,,,,,サエキチュウオウ,0
1497,5250005006005,登記記録の閉鎖等,0,2023-04-07,2023-03-31,医療法人三井内科医院,,その他の設立登記法人,山口県,岩国市,尾津町２丁目１８番８号,,35,208,7400032,,,2023-03-31,清算の結了等,,,2015-10-05,1,,,,,ミツイナイカイイン,0
1506,5290002032322,登記記録の閉鎖等,0,2023-04-07,2023-04-03,有限会社ダブルウィン,,有限会社,福岡県,福岡市南区,長丘２丁目２７番４１号,,40,134,8150075,,,2023-04-03,合併による解散等,9290001039694,令和５年４月１日福岡市南区長丘二丁目２７番４１号株式会社ウッドビレッジ（9290001039694）に合併し解散,2015-10-05,1,,,,,ダブルウィン,0
1529,5370003005459,登記記録の閉鎖等,0,2023-04-07,2023-04-03,合同会社ＫＯＴＯ,,合同会社,宮城県,仙台市青葉区,中山１丁目２０番２７号,,04,101,9810952,,,2023-04-03,清算の結了等,,,2021-10-27,1,,,,,コト,0
1536,5380005010514,登記記録の閉鎖等,0,2023-04-07,2023-04-03,一般社団法人福島新未来総合研究所,,その他の設立登記法人,福島県,郡山市,方八町２丁目１３番９号,,07,203,9638811,,,2023-04-03,合併による解散等,3380005010945,令和５年４月１日福島県郡山市静町１９番２号一般社団法人キャリア支援機構（3380005010945）に合併し解散,2015-10-05,1,,,,,フクシマシンミライソウゴウケンキュウジョ,0
1576,6010003036266,登記記録の閉鎖等,0,2023-04-07,2023-03-29,合同会社Ｌｉｍｉｎａｌ　Ｓｐａｃｅ,,合同会社,東京都,千代田区,神田須田町１丁目３番地９ＰＭＯ神田万世橋５Ｆ,,13,101,1010041,,,2023-03-29,清算の結了等,,,2021-11-10,1,,,,,リミナルスペース,0
1584,6010405016832,登記記録の閉鎖等,0,2023-04-07,2023-03-28,きよみ一般社団法人,,その他の設立登記法人,東京都,港区,北青山１丁目２番３号,,13,103,1070061,,,2023-03-28,清算の結了等,,,2018-06-22,1,,,,,キヨミ,0
1602,6011001016581,登記記録の閉鎖等,0,2023-04-07,2023-04-03,株式会社ＣＳローン保証,,株式会社,東京都,豊島区,東池袋３丁目１番１号,,13,116,1700013,,,2023-04-03,合併による解散等,2013301002884,令和５年４月１日東京都豊島区東池袋三丁目１番１号株式会社クレディセゾン（2013301002884）に合併し解散,2015-10-05,1,,,,,シーエスローンホショウ,0
1640,6012702013611,登記記録の閉鎖等,0,2023-04-07,2023-04-04,有限会社桜化工品企画,,有限会社,東京都,小平市,花小金井６丁目４０番２４号,,13,211,1870002,,,2023-04-04,清算の結了等,,,2015-10-05,1,,,,,サクラカコウヒンキカク,0
1664,6021002028526,登記記録の閉鎖等,0,2023-04-07,2023-04-03,有限会社ホーマ,,有限会社,神奈川県,相模原市緑区,二本松１丁目１番１２号インサイド・ビル２階Ａ,,14,151,2520137,,,2023-04-03,合併による解散等,5021001036547,令和５年４月１日神奈川県平塚市馬入本町１３番１１号株式会社ザ・サンパワー（5021001036547）に合併し解散,2015-10-05,1,,,,,ホーマ,0
1672,6030002078778,登記記録の閉鎖等,0,2023-04-07,2023-03-29,有限会社１５９３－美可美,,有限会社,埼玉県,ふじみ野市,亀久保３丁目１２番３号,,11,245,3560051,,,2023-03-29,清算の結了等,,,2015-10-05,1,,,,,イチゴーキューサンミカミ,0
1673,6030002085048,登記記録の閉鎖等,0,2023-04-07,2023-04-03,有限会社岩井設備,,有限会社,埼玉県,越谷市,花田５丁目１５番地３９,,11,222,3430015,,,2023-04-03,清算の結了等,,,2015-10-05,1,,,,,イワイセツビ,0
1699,6070002022823,登記記録の閉鎖等,0,2023-04-07,2023-04-03,華興商事有限会社,,有限会社,群馬県,みどり市,大間々町大間々１３７０番地２,,10,212,3760101,,,2023-04-03,清算の結了等,,,2015-10-05,1,,,,,カコウショウジ,0
1707,6090002013498,登記記録の閉鎖等,0,2023-04-07,2023-04-03,有限会社内田建材,,有限会社,山梨県,韮崎市,穴山町７５７４番地,,19,207,4070263,,,2023-04-03,清算の結了等,,,2015-10-05,1,,,,,ウチダケンザイ,0
1708,6100001022507,登記記録の閉鎖等,0,2023-04-07,2023-03-31,株式会社丈長屋,,株式会社,長野県,飯田市,大通１丁目３３番地３,,20,205,3950056,,,2023-03-31,清算の結了等,,,2015-10-05,1,,,,,タケナガヤ,0
1738,6120101049150,登記記録の閉鎖等,0,2023-04-07,2023-04-04,すさみエネルギー株式会社,,株式会社,大阪府,泉南郡熊取町,大久保東１丁目５番１６号,,27,361,5900406,,,2023-04-04,清算の結了等,,,2015-10-05,1,,,,,スサミエネルギー,0
1741,6120901002102,登記記録の閉鎖等,0,2023-04-07,2023-04-03,マルイシ運輸株式会社,,株式会社,大阪府,茨木市,宮島２丁目１番２０号,,27,211,5670853,,,2023-04-03,合併による解散等,4120901009842,令和５年４月１日大阪府茨木市宮島二丁目１番２０号中山運送株式会社（4120901009842）に合併し解散,2015-10-05,1,,,,,マルイシウンユ,0
1751,6130003003262,登記記録の閉鎖等,0,2023-04-07,2023-04-03,合同会社まいづる広域観光公社,,合同会社,京都府,舞鶴市,字北吸１０３９番地の２,,26,202,6250080,,,2023-04-03,清算の結了等,,,2015-10-05,1,,,,,マイヅルコウイキカンコウコウシャ,0
1780,6180303003214,登記記録の閉鎖等,0,2023-04-07,2023-03-30,合同会社梅村ＢＰＳ,,合同会社,愛知県,岡崎市,山綱町字上中野１１－１７,,23,202,4443513,,,2023-03-30,清算の結了等,,,2015-10-05,1,,,,,ウメムラビーピーエス,0
1810,6290001057542,登記記録の閉鎖等,0,2023-04-07,2023-04-04,株式会社日之出運輸,,株式会社,福岡県,糟屋郡粕屋町,大字仲原１８２９番地１,,40,349,8112304,,,2023-04-04,合併による解散等,6260001024223,令和５年４月１日岡山市北区大内田８２２番地１株式会社日之出運輸（6260001024223）に合併し解散,2015-10-05,1,,,,,ヒノデウンユ,0
1848,6380002008725,登記記録の閉鎖等,0,2023-04-07,2023-04-03,有限会社亀田塗装店,,有限会社,福島県,郡山市,字下亀田２１番地の３４,,07,203,9638032,,,2023-04-03,清算の結了等,,,2015-10-05,1,,,,,カメダトソウテン,0
1872,7010001057453,登記記録の閉鎖等,0,2023-04-07,2023-03-31,松川商事株式会社,,株式会社,東京都,中央区,湊１丁目１２番５号,,13,102,1040043,,,2023-03-31,清算の結了等,,,2015-10-05,1,,,,,マツカワショウジ,0
1901,7010403023623,登記記録の閉鎖等,0,2023-04-07,2023-03-27,合同会社ＵＲＦＭＰ２,,合同会社,東京都,港区,虎ノ門５丁目１番４号,,13,103,1050001,,,2023-03-27,清算の結了等,,,2020-09-01,1,,,,,ユーアールエフエムピーツー,0
1909,7010901023819,登記記録の閉鎖等,0,2023-04-07,2023-03-31,アールエムアドバイザリー株式会社,,株式会社,東京都,世田谷区,代田２丁目７番２０号,,13,112,1550033,,,2023-03-31,清算の結了等,,,2015-10-05,1,,,,,アールエムアドバイザリー,0
1910,7010901028272,登記記録の閉鎖等,0,2023-04-07,2023-04-03,環工業株式会社,,株式会社,東京都,世田谷区,太子堂１丁目１２番２７号コンフォートテラス１００５号,,13,112,1540004,,,2023-04-03,清算の結了等,,,2015-10-05,1,,,,,カンコウギョウ,0
1923,7011101014724,登記記録の閉鎖等,0,2023-04-07,2023-04-03,東洋合成株式会社,,株式会社,東京都,中野区,大和町３丁目４３番３号、ラビアン大和Ｂ１,,13,114,1650034,,,2023-04-03,合併による解散等,1011201000621,令和５年４月１日東京都中野区大和町三丁目４３番３号、ラビアン大和Ｂ１ＫＳＭ株式会社（1011201000621）に合併し解散,2015-10-05,1,,,,,トウヨウゴウセイ,0
1936,7011402018003,登記記録の閉鎖等,0,2023-04-07,2023-04-04,ビーアンドエーテクノサービス有限会社,,有限会社,東京都,板橋区,大谷口２丁目５３番１６号,,13,119,1730035,,,2023-04-04,清算の結了等,,,2015-10-05,1,,,,,ビーアンドエーテクノサービス,0
1956,7012801001573,登記記録の閉鎖等,0,2023-04-07,2023-03-31,株式会社フレサ,,株式会社,東京都,立川市,富士見町７丁目２８番１７号,,13,202,1900013,,,2023-03-31,合併による解散等,4012801000999,令和５年３月３１日東京都立川市富士見町七丁目２８番１７号株式会社たからや（4012801000999）に合併し解散,2015-10-05,1,,,,,フレサ,0
1969,7020002059332,登記記録の閉鎖等,0,2023-04-07,2023-03-31,有限会社アークプランニング,,有限会社,神奈川県,横浜市泉区,中田西３丁目２７番３８号,,14,116,2450015,,,2023-03-31,清算の結了等,,,2015-10-05,1,,,,,アークプランニング,0
1992,7050001032345,登記記録の閉鎖等,0,2023-04-07,2023-04-03,株式会社高橋製作所,,株式会社,茨城県,桜川市,西小塙１８１１番地の２,,08,231,3091451,,,2023-04-03,清算の結了等,,,2015-10-05,1,,,,,タカハシセイサクジョ,0
2003,7070002028365,登記記録の閉鎖等,0,2023-04-07,2023-04-03,有限会社太田東薬局,,有限会社,群馬県,太田市,西本町３９番１７号,,10,205,3730033,,,2023-04-03,合併による解散等,2070001018859,令和５年４月１日群馬県太田市大島町１２５番地１の２株式会社太田中央薬局（2070001018859）に合併し解散,2015-10-05,1,,,,,オオタヒガシヤッキョク,0
2007,7080101011898,登記記録の閉鎖等,0,2023-04-07,2023-04-03,株式会社矢内原総研,,株式会社,静岡県,富士宮市,粟倉２４８０番地の１,,22,207,4180011,,,2023-04-03,清算の結了等,,,2015-10-05,1,,,,,ヤナイハラソウケン,0
2026,7110002024657,登記記録の閉鎖等,0,2023-04-07,2023-04-03,株式会社しみず屋,,株式会社,新潟県,上越市,板倉区山部４８番地１,,15,222,9440121,,,2023-04-03,合併による解散等,5110001036052,令和５年４月１日新潟県上越市板倉区山部字西沖１１０３株式会社しみず屋（5110001036052）に合併し解散,2015-10-05,1,,,,,シミズヤ,0
2028,7110002034508,登記記録の閉鎖等,0,2023-04-07,2023-04-03,有限会社さど調剤・さくら薬局,,有限会社,新潟県,佐渡市,東大通８８０番地２,,15,224,9521307,,,2023-04-03,合併による解散等,5110001029015,令和５年４月１日新潟県佐渡市下新穂９４番地２株式会社アイサ（5110001029015）に合併し解散,2015-10-05,1,,,,,サドチョウザイサクラヤッキョク,0
2033,7120001118806,登記記録の閉鎖等,0,2023-04-07,2023-04-03,株式会社ウォーター・ライト,,株式会社,大阪府,大阪市中央区,本町橋２番地２３,,27,128,5400029,,,2023-04-03,清算の結了等,,,2015-10-05,1,,,,,,0
2058,7130002015828,登記記録の閉鎖等,0,2023-04-07,2023-04-03,有限会社エムアンドワイ,,有限会社,京都府,京都市右京区,嵯峨大覚寺門前六道町６３の１,,26,108,6168417,,,2023-04-03,清算の結了等,,,2015-10-05,1,,,,,エムアンドワイ,0
2080,7180001084555,登記記録の閉鎖等,0,2023-04-07,2023-04-03,日本化繊株式会社,,株式会社,愛知県,一宮市,木曽川町外割田一の通り７１番地,,23,203,4930007,,,2023-04-03,合併による解散等,8180001084265,令和５年４月１日愛知県一宮市篭屋五丁目１番１号株式会社ソトー（8180001084265）に合併し解散,2015-10-05,1,,,,,ニホンカセン,0
2105,7230001016528,登記記録の閉鎖等,0,2023-04-07,2023-03-31,株式会社ビジョンフーズ,,株式会社,北海道,札幌市北区,麻生町５丁目５番２号,,01,102,0010045,,,2023-03-31,合併による解散等,8430001030441,令和５年３月３１日札幌市北区麻生町五丁目５番２号株式会社アップグレード（8430001030441）に合併し解散,2016-07-05,1,,,,,ビジョンフーズ,0
2110,7240005004651,登記記録の閉鎖等,0,2023-04-07,2023-04-03,三次農業協同組合,,その他の設立登記法人,広島県,三次市,十日市東３丁目１番１号,,34,209,7280013,,,2023-04-03,合併による解散等,3240005015553,令和５年４月３日広島県廿日市市宮内４４７３番地の１佐伯中央農業協同組合（5240005006848）と広島県安芸郡海田町窪町８番８号安芸農業協同組合（2240005010134）と広島県呉市西中央一丁目２番２５号呉農業協同組合（1240005006430）と広島県東広島市西条栄町１０番３５号広島中央農業協同組合（9240005003718）と広島県東広島市安芸津町三津４２５８番地１芸南農業協同組合（9240005004063）と広島県三原市皆実四丁目７番２８号三原農業協同組合（9240005011910）と広島県安芸高田市吉田町常友１２１０番地広島北部農業協同組合（1240005004954）と広島県庄原市西本町二丁目１４番１号庄原農業協同組合（9240005005202）と合併して広島県東広島市西条栄町１０番３５号ひろしま農業協同組合（3240005015553）を設立し解散,2015-10-05,1,,,,,ミヨシ,0
2147,7370001007348,登記記録の閉鎖等,0,2023-04-07,2023-04-04,株式会社エヌアールイー東北サービス,,株式会社,宮城県,仙台市青葉区,中央１丁目１番１号,,04,101,9800021,,,2023-04-04,合併による解散等,1010501004159,令和５年４月１日東京都荒川区西尾久七丁目５５番３号株式会社エヌアールイーサービス（1010501004159）に合併し解散,2015-10-05,1,,,,,エヌアールイートウホクサービス,0
2163,7420001009289,登記記録の閉鎖等,0,2023-04-07,2023-04-03,東北システム株式会社,,株式会社,青森県,弘前市,大字神田１丁目２番地の１４,,02,202,0368061,,,2023-04-03,合併による解散等,5420001009282,令和５年４月１日青森県弘前市大字神田一丁目３番地の１東北化学薬品株式会社（5420001009282）に合併し解散,2015-10-05,1,,,,,トウホクシステム,0
2171,7460302001552,登記記録の閉鎖等,0,2023-04-07,2023-04-04,森中古車部品有限会社,,有限会社,北海道,網走市,鱒浦３丁目４番２６号,,01,211,0993119,,,2023-04-04,清算の結了等,,,2015-10-05,1,,,,,モリチュウコシャブヒン,0
2189,8010001073986,登記記録の閉鎖等,0,2023-04-07,2023-03-30,エムピーディーシー・ガボン株式会社,,株式会社,東京都,千代田区,丸の内２丁目３番１号,,13,101,1000005,,,2023-03-30,清算の結了等,,,2015-10-05,1,,,,,エムピーディーシーガボン,0
2201,8010003013107,登記記録の閉鎖等,0,2023-04-07,2023-03-30,合同会社アクア・スリー,,合同会社,東京都,千代田区,丸の内２丁目１番１号,,13,101,1000005,,,2023-03-30,清算の結了等,,,2015-10-05,1,,,,,アクアスリー,0
2203,8010005013864,登記記録の閉鎖等,0,2023-04-07,2023-03-27,税理士法人樋口税務事務所,00050077,その他の設立登記法人,東京都,港区,新橋２丁目２０番１５号,,13,103,1050004,,,2023-03-27,清算の結了等,,,2015-10-05,1,,,,,ヒグチゼイムジムショ,0
2226,8010403023622,登記記録の閉鎖等,0,2023-04-07,2023-03-27,合同会社ＵＲＦＭＰ１,,合同会社,東京都,港区,虎ノ門５丁目１番４号,,13,103,1050001,,,2023-03-27,清算の結了等,,,2020-09-01,1,,,,,ユーアールエフエムピーワン,0
2229,8010405013860,登記記録の閉鎖等,0,2023-04-07,2023-04-03,アップル特定目的会社,,その他の設立登記法人,東京都,千代田区,丸の内３丁目１番１号東京共同会計事務所内,,13,101,1000005,,,2023-04-03,清算の結了等,,,2015-10-05,1,,,,,アップル,0
2247,8011002013691,登記記録の閉鎖等,0,2023-04-07,2023-03-31,株式会社リーコーポレーション,,株式会社,東京都,渋谷区,宇田川町３３番１号,,13,113,1500042,,,2023-03-31,合併による解散等,3010101001075,令和５年３月３１日東京都渋谷区道玄坂一丁目２０番８号株式会社グランド東京（3010101001075）に合併し解散,2015-10-05,1,,,,,リーコーポレーション,0
2248,8011003014045,登記記録の閉鎖等,0,2023-04-07,2023-03-31,合同会社Ｔｒｕｔｈ,,合同会社,東京都,目黒区,下目黒１丁目２－２１泰山堂ビル３Ｆ,,13,110,1530064,,,2023-03-31,清算の結了等,,,2022-01-31,1,,,,,トゥルース,0
2279,8020001030763,登記記録の閉鎖等,0,2023-04-07,2023-03-31,株式会社ローズホテルズ・インターナショナル,,株式会社,神奈川県,横浜市中区,山下町７７番地,,14,104,2310023,,,2023-03-31,合併による解散等,2020001026957,令和５年３月３１日横浜市中区山下町１８５番地株式会社重慶飯店（2020001026957）に合併し解散,2015-10-05,1,,,,,ローズホテルズインターナショナル,0
2282,8020001087861,登記記録の閉鎖等,0,2023-04-07,2023-03-31,新建電株式会社,,株式会社,神奈川県,横浜市金沢区,富岡西４丁目６３番１９号,,14,108,2360052,,,2023-03-31,清算の結了等,,,2015-10-05,1,,,,,シンケンデン,0
2294,8020005010217,登記記録の閉鎖等,0,2023-04-07,2023-04-03,公益財団法人横浜市建築助成公社,,その他の設立登記法人,神奈川県,横浜市神奈川区,栄町８番地１,,14,102,2210052,,,2023-04-03,合併による解散等,4020005009675,令和５年４月１日横浜市中区相生町三丁目５６番地１ＫＤＸ横浜関内ビル内公益財団法人横浜市建築保全公社（4020005009675）に合併し解散,2015-10-05,1,,,,,ヨコハマシケンチクジョセイコウシャ,0
2319,8060001028597,登記記録の閉鎖等,0,2023-04-07,2023-04-03,株式会社ヒューマンアジャストｐｌｕｓ,,株式会社,東京都,新宿区,西新宿２丁目７番地１小田急第一生命ビル２５階,,13,104,1600023,,,2023-04-03,合併による解散等,9030001028871,令和５年４月１日東京都新宿区西新宿二丁目７番地１小田急第一生命ビル２５階株式会社ヒューマンアジャスト（9030001028871）に合併し解散,2016-08-30,1,,,,,ヒューマンアジャストプラス,0
2342,8120001064669,登記記録の閉鎖等,0,2023-04-07,2023-04-03,三和金属箔粉株式会社,,株式会社,大阪府,大阪市西区,立売堀１丁目２番１２号,,27,106,5500012,,,2023-04-03,合併による解散等,8120001045116,令和５年４月１日大阪市西区立売堀一丁目２番１２号本町平成ビル大和金属粉工業株式会社（8120001045116）に合併し解散,2015-10-05,1,,,,,サンワキンゾクハクフン,0
2357,8120101049149,登記記録の閉鎖等,0,2023-04-07,2023-04-04,紀伊ソーラー株式会社,,株式会社,大阪府,泉南郡熊取町,大久保東１丁目５番１６号,,27,361,5900406,,,2023-04-04,清算の結了等,,,2015-10-05,1,,,,,キイソーラー,0
2364,8130001000805,登記記録の閉鎖等,0,2023-04-07,2023-04-04,材源製材株式会社,,株式会社,京都府,京都市右京区,嵯峨柳田町６番地,,26,108,6168363,,,2023-04-04,清算の結了等,,,2015-10-05,1,,,,,ザイゲンセイザイ,0
2366,8130001029836,登記記録の閉鎖等,0,2023-04-07,2023-04-03,京都開発フジモト工業株式会社,,株式会社,京都府,京都市南区,久世大築町２７番地,,26,107,6018202,,,2023-04-03,清算の結了等,,,2015-10-05,1,,,,,キョウトカイハツフジモトコウギョウ,0
2380,8180001136330,登記記録の閉鎖等,0,2023-04-07,2023-04-03,株式会社ＫＡＫＥＨＡＳＨＩ,,株式会社,愛知県,名古屋市東区,葵２丁目９番３０号,,23,102,4610004,,,2023-04-03,合併による解散等,1080001023347,令和５年３月３１日静岡市葵区鷹匠三丁目１２番８号株式会社ＫＡＫＥＨＡＳＨＩ（1080001023347）に合併し解散,2019-05-10,1,,,,,カケハシ,0
2403,8230001003483,登記記録の閉鎖等,0,2023-04-07,2023-04-03,ワイディシステム株式会社,,株式会社,富山県,富山市,奥井町１７番３８号,,16,201,9300846,,,2023-04-03,合併による解散等,8230001001792,令和５年４月１日富山市奥井町１７番３８号株式会社電陽社（8230001001792）に合併し解散,2015-10-05,1,,,,,ワイディシステム,0
2411,8250005005656,登記記録の閉鎖等,0,2023-04-07,2023-03-27,天理教植松分教会,,その他の設立登記法人,山口県,光市,大字小周防字上植松２７４３番地,,35,210,7430061,,,2023-03-27,合併による解散等,5320005007722,令和５年３月２４日大分県中津市大字下池永５１９番地天理教中津大教会（5320005007722）に合併し解散,2015-10-05,1,,,,,,0
2424,8290001098650,登記記録の閉鎖等,0,2023-04-07,2023-03-31,株式会社九州酒販,,株式会社,福岡県,福岡市南区,三宅２丁目１５番２１号,,40,134,8111344,,,2023-03-31,合併による解散等,1290001074682,令和５年３月３１日福岡市南区西長住三丁目３８番１２号やまと物産株式会社（1290001074682）に合併し解散,2022-08-22,1,,,,,キュウシュウシュハン,0
2426,8290002035966,登記記録の閉鎖等,0,2023-04-07,2023-03-31,有限会社アイシン機械,,有限会社,福岡県,糟屋郡粕屋町,酒殿２丁目２１番１０号,,40,349,8112303,,,2023-03-31,清算の結了等,,,2015-10-05,1,,,,,アイシンキカイ,0
2437,8290801011746,登記記録の閉鎖等,0,2023-04-07,2023-04-04,株式会社スピナビルサービス,,株式会社,福岡県,北九州市八幡東区,平野２丁目１１番１号,,40,108,8050062,,,2023-04-04,合併による解散等,6290801009239,令和５年４月１日北九州市八幡東区平野二丁目１１番１号株式会社スピナ（6290801009239）に合併し解散,2015-10-05,1,,,,,スピナビルサービス,0
2441,8330003009279,登記記録の閉鎖等,0,2023-04-07,2023-04-03,合同会社熊本アクセス,,合同会社,熊本県,上益城郡益城町,大字広崎１３５８－６,,43,443,8612236,,,2023-04-03,清算の結了等,,,2022-03-08,1,,,,,クマモトアクセス,0
2479,8500001012481,登記記録の閉鎖等,0,2023-04-07,2023-04-04,株式会社ウエストライン,,株式会社,愛媛県,今治市,南日吉町２丁目１番３６号,,38,202,7940056,,,2023-04-04,清算の結了等,,,2015-10-05,1,,,,,ウエストライン,0
2488,9010001180641,登記記録の閉鎖等,0,2023-04-07,2023-04-03,ジャパン・インフラストラクチャー・イニシアティブ株式会社,,株式会社,東京都,千代田区,丸の内２丁目１番１号,,13,101,1000005,,,2023-04-03,合併による解散等,4010001049866,令和５年４月１日東京都千代田区丸の内一丁目５番１号三菱ＨＣキャピタル株式会社（4010001049866）に合併し解散,2017-01-06,1,,,,,ジャパンインフラストラクチャーイニシアティブ,0
2490,9010001189022,登記記録の閉鎖等,0,2023-04-07,2023-03-30,株式会社ＭＫＭパートナーズ,,株式会社,東京都,中央区,日本橋３丁目２番１４号新槇町ビル別館第一,,13,102,1030027,,,2023-03-30,清算の結了等,,,2018-01-22,1,,,,,エムケイエムパートナーズ,0
2505,9010401023623,登記記録の閉鎖等,0,2023-04-07,2023-04-03,三菱ＨＣキャピタルオートリース株式会社,,株式会社,東京都,港区,西新橋１丁目３番１号,,13,103,1050003,,,2023-04-03,合併による解散等,2010401028728,令和５年４月１日東京都港区芝五丁目３４番７号三菱オートリース株式会社（2010401028728）に合併し解散,2015-10-05,1,,,,,ミツビシエイチシーキャピタルオートリース,0
2506,9010401093071,登記記録の閉鎖等,0,2023-04-07,2023-03-27,株式会社ＣＲＡＦＴＡＲ,,株式会社,東京都,港区,赤坂５丁目２番２０号,,13,103,1070052,,,2023-03-27,清算の結了等,,,2015-10-05,1,,,,,クラフター,0
2563,9013301028213,登記記録の閉鎖等,0,2023-04-07,2023-04-04,株式会社アンビエント,,株式会社,東京都,豊島区,巣鴨２丁目４番２号,,13,116,1700002,,,2023-04-04,合併による解散等,9011101061459,令和５年４月１日東京都新宿区西新宿八丁目１１番１０号株式会社トラスト賃貸管理（9011101061459）に合併し解散,2015-10-05,1,,,,,アンビエント,0
2566,9020001012265,登記記録の閉鎖等,0,2023-04-07,2023-04-03,株式会社ワールドプラン,,株式会社,神奈川県,横浜市緑区,中山１丁目２２番２号,,14,113,2260019,,,2023-04-03,合併による解散等,3020001012097,令和５年３月３１日横浜市緑区中山一丁目２６番３号株式会社マルクス（3020001012097）に合併し解散,2015-10-05,1,,,,,ワールドプラン,0
2581,9021002045394,登記記録の閉鎖等,0,2023-04-07,2023-03-30,有限会社中島メインテナンスサービス,,有限会社,神奈川県,海老名市,中野１丁目３５番３８号,,14,215,2430425,,,2023-03-30,清算の結了等,,,2015-10-05,1,,,,,ナカジマメインテナンスサービス,0
2600,9040002049214,登記記録の閉鎖等,0,2023-04-07,2023-03-29,有限会社八百廣商店,00020239,有限会社,千葉県,松戸市,松戸７４２番地６,,12,207,2710092,,,2023-03-29,清算の結了等,,,2015-10-05,1,,,,,ヤオヒロショウテン,0
2619,9110001006638,登記記録の閉鎖等,0,2023-04-07,2023-04-03,株式会社フジ・エンバイロ,,株式会社,新潟県,新潟市東区,津島屋３丁目２０８番地,,15,102,9500801,,,2023-04-03,合併による解散等,7110001004800,令和５年４月１日新潟市東区津島屋三丁目２０８番地株式会社不二産業（7110001004800）に合併し解散,2015-10-05,1,,,,,フジエンバイロ,0
2683,9190001016200,登記記録の閉鎖等,0,2023-04-07,2023-04-03,株式会社ポス,,株式会社,三重県,四日市市,朝日町３番２号,,24,202,5100061,,,2023-04-03,合併による解散等,5190001016138,令和５年４月１日三重県四日市市朝日町３番２号株式会社ベイス（5190001016138）に合併し解散,2015-10-05,1,,,,,ポス,0
2700,9240005003718,登記記録の閉鎖等,0,2023-04-07,2023-04-03,広島中央農業協同組合,,その他の設立登記法人,広島県,東広島市,西条栄町１０番３５号,,34,212,7390015,,,2023-04-03,合併による解散等,3240005015553,令和５年４月３日広島県廿日市市宮内４４７３番地の１佐伯中央農業協同組合（5240005006848）と広島県安芸郡海田町窪町８番８号安芸農業協同組合（2240005010134）と広島県呉市西中央一丁目２番２５号呉農業協同組合（1240005006430）と広島県東広島市安芸津町三津４２５８番地１芸南農業協同組合（9240005004063）と広島県三原市皆実四丁目７番２８号三原農業協同組合（9240005011910）と広島県安芸高田市吉田町常友１２１０番地広島北部農業協同組合（1240005004954）と広島県三次市十日市東三丁目１番１号三次農業協同組合（7240005004651）と広島県庄原市西本町二丁目１４番１号庄原農業協同組合（9240005005202）と合併して広島県東広島市西条栄町１０番３５号ひろしま農業協同組合（3240005015553）を設立し解散,2015-10-05,1,,,,,ヒロシマチュウオウ,0
2701,9240005004063,登記記録の閉鎖等,0,2023-04-07,2023-04-03,芸南農業協同組合,,その他の設立登記法人,広島県,東広島市,安芸津町三津４２５８番地１,,34,212,7392402,,,2023-04-03,合併による解散等,3240005015553,令和５年４月３日広島県廿日市市宮内４４７３番地の１佐伯中央農業協同組合（5240005006848）と広島県安芸郡海田町窪町８番８号安芸農業協同組合（2240005010134）と広島県呉市西中央一丁目２番２５号呉農業協同組合（1240005006430）と広島県東広島市西条栄町１０番３５号広島中央農業協同組合（9240005003718）と広島県三原市皆実四丁目７番２８号三原農業協同組合（9240005011910）と広島県安芸高田市吉田町常友１２１０番地広島北部農業協同組合（1240005004954）と広島県三次市十日市東三丁目１番１号三次農業協同組合（7240005004651）と広島県庄原市西本町二丁目１４番１号庄原農業協同組合（9240005005202）と合併して広島県東広島市西条栄町１０番３５号ひろしま農業協同組合（3240005015553）を設立し解散,2015-10-05,1,,,,,ゲイナン,0
2704,9240005005202,登記記録の閉鎖等,0,2023-04-07,2023-04-03,庄原農業協同組合,,その他の設立登記法人,広島県,庄原市,西本町２丁目１４番１号,,34,210,7270013,,,2023-04-03,合併による解散等,3240005015553,令和５年４月３日広島県廿日市市宮内４４７３番地の１佐伯中央農業協同組合（5240005006848）と広島県安芸郡海田町窪町８番８号安芸農業協同組合（2240005010134）と広島県呉市西中央一丁目２番２５号呉農業協同組合（1240005006430）と広島県東広島市西条栄町１０番３５号広島中央農業協同組合（9240005003718）と広島県東広島市安芸津町三津４２５８番地１芸南農業協同組合（9240005004063）と広島県三原市皆実四丁目７番２８号三原農業協同組合（9240005011910）と広島県安芸高田市吉田町常友１２１０番地広島北部農業協同組合（1240005004954）と広島県三次市十日市東三丁目１番１号三次農業協同組合（7240005004651）と合併して広島県東広島市西条栄町１０番３５号ひろしま農業協同組合（3240005015553）を設立し解散,2015-10-05,1,,,,,ショウバラ,0
2705,9240005011910,登記記録の閉鎖等,0,2023-04-07,2023-04-03,三原農業協同組合,,その他の設立登記法人,広島県,三原市,皆実４丁目７番２８号,,34,204,7230052,,,2023-04-03,合併による解散等,3240005015553,令和５年４月３日広島県廿日市市宮内４４７３番地の１佐伯中央農業協同組合（5240005006848）と広島県安芸郡海田町窪町８番８号安芸農業協同組合（2240005010134）と広島県呉市西中央一丁目２番２５号呉農業協同組合（1240005006430）と広島県東広島市西条栄町１０番３５号広島中央農業協同組合（9240005003718）と広島県東広島市安芸津町三津４２５８番地１芸南農業協同組合（9240005004063）と広島県安芸高田市吉田町常友１２１０番地広島北部農業協同組合（1240005004954）と広島県三次市十日市東三丁目１番１号三次農業協同組合（7240005004651）と広島県庄原市西本町二丁目１４番１号庄原農業協同組合（9240005005202）と合併して広島県東広島市西条栄町１０番３５号ひろしま農業協同組合（3240005015553）を設立し解散,2015-10-05,1,,,,,ミハラ,0
2707,9250005005127,登記記録の閉鎖等,0,2023-04-07,2023-03-30,学校法人徳山教育財団,,その他の設立登記法人,山口県,周南市,学園台８４３の４の２番地,,35,215,7450000,,,2023-03-30,清算の結了等,,,2015-10-05,1,,,,,トクヤマキョウイクザイダン,0
2716,9260003003445,登記記録の閉鎖等,0,2023-04-07,2023-04-04,合同会社デュアルリンク,,合同会社,岡山県,倉敷市,昭和１丁目１－３８,,33,202,7100057,,,2023-04-04,清算の結了等,,,2021-02-04,1,,,,,デュアルリンク,0
2718,9270005005190,登記記録の閉鎖等,0,2023-04-07,2023-04-03,特定非営利活動法人万葉のふるさと国府創生会,,その他の設立登記法人,鳥取県,鳥取市,国府町宮下１９２番地２,,31,201,6800151,,,2023-04-03,清算の結了等,,,2015-10-05,1,,,,,マンヨウノフルサトコクフソウセイカイ,0
2732,9310001014315,登記記録の閉鎖等,0,2023-04-07,2023-03-31,株式会社ＮＫＫ,,株式会社,長崎県,佐世保市,白岳町１００４番地４,,42,202,8571164,,,2023-03-31,清算の結了等,,,2016-07-06,1,,,,,エヌケーケー,0
2737,9340001017182,登記記録の閉鎖等,0,2023-04-07,2023-04-05,株式会社薩摩川内プロジェクト,00098897,株式会社,鹿児島県,薩摩川内市,永利町２９４３番地１,,46,215,8950005,,,2023-04-05,清算の結了等,,,2015-10-05,1,,,,,サツマセンダイプロジェクト,0
