sequenceNumber,corporateNumber,process,correct,updateDate,changeDate,name,nameImageId,kind,prefectureName,cityName,streetNumber,addressImageId,prefectureCode,cityCode,postCode,addressOutside,addressOutsideImageId,closeDate,closeCause,successorCorporateNumber,changeCause,assignmentDate,latest,enName,enPrefectureName,enCityName,enAddressOutside,furigana,hihyoji
12,1010003021396,登記記録の閉鎖等,0,2023-04-25,2023-04-11,合同会社インコグニート・ファシリティーズ,,合同会社,東京都,千代田区,神田錦町１丁目１４番市村ビル４Ｆ,,13,101,1010054,,,2023-04-11,清算の結了等,,,2015-10-05,1,,,,,インコグニートファシリティーズ,0
15,1010003034448,登記記録の閉鎖等,0,2023-04-25,2023-04-12,合同会社オルタナ３,,合同会社,東京都,千代田区,丸の内３丁目１番１号東京共同会計事務所内,,13,101,1000005,,,2023-04-12,清算の結了等,,,2021-03-23,1,,,,,オルタナスリー,0
22,1010401152677,登記記録の閉鎖等,0,2023-04-25,2023-04-06,株式会社ＮＩＣＨＴ,,株式会社,東京都,港区,浜松町２丁目２番１５号浜松町ダイヤビル２Ｆ,,13,103,1050013,,,2023-04-06,清算の結了等,,,2020-05-13,1,,,,,ニヒット,0
25,1010502008662,登記記録の閉鎖等,0,2023-04-25,2023-04-20,有限会社ニツポウ,,有限会社,東京都,台東区,根岸４丁目１５番１２－４０４号,,13,106,1100003,,,2023-04-20,清算の結了等,,,2015-10-05,1,,,,,ニッポウ,0
47,1011002025859,登記記録の閉鎖等,0,2023-04-25,2023-04-17,フォレストポイント有限会社,,有限会社,東京都,渋谷区,神宮前５丁目５番５号,,13,113,1500001,,,2023-04-17,清算の結了等,,,2015-10-05,1,,,,,フォレストポイント,0
50,1011102026071,登記記録の閉鎖等,0,2023-04-25,2023-04-21,有限会社戸谷技術士事務所,,有限会社,東京都,新宿区,新宿３丁目１１番１２号,,13,104,1600022,,,2023-04-21,清算の結了等,,,2015-10-05,1,,,,,トタニギジュツシジムショ,0
53,1011103011493,登記記録の閉鎖等,0,2023-04-25,2023-04-17,ロチャン合同会社,,合同会社,東京都,新宿区,百人町２丁目１８－１５,,13,104,1690073,,,2023-04-17,清算の結了等,,,2022-02-22,1,,,,,ロチャン,0
54,1011201024281,登記記録の閉鎖等,0,2023-04-25,2023-04-17,明住化學工業株式会社,,株式会社,東京都,中野区,沼袋町１９５番地,,13,114,1640000,,,2023-04-17,清算の結了等,,,2022-12-14,1,,,,,メイジュウカガクコウギョウ,0
56,1011301025808,登記記録の閉鎖等,0,2023-04-25,2023-04-20,ＷａｖｙＢａｂｙ株式会社,,株式会社,東京都,杉並区,和泉２丁目１３番３４号メゾン永福３０２号室,,13,115,1680063,,,2023-04-20,清算の結了等,,,2020-03-19,1,,,,,ウェイビーベイビー,0
63,1011801015283,登記記録の閉鎖等,0,2023-04-25,2023-04-24,エクシーズ株式会社,,株式会社,東京都,足立区,千住仲町１１番１２号,,13,121,1200036,,,2023-04-24,清算の結了等,,,2015-10-05,1,,,,,エクシーズ,0
64,1011802013971,登記記録の閉鎖等,0,2023-04-25,2023-04-19,有限会社島田製作所,,有限会社,東京都,足立区,千住東２丁目２１番１号,,13,121,1200025,,,2023-04-19,清算の結了等,,,2015-10-05,1,,,,,シマダセイサクショ,0
102,1050001039841,登記記録の閉鎖等,0,2023-04-25,2023-04-18,株式会社つくば型枠,,株式会社,茨城県,つくば市,花畑３丁目３番地２２,,08,220,3003261,,,2023-04-18,清算の結了等,,,2015-10-05,1,,,,,ツクバカタワク,0
114,1070005007677,登記記録の閉鎖等,0,2023-04-25,2023-04-18,沼尾荷付場牧野農業協同組合,,その他の設立登記法人,群馬県,吾妻郡中之条町,大字入山３９８６番地,,10,421,3771701,,,2023-04-18,清算の結了等,,,2015-10-05,1,,,,,ヌマオニツケバボクヤ,0
115,1080002004932,登記記録の閉鎖等,0,2023-04-25,2023-04-24,富士貴通商有限会社,,有限会社,静岡県,静岡市葵区,唐瀬３丁目６番３２号,,22,101,4200937,,,2023-04-24,清算の結了等,,,2015-10-05,1,,,,,フジキツウショウ,0
120,1080401005011,登記記録の閉鎖等,0,2023-04-25,2023-04-21,松本建工株式会社,,株式会社,静岡県,浜松市中区,寺島町２９２番地,,22,131,4300925,,,2023-04-21,清算の結了等,,,2015-10-05,1,,,,,マツモトケンコウ,0
121,1080401021256,登記記録の閉鎖等,0,2023-04-25,2023-04-21,浜松中央理化工業株式会社,,株式会社,静岡県,浜松市北区,初生町９１８番地の６,,22,135,4338112,,,2023-04-21,合併による解散等,8013301007424,令和５年４月１日東京都豊島区巣鴨一丁目４番１７号中央理化工業株式会社（8013301007424）に合併し解散,2016-01-14,1,,,,,ハママツチュウオウリカコウギョウ,0
127,1100002002850,登記記録の閉鎖等,0,2023-04-25,2023-04-18,有限会社太陽プリント社,,有限会社,長野県,長野市,大字高田５６３番地４,,20,201,3810034,,,2023-04-18,清算の結了等,,,2015-10-05,1,,,,,タイヨウプリントシャ,0
152,1120101047522,登記記録の閉鎖等,0,2023-04-25,2023-04-24,株式会社アヴァンティ,,株式会社,大阪府,泉佐野市,湊１丁目１番１号,,27,213,5980063,,,2023-04-24,清算の結了等,,,2015-10-05,1,,,,,,0
154,1120905003423,登記記録の閉鎖等,0,2023-04-25,2023-04-20,箕面市建設業協同組合,,その他の設立登記法人,大阪府,箕面市,西小路３丁目１番１１号,,27,220,5620003,,,2023-04-20,清算の結了等,,,2015-10-05,1,,,,,ミノオシケンセツギョウ,0
171,1140001031847,登記記録の閉鎖等,0,2023-04-25,2023-04-17,株式会社アドバンスト・マーク,,株式会社,東京都,新宿区,西新宿６丁目５番１号新宿アイランドタワー３５階,,13,104,1600023,,,2023-04-17,清算の結了等,,,2015-10-05,1,,,,,,0
182,1150001018380,登記記録の閉鎖等,0,2023-04-25,2023-04-21,Ｙ・Ｋフォレスト株式会社,,株式会社,奈良県,吉野郡上北山村,大字河合３４番地,,29,451,6393701,,,2023-04-21,清算の結了等,,,2015-10-05,1,,,,,ワイケイフォレスト,0
189,1180001021506,登記記録の閉鎖等,0,2023-04-25,2023-04-03,株式会社衣商,,株式会社,愛知県,名古屋市中村区,烏森町６丁目９３番地,,23,105,4530855,,,2023-04-03,合併による解散等,7180002058517,令和５年４月１日名古屋市中川区八熊三丁目１３番５号株式会社衣商（7180002058517）に合併し解散,2015-10-05,1,,,,,イショウ,0
193,1180001137079,登記記録の閉鎖等,0,2023-04-25,2023-04-19,株式会社ギッシュＳ,,株式会社,愛知県,小牧市,大字村中１００４番地の２,,23,219,4850082,,,2023-04-19,清算の結了等,,,2019-06-27,1,,,,,ギッシュエス,0
198,1180003019003,登記記録の閉鎖等,0,2023-04-25,2023-04-14,合同会社河池路線,,合同会社,愛知県,名古屋市東区,赤塚町３番６号シャルマン１０５号室,,23,102,4610026,,,2023-04-14,清算の結了等,,,2018-06-07,1,,,,,カワイケロセン,0
203,1200001019464,登記記録の閉鎖等,0,2023-04-25,2023-04-03,濃飛西濃運輸株式会社,,株式会社,岐阜県,関市,池田町１番地,,21,205,5013247,,,2023-04-03,合併による解散等,7200001015755,令和５年４月１日岐阜県大垣市田口町１番地西濃運輸株式会社（7200001015755）に合併し解散　,2015-10-05,1,,,,,ノウヒセイノウウンユ,0
212,1260001005707,登記記録の閉鎖等,0,2023-04-25,2023-04-18,株式会社富士製本,,株式会社,岡山県,岡山市北区,今保９９番地,,33,101,7010145,,,2023-04-18,清算の結了等,,,2015-10-05,1,,,,,フジセイホン,0
237,1320002018049,登記記録の閉鎖等,0,2023-04-25,2023-04-19,有限会社益永造園,,有限会社,大分県,竹田市,大字菅生９９５番地１,,44,208,8796184,,,2023-04-19,清算の結了等,,,2015-10-05,1,,,,,マスナガゾウエン,0
244,1330003001176,登記記録の閉鎖等,0,2023-04-25,2023-04-14,合名会社丸善,,合名会社,熊本県,熊本市東区,若葉１丁目３９番２号,,43,102,8620903,,,2023-04-14,清算の結了等,,,2015-10-05,1,,,,,マルゼン,0
247,1340001021522,登記記録の閉鎖等,0,2023-04-25,2023-04-05,株式会社ネクストリビング,,株式会社,鹿児島県,鹿児島市,堀江町１番２１,,46,201,8920824,,,2023-04-05,合併による解散等,3360001012047,令和５年４月１日沖縄県那覇市おもろまち四丁目６番２４号株式会社ジャパンライフサポート（3360001012047）に合併し解散,2018-10-04,1,,,,,ネクストリビング,0
261,1380001001413,登記記録の閉鎖等,0,2023-04-25,2023-04-18,ＪＡパールライン福島株式会社,,株式会社,福島県,福島市,飯坂町平野字三枚長１番地１,,07,201,9600231,,,2023-04-18,合併による解散等,3010001011918,令和５年４月１日東京都千代田区神田錦町三丁目１３番地７全農物流株式会社（3010001011918）に合併し解散,2015-10-05,1,,,,,ジェイエーパールラインフクシマ,0
273,1420001011300,登記記録の閉鎖等,0,2023-04-25,2023-04-17,株式会社レークイン十和田,,株式会社,青森県,十和田市,大字奥瀬字十和田湖畔休屋１６番地１０６,,02,206,0185501,,,2023-04-17,清算の結了等,,,2015-10-05,1,,,,,レークイントワダ,0
274,1420001012645,登記記録の閉鎖等,0,2023-04-25,2023-04-18,株式会社ナナナ本舗,,株式会社,青森県,上北郡横浜町,字寺下５０番地,,02,406,0394145,,,2023-04-18,清算の結了等,,,2015-10-05,1,,,,,ナナナホンポ,0
318,2010602018866,登記記録の閉鎖等,0,2023-04-25,2023-04-19,有限会社モリシタ,,有限会社,東京都,江東区,森下２丁目６番２号,,13,108,1350004,,,2023-04-19,清算の結了等,,,2015-10-05,1,,,,,,0
330,2011001070450,登記記録の閉鎖等,0,2023-04-25,2023-04-20,株式会社アリアル,,株式会社,東京都,渋谷区,渋谷１丁目１－１６,,13,113,1500002,,,2023-04-20,合併による解散等,8021001029275,令和５年４月１日横浜市青葉区美しが丘２－９－１サードブレイン株式会社（8021001029275）に合併し解散,2015-10-05,1,,,,,アリアル,0
361,2011701016463,登記記録の閉鎖等,0,2023-04-25,2023-04-21,株式会社玉吉,,株式会社,東京都,江戸川区,西瑞江３丁目２３番１号,,13,123,1320015,,,2023-04-21,清算の結了等,,,2015-10-05,1,,,,,タマヨシ,0
367,2012703001230,登記記録の閉鎖等,0,2023-04-25,2023-04-21,合同会社データアーツ,,合同会社,東京都,中野区,本町４丁目４６番９号,,13,114,1640012,,,2023-04-21,清算の結了等,,,2015-12-10,1,,,,,データアーツ,0
369,2013301021026,登記記録の閉鎖等,0,2023-04-25,2023-04-11,システム・アソシエイト株式会社,,株式会社,埼玉県,川越市,月吉町４０番地４,,11,201,3500825,,,2023-04-11,清算の結了等,,,2015-10-05,1,,,,,システムアソシエイト,0
372,2020001024795,登記記録の閉鎖等,0,2023-04-25,2023-04-03,横浜駅ビル建物株式会社,,株式会社,神奈川県,横浜市中区,本町２丁目２２番地,,14,104,2310005,,,2023-04-03,合併による解散等,6020001016343,令和５年４月１日横浜市西区南幸一丁目１番１号株式会社横浜ステーシヨンビル（6020001016343）に合併し解散,2015-10-05,1,,,,,ヨコハマエキビルタテモノ,0
373,2020001050288,登記記録の閉鎖等,0,2023-04-25,2023-04-13,株式会社グローバル,,株式会社,神奈川県,横浜市保土ケ谷区,上菅田町２２２番地１,,14,106,2400051,,,2023-04-13,清算の結了等,,,2015-10-05,1,,,,,グローバル,0
388,2021002011972,登記記録の閉鎖等,0,2023-04-25,2023-04-20,有限会社ブンカホーム機器,,有限会社,神奈川県,茅ヶ崎市,十間坂３丁目２番３３号,,14,207,2530045,,,2023-04-20,清算の結了等,,,2015-10-05,1,,,,,ブンカホームキキ,0
398,2030001124875,登記記録の閉鎖等,0,2023-04-25,2023-04-13,株式会社アポロエステート,,株式会社,東京都,豊島区,東池袋４丁目８番１号エイチエックスビルＢ１０３,,13,116,1700013,,,2023-04-13,清算の結了等,,,2018-04-03,1,,,,,アポロエステート,0
424,2070002000691,登記記録の閉鎖等,0,2023-04-25,2023-04-20,有限会社今泉建商,,有限会社,群馬県,前橋市,元総社町１２００番地３,,10,201,3710846,,,2023-04-20,清算の結了等,,,2015-10-05,1,,,,,イマイズミケンショウ,0
426,2080105002774,登記記録の閉鎖等,0,2023-04-25,2023-04-20,農事組合法人富士養鶏団地組合,,その他の設立登記法人,静岡県,富士市,三ツ沢４３２番地の４,,22,210,4170855,,,2023-04-20,清算の結了等,,,2015-10-05,1,,,,,フジヨウケイダンチクミアイ,0
432,2120001009191,登記記録の閉鎖等,0,2023-04-25,2023-04-17,五十鈴食品株式会社,,株式会社,大阪府,大阪市生野区,林寺３丁目７番１９号,,27,116,5440023,,,2023-04-17,清算の結了等,,,2015-10-05,1,,,,,イスズショクヒン,0
435,2120001103275,登記記録の閉鎖等,0,2023-04-25,2023-04-17,株式会社アルファビューティー,,株式会社,大阪府,大阪市中央区,西心斎橋１丁目１６番１２号,,27,128,5420086,,,2023-04-17,清算の結了等,,,2015-10-05,1,,,,,アルファビューティー,0
440,2120001182583,登記記録の閉鎖等,0,2023-04-25,2023-04-21,株式会社サンキョウアイワークス,,株式会社,大阪府,大阪市西区,西本町１丁目７番２１号,,27,106,5500005,,,2023-04-21,合併による解散等,2011101038612,令和５年４月１日東京都渋谷区千駄ヶ谷五丁目８番９号株式会社サンキョウ・ロジ・アソシエート（2011101038612）に合併し解散,2015-10-05,1,,,,,サンキョウアイワークス,0
441,2120001185009,登記記録の閉鎖等,0,2023-04-25,2023-04-21,株式会社ＫＯＧＡＯ,,株式会社,東京都,渋谷区,千駄ヶ谷５丁目３０番７号鈴木ビル２階,,13,113,1510051,,,2023-04-21,清算の結了等,,,2015-10-05,1,,,,,,0
472,2130001029684,登記記録の閉鎖等,0,2023-04-25,2023-04-11,株式会社梅国際文化教室,,株式会社,京都府,京都市山科区,西野楳本町７７番地２４,,26,110,6078358,,,2023-04-11,清算の結了等,,,2015-10-05,1,,,,,ウメコクサイブンカキョウシツ,0
477,2140001060671,登記記録の閉鎖等,0,2023-04-25,2023-04-19,はくろ観光バス株式会社,,株式会社,兵庫県,姫路市,西庄１４３番地の１,,28,201,6700981,,,2023-04-19,清算の結了等,,,2015-10-05,1,,,,,ハクロカンコウバス,0
492,2160002002142,登記記録の閉鎖等,0,2023-04-25,2023-04-24,琵琶湖総合管理有限会社,,有限会社,滋賀県,大津市,北小松５３４番地,,25,201,5200501,,,2023-04-24,清算の結了等,,,2015-10-05,1,,,,,ビワコソウゴウカンリ,0
501,2180002016628,登記記録の閉鎖等,0,2023-04-25,2023-04-21,有限会社早川三郎商店,,有限会社,愛知県,名古屋市東区,泉１丁目７番４１号,,23,102,4610001,,,2023-04-21,清算の結了等,,,2015-10-05,1,,,,,ハヤカワサブロウショウテン,0
512,2190001029919,登記記録の閉鎖等,0,2023-04-25,2023-04-14,株式会社クリアム,,株式会社,三重県,伊勢市,津村町１９８３番地,,24,203,5161103,,,2023-04-14,清算の結了等,,,2022-11-09,1,,,,,クリアム,0
515,2200001023135,登記記録の閉鎖等,0,2023-04-25,2023-04-20,株式会社ルビー,,株式会社,岐阜県,多治見市,市之倉町１０丁目７９番地,,21,204,5070814,,,2023-04-20,清算の結了等,,,2015-10-05,1,,,,,ルビー,0
516,2200001031542,登記記録の閉鎖等,0,2023-04-25,2023-04-24,マルイランチサービス株式会社,,株式会社,岐阜県,下呂市,森５６５番地の８,,21,220,5092202,,,2023-04-24,清算の結了等,,,2015-10-05,1,,,,,マルイランチサービス,0
522,2220001022424,登記記録の閉鎖等,0,2023-04-25,2023-04-21,株式会社Ｒｅｆｅｌ,,株式会社,石川県,野々市市,二日市５丁目３８番地,,17,212,9218809,,,2023-04-21,清算の結了等,,,2018-08-01,1,,,,,リフェル,0
524,2230001015212,登記記録の閉鎖等,0,2023-04-25,2023-04-21,株式会社高三会計,,株式会社,富山県,富山市,西山王町８番７号,,16,201,9300073,,,2023-04-21,清算の結了等,,,2015-10-05,1,,,,,タカサンカイケイ,0
533,2260002028788,登記記録の閉鎖等,0,2023-04-25,2023-04-20,有限会社多美屋,,有限会社,岡山県,津山市,本町２丁目１５番地,,33,203,7080073,,,2023-04-20,清算の結了等,,,2015-10-05,1,,,,,タミヤ,0
547,2310005000887,登記記録の閉鎖等,0,2023-04-25,2023-04-11,長崎市福田漁業協同組合,,その他の設立登記法人,長崎県,長崎市,福田本町無番地,,42,201,8500068,,,2023-04-11,合併による解散等,8310005000898,令和５年４月１日長崎市伊王島町二丁目２０４７番地２西彼南部漁業協同組合（8310005000898）に合併し解散,2015-10-05,1,,,,,ナガサキシフクダ,0
550,2320002005269,登記記録の閉鎖等,0,2023-04-25,2023-04-13,有限会社ネイチャープロテクト,,有限会社,大分県,大分市,大字小池原６８１番地の１,,44,201,8700147,,,2023-04-13,清算の結了等,,,2015-10-05,1,,,,,,0
556,2330002027650,登記記録の閉鎖等,0,2023-04-25,2023-04-17,有限会社フーズヒデヨシ,,有限会社,熊本県,宇城市,松橋町松橋５８８番地１,,43,213,8690502,,,2023-04-17,清算の結了等,,,2015-10-05,1,,,,,フーズヒデヨシ,0
577,2420001016802,登記記録の閉鎖等,0,2023-04-25,2023-04-18,津軽漆器株式会社,,株式会社,青森県,弘前市,大字元寺町７番地,,02,202,0368355,,,2023-04-18,清算の結了等,,,2019-12-06,1,,,,,ツガルシッキ,0
611,3010701036124,登記記録の閉鎖等,0,2023-04-25,2023-04-11,タメニーアートワークス株式会社,,株式会社,東京都,品川区,大崎１丁目２０番３号,,13,109,1410032,,,2023-04-11,合併による解散等,3010701024252,令和５年３月３１日東京都品川区大崎一丁目２０番３号タメニー株式会社（3010701024252）に合併し解散,2018-07-20,1,,,,,タメニーアートワークス,0
615,3010903005587,登記記録の閉鎖等,0,2023-04-25,2023-04-12,リディアン合同会社,,合同会社,東京都,千代田区,九段南４丁目６番１－２０２号,,13,101,1020074,,,2023-04-12,清算の結了等,,,2020-03-18,1,,,,,リディアン,0
625,3011101017301,登記記録の閉鎖等,0,2023-04-25,2023-04-24,株式会社パセオ,,株式会社,東京都,中野区,中野２丁目２９番１５－３０７号,,13,114,1640001,,,2023-04-24,清算の結了等,,,2015-10-05,1,,,,,,0
644,3011801007287,登記記録の閉鎖等,0,2023-04-25,2023-04-21,株式会社キャロット・ハウス落合,,株式会社,東京都,足立区,島根１丁目１２番３号,,13,121,1210815,,,2023-04-21,清算の結了等,,,2015-10-05,1,,,,,,0
652,3012801002971,登記記録の閉鎖等,0,2023-04-25,2023-04-24,株式会社チカラホーム,,株式会社,東京都,武蔵村山市,本町１丁目８４番地３,,13,223,2080004,,,2023-04-24,清算の結了等,,,2015-10-05,1,,,,,チカラホーム,0
658,3020001088212,登記記録の閉鎖等,0,2023-04-25,2023-04-17,株式会社トゥリーズ,,株式会社,神奈川県,横浜市金沢区,富岡西２丁目１８番１９号,,14,108,2360052,,,2023-04-17,清算の結了等,,,2015-10-05,1,,,,,トゥリーズ,0
659,3020001099309,登記記録の閉鎖等,0,2023-04-25,2023-04-17,カウカウマート株式会社,,株式会社,神奈川県,川崎市多摩区,南生田５丁目２５番１２号,,14,135,2140036,,,2023-04-17,清算の結了等,,,2015-10-05,1,,,,,カウカウマート,0
665,3020003015949,登記記録の閉鎖等,0,2023-04-25,2023-04-13,合同会社ＮｅｖｅｒＣｒｙ,,合同会社,東京都,渋谷区,円山町５番５号Ｎａｖｉ渋谷Ｖ３階,00123377,13,113,1500044,,,2023-04-13,清算の結了等,,,2019-04-19,1,,,,,ネバークライ,0
697,3040002029824,登記記録の閉鎖等,0,2023-04-25,2023-04-10,有限会社永澤製作所,,有限会社,千葉県,八千代市,萱田町５４０番地３１,,12,221,2760044,,,2023-04-10,清算の結了等,,,2015-10-05,1,,,,,ナガサワセイサクショ,0
714,3070005009119,登記記録の閉鎖等,0,2023-04-25,2023-04-13,特定非営利活動法人ぷりえ,,その他の設立登記法人,群馬県,北群馬郡吉岡町,大字上野田字夫婦石１９３３番地１,,10,345,3703606,,,2023-04-13,清算の結了等,,,2015-12-07,1,,,,,プリエ,0
716,3080002018030,登記記録の閉鎖等,0,2023-04-25,2023-04-24,有限会社マルトヨ製作所,,有限会社,静岡県,藤枝市,潮１０４番地の１,,22,214,4260007,,,2023-04-24,清算の結了等,,,2015-10-05,1,,,,,マルトヨセイサクショ,0
723,3110001029082,登記記録の閉鎖等,0,2023-04-25,2023-04-19,羽深機工株式会社,,株式会社,新潟県,上越市,国府１丁目２４番２３号,,15,222,9420082,,,2023-04-19,清算の結了等,,,2015-10-05,1,,,,,ハブカキコウ,0
726,3120001072024,登記記録の閉鎖等,0,2023-04-25,2023-04-21,株式会社リーディング,,株式会社,大阪府,大阪市北区,梅田１丁目１２番１７号梅田スクエアビル９階,,27,127,5300001,,,2023-04-21,清算の結了等,,,2015-10-05,1,,,,,リーディング,0
738,3120003017349,登記記録の閉鎖等,0,2023-04-25,2023-04-17,春華合同会社,,合同会社,大阪府,大阪市平野区,瓜破２丁目２－３スチューデント平野７１２号室,,27,126,5470024,,,2023-04-17,清算の結了等,,,2020-04-21,1,,,,,ハルカ,0
757,3122001023626,登記記録の閉鎖等,0,2023-04-25,2023-04-21,ダイトー・インダストリー株式会社,,株式会社,大阪府,大東市,氷野３丁目１２番３５号,,27,218,5740062,,,2023-04-21,清算の結了等,,,2015-10-05,1,,,,,ダイトーインダストリー,0
759,3130001005593,登記記録の閉鎖等,0,2023-04-25,2023-04-14,株式会社安井工務店,,株式会社,京都府,京都市北区,上賀茂土門町７３番地,,26,101,6038084,,,2023-04-14,清算の結了等,,,2015-10-05,1,,,,,ヤスイコウムテン,0
783,3150001025202,登記記録の閉鎖等,0,2023-04-25,2023-04-20,株式会社ゼノ,,株式会社,奈良県,五條市,住川町９１番地の２９８,,29,207,6370014,,,2023-04-20,清算の結了等,,,2021-12-24,1,,,,,ゼノ,0
785,3150005004581,登記記録の閉鎖等,0,2023-04-25,2023-04-19,農事組合法人曽爾村近代化施設園芸組合,,その他の設立登記法人,奈良県,宇陀郡曽爾村,大字今井１６２番地,,29,385,6331212,,,2023-04-19,清算の結了等,,,2015-10-05,1,,,,,,0
802,3180003007138,登記記録の閉鎖等,0,2023-04-25,2023-04-18,大槻合名会社,,合名会社,愛知県,名古屋市昭和区,白金２丁目１３番１６号,,23,107,4660058,,,2023-04-18,清算の結了等,,,2015-10-05,1,,,,,オオツキ,0
805,3180301008507,登記記録の閉鎖等,0,2023-04-25,2023-04-17,株式会社エコールとよはし,,株式会社,愛知県,豊橋市,神野新田町字トノ割２８番地,,23,201,4418077,,,2023-04-17,清算の結了等,,,2015-10-05,1,,,,,エコールトヨハシ,0
810,3190001008748,登記記録の閉鎖等,0,2023-04-25,2023-04-18,株式会社友伸,,株式会社,三重県,伊賀市,下友生２８６０番地,,24,216,5180817,,,2023-04-18,清算の結了等,,,2015-10-05,1,,,,,ユウシン,0
819,3250002018186,登記記録の閉鎖等,0,2023-04-25,2023-04-11,有限会社セネガル,,有限会社,山口県,岩国市,保津町２丁目１３番１５号,,35,208,7400043,,,2023-04-11,清算の結了等,,,2015-10-05,1,,,,,セネガル,0
833,3290005015144,登記記録の閉鎖等,0,2023-04-25,2023-04-17,一般社団法人４２．１９５ｋｍリレーマラソン協会中・西日本,,その他の設立登記法人,福岡県,宗像市,大井台２１番１号,,40,220,8113433,,,2023-04-17,清算の結了等,,,2015-10-05,1,,,,,ヨンジュウニテンイチキュウゴキロメートルリレーマラソンキョウカイナカニシニホン,0
840,3320002018294,登記記録の閉鎖等,0,2023-04-25,2023-04-20,有限会社Ｏｆｆｉｃｅごとう,,有限会社,大分県,大分市,牧上町１６番１５号,,44,201,8700925,,,2023-04-20,清算の結了等,,,2015-10-05,1,,,,,オフィスゴトウ,0
848,3360001018787,登記記録の閉鎖等,0,2023-04-25,2023-03-31,株式会社タワー,,株式会社,沖縄県,那覇市,前島３丁目１３番地１１,,47,201,9000016,,,2023-03-31,清算の結了等,,,2015-10-05,1,,,,,タワー,0
858,3370002017275,登記記録の閉鎖等,0,2023-04-25,2023-04-13,有限会社フラテルニテ,,有限会社,宮城県,仙台市泉区,高森５丁目２０番地の１,,04,105,9813203,,,2023-04-13,清算の結了等,,,2015-10-05,1,,,,,,0
863,3390002009130,登記記録の閉鎖等,0,2023-04-25,2023-04-14,有限会社える・さん,,有限会社,山形県,鶴岡市,東原町１７番７号,,06,203,9970801,,,2023-04-14,合併による解散等,7390001007486,令和５年４月１日山形県鶴岡市東原町１７番７号株式会社エルサン（7390001007486）に合併し解散,2015-10-05,1,,,,,エルサン,0
869,3430001008822,登記記録の閉鎖等,0,2023-04-25,2023-04-19,積和建設札幌株式会社,,株式会社,北海道,札幌市白石区,菊水元町八条１丁目６番７号,,01,104,0030828,,,2023-04-19,合併による解散等,2370001000844,令和５年３月２６日仙台市泉区明通三丁目１５番地２積水ハウス建設東北株式会社（2370001000844）に合併し解散,2015-10-05,1,,,,,セキワケンセツサッポロ,0
870,3430001048505,登記記録の閉鎖等,0,2023-04-25,2023-04-03,株式会社藤樹園,,株式会社,北海道,歌志内市,字神威１４０番地,00088610,01,227,0730405,,,2023-04-03,合併による解散等,2430001017064,令和５年４月３日札幌市豊平区福住二条十丁目１６－５株式会社プログリーン（2430001017064）に合併し解散,2015-10-05,1,,,,,トウジュエン,0
881,3480001000832,登記記録の閉鎖等,0,2023-04-25,2023-04-19,四国システム開発株式会社,,株式会社,徳島県,徳島市,幸町１丁目４７番地３,,36,201,7700847,,,2023-04-19,合併による解散等,5011101014503,令和５年４月１日東京都港区港南二丁目１５番２号ＮＤＩソリューションズ株式会社（5011101014503）に合併し解散,2015-10-05,1,,,,,シコクシステムカイハツ,0
882,3480001002168,登記記録の閉鎖等,0,2023-04-25,2023-04-24,株式会社リードシツプ,,株式会社,徳島県,徳島市,北沖洲１丁目８番７８～１２号,,36,201,7700872,,,2023-04-24,清算の結了等,,,2015-10-05,1,,,,,リードシツプ,0
893,4010001214981,登記記録の閉鎖等,0,2023-04-25,2023-04-06,グラフコア・ジャパン株式会社,,株式会社,東京都,千代田区,内幸町１丁目１番１号帝国ホテルタワー１５階リージャス日比谷センター,,13,101,1000011,,,2023-04-06,清算の結了等,,,2021-01-08,1,,,,,グラフコアジャパン,0
901,4010401150819,登記記録の閉鎖等,0,2023-04-25,2023-04-13,Ｗａａｒａ株式会社,,株式会社,東京都,港区,赤坂１丁目９番１３号三会堂ビル２階,,13,103,1070052,,,2023-04-13,合併による解散等,9010001156996,令和５年４月１日東京都中央区日本橋二丁目３番２１号群馬ビル６階株式会社フォワード（9010001156996）に合併し解散,2020-02-04,1,,,,,ワアアラ,0
933,4011302002844,登記記録の閉鎖等,0,2023-04-25,2023-04-21,有限会社キムラオフィス,,有限会社,東京都,杉並区,和泉３丁目３３番１３号,,13,115,1680063,,,2023-04-21,清算の結了等,,,2015-10-05,1,,,,,キムラオフィス,0
950,4012801002970,登記記録の閉鎖等,0,2023-04-25,2023-04-24,チカラ建設株式会社,,株式会社,東京都,武蔵村山市,本町１丁目８４番地３,,13,223,2080004,,,2023-04-24,清算の結了等,,,2015-10-05,1,,,,,チカラケンセツ,0
954,4013301046005,登記記録の閉鎖等,0,2023-04-25,2023-04-17,株式会社ＲＯＬＬＢＡＣＫ,,株式会社,東京都,豊島区,東池袋１丁目１７番１１号パークハイツ池袋,,13,116,1700013,,,2023-04-17,清算の結了等,,,2020-08-19,1,,,,,ロールバック,0
971,4030001077031,登記記録の閉鎖等,0,2023-04-25,2023-04-10,株式会社藤沼食品,,株式会社,埼玉県,川口市,東川口６丁目１２番２０号,,11,203,3330801,,,2023-04-10,清算の結了等,,,2015-10-05,1,,,,,フジヌマショクヒン,0
980,4030002121085,登記記録の閉鎖等,0,2023-04-25,2023-04-05,有限会社鷹の羽精機,,有限会社,埼玉県,飯能市,大字下川崎５５２番地１,,11,209,3570012,,,2023-04-05,清算の結了等,,,2015-10-05,1,,,,,タカノハセイキ,0
986,4040002051265,登記記録の閉鎖等,0,2023-04-25,2023-04-07,有限会社おそうじおばさん,,有限会社,千葉県,流山市,松ケ丘４丁目５２５番地２１,,12,220,2700141,,,2023-04-07,清算の結了等,,,2015-10-05,1,,,,,オソウジオバサン,0
997,4070001018857,登記記録の閉鎖等,0,2023-04-25,2023-04-19,太田タクシー株式会社,,株式会社,群馬県,太田市,飯田町１３２５番地の２,,10,205,3730851,,,2023-04-19,清算の結了等,,,2015-10-05,1,,,,,,0
1002,4080001025159,登記記録の閉鎖等,0,2023-04-25,2023-04-24,株式会社オフィス・エー,,株式会社,静岡県,静岡市駿河区,大谷２７８５番地の６２,,22,102,4228017,,,2023-04-24,清算の結了等,,,2022-08-31,1,,,,,オフィスエー,0
1013,4110001021542,登記記録の閉鎖等,0,2023-04-25,2023-04-20,糸魚川観光開発株式会社,,株式会社,新潟県,糸魚川市,大町１丁目６番１０号,,15,216,9410061,,,2023-04-20,清算の結了等,,,2015-10-05,1,,,,,イトイガワカンコウカイハツ,0
1015,4110002022135,登記記録の閉鎖等,0,2023-04-25,2023-04-19,有限会社マリリン,,有限会社,新潟県,村上市,小口川１２４番地７,,15,212,9593446,,,2023-04-19,清算の結了等,,,2015-10-05,1,,,,,マリリン,0
1016,4120001047561,登記記録の閉鎖等,0,2023-04-25,2023-04-21,株式会社万通,,株式会社,大阪府,堺市堺区,大町東４丁１番３０－１２０５号,,27,141,5900954,,,2023-04-21,清算の結了等,,,2015-10-05,1,,,,,マンツー,0
1029,4120002006839,登記記録の閉鎖等,0,2023-04-25,2023-04-20,有限会社清水鍍金工業所,,有限会社,大阪府,大阪市東成区,東今里２丁目７番１６号,,27,115,5370011,,,2023-04-20,清算の結了等,,,2015-10-05,1,,,,,シミズメッキコウギョウショ,0
1036,4120901018348,登記記録の閉鎖等,0,2023-04-25,2023-04-21,株式会社システム建築設計事務所,,株式会社,大阪府,高槻市,城内町２番５３号,,27,207,5690075,,,2023-04-21,清算の結了等,,,2015-10-05,1,,,,,システムケンチクセッケイジムショ,0
1039,4120905004690,登記記録の閉鎖等,0,2023-04-25,2023-04-11,一般財団法人大阪国際空港メディカルセンター,,その他の設立登記法人,大阪府,豊中市,上野坂２丁目６番１号豊中市医師会内,,27,203,5600012,,,2023-04-11,合併による解散等,3120905004683,令和５年４月１日大阪府豊中市上野坂二丁目６番１号一般財団法人豊中市医療保健センター（3120905004683）に合併し解散,2015-10-05,1,,,,,オオサカコクサイクウコウメディカルセンター,0
1052,4140002005277,登記記録の閉鎖等,0,2023-04-25,2023-04-03,有限会社ギヴ,,有限会社,兵庫県,神戸市西区,伊川谷町有瀬１６９０番地の１,,28,111,6512113,,,2023-04-03,合併による解散等,9140001034363,令和５年４月１日神戸市西区伊川谷町有瀬１６９０番地の１株式会社アスター（9140001034363）に合併し解散　,2015-10-05,1,,,,,ギヴ,0
1055,4150002005623,登記記録の閉鎖等,0,2023-04-25,2023-04-20,有限会社エスティーオー・コーポレーション,,有限会社,奈良県,天理市,二階堂上ノ庄町９５番地の１０６,,29,204,6320081,,,2023-04-20,清算の結了等,,,2015-10-05,1,,,,,エスティーオーコーポレーション,0
1056,4160001002182,登記記録の閉鎖等,0,2023-04-25,2023-04-18,株式会社坂部石油店,,株式会社,滋賀県,大津市,和邇今宿８２３番地,,25,201,5200524,,,2023-04-18,清算の結了等,,,2015-10-05,1,,,,,サカベセキユテン,0
1059,4180001018540,登記記録の閉鎖等,0,2023-04-25,2023-04-19,山久化学株式会社,,株式会社,愛知県,名古屋市東区,主税町３丁目１５番地,,23,102,4610018,,,2023-04-19,清算の結了等,,,2015-10-05,1,,,,,ヤマヒサカガク,0
1062,4180001133802,登記記録の閉鎖等,0,2023-04-25,2023-04-18,株式会社ｄａｔｔ　ａｒｃｈｉｔｅｃｔｓ,,株式会社,愛知県,名古屋市千種区,桜が丘２９４－３Ｃ,,23,101,4640025,,,2023-04-18,清算の結了等,,,2018-09-25,1,,,,,ダットアーキテクツ,0
1066,4180005007184,登記記録の閉鎖等,0,2023-04-25,2023-04-14,特定非営利活動法人夢工房,,その他の設立登記法人,愛知県,名古屋市昭和区,楽園町８７番地１号棟２０４号,,23,107,4660822,,,2023-04-14,清算の結了等,,,2015-10-05,1,,,,,ユメコウボウ,0
1074,4190003002293,登記記録の閉鎖等,0,2023-04-25,2023-04-03,合同会社ＨＲＭＴ,,合同会社,三重県,松阪市,駅部田町４２５番地２,,24,204,5150045,,,2023-04-03,合併による解散等,1190001011233,令和５年４月１日三重県度会郡大紀町錦３４３番地３１株式会社谷口組（1190001011233）に合併し解散,2015-10-05,1,,,,,エイチアールエムティ,0
1076,4200001008530,登記記録の閉鎖等,0,2023-04-25,2023-04-24,株式会社清風堂,,株式会社,岐阜県,岐阜市,若宮町２丁目９番地,,21,201,5008828,,,2023-04-24,清算の結了等,,,2015-10-05,1,,,,,セイフウドウ,0
1079,4200002012069,登記記録の閉鎖等,0,2023-04-25,2023-04-20,有限会社暁,,有限会社,岐阜県,羽島市,正木町新井４３８番地,,21,209,5016225,,,2023-04-20,清算の結了等,,,2015-10-05,1,,,,,アカツキ,0
1090,4240005014950,登記記録の閉鎖等,0,2023-04-25,2023-04-13,一般社団法人シェアワークス,,その他の設立登記法人,広島県,福山市,霞町１丁目２番３号グランツビル９階,,34,207,7200812,,,2023-04-13,清算の結了等,,,2020-02-07,1,,,,,シェアワークス,0
1099,4290001001551,登記記録の閉鎖等,0,2023-04-25,2023-04-13,相互産業株式会社,,株式会社,福岡県,福岡市城南区,片江１丁目２０番３号,,40,136,8140142,,,2023-04-13,清算の結了等,,,2015-10-05,1,,,,,ソウゴサンギョウ,0
1125,4370002002053,登記記録の閉鎖等,0,2023-04-25,2023-04-14,有限会社亘理礦油商会,,有限会社,宮城県,仙台市青葉区,堤通雨宮町１番６７－８０４号,,04,101,9810914,,,2023-04-14,清算の結了等,,,2015-10-05,1,,,,,ワタリコウユウショウカイ,0
1176,5010801006512,登記記録の閉鎖等,0,2023-04-25,2023-04-12,ダイエーコーポレーション株式会社,,株式会社,東京都,大田区,南馬込４丁目２６番３号,,13,111,1430025,,,2023-04-12,清算の結了等,,,2015-10-05,1,,,,,ダイエーコーポレーション,0
1181,5011001072246,登記記録の閉鎖等,0,2023-04-25,2023-04-24,株式会社アズール,,株式会社,東京都,渋谷区,広尾５丁目２５番１２号６Ｆ,,13,113,1500012,,,2023-04-24,清算の結了等,,,2015-10-05,1,,,,,,0
1204,5012401009226,登記記録の閉鎖等,0,2023-04-25,2023-04-21,東京西中央理化工業株式会社,,株式会社,東京都,狛江市,東野川３丁目４番１４号,,13,219,2010002,,,2023-04-21,合併による解散等,8013301007424,令和５年４月１日東京都豊島区巣鴨一丁目４番１７号中央理化工業株式会社（8013301007424）に合併し解散,2015-10-05,1,,,,,トウキョウニシチュウオウリカコウギョウ,0
1205,5012401012989,登記記録の閉鎖等,0,2023-04-25,2023-04-21,株式会社中央商事,,株式会社,東京都,武蔵野市,境２丁目２番６号,,13,203,1800022,,,2023-04-21,清算の結了等,,,2015-10-05,1,,,,,,0
1219,5020001088524,登記記録の閉鎖等,0,2023-04-25,2023-04-14,株式会社咲花野,,株式会社,神奈川県,横浜市青葉区,奈良３丁目１４番地１－四番館１０６号室,,14,117,2270038,,,2023-04-14,清算の結了等,,,2015-10-05,1,,,,,サガノ,0
1272,5120001210985,登記記録の閉鎖等,0,2023-04-25,2023-04-21,株式会社ブランディングアンドユナイテッド,,株式会社,大阪府,大阪市天王寺区,生玉町１１番２９－３１９号,,27,109,5430071,,,2023-04-21,清算の結了等,,,2018-01-30,1,,,,,ブランディングアンドユナイテッド,0
1292,5130001005889,登記記録の閉鎖等,0,2023-04-25,2023-04-18,石川テレビ電業株式会社,,株式会社,京都府,京都市左京区,田中里ノ前町２１番地,,26,103,6068227,,,2023-04-18,清算の結了等,,,2015-10-05,1,,,,,イシカワテレビデンギョウ,0
1303,5160001001522,登記記録の閉鎖等,0,2023-04-25,2023-04-24,昭和硝子加工株式会社,,株式会社,滋賀県,大津市,膳所池ノ内町７４０番地,,25,201,5200825,,,2023-04-24,清算の結了等,,,2015-10-05,1,,,,,ショウワガラスカコウ,0
1307,5180001007955,登記記録の閉鎖等,0,2023-04-25,2023-04-20,株式会社エール,,株式会社,愛知県,名古屋市中区,丸の内２丁目１５番３０号ライオンズマンション丸の内第２、３０２号室,,23,106,4600002,,,2023-04-20,清算の結了等,,,2015-10-05,1,,,,,エール,0
1314,5180002042076,登記記録の閉鎖等,0,2023-04-25,2023-04-18,有限会社明石,,有限会社,愛知県,名古屋市中村区,名駅南２丁目８番１号,,23,105,4500003,,,2023-04-18,清算の結了等,,,2015-10-05,1,,,,,アカシ,0
1322,5180005016787,登記記録の閉鎖等,0,2023-04-25,2023-04-18,一般社団法人東海労働経済研究所,,その他の設立登記法人,愛知県,半田市,上池町５丁目４番地の３,,23,205,4750004,,,2023-04-18,清算の結了等,,,2016-05-19,1,,,,,トウカイロウドウケイザイケンキュウジョ,0
1335,5220002010821,登記記録の閉鎖等,0,2023-04-25,2023-04-18,有限会社大誠工務店,,有限会社,石川県,小松市,千代町乙１０３番地,,17,203,9230041,,,2023-04-18,清算の結了等,,,2015-10-05,1,,,,,タイセイコウムテン,0
1342,5260001031716,登記記録の閉鎖等,0,2023-04-25,2023-04-18,株式会社瀬戸内通商,,株式会社,岡山県,岡山市中区,祗園５７４番地２,,33,102,7000000,,,2023-04-18,清算の結了等,,,2018-02-09,1,,,,,セトウチツウショウ,0
1349,5290005005969,登記記録の閉鎖等,0,2023-04-25,2023-04-13,特定非営利活動法人科学の公園,,その他の設立登記法人,福岡県,福岡市城南区,茶山５丁目１５番１７号,,40,136,8140111,,,2023-04-13,清算の結了等,,,2015-10-05,1,,,,,,0
1353,5310001006225,登記記録の閉鎖等,0,2023-04-25,2023-04-21,ケーティー整理株式会社,,株式会社,長崎県,東彼杵郡波佐見町,小樽郷７５７番地,00095697,42,323,8593704,,,2023-04-21,清算の結了等,,,2015-10-05,1,,,,,ケーティーセイリ,0
1354,5310001009054,登記記録の閉鎖等,0,2023-04-25,2023-04-19,株式会社グリーンパークリゾート諫早,,株式会社,長崎県,大村市,諏訪３丁目８５番地１７,,42,205,8560024,,,2023-04-19,清算の結了等,,,2015-10-05,1,,,,,グリーンパークリゾートイサハヤ,0
1364,5340001022145,登記記録の閉鎖等,0,2023-04-25,2023-04-03,虹彩橋株式会社,,株式会社,鹿児島県,鹿児島市,下伊敷１丁目７－５,,46,201,8900005,,,2023-04-03,合併による解散等,8340001018990,令和５年４月１日鹿児島市下伊敷一丁目７番５号株式会社ヒカリヲ（8340001018990）に合併し解散,2019-07-16,1,,,,,ビフレスト,0
1366,5350001001255,登記記録の閉鎖等,0,2023-04-25,2023-04-11,日本バイオフーヅ株式会社,,株式会社,宮崎県,宮崎市,田野町字桜ヶ丘乙１７３０番地１０,,45,201,8800000,,,2023-04-11,清算の結了等,,,2015-10-05,1,,,,,ニホンバイオフーヅ,0
1373,5380005012394,登記記録の閉鎖等,0,2023-04-25,2023-04-20,一般社団法人マンダラミュージアム,,その他の設立登記法人,福島県,福島市,飯坂町茂庭字前原４３番地１,,07,201,9600271,,,2023-04-20,清算の結了等,,,2021-03-09,1,,,,,マンダラミュージアム,0
1375,5400002009829,登記記録の閉鎖等,0,2023-04-25,2023-04-12,有限会社和田,,有限会社,岩手県,北上市,村崎野２３地割１９番地,,03,206,0240004,,,2023-04-12,清算の結了等,,,2015-10-05,1,,,,,ワダ,0
1376,5400505000532,登記記録の閉鎖等,0,2023-04-25,2023-04-18,日本聖公会室根聖ナタナエル教会,,その他の設立登記法人,岩手県,一関市,室根町折壁字屋中１０４番地の５,,03,209,0291201,,,2023-04-18,合併による解散等,7370005000662,令和５年４月１０日仙台市青葉区国分町二丁目１３番１５号日本聖公会東北教区（7370005000662）に合併し解散,2015-10-05,1,,,,,ニホンセイコウカイムロネセイナタナエルキョウカイ,0
1378,5410002012245,登記記録の閉鎖等,0,2023-04-25,2023-04-11,有限会社茂木住宅設備,,有限会社,秋田県,大仙市,協和境字岸館８８番地８,,05,212,0192411,,,2023-04-11,清算の結了等,,,2015-10-05,1,,,,,モテギジュウタクセツビ,0
1390,5460102001663,登記記録の閉鎖等,0,2023-04-25,2023-04-20,有限会社すし正,,有限会社,北海道,帯広市,東二条南９丁目１８番地２,,01,207,0800802,,,2023-04-20,清算の結了等,,,2015-10-05,1,,,,,スシマサ,0
1394,5470001018213,登記記録の閉鎖等,0,2023-04-25,2023-04-12,株式会社ＯｖｅｒＳｅａｓＬａｂ,,株式会社,香川県,高松市,多肥上町１９８３番地１,,37,201,7618076,,,2023-04-12,合併による解散等,3470001017729,令和５年４月１２日香川県高松市多肥上町１９８３番地１株式会社ＷＩＤＥＣＡＰＩＴＡＬ（3470001017729）に合併し解散,2020-10-01,1,,,,,オーバーシーズラボ,0
1396,5480002013690,登記記録の閉鎖等,0,2023-04-25,2023-04-25,丸福海運有限会社,,有限会社,徳島県,阿南市,中林町東３９番地２,,36,204,7740016,,,2023-04-25,清算の結了等,,,2015-10-05,1,,,,,,0
1408,6010001092022,登記記録の閉鎖等,0,2023-04-25,2023-04-11,ダイヤミック株式会社,,株式会社,東京都,墨田区,両国２丁目１０番１４号,,13,107,1300026,,,2023-04-11,合併による解散等,3010001058083,令和５年４月１日東京都墨田区両国二丁目１０番１４号三菱王子紙販売株式会社（3010001058083）と合併し解散,2015-10-05,1,,,,,ダイヤミック,0
1412,6010001124915,登記記録の閉鎖等,0,2023-04-25,2023-04-12,株式会社シーブイエス,,株式会社,東京都,千代田区,外神田４丁目７番３号田中ビル,,13,101,1010021,,,2023-04-12,清算の結了等,,,2015-10-05,1,,,,,シーブイエス,0
1422,6010003027876,登記記録の閉鎖等,0,2023-04-25,2023-04-12,合同会社ＴＬＳ４,,合同会社,東京都,千代田区,丸の内３丁目１番１号東京共同会計事務所内,,13,101,1000005,,,2023-04-12,清算の結了等,,,2018-07-12,1,,,,,ティーエルエスフォー,0
1423,6010003029121,登記記録の閉鎖等,0,2023-04-25,2023-04-03,合同会社ＭＳＢＣ,,合同会社,埼玉県,春日部市,芦橋９６５番地１,00129118,11,214,3440131,,,2023-04-03,合併による解散等,2030001143033,令和５年４月１日埼玉県春日部市芦橋９６５番地１株式会社Ｍ＆Ｓ（2030001143033）に合併し解散,2019-01-23,1,,,,,エムエスビーシー,0
1460,6011701012822,登記記録の閉鎖等,0,2023-04-25,2023-04-20,輝トータルハウジング株式会社,,株式会社,東京都,江戸川区,西小岩５丁目１１番２４ベルヴィータ小岩１００２号室,,13,123,1330057,,,2023-04-20,清算の結了等,,,2015-10-05,1,,,,,カガヤキトータルハウジング,0
1492,6040003017437,登記記録の閉鎖等,0,2023-04-25,2023-04-11,合同会社ＳＭＩＬＥ　ＮＥＸＴ,,合同会社,千葉県,山武市,小松１０４３番地６,,12,237,2891302,,,2023-04-11,清算の結了等,,,2021-04-06,1,,,,,スマイルネクスト,0
1524,6110001035672,登記記録の閉鎖等,0,2023-04-25,2023-04-19,株式会社小林文具店,,株式会社,新潟県,新潟市東区,中野山４丁目９番１６号,,15,102,9500841,,,2023-04-19,清算の結了等,,,2021-04-06,1,,,,,コバヤシブングテン,0
1525,6110002000948,登記記録の閉鎖等,0,2023-04-25,2023-04-20,有限会社井村切鯣加工所,,有限会社,新潟県,新潟市中央区,山田町１丁目３９６１番地,,15,103,9518004,,,2023-04-20,清算の結了等,,,2015-10-05,1,,,,,イムラキリイカカコウショ,0
1555,6140001092926,登記記録の閉鎖等,0,2023-04-25,2023-04-24,株式会社オフィス８９,,株式会社,兵庫県,西宮市,上鳴尾町２１－７,,28,204,6638186,,,2023-04-24,清算の結了等,,,2015-10-05,1,,,,,オフィスハチジュウキュウ,0
1582,6200001005088,登記記録の閉鎖等,0,2023-04-25,2023-04-19,丸直マルイ繊維株式会社,,株式会社,岐阜県,岐阜市,三歳町４丁目１番地の１３,,21,201,5008335,,,2023-04-19,清算の結了等,,,2015-10-05,1,,,,,マルナオマルイセンイ,0
1596,6270001006402,登記記録の閉鎖等,0,2023-04-25,2023-04-14,株式会社田中エンジニアリング,,株式会社,鳥取県,西伯郡日吉津村,大字日吉津２６番地１,,31,384,6893553,,,2023-04-14,清算の結了等,,,2015-10-05,1,,,,,タナカエンジニアリング,0
1597,6270002004776,登記記録の閉鎖等,0,2023-04-25,2023-04-20,用瀬自動車有限会社,,有限会社,鳥取県,鳥取市,用瀬町鷹狩７７２番地４,,31,201,6891213,,,2023-04-20,清算の結了等,,,2015-10-05,1,,,,,モチガセジドウシャ,0
1610,6340001015718,登記記録の閉鎖等,0,2023-04-25,2023-04-03,光透葉株式会社,,株式会社,鹿児島県,鹿児島市,下伊敷１丁目８番１８号,,46,201,8900005,,,2023-04-03,合併による解散等,8340001018990,令和５年４月１日鹿児島市下伊敷一丁目７番５号株式会社ヒカリヲ（8340001018990）に合併し解散,2015-10-05,1,,,,,コトハ,0
1612,6350002016870,登記記録の閉鎖等,0,2023-04-25,2023-04-12,有限会社松下水産,,有限会社,宮崎県,日南市,大堂津４丁目４番２４号,,45,204,8893141,,,2023-04-12,清算の結了等,,,2015-10-05,1,,,,,マツシタスイサン,0
1656,7010001105666,登記記録の閉鎖等,0,2023-04-25,2023-04-03,株式会社ジェイピーケー,,株式会社,愛知県,名古屋市守山区,幸心２丁目１３３８番地,,23,113,4630079,,,2023-04-03,合併による解散等,8180001102068,令和５年４月１日名古屋市守山区幸心二丁目１３３８番地株式会社山忠観光（8180001102068）に合併し解散,2015-10-05,1,,,,,ジェイピーケー,0
1686,7010803003233,登記記録の閉鎖等,0,2023-04-25,2023-04-13,ＮＡＧＡＴＡ＆Ｐａｒｔｎｅｒｓ合同会社,,合同会社,東京都,大田区,下丸子２丁目１３番１号,,13,111,1460092,,,2023-04-13,清算の結了等,,,2020-01-16,1,,,,,ナガタアンドパートナーズ,0
1769,7070001023648,登記記録の閉鎖等,0,2023-04-25,2023-04-18,浅間観光自動車株式会社,,株式会社,群馬県,吾妻郡嬬恋村,大字大前７７５番地,,10,425,3771612,,,2023-04-18,清算の結了等,,,2015-10-05,1,,,,,アサマカンコウジドウシャ,0
1771,7070001023763,登記記録の閉鎖等,0,2023-04-25,2023-04-18,群北観光バス株式会社,,株式会社,群馬県,吾妻郡嬬恋村,大字大前７７５番地１３,,10,425,3771612,,,2023-04-18,清算の結了等,,,2015-10-05,1,,,,,グンホクカンコウバス,0
1775,7080101008135,登記記録の閉鎖等,0,2023-04-25,2023-04-21,井出建設株式会社,,株式会社,静岡県,富士市,入山瀬３丁目６番４６号,,22,210,4190204,,,2023-04-21,清算の結了等,,,2015-10-05,1,,,,,イデケンセツ,0
1780,7080402004502,登記記録の閉鎖等,0,2023-04-25,2023-04-24,有限会社園田製作所,,有限会社,静岡県,浜松市南区,飯田町１８１６番地,,22,134,4350028,,,2023-04-24,清算の結了等,,,2015-10-05,1,,,,,ソノダセイサクショ,0
1781,7100001018207,登記記録の閉鎖等,0,2023-04-25,2023-04-19,株式会社エクセル,,株式会社,長野県,諏訪市,大字四賀１２９５番地１,,20,206,3920012,,,2023-04-19,清算の結了等,,,2015-10-05,1,,,,,エクセル,0
1794,7120001179716,登記記録の閉鎖等,0,2023-04-25,2023-04-20,イシコテック株式会社,,株式会社,兵庫県,尼崎市,久々知西町１丁目１１番１号,,28,202,6610978,,,2023-04-20,合併による解散等,6180301022950,令和５年４月１日愛知県西尾市米津町五郎田１番地１株式会社タマリ工業（6180301022950）に合併し解散,2015-10-05,1,,,,,イシコテック,0
1828,7180001145951,登記記録の閉鎖等,0,2023-04-25,2023-04-21,株式会社嘉達,,株式会社,愛知県,名古屋市緑区,太子３丁目２３番地,,23,114,4580823,,,2023-04-21,清算の結了等,,,2021-05-11,1,,,,,ヨシタツ,0
1829,7180002029039,登記記録の閉鎖等,0,2023-04-25,2023-04-19,有限会社増田,,有限会社,愛知県,名古屋市中村区,日比津町４丁目１９番１３号,,23,105,4530061,,,2023-04-19,清算の結了等,,,2015-10-05,1,,,,,マスダ,0
1834,7200001020862,登記記録の閉鎖等,0,2023-04-25,2023-04-03,東海西濃運輸株式会社,,株式会社,岐阜県,多治見市,音羽町５丁目６０番地,,21,204,5070037,,,2023-04-03,合併による解散等,7200001015755,令和５年４月１日岐阜県大垣市田口町１番地西濃運輸株式会社（7200001015755）に合併し解散　,2015-10-05,1,,,,,トウカイセイノウウンユ,0
1837,7200002024854,登記記録の閉鎖等,0,2023-04-25,2023-04-24,旭鐵工有限会社,,有限会社,岐阜県,高山市,下切町１５５番地,,21,203,5060041,,,2023-04-24,清算の結了等,,,2015-10-05,1,,,,,,0
1839,7210001009608,登記記録の閉鎖等,0,2023-04-25,2023-04-21,株式会社丸茂,,株式会社,福井県,福井市,順化１丁目５番１０号,,18,201,9100023,,,2023-04-21,清算の結了等,,,2015-10-05,1,,,,,マルモ,0
1840,7210002011001,登記記録の閉鎖等,0,2023-04-25,2023-04-21,有限会社美浜釣舟センター,,有限会社,福井県,三方郡美浜町,早瀬第３号２６番地の２,,18,442,9191124,,,2023-04-21,清算の結了等,,,2015-10-05,1,,,,,ミハマツリブネセンター,0
1842,7220001010498,登記記録の閉鎖等,0,2023-04-25,2023-04-18,株式会社十兵衛,,株式会社,石川県,金沢市,錦町ミ１３番地２,,17,201,9200952,,,2023-04-18,清算の結了等,,,2015-10-05,1,,,,,ジュウベエ,0
1846,7240002032003,登記記録の閉鎖等,0,2023-04-25,2023-04-04,有限会社アキピアノサービス,,有限会社,広島県,呉市,焼山桜ヶ丘２丁目１０番９号,,34,202,7370933,,,2023-04-04,清算の結了等,,,2015-10-05,1,,,,,アキピアノサービス,0
1868,7290001086573,登記記録の閉鎖等,0,2023-04-25,2023-04-21,株式会社アド通信社西部本社,,株式会社,福岡県,北九州市小倉北区,堺町１丁目３番１５号,,40,106,8020005,,,2023-04-21,合併による解散等,2200001003384,令和５年４月１日岐阜市東興町２７番地株式会社中広（2200001003384）に合併し解散,2019-09-27,1,,,,,アドツウシンシャセイブホンシャ,0
1885,7340001020106,登記記録の閉鎖等,0,2023-04-25,2023-04-03,株式会社光透葉ホールディングス,,株式会社,鹿児島県,鹿児島市,下伊敷１丁目８番１８号,,46,201,8900005,,,2023-04-03,合併による解散等,8340001018990,令和５年４月１日鹿児島市下伊敷一丁目７番５号株式会社ヒカリヲ（8340001018990）に合併し解散,2017-03-14,1,,,,,コトハホールディングス,0
1886,7350001007580,登記記録の閉鎖等,0,2023-04-25,2023-04-12,株式会社ビーシー・プランニング,,株式会社,宮崎県,延岡市,北一ケ岡４丁目７番６号,,45,203,8890505,,,2023-04-12,清算の結了等,,,2015-10-05,1,,,,,ビーシープランニング,0
1906,7430002041538,登記記録の閉鎖等,0,2023-04-25,2023-04-06,有限会社システムビルド,,有限会社,北海道,札幌市厚別区,厚別西五条１丁目１３番１１号,,01,108,0040065,,,2023-04-06,清算の結了等,,,2015-10-05,1,,,,,システムビルド,0
1927,8010003033625,登記記録の閉鎖等,0,2023-04-25,2023-04-12,合同会社オルタナ１,,合同会社,東京都,千代田区,丸の内３丁目１番１号東京共同会計事務所内,,13,101,1000005,,,2023-04-12,清算の結了等,,,2020-11-30,1,,,,,オルタナワン,0
1930,8010005028318,登記記録の閉鎖等,0,2023-04-25,2023-04-21,一般社団法人ＩＰレジデンス,,その他の設立登記法人,東京都,千代田区,丸の内３丁目１番１号東京共同会計事務所内,,13,101,1000005,,,2023-04-21,清算の結了等,,,2018-04-04,1,,,,,アイピーレジデンス,0
1933,8010401132400,登記記録の閉鎖等,0,2023-04-25,2023-04-18,株式会社プレミアム・プラットフォーム・ジャパン,,株式会社,東京都,港区,赤坂１丁目１２番３２号,,13,103,1070052,,,2023-04-18,合併による解散等,7011001116975,令和５年３月３１日東京都品川区上大崎三丁目１番１号株式会社Ｕ－ＮＥＸＴ（7011001116975）に合併し解散,2017-07-12,1,,,,,プレミアムプラットフォームジャパン,0
1935,8010401163445,登記記録の閉鎖等,0,2023-04-25,2023-04-21,株式会社Ｔｒｅａｔｅ．,,株式会社,東京都,調布市,下石原３丁目２７番６号,,13,208,1820034,,,2023-04-21,清算の結了等,,,2021-10-26,1,,,,,トリート,0
1960,8011001007851,登記記録の閉鎖等,0,2023-04-25,2023-04-17,株式会社向陽コマース,,株式会社,東京都,渋谷区,上原２丁目３４番３号,,13,113,1510064,,,2023-04-17,清算の結了等,,,2015-10-05,1,,,,,コウヨウコマース,0
1961,8011001090245,登記記録の閉鎖等,0,2023-04-25,2023-04-13,株式会社ミューズアソシエイツ,,株式会社,神奈川県,横浜市中区,住吉町２丁目２２番地,,14,104,2310013,,,2023-04-13,清算の結了等,,,2015-10-05,1,,,,,ミューズアソシエイツ,0
1978,8011101074775,登記記録の閉鎖等,0,2023-04-25,2023-04-21,株式会社Ｔｅｎ　Ｃａｒａｔ,,株式会社,東京都,新宿区,中落合１丁目１０番１２号サークルハウス中落合１０９号室,,13,104,1610032,,,2023-04-21,清算の結了等,,,2015-10-05,1,,,,,,0
2002,8013301020575,登記記録の閉鎖等,0,2023-04-25,2023-04-17,株式会社ネットワールドビジネス,,株式会社,東京都,豊島区,東池袋１丁目３３番４号,,13,116,1700013,,,2023-04-17,清算の結了等,,,2015-10-05,1,,,,,ネットワールドビジネス,0
2039,8040002021966,登記記録の閉鎖等,0,2023-04-25,2023-04-14,有限会社幸誠建設,,有限会社,千葉県,船橋市,浜町１丁目２６番３号,,12,204,2730012,,,2023-04-14,清算の結了等,,,2015-10-05,1,,,,,コウセイケンセツ,0
2047,8040002095003,登記記録の閉鎖等,0,2023-04-25,2023-04-13,福島住宅有限会社,,有限会社,千葉県,柏市,船戸山高野４３番地１,,12,217,2770801,,,2023-04-13,清算の結了等,,,2015-10-05,1,,,,,フクシマジュウタク,0
2063,8080401001978,登記記録の閉鎖等,0,2023-04-25,2023-04-24,株式会社佐藤事務所,,株式会社,静岡県,浜松市中区,高丘北１丁目９番１２号,,22,131,4338119,,,2023-04-24,清算の結了等,,,2015-10-05,1,,,,,サトウジムショ,0
2070,8120001051980,登記記録の閉鎖等,0,2023-04-25,2023-04-20,シーマ電子株式会社,,株式会社,大阪府,大阪市東淀川区,下新庄３丁目５番４－９０６号,,27,114,5330021,,,2023-04-20,清算の結了等,,,2015-10-05,1,,,,,シーマデンシ,0
2071,8120001089765,登記記録の閉鎖等,0,2023-04-25,2023-04-21,松崎商事株式会社,00028676,株式会社,大阪府,大阪市阿倍野区,阿倍野元町３番１０－５０６号,,27,119,5450034,,,2023-04-21,清算の結了等,,,2015-10-05,1,,,,,マツザキショウジ,0
2073,8120001147399,登記記録の閉鎖等,0,2023-04-25,2023-04-13,池田工業株式会社,,株式会社,大阪府,寝屋川市,高宮１丁目２０番１６号,,27,215,5720806,,,2023-04-13,清算の結了等,,,2023-02-17,1,,,,,,0
2075,8120001157522,登記記録の閉鎖等,0,2023-04-25,2023-04-11,三友開発株式会社,,株式会社,大阪府,門真市,野里町８番６号,,27,223,5710079,,,2023-04-11,清算の結了等,,,2015-10-05,1,,,,,サンユウカイハツ,0
2121,8140002029883,登記記録の閉鎖等,0,2023-04-25,2023-04-24,明北興産有限会社,,有限会社,兵庫県,明石市,大久保町高丘７丁目７の１,,28,203,6740057,,,2023-04-24,清算の結了等,,,2015-10-05,1,,,,,メイホクコウサン,0
2137,8180001143657,登記記録の閉鎖等,0,2023-04-25,2023-04-20,株式会社湊翔,,株式会社,愛知県,岩倉市,西市町東畑田３８番地,,23,228,4820036,,,2023-04-20,清算の結了等,,,2020-11-19,1,,,,,ミナト,0
2142,8180003019789,登記記録の閉鎖等,0,2023-04-25,2023-04-20,合同会社Ｐａｓｓｉｏｎ,,合同会社,愛知県,名古屋市名東区,高社２丁目９２,,23,115,4650095,,,2023-04-20,清算の結了等,,,2019-03-12,1,,,,,パッション,0
2153,8200001030893,登記記録の閉鎖等,0,2023-04-25,2023-04-20,株式会社明季,,株式会社,岐阜県,岐阜市,六条南３丁目４番１３号,,21,201,5008358,,,2023-04-20,合併による解散等,3010001113664,令和５年４月１日東京都千代田区神田駿河台四丁目６番地株式会社ニチイケアパレス（3010001113664）に合併し解散,2015-10-05,1,,,,,,0
2156,8200002027567,登記記録の閉鎖等,0,2023-04-25,2023-04-13,有限会社とっぷ印刷,,有限会社,岐阜県,下呂市,萩原町宮田５９０番地,,21,220,5092511,,,2023-04-13,清算の結了等,,,2015-10-05,1,,,,,トップインサツ,0
2166,8240002046191,登記記録の閉鎖等,0,2023-04-25,2023-04-07,有限会社両備オート,,有限会社,広島県,神石郡神石高原町,下豊松７６２番地の２,,34,545,7201704,,,2023-04-07,清算の結了等,,,2015-10-05,1,,,,,リョウビオート,0
2171,8260002023197,登記記録の閉鎖等,0,2023-04-25,2023-04-20,有限会社スクールゾーン,,有限会社,岡山県,倉敷市,児島田の口３丁目１０番２５号,,33,202,7110903,,,2023-04-20,清算の結了等,,,2015-10-05,1,,,,,スクールゾーン,0
2184,8290805006940,登記記録の閉鎖等,0,2023-04-25,2023-04-21,行橋市管工事協同組合,,その他の設立登記法人,福岡県,行橋市,中央１丁目１０番１８号,,40,213,8240005,,,2023-04-21,清算の結了等,,,2015-10-05,1,,,,,ユクハシシカンコウジ,0
2189,8310001010505,登記記録の閉鎖等,0,2023-04-25,2023-04-14,株式会社岩藤土地建物,,株式会社,長崎県,松浦市,今福町浦免４７５番地,,42,208,8594528,,,2023-04-14,清算の結了等,,,2015-10-05,1,,,,,イワフジトチタテモノ,0
2220,8410002001526,登記記録の閉鎖等,0,2023-04-25,2023-04-21,有限会社後藤食品,,有限会社,秋田県,秋田市,濁川字三升作１番地１２６,,05,201,0100821,,,2023-04-21,清算の結了等,,,2015-10-05,1,,,,,,0
2224,8420002018478,登記記録の閉鎖等,0,2023-04-25,2023-04-17,有限会社陽光物産,,有限会社,青森県,上北郡東北町,大字大浦字境ノ沢２４番地２,,02,408,0392402,,,2023-04-17,清算の結了等,,,2015-10-05,1,,,,,ヨウコウブッサン,0
2238,8470003001503,登記記録の閉鎖等,0,2023-04-25,2023-04-12,合同会社ＬＯＣＯＭ,,合同会社,香川県,高松市,多肥上町１９８３番地１,,37,201,7618076,,,2023-04-12,合併による解散等,3470001017729,令和５年４月１２日香川県高松市多肥上町１９８３番地１株式会社ＷＩＤＥＣＡＰＩＴＡＬ（3470001017729）に合併し解散,2018-11-14,1,,,,,ロコム,0
2239,8480001000415,登記記録の閉鎖等,0,2023-04-25,2023-04-24,株式会社カンキョー南四国,,株式会社,徳島県,徳島市,北沖洲４丁目８番３０号,,36,201,7700872,,,2023-04-24,清算の結了等,,,2015-10-05,1,,,,,,0
2242,8500002009700,登記記録の閉鎖等,0,2023-04-25,2023-04-25,有限会社ＭＹＭ,,有限会社,愛媛県,松山市,立花３丁目８番４７号,,38,201,7900966,,,2023-04-25,清算の結了等,,,2015-10-05,1,,,,,エムワイエム,0
2267,9010401036724,登記記録の閉鎖等,0,2023-04-25,2023-04-06,東汽商事株式会社,,株式会社,東京都,港区,海岸１丁目１６番１号,,13,103,1050022,,,2023-04-06,合併による解散等,3010401020097,令和５年４月１日東京都港区海岸一丁目１６番１号東海汽船株式会社（3010401020097）に合併し解散,2015-10-05,1,,,,,トウキショウジ,0
2281,9010603004925,登記記録の閉鎖等,0,2023-04-25,2023-04-20,合同会社コンパス,,合同会社,東京都,江東区,南砂４丁目１２番１０－２１９号,,13,108,1360076,,,2023-04-20,清算の結了等,,,2015-10-05,1,,,,,コンパス,0
2285,9010802000642,登記記録の閉鎖等,0,2023-04-25,2023-04-12,有限会社アップス,,有限会社,東京都,大田区,大森本町２丁目１８番１１号,,13,111,1430011,,,2023-04-12,清算の結了等,,,2015-10-05,1,,,,,アップス,0
2289,9011001099137,登記記録の閉鎖等,0,2023-04-25,2023-04-21,株式会社Ｓ・Ｓプログレス,,株式会社,神奈川県,横浜市西区,高島２丁目１０番１３号,,14,103,2200011,,,2023-04-21,合併による解散等,2011101038612,令和５年４月１日東京都渋谷区千駄ヶ谷五丁目８番９号株式会社サンキョウ・ロジ・アソシエート（2011101038612）に合併し解散,2015-10-05,1,,,,,エスエスプログレス,0
2324,9020001003074,登記記録の閉鎖等,0,2023-04-25,2023-04-14,ダイナミックシステムサイエンス株式会社,,株式会社,神奈川県,横浜市磯子区,馬場町９番８号,,14,107,2350002,,,2023-04-14,清算の結了等,,,2015-10-05,1,,,,,ダイナミックシステムサイエンス,0
2339,9030001100259,登記記録の閉鎖等,0,2023-04-25,2023-04-07,さっかりん株式会社,,株式会社,埼玉県,幸手市,大字槇野地６２５番地１,,11,240,3400135,,,2023-04-07,清算の結了等,,,2015-10-05,1,,,,,サッカリン,0
2352,9040001028739,登記記録の閉鎖等,0,2023-04-25,2023-04-07,新京成フロンティア企画株式会社,,株式会社,千葉県,鎌ケ谷市,くぬぎ山４丁目１番１２号,,12,224,2730128,,,2023-04-07,合併による解散等,7010601024893,令和５年４月１日千葉県市川市八幡三丁目３番１号京成フロンティア企画株式会社（7010601024893）に合併し解散,2015-10-05,1,,,,,シンケイセイフロンティアキカク,0
2370,9060002023043,登記記録の閉鎖等,0,2023-04-25,2023-04-12,有限会社斉藤油店,,有限会社,栃木県,那須郡那須町,大字寺子丙３番地３,,09,407,3293222,,,2023-04-12,清算の結了等,,,2015-10-05,1,,,,,サイトウアブラテン,0
2376,9080002014916,登記記録の閉鎖等,0,2023-04-25,2023-04-21,有限会社土屋商店,,有限会社,静岡県,牧之原市,波津１丁目４１番地の２,,22,226,4210523,,,2023-04-21,清算の結了等,,,2015-10-05,1,,,,,ツチヤショウテン,0
2390,9120001012602,登記記録の閉鎖等,0,2023-04-25,2023-04-21,株式会社インフラテクノ,,株式会社,大阪府,大阪市西区,南堀江２丁目１番１号,,27,106,5500015,,,2023-04-21,合併による解散等,9010901014551,令和５年４月１日東京都大田区平和島四丁目１番２３号エクシオインフラ株式会社（9010901014551）に合併し解散,2015-10-05,1,,,,,インフラテクノ,0
2401,9120002018763,登記記録の閉鎖等,0,2023-04-25,2023-04-21,有限会社白井商店,,有限会社,大阪府,大阪市福島区,野田１丁目１番８６号,,27,103,5530005,,,2023-04-21,清算の結了等,,,2015-10-05,1,,,,,シライショウテン,0
2406,9120005005998,登記記録の閉鎖等,0,2023-04-25,2023-04-21,西部眼鏡光学器類製造協同組合,,その他の設立登記法人,大阪府,大阪市生野区,巽西２丁目１５番２７号,00031883,27,116,5440012,,,2023-04-21,清算の結了等,,,2015-10-05,1,,,,,セイブガンキョウコウガクキルイセイゾウ,0
2419,9130001025330,登記記録の閉鎖等,0,2023-04-25,2023-04-20,株式会社Ｔａｓｔｅ　Ｏｎｅ,,株式会社,京都府,京都市南区,久世高田町３７３番地１京都桂川つむぎの街グランスクエア２１２号,,26,107,6018211,,,2023-04-20,清算の結了等,,,2015-10-05,1,,,,,テイストワン,0
2431,9140001127596,登記記録の閉鎖等,0,2023-04-25,2023-04-17,株式会社志水工務店,,株式会社,兵庫県,神崎郡福崎町,西治４１２番地１０,,28,443,6792215,,,2023-04-17,清算の結了等,,,2022-10-06,1,,,,,シミズコウムテン,0
2435,9150001010727,登記記録の閉鎖等,0,2023-04-25,2023-04-19,株式会社壺阪工務店,,株式会社,奈良県,高市郡高取町,大字清水谷２３２２番地,,29,401,6350103,,,2023-04-19,清算の結了等,,,2015-10-05,1,,,,,ツボサカコウムテン,0
2467,9270005004614,登記記録の閉鎖等,0,2023-04-25,2023-04-17,ファッション・ネット協同組合,,その他の設立登記法人,鳥取県,倉吉市,東巌城町１１２番地５号,,31,203,6820802,,,2023-04-17,清算の結了等,,,2015-10-05,1,,,,,ファッションネット,0
2474,9290805001115,登記記録の閉鎖等,0,2023-04-25,2023-04-18,天理教横須分教会,,その他の設立登記法人,福岡県,北九州市戸畑区,小芝３丁目１２番１２号,,40,105,8040092,,,2023-04-18,合併による解散等,8250005001688,令和５年３月２７日山口県防府市桑山一丁目２番３１号天理教防府大教会（8250005001688）に合併し解散,2015-10-05,1,,,,,,0
2485,9340001022091,登記記録の閉鎖等,0,2023-04-25,2023-04-03,ｋａｎｏｎ株式会社,,株式会社,鹿児島県,鹿児島市,武岡５丁目４５番地３２,,46,201,8900031,,,2023-04-03,合併による解散等,8340001018990,令和５年４月１日鹿児島市下伊敷一丁目７番５号株式会社ヒカリヲ（8340001018990）に合併し解散,2019-06-27,1,,,,,カノン,0
2518,9430003000565,登記記録の閉鎖等,0,2023-04-25,2023-04-11,合名会社オーシーアールシステムサッポロ,,合名会社,北海道,札幌市東区,北三十条東１丁目５番１号,,01,103,0650030,,,2023-04-11,清算の結了等,,,2015-10-05,1,,,,,オーシーアールシステムサッポロ,0
