sequenceNumber,corporateNumber,process,correct,updateDate,changeDate,name,nameImageId,kind,prefectureName,cityName,streetNumber,addressImageId,prefectureCode,cityCode,postCode,addressOutside,addressOutsideImageId,closeDate,closeCause,successorCorporateNumber,changeCause,assignmentDate,latest,enName,enPrefectureName,enCityName,enAddressOutside,furigana,hihyoji
1,1010001071880,登記記録の閉鎖等,0,2025-09-11,2025-09-05,株式会社サクレ,,株式会社,東京都,三鷹市,牟礼４丁目１３番１５号,,13,204,1810002,,,2025-09-05,清算の結了等,,,2015-10-05,1,,,,,サクレ,0
27,1010403021079,登記記録の閉鎖等,0,2025-09-11,2025-08-26,Ｋｉｎｇｆｉｓｈｅｒ　Ｓｅｒｖｉｃｅｓ　Ａｕｓｔｒａｌａｓｉａ合同会社,,合同会社,東京都,中央区,日本橋３丁目９番１号日本橋三丁目スクエア１１階,,13,102,1030027,,,2025-08-26,清算の結了等,,,2019-07-12,1,,,,,キングフィッシャーサービシイズオーストララジア,0
32,1010405016119,登記記録の閉鎖等,0,2025-09-11,2025-08-13,一般社団法人日本観光地域活性化機構,,その他の設立登記法人,東京都,港区,東新橋２丁目４番６号,,13,103,1050021,,,2025-08-13,清算の結了等,,,2017-10-06,1,,,,,ニホンカンコウチイキカッセイカキコウオ,0
54,1011001143752,登記記録の閉鎖等,0,2025-09-11,2025-08-12,Ｎ株式会社,,株式会社,東京都,渋谷区,渋谷２丁目１９－１５宮益坂ビルディング６０９,,13,113,1500002,,,2025-08-12,清算の結了等,,,2021-11-04,1,,,,,エヌ,0
62,1011101033960,登記記録の閉鎖等,0,2025-09-11,2025-08-27,株式会社ナヴィスコーポレーション,,株式会社,東京都,千代田区,麹町２丁目２番地麹町鈴木ビル５階,,13,101,1020083,,,2025-08-27,清算の結了等,,,2015-10-05,1,,,,,ナヴィスコーポレーション,0
64,1011101087222,登記記録の閉鎖等,0,2025-09-11,2025-09-01,株式会社ＯＡ総研,,株式会社,東京都,千代田区,神田駿河台４丁目６番地,,13,101,1010062,,,2025-09-01,合併による解散等,3010001113664,令和７年９月１日東京都千代田区神田駿河台四丁目６番地株式会社ニチイケアパレス（3010001113664）に合併し解散,2019-03-26,1,,,,,オーエーソウケン,0
65,1011101090060,登記記録の閉鎖等,0,2025-09-11,2025-08-12,株式会社ＪＧＭ,,株式会社,東京都,渋谷区,神宮前６丁目２８番９号東武ビル６階,,13,113,1500001,,,2025-08-12,清算の結了等,,,2020-01-10,1,,,,,ジェイジーエム,0
68,1011102018969,登記記録の閉鎖等,0,2025-09-11,2025-08-21,有限会社日本社寺塗装,,有限会社,東京都,新宿区,喜久井町１９番地松本ビル,,13,104,1620044,,,2025-08-21,清算の結了等,,,2015-10-05,1,,,,,ニホンシャジトソウ,0
78,1012401021787,登記記録の閉鎖等,0,2025-09-11,2025-09-05,株式会社メディタ,,株式会社,東京都,武蔵野市,吉祥寺東町１丁目１５番１５号４,,13,203,1800002,,,2025-09-05,清算の結了等,,,2015-10-05,1,,,,,メディタ,0
82,1012702008211,登記記録の閉鎖等,0,2025-09-11,2025-09-04,有限会社岬,,有限会社,東京都,清瀬市,松山２丁目８番２４号,,13,221,2040022,,,2025-09-04,清算の結了等,,,2015-10-05,1,,,,,ミサキ,0
95,1021002003624,登記記録の閉鎖等,0,2025-09-11,2025-09-04,有限会社富山工業,,有限会社,神奈川県,藤沢市,鵠沼１５５６番地,,14,205,2510022,,,2025-09-04,清算の結了等,,,2015-10-05,1,,,,,トミヤマコウギョウ,0
100,1030001071887,登記記録の閉鎖等,0,2025-09-11,2025-09-03,株式会社メディアクラフト,,株式会社,埼玉県,比企郡嵐山町,大字菅谷４７１番地１,,11,342,3550221,,,2025-09-03,清算の結了等,,,2015-10-05,1,,,,,メディアクラフト,0
101,1030001075062,登記記録の閉鎖等,0,2025-09-11,2025-09-02,株式会社三会商会,,株式会社,埼玉県,川口市,戸塚鋏町２３番１５号,,11,203,3330805,,,2025-09-02,清算の結了等,,,2015-10-05,1,,,,,ミエショウカイ,0
106,1030002118885,登記記録の閉鎖等,0,2025-09-11,2025-09-02,有限会社ナカゴミアンドアソシエイツ,,有限会社,埼玉県,行田市,大字長野６３６番地５,,11,206,3610023,,,2025-09-02,清算の結了等,,,2015-10-05,1,,,,,ナカゴミアンドアソシエイツ,0
121,1070001007854,登記記録の閉鎖等,0,2025-09-11,2025-09-08,株式会社友野測量設計事務所,,株式会社,群馬県,高崎市,上並榎町６４０番地３,,10,202,3700801,,,2025-09-08,清算の結了等,,,2015-10-05,1,,,,,トモノソクリョウセッケイジムショ,0
128,1080402010150,登記記録の閉鎖等,0,2025-09-11,2025-09-02,有限会社堀江モータース,,有限会社,静岡県,湖西市,新居町新居３３６３番地の４,,22,221,4310302,,,2025-09-02,清算の結了等,,,2015-10-05,1,,,,,ホリエモータース,0
129,1080403004572,登記記録の閉鎖等,0,2025-09-11,2025-09-04,合同会社ＫＴＴ,,合同会社,静岡県,浜松市中央区,蜆塚１丁目６番３６号,,22,138,4328018,,,2025-09-04,清算の結了等,,,2022-06-29,1,,,,,ケーティーティー,0
144,1120001260596,登記記録の閉鎖等,0,2025-09-11,2025-09-04,富伸貿易株式会社,,株式会社,大阪府,大阪市中央区,安堂寺町２丁目２番１３－３０１号,,27,128,5420061,,,2025-09-04,清算の結了等,,,2023-12-13,1,,,,,フクシンボウエキ,0
151,1120002068254,登記記録の閉鎖等,0,2025-09-11,2025-09-08,有限会社ケイトレーディング,,有限会社,大阪府,大阪市中央区,北久宝寺町２丁目２番７号船場西川ビル２階２０１号,,27,128,5410057,,,2025-09-08,合併による解散等,6170002006452,令和７年９月２日和歌山県海南市名高５３５番地１６株式会社ケイアンドエム（6170002006452）に合併し解散,2015-10-05,1,,,,,ケイトレーディング,0
184,1160003001796,登記記録の閉鎖等,0,2025-09-11,2025-09-05,ＳｍａｒｔＴｏｗｎ合同会社,,合同会社,滋賀県,愛知郡愛荘町,市８０５番地２,,25,425,5291313,,,2025-09-05,清算の結了等,,,2019-02-25,1,,,,,スマートタウン,0
189,1180005014456,登記記録の閉鎖等,0,2025-09-11,2025-09-08,税理士法人ブレーントラスト,,その他の設立登記法人,愛知県,一宮市,島村字六反田１３８番地,,23,203,4910121,,,2025-09-08,清算の結了等,,,2015-10-05,1,,,,,ブレーントラスト,0
192,1180303005529,登記記録の閉鎖等,0,2025-09-11,2025-09-01,合同会社構造技術設計事務所,,合同会社,愛知県,豊田市,上渡合町細首３４２番地１８,,23,211,4700462,,,2025-09-01,清算の結了等,,,2022-12-06,1,,,,,コウゾウギジュツセッケイジムショ,0
202,1240001049474,登記記録の閉鎖等,0,2025-09-11,2025-09-05,ヒラモト板金工業株式会社,,株式会社,広島県,広島市安佐南区,上安２丁目２５番２０号,,34,105,7310154,,,2025-09-05,清算の結了等,,,2016-06-06,1,,,,,ヒラモトバンキンコウギョウ,0
206,1250002003594,登記記録の閉鎖等,0,2025-09-11,2025-09-08,有限会社ゆうき,,有限会社,山口県,防府市,栄町１丁目６番９号カリヨンマンション１階,,35,206,7470035,,,2025-09-08,清算の結了等,,,2015-10-05,1,,,,,ユウキ,0
207,1280003001215,登記記録の閉鎖等,0,2025-09-11,2025-09-10,合同会社Ａｚｕｒｅ,,合同会社,島根県,出雲市,佐田町一窪田１２３９番地３,,32,203,6930522,,,2025-09-10,清算の結了等,,,2018-04-11,1,,,,,アジュール,0
210,1290002001999,登記記録の閉鎖等,0,2025-09-11,2025-08-19,有限会社ケーエスエンジニアリング,,有限会社,福岡県,福岡市南区,老司２丁目２３番４号,,40,134,8111346,,,2025-08-19,清算の結了等,,,2015-10-05,1,,,,,ケーエスエンジニアリング,0
213,1290802018342,登記記録の閉鎖等,0,2025-09-11,2025-09-03,有限会社Ａ＆Ｍシステム,,有限会社,福岡県,北九州市八幡西区,陣山２丁目１－１８オークランド陣山５０１号,,40,109,8060012,,,2025-09-03,清算の結了等,,,2015-10-05,1,,,,,,0
215,1310002020518,登記記録の閉鎖等,0,2025-09-11,2025-09-08,有限会社嵩コンタクトレンズセンター,,有限会社,長崎県,五島市,福江町１５番１７号,,42,211,8530007,,,2025-09-08,清算の結了等,,,2015-10-05,1,,,,,ダケコンタクトレンズセンター,0
220,1330003009657,登記記録の閉鎖等,0,2025-09-11,2025-09-02,ＴＴＭＣ株式会社,,株式会社,熊本県,熊本市東区,湖東３丁目４番１６号,,43,102,8620909,,,2025-09-02,合併による解散等,7330003010205,令和７年９月１日熊本市東区湖東三丁目４番１６号ＴＴ１株式会社（7330003010205）に合併し解散,2023-01-06,1,,,,,ティーティーエムシー,0
224,1350001011002,登記記録の閉鎖等,0,2025-09-11,2025-09-05,株式会社サンクオート,,株式会社,宮崎県,宮崎市,阿波岐原町前浜４２７６番地３１６,,45,201,8800835,,,2025-09-05,清算の結了等,,,2015-10-05,1,,,,,サンクオート,0
228,1370001046244,登記記録の閉鎖等,0,2025-09-11,2025-08-27,株式会社ＡｓｋＢｒｉｄｇｅ,,株式会社,宮城県,黒川郡大衡村,大瓜字蒲切沢５２－３,,04,424,9813601,,,2025-08-27,清算の結了等,,,2020-10-14,1,,,,,アスクブリッジ,0
234,1400001008546,登記記録の閉鎖等,0,2025-09-11,2025-09-01,株式会社ラクシュミー,,株式会社,岩手県,盛岡市,大通２丁目６番１１号日興産業ビル３Ｆ,,03,201,0200022,,,2025-09-01,清算の結了等,,,2015-10-05,1,,,,,ラクシュミー,0
243,1420005003789,登記記録の閉鎖等,0,2025-09-11,2025-08-29,協同組合金木あすなろ商店会,,その他の設立登記法人,青森県,五所川原市,金木町朝日山４４６番地１,,02,205,0370202,,,2025-08-29,清算の結了等,,,2015-10-05,1,,,,,カナギアスナロショウテンカイ,0
247,1450001010200,登記記録の閉鎖等,0,2025-09-11,2025-09-08,株式会社ベッツアクシス,,株式会社,北海道,深川市,四条１４番１号,,01,228,0740004,,,2025-09-08,清算の結了等,,,2015-10-05,1,,,,,ベッツアクシス,0
251,1470002010544,登記記録の閉鎖等,0,2025-09-11,2025-09-05,有限会社池添組,,有限会社,香川県,木田郡三木町,大字池戸１１７２番地１,,37,341,7610701,,,2025-09-05,清算の結了等,,,2015-10-05,1,,,,,イケゾエグミ,0
257,1500002016199,登記記録の閉鎖等,0,2025-09-11,2025-09-08,有限会社金子工業,,有限会社,愛媛県,新居浜市,磯浦町５番１号,,38,205,7920002,,,2025-09-08,清算の結了等,,,2015-10-05,1,,,,,カネココウギョウ,0
264,2010001150403,登記記録の閉鎖等,0,2025-09-11,2025-08-25,株式会社アール・アンド・エス,,株式会社,東京都,文京区,湯島２丁目８番２号,,13,105,1130034,,,2025-08-25,清算の結了等,,,2015-10-05,1,,,,,アールアンドエス,0
288,2010403021516,登記記録の閉鎖等,0,2025-09-11,2025-08-27,合同会社ＪＦＫ,,合同会社,東京都,千代田区,内幸町１丁目３番３号,,13,101,1000011,,,2025-08-27,清算の結了等,,,2019-09-27,1,,,,,ジェイエフケイ,0
294,2010503005501,登記記録の閉鎖等,0,2025-09-11,2025-09-01,恒基合同会社,,合同会社,東京都,台東区,寿４丁目１０番９号,,13,106,1110042,,,2025-09-01,清算の結了等,,,2019-01-23,1,,,,,コウキ,0
300,2010801012967,登記記録の閉鎖等,0,2025-09-11,2025-08-28,株式会社オーサキスタジオ,,株式会社,東京都,大田区,東六郷３丁目８番４－４１８号,,13,111,1440046,,,2025-08-28,清算の結了等,,,2015-10-05,1,,,,,オーサキスタジオ,0
318,2011101028761,登記記録の閉鎖等,0,2025-09-11,2025-09-01,株式会社日本システムプロジェクト,,株式会社,東京都,中野区,中野４丁目１０番１号中野セントラルパークイースト,,13,114,1640001,,,2025-09-01,合併による解散等,3011601010978,令和７年９月１日東京都中野区中野四丁目１０番１号中野セントラルパークイースト鈴茂器工株式会社（3011601010978）に合併し解散,2015-10-05,1,,,,,ニホンシステムプロジェクト,0
346,2020001040157,登記記録の閉鎖等,0,2025-09-11,2025-08-27,株式会社ウルア,,株式会社,神奈川県,横浜市保土ケ谷区,霞台５３番１４号,,14,106,2400014,,,2025-08-27,清算の結了等,,,2015-10-05,1,,,,,ウルア,0
367,2030005005394,登記記録の閉鎖等,0,2025-09-11,2025-09-03,特定非営利活動法人騎望の会,,その他の設立登記法人,埼玉県,加須市,外田ケ谷５７９番地１,,11,210,3470126,,,2025-09-03,清算の結了等,,,2015-10-05,1,,,,,キボウノカイ,0
382,2070001024865,登記記録の閉鎖等,0,2025-09-11,2025-08-18,株式会社中村建設,,株式会社,群馬県,太田市,西新町３４番地１４,,10,205,3730847,,,2025-08-18,清算の結了等,,,2015-10-05,1,,,,,ナカムラケンセツ,0
418,2130001004142,登記記録の閉鎖等,0,2025-09-11,2025-09-03,株式会社ワカマツ,,株式会社,京都府,京都市中京区,西ノ京両町３－２,,26,104,6048497,,,2025-09-03,清算の結了等,,,2015-10-05,1,,,,,ワカマツ,0
424,2140001061075,登記記録の閉鎖等,0,2025-09-11,2025-09-08,株式会社ビジネスマシンサービス,,株式会社,兵庫県,姫路市,東夢前台３丁目３９番地３,,28,201,6700064,,,2025-09-08,清算の結了等,,,2015-10-05,1,,,,,ビジネスマシンサービス,0
425,2140001113999,登記記録の閉鎖等,0,2025-09-11,2025-09-01,株式会社ＵＧトレーディング,,株式会社,兵庫県,高砂市,曽根町３０５５番地の９,,28,216,6760082,,,2025-09-01,合併による解散等,5140001108658,令和７年９月１日兵庫県高砂市曽根町３０５５番地の９株式会社グルーブ（5140001108658）に合併し解散,2019-06-17,1,,,,,ユージートレーディング,0
434,2140005017172,登記記録の閉鎖等,0,2025-09-11,2025-09-08,医療法人社団南整形外科,,その他の設立登記法人,兵庫県,西脇市,和布町１７０番地の３,,28,213,6770053,,,2025-09-08,清算の結了等,,,2015-10-05,1,,,,,ミナミセイケイゲカ,0
435,2150001024881,商号の登記の抹消,0,2025-09-11,2025-08-18,森和田株式会社,,株式会社,大阪府,大阪市浪速区,恵美須東３丁目２番９号,,27,111,5560002,,,,,,,2021-08-26,1,,,,,モリワダ,0
437,2180001111256,登記記録の閉鎖等,0,2025-09-11,2025-08-25,株式会社ノムラ,,株式会社,愛知県,名古屋市北区,西味鋺１丁目２０８番地の１,,23,103,4620016,,,2025-08-25,清算の結了等,,,2015-10-05,1,,,,,ノムラ,0
438,2180001119489,登記記録の閉鎖等,0,2025-09-11,2025-08-29,アグリンクスマーケット株式会社,,株式会社,愛知県,名古屋市中区,錦３丁目２４番４号,,23,106,4600003,,,2025-08-29,清算の結了等,,,2015-10-05,1,,,,,アグリンクスマーケット,0
448,2190001007453,登記記録の閉鎖等,0,2025-09-11,2025-09-01,株式会社ウェルフェア,,株式会社,三重県,伊勢市,黒瀬町８６５番地１,,24,203,5160018,,,2025-09-01,合併による解散等,7190002011061,令和７年９月１日三重県伊勢市黒瀬町８６５番地１株式会社ウェルフェア三重（7190002011061）に合併し解散,2015-10-05,1,,,,,ウェルフェア,0
449,2190001021933,登記記録の閉鎖等,0,2025-09-11,2025-08-28,はさめずフーズトレーディング株式会社,,株式会社,三重県,伊賀市,島ヶ原１４５９７番地の１,,24,216,5191711,,,2025-08-28,清算の結了等,,,2015-10-05,1,,,,,ハサメズフーズトレーディング,0
450,2190003000976,登記記録の閉鎖等,0,2025-09-11,2025-09-02,合名会社鍛治安鉄工所,,合名会社,三重県,伊賀市,上野忍町２７０６番地,,24,216,5180854,,,2025-09-02,清算の結了等,,,2015-10-05,1,,,,,カジヤステッコウショ,0
464,2220005004352,登記記録の閉鎖等,0,2025-09-11,2025-09-10,特定非営利活動法人日本武道修学院,,その他の設立登記法人,石川県,野々市市,御経塚１丁目４９６番地,,17,212,9218801,,,2025-09-10,清算の結了等,,,2015-10-05,1,,,,,ニホンブドウシュウガクイン,0
466,2240001055769,登記記録の閉鎖等,0,2025-09-11,2025-09-05,株式会社Ｆ＆Ｆ,,株式会社,広島県,広島市安佐南区,長楽寺１丁目２番２号,,34,105,7310143,,,2025-09-05,清算の結了等,,,2020-03-06,1,,,,,エフアンドエフ,0
485,2300003002168,登記記録の閉鎖等,0,2025-09-11,2025-09-03,合同会社オトトアカリ,,合同会社,佐賀県,鳥栖市,藤木町２３３９番地９,,41,203,8410048,,,2025-09-03,清算の結了等,,,2024-08-15,1,,,,,オトトアカリ,0
493,2350005001972,登記記録の閉鎖等,0,2025-09-11,2025-09-03,一ツ瀬砂利協同組合,,その他の設立登記法人,宮崎県,西都市,大字右松３１７１番地１,,45,208,8810003,,,2025-09-03,清算の結了等,,,2015-10-05,1,,,,,ヒトツセジャリ,0
500,2390001004546,登記記録の閉鎖等,0,2025-09-11,2025-09-08,株式会社冨士の湯,,株式会社,山形県,天童市,鎌田１丁目６番５２号,,06,210,9940024,,,2025-09-08,清算の結了等,,,2015-10-05,1,,,,,フジノユ,0
508,2450005000782,登記記録の閉鎖等,0,2025-09-11,2025-09-08,天法山宝珠院,,その他の設立登記法人,北海道,旭川市,東光一条４丁目３４１番地の２６,,01,204,0788341,,,2025-09-08,清算の結了等,,,2015-10-05,1,,,,,,0
518,3010001152209,登記記録の閉鎖等,0,2025-09-11,2025-09-01,株式会社ドリームシステム,,株式会社,東京都,千代田区,内神田２丁目１２番３号,,13,101,1010047,,,2025-09-01,合併による解散等,1010001090311,令和７年９月１日東京都千代田区内神田二丁目１２番３号株式会社タウンホテル（1010001090311）に合併し解散,2015-10-05,1,,,,,ドリームシステム,0
527,3010003042044,登記記録の閉鎖等,0,2025-09-11,2025-08-27,合同会社ここまるのいとこ,,合同会社,東京都,千代田区,九段南１丁目５番６号りそな九段ビル５階ＫＳフロア,,13,101,1020074,,,2025-08-27,清算の結了等,,,2023-10-27,1,,,,,ココマルノイトコ,0
582,3012705001681,登記記録の閉鎖等,0,2025-09-11,2025-09-08,特定非営利活動法人社会福祉健康センター,,その他の設立登記法人,東京都,清瀬市,下清戸２丁目５６１番地１９,,13,221,2040011,,,2025-09-08,清算の結了等,,,2015-10-05,1,,,,,シャカイフクシケンコウセンター,0
633,3080405006276,登記記録の閉鎖等,0,2025-09-11,2025-09-04,特定非営利活動法人わかすぎ工房,,その他の設立登記法人,静岡県,浜松市天竜区,佐久間町佐久間２５３０番地,,22,140,4313901,,,2025-09-04,清算の結了等,,,2015-10-05,1,,,,,ワカスギコウボウ,0
637,3110002009950,登記記録の閉鎖等,0,2025-09-11,2025-08-27,有限会社新潟リビング,,有限会社,新潟県,新潟市秋葉区,田家１丁目１１番９号,,15,105,9560836,,,2025-08-27,清算の結了等,,,2015-10-05,1,,,,,ニイガタリビング,0
638,3110002017409,登記記録の閉鎖等,0,2025-09-11,2025-08-29,有限会社外山精一商店,,有限会社,新潟県,三条市,島田２丁目１０番１１号,,15,204,9550842,,,2025-08-29,清算の結了等,,,2015-10-05,1,,,,,トヤマセイイチショウテン,0
639,3110002017573,登記記録の閉鎖等,0,2025-09-11,2025-08-29,有限会社フジコーキ,,有限会社,新潟県,三条市,新光町２５番３６号,,15,204,9550057,,,2025-08-29,清算の結了等,,,2015-10-05,1,,,,,フジコーキ,0
641,3120001101096,登記記録の閉鎖等,0,2025-09-11,2025-08-26,株式会社アイカ,,株式会社,大阪府,大阪市中央区,南船場３丁目２番２８号日宝タイヨービル４階,,27,128,5420081,,,2025-08-26,清算の結了等,,,2015-10-05,1,,,,,アイカ,0
652,3120002032308,登記記録の閉鎖等,0,2025-09-11,2025-09-05,有限会社バンエンジニアリング,,有限会社,兵庫県,明石市,大久保町西島８２６番地の２,,28,203,6740065,,,2025-09-05,清算の結了等,,,2015-10-05,1,,,,,バンエンジニアリング,0
660,3122001008643,登記記録の閉鎖等,0,2025-09-11,2025-09-05,ＮＫ株式会社,,株式会社,大阪府,東大阪市,高井田西３丁目９番２５号,,27,227,5770067,,,2025-09-05,清算の結了等,,,2015-10-05,1,,,,,エヌケー,0
679,3170002009177,登記記録の閉鎖等,0,2025-09-11,2025-09-09,有限会社塩飽建設,,有限会社,和歌山県,西牟婁郡すさみ町,周参見４３５２番地,,30,406,6492621,,,2025-09-09,清算の結了等,,,2015-10-05,1,,,,,シアクケンセツ,0
681,3180001038804,登記記録の閉鎖等,0,2025-09-11,2025-09-08,株式会社トーレイ,,株式会社,愛知県,名古屋市西区,枇杷島４丁目１５番２３号,,23,104,4510053,,,2025-09-08,合併による解散等,1012701000383,令和７年９月１日東京都小平市天神町一丁目１番２４号株式会社サン・ニットク（1012701000383）に合併し解散,2015-10-05,1,,,,,トーレイ,0
688,3180002034620,登記記録の閉鎖等,0,2025-09-11,2025-08-25,有限会社デイーキャップ,,有限会社,愛知県,名古屋市北区,喜惣治２丁目１０２番地の１,,23,103,4620065,,,2025-08-25,清算の結了等,,,2015-10-05,1,,,,,デイーキャップ,0
691,3180002085267,登記記録の閉鎖等,0,2025-09-11,2025-09-09,有限会社旭建設,,有限会社,愛知県,知多郡東浦町,大字藤江字須賀６９番地の２,,23,442,4702105,,,2025-09-09,清算の結了等,,,2015-10-05,1,,,,,アサヒケンセツ,0
693,3190001019943,登記記録の閉鎖等,0,2025-09-11,2025-08-27,株式会社あしたば,,株式会社,三重県,伊勢市,小俣町元町１０６９番地,,24,203,5190503,,,2025-08-27,清算の結了等,,,2015-10-05,1,,,,,アシタバ,0
696,3200001038181,登記記録の閉鎖等,0,2025-09-11,2025-09-08,株式会社アイリン,,株式会社,岐阜県,中津川市,加子母５９８２番地,,21,206,5080421,,,2025-09-08,清算の結了等,,,2021-01-06,1,,,,,アイリン,0
699,3210005005680,登記記録の閉鎖等,0,2025-09-11,2025-09-08,善勝寺,,その他の設立登記法人,福井県,大野市,中荒井町１丁目１４０３番地,,18,205,9120023,,,2025-09-08,清算の結了等,,,2015-10-05,1,,,,,ゼンショウジ,0
701,3220002009428,登記記録の閉鎖等,0,2025-09-11,2025-09-08,有限会社マツウラ鈑金,,有限会社,石川県,白山市,八田町３７９番地３,,17,210,9240001,,,2025-09-08,清算の結了等,,,2015-10-05,1,,,,,マツウラバンキン,0
715,3310002001870,登記記録の閉鎖等,0,2025-09-11,2025-09-08,有限会社コバエンタープライズ,,有限会社,長崎県,長崎市,ダイヤランド２丁目３８番２１号,,42,201,8500963,,,2025-09-08,清算の結了等,,,2015-10-05,1,,,,,コバエンタープライズ,0
732,3402705000371,登記記録の閉鎖等,0,2025-09-11,2025-08-29,一般社団法人陸前高田・今泉地区明日へのまちづくり協議会,,その他の設立登記法人,岩手県,陸前高田市,竹駒町字相川７４番地１,,03,210,0292203,,,2025-08-29,清算の結了等,,,2015-10-05,1,,,,,リクゼンタカタイマイズミチクアスヘノマチヅクリ,0
750,3470002006367,登記記録の閉鎖等,0,2025-09-11,2025-09-08,有限会社マツノ・ウッド,,有限会社,香川県,高松市,成合町７９０番地１,,37,201,7618081,,,2025-09-08,清算の結了等,,,2015-10-05,1,,,,,マツノウッド,0
761,4010001220633,登記記録の閉鎖等,0,2025-09-11,2025-08-12,ファイア・アイ・セキュリティ株式会社,,株式会社,東京都,渋谷区,道玄坂１丁目１２番１号渋谷マークシティウェスト,,13,113,1500043,,,2025-08-12,清算の結了等,,,2021-08-24,1,,,,,ファイアアイセキュリティ,0
763,4010001247131,登記記録の閉鎖等,0,2025-09-11,2025-08-14,株式会社ビー,,株式会社,東京都,中央区,晴海５丁目４－４－１６０４,,13,102,1040053,,,2025-08-14,清算の結了等,,,2024-08-02,1,,,,,ビー,0
769,4010005013018,登記記録の閉鎖等,0,2025-09-11,2025-08-26,一般社団法人ニッセイ基金流動化ホールディングス,,その他の設立登記法人,東京都,千代田区,丸の内１丁目４番１号東京共同会計事務所内,,13,101,1000005,,,2025-08-26,清算の結了等,,,2015-10-05,1,,,,,ニッセイキキンリュウドウカホールディングス,0
776,4010401167771,登記記録の閉鎖等,0,2025-09-11,2025-09-04,株式会社クリアリンクス,,株式会社,東京都,港区,六本木５丁目１４－１９,,13,103,1060032,,,2025-09-04,清算の結了等,,,2022-06-07,1,,,,,クリアリンクス,0
789,4010602027626,登記記録の閉鎖等,0,2025-09-11,2025-09-08,有限会社タンゴスタイル,,有限会社,東京都,墨田区,東向島４丁目９番６号,,13,107,1310032,,,2025-09-08,清算の結了等,,,2015-10-05,1,,,,,タンゴスタイル,0
790,4010701000574,登記記録の閉鎖等,0,2025-09-11,2025-09-02,株式会社アトリエ飯嶋,,株式会社,東京都,品川区,大崎５丁目８番５－３０５号,,13,109,1410032,,,2025-09-02,清算の結了等,,,2015-10-05,1,,,,,アトリエイイジマ,0
814,4011801009679,登記記録の閉鎖等,0,2025-09-11,2025-09-05,田島電機株式会社,,株式会社,東京都,足立区,西綾瀬３丁目６番１４号,,13,121,1200014,,,2025-09-05,清算の結了等,,,2015-10-05,1,,,,,タジマデンキ,0
825,4013401001371,登記記録の閉鎖等,0,2025-09-11,2025-09-04,株式会社てす環境計画デザイン事務所,,株式会社,東京都,多摩市,愛宕４丁目４１番地３－１００１,,13,224,2060041,,,2025-09-04,清算の結了等,,,2015-10-05,1,,,,,テスカンキョウケイカクデザインジムショ,0
826,4013402001180,登記記録の閉鎖等,0,2025-09-11,2025-07-28,有限会社八王子自動車教習所,,有限会社,東京都,日野市,旭が丘１丁目１番地の２,,13,212,1910065,,,2025-07-28,清算の結了等,,,2024-10-22,1,,,,,ハチオウジジドウシャキョウシュウジョ,0
830,4020001130930,登記記録の閉鎖等,0,2025-09-11,2025-08-27,Ｌｉｆｅ　ｓｔｙｌｅ株式会社,,株式会社,神奈川県,横浜市旭区,本村町１０１番１０号ＭＫ和田ビル２階,,14,112,2410024,,,2025-08-27,清算の結了等,,,2019-04-26,1,,,,,ライフスタイル,0
837,4021001047413,登記記録の閉鎖等,0,2025-09-11,2025-09-08,株式会社スマート・グリーン,,株式会社,神奈川県,座間市,緑ケ丘６丁目８番９号,,14,216,2520021,,,2025-09-08,清算の結了等,,,2015-10-05,1,,,,,スマートグリーン,0
840,4021002061818,登記記録の閉鎖等,0,2025-09-11,2025-09-04,有限会社アトマティック,,有限会社,神奈川県,平塚市,八重咲町１９番９－１０２号,,14,203,2540811,,,2025-09-04,清算の結了等,,,2015-10-05,1,,,,,アトマティック,0
845,4030001040848,登記記録の閉鎖等,0,2025-09-11,2025-09-02,株式会社ケアフレンズ,,株式会社,埼玉県,三郷市,三郷１丁目８番地７島村ハイツ２０１号室,,11,237,3410024,,,2025-09-02,清算の結了等,,,2015-10-05,1,,,,,ケアフレンズ,0
849,4030001066356,登記記録の閉鎖等,0,2025-09-11,2025-09-02,株式会社小谷,,株式会社,埼玉県,越谷市,七左町１丁目２３５番１号モリス南越谷１０３,,11,222,3430851,,,2025-09-02,清算の結了等,,,2015-10-05,1,,,,,コタニ,0
852,4030001110304,登記記録の閉鎖等,0,2025-09-11,2025-09-03,株式会社豊田工業,,株式会社,埼玉県,川口市,青木１丁目２１番２９－１０３号,,11,203,3320031,,,2025-09-03,清算の結了等,,,2015-10-05,1,,,,,トヨタコウギョウ,0
854,4030001154672,登記記録の閉鎖等,0,2025-09-11,2025-09-02,株式会社Ｋｏｕｓｉｎ,,株式会社,埼玉県,三郷市,鷹野３丁目１１８番地２,,11,237,3410035,,,2025-09-02,清算の結了等,,,2023-06-30,1,,,,,コウシン,0
880,4080102015736,登記記録の閉鎖等,0,2025-09-11,2025-09-05,有限会社共栄トレーディング,,有限会社,静岡県,富士市,五貫島１４２番地の１,,22,210,4160946,,,2025-09-05,合併による解散等,9080101008414,令和７年９月２日静岡県富士市森島６１２番地株式会社共栄設機（9080101008414）に合併し解散,2015-10-05,1,,,,,キョウエイトレーディング,0
883,4080401002609,登記記録の閉鎖等,0,2025-09-11,2025-09-02,株式会社スパーム,,株式会社,静岡県,浜松市中央区,半田山２丁目７番１号,,22,138,4313125,,,2025-09-02,清算の結了等,,,2015-10-05,1,,,,,スパーム,0
892,4100001028753,登記記録の閉鎖等,0,2025-09-11,2025-09-09,悦和産業株式会社,,株式会社,長野県,中野市,大字小田中７６３番地,,20,211,3830037,,,2025-09-09,清算の結了等,,,2015-10-05,1,,,,,エツワサンギョウ,0
934,4140002034540,登記記録の閉鎖等,0,2025-09-11,2025-09-04,有限会社スギリキ産業,,有限会社,兵庫県,丹波市,春日町黒井１５４７番地の１,,28,223,6694141,,,2025-09-04,清算の結了等,,,2015-10-05,1,,,,,スギリキサンギョウ,0
949,4180001121708,登記記録の閉鎖等,0,2025-09-11,2025-09-08,株式会社幸,,株式会社,愛知県,名古屋市北区,上飯田西町１丁目３１番地の１,,23,103,4620809,,,2025-09-08,清算の結了等,,,2016-01-13,1,,,,,コウ,0
990,4340001011355,登記記録の閉鎖等,0,2025-09-11,2025-09-01,株式会社ＭＩＴダイニング,,株式会社,鹿児島県,鹿児島市,真砂本町３１番１７号,,46,201,8900067,,,2025-09-01,合併による解散等,9340002007901,令和７年８月３１日鹿児島市真砂本町３１番１７号株式会社肥後商事（9340002007901）に合併し解散,2015-10-05,1,,,,,エムアイティーダイニング,0
1003,4410005003333,登記記録の閉鎖等,0,2025-09-11,2025-09-03,農事組合法人濁川農事生産組合,,その他の設立登記法人,秋田県,鹿角郡小坂町,小坂字濁川４６番地,,05,303,0170201,,,2025-09-03,清算の結了等,,,2015-10-05,1,,,,,ニゴリカワノウジセイサンクミアイ,0
1007,4430005001871,登記記録の閉鎖等,0,2025-09-11,2025-08-28,医療法人社団友田歯科,,その他の設立登記法人,北海道,札幌市東区,北四十一条東１５丁目２番５号,,01,103,0070841,,,2025-08-28,清算の結了等,,,2015-10-05,1,,,,,トモダシカ,0
1016,4460305001296,登記記録の閉鎖等,0,2025-09-11,2025-09-09,特定非営利活動法人常呂川自然学校,,その他の設立登記法人,北海道,北見市,東陵町１８３番地５０,,01,208,0900061,,,2025-09-09,清算の結了等,,,2015-10-05,1,,,,,,0
1028,5010001235143,登記記録の閉鎖等,0,2025-09-11,2025-08-27,極騰科技株式会社,,株式会社,東京都,文京区,大塚５丁目８番１２－３０１号,,13,105,1120012,,,2025-08-27,清算の結了等,,,2023-05-11,1,,,,,キトウカギ,0
1058,5011001155216,登記記録の閉鎖等,0,2025-09-11,2025-08-12,徳潤株式会社,,株式会社,東京都,渋谷区,円山町６番７号,,13,113,1500044,,,2025-08-12,清算の結了等,,,2023-06-27,1,,,,,トクジュン,0
1063,5011005007743,登記記録の閉鎖等,0,2025-09-11,2025-08-12,一般社団法人日本ジェネラルナレッジ協会,,その他の設立登記法人,東京都,渋谷区,円山町２８番８－３０４号,,13,113,1500044,,,2025-08-12,清算の結了等,,,2018-07-12,1,,,,,ニホンジェネラルナレッジキョウカイ,0
1081,5012401024266,登記記録の閉鎖等,0,2025-09-11,2025-09-09,株式会社北の玉手箱,,株式会社,東京都,武蔵野市,吉祥寺北町２丁目３番１９－３０２号,,13,203,1800001,,,2025-09-09,清算の結了等,,,2015-10-05,1,,,,,,0
1083,5012703002291,登記記録の閉鎖等,0,2025-09-11,2025-09-08,合同会社国際医療ソリューションコンサルティング,,合同会社,東京都,東久留米市,氷川台２丁目２３番１１号,,13,222,2030004,,,2025-09-08,清算の結了等,,,2021-08-23,1,,,,,コクサイイリョウソリューションコンサルティング,0
1088,5013201016866,登記記録の閉鎖等,0,2025-09-11,2025-08-12,株式会社オンセ,,株式会社,東京都,目黒区,青葉台１丁目２８番７号１階,,13,110,1530042,,,2025-08-12,清算の結了等,,,2015-10-05,1,,,,,オンセ,0
1096,5020001101071,登記記録の閉鎖等,0,2025-09-11,2025-08-19,株式会社透彩,,株式会社,神奈川県,横浜市保土ケ谷区,霞台５８番３号,,14,106,2400014,,,2025-08-19,清算の結了等,,,2015-10-05,1,,,,,トオサイ,0
1112,5030001000628,登記記録の閉鎖等,0,2025-09-11,2025-09-03,株式会社伊藤商店,,株式会社,埼玉県,さいたま市浦和区,上木崎４丁目１１番１５号,,11,107,3300071,,,2025-09-03,清算の結了等,,,2015-10-05,1,,,,,イトウショウテン,0
1129,5040001054689,登記記録の閉鎖等,0,2025-09-11,2025-08-18,株式会社洋興,,株式会社,千葉県,市原市,西五所１７番地９,,12,219,2900065,,,2025-08-18,清算の結了等,,,2015-10-05,1,,,,,ヨウコウ,0
1137,5040003023840,登記記録の閉鎖等,0,2025-09-11,2025-08-25,ＬＩＮＺＡ　ＴＲＡＤＩＮＧ合同会社,,合同会社,千葉県,八街市,八街ろ１８５番地１４３、２階２０２号室,,12,230,2891144,,,2025-08-25,清算の結了等,,,2023-12-05,1,,,,,リンザトレーディング,0
1138,5050001026225,登記記録の閉鎖等,0,2025-09-11,2025-09-02,株式会社ラルゴワーキングサポート,,株式会社,茨城県,龍ケ崎市,２９５７番地,,08,208,3010000,,,2025-09-02,清算の結了等,,,2015-10-05,1,,,,,ラルゴワーキングサポート,0
1143,5080401013687,登記記録の閉鎖等,0,2025-09-11,2025-09-02,株式会社Ｃ－ＴＲＥＮＤＹ,,株式会社,静岡県,浜松市中央区,鴨江３丁目５６番１６号,,22,138,4328023,,,2025-09-02,清算の結了等,,,2015-10-05,1,,,,,シートレンディ,0
1148,5110002006095,登記記録の閉鎖等,0,2025-09-11,2025-08-29,有限会社マサ,,有限会社,新潟県,新潟市中央区,女池神明１丁目８番１１号コートハウス女池１０２号,,15,103,9500943,,,2025-08-29,清算の結了等,,,2015-10-05,1,,,,,マサ,0
1154,5120001229638,登記記録の閉鎖等,0,2025-09-11,2025-09-02,株式会社ジュニアテック,,株式会社,大阪府,大阪市北区,芝田２丁目８番１１号共栄ビル３Ｆ,,27,127,5300012,,,2025-09-02,清算の結了等,,,2020-06-11,1,,,,,ジュニアテック,0
1155,5120001235917,登記記録の閉鎖等,0,2025-09-11,2025-08-05,株式会社ライフタイムズ,,株式会社,愛知県,名古屋市中区,錦２丁目９番６号名和丸の内ビル６Ｅ,,23,106,4600003,,,2025-08-05,清算の結了等,,,2021-03-15,1,,,,,ライフタイムズ,0
1157,5120001248010,登記記録の閉鎖等,0,2025-09-11,2025-09-03,天＿株式会社,00127486,株式会社,大阪府,大阪市中央区,船場中央２丁目１番４号船場センタービル４号館地下一階Ｂ１０８ＲＯＹＡＬＯＦＦＩＣＥ内,,27,128,5410055,,,2025-09-03,清算の結了等,,,2022-08-10,1,,,,,テンゲ,0
1168,5120902012051,登記記録の閉鎖等,0,2025-09-11,2025-08-29,有限会社オーエンジ,,有限会社,大阪府,吹田市,千里山西３丁目１７番６号,,27,205,5650851,,,2025-08-29,清算の結了等,,,2015-10-05,1,,,,,オーエンジ,0
1171,5122001028292,登記記録の閉鎖等,0,2025-09-11,2025-09-05,株式会社ワンナック販売,,株式会社,大阪府,東大阪市,足代新町１７番１０号,,27,227,5770057,,,2025-09-05,清算の結了等,,,2015-10-05,1,,,,,,0
1177,5130002027593,登記記録の閉鎖等,0,2025-09-11,2025-09-01,有限会社オカダ,,有限会社,京都府,相楽郡和束町,大字南小字大生水５５番地,,26,365,6191213,,,2025-09-01,合併による解散等,9130002029941,令和７年９月１日京都府相楽郡和束町大字南小字下河原７２番地１岡田モータース株式会社（9130002029941）に合併し解散,2015-10-05,1,,,,,オカダ,0
1188,5140002009723,登記記録の閉鎖等,0,2025-09-11,2025-09-04,有限会社エフディ企画,,有限会社,兵庫県,神戸市北区,大原３丁目１３番地の１,,28,109,6511222,,,2025-09-04,清算の結了等,,,2015-10-05,1,,,,,エフディキカク,0
1191,5140002047095,登記記録の閉鎖等,0,2025-09-11,2025-09-08,有限会社恵企画,,有限会社,兵庫県,姫路市,北平野台町５番５号,,28,201,6700895,,,2025-09-08,清算の結了等,,,2015-10-05,1,,,,,ケイキカク,0
1193,5140003017659,登記記録の閉鎖等,0,2025-09-11,2025-09-08,合同会社コイデ,,合同会社,兵庫県,神戸市兵庫区,神田町１２－１０,,28,105,6520006,,,2025-09-08,清算の結了等,,,2022-05-10,1,,,,,コイデ,0
1197,5170003001742,登記記録の閉鎖等,0,2025-09-11,2025-09-10,合同会社さくら,,合同会社,和歌山県,和歌山市,下三毛２５５番地３,,30,201,6496263,,,2025-09-10,清算の結了等,,,2022-06-24,1,,,,,サクラ,0
1203,5180001161835,登記記録の閉鎖等,0,2025-09-11,2025-08-29,株式会社エクシア,,株式会社,愛知県,名古屋市中区,錦３丁目１４番４号,,23,106,4600003,,,2025-08-29,清算の結了等,,,2024-06-07,1,,,,,エクシア,0
1210,5180003009173,登記記録の閉鎖等,0,2025-09-11,2025-09-08,ＳＡＮ８合同会社,,合同会社,愛知県,名古屋市南区,立脇町２丁目２番地の１,,23,112,4570077,,,2025-09-08,合併による解散等,6180303002629,令和７年９月１日愛知県豊田市保見ケ丘一丁目７１番地ＳＡＮ３合同会社（6180303002629）に合併し解散,2015-10-05,1,,,,,,0
1214,5200001034889,登記記録の閉鎖等,0,2025-09-11,2025-09-03,ミノテクノ株式会社,,株式会社,岐阜県,美濃市,上野３９３番地,,21,207,5013787,,,2025-09-03,合併による解散等,2200001019001,令和７年９月１日岐阜県美濃市上野３９３番地大林興産株式会社（2200001019001）に合併し解散,2018-02-14,1,,,,,ミノテクノ,0
1223,5220003001365,登記記録の閉鎖等,0,2025-09-11,2025-09-08,合同会社架谷,,合同会社,石川県,かほく市,高松ム２番地３,,17,209,9291215,,,2025-09-08,清算の結了等,,,2015-10-05,1,,,,,ハサタニ,0
1224,5230002009540,登記記録の閉鎖等,0,2025-09-11,2025-09-09,有限会社錦,,有限会社,富山県,南砺市,松原１３７９番地,,16,210,9391518,,,2025-09-09,清算の結了等,,,2015-10-05,1,,,,,ニシキ,0
1227,5240001003915,登記記録の閉鎖等,0,2025-09-11,2025-09-05,株式会社サンコー,,株式会社,広島県,広島市西区,庚午南１丁目９番２号,,34,104,7330823,,,2025-09-05,清算の結了等,,,2015-10-05,1,,,,,サンコー,0
1235,5290001063087,登記記録の閉鎖等,0,2025-09-11,2025-08-15,株式会社久山温泉,,株式会社,福岡県,福岡市中央区,舞鶴１丁目８番２６－３２２号,,40,133,8100073,,,2025-08-15,清算の結了等,,,2015-10-05,1,,,,,ヒサヤマオンセン,0
1237,5290003013957,登記記録の閉鎖等,0,2025-09-11,2025-08-20,合同会社ＳＨＩ,,合同会社,福岡県,八女市,豊福３０６番地３,,40,210,8340016,,,2025-08-20,清算の結了等,,,2023-05-29,1,,,,,エスエイチアイ,0
1241,5320002021692,登記記録の閉鎖等,0,2025-09-11,2025-09-01,有限会社スロパラ,,有限会社,大分県,中津市,東本町４番３号,,44,203,8710032,,,2025-09-01,合併による解散等,6320002013615,令和７年９月１日大分県別府市汐見町６番２５号株式会社ヴィーナスギャラリー別府（6320002013615）に合併し解散,2015-10-05,1,,,,,スロパラ,0
1279,6010003029204,登記記録の閉鎖等,0,2025-09-11,2025-08-26,合同会社プロミネンス,,合同会社,東京都,中央区,勝どき４丁目８番９号コンシェリア・デュー勝どき５１２号,,13,102,1040054,,,2025-08-26,清算の結了等,,,2019-02-04,1,,,,,プロミネンス,0
1294,6010701044438,登記記録の閉鎖等,0,2025-09-11,2025-09-02,クラスタークリエイタージョブズ株式会社,,株式会社,東京都,品川区,西五反田８丁目９番５号,,13,109,1410031,,,2025-09-02,合併による解散等,6011001106341,令和７年９月１日東京都品川区西五反田八丁目９番５号クラスター株式会社（6011001106341）に合併し解散,2023-06-21,1,,,,,クラスタークリエイタージョブズ,0
1297,6010802019917,登記記録の閉鎖等,0,2025-09-11,2025-09-04,株式会社ニュースワン,,株式会社,東京都,大田区,大森北１丁目１９番２号,,13,111,1430016,,,2025-09-04,清算の結了等,,,2015-10-05,1,,,,,,0
1322,6012405002580,登記記録の閉鎖等,0,2025-09-11,2025-09-10,特定非営利活動法人小金井雑学大学,,その他の設立登記法人,東京都,小金井市,桜町１丁目１４番１６号,,13,210,1840005,,,2025-09-10,清算の結了等,,,2015-10-05,1,,,,,コガネイザツガクダイガク,0
1351,6030002121422,登記記録の閉鎖等,0,2025-09-11,2025-09-02,有限会社新栄堂製本所,,有限会社,埼玉県,秩父市,中村町４丁目１０番１４号,,11,207,3680051,,,2025-09-02,清算の結了等,,,2015-10-05,1,,,,,シンエイドウセイホンショ,0
1362,6040002028294,登記記録の閉鎖等,0,2025-09-11,2025-08-04,有限会社アイリスメディカルサービス,,有限会社,千葉県,八千代市,高津東２丁目６番地１５,,12,221,2760037,,,2025-08-04,清算の結了等,,,2015-10-05,1,,,,,アイリスメディカルサービス,0
1369,6070001020836,登記記録の閉鎖等,0,2025-09-11,2025-09-05,株式会社ワタライ,,株式会社,群馬県,邑楽郡千代田町,大字新福寺３５５番地１,,10,523,3700505,,,2025-09-05,清算の結了等,,,2015-10-05,1,,,,,ワタライ,0
1370,6070002021057,登記記録の閉鎖等,0,2025-09-11,2025-09-05,有限会社岡部製作所,,有限会社,群馬県,伊勢崎市,八寸町４７４８番地の２,,10,204,3792236,,,2025-09-05,清算の結了等,,,2015-10-05,1,,,,,オカベセイサクショ,0
1371,6070003005050,登記記録の閉鎖等,0,2025-09-11,2025-09-05,合同会社さくらデザイン,,合同会社,群馬県,高崎市,上室田町４００３－４０２,,10,202,3703346,,,2025-09-05,清算の結了等,,,2023-08-08,1,,,,,サクラデザイン,0
1374,6080402008933,登記記録の閉鎖等,0,2025-09-11,2025-09-02,有限会社渡辺木工所,,有限会社,静岡県,浜松市中央区,中郡町７１２番地,,22,138,4313111,,,2025-09-02,清算の結了等,,,2015-10-05,1,,,,,ワタナベモッコウジョ,0
1391,6120002053508,登記記録の閉鎖等,0,2025-09-11,2025-09-01,有限会社キャスケット,,有限会社,大阪府,大阪市城東区,鴫野西２丁目６－１－１２０３,,27,118,5360014,,,2025-09-01,清算の結了等,,,2015-10-05,1,,,,,キャスケット,0
1403,6120102000871,登記記録の閉鎖等,0,2025-09-11,2025-09-01,エイチ・エム・エス有限会社,,有限会社,大阪府,堺市南区,若松台３丁２４番８号,,27,145,5900116,,,2025-09-01,清算の結了等,,,2015-10-05,1,,,,,エイチエムエス,0
1410,6122001033317,登記記録の閉鎖等,0,2025-09-11,2025-09-05,株式会社ＭＵＧＥＮモールド製作所,,株式会社,大阪府,八尾市,太田新町７丁目３７番地１,,27,212,5810039,,,2025-09-05,清算の結了等,,,2020-01-10,1,,,,,ムゲンモールドセイサクショ,0
1418,6140001043904,登記記録の閉鎖等,0,2025-09-11,2025-09-08,株式会社小林商店,,株式会社,兵庫県,高砂市,高砂町藍屋町１６６３番地,,28,216,6760037,,,2025-09-08,清算の結了等,,,2015-10-05,1,,,,,コバヤシショウテン,0
1426,6140002053365,登記記録の閉鎖等,0,2025-09-11,2025-09-05,有限会社大栄,,有限会社,兵庫県,姫路市,城北新町１丁目１番２２号,,28,201,6700883,,,2025-09-05,清算の結了等,,,2015-10-05,1,,,,,ダイエイ,0
1427,6140003017055,登記記録の閉鎖等,0,2025-09-11,2025-09-05,ＭＨＡＴ合同会社,,合同会社,兵庫県,姫路市,御国野町国分寺３６番地７,,28,201,6710234,,,2025-09-05,清算の結了等,,,2021-12-09,1,,,,,エムハット,0
1433,6170003001741,登記記録の閉鎖等,0,2025-09-11,2025-09-10,合同会社あじさい,,合同会社,和歌山県,和歌山市,西６４７番地１,,30,201,6408313,,,2025-09-10,清算の結了等,,,2022-06-24,1,,,,,アジサイ,0
1442,6190003003034,登記記録の閉鎖等,0,2025-09-11,2025-09-03,３ｗｉｎ　ｃｏｍｐａｎｙ合同会社,,合同会社,三重県,四日市市,栄町１番１１号,,24,202,5100084,,,2025-09-03,清算の結了等,,,2019-01-07,1,,,,,トリプルウインカンパニー,0
1443,6200001032124,登記記録の閉鎖等,0,2025-09-11,2025-09-03,ギフセラム株式会社,,株式会社,岐阜県,美濃市,上野５１９番地,,21,207,5013787,,,2025-09-03,合併による解散等,2200001019001,令和７年９月１日岐阜県美濃市上野３９３番地大林興産株式会社（2200001019001）に合併し解散,2015-10-05,1,,,,,ギフセラム,0
1459,6290001089734,登記記録の閉鎖等,0,2025-09-11,2025-09-02,ＫＫＧ株式会社,,株式会社,東京都,台東区,千束４丁目５１番１２号ライジングプレイス浅草弐番館１２０４号,,13,106,1110031,,,2025-09-02,清算の結了等,,,2020-07-31,1,,,,,ケーケージー,0
1474,6330002019041,登記記録の閉鎖等,0,2025-09-11,2025-08-29,伊藤漬物工業有限会社,,有限会社,熊本県,熊本市北区,植木町荻迫３１８番地,,43,105,8610145,,,2025-08-29,清算の結了等,,,2015-10-05,1,,,,,イトウツケモノコウギョウ,0
1485,6370302000176,登記記録の閉鎖等,0,2025-09-11,2025-08-29,有限会社アイティス,,有限会社,宮城県,牡鹿郡女川町,浦宿浜字小屋ノ口１２０番地の１０,,04,581,9862231,,,2025-08-29,清算の結了等,,,2015-10-05,1,,,,,アイティス,0
1492,6410002013928,登記記録の閉鎖等,0,2025-09-11,2025-09-09,有限会社ボディーショップ仁井田,,有限会社,秋田県,横手市,増田町増田字伊勢堂西９９番地１,,05,203,0190701,,,2025-09-09,清算の結了等,,,2015-10-05,1,,,,,ボディーショップニイダ,0
1494,6420005002646,登記記録の閉鎖等,0,2025-09-11,2025-08-28,一般社団法人八戸市読書団体連合会,,その他の設立登記法人,青森県,八戸市,大字糠塚字下道２番地１,,02,203,0310022,,,2025-08-28,清算の結了等,,,2015-10-05,1,,,,,ハチノヘシドクショダンタイレンゴウカイ,0
1505,6460101007504,登記記録の閉鎖等,0,2025-09-11,2025-09-08,ＫＮＲｅｓａｌｅ株式会社,,株式会社,北海道,河西郡芽室町,西八条９丁目１番地２４,,01,637,0820038,,,2025-09-08,清算の結了等,,,2024-03-01,1,,,,,ケーエヌリセール,0
1513,6480003000919,登記記録の閉鎖等,0,2025-09-11,2025-09-09,彰美産業合同会社,,合同会社,徳島県,阿波市,阿波町大道北５０番１,,36,206,7711703,,,2025-09-09,清算の結了等,,,2015-10-05,1,,,,,ショウビサンギョウ,0
1517,6500002019701,登記記録の閉鎖等,0,2025-09-11,2025-09-05,有限会社玉川繊維産業,,有限会社,愛媛県,今治市,阿方乙５５２番地６,,38,202,7940081,,,2025-09-05,清算の結了等,,,2015-10-05,1,,,,,タマガワセンイサンギョウ,0
1520,7010001002186,登記記録の閉鎖等,0,2025-09-11,2025-08-14,株式会社キャスティング・エー,,株式会社,東京都,文京区,関口１丁目２４番６号,,13,105,1120014,,,2025-08-14,清算の結了等,,,2015-10-05,1,,,,,,0
1540,7010003037949,登記記録の閉鎖等,0,2025-09-11,2025-08-18,合同会社リニューアブルシステム９号,,合同会社,福岡県,福岡市中央区,天神１丁目１番１号アクロス福岡西棟９階,,40,133,8100001,,,2025-08-18,清算の結了等,,,2022-06-30,1,,,,,リニューアブルシステムキュウゴウ,0
1590,7013301043718,登記記録の閉鎖等,0,2025-09-11,2025-09-01,ジェイビーモール株式会社,,株式会社,東京都,豊島区,東池袋１丁目１８番１号,,13,116,1700013,,,2025-09-01,清算の結了等,,,2019-04-11,1,,,,,ジェイビーモール,0
1602,7020001095865,登記記録の閉鎖等,0,2025-09-11,2025-08-27,管理保証株式会社,,株式会社,神奈川県,川崎市幸区,小向西町４丁目１０８番地,,14,132,2120004,,,2025-08-27,清算の結了等,,,2015-10-05,1,,,,,カンリホショウ,0
1620,7030001024542,登記記録の閉鎖等,0,2025-09-11,2025-09-02,株式会社テクノプラス,,株式会社,埼玉県,所沢市,松が丘１丁目２９番地の１,,11,208,3591132,,,2025-09-02,清算の結了等,,,2015-10-05,1,,,,,テクノプラス,0
1631,7030002079899,登記記録の閉鎖等,0,2025-09-11,2025-09-01,有限会社大越塗装,,有限会社,埼玉県,川越市,かし野台１丁目４番地２８,,11,201,3501179,,,2025-09-01,清算の結了等,,,2015-10-05,1,,,,,,0
1638,7050001000995,登記記録の閉鎖等,0,2025-09-11,2025-09-04,小吹開発事業株式会社,,株式会社,茨城県,水戸市,城南３丁目９番１９号,,08,201,3100803,,,2025-09-04,清算の結了等,,,2015-10-05,1,,,,,コブキカイハツジギョウ,0
1645,7080401018461,登記記録の閉鎖等,0,2025-09-11,2025-09-10,テイオーホーム株式会社,,株式会社,静岡県,浜松市中央区,雄踏２丁目１番２０号,,22,138,4310103,,,2025-09-10,清算の結了等,,,2015-10-05,1,,,,,,0
1648,7090002000396,登記記録の閉鎖等,0,2025-09-11,2025-09-01,有限会社ユニバーサル企画,,有限会社,山梨県,甲府市,太田町７番１号,,19,201,4000865,,,2025-09-01,合併による解散等,2090001017223,令和７年９月１日山梨県甲府市太田町７番１号大新グループホールディングス株式会社（2090001017223）に合併し解散,2015-10-05,1,,,,,ユニバーサルキカク,0
1653,7120001087209,登記記録の閉鎖等,0,2025-09-11,2025-09-04,橋本産業株式会社,,株式会社,大阪府,大阪市中央区,島之内１丁目１４番１８号,,27,128,5420082,,,2025-09-04,清算の結了等,,,2015-10-05,1,,,,,ハシモトサンギョウ,0
1700,7180001099025,登記記録の閉鎖等,0,2025-09-11,2025-08-25,株式会社ＫＳＤ,,株式会社,愛知県,海部郡大治町,大字鎌須賀字山廻り１０１ソレイユＡ－１０３,,23,424,4901135,,,2025-08-25,清算の結了等,,,2015-10-05,1,,,,,ケーエスディー,0
1701,7180001113917,登記記録の閉鎖等,0,2025-09-11,2025-08-25,ティーティーアイ株式会社,,株式会社,愛知県,清須市,西枇杷島町城並３丁目１２番地１７,,23,233,4520011,,,2025-08-25,清算の結了等,,,2015-10-05,1,,,,,ティーティーアイ,0
1706,7180002036877,登記記録の閉鎖等,0,2025-09-11,2025-08-25,有限会社ハードワーク,,有限会社,愛知県,名古屋市中区,新栄１丁目３８番２１号,,23,106,4600007,,,2025-08-25,清算の結了等,,,2015-10-05,1,,,,,ハードワーク,0
1713,7200001019343,登記記録の閉鎖等,0,2025-09-11,2025-09-03,チュウノー食品株式会社,,株式会社,岐阜県,関市,栄町５丁目１番２５号,,21,205,5013253,,,2025-09-03,清算の結了等,,,2015-10-05,1,,,,,,0
1714,7200001029887,登記記録の閉鎖等,0,2025-09-11,2025-09-08,株式会社コンタナ,,株式会社,岐阜県,関市,小屋名４３６番地の９,,21,205,5013941,,,2025-09-08,清算の結了等,,,2015-10-05,1,,,,,コンタナ,0
1717,7200001032635,登記記録の閉鎖等,0,2025-09-11,2025-09-09,株式会社トリニティアドバンス,,株式会社,岐阜県,岐阜市,萱場南３丁目２番２２号,,21,201,5020936,,,2025-09-09,清算の結了等,,,2016-03-04,1,,,,,,0
1718,7200002020449,登記記録の閉鎖等,0,2025-09-11,2025-09-05,有限会社トーテックス,,有限会社,岐阜県,多治見市,住吉町５丁目５番地の１,,21,204,5070015,,,2025-09-05,清算の結了等,,,2015-10-05,1,,,,,トーテックス,0
1720,7200002024838,登記記録の閉鎖等,0,2025-09-11,2025-09-01,有限会社アウトバーン,,有限会社,岐阜県,高山市,松之木町５０７番地の２,,21,203,5060802,,,2025-09-01,合併による解散等,5200001037479,令和７年８月３１日岐阜県高山市下岡本町９９２番地株式会社ＦＲＯＧ　ＡＵＴＯ（5200001037479）に合併し解散,2015-10-05,1,,,,,,0
1746,7290001044259,登記記録の閉鎖等,0,2025-09-11,2025-08-19,株式会社日働,,株式会社,福岡県,朝倉郡筑前町,松延６４０番地２,,40,447,8380224,,,2025-08-19,清算の結了等,,,2015-10-05,1,,,,,ニチドウ,0
1750,7290002048382,登記記録の閉鎖等,0,2025-09-11,2025-08-20,有限会社イ・エム・シー,,有限会社,福岡県,福岡市博多区,住吉２丁目１５番１０－７０５号,,40,132,8120018,,,2025-08-20,清算の結了等,,,2015-10-05,1,,,,,イエムシー,0
1763,7350005003576,登記記録の閉鎖等,0,2025-09-11,2025-09-03,中町商店街振興組合,,その他の設立登記法人,宮崎県,都城市,中町７街区１２号,,45,202,8850071,,,2025-09-03,清算の結了等,,,2015-10-05,1,,,,,ナカマチ,0
1770,7370302000316,登記記録の閉鎖等,0,2025-09-11,2025-08-22,有限会社石垣テクノサービス,,有限会社,宮城県,東松島市,小松字沖砂利前３２８番地１４,,04,214,9810504,,,2025-08-22,清算の結了等,,,2015-10-05,1,,,,,イシガキテクノサービス,0
1778,7410002001378,登記記録の閉鎖等,0,2025-09-11,2025-09-09,有限会社グリーン染色工房,,有限会社,秋田県,秋田市,川尻上野町３番２号,,05,201,0100947,,,2025-09-09,清算の結了等,,,2015-10-05,1,,,,,グリーンセンショクコウボウ,0
1787,7480003001528,登記記録の閉鎖等,0,2025-09-11,2025-09-09,合同会社エムセブンマーケティング,,合同会社,徳島県,鳴門市,大麻町大谷字久原７５番地１,,36,202,7790302,,,2025-09-09,合併による解散等,6140003014804,令和７年８月３１日兵庫県三木市志染町東自由が丘３－３７６合同会社エムスリーエデュケーション（6140003014804）に合併し解散,2020-08-05,1,,,,,エムセブンマーケティング,0
1794,8010001171204,登記記録の閉鎖等,0,2025-09-11,2025-09-01,プロジェットＭＹ株式会社,,株式会社,東京都,江戸川区,一之江２丁目９番２５号,,13,123,1320024,,,2025-09-01,清算の結了等,,,2015-10-23,1,,,,,プロジェットエムワイ,0
1795,8010001199724,登記記録の閉鎖等,0,2025-09-11,2025-08-28,ヒルポート株式会社,,株式会社,東京都,千代田区,岩本町２丁目１番１６号,,13,101,1010032,,,2025-08-28,清算の結了等,,,2019-04-08,1,,,,,ヒルポート,0
1807,8010005034489,登記記録の閉鎖等,0,2025-09-11,2025-08-28,一般社団法人Ｂｉｒｉｂｉ,,その他の設立登記法人,東京都,中央区,銀座１丁目６番１１号土志田ビルディング３Ｆ,,13,102,1040061,,,2025-08-28,清算の結了等,,,2022-01-20,1,,,,,ビリビ,0
1817,8010403021080,登記記録の閉鎖等,0,2025-09-11,2025-08-26,Ｋｉｎｇｆｉｓｈｅｒ　Ｔｒａｄｉｎｇ　Ａｕｓｔｒａｌａｓｉａ合同会社,,合同会社,東京都,中央区,日本橋３丁目９番１号日本橋三丁目スクエア１１階,,13,102,1030027,,,2025-08-26,清算の結了等,,,2019-07-12,1,,,,,キングフィッシャートレーディングオーストララジア,0
1826,8010701001643,登記記録の閉鎖等,0,2025-09-11,2025-08-13,株式会社エビス,,株式会社,東京都,新宿区,西新宿８丁目３番３７号新宿新都心スカイコート７０３号,,13,104,1600023,,,2025-08-13,清算の結了等,,,2015-10-05,1,,,,,エビス,0
1834,8010901027637,登記記録の閉鎖等,0,2025-09-11,2025-09-05,株式会社プレミアム,,株式会社,東京都,世田谷区,赤堤３丁目２６番１１号,,13,112,1560044,,,2025-09-05,清算の結了等,,,2015-10-05,1,,,,,プレミアム,0
1856,8011602020261,登記記録の閉鎖等,0,2025-09-11,2025-09-01,有限会社梅の大谷,,有限会社,東京都,練馬区,東大泉３丁目１８番３号,,13,120,1780063,,,2025-09-01,清算の結了等,,,2015-10-05,1,,,,,ウメノオオタニ,0
1882,8021003010448,登記記録の閉鎖等,0,2025-09-11,2025-09-10,イノベーションシード合同会社,,合同会社,神奈川県,厚木市,中町４丁目１４番１号,,14,212,2430018,,,2025-09-10,清算の結了等,,,2021-05-07,1,,,,,イノベーションシード,0
1892,8030002010490,登記記録の閉鎖等,0,2025-09-11,2025-09-02,有限会社日進技研,,有限会社,埼玉県,さいたま市北区,東大成町２丁目６２７番地２セザール大宮日進５０５,,11,102,3310814,,,2025-09-02,清算の結了等,,,2015-10-05,1,,,,,ニッシンギケン,0
1894,8030002114663,登記記録の閉鎖等,0,2025-09-11,2025-09-02,有限会社とや洋品店,,有限会社,埼玉県,熊谷市,妻沼１５０１番地６,,11,202,3600201,,,2025-09-02,清算の結了等,,,2015-10-05,1,,,,,トヤヨウヒンテン,0
1909,8060001035718,登記記録の閉鎖等,0,2025-09-11,2025-09-05,株式会社カネオン,,株式会社,栃木県,那須烏山市,野上９７９,,09,215,3210634,,,2025-09-05,合併による解散等,3013102007446,令和７年９月１日東京都青梅市新町六丁目１５番地２０株式会社カネバン（3013102007446）に合併し解散,2023-02-27,1,,,,,カネオン,0
1917,8110003003254,登記記録の閉鎖等,0,2025-09-11,2025-08-29,合同会社エムバイエス,,合同会社,新潟県,新潟市中央区,南笹口１丁目１番１号,,15,103,9500912,,,2025-08-29,清算の結了等,,,2016-02-04,1,,,,,エムバイエス,0
1921,8120001256803,登記記録の閉鎖等,0,2025-09-11,2025-08-20,ＬＩＶＯ　ＴＥＣＨＮＯＬＯＧＹ株式会社,,株式会社,大阪府,大阪市旭区,今市１丁目２－５カルム千林２０５号室,,27,117,5350011,,,2025-08-20,清算の結了等,,,2023-08-01,1,,,,,リボテクノロジー,0
1934,8120903005200,登記記録の閉鎖等,0,2025-09-11,2025-08-29,合同会社ＡＱｃｅｌｌ,,合同会社,大阪府,茨木市,庄２丁目１７番２３号,,27,211,5670806,,,2025-08-29,清算の結了等,,,2024-06-03,1,,,,,アクセル,0
1952,8140002028571,登記記録の閉鎖等,0,2025-09-11,2025-09-08,有限会社奥橋製作所,,有限会社,兵庫県,明石市,大久保町江井島１７０５番地,,28,203,6740064,,,2025-09-08,清算の結了等,,,2015-10-05,1,,,,,オクハシセイサクショ,0
1958,8160002011311,登記記録の閉鎖等,0,2025-09-11,2025-09-08,有限会社宏和商事川越部,,有限会社,滋賀県,高島市,安曇川町下小川４２０番地,,25,212,5201223,,,2025-09-08,清算の結了等,,,2015-10-05,1,,,,,コウワショウジカワゴエブ,0
1984,8250001003531,登記記録の閉鎖等,0,2025-09-11,2025-09-08,ハイカワデザインガラス株式会社,,株式会社,山口県,宇部市,明神町３丁目１番３２号,,35,202,7550008,,,2025-09-08,合併による解散等,7240001008895,令和７年９月１日広島市安佐南区長束四丁目１６番２号株式会社ティーエス・ハマモト（7240001008895）に合併し解散,2015-10-05,1,,,,,ハイカワデザインガラス,0
1987,8250005004336,登記記録の閉鎖等,0,2025-09-11,2025-09-05,萩阿武葬祭協同組合,,その他の設立登記法人,山口県,萩市,大字椿東６２１０番地の１,,35,204,7580011,,,2025-09-05,清算の結了等,,,2015-10-05,1,,,,,ハギアブソウサイ,0
1990,8280002006695,登記記録の閉鎖等,0,2025-09-11,2025-09-09,有限会社石飛組,,有限会社,島根県,出雲市,多伎町小田８６２番地,,32,203,6990903,,,2025-09-09,清算の結了等,,,2015-10-05,1,,,,,イシトビグミ,0
1991,8280002010409,登記記録の閉鎖等,0,2025-09-11,2025-09-05,有限会社洋電社,,有限会社,島根県,益田市,久城町１１２１番地２３,,32,204,6980001,,,2025-09-05,清算の結了等,,,2015-10-05,1,,,,,ヨウデンシャ,0
1992,8290001038160,登記記録の閉鎖等,0,2025-09-11,2025-08-14,粕屋長田倉庫株式会社,,株式会社,福岡県,糟屋郡粕屋町,大字戸原８５４番地,,40,349,8112312,,,2025-08-14,清算の結了等,,,2015-10-05,1,,,,,カスヤナガタソウコ,0
1993,8290001057185,登記記録の閉鎖等,0,2025-09-11,2025-08-18,山繕株式会社,,株式会社,福岡県,福岡市博多区,東光寺町１丁目１４－１４－２０１号,,40,132,8120896,,,2025-08-18,清算の結了等,,,2015-10-05,1,,,,,ヤマゼン,0
2024,8410001008976,登記記録の閉鎖等,0,2025-09-11,2025-09-08,株式会社柴田建設,,株式会社,秋田県,横手市,平鹿町樽見内字柄内９１番地,00086433,05,203,0130104,,,2025-09-08,清算の結了等,,,2015-10-05,1,,,,,シバタケンセツ,0
2033,8450002003741,登記記録の閉鎖等,0,2025-09-11,2025-09-09,有限会社東光吉田商事,,有限会社,北海道,旭川市,七条通２０丁目９７番地１０ヨシダハイツＣ１,,01,204,0788217,,,2025-09-09,清算の結了等,,,2015-10-05,1,,,,,トウコウヨシダショウジ,0
2034,8460101005448,登記記録の閉鎖等,0,2025-09-11,2025-09-02,株式会社ファームノート,,株式会社,北海道,帯広市,西八条南１８丁目３番地４,,01,207,0800018,,,2025-09-02,合併による解散等,6460101006051,令和７年９月１日北海道帯広市西八条南十八丁目３番地４株式会社ファームノートホールディングス（6460101006051）に合併し解散,2015-10-05,1,,,,,ファームノート,0
2035,8470001005266,登記記録の閉鎖等,0,2025-09-11,2025-09-05,東京サービス株式会社,,株式会社,香川県,高松市,国分寺町国分２８３番地１１,,37,201,7690102,,,2025-09-05,清算の結了等,,,2015-10-05,1,,,,,トウキョウサービス,0
2037,8480005005022,登記記録の閉鎖等,0,2025-09-11,2025-09-10,医療法人井坂クリニック,,その他の設立登記法人,徳島県,阿南市,津乃峰町長浜３７６番地１,,36,204,7740021,,,2025-09-10,清算の結了等,,,2015-10-05,1,,,,,イサカクリニック,0
2039,9010001094701,登記記録の閉鎖等,0,2025-09-11,2025-08-27,Ｍｏｉ　Ｌａｂｓ株式会社,,株式会社,東京都,千代田区,神田佐久間町１丁目１６番地１,,13,101,1010025,,,2025-08-27,清算の結了等,,,2015-10-05,1,,,,,モイラボ,0
2043,9010001240899,登記記録の閉鎖等,0,2025-09-11,2025-08-14,Ｆｅａｔｕｒｅ　Ｓｔｏｒｙ　Ｊａｐａｎ株式会社,,株式会社,東京都,中央区,銀座６丁目１３番１６号銀座ＷａｌｌビルＵＣＦ５０１,,13,102,1040061,,,2025-08-14,清算の結了等,,,2023-12-19,1,,,,,フィーチャーストーリージャパン,0
2064,9010801026688,登記記録の閉鎖等,0,2025-09-11,2025-09-02,株式会社雑用の科学社,,株式会社,東京都,大田区,鵜の木２丁目３９番１－３０５号多摩リバーサイドハウス,,13,111,1460091,,,2025-09-02,清算の結了等,,,2016-05-11,1,,,,,ザツヨウノカガクシャ,0
2072,9011101082406,登記記録の閉鎖等,0,2025-09-11,2025-08-01,株式会社ヒューネルソリューション,,株式会社,東京都,文京区,小石川２丁目１番２号,,13,105,1120002,,,2025-08-01,清算の結了等,,,2017-12-06,1,,,,,ヒューネルソリューション,0
2073,9011301008846,登記記録の閉鎖等,0,2025-09-11,2025-09-09,株式会社さとみ,,株式会社,東京都,杉並区,荻窪５丁目６番１４号,,13,115,1670051,,,2025-09-09,清算の結了等,,,2015-10-05,1,,,,,サトミ,0
2076,9011501019073,登記記録の閉鎖等,0,2025-09-11,2025-09-09,株式会社モンヴィラージュ,,株式会社,東京都,北区,上十条１丁目２２番１８号,,13,117,1140034,,,2025-09-09,合併による解散等,9011501013539,令和７年９月１日東京都板橋区南常盤台一丁目１４番１１号アニホスフォレスト株式会社（9011501013539）に合併し解散,2015-10-05,1,,,,,モンヴィラージュ,0
2096,9020001024005,登記記録の閉鎖等,0,2025-09-11,2025-08-29,日通横浜運輸株式会社,,株式会社,神奈川県,横浜市瀬谷区,北町２５番地９,,14,114,2460002,,,2025-08-29,清算の結了等,,,2015-10-05,1,,,,,ニッツウヨコハマウンユ,0
2113,9030001057680,登記記録の閉鎖等,0,2025-09-11,2025-09-02,株式会社エマン,,株式会社,埼玉県,ふじみ野市,亀久保１丁目９番１号,,11,245,3560051,,,2025-09-02,清算の結了等,,,2015-10-05,1,,,,,エマン,0
2137,9090002014667,登記記録の閉鎖等,0,2025-09-11,2025-09-04,有限会社アメリカヤ,,有限会社,山梨県,韮崎市,中央町１０番１７号,,19,207,4070023,,,2025-09-04,清算の結了等,,,2015-10-05,1,,,,,アメリカヤ,0
2166,9120103005470,登記記録の閉鎖等,0,2025-09-11,2025-08-28,合同会社彩音,,合同会社,大阪府,泉大津市,我孫子１７８－２,,27,206,5950031,,,2025-08-28,清算の結了等,,,2023-10-05,1,,,,,アヤネ,0
2172,9122002012721,登記記録の閉鎖等,0,2025-09-11,2025-09-03,石原工業有限会社,,有限会社,大阪府,大阪市中央区,南新町１丁目１番６－４０１号,,27,128,5400024,,,2025-09-03,清算の結了等,,,2015-10-05,1,,,,,イシハラコウギョウ,0
2179,9140001093005,登記記録の閉鎖等,0,2025-09-11,2025-09-05,株式会社よつばエンタープライズ,,株式会社,兵庫県,尼崎市,大庄川田町７３番地の１,,28,202,6600072,,,2025-09-05,清算の結了等,,,2015-10-05,1,,,,,ヨツバエンタープライズ,0
2180,9140001120403,登記記録の閉鎖等,0,2025-09-11,2025-09-05,株式会社Ｃｉｅｎｔｏ,,株式会社,兵庫県,神戸市東灘区,本山南町７丁目８番３０－９０４号,,28,101,6580015,,,2025-09-05,清算の結了等,,,2021-02-12,1,,,,,シエント,0
2196,9180001091698,登記記録の閉鎖等,0,2025-09-11,2025-08-28,株式会社サンキョー,,株式会社,愛知県,半田市,白山町３丁目２０７番地の１,,23,205,4750912,,,2025-08-28,清算の結了等,,,2015-10-05,1,,,,,サンキョー,0
2205,9220001001495,登記記録の閉鎖等,0,2025-09-11,2025-09-09,株式会社エムエスケー,,株式会社,石川県,金沢市,問屋町２丁目４４番地,,17,201,9200061,,,2025-09-09,清算の結了等,,,2015-10-05,1,,,,,エムエスケー,0
2210,9240001034907,登記記録の閉鎖等,0,2025-09-11,2025-09-03,株式会社エステム・サービス,,株式会社,広島県,福山市,野上町１丁目４番１０号,,34,207,7200815,,,2025-09-03,清算の結了等,,,2015-10-05,1,,,,,エステムサービス,0
2212,9270001007265,登記記録の閉鎖等,0,2025-09-11,2025-09-10,株式会社サウザン,,株式会社,鳥取県,米子市,大谷町１番地５,,31,202,6830045,,,2025-09-10,清算の結了等,,,2017-06-13,1,,,,,サウザン,0
2233,9430001031216,登記記録の閉鎖等,0,2025-09-11,2025-08-28,株式会社Ｓｅｉ　ｕｎｉｃａ,,株式会社,北海道,札幌市豊平区,月寒東五条６丁目２番１４号,,01,105,0620055,,,2025-08-28,清算の結了等,,,2015-10-05,1,,,,,セイウニカ,0
2238,9450002011322,登記記録の閉鎖等,0,2025-09-11,2025-09-02,有限会社マルキ木下商店,,有限会社,北海道,天塩郡豊富町,字豊富表通３１番地,,01,516,0984100,,,2025-09-02,清算の結了等,,,2015-10-05,1,,,,,マルキキノシタショウテン,0
2242,9470002004638,登記記録の閉鎖等,0,2025-09-11,2025-09-08,有限会社中条酒店,,有限会社,香川県,高松市,錦町１丁目１４番２５号,,37,201,7600020,,,2025-09-08,清算の結了等,,,2015-10-05,1,,,,,チュウジョウサケテン,0
