sequenceNumber,corporateNumber,process,correct,updateDate,changeDate,name,nameImageId,kind,prefectureName,cityName,streetNumber,addressImageId,prefectureCode,cityCode,postCode,addressOutside,addressOutsideImageId,closeDate,closeCause,successorCorporateNumber,changeCause,assignmentDate,latest,enName,enPrefectureName,enCityName,enAddressOutside,furigana,hihyoji
8,1010003044100,新規,0,2024-06-25,2024-06-25,ＵＮＩＴＥＤ　ＥＮＥＲＧＹ　ＥＵＲＯＰＥ合同会社,,合同会社,東京都,中央区,銀座７丁目１７番１８－４０５号ジュエル銀座,,13,102,1040061,,,,,,,2024-06-25,1,,,,,ユナイテッドエナジーヨーロッパ,0
15,1010403032885,新規,0,2024-06-25,2024-06-25,Ｏｎｔａｒｉｏ合同会社,,合同会社,東京都,港区,西新橋１丁目１番１号ＥＰコンサルティングサービス内,,13,103,1050003,,,,,,,2024-06-25,1,,,,,オンタリオ,0
16,1010403032902,新規,0,2024-06-25,2024-06-25,合同会社ＡｓｏＢｉ,,合同会社,東京都,港区,南青山３丁目１番３６号青山丸竹ビル６Ｆ,,13,103,1070062,,,,,,,2024-06-25,1,,,,,アソビ,0
20,1010601065415,新規,0,2024-06-25,2024-06-25,Ａ９株式会社,,株式会社,東京都,江東区,東雲１丁目９番３１－３７０８号,,13,108,1350062,,,,,,,2024-06-25,1,,,,,アージュ,0
23,1010705003642,新規,0,2024-06-25,2024-06-25,一般社団法人白楽ホーム,,その他の設立登記法人,東京都,品川区,上大崎３丁目１番１号目黒セントラルスクエア１５階,,13,109,1410021,,,,,,,2024-06-25,1,,,,,ハクラクホーム,0
33,1011001162876,新規,0,2024-06-25,2024-06-25,株式会社ＣＯＲＩＭＡＰ,,株式会社,東京都,渋谷区,千駄ヶ谷５丁目２番４号－３１０,,13,113,1510051,,,,,,,2024-06-25,1,,,,,コリマップ,0
34,1011001162884,新規,0,2024-06-25,2024-06-25,サブシステム株式会社,,株式会社,東京都,渋谷区,千駄ヶ谷１丁目５番８号ジュニアー千駄ヶ谷ビル３Ｆ,,13,113,1510051,,,,,,,2024-06-25,1,,,,,サブシステム,0
35,1011001162901,新規,0,2024-06-25,2024-06-25,株式会社Ｌｉｆｅ＆Ｔａｘコンサルティング,,株式会社,東京都,渋谷区,恵比寿西１丁目１０番１３号ＫＯＮＯｂｌｄ．２階,,13,113,1500021,,,,,,,2024-06-25,1,,,,,ライフアンドタックスコンサルティング,0
36,1011001162926,新規,0,2024-06-25,2024-06-25,ＧＲＩ株式会社,,株式会社,東京都,渋谷区,神宮前６丁目２３番４号桑野ビル２階,,13,113,1500001,,,,,,,2024-06-25,1,,,,,ジーアールアイ,0
37,1011001162942,新規,0,2024-06-25,2024-06-25,株式会社ＺＥＫＫＡ　ＰＲＯＤＵＣＴ,,株式会社,東京都,渋谷区,富ヶ谷２丁目６番１号メゾンクレール３０２,,13,113,1510063,,,,,,,2024-06-25,1,,,,,ゼッカプロダクト,0
38,1011001162950,新規,0,2024-06-25,2024-06-25,株式会社Ｏｗｌ　Ｄａｔａ,,株式会社,東京都,渋谷区,恵比寿３丁目９－２９シェビア恵比寿２ＦＲｅｌｉｃＳＱＵＡＲＥＺＥＲＯ,,13,113,1500013,,,,,,,2024-06-25,1,,,,,オウルデータ,0
39,1011001162959,新規,0,2024-06-25,2024-06-25,Ｇｏｏｄ　Ｉｄｅａｓ　Ｌａｂ株式会社,,株式会社,東京都,目黒区,中目黒３丁目１９番３号,,13,110,1530061,,,,,,,2024-06-25,1,,,,,グッドアイデアズラボ,0
40,1011001162975,新規,0,2024-06-25,2024-06-25,株式会社メインキャラ,,株式会社,東京都,渋谷区,道玄坂１丁目１０番８号渋谷道玄坂東急ビル２Ｆ－Ｃ,,13,113,1500043,,,,,,,2024-06-25,1,,,,,メインキャラ,0
42,1011003019463,新規,0,2024-06-25,2024-06-25,ＴＡＫＫ　ＦＹＲＩＲ合同会社,,合同会社,東京都,渋谷区,渋谷２丁目１９－１５宮益坂ビルディング６０９,,13,113,1500002,,,,,,,2024-06-25,1,,,,,タックフィリー,0
43,1011005010569,新規,0,2024-06-25,2024-06-25,一般社団法人ｂｕｄｄｙ　ｂｏｕｑｕｅｔ,,その他の設立登記法人,東京都,渋谷区,道玄坂１丁目１６番６号二葉ビル８ｂ,,13,113,1500043,,,,,,,2024-06-25,1,,,,,バディーブーケ,0
46,1011101107814,新規,0,2024-06-25,2024-06-25,株式会社ＭＡＹＣＲＥＷ’Ｓ,,株式会社,東京都,新宿区,北新宿１丁目３０番３０－７１５号,,13,104,1690074,,,,,,,2024-06-25,1,,,,,メイクルーズ,0
48,1011203004422,新規,0,2024-06-25,2024-06-25,カワイ企画マーケティングラボ合同会社,,合同会社,東京都,中野区,江原町１丁目８－１１－２０４,,13,114,1650023,,,,,,,2024-06-25,1,,,,,カワイキカクマーケティングラボ,0
49,1011301029775,新規,0,2024-06-25,2024-06-25,株式会社３６０,,株式会社,東京都,杉並区,荻窪５丁目３０番１２号,,13,115,1670051,,,,,,,2024-06-25,1,,,,,サンロクマル,0
53,1011503006127,新規,0,2024-06-25,2024-06-25,合同会社星羽,,合同会社,東京都,北区,赤羽北２丁目３３番８－１０４号,,13,117,1150052,,,,,,,2024-06-25,1,,,,,セイウ,0
57,1011801044423,新規,0,2024-06-25,2024-06-25,馳和株式会社,,株式会社,東京都,足立区,江北２丁目１０番４号,,13,121,1230872,,,,,,,2024-06-25,1,,,,,チワ,0
63,1012301013967,新規,0,2024-06-25,2024-06-25,株式会社オモテックス,,株式会社,東京都,町田市,大蔵町２１５９番地,,13,209,1950062,,,,,,,2024-06-25,1,,,,,オモテックス,0
66,1012401042024,新規,0,2024-06-25,2024-06-25,株式会社ワイエステクニカ,,株式会社,東京都,稲城市,東長沼９１３番地ヴィラフルリエ４０４号,,13,225,2060802,,,,,,,2024-06-25,1,,,,,ワイエステクニカ,0
67,1012403006638,新規,0,2024-06-25,2024-06-25,合同会社寿大家さん,,合同会社,東京都,三鷹市,牟礼３丁目７－２４,,13,204,1810002,,,,,,,2024-06-25,1,,,,,コトブキオオヤサン,0
69,1012803003433,新規,0,2024-06-25,2024-06-25,目田合同会社,,合同会社,東京都,日野市,日野本町３丁目１４－１８谷井ビル４階４０６室,,13,212,1910011,,,,,,,2024-06-25,1,,,,,メタ,0
75,1020001157836,新規,0,2024-06-25,2024-06-25,株式会社和ねす,,株式会社,神奈川県,横浜市西区,浅間町１丁目４番３号ウィザードビル４０２,,14,103,2200072,,,,,,,2024-06-25,1,,,,,ワネス,0
76,1020001157844,新規,0,2024-06-25,2024-06-25,百蔵株式会社,,株式会社,神奈川県,横浜市港北区,大豆戸町６２３番地１,,14,109,2220032,,,,,,,2024-06-25,1,,,,,ヒャククラ,0
78,1020003026386,新規,0,2024-06-25,2024-06-25,アセットハニー合同会社,,合同会社,神奈川県,川崎市幸区,戸手４丁目１０－３－９０１,,14,132,2120005,,,,,,,2024-06-25,1,,,,,アセットハニー,0
83,1021003014653,新規,0,2024-06-25,2024-06-25,合同会社ＦＴ,,合同会社,神奈川県,平塚市,代官町四丁目１ＬＳＹ７０－１－２,,14,203,2540807,,,,,,,2024-06-25,1,,,,,エフティー,0
84,1021003014678,新規,0,2024-06-25,2024-06-25,Ｓｈｉｌｌｅｔｅａ合同会社,,合同会社,神奈川県,厚木市,下津古久７７３－４,,14,212,2430026,,,,,,,2024-06-25,1,,,,,シレッティー,0
90,1030003024562,新規,0,2024-06-25,2024-06-25,合同会社菖蒲,,合同会社,埼玉県,朝霞市,大字溝沼７６０番地,,11,227,3510023,,,,,,,2024-06-25,1,,,,,アヤメ,0
104,1040003025270,新規,0,2024-06-25,2024-06-25,合同会社Ｒ３ＭＳ,,合同会社,千葉県,千葉市中央区,出洲港３番１号ロイヤルステージ本千葉１０１０号,,12,101,2600023,,,,,,,2024-06-25,1,,,,,アールスリーエムエス,0
114,1050001054980,新規,0,2024-06-25,2024-06-25,株式会社幸新カシウル,,株式会社,茨城県,鹿嶋市,宮中８丁目７番２号,,08,222,3140031,,,,,,,2024-06-25,1,,,,,コウシンカシウル,0
115,1050001054989,新規,0,2024-06-25,2024-06-25,株式会社鈴木晴人建築設計事務所,,株式会社,茨城県,つくば市,春日１丁目４番地５コーポＮＳ３０１号,,08,220,3050821,,,,,,,2024-06-25,1,,,,,スズキハルヒトケンチクセッケイジムショ,0
117,1050003008472,新規,0,2024-06-25,2024-06-25,合同会社ＨＵＮＧＬＯＮＧ　ＪＰ,,合同会社,茨城県,つくばみらい市,板橋関場１０５３番地１,,08,235,3002307,,,,,,,2024-06-25,1,,,,,フンロンジピ,0
127,1080001026358,新規,0,2024-06-25,2024-06-25,株式会社ＥｖｅｒＬａｓｔｉｎｇ,,株式会社,静岡県,焼津市,塩津２０５番地の６,,22,212,4250085,,,,,,,2024-06-25,1,,,,,エバーラスティング,0
132,1100003007626,新規,0,2024-06-25,2024-06-25,合同会社彩和会００７,,合同会社,長野県,茅野市,玉川３０７７番地１富士ハイツＢ１０２号,,20,214,3910011,,,,,,,2024-06-25,1,,,,,サイワカイゼロゼロナナ,0
134,1110003005430,新規,0,2024-06-25,2024-06-25,スマイルサポート合同会社,,合同会社,新潟県,新潟市中央区,南出来島２丁目７番２８号,,15,103,9500963,,,,,,,2024-06-25,1,,,,,スマイルサポート,0
139,1120001266156,新規,0,2024-06-25,2024-06-25,青萸株式会社,,株式会社,大阪府,大阪市平野区,平野上町１丁目６番５号１０２室,,27,126,5470045,,,,,,,2024-06-25,1,,,,,セイユ,0
140,1120001266164,新規,0,2024-06-25,2024-06-25,株式会社ＹＳＭ,,株式会社,大阪府,守口市,寺方錦通４丁目４番１－５０５号,,27,209,5700042,,,,,,,2024-06-25,1,,,,,ワイエスエム,0
141,1120001266180,新規,0,2024-06-25,2024-06-25,元来株式会社,,株式会社,大阪府,大阪市東成区,大今里西３丁目１８番２１号－２０１室,,27,115,5370014,,,,,,,2024-06-25,1,,,,,ガンライ,0
142,1120001266189,新規,0,2024-06-25,2024-06-25,株式会社ｉｎｖｉｓｉｂｌｅ　ｃｏｍｐａｎｙ,,株式会社,大阪府,大阪市阿倍野区,播磨町３丁目７番２－９０１号,,27,119,5450022,,,,,,,2024-06-25,1,,,,,インビジブルカンパニー,0
143,1120001266222,新規,0,2024-06-25,2024-06-25,株式会社西日本産業,,株式会社,大阪府,大阪市浪速区,湊町２丁目１番３４号,,27,111,5560017,,,,,,,2024-06-25,1,,,,,ニシニホンサンギョウ,0
145,1120003026855,新規,0,2024-06-25,2024-06-25,優良リノベーション比較ナビ合同会社,,合同会社,大阪府,大阪市都島区,都島中通２丁目１５番７号,,27,102,5340022,,,,,,,2024-06-25,1,,,,,ユウリョウリノベーションヒカクナビ,0
167,1140001134906,新規,0,2024-06-25,2024-06-25,ＳｈｉｎＴｒｅｅＳｅｒｖｉｃｅ株式会社,,株式会社,兵庫県,丹波市,柏原町大新屋５９９番地,,28,223,6693315,,,,,,,2024-06-25,1,,,,,,0
186,1180001162127,新規,0,2024-06-25,2024-06-25,ＩＫＩＧＡＩ　ＫＡＮＤＹ　ＮＡＧＯＹＡ　ＡＵＴＯ　ＳＥＲＶＩＣＥ株式会社,,株式会社,愛知県,名古屋市天白区,八幡山３３７番地林田ビル３０１,,23,116,4680074,,,,,,,2024-06-25,1,,,,,イキガイキャンディナゴヤオートサービス,0
193,1190001031438,新規,0,2024-06-25,2024-06-25,株式会社Ｒａｉｎｂｏｗ　Ｗａｖｅｓ,,株式会社,三重県,鈴鹿市,中旭が丘２丁目７番６号,,24,207,5100212,,,,,,,2024-06-25,1,,,,,レインボーウェーブス,0
198,1200003006394,新規,0,2024-06-25,2024-06-25,Ｆメディカル合同会社,,合同会社,岐阜県,岐阜市,福富町田３０３番地７,,21,201,5012567,,,,,,,2024-06-25,1,,,,,エフメディカル,0
203,1220002014834,新規,0,2024-06-25,2024-06-25,有限会社河野運送,,有限会社,石川県,羽咋郡志賀町,末吉アの５８番地,,17,384,9250154,,,,,,,2024-06-25,1,,,,,カワノウンソウ,0
212,1250001020698,新規,0,2024-06-25,2024-06-25,株式会社Ｕｎｉ設計コンサルタント,,株式会社,山口県,下関市,稗田町５番２０号Ｋビル２０５,,35,201,7510858,,,,,,,2024-06-25,1,,,,,ユニセッケイコンサルタント,0
213,1250001020707,新規,0,2024-06-25,2024-06-25,グッドウイル株式会社,,株式会社,山口県,防府市,大字牟礼４５２０番地の２,,35,206,7470004,,,,,,,2024-06-25,1,,,,,グッドウイル,0
217,1260001039201,新規,0,2024-06-25,2024-06-25,株式会社ｐｇｓ,,株式会社,岡山県,倉敷市,真備町箭田７５４番地４,,33,202,7101301,,,,,,,2024-06-25,1,,,,,ピージーエス,0
219,1260005011370,新規,0,2024-06-25,2024-06-25,一般社団法人権利擁護センターおかやま,,その他の設立登記法人,岡山県,岡山市東区,西大寺中野本町７番９号,,33,103,7048192,,,,,,,2024-06-25,1,,,,,ケンリヨウゴセンターオカヤマ,0
220,1270001009005,新規,0,2024-06-25,2024-06-25,株式会社ｃｏｕｃｈｅ,,株式会社,鳥取県,東伯郡北栄町,江北４８１番地６２,,31,372,6892101,,,,,,,2024-06-25,1,,,,,クーシュ,0
223,1290001106262,新規,0,2024-06-25,2024-06-25,株式会社シーアンドアール,,株式会社,福岡県,宗像市,自由ヶ丘８丁目８－５,,40,220,8114163,,,,,,,2024-06-25,1,,,,,シーアンドアール,0
225,1290003015494,新規,0,2024-06-25,2024-06-25,合同会社ＲＥＰ,,合同会社,福岡県,久留米市,北野町乙吉１０９番地５,,40,203,8301124,,,,,,,2024-06-25,1,,,,,レップ,0
226,1290003015503,新規,0,2024-06-25,2024-06-25,合同会社福吉商店,,合同会社,福岡県,糸島市,二丈吉井１５２９番地,,40,230,8191641,,,,,,,2024-06-25,1,,,,,フクヨシショウテン,0
229,1310001019081,新規,0,2024-06-25,2024-06-25,株式会社和泉屋商事,,株式会社,長崎県,長崎市,浜町２番２４号,,42,201,8500853,,,,,,,2024-06-25,1,,,,,イズミヤショウジ,0
235,1340001026595,新規,0,2024-06-25,2024-06-25,株式会社ＰＥＲＬＥ,,株式会社,鹿児島県,鹿児島市,西千石町７番４１,,46,201,8920847,,,,,,,2024-06-25,1,,,,,ペルレ,0
243,1370001051459,新規,0,2024-06-25,2024-06-25,株式会社仙台総合商事,,株式会社,宮城県,仙台市宮城野区,萩野町１丁目４番地１１ノーブル白萩１０２号,,04,102,9830043,,,,,,,2024-06-25,1,,,,,センダイソウゴウショウジ,0
251,1390001017656,新規,0,2024-06-25,2024-06-25,株式会社アース,,株式会社,山形県,東置賜郡高畠町,大字馬頭２５１番地１,,06,381,9920264,,,,,,,2024-06-25,1,,,,,アース,0
259,1430001092083,新規,0,2024-06-25,2024-06-25,株式会社オフザリップ,,株式会社,北海道,札幌市中央区,大通西９丁目３番地３３,,01,101,0600042,,,,,,,2024-06-25,1,,,,,オフザリップ,0
264,1490001010799,新規,0,2024-06-25,2024-06-25,株式会社四次元ぱれっと,,株式会社,高知県,香南市,野市町大谷４１０番地５,,39,211,7815233,,,,,,,2024-06-25,1,,,,,ヨジゲンパレット,0
265,1700150126201,新規,0,2024-06-25,2024-06-25,四川省合道市政工程設計有限公司　日本駐在員事務所,,外国会社等,茨城県,つくば市,上境３２４－３－２番１０１号室,,08,220,3050011,四川省成都市錦江区喜樹街７５号２幢１２楼１号,,,,,,2024-06-25,1,,,,,シセンシヨウゴウドウシセイコウテイセツケイユウゲンコウシニホンチユウザイインジムシヨ,0
277,2010001245946,新規,0,2024-06-25,2024-06-25,福方株式会社,,株式会社,東京都,中央区,日本橋浜町２丁目５５－７日本橋パークサイドビル６Ｆ,,13,102,1030007,,,,,,,2024-06-25,1,,,,,フクホウ,0
278,2010001245970,新規,0,2024-06-25,2024-06-25,神商精密株式会社,,株式会社,東京都,中央区,京橋１丁目７番２号,,13,102,1040031,,,,,,,2024-06-25,1,,,,,シンショウセイミツ,0
279,2010001245987,新規,0,2024-06-25,2024-06-25,ＫＭＴ　ＰＭ株式会社,,株式会社,東京都,千代田区,有楽町１丁目２番２号東宝日比谷ビル９Ｆ,,13,101,1000006,,,,,,,2024-06-25,1,,,,,ケーエムティーピーエム,0
280,2010001246052,新規,0,2024-06-25,2024-06-25,株式会社ＡｄＭｅｌ,,株式会社,東京都,千代田区,永田町２丁目４－１１フレンドビル３Ｆ,,13,101,1000014,,,,,,,2024-06-25,1,,,,,アドメル,0
282,2010003044090,新規,0,2024-06-25,2024-06-25,合同会社トライアングル,,合同会社,東京都,千代田区,丸の内３丁目１番１号東京共同会計事務所内,,13,101,1000005,,,,,,,2024-06-25,1,,,,,トライアングル,0
283,2010005038462,新規,0,2024-06-25,2024-06-25,エメラルド一般社団法人,,その他の設立登記法人,東京都,千代田区,丸の内３丁目１番１号東京共同会計事務所内,,13,101,1000005,,,,,,,2024-06-25,1,,,,,エメラルド,0
285,2010401183309,新規,0,2024-06-25,2024-06-25,株式会社ｍａｃａｒｏｎ,,株式会社,東京都,港区,北青山３丁目６番７号,,13,103,1070061,,,,,,,2024-06-25,1,,,,,マカロン,0
286,2010401183333,新規,0,2024-06-25,2024-06-25,ＳＭＰ株式会社,,株式会社,東京都,港区,西麻布１丁目４－３６－３０５,,13,103,1060031,,,,,,,2024-06-25,1,,,,,エスエムピー,0
293,2010501052495,新規,0,2024-06-25,2024-06-25,早川防水株式会社,,株式会社,東京都,台東区,日本堤１丁目２９番７号,,13,106,1110021,,,,,,,2024-06-25,1,,,,,ハヤカワボウスイ,0
296,2010601065439,新規,0,2024-06-25,2024-06-25,株式会社ティーエムエス,,株式会社,東京都,墨田区,東駒形２丁目１１－９,,13,107,1300005,,,,,,,2024-06-25,1,,,,,ティーエムエス,0
298,2010603010913,新規,0,2024-06-25,2024-06-25,合同会社レーベルイノベーション,,合同会社,東京都,江東区,石島２１番１号,,13,108,1350014,,,,,,,2024-06-25,1,,,,,レーベルイノベーション,0
301,2010701046173,新規,0,2024-06-25,2024-06-25,株式会社リベルホールディングス,,株式会社,東京都,品川区,旗の台６丁目１８番８号,,13,109,1420064,,,,,,,2024-06-25,1,,,,,リベルホールディングス,0
311,2010903009176,新規,0,2024-06-25,2024-06-25,Ｔｈｅ　Ｌｉｇｈｔ　Ｐａｒｔｙ合同会社,,合同会社,東京都,世田谷区,北沢３丁目２番１１号レガーロ東北沢２Ｆ－８,,13,112,1550031,,,,,,,2024-06-25,1,,,,,ザライトパーティー,0
316,2011001162900,新規,0,2024-06-25,2024-06-25,株式会社ＮｅｏＢｅａｔｓ　Ｅｎｔｅｒｔａｉｎｍｅｎｔ,,株式会社,東京都,渋谷区,道玄坂１丁目１０番８号渋谷道玄坂東急ビル２Ｆ－Ｃ,,13,113,1500043,,,,,,,2024-06-25,1,,,,,ネオビーツエンターテインメント,0
317,2011001162925,新規,0,2024-06-25,2024-06-25,ライアンブラザーズ株式会社,,株式会社,東京都,目黒区,目黒本町２丁目４番１２号学芸大学ホームズ４０２,,13,110,1520002,,,,,,,2024-06-25,1,,,,,ライアンブラザーズ,0
318,2011001162974,新規,0,2024-06-25,2024-06-25,株式会社＿勝,00135282,株式会社,東京都,渋谷区,笹塚３丁目６０番２号,,13,113,1510073,,,,,,,2024-06-25,1,,,,,キンショウ,0
319,2011003019462,新規,0,2024-06-25,2024-06-25,合同会社ｕｕ,,合同会社,東京都,渋谷区,恵比寿西２丁目１４番３号,,13,113,1500021,,,,,,,2024-06-25,1,,,,,ユーユー,0
322,2011103014594,新規,0,2024-06-25,2024-06-25,モーニンググローリー合同会社,,合同会社,東京都,新宿区,四谷２丁目９番地１５東京ユナイテッド綜合事務所内,,13,104,1600004,,,,,,,2024-06-25,1,,,,,モーニンググローリー,0
324,2011503006126,新規,0,2024-06-25,2024-06-25,合同会社ｃｈａｍｙ,,合同会社,東京都,荒川区,東尾久１丁目３１番７－２０１号,,13,118,1160012,,,,,,,2024-06-25,1,,,,,チャミー,0
330,2012403006637,新規,0,2024-06-25,2024-06-25,合同会社彰大家さん,,合同会社,東京都,三鷹市,牟礼３丁目７－２４,,13,204,1810002,,,,,,,2024-06-25,1,,,,,アキオオヤサン,0
331,2012801023275,新規,0,2024-06-25,2024-06-25,田辺サッシ株式会社,,株式会社,東京都,日野市,三沢２丁目２９番地の９,,13,212,1910032,,,,,,,2024-06-25,1,,,,,タナベサッシ,0
332,2012803003440,新規,0,2024-06-25,2024-06-25,ＭＧ企画合同会社,,合同会社,東京都,東大和市,桜が丘２丁目１４２－１２グランドメゾン玉川上水ノーススクエア８０４,,13,220,2070022,,,,,,,2024-06-25,1,,,,,エムジーキカク,0
339,2020001157843,新規,0,2024-06-25,2024-06-25,株式会社ＡＫＰコンサルティング,,株式会社,神奈川県,横浜市港北区,師岡町３６０番地１８,,14,109,2220002,,,,,,,2024-06-25,1,,,,,エイケイピイコンサルティング,0
341,2020003026344,新規,0,2024-06-25,2024-06-25,合同会社ＫＯＡコンサルティング,,合同会社,神奈川県,横浜市青葉区,新石川１丁目２３－２５,,14,117,2250003,,,,,,,2024-06-25,1,,,,,,0
343,2021003014677,新規,0,2024-06-25,2024-06-25,合同会社わかうと,,合同会社,神奈川県,藤沢市,本鵠沼２丁目３－１８,,14,205,2510028,,,,,,,2024-06-25,1,,,,,ワカウト,0
355,2030001161019,新規,0,2024-06-25,2024-06-25,株式会社たまよど,,株式会社,埼玉県,大里郡寄居町,大字寄居５２５番地,,11,408,3691203,,,,,,,2024-06-25,1,,,,,,0
356,2030001161084,新規,0,2024-06-25,2024-06-25,株式会社Ｇｌａｎｚ,,株式会社,埼玉県,入間市,牛沢町１５番１２号,,11,225,3580051,,,,,,,2024-06-25,1,,,,,グランツ,0
367,2040001134196,新規,0,2024-06-25,2024-06-25,株式会社Ｒメディカルプラス,,株式会社,千葉県,松戸市,仲井町３丁目２早川ビル１階,,12,207,2702242,,,,,,,2024-06-25,1,,,,,アールメディカルプラス,0
371,2050001054988,新規,0,2024-06-25,2024-06-25,株式会社ｓｅｅｄｌｉｎｇ,,株式会社,茨城県,那珂郡東海村,大字豊岡１５８９番地１,,08,341,3191105,,,,,,,2024-06-25,1,,,,,シードリング,0
382,2100003007625,新規,0,2024-06-25,2024-06-25,オフィスケア長野合同会社,,合同会社,長野県,長野市,若里１丁目４番２４号,,20,201,3800928,,,,,,,2024-06-25,1,,,,,オフィスケアナガノ,0
383,2110001038506,新規,0,2024-06-25,2024-06-25,株式会社ＳＨＩＢＵＫＩ,,株式会社,新潟県,燕市,南６丁目４番３３号,,15,213,9591234,,,,,,,2024-06-25,1,,,,,シブキ,0
390,2120001266122,新規,0,2024-06-25,2024-06-25,匠エンジニアリング株式会社,,株式会社,大阪府,大阪市西区,南堀江３丁目３番７－６０７号,,27,106,5500015,,,,,,,2024-06-25,1,,,,,タクミエンジニアリング,0
391,2120001266147,新規,0,2024-06-25,2024-06-25,株式会社シナプス,,株式会社,大阪府,枚方市,津田駅前１丁目２８番１６－５０２号,,27,210,5730125,,,,,,,2024-06-25,1,,,,,シナプス,0
392,2120001266188,新規,0,2024-06-25,2024-06-25,トレジャーホーム株式会社,,株式会社,大阪府,大阪市生野区,小路２丁目２２番１３号２Ｆ,,27,116,5440002,,,,,,,2024-06-25,1,,,,,トレジャーホーム,0
395,2120003026854,新規,0,2024-06-25,2024-06-25,転職エージェント比較ナビ合同会社,,合同会社,大阪府,大阪市都島区,都島中通２丁目１５番７号,,27,102,5340022,,,,,,,2024-06-25,1,,,,,テンショクエージェントヒカクナビ,0
405,2130001077320,新規,0,2024-06-25,2024-06-25,Ｂｌａｓｔ株式会社,,株式会社,京都府,京都市南区,久世大藪町２８番地４５,,26,107,6010000,,,,,,,2024-06-25,1,,,,,ブラスト,0
412,2160001025937,新規,0,2024-06-25,2024-06-25,株式会社コネクトビビ,,株式会社,滋賀県,長浜市,八幡東町１１５番地１サニーヒル３０５号室,,25,203,5260031,,,,,,,2024-06-25,1,,,,,,0
414,2160003003214,新規,0,2024-06-25,2024-06-25,合同会社ヘイヴン,,合同会社,滋賀県,甲賀市,甲南町深川３７６番地,,25,209,5203322,,,,,,,2024-06-25,1,,,,,ヘイヴン,0
422,2180001162101,新規,0,2024-06-25,2024-06-25,株式会社ＴＷＯ　ＣＲＥＡＴＥ,,株式会社,愛知県,名古屋市中村区,名駅４丁目２４番５号,,23,105,4500002,,,,,,,2024-06-25,1,,,,,トゥークリエイト,0
429,2190001031437,新規,0,2024-06-25,2024-06-25,株式会社ＳＡＱＯＯＲ　ＡＬ　ＮＡＲＩＹＡ　ＪＡＰＡＮ,,株式会社,三重県,桑名市,大字小貝須９９４番地８,,24,205,5110841,,,,,,,2024-06-25,1,,,,,サクールアルナリアジャパン,0
434,2210005010153,新規,0,2024-06-25,2024-06-25,特定非営利活動法人すばこＳＡＫＡＩ,,その他の設立登記法人,福井県,坂井市,丸岡町羽崎第２８号３４番地,,18,210,9100367,,,,,,,2024-06-25,1,,,,,スバコサカイ,0
439,2230001020402,新規,0,2024-06-25,2024-06-25,日本第一珪素株式会社,,株式会社,富山県,砺波市,庄川町青島１６３－１,,16,208,9320314,,,,,,,2024-06-25,1,,,,,ニホンダイイチケイソ,0
448,2240003006737,新規,0,2024-06-25,2024-06-25,合同会社くるみ,,合同会社,広島県,広島市安佐南区,長楽寺１丁目６８番３号,,34,105,7310143,,,,,,,2024-06-25,1,,,,,クルミ,0
458,2290001106195,新規,0,2024-06-25,2024-06-25,株式会社Ｒ,,株式会社,福岡県,福岡市早良区,百道浜４丁目２０番３号,,40,137,8140001,,,,,,,2024-06-25,1,,,,,アール,0
459,2290001106261,新規,0,2024-06-25,2024-06-25,雄隆株式会社,,株式会社,福岡県,福岡市城南区,田島３丁目１６番２７－２号,,40,136,8140113,,,,,,,2024-06-25,1,,,,,ユウリュウ,0
462,2290003015469,新規,0,2024-06-25,2024-06-25,合同会社祥義産業,,合同会社,福岡県,糟屋郡志免町,別府北１丁目１６－２１,,40,343,8112233,,,,,,,2024-06-25,1,,,,,ショウギサンギョウ,0
463,2290003015477,新規,0,2024-06-25,2024-06-25,合同会社Ｌｕ,,合同会社,福岡県,福岡市博多区,博多駅前４丁目３６番２７－７０５号ピュアドームエクセル博多,,40,132,8120011,,,,,,,2024-06-25,1,,,,,エルユー,0
469,2320005010167,新規,0,2024-06-25,2024-06-25,農事組合法人阿鉢,,その他の設立登記法人,大分県,由布市,挾間町小野６０４番地,,44,213,8795522,,,,,,,2024-06-25,1,,,,,アバチ,0
480,2340003004516,新規,0,2024-06-25,2024-06-25,Ｎｗｅａｌｔｈ合同会社,,合同会社,鹿児島県,鹿児島市,山田町３３７５－４,,46,201,8910104,,,,,,,2024-06-25,1,,,,,ニウェルス,0
519,2700150126209,新規,0,2024-06-25,2024-06-25,新義成実宗　秀名山　天照寺,,その他,愛知県,名古屋市千種区,千種２丁目２３－６ロイヤルパークス千種１４０２,,23,101,4640858,,,,,,,2024-06-25,1,,,,,シンギジョウジツシュウシュウメイザンテンショウジ,0
530,3010001245953,新規,0,2024-06-25,2024-06-25,日本ネットガードテクノロジー株式会社,,株式会社,東京都,千代田区,丸の内１丁目１１番１号パシフィックセンチュリープレイス１３階,,13,101,1000005,,,,,,,2024-06-25,1,,,,,ニホンネットガードテクノロジー,0
531,3010001245961,新規,0,2024-06-25,2024-06-25,株式会社ＥＫＣ,,株式会社,東京都,中央区,日本橋室町１丁目１１番１２号日本橋水野ビル７階,,13,102,1030022,,,,,,,2024-06-25,1,,,,,イーケーシー,0
532,3010001245994,新規,0,2024-06-25,2024-06-25,株式会社ギブアス,,株式会社,東京都,中央区,日本橋室町１丁目１１番１２号日本橋水野ビル７階,,13,102,1030022,,,,,,,2024-06-25,1,,,,,ギブアス,0
533,3010001246010,新規,0,2024-06-25,2024-06-25,Ｇｒｅｅｎ　Ｓｍａｒｔ株式会社,,株式会社,東京都,中央区,日本橋室町１丁目２－６日本橋大栄ビル７階,,13,102,1030022,,,,,,,2024-06-25,1,,,,,グリーンスマート,0
534,3010001246035,新規,0,2024-06-25,2024-06-25,ＫＳＱ株式会社,,株式会社,東京都,千代田区,大手町１丁目５番１号,,13,101,1000004,,,,,,,2024-06-25,1,,,,,ケイエスキュー,0
538,3010003044156,新規,0,2024-06-25,2024-06-25,合同会社ＢｅｅＧｌｏｂａｌ,,合同会社,東京都,中央区,日本橋室町１丁目１１番１２号日本橋水野ビル７階,,13,102,1030022,,,,,,,2024-06-25,1,,,,,ビーグローバル,0
542,3010005038453,新規,0,2024-06-25,2024-06-25,千葉ニュータウン３特定目的会社,,その他の設立登記法人,東京都,中央区,八重洲２丁目２番１号,,13,102,1040028,,,,,,,2024-06-25,1,,,,,チバニュータウンスリー,0
555,3010403032883,新規,0,2024-06-25,2024-06-25,梅鉢合同会社,,合同会社,東京都,港区,西新橋１丁目１番１号ＥＰコンサルティングサービス内,,13,103,1050003,,,,,,,2024-06-25,1,,,,,ウメバチ,0
561,3010503007488,新規,0,2024-06-25,2024-06-25,合同会社Ｚｉｐａｎｓｉｏｎ,,合同会社,東京都,台東区,北上野２丁目２６－１１,,13,106,1100014,,,,,,,2024-06-25,1,,,,,ジパンジョン,0
562,3010601065438,新規,0,2024-06-25,2024-06-25,株式会社ＫＯＮＤＡＩＢＯ,,株式会社,東京都,江東区,東雲１丁目９番３２－３６０８号,,13,108,1350062,,,,,,,2024-06-25,1,,,,,コンダイボウ,0
580,3011001162825,新規,0,2024-06-25,2024-06-25,株式会社ＪＡＳＳ,,株式会社,東京都,渋谷区,恵比寿４丁目２０番４号恵比寿ガーデンプレイスグラススクエアＢ１Ｆ・ＰＯＲＴＡＬ・ＰＯＩＮＴ・Ｅｂｉｓｕ・ＬＢ－３８,,13,113,1500013,,,,,,,2024-06-25,1,,,,,ジャス,0
581,3011001162866,新規,0,2024-06-25,2024-06-25,株式会社ＲｅＴｒｅａｔ,,株式会社,東京都,渋谷区,広尾５丁目４番１６号ＥＡＴ・ＰＬＡＹ・ＷＯＲＫＳ３Ｆ,,13,113,1500012,,,,,,,2024-06-25,1,,,,,リトリート,0
582,3011001162899,新規,0,2024-06-25,2024-06-25,株式会社エフケー,,株式会社,東京都,渋谷区,道玄坂１丁目１０番８号渋谷道玄坂東急ビル２Ｆ－Ｃ,,13,113,1500043,,,,,,,2024-06-25,1,,,,,エフケー,0
583,3011001162908,新規,0,2024-06-25,2024-06-25,江戸東阪金物Ｎ．Ｆ．Ｔ．株式会社,,株式会社,東京都,渋谷区,富ヶ谷１丁目１４番１４号３階・４階,,13,113,1510063,,,,,,,2024-06-25,1,,,,,エドトウハンキンモノエヌエフティー,0
584,3011001162949,新規,0,2024-06-25,2024-06-25,株式会社パーフス,,株式会社,東京都,渋谷区,恵比寿南３丁目７番５号,,13,113,1500022,,,,,,,2024-06-25,1,,,,,,0
587,3011003019461,新規,0,2024-06-25,2024-06-25,合同会社ラックマックス,,合同会社,東京都,渋谷区,道玄坂１丁目１０番８号渋谷道玄坂東急ビル２Ｆ－Ｃ,,13,113,1500043,,,,,,,2024-06-25,1,,,,,ラックマックス,0
589,3011101107812,新規,0,2024-06-25,2024-06-25,株式会社ＳＹＮＡＰＳＥ,,株式会社,東京都,新宿区,歌舞伎町２丁目４２番１３号アゼリア東広ビル３１３号室,,13,104,1600021,,,,,,,2024-06-25,1,,,,,シナプス,0
590,3011101107820,新規,0,2024-06-25,2024-06-25,株式会社ＨａｐｐｙＦｏｒｃｅ,,株式会社,東京都,新宿区,高田馬場１丁目３１番８－１００４号,,13,104,1690075,,,,,,,2024-06-25,1,,,,,ハッピーホース,0
593,3011201025583,新規,0,2024-06-25,2024-06-25,西武しんきんキャリアサポート株式会社,,株式会社,東京都,中野区,中野２丁目２９番１０号,,13,114,1640001,,,,,,,2024-06-25,1,,,,,セイブシンキンキャリアサポート,0
594,3011501030837,新規,0,2024-06-25,2024-06-25,株式会社野村商事,,株式会社,東京都,荒川区,町屋４丁目２４番１５号,,13,118,1160001,,,,,,,2024-06-25,1,,,,,ノムラショウジ,0
595,3011503006125,新規,0,2024-06-25,2024-06-25,ＢＩＣＨ　ＮＧＯＣ合同会社,,合同会社,東京都,北区,田端新町１丁目２０番４－３０４号久我マンション,,13,117,1140012,,,,,,,2024-06-25,1,,,,,ビックゴック,0
601,3011801044421,新規,0,2024-06-25,2024-06-25,株式会社まごころ,,株式会社,東京都,足立区,東綾瀬１丁目２１番１６号カーザ泉２０１号室,,13,121,1200004,,,,,,,2024-06-25,1,,,,,マゴコロ,0
603,3012401042006,新規,0,2024-06-25,2024-06-25,Ｐｅａｃｈ　ｃｏｍｐａｎｙ株式会社,,株式会社,東京都,小金井市,東町２丁目１２番３号浅井ビル１０５,,13,210,1840011,,,,,,,2024-06-25,1,,,,,ピーチカンパニー,0
604,3012401042014,新規,0,2024-06-25,2024-06-25,株式会社リズムソフト,,株式会社,東京都,府中市,若松町１丁目２０番地の３６,,13,206,1830005,,,,,,,2024-06-25,1,,,,,リズムソフト,0
605,3012405005009,新規,0,2024-06-25,2024-06-25,特定非営利活動法人自立生活センター府中,,その他の設立登記法人,東京都,府中市,府中町２丁目１０番地の１１清田第二ビル１階,,13,206,1830055,,,,,,,2024-06-25,1,,,,,ジリツセイカツセンターフチュウ,0
612,3020001157834,新規,0,2024-06-25,2024-06-25,株式会社寛和,,株式会社,神奈川県,川崎市高津区,東野川２丁目２３番１－７０４号ハイホーム鷺沼東,,14,134,2130029,,,,,,,2024-06-25,1,,,,,ヒロワ,0
614,3020005016466,新規,0,2024-06-25,2024-06-25,一般社団法人チーム港北ネット,,その他の設立登記法人,神奈川県,横浜市港北区,大豆戸町８９番地１Ｌｉｎｃｓ大倉山１０１号,,14,109,2220032,,,,,,,2024-06-25,1,,,,,チームコウホクネット,0
620,3030001161091,新規,0,2024-06-25,2024-06-25,ＰｒｏＬａｂ株式会社,,株式会社,埼玉県,飯能市,本町１９番２号ＫＩＶ－Ｗｅｌｆａｒｅ会館飯能２号室,,11,209,3570032,,,,,,,2024-06-25,1,,,,,プロラボ,0
629,3040001134204,新規,0,2024-06-25,2024-06-25,株式会社Ｃａｚａｄｏｒａ,,株式会社,千葉県,印西市,本埜小林５番地,,12,231,2702308,,,,,,,2024-06-25,1,,,,,カサドーラ,0
633,3040003025277,新規,0,2024-06-25,2024-06-25,合同会社ＹＨ　ＳＹＳＴＥＭ,,合同会社,千葉県,流山市,三輪野山２丁目３３５番地の２４,,12,220,2700175,,,,,,,2024-06-25,1,,,,,ワイエイチシステム,0
636,3050001054979,新規,0,2024-06-25,2024-06-25,株式会社Ｏｎｅ　ＫＡＨＵＡ,,株式会社,茨城県,つくば市,山中４８０番地１５２,,08,220,3050836,,,,,,,2024-06-25,1,,,,,ワンカフア,0
637,3050001054987,新規,0,2024-06-25,2024-06-25,株式会社ＥＶＥＲＹＯＵＲＳ,,株式会社,茨城県,ひたちなか市,表町３番３号アイザックビル３Ｆ,,08,221,3120047,,,,,,,2024-06-25,1,,,,,エバーユアーズ,0
638,3050001054995,新規,0,2024-06-25,2024-06-25,株式会社リザレク,,株式会社,茨城県,小美玉市,堅倉１６１０,,08,236,3190106,,,,,,,2024-06-25,1,,,,,リザレク,0
641,3060001037223,新規,0,2024-06-25,2024-06-25,株式会社小梅や,,株式会社,栃木県,那須塩原市,塩原３１６番地,,09,213,3292921,,,,,,,2024-06-25,1,,,,,コウメヤ,0
642,3060003005120,新規,0,2024-06-25,2024-06-25,合同会社ルクス,,合同会社,栃木県,宇都宮市,東浦町１０番地１ＣＹ栃木街道ビル１階,,09,201,3210167,,,,,,,2024-06-25,1,,,,,ルクス,0
653,3110001038505,新規,0,2024-06-25,2024-06-25,株式会社ＳＳＰ,,株式会社,新潟県,新潟市秋葉区,新町１丁目１０番３号ハイタウン’８８、２０３号,,15,105,9560862,,,,,,,2024-06-25,1,,,,,エスエスピー,0
658,3120001266162,新規,0,2024-06-25,2024-06-25,ＢＯＫＵＴＡＣＨＩ株式会社,,株式会社,大阪府,大阪市中央区,南船場３丁目２番２２号おおきに南船場ビル２０５,,27,128,5420081,,,,,,,2024-06-25,1,,,,,ボクタチ,0
659,3120001266212,新規,0,2024-06-25,2024-06-25,株式会社ＹＥＬＬＯＷ　ＹＡＷＮ,,株式会社,大阪府,大阪市淀川区,三津屋北２丁目１４番３０号,,27,123,5320032,,,,,,,2024-06-25,1,,,,,イエローヨーン,0
667,3120003026738,新規,0,2024-06-25,2024-06-25,ＭＶ合同会社,,合同会社,大阪府,大阪市住吉区,苅田２丁目１５－１０長居パークハイツ２０６,,27,120,5580011,,,,,,,2024-06-25,1,,,,,エムビー,0
668,3120003026853,新規,0,2024-06-25,2024-06-25,日本ベンチャー名鑑合同会社,,合同会社,大阪府,大阪市都島区,都島中通２丁目１５番７号,,27,102,5340022,,,,,,,2024-06-25,1,,,,,ニホンベンチャーメイカン,0
669,3120003026911,新規,0,2024-06-25,2024-06-25,合同会社ユニＯＮＥ,,合同会社,大阪府,大阪市西区,立売堀６丁目７番５０－１０１３号,,27,106,5500012,,,,,,,2024-06-25,1,,,,,ユニワン,0
680,3130001077352,新規,0,2024-06-25,2024-06-25,株式会社幸建,,株式会社,京都府,京都市右京区,梅津中村町１５番地３４,,26,108,6150916,,,,,,,2024-06-25,1,,,,,ユキケン,0
689,3140003020730,新規,0,2024-06-25,2024-06-25,ＴＶＰ合同会社,,合同会社,兵庫県,神戸市兵庫区,永沢町３丁目７番２４号永沢ハイツ４０１,,28,105,6520816,,,,,,,2024-06-25,1,,,,,ティーブイピー,0
698,3180001162042,新規,0,2024-06-25,2024-06-25,株式会社ＴＥＴＴＯ,,株式会社,愛知県,海部郡大治町,大字西條字佐渡９番地の６,,23,424,4901144,,,,,,,2024-06-25,1,,,,,テット,0
704,3180301038768,新規,0,2024-06-25,2024-06-25,株式会社タカハシ,,株式会社,愛知県,岡崎市,合歓木町字高橋６２番地,,23,202,4440232,,,,,,,2024-06-25,1,,,,,タカハシ,0
708,3200001042613,新規,0,2024-06-25,2024-06-25,株式会社白石開発,,株式会社,岐阜県,各務原市,大佐野町１丁目２８,,21,213,5040931,,,,,,,2024-06-25,1,,,,,ハクセキカイハツ,0
709,3200001042621,新規,0,2024-06-25,2024-06-25,株式会社ＬＥＡＤＥＲ　ＴＲＡＤＩＮＧ　ＣＯＭＰＡＮＹ,,株式会社,岐阜県,多治見市,市之倉町５丁目９５,,21,204,5070814,,,,,,,2024-06-25,1,,,,,リーダートレーディングカンパニー,0
712,3200003006401,新規,0,2024-06-25,2024-06-25,ｍａ‐ｓｏｒａ．ＭＨＲ合同会社,,合同会社,岐阜県,羽島市,下中町石田８３８番地１,,21,209,5016315,,,,,,,2024-06-25,1,,,,,マーソラエムエイチアール,0
714,3200005013635,新規,0,2024-06-25,2024-06-25,一般社団法人Ｒｅ‐Ｇ,,その他の設立登記法人,岐阜県,可児市,長坂１丁目１０４番地,,21,214,5090257,,,,,,,2024-06-25,1,,,,,リージー,0
721,3240001063416,新規,0,2024-06-25,2024-06-25,株式会社ＪＪＷ,,株式会社,広島県,広島市西区,横川町３丁目７番１４－１１０４号,,34,104,7330011,,,,,,,2024-06-25,1,,,,,ジェイジェイダブリュー,0
722,3240001063424,新規,0,2024-06-25,2024-06-25,株式会社せとうち協創パートナーズ,,株式会社,広島県,広島市東区,牛田南２丁目３－３４ＥａｓｔＷｏｏｄ牛田２０１,,34,102,7320064,,,,,,,2024-06-25,1,,,,,セトウチキョウソウパートナーズ,0
727,3260003004795,新規,0,2024-06-25,2024-06-25,合同会社スピカ,,合同会社,岡山県,井原市,上出部町４２３番地３,,33,207,7150021,,,,,,,2024-06-25,1,,,,,スピカ,0
732,3290003015476,新規,0,2024-06-25,2024-06-25,合同会社小城バイオガス発電所,,合同会社,福岡県,大野城市,御笠川２丁目１２番１号,,40,219,8160912,,,,,,,2024-06-25,1,,,,,オギバイオガスハツデンショ,0
745,3340005009751,新規,0,2024-06-25,2024-06-25,特定非営利活動法人２ＬＯＶＥ,,その他の設立登記法人,鹿児島県,姶良郡湧水町,木場３８０８番地４９,,46,452,8996201,,,,,,,2024-06-25,1,,,,,ツーラヴ,0
763,3410003003947,新規,0,2024-06-25,2024-06-25,合同会社かとう,,合同会社,秋田県,由利本荘市,石脇字竜巻４番地５１号,,05,210,0150011,,,,,,,2024-06-25,1,,,,,カトウ,0
773,3430003016476,新規,0,2024-06-25,2024-06-25,合同会社ＹＳ,,合同会社,北海道,北広島市,稲穂町東１丁目５番地１４,,01,234,0611125,,,,,,,2024-06-25,1,,,,,ワイエス,0
774,3430003016484,新規,0,2024-06-25,2024-06-25,ＶＩＳＴＡ合同会社,,合同会社,北海道,札幌市白石区,菊水元町一条１丁目４－１－３０３,,01,104,0030821,,,,,,,2024-06-25,1,,,,,ビスタ,0
775,3470001020261,新規,0,2024-06-25,2024-06-25,株式会社Ｌ‐ｓｉｚｅ,,株式会社,香川県,高松市,栗林町３丁目５番６－３０１号ロイヤルガーデン栗林町,,37,201,7600073,,,,,,,2024-06-25,1,,,,,エルサイズ,0
776,3480001012522,新規,0,2024-06-25,2024-06-25,徳島サステナブルエナジー株式会社,,株式会社,徳島県,徳島市,東新町２丁目１２番地,,36,201,7700912,,,,,,,2024-06-25,1,,,,,トクシマサステナブルエナジー,0
782,3700150126208,新規,0,2024-06-25,2024-06-25,Ｈｏｎｇ　Ｋｏｎｇ　Ｗｕｌｉｎ　Ｉｎｔｅｒｎａｔｉｏｎａｌ　Ｔｒａｄｅ　Ｃｏ．，Ｌｉｍｉｔｅｄ,,外国会社等,,,,,,,,１９／Ｆ，ＨＥＮＧ　ＳＨＡＮ　ＣＥＮＴＲＥ，１４１－１４５　ＱＵＥＥＮＳ　ＲＯＡＤ　ＥＡＳＴ，ＷＡＮ　ＣＨＡＩ，ＨＯＮＧ　ＫＯＮＧ,,,,,,2024-06-25,1,,,,,シャンガンフェイニースーグオジーマオイーヨウシエンゴンスー,0
790,4010001245993,新規,0,2024-06-25,2024-06-25,株式会社多京,,株式会社,東京都,中央区,銀座４丁目１３－８岩藤ビル５Ｆ,,13,102,1040061,,,,,,,2024-06-25,1,,,,,タキョウ,0
791,4010001246001,新規,0,2024-06-25,2024-06-25,Ｋｅｎｎｅｄｙ　Ｗｉｌｓｏｎ　Ｊａｐａｎ株式会社,,株式会社,東京都,千代田区,内幸町２丁目１番６号日比谷パークフロント,,13,101,1000011,,,,,,,2024-06-25,1,,,,,ケネディーウイルソンジャパン,0
792,4010001246018,新規,0,2024-06-25,2024-06-25,グロリア・チャン・グループ株式会社,,株式会社,東京都,中央区,築地６丁目５番５－８０５号,,13,102,1040045,,,,,,,2024-06-25,1,,,,,グロリアチャングループ,0
793,4010001246034,新規,0,2024-06-25,2024-06-25,Ａｌｖｅｓｔ　Ｅｑｕｉｐｍｅｎｔ　Ｓｅｒｖｉｃｅｓ　Ｊａｐａｎ株式会社,,株式会社,東京都,中央区,日本橋１丁目４番１号日本橋一丁目三井ビルディング７階,,13,102,1030027,,,,,,,2024-06-25,1,,,,,アルベストエクイップメントサービシーズジャパン,0
794,4010001246042,新規,0,2024-06-25,2024-06-25,株式会社ＳＧ,,株式会社,東京都,中央区,日本橋室町１丁目１１－１２日本橋水野ビル７階,,13,102,1030022,,,,,,,2024-06-25,1,,,,,エスジー,0
798,4010003044130,新規,0,2024-06-25,2024-06-25,合同会社ハルツキリンク,,合同会社,東京都,中央区,銀座１丁目１２番４号Ｎ＆ＥＢＬＤ．６Ｆ,,13,102,1040061,,,,,,,2024-06-25,1,,,,,ハルツキリンク,0
799,4010003044139,新規,0,2024-06-25,2024-06-25,合同会社ＨＦ,,合同会社,東京都,千代田区,神田佐久間町２丁目１８番地１秋葉原ＳＴＮフロント１０階,,13,101,1010025,,,,,,,2024-06-25,1,,,,,エイチエフ,0
800,4010003044147,新規,0,2024-06-25,2024-06-25,合同会社Ｒｉｐｐｌｅ,,合同会社,東京都,小笠原村,父島字北袋沢,,13,421,1002101,,,,,,,2024-06-25,1,,,,,リップル,0
802,4010005038452,新規,0,2024-06-25,2024-06-25,千葉ニュータウン２特定目的会社,,その他の設立登記法人,東京都,中央区,八重洲２丁目２番１号,,13,102,1040028,,,,,,,2024-06-25,1,,,,,チバニュータウンツー,0
803,4010101016196,新規,0,2024-06-25,2024-06-25,拓宏株式会社,,株式会社,東京都,八王子市,寺町４３－９,,13,201,1920073,,,,,,,2024-06-25,1,,,,,タクヒロ,0
804,4010103002376,新規,0,2024-06-25,2024-06-25,合同会社チェーンリンク,,合同会社,東京都,八王子市,松木２－２エフォート２、１０１号,,13,201,1920362,,,,,,,2024-06-25,1,,,,,,0
806,4010401183232,新規,0,2024-06-25,2024-06-25,株式会社明日プランニング,,株式会社,東京都,港区,浜松町１丁目１２番２号東武ハイライン大門４０１,,13,103,1050013,,,,,,,2024-06-25,1,,,,,アスプランニング,0
807,4010401183249,新規,0,2024-06-25,2024-06-25,集客支援機構株式会社,,株式会社,東京都,港区,南青山３丁目１番３６号青山丸竹ビル６Ｆ,,13,103,1070062,,,,,,,2024-06-25,1,,,,,,0
808,4010401183315,新規,0,2024-06-25,2024-06-25,株式会社ネーム,,株式会社,東京都,港区,虎ノ門１丁目１番２０号虎ノ門実業会館５階,,13,103,1050001,,,,,,,2024-06-25,1,,,,,ネーム,0
809,4010401183323,新規,0,2024-06-25,2024-06-25,株式会社辻信太郎記念館,00135281,株式会社,東京都,港区,芝大門２丁目５番１号アルテビル芝大門４階,,13,103,1050012,,,,,,,2024-06-25,1,,,,,ツジシンタロウキネンカン,0
816,4010403032874,新規,0,2024-06-25,2024-06-25,合同会社日本統合治療研究所,,合同会社,東京都,港区,南青山２丁目１１番１３号青山サクセスビル６Ｆ,,13,103,1070062,,,,,,,2024-06-25,1,,,,,ニホントウゴウチリョウケンキュウジョ,0
818,4010603010911,新規,0,2024-06-25,2024-06-25,合同会社結,,合同会社,東京都,江東区,東砂８丁目１７番４号,,13,108,1360074,,,,,,,2024-06-25,1,,,,,ユイ,0
829,4011001162865,新規,0,2024-06-25,2024-06-25,株式会社プロタゴ,,株式会社,東京都,渋谷区,桜丘町４番１４号ＶＯＲＴ渋谷桜丘ビル５Ｆ,,13,113,1500031,,,,,,,2024-06-25,1,,,,,プロタゴ,0
830,4011001162881,新規,0,2024-06-25,2024-06-25,株式会社フローメディア,,株式会社,東京都,渋谷区,恵比寿３丁目９番１８号恵比寿ガーデンビュー３０３,,13,113,1500013,,,,,,,2024-06-25,1,,,,,フローメディア,0
831,4011001162898,新規,0,2024-06-25,2024-06-25,株式会社ブリッジプロパティ,,株式会社,東京都,渋谷区,千駄ヶ谷５丁目２７番３号やまとビル８階,,13,113,1510051,,,,,,,2024-06-25,1,,,,,ブリッジプロパティ,0
832,4011001162907,新規,0,2024-06-25,2024-06-25,Ｍ‐Ｍａｎｙ株式会社,,株式会社,東京都,渋谷区,恵比寿３丁目１８番３号,,13,113,1500013,,,,,,,2024-06-25,1,,,,,エムメニー,0
833,4011001162948,新規,0,2024-06-25,2024-06-25,株式会社ハピング,,株式会社,東京都,渋谷区,恵比寿南３丁目７番５号,,13,113,1500022,,,,,,,2024-06-25,1,,,,,ハピング,0
834,4011001162956,新規,0,2024-06-25,2024-06-25,株式会社セカイチ,,株式会社,東京都,渋谷区,恵比寿西２丁目１４－７パークアクシス代官山８０３,,13,113,1500021,,,,,,,2024-06-25,1,,,,,,0
835,4011001162972,新規,0,2024-06-25,2024-06-25,株式会社プライムセンス,,株式会社,東京都,渋谷区,恵比寿西２丁目４－８ウインド恵比寿ビル８Ｆ,,13,113,1500021,,,,,,,2024-06-25,1,,,,,プライムセンス,0
837,4011003019452,新規,0,2024-06-25,2024-06-25,テックネットサポート合同会社,,合同会社,東京都,目黒区,碑文谷１丁目８番２号,,13,110,1520003,,,,,,,2024-06-25,1,,,,,テックネットサポート,0
841,4011101107811,新規,0,2024-06-25,2024-06-25,株式会社ＣＨＵＮＧＣＨＯＳＯＯ,,株式会社,東京都,新宿区,百人町２丁目２番３号ＴＲＮ新大久保ビル９階,,13,104,1690073,,,,,,,2024-06-25,1,,,,,チョンチョス,0
843,4011403004426,新規,0,2024-06-25,2024-06-25,太陽光発電設備運営合同会社,,合同会社,東京都,板橋区,中台３丁目２７番Ａ－１５１１,,13,119,1740064,,,,,,,2024-06-25,1,,,,,タイヨウコウハツデンセツビウンエイ,0
847,4011701027401,新規,0,2024-06-25,2024-06-25,株式会社グレスト,,株式会社,東京都,江戸川区,平井１丁目６番１２号,,13,123,1320035,,,,,,,2024-06-25,1,,,,,グレスト,0
850,4011801044420,新規,0,2024-06-25,2024-06-25,株式会社一山,,株式会社,東京都,葛飾区,新小岩１丁目３０－１０新吉本店ビル２階,,13,122,1240024,,,,,,,2024-06-25,1,,,,,イチサン,0
851,4011803006303,新規,0,2024-06-25,2024-06-25,ＮＡＳＵＹＡ合同会社,,合同会社,東京都,葛飾区,西亀有２丁目１８番５号ル・コンホル１０１号,,13,122,1240002,,,,,,,2024-06-25,1,,,,,ナスヤ,0
852,4012401042013,新規,0,2024-06-25,2024-06-25,株式会社大森技建,,株式会社,東京都,三鷹市,中原４丁目１０番１２号,,13,204,1810005,,,,,,,2024-06-25,1,,,,,オオモリギケン,0
853,4012403006635,新規,0,2024-06-25,2024-06-25,Ｔ‐コンサルティング合同会社,,合同会社,東京都,武蔵野市,吉祥寺南町３丁目６番１号,,13,203,1800003,,,,,,,2024-06-25,1,,,,,ティーコンサルティング,0
854,4012801023281,新規,0,2024-06-25,2024-06-25,株式会社Ｓｔａｕｎｃｈ　Ｕｎｉｔｙ,,株式会社,東京都,昭島市,緑町５丁目１３番２０号Ｋレジデンス１０１,,13,207,1960004,,,,,,,2024-06-25,1,,,,,スタンチユニティー,0
862,4020001157841,新規,0,2024-06-25,2024-06-25,株式会社ベーヤン,,株式会社,神奈川県,横浜市緑区,長津田町４４８２,,14,113,2260026,,,,,,,2024-06-25,1,,,,,ベーヤン,0
870,4021001082567,新規,0,2024-06-25,2024-06-25,株式会社ＳＴＡＲＩＵＭ,,株式会社,神奈川県,横須賀市,安浦町３丁目１４番地,,14,201,2380012,,,,,,,2024-06-25,1,,,,,スタリウム,0
872,4021003014675,新規,0,2024-06-25,2024-06-25,合同会社ＴＯＭＯＫＯ　ＮＩＥＬＳＥＮ,,合同会社,神奈川県,小田原市,小竹７２８－２８,,14,206,2560802,,,,,,,2024-06-25,1,,,,,トモコニールセン,0
883,4040001134203,新規,0,2024-06-25,2024-06-25,株式会社オハナココ,,株式会社,千葉県,市原市,馬立２９２２番地３,,12,219,2900221,,,,,,,2024-06-25,1,,,,,オハナココ,0
895,4050001054986,新規,0,2024-06-25,2024-06-25,株式会社ｂｅａｎｓ,,株式会社,茨城県,那珂郡東海村,大字亀下１６７番地,,08,341,3191104,,,,,,,2024-06-25,1,,,,,ビーンズ,0
905,4100001037597,新規,0,2024-06-25,2024-06-25,株式会社Ｏｗｌ,,株式会社,長野県,安曇野市,穂高有明４０５５番地２,,20,220,3998301,,,,,,,2024-06-25,1,,,,,オウル,0
916,4120001266087,新規,0,2024-06-25,2024-06-25,佳可株式会社,,株式会社,大阪府,大阪市浪速区,元町１丁目１０番６号８階,,27,111,5560016,,,,,,,2024-06-25,1,,,,,カカ,0
917,4120001266112,新規,0,2024-06-25,2024-06-25,株式会社ＢＣＵ,,株式会社,大阪府,大阪市天王寺区,上汐３丁目１－２３－２Ｆ,,27,109,5430002,,,,,,,2024-06-25,1,,,,,ビーシーユー,0
918,4120001266186,新規,0,2024-06-25,2024-06-25,ＢＯＯＴＥＣ株式会社,,株式会社,大阪府,大阪市中央区,谷町７丁目３番４－４０８号,,27,128,5420012,,,,,,,2024-06-25,1,,,,,ブーテック,0
921,4120003026852,新規,0,2024-06-25,2024-06-25,パーソナルジム比較ナビ合同会社,,合同会社,大阪府,大阪市都島区,都島中通２丁目１５番７号,,27,102,5340022,,,,,,,2024-06-25,1,,,,,パーソナルジムヒカクナビ,0
922,4120003026902,新規,0,2024-06-25,2024-06-25,大阪アテナ企業管理コンサルティング合資会社,,合資会社,大阪府,大阪市中央区,高津１丁目１０－１４－１Ｆ,,27,128,5420072,,,,,,,2024-06-25,1,,,,,オオサカアテナキギョウカンリコンサルティング,0
928,4120903005237,新規,0,2024-06-25,2024-06-25,合同会社田中日本史研究所,,合同会社,大阪府,三島郡島本町,桜井５丁目２７番２０号,,27,301,6180022,,,,,,,2024-06-25,1,,,,,タナカニホンシケンキュウショ,0
930,4122003002924,新規,0,2024-06-25,2024-06-25,合同会社あけ星,,合同会社,大阪府,四條畷市,南野６丁目４番５号,,27,229,5750021,,,,,,,2024-06-25,1,,,,,アケボシ,0
933,4130001077327,新規,0,2024-06-25,2024-06-25,京彩株式会社,,株式会社,京都府,京都市東山区,五条橋東６丁目５８３番地の１１６,,26,105,6050846,,,,,,,2024-06-25,1,,,,,キョウサイ,0
934,4130001077368,新規,0,2024-06-25,2024-06-25,ＳＨＩＳＨＩＤＡ株式会社,,株式会社,京都府,京都市下京区,下り松町１６７番地,,26,106,6008381,,,,,,,2024-06-25,1,,,,,シシダ,0
937,4130003009658,新規,0,2024-06-25,2024-06-25,合同会社Ｕｎｏ,,合同会社,京都府,京都市伏見区,深草薮之内町６－５尾崎方,,26,109,6120000,,,,,,,2024-06-25,1,,,,,ウーノ,0
939,4130005017122,新規,0,2024-06-25,2024-06-25,一般社団法人志村の染,,その他の設立登記法人,京都府,京都市右京区,嵯峨二尊院門前北中院町２番地６０,,26,108,6168428,,,,,,,2024-06-25,1,,,,,シムラノソメ,0
945,4140001134911,新規,0,2024-06-25,2024-06-25,尚弘株式会社,,株式会社,兵庫県,宝塚市,湯本町９番５－１３０３号,,28,214,6650003,,,,,,,2024-06-25,1,,,,,ナオヒロ,0
948,4150005009605,新規,0,2024-06-25,2024-06-25,Ｏｃｔａｇｏｎ　Ｃｏｎｓｕｌｔｉｎｇ社会保険労務士法人,,その他の設立登記法人,奈良県,生駒市,山崎新町２番１８－７０３号,,29,209,6300255,,,,,,,2024-06-25,1,,,,,オクタゴンコンサルティング,0
964,4180001162090,新規,0,2024-06-25,2024-06-25,星辰居株式会社,,株式会社,愛知県,名古屋市中区,錦２丁目１６番４号,,23,106,4600003,,,,,,,2024-06-25,1,,,,,セイシンキョ,0
968,4190001031443,新規,0,2024-06-25,2024-06-25,エコ・ワタル株式会社,,株式会社,三重県,津市,河芸町上野８５６番地,,24,201,5100304,,,,,,,2024-06-25,1,,,,,エコワタル,0
972,4210003001805,新規,0,2024-06-25,2024-06-25,ＳＴＲｉ合同会社,,合同会社,福井県,福井市,木田２丁目１３０１番地１,,18,201,9188105,,,,,,,2024-06-25,1,,,,,ストリ,0
984,4290001106284,新規,0,2024-06-25,2024-06-25,株式会社アスピシャス祐栄,,株式会社,福岡県,福岡市東区,香椎駅前２丁目５番１号,,40,131,8130013,,,,,,,2024-06-25,1,,,,,アスピシャスユウエイ,0
985,4290001106301,新規,0,2024-06-25,2024-06-25,株式会社長門建築設計事務所,,株式会社,福岡県,福岡市南区,平和１丁目２１番５５号ビラージュ浄水苑１棟１０２号,,40,134,8150071,,,,,,,2024-06-25,1,,,,,ナガトケンチクセッケイジムショ,0
988,4310001019079,新規,0,2024-06-25,2024-06-25,株式会社ＵＡ．Ｄｅｓｉｇｎｅｒ　Ｊａｐａｎ,,株式会社,長崎県,長崎市,花丘町３番２３号グランピア２　３０１号室,,42,201,8528153,,,,,,,2024-06-25,1,,,,,ユーエーデザイナージャパン,0
999,4360001033851,新規,0,2024-06-25,2024-06-25,株式会社琉球オンデマンド,,株式会社,沖縄県,沖縄市,山内２丁目８番１３号１階,,47,211,9040034,,,,,,,2024-06-25,1,,,,,リュウキュウオンデマンド,0
1001,4370003006656,新規,0,2024-06-25,2024-06-25,合同会社ｋａｕｒｉ,,合同会社,宮城県,仙台市青葉区,高松１丁目６番７－６０５号,,04,101,9810907,,,,,,,2024-06-25,1,,,,,カウリ,0
1016,4430001092106,新規,0,2024-06-25,2024-06-25,Ｗｏｎｄｅｒ　Ｄｒｉｌｌ株式会社,,株式会社,北海道,札幌市中央区,円山西町３丁目５番３６号,,01,101,0640944,,,,,,,2024-06-25,1,,,,,ワンダードリル,0
1020,4470001020260,新規,0,2024-06-25,2024-06-25,株式会社ｉｎｉｔｉａｌ　ｉｎｔｅｎｔｉｏｎ,,株式会社,香川県,高松市,瓦町１丁目１２番６号,,37,201,7600052,,,,,,,2024-06-25,1,,,,,イニシャルインテンション,0
1026,4700150126207,新規,0,2024-06-25,2024-06-25,Ｔｏｒａｉｓｈｉ　Ｈｏｌｄｉｎｇｓ　Ｌｉｍｉｔｅｄ,,外国会社等,,,,,,,,英領ヴァージン諸島トルトラ島ロードタウンウイックハムケイ２Ｖｉｓｔａ　Ｃｏｒｐｏｒａｔｅ　Ｓｅｒｖｉｃｅ　Ｃｅｎｔｒｅ,,,,,,2024-06-25,1,,,,,トライシホールデイングスリミテツド,0
1038,5010001245943,新規,0,2024-06-25,2024-06-25,株式会社ステップ,,株式会社,東京都,中央区,日本橋室町１丁目１１番１２号日本橋水野ビル７階,,13,102,1030022,,,,,,,2024-06-25,1,,,,,ステップ,0
1039,5010001245968,新規,0,2024-06-25,2024-06-25,株式会社ＳＰＯＯＢＡ,,株式会社,東京都,千代田区,神田須田町２丁目６番２号神田セントラルプラザ１００２,,13,101,1010041,,,,,,,2024-06-25,1,,,,,スプーバ,0
1040,5010001245976,新規,0,2024-06-25,2024-06-25,万緑株式会社,,株式会社,東京都,文京区,向丘１丁目１０－２－９０２,,13,105,1130023,,,,,,,2024-06-25,1,,,,,バンリョク,0
1041,5010001245992,新規,0,2024-06-25,2024-06-25,エターナルフレーム株式会社,,株式会社,東京都,千代田区,神田三崎町２丁目１０－１１Ｐｅｇビル３Ｂ－３,,13,101,1010061,,,,,,,2024-06-25,1,,,,,エターナルフレーム,0
1043,5010003044105,新規,0,2024-06-25,2024-06-25,合同会社海龍舎,,合同会社,東京都,中央区,銀座１丁目１２番４号Ｎ＆Ｅビル７階,,13,102,1040061,,,,,,,2024-06-25,1,,,,,カイリュウシャ,0
1045,5010005038451,新規,0,2024-06-25,2024-06-25,一般社団法人ＡＦＦＥＶ　Ｎａｍｂａ,,その他の設立登記法人,東京都,千代田区,丸の内３丁目１番１号東京共同会計事務所内,,13,101,1000005,,,,,,,2024-06-25,1,,,,,エーエフエフイーヴィーナンバ,0
1052,5010401183256,新規,0,2024-06-25,2024-06-25,株式会社瞠目社,,株式会社,東京都,港区,浜松町２丁目２番１５号浜松町ダイヤビル２Ｆ,,13,103,1050013,,,,,,,2024-06-25,1,,,,,,0
1054,5010501052476,新規,0,2024-06-25,2024-06-25,株式会社Ｃｏｕｒａｇｅ,,株式会社,東京都,台東区,浅草橋４丁目７番２号テトスパジオ９０２,,13,106,1110053,,,,,,,2024-06-25,1,,,,,クラージュ,0
1056,5010601065411,新規,0,2024-06-25,2024-06-25,ジーアロー株式会社,,株式会社,東京都,江東区,東陽３丁目２３番２６号東陽町コーポラス３Ｆ３９,,13,108,1350016,,,,,,,2024-06-25,1,,,,,ジーアロー,0
1065,5011001162922,新規,0,2024-06-25,2024-06-25,株式会社ｔｒｅｖｅｒ,,株式会社,東京都,渋谷区,恵比寿西２丁目４番８号ウィンド恵比寿ビル８階,,13,113,1500021,,,,,,,2024-06-25,1,,,,,トレバー,0
1066,5011001162930,新規,0,2024-06-25,2024-06-25,白洲商店株式会社,,株式会社,東京都,渋谷区,恵比寿４丁目２０番３号恵比寿ガーデンプレイスタワー２７階ＣＯＥＢＩ内,,13,113,1500013,,,,,,,2024-06-25,1,,,,,シラスショウテン,0
1067,5011001162947,新規,0,2024-06-25,2024-06-25,株式会社クラインラボ,,株式会社,東京都,渋谷区,神宮前６丁目２３番４号桑野ビル２階,,13,113,1500001,,,,,,,2024-06-25,1,,,,,クラインラボ,0
1068,5011001162955,新規,0,2024-06-25,2024-06-25,株式会社Ｅｖｅｒ　Ｆｕｔ,,株式会社,東京都,渋谷区,渋谷２丁目１９番地１５号宮益坂ビルディング６０９号室,,13,113,1500002,,,,,,,2024-06-25,1,,,,,エバーフット,0
1069,5011001162963,新規,0,2024-06-25,2024-06-25,株式会社ＥＬＳ,,株式会社,東京都,渋谷区,南平台町４番８号,,13,113,1500036,,,,,,,2024-06-25,1,,,,,イーエルエス,0
1070,5011001162971,新規,0,2024-06-25,2024-06-25,株式会社ｓｉｇｎｓ,,株式会社,東京都,目黒区,八雲５丁目１９番２１－２０５号,,13,110,1520023,,,,,,,2024-06-25,1,,,,,サイン,0
1072,5011003019336,新規,0,2024-06-25,2024-06-25,合同会社ｒｅａｎａｌｙｚｅ,,合同会社,東京都,渋谷区,神宮前６丁目２３番４号桑野ビル２階,,13,113,1500001,,,,,,,2024-06-25,1,,,,,リアナライズ,0
1073,5011003019443,新規,0,2024-06-25,2024-06-25,合同会社きつねさん,,合同会社,東京都,渋谷区,神宮前６丁目２３番４号桑野ビル２階,,13,113,1500001,,,,,,,2024-06-25,1,,,,,キツネサン,0
1082,5011501030835,新規,0,2024-06-25,2024-06-25,株式会社しおかわ,,株式会社,東京都,荒川区,南千住６丁目３７番２号,,13,118,1160003,,,,,,,2024-06-25,1,,,,,シオカワ,0
1085,5011601027847,新規,0,2024-06-25,2024-06-25,株式会社シティーホールディングス,,株式会社,東京都,練馬区,東大泉１丁目３７番１４号,,13,120,1780063,,,,,,,2024-06-25,1,,,,,シティーホールディングス,0
1087,5011701027409,新規,0,2024-06-25,2024-06-25,カネマツグローバル株式会社,,株式会社,東京都,江戸川区,西小岩４丁目５番２５号,,13,123,1330057,,,,,,,2024-06-25,1,,,,,カネマツグローバル,0
1088,5011703003886,新規,0,2024-06-25,2024-06-25,ＤＩＯＮ合同会社,,合同会社,東京都,江戸川区,西葛西６丁目９番１０号,,13,123,1340088,,,,,,,2024-06-25,1,,,,,,0
1096,5012403006634,新規,0,2024-06-25,2024-06-25,ニューロダイバーシティ合同会社,,合同会社,東京都,調布市,西つつじケ丘３丁目２６番７号アーバンフラッツＭＡ２０３,,13,208,1820006,,,,,,,2024-06-25,1,,,,,ニューロダイバーシティ,0
1104,5020001157840,新規,0,2024-06-25,2024-06-25,アンササプライチェーン株式会社,,株式会社,神奈川県,横浜市中区,尾上町４丁目５４番地－４Ｆ,,14,104,2310015,,,,,,,2024-06-25,1,,,,,アンササプライチェーン,0
1105,5020003026390,新規,0,2024-06-25,2024-06-25,Ｖｉｓｉｏｎ‐ＡＩ合同会社,,合同会社,神奈川県,横浜市南区,中島町１丁目１３－１０４,,14,105,2320055,,,,,,,2024-06-25,1,,,,,ヴィジョンエーアイ,0
1106,5020003026432,新規,0,2024-06-25,2024-06-25,合同会社みんなてって,,合同会社,神奈川県,横浜市青葉区,黒須田２７―９２,,14,117,2250022,,,,,,,2024-06-25,1,,,,,ミンナテッテ,0
1109,5021001082558,新規,0,2024-06-25,2024-06-25,株式会社Ｒｅｂｏｏｔ　ＳＴＡＮＤＡＲＤ,,株式会社,神奈川県,相模原市中央区,相生３丁目５番５号メゾン・ド・ＧＥＮ１０１号室,,14,152,2520235,,,,,,,2024-06-25,1,,,,,リブートスタンダード,0
1124,5040001134193,新規,0,2024-06-25,2024-06-25,株式会社結,,株式会社,千葉県,夷隅郡大多喜町,田代６５３番地,,12,441,2980274,,,,,,,2024-06-25,1,,,,,ムスビ,0
1126,5040003025242,新規,0,2024-06-25,2024-06-25,ハスナトレーディング合同会社,,合同会社,千葉県,柏市,十余二２９７－１３４市営住宅２－３２号,,12,217,2770872,,,,,,,2024-06-25,1,,,,,ハスナトレーディング,0
1131,5050001054960,新規,0,2024-06-25,2024-06-25,株式会社普潤明徳,,株式会社,茨城県,小美玉市,小川１５１５－３,,08,236,3113423,,,,,,,2024-06-25,1,,,,,フジュンメイトク,0
1132,5050001054985,新規,0,2024-06-25,2024-06-25,株式会社ＧＰ,,株式会社,茨城県,那珂郡東海村,舟石川駅西２丁目２番２５号,,08,341,3191116,,,,,,,2024-06-25,1,,,,,ジーピー,0
1138,5060003005127,新規,0,2024-06-25,2024-06-25,合同会社ワイティー工業,,合同会社,栃木県,那須塩原市,東原２１７番地３,,09,213,3250034,,,,,,,2024-06-25,1,,,,,ワイティーコウギョウ,0
1161,5120001266169,新規,0,2024-06-25,2024-06-25,株式会社ＲＵＢＩＣＯＮ,,株式会社,大阪府,大阪市大正区,平尾４丁目１７－３－１０７号室,,27,108,5510012,,,,,,,2024-06-25,1,,,,,ルビコン,0
1162,5120001266177,新規,0,2024-06-25,2024-06-25,行走的松果株式会社,,株式会社,大阪府,大阪市大正区,三軒家西３丁目４番１６号中山ビル１０５２,,27,108,5510001,,,,,,,2024-06-25,1,,,,,コウソウテキショウカ,0
1163,5120001266185,新規,0,2024-06-25,2024-06-25,株式会社ミースフリー,,株式会社,大阪府,大阪市北区,池田町１番２－５４２号,,27,127,5300033,,,,,,,2024-06-25,1,,,,,ミースフリー,0
1164,5120001266219,新規,0,2024-06-25,2024-06-25,ＪＳＦ株式会社,,株式会社,大阪府,大阪市中央区,南船場３丁目２番２２号おおきに南船場ビル２０５,,27,128,5420081,,,,,,,2024-06-25,1,,,,,ジェイエスエフ,0
1168,5120003026851,新規,0,2024-06-25,2024-06-25,結婚相談所おすすめナビ合同会社,,合同会社,大阪府,大阪市都島区,都島中通２丁目１５番７号,,27,102,5340022,,,,,,,2024-06-25,1,,,,,ケッコンソウダンショオススメナビ,0
1169,5120003026926,新規,0,2024-06-25,2024-06-25,合同会社ウェイアップストーンズ,,合同会社,大阪府,大阪市北区,梅田１丁目１‐３大阪駅前第３ビル２９階１‐１‐１号室,,27,127,5300001,,,,,,,2024-06-25,1,,,,,ウェイアップストーンズ,0
1170,5120003026934,新規,0,2024-06-25,2024-06-25,合同会社白夜月,,合同会社,大阪府,大阪市北区,大深町３－４０－２５０６,,27,127,5300011,,,,,,,2024-06-25,1,,,,,ハクヤヅキ,0
1178,5130001077359,新規,0,2024-06-25,2024-06-25,株式会社エボックファーベン,,株式会社,京都府,乙訓郡大山崎町,字下植野小字代理分１番地１エクセル山崎１Ｆ,,26,303,6180081,,,,,,,2024-06-25,1,,,,,エボックファーベン,0
1181,5130005017121,新規,0,2024-06-25,2024-06-25,一般社団法人子育て支援あいいろ,,その他の設立登記法人,京都府,乙訓郡大山崎町,字大山崎小字藤井畑８－１,,26,303,6180071,,,,,,,2024-06-25,1,,,,,コソダテシエンアイイロ,0
1188,5140001134910,新規,0,2024-06-25,2024-06-25,株式会社ＲＮＳ,,株式会社,兵庫県,神戸市東灘区,西岡本３丁目１９番１－３０１号,,28,101,6580073,,,,,,,2024-06-25,1,,,,,アールエヌエス,0
1193,5140003020737,新規,0,2024-06-25,2024-06-25,合同会社福永総合,,合同会社,兵庫県,神戸市中央区,雲井通２丁目４番１３号,,28,110,6510096,,,,,,,2024-06-25,1,,,,,フクナガソウゴウ,0
1210,5190001031434,新規,0,2024-06-25,2024-06-25,ＯＲＯ株式会社,,株式会社,三重県,四日市市,伊坂台１丁目２０４番地,,24,202,5128066,,,,,,,2024-06-25,1,,,,,オロ,0
1212,5200001042628,新規,0,2024-06-25,2024-06-25,株式会社キタカワ,,株式会社,岐阜県,岐阜市,加納天神町４丁目３９番地プラセシオン加納天神１２０５号室,,21,201,5008473,,,,,,,2024-06-25,1,,,,,キタカワ,0
1215,5200003006399,新規,0,2024-06-25,2024-06-25,合名会社遠野制作舎,,合名会社,岐阜県,岐阜市,御杉町２６,,21,201,5008079,,,,,,,2024-06-25,1,,,,,トオノセイサクシャ,0
1216,5210001019798,新規,0,2024-06-25,2024-06-25,株式会社山元眼鏡商会,,株式会社,福井県,福井市,上毘沙門町第１号１０７番地７,,18,201,9102144,,,,,,,2024-06-25,1,,,,,ヤマモトガンキョウショウカイ,0
1226,5290001106250,新規,0,2024-06-25,2024-06-25,ＴＩＫ株式会社,,株式会社,福岡県,福岡市中央区,薬院３丁目１１番３２－１００２号ジートラスト薬院,,40,133,8100022,,,,,,,2024-06-25,1,,,,,ティーアイケイ,0
1227,5290001106267,新規,0,2024-06-25,2024-06-25,株式会社ＭａｉＳｈｉｎ,,株式会社,福岡県,糸島市,二丈吉井４０２６－６,,40,230,8191641,,,,,,,2024-06-25,1,,,,,マイシン,0
1228,5290001106275,新規,0,2024-06-25,2024-06-25,株式会社よしい商会,,株式会社,福岡県,福岡市中央区,平尾浄水町１番１５号,,40,133,8100029,,,,,,,2024-06-25,1,,,,,ヨシイショウカイ,0
1230,5290003015490,新規,0,2024-06-25,2024-06-25,Ｅｘｓｅｅｄｅｒ合同会社,,合同会社,福岡県,福岡市博多区,博多駅前１丁目２３番２号ＰａｒｋＦｒｏｎｔ博多駅前１丁目５Ｆ－Ｂ,,40,132,8120011,,,,,,,2024-06-25,1,,,,,エクシーダー,0
1260,5430003016482,新規,0,2024-06-25,2024-06-25,合同会社ＬＵＣＫＹ,,合同会社,北海道,札幌市中央区,大通西２２丁目１番２５－６０１号,,01,101,0640820,,,,,,,2024-06-25,1,,,,,ラッキー,0
1265,5470003002669,新規,0,2024-06-25,2024-06-25,合同会社まなび,,合同会社,香川県,高松市,松縄町１０１９番地７,,37,201,7600079,,,,,,,2024-06-25,1,,,,,マナビ,0
1285,6010001245521,新規,0,2024-06-25,2024-06-25,Ｚｅｙｏｎｄ株式会社,,株式会社,東京都,中央区,銀座１丁目２２－１２藤和銀座一丁目ビル８階,,13,102,1040061,,,,,,,2024-06-25,1,,,,,ジヨンド,0
1286,6010001245884,新規,0,2024-06-25,2024-06-25,株式会社レイズインターナショナル,,株式会社,東京都,中央区,銀座７丁目３番１３号ニュー銀座ビル８０３,,13,102,1040061,,,,,,,2024-06-25,1,,,,,レイズインターナショナル,0
1287,6010001245942,新規,0,2024-06-25,2024-06-25,株式会社Ｂｅ　Ｈａｎｄｓ,,株式会社,東京都,中央区,日本橋室町１丁目１１番１２号日本橋水野ビル７階,,13,102,1030022,,,,,,,2024-06-25,1,,,,,ビーハンズ,0
1288,6010001245991,新規,0,2024-06-25,2024-06-25,株式会社Ｂｕｒｎｉｎｇ　Ｌｉｆｅ,,株式会社,東京都,千代田区,外神田６丁目１５番４号ＭＡＳＵｎｏＳＱＵＡＲＥ・ＡＫＩＨＡＢＡＲＡ２階・Ａｉｒ－Ｅｒａ,,13,101,1010021,,,,,,,2024-06-25,1,,,,,バーニングライフ,0
1290,6010003044137,新規,0,2024-06-25,2024-06-25,合同会社ＲＯＯＴ　ｐｒｏｊｅｃｔ,,合同会社,東京都,千代田区,神田和泉町１番地６－１６ヤマトビル４０５,,13,101,1010024,,,,,,,2024-06-25,1,,,,,ルートプロジェクト,0
1299,6010401183263,新規,0,2024-06-25,2024-06-25,株式会社ギブギフト,,株式会社,東京都,港区,元麻布１丁目２番２３－２０９号,,13,103,1060046,,,,,,,2024-06-25,1,,,,,ギブギフト,0
1304,6010403032880,新規,0,2024-06-25,2024-06-25,ｃｍｏ．ｒｅｄ合同会社,,合同会社,東京都,港区,赤坂４丁目６番７号,,13,103,1070052,,,,,,,2024-06-25,1,,,,,シーエムオードットレッド,0
1305,6010403032897,新規,0,2024-06-25,2024-06-25,合同会社Ｔａｌｌｙ’ｓ　ｓｅｌｅｃｔ,,合同会社,東京都,港区,西麻布２丁目２４番２２－１０７号,,13,103,1060031,,,,,,,2024-06-25,1,,,,,タリーズセレクト,0
1309,6010503007493,新規,0,2024-06-25,2024-06-25,合同会社シノトランス,,合同会社,東京都,台東区,花川戸１丁目７番５号４０５,,13,106,1110033,,,,,,,2024-06-25,1,,,,,シノトランス,0
1315,6010601065419,新規,0,2024-06-25,2024-06-25,Ａｇｏｒａ‐ｗｏｒｋｓ株式会社,,株式会社,東京都,墨田区,錦糸１丁目２番１号,,13,107,1300013,,,,,,,2024-06-25,1,,,,,アゴラワークス,0
1317,6010603010918,新規,0,2024-06-25,2024-06-25,明石合同会社,,合同会社,東京都,江東区,南砂７丁目４番９－８０２号,,13,108,1360076,,,,,,,2024-06-25,1,,,,,アカシ,0
1320,6010701046178,新規,0,2024-06-25,2024-06-25,株式会社Ｓｐｅｃｉａｌ　ｏｎｅ,,株式会社,東京都,品川区,小山４丁目１０－４浜ビル３０１,,13,109,1420062,,,,,,,2024-06-25,1,,,,,スペシャルワン,0
1326,6011001162905,新規,0,2024-06-25,2024-06-25,株式会社ＣＩＲＣＬＥ,,株式会社,東京都,渋谷区,恵比寿４丁目１１番１４号メゾン慶３１２,,13,113,1500013,,,,,,,2024-06-25,1,,,,,サークル,0
1327,6011001162938,新規,0,2024-06-25,2024-06-25,株式会社アルファ,,株式会社,東京都,渋谷区,道玄坂１丁目１０番８号渋谷道玄坂東急ビル２Ｆ－Ｃ,,13,113,1500043,,,,,,,2024-06-25,1,,,,,アルファ,0
1328,6011001162954,新規,0,2024-06-25,2024-06-25,株式会社ＰａｇｅＴｕｒｎ,,株式会社,東京都,渋谷区,円山町２２番１２号,,13,113,1500044,,,,,,,2024-06-25,1,,,,,ページターン,0
1329,6011001162970,新規,0,2024-06-25,2024-06-25,Ｄｅｌｖｅ株式会社,,株式会社,東京都,渋谷区,道玄坂１丁目１０番８号渋谷道玄坂東急ビル２Ｆ－Ｃ,,13,113,1500043,,,,,,,2024-06-25,1,,,,,デルブ,0
1330,6011003019450,新規,0,2024-06-25,2024-06-25,合同会社ＦＵＮＤＡ．,,合同会社,東京都,渋谷区,恵比寿西２丁目８番４号ＥＸ恵比寿西ビル５階,,13,113,1500021,,,,,,,2024-06-25,1,,,,,ファンダ,0
1331,6011003019459,新規,0,2024-06-25,2024-06-25,合同会社ロングリッジ,,合同会社,東京都,渋谷区,神泉町１０番１５号アネックス神泉３０１,,13,113,1500045,,,,,,,2024-06-25,1,,,,,ロングリッジ,0
1334,6011103014574,新規,0,2024-06-25,2024-06-25,合同会社ペットラーレ,,合同会社,東京都,新宿区,西新宿３丁目３番１３号西新宿水間ビル６階,,13,104,1600023,,,,,,,2024-06-25,1,,,,,ペットラーレ,0
1335,6011103014599,新規,0,2024-06-25,2024-06-25,合同会社ＴＵ３３,,合同会社,東京都,新宿区,四谷２丁目９番地１５東京ユナイテッド綜合事務所内,,13,104,1600004,,,,,,,2024-06-25,1,,,,,ティーユーサンジュウサン,0
1340,6011203004335,新規,0,2024-06-25,2024-06-25,合同会社ＳＮＳ広告,,合同会社,東京都,中野区,中央１丁目３８‐１アクロスシティ中野坂上ハイツ２３０３,,13,114,1640011,,,,,,,2024-06-25,1,,,,,エスエヌエスコウコク,0
1345,6011401026214,新規,0,2024-06-25,2024-06-25,株式会社ＭＡＰＬＥ,,株式会社,東京都,板橋区,熊野町３４番９－９０２号,,13,119,1730025,,,,,,,2024-06-25,1,,,,,メイプル,0
1346,6011501030850,新規,0,2024-06-25,2024-06-25,学誠教育学院株式会社,,株式会社,東京都,北区,滝野川３丁目６０番４号藤井ビル,,13,117,1140023,,,,,,,2024-06-25,1,,,,,ガクセイキョウイクガクイン,0
1349,6011801044435,新規,0,2024-06-25,2024-06-25,株式会社ＲＴＹカンパニー,,株式会社,東京都,葛飾区,東新小岩４丁目１９番８号,,13,122,1240023,,,,,,,2024-06-25,1,,,,,アールティワイカンパニー,0
1359,6020001157930,新規,0,2024-06-25,2024-06-25,株式会社ＴｏｗｅｓＴ,,株式会社,神奈川県,横浜市磯子区,森２丁目１４－２小川ビル１階,,14,107,2350023,,,,,,,2024-06-25,1,,,,,タワーズティー,0
1367,6030001161023,新規,0,2024-06-25,2024-06-25,博芸宏通株式会社,,株式会社,埼玉県,新座市,栗原６丁目１１－１２ビッグ武蔵野ひばりが丘１０７号室,,11,230,3520035,,,,,,,2024-06-25,1,,,,,ハクゲイヒロツウ,0
1368,6030001161031,新規,0,2024-06-25,2024-06-25,株式会社Ｍａｒｓｈ,,株式会社,埼玉県,春日部市,増戸３６６番地,,11,214,3440042,,,,,,,2024-06-25,1,,,,,マーシュ,0
1369,6030001161089,新規,0,2024-06-25,2024-06-25,関東ミタカ株式会社,,株式会社,埼玉県,さいたま市北区,吉野町１丁目２番地２,,11,102,3310811,,,,,,,2024-06-25,1,,,,,カントウミタカ,0
1377,6040001134176,新規,0,2024-06-25,2024-06-25,株式会社ＭＩＹＡＫＯ,,株式会社,千葉県,千葉市稲毛区,稲毛東３丁目４番１５号吉田ビル３Ｆ,00135280,12,103,2630031,,,,,,,2024-06-25,1,,,,,ミヤコ,0
1378,6040001134184,新規,0,2024-06-25,2024-06-25,株式会社Ｐｅｔｉｔ,,株式会社,千葉県,千葉市中央区,浜野町１０６８番地,,12,101,2600824,,,,,,,2024-06-25,1,,,,,プティ,0
1379,6040001134192,新規,0,2024-06-25,2024-06-25,株式会社ＮＯＥＬＡＭＯＵＲ,,株式会社,千葉県,市川市,島尻１番４４－８０９号,,12,203,2720145,,,,,,,2024-06-25,1,,,,,ノエルアムル,0
1380,6040001134201,新規,0,2024-06-25,2024-06-25,株式会社宇宙,,株式会社,千葉県,市川市,八幡２丁目９－１５ブロッサムフォーラム市川Ｃ－４９,,12,203,2720021,,,,,,,2024-06-25,1,,,,,ソラ,0
1408,6120001266176,新規,0,2024-06-25,2024-06-25,陶陶株式会社,,株式会社,大阪府,大阪市城東区,関目５丁目１９番９号関目花博公館５１４Ａ,,27,118,5360008,,,,,,,2024-06-25,1,,,,,トウトウ,0
1409,6120001266234,新規,0,2024-06-25,2024-06-25,株式会社ＴＲＲＧ,,株式会社,大阪府,大阪市都島区,友渕町１丁目２番１号－１２０６号室,,27,102,5340016,,,,,,,2024-06-25,1,,,,,ティーアールアールジー,0
1412,6120003026909,新規,0,2024-06-25,2024-06-25,合同会社ＫＵＲＯＫＯ出版,,合同会社,大阪府,大阪市北区,西天満１丁目１０番１６号ＫＳビル別館２階,,27,127,5300047,,,,,,,2024-06-25,1,,,,,クロコシュッパン,0
1413,6120003026933,新規,0,2024-06-25,2024-06-25,合同会社まっち,,合同会社,大阪府,大阪市北区,黒崎町４－１１－２Ｆ,,27,127,5300023,,,,,,,2024-06-25,1,,,,,マッチ,0
1420,6122003002922,新規,0,2024-06-25,2024-06-25,トータルサポート合同会社,,合同会社,大阪府,東大阪市,中石切町３丁目１０番２２－２０５号,,27,227,5798014,,,,,,,2024-06-25,1,,,,,トータルサポート,0
1422,6130001077333,新規,0,2024-06-25,2024-06-25,株式会社浜の路,,株式会社,京都府,京丹後市,久美浜町湊宮１７９５番地,,26,212,6293422,,,,,,,2024-06-25,1,,,,,ハマノジ,0
1428,6140001134892,新規,0,2024-06-25,2024-06-25,成創株式会社,,株式会社,兵庫県,川西市,栄町１１－２パルティＫ２北館１１８,,28,217,6660033,,,,,,,2024-06-25,1,,,,,ナリソウ,0
1430,6140005027110,新規,0,2024-06-25,2024-06-25,一般社団法人国際エイジレス美容協会,,その他の設立登記法人,兵庫県,加古川市,別府町別府６４７番地,,28,210,6750122,,,,,,,2024-06-25,1,,,,,エイジレスビヨウキョウカイ,0
1433,6150001027369,新規,0,2024-06-25,2024-06-25,株式会社こつぶリビルド工房,,株式会社,奈良県,香芝市,北今市１丁目９９番地１８,,29,210,6390242,,,,,,,2024-06-25,1,,,,,コツブリビルドコウボウ,0
1434,6150003003293,新規,0,2024-06-25,2024-06-25,オープンエンドラボ合同会社,,合同会社,奈良県,生駒市,緑ケ丘２２６４－４ＯＥＬスタジオ,,29,209,6300262,,,,,,,2024-06-25,1,,,,,オープンエンドラボ,0
1435,6150005009603,新規,0,2024-06-25,2024-06-25,十津川木工協同組合,,その他の設立登記法人,奈良県,吉野郡十津川村,大字山崎２７８番地,,29,449,6371214,,,,,,,2024-06-25,1,,,,,トツカワモッコウ,0
1453,6200001042627,新規,0,2024-06-25,2024-06-25,株式会社エイチアールケー,,株式会社,岐阜県,岐阜市,木田１丁目２１９番地５,,21,201,5011135,,,,,,,2024-06-25,1,,,,,エイチアールケー,0
1454,6200003006398,新規,0,2024-06-25,2024-06-25,Ａｘｉｓ　Ｆｏｒｃｅ合同会社,,合同会社,岐阜県,岐阜市,五反田町１０番地オフィスＫＯ‐ＫＥＮ２１０‐,,21,201,5008328,,,,,,,2024-06-25,1,,,,,アクシスフォース,0
1466,6250001020702,新規,0,2024-06-25,2024-06-25,Ｂｅｙｏｎｄ　ｔｈｅ　Ｂｌｕｅ株式会社,,株式会社,山口県,長門市,油谷川尻２番,,35,211,7594621,,,,,,,2024-06-25,1,,,,,ビヨンドザブルー,0
1468,6270005005598,新規,0,2024-06-25,2024-06-25,一般社団法人つながる輪,,その他の設立登記法人,鳥取県,鳥取市,船木１６２番地,,31,201,6891122,,,,,,,2024-06-25,1,,,,,ツナガルワ,0
1485,6330001032193,新規,0,2024-06-25,2024-06-25,株式会社トータルメンテナンス,,株式会社,熊本県,熊本市東区,長嶺東５丁目２番２５号,,43,102,8618038,,,,,,,2024-06-25,1,,,,,トータルメンテナンス,0
1497,6370001051462,新規,0,2024-06-25,2024-06-25,株式会社Ｔｒｕｎｋ,,株式会社,宮城県,仙台市太白区,長町６丁目１３番２号フリシャー仙台ビル１０３号,,04,104,9820011,,,,,,,2024-06-25,1,,,,,トランク,0
1503,6400003003292,新規,0,2024-06-25,2024-06-25,合同会社Ｌｅａｐ,,合同会社,岩手県,上閉伊郡大槌町,本町４番２０号,,03,461,0281116,,,,,,,2024-06-25,1,,,,,リープ,0
1512,6430001092104,新規,0,2024-06-25,2024-06-25,株式会社ＤＲＥＥＸＹ,,株式会社,北海道,札幌市西区,琴似二条５丁目２番１６－４０１号,,01,107,0630812,,,,,,,2024-06-25,1,,,,,ドリクシー,0
1513,6430003016432,新規,0,2024-06-25,2024-06-25,合同会社大井建設,,合同会社,北海道,札幌市清田区,北野二条１丁目１１番２０号,,01,110,0040862,,,,,,,2024-06-25,1,,,,,オオイケンセツ,0
1518,6490001010803,新規,0,2024-06-25,2024-06-25,ＳＯＴＡＮＩ株式会社,,株式会社,高知県,吾川郡いの町,波川１９４５番地３セジュール柿の木ＩＩ２０１,00135279,39,386,7812128,,,,,,,2024-06-25,1,,,,,ソタニ,0
1520,6500001025717,新規,0,2024-06-25,2024-06-25,株式会社代々橙,,株式会社,愛媛県,八幡浜市,八代４４８番地８,,38,204,7968007,,,,,,,2024-06-25,1,,,,,ダイダイ,0
1524,6700150061591,新規,0,2024-06-25,2015-10-09,長崎県町村議会議長会,,その他,長崎県,長崎市,栄町４－９,,42,201,8500875,,,,,,,2015-10-09,1,,,,,ナガサキケンチヨウソンギカイギチヨウカイ,0
1525,6700150113962,新規,0,2024-06-25,2023-01-27,阿波おどり未来へつなぐ実行委員会,,その他,徳島県,徳島市,元町１丁目２４番地,,36,201,7700834,,,,,,,2023-01-27,1,,,,,アワオドリミライヘツナグジツコウイインカイ,0
1529,7010001245578,新規,0,2024-06-25,2024-06-25,Ｚｅｎ　Ｒｅａｌｔｙ株式会社,,株式会社,東京都,千代田区,外神田６丁目９番７号－２Ｆ,,13,101,1010021,,,,,,,2024-06-25,1,,,,,ゼンリアルティ,0
1530,7010001245974,新規,0,2024-06-25,2024-06-25,シックスアユダ株式会社,,株式会社,東京都,中央区,日本橋室町１丁目１１番１２号日本橋水野ビル７Ｆ,,13,102,1030022,,,,,,,2024-06-25,1,,,,,シックスアユダ,0
1531,7010003044103,新規,0,2024-06-25,2024-06-25,合同会社ＳＵＺＵ,,合同会社,東京都,中央区,日本橋室町１丁目１１番１２号日本橋水野ビル７階,,13,102,1030022,,,,,,,2024-06-25,1,,,,,スズ,0
1535,7010401183279,新規,0,2024-06-25,2024-06-25,株式会社Ａｔｔｅ,,株式会社,東京都,港区,六本木３丁目１６番１２号５Ｆ,,13,103,1060032,,,,,,,2024-06-25,1,,,,,アッテ,0
1536,7010401183353,新規,0,2024-06-25,2024-06-25,ＭＣＰ２７株式会社,,株式会社,東京都,港区,元赤坂１丁目１番８号株式会社赤坂国際会計内,,13,103,1070051,,,,,,,2024-06-25,1,,,,,エムシーピーツーセブン,0
1538,7010405023340,新規,0,2024-06-25,2024-06-25,一般社団法人ＮＫＹ生きがい振興会,,その他の設立登記法人,東京都,港区,芝大門１丁目３番９号芝大門第一ビル２Ｆ,,13,103,1050012,,,,,,,2024-06-25,1,,,,,エヌケーワイイキガイシンコウカイ,0
1543,7010603010909,新規,0,2024-06-25,2024-06-25,Ｓｕｒｖｅｙ　Ｒｅｐｏｒｔｓ合同会社,,合同会社,東京都,江東区,有明３丁目７番２６号有明フロンティアビルＢ棟９階,,13,108,1350063,,,,,,,2024-06-25,1,,,,,サーベイリポーツ,0
1544,7010701046169,新規,0,2024-06-25,2024-06-25,株式会社メドコン,,株式会社,東京都,品川区,西品川１丁目２９番１２号ＣＳＲ品川,,13,109,1410033,,,,,,,2024-06-25,1,,,,,メドコン,0
1550,7011001162887,新規,0,2024-06-25,2024-06-25,株式会社日本和菓子海外普及協会,,株式会社,東京都,目黒区,目黒１丁目３番１６プレジデント目黒ハイツ３０３号,,13,110,1530063,,,,,,,2024-06-25,1,,,,,ニホンワガシカイガイフキュウキョウカイ,0
1551,7011001162895,新規,0,2024-06-25,2024-06-25,ＤＦエステート株式会社,,株式会社,東京都,渋谷区,代々木２丁目２３－１ニューステイトメナー１２６１号室,,13,113,1510053,,,,,,,2024-06-25,1,,,,,ディーエフエステート,0
1552,7011001162904,新規,0,2024-06-25,2024-06-25,株式会社ＩＴＮ,,株式会社,東京都,渋谷区,千駄ヶ谷１丁目５番４号,,13,113,1510051,,,,,,,2024-06-25,1,,,,,アイティーエヌ,0
1553,7011001162920,新規,0,2024-06-25,2024-06-25,株式会社ＣＯ‐ＭＯＵＮＴ,,株式会社,東京都,渋谷区,神宮前６丁目１８番１号クレインズパークビル５階,,13,113,1500001,,,,,,,2024-06-25,1,,,,,コーマウント,0
1554,7011001162929,新規,0,2024-06-25,2024-06-25,株式会社Ｈａｎｘ２,,株式会社,東京都,渋谷区,渋谷２丁目２番３号ルカビルＩＩ４階,00135278,13,113,1500002,,,,,,,2024-06-25,1,,,,,ハンクストゥ,0
1555,7011001162945,新規,0,2024-06-25,2024-06-25,ｐｏｐｏ株式会社,,株式会社,東京都,目黒区,東が丘１丁目３－７,,13,110,1520021,,,,,,,2024-06-25,1,,,,,ポポ,0
1562,7011103014598,新規,0,2024-06-25,2024-06-25,合同会社ＴＵ３２,,合同会社,東京都,新宿区,四谷２丁目９番地１５東京ユナイテッド綜合事務所内,,13,104,1600004,,,,,,,2024-06-25,1,,,,,ティーユーサンジュウニ,0
1566,7011303005190,新規,0,2024-06-25,2024-06-25,合同会社ルビーストリームス,,合同会社,東京都,杉並区,成田東３丁目１７番１９号,,13,115,1660015,,,,,,,2024-06-25,1,,,,,,0
1572,7011703003876,新規,0,2024-06-25,2024-06-25,ＮＥＸＴ　ＷＩＮＤ合同会社,,合同会社,東京都,江戸川区,西葛西７丁目２４番７ー４０５号,,13,123,1340088,,,,,,,2024-06-25,1,,,,,ネクストウインド,0
1578,7012403006632,新規,0,2024-06-25,2024-06-25,合同会社Ｊａｐａｎ　Ｉｎｓｉｄｅｒ,,合同会社,東京都,狛江市,和泉本町１丁目１２番１号豊栄狛江マンション１０６号室,,13,219,2010003,,,,,,,2024-06-25,1,,,,,ジャパンインサイダー,0
1580,7012801023279,新規,0,2024-06-25,2024-06-25,株式会社リーフ,,株式会社,東京都,国分寺市,西恋ヶ窪４丁目２番地１５,,13,214,1850013,,,,,,,2024-06-25,1,,,,,リーフ,0
1581,7013101009448,新規,0,2024-06-25,2024-06-25,株式会社ヨシダ工業,,株式会社,東京都,西多摩郡瑞穂町,大字石畑１７３番地１２,,13,303,1901211,,,,,,,2024-06-25,1,,,,,,0
1591,7020001157847,新規,0,2024-06-25,2024-06-25,株式会社ＡＬＫ,,株式会社,神奈川県,川崎市川崎区,藤崎１丁目１８番３号,,14,131,2100804,,,,,,,2024-06-25,1,,,,,エーエルケー,0
1592,7020001157962,新規,0,2024-06-25,2024-06-25,株式会社テルミナ,,株式会社,神奈川県,横浜市西区,戸部町４丁目１６６ソレイユ高島町２０２,,14,103,2200042,,,,,,,2024-06-25,1,,,,,テルミナ,0
1600,7020005016462,新規,0,2024-06-25,2024-06-25,ＮＰＯ法人障がい者給与補助機構,,その他の設立登記法人,神奈川県,横浜市中区,相生町２丁目５２番地泰生ポーチ３０２,,14,104,2310012,,,,,,,2024-06-25,1,,,,,ショウガイシャキュウヨホジョキコウ,0
1606,7030001161063,新規,0,2024-06-25,2024-06-25,株式会社ＡＲＳ,,株式会社,埼玉県,川口市,戸塚１丁目９番３５号グランディール２０２号,,11,203,3330811,,,,,,,2024-06-25,1,,,,,アルス,0
1607,7030001161105,新規,0,2024-06-25,2024-06-25,株式会社ａｄｄ　ｍｉｒａｉ,,株式会社,埼玉県,さいたま市桜区,南元宿１丁目１５番２３号,,11,106,3380831,,,,,,,2024-06-25,1,,,,,アドミライ,0
1617,7040001134200,新規,0,2024-06-25,2024-06-25,株式会社ｐｉｔｂｕｌｌ,,株式会社,千葉県,習志野市,藤崎５丁目１４番１９号,,12,216,2750017,,,,,,,2024-06-25,1,,,,,ピットブル,0
1618,7040001134209,新規,0,2024-06-25,2024-06-25,株式会社ＴＡＯ,,株式会社,千葉県,銚子市,上野町１１９番地の２８,,12,202,2880805,,,,,,,2024-06-25,1,,,,,タオ,0
1624,7050003008475,新規,0,2024-06-25,2024-06-25,合同会社榎戸工業,,合同会社,茨城県,土浦市,荒川沖東２丁目１１－１３,,08,203,3000871,,,,,,,2024-06-25,1,,,,,エノキドコウギョウ,0
1631,7070005010295,新規,0,2024-06-25,2024-06-25,一般社団法人グローバルテニスプロジェクト,,その他の設立登記法人,群馬県,太田市,新田木崎町１２番地１４,,10,205,3700321,,,,,,,2024-06-25,1,,,,,グローバルテニスプロジェクト,0
1635,7080401027272,新規,0,2024-06-25,2024-06-25,株式会社ｄａｗｎ,,株式会社,静岡県,浜松市中央区,松城町２１０番地の１０バンベール松城町４０２号,,22,138,4300947,,,,,,,2024-06-25,1,,,,,ドーン,0
1642,7110001038484,新規,0,2024-06-25,2024-06-25,サリエル株式会社,,株式会社,新潟県,新潟市秋葉区,山谷町１丁目１－３６－５,,15,105,9560024,,,,,,,2024-06-25,1,,,,,サリエル,0
1650,7120001266118,新規,0,2024-06-25,2024-06-25,ファンドホット・インテリジェンス株式会社,,株式会社,大阪府,大阪市港区,田中１丁目１３－５,,27,107,5520005,,,,,,,2024-06-25,1,,,,,ファンドホットインテリジェンス,0
1651,7120001266150,新規,0,2024-06-25,2024-06-25,堀建設株式会社,,株式会社,大阪府,寝屋川市,梅が丘１丁目１６－８梅が丘ハイツ１０８号,,27,215,5720803,,,,,,,2024-06-25,1,,,,,ホリケンセツ,0
1652,7120001266159,新規,0,2024-06-25,2024-06-25,株式会社トップライフコンシェルジュ,,株式会社,大阪府,大阪市天王寺区,味原町１３－１１－２味原トータルライフ７Ｆ,,27,109,5430023,,,,,,,2024-06-25,1,,,,,トップライフコンシェルジュ,0
1653,7120001266167,新規,0,2024-06-25,2024-06-25,株式会社ＬｉｎｋＬａｎｄ,,株式会社,大阪府,大阪市中央区,十二軒町３番１９－２０３号,,27,128,5400015,,,,,,,2024-06-25,1,,,,,リンクランド,0
1654,7120001266191,新規,0,2024-06-25,2024-06-25,株式会社一峰,,株式会社,大阪府,大阪市淀川区,西中島４丁目４番２５号,,27,123,5320011,,,,,,,2024-06-25,1,,,,,イチミネ,0
1655,7120001266200,新規,0,2024-06-25,2024-06-25,株式会社ｃｕｒｉｓｍ,,株式会社,大阪府,交野市,星田西４丁目１２番３－３０１号,,27,230,5760015,,,,,,,2024-06-25,1,,,,,キュリズム,0
1656,7120001266225,新規,0,2024-06-25,2024-06-25,株式会社Ｃｏｒａｌ　ｒｅｅｆ,,株式会社,大阪府,大阪市北区,梅田１丁目２番２号大阪駅前第２ビル１２－１２,,27,127,5300001,,,,,,,2024-06-25,1,,,,,コーラルリーフ,0
1657,7120003026916,新規,0,2024-06-25,2024-06-25,ＰＴＴ合同会社,,合同会社,大阪府,大阪市生野区,新今里３丁目４番９号６Ｆ号室,,27,116,5440001,,,,,,,2024-06-25,1,,,,,ピーティーティー,0
1658,7120003026932,新規,0,2024-06-25,2024-06-25,ＢＴ合同会社,,合同会社,大阪府,大阪市北区,梅田１丁目１－３大阪駅前第３ビル２９階１－１－１号室,,27,127,5300001,,,,,,,2024-06-25,1,,,,,ビーテー,0
1659,7120005024389,新規,0,2024-06-25,2024-06-25,特定非営利活動法人ＫＡＮＡＵ,,その他の設立登記法人,大阪府,大阪市生野区,生野東２丁目２－１５,,27,116,5440025,,,,,,,2024-06-25,1,,,,,カナウ,0
1660,7120103005910,新規,0,2024-06-25,2024-06-25,合同会社アルマ,,合同会社,大阪府,堺市西区,堀上緑町１丁４番３２号,,27,144,5938305,,,,,,,2024-06-25,1,,,,,アルマ,0
1665,7120903005234,新規,0,2024-06-25,2024-06-25,合同会社Ｇｒａｔｆｕｌ　Ｓｍｉｌｅ,,合同会社,大阪府,豊中市,東泉丘４丁目５番５０－１３０９号,,27,203,5610861,,,,,,,2024-06-25,1,,,,,グレイトフルスマイル,0
1672,7130001077340,新規,0,2024-06-25,2024-06-25,株式会社ＯＮＥＢＥＳＴ,,株式会社,京都府,京田辺市,田辺尼ケ池２２番地１４,,26,211,6100331,,,,,,,2024-06-25,1,,,,,ワンベスト,0
1677,7140001134891,新規,0,2024-06-25,2024-06-25,株式会社ＳＹ　ＳＥＴ,,株式会社,兵庫県,神戸市中央区,加納町２丁目８番１０－５０６号,,28,110,6500001,,,,,,,2024-06-25,1,,,,,エスワイセット,0
1678,7140001134900,新規,0,2024-06-25,2024-06-25,株式会社３３ＤＥＰＡＲＴＭＥＮＴ,,株式会社,兵庫県,伊丹市,千僧４丁目３３,,28,207,6640898,,,,,,,2024-06-25,1,,,,,サーティースリーデパートメント,0
1690,7180001162105,新規,0,2024-06-25,2024-06-25,株式会社ＨＨ,,株式会社,愛知県,名古屋市千種区,四谷通１丁目６番地の１ＨＨヒルズ,,23,101,4640819,,,,,,,2024-06-25,1,,,,,エイチエイチ,0
1706,7200001042618,新規,0,2024-06-25,2024-06-25,株式会社ＭＹＰＬＥＡＳＵＲＥ,,株式会社,岐阜県,岐阜市,河渡３丁目９０番地１,,21,201,5010105,,,,,,,2024-06-25,1,,,,,マイプレジャー,0
1707,7200001042626,新規,0,2024-06-25,2024-06-25,株式会社セカンドペンギン,,株式会社,岐阜県,岐阜市,森本町一丁目１６番地１６,,21,201,5000000,,,,,,,2024-06-25,1,,,,,セカンドペンギン,0
1712,7210001019796,新規,0,2024-06-25,2024-06-25,Ｌｉｂｅｒｔｅ株式会社,,株式会社,福井県,鯖江市,有定町１丁目８－１０,,18,207,9160057,,,,,,,2024-06-25,1,,,,,リベルテ,0
1717,7250001020701,新規,0,2024-06-25,2024-06-25,ＵＭＥ株式会社,,株式会社,山口県,下関市,山の田本町１７番１０号,,35,201,7510838,,,,,,,2024-06-25,1,,,,,ユーエムイー,0
1727,7290001106208,新規,0,2024-06-25,2024-06-25,株式会社コンプライアンス・カンパニー,,株式会社,福岡県,福岡市中央区,大手門３丁目１番３－４０５号,,40,133,8100074,,,,,,,2024-06-25,1,,,,,コンプライアンスカンパニー,0
1728,7290001106265,新規,0,2024-06-25,2024-06-25,株式会社ｌｉｂｅｒａｔｅ,,株式会社,福岡県,福岡市早良区,東入部１丁目３７番９号,,40,137,8111102,,,,,,,2024-06-25,1,,,,,リベライテ,0
1729,7290001106273,新規,0,2024-06-25,2024-06-25,Ｃｉｒｃｌｅ　Ｒｅａｃｈ株式会社,,株式会社,福岡県,福岡市西区,姪浜二丁目３番１１－９０６号,,40,135,8190000,,,,,,,2024-06-25,1,,,,,サークルリーチ,0
1736,7310003004811,新規,0,2024-06-25,2024-06-25,合同会社ＲＥＢＩＵＳ,,合同会社,長崎県,東彼杵郡波佐見町,金屋郷３９－３,,42,323,8593714,,,,,,,2024-06-25,1,,,,,,0
1743,7340001026598,新規,0,2024-06-25,2024-06-25,株式会社ｐａｄｄｙ,,株式会社,鹿児島県,伊佐市,大口金波田９３４,,46,224,8952523,,,,,,,2024-06-25,1,,,,,パディ,0
1746,7360001033849,新規,0,2024-06-25,2024-06-25,うたウサギ株式会社,,株式会社,沖縄県,浦添市,城間１丁目３５番１４号,,47,208,9012133,,,,,,,2024-06-25,1,,,,,ウタウサギ,0
1748,7360003014079,新規,0,2024-06-25,2024-06-25,ひらく合同会社,,合同会社,沖縄県,中頭郡西原町,上原２丁目２９－１１・４－Ｄ,,47,329,9030125,,,,,,,2024-06-25,1,,,,,ヒラク,0
1749,7360003014095,新規,0,2024-06-25,2024-06-25,合同会社比嘉,,合同会社,沖縄県,那覇市,松川１丁目６番地３３,,47,201,9020062,,,,,,,2024-06-25,1,,,,,ヒガ,0
1751,7370005010810,新規,0,2024-06-25,2024-06-25,医療法人社団アトラス,,その他の設立登記法人,宮城県,仙台市太白区,富沢西３丁目１－１－３,,04,104,9820037,,,,,,,2024-06-25,1,,,,,アトラス,0
1760,7390001017659,新規,0,2024-06-25,2024-06-25,株式会社ＷＡＫＯＵ,,株式会社,山形県,米沢市,遠山町２６８０番地,,06,202,9920066,,,,,,,2024-06-25,1,,,,,ワコウ,0
1768,7430001092103,新規,0,2024-06-25,2024-06-25,株式会社Ｒ・５Ｃｏｍｐａｎｙ,,株式会社,北海道,江別市,新栄台８１番地の９,,01,217,0690806,,,,,,,2024-06-25,1,,,,,アールファイブカンパニー,0
1780,7700150126195,新規,0,2024-06-25,2024-06-25,大安貿易有限公司,,外国会社等,大阪府,大阪市住之江区,南港北２丁目１番１０号ＡＴＣビル５２０,,27,125,5590034,台湾台北市大安区復興南路２段８号６階,,,,,,2024-06-25,1,,,,,タイアンボウエキユウゲンコウシ,0
1781,7700150126204,新規,0,2024-06-25,2024-06-25,ＩＳＨＯ　ＨＯＬＤＩＮＧＳ　ＬＴＤ,,外国会社等,,,,,,,,Ｖｉｓｔｒａ　Ｃｏｒｐｏｒａｔｅ　Ｓｅｒｖｉｃｅｓ　Ｃｅｎｔｒｅ，Ｇｒｏｕｎｄ　Ｆｌｏｏｒ　ＮＰＦ　Ｂｕｉｌｄｉｎｇ，Ｂｅａｃｈ　Ｒｏａｄ，Ａｐｉａ，Ｓａｍｏａ,,,,,,2024-06-25,1,,,,,イシヨーホールデイングスリミテツド,0
1787,8010001245338,新規,0,2024-06-25,2024-06-25,株式会社ｅｇｇ　ｔｒｅｅ,,株式会社,東京都,千代田区,飯田橋１丁目８番９号ニューシティハイツ飯田橋７０７,,13,101,1020072,,,,,,,2024-06-25,1,,,,,エッグツリー,0
1788,8010001245775,新規,0,2024-06-25,2024-06-25,株式会社ルートキーソリューションズ,,株式会社,東京都,中央区,銀座１丁目３番９号マルイト銀座ビル８階,,13,102,1040061,,,,,,,2024-06-25,1,,,,,ルートキーソリューションズ,0
1789,8010001245932,新規,0,2024-06-25,2024-06-25,株式会社ＪＩＮ　ＣＡＰ,,株式会社,東京都,中央区,日本橋小舟町８番１３号天翔日本橋ビル３階,,13,102,1030024,,,,,,,2024-06-25,1,,,,,ジンキャップ,0
1795,8010401183352,新規,0,2024-06-25,2024-06-25,ＭＣＰ２６株式会社,,株式会社,東京都,港区,元赤坂１丁目１番８号株式会社赤坂国際会計内,,13,103,1070051,,,,,,,2024-06-25,1,,,,,エムシーピーツーシックス,0
1798,8010601065409,新規,0,2024-06-25,2024-06-25,ＢＩＮＧＯ商店株式会社,,株式会社,東京都,江東区,南砂７丁目５番２１－４１２号,,13,108,1360076,,,,,,,2024-06-25,1,,,,,ビンゴショウテン,0
1799,8010601065425,新規,0,2024-06-25,2024-06-25,株式会社Ｓ　Ｃｏｍｐａｎｙ,,株式会社,東京都,江東区,豊洲１丁目３番１８－２３０４号,,13,108,1350061,,,,,,,2024-06-25,1,,,,,エスカンパニー,0
1800,8010601065441,新規,0,2024-06-25,2024-06-25,アン株式会社,,株式会社,東京都,江東区,東陽２丁目４番３９号新東陽ビル４階４９,,13,108,1350016,,,,,,,2024-06-25,1,,,,,アン,0
1801,8010603010916,新規,0,2024-06-25,2024-06-25,克洋合同会社,,合同会社,東京都,墨田区,横川３丁目６番７号２－Ｎ室,,13,107,1300003,,,,,,,2024-06-25,1,,,,,カツヒロ,0
1803,8010605004338,新規,0,2024-06-25,2024-06-25,ＡＲＣ武蔵家協同組合,,その他の設立登記法人,東京都,江東区,豊洲１丁目２番３９号パークアクシス豊洲５０１,,13,108,1350061,,,,,,,2024-06-25,1,,,,,エーアールシームサシヤ,0
1804,8010701046176,新規,0,2024-06-25,2024-06-25,株式会社もち,,株式会社,東京都,品川区,東五反田１丁目１７番１０号,,13,109,1410022,,,,,,,2024-06-25,1,,,,,モチ,0
1807,8010901055530,新規,0,2024-06-25,2024-06-25,Ｃａｍｉｎｉｔｏ　Ｔａｎｇｏ　Ｃｌｕｂ株式会社,,株式会社,東京都,世田谷区,三軒茶屋１丁目３８－８ステーションプラザロイヤル５Ｆ,,13,112,1540024,,,,,,,2024-06-25,1,,,,,カミニートタンゴクラブ,0
1813,8011001162894,新規,0,2024-06-25,2024-06-25,株式会社ゼニスケアジャパン,,株式会社,東京都,渋谷区,恵比寿西２丁目４番８号ウィンド恵比寿ビル８Ｆ,,13,113,1500021,,,,,,,2024-06-25,1,,,,,ゼニスケアジャパン,0
1814,8011001162903,新規,0,2024-06-25,2024-06-25,株式会社ＲＡＩＢＹ,,株式会社,東京都,渋谷区,円山町５－５Ｎａｖｉ渋谷Ｖ３階,,13,113,1500044,,,,,,,2024-06-25,1,,,,,ライビー,0
1817,8011003019358,新規,0,2024-06-25,2024-06-25,合同会社ＲｙｕＰｒｏ,,合同会社,東京都,渋谷区,渋谷２丁目１９‐１５宮益坂ビルディング６０９,,13,113,1500002,,,,,,,2024-06-25,1,,,,,リュウプロ,0
1818,8011003019457,新規,0,2024-06-25,2024-06-25,合同会社ｅｎ,,合同会社,東京都,渋谷区,道玄坂１丁目１０番８号渋谷道玄坂東急ビル２Ｆ－Ｃ,,13,113,1500043,,,,,,,2024-06-25,1,,,,,イーエヌ,0
1823,8011103014597,新規,0,2024-06-25,2024-06-25,合同会社ＴＵ３１,,合同会社,東京都,新宿区,四谷２丁目９番地１５東京ユナイテッド綜合事務所内,,13,104,1600004,,,,,,,2024-06-25,1,,,,,ティーユーサンジュウイチ,0
1824,8011201025579,新規,0,2024-06-25,2024-06-25,東京梵依聯合株式会社,,株式会社,東京都,中野区,江古田４丁目３０番１９－１０６号,,13,114,1650022,,,,,,,2024-06-25,1,,,,,トウキョウボンイレンゴウ,0
1829,8011301029777,新規,0,2024-06-25,2024-06-25,株式会社アイル,,株式会社,東京都,杉並区,井草１丁目４４－７ノースイースト杉並３０１,,13,115,1670021,,,,,,,2024-06-25,1,,,,,アイル,0
1831,8011401026220,新規,0,2024-06-25,2024-06-25,アヴィダー株式会社,,株式会社,東京都,板橋区,高島平２丁目３０番１－１４０３号,,13,119,1750082,,,,,,,2024-06-25,1,,,,,アヴィダー,0
1832,8011603004370,新規,0,2024-06-25,2024-06-25,明徹ネクサス合同会社,,合同会社,東京都,練馬区,上石神井３丁目１９番８－６０２号,,13,120,1770044,,,,,,,2024-06-25,1,,,,,メイテツネクサス,0
1834,8011801044417,新規,0,2024-06-25,2024-06-25,旭日株式会社,,株式会社,東京都,足立区,佐野２丁目２８番４号サンパーク９２・３０２号室,,13,121,1210053,,,,,,,2024-06-25,1,,,,,アサヒ,0
1835,8011801044433,新規,0,2024-06-25,2024-06-25,株式会社ＲＥＶＯ,,株式会社,東京都,足立区,東伊興３丁目１５番２２号Ｏ２レジデンス竹の塚Ｂ棟２０４号室,,13,121,1210801,,,,,,,2024-06-25,1,,,,,レボ,0
1837,8012303002012,新規,0,2024-06-25,2024-06-25,合同会社ジョイス,,合同会社,東京都,町田市,金森東４丁目２６番１１号,,13,209,1940015,,,,,,,2024-06-25,1,,,,,ジョイス,0
1839,8012403006615,新規,0,2024-06-25,2024-06-25,宏冠国際貿易合同会社,,合同会社,東京都,調布市,仙川町１丁目１４番地３５レモンビル２０１号室,,13,208,1820002,,,,,,,2024-06-25,1,,,,,コウカンコクサイボウエキ,0
1846,8020001157846,新規,0,2024-06-25,2024-06-25,株式会社山泰,,株式会社,神奈川県,横浜市西区,みなとみらい５丁目３番１‐Ｏ‐２９０４号,,14,103,2200012,,,,,,,2024-06-25,1,,,,,ヤマヒロ,0
1850,8020003026388,新規,0,2024-06-25,2024-06-25,ｂｌｉｓｓ合同会社,,合同会社,神奈川県,横浜市南区,宮元町２丁目３０番地２広瀬ビル７０１,,14,105,2320016,,,,,,,2024-06-25,1,,,,,ブリス,0
1852,8021001082571,新規,0,2024-06-25,2024-06-25,株式会社ＴＫプラン,,株式会社,神奈川県,海老名市,大谷南４丁目６番８号,,14,215,2430418,,,,,,,2024-06-25,1,,,,,ティーケープラン,0
1853,8021003014663,新規,0,2024-06-25,2024-06-25,合同会社ＱＯＭ,,合同会社,神奈川県,藤沢市,本町４丁目７－１３ＴＲｉｓｅ１Ｆ,,14,205,2510053,,,,,,,2024-06-25,1,,,,,キューオーエム,0
1861,8030001161095,新規,0,2024-06-25,2024-06-25,株式会社クロスギルド,,株式会社,埼玉県,川口市,西川口１丁目３４番１８号ＲＥＸＺＹ西川口８０５,,11,203,3320021,,,,,,,2024-06-25,1,,,,,クロスギルド,0
1862,8030001161112,新規,0,2024-06-25,2024-06-25,株式会社エムサービス,,株式会社,埼玉県,さいたま市岩槻区,大字慈恩寺４０３－２,,11,110,3390009,,,,,,,2024-06-25,1,,,,,エムサービス,0
1864,8030003024531,新規,0,2024-06-25,2024-06-25,合同会社ＪＵＷＡＮＡ　ＪＡＰＡＮ,,合同会社,埼玉県,鴻巣市,中井４５番地３,,11,217,3650065,,,,,,,2024-06-25,1,,,,,ジュワーナジャパン,0
1866,8030005021741,新規,0,2024-06-25,2024-06-25,行政書士法人ＫＵＲＩＴＡ,,その他の設立登記法人,埼玉県,所沢市,緑町４丁目２０番地１７マスダヤ緑町ビル２Ｆ,,11,208,3591111,,,,,,,2024-06-25,1,,,,,クリタ,0
1872,8040001134190,新規,0,2024-06-25,2024-06-25,株式会社チームアヤメ,,株式会社,千葉県,野田市,桐ケ作１０３８番地５,,12,208,2700213,,,,,,,2024-06-25,1,,,,,チームアヤメ,0
1873,8040001134199,新規,0,2024-06-25,2024-06-25,株式会社空殻,,株式会社,千葉県,茂原市,緑ケ丘２丁目２番地４,,12,210,2970065,,,,,,,2024-06-25,1,,,,,クウカク,0
1877,8040003025198,新規,0,2024-06-25,2024-06-25,ＴＵＲＢＯ　ＴＲＡＣＫ　ＭＯＴＯＲＳ合同会社,,合同会社,千葉県,富里市,十倉２４５０番地５８,,12,233,2860212,,,,,,,2024-06-25,1,,,,,ターボトラックモータース,0
1879,8050001054982,新規,0,2024-06-25,2024-06-25,株式会社ＶＩＣＴＯＲＹ,,株式会社,茨城県,筑西市,桑山２２０３番地４,,08,227,3091127,,,,,,,2024-06-25,1,,,,,ビクトリー,0
1880,8050001054990,新規,0,2024-06-25,2024-06-25,株式会社エーティーアライブ,,株式会社,茨城県,古河市,東本町２丁目２－２尾崎ビル１Ｆ,,08,204,3060013,,,,,,,2024-06-25,1,,,,,エーティーアライブ,0
1881,8050003008474,新規,0,2024-06-25,2024-06-25,アンジェロプロジェクト合同会社,,合同会社,茨城県,石岡市,石岡１３９３１番地５水野住宅Ａ－５,,08,205,3150001,,,,,,,2024-06-25,1,,,,,アンジェロプロジェクト,0
1886,8080403005036,新規,0,2024-06-25,2024-06-25,合同会社ＡＫＡＢＯＳＨＩ　ＷＯＲＫＳ,,合同会社,静岡県,浜松市浜名区,引佐町川名４１４番地の５,,22,139,4312202,,,,,,,2024-06-25,1,,,,,アカボシワークス,0
1898,8120001266091,新規,0,2024-06-25,2024-06-25,株式会社Ｎ．Ｗ．Ｎ,,株式会社,大阪府,大阪市中央区,西心斎橋２丁目８番１０号おおきにハカルンルンビル４０１号,,27,128,5420086,,,,,,,2024-06-25,1,,,,,エヌダブリューエヌ,0
1899,8120001266117,新規,0,2024-06-25,2024-06-25,株式会社Ｊｏｉｎｔ　Ｂｉｌｌｉｏｎ　Ｊａｐａｎ,,株式会社,大阪府,大阪市北区,西天満５丁目９番３号,,27,127,5300047,,,,,,,2024-06-25,1,,,,,ジョイントビリオンジャパン,0
1900,8120001266158,新規,0,2024-06-25,2024-06-25,株式会社Ｗｅａｌｔｈｙ　ｆｏｏｄ,,株式会社,大阪府,大阪市西区,江之子島１丁目１番９－９０６号,,27,106,5500006,,,,,,,2024-06-25,1,,,,,ウェルシーフード,0
1901,8120001266166,新規,0,2024-06-25,2024-06-25,株式会社ルアナ,,株式会社,大阪府,大阪市淀川区,東三国３丁目９番１１－６０８号,,27,123,5320002,,,,,,,2024-06-25,1,,,,,ルアナ,0
1902,8120003026907,新規,0,2024-06-25,2024-06-25,合同会社Ｔｉｇｅｒ　Ｃｏｍｐａｎｙ,,合同会社,大阪府,大阪市港区,夕凪１丁目１－８,,27,107,5520004,,,,,,,2024-06-25,1,,,,,タイガーカンパニー,0
1911,8130001077166,新規,0,2024-06-25,2024-06-25,鴻哲商事株式会社,,株式会社,京都府,京都市中京区,御供町３０１,,26,104,6048331,,,,,,,2024-06-25,1,,,,,コウテツショウジ,0
1912,8130001077348,新規,0,2024-06-25,2024-06-25,樂想商事株式会社,,株式会社,京都府,京都市左京区,松ケ崎河原田町８番地８,,26,103,6060941,,,,,,,2024-06-25,1,,,,,ラクソウショウジ,0
1920,8140005027117,新規,0,2024-06-25,2024-06-25,光明寺,,その他の設立登記法人,兵庫県,姫路市,書写１４７３番地１号,,28,201,6712201,,,,,,,2024-06-25,1,,,,,コウミョウジ,0
1922,8150001027375,新規,0,2024-06-25,2024-06-25,株式会社希望,,株式会社,奈良県,奈良市,下三条町３４更谷ビル３０５号,,29,201,6308236,,,,,,,2024-06-25,1,,,,,キモチ,0
1924,8150003003291,新規,0,2024-06-25,2024-06-25,ＮＩＭＪ　ＳＵＰＰＯＲＴ　ＳＥＲＶＩＣＥ合同会社,,合同会社,奈良県,北葛城郡上牧町,服部台４丁目７番３０２号,,29,424,6390212,,,,,,,2024-06-25,1,,,,,エヌアイアムジェイサポートサービス,0
1927,8160005011317,新規,0,2024-06-25,2024-06-25,特定非営利活動法人煌,,その他の設立登記法人,滋賀県,長浜市,中山町１－２８,,25,203,5260022,,,,,,,2024-06-25,1,,,,,キラメキ,0
1931,8180001162070,新規,0,2024-06-25,2024-06-25,株式会社ＮＥＫＯＮＥＫＯ　ＥＸＰＲＥＳＳ,,株式会社,愛知県,大府市,若草町４丁目３０６番地－１０２号,,23,223,4740022,,,,,,,2024-06-25,1,,,,,ネコネコエクスプレス,0
1932,8180001162087,新規,0,2024-06-25,2024-06-25,株式会社オクル建設,,株式会社,愛知県,愛西市,稲葉町米野１９０番地１,,23,232,4960907,,,,,,,2024-06-25,1,,,,,オクルケンセツ,0
1938,8180003026983,新規,0,2024-06-25,2024-06-25,合同会社メゾンドブラン,,合同会社,愛知県,名古屋市中区,丸の内１丁目１４番２４号ライオンズビル第２丸の内４０２号,,23,106,4600002,,,,,,,2024-06-25,1,,,,,メゾンドブラン,0
1943,8200001042625,新規,0,2024-06-25,2024-06-25,株式会社ブリッジ,,株式会社,岐阜県,各務原市,鵜沼南町６丁目２５７番地,,21,213,5090125,,,,,,,2024-06-25,1,,,,,ブリッジ,0
1945,8220001026064,新規,0,2024-06-25,2024-06-25,株式会社大工市田,,株式会社,石川県,加賀市,大聖寺仲町１９番地３,,17,206,9220051,,,,,,,2024-06-25,1,,,,,ダイクイチダ,0
1946,8220003003771,新規,0,2024-06-25,2024-06-25,合同会社ＮＥＯこども未来計画,,合同会社,石川県,金沢市,鱗町９７番地アトラスビル４階１号室,,17,201,9200971,,,,,,,2024-06-25,1,,,,,ネオコドモミライケイカク,0
1953,8260001039203,新規,0,2024-06-25,2024-06-25,株式会社ハクビヤ,,株式会社,岡山県,倉敷市,玉島爪崎４４４－１ウィズビル１Ｆ,,33,202,7100252,,,,,,,2024-06-25,1,,,,,ハクビヤ,0
1956,8290001106248,新規,0,2024-06-25,2024-06-25,東晟株式会社,,株式会社,福岡県,福岡市東区,和白５丁目２２番５号,,40,131,8110202,,,,,,,2024-06-25,1,,,,,アズマアキラ,0
1957,8290001106272,新規,0,2024-06-25,2024-06-25,Ｎｅｗ　Ｓｔａｒ株式会社,,株式会社,福岡県,福岡市西区,姪浜二丁目３番１１－８０１号,,40,135,8190000,,,,,,,2024-06-25,1,,,,,ニュースター,0
1965,8290003015488,新規,0,2024-06-25,2024-06-25,合同会社ｂ‐ｐｌａｎ,,合同会社,福岡県,福岡市中央区,天神２丁目３－１０天神パインクレスト１００４,,40,133,8100001,,,,,,,2024-06-25,1,,,,,ビープラン,0
1971,8320003004405,新規,0,2024-06-25,2024-06-25,合同会社Ｎｏａ,,合同会社,大分県,佐伯市,大字池田１９８４番地２,,44,205,8760025,,,,,,,2024-06-25,1,,,,,ノア,0
1973,8330001032191,新規,0,2024-06-25,2024-06-25,株式会社友和建設,,株式会社,熊本県,熊本市西区,上熊本３丁目１４番３０－１号,,43,103,8600079,,,,,,,2024-06-25,1,,,,,ユウワケンセツ,0
1974,8330003010435,新規,0,2024-06-25,2024-06-25,合同会社ＴＮ,,合同会社,熊本県,熊本市東区,画図町大字下無田１４６０番地,,43,102,8620945,,,,,,,2024-06-25,1,,,,,ティーエヌ,0
1977,8350001019030,新規,0,2024-06-25,2024-06-25,ｍｏｔｉｏ株式会社,,株式会社,宮崎県,宮崎市,大淀４丁目６番２８号宮交シティ１階,,45,201,8800902,,,,,,,2024-06-25,1,,,,,モティオ,0
1992,8420001018768,新規,0,2024-06-25,2024-06-25,株式会社大向ファーム,,株式会社,青森県,八戸市,南郷大字泉清水字泉清水３１番地１,,02,203,0310113,,,,,,,2024-06-25,1,,,,,オオムカイファーム,0
1995,8430001092102,新規,0,2024-06-25,2024-06-25,株式会社ソウシン,,株式会社,北海道,札幌市手稲区,前田七条６丁目２番３１号アルページュ手稲１０２号,,01,109,0060817,,,,,,,2024-06-25,1,,,,,カブソウシン,0
1996,8450001014351,新規,0,2024-06-25,2024-06-25,ルミエスクリエイト株式会社,,株式会社,北海道,旭川市,豊岡二条９丁目２番１６号,,01,204,0788232,,,,,,,2024-06-25,1,,,,,ルミエスクリエイト,0
2001,8462501001002,新規,0,2024-06-25,2024-06-25,株式会社オリジン,,株式会社,北海道,標津郡中標津町,計根別本通西３丁目４番地,,01,692,0882682,,,,,,,2024-06-25,1,,,,,オリジン,0
2002,8470001020265,新規,0,2024-06-25,2024-06-25,株式会社リメイク,,株式会社,香川県,高松市,上林町１３５番地,,37,201,7610302,,,,,,,2024-06-25,1,,,,,リメイク,0
2012,8700150126194,新規,0,2024-06-25,2024-06-25,ＫＡＮＤＵＲＡＴＡ　ＨＡＲＤＷＡＲＥ,,外国会社等,千葉県,八街市,東吉田７２５番地オフィス１７号,,12,230,2891114,スリランカ民主社会主義共和国、ピリマタワラ、コロンボロード、Ｎｏ．３８９,,,,,,2024-06-25,1,,,,,カンドウラタハードウエア,0
2023,9010001246005,新規,0,2024-06-25,2024-06-25,株式会社身長先生,,株式会社,東京都,千代田区,神田東松下町４１番地１－４０５号,,13,101,1010042,,,,,,,2024-06-25,1,,,,,シンチョウセンセイ,0
2024,9010001246054,新規,0,2024-06-25,2024-06-25,株式会社ａｗａａｓ,,株式会社,東京都,中央区,銀座１丁目２２番１１号銀座大竹ビジデンス２Ｆ,,13,102,1040061,,,,,,,2024-06-25,1,,,,,アワーズ,0
2026,9010003044101,新規,0,2024-06-25,2024-06-25,銀座ナカムラ合同会社,,合同会社,東京都,中央区,銀座７丁目７番１５号銀座ＨＡＲＡビル１階,,13,102,1040061,,,,,,,2024-06-25,1,,,,,ギンザナカムラ,0
2027,9010003044118,新規,0,2024-06-25,2024-06-25,合同会社Ｍｏｄｅｌｙ,,合同会社,東京都,中央区,銀座１丁目１２－４Ｎ＆ＥＢＬＤ．７階,,13,102,1040061,,,,,,,2024-06-25,1,,,,,モデリー,0
2028,9010003044150,新規,0,2024-06-25,2024-06-25,合同会社ＡＦＦＥＶ　Ｎａｍｂａ,,合同会社,東京都,千代田区,丸の内３丁目１番１号東京共同会計事務所内,,13,101,1000005,,,,,,,2024-06-25,1,,,,,エーエフエフイーヴィーナンバ,0
2041,9010401183351,新規,0,2024-06-25,2024-06-25,ＭＣＰ２５株式会社,,株式会社,東京都,港区,元赤坂１丁目１番８号株式会社赤坂国際会計内,,13,103,1070051,,,,,,,2024-06-25,1,,,,,エムシーピーツーファイブ,0
2042,9010401183401,新規,0,2024-06-25,2024-06-25,株式会社ヤマト技研,,株式会社,東京都,港区,南青山３丁目８－４０南青山センタービル２Ｆ,,13,103,1070062,,,,,,,2024-06-25,1,,,,,ヤマトギケン,0
2045,9010403032845,新規,0,2024-06-25,2024-06-25,ＥｔｏｎＨｏｕｓｅ　Ｊａｐａｎ　Ｐｒｏｐｅｒｔｙ　Ｈｏｌｄｉｎｇｓ合同会社,,合同会社,東京都,港区,赤坂９丁目２番１６号,,13,103,1070052,,,,,,,2024-06-25,1,,,,,イートンハウスジャパンプロパティーホールディングス,0
2047,9010501052497,新規,0,2024-06-25,2024-06-25,ＦＩＦＴＨ　ＥＬＥＭＥＮＴ株式会社,,株式会社,東京都,台東区,台東１丁目２４番９号ブライト秋葉原Ｂ１Ｆ,,13,106,1100016,,,,,,,2024-06-25,1,,,,,フィフスエレメント,0
2055,9010903009178,新規,0,2024-06-25,2024-06-25,合同会社長谷川グローバルインサイト,,合同会社,東京都,世田谷区,新町１丁目１番２２号,,13,112,1540014,,,,,,,2024-06-25,1,,,,,ハセガワグローバルインサイト,0
2065,9011001162753,新規,0,2024-06-25,2024-06-25,株式会社ドットコンフ,,株式会社,東京都,渋谷区,道玄坂１丁目１０番８号渋谷道玄坂東急ビル２Ｆ－Ｃ,,13,113,1500043,,,,,,,2024-06-25,1,,,,,ドットコンフ,0
2066,9011001162885,新規,0,2024-06-25,2024-06-25,株式会社９７ｃｏｎｓｕｌｔｉｎｇ,,株式会社,東京都,渋谷区,神宮前６丁目２５番８号神宮前コーポラス３１３,,13,113,1500001,,,,,,,2024-06-25,1,,,,,キュウナナコンサルティング,0
2067,9011001162927,新規,0,2024-06-25,2024-06-25,株式会社ファースト,,株式会社,東京都,渋谷区,渋谷２丁目１９番１５号宮益坂ビルディング６０９,,13,113,1500002,,,,,,,2024-06-25,1,,,,,ファースト,0
2076,9011303005214,新規,0,2024-06-25,2024-06-25,合同会社ＨＡＬＵ,,合同会社,東京都,杉並区,阿佐谷南２丁目１７－８ランドエイトビル４Ｆ,,13,115,1660004,,,,,,,2024-06-25,1,,,,,ハル,0
2077,9011305002985,新規,0,2024-06-25,2024-06-25,セシャト税理士法人,,その他の設立登記法人,東京都,杉並区,上高井戸１丁目８番２９号木下ビル３０３,,13,115,1680074,,,,,,,2024-06-25,1,,,,,セシャト,0
2079,9011401026211,新規,0,2024-06-25,2024-06-25,正興株式会社,,株式会社,東京都,板橋区,大山東町３２－１８ルイ・ステージ大山４０２,,13,119,1730014,,,,,,,2024-06-25,1,,,,,セイコウ,0
2080,9011701027405,新規,0,2024-06-25,2024-06-25,担ぐ株式会社,,株式会社,東京都,江戸川区,北小岩３丁目２３番２３号,,13,123,1330051,,,,,,,2024-06-25,1,,,,,カツグ,0
2082,9011703003882,新規,0,2024-06-25,2024-06-25,ＤＴＬジャパン合同会社,,合同会社,東京都,江戸川区,本一色３丁目２－５－１０２号,,13,123,1330044,,,,,,,2024-06-25,1,,,,,ディーティーエルジャパン,0
2089,9012303002011,新規,0,2024-06-25,2024-06-25,ＭＤＲＤ合同会社,,合同会社,東京都,町田市,薬師台３丁目１４－８,,13,209,1950073,,,,,,,2024-06-25,1,,,,,エムディアールディ,0
2091,9012403006639,新規,0,2024-06-25,2024-06-25,タムタム合同会社,,合同会社,東京都,武蔵野市,吉祥寺北町１丁目２５－１３,,13,203,1800001,,,,,,,2024-06-25,1,,,,,タムタム,0
2093,9012803003442,新規,0,2024-06-25,2024-06-25,合同会社ユーイチ,,合同会社,東京都,国分寺市,本町２丁目７番２号ハウスアメニティ９９－８０５号室,,13,214,1850012,,,,,,,2024-06-25,1,,,,,ユーイチ,0
2094,9013103001351,新規,0,2024-06-25,2024-06-25,合同会社ＨＡＧＵＲＵＭＡ,,合同会社,東京都,青梅市,駒木町２丁目３８４－９,,13,205,1980053,,,,,,,2024-06-25,1,,,,,,0
2103,9020003026321,新規,0,2024-06-25,2024-06-25,合同会社ＷＡＳＳＨＯＩ六角橋,,合同会社,神奈川県,横浜市神奈川区,六角橋１丁目１０番２号,,14,102,2210802,,,,,,,2024-06-25,1,,,,,ワッショイロッカクバシ,0
2126,9040001134198,新規,0,2024-06-25,2024-06-25,今朝株式会社,,株式会社,千葉県,千葉市中央区,松波２丁目７番２号,,12,101,2600044,,,,,,,2024-06-25,1,,,,,コンチョウ,0
2127,9040001134207,新規,0,2024-06-25,2024-06-25,ＧＯＲＡＹＡ　ＴＲＡＤＩＮＧ　ＪＡＰＡＮ株式会社,,株式会社,千葉県,野田市,なみき３丁目２０番地２,,12,208,2700229,,,,,,,2024-06-25,1,,,,,ゴラヤトレーディングジャパン,0
2149,9080105006439,新規,0,2024-06-25,2024-06-25,特定非営利活動法人ひだまりファミリーステーション,,その他の設立登記法人,静岡県,富士宮市,東町４番２４号,,22,207,4180077,,,,,,,2024-06-25,1,,,,,ヒダマリファミリーステーション,0
2153,9110003005431,新規,0,2024-06-25,2024-06-25,合同会社ｔｈａｎｏｕ,,合同会社,新潟県,新潟市中央区,笹口３丁目１５番地１,,15,103,9500911,,,,,,,2024-06-25,1,,,,,タヌー,0
2155,9120001265893,新規,0,2024-06-25,2024-06-25,株式会社ＧＯＯＤ　ＶＩＢＥＳ,,株式会社,大阪府,大阪市都島区,都島本通４丁目４－９,,27,102,5340021,,,,,,,2024-06-25,1,,,,,グッドバイブス,0
2156,9120001266074,新規,0,2024-06-25,2024-06-25,ワングリット株式会社,,株式会社,大阪府,大阪市北区,堂島浜２丁目２－２８堂島アクシスビル４階,,27,127,5300004,,,,,,,2024-06-25,1,,,,,ワングリット,0
2157,9120001266181,新規,0,2024-06-25,2024-06-25,億啓株式会社,,株式会社,大阪府,大阪市北区,菅栄町１－３－５０２,,27,127,5300031,,,,,,,2024-06-25,1,,,,,オクケイ,0
2158,9120001266215,新規,0,2024-06-25,2024-06-25,マックンタイル株式会社,,株式会社,大阪府,枚方市,宗谷１丁目９番２６号,,27,210,5730113,,,,,,,2024-06-25,1,,,,,マックンタイル,0
2163,9120003026831,新規,0,2024-06-25,2024-06-25,合同会社プライムマークインダストリー,,合同会社,大阪府,大阪市北区,梅田１丁目２番２号大阪駅前第２ビル１２－１２,,27,127,5300001,,,,,,,2024-06-25,1,,,,,プライムマークインダストリー,0
2164,9120003026906,新規,0,2024-06-25,2024-06-25,合同会社ＢＥｓ,,合同会社,大阪府,大阪市阿倍野区,播磨町２丁目８番２４号,,27,119,5450022,,,,,,,2024-06-25,1,,,,,ベス,0
2165,9120003026922,新規,0,2024-06-25,2024-06-25,合同会社さち,,合同会社,大阪府,大阪市阿倍野区,阪南町２丁目１番１号,,27,119,5450021,,,,,,,2024-06-25,1,,,,,サチ,0
2166,9120003026930,新規,0,2024-06-25,2024-06-25,かすみマネジメント合同会社,,合同会社,大阪府,大阪市西区,新町３丁目１番１７－１２１７号,,27,106,5500013,,,,,,,2024-06-25,1,,,,,カスミマネジメント,0
2169,9120901049371,新規,0,2024-06-25,2024-06-25,株式会社優希,,株式会社,大阪府,豊中市,本町１丁目１３番２０号,,27,203,5600021,,,,,,,2024-06-25,1,,,,,ユウキ,0
2170,9120903005232,新規,0,2024-06-25,2024-06-25,合同会社友栄,,合同会社,大阪府,箕面市,百楽荘２丁目５番２０号,,27,220,5620042,,,,,,,2024-06-25,1,,,,,トモエイ,0
2172,9130001077347,新規,0,2024-06-25,2024-06-25,Ｖａｌｕｕｆｙ株式会社,,株式会社,京都府,京都市下京区,中堂寺南町１３４番地ＡＳＴＥＭビル８階,,26,106,6008813,,,,,,,2024-06-25,1,,,,,バリュファイ,0
2173,9130001077355,新規,0,2024-06-25,2024-06-25,二三堂貿易株式会社,,株式会社,京都府,京都市南区,上鳥羽南唐戸町７番地７０５,,26,107,6018107,,,,,,,2024-06-25,1,,,,,ニサンドウボウエキ,0
2193,9140005027124,新規,0,2024-06-25,2024-06-25,特定非営利活動法人リベルタ学舎,,その他の設立登記法人,兵庫県,神戸市中央区,江戸町１００番６０１,,28,110,6500033,,,,,,,2024-06-25,1,,,,,リベルタガクシャ,0
2194,9150001027374,新規,0,2024-06-25,2024-06-25,ＴＡＩＹＯ　ＣＯＭＰＡＮＹ株式会社,,株式会社,奈良県,生駒市,上町台１２番地１４,,29,209,6300138,,,,,,,2024-06-25,1,,,,,タイヨーカンパニー,0
2208,9180001162128,新規,0,2024-06-25,2024-06-25,株式会社大手,,株式会社,愛知県,名古屋市港区,小碓１丁目１８５番地の３,,23,111,4550801,,,,,,,2024-06-25,1,,,,,オオテ,0
2210,9180003026999,新規,0,2024-06-25,2024-06-25,合同会社ＰＲＯＦＯＲＷＡＮ,,合同会社,愛知県,名古屋市中村区,名駅４丁目２４番５号第２森ビル４０１,,23,105,4500002,,,,,,,2024-06-25,1,,,,,プロフォーワン,0
2222,9200001042624,新規,0,2024-06-25,2024-06-25,株式会社ＲＤＺ商事,,株式会社,岐阜県,各務原市,鵜沼羽場町２丁目１６８番地２,,21,213,5090135,,,,,,,2024-06-25,1,,,,,アールディーゼットショウジ,0
2228,9220005008867,新規,0,2024-06-25,2024-06-25,一般社団法人能登町震災復興協議会,,その他の設立登記法人,石川県,鳳珠郡能登町,字宇出津新壱字９０番３甲,,17,463,9270432,,,,,,,2024-06-25,1,,,,,ノトチョウシンサイフッコウキョウギカイ,0
2230,9230001020404,新規,0,2024-06-25,2024-06-25,株式会社ＡＪ’ｓ　ＣＯＭＰＡＮＹ,,株式会社,富山県,高岡市,姫野７５５番地５,,16,202,9340093,,,,,,,2024-06-25,1,,,,,エージェイズカンパニー,0
2235,9240001063402,新規,0,2024-06-25,2024-06-25,株式会社プラム,,株式会社,広島県,福山市,御門町１丁目９番１０号,,34,207,7200805,,,,,,,2024-06-25,1,,,,,プラム,0
2239,9250001020699,新規,0,2024-06-25,2024-06-25,株式会社アルガ,,株式会社,山口県,岩国市,麻里布町１丁目３番１０号麻里布８８ビル３０１,,35,208,7400018,,,,,,,2024-06-25,1,,,,,アルガ,0
2255,9330001032199,新規,0,2024-06-25,2024-06-25,株式会社氷川アグリクラブ,,株式会社,熊本県,八代郡氷川町,網道１４２７番地,,43,468,8694812,,,,,,,2024-06-25,1,,,,,ヒカワアグリクラブ,0
2256,9340001026596,新規,0,2024-06-25,2024-06-25,株式会社Ｙｏｕ,,株式会社,鹿児島県,鹿児島市,西田３丁目２番１０号まるよしマンション４０３号,,46,201,8900046,,,,,,,2024-06-25,1,,,,,ユー,0
2279,9470001020256,新規,0,2024-06-25,2024-06-25,株式会社峰田ソーイング,,株式会社,香川県,さぬき市,志度１９９６番地,,37,206,7692101,,,,,,,2024-06-25,1,,,,,ミネタソーイング,0
2285,9700150126193,新規,0,2024-06-25,2024-06-25,ＨＩＧＨ　ＭＯＴＯＲ　ＴＲＡＤＥＲＳ,,外国会社等,千葉県,東金市,極楽寺５３８番地９ビジネスオフィス２号,,12,213,2830835,スリランカ民主社会主義共和国、キャンディ、アクラナ、デルガステンナ、Ｎｏ．２６３／１,,,,,,2024-06-25,1,,,,,ハイモータートレーダーズ,0
2286,9700150126202,新規,0,2024-06-25,2024-06-25,ＪＥＴ　ＨＯＬＤＩＮＧ　ＣＯ．，ＬＴＤ,,外国会社等,神奈川県,相模原市緑区,橋本３丁目２０－１４,,14,151,2520143,７Ｆ，－２，Ｎｏ．３００，Ｙａｎｇｇｕａｎｇ　Ｓｔ．，Ｎｅｉｈｕ　Ｄｉｓｔ．，Ｔａｉｐｅｉ　Ｃｉｔｙ，Ｔａｉｗａｎ,,,,,,2024-06-25,1,,,,,ジエツトホールデイング,0
