sequenceNumber,corporateNumber,process,correct,updateDate,changeDate,name,nameImageId,kind,prefectureName,cityName,streetNumber,addressImageId,prefectureCode,cityCode,postCode,addressOutside,addressOutsideImageId,closeDate,closeCause,successorCorporateNumber,changeCause,assignmentDate,latest,enName,enPrefectureName,enCityName,enAddressOutside,furigana,hihyoji
15,1010001223721,新規,0,2022-01-12,2022-01-12,株式会社バイオゲンチウムジャパン,,株式会社,東京都,中央区,日本橋兜町１７番２号兜町第６葉山ビル４階,,13,102,1030026,,,,,,,2022-01-12,1,,,,,バイオゲンチウムジャパン,0
17,1010003036700,新規,0,2022-01-12,2022-01-12,合同会社ＪＲＷＤファンド京都宇治,,合同会社,東京都,中央区,日本橋１丁目４番１号日本橋一丁目ビルディング,,13,102,1030027,,,,,,,2022-01-12,1,,,,,ジェイアールダブリューディーファンドキョウトウジ,0
19,1010103001843,新規,0,2022-01-12,2022-01-12,合同会社ファンベル,,合同会社,東京都,八王子市,子安町１丁目３０番８号,,13,201,1920904,,,,,,,2022-01-12,1,,,,,ファンベル,0
26,1010401164870,新規,0,2022-01-12,2022-01-12,株式会社プログレス,,株式会社,東京都,港区,東麻布３丁目８番８号明商ビル３０２,,13,103,1060044,,,,,,,2022-01-12,1,,,,,プログレス,0
27,1010405020582,新規,0,2022-01-12,2022-01-12,Ｋｏｉ一般社団法人,,その他の設立登記法人,東京都,港区,虎ノ門３丁目２２番１０－２０１号,,13,103,1050001,,,,,,,2022-01-12,1,,,,,コイ,0
35,1010901050125,新規,0,2022-01-12,2022-01-12,株式会社フジリーガルサービス,,株式会社,東京都,世田谷区,北沢４丁目８番２８号,,13,112,1550031,,,,,,,2022-01-12,1,,,,,フジリーガルサービス,0
49,1011001144866,新規,0,2022-01-12,2022-01-12,株式会社ＪＰＹＸ,,株式会社,東京都,渋谷区,渋谷３丁目１番９号ＹＡＺＡＷＡビル３階,,13,113,1500002,,,,,,,2022-01-12,1,,,,,ジェイピーワイエックス,0
50,1011001144882,新規,0,2022-01-12,2022-01-12,株式会社Ｆａｎｓｔａ,,株式会社,東京都,渋谷区,渋谷２丁目２４番１２号渋谷スクランブルスクエア,,13,113,1500002,,,,,,,2022-01-12,1,,,,,ファンスタ,0
51,1011001144973,新規,0,2022-01-12,2022-01-12,株式会社ｗａｖｅｓ．,,株式会社,東京都,渋谷区,神宮前６丁目１３番２号田島ビル２Ｆ,,13,113,1500001,,,,,,,2022-01-12,1,,,,,ウェイブス,0
62,1011101097460,新規,0,2022-01-12,2022-01-12,スマイリィ株式会社,,株式会社,東京都,新宿区,西新宿３丁目３番１３号西新宿水間ビル６階,,13,104,1600023,,,,,,,2022-01-12,1,,,,,スマイリィ,0
67,1011201023523,新規,0,2022-01-12,2022-01-12,ＩＰ　ＴＲＡＤＥＲＳ株式会社,,株式会社,東京都,中野区,上鷺宮５丁目２７番７号,,13,114,1650031,,,,,,,2022-01-12,1,,,,,アイピートレイダーズ,0
68,1011203003721,新規,0,2022-01-12,2022-01-12,合同会社ノハコ,,合同会社,東京都,中野区,江原町２丁目７番１６号,,13,114,1650023,,,,,,,2022-01-12,1,,,,,ノハコ,0
93,1012301012829,新規,0,2022-01-12,2022-01-12,株式会社イードキュメント,,株式会社,東京都,町田市,三輪町２０番地２,,13,209,1950054,,,,,,,2022-01-12,1,,,,,イードキュメント,0
95,1012401038740,新規,0,2022-01-12,2022-01-12,株式会社ＮＳ－Ａｔｅｌｉｅｒ,,株式会社,東京都,府中市,緑町１丁目１２番地の６ミオカステーロ府中緑町１００２,,13,206,1830006,,,,,,,2022-01-12,1,,,,,エヌエスアトリエ,0
98,1012703002386,新規,0,2022-01-12,2022-01-12,合同会社多華,,合同会社,東京都,西東京市,泉町３丁目８番１１号,,13,229,2020011,,,,,,,2022-01-12,1,,,,,タカ,0
102,1012803002674,新規,0,2022-01-12,2022-01-12,合同会社Ｓｕｒｇｅ,,合同会社,東京都,立川市,錦町１丁目５番２０号第１西村ビル１階,,13,202,1900022,,,,,,,2022-01-12,1,,,,,サージ,0
106,1013301048532,新規,0,2022-01-12,2022-01-12,コウ株式会社,,株式会社,東京都,豊島区,池袋１丁目１２－１ハニービーＨ室,,13,116,1700014,,,,,,,2022-01-12,1,,,,,コウ,0
107,1013303005985,新規,0,2022-01-12,2022-01-12,ＮＴＭＣ合同会社,,合同会社,東京都,豊島区,南池袋１丁目１―６―３０２,,13,116,1710022,,,,,,,2022-01-12,1,,,,,エヌティエムシー,0
113,1020001144594,新規,0,2022-01-12,2022-01-12,株式会社Ｈｅｙ,,株式会社,神奈川県,横浜市都筑区,早渕１丁目１２番１号バウハイム２１Ｃ２,,14,118,2240025,,,,,,,2022-01-12,1,,,,,ヘイ,0
114,1020001144669,新規,0,2022-01-12,2022-01-12,株式会社黒澤建築,,株式会社,神奈川県,横浜市港南区,芹が谷４丁目３２番３３号,,14,111,2330006,,,,,,,2022-01-12,1,,,,,クロサワケンチク,0
115,1020001144685,新規,0,2022-01-12,2022-01-12,株式会社彗星,,株式会社,神奈川県,横浜市中区,弥生町２丁目１８番地１ロイヤルステージＳ・Ｔ大通り公園Ｂ００２号室,,14,104,2310058,,,,,,,2022-01-12,1,,,,,スイセイ,0
122,1020003021081,新規,0,2022-01-12,2022-01-12,合同会社Ｏｎｅ,,合同会社,神奈川県,横浜市港北区,菊名６丁目１９番３７号グランケイ２０３号,,14,109,2220011,,,,,,,2022-01-12,1,,,,,ワン,0
138,1030001146251,新規,0,2022-01-12,2022-01-12,株式会社菊池設備工業,,株式会社,埼玉県,富士見市,水谷東２丁目４５番１７号,,11,235,3540013,,,,,,,2022-01-12,1,,,,,キクチセツビコウギョウ,0
139,1030001146326,新規,0,2022-01-12,2022-01-12,株式会社ＭＯＲＨ,,株式会社,埼玉県,さいたま市南区,別所１丁目１３番３号,,11,108,3360021,,,,,,,2022-01-12,1,,,,,エムオーアールエイチ,0
144,1040001121625,新規,0,2022-01-12,2022-01-12,株式会社やっちゃば本舗,,株式会社,千葉県,船橋市,三咲４丁目１番１１号,,12,204,2740812,,,,,,,2022-01-12,1,,,,,ヤッチャバホンポ,0
145,1040001121633,新規,0,2022-01-12,2022-01-12,株式会社ラキア,,株式会社,千葉県,千葉市稲毛区,長沼原町２２４番地６,,12,103,2630001,,,,,,,2022-01-12,1,,,,,ラキア,0
146,1040001121658,新規,0,2022-01-12,2022-01-12,株式会社キャットテール,,株式会社,千葉県,松戸市,新松戸３丁目２８９番地,,12,207,2700034,,,,,,,2022-01-12,1,,,,,キャットテール,0
150,1040003019248,新規,0,2022-01-12,2022-01-12,ゼロブート合同会社,,合同会社,千葉県,市川市,塩浜４丁目２番３棟１４１７号（ハイタウン塩浜）,,12,203,2720127,,,,,,,2022-01-12,1,,,,,ゼロブート,0
151,1040003019256,新規,0,2022-01-12,2022-01-12,合同会社リバティーエナジー,,合同会社,千葉県,君津市,人見１０５５番地１４人見シーサイドハイツＢ１０１,,12,225,2991147,,,,,,,2022-01-12,1,,,,,リバティーエナジー,0
155,1050001050435,新規,0,2022-01-12,2022-01-12,株式会社大建設,,株式会社,茨城県,鹿嶋市,大字宮中１２３番地１９,,08,222,3140031,,,,,,,2022-01-12,1,,,,,マサルケンセツ,0
156,1050001050443,新規,0,2022-01-12,2022-01-12,株式会社コバヤシ,,株式会社,茨城県,下妻市,古沢４２０番地,,08,210,3040041,,,,,,,2022-01-12,1,,,,,コバヤシ,0
160,1050003006294,新規,0,2022-01-12,2022-01-12,ＣＨＡＮＵ　ＡＵＴＯ　ＴＲＡＤＥＲ合同会社,,合同会社,茨城県,潮来市,堀之内１４７３番地Ｂ,,08,223,3112433,,,,,,,2022-01-12,1,,,,,チャヌオートトレーダー,0
161,1060001034461,新規,0,2022-01-12,2022-01-12,株式会社川村工業,,株式会社,栃木県,さくら市,氏家３４９８番地２２０,,09,214,3291311,,,,,,,2022-01-12,1,,,,,カワムラコウギョウ,0
168,1060003003919,新規,0,2022-01-12,2022-01-12,合同会社Ｒ．Ｓ．Ｆ,,合同会社,栃木県,宇都宮市,川田町１０４８－６,,09,201,3210111,,,,,,,2022-01-12,1,,,,,アールエスエフ,0
175,1070001038833,新規,0,2022-01-12,2022-01-12,株式会社Ｅｃｌａｔ,,株式会社,群馬県,高崎市,菅谷町７７番地１７３,,10,202,3703522,,,,,,,2022-01-12,1,,,,,エクラ,0
181,1080001024683,新規,0,2022-01-12,2022-01-12,株式会社山本プレシジョン,,株式会社,静岡県,静岡市葵区,産女１３１４番地の４４,,22,101,4211222,,,,,,,2022-01-12,1,,,,,ヤマモトプレシジョン,0
183,1080101023032,新規,0,2022-01-12,2022-01-12,株式会社ＬＯＣＯ　ＳＴＵＤＩＯ,,株式会社,静岡県,裾野市,深良４８０番地,,22,220,4101102,,,,,,,2022-01-12,1,,,,,ロコスタジオ,0
185,1080403004449,新規,0,2022-01-12,2022-01-12,もこあもこ合同会社,,合同会社,静岡県,袋井市,神長９番地の２,,22,216,4370028,,,,,,,2022-01-12,1,,,,,モコアモコ,0
186,1090001017356,新規,0,2022-01-12,2022-01-12,株式会社アルク,,株式会社,山梨県,甲府市,伊勢４丁目６番１５号,,19,201,4000856,,,,,,,2022-01-12,1,,,,,アルク,0
187,1090003002018,新規,0,2022-01-12,2022-01-12,合同会社ジョルコ,,合同会社,山梨県,甲斐市,下今井３６８１－１,,19,210,4000105,,,,,,,2022-01-12,1,,,,,ジョルコ,0
195,1100003006363,新規,0,2022-01-12,2022-01-12,マイクロビジネス合同会社,,合同会社,長野県,松本市,中央２丁目４－１０,,20,202,3900811,,,,,,,2022-01-12,1,,,,,マイクロビジネス,0
200,1110001036345,新規,0,2022-01-12,2022-01-12,株式会社松祥,,株式会社,新潟県,上越市,春日新田４丁目２番１９号,,15,222,9420061,,,,,,,2022-01-12,1,,,,,マツショウ,0
201,1110001036353,新規,0,2022-01-12,2022-01-12,株式会社妙匠,,株式会社,新潟県,新潟市中央区,川端町３丁目１５番地１コープ野村川端町Ｂ２０１号,,15,103,9518053,,,,,,,2022-01-12,1,,,,,ミョウショウ,0
220,1120001242842,新規,0,2022-01-12,2022-01-12,安普株式会社,,株式会社,大阪府,大阪市西区,靱本町３丁目１０－２０兆豊阿波座ビル５０１号室,,27,106,5500004,,,,,,,2022-01-12,1,,,,,アンプ,0
221,1120001242933,新規,0,2022-01-12,2022-01-12,株式会社ジョブ価値,,株式会社,大阪府,大阪市鶴見区,諸口６丁目３番５４－３１０号,,27,124,5380051,,,,,,,2022-01-12,1,,,,,ジョブカチ,0
224,1120003020916,新規,0,2022-01-12,2022-01-12,ＯＭＬ合同会社,,合同会社,大阪府,大阪市中央区,東心斎橋１丁目８番１１－１７０８号,,27,128,5420083,,,,,,,2022-01-12,1,,,,,オーエムエル,0
228,1120101064914,新規,0,2022-01-12,2022-01-12,松村電設株式会社,,株式会社,大阪府,松原市,別所５丁目２番５号,,27,217,5800005,,,,,,,2022-01-12,1,,,,,マツムラデンセツ,0
230,1120103004513,新規,0,2022-01-12,2022-01-12,合同会社芳香,,合同会社,大阪府,岸和田市,西之内町２番３２号,,27,202,5960044,,,,,,,2022-01-12,1,,,,,ホウカ,0
235,1120901045428,新規,0,2022-01-12,2022-01-12,日本ハウジングサポート株式会社,,株式会社,大阪府,摂津市,新在家２丁目３０番１号,,27,224,5660055,,,,,,,2022-01-12,1,,,,,ニホンハウジングサポート,0
237,1122001035474,新規,0,2022-01-12,2022-01-12,株式会社夢酵母,,株式会社,大阪府,東大阪市,友井４丁目６番５号,,27,227,5770816,,,,,,,2022-01-12,1,,,,,ユメコウボ,0
239,1130003007680,新規,0,2022-01-12,2022-01-12,合同会社リーディング・ドルフィン,,合同会社,京都府,舞鶴市,字円満寺１４２番地２,,26,202,6240854,,,,,,,2022-01-12,1,,,,,リーディングドルフィン,0
243,1140001124444,新規,0,2022-01-12,2022-01-12,株式会社サンメック,,株式会社,兵庫県,赤穂郡上郡町,上郡４１３番地,,28,481,6781231,,,,,,,2022-01-12,1,,,,,サンメック,0
244,1140001124485,新規,0,2022-01-12,2022-01-12,株式会社ＯＣ,,株式会社,兵庫県,尼崎市,道意町５丁目３６番地,,28,202,6600083,,,,,,,2022-01-12,1,,,,,オーシー,0
252,1160001023933,新規,0,2022-01-12,2022-01-12,Ｌｉｎｄａ　Ｊａｐａｎ　Ｉｎｔｅｒｎａｔｉｏｎａｌ株式会社,,株式会社,滋賀県,湖南市,下田６３７番地３２,,25,211,5203201,,,,,,,2022-01-12,1,,,,,リンダジャパンインターナショナル,0
253,1160005011026,新規,0,2022-01-12,2022-01-12,税理士法人鈴木税務会計事務所,,その他の設立登記法人,滋賀県,大津市,中庄２丁目１番５４号,,25,201,5200837,,,,,,,2022-01-12,1,,,,,スズキゼイムカイケイジムショ,0
254,1170001016928,新規,0,2022-01-12,2022-01-12,株式会社中西瓦施工店,,株式会社,和歌山県,御坊市,湯川町小松原５０番地３,,30,205,6440012,,,,,,,2022-01-12,1,,,,,ナカニシカワラセコウテン,0
264,1180003023351,新規,0,2022-01-12,2022-01-12,オリーブ合同会社,,合同会社,愛知県,名古屋市中区,栄２丁目２番１号広小路伏見中駒ビル２Ｆ－９,,23,106,4600008,,,,,,,2022-01-12,1,,,,,オリーブ,0
265,1180003023384,新規,0,2022-01-12,2022-01-12,グラスインフ合同会社,,合同会社,愛知県,名古屋市千種区,南ケ丘２丁目８番４５号－３,,23,101,4640042,,,,,,,2022-01-12,1,,,,,グラスインフ,0
268,1200001039636,新規,0,2022-01-12,2022-01-12,リラファイン株式会社,,株式会社,岐阜県,大垣市,高砂町１丁目３３番地（ローレルコート大垣高砂町１００３号）,,21,202,5030889,,,,,,,2022-01-12,1,,,,,リラファイン,0
274,1220005008627,新規,0,2022-01-12,2022-01-12,一般社団法人北陸建設人材支援機構,,その他の設立登記法人,石川県,金沢市,長田本町ホ８番地,,17,201,9200041,,,,,,,2022-01-12,1,,,,,ホクリクケンセツジンザイシエンキコウ,0
276,1230001019180,新規,0,2022-01-12,2022-01-12,株式会社Ｔｅｍｐｅｓｔ,,株式会社,富山県,中新川郡上市町,正印２５７ガイナシティー,,16,322,9300357,,,,,,,2022-01-12,1,,,,,テンペスト,0
286,1240001059168,新規,0,2022-01-12,2022-01-12,株式会社ＲＩＳＥＰｌｕｓ,,株式会社,広島県,広島市安佐南区,安東６丁目８番１７－１０２号,,34,105,7310153,,,,,,,2022-01-12,1,,,,,ライズプラス,0
287,1240001059176,新規,0,2022-01-12,2022-01-12,株式会社エヌケーネクスト,,株式会社,広島県,福山市,新涯町４丁目９番３７号,,34,207,7210955,,,,,,,2022-01-12,1,,,,,エヌケーネクスト,0
288,1240001059192,新規,0,2022-01-12,2022-01-12,株式会社恵経営,,株式会社,広島県,広島市西区,井口台１丁目１番５号,,34,104,7330844,,,,,,,2022-01-12,1,,,,,メグミケイエイ,0
290,1240003005434,新規,0,2022-01-12,2022-01-12,さんあいオフィス合同会社,,合同会社,広島県,竹原市,高崎町２４１７－４０５,,34,203,7292313,,,,,,,2022-01-12,1,,,,,サンアイオフィス,0
291,1240003005442,新規,0,2022-01-12,2022-01-12,合同会社ＳＯＲＡプランニング,,合同会社,広島県,広島市佐伯区,五日市中央２丁目９－１２用品第一ビル３０５,,34,108,7315128,,,,,,,2022-01-12,1,,,,,ソラプランニング,0
294,1250003002975,新規,0,2022-01-12,2022-01-12,Ｂｒａｇｉ　Ｍｕｓｉｃ合同会社,,合同会社,山口県,宇部市,海南町５番１６号,,35,202,7550038,,,,,,,2022-01-12,1,,,,,ブラギミュージック,0
296,1260001036405,新規,0,2022-01-12,2022-01-12,株式会社ｓｈｅｅｐ,,株式会社,岡山県,岡山市北区,田町１丁目１２番７号,,33,101,7000825,,,,,,,2022-01-12,1,,,,,シープ,0
301,1280001008600,新規,0,2022-01-12,2022-01-12,環境デジタルソリューション株式会社,,株式会社,島根県,松江市,浜乃木２丁目１５番１７号メゾンシルバーＩＩ２０２,00125370,32,201,6900044,,,,,,,2022-01-12,1,,,,,カンキョウデジタルソリューション,0
307,1290001096058,新規,0,2022-01-12,2022-01-12,株式会社高見,00125371,株式会社,福岡県,福岡市中央区,笹丘２丁目１８番１４号,,40,133,8100034,,,,,,,2022-01-12,1,,,,,タカミ,0
309,1310001017671,新規,0,2022-01-12,2022-01-12,サンケンアーキテクツ株式会社,,株式会社,長崎県,長崎市,目覚町３番５－３０２号,,42,201,8528105,,,,,,,2022-01-12,1,,,,,サンケンアーキテクツ,0
312,1320003003693,新規,0,2022-01-12,2022-01-12,合同会社働く未来,,合同会社,大分県,大分市,六坊北町７番４１号,,44,201,8700841,,,,,,,2022-01-12,1,,,,,,0
317,1330003009194,新規,0,2022-01-12,2022-01-12,合同会社ルークス,,合同会社,熊本県,熊本市東区,小峯３丁目１番２０号プレシャス２ｎｄ１０１号,,43,102,8620933,,,,,,,2022-01-12,1,,,,,ルークス,0
319,1340001024418,新規,0,2022-01-12,2022-01-12,株式会社川元マンションズ,,株式会社,鹿児島県,鹿児島市,新屋敷町２１番１０号,,46,201,8920838,,,,,,,2022-01-12,1,,,,,カワモトマンションズ,0
326,1350003004004,新規,0,2022-01-12,2022-01-12,合同会社恭美,,合同会社,宮崎県,北諸県郡三股町,大字蓼池１８１５番地１３,,45,341,8891914,,,,,,,2022-01-12,1,,,,,キョウメイ,0
330,1360001029852,新規,0,2022-01-12,2022-01-12,ジャパンプレミアムベジタブル株式会社,,株式会社,沖縄県,那覇市,金城４丁目１番地１レジデンスタカラ５０１,,47,201,9010155,,,,,,,2022-01-12,1,,,,,,0
333,1360003011701,新規,0,2022-01-12,2022-01-12,合同会社大海,,合同会社,沖縄県,沖縄市,字比屋根１７４０番１,,47,211,9042173,,,,,,,2022-01-12,1,,,,,タイカイ,0
338,1400001015732,新規,0,2022-01-12,2022-01-12,株式会社鳶・菊池組,,株式会社,岩手県,北上市,立花２５地割３４番地７,,03,206,0240043,,,,,,,2022-01-12,1,,,,,トビキクチグミ,0
347,1410005006446,新規,0,2022-01-12,2022-01-12,農事組合法人上町ファーム,,その他の設立登記法人,秋田県,秋田市,四ツ小屋字館野１１９番地,,05,201,0101417,,,,,,,2022-01-12,1,,,,,カミチョウファーム,0
355,1430001085723,新規,0,2022-01-12,2022-01-12,株式会社サン・アート,,株式会社,北海道,岩見沢市,北本町東９丁目３番８号,,01,210,0680057,,,,,,,2022-01-12,1,,,,,サンアート,0
356,1430001085764,新規,0,2022-01-12,2022-01-12,株式会社ロールパル,,株式会社,北海道,札幌市中央区,大通西２丁目５番地,,01,101,0600042,,,,,,,2022-01-12,1,,,,,ロールパル,0
358,1430003013509,新規,0,2022-01-12,2022-01-12,合同会社伸栄運送,,合同会社,北海道,千歳市,北斗３丁目２番１０号,,01,224,0660073,,,,,,,2022-01-12,1,,,,,シンエイウンソウ,0
362,1450001013590,新規,0,2022-01-12,2022-01-12,モバイルホーム株式会社,,株式会社,北海道,上川郡東川町,北町３丁目４番８号,,01,458,0711426,,,,,,,2022-01-12,1,,,,,モバイルホーム,0
366,1490001010089,新規,0,2022-01-12,2022-01-12,株式会社ＬＵＫＥ,,株式会社,高知県,高知市,百石町１丁目６番８号,,39,201,7808015,,,,,,,2022-01-12,1,,,,,ルーク,0
368,1500001023923,新規,0,2022-01-12,2022-01-12,甘美株式会社,,株式会社,愛媛県,松山市,松ノ木１丁目８番１４号,,38,201,7918071,,,,,,,2022-01-12,1,,,,,カンビ,0
369,1700150106574,新規,0,2022-01-12,2022-01-12,Ｍ　Ｍ　ＭＯＴＯＲＳ,,外国会社等,千葉県,八街市,砂５５－９第０５事務所,,12,230,2891121,スリランカ民主社会主義共和国、クルネーガラ、ダマラスリヤ、メインストリート１５３番地,,,,,,2022-01-12,1,,,,,エムエムモータース,0
380,2010003036708,新規,0,2022-01-12,2022-01-12,合同会社明日の窓,,合同会社,東京都,中央区,築地２丁目１番２－８０４号,,13,102,1040045,,,,,,,2022-01-12,1,,,,,アシタノマド,0
381,2010005034437,新規,0,2022-01-12,2022-01-12,Ｍａｒｂｌｅ２一般社団法人,,その他の設立登記法人,東京都,千代田区,丸の内３丁目１番１号東京共同会計事務所内,,13,101,1000005,,,,,,,2022-01-12,1,,,,,マーブルツー,0
386,2010405020557,新規,0,2022-01-12,2022-01-12,一般社団法人全国ユニット＆ケア研修研究会,,その他の設立登記法人,東京都,港区,西新橋１丁目１８番６号,,13,103,1050003,,,,,,,2022-01-12,1,,,,,ゼンコクユニットアンドケアケンシュウケンキュウカイ,0
390,2010601060480,新規,0,2022-01-12,2022-01-12,株式会社ＲＳ　Ｐｒｏｊｅｃｔ,,株式会社,東京都,江東区,東雲１丁目９番２２－１４２１号,,13,108,1350062,,,,,,,2022-01-12,1,,,,,アールエスプロジェクト,0
394,2010701042040,新規,0,2022-01-12,2022-01-12,ＭＵＳＶＩ株式会社,,株式会社,東京都,品川区,西五反田１丁目５番１号Ａ－ＰＬＡＣＥ五反田駅前,,13,109,1410031,,,,,,,2022-01-12,1,,,,,ムスビ,0
400,2010803004021,新規,0,2022-01-12,2022-01-12,アラタクシス合同会社,,合同会社,東京都,大田区,西蒲田４丁目６番７号,,13,111,1440051,,,,,,,2022-01-12,1,,,,,アラタクシス,0
401,2010805002907,新規,0,2022-01-12,2022-01-12,社会保険労務士法人うぐいす労務,,その他の設立登記法人,東京都,大田区,大森中２丁目２１番５－３０６号,,13,111,1430014,,,,,,,2022-01-12,1,,,,,ウグイスロウム,0
402,2010901050116,新規,0,2022-01-12,2022-01-12,株式会社ＵＸデザイン,,株式会社,東京都,世田谷区,深沢３丁目２２番１１号,,13,112,1580081,,,,,,,2022-01-12,1,,,,,ユーエックスデザイン,0
411,2011001144972,新規,0,2022-01-12,2022-01-12,株式会社禮真,,株式会社,東京都,目黒区,自由が丘１丁目１２番４号,,13,110,1520035,,,,,,,2022-01-12,1,,,,,レイシン,0
413,2011003013960,新規,0,2022-01-12,2022-01-12,合同会社テンリス,,合同会社,東京都,渋谷区,渋谷２丁目１９番１５号宮益坂ビルディング６０９,,13,113,1500002,,,,,,,2022-01-12,1,,,,,テンリス,0
415,2011101097451,新規,0,2022-01-12,2022-01-12,株式会社Ｂｅｙｏｎｄ　Ｅｘｐｅｒｉｅｎｃｅ,,株式会社,東京都,新宿区,中落合４丁目２５番１７号,,13,104,1610032,,,,,,,2022-01-12,1,,,,,ビヨンドエクスペリエンス,0
417,2011103011336,新規,0,2022-01-12,2022-01-12,Ａｖａｎｔｉ　Ｆｉｒｓｔ合同会社,,合同会社,東京都,新宿区,西新宿８丁目１４－１９小林ビル８Ｆ,,13,104,1600023,,,,,,,2022-01-12,1,,,,,アバンティファースト,0
418,2011103011352,新規,0,2022-01-12,2022-01-12,ＡＣＴ　ＮＯＷ合同会社,,合同会社,東京都,新宿区,舟町９番地４ＳＯＵ四谷舟町３０３,,13,104,1600006,,,,,,,2022-01-12,1,,,,,アクトナウ,0
428,2011501027644,新規,0,2022-01-12,2022-01-12,株式会社Ｊｏｙｐｏｔｅｃｈ,,株式会社,東京都,荒川区,南千住６丁目３７番７－４０８号,,13,118,1160003,,,,,,,2022-01-12,1,,,,,ジョイポテク,0
444,2011801040173,新規,0,2022-01-12,2022-01-12,沂蘭株式会社,,株式会社,東京都,足立区,花畑４丁目１８番１４－１０５,,13,121,1210061,,,,,,,2022-01-12,1,,,,,ギラン,0
445,2011801040181,新規,0,2022-01-12,2022-01-12,ＯｎｅＯｃｅａｎ株式会社,,株式会社,東京都,葛飾区,新小岩１丁目１０番６号,,13,122,1240024,,,,,,,2022-01-12,1,,,,,ワンオーシャン,0
461,2012703002385,新規,0,2022-01-12,2022-01-12,合同会社ＢＮＫＳ,,合同会社,東京都,小平市,大沼町２丁目２９番６－３０１号,,13,211,1870001,,,,,,,2022-01-12,1,,,,,バンクス,0
463,2012801021329,新規,0,2022-01-12,2022-01-12,株式会社ｖｕｌｎｅｒａｂｌｅ,,株式会社,東京都,立川市,錦町１丁目４－４サニービル２階ＣＳ－１３２,,13,202,1900022,,,,,,,2022-01-12,1,,,,,バルネラブル,0
464,2012803002673,新規,0,2022-01-12,2022-01-12,サービスサポート合同会社,,合同会社,東京都,武蔵村山市,大南２丁目８８番地の５,,13,223,2080013,,,,,,,2022-01-12,1,,,,,サービスサポート,0
465,2013101008818,新規,0,2022-01-12,2022-01-12,株式会社加園建設,,株式会社,東京都,あきる野市,雨間２２２番地７エスポワール大塚１０４,,13,228,1970825,,,,,,,2022-01-12,1,,,,,カソノケンセツ,0
479,2020001144676,新規,0,2022-01-12,2022-01-12,株式会社Ｈ＆Ｂ,,株式会社,神奈川県,横浜市港北区,新横浜３丁目１６番地１５新横浜磯栄ビル６階,,14,109,2220033,,,,,,,2022-01-12,1,,,,,エイチアンドビー,0
485,2020003021080,新規,0,2022-01-12,2022-01-12,合同会社みなとみらいリフォーム,,合同会社,神奈川県,横浜市南区,山谷９０番地,,14,105,2320036,,,,,,,2022-01-12,1,,,,,ミナトミライリフォーム,0
486,2020003021089,新規,0,2022-01-12,2022-01-12,合同会社エレファン,,合同会社,神奈川県,横浜市旭区,鶴ケ峰本町３丁目２６番地１５号,,14,112,2410021,,,,,,,2022-01-12,1,,,,,エレファン,0
487,2020003021097,新規,0,2022-01-12,2022-01-12,ｈｕｇ　ｃａｒｅ合同会社,,合同会社,神奈川県,川崎市高津区,末長４丁目１８番２５号,,14,134,2130013,,,,,,,2022-01-12,1,,,,,ハグケアー,0
501,2030001146259,新規,0,2022-01-12,2022-01-12,株式会社ばなな,,株式会社,埼玉県,川口市,芝２丁目１２番３号Ｂ,,11,203,3330866,,,,,,,2022-01-12,1,,,,,バナナ,0
502,2030001146325,新規,0,2022-01-12,2022-01-12,株式会社０２０,,株式会社,埼玉県,朝霞市,田島２丁目３番４－３０１号,,11,227,3510032,,,,,,,2022-01-12,1,,,,,ゼロニーゼロ,0
507,2030003018613,新規,0,2022-01-12,2022-01-12,合同会社ＡＤＥＰＴ,,合同会社,埼玉県,入間市,扇町屋１丁目９番１７号,,11,225,3580022,,,,,,,2022-01-12,1,,,,,アデプト,0
508,2030003018638,新規,0,2022-01-12,2022-01-12,Ｖｅｎｅｚｉａ合同会社,,合同会社,埼玉県,川口市,川口４丁目１１－１２－４０５,,11,203,3320015,,,,,,,2022-01-12,1,,,,,ヴェネツィア,0
513,2040001121624,新規,0,2022-01-12,2022-01-12,泉田配管株式会社,,株式会社,千葉県,いすみ市,大原７９３８番地６,,12,238,2980004,,,,,,,2022-01-12,1,,,,,イズミダハイカン,0
514,2040001121657,新規,0,2022-01-12,2022-01-12,株式会社車検ｐｌｕｓ,,株式会社,千葉県,浦安市,北栄４丁目１５番５号,,12,227,2790002,,,,,,,2022-01-12,1,,,,,シャケンプラス,0
515,2040001121665,新規,0,2022-01-12,2022-01-12,株式会社Ｋｒｅｏ,,株式会社,千葉県,流山市,美原４丁目２１３番地の３３,,12,220,2700103,,,,,,,2022-01-12,1,,,,,クレオ,0
517,2040003019263,新規,0,2022-01-12,2022-01-12,合同会社ＮＥＭ　Ｏｆｆｉｃｅ,,合同会社,千葉県,佐倉市,上志津原３６５番地２２,,12,212,2850844,,,,,,,2022-01-12,1,,,,,エヌイーエムオフィス,0
519,2050001050426,新規,0,2022-01-12,2022-01-12,株式会社オノケン,,株式会社,茨城県,つくば市,北太田５９９番地１,,08,220,3004232,,,,,,,2022-01-12,1,,,,,オノケン,0
520,2050001050442,新規,0,2022-01-12,2022-01-12,株式会社ウロデラ,,株式会社,茨城県,日立市,中成沢町３丁目１４番７号,,08,202,3160033,,,,,,,2022-01-12,1,,,,,ウロデラ,0
522,2050003006302,新規,0,2022-01-12,2022-01-12,合同会社Ｐｒｏｐｒｉｏ　Ｃｏｎｄｉｔｉｏｎｉｎｇ,,合同会社,茨城県,つくば市,学園南２丁目２－７レーベンつくば研究学園４０６,,08,220,3050818,,,,,,,2022-01-12,1,,,,,プロプリオコンディショニング,0
525,2060001034460,新規,0,2022-01-12,2022-01-12,株式会社Ｆ．Ｄ．Ｃプロジェクト,,株式会社,栃木県,大田原市,乙連沢８５５番地６,,09,210,3240001,,,,,,,2022-01-12,1,,,,,エフディーシープロジェクト,0
538,2080101023031,新規,0,2022-01-12,2022-01-12,株式会社ともちゃん農園,,株式会社,静岡県,富士市,中野７３９番地,,22,210,4170809,,,,,,,2022-01-12,1,,,,,トモチャンノウエン,0
555,2120001242742,新規,0,2022-01-12,2022-01-12,ブライトコンサルティング株式会社,,株式会社,大阪府,大阪市北区,曾根崎新地２丁目６－２３－５階,,27,127,5300002,,,,,,,2022-01-12,1,,,,,ブライトコンサルティング,0
556,2120001242998,新規,0,2022-01-12,2022-01-12,株式会社ＯＮＬＹ,,株式会社,大阪府,大阪市東成区,大今里南１丁目１８番１０号,,27,115,5370013,,,,,,,2022-01-12,1,,,,,オンリー,0
558,2120003020931,新規,0,2022-01-12,2022-01-12,みのり医療合同会社,,合同会社,大阪府,大阪市天王寺区,生玉寺町７－６１－４０２,,27,109,5430073,,,,,,,2022-01-12,1,,,,,ミノリイリョウ,0
575,2130001070878,新規,0,2022-01-12,2022-01-12,株式会社ＬａｖｙＢｒｉｄｇｅ,,株式会社,京都府,京都市中京区,東大文字町２９２番地寺町詩の小路ビル５階,,26,104,6048043,,,,,,,2022-01-12,1,,,,,ラヴィブリッジ,0
580,2130005016357,新規,0,2022-01-12,2022-01-12,一般社団法人つなぐ,,その他の設立登記法人,京都府,京都市右京区,常盤古御所町１番地９,,26,108,6168214,,,,,,,2022-01-12,1,,,,,ツナグ,0
591,2140003017190,新規,0,2022-01-12,2022-01-12,合同会社イムイェーム,,合同会社,兵庫県,神戸市東灘区,森南町１丁目１６番２号,,28,101,6580011,,,,,,,2022-01-12,1,,,,,イムイェーム,0
592,2140003017199,新規,0,2022-01-12,2022-01-12,合同会社中村葵会計事務所,,合同会社,兵庫県,姫路市,神子岡前３丁目３番５号,,28,201,6700055,,,,,,,2022-01-12,1,,,,,ナカムラアオイカイケイジムショ,0
593,2140003017208,新規,0,2022-01-12,2022-01-12,マメツルジャパン合同会社,,合同会社,兵庫県,神戸市西区,学園東町３丁目１８８４－３５－６２６,,28,111,6512102,,,,,,,2022-01-12,1,,,,,マメツルジャパン,0
597,2150001025236,新規,0,2022-01-12,2022-01-12,株式会社２ＲＬｉｎｅ．,,株式会社,奈良県,奈良市,川上町４３９番地３,,29,201,6308202,,,,,,,2022-01-12,1,,,,,ツールライン,0
609,2180001149395,新規,0,2022-01-12,2022-01-12,株式会社ｍｉｎ－ｔｏ,,株式会社,愛知県,名古屋市中区,栄１丁目２２番７号,,23,106,4600008,,,,,,,2022-01-12,1,,,,,ミント,0
610,2180001149420,新規,0,2022-01-12,2022-01-12,株式会社ルブラン,,株式会社,愛知県,名古屋市名東区,藤巻町２丁目２番地の１２７３,,23,115,4650075,,,,,,,2022-01-12,1,,,,,ルブラン,0
611,2180001149494,新規,0,2022-01-12,2022-01-12,株式会社Ｎａｔｕｒａｌ,,株式会社,愛知県,名古屋市中区,新栄１丁目１６番２号,,23,106,4600007,,,,,,,2022-01-12,1,,,,,ナチュラル,0
615,2180003023350,新規,0,2022-01-12,2022-01-12,合同会社ＬｉｍｅＦｒｅｓｈ,,合同会社,愛知県,一宮市,木曽川町黒田字北宿五の切１２１－２グレース木曽川Ｂ１０２,,23,203,4930001,,,,,,,2022-01-12,1,,,,,ライムフレッシュ,0
618,2180301035799,新規,0,2022-01-12,2022-01-12,ＭＡＲＳ株式会社,,株式会社,愛知県,豊橋市,三本木町字新三本木２６番地の３,,23,201,4418152,,,,,,,2022-01-12,1,,,,,マーズ,0
619,2180301035832,新規,0,2022-01-12,2022-01-12,株式会社ヴォイスコネクト,,株式会社,愛知県,豊橋市,高師町字北新切２０４番地の２,,23,201,4418156,,,,,,,2022-01-12,1,,,,,ヴォイスコネクト,0
620,2190001029010,新規,0,2022-01-12,2022-01-12,株式会社ＲＶＳ,,株式会社,三重県,松阪市,石津町４６１番地２８ルネスガーデンコート１０５,,24,204,5150006,,,,,,,2022-01-12,1,,,,,アールブイエス,0
621,2190001029019,新規,0,2022-01-12,2022-01-12,株式会社まるっと,,株式会社,三重県,松阪市,黒田町１６４１番地,,24,204,5150061,,,,,,,2022-01-12,1,,,,,マルット,0
622,2190003003871,新規,0,2022-01-12,2022-01-12,アドバンステージ合同会社,,合同会社,三重県,鈴鹿市,十宮２丁目１０番１６号,,24,207,5130037,,,,,,,2022-01-12,1,,,,,アドバンステージ,0
629,2210001018761,新規,0,2022-01-12,2022-01-12,株式会社レサンシエル,,株式会社,福井県,福井市,木田３丁目３１０６番地,,18,201,9188105,,,,,,,2022-01-12,1,,,,,レサンシエル,0
632,2220005008626,新規,0,2022-01-12,2022-01-12,農事組合法人アグテック熊木野,,その他の設立登記法人,石川県,七尾市,中島町横田乙部１６７番地,,17,202,9292226,,,,,,,2022-01-12,1,,,,,アグテッククマキノ,0
638,2240001059167,新規,0,2022-01-12,2022-01-12,株式会社岡林企画,,株式会社,広島県,東広島市,西条下見６丁目３番３１号,,34,212,7390047,,,,,,,2022-01-12,1,,,,,オカバヤシキカク,0
640,2250001019335,新規,0,2022-01-12,2022-01-12,祥瑞商事株式会社,,株式会社,山口県,宇部市,黒石北２丁目３番４８－２,,35,202,7590213,,,,,,,2022-01-12,1,,,,,ショウズイショウジ,0
642,2260001036412,新規,0,2022-01-12,2022-01-12,株式会社Ｍｉｔｒａ‐Ｃｒｅａｔｅ,,株式会社,岡山県,倉敷市,日ノ出町１丁目１番２３－１２０２号,,33,202,7100063,,,,,,,2022-01-12,1,,,,,ミトラクリエイト,0
643,2260001036429,新規,0,2022-01-12,2022-01-12,Ｔｒｅｅ株式会社,,株式会社,岡山県,倉敷市,新田２３８５番地,,33,202,7100038,,,,,,,2022-01-12,1,,,,,ツリー,0
646,2260003003765,新規,0,2022-01-12,2022-01-12,合同会社ＬｉｂｅｒｔｙＬ,,合同会社,岡山県,笠岡市,大井南３８番地の６－１０２号,,33,205,7140013,,,,,,,2022-01-12,1,,,,,リバティル,0
650,2280001008599,新規,0,2022-01-12,2022-01-12,ハッピーガレージ株式会社,,株式会社,島根県,安来市,中津町２４番地,,32,206,6920061,,,,,,,2022-01-12,1,,,,,ハッピーガレージ,0
654,2290001095934,新規,0,2022-01-12,2022-01-12,株式会社中川,,株式会社,福岡県,福津市,宮司１丁目８番３２号,,40,224,8113305,,,,,,,2022-01-12,1,,,,,ナカガワ,0
655,2290001095967,新規,0,2022-01-12,2022-01-12,株式会社ＹＥ．Ｃｏｍｐａｎｙ,,株式会社,福岡県,福岡市早良区,原２丁目１３番５‐７０２号,,40,137,8140022,,,,,,,2022-01-12,1,,,,,ワイイーカンパニー,0
656,2290001095983,新規,0,2022-01-12,2022-01-12,株式会社西日本整復師会,,株式会社,福岡県,福岡市早良区,飯倉４丁目１９番２０号,,40,137,8140161,,,,,,,2022-01-12,1,,,,,ニシニホンセイフクシカイ,0
657,2290001096040,新規,0,2022-01-12,2022-01-12,株式会社ソラルテ空間設計,,株式会社,福岡県,福岡市中央区,荒戸１丁目９番１６－８０３号,,40,133,8100062,,,,,,,2022-01-12,1,,,,,ソラルテクウカンセッケイ,0
664,2290003012004,新規,0,2022-01-12,2022-01-12,合同会社よしはら,,合同会社,福岡県,福岡市東区,馬出４丁目４番１５－１０３号,,40,131,8120054,,,,,,,2022-01-12,1,,,,,ヨシハラ,0
665,2290003012020,新規,0,2022-01-12,2022-01-12,ロイヤル合同会社,,合同会社,福岡県,朝倉郡筑前町,森山５９７,,40,447,8380804,,,,,,,2022-01-12,1,,,,,ロイヤル,0
668,2310001017670,新規,0,2022-01-12,2022-01-12,株式会社ＡＭＢＩＥＮＣＥ,,株式会社,長崎県,長崎市,万屋町５番３８号,,42,201,8500852,,,,,,,2022-01-12,1,,,,,アンビエンス,0
671,2320001018833,新規,0,2022-01-12,2022-01-12,株式会社未来・プロジェクト,,株式会社,大分県,宇佐市,大字西大堀１０６２番地,,44,211,8720022,,,,,,,2022-01-12,1,,,,,,0
680,2340001024409,新規,0,2022-01-12,2022-01-12,株式会社大川牧場,,株式会社,鹿児島県,大島郡徳之島町,母間４６１６番地,,46,530,8917426,,,,,,,2022-01-12,1,,,,,オオカワボクジョウ,0
681,2340001024417,新規,0,2022-01-12,2022-01-12,株式会社城野電気,,株式会社,鹿児島県,霧島市,福山町福山２６９６番地,,46,218,8994501,,,,,,,2022-01-12,1,,,,,ジョウノデンキ,0
682,2340001024425,新規,0,2022-01-12,2022-01-12,株式会社ｃｏｎｎｅｃｔ　ｗｏｒｋｓ．,,株式会社,鹿児島県,鹿児島市,下荒田３丁目２１番２号１階,,46,201,8900056,,,,,,,2022-01-12,1,,,,,コネクトワークス,0
684,2350001017519,新規,0,2022-01-12,2022-01-12,ＲＹＳホールディングス株式会社,,株式会社,宮崎県,宮崎市,鶴島３丁目１２１番地１フォルテ１０３号,,45,201,8800014,,,,,,,2022-01-12,1,,,,,ライズホールディングス,0
687,2360001029868,新規,0,2022-01-12,2022-01-12,ＡＡホールディングス株式会社,,株式会社,沖縄県,那覇市,銘苅２丁目４番４１号グランジュテ２０２,,47,201,9000004,,,,,,,2022-01-12,1,,,,,エーエーホールディングス,0
690,2370005010427,新規,0,2022-01-12,2022-01-12,司法書士法人暁,,その他の設立登記法人,宮城県,仙台市青葉区,国分町３丁目１１番５－３０２号,,04,101,9800803,,,,,,,2022-01-12,1,,,,,アカツキ,0
697,2380003005080,新規,0,2022-01-12,2022-01-12,合同会社ＡＦＩ,,合同会社,福島県,いわき市,平字正内町２９番地の１,,07,204,9708026,,,,,,,2022-01-12,1,,,,,エーエフアイ,0
711,2430001085747,新規,0,2022-01-12,2022-01-12,株式会社ノルド動物病院,,株式会社,北海道,札幌市清田区,北野三条３丁目１番１号,,01,110,0040863,,,,,,,2022-01-12,1,,,,,ノルドドウブツビョウイン,0
714,2430003013508,新規,0,2022-01-12,2022-01-12,合同会社Ｆｉｅｌｄ　Ｋ,,合同会社,北海道,札幌市西区,発寒六条１０丁目１番３号ＳＲ宮の沢ステーションビル２Ｆ,,01,107,0630826,,,,,,,2022-01-12,1,,,,,フィールドケイ,0
715,2430003013516,新規,0,2022-01-12,2022-01-12,ノースペインティングサービス合同会社,,合同会社,北海道,北広島市,朝日町３丁目３番地１５,,01,234,0611123,,,,,,,2022-01-12,1,,,,,ノースペインティングサービス,0
723,2450001013573,新規,0,2022-01-12,2022-01-12,一番星米穀株式会社,,株式会社,北海道,旭川市,永山町１丁目１２５番地の１０９,,01,204,,,,,,,,2022-01-12,1,,,,,イチバンボシベイコク,0
724,2460003000874,新規,0,2022-01-12,2022-01-12,Ｍ’ｓサポート合同会社,,合同会社,北海道,川上郡標茶町,旭３丁目２番１４号,,01,664,0882301,,,,,,,2022-01-12,1,,,,,エムズサポート,0
727,2470001018918,新規,0,2022-01-12,2022-01-12,四国化成工業シェアードサービス分割準備株式会社,,株式会社,香川県,丸亀市,土器町東８丁目５３７番地１,,37,202,7630082,,,,,,,2022-01-12,1,,,,,シコクカセイコウギョウシェアードサービスブンカツジュンビ,0
732,2500001023922,新規,0,2022-01-12,2022-01-12,株式会社Ｉ．Ｃ．Ａ,,株式会社,愛媛県,松山市,立花３丁目３番２９号,,38,201,7900966,,,,,,,2022-01-12,1,,,,,アイシーエー,0
735,2700150106573,新規,0,2022-01-12,2022-01-12,ＳＨＡＭＡ　ＭＯＴＯＲＳ,,外国会社等,千葉県,佐倉市,大篠塚９３７番地１－Ｂ－２,,12,212,2850806,スリランカ民主社会主義共和国、バトゥゴダ、カサワッタ、４３０－６,,,,,,2022-01-12,1,,,,,シヤマモータース,0
743,3010001223653,新規,0,2022-01-12,2022-01-12,ＭＣＰファミリア株式会社,,株式会社,東京都,千代田区,丸の内１丁目６番１号,,13,101,1000005,,,,,,,2022-01-12,1,,,,,エムシーピーファミリア,0
744,3010001223711,新規,0,2022-01-12,2022-01-12,株式会社サーチファンド・ジャパン０１,,株式会社,東京都,千代田区,丸の内１丁目８番２号,,13,101,1000005,,,,,,,2022-01-12,1,,,,,サーチファンドジャパンゼロワン,0
745,3010001223736,新規,0,2022-01-12,2022-01-12,株式会社Ｊ　ＲＩＳＥ　ＣＯＮＳＵＬＴＩＮＧ,,株式会社,東京都,中央区,銀座３丁目１１番１９号－６０１,,13,102,1040061,,,,,,,2022-01-12,1,,,,,ジェイライズコンサルティング,0
746,3010001223752,新規,0,2022-01-12,2022-01-12,不動産売却サポート関東株式会社,,株式会社,東京都,千代田区,神田美土代町５番地２第２日成ビル５階,,13,101,1010053,,,,,,,2022-01-12,1,,,,,フドウサンバイキャクサポートカントウ,0
749,3010003036748,新規,0,2022-01-12,2022-01-12,基文合同会社,,合同会社,東京都,中央区,銀座１丁目１２番４号Ｎ＆Ｅ・ＢＬＤ．７階,,13,102,1040061,,,,,,,2022-01-12,1,,,,,モトフミ,0
750,3010005034428,新規,0,2022-01-12,2022-01-12,御殿場一般社団法人,,その他の設立登記法人,東京都,千代田区,丸の内３丁目１番１号東京共同会計事務所内,,13,101,1000005,,,,,,,2022-01-12,1,,,,,ゴテンバ,0
751,3010005034436,新規,0,2022-01-12,2022-01-12,Ｍａｒｂｌｅ１一般社団法人,,その他の設立登記法人,東京都,千代田区,丸の内３丁目１番１号東京共同会計事務所内,,13,101,1000005,,,,,,,2022-01-12,1,,,,,マーブルワン,0
763,3010401164869,新規,0,2022-01-12,2022-01-12,株式会社ＴＨＥ　Ｆａｃｔｏｒｙ,,株式会社,東京都,港区,赤坂５丁目３番６号,,13,103,1070052,,,,,,,2022-01-12,1,,,,,ザファクトリー,0
766,3010405020564,新規,0,2022-01-12,2022-01-12,一般社団法人アルテミス,,その他の設立登記法人,東京都,港区,六本木１丁目９番１０号アークヒルズ仙石山森タワー２５階,,13,103,1060032,,,,,,,2022-01-12,1,,,,,アルテミス,0
770,3010501048303,新規,0,2022-01-12,2022-01-12,株式会社Ａｎｔ,,株式会社,東京都,台東区,上野３丁目２０番８号小島ビル４階,,13,106,1100005,,,,,,,2022-01-12,1,,,,,アント,0
792,3011001144939,新規,0,2022-01-12,2022-01-12,株式会社ＥＮＴＷＵＲＦＥＩＮ,,株式会社,東京都,渋谷区,富ヶ谷１丁目９番１９号Ｑビル３ＦＡ,,13,113,1510063,,,,,,,2022-01-12,1,,,,,エントワフェイン,0
793,3011003013968,新規,0,2022-01-12,2022-01-12,ＳＵＫＩＮＡＩＥ合同会社,,合同会社,東京都,渋谷区,渋谷２丁目１９－１５宮益坂ビルディング６０９,,13,113,1500002,,,,,,,2022-01-12,1,,,,,スキナイエ,0
797,3011101097426,新規,0,2022-01-12,2022-01-12,株式会社クラウドリンク,,株式会社,東京都,新宿区,西新宿３丁目７番２６号,,13,104,1600023,,,,,,,2022-01-12,1,,,,,クラウドリンク,0
798,3011101097459,新規,0,2022-01-12,2022-01-12,Ｃｒｅａｔｅ　Ｂｏｘ株式会社,,株式会社,東京都,新宿区,西新宿６丁目１５－１－２５１１,,13,104,1600023,,,,,,,2022-01-12,1,,,,,クリエイトボックス,0
820,3011801040156,新規,0,2022-01-12,2022-01-12,株式会社ＭＩＺＺＩＡ,,株式会社,東京都,葛飾区,堀切５丁目２１番１０号,,13,122,1240006,,,,,,,2022-01-12,1,,,,,ミジア,0
829,3012401038706,新規,0,2022-01-12,2022-01-12,株式会社ｂａｍｂｕ,,株式会社,東京都,三鷹市,中原１丁目２１番１２号,,13,204,1810005,,,,,,,2022-01-12,1,,,,,バンブー,0
830,3012401038739,新規,0,2022-01-12,2022-01-12,株式会社横山建設興業,,株式会社,東京都,府中市,日新町４丁目６４番地の６,,13,206,1830036,,,,,,,2022-01-12,1,,,,,ヨコヤマケンセツコウギョウ,0
840,3020003021096,新規,0,2022-01-12,2022-01-12,ＢｉｚＸＴｅｃｈ合同会社,,合同会社,神奈川県,横浜市神奈川区,反町２丁目１３番地７－３０２号,,14,102,2210825,,,,,,,2022-01-12,1,,,,,ビズクロステック,0
842,3021001074904,新規,0,2022-01-12,2022-01-12,株式会社鎌倉不易流行研究社,,株式会社,神奈川県,鎌倉市,稲村ガ崎５丁目１０番２２号,,14,204,2480024,,,,,,,2022-01-12,1,,,,,カマクラフエキリュウコウケンキュウシャ,0
844,3021003011277,新規,0,2022-01-12,2022-01-12,合同会社エクセル開発,,合同会社,神奈川県,相模原市南区,上鶴間本町５丁目１９番１－２０５号,,14,153,2520318,,,,,,,2022-01-12,1,,,,,エクセルカイハツ,0
848,3030001146200,新規,0,2022-01-12,2022-01-12,株式会社月岡工業,,株式会社,埼玉県,川口市,大字北谷６５３番地の１,,11,203,3320000,,,,,,,2022-01-12,1,,,,,ツキオカコウギョウ,0
859,3040001121648,新規,0,2022-01-12,2022-01-12,株式会社大満ぞく,,株式会社,千葉県,木更津市,東中央２丁目１０番１９号,,12,206,2920057,,,,,,,2022-01-12,1,,,,,ダイマンゾク,0
860,3040001121656,新規,0,2022-01-12,2022-01-12,株式会社五十嵐工業,,株式会社,千葉県,我孫子市,湖北台１０丁目１７番２号,,12,222,2701132,,,,,,,2022-01-12,1,,,,,イガラシコウギョウ,0
861,3040001121664,新規,0,2022-01-12,2022-01-12,株式会社Ｇｒｏｗ　Ｏｎｅ,,株式会社,千葉県,市川市,大野町３丁目１９６２番地２５,,12,203,2720805,,,,,,,2022-01-12,1,,,,,グロウワン,0
862,3040001121689,新規,0,2022-01-12,2022-01-12,株式会社ＢＡＮＣＯ,,株式会社,千葉県,山武郡九十九里町,片貝６９２８番地２９６,,12,403,2830104,,,,,,,2022-01-12,1,,,,,バンコ,0
863,3040001121730,新規,0,2022-01-12,2022-01-12,株式会社ＶｉＶ,,株式会社,千葉県,船橋市,坪井東５丁目３番１１号,,12,204,2740060,,,,,,,2022-01-12,1,,,,,ビブ,0
867,3040003019246,新規,0,2022-01-12,2022-01-12,合同会社モリナリ,,合同会社,千葉県,浦安市,北栄３丁目１２番２３号,,12,227,2790002,,,,,,,2022-01-12,1,,,,,モリナリ,0
868,3040003019254,新規,0,2022-01-12,2022-01-12,合同会社どるちぴ社,,合同会社,千葉県,千葉市中央区,宮崎町５２１番地３５コーポハル５号,,12,101,2600805,,,,,,,2022-01-12,1,,,,,ドルチピシャ,0
869,3040003019262,新規,0,2022-01-12,2022-01-12,合同会社菅野,,合同会社,千葉県,市川市,若宮３丁目１番７号,,12,203,2720812,,,,,,,2022-01-12,1,,,,,カンノ,0
870,3040003019279,新規,0,2022-01-12,2022-01-12,合同会社ｒａｎｄｃｒｅａ,,合同会社,千葉県,流山市,南流山３丁目６番地７号ＴｒｉｓｔＡｉｒｐｏｒｔ,,12,220,2700163,,,,,,,2022-01-12,1,,,,,ランドクレア,0
875,3050001050417,新規,0,2022-01-12,2022-01-12,株式会社ＦＩＴ,,株式会社,茨城県,笠間市,大田町１２２９番地７,,08,216,3091738,,,,,,,2022-01-12,1,,,,,フィット,0
876,3050001050433,新規,0,2022-01-12,2022-01-12,株式会社アグリつくばね,,株式会社,茨城県,つくば市,神郡９９番地,,08,220,3004212,,,,,,,2022-01-12,1,,,,,アグリツクバネ,0
877,3050001050441,新規,0,2022-01-12,2022-01-12,株式会社Ｂｒｅｓｔ,,株式会社,茨城県,つくばみらい市,高岡８５９－８,,08,235,3002301,,,,,,,2022-01-12,1,,,,,ブレスト,0
887,3060003003917,新規,0,2022-01-12,2022-01-12,合同会社リンクス,,合同会社,栃木県,鹿沼市,上野町５９－４３,,09,205,3220021,,,,,,,2022-01-12,1,,,,,リンクス,0
888,3060005009937,新規,0,2022-01-12,2022-01-12,一般社団法人栃木県リハビリテーション専門職協会,,その他の設立登記法人,栃木県,大田原市,紫塚３丁目２６３３番地１２,,09,210,3240058,,,,,,,2022-01-12,1,,,,,トチギケンリハビリテーションセンモンショクキョウカイ,0
896,3070003004352,新規,0,2022-01-12,2022-01-12,合同会社ＯｎＦｌｅｅｋ,,合同会社,群馬県,北群馬郡吉岡町,大字大久保６０３番地,,10,345,3703602,,,,,,,2022-01-12,1,,,,,オンフリーク,0
899,3080101023014,新規,0,2022-01-12,2022-01-12,ＹＡＳＵＯＧＯＬＦ株式会社,,株式会社,静岡県,富士宮市,源道寺町１２２７番地の１,,22,207,4180074,,,,,,,2022-01-12,1,,,,,ヤスオゴルフ,0
900,3080401025569,新規,0,2022-01-12,2022-01-12,伸栄商店株式会社,,株式会社,静岡県,浜松市中区,高丘北３丁目３２番３７号,,22,131,4338119,,,,,,,2022-01-12,1,,,,,シンエイショウテン,0
904,3100001034959,新規,0,2022-01-12,2022-01-12,株式会社エムスペック,,株式会社,長野県,諏訪市,大字中洲３３８０番地１０,,20,206,3920015,,,,,,,2022-01-12,1,,,,,エムスペック,0
905,3100001034967,新規,0,2022-01-12,2022-01-12,長野県企業支援株式会社,,株式会社,長野県,松本市,大字岡田町３０７番地７,,20,202,3900315,,,,,,,2022-01-12,1,,,,,ナガノケンキギョウシエン,0
910,3110001036351,新規,0,2022-01-12,2022-01-12,株式会社クボタエンジニア,,株式会社,新潟県,南魚沼市,六日町１６３７番地,,15,226,9496680,,,,,,,2022-01-12,1,,,,,クボタエンジニア,0
911,3110005016746,新規,0,2022-01-12,2022-01-12,堀越山生産森林組合,,その他の設立登記法人,新潟県,阿賀野市,堀越５６８番１,,15,223,9592055,,,,,,,2022-01-12,1,,,,,ホリコシヤマ,0
923,3120001242972,新規,0,2022-01-12,2022-01-12,Ｌ－ａｕｄｍａｎ株式会社,,株式会社,大阪府,大阪市生野区,林寺１丁目１番１９号,,27,116,5440023,,,,,,,2022-01-12,1,,,,,ラウドマン,0
924,3120001242997,新規,0,2022-01-12,2022-01-12,株式会社ＫＺＮ,,株式会社,大阪府,大阪市中央区,淡路町２丁目１番１号,,27,128,5410047,,,,,,,2022-01-12,1,,,,,ケーゼットエヌ,0
925,3120001243070,新規,0,2022-01-12,2022-01-12,株式会社オーサム,,株式会社,大阪府,大阪市北区,東天満１丁目３番１５号,,27,127,5300044,,,,,,,2022-01-12,1,,,,,オーサム,0
930,3120003020906,新規,0,2022-01-12,2022-01-12,ＡＦＰ合同会社,,合同会社,大阪府,大阪市中央区,伏見町４丁目４－９淀屋橋東洋ビル３階,,27,128,5410044,,,,,,,2022-01-12,1,,,,,エーエフピー,0
931,3120003020922,新規,0,2022-01-12,2022-01-12,Ｓ＆Ｓ合同会社,,合同会社,大阪府,大阪市港区,弁天５丁目３番１号メゾンクレールつかさ５０１号,,27,107,5520007,,,,,,,2022-01-12,1,,,,,エスアンドエス,0
937,3120101064920,新規,0,2022-01-12,2022-01-12,株式会社ＮＡＧＡＳＨＯ,,株式会社,大阪府,大阪狭山市,半田１丁目６番地の１４ＭｏｖｅＧｒＢｌｄｇ．１０２,,27,231,5890011,,,,,,,2022-01-12,1,,,,,ナガショウ,0
941,3120901045426,新規,0,2022-01-12,2022-01-12,株式会社アルファ動物病院,,株式会社,大阪府,豊中市,桜の町１丁目３番１６号,,27,203,5600054,,,,,,,2022-01-12,1,,,,,アルファドウブツビョウイン,0
942,3120901045434,新規,0,2022-01-12,2022-01-12,株式会社アンドスタイル,,株式会社,大阪府,吹田市,南吹田４丁目２番１号ラフォーレ南吹田１Ｆ,,27,205,5640043,,,,,,,2022-01-12,1,,,,,アンドスタイル,0
943,3122001035497,新規,0,2022-01-12,2022-01-12,株式会社ヤスイ,,株式会社,大阪府,東大阪市,四条町１９番１６号,,27,227,5798053,,,,,,,2022-01-12,1,,,,,ヤスイ,0
944,3130001070844,新規,0,2022-01-12,2022-01-12,壬寅酒造株式会社,,株式会社,京都府,京都市下京区,西木屋町通松原上る三丁目市之町２６０番地２,,26,106,6000000,,,,,,,2022-01-12,1,,,,,ミズノエトラシュゾウ,0
945,3130001070877,新規,0,2022-01-12,2022-01-12,株式会社三瀧,,株式会社,京都府,京都市伏見区,深草直違橋南１丁目５０８番地,,26,109,6120868,,,,,,,2022-01-12,1,,,,,ミタキ,0
949,3160001023923,新規,0,2022-01-12,2022-01-12,株式会社Ｍ’ｓ　Ｓｔａｎｃｅ,,株式会社,滋賀県,甲賀市,土山町市場１０－１,,25,209,5280233,,,,,,,2022-01-12,1,,,,,エムズスタンス,0
959,3180001149320,新規,0,2022-01-12,2022-01-12,知多半島未来創造株式会社,,株式会社,愛知県,半田市,平地町１丁目１１６番地,,23,205,4750081,,,,,,,2022-01-12,1,,,,,チタハントウミライソウゾウ,0
960,3180001149436,新規,0,2022-01-12,2022-01-12,橘建設株式会社,,株式会社,愛知県,半田市,有脇町５丁目１９番地１レジデンス有脇１０３号,,23,205,4750017,,,,,,,2022-01-12,1,,,,,タチバナケンセツ,0
961,3180001149460,新規,0,2022-01-12,2022-01-12,せと丸ビル本社株式会社,,株式会社,愛知県,瀬戸市,西原町２丁目１番地１,,23,204,4890972,,,,,,,2022-01-12,1,,,,,セトマルビルホンシャ,0
965,3180301035823,新規,0,2022-01-12,2022-01-12,株式会社Ｋ．Ｍ．ａｄｖａｎｃｅ,,株式会社,愛知県,西尾市,熊味町西平角２４番地１,,23,213,4450071,,,,,,,2022-01-12,1,,,,,ケーエムアドバンス,0
966,3180303005221,新規,0,2022-01-12,2022-01-12,合同会社ヤオゼン,,合同会社,愛知県,刈谷市,宝町３丁目３番地６‐１０３号,,23,210,4480847,,,,,,,2022-01-12,1,,,,,ヤオゼン,0
969,3190001029026,新規,0,2022-01-12,2022-01-12,株式会社ＹＣまつぶたＰＩＧ　ＳＴＯＲＹ,,株式会社,三重県,松阪市,高町２２０番地４,,24,204,5150011,,,,,,,2022-01-12,1,,,,,ワイシーマツブタピッグストーリー,0
970,3190001029034,新規,0,2022-01-12,2022-01-12,株式会社伊勢ファーム,,株式会社,三重県,伊勢市,御薗町上條１３０１番地２,,24,203,5160806,,,,,,,2022-01-12,1,,,,,イセファーム,0
975,3190003003870,新規,0,2022-01-12,2022-01-12,鈴の音合同会社,,合同会社,三重県,鈴鹿市,石薬師町２４５７番地４６４,,24,207,5130012,,,,,,,2022-01-12,1,,,,,スズノネ,0
983,3220005008625,新規,0,2022-01-12,2022-01-12,農事組合法人かほくみずほファーマーズ,,その他の設立登記法人,石川県,かほく市,若緑２３９番地１,,17,209,9291205,,,,,,,2022-01-12,1,,,,,カホクミズホファーマーズ,0
984,3230001019179,新規,0,2022-01-12,2022-01-12,いろは不動産株式会社,,株式会社,富山県,滑川市,横道３３４７番地,,16,206,9360873,,,,,,,2022-01-12,1,,,,,イロハフドウサン,0
989,3240001059158,新規,0,2022-01-12,2022-01-12,松浦工業株式会社,,株式会社,広島県,東広島市,安芸津町風早６５３番地１５,,34,212,7392403,,,,,,,2022-01-12,1,,,,,マツウラコウギョウ,0
990,3240001059182,新規,0,2022-01-12,2022-01-12,株式会社馬上興産,,株式会社,広島県,広島市中区,西平塚町２番４－４０２号,,34,101,7300024,,,,,,,2022-01-12,1,,,,,バジョウコウサン,0
991,3240001059190,新規,0,2022-01-12,2022-01-12,株式会社Ｓａｎｄ　Ｂｏｘ,,株式会社,広島県,尾道市,栗原西１丁目８番１２－３０６号,,34,205,7220026,,,,,,,2022-01-12,1,,,,,サンドボックス,0
992,3250001019326,新規,0,2022-01-12,2022-01-12,株式会社リッシュ,,株式会社,山口県,防府市,大字植松１６９５番地の１０,,35,206,7470836,,,,,,,2022-01-12,1,,,,,リッシュ,0
994,3260001036411,新規,0,2022-01-12,2022-01-12,株式会社ｌｉＬＹＳ　ｆｌｏｗｅｒ,,株式会社,岡山県,倉敷市,粒江１６２５番地２,,33,202,7100034,,,,,,,2022-01-12,1,,,,,リリスフラワー,0
995,3260001036428,新規,0,2022-01-12,2022-01-12,株式会社ホウブン,,株式会社,岡山県,岡山市中区,海吉１７６３－３０２,,33,102,7038261,,,,,,,2022-01-12,1,,,,,ホウブン,0
996,3260001036436,新規,0,2022-01-12,2022-01-12,株式会社ＫＥＮＷＡ,,株式会社,岡山県,津山市,志戸部６７７番地１,,33,203,7080825,,,,,,,2022-01-12,1,,,,,ケンワ,0
999,3260005011022,新規,0,2022-01-12,2022-01-12,一般社団法人みらいアスリート研究所,,その他の設立登記法人,岡山県,岡山市中区,藤崎４７５番地２０,,33,102,7028006,,,,,,,2022-01-12,1,,,,,ミライアスリートケンキュウジョ,0
1004,3270001008434,新規,0,2022-01-12,2022-01-12,花水木株式会社,,株式会社,鳥取県,鳥取市,瓦町５８３番地,,31,201,6800821,,,,,,,2022-01-12,1,,,,,ハナミズキ,0
1005,3280001008598,新規,0,2022-01-12,2022-01-12,株式会社田中電工,,株式会社,島根県,出雲市,塩冶町１１７０番地１,,32,203,6930021,,,,,,,2022-01-12,1,,,,,タナカデンコウ,0
1010,3290001096007,新規,0,2022-01-12,2022-01-12,マリィエステティック株式会社,,株式会社,福岡県,福岡市南区,大橋１丁目４番２９号,,40,134,8150033,,,,,,,2022-01-12,1,,,,,マリィエステティック,0
1011,3290001096080,新規,0,2022-01-12,2022-01-12,とんかつオンライン工務店株式会社,,株式会社,福岡県,福岡市中央区,春吉２丁目１６番２３号,,40,133,8100003,,,,,,,2022-01-12,1,,,,,トンカツオンラインコウムテン,0
1012,3290003012003,新規,0,2022-01-12,2022-01-12,合同会社ミユジャパン,,合同会社,福岡県,糟屋郡志免町,南里３丁目１２番１５号１０４号室１階,,40,343,8112207,,,,,,,2022-01-12,1,,,,,ミユジャパン,0
1013,3290003012011,新規,0,2022-01-12,2022-01-12,合同会社パピエジョリ,,合同会社,福岡県,福岡市城南区,鳥飼７丁目１番３０‐４０２号エンゼルブレッサ鳥飼７丁目,,40,136,8140103,,,,,,,2022-01-12,1,,,,,パピエジョリ,0
1016,3310003004253,新規,0,2022-01-12,2022-01-12,合同会社もりのくまさん,,合同会社,長崎県,佐世保市,新行江町７４３番地４,,42,202,8593152,,,,,,,2022-01-12,1,,,,,モリノクマサン,0
1024,3340001024374,新規,0,2022-01-12,2022-01-12,株式会社イレブンハウス,,株式会社,鹿児島県,鹿児島市,鷹師２丁目３番６号,,46,201,8900043,,,,,,,2022-01-12,1,,,,,イレブンハウス,0
1025,3340001024416,新規,0,2022-01-12,2022-01-12,株式会社レプリューム,,株式会社,鹿児島県,鹿児島市,紫原１丁目４７番３号,,46,201,8900082,,,,,,,2022-01-12,1,,,,,レプリューム,0
1026,3340001024424,新規,0,2022-01-12,2022-01-12,Ｒｅｍｍｙ株式会社,,株式会社,鹿児島県,鹿児島市,山之口町９番３９号ニチビル４階,,46,201,8920844,,,,,,,2022-01-12,1,,,,,レミー,0
1028,3340003003681,新規,0,2022-01-12,2022-01-12,ＦｌａｐＬａｂｏ合同会社,,合同会社,鹿児島県,鹿児島市,中央町２４－３７,,46,201,8900053,,,,,,,2022-01-12,1,,,,,フラップラボ,0
1029,3350001017534,新規,0,2022-01-12,2022-01-12,ラプター株式会社,,株式会社,宮崎県,児湯郡川南町,大字川南１４２３番地１,,45,405,8891301,,,,,,,2022-01-12,1,,,,,ラプター,0
1032,3360001029867,新規,0,2022-01-12,2022-01-12,株式会社杉崎商店,,株式会社,沖縄県,浦添市,牧港２丁目４３番８号,,47,208,9012131,,,,,,,2022-01-12,1,,,,,スギサキショウテン,0
1033,3360005006581,新規,0,2022-01-12,2022-01-12,社会保険労務士法人みやこじま,,その他の設立登記法人,沖縄県,宮古島市,平良字下里６５７番地１,,47,214,9060013,,,,,,,2022-01-12,1,,,,,ミヤコジマ,0
1051,3400001015722,新規,0,2022-01-12,2022-01-12,株式会社工藤総業,,株式会社,岩手県,盛岡市,松園１丁目２７番１号,,03,201,0200107,,,,,,,2022-01-12,1,,,,,クドウソウギョウ,0
1061,3400005008202,新規,0,2022-01-12,2022-01-12,社会保険労務士法人ＷＩＴＨ,,その他の設立登記法人,岩手県,盛岡市,本宮２丁目３番３０号士業の森ビル３階,,03,201,0200866,,,,,,,2022-01-12,1,,,,,ウィズ,0
1072,3430001085754,新規,0,2022-01-12,2022-01-12,株式会社ＢＡＬＥＣＴ,,株式会社,北海道,札幌市東区,北二十四条東２１丁目７番３０号,,01,103,0650024,,,,,,,2022-01-12,1,,,,,バレクト,0
1073,3430001085762,新規,0,2022-01-12,2022-01-12,ヒロツ燃料株式会社,,株式会社,北海道,札幌市手稲区,前田七条９丁目４番１０号,,01,109,0060817,,,,,,,2022-01-12,1,,,,,ヒロツネンリョウ,0
1080,3460001005643,新規,0,2022-01-12,2022-01-12,株式会社ＨＷマネジメント,,株式会社,北海道,釧路市,南大通１丁目２番３号オフィスぬさまい３０４,,01,206,0850841,,,,,,,2022-01-12,1,,,,,エイチダブルマネジメント,0
1082,3460101007119,新規,0,2022-01-12,2022-01-12,株式会社松田農場,,株式会社,北海道,中川郡幕別町,字古舞２８０番地の２,,01,643,0890576,,,,,,,2022-01-12,1,,,,,マツダノウジョウ,0
1086,3470001018917,新規,0,2022-01-12,2022-01-12,四国化成工業建材事業分割準備株式会社,,株式会社,香川県,丸亀市,土器町東８丁目５３７番地１,,37,202,7630082,,,,,,,2022-01-12,1,,,,,シコクカセイコウギョウケンザイジギョウブンカツジュンビ,0
1088,3480001011615,新規,0,2022-01-12,2022-01-12,株式会社ＣＡＰ,,株式会社,徳島県,板野郡藍住町,勝端字西勝地２５４番地３７,,36,403,7711200,,,,,,,2022-01-12,1,,,,,,0
1089,3490001010087,新規,0,2022-01-12,2022-01-12,株式会社みらい総合研究所,,株式会社,高知県,高知市,土居町９番８号,,39,201,7818001,,,,,,,2022-01-12,1,,,,,ミライソウゴウケンキュウショ,0
1090,3500005008448,新規,0,2022-01-12,2022-01-12,一般社団法人シゼンタイ全国循環型社会協議会,,その他の設立登記法人,愛媛県,伊予市,下三谷３６９４番地,,38,210,7993105,,,,,,,2022-01-12,1,,,,,シゼンタイゼンコクジュンカンガタシャカイキョウギカイ,0
1099,4010001223636,新規,0,2022-01-12,2022-01-12,佩科株式会社,,株式会社,東京都,千代田区,内神田１丁目２番２号小川ビル５階,,13,101,1010047,,,,,,,2022-01-12,1,,,,,ペキ,0
1100,4010001223693,新規,0,2022-01-12,2022-01-12,イーグルキャピタル株式会社,,株式会社,東京都,中央区,築地３丁目２番１０－１１０６号,,13,102,1040045,,,,,,,2022-01-12,1,,,,,イーグルキャピタル,0
1101,4010001223727,新規,0,2022-01-12,2022-01-12,富国開発株式会社,,株式会社,東京都,千代田区,内神田２丁目１４番３号,,13,101,1010047,,,,,,,2022-01-12,1,,,,,,0
1102,4010001223735,新規,0,2022-01-12,2022-01-12,株式会社ビブリオンヒルズ,,株式会社,東京都,千代田区,大手町１丁目３番１号ＪＡビル,,13,101,1000004,,,,,,,2022-01-12,1,,,,,ビブリオンヒルズ,0
1103,4010001223743,新規,0,2022-01-12,2022-01-12,株式会社井上情報システムズ,,株式会社,東京都,中央区,銀座１丁目２２番１１号銀座大竹ビジデンス２階,,13,102,1040061,,,,,,,2022-01-12,1,,,,,イノウエジョウホウシステムズ,0
1104,4010001223751,新規,0,2022-01-12,2022-01-12,株式会社ＭＲＭ,,株式会社,東京都,中央区,晴海３丁目１３番２－３３０９号,,13,102,1040053,,,,,,,2022-01-12,1,,,,,エムアールエム,0
1107,4010003036714,新規,0,2022-01-12,2022-01-12,ＪＰＦ第１号合同会社,,合同会社,東京都,千代田区,霞が関３丁目２番１号,,13,101,1000013,,,,,,,2022-01-12,1,,,,,ジェイピーエフダイイチゴウ,0
1108,4010005034393,新規,0,2022-01-12,2022-01-12,カストルＭＦ一般社団法人,,その他の設立登記法人,東京都,千代田区,霞が関３丁目２番５号,,13,101,1000013,,,,,,,2022-01-12,1,,,,,カストルエムエフ,0
1109,4010005034427,新規,0,2022-01-12,2022-01-12,白馬一般社団法人,,その他の設立登記法人,東京都,千代田区,丸の内３丁目１番１号東京共同会計事務所内,,13,101,1000005,,,,,,,2022-01-12,1,,,,,ハクバ,0
1110,4010005034435,新規,0,2022-01-12,2022-01-12,一般社団法人ＬＦプロパティ,,その他の設立登記法人,東京都,千代田区,丸の内３丁目１番１号東京共同会計事務所内,,13,101,1000005,,,,,,,2022-01-12,1,,,,,エルエフプロパティ,0
1111,4010101015017,新規,0,2022-01-12,2022-01-12,株式会社ＯＳＡＤＡ,,株式会社,東京都,八王子市,明神町４丁目１番２号ストーク八王子１２０１号,,13,201,1920046,,,,,,,2022-01-12,1,,,,,オサダ,0
1125,4010401164868,新規,0,2022-01-12,2022-01-12,株式会社ｔｒａｅｖｏ,,株式会社,東京都,港区,六本木３丁目２番１号,,13,103,1060032,,,,,,,2022-01-12,1,,,,,トラエボ,0
1127,4010405020563,新規,0,2022-01-12,2022-01-12,ＵＩ　Ｋｏｎａｎ　ｋａｎｓａｉ特定目的会社,,その他の設立登記法人,東京都,港区,元赤坂１丁目１番７号,,13,103,1070051,,,,,,,2022-01-12,1,,,,,ユーアイコナンカンサイ,0
1129,4010503006472,新規,0,2022-01-12,2022-01-12,合同会社大晴商事マネジメント,,合同会社,東京都,台東区,東上野５丁目４番３－１３０７号,,13,106,1100015,,,,,,,2022-01-12,1,,,,,タイセイショウジマネジメント,0
1131,4010701042006,新規,0,2022-01-12,2022-01-12,株式会社フリーダムアクセス,,株式会社,東京都,品川区,東五反田２丁目２５番１８号ＥＮＺＯ五反田ビル７Ｆ,,13,109,1410022,,,,,,,2022-01-12,1,,,,,フリーダムアクセス,0
1135,4011001144938,新規,0,2022-01-12,2022-01-12,株式会社ＶＥＮＥ　ＢＡＳＥ,,株式会社,東京都,渋谷区,神宮前３丁目３８番１号,,13,113,1500001,,,,,,,2022-01-12,1,,,,,ベネベース,0
1139,4011003013975,新規,0,2022-01-12,2022-01-12,デザインクラウド合同会社,,合同会社,東京都,渋谷区,渋谷１丁目８番５号,,13,113,1500002,,,,,,,2022-01-12,1,,,,,デザインクラウド,0
1140,4011005009369,新規,0,2022-01-12,2022-01-12,一般社団法人ヘルスケア関連団体ネットワーキングの会,,その他の設立登記法人,東京都,渋谷区,代々木３丁目２２番７号,,13,113,1510053,,,,,,,2022-01-12,1,,,,,ヘルスケアカンレンダンタイネットワーキングノカイ,0
1144,4011101097441,新規,0,2022-01-12,2022-01-12,株式会社ＨＩＧＨＬＡＮＤ　ＧＬＯＢＡＬ,,株式会社,東京都,新宿区,新宿５丁目１１番１３号富士新宿ビル４階,,13,104,1600022,,,,,,,2022-01-12,1,,,,,ハイランドグローバル,0
1145,4011101097458,新規,0,2022-01-12,2022-01-12,株式会社ユーメディアクリエーション,,株式会社,東京都,新宿区,余丁町１２番３１号,,13,104,1620055,,,,,,,2022-01-12,1,,,,,,0
1146,4011101097474,新規,0,2022-01-12,2022-01-12,ＦＵＫＩ株式会社,,株式会社,東京都,新宿区,中井１丁目４番４号カーサ中井１０３,,13,104,1610035,,,,,,,2022-01-12,1,,,,,フキ,0
1147,4011103011350,新規,0,2022-01-12,2022-01-12,合同会社ＦＴｗｏｒｋ,,合同会社,東京都,新宿区,西新宿３丁目３番１３号西新宿水間ビル６Ｆ,,13,104,1600023,,,,,,,2022-01-12,1,,,,,フットワーク,0
1148,4011103011359,新規,0,2022-01-12,2022-01-12,合同会社ナインブルズ,,合同会社,東京都,新宿区,西新宿３丁目３番１３号西新宿水間ビル６階,,13,104,1600023,,,,,,,2022-01-12,1,,,,,ナインブルズ,0
1149,4011201023529,新規,0,2022-01-12,2022-01-12,株式会社一笑青春,,株式会社,東京都,中野区,本町６丁目１５番１６－９０２号,,13,114,1640012,,,,,,,2022-01-12,1,,,,,イッショウセイシュン,0
1170,4011803004926,新規,0,2022-01-12,2022-01-12,合同会社グッドタイムデザイン,,合同会社,東京都,足立区,江北６丁目１８番５－４１４号,,13,121,1230872,,,,,,,2022-01-12,1,,,,,グッドタイムデザイン,0
1177,4012403005190,新規,0,2022-01-12,2022-01-12,合同会社エンバリュー,,合同会社,東京都,三鷹市,下連雀８丁目５番５号アデニウム吉祥寺８０６,,13,204,1810013,,,,,,,2022-01-12,1,,,,,エンバリュー,0
1178,4012701016864,新規,0,2022-01-12,2022-01-12,株式会社エムエー建装,,株式会社,東京都,小平市,小川町１丁目４５８番地の５５,,13,211,1870032,,,,,,,2022-01-12,1,,,,,エムエーケンソウ,0
1179,4012801021327,新規,0,2022-01-12,2022-01-12,Ｋｅｎ’ｓ　Ｐａｉｎｔ株式会社,,株式会社,東京都,立川市,砂川町８丁目２０番地の２９,,13,202,1900031,,,,,,,2022-01-12,1,,,,,ケンズペイント,0
1191,4020001144674,新規,0,2022-01-12,2022-01-12,株式会社５５５,,株式会社,神奈川県,川崎市高津区,末長３丁目２番７－５５５号,,14,134,2130013,,,,,,,2022-01-12,1,,,,,,0
1195,4020003021087,新規,0,2022-01-12,2022-01-12,合同会社ＡＺＡＳ,,合同会社,神奈川県,横浜市西区,北幸１丁目１１番１号水信ビル７階,,14,103,2200004,,,,,,,2022-01-12,1,,,,,アザス,0
1197,4020005015335,新規,0,2022-01-12,2022-01-12,医療法人Ｉｎｔｅｇｒｉｔｙ,,その他の設立登記法人,神奈川県,横浜市青葉区,美しが丘２丁目１４番地４－２階,,14,117,2250002,,,,,,,2022-01-12,1,,,,,インテグリティ,0
1198,4020005015343,新規,0,2022-01-12,2022-01-12,弁護士法人Ｒ＆Ｇ横浜法律事務所,,その他の設立登記法人,神奈川県,横浜市西区,みなとみらい４丁目４番２号,,14,103,2200012,,,,,,,2022-01-12,1,,,,,,0
1210,4030001146249,新規,0,2022-01-12,2022-01-12,株式会社ＮＥＸＴ　ＧＡＴＥ,,株式会社,埼玉県,さいたま市浦和区,上木崎６丁目６番９号,,11,107,3300071,,,,,,,2022-01-12,1,,,,,ネクストゲート,0
1211,4030001146323,新規,0,2022-01-12,2022-01-12,ＴＡＳＫＡＬ株式会社,,株式会社,埼玉県,さいたま市北区,宮原町４丁目３８番地８,,11,102,3310812,,,,,,,2022-01-12,1,,,,,タスカル,0
1216,4040001121622,新規,0,2022-01-12,2022-01-12,むつざわゴルフパーク株式会社,,株式会社,千葉県,長生郡睦沢町,佐貫４９００番地,,12,422,2994425,,,,,,,2022-01-12,1,,,,,ムツザワゴルフパーク,0
1217,4040001121630,新規,0,2022-01-12,2022-01-12,矢野工業株式会社,,株式会社,千葉県,いすみ市,新田３５２１番地２,,12,238,2980005,,,,,,,2022-01-12,1,,,,,ヤノコウギョウ,0
1218,4040001121647,新規,0,2022-01-12,2022-01-12,株式会社イレスビーク,,株式会社,千葉県,船橋市,旭町３丁目２２番２６号,,12,204,2730041,,,,,,,2022-01-12,1,,,,,イレスビーク,0
1219,4040001121655,新規,0,2022-01-12,2022-01-12,株式会社ＴＫ　ＥＮＴＲＵＳＴ,,株式会社,千葉県,船橋市,前原西６丁目１番４棟４０１号,,12,204,2740825,,,,,,,2022-01-12,1,,,,,ティーケーエントラスト,0
1223,4040003019253,新規,0,2022-01-12,2022-01-12,合同会社ピットイン,,合同会社,千葉県,市原市,五井中央西２丁目８番地２６,,12,219,2900081,,,,,,,2022-01-12,1,,,,,ピットイン,0
1224,4050001050424,新規,0,2022-01-12,2022-01-12,株式会社アサミエクスポート,,株式会社,茨城県,筑西市,島５０１番地１,,08,227,3080823,,,,,,,2022-01-12,1,,,,,アサミエクスポート,0
1225,4050001050432,新規,0,2022-01-12,2022-01-12,株式会社Ｙ－ＳＴＹＬＥ,,株式会社,茨城県,ひたちなか市,湊中原１２５７９番地２,,08,221,3111268,,,,,,,2022-01-12,1,,,,,ワイスタイル,0
1226,4050001050440,新規,0,2022-01-12,2022-01-12,株式会社佐トウ設備,,株式会社,茨城県,結城市,大字結城９８０９番地２２,,08,207,3070001,,,,,,,2022-01-12,1,,,,,サトウウセツビ,0
1227,4050001050449,新規,0,2022-01-12,2022-01-12,株式会社ＲＥＡＣＴ,,株式会社,茨城県,古河市,女沼６６２番地６,,08,204,3060226,,,,,,,2022-01-12,1,,,,,リアクト,0
1233,4050003006300,新規,0,2022-01-12,2022-01-12,合同会社Ｒ＆Ｍ企画,,合同会社,茨城県,取手市,台宿２丁目１３番３３号,,08,217,3020013,,,,,,,2022-01-12,1,,,,,アールアンドエムキカク,0
1243,4070001038814,新規,0,2022-01-12,2022-01-12,株式会社にじパートナーズＪＡＰＡＮ,,株式会社,群馬県,藤岡市,藤岡１６３３番地３,,10,209,3750024,,,,,,,2022-01-12,1,,,,,ニジパートナーズジャパン,0
1244,4070001038822,新規,0,2022-01-12,2022-01-12,株式会社ヴェクトワークス,,株式会社,群馬県,前橋市,富士見町小暮２４２０番地,,10,201,3710103,,,,,,,2022-01-12,1,,,,,ヴェクトワークス,0
1248,4080401025568,新規,0,2022-01-12,2022-01-12,株式会社ＢＥＡＵＣＬＥＳＴ　ＳＮＯＷＭＩＬＥ,,株式会社,静岡県,浜松市中区,神田町１２４１番地の１,,22,131,4328047,,,,,,,2022-01-12,1,,,,,ビュークレストスノーミール,0
1249,4090001017353,新規,0,2022-01-12,2022-01-12,美光サービス株式会社,,株式会社,山梨県,甲斐市,長塚８７５番地３,,19,210,4000125,,,,,,,2022-01-12,1,,,,,ビコウサービス,0
1256,4110001036342,新規,0,2022-01-12,2022-01-12,株式会社木村塗装,,株式会社,新潟県,長岡市,大積町１丁目甲９２３番地,,15,202,9402146,,,,,,,2022-01-12,1,,,,,キムラトソウ,0
1272,4120003020896,新規,0,2022-01-12,2022-01-12,ＤＭＬ合同会社,,合同会社,大阪府,大阪市浪速区,下寺２丁目４－１３,,27,111,5560001,,,,,,,2022-01-12,1,,,,,ディエムエル,0
1273,4120003020913,新規,0,2022-01-12,2022-01-12,ＬＯＫＩ　ＡＣＡＤＥＭＩＣＡ合同会社,,合同会社,大阪府,大阪市北区,大深町３番地１号,,27,127,5300011,,,,,,,2022-01-12,1,,,,,ロキアカデミカ,0
1275,4120005022692,新規,0,2022-01-12,2022-01-12,一般社団法人ライフサポートはぎちゃ,,その他の設立登記法人,大阪府,大阪市西成区,萩之茶屋２丁目７番２５号１階２号室,,27,122,5570004,,,,,,,2022-01-12,1,,,,,ライフサポートハギチャ,0
1280,4120101064903,新規,0,2022-01-12,2022-01-12,株式会社杉原ホース,,株式会社,大阪府,河内長野市,美加の台１丁目４０番１－１１０５号,,27,216,5860044,,,,,,,2022-01-12,1,,,,,スギハラホース,0
1281,4122001035496,新規,0,2022-01-12,2022-01-12,株式会社ＺＥＲＯ,,株式会社,大阪府,東大阪市,吉原２丁目１番４１号,,27,227,5780904,,,,,,,2022-01-12,1,,,,,ゼロ,0
1296,4140003017189,新規,0,2022-01-12,2022-01-12,ビーアライブ合同会社,,合同会社,兵庫県,神戸市中央区,御幸通３丁目２－２Ｆ,,28,110,6510087,,,,,,,2022-01-12,1,,,,,ビーアライブ,0
1298,4150003002594,新規,0,2022-01-12,2022-01-12,合同会社ＣＯＣＯ,,合同会社,奈良県,奈良市,西大寺国見町３丁目１１番１６号,,29,201,6310823,,,,,,,2022-01-12,1,,,,,ココ,0
1299,4160001023939,新規,0,2022-01-12,2022-01-12,株式会社ＢＬＵＥＭＯＯＮ,,株式会社,滋賀県,東近江市,五個荘川並町７２１番地,,25,213,5291441,,,,,,,2022-01-12,1,,,,,ブルームーン,0
1307,4180001149377,新規,0,2022-01-12,2022-01-12,藤久ホールディングス株式会社,,株式会社,愛知県,名古屋市名東区,高社１丁目２１０番地,,23,115,4650095,,,,,,,2022-01-12,1,,,,,フジキュウホールディングス,0
1308,4180001149468,新規,0,2022-01-12,2022-01-12,株式会社Ｔ．Ｄ．,,株式会社,愛知県,名古屋市中区,栄１丁目１３番２号愛織第２ビル４階,,23,106,4600008,,,,,,,2022-01-12,1,,,,,ティーディー,0
1326,4190001029025,新規,0,2022-01-12,2022-01-12,株式会社ＢＥＬＬＡＧＥ,,株式会社,三重県,鈴鹿市,稲生塩屋２丁目１番４号,,24,207,5100207,,,,,,,2022-01-12,1,,,,,ベレッジ,0
1328,4190005011664,新規,0,2022-01-12,2022-01-12,一般社団法人ハッピーエンドはなさか,,その他の設立登記法人,三重県,津市,一志町井関３２０番地,,24,201,5152521,,,,,,,2022-01-12,1,,,,,ハッピーエンドハナサカ,0
1331,4200003005419,新規,0,2022-01-12,2022-01-12,合同会社ひだか,,合同会社,岐阜県,養老郡養老町,西小倉２１番地,,21,341,5031268,,,,,,,2022-01-12,1,,,,,ヒダカ,0
1334,4220005008624,新規,0,2022-01-12,2022-01-12,農事組合法人中屋ファーム,,その他の設立登記法人,石川県,金沢市,中屋町西８００番地,,17,201,9200375,,,,,,,2022-01-12,1,,,,,ナカヤファーム,0
1336,4230001019178,新規,0,2022-01-12,2022-01-12,ＩＲＣ株式会社,,株式会社,富山県,中新川郡立山町,岩峅野１５２番地,,16,323,9301369,,,,,,,2022-01-12,1,,,,,アイアールシー,0
1337,4230003001786,新規,0,2022-01-12,2022-01-12,合同会社ユニバーサル・スタイル,,合同会社,富山県,富山市,吉作２２０番地７,,16,201,9300142,,,,,,,2022-01-12,1,,,,,ユニバーサルスタイル,0
1338,4230005009191,新規,0,2022-01-12,2022-01-12,税理士法人アスマイル,,その他の設立登記法人,富山県,富山市,婦中町分田１５７番地コンチネンタルビル,,16,201,9392718,,,,,,,2022-01-12,1,,,,,アスマイル,0
1342,4240003005448,新規,0,2022-01-12,2022-01-12,Ｇｒａｃｅ　ｆａｃｔｏｒｙ合同会社,,合同会社,広島県,広島市西区,田方１丁目２０番２１号,,34,104,7330851,,,,,,,2022-01-12,1,,,,,グレイスファクトリー,0
1344,4250003002972,新規,0,2022-01-12,2022-01-12,たつの仔合同会社,,合同会社,山口県,岩国市,川西３丁目６番１０号,,35,208,7410082,,,,,,,2022-01-12,1,,,,,タツノコ,0
1346,4260001036410,新規,0,2022-01-12,2022-01-12,株式会社ＦＲＯＮＴ　ＬＡＮＤ,,株式会社,岡山県,岡山市東区,西大寺門前４３番地１,,33,103,7048123,,,,,,,2022-01-12,1,,,,,フロントランド,0
1347,4260001036435,新規,0,2022-01-12,2022-01-12,ユーエイプラント株式会社,,株式会社,岡山県,倉敷市,連島町西之浦５３１番地５,,33,202,7128001,,,,,,,2022-01-12,1,,,,,ユーエイプラント,0
1349,4260003003771,新規,0,2022-01-12,2022-01-12,ＣＷファーミング合同会社,,合同会社,岡山県,岡山市北区,北方１丁目９番１５号,,33,101,7000803,,,,,,,2022-01-12,1,,,,,シーダブリューファーミング,0
1359,4290001095908,新規,0,2022-01-12,2022-01-12,株式会社井上建築設計事務所,,株式会社,福岡県,福岡市東区,下原１丁目２２番３８－５０１号,,40,131,8130002,,,,,,,2022-01-12,1,,,,,イノウエケンチクセッケイジムショ,0
1360,4290001095949,新規,0,2022-01-12,2022-01-12,株式会社エフパートナーズ,,株式会社,福岡県,福岡市中央区,大名１丁目９番５０号,,40,133,8100041,,,,,,,2022-01-12,1,,,,,エフパートナーズ,0
1361,4290001095965,新規,0,2022-01-12,2022-01-12,株式会社ソウルウルフ,,株式会社,福岡県,福岡市中央区,赤坂１丁目１４番２２号６Ｆ,,40,133,8100042,,,,,,,2022-01-12,1,,,,,ソウルウルフ,0
1362,4290001095981,新規,0,2022-01-12,2022-01-12,株式会社Ｃｏ‐ｃｏ．,,株式会社,福岡県,福岡市城南区,長尾３丁目２６番１１号,,40,136,8140123,,,,,,,2022-01-12,1,,,,,ココ,0
1363,4290001096006,新規,0,2022-01-12,2022-01-12,クーナコンパンニア株式会社,,株式会社,福岡県,福岡市博多区,博多駅中央街８番１号ＪＲＪＰ博多ビル３階,,40,132,8120012,,,,,,,2022-01-12,1,,,,,クーナコンパンニア,0
1364,4290001096022,新規,0,2022-01-12,2022-01-12,株式会社ニュースタンダート,,株式会社,福岡県,福岡市東区,三苫７丁目３番１９号セゾン２１　２０２号,,40,131,8110201,,,,,,,2022-01-12,1,,,,,ニュースタンダート,0
1365,4290001096039,新規,0,2022-01-12,2022-01-12,株式会社Ｖｉｆ,,株式会社,福岡県,糸島市,高田４丁目２６番２１号１Ｆ,,40,230,8191102,,,,,,,2022-01-12,1,,,,,ヴィフ,0
1366,4290003011994,新規,0,2022-01-12,2022-01-12,ヨシミムスビ合同会社,,合同会社,福岡県,福岡市東区,香住ヶ丘４丁目２－２８オーキッドテラス１０２,,40,131,8130003,,,,,,,2022-01-12,1,,,,,ヨシミムスビ,0
1367,4290003012010,新規,0,2022-01-12,2022-01-12,合同会社ＩＳＳＨＯ,,合同会社,福岡県,福岡市中央区,渡辺通２丁目３番８号,,40,133,8100004,,,,,,,2022-01-12,1,,,,,イッショ,0
1372,4310003004244,新規,0,2022-01-12,2022-01-12,合同会社ユーハ,,合同会社,長崎県,大村市,上諏訪町１１７７番地２,,42,205,8560023,,,,,,,2022-01-12,1,,,,,ユーハ,0
1373,4310003004252,新規,0,2022-01-12,2022-01-12,Ｋワークス建築設計合同会社,,合同会社,長崎県,南島原市,布津町乙１０１７番地,,42,214,8592112,,,,,,,2022-01-12,1,,,,,ケイワークスケンチクセッケイ,0
1377,4320001018823,新規,0,2022-01-12,2022-01-12,株式会社神野自動車,,株式会社,大分県,臼杵市,野津町大字西寒田３４４２番地の２,,44,206,8750237,,,,,,,2022-01-12,1,,,,,カミノジドウシャ,0
1378,4320001018831,新規,0,2022-01-12,2022-01-12,株式会社ＭＧワークス,,株式会社,大分県,大分市,大字三佐２０７９番地,,44,201,8700108,,,,,,,2022-01-12,1,,,,,エムジーワークス,0
1385,4330001029349,新規,0,2022-01-12,2022-01-12,和前興産株式会社,,株式会社,熊本県,熊本市北区,植木町木留字南中原６８１－１,,43,105,8610151,,,,,,,2022-01-12,1,,,,,カズマエコウサン,0
1388,4340001024415,新規,0,2022-01-12,2022-01-12,株式会社ａｎｄＭＧＫ,,株式会社,鹿児島県,鹿児島市,中町８番８号,,46,201,8920827,,,,,,,2022-01-12,1,,,,,アンドエムジーケー,0
1389,4340001024423,新規,0,2022-01-12,2022-01-12,株式会社ライトステップ,,株式会社,鹿児島県,鹿児島市,樋之口町１２－１９,,46,201,8920845,,,,,,,2022-01-12,1,,,,,ライトステップ,0
1390,4340001024431,新規,0,2022-01-12,2022-01-12,株式会社Ｂｌｕｅ　Ｂｅｅ,,株式会社,鹿児島県,鹿児島市,東千石町１４番２２号,,46,201,8920842,,,,,,,2022-01-12,1,,,,,ブルービー,0
1394,4350003004001,新規,0,2022-01-12,2022-01-12,合同会社Ｔｈｅ　Ａｎｓｗｅｒ,,合同会社,宮崎県,都城市,下川東３丁目１６号９番地アルドールＮ２０２,,45,202,8850011,,,,,,,2022-01-12,1,,,,,,0
1396,4360001029866,新規,0,2022-01-12,2022-01-12,株式会社クレア,,株式会社,沖縄県,浦添市,内間１丁目１４番２２号,,47,208,9012121,,,,,,,2022-01-12,1,,,,,クレア,0
1403,4380001032471,新規,0,2022-01-12,2022-01-12,会津管財アグリ株式会社,,株式会社,福島県,大沼郡会津美里町,字本郷道上１番地,,07,447,9696164,,,,,,,2022-01-12,1,,,,,アイヅカンザイアグリ,0
1410,4400001015738,新規,0,2022-01-12,2022-01-12,株式会社Ｎａｇａｓａｗａ　ＣＯＦＦＥＥ,,株式会社,岩手県,盛岡市,上田１丁目１１番２３号,,03,201,0200066,,,,,,,2022-01-12,1,,,,,ナガサワコーヒー,0
1414,4410001013071,新規,0,2022-01-12,2022-01-12,株式会社ひまわり不動産,,株式会社,秋田県,秋田市,泉北３丁目８番４号,,05,201,0100916,,,,,,,2022-01-12,1,,,,,ヒマワリフドウサン,0
1416,4420001017690,新規,0,2022-01-12,2022-01-12,株式会社對馬精米所,,株式会社,青森県,平川市,館山前田２５番地１,,02,210,0360162,,,,,,,2022-01-12,1,,,,,ツシマセイマイジョ,0
1422,4430001085687,新規,0,2022-01-12,2022-01-12,大塚ホールディングス株式会社,,株式会社,北海道,新冠郡新冠町,字高江１６３番地の２,,01,604,0592413,,,,,,,2022-01-12,1,,,,,オオツカホールディングス,0
1423,4430001085704,新規,0,2022-01-12,2022-01-12,ＢＰニュータウン株式会社,,株式会社,北海道,北広島市,輝美町８番３,,01,234,0611135,,,,,,,2022-01-12,1,,,,,ビーピーニュータウン,0
1424,4430001085753,新規,0,2022-01-12,2022-01-12,株式会社堀田冷設,,株式会社,北海道,札幌市東区,北四十条東１４丁目２番１２号,,01,103,0070840,,,,,,,2022-01-12,1,,,,,ホリタレイセツ,0
1433,4470001018916,新規,0,2022-01-12,2022-01-12,四国化成工業化学品事業分割準備株式会社,,株式会社,香川県,丸亀市,土器町東８丁目５３７番地１,,37,202,7630082,,,,,,,2022-01-12,1,,,,,シコクカセイコウギョウカガクヒンジギョウブンカツジュンビ,0
1434,4490001010086,新規,0,2022-01-12,2022-01-12,瀬戸島建工株式会社,,株式会社,高知県,高知市,瀬戸西町２丁目２８３番地,,39,201,7810251,,,,,,,2022-01-12,1,,,,,セチジマケンコウ,0
1444,5010001223602,新規,0,2022-01-12,2022-01-12,株式会社ハマエステート,,株式会社,東京都,中央区,日本橋蛎殻町１丁目２８番２号ＭＡＲＫ－Ｂ３階,,13,102,1030014,,,,,,,2022-01-12,1,,,,,ハマエステート,0
1445,5010001223643,新規,0,2022-01-12,2022-01-12,株式会社隅田川ＶＥＧ,,株式会社,東京都,中央区,日本橋大伝馬町１３番７号,,13,102,1030011,,,,,,,2022-01-12,1,,,,,スミダガワベジ,0
1446,5010001223734,新規,0,2022-01-12,2022-01-12,肯大投資株式会社,,株式会社,東京都,中央区,月島１丁目２２番１－２４１６号,,13,102,1040052,,,,,,,2022-01-12,1,,,,,コウダイトウシ,0
1451,5010005034426,新規,0,2022-01-12,2022-01-12,コルブスＭＦ特定目的会社,,その他の設立登記法人,東京都,千代田区,霞が関３丁目２番５号,,13,101,1000013,,,,,,,2022-01-12,1,,,,,コルブスエムエフ,0
1452,5010005034434,新規,0,2022-01-12,2022-01-12,一般社団法人ＬＭ１,,その他の設立登記法人,東京都,千代田区,丸の内３丁目１番１号東京共同会計事務所内,,13,101,1000005,,,,,,,2022-01-12,1,,,,,エルエムワン,0
1453,5010005034442,新規,0,2022-01-12,2022-01-12,一般社団法人ＣＢ１,,その他の設立登記法人,東京都,中央区,京橋１丁目１４番９号株式会社えいえん堂内,,13,102,1040031,,,,,,,2022-01-12,1,,,,,シービーワン,0
1470,5010405020562,新規,0,2022-01-12,2022-01-12,一般社団法人ＥＯ　Ｔｏｋｙｏ　Ｐｌａｔｉｎｕｍ,,その他の設立登記法人,東京都,港区,西新橋１丁目２番９号日比谷セントラルビル１４階,,13,103,1050003,,,,,,,2022-01-12,1,,,,,イーオートウキョウプラチナム,0
1473,5010601060486,新規,0,2022-01-12,2022-01-12,晏晟株式会社,,株式会社,東京都,江東区,木場５丁目１番５号,,13,108,1350042,,,,,,,2022-01-12,1,,,,,エンセイ,0
1474,5010605004027,新規,0,2022-01-12,2022-01-12,一般社団法人国際ｅコマース協会,,その他の設立登記法人,東京都,江東区,青海３丁目２番１７号ワールド流通センター中央事務所棟４０４号,,13,108,1350064,,,,,,,2022-01-12,1,,,,,コクサイイーコマースキョウカイ,0
1493,5011001144895,新規,0,2022-01-12,2022-01-12,株式会社山,,株式会社,東京都,目黒区,上目黒３丁目１７番２２号,,13,110,1530051,,,,,,,2022-01-12,1,,,,,ヤマ,0
1494,5011001144937,新規,0,2022-01-12,2022-01-12,モク株式会社,,株式会社,東京都,渋谷区,神宮前６丁目２３番４号桑野ビル２階,,13,113,1500001,,,,,,,2022-01-12,1,,,,,モク,0
1495,5011001144953,新規,0,2022-01-12,2022-01-12,株式会社ｎｅａｒ,,株式会社,東京都,渋谷区,松濤２丁目１８番８号,,13,113,1500046,,,,,,,2022-01-12,1,,,,,ニア,0
1496,5011001144978,新規,0,2022-01-12,2022-01-12,Ｃｏｏｒｄ株式会社,,株式会社,東京都,渋谷区,猿楽町２番１２号相野谷ビル２０６,,13,113,1500033,,,,,,,2022-01-12,1,,,,,コード,0
1497,5011001145002,新規,0,2022-01-12,2022-01-12,株式会社Ｎ－ｎｏｓｅ,,株式会社,東京都,目黒区,上目黒５丁目６番２号－５０１,,13,110,1530051,,,,,,,2022-01-12,1,,,,,エヌノーズ,0
1498,5011003013966,新規,0,2022-01-12,2022-01-12,合同会社ソルテール,,合同会社,東京都,渋谷区,恵比寿南１丁目２番１２号伊能ビル５Ｆ,,13,113,1500022,,,,,,,2022-01-12,1,,,,,ソルテール,0
1501,5011101097440,新規,0,2022-01-12,2022-01-12,株式会社ＲＥＫ,,株式会社,東京都,新宿区,大久保２丁目２５番２４号メゾンサーチ１０１,,13,104,1690072,,,,,,,2022-01-12,1,,,,,アールイーケー,0
1502,5011101097449,新規,0,2022-01-12,2022-01-12,株式会社Ｖａｌｕｅ　Ｌｉｎｋ　Ｔｅｃｈｎｏｌｏｇｙ,,株式会社,東京都,新宿区,西新宿８丁目１番２号ＰＭＯ西新宿３Ｆ,,13,104,1600023,,,,,,,2022-01-12,1,,,,,バリューリンクテクノロジー,0
1504,5011103011358,新規,0,2022-01-12,2022-01-12,メタメタ合同会社,,合同会社,東京都,新宿区,市谷田町１丁目２番地,,13,104,1620843,,,,,,,2022-01-12,1,,,,,メタメタ,0
1514,5011501027625,新規,0,2022-01-12,2022-01-12,新時代株式会社,,株式会社,東京都,北区,東十条５丁目３番４－４０２号,,13,117,1140001,,,,,,,2022-01-12,1,,,,,シンジダイ,0
1517,5011701024959,新規,0,2022-01-12,2022-01-12,株式会社未来図広告社,,株式会社,東京都,江戸川区,西葛西５丁目１１番１１号司ビル２Ｆ,,13,123,1340088,,,,,,,2022-01-12,1,,,,,ミライズコウコクシャ,0
1518,5011701024967,新規,0,2022-01-12,2022-01-12,株式会社ｋａｎｏｕｓｅｉ,,株式会社,東京都,江戸川区,東葛西６丁目３７－４,,13,123,1340084,,,,,,,2022-01-12,1,,,,,カノウセイ,0
1533,5012401038712,新規,0,2022-01-12,2022-01-12,ゼロワン企画株式会社,,株式会社,東京都,府中市,西原町２丁目１０番地の５９,,13,206,1830046,,,,,,,2022-01-12,1,,,,,ゼロワンキカク,0
1538,5013101008823,新規,0,2022-01-12,2022-01-12,株式会社ＧＥＴＡＹＡ,,株式会社,東京都,青梅市,谷野８番地,,13,205,1980012,,,,,,,2022-01-12,1,,,,,ゲタヤ,0
1539,5013301048504,新規,0,2022-01-12,2022-01-12,株式会社アイディアルズ,,株式会社,東京都,豊島区,駒込１丁目１０番１５－１１０６号,,13,116,1700003,,,,,,,2022-01-12,1,,,,,アイディアルズ,0
1544,5020001144649,新規,0,2022-01-12,2022-01-12,株式会社ＡＸＩＳ,,株式会社,神奈川県,横浜市鶴見区,江ケ崎町２５番４－１０３号,,14,101,2300002,,,,,,,2022-01-12,1,,,,,アクシズ,0
1545,5020001144665,新規,0,2022-01-12,2022-01-12,アールズワークス株式会社,,株式会社,神奈川県,横浜市港北区,新吉田東１丁目１番１９－２号,,14,109,2230058,,,,,,,2022-01-12,1,,,,,アールズワークス,0
1546,5020001144673,新規,0,2022-01-12,2022-01-12,株式会社ＡｐｅＸ,,株式会社,神奈川県,横浜市保土ケ谷区,上菅田町９５１番地４７,,14,106,2400051,,,,,,,2022-01-12,1,,,,,アペックス,0
1554,5020003021078,新規,0,2022-01-12,2022-01-12,インターステラー合同会社,,合同会社,神奈川県,横浜市港北区,綱島西６丁目１２番１８号,,14,109,2230053,,,,,,,2022-01-12,1,,,,,インターステラー,0
1555,5020003021086,新規,0,2022-01-12,2022-01-12,合同会社ＹＲ,,合同会社,神奈川県,横浜市南区,井土ケ谷中町１５７ダイアパレス井土ヶ谷２０８,,14,105,2320052,,,,,,,2022-01-12,1,,,,,ワイアール,0
1560,5021001074910,新規,0,2022-01-12,2022-01-12,相模鈴木不動産株式会社,,株式会社,神奈川県,相模原市中央区,田名塩田２丁目６番８号,,14,152,2520245,,,,,,,2022-01-12,1,,,,,サガミスズキフドウサン,0
1561,5021003011283,新規,0,2022-01-12,2022-01-12,合同会社ＮＲＰ,,合同会社,神奈川県,座間市,さがみ野２丁目２番３－７号,,14,216,2520005,,,,,,,2022-01-12,1,,,,,エヌアールピー,0
1567,5030001146289,新規,0,2022-01-12,2022-01-12,株式会社ＳＯＬ,,株式会社,埼玉県,久喜市,鷲宮５８３番地１１,,11,232,3400217,,,,,,,2022-01-12,1,,,,,ソル,0
1568,5030001146314,新規,0,2022-01-12,2022-01-12,株式会社アズワン,,株式会社,埼玉県,八潮市,大瀬４丁目２１番地４,,11,234,3400822,,,,,,,2022-01-12,1,,,,,アズワン,0
1569,5030001146330,新規,0,2022-01-12,2022-01-12,株式会社ＲＥＧＯＬＩＴＨ,,株式会社,埼玉県,さいたま市岩槻区,大字岩槻１５２７番地５,,11,110,3390061,,,,,,,2022-01-12,1,,,,,レゴリス,0
1571,5030003018635,新規,0,2022-01-12,2022-01-12,アーネスト合同会社,,合同会社,埼玉県,加須市,旗井５００番地８,,11,210,3491132,,,,,,,2022-01-12,1,,,,,アーネスト,0
1578,5040001121654,新規,0,2022-01-12,2022-01-12,株式会社中田不動産鑑定,,株式会社,千葉県,千葉市緑区,おゆみ野中央８丁目２５番地２４,,12,105,2660032,,,,,,,2022-01-12,1,,,,,ナカタフドウサンカンテイ,0
1579,5040001121712,新規,0,2022-01-12,2022-01-12,ＯＫシステム株式会社,,株式会社,千葉県,我孫子市,布佐平和台４丁目８番３号,,12,222,2701108,,,,,,,2022-01-12,1,,,,,オーケーシステム,0
1580,5040003019252,新規,0,2022-01-12,2022-01-12,合同会社Ｒｅｔｅｌａｓ,,合同会社,千葉県,香取市,小見１６６１番地３４,,12,236,2890402,,,,,,,2022-01-12,1,,,,,リテラス,0
1581,5050001050431,新規,0,2022-01-12,2022-01-12,株式会社常南衛生社,,株式会社,茨城県,龍ケ崎市,姫宮町１１１番地,,08,208,3010017,,,,,,,2022-01-12,1,,,,,ジョウナンエイセイシャ,0
1584,5050003006299,新規,0,2022-01-12,2022-01-12,合同会社ＣＨＥＴＨＵＭＩ　ＩＮＴＥＲＮＡＴＩＯＮＡＬ,,合同会社,茨城県,結城市,大字結城８４０番地ダイヤマテナント１階北側,,08,207,3070001,,,,,,,2022-01-12,1,,,,,チェトゥミインターナショナル,0
1587,5060001034441,新規,0,2022-01-12,2022-01-12,株式会社近藤ファーム,,株式会社,栃木県,下野市,国分寺１９９４番地,,09,216,3290417,,,,,,,2022-01-12,1,,,,,コンドウファーム,0
1592,5070001038821,新規,0,2022-01-12,2022-01-12,Ｋガレイジ株式会社,,株式会社,群馬県,桐生市,新里町板橋９７９番地１０５,,10,203,3760136,,,,,,,2022-01-12,1,,,,,ケーガレイジ,0
1593,5080003002717,新規,0,2022-01-12,2022-01-12,合同会社アリ・アルシャード商会,,合同会社,静岡県,静岡市清水区,袖師町９５０番地の２呂凡荘Ａ－２,,22,103,4240037,,,,,,,2022-01-12,1,,,,,アリアルシャードショウカイ,0
1594,5080101023037,新規,0,2022-01-12,2022-01-12,株式会社わたしたち,,株式会社,静岡県,伊豆の国市,原木６２７番地,,22,225,4102124,,,,,,,2022-01-12,1,,,,,ワタシタチ,0
1595,5080401025567,新規,0,2022-01-12,2022-01-12,株式会社アルファ,,株式会社,静岡県,浜松市中区,高丘西２丁目３１番２３号,,22,131,4338118,,,,,,,2022-01-12,1,,,,,アルファ,0
1597,5090003002022,新規,0,2022-01-12,2022-01-12,合同会社Ａｄｄ　Ｗｉｓｔｅｒｉａ,,合同会社,山梨県,南アルプス市,十日市場２０１１－１,,19,208,4000336,,,,,,,2022-01-12,1,,,,,アドウィステリア,0
1598,5090005007457,新規,0,2022-01-12,2022-01-12,特定非営利活動法人天空の里ひらりん,,その他の設立登記法人,山梨県,南巨摩郡富士川町,平林２０１２－１,,19,368,4000514,,,,,,,2022-01-12,1,,,,,テンクウノサトヒラリン,0
1611,5120001242946,新規,0,2022-01-12,2022-01-12,株式会社黒門小雀弥福島,,株式会社,大阪府,大阪市福島区,玉川４丁目１０番２号,,27,103,5530004,,,,,,,2022-01-12,1,,,,,クロモンコガラヤフクシマ,0
1612,5120001242970,新規,0,2022-01-12,2022-01-12,株式会社ＨＥＲＺｓ,,株式会社,大阪府,大阪市北区,同心２丁目１５－４,,27,127,5300035,,,,,,,2022-01-12,1,,,,,ヘルツズ,0
1613,5120003020920,新規,0,2022-01-12,2022-01-12,合同会社アプロ,,合同会社,大阪府,大阪市天王寺区,生玉町１１番２４－７０３号,,27,109,5430071,,,,,,,2022-01-12,1,,,,,アプロ,0
1619,5120901045440,新規,0,2022-01-12,2022-01-12,株式会社ＹＹＡ,,株式会社,大阪府,茨木市,庄１丁目３－３－２,,27,211,5670806,,,,,,,2022-01-12,1,,,,,ワイワイエー,0
1622,5122001035495,新規,0,2022-01-12,2022-01-12,株式会社雅工務店,,株式会社,大阪府,東大阪市,中鴻池町１丁目７番８号,,27,227,5780975,,,,,,,2022-01-12,1,,,,,ミヤビコウムテン,0
1624,5140001124481,新規,0,2022-01-12,2022-01-12,橘瓦株式会社,,株式会社,兵庫県,姫路市,林田町下伊勢３０８番地,,28,201,6794233,,,,,,,2022-01-12,1,,,,,タチバナカワラ,0
1631,5140005025981,新規,0,2022-01-12,2022-01-12,一般社団法人Ｆ－ｕｎｉｏｎ,,その他の設立登記法人,兵庫県,丹波市,春日町下三井庄３０番地１,,28,223,6694252,,,,,,,2022-01-12,1,,,,,エフユニオン,0
1635,5170001016932,新規,0,2022-01-12,2022-01-12,Ｒｏｕｎｄ　Ｍｏｎｏｌｉｔｈ株式会社,,株式会社,和歌山県,日高郡印南町,大字宮ノ前３２７番地の７,,30,390,6491526,,,,,,,2022-01-12,1,,,,,ラウンドモノリス,0
1643,5180001149392,新規,0,2022-01-12,2022-01-12,株式会社オートメカドック,,株式会社,愛知県,一宮市,伝法寺５丁目１４番地７,,23,203,4910828,,,,,,,2022-01-12,1,,,,,オートメカドック,0
1644,5180001149450,新規,0,2022-01-12,2022-01-12,株式会社アサヒ電子,,株式会社,愛知県,名古屋市天白区,元八事２丁目１３０番地,,23,116,4680066,,,,,,,2022-01-12,1,,,,,アサヒデンシ,0
1648,5180003023348,新規,0,2022-01-12,2022-01-12,合同会社Ｖｏｉｄ,,合同会社,愛知県,名古屋市天白区,中平５丁目１３０５番地,,23,116,4680014,,,,,,,2022-01-12,1,,,,,ボイド,0
1651,5180301035821,新規,0,2022-01-12,2022-01-12,株式会社ネクセル,,株式会社,愛知県,豊田市,明和町２丁目３０番地１３,,23,211,4710825,,,,,,,2022-01-12,1,,,,,ネクセル,0
1652,5180305009284,新規,0,2022-01-12,2022-01-12,特定非営利活動法人環境ボランティアサークル亀の子隊,,その他の設立登記法人,愛知県,田原市,赤羽根町赤土１赤羽根市民センター３階,,23,231,4413502,,,,,,,2022-01-12,1,,,,,カンキョウボランティアサークルカメノコタイ,0
1655,5200001039632,新規,0,2022-01-12,2022-01-12,株式会社ｓａｑｉｎａ,,株式会社,岐阜県,恵那市,三郷町佐々良木１８２８番地２７７,,21,210,5097124,,,,,,,2022-01-12,1,,,,,サキナ,0
1656,5200001039640,新規,0,2022-01-12,2022-01-12,株式会社ＪＮカンパニー,,株式会社,岐阜県,岐阜市,西荘４丁目１２番１０号,,21,201,5008362,,,,,,,2022-01-12,1,,,,,ジェイエヌカンパニー,0
1657,5200001039649,新規,0,2022-01-12,2022-01-12,株式会社モナミパン,,株式会社,岐阜県,各務原市,川島渡町１０６番地,,21,213,5016028,,,,,,,2022-01-12,1,,,,,モナミパン,0
1658,5200003005418,新規,0,2022-01-12,2022-01-12,馬渕事務所合同会社,,合同会社,岐阜県,瑞穂市,本田１５７６番地１,,21,216,5010236,,,,,,,2022-01-12,1,,,,,マブチジムショ,0
1661,5220005008623,新規,0,2022-01-12,2022-01-12,農事組合法人むぎわら,,その他の設立登記法人,石川県,河北郡津幡町,字川尻カ２３９番地,,17,361,9290334,,,,,,,2022-01-12,1,,,,,ムギワラ,0
1663,5230001019177,新規,0,2022-01-12,2022-01-12,株式会社もくもく,,株式会社,富山県,富山市,水橋肘崎６４２番地６,,16,201,9393552,,,,,,,2022-01-12,1,,,,,,0
1672,5260003003770,新規,0,2022-01-12,2022-01-12,合同会社アイケイズ,,合同会社,岡山県,岡山市南区,福田２１１番地２,,33,104,7028021,,,,,,,2022-01-12,1,,,,,アイケイズ,0
1674,5280001008605,新規,0,2022-01-12,2022-01-12,交交株式会社,,株式会社,島根県,隠岐郡海士町,大字海士１８３９番地３,,32,525,6840403,,,,,,,2022-01-12,1,,,,,コモゴモ,0
1681,5290001096005,新規,0,2022-01-12,2022-01-12,株式会社あすなろリアルティ,,株式会社,福岡県,福岡市博多区,下川端町１０番１６号,,40,132,8120027,,,,,,,2022-01-12,1,,,,,アスナロリアルティ,0
1682,5290001096013,新規,0,2022-01-12,2022-01-12,株式会社エールスペック,,株式会社,福岡県,福岡市南区,横手南町２２番１－２０５号,,40,134,8111312,,,,,,,2022-01-12,1,,,,,エールスペック,0
1683,5290001096054,新規,0,2022-01-12,2022-01-12,ＲＥＧＡＲＯ株式会社,,株式会社,福岡県,福岡市中央区,六本松１丁目３番１３号２階,,40,133,8100044,,,,,,,2022-01-12,1,,,,,レガロ,0
1684,5290003011969,新規,0,2022-01-12,2022-01-12,合同会社ａｉｎｏａ,,合同会社,福岡県,福岡市中央区,谷１丁目１番６号プレジデント桜坂５０１,,40,133,8100031,,,,,,,2022-01-12,1,,,,,アイノア,0
1697,5310001017676,新規,0,2022-01-12,2022-01-12,ｆｏｏｔｐｒｉｎｔ株式会社,,株式会社,長崎県,長崎市,磯道町１３０番地２,,42,201,8500971,,,,,,,2022-01-12,1,,,,,フットプリント,0
1699,5310003004251,新規,0,2022-01-12,2022-01-12,合同会社リリー,,合同会社,長崎県,長崎市,矢上町１８番１７号,,42,201,8510133,,,,,,,2022-01-12,1,,,,,リリー,0
1707,5330001029348,新規,0,2022-01-12,2022-01-12,株式会社中村機工,,株式会社,熊本県,熊本市北区,清水本町３３番６０号アドニスハイツ３０３,,43,105,8618074,,,,,,,2022-01-12,1,,,,,ナカムラキコウ,0
1712,5340001024397,新規,0,2022-01-12,2022-01-12,株式会社仲農産,,株式会社,鹿児島県,大島郡天城町,大字西阿木名５７１番地,,46,531,8917731,,,,,,,2022-01-12,1,,,,,ナカノウサン,0
1713,5340001024414,新規,0,2022-01-12,2022-01-12,株式会社やまと,,株式会社,鹿児島県,鹿児島市,西別府町２４１６番地１,,46,201,8900033,,,,,,,2022-01-12,1,,,,,ヤマト,0
1717,5340005009394,新規,0,2022-01-12,2022-01-12,社会福祉法人鹿児島福祉会,,その他の設立登記法人,鹿児島県,鹿児島市,緑ヶ丘町５番５号,,46,201,8911274,,,,,,,2022-01-12,1,,,,,カゴシマフクシカイ,0
1718,5350001017516,新規,0,2022-01-12,2022-01-12,株式会社ライズ,,株式会社,宮崎県,宮崎市,橘通西１丁目５番２７号アーバン高塚８０２号室,,45,201,8800001,,,,,,,2022-01-12,1,,,,,ライズ,0
1719,5350001017524,新規,0,2022-01-12,2022-01-12,株式会社山崎総業,,株式会社,宮崎県,宮崎市,高岡町浦之名２８２８番地１,,45,201,8802323,,,,,,,2022-01-12,1,,,,,ヤマサキソウギョウ,0
1720,5350001017532,新規,0,2022-01-12,2022-01-12,株式会社ＬｉｖｅＮｅｘｔ,,株式会社,宮崎県,宮崎市,小松台南町１０番地５,,45,201,8800956,,,,,,,2022-01-12,1,,,,,ライブネクスト,0
1722,5360001029865,新規,0,2022-01-12,2022-01-12,株式会社オンファービス,,株式会社,沖縄県,豊見城市,字嘉数１０番地３,,47,212,9010202,,,,,,,2022-01-12,1,,,,,オンファービス,0
1725,5370001048022,新規,0,2022-01-12,2022-01-12,株式会社ブルーアース,,株式会社,宮城県,仙台市若林区,霞目２丁目１６番１５号,,04,103,9840035,,,,,,,2022-01-12,1,,,,,ブルーアース,0
1730,5380001032470,新規,0,2022-01-12,2022-01-12,株式会社美らい工建,,株式会社,福島県,いわき市,泉もえぎ台１丁目２６番地の４,,07,204,9718188,,,,,,,2022-01-12,1,,,,,ミライコウケン,0
1742,5400003002881,新規,0,2022-01-12,2022-01-12,合同会社波光,,合同会社,岩手県,盛岡市,本宮２丁目４１－１,,03,201,0200866,,,,,,,2022-01-12,1,,,,,ナミヒカリ,0
1748,5410001013070,新規,0,2022-01-12,2022-01-12,株式会社レブル,,株式会社,秋田県,秋田市,土崎港中央３丁目４番９号,,05,201,0110946,,,,,,,2022-01-12,1,,,,,レブル,0
1749,5410001013079,新規,0,2022-01-12,2022-01-12,ネネネ株式会社,,株式会社,秋田県,仙北市,田沢湖生保内字武蔵野４１番地４４,,05,215,0141201,,,,,,,2022-01-12,1,,,,,ネネネ,0
1754,5430001085736,新規,0,2022-01-12,2022-01-12,株式会社タムラ塗装,,株式会社,北海道,苫小牧市,北光町２丁目１４番１０号,,01,213,0530852,,,,,,,2022-01-12,1,,,,,タムラトソウ,0
1755,5430001085760,新規,0,2022-01-12,2022-01-12,株式会社ｎｉｔｅｎｓ,,株式会社,北海道,札幌市中央区,南八条西９丁目１０３１番地３コンサンビル４０１号,,01,101,0640808,,,,,,,2022-01-12,1,,,,,ニテンス,0
1758,5430003013513,新規,0,2022-01-12,2022-01-12,合同会社ｆ＆ｂ,,合同会社,北海道,樺戸郡浦臼町,字ヲソキナイ２番地の２７３,,01,431,0610600,,,,,,,2022-01-12,1,,,,,エフアンドビー,0
1764,5450003002167,新規,0,2022-01-12,2022-01-12,合同会社お陽さま企画,,合同会社,北海道,旭川市,錦町１４丁目２９５４番地６グランワコーレ２Ｆ－２Ａ,,01,204,0700824,,,,,,,2022-01-12,1,,,,,オヒサマキカク,0
1766,5470001018915,新規,0,2022-01-12,2022-01-12,株式会社Ｏｍｏｔｏ,,株式会社,香川県,高松市,牟礼町牟礼３７４番地６,,37,201,7610121,,,,,,,2022-01-12,1,,,,,オオモト,0
1767,5480001011613,新規,0,2022-01-12,2022-01-12,株式会社ウェルプラスハウス,,株式会社,徳島県,板野郡北島町,江尻字夷ノ本２５番地２,,36,402,7710205,,,,,,,2022-01-12,1,,,,,ウェルプラスハウス,0
1768,5490001010085,新規,0,2022-01-12,2022-01-12,株式会社オカベサイン,,株式会社,高知県,高知市,高見町３０１番地２,,39,201,7808027,,,,,,,2022-01-12,1,,,,,オカベサイン,0
1772,5500001023928,新規,0,2022-01-12,2022-01-12,株式会社Ｌｉｖｒｅ,,株式会社,愛媛県,伊予郡松前町,大字神崎９４２番地,,38,401,7913161,,,,,,,2022-01-12,1,,,,,リブレ,0
1795,6010001223709,新規,0,2022-01-12,2022-01-12,宇津永富テクノロジーズ株式会社,,株式会社,東京都,中央区,日本橋本町２丁目８番８号,,13,102,1030023,,,,,,,2022-01-12,1,,,,,ウツナガトミテクノロジーズ,0
1796,6010001223808,新規,0,2022-01-12,2022-01-12,Ｍａｉｓｏｎ　Ｐｕｌｓｅ株式会社,,株式会社,東京都,中央区,日本橋兜町１７番２号兜町第６葉山ビル４階ＭＥＴＳオフィス,,13,102,1030026,,,,,,,2022-01-12,1,,,,,メゾンパルス,0
1801,6010005034425,新規,0,2022-01-12,2022-01-12,一般社団法人プロパンガス料金相談窓口,,その他の設立登記法人,東京都,中央区,銀座１丁目２２番１１号,,13,102,1040061,,,,,,,2022-01-12,1,,,,,プロパンガスリョウキンソウダンマドグチ,0
1802,6010005034433,新規,0,2022-01-12,2022-01-12,一般社団法人ＬＯＧＩ’Ｑ１,,その他の設立登記法人,東京都,千代田区,丸の内３丁目１番１号東京共同会計事務所内,,13,101,1000005,,,,,,,2022-01-12,1,,,,,ロジックワン,0
1803,6010005034441,新規,0,2022-01-12,2022-01-12,一般社団法人スペイン羊肉協会,,その他の設立登記法人,東京都,中央区,入船３丁目１０番７号,,13,102,1040042,,,,,,,2022-01-12,1,,,,,スペインヒツジニクキョウカイ,0
1817,6010405020561,新規,0,2022-01-12,2022-01-12,一般社団法人クリーンエネルギーイニシアティブ,,その他の設立登記法人,東京都,港区,赤坂２丁目１４番１３号シャトレ赤坂４０２,,13,103,1070052,,,,,,,2022-01-12,1,,,,,クリーンエネルギーイニシアティブ,0
1818,6010501048300,新規,0,2022-01-12,2022-01-12,株式会社ワトギコンサルティング,,株式会社,東京都,台東区,上野２丁目１２－１８池之端ヒロビル２階,,13,106,1100005,,,,,,,2022-01-12,1,,,,,ワトギコンサルティング,0
1819,6010501048309,新規,0,2022-01-12,2022-01-12,株式会社ＭＡＴＥＲＩＡＬ,,株式会社,東京都,台東区,寿３丁目１１番１－９０３号,,13,106,1110042,,,,,,,2022-01-12,1,,,,,マテリアル,0
1822,6010601060477,新規,0,2022-01-12,2022-01-12,株式会社和田分,,株式会社,東京都,江東区,豊洲６丁目５番１号,,13,108,1350061,,,,,,,2022-01-12,1,,,,,ワダブン,0
1826,6010701042037,新規,0,2022-01-12,2022-01-12,株式会社テックナレッジハウス,,株式会社,東京都,品川区,旗の台２丁目９番３４－１００１号,,13,109,1420064,,,,,,,2022-01-12,1,,,,,テックナレッジハウス,0
1827,6010701042045,新規,0,2022-01-12,2022-01-12,株式会社Ｓａｉｌ,,株式会社,東京都,品川区,大崎５丁目５番３－４０１号,,13,109,1410032,,,,,,,2022-01-12,1,,,,,セイル,0
1828,6010701042053,新規,0,2022-01-12,2022-01-12,ＬＡＲＴＨ株式会社,,株式会社,東京都,品川区,平塚１丁目１８番１１号,,13,109,1420051,,,,,,,2022-01-12,1,,,,,ラース,0
1832,6010901050079,新規,0,2022-01-12,2022-01-12,スクウェア・ビー株式会社,,株式会社,東京都,世田谷区,玉川３丁目１２番６号,,13,112,1580094,,,,,,,2022-01-12,1,,,,,スクウェアビー,0
1834,6011001144977,新規,0,2022-01-12,2022-01-12,株式会社アッカーマン,,株式会社,東京都,渋谷区,神宮前６丁目２３番４号桑野ビル２階,,13,113,1500001,,,,,,,2022-01-12,1,,,,,アッカーマン,0
1835,6011001144985,新規,0,2022-01-12,2022-01-12,株式会社ウィズクルー,,株式会社,東京都,渋谷区,道玄坂１丁目１０番８号渋谷道玄坂東急ビル２Ｆ－Ｃ,,13,113,1500043,,,,,,,2022-01-12,1,,,,,ウィズクルー,0
1836,6011003013973,新規,0,2022-01-12,2022-01-12,合同会社ＫＫＫ,,合同会社,東京都,渋谷区,富ヶ谷１丁目４３番９－１０１号,,13,113,1510063,,,,,,,2022-01-12,1,,,,,ケイケイケイ,0
1841,6011101097448,新規,0,2022-01-12,2022-01-12,株式会社ＡＲＡＴＡ,,株式会社,東京都,新宿区,西新宿３丁目３番１３号西新宿水間ビル６階,,13,104,1600023,,,,,,,2022-01-12,1,,,,,アラタ,0
1842,6011101097464,新規,0,2022-01-12,2022-01-12,株式会社ＭＩＭＡ,,株式会社,東京都,新宿区,大京町２８番地１プラウド新宿御苑エンパイア１０４,,13,104,1600015,,,,,,,2022-01-12,1,,,,,ミマ,0
1844,6011103011349,新規,0,2022-01-12,2022-01-12,合同会社Ｆｅｒｎ,,合同会社,東京都,新宿区,西早稲田１丁目２３番８－６０５号,,13,104,1690051,,,,,,,2022-01-12,1,,,,,フェルン,0
1845,6011303004276,新規,0,2022-01-12,2022-01-12,Ｗｉｄｅ　Ｄｉｇｉｔａｌ合同会社,,合同会社,東京都,杉並区,阿佐谷南１丁目３４番６号新東京会館５Ｆ,,13,115,1660004,,,,,,,2022-01-12,1,,,,,ワイドテジタル,0
1853,6011501027624,新規,0,2022-01-12,2022-01-12,銀路株式会社,,株式会社,東京都,北区,東十条５丁目３番４－４０１号,,13,117,1140001,,,,,,,2022-01-12,1,,,,,ギンロ,0
1854,6011501027640,新規,0,2022-01-12,2022-01-12,株式会社Ｋ－ＬＩＦＥ,,株式会社,東京都,北区,王子４丁目２７番７号,,13,117,1140002,,,,,,,2022-01-12,1,,,,,ケーライフ,0
1870,6011803004924,新規,0,2022-01-12,2022-01-12,スゥール合同会社,,合同会社,東京都,足立区,梅島１丁目３２番地９号ｃｏｙａ’７２,,13,121,1210816,,,,,,,2022-01-12,1,,,,,スゥール,0
1875,6012301012832,新規,0,2022-01-12,2022-01-12,株式会社ソウエイ測量,,株式会社,東京都,町田市,野津田町６４２番地１０,,13,209,1950063,,,,,,,2022-01-12,1,,,,,ソウエイソクリョウ,0
1891,6020001144664,新規,0,2022-01-12,2022-01-12,株式会社ルアナ,,株式会社,神奈川県,横浜市中区,花咲町２丁目６３番４号,,14,104,2310063,,,,,,,2022-01-12,1,,,,,ルアナ,0
1892,6020001144672,新規,0,2022-01-12,2022-01-12,ＣＥＬＬＶＥＲ株式会社,,株式会社,神奈川県,横浜市青葉区,青葉台１丁目３１番地１,,14,117,2270062,,,,,,,2022-01-12,1,,,,,セルバー,0
1897,6020003021093,新規,0,2022-01-12,2022-01-12,Ｌａｕｇｈ　Ｔａｌｅ合同会社,,合同会社,神奈川県,横浜市中区,山元町２丁目１０６番地カーサ渡辺２０１号,,14,104,2310851,,,,,,,2022-01-12,1,,,,,ラフテル,0
1916,6030001146115,新規,0,2022-01-12,2022-01-12,株式会社ＤＥＥＰ　ＥＮＤ,,株式会社,埼玉県,熊谷市,中央２丁目３２２番地,,11,202,3600018,,,,,,,2022-01-12,1,,,,,ディープエンド,0
1917,6030001146197,新規,0,2022-01-12,2022-01-12,株式会社建華,,株式会社,埼玉県,比企郡嵐山町,大字志賀１３７７番地１,,11,342,3550214,,,,,,,2022-01-12,1,,,,,タテハナ,0
1918,6030001146255,新規,0,2022-01-12,2022-01-12,株式会社眞下工業,,株式会社,埼玉県,東松山市,大字大谷１００２番地２,,11,212,3550008,,,,,,,2022-01-12,1,,,,,マシモコウギョウ,0
1928,6030005020687,新規,0,2022-01-12,2022-01-12,関東ネットワーク企業組合,,その他の設立登記法人,埼玉県,加須市,中樋遣川２２００番地,,11,210,3470008,,,,,,,2022-01-12,1,,,,,カントウネットワーク,0
1932,6040001121629,新規,0,2022-01-12,2022-01-12,株式会社ＡＢＣ整体スタジオ柏,,株式会社,千葉県,柏市,松葉町３丁目１５番地１ウェルシティビル２Ｆ,,12,217,2770827,,,,,,,2022-01-12,1,,,,,エービーシーセイタイスタジオカシワ,0
1933,6040001121711,新規,0,2022-01-12,2022-01-12,株式会社新建,,株式会社,千葉県,船橋市,三咲３丁目８番７号,,12,204,2740812,,,,,,,2022-01-12,1,,,,,シンケン,0
1938,6040003019227,新規,0,2022-01-12,2022-01-12,合同会社瞳栄,,合同会社,千葉県,千葉市中央区,新宿２丁目３番１５号Ｉｓ,,12,101,2600021,,,,,,,2022-01-12,1,,,,,ドウエイ,0
1939,6040003019235,新規,0,2022-01-12,2022-01-12,合同会社Ｄ’ｓ　ｂｅｓｔ,,合同会社,千葉県,柏市,若柴１７８番地４－３３１０,,12,217,2770871,,,,,,,2022-01-12,1,,,,,ディーズベスト,0
1940,6040003019243,新規,0,2022-01-12,2022-01-12,合同会社エンドウ,,合同会社,千葉県,印西市,中根２２２番地,,12,231,2702324,,,,,,,2022-01-12,1,,,,,エンドウ,0
1943,6050001050430,新規,0,2022-01-12,2022-01-12,株式会社ｅｓｔｈｅｒ,,株式会社,茨城県,守谷市,中央２丁目１６番地２１東横第７ビル１Ｆ,,08,224,3020115,,,,,,,2022-01-12,1,,,,,エステル,0
1947,6060001034457,新規,0,2022-01-12,2022-01-12,株式会社オネスト,,株式会社,栃木県,小山市,大字横倉４８４番地３,,09,208,3230813,,,,,,,2022-01-12,1,,,,,オネスト,0
1951,6070001038820,新規,0,2022-01-12,2022-01-12,株式会社Ｋ２ｆｉｅｌｄ,,株式会社,群馬県,前橋市,駒形町８４４番地１８,,10,201,3792122,,,,,,,2022-01-12,1,,,,,ケイツーフィールド,0
1969,6110001036316,新規,0,2022-01-12,2022-01-12,ケイスリー株式会社,,株式会社,新潟県,三条市,嘉坪川２丁目２番９－２号,,15,204,9550056,,,,,,,2022-01-12,1,,,,,ケイスリー,0
1970,6110001036324,新規,0,2022-01-12,2022-01-12,株式会社バウムリンゲ,,株式会社,新潟県,十日町市,妻有町東２丁目５番地９,,15,210,9480037,,,,,,,2022-01-12,1,,,,,バウムリンゲ,0
1972,6110003004675,新規,0,2022-01-12,2022-01-12,Ｍ・Ａ空調サービス合同会社,,合同会社,新潟県,三条市,新光町２０番２３号,,15,204,9550057,,,,,,,2022-01-12,1,,,,,エムエークウチョウサービス,0
1982,6120001242945,新規,0,2022-01-12,2022-01-12,株式会社黒門小雀弥日本橋,,株式会社,大阪府,大阪市中央区,日本橋１丁目２２番３１号,,27,128,5420073,,,,,,,2022-01-12,1,,,,,クロモンコガラヤニッポンバシ,0
1990,6120103004509,新規,0,2022-01-12,2022-01-12,合同会社リビングナル,,合同会社,大阪府,松原市,岡７丁目２３８,,27,217,5800014,,,,,,,2022-01-12,1,,,,,リビングナル,0
1994,6122001035478,新規,0,2022-01-12,2022-01-12,エディ・コンサルティング株式会社,,株式会社,大阪府,大東市,末広町１番１８０６号,,27,218,5740036,,,,,,,2022-01-12,1,,,,,エディコンサルティング,0
1999,6140001124480,新規,0,2022-01-12,2022-01-12,株式会社リヒテック,,株式会社,兵庫県,神戸市北区,大脇台８番１－５０１号,,28,109,6511144,,,,,,,2022-01-12,1,,,,,リヒテック,0
2003,6140003017170,新規,0,2022-01-12,2022-01-12,ＮＡ合同会社,,合同会社,兵庫県,三田市,香下１２７９,,28,219,6691507,,,,,,,2022-01-12,1,,,,,エヌエー,0
2004,6140003017187,新規,0,2022-01-12,2022-01-12,合同会社アイコンベヤー,,合同会社,兵庫県,明石市,北王子町８番１２号パレロワイヤル１０１号,,28,203,6730021,,,,,,,2022-01-12,1,,,,,アイコンベヤー,0
2005,6140003017229,新規,0,2022-01-12,2022-01-12,合同会社ＬＯＯＰ　ＧＡＭＥ,,合同会社,兵庫県,姫路市,網干区垣内西町１９６３－３,,28,201,6711256,,,,,,,2022-01-12,1,,,,,ループゲーム,0
2011,6150003002592,新規,0,2022-01-12,2022-01-12,清和社寺合同会社,,合同会社,奈良県,天理市,西長柄町４１６番地山の辺ハイツＩＩ２０２号室,00125369,29,204,6320063,,,,,,,2022-01-12,1,,,,,セイワシャジ,0
2021,6180001149425,新規,0,2022-01-12,2022-01-12,株式会社みちお,,株式会社,愛知県,犬山市,大字犬山字東古券７１９番地,,23,215,4840083,,,,,,,2022-01-12,1,,,,,ミチオ,0
2022,6180001149433,新規,0,2022-01-12,2022-01-12,株式会社ユリナ,,株式会社,愛知県,名古屋市中川区,丸米町１丁目２４シャトーキワカ１Ｃ,,23,110,4540834,,,,,,,2022-01-12,1,,,,,ユリナ,0
2023,6180001149458,新規,0,2022-01-12,2022-01-12,株式会社凛月堂,,株式会社,愛知県,名古屋市千種区,内山１丁目２２番９号,,23,101,4640075,,,,,,,2022-01-12,1,,,,,リンゲツドウ,0
2024,6180001149508,新規,0,2022-01-12,2022-01-12,株式会社ＮＭＲ,,株式会社,愛知県,名古屋市西区,山木１丁目２２３番地プリミエール祖父江５０１号,,23,104,4520833,,,,,,,2022-01-12,1,,,,,エヌエムアール,0
2028,6180301035770,新規,0,2022-01-12,2022-01-12,株式会社ＡＬＳＴＨＯＯＰ,,株式会社,愛知県,安城市,法連町１６番地１８・２階,,23,212,4460021,,,,,,,2022-01-12,1,,,,,アルストフープ,0
2031,6190001029015,新規,0,2022-01-12,2022-01-12,株式会社喜満満猫,,株式会社,三重県,員弁郡東員町,大字南大社１２６３番地,,24,324,5110256,,,,,,,2022-01-12,1,,,,,キママネコ,0
2032,6190001029023,新規,0,2022-01-12,2022-01-12,株式会社ＣＯＥＮ,,株式会社,三重県,津市,乙部２３番１０号,,24,201,5140016,,,,,,,2022-01-12,1,,,,,コーエン,0
2036,6220005008622,新規,0,2022-01-12,2022-01-12,農事組合法人ファーム吉倉,,その他の設立登記法人,石川県,河北郡津幡町,字吉倉ナ３２番地,,17,361,9290466,,,,,,,2022-01-12,1,,,,,ファームヨシクラ,0
2040,6230001019176,新規,0,2022-01-12,2022-01-12,ＴＳＫホールディングス株式会社,,株式会社,富山県,富山市,大町１７３番地,,16,201,9398073,,,,,,,2022-01-12,1,,,,,,0
2041,6230003001784,新規,0,2022-01-12,2022-01-12,合同会社ワークランドサカモト,,合同会社,富山県,富山市,婦中町麦島９５－９,,16,201,9392754,,,,,,,2022-01-12,1,,,,,,0
2049,6260001036409,新規,0,2022-01-12,2022-01-12,株式会社Ｃｒｅｘｉａ,,株式会社,岡山県,小田郡矢掛町,上高末２７２６番地５,,33,461,7141203,,,,,,,2022-01-12,1,,,,,クレシア,0
2050,6260001036425,新規,0,2022-01-12,2022-01-12,株式会社ｄ．ＬＣ,,株式会社,岡山県,岡山市中区,倉富２２６番地３,,33,102,7038264,,,,,,,2022-01-12,1,,,,,ドットエルシー,0
2051,6260001036433,新規,0,2022-01-12,2022-01-12,株式会社三木電設,,株式会社,岡山県,岡山市東区,西大寺門前４９１番地３,,33,103,7048123,,,,,,,2022-01-12,1,,,,,ミキデンセツ,0
2054,6290001095939,新規,0,2022-01-12,2022-01-12,株式会社エレック,,株式会社,福岡県,柳川市,間８１４番地１の２,,40,207,8320088,,,,,,,2022-01-12,1,,,,,エレック,0
2055,6290001095947,新規,0,2022-01-12,2022-01-12,株式会社田中飼料,,株式会社,福岡県,みやま市,高田町岩津３２２番地５５,,40,229,8390223,,,,,,,2022-01-12,1,,,,,タナカシリョウ,0
2056,6290001095971,新規,0,2022-01-12,2022-01-12,株式会社ｎｙ,,株式会社,福岡県,福岡市中央区,白金１丁目１－３白金オークマンション８０１,,40,133,8100012,,,,,,,2022-01-12,1,,,,,ニー,0
2057,6290001096004,新規,0,2022-01-12,2022-01-12,株式会社Ｃｈｉｌｍｙ,,株式会社,福岡県,福岡市南区,弥永４丁目４番１２‐２０２号,,40,134,8111323,,,,,,,2022-01-12,1,,,,,チルミー,0
2058,6290001096012,新規,0,2022-01-12,2022-01-12,株式会社Ａ．Ｌｉｆｅ,,株式会社,福岡県,福岡市東区,香椎照葉４丁目４番２０－８０２号,,40,131,8130017,,,,,,,2022-01-12,1,,,,,アライフ,0
2065,6310001017675,新規,0,2022-01-12,2022-01-12,株式会社ＢＬプランニング,,株式会社,長崎県,長崎市,四杖町９２５番地,,42,201,8511123,,,,,,,2022-01-12,1,,,,,ビーエルプランニング,0
2066,6310003004250,新規,0,2022-01-12,2022-01-12,松田あんしん保険事務所合同会社,,合同会社,長崎県,佐世保市,小島町２０－１３土井ビル１Ｆ,,42,202,8570066,,,,,,,2022-01-12,1,,,,,マツダアンシンホケンジムショ,0
2074,6340001024388,新規,0,2022-01-12,2022-01-12,中間林業株式会社,,株式会社,鹿児島県,薩摩郡さつま町,宮之城屋地１３２１番地１４,,46,392,8951803,,,,,,,2022-01-12,1,,,,,ナカマリンギョウ,0
2078,6360001029864,新規,0,2022-01-12,2022-01-12,株式会社雄匠,,株式会社,沖縄県,島尻郡南風原町,字津嘉山１１１４番地１,,47,350,9011117,,,,,,,2022-01-12,1,,,,,ユウショウ,0
2083,6370001048046,新規,0,2022-01-12,2022-01-12,株式会社スモリノトチ,,株式会社,宮城県,仙台市宮城野区,中野１丁目５番地の９,,04,102,9830013,,,,,,,2022-01-12,1,,,,,スモリノトチ,0
2087,6380001032453,新規,0,2022-01-12,2022-01-12,株式会社メイシェン,,株式会社,福島県,郡山市,安積北井２丁目１６１番地,,07,203,9630118,,,,,,,2022-01-12,1,,,,,メイシェン,0
2088,6380003005085,新規,0,2022-01-12,2022-01-12,合同会社ＤＯＤ,,合同会社,福島県,いわき市,小名浜玉川町西８－２０,,07,204,9718127,,,,,,,2022-01-12,1,,,,,ディーオーディー,0
2089,6390001016752,新規,0,2022-01-12,2022-01-12,株式会社Ｍｏｎａｎｇｅ,,株式会社,山形県,東村山郡山辺町,大字山辺６０３,,06,301,9900301,,,,,,,2022-01-12,1,,,,,モンナンジュ,0
2101,6420001017689,新規,0,2022-01-12,2022-01-12,ＡＫＡＴＳＵＫＩ株式会社,,株式会社,青森県,弘前市,大字城東中央５丁目３番地１２,,02,202,0368093,,,,,,,2022-01-12,1,,,,,アカツキ,0
2109,6430001085735,新規,0,2022-01-12,2022-01-12,株式会社荒井製袋,,株式会社,北海道,札幌市北区,拓北六条４丁目４番３号,,01,102,0028066,,,,,,,2022-01-12,1,,,,,アライセイタイ,0
2110,6430001085751,新規,0,2022-01-12,2022-01-12,アイエヌオー株式会社,,株式会社,北海道,札幌市東区,北十三条東１丁目２番２８号,,01,103,0650013,,,,,,,2022-01-12,1,,,,,アイエヌオー,0
2114,6430003013495,新規,0,2022-01-12,2022-01-12,合同会社７１６,,合同会社,北海道,札幌市西区,琴似一条２丁目６番８号ライオンズマンション琴似２Ｆ,,01,107,0630811,,,,,,,2022-01-12,1,,,,,ナナイロ,0
2124,6470001018906,新規,0,2022-01-12,2022-01-12,Ｉ＆Ｉ株式会社,,株式会社,香川県,高松市,亀田南町７３２－１ニューピアパークＩＤ棟２０２号室,00125364,37,201,7610432,,,,,,,2022-01-12,1,,,,,アイアンドアイ,0
2126,6480005006872,新規,0,2022-01-12,2022-01-12,特定非営利活動法人竹林再生工房かぐや乃さと,,その他の設立登記法人,徳島県,吉野川市,山川町北島５番地３１,,36,205,7793404,,,,,,,2022-01-12,1,,,,,チクリンサイセイコウボウカグヤノサト,0
2128,6490003001619,新規,0,2022-01-12,2022-01-12,Ｋ－ＷＯＲＫ合同会社,,合同会社,高知県,土佐市,高岡町乙３５３８－４,,39,205,7811102,,,,,,,2022-01-12,1,,,,,ケイワーク,0
2129,6500001023927,新規,0,2022-01-12,2022-01-12,株式会社フェアネス,,株式会社,愛媛県,松山市,内浜町１７番１２号,,38,201,7918077,,,,,,,2022-01-12,1,,,,,フェアネス,0
2131,6700150106586,新規,0,2022-01-12,2022-01-12,ＡＳＨＡ　ＥＮＴＥＲＰＲＩＳＥＳ,,外国会社等,神奈川県,愛甲郡愛川町,中津６８番地の１３ニュー愛川２０１,,14,401,2430303,スリランカ民主社会主義共和国、キャンデイ、アクラナ、メルチェンネ、８５７番,,,,,,2022-01-12,1,,,,,アシヤエンタープライセス,0
2139,7010001223724,新規,0,2022-01-12,2022-01-12,ＪＳＳ株式会社,,株式会社,東京都,中央区,築地４丁目３番１２号１００６,,13,102,1040045,,,,,,,2022-01-12,1,,,,,ジェイエスエス,0
2141,7010003036661,新規,0,2022-01-12,2022-01-12,合同会社１７８,,合同会社,東京都,中央区,晴海３丁目１３番１－５０１６号,,13,102,1040053,,,,,,,2022-01-12,1,,,,,イチナナハチ,0
2147,7010401164857,新規,0,2022-01-12,2022-01-12,ＺＷＳＯＦＴ　Ｊａｐａｎ株式会社,,株式会社,東京都,港区,元麻布３丁目１番６号,,13,103,1060046,,,,,,,2022-01-12,1,,,,,ゼッドダブリューソフトジャパン,0
2148,7010403026832,新規,0,2022-01-12,2022-01-12,ＭＤＨ合同会社,,合同会社,東京都,港区,南青山７丁目５番１０号,,13,103,1070062,,,,,,,2022-01-12,1,,,,,エムディーエイチ,0
2149,7010405020560,新規,0,2022-01-12,2022-01-12,ツルヤチョウ特定目的会社,,その他の設立登記法人,東京都,港区,赤坂２丁目１０番５号税理士法人赤坂国際会計事務所内,,13,103,1070052,,,,,,,2022-01-12,1,,,,,ツルヤチョウ,0
2151,7010501048299,新規,0,2022-01-12,2022-01-12,アマネク株式会社,,株式会社,東京都,台東区,浅草１丁目６番３号浅倉屋ビル１Ｆ,,13,106,1110032,,,,,,,2022-01-12,1,,,,,アマネク,0
2152,7010501048316,新規,0,2022-01-12,2022-01-12,ふるはうす株式会社,,株式会社,東京都,台東区,三筋１丁目１番１９号５Ｆ,,13,106,1110055,,,,,,,2022-01-12,1,,,,,フルハウス,0
2156,7010701042003,新規,0,2022-01-12,2022-01-12,フェニックス株式会社,,株式会社,東京都,品川区,東五反田１丁目５番１－８０６号,,13,109,1410022,,,,,,,2022-01-12,1,,,,,フェニックス,0
2157,7010703006063,新規,0,2022-01-12,2022-01-12,ハッピーテックラボ合同会社,,合同会社,東京都,品川区,北品川５丁目５番１５号,,13,109,1410001,,,,,,,2022-01-12,1,,,,,ハッピーテックラボ,0
2160,7010801032647,新規,0,2022-01-12,2022-01-12,株式会社フォーチュネイトノーブル,,株式会社,東京都,大田区,中馬込１丁目１１番１６号,,13,111,1430027,,,,,,,2022-01-12,1,,,,,フォーチュネイトノーブル,0
2161,7010801032655,新規,0,2022-01-12,2022-01-12,株式会社ハイフィールド,,株式会社,東京都,大田区,蒲田４丁目４４番１２号ＬＯＴＵＳ・ＫＡＭＡＴＡ４０１号,,13,111,1440052,,,,,,,2022-01-12,1,,,,,ハイフィールド,0
2175,7011001144811,新規,0,2022-01-12,2022-01-12,株式会社ＹＫ,,株式会社,東京都,目黒区,上目黒２丁目３６番２号,,13,110,1530051,,,,,,,2022-01-12,1,,,,,ワイケイ,0
2176,7011001144968,新規,0,2022-01-12,2022-01-12,株式会社Ａ－Ｔ,,株式会社,東京都,目黒区,平町１丁目２２番１０－３０４号,,13,110,1520032,,,,,,,2022-01-12,1,,,,,エーティー,0
2177,7011001144976,新規,0,2022-01-12,2022-01-12,株式会社ウェルネスバリュー,,株式会社,東京都,渋谷区,東３丁目１５番２号渡辺ビル５０９,,13,113,1500011,,,,,,,2022-01-12,1,,,,,ウェルネスバリュー,0
2178,7011001144992,新規,0,2022-01-12,2022-01-12,株式会社ＨＡＳＴ,,株式会社,東京都,目黒区,碑文谷２丁目９番１５号,,13,110,1520003,,,,,,,2022-01-12,1,,,,,ハスト,0
2179,7011001145000,新規,0,2022-01-12,2022-01-12,テクー株式会社,,株式会社,東京都,渋谷区,神南１丁目１０番６号,,13,113,1500041,,,,,,,2022-01-12,1,,,,,テクー,0
2184,7011101097455,新規,0,2022-01-12,2022-01-12,株式会社ＷＯＲＫＳ,,株式会社,東京都,新宿区,西新宿５丁目５番１－２９０３号ザ・パークハウス西新宿タワー６０,,13,104,1600023,,,,,,,2022-01-12,1,,,,,ワークス,0
2185,7011101097463,新規,0,2022-01-12,2022-01-12,株式会社エンフィアンス,,株式会社,東京都,新宿区,西新宿３丁目７番１号新宿パークタワーＮ３０階,,13,104,1600023,,,,,,,2022-01-12,1,,,,,エンフィアンス,0
2186,7011103011356,新規,0,2022-01-12,2022-01-12,ミライエ合同会社,,合同会社,東京都,新宿区,中落合３丁目２９番１８号Ａ棟,,13,104,1610032,,,,,,,2022-01-12,1,,,,,ミライエ,0
2188,7011201023526,新規,0,2022-01-12,2022-01-12,株式会社Ｍｅｔａ　Ｍｅｏｗ,,株式会社,東京都,中野区,新井３丁目１番２号ジャルディーネ中野１０１,,13,114,1650026,,,,,,,2022-01-12,1,,,,,メタミャオ,0
2191,7011401023945,新規,0,2022-01-12,2022-01-12,株式会社ティーエイチシー,,株式会社,東京都,板橋区,中丸町１２番８号,,13,119,1730026,,,,,,,2022-01-12,1,,,,,ティーエイチシー,0
2200,7011503005032,新規,0,2022-01-12,2022-01-12,合同会社エムズエイチ,,合同会社,東京都,北区,豊島３丁目８番１７号,,13,117,1140003,,,,,,,2022-01-12,1,,,,,エムズエイチ,0
2212,7012301012831,新規,0,2022-01-12,2022-01-12,株式会社小泉建装,,株式会社,東京都,町田市,大蔵町１３３７番地５,,13,209,1950062,,,,,,,2022-01-12,1,,,,,コイズミケンソウ,0
2220,7020001144663,新規,0,2022-01-12,2022-01-12,株式会社真栄工業,,株式会社,神奈川県,横浜市瀬谷区,阿久和西３丁目３３番地７,,14,114,2460025,,,,,,,2022-01-12,1,,,,,シンエイコウギョウ,0
2221,7020001144671,新規,0,2022-01-12,2022-01-12,株式会社メディカル販売,,株式会社,神奈川県,横浜市都筑区,富士見が丘３０番６－１０３号,,14,118,2240051,,,,,,,2022-01-12,1,,,,,メディカルハンバイ,0
2227,7020003021092,新規,0,2022-01-12,2022-01-12,合同会社バージニア,,合同会社,神奈川県,横浜市西区,北幸１丁目１１番１号水信ビル７階,,14,103,2200004,,,,,,,2022-01-12,1,,,,,バージニア,0
2234,7021001074867,新規,0,2022-01-12,2022-01-12,ＳＰＡ株式会社,,株式会社,神奈川県,相模原市中央区,宮下３丁目１４番１５号,,14,152,2520212,,,,,,,2022-01-12,1,,,,,エスピーエー,0
2235,7021001074891,新規,0,2022-01-12,2022-01-12,株式会社上下一心,,株式会社,神奈川県,足柄上郡松田町,松田惣領２０６６番地,,14,363,2580003,,,,,,,2022-01-12,1,,,,,ショウカイッシン,0
2243,7030003018534,新規,0,2022-01-12,2022-01-12,合同会社ｏｆ　ｌｉｆｅ,,合同会社,埼玉県,坂戸市,大字堀込１０２番地２４前田方,,11,239,3500263,,,,,,,2022-01-12,1,,,,,オブライフ,0
2244,7030003018617,新規,0,2022-01-12,2022-01-12,合同会社ＹＡＭＡＹＵ,,合同会社,埼玉県,さいたま市南区,内谷６丁目４番２７―３号,,11,108,3360034,,,,,,,2022-01-12,1,,,,,ヤマユ,0
2245,7030003018633,新規,0,2022-01-12,2022-01-12,合同会社Ｗａｌｔｚ,,合同会社,埼玉県,児玉郡上里町,大字七本木３１５１－１７,,11,385,3690306,,,,,,,2022-01-12,1,,,,,ワルツ,0
2247,7030005020686,新規,0,2022-01-12,2022-01-12,特定非営利活動法人銀の鈴,,その他の設立登記法人,埼玉県,八潮市,大字古新田２２３番地１,,11,234,3400823,,,,,,,2022-01-12,1,,,,,ギンノスズ,0
2250,7040001121628,新規,0,2022-01-12,2022-01-12,株式会社ＫＡＲＩＮ,,株式会社,千葉県,千葉市稲毛区,長沼原町２３６番地,,12,103,2630001,,,,,,,2022-01-12,1,,,,,カリン,0
2251,7040001121644,新規,0,2022-01-12,2022-01-12,株式会社エルドマーニ,,株式会社,千葉県,千葉市緑区,誉田町２丁目７番地,,12,105,2660005,,,,,,,2022-01-12,1,,,,,エルドマーニ,0
2252,7040001121669,新規,0,2022-01-12,2022-01-12,株式会社ＫＥＣＥ,,株式会社,千葉県,成田市,堀之内２９６番地,,12,211,2860107,,,,,,,2022-01-12,1,,,,,ケーイーシーイー,0
2253,7040001121685,新規,0,2022-01-12,2022-01-12,株式会社コテトテ,,株式会社,千葉県,柏市,あけぼの３丁目６番４３クエスタ柏６０２号室,,12,217,2770841,,,,,,,2022-01-12,1,,,,,コテトテ,0
2254,7040001121719,新規,0,2022-01-12,2022-01-12,株式会社ハチマルエステート,,株式会社,千葉県,八千代市,八千代台南１丁目３番６号,,12,221,2760033,,,,,,,2022-01-12,1,,,,,ハチマルエステート,0
2257,7050001050438,新規,0,2022-01-12,2022-01-12,株式会社サカモト管工業,,株式会社,茨城県,神栖市,深芝２６８７番地１２,,08,232,3140148,,,,,,,2022-01-12,1,,,,,サカモトカンコウギョウ,0
2258,7050001050446,新規,0,2022-01-12,2022-01-12,株式会社スタジオイナリ,,株式会社,茨城県,水戸市,中央１丁目８番１１号プリモビル２Ｆ,,08,201,3100805,,,,,,,2022-01-12,1,,,,,スタジオイナリ,0
2264,7060001034456,新規,0,2022-01-12,2022-01-12,裕和通信株式会社,,株式会社,栃木県,鹿沼市,久野７３８番地２,,09,205,3220303,,,,,,,2022-01-12,1,,,,,ユウワツウシン,0
2265,7060001034464,新規,0,2022-01-12,2022-01-12,株式会社カドツネ,,株式会社,栃木県,宇都宮市,二荒町５番２２号,,09,201,3200804,,,,,,,2022-01-12,1,,,,,カドツネ,0
2276,7080401025573,新規,0,2022-01-12,2022-01-12,株式会社ラフレ,,株式会社,静岡県,浜松市中区,元城町２１５番地１,,22,131,4300946,,,,,,,2022-01-12,1,,,,,ラフレ,0
2287,7110003004674,新規,0,2022-01-12,2022-01-12,アマリテ合同会社,,合同会社,新潟県,新潟市東区,幸栄３丁目１１番２３号,,15,102,9500022,,,,,,,2022-01-12,1,,,,,アマリテ,0
2301,7120001242969,新規,0,2022-01-12,2022-01-12,株式会社ＦＫＴフード,,株式会社,大阪府,大阪市淀川区,西中島４丁目４－１６ＮＬＣビル６号館２Ｆ,,27,123,5320011,,,,,,,2022-01-12,1,,,,,エフケーティフード,0
2302,7120001243059,新規,0,2022-01-12,2022-01-12,株式会社Ｌ＆Ｐ,,株式会社,大阪府,大阪市生野区,勝山北４丁目１０番１１号,,27,116,5440033,,,,,,,2022-01-12,1,,,,,エルアンドピー,0
2308,7120101064917,新規,0,2022-01-12,2022-01-12,株式会社大雅,,株式会社,大阪府,泉佐野市,市場南１丁目６番３８号,,27,213,5980004,,,,,,,2022-01-12,1,,,,,タイガ,0
2310,7120103004516,新規,0,2022-01-12,2022-01-12,合同会社たんぽぽ,,合同会社,大阪府,河内長野市,大矢船南町２４番１２号,,27,216,5860074,,,,,,,2022-01-12,1,,,,,タンポポ,0
2313,7120903003989,新規,0,2022-01-12,2022-01-12,合同会社ＡＫＩＭＩＫＡ,,合同会社,大阪府,茨木市,上中条１丁目６番２２号,,27,211,5670881,,,,,,,2022-01-12,1,,,,,アキミカ,0
2316,7122001035477,新規,0,2022-01-12,2022-01-12,株式会社Ｌａｎｋａ,,株式会社,大阪府,八尾市,八尾木北３丁目３３７番地の５,,27,212,5810016,,,,,,,2022-01-12,1,,,,,ランカ,0
2319,7130001070881,新規,0,2022-01-12,2022-01-12,株式会社アクトン,,株式会社,京都府,京都市上京区,室町通上立売上る室町頭町２７８番地,,26,102,6020029,,,,,,,2022-01-12,1,,,,,アクトン,0
2331,7140001124447,新規,0,2022-01-12,2022-01-12,丸山工業株式会社,,株式会社,兵庫県,尼崎市,三反田町２丁目１８番１－６０１号,,28,202,6610024,,,,,,,2022-01-12,1,,,,,マルヤマコウギョウ,0
2337,7150001025231,新規,0,2022-01-12,2022-01-12,株式会社ＹＯＮＥＸ,,株式会社,奈良県,香芝市,鎌田１０９番地６,,29,210,6390227,,,,,,,2022-01-12,1,,,,,ヨネックス,0
2338,7160001023936,新規,0,2022-01-12,2022-01-12,株式会社裕和,,株式会社,滋賀県,彦根市,小泉町１０６番地９阪東ビル２Ｆ,,25,202,5220043,,,,,,,2022-01-12,1,,,,,ユウワ,0
2339,7160001023944,新規,0,2022-01-12,2022-01-12,株式会社トレイル,,株式会社,滋賀県,大津市,馬場１丁目１４番２５号,,25,201,5200802,,,,,,,2022-01-12,1,,,,,トレイル,0
2349,7180001149300,新規,0,2022-01-12,2022-01-12,株式会社ＫＡＮＯＡ,,株式会社,愛知県,愛西市,佐折町東川８２番地１,,23,232,4968002,,,,,,,2022-01-12,1,,,,,カノア,0
2350,7180001149399,新規,0,2022-01-12,2022-01-12,株式会社ＦＤＳ,,株式会社,愛知県,名古屋市緑区,神の倉１丁目９１番地の３,,23,114,4580812,,,,,,,2022-01-12,1,,,,,エフディーエス,0
2351,7180001149432,新規,0,2022-01-12,2022-01-12,株式会社エクシト,,株式会社,愛知県,名古屋市中村区,鳥森三丁目１０番地１,,23,105,4530000,,,,,,,2022-01-12,1,,,,,エクシト,0
2352,7180001149449,新規,0,2022-01-12,2022-01-12,株式会社ケイエイチ,,株式会社,愛知県,一宮市,西萩原字下出２３８５番地１,,23,203,4940011,,,,,,,2022-01-12,1,,,,,ケイエイチ,0
2353,7180001149457,新規,0,2022-01-12,2022-01-12,ＷＥＬＤ株式会社,,株式会社,愛知県,半田市,港町２丁目１７番地の４,,23,205,4750823,,,,,,,2022-01-12,1,,,,,ウェルド,0
2354,7180001149498,新規,0,2022-01-12,2022-01-12,株式会社ナンバー２,,株式会社,愛知県,名古屋市中村区,竹橋町１７番９号セサミタワー６階,,23,105,4530016,,,,,,,2022-01-12,1,,,,,ナンバーツー,0
2356,7180003023354,新規,0,2022-01-12,2022-01-12,合同会社長谷川,,合同会社,愛知県,知多郡東浦町,大字緒川字屋敷参区８５番地,,23,442,4702102,,,,,,,2022-01-12,1,,,,,ハセガワ,0
2360,7190001029022,新規,0,2022-01-12,2022-01-12,Ｙ＆Ｔ　Ｔｒａｄｉｎｇ株式会社,,株式会社,三重県,鈴鹿市,南若松町９番地の４０,,24,207,5100227,,,,,,,2022-01-12,1,,,,,ワイアンドティートレーディング,0
2362,7190003003867,新規,0,2022-01-12,2022-01-12,合同会社メグリア,,合同会社,三重県,伊勢市,通町４９１番地,,24,203,5160012,,,,,,,2022-01-12,1,,,,,メグリア,0
2363,7190003003875,新規,0,2022-01-12,2022-01-12,合同会社ｋｏｍａｙｏｓｈｉ,,合同会社,三重県,員弁郡東員町,笹尾東２丁目１６番１９,,24,324,5110232,,,,,,,2022-01-12,1,,,,,コマヨシ,0
2369,7220005008621,新規,0,2022-01-12,2022-01-12,農事組合法人吉田農園,,その他の設立登記法人,石川県,白山市,乙丸町２３番地,,17,210,9240826,,,,,,,2022-01-12,1,,,,,ヨシダノウエン,0
2371,7230001019175,新規,0,2022-01-12,2022-01-12,アステム株式会社,,株式会社,富山県,射水市,橋下条８０９番地６,,16,211,9390332,,,,,,,2022-01-12,1,,,,,アステム,0
2373,7230005009189,新規,0,2022-01-12,2022-01-12,広島税理士法人,,その他の設立登記法人,富山県,高岡市,駅南３丁目１番３号,,16,202,9330871,,,,,,,2022-01-12,1,,,,,ヒロシマ,0
2375,7240001059162,新規,0,2022-01-12,2022-01-12,株式会社ツースリー,,株式会社,広島県,広島市安佐北区,小河原町１０９５番地１,,34,106,7391754,,,,,,,2022-01-12,1,,,,,ツースリー,0
2376,7240001059170,新規,0,2022-01-12,2022-01-12,株式会社慧一,,株式会社,広島県,広島市中区,舟入町２番２０号三栄広島ビル４階,,34,101,7300841,,,,,,,2022-01-12,1,,,,,エイチ,0
2379,7240003005445,新規,0,2022-01-12,2022-01-12,合同会社Ｒｉ‐ｍｅｌ,,合同会社,広島県,廿日市市,宮内１８１８番地１,,34,213,7380034,,,,,,,2022-01-12,1,,,,,リメル,0
2385,7260001036408,新規,0,2022-01-12,2022-01-12,株式会社港成建設,,株式会社,岡山県,玉野市,長尾５９１番地１２,,33,204,7060151,,,,,,,2022-01-12,1,,,,,コウセイケンセツ,0
2386,7260001036432,新規,0,2022-01-12,2022-01-12,彩颯株式会社,,株式会社,岡山県,笠岡市,西大島新田３１２番１０号,,33,205,7140031,,,,,,,2022-01-12,1,,,,,イロハ,0
2388,7260003003769,新規,0,2022-01-12,2022-01-12,合同会社ハイクラウド,,合同会社,岡山県,岡山市東区,升田３０９－１,,33,103,7048163,,,,,,,2022-01-12,1,,,,,ハイクラウド,0
2394,7290001095921,新規,0,2022-01-12,2022-01-12,株式会社ウィルアシスト,,株式会社,福岡県,古賀市,久保９０５番地７,,40,223,8113115,,,,,,,2022-01-12,1,,,,,ウィルアシスト,0
2395,7290001095946,新規,0,2022-01-12,2022-01-12,鳥越グレインホールディングス株式会社,,株式会社,福岡県,うきは市,吉井町２７６番地の１,,40,225,8391321,,,,,,,2022-01-12,1,,,,,トリゴエグレインホールディングス,0
2396,7290001096003,新規,0,2022-01-12,2022-01-12,株式会社海匠,,株式会社,福岡県,糟屋郡宇美町,宇美２丁目１０番５号,,40,341,8112101,,,,,,,2022-01-12,1,,,,,カイショウ,0
2399,7290003011983,新規,0,2022-01-12,2022-01-12,合同会社ＥＭＰＩＲＥ,,合同会社,福岡県,福岡市早良区,原６丁目１６番２６号ゴールドネイル１０２,,40,137,8140022,,,,,,,2022-01-12,1,,,,,エンパイア,0
2416,7340001024404,新規,0,2022-01-12,2022-01-12,株式会社ゆーかり,,株式会社,鹿児島県,鹿児島市,小山田町５８４８番地５,,46,201,8911231,,,,,,,2022-01-12,1,,,,,ユーカリ,0
2417,7340001024412,新規,0,2022-01-12,2022-01-12,株式会社慶和,,株式会社,鹿児島県,鹿児島市,西伊敷４丁目１１番４－１号,,46,201,8900002,,,,,,,2022-01-12,1,,,,,ケイワ,0
2426,7370001048037,新規,0,2022-01-12,2022-01-12,宮本技建株式会社,,株式会社,宮城県,石巻市,元倉１丁目１７ー１３メゾン元倉Ｃ号,,04,202,9860811,,,,,,,2022-01-12,1,,,,,ミヤモトギケン,0
2431,7380001032469,新規,0,2022-01-12,2022-01-12,一八興業株式会社,,株式会社,福島県,田村市,船引町東部台４丁目１３２番地,,07,211,9634317,,,,,,,2022-01-12,1,,,,,イチハチコウギョウ,0
2433,7390001016751,新規,0,2022-01-12,2022-01-12,株式会社ヤマリース,,株式会社,山形県,西置賜郡白鷹町,大字荒砥甲１２１３番地,,06,402,9920831,,,,,,,2022-01-12,1,,,,,ヤマリース,0
2441,7410001013069,新規,0,2022-01-12,2022-01-12,インツーサイトホールディングス株式会社,,株式会社,秋田県,秋田市,旭南２丁目２－２７,,05,201,0100925,,,,,,,2022-01-12,1,,,,,インツーサイトホールディングス,0
2444,7420003002424,新規,0,2022-01-12,2022-01-12,合同会社専門店小西ピアノ,,合同会社,青森県,弘前市,大字上鞘師町３番地３,,02,202,0368354,,,,,,,2022-01-12,1,,,,,センモンテンコニシピアノ,0
2459,7500001023926,新規,0,2022-01-12,2022-01-12,株式会社プリズマＤＣＲ,,株式会社,愛媛県,松山市,二番町４丁目２番地１４,,38,201,7900002,,,,,,,2022-01-12,1,,,,,プリズマディーシーアール,0
2463,7700150106593,新規,0,2022-01-12,2022-01-12,ピー・ゼット・アイ・インターナショナル・ソリューションズ・インク,,外国会社等,東京都,渋谷区,桜丘町２６番１号セルリアンタワー１５階,,13,113,1500031,アメリカ合衆国、アラバマ州、ハンツビル、パリミター・パークウェイ・ノースウェスト１５００,,,,,,2022-01-12,1,,,,,ピーゼツトアイインターナシヨナルソリユーシヨンズインク,0
2469,8010001223649,新規,0,2022-01-12,2022-01-12,ＲＥＭＥＤ　ＪＡＰＡＮ株式会社,,株式会社,東京都,文京区,本郷３丁目３５番４号不二光学ビル４Ｆ,,13,105,1130033,,,,,,,2022-01-12,1,,,,,リーメドジャパン,0
2470,8010001223723,新規,0,2022-01-12,2022-01-12,ＰＦＣ長野株式会社,,株式会社,東京都,千代田区,神田和泉町１番地,,13,101,1010024,,,,,,,2022-01-12,1,,,,,ピーエフシーナガノ,0
2471,8010001223806,新規,0,2022-01-12,2022-01-12,ＰＡパートナーズ株式会社,,株式会社,東京都,中央区,佃２丁目１１番６－２４０７号,,13,102,1040051,,,,,,,2022-01-12,1,,,,,ピーエーパートナーズ,0
2474,8010003036743,新規,0,2022-01-12,2022-01-12,合同会社Ｍａｙｌｉｅ,,合同会社,東京都,文京区,目白台２丁目６番１３－２０５号,,13,105,1120015,,,,,,,2022-01-12,1,,,,,,0
2476,8010005034415,新規,0,2022-01-12,2022-01-12,監査法人Ｂｌｏｏｍ,,その他の設立登記法人,東京都,千代田区,麹町４丁目１番地４西脇ビル２０１,,13,101,1020083,,,,,,,2022-01-12,1,,,,,ブルーム,0
2481,8010401164773,新規,0,2022-01-12,2022-01-12,株式会社ｓｏｍｅｗｈｅｒｅ,,株式会社,東京都,港区,南青山６丁目６番２２号２Ｆ南青山グリーンランドビル,,13,103,1070062,,,,,,,2022-01-12,1,,,,,サムウェア,0
2486,8010405020592,新規,0,2022-01-12,2022-01-12,一般社団法人Ｓ２Ｗ１１,,その他の設立登記法人,東京都,港区,元赤坂１丁目１番８号赤坂コミュニティビル４階,,13,103,1070051,,,,,,,2022-01-12,1,,,,,エスニダブリュージュウイチ,0
2491,8010601060475,新規,0,2022-01-12,2022-01-12,鶴岡工業株式会社,,株式会社,東京都,江東区,亀戸３丁目８番６号Ｗ－ＨＯＵＳＥ９０・２Ｆ,,13,108,1360071,,,,,,,2022-01-12,1,,,,,ツルオカコウギョウ,0
2492,8010603009339,新規,0,2022-01-12,2022-01-12,エクラスアベニュー合同会社,,合同会社,東京都,江東区,大島３丁目８番７号,,13,108,1360072,,,,,,,2022-01-12,1,,,,,エクラスアベニュー,0
2496,8010803004024,新規,0,2022-01-12,2022-01-12,Ｋプラス・アーキテクト合同会社,,合同会社,東京都,大田区,中央７丁目１７番１９号,,13,111,1430024,,,,,,,2022-01-12,1,,,,,ケープラスアーキテクト,0
2506,8010905004244,新規,0,2022-01-12,2022-01-12,特定非営利活動法人きれいな山をありがとう,,その他の設立登記法人,東京都,世田谷区,宮坂１丁目２５番６号,,13,112,1560051,,,,,,,2022-01-12,1,,,,,キレイナヤマヲアリガトウ,0
2508,8011001144918,新規,0,2022-01-12,2022-01-12,株式会社成体,,株式会社,東京都,渋谷区,神宮前６丁目２３番１１号３階３０１号室,,13,113,1500001,,,,,,,2022-01-12,1,,,,,ナリタイ,0
2509,8011001144942,新規,0,2022-01-12,2022-01-12,株式会社マーブル・パレット,,株式会社,東京都,目黒区,南１丁目５番１５号,,13,110,1520013,,,,,,,2022-01-12,1,,,,,マーブルパレット,0
2510,8011001144959,新規,0,2022-01-12,2022-01-12,株式会社ＲＣパートナーズ,,株式会社,東京都,渋谷区,恵比寿西１丁目２１番１５－１１０２号,,13,113,1500021,,,,,,,2022-01-12,1,,,,,アールシーパートナーズ,0
2511,8011001144975,新規,0,2022-01-12,2022-01-12,Ａｒｃａｄｅ　Ｒｅｓｅａｒｃｈ株式会社,,株式会社,東京都,渋谷区,渋谷２丁目１９番１５号宮益坂ビルディング６０９,,13,113,1500002,,,,,,,2022-01-12,1,,,,,アーケードリサーチ,0
2516,8011101097405,新規,0,2022-01-12,2022-01-12,石井久美子バレエプロジェクト株式会社,,株式会社,東京都,新宿区,西新宿７丁目１番７号,,13,104,1600023,,,,,,,2022-01-12,1,,,,,イシイクミコバレエプロジェクト,0
2517,8011101097462,新規,0,2022-01-12,2022-01-12,株式会社ＭＣ,,株式会社,東京都,新宿区,歌舞伎町１丁目２７－１フィルドニアビル２階,,13,104,1600021,,,,,,,2022-01-12,1,,,,,エムシー,0
2520,8011103011355,新規,0,2022-01-12,2022-01-12,Ｌｅｅ　Ｄｉｎｅｒｓ合同会社,,合同会社,東京都,新宿区,新宿５丁目１８番１６号,,13,104,1600022,,,,,,,2022-01-12,1,,,,,リーダイナーズ,0
2532,8011501027606,新規,0,2022-01-12,2022-01-12,株式会社宝瑞,,株式会社,東京都,北区,浮間１丁目１番１４－３１６,,13,117,1150051,,,,,,,2022-01-12,1,,,,,ホウズイ,0
2559,8012301012830,新規,0,2022-01-12,2022-01-12,株式会社藤光商事,,株式会社,東京都,町田市,原町田６丁目２７番１５号,,13,209,1940013,,,,,,,2022-01-12,1,,,,,フジミツショウジ,0
2560,8012403005187,新規,0,2022-01-12,2022-01-12,合同会社Ｅｐｉｃ　Ｔｉｍｅ　ｆｌｉｅｓ,,合同会社,東京都,多摩市,鶴牧３丁目２ブリリア多摩センター７１９,,13,224,2060034,,,,,,,2022-01-12,1,,,,,エピックタイムフライズ,0
2561,8012403005195,新規,0,2022-01-12,2022-01-12,合同会社ＴｏｔｏＬｕ,,合同会社,東京都,府中市,小柳町３丁目２８ー１,,13,206,1830013,,,,,,,2022-01-12,1,,,,,トトル,0
2563,8013101008820,新規,0,2022-01-12,2022-01-12,株式会社ユウセイホーム,,株式会社,東京都,西多摩郡瑞穂町,大字箱根ケ崎１８９番地３,,13,303,1901221,,,,,,,2022-01-12,1,,,,,ユウセイホーム,0
2565,8013301048526,新規,0,2022-01-12,2022-01-12,エシック株式会社,,株式会社,東京都,豊島区,目白２丁目５番３号,,13,116,1710031,,,,,,,2022-01-12,1,,,,,エシック,0
2568,8013305003295,新規,0,2022-01-12,2022-01-12,一般社団法人日本文化交流会,,その他の設立登記法人,東京都,豊島区,東池袋３丁目１５番１４号,,13,116,1700013,,,,,,,2022-01-12,1,,,,,ニホンブンカコウリュウカイ,0
2571,8020001144638,新規,0,2022-01-12,2022-01-12,株式会社サンテックウエスト,,株式会社,神奈川県,横浜市金沢区,能見台３丁目１４番地３,,14,108,2360057,,,,,,,2022-01-12,1,,,,,サンテックウエスト,0
2572,8020001144654,新規,0,2022-01-12,2022-01-12,株式会社熱田電気,,株式会社,神奈川県,横浜市鶴見区,栄町通２丁目２０番地２４,,14,101,2300038,,,,,,,2022-01-12,1,,,,,アツタデンキ,0
2575,8020003021059,新規,0,2022-01-12,2022-01-12,合同会社アシストサービス,,合同会社,神奈川県,横浜市戸塚区,上矢部町７４８番地５２スカイビュー戸塚２－１１０号,,14,110,2450053,,,,,,,2022-01-12,1,,,,,アシストサービス,0
2578,8021001074874,新規,0,2022-01-12,2022-01-12,株式会社角商リプロ,,株式会社,神奈川県,横須賀市,武３丁目２０番４号,,14,201,2380313,,,,,,,2022-01-12,1,,,,,カクショウリプロ,0
2579,8021001074890,新規,0,2022-01-12,2022-01-12,株式会社アスカ商事,,株式会社,神奈川県,横須賀市,追浜東町３丁目５１番地ラパス照永Ａ,,14,201,2370063,,,,,,,2022-01-12,1,,,,,アスカショウジ,0
2580,8021001074908,新規,0,2022-01-12,2022-01-12,株式会社石川塗装店,,株式会社,神奈川県,平塚市,長持２３２番地の１,,14,203,2591217,,,,,,,2022-01-12,1,,,,,イシカワトソウテン,0
2588,8030001146179,新規,0,2022-01-12,2022-01-12,崇佑株式会社,,株式会社,埼玉県,さいたま市大宮区,仲町１丁目１２５番地１２・Ｂ１,,11,103,3300845,,,,,,,2022-01-12,1,,,,,ソユ,0
2589,8030001146253,新規,0,2022-01-12,2022-01-12,株式会社メタモル,,株式会社,埼玉県,南埼玉郡宮代町,百間６丁目６２９番地１,,11,442,3450801,,,,,,,2022-01-12,1,,,,,メタモル,0
2590,8030001146328,新規,0,2022-01-12,2022-01-12,株式会社ｉｎｆｉｎｉｔｙ,,株式会社,埼玉県,羽生市,大字北袋５７０番地サンシティイズミＩＩ２０３,00125372,11,216,3480028,,,,,,,2022-01-12,1,,,,,インフィニティ,0
2592,8030003018624,新規,0,2022-01-12,2022-01-12,合同会社Ｚブランド,,合同会社,埼玉県,所沢市,大字山口２４６５－２８,,11,208,3591145,,,,,,,2022-01-12,1,,,,,ゼットブランド,0
2593,8030003018640,新規,0,2022-01-12,2022-01-12,共進産業合同会社,,合同会社,埼玉県,川口市,芝新町１２番１１－３０１,,11,203,3330851,,,,,,,2022-01-12,1,,,,,キョウシンサンギョウ,0
2594,8030005020685,新規,0,2022-01-12,2022-01-12,一般社団法人日本脳神経減圧術学会,,その他の設立登記法人,埼玉県,入間郡毛呂山町,大字毛呂本郷３８番地,,11,326,3500451,,,,,,,2022-01-12,1,,,,,ニホンノウシンケイゲンアツジュツガッカイ,0
2599,8040001121627,新規,0,2022-01-12,2022-01-12,株式会社楓,,株式会社,千葉県,習志野市,奏の杜２丁目２番２－１４１７号,,12,216,2750028,,,,,,,2022-01-12,1,,,,,カエデ,0
2600,8040001121643,新規,0,2022-01-12,2022-01-12,株式会社ヤマカメ,,株式会社,千葉県,船橋市,夏見台２丁目１４番１－２０５号,,12,204,2730866,,,,,,,2022-01-12,1,,,,,ヤマカメ,0
2601,8040001121651,新規,0,2022-01-12,2022-01-12,株式会社ディープフリーズ,,株式会社,千葉県,我孫子市,つくし野５丁目７番１１号,,12,222,2701164,,,,,,,2022-01-12,1,,,,,ディープフリーズ,0
2604,8040003019241,新規,0,2022-01-12,2022-01-12,Ｆｉｅｒｔｅ合同会社,,合同会社,千葉県,佐倉市,染井野５丁目２８番地３,,12,212,2850831,,,,,,,2022-01-12,1,,,,,フィエルテ,0
2605,8040003019266,新規,0,2022-01-12,2022-01-12,メインストリーム合同会社,,合同会社,千葉県,成田市,公津の杜４丁目６番地７（Ｃ棟６０２号室）,,12,211,2860048,,,,,,,2022-01-12,1,,,,,メインストリーム,0
2606,8050001050437,新規,0,2022-01-12,2022-01-12,ポセイドンワールド株式会社,,株式会社,茨城県,つくばみらい市,伊奈東３４番地２０５,,08,235,3002308,,,,,,,2022-01-12,1,,,,,ポセイドンワールド,0
2612,8060001034455,新規,0,2022-01-12,2022-01-12,株式会社タカギシンテック,,株式会社,栃木県,宇都宮市,石井町２９３５番地５ピーアカーサＥ棟,,09,201,3210912,,,,,,,2022-01-12,1,,,,,タカギシンテック,0
2613,8060001034463,新規,0,2022-01-12,2022-01-12,ＧＩＮＺＡ　ＴＲＡＤＩＮＧ株式会社,,株式会社,栃木県,足利市,瑞穂野町１４１２－３,,09,202,3260323,,,,,,,2022-01-12,1,,,,,ギンザトレーディング,0
2618,8070001038827,新規,0,2022-01-12,2022-01-12,株式会社ｎｉｃｏ,,株式会社,群馬県,みどり市,大間々町大間々３７１番地９,,10,212,3760101,,,,,,,2022-01-12,1,,,,,ニコ,0
2633,8110001036347,新規,0,2022-01-12,2022-01-12,株式会社ベアーズ,,株式会社,新潟県,柏崎市,大字中田２４８６番地,,15,205,9450113,,,,,,,2022-01-12,1,,,,,ベアーズ,0
2634,8110001036363,新規,0,2022-01-12,2022-01-12,株式会社すみれトランスポート,,株式会社,新潟県,新潟市東区,浜町３番１８号,,15,102,9500046,,,,,,,2022-01-12,1,,,,,スミレトランスポート,0
2645,8120001242902,新規,0,2022-01-12,2022-01-12,株式会社エルフォレスト,,株式会社,大阪府,大阪市平野区,背戸口５丁目５番２９号１Ｆ,,27,126,5470034,,,,,,,2022-01-12,1,,,,,エルフォレスト,0
2646,8120001243017,新規,0,2022-01-12,2022-01-12,株式会社ワールドワーカー,,株式会社,大阪府,大阪市東住吉区,今川４丁目５番９号,,27,121,5460003,,,,,,,2022-01-12,1,,,,,ワールドワーカー,0
2647,8120001243025,新規,0,2022-01-12,2022-01-12,株式会社ＳＢＳ,,株式会社,大阪府,大阪市中央区,瓦町２丁目３番１４号日宝瓦町ビル４０７号,,27,128,5410048,,,,,,,2022-01-12,1,,,,,エスビーエス,0
2648,8120001243066,新規,0,2022-01-12,2022-01-12,株式会社卯ノ木電設,,株式会社,大阪府,大阪市西淀川区,姫島１丁目７番２１号,,27,113,5550033,,,,,,,2022-01-12,1,,,,,ウノキデンセツ,0
2650,8120003020901,新規,0,2022-01-12,2022-01-12,合同会社ＮＩＮＥ,,合同会社,大阪府,大阪市中央区,南船場２丁目１２番２６－７０１号,,27,128,5420081,,,,,,,2022-01-12,1,,,,,ナイン,0
2658,8120101064899,新規,0,2022-01-12,2022-01-12,株式会社ＡＰＰＲＯＡＣＨ,,株式会社,大阪府,堺市北区,南花田町５３５番地４－１階,,27,146,5918011,,,,,,,2022-01-12,1,,,,,アプローチ,0
2659,8120101064916,新規,0,2022-01-12,2022-01-12,株式会社エンパイヤランドリー,,株式会社,大阪府,堺市西区,浜寺昭和町５丁５８７番地１,,27,144,5928345,,,,,,,2022-01-12,1,,,,,エンパイヤランドリー,0
2667,8122001035484,新規,0,2022-01-12,2022-01-12,株式会社エレガント,,株式会社,大阪府,四條畷市,岡山４丁目１番１８－２０１号,,27,229,5750002,,,,,,,2022-01-12,1,,,,,エレガント,0
2670,8130001070889,新規,0,2022-01-12,2022-01-12,ＮｅｗＦｕｔｕｒｅ株式会社,,株式会社,京都府,八幡市,男山八望１番地－Ｃ５－２０５,,26,210,6148373,,,,,,,2022-01-12,1,,,,,ニューフューチャー,0
2674,8140001124479,新規,0,2022-01-12,2022-01-12,株式会社フィールドサービス,,株式会社,兵庫県,西宮市,甲子園口３丁目１番－２－３０２号,,28,204,6638113,,,,,,,2022-01-12,1,,,,,フィールドサービス,0
2680,8140005025979,新規,0,2022-01-12,2022-01-12,税理士法人津村会計事務所,,その他の設立登記法人,兵庫県,相生市,山手２丁目１６６番地,,28,208,6780001,,,,,,,2022-01-12,1,,,,,ツムラカイケイジムショ,0
2681,8150003002590,新規,0,2022-01-12,2022-01-12,合同会社ミナヒカル福祉会,,合同会社,奈良県,北葛城郡河合町,泉台３丁目１４番２１号,,29,427,6360091,,,,,,,2022-01-12,1,,,,,ミナヒカルフクシカイ,0
2684,8160001023943,新規,0,2022-01-12,2022-01-12,株式会社Ｗａｋｅ,,株式会社,滋賀県,近江八幡市,小船木町２８７番地,,25,204,5230083,,,,,,,2022-01-12,1,,,,,ウェイク,0
2691,8180001149332,新規,0,2022-01-12,2022-01-12,東名株式会社,,株式会社,愛知県,津島市,金柳町字北脇８５号１Ｆ,,23,208,4960014,,,,,,,2022-01-12,1,,,,,トウメイ,0
2692,8180001149464,新規,0,2022-01-12,2022-01-12,株式会社ＴＡＳＫ,,株式会社,愛知県,名古屋市中区,栄３丁目１９番１９号,,23,106,4600008,,,,,,,2022-01-12,1,,,,,タスク,0
2699,8180301035810,新規,0,2022-01-12,2022-01-12,株式会社太陽金ＪＰ,,株式会社,愛知県,碧南市,権現町４丁目２０６番地１,,23,209,4470833,,,,,,,2022-01-12,1,,,,,タイヨウキンジピ,0
2700,8180301035819,新規,0,2022-01-12,2022-01-12,株式会社浅井工業,,株式会社,愛知県,岡崎市,城南町３丁目１０番地５,,23,202,4440835,,,,,,,2022-01-12,1,,,,,アサイコウコウギョウ,0
2701,8180301035835,新規,0,2022-01-12,2022-01-12,株式会社ランドベース,,株式会社,愛知県,岡崎市,明大寺町字大圦１５番地１,,23,202,4440865,,,,,,,2022-01-12,1,,,,,ランドベース,0
2710,8200001039613,新規,0,2022-01-12,2022-01-12,株式会社ドローンコンシェルジュ,,株式会社,岐阜県,飛騨市,古川町杉崎１７７番地２,,21,217,5094215,,,,,,,2022-01-12,1,,,,,ドローンコンシェルジュ,0
2711,8200001039638,新規,0,2022-01-12,2022-01-12,株式会社タカトノ,,株式会社,岐阜県,揖斐郡揖斐川町,清水１５８４番地２,,21,401,5010615,,,,,,,2022-01-12,1,,,,,タカトノ,0
2715,8220005008620,新規,0,2022-01-12,2022-01-12,一般社団法人ＨＵＧ＆ＨＵＧ,,その他の設立登記法人,石川県,小松市,八幡甲４７番地１,,17,203,9230833,,,,,,,2022-01-12,1,,,,,ハグアンドハグ,0
2717,8240001059186,新規,0,2022-01-12,2022-01-12,株式会社サン,,株式会社,広島県,廿日市市,桜尾２丁目１番９号,,34,213,7380004,,,,,,,2022-01-12,1,,,,,サン,0
2720,8240005015318,新規,0,2022-01-12,2022-01-12,税理士法人桑田会計,00125373,その他の設立登記法人,広島県,福山市,北美台１３番５号,,34,207,7200023,,,,,,,2022-01-12,1,,,,,クワダカイケイ,0
2723,8260001036398,新規,0,2022-01-12,2022-01-12,株式会社全未来ＪＡＰＡＮ,,株式会社,岡山県,岡山市北区,本町６番３６号第一セントラルビル４階,,33,101,7000901,,,,,,,2022-01-12,1,,,,,ゼンミライジャパン,0
2724,8260001036415,新規,0,2022-01-12,2022-01-12,勝山ファーム株式会社,,株式会社,岡山県,津山市,西田辺４９７番地,,33,203,7080811,,,,,,,2022-01-12,1,,,,,カツヤマファーム,0
2726,8280001008602,新規,0,2022-01-12,2022-01-12,株式会社Ｉ－Ｔｅｃｈｎｉｃａｌ,,株式会社,島根県,松江市,浜佐田町９２５番地９パストラルＫ２０３,,32,201,6900855,,,,,,,2022-01-12,1,,,,,アイテクニカル,0
2729,8290001095929,新規,0,2022-01-12,2022-01-12,株式会社木稲産業,,株式会社,福岡県,久留米市,善導寺町飯田１３３番地３,,40,203,8390824,,,,,,,2022-01-12,1,,,,,コノミサンギョウ,0
2730,8290001095937,新規,0,2022-01-12,2022-01-12,株式会社ＬＥＩＦ,,株式会社,福岡県,福岡市博多区,博多駅前３丁目２３番２２号,,40,132,8120011,,,,,,,2022-01-12,1,,,,,リーフ,0
2731,8290001095953,新規,0,2022-01-12,2022-01-12,株式会社ＫＴＩ,,株式会社,福岡県,うきは市,吉井町新治３５８番地７,,40,225,8391306,,,,,,,2022-01-12,1,,,,,ケーティアイ,0
2732,8290001096010,新規,0,2022-01-12,2022-01-12,株式会社Ｊ・Ａ・Ｓ・Ｓ,,株式会社,福岡県,福岡市城南区,片江２丁目２８番２７号,,40,136,8140142,,,,,,,2022-01-12,1,,,,,ジェイエイエスエス,0
2733,8290001096019,新規,0,2022-01-12,2022-01-12,株式会社東亜商会,,株式会社,福岡県,福岡市中央区,薬院３丁目１０番４２－１００５号,,40,133,8100022,,,,,,,2022-01-12,1,,,,,トウアショウカイ,0
2739,8290003011982,新規,0,2022-01-12,2022-01-12,合同会社プラスａ,,合同会社,福岡県,福岡市博多区,吉塚本町２番４６‐２０２号,,40,132,8120046,,,,,,,2022-01-12,1,,,,,プラスアルファ,0
2740,8290003012007,新規,0,2022-01-12,2022-01-12,インシマン合同会社,,合同会社,福岡県,糟屋郡志免町,片峰中央３丁目１９－８－２０１,,40,343,8112246,,,,,,,2022-01-12,1,,,,,インシマン,0
2743,8300003001775,新規,0,2022-01-12,2022-01-12,合同会社ＩＫＥＵＣＨＩ,,合同会社,佐賀県,佐賀市,高木瀬町大字長瀬９２７番地２,,41,201,8490917,,,,,,,2022-01-12,1,,,,,イケウチ,0
2746,8310001017673,新規,0,2022-01-12,2022-01-12,株式会社エグゼクティブアシスタンス,,株式会社,長崎県,佐世保市,大和町１４０６番地４,,42,202,8571165,,,,,,,2022-01-12,1,,,,,エグゼクティブアシスタンス,0
2752,8320001018828,新規,0,2022-01-12,2022-01-12,株式会社ＷｉＬＬ,,株式会社,大分県,大分市,大字猪野４３５番地の７,,44,201,8700134,,,,,,,2022-01-12,1,,,,,ウイル,0
2755,8330003009196,新規,0,2022-01-12,2022-01-12,合同会社下田農笑,,合同会社,熊本県,八代郡氷川町,若洲９４,,43,468,8694813,,,,,,,2022-01-12,1,,,,,シモダノウショウ,0
2758,8340001024361,新規,0,2022-01-12,2022-01-12,株式会社ＬＰスイーツファーム,,株式会社,鹿児島県,薩摩川内市,中郷４丁目１７番地,,46,215,8950072,,,,,,,2022-01-12,1,,,,,エルピースイーツファーム,0
2760,8340003003677,新規,0,2022-01-12,2022-01-12,合同会社シーサイドバウンド,,合同会社,鹿児島県,大島郡徳之島町,亀津７６６５番地,,46,530,8917101,,,,,,,2022-01-12,1,,,,,シーサイドバウンド,0
2762,8350001017521,新規,0,2022-01-12,2022-01-12,株式会社嵐丸農園,,株式会社,宮崎県,東諸県郡国富町,大字嵐田１５９９番地１,,45,382,8801103,,,,,,,2022-01-12,1,,,,,ランマルノウエン,0
2768,8380001032484,新規,0,2022-01-12,2022-01-12,株式会社さんぽ,,株式会社,福島県,福島市,御山字沢田７番地３５,,07,201,9608252,,,,,,,2022-01-12,1,,,,,サンポ,0
2772,8390001016750,新規,0,2022-01-12,2022-01-12,株式会社ミカワ,,株式会社,山形県,酒田市,字山田２３番地の１２,,06,204,9996861,,,,,,,2022-01-12,1,,,,,ミカワ,0
2773,8390003001908,新規,0,2022-01-12,2022-01-12,合同会社ＬＩＥＮ　ｌｉｆｅ,,合同会社,山形県,山形市,下条町２丁目１４番２７号,,06,201,9900823,,,,,,,2022-01-12,1,,,,,リアンライフ,0
2780,8410001013076,新規,0,2022-01-12,2022-01-12,株式会社Ａｍａｎｏｂｏｒｉ,,株式会社,秋田県,秋田市,土崎港相染町字沼端１１３番地５,,05,201,0110951,,,,,,,2022-01-12,1,,,,,アマノボリ,0
2781,8410005006448,新規,0,2022-01-12,2022-01-12,農事組合法人ファーム末戸松本,,その他の設立登記法人,秋田県,秋田市,四ツ小屋末戸松本字古川敷２８番地,,05,201,0101416,,,,,,,2022-01-12,1,,,,,ファームスエドマツモト,0
2786,8430001085741,新規,0,2022-01-12,2022-01-12,株式会社ＵＮＩＡＴＥ,,株式会社,北海道,札幌市清田区,北野二条２丁目１０番２２号,,01,110,0040862,,,,,,,2022-01-12,1,,,,,ユニエイト,0
2802,8480001011619,新規,0,2022-01-12,2022-01-12,ｉｆ株式会社,,株式会社,徳島県,徳島市,春日２丁目６－２５アーバン春日Ｇ棟,,36,201,7700002,,,,,,,2022-01-12,1,,,,,アイエフ,0
2808,8500003002753,新規,0,2022-01-12,2022-01-12,合同会社ゆうきＴＯＹ,,合同会社,愛媛県,松山市,土居田町６２６番地２４,,38,201,7900056,,,,,,,2022-01-12,1,,,,,ユウキトイ,0
2817,9010001223672,新規,0,2022-01-12,2022-01-12,Ｖｏｌｋｍａｎｎ　Ｊａｐａｎ株式会社,,株式会社,東京都,千代田区,神田司町２丁目１３番神田第４アメレックスビル３０５号室,,13,101,1010048,,,,,,,2022-01-12,1,,,,,フォルクマンジャパン,0
2818,9010001223739,新規,0,2022-01-12,2022-01-12,株式会社ＺＥＡＮ,,株式会社,東京都,中央区,入船３丁目８番９号,,13,102,1040042,,,,,,,2022-01-12,1,,,,,ゼアン,0
2820,9010003036692,新規,0,2022-01-12,2022-01-12,合同会社ＫＨＦ８,,合同会社,東京都,千代田区,内幸町２丁目１番６号,,13,101,1000011,,,,,,,2022-01-12,1,,,,,ケイエイチエフエイト,0
2821,9010003036701,新規,0,2022-01-12,2022-01-12,ＭＨＣ日光もみじソーラー合同会社,,合同会社,東京都,中央区,日本橋１丁目４番１号,,13,102,1030027,,,,,,,2022-01-12,1,,,,,エムエイチシーニッコウモミジソーラー,0
2822,9010003036718,新規,0,2022-01-12,2022-01-12,合同会社ＬＯＧＩ’Ｑ１,,合同会社,東京都,千代田区,丸の内３丁目１番１号東京共同会計事務所内,,13,101,1000005,,,,,,,2022-01-12,1,,,,,ロジックワン,0
2824,9010005034430,新規,0,2022-01-12,2022-01-12,ヤマオカ一般社団法人,,その他の設立登記法人,東京都,千代田区,丸の内３丁目１番１号東京共同会計事務所内,,13,101,1000005,,,,,,,2022-01-12,1,,,,,ヤマオカ,0
2834,9010401164822,新規,0,2022-01-12,2022-01-12,株式会社ＯｎｅＳｋｉｐ,,株式会社,東京都,港区,赤坂２丁目２１番５号ＡＢＣ,,13,103,1070052,,,,,,,2022-01-12,1,,,,,ワンスキップ,0
2837,9010403026871,新規,0,2022-01-12,2022-01-12,Ｋｏｉ　Ｉｎｖｅｓｔｍｅｎｔ合同会社,,合同会社,東京都,港区,虎ノ門３丁目２２番１０－２０１号,,13,103,1050001,,,,,,,2022-01-12,1,,,,,コイインベストメント,0
2842,9010605004031,新規,0,2022-01-12,2022-01-12,仙台堀川社会保険労務士法人,,その他の設立登記法人,東京都,江東区,富岡２丁目１１番１８号リードシー門前仲町４階,,13,108,1350047,,,,,,,2022-01-12,1,,,,,センダイボリガワ,0
2852,9011001144958,新規,0,2022-01-12,2022-01-12,株式会社ＭＲＫ,,株式会社,東京都,渋谷区,恵比寿南２丁目３１番３号,,13,113,1500022,,,,,,,2022-01-12,1,,,,,エムアールケー,0
2855,9011003013979,新規,0,2022-01-12,2022-01-12,合同会社Ａｕｔｏ　Ｂｒｏｔｈｅｒｓ,,合同会社,東京都,渋谷区,宇田川町６番２０号,,13,113,1500042,,,,,,,2022-01-12,1,,,,,オートブラザーズ,0
2893,9013301048467,新規,0,2022-01-12,2022-01-12,佳和株式会社,,株式会社,東京都,豊島区,要町１丁目４５番９号ｅｍｉｏ２０１号,,13,116,1710043,,,,,,,2022-01-12,1,,,,,ケイワ,0
2894,9013305003294,新規,0,2022-01-12,2022-01-12,弁護士法人ＡｄＩｒｅ法律事務所,,その他の設立登記法人,東京都,豊島区,東池袋３丁目１番１号サンシャイン６０,,13,116,1700013,,,,,,,2022-01-12,1,,,,,アディーレホウリツジムショ,0
2900,9020001144661,新規,0,2022-01-12,2022-01-12,株式会社ルチェントス,,株式会社,神奈川県,横浜市鶴見区,馬場４丁目３番１２号,,14,101,2300076,,,,,,,2022-01-12,1,,,,,ルチェントス,0
2905,9020003021082,新規,0,2022-01-12,2022-01-12,合同会社Ｎｏａ,,合同会社,神奈川県,横浜市港北区,樽町１丁目１番２－５１１号,,14,109,2220001,,,,,,,2022-01-12,1,,,,,,0
2906,9020003021099,新規,0,2022-01-12,2022-01-12,Ａ－ＭＡＸ合同会社,,合同会社,神奈川県,横浜市西区,東久保町２７－２０－１２３,,14,103,2200062,,,,,,,2022-01-12,1,,,,,エイマックス,0
2910,9021001074907,新規,0,2022-01-12,2022-01-12,株式会社Ａ－ＳＴＹＬＥＳ,,株式会社,神奈川県,平塚市,紅谷町１４番１５号富澤ビル２Ｆ,,14,203,2540043,,,,,,,2022-01-12,1,,,,,エースタイルズ,0
2918,9030001146005,新規,0,2022-01-12,2022-01-12,西山建装株式会社,,株式会社,埼玉県,狭山市,大字東三ツ木３３５番地の１ハイデルベルグ２０１,,11,215,3501302,,,,,,,2022-01-12,1,,,,,ニシヤマケンソウ,0
2919,9030001146260,新規,0,2022-01-12,2022-01-12,株式会社プロセス,,株式会社,埼玉県,加須市,上樋遣川５２８０番地１,00125367,11,210,3470003,,,,,,,2022-01-12,1,,,,,プロセス,0
2921,9030003018623,新規,0,2022-01-12,2022-01-12,合同会社中村商会,,合同会社,埼玉県,和光市,新倉１丁目２２番４７号,,11,229,3510115,,,,,,,2022-01-12,1,,,,,ナカムラショウカイ,0
2924,9040001121592,新規,0,2022-01-12,2022-01-12,株式会社豊和エステート,,株式会社,千葉県,千葉市緑区,おゆみ野中央６丁目２７番地１２,,12,105,2660032,,,,,,,2022-01-12,1,,,,,ホウワエステート,0
2925,9040001121601,新規,0,2022-01-12,2022-01-12,株式会社Ｎｅｌｓｏｎ．ｃｏｍ,,株式会社,千葉県,千葉市緑区,古市場町３６５番地４,,12,105,2660026,,,,,,,2022-01-12,1,,,,,ネルソンドットコム,0
2926,9040001121642,新規,0,2022-01-12,2022-01-12,株式会社インターグロー,,株式会社,千葉県,千葉市若葉区,小倉町８７１番地１８,,12,104,2640007,,,,,,,2022-01-12,1,,,,,インターグロー,0
2927,9040001121650,新規,0,2022-01-12,2022-01-12,株式会社プラシード,,株式会社,千葉県,千葉市稲毛区,緑町１丁目２６番６号,,12,103,2630023,,,,,,,2022-01-12,1,,,,,プラシード,0
2928,9040001121675,新規,0,2022-01-12,2022-01-12,株式会社クロスポット,,株式会社,千葉県,浦安市,今川１丁目１３番１５号パームテラス１Ｆ,,12,227,2790022,,,,,,,2022-01-12,1,,,,,クロスポット,0
2931,9040003019249,新規,0,2022-01-12,2022-01-12,合同会社マツマル,,合同会社,千葉県,習志野市,秋津４丁目１番１号,,12,216,2750025,,,,,,,2022-01-12,1,,,,,マツマル,0
2932,9040003019257,新規,0,2022-01-12,2022-01-12,合同会社ＵＮＯ’ｓカンパニー,,合同会社,千葉県,千葉市中央区,登戸３丁目１番２号,,12,101,2600032,,,,,,,2022-01-12,1,,,,,ウノズカンパニー,0
2933,9050001050436,新規,0,2022-01-12,2022-01-12,株式会社エヌネットワークス,,株式会社,茨城県,水戸市,見川５丁目２５３番地の１４,,08,201,3100912,,,,,,,2022-01-12,1,,,,,エヌネットワークス,0
2934,9050001050444,新規,0,2022-01-12,2022-01-12,株式会社御倉,,株式会社,茨城県,笠間市,平町１８９番地,,08,216,3091722,,,,,,,2022-01-12,1,,,,,オクラ,0
2940,9060001034462,新規,0,2022-01-12,2022-01-12,株式会社ＲＡＡＮ,,株式会社,栃木県,宇都宮市,北若松原２丁目１１番３９号,,09,201,3210153,,,,,,,2022-01-12,1,,,,,ラーン,0
2950,9080403004441,新規,0,2022-01-12,2022-01-12,ＮＯＢＵ法務合同会社,,合同会社,静岡県,浜松市浜北区,横須賀７２９番地の１,,22,136,4340036,,,,,,,2022-01-12,1,,,,,ノブホウム,0
2957,9100003006356,新規,0,2022-01-12,2022-01-12,合同会社ｔｒｅｉｚｅ,,合同会社,長野県,松本市,梓川倭４１１２番地,,20,202,3901701,,,,,,,2022-01-12,1,,,,,トレーズ,0
2975,9120001242843,新規,0,2022-01-12,2022-01-12,株式会社上野坂,,株式会社,大阪府,大阪市北区,豊崎３丁目１８番３－３６０１号,,27,127,5310072,,,,,,,2022-01-12,1,,,,,ウエノサカ,0
2976,9120001242967,新規,0,2022-01-12,2022-01-12,株式会社ケイテク,,株式会社,大阪府,大阪市東淀川区,豊里７丁目３４番１５－１０２号,,27,114,5330013,,,,,,,2022-01-12,1,,,,,ケイテク,0
2977,9120001242975,新規,0,2022-01-12,2022-01-12,株式会社オザワ,,株式会社,大阪府,大阪市住吉区,万代２丁目５番３６号,,27,120,5580055,,,,,,,2022-01-12,1,,,,,オザワ,0
2978,9120001243049,新規,0,2022-01-12,2022-01-12,Ｌｕｃｋ株式会社,,株式会社,大阪府,大阪市西区,新町１丁目１１番９号,,27,106,5500013,,,,,,,2022-01-12,1,,,,,ラック,0
2980,9120003020917,新規,0,2022-01-12,2022-01-12,合同会社ＪＰ８,,合同会社,大阪府,大阪市浪速区,湊町１丁目２－１７－８０５,,27,111,5560017,,,,,,,2022-01-12,1,,,,,ジェイピーエイト,0
2981,9120005022688,新規,0,2022-01-12,2022-01-12,一般社団法人ＢＩＫＥ　ＪＡＰＡＮ,,その他の設立登記法人,大阪府,大阪市北区,同心２丁目３番１９－７０１号,,27,127,5300035,,,,,,,2022-01-12,1,,,,,バイクジャパン,0
2982,9120005022713,新規,0,2022-01-12,2022-01-12,ＮＥＸＵＳ司法書士法人,,その他の設立登記法人,大阪府,大阪市西区,京町堀２丁目１番１１号,,27,106,5500003,,,,,,,2022-01-12,1,,,,,ネクサス,0
2986,9120101064898,新規,0,2022-01-12,2022-01-12,株式会社ＧＥＮＰＥＩ,,株式会社,大阪府,堺市堺区,中瓦町１丁３番１８号,,27,141,5900077,,,,,,,2022-01-12,1,,,,,ゲンペイ,0
2991,9122001035475,新規,0,2022-01-12,2022-01-12,株式会社Ｉ　ｊｕｓｔ　ａｍ,,株式会社,大阪府,東大阪市,荒川２丁目２４番１６号,,27,227,5770843,,,,,,,2022-01-12,1,,,,,アイジャストアム,0
2992,9122001035483,新規,0,2022-01-12,2022-01-12,株式会社ＭａｒｃＨ,,株式会社,大阪府,東大阪市,横小路町５丁目２番２９号,,27,227,5798063,,,,,,,2022-01-12,1,,,,,マーチ,0
3001,9140001124461,新規,0,2022-01-12,2022-01-12,株式会社ウィルアシスト,,株式会社,兵庫県,伊丹市,広畑２丁目４６－１,,28,207,6640014,,,,,,,2022-01-12,1,,,,,ウィルアシスト,0
3002,9140001124478,新規,0,2022-01-12,2022-01-12,株式会社Ｔ．Ｅ．Ｄ,,株式会社,兵庫県,丹波篠山市,曽地中５８６番地７,,28,221,6692443,,,,,,,2022-01-12,1,,,,,ティーイーディー,0
3005,9150001025221,新規,0,2022-01-12,2022-01-12,株式会社ヴァンダンジュ,,株式会社,奈良県,奈良市,橋本町３番地の１ＢＯＮＣＨＩ内,,29,201,6308217,,,,,,,2022-01-12,1,,,,,ヴァンダンジュ,0
3009,9160001023934,新規,0,2022-01-12,2022-01-12,株式会社龍昇,,株式会社,滋賀県,栗東市,手原７丁目４番３－２０５号,,25,208,5203047,,,,,,,2022-01-12,1,,,,,リュウショウ,0
3010,9160001023942,新規,0,2022-01-12,2022-01-12,株式会社スマートガジェット,,株式会社,滋賀県,近江八幡市,上野町５８番地１,,25,204,5230046,,,,,,,2022-01-12,1,,,,,スマートガジェット,0
3021,9180001149389,新規,0,2022-01-12,2022-01-12,株式会社ｃｏｎ－ｗｅｓｔ,,株式会社,愛知県,名古屋市中区,松原３丁目７番１５号光葉ビル２階,,23,106,4600017,,,,,,,2022-01-12,1,,,,,コンウェスト,0
3022,9180001149447,新規,0,2022-01-12,2022-01-12,株式会社中京機械,,株式会社,愛知県,名古屋市名東区,一社４丁目３０番地２,,23,115,4650093,,,,,,,2022-01-12,1,,,,,チュウキョウキカイ,0
3027,9180003023336,新規,0,2022-01-12,2022-01-12,合同会社エムズ防水,,合同会社,愛知県,北名古屋市,片場大石２８番地１,,23,234,4810002,,,,,,,2022-01-12,1,,,,,エムズボウスイ,0
3028,9180003023352,新規,0,2022-01-12,2022-01-12,ＭＯＣＯハウス合同会社,,合同会社,愛知県,名古屋市西区,江向町２丁目２６番地の３,,23,104,4510013,,,,,,,2022-01-12,1,,,,,モコハウス,0
3029,9180005019596,新規,0,2022-01-12,2022-01-12,土地家屋調査士法人サンキ,,その他の設立登記法人,愛知県,名古屋市熱田区,三本松町６番５号,,23,109,4560032,,,,,,,2022-01-12,1,,,,,サンキ,0
3033,9180301035826,新規,0,2022-01-12,2022-01-12,株式会社ＮＮＲ,,株式会社,愛知県,岡崎市,錦町１０番地１２,,23,202,4440067,,,,,,,2022-01-12,1,,,,,エヌエヌアール,0
3035,9190001029020,新規,0,2022-01-12,2022-01-12,株式会社Ｍ,,株式会社,三重県,桑名市,多度町香取３０９番地１,,24,205,5110102,,,,,,,2022-01-12,1,,,,,エム,0
3037,9190003003865,新規,0,2022-01-12,2022-01-12,合同会社モアイ年金サポート,,合同会社,三重県,津市,新町１丁目５番３４号,,24,201,5140042,,,,,,,2022-01-12,1,,,,,モアイネンキンサポート,0
3040,9200001039645,新規,0,2022-01-12,2022-01-12,株式会社Ｐｈａｒｍ－ｍａｎ,,株式会社,岐阜県,岐阜市,金園町１０丁目４番地３,,21,201,5008113,,,,,,,2022-01-12,1,,,,,ファーマン,0
3044,9230001019181,新規,0,2022-01-12,2022-01-12,ＳＨＥ株式会社,,株式会社,富山県,富山市,太郎丸本町４丁目３番地１１,,16,201,9398272,,,,,,,2022-01-12,1,,,,,シー,0
3049,9240001059169,新規,0,2022-01-12,2022-01-12,株式会社ＳＫＲ,,株式会社,広島県,広島市中区,東千田町１丁目１番１０４－３－２８０５号,,34,101,7300053,,,,,,,2022-01-12,1,,,,,エスケイアール,0
3052,9250003002976,新規,0,2022-01-12,2022-01-12,合同会社ＥＭＯＴＯ,,合同会社,山口県,下関市,秋根東町１番４７－１号,,35,201,7510877,,,,,,,2022-01-12,1,,,,,エモト,0
3054,9260001036414,新規,0,2022-01-12,2022-01-12,株式会社にまつわるエトセトラ,,株式会社,岡山県,美作市,上山８５９,,33,215,7012614,,,,,,,2022-01-12,1,,,,,ニマツワルエトセトラ,0
3055,9260001036422,新規,0,2022-01-12,2022-01-12,株式会社ＡＲＯＷ＆ＤＥＰＡＲＴＭＥＮＴ,,株式会社,岡山県,岡山市北区,中山下２丁目３番５８号朝日プラザ１２０２,,33,101,7000821,,,,,,,2022-01-12,1,,,,,アローアンドデパートメント,0
3056,9260001036430,新規,0,2022-01-12,2022-01-12,Ｆｉｖｅ　Ｚｅｒｏ株式会社,,株式会社,岡山県,岡山市南区,大福１２３番地７,,33,104,7010204,,,,,,,2022-01-12,1,,,,,ファイブゼロ,0
3058,9280001008601,新規,0,2022-01-12,2022-01-12,株式会社Ｆｏｔｏｓ,,株式会社,島根県,仁多郡奥出雲町,三沢５０１番地１,,32,343,6991513,,,,,,,2022-01-12,1,,,,,ホトス,0
3064,9290001096018,新規,0,2022-01-12,2022-01-12,株式会社ＮＥＷ　ＯＮＬＹ,,株式会社,福岡県,福岡市博多区,御供所町３番地２９,,40,132,8120037,,,,,,,2022-01-12,1,,,,,ニューオンリー,0
3065,9290003012006,新規,0,2022-01-12,2022-01-12,合同会社あじさい,,合同会社,福岡県,大野城市,白木原１丁目１７‐４サンリヤン大野城駅前１１０６,,40,219,8160943,,,,,,,2022-01-12,1,,,,,アジサイ,0
3069,9310001017672,新規,0,2022-01-12,2022-01-12,株式会社アイジーエム,,株式会社,長崎県,長崎市,元船町１４番１０号,,42,201,8500035,,,,,,,2022-01-12,1,,,,,アイジーエム,0
3072,9330001029352,新規,0,2022-01-12,2022-01-12,株式会社アレッジ,,株式会社,熊本県,熊本市南区,幸田１丁目６－４１－７０２,,43,104,8614108,,,,,,,2022-01-12,1,,,,,アレッジ,0
3073,9330003009195,新規,0,2022-01-12,2022-01-12,合同会社とき和,,合同会社,熊本県,熊本市南区,富合町杉島１１４９番地２９,,43,104,8614142,,,,,,,2022-01-12,1,,,,,トキワ,0
3074,9340001024419,新規,0,2022-01-12,2022-01-12,株式会社Ｃｏｍｆｙ　Ｂｅｓｔ,,株式会社,鹿児島県,鹿児島市,東谷山５丁目４１番７号セジュールＳ１０２号,,46,201,8910113,,,,,,,2022-01-12,1,,,,,コンフィベスト,0
3076,9340003003684,新規,0,2022-01-12,2022-01-12,合同会社アンカー,,合同会社,鹿児島県,薩摩川内市,樋脇町塔之原１３４３２番地１,,46,215,8951202,,,,,,,2022-01-12,1,,,,,アンカー,0
3078,9350003004005,新規,0,2022-01-12,2022-01-12,合同会社ＴＡＢＥＴＥＭＡＭＯＲＵ,,合同会社,宮崎県,児湯郡新富町,富田東２丁目１－１,,45,402,8891412,,,,,,,2022-01-12,1,,,,,タベテマモル,0
3079,9350005006040,新規,0,2022-01-12,2022-01-12,医療法人栄千会,,その他の設立登記法人,宮崎県,宮崎市,大字小松１０９３番３,,45,201,8802112,,,,,,,2022-01-12,1,,,,,エイセンカイ,0
3082,9370001048068,新規,0,2022-01-12,2022-01-12,株式会社ファンキーオート,,株式会社,宮城県,仙台市若林区,三本塚字中谷地２３３－１,,04,103,9840841,,,,,,,2022-01-12,1,,,,,ファンキーオート,0
3105,9410001013067,新規,0,2022-01-12,2022-01-12,株式会社藤田販売,,株式会社,秋田県,秋田市,土崎港北５丁目６番２８号,,05,201,0110941,,,,,,,2022-01-12,1,,,,,フジタハンバイ,0
3106,9410001013075,新規,0,2022-01-12,2022-01-12,ＴＯＲＱＵＥ株式会社,,株式会社,秋田県,秋田市,土崎港東４丁目４番３２号,,05,201,0110942,,,,,,,2022-01-12,1,,,,,トルク,0
3116,9430001085749,新規,0,2022-01-12,2022-01-12,株式会社ｏｎｅ　ｈａｎｄ,,株式会社,北海道,伊達市,松ヶ枝町３４番地１,,01,233,0520012,,,,,,,2022-01-12,1,,,,,ワンハンド,0
3117,9430005014365,新規,0,2022-01-12,2022-01-12,司法書士法人いずみだ,,その他の設立登記法人,北海道,札幌市豊平区,西岡一条３丁目９番８号ルブールハヤシ２０３号,,01,105,0620031,,,,,,,2022-01-12,1,,,,,イズミダ,0
3124,9460301005032,新規,0,2022-01-12,2022-01-12,株式会社なかむらハウジング,,株式会社,北海道,北見市,東陵町１３５番地１６,,01,208,0900061,,,,,,,2022-01-12,1,,,,,,0
3129,9500001023924,新規,0,2022-01-12,2022-01-12,株式会社ＳＨＯＤＥＮ,,株式会社,愛媛県,松山市,南吉田町１３６４番地２,,38,201,7918042,,,,,,,2022-01-12,1,,,,,ショウデン,0
3130,9500001023932,新規,0,2022-01-12,2022-01-12,株式会社マハロ,,株式会社,愛媛県,松山市,道後町１丁目４番１９号,,38,201,7900843,,,,,,,2022-01-12,1,,,,,マハロ,0
