sequenceNumber,corporateNumber,process,correct,updateDate,changeDate,name,nameImageId,kind,prefectureName,cityName,streetNumber,addressImageId,prefectureCode,cityCode,postCode,addressOutside,addressOutsideImageId,closeDate,closeCause,successorCorporateNumber,changeCause,assignmentDate,latest,enName,enPrefectureName,enCityName,enAddressOutside,furigana,hihyoji
3,1010001240188,新規,0,2023-11-21,2023-11-21,株式会社ｓｈｉｎｉｎｇＹＹ,,株式会社,東京都,中央区,日本橋茅場町３丁目１０番２ＳＫＫビルＢ１,,13,102,1030025,,,,,,,2023-11-21,1,,,,,シャイニングワイワイ,0
6,1010003042252,新規,0,2023-11-21,2023-11-21,合同会社平澤カンパニー,,合同会社,東京都,千代田区,三番町９番地１,,13,101,1020075,,,,,,,2023-11-21,1,,,,,ヒラサワカンパニー,0
7,1010003042260,新規,0,2023-11-21,2023-11-21,スカイクリエイト合同会社,,合同会社,東京都,千代田区,六番町１５番地２,,13,101,1020085,,,,,,,2023-11-21,1,,,,,スカイクリエイト,0
17,1010501051399,新規,0,2023-11-21,2023-11-21,日本雲百テクノロジー株式会社,,株式会社,東京都,台東区,台東１丁目２４番９号ブライト秋葉原Ｂ１Ｆ,,13,106,1100016,,,,,,,2023-11-21,1,,,,,ニホンウンヒャクテクノロジー,0
22,1010601064185,新規,0,2023-11-21,2023-11-21,坤煌メディア株式会社,,株式会社,東京都,江東区,越中島３丁目２番１５－３０４号,,13,108,1350044,,,,,,,2023-11-21,1,,,,,コンコウメディア,0
23,1010603010484,新規,0,2023-11-21,2023-11-21,ＢＩＮＨ　ＣＨＩＮＨ合同会社,,合同会社,東京都,墨田区,錦糸２丁目４番６号ＡＬビル２０３号,,13,107,1300013,,,,,,,2023-11-21,1,,,,,ビンチン,0
25,1010701045151,新規,0,2023-11-21,2023-11-21,株式会社キープオン,,株式会社,東京都,品川区,平塚２丁目２０番８号戸越銀座プレイス３０１号室,,13,109,1420051,,,,,,,2023-11-21,1,,,,,キープオン,0
30,1010801034533,新規,0,2023-11-21,2023-11-21,朶朶株式会社,,株式会社,東京都,大田区,東海３丁目７番３号,,13,111,1430001,,,,,,,2023-11-21,1,,,,,ダダ,0
31,1010901054209,新規,0,2023-11-21,2023-11-21,フィフティーズスリー株式会社,,株式会社,東京都,世田谷区,代田３丁目３１番１１号,,13,112,1550033,,,,,,,2023-11-21,1,,,,,フィフティーズスリー,0
42,1011001158164,新規,0,2023-11-21,2023-11-21,株式会社Ｔｏｋｙｏ　Ｃｌｅａｎｅｒ,,株式会社,東京都,渋谷区,神泉町１２番５号４階４Ｂ,,13,113,1500045,,,,,,,2023-11-21,1,,,,,トウキョウクリーナー,0
43,1011001158296,新規,0,2023-11-21,2023-11-21,アイエントエマージ株式会社,,株式会社,東京都,渋谷区,神宮前６丁目１８番３号,,13,113,1500001,,,,,,,2023-11-21,1,,,,,アイエントエマージ,0
44,1011001158346,新規,0,2023-11-21,2023-11-21,株式会社ＭＯＭ’Ｓ　ＴＯＵＣＨ　ＴＯＫＹＯ,,株式会社,東京都,渋谷区,神南１丁目２３番１４号,,13,113,1500041,,,,,,,2023-11-21,1,,,,,マムズタッチトウキョウ,0
45,1011001158370,新規,0,2023-11-21,2023-11-21,株式会社スプリンクルジャパン,,株式会社,東京都,渋谷区,神宮前６丁目１２番１８号,,13,113,1500001,,,,,,,2023-11-21,1,,,,,スプリンクルジャパン,0
46,1011001158379,新規,0,2023-11-21,2023-11-21,株式会社シェリー,,株式会社,東京都,渋谷区,渋谷２丁目１９番１５号宮益坂ビルディング６０９,,13,113,1500002,,,,,,,2023-11-21,1,,,,,シェリー,0
49,1011101105198,新規,0,2023-11-21,2023-11-21,Ａｓｔｒｕｍ　Ｓｔｒａｔｅｇｙ株式会社,,株式会社,東京都,新宿区,西新宿６丁目５番１号新宿アイランドタワー２階,,13,104,1600023,,,,,,,2023-11-21,1,,,,,アストラムストラテジー,0
58,1011601027297,新規,0,2023-11-21,2023-11-21,株式会社１４,,株式会社,東京都,練馬区,小竹町２丁目９番５号,,13,120,1760004,,,,,,,2023-11-21,1,,,,,フォーティーン,0
59,1011603004138,新規,0,2023-11-21,2023-11-21,合同会社ＴＦカッパ,,合同会社,東京都,練馬区,氷川台４丁目４７番１８号,,13,120,1790084,,,,,,,2023-11-21,1,,,,,ティーエフカッパ,0
60,1012303001904,新規,0,2023-11-21,2023-11-21,合同会社後藤商事,,合同会社,東京都,町田市,玉川学園７丁目９番１８号,,13,209,1940041,,,,,,,2023-11-21,1,,,,,ゴトウショウジ,0
66,1013101009288,新規,0,2023-11-21,2023-11-21,ＳＴＥＲＬＩＮＧ化粧品株式会社,,株式会社,東京都,青梅市,今寺５丁目１０番地の６－２Ｆ,,13,205,1980021,,,,,,,2023-11-21,1,,,,,ステリングケショウヒン,0
72,1013301051651,新規,0,2023-11-21,2023-11-21,サンワーク株式会社,,株式会社,東京都,豊島区,東池袋３丁目２番４号,,13,116,1700013,,,,,,,2023-11-21,1,,,,,サンワーク,0
85,1020005016187,新規,0,2023-11-21,2023-11-21,一般社団法人湘南環境研究所,,その他の設立登記法人,神奈川県,横浜市戸塚区,汲沢８丁目２４番１号,,14,110,2450061,,,,,,,2023-11-21,1,,,,,ショウナンカンキョウケンキュウジョ,0
95,1030001157249,新規,0,2023-11-21,2023-11-21,寿ホールディングス株式会社,,株式会社,埼玉県,久喜市,下清久２８５番地１,,11,232,3460033,,,,,,,2023-11-21,1,,,,,コトブキホールディングス,0
96,1030001157257,新規,0,2023-11-21,2023-11-21,株式会社ｏｍｏｔｅｎａｓｈｉ,,株式会社,埼玉県,加須市,陽光台１丁目３００－７４,,11,210,3491204,,,,,,,2023-11-21,1,,,,,オモテナシ,0
99,1030003023036,新規,0,2023-11-21,2023-11-21,合同会社ＣＯＭＡＫＩ　ＷＯＲＫＳ,,合同会社,埼玉県,朝霞市,本町１丁目１４番２３－６号,,11,227,3510011,,,,,,,2023-11-21,1,,,,,コマキワークス,0
100,1030005021459,新規,0,2023-11-21,2023-11-21,一般社団法人世界創造大学,,その他の設立登記法人,埼玉県,桶川市,若宮１丁目８番３０－１０３号,,11,231,3630022,,,,,,,2023-11-21,1,,,,,セカイソウゾウダイガク,0
102,1040001131005,新規,0,2023-11-21,2023-11-21,豊八株式会社,,株式会社,千葉県,松戸市,松飛台１４５番地の２,,12,207,2702214,,,,,,,2023-11-21,1,,,,,トヨハチ,0
103,1040001131013,新規,0,2023-11-21,2023-11-21,株式会社啓明,,株式会社,千葉県,東金市,台方２１５番地７,,12,213,2830811,,,,,,,2023-11-21,1,,,,,ケイメイ,0
104,1040001131021,新規,0,2023-11-21,2023-11-21,株式会社スリー１,,株式会社,千葉県,四街道市,四街道１５２２番地６８アーバンライフ津の守３０２,,12,228,2840005,,,,,,,2023-11-21,1,,,,,スリーワン,0
106,1040003023753,新規,0,2023-11-21,2023-11-21,合同会社Ａｌｌ　Ｆｏｒ　Ｏｎｅ,,合同会社,千葉県,旭市,ロ９１９番１,,12,215,2892516,,,,,,,2023-11-21,1,,,,,オールフォアワン,0
118,1070003005170,新規,0,2023-11-21,2023-11-21,合同会社Ｍ＆Ｒ,,合同会社,群馬県,前橋市,昭和町１丁目３番１号,,10,201,3710034,,,,,,,2023-11-21,1,,,,,エムアンドアール,0
120,1080001025987,新規,0,2023-11-21,2023-11-21,株式会社信栄装備,,株式会社,静岡県,静岡市清水区,宮加三６０８番地,,22,103,4240911,,,,,,,2023-11-21,1,,,,,シンエイソウビ,0
125,1100003007270,新規,0,2023-11-21,2023-11-21,ＡＬＬ　ＷＡＹＳ合同会社,,合同会社,長野県,北安曇郡白馬村,大字北城８２８番地１７９,,20,485,3999301,,,,,,,2023-11-21,1,,,,,オールウェイズ,0
138,1120001260002,新規,0,2023-11-21,2023-11-21,株式会社オエマエ,,株式会社,大阪府,大阪市東淀川区,瑞光２丁目１２番３３号ヴィラ瑞光４０５号室,,27,114,5330005,,,,,,,2023-11-21,1,,,,,オエマエ,0
139,1120001260027,新規,0,2023-11-21,2023-11-21,株式会社はばたくあおぞら,,株式会社,大阪府,大阪市西成区,玉出中２丁目４番２１号ひまわりマンション１Ｆ,,27,122,5570044,,,,,,,2023-11-21,1,,,,,ハバタクアオゾラ,0
141,1120003025262,新規,0,2023-11-21,2023-11-21,合同会社Ｄａｙｌｉｇｈｔ,,合同会社,大阪府,大阪市西区,九条南１丁目９番５－６０８号,,27,106,5500025,,,,,,,2023-11-21,1,,,,,デイライト,0
164,1160001025517,新規,0,2023-11-21,2023-11-21,株式会社ＣＬＡＳＳ．Ｔ,,株式会社,滋賀県,近江八幡市,小船木町２９１番地,,25,204,5230083,,,,,,,2023-11-21,1,,,,,クラスティー,0
170,1180001159024,新規,0,2023-11-21,2023-11-21,アイジェイネット株式会社,,株式会社,愛知県,名古屋市港区,東茶屋２丁目４３３Ｂ棟,,23,111,4550851,,,,,,,2023-11-21,1,,,,,アイジェイネット,0
177,1180301038035,新規,0,2023-11-21,2023-11-21,ＧＥＮＪＩ株式会社,,株式会社,愛知県,豊田市,中町中前２８番５,,23,211,4730904,,,,,,,2023-11-21,1,,,,,ゲンジー,0
179,1190001030902,新規,0,2023-11-21,2023-11-21,株式会社ＳＥＮＡ,,株式会社,三重県,松阪市,愛宕町１丁目５５番地５,,24,204,5150037,,,,,,,2023-11-21,1,,,,,セナ,0
182,1200003006163,新規,0,2023-11-21,2023-11-21,ＪＡＭｓｔｏｃｋ合同会社,,合同会社,岐阜県,土岐市,下石町８５０番地,,21,212,5095202,,,,,,,2023-11-21,1,,,,,ジャムストック,0
191,1240001062452,新規,0,2023-11-21,2023-11-21,株式会社ＲＥＡＮＤ,,株式会社,広島県,尾道市,向島町２２０９－２,,34,205,7220073,,,,,,,2023-11-21,1,,,,,リアンド,0
193,1260003004500,新規,0,2023-11-21,2023-11-21,合同会社ＢＪＡＳＡ,,合同会社,岡山県,倉敷市,上東１３６３番地１メイプルコートＢ１０２,,33,202,7010111,,,,,,,2023-11-21,1,,,,,ビジャサ,0
194,1260005011296,新規,0,2023-11-21,2023-11-21,特定非営利活動法人みつくり,,その他の設立登記法人,岡山県,津山市,上之町１８５番地ハイツ大野１０１号,,33,203,7080831,,,,,,,2023-11-21,1,,,,,ミツクリ,0
212,1320003004238,新規,0,2023-11-21,2023-11-21,握本舗合同会社,,合同会社,大分県,速見郡日出町,大字大神４４６１番地３,,44,341,8791504,,,,,,,2023-11-21,1,,,,,ニギリホンポ,0
216,1330003010086,新規,0,2023-11-21,2023-11-21,合同会社ＮＢＥ,,合同会社,熊本県,熊本市中央区,大江６丁目１番６０－６０７号,,43,101,8620971,,,,,,,2023-11-21,1,,,,,エヌビーイー,0
221,1360003013499,新規,0,2023-11-21,2023-11-21,あかねコーポレーション合同会社,,合同会社,沖縄県,南城市,玉城字百名５３９番地２６,,47,215,9010603,,,,,,,2023-11-21,1,,,,,アカネコーポレーション,0
225,1370003006394,新規,0,2023-11-21,2023-11-21,合同会社ＦＵＫＵＲＯＫＵ,,合同会社,宮城県,仙台市青葉区,本町１丁目９番６号フージャース仙台本町ビル４階西１,,04,101,9800014,,,,,,,2023-11-21,1,,,,,フクロク,0
235,1430001090491,新規,0,2023-11-21,2023-11-21,株式会社Ｌｅ’Ｌｉｅｎ,,株式会社,北海道,小樽市,長橋３丁目１７番１７号,,01,203,0470036,,,,,,,2023-11-21,1,,,,,ルリアン,0
236,1430003015661,新規,0,2023-11-21,2023-11-21,合同会社駿興,,合同会社,北海道,札幌市豊平区,美園五条８丁目１番２２－１０２号,,01,105,0620005,,,,,,,2023-11-21,1,,,,,シュンコウ,0
243,1480001012292,新規,0,2023-11-21,2023-11-21,なかよし電力株式会社,,株式会社,徳島県,那賀郡那賀町,水崎字水崎原２７番地,,36,368,7715511,,,,,,,2023-11-21,1,,,,,ナカヨシデンリョク,0
247,1500001025317,新規,0,2023-11-21,2023-11-21,株式会社エテルノ,,株式会社,愛媛県,松山市,柳原６６９番地７,,38,201,7992434,,,,,,,2023-11-21,1,,,,,エテルノ,0
248,1500003003139,新規,0,2023-11-21,2023-11-21,合同会社瀬戸内企画,,合同会社,愛媛県,今治市,上徳１丁目５番４０号,,38,202,7991511,,,,,,,2023-11-21,1,,,,,セトウチキカク,0
249,1700150116508,新規,0,2023-11-21,2023-11-21,ＥＶＥＲＣＡＲＥ　ＧＬＯＢＡＬ　ＬＩＭＩＴＥＤ,,外国会社等,,,,,,,,ＦＬＡＴ　２００３　ＢＬＫ　Ｂ　ＴＳＵＥＮ　ＷＡＮ　ＴＯＷＮ　ＳＱＵＡＲＥ　ＮＯ　６７－９５　ＴＳＵＥＮ　ＷＡＮ　ＭＡＲ　５２　ＬＯ　ＴＡＫ　ＣＩＲＣＵＩＴ　ＴＳＵＥＮ　ＷＡＮ　ＮＴ　Ｈｏｎｇ　Ｋｏｎｇ　９９９０７７,,,,,,2023-11-21,1,,,,,エバーケアグローバルリミテッド,0
250,1700150116607,新規,0,2023-11-21,2023-11-21,Ｘｉａｍｅｎ　Ｇｕｄｅｔａｉｋｅ　Ｉｍｐｏｒｔ　ａｎｄ　Ｅｘｐｏｒｔ　Ｃｏ．Ｌｔｄ．,,外国会社等,,,,,,,,Ｒｏｏｍ　３０５，Ｎｏ．３５６－８　Ｊｉｙｉｎ　Ｒｏａｄ　Ｔｏｎｇａｎ　Ｘｉａｍｅｎ,,,,,,2023-11-21,1,,,,,シアメングデタイケインポートアンドエクスポートコーリミテッド,0
251,1700150116615,新規,0,2023-11-21,2023-11-21,Ｓｈｅｎｚｈｅｎｓｈｉ　Ｋａｄｉｎａ　Ｋｅｊｉ　Ｙｏｕｘｉａｎ　Ｇｏｎｇｓｉ,,外国会社等,,,,,,,,Ｙａｎｔｉａｎｑｕ　Ｓｈａｔｏｕｊｉａｏｊｉｅｄａｏ　Ｐｅｎｇｗａｎ　ｙｉｃｕｎ　９ｄｏｎｇ　Ｃ２０２　Ｓｈｅｎｚｈｅｎ　Ｇｕａｎｇｄｏｎｇ　５１８０００　ＣＮ,,,,,,2023-11-21,1,,,,,シェンチェンシカディナケジヨウシアンゴンシ,0
252,1700150117704,新規,0,2023-11-21,2023-11-21,ｓｉｃｈｕａｎｙｉｋｅｌｉａｎｇｏｕｋｅｊｉｙｏｕｘｉａｎｇｏｎｇｓｉ,,外国会社等,,,,,,,,ｚｈｏｎｇｇｕｏ（ｓｉｃｈｕａｎ）ｚｉｙｏｕｍａｏｙｉｓｈｉｙａｎｑｕｃｈｅｎｇｄｕｇａｏｘｉｎｑｕｙｉｚｈｏｕｄａｄａｏｚｈｏｎｇｄｕａｎ８８８ｈａｏ２ｄｏｎｇ９ｃｅｎｇ９０１,,,,,,2023-11-21,1,,,,,シチュアンイケリアンゴウケジョウウシャゴンシ,0
253,1700150117720,新規,0,2023-11-21,2023-11-21,ＡＷ　Ｉｎｔｅｒｎａｔｉｏｎａｌ，Ｉｎｃ．,,外国会社等,,,,,,,,１７９　Ｎ　Ｓｕｎｓｅｔ　Ａｖｅ　Ｃｉｔｙ　ｏｆ　Ｉｎｄｕｓｔｒｙ　Ｃａｌｉｆｏｒｎｉａ　９１７４４　ＵＳ,,,,,,2023-11-21,1,,,,,アドゥーインターナショナルインク,0
254,1700150121870,新規,0,2023-11-21,2023-11-07,くっちゃん子ども子育て応援し隊　ＰｏｐｋｅＬａｂ,,その他,北海道,虻田郡倶知安町,北四条東６丁目１４－１７,,01,400,0440004,,,,,,,2023-11-07,1,,,,,クツチヤンコドモコソダテオウエンシタイポツケラボ,0
255,1700150122191,新規,0,2023-11-21,2023-11-21,Ｇｕｉｌｉｎ　ｆｕｇｕｉｂａｏ　ｄｉａｎｚｉ　ｓｈａｎｇｗｕ　ｙｏｕｘｉａｎｇｏｎｇｓｉ,,外国会社等,,,,,,,,ｘｉａｎｇｓｈａｎｑｕ　ｅｒｔａｎｇｘｉａｎｇ　ｋａｉｆｅｎｇｌｕ　７ｈａｏ　ｌｏｎｇｇｕａｎｇ　ｐｕｌｕｏｗａｎｇｓｉ，１９ｄｏｎｇ　１－２－０２ｈａｏ　ｆａｎｇ，ｇｕｉｌｉｎ，Ｇｕａｎｇｘｉ，５４１００２，ＣＮ,,,,,,2023-11-21,1,,,,,グイリンフゥグイバオディエンズーシャーンウーヨウシエンゴーンスー,0
256,1700150122200,新規,0,2023-11-21,2023-11-21,ｓｈｅｎｚｈｅｎｂｅｎｆｅｎｄｉａｎｚｉｓｈａｎｇｗｕｙｏｕｘｉａｎｇｏｎｇｓｉ,,外国会社等,,,,,,,,Ｚｈａｎｇｋｅｎｇ　Ｃｏｍｍｕｎｉｔｙ，Ｍｉｎｚｈｉ　Ｓｔｒｅｅｔ，Ｌｏｎｇｈｕａ　Ｄｉｓｔｒｉｃｔ　Ｒｏｏｍ　７０３，Ｂｕｉｌｄｉｎｇ　２５，Ｘｉａｎｇｎａｎ　Ｄｉｓｔｒｉｃｔ　４　Ｓｈｅｎｚｈｅｎ　Ｇｕａｎｇｄｏｎｇ　Ｐｒｏｖｉｎｃｅ　５１８０００　ＣＮ,,,,,,2023-11-21,1,,,,,シェンジェンベンフェンディエンズーシャンウヨウシェンゴンスー,0
257,1700150122209,新規,0,2023-11-21,2023-11-21,ｊｉｎｃｈｅｎｇｈｏｎｇｙｉｇｏｎｇｍａｏｙｏｕｘｉａｎｇｏｎｇｓｉ,,外国会社等,,,,,,,,Ｃｈｅｎ　Ｇｅ　Ｃｏｍｍｕｎｉｔｙ，Ｘｉｎｃｈｅｎｇ，Ｌｏｎｇｇａｎｇ　Ｔｏｗｎ，Ｑｉｎｓｈｕｉ　Ｃｏｕｎｔｙ　Ｊｉｎｃｈｅｎｇ　Ｓｈａｎｘｉ　０４８２９９ＣＮ,,,,,,2023-11-21,1,,,,,ジンチョンホンイーゴンマオヨウシエンゴンスー,0
258,1700150122217,新規,0,2023-11-21,2023-11-21,ｄｏｎｇｇｕａｎｊｉｕｙｉｎｋｅｊｉｙｏｕｘｉａｎｇｏｎｇｓｉ,,外国会社等,,,,,,,,Ｎｏ．６，Ｈｅａｄｑｕａｒｔｅｒｓ　１ｓｔ　Ｒｏａｄ，Ｓｏｎｇｓｈａｎｈｕ　Ｐａｒｋ　Ｒｏｏｍ　７０７，Ｂｕｉｌｄｉｎｇ　１　Ｄｏｎｇｇｕａｎ　Ｇｕａｎｇｄｏｎｇ　５２３８０８　ＣＮ,,,,,,2023-11-21,1,,,,,ドンワンジゥインカージヨウシェンゴンスー,0
272,2010003042268,新規,0,2023-11-21,2023-11-21,合同会社ｌａｍｂｉｅ,,合同会社,東京都,中央区,入船１丁目４番９号ＡＪＩＴＯ５０８号,,13,102,1040042,,,,,,,2023-11-21,1,,,,,ランビー,0
274,2010005037547,新規,0,2023-11-21,2023-11-21,ＤＧＬ神戸特定目的会社,,その他の設立登記法人,東京都,千代田区,丸の内３丁目１番１号東京共同会計事務所内,,13,101,1000005,,,,,,,2023-11-21,1,,,,,ディージーエルコウベ,0
279,2010401178655,新規,0,2023-11-21,2023-11-21,ステラインキュベーション株式会社,,株式会社,東京都,港区,六本木７丁目１２番２号Ｒ７ビルディング,,13,103,1060032,,,,,,,2023-11-21,1,,,,,ステラインキュベーション,0
283,2010403031408,新規,0,2023-11-21,2023-11-21,エニラボ合同会社,,合同会社,東京都,港区,三田５丁目１番１２－５０７号,,13,103,1080073,,,,,,,2023-11-21,1,,,,,エニラボ,0
297,2010903008599,新規,0,2023-11-21,2023-11-21,ＫＴａｍ合同会社,,合同会社,東京都,世田谷区,祖師谷４丁目３３番２３号,,13,112,1570072,,,,,,,2023-11-21,1,,,,,ケイタム,0
300,2011003017961,新規,0,2023-11-21,2023-11-21,長藤デザイン合同会社,,合同会社,東京都,渋谷区,渋谷２丁目１９－１５宮益坂ビルディング６０９,,13,113,1500002,,,,,,,2023-11-21,1,,,,,ナガフジデザイン,0
303,2011101105189,新規,0,2023-11-21,2023-11-21,株式会社パロワ,,株式会社,東京都,新宿区,西五軒町３番１０－６０１号プレミスト神楽坂,,13,104,1620812,,,,,,,2023-11-21,1,,,,,パロワ,0
306,2011105010864,新規,0,2023-11-21,2023-11-21,一般財団法人日本クリプト決済普及協会,,その他の設立登記法人,東京都,新宿区,新宿５丁目１７番６－９０１号,,13,104,1600022,,,,,,,2023-11-21,1,,,,,ニッポンクリプトケッサイフキュウキョウカイ,0
307,2011203004198,新規,0,2023-11-21,2023-11-21,合同会社ＢＥ,,合同会社,東京都,中野区,中野３丁目６－５,,13,114,1640001,,,,,,,2023-11-21,1,,,,,ビーイー,0
308,2011401025616,新規,0,2023-11-21,2023-11-21,株式会社ビークリーン,,株式会社,東京都,板橋区,上板橋３丁目１１番１１号,,13,119,1740076,,,,,,,2023-11-21,1,,,,,ビークリーン,0
327,2012801022772,新規,0,2023-11-21,2023-11-21,マグネットピープル株式会社,,株式会社,東京都,日野市,三沢３丁目１４番地の３,,13,212,1910032,,,,,,,2023-11-21,1,,,,,マグネットピープル,0
331,2013103001283,新規,0,2023-11-21,2023-11-21,合同会社ＴＯＦ,,合同会社,東京都,西多摩郡日の出町,大字平井１１５６番地５,,13,305,1900182,,,,,,,2023-11-21,1,,,,,,0
341,2020001154543,新規,0,2023-11-21,2023-11-21,株式会社宏育,,株式会社,神奈川県,横浜市中区,山下町１番地９２１号,,14,104,2310023,,,,,,,2023-11-21,1,,,,,ヒロヤス,0
342,2020001154551,新規,0,2023-11-21,2023-11-21,Ｂｌｕｅ　Ｈｅｒｔｓ株式会社,,株式会社,神奈川県,横浜市鶴見区,東寺尾３丁目１５－１３,,14,101,2300077,,,,,,,2023-11-21,1,,,,,ブルーハーツ,0
348,2020003025032,新規,0,2023-11-21,2023-11-21,Ｗｉｓｔｅｒｉａ‐Ｇｒａｃｅ合同会社,,合同会社,神奈川県,横浜市保土ケ谷区,仏向町２０番地プレシアセイショウ４０２号,,14,106,2400044,,,,,,,2023-11-21,1,,,,,ウィステリアグレイス,0
357,2030001157264,新規,0,2023-11-21,2023-11-21,緑意株式会社,,株式会社,埼玉県,北本市,中央１丁目６４ショーゲンビル２Ｆ,,11,233,3640031,,,,,,,2023-11-21,1,,,,,リョクイ,0
358,2030001157306,新規,0,2023-11-21,2023-11-21,昇建設株式会社,,株式会社,埼玉県,さいたま市岩槻区,日の出町９番７０号ステラＩＩ１０１,00132746,11,110,3390064,,,,,,,2023-11-21,1,,,,,ショウケンセツ,0
368,2030003023027,新規,0,2023-11-21,2023-11-21,ＫｏＲｙｏＮｅ美食住合同会社,,合同会社,埼玉県,川口市,飯塚１丁目３番６－８０７号,,11,203,3320023,,,,,,,2023-11-21,1,,,,,コリョーネビショクジュウ,0
370,2030005021474,新規,0,2023-11-21,2023-11-21,一般社団法人ユニベルソ・コンサルアンドサポート,,その他の設立登記法人,埼玉県,熊谷市,末広３丁目１３番４号,,11,202,3600031,,,,,,,2023-11-21,1,,,,,ユニベルソコンサルアンドサポート,0
375,2040003023760,新規,0,2023-11-21,2023-11-21,Ｔ＆ＣＰ合同会社,,合同会社,千葉県,柏市,松葉町７丁目６番１号,,12,217,2770827,,,,,,,2023-11-21,1,,,,,ティーアンドシーピー,0
384,2070005010192,新規,0,2023-11-21,2023-11-21,一般社団法人情報漏洩セキュリティ協会,,その他の設立登記法人,群馬県,桐生市,相生町３丁目１５８番地１,,10,203,3760011,,,,,,,2023-11-21,1,,,,,ジョウホウロウエイセキュリティキョウカイ,0
386,2080001025986,新規,0,2023-11-21,2023-11-21,タレントバンク株式会社,,株式会社,静岡県,静岡市葵区,伝馬町１－２ホテルシティオ静岡３Ｆ－２４,,22,101,4200858,,,,,,,2023-11-21,1,,,,,タレントバンク,0
387,2080101024351,新規,0,2023-11-21,2023-11-21,株式会社ぬまづ書房,,株式会社,静岡県,沼津市,高沢町１１－１,,22,203,4100057,,,,,,,2023-11-21,1,,,,,ヌマヅショボウ,0
393,2090001018428,新規,0,2023-11-21,2023-11-21,株式会社山博電設,,株式会社,山梨県,甲斐市,万才４９６番地３,,19,210,4000114,,,,,,,2023-11-21,1,,,,,ヤマヒロデンセツ,0
406,2120001259968,新規,0,2023-11-21,2023-11-21,株式会社ｂｏｕｑｕｅｔ,,株式会社,大阪府,大阪市西区,新町１丁目２番１３号新町ビル３０７号室,,27,106,5500013,,,,,,,2023-11-21,1,,,,,ブーケ,0
407,2120001260034,新規,0,2023-11-21,2023-11-21,株式会社ＣＫ　ＴＲＡＤＥ,,株式会社,大阪府,大阪市中央区,島之内１丁目４番３０号２Ｆ,,27,128,5420082,,,,,,,2023-11-21,1,,,,,シーケイトレード,0
409,2120003025360,新規,0,2023-11-21,2023-11-21,合同会社ムーンベース,,合同会社,大阪府,大阪市鶴見区,緑１丁目１２番１７－１２０３号,,27,124,5380054,,,,,,,2023-11-21,1,,,,,ムーンベース,0
415,2120101068567,新規,0,2023-11-21,2023-11-21,株式会社真友,,株式会社,大阪府,堺市北区,北花田町１丁５２番地１東秀ビル２０６,,27,146,5918002,,,,,,,2023-11-21,1,,,,,シンユウ,0
421,2120903004926,新規,0,2023-11-21,2023-11-21,豊中金属合同会社,,合同会社,大阪府,豊中市,走井３丁目１－８号,,27,203,5610891,,,,,,,2023-11-21,1,,,,,トヨナカキンゾク,0
422,2120903004934,新規,0,2023-11-21,2023-11-21,ＡｉｒＷｉｎｇｓ合同会社,,合同会社,大阪府,吹田市,上山手町２３番３３－Ｂ２号,,27,205,5650841,,,,,,,2023-11-21,1,,,,,エアーウィングス,0
436,2130003009148,新規,0,2023-11-21,2023-11-21,竹馬屋合同会社,,合同会社,京都府,京都市下京区,五条通油小路西入ル北側小泉町１１３番地１パティオ林６０６,,26,106,6000000,,,,,,,2023-11-21,1,,,,,タケウマヤ,0
438,2140003019807,新規,0,2023-11-21,2023-11-21,サクラ合同会社,,合同会社,兵庫県,西宮市,上ケ原十番町二丁目３０番５０３号,,28,204,6620884,,,,,,,2023-11-21,1,,,,,サクラ,0
439,2140003019823,新規,0,2023-11-21,2023-11-21,極星社合同会社,,合同会社,兵庫県,神戸市中央区,東川崎町１丁目８番１号地下１階プロメナ神戸,,28,110,6500044,,,,,,,2023-11-21,1,,,,,キョクセイシャ,0
453,2180003026023,新規,0,2023-11-21,2023-11-21,ＨＡＰＰＹ　ＨＯＭＥ合同会社,,合同会社,愛知県,一宮市,丹陽町九日市場字地子７８６－１ビアン１０３,,23,203,4910824,,,,,,,2023-11-21,1,,,,,ハッピーホーム,0
456,2180301038050,新規,0,2023-11-21,2023-11-21,アソシエイトリング株式会社,,株式会社,愛知県,豊橋市,西幸町字浜池３３３番地の９,,23,201,4418113,,,,,,,2023-11-21,1,,,,,アソシエイトリング,0
457,2190001030901,新規,0,2023-11-21,2023-11-21,有田のかのか株式会社,,株式会社,三重県,四日市市,西富田町６４８番地５,,24,202,5108024,,,,,,,2023-11-21,1,,,,,アリタノカノカ,0
461,2200005013545,新規,0,2023-11-21,2023-11-21,一般社団法人学舎未来館,,その他の設立登記法人,岐阜県,岐阜市,則武東２丁目６番２２号,,21,201,5020929,,,,,,,2023-11-21,1,,,,,マナビヤミライカン,0
462,2220001025699,新規,0,2023-11-21,2023-11-21,株式会社モーターテック,,株式会社,石川県,能美市,北市町ホ３９番地１,,17,211,9231236,,,,,,,2023-11-21,1,,,,,モーターテック,0
463,2220003003629,新規,0,2023-11-21,2023-11-21,合同会社Ｋ＆ＡＩ,,合同会社,石川県,金沢市,みどり２丁目１２番２号,,17,201,9200373,,,,,,,2023-11-21,1,,,,,ケーアンドアイ,0
464,2240001062443,新規,0,2023-11-21,2023-11-21,株式会社ヘルスケアプラス,,株式会社,広島県,広島市中区,榎町２番１５号,,34,101,7300851,,,,,,,2023-11-21,1,,,,,ヘルスケアプラス,0
480,2290801030058,新規,0,2023-11-21,2023-11-21,ＳＫ８マネージメント株式会社,,株式会社,福岡県,遠賀郡芦屋町,白浜町２番２８号,,40,381,8070111,,,,,,,2023-11-21,1,,,,,エスケーエイトマネージメント,0
481,2300005007165,新規,0,2023-11-21,2023-11-21,一般社団法人九州事故災害復旧工事組合,,その他の設立登記法人,佐賀県,武雄市,橘町片白８７４０番地４,,41,206,8430000,,,,,,,2023-11-21,1,,,,,キュウシュウジコサイガイフッキュウコウジクミアイ,0
482,2320003004237,新規,0,2023-11-21,2023-11-21,合同会社フロー,,合同会社,大分県,大分市,大字光吉９１３番地４エスポワール光吉１０２,,44,201,8701132,,,,,,,2023-11-21,1,,,,,フロー,0
484,2330001031488,新規,0,2023-11-21,2023-11-21,祐生商事株式会社,,株式会社,熊本県,天草市,深海町７番地３４,,43,215,8631511,,,,,,,2023-11-21,1,,,,,ユウセイショウジ,0
485,2330001031496,新規,0,2023-11-21,2023-11-21,株式会社Ｒａｉｓｅ　Ｏｎｅ,,株式会社,熊本県,熊本市中央区,安政町５番２１号ライブリーワン２Ｆ,,43,101,8600801,,,,,,,2023-11-21,1,,,,,レイズワン,0
489,2340001026090,新規,0,2023-11-21,2023-11-21,ＡＣＴ　ｌｉｖｉｎｇ株式会社,,株式会社,鹿児島県,鹿児島市,石谷町１８７５番地７,,46,201,8992701,,,,,,,2023-11-21,1,,,,,アクトリビング,0
494,2360003013498,新規,0,2023-11-21,2023-11-21,琉宮サポート合同会社,,合同会社,沖縄県,うるま市,与那城照間１０３１番地,,47,213,9042301,,,,,,,2023-11-21,1,,,,,リュウグウサポート,0
503,2390001017424,新規,0,2023-11-21,2023-11-21,株式会社にじまるファーマシー,,株式会社,山形県,天童市,芳賀タウン南６丁目１番４７号,,06,210,9940083,,,,,,,2023-11-21,1,,,,,ニジマルファーマシー,0
504,2400001016465,新規,0,2023-11-21,2023-11-21,株式会社オット,,株式会社,岩手県,奥州市,前沢字駒水１７番地８４,,03,215,0294206,,,,,,,2023-11-21,1,,,,,オット,0
511,2430001090474,新規,0,2023-11-21,2023-11-21,株式会社スノーライツ,,株式会社,北海道,札幌市南区,簾舞四条６丁目１０番８号,00132731,01,106,0612264,,,,,,,2023-11-21,1,,,,,スノーライツ,0
512,2430001090490,新規,0,2023-11-21,2023-11-21,ブルーグロウ株式会社,,株式会社,北海道,苫小牧市,弥生町２丁目２０－１６ＡｓｈＩＩ２０２,00132739,01,213,0530802,,,,,,,2023-11-21,1,,,,,ブルーグロウ,0
515,2430003015660,新規,0,2023-11-21,2023-11-21,合同会社サンライト,,合同会社,北海道,札幌市北区,北二十一条西５丁目１番８－１０３号,,01,102,0010021,,,,,,,2023-11-21,1,,,,,サンライト,0
516,2430003015669,新規,0,2023-11-21,2023-11-21,合同会社ＣＹＤ,,合同会社,北海道,札幌市清田区,清田二条１丁目１６－２０,,01,110,0040842,,,,,,,2023-11-21,1,,,,,シード,0
518,2460103001574,新規,0,2023-11-21,2023-11-21,合同会社ポニーファーム・ぬかない,,合同会社,北海道,中川郡幕別町,字糠内３４７番地,,01,643,0890786,,,,,,,2023-11-21,1,,,,,ポニーファームヌカナイ,0
523,2500001025308,新規,0,2023-11-21,2023-11-21,グロースコンサルティング株式会社,,株式会社,愛媛県,松山市,大手町１丁目１１番１号愛媛新聞・愛媛電算ビル２Ｆ,,38,201,7900067,,,,,,,2023-11-21,1,,,,,グロースコンサルティング,0
524,2700150116366,新規,0,2023-11-21,2023-11-21,Ｊｉｕｊｉａｎｇｓｈｉ　Ｌｅｋｅｋｅ　Ｋｅｊｉ　Ｙｏｕｘｉａｎ　Ｇｏｎｇｓｉ,,外国会社等,,,,,,,,Ｒｕｉｃｈａｎｇｓｈｉ　Ｒａｎｇｘｉｄｏｎｇｌｕ　Ｊｉｎｃｈａｎｇｇｅ　Ｓａｎｐａｉ　３ｈａｏ，Ｊｉｕｊｉａｎｇ，Ｊｉａｎｇｘｉ，３３２２００，ＣＮ,,,,,,2023-11-21,1,,,,,ジュウジャンシーレケケケジヨウシアンゴンシ,0
525,2700150116507,新規,0,2023-11-21,2023-11-21,ＳｈｅｎＺｈｅｎ　Ｃｉｔｙ　ＳａｉＨｕｉ　Ｅｌｅｃｔｒｏｎｉｃｓ　Ｃｏ．，ＬＴＤ,,外国会社等,,,,,,,,ＲＭ　Ｂ９０４，Ｘｉｎｇｈｅ　Ｗｏｒｌｄ，Ｎｏ．１　Ｙａｂａｏ　Ｒｏａｄ　Ｎａｎｋｅｎｇ　Ｃｏｍｍｕｎｉｔｙ，Ｂａｎｔｉａｎ　Ｓｔｒｅｅｔ，Ｌｏｎｇｇａｎｇ　Ｓｈｅｎｚｈｅｎ　Ｇｕａｎｇｄｏｎｇ　５１８１２９　ＣＮ,,,,,,2023-11-21,1,,,,,シェンチェンシティーサイフイエレクトロニクスカンパニー,0
526,2700150116606,新規,0,2023-11-21,2023-11-21,Ｓｈａｎｇｈａｉ　Ｓｕｏｎｉ　Ｓｈａｎｇｍａｏ　Ｙｏｕｘｉａｎ　Ｇｏｎｇｓｉ,,外国会社等,,,,,,,,Ｂａｏｓｈａｎ　Ｑｕ，Ｇａｏｙｉ　Ｌｕ，１１２－１１８　Ｈａｏ　３　Ｚｈｕａｎｇ　２８４２　Ｓｈｉ　Ｓｈａｎｇｈａｉ　Ｓｈａｎｇｈａｉ,,,,,,2023-11-21,1,,,,,シャンハイスオニシャンマオヨウシアンゴンシ,0
527,2700150116614,新規,0,2023-11-21,2023-11-21,ＴＩＡＮ　ＪＩＮ　ＨＯＮＧ　ＸＩＮ　ＭＩＮＧ　ＺＨＵ　ＫＥ　ＪＩ　ＹＯＵ　ＸＩＡＮ　ＧＯＮＧ　ＳＩ,,外国会社等,,,,,,,,ＷＵ　ＱＩＮＧ　ＱＵ　ＪＩＮＧ　ＪＩＮ　ＤＩＡＮ　ＺＩ　ＳＨＡＮＧ　ＷＵ　ＣＨＡＮ　ＹＥ　ＹＵＡＮ　ＨＯＮＧ　ＷＡＮＧ　ＤＡＯ　２　ＨＡＯ　１４　ＨＡＯ　ＬＯＵ　１５９　ＳＨＩ　０１　ＨＡＯ　ＴＩＡＮ　ＪＩＮ　ＳＨＩ　ＴＩＡＮ　ＪＩＮ　ＳＨＩ　３０１７００　ＣＮ,,,,,,2023-11-21,1,,,,,ティアンジンホンシンミンチューケージーヨウシェンゴンシー,0
528,2700150117694,新規,0,2023-11-21,2023-11-21,Ｓｈｅｎｚｈｅｎｓｈｉ　Ｑｉｎｇｑｉａｎ　Ｚｈｉｎｅｎｇ　Ｋｅｊｉ　Ｙｏｕｘｉａｎｇｏｎｇｓｉ,,外国会社等,,,,,,,,ｌｏｎｇｃｈｅｎｇｊｉｅｄａｏ　ｘｉｎｌｉａｎｓｈｅｑｕ　ｊｕｎｔｉａｎｌｕ６ｈａｏ７０２　ｓｈｅｎｚｈｅｎｓｈｉ　ｌｏｎｇｇａｎｇｑｕ　ｇｕａｎｇｄｏｎｇｓｈｅｎｇ　５１８１７２　ＣＮ,,,,,,2023-11-21,1,,,,,シェンチェンシーチンチアンケジヨウシャンコウシ,0
529,2700150121787,新規,0,2023-11-21,2023-11-02,日本新聞労働組合連合　中国地方連合会,,その他,広島県,広島市中区,土橋町７－１,,34,101,7300854,,,,,,,2023-11-02,1,,,,,ニホンシンブンロウドウクミアイレンゴウチユウゴクチホウレンゴウカイ,0
530,2700150122190,新規,0,2023-11-21,2023-11-21,Ｊｉｕｊｉａｎｇｘｕａｎｙｏｕｍｉｍａｏｙｉｙｏｕｘｉａｎｇｏｎｇｓｉ,,外国会社等,,,,,,,,ｊｉａｎｇｘｉｓｈｅｎｇｊｉｕｊｉａｎｇｓｈｉｌｉａｎｘｉｑｕｘｉｙａｎｇｌｏｎｇａｎｚｈｉｘｉａｏｑｕ４ｄｏｎｇ－１６ｈａｏｍｅｎｍｉａｎ,,,,,,2023-11-21,1,,,,,ジウジアーンシュエンヨウミーマオイーヨウシエンゴーンスー,0
531,2700150122199,新規,0,2023-11-21,2023-11-21,ｆｕｑｉｎｇｓｈｉｍｉｎｇｃｈａｎｇｄｉａｎｚｉｓｈａｎｇｗｕｙｏｕｘｉａｎｇｏｎｇｓｉ,,外国会社等,,,,,,,,ｙｕｐｉｎｇｊｉｅｄａｏ　ｒｏｎｂｅｉｃｕｎ　ｙｉｎｘｉｚｈｅｎ　ｓｈｉｊｉｎｇ　ｍｅｉｇｕｉｙｕａｎ　８ｈａｏｌｏｕ　７０３ｄａｎｙｕａｎ　ｆｕｚｈｏｕｓｈｉ　ｆｕｑｉｎｇｓｈｉ　ｆｕｊｉａｎｓｈｅｎｇ　３５０３００　ＣＮ,,,,,,2023-11-21,1,,,,,フゥチンシミンチャンディエンズーシャンウヨウシェンゴンスー,0
532,2700150122208,新規,0,2023-11-21,2023-11-21,Ｈｏｓｈｉｔｒｙ　Ｉｍｐａｃｔ　ＬＬＰ,,外国会社等,大阪府,大阪市中央区,南本町２丁目１－１本町サザンビルＴＤフロア１Ｆ,,27,128,5410054,インド国カルナタカ州バンガロール市マレーシュワラム、第１４クロスロード、第８メインロード、ギャラクシー・セレニティ・アパートメント４階４０３号,,,,,,2023-11-21,1,,,,,ホシトリィインパクトエルエルピー,0
533,2700150122216,新規,0,2023-11-21,2023-11-21,ｇｕａｎｇｚｈｏｕ　ｂｉｌｉ　ｗａｎｇｌｕｏ　ｋｅｊｉｙｏｕｘｉａｎｇｏｎｇｓｉ,,外国会社等,,,,,,,,ｌｕｏｇａｎｇｑｉｘｉｎｇｇａｎｇｌｕ４０ｈａｏ２Ｄｏｎｇ１ｄａｎｙｕａｎ２０２ｆａｎｇ　ｂａｉｙｕｎｑｕ　Ｇｕａｎｇｚｈｏｕ　Ｇｕａｎｇｄｏｎｇ　５１００００　ＣＮ,,,,,,2023-11-21,1,,,,,グァンジョウビーリーワンルオカージヨウシェンゴンスー,0
543,3010001240203,新規,0,2023-11-21,2023-11-21,Ｋｏｌｌｅｇａ株式会社,,株式会社,東京都,中央区,日本橋２丁目１番３号アーバンネット日本橋二丁目ビル１０階,,13,102,1030027,,,,,,,2023-11-21,1,,,,,コリーガ,0
544,3010001240244,新規,0,2023-11-21,2023-11-21,株式会社Ｍａｈａｌｏ　Ｍａｒ,,株式会社,東京都,千代田区,神田猿楽町２丁目３－４－５０１,,13,101,1010064,,,,,,,2023-11-21,1,,,,,マハロマール,0
549,3010005037554,新規,0,2023-11-21,2023-11-21,神谷町２一般社団法人,,その他の設立登記法人,東京都,千代田区,神田小川町３丁目２６番８号神田小川町三丁目ビル６階,,13,101,1010052,,,,,,,2023-11-21,1,,,,,カミヤチョウツー,0
565,3010801034531,新規,0,2023-11-21,2023-11-21,株式会社アベリア,,株式会社,東京都,大田区,南六郷２丁目３５－３－８１８,,13,111,1440045,,,,,,,2023-11-21,1,,,,,アベリア,0
573,3011001158303,新規,0,2023-11-21,2023-11-21,株式会社バズフレーム,,株式会社,東京都,渋谷区,道玄坂１丁目１０番８号渋谷道玄坂東急ビル２Ｆ－Ｃ,,13,113,1500043,,,,,,,2023-11-21,1,,,,,バズフレーム,0
574,3011001158311,新規,0,2023-11-21,2023-11-21,株式会社赤虎総合研究所,,株式会社,東京都,渋谷区,神宮前４丁目１番２２号グランメール表参道２０２,,13,113,1500001,,,,,,,2023-11-21,1,,,,,アカトラソウゴウケンキュウジョ,0
575,3011001158377,新規,0,2023-11-21,2023-11-21,株式会社普通,,株式会社,東京都,目黒区,駒場２丁目９番９号,,13,110,1530041,,,,,,,2023-11-21,1,,,,,フツウ,0
581,3011003017969,新規,0,2023-11-21,2023-11-21,合同会社神山９１４,,合同会社,東京都,渋谷区,神山町１４番７号,,13,113,1500047,,,,,,,2023-11-21,1,,,,,カミヤマキュウイチヨン,0
585,3011101105213,新規,0,2023-11-21,2023-11-21,大道不動産株式会社,,株式会社,東京都,新宿区,大久保１丁目１２番３号,,13,104,1690072,,,,,,,2023-11-21,1,,,,,ダイドウフドウサン,0
587,3011103013760,新規,0,2023-11-21,2023-11-21,アントラージュ合同会社,,合同会社,東京都,新宿区,西新宿３丁目３番１３号西新宿水間ビル６階,,13,104,1600023,,,,,,,2023-11-21,1,,,,,アントラージュ,0
588,3011103013777,新規,0,2023-11-21,2023-11-21,合同会社ＮＣ,,合同会社,東京都,新宿区,市谷台町６－２,,13,104,1620066,,,,,,,2023-11-21,1,,,,,エヌシー,0
589,3011201025063,新規,0,2023-11-21,2023-11-21,株式会社アルテチカ,,株式会社,東京都,中野区,東中野１丁目４６－２０植野荘１階,,13,114,1640003,,,,,,,2023-11-21,1,,,,,アルテチカ,0
593,3011401025615,新規,0,2023-11-21,2023-11-21,株式会社こいち,,株式会社,東京都,板橋区,赤塚６丁目２７－６,,13,119,1750092,,,,,,,2023-11-21,1,,,,,コイチ,0
594,3011403004179,新規,0,2023-11-21,2023-11-21,善福縁合同会社,,合同会社,東京都,板橋区,徳丸１丁目３３番１１号,,13,119,1750083,,,,,,,2023-11-21,1,,,,,ゼンフクエン,0
603,3011801043381,新規,0,2023-11-21,2023-11-21,株式会社Ｓ‐Ｉｍｐｅｒｉａｌ,,株式会社,東京都,足立区,綾瀬４丁目１９番２７号,,13,121,1200005,,,,,,,2023-11-21,1,,,,,エスインペリアル,0
607,3012401041239,新規,0,2023-11-21,2023-11-21,株式会社ＫＴＢ,,株式会社,東京都,武蔵野市,吉祥寺本町２丁目４番１７号銀星堂ビル２階,,13,203,1800004,,,,,,,2023-11-21,1,,,,,ケーティービー,0
608,3012801022771,新規,0,2023-11-21,2023-11-21,株式会社Ｈ‐ｓｏｌｅ．,,株式会社,東京都,立川市,幸町２丁目２２番地の４３,,13,202,1900002,,,,,,,2023-11-21,1,,,,,エイチソール,0
621,3020001154550,新規,0,2023-11-21,2023-11-21,株式会社ＳＣＨ,,株式会社,神奈川県,横浜市緑区,台村町５１７番地１,,14,113,2260014,,,,,,,2023-11-21,1,,,,,エスシーエイチ,0
634,3030001157197,新規,0,2023-11-21,2023-11-21,株式会社Ｂｏｏｓｔ　Ｐｌａｎｎｉｎｇ,,株式会社,埼玉県,さいたま市大宮区,桜木町２丁目３番地大宮マルイ７階,,11,103,3300854,,,,,,,2023-11-21,1,,,,,ブーストプランニング,0
635,3030001157247,新規,0,2023-11-21,2023-11-21,株式会社ユメヤ,,株式会社,埼玉県,川口市,並木３丁目９番１０号,,11,203,3320034,,,,,,,2023-11-21,1,,,,,ユメヤ,0
636,3030001157255,新規,0,2023-11-21,2023-11-21,株式会社いえまる,,株式会社,埼玉県,草加市,弁天２丁目２４番１６－５０７号,,11,221,3400004,,,,,,,2023-11-21,1,,,,,イエマル,0
637,3030001157271,新規,0,2023-11-21,2023-11-21,株式会社ＭＫマージ,,株式会社,埼玉県,川越市,的場北２丁目２２番地２１,,11,201,3501102,,,,,,,2023-11-21,1,,,,,エムケイマージ,0
639,3030003023050,新規,0,2023-11-21,2023-11-21,合同会社スカルキャット,,合同会社,埼玉県,川口市,柳崎１丁目２４番２６号,,11,203,3330861,,,,,,,2023-11-21,1,,,,,スカルキャット,0
641,3040001130995,新規,0,2023-11-21,2023-11-21,株式会社ＫＡＮＳＵＩ,,株式会社,千葉県,船橋市,本町７丁目２５番１５号シンエイ第７船橋マンション２０２,,12,204,2730005,,,,,,,2023-11-21,1,,,,,カンスイ,0
656,3080401026856,新規,0,2023-11-21,2023-11-21,株式会社Ｍｉｌｋｙ　Ｈｏｕｓｅ,,株式会社,静岡県,浜松市西区,入野町１９９５４番地の７０７,,22,133,4328061,,,,,,,2023-11-21,1,,,,,ミルキーハウス,0
658,3090001018427,新規,0,2023-11-21,2023-11-21,ゑむう株式会社,,株式会社,山梨県,笛吹市,石和町八田４１番地１,,19,211,4060023,,,,,,,2023-11-21,1,,,,,エムウ,0
660,3100003007269,新規,0,2023-11-21,2023-11-21,合同会社Ｍａｉｓｏｎ　ｅｉｇｈｔ,,合同会社,長野県,長野市,大字川合新田５３４番地１,,20,201,3800913,,,,,,,2023-11-21,1,,,,,メゾンエイト,0
673,3120001259645,新規,0,2023-11-21,2023-11-21,ＯＴＯＫＵ株式会社,,株式会社,大阪府,大阪市中央区,南船場２丁目１１番４号エースビル３０４,,27,128,5420081,,,,,,,2023-11-21,1,,,,,オトク,0
674,3120001259959,新規,0,2023-11-21,2023-11-21,株式会社脂コーチ,,株式会社,大阪府,大阪市東成区,深江北３丁目４番２１号エクラ深江橋２０１Ａ,,27,115,5370001,,,,,,,2023-11-21,1,,,,,シコーチ,0
675,3120001260025,新規,0,2023-11-21,2023-11-21,株式会社Ｊ‐ＣＲＡＳ管理,,株式会社,大阪府,大阪市天王寺区,烏ケ辻１丁目１番２号ノアーズアーク桃谷２１－３階,00132736,27,109,5430042,,,,,,,2023-11-21,1,,,,,ジェイクラスカンリ,0
685,3120103005542,新規,0,2023-11-21,2023-11-21,合同会社サンヨ,,合同会社,大阪府,泉佐野市,長滝２１２２番地３,,27,213,5980034,,,,,,,2023-11-21,1,,,,,サンヨ,0
698,3170005007054,新規,0,2023-11-21,2023-11-21,一般社団法人しあわせこうぼう会,,その他の設立登記法人,和歌山県,和歌山市,松江北６丁目４番９号,,30,201,6408425,,,,,,,2023-11-21,1,,,,,シアワセコウボウカイ,0
706,3180001158998,新規,0,2023-11-21,2023-11-21,株式会社ＥＮＡＲＩＳＥ,,株式会社,愛知県,小牧市,大字林１５９３番地１,,23,219,4850805,,,,,,,2023-11-21,1,,,,,エナライズ,0
712,3190001030900,新規,0,2023-11-21,2023-11-21,株式会社真見屋,,株式会社,三重県,津市,南が丘２丁目１８番地２,,24,201,5140822,,,,,,,2023-11-21,1,,,,,マミヤ,0
715,3200005013536,新規,0,2023-11-21,2023-11-21,一般社団法人岐阜シェアキッチン協会,,その他の設立登記法人,岐阜県,岐阜市,大菅北２－２７,,21,201,5010118,,,,,,,2023-11-21,1,,,,,ギフシェアキッチンキョウカイ,0
718,3220001025698,新規,0,2023-11-21,2023-11-21,株式会社金沢ファーム,,株式会社,石川県,野々市市,扇が丘３０番２７号,,17,212,9218812,,,,,,,2023-11-21,1,,,,,カナザワファーム,0
720,3230001020104,新規,0,2023-11-21,2023-11-21,株式会社富大技研,,株式会社,富山県,富山市,上大久保４０１番地１,,16,201,9392252,,,,,,,2023-11-21,1,,,,,トミダイギケン,0
722,3240001062442,新規,0,2023-11-21,2023-11-21,株式会社Ｓｋｙ　Ａｍｂｉｔｉｏｎ,,株式会社,広島県,福山市,東陽台１丁目８番１４号,,34,207,7210912,,,,,,,2023-11-21,1,,,,,スカイアンビション,0
724,3250003003385,新規,0,2023-11-21,2023-11-21,合同会社岡本商事,,合同会社,山口県,下関市,安岡町４丁目１７番５号,,35,201,7596603,,,,,,,2023-11-21,1,,,,,オカモトショウジ,0
740,3310001018718,新規,0,2023-11-21,2023-11-21,ＷＨＩＴＥ株式会社,,株式会社,長崎県,長崎市,桶屋町４７番地,,42,201,8500027,,,,,,,2023-11-21,1,,,,,,0
742,3310003004682,新規,0,2023-11-21,2023-11-21,合同会社一幸建設,,合同会社,長崎県,長崎市,佐世保市若葉町６－１５,,42,201,8500000,,,,,,,2023-11-21,1,,,,,イチコウケンセツ,0
745,3330001031487,新規,0,2023-11-21,2023-11-21,ＮＥＸＴ　ＣＯＮＳＵＬＴＩＮＧ株式会社,,株式会社,熊本県,熊本市中央区,南熊本１丁目３番８号ヴィクトワール塚本１Ｆ,,43,101,8600812,,,,,,,2023-11-21,1,,,,,ネクストコンサルティング,0
746,3340001026081,新規,0,2023-11-21,2023-11-21,エニマス販売九州株式会社,,株式会社,鹿児島県,出水郡長島町,山門野１０１４番地,,46,404,8991211,,,,,,,2023-11-21,1,,,,,エニマスハンバイキュウシュウ,0
748,3350003004489,新規,0,2023-11-21,2023-11-21,ＮＩＵＮＩＵ合同会社,,合同会社,宮崎県,都城市,牟田町２－５,,45,202,8850079,,,,,,,2023-11-21,1,,,,,ニウニウ,0
752,3360001032838,新規,0,2023-11-21,2023-11-21,株式会社あさひ,,株式会社,沖縄県,那覇市,松山１丁目１３－５ナムラプラスビル１Ｆ,,47,201,9000032,,,,,,,2023-11-21,1,,,,,アサヒ,0
753,3360003013497,新規,0,2023-11-21,2023-11-21,ＥＬ　ＤＥＩＧＯＳ合同会社,,合同会社,沖縄県,糸満市,字真壁３０７番地の４,,47,210,9010336,,,,,,,2023-11-21,1,,,,,エルデイゴス,0
754,3370001050649,新規,0,2023-11-21,2023-11-21,ＨＲ．Ｋ株式会社,,株式会社,宮城県,仙台市泉区,桂３丁目２番地の３,,04,105,9813134,,,,,,,2023-11-21,1,,,,,エイチアールケー,0
758,3390001017423,新規,0,2023-11-21,2023-11-21,株式会社ヴラーヴ,,株式会社,山形県,山形市,南館５丁目７番１５－４号,,06,201,9902461,,,,,,,2023-11-21,1,,,,,ヴラーヴ,0
765,3430001090465,新規,0,2023-11-21,2023-11-21,株式会社イースト・オーシャン,,株式会社,北海道,札幌市中央区,北三条東６丁目３５７番地１－３０８号,,01,101,0600033,,,,,,,2023-11-21,1,,,,,イーストオーシャン,0
769,3430003015668,新規,0,2023-11-21,2023-11-21,合同会社アイエスティーモバイル,,合同会社,北海道,札幌市北区,北七条西４丁目１番１号トーカン札幌第一キャステール６０７,,01,102,0600807,,,,,,,2023-11-21,1,,,,,アイエスティーモバイル,0
776,3470001019907,新規,0,2023-11-21,2023-11-21,株式会社Ｋｉｎｄ,,株式会社,香川県,高松市,上林町７１６番地１,,37,201,7610302,,,,,,,2023-11-21,1,,,,,カインド,0
780,3490003001836,新規,0,2023-11-21,2023-11-21,合同会社Ｓｋｙ　Ｆｌｏｗｅｒ,,合同会社,高知県,高知市,鴨部１丁目１２番１４号,,39,201,7808052,,,,,,,2023-11-21,1,,,,,スカイフラワー,0
781,3500001025315,新規,0,2023-11-21,2023-11-21,株式会社ナレッジ,,株式会社,愛媛県,松山市,久米窪田町８６３番地１,,38,201,7911101,,,,,,,2023-11-21,1,,,,,ナレッジ,0
782,3700150031886,新規,0,2023-11-21,2015-10-09,札幌国際芸術祭実行委員会,,その他,北海道,札幌市中央区,北一条西２丁目１番地札幌時計台ビル１０階札幌市市民文化局国際芸術祭担当部内,,01,101,0600001,,,,,,,2015-10-09,1,,,,,サツポロコクサイゲイジユツサイジツコウイインカイ,0
783,3700150116506,新規,0,2023-11-21,2023-11-21,Ｖｏｌｆ（ＳＨＥＮＺＨＥＮ）Ｓｐｏｒｔｓ　Ｐｒｏｄｕｃｔｓ　Ｃｏ．，Ｌｔｄ．,,外国会社等,,,,,,,,ｌｏｎｇ　ｈｕａ　ｑｕ　ｍｉｎ　ｚｈｉ　ｊｉｅ　ｄａｏ　ｄａ　ｌｉｎｇ　ｓｈｅ　ｑｕ　ｚｈｏｎｇ　ｙａｎｇ　ｙｕａｎ　ｚｈｕ　ｈｕａ　ｙｕａｎ　ｃａｎｇ　ｌｏｎｇ　ｙｕａｎ　４ｄｏｎｇ　０３Ｅ＆０３Ｆ　ＳＨＥＮ　ＺＨＥＮ　５１８０００　ＣＮ,,,,,,2023-11-21,1,,,,,ヴォルフシェンザンスポーツプロダクツ,0
784,3700150117702,新規,0,2023-11-21,2023-11-21,ｄｏｎｇｇｕａｎｓｈｉｓｕｐｅｉｍａｏｙｉｙｏｕｘｉａｎｇｏｎｇｓｉ,,外国会社等,,,,,,,,ｇｕａｎｃｈｅｎｇｊｉｅｄａｏｌｕｏｓｈａｓｈｅｑｕｇｕａｎｌｏｎｇｌｕ　ｚｈｉｈｕｉｘｉａｏｚｈｅｎｃｈｕａｎｇｙｉｃｈａｎｙｅｙｕａｎｅｒｑｉＤｄｏｎｇ２０６ｓｈｉ　ｄｏｎｇｇｕａｎｓｈｉ　ｇｕａｎｇｄｏｎｇｓｈｅｎｇ　５２３０００　ＣＮ,,,,,,2023-11-21,1,,,,,ドングワンシスペイマオヨイユウシャンゴンシ,0
785,3700150120730,新規,0,2023-11-21,2023-11-21,ｃｈａｎｇｓｈａｂｅｉｒｕｉｋｅｊｉｙｏｕｘｉａｎｇｏｎｇｓｉ,,外国会社等,,,,,,,,Ｈｕｎａｎｓｈｅｎｇ，ｃｈａｎｇｓｈａｓｈｉｙｕｅｌｕｑｕｘｉａｎｊｉａｈｕｊｉｅｄａｏ，ｙｕｅｌｕｄａｄａｏ３６９ｈａｏｙｕｅｌｕｙｉｈａｏｊｉａｙｕａｎ１ｄｏｎｇ２０４ｈａｏｆａｎｇ－２３７,,,,,,2023-11-21,1,,,,,チャンシャベイルイケジョウシャコウシ,0
786,3700150122198,新規,0,2023-11-21,2023-11-21,Ｓｈｅｎｚｈｅｎ　Ｘｉｎｇｘｉａ　Ｔｅｃｈｎｏｌｏｇｙ　ＣＯ．，ＬＴＤ,,外国会社等,,,,,,,,２０３，Ｎｏ．１４，Ｆｕｈａｉ　Ｉｎｄｕｓｔｒｉａｌ　Ｚｏｎｅ　ＩＩ　Ｆｕｙｏｎｇ　Ｃｏｍｍｕｎｉｔｙ，Ｆｕｙｏｎｇ　Ｓｈｅｎｚｈｅｎｓｈｉ　Ｇｕａｎｇｄｏｎｇｓｈｅｎｇ　５１８１２８　ＣＮ,00132574,,,,,2023-11-21,1,,,,,シェンジェンシシンシァカージヨウシェンゴンスー,0
787,3700150122207,新規,0,2023-11-21,2023-11-21,Ａｕｒｏｒａ　Ｋｒｅａｔｉｖｅ　Ｅ－Ｃｏｍｍｅｒｃｅ　Ｌｔｄ．,,外国会社等,,,,,,,,６６８８　ＡＬＴＲＩＮＧＨＡＭ　ＣＲＴ．ＢＵＲＮＡＢＹ　ＢＣ　Ｖ５Ｅ　４Ｊ２　ＣＡＮＡＤＡ,,,,,,2023-11-21,1,,,,,オーロラクリエイティブイーコマースリミテッド,0
788,3700150122215,新規,0,2023-11-21,2023-11-21,ａｎｈｕｉｓｈｅｎｇｐｅｎｇｐａｉｄｉａｎｚｉｓｈａｎｇｗｕｙｏｕｘｉａｎｇｏｎｇｓｉ,,外国会社等,,,,,,,,ｒｅｎｈｅｊｉｚｈｅｎ（ｇｕ）ｒｅｎｈｅｘｉｌｕ　ｔｉａｎｃｈａｎｇｓｈｉ　ａｎｈｕｉ　２３９３００　ＣＮ,,,,,,2023-11-21,1,,,,,アンホイションポンパイディエンズーシャンウヨウシェンゴンスー,0
800,4010001240235,新規,0,2023-11-21,2023-11-21,株式会社ユナイトピーシズ,,株式会社,東京都,千代田区,九段南１丁目５－６りそな九段ビル５ＦＫＳフロア,,13,101,1020074,,,,,,,2023-11-21,1,,,,,ユナイトピーシズ,0
812,4010401178612,新規,0,2023-11-21,2023-11-21,株式会社３Ｓ　Ｅｎｅｒｇｙ　Ｓｏｌｕｔｉｏｎｓ　Ｊａｐａｎ,,株式会社,東京都,港区,赤坂２丁目５番８号,,13,103,1070052,,,,,,,2023-11-21,1,,,,,スリーエスエネルギーソリューションズジャパン,0
813,4010403031406,新規,0,2023-11-21,2023-11-21,合同会社ブライツ,,合同会社,東京都,港区,高輪２丁目２－１９,,13,103,1080074,,,,,,,2023-11-21,1,,,,,ブライツ,0
820,4010801034530,新規,0,2023-11-21,2023-11-21,株式会社あんどう工務店,,株式会社,東京都,大田区,西蒲田１丁目５番１０号,,13,111,1440051,,,,,,,2023-11-21,1,,,,,アンドウコウムテン,0
829,4011001158310,新規,0,2023-11-21,2023-11-21,株式会社ウィズステ,,株式会社,東京都,渋谷区,道玄坂２丁目９番９号梅原ビル９Ｆ,,13,113,1500043,,,,,,,2023-11-21,1,,,,,ウィズステ,0
830,4011001158319,新規,0,2023-11-21,2023-11-21,株式会社ｍｕｎｉｎ,,株式会社,東京都,渋谷区,渋谷２丁目１９－１５宮益坂ビルディング６０９,,13,113,1500002,,,,,,,2023-11-21,1,,,,,ムニン,0
831,4011001158376,新規,0,2023-11-21,2023-11-21,株式会社永動,,株式会社,東京都,渋谷区,初台２丁目１９番４号,,13,113,1510061,,,,,,,2023-11-21,1,,,,,エイドウ,0
832,4011001158392,新規,0,2023-11-21,2023-11-21,ＦａｓｔＭａｎａｇｅ株式会社,,株式会社,東京都,渋谷区,道玄坂１丁目１０番８号渋谷道玄坂東急ビル２Ｆ－Ｃ,,13,113,1500043,,,,,,,2023-11-21,1,,,,,ファストマネージ,0
841,4011103013768,新規,0,2023-11-21,2023-11-21,合同会社ＮＳＩＰ２０２３,,合同会社,東京都,新宿区,西新宿８丁目５番１号,,13,104,1600023,,,,,,,2023-11-21,1,,,,,エヌシップニーゼロニーサン,0
842,4011105010862,新規,0,2023-11-21,2023-11-21,一般社団法人日中親善ビューティー協会,,その他の設立登記法人,東京都,新宿区,四谷４丁目１３番３１号,,13,104,1600004,,,,,,,2023-11-21,1,,,,,ニッチュウシンゼンビューティーキョウカイ,0
846,4011501030010,新規,0,2023-11-21,2023-11-21,日中医療貿易株式会社,,株式会社,東京都,北区,滝野川３丁目９番２号西巣鴨ＫＴＢビル２０５号室,,13,117,1140023,,,,,,,2023-11-21,1,,,,,ニッチュウイリョウボウエキ,0
847,4011801043380,新規,0,2023-11-21,2023-11-21,ＵＮＩＫ株式会社,,株式会社,東京都,葛飾区,新小岩３丁目２９番７ＫＡＫＵＲＥＯＦＦＩＣＥ新小岩１０６,,13,122,1240024,,,,,,,2023-11-21,1,,,,,ユニック,0
848,4011803005949,新規,0,2023-11-21,2023-11-21,合同会社成光,,合同会社,東京都,足立区,西新井本町１丁目２７番１２号１階,,13,121,1230845,,,,,,,2023-11-21,1,,,,,セイコウ,0
867,4020001154558,新規,0,2023-11-21,2023-11-21,アオマツブラザーズリアルティ株式会社,,株式会社,神奈川県,川崎市川崎区,東田町８番地パレール三井ビルディング１６階,,14,131,2100005,,,,,,,2023-11-21,1,,,,,アオマツブラザーズリアルティ,0
871,4020003024908,新規,0,2023-11-21,2023-11-21,合同会社ブラット,,合同会社,神奈川県,横浜市青葉区,あざみ野４丁目１１－２７プラシード２－１０２,,14,117,2250011,,,,,,,2023-11-21,1,,,,,ブラット,0
872,4020003025022,新規,0,2023-11-21,2023-11-21,合同会社スキャロップテック,,合同会社,神奈川県,横浜市保土ケ谷区,月見台４９番１２号,,14,106,2400012,,,,,,,2023-11-21,1,,,,,スキャロップテック,0
873,4020005016192,新規,0,2023-11-21,2023-11-21,一般社団法人ｏｎｅ　ｉｎｃｈ　ｏｆｆ,,その他の設立登記法人,神奈川県,横浜市緑区,北八朔町１５９７番地４,,14,113,2260021,,,,,,,2023-11-21,1,,,,,ワンインチオフ,0
888,4030001157122,新規,0,2023-11-21,2023-11-21,織田土建株式会社,,株式会社,埼玉県,川口市,末広３丁目６番１２－１０５号エルハイツ,,11,203,3320006,,,,,,,2023-11-21,1,,,,,オダドケン,0
889,4030001157238,新規,0,2023-11-21,2023-11-21,株式会社ＤＩＯＳ,,株式会社,埼玉県,越谷市,南越谷１丁目２０番２号寿ビル５階,,11,222,3430845,,,,,,,2023-11-21,1,,,,,ディオス,0
890,4030001157262,新規,0,2023-11-21,2023-11-21,富士企画株式会社,,株式会社,埼玉県,さいたま市桜区,西堀３丁目５番３－２０１号,,11,106,3380832,,,,,,,2023-11-21,1,,,,,フジキカク,0
891,4030001157287,新規,0,2023-11-21,2023-11-21,株式会社エムアンドエム,,株式会社,埼玉県,川口市,江戸２丁目１３番４号,,11,203,3340074,,,,,,,2023-11-21,1,,,,,エムアンドエム,0
892,4030001157304,新規,0,2023-11-21,2023-11-21,株式会社ルフラン,,株式会社,埼玉県,志木市,柏町１丁目１４番２６－１０３号,,11,228,3530007,,,,,,,2023-11-21,1,,,,,ルフラン,0
901,4040001131019,新規,0,2023-11-21,2023-11-21,株式会社ＲＣレピカ,,株式会社,千葉県,千葉市中央区,矢作町５７１番地,,12,101,2600851,,,,,,,2023-11-21,1,,,,,アールシーレピカ,0
902,4040001131027,新規,0,2023-11-21,2023-11-21,株式会社ＰＡＳＳＰＯＲＴ,,株式会社,千葉県,市川市,菅野１丁目１９番８号,,12,203,2720824,,,,,,,2023-11-21,1,,,,,パスポート,0
908,4040005022206,新規,0,2023-11-21,2023-11-21,一般社団法人ジェイサス,,その他の設立登記法人,千葉県,香取市,佐原ロ２１１６,,12,236,2870001,,,,,,,2023-11-21,1,,,,,ジェイサス,0
917,4080001025984,新規,0,2023-11-21,2023-11-21,株式会社ＳＯＲ,,株式会社,静岡県,静岡市清水区,押切１６５６番地,,22,103,4240008,,,,,,,2023-11-21,1,,,,,ソラ,0
918,4080003003096,新規,0,2023-11-21,2023-11-21,合同会社ヤソシン,,合同会社,静岡県,静岡市清水区,八坂北２丁目２番２８号,,22,103,4240023,,,,,,,2023-11-21,1,,,,,ヤソシン,0
921,4100003007268,新規,0,2023-11-21,2023-11-21,合同会社ちゃす処,,合同会社,長野県,安曇野市,穂高柏原２８１０番地３３,,20,220,3998304,,,,,,,2023-11-21,1,,,,,チャスドコロ,0
922,4110001037984,新規,0,2023-11-21,2023-11-21,株式会社プライドワン,,株式会社,新潟県,新潟市東区,空港西１丁目１８番１２号,,15,102,9500036,,,,,,,2023-11-21,1,,,,,プライドワン,0
935,4120001260008,新規,0,2023-11-21,2023-11-21,Ｇｅｒｂｅｒａ株式会社,,株式会社,大阪府,大阪市北区,梅田１丁目１－３大阪駅前第３ビル２９階１－１－１号室,,27,127,5300001,,,,,,,2023-11-21,1,,,,,ガーベラ,0
936,4120001260024,新規,0,2023-11-21,2023-11-21,嘉源株式会社,,株式会社,大阪府,大阪市生野区,新今里３丁目４番１７号ＯＧビル５０７Ｂ,,27,116,5440001,,,,,,,2023-11-21,1,,,,,ヨシゲン,0
937,4120003025350,新規,0,2023-11-21,2023-11-21,合同会社不動メディカル,,合同会社,大阪府,門真市,末広町４１－２イオンそよら古川橋１Ｆ,,27,223,5710030,,,,,,,2023-11-21,1,,,,,フドウメディカル,0
938,4120003025375,新規,0,2023-11-21,2023-11-21,ＭＷ６合同会社,,合同会社,大阪府,大阪市北区,梅田１丁目２番２号大阪駅前第２ビル１２－１２,,27,127,5300001,,,,,,,2023-11-21,1,,,,,エムダブリューシックス,0
955,4140003019838,新規,0,2023-11-21,2023-11-21,合同会社モリビル,,合同会社,兵庫県,神戸市兵庫区,下祇園町２４番４－４０１号,00132737,28,105,6520015,,,,,,,2023-11-21,1,,,,,モリビル,0
957,4150003003122,新規,0,2023-11-21,2023-11-21,合同会社ＪＵＪＵ,,合同会社,奈良県,奈良市,藤ノ木台３丁目２９番２１号,,29,201,6310044,,,,,,,2023-11-21,1,,,,,ジュジュ,0
959,4160001025514,新規,0,2023-11-21,2023-11-21,株式会社金山ベリーファーム,,株式会社,滋賀県,長浜市,元浜町２６番８号,,25,203,5260059,,,,,,,2023-11-21,1,,,,,カナヤマベリーファーム,0
968,4180003026021,新規,0,2023-11-21,2023-11-21,合同会社ロイヤルキャリッジ,,合同会社,愛知県,名古屋市中川区,小城町２丁目３番地エクセルシア１０５,,23,110,4540875,,,,,,,2023-11-21,1,,,,,ロイヤルキャリッジ,0
972,4180301038049,新規,0,2023-11-21,2023-11-21,株式会社遇見不動産,,株式会社,愛知県,豊橋市,西幸町字浜池３３３番地の９豊橋サイエンスコア,,23,201,4418113,,,,,,,2023-11-21,1,,,,,ユゥジェンフドウサン,0
975,4190003004513,新規,0,2023-11-21,2023-11-21,合同会社フェリシア,,合同会社,三重県,四日市市,天カ須賀５丁目１番３－１号,,24,202,5108001,,,,,,,2023-11-21,1,,,,,フェリシア,0
977,4200001041911,新規,0,2023-11-21,2023-11-21,Ｇｉｆｕ　Ｍｅｉｒｉｎ株式会社,,株式会社,岐阜県,大垣市,東町３丁目２番地１,,21,202,5030802,,,,,,,2023-11-21,1,,,,,ギフメイリン,0
978,4200003006160,新規,0,2023-11-21,2023-11-21,合同会社三谷商店,,合同会社,岐阜県,岐阜市,竜田町４丁目１１番地プレサンスロジェ岐阜ザ・クラス１１０３,,21,201,5008402,,,,,,,2023-11-21,1,,,,,ミタニショウテン,0
995,4290001103769,新規,0,2023-11-21,2023-11-21,株式会社ＧＯＧＯ　ＲＥＮＴＡＬ,,株式会社,福岡県,福岡市博多区,東那珂３丁目３番３７号,,40,132,8120892,,,,,,,2023-11-21,1,,,,,ゴーゴーレンタル,0
996,4290001103785,新規,0,2023-11-21,2023-11-21,株式会社ＩＫＥＤＥＮ,,株式会社,福岡県,久留米市,城島町内野３３０番地５,,40,203,8300204,,,,,,,2023-11-21,1,,,,,,0
999,4290003014601,新規,0,2023-11-21,2023-11-21,合同会社Ｒｅｓｕｉｔｅ,,合同会社,福岡県,福岡市博多区,美野島３丁目１７番５－８０１号Ｔｒａｉｌ博多,,40,132,8120017,,,,,,,2023-11-21,1,,,,,,0
1000,4290003014626,新規,0,2023-11-21,2023-11-21,２２１コンサルティング合同会社,,合同会社,福岡県,福岡市早良区,百道浜４丁目３１－１,,40,137,8140001,,,,,,,2023-11-21,1,,,,,ツツイコンサルティング,0
1010,4330001031486,新規,0,2023-11-21,2023-11-21,フランティ株式会社,,株式会社,熊本県,熊本市東区,尾ノ上１丁目４０番１－１号,,43,102,8620913,,,,,,,2023-11-21,1,,,,,フランティ,0
1011,4330001031503,新規,0,2023-11-21,2023-11-21,ＭＤ熊本株式会社,,株式会社,熊本県,宇土市,松山町２０７４番地３Ｐ’ＣＡＳＴＥＬＬＯ　Ｂ２０２,,43,211,8690416,,,,,,,2023-11-21,1,,,,,エムディークマモト,0
1016,4370001050648,新規,0,2023-11-21,2023-11-21,伊達政工業株式会社,,株式会社,宮城県,仙台市青葉区,水の森３丁目１－３９－２０５,,04,101,9810962,,,,,,,2023-11-21,1,,,,,ダテマサコウギョウ,0
1025,4430001090480,新規,0,2023-11-21,2023-11-21,株式会社大蔵メディカル,,株式会社,北海道,札幌市豊平区,豊平五条２丁目２番１８号ピュアＭ豊平４０３号室,,01,105,0620905,,,,,,,2023-11-21,1,,,,,オオクラメディカル,0
1026,4430001090489,新規,0,2023-11-21,2023-11-21,株式会社ＳＫＹＨＯＲＳＥ,,株式会社,北海道,札幌市中央区,南十八条西１３丁目１番１－２０２号,,01,101,0640918,,,,,,,2023-11-21,1,,,,,スカイホース,0
1028,4430003015667,新規,0,2023-11-21,2023-11-21,合同会社ハチヨコ,,合同会社,北海道,札幌市中央区,南一条西１８丁目１番地１３－２０２号,,01,101,0600061,,,,,,,2023-11-21,1,,,,,ハチヨコ,0
1036,4500001025314,新規,0,2023-11-21,2023-11-21,株式会社島津架設,,株式会社,愛媛県,松山市,朝生田町７丁目１番１４号ユーキハイツ５０５号,,38,201,7900952,,,,,,,2023-11-21,1,,,,,シマヅカセツ,0
1037,4500001025322,新規,0,2023-11-21,2023-11-21,株式会社湯之家,,株式会社,愛媛県,松山市,道後湯之町３番１０号,,38,201,7900842,,,,,,,2023-11-21,1,,,,,ユノヤ,0
1038,4700150113436,新規,0,2023-11-21,2023-11-21,Ｂｙｇｇｉｎｇ－Ｕｄｄｅｍａｎｎ　ＡＢ,,外国会社等,,,,,,,,Ｇｕｓｔａｖｓｌｕｎｄｓｖａｇｅｎ　１４５　ＳＥ－１６７　５１　Ｂｒｏｍｍａ　Ｓｔｏｃｋｈｏｌｍ　Ｓｗｅｄｅｎ,,,,,,2023-11-21,1,,,,,ブギウデマンエービー,0
1039,4700150117692,新規,0,2023-11-21,2023-11-21,ｎｉｎｇｂｏｓｈｉ　ｘｉａｏｄａｉｓｈｕ　ｄｉａｎｚｉｓｈａｎｇｗｕ　ｙｏｕｘｉａｎｇｏｎｇｓｉ,,外国会社等,,,,,,,,Ｊｉａｎｇｂｅｉｑｕ　ｃｉｃｈｅｎｇｚｈｅｎ　ｘｉｎｈｅｎｇｌｉｕｌｕ　１－２ｈａｏ　１ｚｈｕａｎｇ　１ｃｅｎｇ　ｘｉｑｕ　ＮＩＮＧ　ＢＯ　ＺＨＥＪＩＡＮＧ　３１５０３１　ＣＮ,,,,,,2023-11-21,1,,,,,ニンボシシャオダイシュディアンツィシャンウヨウシャコウシ,0
1040,4700150122189,新規,0,2023-11-21,2023-11-21,Ｘｉａｍｅｎ　Ｈｕｉｂａｏｃｈｅｎｇ　Ｔｒａｄｉｎｇ　Ｃｏ．，Ｌｔｄ,,外国会社等,,,,,,,,Ｒｏｏｍ　２１０３－２，Ｎｏ．３２１　Ｊｉａｈｅ　Ｒｏａｄ，Ｓｉｍｉｎｇ　Ｄｉｓｔｒｉｃｔ，Ｘｉａｍｅｎ　Ｃｉｔｙ，Ｆｕｊｉａｎ，３６１００９，ＣＮ,,,,,,2023-11-21,1,,,,,シャアメンホゥイバオチュヨンマオイーヨウシエンゴーンスー,0
1041,4700150122197,新規,0,2023-11-21,2023-11-21,ｚｈｏｎｇｓｈａｎｓｈｉｘｉａｏｌｉａｎｇｋｏｕｄｉａｎｑｉｙｏｕｘｉａｎｇｏｎｇｓｉ,,外国会社等,,,,,,,,Ｔｈｅ　ｔｈｉｒｄ　ｆｌｏｏｒ，５２　Ｘｉｎｇｐｕ　Ａｖｅｎｕｅ　Ｃｅｎｔｒａｌ，Ｚｈｏｎｇｓｈａｎ　Ｃｉｔｙ，Ｈｕａｎｇｐｕ　Ｔｏｗｎ，Ｇｕａｎｇｄｏｎｇ　Ｐｒｏｖｉｎｃｅ，５２８４２９　ＣＮ,,,,,,2023-11-21,1,,,,,ジョンシャンシシァオリァンコウディエンチーヨウシェンゴンスー,0
1042,4700150122206,新規,0,2023-11-21,2023-11-21,ｓｈａｎｇｈａｉｘｉａｎｌｉｗａｎｇｌｕｏｋｅｊｉ　ｙｏｕｘｉａｎｇｏｎｇｓｉ,,外国会社等,,,,,,,,Ｎｏ．１３６Ｌａｎｅ１２ＲｏｎｇｌｅＭｉｄｄｌｅＲｏａｄＳｏｎｇｊｉａｎｇＤｉｓｔｒｉｃｔ　Ｓｈａｎｇｈａｉ　２０１６００　ＣＮ,,,,,,2023-11-21,1,,,,,シャンハイセンリワンロガキヨウシェンゴンスー,0
1043,4700150122214,新規,0,2023-11-21,2023-11-21,ｓｈｅｎｚｈｅｎｆａｎｈｕｏｓｈｅｎｇｍｉｎｇｋｅｘｕｅｇｕｆｅｎｙｏｕｘｉａｎｇｏｎｇｓｉ,,外国会社等,,,,,,,,２ｎｄ　Ｆｌｏｏｒ，Ｂｕｉｌｄｉｎｇ　１，Ｐｈａｓｅ　Ｉ，Ｈｕａｎｇｔｉａｎ　Ｙａｎｇｂｅｉ　Ｉｎｄｕｓｔｒｉａｌ　Ｚｏｎｅ，Ｘｉｘｉａｎｇ　Ｓｔｒｅｅｔ，Ｂａｏａｎ　Ｄｉｓｔｒｉｃｔ，Ｓｈｅｎｚｈｅｎ　Ｃｉｔｙ，Ｇｕａｎｇｄｏｎｇ　５１８１２８　ＣＮ,,,,,,2023-11-21,1,,,,,シェンジェンファンフオションミンカーシュエグゥフェンヨウシェンゴンスー,0
1059,5010001240218,新規,0,2023-11-21,2023-11-21,株式会社ＭＡＶＥ,,株式会社,東京都,千代田区,麹町１丁目８番地２ケイズ麹町３０１号,,13,101,1020083,,,,,,,2023-11-21,1,,,,,メイヴ,0
1060,5010001240226,新規,0,2023-11-21,2023-11-21,株式会社ＴＦＦ,,株式会社,東京都,千代田区,神田佐久間町２丁目１８番地１秋葉原ＳＴＮフロント１０階,,13,101,1010025,,,,,,,2023-11-21,1,,,,,ティーエフエフ,0
1063,5010003042257,新規,0,2023-11-21,2023-11-21,豊華合同会社,,合同会社,東京都,中央区,銀座１丁目２２番１１号銀座大竹ビジデンス２Ｆ,,13,102,1040061,,,,,,,2023-11-21,1,,,,,トヨカ,0
1064,5010003042265,新規,0,2023-11-21,2023-11-21,合同会社スター５号,,合同会社,東京都,中央区,日本橋３丁目８番７号坂本ビル６階,,13,102,1030027,,,,,,,2023-11-21,1,,,,,スターゴゴウ,0
1072,5010401178628,新規,0,2023-11-21,2023-11-21,Ｔａｕｄｏ株式会社,,株式会社,東京都,港区,南青山３丁目１番３６号青山丸竹ビル６Ｆ,,13,103,1070062,,,,,,,2023-11-21,1,,,,,タウド,0
1073,5010401178660,新規,0,2023-11-21,2023-11-21,株式会社ＡＫＯＴＯ,,株式会社,東京都,港区,北青山１丁目３番１号アールキューブ青山３階,,13,103,1070061,,,,,,,2023-11-21,1,,,,,アコト,0
1075,5010403031421,新規,0,2023-11-21,2023-11-21,榊原ゴルフアセット合同会社,,合同会社,東京都,港区,六本木３丁目２番１号六本木グランドタワー,,13,103,1060032,,,,,,,2023-11-21,1,,,,,サカキバラゴルフアセット,0
1078,5010501051379,新規,0,2023-11-21,2023-11-21,智順テクノロジー株式会社,,株式会社,東京都,台東区,雷門２丁目１５－４雷門ハイツ７０６号室,,13,106,1110034,,,,,,,2023-11-21,1,,,,,チスンテクノロジー,0
1079,5010503007222,新規,0,2023-11-21,2023-11-21,合同会社ワンダフルステイＴＯＫＹＯ押上,,合同会社,東京都,台東区,西浅草２丁目１６番２,,13,106,1110035,,,,,,,2023-11-21,1,,,,,ワンダフルステイトウキョウオシアゲ,0
1081,5010701045148,新規,0,2023-11-21,2023-11-21,易妙株式会社,,株式会社,東京都,品川区,東大井２丁目２３番１号名人亭ビル２階,,13,109,1400011,,,,,,,2023-11-21,1,,,,,イミョウ,0
1082,5010701045156,新規,0,2023-11-21,2023-11-21,株式会社Ｍａｒｓｈａｌｌ,,株式会社,東京都,品川区,旗の台３丁目７－７スマートＶＩＬＬＡ旗の台ＩＩＩ１０４号室,00132738,13,109,1420064,,,,,,,2023-11-21,1,,,,,マーシャル,0
1088,5010805003076,新規,0,2023-11-21,2023-11-21,一般社団法人脱炭素経営支援協会,,その他の設立登記法人,東京都,大田区,平和島４丁目１番２３号,,13,111,1430006,,,,,,,2023-11-21,1,,,,,ダツタンソケイエイシエンキョウカイ,0
1094,5010903008596,新規,0,2023-11-21,2023-11-21,合同会社１９８５,,合同会社,東京都,世田谷区,池尻４丁目２７番３２号,,13,112,1540001,,,,,,,2023-11-21,1,,,,,ナイティンエイティファイブ,0
1108,5011001158367,新規,0,2023-11-21,2023-11-21,海と波株式会社,,株式会社,東京都,渋谷区,渋谷２丁目１９－１５宮益坂ビルディング６０９,,13,113,1500002,,,,,,,2023-11-21,1,,,,,ウミトナミ,0
1109,5011001158391,新規,0,2023-11-21,2023-11-21,株式会社医療承継マネジメント,,株式会社,東京都,渋谷区,恵比寿西１丁目１５番２号,,13,113,1500021,,,,,,,2023-11-21,1,,,,,イリョウショウケイマネジメント,0
1112,5011003017959,新規,0,2023-11-21,2023-11-21,合同会社おいつ商会,,合同会社,東京都,渋谷区,恵比寿西２丁目８番４号ＥＸ恵比寿西ビル５階,,13,113,1500021,,,,,,,2023-11-21,1,,,,,オイツショウカイ,0
1113,5011005010276,新規,0,2023-11-21,2023-11-21,一般社団法人ＴＯＫＹＯ　ＣＲＥＡＴＩＶＥ　ＳＡＬＯＮ,,その他の設立登記法人,東京都,渋谷区,東２丁目２７番７号,,13,113,1500011,,,,,,,2023-11-21,1,,,,,トウキョウクリエイティブサロン,0
1118,5011101105153,新規,0,2023-11-21,2023-11-21,瑞馨株式会社,,株式会社,東京都,新宿区,榎町３４番地３榎町ビル５階１６室,,13,104,1620806,,,,,,,2023-11-21,1,,,,,ズイケイ,0
1119,5011103013767,新規,0,2023-11-21,2023-11-21,元気大将合同会社,,合同会社,東京都,新宿区,歌舞伎町２丁目９番３号三経５９ビル１Ｆ,,13,104,1600021,,,,,,,2023-11-21,1,,,,,ゲンキタイショウ,0
1121,5011201025061,新規,0,2023-11-21,2023-11-21,株式会社マザウェル,,株式会社,東京都,中野区,弥生町１丁目３８番２０号,,13,114,1640013,,,,,,,2023-11-21,1,,,,,マザウェル,0
1125,5011401025621,新規,0,2023-11-21,2023-11-21,ＴＺＹＷＹＨＴＨ株式会社,,株式会社,東京都,板橋区,南常盤台１丁目２１番１－６０１号,,13,119,1740072,,,,,,,2023-11-21,1,,,,,ティーゼットワイダブリューワイエイチティーエイチ,0
1127,5011503005851,新規,0,2023-11-21,2023-11-21,金運達合同会社,,合同会社,東京都,北区,滝野川３丁目９－２西巣鴨ＫＴＢビル２０１,,13,117,1140023,,,,,,,2023-11-21,1,,,,,キンウンタツ,0
1133,5013303006889,新規,0,2023-11-21,2023-11-21,ＮＥＷＭＯＲＥ合同会社,,合同会社,東京都,豊島区,東池袋１丁目１７番１１号パークハイツ池袋１１０５室,,13,116,1700013,,,,,,,2023-11-21,1,,,,,ニューモア,0
1134,5013305003546,新規,0,2023-11-21,2023-11-21,一般社団法人バックオフィスプロフェッショナル協会,,その他の設立登記法人,東京都,豊島区,池袋２丁目６１番８号アゼリア青新ビル５０５号,,13,116,1710014,,,,,,,2023-11-21,1,,,,,バックオフィスプロフェッショナルキョウカイ,0
1140,5020001154524,新規,0,2023-11-21,2023-11-21,株式会社プラナリア,,株式会社,神奈川県,横浜市青葉区,荏子田２丁目１３番地６１,,14,117,2250005,,,,,,,2023-11-21,1,,,,,プラナリア,0
1141,5020001154532,新規,0,2023-11-21,2023-11-21,株式会社マスオ,,株式会社,神奈川県,横浜市鶴見区,朝日町２丁目６５番地,,14,101,2300033,,,,,,,2023-11-21,1,,,,,マスオ,0
1160,5030003023040,新規,0,2023-11-21,2023-11-21,合同会社Ｍａｙ’ｎ,,合同会社,埼玉県,川越市,岸町３丁目３４番地７,,11,201,3501131,,,,,,,2023-11-21,1,,,,,メイン,0
1166,5040001130853,新規,0,2023-11-21,2023-11-21,株式会社トライブ,,株式会社,千葉県,船橋市,潮見町３４番４号,,12,204,2730016,,,,,,,2023-11-21,1,,,,,トライブ,0
1168,5040003023741,新規,0,2023-11-21,2023-11-21,ＳＳＴ合同会社,,合同会社,千葉県,浦安市,今川２丁目２番３－３０２号,,12,227,2790022,,,,,,,2023-11-21,1,,,,,エスエスティー,0
1169,5040003023766,新規,0,2023-11-21,2023-11-21,合同会社ＲＥＳＰＡＬ,,合同会社,千葉県,船橋市,三咲３丁目８番１号,,12,204,2740812,,,,,,,2023-11-21,1,,,,,レスパル,0
1170,5040003023774,新規,0,2023-11-21,2023-11-21,ＫＯＭＭＹ合同会社,,合同会社,千葉県,船橋市,本町１丁目７－６ドリーム船橋ビル７階Ｓｏｌｏｎ００４号室,,12,204,2730005,,,,,,,2023-11-21,1,,,,,コミー,0
1181,5080001025991,新規,0,2023-11-21,2023-11-21,株式会社ＦＧエステート,,株式会社,静岡県,藤枝市,築地８４０番地,,22,214,4260031,,,,,,,2023-11-21,1,,,,,エフジーエステート,0
1182,5080101024349,新規,0,2023-11-21,2023-11-21,株式会社ＫＡＭＡＬＥＩ,,株式会社,静岡県,沼津市,足高３０５番地の１９,,22,203,4100001,,,,,,,2023-11-21,1,,,,,カマレイ,0
1183,5080105006376,新規,0,2023-11-21,2023-11-21,一般社団法人わらぼ,,その他の設立登記法人,静岡県,富士市,西船津３２５番地の７,,22,210,4170814,,,,,,,2023-11-21,1,,,,,ワラボ,0
1194,5100003007275,新規,0,2023-11-21,2023-11-21,合同会社Ｒｉｄｅ　Ｌｅｓｓｏｎｓ　ａｎｄ　Ｔｏｕｒｓ,,合同会社,長野県,下高井郡山ノ内町,大字平穏１１０９番地５,,20,561,3810401,,,,,,,2023-11-21,1,,,,,ライドレッスンズアンドツアーズ,0
1206,5120001260015,新規,0,2023-11-21,2023-11-21,株式会社ＳＳ　ＰＬＡＮＥＴ,,株式会社,大阪府,大阪市西成区,鶴見橋１丁目７番２号,,27,122,5570031,,,,,,,2023-11-21,1,,,,,エスエスプラネット,0
1207,5120001260023,新規,0,2023-11-21,2023-11-21,日本克納斯通株式会社,,株式会社,大阪府,大阪市中央区,松屋町９番２０号ローレルステート松屋町１４０５Ｃ,,27,128,5420067,,,,,,,2023-11-21,1,,,,,ニホンコクノウシツウ,0
1208,5120001260031,新規,0,2023-11-21,2023-11-21,株式会社圓子,,株式会社,大阪府,大阪市中央区,南船場２丁目７－６セレニテ心斎橋グランデ１階,,27,128,5420081,,,,,,,2023-11-21,1,,,,,マルコ,0
1212,5120003025366,新規,0,2023-11-21,2023-11-21,光民合同会社,,合同会社,大阪府,大阪市東住吉区,公園南矢田３丁目１１番１９号,,27,121,5460024,,,,,,,2023-11-21,1,,,,,コウミン,0
1214,5120101068564,新規,0,2023-11-21,2023-11-21,株式会社コーチングケア,,株式会社,大阪府,堺市東区,西野４８９番地１８,,27,143,5998125,,,,,,,2023-11-21,1,,,,,コーチングケア,0
1218,5130001075750,新規,0,2023-11-21,2023-11-21,株式会社古河,,株式会社,京都府,京都市上京区,御前通西裏上ノ下立売下る西入行衛町４５２番地５,,26,102,6020000,,,,,,,2023-11-21,1,,,,,フルカワ,0
1220,5130003009112,新規,0,2023-11-21,2023-11-21,ネコトバ合同会社,,合同会社,京都府,京都市上京区,七本松通一条下る三軒町７１番地１３号,,26,102,6028341,,,,,,,2023-11-21,1,,,,,ネコトバ,0
1222,5140001132344,新規,0,2023-11-21,2023-11-21,株式会社Ｐｏｍｍｅ,,株式会社,兵庫県,神戸市西区,月が丘５丁目１番１３号,,28,111,6512217,,,,,,,2023-11-21,1,,,,,ポム,0
1224,5140003019829,新規,0,2023-11-21,2023-11-21,ＡＩＶＯ合同会社,,合同会社,兵庫県,神戸市灘区,篠原北町４丁目１２－９－２,,28,102,6570068,,,,,,,2023-11-21,1,,,,,アイボ,0
1233,5180001159012,新規,0,2023-11-21,2023-11-21,株式会社大石,,株式会社,愛知県,名古屋市千種区,今池３丁目２３番２０号,,23,101,4640850,,,,,,,2023-11-21,1,,,,,オオイシ,0
1255,5260001038496,新規,0,2023-11-21,2023-11-21,株式会社ＷＯＲＫ　ＳＭＩＬＥ　ＨＯＬＤＩＮＧＳ,,株式会社,岡山県,岡山市南区,福浜町１５番１０号,,33,104,7028035,,,,,,,2023-11-21,1,,,,,ワークスマイルホールディングス,0
1261,5290001103792,新規,0,2023-11-21,2023-11-21,株式会社デモタイプ,,株式会社,福岡県,福岡市博多区,博多駅前１丁目２３番２号ＰａｒｋＦｒｏｎｔ博多駅前１丁目５Ｆ－Ｂ,,40,132,8120011,,,,,,,2023-11-21,1,,,,,デモタイプ,0
1262,5290001103801,新規,0,2023-11-21,2023-11-21,株式会社Ｈｏｓｐｉｔａｌｉｔｙ　Ｂｒｉｄｇｅ,,株式会社,福岡県,福岡市博多区,博多駅前３丁目４－２５アクロスキューブ博多駅前,,40,132,8120011,,,,,,,2023-11-21,1,,,,,ホスピタリティブリッジ,0
1266,5290003014641,新規,0,2023-11-21,2023-11-21,合同会社ナカミチ,,合同会社,福岡県,福岡市博多区,博多駅前４丁目１４番２３－１３０４号,,40,132,8120011,,,,,,,2023-11-21,1,,,,,ナカミチ,0
1267,5290005019201,新規,0,2023-11-21,2023-11-21,一般社団法人ＭＭＳＴ,,その他の設立登記法人,福岡県,福岡市早良区,藤崎１丁目１６－１５－２Ｆ,,40,137,8140013,,,,,,,2023-11-21,1,,,,,エムエムエスティ,0
1268,5290801030063,新規,0,2023-11-21,2023-11-21,株式会社ニチブツコネクト,,株式会社,福岡県,北九州市戸畑区,牧山新町５番２２号,,40,105,8040054,,,,,,,2023-11-21,1,,,,,ニチブツコネクト,0
1271,5310003004680,新規,0,2023-11-21,2023-11-21,ＨＡＩＫＩマリーナハーバー合同会社,,合同会社,長崎県,佐世保市,ハウステンボス町４番地３７,,42,202,8593243,,,,,,,2023-11-21,1,,,,,ハイキマリーナハーバー,0
1272,5320001020150,新規,0,2023-11-21,2023-11-21,株式会社インベストメント・ワークス,,株式会社,大分県,大分市,大字下宗方７１２番地の１,,44,201,8701141,,,,,,,2023-11-21,1,,,,,インベストメントワークス,0
1274,5330001031485,新規,0,2023-11-21,2023-11-21,株式会社ＴＡＩＹＯＵＤＯ,,株式会社,熊本県,熊本市南区,近見６丁目９番５２号,,43,104,8614101,,,,,,,2023-11-21,1,,,,,タイヨウドウ,0
1275,5330001031493,新規,0,2023-11-21,2023-11-21,株式会社癒しヒルズＡＳＯ,,株式会社,熊本県,阿蘇郡南阿蘇村,大字河陰字西大石４７４番地５,,43,433,8691411,,,,,,,2023-11-21,1,,,,,イヤシヒルズアソ,0
1276,5330003010090,新規,0,2023-11-21,2023-11-21,合同会社塚本企画,,合同会社,熊本県,熊本市南区,近見６丁目４番１号,,43,104,8614101,,,,,,,2023-11-21,1,,,,,ツカモトキカク,0
1279,5360001032844,新規,0,2023-11-21,2023-11-21,恒琉株式会社,,株式会社,沖縄県,沖縄市,比屋根６丁目６番６号,,47,211,9042173,,,,,,,2023-11-21,1,,,,,コウリュウ,0
1290,5400003003178,新規,0,2023-11-21,2023-11-21,合同会社Ｒｅ．零,,合同会社,岩手県,一関市,山目町２丁目１番４２号,,03,209,0210011,,,,,,,2023-11-21,1,,,,,リゼロ,0
1291,5410001013649,新規,0,2023-11-21,2023-11-21,株式会社ＳＧｗｏｒｋｓ,,株式会社,秋田県,秋田市,仁井田字大野７２４番地,,05,201,0101423,,,,,,,2023-11-21,1,,,,,エスジーワークス,0
1301,5430001090488,新規,0,2023-11-21,2023-11-21,株式会社Ｉｂｕｒｉ　Ｍａｎａｇｅｍｅｎｔ,,株式会社,北海道,苫小牧市,新開町２丁目１０番１０号,,01,213,0530052,,,,,,,2023-11-21,1,,,,,イブリマネジメント,0
1303,5430003015666,新規,0,2023-11-21,2023-11-21,合同会社Ｌｉｆｔｅｒ,,合同会社,北海道,札幌市中央区,南五条東２丁目１１番地２シティビル南５条６Ｆ,,01,101,0600055,,,,,,,2023-11-21,1,,,,,リフター,0
1304,5430003015674,新規,0,2023-11-21,2023-11-21,合同会社Ｓｔｒａｔｅｇｙ８,,合同会社,北海道,札幌市豊平区,西岡三条１１丁目８－１０－３０１,,01,105,0620033,,,,,,,2023-11-21,1,,,,,ストラテジーエイト,0
1305,5450001014148,新規,0,2023-11-21,2023-11-21,勝一商店株式会社,,株式会社,北海道,旭川市,北門町１３丁目２９４１番地の９,,01,204,0700825,,,,,,,2023-11-21,1,,,,,カツイチショウテン,0
1306,5470001019905,新規,0,2023-11-21,2023-11-21,ＴＭＳ株式会社,,株式会社,香川県,丸亀市,塩屋町３丁目１０番４４号ポルテ・ボヌール１０５号室,,37,202,7630065,,,,,,,2023-11-21,1,,,,,ティーエムエス,0
1308,5500001025321,新規,0,2023-11-21,2023-11-21,株式会社未来ファーム,,株式会社,愛媛県,西条市,丹原町関屋甲３８５番地１,,38,206,7910527,,,,,,,2023-11-21,1,,,,,ミライファーム,0
1310,5700150116611,新規,0,2023-11-21,2023-11-21,ＹｉＷｕＳｈｉＸｉｎｌａｎＭａｏＹｉＹｏｕＸｉａｎＧｏｎｇＳｉ,,外国会社等,,,,,,,,ｚｈｅｊｉａｎｇｓｈｅｎｇ　ｙｉｗｕｓｈｉ　ｆｕｔｉａｎｊｉｅｄａｏ　ｈｅｙｅｔａｎｇ　ｘｉａｏｓｈａｎｇｐｉｎ　ｓｈｅｎｇｃｈａｎｊｉｄｉ（ｙｉｗｕｓｈｉ　ｈｅｙｅｔａｎｇｂａｏｌｏｎｇｃａｉｙｉｎｃｈａｎｇｎｅｉ）,,,,,,2023-11-21,1,,,,,イウシシンランマオイヨウセンゴンシ,0
1311,5700150117691,新規,0,2023-11-21,2023-11-21,Ｓｈｅｎｚｈｅｎｓｈｉ　Ｙａｎｘｉｎｇ　Ｐｉｎｐａｉ　Ｃｅｈｕａ　Ｙｏｕｘｉａｎｇｏｎｇｓｉ,,外国会社等,,,,,,,,Ｎａｎｓｈａｎｑｕ　Ｔａｏｙｕａｎ　ｊｉｅｄａｏ　Ｘｉａｎｋｅｌｕ　Ｃｈｏｎｇｗｅｎ　ｈｕａｙｕａｎ　１４ｄｏｎｇ　１４０５ｓｈｉ　Ｓｈｅｎｚｈｅｎ　Ｇｕａｎｇｄｏｎｇ　５１８０５５　ＣＮ,,,,,,2023-11-21,1,,,,,シェンチェンシヤンシンピンパイセハウヨウシヤンゴウシ,0
1312,5700150117700,新規,0,2023-11-21,2023-11-21,Ｒｏｂｏｒｏｃｋ（ＨＫ）Ｌｉｍｉｔｅｄ,,外国会社等,,,,,,,,ＦＬＡＴ／ＲＭ　１３０３　１３／Ｆ　ＴＡＩ　ＳＡＮＧ　ＢＡＮＫ　ＢＵＩＬＤＩＮＧ　１３０－１３２　ＤＥＳ　ＶＯＥＵＸ　ＲＯＡＤ　ＣＥＮＴＲＡＬ　ＣＥＮＴＲＡＬ　Ｈｏｎｇ　Ｋｏｎｇ　Ｈｏｎｇ　Ｋｏｎｇ　９９９０７７　ＨＫ,,,,,,2023-11-21,1,,,,,ロボロックホンコンレミテッド,0
1313,5700150120729,新規,0,2023-11-21,2023-11-21,Ｓｈｅｎｚｈｅｎ　Ｈｏｎｇｓｈｅｎｇｘｉｎ　ＫｅＪｉ　Ｙｏｕ　Ｘｉａｎ　Ｇｏｎｇ　Ｓｉ,,外国会社等,,,,,,,,ｓｈｅｎｚｈｅｎｓｈｉ　ｌｏｎｇｇａｎｇｑｕ　ｂｕｊｉｊｉｅｄａｏ　ｂｕｊｉｚｈｅｎ　ｇａｎｋｅｎｇｃｕｎ　１４ｘｉａｎｇ１１ｈａｏ　２０６ｚｕｏ,,,,,,2023-11-21,1,,,,,シェンチェンホンシェンシンケージユーシェンゴンシ,0
1314,5700150122188,新規,0,2023-11-21,2023-11-21,ｓｈｅｎｚｈｅｎｓｈｉｒｕｉｘｕｅｃｈｕａｎｇｘｉｎｋｅｊｉｙｏｕｘｉａｎｇｏｎｇｓｉ,,外国会社等,,,,,,,,ｓｈｅｎ　ｚｈｅｎ　ｓｈｉ　ｌｏｎｇ　ｇａｎｇ　ｑｕ　ｂａｎ　ｔｉａｎ　ｊｉｅ　ｄａｏ　ｘｉａｎｇ　ｊｉａｏ　ｔａｎｇ　ｓｈｅ　ｑｕ　ｚｈｏｎｇ　ｈａｏ　ｙｉ　ｌｕ　５６ｈａｏ　ｒｕ　ｚｉ　ｎｉｕ　ｄａ　ｓｈａ　Ａｚｕｏ　ｓｈｉ　ｓａｎ　ｃｅｎｇ　１３０９,,,,,,2023-11-21,1,,,,,シェンジェンシーゥルイシュエチュワーンシンコーアジーヨウシエンゴーンスー,0
1315,5700150122196,新規,0,2023-11-21,2023-11-21,Ｇｕａｎｇｚｈｏｕ　Ｗｅｉｓｈｅｎｇ　Ｙｕｌｅ　Ｙｏｎｇｐｉｎ　Ｙｏｕｘｉａｎ　Ｇｏｎｇｓｉ,,外国会社等,,,,,,,,Ｂａｉｙｕｎｑｕ　Ｙｏｎｇｐｉｎｇｊｉｅ　Ｚｈｉｈｅｊｉｅ　Ｑｉｘｉａｎｇ２２ｈａｏ　Ｚｈｉ－３ｌｏｕ　３３５７ｓｈｉ　Ｇｕａｎｇｚｈｏｕ　Ｇｕａｎｇｄｏｎｇ　５１００００　ＣＮ,,,,,,2023-11-21,1,,,,,グァンジョウウェイションユィラヨンピンヨウシェンゴンスー,0
1316,5700150122205,新規,0,2023-11-21,2023-11-21,Ｇｕａｎｇｚｈｏｕｃｈｅｎｇｆｅｎｇｓｈａｎｇｍａｏ　ｃｏ．，ｌｔｄ,,外国会社等,,,,,,,,Ｐａｎｙｕｑｕ　ｈｕａｌｏｎｇｚｈｅｎ　ｐａｎｙｕｓｈｉｈｕａｌｕ１８ｈａｏ１ＤｏｎｇＢ０６　Ｇｕａｎｇｚｈｏｕｓｈｉ　５１１４３４　ＣＮ,,,,,,2023-11-21,1,,,,,コウシュウチャンフォンショウマオカンパニーリミテッド,0
1317,5700150122213,新規,0,2023-11-21,2023-11-21,ｚｈｏｕ　ｋｏｕ　ｘｉａｏ　ｑｉａｎ　ｓｈａｎｇ　ｍａｏ　ｙｏｕ　ｘｉａｎ　ｇｏｎｇ　ｓｉ,,外国会社等,,,,,,,,ｈｅ　ｎａｎ　ｓｈｅｎｇ　ｚｈｏｕ　ｋｏｕ　ｓｈｉ　ｃｈｕａｎ　ｈｕｉ　ｑｕ　ｗｅｎ　ｃｈａｎｇ　ｌｕ　ｊｉｎ　ｓｅ　ｄｏｎｇ　ｆａｎｇ　ｘｉｎ　ｙｕａｎ　７ｈａｏ　ｌｏｕ　１８１２ｓｈｉ,,,,,,2023-11-21,1,,,,,シュウコウコウケンショウボウユウゲンコウシ,0
1318,5700150122221,新規,0,2023-11-21,2023-11-21,ｆｕｚｈｏｕ　ｚｈｏｎｇｇｕｏｘｉｎｘｉｊｉｓｈｕ　ｙｏｕｘｉａｎｇｏｎｇｓｉ,,外国会社等,,,,,,,,ｆｕｊｉａｎｓｈｅｎｇｆｕｚｈｏｕｓｈｉ　ｔａｉｊｉａｎｇｑｕ　ｓｈａｎｇｈａｉｊｉｅｄａｏ　ｇｏｎｇｙｅｌｕ３６０ｈａｏ　ｙｕａｎｙｉｙｕａｎｌｕｄｏｎｇｃｅ　ｚｈｏｎｇｙａｎｇｄｉｗｕｊｉｅ　２＃ｌｏｕ　１ｃｅｎｇ０７ｄｉａｎｍｉａｎ,,,,,,2023-11-21,1,,,,,フージョウジョングオシンシージーシューヨウシエンゴンスー,0
1332,6010001240167,新規,0,2023-11-21,2023-11-21,フローズンジャパン株式会社,,株式会社,東京都,千代田区,神田練塀町３番地富士ソフト秋葉原ビル１２階,,13,101,1010022,,,,,,,2023-11-21,1,,,,,フローズンジャパン,0
1333,6010001240175,新規,0,2023-11-21,2023-11-21,株式会社Ｖｅｎｔｉ,,株式会社,東京都,千代田区,神田駿河台３丁目１番１号大雅ビル７階,,13,101,1010062,,,,,,,2023-11-21,1,,,,,ベンティ,0
1334,6010001240217,新規,0,2023-11-21,2023-11-21,Ｆｏｕｎｄａｔｉｏｎ株式会社,,株式会社,東京都,千代田区,大手町１丁目６番１号,,13,101,1000004,,,,,,,2023-11-21,1,,,,,ファウンデーション,0
1335,6010001240233,新規,0,2023-11-21,2023-11-21,ドコ１株式会社,,株式会社,東京都,千代田区,丸の内２丁目３番２号,,13,101,1000005,,,,,,,2023-11-21,1,,,,,ドコワン,0
1336,6010001240258,新規,0,2023-11-21,2023-11-21,Ｓｇｒａｐｈ株式会社,,株式会社,東京都,中央区,勝どき４丁目６番２－２６０８号,,13,102,1040054,,,,,,,2023-11-21,1,,,,,エスグラフ,0
1341,6010003042256,新規,0,2023-11-21,2023-11-21,合同会社ＰＯＣＨＩ,,合同会社,東京都,千代田区,神田和泉町１番地６－１６ヤマトビル４０５,,13,101,1010024,,,,,,,2023-11-21,1,,,,,ポチ,0
1342,6010003042264,新規,0,2023-11-21,2023-11-21,合同会社スター４号,,合同会社,東京都,中央区,日本橋３丁目８番７号坂本ビル６階,,13,102,1030027,,,,,,,2023-11-21,1,,,,,スターヨンゴウ,0
1344,6010005037543,新規,0,2023-11-21,2023-11-21,一般社団法人ＦＪＰＲ＆ＳＭ,,その他の設立登記法人,東京都,千代田区,九段南３丁目７番７号成和綜合会計事務所内,,13,101,1020074,,,,,,,2023-11-21,1,,,,,エフジェイピーアールアンドエスエム,0
1346,6010101015898,新規,0,2023-11-21,2023-11-21,株式会社サンクスマイル,,株式会社,東京都,八王子市,子安町３丁目７番１３号,,13,201,1920904,,,,,,,2023-11-21,1,,,,,サンクスマイル,0
1347,6010103002259,新規,0,2023-11-21,2023-11-21,合同会社ノウェム,,合同会社,東京都,八王子市,打越町１５３２番地１１４－２０１,,13,201,1920911,,,,,,,2023-11-21,1,,,,,ノウェム,0
1356,6010403031429,新規,0,2023-11-21,2023-11-21,合同会社Ａｒｃａｎａ,,合同会社,東京都,港区,南青山３丁目１番３６号青山丸竹ビル６Ｆ,,13,103,1070062,,,,,,,2023-11-21,1,,,,,アルカナ,0
1359,6010501051386,新規,0,2023-11-21,2023-11-21,ＸＹ　ＲＯＡＤ株式会社,,株式会社,東京都,台東区,松が谷２丁目９番１号,,13,106,1110036,,,,,,,2023-11-21,1,,,,,エクスワイロード,0
1360,6010501051394,新規,0,2023-11-21,2023-11-21,株式会社ヒューマンビジネスライン,,株式会社,東京都,台東区,上野３丁目１５番７号ＵＥＮＯＹＯＵＲ３０９,,13,106,1100005,,,,,,,2023-11-21,1,,,,,ヒューマンビジネスライン,0
1361,6010503007221,新規,0,2023-11-21,2023-11-21,合同会社ワンダフルステイＴＯＫＹＯ平和島,,合同会社,東京都,台東区,西浅草２丁目１６番２,,13,106,1110035,,,,,,,2023-11-21,1,,,,,ワンダフルステイトウキョウヘイワジマ,0
1364,6010601064098,新規,0,2023-11-21,2023-11-21,エスブランド株式会社,,株式会社,東京都,江東区,青海２丁目７番４号,,13,108,1350064,,,,,,,2023-11-21,1,,,,,エスブランド,0
1380,6011001158341,新規,0,2023-11-21,2023-11-21,コキュウ・テクノロジーズ株式会社,,株式会社,東京都,渋谷区,神宮前６丁目２３番４号桑野ビル２階,,13,113,1500001,,,,,,,2023-11-21,1,,,,,コキュウテクノロジーズ,0
1381,6011001158374,新規,0,2023-11-21,2023-11-21,ＳＫＩＬＬ‐ＰＯＯＬ株式会社,,株式会社,東京都,渋谷区,恵比寿西２丁目８番４号ＥＸ恵比寿西ビル５Ｆ,,13,113,1500021,,,,,,,2023-11-21,1,,,,,スキルプール,0
1382,6011005010275,新規,0,2023-11-21,2023-11-21,税理士法人足立国際会計事務所,,その他の設立登記法人,東京都,目黒区,自由が丘１丁目１３番４号,,13,110,1520035,,,,,,,2023-11-21,1,,,,,アダチコクサイカイケイジムショ,0
1389,6011101105177,新規,0,2023-11-21,2023-11-21,安馬克株式会社,,株式会社,東京都,新宿区,舟町７番地３６第二清水ビル２０３,,13,104,1600006,,,,,,,2023-11-21,1,,,,,アンマコク,0
1393,6011501030017,新規,0,2023-11-21,2023-11-21,株式会社樹総業,,株式会社,東京都,荒川区,南千住８丁目８番１－８１５号,,13,118,1160003,,,,,,,2023-11-21,1,,,,,イツキソウギョウ,0
1396,6011603004141,新規,0,2023-11-21,2023-11-21,合同会社ＴＦゼータ,,合同会社,東京都,練馬区,氷川台４丁目４７番１８号,,13,120,1790084,,,,,,,2023-11-21,1,,,,,ティーエフゼータ,0
1397,6011703003662,新規,0,2023-11-21,2023-11-21,Ａ　ｔｏ　Ｚ　ＩＮ　ＪＡＰＡＮ合同会社,,合同会社,東京都,江戸川区,東小岩３丁目４番１号,,13,123,1330052,,,,,,,2023-11-21,1,,,,,エートゥーズィーインジャパン,0
1398,6011705001805,新規,0,2023-11-21,2023-11-21,一般社団法人アジア国際交流推進協議会,,その他の設立登記法人,東京都,江戸川区,一之江４丁目９番１２－１４０２号,,13,123,1320024,,,,,,,2023-11-21,1,,,,,アジアコクサイコウリュウスイシンキョウギカイ,0
1404,6012801022777,新規,0,2023-11-21,2023-11-21,株式会社技建皆幸,,株式会社,東京都,立川市,錦町１丁目４－２０オープンオフィス６ｆ,,13,202,1900022,,,,,,,2023-11-21,1,,,,,ギケンカイコウ,0
1405,6012803003239,新規,0,2023-11-21,2023-11-21,アイロマ合同会社,,合同会社,東京都,国分寺市,北町３丁目１５番地６１,,13,214,1850001,,,,,,,2023-11-21,1,,,,,アイロマ,0
1408,6013301051655,新規,0,2023-11-21,2023-11-21,株式会社ＡＲＭ,,株式会社,東京都,豊島区,駒込４丁目１４番１０－５０７号,,13,116,1700003,,,,,,,2023-11-21,1,,,,,アーム,0
1413,6020001154556,新規,0,2023-11-21,2023-11-21,株式会社Ｔａｌｉｓｍａｎ　Ｄｏｇｇｏ,,株式会社,神奈川県,横浜市西区,北幸２丁目１０番４８号むつみビル３Ｆ,,14,103,2200004,,,,,,,2023-11-21,1,,,,,タリスマンドッゴ,0
1416,6020005016190,新規,0,2023-11-21,2023-11-21,一般社団法人愉音,,その他の設立登記法人,神奈川県,横浜市青葉区,柿の木台１３番地４５,,14,117,2270048,,,,,,,2023-11-21,1,,,,,ユオン,0
1431,6030001157244,新規,0,2023-11-21,2023-11-21,株式会社原田塗装工業,,株式会社,埼玉県,さいたま市西区,大字指扇領別所２６７番地ミルボヌーＩＩＩ１０３,00132733,11,101,3310073,,,,,,,2023-11-21,1,,,,,ハラダトソウコウギョウ,0
1432,6030001157260,新規,0,2023-11-21,2023-11-21,株式会社Ｙｕ　Ｂｕｎ　Ｓｙａ,,株式会社,埼玉県,川口市,金山町１２番１サウスゲート川口２階,,11,203,3320014,,,,,,,2023-11-21,1,,,,,ユウブンシャ,0
1433,6030001157277,新規,0,2023-11-21,2023-11-21,株式会社江畑新聞販売,,株式会社,埼玉県,久喜市,菖蒲町菖蒲６５０番地５,,11,232,3460106,,,,,,,2023-11-21,1,,,,,エバタシンブンハンバイ,0
1434,6030001157285,新規,0,2023-11-21,2023-11-21,株式会社カンコン,,株式会社,埼玉県,北葛飾郡松伏町,田中１丁目６番地６,,11,465,3430117,,,,,,,2023-11-21,1,,,,,カンコン,0
1456,6080001025990,新規,0,2023-11-21,2023-11-21,株式会社Ｔ＆Ｊ,,株式会社,静岡県,静岡市葵区,有永町３番３８号,,22,101,4200969,,,,,,,2023-11-21,1,,,,,ティアンドジェイ,0
1461,6110001037982,新規,0,2023-11-21,2023-11-21,株式会社湯沢電計,,株式会社,新潟県,南魚沼郡湯沢町,大字神立２８０２番地１,,15,461,9496102,,,,,,,2023-11-21,1,,,,,ユザワデンケイ,0
1465,6110005017023,新規,0,2023-11-21,2023-11-21,一般社団法人ＣＬＡＳＴ,,その他の設立登記法人,新潟県,柏崎市,三和町５番４１号,,15,205,9450034,,,,,,,2023-11-21,1,,,,,クラスト,0
1474,6120001259980,新規,0,2023-11-21,2023-11-21,Ｂ＆Ｈ株式会社,,株式会社,大阪府,大阪市中央区,高津３丁目９－５第２グローリーハイツ１００１号室,,27,128,5420072,,,,,,,2023-11-21,1,,,,,ビーアンドエイチ,0
1475,6120001260022,新規,0,2023-11-21,2023-11-21,麻吉株式会社,,株式会社,大阪府,大阪市生野区,小路東６丁目８番１７号昭和エクセルビュー東大阪１０３－Ｇ０４,,27,116,5440003,,,,,,,2023-11-21,1,,,,,アサキチ,0
1476,6120001260030,新規,0,2023-11-21,2023-11-21,九格株式会社,,株式会社,大阪府,大阪市西成区,玉出西２丁目９番１７号玉出ハイツ４Ｂ,,27,122,5570045,,,,,,,2023-11-21,1,,,,,キュウカク,0
1479,6120101068522,新規,0,2023-11-21,2023-11-21,株式会社Ｌｉａｎ,,株式会社,大阪府,泉南市,岡田５丁目１８番１８号,,27,228,5900531,,,,,,,2023-11-21,1,,,,,リアン,0
1483,6122005003720,新規,0,2023-11-21,2023-11-21,一般社団法人国際交流支援会館,,その他の設立登記法人,大阪府,東大阪市,西堤学園町１丁目５番６号,,27,227,5770044,,,,,,,2023-11-21,1,,,,,コクサイコウリュウシエンカイカン,0
1485,6130001075774,新規,0,2023-11-21,2023-11-21,株式会社中谷,,株式会社,京都府,京都市上京区,下長者町通油小路東入鷹司町６６番地４０２号,,26,102,6028052,,,,,,,2023-11-21,1,,,,,ナカタニ,0
1499,6180001159028,新規,0,2023-11-21,2023-11-21,Ｅｆｆｏｒｔｅｃｈ株式会社,,株式会社,愛知県,北名古屋市,六ツ師道毛１５番地２,,23,234,4810001,,,,,,,2023-11-21,1,,,,,エフォーテック,0
1519,6260001038504,新規,0,2023-11-21,2023-11-21,株式会社ｋｕｒｕｒｉ,,株式会社,岡山県,岡山市北区,春日町５－２７,,33,101,7000905,,,,,,,2023-11-21,1,,,,,クルリ,0
1521,6270001008877,新規,0,2023-11-21,2023-11-21,株式会社いづしや,,株式会社,鳥取県,八頭郡若桜町,大字若桜１３５番地７,,31,325,6800701,,,,,,,2023-11-21,1,,,,,イヅシヤ,0
1528,6290003014632,新規,0,2023-11-21,2023-11-21,ＢａｍＢｏｏｋコンサルティング合同会社,,合同会社,福岡県,福岡市早良区,賀茂３丁目２３番４号,,40,137,8140164,,,,,,,2023-11-21,1,,,,,バンブックコンサルティング,0
1529,6290801030062,新規,0,2023-11-21,2023-11-21,エスジー建設株式会社,,株式会社,福岡県,北九州市八幡西区,東曲里町８番２３－１２０３号,,40,109,8060035,,,,,,,2023-11-21,1,,,,,エスジーケンセツ,0
1535,6340001026079,新規,0,2023-11-21,2023-11-21,ＡＭＡＭＩＡＮ　ＧＲＡＮＤ　ＲＥＳＯＲＴ株式会社,,株式会社,鹿児島県,奄美市,名瀬浦上町９番３号,,46,222,8940068,,,,,,,2023-11-21,1,,,,,アマミアングランドリゾート,0
1536,6340001026087,新規,0,2023-11-21,2023-11-21,株式会社えらぶハウス,,株式会社,鹿児島県,大島郡知名町,大字知名８番地４,,46,534,8919214,,,,,,,2023-11-21,1,,,,,エラブハウス,0
1543,6410001013648,新規,0,2023-11-21,2023-11-21,ディーセントメディカル株式会社,,株式会社,秋田県,秋田市,川元山下町１番２７号コーポこまき１０３号,,05,201,0100931,,,,,,,2023-11-21,1,,,,,ディーセントメディカル,0
1551,6430003015673,新規,0,2023-11-21,2023-11-21,合同会社Ｔｉ‐Ａｍｏ,,合同会社,北海道,札幌市南区,澄川三条２丁目４番２６号,,01,106,0050003,,,,,,,2023-11-21,1,,,,,ティアモ,0
1555,6470005006535,新規,0,2023-11-21,2023-11-21,一般社団法人ひびきの里,,その他の設立登記法人,香川県,高松市,松島町２丁目１４番６号,,37,201,7600068,,,,,,,2023-11-21,1,,,,,ヒビキノサト,0
1557,6480001012296,新規,0,2023-11-21,2023-11-21,株式会社久米ポンプ店,,株式会社,徳島県,名西郡石井町,高川原字高川原８０番地１,,36,341,7793223,,,,,,,2023-11-21,1,,,,,クメポンプテン,0
1561,6700150117690,新規,0,2023-11-21,2023-11-21,Ｃｈａｎｇｓｈａｓｈｉｘｉｎｍｉａｏｋｅｊｉｙｏｕｘｉａｎｇｏｎｇｓｉ,,外国会社等,,,,,,,,ｈｕｎａｎｓｈｅｎｇ　ｃｈａｎｇｓｈａｓｈｉ　ｙｕｅｌｕｑｕｘｉａｎｊｉａｈｕｊｉｅｄａｏ　ｙｕｅｌｕｄａｄａｏ３６９ｈａｏ　ｙｕｅｌｕｙｉｈａｏｊｉａｙｕａｎ１ｄｏｎｇ２０４ｈａｏｆａｎｇ－２０３,,,,,,2023-11-21,1,,,,,チャンシャーシーシンミアオケジヨウシヤンゴンシ,0
1562,6700150117708,新規,0,2023-11-21,2023-11-21,ｄｏｎｇｇｕａｎｓｈｉｆｅｉｓｈｕｋｅｊｉｙｏｕｘｉａｎｇｏｎｇｓｉ,,外国会社等,,,,,,,,ｃｈａｎｇｐｉｎｇｚｈｅｎｃｈａｎｇｐｉｎｇｔａｎｇｊｉａｏｌｕ２４ｈａｏ９ｈａｏｌｏｕ３０８　ｄｏｎｇｇｕａｎｓｈｉ　ｇｕａｎｇｄｏｎｇｓｈｅｎｇ,,,,,,2023-11-21,1,,,,,ドングアンシフェイスクェジヨウシャゴンシ,0
1563,6700150122187,新規,0,2023-11-21,2023-11-21,Ｓｈｅｎｚｈｅｎｓｈｉｍａｎｄｕｏｙｏｕｘｉａｎｇｏｎｇｓｉ,,外国会社等,,,,,,,,Ｒｏｏｍ７０８ＳｏｕｔｈＣｈｉｎａＤｅｖｅｌｏｐｍｅｎｔＣｅｎｔｅｒＰｈａｓｅＩＩＳｏｕｔｈＣｈｉｎａＩｎｔｅｒｎａｔｉｏｎａｌＬｅａｔｈｅｒＧｏｏｄｓＲａｗａｎｄＡｃｃｅｓｓｏｒｙＭａｔｅｒｉａｌｓＬｏｇｉｓｔｉｃｓＺｏｎｅＮｏ．１ＳｏｕｔｈＣｈｉｎａＡｖｅｎｕｅＨｅｈｕａＣｏｍｍｕｎｉｔｙＰｉｎｇｈｕＳｔｒｅｅｔＬｏｎｇｇａｎｇＤｉｓｔｒｉｃｔＳｈｅｎｚｈｅｎ,00132688,,,,,2023-11-21,1,,,,,シンセンシマンドユウゲンコウシ,0
1564,6700150122195,新規,0,2023-11-21,2023-11-21,Ｓｈｅｎｚｈｅｎｓｈｉｙａｂｏｌａｎｔａｏｃｉｙｏｕｘｉａｎｇｏｎｇｓｉ,,外国会社等,,,,,,,,８Ａ，Ｂｕｉｌｄｉｎｇ　Ａ，Ｄａｎｚｉ　Ｌｏｎｇｔｉｎｇ，Ｎｏ．３０３３，Ｄａｎｚｉ　Ａｖｅｎｕｅ，Ｋｅｎｇｚｉ　Ｓｔｒｅｅｔ，Ｐｉｎｇｓｈａｎ　Ｎｅｗ　Ｄｉｓｔｒｉｃｔ，Ｓｈｅｎｚｈｅｎ，Ｇｕａｎｇｄｏｎｇ，５１８０００　ＣＮ,,,,,,2023-11-21,1,,,,,シェンジェンシヤーボーランタオツーヨウシェンゴンスー,0
1565,6700150122204,新規,0,2023-11-21,2023-11-21,ｓｈｅｎｚｈｅｎｓｈｉｂｏｃｈａｏｄｉａｎｚｉｋｅｊｉ　ｙｏｕｘｉａｎｇｏｎｇｓｉ,,外国会社等,,,,,,,,ｓｈｅｎｚｈｅｎ　ｆｕｔｉａｎｑｕ　ｆｕｔｉａｎｊｉｅｄａｏｆｕｔｉａｎｓｈｅｑｕｇａｎｇｂｉａｎｆａｎｇ６５ｈａｏ３０１　５１８０００　ＣＮ,,,,,,2023-11-21,1,,,,,シンセンシハクチョウデンシカギヨウシェンゴンスー,0
1566,6700150122212,新規,0,2023-11-21,2023-11-21,ｄｏｎｇｇｕａｎｓｈｉｊｉｎｓｅｓｈｅｎｇｘｕｅｊｉｓｈｕｙｏｕｘｉａｎｇｏｎｇｓｉ,,外国会社等,,,,,,,,Ｒｏｏｍ　２０５，Ｂｕｉｌｄｉｎｇ　１，Ｎｏ．２６，Ｈａｎｔａｎｇ　Ｓｔｒｅｅｔ，ＤｏｎｇｃｈｅｎｇＳｔｒｅｅｔ　ｄｏｎｇｇｕａｎ　ｇｕａｎｇｄｏｎｇ,,,,,,2023-11-21,1,,,,,トウカンキンシツセイガクギジュツユウゲンコウシ,0
1567,6700150122220,新規,0,2023-11-21,2023-11-21,Ｓｈｅｎｚｈｅｎｓｈｉ　ｙｉｊｉｅ　ｋｅｊｉ　ｙｏｕｘｉａｎ　ｇｏｎｇｓｉ,,外国会社等,,,,,,,,ｌｏｎｇｈｕａｑｕ　ｍｉｎｚｈｉｊｉｅｄａｏ　ｘｉｎｎｉｕｓｈｅｑｕ　ｍｉｎｚｈｉｄａｄａｏ　ｎｉｕｌａｎｑｉａｎｄａｓｈａＢ８１２　ＳｈｅｎｚｈｅｎＧｕａｎｇｄｏｎｇＣｈｉｎａ,,,,,,2023-11-21,1,,,,,シェンジェンシーイージエコージーヨウシエンゴンスー,0
1571,7010001240208,新規,0,2023-11-21,2023-11-21,ＳＧ　Ｍｉｃｒｏ　Ｊａｐａｎ株式会社,,株式会社,東京都,中央区,銀座５丁目１１番１２号日総第２６ビル１１階,,13,102,1040061,,,,,,,2023-11-21,1,,,,,エスジーマイクロジャパン,0
1572,7010001240216,新規,0,2023-11-21,2023-11-21,Ｆｏｕｎｄａｔｉｏｎ　Ｈｏｌｄｉｎｇｓ株式会社,,株式会社,東京都,千代田区,大手町１丁目６番１号,,13,101,1000004,,,,,,,2023-11-21,1,,,,,ファウンデーションホールディングス,0
1573,7010001240232,新規,0,2023-11-21,2023-11-21,株式会社Ｒｕｎｔｏ,,株式会社,東京都,中央区,日本橋兜町１７番１日本橋ロイヤルプラザ２０７号室,,13,102,1030026,,,,,,,2023-11-21,1,,,,,ラントゥー,0
1576,7010003042263,新規,0,2023-11-21,2023-11-21,合同会社スター３号,,合同会社,東京都,中央区,日本橋３丁目８番７号坂本ビル６階,,13,102,1030027,,,,,,,2023-11-21,1,,,,,スターサンゴウ,0
1577,7010003042271,新規,0,2023-11-21,2023-11-21,ＤＬジャパン合同会社,,合同会社,東京都,中央区,佃１丁目１１番３－１３０７号,,13,102,1040051,,,,,,,2023-11-21,1,,,,,ディーエルジャパン,0
1581,7010101015897,新規,0,2023-11-21,2023-11-21,株式会社ＨＯＵＳＨＯＵ,,株式会社,東京都,八王子市,犬目町１０２６番地,,13,201,1930802,,,,,,,2023-11-21,1,,,,,ホウショウ,0
1587,7010403031411,新規,0,2023-11-21,2023-11-21,合同会社ＹＡＮＡ,,合同会社,東京都,港区,南青山１丁目３番１－１５０２号パークアクシス青山一丁目タワー,,13,103,1070062,,,,,,,2023-11-21,1,,,,,ヤナ,0
1591,7010503007220,新規,0,2023-11-21,2023-11-21,合同会社ワンダフルステイＴＯＫＹＯ瑞江,,合同会社,東京都,台東区,西浅草２丁目１６番２,,13,106,1110035,,,,,,,2023-11-21,1,,,,,ワンダフルステイトウキョウミズエ,0
1605,7011001158225,新規,0,2023-11-21,2023-11-21,万里株式会社,,株式会社,東京都,渋谷区,代々木５丁目５８番１号,,13,113,1510053,,,,,,,2023-11-21,1,,,,,バンリ,0
1606,7011001158274,新規,0,2023-11-21,2023-11-21,株式会社Ｏｆｆｉｃｅ　ＡＪＡ,,株式会社,東京都,渋谷区,代々木２丁目２０番１２号呉羽小野木ビル４Ｆ,,13,113,1510053,,,,,,,2023-11-21,1,,,,,オフィスエイジャ,0
1607,7011001158324,新規,0,2023-11-21,2023-11-21,ＴＳＵＮＡＧＵ株式会社,,株式会社,東京都,渋谷区,道玄坂１丁目１０番８号渋谷道玄坂東急ビル２Ｆ－Ｃ,,13,113,1500043,,,,,,,2023-11-21,1,,,,,ツナグ,0
1608,7011001158373,新規,0,2023-11-21,2023-11-21,株式会社Ｋ,,株式会社,東京都,目黒区,大橋２丁目２４番１号,,13,110,1530044,,,,,,,2023-11-21,1,,,,,ケイ,0
1617,7011101105201,新規,0,2023-11-21,2023-11-21,株式会社エテルネル,,株式会社,東京都,新宿区,西新宿３丁目３番１３号西新宿水間ビル６階,,13,104,1600023,,,,,,,2023-11-21,1,,,,,エテルネル,0
1618,7011103013757,新規,0,2023-11-21,2023-11-21,合同会社Ｍ２,,合同会社,東京都,新宿区,北新宿３丁目２番１－１２０１号,,13,104,1690074,,,,,,,2023-11-21,1,,,,,エムツー,0
1619,7011403004159,新規,0,2023-11-21,2023-11-21,おつねエージェンシー合同会社,,合同会社,東京都,板橋区,赤塚３丁目３８番１０－１０５号,,13,119,1750092,,,,,,,2023-11-21,1,,,,,オツネエージェンシー,0
1621,7011501030016,新規,0,2023-11-21,2023-11-21,株式会社ＹＳＴ,,株式会社,東京都,北区,岩淵町２番４－７０３号キャトル・セゾン,,13,117,1150041,,,,,,,2023-11-21,1,,,,,ワイエスティ,0
1624,7011603004140,新規,0,2023-11-21,2023-11-21,合同会社ＴＦイータ,,合同会社,東京都,練馬区,氷川台４丁目４７番１８号,,13,120,1790084,,,,,,,2023-11-21,1,,,,,ティーエフイータ,0
1643,7020001154522,新規,0,2023-11-21,2023-11-21,桃太郎セールス株式会社,,株式会社,神奈川県,横浜市西区,北幸１丁目１１番１号,,14,103,2200004,,,,,,,2023-11-21,1,,,,,モモタロウセールス,0
1644,7020001154539,新規,0,2023-11-21,2023-11-21,セールスアーツ株式会社,,株式会社,神奈川県,横浜市西区,みなとみらい５丁目３番２－２００１号,,14,103,2200012,,,,,,,2023-11-21,1,,,,,セールスアーツ,0
1645,7020001154547,新規,0,2023-11-21,2023-11-21,Ｋａｓｈｉｗａイノベーション株式会社,,株式会社,神奈川県,横浜市中区,本牧宮原６番１－１００５号,,14,104,2310804,,,,,,,2023-11-21,1,,,,,カシワイノベーション,0
1646,7020001154563,新規,0,2023-11-21,2023-11-21,株式会社ガーデンハウス,,株式会社,神奈川県,横浜市都筑区,川和台１４番１６号,,14,118,2240056,,,,,,,2023-11-21,1,,,,,ガーデンハウス,0
1656,7020003025036,新規,0,2023-11-21,2023-11-21,ＳＭＡ合同会社,,合同会社,神奈川県,横浜市都筑区,中川中央１丁目２７番６イストアール７０２,,14,118,2240003,,,,,,,2023-11-21,1,,,,,エスエムエー,0
1674,7030003023030,新規,0,2023-11-21,2023-11-21,イレシャトレーディング合同会社,,合同会社,埼玉県,大里郡寄居町,大字富田字山越３９６２番地１５,,11,408,3691216,,,,,,,2023-11-21,1,,,,,イレシャトレーディング,0
1679,7040001131008,新規,0,2023-11-21,2023-11-21,弘吉株式会社,,株式会社,千葉県,松戸市,東平賀１０４番地の５７,,12,207,2700003,,,,,,,2023-11-21,1,,,,,ヒロキチ,0
1680,7040001131016,新規,0,2023-11-21,2023-11-21,株式会社ＮｅｏＦｕｌｌ,,株式会社,千葉県,千葉市中央区,富士見２丁目７番９号富士見ビル６０９号,,12,101,2600015,,,,,,,2023-11-21,1,,,,,ネオフル,0
1685,7040003023772,新規,0,2023-11-21,2023-11-21,合同会社瑠伊,,合同会社,千葉県,千葉市若葉区,愛生町１３５番４ボナールコートアイ２０３号,,12,104,2640031,,,,,,,2023-11-21,1,,,,,ルイ,0
1701,7090001018415,新規,0,2023-11-21,2023-11-21,サステナビリティクリエーション株式会社,,株式会社,山梨県,北杜市,小淵沢町上笹尾２８２２,,19,209,4080041,,,,,,,2023-11-21,1,,,,,サステナビリティクリエーション,0
1727,7120001259955,新規,0,2023-11-21,2023-11-21,尚徳株式会社,00132734,株式会社,大阪府,大阪市大正区,三軒家西３丁目４番１６号中山ビル１０５２,,27,108,5510001,,,,,,,2023-11-21,1,,,,,ショウトク,0
1728,7120001260005,新規,0,2023-11-21,2023-11-21,株式会社アニマ,,株式会社,大阪府,大阪市福島区,福島７丁目１１番５１号,,27,103,5530003,,,,,,,2023-11-21,1,,,,,アニマ,0
1735,7120003025380,新規,0,2023-11-21,2023-11-21,合同会社ニコレディオ,,合同会社,大阪府,大阪市西区,新町３丁目８番１７－７０５号,,27,106,5500013,,,,,,,2023-11-21,1,,,,,ニコレディオ,0
1737,7120101068562,新規,0,2023-11-21,2023-11-21,株式会社Ｒｅｓｕｌｔ　Ｊａｐａｎ,,株式会社,大阪府,岸和田市,包近町５６９番地の１,,27,202,5960101,,,,,,,2023-11-21,1,,,,,リザルトジャパン,0
1744,7130001075765,新規,0,2023-11-21,2023-11-21,株式会社ＲＭＴ,,株式会社,京都府,京都市伏見区,淀樋爪町１５６番地２０,,26,109,6130901,,,,,,,2023-11-21,1,,,,,アールエムティ,0
1748,7140001132391,新規,0,2023-11-21,2023-11-21,株式会社協大,,株式会社,兵庫県,姫路市,飾磨区細江９６４番地,,28,201,6728064,,,,,,,2023-11-21,1,,,,,キョウダイ,0
1775,7180301038046,新規,0,2023-11-21,2023-11-21,株式会社ｂｙｎ,,株式会社,愛知県,豊川市,四ツ谷町３丁目７９番地,,23,207,4420839,,,,,,,2023-11-21,1,,,,,バイエヌ,0
1782,7220003003624,新規,0,2023-11-21,2023-11-21,合同会社ＭｅｒｒｙＴｒｉｐ,,合同会社,石川県,金沢市,此花町５番６号ライフ金沢第１ビル６０１Ａ,,17,201,9200852,,,,,,,2023-11-21,1,,,,,メリートリップ,0
1785,7260001038503,新規,0,2023-11-21,2023-11-21,ロードセフティ株式会社,,株式会社,岡山県,岡山市北区,田中１１６番地１０３レジデンス十和１０６,,33,101,7000951,,,,,,,2023-11-21,1,,,,,ロードセフティ,0
1798,7290003014631,新規,0,2023-11-21,2023-11-21,合同会社ＦＵＮＮＹ,,合同会社,福岡県,福岡市東区,原田４丁目２５－１８,,40,131,8120063,,,,,,,2023-11-21,1,,,,,ファニー,0
1802,7310001018714,新規,0,2023-11-21,2023-11-21,株式会社グロウ・コンサルテーション,,株式会社,長崎県,佐世保市,小佐々町田原２０－１,,42,202,8570404,,,,,,,2023-11-21,1,,,,,グロウコンサルテーション,0
1809,7330001031491,新規,0,2023-11-21,2023-11-21,株式会社ユートピア産業社,,株式会社,熊本県,菊池郡菊陽町,大字曲手１０７３番地２,,43,404,8691106,,,,,,,2023-11-21,1,,,,,ユートピアサンギョウシャ,0
1812,7330003010089,新規,0,2023-11-21,2023-11-21,合同会社英生,,合同会社,熊本県,熊本市西区,中原町４６３,,43,103,8615271,,,,,,,2023-11-21,1,,,,,,0
1815,7350001018669,新規,0,2023-11-21,2023-11-21,株式会社ｍａｒｋ,,株式会社,宮崎県,都城市,年見町３街区２５号,,45,202,8850017,,,,,,,2023-11-21,1,,,,,マーク,0
1818,7360001032842,新規,0,2023-11-21,2023-11-21,株式会社ツリープラス,,株式会社,沖縄県,沖縄市,中央３丁目１９－５,,47,211,9040004,,,,,,,2023-11-21,1,,,,,ツリープラス,0
1819,7360003013493,新規,0,2023-11-21,2023-11-21,合同会社ｈａｐｐｙ　ｈａｐｐｙ　ｈａｐｐｙ,,合同会社,沖縄県,沖縄市,住吉２丁目１８番１２号,,47,211,9040003,,,,,,,2023-11-21,1,,,,,ハッピーハッピーハッピー,0
1822,7370001050637,新規,0,2023-11-21,2023-11-21,株式会社ＡＲＣＳ,,株式会社,宮城県,石巻市,成田字一本杉２２番地３,,04,202,9860102,,,,,,,2023-11-21,1,,,,,アークス,0
1833,7430001090296,新規,0,2023-11-21,2023-11-21,株式会社テミタイ,,株式会社,北海道,札幌市中央区,南十条西７丁目７－１クラリス中島公園４０６,,01,101,0640810,,,,,,,2023-11-21,1,,,,,テミタイ,0
1834,7430001090478,新規,0,2023-11-21,2023-11-21,株式会社本桐村田牧場,,株式会社,北海道,日高郡新ひだか町,三石本桐１９０番地,,01,610,0593231,,,,,,,2023-11-21,1,,,,,ホンキリムラタボクジョウ,0
1835,7430001090486,新規,0,2023-11-21,2023-11-21,株式会社ＮＳｔａｒ,,株式会社,北海道,札幌市東区,北八条東４丁目１番２０号,,01,103,0600908,,,,,,,2023-11-21,1,,,,,エヌスター,0
1839,7430003015623,新規,0,2023-11-21,2023-11-21,合同会社Ｆａｓｔ　Ｃｈａｒｇｅ,,合同会社,北海道,石狩市,花川南二条１丁目２２番地１,,01,235,0613202,,,,,,,2023-11-21,1,,,,,ファストチャージ,0
1840,7430003015664,新規,0,2023-11-21,2023-11-21,合同会社ジータ,,合同会社,北海道,札幌市中央区,南十一条西１４丁目２番１－３０６号,,01,101,0640811,,,,,,,2023-11-21,1,,,,,ジータ,0
1841,7430003015672,新規,0,2023-11-21,2023-11-21,機械の森合同会社,,合同会社,北海道,空知郡南幌町,東町３丁目３番３号,,01,423,0690233,,,,,,,2023-11-21,1,,,,,キカイノモリ,0
1846,7480001012295,新規,0,2023-11-21,2023-11-21,株式会社ＴＡＩＳＥＩ,,株式会社,徳島県,徳島市,南昭和町１丁目４番地,,36,201,7700944,,,,,,,2023-11-21,1,,,,,タイセイ,0
1851,7700150122186,新規,0,2023-11-21,2023-11-21,Ｓｕｚｈｏｕ　ＡＩＣＡＳＨ　Ｃｏ　Ｌｔｄ,,外国会社等,,,,,,,,Ｒｏｏｍ３０２ｂｕｉｌｄｉｎｇ３ＬａｎｔｉｎｇｂａｎｄａｏＰｌａｚａＮｏ．６ＹｕｅｌｉａｎｇｗａｎＲｏａｄＩｎｄｕｓｔｒｉａｌｐａｒｋＳｕｚｈｏｕＳｕｚｈｏｕＡｒｅａｏｆＣｈｉｎａ（Ｊｉａｎｇｓｕ）ＰｉｌｏｔＦｒｅｅＴｒａｄｅＺｏｎｅ,,,,,,2023-11-21,1,,,,,ソシュウアイキャッシュカンパニーリミテッド,0
1852,7700150122194,新規,0,2023-11-21,2023-11-21,ＦｏＳｈａｎＳｈｉＳｈｕｎＤｅＱｕＤａＭｕＺｈｉＪｉｎＣｈｕＫｏｕＭａｏＹｉＹｏｕＸｉａｎＧｏｎｇＳ,,外国会社等,,,,,,,,ＳｈｕｎＤｅＱｕ，ＢｅｉＪｉａｏＺｈｅｎ，ＳｈｕｎＪｉａｎｇＪｕＷｅｉＨｕｉ　ＳａｎＬｅＤｏｎｇＬｕ６Ｈａｏ，ＭｅｉＤｅＨａｉＡｎＧｕａｎｇＣｈａｎｇ３１２ＨａｏＺｈｉＥｒ，ＦｏＳｈａｎ，ＧｕａｎｇＤｏｎｇ,,,,,,2023-11-21,1,,,,,フォーシャンシーシュンドーァチュイダームゥジージンチュウコウマオイーヨウシエンゴーンスー,0
1853,7700150122203,新規,0,2023-11-21,2023-11-21,Ｑｕａｎｚｈｏｕ　Ｆｅｎｇｚｅ　Ｗｅｉｌｕｏｓｉ　Ｔｒａｄｉｎｇ　Ｃｏ．，ＬＴＤ,,外国会社等,,,,,,,,２ｎｄｆｌｏｏｒＹｕａｎｄｏｎｇＢｕｉｌｄｉｎｇＤｏｎｇｄａｉＲｏａｄＰｉｎｇｓｈａｎｒｏａｄＳｏｕｔｈｅｒｎｓｅｃｔｉｏｎＤｏｎｇｈａｉＳｔｒｅｅｔＱｕａｎｚｈｏｕＦｅｎｇｚｅ　３６２０００　ＣＮ,,,,,,2023-11-21,1,,,,,センシュウフォンゼウェロストゥレイディングカンパニーリミテッド,0
1854,7700150122211,新規,0,2023-11-21,2023-11-21,ＣＨＬ　ＩＮＤＵＳＴＲＩＥＳ　ＣＯ．，ＬＩＭＩＴＥＤ,,外国会社等,,,,,,,,ＲＯＯＭ　１２０５，１２／Ｆ，ＴＡＩ　ＳＡＮＧ　ＢＡＮＫ　ＢＵＩＬＤＩＮＧ，１３０１３２　ＤＥＳ　ＶＯＥＵＸ　ＲＯＡＤ，ＣＥＮＴＲＡＬ，ＨＯＮＧ　ＫＯＮＧ,,,,,,2023-11-21,1,,,,,チョンコーリーシーイエヨウシエンゴンスー,0
1866,8010001240248,新規,0,2023-11-21,2023-11-21,Ｂｉｏ　Ｅｎｇｉｎｅｅｒｉｎｇ　Ｃａｐｉｔａｌ株式会社,,株式会社,東京都,中央区,日本橋室町３丁目２番１号,,13,102,1030022,,,,,,,2023-11-21,1,,,,,バイオエンジニアリングキャピタル,0
1867,8010001240264,新規,0,2023-11-21,2023-11-21,ＲｅＬＩＦＥ株式会社,,株式会社,東京都,文京区,千石４丁目３３番８－５０３号,,13,105,1120011,,,,,,,2023-11-21,1,,,,,リライフ,0
1874,8010003042262,新規,0,2023-11-21,2023-11-21,合同会社スター２号,,合同会社,東京都,中央区,日本橋３丁目８番７号坂本ビル６階,,13,102,1030027,,,,,,,2023-11-21,1,,,,,スターニゴウ,0
1875,8010003042270,新規,0,2023-11-21,2023-11-21,合同会社Ｃｕｍｉｎ＆Ａｓｓｏｃｉａｔｅｓ,,合同会社,東京都,文京区,春日２丁目２２番５号,,13,105,1120003,,,,,,,2023-11-21,1,,,,,クミンアンドアソシエイツ,0
1877,8010005037541,新規,0,2023-11-21,2023-11-21,一般社団法人ＮＳＴＳ・ＴＢ,,その他の設立登記法人,東京都,千代田区,飯田橋２丁目９－６本館４Ｆ,,13,101,1020072,,,,,,,2023-11-21,1,,,,,ネスティスティービー,0
1880,8010101015896,新規,0,2023-11-21,2023-11-21,博未来株式会社,,株式会社,東京都,八王子市,元横山町２丁目５－１８ヴィラ元横山１０２号,,13,201,1920063,,,,,,,2023-11-21,1,,,,,ヒロミライ,0
1893,8010401178625,新規,0,2023-11-21,2023-11-21,サンリンクホールディングス株式会社,,株式会社,東京都,港区,高輪１丁目４番１０－７０６号,,13,103,1080074,,,,,,,2023-11-21,1,,,,,サンリンクホールディングス,0
1902,8010703006954,新規,0,2023-11-21,2023-11-21,合同会社えすぺゆき,,合同会社,東京都,品川区,大井６丁目１８－３６,,13,109,1400014,,,,,,,2023-11-21,1,,,,,エスペユキ,0
1906,8010901054219,新規,0,2023-11-21,2023-11-21,株式会社みすゞ商事,,株式会社,東京都,世田谷区,桜新町１丁目２５番２１号,,13,112,1540015,,,,,,,2023-11-21,1,,,,,ミスズショウジ,0
1907,8010901054227,新規,0,2023-11-21,2023-11-21,株式会社ＰＰＰ,,株式会社,東京都,世田谷区,三軒茶屋１丁目３２番１９号,,13,112,1540024,,,,,,,2023-11-21,1,,,,,ピーピーピー,0
1908,8010903008602,新規,0,2023-11-21,2023-11-21,合同会社Ｙ２Ｃ３,,合同会社,東京都,世田谷区,下馬５丁目４番３号,,13,112,1540002,,,,,,,2023-11-21,1,,,,,ワイツーシースリー,0
1909,8010905004541,新規,0,2023-11-21,2023-11-21,一般社団法人ＵＰ　ＬＩＦＥ,,その他の設立登記法人,東京都,世田谷区,下馬１丁目４０番１４号１Ｆ,,13,112,1540002,,,,,,,2023-11-21,1,,,,,アップライフ,0
1918,8011001158273,新規,0,2023-11-21,2023-11-21,株式会社ＡＹＡホールディングス,,株式会社,東京都,目黒区,平町１丁目９番３号,,13,110,1520032,,,,,,,2023-11-21,1,,,,,アヤホールディングス,0
1919,8011001158281,新規,0,2023-11-21,2023-11-21,株式会社Ａｖａｎｚａｒ,,株式会社,東京都,渋谷区,円山町５－５Ｎａｖｉ渋谷Ｖ３階,,13,113,1500044,,,,,,,2023-11-21,1,,,,,アバンサール,0
1920,8011001158356,新規,0,2023-11-21,2023-11-21,ＢｏａｒｄＸ株式会社,,株式会社,東京都,渋谷区,道玄坂１丁目２１－１ＳＨＩＢＵＹＡＳＯＬＡＳＴＡ３Ｆ,,13,113,1500043,,,,,,,2023-11-21,1,,,,,ボードエックス,0
1921,8011001158372,新規,0,2023-11-21,2023-11-21,ｔａｋｅ　ｙｏｕｒ　ｔｉｍｅ株式会社,,株式会社,東京都,目黒区,下目黒１丁目４－７グリーンハイツ行人坂地下１階２号室,,13,110,1530064,,,,,,,2023-11-21,1,,,,,テイクユアタイム,0
1923,8011003017956,新規,0,2023-11-21,2023-11-21,Ｆｏｒｅｓｔ　Ｉｓｌａｎｄ＆Ｔｉｍｅ合同会社,,合同会社,東京都,渋谷区,桜丘町１５－１４フジビル４０・７Ｆ,,13,113,1500031,,,,,,,2023-11-21,1,,,,,フォレストアイランドアンドタイム,0
1924,8011003017964,新規,0,2023-11-21,2023-11-21,ベター・カーズ・ジャパン合同会社,,合同会社,東京都,渋谷区,代々木１丁目３０番１５号天翔代々木ビル４階Ｓ４０２－Ｄ号室,,13,113,1510053,,,,,,,2023-11-21,1,,,,,ベターカーズジャパン,0
1925,8011005010273,新規,0,2023-11-21,2023-11-21,一般社団法人日本ゴルフコーチ協会,,その他の設立登記法人,東京都,目黒区,鷹番３丁目９番９号地下１階,,13,110,1520004,,,,,,,2023-11-21,1,,,,,ニホンゴルフコーチキョウカイ,0
1930,8011101105175,新規,0,2023-11-21,2023-11-21,ＨＩＧＨ　ＬＩＭＩＴ　ＰＯＫＥＲ株式会社,,株式会社,東京都,新宿区,歌舞伎町１丁目２２番９号,,13,104,1600021,,,,,,,2023-11-21,1,,,,,ハイリミットポーカー,0
1931,8011101105191,新規,0,2023-11-21,2023-11-21,株式会社Ｂｅｌｌ　Ｂａｃｋ,,株式会社,東京都,新宿区,西新宿３丁目３番１３号西新宿水間ビル２Ｆ,,13,104,1600023,,,,,,,2023-11-21,1,,,,,ベルバック,0
1933,8011103013731,新規,0,2023-11-21,2023-11-21,合同会社ａｎｄ　Ｈ,,合同会社,東京都,新宿区,天神町１４神楽坂藤井ビル６Ｆ,,13,104,1620808,,,,,,,2023-11-21,1,,,,,アンドエイチ,0
1934,8011105010867,新規,0,2023-11-21,2023-11-21,一般社団法人石井柏亭絵の旅の会,,その他の設立登記法人,東京都,新宿区,中井２丁目３０番１７号,,13,104,1610035,,,,,,,2023-11-21,1,,,,,イシイハクテイエノタビノカイ,0
1935,8011203004234,新規,0,2023-11-21,2023-11-21,合同会社ヤマト,,合同会社,東京都,中野区,本町４丁目３０番２３－９０１号,,13,114,1640012,,,,,,,2023-11-21,1,,,,,ヤマト,0
1937,8011301029199,新規,0,2023-11-21,2023-11-21,株式会社ハウスコンタクト,,株式会社,東京都,杉並区,高円寺南２丁目２－１３アンビエンス高円寺３階３０－Ｈ室,,13,115,1660003,,,,,,,2023-11-21,1,,,,,ハウスコンタクト,0
1939,8011401025619,新規,0,2023-11-21,2023-11-21,株式会社辰光電設,,株式会社,東京都,板橋区,大山金井町１３番９－１１０６号パラスト大山,,13,119,1730024,,,,,,,2023-11-21,1,,,,,タツヒカリデンセツ,0
1943,8011501030015,新規,0,2023-11-21,2023-11-21,株式会社ＪＳＲ商事,,株式会社,東京都,北区,上十条２丁目８番１１号十条ｍｋハウス２０１,,13,117,1140034,,,,,,,2023-11-21,1,,,,,ジェイエスアールショウジ,0
1950,8012703002859,新規,0,2023-11-21,2023-11-21,合同会社ＫＩＺＵＮＡ　ＴＯＫＹＯ,,合同会社,東京都,東久留米市,本町３丁目６番１０号,,13,222,2030053,,,,,,,2023-11-21,1,,,,,キズナトウキョウ,0
1959,8013301051629,新規,0,2023-11-21,2023-11-21,ウェルスキャピタルジャパン株式会社,,株式会社,東京都,豊島区,北大塚２丁目１８－８大塚エースビル３Ｆ,,13,116,1700004,,,,,,,2023-11-21,1,,,,,ウェルスキャピタルジャパン,0
1960,8013303006886,新規,0,2023-11-21,2023-11-21,星月よ合同会社,,合同会社,東京都,豊島区,池袋２丁目５９番２－６０５号,,13,116,1710014,,,,,,,2023-11-21,1,,,,,ホシヅキヨ,0
1973,8020001154554,新規,0,2023-11-21,2023-11-21,株式会社ＳＡＶＯＩＲ,,株式会社,神奈川県,川崎市中原区,小杉町２丁目２７６番地１Ｅ５１０５,,14,133,2110063,,,,,,,2023-11-21,1,,,,,サヴォワール,0
1974,8020001154570,新規,0,2023-11-21,2023-11-21,株式会社Ｓ．Ｈ,,株式会社,神奈川県,横浜市中区,元町３丁目１１６番地,,14,104,2310861,,,,,,,2023-11-21,1,,,,,エスエイチ,0
1995,8030001157036,新規,0,2023-11-21,2023-11-21,株式会社斉藤工業,,株式会社,埼玉県,吉川市,大字保８２２番地４,,11,243,3420041,,,,,,,2023-11-21,1,,,,,サイトウコウギョウ,0
1996,8030001157201,新規,0,2023-11-21,2023-11-21,株式会社ブロス,,株式会社,埼玉県,飯能市,大字川寺４０４番地１,,11,209,3570044,,,,,,,2023-11-21,1,,,,,ブロス,0
1997,8030001157259,新規,0,2023-11-21,2023-11-21,株式会社エイセス,,株式会社,埼玉県,さいたま市緑区,美園３丁目７番地１－２０７,,11,109,3360967,,,,,,,2023-11-21,1,,,,,エイセス,0
1998,8030001157283,新規,0,2023-11-21,2023-11-21,株式会社ＪＯＶＶＩ　Ｊａｐａｎ,,株式会社,埼玉県,川口市,並木１丁目９番７号,,11,203,3320034,,,,,,,2023-11-21,1,,,,,ジョビジャパン,0
2002,8030003023038,新規,0,2023-11-21,2023-11-21,コスミック合同会社,,合同会社,埼玉県,所沢市,大字坂之下１１０３－２,,11,208,3590012,,,,,,,2023-11-21,1,,,,,コスミック,0
2003,8030003023046,新規,0,2023-11-21,2023-11-21,合同会社柊屋,,合同会社,埼玉県,さいたま市浦和区,東仲町９番５号,,11,107,3300056,,,,,,,2023-11-21,1,,,,,ヒイラギヤ,0
2004,8030005021477,新規,0,2023-11-21,2023-11-21,医療法人社団街かど会,,その他の設立登記法人,埼玉県,入間郡毛呂山町,大字川角７番地１,,11,326,3500436,,,,,,,2023-11-21,1,,,,,マチカドカイ,0
2008,8040001130990,新規,0,2023-11-21,2023-11-21,株式会社エボネス,,株式会社,千葉県,船橋市,坪井町７６５番地２９,,12,204,2740062,,,,,,,2023-11-21,1,,,,,エボネス,0
2009,8040001131007,新規,0,2023-11-21,2023-11-21,株式会社イスルモータース,,株式会社,千葉県,山武市,松尾町高富１５２９,,12,237,2891522,,,,,,,2023-11-21,1,,,,,イスルモータース,0
2010,8040001131015,新規,0,2023-11-21,2023-11-21,ＩＤＯ株式会社,,株式会社,千葉県,市川市,妙典６丁目３番２１号ガーデナヴィル市川妙典４０４号,,12,203,2720111,,,,,,,2023-11-21,1,,,,,アイディーオー,0
2011,8040001131023,新規,0,2023-11-21,2023-11-21,株式会社松林キャピタルパートナーズ,,株式会社,千葉県,習志野市,谷津４丁目８番４号－１１５,,12,216,2750026,,,,,,,2023-11-21,1,,,,,ショウリンキャピタルパートナーズ,0
2014,8040003023771,新規,0,2023-11-21,2023-11-21,泰東合同会社,,合同会社,千葉県,市川市,東菅野２丁目１番２１号,,12,203,2720823,,,,,,,2023-11-21,1,,,,,タイトウ,0
2016,8040005022177,新規,0,2023-11-21,2023-11-21,特定非営利活動法人在日本朝鮮千葉地域商工会,,その他の設立登記法人,千葉県,千葉市中央区,栄町４番１４号,,12,101,2600016,,,,,,,2023-11-21,1,,,,,ザイニホンチョウセンチバチイキ,0
2019,8050005013349,新規,0,2023-11-21,2023-11-21,一般社団法人日中医療施設支援協会,,その他の設立登記法人,茨城県,つくば市,島名５４１番地６,,08,220,3002655,,,,,,,2023-11-21,1,,,,,ニッチュウイリョウシセツシエンキョウカイ,0
2022,8080001025989,新規,0,2023-11-21,2023-11-21,株式会社Ｔｒｙ’ｓ,,株式会社,静岡県,焼津市,道原９５０番地の１３,,22,212,4250055,,,,,,,2023-11-21,1,,,,,トライズ,0
2025,8080101024354,新規,0,2023-11-21,2023-11-21,株式会社ＳＰＡＤＡグループ,,株式会社,静岡県,沼津市,大岡１７２１番地の２３,,22,203,4100022,,,,,,,2023-11-21,1,,,,,スパーダグループ,0
2036,8110001037980,新規,0,2023-11-21,2023-11-21,株式会社ＬＯＳＳ　ＴＩＭＥ,,株式会社,新潟県,新潟市東区,大形本町３丁目５番３１号,,15,102,9500813,,,,,,,2023-11-21,1,,,,,ロスタイム,0
2061,8120001259954,新規,0,2023-11-21,2023-11-21,星光株式会社,,株式会社,大阪府,大阪市生野区,新今里５丁目７－６新今里サクセスビル１０１,,27,116,5440001,,,,,,,2023-11-21,1,,,,,セイコウ,0
2062,8120001259962,新規,0,2023-11-21,2023-11-21,大原株式会社,,株式会社,大阪府,大阪市淀川区,木川東３丁目１番２３－６階,,27,123,5320012,,,,,,,2023-11-21,1,,,,,オオハラ,0
2063,8120001260029,新規,0,2023-11-21,2023-11-21,嘉華株式会社,,株式会社,大阪府,大阪市東淀川区,西淡路３丁目１２番３－２０１号,,27,114,5330031,,,,,,,2023-11-21,1,,,,,ヨシハナ,0
2066,8120003025363,新規,0,2023-11-21,2023-11-21,合同会社Ｒｏｏｔｓ,,合同会社,大阪府,大阪市此花区,四貫島１丁目４－２７－１０４,,27,104,5540014,,,,,,,2023-11-21,1,,,,,ルーツ,0
2086,8130001075764,新規,0,2023-11-21,2023-11-21,株式会社ｅ‐ＭＴ,,株式会社,京都府,京田辺市,大住責谷３１番地２９,,26,211,6100343,,,,,,,2023-11-21,1,,,,,イーエムティー,0
2098,8140001132366,新規,0,2023-11-21,2023-11-21,株式会社Ｆｏｒｅｓｔ　ｐｌｕｓ,,株式会社,兵庫県,加古川市,志方町志方町１７５４番地の１,,28,210,6750321,,,,,,,2023-11-21,1,,,,,フォレストプラス,0
2099,8140001132449,新規,0,2023-11-21,2023-11-21,株式会社大輪建設,,株式会社,兵庫県,神戸市中央区,元町通３丁目６番１号山脇ビル１Ｆ,,28,110,6500022,,,,,,,2023-11-21,1,,,,,,0
2122,8210001019548,新規,0,2023-11-21,2023-11-21,株式会社ＭＩＫＳ　Ｄｅｓｉｇｎ,,株式会社,福井県,福井市,西木田３丁目５番１号,,18,201,9188004,,,,,,,2023-11-21,1,,,,,ミクスデザイン,0
2128,8220001025702,新規,0,2023-11-21,2023-11-21,株式会社マルユウ,,株式会社,石川県,金沢市,本江町７番４０号,,17,201,9218012,,,,,,,2023-11-21,1,,,,,マルユウ,0
2140,8290001103798,新規,0,2023-11-21,2023-11-21,株式会社思兼,,株式会社,福岡県,福岡市南区,野間４丁目１７番１－３０３号,,40,134,8150041,,,,,,,2023-11-21,1,,,,,オモイカネ,0
2154,8330001031490,新規,0,2023-11-21,2023-11-21,大成物流株式会社,,株式会社,熊本県,上天草市,大矢野町湯島６２７番地,,43,212,8693711,,,,,,,2023-11-21,1,,,,,タイセイブツリュウ,0
2157,8330003010088,新規,0,2023-11-21,2023-11-21,合同会社ブルパーツ,,合同会社,熊本県,上益城郡嘉島町,大字上島２１２５番地２,,43,442,8613106,,,,,,,2023-11-21,1,,,,,ブルパーツ,0
2159,8340003004312,新規,0,2023-11-21,2023-11-21,合同会社ぼくわた,,合同会社,鹿児島県,枕崎市,中央町２３５番地,,46,204,8980051,,,,,,,2023-11-21,1,,,,,ボクワタ,0
2164,8360003013492,新規,0,2023-11-21,2023-11-21,合同会社ｃｏｎｎｅｃｔ．ＨＥＡＲＴＳ,,合同会社,沖縄県,宮古島市,平良字狩俣１７１３番地１,,47,214,9060002,,,,,,,2023-11-21,1,,,,,コネクトハーツ,0
2165,8360003013501,新規,0,2023-11-21,2023-11-21,合同会社Ｊスチール,,合同会社,沖縄県,糸満市,字潮平７０８番地の２７－２０５号,,47,210,9010302,,,,,,,2023-11-21,1,,,,,ジェイスチール,0
2167,8370001050652,新規,0,2023-11-21,2023-11-21,株式会社Ｐｅａｃｅ　Ｃｒａｆｔ,,株式会社,宮城県,宮城郡利府町,青葉台２丁目１番地１１２,,04,406,9810133,,,,,,,2023-11-21,1,,,,,ピースクラフト,0
2169,8370005010710,新規,0,2023-11-21,2023-11-21,農事組合法人未来ファーム縄文の郷,,その他の設立登記法人,宮城県,柴田郡柴田町,大字富沢字赤柴７６番地１,,04,323,9891741,,,,,,,2023-11-21,1,,,,,ミライファームジョウモンノサト,0
2185,8430001090477,新規,0,2023-11-21,2023-11-21,株式会社食材天国北海道,,株式会社,北海道,札幌市西区,琴似一条７丁目１番２号,,01,107,0630811,,,,,,,2023-11-21,1,,,,,ショクザイテンゴクホッカイドウ,0
2186,8430003015663,新規,0,2023-11-21,2023-11-21,合同会社ヤマブン,,合同会社,北海道,札幌市東区,北四十四条東１４丁目１番１８号,,01,103,0070844,,,,,,,2023-11-21,1,,,,,ヤマブン,0
2187,8430003015671,新規,0,2023-11-21,2023-11-21,合同会社ジェニシス,,合同会社,北海道,札幌市中央区,南一条西４丁目１３番地,,01,101,0600061,,,,,,,2023-11-21,1,,,,,ジェニシス,0
2192,8470001019910,新規,0,2023-11-21,2023-11-21,株式会社ＫＡＮＯＡ,,株式会社,香川県,さぬき市,志度２３７３番地,,37,206,7692101,,,,,,,2023-11-21,1,,,,,カノア,0
2193,8480001012294,新規,0,2023-11-21,2023-11-21,羽山アセットマネジメント株式会社,,株式会社,徳島県,徳島市,城南町１丁目９番２０号,,36,201,7708064,,,,,,,2023-11-21,1,,,,,ハヤマアセットマネジメント,0
2196,8500001025310,新規,0,2023-11-21,2023-11-21,株式会社ＰＬＵＭ,,株式会社,愛媛県,松山市,道後多幸町５番３０号,,38,201,7900841,,,,,,,2023-11-21,1,,,,,プラム,0
2197,8500001025319,新規,0,2023-11-21,2023-11-21,ＣＯＬ株式会社,,株式会社,愛媛県,松山市,湊町４丁目１３番地９北テナント１Ｆ,,38,201,7900012,,,,,,,2023-11-21,1,,,,,シーオーエル,0
2198,8700150121831,新規,0,2023-11-21,2023-11-06,寿７丁目町内会,,その他,鹿児島県,鹿屋市,寿７丁目４－４０,,46,203,8930014,,,,,,,2023-11-06,1,,,,,コトブキナナチヨウメチヨウナイカイ,0
2199,8700150122004,新規,0,2023-11-21,2023-11-10,宇都宮うどん協会,,その他,栃木県,宇都宮市,伝馬町２－２０,,09,201,3200035,,,,,,,2023-11-10,1,,,,,ウツノミヤウドンキヨウカイ,0
2200,8700150122185,新規,0,2023-11-21,2023-11-21,Ｓｈｅｎｚｈｅｎ　Ｋｉｎｇｋｏｎｏ　Ｅｌｅｃｔｒｏｎｉｃ　＆　Ｔｅｃｈｎｏｌｏｇｙ　Ｃｏ．，Ｌｔｄ,,外国会社等,,,,,,,,Ｒｏｏｍ６１５Ｂｕｉｌｄｉｎｇ２Ｌａｎｅ１ＷｅｓｔＤｉｓｔｒｉｃｔＨｅｓｈｕｉｋｏｕＮｅｗＶｉｌｌａｇｅＨｅｓｈｕｉｋｏｕＣｏｍｍｕｎｉｔｙＭａｔｉａｎＳｔｒｅｅｔＧｕａｎｇｍｉｎｇ　Ｄｉｓｔｒｉｃｔ　ＳｈｅｎｚｈｅｎＣｉｔｙ,,,,,,2023-11-21,1,,,,,シンセンキンコノエレクトロニックアンドテクノロジーカンパニーリミテッド,0
2201,8700150122193,新規,0,2023-11-21,2023-11-21,Ｐｕｔｉａｎ　ｌａｎｇｚｈｅｎ　Ｔｒａｄｅ　Ｃｏ．，Ｌｔｄ,,外国会社等,,,,,,,,ｃｈｅｎｇｘｉａｎｇｑｕｆｅｎｇｈｕａｎｇｓｈａｎｊｉｅｄａｏ　Ｌａｄｄｅｒ　２，ｂｕｉｌｄｉｎｇ　２，Ｎｏ．４４１，Ｈｕｓｈａｎ　Ｗｅｓｔ　Ｒｏａｄ，ｐｕｔｉａｎｓｈｉ　Ｆｕｊｉａｎｓｈｅｎｇ　３５１１００　ＣＮ,,,,,,2023-11-21,1,,,,,プゥティエンシーラーンジェンマオイーヨウシエンゴーンスー,0
2202,8700150122202,新規,0,2023-11-21,2023-11-21,ＨＫ　ＳＲＪ　ＬＩＭＩＴＥＤ,,外国会社等,,,,,,,,ＦＬＡＴ　Ｃ　２３／Ｆ　ＬＵＣＫＹ　ＰＬＡＺＡ　３１５－３２１　ＬＯＣＫＨＡＲＴ　ＲＤ　ＷＡＮ　ＣＨＡＩ　ＨＫ　９９９０７７　ＨＫ,,,,,,2023-11-21,1,,,,,ホンコンエスアールジェイリミテッド,0
2203,8700150122210,新規,0,2023-11-21,2023-11-21,Ｓｈｅｎｚｈｅｎ　ＴＮＤ　Ｅｌｅｃ　Ｃｏ．，Ｌｔｄ（Ｃｈｉｎａ　Ｃｏｒｐｏｒａｔｉｏｎ）,,外国会社等,,,,,,,,Ｘｉｎｑｉａｏｊｉｅｄａｏ　ｘｉｎｑｉａｏｓｈｅｑｕ　ｘｉｎｈｅｄａｄａｏ６１８ｈａｏ　７ｃｅｎｇ,,,,,,2023-11-21,1,,,,,シェンジェンシーティエンノンダーディエンズーヨウシエンゴンスー,0
2204,8700150122219,新規,0,2023-11-21,2023-11-21,Ｄｏｎｇｇｕａｎ　ｓｈｉ　ｚｈｅ　ｆｅｎｇ　ｄａｎｇ　ｙｕ　ｍａｏｙｉ　ｙｏｕｘｉａｎ　ｇｏｎｇｓｉ,,外国会社等,,,,,,,,ｎａｎｃｈｅｎｇｊｉｅｄａｏｇｅｄｉｘｉｎｎａｎｌｕｄｏｎｇｅｒｊｉｅ６ｈａｏ　１ｄｏｎｇ１１６３ｓｈｉ　ｄｏｎｇｇｕａｎｓｈｉ　ｎａｎｃｈｅｎｇｑｕ　ｇｕａｎｇｄｏｎｇｓｈｅｎｇ　５２３０００　ＣＮ,,,,,,2023-11-21,1,,,,,ドングワンシージョーフォンダンイーマオイーヨウシエンゴンスー,0
2213,9010001239974,新規,0,2023-11-21,2023-11-21,アトマスジャパン株式会社,,株式会社,東京都,千代田区,六番町１５番２号,,13,101,1020085,,,,,,,2023-11-21,1,,,,,アトマスジャパン,0
2216,9010003042261,新規,0,2023-11-21,2023-11-21,合同会社スター１号,,合同会社,東京都,中央区,日本橋３丁目８番７号坂本ビル６階,,13,102,1030027,,,,,,,2023-11-21,1,,,,,スターイチゴウ,0
2223,9010401178640,新規,0,2023-11-21,2023-11-21,ＣｒｅａｔｉＡＩ　Ｔｅｃｈ株式会社,,株式会社,東京都,港区,虎ノ門４丁目３番１号城山トラストタワー４階,,13,103,1050001,,,,,,,2023-11-21,1,,,,,クリーティエーテック,0
2224,9010401178657,新規,0,2023-11-21,2023-11-21,ｎａｙｅｒ株式会社,,株式会社,東京都,港区,南青山３丁目１番３６号青山丸竹ビル６Ｆ,,13,103,1070062,,,,,,,2023-11-21,1,,,,,ナエ,0
2231,9010701045152,新規,0,2023-11-21,2023-11-21,株式会社ＳＵ総合設備,,株式会社,東京都,品川区,西中延２丁目１８－７,,13,109,1420054,,,,,,,2023-11-21,1,,,,,エスユウソウゴウセツビ,0
2232,9010803004758,新規,0,2023-11-21,2023-11-21,ｉ‐ｍａ　ｋｏｂｏ合同会社,,合同会社,東京都,大田区,千鳥１丁目４番２号藤和シティコープ千鳥町１０２号室,,13,111,1460083,,,,,,,2023-11-21,1,,,,,イーマコーボー,0
2245,9011001158248,新規,0,2023-11-21,2023-11-21,ｍｉｎｄｎｅｘｔ株式会社,,株式会社,東京都,渋谷区,神宮前６丁目２３番４号桑野ビル２階,,13,113,1500001,,,,,,,2023-11-21,1,,,,,マインドネクスト,0
2247,9011005010272,新規,0,2023-11-21,2023-11-21,一般社団法人相続デザインコーチング協会,,その他の設立登記法人,東京都,渋谷区,代官山町１７番１－３３０８号,,13,113,1500034,,,,,,,2023-11-21,1,,,,,ソウゾクデザインコーチングキョウカイ,0
2252,9011101105216,新規,0,2023-11-21,2023-11-21,株式会社風花,,株式会社,東京都,新宿区,百人町１丁目４番２３号,,13,104,1690073,,,,,,,2023-11-21,1,,,,,フウカ,0
2254,9011103013771,新規,0,2023-11-21,2023-11-21,合同会社ＭＯＮＯＳＡＬＡＤ,,合同会社,東京都,新宿区,北新宿１丁目１－１５リービル５－７階,,13,104,1690074,,,,,,,2023-11-21,1,,,,,モノサラダ,0
2261,9011601027298,新規,0,2023-11-21,2023-11-21,株式会社ＴＫバランス,,株式会社,東京都,練馬区,東大泉１丁目１１番１９－３０５号,,13,120,1780063,,,,,,,2023-11-21,1,,,,,ティーケイバランス,0
2262,9011603004139,新規,0,2023-11-21,2023-11-21,合同会社ＴＦシータ,,合同会社,東京都,練馬区,氷川台４丁目４７番１８号,,13,120,1790084,,,,,,,2023-11-21,1,,,,,ティーエフシータ,0
2265,9011801043376,新規,0,2023-11-21,2023-11-21,琥珀川株式会社,,株式会社,東京都,足立区,竹の塚５丁目３６番１８－２０４号,,13,121,1210813,,,,,,,2023-11-21,1,,,,,コハクガワ,0
2268,9012301013670,新規,0,2023-11-21,2023-11-21,株式会社Ｂｒｉｄｇｅ　Ｏｖｅｒ,,株式会社,東京都,町田市,玉川学園５丁目２１番４号,,13,209,1940041,,,,,,,2023-11-21,1,,,,,ブリッジオーバー,0
2281,9013303006885,新規,0,2023-11-21,2023-11-21,ＵＰ‐ＦＩＥＬＤ合同会社,,合同会社,東京都,豊島区,南池袋２丁目５番１号ＣＩＭＡＩビル３Ｆ,00132740,13,116,1710022,,,,,,,2023-11-21,1,,,,,アップフィールド,0
2295,9020003025034,新規,0,2023-11-21,2023-11-21,合同会社ＣｌａｓｓｙＳｔａｒｓ,,合同会社,神奈川県,横浜市西区,浅間町２丁目１０３番地１１クリビア横浜７０２,,14,103,2200072,,,,,,,2023-11-21,1,,,,,クラッシースターズ,0
2303,9021003013821,新規,0,2023-11-21,2023-11-21,合同会社縁工房,,合同会社,神奈川県,愛甲郡愛川町,田代１５８４番地の３,,14,401,2430306,,,,,,,2023-11-21,1,,,,,エニシコウボウ,0
2312,9030001157084,新規,0,2023-11-21,2023-11-21,ジャンクオーガニックス株式会社,,株式会社,埼玉県,大里郡寄居町,大字桜沢８７９番地１,,11,408,3691202,,,,,,,2023-11-21,1,,,,,ジャンクオーガニックス,0
2313,9030001157258,新規,0,2023-11-21,2023-11-21,アゼル株式会社,,株式会社,埼玉県,川口市,桜町５丁目６番２１号,,11,203,3340001,,,,,,,2023-11-21,1,,,,,アゼル,0
2316,9030003023029,新規,0,2023-11-21,2023-11-21,合同会社ＢＲＡＶＯＥＲ,,合同会社,埼玉県,新座市,中野１丁目１４番１９号,,11,230,3520005,,,,,,,2023-11-21,1,,,,,ブラヴォア,0
2317,9030003023037,新規,0,2023-11-21,2023-11-21,ＳＦＣサポート合同会社,,合同会社,埼玉県,さいたま市北区,吉野町２丁目１７２番地１１,,11,102,3310811,,,,,,,2023-11-21,1,,,,,エスエフシーサポート,0
2318,9030003023061,新規,0,2023-11-21,2023-11-21,合同会社ホタル電工,,合同会社,埼玉県,さいたま市緑区,大字三室２１９８ハイツ西形１０２号,,11,109,3360911,,,,,,,2023-11-21,1,,,,,ホタルデンコウ,0
2319,9030005021476,新規,0,2023-11-21,2023-11-21,弁護士法人Ｍｏｎｔｅ南浦和法律事務所,,その他の設立登記法人,埼玉県,さいたま市南区,南浦和２丁目３９番１８号第六大雄ビル４階Ａ,,11,108,3360017,,,,,,,2023-11-21,1,,,,,モンテミナミウラワホウリツジムショ,0
2320,9040001130965,新規,0,2023-11-21,2023-11-21,ＳＫＹ　ＢＬＵＥ株式会社,,株式会社,千葉県,佐倉市,岩富町５８９,,12,212,2850072,,,,,,,2023-11-21,1,,,,,スカイブルー,0
2321,9040001131014,新規,0,2023-11-21,2023-11-21,ＭＡＸ株式会社,,株式会社,千葉県,市川市,市川１丁目２３番２６－７０３号（マンション市川）,,12,203,2720034,,,,,,,2023-11-21,1,,,,,マックス,0
2331,9070001041094,新規,0,2023-11-21,2023-11-21,株式会社ＫＡＧＡＲＩＢＩ,,株式会社,群馬県,高崎市,新保町２５２番地１－１０２,,10,202,3700018,,,,,,,2023-11-21,1,,,,,カガリビ,0
2334,9070003005171,新規,0,2023-11-21,2023-11-21,ＮＩＨＯＮ　ＥＡＧＬＥ合同会社,,合同会社,群馬県,太田市,大原町１５１６番地１サンハイツ大原Ｂ－８,,10,205,3792304,,,,,,,2023-11-21,1,,,,,ニホンイーグル,0
2339,9080001025988,新規,0,2023-11-21,2023-11-21,株式会社保険ＬＩＶＥ,,株式会社,静岡県,静岡市葵区,黒金町２０番地の１ＡＩＧ静岡ビル８階ＭＥＧＡオフィス,,22,101,4200851,,,,,,,2023-11-21,1,,,,,ホケンライブ,0
2348,9100005013094,新規,0,2023-11-21,2023-11-21,一般社団法人日中国際教育交流協会,,その他の設立登記法人,長野県,上田市,天神４丁目６番８号,,20,203,3860025,,,,,,,2023-11-21,1,,,,,ニッチュウコクサイキョウイクコウリュウキョウカイ,0
2367,9120001259953,新規,0,2023-11-21,2023-11-21,株式会社大雄商事,,株式会社,大阪府,大阪市住之江区,御崎５丁目４番１０号ＦａｓｅｃｉａＴＨＩＯ１０３,,27,125,5590013,,,,,,,2023-11-21,1,,,,,ダイユウショウジ,0
2381,9140001132381,新規,0,2023-11-21,2023-11-21,株式会社ＫＵＭＡ’ｓＦｉｒｍ,,株式会社,兵庫県,宝塚市,山手台東４丁目２０番２３号,,28,214,6650887,,,,,,,2023-11-21,1,,,,,クマズファーム,0
2382,9140001132407,新規,0,2023-11-21,2023-11-21,株式会社Ｒｅ．ｍａｋｅ,,株式会社,兵庫県,姫路市,網干区興浜５８４番地６,,28,201,6711241,,,,,,,2023-11-21,1,,,,,リメイク,0
2387,9180001159017,新規,0,2023-11-21,2023-11-21,株式会社フジケン,,株式会社,愛知県,清須市,阿原池之表９９番地,,23,233,4520901,,,,,,,2023-11-21,1,,,,,フジケン,0
2394,9190001030903,新規,0,2023-11-21,2023-11-21,訪問介護事業所輪い和い株式会社,,株式会社,三重県,四日市市,札場町５１１番地１,,24,202,5128056,,,,,,,2023-11-21,1,,,,,ホウモンカイゴジギョウショワイワイ,0
2396,9210001019547,新規,0,2023-11-21,2023-11-21,株式会社Ｓｐｅｃｉａｌ　Ｅｄｉｔｉｏｎ,,株式会社,福井県,福井市,西木田３丁目５番１号,,18,201,9188004,,,,,,,2023-11-21,1,,,,,スペシャルエディション,0
2397,9220001025701,新規,0,2023-11-21,2023-11-21,株式会社くろまめサイエンス,,株式会社,石川県,金沢市,田上新町２０５番地,,17,201,9201153,,,,,,,2023-11-21,1,,,,,クロマメサイエンス,0
2400,9220005008792,新規,0,2023-11-21,2023-11-21,一般社団法人石川県中央古民家再生協会,,その他の設立登記法人,石川県,金沢市,駅西新町３丁目１３番２号,,17,201,9200027,,,,,,,2023-11-21,1,,,,,イシカワケンチュウオウコミンカサイセイキョウカイ,0
2405,9250001020402,新規,0,2023-11-21,2023-11-21,株式会社岩国駅前南地区総合開発,,株式会社,山口県,岩国市,麻里布町１丁目４番３号新岩国ビル２階,,35,208,7400018,,,,,,,2023-11-21,1,,,,,イワクニエキマエミナミチクソウゴウカイハツ,0
2408,9260001038501,新規,0,2023-11-21,2023-11-21,ＦＡＢＯＬＡ株式会社,,株式会社,岡山県,岡山市東区,東平島１５２０番地２,,33,103,7090631,,,,,,,2023-11-21,1,,,,,ファボラ,0
2413,9290001103789,新規,0,2023-11-21,2023-11-21,株式会社ＩＩＩＤＥＡ,,株式会社,福岡県,福岡市中央区,警固２丁目１３－７－３Ｆ,,40,133,8100023,,,,,,,2023-11-21,1,,,,,,0
2414,9290001103797,新規,0,2023-11-21,2023-11-21,株式会社ＫＴ工業,,株式会社,福岡県,福岡市中央区,薬院４丁目５－１２－５０２,,40,133,8100022,,,,,,,2023-11-21,1,,,,,ケーティコウギョウ,0
2417,9290803004549,新規,0,2023-11-21,2023-11-21,合同会社新康建設,,合同会社,福岡県,築上郡築上町,大字本庄２０８９番地４,,40,647,8290123,,,,,,,2023-11-21,1,,,,,シンコウケンセツ,0
2420,9330003010095,新規,0,2023-11-21,2023-11-21,合同会社ＢＰＭ,,合同会社,熊本県,合志市,御代志１６６１番地１ルーロ合志１０４,,43,216,8611104,,,,,,,2023-11-21,1,,,,,ビーピーエム,0
2422,9340001026092,新規,0,2023-11-21,2023-11-21,株式会社有村商事,,株式会社,鹿児島県,鹿児島市,鴨池新町１４番５号,,46,201,8900064,,,,,,,2023-11-21,1,,,,,アリムラショウジ,0
2436,9430001090476,新規,0,2023-11-21,2023-11-21,Ｓｔｏｂｅ株式会社,,株式会社,北海道,札幌市中央区,南二十三条西９丁目１－３３－１０２,,01,101,0640923,,,,,,,2023-11-21,1,,,,,ストーブ,0
2437,9430001090484,新規,0,2023-11-21,2023-11-21,株式会社えぞりすツアープランニング,,株式会社,北海道,札幌市南区,澄川三条３丁目６番２３号,,01,106,0050003,,,,,,,2023-11-21,1,,,,,エゾリスツアープランニング,0
2439,9430003015670,新規,0,2023-11-21,2023-11-21,合同会社ケイジーワイ,,合同会社,北海道,札幌市清田区,平岡公園東１１丁目８番１２号,,01,110,0040882,,,,,,,2023-11-21,1,,,,,ケイジーワイ,0
2440,9430005014836,新規,0,2023-11-21,2023-11-21,一般社団法人ちとせスキップ,,その他の設立登記法人,北海道,千歳市,長都駅前４丁目３番５号,,01,224,0660031,,,,,,,2023-11-21,1,,,,,チトセスキップ,0
2442,9450001014144,新規,0,2023-11-21,2023-11-21,ＢＡＲＫＥＲＳ株式会社,,株式会社,北海道,天塩郡遠別町,字北浜８０番地１７４,,01,486,0983541,,,,,,,2023-11-21,1,,,,,,0
2444,9490001010643,新規,0,2023-11-21,2023-11-21,株式会社ＬＡＴＥＲＡＬ,,株式会社,高知県,高知市,和泉町８番８号,,39,201,7800064,,,,,,,2023-11-21,1,,,,,ラテラル,0
2445,9500001025318,新規,0,2023-11-21,2023-11-21,株式会社ＴＯＳＨＩＭＡ,,株式会社,愛媛県,松山市,三番町２丁目１番地１０,,38,201,7900003,,,,,,,2023-11-21,1,,,,,トシマ,0
2447,9700150116509,新規,0,2023-11-21,2023-11-21,ＳＡＭＭＡＲＴ（Ｈ．Ｋ．）ＬＩＭＩＴＥＤ,,外国会社等,,,,,,,,ＵＮＩＴ　Ｆ，１１／Ｆ　ＳＵＭＭＩＴ　ＢＬＤＧ　３０　ＭＡＮ　ＹＵＥ　ＳＴＲＥＥＴ　ＨＵＮＧ　ＨＯＭ　ＫＬ　０　ＨＫ,,,,,,2023-11-21,1,,,,,サマートホンコンリミテッド,0
2448,9700150117696,新規,0,2023-11-21,2023-11-21,ｇａｏｍｉｓｈｉａｎｎｕｏｗｅｉｌａｏｂａｏｙｏｎｇｐｉｎｙｏｕｘｉａｎｇｏｎｇｓｉ,,外国会社等,,,,,,,,ｇａｏｍｉｓｈｉ　ｊｉｎｇｊｉｋａｉｆａｑｕｙａｏｑｉａｎｌｕ１６６９ｈａｏ　ｗｅｉｆａｎｇｓｈｉ　ｓｈａｎｄｏｎｇｓｈｅｎｇ　２６１５００　ＣＮ,,,,,,2023-11-21,1,,,,,ガオミシャンノウェイラオバオヨンピニョウシヤンゴンシ,0
2449,9700150117705,新規,0,2023-11-21,2023-11-21,Ｓｈｅｎｚｈｅｎｓｈｉ　Ｈｏｎｇｘｉａｎｇｇｕｓｈｉｙｅ　ｙｏｕｘｉａｎｇｏｎｇｓｉ,,外国会社等,,,,,,,,ｌｏｎｇｈｕａｑｕｍｉｎｚｈｉｊｉｅｄａｏｍｉｎｔａｉｓｈｅｑｕ　ｘｉｎｇｈｅｓｈｅｎｇｓｈｉＡ１－Ａ６ｄｏｎｇＡ１ｄｏｎｇ１ｄａｎｙｕａｎ１２０１－１２０２　ｓｈｅｎｚｈｅｎｓｈｉ　ｇｕａｎｇｄｏｎｇ　５１８０００　ＣＮ,,,,,,2023-11-21,1,,,,,シェンチェンシホンシアングシエヨウシャンコウシ,0
2450,9700150122184,新規,0,2023-11-21,2023-11-21,ｈａｎｇｚｈｏｕｔｉａｎｃｅｍａｏｙｉｙｏｕｘｉａｎｇｏｎｇｓｉ,,外国会社等,,,,,,,,Ｒｏｏｍ１４７７　１ｓｔＦｌｏｏｒＢｕｉｌｄｉｎｇ１Ｎｏ．２００ＢｉｎｗｅｎＲｏａｄＣｈａｎｇｈｅＳｔｒｅｅｔＢｉｎｊｉａｎｇＤｉｓｔｒｉｃｔＨａｎｇｚｈｏｕＣｉｔｙ　Ｚｈｅｊｉａｎｇ　Ｐｒｏｖｉｎｃｅ,,,,,,2023-11-21,1,,,,,コウシュウテンセマオイユウゲンコウシ,0
2451,9700150122192,新規,0,2023-11-21,2023-11-21,ｐｕ　ｔｉａｎ　ｓｈｉ　ｘｉａｏ　ｌａｎ　ｍａｏ　ｙｉ　ｙｏｕ　ｘｉａｎ　ｇｏｎｇ　ｓｉ,,外国会社等,,,,,,,,ｌｉｃｈｅｎｇｑｕｇｏｎｇ　ｃｈｅｎ　ｊｉｅ　ｄａｏ　ｌｉ　ｙｕａｎ　ｄｏｎｇ　ｌｕ　２１６９　ｈａｏ　ｐｕｔｉａｎｓｈｉ　ｆｕｊｉａｎｓｈｅｎｇ　３５１１００　ＣＮ,,,,,,2023-11-21,1,,,,,プゥティエンシーシヤオランマオイーヨウシエンゴーンスー,0
2452,9700150122201,新規,0,2023-11-21,2023-11-21,ｓｈｅｎｚｈｅｎｓｈｉｘｕｂｏｓｈｅｎｇｋｅｊｉ　ｙｏｕｘｉａｎｇｏｎｇｓｉ,,外国会社等,,,,,,,,ｓｈｅｎｚｈｅｎｓｈｉ　ｎａｎｓｈａｎｑｕ　ｘｉｌｉｘｉｎｇｕａｎｇｌｕｘｉｌｉｇｏｎｇｙｅｑｕ１２ｄｏｎｇｘｉｎｇｕａｎｇｘｉｅｚｉｌｏｕ３ｌｏｕ３１８　５１８０００　ＣＮ,,,,,,2023-11-21,1,,,,,シンセンシシュンボセンカギヨウシェンゴンスー,0
2453,9700150122218,新規,0,2023-11-21,2023-11-21,ｂｅｉｊｉｎｇｍｅｉｙａｎｇｙａｎｇｍａｏｙｉｙｏｕｘｉａｎｇｏｎｇｓｉ,,外国会社等,,,,,,,,１ｓｔ　Ｆｌｏｏｒ　Ｒｏｏｍ　１６０５，Ｎｏ．９９　Ｓｈｕｉｘｉａｎ　Ｗｅｓｔ　Ｒｏａｄ，Ｔｏｎｇｚｈｏｕ，Ｂｅｉｊｉｎｇ,,,,,,2023-11-21,1,,,,,ベイジンメイヤンヤンマオイーヨウシエンゴンスー,0
