sequenceNumber,corporateNumber,process,correct,updateDate,changeDate,name,nameImageId,kind,prefectureName,cityName,streetNumber,addressImageId,prefectureCode,cityCode,postCode,addressOutside,addressOutsideImageId,closeDate,closeCause,successorCorporateNumber,changeCause,assignmentDate,latest,enName,enPrefectureName,enCityName,enAddressOutside,furigana,hihyoji
7,1010001237696,新規,0,2023-08-16,2023-08-16,株式会社進撃,,株式会社,東京都,中央区,銀座１丁目１２－４Ｎ＆Ｅ．ＢＬＤ．７階,,13,102,1040061,,,,,,,2023-08-16,1,,,,,シンゲキ,0
8,1010001237705,新規,0,2023-08-16,2023-08-16,株式会社オリジネイトアスタ,,株式会社,東京都,文京区,小石川１丁目５番１号,,13,105,1120002,,,,,,,2023-08-16,1,,,,,オリジネイトアスタ,0
9,1010001237713,新規,0,2023-08-16,2023-08-16,サステナブルクリエイト株式会社,,株式会社,東京都,千代田区,神田佐久間町４丁目１４番地,,13,101,1010025,,,,,,,2023-08-16,1,,,,,サステナブルクリエイト,0
10,1010001237738,新規,0,2023-08-16,2023-08-16,ＪＰＣ第４５号株式会社,,株式会社,東京都,千代田区,霞が関３丁目２番１号,,13,101,1000013,,,,,,,2023-08-16,1,,,,,ジェイピーシーダイヨンジュウゴゴウ,0
11,1010001237746,新規,0,2023-08-16,2023-08-16,株式会社銀座嘉樹,,株式会社,東京都,千代田区,神田三崎町１丁目１番４号ＭＫ’８８ビル３階,,13,101,1010061,,,,,,,2023-08-16,1,,,,,ギンザヨシキ,0
12,1010001237754,新規,0,2023-08-16,2023-08-16,オテンバ・ホールディングス株式会社,,株式会社,東京都,千代田区,鍛冶町１丁目１０番６号,,13,101,1010044,,,,,,,2023-08-16,1,,,,,オテンバホールディングス,0
13,1010001237762,新規,0,2023-08-16,2023-08-16,株式会社ＭＥＲＣＵＲＹ,,株式会社,東京都,文京区,本郷３丁目３２番３号第一かねいちビル４階,,13,105,1130033,,,,,,,2023-08-16,1,,,,,マーキュリー,0
14,1010001237787,新規,0,2023-08-16,2023-08-16,アスター株式会社,,株式会社,東京都,中央区,銀座１丁目１５番７号,,13,102,1040061,,,,,,,2023-08-16,1,,,,,アスター,0
24,1010003041386,新規,0,2023-08-16,2023-08-16,港南区最戸２丁目プロジェクト合同会社,,合同会社,東京都,千代田区,丸の内２丁目３番２号,,13,101,1000005,,,,,,,2023-08-16,1,,,,,コウナンクサイドニチョウメプロジェクト,0
25,1010003041394,新規,0,2023-08-16,2023-08-16,合同会社ワイズハーツ,,合同会社,東京都,中央区,日本橋小舟町８－１３,,13,102,1030024,,,,,,,2023-08-16,1,,,,,ワイズハーツ,0
30,1010005037127,新規,0,2023-08-16,2023-08-16,一般社団法人グリーンビルＰＪ１,,その他の設立登記法人,東京都,中央区,日本橋１丁目４番１号,,13,102,1030027,,,,,,,2023-08-16,1,,,,,グリーンビルピージェイワン,0
35,1010401176313,新規,0,2023-08-16,2023-08-16,株式会社ＧＲＡＮＤ　ＢＡＳＥ　ＪＡＰＡＮ,,株式会社,東京都,港区,芝５丁目３６番４号札の辻スクエア９階,,13,103,1080014,,,,,,,2023-08-16,1,,,,,グランドベースジャパン,0
36,1010401176387,新規,0,2023-08-16,2023-08-16,エスライン・テクノロジーズ株式会社,,株式会社,東京都,港区,南青山３丁目１番３６号丸竹ビル６Ｆ,,13,103,1070062,,,,,,,2023-08-16,1,,,,,エスラインテクノロジース,0
37,1010401176511,新規,0,2023-08-16,2023-08-16,株式会社露地,,株式会社,東京都,港区,六本木７丁目１２番２号Ｒ７ビルディング,,13,103,1060032,,,,,,,2023-08-16,1,,,,,ロジ,0
38,1010403030690,新規,0,2023-08-16,2023-08-16,合同会社瑞祥,,合同会社,東京都,港区,南青山３丁目１番３６号青山丸竹ビル６Ｆ,,13,103,1070062,,,,,,,2023-08-16,1,,,,,ズイショウ,0
40,1010405022348,新規,0,2023-08-16,2023-08-16,一般社団法人スキルアップ・ウーマンスクール,,その他の設立登記法人,東京都,港区,南青山２丁目２番１５号,,13,103,1070062,,,,,,,2023-08-16,1,,,,,スキルアップウーマンスクール,0
44,1010501050888,新規,0,2023-08-16,2023-08-16,エアステック株式会社,,株式会社,東京都,台東区,千束４丁目２８－１１エスポワールビル２０４号,,13,106,1110031,,,,,,,2023-08-16,1,,,,,エアステック,0
46,1010601063625,新規,0,2023-08-16,2023-08-16,ＭＲＩ株式会社,,株式会社,東京都,江東区,豊洲２丁目５－１－３５１３,,13,108,1350061,,,,,,,2023-08-16,1,,,,,エムアールアイ,0
49,1010603010311,新規,0,2023-08-16,2023-08-16,合同会社フロンティア,,合同会社,東京都,江東区,青海２丁目４番３２号タイム２４ビル７階,,13,108,1350064,,,,,,,2023-08-16,1,,,,,フロンティア,0
55,1010703006820,新規,0,2023-08-16,2023-08-16,合同会社国丈,,合同会社,東京都,品川区,西五反田４丁目３１番２１－４０５号,,13,109,1410031,,,,,,,2023-08-16,1,,,,,クニタケ,0
59,1010901053607,新規,0,2023-08-16,2023-08-16,橋本商店株式会社,,株式会社,東京都,世田谷区,祖師谷３丁目１９番１３号,,13,112,1570072,,,,,,,2023-08-16,1,,,,,ハシモトショウテン,0
63,1011001156226,新規,0,2023-08-16,2023-08-16,株式会社イクシーズ,,株式会社,東京都,目黒区,八雲４丁目２０－１７－５０２,,13,110,1520023,,,,,,,2023-08-16,1,,,,,イクシーズ,0
64,1011001156275,新規,0,2023-08-16,2023-08-16,ｈａｃｈｉｇｏ株式会社,,株式会社,東京都,目黒区,青葉台４丁目４番１２号,,13,110,1530042,,,,,,,2023-08-16,1,,,,,ハチゴー,0
65,1011001156325,新規,0,2023-08-16,2023-08-16,株式会社Ｏｎｅ　Ｐｅｒｉａｒ,,株式会社,東京都,渋谷区,渋谷２丁目２番４号,,13,113,1500002,,,,,,,2023-08-16,1,,,,,ワンペリア,0
66,1011001156399,新規,0,2023-08-16,2023-08-16,株式会社ＫＯＭＯ,,株式会社,東京都,目黒区,鷹番１丁目１３番２０－３０５号,,13,110,1520004,,,,,,,2023-08-16,1,,,,,コモ,0
68,1011003017343,新規,0,2023-08-16,2023-08-16,合同会社シネマ健康会,,合同会社,東京都,渋谷区,初台２丁目２１－５,,13,113,1510061,,,,,,,2023-08-16,1,,,,,シネマケンコウカイ,0
69,1011005010180,新規,0,2023-08-16,2023-08-16,一般社団法人つながりプレイス,,その他の設立登記法人,東京都,目黒区,中根２丁目３番１５号,,13,110,1520031,,,,,,,2023-08-16,1,,,,,ツナガリプレイス,0
71,1011101104019,新規,0,2023-08-16,2023-08-16,株式会社Ｆｌｙｆｕｌｌ,,株式会社,東京都,新宿区,西新宿６丁目１２番６号コアロード西新宿８０５,,13,104,1600023,,,,,,,2023-08-16,1,,,,,フライフル,0
73,1011301028926,新規,0,2023-08-16,2023-08-16,株式会社Ｆａｍｉｌｉａｒ,,株式会社,東京都,杉並区,上井草２丁目３０番１６－２０８号,,13,115,1670023,,,,,,,2023-08-16,1,,,,,ファミリア,0
74,1011301028934,新規,0,2023-08-16,2023-08-16,株式会社マ,,株式会社,東京都,杉並区,下高井戸２丁目１６番２号,,13,115,1680073,,,,,,,2023-08-16,1,,,,,マ,0
77,1011503005723,新規,0,2023-08-16,2023-08-16,日本精工エレベーター合同会社,,合同会社,東京都,北区,浮間１丁目７－２３兆豊浮間ビル５０３号室,,13,117,1150051,,,,,,,2023-08-16,1,,,,,ニホンセイコウエレベーター,0
79,1011701026505,新規,0,2023-08-16,2023-08-16,株式会社ｎｅだいじょぶ,,株式会社,東京都,江戸川区,松島３丁目１３－７,,13,123,1320031,,,,,,,2023-08-16,1,,,,,ネダイジョブ,0
81,1011801042889,新規,0,2023-08-16,2023-08-16,株式会社ティークルージャパン,,株式会社,東京都,葛飾区,西水元３丁目１３番２０号,,13,122,1250031,,,,,,,2023-08-16,1,,,,,ティークルージャパン,0
83,1012301013562,新規,0,2023-08-16,2023-08-16,株式会社クロノスホーム,,株式会社,東京都,町田市,金森４丁目７番１号,,13,209,1940012,,,,,,,2023-08-16,1,,,,,クロノスホーム,0
87,1012801022575,新規,0,2023-08-16,2023-08-16,株式会社ユーリーフ,,株式会社,東京都,国分寺市,本多２丁目３番１号メゾンパークレーン２０３,,13,214,1850011,,,,,,,2023-08-16,1,,,,,ユーリーフ,0
91,1020001153042,新規,0,2023-08-16,2023-08-16,株式会社ＡＣＥプラス,,株式会社,神奈川県,横浜市緑区,霧が丘２丁目１７番地５,,14,113,2260016,,,,,,,2023-08-16,1,,,,,エースプラス,0
92,1020001153091,新規,0,2023-08-16,2023-08-16,株式会社ＥＤＥＮ,,株式会社,神奈川県,横浜市旭区,今宿町２５６７番地１１,,14,112,2410813,,,,,,,2023-08-16,1,,,,,エデン,0
99,1021003013449,新規,0,2023-08-16,2023-08-16,ＴＲＩＮＨ　ＬＡＮ合同会社,,合同会社,神奈川県,綾瀬市,上土棚南３丁目４番４－４３０２号,,14,218,2521114,,,,,,,2023-08-16,1,,,,,チンラン,0
107,1030001155335,新規,0,2023-08-16,2023-08-16,澤賀株式会社,,株式会社,埼玉県,本庄市,朝日町３丁目１番７－１０１号,,11,211,3670026,,,,,,,2023-08-16,1,,,,,サワガ,0
108,1030001155343,新規,0,2023-08-16,2023-08-16,株式会社森本建装,,株式会社,埼玉県,日高市,高萩東３丁目５番４号,,11,242,3501215,,,,,,,2023-08-16,1,,,,,モリモトケンソウ,0
109,1030001155401,新規,0,2023-08-16,2023-08-16,コネクトプランニング株式会社,,株式会社,埼玉県,さいたま市北区,日進町２丁目４番地１ベリーナフォート大宮２１２,,11,102,3310823,,,,,,,2023-08-16,1,,,,,コネクトプランニング,0
122,1070001040772,新規,0,2023-08-16,2023-08-16,株式会社大熊建設,,株式会社,群馬県,館林市,富士原町１２３５番地３７,,10,207,3740041,,,,,,,2023-08-16,1,,,,,オオクマケンセツ,0
128,1090001018247,新規,0,2023-08-16,2023-08-16,株式会社セレクション,,株式会社,山梨県,南アルプス市,上今諏訪１７６１－２,,19,208,4000211,,,,,,,2023-08-16,1,,,,,セレクション,0
130,1110001037780,新規,0,2023-08-16,2023-08-16,ＡＴＣ株式会社,,株式会社,新潟県,長岡市,蓮潟３丁目１番４７号,00131549,15,202,9402023,,,,,,,2023-08-16,1,,,,,エーティーシー,0
141,1120001257163,新規,0,2023-08-16,2023-08-16,株式会社フォワード,,株式会社,大阪府,寝屋川市,河北西町２１番１２号,,27,215,5720817,,,,,,,2023-08-16,1,,,,,フォワード,0
142,1120001257221,新規,0,2023-08-16,2023-08-16,株式会社エスケイ設備,,株式会社,大阪府,大阪市北区,堂島１丁目３番３号,,27,127,5300003,,,,,,,2023-08-16,1,,,,,エスケイセツビ,0
143,1120003024710,新規,0,2023-08-16,2023-08-16,合同会社トシキズム,,合同会社,大阪府,大阪市住之江区,北島１丁目２番２－１１０４号,,27,125,5590014,,,,,,,2023-08-16,1,,,,,トシキズム,0
145,1120005023826,新規,0,2023-08-16,2023-08-16,一般社団法人日本子午流注協会,,その他の設立登記法人,大阪府,大阪市中央区,淡路町２丁目１番１号堺筋千島ビル７階,,27,128,5410047,,,,,,,2023-08-16,1,,,,,ニホンシゴルチュウキョウカイ,0
150,1120101068064,新規,0,2023-08-16,2023-08-16,株式会社きのからぼ,,株式会社,大阪府,阪南市,桃の木台５丁目１０番地の５,,27,232,5990236,,,,,,,2023-08-16,1,,,,,キノカラボ,0
155,1122003002646,新規,0,2023-08-16,2023-08-16,合同会社河内大和エステート,,合同会社,大阪府,柏原市,国分本町２丁目３－１６,,27,221,5820021,,,,,,,2023-08-16,1,,,,,カワチヤマトエステート,0
157,1130001074979,新規,0,2023-08-16,2023-08-16,裕森株式会社,,株式会社,京都府,福知山市,土師宮町１丁目１３４番地,,26,201,6200856,,,,,,,2023-08-16,1,,,,,ユセン,0
162,1140001131259,新規,0,2023-08-16,2023-08-16,ベニューム株式会社,,株式会社,兵庫県,西宮市,高木西町２４番２１号,,28,204,6638032,,,,,,,2023-08-16,1,,,,,ベニューム,0
163,1140001131267,新規,0,2023-08-16,2023-08-16,ＴＨＲＩＣＥ株式会社,,株式会社,兵庫県,神戸市兵庫区,湊町２丁目４番２９号３Ｆ,,28,105,6520812,,,,,,,2023-08-16,1,,,,,スライス,0
165,1140003019428,新規,0,2023-08-16,2023-08-16,合同会社Ｍａｇｎｉｆｉｃｅｎｔ,,合同会社,兵庫県,川辺郡猪名川町,白金１丁目１１９番地８,,28,301,6660257,,,,,,,2023-08-16,1,,,,,マグニフィセント,0
166,1150001026648,新規,0,2023-08-16,2023-08-16,株式会社ＣＯＦ,,株式会社,奈良県,北葛城郡上牧町,米山台１丁目８－２０,,29,424,6390213,,,,,,,2023-08-16,1,,,,,シーオーエフ,0
172,1180001157622,新規,0,2023-08-16,2023-08-16,株式会社サン・広秀,,株式会社,愛知県,名古屋市名東区,若葉台１０７番地,,23,115,4650015,,,,,,,2023-08-16,1,,,,,サンコウシュウ,0
173,1180001157630,新規,0,2023-08-16,2023-08-16,愛江金属株式会社,,株式会社,愛知県,江南市,宮田町南野東１７６番地,,23,217,4838368,,,,,,,2023-08-16,1,,,,,アイコウキンゾク,0
174,1180001157639,新規,0,2023-08-16,2023-08-16,ムーンブレッシング株式会社,,株式会社,愛知県,名古屋市西区,樋の口町１－１５，ホーワビル３階ＳＨＩＲＯＬＡＢＯ，１４号,,23,104,4510034,,,,,,,2023-08-16,1,,,,,ムーンブレッシング,0
175,1180001157647,新規,0,2023-08-16,2023-08-16,株式会社杉昇,,株式会社,愛知県,東海市,荒尾町仲田２２８番地１,,23,222,4760003,,,,,,,2023-08-16,1,,,,,スギショウ,0
176,1180001157663,新規,0,2023-08-16,2023-08-16,伊藤縁株式会社,,株式会社,愛知県,名古屋市中川区,小碓通２丁目２５番地,,23,110,4540856,,,,,,,2023-08-16,1,,,,,イトウエン,0
177,1180001157671,新規,0,2023-08-16,2023-08-16,株式会社ＩＭＳ,,株式会社,愛知県,豊明市,栄町西大根５５番地３ＧＩＭＵＣＯ　Ａ－１,,23,229,4701167,,,,,,,2023-08-16,1,,,,,アイエムエス,0
178,1180001157688,新規,0,2023-08-16,2023-08-16,株式会社ＮＨＭ,,株式会社,愛知県,一宮市,今伊勢町馬寄字北塚本１７番地１１,,23,203,4910051,,,,,,,2023-08-16,1,,,,,エヌエイチエム,0
186,1190005011857,新規,0,2023-08-16,2023-08-16,一般社団法人Ｄｒ．３医科学研究所,,その他の設立登記法人,三重県,四日市市,泊町６番８号,,24,202,5100884,,,,,,,2023-08-16,1,,,,,ドクタースリーイカガクケンキュウショ,0
198,1240001061982,新規,0,2023-08-16,2023-08-16,株式会社ＨＡＴＣＨｅｓ,,株式会社,広島県,広島市安佐南区,東原３丁目１８番６号,,34,105,7310112,,,,,,,2023-08-16,1,,,,,ハッチーズ,0
205,1290001102674,新規,0,2023-08-16,2023-08-16,株式会社Ｍｏａｎａ　Ｌａｂｏ,,株式会社,福岡県,福岡市南区,大橋１丁目３番１８号,,40,134,8150033,,,,,,,2023-08-16,1,,,,,モアナラボ,0
206,1290001102708,新規,0,2023-08-16,2023-08-16,株式会社Ｗｉｄｅ　Ｆｕｌｌ　Ｏｐｅｎ,,株式会社,福岡県,福岡市早良区,原７丁目２５－１８,,40,137,8140022,,,,,,,2023-08-16,1,,,,,ワイドフルオープン,0
207,1290001102716,新規,0,2023-08-16,2023-08-16,株式会社ジムアート,,株式会社,福岡県,福岡市中央区,天神４丁目５番１０－１００９号チサンマンション第２天神,,40,133,8100001,,,,,,,2023-08-16,1,,,,,ジムアート,0
210,1290005019106,新規,0,2023-08-16,2023-08-16,ＮＰＯ法人ユニコーン,,その他の設立登記法人,福岡県,福岡市西区,上山門１丁目９番２５号,,40,135,8190054,,,,,,,2023-08-16,1,,,,,ユニコーン,0
215,1330001031167,新規,0,2023-08-16,2023-08-16,株式会社ラックスプロダクションズ,,株式会社,熊本県,阿蘇郡西原村,大字小森６３１番地１０,,43,432,8612402,,,,,,,2023-08-16,1,,,,,ラックスプロダクションズ,0
216,1330003009938,新規,0,2023-08-16,2023-08-16,合同会社ＳＥＩＫＥＮ,,合同会社,熊本県,熊本市東区,小山５丁目２－２４－２,,43,102,8618045,,,,,,,2023-08-16,1,,,,,,0
217,1340005009638,新規,0,2023-08-16,2023-08-16,ＮＰＯ法人ミライ・スタート,,その他の設立登記法人,鹿児島県,鹿児島市,武１丁目２７番３５号,,46,201,8900045,,,,,,,2023-08-16,1,,,,,ミライスタート,0
218,1350001018518,新規,0,2023-08-16,2023-08-16,株式会社ｈｉｎａｔａ,,株式会社,宮崎県,宮崎市,大字郡司分甲２８１０番地１,,45,201,8800924,,,,,,,2023-08-16,1,,,,,ヒナタ,0
220,1350003004417,新規,0,2023-08-16,2023-08-16,合同会社赤崎組,00131539,合同会社,宮崎県,都城市,久保原町１２街区１号,,45,202,8850086,,,,,,,2023-08-16,1,,,,,アカザキグミ,0
227,1360005006889,新規,0,2023-08-16,2023-08-16,一般社団法人沖縄全国ふるさと会,,その他の設立登記法人,沖縄県,島尻郡南風原町,字新川９７－６ＤＳパティオ２０６,,47,350,9011105,,,,,,,2023-08-16,1,,,,,オキナワゼンコクフルサトカイ,0
231,1380001033919,新規,0,2023-08-16,2023-08-16,株式会社豊田産業,,株式会社,福島県,西白河郡中島村,大字二子塚字栄田２３番地５,,07,465,9610106,,,,,,,2023-08-16,1,,,,,トヨタサンギョウ,0
241,1450001014077,新規,0,2023-08-16,2023-08-16,新天地企画株式会社,,株式会社,北海道,留萌市,開運町３丁目５番２９号,,01,212,0770042,,,,,,,2023-08-16,1,,,,,シンテンチキカク,0
243,1490003001805,新規,0,2023-08-16,2023-08-16,合同会社Ａ　Ｇｒｏｕｐ,,合同会社,高知県,高岡郡日高村,岩目地１２９０番地,,39,410,7812154,,,,,,,2023-08-16,1,,,,,エーグループ,0
258,2010001237596,新規,0,2023-08-16,2023-08-16,エンタイトルツーベース株式会社,,株式会社,東京都,千代田区,富士見１丁目７番７号,,13,101,1020071,,,,,,,2023-08-16,1,,,,,エンタイトルツーベース,0
259,2010001237646,新規,0,2023-08-16,2023-08-16,株式会社ＯＫオレンジ,,株式会社,東京都,千代田区,富士見２丁目１７番１号,,13,101,1020071,,,,,,,2023-08-16,1,,,,,オーケーオレンジ,0
260,2010001237712,新規,0,2023-08-16,2023-08-16,株式会社Ｒｅ‐ｓｔａｒｔ,,株式会社,東京都,中央区,銀座７丁目１３番６号サガミビル２階,,13,102,1040061,,,,,,,2023-08-16,1,,,,,リスタート,0
261,2010001237720,新規,0,2023-08-16,2023-08-16,株式会社ＧＬＡＭＳＡ,,株式会社,東京都,中央区,佃３丁目８番１１号,,13,102,1040051,,,,,,,2023-08-16,1,,,,,グランサ,0
262,2010001237737,新規,0,2023-08-16,2023-08-16,ＪＰＣ第４４号株式会社,,株式会社,東京都,千代田区,霞が関３丁目２番１号,,13,101,1000013,,,,,,,2023-08-16,1,,,,,ジェイピーシーダイヨンジュウヨンゴウ,0
263,2010001237753,新規,0,2023-08-16,2023-08-16,株式会社富森,,株式会社,東京都,中央区,銀座１丁目２２番１１号銀座大竹ビジデンス２階,,13,102,1040061,,,,,,,2023-08-16,1,,,,,トミモリ,0
264,2010001237761,新規,0,2023-08-16,2023-08-16,株式会社Ｈ‐２‐Ｃ,,株式会社,東京都,中央区,日本橋蛎殻町１丁目３番５号,,13,102,1030014,,,,,,,2023-08-16,1,,,,,エイチツーシー,0
267,2010003041369,新規,0,2023-08-16,2023-08-16,ＬＥＶＥＣＨＹファンド７号合同会社,,合同会社,東京都,千代田区,紀尾井町３－８第２紀尾井町ビル９０１アクシス綜合会計事務所内,,13,101,1020094,,,,,,,2023-08-16,1,,,,,レベチーファンドナナゴウ,0
268,2010003041393,新規,0,2023-08-16,2023-08-16,ウィーブロジ合同会社,,合同会社,東京都,千代田区,神田和泉町１番地６－１６ヤマトビル４０５,,13,101,1010024,,,,,,,2023-08-16,1,,,,,ウィーブロジ,0
269,2010003041419,新規,0,2023-08-16,2023-08-16,合同会社ＪＲＥＯインベストメンツ,,合同会社,東京都,千代田区,丸の内１丁目６番５号,,13,101,1000005,,,,,,,2023-08-16,1,,,,,ジェイアールイーオーインベストメンツ,0
272,2010005037134,新規,0,2023-08-16,2023-08-16,黒岩ホスピタリティ５一般社団法人,,その他の設立登記法人,東京都,千代田区,丸の内３丁目１番１号東京共同会計事務所内,,13,101,1000005,,,,,,,2023-08-16,1,,,,,クロイワホスピタリティファイブ,0
276,2010401176287,新規,0,2023-08-16,2023-08-16,株式会社ジュライズ,,株式会社,東京都,港区,北青山１丁目３番１号アールキューブ青山３階,,13,103,1070061,,,,,,,2023-08-16,1,,,,,ジュライズ,0
277,2010401176312,新規,0,2023-08-16,2023-08-16,株式会社ケービック,,株式会社,東京都,港区,麻布十番１丁目７番１０号,,13,103,1060045,,,,,,,2023-08-16,1,,,,,ケービック,0
278,2010401176394,新規,0,2023-08-16,2023-08-16,株式会社Ｐｅａｒｌ　Ｄｅｓｉｇｎ,,株式会社,東京都,港区,北青山１丁目３番１号アールキューブ青山３階,,13,103,1070061,,,,,,,2023-08-16,1,,,,,パールデザイン,0
279,2010401176411,新規,0,2023-08-16,2023-08-16,Ｎａｔｕｒａｌ　Ｓｐｅｃｉｅｓ株式会社,,株式会社,東京都,港区,港南１丁目６番３３－１７０６号,,13,103,1080075,,,,,,,2023-08-16,1,,,,,ナチュラルスピーシーズ,0
280,2010401176469,新規,0,2023-08-16,2023-08-16,プロテクトアセット株式会社,,株式会社,東京都,港区,東新橋２丁目１０－１０東新橋ビル６１６,,13,103,1050021,,,,,,,2023-08-16,1,,,,,プロテクトアセット,0
281,2010403030707,新規,0,2023-08-16,2023-08-16,合同会社エーストラスト,,合同会社,東京都,港区,六本木１丁目６番１号泉ガーデンタワー３７階,,13,103,1060032,,,,,,,2023-08-16,1,,,,,エーストラスト,0
282,2010403030715,新規,0,2023-08-16,2023-08-16,ＰＫＰ合同会社,,合同会社,東京都,港区,北青山１丁目３番１号アールキューブ青山３階,,13,103,1070061,,,,,,,2023-08-16,1,,,,,ピーケーピー,0
289,2010601063624,新規,0,2023-08-16,2023-08-16,株式会社Ｋｅｐｔｙ,,株式会社,東京都,江東区,枝川１丁目４－１２コンフォリア豊洲７０６,,13,108,1350051,,,,,,,2023-08-16,1,,,,,キプティ,0
290,2010603010310,新規,0,2023-08-16,2023-08-16,合同会社アクティブ,,合同会社,東京都,墨田区,堤通１丁目１９番９号リバーサイド隅田５階,,13,107,1310034,,,,,,,2023-08-16,1,,,,,アクティブ,0
291,2010701044722,新規,0,2023-08-16,2023-08-16,株式会社ＶＩＲＥＣＴＯ,,株式会社,東京都,品川区,上大崎３丁目１０－２７エスセナーリオ目黒花房山３０１,,13,109,1410021,,,,,,,2023-08-16,1,,,,,ヴィレクト,0
304,2011003017276,新規,0,2023-08-16,2023-08-16,合同会社ウィンターミュート,,合同会社,東京都,渋谷区,道玄坂１丁目１０番８号渋谷道玄坂東急ビル２Ｆ－Ｃ,,13,113,1500043,,,,,,,2023-08-16,1,,,,,ウィンターミュート,0
305,2011003017350,新規,0,2023-08-16,2023-08-16,ジェイブイパートナーズ合同会社,,合同会社,東京都,渋谷区,渋谷２丁目７番１４号ＶＯＲＴＡＯＹＡＭＡ３０２,,13,113,1500002,,,,,,,2023-08-16,1,,,,,ジェイブイパートナーズ,0
306,2011003017383,新規,0,2023-08-16,2023-08-16,合同会社Ａｕｔｈ,,合同会社,東京都,渋谷区,幡ヶ谷１丁目２８番１号幡ヶ谷グロウハイム１０２,,13,113,1510072,,,,,,,2023-08-16,1,,,,,アウス,0
312,2011101103985,新規,0,2023-08-16,2023-08-16,株式会社てん,,株式会社,東京都,新宿区,水道町１番９号,,13,104,1620811,,,,,,,2023-08-16,1,,,,,テン,0
313,2011101103993,新規,0,2023-08-16,2023-08-16,株式会社ＣｏｕｒｓｅＶＡＬＵ,,株式会社,東京都,新宿区,西早稲田１丁目２２番３号,,13,104,1690051,,,,,,,2023-08-16,1,,,,,コースバリュー,0
314,2011101104018,新規,0,2023-08-16,2023-08-16,辰＿株式会社,00131551,株式会社,東京都,新宿区,北新宿１丁目２６番１１号,,13,104,1690074,,,,,,,2023-08-16,1,,,,,シンキン,0
318,2011301028933,新規,0,2023-08-16,2023-08-16,株式会社Ｌｕｐｉｎｕｓ,,株式会社,東京都,杉並区,善福寺１丁目１番１５号,,13,115,1670041,,,,,,,2023-08-16,1,,,,,ルピナス,0
319,2011303004866,新規,0,2023-08-16,2023-08-16,合同会社アディクトフレイムル,,合同会社,東京都,杉並区,桃井１丁目２８番１６号,,13,115,1670034,,,,,,,2023-08-16,1,,,,,アディクトフレイムル,0
320,2011305002926,新規,0,2023-08-16,2023-08-16,一般社団法人全国外壁屋根調査協会,,その他の設立登記法人,東京都,杉並区,下井草３丁目４１番５号,,13,115,1670022,,,,,,,2023-08-16,1,,,,,ゼンコクガイヘキヤネチョウサキョウカイ,0
321,2011401025368,新規,0,2023-08-16,2023-08-16,京和産業株式会社,,株式会社,東京都,板橋区,高島平１丁目５６－１２－１０３室,,13,119,1750082,,,,,,,2023-08-16,1,,,,,キョウワサンギョウ,0
322,2011501029657,新規,0,2023-08-16,2023-08-16,立森株式会社,,株式会社,東京都,北区,中里１丁目２１番２号中里ビル１Ｆ,,13,117,1140015,,,,,,,2023-08-16,1,,,,,タチモリ,0
323,2011503005722,新規,0,2023-08-16,2023-08-16,合同会社ライズ,,合同会社,東京都,北区,赤羽２丁目１６番４号セキネビル６階,,13,117,1150045,,,,,,,2023-08-16,1,,,,,ライズ,0
324,2011505002569,新規,0,2023-08-16,2023-08-16,一般社団法人日本映像音響協会,,その他の設立登記法人,東京都,荒川区,西尾久２丁目１３番１４号,,13,118,1160011,,,,,,,2023-08-16,1,,,,,ニホンエイゾウオンキョウキョウカイ,0
328,2011601027057,新規,0,2023-08-16,2023-08-16,株式会社ＲＥ　ＭＡＫＥ,,株式会社,東京都,練馬区,大泉学園町８丁目２番２５－１０４号,,13,120,1780061,,,,,,,2023-08-16,1,,,,,リメイク,0
331,2012301013561,新規,0,2023-08-16,2023-08-16,株式会社燈,,株式会社,東京都,町田市,原町田４丁目１０番１８号,,13,209,1940013,,,,,,,2023-08-16,1,,,,,トモシビ,0
333,2012401040869,新規,0,2023-08-16,2023-08-16,株式会社ＶＩＲＩＶＡ,,株式会社,東京都,三鷹市,上連雀８丁目５番１１号,,13,204,1810012,,,,,,,2023-08-16,1,,,,,ビリバ,0
334,2012403006125,新規,0,2023-08-16,2023-08-16,ＯｎｅＳｌｏｐｅ合同会社,,合同会社,東京都,武蔵野市,桜堤２丁目５番２７号,,13,203,1800021,,,,,,,2023-08-16,1,,,,,ワンスロープ,0
340,2013301051205,新規,0,2023-08-16,2023-08-16,株式会社ＵＵ　Ｐａｒｔｎｅｒｓ,,株式会社,東京都,豊島区,東池袋１丁目３４番５号・いちご東池袋ビル６階,,13,116,1700013,,,,,,,2023-08-16,1,,,,,ユーユーパートナーズ,0
341,2013301051213,新規,0,2023-08-16,2023-08-16,株式会社ＥＯＭ,,株式会社,東京都,豊島区,長崎１丁目１５番１３号１Ｆ,,13,116,1710051,,,,,,,2023-08-16,1,,,,,イーオーエム,0
346,2020001153058,新規,0,2023-08-16,2023-08-16,株式会社ピーチメリア,,株式会社,神奈川県,横浜市西区,北幸２丁目１０番２８号むつみビル３Ｆ,,14,103,2200004,,,,,,,2023-08-16,1,,,,,ピーチメリア,0
349,2020003024397,新規,0,2023-08-16,2023-08-16,西村コーポレーション合同会社,,合同会社,神奈川県,川崎市中原区,中丸子１３番地７－３９０２号,,14,133,2110012,,,,,,,2023-08-16,1,,,,,ニシムラコーポレーション,0
352,2021001079912,新規,0,2023-08-16,2023-08-16,株式会社Ｔ．Ｔ．Ｎ,,株式会社,神奈川県,鎌倉市,腰越７９５番地,,14,204,2480033,,,,,,,2023-08-16,1,,,,,ティーティーエヌ,0
353,2021001079937,新規,0,2023-08-16,2023-08-16,ＰＬＡＮ‐Ｂ株式会社,,株式会社,神奈川県,鎌倉市,佐助１丁目２番１１号,,14,204,2480017,,,,,,,2023-08-16,1,,,,,プランビー,0
354,2021003013456,新規,0,2023-08-16,2023-08-16,合同会社タケシタ測量,,合同会社,神奈川県,茅ヶ崎市,今宿２５４番地６,,14,207,2530072,,,,,,,2023-08-16,1,,,,,タケシタソクリョウ,0
358,2030001155359,新規,0,2023-08-16,2023-08-16,株式会社ＺＥＸＵＳ,,株式会社,埼玉県,北本市,朝日４丁目８３番地２,,11,233,3640011,,,,,,,2023-08-16,1,,,,,ゼクサス,0
365,2030003022350,新規,0,2023-08-16,2023-08-16,ＮＫＢ　ＬＬＣ合同会社,,合同会社,埼玉県,川口市,弥平３丁目７番８号,,11,203,3320002,,,,,,,2023-08-16,1,,,,,エヌケービーエルエルシー,0
366,2030003022375,新規,0,2023-08-16,2023-08-16,合同会社ＳｗｉｆｔＢｏａｒ,,合同会社,埼玉県,鴻巣市,人形４丁目４番５２号,,11,217,3650037,,,,,,,2023-08-16,1,,,,,スイフトボア,0
369,2040001129502,新規,0,2023-08-16,2023-08-16,株式会社アローズエクスプレス,,株式会社,千葉県,船橋市,本中山２丁目６番７号,,12,204,2730035,,,,,,,2023-08-16,1,,,,,アローズエクスプレス,0
370,2040001129675,新規,0,2023-08-16,2023-08-16,株式会社Ｄ‐ｄａｙ,,株式会社,千葉県,成田市,橋賀台１丁目１番地（１棟３０１号）,,12,211,2860037,,,,,,,2023-08-16,1,,,,,ディーデイ,0
371,2040001129691,新規,0,2023-08-16,2023-08-16,株式会社３３ハウス,,株式会社,千葉県,市川市,南行徳２丁目６番２３－４０４号（ヴィエンナート南行徳）,,12,203,2720138,,,,,,,2023-08-16,1,,,,,サーティースリーハウス,0
372,2040001129700,新規,0,2023-08-16,2023-08-16,株式会社ケイユウ,,株式会社,千葉県,千葉市若葉区,みつわ台２丁目１３番１４号,,12,104,2640032,,,,,,,2023-08-16,1,,,,,ケイユウ,0
373,2040001129709,新規,0,2023-08-16,2023-08-16,株式会社アーディア,,株式会社,千葉県,松戸市,新松戸北２丁目５番地の７メゾン・エスポワール２０２号,,12,207,2700032,,,,,,,2023-08-16,1,,,,,アーディア,0
376,2040003023133,新規,0,2023-08-16,2023-08-16,合同会社うだつ社,,合同会社,千葉県,習志野市,津田沼１丁目３番１１号６階,,12,216,2750016,,,,,,,2023-08-16,1,,,,,ウダツシャ,0
379,2060001036259,新規,0,2023-08-16,2023-08-16,株式会社ルームパートナーズ,,株式会社,栃木県,小山市,駅東通り２丁目４０番３１号山中ビル３階,,09,208,3230022,,,,,,,2023-08-16,1,,,,,ルームパートナーズ,0
380,2060001036267,新規,0,2023-08-16,2023-08-16,ＫＡＳＨＩＷＡＨＯＭＥ株式会社,,株式会社,栃木県,下都賀郡壬生町,大字安塚１０９６番地７,,09,361,3210201,,,,,,,2023-08-16,1,,,,,カシワホーム,0
384,2090001018254,新規,0,2023-08-16,2023-08-16,株式会社ＫＩＲＩＮ,,株式会社,山梨県,甲府市,中央４丁目８番２号ウエスギビル４Ｆ,,19,201,4000032,,,,,,,2023-08-16,1,,,,,キリン,0
388,2100001036691,新規,0,2023-08-16,2023-08-16,株式会社マルイチ,,株式会社,長野県,上伊那郡箕輪町,大字中箕輪１８５１番地４,,20,383,3994601,,,,,,,2023-08-16,1,,,,,マルイチ,0
389,2100003007146,新規,0,2023-08-16,2023-08-16,華宜商事合同会社,,合同会社,長野県,諏訪市,赤羽根３番２４号,,20,206,3920011,,,,,,,2023-08-16,1,,,,,カイショウジ,0
398,2120001257154,新規,0,2023-08-16,2023-08-16,株式会社ＦＭＣ,,株式会社,大阪府,大阪市北区,豊崎３丁目１５－４ローツェＩＩ４０４号,00131542,27,127,5310072,,,,,,,2023-08-16,1,,,,,エフエムシー,0
399,2120001257204,新規,0,2023-08-16,2023-08-16,株式会社ＨＡＲＵ,,株式会社,大阪府,大阪市西成区,鶴見橋１丁目１６番２７号,,27,122,5570031,,,,,,,2023-08-16,1,,,,,ハル,0
400,2120001257286,新規,0,2023-08-16,2023-08-16,林森株式会社,,株式会社,大阪府,大阪市西成区,北津守４丁目９番６号,,27,122,5570061,,,,,,,2023-08-16,1,,,,,リンシン,0
404,2120003024718,新規,0,2023-08-16,2023-08-16,ａｔｅｌｉｅｒ．ｕ合同会社,,合同会社,大阪府,大阪市城東区,蒲生３丁目３番１４号,,27,118,5360016,,,,,,,2023-08-16,1,,,,,アトリエユー,0
409,2130001074953,新規,0,2023-08-16,2023-08-16,株式会社ＬｉｎｏＬＩＦＥ,,株式会社,京都府,向日市,物集女町出口３７番地の７,,26,208,6170001,,,,,,,2023-08-16,1,,,,,リノライフ,0
411,2140001131266,新規,0,2023-08-16,2023-08-16,株式会社ＫＲＴ,,株式会社,兵庫県,加古郡播磨町,二子２１３番地の１,,28,382,6750162,,,,,,,2023-08-16,1,,,,,ケーアールティー,0
412,2140003019427,新規,0,2023-08-16,2023-08-16,合同会社庭真,,合同会社,兵庫県,尼崎市,食満２丁目２２番２４号メゾンＩ２０３,00131550,28,202,6610982,,,,,,,2023-08-16,1,,,,,ニワシン,0
414,2140005026710,新規,0,2023-08-16,2023-08-16,一般社団法人日本ミンダナオ友好協会,,その他の設立登記法人,兵庫県,三木市,吉川町渡瀬５８番地,,28,215,6731129,,,,,,,2023-08-16,1,,,,,ニホンミンダナオユウコウキョウカイ,0
415,2150001026647,新規,0,2023-08-16,2023-08-16,みけねこ商会株式会社,,株式会社,奈良県,生駒市,小瀬町５５５番地２１,,29,209,6300223,,,,,,,2023-08-16,1,,,,,ミケネコショウカイ,0
416,2160001025268,新規,0,2023-08-16,2023-08-16,Ｇｙａｋｋｏｕ化粧品株式会社,,株式会社,滋賀県,草津市,南笠町１０８４番地４Ｓａｍ４,,25,206,5250056,,,,,,,2023-08-16,1,,,,,ギャッコウケショウヒン,0
418,2180001157646,新規,0,2023-08-16,2023-08-16,株式会社中部セキュリティサービス,,株式会社,愛知県,小牧市,大字岩崎５８番地１エクサーブＵＵ館３Ｄ号室,,23,219,4850011,,,,,,,2023-08-16,1,,,,,チュウブセキュリティサービス,0
419,2180001157654,新規,0,2023-08-16,2023-08-16,株式会社むつき,,株式会社,愛知県,名古屋市中区,栄１丁目７番２８号,,23,106,4600008,,,,,,,2023-08-16,1,,,,,ムツキ,0
420,2180001157662,新規,0,2023-08-16,2023-08-16,株式会社サクシード,,株式会社,愛知県,名古屋市中村区,中村本町５丁目３２番地,,23,105,4530828,,,,,,,2023-08-16,1,,,,,サクシード,0
421,2180001157670,新規,0,2023-08-16,2023-08-16,株式会社オムニホールディングス,,株式会社,愛知県,名古屋市東区,東桜１丁目１３番３号ＮＨＫ名古屋放送センタービル,,23,102,4610005,,,,,,,2023-08-16,1,,,,,オムニホールディングス,0
422,2180001157679,新規,0,2023-08-16,2023-08-16,株式会社一栄,,株式会社,愛知県,愛西市,町方町足立川３番地３６,,23,232,4968014,,,,,,,2023-08-16,1,,,,,イチエイ,0
423,2180001157695,新規,0,2023-08-16,2023-08-16,ＲＯＵＴＥ２０株式会社,,株式会社,愛知県,名古屋市東区,泉３丁目１７番１０号泉ビル３Ｆ,,23,102,4610001,,,,,,,2023-08-16,1,,,,,ルートトゥエンティー,0
426,2180003025636,新規,0,2023-08-16,2023-08-16,合同会社ＴＯＰ,,合同会社,愛知県,名古屋市千種区,内山３丁目３３番１４号,,23,101,4640075,,,,,,,2023-08-16,1,,,,,トップ,0
430,2190003004408,新規,0,2023-08-16,2023-08-16,合同会社岸田村,,合同会社,三重県,伊賀市,島ヶ原１２７０,,24,216,5191711,,,,,,,2023-08-16,1,,,,,キシダムラ,0
434,2220001025559,新規,0,2023-08-16,2023-08-16,株式会社かがやき薬局,,株式会社,石川県,加賀市,横北町ハ２９番地,,17,206,9220261,,,,,,,2023-08-16,1,,,,,カガヤキヤッキョク,0
436,2230001019972,新規,0,2023-08-16,2023-08-16,株式会社ヤマテック,,株式会社,富山県,氷見市,早借９４７番地,,16,205,9350255,,,,,,,2023-08-16,1,,,,,ヤマテック,0
445,2290001102715,新規,0,2023-08-16,2023-08-16,株式会社橋建工業,,株式会社,福岡県,三井郡大刀洗町,大字本郷４７４１番地３,,40,503,8301211,,,,,,,2023-08-16,1,,,,,ハシケンコウギョウ,0
446,2290001102723,新規,0,2023-08-16,2023-08-16,リテラスワン株式会社,,株式会社,福岡県,福岡市中央区,今泉１丁目２番３０号,,40,133,8100021,,,,,,,2023-08-16,1,,,,,リテラスワン,0
450,2290801029802,新規,0,2023-08-16,2023-08-16,株式会社ＮＡＫＡＥＢＩＳＵ,,株式会社,福岡県,北九州市若松区,花野路２丁目５番７号,,40,103,8080136,,,,,,,2023-08-16,1,,,,,ナカエビス,0
452,2320001019947,新規,0,2023-08-16,2023-08-16,株式会社一城塗装,,株式会社,大分県,大分市,大字荏隈１８５番地４,,44,201,8700889,,,,,,,2023-08-16,1,,,,,イチジョウトソウ,0
453,2330001031158,新規,0,2023-08-16,2023-08-16,株式会社桜クリエイト,,株式会社,熊本県,熊本市中央区,桜町５番１７号サクラテラス７０３号室,,43,101,8600805,,,,,,,2023-08-16,1,,,,,サクラクリエイト,0
460,2350001018517,新規,0,2023-08-16,2023-08-16,株式会社真和工建,,株式会社,宮崎県,都城市,鷹尾１丁目１７－７,,45,202,8850081,,,,,,,2023-08-16,1,,,,,シンワコウケン,0
461,2350003004416,新規,0,2023-08-16,2023-08-16,合同会社百穂,,合同会社,宮崎県,都城市,菖蒲原町３街区５号,,45,202,8850034,,,,,,,2023-08-16,1,,,,,ヒャクスイ,0
466,2360003013184,新規,0,2023-08-16,2023-08-16,合同会社オトコマエ,,合同会社,沖縄県,宮古島市,平良字東仲宗根７００番地１１プラージュガーデンプレイスＢ－１０１,,47,214,9060007,,,,,,,2023-08-16,1,,,,,オトコマエ,0
473,2380001033926,新規,0,2023-08-16,2023-08-16,ユーディーテクノス株式会社,,株式会社,福島県,田村郡三春町,大字下舞木字蛇田６１番地の３３,,07,521,9637731,,,,,,,2023-08-16,1,,,,,ユーディーテクノス,0
480,2420003002775,新規,0,2023-08-16,2023-08-16,合同会社志音,,合同会社,青森県,青森市,浜田１丁目４－１２,,02,201,0300843,,,,,,,2023-08-16,1,,,,,シオン,0
483,2430001089665,新規,0,2023-08-16,2023-08-16,株式会社ＳＴＵＤＩＯ　ＭＥＳ,,株式会社,北海道,札幌市中央区,宮の森二条１３丁目１０番２２号,,01,101,0640952,,,,,,,2023-08-16,1,,,,,スタジオメス,0
484,2430001089723,新規,0,2023-08-16,2023-08-16,株式会社ＲＥ,,株式会社,北海道,札幌市中央区,南十五条西１９丁目１－３３－２０２,,01,101,0640915,,,,,,,2023-08-16,1,,,,,アールイー,0
485,2430001089764,新規,0,2023-08-16,2023-08-16,株式会社フレンドホーム,,株式会社,北海道,札幌市中央区,宮の森三条５丁目１番１２号,,01,101,0640953,,,,,,,2023-08-16,1,,,,,フレンドホーム,0
486,2430001089772,新規,0,2023-08-16,2023-08-16,株式会社ＣａｎｖａｓＲｏｏｔｓ,,株式会社,北海道,札幌市西区,西野四条２丁目９番１４号,,01,107,0630034,,,,,,,2023-08-16,1,,,,,キャンバスルーツ,0
487,2430001089780,新規,0,2023-08-16,2023-08-16,株式会社オブジェ,,株式会社,北海道,札幌市北区,あいの里二条６丁目３番３－１０２号,,01,102,0028072,,,,,,,2023-08-16,1,,,,,オブジェ,0
489,2490003001804,新規,0,2023-08-16,2023-08-16,合同会社五衛門,,合同会社,高知県,高知市,帯屋町２丁目４番１－２号,,39,201,7800841,,,,,,,2023-08-16,1,,,,,ゴエモン,0
492,2700150119030,新規,0,2023-08-16,2023-08-16,Ｄ　ＲＩＳＥ　ＬＩＭＩＴＥＤ,,外国会社等,東京都,港区,赤坂９丁目４番１号パークコート赤坂檜町ザ・タワー２９０１号室,,13,103,1070052,Ｂｏｘ９０５，Ｑｕａｓｔｉｓｋｙ　Ｂｕｉｌｄｉｎｇ，Ｒｏａｄ　Ｔｏｗｎ，Ｔｏｒｔｏｌａ，Ｂｒｉｔｉｓｈ　Ｖｉｒｇｉｎ　Ｉｓｌａｎｄｓ,,,,,,2023-08-16,1,,,,,デイーライズリミテツド,0
501,3010001237711,新規,0,2023-08-16,2023-08-16,株式会社スキルアップサポート,,株式会社,東京都,中央区,八重洲１丁目５－２０東京建物八重洲さくら通りビル１Ｆ,,13,102,1030028,,,,,,,2023-08-16,1,,,,,スキルアップサポート,0
502,3010001237728,新規,0,2023-08-16,2023-08-16,株式会社クニタカ酵素ラボ,,株式会社,東京都,中央区,銀座１丁目２７－７ＴＲＵＳＴＶＡＬＵＥ銀座一丁目５階,,13,102,1040061,,,,,,,2023-08-16,1,,,,,クニタカコウソラボ,0
503,3010001237736,新規,0,2023-08-16,2023-08-16,ＪＰＣ第４３号株式会社,,株式会社,東京都,千代田区,霞が関３丁目２番１号,,13,101,1000013,,,,,,,2023-08-16,1,,,,,ジェイピーシーダイヨンジュウサンゴウ,0
504,3010001237744,新規,0,2023-08-16,2023-08-16,ＦＡＳＴＥＣＸ株式会社,,株式会社,東京都,中央区,日本橋小舟町８番６号Ｈ１Ｏ日本橋小舟町７０８区画,,13,102,1030024,,,,,,,2023-08-16,1,,,,,ファステックス,0
505,3010001237752,新規,0,2023-08-16,2023-08-16,株式会社アイディール,,株式会社,東京都,中央区,銀座１丁目２２番１１号,,13,102,1040061,,,,,,,2023-08-16,1,,,,,アイディール,0
506,3010001237760,新規,0,2023-08-16,2023-08-16,ＲＨ　Ｓｔｒａｔｅｇｙ　ａｎｄ　Ｃｏｎｓｕｌｔｉｎｇ株式会社,,株式会社,東京都,中央区,銀座７丁目５－４毛利ビル５階,,13,102,1040061,,,,,,,2023-08-16,1,,,,,アールエイチストラテジーアンドコンサルティング,0
507,3010001237785,新規,0,2023-08-16,2023-08-16,株式会社獅勇,,株式会社,東京都,中央区,晴海２丁目２番４２－２３０６号,,13,102,1040053,,,,,,,2023-08-16,1,,,,,シユウ,0
510,3010003041368,新規,0,2023-08-16,2023-08-16,ＬＥＶＥＣＨＹファンド６号合同会社,,合同会社,東京都,千代田区,紀尾井町３－８第２紀尾井町ビル９０１アクシス綜合会計事務所内,,13,101,1020094,,,,,,,2023-08-16,1,,,,,レベチーファンドロクゴウ,0
511,3010003041401,新規,0,2023-08-16,2023-08-16,ＯＬＵＮＡ合同会社,,合同会社,東京都,千代田区,霞が関３丁目２番５号,,13,101,1000013,,,,,,,2023-08-16,1,,,,,オールナ,0
512,3010005037125,新規,0,2023-08-16,2023-08-16,一般社団法人再生先進医療国際交流協会,,その他の設立登記法人,東京都,中央区,八丁堀１丁目７番７号八重洲レザンビル６Ｆ,,13,102,1040032,,,,,,,2023-08-16,1,,,,,サイセイセンシンイリョウコクサイコウリュウキョウカイ,0
515,3010401176311,新規,0,2023-08-16,2023-08-16,株式会社ＡＣＣＡＭ,,株式会社,東京都,港区,芝２丁目２４番３号,,13,103,1050014,,,,,,,2023-08-16,1,,,,,アッキャム,0
516,3010401176427,新規,0,2023-08-16,2023-08-16,株式会社ｔｙｔｙ,,株式会社,東京都,港区,芝大門２丁目１－１８－６０９号,,13,103,1050012,,,,,,,2023-08-16,1,,,,,ティティ,0
519,3010403030706,新規,0,2023-08-16,2023-08-16,合同会社ＮＥＳＹＫ,,合同会社,東京都,港区,芝浦４丁目１９番１－４４０１号,,13,103,1080023,,,,,,,2023-08-16,1,,,,,ネスワイケー,0
520,3010403030714,新規,0,2023-08-16,2023-08-16,産経新聞販売合同会社,,合同会社,東京都,港区,浜松町１丁目１８番１１号,,13,103,1050013,,,,,,,2023-08-16,1,,,,,サンケイシンブンハンバイ,0
523,3010501050837,新規,0,2023-08-16,2023-08-16,株式会社ジーブイ,,株式会社,東京都,台東区,台東３丁目５番４号－６Ｆ,,13,106,1100016,,,,,,,2023-08-16,1,,,,,ジーブイ,0
527,3010601063623,新規,0,2023-08-16,2023-08-16,タスカル株式会社,,株式会社,東京都,墨田区,東向島２丁目３０－１０アン・シズ１Ｆ,,13,107,1310032,,,,,,,2023-08-16,1,,,,,タスカル,0
528,3010601063631,新規,0,2023-08-16,2023-08-16,株式会社アイエムワン・デス・セキュリティ,,株式会社,東京都,墨田区,両国２丁目１０番１６号住友不動産両国ビル別館８階（株）ＭＥＤｉＣＡＰＲＯ内,00131543,13,107,1300026,,,,,,,2023-08-16,1,,,,,アイエムワンデスセキュリティ,0
536,3010901053605,新規,0,2023-08-16,2023-08-16,株式会社Ｍｕｓｅ　ｆａｃｔｏｒｙ,,株式会社,東京都,世田谷区,代沢５丁目２４番１号,,13,112,1550032,,,,,,,2023-08-16,1,,,,,ミューズファクトリー,0
537,3010901053638,新規,0,2023-08-16,2023-08-16,株式会社ロカデザインラボ,,株式会社,東京都,世田谷区,奥沢１丁目６番７号,,13,112,1580083,,,,,,,2023-08-16,1,,,,,ロカデザインラボ,0
538,3010901053654,新規,0,2023-08-16,2023-08-16,株式会社バター,,株式会社,東京都,世田谷区,野毛３丁目１９番４－２０３号,,13,112,1580092,,,,,,,2023-08-16,1,,,,,バター,0
545,3011001156232,新規,0,2023-08-16,2023-08-16,Ｃｏｓｉｎｕｓ株式会社,,株式会社,東京都,渋谷区,道玄坂１丁目１０番８号渋谷道玄坂東急ビル２Ｆ－Ｃ,,13,113,1500043,,,,,,,2023-08-16,1,,,,,コシニアス,0
546,3011001156348,新規,0,2023-08-16,2023-08-16,株式会社ＨＴＨ,,株式会社,東京都,目黒区,平町２丁目９番２１号,,13,110,1520032,,,,,,,2023-08-16,1,,,,,エイチティーエイチ,0
547,3011001156380,新規,0,2023-08-16,2023-08-16,Ｗｅｎｅｔｗｏｒｋ株式会社,,株式会社,東京都,渋谷区,千駄ヶ谷５丁目２７番５号ＷｅＷｏｒｋリンクスクエア新宿,,13,113,1510051,,,,,,,2023-08-16,1,,,,,ウィネットワーク,0
548,3011001156422,新規,0,2023-08-16,2023-08-16,株式会社ＮＯＡＨ,,株式会社,東京都,目黒区,東が丘１丁目３番１７号フラットＫ柿の木坂２０１,,13,110,1520021,,,,,,,2023-08-16,1,,,,,ノア,0
556,3011101103984,新規,0,2023-08-16,2023-08-16,Ｏｎｅ’ｓ　Ｒｏｏｍ株式会社,,株式会社,東京都,新宿区,愛住町２２番地,,13,104,1600005,,,,,,,2023-08-16,1,,,,,ワンズルーム,0
557,3011101104017,新規,0,2023-08-16,2023-08-16,ＳｔｙｌｅＡＩ株式会社,,株式会社,東京都,新宿区,西新宿３丁目３番１３号西新宿水間ビル２Ｆ,,13,104,1600023,,,,,,,2023-08-16,1,,,,,スタイルエーアイ,0
560,3011303004865,新規,0,2023-08-16,2023-08-16,合同会社フラミンゴスタジオ,,合同会社,東京都,杉並区,高円寺北４丁目２９番２－３０２号,,13,115,1660002,,,,,,,2023-08-16,1,,,,,フラミンゴスタジオ,0
561,3011401025375,新規,0,2023-08-16,2023-08-16,株式会社ＥＩＲ,,株式会社,東京都,板橋区,大山東町１２番３号レジデンス・ケン２０３,,13,119,1730014,,,,,,,2023-08-16,1,,,,,エイル,0
564,3011501029656,新規,0,2023-08-16,2023-08-16,ＴＯＫＩ株式会社,,株式会社,東京都,北区,浮間３丁目１０－２３－１０２,,13,117,1150051,,,,,,,2023-08-16,1,,,,,トキ,0
565,3011501029664,新規,0,2023-08-16,2023-08-16,株式会社エル・ビルディング,,株式会社,東京都,北区,赤羽２丁目４９番３－１００１号,,13,117,1150045,,,,,,,2023-08-16,1,,,,,エルビルディング,0
567,3011603004020,新規,0,2023-08-16,2023-08-16,合同会社Ｏｎｅ’ｓＨｏｕｓｅ,,合同会社,東京都,練馬区,関町南２丁目２５番９号,,13,120,1770053,,,,,,,2023-08-16,1,,,,,ワンズハウス,0
568,3011701026528,新規,0,2023-08-16,2023-08-16,インドルーツ株式会社,,株式会社,東京都,江戸川区,中葛西５丁目２番２９号,,13,123,1340083,,,,,,,2023-08-16,1,,,,,インドルーツ,0
569,3011705001790,新規,0,2023-08-16,2023-08-16,一般社団法人未病対策ウェルネス協会,,その他の設立登記法人,東京都,江戸川区,西葛西５丁目６番１７－６０２号,,13,123,1340088,,,,,,,2023-08-16,1,,,,,ミビョウタイサクウェルネスキョウカイ,0
575,3012303001860,新規,0,2023-08-16,2023-08-16,合同会社佐藤興業,,合同会社,東京都,町田市,根岸町１００４番地１２サンモーレＡ,,13,209,1940034,,,,,,,2023-08-16,1,,,,,サトウコウギョウ,0
576,3012401040868,新規,0,2023-08-16,2023-08-16,株式会社Ｓ＆Ｍ　ＧＬＯＢＡＬ,,株式会社,東京都,調布市,布田４丁目２１番地１,,13,208,1820024,,,,,,,2023-08-16,1,,,,,エスアンドエムグローバル,0
579,3013301051212,新規,0,2023-08-16,2023-08-16,株式会社鴻源,,株式会社,東京都,豊島区,西池袋５丁目２６－１６ＣＨＩＢＡビル４１６号,,13,116,1710021,,,,,,,2023-08-16,1,,,,,コウゲン,0
581,3013303006767,新規,0,2023-08-16,2023-08-16,ＮＩＣＯＺＥＲＯ合同会社,,合同会社,東京都,豊島区,東池袋４丁目６番１０号ルナ大住ビル４Ｆ,,13,116,1700013,,,,,,,2023-08-16,1,,,,,ニコゼロ,0
588,3020001153024,新規,0,2023-08-16,2023-08-16,株式会社あなたの賃貸,,株式会社,神奈川県,横浜市旭区,本村町１０１番地２第７パレス桜咲１－１,,14,112,2410024,,,,,,,2023-08-16,1,,,,,アナタノチンタイ,0
589,3020001153032,新規,0,2023-08-16,2023-08-16,株式会社Ａｒｇｏｎａｕｔｓ,,株式会社,神奈川県,川崎市麻生区,はるひ野２丁目２７番１４号,,14,137,2150036,,,,,,,2023-08-16,1,,,,,アルゴノーツ,0
590,3020001153040,新規,0,2023-08-16,2023-08-16,株式会社ＵＮＩＷＯＲＫＳ,,株式会社,神奈川県,横浜市中区,本牧町２丁目３１７番地１－３０１号室,,14,104,2310806,,,,,,,2023-08-16,1,,,,,ユニワークス,0
593,3020003024405,新規,0,2023-08-16,2023-08-16,フローズンカンパニー合同会社,,合同会社,神奈川県,横浜市鶴見区,駒岡４丁目１番２号,,14,101,2300071,,,,,,,2023-08-16,1,,,,,フローズンカンパニー,0
594,3020005016086,新規,0,2023-08-16,2023-08-16,一般社団法人ライフ・フィナーレ,,その他の設立登記法人,神奈川県,川崎市多摩区,布田１８番２２号,,14,135,2140011,,,,,,,2023-08-16,1,,,,,ライフフィナーレ,0
600,3021001079936,新規,0,2023-08-16,2023-08-16,ＦＭハウス鎌倉株式会社,,株式会社,神奈川県,鎌倉市,上町屋６７０番地,,14,204,2470065,,,,,,,2023-08-16,1,,,,,エフエムハウスカマクラ,0
601,3021001079952,新規,0,2023-08-16,2023-08-16,アジアサインエージェント株式会社,,株式会社,神奈川県,足柄上郡開成町,吉田島４３０５番地,,14,366,2580021,,,,,,,2023-08-16,1,,,,,アジアサインエージェント,0
605,3021003013455,新規,0,2023-08-16,2023-08-16,合同会社アクセル,,合同会社,神奈川県,横須賀市,船越町６丁目６３番地１０,,14,201,2370076,,,,,,,2023-08-16,1,,,,,アクセル,0
615,3030001155440,新規,0,2023-08-16,2023-08-16,株式会社Ｙ’ｓ　ＡＲＭ,,株式会社,埼玉県,坂戸市,大字横沼７３１番地４３,,11,239,3500203,,,,,,,2023-08-16,1,,,,,ワイズアーム,0
618,3030005021358,新規,0,2023-08-16,2023-08-16,一般社団法人ケアの方舟,,その他の設立登記法人,埼玉県,さいたま市岩槻区,並木２丁目５番２－７０５号,,11,110,3390068,,,,,,,2023-08-16,1,,,,,ケアノハコブネ,0
622,3040001129708,新規,0,2023-08-16,2023-08-16,株式会社吉美商事,,株式会社,千葉県,松戸市,根本２３８番地の６－２０２号室,,12,207,2710077,,,,,,,2023-08-16,1,,,,,ヨシミショウジ,0
624,3050001053312,新規,0,2023-08-16,2023-08-16,株式会社ハマダヤ,,株式会社,茨城県,水戸市,河和田町３８９１番地１０５,,08,201,3114153,,,,,,,2023-08-16,1,,,,,ハマダヤ,0
627,3060001036266,新規,0,2023-08-16,2023-08-16,株式会社ＦＵＪＩエナジック,,株式会社,栃木県,栃木市,都賀町家中２６７１番地１７,,09,203,3280111,,,,,,,2023-08-16,1,,,,,フジエナジック,0
631,3080103002874,新規,0,2023-08-16,2023-08-16,合同会社クラフト会計,,合同会社,静岡県,伊東市,鎌田９８７番地の１城平住宅Ａ棟３０５号,,22,208,4140054,,,,,,,2023-08-16,1,,,,,クラフトカイケイ,0
634,3080401026658,新規,0,2023-08-16,2023-08-16,Ｒｅ・ＡＳＴＥＰ株式会社,,株式会社,静岡県,浜松市浜北区,染地台４丁目１６番４号,,22,136,4340046,,,,,,,2023-08-16,1,,,,,リアステップ,0
635,3090001018253,新規,0,2023-08-16,2023-08-16,勘助圧送株式会社,,株式会社,山梨県,南都留郡道志村,１０２１９番地５,,19,422,4020200,,,,,,,2023-08-16,1,,,,,カンスケアッソウ,0
637,3100001036690,新規,0,2023-08-16,2023-08-16,株式会社Ｂｅｓｔ商事,,株式会社,長野県,長野市,三輪６丁目２６番３０－２０３号サンライトビルＩＩ,00131545,20,201,3800803,,,,,,,2023-08-16,1,,,,,ベストショウジ,0
645,3110005016985,新規,0,2023-08-16,2023-08-16,一般社団法人雪室保蔵協会,,その他の設立登記法人,新潟県,長岡市,川崎２丁目２４６８番地５,,15,202,9400864,,,,,,,2023-08-16,1,,,,,ユキムロホゾウキョウカイ,0
652,3120001257079,新規,0,2023-08-16,2023-08-16,株式会社ｆｏｒｅｓｉｇｈｔ,,株式会社,大阪府,大阪市北区,南森町２丁目３－１１－１００５,,27,127,5300054,,,,,,,2023-08-16,1,,,,,フォレサイト,0
653,3120001257120,新規,0,2023-08-16,2023-08-16,株式会社ＢＯＯＮ,,株式会社,大阪府,大阪市中央区,千日前１丁目７－６禅ラボビル,,27,128,5420074,,,,,,,2023-08-16,1,,,,,ブーン,0
654,3120001257145,新規,0,2023-08-16,2023-08-16,株式会社ホシミツ,,株式会社,大阪府,大阪市西成区,鶴見橋２丁目２番１４号,,27,122,5570031,,,,,,,2023-08-16,1,,,,,ホシミツ,0
655,3120001257244,新規,0,2023-08-16,2023-08-16,サクシード株式会社,,株式会社,大阪府,大阪市中央区,北浜３丁目５番２２号,,27,128,5410041,,,,,,,2023-08-16,1,,,,,サクシード,0
656,3120001257269,新規,0,2023-08-16,2023-08-16,株式会社スカイライフ,,株式会社,大阪府,枚方市,高田２丁目６番１５－３０２号,,27,210,5730073,,,,,,,2023-08-16,1,,,,,スカイライフ,0
657,3120001257293,新規,0,2023-08-16,2023-08-16,ＡＫＯ株式会社,,株式会社,大阪府,大阪市東淀川区,西淡路５丁目６番６号,,27,114,5330031,,,,,,,2023-08-16,1,,,,,エーケーオー,0
660,3120003024700,新規,0,2023-08-16,2023-08-16,ＬＫＲ合同会社,,合同会社,大阪府,大阪市中央区,南船場２丁目１１番４号エースビル２０５,,27,128,5420081,,,,,,,2023-08-16,1,,,,,エルケーアール,0
661,3120003024741,新規,0,2023-08-16,2023-08-16,小西メディカルサービス合同会社,,合同会社,大阪府,大阪市住吉区,万代３丁目１番１６号コミュニティハウス３０２号,,27,120,5580055,,,,,,,2023-08-16,1,,,,,コニシメディカルサービス,0
666,3120905006515,新規,0,2023-08-16,2023-08-16,一般社団法人サウンドメッセ,,その他の設立登記法人,大阪府,吹田市,江坂町１丁目２０番１３号,,27,205,5640063,,,,,,,2023-08-16,1,,,,,サウンドメッセ,0
669,3130001074936,新規,0,2023-08-16,2023-08-16,株式会社エティー,,株式会社,京都府,京都市中京区,三条通富小路上る福長町１０１番地ＳＡＣＲＡＡＮＮＥＸ３０２,,26,104,6040000,,,,,,,2023-08-16,1,,,,,エティー,0
675,3140001131257,新規,0,2023-08-16,2023-08-16,株式会社ＳＴグロース,,株式会社,兵庫県,神戸市東灘区,深江南町２丁目１２番３１－１号,,28,101,6580022,,,,,,,2023-08-16,1,,,,,エスティーグロース,0
677,3140003019426,新規,0,2023-08-16,2023-08-16,ｔｅｃｈひと天合同会社,,合同会社,兵庫県,神戸市須磨区,妙法寺字ぬめり石６番地の４サンヴェール須磨妙法寺７２３号,,28,107,6540121,,,,,,,2023-08-16,1,,,,,テックヒトソラ,0
678,3140003019434,新規,0,2023-08-16,2023-08-16,Ｓａｎ　Ｄａｎ合同会社,,合同会社,兵庫県,神戸市長田区,菅原通５丁目３４番地,,28,106,6530015,,,,,,,2023-08-16,1,,,,,サンダン,0
679,3150003003032,新規,0,2023-08-16,2023-08-16,魚太商店合同会社,,合同会社,奈良県,奈良市,大宮町３丁目１番１６号,,29,201,6308115,,,,,,,2023-08-16,1,,,,,ウオタショウテン,0
681,3160001025267,新規,0,2023-08-16,2023-08-16,株式会社飛田グループ,,株式会社,滋賀県,守山市,金森町７７４番地,,25,207,5240045,,,,,,,2023-08-16,1,,,,,ヒダグループ,0
682,3160003002958,新規,0,2023-08-16,2023-08-16,合同会社ＫＩＴＡＧＡＷＡケアサービス,,合同会社,滋賀県,犬上郡甲良町,大字尼子１３２５番地,,25,442,5220242,,,,,,,2023-08-16,1,,,,,キタガワケアサービス,0
692,3180001157612,新規,0,2023-08-16,2023-08-16,ニルシャントレーディング株式会社,,株式会社,愛知県,長久手市,東山１５９４番地５８,,23,238,4801318,,,,,,,2023-08-16,1,,,,,ニルシャントレーディング,0
693,3180001157629,新規,0,2023-08-16,2023-08-16,株式会社グロアス,,株式会社,愛知県,名古屋市西区,牛島町６番１号名古屋ルーセントタワー４０階,,23,104,4510046,,,,,,,2023-08-16,1,,,,,グロアス,0
694,3180001157637,新規,0,2023-08-16,2023-08-16,株式会社リミテッド,,株式会社,愛知県,名古屋市中区,大須３丁目３０－９３,,23,106,4600011,,,,,,,2023-08-16,1,,,,,リミテッド,0
695,3180001157653,新規,0,2023-08-16,2023-08-16,株式会社伊藤金属製作所,,株式会社,愛知県,瀬戸市,台六町５１７番地の２,,23,204,4890954,,,,,,,2023-08-16,1,,,,,イトウキンゾクセイサクショ,0
696,3180001157661,新規,0,2023-08-16,2023-08-16,株式会社ベストツール,,株式会社,愛知県,名古屋市緑区,鳴丘２丁目５０２番地の２,,23,114,4580005,,,,,,,2023-08-16,1,,,,,ベストツール,0
697,3180001157686,新規,0,2023-08-16,2023-08-16,株式会社アールアイメディア,,株式会社,愛知県,名古屋市中区,丸の内２丁目１６番８号２階,,23,106,4600002,,,,,,,2023-08-16,1,,,,,アールアイメディア,0
700,3180003025635,新規,0,2023-08-16,2023-08-16,合同会社ナインティワン,,合同会社,愛知県,瀬戸市,上之山町３丁目１０６番地,,23,204,4890964,,,,,,,2023-08-16,1,,,,,ナインティワン,0
704,3190001030669,新規,0,2023-08-16,2023-08-16,ｙｕｎｏ工房株式会社,,株式会社,三重県,名張市,富貴ケ丘１番町１６３番地,,24,208,5180414,,,,,,,2023-08-16,1,,,,,ユノコウボウ,0
707,3210001019429,新規,0,2023-08-16,2023-08-16,ルクール株式会社,,株式会社,福井県,福井市,高木中央３丁目２１０１,,18,201,9100804,,,,,,,2023-08-16,1,,,,,ルクール,0
708,3220001025566,新規,0,2023-08-16,2023-08-16,株式会社ＫＴＧＥ,,株式会社,石川県,金沢市,片町１丁目１番１号（プレミスト香林坊・１４０１号）,,17,201,9200981,,,,,,,2023-08-16,1,,,,,ケーティージーイー,0
716,3240001061997,新規,0,2023-08-16,2023-08-16,株式会社ＮＩＴ,,株式会社,広島県,東広島市,西条本町１３番１１号,,34,212,7390011,,,,,,,2023-08-16,1,,,,,エヌアイティ,0
721,3250001020250,新規,0,2023-08-16,2023-08-16,株式会社ユウシン,,株式会社,山口県,熊毛郡田布施町,大字下田布施７２０番地３,,35,343,7421511,,,,,,,2023-08-16,1,,,,,ユウシン,0
727,3290001102689,新規,0,2023-08-16,2023-08-16,株式会社ＭＹフーズ,,株式会社,福岡県,福岡市城南区,七隈４丁目１４－１４レジデンスセンジュＢ棟１０２号室,,40,136,8140133,,,,,,,2023-08-16,1,,,,,エムワイフーズ,0
728,3290001102697,新規,0,2023-08-16,2023-08-16,株式会社ｍｉｏ．,,株式会社,福岡県,福岡市博多区,上川端町４番２３６号３Ｆ,,40,132,8120026,,,,,,,2023-08-16,1,,,,,ミオ,0
729,3290001102706,新規,0,2023-08-16,2023-08-16,広久水産加工株式会社,,株式会社,福岡県,福岡市東区,香椎浜ふ頭２丁目３番２４号,,40,131,8130018,,,,,,,2023-08-16,1,,,,,ヒロキュウスイサンカコウ,0
730,3290001102714,新規,0,2023-08-16,2023-08-16,ｂｅａｒｓ株式会社,,株式会社,福岡県,福岡市城南区,樋井川６丁目６番１号,,40,136,8140153,,,,,,,2023-08-16,1,,,,,ベアーズ,0
731,3290003014239,新規,0,2023-08-16,2023-08-16,合同会社Ａｆｕｒａ,,合同会社,福岡県,福岡市博多区,麦野４丁目６番１３－２０１号,,40,132,8120882,,,,,,,2023-08-16,1,,,,,アフラ,0
733,3290005019129,新規,0,2023-08-16,2023-08-16,特定非営利活動法人ＮＰＯこどもあった丸,,その他の設立登記法人,福岡県,福岡市東区,香椎浜４丁目７番８－３０３号ネクサス香椎,,40,131,8130016,,,,,,,2023-08-16,1,,,,,トクテイヒエリカツドウホウジンエヌピーオーコドモアッタマル,0
737,3330001031157,新規,0,2023-08-16,2023-08-16,株式会社オニオンオフィス,,株式会社,熊本県,熊本市中央区,本荘町６５３番地３（１３０１号）,,43,101,8600816,,,,,,,2023-08-16,1,,,,,,0
745,3350003004415,新規,0,2023-08-16,2023-08-16,合同会社エイムのあそびば,,合同会社,宮崎県,西都市,大字右松５７６番地１,,45,208,8810003,,,,,,,2023-08-16,1,,,,,エイムノアソビバ,0
758,3380001033925,新規,0,2023-08-16,2023-08-16,ホバラ施設株式会社,,株式会社,福島県,伊達市,保原町字柏町６４番地３,,07,213,9600651,,,,,,,2023-08-16,1,,,,,ホバラシセツ,0
768,3430001089771,新規,0,2023-08-16,2023-08-16,株式会社レモ,,株式会社,北海道,札幌市西区,西野五条３丁目３番１１号,,01,107,0630035,,,,,,,2023-08-16,1,,,,,レモ,0
785,4010001237685,新規,0,2023-08-16,2023-08-16,株式会社ＩＮＯ,,株式会社,東京都,中央区,銀座１丁目２２番１１号銀座大竹ビジデンス２Ｆ,,13,102,1040061,,,,,,,2023-08-16,1,,,,,アイエヌオー,0
786,4010001237693,新規,0,2023-08-16,2023-08-16,株式会社ＳＧホールディングス,,株式会社,東京都,文京区,本郷２丁目３４番９号,,13,105,1130033,,,,,,,2023-08-16,1,,,,,エスジーホールディングス,0
787,4010001237719,新規,0,2023-08-16,2023-08-16,そとごはん株式会社,,株式会社,東京都,千代田区,九段北４丁目３番２０号６階,,13,101,1020073,,,,,,,2023-08-16,1,,,,,ソトゴハン,0
788,4010001237735,新規,0,2023-08-16,2023-08-16,ＪＰＣ第４２号株式会社,,株式会社,東京都,千代田区,霞が関３丁目２番１号,,13,101,1000013,,,,,,,2023-08-16,1,,,,,ジェイピーシーダイヨンジュウニゴウ,0
789,4010001237751,新規,0,2023-08-16,2023-08-16,株式会社Ｇｅｂｏｒｇｅｎｈｅｉｔ,,株式会社,東京都,千代田区,神田猿楽町２丁目１番８号,,13,101,1010064,,,,,,,2023-08-16,1,,,,,ゲボーゲンハイト,0
790,4010001237784,新規,0,2023-08-16,2023-08-16,株式会社ＲＵＺＯ,,株式会社,東京都,中央区,入船３丁目２－９,,13,102,1040042,,,,,,,2023-08-16,1,,,,,ルゾー,0
793,4010003041383,新規,0,2023-08-16,2023-08-16,ＭＫＬ合同会社,,合同会社,東京都,千代田区,四番町４番地９（新東京国際リーガル内）,,13,101,1020081,,,,,,,2023-08-16,1,,,,,エムケーエル,0
794,4010003041400,新規,0,2023-08-16,2023-08-16,合同会社プロラリー,,合同会社,東京都,中央区,銀座１丁目１２－４Ｎ＆Ｅ、ＢＬＤ．７階,,13,102,1040061,,,,,,,2023-08-16,1,,,,,プロラリー,0
795,4010005037132,新規,0,2023-08-16,2023-08-16,ＯＵＲＢＡＮ一般社団法人,,その他の設立登記法人,東京都,千代田区,霞が関３丁目２番５号,,13,101,1000013,,,,,,,2023-08-16,1,,,,,オーアーバン,0
801,4010401176260,新規,0,2023-08-16,2023-08-16,株式会社ＢＷＢ　Ｊａｐａｎ,,株式会社,東京都,港区,虎ノ門２丁目１０番１号,,13,103,1050001,,,,,,,2023-08-16,1,,,,,ビーダブリュビージャパン,0
802,4010401176335,新規,0,2023-08-16,2023-08-16,ピーチツリー・フーズ・ジャパン株式会社,,株式会社,東京都,港区,元麻布３丁目１番６号,,13,103,1060046,,,,,,,2023-08-16,1,,,,,ピーチツリーフーズジャパン,0
803,4010401176401,新規,0,2023-08-16,2023-08-16,株式会社セントアクア,,株式会社,東京都,港区,赤坂３丁目１６番５号,,13,103,1070052,,,,,,,2023-08-16,1,,,,,セントアクア,0
804,4010401176491,新規,0,2023-08-16,2023-08-16,株式会社ＳＫＲコンサルティング,,株式会社,東京都,港区,北青山１丁目３番１号アールキューブ青山３階,,13,103,1070061,,,,,,,2023-08-16,1,,,,,エスケーアールコンサルティング,0
805,4010401176509,新規,0,2023-08-16,2023-08-16,Ｌａ　Ｐｌａｃｅ　Ｎｉｃｏ株式会社,,株式会社,東京都,港区,麻布十番３丁目１番４号ＧＳハイム麻布十番東山５０２,,13,103,1060045,,,,,,,2023-08-16,1,,,,,ラプラスニコ,0
807,4010403030713,新規,0,2023-08-16,2023-08-16,合同会社ファイブチャレンジ,,合同会社,東京都,港区,南青山３丁目１番３６号青山丸竹ビル６階,,13,103,1070062,,,,,,,2023-08-16,1,,,,,ファイブチャレンジ,0
808,4010403030721,新規,0,2023-08-16,2023-08-16,Ｌｏｔｕｓ　Ｂａｋｅｒｉｅｓ　Ｊａｐａｎ合同会社,,合同会社,東京都,港区,赤坂１丁目１１番４４号赤坂インターシティ５階ＭａｚａｒｓＪａｐａｎ株式会社内,,13,103,1070052,,,,,,,2023-08-16,1,,,,,ロータスベーカリーズジャパン,0
813,4010501050910,新規,0,2023-08-16,2023-08-16,株式会社御徒町ラフテル,,株式会社,東京都,台東区,上野５丁目１６番８号,,13,106,1100005,,,,,,,2023-08-16,1,,,,,オカチマチラフテル,0
817,4010601063622,新規,0,2023-08-16,2023-08-16,サンクスリレーション株式会社,,株式会社,東京都,江東区,東雲１丁目９番１７－１４０９号,,13,108,1350062,,,,,,,2023-08-16,1,,,,,サンクスリレーション,0
818,4010601063630,新規,0,2023-08-16,2023-08-16,株式会社ハピウル,,株式会社,東京都,墨田区,東向島６丁目３１番２－１１０６号ラディエンス東向島,,13,107,1310032,,,,,,,2023-08-16,1,,,,,ハピウル,0
819,4010603010309,新規,0,2023-08-16,2023-08-16,合同会社ワイズ,,合同会社,東京都,墨田区,押上１丁目１２番１号大豊押上ビル６階,,13,107,1310045,,,,,,,2023-08-16,1,,,,,ワイズ,0
823,4010701044720,新規,0,2023-08-16,2023-08-16,Ｌａｄｙ　ｆｅｍ　ＪＰ株式会社,,株式会社,東京都,品川区,西五反田２丁目４－６ハイホーム五反田３０５－Ａ号室,,13,109,1410031,,,,,,,2023-08-16,1,,,,,レディーフェミジャパン,0
825,4010801034241,新規,0,2023-08-16,2023-08-16,株式会社ＴＬＫ,,株式会社,東京都,大田区,大森西４丁目１２番１２号,,13,111,1430015,,,,,,,2023-08-16,1,,,,,ティーエルケー,0
826,4010803004639,新規,0,2023-08-16,2023-08-16,合同会社ＲＹＴ,,合同会社,東京都,大田区,西六郷１丁目１３番１－１００８号,,13,111,1440056,,,,,,,2023-08-16,1,,,,,アールワイティー,0
830,4010901053661,新規,0,2023-08-16,2023-08-16,株式会社エクスキュート,,株式会社,東京都,世田谷区,野沢１丁目１２－５－２１２,,13,112,1540003,,,,,,,2023-08-16,1,,,,,エクスキュート,0
838,4011001156181,新規,0,2023-08-16,2023-08-16,株式会社Ｓｐｉｃａ　Ｌｉｎｋ,,株式会社,東京都,目黒区,東山１丁目６番５－５０４号,,13,110,1530043,,,,,,,2023-08-16,1,,,,,スピカリンク,0
839,4011001156322,新規,0,2023-08-16,2023-08-16,株式会社Ｉｎｎｏｖａｔｉｏｎ　Ｓｔｕｄｉｏ,,株式会社,東京都,渋谷区,神宮前３丁目２５番１５号,,13,113,1500001,,,,,,,2023-08-16,1,,,,,イノベーションスタジオ,0
840,4011001156388,新規,0,2023-08-16,2023-08-16,サクシード・リアルティ株式会社,,株式会社,東京都,渋谷区,上原１丁目１番１９号,,13,113,1510064,,,,,,,2023-08-16,1,,,,,サクシードリアルティ,0
841,4011001156396,新規,0,2023-08-16,2023-08-16,株式会社しげ,,株式会社,東京都,渋谷区,円山町５番５号Ｎａｖｉ渋谷Ｖ３階,00131548,13,113,1500044,,,,,,,2023-08-16,1,,,,,シゲ,0
844,4011003017349,新規,0,2023-08-16,2023-08-16,合同会社キャンプ,,合同会社,東京都,渋谷区,千駄ヶ谷５丁目１２－１６益本ビル２Ｆ,,13,113,1510051,,,,,,,2023-08-16,1,,,,,キャンプ,0
849,4011101103983,新規,0,2023-08-16,2023-08-16,ヴェルジェホールディングス株式会社,,株式会社,東京都,新宿区,北新宿４丁目１４番１０号,,13,104,1690074,,,,,,,2023-08-16,1,,,,,ヴェルジェホールディングス,0
853,4011201024849,新規,0,2023-08-16,2023-08-16,株式会社ＯＮＥ・ＳＴＥＰ,,株式会社,東京都,中野区,中野５丁目６７番７号プラザ中野８０１,,13,114,1640001,,,,,,,2023-08-16,1,,,,,ワンステップ,0
854,4011301028923,新規,0,2023-08-16,2023-08-16,ＩＭアセットマネジメント株式会社,,株式会社,東京都,杉並区,大宮１丁目７番２０号,,13,115,1680061,,,,,,,2023-08-16,1,,,,,アイエムアセットマネジメント,0
855,4011301028931,新規,0,2023-08-16,2023-08-16,株式会社４Ｔ４Ａ,,株式会社,東京都,杉並区,上荻１丁目１０番１２号東亜会館３Ｆ,,13,115,1670043,,,,,,,2023-08-16,1,,,,,フォートップフォーアテンプト,0
857,4011501029655,新規,0,2023-08-16,2023-08-16,株式会社エストゥーエス,,株式会社,東京都,荒川区,東日暮里６丁目４８番１２,,13,118,1160014,,,,,,,2023-08-16,1,,,,,エストゥーエス,0
861,4011601027055,新規,0,2023-08-16,2023-08-16,株式会社ねこｂｒｏ．,,株式会社,東京都,練馬区,中村北１丁目９番１１号２０１号室,,13,120,1760023,,,,,,,2023-08-16,1,,,,,ネコブロ,0
862,4011701026527,新規,0,2023-08-16,2023-08-16,株式会社Ｃｈｅｍｉｒｉａ,,株式会社,東京都,江戸川区,春江町３丁目８－５,,13,123,1320003,,,,,,,2023-08-16,1,,,,,ケミリア,0
864,4011803005783,新規,0,2023-08-16,2023-08-16,リープエール合同会社,,合同会社,東京都,足立区,西新井本町４丁目２番１０号コーポＹＡＳＨＩＲＯ１０３,,13,121,1230845,,,,,,,2023-08-16,1,,,,,リープエール,0
870,4012401040867,新規,0,2023-08-16,2023-08-16,株式会社ＴＩＲＴＡ　ＳＵＣＩ,,株式会社,東京都,狛江市,中和泉３丁目１９番１９号,,13,219,2010012,,,,,,,2023-08-16,1,,,,,ティルタスチ,0
871,4012401040883,新規,0,2023-08-16,2023-08-16,株式会社ウルトラヘヴン,,株式会社,東京都,小金井市,桜町２丁目７番２３号,,13,210,1840005,,,,,,,2023-08-16,1,,,,,ウルトラヘヴン,0
872,4012801022572,新規,0,2023-08-16,2023-08-16,株式会社国越,,株式会社,東京都,国立市,富士見台４丁目５２番地の５,,13,215,1860003,,,,,,,2023-08-16,1,,,,,クニコシ,0
875,4013301051194,新規,0,2023-08-16,2023-08-16,ＢＥＳＴＩＥ株式会社,,株式会社,東京都,豊島区,雑司が谷２丁目１４番４号コンセール目白６０３,,13,116,1710032,,,,,,,2023-08-16,1,,,,,ベスティー,0
876,4013303006758,新規,0,2023-08-16,2023-08-16,合同会社サクセス,,合同会社,東京都,豊島区,東池袋１丁目７番１２号日産ビルディング６階,,13,116,1700013,,,,,,,2023-08-16,1,,,,,サクセス,0
882,4020001153015,新規,0,2023-08-16,2023-08-16,株式会社８７,,株式会社,神奈川県,横浜市神奈川区,新子安１丁目２４番１－７０３号,,14,102,2210013,,,,,,,2023-08-16,1,,,,,ハナ,0
883,4020001153031,新規,0,2023-08-16,2023-08-16,アラジンホールディングス株式会社,,株式会社,神奈川県,横浜市神奈川区,六角橋２丁目１３番１１－２０３号,,14,102,2210802,,,,,,,2023-08-16,1,,,,,アラジンホールディングス,0
884,4020001153089,新規,0,2023-08-16,2023-08-16,株式会社神電工,,株式会社,神奈川県,川崎市幸区,小倉３丁目２１番３５号ルーク２０１,,14,132,2120054,,,,,,,2023-08-16,1,,,,,シンデンコウ,0
888,4020003024395,新規,0,2023-08-16,2023-08-16,合同会社ワールドネットサポート,,合同会社,神奈川県,横浜市鶴見区,矢向４丁目２９番２１－１号,,14,101,2300001,,,,,,,2023-08-16,1,,,,,ワールドネットサポート,0
891,4021001079919,新規,0,2023-08-16,2023-08-16,株式会社チェスナット,,株式会社,神奈川県,座間市,新田宿７２―２メゾンソレーユＡ１０１,,14,216,2520026,,,,,,,2023-08-16,1,,,,,チェスナット,0
892,4021001079927,新規,0,2023-08-16,2023-08-16,イーストジェイ株式会社,,株式会社,神奈川県,横須賀市,東浦賀２丁目１５番１３号,,14,201,2390821,,,,,,,2023-08-16,1,,,,,イーストジェイ,0
903,4040001129509,新規,0,2023-08-16,2023-08-16,中騰産業株式会社,,株式会社,千葉県,市川市,田尻３丁目９番１５－５０３号,,12,203,2720014,,,,,,,2023-08-16,1,,,,,チュウトウサンギョウ,0
904,4040001129525,新規,0,2023-08-16,2023-08-16,十七月株式会社,,株式会社,千葉県,市川市,福栄１丁目１０番２０号サンシャインオフィス福栄２０１号,,12,203,2720137,,,,,,,2023-08-16,1,,,,,ジュウナナガツ,0
905,4040001129698,新規,0,2023-08-16,2023-08-16,株式会社闌,,株式会社,千葉県,市原市,南岩崎５５８番地１,,12,219,2900244,,,,,,,2023-08-16,1,,,,,タケナワ,0
906,4040001129723,新規,0,2023-08-16,2023-08-16,株式会社コーケン,,株式会社,千葉県,鎌ケ谷市,道野辺中央３丁目１２番３１号,,12,224,2730113,,,,,,,2023-08-16,1,,,,,コーケン,0
909,4050001053303,新規,0,2023-08-16,2023-08-16,株式会社ＴＯＣ,,株式会社,茨城県,稲敷郡美浦村,大字土浦１３４０番地１,,08,442,3000404,,,,,,,2023-08-16,1,,,,,ティーオーシー,0
911,4050003007728,新規,0,2023-08-16,2023-08-16,鴻欣合同会社,,合同会社,茨城県,稲敷市,江戸崎乙２５３番地６,,08,229,3000509,,,,,,,2023-08-16,1,,,,,コウシン,0
912,4060001036257,新規,0,2023-08-16,2023-08-16,株式会社リウム,,株式会社,栃木県,足利市,芳町３４番地２,,09,202,3260035,,,,,,,2023-08-16,1,,,,,リウム,0
913,4060001036265,新規,0,2023-08-16,2023-08-16,株式会社グッドソルトプラス,,株式会社,栃木県,小山市,大字横倉４２８番地９,,09,208,3230813,,,,,,,2023-08-16,1,,,,,グッドソルトプラス,0
917,4080101024168,新規,0,2023-08-16,2023-08-16,ジーアセット株式会社,,株式会社,静岡県,富士宮市,小泉１４８番地の５,,22,207,4180022,,,,,,,2023-08-16,1,,,,,ジーアセット,0
934,4120001257103,新規,0,2023-08-16,2023-08-16,ＹＨＭ株式会社,,株式会社,大阪府,大阪市西成区,中開２丁目２番３号,,27,122,5570022,,,,,,,2023-08-16,1,,,,,ワイエイチエム,0
935,4120001257152,新規,0,2023-08-16,2023-08-16,株式会社助走,,株式会社,大阪府,大阪市中央区,今橋２丁目５番８号トレードピア淀屋橋３Ｆ,,27,128,5410042,,,,,,,2023-08-16,1,,,,,ジョソウ,0
939,4120005023831,新規,0,2023-08-16,2023-08-16,一般社団法人福泰企画機構,,その他の設立登記法人,大阪府,大阪市淀川区,新高６丁目１０番１２号,,27,123,5320033,,,,,,,2023-08-16,1,,,,,フクタイキカクキコウ,0
944,4130001074935,新規,0,2023-08-16,2023-08-16,株式会社橋本甚蔵商店,,株式会社,京都府,京都市中京区,油小路通夷川上る橋本町４９４番地の２,,26,104,6040072,,,,,,,2023-08-16,1,,,,,ハシモトジンゾウショウテン,0
945,4130001074984,新規,0,2023-08-16,2023-08-16,株式会社ＴＨＲＯＷ,,株式会社,京都府,京都市東山区,弓矢町７２ａｇｏｒａ東山２１３号,,26,105,6050817,,,,,,,2023-08-16,1,,,,,スロウ,0
947,4130005016850,新規,0,2023-08-16,2023-08-16,特定非営利活動法人にじいろ笑がお,,その他の設立登記法人,京都府,京田辺市,大住時子林６番地,,26,211,6100343,,,,,,,2023-08-16,1,,,,,ニジイロエガオ,0
948,4140001131256,新規,0,2023-08-16,2023-08-16,Ｌｅｅｌａ株式会社,,株式会社,兵庫県,西宮市,西平町２番４０号,,28,204,6620093,,,,,,,2023-08-16,1,,,,,リーラ,0
951,4150003003031,新規,0,2023-08-16,2023-08-16,オベロンジャパン合同会社,,合同会社,奈良県,宇陀郡曽爾村,大字山粕２５４番地の１,,29,385,6331216,,,,,,,2023-08-16,1,,,,,オベロンジャパン,0
953,4160003002957,新規,0,2023-08-16,2023-08-16,栄恒社合同会社,,合同会社,滋賀県,高島市,勝野１－３０,,25,212,5201121,,,,,,,2023-08-16,1,,,,,エイコウシャ,0
959,4180001157636,新規,0,2023-08-16,2023-08-16,株式会社フロスト,,株式会社,愛知県,名古屋市北区,喜惣治１丁目４１６番地の１,,23,103,4620065,,,,,,,2023-08-16,1,,,,,フロスト,0
960,4180001157644,新規,0,2023-08-16,2023-08-16,株式会社Ｈ２Ｏ,,株式会社,愛知県,名古屋市中区,丸の内２丁目１３番１６号－２プレサンスグラン丸の内４０６,,23,106,4600002,,,,,,,2023-08-16,1,,,,,エイチツーオー,0
961,4180001157652,新規,0,2023-08-16,2023-08-16,株式会社トリニティ,,株式会社,愛知県,春日井市,南下原町４丁目７番地１,,23,206,4860841,,,,,,,2023-08-16,1,,,,,トリニティ,0
962,4180001157669,新規,0,2023-08-16,2023-08-16,株式会社あいとく,,株式会社,愛知県,東海市,富木島町西才道７番地９,,23,222,4760011,,,,,,,2023-08-16,1,,,,,アイトク,0
963,4180001157693,新規,0,2023-08-16,2023-08-16,株式会社ＤＬＩＮＥ,,株式会社,愛知県,名古屋市中村区,名駅南１丁目７‐１９納屋橋マンションＡ２０３,,23,105,4500003,,,,,,,2023-08-16,1,,,,,ディーライン,0
966,4180003025626,新規,0,2023-08-16,2023-08-16,Ｔａｌｏ合同会社,,合同会社,愛知県,名古屋市中村区,名駅３丁目４番１０号アルティメイト名駅１ｓｔ２階,,23,105,4500002,,,,,,,2023-08-16,1,,,,,タロ,0
967,4180005020328,新規,0,2023-08-16,2023-08-16,一般社団法人さんかく,,その他の設立登記法人,愛知県,名古屋市南区,芝町９７番地の２,,23,112,4570023,,,,,,,2023-08-16,1,,,,,サンカク,0
970,4190001030668,新規,0,2023-08-16,2023-08-16,株式会社松本農園,,株式会社,三重県,南牟婁郡御浜町,大字上市木１４３２番地３,,24,561,5195211,,,,,,,2023-08-16,1,,,,,マツモトノウエン,0
975,4240001061996,新規,0,2023-08-16,2023-08-16,株式会社山波工業,,株式会社,広島県,尾道市,山波町２４７番地６,,34,205,7220052,,,,,,,2023-08-16,1,,,,,サンバコウギョウ,0
979,4290001102696,新規,0,2023-08-16,2023-08-16,株式会社ステッパーズ,,株式会社,福岡県,糟屋郡須惠町,大字須惠８３番地２６,,40,344,8112113,,,,,,,2023-08-16,1,,,,,ステッパーズ,0
980,4290001102713,新規,0,2023-08-16,2023-08-16,株式会社ＤｒｏＲ,,株式会社,福岡県,福岡市中央区,高砂２丁目４－２トライアルビル６Ｆ,,40,133,8100011,,,,,,,2023-08-16,1,,,,,ドロア,0
983,4290003014246,新規,0,2023-08-16,2023-08-16,合同会社大心サービス,,合同会社,福岡県,飯塚市,楽市３５２－１,,40,205,8200074,,,,,,,2023-08-16,1,,,,,タイシンサービス,0
984,4290003014254,新規,0,2023-08-16,2023-08-16,アイクルコンサルティング合同会社,,合同会社,福岡県,福岡市中央区,今泉１丁目４－２５サミット天神南１－６０２,,40,133,8100021,,,,,,,2023-08-16,1,,,,,アイクルコンサルティング,0
987,4290005019128,新規,0,2023-08-16,2023-08-16,一般社団法人田脇日吉神社崇敬会,,その他の設立登記法人,福岡県,柳川市,田脇９４８番地,,40,207,8320089,,,,,,,2023-08-16,1,,,,,タワキヒヨシジンジャスウケイカイ,0
988,4290801029800,新規,0,2023-08-16,2023-08-16,ピスモモヤ株式会社,,株式会社,福岡県,北九州市小倉北区,大手町８番３－１００８号,,40,106,8030814,,,,,,,2023-08-16,1,,,,,ピスモモヤ,0
991,4310003004624,新規,0,2023-08-16,2023-08-16,合同会社諒,,合同会社,長崎県,大村市,竹松町６７５番地,,42,205,8560803,,,,,,,2023-08-16,1,,,,,リョウ,0
992,4330001031148,新規,0,2023-08-16,2023-08-16,株式会社ＡＹＭＡ,,株式会社,熊本県,熊本市東区,長嶺東２丁目２３番６号,,43,102,8618038,,,,,,,2023-08-16,1,,,,,アイマ,0
993,4330003009935,新規,0,2023-08-16,2023-08-16,ＡｔｏＲ合同会社,,合同会社,熊本県,熊本市東区,京塚本町２２番５号ＣＡＬＯ京塚ＥＡＳＴ,00131538,43,102,8620952,,,,,,,2023-08-16,1,,,,,エートゥーアール,0
994,4350001018515,新規,0,2023-08-16,2023-08-16,株式会社ＡＬＣ,,株式会社,宮崎県,宮崎市,大字熊野５００番地１ＥｎＳＩＡＩＩ　Ｅ０２３,00131541,45,201,8892151,,,,,,,2023-08-16,1,,,,,アルク,0
996,4350003004414,新規,0,2023-08-16,2023-08-16,合同会社ＳＳ・Ｋ,,合同会社,宮崎県,西臼杵郡高千穂町,大字岩戸１１５番地５,,45,441,8821621,,,,,,,2023-08-16,1,,,,,エスエスケイ,0
997,4360001032374,新規,0,2023-08-16,2023-08-16,株式会社彩笑,,株式会社,沖縄県,うるま市,勝連平安名２９２５番地１、島袋店舗１０３,,47,213,9042312,,,,,,,2023-08-16,1,,,,,イロエ,0
1009,4430001089738,新規,0,2023-08-16,2023-08-16,株式会社ＳＵＮ　ＬＩＧＨＴ,,株式会社,北海道,札幌市豊平区,福住三条１１丁目３番２５号,,01,105,0620043,,,,,,,2023-08-16,1,,,,,サンライト,0
1010,4430001089762,新規,0,2023-08-16,2023-08-16,株式会社ノースプロフェッショナル,,株式会社,北海道,札幌市北区,篠路六条３丁目３番１０号ヒュース篠路２０２号,,01,102,0028026,,,,,,,2023-08-16,1,,,,,ノースプロフェッショナル,0
1015,4430003015353,新規,0,2023-08-16,2023-08-16,合同会社大一大万,,合同会社,北海道,札幌市西区,八軒二条西３丁目４番７号グランドール八軒Ｂ－２２１号,,01,107,0630842,,,,,,,2023-08-16,1,,,,,ダイイチダイマン,0
1019,4700150119029,新規,0,2023-08-16,2023-08-16,ＴＥＣＳＴＡＴＩＯＮＰＴＥ．ＬＴＤ．,,外国会社等,東京都,台東区,千束３丁目２１－１２キートスビル６０４号室,,13,106,1110031,１０ＡＮＳＯＮＲＯＡＤ＃１６－２２ＩＮＴＥＲＮＡＴＩＯＮＡＬＰＬＡＺＡＳＩＮＧＡＰＯＲＥ,,,,,,2023-08-16,1,,,,,テツクステーシヨン,0
1026,5010001237602,新規,0,2023-08-16,2023-08-16,株式会社ＫＵＵＵ,,株式会社,東京都,千代田区,神田神保町３丁目６番地２セントラルレジデンス九段下シティタワー４０２号,,13,101,1010051,,,,,,,2023-08-16,1,,,,,クー,0
1027,5010001237701,新規,0,2023-08-16,2023-08-16,株式会社Ｎｉｃｏｌｉ,,株式会社,東京都,中央区,銀座１丁目１２番４号Ｎ＆Ｅ．ＢＬＤ．６Ｆ,,13,102,1040061,,,,,,,2023-08-16,1,,,,,ニコリ,0
1028,5010001237734,新規,0,2023-08-16,2023-08-16,ＪＰＣ第４１号株式会社,,株式会社,東京都,千代田区,霞が関３丁目２番１号,,13,101,1000013,,,,,,,2023-08-16,1,,,,,ジェイピーシーダイヨンジュウイチゴウ,0
1029,5010001237750,新規,0,2023-08-16,2023-08-16,株式会社日本承継支援パートナーズ,,株式会社,東京都,中央区,日本橋室町１丁目１１番１２号日本橋水野ビル７階,,13,102,1030022,,,,,,,2023-08-16,1,,,,,ニホンショウケイシエンパートナーズ,0
1030,5010001237767,新規,0,2023-08-16,2023-08-16,Ｇｏｌｄｅｎ　Ｅａｇｌｅ　Ｅｎｔｅｒｐｒｉｓｅｓ株式会社,,株式会社,東京都,千代田区,麹町５丁目３番地,,13,101,1020083,,,,,,,2023-08-16,1,,,,,ゴールデンイーグルエンタープライジズ,0
1034,5010003041408,新規,0,2023-08-16,2023-08-16,アイグッドサービス合同会社,,合同会社,東京都,中央区,銀座１丁目１２－４Ｎ＆ＥＢＬＤ．７階,,13,102,1040061,,,,,,,2023-08-16,1,,,,,アイグッドサービス,0
1038,5010005037115,新規,0,2023-08-16,2023-08-16,一般社団法人メラク,,その他の設立登記法人,東京都,千代田区,一ツ橋２丁目６番３号アクシスインベストメントアドバイザーズ株式会社内,,13,101,1010003,,,,,,,2023-08-16,1,,,,,メラク,0
1039,5010005037131,新規,0,2023-08-16,2023-08-16,ＯＬＵＮＡ一般社団法人,,その他の設立登記法人,東京都,千代田区,霞が関３丁目２番５号,,13,101,1000013,,,,,,,2023-08-16,1,,,,,オールナ,0
1047,5010401176318,新規,0,2023-08-16,2023-08-16,８Ｉｎｔｅｒａｃｔｉｖｅ株式会社,,株式会社,東京都,港区,麻布十番２丁目１１番５－５０１号,,13,103,1060045,,,,,,,2023-08-16,1,,,,,エイトインタラクティブ,0
1048,5010401176441,新規,0,2023-08-16,2023-08-16,株式会社ファーストリンク,,株式会社,東京都,港区,南青山２丁目２番１５号,,13,103,1070062,,,,,,,2023-08-16,1,,,,,ファーストリンク,0
1049,5010401176499,新規,0,2023-08-16,2023-08-16,株式会社ＰＬＵＭＥ　ＲＩＣＨＥ,,株式会社,東京都,港区,北青山１丁目３番１号,,13,103,1070061,,,,,,,2023-08-16,1,,,,,プリュムリシェ,0
1050,5010403030695,新規,0,2023-08-16,2023-08-16,ＺＬＯＯＰ　ＲＥＣＯＲＤＳ合同会社,,合同会社,東京都,港区,南青山３丁目１番３６号青山丸竹ビル６Ｆ,,13,103,1070062,,,,,,,2023-08-16,1,,,,,ゼループレコーズ,0
1051,5010403030729,新規,0,2023-08-16,2023-08-16,合同会社ａｆｔｅｒＦＩＴリアルエステート,,合同会社,東京都,港区,芝大門２丁目４番６号豊国ビル,,13,103,1050012,,,,,,,2023-08-16,1,,,,,アフターフィットリアルエステート,0
1057,5010601063621,新規,0,2023-08-16,2023-08-16,株式会社バリセリオ,,株式会社,東京都,江東区,冬木８番４号,,13,108,1350041,,,,,,,2023-08-16,1,,,,,バリセリオ,0
1059,5010603010316,新規,0,2023-08-16,2023-08-16,合同会社メトロヒル,,合同会社,東京都,墨田区,緑２丁目１６番１０－３０２号,,13,107,1300021,,,,,,,2023-08-16,1,,,,,メトロヒル,0
1063,5010803004638,新規,0,2023-08-16,2023-08-16,合同会社Ｎｅｒｅｉｄｓ,,合同会社,東京都,大田区,上池台５丁目１５番１－２０２号,,13,111,1450064,,,,,,,2023-08-16,1,,,,,ネレイデス,0
1067,5011001156313,新規,0,2023-08-16,2023-08-16,株式会社Ｉｍａｐｏｒｔａｎｔ,,株式会社,東京都,渋谷区,神宮前６丁目２３番４号桑野ビル２階,,13,113,1500001,,,,,,,2023-08-16,1,,,,,イマポータント,0
1068,5011001156338,新規,0,2023-08-16,2023-08-16,株式会社Ｓｃａｄｅ,,株式会社,東京都,目黒区,目黒３丁目４番１６－３０６号,,13,110,1530063,,,,,,,2023-08-16,1,,,,,スケード,0
1069,5011001156387,新規,0,2023-08-16,2023-08-16,株式会社つみたて,,株式会社,東京都,渋谷区,渋谷２丁目１０番１３号,,13,113,1500002,,,,,,,2023-08-16,1,,,,,ツミタテ,0
1070,5011001156420,新規,0,2023-08-16,2023-08-16,株式会社Ａ‐ｄｏｔ,,株式会社,東京都,渋谷区,道玄坂１丁目１８番８号道玄坂プラザ仁科屋ビル８０４,,13,113,1500043,,,,,,,2023-08-16,1,,,,,エードット,0
1071,5011003017356,新規,0,2023-08-16,2023-08-16,合同会社ｒｉｏｈ,,合同会社,東京都,渋谷区,渋谷３丁目９番１０号,,13,113,1500002,,,,,,,2023-08-16,1,,,,,リオウ,0
1073,5011005010177,新規,0,2023-08-16,2023-08-16,アクト・エイド税理士法人,,その他の設立登記法人,東京都,渋谷区,千駄ヶ谷５丁目１６－５,,13,113,1510051,,,,,,,2023-08-16,1,,,,,アクトエイド,0
1078,5011101103982,新規,0,2023-08-16,2023-08-16,ＧＯＯＤＩＳＦＵＮホールディングス株式会社,,株式会社,東京都,新宿区,岩戸町１８日交神楽坂ビル７階,,13,104,1620832,,,,,,,2023-08-16,1,,,,,グッディスファンホールディングス,0
1082,5011203004146,新規,0,2023-08-16,2023-08-16,ル・ナールブランコアリ合同会社,,合同会社,東京都,中野区,弥生町４丁目２６番４－７０３号,,13,114,1640013,,,,,,,2023-08-16,1,,,,,ルナールブランコアリ,0
1083,5011301028922,新規,0,2023-08-16,2023-08-16,ＩＭ　Ｗｅａｌｔｈ　Ｍａｎａｇｅｒｓ株式会社,,株式会社,東京都,杉並区,大宮１丁目７番２０号,,13,115,1680061,,,,,,,2023-08-16,1,,,,,アイエムウェルスマネージャーズ,0
1084,5011501029654,新規,0,2023-08-16,2023-08-16,Ｏｃｔｏｒｐｈｉｎ　Ｓｃｉｅｎｃｅｓ株式会社,,株式会社,東京都,荒川区,東日暮里５丁目１５－９－９０１,,13,118,1160014,,,,,,,2023-08-16,1,,,,,オクトルフィンサイエンシーズ,0
1086,5011601027046,新規,0,2023-08-16,2023-08-16,株式会社トリニティ,,株式会社,東京都,練馬区,中村北４丁目２番１２号,,13,120,1760023,,,,,,,2023-08-16,1,,,,,トリニティ,0
1088,5011703003564,新規,0,2023-08-16,2023-08-16,合同会社アンジュ,,合同会社,東京都,江戸川区,大杉３丁目５番９－２０１号,,13,123,1320022,,,,,,,2023-08-16,1,,,,,アンジュ,0
1093,5011801042893,新規,0,2023-08-16,2023-08-16,株式会社スリーサイズ,,株式会社,東京都,足立区,西新井本町２丁目５番５号コーポ美濃２０２,,13,121,1230845,,,,,,,2023-08-16,1,,,,,スリーサイズ,0
1098,5012401040866,新規,0,2023-08-16,2023-08-16,株式会社ベルポワール,,株式会社,東京都,府中市,本町２丁目１７番地の３,,13,206,1830027,,,,,,,2023-08-16,1,,,,,ベルポワール,0
1103,5013301051185,新規,0,2023-08-16,2023-08-16,株式会社Ｍｉｒａｉｗａ,,株式会社,東京都,豊島区,高松２丁目８番１号,,13,116,1710042,,,,,,,2023-08-16,1,,,,,ミライワ,0
1104,5013301051193,新規,0,2023-08-16,2023-08-16,アイエムパートナーズ株式会社,,株式会社,東京都,豊島区,東池袋１丁目３３番３号池袋シティハイツ５０６号,,13,116,1700013,,,,,,,2023-08-16,1,,,,,アイエムパートナーズ,0
1105,5013301051210,新規,0,2023-08-16,2023-08-16,株式会社こみ家本店,,株式会社,東京都,豊島区,池袋２丁目４番６号徳永第３ビル５Ｆ,,13,116,1710014,,,,,,,2023-08-16,1,,,,,コミヤホンテン,0
1109,5020001152924,新規,0,2023-08-16,2023-08-16,ＴＩＧＲＩＳ株式会社,,株式会社,神奈川県,横浜市神奈川区,神之木町１８番地１,,14,102,2210015,,,,,,,2023-08-16,1,,,,,ティグリス,0
1110,5020001152981,新規,0,2023-08-16,2023-08-16,株式会社ＬＳＥＭ,,株式会社,神奈川県,横浜市青葉区,市ケ尾町１０５４番地９アミックビル３０１,,14,117,2250024,,,,,,,2023-08-16,1,,,,,ラセム,0
1111,5020001153030,新規,0,2023-08-16,2023-08-16,株式会社Ｐｒｉｍａｐ,,株式会社,神奈川県,川崎市宮前区,宮前平１丁目１０番地１５,,14,136,2160006,,,,,,,2023-08-16,1,,,,,プリマップ,0
1112,5020001153039,新規,0,2023-08-16,2023-08-16,株式会社Ｍｏｏｏ,,株式会社,神奈川県,横浜市青葉区,あかね台１丁目１番地２４,,14,117,2270066,,,,,,,2023-08-16,1,,,,,ムー,0
1113,5020001153063,新規,0,2023-08-16,2023-08-16,株式会社とみいち,,株式会社,神奈川県,横浜市中区,吉田町３番地１２,,14,104,2310041,,,,,,,2023-08-16,1,,,,,トミイチ,0
1114,5020001153071,新規,0,2023-08-16,2023-08-16,株式会社サンワイズ,,株式会社,神奈川県,横浜市神奈川区,栄町６番地－１ヨコハマポートサイドロア弐番館７０５号,,14,102,2210052,,,,,,,2023-08-16,1,,,,,サンワイズ,0
1120,5021001079884,新規,0,2023-08-16,2023-08-16,株式会社ハムオくん,,株式会社,神奈川県,相模原市緑区,寸沢嵐２６４８番地１０,,14,151,2520176,,,,,,,2023-08-16,1,,,,,ハムオクン,0
1121,5021001079918,新規,0,2023-08-16,2023-08-16,株式会社電脳和風Ｃｙｂｅｒ‐ＪＰ,,株式会社,神奈川県,鎌倉市,長谷２丁目９番１１－３号,,14,204,2480016,,,,,,,2023-08-16,1,,,,,デンノウワフウサイバージェーピー,0
1122,5021001079926,新規,0,2023-08-16,2023-08-16,株式会社アートビズ,,株式会社,神奈川県,鎌倉市,扇ガ谷１丁目１０番１２号,,14,204,2480011,,,,,,,2023-08-16,1,,,,,アートビズ,0
1123,5021001079959,新規,0,2023-08-16,2023-08-16,Ｓ．Ｎｅｂｕｌａｅ株式会社,,株式会社,神奈川県,平塚市,紅谷町８番１６号３Ｆ,,14,203,2540043,,,,,,,2023-08-16,1,,,,,エスネビュリー,0
1133,5040001129689,新規,0,2023-08-16,2023-08-16,株式会社Ｏｎｅ,,株式会社,千葉県,市原市,五井中央西２丁目７番１５号ウルマ駅前ビル１階,,12,219,2900081,,,,,,,2023-08-16,1,,,,,ワン,0
1134,5040001129706,新規,0,2023-08-16,2023-08-16,株式会社愛蓮社,,株式会社,千葉県,柏市,光ケ丘４丁目１２番９号,,12,217,2770065,,,,,,,2023-08-16,1,,,,,アイレンシャ,0
1136,5040003023122,新規,0,2023-08-16,2023-08-16,みどりＪＡＰＡＮ合同会社,,合同会社,千葉県,四街道市,栗山２６６番地３４－２０２,,12,228,2840027,,,,,,,2023-08-16,1,,,,,ミドリジャパン,0
1138,5040005022089,新規,0,2023-08-16,2023-08-16,市川藤マンションＮｏ．５管理組合法人,,その他の設立登記法人,千葉県,市川市,田尻３丁目９番１５号,,12,203,2720014,,,,,,,2023-08-16,1,,,,,イチカワフジマンションナンバーファイブ,0
1143,5050001053302,新規,0,2023-08-16,2023-08-16,株式会社魚浜,,株式会社,茨城県,日立市,鹿島町１丁目１番１０－２０１号,,08,202,3170071,,,,,,,2023-08-16,1,,,,,ウオハマ,0
1144,5050003007710,新規,0,2023-08-16,2023-08-16,合同会社ミスターサービス関東,,合同会社,茨城県,水戸市,見和３丁目１３７９番地の１,,08,201,3100911,,,,,,,2023-08-16,1,,,,,ミスターサービスカントウ,0
1147,5060001036256,新規,0,2023-08-16,2023-08-16,株式会社はるいろステージ,,株式会社,栃木県,大田原市,浅香３丁目３７１１番地３５,,09,210,3240043,,,,,,,2023-08-16,1,,,,,ハルイロステージ,0
1149,5060003004681,新規,0,2023-08-16,2023-08-16,ＬＩＹＯ　ｔｒａｄｉｎｇ合同会社,,合同会社,栃木県,佐野市,富士町１３０４番地１,,09,204,3270801,,,,,,,2023-08-16,1,,,,,リヨトレーディング,0
1150,5070001040769,新規,0,2023-08-16,2023-08-16,株式会社Ａサポート,,株式会社,群馬県,甘楽郡甘楽町,大字庭谷７２番地２,,10,384,3702214,,,,,,,2023-08-16,1,,,,,エーサポート,0
1151,5070003005068,新規,0,2023-08-16,2023-08-16,大成塗装合同会社,,合同会社,群馬県,伊勢崎市,境木島２１８番地７,,10,204,3700104,,,,,,,2023-08-16,1,,,,,タイセイトソウ,0
1155,5090001018251,新規,0,2023-08-16,2023-08-16,株式会社ｉｉｋｕｂｏ設備,,株式会社,山梨県,南巨摩郡富士川町,長澤１０７５番地２,,19,368,4000505,,,,,,,2023-08-16,1,,,,,イイクボセツビ,0
1156,5100001036689,新規,0,2023-08-16,2023-08-16,株式会社ベストビジネス,,株式会社,長野県,上田市,住吉５３番地１３,,20,203,3860002,,,,,,,2023-08-16,1,,,,,ベストビジネス,0
1159,5100003007143,新規,0,2023-08-16,2023-08-16,歡生命合同会社,,合同会社,長野県,松本市,横田２丁目１０８番７,,20,202,3900804,,,,,,,2023-08-16,1,,,,,カンセイメイ,0
1162,5110001037777,新規,0,2023-08-16,2023-08-16,ＮＡＮＯ　ＰＯＬＹＭＥＲ株式会社,,株式会社,新潟県,上越市,大潟区犀潟６６８番地５,,15,222,9493116,,,,,,,2023-08-16,1,,,,,ナノポリマー,0
1173,5120001257151,新規,0,2023-08-16,2023-08-16,株式会社花道,,株式会社,大阪府,大阪市中央区,博労町１丁目７番１号,,27,128,5410059,,,,,,,2023-08-16,1,,,,,ハナミチ,0
1174,5120001257176,新規,0,2023-08-16,2023-08-16,蔵所設備株式会社,,株式会社,大阪府,守口市,佐太東町２丁目１１番１１号,,27,209,5700017,,,,,,,2023-08-16,1,,,,,クラショセツビ,0
1175,5120001257184,新規,0,2023-08-16,2023-08-16,山の幸フーズ株式会社,,株式会社,大阪府,大阪市中央区,南船場１丁目８番１１号日宝アラメゾン２０１,,27,128,5420081,,,,,,,2023-08-16,1,,,,,ヤマノサチフーズ,0
1178,5120003024673,新規,0,2023-08-16,2023-08-16,合同会社グッドザワット,,合同会社,大阪府,大阪市北区,天満橋２丁目３番１０－１２０５号,,27,127,5300042,,,,,,,2023-08-16,1,,,,,グッドザワット,0
1186,5130001074884,新規,0,2023-08-16,2023-08-16,ＫＤＷホールディングス株式会社,,株式会社,京都府,京都市中京区,壬生賀陽御所町３－１京都幸ビル４階,,26,104,6048811,,,,,,,2023-08-16,1,,,,,ケーディーダブリュホールディングス,0
1187,5130001074959,新規,0,2023-08-16,2023-08-16,株式会社ＦＬＡＶＯＲ,,株式会社,京都府,城陽市,寺田西ノ口１０番地,,26,207,6100121,,,,,,,2023-08-16,1,,,,,フレイバー,0
1193,5140003019424,新規,0,2023-08-16,2023-08-16,ＰＨＯＮＧＴＨＵＹＴＩＮＨＰＨＵＣ合同会社,,合同会社,兵庫県,神戸市中央区,筒井町３丁目１０－５オーシャンビル７０３,,28,110,6510071,,,,,,,2023-08-16,1,,,,,フォントゥイティンフック,0
1198,5160001025265,新規,0,2023-08-16,2023-08-16,ファーストスターエンジニアリング株式会社,,株式会社,滋賀県,草津市,西渋川２丁目８番３７－７号,,25,206,5250025,,,,,,,2023-08-16,1,,,,,ファーストスターエンジニアリング,0
1200,5180001157627,新規,0,2023-08-16,2023-08-16,株式会社元気食堂,,株式会社,愛知県,名古屋市東区,泉１丁目１６番１号,,23,102,4610001,,,,,,,2023-08-16,1,,,,,ゲンキショクドウ,0
1201,5180001157643,新規,0,2023-08-16,2023-08-16,株式会社ＲＭ,,株式会社,愛知県,名古屋市中村区,椿町１０番２１号サン・名駅椿ビル９Ｆ,,23,105,4530015,,,,,,,2023-08-16,1,,,,,アールエム,0
1202,5180001157668,新規,0,2023-08-16,2023-08-16,みすずホールディングス株式会社,,株式会社,愛知県,小牧市,大字上末９６９番地,,23,219,4850822,,,,,,,2023-08-16,1,,,,,ミスズホールディングス,0
1203,5180001157684,新規,0,2023-08-16,2023-08-16,株式会社ハヤシホールディングス,,株式会社,愛知県,常滑市,久米字西仲根１９１番地,,23,216,4790002,,,,,,,2023-08-16,1,,,,,ハヤシホールディングス,0
1204,5180003025633,新規,0,2023-08-16,2023-08-16,合同会社ソラワタ,,合同会社,愛知県,北名古屋市,鹿田合田１１１番地１,,23,234,4810004,,,,,,,2023-08-16,1,,,,,ソラワタ,0
1206,5180005020327,新規,0,2023-08-16,2023-08-16,一般社団法人ファイナンシャル・ウェルネス協会,,その他の設立登記法人,愛知県,名古屋市中村区,名駅４丁目２４番５号第２森ビル４０１,,23,105,4500002,,,,,,,2023-08-16,1,,,,,ファイナンシャルウェルネスキョウカイ,0
1219,5240003006263,新規,0,2023-08-16,2023-08-16,合同会社高藤農園,00131544,合同会社,広島県,東広島市,高屋町造賀４５９４,,34,212,7392101,,,,,,,2023-08-16,1,,,,,タカトウノウエン,0
1220,5240005015634,新規,0,2023-08-16,2023-08-16,一般社団法人山本竜也記念事業,,その他の設立登記法人,広島県,広島市東区,戸坂惣田１丁目１９番１３号,,34,102,7320001,,,,,,,2023-08-16,1,,,,,ヤマモトタツヤキネンジギョウ,0
1226,5260001038232,新規,0,2023-08-16,2023-08-16,株式会社Ａｕｔｏ　Ｓｕｎｒｉｓｅ,,株式会社,岡山県,浅口市,金光町占見新田７０９番地２,,33,216,7190104,,,,,,,2023-08-16,1,,,,,オートサンライズ,0
1229,5280001009017,新規,0,2023-08-16,2023-08-16,株式会社縁内装,,株式会社,島根県,雲南市,木次町里方２３０番地５３,,32,209,6991311,,,,,,,2023-08-16,1,,,,,エニシナイソウ,0
1233,5290001102687,新規,0,2023-08-16,2023-08-16,株式会社ベノジャパン,,株式会社,福岡県,福岡市博多区,博多駅南１丁目４番５号博多駅ＪＳビル,,40,132,8120016,,,,,,,2023-08-16,1,,,,,ベノジャパン,0
1234,5290001102720,新規,0,2023-08-16,2023-08-16,株式会社榮飛,,株式会社,福岡県,那珂川市,大字西畑字穂富１０４９番１,,40,231,8111246,,,,,,,2023-08-16,1,,,,,エイト,0
1236,5290003014245,新規,0,2023-08-16,2023-08-16,ファイン合同会社,,合同会社,福岡県,福岡市西区,今宿東２丁目９番１９－７０１号,,40,135,8190161,,,,,,,2023-08-16,1,,,,,ファイン,0
1238,5290005019110,新規,0,2023-08-16,2023-08-16,一般社団法人華笑み香,,その他の設立登記法人,福岡県,糟屋郡須惠町,大字植木２２９番地７,,40,344,8112112,,,,,,,2023-08-16,1,,,,,ハナエミコウ,0
1239,5290801029774,新規,0,2023-08-16,2023-08-16,株式会社新しい地球の遊び方Ｌａｂ．,,株式会社,福岡県,北九州市小倉南区,葉山町２丁目３番１５号,,40,107,8020837,,,,,,,2023-08-16,1,,,,,アタラシイチキュウノアソビカタラボ,0
1240,5290803004486,新規,0,2023-08-16,2023-08-16,合同会社若園,,合同会社,福岡県,北九州市小倉南区,若園１丁目１０番２２号,,40,107,8020816,,,,,,,2023-08-16,1,,,,,ワカゾノ,0
1247,5350001018514,新規,0,2023-08-16,2023-08-16,株式会社チョコ,,株式会社,宮崎県,宮崎市,大字赤江２０５,,45,201,8800912,,,,,,,2023-08-16,1,,,,,チョコ,0
1248,5360001032431,新規,0,2023-08-16,2023-08-16,株式会社友利牧場,,株式会社,沖縄県,石垣市,字平久保２３４－５７１,,47,207,9070331,,,,,,,2023-08-16,1,,,,,トモリボクジョウ,0
1251,5360003013198,新規,0,2023-08-16,2023-08-16,合同会社ｗｉｌｄｈｅａｒｔ,,合同会社,沖縄県,那覇市,樋川２丁目１６－９ＬＡ　ＳＴＵＤＩＯ　ＨＩＧＡＷＡ２－Ａ,,47,201,9000022,,,,,,,2023-08-16,1,,,,,ワイルドハート,0
1252,5370003006242,新規,0,2023-08-16,2023-08-16,合同会社ＬａＦｉｘ,,合同会社,宮城県,仙台市青葉区,千代田町１‐４,,04,101,9810936,,,,,,,2023-08-16,1,,,,,ラフィックス,0
1253,5380001033923,新規,0,2023-08-16,2023-08-16,株式会社酒井工建,,株式会社,福島県,郡山市,桑野５丁目２番地４,,07,203,9638025,,,,,,,2023-08-16,1,,,,,サカイコウケン,0
1256,5400001016347,新規,0,2023-08-16,2023-08-16,株式会社共立産業,,株式会社,岩手県,一関市,花泉町油島字内別当１９番地１,,03,209,0293207,,,,,,,2023-08-16,1,,,,,キョウリツサンギョウ,0
1267,5430001089720,新規,0,2023-08-16,2023-08-16,株式会社みなといた,,株式会社,北海道,千歳市,幌加１１８１番地の３,,01,224,0691183,,,,,,,2023-08-16,1,,,,,ミナトイタ,0
1268,5430001089737,新規,0,2023-08-16,2023-08-16,株式会社クローバー,,株式会社,北海道,札幌市手稲区,富丘四条３丁目５番１２号,,01,109,0060014,,,,,,,2023-08-16,1,,,,,クローバー,0
1269,5430001089778,新規,0,2023-08-16,2023-08-16,株式会社ＡＳＰＫ,,株式会社,北海道,札幌市中央区,南十条西１３丁目３－１４,,01,101,0640810,,,,,,,2023-08-16,1,,,,,エーエスピーケー,0
1270,5430003015328,新規,0,2023-08-16,2023-08-16,合同会社Ｒｏｏｔ‐ｓｉｍ,,合同会社,北海道,小樽市,花園５丁目６番１１号成田アパート２階,,01,203,0470024,,,,,,,2023-08-16,1,,,,,ルートーシム,0
1271,5430003015336,新規,0,2023-08-16,2023-08-16,合同会社ｋａｔａｋ,,合同会社,北海道,沙流郡平取町,字二風谷３８番地６,,01,602,0550101,,,,,,,2023-08-16,1,,,,,カタク,0
1272,5430003015344,新規,0,2023-08-16,2023-08-16,合同会社ＦｏｓＣｌａｉｒ,,合同会社,北海道,札幌市手稲区,富丘三条３丁目５番１２号,,01,109,0060013,,,,,,,2023-08-16,1,,,,,フォスクレール,0
1275,5490001010564,新規,0,2023-08-16,2023-08-16,Ｋａｊｉｈａｒａ株式会社,,株式会社,高知県,安芸市,本町４丁目２番３１号,,39,203,7840004,,,,,,,2023-08-16,1,,,,,カジハラ,0
1279,5700150119028,新規,0,2023-08-16,2023-08-16,Ｘｉａｍｅｎ　Ｙｏｕｐａｎ　Ｔａｉｋｅ　Ｓｈａｎｇｍａｏ　Ｙｏｕｘｉａｎ　Ｇｏｎｇｓｉ,,外国会社等,,,,,,,,Ｕｎｉｔ　３１７，３ｒｄ　Ｆｌｏｏｒ，Ｎｏ．１８，ＨａｉＪｉｎｇｄｏｎｇ　Ｒｏａｄ，Ｘｉａｍｅｎ，Ｃｈｉｎａ　（Ｆｕｊｉａｎ）Ｐｉｌｏｔ　Ｆｒｅｅ　Ｔｒａｄｅ　Ｚｏｎｅ,,,,,,2023-08-16,1,,,,,シヤーメンヨウパンタイコーシヤンマオヨウシエンゴンスー,0
1285,6010001237700,新規,0,2023-08-16,2023-08-16,株式会社えんいー,,株式会社,東京都,千代田区,神田和泉町１番地６－１６ヤマトビル４０５,,13,101,1010024,,,,,,,2023-08-16,1,,,,,エンイー,0
1286,6010001237709,新規,0,2023-08-16,2023-08-16,株式会社タイワ工業,,株式会社,東京都,千代田区,九段南１丁目５番６号りそな九段ビル５階ＫＳフロア,,13,101,1020074,,,,,,,2023-08-16,1,,,,,タイワコウギョウ,0
1287,6010001237717,新規,0,2023-08-16,2023-08-16,甲南堂ＨＤ株式会社,,株式会社,東京都,千代田区,九段南１丁目５番６号りそな九段ビル５Ｆ,,13,101,1020074,,,,,,,2023-08-16,1,,,,,コウナンドウホールディングス,0
1288,6010001237733,新規,0,2023-08-16,2023-08-16,ＪＰＣ第４０号株式会社,,株式会社,東京都,千代田区,霞が関３丁目２番１号,,13,101,1000013,,,,,,,2023-08-16,1,,,,,ジェイピーシーダイヨンジュウゴウ,0
1289,6010001237741,新規,0,2023-08-16,2023-08-16,株式会社クリエート,,株式会社,東京都,文京区,大塚５丁目６番１６－１３０５号,,13,105,1120012,,,,,,,2023-08-16,1,,,,,クリエート,0
1294,6010005037130,新規,0,2023-08-16,2023-08-16,ＯＳＯＬＥ一般社団法人,,その他の設立登記法人,東京都,千代田区,霞が関３丁目２番５号,,13,101,1000013,,,,,,,2023-08-16,1,,,,,オーソール,0
1298,6010401176283,新規,0,2023-08-16,2023-08-16,株式会社ＲＫ,,株式会社,東京都,港区,西麻布４丁目５番８号ｌａ西麻布１階,,13,103,1060031,,,,,,,2023-08-16,1,,,,,アールケーイ,0
1299,6010401176341,新規,0,2023-08-16,2023-08-16,株式会社アラブ通信社,,株式会社,東京都,港区,北青山１丁目３番１号,,13,103,1070061,,,,,,,2023-08-16,1,,,,,アラブツウシンシャ,0
1300,6010401176390,新規,0,2023-08-16,2023-08-16,Ｓａｎｄｙｓ株式会社,,株式会社,東京都,港区,赤坂９丁目１番７－７５６号,,13,103,1070052,,,,,,,2023-08-16,1,,,,,サンディーズ,0
1301,6010401176432,新規,0,2023-08-16,2023-08-16,株式会社ＰＡＲＭＥＬ,,株式会社,東京都,港区,北青山１丁目３番１号アールキューブ青山３階,,13,103,1070061,,,,,,,2023-08-16,1,,,,,パーメル,0
1312,6010601063629,新規,0,2023-08-16,2023-08-16,株式会社トライフパートナーズ,,株式会社,東京都,江東区,大島１丁目２２番１８－７０５号,,13,108,1360072,,,,,,,2023-08-16,1,,,,,トライフパートナーズ,0
1315,6010701044693,新規,0,2023-08-16,2023-08-16,株式会社はちのす制作,,株式会社,東京都,品川区,西五反田２丁目９番７－４０７号,,13,109,1410031,,,,,,,2023-08-16,1,,,,,ハチノスセイサク,0
1320,6010803004637,新規,0,2023-08-16,2023-08-16,合同会社ＦＯＲ　ＡＬＬ,,合同会社,東京都,大田区,大森西４丁目９番６号サンコート大森１０２,,13,111,1430015,,,,,,,2023-08-16,1,,,,,フォーオール,0
1331,6011001156238,新規,0,2023-08-16,2023-08-16,クスノキノ株式会社,,株式会社,東京都,渋谷区,神宮前６丁目２３番４号桑野ビル２階,,13,113,1500001,,,,,,,2023-08-16,1,,,,,クスノキノ,0
1332,6011001156279,新規,0,2023-08-16,2023-08-16,ＡｎｉＭａｔ株式会社,,株式会社,東京都,渋谷区,神宮前６丁目１９番地１５号高野第一ビル５階,,13,113,1500001,,,,,,,2023-08-16,1,,,,,アニマット,0
1333,6011001156378,新規,0,2023-08-16,2023-08-16,株式会社サンテック,,株式会社,東京都,渋谷区,神宮前６丁目２３番４号,,13,113,1500001,,,,,,,2023-08-16,1,,,,,サンテック,0
1334,6011001156386,新規,0,2023-08-16,2023-08-16,Ｏｃｅａｎｏｓ株式会社,,株式会社,東京都,渋谷区,千駄ヶ谷１丁目２８番８号ニュー千駄ヶ谷マンション５０４号,,13,113,1510051,,,,,,,2023-08-16,1,,,,,オセアノス,0
1335,6011001156394,新規,0,2023-08-16,2023-08-16,ＩＤＥＡＬ．株式会社,,株式会社,東京都,渋谷区,円山町５番６号キングビル９階,,13,113,1500044,,,,,,,2023-08-16,1,,,,,イデアルドット,0
1339,6011005010168,新規,0,2023-08-16,2023-08-16,社会保険労務士法人小林マネジメントサービス,,その他の設立登記法人,東京都,目黒区,自由が丘１丁目２２番２１号,,13,110,1520035,,,,,,,2023-08-16,1,,,,,コバヤシマネジメントサービス,0
1346,6011101104014,新規,0,2023-08-16,2023-08-16,Ａ＆Ｓ‐ｓｔｙｌｅ株式会社,,株式会社,東京都,新宿区,百人町１丁目２０番２６号,,13,104,1690073,,,,,,,2023-08-16,1,,,,,エーアンドエススタイル,0
1347,6011101104022,新規,0,2023-08-16,2023-08-16,Ｄｒ．ＪＡＰＡＮ株式会社,,株式会社,東京都,新宿区,高田馬場１丁目１６番２１号,,13,104,1690075,,,,,,,2023-08-16,1,,,,,ドクタージャパン,0
1354,6011501029653,新規,0,2023-08-16,2023-08-16,株式会社フロムファースト,,株式会社,東京都,北区,滝野川６丁目５９番６号,,13,117,1140023,,,,,,,2023-08-16,1,,,,,フロムファースト,0
1357,6011801042884,新規,0,2023-08-16,2023-08-16,株式会社ＰＥＴＪＯＹ,,株式会社,東京都,葛飾区,西亀有４丁目２４番１５号２０１ルミナス野内,,13,122,1250002,,,,,,,2023-08-16,1,,,,,ペットジョイ,0
1360,6012401040865,新規,0,2023-08-16,2023-08-16,株式会社セイム,,株式会社,東京都,狛江市,和泉本町３丁目２４番３号,,13,219,2010003,,,,,,,2023-08-16,1,,,,,セイム,0
1361,6012401040873,新規,0,2023-08-16,2023-08-16,株式会社カジュアルプレイス,,株式会社,東京都,府中市,日鋼町１番地の３府中日鋼団地２３号棟,,13,206,1830044,,,,,,,2023-08-16,1,,,,,カジュアルプレイス,0
1370,6020001152808,新規,0,2023-08-16,2023-08-16,株式会社Ｆ・Ｌ・Ｐ,,株式会社,神奈川県,横浜市西区,北幸１丁目１－８－５０３,,14,103,2200004,,,,,,,2023-08-16,1,,,,,エフエルピ,0
1371,6020001152923,新規,0,2023-08-16,2023-08-16,株式会社Ｉホールディングス,,株式会社,神奈川県,川崎市川崎区,渡田１丁目１０番１７号,,14,131,2100837,,,,,,,2023-08-16,1,,,,,アイホールディングス,0
1372,6020001152997,新規,0,2023-08-16,2023-08-16,株式会社えてるねる,,株式会社,神奈川県,横浜市港北区,新横浜２丁目１４－８オフィス新横浜７０２,,14,109,2220033,,,,,,,2023-08-16,1,,,,,エテルネル,0
1373,6020001153013,新規,0,2023-08-16,2023-08-16,株式会社Ｍｉｎｅ．,,株式会社,神奈川県,横浜市都筑区,中川１丁目１９番１０号,,14,118,2240001,,,,,,,2023-08-16,1,,,,,マイン,0
1374,6020001153038,新規,0,2023-08-16,2023-08-16,ａｔ　ｗｉｌｌ株式会社,,株式会社,神奈川県,横浜市鶴見区,上末吉５丁目７番１３号,,14,101,2300011,,,,,,,2023-08-16,1,,,,,アトウィル,0
1375,6020001153046,新規,0,2023-08-16,2023-08-16,株式会社ドリームトライ,,株式会社,神奈川県,横浜市金沢区,谷津町１２１番地８,,14,108,2360016,,,,,,,2023-08-16,1,,,,,ドリームトライ,0
1377,6020003024393,新規,0,2023-08-16,2023-08-16,合同会社Ｋａｚ　Ｍａｎａｇｅｍｅｎｔ,,合同会社,神奈川県,川崎市川崎区,本町２丁目２番地５グランイーグルｗｉｎｇ川崎３１１,,14,131,2100001,,,,,,,2023-08-16,1,,,,,カズマネージメント,0
1382,6021005012873,新規,0,2023-08-16,2023-08-16,一般社団法人湘南スナッグゴルフ協会,,その他の設立登記法人,神奈川県,茅ヶ崎市,堤９５番地９,,14,207,2530006,,,,,,,2023-08-16,1,,,,,ショウナンスナッグゴルフキョウカイ,0
1383,6030001155388,新規,0,2023-08-16,2023-08-16,株式会社Ｋ　ｇｒｏｕｐ,,株式会社,埼玉県,さいたま市南区,別所５丁目１５番２号,,11,108,3360021,,,,,,,2023-08-16,1,,,,,ケーグループ,0
1384,6030001155396,新規,0,2023-08-16,2023-08-16,株式会社ＭＴＫ,,株式会社,埼玉県,草加市,栄町２丁目８番１４号,,11,221,3400011,,,,,,,2023-08-16,1,,,,,エムティーケー,0
1385,6030001155603,新規,0,2023-08-16,2023-08-16,株式会社プリムローズ,,株式会社,埼玉県,さいたま市緑区,東浦和２丁目２３番地１５,,11,109,3360926,,,,,,,2023-08-16,1,,,,,プリムローズ,0
1402,6040001129531,新規,0,2023-08-16,2023-08-16,ＴＳＯ株式会社,,株式会社,千葉県,千葉市中央区,蘇我２丁目６番５号,,12,101,2600822,,,,,,,2023-08-16,1,,,,,ティーエスオー,0
1403,6040001129696,新規,0,2023-08-16,2023-08-16,株式会社エースリメイク,,株式会社,千葉県,柏市,南増尾１丁目１０番２－２号,,12,217,2770054,,,,,,,2023-08-16,1,,,,,エースリメイク,0
1404,6040001129713,新規,0,2023-08-16,2023-08-16,株式会社ＮＡＧＩ　ＬＩＶＩＮＧ,,株式会社,千葉県,市川市,八幡２丁目１２番４－２０１号,,12,203,2720021,,,,,,,2023-08-16,1,,,,,ナギリビング,0
1407,6040003023071,新規,0,2023-08-16,2023-08-16,合同会社菊義,,合同会社,千葉県,市原市,南岩崎２９０番地７,,12,219,2900244,,,,,,,2023-08-16,1,,,,,キクヨシ,0
1408,6040003023088,新規,0,2023-08-16,2023-08-16,合同会社ウェルボルダー,,合同会社,千葉県,松戸市,秋山２丁目１４番地の２１,,12,207,2702223,,,,,,,2023-08-16,1,,,,,ウェルボルダー,0
1409,6040003023113,新規,0,2023-08-16,2023-08-16,ピーエルシー合同会社,,合同会社,千葉県,船橋市,南本町６番１－１０７号,,12,204,2730004,,,,,,,2023-08-16,1,,,,,ピーエルシー,0
1410,6040003023121,新規,0,2023-08-16,2023-08-16,セアインターナショナル合同会社,,合同会社,千葉県,印西市,東の原３丁目１－２３,,12,231,2701336,,,,,,,2023-08-16,1,,,,,セアインターナショナル,0
1413,6060003004689,新規,0,2023-08-16,2023-08-16,合同会社スガプロデュース,,合同会社,栃木県,那須塩原市,四区町７２４番地３８２,,09,213,3292746,,,,,,,2023-08-16,1,,,,,スガプロデュース,0
1421,6100001036696,新規,0,2023-08-16,2023-08-16,寿メンテナンス株式会社,,株式会社,長野県,塩尻市,大字広丘野村１７８８番地６３４,,20,215,3990702,,,,,,,2023-08-16,1,,,,,コトブキメンテナンス,0
1434,6120001257150,新規,0,2023-08-16,2023-08-16,株式会社ＯＸＹＭＯＲＯＮ,,株式会社,大阪府,大阪市淀川区,十三東２丁目９番１９号古澤ビル２階,,27,123,5320023,,,,,,,2023-08-16,1,,,,,オクシモロン,0
1435,6120001257167,新規,0,2023-08-16,2023-08-16,株式会社ＢＬＡＮＣＯ,,株式会社,大阪府,大阪市西区,京町堀２丁目９番１０号プリエール京町堀９Ａ,,27,106,5500003,,,,,,,2023-08-16,1,,,,,ブランコ,0
1436,6120001257183,新規,0,2023-08-16,2023-08-16,カコ企画株式会社,,株式会社,大阪府,大阪市北区,梅田１丁目１番３－２９００号,,27,127,5300001,,,,,,,2023-08-16,1,,,,,カコキカク,0
1437,6120001257217,新規,0,2023-08-16,2023-08-16,マナ・トラスト株式会社,,株式会社,大阪府,大阪市平野区,喜連東２丁目２番４５号,,27,126,5470021,,,,,,,2023-08-16,1,,,,,マナトラスト,0
1438,6120001257241,新規,0,2023-08-16,2023-08-16,株式会社全勝,,株式会社,大阪府,大阪市東成区,深江北３丁目４番２１号エクラ深江橋２１３Ｂ,,27,115,5370001,,,,,,,2023-08-16,1,,,,,ゼンショウ,0
1439,6120001257282,新規,0,2023-08-16,2023-08-16,株式会社アスフィ,,株式会社,大阪府,大阪市北区,与力町２番１６－２６０２号,,27,127,5300036,,,,,,,2023-08-16,1,,,,,アスフィ,0
1441,6120003024689,新規,0,2023-08-16,2023-08-16,しからくす合同会社,,合同会社,大阪府,大阪市中央区,難波５丁目１－６０なんばスカイオ２７階ｗｅｗｏｒｋ,,27,128,5420076,,,,,,,2023-08-16,1,,,,,シカラクス,0
1443,6120101068076,新規,0,2023-08-16,2023-08-16,株式会社鏡心社,,株式会社,大阪府,和泉市,室堂町１０３２番地の１７,,27,219,5941101,,,,,,,2023-08-16,1,,,,,キョウシンシャ,0
1446,6120901047956,新規,0,2023-08-16,2023-08-16,株式会社ユレハスタッフサービス,,株式会社,大阪府,箕面市,如意谷４丁目６番３号,,27,220,5620011,,,,,,,2023-08-16,1,,,,,ユレハスタッフサービス,0
1454,6140001131114,新規,0,2023-08-16,2023-08-16,株式会社Ｍｅ・ｂａｅｒｕ,,株式会社,兵庫県,神戸市垂水区,千鳥が丘２丁目５番５７－６号,,28,108,6550011,,,,,,,2023-08-16,1,,,,,メバエル,0
1455,6140001131254,新規,0,2023-08-16,2023-08-16,ＢＵＤＤＹ株式会社,,株式会社,兵庫県,神戸市中央区,新港町１７番４号,,28,110,6500041,,,,,,,2023-08-16,1,,,,,バディー,0
1457,6150001026643,新規,0,2023-08-16,2023-08-16,ウタマスパイスジャパン株式会社,,株式会社,奈良県,大和郡山市,南郡山町２３３番地２,,29,203,6391007,,,,,,,2023-08-16,1,,,,,ウタマスパイスジャパン,0
1463,6180001157626,新規,0,2023-08-16,2023-08-16,株式会社まとや,,株式会社,愛知県,名古屋市天白区,池場３丁目１３１６番地,,23,116,4680055,,,,,,,2023-08-16,1,,,,,マトヤ,0
1464,6180001157667,新規,0,2023-08-16,2023-08-16,株式会社Ｌｏｋａｈｉ　Ｅｎｔｅｒｐｒｉｓｅ,,株式会社,愛知県,名古屋市中村区,猪之越町２丁目２番２５号,,23,105,4530038,,,,,,,2023-08-16,1,,,,,ロカヒエンタープライズ,0
1465,6180003025590,新規,0,2023-08-16,2023-08-16,合同会社永笑,,合同会社,愛知県,名古屋市名東区,猪高台１丁目１０２６番地チサンマンションアルコート上社ＩＩ番館１０２号,00131546,23,115,4650028,,,,,,,2023-08-16,1,,,,,トワ,0
1466,6180003025624,新規,0,2023-08-16,2023-08-16,ＨＲＴ合同会社,,合同会社,愛知県,名古屋市瑞穂区,中山町１丁目１９番４号さくらビル２階北,,23,108,4670803,,,,,,,2023-08-16,1,,,,,エイチアールティー,0
1469,6190001030666,新規,0,2023-08-16,2023-08-16,株式会社ｏｆｆｉｃｅ　ＯＮ,,株式会社,三重県,鈴鹿市,江島町３８９６番地ベルメゾン・シロエ３０７号,,24,207,5100237,,,,,,,2023-08-16,1,,,,,オフィスオン,0
1470,6190001030674,新規,0,2023-08-16,2023-08-16,ＷＡＳ株式会社,,株式会社,三重県,鈴鹿市,西条１丁目１９番２号,,24,207,5130809,,,,,,,2023-08-16,1,,,,,ワズ,0
1473,6200001041570,新規,0,2023-08-16,2023-08-16,株式会社ＹＵＩｓｅｒｖｉｃｅ,,株式会社,岐阜県,中津川市,加子母４２４番地１０,,21,206,5080421,,,,,,,2023-08-16,1,,,,,ユイサービス,0
1476,6210001019426,新規,0,2023-08-16,2023-08-16,株式会社Ｍメイク,,株式会社,福井県,鯖江市,柳町２丁目８番２４号,,18,207,9160047,,,,,,,2023-08-16,1,,,,,エムメイク,0
1483,6240001061994,新規,0,2023-08-16,2023-08-16,株式会社タクミ木工,,株式会社,広島県,府中市,中須町１２５９番地,,34,208,7260012,,,,,,,2023-08-16,1,,,,,タクミモッコウ,0
1495,6280003001755,新規,0,2023-08-16,2023-08-16,合同会社いずも補聴器,,合同会社,島根県,出雲市,今市町北本町５丁目４番地１４,,32,203,6930002,,,,,,,2023-08-16,1,,,,,イズモホチョウキ,0
1497,6290001102694,新規,0,2023-08-16,2023-08-16,株式会社野田ハウジング,,株式会社,福岡県,福岡市早良区,田村４丁目２８番１５－１号,,40,137,8140175,,,,,,,2023-08-16,1,,,,,ノダハウジング,0
1498,6290001102711,新規,0,2023-08-16,2023-08-16,株式会社アソウ商会,,株式会社,福岡県,福岡市東区,香椎駅東４丁目３１番１３号,,40,131,8130012,,,,,,,2023-08-16,1,,,,,アソウショウカイ,0
1501,6290003014244,新規,0,2023-08-16,2023-08-16,合同会社ソルテ,,合同会社,福岡県,福岡市中央区,大宮１丁目５番３－５０７号,,40,133,8100013,,,,,,,2023-08-16,1,,,,,ソルテ,0
1507,6320003004150,新規,0,2023-08-16,2023-08-16,合同会社Ｍ＆Ｋびれっじ,,合同会社,大分県,竹田市,大字竹田２１２０－２,,44,208,8780013,,,,,,,2023-08-16,1,,,,,エムアンドケイビレッジ,0
1510,6330003009933,新規,0,2023-08-16,2023-08-16,合同会社エスフォワード,,合同会社,熊本県,人吉市,瓦屋町１８１５番地２,,43,203,8680025,,,,,,,2023-08-16,1,,,,,エスフォワード,0
1516,6360003013214,新規,0,2023-08-16,2023-08-16,合同会社Ｐｌｕｓ　Ｍｉｎｄ,,合同会社,沖縄県,うるま市,字赤道９７１番地４１,,47,213,9042245,,,,,,,2023-08-16,1,,,,,プラスマインド,0
1520,6380001033922,新規,0,2023-08-16,2023-08-16,株式会社Ｍｉｎｔ,,株式会社,福島県,二本松市,本町２丁目１９７番地,,07,210,9640917,,,,,,,2023-08-16,1,,,,,ミント,0
1521,6380001033930,新規,0,2023-08-16,2023-08-16,株式会社東新クリエイト,,株式会社,福島県,いわき市,平赤井字反町２２番地の４０,,07,204,9793131,,,,,,,2023-08-16,1,,,,,トウシンクリエイト,0
1523,6390005009026,新規,0,2023-08-16,2023-08-16,一般社団法人トライアングル,,その他の設立登記法人,山形県,村山市,楯岡馬場１３番１４号,,06,208,9950022,,,,,,,2023-08-16,1,,,,,トライアングル,0
1527,6430001089777,新規,0,2023-08-16,2023-08-16,株式会社ａｎｉｍａ,,株式会社,北海道,札幌市中央区,南九条西４丁目１番１５号,,01,101,0640809,,,,,,,2023-08-16,1,,,,,アニマ,0
1529,6430003015343,新規,0,2023-08-16,2023-08-16,合同会社ＭＡＣＨＩＭＩ,,合同会社,北海道,札幌市白石区,東札幌一条３丁目２番２－１３０１号,,01,104,0030001,,,,,,,2023-08-16,1,,,,,マチミ,0
1533,6450001014080,新規,0,2023-08-16,2023-08-16,株式会社ＫＥＴ,,株式会社,北海道,旭川市,七条通１６丁目７７番地２５,,01,204,0700037,,,,,,,2023-08-16,1,,,,,ケット,0
1536,6700150119027,新規,0,2023-08-16,2023-08-16,Ｚｈｅｊｉａｎｇｌｅｋｕｃｈｕｊｕｙｏｕｘｉａｎｇｏｎｇｓｉ,,外国会社等,,,,,,,,ＣｉｘｉＣｉｔｙＢｉｎｈａｉＥｃｏｎｏｍｉｃＤｅｖｅｌｏｐｍｅｎｔＺｏｎｅ１８８ＨａｉｆｅｎｇＮｏｒｔｈＲｏａｄＮｉｎｇｂｏＺｈｅｉｊａｎｇ,,,,,,2023-08-16,1,,,,,セツコウレクキツチウエアカンパニーリミテツド,0
1547,7010001237699,新規,0,2023-08-16,2023-08-16,株式会社トリプルウィン,,株式会社,東京都,中央区,勝どき５丁目３－１－３４２８,,13,102,1040054,,,,,,,2023-08-16,1,,,,,トリプルウィン,0
1548,7010001237708,新規,0,2023-08-16,2023-08-16,株式会社エンタス,,株式会社,東京都,文京区,湯島２丁目３１番１４号,,13,105,1130034,,,,,,,2023-08-16,1,,,,,エンタス,0
1549,7010001237716,新規,0,2023-08-16,2023-08-16,株式会社ＨＥＡＤ　ＬＯＵＮＧＥ,,株式会社,東京都,文京区,大塚２丁目１４番９号,,13,105,1120012,,,,,,,2023-08-16,1,,,,,ヘッドラウンジ,0
1550,7010001237724,新規,0,2023-08-16,2023-08-16,リリ株式会社,,株式会社,東京都,千代田区,神田三崎町２丁目１０番１１号Ｐｅｇビル３Ｂ－４,,13,101,1010061,,,,,,,2023-08-16,1,,,,,リリ,0
1551,7010001237732,新規,0,2023-08-16,2023-08-16,ＪＰＣ第３９号株式会社,,株式会社,東京都,千代田区,霞が関３丁目２番１号,,13,101,1000013,,,,,,,2023-08-16,1,,,,,ジェイピーシーダイサンジュウキュウゴウ,0
1552,7010001237757,新規,0,2023-08-16,2023-08-16,株式会社ＳＡＴＯ,,株式会社,東京都,中央区,銀座８丁目５番１３号マキシ・ド・ビル７階,,13,102,1040061,,,,,,,2023-08-16,1,,,,,サトウ,0
1556,7010003041372,新規,0,2023-08-16,2023-08-16,合同会社スプリングＲ１,,合同会社,東京都,千代田区,丸の内３丁目１番１号東京共同会計事務所内,,13,101,1000005,,,,,,,2023-08-16,1,,,,,スプリングアールワン,0
1559,7010103002191,新規,0,2023-08-16,2023-08-16,合同会社西武エステート,,合同会社,東京都,八王子市,千人町２丁目１１番６号,,13,201,1930835,,,,,,,2023-08-16,1,,,,,セイブエステート,0
1565,7010401176308,新規,0,2023-08-16,2023-08-16,株式会社ＡＩＭ,,株式会社,東京都,港区,海岸１丁目７－１東京ポートシティ竹芝オフィスタワー８Ｆ,,13,103,1050022,,,,,,,2023-08-16,1,,,,,エイアイエム,0
1566,7010401176316,新規,0,2023-08-16,2023-08-16,株式会社Ｎａｔａｎｚ,,株式会社,東京都,港区,南麻布４丁目４番１０－８０２号,,13,103,1060047,,,,,,,2023-08-16,1,,,,,ナタンズ,0
1567,7010401176349,新規,0,2023-08-16,2023-08-16,株式会社ａｗａｋｅｎｉｎｇ,,株式会社,東京都,港区,北青山１丁目３番１号,,13,103,1070061,,,,,,,2023-08-16,1,,,,,アウェイクニング,0
1568,7010401176407,新規,0,2023-08-16,2023-08-16,株式会社ＭｉｒａｉＥ,,株式会社,東京都,港区,南青山５丁目１７番２号,,13,103,1070062,,,,,,,2023-08-16,1,,,,,ミライエ,0
1569,7010403030693,新規,0,2023-08-16,2023-08-16,合同会社ニャイド,,合同会社,東京都,港区,浜松町２丁目２番１５号浜松町ダイヤビル２Ｆ,,13,103,1050013,,,,,,,2023-08-16,1,,,,,ニャイド,0
1576,7010601063628,新規,0,2023-08-16,2023-08-16,株式会社ＳＬコンサルティング,,株式会社,東京都,墨田区,錦糸１丁目２番１号,,13,107,1300013,,,,,,,2023-08-16,1,,,,,エスエルコンサルティング,0
1578,7010801034247,新規,0,2023-08-16,2023-08-16,ＹＫＴＫ株式会社,,株式会社,東京都,大田区,中央８丁目１９番１２号セントラルハイツ１０１,,13,111,1430024,,,,,,,2023-08-16,1,,,,,ワイケーティケー,0
1581,7010901053659,新規,0,2023-08-16,2023-08-16,株式会社ｓｔｕｄｉｏ　ａｔｔａｃｃａ,,株式会社,東京都,世田谷区,北沢３丁目１０番１４号,,13,112,1550031,,,,,,,2023-08-16,1,,,,,スタジオアタッカ,0
1586,7011001156419,新規,0,2023-08-16,2023-08-16,ＪＬＴ株式会社,,株式会社,東京都,渋谷区,恵比寿１丁目２３番１５－９０１号,,13,113,1500013,,,,,,,2023-08-16,1,,,,,ジェイエルティー,0
1588,7011003017379,新規,0,2023-08-16,2023-08-16,ちゅらカンパニー合同会社,,合同会社,東京都,渋谷区,千駄ヶ谷４丁目９番３－２１７号,,13,113,1510051,,,,,,,2023-08-16,1,,,,,チュラカンパニー,0
1596,7011501029660,新規,0,2023-08-16,2023-08-16,揚森株式会社,,株式会社,東京都,荒川区,東尾久８丁目４２番１２号英華ビル,,13,118,1160012,,,,,,,2023-08-16,1,,,,,ヨウセン,0
1599,7011601027060,新規,0,2023-08-16,2023-08-16,株式会社フィトン,,株式会社,東京都,練馬区,三原台３丁目２２番２３号,,13,120,1770031,,,,,,,2023-08-16,1,,,,,フィトン,0
1600,7011701026524,新規,0,2023-08-16,2023-08-16,信州善光寺権堂Ｈ株式会社,,株式会社,東京都,江戸川区,中葛西５丁目２０番９号,,13,123,1340083,,,,,,,2023-08-16,1,,,,,シンシュウゼンコウジゴンドウエイチ,0
1603,7011801042883,新規,0,2023-08-16,2023-08-16,株式会社ＪＤｉ９１７,,株式会社,東京都,葛飾区,金町３丁目５０番６号,,13,122,1250042,,,,,,,2023-08-16,1,,,,,ジェイディーアイキューイチナナ,0
1606,7012703002777,新規,0,2023-08-16,2023-08-16,合同会社Ｖｉｓｉｏｎ,,合同会社,東京都,東久留米市,下里１丁目１１番３９号,,13,222,2030043,,,,,,,2023-08-16,1,,,,,ヴィジョン,0
1619,7020001153029,新規,0,2023-08-16,2023-08-16,ＮＯＶＡ株式会社,,株式会社,神奈川県,川崎市高津区,千年４３７番地８,,14,134,2130022,,,,,,,2023-08-16,1,,,,,ノヴァ,0
1620,7020001153037,新規,0,2023-08-16,2023-08-16,株式会社武徳,,株式会社,神奈川県,横浜市都筑区,東方町５９７番地５２,,14,118,2240045,,,,,,,2023-08-16,1,,,,,ブトク,0
1621,7020001153045,新規,0,2023-08-16,2023-08-16,株式会社石直,,株式会社,神奈川県,横浜市泉区,中田東１丁目２５番１１号,,14,116,2450013,,,,,,,2023-08-16,1,,,,,イシナオ,0
1626,7021001079800,新規,0,2023-08-16,2023-08-16,株式会社Ｌｕｎａ　Ｃａｒｅ,,株式会社,神奈川県,小田原市,久野１９０番地の８,,14,206,2500055,,,,,,,2023-08-16,1,,,,,ルナケア,0
1627,7021001079866,新規,0,2023-08-16,2023-08-16,株式会社ＨＵＧ　Ｔａｂｌｅ,,株式会社,神奈川県,藤沢市,鵠沼海岸５丁目７－４,,14,205,2510037,,,,,,,2023-08-16,1,,,,,ハグテーブル,0
1628,7021001079916,新規,0,2023-08-16,2023-08-16,ＡＲＫＥＹ　ＧＲＯＵＰ株式会社,,株式会社,神奈川県,鎌倉市,七里ガ浜１丁目１－１,,14,204,2480026,,,,,,,2023-08-16,1,,,,,アーキーグループ,0
1629,7021001079957,新規,0,2023-08-16,2023-08-16,株式会社ハートコープ神奈川,,株式会社,神奈川県,藤沢市,柄沢２丁目７番地の２４,,14,205,2510003,,,,,,,2023-08-16,1,,,,,ハートコープカナガワ,0
1632,7021003013451,新規,0,2023-08-16,2023-08-16,合同会社あうん舎,,合同会社,神奈川県,鎌倉市,鎌倉山１丁目１６－２６,,14,204,2480031,,,,,,,2023-08-16,1,,,,,アウンシャ,0
1640,7030001155395,新規,0,2023-08-16,2023-08-16,株式会社ＣＥＮＴ．ＬＥＧ,,株式会社,埼玉県,熊谷市,石原１４１４番地３,,11,202,3600816,,,,,,,2023-08-16,1,,,,,セントレッグ,0
1641,7030001155610,新規,0,2023-08-16,2023-08-16,株式会社ニコエル,,株式会社,埼玉県,さいたま市浦和区,岸町４丁目２６番５号,,11,107,3300064,,,,,,,2023-08-16,1,,,,,ニコエル,0
1647,7030003022255,新規,0,2023-08-16,2023-08-16,Ｈ・Ｙ工業合同会社,,合同会社,埼玉県,川口市,大字安行藤八６４２番地の５,,11,203,3340051,,,,,,,2023-08-16,1,,,,,エイチワイコウギョウ,0
1648,7030003022338,新規,0,2023-08-16,2023-08-16,ハピネスレインボー合同会社,,合同会社,埼玉県,川越市,大字砂９３番地１（新河岸ハイツＢ－２０３号室）,,11,201,3501133,,,,,,,2023-08-16,1,,,,,ハピネスレインボー,0
1649,7030003022395,新規,0,2023-08-16,2023-08-16,合同会社ＳＪ,,合同会社,埼玉県,深谷市,小前田１６７―１,,11,218,3691246,,,,,,,2023-08-16,1,,,,,エスジェイ,0
1652,7040001129638,新規,0,2023-08-16,2023-08-16,株式会社森田屋,,株式会社,千葉県,船橋市,飯山満町２丁目３６６番地１コスモ津田沼ウエストコア４０１号,,12,204,2740822,,,,,,,2023-08-16,1,,,,,モリタヤ,0
1653,7040001129679,新規,0,2023-08-16,2023-08-16,株式会社Ｍａｋｉｎｇ　Ｔｈｅ　Ｒｏａｄ,,株式会社,千葉県,白井市,西白井３丁目１３番地４９,,12,232,2701408,,,,,,,2023-08-16,1,,,,,メイキングザロード,0
1654,7040001129695,新規,0,2023-08-16,2023-08-16,小山株式会社,,株式会社,千葉県,市川市,北国分２丁目２０番２号,,12,203,2720836,,,,,,,2023-08-16,1,,,,,コヤマ,0
1655,7040001129704,新規,0,2023-08-16,2023-08-16,株式会社マンションライフサポート,,株式会社,千葉県,千葉市若葉区,貝塚１丁目２４番４号,,12,104,2640020,,,,,,,2023-08-16,1,,,,,マンションライフサポート,0
1656,7040001129737,新規,0,2023-08-16,2023-08-16,株式会社暁,,株式会社,千葉県,柏市,千代田２丁目３番７－２号,,12,217,2770025,,,,,,,2023-08-16,1,,,,,アカツキ,0
1657,7040003023137,新規,0,2023-08-16,2023-08-16,ふくしサポートサービス合同会社,,合同会社,千葉県,船橋市,湊町２丁目１２－２４湊町日本橋ビル６Ｆ,,12,204,2730011,,,,,,,2023-08-16,1,,,,,フクシサポートサービス,0
1658,7040003023145,新規,0,2023-08-16,2023-08-16,合同会社青柳事務所,,合同会社,千葉県,流山市,江戸川台東４丁目３９３番地,,12,220,2700111,,,,,,,2023-08-16,1,,,,,アオヤギジムショ,0
1660,7050001053317,新規,0,2023-08-16,2023-08-16,ＤＳホールディングス株式会社,,株式会社,茨城県,水戸市,酒門町３０１８番地の２４,,08,201,3100841,,,,,,,2023-08-16,1,,,,,ディーエスホールディングス,0
1667,7060001036262,新規,0,2023-08-16,2023-08-16,株式会社若目田建業,,株式会社,栃木県,宇都宮市,鐺山町３２１番地,,09,201,3213235,,,,,,,2023-08-16,1,,,,,ワカメタケンギョウ,0
1670,7070001040767,新規,0,2023-08-16,2023-08-16,株式会社ＲＩＯＺ,,株式会社,群馬県,伊勢崎市,東上之宮町６３８番地３,,10,204,3720815,,,,,,,2023-08-16,1,,,,,,0
1671,7070003005066,新規,0,2023-08-16,2023-08-16,ＵＫ　ＴＲＡＤＩＮＧ　ＬＡＮＫＡ合同会社,,合同会社,群馬県,太田市,西本町６３番３号メゾンヤマダ１０６,,10,205,3730033,,,,,,,2023-08-16,1,,,,,ユーケートレーディングランカ,0
1674,7080101024173,新規,0,2023-08-16,2023-08-16,株式会社エーフレック,,株式会社,静岡県,裾野市,茶畑９２３番地の９,,22,220,4101121,,,,,,,2023-08-16,1,,,,,エーフレック,0
1676,7080401026670,新規,0,2023-08-16,2023-08-16,株式会社ハレノヒ,,株式会社,静岡県,浜松市南区,若林町３８２３番地,,22,134,4328051,,,,,,,2023-08-16,1,,,,,ハレノヒ,0
1677,7090001018258,新規,0,2023-08-16,2023-08-16,株式会社岡島ＭＳ,,株式会社,山梨県,甲府市,上阿原町４８９番地２,,19,201,4000814,,,,,,,2023-08-16,1,,,,,オカジマエムエス,0
1679,7100001036695,新規,0,2023-08-16,2023-08-16,株式会社Ｎａｔｕｒａｌ　Ｂａｓｅ,,株式会社,長野県,長野市,居町５番地勝山ビル１階,,20,201,3800901,,,,,,,2023-08-16,1,,,,,ナチュラルベース,0
1689,7120001257158,新規,0,2023-08-16,2023-08-16,新星自動車株式会社,,株式会社,大阪府,門真市,四宮３丁目３番３８号,,27,223,5710017,,,,,,,2023-08-16,1,,,,,シンセイジドウシャ,0
1690,7120001257166,新規,0,2023-08-16,2023-08-16,株式会社ＢｒａｖｅＳ,,株式会社,大阪府,大阪市西区,京町堀２丁目９番１０号プリエール京町堀９Ａ,,27,106,5500003,,,,,,,2023-08-16,1,,,,,ブレイブス,0
1691,7120001257240,新規,0,2023-08-16,2023-08-16,新宝株式会社,,株式会社,大阪府,大阪市大正区,三軒家西３丁目４番１６号中山ビル１０１８,,27,108,5510001,,,,,,,2023-08-16,1,,,,,シンポウ,0
1692,7120001257249,新規,0,2023-08-16,2023-08-16,Ｔ５Ｂｏｕｌｅｖａｒｄ　Ａｓｓｅｔ株式会社,,株式会社,大阪府,大阪市中央区,北浜３丁目５番２２号,,27,128,5410041,,,,,,,2023-08-16,1,,,,,ティファイブブルーバードアセット,0
1693,7120001257298,新規,0,2023-08-16,2023-08-16,株式会社幸裕工業,,株式会社,大阪府,大阪市西成区,松３丁目１番２７号,,27,122,5570034,,,,,,,2023-08-16,1,,,,,コウユウコウギョウ,0
1694,7120001257315,新規,0,2023-08-16,2023-08-16,津吉株式会社,,株式会社,大阪府,大阪市中央区,淡路町３丁目４番１号,,27,128,5410047,,,,,,,2023-08-16,1,,,,,ツヨシ,0
1697,7120901047947,新規,0,2023-08-16,2023-08-16,株式会社ＨＳＫ,,株式会社,大阪府,高槻市,唐崎西２丁目２番３４号,,27,207,5690836,,,,,,,2023-08-16,1,,,,,エイチエスケイ,0
1698,7120901047955,新規,0,2023-08-16,2023-08-16,株式会社Ｑｕｒｅａｓ,,株式会社,大阪府,豊中市,本町９丁目２番７５号,,27,203,5600021,,,,,,,2023-08-16,1,,,,,クレアス,0
1703,7130001074981,新規,0,2023-08-16,2023-08-16,株式会社山田工業,,株式会社,京都府,京都市山科区,御陵鳥ノ向町７－１８,,26,110,6078408,,,,,,,2023-08-16,1,,,,,ヤマダコウギョウ,0
1710,7140001131245,新規,0,2023-08-16,2023-08-16,株式会社渡邉工業,,株式会社,兵庫県,神戸市長田区,雲雀ヶ丘３丁目６番３－２０６号,,28,106,6530879,,,,,,,2023-08-16,1,,,,,ワタナベコウギョウ,0
1713,7150001026642,新規,0,2023-08-16,2023-08-16,株式会社寿建設,,株式会社,奈良県,大和高田市,大字市場８４番地５３,,29,202,6350074,,,,,,,2023-08-16,1,,,,,コトブキケンセツ,0
1714,7160001025271,新規,0,2023-08-16,2023-08-16,ＭＨ２株式会社,,株式会社,滋賀県,大津市,国分１丁目１４番１０号,,25,201,5200844,,,,,,,2023-08-16,1,,,,,エムエイチツー,0
1717,7160003002962,新規,0,2023-08-16,2023-08-16,合同会社ＬｉＭ,,合同会社,滋賀県,草津市,青地町６３１番地１,,25,206,5250041,,,,,,,2023-08-16,1,,,,,リム,0
1720,7180001157600,新規,0,2023-08-16,2023-08-16,株式会社ＹＫＮ,,株式会社,愛知県,名古屋市中村区,名駅４丁目２４番５号第２森ビル４０１,,23,105,4500002,,,,,,,2023-08-16,1,,,,,ワイケーエヌ,0
1721,7180001157617,新規,0,2023-08-16,2023-08-16,株式会社Ｂ．ｒｏｏｍ,,株式会社,愛知県,名古屋市中区,金山１丁目１４番９号長谷川ビル７階,,23,106,4600022,,,,,,,2023-08-16,1,,,,,ブルーム,0
1722,7180001157625,新規,0,2023-08-16,2023-08-16,株式会社天寿,,株式会社,愛知県,稲沢市,祖父江町中牧東伝右山１３１７番地２,,23,220,4950032,,,,,,,2023-08-16,1,,,,,テンジュ,0
1723,7180001157641,新規,0,2023-08-16,2023-08-16,株式会社ＴＳＳ,,株式会社,愛知県,名古屋市北区,敷島町６７番地,,23,103,4620045,,,,,,,2023-08-16,1,,,,,ティーエスエス,0
1724,7180001157690,新規,0,2023-08-16,2023-08-16,株式会社ＯＫｕｍｕｒａ,,株式会社,愛知県,名古屋市名東区,よもぎ台２丁目６０８番地,,23,115,4650091,,,,,,,2023-08-16,1,,,,,オクムラ,0
1725,7180001157699,新規,0,2023-08-16,2023-08-16,ＯＯｐｉｑ株式会社,,株式会社,愛知県,名古屋市東区,東桜２丁目３番７号トーカンナゴヤキャスティール９０２,,23,102,4610005,,,,,,,2023-08-16,1,,,,,オーピック,0
1728,7180003025631,新規,0,2023-08-16,2023-08-16,合同会社ユーモラシイ,,合同会社,愛知県,名古屋市中村区,名駅３丁目４－１０アルティメイト名駅１ｓｔ　２階,,23,105,4500002,,,,,,,2023-08-16,1,,,,,ユーモラシイ,0
1745,7240001061993,新規,0,2023-08-16,2023-08-16,株式会社Ｔ　Ｓ．Ｔｙｌｅ,,株式会社,広島県,東広島市,西条町下見４３０９番地１３,,34,212,7390044,,,,,,,2023-08-16,1,,,,,ティースタイル,0
1746,7240001062001,新規,0,2023-08-16,2023-08-16,株式会社トレミラ,,株式会社,広島県,廿日市市,福面２丁目４番２号,,34,213,7390401,,,,,,,2023-08-16,1,,,,,トレミラ,0
1755,7270001008827,新規,0,2023-08-16,2023-08-16,ファーストペンギン株式会社,,株式会社,鳥取県,鳥取市,国府町奥谷１丁目１４１番地,,31,201,6808063,,,,,,,2023-08-16,1,,,,,ファーストペンギン,0
1760,7290001102719,新規,0,2023-08-16,2023-08-16,株式会社わたなべ菜園,,株式会社,福岡県,飯塚市,堀池２６９番地２,,40,205,8200070,,,,,,,2023-08-16,1,,,,,ワタナベサイエン,0
1763,7290003014243,新規,0,2023-08-16,2023-08-16,ＡｔｅｌｉｅｒＤＩＸ合同会社,,合同会社,福岡県,福岡市博多区,吉塚１丁目３８番２６－２０１号Ｃｈｅｒｉｍ吉塚ｅａｓｔ,,40,132,8120041,,,,,,,2023-08-16,1,,,,,アトリエディックス,0
1764,7290003014251,新規,0,2023-08-16,2023-08-16,合同会社山雅,,合同会社,福岡県,福岡市早良区,賀茂４丁目４６番７号,,40,137,8140164,,,,,,,2023-08-16,1,,,,,ヤマガ,0
1766,7290803004484,新規,0,2023-08-16,2023-08-16,合同会社Ｎ．Ｆ．Ｓｔａｇｅ,,合同会社,福岡県,遠賀郡岡垣町,海老津１丁目２７番９号,,40,383,8114231,,,,,,,2023-08-16,1,,,,,エヌエフステージ,0
1769,7310005008694,新規,0,2023-08-16,2023-08-16,一般社団法人まつうらコミュニティデザイン,,その他の設立登記法人,長崎県,松浦市,志佐町里免３８４－１,,42,208,8594502,,,,,,,2023-08-16,1,,,,,,0
1771,7320001019950,新規,0,2023-08-16,2023-08-16,株式会社ＴＨｉＮＧ,,株式会社,大分県,日田市,大字三和１０４１番地７,,44,204,8770000,,,,,,,2023-08-16,1,,,,,シィング,0
1778,7330001031137,新規,0,2023-08-16,2023-08-16,８株式会社,,株式会社,熊本県,熊本市中央区,本山３丁目３番２－９０１号,,43,101,8600821,,,,,,,2023-08-16,1,,,,,エイト,0
1781,7340003004214,新規,0,2023-08-16,2023-08-16,ｌｉｔｔｌｅＧ合同会社,,合同会社,鹿児島県,鹿児島市,武３丁目３－１３福永ビル２Ｆ,,46,201,8900045,,,,,,,2023-08-16,1,,,,,リトルジー,0
1785,7350001018520,新規,0,2023-08-16,2023-08-16,株式会社ＳＡＴ,,株式会社,宮崎県,都城市,神之山町４８６６番地２,,45,202,8850005,,,,,,,2023-08-16,1,,,,,エスエーティー,0
1791,7360003013213,新規,0,2023-08-16,2023-08-16,インフィニティモバイル合同会社,,合同会社,沖縄県,浦添市,勢理客４丁目１６－１２,,47,208,9012122,,,,,,,2023-08-16,1,,,,,インフィニティモバイル,0
1794,7370003006249,新規,0,2023-08-16,2023-08-16,合同会社石垣商事,,合同会社,宮城県,仙台市青葉区,一番町１丁目８番２２号井上ビル４階４０２号室,,04,101,9800811,,,,,,,2023-08-16,1,,,,,イシガキショウジ,0
1796,7380003005539,新規,0,2023-08-16,2023-08-16,合同会社太陽と大地,,合同会社,福島県,郡山市,新屋敷１丁目１５５番地メゾンＴ・１０５号,,07,203,9638045,,,,,,,2023-08-16,1,,,,,タイヨウトダイチ,0
1801,7430001089669,新規,0,2023-08-16,2023-08-16,株式会社中村写真事務所,,株式会社,北海道,札幌市東区,北二十二条東１丁目４番７号,,01,103,0650022,,,,,,,2023-08-16,1,,,,,ナカムラシャシンジムショ,0
1802,7430001089735,新規,0,2023-08-16,2023-08-16,スタートライフ株式会社,,株式会社,北海道,札幌市東区,東雁来八条４丁目１番１号,,01,103,0070828,,,,,,,2023-08-16,1,,,,,スタートライフ,0
1803,7430001089751,新規,0,2023-08-16,2023-08-16,株式会社ｙａｍ,,株式会社,北海道,札幌市中央区,北四条西２０丁目１番１号スペチアーレ４２０,,01,101,0640824,,,,,,,2023-08-16,1,,,,,ヤム,0
1804,7430001089776,新規,0,2023-08-16,2023-08-16,株式会社ＥａｃｈＷｏｒｔｈ,,株式会社,北海道,札幌市白石区,東札幌五条１丁目１－１Ｓａｐｐｏｒｏ　Ｂｕｓｉｎｅｓｓ　Ｖｉｌｌａｇｅ　Ａ－３,,01,104,0030005,,,,,,,2023-08-16,1,,,,,イーチワース,0
1806,7430003015342,新規,0,2023-08-16,2023-08-16,合同会社Ｇ．Ｋ．ファクトリー,,合同会社,北海道,室蘭市,祝津町３丁目５番３号,,01,205,0510036,,,,,,,2023-08-16,1,,,,,ジーケーファクトリー,0
1811,7700150119026,新規,0,2023-08-16,2023-08-16,福岡市博多の森土地区画整理組合,,その他,福岡県,福岡市博多区,空港前４丁目１８番８号,,40,132,8120002,,,,,,,2023-08-16,1,,,,,フクオカシハカタノモリトチクカクセイリクミアイ,0
1821,8010001237640,新規,0,2023-08-16,2023-08-16,株式会社ＴｏｐＳｔｏｘ,,株式会社,東京都,千代田区,麹町２丁目１０番地３エキスパートオフィス麹町１０１号室,00131540,13,101,1020083,,,,,,,2023-08-16,1,,,,,トップストックス,0
1822,8010001237707,新規,0,2023-08-16,2023-08-16,ＣＵＲＩＯＳＩ　ＴＯＫＹＯ株式会社,,株式会社,東京都,文京区,目白台２丁目９番１８－４０８号,,13,105,1120015,,,,,,,2023-08-16,1,,,,,クリオージトウキョウ,0
1823,8010001237731,新規,0,2023-08-16,2023-08-16,ＪＰＣ第３８号株式会社,,株式会社,東京都,千代田区,霞が関３丁目２番１号,,13,101,1000013,,,,,,,2023-08-16,1,,,,,ジェイピーシーダイサンジュウハチゴウ,0
1826,8010003041388,新規,0,2023-08-16,2023-08-16,合同会社フォンターナ,,合同会社,東京都,千代田区,丸の内３丁目１番１号東京共同会計事務所内,,13,101,1000005,,,,,,,2023-08-16,1,,,,,フォンターナ,0
1827,8010003041405,新規,0,2023-08-16,2023-08-16,合同会社バックスクラッチャーパートナーズ,,合同会社,東京都,中央区,勝どき１丁目１３番６－３５０９号,,13,102,1040054,,,,,,,2023-08-16,1,,,,,バックスクラッチャーパートナーズ,0
1828,8010003041413,新規,0,2023-08-16,2023-08-16,合同会社ＵＮｅａｔｅ,,合同会社,東京都,中央区,日本橋兜町１１－２カスタリア２０４,,13,102,1030026,,,,,,,2023-08-16,1,,,,,ユネイト,0
1829,8010005037112,新規,0,2023-08-16,2023-08-16,一般社団法人ひかり,,その他の設立登記法人,東京都,千代田区,平河町１丁目３番１３号平河町フロントビル７階株式会社シリウス・アドバイザリー内,,13,101,1020093,,,,,,,2023-08-16,1,,,,,ヒカリ,0
1839,8010401176307,新規,0,2023-08-16,2023-08-16,株式会社ドットマークス,,株式会社,東京都,港区,北青山１丁目３番１号アールキューブ青山３階,,13,103,1070061,,,,,,,2023-08-16,1,,,,,ドットマークス,0
1840,8010401176331,新規,0,2023-08-16,2023-08-16,Ｔｒｕｅ　Ｎｏｒｔｈ　Ｃｏｎｓｕｌｔｉｎｇ株式会社,,株式会社,東京都,港区,浜松町２丁目２番１５号浜松町ダイヤビル２Ｆ,,13,103,1050013,,,,,,,2023-08-16,1,,,,,トゥルーノースコンサルティング,0
1841,8010401176348,新規,0,2023-08-16,2023-08-16,ＤＣＴパートナーズ株式会社,,株式会社,東京都,港区,麻布十番１丁目２番７号ラフィネ麻布十番７０１号室,,13,103,1060045,,,,,,,2023-08-16,1,,,,,ディシィティパートナーズ,0
1842,8010401176447,新規,0,2023-08-16,2023-08-16,２Ａ株式会社,,株式会社,東京都,港区,北青山３丁目６番７号１１Ｆ,,13,103,1070061,,,,,,,2023-08-16,1,,,,,ツーエー,0
1843,8010401176455,新規,0,2023-08-16,2023-08-16,株式会社ＫＯＴＴＡ,,株式会社,東京都,港区,六本木１丁目９番４－１８０２号,,13,103,1060032,,,,,,,2023-08-16,1,,,,,コッタ,0
1844,8010401176463,新規,0,2023-08-16,2023-08-16,株式会社Ｉ,,株式会社,東京都,港区,高輪４丁目２番４号ミア高輪２Ｅ,,13,103,1080074,,,,,,,2023-08-16,1,,,,,アイ,0
1845,8010401176496,新規,0,2023-08-16,2023-08-16,株式会社ＦＩＹＴＴＹ,,株式会社,東京都,港区,赤坂２丁目８番１４－６０７号,,13,103,1070052,,,,,,,2023-08-16,1,,,,,フィッティ,0
1847,8010405022366,新規,0,2023-08-16,2023-08-16,巨大一般社団法人,,その他の設立登記法人,東京都,港区,虎ノ門５丁目１番４号,,13,103,1050001,,,,,,,2023-08-16,1,,,,,ビヨンド,0
1849,8010501050898,新規,0,2023-08-16,2023-08-16,株式会社ＯＮ‐ＴＲＡＤＩＮＧ,,株式会社,東京都,台東区,上野６丁目８番１９号,,13,106,1100005,,,,,,,2023-08-16,1,,,,,オントレーディング,0
1854,8010601063627,新規,0,2023-08-16,2023-08-16,ＤＭＳホールディングス株式会社,,株式会社,東京都,江東区,北砂２丁目１８番２号,,13,108,1360073,,,,,,,2023-08-16,1,,,,,ディーエムエスホールディングス,0
1855,8010601063635,新規,0,2023-08-16,2023-08-16,Ｇｌｏｂａｌ　Ｃｏｎｎｅｃｔ株式会社,,株式会社,東京都,江東区,青海２丁目７番４－９１６号,,13,108,1350064,,,,,,,2023-08-16,1,,,,,グローバルコネクト,0
1857,8010603010313,新規,0,2023-08-16,2023-08-16,合同会社イノベーター,,合同会社,東京都,墨田区,菊川１丁目１５－４－２０６号ＰＲＩＭＥＦＯＲＥＳＨＩＴＡ,,13,107,1300024,,,,,,,2023-08-16,1,,,,,イノベーター,0
1858,8010605004230,新規,0,2023-08-16,2023-08-16,一般社団法人てらす会,,その他の設立登記法人,東京都,墨田区,東向島２丁目３０－１０ＡｒｒｉＳｈｉｐ’ｓ１階,,13,107,1310032,,,,,,,2023-08-16,1,,,,,テラスカイ,0
1860,8010801034246,新規,0,2023-08-16,2023-08-16,株式会社Ｏｃｈｏ,,株式会社,東京都,大田区,蒲田本町２丁目１番８号,,13,111,1440053,,,,,,,2023-08-16,1,,,,,オチョ,0
1862,8010901053641,新規,0,2023-08-16,2023-08-16,株式会社ＦＦＬ,,株式会社,東京都,世田谷区,玉堤１丁目２５番１９号センチュリー尾山台グレイス３０３,,13,112,1580087,,,,,,,2023-08-16,1,,,,,エフエフエル,0
1863,8010901053658,新規,0,2023-08-16,2023-08-16,株式会社ベストプラス,,株式会社,東京都,世田谷区,用賀４丁目２６番７号,,13,112,1580097,,,,,,,2023-08-16,1,,,,,ベストプラス,0
1873,8011001156244,新規,0,2023-08-16,2023-08-16,株式会社ＹＵＡＮ,,株式会社,東京都,渋谷区,神宮前６丁目２３番４号桑野ビル２階,,13,113,1500001,,,,,,,2023-08-16,1,,,,,ユアン,0
1874,8011001156269,新規,0,2023-08-16,2023-08-16,ＫＡＫＥＨＡＳＨＩ株式会社,,株式会社,東京都,渋谷区,道玄坂１丁目１０‐８渋谷道玄坂東急ビル２Ｆ‐Ｃ,,13,113,1500043,,,,,,,2023-08-16,1,,,,,カケハシ,0
1875,8011001156319,新規,0,2023-08-16,2023-08-16,ビブエイド株式会社,,株式会社,東京都,目黒区,中町１丁目５番２１号,,13,110,1530065,,,,,,,2023-08-16,1,,,,,ビブエイド,0
1882,8011103013376,新規,0,2023-08-16,2023-08-16,合同会社バリューステー,,合同会社,東京都,新宿区,歌舞伎町２丁目２番２１号ライオンズマンション歌舞伎町Ａ棟２１１,,13,104,1600021,,,,,,,2023-08-16,1,,,,,バリューステー,0
1888,8011301028928,新規,0,2023-08-16,2023-08-16,株式会社ｄｂｍｅｎ,,株式会社,東京都,杉並区,宮前３丁目３３番６号,,13,115,1680081,,,,,,,2023-08-16,1,,,,,デシベルマン,0
1889,8011301028936,新規,0,2023-08-16,2023-08-16,株式会社Ａｆｔｅｒ　Ｂｅｌｌ　Ｃｒｅａｔｉｏｎｓ,,株式会社,東京都,杉並区,久我山３丁目４２－１５メゾンやえ１階,,13,115,1680082,,,,,,,2023-08-16,1,,,,,アフターベルクリエイションズ,0
1894,8011801042841,新規,0,2023-08-16,2023-08-16,潤＿新エネルギー株式会社,00131547,株式会社,東京都,葛飾区,東金町３丁目１７－１０－ＫＢＳ－Ｅ－３号,,13,122,1250041,,,,,,,2023-08-16,1,,,,,ジュンコウシンエネルギー,0
1897,8012401040863,新規,0,2023-08-16,2023-08-16,株式会社松華,,株式会社,東京都,府中市,本宿町２丁目１０番地の８,,13,206,1830032,,,,,,,2023-08-16,1,,,,,ショウカ,0
1898,8012405004889,新規,0,2023-08-16,2023-08-16,一般社団法人オフショア開発機構,,その他の設立登記法人,東京都,三鷹市,上連雀１丁目１番５－６０４号,,13,204,1810012,,,,,,,2023-08-16,1,,,,,オフショアカイハツキコウ,0
1901,8013301051208,新規,0,2023-08-16,2023-08-16,株式会社ＮＮＫ,,株式会社,東京都,豊島区,東池袋１丁目１５番３号,,13,116,1700013,,,,,,,2023-08-16,1,,,,,エヌエヌケー,0
1909,8020001152921,新規,0,2023-08-16,2023-08-16,株式会社ブルアップ,,株式会社,神奈川県,横浜市旭区,上川井町１０２７,,14,112,2410802,,,,,,,2023-08-16,1,,,,,ブルアップ,0
1910,8020001152954,新規,0,2023-08-16,2023-08-16,株式会社ナップル,,株式会社,神奈川県,横浜市都筑区,中川中央１丁目３０番１号,,14,118,2240003,,,,,,,2023-08-16,1,,,,,ナップル,0
1911,8020001152979,新規,0,2023-08-16,2023-08-16,株式会社エスペイントホーム,,株式会社,神奈川県,川崎市高津区,溝口６丁目１５－７－１０４，藤和シティーコープ高津２,,14,134,2130001,,,,,,,2023-08-16,1,,,,,エスペイントホーム,0
1912,8020001153044,新規,0,2023-08-16,2023-08-16,株式会社Ｔａｒｇｅｔ,,株式会社,神奈川県,横浜市中区,野毛町１丁目３２番地ノゲアキンドビル１Ｆ,,14,104,2310064,,,,,,,2023-08-16,1,,,,,ターゲット,0
1913,8020001153052,新規,0,2023-08-16,2023-08-16,株式会社Ｒ＆Ｔ,,株式会社,神奈川県,川崎市宮前区,犬蔵１丁目４番１４号２Ｆ,,14,136,2160011,,,,,,,2023-08-16,1,,,,,アールアンドティー,0
1914,8020001153060,新規,0,2023-08-16,2023-08-16,Ｌｕｃｋｙ株式会社,,株式会社,神奈川県,川崎市川崎区,砂子１丁目５－１４第二川米ビル２階,,14,131,2100006,,,,,,,2023-08-16,1,,,,,ラッキー,0
1915,8020001153069,新規,0,2023-08-16,2023-08-16,株式会社ベイシックス,,株式会社,神奈川県,横浜市港南区,港南台７丁目２７番３号,,14,111,2340054,,,,,,,2023-08-16,1,,,,,ベイシックス,0
1921,8020003024400,新規,0,2023-08-16,2023-08-16,ｙｏｃｏ合同会社,,合同会社,神奈川県,川崎市中原区,木月４丁目４番２４号新福ビル,,14,133,2110025,,,,,,,2023-08-16,1,,,,,ヨコ,0
1925,8021001079915,新規,0,2023-08-16,2023-08-16,株式会社トレスエイジ,,株式会社,神奈川県,伊勢原市,上粕屋２５３８番地の１,,14,214,2591141,,,,,,,2023-08-16,1,,,,,トレスエイジ,0
1928,8021003013450,新規,0,2023-08-16,2023-08-16,合同会社ＵＫエージェンシー,,合同会社,神奈川県,相模原市中央区,中央６丁目９－２４寿３０４,,14,152,2520239,,,,,,,2023-08-16,1,,,,,ユーケーエージェンシー,0
1933,8030001155246,新規,0,2023-08-16,2023-08-16,株式会社ＯｎｅＷｉｒｅ,,株式会社,埼玉県,越谷市,大沢３丁目１２－２６太陽ビル１Ｆ,,11,222,3430025,,,,,,,2023-08-16,1,,,,,ワンワイヤ,0
1934,8030001155394,新規,0,2023-08-16,2023-08-16,Ｔｒｉｅｄ　ｃｒｅｗ８８４株式会社,,株式会社,埼玉県,所沢市,大字南永井７３１－１,,11,208,3590011,,,,,,,2023-08-16,1,,,,,トライドクルーハチハチヨン,0
1936,8030003022361,新規,0,2023-08-16,2023-08-16,合同会社アルカディア,,合同会社,埼玉県,飯能市,仲町２番６号パルオオクボ,,11,209,3570038,,,,,,,2023-08-16,1,,,,,アルカディア,0
1939,8040001129653,新規,0,2023-08-16,2023-08-16,株式会社ステップアップ,,株式会社,千葉県,富里市,御料２５７番地１,,12,233,2860211,,,,,,,2023-08-16,1,,,,,ステップアップ,0
1940,8040001129678,新規,0,2023-08-16,2023-08-16,リレイト株式会社,,株式会社,千葉県,千葉市花見川区,幕張町５丁目４１７番地２４９シャルマン幕張２棟３０２号,,12,102,2620032,,,,,,,2023-08-16,1,,,,,リレイト,0
1941,8040005022078,新規,0,2023-08-16,2023-08-16,ＮＰＯ法人ＰｅＣｏまんまぁる,,その他の設立登記法人,千葉県,千葉市花見川区,柏井４丁目４７番７号,,12,102,2620048,,,,,,,2023-08-16,1,,,,,ピコマンマァル,0
1946,8050003007732,新規,0,2023-08-16,2023-08-16,合同会社タツミ工業,,合同会社,茨城県,古河市,磯部６４番地２,,08,204,3060225,,,,,,,2023-08-16,1,,,,,タツミコウギョウ,0
1953,8070001040758,新規,0,2023-08-16,2023-08-16,株式会社ネクスト,,株式会社,群馬県,高崎市,南大類町１３番地,,10,202,3700036,,,,,,,2023-08-16,1,,,,,ネクスト,0
1954,8070001040766,新規,0,2023-08-16,2023-08-16,瀬間工業株式会社,,株式会社,群馬県,富岡市,曽木５５２番地８,,10,210,3702315,,,,,,,2023-08-16,1,,,,,,0
1955,8070001040774,新規,0,2023-08-16,2023-08-16,株式会社Ｓ‐ＰＲＯ,,株式会社,群馬県,伊勢崎市,田中島町１４１２番地１,,10,204,3720802,,,,,,,2023-08-16,1,,,,,エスプロ,0
1957,8080003003035,新規,0,2023-08-16,2023-08-16,合同会社グレイブン,,合同会社,静岡県,牧之原市,新庄２０８６番地１,,22,226,4210533,,,,,,,2023-08-16,1,,,,,グレイブン,0
1960,8090001018257,新規,0,2023-08-16,2023-08-16,株式会社めぐみ,,株式会社,山梨県,山梨市,大野７７番地,,19,205,4050016,,,,,,,2023-08-16,1,,,,,メグミ,0
1962,8100001036694,新規,0,2023-08-16,2023-08-16,株式会社エムケーティー,,株式会社,長野県,上田市,古安曽１８７７番地７,,20,203,3861213,,,,,,,2023-08-16,1,,,,,エムケーティー,0
1978,8120001257140,新規,0,2023-08-16,2023-08-16,中毅商事株式会社,,株式会社,大阪府,大阪市東成区,玉津２丁目３番２０号,,27,115,5370023,,,,,,,2023-08-16,1,,,,,チュウキショウジ,0
1979,8120001257149,新規,0,2023-08-16,2023-08-16,アトレ株式会社,,株式会社,大阪府,大阪市西区,南堀江２丁目３番４－６０５号,,27,106,5500015,,,,,,,2023-08-16,1,,,,,アトレ,0
1980,8120001257248,新規,0,2023-08-16,2023-08-16,トレスファン株式会社,,株式会社,大阪府,大阪市中央区,北浜３丁目５番２２号,,27,128,5410041,,,,,,,2023-08-16,1,,,,,トレスファン,0
1981,8120001257280,新規,0,2023-08-16,2023-08-16,株式会社河野コンサルファミリー,,株式会社,大阪府,大阪市中央区,南船場１丁目１６番１３号,,27,128,5420081,,,,,,,2023-08-16,1,,,,,カワノコンサルファミリー,0
1984,8120003024712,新規,0,2023-08-16,2023-08-16,合同会社ＯＭＯ,,合同会社,大阪府,交野市,幾野２丁目１２番３号,,27,230,5760054,,,,,,,2023-08-16,1,,,,,オモ,0
1988,8120101068066,新規,0,2023-08-16,2023-08-16,株式会社ＪＯＩＮ,,株式会社,大阪府,堺市西区,神野町１丁２番６号,,27,144,5938308,,,,,,,2023-08-16,1,,,,,ジョイン,0
1989,8120103005389,新規,0,2023-08-16,2023-08-16,合同会社インテーク,,合同会社,大阪府,和泉市,府中町５丁目５番１６－１２号,,27,219,5940071,,,,,,,2023-08-16,1,,,,,インテーク,0
1993,8120901047954,新規,0,2023-08-16,2023-08-16,株式会社恭明造園,,株式会社,大阪府,吹田市,五月が丘東６番Ｃ－３０３号,,27,205,5650831,,,,,,,2023-08-16,1,,,,,キョウメイゾウエン,0
1995,8130001074857,新規,0,2023-08-16,2023-08-16,西日本総合保証株式会社,,株式会社,京都府,京都市右京区,西院平町３７－２日動ビル３Ｆ,,26,108,6160000,,,,,,,2023-08-16,1,,,,,ニシニホンソウゴウホショウ,0
2000,8150001026641,新規,0,2023-08-16,2023-08-16,株式会社Ｓｉｒｉｕｓ,,株式会社,奈良県,奈良市,下御門町４番地ｅ・リュエル２階２Ａ号室,,29,201,6308365,,,,,,,2023-08-16,1,,,,,シリウス,0
2002,8160001025270,新規,0,2023-08-16,2023-08-16,株式会社ファンタスティックス,,株式会社,滋賀県,大津市,唐橋町８番１１号,,25,201,5200851,,,,,,,2023-08-16,1,,,,,ファンタスティックス,0
2004,8170001017738,新規,0,2023-08-16,2023-08-16,株式会社三興,,株式会社,和歌山県,和歌山市,小雑賀１３９番地１０,,30,201,6410007,,,,,,,2023-08-16,1,,,,,サンコウ,0
2008,8180001157624,新規,0,2023-08-16,2023-08-16,霖祥株式会社,,株式会社,愛知県,愛知郡東郷町,大字和合字牛廻間９２番地４６,,23,302,4700153,,,,,,,2023-08-16,1,,,,,リンショウ,0
2009,8180001157649,新規,0,2023-08-16,2023-08-16,株式会社ファースト,,株式会社,愛知県,名古屋市守山区,瀬古東２丁目１１１５番地サンパーク第２幸心４０２,,23,113,4630090,,,,,,,2023-08-16,1,,,,,ファースト,0
2010,8180001157665,新規,0,2023-08-16,2023-08-16,オオサキホールディングス株式会社,,株式会社,愛知県,名古屋市西区,玉池町２０３番地,,23,104,4520812,,,,,,,2023-08-16,1,,,,,オオサキホールディングス,0
2011,8180001157673,新規,0,2023-08-16,2023-08-16,ジャパンレンタカーグループ株式会社,,株式会社,愛知県,名古屋市中区,栄１丁目２５番７号,,23,106,4600008,,,,,,,2023-08-16,1,,,,,ジャパンレンタカーグループ,0
2016,8190001030672,新規,0,2023-08-16,2023-08-16,株式会社ＴＲＳ,,株式会社,三重県,津市,安濃町妙法寺５４１番地,,24,201,5142314,,,,,,,2023-08-16,1,,,,,ティーアールエス,0
2019,8220001025561,新規,0,2023-08-16,2023-08-16,株式会社ＳＥＩ,,株式会社,石川県,能美市,大長野町チ１２３番地１,,17,211,9231115,,,,,,,2023-08-16,1,,,,,セイ,0
2023,8240001061992,新規,0,2023-08-16,2023-08-16,株式会社キャリオ,,株式会社,広島県,呉市,中央１丁目４番１１－７０５号,,34,202,7370051,,,,,,,2023-08-16,1,,,,,キャリオ,0
2024,8240001062000,新規,0,2023-08-16,2023-08-16,堀田商事株式会社,,株式会社,広島県,広島市安佐南区,東原１丁目７番１２号,,34,105,7310112,,,,,,,2023-08-16,1,,,,,ホッタショウジ,0
2025,8240001062009,新規,0,2023-08-16,2023-08-16,東広島セーフティー株式会社,,株式会社,広島県,東広島市,西条中央６丁目３１番３５－６０５号,,34,212,7390025,,,,,,,2023-08-16,1,,,,,ヒガシヒロシマセーフティー,0
2026,8250001020246,新規,0,2023-08-16,2023-08-16,株式会社拓,,株式会社,山口県,下関市,大字内日下１０２７番地３,,35,201,7500253,,,,,,,2023-08-16,1,,,,,タク,0
2028,8260005011265,新規,0,2023-08-16,2023-08-16,一般社団法人Ｐａｎａ・くおーり,,その他の設立登記法人,岡山県,岡山市東区,瀬戸町下３２８番地１５Ｃ棟,,33,103,7090856,,,,,,,2023-08-16,1,,,,,パナクオーリ,0
2030,8290001102552,新規,0,2023-08-16,2023-08-16,凛電工株式会社,,株式会社,福岡県,糟屋郡志免町,別府１丁目１２番１８号,,40,343,8112205,,,,,,,2023-08-16,1,,,,,リンデンコウ,0
2031,8290001102651,新規,0,2023-08-16,2023-08-16,米倉工務店株式会社,,株式会社,福岡県,久留米市,北野町十郎丸２０９７番地１,,40,203,8301121,,,,,,,2023-08-16,1,,,,,ヨネクラコウムテン,0
2032,8290001102684,新規,0,2023-08-16,2023-08-16,株式会社人心家,,株式会社,福岡県,福岡市城南区,茶山６丁目１７番２４号,,40,136,8140111,,,,,,,2023-08-16,1,,,,,ヒトミヤ,0
2035,8290003014242,新規,0,2023-08-16,2023-08-16,合同会社ｃｏｎｎｅｃｔ,,合同会社,福岡県,福岡市早良区,次郎丸２丁目２８番６号,,40,137,8140165,,,,,,,2023-08-16,1,,,,,コネクト,0
2038,8300003002014,新規,0,2023-08-16,2023-08-16,合同会社Ｋｕｌｉａ,,合同会社,佐賀県,鳥栖市,平田町１１００番地６エクリュエスパージュＢ４,,41,203,8410076,,,,,,,2023-08-16,1,,,,,,0
2039,8300005007151,新規,0,2023-08-16,2023-08-16,一般社団法人九州ヘンプ協会,,その他の設立登記法人,佐賀県,佐賀市,南佐賀２丁目１４番５号,,41,201,8400016,,,,,,,2023-08-16,1,,,,,キュウシュウヘンプキョウカイ,0
2041,8330001031111,新規,0,2023-08-16,2023-08-16,株式会社育つ場ＫＵＭＡＭＯＴＯ,,株式会社,熊本県,熊本市中央区,白山１丁目６番５号,,43,101,8620959,,,,,,,2023-08-16,1,,,,,ソダツバクマモト,0
2042,8330001031152,新規,0,2023-08-16,2023-08-16,株式会社産土,,株式会社,熊本県,玉名郡和水町,西吉地２２２６番地２,,43,369,8610906,,,,,,,2023-08-16,1,,,,,ウブスナ,0
2046,8350001018511,新規,0,2023-08-16,2023-08-16,株式会社シブヤ林業,,株式会社,宮崎県,延岡市,大貫町６丁目１９７０番地１,,45,203,8820803,,,,,,,2023-08-16,1,,,,,シブヤリンギョウ,0
2047,8360001032429,新規,0,2023-08-16,2023-08-16,株式会社ＯＫＩＴＲＡ,,株式会社,沖縄県,糸満市,潮崎町３丁目１８番地の１,,47,210,9010364,,,,,,,2023-08-16,1,,,,,オキトラ,0
2054,8370003006248,新規,0,2023-08-16,2023-08-16,合同会社和昇,,合同会社,宮城県,名取市,相互台２丁目８番地の６,,04,207,9811246,,,,,,,2023-08-16,1,,,,,ワショウ,0
2058,8380001033929,新規,0,2023-08-16,2023-08-16,アース株式会社,,株式会社,福島県,伊達郡川俣町,字仲ノ内５５番地の５ファミリーラインＢ棟,,07,308,9601412,,,,,,,2023-08-16,1,,,,,アース,0
2059,8380003005546,新規,0,2023-08-16,2023-08-16,ハレ・サンクリーン合同会社,,合同会社,福島県,郡山市,富久山町久保田字桝形６９番地の３２,,07,203,9638071,,,,,,,2023-08-16,1,,,,,ハレサンクリーン,0
2060,8380005012739,新規,0,2023-08-16,2023-08-16,一般社団法人南相馬空き家・空き地サポートセンター,,その他の設立登記法人,福島県,南相馬市,原町区旭町１丁目４６番地の４・２階東,,07,212,9750004,,,,,,,2023-08-16,1,,,,,ミナミソウマアキヤアキチサポートセンター,0
2061,8410001013571,新規,0,2023-08-16,2023-08-16,株式会社ｓｔｅｌｌａ,,株式会社,秋田県,秋田市,御所野堤台１丁目６－７８－５,,05,201,0101419,,,,,,,2023-08-16,1,,,,,ステラ,0
2063,8420001018371,新規,0,2023-08-16,2023-08-16,株式会社Ａ．Ａグループ,,株式会社,青森県,青森市,本町２丁目６番４号Ｂ１０６,,02,201,0300802,,,,,,,2023-08-16,1,,,,,,0
2065,8430001089750,新規,0,2023-08-16,2023-08-16,Ｉｔ’ｓ株式会社,,株式会社,北海道,札幌市厚別区,上野幌三条４丁目１３番１０号,,01,108,0040033,,,,,,,2023-08-16,1,,,,,イッツ,0
2066,8430001089767,新規,0,2023-08-16,2023-08-16,株式会社サープラスワン,,株式会社,北海道,石狩市,花畔二条１丁目１１７番地１,,01,235,0613282,,,,,,,2023-08-16,1,,,,,サープラスワン,0
2070,8450001014079,新規,0,2023-08-16,2023-08-16,株式会社ＲＥＡＬＴＹ　ＥＩＧＨＴ津田,,株式会社,北海道,旭川市,南九条通２６丁目５８９番地の３,,01,204,0788339,,,,,,,2023-08-16,1,,,,,リアルティエイトツダ,0
2076,8470005006517,新規,0,2023-08-16,2023-08-16,特定非営利活動法人せとうち伊吹島元気隊,,その他の設立登記法人,香川県,観音寺市,伊吹町１９４番地,,37,205,7680071,,,,,,,2023-08-16,1,,,,,セトウチイブキジマゲンキタイ,0
2077,8470005006525,新規,0,2023-08-16,2023-08-16,医療法人社団彰秀会,,その他の設立登記法人,香川県,坂出市,元町１丁目１０番５号,,37,203,7620045,,,,,,,2023-08-16,1,,,,,ショウシュウカイ,0
2078,8490005006903,新規,0,2023-08-16,2023-08-16,一般社団法人まるごとデジタル,,その他の設立登記法人,高知県,高岡郡日高村,本郷６１番地１,,39,410,7812153,,,,,,,2023-08-16,1,,,,,マルゴトデジタル,0
2090,9010001237697,新規,0,2023-08-16,2023-08-16,アンビエンテイノベーション株式会社,,株式会社,東京都,中央区,銀座１丁目１２－４Ｎ＆Ｅ．ＢＬＤ７階,,13,102,1040061,,,,,,,2023-08-16,1,,,,,アンビエンテイノベーション,0
2091,9010001237730,新規,0,2023-08-16,2023-08-16,ＪＰＣ第３７号株式会社,,株式会社,東京都,千代田区,霞が関３丁目２番１号,,13,101,1000013,,,,,,,2023-08-16,1,,,,,ジェイピーシーダイサンジュウナナゴウ,0
2092,9010001237739,新規,0,2023-08-16,2023-08-16,ＪＰＣ第４６号株式会社,,株式会社,東京都,千代田区,霞が関３丁目２番１号,,13,101,1000013,,,,,,,2023-08-16,1,,,,,ジェイピーシーダイヨンジュウロクゴウ,0
2093,9010001237747,新規,0,2023-08-16,2023-08-16,株式会社ＣＡＮＡＬ,,株式会社,東京都,中央区,銀座１丁目１２－４Ｎ＆ＥＢＬＤ．７階,,13,102,1040061,,,,,,,2023-08-16,1,,,,,カナル,0
2094,9010001237755,新規,0,2023-08-16,2023-08-16,株式会社ハルエンターテイメント,,株式会社,東京都,中央区,銀座３丁目１５番８号銀座プラザビル,,13,102,1040061,,,,,,,2023-08-16,1,,,,,ハルエンターテイメント,0
2097,9010003041370,新規,0,2023-08-16,2023-08-16,ＬＥＶＥＣＨＹファンド８号合同会社,,合同会社,東京都,千代田区,紀尾井町３－８第２紀尾井町ビル９０１アクシス綜合会計事務所内,,13,101,1020094,,,,,,,2023-08-16,1,,,,,レベチーファンドハチゴウ,0
2098,9010003041387,新規,0,2023-08-16,2023-08-16,合同会社ゆずりはリゾート,,合同会社,東京都,中央区,日本橋３丁目５番１２号ＤＥＣＯＴＯＫＹＯ４階,,13,102,1030027,,,,,,,2023-08-16,1,,,,,ユズリハリゾート,0
2101,9010005037128,新規,0,2023-08-16,2023-08-16,一般社団法人日本経済安全保障研究所,,その他の設立登記法人,東京都,千代田区,神田錦町３丁目１５番地１０,,13,101,1010054,,,,,,,2023-08-16,1,,,,,ニホンケイザイアンゼンホショウケンキュウショ,0
2102,9010005037136,新規,0,2023-08-16,2023-08-16,一般社団法人ＷＴＨホールディングス,,その他の設立登記法人,東京都,千代田区,丸の内１丁目６番５号,,13,101,1000005,,,,,,,2023-08-16,1,,,,,ダブリューティーエイチホールディングス,0
2106,9010401176314,新規,0,2023-08-16,2023-08-16,株式会社ＡＷＡＬ,,株式会社,東京都,港区,芝５丁目１４番１７号,,13,103,1080014,,,,,,,2023-08-16,1,,,,,アワール,0
2107,9010401176322,新規,0,2023-08-16,2023-08-16,株式会社Ａｚ　Ｓｔｏｒｍｙ,,株式会社,東京都,港区,南青山２丁目２番１５号ＷｉｎＡｏｙａｍａビルＵＣＦ６３５,,13,103,1070062,,,,,,,2023-08-16,1,,,,,アズストーミー,0
2108,9010401176388,新規,0,2023-08-16,2023-08-16,株式会社ＣＯＴＯＬＡＢ,,株式会社,東京都,港区,北青山１丁目３番１号アールキューブ青山３階,,13,103,1070061,,,,,,,2023-08-16,1,,,,,コトラボ,0
2109,9010401176438,新規,0,2023-08-16,2023-08-16,株式会社サムライヒーロー,,株式会社,東京都,港区,北青山１丁目３番１号アールキューブ青山３Ｆ,,13,103,1070061,,,,,,,2023-08-16,1,,,,,サムライヒーロー,0
2115,9010403030650,新規,0,2023-08-16,2023-08-16,合同会社オスカン,,合同会社,東京都,港区,浜松町２丁目２－１５ダイヤビル２Ｆ,,13,103,1050013,,,,,,,2023-08-16,1,,,,,オスカン,0
2116,9010403030709,新規,0,2023-08-16,2023-08-16,ＢＥＲＲＹＮＩＣＥ合同会社,,合同会社,東京都,港区,高輪２丁目２１番３６号７０１号室,,13,103,1080074,,,,,,,2023-08-16,1,,,,,ベリーナイス,0
2120,9010601063626,新規,0,2023-08-16,2023-08-16,株式会社Ａｔｅｌｉｅｒ　ｋｏｔｔｅ,,株式会社,東京都,江東区,扇橋２丁目１番３号,,13,108,1350011,,,,,,,2023-08-16,1,,,,,アトリエコテ,0
2125,9010701044708,新規,0,2023-08-16,2023-08-16,株式会社Ａｋｉｙａｍａホールディングス,,株式会社,東京都,品川区,平塚２丁目７番１１号,,13,109,1420051,,,,,,,2023-08-16,1,,,,,アキヤマホールディングス,0
2130,9010801034245,新規,0,2023-08-16,2023-08-16,株式会社お茶目倶楽部,,株式会社,東京都,大田区,蒲田本町２丁目１番８号,,13,111,1440053,,,,,,,2023-08-16,1,,,,,オチャメクラブ,0
2135,9011001156276,新規,0,2023-08-16,2023-08-16,ＣＯＮＮＥＣＴＥＸ株式会社,,株式会社,東京都,渋谷区,神宮前６丁目２３番４号桑野ビル２Ｆ,,13,113,1500001,,,,,,,2023-08-16,1,,,,,コネクテックス,0
2136,9011003017336,新規,0,2023-08-16,2023-08-16,合同会社アオナミ,,合同会社,東京都,渋谷区,道玄坂１丁目１６－６二葉ビル８ｂ,,13,113,1500043,,,,,,,2023-08-16,1,,,,,アオナミ,0
2137,9011003017344,新規,0,2023-08-16,2023-08-16,合同会社ＴＴＭＴ　ＧＲＯＵＰ,,合同会社,東京都,渋谷区,道玄坂２丁目１７－２トップ美庵ビルＢ１Ｆ,,13,113,1500043,,,,,,,2023-08-16,1,,,,,ティーティーエムティー,0
2138,9011101104036,新規,0,2023-08-16,2023-08-16,株式会社Ｏｕｔｐａｃｅ,,株式会社,東京都,新宿区,新宿４丁目３－１７ＦＯＲＥＣＡＳＴ新宿ＳＯＵＴＨ,,13,104,1600022,,,,,,,2023-08-16,1,,,,,アウトペース,0
2143,9011301028927,新規,0,2023-08-16,2023-08-16,Ｌｉｐ株式会社,,株式会社,東京都,杉並区,方南１丁目１２番１６号サザンコンパス２０１,,13,115,1680062,,,,,,,2023-08-16,1,,,,,リップ,0
2144,9011303004868,新規,0,2023-08-16,2023-08-16,ＰＲＡＰＴＩ合同会社,,合同会社,東京都,杉並区,阿佐谷北２丁目８番２８号スカイハウス１０３,,13,115,1660001,,,,,,,2023-08-16,1,,,,,プラプティ,0
2148,9011801042824,新規,0,2023-08-16,2023-08-16,株式会社ミライエアー,,株式会社,東京都,足立区,東綾瀬１丁目２０－１０,,13,121,1200004,,,,,,,2023-08-16,1,,,,,ミライエアー,0
2152,9012401040862,新規,0,2023-08-16,2023-08-16,株式会社キエリュナ,,株式会社,東京都,武蔵野市,境５丁目２７番２４号,,13,203,1800022,,,,,,,2023-08-16,1,,,,,キエリュナ,0
2157,9013301051223,新規,0,2023-08-16,2023-08-16,株式会社Ｍｉｌ　Ｔｅｃｈｎｏｌｏｇｉｅｓ,,株式会社,東京都,豊島区,南池袋２丁目４９－７池袋パークビル１階,,13,116,1710022,,,,,,,2023-08-16,1,,,,,ミルテクノロジーズ,0
2158,9013303006753,新規,0,2023-08-16,2023-08-16,ＰｌａｎＢ合同会社,,合同会社,東京都,豊島区,西池袋５丁目２８番６号オークヒルズ５０３号,,13,116,1710021,,,,,,,2023-08-16,1,,,,,プランビー,0
2164,9020001152912,新規,0,2023-08-16,2023-08-16,博雅株式会社,,株式会社,神奈川県,横浜市鶴見区,市場上町１０－５１－１１４,,14,101,2300021,,,,,,,2023-08-16,1,,,,,ホヤ,0
2165,9020001153019,新規,0,2023-08-16,2023-08-16,レッドウィング株式会社,,株式会社,神奈川県,横浜市旭区,今宿南町１８４１番地２,,14,112,2410034,,,,,,,2023-08-16,1,,,,,レッドウィング,0
2166,9020001153092,新規,0,2023-08-16,2023-08-16,株式会社Ｇｏ　Ｂｅｙｏｎｄ,,株式会社,神奈川県,横浜市磯子区,馬場町９番１７号,,14,107,2350002,,,,,,,2023-08-16,1,,,,,ゴービヨンド,0
2169,9020003024317,新規,0,2023-08-16,2023-08-16,合同会社ｅｓｔｉａｔｅ,,合同会社,神奈川県,横浜市戸塚区,上柏尾町２６１番地３２,,14,110,2440811,,,,,,,2023-08-16,1,,,,,エスティエイト,0
2170,9020003024333,新規,0,2023-08-16,2023-08-16,合同会社ＣｌａｓｓｉｃＣｈａｐｓ,,合同会社,神奈川県,横浜市栄区,小菅ケ谷３丁目６３番２１号,,14,115,2470007,,,,,,,2023-08-16,1,,,,,クラシックチャップス,0
2171,9020003024382,新規,0,2023-08-16,2023-08-16,メディカルＤＸ合同会社,,合同会社,神奈川県,横浜市鶴見区,上末吉２丁目７番１－３２０号,,14,101,2300011,,,,,,,2023-08-16,1,,,,,メディカルディーエックス,0
2172,9020003024432,新規,0,2023-08-16,2023-08-16,Ｒｉｇｈｔ‐Ｈａｎｄｓ　Ｍｉｘ合同会社,,合同会社,神奈川県,川崎市高津区,上作延１００５番地,,14,134,2130034,,,,,,,2023-08-16,1,,,,,ライトハンズミックス,0
2176,9021001079922,新規,0,2023-08-16,2023-08-16,清水テクニカ株式会社,,株式会社,神奈川県,横須賀市,西浦賀５丁目３３番４号,,14,201,2390824,,,,,,,2023-08-16,1,,,,,シミズテクニカ,0
2184,9030005021360,新規,0,2023-08-16,2023-08-16,一般社団法人ニャンクチュアリ,,その他の設立登記法人,埼玉県,越谷市,川柳町４丁目２４５番地１朝日プラザガーデンシティ新越谷１０９,,11,222,3430827,,,,,,,2023-08-16,1,,,,,ニャンクチュアリ,0
2188,9040001129693,新規,0,2023-08-16,2023-08-16,株式会社長浦屋,,株式会社,千葉県,袖ケ浦市,蔵波２８９９番地２６,,12,229,2990243,,,,,,,2023-08-16,1,,,,,ナガウラヤ,0
2189,9040001129727,新規,0,2023-08-16,2023-08-16,島袋興業株式会社,,株式会社,千葉県,市川市,柏井町１丁目１９０４番地コリーナ柏井４０４号,,12,203,2720802,,,,,,,2023-08-16,1,,,,,シマブクロコウギョウ,0
2192,9040003023127,新規,0,2023-08-16,2023-08-16,Ｚ＆Ｚ合同会社,,合同会社,千葉県,千葉市稲毛区,稲毛３丁目７番８号新富稲毛第二１０５号室,,12,103,2630034,,,,,,,2023-08-16,1,,,,,ゼットアンドゼット,0
2193,9040003023135,新規,0,2023-08-16,2023-08-16,合同会社Ａｓａｔｙ,,合同会社,千葉県,佐倉市,上座５５８－２６マイキャッスルユーカリが丘３０３号,,12,212,2850854,,,,,,,2023-08-16,1,,,,,アサティー,0
2194,9040005022093,新規,0,2023-08-16,2023-08-16,一般社団法人日本アダプティブサーフィン協会,,その他の設立登記法人,千葉県,長生郡一宮町,東浪見７５１７番地１,,12,421,2994303,,,,,,,2023-08-16,1,,,,,ニッポンアダプティブサーフィンキョウカイ,0
2202,9060001036260,新規,0,2023-08-16,2023-08-16,株式会社丸氣,,株式会社,栃木県,那須塩原市,東三島３丁目４０番地２ユーミー・パル３０３号,,09,213,3292751,,,,,,,2023-08-16,1,,,,,マルキ,0
2207,9080105006356,新規,0,2023-08-16,2023-08-16,一般社団法人三島市造園建設業協会,,その他の設立登記法人,静岡県,三島市,佐野１１５０番地の７,,22,206,4110047,,,,,,,2023-08-16,1,,,,,ミシマシゾウエンケンセツギョウキョウカイ,0
2208,9080401026669,新規,0,2023-08-16,2023-08-16,株式会社ＣＲＡＦＴ　ＷＯＲＫＳ,,株式会社,静岡県,掛川市,城西２丁目１２番２６号コーポマリンブルー２０１,,22,213,4360054,,,,,,,2023-08-16,1,,,,,クラフトワークス,0
2211,9090001018256,新規,0,2023-08-16,2023-08-16,株式会社Ｅａｒｔｈ　Ｒｏｏｆ,,株式会社,山梨県,甲斐市,中下条８９１番地７,,19,210,4000124,,,,,,,2023-08-16,1,,,,,アースルーフ,0
2212,9090001018272,新規,0,2023-08-16,2023-08-16,白州テラスキャンプ場株式会社,,株式会社,山梨県,北杜市,白州町台ヶ原字川平２３５４－２５８,,19,209,4080312,,,,,,,2023-08-16,1,,,,,ハクシュウテラスキャンプジョウ,0
2222,9120001257107,新規,0,2023-08-16,2023-08-16,株式会社ＵＮＩＰＥＴ,,株式会社,大阪府,大阪市生野区,林寺４丁目３－２６,,27,116,5440023,,,,,,,2023-08-16,1,,,,,ユニペット,0
2223,9120001257148,新規,0,2023-08-16,2023-08-16,テラテンポ株式会社,,株式会社,大阪府,大阪市浪速区,難波中３丁目９番地１,,27,111,5560011,,,,,,,2023-08-16,1,,,,,テラテンポ,0
2224,9120001257164,新規,0,2023-08-16,2023-08-16,ＰｌｕｓＦｉｘｅｒ株式会社,,株式会社,大阪府,大阪市北区,芝田２丁目８番１１号,,27,127,5300012,,,,,,,2023-08-16,1,,,,,プラスフィクサー,0
2225,9120001257172,新規,0,2023-08-16,2023-08-16,株式会社Ｒ＆Ｙｓ,,株式会社,大阪府,大阪市福島区,玉川４丁目１２番１０－１３０２号,,27,103,5530004,,,,,,,2023-08-16,1,,,,,,0
2226,9120001257239,新規,0,2023-08-16,2023-08-16,屹峰株式会社,,株式会社,大阪府,大阪市大正区,三軒家西３丁目４番１６号中山ビル１００５,,27,108,5510001,,,,,,,2023-08-16,1,,,,,キツホウ,0
2229,9120003024686,新規,0,2023-08-16,2023-08-16,ＧＡＴＥ　ｓｏｌｕｔｉｏｎ合同会社,,合同会社,大阪府,大阪市西区,立売堀１丁目４番２２セレニテ本町グランデ１３１２号,,27,106,5500012,,,,,,,2023-08-16,1,,,,,ゲートソリューション,0
2232,9120901047953,新規,0,2023-08-16,2023-08-16,株式会社ＳｏｕｔｈＳｋｙ,,株式会社,大阪府,豊中市,新千里西町３丁目２３番４号,,27,203,5600083,,,,,,,2023-08-16,1,,,,,サウススカイ,0
2236,9130001074922,新規,0,2023-08-16,2023-08-16,株式会社メディカロード,,株式会社,京都府,城陽市,奈島内垣内４７番地４,,26,207,6100116,,,,,,,2023-08-16,1,,,,,メディカロード,0
2237,9130001074963,新規,0,2023-08-16,2023-08-16,株式会社モクジヤ,,株式会社,京都府,京都市伏見区,深草薮之内町２０番地２,,26,109,6120000,,,,,,,2023-08-16,1,,,,,モクジヤ,0
2243,9140001131251,新規,0,2023-08-16,2023-08-16,株式会社Ｃｅｎｔｅｒｖａｌｌｅｙ,,株式会社,兵庫県,加古川市,野口町坂元北３丁目５１番地の２フローラ坂元Ｂ－１０２号,,28,210,6750010,,,,,,,2023-08-16,1,,,,,センターバレー,0
2246,9150001026640,新規,0,2023-08-16,2023-08-16,株式会社Ｓｔａｒｔ,,株式会社,奈良県,奈良市,大安寺西３丁目７番１４号,,29,201,6308135,,,,,,,2023-08-16,1,,,,,スタート,0
2247,9170003001912,新規,0,2023-08-16,2023-08-16,合同会社光の家,,合同会社,和歌山県,和歌山市,六十谷８５４番地１,,30,201,6408482,,,,,,,2023-08-16,1,,,,,ヒカリノイエ,0
2256,9180001157623,新規,0,2023-08-16,2023-08-16,Ｐｉｎｅ．ｃｏ株式会社,,株式会社,愛知県,名古屋市中川区,中郷５丁目２９番地メゾン山守１階,,23,110,4540921,,,,,,,2023-08-16,1,,,,,パインドットシーオー,0
2257,9180001157648,新規,0,2023-08-16,2023-08-16,ヤマドトランス株式会社,,株式会社,愛知県,津島市,神尾町字西之割３８番地,,23,208,4960013,,,,,,,2023-08-16,1,,,,,ヤマドトランス,0
2258,9180001157672,新規,0,2023-08-16,2023-08-16,小栗興業株式会社,,株式会社,愛知県,名古屋市中川区,十一番町４丁目８番地の１２,,23,110,4540056,,,,,,,2023-08-16,1,,,,,オグリコウギョウ,0
2259,9180001157680,新規,0,2023-08-16,2023-08-16,株式会社ＥＮ　ｐｌｕｓ,,株式会社,愛知県,名古屋市港区,名港２丁目３番１６号（ＶＩＰマンション名港２０３号）,,23,111,4550037,,,,,,,2023-08-16,1,,,,,エンプラス,0
2260,9180001157689,新規,0,2023-08-16,2023-08-16,株式会社ＣＨＥＥＳＥ,,株式会社,愛知県,名古屋市中区,栄３丁目１５番２７号いちご栄ビル９階,,23,106,4600008,,,,,,,2023-08-16,1,,,,,チーズ,0
2261,9180001157697,新規,0,2023-08-16,2023-08-16,株式会社ＹＥＢＩＳＵ,,株式会社,愛知県,稲沢市,下津北山１丁目２番地ミッドレジデンス稲沢１３０７,,23,220,4928094,,,,,,,2023-08-16,1,,,,,エビス,0
2267,9180003025621,新規,0,2023-08-16,2023-08-16,ＡＢＩＯ合同会社,,合同会社,愛知県,名古屋市昭和区,駒方町２丁目４７番地,,23,107,4660832,,,,,,,2023-08-16,1,,,,,アビオ,0
2268,9180003025638,新規,0,2023-08-16,2023-08-16,トライオープン合同会社,,合同会社,愛知県,名古屋市港区,千鳥１丁目１３番１２号丸美ロイヤル港１２０４号,,23,111,4550031,,,,,,,2023-08-16,1,,,,,トライオープン,0
2272,9200001041618,新規,0,2023-08-16,2023-08-16,株式会社ミタス,,株式会社,岐阜県,岐阜市,大福町７丁目７０－５,,21,201,5020934,,,,,,,2023-08-16,1,,,,,ミタス,0
2273,9210005010106,新規,0,2023-08-16,2023-08-16,一般社団法人あわらテクノロジー協議会,,その他の設立登記法人,福井県,あわら市,中浜第１号１番地,,18,208,9104144,,,,,,,2023-08-16,1,,,,,アワラテクノロジーキョウギカイ,0
2279,9250001020253,新規,0,2023-08-16,2023-08-16,株式会社Ｋ＆Ｅ商社,,株式会社,山口県,下関市,竹崎町２丁目１番１３号,,35,201,7500025,,,,,,,2023-08-16,1,,,,,ケーアンドイーショウシャ,0
2286,9290001102642,新規,0,2023-08-16,2023-08-16,株式会社Ｆｉｖｅ６,,株式会社,福岡県,糟屋郡志免町,王子３丁目１８番１号,,40,343,8112209,,,,,,,2023-08-16,1,,,,,ファイブセイ,0
2287,9290001102691,新規,0,2023-08-16,2023-08-16,株式会社亮建,,株式会社,福岡県,宗像市,東郷５丁目２番５号タカノ事務所２Ｆ,,40,220,8113436,,,,,,,2023-08-16,1,,,,,リョウケン,0
2288,9290001102700,新規,0,2023-08-16,2023-08-16,株式会社銀今朝,,株式会社,福岡県,福岡市中央区,荒戸１丁目３番２０号,,40,133,8100062,,,,,,,2023-08-16,1,,,,,ギンゲサ,0
2289,9290003014225,新規,0,2023-08-16,2023-08-16,合同会社Ａｓｓｅｍｂｌｅ　Ｃｏｍｍｕｎｉｔｙ,,合同会社,福岡県,福岡市中央区,大名１丁目２０－２０－２－Ａ,,40,133,8100041,,,,,,,2023-08-16,1,,,,,アセンブルコミュニティ,0
2290,9290005019107,新規,0,2023-08-16,2023-08-16,一般社団法人えん,,その他の設立登記法人,福岡県,福津市,宮司ヶ丘２番１号,,40,224,8113312,,,,,,,2023-08-16,1,,,,,エン,0
2294,9330001031127,新規,0,2023-08-16,2023-08-16,ティップライブジャパン株式会社,,株式会社,熊本県,熊本市南区,城南町宮地５７３番地前田ビル２０１,,43,104,8614202,,,,,,,2023-08-16,1,,,,,ティップライブジャパン,0
2295,9330001031135,新規,0,2023-08-16,2023-08-16,株式会社ｃａｆｅ　ｂｌｅｕ,,株式会社,熊本県,天草市,有明町大島子２３８０番地１・２Ｆ,,43,215,8617314,,,,,,,2023-08-16,1,,,,,カフェブルー,0
2296,9330001031151,新規,0,2023-08-16,2023-08-16,株式会社ＭＯＡ,,株式会社,熊本県,熊本市中央区,花畑町１３番４９号第三リキビル６Ｆ,,43,101,8600806,,,,,,,2023-08-16,1,,,,,モア,0
2301,9340001025821,新規,0,2023-08-16,2023-08-16,株式会社まごころ,,株式会社,鹿児島県,いちき串木野市,住吉町１３３番地４,,46,219,8960021,,,,,,,2023-08-16,1,,,,,マゴコロ,0
2305,9340003004212,新規,0,2023-08-16,2023-08-16,合同会社こころ,,合同会社,鹿児島県,奄美市,笠利町大字辺留２１０番地１,,46,222,8940623,,,,,,,2023-08-16,1,,,,,ココロ,0
2309,9350001018519,新規,0,2023-08-16,2023-08-16,ＰＩＮＥＰＯＲＴ株式会社,,株式会社,宮崎県,宮崎市,下北方町塚原５７１３番地１,,45,201,8800035,,,,,,,2023-08-16,1,,,,,パインポート,0
2314,9370003006247,新規,0,2023-08-16,2023-08-16,合同会社リアンエージェント,,合同会社,宮城県,仙台市青葉区,国分町３丁目１０番３４号コーポすず２階,,04,101,9800803,,,,,,,2023-08-16,1,,,,,リアンエージェント,0
2318,9380001033928,新規,0,2023-08-16,2023-08-16,株式会社ごてん農園,,株式会社,福島県,いわき市,四倉町細谷字御殿７番地の１,,07,204,9790204,,,,,,,2023-08-16,1,,,,,ゴテンノウエン,0
2324,9420001018370,新規,0,2023-08-16,2023-08-16,金山商店株式会社,,株式会社,青森県,八戸市,城下１丁目１９番３号,,02,203,0310072,,,,,,,2023-08-16,1,,,,,カネヤマショウテン,0
2327,9430001089725,新規,0,2023-08-16,2023-08-16,株式会社ＳＯＬＶＥＲ,,株式会社,北海道,札幌市南区,真駒内本町３丁目１番１０－４０５号,,01,106,0050021,,,,,,,2023-08-16,1,,,,,ソルバー,0
2328,9430001089766,新規,0,2023-08-16,2023-08-16,株式会社ＨＭＲ,,株式会社,北海道,札幌市東区,伏古九条５丁目２番５号,,01,103,0070869,,,,,,,2023-08-16,1,,,,,エイチエムアール,0
2331,9450001014078,新規,0,2023-08-16,2023-08-16,株式会社ＡＬＬ　ＷＩＮ,,株式会社,北海道,旭川市,亀吉一条３丁目１番３号,,01,204,0700081,,,,,,,2023-08-16,1,,,,,オールウィン,0
2332,9450003002378,新規,0,2023-08-16,2023-08-16,ディライト合同会社,,合同会社,北海道,旭川市,台場一条３丁目５番,,01,204,0708071,,,,,,,2023-08-16,1,,,,,ディライト,0
