sequenceNumber,corporateNumber,process,correct,updateDate,changeDate,name,nameImageId,kind,prefectureName,cityName,streetNumber,addressImageId,prefectureCode,cityCode,postCode,addressOutside,addressOutsideImageId,closeDate,closeCause,successorCorporateNumber,changeCause,assignmentDate,latest,enName,enPrefectureName,enCityName,enAddressOutside,furigana,hihyoji
7,1010001222194,新規,0,2021-11-02,2021-11-02,ＪＯＰＣ株式会社,,株式会社,東京都,中央区,日本橋人形町３丁目３番９号,,13,102,1030013,,,,,,,2021-11-02,1,,,,,ジェイオーピーシー,0
8,1010001222244,新規,0,2021-11-02,2021-11-02,株式会社ＭＫリニューアル,,株式会社,東京都,千代田区,神田和泉町１番地７－２０みつば第５ビル,,13,101,1010024,,,,,,,2021-11-02,1,,,,,エムケイリニューアル,0
10,1010003036089,新規,0,2021-11-02,2021-11-02,ＣＢＤ　ＡＳＩＡ　ＨＯＬＤＩＮＧＳ合同会社,,合同会社,東京都,千代田区,丸の内２丁目３番２号,,13,101,1000005,,,,,,,2021-11-02,1,,,,,シービーディーアシアホールディングス,0
11,1010003036130,新規,0,2021-11-02,2021-11-02,合同会社ＮＴサービス,,合同会社,東京都,中央区,日本橋小伝馬町２１番１号ＴＨＥ・ＰＯＲＴＡＬ・Ｎｉｈｏｍｂａｓｈｉ・Ｅａｓｔ４Ｆ,,13,102,1030001,,,,,,,2021-11-02,1,,,,,エヌティサービス,0
12,1010003036163,新規,0,2021-11-02,2021-11-02,ストーンピーク・ジャパン合同会社,,合同会社,東京都,千代田区,霞が関３丁目２番６号東京倶楽部ビルディング１１階,,13,101,1000013,,,,,,,2021-11-02,1,,,,,ストーンピークジャパン,0
13,1010005034140,新規,0,2021-11-02,2021-11-02,ＮＰＯ法人国際浮世絵普及協会,,その他の設立登記法人,東京都,中央区,八丁堀４丁目１４番１－８０６号,,13,102,1040032,,,,,,,2021-11-02,1,,,,,コクサイウキヨエフキュウキョウカイ,0
23,1010401163492,新規,0,2021-11-02,2021-11-02,株式会社マイスター・インベストメント,,株式会社,東京都,港区,白金台１丁目１－１３－８０１,,13,103,1080071,,,,,,,2021-11-02,1,,,,,マイスターインベストメント,0
24,1010401163542,新規,0,2021-11-02,2021-11-02,ＩＰジェネレーター株式会社,,株式会社,東京都,港区,愛宕２丁目５番１号,,13,103,1050002,,,,,,,2021-11-02,1,,,,,アイピージェネレーター,0
25,1010401163550,新規,0,2021-11-02,2021-11-02,株式会社デルモアセット,,株式会社,東京都,港区,元麻布１丁目３番１－７０２号,,13,103,1060046,,,,,,,2021-11-02,1,,,,,デルモアセット,0
26,1010401163583,新規,0,2021-11-02,2021-11-02,株式会社Ｃａｔｈｙ　Ａｔｔｒａｃｔｉｖｅ,,株式会社,東京都,港区,西新橋３丁目１４－８,,13,103,1050003,,,,,,,2021-11-02,1,,,,,キャシーアトラクティブ,0
28,1010405020376,新規,0,2021-11-02,2021-11-02,稲城特定目的会社,,その他の設立登記法人,東京都,港区,元赤坂１丁目１番８号株式会社赤坂国際会計内,,13,103,1070051,,,,,,,2021-11-02,1,,,,,イナギ,0
31,1010501048049,新規,0,2021-11-02,2021-11-02,Ｎａｂｅｎｏ－Ｉｓｍ株式会社,,株式会社,東京都,台東区,駒形２丁目１番１７号,,13,106,1110043,,,,,,,2021-11-02,1,,,,,ナベノイズム,0
35,1010603009238,新規,0,2021-11-02,2021-11-02,合同会社順理,,合同会社,東京都,江東区,扇橋３丁目２番９号,,13,108,1350011,,,,,,,2021-11-02,1,,,,,ジュンリ,0
37,1010703005995,新規,0,2021-11-02,2021-11-02,合同会社森田久雄建築計画,,合同会社,東京都,品川区,東大井５丁目６－１３,,13,109,1400011,,,,,,,2021-11-02,1,,,,,モリタヒサオケンチクケイカク,0
43,1010901049712,新規,0,2021-11-02,2021-11-02,天沐株式会社,,株式会社,東京都,世田谷区,駒沢１丁目１７番１５号アルコ駒沢ビル２０１,,13,112,1540012,,,,,,,2021-11-02,1,,,,,テンモク,0
49,1011003013664,新規,0,2021-11-02,2021-11-02,合同会社ＮＧＢ,,合同会社,東京都,渋谷区,代々木１丁目１８番１５号,,13,113,1510053,,,,,,,2021-11-02,1,,,,,エヌジービー,0
51,1011005009289,新規,0,2021-11-02,2021-11-02,一般社団法人ＮＧＢ,,その他の設立登記法人,東京都,渋谷区,代々木１丁目１８番１５号,,13,113,1510053,,,,,,,2021-11-02,1,,,,,エヌジービー,0
56,1011101096743,新規,0,2021-11-02,2021-11-02,株式会社ＺＯＮＯ,,株式会社,東京都,新宿区,新宿６丁目２２番５－１０２号,,13,104,1600022,,,,,,,2021-11-02,1,,,,,ゾノ,0
57,1011101096768,新規,0,2021-11-02,2021-11-02,株式会社Ｆｕｎｅｒａｌ　Ｗｉｔｈ　Ｌｉｆｅ,,株式会社,東京都,新宿区,四谷４丁目２８番１５号慶和ビル９階,,13,104,1600004,,,,,,,2021-11-02,1,,,,,フューネラルウィズライフ,0
58,1011103011130,新規,0,2021-11-02,2021-11-02,合同会社ＭＡＫＥ　ＴＩＭＥ,,合同会社,東京都,新宿区,高田馬場３丁目２２番１号,,13,104,1690075,,,,,,,2021-11-02,1,,,,,メイクタイム,0
60,1011105010031,新規,0,2021-11-02,2021-11-02,一般財団法人マリオン財団,,その他の設立登記法人,東京都,新宿区,富久町９番１１号,,13,104,1620067,,,,,,,2021-11-02,1,,,,,マリオンザイダン,0
61,1011201023382,新規,0,2021-11-02,2021-11-02,株式会社グランドスラム,,株式会社,東京都,中野区,中央４丁目１４番１５号,,13,114,1640011,,,,,,,2021-11-02,1,,,,,グランドスラム,0
66,1011501027447,新規,0,2021-11-02,2021-11-02,株式会社Ｍ．Ｂ．Ｓテック,,株式会社,東京都,北区,堀船２丁目２２番１－１００５号,,13,117,1140004,,,,,,,2021-11-02,1,,,,,,0
70,1011701024822,新規,0,2021-11-02,2021-11-02,株式会社ホリゾンタル,,株式会社,東京都,江戸川区,松江１丁目５番１６－３０４号,,13,123,1320025,,,,,,,2021-11-02,1,,,,,ホリゾンタル,0
71,1011801039927,新規,0,2021-11-02,2021-11-02,株式会社リレイト,,株式会社,東京都,足立区,西新井１丁目１番１５ー３０８号,,13,121,1230841,,,,,,,2021-11-02,1,,,,,リレイト,0
74,1012401038476,新規,0,2021-11-02,2021-11-02,株式会社ばっか,,株式会社,東京都,三鷹市,下連雀４丁目１６番３号,,13,204,1810013,,,,,,,2021-11-02,1,,,,,バッカ,0
75,1012803002633,新規,0,2021-11-02,2021-11-02,合同会社エルバード,,合同会社,東京都,日野市,多摩平２丁目５－１－６３６,,13,212,1910062,,,,,,,2021-11-02,1,,,,,エルバード,0
80,1013303005886,新規,0,2021-11-02,2021-11-02,合同会社フリーパートナーズ,,合同会社,東京都,豊島区,東池袋５丁目４８－１５,,13,116,1700013,,,,,,,2021-11-02,1,,,,,フリーパートナーズ,0
89,1020001143679,新規,0,2021-11-02,2021-11-02,株式会社トンコクサン,,株式会社,神奈川県,川崎市宮前区,鷺沼３丁目１６番地７たまプラーザパークホームズ３０１,,14,136,2160004,,,,,,,2021-11-02,1,,,,,トンコクサン,0
90,1020001143704,新規,0,2021-11-02,2021-11-02,株式会社アオイトキ,,株式会社,神奈川県,横浜市中区,桜木町１丁目１０１番地１クロスゲート７階,,14,104,2310062,,,,,,,2021-11-02,1,,,,,アオイトキ,0
91,1020001143720,新規,0,2021-11-02,2021-11-02,株式会社Ａ玉,,株式会社,神奈川県,横浜市旭区,今川町４０番地４,,14,112,2410033,,,,,,,2021-11-02,1,,,,,エーダマ,0
94,1020003020736,新規,0,2021-11-02,2021-11-02,合同会社ＳＵＮ,,合同会社,神奈川県,川崎市川崎区,砂子２丁目８番１０号ジャパンビル２Ｄ号室,,14,131,2100006,,,,,,,2021-11-02,1,,,,,サン,0
99,1021001074360,新規,0,2021-11-02,2021-11-02,株式会社エピックマネジメントサービス,,株式会社,神奈川県,三浦郡葉山町,一色１０９２番地の４,,14,301,2400111,,,,,,,2021-11-02,1,,,,,エピックマネジメントサービス,0
109,1030003018234,新規,0,2021-11-02,2021-11-02,合同会社ＡＴ　ＩＮＴＥＲＮＡＴＩＯＮＡＬ,,合同会社,埼玉県,羽生市,北３丁目２４―１１,,11,216,3480057,,,,,,,2021-11-02,1,,,,,エーティーインターナショナル,0
121,1040005021409,新規,0,2021-11-02,2021-11-02,医療法人社団清見台いしい歯科,,その他の設立登記法人,千葉県,木更津市,清見台東３丁目１番７号,,12,206,2920041,,,,,,,2021-11-02,1,,,,,キヨミダイイシイシカ,0
128,1050003006170,新規,0,2021-11-02,2021-11-02,合同会社チャーム,,合同会社,茨城県,石岡市,鹿の子４丁目５番３１号,,08,205,3150005,,,,,,,2021-11-02,1,,,,,チャーム,0
129,1070001038585,新規,0,2021-11-02,2021-11-02,株式会社Ｃａｌｍ　Ｌｉｖｉｎｇ　Ｄｅｓｉｇｎ,,株式会社,群馬県,高崎市,棟高町１９２８番地１２３,,10,202,3703521,,,,,,,2021-11-02,1,,,,,カームリビングデザイン,0
130,1080001024535,新規,0,2021-11-02,2021-11-02,株式会社３‐ＬＩＮＥ,,株式会社,静岡県,静岡市葵区,川辺町２丁目２－３センチュリーするが２Ｆ,,22,101,4200043,,,,,,,2021-11-02,1,,,,,スリーライン,0
131,1080001024551,新規,0,2021-11-02,2021-11-02,タイケイフーズ株式会社,,株式会社,静岡県,焼津市,保福島１１２３番地の３,,22,212,4250087,,,,,,,2021-11-02,1,,,,,タイケイフーズ,0
135,1080401025463,新規,0,2021-11-02,2021-11-02,株式会社ＩＤＩ,,株式会社,静岡県,御前崎市,池新田３１２１番地の７,,22,223,4371612,,,,,,,2021-11-02,1,,,,,アイディアイ,0
137,1080403004399,新規,0,2021-11-02,2021-11-02,合同会社ぬくもり,,合同会社,静岡県,浜松市中区,上島１丁目１７番２５号,,22,131,4338122,,,,,,,2021-11-02,1,,,,,ヌクモリ,0
147,1120001241415,新規,0,2021-11-02,2021-11-02,金章株式会社,,株式会社,大阪府,大阪市北区,天満２丁目１－１２天満橋ＳＥビル５階,,27,127,5300043,,,,,,,2021-11-02,1,,,,,キンショウ,0
148,1120001241514,新規,0,2021-11-02,2021-11-02,株式会社寿Ｇｒｏｕｐ,,株式会社,大阪府,大阪市西区,江戸堀１丁目６番１７－３１０５号,,27,106,5500002,,,,,,,2021-11-02,1,,,,,コトブキグループ,0
149,1120001241539,新規,0,2021-11-02,2021-11-02,株式会社ＷＡＮＴＫＥＹ．Ｌａｂ,,株式会社,大阪府,守口市,梶町４丁目８２番６号,,27,209,5700015,,,,,,,2021-11-02,1,,,,,ウォンキーラボ,0
150,1120001241646,新規,0,2021-11-02,2021-11-02,株式会社浜崎自動車,,株式会社,大阪府,守口市,南寺方南通３丁目９番２号,,27,209,5700044,,,,,,,2021-11-02,1,,,,,ハマサキジドウシャ,0
151,1120003020511,新規,0,2021-11-02,2021-11-02,合同会社ＨＹ,,合同会社,大阪府,大阪市城東区,蒲生２丁目１０番３１－１００７号ＷＯＢ京橋,,27,118,5360016,,,,,,,2021-11-02,1,,,,,エイチワイ,0
152,1120005022588,新規,0,2021-11-02,2021-11-02,税理士法人田淵会計事務所,,その他の設立登記法人,大阪府,大阪市中央区,北浜２丁目１番２１号北浜ゲイトビル１０階,,27,128,5410041,,,,,,,2021-11-02,1,,,,,タブチカイケイジムショ,0
156,1120103004422,新規,0,2021-11-02,2021-11-02,はなたば合同会社,,合同会社,大阪府,堺市中区,八田西町２丁１２番３７号,,27,142,5998265,,,,,,,2021-11-02,1,,,,,ハナタバ,0
164,1130001070425,新規,0,2021-11-02,2021-11-02,株式会社林田組,,株式会社,京都府,京都市南区,吉祥院内河原町１１番地１,,26,107,6018392,,,,,,,2021-11-02,1,,,,,ハヤシダグミ,0
165,1130001070441,新規,0,2021-11-02,2021-11-02,株式会社是多,,株式会社,京都府,向日市,寺戸町西田中瀬２番地の２,,26,208,6170002,,,,,,,2021-11-02,1,,,,,ゼタ,0
174,1140001123628,新規,0,2021-11-02,2021-11-02,株式会社ＷＡＫＵＤＡ,,株式会社,兵庫県,神戸市中央区,下山手通２丁目１０－４－５Ｆ,,28,110,6500011,,,,,,,2021-11-02,1,,,,,ワクダ,0
175,1140001123652,新規,0,2021-11-02,2021-11-02,株式会社ウィンクルム＆Ｙ,,株式会社,兵庫県,神戸市中央区,御幸通６丁目１番１５号,,28,110,6510087,,,,,,,2021-11-02,1,,,,,ウィンクルムアンドワイ,0
176,1140001123660,新規,0,2021-11-02,2021-11-02,株式会社ＲＥＢＯＲＮ,,株式会社,兵庫県,神戸市垂水区,大町４丁目７番１７号,,28,108,6550014,,,,,,,2021-11-02,1,,,,,リボーン,0
177,1140001123735,新規,0,2021-11-02,2021-11-02,株式会社アルボル,,株式会社,兵庫県,洲本市,桑間５０６－１,,28,205,6560014,,,,,,,2021-11-02,1,,,,,アルボル,0
181,1160001023776,新規,0,2021-11-02,2021-11-02,株式会社喜農園竜玉,,株式会社,滋賀県,蒲生郡竜王町,大字山之上６５８９番地２,,25,384,5202531,,,,,,,2021-11-02,1,,,,,ヨロコビノウエンリュウギョク,0
182,1160001023784,新規,0,2021-11-02,2021-11-02,株式会社ＲＯＫＵ,,株式会社,滋賀県,大津市,大谷町２０番２０号,,25,201,5200062,,,,,,,2021-11-02,1,,,,,ロク,0
183,1170003001655,新規,0,2021-11-02,2021-11-02,コイケマリンサーベイ合同会社,,合同会社,和歌山県,和歌山市,平井２３８番地,,30,201,6408442,,,,,,,2021-11-02,1,,,,,コイケマリンサーベイ,0
193,1180001148480,新規,0,2021-11-02,2021-11-02,株式会社ＴＡＩＳＨＩ,,株式会社,愛知県,名古屋市中区,栄４丁目１７番２１号,,23,106,4600008,,,,,,,2021-11-02,1,,,,,タイシ,0
194,1180001148497,新規,0,2021-11-02,2021-11-02,株式会社ＹＬ工業,,株式会社,愛知県,一宮市,北小渕字東幟２５番地,,23,203,4910013,,,,,,,2021-11-02,1,,,,,ワイエルコウギョウ,0
195,1180001148506,新規,0,2021-11-02,2021-11-02,株式会社Ａｓｈ,,株式会社,愛知県,一宮市,瀬部字山北１９番地１,,23,203,4910001,,,,,,,2021-11-02,1,,,,,アッシュ,0
196,1180001148514,新規,0,2021-11-02,2021-11-02,株式会社Ｆｅｌｉａ,,株式会社,愛知県,小牧市,大字東田中１８１番地２,,23,219,4850826,,,,,,,2021-11-02,1,,,,,フェリア,0
201,1180003023145,新規,0,2021-11-02,2021-11-02,合同会社Ｏｎｅ’ｓ　ｍｏｒｅ,,合同会社,愛知県,日進市,岩崎町市場１２９－１,,23,230,4700131,,,,,,,2021-11-02,1,,,,,ワンズモア,0
202,1180005019496,新規,0,2021-11-02,2021-11-02,一般社団法人旺志会健康管理センター,,その他の設立登記法人,愛知県,一宮市,高田字七夕田１１番地１,,23,203,4910125,,,,,,,2021-11-02,1,,,,,オウシカイケンコウカンリセンター,0
206,1180301035569,新規,0,2021-11-02,2021-11-02,株式会社いしはら,,株式会社,愛知県,安城市,古井町芝崎９番地１,,23,212,4460025,,,,,,,2021-11-02,1,,,,,イシハラ,0
207,1180301035593,新規,0,2021-11-02,2021-11-02,株式会社ＦＤＫ,,株式会社,愛知県,碧南市,塩浜町３丁目３８番地１,,23,209,4470841,,,,,,,2021-11-02,1,,,,,エフディーケー,0
208,1190001028814,新規,0,2021-11-02,2021-11-02,潮晋電工株式会社,,株式会社,三重県,三重郡菰野町,大字永井３０７４番地１３９,,24,341,5101311,,,,,,,2021-11-02,1,,,,,チョウシンデンコウ,0
210,1200001039355,新規,0,2021-11-02,2021-11-02,株式会社ｕｎ’Ｐｉｌｉｅｒ,,株式会社,岐阜県,大垣市,長松町１７０番地１,,21,202,5030997,,,,,,,2021-11-02,1,,,,,アンピリエ,0
223,1240001058839,新規,0,2021-11-02,2021-11-02,株式会社ｆ．ｆ．Ｖａｃａｔｉｏｎ　Ｈｏｕｓｅ,,株式会社,広島県,広島市中区,立町２番２３号野村不動産広島ビル,,34,101,7300032,,,,,,,2021-11-02,1,,,,,エフエフバケーションハウス,0
224,1240001058847,新規,0,2021-11-02,2021-11-02,株式会社ＳＥ,,株式会社,広島県,広島市安佐北区,亀山南４丁目１２番２２号,,34,106,7310232,,,,,,,2021-11-02,1,,,,,エスイー,0
225,1240001058871,新規,0,2021-11-02,2021-11-02,株式会社金子工業,,株式会社,広島県,安芸郡坂町,坂東４丁目１６番２３号,,34,309,7314313,,,,,,,2021-11-02,1,,,,,カネココウギョウ,0
227,1240003005343,新規,0,2021-11-02,2021-11-02,ひうら合同会社,,合同会社,広島県,広島市中区,羽衣町１番３２号,,34,101,7300814,,,,,,,2021-11-02,1,,,,,ヒウラ,0
229,1250003002934,新規,0,2021-11-02,2021-11-02,合同会社餅工房はんなりの里,,合同会社,山口県,長門市,日置下１０９番地,,35,211,7594403,,,,,,,2021-11-02,1,,,,,モチコウボウハンナリノサト,0
236,1260001036165,新規,0,2021-11-02,2021-11-02,株式会社津山事務機センター,,株式会社,岡山県,津山市,南方中４２８番地３,,33,203,7094616,,,,,,,2021-11-02,1,,,,,ツヤマジムキセンター,0
237,1260001036173,新規,0,2021-11-02,2021-11-02,株式会社ｍｕｓｈｒｏｏｍ,,株式会社,岡山県,倉敷市,児島下の町４丁目９番７３号,,33,202,7110906,,,,,,,2021-11-02,1,,,,,マッシュルーム,0
241,1260003003709,新規,0,2021-11-02,2021-11-02,合同会社絆,,合同会社,岡山県,岡山市中区,海吉２１４０番地３,,33,102,7038261,,,,,,,2021-11-02,1,,,,,キズナ,0
248,1290001095183,新規,0,2021-11-02,2021-11-02,株式会社リ・エンジニアサービス,,株式会社,福岡県,久留米市,善導寺町木塚１６５３番地５,,40,203,8390822,,,,,,,2021-11-02,1,,,,,リエンジニアサービス,0
249,1290001095191,新規,0,2021-11-02,2021-11-02,イパネマＭＧ株式会社,,株式会社,福岡県,糟屋郡志免町,志免２丁目７番５号,,40,343,8112202,,,,,,,2021-11-02,1,,,,,イパネマエムジー,0
250,1290001095217,新規,0,2021-11-02,2021-11-02,ＡＩＷＡホールディングス株式会社,,株式会社,福岡県,福岡市博多区,綱場町１番１号,,40,132,8120024,,,,,,,2021-11-02,1,,,,,アイワホールディングス,0
253,1290003011782,新規,0,2021-11-02,2021-11-02,合同会社ＬＩＦＥ　ＡＣＴ,,合同会社,福岡県,筑紫野市,原田８丁目８番地１１,,40,217,8180024,,,,,,,2021-11-02,1,,,,,ライフアクト,0
256,1290803003970,新規,0,2021-11-02,2021-11-02,めもわーる華合同会社,,合同会社,福岡県,北九州市小倉北区,長浜町１２番５号,,40,106,8020013,,,,,,,2021-11-02,1,,,,,メモワールハナ,0
258,1310001017556,新規,0,2021-11-02,2021-11-02,株式会社サポ建,,株式会社,長崎県,諫早市,小野島町２３９１番地,,42,204,8540031,,,,,,,2021-11-02,1,,,,,サポケン,0
261,1320001018710,新規,0,2021-11-02,2021-11-02,株式会社ビッグビレッジ,,株式会社,大分県,大分市,山津町２丁目９番１号,,44,201,8700136,,,,,,,2021-11-02,1,,,,,ビッグビレッジ,0
263,1330001029137,新規,0,2021-11-02,2021-11-02,ココロトップ保険サービス株式会社,,株式会社,熊本県,熊本市北区,八景水谷３丁目１２番２８号,,43,105,8618064,,,,,,,2021-11-02,1,,,,,ココロトップホケンサービス,0
270,1370001047754,新規,0,2021-11-02,2021-11-02,株式会社ｍｕｍ,,株式会社,宮城県,仙台市宮城野区,新田３丁目７番３２号,,04,102,9830038,,,,,,,2021-11-02,1,,,,,マム,0
271,1370001047770,新規,0,2021-11-02,2021-11-02,株式会社肉の白鳥,,株式会社,宮城県,大崎市,古川旭３丁目６番２０号,,04,215,9896117,,,,,,,2021-11-02,1,,,,,ニクノシラトリ,0
272,1370005010378,新規,0,2021-11-02,2021-11-02,一般社団法人日本移送医療システム,,その他の設立登記法人,宮城県,仙台市青葉区,小田原８丁目１１番６号,,04,101,9800003,,,,,,,2021-11-02,1,,,,,ニホンイソウイリョウシステム,0
275,1390001016666,新規,0,2021-11-02,2021-11-02,ＳＡＭＵＲＡＩ　ＧＥＮＥＲＡＬ株式会社,,株式会社,山形県,山形市,相生町７番４７‐１０４号シャンポール六日町,,06,201,9900055,,,,,,,2021-11-02,1,,,,,サムライジェネラル,0
286,1430001085302,新規,0,2021-11-02,2021-11-02,Ｔ－Ｗｏｒｌｄ株式会社,,株式会社,北海道,苫小牧市,川沿町５丁目１２番２４号,,01,213,0530822,,,,,,,2021-11-02,1,,,,,ティーワールド,0
291,1460101007079,新規,0,2021-11-02,2021-11-02,株式会社山内牧場,,株式会社,北海道,中川郡池田町,字千代田６２０番地の１,,01,644,0830042,,,,,,,2021-11-02,1,,,,,ヤマウチボクジョウ,0
298,1500001023782,新規,0,2021-11-02,2021-11-02,株式会社リーピスト,,株式会社,愛媛県,松山市,南久米町５１３番地９,,38,201,7900924,,,,,,,2021-11-02,1,,,,,リーピスト,0
315,2010003036138,新規,0,2021-11-02,2021-11-02,合同会社誠光会,,合同会社,東京都,千代田区,三番町８番地１,,13,101,1020075,,,,,,,2021-11-02,1,,,,,セイコウカイ,0
316,2010003036154,新規,0,2021-11-02,2021-11-02,合同会社ｍｅｒ　ｂｌｅｕｅ,,合同会社,東京都,中央区,東日本橋１丁目２番１３－１００１号,,13,102,1030004,,,,,,,2021-11-02,1,,,,,メールブルー,0
318,2010005034148,新規,0,2021-11-02,2021-11-02,一般社団法人防疫診断対策機構,,その他の設立登記法人,東京都,千代田区,丸の内１丁目１１番１号パシフィックセンチュリープレイス丸の内８階,,13,101,1000005,,,,,,,2021-11-02,1,,,,,ボウエキシンダンタイサクキコウ,0
319,2010005034164,新規,0,2021-11-02,2021-11-02,一般社団法人名取,,その他の設立登記法人,東京都,中央区,日本橋１丁目４番１号,,13,102,1030027,,,,,,,2021-11-02,1,,,,,ナトリ,0
320,2010101014937,新規,0,2021-11-02,2021-11-02,株式会社徳楽,,株式会社,東京都,八王子市,八木町３番１５号ライオンズマンション西八王子第３、３０９号,,13,201,1920055,,,,,,,2021-11-02,1,,,,,トクラク,0
329,2010401163541,新規,0,2021-11-02,2021-11-02,トレポ株式会社,,株式会社,東京都,港区,東麻布１丁目７番７－５０３号,,13,103,1060044,,,,,,,2021-11-02,1,,,,,トレポ,0
330,2010401163558,新規,0,2021-11-02,2021-11-02,株式会社ＳＯＲＡ,,株式会社,東京都,港区,六本木３丁目１７番１０号六本木デュープレックスタワー１２０２号室,,13,103,1060032,,,,,,,2021-11-02,1,,,,,ソラ,0
331,2010403026424,新規,0,2021-11-02,2021-11-02,Ｌａ　Ｂｏｎｎｅ　ＩＤＥＥ合同会社,,合同会社,東京都,港区,芝公園２丁目６番１１－７０４号,,13,103,1050011,,,,,,,2021-11-02,1,,,,,ラボニデー,0
332,2010403026432,新規,0,2021-11-02,2021-11-02,合同会社Ｈｕｌｋ,,合同会社,東京都,港区,麻布十番１丁目１０番１０号,,13,103,1060045,,,,,,,2021-11-02,1,,,,,ハルク,0
333,2010405020350,新規,0,2021-11-02,2021-11-02,司法書士法人日栄,,その他の設立登記法人,東京都,港区,虎ノ門４丁目３番１号城山トラストタワー３２階,,13,103,1050001,,,,,,,2021-11-02,1,,,,,ニチエイ,0
334,2010405020375,新規,0,2021-11-02,2021-11-02,一般社団法人二本松２地域活性化基金,,その他の設立登記法人,東京都,港区,虎ノ門３丁目２２番１０－２０１号,,13,103,1050001,,,,,,,2021-11-02,1,,,,,ニホンマツツーチイキカッセイカキキン,0
340,2010903006909,新規,0,2021-11-02,2021-11-02,合同会社ＮＥＷ,,合同会社,東京都,世田谷区,太子堂３丁目１４－８太子堂コンプレックス２０１号室,,13,112,1540004,,,,,,,2021-11-02,1,,,,,ニュー,0
345,2011001143660,新規,0,2021-11-02,2021-11-02,株式会社Ｐｕｚｚｌｅ,,株式会社,東京都,目黒区,目黒２丁目１１番１０－４０４号ジェイパーク目黒,,13,110,1530063,,,,,,,2021-11-02,1,,,,,パズル,0
346,2011001143719,新規,0,2021-11-02,2021-11-02,ＱＲＥＶＩＯ株式会社,,株式会社,東京都,渋谷区,桜丘町１５番地１４号フジビル４０・７Ｆオープンオフィス渋谷ヒルズセンター,,13,113,1500031,,,,,,,2021-11-02,1,,,,,クレヴィオ,0
352,2011301027308,新規,0,2021-11-02,2021-11-02,株式会社ＦＯＵＲ　ＰＯＩＮＴ,,株式会社,東京都,杉並区,下高井戸４丁目１７番１４号,,13,115,1680073,,,,,,,2021-11-02,1,,,,,フォーポイント,0
353,2011401023801,新規,0,2021-11-02,2021-11-02,株式会社ｃｏｎｃｒｅｎｇｅ,,株式会社,東京都,板橋区,赤塚２丁目２番１７号,,13,119,1750092,,,,,,,2021-11-02,1,,,,,コンクレンジ,0
354,2011501027446,新規,0,2021-11-02,2021-11-02,株式会社ＦｕＷ３．ｃｏ,,株式会社,東京都,荒川区,荒川２丁目２５番１号,,13,118,1160002,,,,,,,2021-11-02,1,,,,,,0
361,2011801039884,新規,0,2021-11-02,2021-11-02,創世科技株式会社,,株式会社,東京都,足立区,竹の塚１丁目１３－１３－２０１号室,,13,121,1210813,,,,,,,2021-11-02,1,,,,,ソウセイカギ,0
362,2011801039926,新規,0,2021-11-02,2021-11-02,株式会社濱徳,,株式会社,東京都,足立区,鹿浜７丁目２３番１９号,,13,121,1230864,,,,,,,2021-11-02,1,,,,,ハマトク,0
364,2012301012753,新規,0,2021-11-02,2021-11-02,株式会社ドラいであ,,株式会社,東京都,町田市,能ヶ谷２丁目３番３４号,,13,209,1950053,,,,,,,2021-11-02,1,,,,,ドライデア,0
370,2013103001085,新規,0,2021-11-02,2021-11-02,合同会社ＦＦＦ,,合同会社,東京都,西多摩郡奥多摩町,棚沢８２８－２,,13,308,1980000,,,,,,,2021-11-02,1,,,,,エフエフエフ,0
375,2013301048226,新規,0,2021-11-02,2021-11-02,株式会社中電,,株式会社,東京都,豊島区,池袋本町１丁目３８－６ハウスもり１０２室,,13,116,1700011,,,,,,,2021-11-02,1,,,,,ナカデン,0
383,2020001143703,新規,0,2021-11-02,2021-11-02,Ｈｉｇｈ　Ｃａｓｔｌｅ　Ｊａｐａｎ株式会社,,株式会社,神奈川県,横浜市鶴見区,東寺尾３丁目１４番３２号,,14,101,2300077,,,,,,,2021-11-02,1,,,,,ハイキャッスルジャパン,0
384,2020001143711,新規,0,2021-11-02,2021-11-02,株式会社都筑不動産,,株式会社,神奈川県,横浜市都筑区,茅ケ崎中央５１番１３号６０２,,14,118,2240032,,,,,,,2021-11-02,1,,,,,ツヅキフドウサン,0
385,2020001143752,新規,0,2021-11-02,2021-11-02,大和建設株式会社,,株式会社,神奈川県,横浜市神奈川区,大口仲町１１６番地４,,14,102,2210003,,,,,,,2021-11-02,1,,,,,ヤマトケンセツ,0
391,2020003020751,新規,0,2021-11-02,2021-11-02,ＷＯＷ合同会社,,合同会社,神奈川県,横浜市鶴見区,菅沢町１－２５,,14,101,2300027,,,,,,,2021-11-02,1,,,,,ワオ,0
404,2030001145087,新規,0,2021-11-02,2021-11-02,株式会社桐建,,株式会社,埼玉県,川口市,桜町２丁目６番２号,,11,203,3340001,,,,,,,2021-11-02,1,,,,,キリケン,0
405,2030001145120,新規,0,2021-11-02,2021-11-02,株式会社シンライズ,,株式会社,埼玉県,川越市,四都野台１３番地１４,,11,201,3501163,,,,,,,2021-11-02,1,,,,,シンライズ,0
406,2030001145137,新規,0,2021-11-02,2021-11-02,ハピハウス株式会社,,株式会社,埼玉県,さいたま市見沼区,大和田町２丁目１４１５番地５,,11,104,3370053,,,,,,,2021-11-02,1,,,,,ハピハウス,0
425,2040001120799,新規,0,2021-11-02,2021-11-02,Ｊ＆Ｘ株式会社,,株式会社,千葉県,船橋市,印内２丁目３番１５号ＴＯＰ西船橋第一２０１,,12,204,2730039,,,,,,,2021-11-02,1,,,,,ジェイアンドエックス,0
430,2040003018835,新規,0,2021-11-02,2021-11-02,Ｓｅａｆａｒｉ・Ｊａｐａｎ合同会社,,合同会社,千葉県,勝浦市,川津１４７３番地,,12,218,2995232,,,,,,,2021-11-02,1,,,,,シーファリジャパン,0
431,2040003018843,新規,0,2021-11-02,2021-11-02,ＫＫ　ＪＡＰＡＮ合同会社,,合同会社,千葉県,野田市,清水２４８－１０グレースエイト２０３,,12,208,2780043,,,,,,,2021-11-02,1,,,,,ケーケージャパン,0
432,2040005021408,新規,0,2021-11-02,2021-11-02,農事組合法人アグリ米の井,,その他の設立登記法人,千葉県,香取市,米野井５１番地３,,12,236,2890401,,,,,,,2021-11-02,1,,,,,アグリコメノイ,0
436,2050001050054,新規,0,2021-11-02,2021-11-02,株式会社インターナショナル・ビジネス・コネクト,,株式会社,茨城県,龍ケ崎市,馴柴町８５２番地,,08,208,3010007,,,,,,,2021-11-02,1,,,,,インターナショナルビジネスコネクト,0
439,2050003006178,新規,0,2021-11-02,2021-11-02,八州電工合同会社,,合同会社,茨城県,水戸市,開江町６２１番地の５,,08,201,3114144,,,,,,,2021-11-02,1,,,,,,0
443,2070001038592,新規,0,2021-11-02,2021-11-02,マルトモ株式会社,,株式会社,群馬県,安中市,松井田町上増田３０８０番地,,10,211,3790211,,,,,,,2021-11-02,1,,,,,マルトモ,0
444,2070001038601,新規,0,2021-11-02,2021-11-02,藤の丘田口接骨院株式会社,,株式会社,群馬県,藤岡市,上戸塚３５番地４,,10,209,3750013,,,,,,,2021-11-02,1,,,,,フジノオカタグチセッコツイン,0
446,2080003002678,新規,0,2021-11-02,2021-11-02,合同会社ＭＩＲＩＳＥ　ＴＲＥＳ,,合同会社,静岡県,静岡市駿河区,下川原６丁目２５番５号,,22,102,4210113,,,,,,,2021-11-02,1,,,,,ミライズトレス,0
447,2080403004398,新規,0,2021-11-02,2021-11-02,合同会社岩井工業,,合同会社,静岡県,浜松市南区,下江町７３９,,22,134,4300825,,,,,,,2021-11-02,1,,,,,イワイコウギョウ,0
462,2120001241471,新規,0,2021-11-02,2021-11-02,バルゴプロパティ株式会社,,株式会社,大阪府,大阪市浪速区,大国１丁目３番８号,,27,111,5560014,,,,,,,2021-11-02,1,,,,,バルゴプロパティ,0
463,2120001241554,新規,0,2021-11-02,2021-11-02,Ｕｍｏｒｉ株式会社,,株式会社,大阪府,大阪市浪速区,戎本町１丁目３－３５,,27,111,5560013,,,,,,,2021-11-02,1,,,,,ウモリ,0
465,2120003020519,新規,0,2021-11-02,2021-11-02,合同会社ＴＳＵＮＡＧＩ,,合同会社,大阪府,大阪市東成区,中道２丁目１５－１７,,27,115,5370025,,,,,,,2021-11-02,1,,,,,ツナギ,0
475,2120901045146,新規,0,2021-11-02,2021-11-02,株式会社ＷＯＲＬＤ　ＦＬＥＸ,,株式会社,大阪府,豊中市,大島町１丁目２番３０－３１５号,,27,203,5610824,,,,,,,2021-11-02,1,,,,,ワールドフレックス,0
480,2130003007572,新規,0,2021-11-02,2021-11-02,合同会社ナース原,,合同会社,京都府,京都市山科区,勧修寺西北出町２８番地,,26,110,6078225,,,,,,,2021-11-02,1,,,,,ナースハラ,0
483,2140001123651,新規,0,2021-11-02,2021-11-02,株式会社ハッピーライフケア,,株式会社,兵庫県,加古川市,加古川町溝之口５０７番地サンライズ加古川１Ｆ,,28,210,6750064,,,,,,,2021-11-02,1,,,,,ハッピーライフケア,0
484,2140001123701,新規,0,2021-11-02,2021-11-02,ワイズ工業株式会社,,株式会社,兵庫県,神戸市須磨区,大田町２丁目１番１３－５０１号,,28,107,6540024,,,,,,,2021-11-02,1,,,,,ワイズコウギョウ,0
485,2140001123742,新規,0,2021-11-02,2021-11-02,株式会社ＫＯＡＴＯＡ,,株式会社,兵庫県,神戸市西区,狩場台２丁目１６番地の４,,28,111,6512272,,,,,,,2021-11-02,1,,,,,コアトア,0
486,2140001123767,新規,0,2021-11-02,2021-11-02,オリト不動産株式会社,,株式会社,兵庫県,尼崎市,南塚口町１丁目１－１－２階,,28,202,6610012,,,,,,,2021-11-02,1,,,,,オリトフドウサン,0
488,2140003016936,新規,0,2021-11-02,2021-11-02,合同会社１－Ｔｈｅ　Ｆｕｌｌ,,合同会社,兵庫県,神戸市長田区,浪松町５丁目１番１－３０２号,,28,106,6530055,,,,,,,2021-11-02,1,,,,,ワンダフル,0
490,2150001025070,新規,0,2021-11-02,2021-11-02,株式会社山上工務店,,株式会社,奈良県,奈良市,佐紀町２００２番地,,29,201,6308003,,,,,,,2021-11-02,1,,,,,ヤマウエコウムテン,0
491,2150001025079,新規,0,2021-11-02,2021-11-02,株式会社大建防水工業,,株式会社,奈良県,奈良市,古市町２１５９番地５,,29,201,6308424,,,,,,,2021-11-02,1,,,,,ダイケンボウスイコウギョウ,0
494,2160001023767,新規,0,2021-11-02,2021-11-02,株式会社ＫＵＳＡＮＡ,,株式会社,滋賀県,草津市,野路１丁目４番１６号ＭＮＫ－３ビル５階５０１号,,25,206,5250059,,,,,,,2021-11-02,1,,,,,クサナ,0
495,2160001023791,新規,0,2021-11-02,2021-11-02,つちのつぶ株式会社,,株式会社,滋賀県,大津市,南郷１丁目４番９号,,25,201,5200865,,,,,,,2021-11-02,1,,,,,ツチノツブ,0
498,2170001016852,新規,0,2021-11-02,2021-11-02,株式会社はりまぜデザイン,,株式会社,和歌山県,和歌山市,十番丁９１番地十番丁センタービル６Ｆ－Ａ,,30,201,6408152,,,,,,,2021-11-02,1,,,,,ハリマゼデザイン,0
515,2200001039362,新規,0,2021-11-02,2021-11-02,株式会社ＨＯＲＩ,,株式会社,岐阜県,羽島郡笠松町,江川１４６番地,,21,303,5016032,,,,,,,2021-11-02,1,,,,,ホリ,0
519,2210001018679,新規,0,2021-11-02,2021-11-02,株式会社クリエイトフォーサイト,,株式会社,福井県,福井市,経田１丁目７０４番地,,18,201,9100011,,,,,,,2021-11-02,1,,,,,クリエイトフォーサイト,0
521,2220001024503,新規,0,2021-11-02,2021-11-02,ＲＵＮ株式会社,,株式会社,石川県,野々市市,矢作１丁目５０番地５,,17,212,9218822,,,,,,,2021-11-02,1,,,,,ルン,0
522,2220001024528,新規,0,2021-11-02,2021-11-02,株式会社Ｃｉｔｙ　ａｎｄ　Ｔｒｅｅ,,株式会社,石川県,金沢市,森山１丁目２番１号２１２,,17,201,9200843,,,,,,,2021-11-02,1,,,,,シティアンドツリー,0
534,2240001058838,新規,0,2021-11-02,2021-11-02,大原商店株式会社,,株式会社,広島県,広島市佐伯区,五日市町大字石内４５４１番地１,,34,108,7315102,,,,,,,2021-11-02,1,,,,,オオハラショウテン,0
535,2240001058846,新規,0,2021-11-02,2021-11-02,株式会社木村工務店,,株式会社,広島県,呉市,広中新開３丁目３番２１号,,34,202,7370124,,,,,,,2021-11-02,1,,,,,キムラコウムテン,0
536,2240001058862,新規,0,2021-11-02,2021-11-02,白石工業株式会社,,株式会社,広島県,呉市,広白岳２丁目５番３７号,,34,202,7370144,,,,,,,2021-11-02,1,,,,,シライシコウギョウ,0
538,2240003005342,新規,0,2021-11-02,2021-11-02,合同会社Ｒａｄｉａｎｔ　Ｃａｐｉｔａｌ,,合同会社,広島県,東広島市,西条町土与丸１７８－２,,34,212,7390003,,,,,,,2021-11-02,1,,,,,レディアントキャピタル,0
543,2250003002933,新規,0,2021-11-02,2021-11-02,合同会社ティトグループ,,合同会社,山口県,山口市,秋穂二島１９１１番地,,35,203,7540893,,,,,,,2021-11-02,1,,,,,ティトグループ,0
547,2260001036172,新規,0,2021-11-02,2021-11-02,株式会社ＦＴＳ,,株式会社,岡山県,岡山市北区,花尻みどり町８番地１１２,,33,101,7010131,,,,,,,2021-11-02,1,,,,,エフティーエス,0
559,2290001095158,新規,0,2021-11-02,2021-11-02,株式会社コレイノ,,株式会社,福岡県,福岡市中央区,渡辺通２丁目４番８号,,40,133,8100004,,,,,,,2021-11-02,1,,,,,コレイノ,0
560,2290001095216,新規,0,2021-11-02,2021-11-02,株式会社楓,,株式会社,福岡県,福岡市博多区,東月隈５丁目１９番１１号,,40,132,8120854,,,,,,,2021-11-02,1,,,,,カエデ,0
561,2290001095265,新規,0,2021-11-02,2021-11-02,株式会社エスアイソリューション,,株式会社,福岡県,福岡市博多区,博多駅前２丁目１７番１号,,40,132,8120011,,,,,,,2021-11-02,1,,,,,エスアイソリューション,0
569,2310001017563,新規,0,2021-11-02,2021-11-02,ＩＳＵ株式会社,,株式会社,長崎県,東彼杵郡波佐見町,折敷瀬郷１７４２番地１２,,42,323,8593701,,,,,,,2021-11-02,1,,,,,アイエスユー,0
571,2320001018692,新規,0,2021-11-02,2021-11-02,株式会社神栄設備,,株式会社,大分県,佐伯市,池船町１８番５号,,44,205,8760833,,,,,,,2021-11-02,1,,,,,シンエイセツビ,0
575,2330001029128,新規,0,2021-11-02,2021-11-02,株式会社Ａｎｎ　Ｉｎｖｅｓｔｍｅｎｔ,,株式会社,熊本県,菊池郡菊陽町,光の森１丁目７番地９,,43,404,8691108,,,,,,,2021-11-02,1,,,,,エーエヌエヌインベストメント,0
576,2330001029136,新規,0,2021-11-02,2021-11-02,株式会社ＮＡＣ,,株式会社,熊本県,熊本市南区,平田２丁目１７番４８号,,43,104,8600826,,,,,,,2021-11-02,1,,,,,ナック,0
577,2330001029160,新規,0,2021-11-02,2021-11-02,株式会社ＡＲＣＨ,,株式会社,熊本県,熊本市東区,月出２丁目２番６３号,,43,102,8620920,,,,,,,2021-11-02,1,,,,,アーチ,0
579,2340001024219,新規,0,2021-11-02,2021-11-02,株式会社Ｎプラン,,株式会社,鹿児島県,鹿児島市,坂之上８丁目３６番３７号,,46,201,8910150,,,,,,,2021-11-02,1,,,,,エヌプラン,0
581,2350001017386,新規,0,2021-11-02,2021-11-02,株式会社ｂ－ｖｉｌｌａ,,株式会社,宮崎県,宮崎市,中央通２－１０みらいビル４Ｆ,,45,201,8800002,,,,,,,2021-11-02,1,,,,,ビーヴィラ,0
589,2360003011535,新規,0,2021-11-02,2021-11-02,合同会社徳千代泉,00124726,合同会社,沖縄県,国頭郡本部町,字渡久地６６０番地１,,47,308,9050214,,,,,,,2021-11-02,1,,,,,トクチヨイズミ,0
596,2380001032300,新規,0,2021-11-02,2021-11-02,仙台屋地所株式会社,,株式会社,福島県,郡山市,台新１丁目３２番１３号,,07,203,9638852,,,,,,,2021-11-02,1,,,,,センダイヤジショ,0
597,2390001016657,新規,0,2021-11-02,2021-11-02,株式会社小林自動車,,株式会社,山形県,天童市,大字荒谷８４８４番地の１,,06,210,9940054,,,,,,,2021-11-02,1,,,,,コバヤシジドウシャ,0
599,2400003002851,新規,0,2021-11-02,2021-11-02,ＡＳＣ合同会社,,合同会社,岩手県,奥州市,水沢姉体町字上島２番地７６,,03,215,0230831,,,,,,,2021-11-02,1,,,,,エーエスシー,0
608,2460301005014,新規,0,2021-11-02,2021-11-02,株式会社ビーアールエム,,株式会社,北海道,北見市,中央三輪１丁目３６２番地８,,01,208,0900837,,,,,,,2021-11-02,1,,,,,ビーアールエム,0
611,2480001011541,新規,0,2021-11-02,2021-11-02,藤紀電機設備株式会社,,株式会社,徳島県,阿南市,那賀川町上福井南川渕２１番地４コート・セジュールなかがわ２０３号室,,36,204,7791243,,,,,,,2021-11-02,1,,,,,フジキデンキセツビ,0
613,2490001010030,新規,0,2021-11-02,2021-11-02,株式会社ＡＣＴＩＶＥ　ＡＵＴＯ,,株式会社,高知県,南国市,十市１５３０番地９,,39,204,7830085,,,,,,,2021-11-02,1,,,,,アクティブオート,0
616,2700150105591,新規,0,2021-11-02,2021-11-02,恵比寿フラワーホームマンション建替組合,,その他,東京都,新宿区,四谷３丁目１２番地株式会社ＵＧ都市建築内,,13,104,1600004,,,,,,,2021-11-02,1,,,,,エビスフラワーホームマンシヨンタテカエクミアイ,0
626,3010001222184,新規,0,2021-11-02,2021-11-02,株式会社Ｈｉｒｙｕ,,株式会社,東京都,中央区,日本橋蛎殻町１丁目３８番９号宮前ビルディング８Ｆ,,13,102,1030014,,,,,,,2021-11-02,1,,,,,ヒリュウ,0
628,3010003036145,新規,0,2021-11-02,2021-11-02,ＷｉｎｄＢＡＣＨ合同会社,,合同会社,東京都,千代田区,神田小川町３丁目２大丸ビル２Ｆ,,13,101,1010052,,,,,,,2021-11-02,1,,,,,ウインドバッハ,0
629,3010005034163,新規,0,2021-11-02,2021-11-02,一般社団法人ＳＤＧｓＮｏ．５,,その他の設立登記法人,東京都,中央区,銀座４丁目１４番１号石田ビル銀座３Ｆ,,13,102,1040061,,,,,,,2021-11-02,1,,,,,エスディージーズナンバーファイブ,0
638,3010401163524,新規,0,2021-11-02,2021-11-02,株式会社アータン,,株式会社,東京都,港区,赤坂１丁目１２番２０－５０２号,,13,103,1070052,,,,,,,2021-11-02,1,,,,,アータン,0
639,3010401163557,新規,0,2021-11-02,2021-11-02,株式会社ＨＫＴ,,株式会社,東京都,港区,赤坂２丁目１６番６号,,13,103,1070052,,,,,,,2021-11-02,1,,,,,エイチケイティー,0
640,3010401163565,新規,0,2021-11-02,2021-11-02,株式会社Ｒｅｄ．Ｇ,,株式会社,東京都,港区,麻布十番２丁目１８番１号オオシマハウス１Ｆ,,13,103,1060045,,,,,,,2021-11-02,1,,,,,レッドジー,0
641,3010401163573,新規,0,2021-11-02,2021-11-02,株式会社１００１,,株式会社,東京都,港区,赤坂３丁目８番８号,,13,103,1070052,,,,,,,2021-11-02,1,,,,,ワンオーワン,0
642,3010401163615,新規,0,2021-11-02,2021-11-02,株式会社アシスト,,株式会社,東京都,港区,芝浦２丁目１４－７,,13,103,1080023,,,,,,,2021-11-02,1,,,,,アシスト,0
645,3010405020374,新規,0,2021-11-02,2021-11-02,一般社団法人木更津地域活性化基金,,その他の設立登記法人,東京都,港区,虎ノ門３丁目２２番１０－２０１号,,13,103,1050001,,,,,,,2021-11-02,1,,,,,キサラヅチイキカッセイカキキン,0
653,3010901049719,新規,0,2021-11-02,2021-11-02,株式会社ＧＷＹ,,株式会社,東京都,世田谷区,駒沢５丁目７－２１ユーロハイツ駒沢公園２０３,,13,112,1540012,,,,,,,2021-11-02,1,,,,,ジーダブリュワイ,0
654,3010901049727,新規,0,2021-11-02,2021-11-02,ＱＵＡＬＩＴＹ　ＪＡＰＡＮ株式会社,,株式会社,東京都,世田谷区,上北沢４丁目１６番７号上北沢グリーンコーポ８０４,,13,112,1560057,,,,,,,2021-11-02,1,,,,,クオリティジャパン,0
657,3011001143726,新規,0,2021-11-02,2021-11-02,ＲＯＸ株式会社,,株式会社,東京都,渋谷区,神宮前６丁目２３－４桑野ビル２Ｆ,,13,113,1500001,,,,,,,2021-11-02,1,,,,,,0
662,3011003013662,新規,0,2021-11-02,2021-11-02,ＪＣパートナーズ合同会社,,合同会社,東京都,渋谷区,渋谷３丁目５番１６号渋谷３丁目スクエアビル２階,,13,113,1500002,,,,,,,2021-11-02,1,,,,,ジェーシーパートナーズ,0
666,3011401023800,新規,0,2021-11-02,2021-11-02,Ｓ．Ｘ．Ｆ株式会社,,株式会社,東京都,板橋区,赤塚２丁目９－１１ドミールケイ２０２,,13,119,1750092,,,,,,,2021-11-02,1,,,,,エスエクスエフ,0
669,3011501027445,新規,0,2021-11-02,2021-11-02,株式会社恒順,,株式会社,東京都,荒川区,東日暮里６丁目１４番１号メゾン・ド・イースト１０２号室,,13,118,1160014,,,,,,,2021-11-02,1,,,,,コウジュン,0
670,3011501027453,新規,0,2021-11-02,2021-11-02,株式会社Ｌｉｌ　ｇａｒａｇｅ,,株式会社,東京都,北区,西ケ原３丁目５４番１号,,13,117,1140024,,,,,,,2021-11-02,1,,,,,リルガレージ,0
683,3011801039925,新規,0,2021-11-02,2021-11-02,株式会社鹿八商事,,株式会社,東京都,足立区,鹿浜７丁目２３番１９号,,13,121,1230864,,,,,,,2021-11-02,1,,,,,シカハチショウジ,0
688,3012401038482,新規,0,2021-11-02,2021-11-02,マンモス株式会社,,株式会社,東京都,小金井市,東町３丁目２番１７号,,13,210,1840011,,,,,,,2021-11-02,1,,,,,マンモス,0
691,3013101008759,新規,0,2021-11-02,2021-11-02,株式会社つかさ住設,,株式会社,東京都,西多摩郡瑞穂町,長岡１丁目４２番地７,,13,303,1901232,,,,,,,2021-11-02,1,,,,,ツカサジュウセツ,0
696,3013301048225,新規,0,2021-11-02,2021-11-02,株式会社ＳＯＲＡ,,株式会社,東京都,豊島区,要町１丁目１７番１０号,,13,116,1710043,,,,,,,2021-11-02,1,,,,,ソラ,0
697,3013303005884,新規,0,2021-11-02,2021-11-02,合同会社ＫＢＹＳ,,合同会社,東京都,豊島区,東池袋１丁目１７番１１号パークハイツ池袋１１０５号,,13,116,1700013,,,,,,,2021-11-02,1,,,,,ケービーワイエス,0
706,3020001143702,新規,0,2021-11-02,2021-11-02,Ｈ・Ｙコーポレーション株式会社,,株式会社,神奈川県,川崎市宮前区,鷺沼２丁目８番地２６,,14,136,2160004,,,,,,,2021-11-02,1,,,,,エイチワイコーポレーション,0
707,3020001143719,新規,0,2021-11-02,2021-11-02,株式会社Ｏｆｆｉｃｅ　Ｌｅａｐ,,株式会社,神奈川県,横浜市南区,高根町４丁目２３番地７－３０２号,,14,105,2320022,,,,,,,2021-11-02,1,,,,,,0
708,3020001143743,新規,0,2021-11-02,2021-11-02,ＭＳＹコンサルタント株式会社,,株式会社,神奈川県,横浜市西区,みなとみらい４丁目４－２横浜ブルーアベニュー１２階,,14,103,2200012,,,,,,,2021-11-02,1,,,,,エムエスワイコンサルタント,0
711,3020003020734,新規,0,2021-11-02,2021-11-02,６４合同会社,,合同会社,神奈川県,川崎市幸区,戸手４丁目１１－１アクアリーナ川崎ヴェルデタワー７０２,,14,132,2120005,,,,,,,2021-11-02,1,,,,,ロクヨン,0
712,3020003020750,新規,0,2021-11-02,2021-11-02,合同会社コエダ,,合同会社,神奈川県,横浜市神奈川区,松本町１丁目２番地９ヴェレーナ横浜反町駅前７０４号,,14,102,2210841,,,,,,,2021-11-02,1,,,,,コエダ,0
715,3021001074334,新規,0,2021-11-02,2021-11-02,株式会社ＲａｎｄＮ,,株式会社,神奈川県,高座郡寒川町,岡田６丁目７番２２号,,14,321,2530105,,,,,,,2021-11-02,1,,,,,ランダム,0
743,3070001038591,新規,0,2021-11-02,2021-11-02,さくら家株式会社,,株式会社,群馬県,伊勢崎市,田中島町１４２７番地３４,,10,204,3720802,,,,,,,2021-11-02,1,,,,,サクラヤ,0
746,3080003002677,新規,0,2021-11-02,2021-11-02,日本緑化エネルギー合同会社,,合同会社,静岡県,静岡市清水区,旭町４番３号－２Ｆ,,22,103,4240822,,,,,,,2021-11-02,1,,,,,ニホンリョクカエネルギー,0
748,3080101022890,新規,0,2021-11-02,2021-11-02,株式会社ＬＵＰＩＮＵＳ,,株式会社,静岡県,沼津市,高沢町１３番３７号マストスクエア沼津３１２号,,22,203,4100057,,,,,,,2021-11-02,1,,,,,ルピナス,0
753,3100001034777,新規,0,2021-11-02,2021-11-02,株式会社ＯｆｆｉｃｅＡＰ,,株式会社,長野県,長野市,大字栗田３５０番地１,,20,201,3800921,,,,,,,2021-11-02,1,,,,,オフィスエーピー,0
754,3100001034793,新規,0,2021-11-02,2021-11-02,株式会社ケーズインベストメント,,株式会社,長野県,大町市,大町２６３２－１３,,20,212,3980002,,,,,,,2021-11-02,1,,,,,ケーズインベストメント,0
767,3120001241520,新規,0,2021-11-02,2021-11-02,株式会社イーアンドワーク,,株式会社,大阪府,大阪市中央区,瓦町１丁目３番２号,,27,128,5410048,,,,,,,2021-11-02,1,,,,,イーアンドワーク,0
768,3120001241529,新規,0,2021-11-02,2021-11-02,わかば株式会社,,株式会社,大阪府,大阪市北区,大淀中４丁目１３番１２号,,27,127,5310076,,,,,,,2021-11-02,1,,,,,ワカバ,0
769,3120003020518,新規,0,2021-11-02,2021-11-02,ＳＴＡＲＴ　ＷＥＥＤ合同会社,,合同会社,大阪府,大阪市大正区,泉尾１丁目３５番１４号,,27,108,5510031,,,,,,,2021-11-02,1,,,,,スタートウィード,0
770,3120003020534,新規,0,2021-11-02,2021-11-02,合同会社オルソペロ,,合同会社,大阪府,大阪市福島区,福島７丁目２０番１８号,,27,103,5530003,,,,,,,2021-11-02,1,,,,,オルソペロ,0
771,3120005022586,新規,0,2021-11-02,2021-11-02,行政書士法人キャスダック,,その他の設立登記法人,大阪府,大阪市北区,梅田２丁目４番９号,,27,127,5300001,,,,,,,2021-11-02,1,,,,,キャスダック,0
772,3120101064565,新規,0,2021-11-02,2021-11-02,浩日株式会社,,株式会社,大阪府,泉南市,男里３丁目１０番１６号,,27,228,5900526,,,,,,,2021-11-02,1,,,,,コウニチ,0
773,3120101064573,新規,0,2021-11-02,2021-11-02,株式会社Ａｌｉｃｅ,,株式会社,大阪府,和泉市,北田中町３７３番地３,,27,219,5941122,,,,,,,2021-11-02,1,,,,,アリス,0
774,3120101064581,新規,0,2021-11-02,2021-11-02,株式会社ベストグロー,,株式会社,大阪府,藤井寺市,大井２丁目５番１号,,27,226,5830008,,,,,,,2021-11-02,1,,,,,ベストグロー,0
780,3122001035316,新規,0,2021-11-02,2021-11-02,株式会社あすなろ,,株式会社,大阪府,東大阪市,上小阪３丁目３番１２号,,27,227,5770806,,,,,,,2021-11-02,1,,,,,アスナロ,0
791,3140001123642,新規,0,2021-11-02,2021-11-02,誠真興業株式会社,,株式会社,兵庫県,姫路市,夢前町前之庄１番地５５,,28,201,6712103,,,,,,,2021-11-02,1,,,,,セイシンコウギョウ,0
792,3140001123691,新規,0,2021-11-02,2021-11-02,株式会社高倉クレーン,,株式会社,兵庫県,神戸市西区,神出町五百蔵１４２番地の３７２,,28,111,6512303,,,,,,,2021-11-02,1,,,,,タカクラクレーン,0
793,3140001123725,新規,0,2021-11-02,2021-11-02,マリア訪問看護ステーション株式会社,,株式会社,兵庫県,明石市,大久保町駅前２丁目２番４－３０１号,,28,203,6740058,,,,,,,2021-11-02,1,,,,,マリアホウモンカンゴステーション,0
797,3140003016927,新規,0,2021-11-02,2021-11-02,Ｃｉａｔｅ合同会社,,合同会社,兵庫県,神戸市兵庫区,船大工町３番８号,,28,105,6520843,,,,,,,2021-11-02,1,,,,,シエイト,0
798,3140003016943,新規,0,2021-11-02,2021-11-02,合同会社ポーラベアー,,合同会社,兵庫県,西宮市,甲子園七番町７番４号,,28,204,6638177,,,,,,,2021-11-02,1,,,,,ポーラベアー,0
799,3150001025061,新規,0,2021-11-02,2021-11-02,ひとともり株式会社,,株式会社,奈良県,奈良市,福智院町１番地の３,,29,201,6308381,,,,,,,2021-11-02,1,,,,,ヒトトモリ,0
802,3160001023766,新規,0,2021-11-02,2021-11-02,株式会社大津サービス,,株式会社,滋賀県,大津市,あかね町１８番２２号,,25,201,5200003,,,,,,,2021-11-02,1,,,,,オオツサービス,0
809,3180001148479,新規,0,2021-11-02,2021-11-02,株式会社インテリア宮田,,株式会社,愛知県,名古屋市北区,金田町３丁目１８番地の３,,23,103,4620033,,,,,,,2021-11-02,1,,,,,インテリアミヤタ,0
810,3180001148504,新規,0,2021-11-02,2021-11-02,株式会社オフィスクリエ,,株式会社,愛知県,名古屋市中川区,蔦元町２丁目７９番地の３,,23,110,4540824,,,,,,,2021-11-02,1,,,,,オフィスクリエ,0
820,3190001028812,新規,0,2021-11-02,2021-11-02,株式会社末広工業,,株式会社,三重県,鈴鹿市,竹野２丁目５番７－１号,,24,207,5130025,,,,,,,2021-11-02,1,,,,,スエヒロコウギョウ,0
830,3200001039345,新規,0,2021-11-02,2021-11-02,株式会社いたくらホールディングス,,株式会社,岐阜県,高山市,下切町２８０番地５,,21,203,5060041,,,,,,,2021-11-02,1,,,,,イタクラホールディングス,0
831,3200001039353,新規,0,2021-11-02,2021-11-02,株式会社アースワーク・ＮＡＫＡＫＥＮ,,株式会社,岐阜県,美濃加茂市,森山町６丁目６番３号,,21,211,5050021,,,,,,,2021-11-02,1,,,,,アースワークナカケン,0
832,3210001018678,新規,0,2021-11-02,2021-11-02,Ｇ－ＮＥＸＴ株式会社,,株式会社,福井県,福井市,中央１丁目１０番５号デュオヒルズ福井駅前１４０１号室,,18,201,9100006,,,,,,,2021-11-02,1,,,,,ジーネクスト,0
837,3220001024519,新規,0,2021-11-02,2021-11-02,株式会社レーベンギフト,,株式会社,石川県,金沢市,松寺町カ１４０番地１,,17,201,9200011,,,,,,,2021-11-02,1,,,,,レーベンギフト,0
838,3220001024527,新規,0,2021-11-02,2021-11-02,株式会社ＤＥＣＯＲＡＴ,,株式会社,石川県,金沢市,森山１丁目２番１号２１１,,17,201,9200843,,,,,,,2021-11-02,1,,,,,デコラ,0
844,3240001058837,新規,0,2021-11-02,2021-11-02,株式会社ポルテーロａｂｅ,,株式会社,広島県,広島市佐伯区,五日市５丁目７番５７－３０４号,,34,108,7315127,,,,,,,2021-11-02,1,,,,,ポルテーロアベ,0
845,3240001058878,新規,0,2021-11-02,2021-11-02,株式会社Ｍ＆Ｓ,,株式会社,広島県,広島市西区,草津東３丁目９番３－５号,,34,104,7330861,,,,,,,2021-11-02,1,,,,,,0
857,3260001036155,新規,0,2021-11-02,2021-11-02,株式会社ハレ,,株式会社,岡山県,岡山市北区,奥田南町５－１０,,33,101,7000934,,,,,,,2021-11-02,1,,,,,ハレ,0
858,3260001036171,新規,0,2021-11-02,2021-11-02,Ｂｅｌｅ．Ｌ株式会社,,株式会社,岡山県,岡山市北区,本町１０‐２３‐３Ｆ,,33,101,7000901,,,,,,,2021-11-02,1,,,,,ベル,0
870,3290001095173,新規,0,2021-11-02,2021-11-02,株式会社ライズ箱崎,,株式会社,福岡県,福岡市東区,箱崎３丁目１１番１３号,,40,131,8120053,,,,,,,2021-11-02,1,,,,,ライズハコザキ,0
871,3290001095198,新規,0,2021-11-02,2021-11-02,株式会社ＪＫＬ,,株式会社,福岡県,福岡市中央区,小笹５丁目２０番５号,,40,133,8100033,,,,,,,2021-11-02,1,,,,,ジェイケーエル,0
873,3290003011780,新規,0,2021-11-02,2021-11-02,ソートフル合同会社,,合同会社,福岡県,福岡市中央区,天神３丁目４番１７号ウィングビルＩ－６階,00124727,40,133,8100001,,,,,,,2021-11-02,1,,,,,ソートフル,0
874,3290801027953,新規,0,2021-11-02,2021-11-02,株式会社ギタンジャリ,,株式会社,福岡県,北九州市門司区,黄金町１４番地２６－３０５,,40,101,8000027,,,,,,,2021-11-02,1,,,,,ギタンジャリ,0
878,3310001017546,新規,0,2021-11-02,2021-11-02,株式会社エルノート,,株式会社,長崎県,長崎市,西町１６番１７－５０７号,,42,201,8528043,,,,,,,2021-11-02,1,,,,,エルノート,0
879,3310001017562,新規,0,2021-11-02,2021-11-02,ＹＭ企画株式会社,,株式会社,長崎県,長崎市,中園町２０番１４号,,42,201,8528155,,,,,,,2021-11-02,1,,,,,ヤイエムキカク,0
881,3320001018709,新規,0,2021-11-02,2021-11-02,株式会社チーズ,,株式会社,大分県,大分市,金池南１丁目５番１号,,44,201,8700839,,,,,,,2021-11-02,1,,,,,チーズ,0
883,3320003003650,新規,0,2021-11-02,2021-11-02,合同会社ＹＳＦ,,合同会社,大分県,別府市,南的ケ浜町２番３０号,,44,202,8740929,,,,,,,2021-11-02,1,,,,,ワイエスエフ,0
886,3330001029127,新規,0,2021-11-02,2021-11-02,株式会社咲市,,株式会社,熊本県,天草市,牛深町１９３番地２,,43,215,8631901,,,,,,,2021-11-02,1,,,,,サクイチ,0
887,3340001024226,新規,0,2021-11-02,2021-11-02,株式会社リエマリアジャパン,,株式会社,鹿児島県,鹿児島市,西田３丁目１８－１,,46,201,8900046,,,,,,,2021-11-02,1,,,,,リエマリアジャパン,0
889,3350001017385,新規,0,2021-11-02,2021-11-02,株式会社ｂ－ｂｅａｔ,,株式会社,宮崎県,宮崎市,中央通２－１０みらいビル４Ｆ,,45,201,8800002,,,,,,,2021-11-02,1,,,,,ビービート,0
894,3370001047744,新規,0,2021-11-02,2021-11-02,株式会社サンエスリフォーム,,株式会社,宮城県,仙台市泉区,将監１０丁目１番１６号,,04,105,9813132,,,,,,,2021-11-02,1,,,,,サンエスリフォーム,0
901,3380001032299,新規,0,2021-11-02,2021-11-02,株式会社斉藤製作所,,株式会社,福島県,田村郡三春町,大字蛇沢字北ノ内１１２番地の１,,07,521,9637721,,,,,,,2021-11-02,1,,,,,サイトウセイサクジョ,0
908,3410001013007,新規,0,2021-11-02,2021-11-02,株式会社ココハウス,,株式会社,秋田県,秋田市,横森４丁目９番２５号,,05,201,0100044,,,,,,,2021-11-02,1,,,,,ココハウス,0
913,3430001085267,新規,0,2021-11-02,2021-11-02,木村設備株式会社,,株式会社,北海道,札幌市東区,北四十七条東１４丁目１番２９号,,01,103,0070847,,,,,,,2021-11-02,1,,,,,キムラセツビ,0
914,3430001085300,新規,0,2021-11-02,2021-11-02,株式会社りんね,,株式会社,北海道,札幌市北区,屯田五条７丁目１番６４－２０１号,,01,102,0020855,,,,,,,2021-11-02,1,,,,,リンネ,0
918,3450001013523,新規,0,2021-11-02,2021-11-02,由利住設株式会社,,株式会社,北海道,旭川市,神楽岡十一条７丁目２番２号,,01,204,0788321,,,,,,,2021-11-02,1,,,,,ユリジュウセツ,0
922,3470005006389,新規,0,2021-11-02,2021-11-02,特定非営利活動法人つながる・つむぐ・海と空,,その他の設立登記法人,香川県,丸亀市,城南町６４番地３,,37,202,7630031,,,,,,,2021-11-02,1,,,,,ツナガルツムグウミトソラ,0
928,3480003001746,新規,0,2021-11-02,2021-11-02,合同会社志虎工業,,合同会社,徳島県,徳島市,国府町芝原字神楽免９７番地の６,,36,201,7793112,,,,,,,2021-11-02,1,,,,,シトラコウギョウ,0
932,3500001023764,新規,0,2021-11-02,2021-11-02,株式会社クリエイトホールディングス,,株式会社,愛媛県,四国中央市,金生町下分１０７３番地１,,38,213,7990111,,,,,,,2021-11-02,1,,,,,クリエイトホールディングス,0
933,3500001023772,新規,0,2021-11-02,2021-11-02,ｉｎｔｅｒｃｏｎｎｅｃｔ株式会社,,株式会社,愛媛県,松山市,空港通７丁目１５番１２号,,38,201,7910054,,,,,,,2021-11-02,1,,,,,インターコネクト,0
937,3700150031977,新規,0,2021-11-02,2015-10-09,北海道ゴルフ連盟,,その他,北海道,札幌市中央区,南四条西３丁目北星ビル３階,,01,101,0640804,,,,,,,2015-10-09,1,,,,,ホツカイドウゴルフレンメイ,0
938,3700150105590,新規,0,2021-11-02,2021-11-02,高輪交陽ハイツマンション敷地売却組合,,その他,東京都,千代田区,神田須田町２丁目１１番地１株式会社サニーライフ内,,13,101,1010041,,,,,,,2021-11-02,1,,,,,タカナワコウヨウハイツマンシヨンシキチバイキヤククミアイ,0
945,4010003036152,新規,0,2021-11-02,2021-11-02,合同会社Ｙ＆Ｎ,,合同会社,東京都,中央区,新川２丁目１０番１－２２０２号,,13,102,1040033,,,,,,,2021-11-02,1,,,,,ワイアンドエヌ,0
946,4010005034154,新規,0,2021-11-02,2021-11-02,アジアクリーン協同組合,,その他の設立登記法人,東京都,中央区,京橋１丁目２番４号,,13,102,1040031,,,,,,,2021-11-02,1,,,,,アジアクリーン,0
947,4010005034162,新規,0,2021-11-02,2021-11-02,ラベンダー一般社団法人,,その他の設立登記法人,東京都,中央区,銀座１丁目６番１１号アースタックス税理士法人内,,13,102,1040061,,,,,,,2021-11-02,1,,,,,ラベンダー,0
948,4010103001799,新規,0,2021-11-02,2021-11-02,ＳＢＡ合同会社,,合同会社,東京都,八王子市,本町３１－９,,13,201,1920066,,,,,,,2021-11-02,1,,,,,,0
960,4010401163572,新規,0,2021-11-02,2021-11-02,株式会社ＴＲＹ　ａｎｄ　Ｄ,,株式会社,東京都,港区,浜松町２丁目２番１５号浜松町ダイヤビル２Ｆ,,13,103,1050013,,,,,,,2021-11-02,1,,,,,トライアンドディー,0
961,4010401163589,新規,0,2021-11-02,2021-11-02,株式会社ゆふ,,株式会社,東京都,港区,白金１丁目１４番３号,,13,103,1080072,,,,,,,2021-11-02,1,,,,,ユフ,0
965,4010403026430,新規,0,2021-11-02,2021-11-02,ノタリ合同会社,,合同会社,東京都,港区,浜松町２丁目２番１５号浜松町ダイヤビル２階,,13,103,1050013,,,,,,,2021-11-02,1,,,,,ノタリ,0
968,4010405020349,新規,0,2021-11-02,2021-11-02,一般財団法人オゾン医療関連財団,,その他の設立登記法人,東京都,港区,南青山１丁目３番１号パークアクシス青山一丁目タワー１７０９号,,13,103,1070062,,,,,,,2021-11-02,1,,,,,オゾンイリョウカンレンザイダン,0
969,4010405020373,新規,0,2021-11-02,2021-11-02,一般社団法人常陸大宮２地域活性化基金,,その他の設立登記法人,東京都,港区,虎ノ門３丁目２２番１０－２０１号,,13,103,1050001,,,,,,,2021-11-02,1,,,,,ヒタチオオミヤツーチイキカッセイカキキン,0
970,4010501048038,新規,0,2021-11-02,2021-11-02,株式会社ａｎｄ　ｇｏ,,株式会社,東京都,台東区,上野７丁目４番９号,,13,106,1100005,,,,,,,2021-11-02,1,,,,,アンドゴー,0
972,4010701041734,新規,0,2021-11-02,2021-11-02,株式会社ジェイピーシーソリューションズ,,株式会社,東京都,品川区,西五反田８丁目３番６号,,13,109,1410031,,,,,,,2021-11-02,1,,,,,ジェイピーシーソリューションズ,0
973,4010701041742,新規,0,2021-11-02,2021-11-02,株式会社栂屋,,株式会社,東京都,品川区,戸越３丁目５番１号戸越サマリヤマンション１Ｆ,,13,109,1420041,,,,,,,2021-11-02,1,,,,,トガヤ,0
976,4010803003938,新規,0,2021-11-02,2021-11-02,合同会社ＦＭＤＨ,,合同会社,東京都,大田区,田園調布１丁目１０番２６－６０３号,,13,111,1450071,,,,,,,2021-11-02,1,,,,,エフエムディーエイチ,0
981,4010901049718,新規,0,2021-11-02,2021-11-02,ｅｎｌｏｏｐ株式会社,,株式会社,東京都,世田谷区,瀬田４丁目１５番３６－２２２号,,13,112,1580095,,,,,,,2021-11-02,1,,,,,エンループ,0
991,4011001143717,新規,0,2021-11-02,2021-11-02,ＴＦＧ　Ｔｅｃｈｎｏｌｏｇｉｅｓ株式会社,,株式会社,東京都,渋谷区,代々木１丁目４２番２号,,13,113,1510053,,,,,,,2021-11-02,1,,,,,ティーエフジーテクノロジーズ,0
995,4011103011136,新規,0,2021-11-02,2021-11-02,Ｅｖｅｒｇｒｅｅｎ　Ｏｎｅ合同会社,,合同会社,東京都,新宿区,四谷４丁目３２番８号ＹＫＢサニービル６階,,13,104,1600004,,,,,,,2021-11-02,1,,,,,エヴァーグリーンワン,0
1006,4011501027444,新規,0,2021-11-02,2021-11-02,新江株式会社,,株式会社,東京都,北区,赤羽北２丁目２４番１１号,,13,117,1150052,,,,,,,2021-11-02,1,,,,,シンコウ,0
1010,4011601025513,新規,0,2021-11-02,2021-11-02,株式会社城光,,株式会社,東京都,練馬区,下石神井２丁目３７番１１号,,13,120,1770042,,,,,,,2021-11-02,1,,,,,ジョウコウ,0
1011,4011601025521,新規,0,2021-11-02,2021-11-02,株式会社宇田川工業,,株式会社,東京都,練馬区,北町３丁目９番５号フェリスカーサ２０２号室,,13,120,1790081,,,,,,,2021-11-02,1,,,,,ウタガワコウギョウ,0
1018,4011801039932,新規,0,2021-11-02,2021-11-02,創建産業株式会社,,株式会社,東京都,足立区,梅田８丁目１４－２－１３１１,,13,121,1230851,,,,,,,2021-11-02,1,,,,,ソウケンサンギョウ,0
1020,4012401038473,新規,0,2021-11-02,2021-11-02,株式会社ＯＦＦＩＣＥ８８,,株式会社,東京都,府中市,府中町１丁目２９番地の２コーポテラス２０２,,13,206,1830055,,,,,,,2021-11-02,1,,,,,オフィスハチハチ,0
1021,4012703002342,新規,0,2021-11-02,2021-11-02,Ｗｉｎ　Ｆｉｎａｎｃｉａｌ　Ｐａｒｔｎｅｒｓ合同会社,,合同会社,東京都,東村山市,恩多町５丁目１７番地９,,13,213,1890011,,,,,,,2021-11-02,1,,,,,ウィンフィナンシャルパートナーズ,0
1027,4013303005883,新規,0,2021-11-02,2021-11-02,合同会社ｃｈａｍｐ,,合同会社,東京都,豊島区,南大塚２丁目１１番１０号ミモザビル３Ｆ,,13,116,1700005,,,,,,,2021-11-02,1,,,,,チャンプ,0
1036,4020001143750,新規,0,2021-11-02,2021-11-02,株式会社Ｅ企画,,株式会社,神奈川県,横浜市南区,新川町３丁目７番地,,14,105,2320027,,,,,,,2021-11-02,1,,,,,イーキカク,0
1038,4020003020733,新規,0,2021-11-02,2021-11-02,合同会社ジョイントＫ３０３,,合同会社,神奈川県,横浜市鶴見区,本町通４丁目１７１－１ジョイントＫ３０３,,14,101,2300048,,,,,,,2021-11-02,1,,,,,,0
1049,4030001144970,新規,0,2021-11-02,2021-11-02,株式会社クリモト・デザイン,,株式会社,埼玉県,さいたま市桜区,大字白鍬１８８番地６,,11,106,3380811,,,,,,,2021-11-02,1,,,,,クリモトデザイン,0
1050,4030001145085,新規,0,2021-11-02,2021-11-02,株式会社市川石材工業,,株式会社,埼玉県,比企郡鳩山町,大字大橋７９５番地２,,11,348,3500302,,,,,,,2021-11-02,1,,,,,イチカワセキザイコウギョウ,0
1051,4030001145135,新規,0,2021-11-02,2021-11-02,長田造園株式会社,,株式会社,埼玉県,さいたま市緑区,大字大崎３０６６番地７,,11,109,3360974,,,,,,,2021-11-02,1,,,,,オサダゾウエン,0
1065,4040001120797,新規,0,2021-11-02,2021-11-02,レアメタル技研株式会社,,株式会社,千葉県,千葉市美浜区,中瀬１丁目９番１－１２０７号,,12,106,2610023,,,,,,,2021-11-02,1,,,,,レアメタルギケン,0
1066,4040001120806,新規,0,2021-11-02,2021-11-02,株式会社ザット,,株式会社,千葉県,船橋市,西船４丁目１９番１１号パストラル西船２０３号,,12,204,2730031,,,,,,,2021-11-02,1,,,,,ザット,0
1071,4040003018841,新規,0,2021-11-02,2021-11-02,トラストリンク合同会社,,合同会社,千葉県,千葉市緑区,おゆみ野中央２丁目５番地２ステイブル・アイ１０２号,,12,105,2660032,,,,,,,2021-11-02,1,,,,,トラストリンク,0
1077,4060001034252,新規,0,2021-11-02,2021-11-02,株式会社ＥＭＩＰＬＡＮ,,株式会社,栃木県,足利市,松田町９８番地,,09,202,3260101,,,,,,,2021-11-02,1,,,,,エミプラン,0
1079,4070001038590,新規,0,2021-11-02,2021-11-02,株式会社Ｈａｑｑ,,株式会社,群馬県,高崎市,貝沢町７５２番地２フォーレス壱番館２０２,,10,202,3700042,,,,,,,2021-11-02,1,,,,,ハック,0
1080,4070003004285,新規,0,2021-11-02,2021-11-02,合同会社黎明,,合同会社,群馬県,高崎市,井出町４４９番地３,,10,202,3703534,,,,,,,2021-11-02,1,,,,,レイメイ,0
1082,4080001024540,新規,0,2021-11-02,2021-11-02,株式会社ＮＡＱ,,株式会社,静岡県,静岡市駿河区,登呂４丁目４番１６号,,22,102,4228033,,,,,,,2021-11-02,1,,,,,ナック,0
1083,4080001024549,新規,0,2021-11-02,2021-11-02,株式会社静岡歯科,,株式会社,静岡県,静岡市葵区,追手町２番１５号ＭＲＫ追手町ビル３階,,22,101,4200853,,,,,,,2021-11-02,1,,,,,シズオカシカ,0
1085,4080401025452,新規,0,2021-11-02,2021-11-02,株式会社日バントレーディング,,株式会社,静岡県,浜松市東区,市野町７０番地１,,22,132,4350051,,,,,,,2021-11-02,1,,,,,ニチバントレーディング,0
1088,4100001034776,新規,0,2021-11-02,2021-11-02,吾妻製麺株式会社,,株式会社,長野県,飯田市,吾妻町１１１番地,,20,205,3950085,,,,,,,2021-11-02,1,,,,,アヅマセイメン,0
1092,4110001036152,新規,0,2021-11-02,2021-11-02,株式会社脇田自動車,,株式会社,新潟県,新潟市西蒲区,馬堀６４６８番地１,,15,108,9530061,,,,,,,2021-11-02,1,,,,,ワキタジドウシャ,0
1105,4120001241536,新規,0,2021-11-02,2021-11-02,株式会社マクニーク,,株式会社,大阪府,大阪市住之江区,西加賀屋３丁目１６番６号,,27,125,5590016,,,,,,,2021-11-02,1,,,,,マクニーク,0
1106,4120001241544,新規,0,2021-11-02,2021-11-02,株式会社クオリティ,,株式会社,大阪府,大阪市生野区,勝山北１丁目１６番１７号プレイス桃谷１０２号,,27,116,5440033,,,,,,,2021-11-02,1,,,,,クオリティ,0
1107,4120001241560,新規,0,2021-11-02,2021-11-02,株式会社ふくろう,,株式会社,大阪府,大阪市鶴見区,諸口６丁目１５番８０－６７号,,27,124,5380051,,,,,,,2021-11-02,1,,,,,フクロウ,0
1108,4120001241577,新規,0,2021-11-02,2021-11-02,株式会社直,,株式会社,大阪府,大阪市北区,天神橋６丁目２番２５号２Ａ,,27,127,5300041,,,,,,,2021-11-02,1,,,,,ジキ,0
1109,4120001241619,新規,0,2021-11-02,2021-11-02,株式会社ＹＭＳ,,株式会社,大阪府,大阪市阿倍野区,北畠１丁目６番２６号,,27,119,5450035,,,,,,,2021-11-02,1,,,,,ワイエムエス,0
1110,4120001241627,新規,0,2021-11-02,2021-11-02,株式会社クロスワン,,株式会社,大阪府,大阪市中央区,南本町１丁目３番９号サンコービル,,27,128,5410054,,,,,,,2021-11-02,1,,,,,クロスワン,0
1111,4120001241643,新規,0,2021-11-02,2021-11-02,ＳＵＮＡＯ株式会社,,株式会社,大阪府,大阪市中央区,本町２丁目３番４号アソルティ本町４階,,27,128,5410053,,,,,,,2021-11-02,1,,,,,スナオ,0
1112,4120003020509,新規,0,2021-11-02,2021-11-02,ｂｌｕ　ｓｃｕｒｏ合同会社,,合同会社,大阪府,大阪市淀川区,西中島７丁目１番２９号,,27,123,5320011,,,,,,,2021-11-02,1,,,,,ブルスクーロ,0
1113,4120003020517,新規,0,2021-11-02,2021-11-02,Ｓｔａｒｔｌｉｎｅ合同会社,,合同会社,大阪府,大阪市北区,梅田１丁目２番２号大阪駅前第２ビル２階５－６号室,,27,127,5300001,,,,,,,2021-11-02,1,,,,,スタートライン,0
1119,4120901045111,新規,0,2021-11-02,2021-11-02,ＴＹＵ株式会社,,株式会社,大阪府,吹田市,朝日町２番吹田さんくす２番館Ｂ１２５,,27,205,5640027,,,,,,,2021-11-02,1,,,,,ティーワイユー,0
1122,4130001070455,新規,0,2021-11-02,2021-11-02,ＫＡＫＩＢＯ株式会社,,株式会社,京都府,京都市山科区,西野山百々町２３５番地１０,,26,110,6078301,,,,,,,2021-11-02,1,,,,,カキボウ,0
1126,4140001123641,新規,0,2021-11-02,2021-11-02,株式会社田中商店,,株式会社,兵庫県,神戸市兵庫区,西仲町１番６号,,28,105,6520835,,,,,,,2021-11-02,1,,,,,タナカショウテン,0
1127,4140001123682,新規,0,2021-11-02,2021-11-02,株式会社根波里農園,,株式会社,兵庫県,淡路市,浦１５０４番地下田ハイツ１０３号,,28,226,6562305,,,,,,,2021-11-02,1,,,,,ネバリノウエン,0
1128,4140001123708,新規,0,2021-11-02,2021-11-02,株式会社ＴＭＧ,,株式会社,兵庫県,伊丹市,中野東２丁目２７５－１ヴィラソレアーダ中野Ｅ－１０２,,28,207,6640022,,,,,,,2021-11-02,1,,,,,ティーエムジー,0
1129,4140001123765,新規,0,2021-11-02,2021-11-02,株式会社ミライソ,,株式会社,兵庫県,丹波篠山市,糯ケ坪甲６０番地１,,28,221,6692437,,,,,,,2021-11-02,1,,,,,ミライソ,0
1135,4140003016926,新規,0,2021-11-02,2021-11-02,合同会社スタンダード,,合同会社,兵庫県,川西市,久代３丁目２５番５号,,28,217,6660024,,,,,,,2021-11-02,1,,,,,スタンダード,0
1136,4140003016942,新規,0,2021-11-02,2021-11-02,ベリタスエッジ合同会社,,合同会社,兵庫県,姫路市,飾磨区恵美酒８番地４Ｆ,,28,201,6728057,,,,,,,2021-11-02,1,,,,,ベリタスエッジ,0
1140,4160001023781,新規,0,2021-11-02,2021-11-02,株式会社彩－ｉｒｏｄｏｒｉ,,株式会社,滋賀県,草津市,木川町１１１８番地７２,,25,206,5250051,,,,,,,2021-11-02,1,,,,,イロドリーイロドリ,0
1146,4170001016850,新規,0,2021-11-02,2021-11-02,株式会社サニービルド,,株式会社,和歌山県,和歌山市,鳴神２４８番地７,,30,201,6408303,,,,,,,2021-11-02,1,,,,,サニービルド,0
1147,4170001016859,新規,0,2021-11-02,2021-11-02,株式会社フィールド,,株式会社,和歌山県,有田郡湯浅町,大字山田１６３８－１,,30,361,6430001,,,,,,,2021-11-02,1,,,,,フィールド,0
1148,4170005006930,新規,0,2021-11-02,2021-11-02,特定非営利活動法人和歌山県日本語教育の会,,その他の設立登記法人,和歌山県,海南市,日方１０５２番地５,,30,202,6420002,,,,,,,2021-11-02,1,,,,,ワカヤマケンニホンゴキョウイクノカイ,0
1154,4180001148461,新規,0,2021-11-02,2021-11-02,株式会社Ｓ－ａｒｔ,,株式会社,愛知県,名古屋市昭和区,円上町１９－６大幸ビル４０１,,23,107,4660054,,,,,,,2021-11-02,1,,,,,エスアート,0
1155,4180001148486,新規,0,2021-11-02,2021-11-02,株式会社ＥＳＰＥＲＡＮＳＡ,,株式会社,愛知県,半田市,栄町３丁目２０７番地,,23,205,4750846,,,,,,,2021-11-02,1,,,,,エスペランサ,0
1156,4180001148494,新規,0,2021-11-02,2021-11-02,株式会社レアリゼ,,株式会社,愛知県,名古屋市名東区,高間町３１番５,,23,115,4650081,,,,,,,2021-11-02,1,,,,,レアリゼ,0
1160,4180003023142,新規,0,2021-11-02,2021-11-02,合同会社Ｙｓインターナショナル,,合同会社,愛知県,名古屋市中区,丸の内２丁目１番１６号シャトー丸の内４０１,,23,106,4600002,,,,,,,2021-11-02,1,,,,,ワイエスインターナショナル,0
1162,4180303005154,新規,0,2021-11-02,2021-11-02,スマイルサファイア合同会社,,合同会社,愛知県,刈谷市,板倉町１丁目１２番地１６,,23,210,4480801,,,,,,,2021-11-02,1,,,,,スマイルサファイア,0
1166,4200001039344,新規,0,2021-11-02,2021-11-02,ＹＭＫメディカル株式会社,,株式会社,岐阜県,美濃加茂市,古井町下古井４０６番地,,21,211,5050034,,,,,,,2021-11-02,1,,,,,ワイエムケーメディカル,0
1167,4200001039360,新規,0,2021-11-02,2021-11-02,Ｍｉｒａｃｌｅ株式会社,,株式会社,岐阜県,美濃加茂市,牧野２１１３番地１３,,21,211,5050016,,,,,,,2021-11-02,1,,,,,ミラクル,0
1168,4200001039369,新規,0,2021-11-02,2021-11-02,株式会社肉の浅野屋,,株式会社,岐阜県,岐阜市,金屋町２丁目５番地,,21,201,5008065,,,,,,,2021-11-02,1,,,,,ニクノアサノヤ,0
1170,4200003005369,新規,0,2021-11-02,2021-11-02,秋元企画合同会社,,合同会社,岐阜県,多治見市,脇之島町５丁目３６番地の８,,21,204,5070826,,,,,,,2021-11-02,1,,,,,アキモトキカク,0
1175,4220001024518,新規,0,2021-11-02,2021-11-02,株式会社エフ・カンパニー,,株式会社,石川県,金沢市,木曳野１丁目２５番地,,17,201,9200339,,,,,,,2021-11-02,1,,,,,エフカンパニー,0
1176,4220001024526,新規,0,2021-11-02,2021-11-02,株式会社ＭＯＤ,,株式会社,石川県,金沢市,森山１丁目２番１号２１０,,17,201,9200843,,,,,,,2021-11-02,1,,,,,モッド,0
1183,4230003001745,新規,0,2021-11-02,2021-11-02,合同会社ｔｒｉｍｔａｂ,,合同会社,富山県,中新川郡立山町,浦田３５１－１０,,16,323,9300208,,,,,,,2021-11-02,1,,,,,トリムタブ,0
1188,4240001058860,新規,0,2021-11-02,2021-11-02,ＳＮマリン株式会社,,株式会社,広島県,呉市,中通１丁目４－１３,,34,202,7370046,,,,,,,2021-11-02,1,,,,,エスエヌマリン,0
1189,4240001058869,新規,0,2021-11-02,2021-11-02,株式会社ひなひな,,株式会社,広島県,福山市,新市町大字戸手２４１０番地２８,,34,207,7293101,,,,,,,2021-11-02,1,,,,,ヒナヒナ,0
1190,4240001058877,新規,0,2021-11-02,2021-11-02,株式会社Ｔｏｋｉ．ｎ,,株式会社,広島県,広島市南区,宇品御幸５丁目１６番１１号１０２,,34,103,7340015,,,,,,,2021-11-02,1,,,,,トキン,0
1193,4250003002931,新規,0,2021-11-02,2021-11-02,合同会社すみれ,,合同会社,山口県,山陽小野田市,大字小野田７１８８番地３,,35,216,7560817,,,,,,,2021-11-02,1,,,,,スミレ,0
1197,4260001036154,新規,0,2021-11-02,2021-11-02,信清工建株式会社,,株式会社,岡山県,倉敷市,船穂町船穂２９８２番地１１,,33,202,7100261,,,,,,,2021-11-02,1,,,,,ノブキヨコウケン,0
1198,4260001036162,新規,0,2021-11-02,2021-11-02,株式会社ＳｅｎＲｅｎ,,株式会社,岡山県,倉敷市,笹沖１２２６番地６,,33,202,7100834,,,,,,,2021-11-02,1,,,,,センレン,0
1208,4290001095206,新規,0,2021-11-02,2021-11-02,株式会社ビーンズ,,株式会社,福岡県,久留米市,荒木町荒木１５７７番地３,,40,203,8300063,,,,,,,2021-11-02,1,,,,,ビーンズ,0
1209,4290001095214,新規,0,2021-11-02,2021-11-02,株式会社大光輝,,株式会社,福岡県,小郡市,二森３４６番地４８,,40,216,8380126,,,,,,,2021-11-02,1,,,,,ダイコウキ,0
1210,4290003011771,新規,0,2021-11-02,2021-11-02,ｅｄｉｏｎ合同会社,,合同会社,福岡県,福岡市東区,三苫２丁目１６番６１号,,40,131,8110201,,,,,,,2021-11-02,1,,,,,エディオン,0
1211,4290801027944,新規,0,2021-11-02,2021-11-02,株式会社ヒサノ,,株式会社,福岡県,中間市,土手ノ内１丁目２３番１２号,,40,215,8090033,,,,,,,2021-11-02,1,,,,,ヒサノ,0
1215,4320001018690,新規,0,2021-11-02,2021-11-02,株式会社ａｈコネクション,,株式会社,大分県,大分市,大字杉原６９９番地の１２１,,44,201,8797882,,,,,,,2021-11-02,1,,,,,エーエイチコネクション,0
1221,4330005010420,新規,0,2021-11-02,2021-11-02,医療法人宮津会,,その他の設立登記法人,熊本県,熊本市中央区,国府２丁目６番７５号,,43,101,8620949,,,,,,,2021-11-02,1,,,,,ミヤツカイ,0
1225,4340001024233,新規,0,2021-11-02,2021-11-02,株式会社ＳＴ建設,,株式会社,鹿児島県,鹿児島市,新照院町１５番４号１Ｆ,,46,201,8900016,,,,,,,2021-11-02,1,,,,,エスティーケンセツ,0
1226,4340003003615,新規,0,2021-11-02,2021-11-02,合同会社曽於快,,合同会社,鹿児島県,曽於市,末吉町深川３３９７番地２,,46,217,8998606,,,,,,,2021-11-02,1,,,,,ソオカイ,0
1230,4360001029569,新規,0,2021-11-02,2021-11-02,株式会社アールディ・フィールズ沖縄,,株式会社,沖縄県,那覇市,久茂地１丁目１番１号,,47,201,9000015,,,,,,,2021-11-02,1,,,,,アールディフィールズオキナワ,0
1240,4370003005468,新規,0,2021-11-02,2021-11-02,合同会社ＳоｒａＣｉｅｌ,,合同会社,宮城県,柴田郡大河原町,字広表４８番地１０,,04,321,9891225,,,,,,,2021-11-02,1,,,,,ソラシエル,0
1248,4430001085274,新規,0,2021-11-02,2021-11-02,株式会社ハワイ,,株式会社,北海道,札幌市中央区,宮ケ丘３丁目３番１号３０６号,,01,101,0640959,,,,,,,2021-11-02,1,,,,,ハワイ,0
1252,4450001013522,新規,0,2021-11-02,2021-11-02,株式会社妻沼牧場,,株式会社,北海道,天塩郡遠別町,字北里９番地４,,01,486,0983501,,,,,,,2021-11-02,1,,,,,ツマヌマボクジョウ,0
1258,4470001018800,新規,0,2021-11-02,2021-11-02,たもつ運送株式会社,,株式会社,香川県,丸亀市,飯山町東坂元２５１４番地１,,37,202,7620081,,,,,,,2021-11-02,1,,,,,タモツウンソウ,0
1264,4500001023755,新規,0,2021-11-02,2021-11-02,株式会社洒落,,株式会社,愛媛県,松山市,高浜町１丁目乙６０－４７８ロイヤルカーサ黒岩２０３号室,,38,201,7918081,,,,,,,2021-11-02,1,,,,,シャラク,0
1265,4500001023763,新規,0,2021-11-02,2021-11-02,Ｓｔａｒｔ　Ｔｏｄａｙ株式会社,,株式会社,愛媛県,西条市,古川甲６５番地２,,38,206,7930044,,,,,,,2021-11-02,1,,,,,スタートトゥデイ,0
1266,4500001023771,新規,0,2021-11-02,2021-11-02,株式会社奥野崇建築設計事務所,,株式会社,愛媛県,松山市,窪野町甲１０４番地１,,38,201,7911131,,,,,,,2021-11-02,1,,,,,オクノタカシケンチクセッケイジムショ,0
1268,4700150105391,新規,0,2021-11-02,2021-10-19,種子島家畜衛生処理組合,,その他,鹿児島県,熊毛郡中種子町,納官３７６９,,46,501,8913601,,,,,,,2021-10-19,1,,,,,タネガシマカチクエイセイシヨリクミアイ,0
1275,5010001222199,新規,0,2021-11-02,2021-11-02,株式会社ＭＡＦＳＥＥホールディングス,,株式会社,東京都,中央区,日本橋本町２丁目３番１１号,,13,102,1030023,,,,,,,2021-11-02,1,,,,,マフシーホールディングス,0
1276,5010001222208,新規,0,2021-11-02,2021-11-02,ＶＯＲＴＥＸ株式会社,,株式会社,東京都,大島町,岡田６番地,,13,361,1000102,,,,,,,2021-11-02,1,,,,,ヴォルテックス,0
1277,5010001222224,新規,0,2021-11-02,2021-11-02,Ｍａｌｖｅｒｎ　Ｃｏｌｌｅｇｅ　Ｔｏｋｙｏ株式会社,,株式会社,東京都,中央区,銀座１丁目６番１１号土志田ビルディング３Ｆ,,13,102,1040061,,,,,,,2021-11-02,1,,,,,マルバーンカレッジトウキョウ,0
1278,5010001222240,新規,0,2021-11-02,2021-11-02,株式会社ライト,,株式会社,東京都,中央区,銀座１丁目２２番１１号銀座大竹ビジデンス２階,,13,102,1040061,,,,,,,2021-11-02,1,,,,,ライト,0
1279,5010001222257,新規,0,2021-11-02,2021-11-02,ウィラブル株式会社,,株式会社,東京都,千代田区,麹町５丁目５番地１－４０１,,13,101,1020083,,,,,,,2021-11-02,1,,,,,ウィラブル,0
1283,5010003036143,新規,0,2021-11-02,2021-11-02,ゼロイチ合同会社,,合同会社,東京都,中央区,東日本橋３丁目５－６カスタリア東日本橋３－１３０４,,13,102,1030004,,,,,,,2021-11-02,1,,,,,ゼロイチ,0
1296,5010401163563,新規,0,2021-11-02,2021-11-02,ＫＯＴＯＢＵＫＩ株式会社,,株式会社,東京都,港区,北青山２丁目７－１３プラセオ青山ビル３Ｆ,,13,103,1070061,,,,,,,2021-11-02,1,,,,,コトブキ,0
1297,5010401163679,新規,0,2021-11-02,2021-11-02,ステラコーポレーション株式会社,,株式会社,東京都,港区,芝浦３丁目１７番１１号天翔田町ビル４１１号室,,13,103,1080023,,,,,,,2021-11-02,1,,,,,ステラコーポレーション,0
1302,5010403026421,新規,0,2021-11-02,2021-11-02,さくら坂合同会社,,合同会社,東京都,港区,元麻布２丁目７番１１ー４０４号,,13,103,1060046,,,,,,,2021-11-02,1,,,,,サクラサカ,0
1303,5010403026438,新規,0,2021-11-02,2021-11-02,ＨＩＦ　ＦＵＮＤ２号合同会社,,合同会社,東京都,港区,西新橋１丁目２２番１４号,,13,103,1050003,,,,,,,2021-11-02,1,,,,,エイチアイエフファンドニゴウ,0
1304,5010403026446,新規,0,2021-11-02,2021-11-02,合同会社ｓｐｈｅｒｅ,,合同会社,東京都,港区,虎ノ門３丁目１８番１２－５０２号,,13,103,1050001,,,,,,,2021-11-02,1,,,,,スフィア,0
1305,5010403026470,新規,0,2021-11-02,2021-11-02,合同会社ランドルーチェ,,合同会社,東京都,港区,南青山２丁目２番１５号,,13,103,1070062,,,,,,,2021-11-02,1,,,,,ランドルーチェ,0
1307,5010501048037,新規,0,2021-11-02,2021-11-02,ティティケー管理株式会社,,株式会社,東京都,台東区,下谷２丁目２番１‐１２０１号,,13,106,1100004,,,,,,,2021-11-02,1,,,,,ティティケーカンリ,0
1308,5010501048053,新規,0,2021-11-02,2021-11-02,株式会社カナテック,,株式会社,東京都,台東区,小島１丁目３番１号,,13,106,1110056,,,,,,,2021-11-02,1,,,,,カナテック,0
1309,5010503006422,新規,0,2021-11-02,2021-11-02,クリエート合同会社,,合同会社,東京都,台東区,上野３丁目１５－７,,13,106,1100005,,,,,,,2021-11-02,1,,,,,クリエート,0
1312,5010701041725,新規,0,2021-11-02,2021-11-02,ＭＵＲＡＫＡＭＩ　ＴＥＣＨ株式会社,,株式会社,東京都,品川区,小山台１丁目３番２号武蔵小山コーポラス２１０,,13,109,1420061,,,,,,,2021-11-02,1,,,,,ムラカミテック,0
1315,5011001143550,新規,0,2021-11-02,2021-11-02,株式会社Ｂｏｘ　ｏｕｔ,,株式会社,東京都,目黒区,目黒本町６丁目１９番２３号コンフィア目黒本町１０３,,13,110,1520002,,,,,,,2021-11-02,1,,,,,ボックスアウト,0
1316,5011001143716,新規,0,2021-11-02,2021-11-02,株式会社新井会計事務所,,株式会社,東京都,渋谷区,笹塚２丁目２１番１２号グリーンライフビル５階,,13,113,1510073,,,,,,,2021-11-02,1,,,,,アライカイケイジムショ,0
1318,5011101096731,新規,0,2021-11-02,2021-11-02,株式会社Ｋ・Ｉ企画,,株式会社,東京都,新宿区,河田町３番５１－３７０９号,,13,104,1620054,,,,,,,2021-11-02,1,,,,,ケーアイキカク,0
1323,5011103011119,新規,0,2021-11-02,2021-11-02,合同会社松本工房,,合同会社,東京都,新宿区,中落合３丁目２５番１３－４０２号,,13,104,1610032,,,,,,,2021-11-02,1,,,,,マツモトコウボウ,0
1326,5011201023379,新規,0,2021-11-02,2021-11-02,よこやま商事株式会社,,株式会社,東京都,中野区,若宮３丁目６番１７号,,13,114,1650033,,,,,,,2021-11-02,1,,,,,ヨコヤマショウジ,0
1327,5011203003684,新規,0,2021-11-02,2021-11-02,合同会社フォライズ,,合同会社,東京都,中野区,大和町２丁目３９－１４,,13,114,1650034,,,,,,,2021-11-02,1,,,,,フォライズ,0
1328,5011303004211,新規,0,2021-11-02,2021-11-02,合同会社ジュイス,,合同会社,東京都,杉並区,堀ノ内３丁目５２－２３ＳＰビル３０２,,13,115,1660013,,,,,,,2021-11-02,1,,,,,ジュイス,0
1332,5011401023798,新規,0,2021-11-02,2021-11-02,株式会社Ｐ５,,株式会社,東京都,板橋区,舟渡１丁目１９番１０号クレール舟渡１Ｆ,,13,119,1740041,,,,,,,2021-11-02,1,,,,,ピーファイブ,0
1333,5011501027451,新規,0,2021-11-02,2021-11-02,株式会社Ａ＆Ｅ,,株式会社,東京都,北区,赤羽２丁目４７－９第５ＴＫＣビル２Ｆ,,13,117,1150045,,,,,,,2021-11-02,1,,,,,エイアンドイー,0
1337,5011601025520,新規,0,2021-11-02,2021-11-02,株式会社アラウンドアーキテクチャー,,株式会社,東京都,練馬区,北町３丁目２１番４号,,13,120,1790081,,,,,,,2021-11-02,1,,,,,アラウンドアーキテクチャー,0
1346,5012401038489,新規,0,2021-11-02,2021-11-02,第２期ＰＦＩ府中市民会館・中央図書館株式会社,,株式会社,東京都,府中市,府中町２丁目２４番地,,13,206,1830055,,,,,,,2021-11-02,1,,,,,ダイニキピーエフアイフチュウシミンカイカンチュウオウトショカン,0
1347,5012403005090,新規,0,2021-11-02,2021-11-02,ＥＮ－ＣＯＬＯＲ合同会社,,合同会社,東京都,多摩市,桜ヶ丘２丁目３８－９,,13,224,2060013,,,,,,,2021-11-02,1,,,,,エンカラー,0
1348,5012703002341,新規,0,2021-11-02,2021-11-02,合同会社ＳＩＸ,,合同会社,東京都,東村山市,栄町２丁目９番地３２晃正ビル３０１,,13,213,1890013,,,,,,,2021-11-02,1,,,,,シックス,0
1351,5012805003064,新規,0,2021-11-02,2021-11-02,特定非営利活動法人コアラッコ子育てサポート,,その他の設立登記法人,東京都,国分寺市,東恋ヶ窪４丁目１７番地２５,,13,214,1850014,,,,,,,2021-11-02,1,,,,,コアラッココソダテサポート,0
1358,5020001143691,新規,0,2021-11-02,2021-11-02,株式会社Ｃｌｅａｒ,,株式会社,神奈川県,川崎市中原区,市ノ坪５８１番地１－６２４,,14,133,2110016,,,,,,,2021-11-02,1,,,,,クリア,0
1359,5020001143709,新規,0,2021-11-02,2021-11-02,株式会社Ｃ＆Ｊグループ,,株式会社,神奈川県,川崎市幸区,中幸町３丁目３１番地２,,14,132,2120012,,,,,,,2021-11-02,1,,,,,シーアンドジェイグループ,0
1360,5020001143717,新規,0,2021-11-02,2021-11-02,株式会社ＦＡＮフロンティア,,株式会社,神奈川県,横浜市都筑区,仲町台１丁目２番２０号フロンティアビル,,14,118,2240041,,,,,,,2021-11-02,1,,,,,ファンフロンティア,0
1365,5021001074365,新規,0,2021-11-02,2021-11-02,株式会社ヒカリ,,株式会社,神奈川県,藤沢市,石川６丁目１８番地４８,,14,205,2520815,,,,,,,2021-11-02,1,,,,,ヒカリ,0
1366,5021003011044,新規,0,2021-11-02,2021-11-02,合同会社ＡＬＩＶＥ,,合同会社,神奈川県,厚木市,中町２丁目１番８号プリムローズ本厚木館４階,,14,212,2430018,,,,,,,2021-11-02,1,,,,,アライブ,0
1378,5030001145076,新規,0,2021-11-02,2021-11-02,株式会社大富,,株式会社,埼玉県,ふじみ野市,大井１丁目１１番２７号,,11,245,3560053,,,,,,,2021-11-02,1,,,,,オオトミ,0
1379,5030001145084,新規,0,2021-11-02,2021-11-02,株式会社ＮＥＷ　ＺＥＡＬ,,株式会社,埼玉県,吉川市,美南３丁目５番地１２ブリージョ２０５号,,11,243,3420038,,,,,,,2021-11-02,1,,,,,ニュージール,0
1380,5030001145092,新規,0,2021-11-02,2021-11-02,インテリアアイル株式会社,,株式会社,埼玉県,さいたま市岩槻区,大字南下新井４０６番地１４２,,11,110,3390032,,,,,,,2021-11-02,1,,,,,インテリアアイル,0
1385,5030003018239,新規,0,2021-11-02,2021-11-02,Ｅｔｅｒｎａｌ　Ｊａｐａｎ合同会社,,合同会社,埼玉県,越谷市,レイクタウン５丁目１２番地８７,,11,222,3430828,,,,,,,2021-11-02,1,,,,,エターナルジャパン,0
1394,5040001120813,新規,0,2021-11-02,2021-11-02,株式会社バリュエーション総合研究所,,株式会社,千葉県,千葉市美浜区,磯辺８丁目９番４号,,12,106,2610012,,,,,,,2021-11-02,1,,,,,バリュエーションソウゴウケンジュウジョ,0
1395,5040001120821,新規,0,2021-11-02,2021-11-02,株式会社叡志館,,株式会社,千葉県,柏市,松ケ崎９４番地３３,,12,217,2770835,,,,,,,2021-11-02,1,,,,,エイシカン,0
1403,5040005021405,新規,0,2021-11-02,2021-11-02,医療法人社団カルミア会,,その他の設立登記法人,千葉県,四街道市,美しが丘１丁目１８番７号２階,,12,228,2840045,,,,,,,2021-11-02,1,,,,,カルミアカイ,0
1406,5050001050068,新規,0,2021-11-02,2021-11-02,流星企画株式会社,,株式会社,茨城県,桜川市,真壁町亀熊２００３番地１２,,08,231,3004422,,,,,,,2021-11-02,1,,,,,リュウセイキカク,0
1409,5060003003849,新規,0,2021-11-02,2021-11-02,合同会社英語のたまご,,合同会社,栃木県,宇都宮市,豊郷台３丁目９番地４,,09,201,3200003,,,,,,,2021-11-02,1,,,,,エイゴノタマゴ,0
1410,5080001024548,新規,0,2021-11-02,2021-11-02,株式会社山口板金,,株式会社,静岡県,静岡市清水区,長崎新田３６８番地の１,,22,103,4240064,,,,,,,2021-11-02,1,,,,,ヤマグチバンキン,0
1411,5080001024556,新規,0,2021-11-02,2021-11-02,株式会社浅田電発舎,,株式会社,静岡県,静岡市葵区,井宮町９９番地の１,,22,101,4200001,,,,,,,2021-11-02,1,,,,,アサダデンパツシャ,0
1413,5080003002675,新規,0,2021-11-02,2021-11-02,たなカンパニー合同会社,,合同会社,静岡県,静岡市駿河区,大谷３丁目１１番５号,,22,102,4228017,,,,,,,2021-11-02,1,,,,,タナカンパニー,0
1421,5110001036151,新規,0,2021-11-02,2021-11-02,坂井村上土地区画整理株式会社,,株式会社,新潟県,新潟市中央区,鳥屋野２丁目１３番２２号,,15,103,9500951,,,,,,,2021-11-02,1,,,,,サカイムラカミトチクカクセイリ,0
1424,5110003004593,新規,0,2021-11-02,2021-11-02,合同会社Ｍａｌｉｙ,,合同会社,新潟県,新潟市中央区,天神１丁目１プラーカ３、２Ｆ,,15,103,9500917,,,,,,,2021-11-02,1,,,,,マリー,0
1433,5120001241469,新規,0,2021-11-02,2021-11-02,株式会社エヌシーアール,,株式会社,大阪府,大阪市中央区,高麗橋２丁目３番２号高麗橋ビル４Ｆ５号室,,27,128,5410043,,,,,,,2021-11-02,1,,,,,エヌシーアール,0
1434,5120001241485,新規,0,2021-11-02,2021-11-02,株式会社ＬＥＡ　ｂｒａｉｎ,,株式会社,大阪府,枚方市,岡本町４番１０号井川ビル７Ｆ,,27,210,5730031,,,,,,,2021-11-02,1,,,,,レアブレイン,0
1435,5120001241510,新規,0,2021-11-02,2021-11-02,株式会社Ｓｕｎ　ｍｏｒｅ,,株式会社,大阪府,大阪市西区,京町堀１丁目２６－２８－３０４,,27,106,5500003,,,,,,,2021-11-02,1,,,,,サンモア,0
1436,5120001241535,新規,0,2021-11-02,2021-11-02,株式会社ＲＡＭＡ,,株式会社,大阪府,大阪市港区,築港２丁目８番１９－１２０７号,,27,107,5520021,,,,,,,2021-11-02,1,,,,,ラマ,0
1437,5120001241543,新規,0,2021-11-02,2021-11-02,株式会社ガーロンドアイアンワークス,,株式会社,大阪府,門真市,新橋町１４－１４－２階,,27,223,5710048,,,,,,,2021-11-02,1,,,,,ガーロンドアイアンワークス,0
1438,5120001241568,新規,0,2021-11-02,2021-11-02,株式会社柴田商店,,株式会社,大阪府,大阪市平野区,瓜破５丁目４番２６号,,27,126,5470024,,,,,,,2021-11-02,1,,,,,シバタショウテン,0
1439,5120001241650,新規,0,2021-11-02,2021-11-02,株式会社アマランス,,株式会社,大阪府,大阪市中央区,東心斎橋１丁目３番３－６０８号,,27,128,5420083,,,,,,,2021-11-02,1,,,,,アマランス,0
1441,5120003020490,新規,0,2021-11-02,2021-11-02,合同会社ＡＰＯ,,合同会社,大阪府,大阪市中央区,北新町２番９号,,27,128,5400023,,,,,,,2021-11-02,1,,,,,エーピーオー,0
1442,5120003020516,新規,0,2021-11-02,2021-11-02,Ｏｒｄｉｎａｒｉｏ合同会社,,合同会社,大阪府,大阪市西区,川口３丁目９番２２－１０３号,,27,106,5500021,,,,,,,2021-11-02,1,,,,,オルディナリオ,0
1443,5120003020524,新規,0,2021-11-02,2021-11-02,トライアンフ合同会社,,合同会社,大阪府,大阪市北区,梅田２丁目２番２号ヒルトンプラザウェストオフィスタワー１８階,,27,127,5300001,,,,,,,2021-11-02,1,,,,,トライアンフ,0
1444,5120005022519,新規,0,2021-11-02,2021-11-02,特定非営利活動法人ゴーシェア,,その他の設立登記法人,大阪府,大阪市天王寺区,東高津町８－１－２階,,27,109,5430021,,,,,,,2021-11-02,1,,,,,ゴーシェア,0
1448,5120901045127,新規,0,2021-11-02,2021-11-02,Ｅｓｐｅｒａｒ株式会社,,株式会社,大阪府,摂津市,千里丘新町５番２２－５１１号,,27,224,5660002,,,,,,,2021-11-02,1,,,,,エスペラール,0
1449,5120901045143,新規,0,2021-11-02,2021-11-02,大蔵不動産販売株式会社,,株式会社,大阪府,豊中市,中桜塚３丁目２番３４号,,27,203,5610881,,,,,,,2021-11-02,1,,,,,オオクラフドウサンハンバイ,0
1457,5130001070454,新規,0,2021-11-02,2021-11-02,株式会社矜持,,株式会社,京都府,宇治市,莵道出口４０番地の１７,,26,204,6110013,,,,,,,2021-11-02,1,,,,,キョウジ,0
1458,5130001070470,新規,0,2021-11-02,2021-11-02,株式会社井上板金,,株式会社,京都府,京都市西京区,桂上野東町２０２番地,,26,111,6158003,,,,,,,2021-11-02,1,,,,,イノウエバンキン,0
1461,5130005016305,新規,0,2021-11-02,2021-11-02,一般社団法人希惺福祉会,,その他の設立登記法人,京都府,京都市西京区,上桂森上町２０番地１２,,26,111,6158226,,,,,,,2021-11-02,1,,,,,キセイフクシカイ,0
1472,5140001123657,新規,0,2021-11-02,2021-11-02,株式会社間口ソリューションズ,,株式会社,兵庫県,芦屋市,松浜町１２番１５号,,28,206,6590053,,,,,,,2021-11-02,1,,,,,マグチソリューションズ,0
1473,5140001123681,新規,0,2021-11-02,2021-11-02,株式会社江北機械製作所,,株式会社,兵庫県,朝来市,和田山町寺内３９４番地,,28,225,6695232,,,,,,,2021-11-02,1,,,,,コウホクキカイセイサクショ,0
1477,5160001023764,新規,0,2021-11-02,2021-11-02,株式会社近江鉱産,,株式会社,滋賀県,東近江市,中野町６９２番地２,,25,213,5270015,,,,,,,2021-11-02,1,,,,,オウミコウサン,0
1478,5160001023772,新規,0,2021-11-02,2021-11-02,株式会社リンテックホールディングス,,株式会社,滋賀県,大津市,関津４丁目１番２３号,,25,201,5202277,,,,,,,2021-11-02,1,,,,,リンテックホールディングス,0
1487,5180001148493,新規,0,2021-11-02,2021-11-02,株式会社三武,,株式会社,愛知県,名古屋市中区,丸の内１丁目１４－６プレサンスロジェ丸の内テラス９０３号,,23,106,4600002,,,,,,,2021-11-02,1,,,,,ミタケ,0
1488,5180001148510,新規,0,2021-11-02,2021-11-02,株式会社Ａ’ｓ,,株式会社,愛知県,名古屋市守山区,茶臼前１９番１０号,,23,113,4630012,,,,,,,2021-11-02,1,,,,,エース,0
1489,5180001148576,新規,0,2021-11-02,2021-11-02,株式会社ＰＬＵＭｅ,,株式会社,愛知県,名古屋市中区,錦２丁目１６番地の２４サン・伏見ビル８０２号,,23,106,4600003,,,,,,,2021-11-02,1,,,,,プリューム,0
1493,5180005019501,新規,0,2021-11-02,2021-11-02,司法書士法人外堀イースト綜合事務所,,その他の設立登記法人,愛知県,名古屋市東区,東片端町２４番地ハセガワビル３階,,23,102,4610015,,,,,,,2021-11-02,1,,,,,ソトボリイーストソウゴウジムショ,0
1497,5200001039343,新規,0,2021-11-02,2021-11-02,株式会社ＭＫ,,株式会社,岐阜県,安八郡輪之内町,海松新田１０８０番地,,21,382,5030214,,,,,,,2021-11-02,1,,,,,エムケイ,0
1498,5200001039368,新規,0,2021-11-02,2021-11-02,林株式会社,,株式会社,岐阜県,下呂市,金山町金山２４４０－３,,21,220,5091622,,,,,,,2021-11-02,1,,,,,ハヤシ,0
1500,5220001024517,新規,0,2021-11-02,2021-11-02,竹原電気株式会社,,株式会社,石川県,白山市,宮永町２８３番地１０,,17,210,9240017,,,,,,,2021-11-02,1,,,,,タケハラデンキ,0
1501,5220001024525,新規,0,2021-11-02,2021-11-02,株式会社永井塗装店,,株式会社,石川県,金沢市,別所町ラ５５番地１１,,17,201,9201341,,,,,,,2021-11-02,1,,,,,ナガイトソウテン,0
1508,5240001058835,新規,0,2021-11-02,2021-11-02,ＮＹＫ株式会社,,株式会社,広島県,広島市南区,大州１丁目１１番３９号,,34,103,7320802,,,,,,,2021-11-02,1,,,,,エヌワイケー,0
1509,5240001058843,新規,0,2021-11-02,2021-11-02,ＨＷサービスＳ＆Ｎ株式会社,,株式会社,広島県,広島市佐伯区,五日市中央５丁目７番１４号,,34,108,7315128,,,,,,,2021-11-02,1,,,,,エイチダブルサービスエスアンドエヌ,0
1512,5250001019225,新規,0,2021-11-02,2021-11-02,株式会社オーテック,,株式会社,山口県,山口市,大内矢田北１丁目４番１８号,,35,203,7530221,,,,,,,2021-11-02,1,,,,,オーテック,0
1513,5250001019241,新規,0,2021-11-02,2021-11-02,株式会社ＢＥＴ,,株式会社,山口県,宇部市,厚南北２丁目２３番１８号,,35,202,7590209,,,,,,,2021-11-02,1,,,,,ベット,0
1515,5260005010988,新規,0,2021-11-02,2021-11-02,一般社団法人ＡＶＩＡ　ＭＡＲＩＮＥ　ＤＥＳＩＧＮ,,その他の設立登記法人,岡山県,笠岡市,中央町３６番地１トピア笠岡駅前ビル２Ｆ,,33,205,7140088,,,,,,,2021-11-02,1,,,,,アヴィアマリンデザイン,0
1520,5290001095188,新規,0,2021-11-02,2021-11-02,株式会社ＰＡＲＵＤＥ,,株式会社,福岡県,福岡市南区,高宮１丁目４番１６号リビング高宮ビル５０５,,40,134,8150083,,,,,,,2021-11-02,1,,,,,パルデ,0
1521,5290001095221,新規,0,2021-11-02,2021-11-02,株式会社ｓｆｉｄａ,,株式会社,福岡県,福岡市東区,水谷３丁目１１番１１号,,40,131,8130041,,,,,,,2021-11-02,1,,,,,スフィーダ,0
1527,5290003011779,新規,0,2021-11-02,2021-11-02,Ｃ＆Ｔ合同会社,,合同会社,福岡県,福岡市博多区,千代１丁目３０番２４号ラ・レジダンス・ド・福岡県庁前７１０号,,40,132,8120044,,,,,,,2021-11-02,1,,,,,チェンチャン,0
1530,5310001017552,新規,0,2021-11-02,2021-11-02,株式会社三浦商会,,株式会社,長崎県,長崎市,銭座町１０番４３－４０３号,,42,201,8500047,,,,,,,2021-11-02,1,,,,,ミウラショウカイ,0
1535,5330001029125,新規,0,2021-11-02,2021-11-02,株式会社ＴＲＭＹＹＹ,,株式会社,熊本県,熊本市北区,高平２丁目１７番９３号２０３,,43,105,8600085,,,,,,,2021-11-02,1,,,,,トルミー,0
1536,5330001029133,新規,0,2021-11-02,2021-11-02,株式会社成律,,株式会社,熊本県,宇城市,小川町南部田２０番地３,,43,213,8690605,,,,,,,2021-11-02,1,,,,,セイリツ,0
1537,5330001029141,新規,0,2021-11-02,2021-11-02,丸山ウッディ農園株式会社,,株式会社,熊本県,上益城郡甲佐町,大字早川２５３５番地,,43,444,8613241,,,,,,,2021-11-02,1,,,,,マルヤマウッディノウエン,0
1538,5330001029158,新規,0,2021-11-02,2021-11-02,株式会社Ｔａｋａｍｉ,,株式会社,熊本県,熊本市東区,小山２丁目１２－１－４０７,,43,102,8618045,,,,,,,2021-11-02,1,,,,,タカミ,0
1540,5330003009117,新規,0,2021-11-02,2021-11-02,合同会社ＬＥＹ　ＬＩＮＥ,,合同会社,熊本県,熊本市南区,出仲間１丁目３番１号ウッディマンションけやき通り１０５号,,43,104,8620963,,,,,,,2021-11-02,1,,,,,レイライン,0
1543,5340001024208,新規,0,2021-11-02,2021-11-02,株式会社奄美アイランドマネジメント,,株式会社,鹿児島県,大島郡龍郷町,浦４６６番地３,,46,527,8940104,,,,,,,2021-11-02,1,,,,,アマミアイランドマネジメント,0
1544,5340001024232,新規,0,2021-11-02,2021-11-02,龍建設リサイクル株式会社,,株式会社,鹿児島県,鹿児島市,花尾町４７８２番地２,,46,201,8911101,,,,,,,2021-11-02,1,,,,,リュウケンセツリサイクル,0
1555,5370001047775,新規,0,2021-11-02,2021-11-02,オン・ザ・ウェブ株式会社,,株式会社,宮城県,仙台市若林区,沖野３丁目６－１３,,04,103,9840831,,,,,,,2021-11-02,1,,,,,オンザウェブ,0
1563,5380001032314,新規,0,2021-11-02,2021-11-02,株式会社川合車輌,,株式会社,福島県,南会津郡只見町,大字只見字新町２１９２番地の１,,07,367,9680421,,,,,,,2021-11-02,1,,,,,カワアイシャリョウ,0
1564,5390001016662,新規,0,2021-11-02,2021-11-02,株式会社リグ・ピクチャーズ,,株式会社,山形県,山形市,あかねケ丘３丁目８番１８号,,06,201,9902481,,,,,,,2021-11-02,1,,,,,リグピクチャーズ,0
1568,5410003003581,新規,0,2021-11-02,2021-11-02,合同会社ファクトリー秋田,,合同会社,秋田県,秋田市,土崎港相染町字浜ナシ山１７番地５,,05,201,0110951,,,,,,,2021-11-02,1,,,,,ファクトリーアキタ,0
1578,5430001085273,新規,0,2021-11-02,2021-11-02,株式会社ココスポーツコーポレーション,,株式会社,北海道,札幌市中央区,南一条西２３丁目１番３３号,,01,101,0640801,,,,,,,2021-11-02,1,,,,,ココスポーツコーポレーション,0
1579,5430001085315,新規,0,2021-11-02,2021-11-02,株式会社リバーサル,,株式会社,北海道,札幌市西区,二十四軒二条５丁目４番１号,,01,107,0630802,,,,,,,2021-11-02,1,,,,,リバーサル,0
1582,5450001013521,新規,0,2021-11-02,2021-11-02,須川工業株式会社,,株式会社,北海道,上川郡東神楽町,ひじり野南三条１丁目１０番１２号,,01,453,0711525,,,,,,,2021-11-02,1,,,,,スガワコウギョウ,0
1595,5500001023787,新規,0,2021-11-02,2021-11-02,コスモ株式会社,,株式会社,愛媛県,西条市,三津屋南９番４８二神テナント２０４号,,38,206,7991353,,,,,,,2021-11-02,1,,,,,コスモ,0
1603,5700150104987,新規,0,2021-11-02,2021-10-04,全国児童・青少年演劇協議会,,その他,大阪府,大阪市住之江区,南加賀屋３丁目１－７人形劇団クラルテ内,,27,125,5590015,,,,,,,2021-10-04,1,,,,,ゼンコクジドウセイシヨウネンエンゲキキヨウギカイ,0
1604,5700150105234,新規,0,2021-11-02,2021-10-12,朝日プラザ船場管理組合,,その他,兵庫県,姫路市,博労町１２７朝日プラザ船場,,28,201,6700906,,,,,,,2021-10-12,1,,,,,アサヒプラザセンバカンリクミアイ,0
1605,5700150105309,新規,0,2021-11-02,2021-10-14,東海小児循環器談話会,,その他,愛知県,大府市,森岡町７丁目４２６番地あいち小児保健医療総合センター循環器科内,,23,223,4740038,,,,,,,2021-10-14,1,,,,,トウカイシヨウニジユンカンキダンワカイ,0
1606,5700150105589,新規,0,2021-11-02,2021-11-02,日本グループ・ダイナミックス学会,,その他,京都府,京都市上京区,下立売通小川東入西大路町１４６番地中西印刷株式会社内,,26,102,6028048,,,,,,,2021-11-02,1,,,,,ニホングループダイナミックスガッカイ,0
1615,6010001222207,新規,0,2021-11-02,2021-11-02,多吉株式会社,,株式会社,東京都,中央区,新川１丁目３番８号,,13,102,1040033,,,,,,,2021-11-02,1,,,,,タキチ,0
1617,6010005034160,新規,0,2021-11-02,2021-11-02,一般社団法人ハナミズキホールディングス,,その他の設立登記法人,東京都,千代田区,丸の内３丁目１番１号東京共同会計事務所内,,13,101,1000005,,,,,,,2021-11-02,1,,,,,ハナミズキホールディングス,0
1623,6010401163554,新規,0,2021-11-02,2021-11-02,株式会社ｎｅｌｕ,,株式会社,東京都,港区,北青山３丁目５番１７Ｒ＆Ｍ４０２号,,13,103,1070061,,,,,,,2021-11-02,1,,,,,ネル,0
1630,6010501048052,新規,0,2021-11-02,2021-11-02,株式会社Ｆｒｏｎｔｉｅｒ　Ｓｕｎ,,株式会社,東京都,台東区,竜泉１丁目２１番７－２０１号,,13,106,1100012,,,,,,,2021-11-02,1,,,,,フロンティアサン,0
1634,6010601060163,新規,0,2021-11-02,2021-11-02,株式会社ａｎ　ｉｔｅｍ,,株式会社,東京都,墨田区,墨田２丁目３９番４号,,13,107,1310031,,,,,,,2021-11-02,1,,,,,アンアイテム,0
1635,6010603009233,新規,0,2021-11-02,2021-11-02,合同会社ＨＡＲＵ,,合同会社,東京都,江東区,東陽５丁目３１番２２号大興ビル,,13,108,1350016,,,,,,,2021-11-02,1,,,,,ハル,0
1638,6010901049699,新規,0,2021-11-02,2021-11-02,株式会社ＮＥＪＩＫＯ,,株式会社,東京都,世田谷区,太子堂２丁目１７－５,,13,112,1540004,,,,,,,2021-11-02,1,,,,,ネジコ,0
1643,6011001143715,新規,0,2021-11-02,2021-11-02,株式会社ＬＩＶＡＬＵＥ,,株式会社,東京都,渋谷区,笹塚２丁目３５番地８号ＰＲＯＴＯ笹塚２－２０２,,13,113,1510073,,,,,,,2021-11-02,1,,,,,リバリュー,0
1644,6011001143756,新規,0,2021-11-02,2021-11-02,シン・スピリットインク株式会社,,株式会社,東京都,渋谷区,大山町２５番１２号,,13,113,1510065,,,,,,,2021-11-02,1,,,,,シンスピリットインク,0
1652,6011101096672,新規,0,2021-11-02,2021-11-02,株式会社フロントライズン,,株式会社,東京都,新宿区,大久保１丁目１２－６サンセール新宿５０２号室,,13,104,1690072,,,,,,,2021-11-02,1,,,,,フロントライズン,0
1653,6011201023378,新規,0,2021-11-02,2021-11-02,株式会社カインドメディアデザイン,,株式会社,東京都,中野区,南台１丁目５番７号三浦屋ビル５０１,,13,114,1640014,,,,,,,2021-11-02,1,,,,,カインドメディアデザイン,0
1656,6011501027442,新規,0,2021-11-02,2021-11-02,珂王株式会社,,株式会社,東京都,荒川区,西尾久７丁目１３番２号,,13,118,1160011,,,,,,,2021-11-02,1,,,,,カオウ,0
1657,6011501027450,新規,0,2021-11-02,2021-11-02,株式会社セカンド,,株式会社,東京都,北区,東十条４丁目４番１５－５０２号,,13,117,1140001,,,,,,,2021-11-02,1,,,,,セカンド,0
1661,6011601025503,新規,0,2021-11-02,2021-11-02,株式会社Ｗ－ｓｔｙｌｅ,,株式会社,東京都,練馬区,栄町３番８号山本ビル１階,,13,120,1760006,,,,,,,2021-11-02,1,,,,,ダブリュースタイル,0
1666,6012701016747,新規,0,2021-11-02,2021-11-02,株式会社石垣電設,,株式会社,東京都,東村山市,恩多町５丁目１０番地１２,,13,213,1890011,,,,,,,2021-11-02,1,,,,,イシガキデンセツ,0
1681,6020001143708,新規,0,2021-11-02,2021-11-02,株式会社藤井物流企画,,株式会社,神奈川県,横浜市都筑区,折本町３５８番地,,14,118,2240043,,,,,,,2021-11-02,1,,,,,,0
1682,6020001143716,新規,0,2021-11-02,2021-11-02,株式会社ＥＩＧＨＴ８８,,株式会社,神奈川県,川崎市高津区,上作延１３４－３１,,14,134,2130034,,,,,,,2021-11-02,1,,,,,エイトハチハチ,0
1692,6021001074364,新規,0,2021-11-02,2021-11-02,株式会社ＳＵＶＥ　ＨＯＬＤＩＮＧＳ,,株式会社,神奈川県,小田原市,中町３丁目１０番１１号１０１号室,,14,206,2500005,,,,,,,2021-11-02,1,,,,,サーブホールディングス,0
1693,6021001074397,新規,0,2021-11-02,2021-11-02,ひたちアセットマネジメント株式会社,,株式会社,神奈川県,横須賀市,秋谷５２６０番地９,,14,201,2400105,,,,,,,2021-11-02,1,,,,,ヒタチアセットマネジメント,0
1695,6021003011043,新規,0,2021-11-02,2021-11-02,合同会社ＨＯＰＥ,,合同会社,神奈川県,厚木市,中町４丁目１４番１３号オーエヌビル４階Ａ号室,,14,212,2430018,,,,,,,2021-11-02,1,,,,,ホープ,0
1696,6021005012337,新規,0,2021-11-02,2021-11-02,一般社団法人さがみ経済支援協会,,その他の設立登記法人,神奈川県,相模原市南区,相模台２丁目１２番８号,,14,153,2520321,,,,,,,2021-11-02,1,,,,,サガミケイザイシエンキョウカイ,0
1701,6030001145075,新規,0,2021-11-02,2021-11-02,クラフトマン工房株式会社,,株式会社,埼玉県,入間市,扇台２丁目８番１８号,,11,225,3580023,,,,,,,2021-11-02,1,,,,,クラフトマンコウボウ,0
1702,6030001145100,新規,0,2021-11-02,2021-11-02,株式会社南ぬ風,,株式会社,埼玉県,さいたま市大宮区,宮町４丁目８６番地１－６０１号室,,11,103,3300802,,,,,,,2021-11-02,1,,,,,パイヌカジ,0
1703,6030001145125,新規,0,2021-11-02,2021-11-02,株式会社天祐,,株式会社,埼玉県,さいたま市桜区,栄和５丁目１５番１４号,,11,106,3380823,,,,,,,2021-11-02,1,,,,,テンスケ,0
1704,6030001145199,新規,0,2021-11-02,2021-11-02,株式会社Ｕ－ＴＲＵＳＴ,,株式会社,埼玉県,さいたま市岩槻区,美幸町６番３６号,,11,110,3390063,,,,,,,2021-11-02,1,,,,,ユートラスト,0
1713,6030003018238,新規,0,2021-11-02,2021-11-02,合同会社フリーダム,,合同会社,埼玉県,加須市,志多見９０３番地８,,11,210,3470042,,,,,,,2021-11-02,1,,,,,フリーダム,0
1723,6040001120829,新規,0,2021-11-02,2021-11-02,株式会社相栄,,株式会社,千葉県,市原市,五井西７丁目６番地２５,,12,219,2900038,,,,,,,2021-11-02,1,,,,,ソウエイ,0
1730,6040005021404,新規,0,2021-11-02,2021-11-02,医療法人社団星晄会,,その他の設立登記法人,千葉県,佐倉市,染井野４丁目７番地１,,12,212,2850831,,,,,,,2021-11-02,1,,,,,セイコウカイ,0
1738,6050001050091,新規,0,2021-11-02,2021-11-02,株式会社まる喜,,株式会社,茨城県,つくば市,松代１丁目１７番地３－１０２号,,08,220,3050035,,,,,,,2021-11-02,1,,,,,マルキ,0
1739,6050003006174,新規,0,2021-11-02,2021-11-02,合同会社Ｖ．ＫＴＲＡＤＩＮＧ,,合同会社,茨城県,坂東市,逆井３５３６番地大都ビル１０５号,,08,228,3060501,,,,,,,2021-11-02,1,,,,,ブイケイトレーディング,0
1747,6070001038589,新規,0,2021-11-02,2021-11-02,株式会社ＣＯＬＯＲＦＵＬ,,株式会社,群馬県,前橋市,城東町３丁目６番９号,,10,201,3710016,,,,,,,2021-11-02,1,,,,,カラフル,0
1748,6070001038597,新規,0,2021-11-02,2021-11-02,株式会社エイチエム,,株式会社,群馬県,高崎市,楽間町４６０番地１,,10,202,3700087,,,,,,,2021-11-02,1,,,,,エイチエム,0
1749,6070003004283,新規,0,2021-11-02,2021-11-02,合同会社小林総業,,合同会社,群馬県,佐波郡玉村町,大字角渕４３８９番地１４,,10,464,3701124,,,,,,,2021-11-02,1,,,,,コバヤシソウギョウ,0
1751,6080001024539,新規,0,2021-11-02,2021-11-02,４７いちご株式会社,,株式会社,静岡県,静岡市葵区,与一３丁目４番１号,,22,101,4200949,,,,,,,2021-11-02,1,,,,,ヨンナナイチゴ,0
1752,6080001024547,新規,0,2021-11-02,2021-11-02,株式会社高根沢建設,,株式会社,静岡県,静岡市駿河区,大谷２丁目１１番２９号,,22,102,4228017,,,,,,,2021-11-02,1,,,,,タカネザワケンセツ,0
1753,6080001024563,新規,0,2021-11-02,2021-11-02,株式会社岩崎恭三商店,,株式会社,静岡県,静岡市葵区,平和１丁目３番５４号,,22,101,4200876,,,,,,,2021-11-02,1,,,,,イワサキキョウゾウショウテン,0
1758,6100001034790,新規,0,2021-11-02,2021-11-02,ＲＹ・ライフ冷設株式会社,,株式会社,長野県,長野市,青木島町大塚１５６０番地１,,20,201,3812205,,,,,,,2021-11-02,1,,,,,アールワイライフレイセツ,0
1760,6110001036150,新規,0,2021-11-02,2021-11-02,株式会社リベラル,,株式会社,新潟県,新潟市江南区,天野１６９３番地,,15,104,9501134,,,,,,,2021-11-02,1,,,,,リベラル,0
1761,6110001036159,新規,0,2021-11-02,2021-11-02,株式会社匠屋こばやし,,株式会社,新潟県,五泉市,南田中甲７４３番地２,,15,218,9591741,,,,,,,2021-11-02,1,,,,,タクミヤコバヤシ,0
1770,6120001241492,新規,0,2021-11-02,2021-11-02,株式会社Ｌａｐｉｎ　Ｂｌａｎｃ,,株式会社,大阪府,大阪市西区,江戸堀１丁目２３番３５号ＡＸＩＳ江戸一ビル９Ｆ,,27,106,5500002,,,,,,,2021-11-02,1,,,,,ラパンブラン,0
1771,6120001241518,新規,0,2021-11-02,2021-11-02,株式会社メディレッド,,株式会社,大阪府,大阪市西区,南堀江４丁目９番４４号,,27,106,5500015,,,,,,,2021-11-02,1,,,,,メディレッド,0
1772,6120001241526,新規,0,2021-11-02,2021-11-02,株式会社ｎｏｔｅ,,株式会社,大阪府,門真市,島頭４丁目１番３１号,,27,223,5710016,,,,,,,2021-11-02,1,,,,,ノート,0
1773,6120001241534,新規,0,2021-11-02,2021-11-02,ｎｅｗｌｙ株式会社,,株式会社,大阪府,大阪市中央区,高津３丁目８番１９号スター・レジデンス黒門２０１,,27,128,5420072,,,,,,,2021-11-02,1,,,,,ニューリー,0
1774,6120001241542,新規,0,2021-11-02,2021-11-02,小松商店株式会社,,株式会社,大阪府,大阪市東成区,大今里２丁目３４番１２号,,27,115,5370012,,,,,,,2021-11-02,1,,,,,コマツショウテン,0
1775,6120001241559,新規,0,2021-11-02,2021-11-02,菊谷株式会社,,株式会社,大阪府,大阪市北区,中崎西３丁目２番１７号,,27,127,5300015,,,,,,,2021-11-02,1,,,,,キクヤ,0
1776,6120001241591,新規,0,2021-11-02,2021-11-02,株式会社Ｏｖｅｒｊｏｙ,,株式会社,大阪府,大阪市中央区,難波１丁目７番１５号,,27,128,5420076,,,,,,,2021-11-02,1,,,,,オーバージョイ,0
1777,6120001241600,新規,0,2021-11-02,2021-11-02,株式会社ＮＮＭ,,株式会社,大阪府,大阪市北区,梅田１丁目１１番４号大阪駅前第４ビル９階９２３－１６１７号,,27,127,5300001,,,,,,,2021-11-02,1,,,,,エヌエヌエム,0
1778,6120001241617,新規,0,2021-11-02,2021-11-02,ついてる株式会社,,株式会社,大阪府,大阪市浪速区,桜川１丁目１番２５－４０２号,,27,111,5560022,,,,,,,2021-11-02,1,,,,,ツイテル,0
1780,6120003020531,新規,0,2021-11-02,2021-11-02,合同会社ＰＵ,,合同会社,大阪府,大阪市福島区,吉野２丁目３番９－２０３号,,27,103,5530006,,,,,,,2021-11-02,1,,,,,ピーユー,0
1784,6120005022575,新規,0,2021-11-02,2021-11-02,一般社団法人コーチングスカイ,,その他の設立登記法人,大阪府,大阪市鶴見区,緑２丁目７番８号,,27,124,5380054,,,,,,,2021-11-02,1,,,,,コーチングスカイ,0
1785,6120101064570,新規,0,2021-11-02,2021-11-02,株式会社興工業,,株式会社,大阪府,岸和田市,磯上町５丁目１９番１６号,,27,202,5960001,,,,,,,2021-11-02,1,,,,,オキコウギョウ,0
1786,6120901045126,新規,0,2021-11-02,2021-11-02,株式会社ＩＤＫ,,株式会社,大阪府,茨木市,真砂１丁目３番１号,,27,211,5670851,,,,,,,2021-11-02,1,,,,,アイディケイ,0
1789,6122003002204,新規,0,2021-11-02,2021-11-02,合同会社櫻結,,合同会社,大阪府,東大阪市,岸田堂南町４番１９号,,27,227,5770847,,,,,,,2021-11-02,1,,,,,サクラムスビ,0
1791,6130001070445,新規,0,2021-11-02,2021-11-02,高橋硝子株式会社,,株式会社,京都府,舞鶴市,字余部上９２７番地,,26,202,6250083,,,,,,,2021-11-02,1,,,,,タカハシガラス,0
1792,6130001070453,新規,0,2021-11-02,2021-11-02,ゴォルド株式会社,,株式会社,京都府,京都市中京区,占出山町３０５番地,,26,104,6048155,,,,,,,2021-11-02,1,,,,,ゴォルド,0
1793,6130001070461,新規,0,2021-11-02,2021-11-02,株式会社Ｌａｉ・Ｔｅｃ,,株式会社,京都府,京都市伏見区,久我東町２番地１８４,,26,109,6128494,,,,,,,2021-11-02,1,,,,,ライテック,0
1794,6130003007560,新規,0,2021-11-02,2021-11-02,合同会社優暉,,合同会社,京都府,京都市南区,久世高田町３７３番地１京都桂川つむぎの街グランスクエア３１０,,26,107,6018211,,,,,,,2021-11-02,1,,,,,ユウキ,0
1797,6140001123656,新規,0,2021-11-02,2021-11-02,ａｓｈｉｙａ　Ｃｏｌｌｅｚｉｏｎｅ＆Ｒ株式会社,,株式会社,兵庫県,芦屋市,大原町６番１５－２０１号,,28,206,6590092,,,,,,,2021-11-02,1,,,,,アシヤコレッツィオーネアンドアール,0
1798,6140001123697,新規,0,2021-11-02,2021-11-02,株式会社Ｇｒｏｕｎｄ,,株式会社,兵庫県,西宮市,上鳴尾町２６番２０号,,28,204,6638186,,,,,,,2021-11-02,1,,,,,グラウンド,0
1806,6160001023788,新規,0,2021-11-02,2021-11-02,ＢＲＣ株式会社,,株式会社,滋賀県,彦根市,日夏町１７００番地５２,,25,202,5220047,,,,,,,2021-11-02,1,,,,,ビーアールシー,0
1807,6170001016849,新規,0,2021-11-02,2021-11-02,株式会社ＰＡＬＥＴＴＥ,,株式会社,和歌山県,有田市,宮崎町２４９６番地９４,,30,204,6490316,,,,,,,2021-11-02,1,,,,,パレット,0
1812,6180003023140,新規,0,2021-11-02,2021-11-02,ＳＰＧ合同会社,,合同会社,愛知県,名古屋市千種区,観月町１丁目７２番４号Ｋ＋Ｍ’ｓ２０３,,23,101,4640831,,,,,,,2021-11-02,1,,,,,エスピージー,0
1816,6180301035572,新規,0,2021-11-02,2021-11-02,株式会社ＨＡＲＩＳＵＫＥ,,株式会社,愛知県,岡崎市,福岡町字東後田１９番地３ローズガーデン１０２号,,23,202,4440825,,,,,,,2021-11-02,1,,,,,ハリスケ,0
1823,6200001039359,新規,0,2021-11-02,2021-11-02,株式会社いわたリフォーム,,株式会社,岐阜県,岐阜市,細畑１丁目１６番２号,,21,201,5008238,,,,,,,2021-11-02,1,,,,,イワタリフォーム,0
1824,6200003005367,新規,0,2021-11-02,2021-11-02,合同会社ＨＣＯ,,合同会社,岐阜県,大垣市,今宿６丁目５２－１６ソフトピアジャパンドリームコア５１７,,21,202,5030807,,,,,,,2021-11-02,1,,,,,エイチシーオー,0
1825,6210001018675,新規,0,2021-11-02,2021-11-02,株式会社オプト・ヤマギシ,,株式会社,福井県,鯖江市,乙坂今北町第１２号４６番地,,18,207,9161104,,,,,,,2021-11-02,1,,,,,オプトヤマギシ,0
1826,6220001024516,新規,0,2021-11-02,2021-11-02,株式会社シラエ織産,,株式会社,石川県,かほく市,高松フ１４７番地１,,17,209,9291215,,,,,,,2021-11-02,1,,,,,シラエショクサン,0
1828,6240001058834,新規,0,2021-11-02,2021-11-02,株式会社ＴＳ,,株式会社,広島県,広島市中区,八丁堀８番４号石田第二ビル４Ｆ,,34,101,7300013,,,,,,,2021-11-02,1,,,,,ティーエス,0
1829,6240001058850,新規,0,2021-11-02,2021-11-02,株式会社Ｅ‐メンテナンス,,株式会社,広島県,広島市南区,段原２丁目１番７－４０３号,,34,103,7320811,,,,,,,2021-11-02,1,,,,,イーメンテナンス,0
1831,6240003005347,新規,0,2021-11-02,2021-11-02,ヒラタスマートエナジー合同会社,,合同会社,広島県,江田島市,江田島町江南１丁目２番８号,,34,215,7372132,,,,,,,2021-11-02,1,,,,,ヒラタスマートエナジー,0
1835,6250001019232,新規,0,2021-11-02,2021-11-02,株式会社中田塗装工業,,株式会社,山口県,山陽小野田市,大字有帆１６９７番地３,,35,216,7560038,,,,,,,2021-11-02,1,,,,,ナカタトソウコウギョウ,0
1838,6260001036160,新規,0,2021-11-02,2021-11-02,株式会社西日本電気通信工業,,株式会社,岡山県,岡山市中区,江崎７１５番地１１,,33,102,7028005,,,,,,,2021-11-02,1,,,,,ニシニホンデンキツウシンコウギョウ,0
1839,6260001036169,新規,0,2021-11-02,2021-11-02,岡北ガスセンター株式会社,,株式会社,岡山県,岡山市北区,津島新野２丁目７番２３号,,33,101,7000083,,,,,,,2021-11-02,1,,,,,コウホクガスセンター,0
1840,6260001036177,新規,0,2021-11-02,2021-11-02,株式会社ライズ工業,,株式会社,岡山県,岡山市南区,妹尾２６８５番地４,,33,104,7010205,,,,,,,2021-11-02,1,,,,,ライズコウギョウ,0
1842,6260003003712,新規,0,2021-11-02,2021-11-02,合同会社リズミラル,,合同会社,岡山県,岡山市中区,門田屋敷１丁目９番６号,,33,102,7038275,,,,,,,2021-11-02,1,,,,,リズミラル,0
1843,6270001008381,新規,0,2021-11-02,2021-11-02,株式会社輝楽理,,株式会社,鳥取県,鳥取市,南吉方３丁目５２０番地１,,31,201,6800843,,,,,,,2021-11-02,1,,,,,キラリ,0
1844,6280001008554,新規,0,2021-11-02,2021-11-02,株式会社ハッピーライフコネクション,,株式会社,島根県,松江市,鹿島町御津４５４番地,,32,201,6900411,,,,,,,2021-11-02,1,,,,,ハッピーライフコネクション,0
1847,6290001095195,新規,0,2021-11-02,2021-11-02,株式会社ハカタネクスト,,株式会社,福岡県,福岡市南区,桧原１丁目３４番２０号,,40,134,8111355,,,,,,,2021-11-02,1,,,,,ハカタネクスト,0
1848,6290001095204,新規,0,2021-11-02,2021-11-02,モン・プランニング株式会社,,株式会社,福岡県,柳川市,三橋町蒲船津１３４６番地１,,40,207,8320827,,,,,,,2021-11-02,1,,,,,モンプランニング,0
1849,6290001095220,新規,0,2021-11-02,2021-11-02,株式会社ＣＯＤＥ,,株式会社,福岡県,福岡市中央区,清川２丁目４番２９－２０５号,,40,133,8100005,,,,,,,2021-11-02,1,,,,,コード,0
1858,6290005018409,新規,0,2021-11-02,2021-11-02,税理士法人城南,,その他の設立登記法人,福岡県,福岡市城南区,東油山６丁目２番３０号,,40,136,8140155,,,,,,,2021-11-02,1,,,,,ジョウナン,0
1860,6290801027950,新規,0,2021-11-02,2021-11-02,株式会社フクシマ工業,,株式会社,福岡県,中間市,長津１丁目２３番２０号,,40,215,8090036,,,,,,,2021-11-02,1,,,,,フクシマコウギョウ,0
1865,6310003004201,新規,0,2021-11-02,2021-11-02,介護福祉タクシー愛合同会社,,合同会社,長崎県,長崎市,以下宿町２８８５番地,,42,201,8510502,,,,,,,2021-11-02,1,,,,,カイゴフクシタクシーアイ,0
1869,6320003003648,新規,0,2021-11-02,2021-11-02,松栄テック合同会社,,合同会社,大分県,大分市,明野北５丁目１番４８号,,44,201,8700165,,,,,,,2021-11-02,1,,,,,ショウエイテック,0
1872,6330001029140,新規,0,2021-11-02,2021-11-02,株式会社木村防蟻,,株式会社,熊本県,熊本市中央区,坪井６丁目１７番１５号,,43,101,8600863,,,,,,,2021-11-02,1,,,,,キムラボウギ,0
1874,6330003009108,新規,0,2021-11-02,2021-11-02,合同会社あじさい,,合同会社,熊本県,球磨郡水上村,大字岩野２６０９,,43,507,8680701,,,,,,,2021-11-02,1,,,,,アジサイ,0
1875,6340001024215,新規,0,2021-11-02,2021-11-02,島守株式会社,,株式会社,鹿児島県,薩摩川内市,里町里５４番地,,46,215,8961101,,,,,,,2021-11-02,1,,,,,シマモリ,0
1876,6340001024223,新規,0,2021-11-02,2021-11-02,下堂薗茶業株式会社,,株式会社,鹿児島県,鹿児島市,南栄３丁目１１番８号,,46,201,8910122,,,,,,,2021-11-02,1,,,,,シモドウゾノチャギョウ,0
1882,6360001029567,新規,0,2021-11-02,2021-11-02,株式会社エシカルライフ,,株式会社,沖縄県,国頭郡恩納村,字真栄田３３０番地１,,47,311,9040417,,,,,,,2021-11-02,1,,,,,エシカルライフ,0
1887,6360003011531,新規,0,2021-11-02,2021-11-02,えん合同会社,,合同会社,沖縄県,那覇市,壺川２丁目３番地１５Ｙ’ｓＥｓｔｅｍＣоｕｒｔ６０１,,47,201,9000025,,,,,,,2021-11-02,1,,,,,エン,0
1889,6360005006546,新規,0,2021-11-02,2021-11-02,一般社団法人読谷村ワンワン倶楽部,,その他の設立登記法人,沖縄県,中頭郡読谷村,字宇座３６２番地,,47,324,9040328,,,,,,,2021-11-02,1,,,,,ヨミタンソンワンワンクラブ,0
1890,6370001047774,新規,0,2021-11-02,2021-11-02,株式会社ＥＴＬ,,株式会社,宮城県,仙台市泉区,南中山２丁目２５番地の１－１５６南中山マンション１０２,,04,105,9813213,,,,,,,2021-11-02,1,,,,,イーティーエル,0
1899,6430001085272,新規,0,2021-11-02,2021-11-02,株式会社ＡＺＡＬＥＡ,,株式会社,北海道,札幌市中央区,南九条西６丁目１番１号,,01,101,0640809,,,,,,,2021-11-02,1,,,,,アザレア,0
1905,6470001018815,新規,0,2021-11-02,2021-11-02,株式会社Ｑｕｅｕｅ,,株式会社,香川県,高松市,新北町１３番地１１,,37,201,7600001,,,,,,,2021-11-02,1,,,,,クゥー,0
1922,6700150104838,新規,0,2021-11-02,2021-09-21,日本に恋した、フラメンコ,,その他,東京都,新宿区,上落合１丁目３０番１１号ハウス多鹿１０２,,13,104,1610034,,,,,,,2021-09-21,1,,,,,ニホンニコイシタフラメンコ,0
1923,6700150104862,新規,0,2021-11-02,2021-09-27,ＲＥＶＩＶＥＲ,,その他,東京都,町田市,玉川学園５丁目２５－２ソレイユ壱番館２０１,,13,209,1940041,,,,,,,2021-09-27,1,,,,,リバイバー,0
1924,6700150105588,新規,0,2021-11-02,2021-11-02,Ａｕｔｏ　Ｓｍａｒｔ,,外国会社等,千葉県,鴨川市,内浦９０７番地１－２階,,12,223,2995502,スリランカ民主社会主義共和国、キャンディ、キングストリート、４０,,,,,,2021-11-02,1,,,,,オートスマート,0
1932,7010001222148,新規,0,2021-11-02,2021-11-02,株式会社ＳＴＡＹＳＴＲＯＮＧ,,株式会社,東京都,中央区,晴海３丁目１３番２,,13,102,1040053,,,,,,,2021-11-02,1,,,,,ステイストロング,0
1933,7010001222271,新規,0,2021-11-02,2021-11-02,株式会社銀座中村,,株式会社,東京都,中央区,築地１丁目１２番１３号ＭＯＧＡＲＯ・ＧＩＮＺＡ・５Ｆ,,13,102,1040045,,,,,,,2021-11-02,1,,,,,ギンザナカムラ,0
1938,7010003036141,新規,0,2021-11-02,2021-11-02,合同会社ａｉ,,合同会社,東京都,中央区,勝どき６丁目５番６－１００５号,,13,102,1040054,,,,,,,2021-11-02,1,,,,,アイ,0
1945,7010401163537,新規,0,2021-11-02,2021-11-02,株式会社ＲｅｙｅｓＹ．,,株式会社,東京都,港区,赤坂３丁目１０番１２－２０７号,,13,103,1070052,,,,,,,2021-11-02,1,,,,,リエスワイ,0
1946,7010401163586,新規,0,2021-11-02,2021-11-02,株式会社カト,,株式会社,東京都,港区,虎ノ門１丁目１６番１６号虎ノ門一丁目ＭＧビル８Ｆ,,13,103,1050001,,,,,,,2021-11-02,1,,,,,カト,0
1949,7010403026428,新規,0,2021-11-02,2021-11-02,合同会社ＳＨｉＭ,,合同会社,東京都,港区,浜松町２丁目２番１５号浜松町ダイヤビル２Ｆ,,13,103,1050013,,,,,,,2021-11-02,1,,,,,シム,0
1953,7010601060162,新規,0,2021-11-02,2021-11-02,株式会社冨士山,,株式会社,東京都,江東区,塩浜２丁目５－２３－３０４,,13,108,1350043,,,,,,,2021-11-02,1,,,,,フジサン,0
1955,7010701041723,新規,0,2021-11-02,2021-11-02,株式会社ｂ．ｄｏｔ,,株式会社,東京都,品川区,西五反田４丁目１４番６号グリーン芝マンション３０４,,13,109,1410031,,,,,,,2021-11-02,1,,,,,ビードット,0
1956,7010701041731,新規,0,2021-11-02,2021-11-02,株式会社濱島設備,,株式会社,東京都,品川区,西大井４丁目１６番２１号,,13,109,1400015,,,,,,,2021-11-02,1,,,,,ハマシマセツビ,0
1959,7010803003935,新規,0,2021-11-02,2021-11-02,合同会社ローズ・デ・ヴァン,,合同会社,東京都,大田区,山王１丁目２２番１６号,,13,111,1430023,,,,,,,2021-11-02,1,,,,,ローズデヴァン,0
1968,7011001143722,新規,0,2021-11-02,2021-11-02,株式会社ＬＩＱＵＥ,,株式会社,東京都,渋谷区,上原２丁目３９番９号ハレルヤ松原ビル１Ｆ,,13,113,1510064,,,,,,,2021-11-02,1,,,,,リキュウ,0
1971,7011103011133,新規,0,2021-11-02,2021-11-02,ＡＰＦＬ合同会社,,合同会社,東京都,新宿区,西新宿４丁目１０－２ＭＫｈｏｐｅ１０１,,13,104,1600023,,,,,,,2021-11-02,1,,,,,エーピーエフエル,0
1972,7011203003682,新規,0,2021-11-02,2021-11-02,合同会社ルイエンターテイメント,,合同会社,東京都,中野区,弥生町２丁目２１番６号,,13,114,1640013,,,,,,,2021-11-02,1,,,,,ルイエンターテイメント,0
1977,7011503004950,新規,0,2021-11-02,2021-11-02,インサイドアロー合同会社,,合同会社,東京都,北区,赤羽２丁目３９番１号,,13,117,1150045,,,,,,,2021-11-02,1,,,,,インサイドアロー,0
1980,7011601025510,新規,0,2021-11-02,2021-11-02,ＯＤＮ　ｇｌｏｂａｌ株式会社,,株式会社,東京都,練馬区,春日町５丁目３１番２－１９０６号,,13,120,1790074,,,,,,,2021-11-02,1,,,,,オーディーエヌグローバル,0
1983,7011803004857,新規,0,2021-11-02,2021-11-02,合同会社Ｐａｓｓ,,合同会社,東京都,足立区,千住緑町１丁目２３番２２－７０４コスモプレイスグラシエ,,13,121,1200044,,,,,,,2021-11-02,1,,,,,パス,0
1988,7013301048221,新規,0,2021-11-02,2021-11-02,株式会社メネフネ,,株式会社,東京都,豊島区,東池袋３丁目２２番１２号ヴィラ・ロッソカバーロ１００２号,,13,116,1700013,,,,,,,2021-11-02,1,,,,,メネフネ,0
1994,7020001143707,新規,0,2021-11-02,2021-11-02,株式会社キラキラ星,,株式会社,神奈川県,横浜市中区,吉田町３－１１,,14,104,2310041,,,,,,,2021-11-02,1,,,,,キラキラボシ,0
1995,7020001143715,新規,0,2021-11-02,2021-11-02,エムティテクノロジーサービス株式会社,,株式会社,神奈川県,横浜市青葉区,大場町９３０番地２８５,,14,117,2250023,,,,,,,2021-11-02,1,,,,,エムティテクノロジーサービス,0
1996,7020001143723,新規,0,2021-11-02,2021-11-02,株式会社ウィルガレージ,,株式会社,神奈川県,横浜市青葉区,松風台３１番地８７,,14,117,2270067,,,,,,,2021-11-02,1,,,,,ウィルガレージ,0
2000,7020003020763,新規,0,2021-11-02,2021-11-02,合同会社ＧＬＩＤＥ,,合同会社,神奈川県,横浜市中区,石川町３丁目１１０番地４,,14,104,2310868,,,,,,,2021-11-02,1,,,,,グライド,0
2001,7020005015258,新規,0,2021-11-02,2021-11-02,日産カーレンタルソリューション労働組合,,その他の設立登記法人,神奈川県,横浜市西区,高島１丁目１－１,,14,103,2200011,,,,,,,2021-11-02,1,,,,,ニッサンカーレンタルソリューション,0
2010,7021003011050,新規,0,2021-11-02,2021-11-02,合同会社ｌｉｇｈｔ,,合同会社,神奈川県,横須賀市,田戸台５１番地１グリーン荘Ｃ号室,,14,201,2380015,,,,,,,2021-11-02,1,,,,,ライト,0
2027,7030001145025,新規,0,2021-11-02,2021-11-02,株式会社ＩＣＴ　ＳＭＡＲＴ,,株式会社,埼玉県,さいたま市緑区,芝原１丁目３０番地９,,11,109,3360917,,,,,,,2021-11-02,1,,,,,アイシーティースマート,0
2028,7030001145033,新規,0,2021-11-02,2021-11-02,株式会社ＬＩＢＥＲＴＹ,,株式会社,埼玉県,川口市,北原台３丁目６－１０－２０５,,11,203,3330815,,,,,,,2021-11-02,1,,,,,リバティー,0
2029,7030001145090,新規,0,2021-11-02,2021-11-02,エントロピーテクノロジー株式会社,,株式会社,埼玉県,本庄市,緑２丁目１１番１１号,,11,211,3670043,,,,,,,2021-11-02,1,,,,,エントロピーテクノロジー,0
2030,7030001145181,新規,0,2021-11-02,2021-11-02,株式会社そわかライフ,,株式会社,埼玉県,さいたま市大宮区,堀の内町１丁目６２番地すずかけヴィラ２０４,,11,103,3300804,,,,,,,2021-11-02,1,,,,,ソワカライフ,0
2036,7030003018237,新規,0,2021-11-02,2021-11-02,合同会社鈴木メリサン,,合同会社,埼玉県,川口市,並木元町１番６７－１４０３号,,11,203,3320033,,,,,,,2021-11-02,1,,,,,スズキメリサン,0
2048,7040001120811,新規,0,2021-11-02,2021-11-02,株式会社ＥＣＸＩＡ,,株式会社,千葉県,松戸市,常盤平陣屋前１７番地の７長坂マンション３０１号,,12,207,2702265,,,,,,,2021-11-02,1,,,,,エクシア,0
2053,7040003018839,新規,0,2021-11-02,2021-11-02,合同会社リワークス,,合同会社,千葉県,市川市,柏井町１丁目１７７０番地１１,,12,203,2720802,,,,,,,2021-11-02,1,,,,,リワークス,0
2054,7040005021411,新規,0,2021-11-02,2021-11-02,一般社団法人Ｅｓｓｅｎｃｅ　ｏｆ　Ｌｉｆｅ協会,,その他の設立登記法人,千葉県,千葉市中央区,問屋町５番２１－１００５号,,12,101,2600025,,,,,,,2021-11-02,1,,,,,エッセンスオブライフキョウカイ,0
2057,7050001050058,新規,0,2021-11-02,2021-11-02,ＩＶＴ株式会社,,株式会社,茨城県,水戸市,河和田町４６１１番地の５,,08,201,3114153,,,,,,,2021-11-02,1,,,,,アイブイティー,0
2058,7050001050066,新規,0,2021-11-02,2021-11-02,株式会社Ｉ＆Ｙホールディングス,,株式会社,茨城県,古河市,諸川２２２６番地,,08,204,3060126,,,,,,,2021-11-02,1,,,,,アイアンドワイホールディングス,0
2059,7050005012962,新規,0,2021-11-02,2021-11-02,一般社団法人ロベ,,その他の設立登記法人,茨城県,つくば市,島名２２９８番地（諏訪Ｃ１２街区９）Ｘ―ＳＴＡＧＥビル１階００３号,,08,220,3002655,,,,,,,2021-11-02,1,,,,,ロベ,0
2065,7070001038596,新規,0,2021-11-02,2021-11-02,株式会社ライフサポート,,株式会社,群馬県,渋川市,八木原１０３７番地１,,10,208,3770003,,,,,,,2021-11-02,1,,,,,ライフサポート,0
2066,7070001038605,新規,0,2021-11-02,2021-11-02,株式会社グリット,,株式会社,群馬県,太田市,中根町６６６番地２,,10,205,3730846,,,,,,,2021-11-02,1,,,,,グリット,0
2068,7080001024554,新規,0,2021-11-02,2021-11-02,株式会社ペンギンズ,,株式会社,静岡県,静岡市駿河区,中田２丁目８番８号,,22,102,4228041,,,,,,,2021-11-02,1,,,,,ペンギンズ,0
2069,7080001024562,新規,0,2021-11-02,2021-11-02,株式会社ＤＥＷ,,株式会社,静岡県,静岡市葵区,瀬名１丁目５番１８号,,22,101,4200911,,,,,,,2021-11-02,1,,,,,ディーイーダブリュー,0
2074,7100001034773,新規,0,2021-11-02,2021-11-02,株式会社鹿之助萬蔵,,株式会社,長野県,東御市,祢津２３２３番地１,,20,219,3890506,,,,,,,2021-11-02,1,,,,,カノスケマンゾウ,0
2094,7120001241500,新規,0,2021-11-02,2021-11-02,株式会社ベルモント,,株式会社,大阪府,大阪市北区,梅田２丁目５番１３号桜橋第一ビル３０４号,,27,127,5300001,,,,,,,2021-11-02,1,,,,,ベルモント,0
2095,7120001241517,新規,0,2021-11-02,2021-11-02,株式会社ドクターＸ,,株式会社,大阪府,大阪市北区,角田町８番４７号阪急グランドビル２０階,,27,127,5300017,,,,,,,2021-11-02,1,,,,,ドクターエックス,0
2096,7120001241533,新規,0,2021-11-02,2021-11-02,株式会社ＩＭＧ,,株式会社,大阪府,大阪市西区,北堀江１丁目１番７号四ツ橋日生ビル５０３号,,27,106,5500014,,,,,,,2021-11-02,1,,,,,アイエムジー,0
2097,7120001241574,新規,0,2021-11-02,2021-11-02,アイセイ技建株式会社,,株式会社,大阪府,守口市,金田町３丁目１１番６号,,27,209,5700011,,,,,,,2021-11-02,1,,,,,アイセイギケン,0
2102,7120003020514,新規,0,2021-11-02,2021-11-02,合同会社三栄ハイテク,,合同会社,大阪府,大阪市中央区,久太郎町３丁目１番６－６Ｋ,,27,128,5410056,,,,,,,2021-11-02,1,,,,,サンエイハイテク,0
2103,7120003020530,新規,0,2021-11-02,2021-11-02,ＧＵＵＤＥＳＩＧＮ合同会社,,合同会社,大阪府,大阪市平野区,加美西１丁目１６－１７,,27,126,5470005,,,,,,,2021-11-02,1,,,,,グーデザイン,0
2106,7120005022582,新規,0,2021-11-02,2021-11-02,一般社団法人ミレニアム,,その他の設立登記法人,大阪府,大阪市住吉区,我孫子東２丁目４番３０－２０６号,,27,120,5580013,,,,,,,2021-11-02,1,,,,,ミレニアム,0
2109,7120101064578,新規,0,2021-11-02,2021-11-02,株式会社アマテラス,,株式会社,大阪府,堺市東区,高松１９１番地６,,27,143,5998121,,,,,,,2021-11-02,1,,,,,アマテラス,0
2126,7140001123647,新規,0,2021-11-02,2021-11-02,株式会社正虎,,株式会社,兵庫県,西宮市,甲子園六石町２番１号,,28,204,6638164,,,,,,,2021-11-02,1,,,,,マサトラ,0
2127,7140001123655,新規,0,2021-11-02,2021-11-02,株式会社ａｒｏｙ　ＣＯＬＯＲ　ＤＥＳＩＧＮ,,株式会社,兵庫県,たつの市,御津町苅屋１２１４番地,,28,229,6711321,,,,,,,2021-11-02,1,,,,,アロイカラーデザイン,0
2128,7140001123663,新規,0,2021-11-02,2021-11-02,クレスト株式会社,,株式会社,兵庫県,神戸市兵庫区,荒田町３丁目８番２号,,28,105,6520032,,,,,,,2021-11-02,1,,,,,クレスト,0
2129,7140001123671,新規,0,2021-11-02,2021-11-02,株式会社サブライズ,,株式会社,兵庫県,西宮市,上大市４丁目１８番５２号,,28,204,6638003,,,,,,,2021-11-02,1,,,,,サブライズ,0
2130,7140001123705,新規,0,2021-11-02,2021-11-02,株式会社小林電機商会,,株式会社,兵庫県,加西市,別府町丙３６－４,,28,220,6790103,,,,,,,2021-11-02,1,,,,,コバヤシデンキショウカイ,0
2131,7140001123762,新規,0,2021-11-02,2021-11-02,株式会社クリアシスト,,株式会社,兵庫県,神戸市兵庫区,東山町２丁目８番地の６１マルシンハイツ３１３,,28,105,6520042,,,,,,,2021-11-02,1,,,,,クリアシスト,0
2136,7150001025074,新規,0,2021-11-02,2021-11-02,株式会社水楽園,,株式会社,奈良県,御所市,大字鳥井戸１１５,,29,208,6392263,,,,,,,2021-11-02,1,,,,,スイラクエン,0
2137,7150001025082,新規,0,2021-11-02,2021-11-02,株式会社ａｄｄ,,株式会社,奈良県,奈良市,小西町８番地１ラフィーヌ東洋奈良ビル２階Ｂ号室,,29,201,6308226,,,,,,,2021-11-02,1,,,,,アド,0
2139,7150003002534,新規,0,2021-11-02,2021-11-02,合同会社ＳＥＮＪＵ,,合同会社,奈良県,奈良市,三条大路１丁目１０番２１号,,29,201,6308013,,,,,,,2021-11-02,1,,,,,センジュ,0
2142,7160001023779,新規,0,2021-11-02,2021-11-02,株式会社ユニーク,,株式会社,滋賀県,野洲市,小篠原１９７１番地２シャルマンコーポ野洲・ＩＩ８１１号室,00124731,25,210,5202331,,,,,,,2021-11-02,1,,,,,ユニーク,0
2143,7160001023787,新規,0,2021-11-02,2021-11-02,株式会社ＧＯＯＤ,,株式会社,滋賀県,湖南市,石部口２丁目５番１６号,,25,211,5203114,,,,,,,2021-11-02,1,,,,,グッド,0
2146,7170001016848,新規,0,2021-11-02,2021-11-02,ＭＩＹＡＢＩ不動産株式会社,,株式会社,和歌山県,岩出市,根来２２３０番地の１４,,30,209,6496202,,,,,,,2021-11-02,1,,,,,ミヤビフドウサン,0
2151,7180001148509,新規,0,2021-11-02,2021-11-02,株式会社タクミ,,株式会社,愛知県,清須市,西枇杷島町古城２丁目２３番地３,,23,233,4520001,,,,,,,2021-11-02,1,,,,,タクミ,0
2152,7180001148517,新規,0,2021-11-02,2021-11-02,ＺＡＸ株式会社,,株式会社,愛知県,名古屋市名東区,望が丘２７１番地,,23,115,4650046,,,,,,,2021-11-02,1,,,,,ザックス,0
2157,7180303005151,新規,0,2021-11-02,2021-11-02,ＧＲＩＦＩＣＡ合同会社,,合同会社,愛知県,岡崎市,鴨田本町１９番地２９,,23,202,4442122,,,,,,,2021-11-02,1,,,,,グリフィカ,0
2161,7190001028825,新規,0,2021-11-02,2021-11-02,株式会社東華商事,,株式会社,三重県,多気郡明和町,大字上村１１７２番地２,,24,442,5150322,,,,,,,2021-11-02,1,,,,,トウカショウジ,0
2167,7200001039358,新規,0,2021-11-02,2021-11-02,株式会社カイド,,株式会社,岐阜県,関市,肥田瀬１６１１番地８,,21,205,5013911,,,,,,,2021-11-02,1,,,,,カイド,0
2168,7200001039374,新規,0,2021-11-02,2021-11-02,株式会社飛騨高山ファミリー,,株式会社,岐阜県,高山市,国府町宇津江６９７番地１,,21,203,5094121,,,,,,,2021-11-02,1,,,,,ヒダタカヤマファミリー,0
2171,7220001024507,新規,0,2021-11-02,2021-11-02,株式会社ＣｒａｚｙＧｏｒｉｌｌａ,,株式会社,石川県,金沢市,泉野町４丁目１３番３３号（泉野ビル・１０１号）,,17,201,9218034,,,,,,,2021-11-02,1,,,,,クレイジーゴリラ,0
2173,7230003001750,新規,0,2021-11-02,2021-11-02,合同会社ＧＯ‐ＯＮ,,合同会社,富山県,魚津市,釈迦堂１丁目１２番１０号Ｍ１ビル４０２号室,,16,204,9370067,,,,,,,2021-11-02,1,,,,,ゴーオン,0
2175,7240001058833,新規,0,2021-11-02,2021-11-02,株式会社オズエンタープライズ,,株式会社,広島県,東広島市,河内町下河内９６番地７,,34,212,7392202,,,,,,,2021-11-02,1,,,,,オズエンタープライズ,0
2176,7240001058882,新規,0,2021-11-02,2021-11-02,株式会社ＯＧＡＭＯＣＣＡ,,株式会社,広島県,福山市,松浜町４丁目５番２８－６０２号,,34,207,7200802,,,,,,,2021-11-02,1,,,,,オガモッカ,0
2184,7260003003711,新規,0,2021-11-02,2021-11-02,合同会社ＴＣ　ＰＡＩＮＴ　ＳＥＲＶＩＣＥ,,合同会社,岡山県,岡山市南区,浦安南町１９５番地１６,,33,104,7028024,,,,,,,2021-11-02,1,,,,,ティシーペイントサービス,0
2188,7280003001548,新規,0,2021-11-02,2021-11-02,合同会社るり,,合同会社,島根県,出雲市,斐川町阿宮２１４番地１,,32,203,6990611,,,,,,,2021-11-02,1,,,,,ルリ,0
2190,7290001095211,新規,0,2021-11-02,2021-11-02,株式会社ＨｅｌｌｏＣｌｏｕｄ,,株式会社,福岡県,福岡市中央区,薬院３丁目１６番２６号,,40,133,8100022,,,,,,,2021-11-02,1,,,,,ハロークラウド,0
2205,7310003004200,新規,0,2021-11-02,2021-11-02,合同会社Ｍｏｃ,,合同会社,長崎県,長崎市,岩見町３１番１号,,42,201,8528017,,,,,,,2021-11-02,1,,,,,モック,0
2207,7320001018696,新規,0,2021-11-02,2021-11-02,株式会社Ｃｉｅｌｏ,,株式会社,大分県,大分市,大字東明野１３７１番地の４０,,44,201,8700151,,,,,,,2021-11-02,1,,,,,シエロ,0
2213,7350003003958,新規,0,2021-11-02,2021-11-02,合同会社Ｇ　Ｇｒｏｕｐ　Ｓｅｒｖｉｃｅ,,合同会社,宮崎県,都城市,牟田町２０街区１１号,,45,202,8850079,,,,,,,2021-11-02,1,,,,,ジーグループサービス,0
2220,7360003011530,新規,0,2021-11-02,2021-11-02,合同会社エディピス,,合同会社,沖縄県,中頭郡北谷町,字宮城１番地３１５,,47,326,9040113,,,,,,,2021-11-02,1,,,,,エディピス,0
2221,7370001047773,新規,0,2021-11-02,2021-11-02,株式会社三科,,株式会社,宮城県,仙台市太白区,柳生６丁目１１番地の５グランドール柳生Ａ１０１,,04,104,9811106,,,,,,,2021-11-02,1,,,,,ミシナ,0
2222,7370003005465,新規,0,2021-11-02,2021-11-02,合同会社すまいファースト,,合同会社,宮城県,仙台市青葉区,一番町１丁目８番１０号京成壱番町ビル６０１号室,,04,101,9800811,,,,,,,2021-11-02,1,,,,,スマイファースト,0
2225,7380001032312,新規,0,2021-11-02,2021-11-02,株式会社Ｌｉｎｋ,,株式会社,福島県,福島市,飯坂町湯野字湯ノ上３６番地,,07,201,9600211,,,,,,,2021-11-02,1,,,,,リンク,0
2226,7390001016652,新規,0,2021-11-02,2021-11-02,株式会社Ｋ．ＰＲＯＤＵＣＴ,,株式会社,山形県,山形市,大野目町３７１番地１,,06,201,9900000,,,,,,,2021-11-02,1,,,,,ケープロダクト,0
2227,7400001015660,新規,0,2021-11-02,2021-11-02,株式会社ｐｔｈｒｅｅ,,株式会社,岩手県,盛岡市,加賀野３丁目１７番３０－１３０１号,,03,201,0200807,,,,,,,2021-11-02,1,,,,,ピースリー,0
2237,7430001085271,新規,0,2021-11-02,2021-11-02,株式会社ＱＵＯＬ,,株式会社,北海道,札幌市中央区,北一条西１５丁目１番地３大通ハイム５１０,,01,101,0600001,,,,,,,2021-11-02,1,,,,,クオル,0
2238,7430001085288,新規,0,2021-11-02,2021-11-02,北章リフレクト株式会社,,株式会社,北海道,札幌市中央区,南三条西９丁目９９８番地３アパタワーズ札幌大通公園１４１０号室,,01,101,0600063,,,,,,,2021-11-02,1,,,,,ホクショウリフレクト,0
2247,7480001011537,新規,0,2021-11-02,2021-11-02,Ｓｕｎｎｙ株式会社,,株式会社,徳島県,徳島市,幸町３丁目８３番地,,36,201,7700847,,,,,,,2021-11-02,1,,,,,サニー,0
2248,7500001023769,新規,0,2021-11-02,2021-11-02,株式会社テツヨシ,,株式会社,愛媛県,松山市,会津町２番２１号,,38,201,7918076,,,,,,,2021-11-02,1,,,,,テツヨシ,0
2254,8010001222147,新規,0,2021-11-02,2021-11-02,Ｅｎｖｉｓｉｏｎ　Ｅｎｔｅｒｐｒｉｓｅ　Ｓｏｌｕｔｉｏｎｓ　Ｊａｐａｎ株式会社,,株式会社,東京都,中央区,銀座１丁目２２番１１号銀座大竹ビジデンス２階,,13,102,1040061,,,,,,,2021-11-02,1,,,,,エンビジョンエンタープライズソリューションズジャパン,0
2255,8010001222205,新規,0,2021-11-02,2021-11-02,松瑞株式会社,,株式会社,東京都,中央区,銀座１丁目２２番１１号銀座大竹ビジデンス２階,,13,102,1040061,,,,,,,2021-11-02,1,,,,,シュウズイ,0
2256,8010001222213,新規,0,2021-11-02,2021-11-02,株式会社ＴＮＬＡＢＯ,,株式会社,東京都,中央区,勝どき６丁目３番２－４６２１号,,13,102,1040054,,,,,,,2021-11-02,1,,,,,ティーエヌラボ,0
2257,8010001222254,新規,0,2021-11-02,2021-11-02,株式会社ヴァレット出版,,株式会社,東京都,中央区,銀座１丁目２２番１１号,,13,102,1040061,,,,,,,2021-11-02,1,,,,,ヴァレットシュッパン,0
2260,8010003036157,新規,0,2021-11-02,2021-11-02,合同会社クローバー２０２２,,合同会社,東京都,千代田区,丸の内３丁目１番１号東京共同会計事務所内,,13,101,1000005,,,,,,,2021-11-02,1,,,,,クローバーニセンニジュウニ,0
2261,8010005034159,新規,0,2021-11-02,2021-11-02,東京レジ２３一般社団法人,,その他の設立登記法人,東京都,千代田区,丸の内３丁目１番１号東京共同会計事務所内,,13,101,1000005,,,,,,,2021-11-02,1,,,,,トウキョウレジトゥエンティスリー,0
2269,8010401163560,新規,0,2021-11-02,2021-11-02,株式会社Ｅｎ－Ｂｒｏｋｅｒ,,株式会社,東京都,港区,麻布十番３－１４－３エスコート麻布十番９０７,,13,103,1050000,,,,,,,2021-11-02,1,,,,,エンブローカー,0
2270,8010401163569,新規,0,2021-11-02,2021-11-02,株式会社Ｓｔａｇｅｎｃｅ,,株式会社,東京都,港区,赤坂８丁目４番１４号青山タワープレイス８Ｆ,,13,103,1070052,,,,,,,2021-11-02,1,,,,,ステージェンス,0
2271,8010403026427,新規,0,2021-11-02,2021-11-02,合同会社Ｐｅｅｐｓ,,合同会社,東京都,港区,虎ノ門４丁目１番１号２３階,,13,103,1050001,,,,,,,2021-11-02,1,,,,,ピープス,0
2272,8010403026435,新規,0,2021-11-02,2021-11-02,ＳＯＬ田原バイオインベストメント合同会社,,合同会社,東京都,港区,六本木６丁目１０番１号六本木ヒルズ森タワー３７階,,13,103,1060032,,,,,,,2021-11-02,1,,,,,エスオーエルタハラバイオインベストメント,0
2277,8010405020345,新規,0,2021-11-02,2021-11-02,一般社団法人日本トータルマネーコンサルタント協会,,その他の設立登記法人,東京都,港区,浜松町２丁目２番１５号,,13,103,1050013,,,,,,,2021-11-02,1,,,,,ニホントータルマネーコンサルタントキョウカイ,0
2285,8010603009231,新規,0,2021-11-02,2021-11-02,ＭＡＹ合同会社,,合同会社,東京都,江東区,東雲１丁目９番４－３６０２号,,13,108,1350062,,,,,,,2021-11-02,1,,,,,メイ,0
2286,8010701041739,新規,0,2021-11-02,2021-11-02,株式会社ＡＮＹＴＩＭＥＧＯＬＦ,,株式会社,東京都,品川区,上大崎３丁目１－２－３９１０,,13,109,1410021,,,,,,,2021-11-02,1,,,,,エニタイムゴルフ,0
2287,8010801032448,新規,0,2021-11-02,2021-11-02,株式会社ＧＳカンパニー,,株式会社,東京都,大田区,田園調布４丁目２番８号パークサイド田園調布１０３,,13,111,1450071,,,,,,,2021-11-02,1,,,,,ジーエスカンパニー,0
2288,8010901049730,新規,0,2021-11-02,2021-11-02,株式会社大八貿易,,株式会社,東京都,世田谷区,松原６丁目３６番１２号,,13,112,1560043,,,,,,,2021-11-02,1,,,,,ダイハチボウエキ,0
2299,8011001143746,新規,0,2021-11-02,2021-11-02,トーンライフスタイル株式会社,,株式会社,東京都,渋谷区,円山町３番６号,,13,113,1500044,,,,,,,2021-11-02,1,,,,,トーンライフスタイル,0
2300,8011001143754,新規,0,2021-11-02,2021-11-02,株式会社オルシア,,株式会社,東京都,目黒区,東山２丁目９番６－２０１号,,13,110,1530043,,,,,,,2021-11-02,1,,,,,オルシア,0
2301,8011001143762,新規,0,2021-11-02,2021-11-02,株式会社デイアンドタイム,,株式会社,東京都,渋谷区,千駄ヶ谷３丁目７番４号アカデミービル３Ｆ,,13,113,1510051,,,,,,,2021-11-02,1,,,,,デイアンドタイム,0
2304,8011003013591,新規,0,2021-11-02,2021-11-02,合同会社ＣＨＩＫＡＲＡ．ｃｏｍ,,合同会社,東京都,目黒区,青葉台３丁目４－１タワーテラス目黒青葉台１１０３,,13,110,1530042,,,,,,,2021-11-02,1,,,,,チカラドットコム,0
2307,8011101096687,新規,0,2021-11-02,2021-11-02,株式会社ナースのみかた,,株式会社,東京都,新宿区,若葉１丁目６－１－１１５,,13,104,1600011,,,,,,,2021-11-02,1,,,,,ナースノミカタ,0
2311,8011401023795,新規,0,2021-11-02,2021-11-02,株式会社ＹＫＴ,,株式会社,東京都,板橋区,成増３丁目５０番１３号,,13,119,1750094,,,,,,,2021-11-02,1,,,,,ワイケイティー,0
2313,8011701024824,新規,0,2021-11-02,2021-11-02,株式会社ハープシーズ,,株式会社,東京都,江戸川区,本一色１丁目２４番２２号,,13,123,1330044,,,,,,,2021-11-02,1,,,,,ハープシーズ,0
2316,8012401038486,新規,0,2021-11-02,2021-11-02,株式会社ＵＴＡコーポレーション,,株式会社,東京都,狛江市,元和泉３丁目７番１０号,,13,219,2010013,,,,,,,2021-11-02,1,,,,,ユーティーエーコーポレーション,0
2317,8012403005088,新規,0,2021-11-02,2021-11-02,合同会社グッドビジョン,,合同会社,東京都,調布市,入間町１丁目２９番地１２成城ヒルズＡ２０２,,13,208,1820004,,,,,,,2021-11-02,1,,,,,グッドビジョン,0
2323,8020001143714,新規,0,2021-11-02,2021-11-02,株式会社アビオン,,株式会社,神奈川県,横浜市鶴見区,下末吉２丁目２０番２号,,14,101,2300012,,,,,,,2021-11-02,1,,,,,アビオン,0
2326,8021001074362,新規,0,2021-11-02,2021-11-02,株式会社アルテミス,,株式会社,神奈川県,相模原市南区,東林間６丁目１５番３号,,14,153,2520311,,,,,,,2021-11-02,1,,,,,アルテミス,0
2333,8030001145065,新規,0,2021-11-02,2021-11-02,株式会社フォース・パートナーズ,,株式会社,埼玉県,入間郡三芳町,大字藤久保３９９７番地１２,,11,324,3540041,,,,,,,2021-11-02,1,,,,,フォースパートナーズ,0
2342,8040001120785,新規,0,2021-11-02,2021-11-02,まはな株式会社,,株式会社,千葉県,船橋市,本町１丁目２０番３０号,,12,204,2730005,,,,,,,2021-11-02,1,,,,,マハナ,0
2347,8040003018821,新規,0,2021-11-02,2021-11-02,合同会社外房フィルムコミッション,,合同会社,千葉県,茂原市,粟生野３４９８番地２３,,12,210,2994106,,,,,,,2021-11-02,1,,,,,ソトボウフィルムコミッション,0
2348,8040005021410,新規,0,2021-11-02,2021-11-02,農事組合法人ＭＹＴＵＲＮ,,その他の設立登記法人,千葉県,いすみ市,松丸字熊野５３５番１,,12,238,2980104,,,,,,,2021-11-02,1,,,,,マイターン,0
2358,8060001034249,新規,0,2021-11-02,2021-11-02,Ｃａｒａｖａｎ　Ｌｉｆｅ株式会社,,株式会社,栃木県,宇都宮市,下岡本町４２２３番地五月女コーポ１０２,,09,201,3291104,,,,,,,2021-11-02,1,,,,,キャラバンライフ,0
2360,8080001024537,新規,0,2021-11-02,2021-11-02,株式会社Ｔｒａｎｓｉｔ　Ｓｕｃｃｅｅｄ,,株式会社,静岡県,静岡市葵区,平和２丁目２７番１７－２０３号,,22,101,4200876,,,,,,,2021-11-02,1,,,,,トランジットサクシード,0
2361,8080001024545,新規,0,2021-11-02,2021-11-02,株式会社ウィライト,,株式会社,静岡県,静岡市葵区,長沼２丁目１４番３０号,,22,101,4200813,,,,,,,2021-11-02,1,,,,,ウィライト,0
2362,8080001024553,新規,0,2021-11-02,2021-11-02,Ｄｏｔｓｃｏｎｓｕｌｔｉｎｇ株式会社,,株式会社,静岡県,島田市,道悦５丁目５番５号,,22,209,4270019,,,,,,,2021-11-02,1,,,,,ドッツコンサルティング,0
2367,8080401025465,新規,0,2021-11-02,2021-11-02,山崎電気株式会社,,株式会社,静岡県,磐田市,大泉町２８番地２,,22,211,4380044,,,,,,,2021-11-02,1,,,,,ヤマザキデンキ,0
2371,8100001034772,新規,0,2021-11-02,2021-11-02,株式会社ＹＡＭＡＤＥＮ,,株式会社,長野県,下高井郡山ノ内町,大字平穏２３０３番地５７,,20,561,3810401,,,,,,,2021-11-02,1,,,,,ヤマデン,0
2372,8100001034789,新規,0,2021-11-02,2021-11-02,ＯＰＳ株式会社,,株式会社,長野県,茅野市,北山５５１３番地３８４朝日ヶ丘１８１,,20,214,3910301,,,,,,,2021-11-02,1,,,,,オーピーエス,0
2375,8100003006282,新規,0,2021-11-02,2021-11-02,合同会社ワズグッド,,合同会社,長野県,上田市,常田３丁目８－４,,20,203,3860018,,,,,,,2021-11-02,1,,,,,ワズグッド,0
2377,8110001036157,新規,0,2021-11-02,2021-11-02,Ｉグループ株式会社,,株式会社,新潟県,新潟市東区,向陽２丁目２番地２０,,15,102,9500011,,,,,,,2021-11-02,1,,,,,アイグループ,0
2378,8110001036165,新規,0,2021-11-02,2021-11-02,明和ホールディングス株式会社,,株式会社,新潟県,新潟市西蒲区,打越１３５番地１,,15,108,9501348,,,,,,,2021-11-02,1,,,,,メイワホールディングス,0
2388,8120001241433,新規,0,2021-11-02,2021-11-02,株式会社ホウエイ,,株式会社,大阪府,枚方市,中宮大池３丁目１０番１号,,27,210,5730004,,,,,,,2021-11-02,1,,,,,ホウエイ,0
2389,8120001241516,新規,0,2021-11-02,2021-11-02,株式会社ＢｅｓｔＬｉｆｅ,,株式会社,大阪府,大阪市北区,西天満４丁目５番５号マーキス梅田５０９号,,27,127,5300047,,,,,,,2021-11-02,1,,,,,ベストライフ,0
2390,8120001241524,新規,0,2021-11-02,2021-11-02,株式会社ＹＵＴＯ,,株式会社,大阪府,大阪市中央区,谷町４丁目８番１２号,,27,128,5400012,,,,,,,2021-11-02,1,,,,,ユト,0
2391,8120001241540,新規,0,2021-11-02,2021-11-02,株式会社ＢＬＵＥ,,株式会社,大阪府,大阪市北区,大淀南２丁目６番３号島田ビル１Ｆ,,27,127,5310075,,,,,,,2021-11-02,1,,,,,ブルー,0
2392,8120001241615,新規,0,2021-11-02,2021-11-02,長計専科株式会社,,株式会社,大阪府,大阪市北区,梅田１丁目１番３－７００号,,27,127,5300001,,,,,,,2021-11-02,1,,,,,チョウケイセンカ,0
2395,8120003020496,新規,0,2021-11-02,2021-11-02,合同会社エムラボ,,合同会社,大阪府,大阪市北区,豊崎１丁目１１番６－２０５号,,27,127,5310072,,,,,,,2021-11-02,1,,,,,エムラボ,0
2396,8120003020521,新規,0,2021-11-02,2021-11-02,合同会社ライフネット,,合同会社,大阪府,枚方市,香里ケ丘８丁目３１番地の２９,,27,210,5730084,,,,,,,2021-11-02,1,,,,,ライフネット,0
2403,8120903003889,新規,0,2021-11-02,2021-11-02,合同会社ココンルージュ,,合同会社,大阪府,吹田市,朝日町２番６２８号,,27,205,5640027,,,,,,,2021-11-02,1,,,,,ココンルージュ,0
2404,8120903003897,新規,0,2021-11-02,2021-11-02,ＪＺＡＭ合同会社,,合同会社,大阪府,箕面市,箕面８丁目１９番２３号,,27,220,5620001,,,,,,,2021-11-02,1,,,,,ジェーゼットエイエム,0
2405,8122001035311,新規,0,2021-11-02,2021-11-02,株式会社フドウ,,株式会社,大阪府,八尾市,北木の本２丁目３３番地の１,,27,212,5810041,,,,,,,2021-11-02,1,,,,,フドウ,0
2416,8130001070443,新規,0,2021-11-02,2021-11-02,株式会社ｋｉｎｋｏ,,株式会社,京都府,京都市下京区,西洞院通高辻上る本柳水町７８１番地ウィングシティ西洞院６０３,00124728,26,106,6008462,,,,,,,2021-11-02,1,,,,,キンコ,0
2418,8130003007567,新規,0,2021-11-02,2021-11-02,ＹＵＭＭＹ　ＤＥＬＩ合同会社,,合同会社,京都府,城陽市,久世北垣内１３番地,,26,207,6100102,,,,,,,2021-11-02,1,,,,,ヤミーデリ,0
2428,8140001123662,新規,0,2021-11-02,2021-11-02,葵興業株式会社,,株式会社,兵庫県,高砂市,松陽１丁目３番３９－２号,,28,216,6760077,,,,,,,2021-11-02,1,,,,,アオイコウギョウ,0
2430,8140003016914,新規,0,2021-11-02,2021-11-02,合同会社燦花,,合同会社,兵庫県,三田市,けやき台５丁目２５番地１４５,,28,219,6691321,,,,,,,2021-11-02,1,,,,,サンカ,0
2432,8150001025065,新規,0,2021-11-02,2021-11-02,株式会社禅,,株式会社,奈良県,生駒市,東生駒月見町２０４番地４,,29,209,6300214,,,,,,,2021-11-02,1,,,,,ゼン,0
2433,8150001025081,新規,0,2021-11-02,2021-11-02,株式会社Ｇａｌａｘｙ,,株式会社,奈良県,奈良市,北登美ヶ丘６丁目２６番１２号,,29,201,6310001,,,,,,,2021-11-02,1,,,,,ギャラクシー,0
2434,8160001023778,新規,0,2021-11-02,2021-11-02,株式会社紫香楽フーズ,,株式会社,滋賀県,甲賀市,信楽町長野４９１番地２,,25,209,5291851,,,,,,,2021-11-02,1,,,,,シガラキフーズ,0
2435,8160001023786,新規,0,2021-11-02,2021-11-02,株式会社ライハート,,株式会社,滋賀県,大津市,仰木の里東８丁目８－２４,,25,201,5200248,,,,,,,2021-11-02,1,,,,,ライハート,0
2446,8180001148482,新規,0,2021-11-02,2021-11-02,株式会社キャットウォーク,,株式会社,愛知県,名古屋市千種区,観月町１丁目２７番地の１,,23,101,4640831,,,,,,,2021-11-02,1,,,,,キャットウォーク,0
2448,8180003023139,新規,0,2021-11-02,2021-11-02,合同会社リボン・パートナーズ,,合同会社,愛知県,名古屋市守山区,小幡南２丁目１５番２１号アグレアーブル２０３,,23,113,4630048,,,,,,,2021-11-02,1,,,,,リボンパートナーズ,0
2449,8180005019498,新規,0,2021-11-02,2021-11-02,税理士法人ちくさ会計,,その他の設立登記法人,愛知県,名古屋市千種区,猫洞通５丁目３５番地の３,,23,101,4640032,,,,,,,2021-11-02,1,,,,,チクサカイケイ,0
2451,8190001028840,新規,0,2021-11-02,2021-11-02,株式会社ＫＳＣ,,株式会社,三重県,鈴鹿市,野町西３丁目１番１号,,24,207,5100218,,,,,,,2021-11-02,1,,,,,ケーエスシー,0
2462,8210005009999,新規,0,2021-11-02,2021-11-02,一般社団法人Ｂｅａｎｓ,,その他の設立登記法人,福井県,福井市,江守中町第９号１０１番地１１,,18,201,9188025,,,,,,,2021-11-02,1,,,,,ビーンズ,0
2466,8220003003144,新規,0,2021-11-02,2021-11-02,合同会社Ｒ・Ｙ,,合同会社,石川県,白山市,中成２丁目１８０番地,,17,210,9240029,,,,,,,2021-11-02,1,,,,,アールワイ,0
2472,8240001058873,新規,0,2021-11-02,2021-11-02,メアリーデザイン株式会社,,株式会社,広島県,東広島市,高屋町中島５１０番地５,,34,212,7392125,,,,,,,2021-11-02,1,,,,,メアリーデザイン,0
2481,8250001019222,新規,0,2021-11-02,2021-11-02,Ｎクオリティー株式会社,,株式会社,山口県,防府市,千日２丁目７番２４号,,35,206,7470046,,,,,,,2021-11-02,1,,,,,エヌクオリティー,0
2482,8250005008700,新規,0,2021-11-02,2021-11-02,行政書士法人木森事務所,,その他の設立登記法人,山口県,山口市,宝町１番３号,,35,203,7530812,,,,,,,2021-11-02,1,,,,,キモリジムショ,0
2483,8260001036167,新規,0,2021-11-02,2021-11-02,株式会社ＫＯＺＡＫＩ,,株式会社,岡山県,岡山市北区,青江４丁目２３番２５号,,33,101,7000941,,,,,,,2021-11-02,1,,,,,コザキ,0
2484,8260001036175,新規,0,2021-11-02,2021-11-02,株式会社ＬＵＣＩＡ,,株式会社,岡山県,総社市,小寺２６番地１,,33,208,7191155,,,,,,,2021-11-02,1,,,,,,0
2489,8290001095210,新規,0,2021-11-02,2021-11-02,株式会社アップクリエーション,,株式会社,福岡県,福岡市南区,若久２丁目２１番１７号,,40,134,8150042,,,,,,,2021-11-02,1,,,,,アップクリエーション,0
2490,8290001095292,新規,0,2021-11-02,2021-11-02,株式会社九州商海,,株式会社,福岡県,福岡市早良区,野芥４丁目２０番１１号,,40,137,8140171,,,,,,,2021-11-02,1,,,,,キュウシュウショウウン,0
2496,8290003011784,新規,0,2021-11-02,2021-11-02,ＩＭＤ　ＣＲＥＡＴＩＶＥ合同会社,,合同会社,福岡県,福岡市中央区,白金１丁目１１番７号ＩＭＤ　ＳＱＵＡＲＥ３Ｆ,,40,133,8100012,,,,,,,2021-11-02,1,,,,,アイエムディークリエイティブ,0
2501,8310001017566,新規,0,2021-11-02,2021-11-02,秋本電設株式会社,,株式会社,長崎県,島原市,有明町湯江乙１３１８番地３,,42,203,8591402,,,,,,,2021-11-02,1,,,,,アキモトデンセツ,0
2503,8320001018704,新規,0,2021-11-02,2021-11-02,株式会社ＴＨＲＭ,,株式会社,大分県,大分市,小佐井１丁目６番３２号,,44,201,8700327,,,,,,,2021-11-02,1,,,,,ティーエイチアールエム,0
2506,8330001029130,新規,0,2021-11-02,2021-11-02,株式会社Ｓｏｌｂｉｚ,,株式会社,熊本県,熊本市南区,江越２丁目２２番７号,,43,104,8600834,,,,,,,2021-11-02,1,,,,,ソールビズ,0
2508,8340001024221,新規,0,2021-11-02,2021-11-02,株式会社枝元教材社,,株式会社,鹿児島県,姶良市,加治木町新生町２５０番地,,46,225,8995223,,,,,,,2021-11-02,1,,,,,エダモトキョウザイシャ,0
2509,8340001024238,新規,0,2021-11-02,2021-11-02,株式会社丸徳水産,,株式会社,鹿児島県,いちき串木野市,御倉町１７７番地,,46,219,8960025,,,,,,,2021-11-02,1,,,,,マルトクスイサン,0
2510,8350001017389,新規,0,2021-11-02,2021-11-02,株式会社ライオット,,株式会社,宮崎県,宮崎市,大字田吉２０７番地２号エアリーＩＩ３０２号,00124738,45,201,8800911,,,,,,,2021-11-02,1,,,,,ライオット,0
2514,8360003011538,新規,0,2021-11-02,2021-11-02,合同会社Ｔｅｍｐｔ,,合同会社,沖縄県,島尻郡南風原町,字宮平８９４－１１,,47,350,9011104,,,,,,,2021-11-02,1,,,,,テンプト,0
2517,8370001047789,新規,0,2021-11-02,2021-11-02,株式会社エヌシーペイント,,株式会社,宮城県,仙台市太白区,東中田２丁目６番２－９０７号,,04,104,9811107,,,,,,,2021-11-02,1,,,,,エヌシーペイント,0
2530,8430003013312,新規,0,2021-11-02,2021-11-02,光商事合同会社,,合同会社,北海道,夕張郡由仁町,本町３４３番地の３,,01,427,0691206,,,,,,,2021-11-02,1,,,,,ヒカリショウジ,0
2531,8440003001423,新規,0,2021-11-02,2021-11-02,合同会社まる,,合同会社,北海道,亀田郡七飯町,大川３丁目１３番４７号,,01,337,0411122,,,,,,,2021-11-02,1,,,,,マル,0
2535,8470001018805,新規,0,2021-11-02,2021-11-02,ｃ．ｓ．Ｉｎｆｉｎｉｔｙ株式会社,,株式会社,香川県,高松市,牟礼町牟礼２８４０番地１１,,37,201,7610121,,,,,,,2021-11-02,1,,,,,シーエスインフィニティ,0
2541,8480001011536,新規,0,2021-11-02,2021-11-02,日新商会株式会社,,株式会社,徳島県,徳島市,南沖洲５丁目７番３号,,36,201,7700874,,,,,,,2021-11-02,1,,,,,ニッシンショウカイ,0
2549,8500003002712,新規,0,2021-11-02,2021-11-02,合同会社ＮＡＣ,,合同会社,愛媛県,新居浜市,多喜浜６丁目９番８４号,,38,205,7920893,,,,,,,2021-11-02,1,,,,,ナック,0
2550,8700150036550,新規,0,2021-11-02,2015-10-09,岩手県町村議会議長会,,その他,岩手県,盛岡市,山王町４－１,,03,201,0200821,,,,,,,2015-10-09,1,,,,,イワテケンチヨウソンギカイギチヨウカイ,0
2552,8700150105355,新規,0,2021-11-02,2021-10-18,溝江勘二画伯顕彰会,,その他,福岡県,大川市,大字三丸２０６１番地,,40,212,8310026,,,,,,,2021-10-18,1,,,,,ミゾエカンジガハクケンシヨウカイ,0
2555,9010001222179,新規,0,2021-11-02,2021-11-02,ＣＢ　Ｃａｐｉｔａｌ株式会社,,株式会社,東京都,中央区,日本橋茅場町２丁目９－８、茅場町第２平和ビル４Ｆ,,13,102,1030025,,,,,,,2021-11-02,1,,,,,シービーキャピタル,0
2556,9010001222204,新規,0,2021-11-02,2021-11-02,株式会社イマージュ,,株式会社,東京都,文京区,千石４丁目４３番５－４０３号,,13,105,1120011,,,,,,,2021-11-02,1,,,,,イマージュ,0
2560,9010003036148,新規,0,2021-11-02,2021-11-02,ＪＮＦ東京合同会社,,合同会社,東京都,中央区,銀座７丁目１３番６号サガミビル２階,,13,102,1040061,,,,,,,2021-11-02,1,,,,,ジェーエヌエフトウキョウ,0
2562,9010101014939,新規,0,2021-11-02,2021-11-02,株式会社サステナライフ,,株式会社,東京都,八王子市,暁町３丁目７番１３号,,13,201,1920043,,,,,,,2021-11-02,1,,,,,サステナライフ,0
2563,9010103001803,新規,0,2021-11-02,2021-11-02,合同会社ＡＬＭＡ,,合同会社,東京都,八王子市,元八王子町２丁目３３６４―３,,13,201,1930826,,,,,,,2021-11-02,1,,,,,,0
2570,9010401163584,新規,0,2021-11-02,2021-11-02,株式会社カブプロ,,株式会社,東京都,港区,赤坂９丁目４－１－２８０４,,13,103,1070052,,,,,,,2021-11-02,1,,,,,カブプロ,0
2571,9010403026434,新規,0,2021-11-02,2021-11-02,ＳＯＬ福山バイオインベストメント合同会社,,合同会社,東京都,港区,六本木６丁目１０番１号六本木ヒルズ森タワー３７階,,13,103,1060032,,,,,,,2021-11-02,1,,,,,エスオーエルフクヤマバイオインベストメント,0
2575,9010501048025,新規,0,2021-11-02,2021-11-02,株式会社Ｅｄｇｅ　Ｍｅｄｉｃａｌ　Ｓｅｒｖｉｃｅ,,株式会社,東京都,台東区,台東３丁目４３番１０号,,13,106,1100016,,,,,,,2021-11-02,1,,,,,エッジメデイカルサービス,0
2576,9010501048041,新規,0,2021-11-02,2021-11-02,株式会社森研,,株式会社,東京都,台東区,北上野２丁目２５番９号－２０５号室,,13,106,1100014,,,,,,,2021-11-02,1,,,,,モリケン,0
2580,9010601060152,新規,0,2021-11-02,2021-11-02,株式会社スガンヤージャパン,,株式会社,東京都,墨田区,石原３丁目１８－５－１階,,13,107,1300011,,,,,,,2021-11-02,1,,,,,スガンヤージャパン,0
2581,9010601060160,新規,0,2021-11-02,2021-11-02,株式会社Ｅｎｖｅｌｏｐｐｅ,,株式会社,東京都,江東区,青海２丁目７番４－１０３３号,,13,108,1350064,,,,,,,2021-11-02,1,,,,,エンヴェロップ,0
2585,9010701041721,新規,0,2021-11-02,2021-11-02,Ｚｅｎ　Ｊａｐａｎ株式会社,,株式会社,東京都,品川区,西五反田１丁目２６番２号五反田サンハイツ９１１,,13,109,1410031,,,,,,,2021-11-02,1,,,,,ゼンジャパン,0
2592,9011001143745,新規,0,2021-11-02,2021-11-02,株式会社ＴＯＣＡ,,株式会社,東京都,渋谷区,東４丁目１２番１号,,13,113,1500011,,,,,,,2021-11-02,1,,,,,トカ,0
2598,9011101096769,新規,0,2021-11-02,2021-11-02,ｎｅｗｂｏｒｎｓ株式会社,,株式会社,東京都,新宿区,西新宿８丁目１７番１号,,13,104,1600023,,,,,,,2021-11-02,1,,,,,ニューボーンズ,0
2601,9011201023383,新規,0,2021-11-02,2021-11-02,株式会社あさひキャット,,株式会社,東京都,中野区,弥生町１丁目３３番５－３１７号,,13,114,1640013,,,,,,,2021-11-02,1,,,,,アサヒキャット,0
2610,9011801039911,新規,0,2021-11-02,2021-11-02,ＬＩＭ不動産株式会社,,株式会社,東京都,足立区,中川２丁目２２番４号,,13,121,1200002,,,,,,,2021-11-02,1,,,,,リムフドウサン,0
2612,9011803004855,新規,0,2021-11-02,2021-11-02,合同会社ハリウッドオートサービス,,合同会社,東京都,葛飾区,高砂２丁目２番９号,,13,122,1250054,,,,,,,2021-11-02,1,,,,,ハリウッドオートサービス,0
2614,9012401038502,新規,0,2021-11-02,2021-11-02,株式会社アイエヌオー企画,,株式会社,東京都,多摩市,和田１８５１番地,,13,224,2060001,,,,,,,2021-11-02,1,,,,,アイエヌオーキカク,0
2616,9012403005087,新規,0,2021-11-02,2021-11-02,合同会社充,,合同会社,東京都,武蔵野市,緑町２丁目５番２－４０１号,,13,203,1800012,,,,,,,2021-11-02,1,,,,,ミツル,0
2621,9013303005879,新規,0,2021-11-02,2021-11-02,アクシス経営財務パートナーズ合同会社,,合同会社,東京都,豊島区,雑司が谷１丁目３５－１,,13,116,1710032,,,,,,,2021-11-02,1,,,,,アクシスケイエイザイムパートナーズ,0
2622,9013303005887,新規,0,2021-11-02,2021-11-02,Ａｍоｕｒ合同会社,,合同会社,東京都,豊島区,南池袋１丁目９－１８１３９号室,,13,116,1710022,,,,,,,2021-11-02,1,,,,,アムール,0
2637,9020001143622,新規,0,2021-11-02,2021-11-02,協和エンジニアリングカワサキ株式会社,,株式会社,神奈川県,川崎市宮前区,平３丁目１４番１４号,,14,136,2160022,,,,,,,2021-11-02,1,,,,,キョウワエンジニアリングカワサキ,0
2638,9020001143713,新規,0,2021-11-02,2021-11-02,レオニード株式会社,,株式会社,神奈川県,横浜市金沢区,谷津町１４５,,14,108,2360016,,,,,,,2021-11-02,1,,,,,レオニード,0
2639,9020001143738,新規,0,2021-11-02,2021-11-02,株式会社ｓａｉ,,株式会社,神奈川県,横浜市泉区,緑園６丁目１０番地５,,14,116,2450002,,,,,,,2021-11-02,1,,,,,サイ,0
2643,9020003020729,新規,0,2021-11-02,2021-11-02,合同会社弐楓工作室,,合同会社,神奈川県,横浜市旭区,下川井町２３３－６,,14,112,2410806,,,,,,,2021-11-02,1,,,,,ニフウコウサクシツ,0
2644,9020003020737,新規,0,2021-11-02,2021-11-02,合同会社ＲＩＳＥ,,合同会社,神奈川県,川崎市川崎区,東田町３番地２４コスモビル３階,,14,131,2100005,,,,,,,2021-11-02,1,,,,,ライズ,0
2649,9021001074361,新規,0,2021-11-02,2021-11-02,株式会社Ａｖａｎ,,株式会社,神奈川県,厚木市,恩名１丁目３番１７号,,14,212,2430032,,,,,,,2021-11-02,1,,,,,アヴァン,0
2664,9030001145080,新規,0,2021-11-02,2021-11-02,株式会社ヤマト総業,,株式会社,埼玉県,志木市,中宗岡３丁目２１番７－３０２号,,11,228,3530002,,,,,,,2021-11-02,1,,,,,ヤマトソウギョウ,0
2665,9030001145097,新規,0,2021-11-02,2021-11-02,ハウス新澤株式会社,,株式会社,埼玉県,上尾市,愛宕３丁目２番１５号ＵＰＴＡＩＬ２０１,,11,219,3620034,,,,,,,2021-11-02,1,,,,,ハウスシンザワ,0
2666,9030001145196,新規,0,2021-11-02,2021-11-02,株式会社ライジング,,株式会社,埼玉県,草加市,柳島町８４６番地,,11,221,3400033,,,,,,,2021-11-02,1,,,,,ライジング,0
2687,9040003018837,新規,0,2021-11-02,2021-11-02,ＢＭａｒｋ合同会社,,合同会社,千葉県,八千代市,緑が丘１丁目２番地８－１００５号,,12,221,2760049,,,,,,,2021-11-02,1,,,,,ビーマーク,0
2688,9040003018845,新規,0,2021-11-02,2021-11-02,合同会社ゼンタ,,合同会社,千葉県,柏市,小青田３丁目１９番地１５,,12,217,2770803,,,,,,,2021-11-02,1,,,,,ゼンタ,0
2689,9060001034231,新規,0,2021-11-02,2021-11-02,株式会社ＭＫＲ,,株式会社,栃木県,小山市,城東５丁目３番１号シエルＩ２０１,00124729,09,208,3230807,,,,,,,2021-11-02,1,,,,,エムケーアール,0
2694,9080001024560,新規,0,2021-11-02,2021-11-02,株式会社海成,,株式会社,静岡県,静岡市清水区,蒲原１丁目８番１９号,,22,103,4213203,,,,,,,2021-11-02,1,,,,,カイセイ,0
2703,9110001036156,新規,0,2021-11-02,2021-11-02,株式会社佐藤犬舎,,株式会社,新潟県,新潟市北区,浦木２００２番地１,,15,101,9503344,,,,,,,2021-11-02,1,,,,,サトウケンシャ,0
2704,9110001036164,新規,0,2021-11-02,2021-11-02,株式会社バッチ・グー,,株式会社,新潟県,新潟市東区,逢谷内３丁目５１９番地１,,15,102,9500814,,,,,,,2021-11-02,1,,,,,バッチグー,0
2705,9110003004607,新規,0,2021-11-02,2021-11-02,秋葉パートナーズ合同会社,,合同会社,新潟県,新潟市秋葉区,草水町２丁目７番４６－１号,,15,105,9560833,,,,,,,2021-11-02,1,,,,,アキハパートナーズ,0
2717,9120001241523,新規,0,2021-11-02,2021-11-02,株式会社ＭＧ．ｂｒｉｇｈｔ,,株式会社,大阪府,大阪市北区,曾根崎１丁目４番５－９０７号,,27,127,5300057,,,,,,,2021-11-02,1,,,,,エムジーブライト,0
2718,9120001241564,新規,0,2021-11-02,2021-11-02,土佐重量機設株式会社,,株式会社,大阪府,大阪市東淀川区,井高野１丁目２８－５８－４７,,27,114,5330001,,,,,,,2021-11-02,1,,,,,トサジュウリョウキセツ,0
2719,9120001241606,新規,0,2021-11-02,2021-11-02,株式会社ＲＩＮＫ,,株式会社,大阪府,大阪市旭区,千林２丁目２番１２号,,27,117,5350012,,,,,,,2021-11-02,1,,,,,リンク,0
2724,9120003020495,新規,0,2021-11-02,2021-11-02,合同会社ｙ．ｄ．ｋ,,合同会社,大阪府,大阪市北区,豊崎２丁目５番２号デザインメゾン茶屋町００１号,,27,127,5310072,,,,,,,2021-11-02,1,,,,,ワイディーケー,0
2725,9120003020520,新規,0,2021-11-02,2021-11-02,合同会社Ｍｏｎｒｅｖｅ,,合同会社,大阪府,大阪市西区,南堀江２丁目１番１号ブリエ南堀江９０２,,27,106,5500015,,,,,,,2021-11-02,1,,,,,モンレーブ,0
2726,9120003020537,新規,0,2021-11-02,2021-11-02,合同会社菊地工業,,合同会社,大阪府,大阪市鶴見区,諸口１丁目８番１３－４０１号,,27,124,5380051,,,,,,,2021-11-02,1,,,,,キクチコウギョウ,0
2738,9130001070450,新規,0,2021-11-02,2021-11-02,株式会社タケハラ,,株式会社,京都府,京都市伏見区,久我森の宮町１０番地５,,26,109,6128495,,,,,,,2021-11-02,1,,,,,タケハラ,0
2740,9130003007566,新規,0,2021-11-02,2021-11-02,都ｆｒｏｍ　ＪＡＰＡＮ合同会社,,合同会社,京都府,京都市右京区,花園中御門町１１番地４ジョイナー２１・２０１号室,,26,108,6168054,,,,,,,2021-11-02,1,,,,,ミヤコフロムジャパン,0
2751,9150001025064,新規,0,2021-11-02,2021-11-02,株式会社オイサキラボ,,株式会社,奈良県,橿原市,光陽町１００番地の４１,,29,205,6340827,,,,,,,2021-11-02,1,,,,,オイサキラボ,0
2754,9160001023769,新規,0,2021-11-02,2021-11-02,株式会社ＫＬＳ,,株式会社,滋賀県,野洲市,吉地１３２０番地３,,25,210,5202413,,,,,,,2021-11-02,1,,,,,ケーエルエス,0
2761,9180001148515,新規,0,2021-11-02,2021-11-02,株式会社Ｇ,,株式会社,愛知県,名古屋市南区,岩戸町１８番２３号,,23,112,4570015,,,,,,,2021-11-02,1,,,,,ジー,0
2763,9180003023138,新規,0,2021-11-02,2021-11-02,合同会社ペディランサス,,合同会社,愛知県,名古屋市中村区,千成通３丁目２番地の３,,23,105,4530818,,,,,,,2021-11-02,1,,,,,ペディランサス,0
2769,9190001028807,新規,0,2021-11-02,2021-11-02,株式会社ディンプル,,株式会社,三重県,桑名市,大字小貝須４０９番地８,,24,205,5110841,,,,,,,2021-11-02,1,,,,,ディンプル,0
2773,9200001039356,新規,0,2021-11-02,2021-11-02,株式会社ＣＨＩＮＩＡＳＨＩ,,株式会社,岐阜県,岐阜市,日光町２丁目１４番地２,,21,201,5020933,,,,,,,2021-11-02,1,,,,,チニアシ,0
2775,9210001018680,新規,0,2021-11-02,2021-11-02,Ａｃｅ　ｃｏｒｐｏｒａｔｉｏｎ株式会社,,株式会社,福井県,福井市,佐野町第７号１３０番地１,,18,201,9103121,,,,,,,2021-11-02,1,,,,,エースコーポレーション,0
2779,9220001024505,新規,0,2021-11-02,2021-11-02,はたば電気工事株式会社,,株式会社,石川県,小松市,下牧町ホ４７番地１,,17,203,9230026,,,,,,,2021-11-02,1,,,,,ハタバデンキコウジ,0
2790,9240001058864,新規,0,2021-11-02,2021-11-02,株式会社共生,,株式会社,広島県,広島市安佐北区,口田南８丁目４３番２号,,34,106,7391733,,,,,,,2021-11-02,1,,,,,キョウセイ,0
2792,9240003005344,新規,0,2021-11-02,2021-11-02,合同会社タキグチ,,合同会社,広島県,呉市,吉浦本町１丁目９番１４号,,34,202,7370861,,,,,,,2021-11-02,1,,,,,タキグチ,0
2793,9240003005352,新規,0,2021-11-02,2021-11-02,合同会社ほぷらす,,合同会社,広島県,安芸郡府中町,鶴江２丁目８番２号,,34,302,7350008,,,,,,,2021-11-02,1,,,,,ホプラス,0
2800,9290001095143,新規,0,2021-11-02,2021-11-02,株式会社森工業,,株式会社,福岡県,飯塚市,柳橋５０９番地１,,40,205,8200063,,,,,,,2021-11-02,1,,,,,モリコウギョウ,0
2801,9290001095184,新規,0,2021-11-02,2021-11-02,株式会社Ｚｅｐｈｙｒ,,株式会社,福岡県,福岡市博多区,下川端町１０番１６号,,40,132,8120027,,,,,,,2021-11-02,1,,,,,ゼフィール,0
2806,9310001017557,新規,0,2021-11-02,2021-11-02,株式会社トラスティテクノ橋本,,株式会社,長崎県,長崎市,田手原町４４５番地１,,42,201,8510252,,,,,,,2021-11-02,1,,,,,トラスティテクノハシモト,0
2809,9330001029146,新規,0,2021-11-02,2021-11-02,株式会社紅乃果ファーム,,株式会社,熊本県,熊本市西区,河内町野出１６１９番地４,,43,103,8615343,,,,,,,2021-11-02,1,,,,,コノカファーム,0
2814,9350003003964,新規,0,2021-11-02,2021-11-02,ＹＹＷ合同会社,,合同会社,宮崎県,東諸県郡綾町,大字入野２８２５番地３,,45,383,8801301,,,,,,,2021-11-02,1,,,,,ワイワイダブリュ,0
2817,9370001047771,新規,0,2021-11-02,2021-11-02,株式会社紡ぎ舎,,株式会社,宮城県,仙台市宮城野区,岩切字三所南１番地の７,,04,102,9830821,,,,,,,2021-11-02,1,,,,,ツムギヤ,0
2819,9400003002853,新規,0,2021-11-02,2021-11-02,合同会社Ｐｏｌａｒｉｓ,,合同会社,岩手県,盛岡市,盛岡駅西通１丁目２番１－６０３号,,03,201,0200045,,,,,,,2021-11-02,1,,,,,ポラリス,0
2824,9430003013311,新規,0,2021-11-02,2021-11-02,合同会社ＴＨＲＩＶＥ,,合同会社,北海道,滝川市,大町５丁目６番２３号,,01,225,0730022,,,,,,,2021-11-02,1,,,,,スライブ,0
2825,9430005014324,新規,0,2021-11-02,2021-11-02,一般社団法人国際ザンギ協会,,その他の設立登記法人,北海道,札幌市中央区,北一条東１丁目６番地３シティコート北１条３０９号,,01,101,0600031,,,,,,,2021-11-02,1,,,,,コクサイザンギキョウカイ,0
2833,9460301005016,新規,0,2021-11-02,2021-11-02,株式会社Ｍ企画,,株式会社,北海道,北見市,常盤町３丁目７番２号コーポＫＩＩ１０５号,00124737,01,208,0900817,,,,,,,2021-11-02,1,,,,,エムキカク,0
2838,9470001018804,新規,0,2021-11-02,2021-11-02,株式会社われ,,株式会社,香川県,東かがわ市,西村２２４番地,,37,207,7692604,,,,,,,2021-11-02,1,,,,,ワレ,0
2844,9500003002711,新規,0,2021-11-02,2021-11-02,合同会社Ｂａｙ　Ｉｓｌｅ,,合同会社,愛媛県,松山市,針田町１１５番地８,,38,201,7900055,,,,,,,2021-11-02,1,,,,,ベイアイル,0
2848,9700150104892,新規,0,2021-11-02,2021-09-27,名古屋スポーツコミッション,,その他,愛知県,名古屋市中区,栄２丁目１１－３０セントラルビル１Ｆ,,23,106,4600008,,,,,,,2021-09-27,1,,,,,ナゴヤスポーツコミツシヨン,0
2849,9700150104967,新規,0,2021-11-02,2021-10-04,ＷｄＦｉｅｌｄ’ｓ　Ｍｕｓｉｃ　Ｌａｂ．,,その他,東京都,葛飾区,青戸４丁目２２－９第一サニーマンション５０１号,,13,122,1250062,,,,,,,2021-10-04,1,,,,,ウツドフイールズミユージツクラボ,0
