sequenceNumber,corporateNumber,process,correct,updateDate,changeDate,name,nameImageId,kind,prefectureName,cityName,streetNumber,addressImageId,prefectureCode,cityCode,postCode,addressOutside,addressOutsideImageId,closeDate,closeCause,successorCorporateNumber,changeCause,assignmentDate,latest,enName,enPrefectureName,enCityName,enAddressOutside,furigana,hihyoji
6,1010001250773,新規,0,2024-12-18,2024-12-18,Ｍ＆Ｙ株式会社,,株式会社,東京都,中央区,晴海２丁目２番４２号,,13,102,1040053,,,,,,,2024-12-18,1,,,,,エムアンドワイ,0
7,1010001250872,新規,0,2024-12-18,2024-12-18,洋悦株式会社,,株式会社,東京都,文京区,水道２丁目４番１号,,13,105,1120005,,,,,,,2024-12-18,1,,,,,ヨウエツ,0
9,1010003045817,新規,0,2024-12-18,2024-12-18,アッドサイト合同会社,,合同会社,東京都,千代田区,一番町１０番８号,,13,101,1020082,,,,,,,2024-12-18,1,,,,,アッドサイト,0
15,1010101016455,新規,0,2024-12-18,2024-12-18,株式会社和建工業,,株式会社,東京都,八王子市,石川町１６３７番地１ドミール立川ＩＩ２０３号,00137364,13,201,1920032,,,,,,,2024-12-18,1,,,,,カズケンコウギョウ,0
24,1010401186510,新規,0,2024-12-18,2024-12-18,山城家株式会社,,株式会社,東京都,港区,浜松町１丁目７番２－１２０６号,,13,103,1050013,,,,,,,2024-12-18,1,,,,,ヤマシロヤ,0
27,1010403034031,新規,0,2024-12-18,2024-12-18,四ツ谷エナジー太陽光５合同会社,,合同会社,東京都,港区,西新橋１丁目１番１号ＥＰコンサルティングサービス内,,13,103,1050003,,,,,,,2024-12-18,1,,,,,ヨツヤエナジータイヨウコウファイブ,0
30,1010501053338,新規,0,2024-12-18,2024-12-18,Ｂ‐ＩＴＳ株式会社,,株式会社,東京都,台東区,浅草橋４丁目７番２号テトスパジオ５Ｆ,,13,106,1110053,,,,,,,2024-12-18,1,,,,,ビーアイティーエス,0
57,1011001166308,新規,0,2024-12-18,2024-12-18,株式会社ＲｅＢｒｅｖｅ,,株式会社,東京都,渋谷区,神南１丁目１１番４号ＦＰＧリンクス神南５階,,13,113,1500041,,,,,,,2024-12-18,1,,,,,リブレーヴ,0
58,1011001166324,新規,0,2024-12-18,2024-12-18,株式会社ＢＥ　ＦＡＮＧ,,株式会社,東京都,渋谷区,渋谷２丁目１９－１５宮益坂ビルディング６０９,,13,113,1500002,,,,,,,2024-12-18,1,,,,,ビーファング,0
59,1011001166340,新規,0,2024-12-18,2024-12-18,エーテリウムゴールド株式会社,,株式会社,東京都,渋谷区,神宮前６丁目２３番４号桑野ビル２階,,13,113,1500001,,,,,,,2024-12-18,1,,,,,エーテリウムゴールド,0
60,1011001166349,新規,0,2024-12-18,2024-12-18,株式会社Ｈ＆ｒｕｎｗａｙ,,株式会社,東京都,渋谷区,神南１丁目１１－４ＦＧＰリンクス神南５階,,13,113,1500041,,,,,,,2024-12-18,1,,,,,エイチアンドランウェイ,0
61,1011003020529,新規,0,2024-12-18,2024-12-18,合同会社美麗堂,,合同会社,東京都,目黒区,東が丘１丁目３２番１９－２０３号,,13,110,1520021,,,,,,,2024-12-18,1,,,,,ビレイドウ,0
62,1011003020545,新規,0,2024-12-18,2024-12-18,合同会社ＳＨＩＫＩ　ＡＧＥＮＴ,,合同会社,東京都,渋谷区,神宮前６丁目２８番９号東武ビル３Ｆ３０２,,13,113,1500001,,,,,,,2024-12-18,1,,,,,シキエージェント,0
63,1011005010817,新規,0,2024-12-18,2024-12-18,一般社団法人新食原料輸出機構,,その他の設立登記法人,東京都,渋谷区,円山町５番５号Ｎａｖｉ渋谷Ｖ３階,,13,113,1500044,,,,,,,2024-12-18,1,,,,,シンショクゲンリョウユシュツキコウ,0
66,1011501031498,新規,0,2024-12-18,2024-12-18,株式会社崎陽サービス,,株式会社,東京都,荒川区,町屋１丁目３３番１２－３０１号,,13,118,1160001,,,,,,,2024-12-18,1,,,,,キヨウサービス,0
67,1011503006341,新規,0,2024-12-18,2024-12-18,Ｌｕｌｕ　ｃｌｏｔｈｉｎｇ合同会社,,合同会社,東京都,北区,田端２丁目１番２０ｅｆビル１０１号室,,13,117,1140014,,,,,,,2024-12-18,1,,,,,ルルクロージング,0
76,1012803003573,新規,0,2024-12-18,2024-12-18,Ｆｌｏｕｒｉｓｈ　Ｊｏｕｒｎｅｙ合同会社,,合同会社,東京都,武蔵村山市,中藤３丁目１０番地の１１,,13,223,2080001,,,,,,,2024-12-18,1,,,,,フローリッシュジャーニー,0
93,1030001163973,新規,0,2024-12-18,2024-12-18,株式会社Ｔａｋ‐ｚ,,株式会社,埼玉県,入間市,高倉２丁目１番７号,,11,225,3580021,,,,,,,2024-12-18,1,,,,,タクジー,0
94,1030003025684,新規,0,2024-12-18,2024-12-18,Ｈｏｉｔｉｍ合同会社,,合同会社,埼玉県,川口市,並木３丁目２３番２５号１００１室,,11,203,3320034,,,,,,,2024-12-18,1,,,,,ホイチイム,0
102,1040001136607,新規,0,2024-12-18,2024-12-18,株式会社コバヤシ,,株式会社,千葉県,船橋市,夏見台３丁目４番１５号ＳＮビル５Ｆ,,12,204,2730866,,,,,,,2024-12-18,1,,,,,コバヤシ,0
104,1040003026401,新規,0,2024-12-18,2024-12-18,千賀建設工業合同会社,,合同会社,千葉県,市川市,曽谷７丁目１５番８号,,12,203,2720832,,,,,,,2024-12-18,1,,,,,センガケンセツコウギョウ,0
107,1060001037745,新規,0,2024-12-18,2024-12-18,株式会社ＣＬＡＳＳＩＣ,,株式会社,栃木県,宇都宮市,兵庫塚町２９８番地２,,09,201,3210156,,,,,,,2024-12-18,1,,,,,クラシック,0
109,1060005010277,新規,0,2024-12-18,2024-12-18,ＢＦ事業協同組合,,その他の設立登記法人,栃木県,宇都宮市,兵庫塚３丁目４６番８号,,09,201,3210138,,,,,,,2024-12-18,1,,,,,ビーエフ,0
114,1080403005166,新規,0,2024-12-18,2024-12-18,合同会社ミヤビコーポレーション,,合同会社,静岡県,掛川市,杉谷１丁目８番２４号サンハイム和田２－Ａ,,22,213,4360017,,,,,,,2024-12-18,1,,,,,ミヤビコーポレーション,0
122,1110001038928,新規,0,2024-12-18,2024-12-18,株式会社ＧｏｏＴｈ,,株式会社,新潟県,長岡市,北山１丁目７２番地２,,15,202,9402114,,,,,,,2024-12-18,1,,,,,グース,0
128,1120001271115,新規,0,2024-12-18,2024-12-18,Ａｒｏｍａｔｉｍｅ株式会社,,株式会社,大阪府,大阪市住之江区,御崎１丁目１１番１９－２１２,,27,125,5590013,,,,,,,2024-12-18,1,,,,,アロマタイム,0
129,1120001271172,新規,0,2024-12-18,2024-12-18,株式会社９９Ｅｎｔｅｒｔａｉｎｍｅｎｔ,,株式会社,大阪府,大阪市西区,江戸堀１丁目２１番５号,,27,106,5500002,,,,,,,2024-12-18,1,,,,,ククエンターテイメント,0
130,1120001271214,新規,0,2024-12-18,2024-12-18,株式会社Ｂｌｏｏｍ,,株式会社,大阪府,大阪市城東区,今福西３丁目１番１０号,,27,118,5360004,,,,,,,2024-12-18,1,,,,,ブルーム,0
131,1120001271230,新規,0,2024-12-18,2024-12-18,株式会社フロムワン,,株式会社,大阪府,大阪市中央区,船場中央２丁目１番４号４号館３１３西,,27,128,5410055,,,,,,,2024-12-18,1,,,,,フロムワン,0
132,1120001271239,新規,0,2024-12-18,2024-12-18,株式会社ＨＩｉＩＲＯ,,株式会社,大阪府,大阪市西区,京町堀３丁目１番３－１３０３号,,27,106,5500003,,,,,,,2024-12-18,1,,,,,ヒイロ,0
133,1120001271247,新規,0,2024-12-18,2024-12-18,株式会社スリーオン,,株式会社,大阪府,大阪市城東区,中浜２丁目９番３１号,,27,118,5360024,,,,,,,2024-12-18,1,,,,,スリーオン,0
134,1120001271255,新規,0,2024-12-18,2024-12-18,株式会社ＮＡＯ‐ＴＥＣ,,株式会社,大阪府,大阪市淀川区,十八条１丁目１１番１８号,,27,123,5320001,,,,,,,2024-12-18,1,,,,,ナオテック,0
137,1120003028117,新規,0,2024-12-18,2024-12-18,合同会社ＨＡＷ,,合同会社,大阪府,大阪市西区,新町１丁目２１番８－２７０６号,,27,106,5500013,,,,,,,2024-12-18,1,,,,,エイチエーダブリュウ,0
138,1120003028166,新規,0,2024-12-18,2024-12-18,合同会社ラクーンドッグ,,合同会社,大阪府,大阪市東淀川区,東中島１丁目４番８－９０２号,,27,114,5330033,,,,,,,2024-12-18,1,,,,,ラクーンドッグ,0
142,1120101070771,新規,0,2024-12-18,2024-12-18,株式会社サンエイト,,株式会社,大阪府,堺市中区,深阪４丁４番５号,,27,142,5998253,,,,,,,2024-12-18,1,,,,,サンエイト,0
145,1120901050188,新規,0,2024-12-18,2024-12-18,株式会社ウエスト,,株式会社,大阪府,豊中市,稲津町２丁目１番２３号４０１号室エル・アイ・エス豊中稲津ビル,,27,203,5610854,,,,,,,2024-12-18,1,,,,,ウエスト,0
146,1120903005470,新規,0,2024-12-18,2024-12-18,合同会社太陽,,合同会社,大阪府,箕面市,西宿１丁目８－２２,,27,220,5620034,,,,,,,2024-12-18,1,,,,,タイヨウ,0
159,1140001136786,新規,0,2024-12-18,2024-12-18,株式会社ＥＳＣ,,株式会社,兵庫県,神戸市兵庫区,福原町７－５－１Ｆ,,28,105,6520036,,,,,,,2024-12-18,1,,,,,イーエスシー,0
163,1140003021425,新規,0,2024-12-18,2024-12-18,合同会社ユニヴェール,,合同会社,兵庫県,明石市,魚住町清水５３１番地の１０パークハイム１０３号,,28,203,6740074,,,,,,,2024-12-18,1,,,,,ユニヴェール,0
172,1180001164577,新規,0,2024-12-18,2024-12-18,Ｉ．Ｓ．インターナショナルジャパン株式会社,,株式会社,愛知県,名古屋市東区,泉２丁目２８番２－１１０２号,,23,102,4610001,,,,,,,2024-12-18,1,,,,,アイエスインターナショナルジャパン,0
173,1180001164619,新規,0,2024-12-18,2024-12-18,株式会社ラウレア,,株式会社,愛知県,名古屋市緑区,大高町字伊賀殿１２番地の１（鳴海サンハイツ４１１号）,,23,114,4598001,,,,,,,2024-12-18,1,,,,,ラウレア,0
176,1180005020859,新規,0,2024-12-18,2024-12-18,一般社団法人ＦＥＡ,,その他の設立登記法人,愛知県,名古屋市中区,丸の内２丁目１８番５号サン・マルノウチビル５０１号,,23,106,4600002,,,,,,,2024-12-18,1,,,,,エフイーエー,0
180,1180301039339,新規,0,2024-12-18,2024-12-18,株式会社ＣＲＥＡＴＩＶＥ　ＬＥＡＦ,,株式会社,愛知県,豊田市,御幸本町４丁目２０５番地６,,23,211,4730901,,,,,,,2024-12-18,1,,,,,クリエイティブリーフ,0
181,1180301039347,新規,0,2024-12-18,2024-12-18,Ｄｏｕｂｌｅ　Ｒａｉｎｂｏｗ株式会社,,株式会社,愛知県,豊田市,浄水町原山３２０番地２Ｔステージ浄水駅前ルミナリータワー１９０２号,,23,211,4700343,,,,,,,2024-12-18,1,,,,,ダブルレインボー,0
182,1190001031875,新規,0,2024-12-18,2024-12-18,ＳｃｒｉｐｔＸ株式会社,,株式会社,三重県,津市,白塚町４４８６,,24,201,5140101,,,,,,,2024-12-18,1,,,,,スクリプトエックス,0
203,1290001108325,新規,0,2024-12-18,2024-12-18,株式会社オリジン,,株式会社,福岡県,久留米市,国分町１４９７番地３３,,40,203,8390863,,,,,,,2024-12-18,1,,,,,オリジン,0
204,1290001108341,新規,0,2024-12-18,2024-12-18,株式会社Ｌｉｅｂｅ,,株式会社,福岡県,福岡市中央区,平尾１丁目１３番８－１２０３号,,40,133,8100014,,,,,,,2024-12-18,1,,,,,リエベ,0
206,1290003016187,新規,0,2024-12-18,2024-12-18,合同会社ライト・ワン,,合同会社,福岡県,三潴郡大木町,大字笹渕１０１０番地,,40,522,8300401,,,,,,,2024-12-18,1,,,,,ライトワン,0
209,1300001014018,新規,0,2024-12-18,2024-12-18,シンエイホールディングス株式会社,,株式会社,佐賀県,神埼市,千代田町崎村５５１番地,,41,210,8420065,,,,,,,2024-12-18,1,,,,,シンエイホールディングス,0
211,1330001032743,新規,0,2024-12-18,2024-12-18,株式会社ＳＫ　Ｄｉｎｅｒ,,株式会社,熊本県,熊本市北区,武蔵ケ丘４丁目１８番２６号レジデンシャル武蔵ヶ丘７０９,,43,105,8618001,,,,,,,2024-12-18,1,,,,,エスケーダイナー,0
218,1370001052044,新規,0,2024-12-18,2024-12-18,株式会社ＰＡＬＵＸホールディングス,,株式会社,宮城県,仙台市若林区,蒲町東１６番地の３,,04,103,9840016,,,,,,,2024-12-18,1,,,,,パルックスホールディングス,0
225,1400001016887,新規,0,2024-12-18,2024-12-18,株式会社Ｃｌａｒｉｔｙ,,株式会社,岩手県,遠野市,早瀬町３丁目１１番２１号,,03,208,0280542,,,,,,,2024-12-18,1,,,,,クラリティ,0
226,1410001014015,新規,0,2024-12-18,2024-12-18,金昇商事株式会社,,株式会社,秋田県,横手市,十文字町植田字羽場７１番地２,,05,203,0190513,,,,,,,2024-12-18,1,,,,,キンショウショウジ,0
232,1430001093296,新規,0,2024-12-18,2024-12-18,株式会社ＣＣ,,株式会社,北海道,札幌市中央区,南三条西３丁目８番地１エテルノビル８Ｆ,,01,101,0600063,,,,,,,2024-12-18,1,,,,,シーシー,0
234,1430003017088,新規,0,2024-12-18,2024-12-18,Ｔ．Ｍ．Ｔ合同会社,,合同会社,北海道,日高郡新ひだか町,静内旭町１丁目１７番５号リッツハウスＩＩ２０５号室,00137376,01,610,0560003,,,,,,,2024-12-18,1,,,,,ティーエムティー,0
237,1460301005262,新規,0,2024-12-18,2024-12-18,株式会社Ｗｈｉｔｅ　Ｓｕｎ　Ｆｌｏｗｅｒ,,株式会社,北海道,北見市,山下町４丁目４番地７,,01,208,0900037,,,,,,,2024-12-18,1,,,,,ホワイトサンフラワー,0
238,1470001020503,新規,0,2024-12-18,2024-12-18,株式会社咲羽花,,株式会社,香川県,高松市,香川町浅野２１９番地４,,37,201,7611703,,,,,,,2024-12-18,1,,,,,サワカ,0
239,1480001012680,新規,0,2024-12-18,2024-12-18,株式会社あゆむ,,株式会社,徳島県,阿波市,市場町大野島字王子前２７番地,,36,206,7711627,,,,,,,2024-12-18,1,,,,,アユム,0
240,1490005006967,新規,0,2024-12-18,2024-12-18,一般社団法人ジョン万スピリット研究会,,その他の設立登記法人,高知県,四万十市,竹島９０６番地１,,39,210,7870151,,,,,,,2024-12-18,1,,,,,ジョンマンスピリットケンキュウカイ,0
247,2010001250822,新規,0,2024-12-18,2024-12-18,株式会社ＪａＭ,,株式会社,東京都,中央区,新川２丁目７番１０－１００３号,,13,102,1040033,,,,,,,2024-12-18,1,,,,,ジャム,0
248,2010001250830,新規,0,2024-12-18,2024-12-18,株式会社在宅医療サポートセンター,,株式会社,東京都,中央区,日本橋茅場町２丁目４－１,,13,102,1030025,,,,,,,2024-12-18,1,,,,,ザイタクイリョウサポートセンター,0
249,2010001250847,新規,0,2024-12-18,2024-12-18,築地まちづくり株式会社,,株式会社,東京都,中央区,日本橋室町２丁目１番１号,,13,102,1030022,,,,,,,2024-12-18,1,,,,,ツキジマチヅクリ,0
252,2010005039270,新規,0,2024-12-18,2024-12-18,一般社団法人屋内緑化推進協議会,,その他の設立登記法人,東京都,千代田区,神田須田町１丁目１２番山萬ビル４０２号,,13,101,1010041,,,,,,,2024-12-18,1,,,,,オクナイリョッカスイシンキョウギカイ,0
258,2010401186996,新規,0,2024-12-18,2024-12-18,株式会社ＬＯＶＥ＆ＰＥＡＣＥ,,株式会社,東京都,港区,芝浦４丁目２０番２号１９０５,,13,103,1080023,,,,,,,2024-12-18,1,,,,,ラブアンドピイス,0
259,2010401187128,新規,0,2024-12-18,2024-12-18,株式会社ＬＡＢＯ,,株式会社,東京都,港区,元赤坂１丁目２番７号ＡＫＡＳＡＫＡ・Ｋ－ＴＯＷＥＲ１０Ｆ,,13,103,1070051,,,,,,,2024-12-18,1,,,,,ラボ,0
261,2010405023881,新規,0,2024-12-18,2024-12-18,一般社団法人人事労務マイスター協会,,その他の設立登記法人,東京都,港区,北青山１丁目３番１号アールキューブ青山３階,,13,103,1070061,,,,,,,2024-12-18,1,,,,,ジンジロウムマイスターキョウカイ,0
265,2010601066486,新規,0,2024-12-18,2024-12-18,ＯＰＭ株式会社,,株式会社,東京都,墨田区,両国１丁目３番１１号アオヤギ両国ビル３階,,13,107,1300026,,,,,,,2024-12-18,1,,,,,オーピーエム,0
267,2010603011275,新規,0,2024-12-18,2024-12-18,ライズ合同会社,,合同会社,東京都,江東区,青海２丁目７－４－５１０号室,,13,108,1350064,,,,,,,2024-12-18,1,,,,,ライズ,0
268,2010701046990,新規,0,2024-12-18,2024-12-18,フューチャーエクス株式会社,,株式会社,東京都,品川区,西五反田２丁目１３－１プレジデントハイツ五反田３０２号室,,13,109,1410031,,,,,,,2024-12-18,1,,,,,フューチャーエクス,0
269,2010701047007,新規,0,2024-12-18,2024-12-18,Ｊａｐａｎ　Ｒｅｃｒｕｉｔｉｎｇ　Ｐａｒｔｎｅｒｓ株式会社,,株式会社,東京都,品川区,東品川４丁目１２－８品川シーサイドイーストタワー１５Ｆ,,13,109,1400002,,,,,,,2024-12-18,1,,,,,ジャパンリクルーティングパートナーズ,0
272,2010801035679,新規,0,2024-12-18,2024-12-18,株式会社ワイズカンパニー,,株式会社,東京都,大田区,下丸子２丁目１３番２－７０６号,,13,111,1460092,,,,,,,2024-12-18,1,,,,,ワイズカンパニー,0
282,2011001166356,新規,0,2024-12-18,2024-12-18,ＭＹ　ＴＲＡＩＮＥＲ株式会社,,株式会社,東京都,渋谷区,猿楽町１２番２９号,,13,113,1500033,,,,,,,2024-12-18,1,,,,,マイトレーナー,0
283,2011001166430,新規,0,2024-12-18,2024-12-18,株式会社アイビーインターナショナル,,株式会社,東京都,渋谷区,渋谷２丁目９番８号日総第２５ビル８階,,13,113,1500002,,,,,,,2024-12-18,1,,,,,アイビーインターナショナル,0
284,2011003020528,新規,0,2024-12-18,2024-12-18,合同会社Ｌｉｌｙ,,合同会社,東京都,目黒区,柿の木坂１丁目２－３－５０７,,13,110,1520022,,,,,,,2024-12-18,1,,,,,リリー,0
289,2011101109966,新規,0,2024-12-18,2024-12-18,株式会社サニーブロッサム,,株式会社,東京都,新宿区,西新宿３丁目３番１３号西新宿水間ビル２Ｆ,,13,104,1600023,,,,,,,2024-12-18,1,,,,,サニーブロッサム,0
296,2011803006602,新規,0,2024-12-18,2024-12-18,合同会社Ｎｅｘｔ　Ｃａｎｖａｓ,,合同会社,東京都,足立区,綾瀬４丁目１番３号ＳｉｒｉｕｓＡｙａｓｅＩＩ２０３,00137371,13,121,1200005,,,,,,,2024-12-18,1,,,,,ネクストキャンバス,0
306,2013301053531,新規,0,2024-12-18,2024-12-18,株式会社ＨＹ商事,,株式会社,東京都,豊島区,北大塚１丁目２２番８－４０４号,,13,116,1700004,,,,,,,2024-12-18,1,,,,,エイチワイショウジ,0
311,2021001084037,新規,0,2024-12-18,2024-12-18,防犯・会社承継株式会社,,株式会社,神奈川県,足柄上郡山北町,向原２３番地,,14,364,2580111,,,,,,,2024-12-18,1,,,,,ボウハンカイシャショウケイ,0
315,2030001163997,新規,0,2024-12-18,2024-12-18,株式会社ＨＯＵＫＡＧＯ,,株式会社,埼玉県,ふじみ野市,清見４丁目３番地１４,,11,245,3560002,,,,,,,2024-12-18,1,,,,,ホウカゴ,0
316,2030001164005,新規,0,2024-12-18,2024-12-18,サムファンシスコ株式会社,,株式会社,埼玉県,越谷市,宮本町２丁目１１８番地８,,11,222,3430806,,,,,,,2024-12-18,1,,,,,サムファンシスコ,0
317,2030001164021,新規,0,2024-12-18,2024-12-18,株式会社ｎａｕｓ,,株式会社,埼玉県,南埼玉郡宮代町,大字国納１３４－５,,11,442,3450834,,,,,,,2024-12-18,1,,,,,ナウス,0
333,2040001136622,新規,0,2024-12-18,2024-12-18,株式会社Ａｇｉｌｉｔｙ　Ｔｏｋｙｏ,,株式会社,千葉県,松戸市,新松戸北１丁目１番地新松戸ハイツ３０４号,,12,207,2700032,,,,,,,2024-12-18,1,,,,,アジリティトウキョウ,0
334,2040001136630,新規,0,2024-12-18,2024-12-18,株式会社ナガイＪＰＮ,,株式会社,千葉県,船橋市,金杉８丁目９番２５－３１５号,,12,204,2730853,,,,,,,2024-12-18,1,,,,,ナガイジェイピーエヌ,0
337,2040003026359,新規,0,2024-12-18,2024-12-18,合同会社塾の金本,,合同会社,千葉県,千葉市美浜区,真砂５丁目２０－３－７０３,,12,106,2610011,,,,,,,2024-12-18,1,,,,,ジュクノカネモト,0
338,2040003026375,新規,0,2024-12-18,2024-12-18,Ｂｕｃｈｉｋｏ‐Ｈｉｎａ合同会社,,合同会社,千葉県,市川市,鬼高２丁目１２－３パールハイム市川３０１,,12,203,2720015,,,,,,,2024-12-18,1,,,,,ブチコヒナ,0
339,2040003026409,新規,0,2024-12-18,2024-12-18,合同会社ＤＭ２３号,,合同会社,千葉県,柏市,柏４丁目５番１０号,,12,217,2770005,,,,,,,2024-12-18,1,,,,,ディーエムニジュウサンゴウ,0
346,2080001026670,新規,0,2024-12-18,2024-12-18,株式会社博文,,株式会社,静岡県,静岡市清水区,八木間町４７２‐２スパーブ八木間１０３,,22,103,4240212,,,,,,,2024-12-18,1,,,,,ハクブン,0
348,2080403005165,新規,0,2024-12-18,2024-12-18,合同会社つきもと,,合同会社,静岡県,掛川市,掛川１０７４－１,,22,213,4360079,,,,,,,2024-12-18,1,,,,,ツキモト,0
349,2090001019046,新規,0,2024-12-18,2024-12-18,スマイルリンク未来株式会社,,株式会社,山梨県,甲府市,国玉町１０６２番地３スパイラルビル１－Ａ号室,,19,201,4000815,,,,,,,2024-12-18,1,,,,,スマイルリンクミライ,0
351,2100005013266,新規,0,2024-12-18,2024-12-18,一般社団法人日本マリファナ研究会,,その他の設立登記法人,長野県,塩尻市,大字北小野４１０７－５５,,20,215,3990651,,,,,,,2024-12-18,1,,,,,ニホンマリファナケンキュウカイ,0
367,2120001271122,新規,0,2024-12-18,2024-12-18,株式会社ウォッチマン,,株式会社,大阪府,大阪市中央区,高津１丁目１０番１８号栄光ビル２０１号室,,27,128,5420072,,,,,,,2024-12-18,1,,,,,ウォッチマン,0
368,2120001271205,新規,0,2024-12-18,2024-12-18,株式会社セフィロス,,株式会社,大阪府,大阪市平野区,流町３丁目８番１５号,,27,126,5470032,,,,,,,2024-12-18,1,,,,,セフィロス,0
369,2120001271213,新規,0,2024-12-18,2024-12-18,株式会社ファインテックラボ,,株式会社,大阪府,大阪市中央区,南船場３丁目２番２２号おおきに南船場ビル２０５,,27,128,5420081,,,,,,,2024-12-18,1,,,,,ファインテックラボ,0
370,2120001271221,新規,0,2024-12-18,2024-12-18,株式会社オフィス６０６,,株式会社,大阪府,大阪市淀川区,西中島３丁目８番１５号ＥＰＯ新大阪ビルディング６０６号,,27,123,5320011,,,,,,,2024-12-18,1,,,,,オフィスロクマルロク,0
371,2120001271246,新規,0,2024-12-18,2024-12-18,株式会社コネクションズ,,株式会社,大阪府,大阪市浪速区,恵美須東１丁目２２番１８号,,27,111,5560002,,,,,,,2024-12-18,1,,,,,コネクションズ,0
375,2120003028173,新規,0,2024-12-18,2024-12-18,合同会社エンカウント,,合同会社,大阪府,大阪市中央区,博労町４丁目７－１－７０６,,27,128,5410059,,,,,,,2024-12-18,1,,,,,エンカウント,0
376,2120005024658,新規,0,2024-12-18,2024-12-18,一般社団法人日本新華人商会,,その他の設立登記法人,大阪府,大阪市東淀川区,東中島１丁目２０－１２－５１９室,,27,114,5330033,,,,,,,2024-12-18,1,,,,,ニホンシンカジンショウカイ,0
377,2120101070770,新規,0,2024-12-18,2024-12-18,株式会社ｂｒａｎｃｈ,,株式会社,大阪府,泉大津市,池園町１４番１２号,,27,206,5950017,,,,,,,2024-12-18,1,,,,,ブランチ,0
378,2120101070779,新規,0,2024-12-18,2024-12-18,ＡＣＯ株式会社,,株式会社,大阪府,岸和田市,西大路町２０３番地の６３,,27,202,5960802,,,,,,,2024-12-18,1,,,,,アコー,0
385,2130001078624,新規,0,2024-12-18,2024-12-18,株式会社大有,,株式会社,京都府,京都市中京区,河原町通二条下る一之船入町３７６番地クロトビル,,26,104,6040924,,,,,,,2024-12-18,1,,,,,オオアリ,0
391,2140001136752,新規,0,2024-12-18,2024-12-18,マナエンタープライズ株式会社,,株式会社,兵庫県,三木市,志染町中自由が丘２丁目４５８－２,,28,215,6730552,,,,,,,2024-12-18,1,,,,,マナエンタープライズ,0
394,2140003021424,新規,0,2024-12-18,2024-12-18,合同会社ａｍａＢｅｅ,,合同会社,兵庫県,尼崎市,尾浜町３丁目２９番１７号１Ｆ,,28,202,6610022,,,,,,,2024-12-18,1,,,,,アマビー,0
398,2150003003454,新規,0,2024-12-18,2024-12-18,合同会社まいろ,,合同会社,奈良県,葛城市,木戸８４番地１１,,29,211,6392161,,,,,,,2024-12-18,1,,,,,マイロ,0
402,2180001164601,新規,0,2024-12-18,2024-12-18,株式会社ふそう防災,,株式会社,愛知県,丹羽郡扶桑町,大字高雄字中郷３４７番地,,23,362,4800102,,,,,,,2024-12-18,1,,,,,フソウボウサイ,0
403,2180001164618,新規,0,2024-12-18,2024-12-18,株式会社魚輝,,株式会社,愛知県,名古屋市中村区,鴨付町１丁目１１番地の１藤和シティホームズ鴨付１０４号,,23,105,4530843,,,,,,,2024-12-18,1,,,,,ウオキ,0
412,2180301039346,新規,0,2024-12-18,2024-12-18,宮雅株式会社,,株式会社,愛知県,安城市,根崎町南根２０８番地１,,23,212,4441211,,,,,,,2024-12-18,1,,,,,ミヤマサ,0
414,2190003004886,新規,0,2024-12-18,2024-12-18,ＫＭＴＴ合同会社,,合同会社,三重県,三重郡菰野町,大字菰野１０１３番地１４,,24,341,5101233,,,,,,,2024-12-18,1,,,,,ケーエムティーティー,0
416,2200001043232,新規,0,2024-12-18,2024-12-18,ｕｐ平方株式会社,,株式会社,岐阜県,大垣市,大島町１丁目１５８番地パナハイツ大島２階Ｂ２０５号室,,21,202,5030001,,,,,,,2024-12-18,1,,,,,アップヘイホウ,0
417,2200001043240,新規,0,2024-12-18,2024-12-18,好士多株式会社,,株式会社,岐阜県,高山市,冬頭町１４７９－２,,21,203,5060001,,,,,,,2024-12-18,1,,,,,ヨシタ,0
424,2220001026383,新規,0,2024-12-18,2024-12-18,ＨＯＰＥ株式会社,,株式会社,石川県,金沢市,尾張町２丁目１６番３号,,17,201,9200902,,,,,,,2024-12-18,1,,,,,ホープ,0
426,2240001064258,新規,0,2024-12-18,2024-12-18,株式会社シックスキット,,株式会社,広島県,広島市中区,八丁堀１番８号八丁堀ＧＲＩＴ７階,,34,101,7300013,,,,,,,2024-12-18,1,,,,,シックスキット,0
427,2240003006984,新規,0,2024-12-18,2024-12-18,合同会社桑原検査,,合同会社,広島県,尾道市,因島中庄町３３９１番地３,,34,205,7222211,,,,,,,2024-12-18,1,,,,,クワバラケンサ,0
428,2240005015868,新規,0,2024-12-18,2024-12-18,特定非営利活動法人郷野の郷運営委員会,,その他の設立登記法人,広島県,安芸高田市,吉田町桂２３４,,34,214,7310534,,,,,,,2024-12-18,1,,,,,ゴウノノサトウンエイイインカイ,0
446,2290001108308,新規,0,2024-12-18,2024-12-18,株式会社信州屋,,株式会社,福岡県,福岡市南区,若久６丁目４２番２号,,40,134,8150042,,,,,,,2024-12-18,1,,,,,シンシュウヤ,0
447,2290001108316,新規,0,2024-12-18,2024-12-18,株式会社ボンボヤージュ,,株式会社,福岡県,福岡市東区,水谷３丁目２８番４０－２号,,40,131,8130041,,,,,,,2024-12-18,1,,,,,,0
448,2290001108324,新規,0,2024-12-18,2024-12-18,株式会社パルスケア,,株式会社,福岡県,福岡市城南区,干隈２丁目４４番６－３０４号,,40,136,8140132,,,,,,,2024-12-18,1,,,,,パルスケア,0
451,2290003016186,新規,0,2024-12-18,2024-12-18,合同会社電繋,,合同会社,福岡県,太宰府市,国分５丁目１７番３１号,,40,221,8180132,,,,,,,2024-12-18,1,,,,,デンケイ,0
452,2290003016194,新規,0,2024-12-18,2024-12-18,合同会社パワーバンクアルテミス１号,,合同会社,福岡県,糸島市,油比１０－４,,40,230,8191115,,,,,,,2024-12-18,1,,,,,パワーバンクアルテミスイチゴウ,0
453,2290005019575,新規,0,2024-12-18,2024-12-18,一般社団法人つくしのくに,,その他の設立登記法人,福岡県,筑紫野市,大字吉木２５０８番地１,,40,217,8180004,,,,,,,2024-12-18,1,,,,,ツクシノクニ,0
454,2290801031130,新規,0,2024-12-18,2024-12-18,ＭＦＣコネクション株式会社,,株式会社,福岡県,遠賀郡岡垣町,野間南７番６号ウェイホームやまのくちＡ－１０１,,40,383,8114239,,,,,,,2024-12-18,1,,,,,エムエフシーコネクション,0
456,2300001014017,新規,0,2024-12-18,2024-12-18,偕美自動車株式会社,,株式会社,佐賀県,西松浦郡有田町,下山谷乙１５４番地３,,41,401,8494143,,,,,,,2024-12-18,1,,,,,ミナミジドウシャ,0
460,2330001032742,新規,0,2024-12-18,2024-12-18,株式会社Ｗｅｂ　Ｇｒａｖｅ,,株式会社,熊本県,熊本市北区,高平１丁目３２番１１号,,43,105,8600085,,,,,,,2024-12-18,1,,,,,ウェブグレイブ,0
465,2330003010688,新規,0,2024-12-18,2024-12-18,ライトカンパニー合同会社,,合同会社,熊本県,熊本市北区,植木町正清５５３番地,,43,105,8610117,,,,,,,2024-12-18,1,,,,,ライトカンパニー,0
483,2400001016886,新規,0,2024-12-18,2024-12-18,株式会社雉,,株式会社,岩手県,滝沢市,穴口４０８番地１０,,03,216,0200633,,,,,,,2024-12-18,1,,,,,キジ,0
485,2420001018955,新規,0,2024-12-18,2024-12-18,株式会社青南ホールディングス,,株式会社,青森県,弘前市,大字神田５丁目４番地５,,02,202,0368061,,,,,,,2024-12-18,1,,,,,セイナンホールディングス,0
491,2430001093279,新規,0,2024-12-18,2024-12-18,株式会社ＳＣＵＭＬＩＮＥ,,株式会社,北海道,札幌市北区,新琴似五条１６丁目４番１０号,,01,102,0010905,,,,,,,2024-12-18,1,,,,,スカムライン,0
492,2430001093287,新規,0,2024-12-18,2024-12-18,株式会社翔琉,,株式会社,北海道,室蘭市,母恋南町２丁目６２番地９０,,01,205,0510003,,,,,,,2024-12-18,1,,,,,ショウリュウ,0
495,2430003017079,新規,0,2024-12-18,2024-12-18,合同会社ＴＡＣ・ＡＵＴＯサービス,,合同会社,北海道,札幌市東区,北三十条東５丁目３番１３号,,01,103,0650030,,,,,,,2024-12-18,1,,,,,タックオートサービス,0
496,2430005015122,新規,0,2024-12-18,2024-12-18,特定非営利活動法人まはろ,,その他の設立登記法人,北海道,札幌市手稲区,西宮の沢一条４丁目１０番１１号フロントパーク西宮の沢Ａ号,,01,109,0060001,,,,,,,2024-12-18,1,,,,,マハロ,0
507,3010001250821,新規,0,2024-12-18,2024-12-18,株式会社アセント・アセットマネジメント,,株式会社,東京都,中央区,銀座１丁目２２番１１号銀座大竹ビジデンス２Ｆ,,13,102,1040061,,,,,,,2024-12-18,1,,,,,アセントアセットマネジメント,0
510,3010005039286,新規,0,2024-12-18,2024-12-18,一般社団法人博結会,,その他の設立登記法人,東京都,文京区,本駒込１丁目２３番１０－１０４号,,13,105,1130021,,,,,,,2024-12-18,1,,,,,ハクユウカイ,0
515,3010401187077,新規,0,2024-12-18,2024-12-18,株式会社ＷＡＢＯ,,株式会社,東京都,港区,新橋３丁目２１番９号Ｂ２Ｆ,,13,103,1050004,,,,,,,2024-12-18,1,,,,,ダブリューエービーオー,0
516,3010401187110,新規,0,2024-12-18,2024-12-18,Ｈ＆Ｈマネジメント株式会社,,株式会社,東京都,港区,虎ノ門５丁目１３番１号虎ノ門４０ＭＴビル７階,,13,103,1050001,,,,,,,2024-12-18,1,,,,,エイチアンドエイチマネジメント,0
517,3010401187127,新規,0,2024-12-18,2024-12-18,Ｒ＆Ｓ株式会社,,株式会社,東京都,港区,元赤坂１丁目２番７号ＡＫＡＳＡＫＡ・Ｋ－ＴＯＷＥＲ１０Ｆ,,13,103,1070051,,,,,,,2024-12-18,1,,,,,アールアンドエス,0
522,3010405023914,新規,0,2024-12-18,2024-12-18,一般社団法人四ツ谷エナジー太陽光５,,その他の設立登記法人,東京都,港区,西新橋１丁目１番１号ＥＰコンサルティングサービス内,,13,103,1050003,,,,,,,2024-12-18,1,,,,,ヨツヤエナジータイヨウコウファイブ,0
527,3010701047006,新規,0,2024-12-18,2024-12-18,ＦＯＲＳ株式会社,,株式会社,東京都,品川区,東五反田２丁目２１番１１－２０６号,,13,109,1410022,,,,,,,2024-12-18,1,,,,,フォーエス,0
529,3010803005209,新規,0,2024-12-18,2024-12-18,アンドスマイル合同会社,,合同会社,東京都,大田区,上池台２丁目２１番１３号,,13,111,1450064,,,,,,,2024-12-18,1,,,,,アンドスマイル,0
530,3010901056517,新規,0,2024-12-18,2024-12-18,株式会社ポーラスタア,,株式会社,東京都,世田谷区,喜多見４丁目３３番１３号,,13,112,1570067,,,,,,,2024-12-18,1,,,,,ポーラスタア,0
537,3011001166289,新規,0,2024-12-18,2024-12-18,株式会社ＵＮＩＴＡＲＹ,,株式会社,東京都,渋谷区,恵比寿西２丁目４番８号ウィンド恵比寿ビル８Ｆ,,13,113,1500021,,,,,,,2024-12-18,1,,,,,ユニタリー,0
538,3011001166322,新規,0,2024-12-18,2024-12-18,株式会社サードグロースファーム,,株式会社,東京都,渋谷区,代々木３丁目２８番６号,,13,113,1510053,,,,,,,2024-12-18,1,,,,,サードグロースファーム,0
539,3011001166347,新規,0,2024-12-18,2024-12-18,りんや出版株式会社,,株式会社,東京都,渋谷区,渋谷２丁目１９－１５宮益坂ビルディング６０９,,13,113,1500002,,,,,,,2024-12-18,1,,,,,リンヤシュッパン,0
540,3011001166355,新規,0,2024-12-18,2024-12-18,株式会社セールスリッチ,,株式会社,東京都,渋谷区,円山町５番５号渋谷橋本ビル１階,,13,113,1500044,,,,,,,2024-12-18,1,,,,,セールスリッチ,0
541,3011001166512,新規,0,2024-12-18,2024-12-18,播磨マシナリー株式会社,,株式会社,東京都,渋谷区,渋谷２丁目１９－１５宮益坂ビルディング６０９,,13,113,1500002,,,,,,,2024-12-18,1,,,,,ハリママシナリー,0
543,3011003020535,新規,0,2024-12-18,2024-12-18,ＴＯＭＩＮＥＫＯ合同会社,,合同会社,東京都,目黒区,下目黒３丁目１０番３４,,13,110,1530064,,,,,,,2024-12-18,1,,,,,トミネコ,0
544,3011003020551,新規,0,2024-12-18,2024-12-18,ＳＴＥＰ合同会社,,合同会社,東京都,渋谷区,代々木１丁目２－９－３０２,,13,113,1510053,,,,,,,2024-12-18,1,,,,,ステップ,0
547,3011101109981,新規,0,2024-12-18,2024-12-18,株式会社ジェイ・ケイ・ジェイ,,株式会社,東京都,新宿区,下宮比町１番４号,,13,104,1620822,,,,,,,2024-12-18,1,,,,,ジェイケイジェイ,0
548,3011103015286,新規,0,2024-12-18,2024-12-18,合同会社蒼月,,合同会社,東京都,新宿区,西新宿３丁目４番１１号アピス西新宿三丁目１１０１,,13,104,1600023,,,,,,,2024-12-18,1,,,,,アオツキ,0
549,3011105011259,新規,0,2024-12-18,2024-12-18,一般社団法人ＫＡＨ　Ｏｎｅ,,その他の設立登記法人,東京都,新宿区,四谷２丁目９番地１５東京ユナイテッド綜合事務所内,,13,104,1600004,,,,,,,2024-12-18,1,,,,,ケイエイエイチワン,0
553,3011505002667,新規,0,2024-12-18,2024-12-18,社会保険労務士法人ＡＴＬＡＳ,,その他の設立登記法人,東京都,北区,王子１丁目２２番１５号コープ野村王子８０１号,,13,117,1140002,,,,,,,2024-12-18,1,,,,,アトラス,0
557,3011801045337,新規,0,2024-12-18,2024-12-18,株式会社ＴＡＫＵＭＩ,,株式会社,東京都,足立区,南花畑２丁目２７－１３,,13,121,1210062,,,,,,,2024-12-18,1,,,,,タクミ,0
560,3011803006601,新規,0,2024-12-18,2024-12-18,ＨＡＯ　ＢＲＯＳ．ＨＯＵＳＥ合同会社,,合同会社,東京都,葛飾区,高砂３丁目２０番７,,13,122,1250054,,,,,,,2024-12-18,1,,,,,ハオブラザーズハスス,0
564,3012401042583,新規,0,2024-12-18,2024-12-18,株式会社ＳＨＩＬＯ,,株式会社,東京都,調布市,東つつじケ丘３丁目１３番地１０イーストパート１・２０１,,13,208,1820005,,,,,,,2024-12-18,1,,,,,シロ,0
573,3013301053539,新規,0,2024-12-18,2024-12-18,ブイペイシア株式会社,,株式会社,東京都,豊島区,南大塚３丁目３９番１４号大塚南ビル２階,,13,116,1700005,,,,,,,2024-12-18,1,,,,,ブイペイシア,0
579,3021001083987,新規,0,2024-12-18,2024-12-18,株式会社伶,,株式会社,神奈川県,秦野市,南矢名２２２３番地の４東海ビル１１３Ｄ,,14,211,2570003,,,,,,,2024-12-18,1,,,,,レイ,0
583,3021003015369,新規,0,2024-12-18,2024-12-18,ＡＬＰＳ　ＲＥＳＯＲＴ合同会社,,合同会社,神奈川県,相模原市南区,上鶴間本町８丁目３６番１４号,,14,153,2520318,,,,,,,2024-12-18,1,,,,,アルプスリゾート,0
586,3030001163922,新規,0,2024-12-18,2024-12-18,株式会社Ｚｉｏｎ,,株式会社,埼玉県,さいたま市大宮区,大門町２丁目１１１番地３,,11,103,3300846,,,,,,,2024-12-18,1,,,,,ザイオン,0
591,3030003025708,新規,0,2024-12-18,2024-12-18,合同会社くるみ,,合同会社,埼玉県,鶴ヶ島市,大字脚折１３９８－１１コーポミユキ２０１号室,,11,241,3502213,,,,,,,2024-12-18,1,,,,,クルミ,0
599,3040001136596,新規,0,2024-12-18,2024-12-18,株式会社白鳥堂,,株式会社,千葉県,木更津市,請西７５７番地５,,12,206,2920801,,,,,,,2024-12-18,1,,,,,ハクチョウドウ,0
600,3040001136605,新規,0,2024-12-18,2024-12-18,株式会社カレラ,,株式会社,千葉県,船橋市,本町４丁目１１番１６－１０６号,,12,204,2730005,,,,,,,2024-12-18,1,,,,,カレラ,0
604,3040003026408,新規,0,2024-12-18,2024-12-18,合同会社ＤＭ２２号,,合同会社,千葉県,柏市,柏４丁目５番１０号,,12,217,2770005,,,,,,,2024-12-18,1,,,,,ディーエムニジュウニゴウ,0
606,3040005022594,新規,0,2024-12-18,2024-12-18,一般社団法人船橋市ユニバーサルスポーツ協会,,その他の設立登記法人,千葉県,船橋市,薬円台１丁目３番６号,,12,204,2740077,,,,,,,2024-12-18,1,,,,,フナバシシユニバーサルスポーツキョウカイ,0
607,3050001055886,新規,0,2024-12-18,2024-12-18,ＷＡＱＡＲ　ＩＮＴＥＲＮＡＴＩＯＮＡＬ株式会社,,株式会社,茨城県,古河市,東山田１６３番地５,,08,204,3060112,,,,,,,2024-12-18,1,,,,,ワカールインターナショナル,0
613,3080003003353,新規,0,2024-12-18,2024-12-18,合同会社みんなの不動産,,合同会社,静岡県,焼津市,栄町４丁目２番２０号,,22,212,4250027,,,,,,,2024-12-18,1,,,,,ミンナノフドウサン,0
614,3080101025191,新規,0,2024-12-18,2024-12-18,株式会社ＥｎｖｙｔｌＥ,,株式会社,静岡県,田方郡函南町,柏谷１０８１番地３７,,22,325,4190112,,,,,,,2024-12-18,1,,,,,,0
618,3080401027631,新規,0,2024-12-18,2024-12-18,株式会社高林電工,00137361,株式会社,静岡県,浜松市中央区,上西町２５番地の２,,22,138,4350048,,,,,,,2024-12-18,1,,,,,タカバヤシデンコウ,0
638,3120001271105,新規,0,2024-12-18,2024-12-18,株式会社カイクミヤ,,株式会社,大阪府,枚方市,渚南町４４Ｎベース１０６,,27,210,5731183,,,,,,,2024-12-18,1,,,,,カイクミヤ,0
639,3120001271195,新規,0,2024-12-18,2024-12-18,株式会社ななせ,,株式会社,大阪府,大阪市北区,西天満４丁目３番２５号梅田プラザビル別館３階,,27,127,5300047,,,,,,,2024-12-18,1,,,,,ナナセ,0
640,3120001271212,新規,0,2024-12-18,2024-12-18,ニコリ不動産株式会社,,株式会社,大阪府,大阪市中央区,内平野町１丁目５番５号内平野町ビル４階,,27,128,5400037,,,,,,,2024-12-18,1,,,,,ニコリフドウサン,0
641,3120001271229,新規,0,2024-12-18,2024-12-18,三樹工業株式会社,,株式会社,大阪府,大阪市城東区,古市３丁目１６－２３,,27,118,5360001,,,,,,,2024-12-18,1,,,,,サンキコウギョウ,0
642,3120001271253,新規,0,2024-12-18,2024-12-18,朶瑁軒株式会社,00137375,株式会社,大阪府,大阪市東淀川区,大桐３丁目６番２１－１０６号室,,27,114,5330011,,,,,,,2024-12-18,1,,,,,ダゲツケン,0
644,3120003028172,新規,0,2024-12-18,2024-12-18,合同会社アドスタッフ,,合同会社,大阪府,大阪市中央区,北久宝寺町４丁目３－８－８１１,,27,128,5410057,,,,,,,2024-12-18,1,,,,,アドスタッフ,0
647,3120101070778,新規,0,2024-12-18,2024-12-18,九徳株式会社,,株式会社,大阪府,堺市堺区,住吉橋町１丁１－１５朝日プラザフェニックス２０４－Ｃ,,27,141,5900973,,,,,,,2024-12-18,1,,,,,キュウトク,0
650,3120901050186,新規,0,2024-12-18,2024-12-18,株式会社スマイルエステート,,株式会社,大阪府,吹田市,江坂町１丁目１２番４７号,,27,205,5640063,,,,,,,2024-12-18,1,,,,,スマイルエステート,0
652,3120903005469,新規,0,2024-12-18,2024-12-18,Ａｉｎｅ３６９合同会社,,合同会社,大阪府,高槻市,深沢本町８番７号,,27,207,5690033,,,,,,,2024-12-18,1,,,,,アイネミロク,0
658,3130001078623,新規,0,2024-12-18,2024-12-18,株式会社池上工務店,,株式会社,京都府,京都市伏見区,醍醐下山口町４－７ラ・ペリオ醍醐５０８,,26,109,6011343,,,,,,,2024-12-18,1,,,,,イケガミコウムテン,0
684,3180001164600,新規,0,2024-12-18,2024-12-18,Ｒｉｐｐｌｅ　Ｊａｐａｎ株式会社,,株式会社,愛知県,名古屋市北区,東味鋺１丁目２３２１番地,,23,103,4620013,,,,,,,2024-12-18,1,,,,,リップルジャパン,0
685,3180001164609,新規,0,2024-12-18,2024-12-18,ＡＫＥＭＩ　ＬＡＢＯ株式会社,,株式会社,愛知県,名古屋市中村区,名駅３丁目４番１０号アルティメイト名駅１ｓｔ２階,,23,105,4500002,,,,,,,2024-12-18,1,,,,,アケミラボ,0
686,3180001164625,新規,0,2024-12-18,2024-12-18,リアルマークス株式会社,,株式会社,愛知県,名古屋市中区,新栄３丁目５番２号チサトハイツ２階,,23,106,4600007,,,,,,,2024-12-18,1,,,,,リアルマークス,0
691,3180003027763,新規,0,2024-12-18,2024-12-18,ｕｏｅｉ合同会社,,合同会社,愛知県,稲沢市,奥田田畑町６７番地１,,23,220,4928241,,,,,,,2024-12-18,1,,,,,ウオエイ,0
692,3180301039337,新規,0,2024-12-18,2024-12-18,株式会社エス・ピー・エム,,株式会社,愛知県,豊橋市,山田二番町８２番地１２,,23,201,4418104,,,,,,,2024-12-18,1,,,,,エスピーエム,0
697,3190001031881,新規,0,2024-12-18,2024-12-18,株式会社ｋｎｅｅｄｌｅ,,株式会社,三重県,津市,豊が丘５丁目６番２７号,,24,201,5142222,,,,,,,2024-12-18,1,,,,,ニードル,0
698,3190003004885,新規,0,2024-12-18,2024-12-18,合同会社なか川,,合同会社,三重県,四日市市,日永西２丁目２９番１０号,,24,202,5100891,,,,,,,2024-12-18,1,,,,,ナカガワ,0
706,3240005015867,新規,0,2024-12-18,2024-12-18,一般社団法人しまなみレアスポーツ協会,,その他の設立登記法人,広島県,尾道市,美ノ郷町三成２７６３,,34,205,7220215,,,,,,,2024-12-18,1,,,,,シマナミレアスポーツキョウカイ,0
712,3290001108323,新規,0,2024-12-18,2024-12-18,株式会社ＲｅＬｉｆｅ,,株式会社,福岡県,福岡市博多区,博多駅前２丁目１９番１７号トーカン博多第５ビル３１２号室,,40,132,8120011,,,,,,,2024-12-18,1,,,,,リライフ,0
715,3290003016185,新規,0,2024-12-18,2024-12-18,Ｙｏｕｗａ合同会社,,合同会社,福岡県,福岡市東区,箱崎ふ頭４丁目１３番９号,,40,131,8120051,,,,,,,2024-12-18,1,,,,,ユウワ,0
716,3290003016193,新規,0,2024-12-18,2024-12-18,合同会社ＤＡＮ,,合同会社,福岡県,宗像市,自由ヶ丘８丁目１３番８号,,40,220,8114163,,,,,,,2024-12-18,1,,,,,ダン,0
719,3290805009790,新規,0,2024-12-18,2024-12-18,アール・フォーレ戸畑駅東管理組合法人,,その他の設立登記法人,福岡県,北九州市戸畑区,新池１丁目８番１５号,,40,105,8040082,,,,,,,2024-12-18,1,,,,,アールフォーレトバタエキヒガシ,0
726,3330003010687,新規,0,2024-12-18,2024-12-18,ＡＺＥＲ　ＴＲＡＤＩＮＧ合同会社,,合同会社,熊本県,熊本市南区,城南町東阿高１３００番地５,,43,104,8614225,,,,,,,2024-12-18,1,,,,,アゼルトレーディング,0
727,3340003004696,新規,0,2024-12-18,2024-12-18,合同会社あいくる,,合同会社,鹿児島県,姶良市,西姶良４丁目２２番１２号,,46,225,8995656,,,,,,,2024-12-18,1,,,,,アイクル,0
734,3430001093278,新規,0,2024-12-18,2024-12-18,株式会社キムパイプ,,株式会社,北海道,札幌市北区,東茨戸三条１丁目３番１号,,01,102,0028044,,,,,,,2024-12-18,1,,,,,キムパイプ,0
737,3470001020501,新規,0,2024-12-18,2024-12-18,四国エンジンテクノ株式会社,,株式会社,香川県,高松市,観光通２丁目２番１５号,,37,201,7600055,,,,,,,2024-12-18,1,,,,,シコクエンジンテクノ,0
746,4010001250804,新規,0,2024-12-18,2024-12-18,株式会社Ｅｍｂｒａｃｅ　Ｌｉｆｅ,,株式会社,東京都,中央区,東日本橋３丁目１２番９号,,13,102,1030004,,,,,,,2024-12-18,1,,,,,エンブレイスライフ,0
747,4010001250820,新規,0,2024-12-18,2024-12-18,株式会社ミノアカ,,株式会社,東京都,千代田区,神田和泉町１番地６－１６ヤマトビル４０５,,13,101,1010024,,,,,,,2024-12-18,1,,,,,ミノアカ,0
748,4010001250837,新規,0,2024-12-18,2024-12-18,育川株式会社,,株式会社,東京都,文京区,音羽１丁目２３－１２第一晃和堂ビル４１５号室,,13,105,1120013,,,,,,,2024-12-18,1,,,,,イクガワ,0
749,4010001250861,新規,0,2024-12-18,2024-12-18,株式会社Ｃｅｂｒｉｌｌｏｎ,,株式会社,東京都,中央区,銀座１丁目２２番１１号銀座大竹ビジデンス２Ｆ,,13,102,1040061,,,,,,,2024-12-18,1,,,,,セブリオン,0
751,4010101016452,新規,0,2024-12-18,2024-12-18,樹株式会社,,株式会社,東京都,八王子市,下恩方町３３番地,,13,201,1920154,,,,,,,2024-12-18,1,,,,,イツキ,0
756,4010401187084,新規,0,2024-12-18,2024-12-18,株式会社ＦＤＬＰ,,株式会社,東京都,港区,東新橋２丁目９番４号ヴィア・パルコビル６階,,13,103,1050021,,,,,,,2024-12-18,1,,,,,エフディーエルピー,0
757,4010401187134,新規,0,2024-12-18,2024-12-18,株式会社Ｅｔｔ　Ｈｅｍ,,株式会社,東京都,港区,南麻布３丁目１番７－４０２号,,13,103,1060047,,,,,,,2024-12-18,1,,,,,エトヘム,0
762,4010405023913,新規,0,2024-12-18,2024-12-18,一般社団法人国際平和発展戦略研究所,,その他の設立登記法人,東京都,港区,港南４丁目６番８－３９０３号,,13,103,1080075,,,,,,,2024-12-18,1,,,,,コクサイヘイワハッテンセンリャクケンキュウジョ,0
764,4010601066484,新規,0,2024-12-18,2024-12-18,株式会社Ｆｕｎｃｔｏｒｙ,,株式会社,東京都,墨田区,立花５丁目４－１２キャッスルマンション６０３,,13,107,1310043,,,,,,,2024-12-18,1,,,,,ファンクトリー,0
769,4010801035677,新規,0,2024-12-18,2024-12-18,株式会社ＳＫＭＴ,,株式会社,東京都,大田区,西蒲田７丁目２６番１１号蒲田トーセイビルＩＩＩ４階,00137372,13,111,1440051,,,,,,,2024-12-18,1,,,,,エスケーエムティー,0
771,4010901056516,新規,0,2024-12-18,2024-12-18,マサワールド株式会社,,株式会社,東京都,世田谷区,深沢６丁目２６番１３号深沢ホームズ１０２,,13,112,1580081,,,,,,,2024-12-18,1,,,,,マサワールド,0
776,4011001166313,新規,0,2024-12-18,2024-12-18,株式会社Ｓｐａｒｋｌｅ　Ｉｎｎｏｖａｔｉｏｎｓ,,株式会社,東京都,渋谷区,恵比寿西１丁目２１番５号ＳｒｅｅｄＥｂｉｓｕ＋ｔ９０１,,13,113,1500021,,,,,,,2024-12-18,1,,,,,スパークルイノベーションズ,0
777,4011001166346,新規,0,2024-12-18,2024-12-18,株式会社ＥＭＩＳ　ＪＡＰＡＮ,,株式会社,東京都,渋谷区,神南１丁目１２番１４号渋谷宮田ビル６Ｆ,,13,113,1500041,,,,,,,2024-12-18,1,,,,,イミスジャパン,0
778,4011001166354,新規,0,2024-12-18,2024-12-18,株式会社Ｔ＆Ｃｏ．,,株式会社,東京都,渋谷区,神宮前６丁目２８番４号,,13,113,1500001,,,,,,,2024-12-18,1,,,,,ティーアンドコー,0
780,4011003020567,新規,0,2024-12-18,2024-12-18,合同会社鴎画舎,,合同会社,東京都,目黒区,東が丘１丁目１９番８－１０５号クリオ駒沢公園,,13,110,1520021,,,,,,,2024-12-18,1,,,,,カモメガシヤ,0
781,4011101109964,新規,0,2024-12-18,2024-12-18,株式会社Ｒｅｖｅ,,株式会社,東京都,新宿区,西新宿３丁目３－１３西新宿水間ビル６階,,13,104,1600023,,,,,,,2024-12-18,1,,,,,レイブ,0
784,4011201026003,新規,0,2024-12-18,2024-12-18,ＰＯＧＯ株式会社,,株式会社,東京都,中野区,弥生町６丁目２番１－４０４,,13,114,1640013,,,,,,,2024-12-18,1,,,,,ポゴ,0
786,4011401026653,新規,0,2024-12-18,2024-12-18,株式会社ＮＩＫＩ,,株式会社,東京都,板橋区,徳丸２丁目１８番３０号アークレジデンス東武練馬２０１,,13,119,1750083,,,,,,,2024-12-18,1,,,,,ニキ,0
787,4011403004574,新規,0,2024-12-18,2024-12-18,合同会社ＩＴＰ‐Ｃ,,合同会社,東京都,板橋区,高島平９丁目４４番１０号ラ・メージュ・ケイ５０５号,,13,119,1750082,,,,,,,2024-12-18,1,,,,,アイティーピーシー,0
789,4011501031504,新規,0,2024-12-18,2024-12-18,華本株式会社,,株式会社,東京都,荒川区,町屋３丁目１－１３－４０５,,13,118,1160001,,,,,,,2024-12-18,1,,,,,ハナモト,0
790,4011505002666,新規,0,2024-12-18,2024-12-18,税理士法人ＡＴＬＡＳ,,その他の設立登記法人,東京都,北区,王子１丁目２２番１５号コープ野村王子８０１号,,13,117,1140002,,,,,,,2024-12-18,1,,,,,アトラス,0
794,4011803006600,新規,0,2024-12-18,2024-12-18,合同会社金町内装,,合同会社,東京都,葛飾区,東金町６丁目１３－２６,,13,122,1250041,,,,,,,2024-12-18,1,,,,,カナマチナイソウ,0
811,4021003015368,新規,0,2024-12-18,2024-12-18,合同会社ｔｒｅｓ,,合同会社,神奈川県,座間市,相模が丘５丁目１５番５３号カーサセッテ１０１号,,14,216,2520001,,,,,,,2024-12-18,1,,,,,トレス,0
814,4030001163970,新規,0,2024-12-18,2024-12-18,株式会社Ｇｏｏｄ　Ｗｉｄｅ,,株式会社,埼玉県,さいたま市岩槻区,大字釣上１３１２番７,,11,110,3390024,,,,,,,2024-12-18,1,,,,,グッドワイド,0
815,4030001163979,新規,0,2024-12-18,2024-12-18,株式会社ＲｅＥｎｔｒｙ,,株式会社,埼玉県,川口市,元郷４丁目３番２０号,,11,203,3320011,,,,,,,2024-12-18,1,,,,,リエントリー,0
816,4030001163995,新規,0,2024-12-18,2024-12-18,株式会社プリュネル,,株式会社,埼玉県,行田市,押上町９番地１３オリーブハウスＢ１０１,,11,206,3610045,,,,,,,2024-12-18,1,,,,,プリュネル,0
818,4030003025715,新規,0,2024-12-18,2024-12-18,合同会社彩り,,合同会社,埼玉県,桶川市,上日出谷南３丁目３５－９グリーンハイツ長島１０１,,11,231,3630020,,,,,,,2024-12-18,1,,,,,イロドリ,0
819,4030003025723,新規,0,2024-12-18,2024-12-18,ウェルネスファースト合同会社,,合同会社,埼玉県,さいたま市大宮区,大成町１丁目５３４番地８アルバーナ１０２,,11,103,3300852,,,,,,,2024-12-18,1,,,,,ウェルネスファースト,0
826,4040001136587,新規,0,2024-12-18,2024-12-18,株式会社ホーシン,,株式会社,千葉県,柏市,北柏１丁目６－６,,12,217,2770832,,,,,,,2024-12-18,1,,,,,ホーシン,0
827,4040001136604,新規,0,2024-12-18,2024-12-18,株式会社ＧＯＤ,,株式会社,千葉県,佐倉市,石川５７２番地２－４棟４０７号,,12,212,2850813,,,,,,,2024-12-18,1,,,,,ゴッド,0
828,4040001136612,新規,0,2024-12-18,2024-12-18,株式会社ＳＥＷＡ　ＧＲＯＵＰ,,株式会社,千葉県,船橋市,東中山２丁目１５－２０－３０２,,12,204,2730036,,,,,,,2024-12-18,1,,,,,セワグループ,0
829,4040001136620,新規,0,2024-12-18,2024-12-18,株式会社５０マネージメント,,株式会社,千葉県,千葉市花見川区,瑞穂１丁目５番６号,,12,102,2620026,,,,,,,2024-12-18,1,,,,,フィフティーマネージメント,0
830,4040001136629,新規,0,2024-12-18,2024-12-18,ＯＣホールディングス株式会社,,株式会社,千葉県,船橋市,前原西２丁目３２番８号,,12,204,2740825,,,,,,,2024-12-18,1,,,,,オーシーホールディングス,0
834,4040003026407,新規,0,2024-12-18,2024-12-18,合同会社ＤＭ２１号,,合同会社,千葉県,柏市,柏４丁目５番１０号,,12,217,2770005,,,,,,,2024-12-18,1,,,,,ディーエムニジュウイチゴウ,0
835,4040005022585,新規,0,2024-12-18,2024-12-18,一般社団法人和梨枝尊なごみリエゾン,,その他の設立登記法人,千葉県,鎌ケ谷市,新鎌ケ谷３丁目１９番６号,,12,224,2730107,,,,,,,2024-12-18,1,,,,,ナゴミリエゾン,0
839,4060001037742,新規,0,2024-12-18,2024-12-18,株式会社ステップ工業,,株式会社,栃木県,宇都宮市,下田原町２７８２番地３,,09,201,3291115,,,,,,,2024-12-18,1,,,,,ステップコウギョウ,0
870,4120001271120,新規,0,2024-12-18,2024-12-18,株式会社ゴー・オン,,株式会社,大阪府,大阪市中央区,淡路町２丁目６－５,,27,128,5410047,,,,,,,2024-12-18,1,,,,,ゴーオン,0
871,4120001271203,新規,0,2024-12-18,2024-12-18,株式会社ジオコンサル,,株式会社,大阪府,大阪市中央区,玉造１丁目６番２６号,,27,128,5400004,,,,,,,2024-12-18,1,,,,,ジオコンサル,0
872,4120001271228,新規,0,2024-12-18,2024-12-18,秋禾株式会社,,株式会社,大阪府,大阪市住吉区,南住吉２丁目６番２１－２０１号,,27,120,5580041,,,,,,,2024-12-18,1,,,,,シュウカ,0
873,4120001271260,新規,0,2024-12-18,2024-12-18,株式会社うふ家,,株式会社,大阪府,大阪市北区,同心２丁目２－１６アーバネックス同心３０１号室,,27,127,5300035,,,,,,,2024-12-18,1,,,,,ウフヤ,0
877,4120003028122,新規,0,2024-12-18,2024-12-18,合同会社コカティール,,合同会社,大阪府,大阪市中央区,島町１丁目２番２号日宝ニュー天満橋ビル４階７号,,27,128,5400034,,,,,,,2024-12-18,1,,,,,コカティール,0
878,4120003028171,新規,0,2024-12-18,2024-12-18,合同会社ことぶき,,合同会社,大阪府,大阪市生野区,小路東４丁目１６番２０号１階,,27,116,5440003,,,,,,,2024-12-18,1,,,,,コトブキ,0
879,4120005024664,新規,0,2024-12-18,2024-12-18,特定非営利活動法人にじいろがくどう,,その他の設立登記法人,大阪府,大阪市中央区,内淡路町２丁目３番５号ヤマトビル１階,,27,128,5400038,,,,,,,2024-12-18,1,,,,,ニジイロガクドウ,0
881,4120101070760,新規,0,2024-12-18,2024-12-18,株式会社やどり木,,株式会社,大阪府,堺市南区,大庭寺３２９－１,,27,145,5900153,,,,,,,2024-12-18,1,,,,,ヤドリギ,0
882,4120101070769,新規,0,2024-12-18,2024-12-18,株式会社Ｅｎｌｉｇｈｔ,,株式会社,大阪府,羽曳野市,はびきの４丁目１２番５号,,27,222,5830872,,,,,,,2024-12-18,1,,,,,エンライト,0
885,4120901050185,新規,0,2024-12-18,2024-12-18,株式会社Ｒｏｏｔｓ,,株式会社,大阪府,吹田市,佐竹台３丁目１番１１号,,27,205,5650855,,,,,,,2024-12-18,1,,,,,ルーツ,0
886,4120901050193,新規,0,2024-12-18,2024-12-18,株式会社野竹工務店,,株式会社,大阪府,吹田市,青山台３丁目２１番１号,,27,205,5650875,,,,,,,2024-12-18,1,,,,,ノタケコウムテン,0
888,4120903005476,新規,0,2024-12-18,2024-12-18,合同会社アイリス,,合同会社,大阪府,茨木市,大池２丁目２０番２号,,27,211,5670826,,,,,,,2024-12-18,1,,,,,アイリス,0
895,4130001078614,新規,0,2024-12-18,2024-12-18,株式会社スリーピース,,株式会社,京都府,京田辺市,宮津佐牙垣内１０９－１,,26,211,6100314,,,,,,,2024-12-18,1,,,,,スリーピース,0
903,4140001136783,新規,0,2024-12-18,2024-12-18,Ｆ．ＳＫＹコーポレーション株式会社,,株式会社,兵庫県,宝塚市,売布自由ガ丘１番１２号,,28,214,6650856,,,,,,,2024-12-18,1,,,,,エフスカイコーポレーション,0
921,4180001164574,新規,0,2024-12-18,2024-12-18,ＧＺ商事株式会社,,株式会社,愛知県,名古屋市北区,上飯田東町５丁目３９番地の１,,23,103,4620803,,,,,,,2024-12-18,1,,,,,ジーゼットショウジ,0
922,4180001164582,新規,0,2024-12-18,2024-12-18,ＲＣ創研株式会社,,株式会社,愛知県,名古屋市中村区,名駅４丁目２４番５号第２森ビル４０１,,23,105,4500002,,,,,,,2024-12-18,1,,,,,アールシーソウケン,0
923,4180001164616,新規,0,2024-12-18,2024-12-18,株式会社Ｙａｍａｋｏｕ,,株式会社,愛知県,知多郡美浜町,美浜緑苑３丁目１７番地１２,,23,446,4703232,,,,,,,2024-12-18,1,,,,,ヤマコウ,0
925,4180003027762,新規,0,2024-12-18,2024-12-18,合同会社ｋａｔａｌｉｃａ,,合同会社,愛知県,長久手市,下川原１７番地２０ホロンバイル２０２号室,,23,238,4801137,,,,,,,2024-12-18,1,,,,,カタリカ,0
926,4180005020864,新規,0,2024-12-18,2024-12-18,一般社団法人女性のための頭痛整体協会,,その他の設立登記法人,愛知県,名古屋市天白区,植田山１丁目９０６番地２０１号室,,23,116,4680001,,,,,,,2024-12-18,1,,,,,ジョセイノタメノズツウセイタイキョウカイ,0
929,4180301039344,新規,0,2024-12-18,2024-12-18,株式会社タカトラ,,株式会社,愛知県,豊田市,池田町前田３３７番地６,,23,211,4710001,,,,,,,2024-12-18,1,,,,,タカトラ,0
939,4200001043239,新規,0,2024-12-18,2024-12-18,株式会社ＦＪＫｏｒｐｏｒａｔｉｏｎ,,株式会社,岐阜県,各務原市,須衛町７丁目４９番地２,,21,213,5090108,,,,,,,2024-12-18,1,,,,,エフジェイコーポレーション,0
944,4230001020664,新規,0,2024-12-18,2024-12-18,吉川管工株式会社,,株式会社,富山県,高岡市,立野３２１６番地１,,16,202,9330325,,,,,,,2024-12-18,1,,,,,ヨシカワカンコウ,0
948,4240001064256,新規,0,2024-12-18,2024-12-18,株式会社イエノオト,,株式会社,広島県,福山市,神辺町大字川北３１８番地１パンプキンシティＣ,,34,207,7202123,,,,,,,2024-12-18,1,,,,,イエノオト,0
959,4290001108289,新規,0,2024-12-18,2024-12-18,株式会社ＢＡＲＢＥＲ　ＰＬＡＣＥ,,株式会社,福岡県,朝倉郡筑前町,当所７５番地５３,,40,447,8380803,,,,,,,2024-12-18,1,,,,,バーバープレイス,0
960,4290001108322,新規,0,2024-12-18,2024-12-18,株式会社ディーズ,,株式会社,福岡県,八女郡広川町,大字日吉７１７,,40,544,8340111,,,,,,,2024-12-18,1,,,,,,0
961,4290001108330,新規,0,2024-12-18,2024-12-18,株式会社ＳＡＮ‐ＫＥＩ　ＷＯＲＫＳ,,株式会社,福岡県,福岡市中央区,六本松４丁目３番１１号,,40,133,8100044,,,,,,,2024-12-18,1,,,,,サンケイワークス,0
962,4290003016184,新規,0,2024-12-18,2024-12-18,合同会社ｓｉｎｃｅｒｅ,,合同会社,福岡県,福岡市博多区,博多駅前４丁目２０番１７－１００１号,,40,132,8120011,,,,,,,2024-12-18,1,,,,,,0
965,4300001014015,新規,0,2024-12-18,2024-12-18,株式会社Ｒ・Ｔｅｃ,,株式会社,佐賀県,多久市,東多久町大字納所４１９６番地,,41,204,8460014,,,,,,,2024-12-18,1,,,,,アールテック,0
973,4330001032716,新規,0,2024-12-18,2024-12-18,株式会社諒輝グループ,,株式会社,熊本県,熊本市東区,戸島西１丁目１４番１９号,,43,102,8618043,,,,,,,2024-12-18,1,,,,,リョウキグループ,0
974,4330001032740,新規,0,2024-12-18,2024-12-18,株式会社ワイフ不動産,,株式会社,熊本県,菊池市,大琳寺２３９番地　本田ビル,,43,210,8611306,,,,,,,2024-12-18,1,,,,,ワイフフドウサン,0
977,4350001019323,新規,0,2024-12-18,2024-12-18,株式会社Ｌｕｘｅ,,株式会社,宮崎県,延岡市,大貫町６丁目１８９１番地７,,45,203,8820803,,,,,,,2024-12-18,1,,,,,ラックス,0
979,4370003006862,新規,0,2024-12-18,2024-12-18,合同会社Ｑ．Ｒｅｗａｒｄ,,合同会社,宮城県,仙台市若林区,文化町２－１０－２０４,,04,103,9840815,,,,,,,2024-12-18,1,,,,,クォッカリワード,0
984,4400005008457,新規,0,2024-12-18,2024-12-18,一般社団法人ＯＮＥ　ＴＯＨＯＫＵ,,その他の設立登記法人,岩手県,北上市,上江釣子１６地割３９番地１,,03,206,0240071,,,,,,,2024-12-18,1,,,,,ワントウホク,0
988,4430001093277,新規,0,2024-12-18,2024-12-18,誠ＦＬＯＯＲ株式会社,,株式会社,北海道,石狩市,花川南二条２丁目１４番地,,01,235,0613202,,,,,,,2024-12-18,1,,,,,マコトフロア,0
989,4430001093285,新規,0,2024-12-18,2024-12-18,コウシンテック株式会社,,株式会社,北海道,札幌市白石区,東札幌三条３丁目１番７号,,01,104,0030003,,,,,,,2024-12-18,1,,,,,コウシンテック,0
990,4430001093293,新規,0,2024-12-18,2024-12-18,株式会社伸将,,株式会社,北海道,苫小牧市,新中野町２丁目６－６,,01,213,0530006,,,,,,,2024-12-18,1,,,,,シンショウ,0
1000,5010001250514,新規,0,2024-12-18,2024-12-18,株式会社Ｔｒｙ　Ｓｐｏｒｔｓ　Ｂｕｓｉｎｅｓｓ,,株式会社,東京都,中央区,日本橋２丁目２番３号ＲＩＳＨＥビルＵＣＦ４階,,13,102,1030027,,,,,,,2024-12-18,1,,,,,トライスポーツビジネス,0
1001,5010001250794,新規,0,2024-12-18,2024-12-18,明照株式会社,,株式会社,東京都,中央区,日本橋蛎殻町１丁目２１－５－２Ｆ,,13,102,1030014,,,,,,,2024-12-18,1,,,,,メイショウ,0
1002,5010001250803,新規,0,2024-12-18,2024-12-18,株式会社ｍｉｃｈｉｒｕ,,株式会社,東京都,千代田区,麹町３丁目５番地４麹町インテリジェントビルＢ－１,,13,101,1020083,,,,,,,2024-12-18,1,,,,,ミチル,0
1006,5010003045838,新規,0,2024-12-18,2024-12-18,合同会社ｍｏｏｒ,,合同会社,東京都,文京区,音羽１丁目８番３－７０１号,,13,105,1120013,,,,,,,2024-12-18,1,,,,,ムーア,0
1007,5010103002474,新規,0,2024-12-18,2024-12-18,合同会社Ｅｔｏｉｌｅ,,合同会社,東京都,八王子市,鹿島９４５番地１８,,13,201,1920353,,,,,,,2024-12-18,1,,,,,エトワール,0
1010,5010403034028,新規,0,2024-12-18,2024-12-18,Ｆｉｒｓｔ　Ｓｏｕｌ合同会社,,合同会社,東京都,港区,南青山２丁目２番１５号,,13,103,1070062,,,,,,,2024-12-18,1,,,,,ファーストソウル,0
1018,5010701047004,新規,0,2024-12-18,2024-12-18,株式会社ＳＫパートナーズ,,株式会社,東京都,品川区,中延５丁目１番２号,,13,109,1420053,,,,,,,2024-12-18,1,,,,,エスケーパートナーズ,0
1020,5010801035684,新規,0,2024-12-18,2024-12-18,株式会社Ｃｕｒｉｏｓｉｔｙ,,株式会社,東京都,大田区,新蒲田２丁目９番８号,,13,111,1440054,,,,,,,2024-12-18,1,,,,,キュリオシティー,0
1021,5010803005207,新規,0,2024-12-18,2024-12-18,織合同会社,,合同会社,東京都,大田区,山王２丁目５番１３号大森北口ビル５Ｆ,,13,111,1430023,,,,,,,2024-12-18,1,,,,,シキ,0
1030,5011001166295,新規,0,2024-12-18,2024-12-18,Ｇａｌｅｎｉｃ　Ｊａｐａｎ株式会社,,株式会社,東京都,渋谷区,渋谷３丁目５番５号,,13,113,1500002,,,,,,,2024-12-18,1,,,,,ガレニークジャパン,0
1031,5011001166304,新規,0,2024-12-18,2024-12-18,株式会社ＮＥＸＡＬＩＳ,,株式会社,東京都,渋谷区,渋谷２丁目１９－１５宮益坂ビルディング６０９,,13,113,1500002,,,,,,,2024-12-18,1,,,,,ネクサリス,0
1032,5011001166312,新規,0,2024-12-18,2024-12-18,株式会社ｉｚｉｎ,,株式会社,東京都,渋谷区,渋谷２丁目１９－１５宮益坂ビルディング６０９,,13,113,1500002,,,,,,,2024-12-18,1,,,,,イジン,0
1033,5011001166345,新規,0,2024-12-18,2024-12-18,株式会社ディンゴ,,株式会社,東京都,渋谷区,千駄ヶ谷５丁目２９番１１－５０１号,,13,113,1510051,,,,,,,2024-12-18,1,,,,,ディンゴ,0
1036,5011003020590,新規,0,2024-12-18,2024-12-18,合同会社ＡＤＡＭＡＳ　Ｔｅｃ,,合同会社,東京都,渋谷区,千駄ヶ谷２丁目２８－３号ＺＯＯＭ神宮前９０１,,13,113,1510051,,,,,,,2024-12-18,1,,,,,アダマステック,0
1040,5011101109906,新規,0,2024-12-18,2024-12-18,株式会社Ｉｎｓｐｉｒｅ　Ｔｒａｖｅｌ,,株式会社,東京都,新宿区,新宿６丁目２７番４８号ＰＳ０７,,13,104,1600022,,,,,,,2024-12-18,1,,,,,インスパイアトラベル,0
1042,5011201026002,新規,0,2024-12-18,2024-12-18,株式会社翠,,株式会社,東京都,中野区,新井４丁目１８番１０号福島ビル２０１,,13,114,1650026,,,,,,,2024-12-18,1,,,,,ミドリ,0
1047,5011303005366,新規,0,2024-12-18,2024-12-18,森吉合同会社,,合同会社,東京都,杉並区,荻窪５丁目２６－８小山ビル２Ｆ,,13,115,1670051,,,,,,,2024-12-18,1,,,,,,0
1051,5011801045319,新規,0,2024-12-18,2024-12-18,株式会社漣商会,,株式会社,東京都,葛飾区,鎌倉４丁目４１番３号,,13,122,1250053,,,,,,,2024-12-18,1,,,,,サザナミショウカイ,0
1052,5011801045335,新規,0,2024-12-18,2024-12-18,株式会社Ｆｌａｓｈ,,株式会社,東京都,足立区,竹の塚２丁目８番５号,,13,121,1210813,,,,,,,2024-12-18,1,,,,,フラッシュ,0
1055,5011803006599,新規,0,2024-12-18,2024-12-18,合同会社キタノ,,合同会社,東京都,葛飾区,東堀切１丁目１１番８号,,13,122,1240004,,,,,,,2024-12-18,1,,,,,キタノ,0
1056,5012305002112,新規,0,2024-12-18,2024-12-18,一般社団法人全国居住就労支援機構,,その他の設立登記法人,東京都,町田市,玉川学園１丁目６－１７,,13,209,1940041,,,,,,,2024-12-18,1,,,,,ゼンコクキョジュウシュウロウシエンキコウ,0
1070,5030001163978,新規,0,2024-12-18,2024-12-18,株式会社Ｓ‐ＯＮＥ,,株式会社,埼玉県,入間市,鍵山３丁目７番３３号２,,11,225,3580004,,,,,,,2024-12-18,1,,,,,エスワン,0
1071,5030001163986,新規,0,2024-12-18,2024-12-18,株式会社ＨＵＬＵ‐ＬＵ,,株式会社,埼玉県,越谷市,レイクタウン５丁目１２番地２シティテラス越谷レイクタウン８５９,,11,222,3430828,,,,,,,2024-12-18,1,,,,,フルル,0
1072,5030001164002,新規,0,2024-12-18,2024-12-18,宮森グループ株式会社,,株式会社,埼玉県,川口市,並木３丁目１４番２号,,11,203,3320034,,,,,,,2024-12-18,1,,,,,ミヤモリグループ,0
1073,5030003025706,新規,0,2024-12-18,2024-12-18,にこにこ合同会社,,合同会社,埼玉県,春日部市,上大増新田５３０番地５,,11,214,3440037,,,,,,,2024-12-18,1,,,,,ニコニコ,0
1083,5040001136512,新規,0,2024-12-18,2024-12-18,サポートキャリア株式会社,,株式会社,千葉県,松戸市,三ケ月１２８６番地の１,,12,207,2700026,,,,,,,2024-12-18,1,,,,,サポートキャリア,0
1084,5040001136603,新規,0,2024-12-18,2024-12-18,株式会社Ｋｉｎｇｓｔｏｎｅ　Ｈｏｍｅ,,株式会社,千葉県,船橋市,二和東３丁目５番３０号カームヒルズＡ－２０３号,,12,204,2740805,,,,,,,2024-12-18,1,,,,,キングストーンホーム,0
1089,5050005013533,新規,0,2024-12-18,2024-12-18,特定非営利活動法人つくばいきものＳＤＧｓ,,その他の設立登記法人,茨城県,つくば市,千現２丁目１０番地１３,,08,220,3050047,,,,,,,2024-12-18,1,,,,,ツクバイキモノエスディージーズ,0
1091,5060001037733,新規,0,2024-12-18,2024-12-18,株式会社ゆめたび農園,,株式会社,栃木県,河内郡上三川町,大字梁５７７,,09,301,3290523,,,,,,,2024-12-18,1,,,,,ユメタビノウエン,0
1092,5060001037741,新規,0,2024-12-18,2024-12-18,ａｙａ開発設計株式会社,,株式会社,栃木県,芳賀郡茂木町,大字天子８３６番地,,09,343,3213621,,,,,,,2024-12-18,1,,,,,アヤカイハツセッケイ,0
1093,5060003005366,新規,0,2024-12-18,2024-12-18,シード・コンサルティング合同会社,,合同会社,栃木県,小山市,本郷町１丁目６番２５号,,09,208,3230026,,,,,,,2024-12-18,1,,,,,シードコンサルティング,0
1096,5070005010330,新規,0,2024-12-18,2024-12-18,特定非営利活動法人スペラーレ,,その他の設立登記法人,群馬県,前橋市,大友町３丁目２１番４号第一ＳＴビル２階５号,,10,201,3710847,,,,,,,2024-12-18,1,,,,,スペラーレ,0
1102,5090001019051,新規,0,2024-12-18,2024-12-18,株式会社ＤＯＮ　ＢＵＩＬＤＩＮＧ　ＰＡＲＴＮＥＲＳ,,株式会社,山梨県,南アルプス市,山寺６５２番地７,,19,208,4000308,,,,,,,2024-12-18,1,,,,,ドンビルディングパートナーズ,0
1119,5120001271210,新規,0,2024-12-18,2024-12-18,株式会社青岩商会,,株式会社,大阪府,大阪市生野区,巽北１丁目２１番２９－９１９号,,27,116,5440004,,,,,,,2024-12-18,1,,,,,アオイワショウカイ,0
1120,5120001271243,新規,0,2024-12-18,2024-12-18,久益生態株式会社,,株式会社,大阪府,大阪市東住吉区,照ケ丘矢田１丁目３－１４ライズワン東住吉ＩＩ２０２号,00137377,27,121,5460021,,,,,,,2024-12-18,1,,,,,キュウエキセイタイ,0
1121,5120001271251,新規,0,2024-12-18,2024-12-18,三友建設工業株式会社,,株式会社,大阪府,大阪市淀川区,加島３丁目１５番２１号シャローム加島１０５号室,,27,123,5320031,,,,,,,2024-12-18,1,,,,,サンユウケンセツコウギョウ,0
1123,5120003028187,新規,0,2024-12-18,2024-12-18,ＬＩＭＩＴ８ＬＥＳＳ合同会社,,合同会社,大阪府,大阪市北区,梅田１丁目１－３大阪駅前第３ビル２９階１－１－１号室,,27,127,5300001,,,,,,,2024-12-18,1,,,,,リミットレス,0
1133,5120101070768,新規,0,2024-12-18,2024-12-18,株式会社ＳＣＨＷＡＬＢＥ,,株式会社,大阪府,羽曳野市,河原城７３番地,,27,222,5830867,,,,,,,2024-12-18,1,,,,,シュワルベ,0
1135,5120105009944,新規,0,2024-12-18,2024-12-18,一般社団法人Ｍｙｔｈ　Ｂｅａｕｔｙ,,その他の設立登記法人,大阪府,泉南市,樽井１丁目３番１２号,,27,228,5900521,,,,,,,2024-12-18,1,,,,,マイスビューティー,0
1137,5120901050192,新規,0,2024-12-18,2024-12-18,株式会社すりーあっぷ,,株式会社,大阪府,茨木市,大手町２番２５号の１,,27,211,5670883,,,,,,,2024-12-18,1,,,,,スリーアップ,0
1142,5130001078605,新規,0,2024-12-18,2024-12-18,株式会社ＷＡＫＵＷＡＫＵモビリティ,,株式会社,京都府,城陽市,富野南垣内１番地の８,,26,207,6100111,,,,,,,2024-12-18,1,,,,,ワクワクモビリティ,0
1144,5140001136758,新規,0,2024-12-18,2024-12-18,株式会社ＣＬＣ＆Ｄ,,株式会社,兵庫県,神戸市中央区,布引町１丁目１番１３－１４０５号,,28,110,6510097,,,,,,,2024-12-18,1,,,,,シーエルシーアンドディー,0
1150,5160001026420,新規,0,2024-12-18,2024-12-18,株式会社くるみペットクリニック,,株式会社,滋賀県,守山市,今浜町２６２０番地５ピエリ守山１階,,25,207,5240101,,,,,,,2024-12-18,1,,,,,クルミペットクリニック,0
1160,5180001164598,新規,0,2024-12-18,2024-12-18,株式会社はぐくみ,,株式会社,愛知県,名古屋市緑区,大高町字高見１２番地の２,,23,114,4598001,,,,,,,2024-12-18,1,,,,,ハグクミ,0
1161,5180001164615,新規,0,2024-12-18,2024-12-18,ナナイロアルク株式会社,,株式会社,愛知県,名古屋市中村区,名駅４丁目２４番５号第２森ビル４０１,,23,105,4500002,,,,,,,2024-12-18,1,,,,,ナナイロアルク,0
1162,5180001164631,新規,0,2024-12-18,2024-12-18,株式会社Ｐ・Ｄ・Ｔ,,株式会社,愛知県,清須市,阿原宮東２７３番地,,23,233,4520901,,,,,,,2024-12-18,1,,,,,ピーディーティー,0
1167,5180301039335,新規,0,2024-12-18,2024-12-18,株式会社安藤反毛工場,,株式会社,愛知県,岡崎市,小美町字深萩１４２番地１,,23,202,4440003,,,,,,,2024-12-18,1,,,,,アンドウハンモウコウジョウ,0
1175,5200001043238,新規,0,2024-12-18,2024-12-18,株式会社ＢａｗａＪａｐａｎ,,株式会社,岐阜県,中津川市,手賀野４２２番地の１,,21,206,5080015,,,,,,,2024-12-18,1,,,,,バワージャパン,0
1176,5200003006630,新規,0,2024-12-18,2024-12-18,合同会社ＥＲＡ,,合同会社,岐阜県,大垣市,墨俣町墨俣７８９番地１,,21,202,5030102,,,,,,,2024-12-18,1,,,,,イーアールエー,0
1188,5260001039718,新規,0,2024-12-18,2024-12-18,株式会社しみず不動産,,株式会社,岡山県,倉敷市,連島町連島２８番地７（Ｂ－２）,,33,202,7128011,,,,,,,2024-12-18,1,,,,,シミズフドウサン,0
1190,5260003005008,新規,0,2024-12-18,2024-12-18,オアシス保険合同会社,,合同会社,岡山県,笠岡市,西大島１８３４番地の１,,33,205,7140032,,,,,,,2024-12-18,1,,,,,オアシスホケン,0
1193,5290001108321,新規,0,2024-12-18,2024-12-18,株式会社ＬＡＢＯ,,株式会社,福岡県,福岡市中央区,天神２丁目２番１２号Ｔ＆Ｊビルディング７Ｆ,,40,133,8100001,,,,,,,2024-12-18,1,,,,,ラボ,0
1194,5290001108346,新規,0,2024-12-18,2024-12-18,株式会社テイキン,,株式会社,福岡県,飯塚市,勢田２３２３－１,,40,205,8201111,,,,,,,2024-12-18,1,,,,,,0
1198,5300001014014,新規,0,2024-12-18,2024-12-18,株式会社ＯＺＡＫＩ,,株式会社,佐賀県,小城市,牛津町柿樋瀬１１０８番地２２,00137367,41,208,8490302,,,,,,,2024-12-18,1,,,,,オザキ,0
1199,5310001019367,新規,0,2024-12-18,2024-12-18,株式会社ＯＬＩＭＡＭＡ,,株式会社,長崎県,大村市,寿古町３０６番地２の２,,42,205,8560801,,,,,,,2024-12-18,1,,,,,オリママ,0
1202,5330001032748,新規,0,2024-12-18,2024-12-18,株式会社平和住建,,株式会社,熊本県,熊本市中央区,国府２丁目１番２２号,,43,101,8620949,,,,,,,2024-12-18,1,,,,,ヘイワジュウケン,0
1204,5330003010685,新規,0,2024-12-18,2024-12-18,合同会社クラフト,,合同会社,熊本県,熊本市南区,白藤２丁目２番１－１号,,43,104,8614112,,,,,,,2024-12-18,1,,,,,クラフト,0
1206,5360003014535,新規,0,2024-12-18,2024-12-18,合同会社ＳＯＪＡＤＥ,,合同会社,沖縄県,宮古島市,平良字下里２８８４番地１,,47,214,9060013,,,,,,,2024-12-18,1,,,,,ソジェード,0
1209,5370003006861,新規,0,2024-12-18,2024-12-18,Ｔ＆Ｍ合同会社,,合同会社,宮城県,多賀城市,高橋３丁目１４番１５号,,04,209,9850853,,,,,,,2024-12-18,1,,,,,ティーアンドエム,0
1213,5400001016891,新規,0,2024-12-18,2024-12-18,株式会社グローブ,,株式会社,岩手県,盛岡市,小杉山６番１７号,,03,201,0200815,,,,,,,2024-12-18,1,,,,,グローブ,0
1222,5430001093276,新規,0,2024-12-18,2024-12-18,株式会社ＨＢＵ研究所,,株式会社,北海道,恵庭市,黄金中央５丁目１９６番地の１,,01,231,0611449,,,,,,,2024-12-18,1,,,,,エイチビーユーケンキュウショ,0
1223,5430001093284,新規,0,2024-12-18,2024-12-18,森のカエデザ株式会社,,株式会社,北海道,札幌市厚別区,厚別東二条３丁目１番３４－２号,,01,108,0040002,,,,,,,2024-12-18,1,,,,,モリノカエデザ,0
1224,5430001093292,新規,0,2024-12-18,2024-12-18,ＡＲＡＴＡ重研株式会社,,株式会社,北海道,札幌市清田区,清田二条１丁目２番１０ー１０３号,,01,110,0040842,,,,,,,2024-12-18,1,,,,,アラタジュウケン,0
1237,6010001250744,新規,0,2024-12-18,2024-12-18,株式会社Ｅｎｔｉｒｅ　Ｓｅｒｖｉｃｅ,,株式会社,東京都,千代田区,九段北１丁目１１番４号,,13,101,1020073,,,,,,,2024-12-18,1,,,,,エンタイアサービス,0
1238,6010003045820,新規,0,2024-12-18,2024-12-18,ＳＹＭＭＥＴＲＩＣ　ＣＨＡＯＳ合同会社,,合同会社,東京都,中央区,銀座１丁目１２番４号Ｎ＆ＥＢＬＤ．７階,,13,102,1040061,,,,,,,2024-12-18,1,,,,,シメトリックカオス,0
1239,6010003045829,新規,0,2024-12-18,2024-12-18,Ｎｅｓｔ＆Ｒｅｓｔ合同会社,,合同会社,東京都,中央区,銀座７丁目２番６号,,13,102,1040061,,,,,,,2024-12-18,1,,,,,ネストアンドレスト,0
1247,6010601066482,新規,0,2024-12-18,2024-12-18,東日本福士株式会社,,株式会社,東京都,墨田区,千歳１丁目７番５－４０１号ハイツ両国,,13,107,1300025,,,,,,,2024-12-18,1,,,,,ヒガシニホンフクシ,0
1251,6010701047011,新規,0,2024-12-18,2024-12-18,株式会社リード,,株式会社,東京都,品川区,大崎３丁目１番５号ルミネ五反田第２・２０２号室,,13,109,1410032,,,,,,,2024-12-18,1,,,,,リード,0
1254,6010803005206,新規,0,2024-12-18,2024-12-18,合同会社美輝,,合同会社,東京都,大田区,蒲田１丁目７番３１号,,13,111,1440052,,,,,,,2024-12-18,1,,,,,ミキ,0
1257,6011001166294,新規,0,2024-12-18,2024-12-18,株式会社ｙｏｈａｋｕｔｏ,,株式会社,東京都,渋谷区,渋谷２丁目１９－１５宮益坂ビルディング６０９,,13,113,1500002,,,,,,,2024-12-18,1,,,,,ヨハクト,0
1258,6011001166311,新規,0,2024-12-18,2024-12-18,株式会社マサベ,,株式会社,東京都,目黒区,上目黒１丁目５番１０号,,13,110,1530051,,,,,,,2024-12-18,1,,,,,マサベ,0
1259,6011001166344,新規,0,2024-12-18,2024-12-18,株式会社Ｍａｋｅ　Ｂｕｂｂｌｅ,,株式会社,東京都,渋谷区,道玄坂１丁目１０番８号渋谷道玄坂東急ビル２Ｆ－Ｃ,,13,113,1500043,,,,,,,2024-12-18,1,,,,,メイクバブル,0
1260,6011001166518,新規,0,2024-12-18,2024-12-18,株式会社フェリックス,,株式会社,東京都,渋谷区,道玄坂１丁目１０番８号渋谷道玄坂東急ビル２Ｆ―Ｃ,,13,113,1500043,,,,,,,2024-12-18,1,,,,,フェリックス,0
1261,6011003020532,新規,0,2024-12-18,2024-12-18,Ａｓｃｅｎｄ　Ｐｒｏｐｅｒｔｉｅｓ合同会社,,合同会社,東京都,渋谷区,恵比寿西２丁目４番８号ウィンド恵比寿ビル８Ｆ,,13,113,1500021,,,,,,,2024-12-18,1,,,,,アセンドプロパティーズ,0
1262,6011003020623,新規,0,2024-12-18,2024-12-18,レイヤーズエージェント合同会社,,合同会社,東京都,渋谷区,円山町５番５号Ｎａｖｉ渋谷Ｖ３階,,13,113,1500044,,,,,,,2024-12-18,1,,,,,レイヤーズエージェント,0
1267,6011303005365,新規,0,2024-12-18,2024-12-18,ＲＰＮ合同会社,,合同会社,東京都,杉並区,荻窪３丁目２１－１５,,13,115,1670051,,,,,,,2024-12-18,1,,,,,,0
1269,6011403004572,新規,0,2024-12-18,2024-12-18,福来合同会社,,合同会社,東京都,板橋区,中台３丁目１９－５－１０１号室幸福ハウス,,13,119,1740064,,,,,,,2024-12-18,1,,,,,フクライ,0
1270,6011501031493,新規,0,2024-12-18,2024-12-18,東方窯科株式会社,,株式会社,東京都,北区,豊島２丁目１０番６号１０２号室,,13,117,1140003,,,,,,,2024-12-18,1,,,,,トウホウヨウカ,0
1271,6011503006345,新規,0,2024-12-18,2024-12-18,合同会社Ａ‐ｐｌａｎ,,合同会社,東京都,荒川区,南千住１丁目４５－１０－３０３,,13,118,1160003,,,,,,,2024-12-18,1,,,,,エープラン,0
1276,6011801045326,新規,0,2024-12-18,2024-12-18,株式会社Ｍ＆Ｉ,,株式会社,東京都,葛飾区,お花茶屋１丁目２５－２ＭａｉｌａｎｉＧａｒｄｅｎ１Ｆ,,13,122,1240003,,,,,,,2024-12-18,1,,,,,エムアンドアイ,0
1277,6011801045334,新規,0,2024-12-18,2024-12-18,ＩＣＩ不動産管理株式会社,,株式会社,東京都,足立区,保木間４丁目４５番１６号,,13,121,1210064,,,,,,,2024-12-18,1,,,,,アイシーアイフドウサンカンリ,0
1280,6011803006598,新規,0,2024-12-18,2024-12-18,Ｓｙｌｐｈｉ　ＡＩ合同会社,,合同会社,東京都,葛飾区,西新小岩５丁目５番１０号,,13,122,1240025,,,,,,,2024-12-18,1,,,,,シルフィエーアイ,0
1281,6012303002088,新規,0,2024-12-18,2024-12-18,合同会社Ｔ＆Ｋ,,合同会社,東京都,町田市,原町田６丁目２６－４,,13,209,1940013,,,,,,,2024-12-18,1,,,,,ティーアンドケー,0
1284,6012401042580,新規,0,2024-12-18,2024-12-18,Ｅｌ　Ｃａｍｉｎｏ　Ｒｅａｌ株式会社,,株式会社,東京都,武蔵野市,西久保１丁目６番１６号,,13,203,1800013,,,,,,,2024-12-18,1,,,,,エルカミノレアル,0
1307,6030001163952,新規,0,2024-12-18,2024-12-18,株式会社ちょこっと屋,,株式会社,埼玉県,所沢市,南住吉１－１３サザンビレッジ１０１,,11,208,3591125,,,,,,,2024-12-18,1,,,,,チョコットヤ,0
1308,6030001163969,新規,0,2024-12-18,2024-12-18,株式会社持木不動産管理,,株式会社,埼玉県,春日部市,銚子口１１７５番地３,,11,214,3440013,,,,,,,2024-12-18,1,,,,,モチギフドウサンカンリ,0
1309,6030001163977,新規,0,2024-12-18,2024-12-18,ファインスピリッツ株式会社,,株式会社,埼玉県,秩父市,近戸町１番１８号,,11,207,3680052,,,,,,,2024-12-18,1,,,,,ファインスピリッツ,0
1310,6030001164001,新規,0,2024-12-18,2024-12-18,株式会社コウヤマ,,株式会社,埼玉県,川越市,松江町１丁目２３番地１,,11,201,3500056,,,,,,,2024-12-18,1,,,,,コウヤマ,0
1311,6030001164018,新規,0,2024-12-18,2024-12-18,株式会社松野設備,,株式会社,埼玉県,三郷市,鷹野１丁目１３１番地１,,11,237,3410035,,,,,,,2024-12-18,1,,,,,マツノセツビ,0
1315,6030003025705,新規,0,2024-12-18,2024-12-18,ＮＥ３合同会社,,合同会社,埼玉県,越谷市,大字砂原９７６,,11,222,3430803,,,,,,,2024-12-18,1,,,,,エヌイースリー,0
1316,6030003025721,新規,0,2024-12-18,2024-12-18,合同会社七浜アセット,,合同会社,埼玉県,さいたま市見沼区,大字御蔵７４番地５,,11,104,3370033,,,,,,,2024-12-18,1,,,,,ナナハマアセット,0
1321,6040001136569,新規,0,2024-12-18,2024-12-18,株式会社コウアイ,,株式会社,千葉県,成田市,並木町５３番地２ベルガモット不動橋１０５,,12,211,2860045,,,,,,,2024-12-18,1,,,,,コウアイ,0
1322,6040001136602,新規,0,2024-12-18,2024-12-18,株式会社鐘盛鮮冷荷役,,株式会社,千葉県,松戸市,小金原１丁目２１番地の３７,,12,207,2700021,,,,,,,2024-12-18,1,,,,,カネモリセンレイニヤク,0
1323,6040001136610,新規,0,2024-12-18,2024-12-18,株式会社ケーズカンパニー,,株式会社,千葉県,千葉市花見川区,南花園２丁目１番６号,,12,102,2620022,,,,,,,2024-12-18,1,,,,,ケーズカンパニー,0
1324,6040001136627,新規,0,2024-12-18,2024-12-18,株式会社ｈｓ,,株式会社,千葉県,柏市,明原３丁目６番１０号,,12,217,2770843,,,,,,,2024-12-18,1,,,,,エイチエス,0
1327,6040003026413,新規,0,2024-12-18,2024-12-18,合同会社ＡＧＡＩＮ,,合同会社,千葉県,船橋市,三咲８丁目６番１４号,,12,204,2740812,,,,,,,2024-12-18,1,,,,,アゲイン,0
1330,6050001055891,新規,0,2024-12-18,2024-12-18,株式会社シェイブル・ドール,,株式会社,茨城県,日立市,西成沢町３丁目１８番８号,,08,202,3160032,,,,,,,2024-12-18,1,,,,,シェイブルドール,0
1332,6050003008889,新規,0,2024-12-18,2024-12-18,合同会社うららか,,合同会社,茨城県,水戸市,元吉田町１２番地の１,,08,201,3100836,,,,,,,2024-12-18,1,,,,,ウララカ,0
1333,6050005013532,新規,0,2024-12-18,2024-12-18,一般社団法人Ｌｉｎｋ,,その他の設立登記法人,茨城県,鹿嶋市,大字宮津台４６９０番地７,,08,222,3140006,,,,,,,2024-12-18,1,,,,,リンク,0
1334,6060001037740,新規,0,2024-12-18,2024-12-18,株式会社Ｉ　Ｔ,,株式会社,栃木県,日光市,今市５４８番地４,,09,206,3211261,,,,,,,2024-12-18,1,,,,,イット,0
1335,6060001037749,新規,0,2024-12-18,2024-12-18,株式会社Ｐｒｉｍｅ　Ｔｈｒｕｓｔ,,株式会社,栃木県,那須塩原市,島方４３２番地６,,09,213,3293152,,,,,,,2024-12-18,1,,,,,プライムスラスト,0
1341,6080001026667,新規,0,2024-12-18,2024-12-18,株式会社ＩＫ,,株式会社,静岡県,静岡市葵区,油山２２３番地の１,,22,101,4212123,,,,,,,2024-12-18,1,,,,,アイケー,0
1354,6110001038923,新規,0,2024-12-18,2024-12-18,株式会社吉原設備,,株式会社,新潟県,燕市,新堀２８３番地１２,,15,213,9590133,,,,,,,2024-12-18,1,,,,,ヨシハラセツビ,0
1363,6120001270649,新規,0,2024-12-18,2024-12-18,鋭思株式会社,,株式会社,大阪府,大阪市城東区,鴫野西５丁目１５番７－３１６号,,27,118,5360014,,,,,,,2024-12-18,1,,,,,エイシ,0
1364,6120001271127,新規,0,2024-12-18,2024-12-18,株式会社パーク不動産,,株式会社,大阪府,大阪市中央区,高麗橋２丁目２－７－６階,,27,128,5410043,,,,,,,2024-12-18,1,,,,,パークフドウサン,0
1365,6120001271201,新規,0,2024-12-18,2024-12-18,株式会社オーシャンホールディングス,,株式会社,大阪府,大阪市平野区,平野馬場１丁目３番９号,,27,126,5470048,,,,,,,2024-12-18,1,,,,,オーシャンホールディングス,0
1366,6120001271226,新規,0,2024-12-18,2024-12-18,株式会社セブン,,株式会社,大阪府,大阪市西区,京町堀１丁目６番２３号,,27,106,5500003,,,,,,,2024-12-18,1,,,,,セブン,0
1367,6120001271291,新規,0,2024-12-18,2024-12-18,順年華株式会社,,株式会社,大阪府,大阪市西成区,萩之茶屋２丁目５番４－３０２号,,27,122,5570004,,,,,,,2024-12-18,1,,,,,ジュンネンカ,0
1369,6120003028178,新規,0,2024-12-18,2024-12-18,合同会社プラスアインス,,合同会社,大阪府,大阪市北区,梅田１丁目２番２号大阪駅前第２ビル１２－１２,,27,127,5300001,,,,,,,2024-12-18,1,,,,,プラスアインス,0
1370,6120005024662,新規,0,2024-12-18,2024-12-18,一般社団法人医療福祉イノベーションプラットフォーム,,その他の設立登記法人,大阪府,大阪市北区,梅田１丁目１番３号大阪駅前第３ビル２９階１－１－１号室,,27,127,5300001,,,,,,,2024-12-18,1,,,,,イリョウフクシイノベーションプラットフォーム,0
1373,6120103006199,新規,0,2024-12-18,2024-12-18,合同会社関西Ｋ２,,合同会社,大阪府,河内長野市,南ケ丘３５番２０号,,27,216,5860065,,,,,,,2024-12-18,1,,,,,カンサイケイツー,0
1375,6120903005474,新規,0,2024-12-18,2024-12-18,合同会社オニカン,,合同会社,大阪府,吹田市,岸部南３丁目１５－１８,,27,205,5640011,,,,,,,2024-12-18,1,,,,,オニカン,0
1377,6122001038745,新規,0,2024-12-18,2024-12-18,丸栄ホールディングス株式会社,,株式会社,大阪府,東大阪市,衣摺５丁目１１番２０号,,27,227,5770827,,,,,,,2024-12-18,1,,,,,マルエイホールディングス,0
1383,6130001078612,新規,0,2024-12-18,2024-12-18,株式会社オーエスプランニング,,株式会社,京都府,京都市上京区,寺町通今出川上る５丁目西入藪之下町４２９番地１,,26,102,6020806,,,,,,,2024-12-18,1,,,,,オーエスプランニング,0
1384,6130001078620,新規,0,2024-12-18,2024-12-18,株式会社神楽美鈴コンサル,,株式会社,京都府,京都市北区,上賀茂中山町３１番地２,,26,101,6038026,,,,,,,2024-12-18,1,,,,,カグラミスズコンサル,0
1397,6150001027732,新規,0,2024-12-18,2024-12-18,株式会社ナカケン,,株式会社,奈良県,御所市,大字元町４１８番地の２０,,29,208,6392301,,,,,,,2024-12-18,1,,,,,ナカケン,0
1398,6170001018416,新規,0,2024-12-18,2024-12-18,株式会社レオ,,株式会社,和歌山県,田辺市,上芳養２３１番地,,30,206,6460101,,,,,,,2024-12-18,1,,,,,レオ,0
1405,6180001164606,新規,0,2024-12-18,2024-12-18,ＴＫ‐ｔｅｃｈ株式会社,,株式会社,愛知県,名古屋市中区,千代田３丁目１８番６号アイビル４階Ａ,,23,106,4600012,,,,,,,2024-12-18,1,,,,,ティーケーテック,0
1406,6180001164614,新規,0,2024-12-18,2024-12-18,株式会社ことほぎ,,株式会社,愛知県,名古屋市守山区,笹ヶ根１丁目３２５番地,,23,113,4630812,,,,,,,2024-12-18,1,,,,,コトホギ,0
1414,6180301039334,新規,0,2024-12-18,2024-12-18,株式会社ＭＴ,,株式会社,愛知県,豊橋市,西山町字西山３２６番地３,,23,201,4413121,,,,,,,2024-12-18,1,,,,,エムティー,0
1418,6200001043237,新規,0,2024-12-18,2024-12-18,パリオット株式会社,,株式会社,岐阜県,岐阜市,加納栄町通４丁目２番地,,21,201,5008455,,,,,,,2024-12-18,1,,,,,パリオット,0
1431,6290001108304,新規,0,2024-12-18,2024-12-18,ＯＮＥＤＡＹＭＯＲＥ株式会社,,株式会社,福岡県,福岡市中央区,黒門６番４－３０１号,,40,133,8100055,,,,,,,2024-12-18,1,,,,,ワンデイモア,0
1432,6290001108312,新規,0,2024-12-18,2024-12-18,株式会社ＷＳＴ,,株式会社,福岡県,福岡市西区,姪の浜３丁目３番２６－２０３号,,40,135,8190002,,,,,,,2024-12-18,1,,,,,ダブルエスティ,0
1433,6290001108320,新規,0,2024-12-18,2024-12-18,株式会社トゥエルブ,,株式会社,福岡県,福岡市博多区,浦田１丁目２２－１６,,40,132,8120861,,,,,,,2024-12-18,1,,,,,トゥエルブ,0
1434,6290001108337,新規,0,2024-12-18,2024-12-18,株式会社煌惺ライフサポート,,株式会社,福岡県,福岡市南区,大池２丁目１６番２６－３０１号ヴィルヌーブ大池Ｄ棟,,40,134,8150073,,,,,,,2024-12-18,1,,,,,コウセイライフサポート,0
1437,6290003016190,新規,0,2024-12-18,2024-12-18,合同会社ノコマート,,合同会社,福岡県,福岡市西区,能古４６８番地２,,40,135,8190012,,,,,,,2024-12-18,1,,,,,ノコマート,0
1438,6290805009788,新規,0,2024-12-18,2024-12-18,特定非営利活動法人北九州市消費生活相談員協会,,その他の設立登記法人,福岡県,北九州市戸畑区,汐井町１番６号ウェルとばた７階,,40,105,8040067,,,,,,,2024-12-18,1,,,,,キタキュウシュウシショウヒセイカツソウダンインキョウカイ,0
1440,6310001019366,新規,0,2024-12-18,2024-12-18,株式会社シン・ハシグチ,,株式会社,長崎県,長崎市,浜町８番３７号,,42,201,8500853,,,,,,,2024-12-18,1,,,,,シンハシグチ,0
1447,6330001032747,新規,0,2024-12-18,2024-12-18,株式会社Ｅ‐ｅｎ,,株式会社,熊本県,菊池郡菊陽町,大字津久礼１５４番２３ＮＳＨ,,43,404,8691101,,,,,,,2024-12-18,1,,,,,イーエン,0
1451,6340003004693,新規,0,2024-12-18,2024-12-18,合同会社Ｒａｄｉｃｅ　ｓｕｄ,,合同会社,鹿児島県,薩摩郡さつま町,宮之城屋地１０７９番地,,46,392,8951803,,,,,,,2024-12-18,1,,,,,ラディーチェスッド,0
1461,6390001017825,新規,0,2024-12-18,2024-12-18,株式会社ＴＲＹＧＩＳ,,株式会社,山形県,山形市,鈴川町３丁目１１番１６－８号グランメゾン鈴川１０２号,,06,201,9900062,,,,,,,2024-12-18,1,,,,,トライジス,0
1462,6400001016890,新規,0,2024-12-18,2024-12-18,株式会社結プランニング,,株式会社,岩手県,盛岡市,上米内字赤坂３４番地８４,,03,201,0200001,,,,,,,2024-12-18,1,,,,,ユイプランニング,0
1467,6430001093275,新規,0,2024-12-18,2024-12-18,室蘭アクアグリッド株式会社,,株式会社,北海道,室蘭市,東町３丁目１番１２号,,01,205,0500083,,,,,,,2024-12-18,1,,,,,ムロランアクアグリッド,0
1468,6430001093291,新規,0,2024-12-18,2024-12-18,株式会社ウサミホールディングス,,株式会社,北海道,苫小牧市,字沼ノ端１８番地１０３,,01,213,0591364,,,,,,,2024-12-18,1,,,,,ウサミホールディングス,0
1477,6500005008750,新規,0,2024-12-18,2024-12-18,一般社団法人蓮華会,,その他の設立登記法人,愛媛県,松山市,堀江町甲７６０番地１,,38,201,7992651,,,,,,,2024-12-18,1,,,,,レンゲカイ,0
1484,7010001250776,新規,0,2024-12-18,2024-12-18,Ｃｒｏｓｓ　Ｆｕｓｉｏｎ　Ｃｏｎｓｕｌｔｉｎｇ株式会社,,株式会社,東京都,中央区,日本橋箱崎町３３番６号,,13,102,1030015,,,,,,,2024-12-18,1,,,,,クロスフュージョンコンサルティング,0
1485,7010001250859,新規,0,2024-12-18,2024-12-18,裕佳株式会社,,株式会社,東京都,千代田区,神田駿河台２丁目１１－７ＵＰオフィス水道橋２０５,,13,101,1010062,,,,,,,2024-12-18,1,,,,,ユウカ,0
1487,7010003045828,新規,0,2024-12-18,2024-12-18,合同会社ＪＤＩＰ‐１４,,合同会社,東京都,千代田区,九段北３丁目２番４号,,13,101,1020073,,,,,,,2024-12-18,1,,,,,ジェイディーアイピーフォーティーン,0
1494,7010005039282,新規,0,2024-12-18,2024-12-18,一般社団法人華菊會,,その他の設立登記法人,東京都,千代田区,岩本町３丁目９－３,,13,101,1010032,,,,,,,2024-12-18,1,,,,,ハナギクカイ,0
1495,7010005039299,新規,0,2024-12-18,2024-12-18,二条城前ホテル一般社団法人,,その他の設立登記法人,東京都,千代田区,平河町１丁目６番１５号シルスフィア会計事務所内,,13,101,1020093,,,,,,,2024-12-18,1,,,,,ニジョウジョウマエホテル,0
1499,7010401186736,新規,0,2024-12-18,2024-12-18,株式会社Ｃａｍｐａｃｔ,,株式会社,東京都,港区,三田４丁目１番４号,,13,103,1080073,,,,,,,2024-12-18,1,,,,,キャンパクト,0
1500,7010401187107,新規,0,2024-12-18,2024-12-18,ｔｈｙｓｓｅｎｋｒｕｐｐ　Ｓｐｒｉｎｇｓ＆Ｓｔａｂｉｌｉｚｅｒｓ　Ｊａｐａｎ株式会社,,株式会社,東京都,港区,六本木６丁目１０番１号六本木ヒルズ森タワー２３階,,13,103,1060032,,,,,,,2024-12-18,1,,,,,ティッセンクルップスプリングスアンドスタビライザーズジャパン,0
1502,7010501053357,新規,0,2024-12-18,2024-12-18,百禾株式会社,,株式会社,東京都,台東区,上野３丁目６番７号泉ビル４Ｆ,,13,106,1100005,,,,,,,2024-12-18,1,,,,,バイカ,0
1503,7010501053365,新規,0,2024-12-18,2024-12-18,株式会社大和,,株式会社,東京都,台東区,千束４丁目２３番３号,,13,106,1110031,,,,,,,2024-12-18,1,,,,,ダイワ,0
1504,7010503007666,新規,0,2024-12-18,2024-12-18,合同会社ザキサン,,合同会社,東京都,台東区,根岸１丁目１－２３サンフェニックス５０１,,13,106,1100003,,,,,,,2024-12-18,1,,,,,ザキサン,0
1508,7010601066457,新規,0,2024-12-18,2024-12-18,日本岐黄健康株式会社,,株式会社,東京都,江東区,亀戸３丁目６２番１０号３０４号室,,13,108,1360071,,,,,,,2024-12-18,1,,,,,ニホンキコウケンコウ,0
1510,7010603011279,新規,0,2024-12-18,2024-12-18,Ｋｅｉｇｏｎ合同会社,,合同会社,東京都,江東区,有明１丁目４－２０－３２０１,,13,108,1350063,,,,,,,2024-12-18,1,,,,,ケイゴン,0
1512,7010701047010,新規,0,2024-12-18,2024-12-18,ＲＯＯＴＹ　ＴＯＯＴＹ株式会社,,株式会社,東京都,品川区,上大崎３丁目５番２号リードシー目黒イーストビル５Ｆ,,13,109,1410021,,,,,,,2024-12-18,1,,,,,ルーティトゥーティ,0
1513,7010801035682,新規,0,2024-12-18,2024-12-18,東晨株式会社,,株式会社,東京都,大田区,南馬込４丁目３２番１３号,,13,111,1430025,,,,,,,2024-12-18,1,,,,,トウシン,0
1516,7011001166277,新規,0,2024-12-18,2024-12-18,株式会社Ｇｒａｖｉｔｙ　Ｐａｒｔｎｅｒｓ,,株式会社,東京都,渋谷区,円山町５－６キングビル９Ｆ,,13,113,1500044,,,,,,,2024-12-18,1,,,,,グラビティパートナーズ,0
1517,7011001166335,新規,0,2024-12-18,2024-12-18,株式会社ｓｕｉｍｍｙ,,株式会社,東京都,渋谷区,渋谷３丁目１４番２号ベルティス渋谷２０５,,13,113,1500002,,,,,,,2024-12-18,1,,,,,スイミー,0
1518,7011001166351,新規,0,2024-12-18,2024-12-18,東京賃貸保証株式会社,,株式会社,東京都,渋谷区,神山町４３番１号手川ビル１Ｆ,,13,113,1500047,,,,,,,2024-12-18,1,,,,,トウキョウチンタイホショウ,0
1519,7011001166426,新規,0,2024-12-18,2024-12-18,Ｄｉａｌｏｇｕｅ＆Ｌｅａｐ株式会社,,株式会社,東京都,渋谷区,本町１丁目５３番１１号ｃｕｂｉｃＭ５０６,,13,113,1510071,,,,,,,2024-12-18,1,,,,,ダイアローグアンドリープ,0
1525,7011101109912,新規,0,2024-12-18,2024-12-18,ＦＫ　Ｐａｒｔｎｅｒｓ株式会社,,株式会社,東京都,新宿区,西新宿３丁目３番１３号西新宿水間ビル６階,,13,104,1600023,,,,,,,2024-12-18,1,,,,,エフケーパートナーズ,0
1530,7011301030240,新規,0,2024-12-18,2024-12-18,富田株式会社,,株式会社,東京都,杉並区,天沼２丁目５－９・１０１号室,,13,115,1670032,,,,,,,2024-12-18,1,,,,,トミダ,0
1531,7011405002367,新規,0,2024-12-18,2024-12-18,一般財団法人かどで会,,その他の設立登記法人,東京都,板橋区,高島平９丁目４１－１－１０３,,13,119,1750082,,,,,,,2024-12-18,1,,,,,カドデカイ,0
1536,7011801045333,新規,0,2024-12-18,2024-12-18,株式会社ＩＲＩＳ,,株式会社,東京都,葛飾区,東金町３丁目１７－１０ＫＢＳ－Ｄ－７,,13,122,1250041,,,,,,,2024-12-18,1,,,,,アイリス,0
1539,7012303002087,新規,0,2024-12-18,2024-12-18,合同会社ｅｍｉｉｍｉ,,合同会社,東京都,町田市,能ヶ谷１丁目１４番２６－１１２号,,13,209,1950053,,,,,,,2024-12-18,1,,,,,エミーミ,0
1548,7013301053527,新規,0,2024-12-18,2024-12-18,株式会社ＣＨ　ｐａｒｔｎｅｒｓ,,株式会社,東京都,豊島区,東池袋４丁目２６番１号サン・ソウゴ第二ビル４階,,13,116,1700013,,,,,,,2024-12-18,1,,,,,シーエイチパートナーズ,0
1555,7020005016644,新規,0,2024-12-18,2024-12-18,ビッグヴァンステイツ伊勢佐木南管理組合法人,,その他の設立登記法人,神奈川県,横浜市南区,万世町１丁目１７番４号,,14,105,2320032,,,,,,,2024-12-18,1,,,,,ビッグヴァンステイツイセザキミナミ,0
1558,7030001163968,新規,0,2024-12-18,2024-12-18,株式会社棯星建設,,株式会社,埼玉県,川越市,大塚新町６３番地４－３０３,,11,201,3501178,,,,,,,2024-12-18,1,,,,,シンセイケンセツ,0
1559,7030001163976,新規,0,2024-12-18,2024-12-18,株式会社ジェイティエス,,株式会社,埼玉県,さいたま市南区,文蔵２丁目２１番１号コート南浦和２０１,,11,108,3360025,,,,,,,2024-12-18,1,,,,,ジェイティエス,0
1560,7030001163984,新規,0,2024-12-18,2024-12-18,株式会社活,,株式会社,埼玉県,北足立郡伊奈町,大字小針新宿３８７番地１,,11,301,3620808,,,,,,,2024-12-18,1,,,,,カツ,0
1561,7030001164017,新規,0,2024-12-18,2024-12-18,株式会社ＮＩＣＥ８９,,株式会社,埼玉県,熊谷市,本石１丁目２１０番地ＭＯＭＯ１０・Ｔ５０５号室,,11,202,3600815,,,,,,,2024-12-18,1,,,,,ナイスハチジュウク,0
1562,7030003025704,新規,0,2024-12-18,2024-12-18,ＮＥ２合同会社,,合同会社,埼玉県,越谷市,大字砂原９７６,,11,222,3430803,,,,,,,2024-12-18,1,,,,,エヌイーツー,0
1563,7030003025712,新規,0,2024-12-18,2024-12-18,合同会社ＩＭＥＫＡ,,合同会社,埼玉県,富士見市,ふじみ野東４丁目６番地１ライオンズふじみ野レジデンス１１５,,11,235,3540036,,,,,,,2024-12-18,1,,,,,イメカ,0
1564,7030003025720,新規,0,2024-12-18,2024-12-18,合同会社リリーブ,,合同会社,埼玉県,さいたま市桜区,大字大久保領家７７番地５,,11,106,3380826,,,,,,,2024-12-18,1,,,,,リリーブ,0
1569,7040001136601,新規,0,2024-12-18,2024-12-18,株式会社ソウメイ,,株式会社,千葉県,袖ケ浦市,大曽根１１６５番地,,12,229,2990253,,,,,,,2024-12-18,1,,,,,ソウメイ,0
1570,7040003026412,新規,0,2024-12-18,2024-12-18,Ｌａｉｄ‐ｂａｃｋ合同会社,,合同会社,千葉県,木更津市,祇園３丁目２０番１０号,00137370,12,206,2920052,,,,,,,2024-12-18,1,,,,,レイドバック,0
1573,7050001055890,新規,0,2024-12-18,2024-12-18,ダイヤワークス株式会社,,株式会社,茨城県,那珂郡東海村,大字石神内宿２２４８番地２３１,,08,341,3191102,,,,,,,2024-12-18,1,,,,,ダイヤワークス,0
1575,7050003008888,新規,0,2024-12-18,2024-12-18,合同会社ケアプランエール,,合同会社,茨城県,神栖市,波崎４２２６番地,,08,232,3140408,,,,,,,2024-12-18,1,,,,,ケアプランエール,0
1576,7060001037748,新規,0,2024-12-18,2024-12-18,株式会社ハートフルネット,,株式会社,栃木県,大田原市,紫塚４丁目３９４４―１１０,,09,210,3240058,,,,,,,2024-12-18,1,,,,,ハートフルネット,0
1579,7080001026674,新規,0,2024-12-18,2024-12-18,株式会社ブルーフィールドファーム,,株式会社,静岡県,静岡市葵区,長沼２丁目１１番１２号,,22,101,4200813,,,,,,,2024-12-18,1,,,,,ブルーフィールドファーム,0
1595,7120001271142,新規,0,2024-12-18,2024-12-18,株式会社楽虎,,株式会社,大阪府,大阪市中央区,島之内２丁目１０－１２－７Ｆ,,27,128,5420082,,,,,,,2024-12-18,1,,,,,ラクト,0
1596,7120001271225,新規,0,2024-12-18,2024-12-18,ＨＲ国際業務株式会社,,株式会社,大阪府,大阪市大正区,小林東３丁目１３番９号,,27,108,5510011,,,,,,,2024-12-18,1,,,,,エイチアールコクサイギョウム,0
1604,7120101070774,新規,0,2024-12-18,2024-12-18,株式会社ＥＮＯＫＩＤＡ,,株式会社,大阪府,堺市中区,土師町５丁１２番２５号,,27,142,5998238,,,,,,,2024-12-18,1,,,,,エノキダ,0
1607,7120901050174,新規,0,2024-12-18,2024-12-18,株式会社サニーＲＥ,,株式会社,大阪府,高槻市,城西町４番１５号高槻ファミリーハイツＢ－１０１,,27,207,5690065,,,,,,,2024-12-18,1,,,,,サニーレ,0
1608,7120901050190,新規,0,2024-12-18,2024-12-18,株式会社ＴＭ管理,,株式会社,大阪府,豊中市,服部寿町３丁目４番３１号,,27,203,5610857,,,,,,,2024-12-18,1,,,,,ティーエムカンリ,0
1610,7120903005473,新規,0,2024-12-18,2024-12-18,合同会社高木商事,,合同会社,大阪府,茨木市,新郡山２丁目Ａ２８棟５０３,,27,211,5670074,,,,,,,2024-12-18,1,,,,,タカキショウジ,0
1613,7130001078603,新規,0,2024-12-18,2024-12-18,Ｈ＆Ｈ株式会社,,株式会社,京都府,京都市右京区,宇多野福王子町５番地４６,,26,108,6168208,,,,,,,2024-12-18,1,,,,,エチアンドエチ,0
1614,7130003010084,新規,0,2024-12-18,2024-12-18,合同会社ほかほか,,合同会社,京都府,京都市北区,大宮西野山町２１番地５９－２０６,,26,101,6038444,,,,,,,2024-12-18,1,,,,,ホカホカ,0
1626,7170001018415,新規,0,2024-12-18,2024-12-18,株式会社ビーンズフル,,株式会社,和歌山県,和歌山市,新在家４７番地２０,,30,201,6408345,,,,,,,2024-12-18,1,,,,,ビーンズフル,0
1632,7180001164605,新規,0,2024-12-18,2024-12-18,ＰＲＯＣＥＳＳ　ＥＮＧ株式会社,,株式会社,愛知県,名古屋市緑区,若田３丁目１１２１番地の２,,23,114,4580034,,,,,,,2024-12-18,1,,,,,プロセスエンジ,0
1633,7180001164613,新規,0,2024-12-18,2024-12-18,株式会社ＫＯＵ空調,,株式会社,愛知県,瀬戸市,田中町８６番地,,23,204,4890961,,,,,,,2024-12-18,1,,,,,コウクウチョウ,0
1641,7180003027768,新規,0,2024-12-18,2024-12-18,アディオ合同会社,,合同会社,愛知県,名古屋市天白区,鴻の巣２丁目１１０９番地（ダウン植田北２０２号）,,23,116,4680003,,,,,,,2024-12-18,1,,,,,アディオ,0
1642,7180301039333,新規,0,2024-12-18,2024-12-18,株式会社ＬＩＴ,,株式会社,愛知県,豊橋市,平川本町２丁目１２番地４,,23,201,4400038,,,,,,,2024-12-18,1,,,,,リット,0
1643,7180301039341,新規,0,2024-12-18,2024-12-18,株式会社レイアップ,,株式会社,愛知県,みよし市,三好丘３丁目４番地１０,,23,236,4700202,,,,,,,2024-12-18,1,,,,,レイアップ,0
1644,7180303006372,新規,0,2024-12-18,2024-12-18,合同会社イデコ,,合同会社,愛知県,豊橋市,石巻本町字中尾５４－２,,23,201,4411115,,,,,,,2024-12-18,1,,,,,イデコ,0
1646,7200001043236,新規,0,2024-12-18,2024-12-18,株式会社Ｃｏａｓｉｓ,,株式会社,岐阜県,岐阜市,長良７１１番地１０,,21,201,5020071,,,,,,,2024-12-18,1,,,,,コアシス,0
1649,7220001026370,新規,0,2024-12-18,2024-12-18,株式会社さくらい商事,,株式会社,石川県,鹿島郡中能登町,二宮ロ部１１０番地１,,17,407,9291811,,,,,,,2024-12-18,1,,,,,サクライショウジ,0
1651,7230001020661,新規,0,2024-12-18,2024-12-18,サンタライン株式会社,,株式会社,富山県,氷見市,万尾８４６番地１,,16,205,9350053,,,,,,,2024-12-18,1,,,,,サンタライン,0
1654,7240001064253,新規,0,2024-12-18,2024-12-18,きずな不動産株式会社,,株式会社,広島県,広島市中区,流川町４－８－４階,,34,101,7300028,,,,,,,2024-12-18,1,,,,,キズナフドウサン,0
1657,7240003006988,新規,0,2024-12-18,2024-12-18,アールデザイン合同会社,,合同会社,広島県,呉市,西中央２丁目１番２０,,34,202,7370811,,,,,,,2024-12-18,1,,,,,アールデザイン,0
1661,7260003005006,新規,0,2024-12-18,2024-12-18,きっかわ会計合同会社,,合同会社,岡山県,岡山市北区,内山下１丁目９番１６号,,33,101,7000824,,,,,,,2024-12-18,1,,,,,キッカワカイケイ,0
1667,7290001108328,新規,0,2024-12-18,2024-12-18,株式会社ＷＩＴＨ　ＬＩＦＥ,,株式会社,福岡県,古賀市,天神１丁目２３番８号,,40,223,8113101,,,,,,,2024-12-18,1,,,,,ウイズライフ,0
1668,7290001108336,新規,0,2024-12-18,2024-12-18,株式会社鶴田商店,,株式会社,福岡県,朝倉市,甘木１２０８－１,,40,228,8380068,,,,,,,2024-12-18,1,,,,,ツルタショウテン,0
1669,7290001108344,新規,0,2024-12-18,2024-12-18,ＰＲＯＦＥＳＳＩＯＮホールディングス株式会社,,株式会社,福岡県,福岡市博多区,諸岡１丁目１０番６－１０２号,,40,132,8120894,,,,,,,2024-12-18,1,,,,,プロフェッションホールディングス,0
1670,7290001108352,新規,0,2024-12-18,2024-12-18,鮨幸仁株式会社,,株式会社,福岡県,福岡市中央区,平尾１丁目８番４号,,40,133,8100014,,,,,,,2024-12-18,1,,,,,スシコウジ,0
1672,7290003016165,新規,0,2024-12-18,2024-12-18,合同会社ＲＤ　ＭＯＲＴＯＲＳ,,合同会社,福岡県,福岡市博多区,博多駅東１丁目１－３３－２ＥＰ２号室,,40,132,8120013,,,,,,,2024-12-18,1,,,,,アールディーモーターズ,0
1679,7330003010683,新規,0,2024-12-18,2024-12-18,合同会社グッドシーズン,,合同会社,熊本県,熊本市西区,小島９丁目１０番１２号,,43,103,8615287,,,,,,,2024-12-18,1,,,,,グッドシーズン,0
1681,7360003014533,新規,0,2024-12-18,2024-12-18,合同会社アトラン,,合同会社,沖縄県,南城市,玉城字屋嘉部１２３番地１,,47,215,9010619,,,,,,,2024-12-18,1,,,,,アトラン,0
1686,7390001017824,新規,0,2024-12-18,2024-12-18,株式会社菅原設備,,株式会社,山形県,酒田市,宮海字向砂畑１４番地の４,,06,204,9980005,,,,,,,2024-12-18,1,,,,,スガワラセツビ,0
1696,7430001093266,新規,0,2024-12-18,2024-12-18,株式会社ハートフルマインド,,株式会社,北海道,札幌市北区,北七条西４丁目１番地１トーカン札幌第一キャステール６０７,,01,102,0600807,,,,,,,2024-12-18,1,,,,,ハートフルマインド,0
1697,7430001093282,新規,0,2024-12-18,2024-12-18,株式会社ＳＨＩＭＡ電工,,株式会社,北海道,札幌市中央区,南十三条西１０丁目２番３１－５０３号,,01,101,0640913,,,,,,,2024-12-18,1,,,,,シマデンコウ,0
1698,7430001093290,新規,0,2024-12-18,2024-12-18,リクラホーム株式会社,,株式会社,北海道,札幌市白石区,東米里２４０７番地２,,01,104,0030876,,,,,,,2024-12-18,1,,,,,リクラホーム,0
1700,7430005015118,新規,0,2024-12-18,2024-12-18,労働者協同組合らしく,,その他の設立登記法人,北海道,札幌市南区,澄川五条５丁目６番１７号,,01,106,0050005,,,,,,,2024-12-18,1,,,,,ラシク,0
1702,7460103001669,新規,0,2024-12-18,2024-12-18,合同会社トリプルウィン道東,,合同会社,北海道,河東郡音更町,雄飛が丘仲区１番地２２０,,01,631,0800332,,,,,,,2024-12-18,1,,,,,トリプルウィンドウトウ,0
1711,8010001250775,新規,0,2024-12-18,2024-12-18,ＫＹＰ株式会社,,株式会社,東京都,千代田区,神田須田町２丁目８番２０号パレドール神田５０６号室,,13,101,1010041,,,,,,,2024-12-18,1,,,,,ケーワイピー,0
1712,8010001250783,新規,0,2024-12-18,2024-12-18,株式会社ＢＣ　Ｊａｐａｎ,,株式会社,東京都,中央区,築地５丁目４番１９号,,13,102,1040045,,,,,,,2024-12-18,1,,,,,ビーシージャパン,0
1713,8010001250825,新規,0,2024-12-18,2024-12-18,ＨＡＴ株式会社,,株式会社,東京都,中央区,銀座１丁目１２番４号Ｎ＆ＥＢＬＤ．６Ｆ,,13,102,1040061,,,,,,,2024-12-18,1,,,,,ハット,0
1716,8010003045819,新規,0,2024-12-18,2024-12-18,瀬田３丁目プロジェクト合同会社,,合同会社,東京都,千代田区,丸の内２丁目３番２号,,13,101,1000005,,,,,,,2024-12-18,1,,,,,セタサンチョウメプロジェクト,0
1717,8010003045851,新規,0,2024-12-18,2024-12-18,合同会社グレイキャット・ワークス,,合同会社,東京都,中央区,日本橋室町１丁目１１番１２号日本橋水野ビル７階,,13,102,1030022,,,,,,,2024-12-18,1,,,,,グレイキャットワークス,0
1718,8010005039298,新規,0,2024-12-18,2024-12-18,Ｇｒａｎｄ　Ｈｏｕｓｅ一般社団法人,,その他の設立登記法人,東京都,千代田区,霞が関３丁目２番５号,,13,101,1000013,,,,,,,2024-12-18,1,,,,,グランドハウス,0
1723,8010401187064,新規,0,2024-12-18,2024-12-18,株式会社Ｍｔ．ｍ,,株式会社,東京都,港区,東麻布３丁目２番６－５０５号フェニックス麻布狸穴公園,,13,103,1060044,,,,,,,2024-12-18,1,,,,,エムティーエム,0
1729,8010601066456,新規,0,2024-12-18,2024-12-18,興宜坊株式会社,,株式会社,東京都,江東区,亀戸３丁目６２番１０号３０３号室,,13,108,1360071,,,,,,,2024-12-18,1,,,,,コウギボウ,0
1730,8010701047001,新規,0,2024-12-18,2024-12-18,ＢＢＪＰ株式会社,,株式会社,東京都,品川区,東品川４丁目１２番８号品川シーサイドイーストタワー１５階,,13,109,1400002,,,,,,,2024-12-18,1,,,,,ビービージェーピー,0
1731,8010801035681,新規,0,2024-12-18,2024-12-18,株式会社ワイドライン,,株式会社,東京都,大田区,東馬込１丁目４５番８号４Ｆ,,13,111,1430022,,,,,,,2024-12-18,1,,,,,ワイドライン,0
1738,8011001166292,新規,0,2024-12-18,2024-12-18,株式会社ｓｐｈｅｒｅ,,株式会社,東京都,目黒区,大岡山１丁目２５－１９,,13,110,1520033,,,,,,,2024-12-18,1,,,,,スフィア,0
1739,8011001166334,新規,0,2024-12-18,2024-12-18,株式会社ＴＨＥ　ＳＴＡＲＳ,,株式会社,東京都,渋谷区,渋谷２丁目１９番１５号宮益坂ビルディング６０９,,13,113,1500002,,,,,,,2024-12-18,1,,,,,ザスターズ,0
1740,8011001166342,新規,0,2024-12-18,2024-12-18,株式会社打ち出の小槌,,株式会社,東京都,渋谷区,道玄坂１丁目１０番８号渋谷道玄坂東急ビル２Ｆ－Ｃ,,13,113,1500043,,,,,,,2024-12-18,1,,,,,ウチデノコヅチ,0
1741,8011001166350,新規,0,2024-12-18,2024-12-18,株式会社ドレミ,,株式会社,東京都,渋谷区,富ヶ谷１丁目１４番２０号代々木公園セレナビル２Ｆ,,13,113,1510063,,,,,,,2024-12-18,1,,,,,ドレミ,0
1742,8011001166383,新規,0,2024-12-18,2024-12-18,株式会社アガク,,株式会社,東京都,渋谷区,神泉町２０番２１クロスシー渋谷神泉ビル,,13,113,1500045,,,,,,,2024-12-18,1,,,,,アガク,0
1743,8011003020530,新規,0,2024-12-18,2024-12-18,合同会社モニチ,,合同会社,東京都,渋谷区,道玄坂１丁目１０番８号渋谷道玄坂東急ビル２Ｆ－Ｃ,,13,113,1500043,,,,,,,2024-12-18,1,,,,,モニチ,0
1744,8011003020547,新規,0,2024-12-18,2024-12-18,グルーコードグループ合同会社,,合同会社,東京都,渋谷区,渋谷３丁目１０番１９号渋谷ＭＪ－ＩＩビル６階,00137363,13,113,1500002,,,,,,,2024-12-18,1,,,,,グルーコードグループ,0
1749,8011203004556,新規,0,2024-12-18,2024-12-18,ジャパンホテル合同会社,,合同会社,東京都,中野区,中央５丁目６番１４号,,13,114,1640011,,,,,,,2024-12-18,1,,,,,ジャパンホテル,0
1789,8030001163967,新規,0,2024-12-18,2024-12-18,株式会社クーイー,,株式会社,埼玉県,蕨市,北町１丁目２９番１４号,,11,223,3350001,,,,,,,2024-12-18,1,,,,,クーイー,0
1790,8030001163975,新規,0,2024-12-18,2024-12-18,株式会社電煌,,株式会社,埼玉県,三郷市,泉２丁目２４番地９,,11,237,3410054,,,,,,,2024-12-18,1,,,,,デンコウ,0
1791,8030001164016,新規,0,2024-12-18,2024-12-18,ＥＭＡ株式会社,,株式会社,埼玉県,川口市,芝富士１丁目２６番９号,,11,203,3330854,,,,,,,2024-12-18,1,,,,,エマ,0
1792,8030003025703,新規,0,2024-12-18,2024-12-18,ＮＥ１合同会社,,合同会社,埼玉県,越谷市,大字砂原９７６,,11,222,3430803,,,,,,,2024-12-18,1,,,,,エヌイーワン,0
1795,8040001136617,新規,0,2024-12-18,2024-12-18,株式会社４Ｕ,,株式会社,千葉県,松戸市,上本郷２７１９－３,,12,207,2710064,,,,,,,2024-12-18,1,,,,,フォーユー,0
1802,8040003026394,新規,0,2024-12-18,2024-12-18,合同会社スマートリンク,,合同会社,千葉県,市川市,香取２丁目１１番１５号香取ビル２Ｆ,,12,203,2720141,,,,,,,2024-12-18,1,,,,,スマートリンク,0
1803,8040003026403,新規,0,2024-12-18,2024-12-18,美容室Ｌｉｔｔｌｅ　ｓｔａｒ合同会社,,合同会社,千葉県,市原市,島野１８６２番地３８,,12,219,2900034,,,,,,,2024-12-18,1,,,,,ビヨウシツリトルスター,0
1804,8040003026411,新規,0,2024-12-18,2024-12-18,合同会社ＤＭ２５号,,合同会社,千葉県,柏市,柏４丁目５番１０号,,12,217,2770005,,,,,,,2024-12-18,1,,,,,ディーエムニジュウゴゴウ,0
1809,8050001055832,新規,0,2024-12-18,2024-12-18,株式会社エーアイブラザーズ,,株式会社,茨城県,小美玉市,栗又四ケ１５１７番地８,,08,236,3113434,,,,,,,2024-12-18,1,,,,,エーアイブラザーズ,0
1810,8050001055898,新規,0,2024-12-18,2024-12-18,株式会社ｅｍｏｎｅｒｕ,,株式会社,茨城県,かすみがうら市,下大堤２３番地５,,08,230,3000131,,,,,,,2024-12-18,1,,,,,エモネル,0
1813,8050003008887,新規,0,2024-12-18,2024-12-18,合同会社那須屋,,合同会社,茨城県,久慈郡大子町,大字頃藤５０９４番地,,08,364,3193361,,,,,,,2024-12-18,1,,,,,ナスヤ,0
1815,8060001037739,新規,0,2024-12-18,2024-12-18,株式会社油博ホールディングス,,株式会社,栃木県,宇都宮市,元今泉４丁目２番１０号,,09,201,3210954,,,,,,,2024-12-18,1,,,,,アブヒロホールディングス,0
1819,8080101025195,新規,0,2024-12-18,2024-12-18,株式会社アインズ,,株式会社,静岡県,富士宮市,万野原新田３１４９番地の７アオシマビル１０８号,,22,207,4180001,,,,,,,2024-12-18,1,,,,,アインズ,0
1824,8090003002696,新規,0,2024-12-18,2024-12-18,合同会社愛,,合同会社,山梨県,南都留郡山中湖村,山中９８３番地の６０,,19,425,4010501,,,,,,,2024-12-18,1,,,,,ラブ,0
1827,8100003007917,新規,0,2024-12-18,2024-12-18,合同会社ＳＫアドバイザー,,合同会社,長野県,長野市,桐原２丁目３番１０－５０２号,,20,201,3810045,,,,,,,2024-12-18,1,,,,,エスケイアドバイザー,0
1838,8120001271166,新規,0,2024-12-18,2024-12-18,３ｘＣＯＵＮＴ株式会社,,株式会社,大阪府,大阪市城東区,放出西１丁目２番５１号,,27,118,5360011,,,,,,,2024-12-18,1,,,,,スリーカウント,0
1839,8120001271174,新規,0,2024-12-18,2024-12-18,友光云栖株式会社,,株式会社,大阪府,大阪市生野区,新今里３丁目４番１７号ＯＧビル５０７Ｂ,,27,116,5440001,,,,,,,2024-12-18,1,,,,,ユウコウウンサイ,0
1840,8120001271208,新規,0,2024-12-18,2024-12-18,ギンライオ株式会社,,株式会社,大阪府,大阪市港区,市岡元町３丁目１０－１６－９０５,,27,107,5520002,,,,,,,2024-12-18,1,,,,,ギンライオ,0
1841,8120001271257,新規,0,2024-12-18,2024-12-18,株式会社若山住建,,株式会社,大阪府,寝屋川市,萱島南町１４番１号,,27,215,5720825,,,,,,,2024-12-18,1,,,,,ワカヤマジュウケン,0
1844,8120003028192,新規,0,2024-12-18,2024-12-18,合同会社ＧＯＲＫＨＡ　ＩＮＴＥＲＮＡＴＩＯＮＡＬ　ＧＲＯＵＰ,,合同会社,大阪府,大阪市西成区,萩之茶屋１丁目１４番９号,,27,122,5570004,,,,,,,2024-12-18,1,,,,,ゴルカインターナショナルグループ,0
1846,8120103006197,新規,0,2024-12-18,2024-12-18,合同会社結裕,,合同会社,大阪府,松原市,天美我堂４丁目３番５号,,27,217,5800026,,,,,,,2024-12-18,1,,,,,ユウユ,0
1849,8120903005472,新規,0,2024-12-18,2024-12-18,合同会社Ｎｅｎｅ　Ｈｏｍｅ,,合同会社,大阪府,箕面市,西宿２丁目１２番１２－Ａ１０１０号,,27,220,5620034,,,,,,,2024-12-18,1,,,,,ネネホーム,0
1850,8122001038743,新規,0,2024-12-18,2024-12-18,株式会社ＲＢＮ,,株式会社,大阪府,東大阪市,横小路町４丁目４番３５号,,27,227,5798063,,,,,,,2024-12-18,1,,,,,アールビーエヌ,0
1855,8130001078610,新規,0,2024-12-18,2024-12-18,良毅株式会社,,株式会社,京都府,京都市中京区,柳馬場通御池上る虎石町４３番地ロイヤルコート柳馬場７０３,,26,104,6040955,,,,,,,2024-12-18,1,,,,,リョウキ,0
1881,8180001164521,新規,0,2024-12-18,2024-12-18,株式会社樹,,株式会社,愛知県,名古屋市守山区,藪田町４０４番地１Ｆ,,23,113,4630026,,,,,,,2024-12-18,1,,,,,イツキ,0
1882,8180001164620,新規,0,2024-12-18,2024-12-18,株式会社ＥＲＩＣ　ＣＯＲＰＯＲＡＴＩＯＮ,,株式会社,愛知県,一宮市,中島通４丁目２０,,23,203,4910072,,,,,,,2024-12-18,1,,,,,エリックコーポレーション,0
1883,8180001164629,新規,0,2024-12-18,2024-12-18,株式会社Ｌ＆Ａコーポレーション,,株式会社,愛知県,小牧市,間々本町１２８番地名城元町２Ｆ,,23,219,4850048,,,,,,,2024-12-18,1,,,,,エルアンドエーコーポレーション,0
1886,8180003027726,新規,0,2024-12-18,2024-12-18,合同会社オリオーネ,,合同会社,愛知県,名古屋市中村区,平池町４丁目６０番５号,,23,105,4530872,,,,,,,2024-12-18,1,,,,,オリオーネ,0
1889,8180005020860,新規,0,2024-12-18,2024-12-18,一般社団法人インディゴ,,その他の設立登記法人,愛知県,名古屋市中村区,名駅３丁目２２番８号大東海ビル地下１階,,23,105,4500002,,,,,,,2024-12-18,1,,,,,インディゴ,0
1893,8180303006371,新規,0,2024-12-18,2024-12-18,ＭＩＮＩ　ＭＡＲＴ合同会社,,合同会社,愛知県,西尾市,小焼野町西川９４番地２ＭＩＣＲＵＩＳＥ小焼野,,23,213,4450041,,,,,,,2024-12-18,1,,,,,ミニマート,0
1895,8200001043235,新規,0,2024-12-18,2024-12-18,株式会社八雲,,株式会社,岐阜県,安八郡安八町,東結１５６１番地,,21,383,5030112,,,,,,,2024-12-18,1,,,,,ヤクモ,0
1899,8230005009428,新規,0,2024-12-18,2024-12-18,一般社団法人ふく福会,,その他の設立登記法人,富山県,射水市,片口１７３番地２,,16,211,9340032,,,,,,,2024-12-18,1,,,,,フクフクカイ,0
1903,8240003006987,新規,0,2024-12-18,2024-12-18,合同会社Ｋ‐ＹＲ,,合同会社,広島県,広島市東区,牛田旭１丁目１４番１２号,,34,102,7320067,,,,,,,2024-12-18,1,,,,,ケイワイアール,0
1906,8250001020931,新規,0,2024-12-18,2024-12-18,株式会社一期一会,,株式会社,山口県,山口市,天花２丁目７番２５－６号,,35,203,7530091,,,,,,,2024-12-18,1,,,,,イチゴイチエ,0
1917,8290001108302,新規,0,2024-12-18,2024-12-18,株式会社ｎｉｃｏ,,株式会社,福岡県,福岡市中央区,六本松３丁目１１番３５－６０２号,,40,133,8100044,,,,,,,2024-12-18,1,,,,,ニコ,0
1918,8290001108319,新規,0,2024-12-18,2024-12-18,株式会社シン金融教育研究所,,株式会社,福岡県,福岡市中央区,桜坂３丁目５番５４－１３１０号,,40,133,8100024,,,,,,,2024-12-18,1,,,,,シンキンユウキョウイクケンキュウジョ,0
1919,8290001108327,新規,0,2024-12-18,2024-12-18,株式会社宮城陸人,,株式会社,福岡県,福岡市博多区,博多駅南２丁目１４番４－７０３号,,40,132,8120016,,,,,,,2024-12-18,1,,,,,ミヤギリクト,0
1920,8290001108343,新規,0,2024-12-18,2024-12-18,株式会社どいら商店,,株式会社,福岡県,糸島市,志摩御床２１６０番地５０,,40,230,8191322,,,,,,,2024-12-18,1,,,,,ドイラショウテン,0
1921,8290003016189,新規,0,2024-12-18,2024-12-18,合同会社双葉,,合同会社,福岡県,福岡市早良区,田村２丁目１２番４３－１－１０２号,,40,137,8140175,,,,,,,2024-12-18,1,,,,,フタバ,0
1924,8330001032745,新規,0,2024-12-18,2024-12-18,株式会社ＫＭＭＴ,,株式会社,熊本県,熊本市中央区,中央街４番２２号アルバ銀座通りビル２Ｆ,,43,101,8600802,,,,,,,2024-12-18,1,,,,,ケーエムエムティー,0
1925,8340001027001,新規,0,2024-12-18,2024-12-18,ナオサラサ株式会社,,株式会社,鹿児島県,大島郡与論町,大字古里７９番地５,,46,535,8919307,,,,,,,2024-12-18,1,,,,,ナオサラサ,0
1943,8430001093281,新規,0,2024-12-18,2024-12-18,株式会社翔希工業,,株式会社,北海道,室蘭市,東町４丁目６番４号,,01,205,0500083,,,,,,,2024-12-18,1,,,,,ショウキコウギョウ,0
1946,8430003017081,新規,0,2024-12-18,2024-12-18,合同会社Ｅｓｔ　Ａｒｔｓ,,合同会社,北海道,札幌市南区,川沿一条３丁目１１番１５号,,01,106,0050801,,,,,,,2024-12-18,1,,,,,エストアーツ,0
1951,8460301005256,新規,0,2024-12-18,2024-12-18,株式会社ワークサポート北見,,株式会社,北海道,北見市,本町１丁目２番８号,,01,208,0900818,,,,,,,2024-12-18,1,,,,,ワークサポートキタミ,0
1959,9010001250799,新規,0,2024-12-18,2024-12-18,株式会社ＡＥＲＵ,,株式会社,東京都,中央区,銀座１丁目１２番４号Ｎ＆ＥＢＬＤ．７階,,13,102,1040061,,,,,,,2024-12-18,1,,,,,アエル,0
1960,9010001250832,新規,0,2024-12-18,2024-12-18,株式会社Ｓｈｉｅｅｍａ,,株式会社,東京都,千代田区,西神田２丁目３番５号千栄ビル３階,,13,101,1010065,,,,,,,2024-12-18,1,,,,,シーマ,0
1961,9010003045826,新規,0,2024-12-18,2024-12-18,合同会社ルミエール,,合同会社,東京都,文京区,大塚６丁目１７番２号サイドバイサイドケイ２０１,,13,105,1120012,,,,,,,2024-12-18,1,,,,,ルミエール,0
1963,9010005039272,新規,0,2024-12-18,2024-12-18,一般財団法人戸田国際財団,,その他の設立登記法人,東京都,中央区,京橋１丁目７番１号,,13,102,1040031,,,,,,,2024-12-18,1,,,,,トダコクサイザイダン,0
1964,9010005039280,新規,0,2024-12-18,2024-12-18,一般社団法人出版文化振興会,,その他の設立登記法人,東京都,千代田区,西神田２丁目４番３号高岡ビル４Ｆ,,13,101,1010065,,,,,,,2024-12-18,1,,,,,シュッパンブンカシンコウカイ,0
1965,9010005039297,新規,0,2024-12-18,2024-12-18,Ｇｒａｎｄ　Ｈｏｕｓｅ特定目的会社,,その他の設立登記法人,東京都,千代田区,霞が関３丁目２番５号,,13,101,1000013,,,,,,,2024-12-18,1,,,,,グランドハウス,0
1966,9010101016448,新規,0,2024-12-18,2024-12-18,大地ｓｋｙホーム株式会社,,株式会社,東京都,八王子市,南新町１３番地２０プランドール長尾Ｂ３０３号,,13,201,1920075,,,,,,,2024-12-18,1,,,,,ダイチスカイホーム,0
1967,9010101016456,新規,0,2024-12-18,2024-12-18,株式会社ＳＲＢ,,株式会社,東京都,八王子市,東町１２番８号,,13,201,1920082,,,,,,,2024-12-18,1,,,,,エスアールビー,0
1975,9010401187063,新規,0,2024-12-18,2024-12-18,株式会社Ｅｖｉｌｌａｇｅ,,株式会社,東京都,港区,白金３丁目１６番３号２０８,,13,103,1080072,,,,,,,2024-12-18,1,,,,,イービレッジ,0
1976,9010401187096,新規,0,2024-12-18,2024-12-18,ＯＲＮＥＲ株式会社,,株式会社,東京都,港区,南青山６丁目７番１３－１２０１号,,13,103,1070062,,,,,,,2024-12-18,1,,,,,オルネ,0
1979,9010503007672,新規,0,2024-12-18,2024-12-18,合同会社ｗｒｉｄｅｓｉｇｎ,,合同会社,東京都,台東区,西浅草２丁目２番３号ジャネス菊水３０１,,13,106,1110035,,,,,,,2024-12-18,1,,,,,リデザイン,0
1980,9010601066455,新規,0,2024-12-18,2024-12-18,本益株式会社,,株式会社,東京都,江東区,亀戸３丁目６２番１０号３０５号室,,13,108,1360071,,,,,,,2024-12-18,1,,,,,ホンエキ,0
1983,9010701047009,新規,0,2024-12-18,2024-12-18,株式会社ＰＲＯＧＲＥＳＳ,,株式会社,東京都,品川区,旗の台６丁目１６－５ＭＹプレザンス００１,,13,109,1420064,,,,,,,2024-12-18,1,,,,,プログレス,0
1984,9010701047017,新規,0,2024-12-18,2024-12-18,ＭＥＤＹ株式会社,,株式会社,東京都,品川区,東五反田５丁目１２番５号,,13,109,1410022,,,,,,,2024-12-18,1,,,,,メディ,0
1985,9010801035680,新規,0,2024-12-18,2024-12-18,株式会社ＲＡＲＥＧＯＬＤ,,株式会社,東京都,大田区,蒲田本町２丁目２番３－１０１号,,13,111,1440053,,,,,,,2024-12-18,1,,,,,レアゴールド,0
1987,9010803005211,新規,0,2024-12-18,2024-12-18,合同会社Ｒｕｕｒａ,,合同会社,東京都,大田区,田園調布２丁目２０番１３号,,13,111,1450071,,,,,,,2024-12-18,1,,,,,ルーラ,0
1994,9011001166300,新規,0,2024-12-18,2024-12-18,株式会社ＳｐａｒｋＷａｖｅ,,株式会社,東京都,渋谷区,道玄坂１丁目１０番８号渋谷道玄坂東急ビル２Ｆ－Ｃ,,13,113,1500043,,,,,,,2024-12-18,1,,,,,スパークウェーブ,0
1995,9011001166309,新規,0,2024-12-18,2024-12-18,株式会社Ｌｉｂｅｒｕｍ,,株式会社,東京都,渋谷区,神山町１７番１０号ＣＲＯＳＳＲＯＡＤ渋谷神山町２０４,,13,113,1500047,,,,,,,2024-12-18,1,,,,,リベラム,0
1998,9011003020546,新規,0,2024-12-18,2024-12-18,合同会社Ｔｒａｓｈ　Ｈｕｍａｎ，Ｍｅ,,合同会社,東京都,渋谷区,道玄坂１丁目１０番８号渋谷道玄坂東急ビル２Ｆ－Ｃ,,13,113,1500043,,,,,,,2024-12-18,1,,,,,トラッシュヒューマンミー,0
2002,9011401026665,新規,0,2024-12-18,2024-12-18,株式会社Ｋｏｉｔｏ,,株式会社,東京都,板橋区,本町３５－１８コルムコート３０４号室,,13,119,1730001,,,,,,,2024-12-18,1,,,,,コイト,0
2006,9011803006604,新規,0,2024-12-18,2024-12-18,合同会社ｅｔｔａ,,合同会社,東京都,足立区,島根３丁目２４番４号クレール１０８,,13,121,1210815,,,,,,,2024-12-18,1,,,,,エッタ,0
2008,9012401042594,新規,0,2024-12-18,2024-12-18,株式会社ＬＡＬＡＬＡ．Ｂｏｎｉｔａ,,株式会社,東京都,武蔵野市,吉祥寺本町４丁目６番１５号吉祥寺街物語ＩＩ１０２,00137374,13,203,1800004,,,,,,,2024-12-18,1,,,,,ラララボニータ,0
2011,9012801023649,新規,0,2024-12-18,2024-12-18,株式会社緑匠,,株式会社,東京都,東大和市,芋窪５丁目１１３５番地の３,,13,220,2070033,,,,,,,2024-12-18,1,,,,,リョクショウ,0
2028,9021003015355,新規,0,2024-12-18,2024-12-18,合同会社フォルテサポート,,合同会社,神奈川県,大和市,下鶴間６２２―８,,14,213,2420001,,,,,,,2024-12-18,1,,,,,フォルテサポート,0
2031,9030001163974,新規,0,2024-12-18,2024-12-18,株式会社ピース,,株式会社,埼玉県,川口市,南鳩ヶ谷５丁目１７番１２号－２０２号,,11,203,3340013,,,,,,,2024-12-18,1,,,,,ピース,0
2032,9030001163982,新規,0,2024-12-18,2024-12-18,青空電設株式会社,,株式会社,埼玉県,川口市,前川２丁目３０番９号,,11,203,3330842,,,,,,,2024-12-18,1,,,,,アオゾラデンセツ,0
2033,9030001164015,新規,0,2024-12-18,2024-12-18,株式会社アンドロール,,株式会社,埼玉県,川越市,脇田本町１０番地２４フジクラロイヤルビル１Ｆ,,11,201,3501123,,,,,,,2024-12-18,1,,,,,アンドロール,0
2038,9040001136616,新規,0,2024-12-18,2024-12-18,株式会社Ｋａｌｍ　ｐｉｌａｔｅｓ,,株式会社,千葉県,千葉市中央区,新田町２－１９岩澤ビル,,12,101,2600027,,,,,,,2024-12-18,1,,,,,カルムピラティス,0
2039,9040001136624,新規,0,2024-12-18,2024-12-18,株式会社ＹＳＧ　ＦＯＲＣＥ,,株式会社,千葉県,白井市,大山口２丁目４番１５棟５０１号,,12,232,2701434,,,,,,,2024-12-18,1,,,,,ワイエスジーフォース,0
2043,9040003026402,新規,0,2024-12-18,2024-12-18,合同会社秋ぼ,,合同会社,千葉県,千葉市中央区,都町６丁目８番３２号,,12,101,2600001,,,,,,,2024-12-18,1,,,,,アキボ,0
2044,9040003026410,新規,0,2024-12-18,2024-12-18,合同会社ＤＭ２４号,,合同会社,千葉県,柏市,柏４丁目５番１０号,,12,217,2770005,,,,,,,2024-12-18,1,,,,,ディーエムニジュウヨンゴウ,0
2048,9050001055889,新規,0,2024-12-18,2024-12-18,株式会社東山,,株式会社,茨城県,水戸市,南町２丁目２番３４－１００６号,,08,201,3100021,,,,,,,2024-12-18,1,,,,,ヒガシヤマ,0
2053,9070001042464,新規,0,2024-12-18,2024-12-18,Ａｍｅ’ｌｉｏ株式会社,,株式会社,群馬県,太田市,鳥山上町２２２４番地４サンホームビル１０１号,,10,205,3730061,,,,,,,2024-12-18,1,,,,,アメリオ,0
2054,9080101025194,新規,0,2024-12-18,2024-12-18,マルマル株式会社,,株式会社,静岡県,沼津市,西島町１９番１８号レオパレス西島ＷＥＳＴ１０３,,22,203,4100835,,,,,,,2024-12-18,1,,,,,マルマル,0
2056,9080401027634,新規,0,2024-12-18,2024-12-18,株式会社プラントニー,,株式会社,静岡県,浜松市中央区,白羽町４４０番地の１,,22,138,4300846,,,,,,,2024-12-18,1,,,,,プラントニー,0
2058,9080403005167,新規,0,2024-12-18,2024-12-18,合同会社ＤＵＢＡＩ　ＡＵＴＯ　ＲＥＣＹＣＬＥ,,合同会社,静岡県,磐田市,飛平松字新田１５９番地２,,22,211,4380216,,,,,,,2024-12-18,1,,,,,ドバイオートリサイクル,0
2062,9090003002695,新規,0,2024-12-18,2024-12-18,合同会社ＦＴ,,合同会社,山梨県,富士吉田市,新屋１６４８番地,,19,202,4030006,,,,,,,2024-12-18,1,,,,,エフティ,0
2063,9100003007916,新規,0,2024-12-18,2024-12-18,熊澤設備合同会社,,合同会社,長野県,松本市,大字笹賀５７６２番地２ディアス杉山Ｂ１０１,,20,202,3990033,,,,,,,2024-12-18,1,,,,,クマザワセツビ,0
2065,9110001038929,新規,0,2024-12-18,2024-12-18,株式会社Ｈ．Ｍ総業,,株式会社,新潟県,三条市,柳場新田３９８番地１,,15,204,9550003,,,,,,,2024-12-18,1,,,,,エイチエムソウギョウ,0
2073,9120001271116,新規,0,2024-12-18,2024-12-18,かんさいくま株式会社,,株式会社,大阪府,大阪市住之江区,御崎１丁目１１番１９－３０６,,27,125,5590013,,,,,,,2024-12-18,1,,,,,カンサイクマ,0
2074,9120001271140,新規,0,2024-12-18,2024-12-18,ＫＩＮＧＨＡＮＤ株式会社,,株式会社,大阪府,大阪市港区,港晴１丁目１番２６号ベイグランドＦ４０１号,,27,107,5520023,,,,,,,2024-12-18,1,,,,,キングハンド,0
2075,9120001271198,新規,0,2024-12-18,2024-12-18,株式会社Ｒｅｇｅｎｂｏｇｅｎ,,株式会社,大阪府,大阪市阿倍野区,晴明通１６番６－１０８号,,27,119,5450032,,,,,,,2024-12-18,1,,,,,レーゲンボーゲン,0
2076,9120001271231,新規,0,2024-12-18,2024-12-18,株式会社Ｔｒｕｓｔ,,株式会社,大阪府,大阪市浪速区,難波中３丁目９－３ＲＥ－０２０－２０７,,27,111,5560011,,,,,,,2024-12-18,1,,,,,トラスト,0
2077,9120001271248,新規,0,2024-12-18,2024-12-18,ＮＯＲＩＹＡ株式会社,,株式会社,大阪府,大阪市北区,豊崎５丁目７－１２梅田ＯＣＳビルＳｏａｒ,,27,127,5310072,,,,,,,2024-12-18,1,,,,,ノリヤ,0
2078,9120001271256,新規,0,2024-12-18,2024-12-18,金勝実業管理株式会社,,株式会社,大阪府,大阪市住之江区,西住之江４丁目４－１１－２０２,,27,125,5590005,,,,,,,2024-12-18,1,,,,,キンショウジツギョウカンリ,0
2079,9120001271264,新規,0,2024-12-18,2024-12-18,フルコミット株式会社,,株式会社,大阪府,大阪市都島区,毛馬町５丁目１０番９号４０５号室,,27,102,5340001,,,,,,,2024-12-18,1,,,,,フルコミット,0
2082,9120003028175,新規,0,2024-12-18,2024-12-18,合同会社ＫＡＺＵＴＯ,,合同会社,大阪府,寝屋川市,寝屋新町９番４号,,27,215,5720852,,,,,,,2024-12-18,1,,,,,カズト,0
2083,9120003028209,新規,0,2024-12-18,2024-12-18,合同会社Ｗｅ　ａｒｅ,,合同会社,大阪府,大阪市平野区,平野上町１丁目２番１６号,,27,126,5470045,,,,,,,2024-12-18,1,,,,,ウィーアー,0
2085,9120101070764,新規,0,2024-12-18,2024-12-18,株式会社夢道場,,株式会社,大阪府,堺市堺区,砂道町２丁３番２１号,,27,141,5900002,,,,,,,2024-12-18,1,,,,,ユメドウジョウ,0
2087,9120903005471,新規,0,2024-12-18,2024-12-18,合同会社ＡＢＢＹ,,合同会社,大阪府,高槻市,弥生が丘町４９番１５号,,27,207,5691021,,,,,,,2024-12-18,1,,,,,アビー,0
2089,9122001038742,新規,0,2024-12-18,2024-12-18,株式会社Ｋｉ　Ｓｍｉｌｅ,,株式会社,大阪府,八尾市,木の本１丁目１２９番地,,27,212,5810044,,,,,,,2024-12-18,1,,,,,ケイスマイル,0
2095,9130001078618,新規,0,2024-12-18,2024-12-18,小玉醸造株式会社,,株式会社,京都府,京都市東山区,新橋通東大路東入林下町４０３番地,,26,105,6050062,,,,,,,2024-12-18,1,,,,,コダマジョウゾウ,0
2096,9130001078626,新規,0,2024-12-18,2024-12-18,株式会社田中製作所,,株式会社,京都府,京都市下京区,小稲荷町８５－２Ｇｒａｎｄ－Ｋ京都駅前ビル２０１,,26,106,6008208,,,,,,,2024-12-18,1,,,,,タナカセイサクショ,0
2099,9140003021418,新規,0,2024-12-18,2024-12-18,合同会社ラリマー,,合同会社,兵庫県,明石市,朝霧東町２丁目１１－１８ベルトピア朝霧２０２号,,28,203,6730860,,,,,,,2024-12-18,1,,,,,ラリマー,0
2100,9140005027314,新規,0,2024-12-18,2024-12-18,司法書士法人古米事務所,,その他の設立登記法人,兵庫県,神戸市東灘区,御影塚町２丁目１番２９号,,28,101,6580044,,,,,,,2024-12-18,1,,,,,フルマイジムショ,0
2106,9160001026417,新規,0,2024-12-18,2024-12-18,ｇ．ａｒｔｓ株式会社,,株式会社,滋賀県,東近江市,五個荘清水鼻町１４９番地１,,25,213,5291445,,,,,,,2024-12-18,1,,,,,ジーアーツ,0
2113,9180001164603,新規,0,2024-12-18,2024-12-18,株式会社エムズライト,,株式会社,愛知県,愛西市,稲葉町米野１４番地１,,23,232,4960907,,,,,,,2024-12-18,1,,,,,エムズライト,0
2120,9180003027741,新規,0,2024-12-18,2024-12-18,合同会社ＤＩＲＥＣＴＩＯＮ,,合同会社,愛知県,一宮市,平和３丁目９番地の４,,23,203,4910905,,,,,,,2024-12-18,1,,,,,ディレクション,0
2124,9190001031868,新規,0,2024-12-18,2024-12-18,株式会社Ｇｒｏｗ　Ｒｕｎ,,株式会社,三重県,桑名市,大字東方１３１１番地２６,,24,205,5110811,,,,,,,2024-12-18,1,,,,,グロウラン,0
2125,9190001031876,新規,0,2024-12-18,2024-12-18,株式会社シーポイントテック,,株式会社,三重県,松阪市,高町３４８番地２５,,24,204,5150011,,,,,,,2024-12-18,1,,,,,シーポイントテック,0
2126,9200001043234,新規,0,2024-12-18,2024-12-18,株式会社吉本農園,,株式会社,岐阜県,飛騨市,河合町稲越１４１番地１,,21,217,5094312,,,,,,,2024-12-18,1,,,,,ヨシモトノウエン,0
2132,9240001064268,新規,0,2024-12-18,2024-12-18,Ａｒｃａｎａ株式会社,,株式会社,広島県,広島市西区,己斐本町１丁目８番２７号パトウ己斐本町１階西側店舗,,34,104,7330812,,,,,,,2024-12-18,1,,,,,アルカナ,0
2138,9260001039722,新規,0,2024-12-18,2024-12-18,株式会社柏原設備,,株式会社,岡山県,岡山市中区,平井３丁目８７５番地２,,33,102,7038282,,,,,,,2024-12-18,1,,,,,カシハラセツビ,0
2145,9340003004690,新規,0,2024-12-18,2024-12-18,合同会社いっこう,,合同会社,鹿児島県,鹿児島市,坂之上７丁目２０番１８号,,46,201,8910150,,,,,,,2024-12-18,1,,,,,イッコウ,0
2151,9360003014531,新規,0,2024-12-18,2024-12-18,みなとみらいＬＬＣ合同会社,,合同会社,沖縄県,那覇市,牧志２丁目１７番２７号４０１,,47,201,9000013,,,,,,,2024-12-18,1,,,,,ミナトミライエルエルシー,0
2153,9370001052053,新規,0,2024-12-18,2024-12-18,株式会社大晃ホールディングス,,株式会社,宮城県,仙台市宮城野区,岩切字昭和西１６５番地の１,,04,102,9830821,,,,,,,2024-12-18,1,,,,,タイコウホールディングス,0
2157,9400003003364,新規,0,2024-12-18,2024-12-18,合同会社スープカレーハウスしっぽ,,合同会社,岩手県,花巻市,一日市６－１,,03,205,0250073,,,,,,,2024-12-18,1,,,,,スープカレーハウスシッポ,0
2164,9430001093280,新規,0,2024-12-18,2024-12-18,株式会社フィンガークロス,,株式会社,北海道,札幌市白石区,菊水上町一条２丁目１７９番地１０,,01,104,0030811,,,,,,,2024-12-18,1,,,,,フィンガークロス,0
2168,9430003017080,新規,0,2024-12-18,2024-12-18,ＹＡＮＤＭ合同会社,,合同会社,北海道,札幌市中央区,南一条西１７丁目１－１１－２０２,,01,101,0600061,,,,,,,2024-12-18,1,,,,,ワイアンドエム,0
