sequenceNumber,corporateNumber,process,correct,updateDate,changeDate,name,nameImageId,kind,prefectureName,cityName,streetNumber,addressImageId,prefectureCode,cityCode,postCode,addressOutside,addressOutsideImageId,closeDate,closeCause,successorCorporateNumber,changeCause,assignmentDate,latest,enName,enPrefectureName,enCityName,enAddressOutside,furigana,hihyoji
3,1010001228530,新規,0,2022-08-05,2022-08-05,株式会社ＣＡＮ,,株式会社,東京都,中央区,日本橋３丁目２番１４号新槇町ビル別館第一、一階,,13,102,1030027,,,,,,,2022-08-05,1,,,,,キャン,0
4,1010001228605,新規,0,2022-08-05,2022-08-05,株式会社スピリタ,,株式会社,東京都,千代田区,九段北４丁目３番１１－８０２号,,13,101,1020073,,,,,,,2022-08-05,1,,,,,スピリタ,0
8,1010005035386,新規,0,2022-08-05,2022-08-05,カンザス特定目的会社,,その他の設立登記法人,東京都,中央区,銀座１丁目６番１１号アースタックス税理士法人内,,13,102,1040061,,,,,,,2022-08-05,1,,,,,カンザス,0
12,1010401168839,新規,0,2022-08-05,2022-08-05,信達晨テック株式会社,,株式会社,東京都,港区,浜松町２丁目２番１５号浜松町ダイヤビル２Ｆ,,13,103,1050013,,,,,,,2022-08-05,1,,,,,シンタツシンテック,0
13,1010401168896,新規,0,2022-08-05,2022-08-05,株式会社インセプション,,株式会社,東京都,港区,南麻布４丁目５番６３号,,13,103,1060047,,,,,,,2022-08-05,1,,,,,インセプション,0
14,1010401168905,新規,0,2022-08-05,2022-08-05,ソーラー・ワン株式会社,,株式会社,東京都,港区,港南２丁目３番１３号,,13,103,1080075,,,,,,,2022-08-05,1,,,,,ソーラーワン,0
15,1010401168954,新規,0,2022-08-05,2022-08-05,新領域株式会社,,株式会社,東京都,港区,麻布狸穴町４１番地１,,13,103,1060042,,,,,,,2022-08-05,1,,,,,シンリョウイキ,0
25,1010601061604,新規,0,2022-08-05,2022-08-05,株式会社ＣＯＮＦＩＬＬ,,株式会社,東京都,墨田区,本所１丁目３６番７－５０２号,,13,107,1300004,,,,,,,2022-08-05,1,,,,,コンフィル,0
26,1010601061629,新規,0,2022-08-05,2022-08-05,ＰＬＡＮ３５株式会社,,株式会社,東京都,江東区,福住２丁目６番９号,,13,108,1350032,,,,,,,2022-08-05,1,,,,,プランサーティファイブ,0
27,1010603009675,新規,0,2022-08-05,2022-08-05,合同会社ＡＡ,,合同会社,東京都,江東区,豊洲５丁目１－１３－１７１７,,13,108,1350061,,,,,,,2022-08-05,1,,,,,エーシーズ,0
36,1010901051370,新規,0,2022-08-05,2022-08-05,Ｗｉｎ‐Ｗｉｎ‐Ｗｏｒｋ株式会社,,株式会社,東京都,世田谷区,三軒茶屋２丁目３７番３号,,13,112,1540024,,,,,,,2022-08-05,1,,,,,ウィンウィンワーク,0
42,1011001148883,新規,0,2022-08-05,2022-08-05,株式会社グローバルメタバース,,株式会社,東京都,渋谷区,神宮前１丁目１５番５号,,13,113,1500001,,,,,,,2022-08-05,1,,,,,グローバルメタバース,0
43,1011001148917,新規,0,2022-08-05,2022-08-05,なんでも不動産鑑定団株式会社,,株式会社,東京都,渋谷区,代々木２丁目３０番２号,,13,113,1510053,,,,,,,2022-08-05,1,,,,,ナンデモフドウサンカンテイダン,0
44,1011001149031,新規,0,2022-08-05,2022-08-05,Ｈｅａｌｔｈ　Ｃｏｎｎｅｃｔ株式会社,,株式会社,東京都,渋谷区,恵比寿２丁目２８番１０号,,13,113,1500013,,,,,,,2022-08-05,1,,,,,ヘルスコネクト,0
45,1011003015173,新規,0,2022-08-05,2022-08-05,アコブライト合同会社,,合同会社,東京都,目黒区,平町１丁目４番２２号,,13,110,1520032,,,,,,,2022-08-05,1,,,,,アコブライト,0
52,1011101099779,新規,0,2022-08-05,2022-08-05,株式会社ＳＢＣメディカルコンサルティング,,株式会社,東京都,新宿区,西新宿６丁目５番１号新宿アイランドタワー１２階,,13,104,1600023,,,,,,,2022-08-05,1,,,,,エスビーシーメディカルコンサルティング,0
53,1011201024018,新規,0,2022-08-05,2022-08-05,株式会社ジェットアンドリー,,株式会社,東京都,中野区,中央３丁目４５番２４－１０５号,,13,114,1640011,,,,,,,2022-08-05,1,,,,,ジェットアンドリー,0
55,1011403003736,新規,0,2022-08-05,2022-08-05,７３１テクニカル合同会社,,合同会社,東京都,板橋区,徳丸６丁目５１番２号,,13,119,1750083,,,,,,,2022-08-05,1,,,,,ナナサンイチテクニカル,0
56,1011603003668,新規,0,2022-08-05,2022-08-05,合同会社ＳＴＵＤＩＯ彩白,,合同会社,東京都,練馬区,豊玉中１丁目８番１５号グリーン・ハウス１０２,,13,120,1760013,,,,,,,2022-08-05,1,,,,,スタジオイロハ,0
58,1011801041098,新規,0,2022-08-05,2022-08-05,株式会社Ｂｌｏｓｓｏｍ　ＹＩＮ,,株式会社,東京都,足立区,竹の塚６丁目１６－１０－６０３号,,13,121,1210813,,,,,,,2022-08-05,1,,,,,ブロッサムイン,0
60,1012403005524,新規,0,2022-08-05,2022-08-05,ファルコンソリューションズ合同会社,,合同会社,東京都,武蔵野市,御殿山２丁目８－９－３０６,,13,203,1800005,,,,,,,2022-08-05,1,,,,,ファルコンソリューションズ,0
62,1012701017188,新規,0,2022-08-05,2022-08-05,ＤＡＹＡ’ｓ　Ｆｏｏｄ＆Ｃｏｏｐｅｒａｔｉｏｎ株式会社,,株式会社,東京都,小平市,学園東町１丁目１６番３２号寿荘２０１号室,,13,211,1870043,,,,,,,2022-08-05,1,,,,,ダヤズフードアンドコオペレーション,0
67,1013301049472,新規,0,2022-08-05,2022-08-05,株式会社メイユール,,株式会社,東京都,豊島区,池袋４丁目２４番４号ヴィラ生華１０２,,13,116,1710014,,,,,,,2022-08-05,1,,,,,メイユール,0
71,1020001147564,新規,0,2022-08-05,2022-08-05,株式会社宵々窓,,株式会社,神奈川県,横浜市中区,桜木町１丁目１０１番地１,,14,104,2310062,,,,,,,2022-08-05,1,,,,,ヨイヨイソウ,0
72,1020001147614,新規,0,2022-08-05,2022-08-05,株式会社Ａホールディングス,,株式会社,神奈川県,川崎市宮前区,宮崎２丁目６番地１０,,14,136,2160033,,,,,,,2022-08-05,1,,,,,エーホールディングス,0
73,1020001147647,新規,0,2022-08-05,2022-08-05,株式会社シーガル,,株式会社,神奈川県,横浜市西区,楠町１８番地６横浜西口オーケービル５Ｆ,,14,103,2200003,,,,,,,2022-08-05,1,,,,,シーガル,0
74,1020001147671,新規,0,2022-08-05,2022-08-05,株式会社宮島左官,,株式会社,神奈川県,横浜市保土ケ谷区,上菅田町３３３番地,,14,106,2400051,,,,,,,2022-08-05,1,,,,,ミヤジマサカン,0
83,1021001076687,新規,0,2022-08-05,2022-08-05,株式会社ＴＫＳ,,株式会社,神奈川県,小田原市,北ノ窪４５２番地,,14,206,2500051,,,,,,,2022-08-05,1,,,,,ティーケーエス,0
84,1021001076704,新規,0,2022-08-05,2022-08-05,Ｈａｎｉ株式会社,,株式会社,神奈川県,相模原市緑区,西橋本４丁目８番２２号,,14,151,2520131,,,,,,,2022-08-05,1,,,,,ハニ,0
88,1021003012013,新規,0,2022-08-05,2022-08-05,合同会社デスクワークス,,合同会社,神奈川県,小田原市,成田７５０番地の１,,14,206,2500862,,,,,,,2022-08-05,1,,,,,デスクワークス,0
94,1030001149477,新規,0,2022-08-05,2022-08-05,株式会社Ｇｒａｎｔ,,株式会社,埼玉県,狭山市,大字堀兼９６８番地５,,11,215,3501312,,,,,,,2022-08-05,1,,,,,グラント,0
95,1030001149535,新規,0,2022-08-05,2022-08-05,株式会社ＴＡＭＡ,,株式会社,埼玉県,越谷市,大字平方１８３４番地６,,11,222,3430002,,,,,,,2022-08-05,1,,,,,タマ,0
96,1030001149543,新規,0,2022-08-05,2022-08-05,株式会社ガレージエム,,株式会社,埼玉県,さいたま市北区,吉野町２丁目２６１番地２１,,11,102,3310811,,,,,,,2022-08-05,1,,,,,ガレージエム,0
99,1030003019918,新規,0,2022-08-05,2022-08-05,かえてくコンサルティング合同会社,,合同会社,埼玉県,蓮田市,東６丁目４番１７号ＯｐｕｓＩＩ－２０３号,00127440,11,238,3490111,,,,,,,2022-08-05,1,,,,,カエテクコンサルティング,0
100,1030003019926,新規,0,2022-08-05,2022-08-05,グローバルアクアテック合同会社,,合同会社,埼玉県,さいたま市大宮区,北袋町１丁目１９０番地２平和台Ａ－１１７,,11,103,3300835,,,,,,,2022-08-05,1,,,,,グローバルアクアテック,0
101,1030003019942,新規,0,2022-08-05,2022-08-05,合同会社５ミッション,,合同会社,埼玉県,入間市,大字野田３０５１番地５ザ・ハウス１０３,,11,225,3580054,,,,,,,2022-08-05,1,,,,,ファイブミッション,0
105,1040001124529,新規,0,2022-08-05,2022-08-05,株式会社サクマ,,株式会社,千葉県,習志野市,東習志野１丁目１３番２号,,12,216,2750001,,,,,,,2022-08-05,1,,,,,サクマ,0
106,1040001124545,新規,0,2022-08-05,2022-08-05,株式会社ランバス,,株式会社,千葉県,野田市,関宿台町１６８０番地,,12,208,2700202,,,,,,,2022-08-05,1,,,,,ランバス,0
107,1040001124561,新規,0,2022-08-05,2022-08-05,株式会社メイディット,,株式会社,千葉県,船橋市,西船３丁目７番３５号エクセラン１０１,,12,204,2730031,,,,,,,2022-08-05,1,,,,,メイディット,0
108,1040001124578,新規,0,2022-08-05,2022-08-05,株式会社坂本電気,,株式会社,千葉県,我孫子市,南青山２２番地の１９,,12,222,2701178,,,,,,,2022-08-05,1,,,,,サカモトデンキ,0
109,1040001124586,新規,0,2022-08-05,2022-08-05,株式会社ＡｉＬｅ,,株式会社,千葉県,袖ケ浦市,福王台３丁目２９番地１,,12,229,2990261,,,,,,,2022-08-05,1,,,,,エール,0
110,1040001124603,新規,0,2022-08-05,2022-08-05,株式会社Ｏｌｇａ　Ｔｒａｄｉｎｇ,,株式会社,千葉県,市川市,南行徳１丁目２２番７－４０１号,,12,203,2720138,,,,,,,2022-08-05,1,,,,,オーガトレーディング,0
112,1040003020585,新規,0,2022-08-05,2022-08-05,別館１合同会社,,合同会社,千葉県,船橋市,前原西２丁目１２番１３号３階,,12,204,2740825,,,,,,,2022-08-05,1,,,,,ベッカンイチ,0
116,1050001051499,新規,0,2022-08-05,2022-08-05,株式会社宮本建材,,株式会社,茨城県,日立市,河原子町３丁目７番１５号,,08,202,3160005,,,,,,,2022-08-05,1,,,,,ミヤモトケンザイ,0
117,1060001035154,新規,0,2022-08-05,2022-08-05,株式会社スマイルコネクト,,株式会社,栃木県,宇都宮市,桜４丁目３番１１号ナイスパークステイツ桜５０３,,09,201,3200043,,,,,,,2022-08-05,1,,,,,スマイルコネクト,0
123,1070001039501,新規,0,2022-08-05,2022-08-05,株式会社Ｒ２ｅ,,株式会社,群馬県,高崎市,上並榎町８９２番地９パシフィックハイツＫ,,10,202,3700801,,,,,,,2022-08-05,1,,,,,アールツーイー,0
127,1070003004577,新規,0,2022-08-05,2022-08-05,真栄工業合同会社,,合同会社,群馬県,安中市,板鼻２２１４番地,,10,211,3790111,,,,,,,2022-08-05,1,,,,,シンエイコウギョウ,0
128,1070005010020,新規,0,2022-08-05,2022-08-05,医療法人まつだ会,,その他の設立登記法人,群馬県,甘楽郡甘楽町,大字小幡字中道１７５番地１,,10,384,3702202,,,,,,,2022-08-05,1,,,,,マツダカイ,0
145,1120001247809,新規,0,2022-08-05,2022-08-05,株式会社ノイド,,株式会社,大阪府,大阪市西区,江之子島２丁目１番２１－２０３号,,27,106,5500006,,,,,,,2022-08-05,1,,,,,ノイド,0
146,1120001247882,新規,0,2022-08-05,2022-08-05,株式会社アイティーエム,,株式会社,大阪府,大阪市東成区,大今里南５丁目２０番４号,,27,115,5370013,,,,,,,2022-08-05,1,,,,,アイティーエム,0
147,1120001247957,新規,0,2022-08-05,2022-08-05,株式会社ココ・シンデレラ,,株式会社,大阪府,大阪市浪速区,桜川４丁目３番２２号,,27,111,5560022,,,,,,,2022-08-05,1,,,,,ココシンデレラ,0
148,1120001247973,新規,0,2022-08-05,2022-08-05,株式会社一組,,株式会社,大阪府,大阪市大正区,平尾３丁目１２番７号,,27,108,5510012,,,,,,,2022-08-05,1,,,,,イチクミ,0
157,1120101066002,新規,0,2022-08-05,2022-08-05,株式会社藤井板金工業,,株式会社,大阪府,羽曳野市,飛鳥９７６番地の４,,27,222,5830842,,,,,,,2022-08-05,1,,,,,フジイバンキンコウギョウ,0
158,1120101066027,新規,0,2022-08-05,2022-08-05,株式会社藤建,,株式会社,大阪府,岸和田市,磯上町２丁目１１番２号,,27,202,5960001,,,,,,,2022-08-05,1,,,,,,0
166,1130001072396,新規,0,2022-08-05,2022-08-05,ＥＶＥＲ株式会社,,株式会社,京都府,京都市左京区,下鴨宮崎町１１９－１,,26,103,6060802,,,,,,,2022-08-05,1,,,,,エバー,0
178,1160001024428,新規,0,2022-08-05,2022-08-05,株式会社フローティングライフ,,株式会社,滋賀県,野洲市,吉川２２８１番地１２,,25,210,5240201,,,,,,,2022-08-05,1,,,,,フローティングライフ,0
189,1190001029671,新規,0,2022-08-05,2022-08-05,株式会社ＧＲＡＶＩＴＹ,,株式会社,三重県,四日市市,広永町１３６６番地１,,24,202,5128061,,,,,,,2022-08-05,1,,,,,グラビティ,0
193,1200003005636,新規,0,2022-08-05,2022-08-05,ＱＵＡＮＧ　ＤＵＯＮＧ合同会社,,合同会社,岐阜県,本巣郡北方町,高屋白木１丁目５６番地ＳＡＮＴＥ８８－１０５号,,21,421,5010454,,,,,,,2022-08-05,1,,,,,グアンズオン,0
196,1220003003340,新規,0,2022-08-05,2022-08-05,合同会社スカラ,,合同会社,石川県,金沢市,野町３丁目１１番１号２Ｆオフィス１,,17,201,9218031,,,,,,,2022-08-05,1,,,,,スカラ,0
200,1240005015431,新規,0,2022-08-05,2022-08-05,社会保険労務士法人コマツオフィス,,その他の設立登記法人,広島県,福山市,寺町９番１１号ディックスビル２Ｆ,,34,207,7200041,,,,,,,2022-08-05,1,,,,,コマツオフィス,0
213,1290001098475,新規,0,2022-08-05,2022-08-05,ニッセイ筑豊株式会社,,株式会社,福岡県,飯塚市,伊川５３７番地１,,40,205,8200054,,,,,,,2022-08-05,1,,,,,ニッセイチクホウ,0
214,1290001098500,新規,0,2022-08-05,2022-08-05,株式会社ワイエムズ,,株式会社,福岡県,福岡市南区,高宮２丁目１４番１８号,,40,134,8150083,,,,,,,2022-08-05,1,,,,,ワイエムズ,0
218,1290003012797,新規,0,2022-08-05,2022-08-05,Ｓｕｓ‐Ｂｅ合同会社,,合同会社,福岡県,久留米市,六ツ門町１３番地２０－１Ｆ（Ｋ－８）,,40,203,8300031,,,,,,,2022-08-05,1,,,,,サスビー,0
219,1290003012814,新規,0,2022-08-05,2022-08-05,合同会社Ａｍｅｐｏｎ,,合同会社,福岡県,福岡市東区,香椎浜３丁目３番５モントーレ香椎浜サーフタワーセンターコート２８０１号,,40,131,8130016,,,,,,,2022-08-05,1,,,,,アメポン,0
220,1290003012822,新規,0,2022-08-05,2022-08-05,ＰＡＬ　ＤＲＩＶＥ　ＴＯＯＬＳ合同会社,,合同会社,福岡県,福岡市南区,平和４丁目１‐２０グリーンハイツ２１１号,,40,134,8150071,,,,,,,2022-08-05,1,,,,,パルドライブツールズ,0
226,1300003001872,新規,0,2022-08-05,2022-08-05,合同会社Ｋ‐ファーム吉野ヶ里,,合同会社,佐賀県,神埼郡吉野ヶ里町,箱川１６４５番地,,41,327,8420034,,,,,,,2022-08-05,1,,,,,ケーファームヨシノガリ,0
227,1300005007091,新規,0,2022-08-05,2022-08-05,一般社団法人鹿島デジタル社会推進協会,,その他の設立登記法人,佐賀県,鹿島市,大字中村１６４５番地１,,41,207,8491304,,,,,,,2022-08-05,1,,,,,カシマデジタルシャカイスイシンキョウカイ,0
238,1330003009475,新規,0,2022-08-05,2022-08-05,合同会社ＳＡＮＡ,,合同会社,熊本県,熊本市中央区,慶徳堀町１番地１（４０１号）,,43,101,8600014,,,,,,,2022-08-05,1,,,,,サナ,0
241,1350001017890,新規,0,2022-08-05,2022-08-05,双葉工業株式会社,,株式会社,宮崎県,延岡市,粟野名町１８０２番地,,45,203,8820025,,,,,,,2022-08-05,1,,,,,フタバコウギョウ,0
243,1360001030793,新規,0,2022-08-05,2022-08-05,株式会社ＲＥＳＰＥＣＴ　ＪＡＰＡＮ,,株式会社,沖縄県,沖縄市,与儀１丁目３２番１号パシフィックビューマンション２０３号室,,47,211,9042174,,,,,,,2022-08-05,1,,,,,リスペクトジャパン,0
251,1380001033027,新規,0,2022-08-05,2022-08-05,株式会社大吉板金,,株式会社,福島県,南会津郡只見町,大字蒲生字上原１１６８番地,,07,367,9680414,,,,,,,2022-08-05,1,,,,,ダイキチバンキン,0
253,1390001016988,新規,0,2022-08-05,2022-08-05,株式会社ｔｕｋｕｒｕ,,株式会社,山形県,西置賜郡白鷹町,大字山口３５４８番地の２,,06,402,9920774,,,,,,,2022-08-05,1,,,,,ツクル,0
258,1420001017958,新規,0,2022-08-05,2022-08-05,株式会社小嶋商会,,株式会社,青森県,つがる市,木造豊田富久地８番地７,,02,209,0383111,,,,,,,2022-08-05,1,,,,,コジマショウカイ,0
260,1430001087224,新規,0,2022-08-05,2022-08-05,ＳＡＭＩ　ＴＲＡＤＩＮＧ株式会社,,株式会社,北海道,苫小牧市,元町１丁目４番８号,,01,213,0530804,,,,,,,2022-08-05,1,,,,,サミトレーディング,0
261,1430001087232,新規,0,2022-08-05,2022-08-05,株式会社ＳＡＮＫＥ,,株式会社,北海道,札幌市中央区,南十四条西５丁目１番１８号,,01,101,0640914,,,,,,,2022-08-05,1,,,,,サンケー,0
264,1430003014135,新規,0,2022-08-05,2022-08-05,合同会社Ｌｉｆｅ　ｕｐ,,合同会社,北海道,札幌市南区,簾舞六条２丁目３番１９号,,01,106,0612266,,,,,,,2022-08-05,1,,,,,ライフアップ,0
269,1450001013764,新規,0,2022-08-05,2022-08-05,株式会社チャユ,,株式会社,北海道,稚内市,港４丁目７番２６号オレンジコート３－１０３,,01,214,0970021,,,,,,,2022-08-05,1,,,,,チャユ,0
273,1470001019198,新規,0,2022-08-05,2022-08-05,ＣｏＣｏ株式会社,,株式会社,香川県,高松市,鍛冶屋町１番地９ＴＨＥＡＩＲビル４Ｆ,,37,201,7600028,,,,,,,2022-08-05,1,,,,,ココ,0
274,1470003002227,新規,0,2022-08-05,2022-08-05,合同会社綾彩ファーム,,合同会社,香川県,高松市,田村町９９４番地１,,37,201,7618057,,,,,,,2022-08-05,1,,,,,アヤサイファーム,0
287,2010001228604,新規,0,2022-08-05,2022-08-05,ＭＩＢ株式会社,,株式会社,東京都,中央区,銀座１丁目１２番４号Ｎ＆ＥＢＬＤ．７階,,13,102,1040061,,,,,,,2022-08-05,1,,,,,エムアイビー,0
292,2010003038332,新規,0,2022-08-05,2022-08-05,新都心オフィスマネージメント合同会社,,合同会社,東京都,千代田区,丸の内１丁目１１番１号,,13,101,1000005,,,,,,,2022-08-05,1,,,,,シントシンオフィスマネージメント,0
300,2010401168879,新規,0,2022-08-05,2022-08-05,株式会社ＧＴＳ,,株式会社,東京都,港区,浜松町２丁目２番１５号浜松町ダイヤビル２Ｆ,,13,103,1050013,,,,,,,2022-08-05,1,,,,,ジーティーエス,0
301,2010401168887,新規,0,2022-08-05,2022-08-05,株式会社Ｌｉｎｋ,,株式会社,東京都,港区,赤坂４丁目８番１９号赤坂フロントタウン３Ｆ,,13,103,1070052,,,,,,,2022-08-05,1,,,,,リンク,0
302,2010401168920,新規,0,2022-08-05,2022-08-05,株式会社ｃｈｅｌ　ｃｏｍｐａｎｙ,,株式会社,東京都,港区,南青山２丁目２２番２号,,13,103,1070062,,,,,,,2022-08-05,1,,,,,チェルカンパニー,0
303,2010401168929,新規,0,2022-08-05,2022-08-05,株式会社Ｎ２Ｔソリューションズ,,株式会社,東京都,港区,元赤坂１丁目１番７号,,13,103,1070051,,,,,,,2022-08-05,1,,,,,エヌツーティー,0
307,2010405021258,新規,0,2022-08-05,2022-08-05,一般社団法人ミチブシ,,その他の設立登記法人,東京都,港区,西新橋１丁目２番９号メンターキャピタル税理士法人内,,13,103,1050003,,,,,,,2022-08-05,1,,,,,ミチブシ,0
313,2010601061636,新規,0,2022-08-05,2022-08-05,株式会社Ｂｕｉｌｄ　Ｐｌｕｓ,,株式会社,東京都,墨田区,両国２丁目１３－８両国駅前ビル７階,,13,107,1300026,,,,,,,2022-08-05,1,,,,,ビルドプラス,0
326,2010901051361,新規,0,2022-08-05,2022-08-05,株式会社モルトグラート,,株式会社,東京都,世田谷区,上馬３丁目１０番１０号,,13,112,1540011,,,,,,,2022-08-05,1,,,,,モルトグラート,0
328,2010903007568,新規,0,2022-08-05,2022-08-05,合同会社ＹＳＨ,,合同会社,東京都,世田谷区,瀬田４丁目１番９－２０３号,,13,112,1580095,,,,,,,2022-08-05,1,,,,,ワイエスエイチ,0
337,2011001148899,新規,0,2022-08-05,2022-08-05,株式会社アイル,,株式会社,東京都,渋谷区,渋谷３丁目１３－５,,13,113,1500002,,,,,,,2022-08-05,1,,,,,アイル,0
338,2011001149088,新規,0,2022-08-05,2022-08-05,ＥＭＯＴＯＲＡＤ　ＪＡＰＡＮ株式会社,,株式会社,東京都,渋谷区,円山町５番５号,,13,113,1500044,,,,,,,2022-08-05,1,,,,,イーモトラッドジャパン,0
351,2011403003743,新規,0,2022-08-05,2022-08-05,Ｋ＆Ｒ合同会社,,合同会社,東京都,板橋区,宮本町３２－６,,13,119,1740054,,,,,,,2022-08-05,1,,,,,ケイアンドアール,0
352,2011501028353,新規,0,2022-08-05,2022-08-05,株式会社ファーストケア,,株式会社,東京都,荒川区,荒川５丁目１９番１５号２Ｆ,,13,118,1160002,,,,,,,2022-08-05,1,,,,,ファーストケア,0
357,2011601026158,新規,0,2022-08-05,2022-08-05,株式会社ＬＡＮＤ　ＡＧＥＮＴ,,株式会社,東京都,練馬区,下石神井３丁目１７番１号,,13,120,1770042,,,,,,,2022-08-05,1,,,,,ランドエージェント,0
360,2011703003212,新規,0,2022-08-05,2022-08-05,合同会社スカイアース,,合同会社,東京都,江戸川区,東葛西２丁目１４番４号,,13,123,1340084,,,,,,,2022-08-05,1,,,,,スカイアース,0
367,2013301049455,新規,0,2022-08-05,2022-08-05,株式会社ＦｕｔｕｒｅＥＣＯ,,株式会社,東京都,豊島区,池袋２丁目１４番地４号池袋ＴＡビル８Ｆ,,13,116,1710014,,,,,,,2022-08-05,1,,,,,フューチャーエコ,0
368,2013305003367,新規,0,2022-08-05,2022-08-05,一般社団法人ＦｕｔｕｒｅＳＤＧｓ協会,,その他の設立登記法人,東京都,豊島区,池袋２丁目１４－４池袋ＴＡビル８Ｆ,,13,116,1710014,,,,,,,2022-08-05,1,,,,,フューチャーエスディージーズキョウカイ,0
371,2020001147613,新規,0,2022-08-05,2022-08-05,株式会社こもれび,,株式会社,神奈川県,横浜市中区,曙町１丁目３,,14,104,2310057,,,,,,,2022-08-05,1,,,,,コモレビ,0
372,2020001147621,新規,0,2022-08-05,2022-08-05,株式会社ｔｈｒｅａｄ,,株式会社,神奈川県,横浜市青葉区,あざみ野２丁目２６番地４５,,14,117,2250011,,,,,,,2022-08-05,1,,,,,スレッド,0
374,2020003022186,新規,0,2022-08-05,2022-08-05,合同会社ＳＫＹマネジメント,,合同会社,神奈川県,横浜市港北区,日吉本町２丁目４７番２号,,14,109,2230062,,,,,,,2022-08-05,1,,,,,スカイマネジメント,0
375,2020003022194,新規,0,2022-08-05,2022-08-05,合同会社奥ノ院,,合同会社,神奈川県,横浜市中区,桜木町１丁目１０１番地１クロスゲート７階,,14,104,2310062,,,,,,,2022-08-05,1,,,,,オクノイン,0
382,2030001149443,新規,0,2022-08-05,2022-08-05,株式会社カプリス,,株式会社,埼玉県,さいたま市見沼区,大字新堤１３１－４,,11,104,3370013,,,,,,,2022-08-05,1,,,,,カプリス,0
383,2030001149518,新規,0,2022-08-05,2022-08-05,株式会社ＡＴ　Ｕｎｉｑｕｅ,,株式会社,埼玉県,朝霞市,田島２丁目９番５号,,11,227,3510032,,,,,,,2022-08-05,1,,,,,エーティーユニーク,0
384,2030001149534,新規,0,2022-08-05,2022-08-05,株式会社ブレインズ,,株式会社,埼玉県,さいたま市中央区,下落合７丁目６番１９－３０２号,,11,105,3380002,,,,,,,2022-08-05,1,,,,,ブレインズ,0
385,2030001149550,新規,0,2022-08-05,2022-08-05,株式会社スマートスタイル,,株式会社,埼玉県,川口市,大字東本郷１０１５番地の１,,11,203,3340063,,,,,,,2022-08-05,1,,,,,スマートスタイル,0
388,2030003019925,新規,0,2022-08-05,2022-08-05,合同会社ＲＷＹ,,合同会社,埼玉県,児玉郡上里町,大字勅使河原８６６番地８,,11,385,3690311,,,,,,,2022-08-05,1,,,,,ランウェイ,0
389,2030003019933,新規,0,2022-08-05,2022-08-05,合同会社軽将,,合同会社,埼玉県,さいたま市南区,大字広ヶ谷戸３８８番地３,,11,108,3360041,,,,,,,2022-08-05,1,,,,,ケイショウ,0
390,2030005020947,新規,0,2022-08-05,2022-08-05,特定非営利活動法人ｅａｒｔｈ　ｔｒｅｅ,,その他の設立登記法人,埼玉県,春日部市,大枝９６２番地１２,,11,214,3440023,,,,,,,2022-08-05,1,,,,,アースツリー,0
394,2040001124536,新規,0,2022-08-05,2022-08-05,Ｌｅｅｗａｙ株式会社,,株式会社,千葉県,松戸市,馬橋３２４０－２はなみずき通貸家２－３階,,12,207,2710051,,,,,,,2022-08-05,1,,,,,リーウェイ,0
395,2040001124544,新規,0,2022-08-05,2022-08-05,株式会社バンテック,,株式会社,千葉県,千葉市中央区,村田町７３３番地１１グリーンビレッジ浜野駅前３０５号,,12,101,2600825,,,,,,,2022-08-05,1,,,,,バンテック,0
396,2040001124560,新規,0,2022-08-05,2022-08-05,株式会社大勇コネクション,,株式会社,千葉県,君津市,外箕輪４丁目２９番６号,,12,225,2991173,,,,,,,2022-08-05,1,,,,,ダイユウコネクション,0
397,2040001124569,新規,0,2022-08-05,2022-08-05,株式会社ＫＰＬＵＳ,,株式会社,千葉県,柏市,中央２丁目２番１２号,,12,217,2770023,,,,,,,2022-08-05,1,,,,,ケイプラス,0
398,2040001124577,新規,0,2022-08-05,2022-08-05,株式会社ＴＭＫ,,株式会社,千葉県,船橋市,三山２丁目３４番１４号－１０２号,,12,204,2740072,,,,,,,2022-08-05,1,,,,,ティーエムケー,0
399,2040001124585,新規,0,2022-08-05,2022-08-05,株式会社シルバー,,株式会社,千葉県,千葉市中央区,要町２番１２号,,12,101,2600017,,,,,,,2022-08-05,1,,,,,シルバー,0
400,2040001124602,新規,0,2022-08-05,2022-08-05,株式会社Ｃｒｅａｔｅ　Ｂｅｔｔｅｒ,,株式会社,千葉県,松戸市,高塚新田１５０－６１,,12,207,2702222,,,,,,,2022-08-05,1,,,,,クリエイトベター,0
403,2040003020551,新規,0,2022-08-05,2022-08-05,合同会社ＮＯＤＯＣＡ,,合同会社,千葉県,南房総市,白浜町白浜５９３３番地,,12,234,2950102,,,,,,,2022-08-05,1,,,,,ノドカ,0
404,2040003020576,新規,0,2022-08-05,2022-08-05,ＳＩＮＧＨ　ＢＲＯＴＨＥＲＳ合同会社,,合同会社,千葉県,市川市,大洲２丁目１３番１２－２０２号（つるさし苑）,,12,203,2720032,,,,,,,2022-08-05,1,,,,,スイングブラザーズ,0
409,2050001051515,新規,0,2022-08-05,2022-08-05,株式会社ｊＩｔＣｏｍ,,株式会社,茨城県,稲敷郡阿見町,うずら野３丁目２７－８,,08,443,3000341,,,,,,,2022-08-05,1,,,,,ジェイアイティコム,0
411,2060001035137,新規,0,2022-08-05,2022-08-05,株式会社菅井農園,,株式会社,栃木県,足利市,久保田町１５４８番地１,,09,202,3260324,,,,,,,2022-08-05,1,,,,,スガイノウエン,0
412,2060001035145,新規,0,2022-08-05,2022-08-05,株式会社ＭＲＫ　ＫＵＢＯＴＡ,,株式会社,栃木県,足利市,大沼田町３２８番地１,,09,202,3260011,,,,,,,2022-08-05,1,,,,,エムアールケークボタ,0
413,2060003004180,新規,0,2022-08-05,2022-08-05,合同会社ＧＳＢ,,合同会社,栃木県,宇都宮市,西川田本町２丁目６番１８号,,09,201,3210158,,,,,,,2022-08-05,1,,,,,ジーエスビー,0
414,2060005010004,新規,0,2022-08-05,2022-08-05,一般社団法人あじさい,,その他の設立登記法人,栃木県,河内郡上三川町,大字上郷２１３１－６,,09,301,3290604,,,,,,,2022-08-05,1,,,,,アジサイ,0
415,2070001039509,新規,0,2022-08-05,2022-08-05,アイビー工業株式会社,,株式会社,群馬県,高崎市,中室田町１０６７番地,,10,202,3703347,,,,,,,2022-08-05,1,,,,,アイビーコウギョウ,0
416,2070001039517,新規,0,2022-08-05,2022-08-05,株式会社ユナイトリンク,,株式会社,群馬県,高崎市,下之城町７９７番地１,,10,202,3700854,,,,,,,2022-08-05,1,,,,,ユナイトリンク,0
418,2070003004584,新規,0,2022-08-05,2022-08-05,グリーン・ライフ合同会社,,合同会社,群馬県,前橋市,粕川町女渕１４８０番地４,,10,201,3710214,,,,,,,2022-08-05,1,,,,,グリーンライフ,0
423,2100001035578,新規,0,2022-08-05,2022-08-05,株式会社Ｔ‐ＳＹＳＴＥＭ,,株式会社,長野県,上田市,大屋５１６番地１,,20,203,3860152,,,,,,,2022-08-05,1,,,,,ティーシステム,0
428,2110001036872,新規,0,2022-08-05,2022-08-05,株式会社Ｗ‐ｔｏｕｒｉｓｍ,,株式会社,新潟県,長岡市,南町２丁目５番１５号,,15,202,9400081,,,,,,,2022-08-05,1,,,,,ダブルツーリズム,0
446,2120001247766,新規,0,2022-08-05,2022-08-05,ＨＡＬＦ　ＭＯＯＮ株式会社,,株式会社,大阪府,大阪市北区,中津１丁目２番３－４０２号,,27,127,5310071,,,,,,,2022-08-05,1,,,,,ハーフムーン,0
447,2120001247849,新規,0,2022-08-05,2022-08-05,株式会社テルミニ,,株式会社,大阪府,大阪市中央区,上町Ｃ番７号,,27,128,5400005,,,,,,,2022-08-05,1,,,,,テルミニ,0
451,2120101066018,新規,0,2022-08-05,2022-08-05,株式会社Ｙ．Ｈ,,株式会社,大阪府,堺市堺区,柳之町西１丁２番２号プレアール柳之町２０２号,,27,141,5900930,,,,,,,2022-08-05,1,,,,,ワイエイチ,0
452,2120101066026,新規,0,2022-08-05,2022-08-05,カイエンロジスティクス株式会社,,株式会社,大阪府,泉佐野市,若宮町４番１８号レナート若宮３０３号室,,27,213,5980055,,,,,,,2022-08-05,1,,,,,カイエンロジスティクス,0
455,2130001072346,新規,0,2022-08-05,2022-08-05,株式会社ウェルビーイングアンドキャリア,,株式会社,京都府,京都市伏見区,深草西浦町６丁目７９－５,,26,109,6120029,,,,,,,2022-08-05,1,,,,,ウェルビーイングアンドキャリア,0
456,2130001072354,新規,0,2022-08-05,2022-08-05,株式会社シャンパン,,株式会社,京都府,京都市右京区,西院月双町１１１番地マンハイム五条６１１号,,26,108,6150054,,,,,,,2022-08-05,1,,,,,シャンパン,0
458,2130003008117,新規,0,2022-08-05,2022-08-05,合同会社エメ,,合同会社,京都府,城陽市,寺田東ノ口１２番地の４宮崎マンション２棟４０２号,,26,207,6100121,,,,,,,2022-08-05,1,,,,,エメ,0
466,2140003018008,新規,0,2022-08-05,2022-08-05,合同会社ＴＳコネコント,,合同会社,兵庫県,尼崎市,御園町２７番地の３さきタワー・サンクタス尼崎駅前２１０５号,,28,202,6600861,,,,,,,2022-08-05,1,,,,,ティーエスコネコント,0
467,2140005026272,新規,0,2022-08-05,2022-08-05,一般社団法人Ｐｒｏ　Ｆｉｔ,,その他の設立登記法人,兵庫県,加古郡稲美町,国岡４丁目１１５番地,,28,381,6751115,,,,,,,2022-08-05,1,,,,,プロフィット,0
478,2200001040345,新規,0,2022-08-05,2022-08-05,株式会社水野モータース,,株式会社,岐阜県,土岐市,駄知町２３２１番地の１９５,,21,212,5095401,,,,,,,2022-08-05,1,,,,,ミズノモータース,0
484,2240001060158,新規,0,2022-08-05,2022-08-05,株式会社ＳＡＧＡＲＡ,,株式会社,広島県,東広島市,西条町下見９６２番地４,,34,212,7390044,,,,,,,2022-08-05,1,,,,,サガラ,0
485,2240001060190,新規,0,2022-08-05,2022-08-05,おれんぢ株式会社,,株式会社,広島県,広島市安佐南区,大塚西７丁目７番３５号,,34,105,7313167,,,,,,,2022-08-05,1,,,,,オレンヂ,0
500,2290001098474,新規,0,2022-08-05,2022-08-05,株式会社メイリウム,,株式会社,福岡県,福岡市中央区,天神３丁目１４番２号公建ビル３０３号,,40,133,8100001,,,,,,,2022-08-05,1,,,,,メイリウム,0
501,2290001098482,新規,0,2022-08-05,2022-08-05,株式会社プレッセル,,株式会社,福岡県,糟屋郡篠栗町,大字尾仲１１２４番地１,,40,342,8112413,,,,,,,2022-08-05,1,,,,,プレッセル,0
506,2290003012796,新規,0,2022-08-05,2022-08-05,合同会社ｒｏｐｅｔ,,合同会社,福岡県,福岡市南区,大楠３丁目９番２６－１号,,40,134,8150082,,,,,,,2022-08-05,1,,,,,ロペット,0
507,2290003012813,新規,0,2022-08-05,2022-08-05,藍ｍｉｎｅｙｅ合同会社,,合同会社,福岡県,小郡市,希みが丘２丁目１６番地１５,,40,216,8380107,,,,,,,2022-08-05,1,,,,,アイマイン,0
510,2300001013027,新規,0,2022-08-05,2022-08-05,誠懸株式会社,,株式会社,佐賀県,武雄市,武雄町大字富岡字西浦２７７番地,,41,206,8430024,,,,,,,2022-08-05,1,,,,,セイケン,0
511,2300003001871,新規,0,2022-08-05,2022-08-05,合同会社Ｗｏｒｋｅｒｓ　Ｐｒｏ,,合同会社,佐賀県,西松浦郡有田町,南山丁４３１番地１,,41,401,8440028,,,,,,,2022-08-05,1,,,,,ワーカーズプロ,0
512,2300005007090,新規,0,2022-08-05,2022-08-05,一般社団法人オーバル,,その他の設立登記法人,佐賀県,三養基郡上峰町,大字坊所２５１４番地５６,,41,345,8490123,,,,,,,2022-08-05,1,,,,,オーバル,0
519,2330001029994,新規,0,2022-08-05,2022-08-05,株式会社ティーズファーム,,株式会社,熊本県,玉名市,伊倉北方１９３番地１,,43,206,8650041,,,,,,,2022-08-05,1,,,,,ティーズファーム,0
523,2350001017898,新規,0,2022-08-05,2022-08-05,株式会社ＯＵＴＲＩＰ,,株式会社,宮崎県,宮崎市,吉村町北原甲１４６９－３リシェス１０２,,45,201,8800841,,,,,,,2022-08-05,1,,,,,アウトリップ,0
530,2370001048900,新規,0,2022-08-05,2022-08-05,ディーメンテサービス株式会社,,株式会社,宮城県,仙台市宮城野区,高砂１丁目３０番地の１４,,04,102,9830014,,,,,,,2022-08-05,1,,,,,ディーメンテサービス,0
531,2370001048909,新規,0,2022-08-05,2022-08-05,株式会社タスクビト,,株式会社,宮城県,仙台市青葉区,南吉成１丁目１４番地の４,,04,101,9893204,,,,,,,2022-08-05,1,,,,,タスクビト,0
534,2380001033026,新規,0,2022-08-05,2022-08-05,株式会社Ｇｏｎｅ　Ｏｎ,,株式会社,福島県,福島市,伏拝字沖２４番地の４－Ｃ棟１０３号,,07,201,9608154,,,,,,,2022-08-05,1,,,,,ゴーンオン,0
536,2380003005254,新規,0,2022-08-05,2022-08-05,合同会社アートロゼ,,合同会社,福島県,いわき市,平字田町２９番地,,07,204,9708026,,,,,,,2022-08-05,1,,,,,アートロゼ,0
537,2390001016987,新規,0,2022-08-05,2022-08-05,株式会社ＲＭＣ,,株式会社,山形県,酒田市,東町１丁目２４番地１６,,06,204,9980875,,,,,,,2022-08-05,1,,,,,アールエムシー,0
538,2400001015962,新規,0,2022-08-05,2022-08-05,株式会社エデュスタ,,株式会社,岩手県,北上市,中野町２丁目２２番２０号,,03,206,0240024,,,,,,,2022-08-05,1,,,,,エデュスタ,0
545,2410003003691,新規,0,2022-08-05,2022-08-05,合同会社プレザント,,合同会社,秋田県,秋田市,仁井田二ツ屋２丁目３番５５号,,05,201,0101431,,,,,,,2022-08-05,1,,,,,プレザント,0
549,2430001087215,新規,0,2022-08-05,2022-08-05,株式会社創成,,株式会社,北海道,札幌市北区,北二十七条西１２丁目６番７－４３号,,01,102,0010027,,,,,,,2022-08-05,1,,,,,ソウセイ,0
550,2430001087223,新規,0,2022-08-05,2022-08-05,Ａ・Ｍ　Ｃｏｒｐｏｒａｔｉｏｎ株式会社,,株式会社,北海道,苫小牧市,ときわ町６丁目７番１５号,,01,213,0591261,,,,,,,2022-08-05,1,,,,,エイエムコーポレーション,0
551,2430003014159,新規,0,2022-08-05,2022-08-05,合同会社ＦＥＲＮＡ,,合同会社,北海道,札幌市豊平区,旭町３丁目２－７－３０３,,01,105,0620911,,,,,,,2022-08-05,1,,,,,フェルナ,0
558,2480003001862,新規,0,2022-08-05,2022-08-05,家と暮らし合同会社,,合同会社,徳島県,三好郡東みよし町,足代１６５０,,36,489,7712502,,,,,,,2022-08-05,1,,,,,イエトクラシ,0
560,2500003002874,新規,0,2022-08-05,2022-08-05,合同会社ＳＴ工業,,合同会社,愛媛県,今治市,常盤町５丁目６番２１号２Ｆ,,38,202,7940015,,,,,,,2022-08-05,1,,,,,エスティーコウギョウ,0
569,3010001228537,新規,0,2022-08-05,2022-08-05,エリエールフィールドパートナー株式会社,,株式会社,東京都,千代田区,富士見２丁目１０番２号,,13,101,1020071,,,,,,,2022-08-05,1,,,,,エリエールフィールドパートナー,0
570,3010001228603,新規,0,2022-08-05,2022-08-05,株式会社Ｃａｎ　Ｂｅ,,株式会社,東京都,千代田区,神田神保町２丁目３８番地,,13,101,1010051,,,,,,,2022-08-05,1,,,,,キャンビー,0
577,3010401168878,新規,0,2022-08-05,2022-08-05,株式会社フラット,,株式会社,東京都,港区,南青山２丁目２番１５号ウィン青山９４２,,13,103,1070062,,,,,,,2022-08-05,1,,,,,フラット,0
578,3010401168886,新規,0,2022-08-05,2022-08-05,株式会社オーロラ,,株式会社,東京都,港区,新橋３丁目３番３号新橋パイオニアビル４Ｆ,,13,103,1050004,,,,,,,2022-08-05,1,,,,,オーロラ,0
579,3010401168928,新規,0,2022-08-05,2022-08-05,株式会社鹿鳴,,株式会社,東京都,港区,西麻布２丁目２５－１５ユニマットミストラルポイント５階,,13,103,1060031,,,,,,,2022-08-05,1,,,,,ロクメイ,0
580,3010401168944,新規,0,2022-08-05,2022-08-05,ＳＴ株式会社,,株式会社,東京都,港区,北青山１丁目２番３号,,13,103,1070061,,,,,,,2022-08-05,1,,,,,エスティー,0
588,3010601061560,新規,0,2022-08-05,2022-08-05,株式会社北斗法律会計事務所,,株式会社,東京都,墨田区,菊川３丁目１３番３号ＫＳビル３階,,13,107,1300024,,,,,,,2022-08-05,1,,,,,ホクトホウリツカイケイジムショ,0
589,3010601061602,新規,0,2022-08-05,2022-08-05,株式会社ｗｉｎｄ．,,株式会社,東京都,江東区,門前仲町１丁目３番７号,,13,108,1350048,,,,,,,2022-08-05,1,,,,,ウインド,0
590,3010601061619,新規,0,2022-08-05,2022-08-05,すなまち不動産株式会社,,株式会社,東京都,江東区,東砂４丁目１６番１０号,,13,108,1360074,,,,,,,2022-08-05,1,,,,,スナマチフドウサン,0
591,3010601061635,新規,0,2022-08-05,2022-08-05,ＲＯＫＵＭＥＩ株式会社,,株式会社,東京都,墨田区,両国３丁目２０番６号小林ビル２階,,13,107,1300026,,,,,,,2022-08-05,1,,,,,ロクメイ,0
592,3010603009673,新規,0,2022-08-05,2022-08-05,ＡｐｐＣａｔ合同会社,,合同会社,東京都,江東区,平野２丁目２番３－６０１号,,13,108,1350023,,,,,,,2022-08-05,1,,,,,アップキャット,0
603,3010901051369,新規,0,2022-08-05,2022-08-05,株式会社ｗｉｔｈ　Ｃｒｅａｔｅ,,株式会社,東京都,世田谷区,千歳台６丁目１６番２－１２０１,,13,112,1570071,,,,,,,2022-08-05,1,,,,,ウィズクリエイト,0
610,3011001149070,新規,0,2022-08-05,2022-08-05,株式会社Ｍｅｔａ　Ｇｒａｐｈｉｃｓ,,株式会社,東京都,渋谷区,渋谷１丁目４番６号ニュー青山ビル５０１,,13,113,1500002,,,,,,,2022-08-05,1,,,,,メタグラフィックス,0
611,3011003015097,新規,0,2022-08-05,2022-08-05,合同会社Ｙｏｈａｋｕ,,合同会社,東京都,渋谷区,渋谷２丁目１９－１５宮益坂ビルディング６０９,,13,113,1500002,,,,,,,2022-08-05,1,,,,,ヨハク,0
612,3011003015106,新規,0,2022-08-05,2022-08-05,合同会社Ｒリンクス,,合同会社,東京都,目黒区,青葉台１丁目１４番１５－２０３号目黒第１コーポ,,13,110,1530042,,,,,,,2022-08-05,1,,,,,アールリンクス,0
613,3011003015114,新規,0,2022-08-05,2022-08-05,合同会社ＡＴＩＸＩ,,合同会社,東京都,渋谷区,神宮前４丁目２６番２８号原宿Ｖ２ビル２階,,13,113,1500001,,,,,,,2022-08-05,1,,,,,アティクシ,0
618,3011201024008,新規,0,2022-08-05,2022-08-05,株式会社Ｌｏｏｓｅｌｅａｆ,,株式会社,東京都,中野区,中央１丁目３８番１－２４０４号,,13,114,1640011,,,,,,,2022-08-05,1,,,,,ルーズリーフ,0
619,3011201024016,新規,0,2022-08-05,2022-08-05,みやつき株式会社,,株式会社,東京都,中野区,沼袋２丁目１９番１１号フジテラス中野２１２号室,,13,114,1650025,,,,,,,2022-08-05,1,,,,,ミヤツキ,0
621,3011203003892,新規,0,2022-08-05,2022-08-05,合同会社ガガギゴ,,合同会社,東京都,中野区,東中野５丁目１１－８,,13,114,1640003,,,,,,,2022-08-05,1,,,,,ガガギゴ,0
623,3011403003742,新規,0,2022-08-05,2022-08-05,合同会社ＹＴ,,合同会社,東京都,板橋区,徳丸４丁目３１番２６号,,13,119,1750083,,,,,,,2022-08-05,1,,,,,ワイティー,0
637,3012403005530,新規,0,2022-08-05,2022-08-05,合同会社ＥｉｇｅｎＢｅａｔｓ,,合同会社,東京都,調布市,深大寺南町４丁目５番地１５,,13,208,1820013,,,,,,,2022-08-05,1,,,,,アイゲンビーツ,0
642,3013303006255,新規,0,2022-08-05,2022-08-05,合同会社ファイヴセェンシス,,合同会社,東京都,豊島区,要町３丁目１番１３号池袋要町マンション１０７号,,13,116,1710043,,,,,,,2022-08-05,1,,,,,ファイヴセェンシス,0
645,3020001147488,新規,0,2022-08-05,2022-08-05,株式会社フリティ,,株式会社,神奈川県,川崎市多摩区,宿河原７丁目１番１０－１０６号,,14,135,2140021,,,,,,,2022-08-05,1,,,,,フリティ,0
646,3020001147620,新規,0,2022-08-05,2022-08-05,株式会社Ｓｈｅ,,株式会社,神奈川県,横浜市青葉区,美しが丘１丁目４番地１４プレシャスヒルズたまプラーザ５０１,,14,117,2250002,,,,,,,2022-08-05,1,,,,,シー,0
647,3020001147629,新規,0,2022-08-05,2022-08-05,ＧＹＹ株式会社,,株式会社,神奈川県,横浜市南区,白妙町４丁目４２番地１ヴァンティアン横濱１３０３号室,,14,105,2320023,,,,,,,2022-08-05,1,,,,,ジーワイワイ,0
650,3020003022210,新規,0,2022-08-05,2022-08-05,合同会社アンカープロジェクト,,合同会社,神奈川県,横浜市戸塚区,戸塚町５０２４番地１パークホームズ戸塚ステーションプレミア６０５号,,14,110,2440003,,,,,,,2022-08-05,1,,,,,アンカープロジェクト,0
653,3021003012011,新規,0,2022-08-05,2022-08-05,合同会社Ｉ．Ｔ．Ｏ,,合同会社,神奈川県,横須賀市,森崎３丁目６番５５号,,14,201,2380023,,,,,,,2022-08-05,1,,,,,アイティーオー,0
657,3030001149418,新規,0,2022-08-05,2022-08-05,株式会社ＳＥＫＩＭＯＴＯ,,株式会社,埼玉県,春日部市,大場１３７６番地８号,,11,214,3440021,,,,,,,2022-08-05,1,,,,,セキモト,0
658,3030001149500,新規,0,2022-08-05,2022-08-05,株式会社ＭＭＴ,,株式会社,埼玉県,入間郡三芳町,大字藤久保９０１番地４,,11,324,3540041,,,,,,,2022-08-05,1,,,,,エムエムティー,0
659,3030001149509,新規,0,2022-08-05,2022-08-05,株式会社ＳＧＮ,,株式会社,埼玉県,所沢市,緑町４丁目３４番３２号,,11,208,3591111,,,,,,,2022-08-05,1,,,,,エスジーエヌ,0
660,3030001149525,新規,0,2022-08-05,2022-08-05,株式会社ＢＲＥＥＺＩＡ,,株式会社,埼玉県,桶川市,若宮１丁目４番１４号,,11,231,3630022,,,,,,,2022-08-05,1,,,,,ブリージア,0
661,3030001149541,新規,0,2022-08-05,2022-08-05,株式会社天沼塗装,,株式会社,埼玉県,三郷市,戸ケ崎３丁目１７９番地１,,11,237,3410044,,,,,,,2022-08-05,1,,,,,アマヌマトソウ,0
662,3030001149566,新規,0,2022-08-05,2022-08-05,株式会社ＳＴＢ,,株式会社,埼玉県,鴻巣市,加美３丁目２１５６番１,,11,217,3650078,,,,,,,2022-08-05,1,,,,,エスティービー,0
666,3030003019899,新規,0,2022-08-05,2022-08-05,合同会社ＬＲ　Ｗｏｒｋｓ,,合同会社,埼玉県,さいたま市見沼区,大字南中丸６９６番地６,,11,104,3370041,,,,,,,2022-08-05,1,,,,,エルアールワークス,0
667,3030003019916,新規,0,2022-08-05,2022-08-05,合同会社ＬＥＧＥＮＤＳ,,合同会社,埼玉県,吉川市,美南１丁目２番地２リブリ・ＳＡＫＵＲＡ１５－３０８号室,,11,243,3420038,,,,,,,2022-08-05,1,,,,,レジェンズ,0
668,3030003019940,新規,0,2022-08-05,2022-08-05,合同会社ＡＮＤＯ,,合同会社,埼玉県,入間市,大字下藤沢１１５２番地２１,,11,225,3580011,,,,,,,2022-08-05,1,,,,,アンドー,0
671,3040001124493,新規,0,2022-08-05,2022-08-05,大光総研株式会社,,株式会社,千葉県,松戸市,小金きよしケ丘２丁目１９番地の３,,12,207,2700013,,,,,,,2022-08-05,1,,,,,タイコウソウケン,0
672,3040001124502,新規,0,2022-08-05,2022-08-05,株式会社ＳＨＡＨ　ＴＲＡＤＩＮＧ,,株式会社,千葉県,野田市,尾崎８１５番地の１１ヴィラパレス川間弐番館１０１,,12,208,2700235,,,,,,,2022-08-05,1,,,,,シャートレーディング,0
673,3040001124519,新規,0,2022-08-05,2022-08-05,株式会社幻屋,,株式会社,千葉県,旭市,中谷里１７４０番地,,12,215,2892523,,,,,,,2022-08-05,1,,,,,マボロシヤ,0
674,3040001124535,新規,0,2022-08-05,2022-08-05,株式会社ＭＯＲＥ,,株式会社,千葉県,千葉市若葉区,高品町１０６０番地９４,,12,104,2640024,,,,,,,2022-08-05,1,,,,,モア,0
675,3040001124543,新規,0,2022-08-05,2022-08-05,株式会社ＤＩＶＥ,,株式会社,千葉県,松戸市,八ケ崎６丁目２９番地の８,,12,207,2700023,,,,,,,2022-08-05,1,,,,,ダイブ,0
676,3040001124568,新規,0,2022-08-05,2022-08-05,株式会社Ｎｅｘｔ　Ｓｔａｇｅ,,株式会社,千葉県,千葉市中央区,登戸１丁目２６番１５号,,12,101,2600032,,,,,,,2022-08-05,1,,,,,ネクストステージ,0
677,3040001124576,新規,0,2022-08-05,2022-08-05,勇石工業株式会社,,株式会社,千葉県,八千代市,八千代台北１７丁目１４番５号,,12,221,2760031,,,,,,,2022-08-05,1,,,,,ユウセキコウギョウ,0
678,3040003020550,新規,0,2022-08-05,2022-08-05,ＨＵＢＳＴＥＰ合同会社,,合同会社,千葉県,船橋市,宮本６丁目１番１５－０００１号,,12,204,2730003,,,,,,,2022-08-05,1,,,,,ハブステップ,0
681,3050001051506,新規,0,2022-08-05,2022-08-05,株式会社丸増,,株式会社,茨城県,古河市,下大野２２０７番地１３,,08,204,3060204,,,,,,,2022-08-05,1,,,,,マルマス,0
682,3050001051514,新規,0,2022-08-05,2022-08-05,ＦＡＳＴ　ＳＯＵＲＣＥ株式会社,,株式会社,茨城県,常陸大宮市,上小瀬２０８４－２０２室,,08,225,3192401,,,,,,,2022-08-05,1,,,,,ファストソース,0
684,3050003006747,新規,0,2022-08-05,2022-08-05,サニースターズ合同会社,,合同会社,茨城県,かすみがうら市,稲吉東４丁目１４番１号,,08,230,3150053,,,,,,,2022-08-05,1,,,,,サニースターズ,0
685,3060001035128,新規,0,2022-08-05,2022-08-05,株式会社ＭＫメンテナンス,,株式会社,栃木県,大田原市,元町２丁目９７６番地４,,09,210,3240053,,,,,,,2022-08-05,1,,,,,エムケーメンテナンス,0
686,3060001035144,新規,0,2022-08-05,2022-08-05,株式会社コレトチ,,株式会社,栃木県,宇都宮市,桜４丁目１番２５号,,09,201,3200043,,,,,,,2022-08-05,1,,,,,コレトチ,0
690,3070001039482,新規,0,2022-08-05,2022-08-05,栄環境株式会社,,株式会社,群馬県,桐生市,宮本町１丁目２番７号,,10,203,3760056,,,,,,,2022-08-05,1,,,,,サカエカンキョウ,0
691,3070001039508,新規,0,2022-08-05,2022-08-05,株式会社ＭＥＳ,,株式会社,群馬県,吾妻郡嬬恋村,大字大前２２８６番１２４浅間湯本１６４,,10,425,3771612,,,,,,,2022-08-05,1,,,,,エムイーエス,0
692,3070001039516,新規,0,2022-08-05,2022-08-05,株式会社マプロ,,株式会社,群馬県,高崎市,上中居町４８０番地３ロザージュ１０２号,,10,202,3700851,,,,,,,2022-08-05,1,,,,,マプロ,0
695,3080001025119,新規,0,2022-08-05,2022-08-05,株式会社Ｒａｎｄ,,株式会社,静岡県,静岡市葵区,鷹匠３丁目１２－８鷹匠レジデンス７０６,,22,101,4200839,,,,,,,2022-08-05,1,,,,,ランド,0
698,3080403004595,新規,0,2022-08-05,2022-08-05,合同会社１０９ＳＴＣ,,合同会社,静岡県,浜松市北区,三ヶ日町大崎３５７番地２８,,22,135,4311403,,,,,,,2022-08-05,1,,,,,イチマルキューエスティーシー,0
701,3110001036871,新規,0,2022-08-05,2022-08-05,株式会社大蔵商事,,株式会社,新潟県,上越市,大字福橋１１４７番地１１,,15,222,9420033,,,,,,,2022-08-05,1,,,,,オオクラショウジ,0
717,3120001247872,新規,0,2022-08-05,2022-08-05,株式会社ｍｏｆｆ,,株式会社,大阪府,大阪市中央区,内久宝寺町２丁目２番２２号,,27,128,5400013,,,,,,,2022-08-05,1,,,,,モフ,0
718,3120001247889,新規,0,2022-08-05,2022-08-05,株式会社ＢＩＫＫＡ,,株式会社,大阪府,寝屋川市,石津南町３番１号,,27,215,5720024,,,,,,,2022-08-05,1,,,,,ビッカ,0
719,3120001247922,新規,0,2022-08-05,2022-08-05,株式会社リノベハウス,,株式会社,大阪府,大阪市北区,天神橋４丁目８番２７号,,27,127,5300041,,,,,,,2022-08-05,1,,,,,リノベハウス,0
720,3120001247930,新規,0,2022-08-05,2022-08-05,株式会社ＤＴＹ,,株式会社,大阪府,大阪市中央区,南船場４丁目１０番１８号ＮａｓａＰｒｉｍｅＨｏｕｓｅ別館５階,,27,128,5420081,,,,,,,2022-08-05,1,,,,,ディーティーワイ,0
721,3120001247939,新規,0,2022-08-05,2022-08-05,株式会社ＴＩＡＲＡｓ,,株式会社,大阪府,大阪市北区,曾根崎２丁目５番１０号梅田パシフィックビルディング４０１,,27,127,5300057,,,,,,,2022-08-05,1,,,,,ティアラズ,0
722,3120001247955,新規,0,2022-08-05,2022-08-05,株式会社京華,,株式会社,大阪府,大阪市中央区,南船場４丁目１０番２０号４１１号室,,27,128,5420081,,,,,,,2022-08-05,1,,,,,ケイカ,0
723,3120001247988,新規,0,2022-08-05,2022-08-05,株式会社Ｊ　ＤＲＥＡＭ,,株式会社,大阪府,大阪市都島区,毛馬町２丁目４番２０号メゾンドゥジェム１０２号,,27,102,5340001,,,,,,,2022-08-05,1,,,,,ジェイドリーム,0
724,3120001248012,新規,0,2022-08-05,2022-08-05,ＴＭ国際株式会社,,株式会社,大阪府,大阪市平野区,長吉長原１丁目１１番２号,,27,126,5470016,,,,,,,2022-08-05,1,,,,,ティーエムコクサイ,0
730,3120003022200,新規,0,2022-08-05,2022-08-05,Ｒｉｓｅ合同会社,,合同会社,大阪府,大阪市天王寺区,筆ケ崎町５番３８－８０６号,,27,109,5430027,,,,,,,2022-08-05,1,,,,,ライズ,0
731,3120003022209,新規,0,2022-08-05,2022-08-05,合同会社エイトリス,,合同会社,大阪府,大阪市西区,新町１丁目１４番２１－３１０３号,,27,106,5500013,,,,,,,2022-08-05,1,,,,,エイトリス,0
732,3120003022217,新規,0,2022-08-05,2022-08-05,双魯合同会社,,合同会社,大阪府,大阪市中央区,島之内２丁目１５番１６－２０９号,,27,128,5420082,,,,,,,2022-08-05,1,,,,,ソウロ,0
734,3120101066017,新規,0,2022-08-05,2022-08-05,株式会社ＫＡＧＡＹＡＫＩ,,株式会社,大阪府,南河内郡河南町,大字持尾７２５番地,,27,382,5850021,,,,,,,2022-08-05,1,,,,,カガヤキ,0
735,3120101066033,新規,0,2022-08-05,2022-08-05,株式会社フレンドシップ,,株式会社,大阪府,松原市,岡３丁目３番８号,,27,217,5800014,,,,,,,2022-08-05,1,,,,,フレンドシップ,0
741,3130001072353,新規,0,2022-08-05,2022-08-05,株式会社花島,,株式会社,京都府,京都市上京区,笹屋町通大宮西入桝屋町５９７番地,,26,102,6028201,,,,,,,2022-08-05,1,,,,,ハナジマ,0
742,3130001072394,新規,0,2022-08-05,2022-08-05,株式会社ＮＴＨ,,株式会社,京都府,京都市中京区,鍋屋町２２０番地,,26,104,6048015,,,,,,,2022-08-05,1,,,,,エヌティーエイチ,0
744,3130003008108,新規,0,2022-08-05,2022-08-05,合同会社ＨＢ８４,,合同会社,京都府,京都市下京区,二ノ宮町通七条通上る下二之宮町４２３番地タウンハウス八木２０３,,26,106,6000000,,,,,,,2022-08-05,1,,,,,エイチビーハチヨン,0
763,3180001152381,新規,0,2022-08-05,2022-08-05,ソリボーン株式会社,,株式会社,愛知県,名古屋市中区,錦１丁目５番１１号,,23,106,4600003,,,,,,,2022-08-05,1,,,,,ソリボーン,0
764,3180001152431,新規,0,2022-08-05,2022-08-05,株式会社ｋｕｍｕ,,株式会社,愛知県,名古屋市中区,栄３丁目２３番１７号サカエサウスピークス１Ｆ３号室,,23,106,4600008,,,,,,,2022-08-05,1,,,,,クム,0
765,3180001152489,新規,0,2022-08-05,2022-08-05,株式会社Ｇａｔｔｃｈａ,,株式会社,愛知県,名古屋市千種区,今池１丁目２８番１３号,,23,101,4640850,,,,,,,2022-08-05,1,,,,,ゴッチャ,0
770,3180301036482,新規,0,2022-08-05,2022-08-05,フキヤ株式会社,,株式会社,愛知県,安城市,東栄町１丁目１０番１５号Ａ・Ｃｉｔｙ新安城東１１０,,23,212,4460007,,,,,,,2022-08-05,1,,,,,フキヤ,0
771,3180301036499,新規,0,2022-08-05,2022-08-05,株式会社ＫＥＥＰｓ,,株式会社,愛知県,豊田市,若林西町北山２０番地３,,23,211,4730917,,,,,,,2022-08-05,1,,,,,キープス,0
779,3200001040352,新規,0,2022-08-05,2022-08-05,株式会社ラナーエスートレーディング,,株式会社,岐阜県,各務原市,須衛町７丁目２５７番地,,21,213,5090108,,,,,,,2022-08-05,1,,,,,ラナエストレーディング,0
783,3220003003339,新規,0,2022-08-05,2022-08-05,合同会社ガレージゲゼレ,,合同会社,石川県,加賀市,小塩町長山１番地３,,17,206,9220553,,,,,,,2022-08-05,1,,,,,ガレージゲゼレ,0
785,3230001019476,新規,0,2022-08-05,2022-08-05,株式会社ウェアハウスケーアール,,株式会社,富山県,富山市,公文名２１番地,,16,201,9398002,,,,,,,2022-08-05,1,,,,,ウェアハウスケーアール,0
793,3250001019697,新規,0,2022-08-05,2022-08-05,株式会社ＭＭオフィスフジイ,,株式会社,山口県,周南市,大字須々万奥２８０番地,,35,215,7450121,,,,,,,2022-08-05,1,,,,,エムエムオフィスフジイ,0
799,3260001037120,新規,0,2022-08-05,2022-08-05,株式会社ＯＣＬ岡山コンクリート試験所,,株式会社,岡山県,岡山市南区,藤田２０２４番地,,33,104,7010221,,,,,,,2022-08-05,1,,,,,オーシーエルオカヤマコンクリートシケンショ,0
801,3260003004003,新規,0,2022-08-05,2022-08-05,ＴＩＥＲＲＡ合同会社,,合同会社,岡山県,玉野市,後閑１番地１２７,,33,204,7060315,,,,,,,2022-08-05,1,,,,,ティエラ,0
802,3280001008755,新規,0,2022-08-05,2022-08-05,インベスト佐々木株式会社,,株式会社,島根県,浜田市,竹迫町２３７４番地２０,,32,202,6970015,,,,,,,2022-08-05,1,,,,,インベストササキ,0
806,3290001098481,新規,0,2022-08-05,2022-08-05,株式会社アールテック,,株式会社,福岡県,福岡市西区,大字元岡２５８９－２,,40,135,8190385,,,,,,,2022-08-05,1,,,,,アールテック,0
812,3290801028786,新規,0,2022-08-05,2022-08-05,株式会社天彦,,株式会社,福岡県,北九州市小倉北区,鍛冶町１丁目８番１４号２階,,40,106,8020004,,,,,,,2022-08-05,1,,,,,アマビコ,0
815,3300001013026,新規,0,2022-08-05,2022-08-05,株式会社ＥＧ‐Ｐｌａｎｔｓ,,株式会社,佐賀県,佐賀市,川副町大字犬井道１２５６番地１,,41,201,8402212,,,,,,,2022-08-05,1,,,,,イージープランツ,0
820,3320001019260,新規,0,2022-08-05,2022-08-05,株式会社アルバライズ,,株式会社,大分県,大分市,ふじが丘山手１丁目１０番７号,,44,201,8701184,,,,,,,2022-08-05,1,,,,,アルバライズ,0
822,3320003003873,新規,0,2022-08-05,2022-08-05,Ｔｈｘ‐Ｃｙｃｌｅ合同会社,,合同会社,大分県,大分市,ふじが丘東３丁目４番２２号,,44,201,8701182,,,,,,,2022-08-05,1,,,,,サンクサイクル,0
827,3360001030800,新規,0,2022-08-05,2022-08-05,元ちゃんオフィス株式会社,,株式会社,沖縄県,中頭郡嘉手納町,字水釜５４８番地３,,47,325,9040204,,,,,,,2022-08-05,1,,,,,ゲンチャンオフィス,0
834,3370001048908,新規,0,2022-08-05,2022-08-05,株式会社デコアスト,,株式会社,宮城県,仙台市青葉区,一番町３丁目３番１６号,,04,101,9800811,,,,,,,2022-08-05,1,,,,,デコアスト,0
837,3380001033033,新規,0,2022-08-05,2022-08-05,株式会社東邦コンサルティングパートナーズ,,株式会社,福島県,福島市,大町４番４号,,07,201,9608041,,,,,,,2022-08-05,1,,,,,コンサルティングパートナーズ,0
840,3390001016986,新規,0,2022-08-05,2022-08-05,株式会社ソルルス,,株式会社,山形県,東置賜郡高畠町,大字安久津１７２４番地の１,,06,381,9920302,,,,,,,2022-08-05,1,,,,,ソルルス,0
853,3430001087206,新規,0,2022-08-05,2022-08-05,Ｌ＆Ｃクローバー株式会社,,株式会社,北海道,札幌市東区,北十一条東１１丁目１番６号,,01,103,0650011,,,,,,,2022-08-05,1,,,,,エルアンドシークローバー,0
856,3430003014158,新規,0,2022-08-05,2022-08-05,合同会社ヒナタ重建,,合同会社,北海道,札幌市西区,二十四軒一条２丁目３－３４－２０１,,01,107,0630801,,,,,,,2022-08-05,1,,,,,ヒナタジュウケン,0
861,3490003001687,新規,0,2022-08-05,2022-08-05,合同会社いわし屋,,合同会社,高知県,土佐市,宇佐町井尻１番地,,39,205,7811164,,,,,,,2022-08-05,1,,,,,,0
865,3700150111052,新規,0,2022-08-05,2022-08-05,ＫＭ　ＶＩＮＴＩＱＵＥ＆ＣＯ　ＬＬＣ,,外国会社等,東京都,港区,南青山３丁目１０番４１号ジュエル青山ビル２０２号,,13,103,1070062,アメリカ合衆国ニューヨーク州（１１３７７）ニューヨーク市ウッドサイド４３番街５８３４番地３Ｒ号室,,,,,,2022-08-05,1,,,,,ケイエムヴインテークアンドカンパニーエルエルシー,0
872,4010001228602,新規,0,2022-08-05,2022-08-05,株式会社Ｐ．Ｇ．ＥＳＴＡＴＥ,,株式会社,東京都,千代田区,外神田２丁目２番１２号福井ビル５階,,13,101,1010021,,,,,,,2022-08-05,1,,,,,ピージーエステート,0
876,4010003038330,新規,0,2022-08-05,2022-08-05,合同会社ｅｎｔｘｍｅｎｔ,,合同会社,東京都,中央区,月島３丁目２４番８－７０５号,,13,102,1040052,,,,,,,2022-08-05,1,,,,,エントメント,0
877,4010003038339,新規,0,2022-08-05,2022-08-05,合同会社Ｃｌｅａｒ　Ｐｌａｎｎｉｎｇ,,合同会社,東京都,中央区,日本橋久松町６番１０号ＳＶＥＬＴＯ５０１号,,13,102,1030005,,,,,,,2022-08-05,1,,,,,クリアプランニング,0
885,4010401168869,新規,0,2022-08-05,2022-08-05,株式会社ＦｉｃｙＴｅｃｈｎｏｌｏｇｙ,,株式会社,東京都,港区,南青山２丁目２番１５号,,13,103,1070062,,,,,,,2022-08-05,1,,,,,フィッシーテクノロジー,0
886,4010401168885,新規,0,2022-08-05,2022-08-05,株式会社アリス,,株式会社,東京都,港区,赤坂３丁目１７番１号いちご赤坂３１７ビル５階,,13,103,1070052,,,,,,,2022-08-05,1,,,,,アリス,0
887,4010401168893,新規,0,2022-08-05,2022-08-05,ＳＰＳホールディングス株式会社,,株式会社,東京都,港区,虎ノ門１丁目３－１東京虎ノ門グローバルスクエア５Ｆ,,13,103,1050001,,,,,,,2022-08-05,1,,,,,エスピーエスホールディングス,0
888,4010401168919,新規,0,2022-08-05,2022-08-05,株式会社ＳＵＮＴＥ　ＲＵＫＡ,,株式会社,東京都,港区,赤坂８丁目４番１４号８Ｆ,,13,103,1070052,,,,,,,2022-08-05,1,,,,,サンテルーカ,0
889,4010401168935,新規,0,2022-08-05,2022-08-05,株式会社Ｎ‐Ｗａ,,株式会社,東京都,港区,浜松町２丁目２番１５号浜松町ダイヤビル２Ｆ,,13,103,1050013,,,,,,,2022-08-05,1,,,,,エヌワ,0
896,4010601061634,新規,0,2022-08-05,2022-08-05,株式会社ゆうしょう,,株式会社,東京都,江東区,大島４丁目１０番９号,,13,108,1360072,,,,,,,2022-08-05,1,,,,,ユウショウ,0
902,4010901051351,新規,0,2022-08-05,2022-08-05,クラフタスジャパン株式会社,,株式会社,東京都,世田谷区,若林３丁目１番１８号,,13,112,1540023,,,,,,,2022-08-05,1,,,,,クラフタスジャパン,0
903,4010901051368,新規,0,2022-08-05,2022-08-05,ＫＭＣＳ・ＲＡＤ株式会社,,株式会社,東京都,世田谷区,等々力３丁目２８番１７号グランドメゾン等々力１０１,,13,112,1580082,,,,,,,2022-08-05,1,,,,,ケーエムシーエスラド,0
913,4011001148889,新規,0,2022-08-05,2022-08-05,株式会社スピアヘッド,,株式会社,東京都,渋谷区,恵比寿西１丁目２０－６Ｋ＆Ｓ恵比寿ビル１０Ｆ,,13,113,1500021,,,,,,,2022-08-05,1,,,,,スピアヘッド,0
914,4011001148930,新規,0,2022-08-05,2022-08-05,Ｈ＆Ｉ株式会社,,株式会社,東京都,渋谷区,西原３丁目４４番１２号西原パークマンション３０１,,13,113,1510066,,,,,,,2022-08-05,1,,,,,エイチアンドアイ,0
919,4011003015113,新規,0,2022-08-05,2022-08-05,合同会社マイージ,,合同会社,東京都,渋谷区,笹塚２丁目１４番１５号ヴェルト笹塚ツイン１－１３０３,,13,113,1510073,,,,,,,2022-08-05,1,,,,,マイージ,0
920,4011003015170,新規,0,2022-08-05,2022-08-05,合同会社ＳｐｅｃｔａＣｒｅｗ,,合同会社,東京都,目黒区,祐天寺１丁目１１番１０号グランドゥール祐天寺１０５,,13,110,1530052,,,,,,,2022-08-05,1,,,,,スペクタクルー,0
932,4011201024015,新規,0,2022-08-05,2022-08-05,株式会社ユカ,,株式会社,東京都,中野区,野方６丁目５１番９号,,13,114,1650027,,,,,,,2022-08-05,1,,,,,ユカ,0
941,4011403003741,新規,0,2022-08-05,2022-08-05,ＭＩＲＯＨＩ　ＣＯＲＰＯＲＡＴＩＯＮ合同会社,,合同会社,東京都,板橋区,前野町１丁目２番１号－１０３,,13,119,1740063,,,,,,,2022-08-05,1,,,,,ミロヒコーポレーション,0
946,4011601026156,新規,0,2022-08-05,2022-08-05,株式会社グリンクスマネジメント,,株式会社,東京都,練馬区,豊玉北６丁目１９番２号シンフォニア豊玉２０５,,13,120,1760012,,,,,,,2022-08-05,1,,,,,グリンクスマネジメント,0
955,4011803005214,新規,0,2022-08-05,2022-08-05,イエン合同会社,,合同会社,東京都,足立区,中央本町１丁目１６番１－３０６号,,13,121,1200011,,,,,,,2022-08-05,1,,,,,イエン,0
967,4020001147586,新規,0,2022-08-05,2022-08-05,Ｓｅａｓｏｎｓ　Ｐｒｏｐｅｒｔｉｅｓ株式会社,,株式会社,神奈川県,川崎市川崎区,田町２丁目４番１３－１００５号,,14,131,2100822,,,,,,,2022-08-05,1,,,,,シーズンズプロパティーズ,0
968,4020001147628,新規,0,2022-08-05,2022-08-05,株式会社南建設,,株式会社,神奈川県,横浜市中区,羽衣町３丁目６３羽衣ビル４階,,14,104,2310047,,,,,,,2022-08-05,1,,,,,ミナミケンセツ,0
969,4020001147669,新規,0,2022-08-05,2022-08-05,株式会社ＡＪ,,株式会社,神奈川県,横浜市南区,通町１丁目１２番地４グランドメゾン横浜蒔田４０４号,,14,105,2320056,,,,,,,2022-08-05,1,,,,,,0
980,4021003012002,新規,0,2022-08-05,2022-08-05,合同会社ＤａｔａＴｒａｎｓＭｉｓｓｉｏｎ,,合同会社,神奈川県,小田原市,本町２丁目１１番２３－９０６号ザ・レジデンス小田原三の丸,,14,206,2500012,,,,,,,2022-08-05,1,,,,,データトランスミッション,0
981,4021003012019,新規,0,2022-08-05,2022-08-05,ＭＫＳモーター合同会社,,合同会社,神奈川県,鎌倉市,岡本２丁目１５－１１,,14,204,2470072,,,,,,,2022-08-05,1,,,,,エムケーエスモーター,0
990,4030001149458,新規,0,2022-08-05,2022-08-05,株式会社Ｙ’ｔｉｍｅ,,株式会社,埼玉県,八潮市,大字南川崎７５９番地２,,11,234,3400814,,,,,,,2022-08-05,1,,,,,ワイタイム,0
991,4030001149516,新規,0,2022-08-05,2022-08-05,ｗｈａｒｆｌａｔ株式会社,,株式会社,埼玉県,熊谷市,本町２丁目１２８番地６０３,,11,202,3600042,,,,,,,2022-08-05,1,,,,,ワーフラット,0
992,4030001149532,新規,0,2022-08-05,2022-08-05,株式会社三栄建設,,株式会社,埼玉県,所沢市,大字山口７３４番地の１,,11,208,3591145,,,,,,,2022-08-05,1,,,,,サンエイケンセツ,0
993,4030001149549,新規,0,2022-08-05,2022-08-05,株式会社クローバー,,株式会社,埼玉県,狭山市,鵜ノ木１０番６号,,11,215,3501323,,,,,,,2022-08-05,1,,,,,クローバー,0
994,4030001149565,新規,0,2022-08-05,2022-08-05,株式会社プロズ,,株式会社,埼玉県,川口市,芝中田１丁目１６番１０－１０３号,,11,203,3330847,,,,,,,2022-08-05,1,,,,,プロズ,0
1000,4040001124526,新規,0,2022-08-05,2022-08-05,株式会社Ｔ’ｓ,,株式会社,千葉県,市原市,上高根９１番地の３,,12,219,2900243,,,,,,,2022-08-05,1,,,,,ティーズ,0
1001,4040001124542,新規,0,2022-08-05,2022-08-05,株式会社飯田瓦店,,株式会社,千葉県,印西市,大森３４１０番地,,12,231,2701327,,,,,,,2022-08-05,1,,,,,イイダカワラテン,0
1002,4040001124559,新規,0,2022-08-05,2022-08-05,株式会社ＷＩＮＮＥＲＳ,,株式会社,千葉県,柏市,豊四季２８０番地２１,,12,217,2770863,,,,,,,2022-08-05,1,,,,,ウィナーズ,0
1003,4040001124567,新規,0,2022-08-05,2022-08-05,株式会社ＵＢｅｅＣ,,株式会社,千葉県,千葉市中央区,栄町３９番１３号,,12,101,2600016,,,,,,,2022-08-05,1,,,,,ユービーシー,0
1004,4040001124583,新規,0,2022-08-05,2022-08-05,日祥株式会社,,株式会社,千葉県,四街道市,吉岡５００番地１０,,12,228,2840032,,,,,,,2022-08-05,1,,,,,ニッショウ,0
1005,4040001124600,新規,0,2022-08-05,2022-08-05,株式会社エアストリームワン,,株式会社,千葉県,富津市,篠部１５０４番地,,12,226,2930024,,,,,,,2022-08-05,1,,,,,エアストリームワン,0
1013,4040003020541,新規,0,2022-08-05,2022-08-05,合同会社ＮＥＯ日之出,,合同会社,千葉県,茂原市,東郷１３０６番地１,,12,210,2970017,,,,,,,2022-08-05,1,,,,,ネオヒノデ,0
1014,4040003020558,新規,0,2022-08-05,2022-08-05,合同会社片岡左官工業,,合同会社,千葉県,市原市,君塚４丁目１番地２－３０４号,,12,219,2900051,,,,,,,2022-08-05,1,,,,,カタオカサカンコウギョウ,0
1015,4040003020574,新規,0,2022-08-05,2022-08-05,合同会社ＦＬＡＴ,,合同会社,千葉県,浦安市,入船２丁目１番８０４号,,12,227,2790012,,,,,,,2022-08-05,1,,,,,,0
1016,4040003020582,新規,0,2022-08-05,2022-08-05,合同会社Ｔａｋｅ　Ｂｅｔｔｅｒ　Ｆａｒｍ,,合同会社,千葉県,千葉市美浜区,真砂１丁目２番８－１１２号,,12,106,2610011,,,,,,,2022-08-05,1,,,,,テイクベターファーム,0
1019,4060001035143,新規,0,2022-08-05,2022-08-05,アキ株式会社,,株式会社,栃木県,宇都宮市,下栗町７５７番地３６ソーレルメゾン２０１,,09,201,3210923,,,,,,,2022-08-05,1,,,,,アキ,0
1023,4060003004179,新規,0,2022-08-05,2022-08-05,合同会社ＡＰ　ＦＡＲＭ,,合同会社,栃木県,芳賀郡芳賀町,祖母井南１丁目１９番地５,,09,345,3213307,,,,,,,2022-08-05,1,,,,,エーピーファーム,0
1024,4070001039507,新規,0,2022-08-05,2022-08-05,株式会社タイム,,株式会社,群馬県,前橋市,富士見町石井２４４５番地４４,,10,201,3710105,,,,,,,2022-08-05,1,,,,,タイム,0
1025,4070001039515,新規,0,2022-08-05,2022-08-05,株式会社ＮＥＳＴ,,株式会社,群馬県,太田市,大原町４３２番地１,,10,205,3792304,,,,,,,2022-08-05,1,,,,,ネスト,0
1026,4070001039523,新規,0,2022-08-05,2022-08-05,株式会社モエザ,,株式会社,群馬県,館林市,富士原町１０５７番地３７７ウエルネス２０３号,,10,207,3740041,,,,,,,2022-08-05,1,,,,,モエザ,0
1028,4070003004582,新規,0,2022-08-05,2022-08-05,合同会社永瀬商事,,合同会社,群馬県,高崎市,下佐野町６９３番地４,,10,202,3700855,,,,,,,2022-08-05,1,,,,,ナガセショウジ,0
1031,4080101023467,新規,0,2022-08-05,2022-08-05,株式会社瀧下電気,,株式会社,静岡県,沼津市,足高４８３番地の４,,22,203,4100001,,,,,,,2022-08-05,1,,,,,タキシタデンキ,0
1041,4100001035592,新規,0,2022-08-05,2022-08-05,株式会社ローカルクラフト,,株式会社,長野県,南佐久郡南相木村,２０６７番地１,,20,306,3841211,,,,,,,2022-08-05,1,,,,,ローカルクラフト,0
1062,4120001247954,新規,0,2022-08-05,2022-08-05,ＭＪＣホールディングス株式会社,,株式会社,大阪府,大阪市北区,梅田１丁目１番３号大阪駅前第３ビル２９階１－１－１号室,,27,127,5300001,,,,,,,2022-08-05,1,,,,,エムジェイシーホールディングス,0
1064,4120003022232,新規,0,2022-08-05,2022-08-05,合同会社ＲＵＢＹ,,合同会社,大阪府,大阪市西成区,太子１丁目１３番１号金井ハイツ２０１号室,,27,122,5570002,,,,,,,2022-08-05,1,,,,,ルビー,0
1068,4120101066016,新規,0,2022-08-05,2022-08-05,株式会社ＹＯＳＨＩ‐ＳＨＯＷ,,株式会社,大阪府,貝塚市,堤８２番地,,27,208,5970054,,,,,,,2022-08-05,1,,,,,ヨシショウ,0
1069,4120101066032,新規,0,2022-08-05,2022-08-05,株式会社レア,,株式会社,大阪府,堺市堺区,四条通２番１号,,27,141,5900045,,,,,,,2022-08-05,1,,,,,レア,0
1070,4120101066040,新規,0,2022-08-05,2022-08-05,アイスチェンジ株式会社,,株式会社,大阪府,河内長野市,神ガ丘８９０番地,,27,216,5860054,,,,,,,2022-08-05,1,,,,,アイスチェンジ,0
1073,4130001072336,新規,0,2022-08-05,2022-08-05,株式会社藤田組,,株式会社,京都府,京田辺市,薪長尾谷２２番地３６,,26,211,6100341,,,,,,,2022-08-05,1,,,,,フジタグミ,0
1074,4130001072344,新規,0,2022-08-05,2022-08-05,株式会社セクト,,株式会社,京都府,亀岡市,河原町２００番地の３,,26,206,6210803,,,,,,,2022-08-05,1,,,,,セクト,0
1079,4160001024433,新規,0,2022-08-05,2022-08-05,株式会社Ｍ企画,,株式会社,滋賀県,大津市,国分２丁目４１７番地の２４,,25,201,5200844,,,,,,,2022-08-05,1,,,,,エムキカク,0
1087,4180001152389,新規,0,2022-08-05,2022-08-05,株式会社ＴＯＲＡ,,株式会社,愛知県,名古屋市中区,栄１丁目１４番１４号御園パレス４１３号,,23,106,4600008,,,,,,,2022-08-05,1,,,,,トラ,0
1088,4180001152439,新規,0,2022-08-05,2022-08-05,株式会社滝本園,,株式会社,愛知県,半田市,椎ノ木町４丁目１０番地,,23,205,4750934,,,,,,,2022-08-05,1,,,,,タキモトエン,0
1089,4180001152455,新規,0,2022-08-05,2022-08-05,株式会社メーセー,,株式会社,愛知県,一宮市,定水寺字杁ノ口２番地１,,23,203,4910004,,,,,,,2022-08-05,1,,,,,メーセー,0
1090,4180001152513,新規,0,2022-08-05,2022-08-05,株式会社Ｅ‐ＰＡＩＮＴ,,株式会社,愛知県,名古屋市西区,枇杷島５丁目３０番２３号,,23,104,4510053,,,,,,,2022-08-05,1,,,,,イーペイント,0
1095,4180005019873,新規,0,2022-08-05,2022-08-05,木曽三川御囲堤砂利採取事業協同組合,,その他の設立登記法人,愛知県,清須市,西枇杷島町南大和１５９番地,,23,233,4520013,,,,,,,2022-08-05,1,,,,,キソサンセンオカコイツツミジャリサイシュ,0
1096,4180005019881,新規,0,2022-08-05,2022-08-05,一般社団法人ミント,,その他の設立登記法人,愛知県,名古屋市中川区,横前町６８番地,,23,110,4540917,,,,,,,2022-08-05,1,,,,,ミント,0
1100,4180301036498,新規,0,2022-08-05,2022-08-05,株式会社Ｓｅａｓｉｄｅ　Ａｇｒｉｃｕｌｔｕｒｅ,,株式会社,愛知県,田原市,赤羽根町太田１６番地の１,,23,231,4413502,,,,,,,2022-08-05,1,,,,,シーサイドアグリカルチャー,0
1101,4180301036507,新規,0,2022-08-05,2022-08-05,株式会社清水農場,,株式会社,愛知県,刈谷市,井ケ谷町青木７９番地１,,23,210,4480001,,,,,,,2022-08-05,1,,,,,シミズノウジョウ,0
1103,4190001029669,新規,0,2022-08-05,2022-08-05,三協自動車株式会社,,株式会社,三重県,熊野市,井戸町３１１５番地１,,24,212,5194324,,,,,,,2022-08-05,1,,,,,サンキョウジドウシャ,0
1105,4200001040343,新規,0,2022-08-05,2022-08-05,株式会社井口林業,,株式会社,岐阜県,中津川市,茄子川１１１番地の６１,,21,206,5099132,,,,,,,2022-08-05,1,,,,,イグチリンギョウ,0
1125,4290001098472,新規,0,2022-08-05,2022-08-05,株式会社ＳＭＩＬＥ　ＨＯＭＥ,,株式会社,福岡県,宗像市,自由ヶ丘南２丁目１６番地１４,,40,220,8114156,,,,,,,2022-08-05,1,,,,,スマイルホーム,0
1126,4290001098480,新規,0,2022-08-05,2022-08-05,Ｒｅ．ｃｏｒｄｅｃ株式会社,,株式会社,福岡県,福岡市中央区,赤坂３丁目４番３１－６１０号,,40,133,8100042,,,,,,,2022-08-05,1,,,,,レコーデック,0
1134,4300001013025,新規,0,2022-08-05,2022-08-05,株式会社Ｇｒｏｗｔｈ　Ｄｅｎｔａｌ　Ｌａｂｏ,,株式会社,佐賀県,佐賀市,大和町大字松瀬３０８４番地,,41,201,8400204,,,,,,,2022-08-05,1,,,,,グロウスデンタルラボ,0
1139,4330001030001,新規,0,2022-08-05,2022-08-05,丸淳株式会社,,株式会社,熊本県,天草市,久玉町３１７３番地２,,43,215,8631902,,,,,,,2022-08-05,1,,,,,マルジュン,0
1149,4370001048907,新規,0,2022-08-05,2022-08-05,航成建設株式会社,,株式会社,宮城県,仙台市青葉区,昭和町３番５５－１０２号,,04,101,9810913,,,,,,,2022-08-05,1,,,,,コウセイケンセツ,0
1160,4430001087213,新規,0,2022-08-05,2022-08-05,株式会社Ｒｉｃｈ　Ｓｔｒｅａｍ,,株式会社,北海道,札幌市西区,発寒三条６丁目６番２０－８０２号,,01,107,0630823,,,,,,,2022-08-05,1,,,,,リッチストリーム,0
1161,4430001087254,新規,0,2022-08-05,2022-08-05,株式会社みすず,,株式会社,北海道,札幌市中央区,南二条西７丁目２番地,,01,101,0600062,,,,,,,2022-08-05,1,,,,,ミスズ,0
1173,4490003001686,新規,0,2022-08-05,2022-08-05,合同会社キリコ設計事務所,,合同会社,高知県,高知市,鷹匠町２丁目５番３３号,,39,201,7800862,,,,,,,2022-08-05,1,,,,,キリコセッケイジムショ,0
1187,5010001228568,新規,0,2022-08-05,2022-08-05,株式会社アルジェント,,株式会社,東京都,千代田区,丸の内１丁目８番３号丸の内トラストタワー本館２０階,,13,101,1000005,,,,,,,2022-08-05,1,,,,,アルジェント,0
1188,5010001228592,新規,0,2022-08-05,2022-08-05,ＭＡＹＪ４株式会社,,株式会社,東京都,千代田区,飯田橋３丁目１１番１３号,,13,101,1020072,,,,,,,2022-08-05,1,,,,,メイジェイフォー,0
1189,5010001228626,新規,0,2022-08-05,2022-08-05,株式会社ボイジャー,,株式会社,東京都,千代田区,丸の内１丁目９番２号,,13,101,1000005,,,,,,,2022-08-05,1,,,,,ボイジャー,0
1191,5010003038338,新規,0,2022-08-05,2022-08-05,合同会社ケーリーフ,,合同会社,東京都,文京区,湯島３丁目７－１４,,13,105,1130034,,,,,,,2022-08-05,1,,,,,ケーリーフ,0
1200,5010403028194,新規,0,2022-08-05,2022-08-05,合同会社Ｌｅｔｅ,,合同会社,東京都,港区,西麻布３丁目２１番２０号,,13,103,1060031,,,,,,,2022-08-05,1,,,,,レテ,0
1202,5010601061625,新規,0,2022-08-05,2022-08-05,株式会社Ａｉｃｏｃｏｋａｒａ,,株式会社,東京都,墨田区,太平２丁目５番７号ＫＯＷＡＩＩＩビル４階,00127436,13,107,1300012,,,,,,,2022-08-05,1,,,,,アイココカラ,0
1205,5010603009663,新規,0,2022-08-05,2022-08-05,合同会社ＢＬＥＳＳ,,合同会社,東京都,江東区,亀戸６丁目４０番７号,,13,108,1360071,,,,,,,2022-08-05,1,,,,,ブレス,0
1208,5010801033176,新規,0,2022-08-05,2022-08-05,株式会社ｇｅｅｎｕｓ,,株式会社,東京都,大田区,南雪谷２丁目１７番１３号ＴＨＣビル４Ｆ,,13,111,1450066,,,,,,,2022-08-05,1,,,,,ジーナス,0
1211,5010901051367,新規,0,2022-08-05,2022-08-05,株式会社アスペルジュ,,株式会社,東京都,世田谷区,駒沢５丁目１３番１３号,,13,112,1540012,,,,,,,2022-08-05,1,,,,,アスペルジュ,0
1214,5010905004354,新規,0,2022-08-05,2022-08-05,特定非営利活動法人メーム,,その他の設立登記法人,東京都,世田谷区,成城３丁目６番７号ガーデンフラッツ成城１０３,,13,112,1570066,,,,,,,2022-08-05,1,,,,,メーム,0
1224,5011003015104,新規,0,2022-08-05,2022-08-05,合同会社Ｃｌａｉｏｍｈ　Ｓｏｌａｉｓ,,合同会社,東京都,渋谷区,道玄坂１丁目１０番８号渋谷道玄坂東急ビル２Ｆ－Ｃ,,13,113,1500043,,,,,,,2022-08-05,1,,,,,クラウソラス,0
1239,5011801041103,新規,0,2022-08-05,2022-08-05,株式会社福数名,,株式会社,東京都,足立区,谷中１丁目２２番１３－３０７号,,13,121,1200006,,,,,,,2022-08-05,1,,,,,フクスナ,0
1245,5012403005529,新規,0,2022-08-05,2022-08-05,合同会社ＢＲＡＶＥ　ＳＡＴＯ,,合同会社,東京都,府中市,日新町５丁目６７番地の７６,,13,206,1830036,,,,,,,2022-08-05,1,,,,,ブレイブサトウ,0
1250,5013301049477,新規,0,2022-08-05,2022-08-05,千和株式会社,,株式会社,東京都,豊島区,南池袋２丁目８番５－７０４号,,13,116,1710022,,,,,,,2022-08-05,1,,,,,センワ,0
1259,5021001076650,新規,0,2022-08-05,2022-08-05,株式会社ＲＳＴ,,株式会社,神奈川県,横須賀市,金谷２丁目６番１５号,,14,201,2380034,,,,,,,2022-08-05,1,,,,,アールエスティー,0
1260,5021001076683,新規,0,2022-08-05,2022-08-05,株式会社エスライン,,株式会社,神奈川県,厚木市,七沢２４９番,,14,212,2430121,,,,,,,2022-08-05,1,,,,,エスライン,0
1271,5030001149432,新規,0,2022-08-05,2022-08-05,株式会社ｋａｒｋｉ商事,,株式会社,埼玉県,朝霞市,朝志ケ丘１丁目２番１－１０４４号,,11,227,3510035,,,,,,,2022-08-05,1,,,,,カリキショウジ,0
1272,5030001149498,新規,0,2022-08-05,2022-08-05,サンワテクニック株式会社,,株式会社,埼玉県,所沢市,大字南永井８４０番地の２,,11,208,3590011,,,,,,,2022-08-05,1,,,,,サンワテクニック,0
1273,5030001149515,新規,0,2022-08-05,2022-08-05,海橋ジャパン株式会社,,株式会社,埼玉県,川越市,大塚２丁目９番地５,,11,201,3501129,,,,,,,2022-08-05,1,,,,,カイキョウジャパン,0
1274,5030001149531,新規,0,2022-08-05,2022-08-05,株式会社三井外構,,株式会社,埼玉県,北足立郡伊奈町,大字小室８１４２番地２,,11,301,3620806,,,,,,,2022-08-05,1,,,,,ミツイガイコウ,0
1275,5030001149548,新規,0,2022-08-05,2022-08-05,株式会社未来接続,,株式会社,埼玉県,三郷市,東町３１７番地３５,,11,237,3410036,,,,,,,2022-08-05,1,,,,,ミライセツゾク,0
1276,5030001149556,新規,0,2022-08-05,2022-08-05,愛逢橋株式会社,,株式会社,埼玉県,さいたま市緑区,大字下野田５７９番地１,,11,109,3360962,,,,,,,2022-08-05,1,,,,,アイアイバシ,0
1280,5030003019914,新規,0,2022-08-05,2022-08-05,合同会社亮栄工業,,合同会社,埼玉県,越谷市,大字大道１３９番地,,11,222,3430035,,,,,,,2022-08-05,1,,,,,リョウエイコウギョウ,0
1281,5030003019922,新規,0,2022-08-05,2022-08-05,合同会社サイバーウルフ,,合同会社,埼玉県,新座市,馬場２丁目１０番１１号,,11,230,3520016,,,,,,,2022-08-05,1,,,,,サイバーウルフ,0
1282,5030003019930,新規,0,2022-08-05,2022-08-05,合同会社藤井工業,,合同会社,埼玉県,春日部市,西金野井１３番地３３,,11,214,3440112,,,,,,,2022-08-05,1,,,,,フジイコウギョウ,0
1283,5030003019939,新規,0,2022-08-05,2022-08-05,達仁工業合同会社,,合同会社,埼玉県,新座市,野火止７丁目７番４０号,,11,230,3520011,,,,,,,2022-08-05,1,,,,,タツジンコウギョウ,0
1284,5030003019947,新規,0,2022-08-05,2022-08-05,合同会社再生サポート,,合同会社,埼玉県,越谷市,東越谷２丁目８番地３５,,11,222,3430023,,,,,,,2022-08-05,1,,,,,サイセイサポート,0
1287,5040001124483,新規,0,2022-08-05,2022-08-05,株式会社ｓｏｈａｋｕ,,株式会社,千葉県,船橋市,本町１丁目１１番１２号ウィンクレスト２階１号室,,12,204,2730005,,,,,,,2022-08-05,1,,,,,ソハク,0
1288,5040001124517,新規,0,2022-08-05,2022-08-05,株式会社悠内装,,株式会社,千葉県,市川市,伊勢宿１８番１９号,,12,203,2720106,,,,,,,2022-08-05,1,,,,,ユウナイソウ,0
1289,5040001124525,新規,0,2022-08-05,2022-08-05,株式会社美澪,,株式会社,千葉県,船橋市,前原西７丁目１１番２６－１０２号,,12,204,2740825,,,,,,,2022-08-05,1,,,,,ミオ,0
1290,5040001124541,新規,0,2022-08-05,2022-08-05,株式会社ＭｅｌｌｏＭｅｌｌｏｗ,,株式会社,千葉県,野田市,柏寺５２番地７,,12,208,2700214,,,,,,,2022-08-05,1,,,,,メロメロウ,0
1291,5040001124566,新規,0,2022-08-05,2022-08-05,株式会社アイ・プラス,,株式会社,千葉県,富里市,七栄１２７番４８,,12,233,2860221,,,,,,,2022-08-05,1,,,,,アイプラス,0
1292,5040001124574,新規,0,2022-08-05,2022-08-05,株式会社エピ,,株式会社,千葉県,木更津市,東太田１丁目１番２７号,,12,206,2920043,,,,,,,2022-08-05,1,,,,,エピ,0
1293,5040001124582,新規,0,2022-08-05,2022-08-05,株式会社トーラス,,株式会社,千葉県,印旛郡酒々井町,本佐倉１１番地２１,,12,322,2850926,,,,,,,2022-08-05,1,,,,,トーラス,0
1294,5040001124590,新規,0,2022-08-05,2022-08-05,株式会社ホワイトウエーブプロスタジオ,,株式会社,千葉県,袖ケ浦市,蔵波台５丁目９番地１０,,12,229,2990245,,,,,,,2022-08-05,1,,,,,ホワイトウエーブプロスタジオ,0
1299,5040003020573,新規,0,2022-08-05,2022-08-05,合同会社ＹＳＳ,,合同会社,千葉県,柏市,布施５６６番地,,12,217,2770825,,,,,,,2022-08-05,1,,,,,ワイエスエス,0
1303,5050001051495,新規,0,2022-08-05,2022-08-05,株式会社ＵＮＡ,,株式会社,茨城県,つくば市,みどりの東６番地５,,08,220,3050883,,,,,,,2022-08-05,1,,,,,ユーエヌエー,0
1306,5060001035150,新規,0,2022-08-05,2022-08-05,ワークソース株式会社,,株式会社,栃木県,宇都宮市,西川田５丁目３番１４号,,09,201,3210152,,,,,,,2022-08-05,1,,,,,ワークソース,0
1308,5060003004178,新規,0,2022-08-05,2022-08-05,新井興業合同会社,,合同会社,栃木県,佐野市,高萩町１２１０番地３,,09,204,3270821,,,,,,,2022-08-05,1,,,,,アライコウギョウ,0
1313,5070001039506,新規,0,2022-08-05,2022-08-05,株式会社そしゃる,,株式会社,群馬県,渋川市,赤城町棚下８３３番地３,,10,208,3791101,,,,,,,2022-08-05,1,,,,,ソシャル,0
1314,5070001039514,新規,0,2022-08-05,2022-08-05,株式会社ＭＪインペリアル,,株式会社,群馬県,高崎市,下佐野町６０２番地４,,10,202,3700855,,,,,,,2022-08-05,1,,,,,エムジェイインペリアル,0
1317,5070003004581,新規,0,2022-08-05,2022-08-05,ｖｅｇｅ　ｂｏｎｄ合同会社,,合同会社,群馬県,前橋市,堤町２１４番地５,,10,201,3710003,,,,,,,2022-08-05,1,,,,,ベジボンド,0
1328,5100005012901,新規,0,2022-08-05,2022-08-05,一般社団法人つばさ公益社,,その他の設立登記法人,長野県,佐久市,小田井９０６番地,,20,217,3850009,,,,,,,2022-08-05,1,,,,,ツバサコウエキシャ,0
1344,5120001247805,新規,0,2022-08-05,2022-08-05,善航株式会社,,株式会社,大阪府,大阪市都島区,東野田町４丁目５－２翠連マンション４０８号室,,27,102,5340024,,,,,,,2022-08-05,1,,,,,ゼンコウ,0
1345,5120001247887,新規,0,2022-08-05,2022-08-05,株式会社ＧＮトラスト,,株式会社,大阪府,大阪市北区,万歳町１番６号ＳＴＡＲＳビル,,27,127,5300028,,,,,,,2022-08-05,1,,,,,ジーエヌトラスト,0
1346,5120001247929,新規,0,2022-08-05,2022-08-05,株式会社ＥＬＥＮＯＲＥ,,株式会社,大阪府,大阪市西区,北堀江３丁目４番１９号２階,,27,106,5500014,,,,,,,2022-08-05,1,,,,,エレノア,0
1347,5120001247986,新規,0,2022-08-05,2022-08-05,株式会社ウィステリア,,株式会社,大阪府,大阪市東淀川区,小松２丁目５番５号,,27,114,5330004,,,,,,,2022-08-05,1,,,,,ウィステリア,0
1350,5120003022207,新規,0,2022-08-05,2022-08-05,合同会社グローバルナビゲーション,,合同会社,大阪府,大阪市中央区,島之内２丁目２番１０－２０５号,,27,128,5420082,,,,,,,2022-08-05,1,,,,,グローバルナビゲーション,0
1351,5120003022223,新規,0,2022-08-05,2022-08-05,Ｐａｎ　Ｊａｐａｎ合同会社,,合同会社,大阪府,大阪市旭区,新森４丁目３番２９号フロラシオン新森公園７０３号,,27,117,5350022,,,,,,,2022-08-05,1,,,,,パンジャパン,0
1353,5120005023129,新規,0,2022-08-05,2022-08-05,一般社団法人Ｂｅｌｌ　Ｂｏｔｔｏｍ　Ｊｅａｎｓ　Ｄａｙ,,その他の設立登記法人,大阪府,大阪市此花区,伝法６丁目２番１－４０３号,,27,104,5540002,,,,,,,2022-08-05,1,,,,,ベルボトムジーンズデイ,0
1354,5120101066015,新規,0,2022-08-05,2022-08-05,株式会社パッケージパーク,,株式会社,大阪府,貝塚市,西町９番５号,,27,208,5970004,,,,,,,2022-08-05,1,,,,,パッケージパーク,0
1355,5120101066031,新規,0,2022-08-05,2022-08-05,コネクトファーム株式会社,,株式会社,大阪府,堺市西区,山田１１６６番地４,,27,144,5930000,,,,,,,2022-08-05,1,,,,,コネクトファーム,0
1358,5120901046331,新規,0,2022-08-05,2022-08-05,眞瀬肉本家株式会社,,株式会社,大阪府,豊中市,熊野町４丁目１２番２３号,,27,203,5600014,,,,,,,2022-08-05,1,,,,,マセニクホンケ,0
1371,5140005026278,新規,0,2022-08-05,2022-08-05,一般社団法人天王山命教寺,,その他の設立登記法人,兵庫県,川辺郡猪名川町,木津字笠嶺６番,,28,301,6660225,,,,,,,2022-08-05,1,,,,,,0
1373,5150001025745,新規,0,2022-08-05,2022-08-05,株式会社田端工業,,株式会社,奈良県,天理市,備前町１２番地１,,29,204,6320066,,,,,,,2022-08-05,1,,,,,タバタコウギョウ,0
1374,5160001024432,新規,0,2022-08-05,2022-08-05,株式会社ＣＡＲＡＶＡＮ,,株式会社,滋賀県,近江八幡市,仲屋町中２１近江八幡まちや倶楽部内,,25,204,5230862,,,,,,,2022-08-05,1,,,,,キャラバン,0
1380,5180001152512,新規,0,2022-08-05,2022-08-05,株式会社Ｌｉｋｅ　ｕｓ,,株式会社,愛知県,海部郡蟹江町,八幡１丁目７番地１,,23,425,4970056,,,,,,,2022-08-05,1,,,,,ライクアス,0
1383,5180003024115,新規,0,2022-08-05,2022-08-05,合同会社大ヒロ,,合同会社,愛知県,春日井市,西本町２丁目１２番地１１,,23,206,4860958,,,,,,,2022-08-05,1,,,,,オオヒロ,0
1385,5180301036497,新規,0,2022-08-05,2022-08-05,華建株式会社,,株式会社,愛知県,豊川市,住吉町２丁目１０番地,,23,207,4420819,,,,,,,2022-08-05,1,,,,,ハナケン,0
1386,5180301036514,新規,0,2022-08-05,2022-08-05,ＢＥ　ＦＲＥＥ　ＣＡＰＩＴＡＬ株式会社,,株式会社,愛知県,豊橋市,東光町１２番地,,23,201,4400036,,,,,,,2022-08-05,1,,,,,ビーフリーキャピタル,0
1387,5180301036522,新規,0,2022-08-05,2022-08-05,株式会社サミット,,株式会社,愛知県,岡崎市,中島町字上町６６番地,,23,202,4440226,,,,,,,2022-08-05,1,,,,,サミット,0
1392,5230001019474,新規,0,2022-08-05,2022-08-05,株式会社ＮＨＴ　ＣＯＲＰＯＲＡＴＩＯＮ,,株式会社,富山県,射水市,八幡町１丁目３番１６号,,16,211,9340025,,,,,,,2022-08-05,1,,,,,エヌエイチティコーポレーション,0
1395,5240003005744,新規,0,2022-08-05,2022-08-05,合同会社三徳,,合同会社,広島県,広島市東区,福田８丁目２８番２８号,,34,102,7320029,,,,,,,2022-08-05,1,,,,,サントク,0
1400,5260001037110,新規,0,2022-08-05,2022-08-05,株式会社ワイズメイト,,株式会社,岡山県,岡山市北区,今７丁目６番２５号,,33,101,7000975,,,,,,,2022-08-05,1,,,,,ワイズメイト,0
1407,5290001098488,新規,0,2022-08-05,2022-08-05,株式会社キューズ,,株式会社,福岡県,福岡市博多区,板付５丁目１２番２６－９０３号,,40,132,8120888,,,,,,,2022-08-05,1,,,,,キューズ,0
1408,5290003012802,新規,0,2022-08-05,2022-08-05,合同会社春多屋,,合同会社,福岡県,太宰府市,国分１丁目１２番３０号,,40,221,8180132,,,,,,,2022-08-05,1,,,,,ハルタヤ,0
1409,5290003012819,新規,0,2022-08-05,2022-08-05,ＡＴ合同会社,,合同会社,福岡県,福岡市南区,市崎１丁目２番８号高宮マンション４４４号,,40,134,8150084,,,,,,,2022-08-05,1,,,,,エーティー,0
1413,5290805009574,新規,0,2022-08-05,2022-08-05,一般社団法人ダイバーシティ・ネットワークＳＡＫＵＲＡ,,その他の設立登記法人,福岡県,北九州市小倉北区,浅野２丁目１番２１号駅西幹線ビル６０３,,40,106,8020001,,,,,,,2022-08-05,1,,,,,ダイバーシティネットワークサクラ,0
1414,5300001013024,新規,0,2022-08-05,2022-08-05,石井建設株式会社,,株式会社,佐賀県,杵島郡江北町,大字下小田２２７９番地,,41,424,8490505,,,,,,,2022-08-05,1,,,,,イシイケンセツ,0
1419,5320001019259,新規,0,2022-08-05,2022-08-05,ＴＰＳ株式会社,,株式会社,大分県,大分市,東津留２丁目１０番１１号ユナイテッド都留ビル５０１号室,,44,201,8700934,,,,,,,2022-08-05,1,,,,,ティーピーエス,0
1420,5320003003871,新規,0,2022-08-05,2022-08-05,合同会社とらこ,,合同会社,大分県,別府市,大字鶴見５２４番地の１,,44,202,8740840,,,,,,,2022-08-05,1,,,,,トラコ,0
1422,5330001030000,新規,0,2022-08-05,2022-08-05,株式会社ＯＫＵＹＡＭＡ,,株式会社,熊本県,熊本市南区,城南町舞原２２９番地６,,43,104,8614214,,,,,,,2022-08-05,1,,,,,オクヤマ,0
1432,5350001017895,新規,0,2022-08-05,2022-08-05,株式会社ＩＮＤＩＧＯ　ＷＯＲＫＳ,,株式会社,宮崎県,都城市,上町１４街区２１号１階,,45,202,8850072,,,,,,,2022-08-05,1,,,,,インディゴワークス,0
1435,5360003012209,新規,0,2022-08-05,2022-08-05,合同会社ＭＹ,,合同会社,沖縄県,中頭郡西原町,字与那城３４５番地の５（パレスｐｋｍ１Ｆ）,,47,329,9030111,,,,,,,2022-08-05,1,,,,,エムワイ,0
1438,5370001048897,新規,0,2022-08-05,2022-08-05,山一管財株式会社,,株式会社,宮城県,富谷市,成田３丁目３２番地５,,04,216,9813341,,,,,,,2022-08-05,1,,,,,ヤマイチカンザイ,0
1450,5380001033031,新規,0,2022-08-05,2022-08-05,株式会社福わらひ,,株式会社,福島県,福島市,新町２番１５号,,07,201,9608036,,,,,,,2022-08-05,1,,,,,フクワライ,0
1452,5390001016984,新規,0,2022-08-05,2022-08-05,株式会社Ｃａｔ＆Ｇｒｅｅｎ,,株式会社,山形県,東田川郡三川町,大字押切新田字桜木６番地６,,06,426,9971321,,,,,,,2022-08-05,1,,,,,キャットアンドグリーン,0
1453,5400001015968,新規,0,2022-08-05,2022-08-05,株式会社三浦金属,,株式会社,岩手県,上閉伊郡大槌町,大槌第３地割８４番地,,03,461,0281131,,,,,,,2022-08-05,1,,,,,ミウラキンゾク,0
1466,5430001087204,新規,0,2022-08-05,2022-08-05,株式会社ＳＷＥＬＬ,,株式会社,北海道,虻田郡ニセコ町,字元町２５７番地７花水木２０５号室,,01,395,0481544,,,,,,,2022-08-05,1,,,,,スウェル,0
1469,5430003014156,新規,0,2022-08-05,2022-08-05,合同会社ＡＰ,,合同会社,北海道,苫小牧市,字美沢２６１番地の５６,,01,213,0591361,,,,,,,2022-08-05,1,,,,,エーピー,0
1476,5460101007232,新規,0,2022-08-05,2022-08-05,株式会社すずらん動物病院,,株式会社,北海道,河東郡音更町,木野大通東１３丁目４番地４,,01,631,0800111,,,,,,,2022-08-05,1,,,,,スズランドウブツビョウイン,0
1479,5470001019203,新規,0,2022-08-05,2022-08-05,株式会社ＯＦＣ,,株式会社,香川県,高松市,国分寺町国分９１番３山田倉庫１階Ｄ・Ｅ号室,,37,201,7690102,,,,,,,2022-08-05,1,,,,,オーエフシー,0
1498,6010001228567,新規,0,2022-08-05,2022-08-05,株式会社アイランド,,株式会社,東京都,中央区,日本橋蛎殻町１丁目１８番７号,,13,102,1030014,,,,,,,2022-08-05,1,,,,,アイランド,0
1499,6010001228583,新規,0,2022-08-05,2022-08-05,Ｃｒｅａｓｅｅｋ株式会社,,株式会社,東京都,千代田区,外神田５丁目６番１４号,,13,101,1010021,,,,,,,2022-08-05,1,,,,,クレアシーク,0
1500,6010001228591,新規,0,2022-08-05,2022-08-05,株式会社ＲＥＡＬ,,株式会社,東京都,中央区,日本橋茅場町２丁目１７番３号,,13,102,1030025,,,,,,,2022-08-05,1,,,,,レアル,0
1501,6010001228625,新規,0,2022-08-05,2022-08-05,株式会社レコード,,株式会社,東京都,中央区,銀座５丁目１１番１３号幸田ビル２Ｆ,,13,102,1040061,,,,,,,2022-08-05,1,,,,,レコード,0
1505,6010003038329,新規,0,2022-08-05,2022-08-05,合同会社マルタ,,合同会社,東京都,中央区,日本橋蛎殻町２丁目１１番８－１００１号,,13,102,1030014,,,,,,,2022-08-05,1,,,,,マルタ,0
1506,6010005035340,新規,0,2022-08-05,2022-08-05,一般社団法人ＭＤ３３０事務サポートセンター,,その他の設立登記法人,東京都,中央区,日本橋２丁目１２番９号日本橋グレイスビル２Ｆ,,13,102,1030027,,,,,,,2022-08-05,1,,,,,エムディーサンサンゼロジムサポートセンター,0
1509,6010401168883,新規,0,2022-08-05,2022-08-05,藤武パートナーズ株式会社,,株式会社,東京都,港区,新橋６丁目２２番６号,,13,103,1050004,,,,,,,2022-08-05,1,,,,,トウブパートナーズ,0
1510,6010401168909,新規,0,2022-08-05,2022-08-05,株式会社ｅＣｏｎｓｕｌｔｉｎｇ,,株式会社,東京都,港区,南青山３丁目１３番１８号,,13,103,1070062,,,,,,,2022-08-05,1,,,,,イーコンサルティング,0
1511,6010401168941,新規,0,2022-08-05,2022-08-05,株式会社谷永,,株式会社,東京都,港区,高輪３丁目１１番８－１８０５号,,13,103,1080074,,,,,,,2022-08-05,1,,,,,タニナガ,0
1512,6010401168966,新規,0,2022-08-05,2022-08-05,株式会社ＹＭＭ,,株式会社,東京都,港区,南麻布５丁目４番１－２０７号,,13,103,1060047,,,,,,,2022-08-05,1,,,,,ワイエムエム,0
1519,6010601061608,新規,0,2022-08-05,2022-08-05,海源商事株式会社,,株式会社,東京都,江東区,南砂６丁目１番１１号Ｓａｌａｍａｚｉｌ３０１,,13,108,1360076,,,,,,,2022-08-05,1,,,,,カイゲンショウジ,0
1523,6010603009679,新規,0,2022-08-05,2022-08-05,合同会社ＩＮＣＵＢＡＴＩＯＮ,,合同会社,東京都,墨田区,墨田２丁目１２番４号,,13,107,1310031,,,,,,,2022-08-05,1,,,,,インキュベーション,0
1525,6010801033175,新規,0,2022-08-05,2022-08-05,ペグズホーム株式会社,,株式会社,東京都,大田区,東雪谷５丁目９番８号松本ビル１Ｆ,,13,111,1450065,,,,,,,2022-08-05,1,,,,,ペグズホーム,0
1532,6010905004353,新規,0,2022-08-05,2022-08-05,土地家屋調査士法人岡林測量設計,,その他の設立登記法人,東京都,世田谷区,喜多見７丁目２５番１７－３０２号,,13,112,1570067,,,,,,,2022-08-05,1,,,,,オカバヤシソクリョウセッケイ,0
1535,6011001148895,新規,0,2022-08-05,2022-08-05,Ｅｌｌｅｓ　Ｆｉｌｍｓ株式会社,,株式会社,東京都,渋谷区,東３丁目２５番３－６０６号,,13,113,1500011,,,,,,,2022-08-05,1,,,,,エルフィルムズ,0
1536,6011001149068,新規,0,2022-08-05,2022-08-05,株式会社箕輪家,,株式会社,東京都,渋谷区,恵比寿南３丁目４番１４号,,13,113,1500022,,,,,,,2022-08-05,1,,,,,ミノワヤ,0
1540,6011003015094,新規,0,2022-08-05,2022-08-05,ＧＬＯＢＥ　ＡＩＲ　ＣＡＲＧＯ合同会社,,合同会社,東京都,目黒区,碑文谷２丁目１０番１６－５０６号,,13,110,1520003,,,,,,,2022-08-05,1,,,,,グローブエアカーゴ,0
1542,6011101099774,新規,0,2022-08-05,2022-08-05,世味株式会社,,株式会社,東京都,新宿区,新宿１丁目２４番７号ルネ御苑プラザ７１０号室,,13,104,1600022,,,,,,,2022-08-05,1,,,,,セイミ,0
1543,6011101099799,新規,0,2022-08-05,2022-08-05,株式会社Ａｂｓｏ,,株式会社,東京都,新宿区,西新宿７丁目１４番１２号ペアレンツビル２Ｆ,,13,104,1600023,,,,,,,2022-08-05,1,,,,,アブソ,0
1544,6011103012041,新規,0,2022-08-05,2022-08-05,合同会社ＢｅＳｉｄｅ,,合同会社,東京都,新宿区,大京町１９番地ルート四谷三丁目４０３,,13,104,1600015,,,,,,,2022-08-05,1,,,,,ビサイド,0
1545,6011105010349,新規,0,2022-08-05,2022-08-05,弁理士法人有我国際特許事務所,,その他の設立登記法人,東京都,新宿区,四谷４丁目１６番３号,,13,104,1600004,,,,,,,2022-08-05,1,,,,,アリガコクサイトッキョジムショ,0
1548,6011201024013,新規,0,2022-08-05,2022-08-05,株式会社ＫＫＥスマイルサポート,,株式会社,東京都,中野区,本町４丁目３８番１３号日本ホルスタイン会館株式会社構造計画研究所本所内,,13,114,1640012,,,,,,,2022-08-05,1,,,,,ケーケーイースマイルサポート,0
1549,6011201024021,新規,0,2022-08-05,2022-08-05,株式会社時空プロジェクト,,株式会社,東京都,中野区,東中野１丁目５９番９号アトリエビル４０１,,13,114,1640003,,,,,,,2022-08-05,1,,,,,ジクウプロジェクト,0
1559,6011601026154,新規,0,2022-08-05,2022-08-05,津洋株式会社,,株式会社,東京都,練馬区,小竹町１丁目５５－７日神パレス江古田３０３,,13,120,1760004,,,,,,,2022-08-05,1,,,,,ツヨウ,0
1579,6013301049476,新規,0,2022-08-05,2022-08-05,健美Ｐｌｕｓ株式会社,,株式会社,東京都,豊島区,池袋２丁目２２番１－７０１号,,13,116,1710014,,,,,,,2022-08-05,1,,,,,ケンビプラス,0
1582,6020001147568,新規,0,2022-08-05,2022-08-05,株式会社ｚ　ｇａｍｅ　ｓｔｕｄｉｏ,,株式会社,神奈川県,横浜市金沢区,柳町２－９,,14,108,2360026,,,,,,,2022-08-05,1,,,,,ゼットゲームスタジオ,0
1583,6020001147584,新規,0,2022-08-05,2022-08-05,みらいパートナーズ株式会社,,株式会社,神奈川県,横浜市西区,みなとみらい２丁目２－１ランドマークプラザ５Ｆ,,14,103,2200012,,,,,,,2022-08-05,1,,,,,ミライパートナーズ,0
1584,6020001147618,新規,0,2022-08-05,2022-08-05,ＭＳＲ株式会社,,株式会社,神奈川県,横浜市神奈川区,広台太田町５番地６－６０１,,14,102,2210824,,,,,,,2022-08-05,1,,,,,エムエスアール,0
1585,6020001147626,新規,0,2022-08-05,2022-08-05,株式会社増田設備,,株式会社,神奈川県,川崎市多摩区,長沢１丁目１０番１１－２号,,14,135,2140035,,,,,,,2022-08-05,1,,,,,マスダセツビ,0
1586,6020001147634,新規,0,2022-08-05,2022-08-05,株式会社ＴＥＫＩＮＲＯ,,株式会社,神奈川県,横浜市中区,桜木町１丁目１０１番地１クロスゲート７階,,14,104,2310062,,,,,,,2022-08-05,1,,,,,テキンロ,0
1587,6020003022190,新規,0,2022-08-05,2022-08-05,合同会社Ｋホールディングス,,合同会社,神奈川県,横浜市中区,長者町８丁目１３２番地１０サミタスビル４階,,14,104,2310033,,,,,,,2022-08-05,1,,,,,ケイホールディングス,0
1588,6020003022216,新規,0,2022-08-05,2022-08-05,ｍｒｐ　ｐｌｕｓ合同会社,,合同会社,神奈川県,横浜市中区,元町５丁目２０２番地１－５Ｆ,,14,104,2310861,,,,,,,2022-08-05,1,,,,,エムアールピープラス,0
1594,6021001076658,新規,0,2022-08-05,2022-08-05,株式会社ＰＥＡＣＥ　Ｌａｂ,,株式会社,神奈川県,相模原市緑区,大島１１番地３７２,,14,151,2520135,,,,,,,2022-08-05,1,,,,,ピースラボ,0
1605,6030001149506,新規,0,2022-08-05,2022-08-05,ＩＨＴ株式会社,,株式会社,埼玉県,越谷市,大字平方３６３番地３,,11,222,3430002,,,,,,,2022-08-05,1,,,,,アイエイチティー,0
1606,6030001149530,新規,0,2022-08-05,2022-08-05,株式会社Ｌｏｔｕｓ,,株式会社,埼玉県,朝霞市,東弁財１丁目１番２４号ブエナビスタ２階,,11,227,3510022,,,,,,,2022-08-05,1,,,,,ロータス,0
1607,6030001149539,新規,0,2022-08-05,2022-08-05,株式会社かどや,,株式会社,埼玉県,さいたま市北区,吉野町２丁目２５７番地６,,11,102,3310811,,,,,,,2022-08-05,1,,,,,カドヤ,0
1612,6030003019913,新規,0,2022-08-05,2022-08-05,ロットスマイル合同会社,,合同会社,埼玉県,さいたま市見沼区,大字南中野１０１４番地９,,11,104,3370042,,,,,,,2022-08-05,1,,,,,ロットスマイル,0
1613,6030003019921,新規,0,2022-08-05,2022-08-05,合同会社蒼水設備,,合同会社,埼玉県,さいたま市緑区,大字三室２０２番地６６アールガレージ浦和東Ｉ１０３号室,00127439,11,109,3360911,,,,,,,2022-08-05,1,,,,,ソウスイセツビ,0
1614,6030003019946,新規,0,2022-08-05,2022-08-05,祥＿合同会社,00127438,合同会社,埼玉県,川口市,仲町５－４５－６,,11,203,3320022,,,,,,,2022-08-05,1,,,,,ショウシン,0
1617,6040001124524,新規,0,2022-08-05,2022-08-05,株式会社Ｕｎｉ．Ｖ,,株式会社,千葉県,八千代市,緑が丘２丁目３９番６号杉本店舗１０１,,12,221,2760049,,,,,,,2022-08-05,1,,,,,ユニファイブ,0
1618,6040001124532,新規,0,2022-08-05,2022-08-05,株式会社ＴＯＯＬＢＯＸ,,株式会社,千葉県,流山市,南流山２丁目４番地の７グランジュール９０６,,12,220,2700163,,,,,,,2022-08-05,1,,,,,ツールボックス,0
1619,6040001124540,新規,0,2022-08-05,2022-08-05,株式会社中畑防水工業,,株式会社,千葉県,流山市,南流山５丁目６番地の１８,,12,220,2700163,,,,,,,2022-08-05,1,,,,,ナカハタボウスイコウギョウ,0
1620,6040001124565,新規,0,2022-08-05,2022-08-05,株式会社アメニティリペアワークス２４,,株式会社,千葉県,市川市,妙典６丁目１０番３号,,12,203,2720111,,,,,,,2022-08-05,1,,,,,アメニティリペアワークスニジュウヨン,0
1621,6040001124598,新規,0,2022-08-05,2022-08-05,ルビーエム株式会社,,株式会社,千葉県,佐倉市,新町７０－１アップルＡ１０３,,12,212,2850023,,,,,,,2022-08-05,1,,,,,ルビーエム,0
1623,6040003020548,新規,0,2022-08-05,2022-08-05,合同会社ＤＩＶＥ,,合同会社,千葉県,船橋市,習志野台２丁目６０番２号,,12,204,2740063,,,,,,,2022-08-05,1,,,,,ダイブ,0
1624,6040003020556,新規,0,2022-08-05,2022-08-05,グッドファット合同会社,,合同会社,千葉県,船橋市,前原西２丁目１４－２津田沼駅前安田ビル別館２階,,12,204,2740825,,,,,,,2022-08-05,1,,,,,グッドファット,0
1625,6040003020572,新規,0,2022-08-05,2022-08-05,あぐりす合同会社,,合同会社,千葉県,我孫子市,新木１５６８番地,,12,222,2701112,,,,,,,2022-08-05,1,,,,,アグリス,0
1630,6050001051511,新規,0,2022-08-05,2022-08-05,ＰＲＥＶＡＩＬ　ＴＲＡＤＩＮＧ株式会社,,株式会社,茨城県,常陸大宮市,檜山６７２－１０,,08,225,3114616,,,,,,,2022-08-05,1,,,,,プリヴェイルトレーディング,0
1639,6070001039505,新規,0,2022-08-05,2022-08-05,植木アセットマネジメント株式会社,,株式会社,群馬県,前橋市,千代田町２丁目４番１４号,,10,201,3710022,,,,,,,2022-08-05,1,,,,,ウエキアセットマネジメント,0
1640,6070001039521,新規,0,2022-08-05,2022-08-05,株式会社Ｓｕｎ　ｌｉｇｈｔ,,株式会社,群馬県,高崎市,浜川町７４５番地,,10,202,3700081,,,,,,,2022-08-05,1,,,,,サンライト,0
1642,6070003004548,新規,0,2022-08-05,2022-08-05,合同会社長橋建設,,合同会社,群馬県,高崎市,吉井町小串１０３,,10,202,3702111,,,,,,,2022-08-05,1,,,,,ナガハシケンセツ,0
1643,6070003004580,新規,0,2022-08-05,2022-08-05,合同会社Ｙ’ｚインベストメント,,合同会社,群馬県,みどり市,笠懸町阿左美２５９７番地３レンブラントガーデンＡＺＡＭＩ－Ｄ,,10,212,3792311,,,,,,,2022-08-05,1,,,,,ワイズインベストメント,0
1649,6090001017715,新規,0,2022-08-05,2022-08-05,株式会社志村鉄工,,株式会社,山梨県,都留市,境３０２番地,,19,204,4020033,,,,,,,2022-08-05,1,,,,,シムラテッコウ,0
1650,6090003002145,新規,0,2022-08-05,2022-08-05,合同会社財務経営支援,,合同会社,山梨県,甲府市,朝気１丁目１番３号,,19,201,4000862,,,,,,,2022-08-05,1,,,,,ザイムケイエイシエン,0
1653,6100003006648,新規,0,2022-08-05,2022-08-05,合同会社アンティ,,合同会社,長野県,茅野市,北山４０３５番地,,20,214,3910301,,,,,,,2022-08-05,1,,,,,アンティ,0
1666,6120001247886,新規,0,2022-08-05,2022-08-05,中之島会計事務所株式会社,,株式会社,大阪府,大阪市北区,中之島３丁目６番３２号ダイビル本館,,27,127,5300005,,,,,,,2022-08-05,1,,,,,ナカノシマカイケイジムショ,0
1667,6120001247911,新規,0,2022-08-05,2022-08-05,株式会社ＡＫＬＡＮＤ,,株式会社,大阪府,大阪市天王寺区,国分町２番１８号,,27,109,5430044,,,,,,,2022-08-05,1,,,,,エイケイランド,0
1668,6120001247944,新規,0,2022-08-05,2022-08-05,株式会社和希愛愛,,株式会社,大阪府,大阪市生野区,生野西３丁目６番１４号小松橋ライフ２０４,,27,116,5440024,,,,,,,2022-08-05,1,,,,,ワキアイアイ,0
1669,6120001247960,新規,0,2022-08-05,2022-08-05,株式会社ＴＯＫ,,株式会社,大阪府,大阪市中央区,常盤町２丁目３番８－１５０４号,,27,128,5400028,,,,,,,2022-08-05,1,,,,,トック,0
1670,6120001247969,新規,0,2022-08-05,2022-08-05,株式会社Ｄ‐ＯＮＥ．ＴＥＣ,,株式会社,大阪府,大阪市平野区,加美北９丁目７番１４号,,27,126,5470001,,,,,,,2022-08-05,1,,,,,ディワンテク,0
1674,6120101066022,新規,0,2022-08-05,2022-08-05,ＤＨＬ販売株式会社,,株式会社,大阪府,泉佐野市,市場南２丁目５０４番地の９大阪谷ビル４Ｆ,,27,213,5980004,,,,,,,2022-08-05,1,,,,,ディーエイチエルハンバイ,0
1675,6120101066030,新規,0,2022-08-05,2022-08-05,株式会社ＩＳシール,,株式会社,大阪府,堺市西区,菱木２丁２２１６番地１,,27,144,5938315,,,,,,,2022-08-05,1,,,,,アイエスシール,0
1678,6120901046339,新規,0,2022-08-05,2022-08-05,株式会社Ｐｒｉｍｅ　Ａｄｖｉｓｏｒ,,株式会社,大阪府,摂津市,千里丘１丁目１１番６号,,27,224,5660001,,,,,,,2022-08-05,1,,,,,プライムアドバイザー,0
1681,6130001072350,新規,0,2022-08-05,2022-08-05,株式会社あっと,,株式会社,京都府,八幡市,川口東扇１４－１８,,26,210,6148116,,,,,,,2022-08-05,1,,,,,アット,0
1686,6140005026277,新規,0,2022-08-05,2022-08-05,一般社団法人国際交流スポーツ協会,,その他の設立登記法人,兵庫県,神戸市長田区,日吉町４丁目１番４号ヒーモリビル２Ｆ,,28,106,6530039,,,,,,,2022-08-05,1,,,,,コクサイコウリュウスポーツキョウカイ,0
1695,6180001152494,新規,0,2022-08-05,2022-08-05,スズキコンストラクション株式会社,,株式会社,愛知県,一宮市,蓮池字郷西６５番地１,,23,203,4940019,,,,,,,2022-08-05,1,,,,,スズキコンストラクション,0
1696,6180001152511,新規,0,2022-08-05,2022-08-05,株式会社ＦＲＣ,,株式会社,愛知県,名古屋市中村区,名駅南１丁目２８番２６号,,23,105,4500003,,,,,,,2022-08-05,1,,,,,エフアールシー,0
1704,6180301036496,新規,0,2022-08-05,2022-08-05,株式会社ＲＯＵＴＥ８６,,株式会社,愛知県,豊橋市,天伯町字春日野１６番地２,,23,201,4418122,,,,,,,2022-08-05,1,,,,,ルートハチロク,0
1707,6190001029675,新規,0,2022-08-05,2022-08-05,株式会社マミーハウス,,株式会社,三重県,桑名市,多度町下野代１０３３番地７,,24,205,5110117,,,,,,,2022-08-05,1,,,,,マミーハウス,0
1711,6230001019473,新規,0,2022-08-05,2022-08-05,株式会社ＮＥＸＴ,,株式会社,富山県,魚津市,吉島４番地,,16,204,9370041,,,,,,,2022-08-05,1,,,,,ネクスト,0
1719,6260001037118,新規,0,2022-08-05,2022-08-05,ＨＲＥ株式会社,,株式会社,岡山県,倉敷市,鶴形１丁目３番１号井上ビル１階西,,33,202,7100056,,,,,,,2022-08-05,1,,,,,エイチアールイー,0
1727,6290001098438,新規,0,2022-08-05,2022-08-05,株式会社チアーズ,,株式会社,福岡県,福岡市南区,長住６丁目１０番１号,,40,134,8111362,,,,,,,2022-08-05,1,,,,,チアーズ,0
1728,6290001098479,新規,0,2022-08-05,2022-08-05,株式会社ｗｉｌｌ,,株式会社,福岡県,久留米市,東櫛原町１９２７番地３３　１Ｆ,00127442,40,203,8300003,,,,,,,2022-08-05,1,,,,,ウイル,0
1729,6290001098487,新規,0,2022-08-05,2022-08-05,株式会社ＮＲ２,,株式会社,福岡県,福岡市博多区,博多駅南５丁目２－１９－１Ｆ,,40,132,8120016,,,,,,,2022-08-05,1,,,,,エヌアールツー,0
1730,6290001098495,新規,0,2022-08-05,2022-08-05,株式会社ＡＬＢＡＬＩＺＥ,,株式会社,福岡県,朝倉郡筑前町,安野１４１－９,,40,447,8380213,,,,,,,2022-08-05,1,,,,,アルバライズ,0
1733,6300001013023,新規,0,2022-08-05,2022-08-05,株式会社ポラリス,,株式会社,佐賀県,佐賀市,神園５丁目５番２６号,,41,201,8400806,,,,,,,2022-08-05,1,,,,,ポラリス,0
1741,6320001019258,新規,0,2022-08-05,2022-08-05,株式会社茂博,,株式会社,大分県,別府市,大字鉄輪８４６番地の２４,,44,202,8740000,,,,,,,2022-08-05,1,,,,,モチヒロ,0
1742,6330001029990,新規,0,2022-08-05,2022-08-05,株式会社麻生建設,,株式会社,熊本県,熊本市東区,桜木２丁目１６番１０号１０２,,43,102,8612101,,,,,,,2022-08-05,1,,,,,アソウケンセツ,0
1749,6370003005796,新規,0,2022-08-05,2022-08-05,じょう商店合同会社,,合同会社,宮城県,石巻市,向陽町２丁目３番７号,,04,202,9860863,,,,,,,2022-08-05,1,,,,,ジョウショウテン,0
1753,6380001033030,新規,0,2022-08-05,2022-08-05,株式会社ＨＣ,,株式会社,福島県,いわき市,平字尼子町２番地の２６,,07,204,9708026,,,,,,,2022-08-05,1,,,,,エイチシー,0
1758,6420003002557,新規,0,2022-08-05,2022-08-05,合同会社みちのくサービス,,合同会社,青森県,青森市,花園１丁目２３－５、１Ｆ,,02,201,0300966,,,,,,,2022-08-05,1,,,,,ミチノクサービス,0
1763,6430001087203,新規,0,2022-08-05,2022-08-05,株式会社ウタリ,,株式会社,北海道,札幌市中央区,南十七条西１５丁目２番３－１００５号,,01,101,0640917,,,,,,,2022-08-05,1,,,,,ウタリ,0
1764,6430001087228,新規,0,2022-08-05,2022-08-05,株式会社ｃｅｌｅｓｔｅ,,株式会社,北海道,札幌市北区,北二十一条西５丁目２－３１,,01,102,0010021,,,,,,,2022-08-05,1,,,,,セレスト,0
1765,6430001087236,新規,0,2022-08-05,2022-08-05,株式会社ＭＳ＆Ｏ,,株式会社,北海道,苫小牧市,新中野町１丁目９番３号,,01,213,0530006,,,,,,,2022-08-05,1,,,,,エムエスアンドオー,0
1768,6430003014147,新規,0,2022-08-05,2022-08-05,ＪＤ合同会社,,合同会社,北海道,札幌市中央区,南一条西９丁目１５－２札幌南１条ビル４階Ｂ室,,01,101,0600061,,,,,,,2022-08-05,1,,,,,ジェイディー,0
1769,6430003014163,新規,0,2022-08-05,2022-08-05,合同会社Ｓ＆Ｅ,,合同会社,北海道,札幌市中央区,南三条西８丁目２－１ＳＡＫＵＲＡ－Ｓ３,,01,101,0600063,,,,,,,2022-08-05,1,,,,,エスアンドイー,0
1775,6490003001684,新規,0,2022-08-05,2022-08-05,合同会社ＫＵ　ｐｒｏｐｅｒｔｙ,,合同会社,高知県,高知市,南金田１８－１０,,39,201,7810074,,,,,,,2022-08-05,1,,,,,ケーユープロパティ,0
1800,7010001228517,新規,0,2022-08-05,2022-08-05,株式会社アスピレテック,,株式会社,東京都,千代田区,神田駿河台２丁目９番地３３パークコート千代田駿河台ヒルトップレジデンス１１０１号,,13,101,1010062,,,,,,,2022-08-05,1,,,,,アスピレテック,0
1801,7010001228566,新規,0,2022-08-05,2022-08-05,ＯＰＴＹ　ＥＣＯ株式会社,,株式会社,東京都,千代田区,九段南１丁目５番６号りそな九段ビル５Ｆ－ＫＳフロア,,13,101,1020074,,,,,,,2022-08-05,1,,,,,オプティエコ,0
1802,7010001228582,新規,0,2022-08-05,2022-08-05,ＡＳＨＩＦＴ株式会社,,株式会社,東京都,千代田区,外神田４丁目１２番２号,,13,101,1010021,,,,,,,2022-08-05,1,,,,,エーシフト,0
1803,7010001228599,新規,0,2022-08-05,2022-08-05,ＯＱＣ株式会社,,株式会社,東京都,中央区,日本橋室町４丁目３番９号,,13,102,1030022,,,,,,,2022-08-05,1,,,,,オーキューシー,0
1804,7010001228608,新規,0,2022-08-05,2022-08-05,株式会社ＮＥＷ　ＳＴＯＲＹ,,株式会社,東京都,文京区,小石川５丁目２０番４－６０１号,,13,105,1120002,,,,,,,2022-08-05,1,,,,,ニューストーリー,0
1808,7010003038336,新規,0,2022-08-05,2022-08-05,合同会社智永,,合同会社,東京都,文京区,向丘１丁目１０番１０－１３０３号,,13,105,1130023,,,,,,,2022-08-05,1,,,,,トモナガ,0
1812,7010401168890,新規,0,2022-08-05,2022-08-05,株式会社東和不動産,,株式会社,東京都,港区,新橋３丁目９番１０号,,13,103,1050004,,,,,,,2022-08-05,1,,,,,トウワフドウサン,0
1813,7010401168916,新規,0,2022-08-05,2022-08-05,ＤｙｎａＣａｍｐｅｒＤＸ株式会社,,株式会社,東京都,港区,高輪４丁目２３番６号ハイホーム高輪７０８,,13,103,1080074,,,,,,,2022-08-05,1,,,,,ダイナキャンパーディーエックス,0
1814,7010401168932,新規,0,2022-08-05,2022-08-05,株式会社ｘｐａｔｓ,,株式会社,東京都,港区,東麻布１丁目９番１１号ＧＲＯＷＴＨｂｙＩＯＱ１１０２,,13,103,1060044,,,,,,,2022-08-05,1,,,,,エックスパッツ,0
1815,7010403028184,新規,0,2022-08-05,2022-08-05,ＡＴＲＡ　Ｄｅｓｉｇｎ合同会社,,合同会社,東京都,港区,南青山２丁目２－１５ＷＩＮ青山５３,,13,103,1070062,,,,,,,2022-08-05,1,,,,,アトラデザイン,0
1816,7010403028192,新規,0,2022-08-05,2022-08-05,押上合同会社,,合同会社,東京都,港区,虎ノ門３丁目２２番１０－２０１号,,13,103,1050001,,,,,,,2022-08-05,1,,,,,オシアゲ,0
1823,7010601061615,新規,0,2022-08-05,2022-08-05,株式会社ＰＬＡＮＴ,,株式会社,東京都,墨田区,本所１丁目２番１２号安澤ビル１Ｆ,,13,107,1300004,,,,,,,2022-08-05,1,,,,,プラント,0
1824,7010601061623,新規,0,2022-08-05,2022-08-05,株式会社村上キャピタル,,株式会社,東京都,江東区,木場２丁目１８番４－９０７号,,13,108,1350042,,,,,,,2022-08-05,1,,,,,ムラカミキャピタル,0
1825,7010601061631,新規,0,2022-08-05,2022-08-05,縁株式会社,,株式会社,東京都,墨田区,東向島６丁目４８番１６－５０２号,,13,107,1310032,,,,,,,2022-08-05,1,,,,,エニシ,0
1829,7010701043034,新規,0,2022-08-05,2022-08-05,ＴＮパートナーズ株式会社,,株式会社,東京都,品川区,上大崎３丁目１番１号,,13,109,1410021,,,,,,,2022-08-05,1,,,,,ティーエヌパートナーズ,0
1830,7010705003389,新規,0,2022-08-05,2022-08-05,一般社団法人全日本青少年ｅスポーツ協会Ｇａｍｅｉｃ,,その他の設立登記法人,東京都,品川区,西五反田２丁目９番７号,,13,109,1410031,,,,,,,2022-08-05,1,,,,,ゼンニホンセイショウネンイースポーツキョウカイゲーミック,0
1831,7010705003397,新規,0,2022-08-05,2022-08-05,税理士法人Ｈｏｒｉｚｏｎ　Ｏｎｅ,,その他の設立登記法人,東京都,品川区,上大崎３丁目１番１号目黒セントラルスクエア１４階,,13,109,1410021,,,,,,,2022-08-05,1,,,,,ホライズンワン,0
1849,7011001148886,新規,0,2022-08-05,2022-08-05,株式会社ユニウム,,株式会社,東京都,渋谷区,神宮前６丁目２３番４号桑野ビル２階,,13,113,1500001,,,,,,,2022-08-05,1,,,,,ユニウム,0
1850,7011001148894,新規,0,2022-08-05,2022-08-05,株式会社ガイダンス,,株式会社,東京都,目黒区,鷹番１丁目５－２,,13,110,1520004,,,,,,,2022-08-05,1,,,,,ガイダンス,0
1851,7011001149075,新規,0,2022-08-05,2022-08-05,永株式会社,,株式会社,東京都,渋谷区,千駄ヶ谷５丁目６番１４号ＹＢマンション１階,,13,113,1510051,,,,,,,2022-08-05,1,,,,,トコシエ,0
1856,7011101099798,新規,0,2022-08-05,2022-08-05,株式会社東明堂,,株式会社,東京都,新宿区,百人町２丁目１０番６号ルネッサンス新宿７０３号室,,13,104,1690073,,,,,,,2022-08-05,1,,,,,トウメイドウ,0
1860,7011201024012,新規,0,2022-08-05,2022-08-05,株式会社ジムニーランド,,株式会社,東京都,中野区,上高田４丁目３番１号２０３,,13,114,1640002,,,,,,,2022-08-05,1,,,,,ジムニーランド,0
1868,7011501028365,新規,0,2022-08-05,2022-08-05,株式会社ライフサポート幸英,,株式会社,東京都,北区,赤羽西１丁目１番８－３０１号ベルヴィータ赤羽,,13,117,1150055,,,,,,,2022-08-05,1,,,,,,0
1872,7011503005247,新規,0,2022-08-05,2022-08-05,Ｌｉｂ合同会社,,合同会社,東京都,北区,赤羽台３丁目２番１０号ＭＹ・ＹＯＵ・ＨＯＵＳＥ１０１号室,,13,117,1150053,,,,,,,2022-08-05,1,,,,,リブ,0
1873,7011603003670,新規,0,2022-08-05,2022-08-05,ＧＥＮＥＰＲＯ合同会社,,合同会社,東京都,練馬区,大泉町４丁目６番５号,,13,120,1780062,,,,,,,2022-08-05,1,,,,,ゲネプロ,0
1880,7013103001155,新規,0,2022-08-05,2022-08-05,合同会社ともすび,,合同会社,東京都,西多摩郡檜原村,１００１―１,,13,307,1900200,,,,,,,2022-08-05,1,,,,,トモスビ,0
1881,7013301049467,新規,0,2022-08-05,2022-08-05,株式会社秀,,株式会社,東京都,豊島区,池袋２丁目３番３号ゆう文ビル,,13,116,1710014,,,,,,,2022-08-05,1,,,,,シュウ,0
1882,7013305003370,新規,0,2022-08-05,2022-08-05,一般財団法人こども未来支援協会,,その他の設立登記法人,東京都,豊島区,巣鴨２丁目１１番４号,,13,116,1700002,,,,,,,2022-08-05,1,,,,,コドモミライシエンキョウカイ,0
1885,7020001147567,新規,0,2022-08-05,2022-08-05,株式会社Ｌｉｐｌｕｓ,,株式会社,神奈川県,川崎市麻生区,王禅寺西２丁目１２番８号リブリ・新百合ヶ丘２０２,,14,137,2150017,,,,,,,2022-08-05,1,,,,,リプラス,0
1886,7020001147591,新規,0,2022-08-05,2022-08-05,株式会社ミライクル,,株式会社,神奈川県,横浜市神奈川区,子安通３丁目３９５番地１グーディッシュ新子安５０４号,,14,102,2210021,,,,,,,2022-08-05,1,,,,,ミライクル,0
1887,7020001147666,新規,0,2022-08-05,2022-08-05,株式会社三田タイル工業,,株式会社,神奈川県,川崎市高津区,久末１５１０番地３７,,14,134,2130026,,,,,,,2022-08-05,1,,,,,ミタタイルコウギョウ,0
1898,7021003012008,新規,0,2022-08-05,2022-08-05,合同会社Ｖｒｅｅｚｅ　Ｏｎｅ,,合同会社,神奈川県,座間市,相武台１丁目２９番３号２Ｆ,,14,216,2520011,,,,,,,2022-08-05,1,,,,,ブリーズワン,0
1903,7030001149505,新規,0,2022-08-05,2022-08-05,株式会社ＡＣＮ関東,,株式会社,埼玉県,さいたま市大宮区,宮町２丁目８１番地,,11,103,3300802,,,,,,,2022-08-05,1,,,,,エーシーエヌカントウ,0
1904,7030001149521,新規,0,2022-08-05,2022-08-05,株式会社ＴＲＫ,,株式会社,埼玉県,川越市,大字古谷上３７４３番地,,11,201,3500001,,,,,,,2022-08-05,1,,,,,ティーアールケー,0
1905,7030001149538,新規,0,2022-08-05,2022-08-05,株式会社ポーチュラカ・地域生活支援,,株式会社,埼玉県,桶川市,朝日２丁目１０番１号,,11,231,3630023,,,,,,,2022-08-05,1,,,,,ポーチュラカチイキセイカツシエン,0
1906,7030001149546,新規,0,2022-08-05,2022-08-05,株式会社サーキットホーム,,株式会社,埼玉県,北葛飾郡杉戸町,大字並塚１５６９番地１,,11,464,3450015,,,,,,,2022-08-05,1,,,,,サーキットホーム,0
1907,7030001149562,新規,0,2022-08-05,2022-08-05,株式会社ＲＥＦＩＮＥ,,株式会社,埼玉県,さいたま市岩槻区,日の出町９番３１－１号,,11,110,3390064,,,,,,,2022-08-05,1,,,,,リファイン,0
1913,7030003019912,新規,0,2022-08-05,2022-08-05,合同会社ウェルスマインド,,合同会社,埼玉県,越谷市,神明町１丁目８４番地３,,11,222,3430805,,,,,,,2022-08-05,1,,,,,ウェルスマインド,0
1914,7030003019929,新規,0,2022-08-05,2022-08-05,合同会社ＳＯＬＮＡ,,合同会社,埼玉県,川口市,長蔵２丁目１６番２７号ガレージハウス６・１号室,,11,203,3330807,,,,,,,2022-08-05,1,,,,,ソルナ,0
1915,7030003019937,新規,0,2022-08-05,2022-08-05,合同会社アロマユーパイン,,合同会社,埼玉県,蓮田市,大字川島２８６番地１０,,11,238,3490112,,,,,,,2022-08-05,1,,,,,アロマユーパイン,0
1918,7040001124572,新規,0,2022-08-05,2022-08-05,株式会社６Ｓ,,株式会社,千葉県,船橋市,上山町２丁目２６２番地１２,,12,204,2730046,,,,,,,2022-08-05,1,,,,,シックスエス,0
1919,7040001124580,新規,0,2022-08-05,2022-08-05,あおい株式会社,,株式会社,千葉県,印西市,高花５丁目１６番地１,,12,231,2701342,,,,,,,2022-08-05,1,,,,,アオイ,0
1920,7040001124597,新規,0,2022-08-05,2022-08-05,株式会社ＤＢｒｏｗｎ,,株式会社,千葉県,四街道市,大日４７１－１１８,,12,228,2840001,,,,,,,2022-08-05,1,,,,,ディーブラウン,0
1921,7040001124606,新規,0,2022-08-05,2022-08-05,大勝テンダ株式会社,,株式会社,千葉県,印旛郡酒々井町,伊篠５０４－１２－１０１,,12,322,2850902,,,,,,,2022-08-05,1,,,,,ダイショウテンダ,0
1923,7040003020571,新規,0,2022-08-05,2022-08-05,合同会社ＨＵ．ＰＡＩＮＴ,,合同会社,千葉県,君津市,人見１４１１番地トラッド人見１０２,,12,225,2991147,,,,,,,2022-08-05,1,,,,,フーペイント,0
1924,7040003020588,新規,0,2022-08-05,2022-08-05,合同会社エクシア,,合同会社,千葉県,松戸市,根本１２２番１オークハイツ５０４号室,,12,207,2710077,,,,,,,2022-08-05,1,,,,,エクシア,0
1925,7040003020596,新規,0,2022-08-05,2022-08-05,浜野合同会社,,合同会社,千葉県,千葉市中央区,村田町７７－１７,,12,101,2600825,,,,,,,2022-08-05,1,,,,,ハマノ,0
1929,7050001051493,新規,0,2022-08-05,2022-08-05,アドラゴスファーマ株式会社,,株式会社,茨城県,取手市,小文間５６６２番地,,08,217,3020001,,,,,,,2022-08-05,1,,,,,アドラゴスファーマ,0
1930,7050001051502,新規,0,2022-08-05,2022-08-05,ＯＳＡＭＵ．ＤＰ株式会社,,株式会社,茨城県,つくば市,島名３５３６番地４,,08,220,3002655,,,,,,,2022-08-05,1,,,,,オサムディーピィー,0
1936,7070001039504,新規,0,2022-08-05,2022-08-05,株式会社ｕ‐ｃｒｅｗ,,株式会社,群馬県,伊勢崎市,八斗島町１５８８番地２,,10,204,3720827,,,,,,,2022-08-05,1,,,,,ユークルー,0
1937,7070001039512,新規,0,2022-08-05,2022-08-05,株式会社おひさま・ふぁーむ,,株式会社,群馬県,前橋市,柏倉町２４３９番地１２,,10,201,3710246,,,,,,,2022-08-05,1,,,,,オヒサマファーム,0
1941,7080401025986,新規,0,2022-08-05,2022-08-05,株式会社ＭＥＧＡＳＴＥＰ,,株式会社,静岡県,掛川市,家代の里１丁目１３番地の５サンライズＩＩＩ２０１,00127434,22,213,4360227,,,,,,,2022-08-05,1,,,,,メガステップ,0
1943,7090001017714,新規,0,2022-08-05,2022-08-05,株式会社サメダ,,株式会社,山梨県,甲府市,右左口町４２１２番地１,,19,201,4001504,,,,,,,2022-08-05,1,,,,,サメダ,0
1946,7100001035598,新規,0,2022-08-05,2022-08-05,株式会社ＢＡＢＡエンジニアリング,,株式会社,長野県,上田市,古里１７４１番地１２,,20,203,3860005,,,,,,,2022-08-05,1,,,,,ババエンジニアリング,0
1963,7120001247902,新規,0,2022-08-05,2022-08-05,株式会社中之島物産,,株式会社,大阪府,大阪市北区,曾根崎新地１丁目１番１３号１階,,27,127,5300002,,,,,,,2022-08-05,1,,,,,ナカノシマブッサン,0
1964,7120001247927,新規,0,2022-08-05,2022-08-05,株式会社シャルメント,,株式会社,大阪府,大阪市中央区,日本橋１丁目１７番１７号,,27,128,5420073,,,,,,,2022-08-05,1,,,,,シャルメント,0
1965,7120001247943,新規,0,2022-08-05,2022-08-05,株式会社ＪｉＪｉ,,株式会社,大阪府,大阪市都島区,東野田町５丁目３番２８号,,27,102,5340024,,,,,,,2022-08-05,1,,,,,ジジ,0
1966,7120001248000,新規,0,2022-08-05,2022-08-05,アリママ株式会社,,株式会社,大阪府,大阪市天王寺区,筆ケ崎町６番１２－２７０１号,,27,109,5430027,,,,,,,2022-08-05,1,,,,,アリママ,0
1972,7120005023119,新規,0,2022-08-05,2022-08-05,一般社団法人大阪水都安全情報センター,,その他の設立登記法人,大阪府,大阪市旭区,太子橋３丁目１５－１２－３０２,,27,117,5350001,,,,,,,2022-08-05,1,,,,,オオサカスイトアンゼンジョウホウセンター,0
1973,7120005023127,新規,0,2022-08-05,2022-08-05,社会保険労務士法人細川総合パートナーズ,,その他の設立登記法人,大阪府,大阪市北区,梅田１丁目１番３－２９００号,,27,127,5300001,,,,,,,2022-08-05,1,,,,,ホソカワソウゴウパートナーズ,0
1977,7120901046321,新規,0,2022-08-05,2022-08-05,株式会社平井教材,,株式会社,大阪府,豊中市,原田元町２丁目１７番２１号,,27,203,5610808,,,,,,,2022-08-05,1,,,,,ヒライキョウザイ,0
1978,7120901046338,新規,0,2022-08-05,2022-08-05,株式会社ヒロホーム,,株式会社,大阪府,吹田市,江坂町２丁目６番１０号江坂ＤＡプラザ７０６号室,,27,205,5640063,,,,,,,2022-08-05,1,,,,,ヒロホーム,0
1979,7120903004260,新規,0,2022-08-05,2022-08-05,合同会社コンフィデンス,,合同会社,大阪府,吹田市,五月が丘東６－Ａ６１０,,27,205,5650831,,,,,,,2022-08-05,1,,,,,コンフィデンス,0
1980,7122001036145,新規,0,2022-08-05,2022-08-05,ＹＡＭ．ＹＡＲＤ株式会社,,株式会社,大阪府,東大阪市,新庄２丁目５番１５号,,27,227,5780963,,,,,,,2022-08-05,1,,,,,ヤムヤード,0
1994,7160001024430,新規,0,2022-08-05,2022-08-05,株式会社ウェルビーイング,,株式会社,滋賀県,大津市,春日町２番１－２９０６号,,25,201,5200055,,,,,,,2022-08-05,1,,,,,ウェルビーイング,0
2001,7180001152428,新規,0,2022-08-05,2022-08-05,株式会社社交村,,株式会社,愛知県,名古屋市昭和区,御器所１丁目６番１０号（ＳｈｏｗａＢａｓｅ３０３号）,,23,107,4660051,,,,,,,2022-08-05,1,,,,,シャコウムラ,0
2002,7180001152460,新規,0,2022-08-05,2022-08-05,株式会社ｐｈａｒｍａ　ｓｍａｒｔ,,株式会社,愛知県,名古屋市西区,那古野２丁目２５番１１号,00127437,23,104,4510042,,,,,,,2022-08-05,1,,,,,ファーマスマート,0
2003,7180001152502,新規,0,2022-08-05,2022-08-05,ＡＪジャパン株式会社,,株式会社,愛知県,名古屋市中区,栄５丁目９番１７号,,23,106,4600008,,,,,,,2022-08-05,1,,,,,エージェイジャパン,0
2008,7180301036495,新規,0,2022-08-05,2022-08-05,株式会社自動車Ｌｉｆｅ,,株式会社,愛知県,豊田市,深見町糸代１０２番地７９,,23,211,4700441,,,,,,,2022-08-05,1,,,,,ジドウシャライフ,0
2009,7180301036504,新規,0,2022-08-05,2022-08-05,株式会社ラシダジャパン,,株式会社,愛知県,豊橋市,天伯町字竜ケ丘１１番地７ホワイト荘ハウス１０,,23,201,4418122,,,,,,,2022-08-05,1,,,,,ラシダジャパン,0
2010,7180301036512,新規,0,2022-08-05,2022-08-05,株式会社ＤＣ,,株式会社,愛知県,岡崎市,土井町字駒之舞２４－３,,23,202,4440204,,,,,,,2022-08-05,1,,,,,ディーシー,0
2011,7180301036520,新規,0,2022-08-05,2022-08-05,株式会社ミュゼリーブル,,株式会社,愛知県,岡崎市,柱４丁目３番地１７,,23,202,4440837,,,,,,,2022-08-05,1,,,,,ミュゼリーブル,0
2012,7180303005416,新規,0,2022-08-05,2022-08-05,合同会社サザンカ,,合同会社,愛知県,西尾市,徳永町北屋敷５９番地１,,23,213,4440315,,,,,,,2022-08-05,1,,,,,サザンカ,0
2013,7180305009373,新規,0,2022-08-05,2022-08-05,ブルーウイング税理士法人,,その他の設立登記法人,愛知県,岡崎市,緑丘２丁目２番地１１,,23,202,4440806,,,,,,,2022-08-05,1,,,,,ブルーウイング,0
2018,7220001024977,新規,0,2022-08-05,2022-08-05,株式会社Ｇｒａｎｄｉｒ,,株式会社,石川県,能美市,緑が丘７丁目１番地,,17,211,9231226,,,,,,,2022-08-05,1,,,,,グランディール,0
2020,7240001060178,新規,0,2022-08-05,2022-08-05,株式会社ココピアワークス広島,,株式会社,広島県,広島市中区,大手町１丁目１番２０号相生橋ビル７階,,34,101,7300051,,,,,,,2022-08-05,1,,,,,ココピアワークスヒロシマ,0
2021,7240001060186,新規,0,2022-08-05,2022-08-05,Ｋ’ｓインテリア株式会社,,株式会社,広島県,呉市,焼山ひばりヶ丘町１２番２３号,,34,202,7370901,,,,,,,2022-08-05,1,,,,,ケーズインテリア,0
2023,7240003005701,新規,0,2022-08-05,2022-08-05,合同会社ＭＣＰ,,合同会社,広島県,広島市安佐南区,中須１丁目４０番４－２号,,34,105,7310121,,,,,,,2022-08-05,1,,,,,エムシーピー,0
2024,7250001019702,新規,0,2022-08-05,2022-08-05,株式会社モノリス,,株式会社,山口県,下関市,大字綾羅木４０１番地５,,35,201,7510866,,,,,,,2022-08-05,1,,,,,モノリス,0
2036,7280005007493,新規,0,2022-08-05,2022-08-05,一般社団法人ＲＥＧＩＥ,,その他の設立登記法人,島根県,仁多郡奥出雲町,三沢５０１番地１号,,32,343,6991513,,,,,,,2022-08-05,1,,,,,リジー,0
2043,7290001098445,新規,0,2022-08-05,2022-08-05,株式会社タチカワ,,株式会社,福岡県,筑紫野市,大字永岡９４８番地１,,40,217,8180066,,,,,,,2022-08-05,1,,,,,タチカワ,0
2044,7290001098478,新規,0,2022-08-05,2022-08-05,株式会社森ＫＧ,,株式会社,福岡県,三潴郡大木町,大字前牟田６５９番地,,40,522,8300406,,,,,,,2022-08-05,1,,,,,モリケージー,0
2045,7290001098503,新規,0,2022-08-05,2022-08-05,株式会社ホアクレスト,,株式会社,福岡県,福岡市早良区,小田部３丁目１３番８－１０１号,,40,137,8140032,,,,,,,2022-08-05,1,,,,,ホアクレスト,0
2048,7300001013022,新規,0,2022-08-05,2022-08-05,株式会社Ｃｒａｆｔ　ＯＮ,,株式会社,佐賀県,小城市,小城町晴気１３３９番地３,,41,208,8450014,,,,,,,2022-08-05,1,,,,,クラフトオン,0
2054,7340005009483,新規,0,2022-08-05,2022-08-05,特定非営利活動法人Ｓｏｃｉａｌ　Ｂｕｓｉｎｅｓｓ　Ｌａｂ．コミュニティ桜島,,その他の設立登記法人,鹿児島県,鹿児島市,桜島西道町１８４番地３,,46,201,8911414,,,,,,,2022-08-05,1,,,,,ソーシャルビジネスラボコミュニティサクラジマ,0
2058,7360001030771,新規,0,2022-08-05,2022-08-05,石川解体株式会社,,株式会社,沖縄県,宜野湾市,志真志２丁目２１番２－２０２号当山学生アパ―ト,,47,205,9012213,,,,,,,2022-08-05,1,,,,,イシカワカイタイ,0
2060,7370001048904,新規,0,2022-08-05,2022-08-05,株式会社丸富建設工業,,株式会社,宮城県,伊具郡丸森町,大内字岩城西５０番地２,,04,341,9812501,,,,,,,2022-08-05,1,,,,,マルトミケンセツコウギョウ,0
2067,7390001016990,新規,0,2022-08-05,2022-08-05,株式会社Ｍｏｕｎｔａｉｎ　Ｆｒｉｅｎｄｓ,,株式会社,山形県,飽海郡遊佐町,遊佐字舞鶴８２番地の４,,06,461,9998301,,,,,,,2022-08-05,1,,,,,マウンテンフレンズ,0
2071,7420003002556,新規,0,2022-08-05,2022-08-05,奥津軽社中合同会社,,合同会社,青森県,東津軽郡今別町,大字大川平字熊沢３８,,02,303,0301505,,,,,,,2022-08-05,1,,,,,オクツガルシャチュウ,0
2074,7430001087193,新規,0,2022-08-05,2022-08-05,株式会社ＧＡＢＭ,,株式会社,北海道,札幌市中央区,南二条西７丁目９番地６,,01,101,0600062,,,,,,,2022-08-05,1,,,,,ジーエービーエム,0
2075,7430001087219,新規,0,2022-08-05,2022-08-05,株式会社ハウスサービス,,株式会社,北海道,札幌市東区,北四十六条東７丁目５－２３－３０２,,01,103,0070846,,,,,,,2022-08-05,1,,,,,ハウスサービス,0
2079,7430003014179,新規,0,2022-08-05,2022-08-05,合同会社アレグリア,,合同会社,北海道,札幌市西区,発寒十一条５丁目１番１２号,,01,107,0630831,,,,,,,2022-08-05,1,,,,,アレグリア,0
2085,7460301005091,新規,0,2022-08-05,2022-08-05,株式会社大門,,株式会社,北海道,網走市,潮見１丁目３５７番地の５,,01,211,0930042,,,,,,,2022-08-05,1,,,,,ダイモン,0
2086,7480001011818,新規,0,2022-08-05,2022-08-05,株式会社Ｆｏｒｔｕａ,,株式会社,徳島県,吉野川市,鴨島町内原４５番地３,,36,205,7760003,,,,,,,2022-08-05,1,,,,,フォルトゥーア,0
2099,8010001228598,新規,0,2022-08-05,2022-08-05,株式会社ＤＴＴ,,株式会社,東京都,中央区,日本橋堀留町１丁目２番１号日本色素本社ビル４Ｆ,,13,102,1030012,,,,,,,2022-08-05,1,,,,,ディーティーティー,0
2104,8010003038327,新規,0,2022-08-05,2022-08-05,合同会社マーズテクノロジーズ,,合同会社,東京都,文京区,白山１丁目１８番５号,,13,105,1130001,,,,,,,2022-08-05,1,,,,,マーズテクノロジーズ,0
2110,8010403028209,新規,0,2022-08-05,2022-08-05,合同会社Ｂｌｕｅ　ＨＯ,,合同会社,東京都,港区,南青山２丁目２番１５号,,13,103,1070062,,,,,,,2022-08-05,1,,,,,ブルーホ,0
2114,8010601061630,新規,0,2022-08-05,2022-08-05,株式会社ＬＩＶＥＦＬＩＸ,,株式会社,東京都,墨田区,江東橋４丁目１８番５号４階,,13,107,1300022,,,,,,,2022-08-05,1,,,,,ライブフリックス,0
2118,8010801033181,新規,0,2022-08-05,2022-08-05,株式会社アレキ,,株式会社,東京都,大田区,西糀谷１丁目２９番１号,,13,111,1440034,,,,,,,2022-08-05,1,,,,,アレキ,0
2119,8010901051356,新規,0,2022-08-05,2022-08-05,株式会社Ｔｒｉｃｏｏｌｓ,,株式会社,東京都,世田谷区,玉川１丁目１５番１－２００５号,,13,112,1580094,,,,,,,2022-08-05,1,,,,,トリクールズ,0
2125,8011001149116,新規,0,2022-08-05,2022-08-05,株式会社Ｒｏ４．,,株式会社,東京都,渋谷区,神宮前３丁目１５ー４ｊ－ｈｉｌｌｓｉｄｅ２Ｆ,,13,113,1500001,,,,,,,2022-08-05,1,,,,,ロシピリオド,0
2132,8011201024011,新規,0,2022-08-05,2022-08-05,株式会社ＨＡＮＥ経営,,株式会社,東京都,中野区,沼袋４丁目６－２,,13,114,1650025,,,,,,,2022-08-05,1,,,,,ハネケイエイ,0
2140,8011401024455,新規,0,2022-08-05,2022-08-05,株式会社Ｋｉｔａｎｏ,,株式会社,東京都,板橋区,徳丸５丁目１３番１５号,,13,119,1750083,,,,,,,2022-08-05,1,,,,,キタノ,0
2141,8011501028364,新規,0,2022-08-05,2022-08-05,株式会社ＫＭＴ,,株式会社,東京都,荒川区,東日暮里５丁目２５番３号大和田ビル２０１,,13,118,1160014,,,,,,,2022-08-05,1,,,,,ケイエムティー,0
2150,8012401039501,新規,0,2022-08-05,2022-08-05,株式会社Ｅｎｌｉｇｈｔ,,株式会社,東京都,府中市,府中町１丁目６番地の１,,13,206,1830055,,,,,,,2022-08-05,1,,,,,エンライト,0
2151,8012403005526,新規,0,2022-08-05,2022-08-05,合同会社オフィス山根,,合同会社,東京都,武蔵野市,中町３丁目１７－１５－３０７,,13,203,1800006,,,,,,,2022-08-05,1,,,,,オフィスヤマネ,0
2155,8012801021769,新規,0,2022-08-05,2022-08-05,株式会社鈴木ビル,,株式会社,東京都,立川市,柴崎町３丁目４番１４号ベルトリーサビル,,13,202,1900023,,,,,,,2022-08-05,1,,,,,スズキビル,0
2156,8013101008993,新規,0,2022-08-05,2022-08-05,株式会社ＲＥＩＷＡ,,株式会社,東京都,青梅市,東青梅５丁目１番地の２０,,13,205,1980042,,,,,,,2022-08-05,1,,,,,レイワ,0
2167,8020001147558,新規,0,2022-08-05,2022-08-05,アイディ株式会社,,株式会社,神奈川県,横浜市緑区,三保町２４５３番地サンテラスＭＩＨＯ２０３号,,14,113,2260015,,,,,,,2022-08-05,1,,,,,アイディ,0
2168,8020001147590,新規,0,2022-08-05,2022-08-05,ＩＪＭエンジニアリング株式会社,,株式会社,神奈川県,横浜市南区,永田北２丁目６－８,,14,105,2320071,,,,,,,2022-08-05,1,,,,,アイジェーエムエンジニアリング,0
2169,8020001147599,新規,0,2022-08-05,2022-08-05,株式会社ＮＥＥＤ,,株式会社,神奈川県,横浜市青葉区,荏子田２丁目２番地３,,14,117,2250005,,,,,,,2022-08-05,1,,,,,ニード,0
2170,8020001147608,新規,0,2022-08-05,2022-08-05,株式会社国松建設工業,,株式会社,神奈川県,川崎市川崎区,池田１丁目３番１５－１２０１号,,14,131,2100022,,,,,,,2022-08-05,1,,,,,クニマツケンセツコウギョウ,0
2171,8020001147649,新規,0,2022-08-05,2022-08-05,株式会社ＭＯＤＥＬ,,株式会社,神奈川県,横浜市港南区,大久保２丁目２６番３３号,,14,111,2330007,,,,,,,2022-08-05,1,,,,,モデル,0
2172,8020001147673,新規,0,2022-08-05,2022-08-05,株式会社福州商事,,株式会社,神奈川県,横浜市中区,末広町３丁目８６番地,,14,104,2310046,,,,,,,2022-08-05,1,,,,,フクシュウショウジ,0
2178,8020003022189,新規,0,2022-08-05,2022-08-05,合同会社Ｉホールディングス,,合同会社,神奈川県,横浜市中区,福富町東通３８番地３アントヒルビル２０３,,14,104,2310044,,,,,,,2022-08-05,1,,,,,アイホールディングス,0
2184,8021001076706,新規,0,2022-08-05,2022-08-05,株式会社３６９Ｃａｔｓ．,,株式会社,神奈川県,横須賀市,安浦町２丁目２４番地コーポ米川２０１,,14,201,2380012,,,,,,,2022-08-05,1,,,,,ミロクキャッツ,0
2185,8021001076714,新規,0,2022-08-05,2022-08-05,株式会社エスユーピー,,株式会社,神奈川県,逗子市,桜山１丁目１番１５号,,14,208,2490005,,,,,,,2022-08-05,1,,,,,エスユーピー,0
2187,8021003012015,新規,0,2022-08-05,2022-08-05,ラッキー合同会社,,合同会社,神奈川県,大和市,上和田１０４１番地コーポかつらＡ２０２,,14,213,2420014,,,,,,,2022-08-05,1,,,,,ラッキー,0
2195,8030001149470,新規,0,2022-08-05,2022-08-05,株式会社上田工業,,株式会社,埼玉県,上尾市,弁財１丁目６番１９号,,11,219,3620076,,,,,,,2022-08-05,1,,,,,ウエダコウギョウ,0
2196,8030001149487,新規,0,2022-08-05,2022-08-05,ＳＯＮＧ　ＶＵ　ＧＲＯＵＰ株式会社,,株式会社,埼玉県,東松山市,材木町６－１８ベルメゾン１Ｆ,,11,212,3550016,,,,,,,2022-08-05,1,,,,,ソンヴゥグループ,0
2197,8030001149504,新規,0,2022-08-05,2022-08-05,株式会社リリオロック,,株式会社,埼玉県,久喜市,菖蒲町新堀４８０番地１６,,11,232,3460105,,,,,,,2022-08-05,1,,,,,リリオロック,0
2198,8030001149545,新規,0,2022-08-05,2022-08-05,ｍｉｎａｎｏｋａｍｉ株式会社,,株式会社,埼玉県,川越市,大字鹿飼４９６番６号,,11,201,3500834,,,,,,,2022-08-05,1,,,,,ミナノカミ,0
2199,8030001149553,新規,0,2022-08-05,2022-08-05,株式会社Ｋ．Ｐ．Ｍ,,株式会社,埼玉県,さいたま市大宮区,桜木町４丁目３２１番地,,11,103,3300854,,,,,,,2022-08-05,1,,,,,ケーピーエム,0
2200,8030001149561,新規,0,2022-08-05,2022-08-05,株式会社アジアスタッフ,,株式会社,埼玉県,坂戸市,大字上吉田７３番地１０,,11,239,3500271,,,,,,,2022-08-05,1,,,,,アジアスタッフ,0
2212,8040001124522,新規,0,2022-08-05,2022-08-05,株式会社ジェスキャリア,,株式会社,千葉県,船橋市,前原西２丁目１４番１－１２０８号,,12,204,2740825,,,,,,,2022-08-05,1,,,,,ジェスキャリア,0
2213,8040001124530,新規,0,2022-08-05,2022-08-05,株式会社Ｈ＆Ｏ,,株式会社,千葉県,鎌ケ谷市,東初富５丁目８番４７号,,12,224,2730122,,,,,,,2022-08-05,1,,,,,エイチアンドオー,0
2214,8040001124539,新規,0,2022-08-05,2022-08-05,株式会社善祥,,株式会社,千葉県,船橋市,金杉５丁目２９番２２号,,12,204,2730853,,,,,,,2022-08-05,1,,,,,ゼンショウ,0
2215,8040001124547,新規,0,2022-08-05,2022-08-05,もぐもぐ青虫株式会社,,株式会社,千葉県,八千代市,村上南５丁目８番地６レクセルグランデ勝田台４１７号,,12,221,2760029,,,,,,,2022-08-05,1,,,,,モグモグアオムシ,0
2216,8040001124571,新規,0,2022-08-05,2022-08-05,ＹＭＴ株式会社,,株式会社,千葉県,船橋市,藤原７丁目３８番１２号,,12,204,2730047,,,,,,,2022-08-05,1,,,,,ワイエムティ,0
2218,8040003020546,新規,0,2022-08-05,2022-08-05,合同会社ＲＥＡＬＩＺＥ,,合同会社,千葉県,柏市,柏３丁目６番１５号ＡＴＳビル２階,,12,217,2770005,,,,,,,2022-08-05,1,,,,,リアライズ,0
2219,8040003020554,新規,0,2022-08-05,2022-08-05,合同会社センチュリー,,合同会社,千葉県,八千代市,八千代台東４丁目２４番７号,,12,221,2760032,,,,,,,2022-08-05,1,,,,,センチュリー,0
2220,8040003020579,新規,0,2022-08-05,2022-08-05,ＫＳＫＪすぎもと合同会社,,合同会社,千葉県,市川市,八幡２丁目６番１５号,,12,203,2720021,,,,,,,2022-08-05,1,,,,,ケイエスケイジェイスギモト,0
2221,8040003020595,新規,0,2022-08-05,2022-08-05,ＢＲＩＤＧＥ．合同会社,,合同会社,千葉県,木更津市,真舟５丁目１番２７号,,12,206,2920802,,,,,,,2022-08-05,1,,,,,ブリッジ,0
2225,8050001051501,新規,0,2022-08-05,2022-08-05,株式会社ヤイタオートワークス,,株式会社,茨城県,つくばみらい市,谷井田１５９６番地２,,08,235,3002337,,,,,,,2022-08-05,1,,,,,ヤイタオートワークス,0
2227,8050003006742,新規,0,2022-08-05,2022-08-05,合同会社ＧＬＯＢＡＬＷＡＹ,,合同会社,茨城県,北相馬郡利根町,大字中谷５０３番地１,,08,564,3001615,,,,,,,2022-08-05,1,,,,,グローバルウェイ,0
2228,8050003006750,新規,0,2022-08-05,2022-08-05,ＣＬＯＵＤ　ＥＮＴＥＲＴＡＩＮＭＥＮＴ合同会社,,合同会社,茨城県,つくばみらい市,陽光台１丁目１２番地１３グリーンヒルみらい４０２,,08,235,3002358,,,,,,,2022-08-05,1,,,,,クラウドエンターテイメント,0
2230,8060001035148,新規,0,2022-08-05,2022-08-05,株式会社トベテック,,株式会社,栃木県,大田原市,若草１丁目１３８４番地１,,09,210,3240021,,,,,,,2022-08-05,1,,,,,トベテック,0
2231,8060003004175,新規,0,2022-08-05,2022-08-05,ビーアンドエス合同会社,,合同会社,栃木県,栃木市,境町４番１２号１０１,,09,203,3280043,,,,,,,2022-08-05,1,,,,,ビーアンドエス,0
2238,8070001039511,新規,0,2022-08-05,2022-08-05,Ｎｅｘｔ　Ｄｏｏｒ株式会社,,株式会社,群馬県,館林市,松原２丁目１番３０号,,10,207,3740016,,,,,,,2022-08-05,1,,,,,ネクストドア,0
2244,8100001035589,新規,0,2022-08-05,2022-08-05,やまと興業株式会社,,株式会社,長野県,飯田市,中村７０４番地２,,20,205,3950156,,,,,,,2022-08-05,1,,,,,ヤマトコウギョウ,0
2248,8110001036867,新規,0,2022-08-05,2022-08-05,株式会社太陽技研,,株式会社,新潟県,上越市,大潟区蜘ケ池１７１７番地１５,,15,222,9493117,,,,,,,2022-08-05,1,,,,,タイヨウギケン,0
2262,8120001247901,新規,0,2022-08-05,2022-08-05,株式会社むさし水産,,株式会社,大阪府,大阪市生野区,林寺３丁目７番３７号,,27,116,5440023,,,,,,,2022-08-05,1,,,,,ムサシスイサン,0
2263,8120001247918,新規,0,2022-08-05,2022-08-05,アフリカ株式会社,,株式会社,大阪府,大阪市東淀川区,豊新５丁目１４番１７号第２道山マンション３０５号,,27,114,5330014,,,,,,,2022-08-05,1,,,,,アフリカ,0
2264,8120001247926,新規,0,2022-08-05,2022-08-05,株式会社Ｎ‐Ｈｏｒｉｚｏｎ,,株式会社,大阪府,大阪市西淀川区,花川２丁目２１番１３－９０１号,,27,113,5550023,,,,,,,2022-08-05,1,,,,,エヌホライゾン,0
2265,8120001247991,新規,0,2022-08-05,2022-08-05,株式会社もみの樹,,株式会社,大阪府,大阪市東淀川区,豊里５丁目１番１－２０３号,,27,114,5330013,,,,,,,2022-08-05,1,,,,,モミノキ,0
2266,8120001248008,新規,0,2022-08-05,2022-08-05,株式会社サンスプラウト,,株式会社,大阪府,大阪市北区,梅田１丁目３番１号大阪駅前第１ビル８階５号,,27,127,5300001,,,,,,,2022-08-05,1,,,,,サンスプラウト,0
2267,8120001248016,新規,0,2022-08-05,2022-08-05,株式会社キッド,,株式会社,大阪府,大阪市阿倍野区,北畠１丁目１０番９号,,27,119,5450035,,,,,,,2022-08-05,1,,,,,キッド,0
2269,8120003022212,新規,0,2022-08-05,2022-08-05,せんむすび合同会社,,合同会社,大阪府,大阪市北区,梅田１丁目２番２号大阪駅前第２ビル２階５－６号室,,27,127,5300001,,,,,,,2022-08-05,1,,,,,センムスビ,0
2270,8120005023126,新規,0,2022-08-05,2022-08-05,関西ドローン事業協同組合,,その他の設立登記法人,大阪府,枚方市,岡本町７番１号,,27,210,5730031,,,,,,,2022-08-05,1,,,,,カンサイドローンジギョウ,0
2274,8120101066020,新規,0,2022-08-05,2022-08-05,株式会社西坂商店,,株式会社,大阪府,堺市西区,平岡町３４１番地２,,27,144,5938307,,,,,,,2022-08-05,1,,,,,ニシサカショウテン,0
2275,8120101066029,新規,0,2022-08-05,2022-08-05,株式会社池上環境建廃,,株式会社,大阪府,堺市北区,北花田町２丁４番地１（１００３号）,,27,146,5918002,,,,,,,2022-08-05,1,,,,,イケガミカンキョウケンバイ,0
2287,8130001072357,新規,0,2022-08-05,2022-08-05,株式会社インクルーシブ,,株式会社,京都府,京都市中京区,天神山町２８０番地５Ｆ－０６,,26,104,6048221,,,,,,,2022-08-05,1,,,,,インクルーシブ,0
2297,8140001126962,新規,0,2022-08-05,2022-08-05,株式会社くぼなか,,株式会社,兵庫県,明石市,松江３７３番地の１,,28,203,6730036,,,,,,,2022-08-05,1,,,,,クボナカ,0
2298,8140001127011,新規,0,2022-08-05,2022-08-05,シュレーダー商会株式会社,,株式会社,兵庫県,加古川市,加古川町友沢２３５番地の５,,28,210,6750035,,,,,,,2022-08-05,1,,,,,シュレーダーショウカイ,0
2308,8180001152435,新規,0,2022-08-05,2022-08-05,アイエヌジー株式会社,,株式会社,愛知県,北名古屋市,熊之庄石原８３番地２,,23,234,4810006,,,,,,,2022-08-05,1,,,,,アイエヌジー,0
2314,8180301036511,新規,0,2022-08-05,2022-08-05,株式会社ＡＰＯＬＬＯ,,株式会社,愛知県,豊田市,若林東町中外根６５番地１、１５－４０１号,,23,211,4730915,,,,,,,2022-08-05,1,,,,,アポロ,0
2316,8180305009372,新規,0,2022-08-05,2022-08-05,税理士法人ライト,,その他の設立登記法人,愛知県,豊橋市,天伯町字中里８２番地の１,,23,201,4418122,,,,,,,2022-08-05,1,,,,,ライト,0
2320,8190001029673,新規,0,2022-08-05,2022-08-05,株式会社広芝,,株式会社,三重県,名張市,希央台１番町４７番地,,24,208,5180771,,,,,,,2022-08-05,1,,,,,ヒロシバ,0
2323,8190003004055,新規,0,2022-08-05,2022-08-05,合同会社桃源,,合同会社,三重県,員弁郡東員町,大字大木２６４８番地２,,24,324,5110244,,,,,,,2022-08-05,1,,,,,トウゲン,0
2326,8200003005638,新規,0,2022-08-05,2022-08-05,合同会社ＳＫＫ,,合同会社,岐阜県,中津川市,千旦林１５４０番地の１,,21,206,5099131,,,,,,,2022-08-05,1,,,,,エスケイケイ,0
2327,8220003003326,新規,0,2022-08-05,2022-08-05,合同会社エヌドット,,合同会社,石川県,金沢市,窪６丁目２４５番１トレンディ伏見台４０６,,17,201,9218151,,,,,,,2022-08-05,1,,,,,エヌドット,0
2335,8250001019701,新規,0,2022-08-05,2022-08-05,岡本工業株式会社,,株式会社,山口県,岩国市,旭町３丁目１１番２７号,,35,208,7400024,,,,,,,2022-08-05,1,,,,,オカモトコウギョウ,0
2336,8250003003125,新規,0,2022-08-05,2022-08-05,合同会社ＢＬＯＷ,,合同会社,山口県,下関市,形山町４番２６号,,35,201,7510888,,,,,,,2022-08-05,1,,,,,ブロー,0
2344,8280003001638,新規,0,2022-08-05,2022-08-05,合同会社フォトエミー,,合同会社,島根県,出雲市,塩冶町９５７番地５,,32,203,6930021,,,,,,,2022-08-05,1,,,,,フォトエミー,0
2346,8290001098493,新規,0,2022-08-05,2022-08-05,株式会社山下総業,,株式会社,福岡県,大野城市,筒井２丁目９番９号クレッセント９　２０１号,,40,219,8160931,,,,,,,2022-08-05,1,,,,,ヤマシタソウギョウ,0
2347,8290001098502,新規,0,2022-08-05,2022-08-05,株式会社Ｎｏ．８３,,株式会社,福岡県,久留米市,大石町２０８番地,,40,203,8300049,,,,,,,2022-08-05,1,,,,,ナンバーハチサン,0
2348,8290003012808,新規,0,2022-08-05,2022-08-05,合同会社ＡＣＷ研究所,,合同会社,福岡県,福岡市南区,若久６丁目２５番８号,,40,134,8150042,,,,,,,2022-08-05,1,,,,,エーシーダブリューケンキュウジョ,0
2358,8330001029989,新規,0,2022-08-05,2022-08-05,株式会社熊本電算システム,,株式会社,熊本県,菊池郡大津町,大字室２番地１,,43,403,8691235,,,,,,,2022-08-05,1,,,,,クマモトデンサンシステム,0
2359,8330001030006,新規,0,2022-08-05,2022-08-05,ユー株式会社,,株式会社,熊本県,熊本市北区,植木町大和６９－１,,43,105,8610143,,,,,,,2022-08-05,1,,,,,ユー,0
2360,8330003009477,新規,0,2022-08-05,2022-08-05,合同会社ハイク,,合同会社,熊本県,熊本市中央区,草葉町１－３９ＡＩｍａｌｌ２Ｆ,,43,101,8600843,,,,,,,2022-08-05,1,,,,,ハイク,0
2369,8360003012222,新規,0,2022-08-05,2022-08-05,合同会社Ａｌｌｒｉｇｈｔ,,合同会社,沖縄県,豊見城市,字豊崎１番地４４２,,47,212,9010225,,,,,,,2022-08-05,1,,,,,オールライト,0
2378,8370001048886,新規,0,2022-08-05,2022-08-05,株式会社ＲＥＳＴＡＲ,,株式会社,宮城県,仙台市青葉区,花京院１丁目２番１５号ソララプラザ３階,,04,101,9800013,,,,,,,2022-08-05,1,,,,,レスター,0
2385,8380001033029,新規,0,2022-08-05,2022-08-05,ミライ・コンサルタント株式会社,,株式会社,福島県,郡山市,富久山町久保田字石堂１番地の１,,07,203,9638071,,,,,,,2022-08-05,1,,,,,ミライコンサルタント,0
2387,8380005012607,新規,0,2022-08-05,2022-08-05,一般社団法人ｔｓｕｎａｇａｒｉ,,その他の設立登記法人,福島県,須賀川市,影沼町１２０番地２,,07,207,9620031,,,,,,,2022-08-05,1,,,,,ツナガリ,0
2413,8450001013766,新規,0,2022-08-05,2022-08-05,株式会社木下種苗,,株式会社,北海道,空知郡中富良野町,新町７番１２号,,01,461,0710754,,,,,,,2022-08-05,1,,,,,キノシタシュビョウ,0
2414,8460301005090,新規,0,2022-08-05,2022-08-05,株式会社ワーキングシェア,,株式会社,北海道,紋別郡湧別町,東９４１番地の４,,01,559,0996411,,,,,,,2022-08-05,1,,,,,ワーキングシェア,0
2415,8470001019200,新規,0,2022-08-05,2022-08-05,株式会社インサクセス,,株式会社,香川県,高松市,古新町１０番地３砂屋ビル４０３,,37,201,7600025,,,,,,,2022-08-05,1,,,,,インサクセス,0
2421,8480001011809,新規,0,2022-08-05,2022-08-05,株式会社Ｔｅａ．Ｍ,,株式会社,徳島県,美馬市,穴吹町穴吹字藤原１１番地１,,36,207,7770005,,,,,,,2022-08-05,1,,,,,ティーム,0
2423,8490001010248,新規,0,2022-08-05,2022-08-05,株式会社ＣＩＮＩＴＹ,,株式会社,高知県,高知市,大原町８８番地５,,39,201,7808031,,,,,,,2022-08-05,1,,,,,シニティ,0
2427,8500003002869,新規,0,2022-08-05,2022-08-05,合同会社あべ会計,,合同会社,愛媛県,松山市,平和通５丁目１―７,,38,201,7900807,,,,,,,2022-08-05,1,,,,,アベカイケイ,0
2439,9010001228515,新規,0,2022-08-05,2022-08-05,盛世通商株式会社,,株式会社,東京都,中央区,日本橋３丁目２番１４号,,13,102,1030027,,,,,,,2022-08-05,1,,,,,モリヨツウショウ,0
2440,9010001228589,新規,0,2022-08-05,2022-08-05,ＤｉｇＰｏｗｅｒ株式会社,,株式会社,東京都,千代田区,九段北１丁目１２番２号レオ九段４０２号,,13,101,1020073,,,,,,,2022-08-05,1,,,,,ディグパワー,0
2441,9010001228597,新規,0,2022-08-05,2022-08-05,東成マリン株式会社,,株式会社,東京都,中央区,晴海１丁目８番１２号,,13,102,1040053,,,,,,,2022-08-05,1,,,,,トウセイマリン,0
2456,9010401168906,新規,0,2022-08-05,2022-08-05,ＡＳＨ株式会社,,株式会社,東京都,港区,赤坂１丁目１番１７号細川ビル８１１,,13,103,1070052,,,,,,,2022-08-05,1,,,,,アッシュ,0
2457,9010401168914,新規,0,2022-08-05,2022-08-05,株式会社かなけん,,株式会社,東京都,港区,港南２丁目１６番１号品川イーストワンタワー４階,,13,103,1080075,,,,,,,2022-08-05,1,,,,,カナケン,0
2458,9010401168955,新規,0,2022-08-05,2022-08-05,株式会社Ｓｉｍｐｌｅｅ,,株式会社,東京都,港区,赤坂１丁目１２－３２アーク森ビル３Ｆ,,13,103,1070052,,,,,,,2022-08-05,1,,,,,シンプリー,0
2462,9010403028026,新規,0,2022-08-05,2022-08-05,合同会社Ｌｅｐｓｅｙ,,合同会社,東京都,港区,南青山２丁目２番１５号,,13,103,1070062,,,,,,,2022-08-05,1,,,,,レプシー,0
2463,9010403028109,新規,0,2022-08-05,2022-08-05,ｎａｔｕｒｕｓ合同会社,,合同会社,東京都,港区,南青山２丁目２番１５号,,13,103,1070062,,,,,,,2022-08-05,1,,,,,ナチュラス,0
2464,9010403028182,新規,0,2022-08-05,2022-08-05,Ｃｏ‐Ｅｖｏｌｕｔｉｏｎ　Ｎｅｔｗｏｒｋ合同会社,,合同会社,東京都,港区,芝公園３丁目５－８機械振興会館Ｂ１０７－２－１号,,13,103,1050011,,,,,,,2022-08-05,1,,,,,コーエボリューションネットワーク,0
2465,9010403028190,新規,0,2022-08-05,2022-08-05,Ｍｏｎ　Ｓａｎ　Ａｕｔｈｏｒｓ合同会社,,合同会社,東京都,港区,南青山２丁目２番１５号,,13,103,1070062,,,,,,,2022-08-05,1,,,,,モンサンオーサーズ,0
2466,9010403028208,新規,0,2022-08-05,2022-08-05,合同会社ＮＢＣ,,合同会社,東京都,港区,南青山２丁目４番１５－Ｓ３１５,,13,103,1070062,,,,,,,2022-08-05,1,,,,,エヌビーシー,0
2469,9010501049196,新規,0,2022-08-05,2022-08-05,斌斌娃株式会社,,株式会社,東京都,台東区,北上野２丁目２５番９号－５０５号室,,13,106,1100014,,,,,,,2022-08-05,1,,,,,ヒンヒンワ,0
2473,9010603009668,新規,0,2022-08-05,2022-08-05,合同会社葡萄の蔓,,合同会社,東京都,江東区,東陽５丁目３２番４号,,13,108,1350016,,,,,,,2022-08-05,1,,,,,ブドウノツル,0
2474,9010603009676,新規,0,2022-08-05,2022-08-05,Ｒ誠信エステート合同会社,,合同会社,東京都,江東区,有明１丁目４番２０－８２６号,,13,108,1350063,,,,,,,2022-08-05,1,,,,,アールジョウシンエステート,0
2493,9011003015109,新規,0,2022-08-05,2022-08-05,合同会社ＫＳ,,合同会社,東京都,目黒区,三田１丁目１１番１１－４０４号プライムアーバン恵比寿,,13,110,1530062,,,,,,,2022-08-05,1,,,,,ケーエス,0
2501,9011401024454,新規,0,2022-08-05,2022-08-05,株式会社セイワークス,,株式会社,東京都,板橋区,赤塚６丁目１５番１６号,,13,119,1750092,,,,,,,2022-08-05,1,,,,,セイワークス,0
2504,9011501028248,新規,0,2022-08-05,2022-08-05,株式会社福融ＥＣ,,株式会社,東京都,荒川区,西日暮里５丁目１番１７号,,13,118,1160013,,,,,,,2022-08-05,1,,,,,フクユウイーシー,0
2510,9011801041099,新規,0,2022-08-05,2022-08-05,株式会社４６,,株式会社,東京都,葛飾区,亀有５丁目１９番７号,,13,122,1250061,,,,,,,2022-08-05,1,,,,,ヨンロク,0
2514,9012401039509,新規,0,2022-08-05,2022-08-05,株式会社カスミ,,株式会社,東京都,多摩市,連光寺２丁目９番地の２８,,13,224,2060021,,,,,,,2022-08-05,1,,,,,カスミ,0
2526,9013303006258,新規,0,2022-08-05,2022-08-05,パール＆カンパニー合同会社,,合同会社,東京都,豊島区,西池袋３丁目２１－１３ウエストパークタワー１１０７号室,,13,116,1710021,,,,,,,2022-08-05,1,,,,,,0
2528,9013305003369,新規,0,2022-08-05,2022-08-05,一般財団法人ふるさと創造センター,,その他の設立登記法人,東京都,豊島区,巣鴨２丁目１１番４号,,13,116,1700002,,,,,,,2022-08-05,1,,,,,フルサトソウゾウセンター,0
2531,9020001147598,新規,0,2022-08-05,2022-08-05,メイクワン株式会社,,株式会社,神奈川県,横浜市保土ケ谷区,初音ケ丘３８番２１号,,14,106,2400016,,,,,,,2022-08-05,1,,,,,メイクワン,0
2532,9020001147615,新規,0,2022-08-05,2022-08-05,株式会社ラリトプル,,株式会社,神奈川県,横浜市旭区,中希望が丘９４番地４１,,14,112,2410825,,,,,,,2022-08-05,1,,,,,ラリトプル,0
2533,9020001147623,新規,0,2022-08-05,2022-08-05,株式会社２２０,,株式会社,神奈川県,川崎市中原区,新城１丁目２番２７号新城京浜ビル１００３号,,14,133,2110044,,,,,,,2022-08-05,1,,,,,ニイニイマル,0
2534,9020001147631,新規,0,2022-08-05,2022-08-05,亀井建設株式会社,,株式会社,神奈川県,横浜市瀬谷区,本郷２丁目２番地２１守屋ハイツ１０３,,14,114,2460015,,,,,,,2022-08-05,1,,,,,カメイケンセツ,0
2538,9020003022188,新規,0,2022-08-05,2022-08-05,合同会社現生,,合同会社,神奈川県,横浜市南区,大岡１丁目１５－１９ユナイト弘明寺モディリアーニ,,14,105,2320061,,,,,,,2022-08-05,1,,,,,ゲンナマ,0
2551,9030001149445,新規,0,2022-08-05,2022-08-05,株式会社コーエン,,株式会社,埼玉県,草加市,新栄１丁目５番地１３,,11,221,3400056,,,,,,,2022-08-05,1,,,,,コーエン,0
2552,9030001149486,新規,0,2022-08-05,2022-08-05,福源株式会社,,株式会社,埼玉県,川口市,芝富士１丁目１２番２６号,,11,203,3330854,,,,,,,2022-08-05,1,,,,,フクゲン,0
2553,9030001149494,新規,0,2022-08-05,2022-08-05,株式会社Ｔｙｐｅ‐Ｍ,,株式会社,埼玉県,久喜市,久喜東４丁目１６番１号,,11,232,3460016,,,,,,,2022-08-05,1,,,,,タイプエム,0
2554,9030001149511,新規,0,2022-08-05,2022-08-05,武内商会株式会社,,株式会社,埼玉県,川口市,前上町３２－３３,,11,203,3330843,,,,,,,2022-08-05,1,,,,,タケウチショウカイ,0
2555,9030001149544,新規,0,2022-08-05,2022-08-05,株式会社エステート・リーリオ,,株式会社,埼玉県,さいたま市浦和区,木崎１丁目１番２７号,,11,107,3300042,,,,,,,2022-08-05,1,,,,,エステートリーリオ,0
2556,9030001149560,新規,0,2022-08-05,2022-08-05,株式会社小澤建設,,株式会社,埼玉県,さいたま市岩槻区,南平野２丁目１８－２５,,11,110,3390051,,,,,,,2022-08-05,1,,,,,オザワケンセツ,0
2559,9030003019910,新規,0,2022-08-05,2022-08-05,アイエフアセット合同会社,,合同会社,埼玉県,春日部市,豊野町２丁目１９番地１,,11,214,3440014,,,,,,,2022-08-05,1,,,,,アイエフアセット,0
2560,9030003019919,新規,0,2022-08-05,2022-08-05,ギルドフォース合同会社,,合同会社,埼玉県,行田市,藤原町３丁目９番地３,,11,206,3610016,,,,,,,2022-08-05,1,,,,,ギルドフォース,0
2565,9040001124521,新規,0,2022-08-05,2022-08-05,株式会社成栄住設,,株式会社,千葉県,八千代市,村上南１丁目１０番地２,,12,221,2760029,,,,,,,2022-08-05,1,,,,,セイエイジュウセツ,0
2566,9040001124538,新規,0,2022-08-05,2022-08-05,株式会社ＳＲＡＺ　Ｃｏ．,,株式会社,千葉県,木更津市,岩根３丁目６番１５号ベル２０１,,12,206,2920061,,,,,,,2022-08-05,1,,,,,スレイジーカンパニー,0
2567,9040001124546,新規,0,2022-08-05,2022-08-05,株式会社エハシファーム,,株式会社,千葉県,旭市,高生１１６６番地,,12,215,2892604,,,,,,,2022-08-05,1,,,,,エハシファーム,0
2568,9040001124562,新規,0,2022-08-05,2022-08-05,株式会社ケーズコランダム,,株式会社,千葉県,浦安市,弁天１丁目１１番２号,,12,227,2790026,,,,,,,2022-08-05,1,,,,,ケーズコランダム,0
2569,9040001124570,新規,0,2022-08-05,2022-08-05,株式会社ＯＭＩＦ,,株式会社,千葉県,山武市,松尾町大堤３１８番地,,12,237,2891527,,,,,,,2022-08-05,1,,,,,オミフ,0
2570,9040001124579,新規,0,2022-08-05,2022-08-05,株式会社三越マルシエ,,株式会社,千葉県,浦安市,当代島２丁目１番１号ＭＣビルディング,,12,227,2790001,,,,,,,2022-08-05,1,,,,,ミツコシマルシエ,0
2571,9040001124587,新規,0,2022-08-05,2022-08-05,株式会社クリーン,,株式会社,千葉県,君津市,末吉３５番地４,,12,225,2920451,,,,,,,2022-08-05,1,,,,,クリーン,0
2574,9040003020545,新規,0,2022-08-05,2022-08-05,合同会社ｔａｔｏｅ,,合同会社,千葉県,市川市,日之出２２番１－１２９号,,12,203,2720135,,,,,,,2022-08-05,1,,,,,タトエ,0
2575,9040003020578,新規,0,2022-08-05,2022-08-05,ＡＭＵＳＥＭＥＮＴ　ＡＧＥＮＴ合同会社,,合同会社,千葉県,千葉市稲毛区,小深町９０番地２４５,,12,103,2630003,,,,,,,2022-08-05,1,,,,,アミューズメントエージェント,0
2580,9050001051491,新規,0,2022-08-05,2022-08-05,株式会社エム・スタイル,,株式会社,茨城県,つくば市,二の宮２丁目５番地１吉春ビルＩＩＩ４０３,00127441,08,220,3050051,,,,,,,2022-08-05,1,,,,,エムスタイル,0
2581,9050001051500,新規,0,2022-08-05,2022-08-05,株式会社ＬＯＨ,,株式会社,茨城県,龍ケ崎市,小通幸谷町２０１番地３,,08,208,3010034,,,,,,,2022-08-05,1,,,,,エルオーエイチ,0
2584,9060001035155,新規,0,2022-08-05,2022-08-05,Ｗｈｉｔｅ　Ｈａｒｔ株式会社,,株式会社,栃木県,那須郡那須町,大字高久乙３３６９番地５８７,,09,407,3250303,,,,,,,2022-08-05,1,,,,,ホワイトハート,0
2591,9070001039477,新規,0,2022-08-05,2022-08-05,株式会社ＧＹＭｗｏｒｋｓ,,株式会社,群馬県,高崎市,栄町３－１１,,10,202,3700841,,,,,,,2022-08-05,1,,,,,ジムワークス,0
2592,9070001039502,新規,0,2022-08-05,2022-08-05,クロスレッカーサービス株式会社,,株式会社,群馬県,吾妻郡東吾妻町,大字箱島１１８９番地２,,10,429,3770301,,,,,,,2022-08-05,1,,,,,クロスレッカーサービス,0
2593,9070001039519,新規,0,2022-08-05,2022-08-05,株式会社リープ,,株式会社,群馬県,伊勢崎市,赤堀今井町２丁目１３２７番地１,,10,204,3792215,,,,,,,2022-08-05,1,,,,,リープ,0
2603,9120001247702,新規,0,2022-08-05,2022-08-05,鴻図株式会社,,株式会社,大阪府,大阪市天王寺区,生玉町１１番２９号－４０２号,,27,109,5430071,,,,,,,2022-08-05,1,,,,,コウト,0
2604,9120001247875,新規,0,2022-08-05,2022-08-05,ＮＥＷ　ＴＨＩＮＫＩＮＧ株式会社,,株式会社,大阪府,大阪市生野区,新今里３丁目４番１７号シャトー第４今里２１０Ａ,,27,116,5440001,,,,,,,2022-08-05,1,,,,,ニューシンキング,0
2605,9120001247909,新規,0,2022-08-05,2022-08-05,株式会社Ｂｏｒｎ＆Ｂｏｎｅ,,株式会社,大阪府,大阪市北区,中津３丁目２４番３－３２１号,,27,127,5310071,,,,,,,2022-08-05,1,,,,,ボーンアンドボーン,0
2606,9120001247917,新規,0,2022-08-05,2022-08-05,株式会社Ｒｅｙｅｌｌ　Ｐａｒｋ,,株式会社,大阪府,門真市,新橋町３番３号門真プラザ２０６,,27,223,5710048,,,,,,,2022-08-05,1,,,,,リエールパーク,0
2607,9120001247925,新規,0,2022-08-05,2022-08-05,株式会社ナル,,株式会社,大阪府,大阪市旭区,高殿３丁目３番５号,,27,117,5350031,,,,,,,2022-08-05,1,,,,,ナル,0
2608,9120001247958,新規,0,2022-08-05,2022-08-05,株式会社エムケー加工,,株式会社,大阪府,大阪市阿倍野区,阿倍野筋１丁目７番２０－２３０３号,,27,119,5450052,,,,,,,2022-08-05,1,,,,,エムケーカコウ,0
2611,9120003022211,新規,0,2022-08-05,2022-08-05,合同会社プロステージ,,合同会社,大阪府,大阪市天王寺区,烏ケ辻１丁目１番１９－２０２号,00127433,27,109,5430042,,,,,,,2022-08-05,1,,,,,プロステージ,0
2613,9120101066028,新規,0,2022-08-05,2022-08-05,株式会社サンパール,,株式会社,大阪府,和泉市,伯太町６丁目１０番５号,,27,219,5940023,,,,,,,2022-08-05,1,,,,,サンパール,0
2623,9130003008102,新規,0,2022-08-05,2022-08-05,合同会社璃と瑠,,合同会社,京都府,京都市山科区,上花山桜谷１－２パデシオン山科夢ケ丘４２７,,26,110,6078466,,,,,,,2022-08-05,1,,,,,リトル,0
2624,9130003008110,新規,0,2022-08-05,2022-08-05,合同会社結,,合同会社,京都府,京都市伏見区,竹田東小屋ノ内町９９番地５,,26,109,6128448,,,,,,,2022-08-05,1,,,,,ムスビ,0
2633,9140005026274,新規,0,2022-08-05,2022-08-05,税理士法人中西会計事務所,,その他の設立登記法人,兵庫県,姫路市,若菜町２丁目２５番地,,28,201,6700941,,,,,,,2022-08-05,1,,,,,ナカニシカイケイジムショ,0
2634,9160001024429,新規,0,2022-08-05,2022-08-05,株式会社Ａｗａｋｅ,,株式会社,滋賀県,長浜市,三田町１３６７番地８１,,25,203,5260242,,,,,,,2022-08-05,1,,,,,アウェイク,0
2645,9180001152475,新規,0,2022-08-05,2022-08-05,株式会社アステリア,,株式会社,愛知県,名古屋市北区,猿投町２３番地,,23,103,4620852,,,,,,,2022-08-05,1,,,,,アステリア,0
2646,9180001152483,新規,0,2022-08-05,2022-08-05,株式会社ＩＯ　ＴＥＣ,,株式会社,愛知県,名古屋市昭和区,塩付通６丁目４５－１,,23,107,4660022,,,,,,,2022-08-05,1,,,,,アイオーテック,0
2649,9180301036510,新規,0,2022-08-05,2022-08-05,植田屋ＩＴソリューション株式会社,,株式会社,愛知県,豊橋市,山田一番町１２０番地,,23,201,4418102,,,,,,,2022-08-05,1,,,,,ウエタヤアイティーソリューション,0
2651,9190003004054,新規,0,2022-08-05,2022-08-05,フジイコネクト合同会社,,合同会社,三重県,四日市市,羽津町２２番３０号,,24,202,5100017,,,,,,,2022-08-05,1,,,,,フジイコネクト,0
2652,9200003005637,新規,0,2022-08-05,2022-08-05,ＷＡＭＯＸ合同会社,,合同会社,岐阜県,揖斐郡池田町,六之井１６２９番地の１,,21,404,5032425,,,,,,,2022-08-05,1,,,,,ワモックス,0
2657,9230003001897,新規,0,2022-08-05,2022-08-05,ＦＩＴＨ合同会社,,合同会社,富山県,南砺市,土生新９７２番地,,16,210,9391756,,,,,,,2022-08-05,1,,,,,フィス,0
2665,9290001098476,新規,0,2022-08-05,2022-08-05,ＦＫ　Ｐｒｅｓｉｄｅ株式会社,,株式会社,福岡県,福岡市西区,野方４丁目２５番１号,,40,135,8190043,,,,,,,2022-08-05,1,,,,,エフケイプレサイド,0
2670,9290003012807,新規,0,2022-08-05,2022-08-05,合同会社ＯＮ　ＰＯＩＮＴ,,合同会社,福岡県,福岡市西区,戸切１丁目１番１７号,,40,135,8190032,,,,,,,2022-08-05,1,,,,,オンポイント,0
2675,9330001030005,新規,0,2022-08-05,2022-08-05,わいた第２地熱発電株式会社,,株式会社,熊本県,阿蘇郡小国町,大字宮原２３２２番１号,,43,424,8692501,,,,,,,2022-08-05,1,,,,,ワイタダイニチネツハツデン,0
2680,9340001024947,新規,0,2022-08-05,2022-08-05,重田一建設株式会社,,株式会社,鹿児島県,西之表市,西町６７番地南海マンション２０５号,,46,213,8913111,,,,,,,2022-08-05,1,,,,,シゲタハジメケンセツ,0
2683,9340003003874,新規,0,2022-08-05,2022-08-05,合同会社ママカラＢ,,合同会社,鹿児島県,霧島市,溝辺町麓３６８番地４,,46,218,8996404,,,,,,,2022-08-05,1,,,,,ママカラビー,0
2688,9360001030761,新規,0,2022-08-05,2022-08-05,チームＡ株式会社,,株式会社,沖縄県,那覇市,久茂地１丁目１番１号９階,,47,201,9000015,,,,,,,2022-08-05,1,,,,,チームエー,0
2699,9380003005256,新規,0,2022-08-05,2022-08-05,合同会社アルト,,合同会社,福島県,いわき市,自由ケ丘５１番地の１,,07,204,9708033,,,,,,,2022-08-05,1,,,,,アルト,0
2701,9390001016980,新規,0,2022-08-05,2022-08-05,株式会社河島屋,,株式会社,山形県,村山市,大字河島甲８２２番地,,06,208,9950041,,,,,,,2022-08-05,1,,,,,カワシマヤ,0
2702,9420001017959,新規,0,2022-08-05,2022-08-05,株式会社ａｔデンタルラボ,,株式会社,青森県,八戸市,長苗代３丁目２番８号,,02,203,0391103,,,,,,,2022-08-05,1,,,,,エーティーデンタルラボ,0
2710,9430001087209,新規,0,2022-08-05,2022-08-05,株式会社ピリアピリカ,,株式会社,北海道,室蘭市,柏木町１２番６号,,01,205,0500064,,,,,,,2022-08-05,1,,,,,ピリアピリカ,0
2711,9430001087233,新規,0,2022-08-05,2022-08-05,株式会社Ｍａｒｂｌｅ　Ｗｏｒｋ,,株式会社,北海道,札幌市東区,東苗穂二条３丁目３番４３号札苗ビル２階,,01,103,0070802,,,,,,,2022-08-05,1,,,,,マーブルワーク,0
2718,9470005006458,新規,0,2022-08-05,2022-08-05,二川上枝大前税理士法人,,その他の設立登記法人,香川県,高松市,中央町１４番１６号,,37,201,7600007,,,,,,,2022-08-05,1,,,,,フタガワウエエダオオマエ,0
2720,9480005006911,新規,0,2022-08-05,2022-08-05,一般社団法人ＪＣＩアクセシビリティ協会,,その他の設立登記法人,徳島県,鳴門市,大麻町池谷字浜田９６番地１,,36,202,7790303,,,,,,,2022-08-05,1,,,,,ジェイシーアイアクセシビリティキョウカイ,0
