sequenceNumber,corporateNumber,process,correct,updateDate,changeDate,name,nameImageId,kind,prefectureName,cityName,streetNumber,addressImageId,prefectureCode,cityCode,postCode,addressOutside,addressOutsideImageId,closeDate,closeCause,successorCorporateNumber,changeCause,assignmentDate,latest,enName,enPrefectureName,enCityName,enAddressOutside,furigana,hihyoji
11,1010001249378,新規,0,2024-10-28,2024-10-28,株式会社Ｎｏｔ　ＴｒａｄｉｔｉｏｎａＬ,,株式会社,東京都,千代田区,神田須田町１丁目７番８号ＶＯＲＴ秋葉原４－２Ｆ,,13,101,1010041,,,,,,,2024-10-28,1,,,,,ノットトラディショナル,0
12,1010001249394,新規,0,2024-10-28,2024-10-28,株式会社スプリング,,株式会社,東京都,千代田区,平河町１丁目６番１５号ＵＳビル８階,,13,101,1020093,,,,,,,2024-10-28,1,,,,,スプリング,0
18,1010101016380,新規,0,2024-10-28,2024-10-28,Ｆｕｌｌ　Ｒｉｎｇ株式会社,,株式会社,東京都,八王子市,大塚６４３番１４号,,13,201,1920352,,,,,,,2024-10-28,1,,,,,フルリング,0
19,1010105002311,新規,0,2024-10-28,2024-10-28,一般社団法人おおるり,,その他の設立登記法人,東京都,八王子市,明神町４丁目１４番１－３０３号,,13,201,1920046,,,,,,,2024-10-28,1,,,,,オオルリ,0
27,1010401186023,新規,0,2024-10-28,2024-10-28,株式会社Ｐ＆Ｐ,,株式会社,東京都,港区,海岸２丁目５番１号ローレルタワールネ浜松町２００１号室,,13,103,1050022,,,,,,,2024-10-28,1,,,,,ピーアンドピー,0
28,1010401186056,新規,0,2024-10-28,2024-10-28,Ｏｃｔ　Ｓｙｓｔｅｍｓ株式会社,,株式会社,東京都,港区,南麻布４丁目１１番３５‐５２３号,,13,103,1060047,,,,,,,2024-10-28,1,,,,,オクトシステムズ,0
32,1010501053081,新規,0,2024-10-28,2024-10-28,株式会社タムソフトホールディングス,,株式会社,東京都,台東区,浅草１丁目１０番２号ＹＳ－１ビル,,13,106,1110032,,,,,,,2024-10-28,1,,,,,タムソフトホールディングス,0
35,1010601066173,新規,0,2024-10-28,2024-10-28,株式会社ヨネペン,,株式会社,東京都,墨田区,東墨田３丁目１８番１１号,,13,107,1310042,,,,,,,2024-10-28,1,,,,,ヨネペン,0
41,1010801035515,新規,0,2024-10-28,2024-10-28,株式会社Ｓｏｐｈｉａ,,株式会社,東京都,大田区,池上６丁目２７番５－４０２号,,13,111,1460082,,,,,,,2024-10-28,1,,,,,ソフィア,0
44,1010903009441,新規,0,2024-10-28,2024-10-28,レヤベンチャーズ合同会社,,合同会社,東京都,世田谷区,深沢５丁目２４番１４号－１２,,13,112,1580081,,,,,,,2024-10-28,1,,,,,レヤベンチャーズ,0
49,1011001165458,新規,0,2024-10-28,2024-10-28,株式会社住宅ブランドコンサルティング,,株式会社,東京都,渋谷区,桜丘町２６番１号セルリアンタワー１５階,,13,113,1500031,,,,,,,2024-10-28,1,,,,,ジュウタクブランドコンサルティング,0
53,1011101109257,新規,0,2024-10-28,2024-10-28,３１５０太陽株式会社,,株式会社,東京都,新宿区,西新宿８丁目３番３０号カーメルＩＩ３階,00136779,13,104,1600023,,,,,,,2024-10-28,1,,,,,サイコータイヨウ,0
55,1011103015123,新規,0,2024-10-28,2024-10-28,バルザック５合同会社,,合同会社,東京都,新宿区,四谷４丁目３２番８号ＹＫＢサニービル６階,,13,104,1600004,,,,,,,2024-10-28,1,,,,,バルザックファイブ,0
56,1011103015131,新規,0,2024-10-28,2024-10-28,合同会社エヌ・グランデ,,合同会社,東京都,新宿区,北新宿４丁目３２番７号ＧｒａｎｄｅＫｉｔａｓｈｉｎｊｕｋｕ１０３,,13,104,1690074,,,,,,,2024-10-28,1,,,,,エヌグランデ,0
68,1011401026540,新規,0,2024-10-28,2024-10-28,株式会社ミュウ,,株式会社,東京都,板橋区,前野町２丁目４３番５号,,13,119,1740063,,,,,,,2024-10-28,1,,,,,ミュウ,0
69,1011603004492,新規,0,2024-10-28,2024-10-28,合同会社燈台,,合同会社,東京都,練馬区,関町南３丁目２１番１号,,13,120,1770053,,,,,,,2024-10-28,1,,,,,トウダイ,0
70,1011701027759,新規,0,2024-10-28,2024-10-28,ＡＬＩＸ株式会社,,株式会社,東京都,江戸川区,大杉２丁目４番１０号,,13,123,1320022,,,,,,,2024-10-28,1,,,,,アリックス,0
71,1011703004021,新規,0,2024-10-28,2024-10-28,ＨＹ合同会社,,合同会社,東京都,江戸川区,南小岩７丁目３０番１２東名観光ビル１０２号,,13,123,1330056,,,,,,,2024-10-28,1,,,,,エイチワイ,0
73,1012701018517,新規,0,2024-10-28,2024-10-28,ネビュラ株式会社,,株式会社,東京都,西東京市,緑町３丁目５番１５号センチュリー田無４０３,,13,229,1880002,,,,,,,2024-10-28,1,,,,,ネビュラ,0
93,1020001159808,新規,0,2024-10-28,2024-10-28,株式会社オーガスタ横浜,,株式会社,神奈川県,横浜市西区,浅間町１丁目４番３号ウィザードビル４０２,,14,103,2200072,,,,,,,2024-10-28,1,,,,,オーガスタヨコハマ,0
96,1020003027129,新規,0,2024-10-28,2024-10-28,合同会社オリビット,,合同会社,神奈川県,横浜市青葉区,美しが丘西２丁目２６番地２１,,14,117,2250001,,,,,,,2024-10-28,1,,,,,オリビット,0
113,1030001163131,新規,0,2024-10-28,2024-10-28,ＷＯＮ　Ｉｎｔｅｒｎａｔｉｏｎａｌ株式会社,,株式会社,埼玉県,飯能市,本町１９番２号ＫＩＶ－Ｗｅｌｆａｒｅ会館飯能１１号室,,11,209,3570032,,,,,,,2024-10-28,1,,,,,ウォンインターナショナル,0
114,1030001163148,新規,0,2024-10-28,2024-10-28,株式会社小江戸ミレメーレ,,株式会社,埼玉県,川越市,大手町５番地３,,11,201,3500057,,,,,,,2024-10-28,1,,,,,コエドミレメーレ,0
115,1030001163156,新規,0,2024-10-28,2024-10-28,株式会社ＳＫ．メタルワークス,,株式会社,埼玉県,鴻巣市,人形１丁目７番３号,,11,217,3650037,,,,,,,2024-10-28,1,,,,,エスケーメタルワークス,0
116,1030001163172,新規,0,2024-10-28,2024-10-28,株式会社ライズ,,株式会社,埼玉県,越谷市,越ヶ谷２６４７番地１,,11,222,3430024,,,,,,,2024-10-28,1,,,,,ライズ,0
126,1030003025370,新規,0,2024-10-28,2024-10-28,大黒合同会社,00136786,合同会社,埼玉県,蕨市,塚越５丁目４７番１５号,,11,223,3350002,,,,,,,2024-10-28,1,,,,,オオクロ,0
127,1030003025379,新規,0,2024-10-28,2024-10-28,合同会社ＯｔｔＯ,,合同会社,埼玉県,さいたま市大宮区,桜木町１丁目３４５番地,,11,103,3300854,,,,,,,2024-10-28,1,,,,,オット,0
134,1040001135914,新規,0,2024-10-28,2024-10-28,株式会社５１０,,株式会社,千葉県,千葉市若葉区,下田町１３３２番地１２,,12,104,2650076,,,,,,,2024-10-28,1,,,,,ゴーイチゼロ,0
135,1040001135939,新規,0,2024-10-28,2024-10-28,株式会社ジャストタッチ,,株式会社,千葉県,松戸市,秋山１丁目１１―６,,12,207,2702223,,,,,,,2024-10-28,1,,,,,ジャストタッチ,0
142,1070001042298,新規,0,2024-10-28,2024-10-28,株式会社Ｂｉｓｓｅｌｌ,,株式会社,群馬県,高崎市,矢中町４６３番地９,,10,202,3701203,,,,,,,2024-10-28,1,,,,,ビッセル,0
143,1070001042307,新規,0,2024-10-28,2024-10-28,株式会社悠翔コーポレーション,,株式会社,群馬県,高崎市,根小屋町２１７１番地３,,10,202,3701214,,,,,,,2024-10-28,1,,,,,ユウトコーポレーション,0
144,1070003005633,新規,0,2024-10-28,2024-10-28,合同会社Ｌｉｂｅｒｔｙｈａｎｄｙｍａｎ竜,,合同会社,群馬県,桐生市,相生町１丁目１５－４７,,10,203,3760011,,,,,,,2024-10-28,1,,,,,リバティーハンディーマンリュウ,0
153,1090001018965,新規,0,2024-10-28,2024-10-28,株式会社山梨総合住宅設備,,株式会社,山梨県,北杜市,大泉町西井出３２７７番地,,19,209,4091501,,,,,,,2024-10-28,1,,,,,ヤマナシソウゴウジュウタクセツビ,0
154,1090005007659,新規,0,2024-10-28,2024-10-28,一般社団法人ファミリータイズやまなし,,その他の設立登記法人,山梨県,甲府市,国母８丁目１４番５０号,,19,201,4000043,,,,,,,2024-10-28,1,,,,,,0
167,1120001269687,新規,0,2024-10-28,2024-10-28,ＵＬＴＩＭＡＴＵＭ株式会社,,株式会社,大阪府,大阪市西区,京町堀１丁目１１番７号,,27,106,5500003,,,,,,,2024-10-28,1,,,,,アルティメイタム,0
168,1120001269720,新規,0,2024-10-28,2024-10-28,株式会社タクトラ,,株式会社,大阪府,大阪市中央区,淡路町３丁目５番１３－２０５号,,27,128,5410047,,,,,,,2024-10-28,1,,,,,タクトラ,0
169,1120001269753,新規,0,2024-10-28,2024-10-28,株式会社ジェム２,,株式会社,大阪府,大阪市住之江区,南港中５丁目５番３３－６０７号,,27,125,5590033,,,,,,,2024-10-28,1,,,,,ジェムツー,0
171,1120003027837,新規,0,2024-10-28,2024-10-28,合同会社Ｈａｒｕ　Ｊａｐａｎ,,合同会社,大阪府,大阪市東住吉区,今川４丁目１３－２５,,27,121,5460003,,,,,,,2024-10-28,1,,,,,ハルジャパン,0
173,1120105009923,新規,0,2024-10-28,2024-10-28,特定非営利活動法人堺初芝ベースボールアカデミー,,その他の設立登記法人,大阪府,堺市堺区,熊野町東４丁４番１９号（平成ビル６Ｆ）,,27,141,5900946,,,,,,,2024-10-28,1,,,,,サカイハツシバベースボールアカデミー,0
174,1120901049965,新規,0,2024-10-28,2024-10-28,株式会社ＢＰ　ＰＬＡＮＮＩＮＧ,,株式会社,大阪府,池田市,菅原町２―４ピースビル３１２,,27,204,5630055,,,,,,,2024-10-28,1,,,,,ビーピープランニング,0
180,1130001078195,新規,0,2024-10-28,2024-10-28,株式会社Ｍｒ　ＴＡＲＡＲ,,株式会社,京都府,八幡市,八幡下奈良井関７番６,,26,210,6140000,,,,,,,2024-10-28,1,,,,,ミスタータラル,0
181,1130001078229,新規,0,2024-10-28,2024-10-28,株式会社エルエムシー,,株式会社,京都府,京都市山科区,御陵三蔵町９番地２０,,26,110,6078413,,,,,,,2024-10-28,1,,,,,エルエムシー,0
186,1140001136225,新規,0,2024-10-28,2024-10-28,株式会社ＨＡＮＥＳ,,株式会社,兵庫県,神戸市西区,玉津町今津３６４番地の２４,,28,111,6512128,,,,,,,2024-10-28,1,,,,,ヘインズ,0
189,1140003021235,新規,0,2024-10-28,2024-10-28,合同会社メトロビル,,合同会社,兵庫県,洲本市,本町４丁目２番地の２９号,,28,205,6560025,,,,,,,2024-10-28,1,,,,,メトロビル,0
190,1150001027621,新規,0,2024-10-28,2024-10-28,株式会社瑞雲,,株式会社,奈良県,奈良市,高樋町１１３０番地の３,00136780,29,201,6308411,,,,,,,2024-10-28,1,,,,,ズイウン,0
200,1180003027518,新規,0,2024-10-28,2024-10-28,合同会社ＬＥＧＥＮＤ　ＢＥＡＳＴ,,合同会社,愛知県,一宮市,起字西茜屋４４,,23,203,4940006,,,,,,,2024-10-28,1,,,,,レジェンドビースト,0
201,1180301039173,新規,0,2024-10-28,2024-10-28,株式会社一,,株式会社,愛知県,豊川市,弥生町２丁目２８番地シンセリティＢ・Ａ号室,,23,207,4420831,,,,,,,2024-10-28,1,,,,,ハジメ,0
206,1220003003869,新規,0,2024-10-28,2024-10-28,ＡＭ　Ｗｏｒｋｓ合同会社,,合同会社,石川県,白山市,笠間町８０４‐１,,17,210,9240063,,,,,,,2024-10-28,1,,,,,エーエムワークス,0
211,1240001064011,新規,0,2024-10-28,2024-10-28,株式会社ａｒｃＤｅｃｏ,,株式会社,広島県,広島市南区,青崎１丁目１３番１－５０２号,,34,103,7340053,,,,,,,2024-10-28,1,,,,,アークデコ,0
221,1290001107756,新規,0,2024-10-28,2024-10-28,株式会社エンジン,,株式会社,福岡県,福岡市南区,野多目２丁目２６番１１号,,40,134,8111347,,,,,,,2024-10-28,1,,,,,エンジン,0
249,1430001092950,新規,0,2024-10-28,2024-10-28,札幌どうぶつ葬社株式会社,,株式会社,北海道,札幌市厚別区,厚別町山本１０８０番,,01,108,0040069,,,,,,,2024-10-28,1,,,,,サッポロドウブツソウシャ,0
252,1430003016924,新規,0,2024-10-28,2024-10-28,合同会社ＥＬＥＮＫＡ,,合同会社,北海道,石狩市,横町２５番１,,01,235,0613376,,,,,,,2024-10-28,1,,,,,イレンカ,0
253,1430003016932,新規,0,2024-10-28,2024-10-28,合同会社はっぴぃぷぺっぽ,,合同会社,北海道,札幌市手稲区,富丘二条４丁目１番２３号,,01,109,0060012,,,,,,,2024-10-28,1,,,,,ハッピィプペッポ,0
258,1450003002550,新規,0,2024-10-28,2024-10-28,合同会社悠,,合同会社,北海道,旭川市,末広六条１１丁目５番１号,,01,204,0718136,,,,,,,2024-10-28,1,,,,,ユウ,0
259,1460101007624,新規,0,2024-10-28,2024-10-28,株式会社ワイズプロジェクト,,株式会社,北海道,帯広市,西十七条南４丁目２０番１４号,,01,207,0800027,,,,,,,2024-10-28,1,,,,,ワイズプロジェクト,0
261,1490003001945,新規,0,2024-10-28,2024-10-28,合同会社Ｇｌｏｒｉｅ,,合同会社,高知県,高知市,帯屋町１丁目９番２４号アネックスビル３階南,,39,201,7800841,,,,,,,2024-10-28,1,,,,,グローリエ,0
263,1500001025960,新規,0,2024-10-28,2024-10-28,株式会社ガイド,,株式会社,愛媛県,今治市,共栄町２丁目３番地７,,38,202,7940024,,,,,,,2024-10-28,1,,,,,ガイド,0
266,1700150126333,新規,0,2024-10-28,2024-07-03,愛媛県ニホンジカ対策植生保全協議会,,その他,愛媛県,松山市,一番町４丁目４－２自然保護課内,,38,201,7900001,,,,,,,2024-07-03,1,,,,,エヒメケンニホンジカタイサクシヨクセイホゼンキヨウギカイ,0
272,2010001249385,新規,0,2024-10-28,2024-10-28,株式会社Ｃ＆Ｙ,,株式会社,東京都,中央区,京橋１丁目１４－１,,13,102,1040031,,,,,,,2024-10-28,1,,,,,シーアンドワイ,0
276,2010003045287,新規,0,2024-10-28,2024-10-28,ＥＢＳ１合同会社,,合同会社,東京都,千代田区,霞が関３丁目２番５号,,13,101,1000013,,,,,,,2024-10-28,1,,,,,イービーエスワン,0
277,2010005039015,新規,0,2024-10-28,2024-10-28,一般財団法人ＡＣＴ　ａｓ　Ｅａｒｔｈｍｅｎ,,その他の設立登記法人,東京都,千代田区,麹町５丁目３番地第７秋山ビルディング８Ｆ,,13,101,1020083,,,,,,,2024-10-28,1,,,,,アクトアズアースメン,0
285,2010401186006,新規,0,2024-10-28,2024-10-28,Ｍｏｏｎ　Ｃｒｅａｔｉｖｅ　Ｖｅｎｔｕｒｅｓ株式会社,,株式会社,東京都,港区,北青山３丁目１０番５号ＳｐｒｉｎｇＴｅｒｒａｃｅＯｍｏｔｅｓａｎｄｏ２Ｆ,,13,103,1070061,,,,,,,2024-10-28,1,,,,,ムーンクリエィティブベンチャーズ,0
286,2010401186030,新規,0,2024-10-28,2024-10-28,Ｎｅｗ　Ｗｅａｌｔｈ株式会社,,株式会社,東京都,港区,東麻布２丁目１４番１号,,13,103,1060044,,,,,,,2024-10-28,1,,,,,ニューウェルス,0
287,2010401186039,新規,0,2024-10-28,2024-10-28,株式会社トランプ,,株式会社,東京都,港区,赤坂４丁目１３番５号赤坂オフィスハイツ１３５号,,13,103,1070052,,,,,,,2024-10-28,1,,,,,トランプ,0
292,2010403033684,新規,0,2024-10-28,2024-10-28,イチハレ合同会社,,合同会社,東京都,港区,芝４丁目７番６号芝ビルディング７０４,,13,103,1080014,,,,,,,2024-10-28,1,,,,,イチハレ,0
300,2010601066172,新規,0,2024-10-28,2024-10-28,株式会社ＫＩＭＩＫＡ,,株式会社,東京都,江東区,豊洲６丁目２番３１号スカイズタワー＆ガーデン１９１０号,,13,108,1350061,,,,,,,2024-10-28,1,,,,,キミカ,0
304,2010603011176,新規,0,2024-10-28,2024-10-28,合同会社スマナス,,合同会社,東京都,江東区,越中島３丁目６番１－２１５号,,13,108,1350044,,,,,,,2024-10-28,1,,,,,スマナス,0
306,2010701046735,新規,0,2024-10-28,2024-10-28,株式会社Ｊ８２８,,株式会社,東京都,品川区,北品川５丁目３番１－１３０２号,,13,109,1410001,,,,,,,2024-10-28,1,,,,,ジェイハチニーハチ,0
310,2010703007413,新規,0,2024-10-28,2024-10-28,南麻布コネクト合同会社,,合同会社,東京都,品川区,上大崎３丁目１番１号目黒セントラルスクエア１５階,,13,109,1410021,,,,,,,2024-10-28,1,,,,,ミナミアザブコネクト,0
313,2010901056204,新規,0,2024-10-28,2024-10-28,株式会社マヨウビ,,株式会社,東京都,世田谷区,代沢２丁目２３－６ラペルラ下北沢１０２,,13,112,1550032,,,,,,,2024-10-28,1,,,,,マヨウビ,0
314,2010903009440,新規,0,2024-10-28,2024-10-28,ＷｅｇａＯ合同会社,,合同会社,東京都,世田谷区,上北沢４丁目１３番１１号１階,,13,112,1560057,,,,,,,2024-10-28,1,,,,,ウィーガオ,0
316,2011001165481,新規,0,2024-10-28,2024-10-28,株式会社チュダンテ,,株式会社,東京都,渋谷区,恵比寿西２丁目８番４号ＥＸ恵比寿西ビル５階,,13,113,1500021,,,,,,,2024-10-28,1,,,,,チュダンテ,0
334,2020001159765,新規,0,2024-10-28,2024-10-28,株式会社ＭＳＡ,,株式会社,神奈川県,横浜市神奈川区,金港町５番地１４クアドリフォリオ８階,,14,102,2210056,,,,,,,2024-10-28,1,,,,,エムエスエー,0
335,2020001159798,新規,0,2024-10-28,2024-10-28,株式会社チェスト,,株式会社,神奈川県,横浜市港北区,大倉山４丁目３４番３－４１４号,,14,109,2220037,,,,,,,2024-10-28,1,,,,,チェスト,0
336,2020001159807,新規,0,2024-10-28,2024-10-28,スターゲイズ株式会社,,株式会社,神奈川県,横浜市中区,竹之丸４６番地１２,,14,104,2310847,,,,,,,2024-10-28,1,,,,,スターゲイズ,0
340,2020003027128,新規,0,2024-10-28,2024-10-28,合同会社ＹＡＭＡＤＡ,,合同会社,神奈川県,横浜市中区,花咲町２丁目５７番地ミシナビル６０４,,14,104,2310063,,,,,,,2024-10-28,1,,,,,ヤマダ,0
347,2021003015147,新規,0,2024-10-28,2024-10-28,カムナ合同会社,,合同会社,神奈川県,大和市,上草柳８丁目１３番８号,,14,213,2420029,,,,,,,2024-10-28,1,,,,,カムナ,0
357,2030001163147,新規,0,2024-10-28,2024-10-28,株式会社大和Ｒｉｓｉｎｇ,,株式会社,埼玉県,蓮田市,西新宿６丁目１８番地シティーコーポ深沢Ｂ－１０５号,,11,238,3490141,,,,,,,2024-10-28,1,,,,,ヤマトライジング,0
358,2030001163171,新規,0,2024-10-28,2024-10-28,株式会社ＴＲＥＥ,,株式会社,埼玉県,さいたま市緑区,大字中尾１３７５番地１２木造りの家,,11,109,3360932,,,,,,,2024-10-28,1,,,,,テュリー,0
372,2050003008769,新規,0,2024-10-28,2024-10-28,ＴＡＭＵ　ＣＯＲＰＯＲＡＴＩＯＮ合同会社,,合同会社,茨城県,筑西市,乙４６７－１,,08,227,3080041,,,,,,,2024-10-28,1,,,,,タムコーポレーション,0
376,2070003005632,新規,0,2024-10-28,2024-10-28,合同会社ノーブル,,合同会社,群馬県,邑楽郡明和町,矢島１５２３番地１,,10,522,3700712,,,,,,,2024-10-28,1,,,,,ノーブル,0
378,2080101025093,新規,0,2024-10-28,2024-10-28,株式会社ＶＩＣＴＯＲＹキッチン,,株式会社,静岡県,伊豆の国市,北江間８５番地の２,,22,225,4102223,,,,,,,2024-10-28,1,,,,,ビクトリーキッチン,0
380,2080401027525,新規,0,2024-10-28,2024-10-28,浜松まなびや空調株式会社,,株式会社,静岡県,浜松市中央区,池町２２０番地の４,,22,138,4300945,,,,,,,2024-10-28,1,,,,,ハママツマナビヤクウチョウ,0
384,2090005007658,新規,0,2024-10-28,2024-10-28,特定非営利活動法人芦川まちづくり実行委員会,,その他の設立登記法人,山梨県,笛吹市,芦川町鶯宿８９番地,,19,211,4093704,,,,,,,2024-10-28,1,,,,,,0
395,2120001269620,新規,0,2024-10-28,2024-10-28,株式会社Ｆｕｎ　Ｃｒｅａｔｉｏｎ,,株式会社,大阪府,大阪市福島区,福島５丁目６－１６ラグザ大阪２Ｆ,,27,103,5530003,,,,,,,2024-10-28,1,,,,,ファンクリエーション,0
396,2120001269661,新規,0,2024-10-28,2024-10-28,雲盛株式会社,,株式会社,大阪府,大阪市福島区,福島７丁目４－２２－５０６号室,,27,103,5530003,,,,,,,2024-10-28,1,,,,,ウンセイ,0
397,2120001269744,新規,0,2024-10-28,2024-10-28,株式会社Ｋｚ,,株式会社,大阪府,大阪市中央区,南本町１丁目５－１安平ビル２Ｆ,,27,128,5410054,,,,,,,2024-10-28,1,,,,,カズ,0
398,2120001269777,新規,0,2024-10-28,2024-10-28,株式会社小川,,株式会社,大阪府,大阪市平野区,平野西３丁目３番２７号,,27,126,5470033,,,,,,,2024-10-28,1,,,,,オガワ,0
403,2120901049956,新規,0,2024-10-28,2024-10-28,大貴株式会社,,株式会社,大阪府,豊能郡豊能町,新光風台２丁目１番地の７,,27,321,5630105,,,,,,,2024-10-28,1,,,,,タイキ,0
406,2130001078236,新規,0,2024-10-28,2024-10-28,株式会社カランド,,株式会社,京都府,京都市中京区,六角通麩屋町西入大黒町９０番地,,26,104,6048073,,,,,,,2024-10-28,1,,,,,カランド,0
408,2130003009957,新規,0,2024-10-28,2024-10-28,合同会社ＡＱＵＡＳ　ＤＥＳＩＧＮ,,合同会社,京都府,京都市下京区,七条通油小路東入大黒町２２７番地第２キョートビル４０２,,26,106,6008223,,,,,,,2024-10-28,1,,,,,アクアスデザイン,0
415,2140001136224,新規,0,2024-10-28,2024-10-28,ＡＷＨ株式会社,,株式会社,兵庫県,尼崎市,潮江１丁目２２番１－７１７号,,28,202,6610976,,,,,,,2024-10-28,1,,,,,エーダブルエイチ,0
416,2140001136232,新規,0,2024-10-28,2024-10-28,未来ファームジャパン株式会社,,株式会社,兵庫県,南あわじ市,潮美台２丁目１４－６,,28,224,6560521,,,,,,,2024-10-28,1,,,,,ミライファームジャパン,0
419,2140003021242,新規,0,2024-10-28,2024-10-28,合同会社ＡｓｓｅｔＰｌｕｓ,,合同会社,兵庫県,神戸市垂水区,塩屋町７丁目１１番９号,,28,108,6550872,,,,,,,2024-10-28,1,,,,,アセットプラス,0
420,2150001027620,新規,0,2024-10-28,2024-10-28,株式会社瑠璃,,株式会社,奈良県,奈良市,高樋町１１３０番地の３,00136778,29,201,6308411,,,,,,,2024-10-28,1,,,,,ルリ,0
429,2180003027509,新規,0,2024-10-28,2024-10-28,Ｅａｒｔｈ＆Ｃｏ．合同会社,,合同会社,愛知県,名古屋市中区,栄４丁目１５番１４号栄ハイホーム８０３号,,23,106,4600008,,,,,,,2024-10-28,1,,,,,アースアンドコー,0
441,2230003002324,新規,0,2024-10-28,2024-10-28,合同会社ライフケアステーション富山,,合同会社,富山県,富山市,高木南１０２‐１４,,16,201,9300106,,,,,,,2024-10-28,1,,,,,ライフケアステーショントヤマ,0
443,2240001064002,新規,0,2024-10-28,2024-10-28,株式会社ＰＲｉＤＥ,,株式会社,広島県,広島市佐伯区,石内北１丁目１５番１０号,,34,108,7315109,,,,,,,2024-10-28,1,,,,,プライド,0
444,2240001064010,新規,0,2024-10-28,2024-10-28,株式会社土楽奏建,,株式会社,広島県,広島市安佐北区,口田南７丁目１５番６号,,34,106,7391733,,,,,,,2024-10-28,1,,,,,ドラソウケン,0
453,2280003001890,新規,0,2024-10-28,2024-10-28,合同会社Ｖａｍｏｓ,,合同会社,島根県,安来市,荒島町１７１０番地１リバーフィールドわらび２０１号,,32,206,6920007,,,,,,,2024-10-28,1,,,,,バモス,0
458,2290001107730,新規,0,2024-10-28,2024-10-28,株式会社神明,,株式会社,福岡県,嘉穂郡桂川町,大字豆田２７６番地４Ｃａｒｄｏ豆田１号,,40,421,8200608,,,,,,,2024-10-28,1,,,,,シンメイ,0
459,2290001107739,新規,0,2024-10-28,2024-10-28,株式会社ＦＳ２,,株式会社,福岡県,福岡市中央区,舞鶴３丁目１番１３－３０１号,,40,133,8100073,,,,,,,2024-10-28,1,,,,,エフエスツー,0
460,2290001107755,新規,0,2024-10-28,2024-10-28,株式会社ＲａｕＳａｋａ,,株式会社,福岡県,福津市,中央２丁目９番２０号エレガンス福間２０２号室,,40,224,8113217,,,,,,,2024-10-28,1,,,,,ラウサカ,0
465,2290005019518,新規,0,2024-10-28,2024-10-28,ＮＰＯ法人ＯＮＥ,,その他の設立登記法人,福岡県,春日市,春日９丁目３７番地ヒルサイドテラス春日Ｂ１０２号,,40,218,8160814,,,,,,,2024-10-28,1,,,,,ワン,0
473,2330003010614,新規,0,2024-10-28,2024-10-28,ＬＭＷ合同会社,,合同会社,熊本県,熊本市北区,弓削４丁目８番４７－４０５号,,43,105,8618002,,,,,,,2024-10-28,1,,,,,エルエムダブリュー,0
483,2360001034364,新規,0,2024-10-28,2024-10-28,株式会社オリオン観光,,株式会社,沖縄県,那覇市,松山２丁目２６－１０－１Ｆ,,47,201,9000032,,,,,,,2024-10-28,1,,,,,オリオンカンコウ,0
492,2420001018906,新規,0,2024-10-28,2024-10-28,奥羽商事株式会社,,株式会社,青森県,八戸市,大字田面木字外久保１０番地１６,,02,203,0391104,,,,,,,2024-10-28,1,,,,,オウウショウジ,0
497,2430001092933,新規,0,2024-10-28,2024-10-28,Ｔｈｅ　Ａｌｌｅｙ株式会社,,株式会社,北海道,虻田郡ニセコ町,字曽我５４１番地３,,01,395,0481522,,,,,,,2024-10-28,1,,,,,ジアリー,0
499,2430003016931,新規,0,2024-10-28,2024-10-28,合同会社ハーブリーズ,,合同会社,北海道,江別市,若草町７番地の６,,01,217,0670004,,,,,,,2024-10-28,1,,,,,ハーブリーズ,0
500,2470001020436,新規,0,2024-10-28,2024-10-28,株式会社ＡＧ,,株式会社,香川県,高松市,瓦町２丁目２番２４号,,37,201,7600052,,,,,,,2024-10-28,1,,,,,エージー,0
503,2490001010897,新規,0,2024-10-28,2024-10-28,株式会社ごとうコンサルティング,,株式会社,高知県,香美市,土佐山田町楠目４７７番地９,,39,212,7820051,,,,,,,2024-10-28,1,,,,,ゴトウコンサルティング,0
506,2500001025968,新規,0,2024-10-28,2024-10-28,フジニワ株式会社,,株式会社,愛媛県,新居浜市,垣生６丁目１３番１１号,,38,205,7920872,,,,,,,2024-10-28,1,,,,,フジニワ,0
520,3010001248584,新規,0,2024-10-28,2024-10-28,ＹＳジャパン株式会社,,株式会社,東京都,中央区,日本橋堀留町１丁目５番１３号第２川端ビル５階,,13,102,1030012,,,,,,,2024-10-28,1,,,,,ワイエスジャパン,0
521,3010001249392,新規,0,2024-10-28,2024-10-28,株式会社ＥＡＦＡＣＴ,,株式会社,東京都,中央区,銀座１丁目１２番４号Ｎ＆ＥＢＬＤ．６Ｆ,,13,102,1040061,,,,,,,2024-10-28,1,,,,,イーファクト,0
524,3010003045303,新規,0,2024-10-28,2024-10-28,Ｍｏｄｅｌｉｎｋ　Ｊａｐａｎ合同会社,,合同会社,東京都,千代田区,神田須田町１丁目７番８号ＶＯＲＴ秋葉原ＩＶ２Ｆ,00136776,13,101,1010041,,,,,,,2024-10-28,1,,,,,モデリンクジャパン,0
536,3010401185964,新規,0,2024-10-28,2024-10-28,メシトモ株式会社,,株式会社,東京都,港区,東新橋２丁目１０番７号中銀第２新橋マンシオン１０２,,13,103,1050021,,,,,,,2024-10-28,1,,,,,メシトモ,0
537,3010401185989,新規,0,2024-10-28,2024-10-28,ＦＴＬキャピタルマネジメント株式会社,,株式会社,東京都,港区,芝５丁目２６番２４号田町スクエア１Ｆ,,13,103,1080014,,,,,,,2024-10-28,1,,,,,エフティーエルキャピタルマネジメント,0
538,3010401186005,新規,0,2024-10-28,2024-10-28,株式会社Ｉｎｎｏｖａｔｉｖｅ,,株式会社,東京都,港区,北青山１丁目３番１号アールキューブ青山３階,,13,103,1070061,,,,,,,2024-10-28,1,,,,,イノベーティブ,0
546,3010403033601,新規,0,2024-10-28,2024-10-28,ＬＩＦ合同会社,,合同会社,東京都,港区,北青山１丁目３番１号,,13,103,1070061,,,,,,,2024-10-28,1,,,,,リフ,0
547,3010403033659,新規,0,2024-10-28,2024-10-28,Ｖ．ｒｅｎｔ　Ｔ．Ｃ合同会社,,合同会社,東京都,港区,北青山１丁目３番１号アールキューブ青山３階,,13,103,1070061,,,,,,,2024-10-28,1,,,,,ブイレントティーシー,0
548,3010403033675,新規,0,2024-10-28,2024-10-28,合同会社サンフラワー１号,,合同会社,東京都,港区,西新橋１丁目１８番地１７明産西新橋ビル３Ｆ,,13,103,1050003,,,,,,,2024-10-28,1,,,,,サンフラワーイチゴウ,0
553,3010501053105,新規,0,2024-10-28,2024-10-28,東京不動産販売株式会社,,株式会社,東京都,台東区,東上野３丁目３５番１１号,,13,106,1100015,,,,,,,2024-10-28,1,,,,,トウキョウフドウサンハンバイ,0
554,3010601066171,新規,0,2024-10-28,2024-10-28,株式会社ＡＯＳＡＮＡ,,株式会社,東京都,江東区,豊洲６丁目２番３１－２３１３号,,13,108,1350061,,,,,,,2024-10-28,1,,,,,アオサナ,0
556,3010603011175,新規,0,2024-10-28,2024-10-28,合同会社ＩｎｆｉＴｕｒｂｏ,,合同会社,東京都,墨田区,京島２丁目１２番１１号,,13,107,1310046,,,,,,,2024-10-28,1,,,,,インフィターボ,0
559,3010701046726,新規,0,2024-10-28,2024-10-28,Ｂｅａｕｔｙ　ａｒｃ株式会社,,株式会社,東京都,品川区,上大崎２丁目１５－１９,,13,109,1410021,,,,,,,2024-10-28,1,,,,,ビューティアーク,0
560,3010701046742,新規,0,2024-10-28,2024-10-28,株式会社泰平,,株式会社,東京都,品川区,東品川２丁目３番１２号,,13,109,1400002,,,,,,,2024-10-28,1,,,,,タイヘイ,0
563,3010901056194,新規,0,2024-10-28,2024-10-28,Ｇｒｏｗｔｈ　ｉｎｎｏｖａｔｉｏｎ株式会社,,株式会社,東京都,世田谷区,千歳台１丁目１５番６号,,13,112,1570071,,,,,,,2024-10-28,1,,,,,グロースイノベーション,0
564,3010901056211,新規,0,2024-10-28,2024-10-28,株式会社Ｔｓ　Ｉｎｃ,,株式会社,東京都,世田谷区,北烏山９丁目１番２８号,,13,112,1570061,,,,,,,2024-10-28,1,,,,,ティーズインク,0
567,3011003020279,新規,0,2024-10-28,2024-10-28,ＣＡＶ合同会社,,合同会社,東京都,渋谷区,神宮前６丁目２３番４号桑野ビル２階,,13,113,1500001,,,,,,,2024-10-28,1,,,,,シーエーブイ,0
578,3011401026539,新規,0,2024-10-28,2024-10-28,株式会社アコーズ,,株式会社,東京都,板橋区,三園１丁目４１番１号,,13,119,1750091,,,,,,,2024-10-28,1,,,,,アコーズ,0
582,3011503006281,新規,0,2024-10-28,2024-10-28,合同会社Ｍｏｉｔｉｅ‐Ｍｏｉｔｉｅ,,合同会社,東京都,北区,田端１丁目１５－１７,,13,117,1140014,,,,,,,2024-10-28,1,,,,,モワティエモワティエ,0
583,3011601028153,新規,0,2024-10-28,2024-10-28,株式会社イクデン,,株式会社,東京都,練馬区,関町北２丁目２１－２１,,13,120,1770051,,,,,,,2024-10-28,1,,,,,イクデン,0
586,3011703004011,新規,0,2024-10-28,2024-10-28,合同会社ＣＲＥＳＴ,,合同会社,東京都,江戸川区,南葛西４丁目１４番１４号,,13,123,1340085,,,,,,,2024-10-28,1,,,,,クレスト,0
590,3012401042427,新規,0,2024-10-28,2024-10-28,Ｃｏｃｏ株式会社,,株式会社,東京都,多摩市,関戸４丁目１０‐１１,,13,224,2060011,,,,,,,2024-10-28,1,,,,,ココ,0
595,3012703003119,新規,0,2024-10-28,2024-10-28,合同会社ピンクフィールド,,合同会社,東京都,西東京市,芝久保町１丁目１７番３号,,13,229,1880014,,,,,,,2024-10-28,1,,,,,ピンクフィールド,0
597,3013101009550,新規,0,2024-10-28,2024-10-28,株式会社縁家,,株式会社,東京都,西多摩郡瑞穂町,大字富士山栗原新田１４４番地３,,13,303,1901204,,,,,,,2024-10-28,1,,,,,エンヤ,0
602,3020001159723,新規,0,2024-10-28,2024-10-28,ＫＡＷＡＴＥＴＳＵホールディングス株式会社,,株式会社,神奈川県,川崎市川崎区,大島上町２２番５号,,14,131,2100836,,,,,,,2024-10-28,1,,,,,カワテツホールディングス,0
603,3020001159756,新規,0,2024-10-28,2024-10-28,ＭＵＧＩカンパニー株式会社,,株式会社,神奈川県,横浜市港北区,師岡町１１５６番地１８,,14,109,2220002,,,,,,,2024-10-28,1,,,,,ムギカンパニー,0
604,3020001159780,新規,0,2024-10-28,2024-10-28,株式会社こまちクリエイト,,株式会社,神奈川県,横浜市鶴見区,梶山２丁目１０番２号,,14,101,2300072,,,,,,,2024-10-28,1,,,,,コマチクリエイト,0
605,3020001159797,新規,0,2024-10-28,2024-10-28,株式会社ヴィス,,株式会社,神奈川県,川崎市宮前区,犬蔵１丁目２５番２４号コーポカヤバＡ１０２,,14,136,2160011,,,,,,,2024-10-28,1,,,,,ヴィス,0
606,3020001159806,新規,0,2024-10-28,2024-10-28,錦福株式会社,,株式会社,神奈川県,横浜市南区,高砂町１丁目１０番地１２,,14,105,2320025,,,,,,,2024-10-28,1,,,,,キンフク,0
615,3020005016540,新規,0,2024-10-28,2024-10-28,一般社団法人ウェルビーイングのための人生計画運用コミュニティー・ウェビコミ,,その他の設立登記法人,神奈川県,横浜市緑区,竹山１丁目１８番１６号,,14,113,2260005,,,,,,,2024-10-28,1,,,,,ウェルビーイングノタメノジンセイケイカクウンヨウコミュニティーウェビコミ,0
618,3021001083566,新規,0,2024-10-28,2024-10-28,株式会社ＴｒｏｏｐＶｉｓｔａ,,株式会社,神奈川県,相模原市中央区,星が丘１丁目２１番１号,,14,152,2520238,,,,,,,2024-10-28,1,,,,,トゥループヴィスタ,0
619,3021001083582,新規,0,2024-10-28,2024-10-28,デジタル大サーカス株式会社,,株式会社,神奈川県,逗子市,桜山６丁目５－２１プルクラート１－１０２,,14,208,2490005,,,,,,,2024-10-28,1,,,,,デジタルダイサーカス,0
620,3021001083599,新規,0,2024-10-28,2024-10-28,株式会社鳥羽興業,,株式会社,神奈川県,南足柄市,狩野２１番地２０,,14,217,2500126,,,,,,,2024-10-28,1,,,,,トリバコウギョウ,0
623,3021003015146,新規,0,2024-10-28,2024-10-28,合同会社ちがさき丸食堂,,合同会社,神奈川県,茅ヶ崎市,南湖４丁目１５番５号,,14,207,2530061,,,,,,,2024-10-28,1,,,,,チガサキマルショクドウ,0
624,3021003015154,新規,0,2024-10-28,2024-10-28,アムゼル合同会社,,合同会社,神奈川県,三浦郡葉山町,一色８７１番地,,14,301,2400111,,,,,,,2024-10-28,1,,,,,アムゼル,0
635,3030001163146,新規,0,2024-10-28,2024-10-28,株式会社ＢＤＳコンサルタント,,株式会社,埼玉県,富士見市,鶴馬１丁目１３番２２－３０５号,,11,235,3540021,,,,,,,2024-10-28,1,,,,,ビーディーエスコンサルタント,0
636,3030001163154,新規,0,2024-10-28,2024-10-28,株式会社Ｐａｕｌ　Ｋｅｌｌｙ　Ｅｎｔｅｒｔａｉｎｍｅｎｔ,,株式会社,埼玉県,新座市,野火止５丁目１７番２１号クリエール志木６０８号室,,11,230,3520011,,,,,,,2024-10-28,1,,,,,ポールケリーエンターテインメント,0
637,3030001163162,新規,0,2024-10-28,2024-10-28,株式会社和,,株式会社,埼玉県,川口市,青木３丁目２２番３０号,,11,203,3320031,,,,,,,2024-10-28,1,,,,,ワ,0
638,3030001163179,新規,0,2024-10-28,2024-10-28,株式会社ぬかりや建築設計事務所,,株式会社,埼玉県,川口市,芝中田２丁目３９番１６号アレックスペリエ１０３号,,11,203,3330847,,,,,,,2024-10-28,1,,,,,ヌカリヤケンチクセッケイジムショ,0
640,3030003025385,新規,0,2024-10-28,2024-10-28,合同会社ワイズワークス,,合同会社,埼玉県,川口市,大字安行原１４５番地の２タドコロビル３０３号,,11,203,3340057,,,,,,,2024-10-28,1,,,,,ワイズワークス,0
641,3030005021911,新規,0,2024-10-28,2024-10-28,医療法人和三会,,その他の設立登記法人,埼玉県,川越市,脇田町１８番地６川越小川ビル三階Ａ,,11,201,3501122,,,,,,,2024-10-28,1,,,,,ワサンカイ,0
650,3070001042305,新規,0,2024-10-28,2024-10-28,株式会社リフィックス,,株式会社,群馬県,太田市,安良岡町２４２番地２,,10,205,3730811,,,,,,,2024-10-28,1,,,,,リフィックス,0
654,3080101025092,新規,0,2024-10-28,2024-10-28,株式会社前芯,,株式会社,静岡県,三島市,青木３２番地の８,,22,206,4110811,,,,,,,2024-10-28,1,,,,,ゼンシン,0
660,3080403005131,新規,0,2024-10-28,2024-10-28,合同会社ビューティービューティー,,合同会社,静岡県,浜松市中央区,萩丘２丁目４３番４号アンピエス萩丘１０４,,22,138,4338121,,,,,,,2024-10-28,1,,,,,ビューティービューティー,0
676,3120001269719,新規,0,2024-10-28,2024-10-28,株式会社アイリスホームズ,,株式会社,大阪府,大阪市中央区,本町４丁目４番１７号ＲＥー０１２ビル５０３号,,27,128,5410053,,,,,,,2024-10-28,1,,,,,アイリスホームズ,0
677,3120001269727,新規,0,2024-10-28,2024-10-28,株式会社ＣＯＭＢＲＩＤＧＥ,,株式会社,大阪府,大阪市淀川区,木川東４丁目１２－２５オーブ新大阪フロンティアビル４０３号室,,27,123,5320012,,,,,,,2024-10-28,1,,,,,コンブリッジ,0
678,3120001269751,新規,0,2024-10-28,2024-10-28,株式会社Ｂｉａｒｒｉｚ,,株式会社,大阪府,大阪市城東区,今福東３丁目１番３４－１１０２号,,27,118,5360002,,,,,,,2024-10-28,1,,,,,ビアリッツ,0
685,3120901049955,新規,0,2024-10-28,2024-10-28,株式会社ｒｉｎｇ,,株式会社,大阪府,豊中市,新千里南町３丁目６番１－１５２３号,,27,203,5600084,,,,,,,2024-10-28,1,,,,,リング,0
687,3122003003023,新規,0,2024-10-28,2024-10-28,合同会社コクウ,,合同会社,大阪府,東大阪市,本町１番６号,,27,227,5798045,,,,,,,2024-10-28,1,,,,,コクウ,0
688,3130003009956,新規,0,2024-10-28,2024-10-28,Ｓｃｒｉｐｔｏ　Ｉｎｄｕｓｔｒｉｅｓ合同会社,,合同会社,京都府,京都市東山区,福稲御所ノ内町２Ｍｉｒｅｉ東福寺４１０,,26,105,6050987,,,,,,,2024-10-28,1,,,,,スクリプトインダストリーズ,0
695,3140001136223,新規,0,2024-10-28,2024-10-28,株式会社ユープランニング,,株式会社,兵庫県,神戸市中央区,中山手通２丁目１０番２－６０４号,,28,110,6500004,,,,,,,2024-10-28,1,,,,,ユープランニング,0
696,3140001136248,新規,0,2024-10-28,2024-10-28,株式会社Ｄ．ｖｏｌａｒｅ,,株式会社,兵庫県,神戸市中央区,北長狭通１丁目３番１４号蝶家ビル２Ｆ,,28,110,6500012,,,,,,,2024-10-28,1,,,,,ディーヴォラーレ,0
699,3140003021241,新規,0,2024-10-28,2024-10-28,合同会社紗春会,,合同会社,兵庫県,明石市,二見町西二見８８４番地の１３,,28,203,6740094,,,,,,,2024-10-28,1,,,,,サヤハカイ,0
700,3150001027628,新規,0,2024-10-28,2024-10-28,株式会社ＫＧ　ａｎｄ,,株式会社,奈良県,奈良市,芝辻町２丁目１１番７号大島ビル４Ｆ,00136774,29,201,6308114,,,,,,,2024-10-28,1,,,,,ケージーアンド,0
711,3180001163726,新規,0,2024-10-28,2024-10-28,株式会社ａｌｌ‐ｓ,,株式会社,愛知県,名古屋市中村区,名駅３丁目４番１０号アルティメイト名駅１ｓｔ２階,,23,105,4500002,,,,,,,2024-10-28,1,,,,,オールエス,0
712,3180001163750,新規,0,2024-10-28,2024-10-28,株式会社エープラス,,株式会社,愛知県,春日井市,鳥居松町５丁目９８番地ｌｉｂｅｒａｌ４０２号,,23,206,4860844,,,,,,,2024-10-28,1,,,,,エープラス,0
728,3220001026291,新規,0,2024-10-28,2024-10-28,株式会社ｅｍｐａｒｋ,,株式会社,石川県,加賀市,片山津温泉桜ケ丘４６番地１,,17,206,9220412,,,,,,,2024-10-28,1,,,,,エンパーク,0
731,3230003002323,新規,0,2024-10-28,2024-10-28,ＡＭ　Ｔｒａｄｉｎｇ合同会社,,合同会社,富山県,射水市,堀岡２４０‐４,,16,211,9330223,,,,,,,2024-10-28,1,,,,,エーエムトレーディング,0
734,3240001064001,新規,0,2024-10-28,2024-10-28,株式会社ヒューマンリンケージ,,株式会社,広島県,広島市南区,松原町３番２－１２０１号,,34,103,7320822,,,,,,,2024-10-28,1,,,,,ヒューマンリンケージ,0
737,3240003006918,新規,0,2024-10-28,2024-10-28,合同会社Ｐｉｏｎｎｅｒ,,合同会社,広島県,広島市南区,小磯町２番６０号,,34,103,7340064,,,,,,,2024-10-28,1,,,,,パイオニア,0
752,3290001107738,新規,0,2024-10-28,2024-10-28,株式会社ＦＳ１,,株式会社,福岡県,福岡市中央区,舞鶴３丁目１番１３－３０１号,,40,133,8100073,,,,,,,2024-10-28,1,,,,,エフエスワン,0
753,3290001107779,新規,0,2024-10-28,2024-10-28,株式会社ＹＳエンターテインメント,,株式会社,福岡県,福岡市博多区,博多駅前１丁目２３番２号ＰａｒｋＦｒｏｎｔ博多駅前１丁目５Ｆ－Ｂ,,40,132,8120011,,,,,,,2024-10-28,1,,,,,ワイエスエンターテインメント,0
756,3290003015988,新規,0,2024-10-28,2024-10-28,合同会社リキマツ,,合同会社,福岡県,福岡市博多区,神屋町１番３－４０１号,,40,132,8120022,,,,,,,2024-10-28,1,,,,,リキマツ,0
757,3290003015996,新規,0,2024-10-28,2024-10-28,ミトラ合同会社,,合同会社,福岡県,福岡市東区,唐原１丁目２番４５号,,40,131,8130001,,,,,,,2024-10-28,1,,,,,ミトラ,0
760,3310001019286,新規,0,2024-10-28,2024-10-28,株式会社ひいでるクレーン,,株式会社,長崎県,五島市,上大津町４２４番地５,,42,211,8530013,,,,,,,2024-10-28,1,,,,,ヒイデルクレーン,0
767,3360005007126,新規,0,2024-10-28,2024-10-28,ＮＰＯ法人あがいてぃーだ家,,その他の設立登記法人,沖縄県,那覇市,松尾１丁目３番３０－７０６号ソーワピア松尾台,,47,201,9000014,,,,,,,2024-10-28,1,,,,,アガイティーダヤー,0
778,3430001092949,新規,0,2024-10-28,2024-10-28,富良野土地株式会社,,株式会社,北海道,札幌市中央区,南八条西２２丁目４番１０号,,01,101,0640808,,,,,,,2024-10-28,1,,,,,フラノトチ,0
782,3430003016930,新規,0,2024-10-28,2024-10-28,合同会社ＴｏＢｅＣｏ．,,合同会社,北海道,札幌市北区,北十一条西３丁目２番２３－１２５号,,01,102,0010011,,,,,,,2024-10-28,1,,,,,トゥービーシーオードット,0
784,3430005015096,新規,0,2024-10-28,2024-10-28,一般社団法人ＥＢＥＴＳＵ　ＭＡＳＪＩＤ,,その他の設立登記法人,北海道,江別市,角山１７８番地３,,01,217,0670052,,,,,,,2024-10-28,1,,,,,エベツマスジド,0
787,3470001020435,新規,0,2024-10-28,2024-10-28,株式会社リユレ,,株式会社,香川県,仲多度郡琴平町,苗田９３４番地２,,37,403,7660005,,,,,,,2024-10-28,1,,,,,リユレ,0
788,3490001010896,新規,0,2024-10-28,2024-10-28,ＯＫＡＢＡＹＡＳＨＩ株式会社,,株式会社,高知県,高知市,神田１８０４－７,,39,201,7808040,,,,,,,2024-10-28,1,,,,,オカバヤシ,0
789,3700150127627,新規,0,2024-10-28,2024-10-28,Ｓｈｅｎｚｈｅｎ　Ｔｉｍｅｋｅｔｔｌｅ　Ｔｅｃｈｎｏｌｏｇｉｅｓ　Ｃｏ．，Ｌｔｄ．,,外国会社等,,,,,,,,Ｎａｎｓｈａｎｑｕ，Ｔａｏｙｕａｎｊｉｅｄａｏ，Ｐｉｎｇｓｈａｎｓｈｅｑｕ　Ｌｉｓｈａｎｌｕ６５ｈａｏ　Ｐｉｎｇｓｈａｎｍｉｎｑｉｋｅｊｉｙｕａｎ　４ｄｏｎｇ６１２　Ｓｈｅｎｚｈｅｎ,,,,,,2024-10-28,1,,,,,シンセンタイムケットルテクノロジーズカンパニーリミテッド,0
796,4010001249301,新規,0,2024-10-28,2024-10-28,株式会社ＧＯＬＤＮＲＵＳＨ,,株式会社,東京都,千代田区,神田松永町１３番地ＶＯＲＴ秋葉原ＩＩ,,13,101,1010023,,,,,,,2024-10-28,1,,,,,ゴールデンラッシュ,0
801,4010005039013,新規,0,2024-10-28,2024-10-28,スパルタンホールディングス一般社団法人,,その他の設立登記法人,東京都,中央区,日本橋１丁目４番１号,,13,102,1030027,,,,,,,2024-10-28,1,,,,,スパルタンホールディングス,0
805,4010401185864,新規,0,2024-10-28,2024-10-28,ＧＢＭ　ａｕｔｏ株式会社,,株式会社,東京都,港区,新橋２丁目２番５号新橋パイオニアビル３・４階,,13,103,1050004,,,,,,,2024-10-28,1,,,,,ジービーエムオート,0
806,4010401186004,新規,0,2024-10-28,2024-10-28,株式会社Ｃａｍａｒａｄｅｒｙ,,株式会社,東京都,港区,北青山１丁目３番１号アールキューブ青山３階,,13,103,1070061,,,,,,,2024-10-28,1,,,,,カマラドリ,0
807,4010401186037,新規,0,2024-10-28,2024-10-28,株式会社ＡＷＡＭＯＲＩ,,株式会社,東京都,港区,北青山３丁目６番２１号青山岡田ビル５階,,13,103,1070061,,,,,,,2024-10-28,1,,,,,アワモリ,0
816,4010601066179,新規,0,2024-10-28,2024-10-28,株式会社マーケティングインキュベイト,,株式会社,東京都,江東区,有明１丁目５番２号,,13,108,1350063,,,,,,,2024-10-28,1,,,,,マーケティングインキュベイト,0
818,4010701046725,新規,0,2024-10-28,2024-10-28,株式会社ティー・ビー・ブリッジ,,株式会社,東京都,品川区,上大崎２丁目２５－２新目黒東急ビル１０Ｆ,,13,109,1410021,,,,,,,2024-10-28,1,,,,,ティービーブリッジ,0
819,4010701046741,新規,0,2024-10-28,2024-10-28,株式会社ＳＰＲＩＮＧＢＥＬＬ,,株式会社,東京都,品川区,平塚２丁目２０番１号ｒｏｏｍｓＢ,,13,109,1420051,,,,,,,2024-10-28,1,,,,,スプリングベル,0
820,4010903009447,新規,0,2024-10-28,2024-10-28,ＣＳＡ合同会社,,合同会社,東京都,世田谷区,喜多見３丁目４番６１号,,13,112,1570067,,,,,,,2024-10-28,1,,,,,シーエスエー,0
828,4011001165182,新規,0,2024-10-28,2024-10-28,Ｓｈｕｎｋａｎ　ＡＩ株式会社,,株式会社,東京都,渋谷区,渋谷２丁目１９番１９号ワコー宮益坂ビル５階,,13,113,1500002,,,,,,,2024-10-28,1,,,,,シュンカンエーアイ,0
829,4011001165380,新規,0,2024-10-28,2024-10-28,株式会社ベルカ,,株式会社,東京都,渋谷区,代々木１丁目５４番１号ＹＳ．ＩビルＢ１Ｆ,,13,113,1510053,,,,,,,2024-10-28,1,,,,,ベルカ,0
830,4011005010715,新規,0,2024-10-28,2024-10-28,一般社団法人未来への架け橋,,その他の設立登記法人,東京都,渋谷区,初台１丁目５１番１号初台センタービル７０９号,,13,113,1510061,,,,,,,2024-10-28,1,,,,,ミライヘノカケハシ,0
833,4011101109361,新規,0,2024-10-28,2024-10-28,株式会社ｐｒｉｓｍ,,株式会社,東京都,新宿区,神楽坂６丁目３８番地３０５号,,13,104,1620825,,,,,,,2024-10-28,1,,,,,プリズム,0
834,4011103015112,新規,0,2024-10-28,2024-10-28,合同会社Ｉｎ　ｍｙ　Ｔ,,合同会社,東京都,新宿区,高田馬場３丁目３９－２４,,13,104,1690075,,,,,,,2024-10-28,1,,,,,インマイティー,0
836,4011203004510,新規,0,2024-10-28,2024-10-28,合同会社島田,,合同会社,東京都,中野区,中央１丁目３０‐２０ＳＴＵＤＩＯ‐Ｔ１０５,,13,114,1640011,,,,,,,2024-10-28,1,,,,,シマダ,0
839,4011303005326,新規,0,2024-10-28,2024-10-28,合同会社キープトラストグローバル,,合同会社,東京都,杉並区,久我山３丁目１１番２－９号,,13,115,1680082,,,,,,,2024-10-28,1,,,,,キープトラストグローバル,0
850,4012303002065,新規,0,2024-10-28,2024-10-28,合同会社ＹＵ‐Ｚ,,合同会社,東京都,町田市,木曽東４丁目６番３３３号,,13,209,1940036,,,,,,,2024-10-28,1,,,,,ユーズ,0
856,4012803003538,新規,0,2024-10-28,2024-10-28,Ｇｒｅａｔ　Ｐｙｒｅｎｅｅｓ　Ｘｉｎｇ合同会社,,合同会社,東京都,立川市,曙町３丁目２２－１５、１Ｆ,00136772,13,202,1900012,,,,,,,2024-10-28,1,,,,,グレートピレニーズクロッシング,0
859,4013301053265,新規,0,2024-10-28,2024-10-28,大創薬品株式会社,,株式会社,東京都,豊島区,高田１丁目１８－６－１１１０,,13,116,1710033,,,,,,,2024-10-28,1,,,,,ダイソーヤクヒン,0
872,4020001159540,新規,0,2024-10-28,2024-10-28,ネスクトモビリティソリューションズ株式会社,,株式会社,神奈川県,横浜市港北区,下田町２丁目１０－６１,,14,109,2230064,,,,,,,2024-10-28,1,,,,,ネスクトモビリティソリューションズ,0
873,4020001159755,新規,0,2024-10-28,2024-10-28,ＨＯＮＤＡ‐ＳＯＬＵＴＩＯＮＳ株式会社,,株式会社,神奈川県,横浜市神奈川区,西寺尾１丁目３０番４４号,,14,102,2210001,,,,,,,2024-10-28,1,,,,,ホンダソリューションズ,0
874,4020001159805,新規,0,2024-10-28,2024-10-28,池田興業株式会社,,株式会社,神奈川県,川崎市宮前区,五所塚１丁目１８番地６,,14,136,2160021,,,,,,,2024-10-28,1,,,,,イケダコウギョウ,0
879,4021001083615,新規,0,2024-10-28,2024-10-28,株式会社ＳＯＬＩＤ,,株式会社,神奈川県,小田原市,城山４丁目１番３号,,14,206,2500045,,,,,,,2024-10-28,1,,,,,ソリッド,0
880,4021003015153,新規,0,2024-10-28,2024-10-28,合同会社ライジング,,合同会社,神奈川県,厚木市,鳶尾２丁目２４番１－１０２号,,14,212,2430204,,,,,,,2024-10-28,1,,,,,ライジング,0
883,4021005013205,新規,0,2024-10-28,2024-10-28,一般社団法人日本ＣＯＨ研究会,,その他の設立登記法人,神奈川県,茅ヶ崎市,香川４丁目３０番２８号,,14,207,2530082,,,,,,,2024-10-28,1,,,,,ニホンシーオーエイチケンキュウカイ,0
891,4030001163153,新規,0,2024-10-28,2024-10-28,株式会社エイト,,株式会社,埼玉県,東松山市,若松町２丁目１３番２９号,,11,212,3550037,,,,,,,2024-10-28,1,,,,,エイト,0
895,4030003025384,新規,0,2024-10-28,2024-10-28,合同会社ハンド＆コム,,合同会社,埼玉県,さいたま市浦和区,本太１丁目４０番１１号,,11,107,3300052,,,,,,,2024-10-28,1,,,,,ハンドアンドコム,0
896,4030005021910,新規,0,2024-10-28,2024-10-28,ワールドアジア協同組合,,その他の設立登記法人,埼玉県,越谷市,赤山町３丁目１１１番地２,,11,222,3430807,,,,,,,2024-10-28,1,,,,,ワールドアジア,0
905,4050001055621,新規,0,2024-10-28,2024-10-28,株式会社ＣＡＢＩＮ,,株式会社,茨城県,水戸市,河和田町４７７番地の３,,08,201,3114153,,,,,,,2024-10-28,1,,,,,キャビン,0
909,4070001042312,新規,0,2024-10-28,2024-10-28,株式会社こころ,,株式会社,群馬県,前橋市,荒口町７５３番地１１,,10,201,3792107,,,,,,,2024-10-28,1,,,,,ココロ,0
910,4070003005630,新規,0,2024-10-28,2024-10-28,合同会社ＭＡＬＥＥ　ＣＥＹＬＯＮ,,合同会社,群馬県,桐生市,東久方町２丁目３番６号,,10,203,3760053,,,,,,,2024-10-28,1,,,,,マリーセイロン,0
914,4080401027531,新規,0,2024-10-28,2024-10-28,株式会社はるかぜ,,株式会社,静岡県,浜松市中央区,住吉３丁目１２番１３号クオーレ２０２,,22,138,4300906,,,,,,,2024-10-28,1,,,,,ハルカゼ,0
937,4120003027826,新規,0,2024-10-28,2024-10-28,宸晨合同会社,,合同会社,大阪府,大阪市生野区,新今里６丁目３番１０号エクラ新今里１０３,,27,116,5440001,,,,,,,2024-10-28,1,,,,,シンシン,0
938,4120003027834,新規,0,2024-10-28,2024-10-28,合同会社前原企画,,合同会社,大阪府,大阪市淀川区,西三国４丁目６番２０Ｌｕｘｅ三国駅前６１４,,27,123,5320006,,,,,,,2024-10-28,1,,,,,マエハラキカク,0
939,4120003027850,新規,0,2024-10-28,2024-10-28,合同会社ケアハート,,合同会社,大阪府,大阪市西成区,橘３丁目４番９号１階,,27,122,5570051,,,,,,,2024-10-28,1,,,,,ケアハート,0
941,4120901049954,新規,0,2024-10-28,2024-10-28,株式会社ＨＡＬ　ＤＥＳＩＧＮ,,株式会社,大阪府,茨木市,南春日丘７丁目１番１３号,,27,211,5670046,,,,,,,2024-10-28,1,,,,,ハルデザイン,0
950,4130001078218,新規,0,2024-10-28,2024-10-28,株式会社ヒトデライト,,株式会社,京都府,京都市伏見区,竹田七瀬川町６６番地,,26,109,6128422,,,,,,,2024-10-28,1,,,,,ヒトデライト,0
957,4140001136230,新規,0,2024-10-28,2024-10-28,株式会社Ａ　ＫＮＯＴ,,株式会社,兵庫県,尼崎市,塚口本町６丁目１０番８号,,28,202,6610001,,,,,,,2024-10-28,1,,,,,,0
964,4180001163717,新規,0,2024-10-28,2024-10-28,株式会社ブライトン,,株式会社,愛知県,名古屋市中区,栄５丁目２７番１２号ＡＩＧ名古屋ビル６階,,23,106,4600008,,,,,,,2024-10-28,1,,,,,ブライトン,0
965,4180001163741,新規,0,2024-10-28,2024-10-28,ＭＣＳプロジェクト株式会社,,株式会社,愛知県,名古屋市北区,大曽根３丁目４番１４号ポルト大曽根１４０４号,,23,103,4620825,,,,,,,2024-10-28,1,,,,,エムシーエスプロジェクト,0
971,4180303006326,新規,0,2024-10-28,2024-10-28,ＱＵＥＳＴ合同会社,,合同会社,愛知県,豊橋市,東幸町字東明２９－１－Ａ１０１,,23,201,4400843,,,,,,,2024-10-28,1,,,,,クエスト,0
975,4200001043073,新規,0,2024-10-28,2024-10-28,株式会社家具工房クラフト,,株式会社,岐阜県,大垣市,築捨町５丁目９３番地,,21,202,5030854,,,,,,,2024-10-28,1,,,,,カグコウボウクラフト,0
983,4240001064000,新規,0,2024-10-28,2024-10-28,グランドオーシャン株式会社,,株式会社,広島県,広島市安佐北区,口田１丁目１７番１８－５０２号,,34,106,7391734,,,,,,,2024-10-28,1,,,,,グランドオーシャン,0
991,4280003001889,新規,0,2024-10-28,2024-10-28,合同会社中村屋,,合同会社,島根県,松江市,美保関町北浦３１５番地,,32,201,6901221,,,,,,,2024-10-28,1,,,,,ナカムラヤ,0
1000,4290003015979,新規,0,2024-10-28,2024-10-28,合同会社ＮＩＮＥ　ＳＴＥＥＤ,,合同会社,福岡県,福岡市博多区,大博町１１番３１－１１０２号,,40,132,8120033,,,,,,,2024-10-28,1,,,,,ナインスティード,0
1001,4290003015987,新規,0,2024-10-28,2024-10-28,合同会社ＫＳ３,,合同会社,福岡県,福岡市東区,香椎駅東３丁目２４－６,,40,131,8130012,,,,,,,2024-10-28,1,,,,,ケイエススリー,0
1011,4330001032583,新規,0,2024-10-28,2024-10-28,株式会社ａｉｄｅｒ,,株式会社,熊本県,熊本市南区,出仲間１丁目１０－２５,,43,104,8620963,,,,,,,2024-10-28,1,,,,,エイデ,0
1015,4340001026873,新規,0,2024-10-28,2024-10-28,株式会社ラッカン,,株式会社,鹿児島県,鹿屋市,寿８丁目１１－２５,,46,203,8930014,,,,,,,2024-10-28,1,,,,,ラッカン,0
1016,4340001026881,新規,0,2024-10-28,2024-10-28,株式会社坪建,,株式会社,鹿児島県,鹿屋市,高牧町１５３９８番地１５,,46,203,8930066,,,,,,,2024-10-28,1,,,,,ツボケン,0
1020,4350001019249,新規,0,2024-10-28,2024-10-28,株式会社マルマーノ,,株式会社,宮崎県,宮崎市,大橋１丁目９７番地２,,45,201,8800022,,,,,,,2024-10-28,1,,,,,マルマーノ,0
1023,4360001034370,新規,0,2024-10-28,2024-10-28,株式会社デンテックジャパン,,株式会社,沖縄県,浦添市,字経塚６００番地２階,,47,208,9012111,,,,,,,2024-10-28,1,,,,,デンテックジャパン,0
1024,4360001034379,新規,0,2024-10-28,2024-10-28,株式会社めぐむ,,株式会社,沖縄県,糸満市,字阿波根６６番地の８,,47,210,9010301,,,,,,,2024-10-28,1,,,,,メグム,0
1046,4480003002198,新規,0,2024-10-28,2024-10-28,合同会社ＦＩＫＡ,,合同会社,徳島県,小松島市,金磯町１３番５６－８号,,36,203,7730007,,,,,,,2024-10-28,1,,,,,フィーカ,0
1049,4490001010895,新規,0,2024-10-28,2024-10-28,株式会社ＫＩｔＴＡ,,株式会社,高知県,高知市,南河ノ瀬町１番地２,,39,201,7808034,,,,,,,2024-10-28,1,,,,,キタ,0
1050,4500001025958,新規,0,2024-10-28,2024-10-28,株式会社エンジェル補聴器,,株式会社,愛媛県,八幡浜市,旧港１５６９番地１４,,38,204,7960046,,,,,,,2024-10-28,1,,,,,エンジェルホチョウキ,0
1052,4700150127626,新規,0,2024-10-28,2024-10-28,Ｈｏｎｇ　Ｋｏｎｇ　Ｋａｎｇｇｕａｎ　Ｔｅｃｈｎｏｌｏｇｙ　Ｃｏ．，Ｌｉｍｉｔｅｄ,,外国会社等,,,,,,,,ＷＯＲＫＳＨＯＰ　２＆３　２５／Ｆ，ＯＲＩＥＮＴ　ＩＮＴＬ　ＴＯＷＥＲ　ＮＯ．１０１８　ＴＡＩ　ＮＡＮ　ＷＥＳＴ　ＳＴ，ＣＨＥＵＮＧ　ＳＨＡ　ＷＡＮ，ＫＬ，ＨＯＮＧ　ＫＯＮＧ,,,,,,2024-10-28,1,,,,,ホンコンカングアンテクノロジーカンパニーリミテッド,0
1057,5010001249399,新規,0,2024-10-28,2024-10-28,株式会社ＶＶＪ　ＭＡＮＡＧＥＭＥＮＴ,,株式会社,東京都,千代田区,永田町２丁目１７番１７号,,13,101,1000014,,,,,,,2024-10-28,1,,,,,ブイブイジェイマネージメント,0
1058,5010001249416,新規,0,2024-10-28,2024-10-28,株式会社ＤｕｂＧｕｉｌｄ,,株式会社,東京都,文京区,向丘２丁目３－１０東大前ＨｉＲＡＫＵＧＡＴＥ,,13,105,1130023,,,,,,,2024-10-28,1,,,,,ダブギルド,0
1059,5010003045301,新規,0,2024-10-28,2024-10-28,Ｋａｒｍａ　Ｇｌｏｂａｌ合同会社,,合同会社,東京都,千代田区,九段南２丁目６－１３ビラハイツ北の丸３０７号室,,13,101,1020074,,,,,,,2024-10-28,1,,,,,カルマグローバル,0
1060,5010005039012,新規,0,2024-10-28,2024-10-28,Ｎ‐ＯＨ１ホールディングス一般社団法人,,その他の設立登記法人,東京都,中央区,日本橋１丁目４番１号,,13,102,1030027,,,,,,,2024-10-28,1,,,,,エヌオーエイチワン,0
1073,5010401185979,新規,0,2024-10-28,2024-10-28,株式会社Ｒｅ　ＢＬＡＣＫ,,株式会社,東京都,港区,南青山２丁目６番１２号,,13,103,1070062,,,,,,,2024-10-28,1,,,,,リーブラック,0
1074,5010401186003,新規,0,2024-10-28,2024-10-28,株式会社Ａｕｔｈｅｎｔｉｃ,,株式会社,東京都,港区,北青山１丁目３番１号アールキューブ青山３階,,13,103,1070061,,,,,,,2024-10-28,1,,,,,オーセンティック,0
1092,5010501053078,新規,0,2024-10-28,2024-10-28,株式会社ＮＹＡ,,株式会社,東京都,台東区,浅草２丁目３番３号,,13,106,1110032,,,,,,,2024-10-28,1,,,,,エヌワイエー,0
1094,5010901056218,新規,0,2024-10-28,2024-10-28,株式会社メドナレッジラボ,,株式会社,東京都,世田谷区,代沢５丁目１９－１２ＷＡＶＩＡＳＨＩＭＯＫＩＴＡＺＡＷＡ２Ｆ・３Ｆ,,13,112,1550032,,,,,,,2024-10-28,1,,,,,メドナレッジラボ,0
1097,5011001165470,新規,0,2024-10-28,2024-10-28,株式会社Ｒｉｎｅａ,,株式会社,東京都,目黒区,青葉台１丁目３０番９号,,13,110,1530042,,,,,,,2024-10-28,1,,,,,リネア,0
1098,5011001165504,新規,0,2024-10-28,2024-10-28,株式会社ｔａｉｚｉｉｉアパレル,,株式会社,東京都,渋谷区,神宮前１丁目４番２０号パークコート神宮前９１４,,13,113,1500001,,,,,,,2024-10-28,1,,,,,タイジーアパレル,0
1099,5011001165520,新規,0,2024-10-28,2024-10-28,株式会社ＡＩ求人作成くん,,株式会社,東京都,渋谷区,恵比寿南１丁目１９番１１号,,13,113,1500022,,,,,,,2024-10-28,1,,,,,エーアイキュウジンサクセイクン,0
1100,5011003020260,新規,0,2024-10-28,2024-10-28,合同会社結翔,,合同会社,東京都,目黒区,中目黒１丁目９番２２－５０４号,,13,110,1530061,,,,,,,2024-10-28,1,,,,,ユイト,0
1108,5011303005325,新規,0,2024-10-28,2024-10-28,合同会社ＢＡＲＮＥＲ,,合同会社,東京都,杉並区,下高井戸１丁目２２番５号吉岡貸店舗１Ｆ,,13,115,1680073,,,,,,,2024-10-28,1,,,,,バーナー,0
1114,5012701018513,新規,0,2024-10-28,2024-10-28,株式会社リバストーン,,株式会社,東京都,東村山市,野口町２丁目２３番地１２,,13,213,1890022,,,,,,,2024-10-28,1,,,,,リバストーン,0
1116,5012801023512,新規,0,2024-10-28,2024-10-28,株式会社燕,,株式会社,東京都,日野市,高幡二丁目１１番森久保ビル２０１,,13,212,1910031,,,,,,,2024-10-28,1,,,,,エン,0
1117,5013101009549,新規,0,2024-10-28,2024-10-28,Ｎ‐ｓｔｒｕｃｔ株式会社,,株式会社,東京都,青梅市,小曾木４丁目２７７６番地８,,13,205,1980003,,,,,,,2024-10-28,1,,,,,エヌストラクト,0
1135,5020001159746,新規,0,2024-10-28,2024-10-28,Ｓ．Ｑｕｂｅ株式会社,,株式会社,神奈川県,横浜市保土ケ谷区,権太坂３丁目３番１号,,14,106,2400026,,,,,,,2024-10-28,1,,,,,エスキューブ,0
1136,5020001159787,新規,0,2024-10-28,2024-10-28,株式会社未来さいぼう工房,,株式会社,神奈川県,横浜市中区,花咲町１丁目４８番３号ロゼ桜木町４０６号,,14,104,2310063,,,,,,,2024-10-28,1,,,,,ミライサイボウコウボウ,0
1137,5020001159795,新規,0,2024-10-28,2024-10-28,もったいない株式会社,,株式会社,神奈川県,横浜市泉区,新橋町９０３番地,,14,116,2450009,,,,,,,2024-10-28,1,,,,,モッタイナイ,0
1138,5020001159804,新規,0,2024-10-28,2024-10-28,株式会社流動,,株式会社,神奈川県,川崎市川崎区,日ノ出１丁目１５番２号－１０１,,14,131,2100824,,,,,,,2024-10-28,1,,,,,リュウドウ,0
1139,5020001159812,新規,0,2024-10-28,2024-10-28,株式会社コレガレ,,株式会社,神奈川県,横浜市青葉区,鴨志田町８１６－５６,,14,117,2270033,,,,,,,2024-10-28,1,,,,,コレガレ,0
1140,5020001159911,新規,0,2024-10-28,2024-10-28,株式会社キャリースルー,,株式会社,神奈川県,横浜市西区,浅間町１丁目４番３号ウィザードビル４０２,,14,103,2200072,,,,,,,2024-10-28,1,,,,,キャリースルー,0
1145,5021001083622,新規,0,2024-10-28,2024-10-28,日希株式会社,,株式会社,神奈川県,藤沢市,大鋸２丁目７番５～３号,,14,205,2510002,,,,,,,2024-10-28,1,,,,,ニッキ,0
1149,5021003015094,新規,0,2024-10-28,2024-10-28,合同会社お家の介護,,合同会社,神奈川県,鎌倉市,小袋谷２丁目１５－３９,,14,204,2470055,,,,,,,2024-10-28,1,,,,,オウチノカイゴ,0
1160,5030001163020,新規,0,2024-10-28,2024-10-28,株式会社デジタルラボみなの,,株式会社,埼玉県,秩父郡皆野町,大字大渕２３４,,11,362,3691623,,,,,,,2024-10-28,1,,,,,デジタルラボミナノ,0
1161,5030001163136,新規,0,2024-10-28,2024-10-28,中瑞隆金属株式会社,,株式会社,埼玉県,幸手市,大字惣新田１０４２番地１,,11,240,3400133,,,,,,,2024-10-28,1,,,,,チュウズイリュウキンゾク,0
1162,5030001163144,新規,0,2024-10-28,2024-10-28,テイコクシロアリ株式会社,,株式会社,埼玉県,さいたま市岩槻区,加倉４丁目２１番１６－５号,,11,110,3390056,,,,,,,2024-10-28,1,,,,,テイコクシロアリ,0
1163,5030001163160,新規,0,2024-10-28,2024-10-28,旭升株式会社,,株式会社,埼玉県,川口市,芝１丁目２－８アレックス都１０３,,11,203,3330866,,,,,,,2024-10-28,1,,,,,アサヒマス,0
1164,5030001163193,新規,0,2024-10-28,2024-10-28,ＮｎｎＢ株式会社,,株式会社,埼玉県,所沢市,大字北秋津７７６番地１０,,11,208,3590038,,,,,,,2024-10-28,1,,,,,エヌエヌエヌビー,0
1171,5030003025383,新規,0,2024-10-28,2024-10-28,合同会社ＴＵＲＴＬＥ　ＲＵＮ,,合同会社,埼玉県,草加市,青柳２丁目２２番１５号,,11,221,3400002,,,,,,,2024-10-28,1,,,,,タートルラン,0
1180,5070001042311,新規,0,2024-10-28,2024-10-28,みなかみミライ株式会社,,株式会社,群馬県,利根郡みなかみ町,須川９９０番地１,,10,449,3791418,,,,,,,2024-10-28,1,,,,,ミナカミミライ,0
1182,5080003003319,新規,0,2024-10-28,2024-10-28,合同会社Ｃａｓｉｔａ,,合同会社,静岡県,静岡市清水区,中之郷１丁目７－４,,22,103,4240888,,,,,,,2024-10-28,1,,,,,,0
1210,5120003027825,新規,0,2024-10-28,2024-10-28,ＳＯＬＵＭ合同会社,,合同会社,大阪府,大阪市浪速区,元町１丁目３番１２－１１０１号,,27,111,5560016,,,,,,,2024-10-28,1,,,,,ソルム,0
1211,5120003027833,新規,0,2024-10-28,2024-10-28,合同会社ワタナベ企画,,合同会社,大阪府,大阪市東成区,深江北１丁目１番３号深江橋プラザ６０２号,,27,115,5370001,,,,,,,2024-10-28,1,,,,,ワタナベキカク,0
1223,5140001136221,新規,0,2024-10-28,2024-10-28,株式会社Ｈａｐｐｉｎｅｓｓ,,株式会社,兵庫県,加古川市,平荘町山角４３１番地の４,,28,210,6751221,,,,,,,2024-10-28,1,,,,,ハピネス,0
1224,5140001136246,新規,0,2024-10-28,2024-10-28,株式会社クローバー,,株式会社,兵庫県,加古川市,尾上町安田５５９番地の１４,,28,210,6750021,,,,,,,2024-10-28,1,,,,,クローバー,0
1225,5140001136254,新規,0,2024-10-28,2024-10-28,株式会社ｈｉｍｅｋｕｒｉ,,株式会社,兵庫県,西宮市,甲陽園西山町１番５６－２０１号,,28,204,6620017,,,,,,,2024-10-28,1,,,,,ヒメクリ,0
1231,5150001027626,新規,0,2024-10-28,2024-10-28,株式会社杉本メディカルサービス,,株式会社,奈良県,奈良市,中辻町６９番地,00136773,29,201,6308315,,,,,,,2024-10-28,1,,,,,スギモトメディカルサービス,0
1232,5160001026313,新規,0,2024-10-28,2024-10-28,株式会社ｂｕｄｄｙ,,株式会社,滋賀県,草津市,野路１丁目１４－３８－３０３,,25,206,5250059,,,,,,,2024-10-28,1,,,,,バディ,0
1244,5180001163765,新規,0,2024-10-28,2024-10-28,株式会社ＯＮＥ,,株式会社,愛知県,一宮市,千秋町浮野字陽受５４番地１,,23,203,4910806,,,,,,,2024-10-28,1,,,,,ワン,0
1245,5180001163906,新規,0,2024-10-28,2024-10-28,株式会社ササハラ,,株式会社,愛知県,名古屋市守山区,大字上志段味字東谷２０８６－２２２,,23,113,4630001,,,,,,,2024-10-28,1,,,,,ササハラ,0
1250,5180003027506,新規,0,2024-10-28,2024-10-28,合同会社Ｓｈｉｎｅ,,合同会社,愛知県,名古屋市名東区,若葉台６０４番地の１,,23,115,4650015,,,,,,,2024-10-28,1,,,,,シャイン,0
1271,5260001039569,新規,0,2024-10-28,2024-10-28,株式会社ふぉれすと,,株式会社,岡山県,新見市,新見２０５６番地１５,,33,210,7180011,,,,,,,2024-10-28,1,,,,,フォレスト,0
1272,5260003004942,新規,0,2024-10-28,2024-10-28,合同会社Ａｍｂｉｔｉｏｎ,,合同会社,岡山県,岡山市中区,徳吉町２丁目１番５－２号,,33,102,7038291,,,,,,,2024-10-28,1,,,,,アンビション,0
1275,5290001107752,新規,0,2024-10-28,2024-10-28,株式会社松田内装,,株式会社,福岡県,春日市,下白水北１丁目４８番地エルグランド春日６０４号,,40,218,8160854,,,,,,,2024-10-28,1,,,,,マツダナイソウ,0
1276,5290001107760,新規,0,2024-10-28,2024-10-28,株式会社トレーラーハウス買取センター,,株式会社,福岡県,春日市,伯玄町２丁目２７番地１パークノヴァ春日中央６０４号,,40,218,8160825,,,,,,,2024-10-28,1,,,,,トレーラーハウスカイトリセンター,0
1277,5290001107785,新規,0,2024-10-28,2024-10-28,株式会社ｃｏｃｏ,,株式会社,福岡県,福岡市早良区,飯倉４丁目３８番４号,,40,137,8140161,,,,,,,2024-10-28,1,,,,,ココ,0
1280,5290003015978,新規,0,2024-10-28,2024-10-28,合同会社Ｉｎｎｅｒ　Ｌｉｇｈｔ　Ｃｏｍｐａｎｙ,,合同会社,福岡県,福岡市東区,和白５丁目１番４２－５１６号,,40,131,8110202,,,,,,,2024-10-28,1,,,,,インナーライトカンパニー,0
1287,5310001019284,新規,0,2024-10-28,2024-10-28,株式会社ＯＳＡＫＩ,,株式会社,長崎県,南島原市,口之津町丙２０９２番地９,,42,214,8592504,,,,,,,2024-10-28,1,,,,,オオサキ,0
1292,5340001026889,新規,0,2024-10-28,2024-10-28,株式会社ＮＥＸＳＩＡ,,株式会社,鹿児島県,薩摩川内市,祁答院町上手３８０７番地２,00136789,46,215,8951503,,,,,,,2024-10-28,1,,,,,ネクシア,0
1296,5360001034378,新規,0,2024-10-28,2024-10-28,株式会社ライフテックＨＤ,,株式会社,沖縄県,中頭郡西原町,字棚原７８１番地,,47,329,9030126,,,,,,,2024-10-28,1,,,,,ライフテックエイチディ,0
1297,5360005007124,新規,0,2024-10-28,2024-10-28,一般社団法人キャプテンタイソン,,その他の設立登記法人,沖縄県,沖縄市,諸見里２丁目２番４号,,47,211,9040032,,,,,,,2024-10-28,1,,,,,キャプテンタイソン,0
1310,5430001092939,新規,0,2024-10-28,2024-10-28,Ｎｗｏｒｋｓ株式会社,,株式会社,北海道,札幌市北区,新琴似三条１１丁目１番２４号,,01,102,0010903,,,,,,,2024-10-28,1,,,,,エヌワークス,0
1311,5430001092947,新規,0,2024-10-28,2024-10-28,株式会社寿響,,株式会社,北海道,札幌市中央区,南四条西５丁目４－１シャンゼリゼビル７Ｆ,,01,101,0640804,,,,,,,2024-10-28,1,,,,,ジュキョウ,0
1320,5700150127625,新規,0,2024-10-28,2024-10-28,ＨＯＮＧ　ＫＯＮＧ　ＶＩＳＩＯＮ　ＶＥＲＳＥ　ＣＯ．，ＬＩＭＩＴＥＤ,,外国会社等,,,,,,,,ＡＲＥＡ　Ｂ　ＵＮＩＴ　２５０２／３，２５／Ｆ，ＯＲＩＥＮＴ　ＩＮＴＥＲＮＡＴＩＯＮＡＬ　ＴＯＷＥＲ，ＮＯ．１０１８，ＴＡＩ　ＮＡＮ　ＷＥＳＴ　ＳＴＲＥＥＴ，ＨＫ,,,,,,2024-10-28,1,,,,,ホンコンビジョンバースカンパニーリミテッド,0
1330,6010001249398,新規,0,2024-10-28,2024-10-28,株式会社レスパルダ,,株式会社,東京都,中央区,銀座１丁目２２番１１号銀座大竹ビジデンス２Ｆ,,13,102,1040061,,,,,,,2024-10-28,1,,,,,レスパルダ,0
1331,6010001249423,新規,0,2024-10-28,2024-10-28,株式会社マリエル,,株式会社,東京都,中央区,銀座１丁目１２番４号Ｎ＆ＥＢＬＤ．６Ｆ,,13,102,1040061,,,,,,,2024-10-28,1,,,,,マリエル,0
1345,6010401185978,新規,0,2024-10-28,2024-10-28,株式会社ＲｉＺＺ,,株式会社,東京都,港区,六本木３丁目１６番１３号アンバサダー六本木１１０１号室,,13,103,1060032,,,,,,,2024-10-28,1,,,,,リズ,0
1346,6010401186035,新規,0,2024-10-28,2024-10-28,株式会社ＣＨＲＯＮＯＳ,,株式会社,東京都,港区,赤坂３丁目７番１７号ＵＦビルＩＩ２階,00136782,13,103,1070052,,,,,,,2024-10-28,1,,,,,クロノス,0
1353,6010405023721,新規,0,2024-10-28,2024-10-28,一般社団法人サンフラワー１号,,その他の設立登記法人,東京都,港区,西新橋１丁目１８番地１７明産西新橋ビル３Ｆ,,13,103,1050003,,,,,,,2024-10-28,1,,,,,サンフラワーイチゴウ,0
1355,6010601066169,新規,0,2024-10-28,2024-10-28,株式会社もみじ,,株式会社,東京都,墨田区,向島５丁目４８番１１号,,13,107,1310033,,,,,,,2024-10-28,1,,,,,モミジ,0
1360,6010903009437,新規,0,2024-10-28,2024-10-28,合同会社マリオマンダラ,,合同会社,東京都,世田谷区,松原３丁目２７番１８号松原３２７ハウス１０５,,13,112,1560043,,,,,,,2024-10-28,1,,,,,マリオマンダラ,0
1363,6011001165445,新規,0,2024-10-28,2024-10-28,Ｃｙｒｉｎｘ株式会社,,株式会社,東京都,渋谷区,千駄ヶ谷１丁目１３番１５号,,13,113,1510051,,,,,,,2024-10-28,1,,,,,シリンクス,0
1364,6011001165453,新規,0,2024-10-28,2024-10-28,株式会社オークマークス,,株式会社,東京都,目黒区,上目黒２丁目１６番１４号,,13,110,1530051,,,,,,,2024-10-28,1,,,,,オークマークス,0
1365,6011001165536,新規,0,2024-10-28,2024-10-28,株式会社御の字,,株式会社,東京都,目黒区,自由が丘２丁目１４番２０号第七千陽ビル２階,,13,110,1520035,,,,,,,2024-10-28,1,,,,,オンノジ,0
1366,6011003020061,新規,0,2024-10-28,2024-10-28,合同会社Ｋ　Ｔｒｕｃｋ　Ｊａｐａｎ,,合同会社,東京都,渋谷区,松濤２丁目１３－１０,,13,113,1500046,,,,,,,2024-10-28,1,,,,,ケートラックジャパン,0
1367,6011003020243,新規,0,2024-10-28,2024-10-28,合同会社ＭＥＷ,,合同会社,東京都,渋谷区,神宮前６丁目２３番４号桑野ビル２階,,13,113,1500001,,,,,,,2024-10-28,1,,,,,ミュウ,0
1368,6011101109285,新規,0,2024-10-28,2024-10-28,株式会社那月企画,,株式会社,東京都,新宿区,新宿２丁目１６番８号新宿北斗ビル３階,,13,104,1600022,,,,,,,2024-10-28,1,,,,,ナツキキカク,0
1369,6011101109293,新規,0,2024-10-28,2024-10-28,株式会社東京インターナショナル教育,,株式会社,東京都,新宿区,高田馬場２丁目１４－２新陽ビル２Ｆ,,13,104,1690075,,,,,,,2024-10-28,1,,,,,トウキョウインターナショナルキョウイク,0
1371,6011103015127,新規,0,2024-10-28,2024-10-28,合同会社ＭＡＳＳＩＶＥＲＢ,,合同会社,東京都,新宿区,市谷加賀町２丁目３－１６山本ビルＢ１,,13,104,1620062,,,,,,,2024-10-28,1,,,,,マッシバーブ,0
1376,6011601028150,新規,0,2024-10-28,2024-10-28,株式会社ＷＡＯＵ,,株式会社,東京都,練馬区,大泉学園町７丁目１０番１６－４０１号,,13,120,1780061,,,,,,,2024-10-28,1,,,,,ワオウ,0
1381,6012303002063,新規,0,2024-10-28,2024-10-28,Ｆｏｏｄ・ＲＡＣ合同会社,,合同会社,東京都,町田市,広袴３丁目８番地１７,,13,209,1950056,,,,,,,2024-10-28,1,,,,,フードラック,0
1383,6012403006815,新規,0,2024-10-28,2024-10-28,合同会社Ｐｅａｃｅｆｕｌ　Ｃｏｌｌａｂｏｒａｔｉｏｎ,,合同会社,東京都,狛江市,岩戸南３丁目３番９号,,13,219,2010005,,,,,,,2024-10-28,1,,,,,ピースフルコラボレーション,0
1397,6020001159761,新規,0,2024-10-28,2024-10-28,株式会社ジーエムコーポレーション,,株式会社,神奈川県,横浜市中区,扇町３丁目８番地７三平ビル３０２号室,,14,104,2310027,,,,,,,2024-10-28,1,,,,,ジーエムコーポレーション,0
1398,6020001159794,新規,0,2024-10-28,2024-10-28,株式会社満皿,,株式会社,神奈川県,横浜市青葉区,荏田町１４０９番地,,14,117,2250013,,,,,,,2024-10-28,1,,,,,マンザラ,0
1399,6020001159803,新規,0,2024-10-28,2024-10-28,株式会社Ａｕｒｉｓｔａ,,株式会社,神奈川県,川崎市中原区,新丸子町７６８番地新和ビル３０２,,14,133,2110005,,,,,,,2024-10-28,1,,,,,アウリスタ,0
1400,6020001159910,新規,0,2024-10-28,2024-10-28,株式会社ＯＲＩＥＮＳ,,株式会社,神奈川県,横浜市港北区,篠原東３丁目８―２０―２,,14,109,2220022,,,,,,,2024-10-28,1,,,,,オリエンス,0
1406,6020003027132,新規,0,2024-10-28,2024-10-28,合同会社セイントジャパン,,合同会社,神奈川県,川崎市川崎区,藤崎４丁目５番９－３号,,14,131,2100804,,,,,,,2024-10-28,1,,,,,セイントジャパン,0
1408,6021001083571,新規,0,2024-10-28,2024-10-28,Ｇｒａｐｈｉｃｓ　Ｓｏｌｕｔｉｏｎｓ株式会社,,株式会社,神奈川県,平塚市,東豊田４８０番地の２８,,14,203,2540082,,,,,,,2024-10-28,1,,,,,グラフィックスソリューションズ,0
1409,6021001083638,新規,0,2024-10-28,2024-10-28,株式会社Ｃｌｉｎｉｃ　Ｒａｎｃｈ,,株式会社,神奈川県,藤沢市,湘南台６丁目４番地の２８,,14,205,2520804,,,,,,,2024-10-28,1,,,,,クリニックランチ,0
1420,6030001163151,新規,0,2024-10-28,2024-10-28,株式会社エムサンクチュアリ,,株式会社,埼玉県,春日部市,南３丁目１番２５号,,11,214,3440064,,,,,,,2024-10-28,1,,,,,エムサンクチュアリ,0
1428,6030005021909,新規,0,2024-10-28,2024-10-28,医療法人ＩＤＯ,,その他の設立登記法人,埼玉県,蕨市,錦町１丁目１２番１号ビバモール蕨錦町メディカルゾーン,,11,223,3350005,,,,,,,2024-10-28,1,,,,,アイディーオー,0
1444,6070001042302,新規,0,2024-10-28,2024-10-28,株式会社サイドステージ,,株式会社,群馬県,富岡市,富岡４９７番地２,,10,210,3702316,,,,,,,2024-10-28,1,,,,,サイドステージ,0
1445,6070001042310,新規,0,2024-10-28,2024-10-28,株式会社Ｒｅｖｅ,,株式会社,群馬県,前橋市,富士見町田島７８３番地１４,,10,201,3710114,,,,,,,2024-10-28,1,,,,,レーヴ,0
1455,6100001037959,新規,0,2024-10-28,2024-10-28,株式会社ずん,,株式会社,長野県,松本市,中央１丁目２番１６号優きビル１Ｆ,,20,202,3900811,,,,,,,2024-10-28,1,,,,,ズン,0
1461,6110001038799,新規,0,2024-10-28,2024-10-28,株式会社コバヨウホールディングス,,株式会社,新潟県,新潟市中央区,東大通１丁目４番５号日生不動産新潟駅前ビル６階,,15,103,9500087,,,,,,,2024-10-28,1,,,,,コバヨウホールディングス,0
1474,6120001269625,新規,0,2024-10-28,2024-10-28,株式会社ＣＲＥＳＣＥＮＴ,,株式会社,大阪府,守口市,本町２丁目５番１８号守口ＣＩＤビル１階,,27,209,5700028,,,,,,,2024-10-28,1,,,,,クレセント,0
1475,6120001269708,新規,0,2024-10-28,2024-10-28,ラブアンドライト‐ノア株式会社,,株式会社,大阪府,大阪市中央区,久宝寺町三丁目６番１号本町南ガーデンシティ７階,,27,128,5390000,,,,,,,2024-10-28,1,,,,,ラブアンドライトノア,0
1476,6120001269724,新規,0,2024-10-28,2024-10-28,株式会社サンシャイン,,株式会社,大阪府,大阪市西淀川区,野里１丁目１番６号４０２号室,,27,113,5550024,,,,,,,2024-10-28,1,,,,,サンシャイン,0
1477,6120001269732,新規,0,2024-10-28,2024-10-28,株式会社上智学園,,株式会社,大阪府,大阪市中央区,谷町２丁目１番２２号Ｆａｉｒｓｔａｇｅ大手前ビル９０２室,,27,128,5400012,,,,,,,2024-10-28,1,,,,,ジョウチガクエン,0
1478,6120001269740,新規,0,2024-10-28,2024-10-28,森瀧株式会社,,株式会社,大阪府,大阪市港区,市岡元町２丁目６番１１－３０１号,,27,107,5520002,,,,,,,2024-10-28,1,,,,,モリタキ,0
1479,6120001269757,新規,0,2024-10-28,2024-10-28,株式会社大泉電設,,株式会社,大阪府,門真市,月出町１９番２７番,,27,223,5710052,,,,,,,2024-10-28,1,,,,,オオイズミデンセツ,0
1493,6140001136237,新規,0,2024-10-28,2024-10-28,株式会社Ｍａｔｒｉｃａｒｉａ,,株式会社,兵庫県,神戸市垂水区,下畑町４８７番地の２ラフィーネ林ＩＩＩ２０６号,00136787,28,108,6550861,,,,,,,2024-10-28,1,,,,,マトリカリア,0
1494,6140001136245,新規,0,2024-10-28,2024-10-28,＿＿株式会社,00136781,株式会社,兵庫県,神戸市中央区,楠町１丁目３番６号,,28,110,6500017,,,,,,,2024-10-28,1,,,,,ユウキン,0
1505,6160001026295,新規,0,2024-10-28,2024-10-28,株式会社フライングキャタピラー一級建築士事務所,,株式会社,滋賀県,守山市,今浜町２５３０番地１,,25,207,5240101,,,,,,,2024-10-28,1,,,,,フライングキャタピラーイッキュウケンチクシジムショ,0
1506,6160001026312,新規,0,2024-10-28,2024-10-28,株式会社ＣＬＳ,,株式会社,滋賀県,高島市,新旭町北畑１丁目１７‐５,,25,212,5201521,,,,,,,2024-10-28,1,,,,,シーエルエス,0
1507,6170001018358,新規,0,2024-10-28,2024-10-28,株式会社スリー,,株式会社,和歌山県,和歌山市,美園町５丁目７番地８号,,30,201,6408331,,,,,,,2024-10-28,1,,,,,スリー,0
1508,6170003002120,新規,0,2024-10-28,2024-10-28,風早グリーン合同会社,,合同会社,和歌山県,日高郡印南町,大字印南４４５１番地の１４,,30,390,6491534,,,,,,,2024-10-28,1,,,,,カザハヤグリーン,0
1520,6180001163797,新規,0,2024-10-28,2024-10-28,株式会社ＮＩＤＯ,,株式会社,愛知県,名古屋市中区,錦３丁目２０番１０号スター錦ビル４階,,23,106,4600003,,,,,,,2024-10-28,1,,,,,ニード,0
1521,6180001163806,新規,0,2024-10-28,2024-10-28,株式会社ヨシダホールディングス,,株式会社,愛知県,北名古屋市,高田寺一本橋１５番地,,23,234,4810011,,,,,,,2024-10-28,1,,,,,ヨシダホールディングス,0
1524,6180003027505,新規,0,2024-10-28,2024-10-28,合同会社ｎｅｍｏｓ,,合同会社,愛知県,名古屋市東区,徳川町１１０５番地ヴィークコート徳川町７０４号,,23,102,4610023,,,,,,,2024-10-28,1,,,,,ネモス,0
1530,6200001043071,新規,0,2024-10-28,2024-10-28,株式会社Ｎｏｖａ,,株式会社,岐阜県,岐阜市,加納栄町通６丁目２４番地,,21,201,5008455,,,,,,,2024-10-28,1,,,,,ノヴァ,0
1534,6220001026289,新規,0,2024-10-28,2024-10-28,株式会社Ｒ‐７,,株式会社,石川県,金沢市,西泉１丁目１３２番地,,17,201,9218043,,,,,,,2024-10-28,1,,,,,アールセブン,0
1536,6240001063999,新規,0,2024-10-28,2024-10-28,博新海運株式会社,,株式会社,広島県,福山市,西町１丁目９番２８－３０１号,,34,207,7200067,,,,,,,2024-10-28,1,,,,,ハクシンカイウン,0
1537,6240001064007,新規,0,2024-10-28,2024-10-28,株式会社ブルーム,,株式会社,広島県,広島市安佐北区,亀山９丁目３１－１４,,34,106,7310231,,,,,,,2024-10-28,1,,,,,ブルーム,0
1545,6260001039576,新規,0,2024-10-28,2024-10-28,株式会社ファイブフォース,,株式会社,岡山県,岡山市北区,首部３３２番地１（５０４）,,33,101,7011201,,,,,,,2024-10-28,1,,,,,ファイブフォース,0
1554,6290001107735,新規,0,2024-10-28,2024-10-28,株式会社まなかる,,株式会社,福岡県,柳川市,大和町中島１６９９番地,,40,207,8390254,,,,,,,2024-10-28,1,,,,,マナカル,0
1555,6290001107768,新規,0,2024-10-28,2024-10-28,株式会社ミナト,,株式会社,福岡県,福岡市中央区,草香江２丁目１３番９－５０６号,,40,133,8100045,,,,,,,2024-10-28,1,,,,,ミナト,0
1561,6310003004886,新規,0,2024-10-28,2024-10-28,合同会社ＢＢ．ＨＯＵＳＥ,,合同会社,長崎県,長崎市,鳴滝１丁目１０番７号,,42,201,8500011,,,,,,,2024-10-28,1,,,,,ビービーハウス,0
1570,6340003004644,新規,0,2024-10-28,2024-10-28,創健グループ合同会社,,合同会社,鹿児島県,日置市,東市来町養母５７２９番地５,,46,216,8992311,,,,,,,2024-10-28,1,,,,,ソウケングループ,0
1576,6360003014419,新規,0,2024-10-28,2024-10-28,合同会社サンフラワー,,合同会社,沖縄県,うるま市,勝連平安名１６５５番地１，３階,,47,213,9042312,,,,,,,2024-10-28,1,,,,,サンフラワー,0
1577,6370001051834,新規,0,2024-10-28,2024-10-28,株式会社アスシードコンサルティング,,株式会社,宮城県,仙台市青葉区,一番町２丁目６－１シティハウス一番町中央２Ｆ,,04,101,9800811,,,,,,,2024-10-28,1,,,,,アスシードコンサルティング,0
1581,6390001017783,新規,0,2024-10-28,2024-10-28,エスアール吉田株式会社,,株式会社,山形県,山形市,瀬波２丁目７番１７号ブライト・セナミＢ１０３号,,06,201,9900881,,,,,,,2024-10-28,1,,,,,エスアールヨシダ,0
1584,6430001092946,新規,0,2024-10-28,2024-10-28,ＳｔａｙＩｎＣｒｅｄｉｂｌｅ株式会社,,株式会社,北海道,札幌市中央区,南五条西１５丁目２番３号リズム医大前５０３号,,01,101,0640805,,,,,,,2024-10-28,1,,,,,ステイインクレディブル,0
1585,6430003016936,新規,0,2024-10-28,2024-10-28,合同会社エスオーサービス,,合同会社,北海道,札幌市中央区,南十一条西７丁目２番２１号,,01,101,0640811,,,,,,,2024-10-28,1,,,,,エスオーサービス,0
1592,6500003003357,新規,0,2024-10-28,2024-10-28,合同会社ＳＩＬＶＡ,,合同会社,愛媛県,松山市,柳井町１丁目１５番地７,,38,201,7900014,,,,,,,2024-10-28,1,,,,,シルバ,0
1593,6700150127624,新規,0,2024-10-28,2024-10-28,Ｊａｐａｎ　Ｐｒｉｍｅ　ＬＬＣ,,外国会社等,,,,,,,,１３０９　Ｃｏｆｆｅｅｎ　Ａｖｅｎｕｅ　ＳＴＥ　１３９４１，Ｓｈｅｒｉｄａｎ，Ｗｙｏｍｉｎｇ,,,,,,2024-10-28,1,,,,,ジャパンプライムエルエルシー,0
1605,7010001249397,新規,0,2024-10-28,2024-10-28,東京海上ウェルデザイン株式会社,,株式会社,東京都,千代田区,大手町２丁目６番４号,,13,101,1000004,,,,,,,2024-10-28,1,,,,,トウキョウカイジョウウェルデザイン,0
1606,7010001249406,新規,0,2024-10-28,2024-10-28,ＣＩＲＳジャパン株式会社,,株式会社,東京都,中央区,入船２丁目３番７号築地エー・アイ・ユービル５階アルファパーク５１０,,13,102,1040042,,,,,,,2024-10-28,1,,,,,シーアイアールエスジャパン,0
1617,7010401185903,新規,0,2024-10-28,2024-10-28,株式会社タイガーエイト,,株式会社,東京都,港区,芝浦２丁目１４番７号,,13,103,1080023,,,,,,,2024-10-28,1,,,,,タイガーエイト,0
1618,7010401185977,新規,0,2024-10-28,2024-10-28,株式会社アイサーチマーケティングジャパン,,株式会社,東京都,港区,元麻布３丁目１番６号,,13,103,1060046,,,,,,,2024-10-28,1,,,,,アイサーチマーケティングジャパン,0
1619,7010401185993,新規,0,2024-10-28,2024-10-28,株式会社ＴＶ　ＣＨＯＳＵＮ　Ｅ＆Ｍ　ＪＡＰＡＮ,,株式会社,東京都,港区,北青山１丁目３番１号アールキューブ青山３階,,13,103,1070061,,,,,,,2024-10-28,1,,,,,ティービーチョウセンイーアンドエムジャパン,0
1620,7010401186018,新規,0,2024-10-28,2024-10-28,株式会社スリーエスリアルティ,,株式会社,東京都,港区,芝５丁目２７番３号ＭＢＣ・Ａ－５,,13,103,1080014,,,,,,,2024-10-28,1,,,,,スリーエスリアルティ,0
1621,7010401186059,新規,0,2024-10-28,2024-10-28,ＧＣＪＩ２２株式会社,,株式会社,東京都,港区,元赤坂１丁目１番８号株式会社赤坂国際会計内,,13,103,1070051,,,,,,,2024-10-28,1,,,,,ジーシージェイアイトゥエンティトゥ,0
1627,7010503007609,新規,0,2024-10-28,2024-10-28,合同会社ｃｌａｒｕｓ,,合同会社,東京都,台東区,日本堤２丁目９番１１‐５０１号トワイズコート三ノ輪,,13,106,1110021,,,,,,,2024-10-28,1,,,,,クラルス,0
1636,7010901056199,新規,0,2024-10-28,2024-10-28,株式会社Ｒｕｍｉｎｉ,,株式会社,東京都,世田谷区,経堂４丁目１４番１８号,,13,112,1560052,,,,,,,2024-10-28,1,,,,,ルミニ,0
1637,7010903009436,新規,0,2024-10-28,2024-10-28,合同会社テックネクスト,,合同会社,東京都,世田谷区,上北沢５丁目１１番６号１０２号室,,13,112,1560057,,,,,,,2024-10-28,1,,,,,テックネクスト,0
1641,7011001165469,新規,0,2024-10-28,2024-10-28,株式会社Ａｋｉｙａ２,,株式会社,東京都,渋谷区,神山町３６番８号,,13,113,1500047,,,,,,,2024-10-28,1,,,,,アキヤツー,0
1642,7011003020275,新規,0,2024-10-28,2024-10-28,合同会社清和産業,,合同会社,東京都,渋谷区,神宮前１丁目５番８号,,13,113,1500001,,,,,,,2024-10-28,1,,,,,セイワサンギョウ,0
1644,7011005010745,新規,0,2024-10-28,2024-10-28,一般社団法人清和産業,,その他の設立登記法人,東京都,渋谷区,神宮前１丁目５番８号,,13,113,1500001,,,,,,,2024-10-28,1,,,,,セイワサンギョウ,0
1647,7011101109284,新規,0,2024-10-28,2024-10-28,株式会社ＫＦＬ,,株式会社,東京都,新宿区,新宿４丁目３番１５号,,13,104,1600022,,,,,,,2024-10-28,1,,,,,ケーエフエル,0
1648,7011101109292,新規,0,2024-10-28,2024-10-28,株式会社ＮＯ　ＴＡＫＯＹＡＫＩ　ＮＯ　ＬＩＦＥ,,株式会社,東京都,新宿区,西新宿６丁目２０番７－３２Ｆ,,13,104,1600023,,,,,,,2024-10-28,1,,,,,ノータコヤキノーライフ,0
1652,7011201025893,新規,0,2024-10-28,2024-10-28,鼎盛株式会社,,株式会社,東京都,中野区,本町１丁目２５番１５号１Ｆ,,13,114,1640012,,,,,,,2024-10-28,1,,,,,テイセイ,0
1657,7011701027753,新規,0,2024-10-28,2024-10-28,東天株式会社,,株式会社,東京都,江戸川区,松江２丁目１番１３－１０８号室,,13,123,1320025,,,,,,,2024-10-28,1,,,,,トウテン,0
1664,7012401042407,新規,0,2024-10-28,2024-10-28,大澤株式会社,,株式会社,東京都,三鷹市,下連雀３丁目９番６号,,13,204,1810013,,,,,,,2024-10-28,1,,,,,オオサワ,0
1665,7012401042423,新規,0,2024-10-28,2024-10-28,オリエントシッピング株式会社,,株式会社,東京都,調布市,富士見町４丁目６番地１－１－３０５,,13,208,1820033,,,,,,,2024-10-28,1,,,,,オリエントシッピング,0
1671,7013301053279,新規,0,2024-10-28,2024-10-28,株式会社ｃｏｆｆｒｅｔ,,株式会社,東京都,豊島区,高田３丁目１０番１９号,,13,116,1710033,,,,,,,2024-10-28,1,,,,,コフレ,0
1683,7020001159752,新規,0,2024-10-28,2024-10-28,株式会社千代田工業,,株式会社,神奈川県,横浜市鶴見区,下野谷町２丁目７５番地,,14,101,2300047,,,,,,,2024-10-28,1,,,,,チヨダコウギョウ,0
1684,7020001159760,新規,0,2024-10-28,2024-10-28,株式会社Ｂｌａｎｃ　Ｓｔｏｃｋ,,株式会社,神奈川県,横浜市戸塚区,品濃町５４１番地３オセアンビル１Ｆ,,14,110,2440801,,,,,,,2024-10-28,1,,,,,ブランストック,0
1685,7020001159785,新規,0,2024-10-28,2024-10-28,株式会社コンフォワード,,株式会社,神奈川県,横浜市都筑区,中川中央１丁目３０－１,,14,118,2240003,,,,,,,2024-10-28,1,,,,,コンフォワード,0
1686,7020001159793,新規,0,2024-10-28,2024-10-28,株式会社ＡＹＮ,,株式会社,神奈川県,横浜市中区,不老町１丁目２番地１,,14,104,2310032,,,,,,,2024-10-28,1,,,,,エーワイエヌ,0
1698,7021001083612,新規,0,2024-10-28,2024-10-28,光ガーデン株式会社,,株式会社,神奈川県,相模原市緑区,下九沢２４６５番地１５,,14,151,2520134,,,,,,,2024-10-28,1,,,,,ヒカリガーデン,0
1699,7021001083629,新規,0,2024-10-28,2024-10-28,ＲＥＣＯＲＵ株式会社,,株式会社,神奈川県,秦野市,渋沢２丁目４１番１１号,,14,211,2591322,,,,,,,2024-10-28,1,,,,,レコル,0
1700,7021003015142,新規,0,2024-10-28,2024-10-28,合同会社ｉＦＬＥＸ,,合同会社,神奈川県,藤沢市,鵠沼橘１丁目１５―４―９０３,,14,205,2510024,,,,,,,2024-10-28,1,,,,,アイフレックス,0
1701,7021005013210,新規,0,2024-10-28,2024-10-28,一般社団法人Ｒｅｓｔａｒｔ湘南,,その他の設立登記法人,神奈川県,逗子市,小坪７丁目８番３号,,14,208,2490008,,,,,,,2024-10-28,1,,,,,リスタートショウナン,0
1707,7030001163150,新規,0,2024-10-28,2024-10-28,株式会社アイオコスモス,,株式会社,埼玉県,熊谷市,三ヶ尻１６７５番地,,11,202,3600843,,,,,,,2024-10-28,1,,,,,アイオコスモス,0
1708,7030001163159,新規,0,2024-10-28,2024-10-28,東方国際株式会社,,株式会社,埼玉県,上尾市,平塚２丁目１９５－８,,11,219,3620011,,,,,,,2024-10-28,1,,,,,トウホウコクサイ,0
1709,7030001163167,新規,0,2024-10-28,2024-10-28,株式会社Ｒｅｖｅｒｉｅ,,株式会社,埼玉県,川口市,中青木４丁目４番２０号クリエイト西川口第３・１０６号,,11,203,3320032,,,,,,,2024-10-28,1,,,,,レヴェリー,0
1713,7030003025357,新規,0,2024-10-28,2024-10-28,合同会社鐵伎傳,,合同会社,埼玉県,蕨市,北町５丁目８－６トーシンハイツ蕨５０２号,,11,223,3350001,,,,,,,2024-10-28,1,,,,,テツギデン,0
1714,7030003025373,新規,0,2024-10-28,2024-10-28,ＨＹＭ　Ｉｎｔｅｒｎａｔｉｏｎａｌ合同会社,,合同会社,埼玉県,越谷市,レイクタウン８丁目１３番地１グランアルト越谷レイクタウン４３２号,,11,222,3430828,,,,,,,2024-10-28,1,,,,,エイチワイエムインターナショナル,0
1715,7030003025381,新規,0,2024-10-28,2024-10-28,ＲＵＮＯ　ＪＯＩＮ合同会社,,合同会社,埼玉県,さいたま市大宮区,桜木町２丁目３番地大宮マルイ７階,,11,103,3300854,,,,,,,2024-10-28,1,,,,,ルノジョイン,0
1716,7030005021908,新規,0,2024-10-28,2024-10-28,医療法人つながり,,その他の設立登記法人,埼玉県,北本市,石戸５丁目１５８番地１,,11,233,3640024,,,,,,,2024-10-28,1,,,,,ツナガリ,0
1731,7050001055585,新規,0,2024-10-28,2024-10-28,株式会社ＳＴホールディングス,,株式会社,茨城県,常総市,菅生町４６６番地７,,08,211,3030044,,,,,,,2024-10-28,1,,,,,エスティホールディングス,0
1737,7070003005636,新規,0,2024-10-28,2024-10-28,合同会社零,,合同会社,群馬県,館林市,坂下町３１２９番地の１パラダイスＢ－１０３,,10,207,3740069,,,,,,,2024-10-28,1,,,,,レイ,0
1739,7080001026567,新規,0,2024-10-28,2024-10-28,株式会社ホビヨン,,株式会社,静岡県,藤枝市,築地５３９番地の１,,22,214,4260031,,,,,,,2024-10-28,1,,,,,ホビヨン,0
1744,7080401027529,新規,0,2024-10-28,2024-10-28,株式会社ｉＰＡＩＮＴ,,株式会社,静岡県,袋井市,久能１６７３番地の１,,22,216,4370061,,,,,,,2024-10-28,1,,,,,アイペイント,0
1746,7090003002664,新規,0,2024-10-28,2024-10-28,合同会社ＯＷＬ・ＬＡＢ,,合同会社,山梨県,南都留郡富士河口湖町,小立１２３３番地１号,,19,430,4010302,,,,,,,2024-10-28,1,,,,,アウルラボ,0
1748,7100001037966,新規,0,2024-10-28,2024-10-28,株式会社大聖,,株式会社,長野県,伊那市,山寺２９６２番地１,,20,209,3960023,,,,,,,2024-10-28,1,,,,,タイセイ,0
1751,7110001038798,新規,0,2024-10-28,2024-10-28,株式会社越後魚伊一郎,,株式会社,新潟県,長岡市,千歳１丁目３番２４号,,15,202,9400082,,,,,,,2024-10-28,1,,,,,エチゴウオイイチロウ,0
1764,7120001269624,新規,0,2024-10-28,2024-10-28,株式会社ＣＲＥＤＩＯ,,株式会社,大阪府,守口市,本町２丁目５番１８号守口ＣＩＤビル１階,,27,209,5700028,,,,,,,2024-10-28,1,,,,,クレディオ,0
1765,7120001269707,新規,0,2024-10-28,2024-10-28,株式会社りあん,,株式会社,大阪府,大阪市旭区,赤川４丁目１１番１５号,,27,117,5350005,,,,,,,2024-10-28,1,,,,,リアン,0
1766,7120001269731,新規,0,2024-10-28,2024-10-28,株式会社山六潜水,,株式会社,大阪府,大阪市淀川区,三津屋北２丁目１４番２４－６０４号,,27,123,5320032,,,,,,,2024-10-28,1,,,,,ヤマロクセンスイ,0
1774,7120901049951,新規,0,2024-10-28,2024-10-28,株式会社サイビータ,,株式会社,大阪府,茨木市,双葉町８番１９号の２,,27,211,5670829,,,,,,,2024-10-28,1,,,,,サイビータ,0
1778,7130001078215,新規,0,2024-10-28,2024-10-28,株式会社藤善,,株式会社,京都府,舞鶴市,北浜町６番地の５,,26,202,6250050,,,,,,,2024-10-28,1,,,,,フジゼン,0
1779,7130003009952,新規,0,2024-10-28,2024-10-28,Ｋｏｉｆｌｕｅｎｃｅ合同会社,,合同会社,京都府,京都市中京区,天神山町２８０番地,,26,104,6048221,,,,,,,2024-10-28,1,,,,,コイフルエンス,0
1782,7140003021238,新規,0,2024-10-28,2024-10-28,合同会社ＭＡＮＳＨＩＰ,,合同会社,兵庫県,姫路市,北原３８０番地２０,,28,201,6728002,,,,,,,2024-10-28,1,,,,,マンシップ,0
1788,7170001018357,新規,0,2024-10-28,2024-10-28,５ＬＯＯＰ株式会社,,株式会社,和歌山県,和歌山市,相坂１００番地１,,30,201,6400341,,,,,,,2024-10-28,1,,,,,ファイブループ,0
1793,7180001163739,新規,0,2024-10-28,2024-10-28,株式会社アウトレ,,株式会社,愛知県,名古屋市西区,那古野２丁目１４－１,,23,104,4510042,,,,,,,2024-10-28,1,,,,,アウトレ,0
1794,7180001163788,新規,0,2024-10-28,2024-10-28,株式会社Ｐｕｐｐｙ　Ｆｏｏｄ　Ｓｅｒｖｉｃｅ,,株式会社,愛知県,一宮市,篭屋１丁目７番１１－４号,,23,203,4940002,,,,,,,2024-10-28,1,,,,,パピーフードサービス,0
1795,7180001163796,新規,0,2024-10-28,2024-10-28,株式会社ＰＥＲＳＯＮＥＣＴ,,株式会社,愛知県,名古屋市中区,栄１丁目１３番４号みその大林ビル９Ｆ,,23,106,4600008,,,,,,,2024-10-28,1,,,,,パソネクト,0
1805,7180003027545,新規,0,2024-10-28,2024-10-28,合同会社エイチディーケイ・ソサエティ,,合同会社,愛知県,名古屋市天白区,八幡山１３０５番地の２パークホームズ八幡山１３０３号,,23,116,4680074,,,,,,,2024-10-28,1,,,,,エイチディーケイソサエティ,0
1807,7180301039176,新規,0,2024-10-28,2024-10-28,角谷構築株式会社,,株式会社,愛知県,碧南市,西浜町３丁目６０番地,,23,209,4470843,,,,,,,2024-10-28,1,,,,,スミヤコウチク,0
1811,7220001026288,新規,0,2024-10-28,2024-10-28,株式会社Ｕｎｉｔｙ,,株式会社,石川県,小松市,串町３５番地１７,,17,203,9230965,,,,,,,2024-10-28,1,,,,,ユニティ,0
1813,7230001020587,新規,0,2024-10-28,2024-10-28,株式会社島建設,,株式会社,富山県,黒部市,犬山１６４番地８,,16,207,9380043,,,,,,,2024-10-28,1,,,,,シマケンセツ,0
1814,7240001063998,新規,0,2024-10-28,2024-10-28,株式会社デイリス,,株式会社,広島県,広島市安佐北区,白木町志路４９７５番地１,,34,106,7391700,,,,,,,2024-10-28,1,,,,,デイリス,0
1817,7260001039575,新規,0,2024-10-28,2024-10-28,天晴株式会社,,株式会社,岡山県,倉敷市,水島東常盤町１３番２１号スギモトビル１階南,,33,202,7128058,,,,,,,2024-10-28,1,,,,,テンセイ,0
1819,7280001009279,新規,0,2024-10-28,2024-10-28,エコビレッジ江津株式会社,,株式会社,島根県,江津市,和木町５０８番地１,,32,207,6950017,,,,,,,2024-10-28,1,,,,,エコビレッジゴウツ,0
1830,7290001107734,新規,0,2024-10-28,2024-10-28,株式会社ヒロサッシ工業,,株式会社,福岡県,飯塚市,内野３３４２番地,,40,205,8200706,,,,,,,2024-10-28,1,,,,,ヒロサッシコウギョウ,0
1831,7290001107750,新規,0,2024-10-28,2024-10-28,株式会社ＹＡＡホールディングス,,株式会社,福岡県,福岡市中央区,天神４丁目６番２８号天神ファーストビル７階,,40,133,8100001,,,,,,,2024-10-28,1,,,,,ワイエイエイホールディングス,0
1832,7290003015984,新規,0,2024-10-28,2024-10-28,合同会社ＰｒｏＶｉｓｔａ,,合同会社,福岡県,福岡市中央区,渡辺通２丁目３番１９号ロマネスク天神南５１３,,40,133,8100004,,,,,,,2024-10-28,1,,,,,プロビスタ,0
1833,7290003015992,新規,0,2024-10-28,2024-10-28,合同会社Ｙ’ｓ,,合同会社,福岡県,久留米市,城島町江上本５７８番地１,,40,203,8300214,,,,,,,2024-10-28,1,,,,,ワイズ,0
1837,7290805009779,新規,0,2024-10-28,2024-10-28,特定非営利活動法人ＥＮ,,その他の設立登記法人,福岡県,行橋市,行事４丁目２１番９号テラッツァ行事Ｃ－１,,40,213,8240001,,,,,,,2024-10-28,1,,,,,エン,0
1847,7370001051866,新規,0,2024-10-28,2024-10-28,ＶＩＥ　ＲＡＩＳＥ株式会社,,株式会社,宮城県,仙台市青葉区,二日町９番２３－１１０７号,,04,101,9800802,,,,,,,2024-10-28,1,,,,,ヴィライゼ,0
1857,7420003003018,新規,0,2024-10-28,2024-10-28,合同会社Ａｌｌｒｉｇｈｔ,,合同会社,青森県,弘前市,大字田園３丁目４番地２１,,02,202,0368086,,,,,,,2024-10-28,1,,,,,オールライト,0
1862,7430001092945,新規,0,2024-10-28,2024-10-28,Ｍｅｅｔ株式会社,,株式会社,北海道,札幌市北区,北三十二条西４丁目１番２９号ＴＡＯ　ＨＯＵＳＥ２３室,,01,102,0010032,,,,,,,2024-10-28,1,,,,,ミート,0
1863,7430001092953,新規,0,2024-10-28,2024-10-28,株式会社Ｗｅｌｌｔｅｃｈ,,株式会社,北海道,札幌市西区,八軒五条西９丁目２番１２号,,01,107,0630845,,,,,,,2024-10-28,1,,,,,ウェルテック,0
1864,7430003016935,新規,0,2024-10-28,2024-10-28,禅リアルエステート合同会社,,合同会社,北海道,札幌市中央区,南十一条西７丁目１０４６番地６タカラビル３階,,01,101,0640811,,,,,,,2024-10-28,1,,,,,ゼンリアルエステート,0
1871,7500001025963,新規,0,2024-10-28,2024-10-28,株式会社大尾創建,,株式会社,愛媛県,四国中央市,妻鳥町１７４４番地４,,38,213,7990113,,,,,,,2024-10-28,1,,,,,ダイオソウケン,0
1873,7500003003356,新規,0,2024-10-28,2024-10-28,合同会社グリフ,,合同会社,愛媛県,松山市,上伊台町６２３番地,,38,201,7910111,,,,,,,2024-10-28,1,,,,,グリフ,0
1874,7700150127623,新規,0,2024-10-28,2024-10-28,Ｚｈａｎｇｚｈｏｕｓｈｉ　ｌｏｎｇ　ｗｅｎ　ｑｕ　ｍｉ　ｔｕ　ｓｉ　ｄｉａｎ　ｚｉ　ｃｏ．ｌｔｄ,,外国会社等,,,,,,,,Ｎｏ．２０１　Ｙｉｎｇｂｉｎ　Ａｖｅｎｕｅ，Ｌｏｎｇｗｅｎ　Ｄｉｓｔｒｉｃｔ，Ｒｏｏｍ　１８０１，Ｕｎｉｔ　１，Ｂｕｉｌｄｉｎｇ　１，Ｚｈｕｏｙｕｅ　Ｃｏｍｍｕｎｉｔｙ，Ｚｈａｎｇｚｈｏｕ　Ｃｉｔｙ，Ｆｕｊｉａｎ　Ｐｒｏｖｉｎｃｅ,,,,,,2024-10-28,1,,,,,ジャーンジョウシーローンウエンチュイミートゥスーディエンズーヨウシエンゴーンスー,0
1885,8010001249405,新規,0,2024-10-28,2024-10-28,ＪＹ　ＴＥＣＨ株式会社,,株式会社,東京都,文京区,白山１丁目６番４－２２４号,,13,105,1130001,,,,,,,2024-10-28,1,,,,,ジェイワイテック,0
1886,8010001249421,新規,0,2024-10-28,2024-10-28,縁恵エステート株式会社,,株式会社,東京都,千代田区,神田紺屋町２８ＡＰＥＸ神田ビル６０３,,13,101,1010035,,,,,,,2024-10-28,1,,,,,ヨリエエステート,0
1891,8010003045307,新規,0,2024-10-28,2024-10-28,合同会社南阿蘇リゾート,,合同会社,東京都,千代田区,永田町２丁目１７番５号,,13,101,1000014,,,,,,,2024-10-28,1,,,,,ミナミアソリゾート,0
1893,8010101016382,新規,0,2024-10-28,2024-10-28,株式会社未来,,株式会社,東京都,八王子市,七国３丁目３７番７号,,13,201,1920919,,,,,,,2024-10-28,1,,,,,ミライ,0
1894,8010103002439,新規,0,2024-10-28,2024-10-28,合同会社もりもり,,合同会社,東京都,八王子市,長沼町１３０６番地５,,13,201,1920907,,,,,,,2024-10-28,1,,,,,モリモリ,0
1901,8010401185968,新規,0,2024-10-28,2024-10-28,株式会社ＥＤＧＥ　Ｈｏｌｄｉｎｇｓ,,株式会社,東京都,港区,南青山３丁目１番３号スプライン青山東急ビル３階,,13,103,1070062,,,,,,,2024-10-28,1,,,,,エッジホールディングス,0
1902,8010401186025,新規,0,2024-10-28,2024-10-28,株式会社ＡＲＩＡ,,株式会社,東京都,港区,海岸２丁目５番１号ローレルタワールネ浜松町２００１号室,,13,103,1050022,,,,,,,2024-10-28,1,,,,,アリア,0
1903,8010401186041,新規,0,2024-10-28,2024-10-28,ＪＭ　Ａｇｅｎｃｉｅｓ株式会社,,株式会社,東京都,港区,北青山１丁目２番３号,,13,103,1070061,,,,,,,2024-10-28,1,,,,,ジェイエムエージェンシーズ,0
1908,8010403033662,新規,0,2024-10-28,2024-10-28,合同会社ＭＯＫＵＴＯＮ,,合同会社,東京都,港区,南青山３丁目１番３６号青山丸竹ビル６Ｆ,,13,103,1070062,,,,,,,2024-10-28,1,,,,,モクトン,0
1917,8010601066175,新規,0,2024-10-28,2024-10-28,株式会社鳥敬,,株式会社,東京都,江東区,大島３丁目９番１１号,,13,108,1360072,,,,,,,2024-10-28,1,,,,,トリケイ,0
1922,8010701046721,新規,0,2024-10-28,2024-10-28,ＫＮＯＴＴＥＲ株式会社,,株式会社,東京都,品川区,東品川２丁目６－４寺田倉庫Ｇ１ビル２階,,13,109,1400002,,,,,,,2024-10-28,1,,,,,ナラー,0
1923,8010701046738,新規,0,2024-10-28,2024-10-28,株式会社ケリュケイオン,,株式会社,東京都,品川区,荏原３丁目５番１９－１０１号,,13,109,1420063,,,,,,,2024-10-28,1,,,,,ケリュケイオン,0
1926,8010901056207,新規,0,2024-10-28,2024-10-28,株式会社美髪堂,,株式会社,東京都,世田谷区,梅丘１丁目２０番９号,,13,112,1540022,,,,,,,2024-10-28,1,,,,,ビハツドウ,0
1929,8011001165427,新規,0,2024-10-28,2024-10-28,株式会社クオーレ,,株式会社,東京都,目黒区,柿の木坂１丁目１８番５号,,13,110,1520022,,,,,,,2024-10-28,1,,,,,,0
1930,8011001165501,新規,0,2024-10-28,2024-10-28,株式会社フジ未来共創,,株式会社,東京都,渋谷区,神宮前１丁目５番８号,,13,113,1500001,,,,,,,2024-10-28,1,,,,,フジミライキョウソウ,0
1933,8011003020274,新規,0,2024-10-28,2024-10-28,白合同会社,,合同会社,東京都,渋谷区,神南１丁目１１番４号ＦＰＧリンクス神南５階,,13,113,1500041,,,,,,,2024-10-28,1,,,,,シロ,0
1934,8011101109300,新規,0,2024-10-28,2024-10-28,株式会社ＴＲＥＮＤ　ＦＡＣＴＯＲＹ,,株式会社,東京都,新宿区,舟町９番地３豊田ビル２１２,,13,104,1600006,,,,,,,2024-10-28,1,,,,,トレンドファクトリー,0
1939,8011301030116,新規,0,2024-10-28,2024-10-28,株式会社ＣＬＥＡＲ,,株式会社,東京都,杉並区,高円寺南１丁目１０－４ＫＩビル１階,,13,115,1660003,,,,,,,2024-10-28,1,,,,,クリア,0
1956,8020001159784,新規,0,2024-10-28,2024-10-28,ｆｅａｔ．Ｆｉｘ株式会社,,株式会社,神奈川県,横浜市青葉区,青葉台１丁目５番地４,,14,117,2270062,,,,,,,2024-10-28,1,,,,,フィートフィックス,0
1957,8020001159792,新規,0,2024-10-28,2024-10-28,Ｔｏ‐ｓｙｎｃ株式会社,,株式会社,神奈川県,横浜市青葉区,榎が丘５４－１９カーサフェリーチェ１０２,,14,117,2270063,,,,,,,2024-10-28,1,,,,,トゥーシンク,0
1958,8020001159801,新規,0,2024-10-28,2024-10-28,株式会社フォーチュンリーフ,,株式会社,神奈川県,横浜市金沢区,西柴３丁目３６番２３号,,14,108,2360017,,,,,,,2024-10-28,1,,,,,フォーチュンリーフ,0
1964,8020005016577,新規,0,2024-10-28,2024-10-28,一般社団法人ＹＯＵＲ　Ｃｌｉｎｉｃ,,その他の設立登記法人,神奈川県,横浜市神奈川区,鶴屋町２丁目１７番地１－１０２号室,,14,102,2210835,,,,,,,2024-10-28,1,,,,,ユアクリニック,0
1968,8021001083603,新規,0,2024-10-28,2024-10-28,株式会社ベニスグッド,,株式会社,神奈川県,相模原市中央区,相模原３丁目７番３号,,14,152,2520231,,,,,,,2024-10-28,1,,,,,ベニスグッド,0
1979,8030001163158,新規,0,2024-10-28,2024-10-28,株式会社西本工業,,株式会社,埼玉県,さいたま市桜区,大字五関８４１番地２,,11,106,3380815,,,,,,,2024-10-28,1,,,,,ニシモトコウギョウ,0
1980,8030001163166,新規,0,2024-10-28,2024-10-28,株式会社リミットデストロイ,,株式会社,埼玉県,さいたま市浦和区,本太５丁目１２番１５号,,11,107,3300052,,,,,,,2024-10-28,1,,,,,リミットデストロイ,0
1983,8030003025364,新規,0,2024-10-28,2024-10-28,Ｍ　ＩＬＹＡＳ合同会社,,合同会社,埼玉県,久喜市,菖蒲町柴山枝郷１０７４番地３－１階,,11,232,3460112,,,,,,,2024-10-28,1,,,,,エムイリヤス,0
1987,8030005021907,新規,0,2024-10-28,2024-10-28,医療法人創光会,,その他の設立登記法人,埼玉県,さいたま市見沼区,大字南中丸６８０番地,,11,104,3370041,,,,,,,2024-10-28,1,,,,,ソウコウカイ,0
2000,8050003008763,新規,0,2024-10-28,2024-10-28,ＴＳＳ合同会社,,合同会社,茨城県,常総市,小山戸町３７４番地２,,08,211,3030006,,,,,,,2024-10-28,1,,,,,ティーエスエス,0
2001,8050003008771,新規,0,2024-10-28,2024-10-28,合同会社原企画,,合同会社,茨城県,取手市,新町５丁目１９番１３号スターハイツ１階,,08,217,3020024,,,,,,,2024-10-28,1,,,,,ハラキカク,0
2005,8070003005627,新規,0,2024-10-28,2024-10-28,合同会社ケアセンターおかげさま,,合同会社,群馬県,伊勢崎市,東小保方町３４９３番地５,,10,204,3792234,,,,,,,2024-10-28,1,,,,,ケアセンターオカゲサマ,0
2006,8080001026566,新規,0,2024-10-28,2024-10-28,株式会社ライズテック,,株式会社,静岡県,静岡市清水区,興津本町２８７番地の２,,22,103,4240205,,,,,,,2024-10-28,1,,,,,ライズテック,0
2028,8120001269623,新規,0,2024-10-28,2024-10-28,株式会社ＯＲＴＥＡ,,株式会社,大阪府,守口市,本町２丁目５番１８号守口ＣＩＤビル１階,,27,209,5700028,,,,,,,2024-10-28,1,,,,,オルテオ,0
2029,8120001269656,新規,0,2024-10-28,2024-10-28,航佳株式会社,,株式会社,大阪府,大阪市大正区,三軒家西３丁目４番１６号中山ビル１０３５,,27,108,5510001,,,,,,,2024-10-28,1,,,,,コウカ,0
2030,8120001269697,新規,0,2024-10-28,2024-10-28,株式会社バンクリート,,株式会社,大阪府,大阪市中央区,淡路町４丁目３番５号,,27,128,5410047,,,,,,,2024-10-28,1,,,,,バンクリート,0
2031,8120001269722,新規,0,2024-10-28,2024-10-28,株式会社ティーケーワン,,株式会社,大阪府,大阪市西区,南堀江１丁目２１番３号２階,,27,106,5500015,,,,,,,2024-10-28,1,,,,,ティーケーワン,0
2032,8120001269755,新規,0,2024-10-28,2024-10-28,株式会社ｅｎａ‐ｊｉ,,株式会社,大阪府,大阪市平野区,加美北１丁目１５番９号ターフィーズフラット南巽１０１,,27,126,5470001,,,,,,,2024-10-28,1,,,,,エナージ,0
2035,8120003027839,新規,0,2024-10-28,2024-10-28,合同会社グラサポ,,合同会社,大阪府,大阪市浪速区,元町１丁目１１－８－４Ｆ,,27,111,5560016,,,,,,,2024-10-28,1,,,,,グラサポ,0
2036,8120903005398,新規,0,2024-10-28,2024-10-28,タカオート合同会社,,合同会社,大阪府,豊能郡能勢町,下田２４９番地,,27,322,5630355,,,,,,,2024-10-28,1,,,,,タカオート,0
2050,8180001163688,新規,0,2024-10-28,2024-10-28,高橋商事株式会社,,株式会社,愛知県,津島市,大縄町８丁目１５３番地２,,23,208,4960876,,,,,,,2024-10-28,1,,,,,タカハシショウジ,0
2051,8180001163696,新規,0,2024-10-28,2024-10-28,聖友株式会社,,株式会社,愛知県,小牧市,中央３丁目９番地,,23,219,4850029,,,,,,,2024-10-28,1,,,,,セイユウ,0
2052,8180001163713,新規,0,2024-10-28,2024-10-28,スタイルアップ株式会社,,株式会社,愛知県,名古屋市中区,丸の内２丁目１６番２１号ライオンズマンション丸の内３０１号,,23,106,4600002,,,,,,,2024-10-28,1,,,,,スタイルアップ,0
2064,8200001043078,新規,0,2024-10-28,2024-10-28,株式会社芳永総業,,株式会社,岐阜県,羽島市,堀津町横手３丁目３６番地,,21,209,5016331,,,,,,,2024-10-28,1,,,,,ホウエイソウギョウ,0
2069,8220003003870,新規,0,2024-10-28,2024-10-28,合同会社プラマー,,合同会社,石川県,金沢市,此花町５番６号ライフ金沢第一ビル６０１Ａ,,17,201,9200852,,,,,,,2024-10-28,1,,,,,プラマー,0
2076,8240001064013,新規,0,2024-10-28,2024-10-28,株式会社ハイマーク,,株式会社,広島県,東広島市,志和町志和堀１１１０９番地４,,34,212,7390269,,,,,,,2024-10-28,1,,,,,ハイマーク,0
2081,8260001039574,新規,0,2024-10-28,2024-10-28,株式会社ｏｍｏｉ,,株式会社,岡山県,津山市,河辺６９０番地８,,33,203,7080842,,,,,,,2024-10-28,1,,,,,オモイ,0
2082,8260005011414,新規,0,2024-10-28,2024-10-28,一般社団法人以知クリエイト,,その他の設立登記法人,岡山県,岡山市北区,北長瀬表町２丁目１７番８０号ＢＲＡＮＣＨ岡山北長瀬ハッシュタグ岡山コワーキングスペース,,33,101,7000962,,,,,,,2024-10-28,1,,,,,イチクリエイト,0
2092,8290001107733,新規,0,2024-10-28,2024-10-28,株式会社鳴鳳堂エナジー,,株式会社,福岡県,福岡市早良区,百道浜２丁目３番２号,,40,137,8140001,,,,,,,2024-10-28,1,,,,,メイホウドウエナジー,0
2096,8290003015975,新規,0,2024-10-28,2024-10-28,合同会社ＤＤＤ,,合同会社,福岡県,福岡市中央区,春吉３丁目１４－７－１イルグラッツィア天神ＩＩＩ４０２号,00136785,40,133,8100003,,,,,,,2024-10-28,1,,,,,ディーディーディー,0
2097,8290801030985,新規,0,2024-10-28,2024-10-28,株式会社Ｖａｌｕｅ　Ｓｗｉｔｃｈ,,株式会社,福岡県,北九州市小倉北区,片野新町１丁目１２番２１号片野トランクスＢ棟Ｊ区画,,40,106,8020062,,,,,,,2024-10-28,1,,,,,バリュースイッチ,0
2098,8290801030993,新規,0,2024-10-28,2024-10-28,株式会社ｃｏｒｅ　ｂａｓｅ,,株式会社,福岡県,北九州市八幡西区,三ケ森４丁目１２番１号,,40,109,8070843,,,,,,,2024-10-28,1,,,,,コアベース,0
2100,8300001013946,新規,0,2024-10-28,2024-10-28,株式会社スマイルホーム,,株式会社,佐賀県,佐賀市,若宮２丁目９番１３号,,41,201,8490926,,,,,,,2024-10-28,1,,,,,スマイルホーム,0
2104,8310003004884,新規,0,2024-10-28,2024-10-28,日錫トレーディング合同会社,,合同会社,長崎県,佐世保市,世知原町槍巻４３７番地１２,,42,202,8596415,,,,,,,2024-10-28,1,,,,,ヒスズトレーディング,0
2121,8390001017781,新規,0,2024-10-28,2024-10-28,株式会社イノウエ,,株式会社,山形県,南陽市,二色根１０７番地５,,06,213,9992231,,,,,,,2024-10-28,1,,,,,イノウエ,0
2129,8460005001584,新規,0,2024-10-28,2024-10-28,特定非営利活動法人ＩＣＥ　ＨＯＣＫＥＹ　ＥＭＰＯＷＥＲ北海道,,その他の設立登記法人,北海道,釧路郡釧路町,鳥取東六丁目４１番地,,01,661,0880600,,,,,,,2024-10-28,1,,,,,,0
2133,8700150127622,新規,0,2024-10-28,2024-10-28,ＥＤＸ　ＥＤＵＣＡＴＩＯＮ　ＣＯ．，ＬＴＤ．,,外国会社等,,,,,,,,９Ｆ．，Ｎｏ．３９，Ｓｅｃ．２，Ｄｕｎｈｕａ　Ｓ．Ｒｄ．，Ｄａ＿ａｎ　Ｄｉｓｔ．，Ｔａｉｐｅｉ　Ｃｉｔｙ　１０６４１７，Ｔａｉｗａｎ（Ｒ．Ｏ．Ｃ．）,00136676,,,,,2024-10-28,1,,,,,イーディーエックスエデュケーションカンパニーリミテッド,0
2140,9010001249379,新規,0,2024-10-28,2024-10-28,株式会社労務ＤａｔａＢａｎｋ,,株式会社,東京都,中央区,銀座６丁目１３番１６号銀座ＷａｌｌビルＵＣＦ５階,,13,102,1040061,,,,,,,2024-10-28,1,,,,,ロウムデータバンク,0
2146,9010101016373,新規,0,2024-10-28,2024-10-28,株式会社ｍｏｎｏ　ｌｏｇｉ,,株式会社,東京都,八王子市,片倉町２２６２番地３,,13,201,1920914,,,,,,,2024-10-28,1,,,,,モノロジ,0
2152,9010401186024,新規,0,2024-10-28,2024-10-28,株式会社Ｃｏｓｔａ,,株式会社,東京都,港区,海岸２丁目５番１号ローレルタワールネ浜松町２００１号室,,13,103,1050022,,,,,,,2024-10-28,1,,,,,コスタ,0
2163,9010601066174,新規,0,2024-10-28,2024-10-28,元瀛株式会社,,株式会社,東京都,江東区,豊洲６丁目２番２９ベイズタワー＆ガーデン１０１２号室,,13,108,1350061,,,,,,,2024-10-28,1,,,,,ゲンエイ,0
2166,9010701046753,新規,0,2024-10-28,2024-10-28,銀星株式会社,,株式会社,東京都,品川区,西五反田４丁目９－１４Ｐｏｒｔｏｇｒａｎｄｅかむろ坂６号室,,13,109,1410031,,,,,,,2024-10-28,1,,,,,,0
2168,9010901056197,新規,0,2024-10-28,2024-10-28,株式会社ＧＥＮＳＥＫＩ,,株式会社,東京都,世田谷区,奥沢５丁目１－１１,,13,112,1580083,,,,,,,2024-10-28,1,,,,,ゲンセキ,0
2169,9010903009450,新規,0,2024-10-28,2024-10-28,合同会社ｂｉｔｅ,,合同会社,東京都,世田谷区,下馬６丁目４０番７号,,13,112,1540002,,,,,,,2024-10-28,1,,,,,バイト,0
2179,9011001165509,新規,0,2024-10-28,2024-10-28,ＳｔａｒＴｅｃｈ株式会社,,株式会社,東京都,渋谷区,千駄ヶ谷３丁目５番１５－４０２号,,13,113,1510051,,,,,,,2024-10-28,1,,,,,スターテック,0
2181,9011101109282,新規,0,2024-10-28,2024-10-28,Ｂｅａｕｔｉｆｉｔ株式会社,,株式会社,東京都,新宿区,新小川町６番３９号ニックハイム飯田橋２０１,,13,104,1620814,,,,,,,2024-10-28,1,,,,,ビューティフィット,0
2182,9011101109299,新規,0,2024-10-28,2024-10-28,株式会社粋笑,,株式会社,東京都,新宿区,岩戸町１６メイジャー神楽坂７０２,,13,104,1620832,,,,,,,2024-10-28,1,,,,,スイショウ,0
2183,9011101109324,新規,0,2024-10-28,2024-10-28,株式会社Ｙｕｒｉｉｋａ,,株式会社,東京都,新宿区,西新宿１丁目４番１１号,,13,104,1600023,,,,,,,2024-10-28,1,,,,,ユリイカ,0
2184,9011103015082,新規,0,2024-10-28,2024-10-28,Ａ　ＯＦＦＩＣＥ合同会社,,合同会社,東京都,新宿区,西新宿４丁目３２－６パークグレース新宿５０１,,13,104,1600023,,,,,,,2024-10-28,1,,,,,エーオフィス,0
2186,9011301030107,新規,0,2024-10-28,2024-10-28,ＣＨＩＳＡＧＥ　ＪＡＰＡＮ株式会社,,株式会社,東京都,杉並区,和泉３丁目３番１２号レジデンス羽鳥４０１,,13,115,1680063,,,,,,,2024-10-28,1,,,,,チャイセージジャパン,0
2187,9011301030115,新規,0,2024-10-28,2024-10-28,株式会社長良,,株式会社,東京都,杉並区,高円寺南３丁目５８－１８山本ビル１Ｆ,,13,115,1660003,,,,,,,2024-10-28,1,,,,,ナガラ,0
2190,9011603004485,新規,0,2024-10-28,2024-10-28,合同会社Ｓ＆Ｔ,,合同会社,東京都,練馬区,氷川台３丁目２２番１１－７０８号,,13,120,1790084,,,,,,,2024-10-28,1,,,,,エスアンドティー,0
2201,9012801023525,新規,0,2024-10-28,2024-10-28,博多文化商務株式会社,,株式会社,東京都,日野市,程久保３丁目３番１９号,,13,212,1910042,,,,,,,2024-10-28,1,,,,,ハカタブンカショウム,0
2212,9020001159734,新規,0,2024-10-28,2024-10-28,株式会社野口組,,株式会社,神奈川県,横浜市旭区,下川井町２０４４番地,,14,112,2410806,,,,,,,2024-10-28,1,,,,,ノグチグミ,0
2213,9020001159783,新規,0,2024-10-28,2024-10-28,株式会社Ｔ．Ｄ．Ｓ,,株式会社,神奈川県,横浜市中区,黄金町２丁目８番地６,,14,104,2310054,,,,,,,2024-10-28,1,,,,,ティーディーエス,0
2214,9020001159809,新規,0,2024-10-28,2024-10-28,ソフィア不動産株式会社,,株式会社,神奈川県,川崎市川崎区,京町１丁目１０番１３号,,14,131,2100848,,,,,,,2024-10-28,1,,,,,ソフィアフドウサン,0
2220,9021001083602,新規,0,2024-10-28,2024-10-28,株式会社フレンツェレーン,,株式会社,神奈川県,相模原市中央区,相模原３丁目７番３号,,14,152,2520231,,,,,,,2024-10-28,1,,,,,フレンツェレーン,0
2221,9021001083627,新規,0,2024-10-28,2024-10-28,ジャパンバロー株式会社,,株式会社,神奈川県,高座郡寒川町,一之宮８丁目３番１５号,,14,321,2530111,,,,,,,2024-10-28,1,,,,,ジャパンバロー,0
2222,9021003015132,新規,0,2024-10-28,2024-10-28,合同会社ＮＩＰＰＯＮＲＡＭＡ,,合同会社,神奈川県,小田原市,南鴨宮３丁目３８－１４,,14,206,2500875,,,,,,,2024-10-28,1,,,,,ニッポンラマ,0
2223,9021005013209,新規,0,2024-10-28,2024-10-28,一般社団法人ナスカ地上絵協会,,その他の設立登記法人,神奈川県,相模原市南区,相南１丁目２番７６号,,14,153,2520312,,,,,,,2024-10-28,1,,,,,ナスカチジョウエキョウカイ,0
2233,9030001163149,新規,0,2024-10-28,2024-10-28,株式会社Ｓｔｏｒｙ,,株式会社,埼玉県,富士見市,西みずほ台１丁目３番地１０,,11,235,3540018,,,,,,,2024-10-28,1,,,,,ストーリー,0
2234,9030001163157,新規,0,2024-10-28,2024-10-28,株式会社ｐａｌｕａ,,株式会社,埼玉県,草加市,氷川町２１２７番地１３ケイユービル５階Ｃ,,11,221,3400034,,,,,,,2024-10-28,1,,,,,パルア,0
2235,9030001163173,新規,0,2024-10-28,2024-10-28,潤澤株式会社,,株式会社,埼玉県,川口市,金山町９番１２号エーデルハイム３０１号,,11,203,3320014,,,,,,,2024-10-28,1,,,,,ジュンタク,0
2251,9050001055617,新規,0,2024-10-28,2024-10-28,プログレス株式会社,,株式会社,茨城県,水戸市,赤塚１丁目２０６７－３コーキビル２０１号室,,08,201,3114141,,,,,,,2024-10-28,1,,,,,プログレス,0
2252,9050001055633,新規,0,2024-10-28,2024-10-28,株式会社ｆｉｏｒｄ,,株式会社,茨城県,水戸市,石川１丁目４００２－３４,,08,201,3100905,,,,,,,2024-10-28,1,,,,,フィヨルド,0
2254,9070001042299,新規,0,2024-10-28,2024-10-28,株式会社ＭＨＥＡＲＴ,,株式会社,群馬県,前橋市,昭和町２丁目１４番７－１０５号センチュリーカシワ,,10,201,3710034,,,,,,,2024-10-28,1,,,,,エムハート,0
2255,9070001042308,新規,0,2024-10-28,2024-10-28,ＫＴロジ株式会社,,株式会社,群馬県,伊勢崎市,下触町１４３番地１,,10,204,3792214,,,,,,,2024-10-28,1,,,,,,0
2256,9070003005634,新規,0,2024-10-28,2024-10-28,合同会社ムーンラビット,,合同会社,群馬県,前橋市,上泉町２０７９番地３,,10,201,3710007,,,,,,,2024-10-28,1,,,,,ムーンラビット,0
2273,9120001269622,新規,0,2024-10-28,2024-10-28,株式会社ＳＹＮＦＯＳ,,株式会社,大阪府,守口市,本町２丁目５番１８号守口ＣＩＤビル１階,,27,209,5700028,,,,,,,2024-10-28,1,,,,,シンフォス,0
2274,9120001269754,新規,0,2024-10-28,2024-10-28,三聯発展株式会社,,株式会社,大阪府,大阪市中央区,平野町１丁目８番１３号平野町八千代ビル３階,,27,128,5410046,,,,,,,2024-10-28,1,,,,,サンレンハッテン,0
2275,9120003027838,新規,0,2024-10-28,2024-10-28,合同会社シーエイチピーエフ,,合同会社,大阪府,大阪市生野区,田島１丁目１１番２８－６１２号,,27,116,5440011,,,,,,,2024-10-28,1,,,,,シーエイチピーエフ,0
2276,9120003027854,新規,0,2024-10-28,2024-10-28,合景弘合同会社,,合同会社,大阪府,大阪市阿倍野区,昭和町５丁目１０番２４号西田辺駅前ビル２０２号室,,27,119,5450011,,,,,,,2024-10-28,1,,,,,ゴウケイコウ,0
2281,9120901049933,新規,0,2024-10-28,2024-10-28,株式会社ブライトテクノ,,株式会社,大阪府,高槻市,安岡寺町１丁目２７番７号の２,,27,207,5691029,,,,,,,2024-10-28,1,,,,,ブライトテクノ,0
2289,9130001078213,新規,0,2024-10-28,2024-10-28,株式会社ラシュレ,,株式会社,京都府,京都市下京区,西洞院通高辻上る本柳水町７８１番地ウイングシティー西洞院５０１号室,00136777,26,106,6008462,,,,,,,2024-10-28,1,,,,,ラシュレ,0
2298,9140001136184,新規,0,2024-10-28,2024-10-28,株式会社Ｆ‐ｓｔｙｌｅ,,株式会社,兵庫県,神戸市中央区,海岸通６番地,,28,110,6500024,,,,,,,2024-10-28,1,,,,,エフスタイル,0
2299,9140001136226,新規,0,2024-10-28,2024-10-28,コーエイホールディングス株式会社,,株式会社,兵庫県,尼崎市,開明町２丁目１１番地,,28,202,6600862,,,,,,,2024-10-28,1,,,,,コーエイホールディングス,0
2311,9180001163720,新規,0,2024-10-28,2024-10-28,ニッカのいえ株式会社,,株式会社,愛知県,名古屋市緑区,徳重１丁目８１２番地,,23,114,4580815,,,,,,,2024-10-28,1,,,,,ニッカノイエ,0
2312,9180001163737,新規,0,2024-10-28,2024-10-28,株式会社バリアル,,株式会社,愛知県,愛西市,二子町松原２６８番地１,,23,232,4968040,,,,,,,2024-10-28,1,,,,,バリアル,0
2313,9180001163753,新規,0,2024-10-28,2024-10-28,株式会社キッズルーレット,,株式会社,愛知県,名古屋市東区,東桜２丁目３番７号,,23,102,4610005,,,,,,,2024-10-28,1,,,,,キッズルーレット,0
2314,9180001163794,新規,0,2024-10-28,2024-10-28,株式会社ＮＯＡデザイン,,株式会社,愛知県,名古屋市中村区,太閤通３丁目２７番地の１,,23,105,4530811,,,,,,,2024-10-28,1,,,,,ノアデザイン,0
2315,9180001163910,新規,0,2024-10-28,2024-10-28,生涯デザインメディカル研究所株式会社,,株式会社,愛知県,名古屋市昭和区,滝川町３１番地の４８,,23,107,4660826,,,,,,,2024-10-28,1,,,,,ショウガイデザインメディカルケンキュウジョ,0
2317,9180003027543,新規,0,2024-10-28,2024-10-28,合同会社てっち,,合同会社,愛知県,知多郡東浦町,大字藤江字前田９７,,23,442,4702105,,,,,,,2024-10-28,1,,,,,テッチ,0
2347,9290003015990,新規,0,2024-10-28,2024-10-28,合同会社Ｄｃｏｎｎｅｃｔ,,合同会社,福岡県,小郡市,三沢５０１４番２４号,,40,216,8380106,,,,,,,2024-10-28,1,,,,,ディーコネクト,0
2353,9340001026885,新規,0,2024-10-28,2024-10-28,出水ヘルスウォータ株式会社,,株式会社,鹿児島県,出水市,下知識町１１７番地２,,46,208,8990132,,,,,,,2024-10-28,1,,,,,イズミヘルススウォータ,0
2378,9430003016917,新規,0,2024-10-28,2024-10-28,Ｏｖｅｒｓｅａｓ　Ｂｕｓｉｎｅｓｓ　Ｓｕｐｐｏｒｔ合同会社,,合同会社,北海道,札幌市中央区,南七条西１８丁目３番１５号エクセレンス１８　２０３号,,01,101,0640807,,,,,,,2024-10-28,1,,,,,オーバーシーズビジネスサポート,0
2379,9430003016933,新規,0,2024-10-28,2024-10-28,合同会社Ｌｕｃａ,,合同会社,北海道,札幌市東区,北三十四条東８丁目２番３－１０２号,,01,103,0070834,,,,,,,2024-10-28,1,,,,,ルカ,0
2381,9430005015099,新規,0,2024-10-28,2024-10-28,一般社団法人Ｐｕｕ＆Ｃｉｉ,,その他の設立登記法人,北海道,札幌市中央区,北五条西２７丁目３番５,,01,101,0640825,,,,,,,2024-10-28,1,,,,,プーアンドチー,0
2385,9500001025961,新規,0,2024-10-28,2024-10-28,株式会社さすらい食堂,,株式会社,愛媛県,松山市,湊町４丁目６－１２池田ビル１階２階,,38,201,7900012,,,,,,,2024-10-28,1,,,,,サスライショクドウ,0
