sequenceNumber,corporateNumber,process,correct,updateDate,changeDate,name,nameImageId,kind,prefectureName,cityName,streetNumber,addressImageId,prefectureCode,cityCode,postCode,addressOutside,addressOutsideImageId,closeDate,closeCause,successorCorporateNumber,changeCause,assignmentDate,latest,enName,enPrefectureName,enCityName,enAddressOutside,furigana,hihyoji
7,1010401104232,登記記録の閉鎖等,0,2025-02-25,2025-02-06,ミールソリューション株式会社,,株式会社,東京都,品川区,東五反田５丁目１番５号,,13,109,1410022,,,2025-02-06,清算の結了等,,,2015-10-05,1,,,,,ミールソリューション,0
11,1010402011023,登記記録の閉鎖等,0,2025-02-25,2025-02-20,有限会社フォープラス,,有限会社,東京都,港区,北青山３丁目２番５号,,13,103,1070061,,,2025-02-20,清算の結了等,,,2015-10-05,1,,,,,フォープラス,0
21,1010801014048,登記記録の閉鎖等,0,2025-02-25,2025-02-17,株式会社コウジヤマ,,株式会社,東京都,大田区,下丸子２丁目２５番１３号,,13,111,1460092,,,2025-02-17,清算の結了等,,,2015-10-05,1,,,,,コウジヤマ,0
27,1011001111726,登記記録の閉鎖等,0,2025-02-25,2025-02-21,株式会社ロコガイド,,株式会社,東京都,港区,三田１丁目４番２８号,,13,103,1080073,,,2025-02-21,合併による解散等,1020001097280,令和７年１月１日東京都港区三田一丁目４番２８号株式会社くふうＡＩスタジオ（1020001097280）に合併し解散,2016-07-08,1,,,,,ロコガイド,0
28,1011001118812,登記記録の閉鎖等,0,2025-02-25,2025-02-07,Ｃａｔｅｎａ　Ｍｅｄｉａ株式会社,,株式会社,東京都,中央区,日本橋３丁目９番１号日本橋三丁目スクエア１１階,,13,102,1030027,,,2025-02-07,清算の結了等,,,2017-10-18,1,,,,,カテナメディア,0
45,1011702008320,登記記録の閉鎖等,0,2025-02-25,2025-02-17,有限会社豊田工業所,,有限会社,東京都,江戸川区,本一色３丁目２８番６号,,13,123,1330044,,,2025-02-17,清算の結了等,,,2015-10-05,1,,,,,トヨタコウギョウショ,0
49,1011802017997,登記記録の閉鎖等,0,2025-02-25,2025-02-18,有限会社福原製作所,,有限会社,東京都,足立区,花畑４丁目２５番６号,,13,121,1210061,,,2025-02-18,清算の結了等,,,2015-10-05,1,,,,,フクハラセイサクショ,0
84,1090001015806,登記記録の閉鎖等,0,2025-02-25,2025-02-19,ふるやフォレスタ株式会社,,株式会社,山梨県,甲州市,塩山竹森５３番地,,19,213,4040051,,,2025-02-19,清算の結了等,,,2018-11-07,1,,,,,フルヤフォレスタ,0
95,1120001213760,登記記録の閉鎖等,0,2025-02-25,2025-02-19,株式会社ことは,,株式会社,大阪府,大阪市北区,梅田２丁目５－１３桜橋第一ビル３０４号,,27,127,5300001,,,2025-02-19,清算の結了等,,,2018-06-04,1,,,,,コトハ,0
96,1120001219881,登記記録の閉鎖等,0,2025-02-25,2025-02-20,株式会社ＮＩＮＥ－ＺＯＯ,,株式会社,大阪府,大阪市中央区,西心斎橋１丁目５番２７号福太郎心斎橋ビルディング３Ｆ,,27,128,5420086,,,2025-02-20,清算の結了等,,,2019-03-27,1,,,,,ナインズー,0
99,1120001264564,登記記録の閉鎖等,0,2025-02-25,2025-02-20,小盧株式会社,,株式会社,大阪府,大阪市大正区,三軒家西３丁目４番１６号中山ビル２１２Ｂ,,27,108,5510001,,,2025-02-20,清算の結了等,,,2024-05-02,1,,,,,ショウロ,0
104,1120002054139,登記記録の閉鎖等,0,2025-02-25,2025-02-20,有限会社ファルマテック,,有限会社,大阪府,大阪市中央区,淡路町２丁目１番１号堺筋千島ビル７Ｆ,,27,128,5410047,,,2025-02-20,清算の結了等,,,2015-10-05,1,,,,,ファルマテック,0
106,1120003007624,登記記録の閉鎖等,0,2025-02-25,2025-02-20,ハイパー合同会社,,合同会社,大阪府,大阪市中央区,船場中央２丁目２番,,27,128,5410055,,,2025-02-20,清算の結了等,,,2015-10-05,1,,,,,ハイパー,0
111,1120901018227,登記記録の閉鎖等,0,2025-02-25,2025-02-17,株式会社エスピー・ブリッジ,,株式会社,大阪府,吹田市,江坂町１丁目１３番２７号,,27,205,5640063,,,2025-02-17,清算の結了等,,,2015-10-05,1,,,,,エスピーブリッジ,0
116,1130001004374,登記記録の閉鎖等,0,2025-02-25,2025-02-21,株式会社ヴィヴァス,,株式会社,京都府,京都市北区,西賀茂坊ノ後町１１番地の１,,26,101,6038826,,,2025-02-21,清算の結了等,,,2015-10-05,1,,,,,ヴィヴァス,0
123,1160001016342,登記記録の閉鎖等,0,2025-02-25,2025-02-20,リフォライフ株式会社,,株式会社,滋賀県,野洲市,小篠原１５６２番地２,,25,210,5202331,,,2025-02-20,清算の結了等,,,2015-10-05,1,,,,,リフォライフ,0
140,1180301012626,登記記録の閉鎖等,0,2025-02-25,2025-02-18,株式会社安祥製作所,,株式会社,愛知県,安城市,東栄町１丁目４番１８号,,23,212,4460007,,,2025-02-18,清算の結了等,,,2015-10-05,1,,,,,アンショウセイサクショ,0
143,1180302019612,登記記録の閉鎖等,0,2025-02-25,2025-02-18,有限会社パールコンタクト,,有限会社,愛知県,知立市,新地町西広見１９番地２,,23,225,4720041,,,2025-02-18,清算の結了等,,,2015-10-05,1,,,,,パールコンタクト,0
191,1500001023840,登記記録の閉鎖等,0,2025-02-25,2025-02-20,株式会社ＡＮＮＡＩ,,株式会社,愛媛県,松山市,二番町２丁目７番地１－１Ｆ,,38,201,7900002,,,2025-02-20,清算の結了等,,,2021-12-02,1,,,,,アンナイ,0
193,2010001013741,登記記録の閉鎖等,0,2025-02-25,2025-01-28,関東化学工業株式会社,,株式会社,神奈川県,横浜市西区,みなとみらい２丁目２番１号横浜ランドマークタワー２１階,,14,103,2200012,,,2025-01-28,合併による解散等,3020001074914,令和７年１月１日川崎市川崎区桜本二丁目４４番１号理研アルマイト工業株式会社（3020001074914）に合併し解散,2015-10-05,1,,,,,カントウカガクコウギョウ,0
201,2010401111153,登記記録の閉鎖等,0,2025-02-25,2025-02-21,株式会社ワンルーム,,株式会社,東京都,豊島区,南池袋２丁目３２番６号サンハイツ豊島神谷ビル１０２,,13,116,1710022,,,2025-02-21,清算の結了等,,,2015-10-05,1,,,,,ワンルーム,0
202,2010401168177,登記記録の閉鎖等,0,2025-02-25,2025-02-04,ＨＡＬＭＡ　ＪＡＰＡＮ株式会社,,株式会社,東京都,港区,東麻布１丁目２３番５号,,13,103,1060044,,,2025-02-04,清算の結了等,,,2022-06-24,1,,,,,ハルマジャパン,0
217,2011001126186,登記記録の閉鎖等,0,2025-02-25,2025-02-14,株式会社ＥＤＩＳＴ,,株式会社,東京都,新宿区,西新宿２丁目６番１号,,13,104,1600023,,,2025-02-14,清算の結了等,,,2019-01-24,1,,,,,エディスト,0
230,2011301003738,登記記録の閉鎖等,0,2025-02-25,2025-02-20,株式会社盛美,,株式会社,東京都,杉並区,天沼３丁目１番１号,,13,115,1670032,,,2025-02-20,清算の結了等,,,2015-10-05,1,,,,,セイビ,0
239,2011801002479,登記記録の閉鎖等,0,2025-02-25,2025-02-20,株式会社セフティプロ,,株式会社,東京都,葛飾区,奥戸４丁目１２番１１号,,13,122,1240022,,,2025-02-20,清算の結了等,,,2015-10-05,1,,,,,セフティプロ,0
241,2011802022955,登記記録の閉鎖等,0,2025-02-25,2025-02-19,有限会社シーコサービス,,有限会社,東京都,足立区,大谷田４丁目１３番１５号,,13,121,1200001,,,2025-02-19,清算の結了等,,,2015-10-05,1,,,,,シーコサービス,0
253,2012801006701,登記記録の閉鎖等,0,2025-02-25,2025-02-19,株式会社小田塗装,,株式会社,東京都,八王子市,狭間町１４６４番地１八王子狭間住宅１－９０８,,13,201,1930941,,,2025-02-19,清算の結了等,,,2015-10-05,1,,,,,オダトソウ,0
257,2013301006786,登記記録の閉鎖等,0,2025-02-25,2025-02-06,株式会社大金,,株式会社,東京都,豊島区,東池袋１丁目４７番７号,,13,116,1700013,,,2025-02-06,清算の結了等,,,2015-10-05,1,,,,,オオガネ,0
259,2013301050198,登記記録の閉鎖等,0,2025-02-25,2025-02-19,株式会社ライズ,,株式会社,埼玉県,蕨市,南町３丁目１９番１号スタービレＭＯＮＡ１０２号,,11,223,3350003,,,2025-02-19,清算の結了等,,,2023-01-17,1,,,,,ライズ,0
268,2030001046871,登記記録の閉鎖等,0,2025-02-25,2025-02-20,明和優美印刷株式会社,,株式会社,埼玉県,和光市,下新倉５丁目１７番７７号,,11,229,3510111,,,2025-02-20,清算の結了等,,,2015-10-05,1,,,,,,0
281,2050003004009,登記記録の閉鎖等,0,2025-02-25,2025-02-14,合同会社まるしょう,,合同会社,茨城県,常総市,水海道橋本町３６５３番地１,,08,211,3030003,,,2025-02-14,清算の結了等,,,2017-12-11,1,,,,,マルショウ,0
291,2070002019897,登記記録の閉鎖等,0,2025-02-25,2025-02-20,有限会社茂木塗装,,有限会社,群馬県,伊勢崎市,宮子町３３１８番地１,,10,204,3720801,,,2025-02-20,清算の結了等,,,2015-10-05,1,,,,,モテギトソウ,0
312,2120002029008,登記記録の閉鎖等,0,2025-02-25,2025-02-18,有限会社アークネッツ,,有限会社,大阪府,大阪市北区,本庄西２丁目１４番１３号,,27,127,5310073,,,2025-02-18,清算の結了等,,,2015-10-05,1,,,,,アークネッツ,0
323,2130001055904,登記記録の閉鎖等,0,2025-02-25,2025-02-17,京都土地株式会社,,株式会社,京都府,京都市北区,小山初音町１６番地,,26,101,6038172,,,2025-02-17,清算の結了等,,,2015-10-05,1,,,,,キョウトトチ,0
328,2140001011443,登記記録の閉鎖等,0,2025-02-25,2025-02-18,山三貿易株式会社,,株式会社,兵庫県,神戸市中央区,海岸通２丁目２番３号,,28,110,6500024,,,2025-02-18,清算の結了等,,,2015-10-05,1,,,,,ヤマサンボウエキ,0
330,2140001085677,登記記録の閉鎖等,0,2025-02-25,2025-02-18,株式会社地測,,株式会社,兵庫県,南あわじ市,潮美台１丁目２４番地の８,,28,224,6560521,,,2025-02-18,清算の結了等,,,2015-10-05,1,,,,,チソク,0
348,2180302003680,登記記録の閉鎖等,0,2025-02-25,2025-02-17,有限会社ベネフィット,,有限会社,愛知県,岡崎市,若松東２丁目９番地６,,23,202,4440822,,,2025-02-17,清算の結了等,,,2015-10-05,1,,,,,ベネフィット,0
358,2290001007633,登記記録の閉鎖等,0,2025-02-25,2025-02-12,株式会社サンケイ設計,,株式会社,福岡県,福岡市南区,三宅２丁目１０番１８号,,40,134,8111344,,,2025-02-12,清算の結了等,,,2015-10-05,1,,,,,サンケイセッケイ,0
359,2290001015628,登記記録の閉鎖等,0,2025-02-25,2025-02-20,株式会社熱建,,株式会社,広島県,広島市東区,二葉の里３丁目３番１号,,34,102,7320057,,,2025-02-20,清算の結了等,,,2015-10-05,1,,,,,ネッケン,0
365,2290001058916,登記記録の閉鎖等,0,2025-02-25,2025-02-06,ゆず商店株式会社,,株式会社,福岡県,久留米市,寺町１－３,,40,203,8300014,,,2025-02-06,清算の結了等,,,2015-10-05,1,,,,,ユズショウテン,0
372,2290002036094,登記記録の閉鎖等,0,2025-02-25,2025-02-13,有限会社エイ・エフ機工,,有限会社,福岡県,糟屋郡宇美町,四王寺坂１丁目２８番１０号,,40,341,8112103,,,2025-02-13,清算の結了等,,,2015-10-05,1,,,,,エイエフキコウ,0
381,2330002025869,登記記録の閉鎖等,0,2025-02-25,2025-02-19,有限会社スマート制服店,,有限会社,熊本県,八代市,北の丸町３番３号,,43,202,8660865,,,2025-02-19,清算の結了等,,,2015-10-05,1,,,,,スマートセイフクテン,0
398,2420002017816,登記記録の閉鎖等,0,2025-02-25,2025-02-19,有限会社長久保自動車,,有限会社,青森県,三沢市,南町３丁目３１番地２９２１号,,02,207,0330036,,,2025-02-19,清算の結了等,,,2015-10-05,1,,,,,ナガクボジドウシャ,0
405,2470001007243,登記記録の閉鎖等,0,2025-02-25,2025-02-19,泉建設株式会社,,株式会社,香川県,丸亀市,風袋町１１７番地,,37,202,7630001,,,2025-02-19,清算の結了等,,,2015-10-05,1,,,,,イズミケンセツ,0
412,2500002023277,登記記録の閉鎖等,0,2025-02-25,2025-02-20,有限会社吉見屋,,有限会社,愛媛県,宇和島市,伊吹町４５１番地,,38,203,7980022,,,2025-02-20,清算の結了等,,,2015-10-05,1,,,,,ヨシミヤ,0
418,3010001209801,登記記録の閉鎖等,0,2025-02-25,2025-02-07,セルソリューション株式会社,,株式会社,東京都,中央区,銀座１丁目２２番１１号銀座大竹ビジデンス２Ｆ,,13,102,1040061,,,2025-02-07,清算の結了等,,,2020-05-28,1,,,,,セルソリューション,0
431,3010403027173,登記記録の閉鎖等,0,2025-02-25,2025-02-07,ＫＯＫＯ　ＨＯＴＥＬ神戸三宮合同会社,,合同会社,東京都,千代田区,五番町６番地２ＯＡＧ税理士法人内,,13,101,1020076,,,2025-02-07,清算の結了等,,,2022-03-01,1,,,,,ココホテルコウベサンノミヤ,0
445,3010702011448,登記記録の閉鎖等,0,2025-02-25,2025-02-05,有限会社オフィスケイアンドエム,,有限会社,東京都,品川区,東五反田３丁目７番１２号,,13,109,1410022,,,2025-02-05,清算の結了等,,,2015-10-05,1,,,,,オフィスケイアンドエム,0
446,3010801029515,登記記録の閉鎖等,0,2025-02-25,2025-02-14,株式会社ＴＰＣ,,株式会社,東京都,大田区,西蒲田７丁目４８番３号大越ビル５Ｆ,,13,111,1440051,,,2025-02-14,清算の結了等,,,2019-01-22,1,,,,,ティーピーシー,0
449,3010902001364,登記記録の閉鎖等,0,2025-02-25,2025-02-18,有限会社五十嵐タイル店,,有限会社,東京都,世田谷区,砧１丁目１３番３２号,,13,112,1570073,,,2025-02-18,清算の結了等,,,2015-10-05,1,,,,,イガラシタイルテン,0
463,3011101102400,登記記録の閉鎖等,0,2025-02-25,2025-02-17,株式会社Ｇｌａｎｚ,,株式会社,東京都,新宿区,西新宿３丁目３番１３号西新宿水間ビル６階,,13,104,1600023,,,2025-02-17,清算の結了等,,,2023-04-06,1,,,,,グランツ,0
473,3011801000060,登記記録の閉鎖等,0,2025-02-25,2025-02-18,株式会社青木國工務店,,株式会社,東京都,葛飾区,柴又４丁目１１番４－１０３号,,13,122,1250052,,,2025-02-18,清算の結了等,,,2015-10-05,1,,,,,アオキクニコウムテン,0
496,3030001003509,登記記録の閉鎖等,0,2025-02-25,2025-02-19,株式会社アイ・リード,,株式会社,埼玉県,さいたま市北区,東大成町２丁目２５４番地,,11,102,3310814,,,2025-02-19,清算の結了等,,,2015-10-05,1,,,,,アイリード,0
498,3030001084103,登記記録の閉鎖等,0,2025-02-25,2025-02-06,株式会社リンド,,株式会社,東京都,品川区,西五反田１丁目２６番２号,,13,109,1410031,,,2025-02-06,清算の結了等,,,2015-10-05,1,,,,,リンド,0
502,3030001138932,登記記録の閉鎖等,0,2025-02-25,2025-02-19,ｂｕｂｂｌｅｓ株式会社,,株式会社,埼玉県,ふじみ野市,本新田３番６号,,11,245,3560018,,,2025-02-19,清算の結了等,,,2020-10-26,1,,,,,バブルス,0
508,3030002073724,登記記録の閉鎖等,0,2025-02-25,2025-02-18,有限会社下田製作所,,有限会社,埼玉県,川越市,新宿町６丁目２８番地３２,,11,201,3501124,,,2025-02-18,清算の結了等,,,2015-10-05,1,,,,,シモダセイサクジョ,0
525,3090003002445,登記記録の閉鎖等,0,2025-02-25,2025-02-13,むかし姫合同会社,,合同会社,山梨県,北杜市,高根町箕輪２２５５番地１,,19,209,4080012,,,2025-02-13,清算の結了等,,,2023-12-11,1,,,,,ムカシヒメ,0
542,3120002028207,登記記録の閉鎖等,0,2025-02-25,2025-02-19,有限会社古川商事,,有限会社,大阪府,大阪市淀川区,塚本５丁目４番１号,,27,123,5320026,,,2025-02-19,清算の結了等,,,2015-10-05,1,,,,,フルカワショウジ,0
555,3140003004840,登記記録の閉鎖等,0,2025-02-25,2025-02-18,合同会社Ｙ・Ｋフーズ販売,,合同会社,兵庫県,神戸市北区,筑紫が丘２丁目７－７,,28,109,6511212,,,2025-02-18,清算の結了等,,,2015-10-05,1,,,,,ワイケイフーズハンバイ,0
558,3150001020260,登記記録の閉鎖等,0,2025-02-25,2025-02-21,株式会社シードホーム,,株式会社,奈良県,桜井市,大字谷９７７番地の１,,29,206,6330053,,,2025-02-21,清算の結了等,,,2015-10-05,1,,,,,シードホーム,0
562,3150003000525,登記記録の閉鎖等,0,2025-02-25,2025-02-20,旭電器産業合資会社,,合資会社,奈良県,桜井市,大字外山１０４９番地の２,,29,206,6330007,,,2025-02-20,清算の結了等,,,2015-10-05,1,,,,,アサヒデンキサンギョウ,0
564,3180001060824,登記記録の閉鎖等,0,2025-02-25,2025-02-19,株式会社アトマス商事,,株式会社,愛知県,名古屋市東区,東桜１丁目５番１２号,,23,102,4610005,,,2025-02-19,清算の結了等,,,2015-10-05,1,,,,,アトマスショウジ,0
565,3180001103649,登記記録の閉鎖等,0,2025-02-25,2025-02-18,株式会社丸八鉄工所,,株式会社,愛知県,名古屋市北区,辻本通４丁目８番地,,23,103,4620861,,,2025-02-18,清算の結了等,,,2015-10-05,1,,,,,マルハチテッコウショ,0
603,3330005009199,登記記録の閉鎖等,0,2025-02-25,2025-02-17,ＮＰＯ法人認知症を考える市民の会,,その他の設立登記法人,熊本県,宇城市,松橋町両仲間９８５番地７,,43,213,8690533,,,2025-02-17,清算の結了等,,,2015-10-05,1,,,,,ニンチショウヲカンガエルシミンノカイ,0
614,3410001011530,登記記録の閉鎖等,0,2025-02-25,2025-02-19,株式会社フォーエバー現代美術館,,株式会社,秋田県,秋田市,新屋大川町１８番７号,,05,201,0101632,,,2025-02-19,清算の結了等,,,2017-04-25,1,,,,,フォーエバーゲンダイビジュツカン,0
616,3410003003237,登記記録の閉鎖等,0,2025-02-25,2025-02-19,合同会社フロール,,合同会社,秋田県,大館市,字観音堂６２０番地７,,05,204,0170042,,,2025-02-19,清算の結了等,,,2019-03-06,1,,,,,,0
619,3430001037516,登記記録の閉鎖等,0,2025-02-25,2025-02-20,株式会社シーエフテー,,株式会社,北海道,札幌市白石区,川北三条２丁目４番２２号,,01,104,0030853,,,2025-02-20,清算の結了等,,,2015-10-05,1,,,,,シーエフテー,0
622,3430002058610,登記記録の閉鎖等,0,2025-02-25,2025-02-18,有限会社小林工業,,有限会社,北海道,苫小牧市,明野新町６丁目１０番１５号,,01,213,0530054,,,2025-02-18,清算の結了等,,,2015-10-05,1,,,,,コバヤシコウギョウ,0
645,4010401038386,登記記録の閉鎖等,0,2025-02-25,2025-01-31,株式会社日本ユービス,,株式会社,東京都,港区,赤坂３丁目２１番２０号,,13,103,1070052,,,2025-01-31,清算の結了等,,,2015-10-05,1,,,,,ニホンユービス,0
653,4010503007454,登記記録の閉鎖等,0,2025-02-25,2025-02-06,アキバベース合同会社,,合同会社,東京都,台東区,台東４丁目３１番１号,,13,106,1100016,,,2025-02-06,清算の結了等,,,2024-05-23,1,,,,,アキバベース,0
687,4011802025171,登記記録の閉鎖等,0,2025-02-25,2025-02-18,有限会社国美術,,有限会社,東京都,葛飾区,柴又４丁目１１番４－１０３号,,13,122,1250052,,,2025-02-18,清算の結了等,,,2015-10-05,1,,,,,クニビジュツ,0
694,4020001092477,登記記録の閉鎖等,0,2025-02-25,2025-02-06,株式会社キノデン,,株式会社,神奈川県,川崎市麻生区,はるひ野４丁目４番６－１３１２号,,14,137,2150036,,,2025-02-06,清算の結了等,,,2015-10-05,1,,,,,キノデン,0
698,4021001007094,登記記録の閉鎖等,0,2025-02-25,2025-02-20,株式会社高砂産業,00012258,株式会社,神奈川県,高座郡寒川町,宮山１８８６番地,,14,321,2530106,,,2025-02-20,清算の結了等,,,2015-10-05,1,,,,,タカサゴサンギョウ,0
700,4021001072931,登記記録の閉鎖等,0,2025-02-25,2025-02-21,株式会社ＨＩＲＡＪＩ　Ｃｏｍｐａｎｙ,,株式会社,神奈川県,相模原市中央区,田名５９８４番地８,,14,152,2520244,,,2025-02-21,清算の結了等,,,2021-05-21,1,,,,,ヒラジカンパニー,0
722,4050001014676,登記記録の閉鎖等,0,2025-02-25,2025-02-07,フードリサイクル株式会社,,株式会社,茨城県,坂東市,半谷１９８４番地１,,08,228,3060651,,,2025-02-07,清算の結了等,,,2015-10-05,1,,,,,フードリサイクル,0
736,4080001023600,登記記録の閉鎖等,0,2025-02-25,2025-02-18,ビホウ株式会社,,株式会社,静岡県,静岡市清水区,折戸４丁目１番１０号,,22,103,4240902,,,2025-02-18,清算の結了等,,,2020-06-26,1,,,,,ビホウ,0
742,4110003005287,登記記録の閉鎖等,0,2025-02-25,2025-02-19,合同会社ＹＯＫＵＮＡＬＵ,,合同会社,新潟県,新潟市中央区,女池７丁目１９‐５,,15,103,9500941,,,2025-02-19,清算の結了等,,,2024-02-13,1,,,,,ヨクナル,0
747,4120002005873,登記記録の閉鎖等,0,2025-02-25,2025-02-20,有限会社土井測量,,有限会社,大阪府,大阪市東住吉区,桑津３丁目２９番１１号,,27,121,5460041,,,2025-02-20,清算の結了等,,,2015-10-05,1,,,,,,0
757,4130001062064,登記記録の閉鎖等,0,2025-02-25,2025-02-20,ライフラボ株式会社,,株式会社,京都府,京都市山科区,西野山中鳥井町３９番地２７,,26,110,6078306,,,2025-02-20,清算の結了等,,,2018-05-08,1,,,,,ライフラボ,0
767,4140002064620,登記記録の閉鎖等,0,2025-02-25,2025-02-17,辰巳印刷有限会社,,有限会社,兵庫県,川西市,加茂１丁目１１番１５号,,28,217,6660025,,,2025-02-17,清算の結了等,,,2015-10-05,1,,,,,タツミインサツ,0
780,4180301022449,登記記録の閉鎖等,0,2025-02-25,2025-02-18,後藤鉄工株式会社,,株式会社,愛知県,西尾市,楠村町山崎１８番地,,23,213,4440325,,,2025-02-18,清算の結了等,,,2015-10-05,1,,,,,ゴトウテッコウ,0
794,4260001011058,登記記録の閉鎖等,0,2025-02-25,2025-02-21,ＳＫＹ．ＮＥＴ株式会社,,株式会社,岡山県,岡山市南区,福成１丁目１７６番地５シェーンブルグＣ２０１,,33,104,7028022,,,2025-02-21,清算の結了等,,,2015-10-05,1,,,,,スカイネット,0
799,4260002033919,登記記録の閉鎖等,0,2025-02-25,2025-02-18,有限会社山田建設,,有限会社,岡山県,真庭市,落合垂水４１７番地,,33,214,7193144,,,2025-02-18,清算の結了等,,,2015-10-05,1,,,,,ヤマダケンセツ,0
809,4290002026812,登記記録の閉鎖等,0,2025-02-25,2025-02-14,有限会社ＸＥＢＥＣ,,有限会社,福岡県,福岡市博多区,竹下４丁目１番３６－６０８号,,40,132,8120895,,,2025-02-14,清算の結了等,,,2015-10-05,1,,,,,ジーベック,0
810,4290002036506,登記記録の閉鎖等,0,2025-02-25,2025-02-10,有限会社シン設計,,有限会社,福岡県,糟屋郡粕屋町,長者原東１丁目１１番８－８０３号,,40,349,8112317,,,2025-02-10,清算の結了等,,,2015-10-05,1,,,,,シンセッケイ,0
813,4290005017651,登記記録の閉鎖等,0,2025-02-25,2025-02-07,特定非営利活動法人アスレチッククラブ博多２０２０,,その他の設立登記法人,福岡県,福岡市城南区,荒江１丁目３３番１３－５０３号,,40,136,8140101,,,2025-02-07,清算の結了等,,,2020-02-12,1,,,,,アスレチッククラブハカタニーゼロニーゼロ,0
817,4320003002957,登記記録の閉鎖等,0,2025-02-25,2025-02-20,マリゴールドコンサルティング合同会社,,合同会社,大分県,大分市,王子山の手町３２番１２号,,44,201,8700813,,,2025-02-20,清算の結了等,,,2019-02-05,1,,,,,マリゴールドコンサルティング,0
829,4380002016696,登記記録の閉鎖等,0,2025-02-25,2025-02-12,有限会社渡辺工機梱包,,有限会社,福島県,二本松市,郭内２丁目３４６番地の１,,07,210,9640904,,,2025-02-12,清算の結了等,,,2015-10-05,1,,,,,ワタナベコウキコンポウ,0
830,4400002006298,登記記録の閉鎖等,0,2025-02-25,2025-02-13,有限会社おおみや堂,,有限会社,岩手県,盛岡市,本宮字大宮４８番地,,03,201,0200866,,,2025-02-13,清算の結了等,,,2015-10-05,1,,,,,オオミヤドウ,0
846,5010003043338,登記記録の閉鎖等,0,2025-02-25,2025-02-07,ＦＫＧ合同会社,,合同会社,東京都,中央区,八丁堀４丁目２番１０号ＡＯＪ税理士法人内,,13,102,1040032,,,2025-02-07,清算の結了等,,,2024-04-08,1,,,,,エフケイジー,0
882,5011101109245,登記記録の閉鎖等,0,2025-02-25,2025-02-14,Ｐｒｉｍｅ株式会社,,株式会社,東京都,新宿区,高田馬場３丁目１番５号サンパティオ高田馬場３０９号室,,13,104,1690075,,,2025-02-14,清算の結了等,,,2024-10-24,1,,,,,プライム,0
884,5011102017447,登記記録の閉鎖等,0,2025-02-25,2025-02-14,有限会社リアルタイム,,有限会社,東京都,東大和市,高木３丁目２２６番地の５,,13,220,2070005,,,2025-02-14,清算の結了等,,,2015-10-05,1,,,,,リアルタイム,0
886,5011105008377,登記記録の閉鎖等,0,2025-02-25,2025-02-20,社会保険労務士法人中西人事労務研究所,,その他の設立登記法人,東京都,新宿区,西早稲田３丁目２９番８－１０２号,,13,104,1690051,,,2025-02-20,清算の結了等,,,2018-06-07,1,,,,,ナカニシジンジロウムケンキュウショ,0
905,5013101003469,登記記録の閉鎖等,0,2025-02-25,2025-02-21,青梅青果株式会社,,株式会社,東京都,青梅市,藤橋３丁目７番地３,,13,205,1980022,,,2025-02-21,清算の結了等,,,2015-10-05,1,,,,,オウメセイカ,0
911,5021001071775,登記記録の閉鎖等,0,2025-02-25,2025-02-21,株式会社十八,,株式会社,神奈川県,平塚市,根坂間２１８－１,,14,203,2540904,,,2025-02-21,清算の結了等,,,2021-01-14,1,,,,,,0
920,5030001072741,登記記録の閉鎖等,0,2025-02-25,2025-02-20,株式会社Ｏ．Ｃ．Ｓ,,株式会社,埼玉県,さいたま市北区,奈良町９９番地８,,11,102,3310822,,,2025-02-20,清算の結了等,,,2015-10-05,1,,,,,オーシーエス,0
947,5080002009143,登記記録の閉鎖等,0,2025-02-25,2025-02-19,有限会社池田商店,,有限会社,静岡県,静岡市清水区,横砂南町９番６号,,22,103,4240035,,,2025-02-19,清算の結了等,,,2015-10-05,1,,,,,イケダショウテン,0
969,5120001221355,登記記録の閉鎖等,0,2025-02-25,2025-02-20,株式会社財園,,株式会社,大阪府,大阪市東成区,大今里南３丁目１４－２４,,27,115,5370013,,,2025-02-20,清算の結了等,,,2019-05-30,1,,,,,サイエン,0
997,5180001084680,登記記録の閉鎖等,0,2025-02-25,2025-02-20,株式会社タナ環境研究所,,株式会社,愛知県,一宮市,古金町１丁目２７番３０４号,,23,203,4910867,,,2025-02-20,清算の結了等,,,2015-10-05,1,,,,,タナカンキョウケンキュウジョ,0
1003,5180002055490,登記記録の閉鎖等,0,2025-02-25,2024-12-11,有限会社はなぶさ,,有限会社,愛知県,名古屋市熱田区,一番３丁目６番７号,,23,109,4560053,,,2024-12-11,清算の結了等,,,2015-10-05,1,,,,,ハナブサ,0
1042,5330002021865,登記記録の閉鎖等,0,2025-02-25,2025-02-17,有限会社東海保険事務所,,有限会社,熊本県,荒尾市,平山２２６３番地５,,43,204,8640015,,,2025-02-17,清算の結了等,,,2015-10-05,1,,,,,,0
1045,5360001016789,登記記録の閉鎖等,0,2025-02-25,2025-02-21,株式会社丸洋建設,,株式会社,沖縄県,島尻郡南風原町,字兼城２１８番地の２,,47,350,9011111,,,2025-02-21,清算の結了等,,,2015-10-05,1,,,,,マルヒロケンセツ,0
1056,5380002021282,登記記録の閉鎖等,0,2025-02-25,2025-02-13,有限会社河西呉服店,,有限会社,福島県,石川郡古殿町,大字竹貫字古町３４番地,,07,505,9638305,,,2025-02-13,清算の結了等,,,2015-10-05,1,,,,,カワニシゴフクテン,0
1096,6010401159206,登記記録の閉鎖等,0,2025-02-25,2025-02-04,株式会社ＴＯＫＩＯ－ＢＡ,,株式会社,東京都,港区,六本木７丁目１９番９号,,13,103,1060032,,,2025-02-04,合併による解散等,3010403027768,令和７年２月１日東京都港区六本木七丁目１９番９号合同会社ＴＯＫＩＯ‐ＢＡ福島西郷（3010403027768）に合併し解散,2021-04-05,1,,,,,トキオバ,0
1101,6010702006635,登記記録の閉鎖等,0,2025-02-25,2025-02-05,有限会社梅月菓子舗,,有限会社,東京都,品川区,東大井５丁目３番５号,,13,109,1400011,,,2025-02-05,清算の結了等,,,2015-10-05,1,,,,,バイゲツカシホ,0
1104,6010901046242,登記記録の閉鎖等,0,2025-02-25,2025-02-18,株式会社ＴＬＣ,,株式会社,東京都,世田谷区,船橋７丁目２０番５,,13,112,1560055,,,2025-02-18,清算の結了等,,,2020-05-19,1,,,,,ティエルシー,0
1119,6011101070669,登記記録の閉鎖等,0,2025-02-25,2025-02-13,ＧＯＯＤ４株式会社,,株式会社,東京都,豊島区,南池袋１丁目１１番１９－２６０９号,,13,116,1710022,,,2025-02-13,清算の結了等,,,2015-10-05,1,,,,,グッドフォー,0
1171,6040001067228,登記記録の閉鎖等,0,2025-02-25,2025-02-07,株式会社日の出,,株式会社,東京都,中央区,銀座３丁目１３番１９号,,13,102,1040061,,,2025-02-07,清算の結了等,,,2015-10-05,1,,,,,ヒノデ,0
1202,6100005007000,登記記録の閉鎖等,0,2025-02-25,2025-02-20,特定非営利活動法人緑水舎,,その他の設立登記法人,長野県,塩尻市,大字洗馬５７２０番地,,20,215,3996462,,,2025-02-20,清算の結了等,,,2015-10-05,1,,,,,リョクスイシャ,0
1222,6122005003679,登記記録の閉鎖等,0,2025-02-25,2025-02-19,一般社団法人日本機能性コーティング協会,,その他の設立登記法人,大阪府,八尾市,柏村町３丁目１０９７番地,,27,212,5810022,,,2025-02-19,清算の結了等,,,2023-05-16,1,,,,,ニホンキノウセイコーティングキョウカイ,0
1227,6130003005928,登記記録の閉鎖等,0,2025-02-25,2025-02-21,合同会社ＴＯＭＯ’ｓＣｒｅａｔｉｏｎ,,合同会社,京都府,宇治市,木幡平尾２８番地の１０５６,,26,204,6110002,,,2025-02-21,清算の結了等,,,2019-03-28,1,,,,,トモズクリエーション,0
1230,6140002069774,登記記録の閉鎖等,0,2025-02-25,2025-02-12,有限会社坂口自動車,,有限会社,兵庫県,南あわじ市,志知鈩１７３番地の４,,28,224,6560322,,,2025-02-12,清算の結了等,,,2015-10-05,1,,,,,サカグチジドウシャ,0
1235,6150002003534,登記記録の閉鎖等,0,2025-02-25,2025-02-19,有限会社広岡保険事務所,,有限会社,奈良県,奈良市,油阪町４１２番地,,29,201,6308247,,,2025-02-19,清算の結了等,,,2015-10-05,1,,,,,ヒロオカホケンジムショ,0
1254,6200003006571,登記記録の閉鎖等,0,2025-02-25,2025-02-19,合同会社シティ,,合同会社,岐阜県,可児市,徳野南２丁目８５番地,,21,214,5090205,,,2025-02-19,合併による解散等,9200001018608,令和７年２月１日岐阜県可児市徳野南二丁目８５番地株式会社シティホールディングス（9200001018608）に合併し解散,2024-11-07,1,,,,,シティ,0
1264,6260002016129,登記記録の閉鎖等,0,2025-02-25,2025-02-17,アイワ工業有限会社,,有限会社,岡山県,倉敷市,東粒浦１１番３号,,33,202,7100032,,,2025-02-17,清算の結了等,,,2015-10-05,1,,,,,アイワコウギョウ,0
1268,6290001054440,登記記録の閉鎖等,0,2025-02-25,2025-02-12,シエン九州株式会社,,株式会社,福岡県,柳川市,大和町徳益２７０番地２,,40,207,8390241,,,2025-02-12,清算の結了等,,,2015-10-05,1,,,,,シエンキュウシュウ,0
1277,6340002005882,登記記録の閉鎖等,0,2025-02-25,2025-02-20,有限会社タケシタ商事,,有限会社,鹿児島県,鹿児島市,城山２丁目３９番３号,,46,201,8920813,,,2025-02-20,清算の結了等,,,2015-10-05,1,,,,,,0
1281,6370001023453,登記記録の閉鎖等,0,2025-02-25,2025-02-20,株式会社Ｓ・Ｙアポロ,,株式会社,宮城県,仙台市青葉区,一番町１丁目２番２５号,,04,101,9800811,,,2025-02-20,清算の結了等,,,2015-10-05,1,,,,,エスワイアポロ,0
1288,6410003003853,登記記録の閉鎖等,0,2025-02-25,2025-02-20,四季是々合同会社,,合同会社,秋田県,由利本荘市,川口字大覚１８２番地本荘由利産学共同研究センター内,,05,210,0150051,,,2025-02-20,清算の結了等,,,2023-10-19,1,,,,,シキコレコレ,0
1320,7010401096992,登記記録の閉鎖等,0,2025-02-25,2025-02-03,株式会社レッド・プラネット・ホテルズ・ジャパン,,株式会社,東京都,港区,元麻布３丁目１番６号,,13,103,1060046,,,2025-02-03,清算の結了等,,,2015-10-05,1,,,,,レッドプラネットホテルズジャパン,0
1326,7010402005853,登記記録の閉鎖等,0,2025-02-25,2025-02-03,三光印刷有限会社,,有限会社,東京都,港区,虎ノ門３丁目１８番１３号,,13,103,1050001,,,2025-02-03,清算の結了等,,,2015-10-05,1,,,,,サンコウインサツ,0
1327,7010402015869,登記記録の閉鎖等,0,2025-02-25,2025-02-03,有限会社晩翠,,有限会社,東京都,港区,芝５丁目２３番１０号,,13,103,1080014,,,2025-02-03,清算の結了等,,,2015-10-05,1,,,,,バンスイ,0
1338,7010802015551,登記記録の閉鎖等,0,2025-02-25,2025-02-12,有限会社力衛,,有限会社,東京都,大田区,羽田３丁目２１番７号,,13,111,1440043,,,2025-02-12,清算の結了等,,,2015-10-05,1,,,,,リキエイ,0
1341,7011001003389,登記記録の閉鎖等,0,2025-02-25,2025-01-28,株式会社エイ・ティー・システム,,株式会社,東京都,渋谷区,神宮前５丁目４３番８号,,13,113,1500001,,,2025-01-28,清算の結了等,,,2015-10-05,1,,,,,,0
1356,7011301025744,登記記録の閉鎖等,0,2025-02-25,2025-02-20,株式会社ｈａｎａｙｏ,,株式会社,東京都,中野区,中野２丁目２４番１１号住友不動産中野駅前ビル,,13,114,1640001,,,2025-02-20,清算の結了等,,,2020-03-03,1,,,,,ハナヨ,0
1366,7011701013365,登記記録の閉鎖等,0,2025-02-25,2025-02-19,株式会社ポラリス,,株式会社,東京都,江戸川区,江戸川２丁目２９番１－１４１８号,,13,123,1320013,,,2025-02-19,清算の結了等,,,2015-10-05,1,,,,,ポラリス,0
1374,7012302007715,登記記録の閉鎖等,0,2025-02-25,2025-02-12,有限会社ウェイ,,有限会社,岩手県,久慈市,長内町第４４地割１３２番地８４,,03,207,0280041,,,2025-02-12,清算の結了等,,,2015-10-05,1,,,,,ウェイ,0
1387,7020001012044,登記記録の閉鎖等,0,2025-02-25,2025-02-03,株式会社ユニマットキャラバン,,株式会社,東京都,港区,南青山２丁目１２番１４号,,13,103,1070062,,,2025-02-03,合併による解散等,9010401030487,令和７年２月１日東京都港区南青山二丁目１２番１４号株式会社ユニマットライフ（9010401030487）に合併し解散,2015-10-05,1,,,,,ユニマットキャラバン,0
1388,7020001025772,登記記録の閉鎖等,0,2025-02-25,2025-02-06,株式会社小田原屋,,株式会社,神奈川県,横浜市中区,本牧町１丁目９９番地,,14,104,2310806,,,2025-02-06,清算の結了等,,,2015-10-05,1,,,,,オダワラヤ,0
1389,7020001119211,登記記録の閉鎖等,0,2025-02-25,2025-02-06,いしずえパートナーズ株式会社,,株式会社,神奈川県,横浜市港南区,日野５丁目２９番５９号,,14,111,2340051,,,2025-02-06,清算の結了等,,,2016-12-22,1,,,,,イシズエパートナーズ,0
1396,7021001040480,登記記録の閉鎖等,0,2025-02-25,2025-02-21,新星ハウス株式会社,,株式会社,神奈川県,横須賀市,長沢１丁目３４番１５号第二新星ビル,,14,201,2390842,,,2025-02-21,清算の結了等,,,2015-10-05,1,,,,,シンセイハウス,0
1402,7030001092184,登記記録の閉鎖等,0,2025-02-25,2025-02-20,株式会社豊創建,,株式会社,埼玉県,越谷市,大字南荻島１９３９番地４,,11,222,3430804,,,2025-02-20,清算の結了等,,,2015-10-05,1,,,,,ユタカソウケン,0
1421,7050001019953,登記記録の閉鎖等,0,2025-02-25,2025-02-18,株式会社オンダ,,株式会社,愛知県,津島市,百町字みどり台７１番地,,23,208,4960017,,,2025-02-18,清算の結了等,,,2015-10-05,1,,,,,オンダ,0
1435,7080101021229,登記記録の閉鎖等,0,2025-02-25,2025-02-18,株式会社Ｇｒｏｗ,,株式会社,静岡県,沼津市,今沢５０８番地の２,,22,203,4100875,,,2025-02-18,清算の結了等,,,2019-07-05,1,,,,,グロウ,0
1444,7110002009591,登記記録の閉鎖等,0,2025-02-25,2025-02-20,有限会社新生工業,,有限会社,新潟県,新潟市秋葉区,川口１４３２番地１,,15,105,9560015,,,2025-02-20,清算の結了等,,,2015-10-05,1,,,,,シンセイコウギョウ,0
1465,7120901030110,登記記録の閉鎖等,0,2025-02-25,2025-02-17,株式会社Ｅｃｏプラン・パートナーズ,,株式会社,大阪府,豊能郡能勢町,宿野５９８番地の５,,27,322,5630341,,,2025-02-17,清算の結了等,,,2015-10-05,1,,,,,,0
1467,7120902014137,登記記録の閉鎖等,0,2025-02-25,2025-02-06,有限会社アイ・アート・ドットコム,,有限会社,大阪府,吹田市,千里山西５丁目４６番１４号,,27,205,5650851,,,2025-02-06,清算の結了等,,,2015-10-05,1,,,,,アイアートドットコム,0
1506,7190002004627,登記記録の閉鎖等,0,2025-02-25,2025-02-20,有限会社川戸開発,,有限会社,三重県,亀山市,栄町１４８８番地の２４５,,24,210,5190111,,,2025-02-20,清算の結了等,,,2015-10-05,1,,,,,カワトカイハツ,0
1520,7260003002093,登記記録の閉鎖等,0,2025-02-25,2025-02-20,合同会社ウララドゥー,,合同会社,岡山県,倉敷市,笹沖８２番地１,,33,202,7100834,,,2025-02-20,清算の結了等,,,2016-10-19,1,,,,,ウララドゥー,0
1526,7280005002775,登記記録の閉鎖等,0,2025-02-25,2025-02-20,島根県中央採砂事業協同組合,,その他の設立登記法人,島根県,出雲市,江田町１０番地,,32,203,6930056,,,2025-02-20,清算の結了等,,,2015-10-05,1,,,,,シマネケンチュウオウサイサ,0
1528,7290001080535,登記記録の閉鎖等,0,2025-02-25,2025-02-12,株式会社ＲＥＰ,,株式会社,福岡県,福岡市早良区,藤崎１丁目１番３２号,,40,137,8140013,,,2025-02-12,清算の結了等,,,2018-02-15,1,,,,,レップ,0
1539,7340002003282,登記記録の閉鎖等,0,2025-02-25,2025-02-19,有限会社橋梁マテリアル,,有限会社,鹿児島県,鹿児島市,星ヶ峯１丁目３番６号,,46,201,8910102,,,2025-02-19,清算の結了等,,,2015-10-05,1,,,,,キョウリョウマテリアル,0
1549,7430001053286,登記記録の閉鎖等,0,2025-02-25,2025-02-18,千研プラント株式会社,,株式会社,北海道,苫小牧市,日の出町２丁目２番１号,,01,213,0530043,,,2025-02-18,清算の結了等,,,2015-10-05,1,,,,,チケンプラント,0
1560,7500002000172,登記記録の閉鎖等,0,2025-02-25,2025-02-20,株式会社ジェイ・トップ,,株式会社,愛媛県,松山市,持田町４丁目３番１５号,,38,201,7900855,,,2025-02-20,合併による解散等,2500001021835,令和７年２月２０日愛媛県松山市持田町四丁目３番１５号株式会社ジェイ・トップ（2500001021835）に合併し解散,2015-10-05,1,,,,,ジェイトップ,0
1574,8010102006077,登記記録の閉鎖等,0,2025-02-25,2025-02-21,株式会社相模原管財,,株式会社,神奈川県,相模原市中央区,鹿沼台２丁目５番１２号,,14,152,2520233,,,2025-02-21,清算の結了等,,,2015-10-05,1,,,,,サガミハラカンザイ,0
1595,8011001034268,登記記録の閉鎖等,0,2025-02-25,2025-01-30,シオンスタッフサービス株式会社,,株式会社,東京都,渋谷区,幡ヶ谷３丁目２７番２号,,13,113,1510072,,,2025-01-30,清算の結了等,,,2015-10-05,1,,,,,シオンスタッフサービス,0
1615,8011801037676,登記記録の閉鎖等,0,2025-02-25,2025-02-18,株式会社青樹舎,,株式会社,東京都,葛飾区,柴又４丁目１１番４－１０３号,,13,122,1250052,,,2025-02-18,清算の結了等,,,2020-05-29,1,,,,,セイジュシャ,0
1616,8011802024335,登記記録の閉鎖等,0,2025-02-25,2025-02-19,有限会社鴨下,,有限会社,東京都,足立区,青井６丁目９番２１号,,13,121,1210012,,,2025-02-19,清算の結了等,,,2015-10-05,1,,,,,カモシタ,0
1625,8012703002958,登記記録の閉鎖等,0,2025-02-25,2025-02-18,合同会社富士寅運送,,合同会社,東京都,清瀬市,下宿１丁目１－１２－５０４,,13,221,2040001,,,2025-02-18,清算の結了等,,,2024-04-09,1,,,,,フジトラウンソウ,0
1627,8013101006881,登記記録の閉鎖等,0,2025-02-25,2025-02-19,株式会社エムテック,,株式会社,東京都,あきる野市,小川東１丁目２０番地３,,13,228,1970822,,,2025-02-19,清算の結了等,,,2015-10-05,1,,,,,エムテック,0
1644,8030001010343,登記記録の閉鎖等,0,2025-02-25,2025-02-20,武蔵オプティカルシステム株式会社,,株式会社,埼玉県,さいたま市見沼区,東大宮５丁目１８番地２,,11,104,3370051,,,2025-02-20,清算の結了等,,,2015-10-05,1,,,,,ムサシオプティカルシステム,0
1655,8030002047260,登記記録の閉鎖等,0,2025-02-25,2025-02-18,有限会社関口ダンフスマ,,有限会社,埼玉県,八潮市,大字大曽根１４７９番地６,,11,234,3400834,,,2025-02-18,清算の結了等,,,2015-10-05,1,,,,,セキグチダンフスマ,0
1659,8030002076747,登記記録の閉鎖等,0,2025-02-25,2025-02-19,有限会社マルモ・アシスト,,有限会社,埼玉県,ふじみ野市,大井中央４丁目１２番１２号,,11,245,3560058,,,2025-02-19,清算の結了等,,,2015-10-05,1,,,,,マルモアシスト,0
1665,8040001099640,登記記録の閉鎖等,0,2025-02-25,2025-02-07,株式会社Ｔｓｕｎａｇｕ．ＡＩ,,株式会社,東京都,千代田区,霞が関１丁目４番１号日土地ビル２Ｆ－ＳＥＮＱ霞が関,,13,101,1000013,,,2025-02-07,清算の結了等,,,2017-04-07,1,,,,,ツナグドットエーアイ,0
1674,8070001005785,登記記録の閉鎖等,0,2025-02-25,2025-02-21,八千代プロモーション株式会社,,株式会社,群馬県,前橋市,千代田町２丁目７番２号,,10,201,3710022,,,2025-02-21,清算の結了等,,,2015-10-05,1,,,,,ヤチヨプロモーション,0
1683,8080101015790,登記記録の閉鎖等,0,2025-02-25,2025-02-12,株式会社キッチンコラボ,,株式会社,静岡県,富士市,宮島１７７番地の４,,22,210,4160945,,,2025-02-12,清算の結了等,,,2015-10-05,1,,,,,キッチンコラボ,0
1685,8110001027882,登記記録の閉鎖等,0,2025-02-25,2025-02-20,株式会社ジェイ・メイト,,株式会社,新潟県,柏崎市,大字古町９８番地,,15,205,9451113,,,2025-02-20,清算の結了等,,,2015-10-05,1,,,,,ジェイメイト,0
1694,8120003026337,登記記録の閉鎖等,0,2025-02-25,2025-02-18,合同会社扇楽ＳＥＮＲＡＫＵ,,合同会社,大阪府,寝屋川市,池田旭町２４番３３号,,27,215,5720035,,,2025-02-18,清算の結了等,,,2024-04-10,1,,,,,センラク,0
1703,8120902010234,登記記録の閉鎖等,0,2025-02-25,2025-02-20,有限会社コムフードサービス,,有限会社,大阪府,大阪市中央区,南船場４丁目１１－２４,,27,128,5420081,,,2025-02-20,清算の結了等,,,2015-10-05,1,,,,,コムフードサービス,0
1711,8150001001537,登記記録の閉鎖等,0,2025-02-25,2025-02-21,株式会社ナラジェンヌ,,株式会社,奈良県,奈良市,神功３丁目１４番地の１２,,29,201,6310804,,,2025-02-21,清算の結了等,,,2015-10-05,1,,,,,,0
1719,8180002051909,登記記録の閉鎖等,0,2025-02-25,2025-02-20,有限会社エムズライフ,,有限会社,愛知県,名古屋市千種区,内山２丁目１７番１１号,,23,101,4640075,,,2025-02-20,清算の結了等,,,2015-10-05,1,,,,,エムズライフ,0
1722,8180301034556,登記記録の閉鎖等,0,2025-02-25,2025-02-19,株式会社あかね雲,,株式会社,愛知県,豊田市,河合町３丁目７番地３,,23,211,4710824,,,2025-02-19,清算の結了等,,,2021-01-25,1,,,,,アカネグモ,0
1724,8180303003105,登記記録の閉鎖等,0,2025-02-25,2025-02-19,合同会社ティエスシィ,,合同会社,愛知県,田原市,大久保町万五郎６番地,,23,231,4413426,,,2025-02-19,清算の結了等,,,2015-10-05,1,,,,,ティエスシィ,0
1731,8220001020117,登記記録の閉鎖等,0,2025-02-25,2025-02-12,株式会社ペットランド北陸,,株式会社,石川県,金沢市,矢木３丁目２１８番地,,17,201,9218066,,,2025-02-12,清算の結了等,,,2015-10-05,1,,,,,ペットランドホクリク,0
1743,8330001017399,登記記録の閉鎖等,0,2025-02-25,2025-02-19,株式会社わが家の保険と資産管理,,株式会社,熊本県,熊本市中央区,水道町１３番１０－１３０５号,,43,101,8600844,,,2025-02-19,清算の結了等,,,2015-10-05,1,,,,,ワガヤノホケントシサンカンリ,0
1761,8380001023681,登記記録の閉鎖等,0,2025-02-25,2025-02-12,株式会社ホテル叶や,,株式会社,福島県,南相馬市,小高区仲町１丁目１番地の１,,07,212,9792111,,,2025-02-12,清算の結了等,,,2015-10-05,1,,,,,ホテルカノウヤ,0
1770,8430001065990,登記記録の閉鎖等,0,2025-02-25,2025-02-20,株式会社フレッシュなるみ,,株式会社,北海道,札幌市豊平区,豊平五条５丁目２番１７号,,01,105,0620905,,,2025-02-20,清算の結了等,,,2015-10-05,1,,,,,,0
1810,9010405021045,登記記録の閉鎖等,0,2025-02-25,2025-02-05,ＴＯＫＹＯ２３レジデンシャルファンド２特定目的会社,,その他の設立登記法人,東京都,港区,赤坂９丁目６番２８－６０１号麻布総合会計事務所内,,13,103,1070052,,,2025-02-05,清算の結了等,,,2022-05-27,1,,,,,トウキョウニジュウサンレジデンシャルファンドツー,0
1817,9010603010799,登記記録の閉鎖等,0,2025-02-25,2025-02-10,合同会社Ｌｕｋｏｃｈ,,合同会社,東京都,墨田区,文花１丁目１８－１３,,13,107,1310044,,,2025-02-10,清算の結了等,,,2024-05-01,1,,,,,ルコチ,0
1839,9011301023770,登記記録の閉鎖等,0,2025-02-25,2025-02-20,株式会社ＧＲＩＺＺＬＹ,,株式会社,東京都,中野区,中野２丁目２４番１１号住友不動産中野駅前ビル,,13,114,1640001,,,2025-02-20,清算の結了等,,,2018-01-09,1,,,,,グリズリー,0
1844,9011501020849,登記記録の閉鎖等,0,2025-02-25,2025-02-17,品川サポート株式会社,,株式会社,東京都,荒川区,西日暮里２丁目８番１１号,,13,118,1160013,,,2025-02-17,清算の結了等,,,2015-10-05,1,,,,,シナガワサポート,0
1867,9030001148133,登記記録の閉鎖等,0,2025-02-25,2025-02-12,Ｎｉｐｐｏｎ　Ｔｒｅｎｄｓ　Ｆｏｏｄ　Ｓｅｒｖｉｃｅ　Ｊａｐａｎ株式会社,,株式会社,埼玉県,さいたま市南区,鹿手袋２丁目１７番１８－５０６号,,11,108,3360031,,,2025-02-12,清算の結了等,,,2022-05-10,1,,,,,ニッポントレンズフードサービスジャパン,0
1874,9030003010852,登記記録の閉鎖等,0,2025-02-25,2025-02-19,笠川合同会社,,合同会社,埼玉県,ふじみ野市,西２丁目７番１０－６０１号,,11,245,3560005,,,2025-02-19,清算の結了等,,,2017-09-28,1,,,,,カサガワ,0
1886,9050002020883,登記記録の閉鎖等,0,2025-02-25,2025-02-14,ヴィラデエステ有限会社,,有限会社,茨城県,つくば市,天久保４丁目５番地の５,,08,220,3050005,,,2025-02-14,清算の結了等,,,2015-10-05,1,,,,,ヴィラデエステ,0
1896,9070001023695,登記記録の閉鎖等,0,2025-02-25,2025-02-21,株式会社菊池,,株式会社,群馬県,吾妻郡中之条町,大字中之条町１３５９番地の１０,,10,421,3770424,,,2025-02-21,清算の結了等,,,2015-10-05,1,,,,,キクチ,0
1909,9080105005052,登記記録の閉鎖等,0,2025-02-25,2025-02-06,一般社団法人山田顕義記念基金,,その他の設立登記法人,静岡県,三島市,本町１３番２１号,,22,206,4110855,,,2025-02-06,清算の結了等,,,2015-10-05,1,,,,,ヤマダアキヨシキネンキキン,0
1925,9120001128530,登記記録の閉鎖等,0,2025-02-25,2025-02-19,株式会社プラス,,株式会社,大阪府,大阪市浪速区,敷津西１丁目８番２６号,,27,111,5560015,,,2025-02-19,清算の結了等,,,2015-10-05,1,,,,,プラス,0
1927,9120001239220,登記記録の閉鎖等,0,2025-02-25,2025-02-19,ミヤベ株式会社,,株式会社,大阪府,大阪市東淀川区,上新庄３丁目１８番５号,,27,114,5330006,,,2025-02-19,清算の結了等,,,2021-07-20,1,,,,,ミヤベ,0
1928,9120001245879,登記記録の閉鎖等,0,2025-02-25,2025-02-18,株式会社ＬＩＯ,,株式会社,大阪府,大阪市北区,芝田２丁目８－１１,,27,127,5300012,,,2025-02-18,清算の結了等,,,2022-05-16,1,,,,,リオ,0
1932,9120002027608,登記記録の閉鎖等,0,2025-02-25,2025-02-20,有限会社タバタ,,有限会社,大阪府,大阪市淀川区,塚本２丁目２４番８号,,27,123,5320026,,,2025-02-20,清算の結了等,,,2015-10-05,1,,,,,タバタ,0
1935,9120005011443,登記記録の閉鎖等,0,2025-02-25,2025-02-21,特定非営利活動法人福祉リカバリーセンター,,その他の設立登記法人,大阪府,大阪市住吉区,長居西２丁目１３番２３号グランビルド長居１０３号,,27,120,5580002,,,2025-02-21,清算の結了等,,,2015-10-05,1,,,,,フクシリカバリーセンター,0
1947,9120905004117,登記記録の閉鎖等,0,2025-02-25,2025-02-10,医療法人千陽会,,その他の設立登記法人,大阪府,豊中市,新千里南町２丁目１１番５号,,27,203,5600084,,,2025-02-10,清算の結了等,,,2015-10-05,1,,,,,センヨウカイ,0
1968,9200001009730,登記記録の閉鎖等,0,2025-02-25,2025-02-21,株式会社アフターマス,,株式会社,岐阜県,岐阜市,福光西３丁目１４番１号,,21,201,5020814,,,2025-02-21,清算の結了等,,,2015-10-05,1,,,,,アフターマス,0
1975,9230002003903,登記記録の閉鎖等,0,2025-02-25,2025-02-20,有限会社和合建設,,有限会社,富山県,富山市,八町４２０６番地,,16,201,9302226,,,2025-02-20,清算の結了等,,,2015-10-05,1,,,,,ワゴウケンセツ,0
2010,9390001015207,登記記録の閉鎖等,0,2025-02-25,2025-02-19,株式会社ＫＲマネジメント,,株式会社,山形県,山形市,飯田西３丁目４番１－３０１号,,06,201,9902331,,,2025-02-19,清算の結了等,,,2018-02-20,1,,,,,ケーアールマネジメント,0
2023,9450001010060,登記記録の閉鎖等,0,2025-02-25,2025-02-20,光洋企画株式会社,,株式会社,北海道,北見市,桜町６丁目３３番地１,,01,208,0900804,,,2025-02-20,清算の結了等,,,2015-10-05,1,,,,,コウヨウキカク,0
