sequenceNumber,corporateNumber,process,correct,updateDate,changeDate,name,nameImageId,kind,prefectureName,cityName,streetNumber,addressImageId,prefectureCode,cityCode,postCode,addressOutside,addressOutsideImageId,closeDate,closeCause,successorCorporateNumber,changeCause,assignmentDate,latest,enName,enPrefectureName,enCityName,enAddressOutside,furigana,hihyoji
14,1010001253545,新規,0,2025-03-31,2025-03-31,株式会社総研コンサル,,株式会社,東京都,千代田区,丸の内１丁目８番１号丸の内トラストタワーＮ館１８階,,13,101,1000005,,,,,,,2025-03-31,1,,,,,ソウケンコンサル,0
15,1010001253578,新規,0,2025-03-31,2025-03-31,ＹＫメディカル株式会社,,株式会社,東京都,中央区,銀座１丁目１２番４号Ｎ＆ＥＢＬＤ．６Ｆ,,13,102,1040061,,,,,,,2025-03-31,1,,,,,ワイケーメディカル,0
16,1010001253594,新規,0,2025-03-31,2025-03-31,Ｍｉｎｏｖａ　Ｔｅｃｈ株式会社,,株式会社,東京都,千代田区,大手町１丁目５番１号大手町ファーストスクエアイーストタワー４Ｆ,,13,101,1000004,,,,,,,2025-03-31,1,,,,,ミノバテック,0
17,1010001253603,新規,0,2025-03-31,2025-03-31,澳珂萌家株式会社,,株式会社,東京都,文京区,千石４丁目１４番９号,,13,105,1120011,,,,,,,2025-03-31,1,,,,,オウカホウカ,0
18,1010001253652,新規,0,2025-03-31,2025-03-31,株式会社ｉＴＰａｒｔｎｅｒｓ,,株式会社,東京都,中央区,八丁堀４丁目１４－７,,13,102,1040032,,,,,,,2025-03-31,1,,,,,アイティパートナーズ,0
21,1010003046889,新規,0,2025-03-31,2025-03-31,合同会社オブノ６号,,合同会社,東京都,千代田区,麹町４丁目３番地２９ＶＯＲＴ紀尾井坂８階,,13,101,1020083,,,,,,,2025-03-31,1,,,,,オブノロクゴウ,0
28,1010401189174,新規,0,2025-03-31,2025-03-31,株式会社ＳＢＴ,,株式会社,東京都,港区,西新橋２丁目２１番２号,,13,103,1050003,,,,,,,2025-03-31,1,,,,,エスビーティー,0
36,1010901057087,新規,0,2025-03-31,2025-03-31,しゅっぱつちてん株式会社,,株式会社,東京都,世田谷区,赤堤５丁目１４番２号,,13,112,1560044,,,,,,,2025-03-31,1,,,,,シュッパツチテン,0
40,1010903009805,新規,0,2025-03-31,2025-03-31,Ｆｅｒｎ合同会社,,合同会社,東京都,世田谷区,羽根木２丁目４０－３ベルジュール２０３,,13,112,1560042,,,,,,,2025-03-31,1,,,,,ファーン,0
50,1011001168485,新規,0,2025-03-31,2025-03-31,株式会社丸山大介,,株式会社,東京都,渋谷区,富ヶ谷１丁目１６番２－１１０２号ブランズ渋谷代々木公園,,13,113,1510063,,,,,,,2025-03-31,1,,,,,マルヤマダイスケ,0
51,1011001168535,新規,0,2025-03-31,2025-03-31,株式会社リスタメディカルサービス,,株式会社,東京都,渋谷区,道玄坂１丁目１０番８号渋谷道玄坂東急ビル２Ｆ－Ｃ,,13,113,1500043,,,,,,,2025-03-31,1,,,,,リスタメディカルサービス,0
52,1011003021246,新規,0,2025-03-31,2025-03-31,クロコサポート合同会社,,合同会社,東京都,渋谷区,神南１丁目１１－４ＦＰＧリンクス神南５階,,13,113,1500041,,,,,,,2025-03-31,1,,,,,クロコサポート,0
55,1011101111147,新規,0,2025-03-31,2025-03-31,令和総合決済代行株式会社,,株式会社,東京都,新宿区,新宿４丁目３番３０号ランザンＡＹビルディング３０１,,13,104,1600022,,,,,,,2025-03-31,1,,,,,レイワソウゴウケッサイダイコウ,0
58,1011203004653,新規,0,2025-03-31,2025-03-31,合同会社ＨＯＮＩＮ,,合同会社,東京都,中野区,東中野１丁目５８番１６－８０２号,,13,114,1640003,,,,,,,2025-03-31,1,,,,,ホウニン,0
61,1011501031878,新規,0,2025-03-31,2025-03-31,Ｆｒｉｄａｙ株式会社,,株式会社,東京都,北区,中里１丁目２１番２号中里ビル１Ｆ,,13,117,1140015,,,,,,,2025-03-31,1,,,,,フライデー,0
63,1011701028195,新規,0,2025-03-31,2025-03-31,月島興業株式会社,,株式会社,東京都,江戸川区,西葛西７丁目１番１号,,13,123,1340088,,,,,,,2025-03-31,1,,,,,ツキシマコウギョウ,0
65,1012303002134,新規,0,2025-03-31,2025-03-31,合同会社ＴＡＦＦＹ’Ｓ,,合同会社,東京都,町田市,成瀬が丘２丁目２３－８福田屋ビル２Ｆ,,13,209,1940011,,,,,,,2025-03-31,1,,,,,タフィーズ,0
72,1012803003672,新規,0,2025-03-31,2025-03-31,ＲＥＮＯＨＩＲＯ合同会社,,合同会社,東京都,立川市,高松町３丁目２９番１２号,,13,202,1900011,,,,,,,2025-03-31,1,,,,,レノヒロ,0
74,1013301054027,新規,0,2025-03-31,2025-03-31,株式会社ＡＳＩＡ　ＰＡＣＩＦＩＣ　ＡＣＡＤＥＭＩＣ,,株式会社,東京都,豊島区,東池袋１丁目３０番１４号ライオンズマンション東池袋４０１号室,,13,116,1700013,,,,,,,2025-03-31,1,,,,,アジアパシフィックアカデミック,0
75,1013301054035,新規,0,2025-03-31,2025-03-31,株式会社ジュピター,,株式会社,東京都,豊島区,東池袋３丁目１番１号サンシャイン６０－１２Ｆ,,13,116,1700013,,,,,,,2025-03-31,1,,,,,ジュピター,0
78,1020001162019,新規,0,2025-03-31,2025-03-31,ミュール株式会社,,株式会社,神奈川県,横浜市神奈川区,金港町５－１４クアドリフォリオ８階,,14,102,2210056,,,,,,,2025-03-31,1,,,,,ミュール,0
79,1020001162051,新規,0,2025-03-31,2025-03-31,Ｈａｎ　Ｈｏｍｅｓ株式会社,,株式会社,神奈川県,横浜市神奈川区,立町２３番地１５,,14,102,2210063,,,,,,,2025-03-31,1,,,,,ハンホームズ,0
86,1021003015718,新規,0,2025-03-31,2025-03-31,国際連携学舎合同会社,,合同会社,神奈川県,鎌倉市,浄明寺４丁目４番２２号,,14,204,2480003,,,,,,,2025-03-31,1,,,,,コクサイレンケイガクシャ,0
100,1040001138082,新規,0,2025-03-31,2025-03-31,株式会社ＡＩランド,,株式会社,千葉県,柏市,西原５丁目１２番９号,,12,217,2770885,,,,,,,2025-03-31,1,,,,,アイランド,0
104,1060001038058,新規,0,2025-03-31,2025-03-31,Ａｌａｍ　ｔｒａｄｅｒｓ　ｊａｐａｎ株式会社,,株式会社,栃木県,鹿沼市,池ノ森字北原５５４－４,,09,205,3220018,,,,,,,2025-03-31,1,,,,,アラムトレーダーズジャパン,0
114,1100001038391,新規,0,2025-03-31,2025-03-31,無農薬での野菜作りと自家採種農法研究会株式会社,,株式会社,長野県,北佐久郡軽井沢町,大字発地字下発地２６７６,,20,321,3890113,,,,,,,2025-03-31,1,,,,,ムノウヤクデノヤサイツクリトジカサイシュノウホウケンキュウカイ,0
116,1110001039141,新規,0,2025-03-31,2025-03-31,株式会社ＫＢＭ‐ＵＳＡ,,株式会社,新潟県,新潟市東区,下木戸１丁目４番１号,,15,102,9500885,,,,,,,2025-03-31,1,,,,,ケービーエムユーエスエー,0
126,1120001274043,新規,0,2025-03-31,2025-03-31,普瑞盈泰株式会社,,株式会社,大阪府,大阪市中央区,松屋町９番２０号ローレルステート松屋町７０４Ａ,,27,128,5420067,,,,,,,2025-03-31,1,,,,,フズイエイタイ,0
127,1120001274092,新規,0,2025-03-31,2025-03-31,鶴橋株式会社,,株式会社,大阪府,大阪市中央区,船場中央２丁目２番５号船場センタービル５号館地下一階Ｂ１２９ＲＯＹＡＬＯＦＦＩＣＥ内,,27,128,5410055,,,,,,,2025-03-31,1,,,,,ツルハシ,0
130,1120003028975,新規,0,2025-03-31,2025-03-31,合同会社スーツケース王,,合同会社,大阪府,大阪市淀川区,西中島５丁目７－１９第７新大阪ビル１０２号,,27,123,5320011,,,,,,,2025-03-31,1,,,,,スーツケースオウ,0
131,1120101071357,新規,0,2025-03-31,2025-03-31,旭莉株式会社,,株式会社,大阪府,阪南市,貝掛６３番３号シーサイド貝掛Ｂ棟３０６号室,,27,232,5990231,,,,,,,2025-03-31,1,,,,,キョクリ,0
133,1120903005603,新規,0,2025-03-31,2025-03-31,合同会社ｏｆｆｉｃｅ１３８,,合同会社,大阪府,吹田市,千里丘西２４－１－１２０４,,27,205,5650814,,,,,,,2025-03-31,1,,,,,オフィスイチノミヤ,0
136,1130003010321,新規,0,2025-03-31,2025-03-31,合同会社なごやか,,合同会社,京都府,向日市,寺戸町八ノ坪１番地の１０,,26,208,6170002,,,,,,,2025-03-31,1,,,,,ナゴヤカ,0
138,1140001137925,新規,0,2025-03-31,2025-03-31,株式会社ｇｒａｃｉｎａ　ｇｒｏｕｐ,,株式会社,兵庫県,神戸市北区,有野町有野５１４番地の１８,,28,109,6511312,,,,,,,2025-03-31,1,,,,,グラシナグループ,0
139,1140001137958,新規,0,2025-03-31,2025-03-31,Ｖｉｓｉｏｎ　Ｌａｂｓ株式会社,,株式会社,兵庫県,三田市,学園４丁目２番,,28,219,6691337,,,,,,,2025-03-31,1,,,,,ビジョンラボ,0
142,1140003021862,新規,0,2025-03-31,2025-03-31,合同会社ロード,,合同会社,兵庫県,三田市,さくら坂６番８号,,28,219,6691325,,,,,,,2025-03-31,1,,,,,ロード,0
153,1180001166078,新規,0,2025-03-31,2025-03-31,株式会社みどり,,株式会社,愛知県,名古屋市熱田区,五番町２０番１９号,,23,109,4560057,,,,,,,2025-03-31,1,,,,,ミドリ,0
155,1180003028227,新規,0,2025-03-31,2025-03-31,ＳＡＩ　ＡＩＭ合同会社,,合同会社,愛知県,東海市,加木屋町東島田１４番地の６,,23,222,4770032,,,,,,,2025-03-31,1,,,,,サイエム,0
156,1180005021007,新規,0,2025-03-31,2025-03-31,一般社団法人ウッドフォーラムジャパン,,その他の設立登記法人,愛知県,常滑市,樽水町１丁目１２８番地１,,23,216,4790826,,,,,,,2025-03-31,1,,,,,ウッドフォーラムジャパン,0
157,1180301039660,新規,0,2025-03-31,2025-03-31,株式会社ＮＯＤＥ　ｂｙ　ＡＩＲ,,株式会社,愛知県,岡崎市,伊賀町字東郷中５５番地,,23,202,4440075,,,,,,,2025-03-31,1,,,,,ノードバイエア,0
168,1240001064713,新規,0,2025-03-31,2025-03-31,富山株式会社,,株式会社,広島県,福山市,沖野上町６丁目２番８－２号,,34,207,7200825,,,,,,,2025-03-31,1,,,,,フザン,0
170,1260001040051,新規,0,2025-03-31,2025-03-31,株式会社ＡＴＨＥＮＡＬＩＦＩＸ,,株式会社,岡山県,岡山市北区,中央町４－６サントリープラザ４Ｆ４０３,,33,101,7000836,,,,,,,2025-03-31,1,,,,,アテナリフィックス,0
171,1260003005110,新規,0,2025-03-31,2025-03-31,合同会社マイファースト,,合同会社,岡山県,岡山市中区,今在家７８番地１,,33,102,7038208,,,,,,,2025-03-31,1,,,,,マイファースト,0
174,1290003016609,新規,0,2025-03-31,2025-03-31,合同会社ＹＨＭ,,合同会社,福岡県,福岡市博多区,博多駅前１丁目２３－２ＰａｒｋＦｒｏｎｔ５Ｆ－Ｂ,,40,132,8120011,,,,,,,2025-03-31,1,,,,,ワイエイチエム,0
186,1340001027214,新規,0,2025-03-31,2025-03-31,株式会社ドラゴンボーン,,株式会社,鹿児島県,鹿屋市,天神町３６２６番,,46,203,8912313,,,,,,,2025-03-31,1,,,,,ドラゴンボーン,0
190,1360001034976,新規,0,2025-03-31,2025-03-31,株式会社ＳＯＲＡ,,株式会社,沖縄県,浦添市,前田２丁目５番１号,,47,208,9012102,,,,,,,2025-03-31,1,,,,,ソラ,0
192,1360005007193,新規,0,2025-03-31,2025-03-31,一般社団法人青光,,その他の設立登記法人,沖縄県,国頭郡恩納村,字恩納２４４３番地５,,47,311,9040411,,,,,,,2025-03-31,1,,,,,アオビカリ,0
195,1370005010931,新規,0,2025-03-31,2025-03-31,農事組合法人まやま農社,,その他の設立登記法人,宮城県,大崎市,岩出山字下真山清水３２番地,,04,215,9896402,,,,,,,2025-03-31,1,,,,,マヤマノウシャ,0
215,1470005006614,新規,0,2025-03-31,2025-03-31,一般社団法人かがわごと,,その他の設立登記法人,香川県,善通寺市,善通寺町７丁目１番１号,,37,204,7650003,,,,,,,2025-03-31,1,,,,,,0
216,1480005007074,新規,0,2025-03-31,2025-03-31,医療法人佳鷹会,,その他の設立登記法人,徳島県,徳島市,山城町西浜傍示１６２番地１,,36,201,7708055,,,,,,,2025-03-31,1,,,,,ケイオウカイ,0
217,1490005006983,新規,0,2025-03-31,2025-03-31,一般社団法人北川村文化観光公社,,その他の設立登記法人,高知県,安芸郡北川村,大字野友甲１５５４番地１,,39,305,7816441,,,,,,,2025-03-31,1,,,,,キタガワムラブンカカンコウコウシャ,0
220,1700150129765,新規,0,2025-03-31,2025-03-31,ｓｈｅｎｚｈｅｎｓｈｉｘｉａｏｍａｙｉｋｕａｊｉｎｇｋｅｊｉｙｏｕｘｉａｎｇｏｎｇｓｉ,,外国会社等,,,,,,,,１２１７，Ｂｕｉｌｄｉｎｇ　４，Ｎｏ．９，Ｌｉｇｈｔ　Ｓｏｕｒｃｅ　５　Ｒｏａｄ，Ｔａｎｇｊｉａ　Ｃｏｍｍｕｎｉｔｙ，Ｆｅｎｇｈｕａｎｇ　Ｓｔｒｅｅｔ，Ｇｕａｎｇｍｉｎｇ　Ｄｉｓｔｒｉｃｔ，Ｓｈｅｎｚｈｅｎ,,,,,,2025-03-31,1,,,,,シェンジェンシーシャオマーイークワージンコージーヨウシエンゴンスー,0
228,2010001253544,新規,0,2025-03-31,2025-03-31,株式会社企業価値創造コンサルティング,,株式会社,東京都,千代田区,丸の内１丁目８番１号丸の内トラストタワーＮ館１８階,,13,101,1000005,,,,,,,2025-03-31,1,,,,,キギョウカチソウゾウコンサルティング,0
229,2010001253577,新規,0,2025-03-31,2025-03-31,ＭＳＤ企業投資Ａ号株式会社,,株式会社,東京都,千代田区,大手町１丁目９番２号,,13,101,1000004,,,,,,,2025-03-31,1,,,,,エムエスディーキギョウトウシエーゴウ,0
230,2010001253651,新規,0,2025-03-31,2025-03-31,アンファンアカデミー株式会社,,株式会社,東京都,文京区,大塚３丁目５番２号佑和ビル３階,,13,105,1120012,,,,,,,2025-03-31,1,,,,,アンファンアカデミー,0
231,2010003046888,新規,0,2025-03-31,2025-03-31,合同会社オブノ５号,,合同会社,東京都,千代田区,麹町４丁目３番地２９ＶＯＲＴ紀尾井坂８階,,13,101,1020083,,,,,,,2025-03-31,1,,,,,オブノゴゴウ,0
239,2010401189157,新規,0,2025-03-31,2025-03-31,株式会社Ｎ’ｓ　Ｓｏｌｕｔｉｏｎ,,株式会社,東京都,港区,赤坂２丁目２１－２２赤坂グリーンハイツ６０３号,,13,103,1070052,,,,,,,2025-03-31,1,,,,,エヌズソリューション,0
240,2010405024186,新規,0,2025-03-31,2025-03-31,一般社団法人ＥＲＰ振興協会,,その他の設立登記法人,東京都,港区,虎ノ門５丁目９－１麻布台ヒルズガーデンプラザＢ３Ｆ,,13,103,1050001,,,,,,,2025-03-31,1,,,,,イーアールピーシンコウキョウカイ,0
241,2010505003593,新規,0,2025-03-31,2025-03-31,一般社団法人カンナビノイド医療患者会,,その他の設立登記法人,東京都,台東区,台東３丁目１番地３－６０３号室,,13,106,1100016,,,,,,,2025-03-31,1,,,,,カンナビノイドイリョウカンジャカイ,0
244,2010601066998,新規,0,2025-03-31,2025-03-31,株式会社高川商事,,株式会社,東京都,墨田区,京島１丁目１番１号イーストコア曳舟一番館Ａ１０４,,13,107,1310046,,,,,,,2025-03-31,1,,,,,タカガワショウジ,0
245,2010601067022,新規,0,2025-03-31,2025-03-31,韓国線材ジャパン株式会社,,株式会社,東京都,江東区,塩浜２丁目５番１－４１８号,,13,108,1350043,,,,,,,2025-03-31,1,,,,,カンコクセンザイジャパン,0
259,2011001168501,新規,0,2025-03-31,2025-03-31,株式会社ノイ・リレーションズ,,株式会社,東京都,渋谷区,幡ヶ谷２丁目２６番８号,,13,113,1510072,,,,,,,2025-03-31,1,,,,,ノイリレーションズ,0
260,2011001168534,新規,0,2025-03-31,2025-03-31,株式会社Ｖｉｒａｌ　Ｗｏｒｋｓ,,株式会社,東京都,渋谷区,恵比寿南１丁目１番１２号,,13,113,1500022,,,,,,,2025-03-31,1,,,,,バイラルワークス,0
261,2011001168542,新規,0,2025-03-31,2025-03-31,株式会社Ｗ．ｃｒｅａｔｉｏｎ,,株式会社,東京都,渋谷区,円山町５番５号Ｎａｖｉ渋谷Ｖ３階,00138504,13,113,1500044,,,,,,,2025-03-31,1,,,,,ダブリュードットクリエイション,0
262,2011001168591,新規,0,2025-03-31,2025-03-31,ＡＲＳＳ株式会社,,株式会社,東京都,渋谷区,道玄坂１丁目１６－６二葉ビル８ｂ,,13,113,1500043,,,,,,,2025-03-31,1,,,,,アース,0
264,2011003021237,新規,0,2025-03-31,2025-03-31,Ｏｒｂｉｓ合同会社,,合同会社,東京都,渋谷区,渋谷２丁目１９－１５宮益坂ビルディング６０９,,13,113,1500002,,,,,,,2025-03-31,1,,,,,オルビス,0
265,2011003021328,新規,0,2025-03-31,2025-03-31,ティーエヌ合同会社,,合同会社,東京都,渋谷区,恵比寿西１丁目３番５‐１１０４号,,13,113,1500021,,,,,,,2025-03-31,1,,,,,ティーエヌ,0
267,2011101111146,新規,0,2025-03-31,2025-03-31,株式会社ＲＫ,,株式会社,東京都,新宿区,新宿５丁目１２番１０－３０１号,,13,104,1600022,,,,,,,2025-03-31,1,,,,,アールケー,0
268,2011103015717,新規,0,2025-03-31,2025-03-31,合同会社セールスボイス,,合同会社,東京都,新宿区,西新宿６丁目５番１号新宿アイランドタワー２階,,13,104,1600023,,,,,,,2025-03-31,1,,,,,セールスボイス,0
270,2011201026228,新規,0,2025-03-31,2025-03-31,株式会社ＯＲＬ,,株式会社,東京都,中野区,弥生町１丁目１５－１４－３０７,,13,114,1640013,,,,,,,2025-03-31,1,,,,,オール,0
271,2011203004652,新規,0,2025-03-31,2025-03-31,合同会社ハートホスティング,,合同会社,東京都,中野区,中野６丁目３－１０ＴｏｋｙｏＭｉｒａｉ１‐６０１,,13,114,1640001,,,,,,,2025-03-31,1,,,,,ハートホスティング,0
292,2020003028043,新規,0,2025-03-31,2025-03-31,桔梗管財合同会社,,合同会社,神奈川県,横浜市戸塚区,汲沢３丁目２７番８号,,14,110,2450061,,,,,,,2025-03-31,1,,,,,キキョウカンザイ,0
293,2020003028134,新規,0,2025-03-31,2025-03-31,合同会社ＧＲＥＥＮ　ＳＷＩＴＣＨ,,合同会社,神奈川県,横浜市中区,相生町６丁目１００,,14,104,2310012,,,,,,,2025-03-31,1,,,,,グリーンスイッチ,0
298,2021001084821,新規,0,2025-03-31,2025-03-31,株式会社萬吉,,株式会社,神奈川県,綾瀬市,上土棚北３丁目１５番４８号,,14,218,2521111,,,,,,,2025-03-31,1,,,,,マンキチ,0
302,2030001165614,新規,0,2025-03-31,2025-03-31,株式会社グランサービス,,株式会社,埼玉県,さいたま市北区,土呂町２丁目５２番地６ＳｕｎｓｈｉｎｅＨｉｌｌｓ１０５,,11,102,3310804,,,,,,,2025-03-31,1,,,,,グランサービス,0
303,2030001165647,新規,0,2025-03-31,2025-03-31,株式会社クリエイトキャスト,,株式会社,埼玉県,草加市,谷塚２丁目２６番３２号,,11,221,3400028,,,,,,,2025-03-31,1,,,,,クリエイトキャスト,0
307,2030003026434,新規,0,2025-03-31,2025-03-31,合同会社成和,,合同会社,埼玉県,川越市,大字的場５４４番地１グランジール２０２号室,,11,201,3501101,,,,,,,2025-03-31,1,,,,,セイワ,0
310,2040001138049,新規,0,2025-03-31,2025-03-31,プラスライフコンサルティング株式会社,,株式会社,千葉県,浦安市,富岡３丁目３番Ｂー８０４号,,12,227,2790021,,,,,,,2025-03-31,1,,,,,プラスライフコンサルティング,0
311,2040001138073,新規,0,2025-03-31,2025-03-31,Ｈｏｐｅ　Ｌｉｎｅ株式会社,,株式会社,千葉県,千葉市稲毛区,天台５丁目２２－１１ハイツバンボー３－１階Ｂ,,12,103,2630016,,,,,,,2025-03-31,1,,,,,ホープライン,0
316,2040005022694,新規,0,2025-03-31,2025-03-31,特定非営利活動法人千葉シュタイナー学園グリーンスクール,,その他の設立登記法人,千葉県,千葉市緑区,土気町９８３番地,,12,105,2670061,,,,,,,2025-03-31,1,,,,,チバシュタイナーガクエングリーンスクール,0
318,2050001056415,新規,0,2025-03-31,2025-03-31,株式会社ＨＦＣ,,株式会社,茨城県,龍ケ崎市,１７６－１パルスグランレジオ２１３,,08,208,3010000,,,,,,,2025-03-31,1,,,,,エイチエフシー,0
319,2060001038049,新規,0,2025-03-31,2025-03-31,株式会社セキシヨー,,株式会社,栃木県,真岡市,上高間木９０番地３,,09,209,3214337,,,,,,,2025-03-31,1,,,,,セキシヨー,0
320,2060003005492,新規,0,2025-03-31,2025-03-31,合同会社アティラン,,合同会社,栃木県,塩谷郡塩谷町,大字熊ノ木１１８９番地５５,,09,384,3292213,,,,,,,2025-03-31,1,,,,,アティラン,0
323,2070003005839,新規,0,2025-03-31,2025-03-31,コーポレーションＭｙａｎｍａｒ合同会社,,合同会社,群馬県,太田市,飯田町９６８番地５,,10,205,3730851,,,,,,,2025-03-31,1,,,,,コーポレーションミャンマー,0
324,2070005010366,新規,0,2025-03-31,2025-03-31,行政書士法人前橋許認可事務所,,その他の設立登記法人,群馬県,前橋市,南町３丁目５０番地２プラザアン２階Ｆ,,10,201,3710805,,,,,,,2025-03-31,1,,,,,マエバシキョニンカジムショ,0
328,2080401027822,新規,0,2025-03-31,2025-03-31,株式会社シーエーピー,,株式会社,静岡県,掛川市,下俣南２丁目５番１７号ユートピア１０３号室,,22,213,4360026,,,,,,,2025-03-31,1,,,,,シーエーピー,0
339,2120001273936,新規,0,2025-03-31,2025-03-31,ＲＬ　Ｎｏｍａｄ株式会社,,株式会社,大阪府,大阪市北区,本庄西１丁目６番２６号仲井ビル１Ｆ,,27,127,5310073,,,,,,,2025-03-31,1,,,,,アールエルノマド,0
340,2120001274059,新規,0,2025-03-31,2025-03-31,明帰株式会社,,株式会社,大阪府,大阪市西成区,萩之茶屋１丁目１２－７・１６号室,,27,122,5570004,,,,,,,2025-03-31,1,,,,,メイキ,0
341,2120001274075,新規,0,2025-03-31,2025-03-31,株式会社Ｍｉｎｅｒｖａ,,株式会社,大阪府,大阪市中央区,安堂寺町１丁目３番６号大阪上町ビル１００３号,,27,128,5420061,,,,,,,2025-03-31,1,,,,,ミネルヴァ,0
342,2120001274083,新規,0,2025-03-31,2025-03-31,ラックス株式会社,,株式会社,大阪府,大阪市西成区,花園南１丁目６番１０－１０４号,,27,122,5570015,,,,,,,2025-03-31,1,,,,,ラックス,0
343,2120001274190,新規,0,2025-03-31,2025-03-31,株式会社Ｋ２ＭＡＮＡＧＥＭＥＮＴ＆ＣＯＮＳＵＬＴＡＮＣＹ,,株式会社,大阪府,大阪市中央区,日本橋２丁目９番１９号,,27,128,5420073,,,,,,,2025-03-31,1,,,,,ケーツーマネジメントアンドコンサルタンシー,0
346,2120003028966,新規,0,2025-03-31,2025-03-31,新国合同会社,,合同会社,大阪府,大阪市西成区,玉出東１丁目１１番２３号,,27,122,5570043,,,,,,,2025-03-31,1,,,,,シンコク,0
347,2120003028974,新規,0,2025-03-31,2025-03-31,合同会社ｒｏｕｇｈ　ＪＯＹ,,合同会社,大阪府,大阪市浪速区,浪速東１丁目２番２４－１３０６号,,27,111,5560025,,,,,,,2025-03-31,1,,,,,ラフジョイ,0
348,2120005024856,新規,0,2025-03-31,2025-03-31,一般社団法人アジア交流親善協会,,その他の設立登記法人,大阪府,大阪市天王寺区,東高津町３－５キリンジビル３Ｆ,,27,109,5430021,,,,,,,2025-03-31,1,,,,,アジアコウリュウシンゼンキョウカイ,0
349,2120901050641,新規,0,2025-03-31,2025-03-31,株式会社ソリューションサポート,,株式会社,大阪府,豊中市,緑丘４丁目３５番３３号,,27,203,5600002,,,,,,,2025-03-31,1,,,,,ソリューションサポート,0
354,2130001079283,新規,0,2025-03-31,2025-03-31,株式会社ＦＵＪＩＳＨＩＮ,,株式会社,京都府,宇治市,伊勢田町名木３丁目１番地の８０,,26,204,6110044,,,,,,,2025-03-31,1,,,,,フジシン,0
355,2130005017322,新規,0,2025-03-31,2025-03-31,一般社団法人Ｂａｒｒａｃｕｄａ　Ｓｕｒｇｅ　Ａｌｌｉａｎｃｅ,,その他の設立登記法人,京都府,京都市中京区,三条通堀川西入橋西町６７１番１,,26,104,6048332,,,,,,,2025-03-31,1,,,,,バラクーダサージアライアンス,0
357,2140001137899,新規,0,2025-03-31,2025-03-31,株式会社ＤＷＳホールディングス,,株式会社,兵庫県,神戸市西区,見津が丘１丁目１５番地,,28,111,6512228,,,,,,,2025-03-31,1,,,,,ディーダブリュエスホールディングス,0
358,2140001137949,新規,0,2025-03-31,2025-03-31,株式会社宝応,,株式会社,兵庫県,神戸市中央区,元町通５丁目７番１８－３０１号,,28,110,6500022,,,,,,,2025-03-31,1,,,,,ホウオウ,0
359,2140001137965,新規,0,2025-03-31,2025-03-31,株式会社ものづくり総合研究所,,株式会社,兵庫県,川西市,萩原３丁目６番２号,,28,217,6660004,,,,,,,2025-03-31,1,,,,,モノヅクリソウゴウケンキュウショ,0
363,2140003021861,新規,0,2025-03-31,2025-03-31,合同会社スマイルライフ,,合同会社,兵庫県,尼崎市,塚口町１丁目１８番地の７メゾンパル３０１,,28,202,6610002,,,,,,,2025-03-31,1,,,,,スマイルライフ,0
373,2180001166085,新規,0,2025-03-31,2025-03-31,株式会社ＵＦＯ,,株式会社,愛知県,一宮市,三ツ井８丁目１７番１号,,23,203,4910827,,,,,,,2025-03-31,1,,,,,ユーエフオー,0
374,2180003028226,新規,0,2025-03-31,2025-03-31,Ｔ．Ｒ商店合同会社,,合同会社,愛知県,小牧市,城山１丁目６番地６コンフォール城山５号棟５０２号,,23,219,4850812,,,,,,,2025-03-31,1,,,,,ティーアールショウテン,0
375,2180003028234,新規,0,2025-03-31,2025-03-31,合同会社Ｌｉｖｅｆｙ,,合同会社,愛知県,名古屋市西区,宝地町２０７,,23,104,4520808,,,,,,,2025-03-31,1,,,,,ライブファイ,0
376,2180005021006,新規,0,2025-03-31,2025-03-31,一般社団法人Ｍｅｄｉｃａｌ　Ｃｏｍｐａｓｓｉｏｎ,,その他の設立登記法人,愛知県,名古屋市中村区,椿町１３－２４徳勝ビル２階,,23,105,4530015,,,,,,,2025-03-31,1,,,,,メディカルコンパッション,0
382,2230001020807,新規,0,2025-03-31,2025-03-31,株式会社ＴＭカンパニー,,株式会社,富山県,富山市,西中野町１丁目４番１５‐３０２号古宮ハイツ,,16,201,9398084,,,,,,,2025-03-31,1,,,,,ティーエムカンパニー,0
383,2240001064720,新規,0,2025-03-31,2025-03-31,Ｇｏｄ　Ｔａｉｇｉｉ株式会社,,株式会社,広島県,廿日市市,四季が丘上９番地１,,34,213,7380038,,,,,,,2025-03-31,1,,,,,ゴッドタイギー,0
386,2260001040050,新規,0,2025-03-31,2025-03-31,株式会社みぎわ,,株式会社,岡山県,岡山市北区,庭瀬７１９番地,,33,101,7010153,,,,,,,2025-03-31,1,,,,,ミギワ,0
387,2260003005101,新規,0,2025-03-31,2025-03-31,合同会社前進,,合同会社,岡山県,笠岡市,横島５８５番地２１,,33,205,7140043,,,,,,,2025-03-31,1,,,,,ゼンシン,0
390,2290001109479,新規,0,2025-03-31,2025-03-31,株式会社ムラックス,,株式会社,福岡県,糟屋郡久山町,大字山田３０４２番地１,,40,348,8112502,,,,,,,2025-03-31,1,,,,,ムラックス,0
392,2290003016616,新規,0,2025-03-31,2025-03-31,合同会社くらしテック,,合同会社,福岡県,飯塚市,川津７７番地２,,40,205,8200067,,,,,,,2025-03-31,1,,,,,クラシテック,0
407,2350002019051,新規,0,2025-03-31,2025-03-31,有限会社八幡勇建築事務所,,有限会社,宮崎県,宮崎市,江平西２丁目２番３１号,,45,201,8800051,,,,,,,2025-03-31,1,,,,,ヤハタイサムケンチクジムショ,0
408,2350005006294,新規,0,2025-03-31,2025-03-31,無限責任上郡元負債整理組合,,その他の設立登記法人,宮崎県,串間市,,,45,207,8880000,,,,,,,2025-03-31,1,,,,,カミコオリモト,0
412,2360001034975,新規,0,2025-03-31,2025-03-31,株式会社Ｓｏ‐Ｒｉｓｅ,,株式会社,沖縄県,国頭郡金武町,字金武３３８９－１,,47,314,9041201,,,,,,,2025-03-31,1,,,,,ソーライズ,0
414,2370003007004,新規,0,2025-03-31,2025-03-31,合同会社モリト不動産,,合同会社,宮城県,仙台市若林区,五橋３丁目１－３－９０５,,04,103,9840022,,,,,,,2025-03-31,1,,,,,モリトフドウサン,0
415,2370005010930,新規,0,2025-03-31,2025-03-31,一般社団法人日本表彰協会,,その他の設立登記法人,宮城県,仙台市青葉区,本町１丁目５番２８号カーニープレイス仙台駅前通６０３号室,,04,101,9800014,,,,,,,2025-03-31,1,,,,,ニッポンヒョウショウキョウカイ,0
428,2480005007073,新規,0,2025-03-31,2025-03-31,医療法人慶樹会,,その他の設立登記法人,徳島県,徳島市,北田宮２丁目７－７２,,36,201,7700003,,,,,,,2025-03-31,1,,,,,ケイジュカイ,0
432,2700150129764,新規,0,2025-03-31,2025-03-31,ＰＵＲＰＬＥ　ＭＩＳＡＫＩ　ＬＩＭＩＴＥＤ,,外国会社等,,,,,,,,ＶｉｓｔｒａＣｏｒｐｏｒａｔｅＳｅｒｖｉｃｅｓＣｅｎｔｒｅ，ＷｉｃｋｈａｍｓＣａｙ　ＩＩ　ＲｏａｄＴｏｗｎ，ＶＧ１１１０ＢｒｉｔｉｓｈＶｉｒｇｉｎＩｓｌａｎｄｓ,00138499,,,,,2025-03-31,1,,,,,パープルミサキリミテツド,0
438,3010001253543,新規,0,2025-03-31,2025-03-31,株式会社ＣａｌｍＴｅｃｈ,,株式会社,東京都,千代田区,九段南２丁目４－１１パシフィックスクエア６階,,13,101,1020074,,,,,,,2025-03-31,1,,,,,カームテック,0
439,3010001253576,新規,0,2025-03-31,2025-03-31,ｍｏｏｎｌｉｔ株式会社,,株式会社,東京都,中央区,銀座１丁目１２－４Ｎ＆ＥＢＬＤ．７階,,13,102,1040061,,,,,,,2025-03-31,1,,,,,ムーンリット,0
440,3010001253634,新規,0,2025-03-31,2025-03-31,ＲＯＢＩＮＳＯＮ株式会社,,株式会社,東京都,中央区,新川１丁目７番１号,,13,102,1040033,,,,,,,2025-03-31,1,,,,,ロビンソン,0
447,3010003046887,新規,0,2025-03-31,2025-03-31,合同会社オブノ４号,,合同会社,東京都,千代田区,麹町４丁目３番地２９ＶＯＲＴ紀尾井坂８階,,13,101,1020083,,,,,,,2025-03-31,1,,,,,オブノヨンゴウ,0
448,3010101016585,新規,0,2025-03-31,2025-03-31,株式会社なごみ,,株式会社,東京都,八王子市,北野台３丁目５番１０号,,13,201,1920913,,,,,,,2025-03-31,1,,,,,ナゴミ,0
454,3010401189156,新規,0,2025-03-31,2025-03-31,ＦＯＲＥＭＩＡ株式会社,,株式会社,東京都,港区,新橋４丁目１４番１－４Ｆ,,13,103,1050004,,,,,,,2025-03-31,1,,,,,フォレミア,0
456,3010403034731,新規,0,2025-03-31,2025-03-31,合同会社ＭＣＫ,,合同会社,東京都,港区,南青山５丁目１７番２号シドニービル５０２,,13,103,1070062,,,,,,,2025-03-31,1,,,,,エムシーケイ,0
459,3010503007777,新規,0,2025-03-31,2025-03-31,合同会社陶熹,,合同会社,東京都,台東区,下谷３丁目３－８ルフォン入谷ザレジデンス１２０２,,13,106,1100004,,,,,,,2025-03-31,1,,,,,トウキ,0
460,3010505003592,新規,0,2025-03-31,2025-03-31,一般社団法人省心会,,その他の設立登記法人,東京都,台東区,柳橋１丁目２３番４号,,13,106,1110052,,,,,,,2025-03-31,1,,,,,ショウシンカイ,0
472,3011001168491,新規,0,2025-03-31,2025-03-31,株式会社ＴＮＥＭＯ,,株式会社,東京都,渋谷区,神宮前２丁目３０－２２－７０２,,13,113,1500001,,,,,,,2025-03-31,1,,,,,ティネモ,0
473,3011001168500,新規,0,2025-03-31,2025-03-31,ＰＯＬＹＴＯＰＥ株式会社,,株式会社,東京都,渋谷区,東１丁目２９番３号渋谷ブリッジＢ棟,,13,113,1500011,,,,,,,2025-03-31,1,,,,,ポリトープ,0
474,3011001168517,新規,0,2025-03-31,2025-03-31,株式会社ＲＩＭ,,株式会社,東京都,渋谷区,宇田川町１番１２－１４０８号パークコート渋谷ザタワー,,13,113,1500042,,,,,,,2025-03-31,1,,,,,リム,0
475,3011001168541,新規,0,2025-03-31,2025-03-31,株式会社クレメンティア,,株式会社,東京都,目黒区,中目黒５丁目２８番１８－７０４号,,13,110,1530061,,,,,,,2025-03-31,1,,,,,クレメンティア,0
476,3011001168574,新規,0,2025-03-31,2025-03-31,株式会社シンフレ,,株式会社,東京都,渋谷区,恵比寿西２丁目４番８号ウィンド恵比寿ビル８Ｆ,,13,113,1500021,,,,,,,2025-03-31,1,,,,,シンフレ,0
477,3011001168590,新規,0,2025-03-31,2025-03-31,株式会社ＫＡＹＬＬ,,株式会社,東京都,渋谷区,富ヶ谷２丁目２６番１６号アパートメント稲木３０１,,13,113,1510063,,,,,,,2025-03-31,1,,,,,カイル,0
478,3011001168764,新規,0,2025-03-31,2025-03-31,株式会社ＳＯＬ,,株式会社,東京都,渋谷区,渋谷２丁目１９‐１５宮益坂ビルディング６０９,,13,113,1500002,,,,,,,2025-03-31,1,,,,,ソル,0
480,3011003021244,新規,0,2025-03-31,2025-03-31,合同会社ニドラボ,,合同会社,東京都,目黒区,自由が丘１丁目１８番１５号Ｊ－ｐａｔｉｏ２０３,,13,110,1520035,,,,,,,2025-03-31,1,,,,,ニドラボ,0
482,3011101111161,新規,0,2025-03-31,2025-03-31,株式会社ＮＫ,,株式会社,東京都,新宿区,北新宿２丁目１９番２号リビオ新宿ザ・レジデンス３１４号室,,13,104,1690074,,,,,,,2025-03-31,1,,,,,エヌケー,0
484,3011103015674,新規,0,2025-03-31,2025-03-31,合同会社タケシマ,,合同会社,東京都,新宿区,南榎町４６,,13,104,1620852,,,,,,,2025-03-31,1,,,,,タケシマ,0
486,3011201026243,新規,0,2025-03-31,2025-03-31,株式会社マーケットブリッジ,,株式会社,東京都,中野区,新井１丁目１６－１４ＣＩＣＡＤＡＮＡＫＡＮＯ２０３,,13,114,1650026,,,,,,,2025-03-31,1,,,,,マーケットブリッジ,0
487,3011203004643,新規,0,2025-03-31,2025-03-31,合同会社ＡＫ,,合同会社,東京都,中野区,本町６丁目８－１０オークヒルズ２０５,,13,114,1640012,,,,,,,2025-03-31,1,,,,,エーケー,0
495,3011801045857,新規,0,2025-03-31,2025-03-31,株式会社ＷＥＭＥＧＡ,,株式会社,東京都,足立区,中川２丁目２番７号,,13,121,1200002,,,,,,,2025-03-31,1,,,,,ウェメガ,0
497,3012401042930,新規,0,2025-03-31,2025-03-31,水尾建築改修管理株式会社,,株式会社,東京都,府中市,白糸台６丁目６番地の５ハイツロッキー２０３,,13,206,1830011,,,,,,,2025-03-31,1,,,,,ミズノオケンチクカイシュウカンリ,0
502,3013303007591,新規,0,2025-03-31,2025-03-31,楽意合同会社,,合同会社,東京都,豊島区,東池袋１丁目４４－１０タイガースビル２０５号室,,13,116,1700013,,,,,,,2025-03-31,1,,,,,ラクイ,0
505,3020001162041,新規,0,2025-03-31,2025-03-31,株式会社ｅｄｕｒｉｐ,,株式会社,神奈川県,横浜市西区,北幸１丁目５番１０号ＪＰＲ横浜ビル８階,,14,103,2200004,,,,,,,2025-03-31,1,,,,,エデュリップ,0
512,3020003028125,新規,0,2025-03-31,2025-03-31,合同会社ビレッジ,,合同会社,神奈川県,横浜市青葉区,藤が丘２丁目１６番地４８,,14,117,2270043,,,,,,,2025-03-31,1,,,,,ビレッジ,0
513,3020003028133,新規,0,2025-03-31,2025-03-31,合同会社さくらデジタルワークス,,合同会社,神奈川県,横浜市磯子区,汐見台１丁目３－２磯子汐見台ヒルズ１０９号,,14,107,2350022,,,,,,,2025-03-31,1,,,,,サクラデジタルワークス,0
524,3030003026425,新規,0,2025-03-31,2025-03-31,合同会社ＦｏｒＭｙｕｕ,,合同会社,埼玉県,本庄市,児玉町吉田林３番地１,,11,211,3670211,,,,,,,2025-03-31,1,,,,,フォーミュウ,0
525,3030005022091,新規,0,2025-03-31,2025-03-31,ＮＰＯ法人越谷こどもサポートネットワーク,,その他の設立登記法人,埼玉県,越谷市,千間台西５丁目１番地１プラネせんげん台３０６号,,11,222,3430041,,,,,,,2025-03-31,1,,,,,コシガヤコドモサポートネットワーク,0
526,3030005022100,新規,0,2025-03-31,2025-03-31,司法書士法人ヒュッテ,,その他の設立登記法人,埼玉県,さいたま市南区,大字太田窪１９９２番地２,,11,108,3360015,,,,,,,2025-03-31,1,,,,,ヒュッテ,0
537,3040003027232,新規,0,2025-03-31,2025-03-31,合同会社クリアブルー,,合同会社,千葉県,松戸市,二十世紀が丘丸山町１１０番地の２,,12,207,2710084,,,,,,,2025-03-31,1,,,,,クリアブルー,0
539,3040005022702,新規,0,2025-03-31,2025-03-31,一般社団法人ｌｉｑｕｉｄｓｋｉｌｌ,,その他の設立登記法人,千葉県,八千代市,村上１１１３番地１－１街区１２棟１０４号,,12,221,2760028,,,,,,,2025-03-31,1,,,,,リキッドスキル,0
543,3050003009155,新規,0,2025-03-31,2025-03-31,合同会社ラウリマ,,合同会社,茨城県,牛久市,南２丁目１０－４,,08,219,3001222,,,,,,,2025-03-31,1,,,,,ラウリマ,0
544,3070001042775,新規,0,2025-03-31,2025-03-31,株式会社彩樹園,,株式会社,群馬県,北群馬郡榛東村,大字山子田１６２番地８,,10,344,3703502,,,,,,,2025-03-31,1,,,,,サイジュエン,0
546,3080001026819,新規,0,2025-03-31,2025-03-31,丸和産業株式会社,,株式会社,静岡県,牧之原市,静波１９３９番地の６,,22,226,4210422,,,,,,,2025-03-31,1,,,,,マルワサンギョウ,0
551,3080401027821,新規,0,2025-03-31,2025-03-31,Ｅｃｔｏｂｒａｉｎ　Ｄｅｖｉｃｅｓ株式会社,,株式会社,静岡県,浜松市中央区,鍛治町１００番地１ザザシティ浜松中央館Ｂ１Ｆ,,22,138,4320000,,,,,,,2025-03-31,1,,,,,エクトブレインデバイセズ,0
566,3120001274033,新規,0,2025-03-31,2025-03-31,株式会社Ｎ＆Ａ,,株式会社,大阪府,大阪市生野区,新今里３丁目１１番７号ＹＹビル１０１,,27,116,5440001,,,,,,,2025-03-31,1,,,,,エヌアンドエー,0
567,3120001274082,新規,0,2025-03-31,2025-03-31,株式会社ジャパンソロビジネスラボ,,株式会社,大阪府,大阪市北区,梅田１丁目２番２号大阪駅前第２ビル１２－１２,,27,127,5300001,,,,,,,2025-03-31,1,,,,,ジャパンソロビジネスラボ,0
568,3120001274108,新規,0,2025-03-31,2025-03-31,株式会社ＨＥＹ‐ＨＯＭＥ,,株式会社,大阪府,大阪市西淀川区,花川２丁目２１番１３号西淀ビル４Ｆ,,27,113,5550023,,,,,,,2025-03-31,1,,,,,ヘイホーム,0
569,3120003028957,新規,0,2025-03-31,2025-03-31,合同会社アークライジング,,合同会社,大阪府,寝屋川市,木屋町５番１６号,,27,215,5720087,,,,,,,2025-03-31,1,,,,,アークライジング,0
571,3120101071363,新規,0,2025-03-31,2025-03-31,株式会社ククナ,,株式会社,大阪府,堺市北区,長曽根町１４６７番地１,,27,146,5918025,,,,,,,2025-03-31,1,,,,,ククナ,0
576,3120903005584,新規,0,2025-03-31,2025-03-31,合同会社ＡＭＩＳＩＫＩ,,合同会社,大阪府,箕面市,箕面３丁目１１－５,,27,220,5620001,,,,,,,2025-03-31,1,,,,,アミシキ,0
577,3122001039028,新規,0,2025-03-31,2025-03-31,株式会社リグノテック,,株式会社,大阪府,八尾市,南植松町４丁目７９番地,,27,212,5810091,,,,,,,2025-03-31,1,,,,,リグノテック,0
578,3130001079290,新規,0,2025-03-31,2025-03-31,ＡｌｉｖｅＤｅｓｉｇｎ株式会社,,株式会社,京都府,京都市上京区,下長者町通六軒町西入利生町２８８番地１,,26,102,6028343,,,,,,,2025-03-31,1,,,,,アライブデザイン,0
580,3130003010328,新規,0,2025-03-31,2025-03-31,ＩＭＨアセットマネジメント合同会社,,合同会社,京都府,京都市北区,衣笠西馬場町３４番地,,26,101,6038366,,,,,,,2025-03-31,1,,,,,アイエムエイチアセットマネジメント,0
589,3140001137948,新規,0,2025-03-31,2025-03-31,株式会社Ｄｒｅａｍ　Ａｃｃｅｌｅｒａｔｏｒ,,株式会社,兵庫県,明石市,魚住町住吉３丁目１３０８番地の５,,28,203,6740083,,,,,,,2025-03-31,1,,,,,ドリームアクセレラレーター,0
597,3180001166101,新規,0,2025-03-31,2025-03-31,株式会社ＬＩＴ,,株式会社,愛知県,名古屋市天白区,元八事５丁目１２７番地三角堂アパートメンツ５０６号,,23,116,4680066,,,,,,,2025-03-31,1,,,,,リット,0
600,3180005021013,新規,0,2025-03-31,2025-03-31,一般社団法人日本クリエイター事業支援協会,,その他の設立登記法人,愛知県,名古屋市中区,栄３丁目１２番３号３階,,23,106,4600008,,,,,,,2025-03-31,1,,,,,ニホンクリエイタージギョウシエンキョウカイ,0
601,3190001032104,新規,0,2025-03-31,2025-03-31,株式会社ＣＲＥＡＲＥ,,株式会社,三重県,津市,白塚町３４５２番地フレグランスＡ１０１号,,24,201,5140101,,,,,,,2025-03-31,1,,,,,クレアーレ,0
603,3200003006748,新規,0,2025-03-31,2025-03-31,ＨＡトレーディング合同会社,,合同会社,岐阜県,養老郡養老町,下笠２８８番地,,21,341,5031384,,,,,,,2025-03-31,1,,,,,エイチエートレーディング,0
615,3290803005008,新規,0,2025-03-31,2025-03-31,合同会社いのうえいちご,,合同会社,福岡県,京都郡みやこ町,勝山上田４４４,,40,625,8240821,,,,,,,2025-03-31,1,,,,,イノウエイチゴ,0
624,3340003004787,新規,0,2025-03-31,2025-03-31,合同会社Ｑサポート,,合同会社,鹿児島県,霧島市,国分福島１丁目１１番１０－２号,,46,218,8994322,,,,,,,2025-03-31,1,,,,,キュウサポート,0
626,3360003014801,新規,0,2025-03-31,2025-03-31,合同会社アミリア,,合同会社,沖縄県,中頭郡読谷村,字宇座３５３メーバルカナー２０１,,47,324,9040328,,,,,,,2025-03-31,1,,,,,アミリア,0
637,3430001094037,新規,0,2025-03-31,2025-03-31,株式会社ＴＡＣＴ,,株式会社,北海道,札幌市白石区,菊水上町三条３丁目３７番地９,,01,104,0030813,,,,,,,2025-03-31,1,,,,,タクト,0
641,3480005007072,新規,0,2025-03-31,2025-03-31,医療法人ｋａｎａｄｅ,,その他の設立登記法人,徳島県,鳴門市,大津町矢倉字六ノ越７０番地２,,36,202,7720035,,,,,,,2025-03-31,1,,,,,カナデ,0
649,4010001253575,新規,0,2025-03-31,2025-03-31,ＰＳＷマグアルファ株式会社,,株式会社,東京都,千代田区,岩本町３丁目５番２号,,13,101,1010032,,,,,,,2025-03-31,1,,,,,ビーエスダブリューマグアルファ,0
650,4010001253617,新規,0,2025-03-31,2025-03-31,愛美グローバル国際株式会社,,株式会社,東京都,千代田区,神田須田町２丁目１５番３号,,13,101,1010041,,,,,,,2025-03-31,1,,,,,アイビグローバルコクサイ,0
654,4010003046886,新規,0,2025-03-31,2025-03-31,合同会社オブノ３号,,合同会社,東京都,千代田区,麹町４丁目３番地２９ＶＯＲＴ紀尾井坂８階,,13,101,1020083,,,,,,,2025-03-31,1,,,,,オブノサンゴウ,0
655,4010003046911,新規,0,2025-03-31,2025-03-31,合同会社ＲＩＭ,,合同会社,東京都,千代田区,神田須田町１丁目７番８号ＶＯＲＴ秋葉原４、２Ｆ,,13,101,1010041,,,,,,,2025-03-31,1,,,,,リム,0
659,4010401188990,新規,0,2025-03-31,2025-03-31,株式会社ＫＭ‐ＪＡＰＡＮ,,株式会社,東京都,港区,芝公園１丁目２番９号,,13,103,1050011,,,,,,,2025-03-31,1,,,,,,0
660,4010401189221,新規,0,2025-03-31,2025-03-31,ＴＥＩ株式会社,,株式会社,東京都,港区,赤坂１丁目１２番１２号榎坂ビル３階,,13,103,1070052,,,,,,,2025-03-31,1,,,,,ティーイーアイ,0
661,4010403034697,新規,0,2025-03-31,2025-03-31,ｍｓａｋａｉ合同会社,,合同会社,東京都,港区,南青山２丁目２番１５号ウィン青山９４２,,13,103,1070062,,,,,,,2025-03-31,1,,,,,エムサカイ,0
662,4010403034730,新規,0,2025-03-31,2025-03-31,ソーラーフィズ合同会社,,合同会社,東京都,港区,東新橋１丁目５番２号汐留シティセンター８階,,13,103,1050021,,,,,,,2025-03-31,1,,,,,ソーラーフィズ,0
663,4010405024250,新規,0,2025-03-31,2025-03-31,ソーラーフィズホールディングス一般社団法人,,その他の設立登記法人,東京都,港区,東新橋１丁目５番２号汐留シティセンター８階,,13,103,1050021,,,,,,,2025-03-31,1,,,,,ソーラーフィズホールディングス,0
674,4010503007784,新規,0,2025-03-31,2025-03-31,合同会社ＧｒｏｕｎＤ　ｚｅｒｏ,,合同会社,東京都,台東区,千束３丁目２０―２７,,13,106,1110031,,,,,,,2025-03-31,1,,,,,グラウンドゼロ,0
682,4011001168516,新規,0,2025-03-31,2025-03-31,株式会社ｒｅｖｏｉｒ,,株式会社,東京都,渋谷区,広尾３丁目２番１号ファレイス広尾３階,,13,113,1500012,,,,,,,2025-03-31,1,,,,,ルヴォワール,0
683,4011001168524,新規,0,2025-03-31,2025-03-31,株式会社本当に今から,,株式会社,東京都,渋谷区,道玄坂１丁目１０番８号渋谷道玄坂東急ビル２Ｆ－Ｃ,,13,113,1500043,,,,,,,2025-03-31,1,,,,,ホントウニイマカラ,0
684,4011001168557,新規,0,2025-03-31,2025-03-31,株式会社ｋａｉｔｏ,,株式会社,東京都,渋谷区,代官山町１３－８キャッスルマンション代官山３１２,,13,113,1500034,,,,,,,2025-03-31,1,,,,,カイト,0
688,4011101110963,新規,0,2025-03-31,2025-03-31,株式会社磊,,株式会社,東京都,新宿区,新宿１丁目１４番２号,,13,104,1600022,,,,,,,2025-03-31,1,,,,,ライ,0
689,4011101111144,新規,0,2025-03-31,2025-03-31,ＨＡＲＵ株式会社,,株式会社,東京都,新宿区,西新宿８丁目１２番１号サンパレス新宿４０３,,13,104,1600023,,,,,,,2025-03-31,1,,,,,ハル,0
690,4011103015723,新規,0,2025-03-31,2025-03-31,合同会社ＮＥＯ　ＰＲＯＪＥＣＴ,,合同会社,東京都,新宿区,西新宿３丁目３番１３号,,13,104,1600023,,,,,,,2025-03-31,1,,,,,ネオプロジェクト,0
691,4011201026242,新規,0,2025-03-31,2025-03-31,株式会社タノシー,,株式会社,東京都,中野区,中野５丁目６７番７号プラザ中野８０１,,13,114,1640001,,,,,,,2025-03-31,1,,,,,タノシー,0
707,4011803006765,新規,0,2025-03-31,2025-03-31,合同会社安東,,合同会社,東京都,葛飾区,小菅１丁目１５－９,,13,122,1240001,,,,,,,2025-03-31,1,,,,,アントウ,0
711,4013301054024,新規,0,2025-03-31,2025-03-31,金石株式会社,,株式会社,東京都,豊島区,北大塚２丁目７－１９プロスペリティ北大塚１階,,13,116,1700004,,,,,,,2025-03-31,1,,,,,ジンシ,0
712,4013301054032,新規,0,2025-03-31,2025-03-31,Ｒａｄａｉ株式会社,,株式会社,東京都,豊島区,南大塚２丁目２６番１１－８０４号,,13,116,1700005,,,,,,,2025-03-31,1,,,,,ラダイ,0
718,4020001162016,新規,0,2025-03-31,2025-03-31,株式会社文平工務店,,株式会社,神奈川県,横浜市瀬谷区,阿久和西４丁目３番１３号,,14,114,2460025,,,,,,,2025-03-31,1,,,,,フミヒラコウムテン,0
719,4020001162024,新規,0,2025-03-31,2025-03-31,株式会社Ｉｎｆｉｎｉｔｙ,,株式会社,神奈川県,横浜市港北区,新横浜３丁目２－３－９Ｆ,,14,109,2220033,,,,,,,2025-03-31,1,,,,,インフィニティ,0
720,4020001162065,新規,0,2025-03-31,2025-03-31,ダブルワン株式会社,,株式会社,神奈川県,横浜市西区,浅間町１丁目４番３号ウィザードビル４０２,,14,103,2200072,,,,,,,2025-03-31,1,,,,,ダブルワン,0
725,4030001165587,新規,0,2025-03-31,2025-03-31,株式会社Ｊａｐａｎ　Ｃｌｅａｒ　Ｅｓｔａｔｅ,,株式会社,埼玉県,鶴ヶ島市,脚折町１丁目３６番５号,,11,241,3502211,,,,,,,2025-03-31,1,,,,,ジャパンクリアエステート,0
726,4030001165645,新規,0,2025-03-31,2025-03-31,株式会社Ｍ　ＳＴＥＥＬ　Ｃｏ．，Ｌｔｄ．,,株式会社,埼玉県,川口市,上青木５丁目１２番６号,,11,203,3330844,,,,,,,2025-03-31,1,,,,,エムスチール,0
738,4050003009154,新規,0,2025-03-31,2025-03-31,合同会社Ｔａｋｅ　Ｐｌａｎｎｉｎｇ,,合同会社,茨城県,龍ケ崎市,米町３９４８番地,,08,208,3010018,,,,,,,2025-03-31,1,,,,,テイクプランニング,0
743,4060001038055,新規,0,2025-03-31,2025-03-31,株式会社ＧｏｏｄＳｔａｎｃｅＡｎｄ,,株式会社,栃木県,宇都宮市,南大通り２丁目６番２０号サーパス南大通り５０２,,09,201,3210963,,,,,,,2025-03-31,1,,,,,グッドスタンスアンド,0
747,4080001026826,新規,0,2025-03-31,2025-03-31,株式会社アルドノア,,株式会社,静岡県,静岡市葵区,安東３丁目１０番２５号,,22,101,4200882,,,,,,,2025-03-31,1,,,,,アルドノア,0
751,4090003002790,新規,0,2025-03-31,2025-03-31,合同会社ＭＯＮＯＬＵＭＩ,,合同会社,山梨県,富士吉田市,富士見１丁目１番５号,,19,202,4030009,,,,,,,2025-03-31,1,,,,,モノルミ,0
770,4120003028956,新規,0,2025-03-31,2025-03-31,合同会社スパークイグニション,,合同会社,大阪府,寝屋川市,木屋町５番１６号,,27,215,5720087,,,,,,,2025-03-31,1,,,,,スパークイグニション,0
771,4120003028980,新規,0,2025-03-31,2025-03-31,合同会社ＣＯＷ　ＬＡＮＤ,,合同会社,大阪府,大阪市浪速区,大国１丁目１１番７－４０５号,,27,111,5560014,,,,,,,2025-03-31,1,,,,,カウランド,0
772,4120101071346,新規,0,2025-03-31,2025-03-31,株式会社ほうせん,,株式会社,大阪府,和泉市,肥子町２丁目８番９号,,27,219,5940076,,,,,,,2025-03-31,1,,,,,ホウセン,0
785,4130005017320,新規,0,2025-03-31,2025-03-31,ＣＯＨＥＮ行政書士法人,,その他の設立登記法人,京都府,京都市中京区,河原町通二条下る一之船入町５３７番地２０ＦＩＳ御池ビル６０６号,,26,104,6040924,,,,,,,2025-03-31,1,,,,,コヘン,0
800,4180001166026,新規,0,2025-03-31,2025-03-31,株式会社ニューテ,,株式会社,愛知県,名古屋市千種区,春岡１丁目２番１３号,,23,101,4640848,,,,,,,2025-03-31,1,,,,,ニューテ,0
801,4180001166075,新規,0,2025-03-31,2025-03-31,株式会社エンジン,,株式会社,愛知県,名古屋市東区,泉１丁目１８－３泉ステイトリービル８０１,,23,102,4610001,,,,,,,2025-03-31,1,,,,,エンジン,0
802,4180001166091,新規,0,2025-03-31,2025-03-31,株式会社ＲＡＦＦＩＮＡＴＯ,,株式会社,愛知県,名古屋市中区,松原２丁目１９番３８号,,23,106,4600017,,,,,,,2025-03-31,1,,,,,ラフィナート,0
807,4180005021012,新規,0,2025-03-31,2025-03-31,一般社団法人美央斗会,,その他の設立登記法人,愛知県,名古屋市中村区,名駅２丁目３７番１４号コスモス名駅二丁目ビル２階,,23,105,4500002,,,,,,,2025-03-31,1,,,,,ミオトカイ,0
809,4180301039658,新規,0,2025-03-31,2025-03-31,豊雅工業株式会社,,株式会社,愛知県,豊橋市,植田町字西新切４７番地の１,,23,201,4418134,,,,,,,2025-03-31,1,,,,,ホウガコウギョウ,0
811,4200001043560,新規,0,2025-03-31,2025-03-31,株式会社Ｃｏ‐ｅｘｉｓｔ,,株式会社,岐阜県,中津川市,中津川８４２番地の３３２,,21,206,5080001,,,,,,,2025-03-31,1,,,,,コエグジスト,0
812,4200001043577,新規,0,2025-03-31,2025-03-31,あｉｕｅｏ株式会社,,株式会社,岐阜県,岐阜市,長良福光２５１９番地２モアグレース長良福光４０２号室,,21,201,5020817,,,,,,,2025-03-31,1,,,,,アイウエオ,0
815,4220001026571,新規,0,2025-03-31,2025-03-31,株式会社キンクドテイル,,株式会社,石川県,河北郡津幡町,字領家ハ９４番地,,17,361,9290318,,,,,,,2025-03-31,1,,,,,キンクドテイル,0
835,4290001109485,新規,0,2025-03-31,2025-03-31,株式会社おとのみ,,株式会社,福岡県,太宰府市,観世音寺１丁目１１番１－５０５号,,40,221,8180101,,,,,,,2025-03-31,1,,,,,オトノミ,0
843,4310003004970,新規,0,2025-03-31,2025-03-31,合同会社いちえ,,合同会社,長崎県,南島原市,口之津町乙２９４２番地,,42,214,8592501,,,,,,,2025-03-31,1,,,,,イチエ,0
847,4340001027211,新規,0,2025-03-31,2025-03-31,株式会社ＲｅｎｅＸＴ,,株式会社,鹿児島県,鹿児島市,西田３丁目２４－２３,,46,201,8900046,,,,,,,2025-03-31,1,,,,,リネクスト,0
848,4350001019455,新規,0,2025-03-31,2025-03-31,株式会社イエＬｉａ,,株式会社,宮崎県,宮崎市,清武町加納甲１７１２番地１,,45,201,8891605,,,,,,,2025-03-31,1,,,,,イエリア,0
850,4370005010929,新規,0,2025-03-31,2025-03-31,一般社団法人亘理町災害防止協議会,,その他の設立登記法人,宮城県,亘理郡亘理町,逢隈上郡字天王６２番地の２,00138502,04,361,9892381,,,,,,,2025-03-31,1,,,,,ワタリチョウサイガイボウシキョウギカイ,0
853,4400001016983,新規,0,2025-03-31,2025-03-31,株式会社ＨＡＩレンタリース,,株式会社,岩手県,奥州市,水沢字高屋敷３３３－１,,03,215,0230889,,,,,,,2025-03-31,1,,,,,ハイレンタリース,0
866,4500001026213,新規,0,2025-03-31,2025-03-31,株式会社Ｔ．Ｂ．カタリスト,,株式会社,愛媛県,松山市,三番町５丁目９番地１シティタワー松山１１０７号,,38,201,7900003,,,,,,,2025-03-31,1,,,,,ティービーカタリスト,0
873,5010001253558,新規,0,2025-03-31,2025-03-31,株式会社アシスト,,株式会社,東京都,中央区,日本橋堀留町２丁目１番１４－２０７号,,13,102,1030012,,,,,,,2025-03-31,1,,,,,アシスト,0
874,5010001253574,新規,0,2025-03-31,2025-03-31,エイク株式会社,,株式会社,東京都,中央区,日本橋中洲６番４－８０３号,,13,102,1030008,,,,,,,2025-03-31,1,,,,,エイク,0
875,5010001253616,新規,0,2025-03-31,2025-03-31,ＲＩＧＨＴＳ　ＦＡＮ株式会社,,株式会社,東京都,中央区,銀座１丁目１６－７,,13,102,1040061,,,,,,,2025-03-31,1,,,,,ライツファン,0
876,5010003046877,新規,0,2025-03-31,2025-03-31,ベゴニア合同会社,,合同会社,東京都,中央区,日本橋１丁目４番１号日本橋一丁目ビルディング,,13,102,1030027,,,,,,,2025-03-31,1,,,,,ベゴニア,0
877,5010003046885,新規,0,2025-03-31,2025-03-31,合同会社剱岳,,合同会社,東京都,千代田区,丸の内１丁目４番１号東京共同会計事務所内,,13,101,1000005,,,,,,,2025-03-31,1,,,,,ツルギダケ,0
878,5010003046893,新規,0,2025-03-31,2025-03-31,合同会社Ｂ‐ｒｉｔａ,,合同会社,東京都,中央区,銀座１丁目１２番４号Ｎ＆ＥＢＬＤ．７階,,13,102,1040061,,,,,,,2025-03-31,1,,,,,ビーリタ,0
879,5010005039821,新規,0,2025-03-31,2025-03-31,一般社団法人リジカルシンキング,,その他の設立登記法人,東京都,千代田区,神田錦町３丁目２１－１３４８,,13,101,1010054,,,,,,,2025-03-31,1,,,,,リジカルシンキング,0
889,5010401189212,新規,0,2025-03-31,2025-03-31,株式会社Ｌａｚｕｌｉ,,株式会社,東京都,港区,六本木７丁目１２番３号,,13,103,1060032,,,,,,,2025-03-31,1,,,,,ラズリ,0
890,5010401189220,新規,0,2025-03-31,2025-03-31,株式会社赤坂土地建物,,株式会社,東京都,港区,愛宕２丁目５番１号愛宕グリーンヒルズＭＯＲＩタワー２７階,,13,103,1050002,,,,,,,2025-03-31,1,,,,,アカサカトチタテモノ,0
896,5010405024183,新規,0,2025-03-31,2025-03-31,コンチネンタル国際行政書士法人,,その他の設立登記法人,東京都,港区,赤坂２丁目１６番６号ＢＩＺＭＡＲＫＳ赤坂,,13,103,1070052,,,,,,,2025-03-31,1,,,,,コンチネンタルコクサイ,0
897,5010601067028,新規,0,2025-03-31,2025-03-31,丸嘉株式会社,,株式会社,東京都,江東区,亀戸３丁目６２番１０号ＳＡＮビル４１２号室,,13,108,1360071,,,,,,,2025-03-31,1,,,,,マルカ,0
900,5010703007641,新規,0,2025-03-31,2025-03-31,合同会社ＤＳＲ,,合同会社,東京都,品川区,大井５丁目９番４－１０２号,,13,109,1400014,,,,,,,2025-03-31,1,,,,,ディーエスアール,0
902,5010801035957,新規,0,2025-03-31,2025-03-31,株式会社ウォーターデザインホールディングス,,株式会社,東京都,大田区,昭和島２丁目４番２号,,13,111,1430004,,,,,,,2025-03-31,1,,,,,ウォーターデザインホールディングス,0
904,5010903009801,新規,0,2025-03-31,2025-03-31,合同会社グランエックス,,合同会社,東京都,世田谷区,上野毛４丁目２３－９グランエッグス５号室,,13,112,1580093,,,,,,,2025-03-31,1,,,,,グランエックス,0
909,5011001168523,新規,0,2025-03-31,2025-03-31,株式会社ＴｅｃｈＳｔｒｉｋｅｒ,,株式会社,東京都,渋谷区,道玄坂１丁目１０番８号渋谷道玄坂東急ビル２Ｆ－Ｃ,,13,113,1500043,,,,,,,2025-03-31,1,,,,,テックストライカー,0
910,5011001168531,新規,0,2025-03-31,2025-03-31,Ｈｉｖｉｑｕｅ株式会社,,株式会社,東京都,渋谷区,恵比寿西２丁目８番４号ＥＸ恵比寿西ビル５階,,13,113,1500021,,,,,,,2025-03-31,1,,,,,ハイヴィーク,0
911,5011001168556,新規,0,2025-03-31,2025-03-31,株式会社ＭＩＹＡＢＩ,,株式会社,東京都,渋谷区,恵比寿西２丁目２番８号えびす第２ビル３階,,13,113,1500021,,,,,,,2025-03-31,1,,,,,ミヤビ,0
913,5011003021234,新規,0,2025-03-31,2025-03-31,合同会社クリユース,,合同会社,東京都,渋谷区,渋谷２丁目１９－１５,,13,113,1500002,,,,,,,2025-03-31,1,,,,,クリユース,0
917,5011101111119,新規,0,2025-03-31,2025-03-31,株式会社ポケットロケッツ,,株式会社,東京都,新宿区,神楽坂６丁目２３番,,13,104,1620825,,,,,,,2025-03-31,1,,,,,ポケットロケッツ,0
921,5011303005481,新規,0,2025-03-31,2025-03-31,モトツーリスト合同会社,,合同会社,東京都,杉並区,善福寺１丁目１４番１７号,,13,115,1670041,,,,,,,2025-03-31,1,,,,,モトツーリスト,0
923,5011501031866,新規,0,2025-03-31,2025-03-31,金山エージェンシー株式会社,,株式会社,東京都,荒川区,東日暮里３丁目４１－３－１０３,,13,118,1160014,,,,,,,2025-03-31,1,,,,,キンザンエージェンシー,0
925,5012405005097,新規,0,2025-03-31,2025-03-31,特定非営利活動法人洪道場囲碁普及会,,その他の設立登記法人,東京都,武蔵野市,吉祥寺本町１丁目３４番２２号田島ビル２階,,13,203,1800004,,,,,,,2025-03-31,1,,,,,ホンドウジョウイゴフキュウカイ,0
926,5012701018777,新規,0,2025-03-31,2025-03-31,株式会社ＮＥＰＡＬＩＮＫ,,株式会社,東京都,西東京市,谷戸町２丁目１１－１３ヴィラひばりヶ丘１０２号,,13,229,1880001,,,,,,,2025-03-31,1,,,,,ネパリンク,0
928,5013301053974,新規,0,2025-03-31,2025-03-31,ＡＮＦＵ株式会社,,株式会社,東京都,豊島区,西巣鴨１丁目２番２２号ＷＡＮＤＡビル２階,,13,116,1700001,,,,,,,2025-03-31,1,,,,,アンフ,0
929,5013301054015,新規,0,2025-03-31,2025-03-31,株式会社ＴＯＮＡＫＡＩ,,株式会社,東京都,豊島区,東池袋１丁目３番７号６階,,13,116,1700013,,,,,,,2025-03-31,1,,,,,トナカイ,0
930,5013301054023,新規,0,2025-03-31,2025-03-31,Ｅｎｃｅｌａｄｕｓ株式会社,,株式会社,東京都,豊島区,東池袋２丁目６２番８号ＢＩＧオフィスプラザ池袋１２０６,,13,116,1700013,,,,,,,2025-03-31,1,,,,,エンセラダス,0
931,5013301054031,新規,0,2025-03-31,2025-03-31,株式会社エルミュージックスクール,,株式会社,東京都,豊島区,東池袋２丁目６０番２１号フラッツ池袋９０２号室,,13,116,1700013,,,,,,,2025-03-31,1,,,,,エルミュージックスクール,0
933,5020001162015,新規,0,2025-03-31,2025-03-31,株式会社旺紀,,株式会社,神奈川県,川崎市高津区,東野川１丁目２５番１１号,,14,134,2130029,,,,,,,2025-03-31,1,,,,,オウキ,0
935,5020003028131,新規,0,2025-03-31,2025-03-31,合同会社ＨＡＮＤ’ｓ,,合同会社,神奈川県,横浜市中区,三吉町２番地４ジョイフル関内４０７号室,,14,104,2310034,,,,,,,2025-03-31,1,,,,,ハンズ,0
936,5020005016737,新規,0,2025-03-31,2025-03-31,一般社団法人ＳＤＧｓ写真アート協会,,その他の設立登記法人,神奈川県,横浜市戸塚区,矢部町１２０５番地サンハイツ河原Ａ棟１Ｆ店舗Ａ,,14,110,2440002,,,,,,,2025-03-31,1,,,,,エスディージーズシャシンアートキョウカイ,0
937,5020005016753,新規,0,2025-03-31,2025-03-31,医療法人よつば,,その他の設立登記法人,神奈川県,横浜市神奈川区,大口通２８番地１横濱大口アーバンビル２階,,14,102,2210002,,,,,,,2025-03-31,1,,,,,ヨツバ,0
945,5030001165603,新規,0,2025-03-31,2025-03-31,ＳＵＮＰＯＲ株式会社,,株式会社,埼玉県,春日部市,神間１１９３番地４－１,,11,214,3440132,,,,,,,2025-03-31,1,,,,,サンポール,0
947,5030003026423,新規,0,2025-03-31,2025-03-31,川口土地建物合資会社,,合資会社,埼玉県,川口市,飯塚町一丁目９６８番地,,11,203,3320000,,,,,,,2025-03-31,1,,,,,,0
948,5030005022098,新規,0,2025-03-31,2025-03-31,医療法人社団慧晴会,,その他の設立登記法人,埼玉県,さいたま市浦和区,常盤５丁目８番４５号芦川ビル２０１号室,,11,107,3300061,,,,,,,2025-03-31,1,,,,,ケイセイカイ,0
952,5040001137964,新規,0,2025-03-31,2025-03-31,株式会社ケイテック,,株式会社,千葉県,柏市,花野井５３６番地５松丸ハイツ６－２０６号,,12,217,2770812,,,,,,,2025-03-31,1,,,,,ケイテック,0
955,5040003027239,新規,0,2025-03-31,2025-03-31,合同会社ｗａｎ　ｕｐ,,合同会社,千葉県,千葉市美浜区,高洲３丁目６―１駅前プラザ１３０５室,,12,106,2610004,,,,,,,2025-03-31,1,,,,,ワンアップ,0
960,5050005013590,新規,0,2025-03-31,2025-03-31,医療法人社団鴨仁会,,その他の設立登記法人,茨城県,稲敷郡阿見町,本郷２丁目３番地１,,08,443,3001159,,,,,,,2025-03-31,1,,,,,オウジンカイ,0
965,5070003005828,新規,0,2025-03-31,2025-03-31,合同会社メディケア,,合同会社,群馬県,渋川市,北橘町箱田４８８番地,,10,208,3770053,,,,,,,2025-03-31,1,,,,,メディケア,0
980,5120001274064,新規,0,2025-03-31,2025-03-31,三兆縁株式会社,,株式会社,大阪府,大阪市中央区,島之内１丁目１４－８－１Ｆ,,27,128,5420082,,,,,,,2025-03-31,1,,,,,サンチョウエン,0
981,5120001274089,新規,0,2025-03-31,2025-03-31,株式会社ＹＯＵスペース企画,,株式会社,大阪府,門真市,新橋町１７番３号,,27,223,5710048,,,,,,,2025-03-31,1,,,,,ユウスペースキカク,0
982,5120003028988,新規,0,2025-03-31,2025-03-31,合同会社ＢＵＦ,,合同会社,大阪府,大阪市住吉区,苅田３丁目３－１８,,27,120,5580011,,,,,,,2025-03-31,1,,,,,ビーユーエフ,0
983,5120005024861,新規,0,2025-03-31,2025-03-31,一般社団法人ちくちくサイクル製作室,,その他の設立登記法人,大阪府,大阪市東成区,東小橋１丁目１８－１,,27,115,5370024,,,,,,,2025-03-31,1,,,,,チクチクサイクルセイサクシツ,0
987,5120101071361,新規,0,2025-03-31,2025-03-31,株式会社木原電気,,株式会社,大阪府,堺市西区,草部１６２９番地２３,,27,144,5938312,,,,,,,2025-03-31,1,,,,,キハラデンキ,0
988,5120901050647,新規,0,2025-03-31,2025-03-31,株式会社ＳＹＲ,,株式会社,大阪府,豊中市,新千里北町２丁目７番１３号,,27,203,5600081,,,,,,,2025-03-31,1,,,,,エスワイアール,0
991,5130001079289,新規,0,2025-03-31,2025-03-31,株式会社京都振袖都道府県民会,,株式会社,京都府,京都市中京区,新町通六角下る六角町３６６番地,,26,104,6048212,,,,,,,2025-03-31,1,,,,,キョウトフリソデトドウフケンミンカイ,0
993,5140001137905,新規,0,2025-03-31,2025-03-31,株式会社ＯＮ　ＷＥ,,株式会社,兵庫県,西宮市,生瀬東町１５番２０号,,28,204,6691103,,,,,,,2025-03-31,1,,,,,,0
995,5140005027417,新規,0,2025-03-31,2025-03-31,アオノマチ団地管理組合法人,,その他の設立登記法人,兵庫県,明石市,朝霧南町２丁目４８１番地の１,,28,203,6730870,,,,,,,2025-03-31,1,,,,,アオノマチ,0
997,5150005009678,新規,0,2025-03-31,2025-03-31,奈良市建設業協同組合,,その他の設立登記法人,奈良県,奈良市,南紀寺町２丁目２６９番地,,29,201,6308303,,,,,,,2025-03-31,1,,,,,ナラシケンセツギョウ,0
1006,5180001166009,新規,0,2025-03-31,2025-03-31,株式会社ＷＡＫＡＯ,,株式会社,愛知県,名古屋市港区,川間町３丁目９３番地の３,,23,111,4550076,,,,,,,2025-03-31,1,,,,,ワカオ,0
1007,5180001166082,新規,0,2025-03-31,2025-03-31,科栢株式会社,,株式会社,愛知県,名古屋市中村区,十王町８番２９号サンマンション１Ａ,,23,105,4530035,,,,,,,2025-03-31,1,,,,,カハク,0
1008,5180003028132,新規,0,2025-03-31,2025-03-31,合同会社ＬＯＶＥＫＮＯＷ,,合同会社,愛知県,名古屋市名東区,香坂１２０６－２,,23,115,4650007,,,,,,,2025-03-31,1,,,,,ラブノウ,0
1011,5180301039657,新規,0,2025-03-31,2025-03-31,株式会社ワンステップ,,株式会社,愛知県,岡崎市,滝町字十楽４８番１,,23,202,4443173,,,,,,,2025-03-31,1,,,,,ワンステップ,0
1012,5180303006507,新規,0,2025-03-31,2025-03-31,合同会社Ｌｉｂｅｒｔｙ,,合同会社,愛知県,安城市,三河安城町１丁目９番地８,,23,212,4460056,,,,,,,2025-03-31,1,,,,,リバティ,0
1022,5240001064726,新規,0,2025-03-31,2025-03-31,株式会社六丁目の米蔵,,株式会社,広島県,安芸郡海田町,寺迫２丁目１１番４２号,,34,304,7360011,,,,,,,2025-03-31,1,,,,,ロクチョウメノコメグラ,0
1038,5330001033011,新規,0,2025-03-31,2025-03-31,ヨニダス株式会社,,株式会社,熊本県,熊本市中央区,新市街１番２８号,,43,101,8600803,,,,,,,2025-03-31,1,,,,,ヨニダス,0
1048,5360003014799,新規,0,2025-03-31,2025-03-31,サイテックハブ合同会社,,合同会社,沖縄県,国頭郡恩納村,字喜瀬武原４８１番１号,,47,311,9040403,,,,,,,2025-03-31,1,,,,,サイテックハブ,0
1076,6010001253581,新規,0,2025-03-31,2025-03-31,株式会社ＩＧＮＩＹＴＥ,,株式会社,東京都,中央区,日本橋室町２丁目１番１号日本橋三井タワー６Ｆ,,13,102,1030022,,,,,,,2025-03-31,1,,,,,イグナイト,0
1077,6010001253607,新規,0,2025-03-31,2025-03-31,プラウドワークス株式会社,,株式会社,東京都,中央区,銀座１丁目１２－４Ｎ＆ＥＢＬＤ．６Ｆ,,13,102,1040061,,,,,,,2025-03-31,1,,,,,プラウドワークス,0
1078,6010003046901,新規,0,2025-03-31,2025-03-31,合同会社ＫＲＦ１１４,,合同会社,東京都,千代田区,内幸町２丁目１番６号,,13,101,1000011,,,,,,,2025-03-31,1,,,,,ケイアールエフヒャクジュウヨン,0
1086,6010401189228,新規,0,2025-03-31,2025-03-31,ｋｉｋｉｔｏＩＴコンサルティング株式会社,,株式会社,東京都,港区,虎ノ門１丁目１６番６号ＲＡＰＯ－ＴＯビルＵＣＦ７０３,,13,103,1050001,,,,,,,2025-03-31,1,,,,,キキトアイティーコンサルティング,0
1087,6010403034729,新規,0,2025-03-31,2025-03-31,ソーラーミモザ合同会社,,合同会社,東京都,港区,東新橋１丁目５番２号汐留シティセンター８階,,13,103,1050021,,,,,,,2025-03-31,1,,,,,ソーラーミモザ,0
1088,6010405024249,新規,0,2025-03-31,2025-03-31,ソーラーミモザホールディングス一般社団法人,,その他の設立登記法人,東京都,港区,東新橋１丁目５番２号汐留シティセンター８階,,13,103,1050021,,,,,,,2025-03-31,1,,,,,ソーラーミモザホールディングス,0
1091,6010501053861,新規,0,2025-03-31,2025-03-31,株式会社ひとつ,,株式会社,東京都,台東区,松が谷４丁目２３番７号,,13,106,1110036,,,,,,,2025-03-31,1,,,,,ヒトツ,0
1092,6010601067027,新規,0,2025-03-31,2025-03-31,Ｈｅｌｅｎａ　ＡＩ株式会社,,株式会社,東京都,江東区,大島５丁目６番１４号,,13,108,1360072,,,,,,,2025-03-31,1,,,,,ヘレナエーアイ,0
1094,6010705003745,新規,0,2025-03-31,2025-03-31,一般社団法人ＴＣＢＣ,,その他の設立登記法人,東京都,品川区,東品川３丁目３２番４２号ＩＳビル１２Ｆ,,13,109,1400002,,,,,,,2025-03-31,1,,,,,ティーシービーシー,0
1100,6010901057099,新規,0,2025-03-31,2025-03-31,Ｐａｐａｒａｃｉａ　Ｃｏｒｐｏｒａｔｉｏｎ株式会社,,株式会社,東京都,世田谷区,下馬３丁目３３番１０号（２０３）,,13,112,1540002,,,,,,,2025-03-31,1,,,,,パパラチアコーポレーション,0
1107,6011001168530,新規,0,2025-03-31,2025-03-31,株式会社勝株アセット,,株式会社,東京都,渋谷区,円山町５番５号Ｎａｖｉ渋谷Ｖ３階,,13,113,1500044,,,,,,,2025-03-31,1,,,,,カツカブアセット,0
1108,6011001168539,新規,0,2025-03-31,2025-03-31,株式会社ミニマムエッジ,,株式会社,東京都,渋谷区,代々木５丁目５７番２ザ・パークハビオＳＯＨＯ代々木公園,,13,113,1510053,,,,,,,2025-03-31,1,,,,,ミニマムエッジ,0
1109,6011001168571,新規,0,2025-03-31,2025-03-31,株式会社ＰＲＯＪＥＣＴ‐Ｕ,,株式会社,東京都,渋谷区,神宮前６丁目２３番４号桑野ビル２Ｆ,,13,113,1500001,,,,,,,2025-03-31,1,,,,,プロジェクトユー,0
1113,6011003021233,新規,0,2025-03-31,2025-03-31,合同会社リール,,合同会社,東京都,目黒区,自由が丘１丁目２７－２自由が丘ひかり街３階Ｃ号,,13,110,1520035,,,,,,,2025-03-31,1,,,,,リール,0
1114,6011003021241,新規,0,2025-03-31,2025-03-31,ＳＯＢＡ　ＪＯＵＲＮＥＹ合同会社,,合同会社,東京都,渋谷区,渋谷２丁目１９－１５宮益坂ビルディング６０９,,13,113,1500002,,,,,,,2025-03-31,1,,,,,ソバジャーニー,0
1118,6011101111142,新規,0,2025-03-31,2025-03-31,株式会社ベアッシュ,,株式会社,東京都,新宿区,白銀町２番１４－３０１号,,13,104,1620816,,,,,,,2025-03-31,1,,,,,ベアッシュ,0
1121,6011301030464,新規,0,2025-03-31,2025-03-31,フジエステイト株式会社,,株式会社,東京都,杉並区,宮前２丁目１５番２号,,13,115,1680081,,,,,,,2025-03-31,1,,,,,フジエステイト,0
1125,6011603004645,新規,0,2025-03-31,2025-03-31,合同会社ｋ‐３ｐａｒｔｎｅｒｓ,,合同会社,東京都,練馬区,向山４丁目２７－８,,13,120,1760022,,,,,,,2025-03-31,1,,,,,ケースリーパートナーズ,0
1129,6012301014317,新規,0,2025-03-31,2025-03-31,一寸クリエイト株式会社,,株式会社,東京都,町田市,成瀬が丘２丁目１６－８,,13,209,1940011,,,,,,,2025-03-31,1,,,,,イッスンクリエイト,0
1134,6012401042928,新規,0,2025-03-31,2025-03-31,株式会社ＬＴＩ　ｌｏｇｉｓｔｉｃｓ,,株式会社,東京都,狛江市,和泉本町１丁目３４番１号,,13,219,2010003,,,,,,,2025-03-31,1,,,,,エルティーアイロジスティックス,0
1140,6013301054039,新規,0,2025-03-31,2025-03-31,Ｂｉｋｋａ株式会社,,株式会社,東京都,豊島区,高田３丁目７番１７号安斎ビル２０９号室,,13,116,1710033,,,,,,,2025-03-31,1,,,,,ビッカ,0
1141,6013303007597,新規,0,2025-03-31,2025-03-31,合同会社カウカウ,,合同会社,東京都,豊島区,東池袋２丁目６２番８号ＢＩＧオフィスプラザ池袋１２０６,,13,116,1700013,,,,,,,2025-03-31,1,,,,,カウカウ,0
1154,6020001162006,新規,0,2025-03-31,2025-03-31,株式会社サードステージ,,株式会社,神奈川県,横浜市保土ケ谷区,上星川２丁目５番４号,,14,106,2400042,,,,,,,2025-03-31,1,,,,,サードステージ,0
1155,6020001162063,新規,0,2025-03-31,2025-03-31,ＳＵＮＨＩＬＬ株式会社,,株式会社,神奈川県,横浜市中区,寿町２丁目５－１２ゼンシンビル２Ｃ,,14,104,2310026,,,,,,,2025-03-31,1,,,,,サンヒル,0
1162,6020003028139,新規,0,2025-03-31,2025-03-31,アドバンスビジョンパートナーズ合同会社,,合同会社,神奈川県,横浜市神奈川区,三ツ沢下町３２番１５号,,14,102,2210852,,,,,,,2025-03-31,1,,,,,アドバンスビジョンパートナーズ,0
1163,6020003028147,新規,0,2025-03-31,2025-03-31,合同会社ＫＭＴ,,合同会社,神奈川県,川崎市中原区,新丸子東３丁目１１００番地１５Ｓ１９０６,,14,133,2110004,,,,,,,2025-03-31,1,,,,,ケイエムティー,0
1164,6020005016752,新規,0,2025-03-31,2025-03-31,医療法人社団柏葉会,,その他の設立登記法人,神奈川県,横浜市泉区,和泉中央南１丁目３７番７号,,14,116,2450023,,,,,,,2025-03-31,1,,,,,ハクヨウカイ,0
1165,6020005016777,新規,0,2025-03-31,2025-03-31,医療法人社団大成会,,その他の設立登記法人,神奈川県,横浜市港北区,高田西１丁目１番４７号そよら横浜高田２階２０５,,14,109,2230066,,,,,,,2025-03-31,1,,,,,タイセイカイ,0
1169,6021001084792,新規,0,2025-03-31,2025-03-31,株式会社Ｔａｋｕ‐ｈｏｕｓｅ,,株式会社,神奈川県,鎌倉市,由比ガ浜４丁目６番１７号由比ガ浜ロッジＨ－３,,14,204,2480014,,,,,,,2025-03-31,1,,,,,タクハウス,0
1170,6021003015770,新規,0,2025-03-31,2025-03-31,合同会社ギャラリークロード・イン・海老名,,合同会社,神奈川県,海老名市,社家２丁目１６番１２号,,14,215,2430424,,,,,,,2025-03-31,1,,,,,,0
1178,6030001165610,新規,0,2025-03-31,2025-03-31,株式会社衆贏,,株式会社,埼玉県,朝霞市,宮戸３丁目１５－３５－２０１,,11,227,3510031,,,,,,,2025-03-31,1,,,,,シュウエイ,0
1179,6030001165619,新規,0,2025-03-31,2025-03-31,Ｂｉａｎｃｏ株式会社,,株式会社,埼玉県,さいたま市大宮区,北袋町２丁目４９４番地３号,,11,103,3300835,,,,,,,2025-03-31,1,,,,,ビアンコ,0
1180,6030001165635,新規,0,2025-03-31,2025-03-31,光縁株式会社,,株式会社,埼玉県,さいたま市浦和区,常盤４丁目１１番２－８０１号,,11,107,3300061,,,,,,,2025-03-31,1,,,,,コウエン,0
1181,6030001165643,新規,0,2025-03-31,2025-03-31,株式会社ラヴァンデリア,,株式会社,埼玉県,川越市,大字的場２３９５番地１７,,11,201,3501101,,,,,,,2025-03-31,1,,,,,ラヴァンデリア,0
1182,6030003026414,新規,0,2025-03-31,2025-03-31,ＮＧＵＹＥＮ　ＦＡＳＨＩＯＮ　ＪＰ合同会社,,合同会社,埼玉県,飯能市,柳町７番１０号ＫＩＶ商会館飯能Ａ号室,,11,209,3570035,,,,,,,2025-03-31,1,,,,,グエンファッションジピ,0
1204,6100003008033,新規,0,2025-03-31,2025-03-31,Ｎｅｘｕｓ　Ｔｒａｄｉｎｇ合同会社,,合同会社,長野県,松本市,高宮北１－２０サーパス松本高宮４０８,,20,202,3900836,,,,,,,2025-03-31,1,,,,,ネクシストレーデイング,0
1206,6110001039145,新規,0,2025-03-31,2025-03-31,株式会社カリココ不動産,,株式会社,新潟県,五泉市,赤海字下島８８５番１,,15,218,9591821,,,,,,,2025-03-31,1,,,,,カリココフドウサン,0
1215,6120001273759,新規,0,2025-03-31,2025-03-31,株式会社ソルラボ,,株式会社,大阪府,大阪市北区,梅田２丁目２番２号ヒルトンプラザウエストオフィスタワー１９階,,27,127,5300001,,,,,,,2025-03-31,1,,,,,ソルラボ,0
1216,6120001274030,新規,0,2025-03-31,2025-03-31,商羊資産株式会社,,株式会社,大阪府,大阪市北区,長柄中３丁目７番７号,,27,127,5310062,,,,,,,2025-03-31,1,,,,,ショウヨウシサン,0
1217,6120001274063,新規,0,2025-03-31,2025-03-31,ラッキーテクノロジー株式会社,,株式会社,大阪府,大阪市東住吉区,鷹合４丁目２１番１６号３Ｆ－Ｄ,,27,121,5460014,,,,,,,2025-03-31,1,,,,,ラッキーテクノロジー,0
1218,6120001274071,新規,0,2025-03-31,2025-03-31,古月株式会社,,株式会社,大阪府,大阪市西成区,北津守２丁目５番２－１１号,,27,122,5570061,,,,,,,2025-03-31,1,,,,,コゲツ,0
1219,6120001274096,新規,0,2025-03-31,2025-03-31,斉物・道家酒館株式会社,,株式会社,大阪府,大阪市西淀川区,姫島２丁目４番１０号パークアベニュー２階Ａ室,,27,113,5550033,,,,,,,2025-03-31,1,,,,,サイブツドウケシュカン,0
1220,6120001274138,新規,0,2025-03-31,2025-03-31,株式会社ＧＬＯＢＥＳＴ,,株式会社,大阪府,大阪市浪速区,敷津東３丁目３番２１－２０４号,,27,111,5560012,,,,,,,2025-03-31,1,,,,,グローベスト,0
1221,6120003028979,新規,0,2025-03-31,2025-03-31,合同会社ＭＣ,,合同会社,大阪府,大阪市中央区,西心斎橋１丁目１２番１１－６０７号,,27,128,5420086,,,,,,,2025-03-31,1,,,,,エムシー,0
1222,6120003028987,新規,0,2025-03-31,2025-03-31,合同会社ＭＩＮＮＡ,,合同会社,大阪府,大阪市東住吉区,湯里２丁目１３－２－２０１号室,,27,121,5460013,,,,,,,2025-03-31,1,,,,,ミンナ,0
1223,6120101071344,新規,0,2025-03-31,2025-03-31,株式会社Ｈ＆Ｐ　Ｃｏｒｐｏｒａｔｉｏｎ,,株式会社,大阪府,藤井寺市,大井３丁目２番３４－１０６号,,27,226,5830008,,,,,,,2025-03-31,1,,,,,エイチアンドピーコーポレーション,0
1224,6120101071352,新規,0,2025-03-31,2025-03-31,株式会社アルマ,,株式会社,大阪府,泉佐野市,土丸１７６番地の５,,27,213,5980022,,,,,,,2025-03-31,1,,,,,アルマ,0
1225,6120905006710,新規,0,2025-03-31,2025-03-31,一般社団法人日本マウスピース矯正歯科学会,,その他の設立登記法人,大阪府,吹田市,藤白台１丁目３番３０号,,27,205,5650873,,,,,,,2025-03-31,1,,,,,ニホンマウスピースキョウセイシカガッカイ,0
1229,6130001079288,新規,0,2025-03-31,2025-03-31,株式会社９ｉｎｅ,,株式会社,京都府,京都市右京区,西院西三蔵町１２西院ビル３階,,26,108,6150027,,,,,,,2025-03-31,1,,,,,ナイン,0
1233,6140001137854,新規,0,2025-03-31,2025-03-31,株式会社Ｐａｒａｄｅｅｅ,,株式会社,兵庫県,神戸市灘区,篠原台１２番６号,,28,102,6570016,,,,,,,2025-03-31,1,,,,,パラディ,0
1234,6140001137929,新規,0,2025-03-31,2025-03-31,株式会社サード,,株式会社,兵庫県,神戸市中央区,八幡通３丁目２－１１芙蓉ビル東館６Ｆ,,28,110,6510085,,,,,,,2025-03-31,1,,,,,サード,0
1239,6150001027988,新規,0,2025-03-31,2025-03-31,株式会社Ｈｏｎｕ,,株式会社,奈良県,奈良市,鳥見町３丁目２６番地の３,,29,201,6310065,,,,,,,2025-03-31,1,,,,,ホヌ,0
1240,6160001026634,新規,0,2025-03-31,2025-03-31,代和フードリンク株式会社,,株式会社,滋賀県,長浜市,山階町４５５番地３０,,25,203,5260847,,,,,,,2025-03-31,1,,,,,ダイワフードリンク,0
1244,6180001166081,新規,0,2025-03-31,2025-03-31,丸本株式会社,,株式会社,愛知県,瀬戸市,陶原町３丁目３２番地（３階）,,23,204,4890805,,,,,,,2025-03-31,1,,,,,マルモト,0
1250,6180301039664,新規,0,2025-03-31,2025-03-31,三和株式会社,,株式会社,愛知県,みよし市,打越町諸輪坂１５‐１９３メゾン打越１０１号,,23,236,4700213,,,,,,,2025-03-31,1,,,,,サンワ,0
1256,6200001043575,新規,0,2025-03-31,2025-03-31,最上プラント株式会社,,株式会社,岐阜県,本巣郡北方町,高屋白木２丁目３０番地ハイクラスＯ・Ｎ・ＤＡ２Ｂ,,21,421,5010454,,,,,,,2025-03-31,1,,,,,モガミプラント,0
1264,6240001064717,新規,0,2025-03-31,2025-03-31,株式会社アスター,,株式会社,広島県,広島市中区,舟入南２丁目７番１号ふぁみーゆ舟入南４０５号室,,34,101,7300847,,,,,,,2025-03-31,1,,,,,アスター,0
1265,6240003007129,新規,0,2025-03-31,2025-03-31,Ａｔｅｍｏ合同会社,,合同会社,広島県,呉市,和庄登町７－４,,34,202,7370043,,,,,,,2025-03-31,1,,,,,アテモ,0
1266,6250001021064,新規,0,2025-03-31,2025-03-31,株式会社宮本商店,,株式会社,山口県,柳井市,日積２９７７番地６,,35,212,7420111,,,,,,,2025-03-31,1,,,,,ミヤモトショウテン,0
1269,6260001040047,新規,0,2025-03-31,2025-03-31,Ｙｚ株式会社,,株式会社,岡山県,岡山市北区,天瀬１番１号（６０３）,,33,101,7000833,,,,,,,2025-03-31,1,,,,,ワイズ,0
1270,6270001009173,新規,0,2025-03-31,2025-03-31,東洋カシミヤ株式会社,,株式会社,鳥取県,東伯郡琴浦町,大字逢束９００番地,00138508,31,371,6892304,,,,,,,2025-03-31,1,,,,,トウヨウカシミヤ,0
1273,6290001109459,新規,0,2025-03-31,2025-03-31,株式会社居出どうぶつ病院,,株式会社,福岡県,筑紫野市,大字原４０３番地２,,40,217,8180005,,,,,,,2025-03-31,1,,,,,イデドウブツビョウイン,0
1274,6290001109491,新規,0,2025-03-31,2025-03-31,株式会社Ｂｅｓｓ,,株式会社,福岡県,古賀市,花鶴丘３丁目１０番１５６号,,40,223,8113104,,,,,,,2025-03-31,1,,,,,ベース,0
1288,6370001052394,新規,0,2025-03-31,2025-03-31,株式会社ＴＫＧ,,株式会社,宮城県,黒川郡大郷町,大松沢字於在家屋敷１１番地,,04,422,9813501,,,,,,,2025-03-31,1,,,,,ティーケージー,0
1298,6430001094034,新規,0,2025-03-31,2025-03-31,エムテックス株式会社,,株式会社,北海道,札幌市東区,東雁来十条４丁目２番３０号,,01,103,0070030,,,,,,,2025-03-31,1,,,,,エムテックス,0
1304,6700150129769,新規,0,2025-03-31,2025-03-31,ＹＯＴＯＳＰＡＲＥＳＥＮＴＥＲＰＲＩＳＥＳ,,外国会社等,千葉県,茂原市,粟生野３３８０－６,,12,210,2994106,スリランカ民主社会主義共和国、ＮＯ．２１３／Ａ、ウェランボダ、ガンポラ,,,,,,2025-03-31,1,,,,,ヨトスペアスエンタープライセス,0
1308,7010001253614,新規,0,2025-03-31,2025-03-31,株式会社なな,,株式会社,東京都,中央区,勝どき４丁目６番１－５６０１号,,13,102,1040054,,,,,,,2025-03-31,1,,,,,ナナ,0
1309,7010001253688,新規,0,2025-03-31,2025-03-31,株式会社ＤＯＴ　Ｐ,,株式会社,東京都,千代田区,神田和泉町１番地６―１６ヤマトビル４０５,,13,101,1010024,,,,,,,2025-03-31,1,,,,,ドットピー,0
1313,7010003046900,新規,0,2025-03-31,2025-03-31,合同会社ＫＲＦ１１３,,合同会社,東京都,千代田区,内幸町２丁目１番６号,,13,101,1000011,,,,,,,2025-03-31,1,,,,,ケイアールエフヒャクジュウサン,0
1314,7010003046909,新規,0,2025-03-31,2025-03-31,合同会社ＦＯＲＣＥＳ,,合同会社,東京都,文京区,小石川２丁目１０－９－１０１号,,13,105,1120002,,,,,,,2025-03-31,1,,,,,フォルス,0
1315,7010003046917,新規,0,2025-03-31,2025-03-31,ディピティ合同会社,,合同会社,東京都,中央区,日本橋兜町１７番２号,,13,102,1030026,,,,,,,2025-03-31,1,,,,,ディピティ,0
1324,7010901057098,新規,0,2025-03-31,2025-03-31,株式会社ＨＯＴＩＳ,,株式会社,東京都,世田谷区,松原２丁目４２番９号美鈴Ｎビル５０１,,13,112,1560043,,,,,,,2025-03-31,1,,,,,ホティス,0
1331,7011001168505,新規,0,2025-03-31,2025-03-31,株式会社Ｋａｌｅｉｄｏｓｃｏｐｉｑ,,株式会社,東京都,渋谷区,道玄坂１丁目１０番８号渋谷道玄坂東急ビル２Ｆ－Ｃ,,13,113,1500043,,,,,,,2025-03-31,1,,,,,カレイドスコピック,0
1332,7011001168562,新規,0,2025-03-31,2025-03-31,株式会社ＷＯＭ,,株式会社,東京都,目黒区,柿の木坂３丁目１番２号マンション柿の木坂３０２,,13,110,1520022,,,,,,,2025-03-31,1,,,,,ウォム,0
1333,7011001168579,新規,0,2025-03-31,2025-03-31,エンノシタ・パートナーズ株式会社,,株式会社,東京都,渋谷区,恵比寿西２丁目４番８号ウィンド恵比寿ビル８Ｆ,,13,113,1500021,,,,,,,2025-03-31,1,,,,,エンノシタパートナーズ,0
1336,7011101110829,新規,0,2025-03-31,2025-03-31,株式会社ＩＫＭＭ,,株式会社,東京都,新宿区,西新宿３丁目５－１２トーカン新宿第２キャステール２０５,,13,104,1600023,,,,,,,2025-03-31,1,,,,,イクモモ,0
1337,7011101111125,新規,0,2025-03-31,2025-03-31,株式会社み空,,株式会社,東京都,新宿区,西新宿３丁目３番１３号西新宿水間ビル２Ｆ,,13,104,1600023,,,,,,,2025-03-31,1,,,,,ミソラ,0
1338,7011101111166,新規,0,2025-03-31,2025-03-31,株式会社怪物カンパニー,,株式会社,東京都,新宿区,内藤町１番地３０ジオ御苑内藤町１００１,,13,104,1600014,,,,,,,2025-03-31,1,,,,,カイブツカンパニー,0
1342,7011305003036,新規,0,2025-03-31,2025-03-31,一般社団法人いせのもり,,その他の設立登記法人,東京都,杉並区,阿佐谷北５丁目９番６号,,13,115,1660001,,,,,,,2025-03-31,1,,,,,イセノモリ,0
1345,7011501031872,新規,0,2025-03-31,2025-03-31,株式会社Ｔ　ｔｅｃｈ　ｌｉｆｅ,,株式会社,東京都,荒川区,西日暮里６丁目６５番２号プリーマ幸１０１号室,,13,118,1160013,,,,,,,2025-03-31,1,,,,,ティーテックライフ,0
1350,7012401042927,新規,0,2025-03-31,2025-03-31,株式会社藤鞠,,株式会社,東京都,小金井市,本町１丁目１４番３３号,,13,210,1840004,,,,,,,2025-03-31,1,,,,,フジマリ,0
1351,7012403007028,新規,0,2025-03-31,2025-03-31,キノシタ・ＣＩＳＴオフィス合同会社,,合同会社,東京都,府中市,宮西町５丁目６番地の２アローランドマンション２０３,,13,206,1830022,,,,,,,2025-03-31,1,,,,,キノシタシストオフィス,0
1352,7012701018775,新規,0,2025-03-31,2025-03-31,株式会社上林設計,,株式会社,東京都,清瀬市,中清戸４丁目８４７、８号棟－１０６,,13,221,2040012,,,,,,,2025-03-31,1,,,,,カミバヤシセッケイ,0
1353,7012801023840,新規,0,2025-03-31,2025-03-31,むさし未来創造株式会社,,株式会社,東京都,武蔵村山市,大南４丁目１４番地の２０,,13,223,2080013,,,,,,,2025-03-31,1,,,,,ムサシミライソウゾウ,0
1354,7013101009662,新規,0,2025-03-31,2025-03-31,株式会社ライディック,,株式会社,東京都,青梅市,天ヶ瀬町１０７２番地の５,,13,205,1980087,,,,,,,2025-03-31,1,,,,,ライディック,0
1356,7013303007596,新規,0,2025-03-31,2025-03-31,チリン合同会社,,合同会社,東京都,豊島区,西巣鴨４丁目２４番６号,,13,116,1700001,,,,,,,2025-03-31,1,,,,,チリン,0
1364,7020001162021,新規,0,2025-03-31,2025-03-31,株式会社ＳＡＮＣＴＵＡＲＹ,,株式会社,神奈川県,横浜市西区,南幸２丁目１１番１号横浜エム・エスビル５階,,14,103,2200005,,,,,,,2025-03-31,1,,,,,サンクチュアリ,0
1371,7020003028154,新規,0,2025-03-31,2025-03-31,合同会社アリマ,,合同会社,神奈川県,横浜市青葉区,もえぎ野２４番地４９,,14,117,2270044,,,,,,,2025-03-31,1,,,,,アリマ,0
1372,7020005016751,新規,0,2025-03-31,2025-03-31,医療法人社団藤薫会,,その他の設立登記法人,神奈川県,横浜市神奈川区,六角橋５丁目３番１０号,,14,102,2210802,,,,,,,2025-03-31,1,,,,,トウクンカイ,0
1380,7030001165618,新規,0,2025-03-31,2025-03-31,ＴＡＴＬＡ　ＴＲＡＤＩＮＧ株式会社,,株式会社,埼玉県,狭山市,大字上赤坂４９８番地３,,11,215,3501313,,,,,,,2025-03-31,1,,,,,タトラトレーディング,0
1381,7030001165626,新規,0,2025-03-31,2025-03-31,株式会社美信興業,,株式会社,埼玉県,八潮市,緑町１丁目４０番地４グランソフィアサイコーハウス２Ａ,,11,234,3400808,,,,,,,2025-03-31,1,,,,,ビシンコウギョウ,0
1382,7030001165634,新規,0,2025-03-31,2025-03-31,株式会社ＭｙＤｅａｒＨｏｍｅ,,株式会社,埼玉県,川口市,西川口４丁目１５番２１号ハイシュネー北神１０２号室,,11,203,3320021,,,,,,,2025-03-31,1,,,,,マイディアホーム,0
1384,7030003026413,新規,0,2025-03-31,2025-03-31,合同会社Ｆｒｅｅｓｉａ,,合同会社,埼玉県,鴻巣市,原馬室２０５番地７,,11,217,3650043,,,,,,,2025-03-31,1,,,,,フリージア,0
1385,7030003026446,新規,0,2025-03-31,2025-03-31,合同会社山英,,合同会社,埼玉県,深谷市,原郷２３７番地３フジパレス深谷五番館１０６室,,11,218,3660035,,,,,,,2025-03-31,1,,,,,サンエイ,0
1386,7030005022096,新規,0,2025-03-31,2025-03-31,ＮＰＯ法人ガトネグロ,,その他の設立登記法人,埼玉県,北本市,緑３丁目７１番地,,11,233,3640032,,,,,,,2025-03-31,1,,,,,ガトネグロ,0
1391,7040001138044,新規,0,2025-03-31,2025-03-31,Ｔ‐Ｄｅｓｉｇｎコンサルティング株式会社,,株式会社,千葉県,流山市,南流山４丁目２－１２Ｅ棟,,12,220,2700163,,,,,,,2025-03-31,1,,,,,ティーデザインコンサルティング,0
1395,7040003027121,新規,0,2025-03-31,2025-03-31,Ｃａｄｉｌｌａｃ９９合同会社,,合同会社,千葉県,八千代市,八千代台東１丁目２番１７号,,12,221,2760032,,,,,,,2025-03-31,1,,,,,キャデラックナインナイン,0
1401,7070003005842,新規,0,2025-03-31,2025-03-31,ＭＩＮ合同会社,,合同会社,群馬県,前橋市,南町３丁目４番地９サンハイツ２１－１０３号,,10,201,3710805,,,,,,,2025-03-31,1,,,,,ミン,0
1408,7080101025403,新規,0,2025-03-31,2025-03-31,アクアリープ株式会社,,株式会社,静岡県,伊豆市,雲金１３８番地の３,,22,222,4103202,,,,,,,2025-03-31,1,,,,,アクアリープ,0
1413,7110001039144,新規,0,2025-03-31,2025-03-31,長岡ヒートテック株式会社,,株式会社,新潟県,長岡市,十二潟町５３４番地１２,,15,202,9400002,,,,,,,2025-03-31,1,,,,,ナガオカヒートテック,0
1414,7110003005714,新規,0,2025-03-31,2025-03-31,合同会社ファミリーマーケティング,,合同会社,新潟県,新潟市東区,紫竹７丁目２７番２８号,,15,102,9500864,,,,,,,2025-03-31,1,,,,,ファミリーマーケティング,0
1423,7120001273659,新規,0,2025-03-31,2025-03-31,株式会社要有光,,株式会社,大阪府,大阪市東住吉区,田辺３丁目１９－３１,,27,121,5460031,,,,,,,2025-03-31,1,,,,,ヨウユウコウ,0
1424,7120001273989,新規,0,2025-03-31,2025-03-31,善清株式会社,,株式会社,大阪府,大阪市港区,市岡１丁目１２番１３－１０５号,,27,107,5520012,,,,,,,2025-03-31,1,,,,,ヨシキヨ,0
1425,7120001274062,新規,0,2025-03-31,2025-03-31,卿禾株式会社,,株式会社,大阪府,大阪市浪速区,戎本町１丁目４－１６,,27,111,5560013,,,,,,,2025-03-31,1,,,,,キョウシュ,0
1426,7120001274070,新規,0,2025-03-31,2025-03-31,株式会社タカ工房,,株式会社,大阪府,大阪市淀川区,塚本６丁目８－１７,00138503,27,123,5320026,,,,,,,2025-03-31,1,,,,,タカコウボウ,0
1427,7120001274079,新規,0,2025-03-31,2025-03-31,株式会社ｅ‐ＮＧＣ,,株式会社,大阪府,大阪市鶴見区,横堤１丁目２－６,,27,124,5380052,,,,,,,2025-03-31,1,,,,,イーエヌジーシー,0
1428,7120001274087,新規,0,2025-03-31,2025-03-31,恒澤株式会社,,株式会社,大阪府,大阪市浪速区,恵美須西２丁目６－１０－７０３号,,27,111,5560003,,,,,,,2025-03-31,1,,,,,コウザワ,0
1430,7120003028953,新規,0,2025-03-31,2025-03-31,合同会社ＣｏＳｕｐｐｏｒｔ,,合同会社,大阪府,枚方市,津田南町２丁目３４番３号,,27,210,5730124,,,,,,,2025-03-31,1,,,,,コサポート,0
1431,7120003028978,新規,0,2025-03-31,2025-03-31,合同会社ｒｅｖｅ,,合同会社,大阪府,大阪市西区,新町１丁目１４番２１－４８１１号,,27,106,5500013,,,,,,,2025-03-31,1,,,,,レイブ,0
1434,7120901050637,新規,0,2025-03-31,2025-03-31,株式会社アクロ,,株式会社,大阪府,高槻市,塚脇１丁目３４番２４号,,27,207,5691036,,,,,,,2025-03-31,1,,,,,アクロ,0
1438,7130005017318,新規,0,2025-03-31,2025-03-31,一般社団法人Ａｄｌａｂ,,その他の設立登記法人,京都府,京都市下京区,朱雀正会町１番地１,,26,106,6008841,,,,,,,2025-03-31,1,,,,,エイドラボ,0
1446,7140001137936,新規,0,2025-03-31,2025-03-31,株式会社エクレールハウジング,,株式会社,兵庫県,神戸市長田区,西代通１丁目４番２１号,,28,106,6530844,,,,,,,2025-03-31,1,,,,,エクレールハウジング,0
1447,7140001137960,新規,0,2025-03-31,2025-03-31,株式会社ＳＦ　ＴＲＡＤＩＮＧ,,株式会社,兵庫県,神戸市中央区,籠池通１丁目１番１２号葺合マンション３０３号,,28,110,6510053,,,,,,,2025-03-31,1,,,,,エスエフトレーディング,0
1456,7180001166089,新規,0,2025-03-31,2025-03-31,株式会社スイミーインベストメント,,株式会社,愛知県,名古屋市中区,大須４丁目１１番５０号カミヤビル６Ｆ,,23,106,4600011,,,,,,,2025-03-31,1,,,,,スイミーインベストメント,0
1457,7180001166106,新規,0,2025-03-31,2025-03-31,ＬＩＴＡ不動産株式会社,,株式会社,愛知県,名古屋市中村区,名楽町５丁目３３番地,,23,105,4530024,,,,,,,2025-03-31,1,,,,,リタフドウサン,0
1458,7180003028213,新規,0,2025-03-31,2025-03-31,長工業合同会社,,合同会社,愛知県,あま市,篠田長堀３６番地,,23,237,4901211,,,,,,,2025-03-31,1,,,,,ナガイコウギョウ,0
1459,7180301039655,新規,0,2025-03-31,2025-03-31,ＨＹ建設株式会社,,株式会社,愛知県,豊川市,蔵子３丁目２９番地１,,23,207,4420842,,,,,,,2025-03-31,1,,,,,エイチワイケンセツ,0
1461,7200001043574,新規,0,2025-03-31,2025-03-31,株式会社吉善,,株式会社,岐阜県,瑞穂市,生津内宮町１丁目２１番地エル９０（１０２号）,,21,216,5010213,,,,,,,2025-03-31,1,,,,,ヨシゼン,0
1468,7260001040046,新規,0,2025-03-31,2025-03-31,コートクアクシス株式会社,,株式会社,岡山県,備前市,日生町日生８６４－３４,,33,211,7013204,,,,,,,2025-03-31,1,,,,,コートクアクシス,0
1474,7290001109482,新規,0,2025-03-31,2025-03-31,株式会社Ｐｉｒａｔｅｓ,,株式会社,福岡県,福岡市中央区,平尾３丁目１４番１７－３０３号,,40,133,8100014,,,,,,,2025-03-31,1,,,,,パイレーツ,0
1478,7320001021023,新規,0,2025-03-31,2025-03-31,株式会社オプシアプラス,,株式会社,大分県,大分市,日吉町１５番１３号,,44,201,8700918,,,,,,,2025-03-31,1,,,,,オプシアプラス,0
1484,7370001052393,新規,0,2025-03-31,2025-03-31,尾形商事株式会社,,株式会社,宮城県,東松島市,新東名１丁目１０番地１,,04,214,9810413,,,,,,,2025-03-31,1,,,,,オガタショウジ,0
1490,7420001019065,新規,0,2025-03-31,2025-03-31,アイコンサルティング株式会社,,株式会社,青森県,上北郡六戸町,大字折茂字鳥喰谷地１７０－６,,02,405,0392372,,,,,,,2025-03-31,1,,,,,アイコンサルティング,0
1492,7430001094033,新規,0,2025-03-31,2025-03-31,株式会社イーテック,,株式会社,北海道,小樽市,赤岩２丁目２２番２号,,01,203,0470046,,,,,,,2025-03-31,1,,,,,イーテック,0
1497,7480001012774,新規,0,2025-03-31,2025-03-31,株式会社加茂谷スダチパーク,,株式会社,徳島県,阿南市,大井町東平１２５－１,,36,204,7715177,,,,,,,2025-03-31,1,,,,,カモダニスダチパーク,0
1500,7700150129768,新規,0,2025-03-31,2025-03-31,Ｄｅｕｒａｌｉ　Ｓｔｏｒｅｓ,,外国会社等,東京都,練馬区,春日町２丁目１－１７　春日町ハイム１０５,,13,120,1790074,ネパール国、ガンダキィ州、バグルング郡、ドルパタン自治体３区、チルバン,,,,,,2025-03-31,1,,,,,デウラリストア,0
1511,8010001253596,新規,0,2025-03-31,2025-03-31,株式会社ＮｅｘｔＣａｒｅＣｏｎｓｕｌｔｉｎｇ,,株式会社,東京都,文京区,本郷５丁目１－１１ＫＩＩＨＯＵＳＥ２０２,,13,105,1130033,,,,,,,2025-03-31,1,,,,,ネクストケアコンサルティング,0
1512,8010001253654,新規,0,2025-03-31,2025-03-31,株式会社凛,,株式会社,東京都,中央区,日本橋茅場町３丁目２－２ＥＫＫビル１Ｆ圓生楼,,13,102,1030025,,,,,,,2025-03-31,1,,,,,リン,0
1515,8010003046866,新規,0,2025-03-31,2025-03-31,合同会社ＹＯ,,合同会社,東京都,中央区,日本橋小舟町１４番７号ＳＯＩＬＮｉｈｏｎｂａｓｈｉ２階,,13,102,1030024,,,,,,,2025-03-31,1,,,,,ヨウ,0
1516,8010003046890,新規,0,2025-03-31,2025-03-31,合同会社オブノ７号,,合同会社,東京都,千代田区,麹町４丁目３番地２９ＶＯＲＴ紀尾井坂８階,,13,101,1020083,,,,,,,2025-03-31,1,,,,,オブノナナゴウ,0
1517,8010003046899,新規,0,2025-03-31,2025-03-31,白老太陽光発電合同会社,,合同会社,東京都,中央区,京橋２丁目２番１号京橋エドグラン,,13,102,1040031,,,,,,,2025-03-31,1,,,,,シラオイタイヨウコウハツデン,0
1526,8010401189234,新規,0,2025-03-31,2025-03-31,株式会社Ｓａｎｔｏ　Ｐｅｓｃａ,,株式会社,東京都,港区,浜松町１丁目２５番１０号ＫＳＥＡ会館５０３,,13,103,1050013,,,,,,,2025-03-31,1,,,,,サントペスカ,0
1527,8010403034520,新規,0,2025-03-31,2025-03-31,合同会社シエルエ,,合同会社,東京都,港区,北青山１丁目３番１号３階,,13,103,1070061,,,,,,,2025-03-31,1,,,,,シエルエ,0
1528,8010403034719,新規,0,2025-03-31,2025-03-31,ＣＯＳＭＯ　ＣＯＮＳＵＬＴＩＮＧ合同会社,,合同会社,東京都,港区,高輪４丁目２３番６号ハイホーム高輪７０８,,13,103,1080074,,,,,,,2025-03-31,1,,,,,コスモコンサルティング,0
1531,8010801035954,新規,0,2025-03-31,2025-03-31,株式会社ラフコンサルティング,,株式会社,東京都,大田区,西蒲田４丁目２２番１１号,,13,111,1440051,,,,,,,2025-03-31,1,,,,,ラフコンサルティング,0
1538,8011001168487,新規,0,2025-03-31,2025-03-31,株式会社Ｃｅｌａｎ,,株式会社,東京都,渋谷区,渋谷３丁目１０番４－４０１号プライムメゾン渋谷,,13,113,1500002,,,,,,,2025-03-31,1,,,,,セラン,0
1539,8011001168495,新規,0,2025-03-31,2025-03-31,Ｗｏｒｄ　Ｓｔｒａｔｅｇｉｓｔ株式会社,,株式会社,東京都,渋谷区,神泉町１０番１５号アネックス神泉３０１,,13,113,1500045,,,,,,,2025-03-31,1,,,,,ワードストラテジスト,0
1540,8011001168520,新規,0,2025-03-31,2025-03-31,ＮＥＯＴＯＫＹＯオートモーティブ株式会社,,株式会社,東京都,目黒区,東山１丁目１３番８号,,13,110,1530043,,,,,,,2025-03-31,1,,,,,ネオトーキョーオートモーティブ,0
1541,8011001168537,新規,0,2025-03-31,2025-03-31,ドーナツの穴株式会社,,株式会社,東京都,渋谷区,桜丘町４－６パレステュディオ渋谷ＳＴＡＴＩＯＮＦＲＯＮＴ３０１号室,,13,113,1500031,,,,,,,2025-03-31,1,,,,,ドーナツノアナ,0
1542,8011001168561,新規,0,2025-03-31,2025-03-31,新正会マネジメント株式会社,,株式会社,東京都,渋谷区,神宮前５丁目３６番１５号,,13,113,1500001,,,,,,,2025-03-31,1,,,,,シンセイカイマネジメント,0
1543,8011003021256,新規,0,2025-03-31,2025-03-31,ＮｅｏｎＲｉｆｔ合同会社,,合同会社,東京都,渋谷区,道玄坂１丁目１０番８号渋谷道玄坂東急ビル２Ｆ－Ｃ,,13,113,1500043,,,,,,,2025-03-31,1,,,,,ネオンリフト,0
1547,8011101111165,新規,0,2025-03-31,2025-03-31,株式会社Ｂプラスわん,,株式会社,東京都,新宿区,西新宿３丁目３番１３号西新宿水間ビル６階,,13,104,1600023,,,,,,,2025-03-31,1,,,,,ビープラスワン,0
1550,8011301030462,新規,0,2025-03-31,2025-03-31,株式会社パッチ,,株式会社,東京都,杉並区,高円寺南２丁目４１番７号プリマベラ１０１,,13,115,1660003,,,,,,,2025-03-31,1,,,,,パッチ,0
1556,8011801045860,新規,0,2025-03-31,2025-03-31,ジャパンソレイエ株式会社,,株式会社,東京都,葛飾区,西亀有４丁目２４番９号ＨＡＲＭＯＮＹ西亀有,,13,122,1250002,,,,,,,2025-03-31,1,,,,,ジャパンソレイエ,0
1557,8011803006745,新規,0,2025-03-31,2025-03-31,順通合同会社,,合同会社,東京都,足立区,新田２丁目９番２２－７０８号,,13,121,1230865,,,,,,,2025-03-31,1,,,,,ジュンツウ,0
1558,8011805003443,新規,0,2025-03-31,2025-03-31,医療法人社団南風会,,その他の設立登記法人,東京都,葛飾区,宝町２丁目３４番１６号Ｍ‘ｓＥＴＥＲＮＡ５階,,13,122,1240005,,,,,,,2025-03-31,1,,,,,ナンプウカイ,0
1563,8012701018774,新規,0,2025-03-31,2025-03-31,ＧＬＯＢＥＪＥＴ　ＴＲＡＶＥＬ　ＡＮＤ　ＴＯＵＲ株式会社,,株式会社,東京都,東村山市,廻田町１丁目２１番地６４,,13,213,1890025,,,,,,,2025-03-31,1,,,,,グローブジェットトラベルアンドツアー,0
1568,8013301053996,新規,0,2025-03-31,2025-03-31,ＳＥＮＳＮＯＷ株式会社,,株式会社,東京都,豊島区,南池袋１丁目９番１８号ＧＯＧＯオフィス池袋２２３号,,13,116,1710022,,,,,,,2025-03-31,1,,,,,モリユキ,0
1569,8013301054029,新規,0,2025-03-31,2025-03-31,株式会社ＣＢ９,,株式会社,東京都,豊島区,池袋２丁目３６番１号ＩＮＦＩＮＩＴＹＩＫＥＢＵＫＵＲＯ６階,,13,116,1710014,,,,,,,2025-03-31,1,,,,,シービーナイン,0
1575,8020001162020,新規,0,2025-03-31,2025-03-31,株式会社うろこ,,株式会社,神奈川県,川崎市高津区,末長１丁目５１番１３号,,14,134,2130013,,,,,,,2025-03-31,1,,,,,ウロコ,0
1576,8020001162045,新規,0,2025-03-31,2025-03-31,株式会社Ｍ,,株式会社,神奈川県,横浜市磯子区,洋光台４丁目６番２２号エンゼルパレス３０１号,,14,107,2350045,,,,,,,2025-03-31,1,,,,,エム,0
1580,8020003028145,新規,0,2025-03-31,2025-03-31,合同会社Ａｌｍａ　ＲＵＫＡ,,合同会社,神奈川県,横浜市鶴見区,北寺尾１丁目１７番１５号,,14,101,2300074,,,,,,,2025-03-31,1,,,,,アルマルカ,0
1581,8020003028153,新規,0,2025-03-31,2025-03-31,合同会社スマートブレイン,,合同会社,神奈川県,横浜市西区,浅間町１丁目４番３号ウィザードビル４０２,,14,103,2200072,,,,,,,2025-03-31,1,,,,,スマートブレイン,0
1582,8020003028178,新規,0,2025-03-31,2025-03-31,合同会社ｆｏｒｃｅ,,合同会社,神奈川県,横浜市栄区,飯島町２９０７－１みどり野ハイツ９－２０１,,14,115,2440842,,,,,,,2025-03-31,1,,,,,,0
1585,8021001084816,新規,0,2025-03-31,2025-03-31,株式会社円実業,,株式会社,神奈川県,横須賀市,大滝町１丁目７番地２,,14,201,2380008,,,,,,,2025-03-31,1,,,,,マドカジツギョウ,0
1592,8030001165617,新規,0,2025-03-31,2025-03-31,株式会社サンサンゴ,,株式会社,埼玉県,さいたま市岩槻区,東岩槻４丁目１２－６－１３－４０４,,11,110,3390005,,,,,,,2025-03-31,1,,,,,サンサンゴ,0
1593,8030001165625,新規,0,2025-03-31,2025-03-31,株式会社まんぷく,,株式会社,埼玉県,さいたま市見沼区,大字風渡野４２９番地１,,11,104,3370017,,,,,,,2025-03-31,1,,,,,マンプク,0
1594,8030001165633,新規,0,2025-03-31,2025-03-31,株式会社エミオラ,,株式会社,埼玉県,さいたま市北区,宮原町２丁目１０３番地１３,,11,102,3310812,,,,,,,2025-03-31,1,,,,,エミオラ,0
1595,8030001165641,新規,0,2025-03-31,2025-03-31,株式会社ＤｋＬ,,株式会社,埼玉県,越谷市,レイクタウン８丁目１３番地１グランアルト越谷レイクタウン６１８号,,11,222,3430828,,,,,,,2025-03-31,1,,,,,ディーケーエル,0
1602,8040001138051,新規,0,2025-03-31,2025-03-31,株式会社ＡＩＧＭＡ,,株式会社,千葉県,松戸市,松戸１３０７番地の１松戸ビル１３Ｆ,,12,207,2710092,,,,,,,2025-03-31,1,,,,,アイグマ,0
1605,8040003027244,新規,0,2025-03-31,2025-03-31,合同会社ノコノク,,合同会社,千葉県,流山市,おおたかの森北２丁目５５―３,,12,220,2700119,,,,,,,2025-03-31,1,,,,,ノコノク,0
1608,8050005013588,新規,0,2025-03-31,2025-03-31,一般社団法人わわ,,その他の設立登記法人,茨城県,結城市,大字結城１１６番地,,08,207,3070001,,,,,,,2025-03-31,1,,,,,ワワ,0
1614,8080101025410,新規,0,2025-03-31,2025-03-31,梨永株式会社,,株式会社,静岡県,沼津市,沢田町１０番１２号ミルフォード５０５号室,,22,203,4100052,,,,,,,2025-03-31,1,,,,,リエイ,0
1618,8110003005713,新規,0,2025-03-31,2025-03-31,合同会社コメット,,合同会社,新潟県,妙高市,柳井田町１丁目５番７号,,15,217,9440008,,,,,,,2025-03-31,1,,,,,コメット,0
1626,8120003028977,新規,0,2025-03-31,2025-03-31,合同会社ＺＥＲＯ,,合同会社,大阪府,大阪市中央区,千日前１丁目７番６号２Ｆ,,27,128,5420074,,,,,,,2025-03-31,1,,,,,ゼロ,0
1629,8120103006354,新規,0,2025-03-31,2025-03-31,小さなケーキの家Ｓｗｅｅｔ　Ｈｏｍｅ合同会社,,合同会社,大阪府,堺市西区,浜寺石津町西４丁１０番３号,,27,144,5928333,,,,,,,2025-03-31,1,,,,,チイサナケーキノイエスウィートホーム,0
1632,8130001079286,新規,0,2025-03-31,2025-03-31,株式会社ｉｒｏｎ　ｔｅｃ　ｊａｐａｎ,,株式会社,京都府,宮津市,字由良６２番地の１,,26,205,6260071,,,,,,,2025-03-31,1,,,,,アイロンテックジャパン,0
1639,8140001137935,新規,0,2025-03-31,2025-03-31,ライデンジャパン株式会社,,株式会社,兵庫県,西宮市,花園町７番２４号,,28,204,6638187,,,,,,,2025-03-31,1,,,,,ライデンジャパン,0
1650,8180001166096,新規,0,2025-03-31,2025-03-31,株式会社ＣＯＮＮＥＣＴ　ＴＯ,,株式会社,愛知県,名古屋市中村区,那古野１丁目４７番１号,,23,105,4500001,,,,,,,2025-03-31,1,,,,,コネクトトゥ,0
1651,8180003028220,新規,0,2025-03-31,2025-03-31,ＡＲＩＧ　Ｊａｐａｎ合同会社,,合同会社,愛知県,名古屋市港区,十一屋２丁目２７５番地宝マンション港西３０５,,23,111,4550831,,,,,,,2025-03-31,1,,,,,アリグジャパン,0
1655,8200001043573,新規,0,2025-03-31,2025-03-31,ｍｕｌｂｅｒｒｙ株式会社,,株式会社,岐阜県,岐阜市,鷺山１７６８番地５９１,,21,201,5020851,,,,,,,2025-03-31,1,,,,,マルベリー,0
1662,8260003005112,新規,0,2025-03-31,2025-03-31,ＤＡＮＧ　ＫＨＯＩ合同会社,,合同会社,岡山県,岡山市北区,田町２丁目７－５田町２７５ビル３Ｆ,,33,101,7000825,,,,,,,2025-03-31,1,,,,,ダンコイ,0
1669,8290001109408,新規,0,2025-03-31,2025-03-31,株式会社ＭＥＮＳＯＵＬ,,株式会社,福岡県,福岡市城南区,荒江１丁目３０－１３,,40,136,8140101,,,,,,,2025-03-31,1,,,,,メンソウル,0
1688,8370001052392,新規,0,2025-03-31,2025-03-31,株式会社ｒｉｂｅｒａｌ,,株式会社,宮城県,仙台市青葉区,本町１丁目５番２８号カーニープレイス仙台駅前通６０３号室,,04,101,9800014,,,,,,,2025-03-31,1,,,,,リベラル,0
1691,8400005008478,新規,0,2025-03-31,2025-03-31,一般社団法人Ａｔｈｌｅｔｉｃ　Ｃｌｕｂ　ＥＳＰＥＲＡＮＣＡ,,その他の設立登記法人,岩手県,盛岡市,下田字柴沢３４１番地３,,03,201,0284134,,,,,,,2025-03-31,1,,,,,アスレチッククラブエスペランサ,0
1698,8450003002627,新規,0,2025-03-31,2025-03-31,合同会社はなび,,合同会社,北海道,旭川市,南七条通２５丁目８番地の１９２,,01,204,0788337,,,,,,,2025-03-31,1,,,,,ハナビ,0
1703,8700150129635,新規,0,2025-03-31,2025-03-31,ＳＱＵＡＲＥＳＰＡＣＥ　ＩＲＥＬＡＮＤ　ＬＩＭＩＴＥＤ,,外国会社等,,,,,,,,ＳＱＵＡＲＥＳＰＡＣＥ　ＨＯＵＳＥ　ＳＨＩＰ　ＳＴＲＥＥＴ　ＧＲＥＡＴ　ＤＵＢＬＩＮ８　ＤＵＢＬＩＮ　ＩＲＥＬＡＮＤ　Ｄ０８　Ｎ１２Ｃ,,,,,,2025-03-31,1,,,,,スクエアスペースアイルランドリミテツド,0
1709,9010001253546,新規,0,2025-03-31,2025-03-31,株式会社色波コネクト,,株式会社,東京都,文京区,本郷２丁目２６番９号,,13,105,1130033,,,,,,,2025-03-31,1,,,,,イロハコネクト,0
1710,9010001253604,新規,0,2025-03-31,2025-03-31,コスモＥＣ総合サービス株式会社,,株式会社,東京都,文京区,本郷３丁目３１－１盛和ビル３０Ａ号室,,13,105,1130033,,,,,,,2025-03-31,1,,,,,コスモイーシーソウゴウサービス,0
1713,9010003046857,新規,0,2025-03-31,2025-03-31,順意合同会社,,合同会社,東京都,千代田区,神田佐久間町３丁目２８星野ビル４Ｆ２号,,13,101,1010025,,,,,,,2025-03-31,1,,,,,ジュンイ,0
1716,9010501053801,新規,0,2025-03-31,2025-03-31,嘉一株式会社,,株式会社,東京都,台東区,東上野３丁目１５－１４－Ｓ４,,13,106,1100015,,,,,,,2025-03-31,1,,,,,ヨシカズ,0
1723,9010903009806,新規,0,2025-03-31,2025-03-31,合同会社Ｃｒａｃｋｌｅ,,合同会社,東京都,世田谷区,等々力８丁目６番地１２号,,13,112,1580082,,,,,,,2025-03-31,1,,,,,クラックル,0
1728,9011001168486,新規,0,2025-03-31,2025-03-31,株式会社ＭＩＯ,,株式会社,東京都,渋谷区,道玄坂２丁目１５番１号,,13,113,1500043,,,,,,,2025-03-31,1,,,,,ミオ,0
1729,9011001168560,新規,0,2025-03-31,2025-03-31,株式会社ジョブエージェント,,株式会社,東京都,渋谷区,代々木１丁目３６番１号Ｂ１Ｆ,,13,113,1510053,,,,,,,2025-03-31,1,,,,,ジョブエージェント,0
1730,9011001168577,新規,0,2025-03-31,2025-03-31,ＴｅｃｈＰａｔｃｈ株式会社,,株式会社,東京都,目黒区,大橋２丁目１６番４１号グランベルテ１０２号室,,13,110,1530044,,,,,,,2025-03-31,1,,,,,テックパッチ,0
1731,9011003021239,新規,0,2025-03-31,2025-03-31,ＫＥＩＴＨ　ＣＯＲＰＯＲＡＴＩＯＮ合同会社,,合同会社,東京都,渋谷区,道玄坂１丁目１０番８号渋谷道玄坂東急ビル２Ｆ－Ｃ,,13,113,1500043,,,,,,,2025-03-31,1,,,,,キースコーポレーション,0
1732,9011101111131,新規,0,2025-03-31,2025-03-31,株式会社ｍｉｎｏｒｉｔｙ,,株式会社,東京都,新宿区,中落合２丁目９番１号ジニア新宿中落合１０３,,13,104,1610032,,,,,,,2025-03-31,1,,,,,マイノリティ,0
1737,9011801045868,新規,0,2025-03-31,2025-03-31,株式会社ニューアシスト,,株式会社,東京都,葛飾区,西亀有３丁目１３番１８号メゾンクーリュ２０３,,13,122,1250002,,,,,,,2025-03-31,1,,,,,ニューアシスト,0
1738,9011803006760,新規,0,2025-03-31,2025-03-31,Ｅｎｉｓｈｉ　Ｃｏｎｓｕｌｔｉｎｇ合同会社,,合同会社,東京都,葛飾区,小菅１丁目３６番３－９０３号,,13,122,1240001,,,,,,,2025-03-31,1,,,,,エニシコンサルティング,0
1739,9012303002135,新規,0,2025-03-31,2025-03-31,合同会社スターメイト,,合同会社,東京都,町田市,木曽東１丁目４８番１４号,,13,209,1940036,,,,,,,2025-03-31,1,,,,,スターメイト,0
1744,9012701018773,新規,0,2025-03-31,2025-03-31,ＧＬＯＢＥＪＥＴ株式会社,,株式会社,東京都,東村山市,廻田町１丁目２１番地６４,,13,213,1890025,,,,,,,2025-03-31,1,,,,,グローブジェット,0
1745,9013301054003,新規,0,2025-03-31,2025-03-31,老綏元インターナショナル株式会社,,株式会社,東京都,豊島区,南池袋１丁目２６－３近代ビル８階,,13,116,1710022,,,,,,,2025-03-31,1,,,,,ロウキエンインターナショナル,0
1749,9020001162052,新規,0,2025-03-31,2025-03-31,東正株式会社,,株式会社,神奈川県,横浜市中区,本牧町１丁目２２番地３,,14,104,2310806,,,,,,,2025-03-31,1,,,,,トウセイ,0
1751,9020003028152,新規,0,2025-03-31,2025-03-31,ＪＡＶＩＣＯ合同会社,,合同会社,神奈川県,横浜市南区,共進町１丁目８番地１エンゼルハイム蒔田第３－１０５,,14,105,2320015,,,,,,,2025-03-31,1,,,,,ジャヴィコ,0
1753,9021001084807,新規,0,2025-03-31,2025-03-31,登峰株式会社,,株式会社,神奈川県,秦野市,南矢名２２２３番地の４東海ビル２０３Ａ,,14,211,2570003,,,,,,,2025-03-31,1,,,,,トウホウ,0
1756,9030001165599,新規,0,2025-03-31,2025-03-31,天和国際株式会社,,株式会社,埼玉県,越谷市,大成町１丁目２８１９－４,,11,222,3430825,,,,,,,2025-03-31,1,,,,,テンワコクサイ,0
1757,9030001165632,新規,0,2025-03-31,2025-03-31,山田住設株式会社,,株式会社,埼玉県,草加市,谷塚１丁目４番２５－５０１号,,11,221,3400028,,,,,,,2025-03-31,1,,,,,ヤマダジュウセツ,0
1764,9050001056334,新規,0,2025-03-31,2025-03-31,Ｋｅｙ‐８株式会社,,株式会社,茨城県,つくばみらい市,細代７０４番地１,,08,235,3002446,,,,,,,2025-03-31,1,,,,,キーエイト,0
1767,9070001042761,新規,0,2025-03-31,2025-03-31,株式会社スターアライアンス,,株式会社,群馬県,前橋市,大渡町１丁目６番地９,,10,201,3710854,,,,,,,2025-03-31,1,,,,,スターアライアンス,0
1773,9090003002794,新規,0,2025-03-31,2025-03-31,ＦＡＢＩＴＡＢＩ合同会社,,合同会社,山梨県,南都留郡山中湖村,平野１２７２―３１,,19,425,4010502,,,,,,,2025-03-31,1,,,,,ファビタビ,0
1774,9090005007684,新規,0,2025-03-31,2025-03-31,一般社団法人グッドライフジャパン,,その他の設立登記法人,山梨県,北杜市,須玉町江草５５７３,,19,209,4080103,,,,,,,2025-03-31,1,,,,,グッドライフジャパン,0
1776,9100001038442,新規,0,2025-03-31,2025-03-31,株式会社杵淵ファミリーファーム,,株式会社,長野県,長野市,篠ノ井杵淵６７１番地の２,,20,201,3888019,,,,,,,2025-03-31,1,,,,,キネブチファミリーファーム,0
1782,9110001039142,新規,0,2025-03-31,2025-03-31,株式会社ＳｈｉｂａＷｏｒｋｓ,,株式会社,新潟県,長岡市,大手通２丁目２番地６,,15,202,9400062,,,,,,,2025-03-31,1,,,,,シバワークス,0
1783,9110003005712,新規,0,2025-03-31,2025-03-31,パリシェル合同会社,,合同会社,新潟県,長岡市,滝谷町２５６番地７,,15,202,9401138,,,,,,,2025-03-31,1,,,,,パリシェル,0
1794,9120001274085,新規,0,2025-03-31,2025-03-31,株式会社ｂｅａｍｉｎｇ,,株式会社,大阪府,大阪市東住吉区,北田辺２丁目１０番１３号,,27,121,5460044,,,,,,,2025-03-31,1,,,,,ビーミング,0
1795,9120001274102,新規,0,2025-03-31,2025-03-31,株式会社ヴェリオス,,株式会社,大阪府,大阪市住之江区,平林南２丁目１０番７８号,,27,125,5590025,,,,,,,2025-03-31,1,,,,,ヴェリオス,0
1796,9120001274110,新規,0,2025-03-31,2025-03-31,株式会社Ｏｎｅ　ａｆｆｅｃｔ,,株式会社,大阪府,大阪市中央区,南久宝寺町１丁目９番１０号日宝船場ビル８０２,,27,128,5410058,,,,,,,2025-03-31,1,,,,,ワンアフェクト,0
1797,9120001274135,新規,0,2025-03-31,2025-03-31,Ｐ＆Ｔ株式会社,,株式会社,大阪府,大阪市中央区,島之内１丁目１５番２－１００２号,,27,128,5420082,,,,,,,2025-03-31,1,,,,,ピーアンドティー,0
1799,9120101071358,新規,0,2025-03-31,2025-03-31,株式会社川藤商貿,,株式会社,大阪府,泉佐野市,日根野１８６４番地１２,,27,213,5980021,,,,,,,2025-03-31,1,,,,,カワフジショウボウ,0
1800,9120103006353,新規,0,2025-03-31,2025-03-31,望美合同会社,,合同会社,大阪府,富田林市,錦織東１丁目６番５号－２０５号室,,27,214,5840069,,,,,,,2025-03-31,1,,,,,ノゾミ,0
1801,9120901050627,新規,0,2025-03-31,2025-03-31,株式会社ネモフィラ,,株式会社,大阪府,茨木市,駅前２丁目５－２４大福ビル１Ｆ,,27,211,5670888,,,,,,,2025-03-31,1,,,,,ネモフィラ,0
1804,9130001079285,新規,0,2025-03-31,2025-03-31,株式会社ふくだ薬局,,株式会社,京都府,京都市左京区,下鴨南芝町２６番地３,,26,103,6060841,,,,,,,2025-03-31,1,,,,,フクダヤッキョク,0
1805,9130003010314,新規,0,2025-03-31,2025-03-31,ＬＩＺ合同会社,,合同会社,京都府,京都市中京区,三条通烏丸東入梅忠町２４番地三条ＣＯＨＪＵビル５Ｆ,,26,104,6048136,,,,,,,2025-03-31,1,,,,,リズ,0
1810,9140001137950,新規,0,2025-03-31,2025-03-31,株式会社Ｃｌｅａｒ　Ｐａｒｔｎｅｒ,,株式会社,兵庫県,神戸市中央区,伊藤町１１０－２神戸ポートビル旧居留地７Ｆ,,28,110,6500032,,,,,,,2025-03-31,1,,,,,クリアパートナー,0
1813,9140003021847,新規,0,2025-03-31,2025-03-31,合同会社Ｂｌａｎｃｈｅ‐ｌｅ,,合同会社,兵庫県,神戸市西区,春日台６丁目２１－５,,28,111,6512276,,,,,,,2025-03-31,1,,,,,ブランシュール,0
1824,9180001166062,新規,0,2025-03-31,2025-03-31,株式会社Ｒｅｖｅｒｓａｌ,,株式会社,愛知県,春日井市,前並町字前並６７番地３,,23,206,4860903,,,,,,,2025-03-31,1,,,,,リバーサル,0
1825,9180001166095,新規,0,2025-03-31,2025-03-31,株式会社向陽,,株式会社,愛知県,名古屋市港区,名港１丁目１番１９号、三旺ポートタウン港１０６号,,23,111,4550037,,,,,,,2025-03-31,1,,,,,コウヨウ,0
1826,9180003028194,新規,0,2025-03-31,2025-03-31,合同会社えにし,,合同会社,愛知県,名古屋市中村区,名駅４丁目２４番５号第２森ビル４０１,,23,105,4500002,,,,,,,2025-03-31,1,,,,,エニシ,0
1827,9180003028228,新規,0,2025-03-31,2025-03-31,ワールドライド合同会社,,合同会社,愛知県,名古屋市中村区,４－２４－５第２森ビル４０１,,23,105,4530000,,,,,,,2025-03-31,1,,,,,ワールドライド,0
1834,9220001026567,新規,0,2025-03-31,2025-03-31,株式会社住よし２４,,株式会社,石川県,金沢市,寺中町ホ９番地１,,17,201,9200341,,,,,,,2025-03-31,1,,,,,スミヨシニジュウヨン,0
1837,9230001020809,新規,0,2025-03-31,2025-03-31,株式会社ブリベンチャー,,株式会社,富山県,氷見市,本町１６‐１５,,16,205,9350016,,,,,,,2025-03-31,1,,,,,ブリベンチャー,0
1839,9240001064714,新規,0,2025-03-31,2025-03-31,株式会社オートマックス,,株式会社,広島県,東広島市,西条西本町２８番６号サンスクエア東広島３階新産業創造センターＡ,,34,212,7390043,,,,,,,2025-03-31,1,,,,,オートマックス,0
1845,9260003005103,新規,0,2025-03-31,2025-03-31,合同会社宝泉,,合同会社,岡山県,津山市,川崎７５番地８,,33,203,7080841,,,,,,,2025-03-31,1,,,,,ホウセン,0
1857,9340005009837,新規,0,2025-03-31,2025-03-31,一般社団法人湊,,その他の設立登記法人,鹿児島県,熊毛郡屋久島町,一湊８９０番地２６,,46,505,8914203,,,,,,,2025-03-31,1,,,,,ミナト,0
1859,9360005007194,新規,0,2025-03-31,2025-03-31,一般社団法人宮古島末来創造ラボ,,その他の設立登記法人,沖縄県,宮古島市,平良字西仲宗根１７０番地Ｋ＆Ｇテラス１－Ｆ,,47,214,9060006,,,,,,,2025-03-31,1,,,,,ミヤコジマミライソウゾウラボ,0
1860,9370001052383,新規,0,2025-03-31,2025-03-31,株式会社ひかる,,株式会社,宮城県,角田市,角田字泉町７７番地６,,04,208,9811505,,,,,,,2025-03-31,1,,,,,ヒカル,0
1861,9370005010932,新規,0,2025-03-31,2025-03-31,一般社団法人ひのこ,,その他の設立登記法人,宮城県,石巻市,中央２丁目８番２号ＨＯＳＨＩＮＯ　ＢＯＸ　ＰＩＡＺＺＡ２Ｆ,,04,202,9860822,,,,,,,2025-03-31,1,,,,,ヒノコ,0
1872,9430001094031,新規,0,2025-03-31,2025-03-31,株式会社Ａｒｉ　ｃｏｌｏｒｅ,,株式会社,北海道,石狩郡当別町,太美町１４８４番地４コジマビル２０１,,01,303,0613776,,,,,,,2025-03-31,1,,,,,アリコローレ,0
1875,9430003017452,新規,0,2025-03-31,2025-03-31,合同会社フロンティア,,合同会社,北海道,札幌市中央区,北二条東１丁目５番地２,,01,101,0600032,,,,,,,2025-03-31,1,,,,,フロンティア,0
1879,9460005001591,新規,0,2025-03-31,2025-03-31,土地家屋調査士法人金田剛事務所,,その他の設立登記法人,北海道,釧路市,緑ケ岡１丁目６番８号,,01,206,0850814,,,,,,,2025-03-31,1,,,,,カネタヒサシジムショ,0
1881,9460303000857,新規,0,2025-03-31,2025-03-31,合同会社ＳＥＶＥＮ　ＥＩＧＨＴ,,合同会社,北海道,北見市,北六条西４丁目１１－１０,,01,208,0900046,,,,,,,2025-03-31,1,,,,,セブンエイト,0
1886,9700150129766,新規,0,2025-03-31,2025-03-31,Ｓｈｅｎｚｈｅｎ　Ｋａｉｍｅｎｅ　Ｔｒａｄｉｎｇ　Ｌｔｄ．,,外国会社等,,,,,,,,Ｇｕａｎｌｏｎｇｃｕｎｄｏｎｇ　Ｂｌｏｃｋ　Ａ１８，Ｒｏｏｍ　５２０，Ｘｉｌｉ　Ｓｔｒｅｅｔ，Ｓｈｅｎｚｈｅｎ　Ｃｉｔｙ，Ｎａｎｓｈａｎ　Ｄｉｓｔｒｉｃｔ，Ｇｕａｎｇｄｏｎｇ　Ｐｒｏｖｉｎｃｅ,,,,,,2025-03-31,1,,,,,シェンジェンカイメンオーマオイーヨウシエンゴンスー,0
