sequenceNumber,corporateNumber,process,correct,updateDate,changeDate,name,nameImageId,kind,prefectureName,cityName,streetNumber,addressImageId,prefectureCode,cityCode,postCode,addressOutside,addressOutsideImageId,closeDate,closeCause,successorCorporateNumber,changeCause,assignmentDate,latest,enName,enPrefectureName,enCityName,enAddressOutside,furigana,hihyoji
10,1010001222541,新規,0,2021-11-16,2021-11-16,株式会社フジシステムズ,,株式会社,東京都,中央区,日本橋茅場町１丁目３－７千代田ビル５階,,13,102,1030025,,,,,,,2021-11-16,1,,,,,フジシステムズ,0
11,1010001222574,新規,0,2021-11-16,2021-11-16,株式会社ＬＩＮＮＥ,,株式会社,東京都,文京区,根津２丁目１１－３,,13,105,1130031,,,,,,,2021-11-16,1,,,,,リンネ,0
12,1010001222582,新規,0,2021-11-16,2021-11-16,みらいキッズ株式会社,,株式会社,東京都,中央区,新富２丁目１３番１号,,13,102,1040041,,,,,,,2021-11-16,1,,,,,ミライキッズ,0
13,1010001222624,新規,0,2021-11-16,2021-11-16,株式会社Ｂｒａｖｅ　ＪＡＰＡＮ,,株式会社,東京都,中央区,銀座１丁目２１－１２山田ビル２Ｆ,,13,102,1040061,,,,,,,2021-11-16,1,,,,,ブレイブジャパン,0
17,1010003036279,新規,0,2021-11-16,2021-11-16,合同会社ＫＣＲ２,,合同会社,東京都,中央区,日本橋１丁目４番１号,,13,102,1030027,,,,,,,2021-11-16,1,,,,,ケーシーアールツー,0
18,1010003036295,新規,0,2021-11-16,2021-11-16,サステナブルローンファンド４号合同会社,,合同会社,東京都,中央区,八丁堀４丁目２番１０号ＡＯＪ税理士法人内,,13,102,1040032,,,,,,,2021-11-16,1,,,,,サステナブルローンファンドヨンゴウ,0
22,1010101014954,新規,0,2021-11-16,2021-11-16,福商事株式会社,,株式会社,東京都,八王子市,緑町８９４番地７,,13,201,1930932,,,,,,,2021-11-16,1,,,,,フクショウジ,0
34,1010401163815,新規,0,2021-11-16,2021-11-16,株式会社シャラクシー,,株式会社,東京都,港区,赤坂４丁目１２番７号４０８,,13,103,1070052,,,,,,,2021-11-16,1,,,,,,0
35,1010401163939,新規,0,2021-11-16,2021-11-16,ＬＳ－ＳＨＩＰ第２１号株式会社,,株式会社,東京都,港区,六本木１丁目６番１号,,13,103,1060032,,,,,,,2021-11-16,1,,,,,エルエスシップダイニジュウイチゴウ,0
39,1010501048098,新規,0,2021-11-16,2021-11-16,株式会社Ｐａｐｒｅｃｏ,,株式会社,東京都,台東区,松が谷３丁目１７－３Ｋレジデンス浅草５０１,,13,106,1110036,,,,,,,2021-11-16,1,,,,,パプレコ,0
40,1010503006426,新規,0,2021-11-16,2021-11-16,合同会社ポンテアルト,,合同会社,東京都,台東区,北上野２丁目５番３－１００３号,,13,106,1100014,,,,,,,2021-11-16,1,,,,,ポンテアルト,0
41,1010601060226,新規,0,2021-11-16,2021-11-16,株式会社ワイズグループ,,株式会社,東京都,江東区,有明１丁目３番１４－２０１５号,,13,108,1350063,,,,,,,2021-11-16,1,,,,,ワイズグループ,0
43,1010603009254,新規,0,2021-11-16,2021-11-16,ＳＡＫＡＴＡＹＡ合同会社,,合同会社,東京都,江東区,新大橋１丁目２番８号,,13,108,1350007,,,,,,,2021-11-16,1,,,,,サカタヤ,0
47,1010805002899,新規,0,2021-11-16,2021-11-16,行政書士法人仁科忠二郎事務所,,その他の設立登記法人,東京都,大田区,蒲田本町２丁目４番２号アクシード蒲田本町５Ｆ,,13,111,1440053,,,,,,,2021-11-16,1,,,,,ニシナチュウジロウジムショ,0
48,1010901049778,新規,0,2021-11-16,2021-11-16,初の酷日化株式会社,,株式会社,東京都,世田谷区,世田谷１丁目４１番２号,,13,112,1540017,,,,,,,2021-11-16,1,,,,,ハツノクールニッカ,0
60,1011003013714,新規,0,2021-11-16,2021-11-16,合同会社イクオ・パートナーズ,,合同会社,東京都,目黒区,三田１丁目４番４－９０７号恵比寿ビュータワー,,13,110,1530062,,,,,,,2021-11-16,1,,,,,イクオパートナーズ,0
61,1011003013747,新規,0,2021-11-16,2021-11-16,合同会社三是,,合同会社,東京都,渋谷区,代々木２丁目１１番１２号,,13,113,1510053,,,,,,,2021-11-16,1,,,,,,0
63,1011101096917,新規,0,2021-11-16,2021-11-16,株式会社Ｔａｌｌｍａｎ,,株式会社,東京都,新宿区,北新宿１丁目３０番８号,,13,104,1690074,,,,,,,2021-11-16,1,,,,,トールマン,0
64,1011101096925,新規,0,2021-11-16,2021-11-16,株式会社シムゲート,,株式会社,東京都,新宿区,四谷４丁目８番地ライオンズ四谷タワーゲート１６０２,,13,104,1600004,,,,,,,2021-11-16,1,,,,,シムゲート,0
70,1011401023843,新規,0,2021-11-16,2021-11-16,株式会社朝日,,株式会社,東京都,板橋区,板橋３丁目５番１号リビオタワー板橋１０５,,13,119,1730004,,,,,,,2021-11-16,1,,,,,アサヒ,0
72,1011601025540,新規,0,2021-11-16,2021-11-16,株式会社アイディアポーク,,株式会社,東京都,練馬区,高松１丁目３８番１９号,,13,120,1790075,,,,,,,2021-11-16,1,,,,,アイディアポーク,0
81,1011801039968,新規,0,2021-11-16,2021-11-16,株式会社ジープロダクト,,株式会社,東京都,葛飾区,四つ木４丁目１９番３号,,13,122,1240011,,,,,,,2021-11-16,1,,,,,ジープロダクト,0
84,1012701016776,新規,0,2021-11-16,2021-11-16,株式会社Ｉ・Ｍコンサルティング,,株式会社,東京都,西東京市,谷戸町２丁目６番９－５２５号,,13,229,1880001,,,,,,,2021-11-16,1,,,,,アイエムコンサルティング,0
85,1012801021214,新規,0,2021-11-16,2021-11-16,株式会社ＺＥＲＯＵＭ,,株式会社,東京都,昭島市,美堀町２丁目１番２５号,,13,207,1960001,,,,,,,2021-11-16,1,,,,,ゼローム,0
86,1012801021222,新規,0,2021-11-16,2021-11-16,株式会社いんふぉわーくす,,株式会社,東京都,日野市,新井１丁目２９番地の３,,13,212,1910022,,,,,,,2021-11-16,1,,,,,インフォワークス,0
96,1020001143951,新規,0,2021-11-16,2021-11-16,株式会社城山架設,,株式会社,神奈川県,横浜市鶴見区,元宮１丁目６番２９－４０３号,,14,101,2300004,,,,,,,2021-11-16,1,,,,,シロヤマカセツ,0
97,1020001143968,新規,0,2021-11-16,2021-11-16,株式会社コリトッテ,,株式会社,神奈川県,横浜市西区,高島２丁目１１番２号スカイメナー横浜５１９,,14,103,2200011,,,,,,,2021-11-16,1,,,,,コリトッテ,0
103,1021001074484,新規,0,2021-11-16,2021-11-16,アックスヴィレッジ株式会社,,株式会社,神奈川県,小田原市,久野２２１６番地の１０,,14,206,2500055,,,,,,,2021-11-16,1,,,,,アックスヴィレッジ,0
104,1021001074518,新規,0,2021-11-16,2021-11-16,株式会社優風重機,,株式会社,神奈川県,厚木市,飯山２２３８番地１ボタニカテラス３０５,,14,212,2430213,,,,,,,2021-11-16,1,,,,,ユウフウジュウキ,0
107,1021003011089,新規,0,2021-11-16,2021-11-16,パシフィックスターズ合同会社,,合同会社,神奈川県,鎌倉市,津西１丁目１８番１０－２号,,14,204,2480034,,,,,,,2021-11-16,1,,,,,パシフィックスターズ,0
118,1030001145328,新規,0,2021-11-16,2021-11-16,株式会社Ｒａｖｉ,,株式会社,埼玉県,さいたま市南区,南浦和２丁目２８番１３－６１６号,,11,108,3360017,,,,,,,2021-11-16,1,,,,,ラヴィ,0
119,1030001145344,新規,0,2021-11-16,2021-11-16,Ｇｒｏｕｎｄ　Ｗｅｒｘ株式会社,,株式会社,埼玉県,所沢市,くすのき台２丁目１９番地の４－６０３,,11,208,3590037,,,,,,,2021-11-16,1,,,,,グラウンドワークス,0
133,1050001050162,新規,0,2021-11-16,2021-11-16,株式会社京,,株式会社,茨城県,常陸太田市,千寿町８０８番地４,,08,212,3130111,,,,,,,2021-11-16,1,,,,,ミヤコ,0
135,1060001034296,新規,0,2021-11-16,2021-11-16,株式会社那須野ヶ原フットボールクラブ,,株式会社,栃木県,那須塩原市,一区町１８５番地８,,09,213,3292732,,,,,,,2021-11-16,1,,,,,ナスノガハラフットボールクラブ,0
136,1070001038643,新規,0,2021-11-16,2021-11-16,株式会社吉工業,,株式会社,群馬県,安中市,嶺２番地１,,10,211,3790136,,,,,,,2021-11-16,1,,,,,ヨシコウギョウ,0
137,1070001038651,新規,0,2021-11-16,2021-11-16,ＴＱ株式会社,,株式会社,群馬県,前橋市,総社町桜が丘１２０８番地４,,10,201,3710858,,,,,,,2021-11-16,1,,,,,ティキュー,0
139,1070003004296,新規,0,2021-11-16,2021-11-16,民事信託サポートセンター合同会社,,合同会社,群馬県,高崎市,大橋町１３番地,,10,202,3700803,,,,,,,2021-11-16,1,,,,,ミンジシンタクサポートセンター,0
143,1100001034812,新規,0,2021-11-16,2021-11-16,株式会社ハイト,,株式会社,長野県,松本市,梓川倭３４３番地１３,,20,202,3901701,,,,,,,2021-11-16,1,,,,,ハイト,0
148,1110003004622,新規,0,2021-11-16,2021-11-16,合同会社森ノ音ぱーとなー,,合同会社,新潟県,新潟市西区,寺尾西３丁目２１番１９号,,15,107,9502064,,,,,,,2021-11-16,1,,,,,モリノオトパートナー,0
154,1120001241828,新規,0,2021-11-16,2021-11-16,株式会社Ｐａｒａｄｉｇｍ　Ｓｈｉｆｔ,,株式会社,大阪府,大阪市北区,梅田１丁目１番３号大阪駅前第３ビル２３０７,,27,127,5300001,,,,,,,2021-11-16,1,,,,,パラダイムシフト,0
155,1120001241860,新規,0,2021-11-16,2021-11-16,株式会社ファイブワンロジ,,株式会社,大阪府,寝屋川市,香里南之町１番１１グランドハイツ２番館３０３号室,,27,215,5720084,,,,,,,2021-11-16,1,,,,,ファイブワンロジ,0
160,1120101064658,新規,0,2021-11-16,2021-11-16,株式会社関西ケアサポート,,株式会社,大阪府,岸和田市,河合町１７０８,,27,202,5960113,,,,,,,2021-11-16,1,,,,,カンサイケアサポート,0
161,1120901045221,新規,0,2021-11-16,2021-11-16,株式会社千里どうぶつ病院,,株式会社,大阪府,箕面市,船場西３丁目８番８号（１０１号）,,27,220,5620036,,,,,,,2021-11-16,1,,,,,センリドウブツビョウイン,0
164,1122001035359,新規,0,2021-11-16,2021-11-16,株式会社達程商事,,株式会社,大阪府,八尾市,荘内町２丁目６,,27,212,5810005,,,,,,,2021-11-16,1,,,,,タツホドショウジ,0
167,1130001070557,新規,0,2021-11-16,2021-11-16,株式会社しんから,,株式会社,京都府,京都市中京区,新烏丸通竹屋町上る東椹木町１２１,,26,104,6040906,,,,,,,2021-11-16,1,,,,,シンカラ,0
168,1140001123883,新規,0,2021-11-16,2021-11-16,株式会社コラージュ・トゥエルブ,,株式会社,兵庫県,明石市,魚住町金ケ崎１３５７番地,,28,203,6740071,,,,,,,2021-11-16,1,,,,,コラージュトゥエルブ,0
170,1140003017002,新規,0,2021-11-16,2021-11-16,合同会社オフィスウミモト,,合同会社,兵庫県,西宮市,神園町５番２６号,,28,204,6620027,,,,,,,2021-11-16,1,,,,,オフィスウミモト,0
172,1150001025096,新規,0,2021-11-16,2021-11-16,株式会社寿工房,,株式会社,奈良県,生駒市,壱分町１２０番地１ファインコート６８１,,29,209,6300222,,,,,,,2021-11-16,1,,,,,コトブキコウボウ,0
173,1150001025105,新規,0,2021-11-16,2021-11-16,グッドフィールド・ビーチサイド株式会社,,株式会社,奈良県,香芝市,真美ヶ丘１丁目１２番１２号,,29,210,6390223,,,,,,,2021-11-16,1,,,,,グッドフィールドビーチサイド,0
175,1160001023818,新規,0,2021-11-16,2021-11-16,株式会社ＨＡＲＵＴＯ,,株式会社,滋賀県,彦根市,葛籠町１４６番地,,25,202,5220212,,,,,,,2021-11-16,1,,,,,,0
176,1160003002423,新規,0,2021-11-16,2021-11-16,合同会社住研,,合同会社,滋賀県,野洲市,栄１番５号,,25,210,5202333,,,,,,,2021-11-16,1,,,,,ジュウケン,0
183,1180001148712,新規,0,2021-11-16,2021-11-16,株式会社Ｓｔａｒ　ｉｌｌｕｓｉｏｎ,,株式会社,愛知県,北名古屋市,中之郷北１２番地,,23,234,4810045,,,,,,,2021-11-16,1,,,,,スターイリュージョン,0
184,1180001148737,新規,0,2021-11-16,2021-11-16,株式会社スマートポジティブ,,株式会社,愛知県,名古屋市東区,代官町３５－１６第一富士ビル１Ｆ,,23,102,4610002,,,,,,,2021-11-16,1,,,,,スマートポジティブ,0
189,1180303005165,新規,0,2021-11-16,2021-11-16,三恵商事合同会社,,合同会社,愛知県,豊田市,若林東町棚田２０番地７,,23,211,4730914,,,,,,,2021-11-16,1,,,,,サンケイショウジ,0
194,1190003003823,新規,0,2021-11-16,2021-11-16,合同会社ナカデン,,合同会社,三重県,鳥羽市,安楽島町１４４９番地１４,,24,211,5170021,,,,,,,2021-11-16,1,,,,,ナカデン,0
195,1190005011642,新規,0,2021-11-16,2021-11-16,特定非営利活動法人伊勢志摩ライフセービングクラブ,,その他の設立登記法人,三重県,志摩市,志摩町和具３０４２番地４,,24,215,5170703,,,,,,,2021-11-16,1,,,,,イセシマライフセービングクラブ,0
200,1200001039421,新規,0,2021-11-16,2021-11-16,株式会社ＭＩＺＵＴＯＫＩ,,株式会社,岐阜県,岐阜市,八代１丁目３番３号,,21,201,5020812,,,,,,,2021-11-16,1,,,,,ミズトキ,0
202,1220001024537,新規,0,2021-11-16,2021-11-16,株式会社みやびの宿加賀百万石,,株式会社,石川県,加賀市,山代温泉壱壱の２番地１,,17,206,9220242,,,,,,,2021-11-16,1,,,,,ミヤビノヤドカガヒャクマンゴク,0
203,1220001024545,新規,0,2021-11-16,2021-11-16,株式会社Ｒｏｙ　Ｊａｐａｎ,,株式会社,石川県,金沢市,畝田西２丁目１８番地１,,17,201,9200342,,,,,,,2021-11-16,1,,,,,ロイジャパン,0
210,1240001058946,新規,0,2021-11-16,2021-11-16,株式会社Ｗｏｎパートナー,,株式会社,広島県,福山市,三之丸町１１番１４号,,34,207,7200066,,,,,,,2021-11-16,1,,,,,ワンパートナー,0
212,1250001019261,新規,0,2021-11-16,2021-11-16,株式会社岡村,,株式会社,山口県,光市,大字三輪４５７番地６,,35,210,7430102,,,,,,,2021-11-16,1,,,,,オカムラ,0
214,1260001036198,新規,0,2021-11-16,2021-11-16,株式会社エフリア,,株式会社,岡山県,岡山市北区,下中野３３４番地１１０日商ビル３Ｆ,,33,101,7000973,,,,,,,2021-11-16,1,,,,,エフリア,0
220,1290801028004,新規,0,2021-11-16,2021-11-16,株式会社宝田商事,,株式会社,福岡県,北九州市若松区,大字乙丸１０２８番地３,,40,103,8080134,,,,,,,2021-11-16,1,,,,,タカラダショウジ,0
221,1290801028012,新規,0,2021-11-16,2021-11-16,株式会社ＬＩＧ,,株式会社,福岡県,田川市,大字猪国２９０５番,,40,206,8260045,,,,,,,2021-11-16,1,,,,,リグ,0
223,1290803003987,新規,0,2021-11-16,2021-11-16,リリカジャパン合同会社,,合同会社,福岡県,北九州市小倉北区,足立３丁目１番４６－１２０１号,,40,106,8020042,,,,,,,2021-11-16,1,,,,,リリカジャパン,0
226,1310001017580,新規,0,2021-11-16,2021-11-16,株式会社オフィスえん,,株式会社,長崎県,佐世保市,鹿子前町１２０番地２８,,42,202,8580922,,,,,,,2021-11-16,1,,,,,オフィスエン,0
229,1330001029194,新規,0,2021-11-16,2021-11-16,株式会社ヘルスピック,,株式会社,熊本県,熊本市北区,高平２丁目１７番９３号２０３,,43,105,8600085,,,,,,,2021-11-16,1,,,,,ヘルスピック,0
236,1340001024260,新規,0,2021-11-16,2021-11-16,株式会社ＰＩＳＣＩＳ,,株式会社,鹿児島県,奄美市,名瀬港町６番１６号,,46,222,8940026,,,,,,,2021-11-16,1,,,,,ピスキス,0
238,1350001017420,新規,0,2021-11-16,2021-11-16,株式会社Ｕｎｌｉｍｉｔｅｄ,,株式会社,宮崎県,宮崎市,江平中町１番４号ロイヤルハイツ江平１階,,45,201,8800814,,,,,,,2021-11-16,1,,,,,アンリミテッド,0
245,1380001032342,新規,0,2021-11-16,2021-11-16,株式会社ＡＯＭ,,株式会社,福島県,福島市,森合町１５番１号大地興産ビル２階,,07,201,9608002,,,,,,,2021-11-16,1,,,,,エーオーエム,0
247,1380003005057,新規,0,2021-11-16,2021-11-16,合同会社Ｃｅｅｐ,,合同会社,福島県,いわき市,平赤井比良２丁目４６ワタキテナントＣ,,07,204,9793132,,,,,,,2021-11-16,1,,,,,,0
250,1400003002860,新規,0,2021-11-16,2021-11-16,合同会社寛ぎ,,合同会社,岩手県,釜石市,甲子町第１０地割４番地１,,03,211,0260055,,,,,,,2021-11-16,1,,,,,クツロギ,0
254,1410005006438,新規,0,2021-11-16,2021-11-16,社会保険労務士法人ＳＵＣＣＥＳＳＩＯＮ,,その他の設立登記法人,秋田県,秋田市,山王臨海町４番６号アナザーワンビル３１１,,05,201,0100956,,,,,,,2021-11-16,1,,,,,サクセション,0
260,1430001085376,新規,0,2021-11-16,2021-11-16,株式会社ビーモア,,株式会社,北海道,苫小牧市,見山町２丁目６番１１号レインボーハウスＩｒｕｍｕ２０１,,01,213,0530855,,,,,,,2021-11-16,1,,,,,ビーモア,0
261,1430001085392,新規,0,2021-11-16,2021-11-16,株式会社アイディベロップメント,,株式会社,北海道,札幌市北区,北七条西２丁目６番地,,01,102,0600807,,,,,,,2021-11-16,1,,,,,アイディベロップメント,0
262,1430001085401,新規,0,2021-11-16,2021-11-16,株式会社ソミウム,,株式会社,北海道,札幌市西区,西野三条７丁目５番１５号,,01,107,0630033,,,,,,,2021-11-16,1,,,,,ソミウム,0
265,1430003013368,新規,0,2021-11-16,2021-11-16,Ｍ．Ｔｅｌｌｕｓ合同会社,,合同会社,北海道,札幌市中央区,大通西２６丁目３番５－７０１号,,01,101,0640820,,,,,,,2021-11-16,1,,,,,エムテルース,0
274,1470001018828,新規,0,2021-11-16,2021-11-16,株式会社アルバトロス,,株式会社,香川県,東かがわ市,帰来６５６番地３・２号棟３０８号室,,37,207,7692704,,,,,,,2021-11-16,1,,,,,アルバトロス,0
276,1500001023808,新規,0,2021-11-16,2021-11-16,鵬翔商事株式会社,,株式会社,愛媛県,今治市,古国分１丁目１２番１８号,,38,202,7991521,,,,,,,2021-11-16,1,,,,,ホウショウショウジ,0
277,1500001023816,新規,0,2021-11-16,2021-11-16,株式会社ＩＳＪ,,株式会社,愛媛県,松山市,萱町６丁目１３０番地１ソラール萱町２０１号,,38,201,7900813,,,,,,,2021-11-16,1,,,,,アイエスジェイ,0
279,1700150105394,新規,0,2021-11-16,2021-10-19,ひまわり会,,その他,兵庫県,神戸市長田区,名倉町５丁目２－９,,28,106,6530883,,,,,,,2021-10-19,1,,,,,ヒマワリカイ,0
280,1700150105774,新規,0,2021-11-16,2021-11-16,全国印刷製本包装機械企業年金基金,,その他,東京都,中央区,新川２丁目５番６号,,13,102,1040033,,,,,,,2021-11-16,1,,,,,ゼンコクインサツセイホンホウソウキカイキギヨウネンキンキキン,0
281,1700150105824,新規,0,2021-11-16,2021-11-16,ＷＡＹＡＭＢＡ　ＥＮＴＥＲＰＲＩＳＥＳ　ＰＲＩＶＡＴＥ　ＬＩＭＩＴＥＤ,,外国会社等,千葉県,富里市,立沢７３２Ｂ２,,12,233,2860214,スリランカ民主社会主義共和国、クルネガラ、コロンボロード、Ｎｏ．１８,,,,,,2021-11-16,1,,,,,ワヤンバエンタープライセスプライベートリミテツド,0
288,2010001222516,新規,0,2021-11-16,2021-11-16,新日本アセットマネジメント株式会社,,株式会社,東京都,千代田区,九段北１丁目３番１号,,13,101,1020073,,,,,,,2021-11-16,1,,,,,シンニホンアセットマネジメント,0
289,2010001222524,新規,0,2021-11-16,2021-11-16,株式会社ルシアンホールディングス,,株式会社,東京都,千代田区,丸の内１丁目８番２号,,13,101,1000005,,,,,,,2021-11-16,1,,,,,ルシアンホールディングス,0
293,2010003036294,新規,0,2021-11-16,2021-11-16,合同会社ＮｅｗＧＡＴＥ,,合同会社,東京都,中央区,銀座１丁目２２番１１号銀座大竹ビジデンス２階,,13,102,1040061,,,,,,,2021-11-16,1,,,,,ニューゲート,0
297,2010005034214,新規,0,2021-11-16,2021-11-16,宮内税理士法人,,その他の設立登記法人,東京都,千代田区,神田須田町１丁目９番地,,13,101,1010041,,,,,,,2021-11-16,1,,,,,ミヤウチ,0
299,2010105002137,新規,0,2021-11-16,2021-11-16,医療法人社団育幸会,,その他の設立登記法人,東京都,八王子市,横山町２２番３号メディカルタワー八王子２階,,13,201,1920081,,,,,,,2021-11-16,1,,,,,イクコウカイ,0
311,2010401163863,新規,0,2021-11-16,2021-11-16,株式会社Ｒｅｃｔａ,,株式会社,東京都,港区,六本木５丁目１６－５０デュープレックスエムズ４１３号室,,13,103,1060032,,,,,,,2021-11-16,1,,,,,レクタ,0
312,2010401163938,新規,0,2021-11-16,2021-11-16,ＬＳ－ＳＨＩＰ第２２号株式会社,,株式会社,東京都,港区,六本木１丁目６番１号,,13,103,1060032,,,,,,,2021-11-16,1,,,,,エルエスシップダイニジュウニゴウ,0
314,2010403026548,新規,0,2021-11-16,2021-11-16,合同会社クロードラボ,,合同会社,東京都,港区,南青山２丁目２番１５号,,13,103,1070062,,,,,,,2021-11-16,1,,,,,クロードラボ,0
317,2010603009253,新規,0,2021-11-16,2021-11-16,合同会社仁遊社,,合同会社,東京都,江東区,常盤１丁目４番３号Ｓ．Ｋハイツ６０１,,13,108,1350006,,,,,,,2021-11-16,1,,,,,ジンユウシャ,0
319,2010801032486,新規,0,2021-11-16,2021-11-16,株式会社ＲＳＣＰ,,株式会社,東京都,大田区,田園調布本町９番１０号,,13,111,1450072,,,,,,,2021-11-16,1,,,,,アールエスシーピー,0
321,2010803003956,新規,0,2021-11-16,2021-11-16,合同会社ゴールドラッシュ,,合同会社,東京都,大田区,蒲田５丁目１５番３号第９６東京ビル２Ｆ,,13,111,1440052,,,,,,,2021-11-16,1,,,,,ゴールドラッシュ,0
323,2010805002898,新規,0,2021-11-16,2021-11-16,税理士法人仁科忠二郎事務所,,その他の設立登記法人,東京都,大田区,蒲田本町２丁目４番２号アクシード蒲田本町５Ｆ,,13,111,1440053,,,,,,,2021-11-16,1,,,,,ニシナチュウジロウジムショ,0
327,2010901049785,新規,0,2021-11-16,2021-11-16,株式会社カンザス,,株式会社,東京都,世田谷区,北沢１丁目９番２号,,13,112,1550031,,,,,,,2021-11-16,1,,,,,カンザス,0
328,2010901049793,新規,0,2021-11-16,2021-11-16,株式会社ＣＥＩＮＥ,,株式会社,東京都,世田谷区,三軒茶屋２丁目２５番７号ニューウェルハイツ第２三軒茶屋１０３,,13,112,1540024,,,,,,,2021-11-16,1,,,,,セーヌ,0
329,2010901049810,新規,0,2021-11-16,2021-11-16,エニー株式会社,,株式会社,東京都,世田谷区,松原５丁目５７番８号村上ビル１Ｆ,,13,112,1560043,,,,,,,2021-11-16,1,,,,,エニー,0
337,2011001144023,新規,0,2021-11-16,2021-11-16,株式会社ａｓａｉ,,株式会社,東京都,渋谷区,神宮前６丁目２３番４号桑野ビル２Ｆ,,13,113,1500001,,,,,,,2021-11-16,1,,,,,アサイ,0
338,2011001144072,新規,0,2021-11-16,2021-11-16,株式会社エックスエム,,株式会社,東京都,目黒区,中目黒１丁目３番３号,,13,110,1530061,,,,,,,2021-11-16,1,,,,,エックスエム,0
340,2011003013713,新規,0,2021-11-16,2021-11-16,まごころ美建合同会社,,合同会社,東京都,渋谷区,東１丁目２６番３２号,,13,113,1500011,,,,,,,2021-11-16,1,,,,,マゴコロビケン,0
342,2011201023415,新規,0,2021-11-16,2021-11-16,タカラ商事株式会社,,株式会社,東京都,中野区,中央３丁目１３番１１－７０３号,,13,114,1640011,,,,,,,2021-11-16,1,,,,,タカラショウジ,0
343,2011401023850,新規,0,2021-11-16,2021-11-16,ＧＯ　Ｇｏｌｆ株式会社,,株式会社,東京都,板橋区,大山金井町４０番１０号,,13,119,1730024,,,,,,,2021-11-16,1,,,,,ゴーゴルフ,0
346,2011505002437,新規,0,2021-11-16,2021-11-16,一般社団法人地域と介護をつなぐ会,,その他の設立登記法人,東京都,荒川区,東尾久３丁目３０番６号ロイヤル東尾久２０１,,13,118,1160012,,,,,,,2021-11-16,1,,,,,,0
359,2012401038517,新規,0,2021-11-16,2021-11-16,プラネットエアコン株式会社,,株式会社,東京都,調布市,深大寺町２５６２番地,,13,208,,,,,,,,2021-11-16,1,,,,,プラネットエアコン,0
361,2012403005110,新規,0,2021-11-16,2021-11-16,合同会社一旬,,合同会社,東京都,武蔵野市,吉祥寺南町２丁目４番３号,,13,203,1800003,,,,,,,2021-11-16,1,,,,,イッシュン,0
366,2012803002649,新規,0,2021-11-16,2021-11-16,合同会社ナビゲート,,合同会社,東京都,立川市,曙町３丁目１８番２１号,,13,202,1900012,,,,,,,2021-11-16,1,,,,,ナビゲート,0
373,2020001143950,新規,0,2021-11-16,2021-11-16,株式会社ＥＱＵＡＬ,,株式会社,神奈川県,横浜市南区,南太田１丁目４９番５０－２号,,14,105,2320006,,,,,,,2021-11-16,1,,,,,イコール,0
406,2060001034295,新規,0,2021-11-16,2021-11-16,株式会社ＪＢＳ,,株式会社,栃木県,鹿沼市,日吉町９０７番地５,,09,205,3220074,,,,,,,2021-11-16,1,,,,,ジェイビーエス,0
410,2060003003868,新規,0,2021-11-16,2021-11-16,合同会社ＩＧｕｎｉｃｏ,,合同会社,栃木県,那須塩原市,東原３番地７３４,,09,213,3250034,,,,,,,2021-11-16,1,,,,,,0
411,2070003004295,新規,0,2021-11-16,2021-11-16,合同会社郷間コーポレーション,,合同会社,群馬県,吾妻郡中之条町,大字横尾１６４８番地,,10,421,3770415,,,,,,,2021-11-16,1,,,,,ゴウマコーポレーション,0
412,2080001024583,新規,0,2021-11-16,2021-11-16,株式会社ケイ・プランニング,,株式会社,静岡県,静岡市駿河区,下島３６９番地の３,,22,102,4228037,,,,,,,2021-11-16,1,,,,,ケイプランニング,0
416,2080101022917,新規,0,2021-11-16,2021-11-16,株式会社竹内商店,,株式会社,静岡県,三島市,佐野見晴台２丁目３２番地の１６,,22,206,4110041,,,,,,,2021-11-16,1,,,,,タケウチショウテン,0
421,2100001034811,新規,0,2021-11-16,2021-11-16,株式会社みらくる,,株式会社,長野県,小諸市,大字市９５０番地,,20,208,3840083,,,,,,,2021-11-16,1,,,,,ミラクル,0
427,2110001036195,新規,0,2021-11-16,2021-11-16,株式会社優雅,,株式会社,新潟県,新潟市江南区,梅見台３丁目１番１３号,,15,104,9500140,,,,,,,2021-11-16,1,,,,,ユウガ,0
435,2120001241876,新規,0,2021-11-16,2021-11-16,株式会社大吉建設,,株式会社,大阪府,大阪市淀川区,三津屋中３丁目８番２０号２Ｆ,,27,123,5320036,,,,,,,2021-11-16,1,,,,,ダイキチケンセツ,0
436,2120001241884,新規,0,2021-11-16,2021-11-16,株式会社Ｉｊｕ,,株式会社,大阪府,大阪市中央区,北浜３丁目１番２２号,,27,128,5410041,,,,,,,2021-11-16,1,,,,,イジュ,0
437,2120001241892,新規,0,2021-11-16,2021-11-16,株式会社ＭＴＳ,,株式会社,大阪府,大阪市生野区,桃谷４丁目１－２ネオコーポ桃谷５１５号室,,27,116,5440034,,,,,,,2021-11-16,1,,,,,エムティエス,0
440,2120003020592,新規,0,2021-11-16,2021-11-16,合同会社ＤＯＤＯ,,合同会社,大阪府,大阪市福島区,福島１丁目４番４０号ＪＢＳＬ梅田ビル８０１,,27,103,5530003,,,,,,,2021-11-16,1,,,,,ドォドォ,0
443,2120101064649,新規,0,2021-11-16,2021-11-16,株式会社Ｎｅｘｔ　Ｉｎ,,株式会社,大阪府,堺市美原区,多治井２３２番地５６,,27,147,5870012,,,,,,,2021-11-16,1,,,,,ネクストイン,0
450,2122001035358,新規,0,2021-11-16,2021-11-16,株式会社リアンファミーユ,,株式会社,大阪府,東大阪市,小阪２丁目６番３８号,,27,227,5770801,,,,,,,2021-11-16,1,,,,,リアンファミーユ,0
451,2130001070556,新規,0,2021-11-16,2021-11-16,株式会社アスビオ,,株式会社,京都府,京都市右京区,梅津北浦町１番地１メゾンこやま南棟１階,,26,108,6150934,,,,,,,2021-11-16,1,,,,,アスビオ,0
454,2140001123833,新規,0,2021-11-16,2021-11-16,恒縁株式会社,,株式会社,兵庫県,神戸市西区,井吹台北町４丁目６２番１号,,28,111,6512244,,,,,,,2021-11-16,1,,,,,コウエン,0
455,2140001123841,新規,0,2021-11-16,2021-11-16,株式会社ＦＯＯＤ　ＭＥＤＩＡ　ＪＡＰＡＮ,,株式会社,兵庫県,加古郡稲美町,六分一１０４５番地の１,,28,381,6751112,,,,,,,2021-11-16,1,,,,,フードメディアジャパン,0
456,2140001123858,新規,0,2021-11-16,2021-11-16,株式会社エタップ,,株式会社,兵庫県,芦屋市,西山町１２番地２－２０２,,28,206,6590083,,,,,,,2021-11-16,1,,,,,エタップ,0
457,2140001123882,新規,0,2021-11-16,2021-11-16,奏ワークス株式会社,,株式会社,兵庫県,神戸市西区,北別府４丁目１４－４－２０１,,28,111,6512117,,,,,,,2021-11-16,1,,,,,カナデワークス,0
458,2140001123890,新規,0,2021-11-16,2021-11-16,株式会社伸栄金属,,株式会社,兵庫県,丹波市,青垣町東芦田１３５８番地２,00124872,28,223,6693801,,,,,,,2021-11-16,1,,,,,シンエイキンゾク,0
459,2140001123899,新規,0,2021-11-16,2021-11-16,株式会社太洋物産,,株式会社,兵庫県,姫路市,飯田３丁目１０５番地５,,28,201,6700974,,,,,,,2021-11-16,1,,,,,タイヨウブッサン,0
460,2140003016985,新規,0,2021-11-16,2021-11-16,合同会社ＲＥ　ＧＲＯＵＰ,,合同会社,兵庫県,神戸市長田区,林山町１番地の１デメテル高取台１１０４号,,28,106,6530861,,,,,,,2021-11-16,1,,,,,リグループ,0
461,2140003016993,新規,0,2021-11-16,2021-11-16,さこねい合同会社,,合同会社,兵庫県,姫路市,二階町１８ＡＮＧＥＲＯ二階町４Ｆ,,28,201,6700922,,,,,,,2021-11-16,1,,,,,サコネイ,0
466,2150001025104,新規,0,2021-11-16,2021-11-16,株式会社アトリエクチュール,,株式会社,奈良県,大和郡山市,北西町１２３番地１ローレルコート郡山筒井１１５号,,29,203,6391025,,,,,,,2021-11-16,1,,,,,アトリエクチュール,0
468,2160001023817,新規,0,2021-11-16,2021-11-16,株式会社実福,,株式会社,滋賀県,彦根市,葛籠町１４６番地,,25,202,5220212,,,,,,,2021-11-16,1,,,,,ミフク,0
470,2170001016869,新規,0,2021-11-16,2021-11-16,和歌山ｓｔｙｌｅ株式会社,,株式会社,和歌山県,海南市,且来３０２－２,,30,202,6420015,,,,,,,2021-11-16,1,,,,,ワカヤマスタイル,0
472,2170005006932,新規,0,2021-11-16,2021-11-16,つなぐ行政書士法人,,その他の設立登記法人,和歌山県,和歌山市,五番丁１０番地五番丁ビル３Ｆ,,30,201,6408141,,,,,,,2021-11-16,1,,,,,ツナグ,0
481,2180001148711,新規,0,2021-11-16,2021-11-16,アンドユー株式会社,,株式会社,愛知県,名古屋市天白区,高坂町２７６番地の１,,23,116,4680025,,,,,,,2021-11-16,1,,,,,アンドユー,0
482,2180001148728,新規,0,2021-11-16,2021-11-16,株式会社３ｅサポート,,株式会社,愛知県,半田市,乙川若宮町２２番地の５,,23,205,4750063,,,,,,,2021-11-16,1,,,,,スリーイーサポート,0
483,2180001148736,新規,0,2021-11-16,2021-11-16,株式会社Ｓｏｃｉａｌ　Ｗｏｒｋｓ,,株式会社,愛知県,一宮市,萩原町萩原字御茶屋１８番地５,,23,203,4910353,,,,,,,2021-11-16,1,,,,,ソーシャルワークス,0
495,2190001028862,新規,0,2021-11-16,2021-11-16,株式会社三洋リファイン,,株式会社,三重県,津市,中河原１１１番地２１,,24,201,5140018,,,,,,,2021-11-16,1,,,,,サンヨウリファイン,0
496,2190003003822,新規,0,2021-11-16,2021-11-16,合同会社ＰＯＬＡＲＳＴＡＲ,,合同会社,三重県,松阪市,石津町１４０番地４５,,24,204,5150006,,,,,,,2021-11-16,1,,,,,ポーラスター,0
501,2220001024536,新規,0,2021-11-16,2021-11-16,株式会社映像企画ククリヒメ,,株式会社,石川県,白山市,鶴来大国町西５６４番地,,17,210,9202133,,,,,,,2021-11-16,1,,,,,エイゾウキカクククリヒメ,0
504,2230001019097,新規,0,2021-11-16,2021-11-16,株式会社Ｈ＆Ｆ,,株式会社,富山県,高岡市,石瀬５２０番地２,,16,202,9330011,,,,,,,2021-11-16,1,,,,,エイチアンドエフ,0
505,2240001058929,新規,0,2021-11-16,2021-11-16,株式会社ジョブチェンジ,,株式会社,広島県,福山市,引野町２丁目１０番７号,,34,207,7210942,,,,,,,2021-11-16,1,,,,,ジョブチェンジ,0
508,2250001019260,新規,0,2021-11-16,2021-11-16,株式会社キンシュウ,,株式会社,山口県,岩国市,麻里布町４丁目１８番１８号,,35,208,7400018,,,,,,,2021-11-16,1,,,,,キンシュウ,0
509,2250003002941,新規,0,2021-11-16,2021-11-16,合同会社ＢＬＡＳＴＢＵＩＬＤ,,合同会社,山口県,宇部市,大字瓜生野字下河内４９１－１,,35,202,7590135,,,,,,,2021-11-16,1,,,,,ブラストビルド,0
511,2260001036222,新規,0,2021-11-16,2021-11-16,株式会社ハッピーラビット,,株式会社,岡山県,倉敷市,水島南瑞穂町１３番２６号,,33,202,7128026,,,,,,,2021-11-16,1,,,,,ハッピーラビット,0
514,2270001008393,新規,0,2021-11-16,2021-11-16,株式会社和星水産,,株式会社,鳥取県,東伯郡琴浦町,大字別所３１１番地,,31,371,6892502,,,,,,,2021-11-16,1,,,,,ワセイスイサン,0
517,2290001095389,新規,0,2021-11-16,2021-11-16,十和株式会社,,株式会社,福岡県,福岡市中央区,大名１丁目２番２０－６０７号,,40,133,8100041,,,,,,,2021-11-16,1,,,,,トワ,0
518,2290001095397,新規,0,2021-11-16,2021-11-16,株式会社ＢＬＵＥＮＯＴＥ＆Ｅｄｕ．,,株式会社,福岡県,福岡市南区,鶴田４丁目４２番９号,,40,134,8111352,,,,,,,2021-11-16,1,,,,,ブルーノートアンドエデュ,0
519,2290001095406,新規,0,2021-11-16,2021-11-16,株式会社田中不動産,,株式会社,福岡県,福岡市南区,和田１丁目２番２８号,,40,134,8111343,,,,,,,2021-11-16,1,,,,,タナカフドウサン,0
527,2290801028003,新規,0,2021-11-16,2021-11-16,木村総建株式会社,,株式会社,福岡県,遠賀郡芦屋町,花美坂１８番１０号,,40,381,8070143,,,,,,,2021-11-16,1,,,,,キムラソウケン,0
532,2310003004213,新規,0,2021-11-16,2021-11-16,Ｙ＆ＹＨ合同会社,,合同会社,長崎県,佐世保市,東浜町６８６番地１１３,,42,202,8571172,,,,,,,2021-11-16,1,,,,,ワイアンドワイエイチ,0
534,2330001029185,新規,0,2021-11-16,2021-11-16,タケダエンタープライズ株式会社,,株式会社,熊本県,合志市,幾久富１７５８番地１９０,,43,216,8611112,,,,,,,2021-11-16,1,,,,,タケダエンタープライズ,0
535,2330001029193,新規,0,2021-11-16,2021-11-16,株式会社人吉ライン工業,,株式会社,熊本県,人吉市,上林町１２９１番地１９,,43,203,8680081,,,,,,,2021-11-16,1,,,,,ヒトヨシラインコウギョウ,0
541,2340001024276,新規,0,2021-11-16,2021-11-16,株式会社ステキカク,,株式会社,鹿児島県,奄美市,名瀬港町１６番１２号（平ビル５０２号）,,46,222,8940026,,,,,,,2021-11-16,1,,,,,ステキカク,0
552,2370001047828,新規,0,2021-11-16,2021-11-16,株式会社ランドメイク,,株式会社,宮城県,遠田郡涌谷町,字六軒町１７番地,,04,501,9870106,,,,,,,2021-11-16,1,,,,,ランドメイク,0
556,2380003005056,新規,0,2021-11-16,2021-11-16,合同会社おいしい屋,,合同会社,福島県,白河市,東釜子字東谷地山１２番地３,,07,205,9610303,,,,,,,2021-11-16,1,,,,,オイシイヤ,0
561,2400001015673,新規,0,2021-11-16,2021-11-16,株式会社アイ・テック,,株式会社,岩手県,紫波郡矢巾町,流通センター南２丁目４番２９号,,03,322,0200891,,,,,,,2021-11-16,1,,,,,アイテック,0
562,2410001013016,新規,0,2021-11-16,2021-11-16,株式会社Ｌｏｃａｌ　Ｄｅｓｉｇｎ,,株式会社,秋田県,秋田市,八橋大畑２丁目３番１号ＷｈｉｔｅＣｕｂｅ１Ｆ,,05,201,0100962,,,,,,,2021-11-16,1,,,,,ローカルデザイン,0
565,2430001085375,新規,0,2021-11-16,2021-11-16,株式会社ＰＲｓｔｏｒｅ,,株式会社,北海道,江別市,野幌若葉町９８－２８,,01,217,0690831,,,,,,,2021-11-16,1,,,,,ピーアールストア,0
566,2430001085391,新規,0,2021-11-16,2021-11-16,株式会社ＳＭＴ,,株式会社,北海道,千歳市,みどり台北２丁目１０番６号,,01,224,0660083,,,,,,,2021-11-16,1,,,,,エスエムティー,0
567,2430001085409,新規,0,2021-11-16,2021-11-16,ニセコ林業株式会社,,株式会社,北海道,小樽市,蘭島１丁目１０－３７,,01,203,0482562,,,,,,,2021-11-16,1,,,,,ニセコリンギョウ,0
569,2440003001429,新規,0,2021-11-16,2021-11-16,合同会社海綾,,合同会社,北海道,函館市,湯川町３丁目２５番２号,,01,202,0420932,,,,,,,2021-11-16,1,,,,,マリン,0
583,2500001023807,新規,0,2021-11-16,2021-11-16,株式会社フルーツアイランド・マルエム直販,,株式会社,愛媛県,南宇和郡愛南町,御荘平山９７３番地,,38,506,7984102,,,,,,,2021-11-16,1,,,,,フルーツアイランドマルエムチョクハン,0
584,2500001023815,新規,0,2021-11-16,2021-11-16,株式会社大塚工務店,,株式会社,愛媛県,宇和島市,和霊東町１丁目３番１号,,38,203,7980017,,,,,,,2021-11-16,1,,,,,オオツカコウムテン,0
586,2700150105773,新規,0,2021-11-16,2021-11-16,北海道病院企業年金基金,,その他,北海道,札幌市中央区,北一条西７丁目３－１,,01,101,0600001,,,,,,,2021-11-16,1,,,,,ホツカイドウビヨウインキギヨウネンキンキキン,0
587,2700150105798,新規,0,2021-11-16,2021-11-16,ＬＡＫＡＺ　ＴＲＡＤＩＮＧ,,外国会社等,千葉県,四街道市,大日８３６番地Ｃ,,12,228,2840001,スリランカ民主社会主義共和国、グルタラワ、インディガハゴダ、モウラナマンジル,,,,,,2021-11-16,1,,,,,ラカズトレーデイング,0
588,2700150105807,新規,0,2021-11-16,2021-11-16,ＭＡＡＳＨ　ＣＡＲ　ＷＩＮＧＳ,,外国会社等,千葉県,佐倉市,大篠塚１３５０番地１－Ｂ－２,,12,212,2850806,スリランカ民主社会主義共和国、ウクウェラ、ワラカムラ、デヒピティヤ、１５－２,,,,,,2021-11-16,1,,,,,マーシユカーウイングス,0
589,2700150105823,新規,0,2021-11-16,2021-11-16,ＷＯＮ　ＴＥＣＨ　Ｉｎｔｅｒｎａｔｉｏｎａｌ　Ｐｒｉｖａｔｅ　Ｌｉｍｉｔｅｄ,,外国会社等,千葉県,四街道市,大日８３６番地Ａ,,12,228,2840001,スリランカ民主社会主義共和国、アクラナ、ブルゴホテンナ、２９２,,,,,,2021-11-16,1,,,,,ウオンテツクインターナシヨナルプライベートリミテツド,0
597,3010001222523,新規,0,2021-11-16,2021-11-16,Ｂｌａｃｋｔｈｏｒｎｅ株式会社,,株式会社,東京都,千代田区,霞が関３丁目２番５号霞が関ビル４階,,13,101,1000013,,,,,,,2021-11-16,1,,,,,ブラックソーン,0
598,3010001222548,新規,0,2021-11-16,2021-11-16,株式会社三共消毒ホールディングス,,株式会社,東京都,千代田区,有楽町２丁目１０番１号,,13,101,1000006,,,,,,,2021-11-16,1,,,,,サンキョウショウドクホールディングス,0
599,3010001222589,新規,0,2021-11-16,2021-11-16,株式会社ＦＥＥＴ,,株式会社,東京都,千代田区,九段南１丁目５番６号りそな九段ビル５階ＫＳフロア,,13,101,1020074,,,,,,,2021-11-16,1,,,,,フィート,0
600,3010001222597,新規,0,2021-11-16,2021-11-16,株式会社ＳＵＬＴＲＹ,,株式会社,東京都,中央区,日本橋本町３丁目１１－５、１Ｆ,,13,102,1030023,,,,,,,2021-11-16,1,,,,,サルトリィ,0
601,3010003036310,新規,0,2021-11-16,2021-11-16,美温活Ｌａｂｏ合同会社,,合同会社,東京都,中央区,月島４丁目９－３,,13,102,1040052,,,,,,,2021-11-16,1,,,,,ビオンカツラボ,0
603,3010005034213,新規,0,2021-11-16,2021-11-16,一般社団法人ＳＰＯＴＬＩＧＨＴ,,その他の設立登記法人,東京都,中央区,銀座１丁目２２番１１号銀座大竹ビジデンス２Ｆ,,13,102,1040061,,,,,,,2021-11-16,1,,,,,スポットライト,0
604,3010101014952,新規,0,2021-11-16,2021-11-16,株式会社ハウスステーション,,株式会社,東京都,八王子市,南大沢２丁目２０６番地１０,,13,201,1920364,,,,,,,2021-11-16,1,,,,,ハウスステーション,0
611,3010401163937,新規,0,2021-11-16,2021-11-16,ＬＳ－ＳＨＩＰ第２３号株式会社,,株式会社,東京都,港区,六本木１丁目６番１号,,13,103,1060032,,,,,,,2021-11-16,1,,,,,エルエスシップダイニジュウサンゴウ,0
613,3010403026522,新規,0,2021-11-16,2021-11-16,合同会社ａｓａｐｉｌａｔｅｓ,,合同会社,東京都,港区,南青山２丁目１０番８号ＭＤビル３Ｆ,,13,103,1070062,,,,,,,2021-11-16,1,,,,,アサピラティス,0
620,3010501048105,新規,0,2021-11-16,2021-11-16,株式会社ＰＭＰ,,株式会社,東京都,台東区,浅草橋４丁目１０番４－４０１号,,13,106,1110053,,,,,,,2021-11-16,1,,,,,ピーエムピー,0
624,3010701041784,新規,0,2021-11-16,2021-11-16,株式会社おさんぽ,,株式会社,東京都,品川区,西大井４丁目２４－１５,,13,109,1400015,,,,,,,2021-11-16,1,,,,,オサンポ,0
625,3010701041792,新規,0,2021-11-16,2021-11-16,株式会社彩－ｓａｉ,,株式会社,東京都,品川区,東五反田１丁目７－８,,13,109,1410022,,,,,,,2021-11-16,1,,,,,サイ,0
628,3010801032485,新規,0,2021-11-16,2021-11-16,株式会社オズ・クラフト,,株式会社,東京都,大田区,南蒲田１丁目２２番１７－７０４号,,13,111,1440035,,,,,,,2021-11-16,1,,,,,オズクラフト,0
632,3010901049818,新規,0,2021-11-16,2021-11-16,大和ホールディングス株式会社,,株式会社,東京都,世田谷区,三軒茶屋１丁目１６番９号,,13,112,1540024,,,,,,,2021-11-16,1,,,,,ダイワホールディングス,0
647,3011001144006,新規,0,2021-11-16,2021-11-16,株式会社セキソウリュウ,,株式会社,東京都,渋谷区,千駄ヶ谷２丁目８番１７号,,13,113,1510051,,,,,,,2021-11-16,1,,,,,セキソウリュウ,0
648,3011001144030,新規,0,2021-11-16,2021-11-16,株式会社Ｆｉｎｏｖｏ,,株式会社,東京都,渋谷区,渋谷２丁目１９－１５宮益坂ビルディング６０９,,13,113,1500002,,,,,,,2021-11-16,1,,,,,フィノボ,0
649,3011001144047,新規,0,2021-11-16,2021-11-16,株式会社ＲＩＫＫＡ　ｄｅｓｉｇｎ　ＬＡＢ．,,株式会社,東京都,目黒区,上目黒２丁目４４番９－７０２号,,13,110,1530051,,,,,,,2021-11-16,1,,,,,リッカデザインラボ,0
652,3011101096915,新規,0,2021-11-16,2021-11-16,株式会社マクロノード,,株式会社,東京都,新宿区,西新宿４丁目１４－７新宿パークサイド永谷６０１号室,,13,104,1600023,,,,,,,2021-11-16,1,,,,,マクロノード,0
653,3011101096931,新規,0,2021-11-16,2021-11-16,株式会社ＮｅＸＴ,,株式会社,東京都,新宿区,西新宿３丁目３番１３号西新宿水間ビル６Ｆ,,13,104,1600023,,,,,,,2021-11-16,1,,,,,ネクスト,0
654,3011103011178,新規,0,2021-11-16,2021-11-16,合同会社Ｎａｎｋａｉｄｏ,,合同会社,東京都,新宿区,市谷仲之町１番１０－２０２号,,13,104,1620064,,,,,,,2021-11-16,1,,,,,ナンカイドウ,0
657,3011401023841,新規,0,2021-11-16,2021-11-16,株式会社ジェイビーウェーブ,,株式会社,東京都,板橋区,赤塚新町３丁目１５番９号,,13,119,1750093,,,,,,,2021-11-16,1,,,,,ジェイビーウェーブ,0
660,3011503004970,新規,0,2021-11-16,2021-11-16,合同会社岩倉商事,,合同会社,東京都,北区,東十条２丁目１２番４号,,13,117,1140001,,,,,,,2021-11-16,1,,,,,イワクラショウジ,0
670,3011805003126,新規,0,2021-11-16,2021-11-16,一般社団法人日本協靭推進機構,,その他の設立登記法人,東京都,足立区,本木１丁目２０番８号,,13,121,1230853,,,,,,,2021-11-16,1,,,,,ニホンキョウジンスイシンキコウ,0
672,3012701016774,新規,0,2021-11-16,2021-11-16,株式会社Ｓｔｅａｄｙ　Ｈｏｍｅ,,株式会社,東京都,西東京市,東伏見４丁目１番１号,,13,229,2020021,,,,,,,2021-11-16,1,,,,,ステディーホーム,0
673,3012703002351,新規,0,2021-11-16,2021-11-16,合同会社Ｙ．Ｍ．Ｄ,,合同会社,東京都,東村山市,久米川町４丁目８番地１０,,13,213,1890003,,,,,,,2021-11-16,1,,,,,ワイエムディ,0
682,3020001143859,新規,0,2021-11-16,2021-11-16,ＬＡＪ　Ｅｎｔｅｒｐｒｉｓｅ株式会社,,株式会社,神奈川県,横浜市旭区,東希望が丘１０１の４,,14,112,2410826,,,,,,,2021-11-16,1,,,,,,0
683,3020001143974,新規,0,2021-11-16,2021-11-16,株式会社ソルスタ,,株式会社,神奈川県,横浜市戸塚区,上倉田町８８４番地１戸塚ハイライズ７３９号,,14,110,2440816,,,,,,,2021-11-16,1,,,,,ソルスタ,0
685,3021001074516,新規,0,2021-11-16,2021-11-16,株式会社Ｃｏｎｎｅｃｔ,,株式会社,神奈川県,相模原市南区,上鶴間本町３丁目１３番１０－３０６号,,14,153,2520318,,,,,,,2021-11-16,1,,,,,コネクト,0
686,3021001074524,新規,0,2021-11-16,2021-11-16,株式会社Ｓａｎｐｏｔｅａｍ,,株式会社,神奈川県,藤沢市,大鋸２丁目７番１０号,,14,205,2510002,,,,,,,2021-11-16,1,,,,,サンポチーム,0
689,3021003011104,新規,0,2021-11-16,2021-11-16,合同会社聖庵,,合同会社,神奈川県,相模原市南区,上鶴間本町７丁目３１番２９号,,14,153,2520318,,,,,,,2021-11-16,1,,,,,セイアン,0
696,3030001145359,新規,0,2021-11-16,2021-11-16,株式会社ジャパン唐和木業,,株式会社,埼玉県,吉川市,大字関新田１１３２番地１,,11,243,3420014,,,,,,,2021-11-16,1,,,,,ジャパントウワモクギョウ,0
710,3040001120930,新規,0,2021-11-16,2021-11-16,株式会社ＤｅｅｐＶａｌｌｅｙ,,株式会社,千葉県,松戸市,本町１５－４ハマトモビル４１０号室,,12,207,2710091,,,,,,,2021-11-16,1,,,,,ディープバレイ,0
716,3050001050152,新規,0,2021-11-16,2021-11-16,株式会社桜サービス,,株式会社,茨城県,小美玉市,田木谷１０２７番地１８,,08,236,3113435,,,,,,,2021-11-16,1,,,,,サクラサービス,0
722,3060003003867,新規,0,2021-11-16,2021-11-16,合同会社綾霞,,合同会社,栃木県,那須烏山市,神長４７４番１,,09,215,3210632,,,,,,,2021-11-16,1,,,,,アヤカ,0
723,3070001038641,新規,0,2021-11-16,2021-11-16,福田建設株式会社,,株式会社,群馬県,みどり市,笠懸町鹿３８２９番地３,,10,212,3792313,,,,,,,2021-11-16,1,,,,,フクダケンセツ,0
724,3070001038658,新規,0,2021-11-16,2021-11-16,株式会社エヌケイエス,,株式会社,群馬県,前橋市,小屋原町１０８１番地６,,10,201,3792121,,,,,,,2021-11-16,1,,,,,エヌケイエス,0
730,3080401025478,新規,0,2021-11-16,2021-11-16,ハドラ機械販売株式会社,,株式会社,静岡県,浜松市北区,都田町８１７７番地の５,,22,135,4312102,,,,,,,2021-11-16,1,,,,,ハドラキカイハンバイ,0
749,3120101064656,新規,0,2021-11-16,2021-11-16,株式会社エボリューション,,株式会社,大阪府,堺市美原区,さつき野西１丁目７番地１２,,27,147,5870031,,,,,,,2021-11-16,1,,,,,エボリューション,0
752,3120901045178,新規,0,2021-11-16,2021-11-16,株式会社ぱぴるす,,株式会社,大阪府,豊中市,庄内栄町１丁目１１番１７号,,27,203,5610834,,,,,,,2021-11-16,1,,,,,パピルス,0
753,3120903003910,新規,0,2021-11-16,2021-11-16,合同会社ＷＡＮＤＥＲＬＵＳＴ,,合同会社,大阪府,豊中市,東豊中町５丁目１９番２号,,27,203,5600003,,,,,,,2021-11-16,1,,,,,ワンダーラスト,0
755,3122001035357,新規,0,2021-11-16,2021-11-16,株式会社ＴＢファクトリー,,株式会社,大阪府,八尾市,太田新町１丁目２１７番地の１５,,27,212,5810039,,,,,,,2021-11-16,1,,,,,ティービーファクトリー,0
768,3140001123832,新規,0,2021-11-16,2021-11-16,ｓｏｍａ株式会社,,株式会社,兵庫県,神戸市垂水区,塩屋町５丁目１５番８－４０６号,,28,108,6550872,,,,,,,2021-11-16,1,,,,,ソーマ,0
769,3140001123840,新規,0,2021-11-16,2021-11-16,Ｅｄｕｍｕｓｅ株式会社,,株式会社,兵庫県,神戸市中央区,浪花町５６起業プラザひょうご内,,28,110,6500035,,,,,,,2021-11-16,1,,,,,エデュミューズ,0
770,3140001123857,新規,0,2021-11-16,2021-11-16,マサヤ株式会社,,株式会社,兵庫県,明石市,朝霧南町３丁目１６番５８号,,28,203,6730870,,,,,,,2021-11-16,1,,,,,マサヤ,0
771,3140001123865,新規,0,2021-11-16,2021-11-16,株式会社ＳＩコンサルティング,,株式会社,兵庫県,神戸市東灘区,田中町４丁目２－５坂根ビル２階,,28,101,6580081,,,,,,,2021-11-16,1,,,,,エスアイコンサルティング,0
772,3140001123898,新規,0,2021-11-16,2021-11-16,カリン株式会社,,株式会社,兵庫県,神戸市中央区,海岸通５丁目２番２０－３０１号,,28,110,6500024,,,,,,,2021-11-16,1,,,,,カリン,0
775,3140003016992,新規,0,2021-11-16,2021-11-16,合同会社矢崎,,合同会社,兵庫県,加古川市,野口町古大内２２６番地ハウス蔵２０１号,,28,210,6750014,,,,,,,2021-11-16,1,,,,,ヤサキ,0
778,3150001025103,新規,0,2021-11-16,2021-11-16,株式会社Ｉｎｔｅｒｂｅｉｎｇ,,株式会社,奈良県,天理市,田井庄町３０６番地６,,29,204,6320071,,,,,,,2021-11-16,1,,,,,インタービーイング,0
779,3150003002546,新規,0,2021-11-16,2021-11-16,合同会社Ｋｅｉｔｏ,,合同会社,奈良県,生駒市,北新町６番２１号,,29,209,6300245,,,,,,,2021-11-16,1,,,,,ケイト,0
780,3160001023816,新規,0,2021-11-16,2021-11-16,株式会社喜伝,,株式会社,滋賀県,彦根市,葛籠町１４６番地,,25,202,5220212,,,,,,,2021-11-16,1,,,,,キデン,0
783,3170001016868,新規,0,2021-11-16,2021-11-16,ミライズカンパニー株式会社,,株式会社,和歌山県,新宮市,佐野９１６番地の６,,30,207,6470071,,,,,,,2021-11-16,1,,,,,ミライズカンパニー,0
784,3170003001661,新規,0,2021-11-16,2021-11-16,合同会社ＧＢＶ,,合同会社,和歌山県,岩出市,山７８６番地の２,,30,209,6496258,,,,,,,2021-11-16,1,,,,,ジービーヴィ,0
787,3180001148710,新規,0,2021-11-16,2021-11-16,株式会社三希デザイン,,株式会社,愛知県,名古屋市緑区,万場山２丁目８０９番地３,,23,114,4580043,,,,,,,2021-11-16,1,,,,,サンキデザイン,0
788,3180001148727,新規,0,2021-11-16,2021-11-16,株式会社Ｉ．Ｗ．Ｕ,,株式会社,愛知県,名古屋市守山区,天子田１丁目８０２番地,,23,113,4630037,,,,,,,2021-11-16,1,,,,,アイダブリュー,0
796,3190001028861,新規,0,2021-11-16,2021-11-16,株式会社ヒビ,,株式会社,三重県,名張市,桔梗が丘５番町二街区１番地－永尾ビル３０３,,24,208,5180625,,,,,,,2021-11-16,1,,,,,ヒビ,0
803,3200001039403,新規,0,2021-11-16,2021-11-16,マックストレーディング株式会社,,株式会社,岐阜県,土岐市,土岐津町土岐口８５７番地の１プレジールウィンク２０３号,,21,212,5095122,,,,,,,2021-11-16,1,,,,,マックストレーディング,0
804,3200001039411,新規,0,2021-11-16,2021-11-16,株式会社ＪＴＲＥＡＬＥＳＴＡＴＥ,,株式会社,岐阜県,岐阜市,加納花ノ木町６２番地２,,21,201,5008275,,,,,,,2021-11-16,1,,,,,ジェイティリアルエステート,0
807,3220001024535,新規,0,2021-11-16,2021-11-16,株式会社金澤もつ鍋,,株式会社,石川県,金沢市,泉野出町２丁目２２番１２号,,17,201,9218116,,,,,,,2021-11-16,1,,,,,カナザワモツナベ,0
808,3220001024543,新規,0,2021-11-16,2021-11-16,株式会社ＡＹＡＮＡＳ,,株式会社,石川県,金沢市,出雲町イ４５５番地,,17,201,9200056,,,,,,,2021-11-16,1,,,,,アヤナス,0
809,3220003003149,新規,0,2021-11-16,2021-11-16,合同会社もくれん,,合同会社,石川県,金沢市,東長江町伊１番地２０８,,17,201,9200822,,,,,,,2021-11-16,1,,,,,モクレン,0
815,3250003002940,新規,0,2021-11-16,2021-11-16,合同会社ＧＯＯＤ,,合同会社,山口県,山口市,平井３９１番地２－１０１,,35,203,7530831,,,,,,,2021-11-16,1,,,,,グッド,0
818,3260001036205,新規,0,2021-11-16,2021-11-16,株式会社Ｗｈｉｔｅ,,株式会社,岡山県,倉敷市,水島東常盤町１０番２６号,,33,202,7128058,,,,,,,2021-11-16,1,,,,,ホワイト,0
819,3260003003723,新規,0,2021-11-16,2021-11-16,合同会社共生クラス,,合同会社,岡山県,岡山市北区,天瀬２番９号７０２号室,,33,101,7000833,,,,,,,2021-11-16,1,,,,,キョウセイクラス,0
820,3270001008392,新規,0,2021-11-16,2021-11-16,株式会社オクトユニティ,,株式会社,鳥取県,米子市,富益町４１７番地２,,31,202,6830103,,,,,,,2021-11-16,1,,,,,オクトユニテイ,0
825,3290001095388,新規,0,2021-11-16,2021-11-16,三双貿易株式会社,,株式会社,福岡県,福岡市東区,舞松原５丁目１８番７号,,40,131,8130042,,,,,,,2021-11-16,1,,,,,サンソウボウエキ,0
832,3290801027994,新規,0,2021-11-16,2021-11-16,株式会社水戸商会,,株式会社,福岡県,直方市,大字感田１２２６番地,,40,204,8220001,,,,,,,2021-11-16,1,,,,,ミトショウカイ,0
833,3290801028002,新規,0,2021-11-16,2021-11-16,株式会社Ｔａｎｉｍｏｔｏ,,株式会社,福岡県,北九州市八幡西区,本城東４丁目１４番８－１０１号,,40,109,8070815,,,,,,,2021-11-16,1,,,,,タニモト,0
834,3290803003985,新規,0,2021-11-16,2021-11-16,合同会社ＨＡＮＡＳＹＳ,,合同会社,福岡県,北九州市八幡東区,昭和３丁目５番１９－１００５号,,40,108,8050013,,,,,,,2021-11-16,1,,,,,ハナシス,0
836,3310001017579,新規,0,2021-11-16,2021-11-16,クリエイティブスタイル株式会社,,株式会社,長崎県,諫早市,高城町６番地５,,42,204,8540016,,,,,,,2021-11-16,1,,,,,クリエイティブスタイル,0
837,3310001017587,新規,0,2021-11-16,2021-11-16,株式会社しんきどう,,株式会社,長崎県,松浦市,星鹿町岳崎免２４１２番地１,,42,208,8594744,,,,,,,2021-11-16,1,,,,,シンキドウ,0
838,3310003004212,新規,0,2021-11-16,2021-11-16,合同会社萬里堂,,合同会社,長崎県,長崎市,新戸町３丁目１７番１８－３０６号,,42,201,8500954,,,,,,,2021-11-16,1,,,,,バンリドウ,0
839,3320001018725,新規,0,2021-11-16,2021-11-16,大分不動産情報サービス株式会社,,株式会社,大分県,大分市,大字中戸次５８９０番地の１,,44,201,8797761,,,,,,,2021-11-16,1,,,,,オオイタフドウサンジョウホウサービス,0
840,3320001018733,新規,0,2021-11-16,2021-11-16,株式会社松和,,株式会社,大分県,大分市,大字関園２４８番地の５,,44,201,8700115,,,,,,,2021-11-16,1,,,,,ショウワ,0
844,3330003009135,新規,0,2021-11-16,2021-11-16,合同会社福星,,合同会社,熊本県,熊本市南区,護藤町１３２８番地６,,43,104,8614117,,,,,,,2021-11-16,1,,,,,フクセイ,0
847,3350001017419,新規,0,2021-11-16,2021-11-16,株式会社エムズテック,,株式会社,宮崎県,宮崎市,佐土原町下田島７７８８番地３６,,45,201,8800211,,,,,,,2021-11-16,1,,,,,エムズテック,0
851,3380001032340,新規,0,2021-11-16,2021-11-16,株式会社ＷＫ,,株式会社,福島県,相馬市,中村字泉町６番地の４２ＣＳビル２階北側,,07,209,9760042,,,,,,,2021-11-16,1,,,,,ダブリューケー,0
852,3380001032349,新規,0,2021-11-16,2021-11-16,株式会社ＭＫ,,株式会社,福島県,伊達市,保原町字宮下１７番地６,,07,213,9600612,,,,,,,2021-11-16,1,,,,,エムケー,0
854,3380003005055,新規,0,2021-11-16,2021-11-16,合同会社ＤＲＥＡＭＢＥＲＲＹ,,合同会社,福島県,郡山市,開成５丁目９番１５号,,07,203,9638851,,,,,,,2021-11-16,1,,,,,ドリームベリー,0
857,3400001015672,新規,0,2021-11-16,2021-11-16,株式会社前沢温泉,,株式会社,岩手県,奥州市,前沢駅東３丁目４番地１５,,03,215,0294211,,,,,,,2021-11-16,1,,,,,マエサワオンセン,0
868,3430001085390,新規,0,2021-11-16,2021-11-16,タナカ設備株式会社,,株式会社,北海道,札幌市西区,八軒一条西１丁目１番２－１１１０号,,01,107,0630841,,,,,,,2021-11-16,1,,,,,タナカセツビ,0
869,3430001085399,新規,0,2021-11-16,2021-11-16,株式会社ＷＲＡＰＢＡＣＫＳ,,株式会社,北海道,札幌市手稲区,新発寒二条１丁目４番１号,,01,109,0060802,,,,,,,2021-11-16,1,,,,,ラップバックス,0
871,3430003013358,新規,0,2021-11-16,2021-11-16,合同会社セトキカク,,合同会社,北海道,岩見沢市,日の出台１丁目１７番１５号,,01,210,0680822,,,,,,,2021-11-16,1,,,,,セトキカク,0
875,3440003001428,新規,0,2021-11-16,2021-11-16,合同会社ＴＥＲＲＡ,,合同会社,北海道,函館市,美原３丁目４９番１６号,,01,202,0410806,,,,,,,2021-11-16,1,,,,,テラ,0
876,3460101007085,新規,0,2021-11-16,2021-11-16,株式会社十勝六花フィールド,,株式会社,北海道,中川郡池田町,字大森２２１番地の３,,01,644,0893151,,,,,,,2021-11-16,1,,,,,トカチロッカフィールド,0
885,3500001023806,新規,0,2021-11-16,2021-11-16,株式会社大野電設,,株式会社,愛媛県,松山市,春美町３番２７号,,38,201,7918087,,,,,,,2021-11-16,1,,,,,オオノデンセツ,0
886,3500001023814,新規,0,2021-11-16,2021-11-16,株式会社モビリティイノベーション,,株式会社,愛媛県,松山市,東長戸４丁目３番１７号,,38,201,7918005,,,,,,,2021-11-16,1,,,,,モビリティイノベーション,0
888,3700150105789,新規,0,2021-11-16,2021-11-16,Ｓ．Ｍ．ＬＡＮＫＡ　ＥＮＴＥＲＰＲＩＳＥＳ,,外国会社等,千葉県,八街市,東吉田３５８－４オフィス５,,12,230,2891114,スリランカ民主社会主義共和国、キャンディ、アクラナ、ドゥヌウィラロード、Ｎｏ．１００,,,,,,2021-11-16,1,,,,,エスエムランカエンタープライセス,0
889,3700150105797,新規,0,2021-11-16,2021-11-16,ＹＵＫＩ　ＦＵＲＡＮＯ　ＰＴＥ．ＬＴＤ．,,外国会社等,東京都,港区,虎ノ門３丁目２２番１０－２０１号,,13,103,1050001,シンガポール共和国２３８１６４、サマーセット・ロード１１１、１１１サマセット＃０７－０７,,,,,,2021-11-16,1,,,,,ユキフラノピーテイーイーエルテイーデイー,0
890,3700150105822,新規,0,2021-11-16,2021-11-16,ＩＫＷＡ　ＩＮＴＥＲＮＡＴＩＯＮＡＬ　ＰＲＩＶＡＴＥ　ＬＩＭＩＴＥＤ,,外国会社等,千葉県,八街市,沖２０３０－３,,12,230,2891126,スリランカ民主社会主義共和国、キャンディ、アクラナ、デルガステンナ、Ｎｏ．２１７／３,,,,,,2021-11-16,1,,,,,イクワインターナシヨナルプライベートリミテツド,0
908,4010001222456,新規,0,2021-11-16,2021-11-16,Ｂｉｌｔｅｃｈ株式会社,,株式会社,東京都,中央区,八丁堀４丁目８番１号－２Ｆ,,13,102,1040032,,,,,,,2021-11-16,1,,,,,ビルテック,0
909,4010001222480,新規,0,2021-11-16,2021-11-16,ロケットスタート株式会社,,株式会社,東京都,千代田区,神田鍛冶町３丁目７神田カドウチ２階,,13,101,1010045,,,,,,,2021-11-16,1,,,,,ロケットスタート,0
910,4010001222596,新規,0,2021-11-16,2021-11-16,ＭＥＴＡ－Ｘ株式会社,,株式会社,東京都,中央区,銀座１丁目２２番１１号銀座大竹ビジデンス２階,,13,102,1040061,,,,,,,2021-11-16,1,,,,,メタマックス,0
919,4010401163944,新規,0,2021-11-16,2021-11-16,ＬＳ－Ａｖｉａｔｉｏｎ第４０号株式会社,,株式会社,東京都,港区,六本木１丁目６番１号,,13,103,1060032,,,,,,,2021-11-16,1,,,,,エルエスアビエーションダイヨンジュウゴウ,0
929,4010701041783,新規,0,2021-11-16,2021-11-16,よみつ株式会社,,株式会社,東京都,品川区,上大崎４丁目５番２６－１－１５０７号,,13,109,1410021,,,,,,,2021-11-16,1,,,,,ヨミツ,0
932,4010801032484,新規,0,2021-11-16,2021-11-16,株式会社淳風満帆,,株式会社,東京都,大田区,田園調布４丁目３０番２０号,,13,111,1450071,,,,,,,2021-11-16,1,,,,,ジュンプウマンパン,0
933,4010801032492,新規,0,2021-11-16,2021-11-16,株式会社ｎｕｍｂｅｒ１２,,株式会社,東京都,大田区,山王２丁目２６番９号,,13,111,1430023,,,,,,,2021-11-16,1,,,,,ナンバージュウニ,0
935,4010903006931,新規,0,2021-11-16,2021-11-16,合同会社エスアンドエス,,合同会社,東京都,世田谷区,北烏山３丁目１７番９号ソレアードまつば３０２,,13,112,1570061,,,,,,,2021-11-16,1,,,,,エスアンドエス,0
943,4011101096749,新規,0,2021-11-16,2021-11-16,ヒロ半導体株式会社,,株式会社,東京都,新宿区,歌舞伎町２丁目２５番８号,,13,104,1600021,,,,,,,2021-11-16,1,,,,,ヒロハンドウタイ,0
944,4011101096906,新規,0,2021-11-16,2021-11-16,ＬＩＶＥ　ＡＲＴ株式会社,,株式会社,東京都,新宿区,西新宿３丁目３番１３号西新宿水間ビル６階,,13,104,1600023,,,,,,,2021-11-16,1,,,,,ライブアート,0
946,4011601025538,新規,0,2021-11-16,2021-11-16,株式会社ｅ‐ヘルスリンク,,株式会社,東京都,練馬区,錦１丁目４番１２号サンテラス城北１０１,,13,120,1790082,,,,,,,2021-11-16,1,,,,,イーヘルスリンク,0
947,4011603003442,新規,0,2021-11-16,2021-11-16,合同会社３ｍｃ　Ｇｒｏｖｅ,,合同会社,東京都,練馬区,立野町３０番１７号,,13,120,1770054,,,,,,,2021-11-16,1,,,,,サンエムシーグローブ,0
949,4011701024844,新規,0,2021-11-16,2021-11-16,ＳＥＬＥＣＴ９株式会社,,株式会社,東京都,江戸川区,鹿骨６丁目４番１８号,,13,123,1330073,,,,,,,2021-11-16,1,,,,,セレクトナイン,0
955,4011803004868,新規,0,2021-11-16,2021-11-16,合同会社ＺＥＲＯ,,合同会社,東京都,葛飾区,亀有３丁目２０番２号都ビル亀有２０３,,13,122,1250061,,,,,,,2021-11-16,1,,,,,ゼロ,0
956,4012701016773,新規,0,2021-11-16,2021-11-16,のめっこい株式会社,,株式会社,東京都,東村山市,栄町２丁目９－３２晃正ビル３Ｆ,,13,213,1890013,,,,,,,2021-11-16,1,,,,,ノメッコイ,0
978,4021001074465,新規,0,2021-11-16,2021-11-16,株式会社Ａ．Ｇ,,株式会社,神奈川県,茅ヶ崎市,松浪２丁目８番２３号山長ビル３Ｆ,,14,207,2530022,,,,,,,2021-11-16,1,,,,,エージー,0
980,4030001024198,新規,0,2021-11-16,2021-11-16,株式会社サダムラ,,株式会社,埼玉県,所沢市,和ケ原１丁目１７６番地の８,,11,208,3591162,,,,,,,2021-11-16,1,,,,,サダムラ,0
984,4030001145341,新規,0,2021-11-16,2021-11-16,株式会社Ｐｒｕｎｅｌｌｅ,,株式会社,埼玉県,戸田市,本町３丁目２番１２号,,11,224,3350023,,,,,,,2021-11-16,1,,,,,プルネル,0
995,4040003018940,新規,0,2021-11-16,2021-11-16,合同会社ＡＲＴ　ＯＦ　ＬＩＦＥ,,合同会社,千葉県,市川市,大洲３丁目３番７号,,12,203,2720032,,,,,,,2021-11-16,1,,,,,アートオブライフ,0
1004,4080401025469,新規,0,2021-11-16,2021-11-16,三金産業株式会社,,株式会社,静岡県,浜松市浜北区,宮口２４９番地,,22,136,4340004,,,,,,,2021-11-16,1,,,,,サンキンサンギョウ,0
1005,4080401025477,新規,0,2021-11-16,2021-11-16,株式会社Ｓｙｏｕｅｉ,,株式会社,静岡県,浜松市中区,高丘北１丁目６１番６号,,22,131,4338119,,,,,,,2021-11-16,1,,,,,ショウエイ,0
1023,4120001241800,新規,0,2021-11-16,2021-11-16,利川株式会社,,株式会社,大阪府,大阪市城東区,蒲生３丁目１５－１２セザンヌ藤５０５Ｂ,,27,118,5360016,,,,,,,2021-11-16,1,,,,,リセン,0
1024,4120001241899,新規,0,2021-11-16,2021-11-16,株式会社大智工業,,株式会社,大阪府,大阪市住吉区,遠里小野２丁目４番２号,,27,120,5580032,,,,,,,2021-11-16,1,,,,,ダイチコウギョウ,0
1025,4120001241932,新規,0,2021-11-16,2021-11-16,ＬＡＶ株式会社,,株式会社,大阪府,大阪市北区,梅田１丁目９番２０号大阪マルビルＢ－２,,27,127,5300001,,,,,,,2021-11-16,1,,,,,ラブ,0
1028,4120101064655,新規,0,2021-11-16,2021-11-16,貴不動産株式会社,,株式会社,大阪府,堺市中区,深阪２丁１０番５１号,,27,142,5998253,,,,,,,2021-11-16,1,,,,,タカフドウサン,0
1033,4122001035364,新規,0,2021-11-16,2021-11-16,株式会社奈良重設,,株式会社,大阪府,四條畷市,大字清瀧８７８番地の３,,27,229,5750063,,,,,,,2021-11-16,1,,,,,ナラジュウセツ,0
1038,4130001070554,新規,0,2021-11-16,2021-11-16,Ｌ．Ｅ．不動産株式会社,,株式会社,京都府,京都市北区,紫竹下本町３３番地,,26,101,6038115,,,,,,,2021-11-16,1,,,,,エルイーフドウサン,0
1039,4140001123848,新規,0,2021-11-16,2021-11-16,株式会社ｅＮジョイ,,株式会社,兵庫県,神戸市西区,丸塚１丁目１４番２２号,,28,111,6512143,,,,,,,2021-11-16,1,,,,,エンジョイ,0
1040,4140001123856,新規,0,2021-11-16,2021-11-16,株式会社ＲｅｅｅｅｅｃＣ,,株式会社,兵庫県,芦屋市,海洋町１番５６号,,28,206,6590035,,,,,,,2021-11-16,1,,,,,リーク,0
1041,4140001123864,新規,0,2021-11-16,2021-11-16,Ｃｏｍ　ＨＯＵＳＥ株式会社,,株式会社,兵庫県,相生市,大谷町７番１２号,,28,208,6780043,,,,,,,2021-11-16,1,,,,,コムハウス,0
1042,4140001123889,新規,0,2021-11-16,2021-11-16,株式会社ＥｉＭｉＣ,,株式会社,兵庫県,神戸市中央区,磯上通４丁目１番１４号,,28,110,6510086,,,,,,,2021-11-16,1,,,,,エイミック,0
1043,4140001123906,新規,0,2021-11-16,2021-11-16,株式会社サンホーム,,株式会社,兵庫県,神戸市西区,井吹台西町８丁目２番地の２,,28,111,6512243,,,,,,,2021-11-16,1,,,,,サンホーム,0
1044,4140003016975,新規,0,2021-11-16,2021-11-16,エヌケイ合同会社,,合同会社,兵庫県,神戸市東灘区,住吉本町２丁目２４番３６号,,28,101,6580051,,,,,,,2021-11-16,1,,,,,エヌケイ,0
1045,4140003016991,新規,0,2021-11-16,2021-11-16,ジャルダン合同会社,,合同会社,兵庫県,神戸市北区,若葉台２丁目４番６号,,28,109,6511143,,,,,,,2021-11-16,1,,,,,ジャルダン,0
1048,4150001025102,新規,0,2021-11-16,2021-11-16,株式会社ｃｈａｒｍｉｎ,,株式会社,奈良県,奈良市,西九条町３丁目３番地の１６レジデンス西九条３０２号,,29,201,6308453,,,,,,,2021-11-16,1,,,,,チャーミン,0
1060,4180001148742,新規,0,2021-11-16,2021-11-16,ＡＴＨＵＧＡＬＡ　ＬＡＮＫＡ株式会社,,株式会社,愛知県,名古屋市中川区,高畑１丁目５５番地,,23,110,4540911,,,,,,,2021-11-16,1,,,,,アトゥガラランカ,0
1061,4180001148750,新規,0,2021-11-16,2021-11-16,金田建設株式会社,,株式会社,愛知県,瀬戸市,東古瀬戸町７７番地,,23,204,4890037,,,,,,,2021-11-16,1,,,,,カネダケンセツ,0
1066,4180303005170,新規,0,2021-11-16,2021-11-16,ＪＡＧＡ合同会社,,合同会社,愛知県,豊川市,東名町２丁目８番地サンステージ豊川Ｂ棟２０２号,,23,207,4420019,,,,,,,2021-11-16,1,,,,,ジャーガ,0
1075,4200001039402,新規,0,2021-11-16,2021-11-16,クリハラ建材株式会社,,株式会社,岐阜県,土岐市,肥田浅野朝日町３丁目２４番地の１,,21,212,5095117,,,,,,,2021-11-16,1,,,,,クリハラケンザイ,0
1076,4200001039427,新規,0,2021-11-16,2021-11-16,オプティマル・デザイン株式会社,,株式会社,岐阜県,加茂郡富加町,羽生１７１６番地１,,21,502,5013303,,,,,,,2021-11-16,1,,,,,オプティマルデザイン,0
1078,4200003005377,新規,0,2021-11-16,2021-11-16,合同会社ｗａｔｏｗａ,,合同会社,岐阜県,土岐市,泉町久尻１４２９番地の８,,21,212,5095142,,,,,,,2021-11-16,1,,,,,ワトワ,0
1082,4220001024542,新規,0,2021-11-16,2021-11-16,株式会社宝正果,,株式会社,石川県,羽咋郡宝達志水町,上田カ２０３番地１,,17,386,9291312,,,,,,,2021-11-16,1,,,,,ホウセイカ,0
1087,4240001058935,新規,0,2021-11-16,2021-11-16,株式会社Ｈ’ＩＤＥプロモーション,,株式会社,広島県,安芸郡府中町,大通２丁目８番７号,,34,302,7350022,,,,,,,2021-11-16,1,,,,,ビデプロモーション,0
1088,4240003005373,新規,0,2021-11-16,2021-11-16,ヴェルグランデ合同会社,,合同会社,広島県,広島市安佐北区,あさひが丘２丁目４番２８号,,34,106,7313361,,,,,,,2021-11-16,1,,,,,ヴェルグランデ,0
1089,4240005015296,新規,0,2021-11-16,2021-11-16,一般社団法人Ｒｉｐｐｌｉｓｔ,,その他の設立登記法人,広島県,福山市,南本庄２丁目３番６号,,34,207,7200077,,,,,,,2021-11-16,1,,,,,リップリスト,0
1099,4260001036146,新規,0,2021-11-16,2021-11-16,ＹＯＴＴＡ株式会社,,株式会社,岡山県,岡山市北区,番町２丁目１番１７号,,33,101,7000811,,,,,,,2021-11-16,1,,,,,ヨタ,0
1100,4260001036204,新規,0,2021-11-16,2021-11-16,水電ホールディングス株式会社,,株式会社,岡山県,倉敷市,連島町鶴新田３０７７番地の１,,33,202,7128006,,,,,,,2021-11-16,1,,,,,ミズデンホールディングス,0
1103,4280003001550,新規,0,2021-11-16,2021-11-16,合同会社ヨリドコロ,,合同会社,島根県,浜田市,国分町１７７３番地１３,,32,202,6970003,,,,,,,2021-11-16,1,,,,,ヨリドコロ,0
1106,4290001095379,新規,0,2021-11-16,2021-11-16,ティエル株式会社,,株式会社,福岡県,福岡市博多区,博多駅東１丁目１番３０号－５０１,,40,132,8120013,,,,,,,2021-11-16,1,,,,,ティエル,0
1107,4290001095387,新規,0,2021-11-16,2021-11-16,ＦＵＴＵＲＥ　ＬＡＢ株式会社,,株式会社,福岡県,福岡市中央区,高砂２丁目４－２,,40,133,8100011,,,,,,,2021-11-16,1,,,,,フューチャーラブ,0
1110,4290801027969,新規,0,2021-11-16,2021-11-16,株式会社アイエヌホールディングス,,株式会社,福岡県,築上郡吉富町,大字直江６５６番地１,,40,642,8710831,,,,,,,2021-11-16,1,,,,,アイエヌホールディングス,0
1111,4290801028001,新規,0,2021-11-16,2021-11-16,株式会社あおい,,株式会社,福岡県,北九州市八幡西区,八枝１丁目５番２１号,,40,109,8070856,,,,,,,2021-11-16,1,,,,,アオイ,0
1112,4290803003984,新規,0,2021-11-16,2021-11-16,合同会社Ｔ‐３,,合同会社,福岡県,北九州市小倉南区,上葛原２丁目１３番１４号,,40,107,8000255,,,,,,,2021-11-16,1,,,,,ティースリー,0
1114,4310001017586,新規,0,2021-11-16,2021-11-16,株式会社ＪＹファーム,,株式会社,長崎県,長崎市,出島町１３番８－１９０２号,,42,201,8500862,,,,,,,2021-11-16,1,,,,,ジェイワイファーム,0
1115,4310003004211,新規,0,2021-11-16,2021-11-16,合同会社ＲｅＢｅ５,,合同会社,長崎県,佐世保市,針尾東町２３９３番地２,,42,202,8593451,,,,,,,2021-11-16,1,,,,,リビファイブ,0
1119,4320003003658,新規,0,2021-11-16,2021-11-16,合同会社Ｓ３プランニング,,合同会社,大分県,速見郡日出町,大字豊岡３５００,,44,341,8791507,,,,,,,2021-11-16,1,,,,,エススリープランニング,0
1122,4330001029183,新規,0,2021-11-16,2021-11-16,株式会社ＢＲＩＤＧＥＳ,,株式会社,熊本県,熊本市中央区,新大江１丁目１６－１,,43,101,8620972,,,,,,,2021-11-16,1,,,,,ブリッジス,0
1124,4330003009134,新規,0,2021-11-16,2021-11-16,合同会社西田測量,,合同会社,熊本県,熊本市中央区,西子飼町１０番１４号,,43,101,8600853,,,,,,,2021-11-16,1,,,,,ニシダソクリョウ,0
1128,4340005009370,新規,0,2021-11-16,2021-11-16,一般社団法人三縁,,その他の設立登記法人,鹿児島県,南さつま市,加世田武田１７５２６番地１,,46,220,8970002,,,,,,,2021-11-16,1,,,,,ミエン,0
1129,4350001017418,新規,0,2021-11-16,2021-11-16,株式会社ＪＡＣＫ　ＩＮ　ＴＨＥ　ＢＯＸ,,株式会社,宮崎県,宮崎市,中央通５－２１えびすのビル２０２,,45,201,8800002,,,,,,,2021-11-16,1,,,,,ジャックインザボックス,0
1131,4350003003969,新規,0,2021-11-16,2021-11-16,合同会社にちりん,,合同会社,宮崎県,児湯郡川南町,大字平田３２４０番地２,,45,405,8891302,,,,,,,2021-11-16,1,,,,,ニチリン,0
1134,4370003005476,新規,0,2021-11-16,2021-11-16,合同会社ＮＥＸＴ,,合同会社,宮城県,富谷市,成田４丁目２６番地１（１Ｆ）,,04,216,9813341,,,,,,,2021-11-16,1,,,,,ネクスト,0
1144,4430001085381,新規,0,2021-11-16,2021-11-16,Ｅ－ｃｏｍ株式会社,,株式会社,北海道,苫小牧市,清水町２丁目２番２０－１０５号,,01,213,0530034,,,,,,,2021-11-16,1,,,,,イーコム,0
1145,4430001085398,新規,0,2021-11-16,2021-11-16,株式会社Ｄｕｒｅｒ,,株式会社,北海道,札幌市中央区,南九条西４丁目３番１－９０２号,,01,101,0640809,,,,,,,2021-11-16,1,,,,,デュレ,0
1147,4430003013365,新規,0,2021-11-16,2021-11-16,合同会社太陽食品,,合同会社,北海道,札幌市清田区,平岡六条４丁目１番１１号,,01,110,0040876,,,,,,,2021-11-16,1,,,,,タイヨウショクヒン,0
1150,4460003000872,新規,0,2021-11-16,2021-11-16,合同会社７ｔｈＳＥＮＳＥ,,合同会社,北海道,釧路市,弥生２丁目６番１３号,,01,206,0850834,,,,,,,2021-11-16,1,,,,,セブンスセンス,0
1152,4460103001408,新規,0,2021-11-16,2021-11-16,合同会社木音,,合同会社,北海道,帯広市,東十条南１７丁目２番地２６,,01,207,0800810,,,,,,,2021-11-16,1,,,,,コノン,0
1159,4490001010037,新規,0,2021-11-16,2021-11-16,株式会社ＣＨＡＮＣＥ　ＢＲＩＬＬＩＡＮＴ,,株式会社,高知県,高知市,横内３０４番地３,,39,201,7800964,,,,,,,2021-11-16,1,,,,,シャンスブリリアント,0
1165,4500005008430,新規,0,2021-11-16,2021-11-16,ＮＰＯ法人暮らしの困りごと相談処いろり,,その他の設立登記法人,愛媛県,今治市,阿方甲４０６番地１ワタナベハイツ,,38,202,7940081,,,,,,,2021-11-16,1,,,,,クラシノコマリゴトソウダントコロイロリ,0
1166,4700150105788,新規,0,2021-11-16,2021-11-16,ＴＨＥ　ＣＡＲ　ＨＯＭＥ,,外国会社等,千葉県,八街市,希望ヶ丘２５０－１０９希望ケ丘オフィスＡ,,12,230,2891131,スリランカ民主社会主義共和国、アクラナ、ウッガラ、Ｎｏ．１１９／３Ａ／Ｂ,,,,,,2021-11-16,1,,,,,ザカーホーム,0
1167,4700150105796,新規,0,2021-11-16,2021-11-16,ＡＵＴＯ　ＭＡＲＴ　ＬＡＮＫＡ　ＥＮＴＥＲＰＲＩＳＥ,,外国会社等,千葉県,四街道市,大日８３６番地オフィス４号,,12,228,2840001,スリランカ民主社会主義共和国、ラクワナ、カラワナ、１１,,,,,,2021-11-16,1,,,,,オートマートランカエンタープライズ,0
1168,4700150105813,新規,0,2021-11-16,2021-11-16,ＤＩＮＡＫＡＲＡ　ＥＮＴＥＲＰＲＩＳＥＳ,,外国会社等,千葉県,富里市,立沢７３２Ｂ１,,12,233,2860214,スリランカ民主社会主義共和国、クブレガマ、バーナンガ,,,,,,2021-11-16,1,,,,,デイナカラエンタープライセス,0
1169,4700150105821,新規,0,2021-11-16,2021-11-16,ＬＩＮＫ　ＡＳＩＡ　ＴＲＡＤＩＮＧ　ＰＲＩＶＡＴＥ　ＬＩＭＩＴＥＤ,,外国会社等,千葉県,茂原市,下永吉６９８番地１０－２Ｆ－２,,12,210,2970035,スリランカ民主社会主義共和国、アクラナ、ブルゴハテンナ、Ｎｏ．３０／３,,,,,,2021-11-16,1,,,,,リンクエイシアトレデインプライベートリミテツド,0
1183,5010001222348,新規,0,2021-11-16,2021-11-16,株式会社ＷＤ,,株式会社,東京都,中央区,勝どき５丁目３番１－３２１６号,,13,102,1040054,,,,,,,2021-11-16,1,,,,,ダブリューディー,0
1184,5010001222488,新規,0,2021-11-16,2021-11-16,株式会社ＰＡＯ企画,,株式会社,東京都,千代田区,神田佐久間町４丁目１６番地４、６０１号,,13,101,1010025,,,,,,,2021-11-16,1,,,,,パオキカク,0
1185,5010001222538,新規,0,2021-11-16,2021-11-16,株式会社イズム,,株式会社,東京都,文京区,小日向４丁目１番１－８０３号,,13,105,1120006,,,,,,,2021-11-16,1,,,,,イズム,0
1186,5010001222570,新規,0,2021-11-16,2021-11-16,シナジータクト株式会社,,株式会社,東京都,中央区,入船３丁目１番６－１０１２号,,13,102,1040042,,,,,,,2021-11-16,1,,,,,シナジータクト,0
1187,5010001222579,新規,0,2021-11-16,2021-11-16,ＮＳ＆パートナーズ株式会社,,株式会社,東京都,中央区,八重洲１丁目４－１６東京建物八重洲ビル３階,,13,102,1030028,,,,,,,2021-11-16,1,,,,,エヌエスアンドパートナーズ,0
1190,5010003036267,新規,0,2021-11-16,2021-11-16,合同会社Ｐｏｌａｒｉｓ,,合同会社,東京都,中央区,晴海３丁目１３番１－１１０４号,,13,102,1040053,,,,,,,2021-11-16,1,,,,,ポラリス,0
1202,5010401163943,新規,0,2021-11-16,2021-11-16,ＬＳ－Ａｖｉａｔｉｏｎ第４１号株式会社,,株式会社,東京都,港区,六本木１丁目６番１号,,13,103,1060032,,,,,,,2021-11-16,1,,,,,エルエスアビエーションダイヨンジュウイチゴウ,0
1210,5010501048094,新規,0,2021-11-16,2021-11-16,株式会社ＡＧＵ,,株式会社,東京都,台東区,千束３丁目２７番１０－２０３号,,13,106,1110031,,,,,,,2021-11-16,1,,,,,エージーユー,0
1211,5010601060230,新規,0,2021-11-16,2021-11-16,株式会社ＭＡＥＥ,,株式会社,東京都,江東区,大島３丁目８番７号,,13,108,1360072,,,,,,,2021-11-16,1,,,,,マエエ,0
1213,5010603009250,新規,0,2021-11-16,2021-11-16,ステップフォワード合同会社,,合同会社,東京都,墨田区,菊川１丁目２番５号春日ビル１０１,,13,107,1300024,,,,,,,2021-11-16,1,,,,,ステップフォワード,0
1218,5010801032491,新規,0,2021-11-16,2021-11-16,則武プランニング株式会社,,株式会社,東京都,大田区,池上３丁目２８番６号,,13,111,1460082,,,,,,,2021-11-16,1,,,,,ノリタケプランニング,0
1225,5010901049790,新規,0,2021-11-16,2021-11-16,株式会社Ｍｏｎｏｔ,,株式会社,東京都,世田谷区,三軒茶屋１丁目３３番１２号１０１,,13,112,1540024,,,,,,,2021-11-16,1,,,,,モノ,0
1226,5010901049816,新規,0,2021-11-16,2021-11-16,Ａｎｙａ株式会社,,株式会社,東京都,世田谷区,上馬５丁目１５－７,,13,112,1540011,,,,,,,2021-11-16,1,,,,,アニャ,0
1233,5011003013719,新規,0,2021-11-16,2021-11-16,合同会社魚商,,合同会社,東京都,渋谷区,代々木２丁目４１番２－５０１号,,13,113,1510053,,,,,,,2021-11-16,1,,,,,ウオショウ,0
1238,5011101096905,新規,0,2021-11-16,2021-11-16,株式会社ＳＫ　Ｐｒｏｍｏｔｉｏｎ,,株式会社,東京都,新宿区,西早稲田１丁目１３番５号,,13,104,1690051,,,,,,,2021-11-16,1,,,,,エスケープロモーション,0
1246,5011405002170,新規,0,2021-11-16,2021-11-16,一般社団法人つづく,,その他の設立登記法人,東京都,板橋区,坂下３丁目９番１３－６０１号,,13,119,1740043,,,,,,,2021-11-16,1,,,,,ツヅク,0
1248,5011701024843,新規,0,2021-11-16,2021-11-16,山定商事株式会社,,株式会社,東京都,江戸川区,中葛西８丁目９番１１号,,13,123,1340083,,,,,,,2021-11-16,1,,,,,ヤマサダショウジ,0
1249,5011703002995,新規,0,2021-11-16,2021-11-16,合同会社栄澄,,合同会社,東京都,江戸川区,春江町２丁目４８番１０号,,13,123,1320003,,,,,,,2021-11-16,1,,,,,エイス,0
1254,5012401038539,新規,0,2021-11-16,2021-11-16,株式会社牧野,,株式会社,東京都,三鷹市,井口２丁目８番８号,,13,204,1810011,,,,,,,2021-11-16,1,,,,,マキノ,0
1255,5012403005108,新規,0,2021-11-16,2021-11-16,合同会社ナッくる企画,,合同会社,東京都,調布市,緑ケ丘２丁目１１番地５０,,13,208,1820001,,,,,,,2021-11-16,1,,,,,ナックルキカク,0
1260,5012803002646,新規,0,2021-11-16,2021-11-16,イファップ合同会社,,合同会社,東京都,武蔵村山市,神明２丁目５８番１６号,,13,223,2080002,,,,,,,2021-11-16,1,,,,,イファップ,0
1263,5020001143956,新規,0,2021-11-16,2021-11-16,ミライズ株式会社,,株式会社,神奈川県,川崎市高津区,諏訪３丁目１８－１３－２０１,,14,134,2130004,,,,,,,2021-11-16,1,,,,,ミライズ,0
1264,5020001143964,新規,0,2021-11-16,2021-11-16,株式会社ＫＣ　Ｗｏｒｋｓ,,株式会社,神奈川県,横浜市中区,本牧町２丁目４３０番,,14,104,2310806,,,,,,,2021-11-16,1,,,,,ケイシーワークス,0
1270,5021001074472,新規,0,2021-11-16,2021-11-16,株式会社Ｄ．ｉ．ｊａｐａｎ,,株式会社,神奈川県,高座郡寒川町,宮山９１６番地１－１０５号,,14,321,2530106,,,,,,,2021-11-16,1,,,,,ディーアイジャパン,0
1272,5021003011102,新規,0,2021-11-16,2021-11-16,合同会社カヘエ,,合同会社,神奈川県,鎌倉市,今泉台４丁目１番５号,,14,204,2470053,,,,,,,2021-11-16,1,,,,,カヘエ,0
1288,5040001120838,新規,0,2021-11-16,2021-11-16,株式会社トラスト,,株式会社,千葉県,山武郡芝山町,大台字宝永作３１５５番地５,,12,409,2891605,,,,,,,2021-11-16,1,,,,,トラスト,0
1298,5060001034301,新規,0,2021-11-16,2021-11-16,株式会社ｈｉｎｏｍａｒｕ,,株式会社,栃木県,宇都宮市,兵庫塚３丁目４５番２５号,,09,201,3210138,,,,,,,2021-11-16,1,,,,,ヒノマル,0
1302,5080101022922,新規,0,2021-11-16,2021-11-16,株式会社誠刀,,株式会社,静岡県,富士市,富士見台７丁目５－３,,22,210,4170851,,,,,,,2021-11-16,1,,,,,マコト,0
1314,5120001241857,新規,0,2021-11-16,2021-11-16,株式会社ＨＯＰＥ,,株式会社,大阪府,大阪市阿倍野区,播磨町１丁目２３番２２号,,27,119,5450022,,,,,,,2021-11-16,1,,,,,ホープ,0
1315,5120001241907,新規,0,2021-11-16,2021-11-16,株式会社Ｔ・Ｍエステート,,株式会社,大阪府,寝屋川市,本町５番２０－３０１号,,27,215,5720832,,,,,,,2021-11-16,1,,,,,ティーエムエステート,0
1316,5120003020598,新規,0,2021-11-16,2021-11-16,Ｎ＆Ｅ企画合同会社,,合同会社,大阪府,大阪市北区,天神橋７丁目１番１６－４２１１号,,27,127,5310041,,,,,,,2021-11-16,1,,,,,エヌアンドイーキカク,0
1321,5120101064654,新規,0,2021-11-16,2021-11-16,ＴＨＥ　ＢＬＵＥ株式会社,,株式会社,大阪府,高石市,取石７丁目５番１３号,,27,225,5920013,,,,,,,2021-11-16,1,,,,,ザブルー,0
1329,5120901045218,新規,0,2021-11-16,2021-11-16,株式会社河島建装,,株式会社,大阪府,吹田市,山田西１丁目８－３－８０３,,27,205,5650824,,,,,,,2021-11-16,1,,,,,カワシマケンソウ,0
1337,5140001123855,新規,0,2021-11-16,2021-11-16,株式会社Ａｎｇｅｌｉｃｅ,,株式会社,兵庫県,揖保郡太子町,太田１６１５番地１,,28,464,6711511,,,,,,,2021-11-16,1,,,,,アンジェリス,0
1338,5140001123888,新規,0,2021-11-16,2021-11-16,株式会社桃李,,株式会社,兵庫県,姫路市,香寺町恒屋１０１５番地１,,28,201,6792165,,,,,,,2021-11-16,1,,,,,トウリ,0
1340,5140003016999,新規,0,2021-11-16,2021-11-16,合同会社芳川工務店,,合同会社,兵庫県,神戸市東灘区,御影石町４丁目１８－４,,28,101,6580045,,,,,,,2021-11-16,1,,,,,ヨシカワコウムテン,0
1368,5200001039418,新規,0,2021-11-16,2021-11-16,株式会社三輪電機設計,,株式会社,岐阜県,多治見市,明和町６丁目１６番地の１９,,21,204,5070072,,,,,,,2021-11-16,1,,,,,ミワデンキセッケイ,0
1369,5200001039426,新規,0,2021-11-16,2021-11-16,株式会社佐藤不動産,,株式会社,岐阜県,多治見市,本町５丁目６番地１,,21,204,5070033,,,,,,,2021-11-16,1,,,,,サトウフドウサン,0
1375,5240001058918,新規,0,2021-11-16,2021-11-16,株式会社ヨンイチ,,株式会社,広島県,尾道市,土堂２丁目３番２１号,,34,205,7220035,,,,,,,2021-11-16,1,,,,,ヨンイチ,0
1376,5240001058934,新規,0,2021-11-16,2021-11-16,株式会社Ａｒｔ　ｔｅｃｈ　ｈｏｍｅ,,株式会社,広島県,福山市,西町１丁目３番５－８０５号,,34,207,7200067,,,,,,,2021-11-16,1,,,,,アートテックホーム,0
1377,5240001058942,新規,0,2021-11-16,2021-11-16,株式会社アルシオネ,,株式会社,広島県,広島市西区,庚午中４丁目６番１号セントラルビル１０２,,34,104,7330822,,,,,,,2021-11-16,1,,,,,アルシオネ,0
1378,5240003005372,新規,0,2021-11-16,2021-11-16,合同会社虎博社,,合同会社,広島県,広島市南区,宇品西１丁目１－２０,,34,103,7340014,,,,,,,2021-11-16,1,,,,,コハクシャ,0
1380,5250001019258,新規,0,2021-11-16,2021-11-16,株式会社ビーアンドクリエイト,,株式会社,山口県,宇部市,大字小串１７０番地２９,,35,202,7550067,,,,,,,2021-11-16,1,,,,,ビーアンドクリエイト,0
1381,5250001019266,新規,0,2021-11-16,2021-11-16,坂本商店株式会社,,株式会社,山口県,防府市,大字台道３５７９番地の７,,35,206,7471232,,,,,,,2021-11-16,1,,,,,サカモトショウテン,0
1383,5250003002939,新規,0,2021-11-16,2021-11-16,ＧＲＥＥＮＫＥＥＰＥＲＳＵＰＰＯＲＴ合同会社,,合同会社,山口県,山口市,阿知須２３２５番地,,35,203,7541277,,,,,,,2021-11-16,1,,,,,グリーンキーパーサポート,0
1388,5260001036211,新規,0,2021-11-16,2021-11-16,ＫＳＲ株式会社,,株式会社,岡山県,新見市,新見１６８８番地２,,33,210,7180011,,,,,,,2021-11-16,1,,,,,ケーエスアール,0
1402,5290001095353,新規,0,2021-11-16,2021-11-16,はなまる株式会社,,株式会社,福岡県,福岡市東区,奈多３丁目１番８号,,40,131,8110204,,,,,,,2021-11-16,1,,,,,ハナマル,0
1403,5290001095394,新規,0,2021-11-16,2021-11-16,株式会社ＧＮＸ２,,株式会社,福岡県,福岡市博多区,博多駅前４丁目２５番１３号堺ビル２０１号,,40,132,8120011,,,,,,,2021-11-16,1,,,,,ジーエヌエックスツー,0
1405,5290801028000,新規,0,2021-11-16,2021-11-16,株式会社Ｅロジック,,株式会社,福岡県,北九州市八幡東区,中央２丁目８番３３－１４０２号,,40,108,8050019,,,,,,,2021-11-16,1,,,,,イーロジック,0
1406,5290801028009,新規,0,2021-11-16,2021-11-16,繁昌橘株式会社,,株式会社,福岡県,北九州市小倉南区,北方１丁目２番１２号,,40,107,8020841,,,,,,,2021-11-16,1,,,,,ハンジョウタチバナ,0
1407,5290803003983,新規,0,2021-11-16,2021-11-16,合同会社インテリアＴＡＫＡＥ,,合同会社,福岡県,北九州市若松区,西畑町５番１０号,,40,103,8080043,,,,,,,2021-11-16,1,,,,,インテリアタカエ,0
1411,5320003003657,新規,0,2021-11-16,2021-11-16,Ｐｌａｉｓｉｒ合同会社,,合同会社,大分県,別府市,大字南石垣１５１８番地の３２４,,44,202,8740000,,,,,,,2021-11-16,1,,,,,プレジール,0
1413,5330001029199,新規,0,2021-11-16,2021-11-16,株式会社幸築,,株式会社,熊本県,熊本市北区,龍田２丁目３９番１９号,,43,105,8618006,,,,,,,2021-11-16,1,,,,,コウチク,0
1420,5360003011573,新規,0,2021-11-16,2021-11-16,合同会社フレブル,,合同会社,沖縄県,浦添市,西原４丁目３９番９号コスモマンション３０５号,,47,208,9012101,,,,,,,2021-11-16,1,,,,,フレブル,0
1422,5380001032339,新規,0,2021-11-16,2021-11-16,株式会社遠藤,,株式会社,福島県,郡山市,台新２丁目２４番１７号,,07,203,9638852,,,,,,,2021-11-16,1,,,,,エンドウ,0
1423,5380001032347,新規,0,2021-11-16,2021-11-16,株式会社Ｓｅｅｄｓ　Ｃａｒｅ,,株式会社,福島県,相馬市,中村字桜ケ丘１４９番地２，２Ｆ,,07,209,9760042,,,,,,,2021-11-16,1,,,,,シーズケア,0
1435,5440003001426,新規,0,2021-11-16,2021-11-16,合同会社ログレス,,合同会社,北海道,函館市,東山３丁目１８番４２号,,01,202,0410835,,,,,,,2021-11-16,1,,,,,ログレス,0
1437,5460001005617,新規,0,2021-11-16,2021-11-16,フロンティアライフ株式会社,,株式会社,北海道,川上郡弟子屈町,川湯温泉５丁目１３番８号,,01,665,0883465,,,,,,,2021-11-16,1,,,,,フロンティアライフ,0
1447,5490001010036,新規,0,2021-11-16,2021-11-16,企業支援コンサルティング株式会社,,株式会社,高知県,高知市,本町５丁目６番３５号つちばしビル３階,,39,201,7800870,,,,,,,2021-11-16,1,,,,,キギョウシエンコンサルティング,0
1449,5700150105787,新規,0,2021-11-16,2021-11-16,ＭＡＴＡＬＥ　ＴＲＡＤＥ　ＣＥＮＴＲＥ,,外国会社等,千葉県,八街市,大木８１３－５０．１－Ａ,,12,230,2891111,スリランカ民主社会主義共和国、マータレー、メインストリート、４３９,,,,,,2021-11-16,1,,,,,マータレートレードセンター,0
1450,5700150105795,新規,0,2021-11-16,2021-11-16,ＷＡＹＡＭＢＡ　ＴＲＡＤＩＮＧ,,外国会社等,千葉県,八街市,東吉田３５８－４オフィス２,,12,230,2891114,スリランカ民主社会主義共和国、マータレー、メインストリート、Ｎｏ．１３４,,,,,,2021-11-16,1,,,,,ワヤンバトレーデイング,0
1451,5700150105804,新規,0,2021-11-16,2021-11-16,ＳＡＭＡＮ　ＭＯＴＯＲＳ,,外国会社等,千葉県,佐倉市,大篠塚９３５番地Ｂ－２,,12,212,2850806,スリランカ民主社会主義共和国、ウェラワ、ヒリピティヤ、１７－１,,,,,,2021-11-16,1,,,,,サマンモータース,0
1464,6010001222487,新規,0,2021-11-16,2021-11-16,株式会社Ｍｏｎｂａｓｈｉ,,株式会社,東京都,中央区,築地４丁目７番３号,,13,102,1040045,,,,,,,2021-11-16,1,,,,,モンバシ,0
1466,6010003036290,新規,0,2021-11-16,2021-11-16,合同会社エムアールエステート,,合同会社,東京都,文京区,本郷５丁目２３番２－６０１号,,13,105,1130033,,,,,,,2021-11-16,1,,,,,エムアールエステート,0
1467,6010003036308,新規,0,2021-11-16,2021-11-16,合同会社リプロディクション,,合同会社,東京都,中央区,日本橋小網町八丁目２番,,13,102,1030016,,,,,,,2021-11-16,1,,,,,リプロディクション,0
1468,6010003036316,新規,0,2021-11-16,2021-11-16,菊の雫合同会社,,合同会社,東京都,千代田区,九段南１丁目５番６号りそな九段ビル５Ｆ－ＫＳフロア,,13,101,1020074,,,,,,,2021-11-16,1,,,,,キクノシズク,0
1481,6010501048102,新規,0,2021-11-16,2021-11-16,株式会社ベスト・キャリア・コンサルティング,,株式会社,東京都,台東区,浅草橋２丁目２４番８号,,13,106,1110053,,,,,,,2021-11-16,1,,,,,ベストキャリアコンサルティング,0
1482,6010601060238,新規,0,2021-11-16,2021-11-16,株式会社ＢＯＮＤ,,株式会社,東京都,江東区,北砂４丁目５番４－２０１号,,13,108,1360073,,,,,,,2021-11-16,1,,,,,ボンド,0
1487,6010701041781,新規,0,2021-11-16,2021-11-16,株式会社マックスホームズ,,株式会社,東京都,品川区,東五反田５丁目２－３７インペリアル池田山３０３,,13,109,1410022,,,,,,,2021-11-16,1,,,,,マックスホームズ,0
1499,6010901049781,新規,0,2021-11-16,2021-11-16,株式会社ホトケカンパニー,,株式会社,東京都,世田谷区,太子堂５丁目３１番１７号,,13,112,1540004,,,,,,,2021-11-16,1,,,,,ホトケカンパニー,0
1500,6010901049798,新規,0,2021-11-16,2021-11-16,株式会社エスカパード,,株式会社,東京都,世田谷区,等々力１丁目２６番１０号,,13,112,1580082,,,,,,,2021-11-16,1,,,,,エスカパード,0
1501,6010901049815,新規,0,2021-11-16,2021-11-16,株式会社ＦＡＣＥＳ,,株式会社,東京都,世田谷区,太子堂２丁目１７－１２麻生ビル,,13,112,1540004,,,,,,,2021-11-16,1,,,,,フェイシズ,0
1510,6011101096788,新規,0,2021-11-16,2021-11-16,株式会社ミートコンパス,,株式会社,東京都,新宿区,若葉２丁目１２番地,,13,104,1600011,,,,,,,2021-11-16,1,,,,,ミートコンパス,0
1511,6011101096920,新規,0,2021-11-16,2021-11-16,株式会社ＦＯＣＵＳ,,株式会社,東京都,新宿区,西新宿６丁目１６番６号新宿タツミビル９０３号室,,13,104,1600023,,,,,,,2021-11-16,1,,,,,フォーカス,0
1513,6011103011175,新規,0,2021-11-16,2021-11-16,ＴＲＯＫ合同会社,,合同会社,東京都,新宿区,西新宿３丁目３番１３号西新宿水間ビル６階,,13,104,1600023,,,,,,,2021-11-16,1,,,,,トゥロック,0
1515,6011401023847,新規,0,2021-11-16,2021-11-16,株式会社山口国際税務会計事務所,,株式会社,東京都,板橋区,赤塚７丁目９番４号,,13,119,1750092,,,,,,,2021-11-16,1,,,,,ヤマグチコクサイゼイムカイケイジムショ,0
1520,6011601025544,新規,0,2021-11-16,2021-11-16,株式会社ラリー,,株式会社,東京都,練馬区,豊玉北４丁目１３番１３号ＣＡＳＡＢＬＯＣＣＯ練馬桜台１０１,,13,120,1760012,,,,,,,2021-11-16,1,,,,,ラリー,0
1522,6011703002994,新規,0,2021-11-16,2021-11-16,＿合源合同会社,00124865,合同会社,東京都,江戸川区,西葛西２丁目２３－９西葛西勝栄ビル１階,,13,123,1340088,,,,,,,2021-11-16,1,,,,,シンゴウゲン,0
1525,6011801039971,新規,0,2021-11-16,2021-11-16,鹿浜工業株式会社,,株式会社,東京都,足立区,鹿浜４丁目２６番１８号ビハーラ鹿浜３０２,,13,121,1230864,,,,,,,2021-11-16,1,,,,,シカハマコウギョウ,0
1526,6012401038538,新規,0,2021-11-16,2021-11-16,株式会社ウィンペット東京,,株式会社,東京都,小金井市,貫井北町５丁目２４番１５号,,13,210,1840015,,,,,,,2021-11-16,1,,,,,ウィンペットトーキョー,0
1532,6012701016771,新規,0,2021-11-16,2021-11-16,株式会社ＭＡＮＡＯＬＡ,,株式会社,東京都,西東京市,東町３丁目６番１号ＥｗＴｏｋｙｏ１Ｆ,,13,229,2020012,,,,,,,2021-11-16,1,,,,,マナオラ,0
1534,6012803002645,新規,0,2021-11-16,2021-11-16,合同会社Ｅｎａｔｕｒｉ,,合同会社,東京都,国分寺市,本町２丁目９番１号小笠原ビル３０１,,13,214,1850012,,,,,,,2021-11-16,1,,,,,エンナチュリ,0
1541,6020001143963,新規,0,2021-11-16,2021-11-16,株式会社ＴＳＵＮＡＧＵ,,株式会社,神奈川県,横浜市中区,尾上町６丁目８９,,14,104,2310015,,,,,,,2021-11-16,1,,,,,ツナグ,0
1550,6021001074471,新規,0,2021-11-16,2021-11-16,モリマーインベストメント株式会社,,株式会社,神奈川県,相模原市中央区,宮下１丁目２番２７号,,14,152,2520212,,,,,,,2021-11-16,1,,,,,モリマーインベストメント,0
1553,6021003011084,新規,0,2021-11-16,2021-11-16,合同会社タナバタ,,合同会社,神奈川県,鎌倉市,大町６丁目８番３５号２０３,,14,204,2480007,,,,,,,2021-11-16,1,,,,,タナバタ,0
1554,6021003011092,新規,0,2021-11-16,2021-11-16,合同会社ラヴィ・ポルン,,合同会社,神奈川県,平塚市,河内２１１番地の１エレガンテカーサ２０２,,14,203,2540903,,,,,,,2021-11-16,1,,,,,ラヴィポルン,0
1568,6030003018312,新規,0,2021-11-16,2021-11-16,合同会社５８エステイト,,合同会社,埼玉県,越谷市,赤山町１丁目３０５番地３,,11,222,3430807,,,,,,,2021-11-16,1,,,,,ゴーハチエステイト,0
1569,6030003018320,新規,0,2021-11-16,2021-11-16,日宝警備合同会社,,合同会社,埼玉県,越谷市,南越谷４丁目２１番地７,,11,222,3430845,,,,,,,2021-11-16,1,,,,,ニッポウケイビ,0
1585,6050001050141,新規,0,2021-11-16,2021-11-16,株式会社織弘工業,,株式会社,茨城県,守谷市,松前台１丁目２３番５号,,08,224,3020102,,,,,,,2021-11-16,1,,,,,オリヒロコウギョウ,0
1589,6060001034259,新規,0,2021-11-16,2021-11-16,株式会社ハヤブサ電装,,株式会社,栃木県,宇都宮市,上横田町８５３番地,,09,201,3210106,,,,,,,2021-11-16,1,,,,,ハヤブサデンソウ,0
1592,6080003002682,新規,0,2021-11-16,2021-11-16,合同会社ＹＡＮＢＹ,,合同会社,静岡県,榛原郡川根本町,崎平３７６番地の３,,22,429,4280418,,,,,,,2021-11-16,1,,,,,ヤンバイ,0
1606,6110001036191,新規,0,2021-11-16,2021-11-16,株式会社ＨＩＪＩＬＩ,,株式会社,新潟県,新潟市中央区,女池神明３丁目１４番４号,,15,103,9500943,,,,,,,2021-11-16,1,,,,,ヒジリ,0
1612,6120001241856,新規,0,2021-11-16,2021-11-16,株式会社ＬＩＦＥＥＤ,,株式会社,大阪府,大阪市平野区,加美東３丁目２－２０,,27,126,5470002,,,,,,,2021-11-16,1,,,,,ライフィード,0
1616,6120003020589,新規,0,2021-11-16,2021-11-16,トライアングルアセットマネジメント合同会社,,合同会社,大阪府,大阪市北区,豊崎３丁目１６番１６号,,27,127,5310072,,,,,,,2021-11-16,1,,,,,トライアングルアセットマネジメント,0
1617,6120003020597,新規,0,2021-11-16,2021-11-16,合同会社ｍｉｋａｎ,,合同会社,大阪府,大阪市天王寺区,小宮町３－８グランフェルティ夕陽ヶ丘５０５,,27,109,5430036,,,,,,,2021-11-16,1,,,,,ミカン,0
1618,6120005022559,新規,0,2021-11-16,2021-11-16,アリスト十三管理組合法人,,その他の設立登記法人,大阪府,大阪市淀川区,十三東５丁目１番５４アリスト十三管理事務室,,27,123,5320023,,,,,,,2021-11-16,1,,,,,アリストジュウソウ,0
1624,6120101064653,新規,0,2021-11-16,2021-11-16,株式会社Ｅｓｐｏｉｒ,,株式会社,大阪府,堺市中区,東山９５３番地３ウィンビル４階,,27,142,5998247,,,,,,,2021-11-16,1,,,,,エスポワール,0
1629,6122001035362,新規,0,2021-11-16,2021-11-16,株式会社峯製作所,,株式会社,大阪府,東大阪市,三島２丁目１５番１１号,,27,227,5780966,,,,,,,2021-11-16,1,,,,,ミネセイサクショ,0
1636,6130005016312,新規,0,2021-11-16,2021-11-16,一般社団法人国際貢献人材育成財団,,その他の設立登記法人,京都府,京都市上京区,宮垣町９１－１０２,,26,102,6020853,,,,,,,2021-11-16,1,,,,,コクサイコウケンジンザイイクセイザイダン,0
1643,6140001123854,新規,0,2021-11-16,2021-11-16,株式会社翔雲,,株式会社,兵庫県,神戸市北区,山田町小部字一ツ鍬山１０番地の１２,,28,109,6511101,,,,,,,2021-11-16,1,,,,,ショウウン,0
1644,6140001123879,新規,0,2021-11-16,2021-11-16,株式会社岩成造園,,株式会社,兵庫県,神戸市灘区,畑原通２丁目２番２１－１０２号,,28,102,6570822,,,,,,,2021-11-16,1,,,,,イワナリゾウエン,0
1645,6140001123887,新規,0,2021-11-16,2021-11-16,株式会社ウェーブライフ,,株式会社,兵庫県,神戸市東灘区,向洋町中６丁目６番地６１１号棟５１１号室,,28,101,6580032,,,,,,,2021-11-16,1,,,,,ウェーブライフ,0
1646,6140001123895,新規,0,2021-11-16,2021-11-16,株式会社木村アセットマネジメント,,株式会社,兵庫県,西宮市,殿山町１３番３３号,,28,204,6620065,,,,,,,2021-11-16,1,,,,,キムラアセットマネジメント,0
1648,6140003016981,新規,0,2021-11-16,2021-11-16,さくら美容室合同会社,,合同会社,兵庫県,西宮市,生瀬町２丁目２４番３号,,28,204,6691102,,,,,,,2021-11-16,1,,,,,,0
1649,6150001025109,新規,0,2021-11-16,2021-11-16,株式会社ファーター,,株式会社,奈良県,奈良市,富雄元町４丁目１０番３１号,,29,201,6310078,,,,,,,2021-11-16,1,,,,,ファーター,0
1653,6160001023813,新規,0,2021-11-16,2021-11-16,株式会社メモリアル石材,,株式会社,滋賀県,彦根市,平田町４２１番地,,25,202,5220041,,,,,,,2021-11-16,1,,,,,メモリアルセキザイ,0
1654,6160001023821,新規,0,2021-11-16,2021-11-16,株式会社Ｌｕａｎａ,,株式会社,滋賀県,湖南市,中央１丁目１２番地,,25,211,5203234,,,,,,,2021-11-16,1,,,,,ルアナ,0
1655,6160003002427,新規,0,2021-11-16,2021-11-16,合同会社ＧＩＲＡＦＦＥ,,合同会社,滋賀県,彦根市,宇尾町２５７番地２,,25,202,5220045,,,,,,,2021-11-16,1,,,,,ジラフ,0
1656,6170001016865,新規,0,2021-11-16,2021-11-16,株式会社青空,,株式会社,和歌山県,和歌山市,太田１５４番地１５,,30,201,6408323,,,,,,,2021-11-16,1,,,,,アオゾラ,0
1663,6180001148732,新規,0,2021-11-16,2021-11-16,株式会社アクアネット,,株式会社,愛知県,名古屋市緑区,六田１丁目１７８番地,,23,114,4580036,,,,,,,2021-11-16,1,,,,,アクアネット,0
1664,6180001148749,新規,0,2021-11-16,2021-11-16,株式会社１ｉｆｅｍａｔｅ,,株式会社,愛知県,名古屋市中区,栄４丁目１２番１９号,,23,106,4600008,,,,,,,2021-11-16,1,,,,,ライフメイト,0
1665,6180001148757,新規,0,2021-11-16,2021-11-16,株式会社ＩＫＫＯ,,株式会社,愛知県,名古屋市港区,船頭場１丁目５０３番地（ライオンズマンション南陽町第３　１２０４号）,,23,111,4550881,,,,,,,2021-11-16,1,,,,,イッコウ,0
1672,6180301035630,新規,0,2021-11-16,2021-11-16,株式会社玉元塗装,,株式会社,愛知県,安城市,横山町浜畔上９番地１,,23,212,4460045,,,,,,,2021-11-16,1,,,,,タマモトトソウ,0
1675,6190001028859,新規,0,2021-11-16,2021-11-16,ａｒｓ株式会社,,株式会社,三重県,松阪市,嬉野釜生田町５９４番地２,,24,204,5152401,,,,,,,2021-11-16,1,,,,,アース,0
1680,6200001039417,新規,0,2021-11-16,2021-11-16,ＨＡＲＵ　ｋｉｄｓ　ｃｌｕｂ株式会社,,株式会社,岐阜県,不破郡垂井町,府中２３３１番地の２,,21,361,5032114,,,,,,,2021-11-16,1,,,,,ハルキッズクラブ,0
1683,6210001018700,新規,0,2021-11-16,2021-11-16,株式会社キヴィス,,株式会社,福井県,福井市,東今泉町第５号３番地２５,,18,201,9188214,,,,,,,2021-11-16,1,,,,,キヴィス,0
1687,6240001058941,新規,0,2021-11-16,2021-11-16,株式会社Ｅｎｅｒｇｙ,,株式会社,広島県,東広島市,黒瀬町切田５２７番地,,34,212,7392617,,,,,,,2021-11-16,1,,,,,エナジー,0
1692,6250001019265,新規,0,2021-11-16,2021-11-16,サンキテック株式会社,,株式会社,山口県,下関市,熊野町３丁目３番１１号,,35,201,7510852,,,,,,,2021-11-16,1,,,,,サンキテック,0
1693,6250003002938,新規,0,2021-11-16,2021-11-16,合同会社ｈａｎａｗｏ,,合同会社,山口県,山口市,小郡令和１丁目１番１号ＫＤＤＩ維新ホール１階産業交流スペースＭｅｇｒｉｂａ,,35,203,7540041,,,,,,,2021-11-16,1,,,,,ハナオ,0
1699,6260001036202,新規,0,2021-11-16,2021-11-16,株式会社まちと学びのイノベーション研究所,,株式会社,岡山県,真庭市,久世２５１１番地１３,,33,214,7193201,,,,,,,2021-11-16,1,,,,,マチトマナビノイノベーションケンキュウショ,0
1700,6260001036219,新規,0,2021-11-16,2021-11-16,株式会社アルバ,,株式会社,岡山県,岡山市北区,今６丁目４番９号,,33,101,7000975,,,,,,,2021-11-16,1,,,,,アルバ,0
1710,6290001095377,新規,0,2021-11-16,2021-11-16,株式会社Ａ＆Ｋ,,株式会社,福岡県,飯塚市,平恒３８４番地１,,40,205,8200073,,,,,,,2021-11-16,1,,,,,エーアンドケー,0
1711,6290001095402,新規,0,2021-11-16,2021-11-16,アイシェア株式会社,,株式会社,福岡県,太宰府市,大字内山３４１番地１,,40,221,8180115,,,,,,,2021-11-16,1,,,,,アイシェア,0
1720,6290801028008,新規,0,2021-11-16,2021-11-16,株式会社Ａｉｌｅ,,株式会社,福岡県,北九州市小倉南区,守恒３丁目１番８－２１２号,,40,107,8020972,,,,,,,2021-11-16,1,,,,,エール,0
1721,6290803003982,新規,0,2021-11-16,2021-11-16,合同会社小幡工業,,合同会社,福岡県,北九州市小倉北区,明和町１番２８－７０４号,,40,106,8020017,,,,,,,2021-11-16,1,,,,,オバタコウギョウ,0
1723,6300001012702,新規,0,2021-11-16,2021-11-16,株式会社ＴＡＫＥＫＥＮ,,株式会社,佐賀県,佐賀市,嘉瀬町大字荻野２５５４番地３,,41,201,8400864,,,,,,,2021-11-16,1,,,,,タケケン,0
1725,6310001017584,新規,0,2021-11-16,2021-11-16,エイキ産業株式会社,,株式会社,長崎県,松浦市,鷹島町阿翁免７５５番地,,42,208,8594302,,,,,,,2021-11-16,1,,,,,エイキサンギョウ,0
1734,6330001029181,新規,0,2021-11-16,2021-11-16,ＴＳガレージ株式会社,,株式会社,熊本県,熊本市南区,富合町志々水８５０番地１,,43,104,8614163,,,,,,,2021-11-16,1,,,,,ティエスガレージ,0
1738,6330003009132,新規,0,2021-11-16,2021-11-16,合同会社いのうえ,,合同会社,熊本県,玉名市,岱明町鍋１６４番地,,43,206,8690211,,,,,,,2021-11-16,1,,,,,イノウエ,0
1739,6340001024272,新規,0,2021-11-16,2021-11-16,郡山不動産開発株式会社,,株式会社,鹿児島県,鹿児島市,郡山町３５８０番地１,,46,201,8911105,,,,,,,2021-11-16,1,,,,,コオリヤマフドウサンカイハツ,0
1741,6350001017424,新規,0,2021-11-16,2021-11-16,株式会社Ｏｎｅ　Ｆｏｒ　Ａｌｌ,,株式会社,宮崎県,宮崎市,月見ケ丘６丁目１４番２号,,45,201,8800926,,,,,,,2021-11-16,1,,,,,ワンフォーオール,0
1746,6370001047824,新規,0,2021-11-16,2021-11-16,株式会社千桜いちご農園,,株式会社,宮城県,柴田郡大河原町,大谷字稗田前７３番地,,04,321,9891201,,,,,,,2021-11-16,1,,,,,センオウイチゴノウエン,0
1747,6370001047832,新規,0,2021-11-16,2021-11-16,株式会社ＥＫＴ,,株式会社,宮城県,仙台市若林区,大和町４丁目２番１５号ＷＫ＆Ｒ１ビル７階,,04,103,9840042,,,,,,,2021-11-16,1,,,,,イーケーティー,0
1753,6390001016678,新規,0,2021-11-16,2021-11-16,すずき看板株式会社,,株式会社,山形県,長井市,寺泉２６１１番地,,06,209,9930061,,,,,,,2021-11-16,1,,,,,スズキカンバン,0
1761,6430003013363,新規,0,2021-11-16,2021-11-16,合同会社Ｓｏ・テック,,合同会社,北海道,石狩市,花川北四条１丁目２番地３９,,01,235,0613214,,,,,,,2021-11-16,1,,,,,ソーテック,0
1762,6430003013371,新規,0,2021-11-16,2021-11-16,合同会社ｔｏｋｉｔｔｏ,,合同会社,北海道,夕張郡栗山町,松風４丁目２１番地２,,01,429,0691512,,,,,,,2021-11-16,1,,,,,トキト,0
1764,6450001013529,新規,0,2021-11-16,2021-11-16,株式会社アクア,,株式会社,北海道,富良野市,日の出町６番２号,,01,229,0760025,,,,,,,2021-11-16,1,,,,,アクア,0
1767,6480001011554,新規,0,2021-11-16,2021-11-16,株式会社マスタック,,株式会社,徳島県,三好市,山城町大和川６９７番地１,,36,208,7795301,,,,,,,2021-11-16,1,,,,,マスタック,0
1770,6500001023803,新規,0,2021-11-16,2021-11-16,株式会社ＫＲＡＤＬＥＸ,,株式会社,愛媛県,宇和島市,伊吹町５３２番地１,,38,203,7980022,,,,,,,2021-11-16,1,,,,,クレイドリックス,0
1771,6500001023811,新規,0,2021-11-16,2021-11-16,株式会社クレイン,,株式会社,愛媛県,松山市,来住町２３３番地１,,38,201,7911102,,,,,,,2021-11-16,1,,,,,クレイン,0
1773,6500005008429,新規,0,2021-11-16,2021-11-16,一般社団法人宇和島ＳＤＧｓ社会教育事業団,,その他の設立登記法人,愛媛県,宇和島市,和霊元町４丁目１番３号,,38,203,7980015,,,,,,,2021-11-16,1,,,,,ウワジマエスディージーズシャカイキョウイクジギョウダン,0
1775,6700150105596,新規,0,2021-11-16,2021-11-04,ミレットキッチン　花,,その他,岩手県,花巻市,轟木７地割２０３番,,03,205,0250131,,,,,,,2021-11-04,1,,,,,ミレツトキツチンフラワー,0
1776,6700150105613,新規,0,2021-11-16,2021-11-05,Ｔｈｅ　Ｋｅｎｔａｒｏ　Ｙａｍａｕｃｈｉ　Ｐｒｏｊｅｃｔ,,その他,東京都,豊島区,西池袋２丁目２９－１１エルフ池袋１０２,,13,116,1710021,,,,,,,2021-11-05,1,,,,,ザケンタロウヤマウチプロジエクト,0
1777,6700150105794,新規,0,2021-11-16,2021-11-16,ＤＩＧＩＴＡＬ　ＡＵＴＯ　ＭＡＲＴ,,外国会社等,千葉県,八街市,東吉田３５８－４オフィス３,,12,230,2891114,スリランカ民主社会主義共和国、キャンディ、アンバテナ、カハワッタ、Ｎｏ．３５／１／Ａ,,,,,,2021-11-16,1,,,,,デジタルオートマート,0
1778,6700150105811,新規,0,2021-11-16,2021-11-16,ＫＡＲＡＡＭＡ　ＴＲＡＤＩＮＧ　ＣＯＭＰＡＮＹ,,外国会社等,千葉県,八街市,榎戸２６２－１－３,,12,230,2891106,スリランカ民主社会主義共和国、マダワラバザール、モスクロード、Ｎｏ．９１／５Ｂ,,,,,,2021-11-16,1,,,,,カラーマトレーデイングカンパニー,0
1785,7010001222486,新規,0,2021-11-16,2021-11-16,株式会社ネオエストＭ,,株式会社,東京都,中央区,銀座３丁目１２番５号宏和ビル,,13,102,1040061,,,,,,,2021-11-16,1,,,,,ネオエストエム,0
1786,7010001222528,新規,0,2021-11-16,2021-11-16,株式会社転生,,株式会社,東京都,中央区,新川２丁目１０番１号ブリリアザタワー東京八重洲アベニュー３０９,,13,102,1040033,,,,,,,2021-11-16,1,,,,,テンセイ,0
1787,7010001222536,新規,0,2021-11-16,2021-11-16,ミリズム株式会社,,株式会社,東京都,千代田区,富士見１丁目３番１１号富士見デュープレックスＢ’ｓ４Ｆ,,13,101,1020071,,,,,,,2021-11-16,1,,,,,ミリズム,0
1789,7010003036307,新規,0,2021-11-16,2021-11-16,合同会社三誠,,合同会社,東京都,中央区,日本橋蛎殻町２丁目２－２プランドール水天宮６０５号,,13,102,1030014,,,,,,,2021-11-16,1,,,,,サンセイ,0
1794,7010103001813,新規,0,2021-11-16,2021-11-16,合同会社四季綜合事務所,,合同会社,東京都,八王子市,元横山町２丁目１番１３号,,13,201,1920063,,,,,,,2021-11-16,1,,,,,シキソウゴウジムショ,0
1804,7010401163859,新規,0,2021-11-16,2021-11-16,ＬＯＤＩＳＨ株式会社,,株式会社,東京都,港区,南青山２丁目２番１５号,,13,103,1070062,,,,,,,2021-11-16,1,,,,,ロディッシュ,0
1806,7010403026519,新規,0,2021-11-16,2021-11-16,合同会社下村技販,,合同会社,東京都,港区,浜松町２丁目２番１５号浜松町ダイヤビル２Ｆ,,13,103,1050013,,,,,,,2021-11-16,1,,,,,シモムラギハン,0
1807,7010405020395,新規,0,2021-11-16,2021-11-16,一般社団法人東京ライフプラン協会,,その他の設立登記法人,東京都,港区,赤坂８丁目５番４０号ＰＥＧＡＳＵＳＡＯＹＡＭＡ,,13,103,1070052,,,,,,,2021-11-16,1,,,,,トウキョウライフプランキョウカイ,0
1809,7010501048101,新規,0,2021-11-16,2021-11-16,株式会社Ｇ・ネクスト,,株式会社,東京都,台東区,東上野４丁目６番７号シティーコープ上野広徳５０４,,13,106,1100015,,,,,,,2021-11-16,1,,,,,ジーネクスト,0
1810,7010503006429,新規,0,2021-11-16,2021-11-16,ＯＺ合同会社,,合同会社,東京都,台東区,柳橋２丁目１８番１１－７０２号,,13,106,1110052,,,,,,,2021-11-16,1,,,,,オズ,0
1824,7011001144010,新規,0,2021-11-16,2021-11-16,クオーク株式会社,,株式会社,東京都,渋谷区,渋谷３丁目１番９号渋谷ＹＡＺＡＷＡビル,,13,113,1500002,,,,,,,2021-11-16,1,,,,,クオーク,0
1825,7011001144043,新規,0,2021-11-16,2021-11-16,株式会社Ｔａｏｌｉｖｅ　ＪＡＰＡＮ,,株式会社,東京都,渋谷区,東１丁目１０番６号,,13,113,1500011,,,,,,,2021-11-16,1,,,,,タオライフジャパン,0
1826,7011005009291,新規,0,2021-11-16,2021-11-16,一般財団法人本庄八郎記念お茶財団,,その他の設立登記法人,東京都,渋谷区,富ヶ谷１丁目１４番９号,,13,113,1510063,,,,,,,2021-11-16,1,,,,,ホンジョウハチロウキネンオチャザイダン,0
1830,7011101096911,新規,0,2021-11-16,2021-11-16,株式会社猫山,,株式会社,東京都,新宿区,弁天町１７７番地ＤＵＡＲＥＳ早稲田６０６,,13,104,1620851,,,,,,,2021-11-16,1,,,,,ネコヤマ,0
1833,7011103011174,新規,0,2021-11-16,2021-11-16,合同会社ＭＪ,,合同会社,東京都,新宿区,西新宿３丁目３番１３号西新宿水間ビル６階,,13,104,1600023,,,,,,,2021-11-16,1,,,,,エムジェイ,0
1835,7011201023419,新規,0,2021-11-16,2021-11-16,株式会社ＧＬＯＳＳ　ＭＯＲＥ,,株式会社,東京都,中野区,新井３丁目９番１０号,,13,114,1650026,,,,,,,2021-11-16,1,,,,,グロスモア,0
1840,7011501027482,新規,0,2021-11-16,2021-11-16,メメント株式会社,,株式会社,東京都,北区,赤羽１丁目２６番４－１２０２号レジェンダリーガーデン赤羽ウエストビュー,,13,117,1150045,,,,,,,2021-11-16,1,,,,,メメント,0
1845,7011601025543,新規,0,2021-11-16,2021-11-16,株式会社食ノ交,,株式会社,東京都,練馬区,東大泉１丁目３３番１３号ラ・ルーチェ東大泉１階,,13,120,1780063,,,,,,,2021-11-16,1,,,,,ショクノコウ,0
1846,7011605002415,新規,0,2021-11-16,2021-11-16,特定非営利活動法人健康麻雀コミュニティの会,,その他の設立登記法人,東京都,練馬区,大泉学園町７丁目１６番１９号コンフォート大泉学園地下１階,,13,120,1780061,,,,,,,2021-11-16,1,,,,,ケンコウマージャンコミュニティノカイ,0
1851,7011801039970,新規,0,2021-11-16,2021-11-16,株式会社ＰＲＯＰ,,株式会社,東京都,葛飾区,青戸２丁目１番８号,,13,122,1250062,,,,,,,2021-11-16,1,,,,,プロップ,0
1852,7011801039979,新規,0,2021-11-16,2021-11-16,株式会社Ａｃｔ,,株式会社,東京都,葛飾区,東新小岩１丁目６番７号１０１,,13,122,1240023,,,,,,,2021-11-16,1,,,,,アクト,0
1855,7012701016754,新規,0,2021-11-16,2021-11-16,株式会社ＡａＴＥ,,株式会社,東京都,清瀬市,元町１丁目３番３８号レフィアント３０５号室,,13,221,2040021,,,,,,,2021-11-16,1,,,,,エイト,0
1856,7012701016770,新規,0,2021-11-16,2021-11-16,ＢＨＡＮＤＡＲＩ株式会社,,株式会社,東京都,東久留米市,本町２丁目１番３号１Ｆ,,13,222,2030053,,,,,,,2021-11-16,1,,,,,バンダリ,0
1865,7020001143905,新規,0,2021-11-16,2021-11-16,株式会社Ｗｉｎｔｙ,,株式会社,神奈川県,横浜市西区,紅葉ケ丘８番地クオス横濱紅葉坂２０２,,14,103,2200044,,,,,,,2021-11-16,1,,,,,ウィンテイ,0
1866,7020001143962,新規,0,2021-11-16,2021-11-16,株式会社プログレア,,株式会社,神奈川県,横浜市中区,扇町３丁目８番４,,14,104,2310027,,,,,,,2021-11-16,1,,,,,プログレア,0
1870,7020003020838,新規,0,2021-11-16,2021-11-16,ＩＺＡＷＡ合同会社,,合同会社,神奈川県,横浜市保土ケ谷区,上菅田町４１８番地５,,14,106,2400051,,,,,,,2021-11-16,1,,,,,イザワ,0
1876,7021001074479,新規,0,2021-11-16,2021-11-16,株式会社希ぼう,,株式会社,神奈川県,平塚市,明石町２４番４号,,14,203,2540042,,,,,,,2021-11-16,1,,,,,キボウ,0
1877,7021001074495,新規,0,2021-11-16,2021-11-16,株式会社ＴＮＨ,,株式会社,神奈川県,平塚市,四之宮６丁目６番１７号,,14,203,2540014,,,,,,,2021-11-16,1,,,,,ティーエヌエイチ,0
1885,7030001145339,新規,0,2021-11-16,2021-11-16,株式会社ｄｏｔ　ａｌｌ,,株式会社,埼玉県,越谷市,南越谷３丁目２２番５号山越コーポ２０１,,11,222,3430845,,,,,,,2021-11-16,1,,,,,ドットオール,0
1893,7040003018946,新規,0,2021-11-16,2021-11-16,ＭＩ　ＪＡＰＡＮ合同会社,,合同会社,千葉県,市川市,曽谷３丁目１６番１９号,,12,203,2720832,,,,,,,2021-11-16,1,,,,,エムアイジャパン,0
1896,7050001050157,新規,0,2021-11-16,2021-11-16,株式会社ホームＢａｓｅ,,株式会社,茨城県,ひたちなか市,牛久保１丁目５番２５号,,08,221,3111213,,,,,,,2021-11-16,1,,,,,ホームベース,0
1897,7050001050165,新規,0,2021-11-16,2021-11-16,株式会社Ｓ－ＬＩＦＥ,,株式会社,茨城県,取手市,戸頭７丁目５番２１号,,08,217,3020034,,,,,,,2021-11-16,1,,,,,エスライフ,0
1899,7050003006207,新規,0,2021-11-16,2021-11-16,Ｔｈｅ　ｕｎｉｑｕｅ　ｅｘｐｅｒｔ合同会社,,合同会社,茨城県,稲敷郡阿見町,うずら野４丁目６－１コーポ大恵１０２,,08,443,3000341,,,,,,,2021-11-16,1,,,,,ザユニークエクスパート,0
1900,7050005012970,新規,0,2021-11-16,2021-11-16,ＪＶサポート協同組合,,その他の設立登記法人,茨城県,常総市,水海道橋本町３６００番地２、３階,,08,211,3030003,,,,,,,2021-11-16,1,,,,,ジェイブイサポート,0
1902,7060001034299,新規,0,2021-11-16,2021-11-16,株式会社ＩＭＡＧＩＮＡＢＬＥ,,株式会社,栃木県,下野市,川中子３３２９番地２１７,,09,216,3290415,,,,,,,2021-11-16,1,,,,,イマジネイブル,0
1907,7080103002458,新規,0,2021-11-16,2021-11-16,合同会社Ｇｒｉｎｋ,,合同会社,静岡県,三島市,千枚原９番地の８,,22,206,4110027,,,,,,,2021-11-16,1,,,,,グリンク,0
1908,7080401025482,新規,0,2021-11-16,2021-11-16,株式会社ＧＲＡＶＩＴＹ,,株式会社,静岡県,浜松市西区,篠原町２３３３番地の１,,22,133,4310201,,,,,,,2021-11-16,1,,,,,グラビティ,0
1920,7120001241839,新規,0,2021-11-16,2021-11-16,株式会社ＤＩＯ,,株式会社,大阪府,大阪市西区,靱本町１丁目１４番１１号ＲＥ０１４－２０３,,27,106,5500004,,,,,,,2021-11-16,1,,,,,ディオ,0
1921,7120001241847,新規,0,2021-11-16,2021-11-16,株式会社ＨｉｇｈＣｈｅｅｓｅ,,株式会社,大阪府,大阪市北区,曾根崎新地１丁目４番２４号タカダヤビルＩＩ－４階,00124875,27,127,5300002,,,,,,,2021-11-16,1,,,,,ハイチーズ,0
1927,7120003020588,新規,0,2021-11-16,2021-11-16,合同会社オールウィン,,合同会社,大阪府,大阪市中央区,備後町１丁目２番６－１００１号,,27,128,5410051,,,,,,,2021-11-16,1,,,,,オールウィン,0
1928,7120003020596,新規,0,2021-11-16,2021-11-16,ＯＷＬ合同会社,,合同会社,大阪府,大阪市北区,梅田１丁目１１番４号大阪駅前第４ビル９階９２３－１６１４号,,27,127,5300001,,,,,,,2021-11-16,1,,,,,オウル,0
1939,7122001035361,新規,0,2021-11-16,2021-11-16,株式会社サンテクノ,,株式会社,大阪府,東大阪市,南鴻池町１丁目６番１０号,,27,227,5780961,,,,,,,2021-11-16,1,,,,,サンテクノ,0
1942,7130001070543,新規,0,2021-11-16,2021-11-16,株式会社古川アソシエコンサルタンツ,,株式会社,京都府,京都市西京区,大原野西竹の里町１丁目１４番地の９３,,26,111,6101145,,,,,,,2021-11-16,1,,,,,フルカワアソシエコンサルタンツ,0
1944,7130003007584,新規,0,2021-11-16,2021-11-16,アズカルク合同会社,,合同会社,京都府,京都市中京区,鍛冶町１８７－９０１,,26,104,6048267,,,,,,,2021-11-16,1,,,,,アズカルク,0
1950,7140001123903,新規,0,2021-11-16,2021-11-16,株式会社＿建,00124874,株式会社,兵庫県,尼崎市,杭瀬南新町２丁目１番１２号,,28,202,6600822,,,,,,,2021-11-16,1,,,,,テッケン,0
1953,7140003016989,新規,0,2021-11-16,2021-11-16,合同会社しろはと神戸,,合同会社,兵庫県,神戸市長田区,大塚町１丁目２番２号,,28,106,6530811,,,,,,,2021-11-16,1,,,,,シロハトコウベ,0
1955,7150001025108,新規,0,2021-11-16,2021-11-16,株式会社Ｃｗｔｃｈ,,株式会社,奈良県,葛城市,林堂１００番地１１,,29,211,6392131,,,,,,,2021-11-16,1,,,,,クッチ,0
1957,7160001023812,新規,0,2021-11-16,2021-11-16,暮らしく株式会社,,株式会社,滋賀県,大津市,打出浜２番１号４０１号室（コラボしが２１内）,,25,201,5200806,,,,,,,2021-11-16,1,,,,,クラシク,0
1958,7160001023820,新規,0,2021-11-16,2021-11-16,株式会社シエル,,株式会社,滋賀県,栗東市,出庭６００番地１,,25,208,5203041,,,,,,,2021-11-16,1,,,,,シエル,0
1959,7160005011012,新規,0,2021-11-16,2021-11-16,特定非営利活動法人天翔会,,その他の設立登記法人,滋賀県,甲賀市,甲賀町大原上田１４８９番地１,,25,209,5203415,,,,,,,2021-11-16,1,,,,,テンショウカイ,0
1968,7180001148681,新規,0,2021-11-16,2021-11-16,株式会社Ｕｎｉｓｏｎ　Ａｒｔｓ,,株式会社,愛知県,名古屋市港区,浜１丁目８－１,,23,111,4550036,,,,,,,2021-11-16,1,,,,,ユニゾンアーツ,0
1969,7180001148723,新規,0,2021-11-16,2021-11-16,Ｍｏｔｈｅｒｓｏｎ　Ａｕｔｏｍｏｔｉｖｅ　Ｇｉｋｅｎ　Ｉｎｄｕｓｔｒｉｅｓ株式会社,,株式会社,愛知県,名古屋市中区,丸の内１丁目１６番４号,,23,106,4600002,,,,,,,2021-11-16,1,,,,,マザーソンオートモーティブギケンインダストリーズ,0
1970,7180001148748,新規,0,2021-11-16,2021-11-16,株式会社アンドユニーク,,株式会社,愛知県,名古屋市中区,松原２丁目２番３３号,,23,106,4600017,,,,,,,2021-11-16,1,,,,,アンドユニーク,0
1976,7180005019516,新規,0,2021-11-16,2021-11-16,一般社団法人社会医療協会,,その他の設立登記法人,愛知県,名古屋市東区,東桜１丁目１０番２９号パークサイドビル栄６階,,23,102,4610005,,,,,,,2021-11-16,1,,,,,シャカイイリョウキョウカイ,0
1980,7180303005168,新規,0,2021-11-16,2021-11-16,合同会社Ｒａｎｇｅｒｓ,,合同会社,愛知県,西尾市,東幡豆町田中６９番地１,,23,213,4440701,,,,,,,2021-11-16,1,,,,,レンジャーズ,0
1981,7190001028858,新規,0,2021-11-16,2021-11-16,エナジー三重株式会社,,株式会社,三重県,松阪市,星合町２３７６番地,,24,204,5152101,,,,,,,2021-11-16,1,,,,,エナジーミエ,0
1985,7190003003818,新規,0,2021-11-16,2021-11-16,合同会社ココくらす,,合同会社,三重県,南牟婁郡御浜町,大字阪本５４４番地,,24,561,5195321,,,,,,,2021-11-16,1,,,,,ココクラス,0
1988,7200001039416,新規,0,2021-11-16,2021-11-16,株式会社サンハーツ,,株式会社,岐阜県,各務原市,蘇原大島町１丁目８０番地２,,21,213,5040847,,,,,,,2021-11-16,1,,,,,サンハーツ,0
1991,7210003001422,新規,0,2021-11-16,2021-11-16,合同会社おかもと自動車福井,,合同会社,福井県,福井市,花堂東１丁目３１番７号,,18,201,9188013,,,,,,,2021-11-16,1,,,,,オカモトジドウシャフクイ,0
1995,7220005008613,新規,0,2021-11-16,2021-11-16,特定非営利活動法人おむすび,,その他の設立登記法人,石川県,河北郡内灘町,字千鳥台１丁目１３１番地２,,17,365,9200277,,,,,,,2021-11-16,1,,,,,オムスビ,0
2007,7240001058916,新規,0,2021-11-16,2021-11-16,ＨＴドリーム株式会社,,株式会社,広島県,東広島市,高屋高美が丘３丁目１８番１４号,,34,212,7392115,,,,,,,2021-11-16,1,,,,,エイチティードリーム,0
2008,7240001058940,新規,0,2021-11-16,2021-11-16,七色工務店株式会社,,株式会社,広島県,広島市安佐南区,八木４丁目３４番１８号,,34,105,7310101,,,,,,,2021-11-16,1,,,,,ナナイロコウムテン,0
2010,7250001019264,新規,0,2021-11-16,2021-11-16,株式会社フジツウ,,株式会社,山口県,岩国市,門前町２丁目４２番１０号,,35,208,7400031,,,,,,,2021-11-16,1,,,,,フジツウ,0
2013,7260001036218,新規,0,2021-11-16,2021-11-16,株式会社一舞志,,株式会社,岡山県,倉敷市,真備町妹４５００番地１,,33,202,7101303,,,,,,,2021-11-16,1,,,,,イチブシ,0
2020,7290001095392,新規,0,2021-11-16,2021-11-16,株式会社ソラツチヤサイ,,株式会社,福岡県,太宰府市,吉松４丁目５番１６号,,40,221,8180138,,,,,,,2021-11-16,1,,,,,ソラツチヤサイ,0
2026,7290003011819,新規,0,2021-11-16,2021-11-16,ＡｎｙＴｉｍｅ合同会社,,合同会社,福岡県,糟屋郡久山町,大字久原３５４９－２３４,,40,348,8112501,,,,,,,2021-11-16,1,,,,,エニタイム,0
2027,7290003011827,新規,0,2021-11-16,2021-11-16,合同会社ｃｈａｒ,,合同会社,福岡県,福岡市中央区,大宮２丁目１番３１号２Ｆ,,40,133,8100013,,,,,,,2021-11-16,1,,,,,チャー,0
2029,7290801027999,新規,0,2021-11-16,2021-11-16,株式会社高野工務店,00124873,株式会社,福岡県,北九州市戸畑区,菅原２丁目１２番５号,,40,105,8040044,,,,,,,2021-11-16,1,,,,,タカノコウムテン,0
2030,7290801028007,新規,0,2021-11-16,2021-11-16,株式会社サジェスト,,株式会社,福岡県,北九州市小倉北区,吉野町１０－２５－５０１,,40,106,8020085,,,,,,,2021-11-16,1,,,,,サジェスト,0
2037,7310001017583,新規,0,2021-11-16,2021-11-16,株式会社長崎山椒ファーム,,株式会社,長崎県,大村市,陰平町５９４番地,,42,205,8560841,,,,,,,2021-11-16,1,,,,,ナガサキサンショウファーム,0
2038,7310001017591,新規,0,2021-11-16,2021-11-16,株式会社もろおかライフサポート,,株式会社,長崎県,諫早市,多良見町化屋７８６番地９,,42,204,8590401,,,,,,,2021-11-16,1,,,,,モロオカライフサポート,0
2041,7330001029180,新規,0,2021-11-16,2021-11-16,株式会社リルレ,,株式会社,熊本県,八代市,鷹辻町１番３９号,,43,202,8660866,,,,,,,2021-11-16,1,,,,,リルレ,0
2042,7330001029189,新規,0,2021-11-16,2021-11-16,株式会社新古今社,,株式会社,熊本県,熊本市中央区,小沢町５１番地,,43,101,8600042,,,,,,,2021-11-16,1,,,,,シンコキンシャ,0
2043,7330001029197,新規,0,2021-11-16,2021-11-16,株式会社ＭＹ　ＳＴＹＬＥ．ＪＡＰＡＮ,,株式会社,熊本県,熊本市西区,上代１丁目７番５０号,,43,103,8600068,,,,,,,2021-11-16,1,,,,,マイスタイルドットジャパン,0
2044,7330003009131,新規,0,2021-11-16,2021-11-16,合同会社櫻寿,,合同会社,熊本県,菊池市,木柑子１４８０番地２６,,43,210,8611315,,,,,,,2021-11-16,1,,,,,オウジュ,0
2045,7330005010434,新規,0,2021-11-16,2021-11-16,医療法人社団匠新会,,その他の設立登記法人,熊本県,熊本市中央区,水道町８－２秀匠苑ビル３階,,43,101,8600844,,,,,,,2021-11-16,1,,,,,ショウシンカイ,0
2047,7340003003629,新規,0,2021-11-16,2021-11-16,合同会社ＳＫプランニング,,合同会社,鹿児島県,いちき串木野市,本浜町２５６番地,,46,219,8960042,,,,,,,2021-11-16,1,,,,,エスケイプランニング,0
2049,7350001017423,新規,0,2021-11-16,2021-11-16,株式会社悠結,,株式会社,宮崎県,児湯郡高鍋町,大字持田１４４６番地１０,,45,401,8840005,,,,,,,2021-11-16,1,,,,,ユウ,0
2050,7360001029624,新規,0,2021-11-16,2021-11-16,株式会社ＭＩＲＡＭＵＩ,,株式会社,沖縄県,宜野湾市,字大謝名２１５番地,,47,205,9012225,,,,,,,2021-11-16,1,,,,,ミラムイ,0
2053,7360003011514,新規,0,2021-11-16,2021-11-16,合同会社ｈｏｒｉｚｏｎ,,合同会社,沖縄県,宜野湾市,字大謝名９０－３ＬＩＮＫ５８・２階,,47,205,9012225,,,,,,,2021-11-16,1,,,,,ホライゾン,0
2057,7370001047831,新規,0,2021-11-16,2021-11-16,株式会社トトネ,,株式会社,宮城県,仙台市若林区,古城３丁目７番５号クリエイトビル１階,,04,103,9840825,,,,,,,2021-11-16,1,,,,,トトネ,0
2059,7370003005481,新規,0,2021-11-16,2021-11-16,合同会社ＩＤＧＲＯＷＴＨ,,合同会社,宮城県,仙台市宮城野区,福田町１丁目１０番３７号,,04,102,9830023,,,,,,,2021-11-16,1,,,,,アイディーグロース,0
2063,7380001032345,新規,0,2021-11-16,2021-11-16,株式会社Ｂｌｉｓｓｆｕｌ,,株式会社,福島県,郡山市,静町１１番３５号,,07,203,9630203,,,,,,,2021-11-16,1,,,,,ブリッスフル,0
2068,7410003003588,新規,0,2021-11-16,2021-11-16,田口農園合同会社,,合同会社,秋田県,仙北郡美郷町,六郷東根字上雀柳１２８番地２,,05,434,0191403,,,,,,,2021-11-16,1,,,,,タグチノウエン,0
2076,7430001085395,新規,0,2021-11-16,2021-11-16,株式会社かまかす,,株式会社,北海道,札幌市豊平区,平岸二条９丁目１番１７号,,01,105,0620932,,,,,,,2021-11-16,1,,,,,カマカス,0
2085,7480001011553,新規,0,2021-11-16,2021-11-16,株式会社ブラン,,株式会社,徳島県,徳島市,大谷町紅葉山４９番地１１,,36,201,7708031,,,,,,,2021-11-16,1,,,,,ブラン,0
2086,7500001023810,新規,0,2021-11-16,2021-11-16,株式会社ＮＳＴ,,株式会社,愛媛県,新居浜市,七宝台町甲２３７５番地の１２０,,38,205,7920855,,,,,,,2021-11-16,1,,,,,エヌエスティー,0
2088,7500005008428,新規,0,2021-11-16,2021-11-16,一般社団法人アイスタイル,,その他の設立登記法人,愛媛県,松山市,道後緑台１１番１６号,,38,201,7900847,,,,,,,2021-11-16,1,,,,,アイスタイル,0
2089,7700150105810,新規,0,2021-11-16,2021-11-16,ＯＭＥＥ　ＡＵＴＯ　ＭＡＲＴ,,外国会社等,千葉県,八街市,榎戸６６４－２９マルベリハウスサポートオフィスＡ２０２,,12,230,2891106,スリランカ民主社会主義共和国、クルネガラ、パンシヤガマ、マデテヤゴルラ、７８,,,,,,2021-11-16,1,,,,,オミーオートマート,0
2109,8010001222477,新規,0,2021-11-16,2021-11-16,株式会社Ｐ．Ｍ．Ａ．コミュニケーションズ,,株式会社,東京都,千代田区,九段南２丁目９番４号久保寺ツインタワービル２階,,13,101,1020074,,,,,,,2021-11-16,1,,,,,ピーエムエーコミュニケーションズ,0
2110,8010001222485,新規,0,2021-11-16,2021-11-16,Ｍａｒｉｎｅホールディングス株式会社,,株式会社,東京都,千代田区,丸の内１丁目９番１号,,13,101,1000005,,,,,,,2021-11-16,1,,,,,マリーンホールディングス,0
2111,8010001222551,新規,0,2021-11-16,2021-11-16,ジョジョライフ株式会社,,株式会社,東京都,中央区,日本橋人形町２丁目３４番８号人形町ＷＩＮＧビル６階,,13,102,1030013,,,,,,,2021-11-16,1,,,,,ジョジョライフ,0
2112,8010001222568,新規,0,2021-11-16,2021-11-16,ＡＬＬ　ＩＮ株式会社,,株式会社,東京都,千代田区,神田佐久間町１丁目１４番地,,13,101,1010025,,,,,,,2021-11-16,1,,,,,オールイン,0
2113,8010001222592,新規,0,2021-11-16,2021-11-16,株式会社膝栗毛,,株式会社,東京都,千代田区,有楽町１丁目１２番１号,,13,101,1000006,,,,,,,2021-11-16,1,,,,,ヒザクリゲ,0
2116,8010005034217,新規,0,2021-11-16,2021-11-16,新居浜太陽光一般社団法人,,その他の設立登記法人,東京都,千代田区,丸の内３丁目１番１号東京共同会計事務所内,,13,101,1000005,,,,,,,2021-11-16,1,,,,,ニイハマタイヨウコウ,0
2117,8010005034225,新規,0,2021-11-16,2021-11-16,一般社団法人アールイートラスト,,その他の設立登記法人,東京都,千代田区,有楽町１丁目２番２号,,13,101,1000006,,,,,,,2021-11-16,1,,,,,アールイートラスト,0
2118,8010101014956,新規,0,2021-11-16,2021-11-16,株式会社ＴＯＲ　ｚｗｅｉ,,株式会社,東京都,八王子市,東浅川町１０２４番地５,,13,201,1930834,,,,,,,2021-11-16,1,,,,,トアツヴァイ,0
2124,8010401163874,新規,0,2021-11-16,2021-11-16,株式会社ライトステップ,,株式会社,東京都,港区,芝５丁目２０番９号,,13,103,1080014,,,,,,,2021-11-16,1,,,,,ライトステップ,0
2125,8010403026526,新規,0,2021-11-16,2021-11-16,エムユーエム合同会社,,合同会社,東京都,港区,西新橋１丁目２番９号メンターキャピタル税理士法人内,,13,103,1050003,,,,,,,2021-11-16,1,,,,,エムユーエム,0
2129,8010503006428,新規,0,2021-11-16,2021-11-16,合同会社Ｒｅｉ,,合同会社,東京都,台東区,駒形２丁目７番５号,,13,106,1110043,,,,,,,2021-11-16,1,,,,,レイ,0
2131,8010601060236,新規,0,2021-11-16,2021-11-16,株式会社ＨＯＭＰｉ,,株式会社,東京都,江東区,大島１丁目３番１－２１４号,,13,108,1360072,,,,,,,2021-11-16,1,,,,,ホムピ,0
2132,8010601060244,新規,0,2021-11-16,2021-11-16,株式会社Ｌａ－Ｌａｕ,,株式会社,東京都,江東区,門前仲町１丁目２番４号,,13,108,1350048,,,,,,,2021-11-16,1,,,,,ラーラウ,0
2134,8010603009248,新規,0,2021-11-16,2021-11-16,合同会社ＳＡＫＩＧＡＫＥ,,合同会社,東京都,墨田区,緑４丁目２４番１３号,,13,107,1300021,,,,,,,2021-11-16,1,,,,,サキガケ,0
2136,8010703006005,新規,0,2021-11-16,2021-11-16,合同会社ＭＵＮＩ,,合同会社,東京都,品川区,東大井５丁目２４番１７号,,13,109,1400011,,,,,,,2021-11-16,1,,,,,ムニ,0
2139,8010801032480,新規,0,2021-11-16,2021-11-16,株式会社ｈｉｇｈｌａｎｄ,,株式会社,東京都,大田区,下丸子４丁目２６番１,,13,111,1460092,,,,,,,2021-11-16,1,,,,,ハイランド,0
2149,8011001143936,新規,0,2021-11-16,2021-11-16,Ｓｕｎｓｈｉｎｅ　Ｇａｍｅｓ株式会社,,株式会社,東京都,渋谷区,南平台町６－１１ジョイヒルズ南平台４０３,,13,113,1500036,,,,,,,2021-11-16,1,,,,,サンシャインゲームズ,0
2153,8011003013682,新規,0,2021-11-16,2021-11-16,ｅＸ合同会社,,合同会社,東京都,渋谷区,神宮前６丁目２３番４号桑野ビル２階,,13,113,1500001,,,,,,,2021-11-16,1,,,,,エクス,0
2155,8011101096910,新規,0,2021-11-16,2021-11-16,株式会社ＳＵＮＧＪＩＮ,,株式会社,東京都,新宿区,下落合２丁目６番３号,,13,104,1610033,,,,,,,2021-11-16,1,,,,,,0
2156,8011101096919,新規,0,2021-11-16,2021-11-16,ＢＵＬＫ　ＣＨＡＲＧＥ株式会社,,株式会社,東京都,新宿区,新宿２丁目８番１８号第一バーディートライビル９階,,13,104,1600022,,,,,,,2021-11-16,1,,,,,バルクチャージ,0
2158,8011103011173,新規,0,2021-11-16,2021-11-16,合同会社シルクロ,,合同会社,東京都,新宿区,西新宿３丁目３番地１３号西新宿水間ビル６階,,13,104,1600023,,,,,,,2021-11-16,1,,,,,シルクロ,0
2160,8011301027343,新規,0,2021-11-16,2021-11-16,株式会社カタノバ,,株式会社,東京都,杉並区,成田東１丁目４３－１７メゾンボルガート２０１,,13,115,1660015,,,,,,,2021-11-16,1,,,,,カタノバ,0
2164,8011501027481,新規,0,2021-11-16,2021-11-16,Ｃｏ　Ｏｎｅ　Ｄｅｇｒｅｅ株式会社,,株式会社,東京都,北区,西ケ原２丁目４４番６号,,13,117,1140024,,,,,,,2021-11-16,1,,,,,コワンディグリー,0
2168,8011601025542,新規,0,2021-11-16,2021-11-16,株式会社ルノカ,,株式会社,東京都,練馬区,桜台３丁目４０番１０号,,13,120,1760002,,,,,,,2021-11-16,1,,,,,ルノカ,0
2171,8011701024849,新規,0,2021-11-16,2021-11-16,株式会社ＭＦ,,株式会社,東京都,江戸川区,松島４丁目１１番８号,,13,123,1320031,,,,,,,2021-11-16,1,,,,,エムエフ,0
2175,8011801039978,新規,0,2021-11-16,2021-11-16,株式会社市川コーポレーション,,株式会社,東京都,足立区,江北３丁目１３番１２－２０１号,,13,121,1230872,,,,,,,2021-11-16,1,,,,,イチカワコーポレーション,0
2177,8012401038544,新規,0,2021-11-16,2021-11-16,株式会社ハプア,,株式会社,東京都,狛江市,中和泉３丁目３２番２９号,,13,219,2010012,,,,,,,2021-11-16,1,,,,,ハプア,0
2191,8020001143929,新規,0,2021-11-16,2021-11-16,株式会社ドクターエージェント,,株式会社,神奈川県,横浜市瀬谷区,阿久和西３丁目２番１９号,,14,114,2460025,,,,,,,2021-11-16,1,,,,,ドクターエージェント,0
2196,8021001074478,新規,0,2021-11-16,2021-11-16,株式会社永井,,株式会社,神奈川県,鎌倉市,由比ガ浜４丁目３番２４号チサンマンション２０１号,,14,204,2480014,,,,,,,2021-11-16,1,,,,,ナガイ,0
2197,8021001074486,新規,0,2021-11-16,2021-11-16,株式会社ＴＲＴ,,株式会社,神奈川県,大和市,深見３８３９番地２４,,14,213,2420011,,,,,,,2021-11-16,1,,,,,ティーアールティー,0
2201,8021002070617,新規,0,2021-11-16,2021-11-16,有限会社川村理容所,,有限会社,神奈川県,横須賀市,大滝町２丁目９番地,,14,201,2380008,,,,,,,2021-11-16,1,,,,,カワムラリヨウジョ,0
2207,8030001145346,新規,0,2021-11-16,2021-11-16,株式会社ＭＥコーポレーション,,株式会社,埼玉県,鶴ヶ島市,大字藤金８４６番地１８,,11,241,3502206,,,,,,,2021-11-16,1,,,,,エムイーコーポレーション,0
2208,8030001145395,新規,0,2021-11-16,2021-11-16,株式会社Ｄファンタジー,,株式会社,埼玉県,さいたま市大宮区,桜木町２丁目３番地大宮マルイ７階,,11,103,3300854,,,,,,,2021-11-16,1,,,,,,0
2223,8050001050156,新規,0,2021-11-16,2021-11-16,株式会社ＢＥＥ’Ｓ　ＥＴＥＲＮＩＴＹ,,株式会社,茨城県,水戸市,酒門町２９７６番地の２６,,08,201,3100841,,,,,,,2021-11-16,1,,,,,ビーズエタニティー,0
2225,8050003006206,新規,0,2021-11-16,2021-11-16,合同会社やなぎ,,合同会社,茨城県,桜川市,磯部１０８番地１,,08,231,3091457,,,,,,,2021-11-16,1,,,,,ヤナギ,0
2234,8080001024586,新規,0,2021-11-16,2021-11-16,株式会社Ｆｉｎａｎｃｉｅｒ,,株式会社,静岡県,藤枝市,高洲２２番地の６,,22,214,4260046,,,,,,,2021-11-16,1,,,,,フィナンシェ,0
2239,8080103002457,新規,0,2021-11-16,2021-11-16,合同会社Ｌｕａｕ,,合同会社,静岡県,駿東郡清水町,徳倉８５５番地の５,,22,341,4110917,,,,,,,2021-11-16,1,,,,,ルアウ,0
2240,8080401025481,新規,0,2021-11-16,2021-11-16,株式会社ＭＲＭ,,株式会社,静岡県,浜松市中区,富塚町５０６９番地の１７,,22,131,4328002,,,,,,,2021-11-16,1,,,,,エムアールエム,0
2242,8100003006290,新規,0,2021-11-16,2021-11-16,合同会社Ｂ．Ｌｏｏｍさく,,合同会社,長野県,佐久市,野沢３４８番地７,,20,217,3850053,,,,,,,2021-11-16,1,,,,,ビールームサク,0
2257,8120001241796,新規,0,2021-11-16,2021-11-16,ＳＡＭＵＲＡＩ　ＦＡＲＭ株式会社,,株式会社,大阪府,大阪市北区,東天満２丁目２番１５－４０４号,,27,127,5300044,,,,,,,2021-11-16,1,,,,,サムライファーム,0
2258,8120001241854,新規,0,2021-11-16,2021-11-16,株式会社Ｔｈｅ　ＶＡＮＣＯＵＶＥＲ　ＳＫＹ　ＧＲＯＵＰ,,株式会社,大阪府,大阪市西区,靱本町２丁目２番１２号ＧＬＡＳＨＡＵＳ４０３号室,,27,106,5500004,,,,,,,2021-11-16,1,,,,,ザバンクーバースカイグループ,0
2259,8120001241879,新規,0,2021-11-16,2021-11-16,株式会社キュウエイテクノ,,株式会社,大阪府,大阪市都島区,内代町４丁目５番２７号,,27,102,5340013,,,,,,,2021-11-16,1,,,,,キュウエイテクノ,0
2260,8120001241895,新規,0,2021-11-16,2021-11-16,株式会社ＰＬＵＳＷＯＲＫＳ,,株式会社,大阪府,寝屋川市,楠根南町２８番１２号,,27,215,5720811,,,,,,,2021-11-16,1,,,,,プラスワークス,0
2261,8120003020595,新規,0,2021-11-16,2021-11-16,合同会社ジェニトリコ,,合同会社,大阪府,大阪市中央区,久太郎町１丁目７番１１－２４０１号,,27,128,5410056,,,,,,,2021-11-16,1,,,,,ジェニトリコ,0
2269,8120901045215,新規,0,2021-11-16,2021-11-16,株式会社未来未来,,株式会社,大阪府,豊中市,服部豊町１丁目６番１６－１０８号,,27,203,5610859,,,,,,,2021-11-16,1,,,,,ミキミライ,0
2271,8122001035360,新規,0,2021-11-16,2021-11-16,株式会社大和ＨＯＭＥＳ,,株式会社,大阪府,東大阪市,稲葉１丁目８番２４号,,27,227,5780925,,,,,,,2021-11-16,1,,,,,ヤマトホームズ,0
2278,8140001123836,新規,0,2021-11-16,2021-11-16,Ｒファクトリー株式会社,,株式会社,兵庫県,姫路市,船津町１７５６番地,,28,201,6792101,,,,,,,2021-11-16,1,,,,,アールファクトリー,0
2279,8140001123852,新規,0,2021-11-16,2021-11-16,株式会社ｂｏｏｔｓ,,株式会社,兵庫県,神戸市北区,鈴蘭台南町４丁目３番１８号,,28,109,6511113,,,,,,,2021-11-16,1,,,,,ブーツ,0
2280,8140001123877,新規,0,2021-11-16,2021-11-16,株式会社澁谷コーポレーション,,株式会社,兵庫県,神戸市東灘区,魚崎西町２丁目２番１－６１４号,,28,101,6580026,,,,,,,2021-11-16,1,,,,,シブタニコーポレーション,0
2281,8140003016988,新規,0,2021-11-16,2021-11-16,合同会社ＳＩＴ,,合同会社,兵庫県,神戸市西区,桜が丘中町５丁目３番地の１２,,28,111,6512226,,,,,,,2021-11-16,1,,,,,シット,0
2282,8140003016996,新規,0,2021-11-16,2021-11-16,合同会社こと・デザイン,,合同会社,兵庫県,神戸市須磨区,東町１丁目１番２０－６０７号,,28,107,6540033,,,,,,,2021-11-16,1,,,,,コトデザイン,0
2287,8150005009345,新規,0,2021-11-16,2021-11-16,一般社団法人サードプレイス今井,,その他の設立登記法人,奈良県,橿原市,今井町４丁目６番８号,,29,205,6340812,,,,,,,2021-11-16,1,,,,,サードプレイスイマイ,0
2288,8160001023811,新規,0,2021-11-16,2021-11-16,Ｍ－Ｃｒｅａｔｅｓ株式会社,,株式会社,滋賀県,長浜市,平方町８６８番地１－１１１３号,,25,203,5260033,,,,,,,2021-11-16,1,,,,,エムクリエイツ,0
2300,8180001148680,新規,0,2021-11-16,2021-11-16,エコハート株式会社,,株式会社,愛知県,名古屋市西区,長先町９９番地,,23,104,4520838,,,,,,,2021-11-16,1,,,,,エコハート,0
2301,8180001148714,新規,0,2021-11-16,2021-11-16,ｆｏｏｄ　ｎｅｘｔ株式会社,,株式会社,愛知県,名古屋市中村区,名駅南１丁目３番１７号,,23,105,4500003,,,,,,,2021-11-16,1,,,,,フードネクスト,0
2309,8180005019515,新規,0,2021-11-16,2021-11-16,一般社団法人ニューカルチャーメディアイノベーション協会,,その他の設立登記法人,愛知県,名古屋市東区,東桜２丁目９番１６号,,23,102,4610005,,,,,,,2021-11-16,1,,,,,ニューカルチャーメディアイノベーションキョウカイ,0
2313,8180303005167,新規,0,2021-11-16,2021-11-16,ｅａｕ合同会社,,合同会社,愛知県,豊橋市,大村町字大賀里７９番地,,23,201,4400081,,,,,,,2021-11-16,1,,,,,オー,0
2320,8200001039431,新規,0,2021-11-16,2021-11-16,株式会社テイクルート,,株式会社,岐阜県,瑞穂市,馬場春雨町２丁目５３番地２,,21,216,5010204,,,,,,,2021-11-16,1,,,,,テイクルート,0
2323,8220001024539,新規,0,2021-11-16,2021-11-16,株式会社Ｆ１６２５,,株式会社,石川県,金沢市,石引２丁目８番３号,,17,201,9200935,,,,,,,2021-11-16,1,,,,,エフイチロクニーゴー,0
2330,8240001058923,新規,0,2021-11-16,2021-11-16,エムマシナリー株式会社,,株式会社,広島県,広島市安佐南区,八木９丁目３０番１４号,,34,105,7310101,,,,,,,2021-11-16,1,,,,,エムマシナリー,0
2331,8240001058931,新規,0,2021-11-16,2021-11-16,ＣＯＣＯＲＯ’ｓ　ｃｏｒｐｏｒａｔｉｏｎ株式会社,,株式会社,広島県,福山市,多治米町２丁目１１番１７号,,34,207,7200824,,,,,,,2021-11-16,1,,,,,ココロズコーポレーション,0
2347,8290001095342,新規,0,2021-11-16,2021-11-16,株式会社ＪＤプラン,,株式会社,福岡県,福岡市早良区,有田４丁目２９番２０号,,40,137,8140033,,,,,,,2021-11-16,1,,,,,ジェイディープラン,0
2348,8290001095359,新規,0,2021-11-16,2021-11-16,宝成株式会社,,株式会社,福岡県,福岡市博多区,住吉２丁目１１－２１住吉ビル地下１階住吉ＢＡＳＥ　Ｂ１－Ｄ号室,,40,132,8120018,,,,,,,2021-11-16,1,,,,,タカラナリ,0
2349,8290001095400,新規,0,2021-11-16,2021-11-16,株式会社ＵＮ,,株式会社,福岡県,福津市,日蒔野１丁目２－６－１００５,,40,224,8113209,,,,,,,2021-11-16,1,,,,,ユーエヌ,0
2354,8310001017590,新規,0,2021-11-16,2021-11-16,株式会社本田工業,,株式会社,長崎県,島原市,新湊２丁目丁２５３３番地３,,42,203,8550862,,,,,,,2021-11-16,1,,,,,,0
2356,8320001018737,新規,0,2021-11-16,2021-11-16,株式会社ＰＬＵＳ　ＮＥＸＴ,,株式会社,大分県,別府市,浜脇１丁目２０－２６シーサイドヒルズ駅前４０２,,44,202,8740947,,,,,,,2021-11-16,1,,,,,プラスネクスト,0
2360,8330001029188,新規,0,2021-11-16,2021-11-16,株式会社有明のり研究所,,株式会社,熊本県,熊本市西区,河内町船津１９８４番地１６,,43,103,8615347,,,,,,,2021-11-16,1,,,,,アリアケノリケンキュウショ,0
2361,8330001029196,新規,0,2021-11-16,2021-11-16,株式会社Ｃｉｒｃｕｌｉｆｅ,,株式会社,熊本県,天草市,今釜町１３番３号ロイヤルマンション４０５,,43,215,8630012,,,,,,,2021-11-16,1,,,,,サーキュライフ,0
2364,8330003009130,新規,0,2021-11-16,2021-11-16,ＡＢＳＯＬＵＴ合同会社,,合同会社,熊本県,菊池郡菊陽町,大字津久礼８７１番地３０２,,43,404,8691101,,,,,,,2021-11-16,1,,,,,アブソルート,0
2368,8350001017422,新規,0,2021-11-16,2021-11-16,株式会社かいか,,株式会社,宮崎県,宮崎市,吉村町曽師前３１６６番２,,45,201,8800841,,,,,,,2021-11-16,1,,,,,カイカ,0
2371,8360001029623,新規,0,2021-11-16,2021-11-16,株式会社也勝工業,,株式会社,沖縄県,沖縄市,美里１丁目１１番１号１０２,,47,211,9042153,,,,,,,2021-11-16,1,,,,,ナリマサコウギョウ,0
2372,8360001029631,新規,0,2021-11-16,2021-11-16,安里興業株式会社,,株式会社,沖縄県,うるま市,字宇堅３４８番地,,47,213,9042211,,,,,,,2021-11-16,1,,,,,アサトコウギョウ,0
2375,8370001047830,新規,0,2021-11-16,2021-11-16,株式会社アルバライズ,,株式会社,宮城県,仙台市青葉区,国分町１丁目４番４号,,04,101,9800803,,,,,,,2021-11-16,1,,,,,アルバライズ,0
2379,8380001032344,新規,0,2021-11-16,2021-11-16,株式会社渡部電設工業,,株式会社,福島県,いわき市,小名浜玉川町北７番地の１８,,07,204,9718127,,,,,,,2021-11-16,1,,,,,ワタベデンセツコウギョウ,0
2381,8380003005050,新規,0,2021-11-16,2021-11-16,合同会社ＪＤＩＰ‐６,,合同会社,福島県,いわき市,小名浜字古湊３９番地,,07,204,9718101,,,,,,,2021-11-16,1,,,,,,0
2382,8400001015676,新規,0,2021-11-16,2021-11-16,株式会社Ｇｕｉｔｔ,,株式会社,岩手県,盛岡市,上田３丁目５番４３号２Ｆ,,03,201,0200066,,,,,,,2021-11-16,1,,,,,グイット,0
2384,8410001013019,新規,0,2021-11-16,2021-11-16,株式会社ОＫ冷暖,,株式会社,秋田県,秋田市,外旭川字在家１番地１,,05,201,0100802,,,,,,,2021-11-16,1,,,,,オーケーレイダン,0
2386,8420003002407,新規,0,2021-11-16,2021-11-16,合同会社カーゴあすなろ,,合同会社,青森県,黒石市,大字浅瀬石字清川９８番地１,,02,204,0360343,,,,,,,2021-11-16,1,,,,,カーゴアスナロ,0
2389,8430001085394,新規,0,2021-11-16,2021-11-16,株式会社ＣＬＯＵＤ９,,株式会社,北海道,恵庭市,駒場町１丁目６番地８－１Ｆ,,01,231,0611417,,,,,,,2021-11-16,1,,,,,クラウドナイン,0
2390,8430001085403,新規,0,2021-11-16,2021-11-16,大水工業株式会社,,株式会社,北海道,札幌市白石区,栄通７丁目７番２７号,,01,104,0030021,,,,,,,2021-11-16,1,,,,,オオミズコウギョウ,0
2392,8440001008981,新規,0,2021-11-16,2021-11-16,株式会社ＴＯＲ,,株式会社,北海道,函館市,中道１丁目１９番４－２０５号,,01,202,0410853,,,,,,,2021-11-16,1,,,,,ティーオーアール,0
2397,8470001018838,新規,0,2021-11-16,2021-11-16,株式会社Ｄ－ｋｅｎ,,株式会社,香川県,高松市,高松町２２５５－１０,,37,201,7610104,,,,,,,2021-11-16,1,,,,,ディーケン,0
2404,8500001023818,新規,0,2021-11-16,2021-11-16,樹塗装株式会社,,株式会社,愛媛県,松山市,来住町１４３４番地１,,38,201,7911102,,,,,,,2021-11-16,1,,,,,イツキトソウ,0
2405,8700150105504,新規,0,2021-11-16,2021-10-26,上今井マルイマ果実,,その他,長野県,中野市,大字上今井３０７７－１,,20,211,3892102,,,,,,,2021-10-26,1,,,,,カミイマイマルイマカジツ,0
2406,8700150105776,新規,0,2021-11-16,2021-11-16,愛媛県機械金属工業企業年金基金,,その他,愛媛県,松山市,一番町４丁目１－１,,38,201,7900001,,,,,,,2021-11-16,1,,,,,エヒメケンキカイキンゾクコウギヨウキギヨウネンキンキキン,0
2407,8700150105784,新規,0,2021-11-16,2021-11-16,Ｍｏｔｏｍａｃｈｉ　Ｅｎｔｅｒｐｒｉｓｅｓ,,外国会社等,千葉県,四街道市,大日８３６番地Ｂ,,12,228,2840001,スリランカ民主社会主義共和国、キャンディ、アクラナ、ワラガシンナ、２９５－３Ａ,,,,,,2021-11-16,1,,,,,モトマチエンタープライセス,0
2408,8700150105792,新規,0,2021-11-16,2021-11-16,ＳＵＰＥＲ　ＬＩＮＥ　ＥＮＴＥＲＰＲＩＳＥＳ,,外国会社等,千葉県,八街市,東吉田３５８－４オフィス４,,12,230,2891114,スリランカ民主社会主義共和国、マタレ、メインストリート、Ｎｏ．１０９,,,,,,2021-11-16,1,,,,,スーパーラインエンタープライセス,0
2409,8700150105801,新規,0,2021-11-16,2021-11-16,ＲＩＺＥＤＡ　ＭＯＴＯＲＳ,,外国会社等,千葉県,佐倉市,大篠塚７３７番地Ｂ－２,,12,212,2850806,スリランカ民主社会主義共和国、マタレ、ボガハコトゥワ、８Ａ,,,,,,2021-11-16,1,,,,,リゼダモータース,0
2410,8700150105818,新規,0,2021-11-16,2021-11-16,亡沖亘啓相続財産,,その他,大阪府,八尾市,中田２丁目４番地の１,,27,212,5810014,,,,,,,2021-11-16,1,,,,,ボウオキノブヒロソウゾクザイサン,0
2411,8700150105826,新規,0,2021-11-16,2021-11-16,ＫＡＮＤＹ　ＧＥＮＥＲＡＬ　ＴＲＡＤＩＮＧ　ＰＲＩＶＡＴＥ　ＬＩＭＩＴＥＤ,,外国会社等,千葉県,佐倉市,大篠塚７３７番地Ｂ－１,,12,212,2850806,スリランカ民主社会主義共和国、ケキラワ、メインストリート、３０,,,,,,2021-11-16,1,,,,,キヤンデイジエネラルトレーデイングプライベートリミテツド,0
2416,9010001222278,新規,0,2021-11-16,2021-11-16,ルビコンネットワークス株式会社,,株式会社,東京都,千代田区,神田三崎町３丁目３番３号太陽ビル２０１,,13,101,1010061,,,,,,,2021-11-16,1,,,,,ルビコンネットワークス,0
2417,9010001222600,新規,0,2021-11-16,2021-11-16,株式会社ＳＨＥＲＲＹ,,株式会社,東京都,千代田区,丸の内３丁目４番１号新国際ビル６階,,13,101,1000005,,,,,,,2021-11-16,1,,,,,シェリー,0
2422,9010003036296,新規,0,2021-11-16,2021-11-16,合同会社Ｐｉｖｏｌｏ,,合同会社,東京都,中央区,新川２丁目１２番１８号澤田ビル３０１,,13,102,1040033,,,,,,,2021-11-16,1,,,,,ピヴォロ,0
2424,9010005034199,新規,0,2021-11-16,2021-11-16,一般社団法人Ａｔｈｌｅｔｅ　Ｌｉｆｅ　Ｐｌａｎ,,その他の設立登記法人,東京都,千代田区,大手町２丁目６番２号日本ビル１２階,,13,101,1000004,,,,,,,2021-11-16,1,,,,,アスリートライフプラン,0
2425,9010101014955,新規,0,2021-11-16,2021-11-16,株式会社梟,,株式会社,東京都,八王子市,上柚木８４０番地２,,13,201,1920373,,,,,,,2021-11-16,1,,,,,,0
2433,9010501048090,新規,0,2021-11-16,2021-11-16,株式会社マーケット・クリエイション,,株式会社,東京都,台東区,上野７丁目２番１０号上野駅前第一生命ビルディング６Ｆ,,13,106,1100005,,,,,,,2021-11-16,1,,,,,マーケットクリエイション,0
2436,9010701041779,新規,0,2021-11-16,2021-11-16,ＪＨ商事株式会社,,株式会社,東京都,品川区,東五反田１丁目１０－９ＳＴビル４階,,13,109,1410022,,,,,,,2021-11-16,1,,,,,ジェイエイチショウジ,0
2439,9010801032488,新規,0,2021-11-16,2021-11-16,株式会社エッジ,,株式会社,東京都,大田区,矢口２丁目２８番５号,,13,111,1460093,,,,,,,2021-11-16,1,,,,,エッジ,0
2445,9011001143927,新規,0,2021-11-16,2021-11-16,株式会社レオライズ,,株式会社,東京都,渋谷区,広尾２丁目２番２０号ヴェラハイツ広尾５０２号,,13,113,1500012,,,,,,,2021-11-16,1,,,,,レオライズ,0
2446,9011003013748,新規,0,2021-11-16,2021-11-16,合同会社ワークアウト,,合同会社,東京都,渋谷区,代々木２丁目１１番１２号,,13,113,1510053,,,,,,,2021-11-16,1,,,,,ワークアウト,0
2449,9011101096918,新規,0,2021-11-16,2021-11-16,株式会社ＸＥＯＸＹ,,株式会社,東京都,新宿区,西新宿６丁目２６番９号,,13,104,1600023,,,,,,,2021-11-16,1,,,,,ゼオクシー,0
2450,9011103011180,新規,0,2021-11-16,2021-11-16,合同会社キャピタ,,合同会社,東京都,新宿区,高田馬場１丁目３２番１０号,,13,104,1690075,,,,,,,2021-11-16,1,,,,,キャピタ,0
2455,9011203003689,新規,0,2021-11-16,2021-11-16,合同会社ＢＡＣＫＦＩＥＬＤ,,合同会社,東京都,中野区,新井１丁目４０番２－３０６号,,13,114,1650026,,,,,,,2021-11-16,1,,,,,バックフィールド,0
2457,9011401023836,新規,0,2021-11-16,2021-11-16,エヌ・アイ・ブイ株式会社,,株式会社,東京都,板橋区,常盤台３丁目２８番１４－１０１号,,13,119,1740071,,,,,,,2021-11-16,1,,,,,エヌアイブイ,0
2458,9011401023844,新規,0,2021-11-16,2021-11-16,株式会社オリジナルパーパス,,株式会社,東京都,板橋区,南町５１－９,,13,119,1730027,,,,,,,2021-11-16,1,,,,,オリジナルパーパス,0
2466,9011605002413,新規,0,2021-11-16,2021-11-16,一般社団法人ビレッジ・エイド,,その他の設立登記法人,東京都,練馬区,上石神井１丁目３９番４号,,13,120,1770044,,,,,,,2021-11-16,1,,,,,ビレッジエイド,0
2468,9011801039969,新規,0,2021-11-16,2021-11-16,株式会社日港貿易,,株式会社,東京都,足立区,栗原３丁目１０番１９－４２０号,,13,121,1230842,,,,,,,2021-11-16,1,,,,,ニッコウボウエキ,0
2469,9011801039977,新規,0,2021-11-16,2021-11-16,株式会社ＣＥＸ,,株式会社,東京都,足立区,伊興本町１丁目３番２３号,,13,121,1210807,,,,,,,2021-11-16,1,,,,,シーイーエックス,0
2472,9012401038543,新規,0,2021-11-16,2021-11-16,株式会社ＢＰＭ,,株式会社,東京都,府中市,朝日町１丁目２２番地６２,,13,206,1830003,,,,,,,2021-11-16,1,,,,,ビーピーエム,0
2473,9012403005112,新規,0,2021-11-16,2021-11-16,合同会社Ｔ・Ｔ,,合同会社,東京都,府中市,宮西町２丁目３番地の１欅ビルＢ１Ｆ,,13,206,1830022,,,,,,,2021-11-16,1,,,,,ティーティー,0
2478,9012801021215,新規,0,2021-11-16,2021-11-16,株式会社トリッパーズ,,株式会社,東京都,立川市,柴崎町３丁目１番１号昴ビル６Ｆ,,13,202,1900023,,,,,,,2021-11-16,1,,,,,トリッパーズ,0
2486,9020001143936,新規,0,2021-11-16,2021-11-16,株式会社ウェルス,,株式会社,神奈川県,横浜市中区,常盤町１丁目５番地,,14,104,2310014,,,,,,,2021-11-16,1,,,,,ウェルス,0
2499,9030001145329,新規,0,2021-11-16,2021-11-16,Ａ＆ＴＪａｐａｎ株式会社,,株式会社,埼玉県,朝霞市,本町２丁目１０番地４０号グランリーヴ３０３号室,,11,227,3510011,,,,,,,2021-11-16,1,,,,,エイアンドティージャパン,0
2504,9040001120982,新規,0,2021-11-16,2021-11-16,株式会社Ｂ－Ｊ,,株式会社,千葉県,松戸市,新作３８４番地,,12,207,2710052,,,,,,,2021-11-16,1,,,,,ビージェー,0
2509,9040003018928,新規,0,2021-11-16,2021-11-16,ＡＤＨＥＥＢ　ＭＯＴＯＲＳ合同会社,,合同会社,千葉県,山武市,埴谷３８１番地１５,,12,237,2891223,,,,,,,2021-11-16,1,,,,,アディーブモータース,0
2514,9050001050147,新規,0,2021-11-16,2021-11-16,株式会社ＥＮＯＮ,,株式会社,茨城県,常総市,坂手町１９６番地１,,08,211,3030042,,,,,,,2021-11-16,1,,,,,エノン,0
2518,9050003006205,新規,0,2021-11-16,2021-11-16,リードクラス合同会社,,合同会社,茨城県,つくばみらい市,小絹８２５－１グリーンフィールドＡ１０５,,08,235,3002445,,,,,,,2021-11-16,1,,,,,リードクラス,0
2523,9070003004289,新規,0,2021-11-16,2021-11-16,合同会社Ｂｅｐｅｌｉｃａ,,合同会社,群馬県,邑楽郡邑楽町,大字中野４９０３番地１,,10,525,3700603,,,,,,,2021-11-16,1,,,,,ベペリカ,0
2529,9080103002456,新規,0,2021-11-16,2021-11-16,合同会社ＳＵＮＳ,,合同会社,静岡県,伊豆市,地蔵堂５２番地,,22,222,4102515,,,,,,,2021-11-16,1,,,,,サンズ,0
2530,9080401025480,新規,0,2021-11-16,2021-11-16,株式会社Ｌｅｍｏｎ　Ｖｅｉｌ,,株式会社,静岡県,浜松市東区,安新町２５８番地の５,,22,132,4350005,,,,,,,2021-11-16,1,,,,,レモンベール,0
2533,9100001034813,新規,0,2021-11-16,2021-11-16,株式会社ＹＡＭＡＴＯＵＭＩ,,株式会社,長野県,上水内郡信濃町,大字古海４０８９番地２,,20,583,3891302,,,,,,,2021-11-16,1,,,,,ヤマトウミ,0
2549,9120001241894,新規,0,2021-11-16,2021-11-16,株式会社伊藤工業,,株式会社,大阪府,寝屋川市,太秦緑が丘３８番２０号,,27,215,5720844,,,,,,,2021-11-16,1,,,,,イトウコウギョウ,0
2550,9120001241903,新規,0,2021-11-16,2021-11-16,株式会社ヤナギホーム,,株式会社,大阪府,大阪市浪速区,恵美須西１丁目３番４号,,27,111,5560003,,,,,,,2021-11-16,1,,,,,ヤナギホーム,0
2551,9120001241911,新規,0,2021-11-16,2021-11-16,株式会社ＢＯＢＢＹ,,株式会社,大阪府,大阪市中央区,谷町６丁目１１番１１－３０１号,,27,128,5420012,,,,,,,2021-11-16,1,,,,,ボビー,0
2553,9120003020603,新規,0,2021-11-16,2021-11-16,ＳＳＰＪ合同会社,,合同会社,大阪府,大阪市北区,大淀中２丁目１１番８号,,27,127,5310076,,,,,,,2021-11-16,1,,,,,エスエスピージェイ,0
2554,9120005022614,新規,0,2021-11-16,2021-11-16,一般社団法人キャンライフ,,その他の設立登記法人,大阪府,大阪市中央区,瓦屋町２丁目４番１８号セントロミラグレ大向ビル３階,,27,128,5420066,,,,,,,2021-11-16,1,,,,,キャンライフ,0
2557,9120901045222,新規,0,2021-11-16,2021-11-16,なぎさ不動産株式会社,,株式会社,大阪府,高槻市,井尻１丁目１５番１２号,,27,207,5690015,,,,,,,2021-11-16,1,,,,,ナギサフドウサン,0
2571,9140001123835,新規,0,2021-11-16,2021-11-16,株式会社角谷工業,00124864,株式会社,兵庫県,姫路市,飾磨区中野田２丁目１６番地,,28,201,6728045,,,,,,,2021-11-16,1,,,,,スミタニコウギョウ,0
2572,9140001123843,新規,0,2021-11-16,2021-11-16,株式会社ＯＮＺＥ,,株式会社,兵庫県,神戸市中央区,御幸通８丁目１番６号国際会館２２階,,28,110,6510087,,,,,,,2021-11-16,1,,,,,オンズ,0
2573,9140001123851,新規,0,2021-11-16,2021-11-16,タカラ株式会社,,株式会社,兵庫県,西宮市,甲子園口北町２０番４－６０９号,,28,204,6638112,,,,,,,2021-11-16,1,,,,,タカラ,0
2574,9140001123876,新規,0,2021-11-16,2021-11-16,株式会社ＳＯＷＡＫＡ　ＥＸＰＲＥＳＳ,,株式会社,兵庫県,神戸市西区,桜が丘西町１丁目１６－２０,,28,111,6512227,,,,,,,2021-11-16,1,,,,,ソワカエクスプレス,0
2577,9140003016987,新規,0,2021-11-16,2021-11-16,合同会社ライフコンサルティング,,合同会社,兵庫県,神戸市垂水区,星陵台４丁目３番４５－１５０４号,,28,108,6550038,,,,,,,2021-11-16,1,,,,,ライフコンサルティング,0
2579,9160001023810,新規,0,2021-11-16,2021-11-16,株式会社ＱＵＥＳＴ・ＨＯＭＥ,,株式会社,滋賀県,大津市,大平１丁目１２番１３号,,25,201,5200867,,,,,,,2021-11-16,1,,,,,クエストホーム,0
2580,9160001023819,新規,0,2021-11-16,2021-11-16,株式会社万福堂,,株式会社,滋賀県,彦根市,葛籠町１４６番地,,25,202,5220212,,,,,,,2021-11-16,1,,,,,マンプクドウ,0
2581,9160003002424,新規,0,2021-11-16,2021-11-16,ＨＩＬＯ合同会社,,合同会社,滋賀県,彦根市,八坂町３０５５番地１（１０６号）,,25,202,5220057,,,,,,,2021-11-16,1,,,,,ヒロ,0
2594,9180003023195,新規,0,2021-11-16,2021-11-16,合同会社ｎｏｐｏｌｅ,,合同会社,愛知県,名古屋市南区,戸部町４丁目１１ハイム戸部３０６,,23,112,4570043,,,,,,,2021-11-16,1,,,,,ノーポール,0
2597,9180303005166,新規,0,2021-11-16,2021-11-16,アスカ企画合同会社,,合同会社,愛知県,岡崎市,西蔵前町字西屋敷１２番地１４,,23,202,4442147,,,,,,,2021-11-16,1,,,,,アスカキカク,0
2600,9190001028864,新規,0,2021-11-16,2021-11-16,株式会社浅田撮影局,,株式会社,三重県,津市,高茶屋６丁目１番２号,,24,201,5140819,,,,,,,2021-11-16,1,,,,,アサダサツエイキョク,0
2603,9200001039422,新規,0,2021-11-16,2021-11-16,株式会社プリティマットゥ,,株式会社,岐阜県,本巣市,曽井中島１４３３番地１,,21,218,5011205,,,,,,,2021-11-16,1,,,,,プリティマットゥ,0
2604,9200001039430,新規,0,2021-11-16,2021-11-16,株式会社ダイユウ,,株式会社,岐阜県,岐阜市,萱場北町３丁目９番地２,,21,201,5020938,,,,,,,2021-11-16,1,,,,,ダイユウ,0
2607,9220001024538,新規,0,2021-11-16,2021-11-16,株式会社いずみや,,株式会社,石川県,野々市市,押越１丁目４５番地２,,17,212,9218803,,,,,,,2021-11-16,1,,,,,イズミヤ,0
2608,9220003003151,新規,0,2021-11-16,2021-11-16,合同会社ｅｏ,,合同会社,石川県,金沢市,黒田１丁目１番地２,,17,201,9218051,,,,,,,2021-11-16,1,,,,,エオ,0
2621,9240001058930,新規,0,2021-11-16,2021-11-16,宅城株式会社,,株式会社,広島県,広島市安佐北区,口田１丁目１７番２９－１１－１０２号,,34,106,7391734,,,,,,,2021-11-16,1,,,,,タクジョウ,0
2625,9250001019262,新規,0,2021-11-16,2021-11-16,株式会社三々五々,,株式会社,山口県,光市,室積３丁目９番２７号,,35,210,7430007,,,,,,,2021-11-16,1,,,,,サンサンゴゴ,0
2629,9260003003718,新規,0,2021-11-16,2021-11-16,合同会社わくわく福祉会,,合同会社,岡山県,岡山市東区,浦間５０２番地８,,33,103,7090607,,,,,,,2021-11-16,1,,,,,ワクワクフクシカイ,0
2630,9270001008395,新規,0,2021-11-16,2021-11-16,５１０ＧＲＥＥＮＷＯＲＫＳ株式会社,,株式会社,鳥取県,八頭郡智頭町,大字智頭１８２０－２７,,31,328,6891402,,,,,,,2021-11-16,1,,,,,ゴトウグリーンワークス,0
2634,9290001095374,新規,0,2021-11-16,2021-11-16,株式会社森企画,,株式会社,福岡県,福津市,福間南１丁目３７番１５号,,40,224,8113212,,,,,,,2021-11-16,1,,,,,モリキカク,0
2637,9290801027997,新規,0,2021-11-16,2021-11-16,株式会社ＨＩＲＡＫＵ,,株式会社,福岡県,遠賀郡水巻町,伊左座５丁目１３番４号,,40,382,8070056,,,,,,,2021-11-16,1,,,,,ヒラク,0
2638,9290801028005,新規,0,2021-11-16,2021-11-16,株式会社Ｏｎｅ　Ｐｒｏｊｅｃｔ,,株式会社,福岡県,北九州市小倉北区,都１丁目１３番４０号,,40,106,8030834,,,,,,,2021-11-16,1,,,,,ワンプロジェクト,0
2641,9310001017581,新規,0,2021-11-16,2021-11-16,株式会社ラクダ,,株式会社,長崎県,佐世保市,松瀬町９８３番地,,42,202,8570102,,,,,,,2021-11-16,1,,,,,ラクダ,0
2646,9320001018736,新規,0,2021-11-16,2021-11-16,株式会社初和,,株式会社,大分県,大分市,大字三芳２０２０番地２,,44,201,8700030,,,,,,,2021-11-16,1,,,,,ハツワ,0
2651,9330001029179,新規,0,2021-11-16,2021-11-16,ＦＩＬＭ合板株式会社,,株式会社,熊本県,熊本市中央区,帯山４丁目１２番１８号フルール帯山３０３号,,43,101,8620924,,,,,,,2021-11-16,1,,,,,フィルムゴウハン,0
2652,9330001029187,新規,0,2021-11-16,2021-11-16,株式会社Ｓｐｒｅａｄ,,株式会社,熊本県,上天草市,大矢野町中３００７番地１５,,43,212,8693603,,,,,,,2021-11-16,1,,,,,スプリード,0
2653,9330001029195,新規,0,2021-11-16,2021-11-16,株式会社ｍａＰｓ,,株式会社,熊本県,熊本市東区,尾ノ上１丁目２番１０号,,43,102,8620913,,,,,,,2021-11-16,1,,,,,マップス,0
2654,9340001024278,新規,0,2021-11-16,2021-11-16,株式会社ｇｒｏｗ,,株式会社,鹿児島県,鹿児島市,西千石町１１番２４号高見馬場ビル５階,,46,201,8920847,,,,,,,2021-11-16,1,,,,,グロー,0
2657,9350001017421,新規,0,2021-11-16,2021-11-16,株式会社Ｂ不動産,,株式会社,宮崎県,宮崎市,橘通東３丁目５番５号,,45,201,8800805,,,,,,,2021-11-16,1,,,,,ビーフドウサン,0
2660,9360001029630,新規,0,2021-11-16,2021-11-16,株式会社でりっしゅ,,株式会社,沖縄県,浦添市,西原１丁目４番１６号まつけん第２ビル１０１号,,47,208,9012101,,,,,,,2021-11-16,1,,,,,デリッシュ,0
2669,9370001047821,新規,0,2021-11-16,2021-11-16,株式会社住まいの救急社,,株式会社,宮城県,角田市,梶賀字高畑南１４５番地,,04,208,9811523,,,,,,,2021-11-16,1,,,,,スマイノキュウキュウシャ,0
2672,9380003005058,新規,0,2021-11-16,2021-11-16,合同会社はりゅう林業,,合同会社,福島県,南会津郡南会津町,針生字小坂４０番地１,,07,368,9670026,,,,,,,2021-11-16,1,,,,,,0
2674,9410001013018,新規,0,2021-11-16,2021-11-16,株式会社ＦＩＥＬＤＦＡＣＴ,,株式会社,秋田県,湯沢市,深堀字中川原４７番地１,,05,207,0120051,,,,,,,2021-11-16,1,,,,,フィールドファクト,0
2676,9420001017653,新規,0,2021-11-16,2021-11-16,株式会社エムシープランニング,,株式会社,青森県,十和田市,東十一番町２０番１７号,,02,206,0340013,,,,,,,2021-11-16,1,,,,,エムシープランニング,0
2682,9430001085393,新規,0,2021-11-16,2021-11-16,株式会社Ｗｅａｌ　Ｌａｂ,,株式会社,北海道,空知郡南幌町,北町２丁目５番１１号,,01,423,0690231,,,,,,,2021-11-16,1,,,,,ウィールラボ,0
2683,9430001085410,新規,0,2021-11-16,2021-11-16,株式会社Ｔｒｉｎｉｔｙ,,株式会社,北海道,札幌市東区,北二十五条東１６丁目４番２３－３０１号,,01,103,0650025,,,,,,,2021-11-16,1,,,,,トリニティ,0
2690,9430003013360,新規,0,2021-11-16,2021-11-16,合同会社ＳＫ商事,,合同会社,北海道,白老郡白老町,字竹浦１９８番地２６,,01,578,0590642,,,,,,,2021-11-16,1,,,,,エスケーショウジ,0
2691,9450003002155,新規,0,2021-11-16,2021-11-16,合同会社ＭＯＭＯＮＥＴ,,合同会社,北海道,富良野市,栄町１番３１号ハイツふらの６０３,,01,229,0760023,,,,,,,2021-11-16,1,,,,,モモネット,0
2699,9700150105552,新規,0,2021-11-16,2021-10-29,川崎・しんゆり芸術祭２０２２実行委員会,,その他,神奈川県,川崎市麻生区,万福寺１丁目１２－１クロスアベニューＩＩ　８Ｆ,00124680,14,137,2150004,,,,,,,2021-10-29,1,,,,,カワサキシンユリゲイジユツサイニセンニジユウニジツコウイインカイ,0
2700,9700150105775,新規,0,2021-11-16,2021-11-16,静岡新聞放送企業年金基金,,その他,静岡県,静岡市駿河区,登呂３丁目１－１,,22,102,4228033,,,,,,,2021-11-16,1,,,,,シズオカシンブンホウソウキギヨウネンキンキキン,0
2701,9700150105783,新規,0,2021-11-16,2021-11-16,ＡＫＭＡＬ　ＨＯＬＤＩＮＧ　ＰＲＩＶＡＴＥ　ＬＩＭＩＴＥＤ,,外国会社等,千葉県,八街市,八街ほ１１３－４２オフィスＮｏ．１,,12,230,2891115,スリランカ民主社会主義共和国、キャンディ、アクラナ、テランバガハワッタ、Ｎｏ．１００／Ｅ,,,,,,2021-11-16,1,,,,,アクマルホールデイングプライベートリミテツド,0
2702,9700150105800,新規,0,2021-11-16,2021-11-16,ＷＩＭＡＬＡＲＡＴＨＮＡ　ＥＮＴＥＲＰＲＩＳＥＳ,,外国会社等,千葉県,富里市,立沢７３２Ｂ３,,12,233,2860214,スリランカ民主社会主義共和国、カツガストタ、クルネガラロード、ヤティワワラ,,,,,,2021-11-16,1,,,,,ウイマララスナエンタープライセス,0
2703,9700150105809,新規,0,2021-11-16,2021-11-16,ＣＥＹＬＯＮ　ＣＡＲ　ＳＡＬＥ,,外国会社等,千葉県,佐倉市,大篠塚１３５０番地１－Ａ－１,,12,212,2850806,スリランカ民主社会主義共和国、カルタラ、カトゥクルンダ、ナゴダロード、２－１７,,,,,,2021-11-16,1,,,,,セイロンカーセール,0
2704,9700150105825,新規,0,2021-11-16,2021-11-16,マンション京都白金台マンション建替組合,,その他,東京都,港区,白金台３丁目１６番４,,13,103,1080071,,,,,,,2021-11-16,1,,,,,マンシヨンキヨウトシロカネダイマンシヨンタテカエクミアイ,0
