sequenceNumber,corporateNumber,process,correct,updateDate,changeDate,name,nameImageId,kind,prefectureName,cityName,streetNumber,addressImageId,prefectureCode,cityCode,postCode,addressOutside,addressOutsideImageId,closeDate,closeCause,successorCorporateNumber,changeCause,assignmentDate,latest,enName,enPrefectureName,enCityName,enAddressOutside,furigana,hihyoji
2,1010001040068,登記記録の閉鎖等,0,2022-10-20,2022-10-13,加賀美印刷株式会社,,株式会社,東京都,中央区,湊３丁目５番３号,,13,102,1040043,,,2022-10-13,清算の結了等,,,2015-10-05,1,,,,,カガミインサツ,0
6,1010001092968,登記記録の閉鎖等,0,2022-10-20,2022-10-19,株式会社たまるアセットマネジメント,,株式会社,東京都,中央区,日本橋小舟町６番３号,,13,102,1030024,,,2022-10-19,清算の結了等,,,2015-10-05,1,,,,,タマルアセットマネジメント,0
12,1010005018977,登記記録の閉鎖等,0,2022-10-20,2022-10-20,ＮＰＯ法人労働者を守る会,,その他の設立登記法人,東京都,中央区,日本橋室町１丁目１３番１号ＤＫノア４Ｆ,,13,102,1030022,,,2022-10-20,清算の結了等,,,2015-10-05,1,,,,,ロウドウシャヲマモルカイ,0
14,1010005032400,登記記録の閉鎖等,0,2022-10-20,2022-10-18,一般社団法人ＫＳＬＦ１０,,その他の設立登記法人,東京都,千代田区,内幸町２丁目１番６号,,13,101,1000011,,,2022-10-18,清算の結了等,,,2020-10-13,1,,,,,ケイエスエルエフテン,0
25,1010405019410,登記記録の閉鎖等,0,2022-10-20,2022-10-03,一般社団法人信誠,,その他の設立登記法人,東京都,港区,虎ノ門３丁目２２番１０－２０１号,,13,103,1050001,,,2022-10-03,清算の結了等,,,2021-01-14,1,,,,,シンセイ,0
40,1011001112468,登記記録の閉鎖等,0,2022-10-20,2022-10-17,株式会社ボーダー・アンド・ポーター,,株式会社,東京都,品川区,東五反田１丁目１９番７号ＪＬＧビル５階,,13,109,1410022,,,2022-10-17,合併による解散等,1180001014518,令和４年１０月１日名古屋市南区千竈通六丁目３５番地株式会社サクラアルカス（1180001014518）に合併し解散,2016-08-23,1,,,,,ボーダーアンドポーター,0
51,1011202003870,登記記録の閉鎖等,0,2022-10-20,2022-10-14,有限会社中華料理大むら,,有限会社,東京都,中野区,若宮３丁目７番３号,,13,114,1650033,,,2022-10-14,清算の結了等,,,2015-10-05,1,,,,,チュウカリョウリオオムラ,0
69,1012402018452,登記記録の閉鎖等,0,2022-10-20,2022-10-17,有限会社扇家食堂,,有限会社,東京都,三鷹市,下連雀３丁目５番２号,,13,204,1810013,,,2022-10-17,清算の結了等,,,2015-10-05,1,,,,,オウギヤショクドウ,0
79,1013401004518,登記記録の閉鎖等,0,2022-10-20,2022-10-17,お菓子マーケットプレイス株式会社,,株式会社,東京都,多摩市,永山７丁目２番地１,,13,224,2060025,,,2022-10-17,清算の結了等,,,2015-10-05,1,,,,,オカシマーケットプレイス,0
91,1021002005513,登記記録の閉鎖等,0,2022-10-20,2022-10-17,有限会社レンブラント,,有限会社,神奈川県,茅ヶ崎市,茅ヶ崎２３６番地の７,,14,207,2530041,,,2022-10-17,清算の結了等,,,2015-10-05,1,,,,,レンブラント,0
109,1050001005208,登記記録の閉鎖等,0,2022-10-20,2022-10-03,茨城グリーン開発株式会社,,株式会社,東京都,港区,港南２丁目１５番２号,,13,103,1080075,,,2022-10-03,清算の結了等,,,2015-10-05,1,,,,,イバラキグリーンカイハツ,0
116,1050003005701,登記記録の閉鎖等,0,2022-10-20,2022-10-05,合同会社訪問看護ステーションのぐち,,合同会社,茨城県,神栖市,木崎１０７２－９,,08,232,3140127,,,2022-10-05,清算の結了等,,,2021-03-19,1,,,,,ホウモンカンゴステーションノグチ,0
124,1060002021211,登記記録の閉鎖等,0,2022-10-20,2022-10-13,有限会社癸生川工務店,,有限会社,栃木県,鹿沼市,口粟野１６７４番地,,09,205,3220305,,,2022-10-13,清算の結了等,,,2015-10-05,1,,,,,ケブカワコウムテン,0
125,1060002037793,登記記録の閉鎖等,0,2022-10-20,2022-10-14,有限会社両毛運転代行社,,有限会社,栃木県,足利市,五十部町５４３番地２,,09,202,3260843,,,2022-10-14,清算の結了等,,,2015-10-05,1,,,,,リョウモウウンテンダイコウシャ,0
138,1110001020299,登記記録の閉鎖等,0,2022-10-20,2022-10-18,ワイエイシイ新潟精機株式会社,,株式会社,新潟県,妙高市,中川３番２４号,,15,217,9440005,,,2022-10-18,合併による解散等,9012801017543,令和４年１０月１日東京都昭島市武蔵野三丁目１０番６号ワイエイシイマシナリー株式会社（9012801017543）に合併し解散,2015-10-05,1,,,,,ワイエイシイニイガタセイキ,0
141,1120001210072,登記記録の閉鎖等,0,2022-10-20,2022-10-13,淀屋橋不動産株式会社,,株式会社,大阪府,大阪市中央区,高麗橋４丁目３番７号北ビル７階,,27,128,5410043,,,2022-10-13,清算の結了等,,,2017-12-12,1,,,,,ヨドヤバシフドウサン,0
169,1140001095058,登記記録の閉鎖等,0,2022-10-20,2022-10-17,大同運送株式会社,,株式会社,兵庫県,尼崎市,長洲西通１丁目４番６号,,28,202,6600807,,,2022-10-17,清算の結了等,,,2015-10-05,1,,,,,ダイドウウンソウ,0
173,1140003007028,登記記録の閉鎖等,0,2022-10-20,2022-10-17,櫻井酒造合資会社,,合資会社,兵庫県,姫路市,御国野町深志野５８８番地,,28,201,6710231,,,2022-10-17,清算の結了等,,,2015-10-05,1,,,,,サクライシュゾウ,0
190,1180301009655,登記記録の閉鎖等,0,2022-10-20,2022-10-13,株式会社Ｇｌｏｂａｌ，Ｎ．Ｄ．,,株式会社,愛知県,豊橋市,弥生町字西豊和９番地５,,23,201,4418106,,,2022-10-13,清算の結了等,,,2015-10-05,1,,,,,グローバルエヌディ,0
193,1180303003656,登記記録の閉鎖等,0,2022-10-20,2022-10-14,合同会社ＩＴ　ｐｌｕｓ,,合同会社,愛知県,豊橋市,東七根町字大山２１８番地,,23,201,4413201,,,2022-10-14,合併による解散等,4180001068305,令和４年１０月１日名古屋市中村区名駅一丁目１番１号ＪＰタワー名古屋１５Ｆフィリックス株式会社（4180001068305）に合併し解散,2016-07-25,1,,,,,アイティープラス,0
198,1200002004985,登記記録の閉鎖等,0,2022-10-20,2022-10-19,有限会社山田商事,,有限会社,岐阜県,岐阜市,岩井３丁目９番４１号,,21,201,5013101,,,2022-10-19,清算の結了等,,,2015-10-05,1,,,,,,0
203,1240001021061,登記記録の閉鎖等,0,2022-10-20,2022-10-17,七つ星工房株式会社,,株式会社,広島県,広島市西区,草津梅が台２番２号,,34,104,7330864,,,2022-10-17,清算の結了等,,,2015-10-05,1,,,,,ナナツボシコウボウ,0
215,1330001016804,登記記録の閉鎖等,0,2022-10-20,2022-10-14,株式会社ジェーブレインズ,,株式会社,熊本県,熊本市東区,西原１丁目１３番５号冨永ビル２０１,,43,102,8618029,,,2022-10-14,清算の結了等,,,2015-10-05,1,,,,,ジェーブレインズ,0
228,1410005001307,登記記録の閉鎖等,0,2022-10-20,2022-10-14,特定非営利活動法人秋田土壌浄化コンソーシアム,,その他の設立登記法人,秋田県,秋田市,手形学園町１番１号国立大学法人秋田大学内,,05,201,0100852,,,2022-10-14,清算の結了等,,,2015-10-05,1,,,,,アキタドジョウジョウカコンソーシアム,0
233,1430005007723,登記記録の閉鎖等,0,2022-10-20,2022-10-12,医療法人社団柴田整形外科クリニック,,その他の設立登記法人,北海道,小樽市,長橋２丁目１７番１６号十字街クリニックビル,,01,203,0470036,,,2022-10-12,清算の結了等,,,2015-10-05,1,,,,,シバタセイケイゲカクリニック,0
271,2010405017834,登記記録の閉鎖等,0,2022-10-20,2022-10-03,一般社団法人マインドフルセラピスト協会,,その他の設立登記法人,東京都,港区,南青山２丁目２番１５号ウィン青山１２１４号,,13,103,1070062,,,2022-10-03,清算の結了等,,,2019-07-09,1,,,,,マインドフルセラピストキョウカイ,0
279,2010802002950,登記記録の閉鎖等,0,2022-10-20,2022-10-07,有限会社近江屋酒店,,有限会社,東京都,大田区,仲六郷４丁目２０番９号,,13,111,1440055,,,2022-10-07,清算の結了等,,,2015-10-05,1,,,,,オウミヤサケテン,0
295,2011405002074,登記記録の閉鎖等,0,2022-10-20,2022-10-18,一般社団法人ＫＲＦ９２,,その他の設立登記法人,東京都,千代田区,内幸町２丁目１番６号,,13,101,1000011,,,2022-10-18,清算の結了等,,,2020-05-14,1,,,,,ケイアールエフナインティツー,0
303,2012702004028,登記記録の閉鎖等,0,2022-10-20,2022-10-17,有限会社大阪屋酒店,,有限会社,東京都,西東京市,ひばりが丘北２丁目７番３０号,,13,229,2020002,,,2022-10-17,清算の結了等,,,2015-10-05,1,,,,,,0
313,2013402004714,登記記録の閉鎖等,0,2022-10-20,2022-10-11,有限会社スリーバーズプランニング,,有限会社,東京都,日野市,多摩平６丁目２４番地の３－５０２,,13,212,1910062,,,2022-10-11,清算の結了等,,,2015-10-05,1,,,,,スリーバーズプランニング,0
318,2020001132326,登記記録の閉鎖等,0,2022-10-20,2022-10-12,株式会社エミリーストーン,,株式会社,神奈川県,横浜市保土ケ谷区,鎌谷町１２９番地ＬＡＺ・ｌｕｍｉｎｏｓａ・ｙｏｋｏｈａｍａ１階事務所,,14,106,2400063,,,2022-10-12,合併による解散等,1020001114903,令和４年１０月１２日横浜市南区大岡一丁目１７－２サニーヒルズ弘明寺ＩＩ－１０３号株式会社エミリーストーン（1020001114903）に合併し解散,2019-08-06,1,,,,,エミリーストーン,0
356,2080402002337,登記記録の閉鎖等,0,2022-10-20,2022-10-17,有限会社キング美容室,,有限会社,静岡県,浜松市中区,広沢１丁目８番２７号,,22,131,4328013,,,2022-10-17,清算の結了等,,,2015-10-05,1,,,,,キングビヨウシツ,0
388,2140001022358,登記記録の閉鎖等,0,2022-10-20,2022-10-17,株式会社シラネ,,株式会社,兵庫県,神戸市中央区,雲井通５丁目３番１－２１２号,,28,110,6510096,,,2022-10-17,清算の結了等,,,2015-10-05,1,,,,,シラネ,0
395,2140002062502,登記記録の閉鎖等,0,2022-10-20,2022-10-17,有限会社濱電工業,,有限会社,兵庫県,加西市,大村町８０番地の１,,28,220,6752234,,,2022-10-17,清算の結了等,,,2015-10-05,1,,,,,,0
421,2220002006046,登記記録の閉鎖等,0,2022-10-20,2022-10-18,ＤＳＰ有限会社,,有限会社,石川県,野々市市,御経塚４丁目１７番地,,17,212,9218801,,,2022-10-18,清算の結了等,,,2015-10-05,1,,,,,ディーエスピー,0
428,2270001006835,登記記録の閉鎖等,0,2022-10-20,2022-10-18,株式会社ＳＥカスタマーズ,,株式会社,鳥取県,鳥取市,国府町新通り３丁目３５１番地,,31,201,6808066,,,2022-10-18,清算の結了等,,,2015-12-07,1,,,,,エスイーカスタマーズ,0
441,2320005001174,登記記録の閉鎖等,0,2022-10-20,2022-10-17,舞鶴酒販協同組合,,その他の設立登記法人,大分県,大分市,今津留１丁目１４番８号,,44,201,8700938,,,2022-10-17,清算の結了等,,,2015-10-05,1,,,,,マイヅルシュハン,0
448,2340002000929,登記記録の閉鎖等,0,2022-10-20,2022-10-19,有限会社味乃隆寿司,,有限会社,鹿児島県,鹿児島市,東谷山２丁目１６番３号,,46,201,8910113,,,2022-10-19,清算の結了等,,,2015-10-05,1,,,,,,0
451,2360002015999,登記記録の閉鎖等,0,2022-10-20,2022-10-14,有限会社新生建機,,有限会社,沖縄県,浦添市,大平２丁目１０番１２号,,47,208,9012113,,,2022-10-14,清算の結了等,,,2015-10-05,1,,,,,シンセイケンキ,0
456,2370801000795,登記記録の閉鎖等,0,2022-10-20,2022-10-17,協乳食販株式会社,,株式会社,石川県,白山市,竹松町３１０７番地,,17,210,9240021,,,2022-10-17,清算の結了等,,,2015-10-05,1,,,,,キョウニュウショクハン,0
461,2430001013419,登記記録の閉鎖等,0,2022-10-20,2022-10-05,株式会社パツクウエル,,株式会社,北海道,札幌市手稲区,曙二条４丁目２番４３号,00088295,01,109,0060832,,,2022-10-05,清算の結了等,,,2015-10-05,1,,,,,パツクウエル,0
466,2450001003161,登記記録の閉鎖等,0,2022-10-20,2022-10-19,株式会社森本金物店,,株式会社,北海道,上川郡上川町,北町５１６番地,,01,457,0781744,,,2022-10-19,清算の結了等,,,2015-10-05,1,,,,,モリモトカナモノテン,0
492,3010005024783,登記記録の閉鎖等,0,2022-10-20,2022-10-05,タカオ特定目的会社,,その他の設立登記法人,東京都,渋谷区,広尾１丁目１１番２号嶋本公認会計士事務所気付,,13,113,1500012,,,2022-10-05,清算の結了等,,,2015-12-25,1,,,,,タカオ,0
493,3010401028000,登記記録の閉鎖等,0,2022-10-20,2022-10-03,マンション、マスタシュ株式会社,,株式会社,東京都,港区,南麻布３丁目３番２号,,13,103,1060047,,,2022-10-03,清算の結了等,,,2015-10-05,1,,,,,マンションマスタシュ,0
504,3010405020556,登記記録の閉鎖等,0,2022-10-20,2022-10-03,一般社団法人日本前世療法協会,,その他の設立登記法人,東京都,港区,芝２丁目１０番６号ツカサビル５Ｆ,,13,103,1050014,,,2022-10-03,清算の結了等,,,2022-01-13,1,,,,,ゼンセリョウホウキョウカイ,0
508,3010603006836,登記記録の閉鎖等,0,2022-10-20,2022-10-11,たがらん合同会社,,合同会社,東京都,江東区,豊洲６丁目２番３１号,,13,108,1350061,,,2022-10-11,清算の結了等,,,2017-07-20,1,,,,,,0
526,3011005007415,登記記録の閉鎖等,0,2022-10-20,2022-10-05,オリベ特定目的会社,,その他の設立登記法人,東京都,渋谷区,広尾１丁目１１番２号嶋本公認会計士事務所気付,,13,113,1500012,,,2022-10-05,清算の結了等,,,2017-11-10,1,,,,,オリベ,0
532,3011102016005,登記記録の閉鎖等,0,2022-10-20,2022-10-18,有限会社総合ビルメンテナンス,,有限会社,東京都,新宿区,馬場下町６２番地１９武蔵野ビル,,13,104,1620045,,,2022-10-18,清算の結了等,,,2015-10-05,1,,,,,ソウゴウビルメンテナンス,0
546,3012301006275,登記記録の閉鎖等,0,2022-10-20,2022-10-14,株式会社リトル・バイ・リトル,,株式会社,東京都,町田市,原町田６丁目６番１４号,,13,209,1940013,,,2022-10-14,清算の結了等,,,2015-10-05,1,,,,,,0
553,3013202014565,登記記録の閉鎖等,0,2022-10-20,2022-10-05,有限会社トンポー,,有限会社,東京都,目黒区,自由が丘１丁目２番２５号万盛ビル,,13,110,1520035,,,2022-10-05,清算の結了等,,,2015-10-05,1,,,,,,0
561,3020005011095,登記記録の閉鎖等,0,2022-10-20,2022-10-12,税理士法人今野・町田事務所,,その他の設立登記法人,神奈川県,横浜市旭区,二俣川１丁目４５番地の３８,,14,112,2410821,,,2022-10-12,清算の結了等,,,2015-10-05,1,,,,,コンノマチダジムショ,0
564,3021002013191,登記記録の閉鎖等,0,2022-10-20,2022-10-03,有限会社こなひき洞,,有限会社,神奈川県,茅ヶ崎市,菱沼２丁目１１番３７号,,14,207,2530011,,,2022-10-03,合併による解散等,3021001064797,令和４年１０月１日神奈川県平塚市根坂間１７番地９都市管理法人ＡＮＯＫ株式会社（3021001064797）に合併し解散,2015-10-05,1,,,,,コナヒキドウ,0
569,3030001121095,登記記録の閉鎖等,0,2022-10-20,2022-10-06,ＩＴＯ　ＧＡＭＥＳ株式会社,,株式会社,東京都,杉並区,方南２丁目２４番１２－５０５号,,13,115,1680062,,,2022-10-06,清算の結了等,,,2017-07-05,1,,,,,アイティーオーゲームス,0
575,3030002039808,登記記録の閉鎖等,0,2022-10-20,2022-10-06,有限会社マスタキ薬局,,有限会社,埼玉県,幸手市,中１丁目１７番３号,,11,240,3400115,,,2022-10-06,清算の結了等,,,2015-10-05,1,,,,,マスタキヤッキョク,0
582,3040001032432,登記記録の閉鎖等,0,2022-10-20,2022-10-11,株式会社ステージコーポレーション,,株式会社,千葉県,市川市,塩浜３丁目２７番２４号,,12,203,2720127,,,2022-10-11,清算の結了等,,,2015-10-05,1,,,,,ステージコーポレーション,0
588,3040002080686,登記記録の閉鎖等,0,2022-10-20,2022-10-07,有限会社赤ひげ,,有限会社,千葉県,茂原市,緑ケ丘４丁目３番地５,,12,210,2970065,,,2022-10-07,清算の結了等,,,2015-10-05,1,,,,,アカヒゲ,0
590,3040002084035,登記記録の閉鎖等,0,2022-10-20,2022-10-07,有限会社下新,,有限会社,千葉県,旭市,ハの１３７２番地,,12,215,2892521,,,2022-10-07,清算の結了等,,,2015-10-05,1,,,,,シタシン,0
598,3080001010384,登記記録の閉鎖等,0,2022-10-20,2022-10-19,深井電気株式会社,,株式会社,静岡県,静岡市清水区,北矢部町２丁目２番１８号,,22,103,4240937,,,2022-10-19,清算の結了等,,,2015-10-05,1,,,,,フカイデンキ,0
603,3080401010620,登記記録の閉鎖等,0,2022-10-20,2022-10-17,株式会社野末製作所,,株式会社,静岡県,浜松市北区,細江町中川４５９０番地の６,,22,135,4311304,,,2022-10-17,清算の結了等,,,2015-10-05,1,,,,,ノズエセイサクジョ,0
616,3100005012457,登記記録の閉鎖等,0,2022-10-20,2022-10-14,一般社団法人ＪＡＰＡＮ　ＳＴＵＤＹ　ＰＡＳＳ協会,,その他の設立登記法人,長野県,長野市,松代町東条３４９８番地,,20,201,3811221,,,2022-10-14,清算の結了等,,,2019-09-06,1,,,,,ジャパンスタディパスキョウカイ,0
652,3140002037214,登記記録の閉鎖等,0,2022-10-20,2022-10-17,有限会社ステップ,,有限会社,兵庫県,高砂市,北浜町西浜１０５３番地の１,,28,216,6710123,,,2022-10-17,清算の結了等,,,2015-10-05,1,,,,,ステップ,0
666,3180001119356,登記記録の閉鎖等,0,2022-10-20,2022-10-07,株式会社虹,,株式会社,愛知県,名古屋市天白区,中平４丁目８０３番地の３,,23,116,4680014,,,2022-10-07,清算の結了等,,,2015-10-05,1,,,,,ニジ,0
668,3180002017740,登記記録の閉鎖等,0,2022-10-20,2022-10-13,有限会社関西電器商会,,有限会社,愛知県,名古屋市中川区,花池町２丁目５２番地,,23,110,4540902,,,2022-10-13,清算の結了等,,,2015-10-05,1,,,,,カンサイデンキショウカイ,0
678,3180302024148,登記記録の閉鎖等,0,2022-10-20,2022-10-12,有限会社千健社,,有限会社,愛知県,みよし市,打越町東屋敷３９番地,,23,236,4700213,,,2022-10-12,清算の結了等,,,2015-10-05,1,,,,,センケンシャ,0
696,3240002039571,登記記録の閉鎖等,0,2022-10-20,2022-10-19,有限会社エイブルプロジェクト,,有限会社,広島県,福山市,西町２丁目１１番３１－１４０１号,,34,207,7200067,,,2022-10-19,清算の結了等,,,2015-10-05,1,,,,,エイブルプロジェクト,0
701,3250005005958,登記記録の閉鎖等,0,2022-10-20,2022-10-17,医療法人社団愛眼会,,その他の設立登記法人,山口県,岩国市,麻里布町５丁目３番１号,,35,208,7400018,,,2022-10-17,清算の結了等,,,2015-10-05,1,,,,,アイガンカイ,0
716,3310002011333,登記記録の閉鎖等,0,2022-10-20,2022-10-18,有限会社福昭エンジニアリング,,有限会社,長崎県,佐世保市,梅田町１１番４４号,,42,202,8570017,,,2022-10-18,清算の結了等,,,2015-10-05,1,,,,,フクショウエンジニアリング,0
718,3310003003098,登記記録の閉鎖等,0,2022-10-20,2022-10-18,合同会社未来りん業,,合同会社,長崎県,対馬市,厳原町天道茂５１９番地２,,42,209,8170014,,,2022-10-18,清算の結了等,,,2016-02-05,1,,,,,ミライリンギョウ,0
748,3500002014119,登記記録の閉鎖等,0,2022-10-20,2022-10-19,国田塗装工業有限会社,,有限会社,愛媛県,西条市,中野甲１７６番地第１,,38,206,7930054,,,2022-10-19,清算の結了等,,,2015-10-05,1,,,,,クニタトソウコウギョウ,0
759,4010005001716,登記記録の閉鎖等,0,2022-10-20,2022-10-19,東京機械刺繍協同組合,00050048,その他の設立登記法人,東京都,千代田区,岩本町３丁目２番２号千代田岩本ビル１階株式会社ミノダ内,,13,101,1010032,,,2022-10-19,清算の結了等,,,2015-10-05,1,,,,,トウキョウキカイシシュウ,0
786,4010805002558,登記記録の閉鎖等,0,2022-10-20,2022-10-11,一般社団法人カンボジア相談窓口,,その他の設立登記法人,東京都,大田区,蒲田５丁目４番１－１１０３号,,13,111,1440052,,,2022-10-11,清算の結了等,,,2018-04-20,1,,,,,カンボジアソウダンマドグチ,0
787,4010901049379,登記記録の閉鎖等,0,2022-10-20,2022-10-12,株式会社ＥＳＴＤ,,株式会社,東京都,練馬区,桜台３丁目８番２０－３０１号,,13,120,1760002,,,2022-10-12,清算の結了等,,,2021-09-03,1,,,,,イーエスティーディー,0
806,4011302016349,登記記録の閉鎖等,0,2022-10-20,2022-10-12,有限会社ディレクションＧＤ,,有限会社,東京都,昭島市,緑町１丁目１８番１３号,,13,207,1960004,,,2022-10-12,清算の結了等,,,2015-10-05,1,,,,,ディレクションジーディ,0
847,4030001091833,登記記録の閉鎖等,0,2022-10-20,2022-10-06,株式会社嘉和,,株式会社,埼玉県,川口市,大字辻５２３番地の４,00112666,11,203,3340004,,,2022-10-06,清算の結了等,,,2015-10-05,1,,,,,カワ,0
868,4040002075982,登記記録の閉鎖等,0,2022-10-20,2022-10-11,有限会社メタリックス,,有限会社,千葉県,市原市,根田３丁目１０番地３,,12,219,2900024,,,2022-10-11,清算の結了等,,,2015-10-05,1,,,,,メタリックス,0
878,4080101015464,登記記録の閉鎖等,0,2022-10-20,2022-10-19,株式会社山一コーポレーション,,株式会社,静岡県,沼津市,岡宮１２７１番地の１,,22,203,4100011,,,2022-10-19,清算の結了等,,,2015-10-05,1,,,,,ヤマイチコーポレーション,0
921,4140002032180,登記記録の閉鎖等,0,2022-10-20,2022-10-18,有限会社光明,,有限会社,兵庫県,揖保郡太子町,矢田部３３番地の４,,28,464,6711522,,,2022-10-18,清算の結了等,,,2015-10-05,1,,,,,コウミョウ,0
922,4140002034334,登記記録の閉鎖等,0,2022-10-20,2022-10-18,有限会社プラム,,有限会社,兵庫県,たつの市,御津町室津１２２９－３,,28,229,6711332,,,2022-10-18,清算の結了等,,,2015-10-05,1,,,,,プラム,0
945,4200001013274,登記記録の閉鎖等,0,2022-10-20,2022-10-20,株式会社英電社,,株式会社,岐阜県,大垣市,桐ケ崎町５２番地,,21,202,5030904,,,2022-10-20,清算の結了等,,,2015-10-05,1,,,,,エイデンシャ,0
948,4210003001136,登記記録の閉鎖等,0,2022-10-20,2022-10-05,ＩＭｔｅｘ合同会社,,合同会社,福井県,越前市,千原町第２号６番地,,18,209,9150243,,,2022-10-05,清算の結了等,,,2019-02-04,1,,,,,アイエムテックス,0
951,4230001009352,登記記録の閉鎖等,0,2022-10-20,2022-10-18,小矢部まちづくり株式会社,,株式会社,富山県,小矢部市,鷲島６５番地１,,16,209,9320821,,,2022-10-18,清算の結了等,,,2015-10-05,1,,,,,オヤベマチヅクリ,0
952,4230002012140,登記記録の閉鎖等,0,2022-10-20,2022-10-17,有限会社都不動産,,有限会社,富山県,高岡市,末広町１０２３番地,,16,202,9330023,,,2022-10-17,清算の結了等,,,2015-10-05,1,,,,,ミヤコフドウサン,0
954,4240002030769,登記記録の閉鎖等,0,2022-10-20,2022-10-18,有限会社アイドル,,有限会社,広島県,安芸高田市,吉田町吉田５２１番地の２,,34,214,7310501,,,2022-10-18,清算の結了等,,,2015-10-05,1,,,,,アイドル,0
966,4280005007133,登記記録の閉鎖等,0,2022-10-20,2022-10-18,農事組合法人ハッピービレッジ潮,,その他の設立登記法人,島根県,邑智郡美郷町,潮村５４番地１,,32,448,6960701,,,2022-10-18,清算の結了等,,,2016-06-07,1,,,,,ハッピービレッジウシオ,0
967,4290001048015,登記記録の閉鎖等,0,2022-10-20,2022-10-12,ＬＡＮＫＡ・Ｗｅｌｌｎｅｓｓ株式会社,,株式会社,福岡県,筑後市,大字久富１７４４番地１,,40,211,8330056,,,2022-10-12,清算の結了等,,,2015-10-05,1,,,,,ランカウェルネス,0
985,4330001022171,登記記録の閉鎖等,0,2022-10-20,2022-10-14,バンブーエナジー株式会社,,株式会社,熊本県,玉名郡南関町,大字下坂下４６６８番地６,,43,367,8610821,,,2022-10-14,清算の結了等,,,2015-10-16,1,,,,,バンブーエナジー,0
994,4400005000208,登記記録の閉鎖等,0,2022-10-20,2022-10-17,一般財団法人岩手社会文化会館,,その他の設立登記法人,岩手県,盛岡市,南大通３丁目４番１９号,,03,201,0200874,,,2022-10-17,清算の結了等,,,2015-10-05,1,,,,,イワテシャカイブンカカイカン,0
996,4430001046474,登記記録の閉鎖等,0,2022-10-20,2022-10-11,三光建設株式会社,,株式会社,北海道,岩見沢市,志文町２６３番地５,,01,210,0680833,,,2022-10-11,清算の結了等,,,2015-10-05,1,,,,,サンコウケンセツ,0
1002,4430002060177,登記記録の閉鎖等,0,2022-10-20,2022-10-06,有限会社鵡川水道設備工業,,有限会社,北海道,勇払郡むかわ町,大成１丁目１０番地１,,01,586,0540052,,,2022-10-06,清算の結了等,,,2015-10-05,1,,,,,ムカワスイドウセツビコウギョウ,0
1004,4440005001813,登記記録の閉鎖等,0,2022-10-20,2022-10-14,医療法人社団幾世橋医院,,その他の設立登記法人,北海道,茅部郡森町,字御幸町１３０番地,,01,345,0492326,,,2022-10-14,清算の結了等,,,2015-10-05,1,,,,,キヨハシイイン,0
1016,5010001187112,登記記録の閉鎖等,0,2022-10-20,2022-10-05,株式会社ル・ブレッドラボ・ジャパン,,株式会社,東京都,渋谷区,上原２丁目２２番１０号,,13,113,1510064,,,2022-10-05,清算の結了等,,,2017-10-24,1,,,,,ルブレッドラボジャパン,0
1028,5010401086863,登記記録の閉鎖等,0,2022-10-20,2022-10-18,株式会社ｓｅｐｏｒｔａｌ,,株式会社,東京都,板橋区,弥生町３番６号フロントピアヒルズ４０１,,13,119,1730021,,,2022-10-18,清算の結了等,,,2015-10-05,1,,,,,エスイーポータル,0
1041,5010501021051,登記記録の閉鎖等,0,2022-10-20,2022-10-11,株式会社Ａ・Ｋ・Ｋ・Ｉ,,株式会社,東京都,台東区,浅草１丁目１７番８号,,13,106,1110032,,,2022-10-11,清算の結了等,,,2015-10-05,1,,,,,エーケイケイアイ,0
1051,5010901029082,登記記録の閉鎖等,0,2022-10-20,2022-10-18,Ａ＆Ｃ株式会社,,株式会社,東京都,世田谷区,祖師谷３丁目３０番４号,,13,112,1570072,,,2022-10-18,清算の結了等,,,2015-10-05,1,,,,,エーアンドシー,0
1062,5011301014328,登記記録の閉鎖等,0,2022-10-20,2022-10-06,アムコス株式会社,,株式会社,東京都,杉並区,下井草１丁目２５番３８号,,13,115,1670022,,,2022-10-06,清算の結了等,,,2015-10-05,1,,,,,アムコス,0
1065,5011502011751,登記記録の閉鎖等,0,2022-10-20,2022-10-14,有限会社横山プラス工業,,有限会社,東京都,荒川区,東尾久３丁目６番１７号,,13,118,1160012,,,2022-10-14,清算の結了等,,,2015-10-05,1,,,,,ヨコヤマプラスコウギョウ,0
1069,5011801007533,登記記録の閉鎖等,0,2022-10-20,2022-10-14,株式会社高金製作所,,株式会社,東京都,足立区,花畑６丁目２７番１号,,13,121,1210061,,,2022-10-14,清算の結了等,,,2015-10-05,1,,,,,コウキンセイサクジョ,0
1087,5020002067106,登記記録の閉鎖等,0,2022-10-20,2022-10-12,有限会社米世本店,,有限会社,神奈川県,横浜市中区,曙町３丁目４０番地,,14,104,2310057,,,2022-10-12,清算の結了等,,,2015-10-05,1,,,,,ヨネセホンテン,0
1094,5021001052750,登記記録の閉鎖等,0,2022-10-20,2022-10-03,株式会社リフシアネット,,株式会社,神奈川県,茅ヶ崎市,萩園２８３９番地,,14,207,2530071,,,2022-10-03,合併による解散等,5021001019130,令和４年１０月１日神奈川県茅ヶ崎市萩園２８２２番地１株式会社リフシア（5021001019130）に合併し解散,2015-10-05,1,,,,,リフシアネット,0
1121,5060001027115,登記記録の閉鎖等,0,2022-10-20,2022-10-13,株式会社未来企画,,株式会社,栃木県,小山市,中央町３丁目６番１２号,,09,208,3230023,,,2022-10-13,清算の結了等,,,2015-10-05,1,,,,,ミライキカク,0
1126,5080102009365,登記記録の閉鎖等,0,2022-10-20,2022-10-18,有限会社綾部製作所,,有限会社,静岡県,駿東郡清水町,柿田９４１番地の１,,22,341,4110904,,,2022-10-18,清算の結了等,,,2015-10-05,1,,,,,アヤベセイサクショ,0
1151,5120001223310,登記記録の閉鎖等,0,2022-10-20,2022-10-13,株式会社グッドモーニングワールドジャパン,,株式会社,大阪府,大阪市生野区,田島５丁目１６番１２号,,27,116,5440011,,,2022-10-13,清算の結了等,,,2019-08-26,1,,,,,グッドモーニングワールドジャパン,0
1152,5120001232113,登記記録の閉鎖等,0,2022-10-20,2022-10-14,ＫＮフジニッテイ株式会社,,株式会社,大阪府,大阪市住之江区,柴谷２丁目５番８５号,,27,125,5590021,,,2022-10-14,合併による解散等,7011801006938,令和４年１０月１日埼玉県八潮市大字西袋７１７番地１株式会社カナイ（7011801006938）に合併し解散,2020-10-05,1,,,,,ケーエヌフジニッテイ,0
1189,5140002033137,登記記録の閉鎖等,0,2022-10-20,2022-10-18,有限会社リップル,,有限会社,兵庫県,たつの市,御津町室津４１番地,,28,229,6711332,,,2022-10-18,清算の結了等,,,2015-10-05,1,,,,,リップル,0
1195,5150003001991,登記記録の閉鎖等,0,2022-10-20,2022-10-17,ＹＫＦ発電合同会社,,合同会社,奈良県,生駒市,有里町４３番地１,,29,209,6300233,,,2022-10-17,清算の結了等,,,2019-08-09,1,,,,,ワイケーエフハツデン,0
1199,5160002000102,登記記録の閉鎖等,0,2022-10-20,2022-10-18,有限会社アルファウエィブ,,有限会社,滋賀県,大津市,里５丁目１１番１８号,,25,201,5202276,,,2022-10-18,清算の結了等,,,2015-10-05,1,,,,,アルファウエィブ,0
1202,5180001040403,登記記録の閉鎖等,0,2022-10-20,2022-10-14,株式会社プラッツ,,株式会社,愛知県,名古屋市中区,新栄１丁目１１番４号,,23,106,4600007,,,2022-10-14,清算の結了等,,,2015-10-05,1,,,,,プラッツ,0
1218,5190005010979,登記記録の閉鎖等,0,2022-10-20,2022-10-19,特定非営利活動法人松阪メンフクロウの会,,その他の設立登記法人,三重県,松阪市,五主町４０１番地１,,24,204,5152102,,,2022-10-19,清算の結了等,,,2016-09-07,1,,,,,マツサカメンフクロウノカイ,0
1224,5240001053332,登記記録の閉鎖等,0,2022-10-20,2022-10-17,リンコウ株式会社,,株式会社,広島県,広島市安佐北区,可部４丁目１５番４２－３０１号,,34,106,7310221,,,2022-10-17,清算の結了等,,,2018-09-20,1,,,,,リンコウ,0
1226,5240002040206,登記記録の閉鎖等,0,2022-10-20,2022-10-18,有限会社季朝,,有限会社,広島県,福山市,久松台１丁目６番３０号,,34,207,7200083,,,2022-10-18,清算の結了等,,,2015-10-05,1,,,,,キチョウ,0
1269,5370005002347,登記記録の閉鎖等,0,2022-10-20,2022-10-06,特定非営利活動法人行政システム効率化支援機構,,その他の設立登記法人,宮城県,仙台市青葉区,国分町３丁目１１番３０－９０３号,,04,101,9800803,,,2022-10-06,清算の結了等,,,2015-10-05,1,,,,,,0
1271,5370202000137,登記記録の閉鎖等,0,2022-10-20,2022-10-12,有限会社遠藤重機産業,,有限会社,宮城県,大崎市,松山金谷字金田５０番地,,04,215,9871303,,,2022-10-12,清算の結了等,,,2015-10-05,1,,,,,エンドウジュウキサンギョウ,0
1276,5410003003532,登記記録の閉鎖等,0,2022-10-20,2022-10-17,由利本荘洋上風力Ｏ＆Ｍ合同会社,,合同会社,秋田県,由利本荘市,岩渕下７１番地１中央線富士ビル１階,,05,210,0150834,,,2022-10-17,清算の結了等,,,2021-04-28,1,,,,,ユリホンジョウヨウジョウフウリョクオーアンドエム,0
1279,5430001030808,登記記録の閉鎖等,0,2022-10-20,2022-10-11,株式会社真輝計画,,株式会社,北海道,札幌市北区,篠路二条３丁目９番１１号,,01,102,0028022,,,2022-10-11,清算の結了等,,,2015-10-05,1,,,,,シンキケイカク,0
1284,5430001084837,登記記録の閉鎖等,0,2022-10-20,2022-10-07,株式会社ＭＲＡホールディングス,,株式会社,北海道,室蘭市,白鳥台５丁目１番８号,,01,205,0500054,,,2022-10-07,清算の結了等,,,2021-08-30,1,,,,,エムアールエーホールディングス,0
1303,6010003030310,登記記録の閉鎖等,0,2022-10-20,2022-10-13,合同会社ＯＢＣホールディングス,,合同会社,東京都,千代田区,永田町２丁目１１番１号,,13,101,1000014,,,2022-10-13,清算の結了等,,,2019-07-25,1,,,,,オービーシーホールディングス,0
1322,6010602012989,登記記録の閉鎖等,0,2022-10-20,2022-10-13,有限会社風巻ハガネ商店,,有限会社,東京都,墨田区,東駒形４丁目１２番８号,,13,107,1300005,,,2022-10-13,清算の結了等,,,2015-10-05,1,,,,,カザマキハガネショウテン,0
1333,6010901005215,登記記録の閉鎖等,0,2022-10-20,2022-10-18,新いずみ建装株式会社,,株式会社,神奈川県,横浜市都筑区,東方町１８６番地１,,14,118,2240045,,,2022-10-18,合併による解散等,9040001047796,令和４年１０月１日千葉県習志野市東習志野六丁目１９番１２号株式会社ブルケン関東（9040001047796）に合併し解散,2015-10-05,1,,,,,シンイズミケンソウ,0
1362,6011501020414,登記記録の閉鎖等,0,2022-10-20,2022-10-14,株式会社オールワン,,株式会社,東京都,葛飾区,堀切６丁目２８番９号,,13,122,1240006,,,2022-10-14,清算の結了等,,,2015-10-05,1,,,,,オールワン,0
1368,6011601013920,登記記録の閉鎖等,0,2022-10-20,2022-10-14,ｌｉｖｉｎ．株式会社,,株式会社,東京都,練馬区,小竹町２丁目２９番１１号,,13,120,1760004,,,2022-10-14,清算の結了等,,,2015-10-05,1,,,,,リビン,0
1381,6013301041359,登記記録の閉鎖等,0,2022-10-20,2022-10-17,ＪＯＩＮＴ　ＴＥＣＨＮＯＬＯＧＹ株式会社,,株式会社,東京都,豊島区,高田２丁目７番１４－８０２号,,13,116,1710033,,,2022-10-17,清算の結了等,,,2017-11-08,1,,,,,,0
1397,6020002092763,登記記録の閉鎖等,0,2022-10-20,2022-10-12,有限会社システムキャズ,,有限会社,神奈川県,川崎市多摩区,宿河原４丁目２２番２４号,,14,135,2140021,,,2022-10-12,清算の結了等,,,2015-10-05,1,,,,,システムキャズ,0
1407,6030001015823,登記記録の閉鎖等,0,2022-10-20,2022-09-29,株式会社グリーン,,株式会社,埼玉県,さいたま市緑区,大字中尾１３７９番地１,,11,109,3360932,,,2022-09-29,清算の結了等,,,2015-10-05,1,,,,,グリーン,0
1409,6030001059515,登記記録の閉鎖等,0,2022-10-20,2022-10-06,株式会社ＰＫテクノ埼玉,,株式会社,埼玉県,川越市,大字石田本郷１１００番地,,11,201,3500835,,,2022-10-06,清算の結了等,,,2015-10-05,1,,,,,ピーケーテクノサイタマ,0
1411,6030001100930,登記記録の閉鎖等,0,2022-10-20,2022-10-07,株式会社山崎,00015735,株式会社,埼玉県,川口市,朝日２丁目１番１８－９１７号,,11,203,3320001,,,2022-10-07,清算の結了等,,,2015-10-05,1,,,,,,0
1440,6040002034929,登記記録の閉鎖等,0,2022-10-20,2022-10-06,有限会社大営工業,,有限会社,千葉県,市川市,広尾１丁目１６番４号,,12,203,2720146,,,2022-10-06,清算の結了等,,,2015-10-05,1,,,,,ダイエイコウギョウ,0
1441,6040002048136,登記記録の閉鎖等,0,2022-10-20,2022-10-07,有限会社ビッグベアー,,有限会社,千葉県,松戸市,小金原４丁目２９番地の２,,12,207,2700021,,,2022-10-07,清算の結了等,,,2015-10-05,1,,,,,ビッグベアー,0
1443,6050001020152,登記記録の閉鎖等,0,2022-10-20,2022-10-17,株式会社ケイツーホーム,,株式会社,茨城県,鹿嶋市,宮中７丁目７番７号,,08,222,3140031,,,2022-10-17,清算の結了等,,,2015-10-05,1,,,,,ケイツーホーム,0
1465,6120001180716,登記記録の閉鎖等,0,2022-10-20,2022-10-07,株式会社Ｆｉｔ’ｓ,,株式会社,大阪府,大阪市中央区,宗右衛門町４番１０号,,27,128,5420084,,,2022-10-07,清算の結了等,,,2015-10-05,1,,,,,フィッツ,0
1483,6120902022396,登記記録の閉鎖等,0,2022-10-20,2022-10-17,有限会社シエル・カンパニー,,有限会社,大阪府,池田市,荘園１丁目１１番２０号,,27,204,5630038,,,2022-10-17,清算の結了等,,,2015-10-05,1,,,,,,0
1488,6140001004022,登記記録の閉鎖等,0,2022-10-20,2022-10-14,ホームスペースパル株式会社,,株式会社,兵庫県,神戸市灘区,篠原南町３丁目２番１６号,,28,102,6570059,,,2022-10-14,清算の結了等,,,2015-10-05,1,,,,,ホームスペースパル,0
1495,6150001002784,登記記録の閉鎖等,0,2022-10-20,2022-10-14,株式会社六軒建装,,株式会社,奈良県,奈良市,北之庄西町１丁目１２番地の４,,29,201,6308452,,,2022-10-14,合併による解散等,7011801006938,令和４年１０月１日埼玉県八潮市大字西袋７１７番地１株式会社カナイ（7011801006938）に合併し解散,2015-10-05,1,,,,,ロッケンケンソウ,0
1504,6180001107011,登記記録の閉鎖等,0,2022-10-20,2022-10-11,アイリス・ホールディングス株式会社,,株式会社,愛知県,名古屋市名東区,上社２丁目１８６番地,,23,115,4650025,,,2022-10-11,合併による解散等,2180001109647,令和４年１０月１日愛知県長久手市城屋敷８０１番地中央出版ホールディングス株式会社（2180001109647）に合併し解散,2015-10-05,1,,,,,アイリスホールディングス,0
1506,6180001120749,登記記録の閉鎖等,0,2022-10-20,2022-10-17,東海電力株式会社,,株式会社,東京都,中央区,日本橋兜町２０－７,,13,102,1030026,,,2022-10-17,清算の結了等,,,2015-10-28,1,,,,,トウカイデンリョク,0
1518,6180302015359,登記記録の閉鎖等,0,2022-10-20,2022-10-14,有限会社クリーニングたけうち,,有限会社,愛知県,蒲郡市,三谷北通１丁目４７番地,,23,214,4430022,,,2022-10-14,清算の結了等,,,2015-10-05,1,,,,,クリーニングタケウチ,0
1523,6220001020317,登記記録の閉鎖等,0,2022-10-20,2022-10-17,株式会社ロータスコンセプト,,株式会社,石川県,金沢市,山の上町２０番５２号,,17,201,9200816,,,2022-10-17,清算の結了等,,,2015-10-05,1,,,,,ロータスコンセプト,0
1527,6230005005503,登記記録の閉鎖等,0,2022-10-20,2022-10-17,福光地区木材業協同組合,,その他の設立登記法人,富山県,南砺市,田中７９３番地,,16,210,9391704,,,2022-10-17,清算の結了等,,,2015-10-05,1,,,,,フクミツチクモクザイギョウ,0
1533,6250001000126,登記記録の閉鎖等,0,2022-10-20,2022-10-13,小郡駅弁当株式会社,,株式会社,山口県,山口市,小郡令和１丁目２番３２号,,35,203,7540041,,,2022-10-13,合併による解散等,9240001014529,令和４年１０月１日広島市東区二葉の里一丁目１番２４号株式会社ジェイアールサービスネット広島（9240001014529）に合併し解散,2015-10-05,1,,,,,オゴオリエキベントウ,0
1537,6280002008545,登記記録の閉鎖等,0,2022-10-20,2022-10-13,有限会社浜田食品市場,,有限会社,島根県,浜田市,黒川町１４６番地,,32,202,6970024,,,2022-10-13,清算の結了等,,,2015-10-05,1,,,,,ハマダショクヒンイチバ,0
1539,6280002009907,登記記録の閉鎖等,0,2022-10-20,2022-10-18,有限会社共和自動車部品商会,,有限会社,島根県,益田市,有明町４番４１号,,32,204,6980022,,,2022-10-18,合併による解散等,2240001006136,令和４年９月３０日広島市西区商工センター一丁目９番１７号太陽オート株式会社（2240001006136）に合併し解散,2015-10-05,1,,,,,キョウワジドウシャブヒンショウカイ,0
1559,6330002024792,登記記録の閉鎖等,0,2022-10-20,2022-10-14,有限会社米原設備,,有限会社,熊本県,熊本市南区,城南町隈庄７６５番地の５,,43,104,8614203,,,2022-10-14,清算の結了等,,,2015-10-05,1,,,,,ヨネハラセツビ,0
1576,6370002008676,登記記録の閉鎖等,0,2022-10-20,2022-10-07,有限会社松本デザイン事務所,,有限会社,宮城県,仙台市宮城野区,榴岡５丁目９番２８－２０３号,,04,102,9830852,,,2022-10-07,清算の結了等,,,2015-10-05,1,,,,,マツモトデザインジムショ,0
1584,6380002030266,登記記録の閉鎖等,0,2022-10-20,2022-10-11,有限会社栃久保屋,,有限会社,福島県,双葉郡浪江町,大字権現堂字寺畑１４番地の１,,07,547,9791521,,,2022-10-11,清算の結了等,,,2015-10-05,1,,,,,トチクボヤ,0
1586,6400001014275,登記記録の閉鎖等,0,2022-10-20,2022-10-19,梅澤工業株式会社,,株式会社,岩手県,大船渡市,末崎町字神坂１番地４０,,03,203,0220001,,,2022-10-19,清算の結了等,,,2018-08-23,1,,,,,,0
1596,6430002057725,登記記録の閉鎖等,0,2022-10-20,2022-10-05,有限会社松興業,,有限会社,北海道,岩内郡岩内町,字野束５４９番地の８,,01,402,0450024,,,2022-10-05,清算の結了等,,,2015-10-05,1,,,,,,0
1610,7010001204674,登記記録の閉鎖等,0,2022-10-20,2022-10-14,株式会社ドミノトーク,,株式会社,東京都,中央区,勝どき２丁目１０番１４－７０５号,,13,102,1040054,,,2022-10-14,清算の結了等,,,2019-10-17,1,,,,,ドミノトーク,0
1659,7011302005357,登記記録の閉鎖等,0,2022-10-20,2022-10-06,有限会社綜合コンサルタント,,有限会社,東京都,杉並区,高円寺北２丁目８番１０－１００３号,,13,115,1660002,,,2022-10-06,清算の結了等,,,2015-10-05,1,,,,,ソウゴウコンサルタント,0
1666,7011702014478,登記記録の閉鎖等,0,2022-10-20,2022-10-17,有限会社ハヤト設計事務所,,有限会社,東京都,江戸川区,南小岩３丁目２５番４号,,13,123,1330056,,,2022-10-17,清算の結了等,,,2015-10-05,1,,,,,ハヤトセッケイジムショ,0
1678,7012802005268,登記記録の閉鎖等,0,2022-10-20,2022-10-12,有限会社アイセー,,有限会社,東京都,東大和市,湖畔２丁目１０７４番地の４４,,13,220,2070002,,,2022-10-12,清算の結了等,,,2015-10-05,1,,,,,アイセー,0
1686,7020002018817,登記記録の閉鎖等,0,2022-10-20,2022-10-12,有限会社サン．フィールド,,有限会社,神奈川県,横浜市港南区,日野７丁目１番２２号,,14,111,2340051,,,2022-10-12,清算の結了等,,,2015-10-05,1,,,,,サンフィールド,0
1721,7060001016850,登記記録の閉鎖等,0,2022-10-20,2022-10-11,株式会社前日光都賀牧場,,株式会社,栃木県,栃木市,都賀町家中６４９４番地,,09,203,3280111,,,2022-10-11,合併による解散等,4060001017356,令和４年１０月１日栃木県栃木市泉川町５５６番地滝沢ハム株式会社（4060001017356）に合併し解散,2015-10-05,1,,,,,マエニッコウツガボクジョウ,0
1750,7120101034985,登記記録の閉鎖等,0,2022-10-20,2022-10-18,株式会社大宝,,株式会社,大阪府,富田林市,若松町西１丁目１８７０番地１（９０１）,,27,214,5840025,,,2022-10-18,清算の結了等,,,2015-10-05,1,,,,,タイホウ,0
1762,7140001069857,登記記録の閉鎖等,0,2022-10-20,2022-10-17,西宮魚菜卸市場株式会社,,株式会社,兵庫県,西宮市,池田町５番２５号,,28,204,6620911,,,2022-10-17,清算の結了等,,,2015-10-05,1,,,,,ニシノミヤギョサイオロシイチバ,0
1763,7140001092470,登記記録の閉鎖等,0,2022-10-20,2022-10-19,千永株式会社,,株式会社,兵庫県,芦屋市,東芦屋町２５番３２－４０６号,00127508,28,206,6590095,,,2022-10-19,清算の結了等,,,2015-10-05,1,,,,,センエイ,0
1789,7290001009105,登記記録の閉鎖等,0,2022-10-20,2022-10-11,株式会社都市企画,,株式会社,福岡県,福岡市中央区,薬院１丁目４番３号,,40,133,8100022,,,2022-10-11,合併による解散等,5290001006310,令和４年９月３０日福岡市中央区薬院一丁目４番３号株式会社今林工務店（5290001006310）に合併し解散,2015-10-05,1,,,,,,0
1803,7330001005017,登記記録の閉鎖等,0,2022-10-20,2022-10-17,株式会社ワンタッチ,,株式会社,熊本県,熊本市東区,尾ノ上４丁目１１番９２号,,43,102,8620913,,,2022-10-17,清算の結了等,,,2015-10-05,1,,,,,ワンタッチ,0
1804,7330001021848,登記記録の閉鎖等,0,2022-10-20,2022-10-14,バンブーフロンティア株式会社,,株式会社,熊本県,玉名郡南関町,大字下坂下４６６８番地６,,43,367,8610821,,,2022-10-14,清算の結了等,,,2015-10-05,1,,,,,バンブーフロンティア,0
1815,7370001044878,登記記録の閉鎖等,0,2022-10-20,2022-10-12,株式会社カネイチ,,株式会社,宮城県,牡鹿郡女川町,横浦字横浦３５番地の２３横浦住宅５号,,04,581,9862225,,,2022-10-12,清算の結了等,,,2019-09-30,1,,,,,カネイチ,0
1816,7370001046189,登記記録の閉鎖等,0,2022-10-20,2022-10-04,株式会社ナレッジスター,,株式会社,宮城県,仙台市青葉区,国分町１丁目８番１３号仙台協立第１ビル２－８，９,,04,101,9800803,,,2022-10-04,合併による解散等,2011001121088,令和４年１０月１日宮城県仙台市青葉区国分町一丁目８番１３号仙台協立第１ビル２－８，９株式会社エニバ（2011001121088）に合併し解散,2020-09-29,1,,,,,ナレッジスター,0
1828,7430001052098,登記記録の閉鎖等,0,2022-10-20,2022-10-05,株式会社山吉青山商店,,株式会社,北海道,岩内郡岩内町,字清住２１８番地,,01,402,0450022,,,2022-10-05,清算の結了等,,,2015-10-05,1,,,,,ヤマキチアオヤマショウテン,0
1873,8010401146672,登記記録の閉鎖等,0,2022-10-20,2022-10-03,富馳株式会社,,株式会社,東京都,港区,南麻布３丁目１９番２３号オーク南麻布ビル２階,,13,103,1060047,,,2022-10-03,清算の結了等,,,2019-07-10,1,,,,,フセ,0
1891,8010701009439,登記記録の閉鎖等,0,2022-10-20,2022-10-13,三矢工機株式会社,,株式会社,神奈川県,川崎市川崎区,川中島１丁目２２番１６号,,14,131,2100803,,,2022-10-13,清算の結了等,,,2015-10-05,1,,,,,ミツヤコウキ,0
1909,8011203001859,登記記録の閉鎖等,0,2022-10-20,2022-10-13,合同会社つばさエステート２５,,合同会社,東京都,港区,浜松町２丁目２番１５号,,13,103,1050013,,,2022-10-13,合併による解散等,2010703003172,令和４年１０月１日東京都中野区野方六丁目５３番５号合同会社つばさプロパティ（2010703003172）に合併し解散,2015-10-05,1,,,,,,0
1923,8012401031045,登記記録の閉鎖等,0,2022-10-20,2022-10-17,Ｙｏｕ－ＫＡ　Ｊａｐａｎ株式会社,,株式会社,東京都,多摩市,永山７丁目２番地１,,13,224,2060025,,,2022-10-17,清算の結了等,,,2016-02-09,1,,,,,ユウカジャパン,0
1924,8012401031573,登記記録の閉鎖等,0,2022-10-20,2022-10-17,深谷企画株式会社,,株式会社,東京都,小金井市,前原町４丁目１４番２１号,,13,210,1840013,,,2022-10-17,清算の結了等,,,2016-06-30,1,,,,,フカヤキカク,0
1926,8012801000590,登記記録の閉鎖等,0,2022-10-20,2022-10-18,三陽電器株式会社,,株式会社,東京都,立川市,錦町６丁目２５番１８号,,13,202,1900022,,,2022-10-18,合併による解散等,3010701002324,令和４年１０月１日東京都品川区東大井一丁目９番３７号株式会社加藤製作所（3010701002324）に合併し解散,2015-10-05,1,,,,,サンヨウデンキ,0
1932,8020001023131,登記記録の閉鎖等,0,2022-10-20,2022-10-18,株式会社三栄社,,株式会社,神奈川県,綾瀬市,深谷上５丁目２番３１号,,14,218,2521108,,,2022-10-18,合併による解散等,9040001047796,令和４年１０月１日千葉県習志野市東習志野六丁目１９番１２号株式会社ブルケン関東（9040001047796）に合併し解散,2015-10-05,1,,,,,,0
1970,8040001023939,登記記録の閉鎖等,0,2022-10-20,2022-10-11,株式会社リンクエージェンシー,,株式会社,千葉県,八千代市,勝田台北１丁目３番１６号勝田台ＴＳビル３Ｆ,,12,221,2760020,,,2022-10-11,清算の結了等,,,2015-10-05,1,,,,,リンクエージェンシー,0
1980,8040002083511,登記記録の閉鎖等,0,2022-10-20,2022-10-06,有限会社矢部急行,,有限会社,千葉県,匝瑳市,川辺７２０５番地,,12,235,2893186,,,2022-10-06,清算の結了等,,,2015-10-05,1,,,,,ヤベキュウコウ,0
1999,8100005002940,登記記録の閉鎖等,0,2022-10-20,2022-10-17,佐久建具協同組合,,その他の設立登記法人,長野県,佐久市,中小田切８４番地９,,20,217,3840305,,,2022-10-17,清算の結了等,,,2015-10-05,1,,,,,サクタテグ,0
2002,8110002019227,登記記録の閉鎖等,0,2022-10-20,2022-10-17,有限会社小出合成,,有限会社,新潟県,燕市,八王寺１８１１番地１,,15,213,9591264,,,2022-10-17,清算の結了等,,,2015-10-05,1,,,,,コイデゴウセイ,0
2006,8120001010747,登記記録の閉鎖等,0,2022-10-20,2022-10-14,株式会社白洋社関西支社,,株式会社,大阪府,大阪市東住吉区,今川７丁目１３番５号,,27,121,5460003,,,2022-10-14,合併による解散等,3010001141541,令和４年９月１日東京都中央区日本橋蛎殻町二丁目３番４号株式会社セブンユニフォーム（3010001141541）に合併し解散,2015-10-05,1,,,,,ハクヨウシャカンサイシシャ,0
2017,8120001233166,登記記録の閉鎖等,0,2022-10-20,2022-10-17,パナソニック商号保全株式会社,,株式会社,大阪府,門真市,大字門真１００６番地,,27,223,5710050,,,2022-10-17,清算の結了等,,,2020-11-17,1,,,,,パナソニックショウゴウホゼン,0
2042,8140001024902,登記記録の閉鎖等,0,2022-10-20,2022-10-17,潮商事株式会社,,株式会社,兵庫県,芦屋市,船戸町３番６－６０２号,,28,206,6590093,,,2022-10-17,清算の結了等,,,2015-10-05,1,,,,,,0
2043,8140001050659,登記記録の閉鎖等,0,2022-10-20,2022-10-17,株式会社ノルド,,株式会社,兵庫県,尼崎市,建家町１１４－１,,28,202,6600871,,,2022-10-17,清算の結了等,,,2015-10-05,1,,,,,ノルド,0
2046,8140002061531,登記記録の閉鎖等,0,2022-10-20,2022-10-14,アダチ刺繍有限会社,,有限会社,兵庫県,多可郡多可町,八千代区中村６８番地の１,,28,365,6770103,,,2022-10-14,清算の結了等,,,2015-10-05,1,,,,,,0
2056,8180001105946,登記記録の閉鎖等,0,2022-10-20,2022-10-14,株式会社涼,,株式会社,愛知県,名古屋市中川区,上高畑１丁目２９番地,,23,110,4540873,,,2022-10-14,清算の結了等,,,2015-10-05,1,,,,,スズミ,0
2068,8180302027583,登記記録の閉鎖等,0,2022-10-20,2022-10-12,有限会社インテリア工事メーカーナカガワ,,有限会社,愛知県,新城市,平井字ノナカ３番地の７,,23,221,4411361,,,2022-10-12,清算の結了等,,,2015-10-05,1,,,,,インテリアコウジメーカーナカガワ,0
2071,8190002008486,登記記録の閉鎖等,0,2022-10-20,2022-10-17,有限会社尾上信用,,有限会社,三重県,伊勢市,尾上町２番８号,,24,203,5160031,,,2022-10-17,清算の結了等,,,2015-10-05,1,,,,,オガミシンヨウ,0
2078,8230005005311,登記記録の閉鎖等,0,2022-10-20,2022-10-18,光雲寺,,その他の設立登記法人,富山県,小矢部市,中央町７番２５号,,16,209,9320045,,,2022-10-18,清算の結了等,,,2015-10-05,1,,,,,コウウンジ,0
2079,8240001009257,登記記録の閉鎖等,0,2022-10-20,2022-10-18,広島共済株式会社,,株式会社,広島県,広島市西区,商工センター５丁目３番１９号,,34,104,7330833,,,2022-10-18,清算の結了等,,,2015-10-05,1,,,,,ヒロシマキョウサイ,0
2105,8350001002639,登記記録の閉鎖等,0,2022-10-20,2022-10-14,株式会社ジオテックＨＤ,,株式会社,宮崎県,宮崎市,城ケ崎２丁目１番地１５,,45,201,8800917,,,2022-10-14,清算の結了等,,,2015-10-05,1,,,,,ジオテックホールディングス,0
2110,8360001008404,登記記録の閉鎖等,0,2022-10-20,2022-10-13,安鋳産業株式会社,,株式会社,沖縄県,浦添市,当山１丁目３番８号,,47,208,9012104,,,2022-10-13,清算の結了等,,,2015-10-05,1,,,,,アンイサンギョウ,0
2118,8430001046074,登記記録の閉鎖等,0,2022-10-20,2022-10-13,株式会社テイクケアライフ,,株式会社,北海道,江別市,文京台南町４４番地８,,01,217,0690835,,,2022-10-13,合併による解散等,8010001224242,令和４年１０月１日東京都千代田区大手町一丁目１番３号株式会社ＯＮＯＤＥＲＡナーシングホーム（8010001224242）に合併し解散,2015-10-05,1,,,,,テイクケアライフ,0
2119,8430001064101,登記記録の閉鎖等,0,2022-10-20,2022-10-07,株式会社ウィング,,株式会社,北海道,札幌市北区,屯田六条７丁目３番３－２０２号,,01,102,0020856,,,2022-10-07,清算の結了等,,,2015-10-05,1,,,,,ウィング,0
2142,9010001171343,登記記録の閉鎖等,0,2022-10-20,2022-10-17,西日本電力株式会社,,株式会社,東京都,中央区,日本橋兜町２０－７,,13,102,1030026,,,2022-10-17,清算の結了等,,,2015-10-28,1,,,,,ニシニホンデンリョク,0
2171,9010601037316,登記記録の閉鎖等,0,2022-10-20,2022-10-17,株式会社日本デザインエンジニアリング,,株式会社,東京都,足立区,柳原２丁目４６－１２,,13,121,1200022,,,2022-10-17,清算の結了等,,,2015-10-05,1,,,,,ニホンデザインエンジニアリング,0
2179,9010901006771,登記記録の閉鎖等,0,2022-10-20,2022-10-18,ダイコーリサーチ株式会社,,株式会社,東京都,世田谷区,松原１丁目１番２０号,,13,112,1560043,,,2022-10-18,合併による解散等,7011001016358,令和４年１０月１日東京都渋谷区神南一丁目９番１０号東京事務代行株式会社（7011001016358）に合併し解散,2015-10-05,1,,,,,ダイコーリサーチ,0
2220,9013302000815,登記記録の閉鎖等,0,2022-10-20,2022-10-18,有限会社荒井工業所,,有限会社,東京都,豊島区,南長崎６丁目２９番１０号,,13,116,1710052,,,2022-10-18,清算の結了等,,,2015-10-05,1,,,,,アライコウギョウショ,0
2221,9020001114598,登記記録の閉鎖等,0,2022-10-20,2022-10-13,株式会社長嶋工業,,株式会社,神奈川県,横浜市鶴見区,矢向２丁目１３番９－５０４号,,14,101,2300001,,,2022-10-13,清算の結了等,,,2016-01-28,1,,,,,ナガシマコウギョウ,0
2226,9020002105506,登記記録の閉鎖等,0,2022-10-20,2022-10-12,有限会社ケー・シーアンドカンパニー,,有限会社,神奈川県,川崎市麻生区,上麻生４丁目７番１号,,14,137,2150021,,,2022-10-12,清算の結了等,,,2015-10-05,1,,,,,ケーシーアンドカンパニー,0
2277,9120001000219,登記記録の閉鎖等,0,2022-10-20,2022-10-18,株式会社大島製作所,,株式会社,大阪府,大阪市旭区,赤川２丁目１６番３号,,27,117,5350005,,,2022-10-18,清算の結了等,,,2015-10-05,1,,,,,オオシマセイサクショ,0
2294,9120002046772,登記記録の閉鎖等,0,2022-10-20,2022-10-18,有限会社幸田製作所,,有限会社,大阪府,大阪市平野区,加美北９丁目１７番２５号,,27,126,5470001,,,2022-10-18,清算の結了等,,,2015-10-05,1,,,,,コウダセイサクショ,0
2296,9120005012581,登記記録の閉鎖等,0,2022-10-20,2022-10-18,医療法人藤井医院,,その他の設立登記法人,大阪府,枚方市,渚栄町２２番１号,00046792,27,210,5731172,,,2022-10-18,清算の結了等,,,2015-10-05,1,,,,,フジイイイン,0
2300,9120103004605,登記記録の閉鎖等,0,2022-10-20,2022-10-18,合同会社あかり,,合同会社,大阪府,堺市東区,日置荘西町６丁２５番９号,,27,143,5998114,,,2022-10-18,清算の結了等,,,2022-03-11,1,,,,,アカリ,0
2309,9130003005693,登記記録の閉鎖等,0,2022-10-20,2022-10-13,合同会社あゆみｓｍｉｌｅ,,合同会社,京都府,京都市下京区,松原通柳馬場西入ル杉屋町２９４番地サンステージ２１・１階,,26,106,6000000,,,2022-10-13,清算の結了等,,,2018-10-17,1,,,,,アユミスマイル,0
2319,9140002038776,登記記録の閉鎖等,0,2022-10-20,2022-10-17,有限会社エムシステム,,有限会社,兵庫県,加古川市,志方町上冨木５５０番地の４,,28,210,6750314,,,2022-10-17,清算の結了等,,,2015-10-05,1,,,,,エムシステム,0
2320,9140003015469,登記記録の閉鎖等,0,2022-10-20,2022-10-17,アトムマネジメント合同会社,,合同会社,兵庫県,神戸市中央区,山本通４丁目１５番１７号,,28,110,6500003,,,2022-10-17,清算の結了等,,,2020-10-09,1,,,,,アトムマネジメント,0
2322,9150002006708,登記記録の閉鎖等,0,2022-10-20,2022-10-17,有限会社ジャパンミリオネアサークル,,有限会社,奈良県,奈良市,神功３丁目４－１６,,29,201,6310804,,,2022-10-17,清算の結了等,,,2015-10-05,1,,,,,ジャパンミリオネアサークル,0
2330,9180003021042,登記記録の閉鎖等,0,2022-10-20,2022-10-13,合同会社オフィスＳＯＲＡ,,合同会社,愛知県,日進市,香久山５丁目１４０１番地２０,,23,230,4700134,,,2022-10-13,清算の結了等,,,2020-04-09,1,,,,,オフィスソラ,0
2333,9180301025711,登記記録の閉鎖等,0,2022-10-20,2022-10-12,株式会社水野,,株式会社,愛知県,岡崎市,中園町字忠田１５番地２,,23,202,4440942,,,2022-10-12,清算の結了等,,,2015-10-05,1,,,,,,0
2335,9180302007477,登記記録の閉鎖等,0,2022-10-20,2022-10-12,有限会社ｍ．ｓｔｙｌｅ,,有限会社,愛知県,豊橋市,前田南町１丁目８番地１,,23,201,4400851,,,2022-10-12,清算の結了等,,,2015-10-05,1,,,,,エムスタイル,0
2337,9190002000335,登記記録の閉鎖等,0,2022-10-20,2022-10-19,有限会社オフィス・ボヤージュ,,有限会社,三重県,津市,栄町２丁目４８０番地の１,,24,201,5140004,,,2022-10-19,清算の結了等,,,2015-10-05,1,,,,,オフィスボヤージュ,0
2346,9250002010559,登記記録の閉鎖等,0,2022-10-20,2022-10-13,有限会社彦島急配,,有限会社,山口県,下関市,大和町２丁目１７番２号,,35,201,7500067,,,2022-10-13,清算の結了等,,,2015-10-05,1,,,,,ヒコシマキュウハイ,0
2349,9250002016399,登記記録の閉鎖等,0,2022-10-20,2022-10-13,有限会社周南通信,,有限会社,山口県,周南市,新清光台３丁目５番１９号,,35,215,7450643,,,2022-10-13,清算の結了等,,,2015-10-05,1,,,,,シュウナンツウシン,0
2356,9290001032848,登記記録の閉鎖等,0,2022-10-20,2022-10-12,九州産直ネット株式会社,,株式会社,福岡県,福岡市中央区,薬院１丁目７番１号,,40,133,8100022,,,2022-10-12,清算の結了等,,,2015-10-05,1,,,,,キュウシュウサンチョクネット,0
2367,9290002052283,登記記録の閉鎖等,0,2022-10-20,2022-10-12,有限会社クラトミ,,有限会社,福岡県,久留米市,田主丸町豊城７１９番地の４,,40,203,8391234,,,2022-10-12,清算の結了等,,,2015-10-05,1,,,,,クラトミ,0
2369,9290003008887,登記記録の閉鎖等,0,2022-10-20,2022-10-12,合同会社ＣＨＡｉＮＯＮ,,合同会社,福岡県,福岡市博多区,千代２丁目２１番２６号,,40,132,8120044,,,2022-10-12,清算の結了等,,,2019-03-28,1,,,,,,0
2372,9290802021116,登記記録の閉鎖等,0,2022-10-20,2022-10-18,有限会社宮田シヤモット,,有限会社,福岡県,宮若市,宮田字杉坂２７６番地の６,,40,226,8230011,,,2022-10-18,清算の結了等,,,2015-10-05,1,,,,,ミヤタシヤモット,0
2376,9320001009280,登記記録の閉鎖等,0,2022-10-20,2022-10-17,株式会社プラスバ・ヤマミズ,,株式会社,大分県,佐伯市,大字鶴望５０２６番地の１,,44,205,8760012,,,2022-10-17,清算の結了等,,,2015-10-05,1,,,,,プラスバヤマミズ,0
2379,9330001022282,登記記録の閉鎖等,0,2022-10-20,2022-10-14,バンブーマテリアル株式会社,,株式会社,熊本県,玉名郡南関町,大字下坂下４６６８番地６,,43,367,8610821,,,2022-10-14,清算の結了等,,,2015-11-27,1,,,,,バンブーマテリアル,0
2399,9440002009342,登記記録の閉鎖等,0,2022-10-20,2022-10-14,有限会社岩谷土木,,有限会社,北海道,茅部郡森町,字砂原西３丁目４４番地の３,,01,345,0492221,,,2022-10-14,清算の結了等,,,2015-10-05,1,,,,,イワヤドボク,0
