sequenceNumber,corporateNumber,process,correct,updateDate,changeDate,name,nameImageId,kind,prefectureName,cityName,streetNumber,addressImageId,prefectureCode,cityCode,postCode,addressOutside,addressOutsideImageId,closeDate,closeCause,successorCorporateNumber,changeCause,assignmentDate,latest,enName,enPrefectureName,enCityName,enAddressOutside,furigana,hihyoji
1,1010001024723,登記記録の閉鎖等,0,2023-07-14,2023-07-11,株式会社トライ,,株式会社,東京都,足立区,東六月町１１番３３号,,13,121,1210071,,,2023-07-11,清算の結了等,,,2015-10-05,1,,,,,トライ,0
39,1010602017935,登記記録の閉鎖等,0,2023-07-14,2023-07-06,有限会社東都設計,,有限会社,東京都,江東区,大島２丁目２０番１６号,,13,108,1360072,,,2023-07-06,清算の結了等,,,2015-10-05,1,,,,,トウトセッケイ,0
43,1010801003934,登記記録の閉鎖等,0,2023-07-14,2023-07-07,株式会社五加調理器,,株式会社,東京都,大田区,大森南５丁目６番４号,,13,111,1430013,,,2023-07-07,清算の結了等,,,2015-10-05,1,,,,,,0
48,1011001000565,登記記録の閉鎖等,0,2023-07-14,2023-07-12,株式会社アイマージ,,株式会社,東京都,渋谷区,恵比寿南２丁目２５番１０号,,13,113,1500022,,,2023-07-12,清算の結了等,,,2015-10-05,1,,,,,アイマージ,0
69,1012702001447,登記記録の閉鎖等,0,2023-07-14,2023-07-10,根古商事有限会社,,有限会社,東京都,小平市,学園西町１丁目１６番１６号,,13,211,1870045,,,2023-07-10,清算の結了等,,,2015-10-05,1,,,,,ネコショウジ,0
73,1013302017536,登記記録の閉鎖等,0,2023-07-14,2023-07-04,有限会社ホウプフル,,有限会社,東京都,豊島区,南大塚１丁目５０番１０号,,13,116,1700005,,,2023-07-04,清算の結了等,,,2015-10-05,1,,,,,ホウプフル,0
74,1020001011407,登記記録の閉鎖等,0,2023-07-14,2023-07-03,三和造園土木株式会社,,株式会社,神奈川県,横浜市青葉区,新石川１丁目２３番地１７,,14,117,2250003,,,2023-07-03,清算の結了等,,,2015-10-05,1,,,,,サンワゾウエンドボク,0
78,1020003007378,登記記録の閉鎖等,0,2023-07-14,2023-06-26,合同会社ミライテラス,,合同会社,神奈川県,横浜市青葉区,奈良２丁目３６番地１７,,14,117,2270038,,,2023-06-26,清算の結了等,,,2015-10-05,1,,,,,ミライテラス,0
108,1050003002392,登記記録の閉鎖等,0,2023-07-14,2023-07-07,ケア・アシストサービス合同会社,,合同会社,茨城県,日立市,大久保町２丁目６番２０号,,08,202,3160012,,,2023-07-07,清算の結了等,,,2015-10-05,1,,,,,ケアアシストサービス,0
111,1060001019776,登記記録の閉鎖等,0,2023-07-14,2023-07-03,株式会社エア・シリアス,,株式会社,栃木県,足利市,小俣町字町屋２７６９番地２,,09,202,3260141,,,2023-07-03,清算の結了等,,,2015-10-05,1,,,,,エアシリアス,0
112,1060002000553,登記記録の閉鎖等,0,2023-07-14,2023-07-03,有限会社アイザワ,,有限会社,栃木県,宇都宮市,岩曽町１４２８番地３５８,,09,201,3210973,,,2023-07-03,清算の結了等,,,2015-10-05,1,,,,,アイザワ,0
130,1110001020852,登記記録の閉鎖等,0,2023-07-14,2023-07-03,株式会社絹生活研究所,,株式会社,新潟県,十日町市,高田町６丁目５９７番地１,,15,210,9480056,,,2023-07-03,合併による解散等,2110001020959,令和５年７月１日新潟県十日町市高田町六丁目５９７番地１株式会社きものブレイン（2110001020959）に合併し解散,2015-10-05,1,,,,,キヌセイカツケンキュウジョ,0
133,1110002028119,登記記録の閉鎖等,0,2023-07-14,2023-07-03,有限会社高橋測量設計,,有限会社,新潟県,長岡市,本町２丁目４番地２０,,15,202,9400076,,,2023-07-03,清算の結了等,,,2015-10-05,1,,,,,タカハシソクリョウセッケイ,0
156,1120005007201,登記記録の閉鎖等,0,2023-07-14,2023-07-11,日本輸出眼鏡類工業組合,,その他の設立登記法人,大阪府,大阪市生野区,巽西２丁目１５番２７号,00031911,27,116,5440012,,,2023-07-11,清算の結了等,,,2015-10-05,1,,,,,ニホンユシュツガンキョウルイ,0
158,1120101059526,登記記録の閉鎖等,0,2023-07-14,2023-07-11,セントウェルス株式会社,,株式会社,大阪府,堺市東区,白鷺町３丁１９番１－４０５号,,27,143,5998107,,,2023-07-11,清算の結了等,,,2019-03-08,1,,,,,セントウェルス,0
161,1120901023846,登記記録の閉鎖等,0,2023-07-14,2023-07-06,株式会社栄電気商会,,株式会社,大阪府,豊中市,庄内栄町４丁目２３番１６号,,27,203,5610834,,,2023-07-06,清算の結了等,,,2015-10-05,1,,,,,サカエデンキショウカイ,0
183,1180001048854,登記記録の閉鎖等,0,2023-07-14,2023-07-05,株式会社マナ,,株式会社,愛知県,名古屋市千種区,今池南１番３号,,23,101,4640851,,,2023-07-05,清算の結了等,,,2015-10-05,1,,,,,マナ,0
189,1180001107107,登記記録の閉鎖等,0,2023-07-14,2023-07-10,株式会社エス・エヌ・シー,,株式会社,愛知県,名古屋市中区,丸の内２丁目７番１９号,,23,106,4600002,,,2023-07-10,清算の結了等,,,2015-10-05,1,,,,,エスエヌシー,0
196,1180301006090,登記記録の閉鎖等,0,2023-07-14,2023-07-03,大都技研株式会社,,株式会社,愛知県,豊橋市,下五井町青木３１番地,,23,201,4400091,,,2023-07-03,合併による解散等,9180301005515,令和５年７月１日愛知県豊橋市下五井町青木３１番地ＧＸ株式会社（9180301005515）に合併し解散,2015-10-05,1,,,,,ダイトギケン,0
201,1180302010661,登記記録の閉鎖等,0,2023-07-14,2023-07-03,有限会社エー・ティ・オー,,有限会社,愛知県,田原市,赤石６丁目５番地,,23,231,4413422,,,2023-07-03,清算の結了等,,,2015-10-05,1,,,,,エーテイオー,0
215,1210001002849,登記記録の閉鎖等,0,2023-07-14,2023-07-05,株式会社林不動産鑑定所,,株式会社,福井県,福井市,大願寺２丁目９番１号,,18,201,9100001,,,2023-07-05,清算の結了等,,,2015-10-05,1,,,,,ハヤシフドウサンカンテイショ,0
219,1240001050226,登記記録の閉鎖等,0,2023-07-14,2023-06-30,株式会社木下ファーム,,株式会社,広島県,広島市佐伯区,五日市町大字石内５９９８番地１,,34,108,7315102,,,2023-06-30,合併による解散等,3240002004583,令和５年６月３０日広島市佐伯区五日市町大字石内５９９８番地１株式会社木下組（3240002004583）に合併し解散,2016-11-18,1,,,,,キノシタファーム,0
232,1290001068362,登記記録の閉鎖等,0,2023-07-14,2023-07-03,株式会社犬吉猫吉,,株式会社,福岡県,福岡市中央区,薬院３丁目１１番３３号,,40,133,8100022,,,2023-07-03,清算の結了等,,,2015-10-05,1,,,,,イヌキチネコキチ,0
239,1290002022038,登記記録の閉鎖等,0,2023-07-14,2023-07-03,有限会社ワイアンドイー,,有限会社,福岡県,福岡市中央区,大濠２丁目９番１７号,,40,133,8100052,,,2023-07-03,清算の結了等,,,2015-10-05,1,,,,,ワイアンドイー,0
245,1330002003982,登記記録の閉鎖等,0,2023-07-14,2023-06-30,有限会社小坂,,有限会社,熊本県,熊本市中央区,新屋敷３丁目４番１７号,,43,101,8620975,,,2023-06-30,清算の結了等,,,2015-10-05,1,,,,,コサカ,0
252,1340002027923,登記記録の閉鎖等,0,2023-07-14,2023-06-29,有限会社ナカシマ,,有限会社,鹿児島県,志布志市,志布志町志布志３丁目１６番１０号,,46,221,8997103,,,2023-06-29,清算の結了等,,,2015-10-05,1,,,,,,0
266,1380002002550,登記記録の閉鎖等,0,2023-07-14,2023-07-05,有限会社ナガシマ商会,,有限会社,福島県,福島市,飯坂町平野字西前原２４番地の１０,,07,201,9600231,,,2023-07-05,清算の結了等,,,2015-10-05,1,,,,,,0
268,1380002031129,登記記録の閉鎖等,0,2023-07-14,2023-07-06,有限会社五十嵐木工所,,有限会社,福島県,会津若松市,米代１丁目６番５号,,07,202,9650875,,,2023-07-06,清算の結了等,,,2015-10-05,1,,,,,イガラシモッコウショ,0
269,1380003005354,登記記録の閉鎖等,0,2023-07-14,2023-07-06,合同会社らくらく,,合同会社,福島県,郡山市,並木１丁目２番地１２相楽ビル３０１,,07,203,9638026,,,2023-07-06,清算の結了等,,,2022-12-26,1,,,,,ラクラク,0
278,1430001040232,登記記録の閉鎖等,0,2023-07-14,2023-06-27,北海道アグリーン株式会社,,株式会社,北海道,札幌市豊平区,西岡二条１１丁目２９番１０号,,01,105,0620032,,,2023-06-27,清算の結了等,,,2015-10-05,1,,,,,,0
280,1430001070907,登記記録の閉鎖等,0,2023-07-14,2023-07-12,株式会社ケーシン工業,,株式会社,北海道,札幌市中央区,南一条東７丁目１番地２,,01,101,0600051,,,2023-07-12,清算の結了等,,,2016-02-19,1,,,,,ケーシンコウギョウ,0
286,1430005001890,登記記録の閉鎖等,0,2023-07-14,2023-06-30,医療法人社団たけうち小児科,,その他の設立登記法人,北海道,札幌市手稲区,前田四条１１丁目８番６号,,01,109,0060814,,,2023-06-30,清算の結了等,,,2015-10-05,1,,,,,タケウチショウニカ,0
292,1500002004609,登記記録の閉鎖等,0,2023-07-14,2023-07-12,有限会社手づくりの店たなか,,有限会社,愛媛県,松山市,岩崎町２丁目９番２５号,,38,201,7900854,,,2023-07-12,清算の結了等,,,2015-10-05,1,,,,,テヅクリノミセタナカ,0
295,2010001162191,登記記録の閉鎖等,0,2023-07-14,2023-07-07,株式会社ＣＯＮＮＥＣＴＩＴ,,株式会社,東京都,渋谷区,渋谷２丁目２４番１２号渋谷スクランブルスクエア,,13,113,1500002,,,2023-07-07,合併による解散等,9011101058975,令和５年７月１日東京都渋谷区渋谷二丁目２４番１２号渋谷スクランブルスクエア株式会社スフィダンテ（9011101058975）に合併し解散,2015-10-05,1,,,,,コネクティット,0
305,2010401169225,登記記録の閉鎖等,0,2023-07-14,2023-07-05,ＰＡＧ　ＨＴＢ　Ｈｏｌｄｉｎｇｓ株式会社,,株式会社,東京都,港区,六本木１丁目９番１０号アークヒルズ仙石山森タワー４０階,,13,103,1060032,,,2023-07-05,合併による解散等,6310001005886,令和５年７月１日長崎県佐世保市ハウステンボス町１番地１ハウステンボス株式会社（6310001005886）に合併し解散,2022-08-22,1,,,,,ピーエージーエイチティービーホールディングス,0
306,2010402023083,登記記録の閉鎖等,0,2023-07-14,2023-07-12,有限会社ビーボ,,有限会社,東京都,板橋区,向原２丁目３０番４号,,13,119,1730036,,,2023-07-12,清算の結了等,,,2015-10-05,1,,,,,ビーボ,0
313,2010601049251,登記記録の閉鎖等,0,2023-07-14,2023-07-07,金剛・日本株式会社,,株式会社,東京都,墨田区,江東橋４丁目２２番１０号深谷ビル３－Ｃ,,13,107,1300022,,,2023-07-07,清算の結了等,,,2016-02-19,1,,,,,,0
344,2011501008974,登記記録の閉鎖等,0,2023-07-14,2023-07-10,宮代工業株式会社,,株式会社,東京都,荒川区,町屋３丁目２３番１８号,,13,118,1160001,,,2023-07-10,清算の結了等,,,2015-10-05,1,,,,,,0
349,2011603002660,登記記録の閉鎖等,0,2023-07-14,2023-07-06,Ａｓｋａ　Ｄｙｎａｍｉｃｓ合同会社,,合同会社,東京都,練馬区,高松３丁目１０番１４号－２５,,13,120,1790075,,,2023-07-06,清算の結了等,,,2019-06-10,1,,,,,アスカダイナミクス,0
356,2012401013123,登記記録の閉鎖等,0,2023-07-14,2023-07-12,株式会社望月エステート,,株式会社,東京都,三鷹市,上連雀７丁目３番５号,,13,204,1810012,,,2023-07-12,清算の結了等,,,2015-10-05,1,,,,,モチヅキエステート,0
365,2013202013279,登記記録の閉鎖等,0,2023-07-14,2023-07-12,有限会社ネバダエコノミックアドバイザリー,,有限会社,東京都,目黒区,青葉台３丁目７番１７号,,13,110,1530042,,,2023-07-12,合併による解散等,5013202008020,令和５年７月１日東京都中央区銀座六丁目５番１３号株式会社アモーチェ（5013202008020）に合併し解散,2015-10-05,1,,,,,ネバダエコノミックアドバイザリー,0
375,2020003018069,登記記録の閉鎖等,0,2023-07-14,2023-06-26,合同会社Ｇｒｅｅｎ　Ｅｃｏ　Ｌｉｆｅ,,合同会社,神奈川県,川崎市中原区,市ノ坪１２９,,14,133,2110016,,,2023-06-26,清算の結了等,,,2020-06-24,1,,,,,グリーンエコライフ,0
390,2030002067628,登記記録の閉鎖等,0,2023-07-14,2023-06-26,有限会社マウスデザイン,,有限会社,埼玉県,朝霞市,根岸台６丁目４番３０号,,11,227,3510005,,,2023-06-26,清算の結了等,,,2015-10-05,1,,,,,マウスデザイン,0
395,2040001010942,登記記録の閉鎖等,0,2023-07-14,2023-06-26,ブレストサービス株式会社,,株式会社,千葉県,千葉市中央区,新田町６番６号,,12,101,2600027,,,2023-06-26,清算の結了等,,,2015-10-05,1,,,,,ブレストサービス,0
416,2080402004754,登記記録の閉鎖等,0,2023-07-14,2023-07-07,有限会社武田商事,,有限会社,静岡県,浜松市中区,東伊場１丁目２４番１６号,,22,131,4328036,,,2023-07-07,清算の結了等,,,2015-10-05,1,,,,,タケダショウジ,0
417,2090001014179,登記記録の閉鎖等,0,2023-07-14,2023-07-07,株式会社シェ・リサ,,株式会社,山梨県,甲斐市,竜王新町５３１番地２,,19,210,4000111,,,2023-07-07,清算の結了等,,,2015-10-05,1,,,,,シェリサ,0
427,2120001008887,登記記録の閉鎖等,0,2023-07-14,2023-07-11,山本木材株式会社,,株式会社,大阪府,大阪市西区,北堀江３丁目１０番２２号,,27,106,5500014,,,2023-07-11,清算の結了等,,,2015-10-05,1,,,,,ヤマモトモクザイ,0
429,2120001079400,登記記録の閉鎖等,0,2023-07-14,2023-07-07,株式会社コスモ積算,,株式会社,大阪府,大阪市北区,菅原町１１番１０号オーキッド中之島,,27,127,5300046,,,2023-07-07,清算の結了等,,,2015-10-05,1,,,,,コスモセキサン,0
439,2120002033629,登記記録の閉鎖等,0,2023-07-14,2023-07-06,有限会社アンドレムッシュジャパン,,有限会社,大阪府,東大阪市,上六万寺町３番３号,,27,227,5798062,,,2023-07-06,清算の結了等,,,2015-10-05,1,,,,,アンドレムッシュジャパン,0
453,2130002024593,登記記録の閉鎖等,0,2023-07-14,2023-07-03,有限会社京都クロスタニン販売,,有限会社,京都府,京都市下京区,室町通五条上る坂東屋町２６６番地,,26,106,6008439,,,2023-07-03,清算の結了等,,,2015-10-05,1,,,,,キョウトクロスタニンハンバイ,0
458,2140001119014,登記記録の閉鎖等,0,2023-07-14,2023-07-10,株式会社ＡＩＣＨＬＥＲ,,株式会社,兵庫県,神戸市灘区,上野通５丁目４番５－２号,,28,102,6570817,,,2023-07-10,合併による解散等,9140001095100,令和５年７月１０日神戸市灘区篠原中町三丁目５番１７号株式会社灘商会（9140001095100）に合併し解散,2020-10-08,1,,,,,アイクラー,0
460,2140002014503,登記記録の閉鎖等,0,2023-07-14,2023-07-06,株式会社シンワ洋装店,,株式会社,兵庫県,神戸市中央区,三宮町２丁目１０番７号,,28,110,6500021,,,2023-07-06,清算の結了等,,,2015-10-05,1,,,,,シンワヨウソウテン,0
470,2180001123516,登記記録の閉鎖等,0,2023-07-14,2023-07-07,株式会社ナリタ,,株式会社,愛知県,名古屋市天白区,大坪１丁目６０３番地１,,23,116,4680072,,,2023-07-07,清算の結了等,,,2016-05-31,1,,,,,ナリタ,0
474,2180002004087,登記記録の閉鎖等,0,2023-07-14,2023-07-06,有限会社ケイランド,,有限会社,愛知県,名古屋市千種区,茶屋が坂１丁目１７番７号,,23,101,4640092,,,2023-07-06,清算の結了等,,,2015-10-05,1,,,,,ケイランド,0
485,2180302022359,登記記録の閉鎖等,0,2023-07-14,2023-07-04,有限会社趣味の呉服かわい,,有限会社,愛知県,豊田市,市木町１丁目１番地５,,23,211,4710006,,,2023-07-04,清算の結了等,,,2015-10-05,1,,,,,シュミノゴフクカワイ,0
487,2200001017748,登記記録の閉鎖等,0,2023-07-14,2023-07-04,正田紙器株式会社,,株式会社,岐阜県,可児市,柿下６３４番地の２９,,21,214,5090233,,,2023-07-04,清算の結了等,,,2015-10-05,1,,,,,マサダシキ,0
503,2240002046701,登記記録の閉鎖等,0,2023-07-14,2023-07-05,有限会社オージェック,,有限会社,広島県,府中市,久佐町７９６番地の３,,34,208,7293222,,,2023-07-05,清算の結了等,,,2015-10-05,1,,,,,オージェック,0
541,2390005004071,登記記録の閉鎖等,0,2023-07-14,2023-07-05,阿部多グループ協同組合,,その他の設立登記法人,山形県,鶴岡市,文下字沼田４４番地１,,06,203,9970003,,,2023-07-05,清算の結了等,,,2015-10-05,1,,,,,アベタグループ,0
573,3010001101396,登記記録の閉鎖等,0,2023-07-14,2023-07-03,株式会社トレマーガ,,株式会社,秋田県,大仙市,橋本字稲荷３５,,05,212,0140804,,,2023-07-03,清算の結了等,,,2015-10-05,1,,,,,,0
583,3010005026053,登記記録の閉鎖等,0,2023-07-14,2023-07-05,一般社団法人すまい・カウンセリング協議会,,その他の設立登記法人,東京都,千代田区,九段南１丁目５番６号りそな九段ビル５階,,13,101,1020074,,,2023-07-05,清算の結了等,,,2016-11-28,1,,,,,スマイカウンセリングキョウギカイ,0
588,3010401141389,登記記録の閉鎖等,0,2023-07-14,2023-06-28,株式会社カローゼット,,株式会社,東京都,港区,東麻布１丁目１０番１２号３階,,13,103,1060044,,,2023-06-28,清算の結了等,,,2018-10-12,1,,,,,カローゼット,0
638,3011103011764,登記記録の閉鎖等,0,2023-07-14,2023-07-07,合同会社Ｓｐｅｓ　Ｌｅａｄ,,合同会社,東京都,新宿区,西新宿３丁目３番１３号西新宿水間ビル６階,,13,104,1600023,,,2023-07-07,清算の結了等,,,2022-05-20,1,,,,,スペースリード,0
639,3011105009682,登記記録の閉鎖等,0,2023-07-14,2023-07-12,ビバモール一宮特定目的会社,,その他の設立登記法人,東京都,新宿区,四谷２丁目９番地１５東京ユナイテッド綜合事務所内,,13,104,1600004,,,2023-07-12,清算の結了等,,,2021-02-08,1,,,,,ビバモールイチノミヤ,0
651,3011801029851,登記記録の閉鎖等,0,2023-07-14,2023-07-10,株式会社ｂｒａｉｎ　ｗｏｒｋｓ,,株式会社,東京都,足立区,西竹の塚１丁目１１番２号,,13,121,1210822,,,2023-07-10,清算の結了等,,,2015-10-05,1,,,,,ブレインワークス,0
652,3011801035890,登記記録の閉鎖等,0,2023-07-14,2023-07-10,株式会社ＴＦＪ不動産,,株式会社,東京都,足立区,西新井栄町２丁目１８番３号リバーホワイト２Ｂ号室,,13,121,1230843,,,2023-07-10,清算の結了等,,,2019-03-22,1,,,,,ティーエフジェーフドウサン,0
669,3030003018851,登記記録の閉鎖等,0,2023-07-14,2023-06-27,合同会社Ｍｅｄｉｃａｌ　Ｅｃｏｎｏｍｙ,,合同会社,埼玉県,さいたま市見沼区,大字東門前１番地２－５５４,,11,104,3370016,,,2023-06-27,清算の結了等,,,2022-02-16,1,,,,,メディカルエコノミー,0
680,3040002087021,登記記録の閉鎖等,0,2023-07-14,2023-06-19,有限会社千葉電工,,有限会社,千葉県,香取市,中洲８５５番地２,,12,236,2870814,,,2023-06-19,清算の結了等,,,2015-10-05,1,,,,,チバデンコウ,0
689,3050001045078,登記記録の閉鎖等,0,2023-07-14,2023-06-30,ＴＮホールディングス株式会社,,株式会社,茨城県,水戸市,東赤塚４３１５番地１,,08,201,3114142,,,2023-06-30,清算の結了等,,,2018-10-16,1,,,,,ティーエヌホールディングス,0
700,3080402007368,登記記録の閉鎖等,0,2023-07-14,2023-07-07,有限会社マイン,,有限会社,静岡県,浜松市西区,村櫛町３５４２番地の５,,22,133,4311207,,,2023-07-07,清算の結了等,,,2015-10-05,1,,,,,マイン,0
701,3080402022078,登記記録の閉鎖等,0,2023-07-14,2023-07-10,有限会社加藤製作所,,有限会社,静岡県,周智郡森町,睦実２７１２番地,,22,461,4370213,,,2023-07-10,清算の結了等,,,2015-10-05,1,,,,,カトウセイサクジョ,0
704,3100003003508,登記記録の閉鎖等,0,2023-07-14,2023-07-05,合同会社水篠橋,,合同会社,長野県,長野市,信更町安庭５３７番地５,,20,201,3812346,,,2023-07-05,清算の結了等,,,2015-10-05,1,,,,,ミスズバシ,0
732,3140001034773,登記記録の閉鎖等,0,2023-07-14,2023-07-07,株式会社木村屋,,株式会社,兵庫県,明石市,大久保町駅前２丁目１番地の５,,28,203,6740058,,,2023-07-07,清算の結了等,,,2015-10-05,1,,,,,キムラヤ,0
743,3150001008660,登記記録の閉鎖等,0,2023-07-14,2023-07-11,株式会社伊藤文化企画,,株式会社,奈良県,奈良市,藤ノ木台１丁目８番１２－３号,,29,201,6310044,,,2023-07-11,清算の結了等,,,2015-10-05,1,,,,,イトウブンカキカク,0
779,3250001009368,登記記録の閉鎖等,0,2023-07-14,2023-06-30,株式会社有職,,株式会社,山口県,周南市,遠石２丁目３番１号,,35,215,7450816,,,2023-06-30,清算の結了等,,,2015-10-05,1,,,,,ユウソク,0
794,3340001020373,登記記録の閉鎖等,0,2023-07-14,2023-07-12,さつま水産株式会社,,株式会社,鹿児島県,鹿屋市,古江町７４５２番地１１,,46,203,8912321,,,2023-07-12,合併による解散等,3350001009614,令和５年６月１日宮崎県串間市西浜二丁目１５番地４黒瀬水産株式会社（3350001009614）に合併し解散,2017-06-13,1,,,,,サツマスイサン,0
805,3400502000165,登記記録の閉鎖等,0,2023-07-14,2023-06-29,有限会社一関グリーン交通,,有限会社,岩手県,一関市,八幡町３番３５号,,03,209,0210871,,,2023-06-29,清算の結了等,,,2015-10-05,1,,,,,イチノセキグリーンコウツウ,0
809,3430005002573,登記記録の閉鎖等,0,2023-07-14,2023-06-29,北海道林産燃料生産協同組合,,その他の設立登記法人,北海道,札幌市中央区,北二条西２丁目３２番地第３７桂和ビル５階,,01,101,0600002,,,2023-06-29,清算の結了等,,,2015-10-05,1,,,,,ホッカイドウリンサンネンリョウセイサン,0
845,4010405013204,登記記録の閉鎖等,0,2023-07-14,2023-06-28,次世代無人化施工技術研究組合,,その他の設立登記法人,東京都,港区,虎ノ門５丁目１１番１５号虎ノ門ＫＴビル,,13,103,1050001,,,2023-06-28,清算の結了等,,,2015-10-05,1,,,,,ジセザイムジンカセコウ,0
850,4010605002898,登記記録の閉鎖等,0,2023-07-14,2023-07-04,特定非営利活動法人スペースメディア,,その他の設立登記法人,東京都,江東区,大島５丁目４８番９号,,13,108,1360072,,,2023-07-04,清算の結了等,,,2015-10-05,1,,,,,スペースメディア,0
860,4010902003228,登記記録の閉鎖等,0,2023-07-14,2023-07-10,有限会社大竹,,有限会社,東京都,世田谷区,東玉川１丁目３６番１３号,,13,112,1580084,,,2023-07-10,清算の結了等,,,2015-10-05,1,,,,,,0
863,4010902009951,登記記録の閉鎖等,0,2023-07-14,2023-07-11,有限会社デ・イ・イ,,有限会社,東京都,世田谷区,経堂３丁目１番１号,,13,112,1560052,,,2023-07-11,清算の結了等,,,2015-10-05,1,,,,,デイイ,0
867,4011001070250,登記記録の閉鎖等,0,2023-07-14,2023-07-11,株式会社ＫＡ,,株式会社,東京都,渋谷区,渋谷４丁目１番４号フラット緑ケ岡２０１,,13,113,1500002,,,2023-07-11,清算の結了等,,,2015-10-05,1,,,,,カ,0
889,4011802013663,登記記録の閉鎖等,0,2023-07-14,2023-07-11,有限会社塩干大市,,有限会社,東京都,足立区,入谷６丁目３番１号北足立市場内,,13,121,1210836,,,2023-07-11,清算の結了等,,,2015-10-05,1,,,,,エンカンダイイチ,0
890,4011802027465,登記記録の閉鎖等,0,2023-07-14,2023-07-05,有限会社ユタカ製作所,,有限会社,東京都,葛飾区,青戸５丁目１２番１７号,,13,122,1250062,,,2023-07-05,清算の結了等,,,2015-10-05,1,,,,,ユタカセイサクショ,0
893,4012401020266,登記記録の閉鎖等,0,2023-07-14,2023-07-06,ヤマヒロ容器株式会社,,株式会社,東京都,国分寺市,並木町３丁目２６番２８号,,13,214,1850005,,,2023-07-06,清算の結了等,,,2015-10-05,1,,,,,ヤマヒロヨウキ,0
895,4012405003820,登記記録の閉鎖等,0,2023-07-14,2023-07-11,一般社団法人Ｋ２・ＫＣ,,その他の設立登記法人,東京都,武蔵野市,御殿山１丁目６番１１号,,13,203,1800005,,,2023-07-11,清算の結了等,,,2015-11-11,1,,,,,ケーツーケーシー,0
897,4012703002111,登記記録の閉鎖等,0,2023-07-14,2023-07-10,合同会社スカイウォーク,,合同会社,東京都,小平市,仲町１７番地の３,,13,211,1870042,,,2023-07-10,清算の結了等,,,2020-11-25,1,,,,,スカイウォーク,0
923,4030002045763,登記記録の閉鎖等,0,2023-07-14,2023-06-26,有限会社真壁電機商会,00016651,有限会社,埼玉県,草加市,吉町１丁目１番３９号,,11,221,3400017,,,2023-06-26,清算の結了等,,,2015-10-05,1,,,,,マカベデンキショウカイ,0
930,4040002000998,登記記録の閉鎖等,0,2023-07-14,2023-06-27,有限会社勇寿し,,有限会社,千葉県,千葉市中央区,南町３丁目４番８号,,12,101,2600842,,,2023-06-27,清算の結了等,,,2015-10-05,1,,,,,イサミズシ,0
932,4040002051091,登記記録の閉鎖等,0,2023-07-14,2023-06-26,有限会社ウエキ,,有限会社,千葉県,流山市,長崎１丁目４９番地,,12,220,2700134,,,2023-06-26,清算の結了等,,,2015-10-05,1,,,,,ウエキ,0
937,4040003008883,登記記録の閉鎖等,0,2023-07-14,2023-06-26,合同会社ＯＮＥ　Ｎｅｓｓ,,合同会社,千葉県,白井市,根９８７番地の１０６,,12,232,2701431,,,2023-06-26,清算の結了等,,,2016-08-02,1,,,,,ワンネス,0
947,4050002024195,登記記録の閉鎖等,0,2023-07-14,2023-07-06,有限会社春木屋,,有限会社,茨城県,古河市,中央町３丁目１番８号,,08,204,3060033,,,2023-07-06,清算の結了等,,,2015-10-05,1,,,,,ハルキヤ,0
953,4070002034085,登記記録の閉鎖等,0,2023-07-14,2023-07-11,緑一貨物有限会社,00025900,有限会社,群馬県,館林市,岡野町５６０番地２４,,10,207,3740067,,,2023-07-11,清算の結了等,,,2015-10-05,1,,,,,,0
958,4080402015097,登記記録の閉鎖等,0,2023-07-14,2023-07-10,有限会社杉浦プロセス,,有限会社,静岡県,浜松市浜北区,新原２４１１番地,,22,136,4340003,,,2023-07-10,清算の結了等,,,2015-10-05,1,,,,,スギウラプロセス,0
962,4120001007029,登記記録の閉鎖等,0,2023-07-14,2023-06-30,株式会社エー・シー・エス,,株式会社,大阪府,大阪市中央区,天満橋京町１番１号京阪ビルディング西館４階,,27,128,5400032,,,2023-06-30,合併による解散等,8120001172133,令和５年６月３０日大阪市中央区天満橋京町１番１号京阪ビルディング西館４階アーバンビル株式会社（8120001172133）に合併し解散,2015-10-05,1,,,,,エーシーエス,0
967,4120001147353,登記記録の閉鎖等,0,2023-07-14,2023-07-10,株式会社あんず,,株式会社,大阪府,寝屋川市,本町１５番１０号,,27,215,5720832,,,2023-07-10,清算の結了等,,,2015-10-05,1,,,,,アンズ,0
969,4120001191046,登記記録の閉鎖等,0,2023-07-14,2023-07-07,株式会社スポーツドリーム・プロジェクト,,株式会社,大阪府,大阪市北区,天満３丁目１１－１６,,27,127,5300043,,,2023-07-07,清算の結了等,,,2015-10-05,1,,,,,スポーツドリームプロジェクト,0
1002,4130002017728,登記記録の閉鎖等,0,2023-07-14,2023-06-30,有限会社ランドデザイン,,有限会社,京都府,京都市中京区,小川通御池上る下古城町３８４－６－７０１,,26,104,6040044,,,2023-06-30,清算の結了等,,,2015-10-05,1,,,,,ランドデザイン,0
1005,4140001015178,登記記録の閉鎖等,0,2023-07-14,2023-07-10,太陽殖産株式会社,,株式会社,兵庫県,神戸市北区,八多町附物２５３番地の３,,28,109,6511343,,,2023-07-10,合併による解散等,9180001032644,令和５年７月１日名古屋市中区錦一丁目１３番２６号自然応用科学株式会社（9180001032644）に合併し解散,2015-10-05,1,,,,,タイヨウショクサン,0
1006,4140001018222,登記記録の閉鎖等,0,2023-07-14,2023-07-07,株式会社栄光コーポレーシヨン,,株式会社,兵庫県,神戸市長田区,片山町１丁目９番３号,,28,106,6530805,,,2023-07-07,清算の結了等,,,2015-10-05,1,,,,,エイコウコーポレーシヨン,0
1015,4140003006448,登記記録の閉鎖等,0,2023-07-14,2023-07-12,合資会社高本商店,,合資会社,兵庫県,朝来市,多々良木１番地６,,28,225,6793423,,,2023-07-12,合併による解散等,2120901005141,令和５年７月１日大阪府吹田市垂水町三丁目７番１８号株式会社アーツ（2120901005141）に合併し解散,2015-10-05,1,,,,,コウモトショウテン,0
1033,4180002089688,登記記録の閉鎖等,0,2023-07-14,2023-07-10,有限会社カイケン,,有限会社,愛知県,海部郡蟹江町,大字須成字奥ノ坊３２３番の１,,23,425,4970031,,,2023-07-10,清算の結了等,,,2015-10-05,1,,,,,カイケン,0
1039,4180301025848,登記記録の閉鎖等,0,2023-07-14,2023-07-05,株式会社杉浦鉄工所,,株式会社,愛知県,西尾市,上矢田町郷後２９番地,,23,213,4440313,,,2023-07-05,清算の結了等,,,2015-10-05,1,,,,,スギウラテッコウジョ,0
1041,4180303000196,登記記録の閉鎖等,0,2023-07-14,2023-07-06,合資会社白幸材木店,,合資会社,愛知県,岡崎市,岩津町字生平６９番地１,,23,202,4442144,,,2023-07-06,清算の結了等,,,2015-10-05,1,,,,,ハッコウザイモクテン,0
1055,4240001052970,登記記録の閉鎖等,0,2023-07-14,2023-07-05,株式会社フェイストゥフェイス,,株式会社,島根県,邑智郡邑南町,三日市１３番地１,,32,449,6960311,,,2023-07-05,合併による解散等,7280001007464,令和５年７月１日島根県邑智郡邑南町三日市１３番地１フィットライフ株式会社（7280001007464）に合併し解散,2018-06-18,1,,,,,フェイストゥフェイス,0
1081,4340002000274,登記記録の閉鎖等,0,2023-07-14,2023-07-06,有限会社デンタルコンピュータ鹿児島,,有限会社,鹿児島県,鹿児島市,郡山町３４１番地,,46,201,8911105,,,2023-07-06,清算の結了等,,,2015-10-05,1,,,,,デンタルコンピュータカゴシマ,0
1086,4360003006277,登記記録の閉鎖等,0,2023-07-14,2023-06-30,合同会社悠々介護,,合同会社,沖縄県,石垣市,字平得１２５番地６,,47,207,9070003,,,2023-06-30,清算の結了等,,,2015-10-05,1,,,,,ユウユウカイゴ,0
1099,4400002008971,登記記録の閉鎖等,0,2023-07-14,2023-06-29,有限会社藤原工業,00085625,有限会社,岩手県,花巻市,石鳥谷町好地第１地割６０４番地２,,03,205,0283101,,,2023-06-29,清算の結了等,,,2015-10-05,1,,,,,フジワラコウギョウ,0
1129,5010005033007,登記記録の閉鎖等,0,2023-07-14,2023-07-05,一般社団法人ＳＡ　ＰＲＯＰＥＲＴＹ　ＳＨＩＲＯＫＡＮＥ,,その他の設立登記法人,東京都,中央区,銀座１丁目６番１１号土志田ビルディング３Ｆ,,13,102,1040061,,,2023-07-05,清算の結了等,,,2021-03-03,1,,,,,エスエープロパティシロカネ,0
1130,5010401035242,登記記録の閉鎖等,0,2023-07-14,2023-06-27,株式会社システム規格社,,株式会社,千葉県,茂原市,東部台３丁目３番地１０,,12,210,2970015,,,2023-06-27,清算の結了等,,,2015-10-05,1,,,,,システムキカクシャ,0
1149,5010801010407,登記記録の閉鎖等,0,2023-07-14,2023-07-11,福田建設株式会社,,株式会社,東京都,大田区,山王２丁目１５番２３号,,13,111,1430023,,,2023-07-11,清算の結了等,,,2015-10-05,1,,,,,フクダケンセツ,0
1170,5011401000715,登記記録の閉鎖等,0,2023-07-14,2023-07-12,株式会社ウエキ,,株式会社,東京都,板橋区,小茂根３丁目２番１２号リリーフ法律事務所,,13,119,1730037,,,2023-07-12,清算の結了等,,,2015-10-05,1,,,,,ウエキ,0
1183,5011802012755,登記記録の閉鎖等,0,2023-07-14,2023-07-11,有限会社小林設備工業,,有限会社,東京都,足立区,谷在家２丁目１４番１２号,,13,121,1230863,,,2023-07-11,清算の結了等,,,2015-10-05,1,,,,,コバヤシセツビコウギョウ,0
1190,5012702013430,登記記録の閉鎖等,0,2023-07-14,2023-07-10,有限会社アッシュナチュラルフーズ,,有限会社,東京都,東村山市,久米川町４丁目１番地５,,13,213,1890003,,,2023-07-10,清算の結了等,,,2015-10-05,1,,,,,,0
1201,5020001125038,登記記録の閉鎖等,0,2023-07-14,2023-07-03,株式会社ｎｉｃｏ,,株式会社,神奈川県,横浜市泉区,和泉中央北５丁目２２番９号ハラダビル３Ｆ,,14,116,2450024,,,2023-07-03,清算の結了等,,,2018-02-07,1,,,,,ニコ,0
1213,5021002025383,登記記録の閉鎖等,0,2023-07-14,2023-07-06,有限会社ワイエヌ設備,,有限会社,神奈川県,相模原市中央区,青葉２丁目１１番１６号,,14,152,2520224,,,2023-07-06,清算の結了等,,,2015-10-05,1,,,,,ワイエヌセツビ,0
1216,5021005007486,登記記録の閉鎖等,0,2023-07-14,2023-07-05,医療法人共栄会,,その他の設立登記法人,神奈川県,横須賀市,追浜町３丁目７番地,,14,201,2370064,,,2023-07-05,清算の結了等,,,2015-10-05,1,,,,,キョウエイカイ,0
1217,5030001046299,登記記録の閉鎖等,0,2023-07-14,2023-06-26,株式会社山中土建,,株式会社,埼玉県,新座市,栗原４丁目１０番１７号,,11,230,3520035,,,2023-06-26,清算の結了等,,,2015-10-05,1,,,,,ヤマナカドケン,0
1222,5030002029113,登記記録の閉鎖等,0,2023-07-14,2023-06-26,有限会社ケープランニング,,有限会社,埼玉県,所沢市,並木２丁目４番地１,,11,208,3590042,,,2023-06-26,清算の結了等,,,2015-10-05,1,,,,,ケープランニング,0
1241,5070001017164,登記記録の閉鎖等,0,2023-07-14,2023-07-11,株式会社ナイスサポート,,株式会社,群馬県,みどり市,笠懸町鹿２９７９番地３,,10,212,3792313,,,2023-07-11,清算の結了等,,,2015-10-05,1,,,,,ナイスサポート,0
1253,5110001009578,登記記録の閉鎖等,0,2023-07-14,2023-07-03,株式会社こみた建築,,株式会社,新潟県,新潟市北区,木崎１８３５番地１,,15,101,9503304,,,2023-07-03,清算の結了等,,,2015-10-05,1,,,,,コミタケンチク,0
1277,5120101064778,登記記録の閉鎖等,0,2023-07-14,2023-07-10,Ｔｏｗｅｒ　Ａｖｅｎｕｅ株式会社,,株式会社,大阪府,和泉市,いぶき野３丁目６番３－２１０号,,27,219,5940041,,,2023-07-10,清算の結了等,,,2021-12-08,1,,,,,タワーアベニュー,0
1280,5120901029047,登記記録の閉鎖等,0,2023-07-14,2023-07-12,株式会社日本機構部品工業,,株式会社,奈良県,橿原市,醍醐町１５３番地の１,,29,205,6340072,,,2023-07-12,清算の結了等,,,2015-10-05,1,,,,,ニホンキコウブヒンコウギョウ,0
1284,5122001020621,登記記録の閉鎖等,0,2023-07-14,2023-07-10,龍華興産株式会社,,株式会社,大阪府,八尾市,太子堂４丁目３番１５号,,27,212,5810063,,,2023-07-10,清算の結了等,,,2015-10-05,1,,,,,リュウゲコウサン,0
1292,5140001026315,登記記録の閉鎖等,0,2023-07-14,2023-07-06,株式会社セント・ミーズ・カンパニー,,株式会社,山梨県,北杜市,高根町清里３５４５番地５８９６株式会社環境保全研究所内,,19,209,4070301,,,2023-07-06,清算の結了等,,,2015-10-05,1,,,,,セントミーズカンパニー,0
1316,5180001004721,登記記録の閉鎖等,0,2023-07-14,2023-07-06,ツービック株式会社,,株式会社,愛知県,名古屋市千種区,若水３丁目１７番１７号,,23,101,4640071,,,2023-07-06,清算の結了等,,,2015-10-05,1,,,,,ツービック,0
1317,5180001088681,登記記録の閉鎖等,0,2023-07-14,2023-07-12,株式会社ＳＰＡＣＥ－Ｇ,,株式会社,愛知県,尾張旭市,東本地ケ原町４丁目５０番地,,23,226,4880033,,,2023-07-12,清算の結了等,,,2015-10-05,1,,,,,スペースジー,0
1322,5180003025030,登記記録の閉鎖等,0,2023-07-14,2023-07-05,ｔｅｒｒｅ‐ｄｅ‐ｊｏｉｅ合同会社,,合同会社,愛知県,名古屋市中区,大須１丁目２６番３９号,,23,106,4600011,,,2023-07-05,清算の結了等,,,2023-03-31,1,,,,,テーデルジョア,0
1326,5180301000643,登記記録の閉鎖等,0,2023-07-14,2023-07-06,株式会社岡愛,,株式会社,愛知県,岡崎市,鴨田町字向山７３番地の１,,23,202,4442121,,,2023-07-06,清算の結了等,,,2015-10-05,1,,,,,オカアイ,0
1328,5180302003117,登記記録の閉鎖等,0,2023-07-14,2023-07-05,有限会社山紀石材,,有限会社,愛知県,岡崎市,板田町字沢渡１番２番合併地,,23,202,4443171,,,2023-07-05,清算の結了等,,,2015-10-05,1,,,,,ヤマキセキザイ,0
1333,5200002010864,登記記録の閉鎖等,0,2023-07-14,2023-07-06,有限会社武山製作所,,有限会社,岐阜県,羽島市,足近町６丁目１００番地,,21,209,5016207,,,2023-07-06,清算の結了等,,,2015-10-05,1,,,,,タケヤマセイサクショ,0
1335,5200002011078,登記記録の閉鎖等,0,2023-07-14,2023-07-05,有限会社西垣製作所,,有限会社,岐阜県,羽島市,足近町６丁目２２９番地,,21,209,5016207,,,2023-07-05,清算の結了等,,,2015-10-05,1,,,,,ニシガキセイサクショ,0
1337,5220001006382,登記記録の閉鎖等,0,2023-07-14,2023-07-03,北陸通信資材株式会社,,株式会社,石川県,金沢市,法光寺町ホ２２番地,,17,201,9203132,,,2023-07-03,合併による解散等,1220001002138,令和５年７月１日石川県金沢市観法寺町ろ１１番地北話エンジニアリング株式会社（1220001002138）に合併し解散,2015-10-05,1,,,,,ホクリクツウシンシザイ,0
1341,5230001007363,登記記録の閉鎖等,0,2023-07-14,2023-07-03,株式会社卵のタカムラ,,株式会社,富山県,黒部市,沓掛６３５番地,,16,207,9380013,,,2023-07-03,合併による解散等,4230001008172,令和５年６月３０日富山県黒部市沓掛６３５番地株式会社タカムラ鶏園（4230001008172）に合併し解散,2015-10-05,1,,,,,タマゴノタカムラ,0
1356,5270002002310,登記記録の閉鎖等,0,2023-07-14,2023-07-04,有限会社メグロ,,有限会社,鳥取県,鳥取市,上味野７５番地４,,31,201,6801167,,,2023-07-04,清算の結了等,,,2015-10-05,1,,,,,メグロ,0
1359,5290001009420,登記記録の閉鎖等,0,2023-07-14,2023-07-11,株式会社西日本フアミリーランド,,株式会社,福岡県,宮若市,乙野１１１９番地,,40,226,8220131,,,2023-07-11,合併による解散等,5290001058161,令和５年６月３０日福岡市中央区長浜二丁目２番８－１１０７号株式会社Ｈｅｒｏｉｃ　ｉｎｖｅｓｔｍｅｎｔ（5290001058161）に合併し解散,2015-10-05,1,,,,,ニシニホンフアミリーランド,0
1374,5360001010115,登記記録の閉鎖等,0,2023-07-14,2023-07-05,株式会社響喜組,,株式会社,沖縄県,浦添市,西原２丁目１９６７番地,,47,208,9012101,,,2023-07-05,清算の結了等,,,2015-10-05,1,,,,,ヒビキグミ,0
1387,5430001054476,登記記録の閉鎖等,0,2023-07-14,2023-06-27,株式会社中村ガス販売,,株式会社,北海道,苫小牧市,字錦岡２９番地の２７,,01,213,0591275,,,2023-06-27,清算の結了等,,,2015-10-05,1,,,,,ナカムラガスハンバイ,0
1393,5450002012539,登記記録の閉鎖等,0,2023-07-14,2023-07-07,有限会社いやま,,有限会社,北海道,紋別市,本町７丁目２番２号,,01,219,0940004,,,2023-07-07,清算の結了等,,,2015-10-05,1,,,,,イヤマ,0
1395,5460302000878,登記記録の閉鎖等,0,2023-07-14,2023-07-12,有限会社設計同人アルファ,,有限会社,北海道,北見市,上ところ１５６番地１,,01,208,0991585,,,2023-07-12,清算の結了等,,,2015-10-05,1,,,,,セッケイドウジンアルファ,0
1415,6010005030523,登記記録の閉鎖等,0,2023-07-14,2023-07-06,もみじプロパティ特定目的会社,,その他の設立登記法人,東京都,千代田区,神田神保町１丁目１１番地さくら綜合事務所内,,13,101,1010051,,,2023-07-06,清算の結了等,,,2019-07-29,1,,,,,モミジプロパティ,0
1421,6010401135900,登記記録の閉鎖等,0,2023-07-14,2023-07-10,株式会社ＫＡＩ,,株式会社,静岡県,浜松市中区,鍛冶町１５番,,22,131,4300933,,,2023-07-10,清算の結了等,,,2018-01-18,1,,,,,ケイエイアイ,0
1471,6011705000534,登記記録の閉鎖等,0,2023-07-14,2023-07-11,特定非営利活動法人江戸川在宅支援グループ,,その他の設立登記法人,東京都,江戸川区,一之江３丁目７番１１号プレジデント１０５号室,,13,123,1320024,,,2023-07-11,清算の結了等,,,2015-10-05,1,,,,,エドガワザイタクシエングループ,0
1472,6011801010107,登記記録の閉鎖等,0,2023-07-14,2023-07-11,東京中央出版株式会社,,株式会社,東京都,足立区,新田２丁目１１番２９号,,13,121,1230865,,,2023-07-11,清算の結了等,,,2015-10-05,1,,,,,トウキョウチュウオウシュッパン,0
1493,6020001014017,登記記録の閉鎖等,0,2023-07-14,2023-07-04,株式会社ヨコハマ南ハウジング,,株式会社,神奈川県,横浜市南区,南太田１丁目２３番１３号,,14,105,2320006,,,2023-07-04,清算の結了等,,,2015-10-05,1,,,,,ヨコハマミナミハウジング,0
1494,6020001049319,登記記録の閉鎖等,0,2023-07-14,2023-07-04,株式会社テクノＣＲＣ,,株式会社,神奈川県,横浜市保土ケ谷区,西谷３丁目６番１号,,14,106,2400054,,,2023-07-04,清算の結了等,,,2015-10-05,1,,,,,テクノシーアールシー,0
1505,6021001002267,登記記録の閉鎖等,0,2023-07-14,2023-07-05,八重洲工業株式会社,,株式会社,神奈川県,藤沢市,辻堂東海岸１丁目１９番３８号,,14,205,2510045,,,2023-07-05,清算の結了等,,,2015-10-05,1,,,,,ヤエスコウギョウ,0
1545,6080401015419,登記記録の閉鎖等,0,2023-07-14,2023-07-10,株式会社小稚,,株式会社,静岡県,御前崎市,池新田６１０７番地,,22,223,4371612,,,2023-07-10,清算の結了等,,,2015-10-05,1,,,,,シャオツウ,0
1547,6080402007233,登記記録の閉鎖等,0,2023-07-14,2023-07-10,有限会社ホーエイトップ,,有限会社,静岡県,浜松市中区,和合町１９３番地の７,,22,131,4338125,,,2023-07-10,清算の結了等,,,2015-10-05,1,,,,,ホーエイトップ,0
1548,6090001001578,登記記録の閉鎖等,0,2023-07-14,2023-07-10,株式会社中村工芸所,,株式会社,山梨県,甲府市,住吉３丁目５番１号,,19,201,4000851,,,2023-07-10,清算の結了等,,,2015-10-05,1,,,,,ナカムラコウゲイショ,0
1549,6090001002667,登記記録の閉鎖等,0,2023-07-14,2023-07-07,株式会社トレンディ,,株式会社,山梨県,甲斐市,富竹新田２７４番地の４,,19,210,4000113,,,2023-07-07,清算の結了等,,,2015-10-05,1,,,,,トレンディ,0
1568,6120102020440,登記記録の閉鎖等,0,2023-07-14,2023-07-12,有限会社遠藤建物,,有限会社,大阪府,藤井寺市,道明寺４丁目４番５号,,27,226,5830012,,,2023-07-12,清算の結了等,,,2015-10-05,1,,,,,エンドウタテモノ,0
1570,6120901023296,登記記録の閉鎖等,0,2023-07-14,2023-07-05,株式会社環境工学,,株式会社,大阪府,豊中市,本町４丁目９番２４号,,27,203,5600021,,,2023-07-05,清算の結了等,,,2015-10-05,1,,,,,カンキョウコウガク,0
1589,6140003005324,登記記録の閉鎖等,0,2023-07-14,2023-07-06,合同会社エ・ストゥディオ,,合同会社,兵庫県,神戸市東灘区,御影中町６丁目４－４,,28,101,6580054,,,2023-07-06,清算の結了等,,,2015-10-05,1,,,,,エストゥディオ,0
1590,6180001082568,登記記録の閉鎖等,0,2023-07-14,2023-07-06,株式会社共栄商會,,株式会社,愛知県,一宮市,真清田２丁目２番１０号,,23,203,4910043,,,2023-07-06,清算の結了等,,,2015-10-05,1,,,,,キョウエイショウカイ,0
1607,6200002009039,登記記録の閉鎖等,0,2023-07-14,2023-07-06,有限会社アクア・インターナショナル,,有限会社,岐阜県,岐阜市,東明見町１６番地,,21,201,5008436,,,2023-07-06,清算の結了等,,,2015-10-05,1,,,,,アクアインターナショナル,0
1613,6240002044321,登記記録の閉鎖等,0,2023-07-14,2023-06-30,川中商事株式会社,,株式会社,広島県,福山市,東桜町１番３４－１９０５号,,34,207,7200065,,,2023-06-30,合併による解散等,6240001033184,令和５年６月３０日広島県福山市手城町四丁目３３番３８号株式会社川中建設（6240001033184）に合併し解散,2015-10-05,1,,,,,カワナカショウジ,0
1615,6240005007671,登記記録の閉鎖等,0,2023-07-14,2023-07-04,松永家具工業協同組合,,その他の設立登記法人,広島県,福山市,柳津町４丁目８番６号,,34,207,7290114,,,2023-07-04,清算の結了等,,,2015-10-05,1,,,,,マツナガカグコウギョウ,0
1648,6350002016945,登記記録の閉鎖等,0,2023-07-14,2023-07-05,有限会社吉野物産,,有限会社,宮崎県,日南市,西弁分５丁目１１番地１,,45,204,8870024,,,2023-07-05,清算の結了等,,,2015-10-05,1,,,,,ヨシノブッサン,0
1676,6430002031639,登記記録の閉鎖等,0,2023-07-14,2023-06-27,イーツジャパン有限会社,,有限会社,北海道,札幌市北区,北十八条西３丁目１番１２号,,01,102,0010018,,,2023-06-27,清算の結了等,,,2015-10-05,1,,,,,イーツジャパン,0
1677,6430002058104,登記記録の閉鎖等,0,2023-07-14,2023-06-29,有限会社ウエムラ牧場,,有限会社,北海道,白老郡白老町,字石山１０９番地２０,,01,578,0590921,,,2023-06-29,清算の結了等,,,2015-10-05,1,,,,,ウエムラボクジョウ,0
1683,6440001008868,登記記録の閉鎖等,0,2023-07-14,2023-07-10,株式会社道縁,,株式会社,北海道,山越郡長万部町,字長万部１３２番地の４,,01,347,0493521,,,2023-07-10,清算の結了等,,,2021-04-16,1,,,,,ドウエン,0
1684,6440002003570,登記記録の閉鎖等,0,2023-07-14,2023-07-07,有限会社橋本食品,,有限会社,北海道,函館市,日乃出町６番１０号,,01,202,0400022,,,2023-07-07,清算の結了等,,,2015-10-05,1,,,,,ハシモトショクヒン,0
1686,6470002009920,登記記録の閉鎖等,0,2023-07-14,2023-07-05,有限会社香川環境文化研究所,,有限会社,香川県,高松市,国分寺町新居５５２番地１,,37,201,7690101,,,2023-07-05,清算の結了等,,,2015-10-05,1,,,,,カガワカンキョウブンカケンキュウショ,0
1718,7010401082910,登記記録の閉鎖等,0,2023-07-14,2023-06-28,株式会社オフィスＤＡＩＷＡ,,株式会社,東京都,港区,南麻布３丁目３番１０号,,13,103,1060047,,,2023-06-28,清算の結了等,,,2015-10-05,1,,,,,オフィスダイワ,0
1723,7010401099145,登記記録の閉鎖等,0,2023-07-14,2023-07-06,ＮＣｏｒｅ株式会社,,株式会社,東京都,千代田区,神田神保町１丁目１４番地１,,13,101,1010051,,,2023-07-06,合併による解散等,1010401115543,令和５年７月１日東京都港区港南二丁目１６番５号株式会社ＢＰＯＲＴＵＳ（1010401115543）に合併し解散,2015-10-05,1,,,,,エヌコア,0
1726,7010401170384,登記記録の閉鎖等,0,2023-07-14,2023-07-11,株式会社ＡＡ　Ｅｎｔｅｒｔａｉｎｍｅｎｔ．,,株式会社,東京都,渋谷区,恵比寿南３丁目９番８－６０７号プラウド恵比寿,,13,113,1500022,,,2023-07-11,清算の結了等,,,2022-10-20,1,,,,,エーシーズエンターテインメント,0
1737,7010602008037,登記記録の閉鎖等,0,2023-07-14,2023-07-06,有限会社桑田印刷所,,有限会社,東京都,江東区,白河３丁目１８番７号,,13,108,1350021,,,2023-07-06,清算の結了等,,,2015-10-05,1,,,,,,0
1758,7011102029837,登記記録の閉鎖等,0,2023-07-14,2023-07-10,株式会社ＭａｓａａｔｕＳｏｆｔ,,株式会社,東京都,北区,豊島８丁目２７－１－５０１,,13,117,1140003,,,2023-07-10,清算の結了等,,,2015-10-05,1,,,,,マサアツソフト,0
1774,7013101008243,登記記録の閉鎖等,0,2023-07-14,2023-07-12,エフロレンス株式会社,,株式会社,東京都,羽村市,羽中２丁目２番２号,,13,227,2050015,,,2023-07-12,清算の結了等,,,2019-12-20,1,,,,,エフロレンス,0
1775,7013102001908,登記記録の閉鎖等,0,2023-07-14,2023-07-12,有限会社小山商事,,有限会社,東京都,あきる野市,雨間３０９番地１１,,13,228,1970825,,,2023-07-12,清算の結了等,,,2015-10-05,1,,,,,コヤマショウジ,0
1798,7030001040944,登記記録の閉鎖等,0,2023-07-14,2023-06-27,入江産業株式会社,,株式会社,埼玉県,八潮市,緑町４丁目４番地１４,,11,234,3400808,,,2023-06-27,清算の結了等,,,2015-10-05,1,,,,,イリエサンギョウ,0
1823,7040002095565,登記記録の閉鎖等,0,2023-07-14,2023-06-26,有限会社柏寿,,有限会社,千葉県,柏市,柏３丁目９番２１号,,12,217,2770005,,,2023-06-26,清算の結了等,,,2015-10-05,1,,,,,ハクジュ,0
1862,7120905006214,登記記録の閉鎖等,0,2023-07-14,2023-07-06,一般社団法人日本健康サポート協会,,その他の設立登記法人,大阪府,箕面市,西小路３丁目１７番２４号,,27,220,5620003,,,2023-07-06,清算の結了等,,,2021-08-04,1,,,,,ニホンケンコオサポートキョウカイ,0
1885,7180001016574,登記記録の閉鎖等,0,2023-07-14,2023-07-03,ケーエス・エンタープライズ株式会社,,株式会社,愛知県,名古屋市東区,白壁３丁目１３番１８号,,23,102,4610011,,,2023-07-03,合併による解散等,4180001030264,令和５年７月１日名古屋市中村区井深町１５番１５号株式会社コマリヨー（4180001030264）に合併し解散,2015-10-05,1,,,,,ケーエスエンタープライズ,0
1903,7180302020259,登記記録の閉鎖等,0,2023-07-14,2023-07-04,有限会社前浜不動産,,有限会社,愛知県,碧南市,前浜町１丁目２番地,,23,209,4470827,,,2023-07-04,清算の結了等,,,2015-10-05,1,,,,,マエハマフドウサン,0
1914,7210001013782,登記記録の閉鎖等,0,2023-07-14,2023-07-03,株式会社アルバックス,,株式会社,福井県,鯖江市,鳥羽３丁目４番２７号,,18,207,9160013,,,2023-07-03,合併による解散等,8210001000895,令和５年７月１日福井市南居町第８１号１番地３５株式会社カツクラ（8210001000895）に合併し解散,2015-10-05,1,,,,,アルバックス,0
1916,7210002004310,登記記録の閉鎖等,0,2023-07-14,2023-07-05,有限会社宮郷玩具,,有限会社,福井県,福井市,順化２丁目３番７号,,18,201,9100023,,,2023-07-05,清算の結了等,,,2015-10-05,1,,,,,ミヤゴウガング,0
1922,7240001014101,登記記録の閉鎖等,0,2023-07-14,2023-07-04,株式会社明協,,株式会社,広島県,広島市安佐北区,口田南３丁目１番６号,,34,106,7391733,,,2023-07-04,合併による解散等,7240002018729,令和５年７月１日広島市安佐北区口田南三丁目１番６号株式会社アジル（7240002018729）に合併し解散,2015-10-05,1,,,,,メイキョウ,0
1945,7330002000479,登記記録の閉鎖等,0,2023-07-14,2023-06-30,有限会社天草不動産商会,,有限会社,熊本県,熊本市中央区,大江５丁目１５番６号,,43,101,8620971,,,2023-06-30,清算の結了等,,,2015-10-05,1,,,,,アマクサフドウサンショウカイ,0
1969,7420001015519,登記記録の閉鎖等,0,2023-07-14,2023-06-29,ＬＶＣチャレンジ・キメラ１号株式会社,,株式会社,青森県,八戸市,白銀４丁目１０番地１号,,02,203,0310821,,,2023-06-29,合併による解散等,6420001014661,令和５年６月２９日青森県八戸市白銀四丁目１０番地１号株式会社ロジカルバリュー・コミュニケーションズ（6420001014661）に合併し解散,2016-12-16,1,,,,,エルブイシーチャレンジキメライチゴウ,0
1971,7430001057147,登記記録の閉鎖等,0,2023-07-14,2023-06-27,株式会社室蘭低温流通センター,,株式会社,北海道,室蘭市,東町３丁目１番１２号,,01,205,0500083,,,2023-06-27,清算の結了等,,,2015-10-05,1,,,,,ムロランテイオンリュウツウセンター,0
2005,8010005029076,登記記録の閉鎖等,0,2023-07-14,2023-07-05,オスタラ横浜関内特定目的会社,,その他の設立登記法人,東京都,千代田区,麹町５丁目１番地ＮＫ真和ビル９階,,13,101,1020083,,,2023-07-05,清算の結了等,,,2018-09-11,1,,,,,オスタラヨコハマカンナイ,0
2020,8010603005073,登記記録の閉鎖等,0,2023-07-14,2023-07-07,合同会社Ａｃｔｉｖｅ　Ｌｉｎｋ,,合同会社,東京都,渋谷区,広尾１丁目１１番５－５２１号,,13,113,1500012,,,2023-07-07,合併による解散等,7010603005140,令和５年７月１日東京都渋谷区広尾一丁目１１番５－５２１号合同会社ＴＫＭＧ（7010603005140）に合併し解散,2015-10-05,1,,,,,アクティブリンク,0
2034,8011101075724,登記記録の閉鎖等,0,2023-07-14,2023-06-28,株式会社ミキ・トラベル,,株式会社,東京都,港区,虎ノ門４丁目１番１号,,13,103,1050001,,,2023-06-28,清算の結了等,,,2016-01-20,1,,,,,ミキトラベル,0
2038,8011103008954,登記記録の閉鎖等,0,2023-07-14,2023-07-06,合同会社結い創り,,合同会社,東京都,新宿区,喜久井町１０カスタリア新宿夏目坂２１１,,13,104,1620044,,,2023-07-06,清算の結了等,,,2019-07-31,1,,,,,ユイヅクリ,0
2041,8011501012780,登記記録の閉鎖等,0,2023-07-14,2023-07-10,のぶ印刷株式会社,,株式会社,東京都,北区,東十条６丁目４番２０－１０１号,,13,117,1140001,,,2023-07-10,清算の結了等,,,2015-10-05,1,,,,,,0
2044,8011602011095,登記記録の閉鎖等,0,2023-07-14,2023-07-13,有限会社ワイツーワイ,,有限会社,東京都,練馬区,東大泉３丁目６５番１０号,,13,120,1780063,,,2023-07-13,清算の結了等,,,2015-10-05,1,,,,,ワイツーワイ,0
2045,8011605001969,登記記録の閉鎖等,0,2023-07-14,2023-07-10,一般社団法人まちなか米子壱号館,,その他の設立登記法人,東京都,練馬区,氷川台４丁目４７番１８号,,13,120,1790084,,,2023-07-10,清算の結了等,,,2015-10-05,1,,,,,マチナカヨナゴイチゴウカン,0
2050,8011801026019,登記記録の閉鎖等,0,2023-07-14,2023-07-10,株式会社ＡＣＴ　Ｐｒｏ．,,株式会社,東京都,足立区,綾瀬２丁目２４番８－２０７号,,13,121,1200005,,,2023-07-10,清算の結了等,,,2015-10-05,1,,,,,アクトプロ,0
2058,8013401000345,登記記録の閉鎖等,0,2023-07-14,2023-07-05,昭徳産業株式会社,,株式会社,東京都,日野市,大坂上４丁目５番地の１,,13,212,1910061,,,2023-07-05,清算の結了等,,,2015-10-05,1,,,,,ショウトクサンギョウ,0
2091,8040002012684,登記記録の閉鎖等,0,2023-07-14,2023-06-27,有限会社ワード,,有限会社,千葉県,千葉市中央区,千葉寺町３３番地,,12,101,2600844,,,2023-06-27,清算の結了等,,,2015-10-05,1,,,,,ワード,0
2101,8050001046939,登記記録の閉鎖等,0,2023-07-14,2023-07-06,株式会社春夏秋冬,,株式会社,茨城県,下妻市,五箇２２１番地８９,,08,210,3040823,,,2023-07-06,清算の結了等,,,2019-12-23,1,,,,,シュンカシュウトウ,0
2111,8080101011732,登記記録の閉鎖等,0,2023-07-14,2023-07-12,富士フイルム静岡株式会社,,株式会社,静岡県,富士宮市,大中里２００番地,,22,207,4180044,,,2023-07-12,合併による解散等,6021001033816,令和５年７月１日神奈川県南足柄市中沼２１０番地富士フイルムマテリアルマニュファクチャリング株式会社（6021001033816）に合併し解散,2015-10-05,1,,,,,フジフイルムシズオカ,0
2137,8120002010127,登記記録の閉鎖等,0,2023-07-14,2023-07-10,東大阪オート有限会社,,有限会社,大阪府,大阪市生野区,小路東２丁目１６番１号,,27,116,5440003,,,2023-07-10,清算の結了等,,,2015-10-05,1,,,,,ヒガシオオサカオート,0
2177,8180002041496,登記記録の閉鎖等,0,2023-07-14,2023-07-06,日興インテリア有限会社,,有限会社,愛知県,名古屋市名東区,八前２丁目１５０２番地,,23,115,4650018,,,2023-07-06,清算の結了等,,,2015-10-05,1,,,,,ニッコウインテリア,0
2187,8180302025315,登記記録の閉鎖等,0,2023-07-14,2023-07-05,有限会社ビキラヘアードレッシング,,有限会社,愛知県,みよし市,三好丘あおば２丁目１２番地１８,,23,236,4700233,,,2023-07-05,清算の結了等,,,2015-10-05,1,,,,,,0
2204,8210002000705,登記記録の閉鎖等,0,2023-07-14,2023-07-04,有限会社エルゼブレドール,,有限会社,福井県,福井市,本堂町第４２号１番地の２２,,18,201,9188076,,,2023-07-04,清算の結了等,,,2015-10-05,1,,,,,エルゼブレドール,0
2211,8240001037381,登記記録の閉鎖等,0,2023-07-14,2023-07-05,株式会社森商,,株式会社,広島県,竹原市,東野町１３３４番地１０,,34,203,7250004,,,2023-07-05,清算の結了等,,,2015-10-05,1,,,,,モリショウ,0
2260,8470003000158,登記記録の閉鎖等,0,2023-07-14,2023-06-09,フュージョンネット四国合名会社,,合名会社,香川県,高松市,瓦町１丁目１０番地１３,,37,201,7600052,,,2023-06-09,清算の結了等,,,2015-10-05,1,,,,,フュージョンネットシコク,0
2264,8500001001600,登記記録の閉鎖等,0,2023-07-14,2023-07-10,株式会社光明工事,,株式会社,愛媛県,松山市,安城寺町９２２番地,,38,201,7918006,,,2023-07-10,合併による解散等,5021001007060,令和５年７月１日神奈川県茅ヶ崎市萩園８３３番地第一カッター興業株式会社（5021001007060）に合併し解散,2015-10-05,1,,,,,コウメイコウジ,0
2280,9010401051062,登記記録の閉鎖等,0,2023-07-14,2023-06-28,鎌倉温水プールＰＦＩ株式会社,,株式会社,東京都,港区,芝５丁目６番１号,,13,103,1080014,,,2023-06-28,清算の結了等,,,2015-10-05,1,,,,,カマクラオンスイプールピーエフアイ,0
2290,9010501001454,登記記録の閉鎖等,0,2023-07-14,2023-07-11,株式会社エヌティクリエイティブ,,株式会社,東京都,台東区,入谷１丁目４番６号杉本ビル２階,,13,106,1100013,,,2023-07-11,清算の結了等,,,2015-10-05,1,,,,,エヌティクリエイティブ,0
2295,9010601033728,登記記録の閉鎖等,0,2023-07-14,2023-07-07,株式会社サンマルイチ,,株式会社,東京都,墨田区,立川１丁目７番２号,,13,107,1300023,,,2023-07-07,清算の結了等,,,2015-10-05,1,,,,,,0
2309,9010902006408,登記記録の閉鎖等,0,2023-07-14,2023-07-11,有限会社崎興業,,有限会社,東京都,世田谷区,桜丘２丁目１６番１６号,,13,112,1560054,,,2023-07-11,清算の結了等,,,2015-10-05,1,,,,,サキコウギョウ,0
2313,9011001146582,登記記録の閉鎖等,0,2023-07-14,2023-07-11,ケビンコンサルティング株式会社,,株式会社,東京都,渋谷区,道玄坂１丁目１０番８号渋谷道玄坂東急ビル２Ｆ－Ｃ,,13,113,1500043,,,2023-07-11,清算の結了等,,,2022-03-29,1,,,,,ケビンコンサルティング,0
2364,9021002033614,登記記録の閉鎖等,0,2023-07-14,2023-07-06,有限会社洋装曙,00013345,有限会社,神奈川県,厚木市,中依知８５番地の１,,14,212,2430805,,,2023-07-06,清算の結了等,,,2015-10-05,1,,,,,ヨウソウアケボノ,0
2367,9030001144693,登記記録の閉鎖等,0,2023-07-14,2023-07-06,株式会社ＩＤＥＡ　ｏｕ,,株式会社,神奈川県,厚木市,水引２丁目７番３８号コスモビル４１０,,14,212,2430004,,,2023-07-06,清算の結了等,,,2021-10-06,1,,,,,イデアオウ,0
2396,9080401000698,登記記録の閉鎖等,0,2023-07-14,2023-07-11,遠州ヂーゼル株式会社,,株式会社,静岡県,浜松市南区,飯田町９６２番地,,22,134,4350028,,,2023-07-11,合併による解散等,6021001041059,令和５年７月１日神奈川県横須賀市森崎一丁目１９番２７号株式会社平和商会（6021001041059）に合併し解散,2015-10-05,1,,,,,エンシュウヂーゼル,0
2398,9090001002788,登記記録の閉鎖等,0,2023-07-14,2023-07-06,サンコー建設株式会社,,株式会社,山梨県,甲斐市,島上条６８番地の３,,19,210,4000123,,,2023-07-06,清算の結了等,,,2015-10-05,1,,,,,サンコーケンセツ,0
2404,9100002016389,登記記録の閉鎖等,0,2023-07-14,2023-07-05,有限会社深井組,,有限会社,長野県,上田市,東内４１１番地４,,20,203,3860413,,,2023-07-05,清算の結了等,,,2015-10-05,1,,,,,フカイグミ,0
2411,9120001143050,登記記録の閉鎖等,0,2023-07-14,2023-07-10,株式会社美野里,,株式会社,大阪府,大阪市西区,江戸堀１丁目２５番１９－１００５号,,27,106,5500002,,,2023-07-10,清算の結了等,,,2015-10-05,1,,,,,ミノリ,0
2427,9120102012138,登記記録の閉鎖等,0,2023-07-14,2023-07-13,有限会社甲和設備,,有限会社,大阪府,堺市南区,大庭寺１１８５番地６,,27,145,5900153,,,2023-07-13,清算の結了等,,,2015-10-05,1,,,,,コウワセツビ,0
2431,9122001017374,登記記録の閉鎖等,0,2023-07-14,2023-07-05,株式会社大翔エレクトロニクス,,株式会社,大阪府,四條畷市,西中野３丁目２番１８－４１３号,,27,229,5750055,,,2023-07-05,清算の結了等,,,2015-10-05,1,,,,,,0
2440,9140001000539,登記記録の閉鎖等,0,2023-07-14,2023-07-10,株式会社タナカ技研,,株式会社,兵庫県,芦屋市,緑町５番１６号,,28,206,6590042,,,2023-07-10,清算の結了等,,,2015-10-05,1,,,,,タナカギケン,0
2444,9140001116459,登記記録の閉鎖等,0,2023-07-14,2023-07-07,はだし不動産株式会社,,株式会社,兵庫県,神戸市中央区,伊藤町１１０番地の２,,28,110,6500032,,,2023-07-07,清算の結了等,,,2020-02-19,1,,,,,ハダシフドウサン,0
2449,9140002020651,登記記録の閉鎖等,0,2023-07-14,2023-07-06,有限会社ティケージェイ,,有限会社,兵庫県,川西市,水明台２丁目１－３９,,28,217,6660116,,,2023-07-06,清算の結了等,,,2015-10-05,1,,,,,ティケージェイ,0
2468,9180003003486,登記記録の閉鎖等,0,2023-07-14,2023-07-06,合資会社マキノ企画,,合資会社,愛知県,名古屋市中川区,春田５丁目４１番地,,23,110,4540985,,,2023-07-06,清算の結了等,,,2015-10-05,1,,,,,マキノキカク,0
2478,9190001020185,登記記録の閉鎖等,0,2023-07-14,2023-07-04,Ｚ自然エネルギー開発株式会社,,株式会社,三重県,津市,あのつ台４丁目７番地１,,24,201,5140131,,,2023-07-04,合併による解散等,9190001000889,令和５年７月１日三重県津市あのつ台四丁目７番地１日の出開発株式会社（9190001000889）に合併し解散,2015-10-05,1,,,,,ゼットシゼンエネルギーカイハツ,0
2479,9190001021539,登記記録の閉鎖等,0,2023-07-14,2023-07-03,株式会社国商,,株式会社,三重県,四日市市,中野町２０５６番地１,,24,202,5121304,,,2023-07-03,清算の結了等,,,2015-10-05,1,,,,,コクショウ,0
2509,9290802012692,登記記録の閉鎖等,0,2023-07-14,2023-07-06,菅有限会社,,有限会社,福岡県,北九州市八幡東区,天神町７番１９号,,40,108,8050054,,,2023-07-06,清算の結了等,,,2015-10-05,1,,,,,スガ,0
2513,9300005003496,登記記録の閉鎖等,0,2023-07-14,2023-07-04,医療法人至慈会,,その他の設立登記法人,佐賀県,杵島郡白石町,大字戸ケ里１８３１番地１８,,41,425,8491203,,,2023-07-04,清算の結了等,,,2015-10-05,1,,,,,シジカイ,0
2518,9330001007993,登記記録の閉鎖等,0,2023-07-14,2023-07-04,株式会社ぎんなん緑化園,,株式会社,熊本県,阿蘇郡西原村,大字鳥子２７０４番地,,43,432,8612401,,,2023-07-04,清算の結了等,,,2015-10-05,1,,,,,ギンナンリョッカエン,0
2523,9350002015424,登記記録の閉鎖等,0,2023-07-14,2023-07-03,有限会社山清,,有限会社,宮崎県,北諸県郡三股町,大字長田６０８７番地１,,45,341,8891911,,,2023-07-03,清算の結了等,,,2015-10-05,1,,,,,ヤマキヨ,0
2527,9360005003953,登記記録の閉鎖等,0,2023-07-14,2023-06-30,農事組合法人宮通産業,,その他の設立登記法人,沖縄県,宮古島市,平良字下里２５１１番地１,,47,214,9060013,,,2023-06-30,清算の結了等,,,2015-10-05,1,,,,,ミヤツウサンギョウ,0
2552,9470001003005,登記記録の閉鎖等,0,2023-07-14,2023-07-06,株式会社巴堂,,株式会社,香川県,高松市,番町１丁目１０番４６号,,37,201,7600017,,,2023-07-06,清算の結了等,,,2015-10-05,1,,,,,トモエドウ,0
2553,9470001003194,登記記録の閉鎖等,0,2023-07-14,2023-07-06,日本ターニング株式会社,,株式会社,香川県,高松市,元山町８２１番地１０,,37,201,7610311,,,2023-07-06,清算の結了等,,,2015-10-05,1,,,,,ニホンターニング,0
