sequenceNumber,corporateNumber,process,correct,updateDate,changeDate,name,nameImageId,kind,prefectureName,cityName,streetNumber,addressImageId,prefectureCode,cityCode,postCode,addressOutside,addressOutsideImageId,closeDate,closeCause,successorCorporateNumber,changeCause,assignmentDate,latest,enName,enPrefectureName,enCityName,enAddressOutside,furigana,hihyoji
29,1010403011815,登記記録の閉鎖等,0,2023-09-26,2023-09-05,ＲＰＡ合同会社,,合同会社,東京都,港区,六本木１丁目９番１０号アークヒルズ仙石山森タワー４０階,,13,103,1060032,,,2023-09-05,清算の結了等,,,2015-10-05,1,,,,,アールピーエー,0
43,1011003007088,登記記録の閉鎖等,0,2023-09-26,2023-09-22,合同会社ＭＩＮＴ,,合同会社,東京都,渋谷区,渋谷２丁目１０番７号,,13,113,1500002,,,2023-09-22,清算の結了等,,,2016-09-30,1,,,,,ミント,0
52,1011301018613,登記記録の閉鎖等,0,2023-09-26,2023-09-21,株式会社ＨＡＲＤＩ,,株式会社,東京都,渋谷区,笹塚１丁目５５番７号,,13,113,1510073,,,2023-09-21,清算の結了等,,,2015-10-05,1,,,,,アルディ,0
57,1011502009262,登記記録の閉鎖等,0,2023-09-26,2023-09-15,有限会社須永,,有限会社,東京都,荒川区,町屋５丁目１４番７号,,13,118,1160001,,,2023-09-15,清算の結了等,,,2015-10-05,1,,,,,スナガ,0
62,1013301034920,登記記録の閉鎖等,0,2023-09-26,2023-08-30,株式会社ＳＴＯＣＫ３２,,株式会社,埼玉県,川越市,東田町４番地３８,,11,201,3501114,,,2023-08-30,合併による解散等,6030001057881,令和５年８月２９日埼玉県川越市東田町４番地３８株式会社グローバルハンズ（6030001057881）に合併し解散,2015-10-05,1,,,,,ストックサンジュウニ,0
65,1020001057251,登記記録の閉鎖等,0,2023-09-26,2023-09-15,株式会社ＭＡＳＴＡＭ,,株式会社,神奈川県,横浜市南区,日枝町５丁目１２７番地９,,14,105,2320011,,,2023-09-15,清算の結了等,,,2015-10-05,1,,,,,マスタム,0
77,1020002063315,登記記録の閉鎖等,0,2023-09-26,2023-09-15,有限会社エレックス,,有限会社,神奈川県,横浜市瀬谷区,東野７７番地,,14,114,2460012,,,2023-09-15,清算の結了等,,,2015-10-05,1,,,,,エレックス,0
85,1030002046541,登記記録の閉鎖等,0,2023-09-26,2023-08-30,有限会社岩根製作所,,有限会社,埼玉県,八潮市,大字西袋７８番地５,,11,234,3400833,,,2023-08-30,清算の結了等,,,2015-10-05,1,,,,,イワネセイサクショ,0
101,1050001036582,登記記録の閉鎖等,0,2023-09-26,2023-09-20,株式会社エッグドリーム八千代,,株式会社,茨城県,結城郡八千代町,大字菅谷８９８番１８,,08,521,3003572,,,2023-09-20,合併による解散等,8370201002412,令和５年９月１日宮城県加美郡色麻町黒沢字切付７番地の１０イセファーム東北株式会社（8370201002412）に合併し解散,2015-10-05,1,,,,,エッグドリームヤチヨ,0
107,1070005001861,登記記録の閉鎖等,0,2023-09-26,2023-09-22,特定非営利活動法人保険消費者支援センター,,その他の設立登記法人,群馬県,前橋市,鼻毛石町２００番地４３,,10,201,3710244,,,2023-09-22,清算の結了等,,,2015-10-05,1,,,,,ホケンショウヒシャシエンセンター,0
112,1080102006804,登記記録の閉鎖等,0,2023-09-26,2023-09-22,有限会社かまど薬局,,有限会社,静岡県,御殿場市,竈６５９番地の１１,,22,215,4120039,,,2023-09-22,合併による解散等,1140001023877,令和５年９月１日東京都港区港南二丁目１６番１号品川イーストワンタワー７階株式会社ミルキーファーマシー（1140001023877）に合併し解散,2015-10-05,1,,,,,カマドヤッキョク,0
132,1120005016350,登記記録の閉鎖等,0,2023-09-26,2023-09-20,一般社団法人ニュー５Ｓ普及協会,,その他の設立登記法人,大阪府,大阪市北区,西天満２丁目６－８堂島ビルヂング８１４,,27,127,5300047,,,2023-09-20,清算の結了等,,,2015-10-05,1,,,,,ニューゴエスフキュウキョウカイ,0
139,1130002003524,登記記録の閉鎖等,0,2023-09-26,2023-09-11,かつら有限会社,,有限会社,京都府,京都市北区,平野宮本町５１番地,,26,101,6038322,,,2023-09-11,清算の結了等,,,2015-10-05,1,,,,,カツラ,0
143,1140001117324,登記記録の閉鎖等,0,2023-09-26,2023-09-21,Ｓｏ－ｓｈａ株式会社,,株式会社,兵庫県,神戸市中央区,北長狭通４丁目２番１９号アムズ元町ビル４Ｆ３号室,,28,110,6500012,,,2023-09-21,清算の結了等,,,2020-05-18,1,,,,,ソシャ,0
159,1180001044300,登記記録の閉鎖等,0,2023-09-26,2023-09-22,名東通信株式会社,,株式会社,愛知県,名古屋市守山区,森孝２丁目９６８番地,,23,113,4630035,,,2023-09-22,清算の結了等,,,2015-10-05,1,,,,,メイトウツウシン,0
173,1210002000232,登記記録の閉鎖等,0,2023-09-26,2023-09-20,有限会社鮎川産業,,有限会社,福井県,福井市,鮎川町第３６号１０番地の１,,18,201,9103402,,,2023-09-20,清算の結了等,,,2015-10-05,1,,,,,アユカワサンギョウ,0
183,1260001009261,登記記録の閉鎖等,0,2023-09-26,2023-09-20,株式会社パティーラボ,,株式会社,岡山県,岡山市北区,一宮山崎３２１番地１,,33,101,7011203,,,2023-09-20,清算の結了等,,,2015-10-05,1,,,,,パティーラボ,0
188,1280002011306,登記記録の閉鎖等,0,2023-09-26,2023-09-19,木次燃料有限会社,,有限会社,島根県,雲南市,木次町木次１０番地１４,,32,209,6991332,,,2023-09-19,清算の結了等,,,2015-10-05,1,,,,,キスキネンリョウ,0
202,1310001000933,登記記録の閉鎖等,0,2023-09-26,2023-09-22,株式会社千寿,,株式会社,長崎県,長崎市,滑石４丁目６番４８号,,42,201,8528061,,,2023-09-22,清算の結了等,,,2015-10-05,1,,,,,センジュ,0
204,1320002019393,登記記録の閉鎖等,0,2023-09-26,2023-09-21,有限会社横尾工務店,,有限会社,大分県,日田市,大字高瀬７２８番地の６,,44,204,8770000,,,2023-09-21,清算の結了等,,,2015-10-05,1,,,,,,0
205,1330001015384,登記記録の閉鎖等,0,2023-09-26,2023-09-19,株式会社プラスファイブ,,株式会社,熊本県,天草市,五和町二江５４７番地,,43,215,8632421,,,2023-09-19,清算の結了等,,,2015-10-05,1,,,,,プラスファイブ,0
207,1330002011052,登記記録の閉鎖等,0,2023-09-26,2023-09-21,有限会社優智,,有限会社,熊本県,熊本市中央区,新大江２丁目１５番２３号,,43,101,8620972,,,2023-09-21,清算の結了等,,,2015-10-05,1,,,,,ユウチ,0
213,1340003003072,登記記録の閉鎖等,0,2023-09-26,2023-09-25,合同会社ＢＩＧＳＵＮｐｌｕｓ,,合同会社,鹿児島県,鹿児島市,中山１丁目１４－１７白石ビル４０２,,46,201,8910108,,,2023-09-25,清算の結了等,,,2020-04-16,1,,,,,,0
220,1370802001182,登記記録の閉鎖等,0,2023-09-26,2023-09-20,有限会社アイル,,有限会社,宮城県,亘理郡亘理町,字台田４６番地の３,,04,361,9892351,,,2023-09-20,清算の結了等,,,2015-10-05,1,,,,,アイル,0
229,1390001012392,登記記録の閉鎖等,0,2023-09-26,2023-09-22,株式会社コウセン,,株式会社,山形県,長井市,中道１丁目１１番６２－２３号,,06,209,9930053,,,2023-09-22,清算の結了等,,,2015-10-05,1,,,,,コウセン,0
233,1390002010800,登記記録の閉鎖等,0,2023-09-26,2023-09-21,有限会社菊地内装,,有限会社,山形県,新庄市,城南町９番１７号,,06,205,9960077,,,2023-09-21,清算の結了等,,,2015-10-05,1,,,,,キクチナイソウ,0
234,1390005000922,登記記録の閉鎖等,0,2023-09-26,2023-09-22,ふれあい生活協同組合,,その他の設立登記法人,山形県,山形市,七日町３丁目１番１６号,,06,201,9900042,,,2023-09-22,清算の結了等,,,2015-10-05,1,,,,,フレアイ,0
246,1480003001905,登記記録の閉鎖等,0,2023-09-26,2023-09-15,Ｅｘｃｅｅｄ　Ａｌｌ合同会社,,合同会社,徳島県,徳島市,大原町千代ケ丸山７－７２,,36,201,7708012,,,2023-09-15,清算の結了等,,,2022-12-19,1,,,,,イクシードオール,0
249,2010001066112,登記記録の閉鎖等,0,2023-09-26,2023-09-19,株式会社パンプキントラベル,,株式会社,東京都,千代田区,飯田橋３丁目４番６号,,13,101,1020072,,,2023-09-19,清算の結了等,,,2015-10-05,1,,,,,パンプキントラベル,0
250,2010001134892,登記記録の閉鎖等,0,2023-09-26,2023-09-19,株式会社Ｃａｓｓｉ,,株式会社,東京都,千代田区,九段北４丁目１番３号,,13,101,1020073,,,2023-09-19,清算の結了等,,,2015-10-05,1,,,,,カッシー,0
255,2010001181506,登記記録の閉鎖等,0,2023-09-26,2023-09-20,Ｗｅｄｇｅ　Ｔａｉｌ　Ｃｏｎｓｕｌｔｉｎｇ株式会社,,株式会社,東京都,世田谷区,深沢５丁目２４番１３号,,13,112,1580081,,,2023-09-20,清算の結了等,,,2017-02-15,1,,,,,ウエッジテイルコンサルティング,0
260,2010002044562,登記記録の閉鎖等,0,2023-09-26,2023-09-15,有限会社フライングカープ,,有限会社,東京都,千代田区,大手町１丁目２番１号,,13,101,1000004,,,2023-09-15,清算の結了等,,,2015-10-05,1,,,,,フライングカープ,0
267,2010401140870,登記記録の閉鎖等,0,2023-09-26,2023-09-01,株式会社ＴＯＭＯＲＲＯＷＩＮＧ,,株式会社,東京都,港区,南青山６丁目１０番９－１２０２号,,13,103,1070062,,,2023-09-01,清算の結了等,,,2018-09-20,1,,,,,トゥモローウィング,0
271,2010403021169,登記記録の閉鎖等,0,2023-09-26,2023-09-05,ヘルシープ合同会社,,合同会社,東京都,港区,浜松町２丁目２番１５号浜松町ダイヤビル２Ｆ,,13,103,1050013,,,2023-09-05,清算の結了等,,,2019-07-30,1,,,,,ヘルシープ,0
280,2010601062205,登記記録の閉鎖等,0,2023-09-26,2023-09-21,株式会社ＴＩＡＮＬＡＮ,,株式会社,東京都,墨田区,文花１丁目３４番１１号－４０２,,13,107,1310044,,,2023-09-21,清算の結了等,,,2022-11-25,1,,,,,ティアンラン,0
288,2010901032403,登記記録の閉鎖等,0,2023-09-26,2023-09-15,株式会社Ｅ＆ＩＳ,,株式会社,栃木県,宇都宮市,清原台５丁目３６番１２号,,09,201,3213223,,,2023-09-15,清算の結了等,,,2015-10-05,1,,,,,イーアンドアイエス,0
307,2011601002869,登記記録の閉鎖等,0,2023-09-26,2023-09-21,新富産業株式会社,,株式会社,東京都,練馬区,石神井台７丁目１５番５号,,13,120,1770045,,,2023-09-21,清算の結了等,,,2015-10-05,1,,,,,シントミサンギョウ,0
341,2030005018594,登記記録の閉鎖等,0,2023-09-26,2023-08-31,特定非営利活動法人キッズネスト,,その他の設立登記法人,埼玉県,富士見市,西みずほ台２丁目３番地７号－２Ｆ,,11,235,3540018,,,2023-08-31,清算の結了等,,,2017-07-19,1,,,,,キッズネスト,0
347,2040002052273,登記記録の閉鎖等,0,2023-09-26,2023-09-07,有限会社平和工業,,有限会社,千葉県,流山市,平和台４丁目６４番地１１,,12,220,2700157,,,2023-09-07,清算の結了等,,,2015-10-05,1,,,,,ヘイワコウギョウ,0
351,2060001021839,登記記録の閉鎖等,0,2023-09-26,2023-09-14,株式会社ＴＤＣプランニング,,株式会社,栃木県,宇都宮市,今宮４丁目１０番９号,,09,201,3210166,,,2023-09-14,清算の結了等,,,2015-10-05,1,,,,,ティーディーシープランニング,0
361,2120001101659,登記記録の閉鎖等,0,2023-09-26,2023-09-25,株式会社辻電気工事,00028761,株式会社,大阪府,大阪市住之江区,安立１丁目４番１８号,,27,125,5590003,,,2023-09-25,清算の結了等,,,2015-10-05,1,,,,,ツジデンキコウジ,0
364,2120001180661,登記記録の閉鎖等,0,2023-09-26,2023-09-13,株式会社ＷＢＩ,,株式会社,大阪府,寝屋川市,葛原１丁目３５番３号,,27,215,5720075,,,2023-09-13,清算の結了等,,,2015-10-05,1,,,,,,0
400,2140001077906,登記記録の閉鎖等,0,2023-09-26,2023-09-21,株式会社日新不動産販売,,株式会社,兵庫県,明石市,松の内２丁目１番１号、１０２号室,,28,203,6730016,,,2023-09-21,清算の結了等,,,2015-10-05,1,,,,,,0
408,2160002009831,登記記録の閉鎖等,0,2023-09-26,2023-09-25,有限会社ファーストプライズ,,有限会社,滋賀県,東近江市,五個荘竜田町１９３番地,,25,213,5291421,,,2023-09-25,清算の結了等,,,2015-10-05,1,,,,,ファーストプライズ,0
410,2180001024425,登記記録の閉鎖等,0,2023-09-26,2023-09-22,株式会社モリブン,,株式会社,愛知県,名古屋市天白区,高坂町３３１番地,,23,116,4680025,,,2023-09-22,清算の結了等,,,2015-10-05,1,,,,,モリブン,0
412,2180001045487,登記記録の閉鎖等,0,2023-09-26,2023-09-20,株式会社大一製作所,,株式会社,愛知県,清須市,寺野元町１００番地,,23,233,4520908,,,2023-09-20,清算の結了等,,,2015-10-05,1,,,,,ダイイチセイサクジョ,0
415,2180001082506,登記記録の閉鎖等,0,2023-09-26,2023-09-21,壽株式会社,,株式会社,愛知県,一宮市,高田字池ノ川３７番地の１,,23,203,4910125,,,2023-09-21,清算の結了等,,,2015-10-05,1,,,,,コトブキ,0
421,2180002092355,登記記録の閉鎖等,0,2023-09-26,2023-09-20,有限会社中部商会,,有限会社,愛知県,海部郡大治町,大字砂子字堂地７９９番地の１０,,23,424,4901143,,,2023-09-20,清算の結了等,,,2015-10-05,1,,,,,チュウブショウカイ,0
439,2260001013956,登記記録の閉鎖等,0,2023-09-26,2023-09-25,株式会社滝沢正雄商店,,株式会社,岡山県,倉敷市,玉島７７８番地の２,,33,202,7138102,,,2023-09-25,清算の結了等,,,2015-10-05,1,,,,,タキザワマサオショウテン,0
442,2280001004508,登記記録の閉鎖等,0,2023-09-26,2023-09-20,宮脇グレイズ島根株式会社,,株式会社,島根県,江津市,浅利町２９番地１２,,32,207,6950002,,,2023-09-20,合併による解散等,6180301015913,令和５年９月１日愛知県高浜市青木町一丁目２番地１宮脇グレイズ工業株式会社（6180301015913）に合併し解散,2015-10-05,1,,,,,ミヤワキグレイズシマネ,0
456,2350001016891,登記記録の閉鎖等,0,2023-09-26,2023-09-12,東九アグリ株式会社,,株式会社,宮崎県,児湯郡川南町,大字川南８１１５番地４,,45,405,8891301,,,2023-09-12,清算の結了等,,,2021-02-12,1,,,,,トウキュウアグリ,0
461,2370001005463,登記記録の閉鎖等,0,2023-09-26,2023-09-19,大伸産業株式会社,,株式会社,宮城県,仙台市宮城野区,新田２丁目１番３３号,,04,102,9830038,,,2023-09-19,清算の結了等,,,2015-10-05,1,,,,,,0
467,2430001040652,登記記録の閉鎖等,0,2023-09-26,2023-09-08,株式会社不動産カウンセラー北海道,,株式会社,北海道,札幌市中央区,大通西８丁目２番地,,01,101,0600042,,,2023-09-08,清算の結了等,,,2015-10-05,1,,,,,フドウサンカウンセラーホッカイドウ,0
483,3010001095366,登記記録の閉鎖等,0,2023-09-26,2023-09-19,ゴールデンゲート・コンサルティング株式会社,,株式会社,東京都,中央区,佃２丁目１番１－１４０５号,,13,102,1040051,,,2023-09-19,清算の結了等,,,2015-10-05,1,,,,,ゴールデンゲートコンサルティング,0
494,3010002044561,登記記録の閉鎖等,0,2023-09-26,2023-09-15,有限会社ウィッシュボーン,,有限会社,東京都,千代田区,大手町１丁目２番１号,,13,101,1000004,,,2023-09-15,清算の結了等,,,2015-10-05,1,,,,,ウィッシュボーン,0
506,3010401166403,登記記録の閉鎖等,0,2023-09-26,2023-09-04,ジェイマルシェ株式会社,,株式会社,東京都,港区,南青山２丁目２番１５号ウィン青山９４２,,13,103,1070062,,,2023-09-04,清算の結了等,,,2022-04-01,1,,,,,ジェイマルシェ,0
508,3010402022638,登記記録の閉鎖等,0,2023-09-26,2023-09-01,有限会社麹町ホールディングズ,,有限会社,東京都,港区,新橋２丁目２番９号,,13,103,1050004,,,2023-09-01,清算の結了等,,,2015-10-05,1,,,,,コウジマチホールディングズ,0
512,3010601000114,登記記録の閉鎖等,0,2023-09-26,2023-09-21,安達管材株式会社,,株式会社,東京都,江東区,南砂５丁目１３番７号,,13,108,1360076,,,2023-09-21,清算の結了等,,,2015-10-05,1,,,,,アダチカンザイ,0
515,3010701009971,登記記録の閉鎖等,0,2023-09-26,2023-09-21,有線テレビサービス株式会社,,株式会社,東京都,品川区,南大井６丁目５番１１号,,13,109,1400013,,,2023-09-21,清算の結了等,,,2015-10-05,1,,,,,ユウセンテレビサービス,0
528,3011003012350,登記記録の閉鎖等,0,2023-09-26,2023-09-21,合同会社希望,,合同会社,東京都,渋谷区,神山町七丁目８番,,13,113,1500047,,,2023-09-21,清算の結了等,,,2021-03-03,1,,,,,キボウ,0
539,3011501001094,登記記録の閉鎖等,0,2023-09-26,2023-09-19,協和機材株式会社,,株式会社,東京都,杉並区,成田西３丁目１０番３０号,,13,115,1660016,,,2023-09-19,清算の結了等,,,2015-10-05,1,,,,,,0
545,3012401000780,登記記録の閉鎖等,0,2023-09-26,2023-09-22,株式会社植寿園,,株式会社,東京都,府中市,朝日町１丁目２０番地,,13,206,1830003,,,2023-09-22,清算の結了等,,,2015-10-05,1,,,,,ショクジュエン,0
556,3020001055831,登記記録の閉鎖等,0,2023-09-26,2023-09-15,株式会社中央物販社,,株式会社,神奈川県,横浜市戸塚区,上矢部町３２０番２－７０１号,,14,110,2450053,,,2023-09-15,清算の結了等,,,2015-10-05,1,,,,,チュウオウブッパンシャ,0
565,3020002013755,登記記録の閉鎖等,0,2023-09-26,2023-09-15,有限会社音翔,,有限会社,神奈川県,横浜市青葉区,千草台５１番地１－１－３０８号,,14,117,2270051,,,2023-09-15,清算の結了等,,,2015-10-05,1,,,,,オンショウ,0
583,3030005003133,登記記録の閉鎖等,0,2023-09-26,2023-08-31,埼玉スクリーン・デジタル印刷匠協同組合,,その他の設立登記法人,埼玉県,八潮市,大字浮塚８００番地,,11,234,3400835,,,2023-08-31,清算の結了等,,,2015-10-05,1,,,,,サイタマスクリーンデジタルインサツタクミ,0
584,3040001061662,登記記録の閉鎖等,0,2023-09-26,2023-09-04,旭栄水産株式会社,,株式会社,千葉県,旭市,鎌数９２３７番地の２,,12,215,2892505,,,2023-09-04,清算の結了等,,,2015-10-05,1,,,,,キョクエイスイサン,0
593,3040002066272,登記記録の閉鎖等,0,2023-09-26,2023-09-07,有限会社尾形板金,,有限会社,千葉県,木更津市,十日市場７９番１６号,,12,206,2920025,,,2023-09-07,清算の結了等,,,2015-10-05,1,,,,,オガタバンキン,0
597,3050001006872,登記記録の閉鎖等,0,2023-09-26,2023-09-21,株式会社大水,,株式会社,東京都,練馬区,小竹町１丁目１１番２号,,13,120,1760004,,,2023-09-21,清算の結了等,,,2015-10-05,1,,,,,ダイスイ,0
598,3060003003124,登記記録の閉鎖等,0,2023-09-26,2023-09-04,合同会社Ｍｉｙｏｓｈｉｋｉコーポレーション,,合同会社,東京都,港区,麻布十番２丁目２１番４号１Ｆ,,13,103,1060045,,,2023-09-04,清算の結了等,,,2019-05-31,1,,,,,ミヨシキコーポレーション,0
601,3070002016092,登記記録の閉鎖等,0,2023-09-26,2023-09-22,有限会社大河原プラスチック,,有限会社,群馬県,富岡市,南蛇井５７０番地１,,10,210,3702464,,,2023-09-22,清算の結了等,,,2015-10-05,1,,,,,オオカワラプラスチック,0
605,3080002002604,登記記録の閉鎖等,0,2023-09-26,2023-09-25,新都運送有限会社,,有限会社,静岡県,静岡市駿河区,中田４丁目７番１号,,22,102,4228041,,,2023-09-25,清算の結了等,,,2015-10-05,1,,,,,シントウンソウ,0
608,3110002004539,登記記録の閉鎖等,0,2023-09-26,2023-09-25,中川開発有限会社,,有限会社,新潟県,新潟市中央区,近江３丁目２１番１６号,,15,103,9500971,,,2023-09-25,清算の結了等,,,2015-10-05,1,,,,,ナカガワカイハツ,0
628,3120901037398,登記記録の閉鎖等,0,2023-09-26,2023-09-21,株式会社米山,,株式会社,大阪府,高槻市,本町１番１２号,,27,207,5690074,,,2023-09-21,合併による解散等,4130001054598,令和５年９月１日京都市下京区上柳町３１９番地３株式会社てくてく京都（4130001054598）に合併し解散,2016-09-07,1,,,,,ヨネヤマ,0
640,3140001058327,登記記録の閉鎖等,0,2023-09-26,2023-09-21,株式会社勝原薬局,,株式会社,兵庫県,姫路市,神屋町６丁目８２番地２,,28,201,6700836,,,2023-09-21,合併による解散等,5010401134779,令和５年９月１日東京都港区虎ノ門四丁目３番１号城山トラストタワー３７階クオール株式会社（5010401134779）に合併し解散,2015-10-05,1,,,,,カツハラヤッキョク,0
646,3160001021729,登記記録の閉鎖等,0,2023-09-26,2023-09-25,株式会社紬,,株式会社,滋賀県,守山市,守山６丁目８番１４－１号,,25,207,5240022,,,2023-09-25,清算の結了等,,,2019-06-11,1,,,,,ツムギ,0
648,3170001016117,登記記録の閉鎖等,0,2023-09-26,2023-09-22,株式会社エアマーク,,株式会社,和歌山県,和歌山市,秋月１９８番地１４,,30,201,6408322,,,2023-09-22,清算の結了等,,,2020-06-05,1,,,,,エアマーク,0
654,3180001130429,登記記録の閉鎖等,0,2023-09-26,2023-09-20,株式会社マミーマミー,,株式会社,愛知県,名古屋市東区,泉１丁目１４番１８号,,23,102,4610001,,,2023-09-20,清算の結了等,,,2017-12-11,1,,,,,マミーマミー,0
659,3180002009119,登記記録の閉鎖等,0,2023-09-26,2023-09-20,有限会社アサノ銘木,,有限会社,愛知県,名古屋市瑞穂区,桃園町３番２３号,,23,108,4670855,,,2023-09-20,清算の結了等,,,2015-10-05,1,,,,,アサノメイボク,0
665,3180005002582,登記記録の閉鎖等,0,2023-09-26,2023-09-22,医療法人東光会,,その他の設立登記法人,愛知県,名古屋市東区,代官町３番２号,,23,102,4610002,,,2023-09-22,清算の結了等,,,2015-10-05,1,,,,,トウコウカイ,0
666,3180005018793,登記記録の閉鎖等,0,2023-09-26,2023-09-21,一般社団法人日本良品推進協会,,その他の設立登記法人,愛知県,名古屋市南区,加福本通３丁目７０ムツミビル２０１,,23,112,4570836,,,2023-09-21,清算の結了等,,,2020-05-18,1,,,,,ニホンリョウヒンスイシンキョウカイ,0
676,3220002010385,登記記録の閉鎖等,0,2023-09-26,2023-09-21,有限会社オオサカ建築事務所,,有限会社,石川県,小松市,高堂町ト４６番地１,,17,203,9230031,,,2023-09-21,清算の結了等,,,2015-10-05,1,,,,,オオサカケンチクジムショ,0
679,3240001008817,登記記録の閉鎖等,0,2023-09-26,2023-09-21,株式会社白築鑑定事務所,,株式会社,広島県,広島市中区,上幟町３番２５号,,34,101,7300014,,,2023-09-21,清算の結了等,,,2015-10-05,1,,,,,シラツキカンテイジムショ,0
691,3270005000107,登記記録の閉鎖等,0,2023-09-26,2023-09-13,医療法人かんべ皮膚科クリニック,,その他の設立登記法人,鳥取県,鳥取市,永楽温泉町４５９番地,,31,201,6800834,,,2023-09-13,清算の結了等,,,2015-10-05,1,,,,,カンベヒフカクリニック,0
694,3290001034024,登記記録の閉鎖等,0,2023-09-26,2023-09-15,株式会社エコアッシュホールディングス,,株式会社,熊本県,天草郡苓北町,内田１７４番地１,,43,531,8632505,,,2023-09-15,清算の結了等,,,2015-10-05,1,,,,,エコアッシュホールディングス,0
711,3340002006784,登記記録の閉鎖等,0,2023-09-26,2023-09-25,有限会社内装ニッケン,,有限会社,鹿児島県,鹿児島市,城西１丁目５番９号,,46,201,8900041,,,2023-09-25,清算の結了等,,,2015-10-05,1,,,,,ナイソウニッケン,0
713,3340002019175,登記記録の閉鎖等,0,2023-09-26,2023-09-22,有限会社青山オートクリーンリミテッド,,有限会社,鹿児島県,西之表市,西之表７５９２番地３,,46,213,8913101,,,2023-09-22,清算の結了等,,,2015-10-05,1,,,,,アオヤマオートクリーンリミテッド,0
727,3390001014180,登記記録の閉鎖等,0,2023-09-26,2023-09-22,株式会社ももた不動産,,株式会社,山形県,山形市,嶋南２丁目９番４１号,,06,201,9900886,,,2023-09-22,清算の結了等,,,2015-10-05,1,,,,,モモタフドウサン,0
734,3430002050476,登記記録の閉鎖等,0,2023-09-26,2023-09-11,有限会社三笠オートガラス,,有限会社,北海道,三笠市,萱野５３１番地１２,,01,222,0682166,,,2023-09-11,清算の結了等,,,2015-10-05,1,,,,,,0
737,3460402000474,登記記録の閉鎖等,0,2023-09-26,2023-09-25,有限会社マルオおぬま商店,,有限会社,北海道,根室市,温根沼２６３番地２,,01,223,0870035,,,2023-09-25,清算の結了等,,,2015-10-05,1,,,,,マルオオヌマショウテン,0
744,4010002044560,登記記録の閉鎖等,0,2023-09-26,2023-09-15,有限会社ドリームキャッチャー,,有限会社,東京都,千代田区,大手町１丁目２番１号,,13,101,1000004,,,2023-09-15,清算の結了等,,,2015-10-05,1,,,,,ドリームキャッチャー,0
750,4010401099602,登記記録の閉鎖等,0,2023-09-26,2023-09-21,ワールドイズワン株式会社,,株式会社,東京都,品川区,戸越１丁目６番７号,,13,109,1420041,,,2023-09-21,清算の結了等,,,2015-10-05,1,,,,,ワールドイズワン,0
755,4010402026638,登記記録の閉鎖等,0,2023-09-26,2023-09-04,有限会社ディア・ケイ・アイ,,有限会社,東京都,港区,六本木１丁目６番１号,,13,103,1060032,,,2023-09-04,清算の結了等,,,2015-10-05,1,,,,,ディアケイアイ,0
756,4010405019498,登記記録の閉鎖等,0,2023-09-26,2023-09-14,一般社団法人カミイケブクロ,,その他の設立登記法人,東京都,港区,赤坂２丁目１０番５号税理士法人赤坂国際会計事務所内,,13,103,1070052,,,2023-09-14,清算の結了等,,,2021-02-18,1,,,,,カミイケブクロ,0
767,4011001068518,登記記録の閉鎖等,0,2023-09-26,2023-09-22,株式会社Ａｎｎ　Ｂｏｏｋｓ．,,株式会社,東京都,渋谷区,恵比寿３丁目４３番７－１００３号,,13,113,1500013,,,2023-09-22,清算の結了等,,,2015-10-05,1,,,,,アンブックス,0
773,4011101012862,登記記録の閉鎖等,0,2023-09-26,2023-09-21,地球質株式会社,,株式会社,東京都,新宿区,新宿１丁目３６番２号新宿第七葉山ビル３階,,13,104,1600022,,,2023-09-21,清算の結了等,,,2015-10-05,1,,,,,チキュウシツ,0
779,4011401000939,登記記録の閉鎖等,0,2023-09-26,2023-09-19,株式会社エスピーセンター,,株式会社,東京都,練馬区,小竹町２丁目８０番６号４階,,13,120,1760004,,,2023-09-19,清算の結了等,,,2015-10-05,1,,,,,エスピーセンター,0
805,4040001009198,登記記録の閉鎖等,0,2023-09-26,2023-09-08,株式会社絹,,株式会社,千葉県,千葉市中央区,長洲１丁目１０番１３号,,12,101,2600854,,,2023-09-08,清算の結了等,,,2015-10-05,1,,,,,キヌ,0
816,4070002019805,登記記録の閉鎖等,0,2023-09-26,2023-09-21,有限会社マルタケ,,有限会社,群馬県,伊勢崎市,除ケ町４１２番地３,,10,204,3720832,,,2023-09-21,清算の結了等,,,2015-10-05,1,,,,,マルタケ,0
818,4070003003618,登記記録の閉鎖等,0,2023-09-26,2023-09-20,合同会社ｋａｂｏ,,合同会社,群馬県,高崎市,上並榎町２６番地２,,10,202,3700801,,,2023-09-20,清算の結了等,,,2019-11-27,1,,,,,カボ,0
819,4080001019342,登記記録の閉鎖等,0,2023-09-26,2023-09-22,信誠サービス株式会社,,株式会社,静岡県,駿東郡清水町,八幡１００番地の２,,22,341,4110906,,,2023-09-22,清算の結了等,,,2015-10-05,1,,,,,シンセイサービス,0
824,4090002014201,登記記録の閉鎖等,0,2023-09-26,2023-09-22,有限会社ツーリスト山梨,,有限会社,山梨県,北杜市,長坂町長坂上条２３０４番地１,,19,209,4080021,,,2023-09-22,清算の結了等,,,2015-10-05,1,,,,,ツーリストヤマナシ,0
826,4110001024487,登記記録の閉鎖等,0,2023-09-26,2023-09-21,隆和株式会社,,株式会社,新潟県,長岡市,平１丁目１番５５号,,15,202,9400137,,,2023-09-21,清算の結了等,,,2015-10-05,1,,,,,タカナワ,0
853,4120901006006,登記記録の閉鎖等,0,2023-09-26,2023-09-11,株式会社河内土木,,株式会社,大阪府,吹田市,千里山西５丁目４０番１０号,,27,205,5650851,,,2023-09-11,清算の結了等,,,2015-10-05,1,,,,,カワウチドボク,0
862,4130002021721,登記記録の閉鎖等,0,2023-09-26,2023-09-12,有限会社織の弘彩,,有限会社,京都府,京都市北区,平野上八丁柳町１番地,,26,101,6038353,,,2023-09-12,清算の結了等,,,2015-10-05,1,,,,,オリノコウサイ,0
871,4140003017800,登記記録の閉鎖等,0,2023-09-26,2023-09-19,合同会社ＲＩＯＴＯＡＯ,,合同会社,兵庫県,淡路市,岩屋１７４５番２０,,28,226,6562401,,,2023-09-19,清算の結了等,,,2022-06-22,1,,,,,リオトアオ,0
880,4180001062984,登記記録の閉鎖等,0,2023-09-26,2023-09-22,株式会社サトウ自動車,,株式会社,愛知県,名古屋市中村区,京田町１丁目２５番地の１,,23,105,4530816,,,2023-09-22,清算の結了等,,,2015-10-05,1,,,,,サトウジドウシャ,0
885,4180003004299,登記記録の閉鎖等,0,2023-09-26,2023-09-20,合資会社金山商店,,合資会社,愛知県,名古屋市中村区,五反城町１丁目６３番地,,23,105,4530836,,,2023-09-20,清算の結了等,,,2015-10-05,1,,,,,カナヤマショウテン,0
908,4280003001600,登記記録の閉鎖等,0,2023-09-26,2023-09-21,合同会社ｗａｋａｍａｉ,,合同会社,島根県,出雲市,湖陵町二部１４２８－１,,32,203,6990812,,,2023-09-21,清算の結了等,,,2022-04-11,1,,,,,ワカマイ,0
921,4370001044708,登記記録の閉鎖等,0,2023-09-26,2023-09-19,株式会社ライジング,,株式会社,宮城県,仙台市泉区,松森字明神２６番５号ペアフィールドタウンＢ１０１,,04,105,9813111,,,2023-09-19,清算の結了等,,,2019-08-05,1,,,,,,0
923,4370002017456,登記記録の閉鎖等,0,2023-09-26,2023-09-15,有限会社ソーケンテクノシステム,,有限会社,宮城県,仙台市泉区,加茂２丁目３０番地の４,,04,105,9813122,,,2023-09-15,清算の結了等,,,2015-10-05,1,,,,,ソーケンテクノシステム,0
933,4430001009159,登記記録の閉鎖等,0,2023-09-26,2023-09-07,株式会社総和サービス,,株式会社,北海道,札幌市東区,丘珠町５８８番地１,,01,103,0070880,,,2023-09-07,清算の結了等,,,2015-10-05,1,,,,,ソウワサービス,0
936,4430002052249,登記記録の閉鎖等,0,2023-09-26,2023-09-08,有限会社さいとう商店,,有限会社,北海道,芦別市,南一条東２丁目１３番地,,01,216,0750031,,,2023-09-08,清算の結了等,,,2015-10-05,1,,,,,サイトウショウテン,0
951,5010001201418,登記記録の閉鎖等,0,2023-09-26,2023-09-19,株式会社サブスコア,,株式会社,東京都,千代田区,神田練塀町３番地,,13,101,1010022,,,2023-09-19,清算の結了等,,,2019-06-12,1,,,,,サブスコア,0
954,5010001208198,登記記録の閉鎖等,0,2023-09-26,2023-09-19,Ｏｐｔｉｍａ　Ｈｅａｌｔｈ株式会社,,株式会社,東京都,千代田区,大手町１丁目４番２号,,13,101,1000004,,,2023-09-19,合併による解散等,9010001205068,令和５年９月１９日東京都千代田区大手町一丁目４番２号Ｇｌｏｂａｌ　Ｈｏｓｐｉｔａｌ　Ｍａｎａｇｅｍｅｎｔ株式会社（9010001205068）に合併し解散,2020-03-12,1,,,,,オプティマヘルス,0
964,5010401113675,登記記録の閉鎖等,0,2023-09-26,2023-09-04,株式会社ＪＥ商事,,株式会社,東京都,港区,赤坂６丁目４番１８号プリンストン赤坂４０４号,,13,103,1070052,,,2023-09-04,清算の結了等,,,2015-10-05,1,,,,,ジェーイーショウジ,0
979,5010802011809,登記記録の閉鎖等,0,2023-09-26,2023-09-22,有限会社播谷歯車製作所,,有限会社,東京都,大田区,中央８丁目２０番１３号,,13,111,1430024,,,2023-09-22,清算の結了等,,,2015-10-05,1,,,,,ハリヤハグルマセイサクジョ,0
993,5011005007504,登記記録の閉鎖等,0,2023-09-26,2023-09-21,一般社団法人健康経営推進産業医会,,その他の設立登記法人,東京都,渋谷区,恵比寿１丁目３２番１５号メゾン・ド・ヴィレ恵比寿１０２,,13,113,1500013,,,2023-09-21,清算の結了等,,,2018-01-24,1,,,,,ケンコウケイエイスイシンサギョウイカイ,0
1002,5011501016636,登記記録の閉鎖等,0,2023-09-26,2023-09-15,株式会社東京藤ト,,株式会社,東京都,北区,中里１丁目１５番１０号ペルレ駒込１０１号,,13,117,1140015,,,2023-09-15,清算の結了等,,,2015-10-05,1,,,,,トウキョウフジト,0
1003,5011502003567,登記記録の閉鎖等,0,2023-09-26,2023-09-15,有限会社武石,,有限会社,東京都,北区,滝野川７丁目２１番３－１０７号,,13,117,1140023,,,2023-09-15,清算の結了等,,,2015-10-05,1,,,,,タケイシ,0
1029,5030001108792,登記記録の閉鎖等,0,2023-09-26,2023-08-31,株式会社ＡＯＳＩＮメンテナンス,,株式会社,埼玉県,さいたま市見沼区,深作３丁目３３番地１９号,,11,104,3370003,,,2023-08-31,清算の結了等,,,2015-10-05,1,,,,,アオシンメンテナンス,0
1037,5030002075925,登記記録の閉鎖等,0,2023-09-26,2023-08-30,有限会社サンアイ,,有限会社,埼玉県,ふじみ野市,南台１丁目９番１５号,,11,245,3560036,,,2023-08-30,清算の結了等,,,2015-10-05,1,,,,,サンアイ,0
1039,5030002087648,登記記録の閉鎖等,0,2023-09-26,2023-08-31,有限会社秀産業,,有限会社,埼玉県,越谷市,南越谷１丁目５番４７号,,11,222,3430845,,,2023-08-31,清算の結了等,,,2015-10-05,1,,,,,シュウサンギョウユウ,0
1047,5040002018767,登記記録の閉鎖等,0,2023-09-26,2023-09-22,有限会社ナラシノコンタクト,,有限会社,千葉県,習志野市,大久保１丁目２６番１８号,,12,216,2750011,,,2023-09-22,合併による解散等,1140001023877,令和５年９月１日東京都港区港南二丁目１６番１号品川イーストワンタワー７階株式会社ミルキーファーマシー（1140001023877）に合併し解散,2015-10-05,1,,,,,ナラシノコンタクト,0
1048,5040002038567,登記記録の閉鎖等,0,2023-09-26,2023-09-08,有限会社盟友興建,,有限会社,千葉県,鎌ケ谷市,南初富３丁目４番１９号,,12,224,2730123,,,2023-09-08,清算の結了等,,,2015-10-05,1,,,,,メイユウコウケン,0
1055,5050001016795,登記記録の閉鎖等,0,2023-09-26,2023-09-15,株式会社千夢堂,,株式会社,茨城県,つくば市,自由ケ丘５０９番地の４９,,08,220,3001266,,,2023-09-15,清算の結了等,,,2015-10-05,1,,,,,センムドウ,0
1056,5050001024831,登記記録の閉鎖等,0,2023-09-26,2023-09-25,常陸開発株式会社,,株式会社,広島県,広島市中区,八丁堀１番８－３０１号,,34,101,7300013,,,2023-09-25,清算の結了等,,,2015-10-05,1,,,,,ヒタチカイハツ,0
1069,5100002034097,登記記録の閉鎖等,0,2023-09-26,2023-09-14,株式会社サンメックジャパン,,株式会社,長野県,駒ヶ根市,下平２９２番地８,,20,210,3994101,,,2023-09-14,清算の結了等,,,2015-10-05,1,,,,,サンメックジャパン,0
1071,5100005006721,登記記録の閉鎖等,0,2023-09-26,2023-09-13,みさとガス事業協同組合,,その他の設立登記法人,長野県,安曇野市,堀金烏川２６５３番地１,,20,220,3998211,,,2023-09-13,清算の結了等,,,2015-10-05,1,,,,,ミサトガス,0
1075,5110002029195,登記記録の閉鎖等,0,2023-09-26,2023-09-21,有限会社マルシン,,有限会社,新潟県,長岡市,表町２丁目３番地１１－１４０６,,15,202,9400071,,,2023-09-21,清算の結了等,,,2015-10-05,1,,,,,マルシン,0
1076,5110002034328,登記記録の閉鎖等,0,2023-09-26,2023-09-22,有限会社花月ホテル,,有限会社,新潟県,佐渡市,両津夷２６２番地１７,,15,224,9520011,,,2023-09-22,清算の結了等,,,2015-10-05,1,,,,,,0
1077,5110005000608,登記記録の閉鎖等,0,2023-09-26,2023-09-22,医療法人社団片桐歯科医院,,その他の設立登記法人,新潟県,新潟市中央区,東大通１丁目２番２５号,,15,103,9500087,,,2023-09-22,清算の結了等,,,2015-10-05,1,,,,,カタギリシカイイン,0
1078,5120001045985,登記記録の閉鎖等,0,2023-09-26,2023-09-13,株式会社中井商店,,株式会社,大阪府,大阪市西区,九条南３丁目３０番３号,,27,106,5500025,,,2023-09-13,清算の結了等,,,2015-10-05,1,,,,,ナカイショウテン,0
1112,5150002011067,登記記録の閉鎖等,0,2023-09-26,2023-09-25,有限会社阪本建材,,有限会社,奈良県,五條市,田園１丁目４番地の１４,,29,207,6370093,,,2023-09-25,清算の結了等,,,2015-10-05,1,,,,,,0
1137,5220002004708,登記記録の閉鎖等,0,2023-09-26,2023-09-22,有限会社花ぞの食堂,,有限会社,石川県,金沢市,二日市町ヘ２０８番地,,17,201,9200107,,,2023-09-22,清算の結了等,,,2015-10-05,1,,,,,ハナゾノショクドウ,0
1138,5220005002576,登記記録の閉鎖等,0,2023-09-26,2023-09-25,協同組合金沢ミートプロダクツ,,その他の設立登記法人,石川県,金沢市,才田町戊３２１番地７,,17,201,9203101,,,2023-09-25,清算の結了等,,,2015-10-05,1,,,,,カナザワミートプロダクツ,0
1154,5320001005399,登記記録の閉鎖等,0,2023-09-26,2023-09-22,株式会社興和,,株式会社,大分県,大分市,坂ノ市南４丁目８番２０－１号,,44,201,8700308,,,2023-09-22,清算の結了等,,,2015-10-05,1,,,,,,0
1156,5320002005051,登記記録の閉鎖等,0,2023-09-26,2023-09-22,有限会社ナショナル建設,,有限会社,大分県,大分市,大字下郡４７７番地,,44,201,8700951,,,2023-09-22,清算の結了等,,,2015-10-05,1,,,,,ナショナルケンセツ,0
1159,5340001010133,登記記録の閉鎖等,0,2023-09-26,2023-09-21,徳之島建機リース株式会社,,株式会社,鹿児島県,大島郡伊仙町,大字糸木名１９０番地５,,46,532,8918324,,,2023-09-21,清算の結了等,,,2015-10-05,1,,,,,トクノシマケンキリース,0
1160,5350005000988,登記記録の閉鎖等,0,2023-09-26,2023-09-13,医療法人アイリス朝陽会,,その他の設立登記法人,宮崎県,宮崎市,吉村町大町甲１９１９番地６,,45,201,8800841,,,2023-09-13,清算の結了等,,,2015-10-05,1,,,,,アイリスチョウヨウカイ,0
1174,5420001004820,登記記録の閉鎖等,0,2023-09-26,2023-09-21,株式会社フローリッシュ,,株式会社,青森県,青森市,橋本２丁目５番１２号,,02,201,0300823,,,2023-09-21,清算の結了等,,,2015-10-05,1,,,,,,0
1177,5430003004990,登記記録の閉鎖等,0,2023-09-26,2023-09-12,合同会社オフィストミモト,,合同会社,北海道,札幌市豊平区,中の島一条１丁目２番７号カサパラシオン２０１号,,01,105,0620921,,,2023-09-12,清算の結了等,,,2015-10-05,1,,,,,オフィストミモト,0
1206,6010002010206,登記記録の閉鎖等,0,2023-09-26,2023-09-15,有限会社サロン・ド・いしい,,有限会社,東京都,千代田区,神田駿河台４丁目３番地,,13,101,1010062,,,2023-09-15,清算の結了等,,,2015-10-05,1,,,,,サロンドイシイ,0
1209,6010401065305,登記記録の閉鎖等,0,2023-09-26,2023-09-04,株式会社Ｅｚｅ・Ｊａｐａｎ,,株式会社,東京都,港区,六本木４丁目２番４１－３０３号,,13,103,1060032,,,2023-09-04,清算の結了等,,,2015-10-05,1,,,,,エズジャパン,0
1226,6011001044491,登記記録の閉鎖等,0,2023-09-26,2023-09-22,株式会社デルファイサウンド,,株式会社,東京都,渋谷区,代官山町１４番２３号,,13,113,1500034,,,2023-09-22,合併による解散等,2013301025670,令和５年７月１日東京都豊島区南大塚二丁目３７番５号ＰＴＷジャパン株式会社（2013301025670）に合併し解散,2015-10-05,1,,,,,デルファイサウンド,0
1230,6011001057320,登記記録の閉鎖等,0,2023-09-26,2023-09-20,株式会社ミックジャパン,,株式会社,東京都,渋谷区,東３丁目１５番８号,,13,113,1500011,,,2023-09-20,清算の結了等,,,2015-10-05,1,,,,,ミックジャパン,0
1243,6011005008798,登記記録の閉鎖等,0,2023-09-26,2023-09-19,一般社団法人店舗づくりフードアドバイザー協会,,その他の設立登記法人,東京都,渋谷区,恵比寿西２丁目６番１４号１１４,,13,113,1500021,,,2023-09-19,清算の結了等,,,2020-10-27,1,,,,,テンポヅクリフードアドバイザーキョウカイ,0
1244,6011101031233,登記記録の閉鎖等,0,2023-09-26,2023-09-21,ＪＳＥＥホールディングス株式会社,,株式会社,東京都,新宿区,西新宿２丁目１番１号,,13,104,1600023,,,2023-09-21,合併による解散等,1290001021809,令和５年９月１日福岡市博多区下川端町３番１号ジェイエムテクノロジー株式会社（1290001021809）に合併し解散,2015-10-05,1,,,,,ジェイエスイーイーホールディングス,0
1252,6011501002008,登記記録の閉鎖等,0,2023-09-26,2023-09-15,株式会社ジーアンドジー,,株式会社,東京都,北区,中里１丁目１８番６号,,13,117,1140015,,,2023-09-15,清算の結了等,,,2015-10-05,1,,,,,ジーアンドジー,0
1264,6013101008384,登記記録の閉鎖等,0,2023-09-26,2023-09-25,エフラボ株式会社,,株式会社,東京都,青梅市,野上町４丁目４番地の７レオネクストコスモス１０５,,13,205,1980032,,,2023-09-25,清算の結了等,,,2020-06-23,1,,,,,エフラボ,0
1265,6013301036004,登記記録の閉鎖等,0,2023-09-26,2023-09-21,スカイビル東京株式会社,,株式会社,東京都,江東区,福住１丁目１３番７号,,13,108,1350032,,,2023-09-21,清算の結了等,,,2015-10-05,1,,,,,スカイビルトウキョウ,0
1274,6020002032760,登記記録の閉鎖等,0,2023-09-26,2023-09-15,有限会社エムアイシー,,有限会社,神奈川県,横浜市港北区,綱島西２丁目１３番７－３０３号,,14,109,2230053,,,2023-09-15,清算の結了等,,,2015-10-05,1,,,,,エムアイシー,0
1276,6020003019220,登記記録の閉鎖等,0,2023-09-26,2023-09-15,ｅｓｓｅｎｔｉａｌ合同会社,,合同会社,神奈川県,横浜市旭区,四季美台２１番地１,,14,112,2410025,,,2023-09-15,清算の結了等,,,2021-02-05,1,,,,,エッセンシャル,0
1281,6030001010675,登記記録の閉鎖等,0,2023-09-26,2023-09-12,Ｔ＆Ｄカスタマーサービス株式会社,,株式会社,埼玉県,さいたま市浦和区,針ヶ谷４丁目２番１８号,,11,107,3300075,,,2023-09-12,清算の結了等,,,2015-10-05,1,,,,,ティアンドディカスタマーサービス,0
1313,6060002037450,登記記録の閉鎖等,0,2023-09-26,2023-09-15,有限会社ジャスラック,,有限会社,栃木県,足利市,八幡町２丁目２２番地３,,09,202,3260824,,,2023-09-15,清算の結了等,,,2015-10-05,1,,,,,ジャスラック,0
1316,6080102013457,登記記録の閉鎖等,0,2023-09-26,2023-09-25,有限会社エクス・プラン,,有限会社,静岡県,富士市,青葉町２９３番地,,22,210,4160952,,,2023-09-25,清算の結了等,,,2015-10-05,1,,,,,エクスプラン,0
1320,6110002008074,登記記録の閉鎖等,0,2023-09-26,2023-09-22,有限会社サカ工業,,有限会社,新潟県,新潟市江南区,亀田中島２丁目１０番１１号,,15,104,9500161,,,2023-09-22,清算の結了等,,,2015-10-05,1,,,,,サカコウギョウ,0
1323,6120001155362,登記記録の閉鎖等,0,2023-09-26,2023-09-25,株式会社エフエムもりぐち,,株式会社,大阪府,守口市,河原町８番２２号守口文化センター内,,27,209,5700038,,,2023-09-25,清算の結了等,,,2015-10-05,1,,,,,エフエムモリグチ,0
1337,6120002022116,登記記録の閉鎖等,0,2023-09-26,2023-09-21,有限会社システムワークス,,有限会社,兵庫県,尼崎市,潮江１丁目２番１号,,28,202,6610976,,,2023-09-21,清算の結了等,,,2015-10-05,1,,,,,システムワークス,0
1357,6130002032972,登記記録の閉鎖等,0,2023-09-26,2023-09-11,有限会社伸和電機製作所,,有限会社,京都府,福知山市,大江町金屋５２８番地,,26,201,6200303,,,2023-09-11,清算の結了等,,,2015-10-05,1,,,,,シンワデンキセイサクショ,0
1372,6180001062207,登記記録の閉鎖等,0,2023-09-26,2023-09-21,株式会社Ｗｉｌｌ　Ｍａｎ,,株式会社,愛知県,名古屋市中村区,城主町２丁目１２番地,,23,105,4530819,,,2023-09-21,清算の結了等,,,2015-10-05,1,,,,,ウィルマン,0
1375,6180001151298,登記記録の閉鎖等,0,2023-09-26,2023-09-20,セーエー開発株式会社,,株式会社,愛知県,名古屋市守山区,小幡１丁目９番１２号,,23,113,4630011,,,2023-09-20,清算の結了等,,,2022-05-25,1,,,,,セーエーカイハツ,0
1380,6180303001250,登記記録の閉鎖等,0,2023-09-26,2023-09-14,合資会社外山製本所,,合資会社,愛知県,豊橋市,旭町字旭３９０番地,,23,201,4400057,,,2023-09-14,清算の結了等,,,2015-10-05,1,,,,,トヤマセイホンジョ,0
1387,6230001002545,登記記録の閉鎖等,0,2023-09-26,2023-09-25,株式会社林組,,株式会社,富山県,富山市,布瀬町１丁目３番１７号,,16,201,9398206,,,2023-09-25,清算の結了等,,,2015-10-05,1,,,,,ハヤシグミ,0
1392,6240002053611,登記記録の閉鎖等,0,2023-09-26,2023-09-21,有限会社勉強堂,,有限会社,広島県,三原市,宮沖３丁目５番２号,,34,204,7230016,,,2023-09-21,清算の結了等,,,2015-10-05,1,,,,,ベンキョウドウ,0
1403,6290001026869,登記記録の閉鎖等,0,2023-09-26,2023-09-20,株式会社プログレス,,株式会社,愛知県,名古屋市千種区,高見２丁目９番５号,,23,101,4640073,,,2023-09-20,清算の結了等,,,2015-10-05,1,,,,,プログレス,0
1420,6330002021559,登記記録の閉鎖等,0,2023-09-26,2023-09-20,有限会社小川海産,,有限会社,熊本県,玉名市,横島町横島５５１７番地,,43,206,8650072,,,2023-09-20,清算の結了等,,,2015-10-05,1,,,,,オガワカイサン,0
1430,6370202005151,登記記録の閉鎖等,0,2023-09-26,2023-09-14,有限会社アクア環境,,有限会社,宮城県,栗原市,一迫真坂字町東１９２番地１,,04,213,9872308,,,2023-09-14,清算の結了等,,,2015-10-05,1,,,,,アクアカンキョウ,0
1445,6440002003141,登記記録の閉鎖等,0,2023-09-26,2023-09-21,有限会社中島設備工業,,有限会社,北海道,函館市,高松町３３７番地の１,,01,202,0420952,,,2023-09-21,清算の結了等,,,2015-10-05,1,,,,,ナカジマセツビコウギョウ,0
1447,6470002015142,登記記録の閉鎖等,0,2023-09-26,2023-09-21,有限会社筒井蒟蒻製造所,,有限会社,香川県,坂出市,元町２丁目１番２３号,,37,203,7620045,,,2023-09-21,清算の結了等,,,2015-10-05,1,,,,,ツツイコンニャクセイゾウショ,0
1480,7010603008523,登記記録の閉鎖等,0,2023-09-26,2023-09-15,Ｉｎｏｂｕ　Ｃｏｒｐｏｒａｔｉｏｎ合同会社,,合同会社,東京都,江東区,大島７丁目３０番１１－６０４号,,13,108,1360072,,,2023-09-15,清算の結了等,,,2020-09-07,1,,,,,イノブコーポレーション,0
1487,7011001135455,登記記録の閉鎖等,0,2023-09-26,2023-09-21,株式会社ＡＲＲＯＷＳ,,株式会社,東京都,渋谷区,松濤１丁目２８番２号,,13,113,1500046,,,2023-09-21,清算の結了等,,,2020-08-26,1,,,,,アローズ,0
1492,7011005006413,登記記録の閉鎖等,0,2023-09-26,2023-09-05,奈良特定目的会社,,その他の設立登記法人,東京都,港区,赤坂２丁目１０番５号税理士法人赤坂国際会計事務所内,,13,103,1070052,,,2023-09-05,清算の結了等,,,2015-10-05,1,,,,,ナラ,0
1511,7013101003533,登記記録の閉鎖等,0,2023-09-26,2023-09-21,加藤建設株式会社,,株式会社,東京都,青梅市,成木２丁目５８７番地,,13,205,1980001,,,2023-09-21,清算の結了等,,,2015-10-05,1,,,,,カトウケンセツ,0
1523,7021001005335,登記記録の閉鎖等,0,2023-09-26,2023-09-20,株式会社ビジネスアコード,,株式会社,神奈川県,藤沢市,遠藤６５４番地の１４,,14,205,2520816,,,2023-09-20,清算の結了等,,,2015-10-05,1,,,,,ビジネスアコード,0
1527,7030001042123,登記記録の閉鎖等,0,2023-09-26,2023-08-31,株式会社伸光堂埼玉北部販売,,株式会社,埼玉県,桶川市,北１丁目１４番１０号,,11,231,3630011,,,2023-08-31,清算の結了等,,,2015-10-05,1,,,,,シンコウドウサイタマホクブハンバイ,0
1548,7040002082480,登記記録の閉鎖等,0,2023-09-26,2023-09-07,有限会社神馬自動車,,有限会社,千葉県,長生郡一宮町,新地４４３３番地３６,,12,421,2994314,,,2023-09-07,清算の結了等,,,2015-10-05,1,,,,,ジンマジドウシャ,0
1560,7060002029884,登記記録の閉鎖等,0,2023-09-26,2023-09-14,有限会社和恒,,有限会社,栃木県,下都賀郡野木町,大字丸林４１１番地１,,09,364,3290111,,,2023-09-14,清算の結了等,,,2015-10-05,1,,,,,ワコウ,0
1592,7120103002024,登記記録の閉鎖等,0,2023-09-26,2023-09-25,合同会社ＳＮＰ,,合同会社,大阪府,松原市,北新町６丁目２００番地の１６,,27,217,5800025,,,2023-09-25,清算の結了等,,,2015-10-05,1,,,,,,0
1601,7130002026214,登記記録の閉鎖等,0,2023-09-26,2023-09-11,有限会社桂電機商會,,有限会社,京都府,宇治市,宇治蓮華５２番地の１,00037777,26,204,6110021,,,2023-09-11,清算の結了等,,,2015-10-05,1,,,,,カツラデンキショウカイ,0
1607,7140005002112,登記記録の閉鎖等,0,2023-09-26,2023-09-21,医療法人社団向井眼科医院,,その他の設立登記法人,兵庫県,神戸市兵庫区,西出町２丁目１５番５号,,28,105,6520822,,,2023-09-21,清算の結了等,,,2015-10-05,1,,,,,ムカイガンカイイン,0
1611,7180001118081,登記記録の閉鎖等,0,2023-09-26,2023-09-20,株式会社Ｎ・Ｈ,,株式会社,愛知県,春日井市,玉野町９００番地８,,23,206,4870004,,,2023-09-20,清算の結了等,,,2015-10-05,1,,,,,エヌエイチ,0
1612,7180001129203,登記記録の閉鎖等,0,2023-09-26,2023-09-20,株式会社トータル,,株式会社,愛知県,名古屋市中村区,中村町７丁目４１番地,,23,105,4530053,,,2023-09-20,清算の結了等,,,2017-08-28,1,,,,,トータル,0
1617,7180002088308,登記記録の閉鎖等,0,2023-09-26,2023-09-21,有限会社たて岡,,有限会社,愛知県,知多市,岡田字野崎９番地（レインボー知多長浦６０４）,,23,224,4780021,,,2023-09-21,清算の結了等,,,2015-10-05,1,,,,,タテオカ,0
1620,7180303003502,登記記録の閉鎖等,0,2023-09-26,2023-09-19,ＭＲＳ合同会社,,合同会社,愛知県,名古屋市名東区,一社１丁目７９番地,,23,115,4650093,,,2023-09-19,合併による解散等,9180003015218,令和５年９月１日名古屋市名東区一社一丁目７９第６名昭ビルＮＫプロパティ合同会社（9180003015218）に合併し解散,2015-10-05,1,,,,,エムアールエス,0
1621,7190002001608,登記記録の閉鎖等,0,2023-09-26,2023-09-21,有限会社もりかわ,,有限会社,三重県,津市,上浜町２丁目１３８番地,,24,201,5140008,,,2023-09-21,清算の結了等,,,2015-10-05,1,,,,,モリカワ,0
1630,7230001006454,登記記録の閉鎖等,0,2023-09-26,2023-09-21,株式会社勝広,,株式会社,富山県,中新川郡立山町,日俣１５３番地,,16,323,9300252,,,2023-09-21,清算の結了等,,,2015-10-05,1,,,,,カツヒロ,0
1639,7290001041066,登記記録の閉鎖等,0,2023-09-26,2023-09-12,株式会社精氣源臨床研究所,,株式会社,福岡県,大野城市,月の浦１丁目１２番５号,,40,219,8160983,,,2023-09-12,清算の結了等,,,2015-10-05,1,,,,,セイキゲンリンショウケンキュウショ,0
1640,7290001059752,登記記録の閉鎖等,0,2023-09-26,2023-09-19,株式会社Ｔｏｙｂｏｘ,,株式会社,沖縄県,那覇市,上之屋１丁目８番３号,,47,201,9000011,,,2023-09-19,清算の結了等,,,2015-10-05,1,,,,,トイボックス,0
1648,7320002018373,登記記録の閉鎖等,0,2023-09-26,2023-09-22,有限会社ハウスファッションみふみ,,有限会社,大分県,豊後大野市,三重町赤嶺字大宮田２０６３番地,,44,212,8797111,,,2023-09-22,清算の結了等,,,2015-10-05,1,,,,,,0
1665,7380001022008,登記記録の閉鎖等,0,2023-09-26,2023-09-20,株式会社ナガツキ,,株式会社,福島県,いわき市,久之浜町久之浜字新地５番地の１,,07,204,9790333,,,2023-09-20,清算の結了等,,,2015-10-05,1,,,,,ナガツキ,0
1681,7490003001675,登記記録の閉鎖等,0,2023-09-26,2023-09-15,合同会社ベア,,合同会社,高知県,高岡郡佐川町,西組８５１番地５,,39,402,7891234,,,2023-09-15,清算の結了等,,,2022-06-23,1,,,,,ベア,0
1716,8010403013887,登記記録の閉鎖等,0,2023-09-26,2023-09-01,ティーマネジメント合同会社,,合同会社,東京都,港区,南青山６丁目１０番９－１２０２号,,13,103,1070062,,,2023-09-01,清算の結了等,,,2015-10-05,1,,,,,,0
1760,8011602008447,登記記録の閉鎖等,0,2023-09-26,2023-09-05,有限会社平山設備,,有限会社,東京都,練馬区,中村３丁目４番１０号,,13,120,1760024,,,2023-09-05,清算の結了等,,,2015-10-05,1,,,,,,0
1761,8011602021689,登記記録の閉鎖等,0,2023-09-26,2023-09-22,有限会社浅野寿司,,有限会社,東京都,練馬区,田柄２丁目４２番６－１０３号,,13,120,1790073,,,2023-09-22,清算の結了等,,,2015-10-05,1,,,,,アサノスシ,0
1799,8030001143457,登記記録の閉鎖等,0,2023-09-26,2023-08-31,株式会社ＫＥＹＡＫＩ,,株式会社,埼玉県,北葛飾郡杉戸町,大字杉戸２３５１番地１,,11,464,3450036,,,2023-08-31,清算の結了等,,,2021-07-20,1,,,,,ケヤキ,0
1812,8030002119902,登記記録の閉鎖等,0,2023-09-26,2023-08-31,有限会社ムサシ空調工業,,有限会社,埼玉県,飯能市,本町６番３号,,11,209,3570032,,,2023-08-31,清算の結了等,,,2015-10-05,1,,,,,ムサシクウチョウコウギョウ,0
1820,8040002071029,登記記録の閉鎖等,0,2023-09-26,2023-09-07,有限会社カネセイ,,有限会社,千葉県,富津市,大堀２１９８番地,,12,226,2930001,,,2023-09-07,清算の結了等,,,2015-10-05,1,,,,,カネセイ,0
1825,8050001022031,登記記録の閉鎖等,0,2023-09-26,2023-09-21,カシマ冷食株式会社,,株式会社,東京都,練馬区,小竹町１丁目１１番２号,,13,120,1760004,,,2023-09-21,清算の結了等,,,2015-10-05,1,,,,,カシマレイショク,0
1829,8060001028589,登記記録の閉鎖等,0,2023-09-26,2023-09-04,株式会社ガラージ・コンサルティング,,株式会社,東京都,港区,虎ノ門１丁目１６番６号虎ノ門ラポートビル７０３,,13,103,1050001,,,2023-09-04,清算の結了等,,,2016-08-26,1,,,,,ガラージコンサルティング,0
1832,8060002021403,登記記録の閉鎖等,0,2023-09-26,2023-09-15,有限会社トップ,,有限会社,栃木県,鹿沼市,上石川１１６７番地３,,09,205,3220015,,,2023-09-15,清算の結了等,,,2015-10-05,1,,,,,トップ,0
1835,8070002018720,登記記録の閉鎖等,0,2023-09-26,2023-09-20,有限会社上村パン,,有限会社,群馬県,伊勢崎市,本町２０番地２,,10,204,3720047,,,2023-09-20,清算の結了等,,,2015-10-05,1,,,,,カミムラパン,0
1838,8080102004553,登記記録の閉鎖等,0,2023-09-26,2023-09-22,有限会社桃井製作所,,有限会社,静岡県,裾野市,千福７３番地の３,,22,220,4101116,,,2023-09-22,清算の結了等,,,2015-10-05,1,,,,,モモイセイサクショ,0
1842,8100001011755,登記記録の閉鎖等,0,2023-09-26,2023-09-13,株式会社ビ・ナテュール,,株式会社,長野県,東御市,和８６４９番地８,,20,219,3890505,,,2023-09-13,清算の結了等,,,2015-10-05,1,,,,,ビナテュール,0
1853,8120001019383,登記記録の閉鎖等,0,2023-09-26,2023-09-22,株式会社明智,,株式会社,大阪府,大阪市平野区,長吉出戸７丁目１１番２６号,,27,126,5470011,,,2023-09-22,清算の結了等,,,2015-10-05,1,,,,,アケチ,0
1855,8120001137103,登記記録の閉鎖等,0,2023-09-26,2023-09-13,株式会社東建カンパニー,,株式会社,大阪府,大阪市平野区,喜連西４丁目６番５８－１４０２号,,27,126,5470026,,,2023-09-13,清算の結了等,,,2015-10-05,1,,,,,トウケンカンパニー,0
1864,8120001217409,登記記録の閉鎖等,0,2023-09-26,2023-09-22,株式会社ニッケ・メディカル,,株式会社,大阪府,大阪市中央区,瓦町３丁目３番１０号,,27,128,5410048,,,2023-09-22,合併による解散等,3130001012326,令和５年９月１日京都市山科区四ノ宮神田町４番地古橋山科ビル株式会社京都医療設計（3130001012326）に合併し解散,2018-11-27,1,,,,,ニッケメディカル,0
1880,8120101033540,登記記録の閉鎖等,0,2023-09-26,2023-09-25,株式会社大谷,,株式会社,大阪府,河内長野市,原町１丁目２０番１４号,,27,216,5860021,,,2023-09-25,清算の結了等,,,2015-10-05,1,,,,,オオタニ,0
1903,8190001017372,登記記録の閉鎖等,0,2023-09-26,2023-09-21,株式会社キンキ建設,,株式会社,三重県,三重郡菰野町,大字菰野１３９０番地,,24,341,5101233,,,2023-09-21,清算の結了等,,,2015-10-05,1,,,,,キンキケンセツ,0
1906,8210002003567,登記記録の閉鎖等,0,2023-09-26,2023-09-20,有限会社マルヨシ工務店,,有限会社,福井県,福井市,荒木新保町第３９号１０番地,,18,201,9102172,,,2023-09-20,清算の結了等,,,2015-10-05,1,,,,,マルヨシコウムテン,0
1917,8230002001973,登記記録の閉鎖等,0,2023-09-26,2023-09-22,有限会社高木建築,00079011,有限会社,富山県,富山市,窪新町１１番５０号,,16,201,9300842,,,2023-09-22,清算の結了等,,,2015-10-05,1,,,,,タカギケンチク,0
1918,8240001022268,登記記録の閉鎖等,0,2023-09-26,2023-09-15,ササキ工業株式会社,,株式会社,広島県,広島市西区,庚午南１丁目４番２３－５０２号,,34,104,7330823,,,2023-09-15,清算の結了等,,,2015-10-05,1,,,,,,0
1931,8290001032626,登記記録の閉鎖等,0,2023-09-26,2023-09-12,株式会社Ｉ．Ｓ,,株式会社,福岡県,福岡市博多区,博多駅前３丁目１０番２号,,40,132,8120011,,,2023-09-12,清算の結了等,,,2015-10-05,1,,,,,アイエス,0
1941,8290805003863,登記記録の閉鎖等,0,2023-09-26,2023-09-21,清新産業輸送協力協同組合,,その他の設立登記法人,福岡県,北九州市八幡東区,山王１丁目１６番８号,,40,108,8050017,,,2023-09-21,清算の結了等,,,2015-10-05,1,,,,,セイシンサンギョウユソウキョウリョク,0
1952,8360001006060,登記記録の閉鎖等,0,2023-09-26,2023-09-21,かかさ企画株式会社,,株式会社,沖縄県,那覇市,字小禄８２４番地１７,,47,201,9010152,,,2023-09-21,清算の結了等,,,2015-10-05,1,,,,,カカサキカク,0
1962,8380002000572,登記記録の閉鎖等,0,2023-09-26,2023-09-19,有限会社エナールデザイン,,有限会社,福島県,伊達郡川俣町,大綱木字大小町２番地の４,,07,308,9601403,,,2023-09-19,清算の結了等,,,2015-10-05,1,,,,,エナールデザイン,0
1963,8400001003631,登記記録の閉鎖等,0,2023-09-26,2023-09-19,株式会社堀切,,株式会社,岩手県,岩手郡雫石町,谷地４５番地の１,,03,301,0200545,,,2023-09-19,清算の結了等,,,2015-10-05,1,,,,,,0
1977,8440002009599,登記記録の閉鎖等,0,2023-09-26,2023-09-25,有限会社共和塗装工業,,有限会社,北海道,檜山郡江差町,字津花町４２番地,,01,361,0430051,,,2023-09-25,清算の結了等,,,2015-10-05,1,,,,,キョウワトソウコウギョウ,0
2012,9011001093866,登記記録の閉鎖等,0,2023-09-26,2023-09-15,株式会社ブルーウォーターシュリンプ＆シーフードジャパン,,株式会社,東京都,渋谷区,代官山町１７番１号代官山アドレスザ・タワー１７Ｆ,,13,113,1500034,,,2023-09-15,清算の結了等,,,2015-10-05,1,,,,,ブルーウォーターシュリンプアンドシーフードジャパン,0
2020,9011003006504,登記記録の閉鎖等,0,2023-09-26,2023-09-05,富士ホールディングス５合同会社,,合同会社,東京都,港区,赤坂２丁目１０番５号税理士法人赤坂国際会計事務所内,,13,103,1070052,,,2023-09-05,清算の結了等,,,2016-01-15,1,,,,,フジホールディングスファイブ,0
2021,9011005006411,登記記録の閉鎖等,0,2023-09-26,2023-09-05,奈良ＣＳ一般社団法人,,その他の設立登記法人,東京都,港区,赤坂２丁目１０番５号税理士法人赤坂国際会計事務所内,,13,103,1070052,,,2023-09-05,清算の結了等,,,2015-10-05,1,,,,,ナラシーエス,0
2033,9012702007998,登記記録の閉鎖等,0,2023-09-26,2023-09-20,有限会社ハタエコンサーン,,有限会社,東京都,小平市,津田町２丁目１８番７号,,13,211,1870025,,,2023-09-20,清算の結了等,,,2015-10-05,1,,,,,ハタエコンサーン,0
2036,9012801008848,登記記録の閉鎖等,0,2023-09-26,2023-09-22,株式会社楽運,,株式会社,東京都,東大和市,向原６丁目１１５６番地の１３,,13,220,2070013,,,2023-09-22,清算の結了等,,,2015-10-05,1,,,,,ラクウン,0
2043,9013301036166,登記記録の閉鎖等,0,2023-09-26,2023-08-30,株式会社ＳＴＯＣＫ３５,,株式会社,埼玉県,川越市,東田町４番地３８,,11,201,3501114,,,2023-08-30,合併による解散等,6030001057881,令和５年８月２９日埼玉県川越市東田町４番地３８株式会社グローバルハンズ（6030001057881）に合併し解散,2015-10-05,1,,,,,ストックサンジュウゴ,0
2046,9013305003377,登記記録の閉鎖等,0,2023-09-26,2023-09-19,行政書士法人椿坂事務所,,その他の設立登記法人,東京都,豊島区,西池袋２丁目３６番１０号ＡＣＮ池袋ビル１０階,,13,116,1710021,,,2023-09-19,清算の結了等,,,2022-09-20,1,,,,,ツバキサカジムショ,0
2067,9030002029225,登記記録の閉鎖等,0,2023-09-26,2023-08-28,有限会社コスモシステム,,有限会社,埼玉県,所沢市,並木７丁目１番地９－１０１,,11,208,3590042,,,2023-08-28,清算の結了等,,,2015-10-05,1,,,,,コスモシステム,0
2069,9030002066937,登記記録の閉鎖等,0,2023-09-26,2023-08-31,有限会社マルチボックス,,有限会社,埼玉県,朝霞市,三原１丁目６番３５号,,11,227,3510025,,,2023-08-31,清算の結了等,,,2015-10-05,1,,,,,マルチボックス,0
2071,9030002118234,登記記録の閉鎖等,0,2023-09-26,2023-08-30,三谷工務店有限会社,,有限会社,埼玉県,行田市,本丸９番１６号,,11,206,3610052,,,2023-08-30,清算の結了等,,,2015-10-05,1,,,,,ミタニコウムテン,0
2073,9040001098831,登記記録の閉鎖等,0,2023-09-26,2023-09-05,株式会社ＴＯＢＡＲＩ,,株式会社,千葉県,柏市,戸張９９３番地の１０,,12,217,2770008,,,2023-09-05,清算の結了等,,,2017-02-16,1,,,,,トバリ,0
2092,9080101013802,登記記録の閉鎖等,0,2023-09-26,2023-09-22,株式会社みその,,株式会社,静岡県,伊東市,湯川１丁目１６番１６号,,22,208,4140002,,,2023-09-22,清算の結了等,,,2015-10-05,1,,,,,ミソノ,0
2102,9120001069840,登記記録の閉鎖等,0,2023-09-26,2023-09-25,藤吉ビル株式会社,,株式会社,大阪府,大阪市北区,西天満６丁目９番１７号,,27,127,5300047,,,2023-09-25,清算の結了等,,,2015-10-05,1,,,,,フジヨシビル,0
2103,9120001108458,登記記録の閉鎖等,0,2023-09-26,2023-09-20,株式会社ＲＥｆｏｒｍａｔｉｏｎ,,株式会社,大阪府,箕面市,箕面２丁目１３番１６号,,27,220,5620001,,,2023-09-20,合併による解散等,7120001087761,令和５年９月１日大阪市中央区南船場二丁目１０番３０号株式会社ビーズアイ（7120001087761）に合併し解散,2015-10-05,1,,,,,リフォーメーション,0
2114,9120901010713,登記記録の閉鎖等,0,2023-09-26,2023-09-19,株式会社北工業,,株式会社,大阪府,高槻市,野田４丁目４番１０号,,27,207,5690013,,,2023-09-19,清算の結了等,,,2015-10-05,1,,,,,キタコウギョウ,0
2123,9140001078583,登記記録の閉鎖等,0,2023-09-26,2023-09-20,株式会社宝塚園芸サービス,,株式会社,兵庫県,伊丹市,西野５丁目２６６番地,,28,207,6640028,,,2023-09-20,清算の結了等,,,2015-10-05,1,,,,,,0
2127,9140002004101,登記記録の閉鎖等,0,2023-09-26,2023-09-20,有限会社アドバンス神戸,,有限会社,兵庫県,神戸市中央区,加納町６丁目３番１－２２０９号,,28,110,6500001,,,2023-09-20,清算の結了等,,,2015-10-05,1,,,,,アドバンスコウベ,0
2137,9180001089908,登記記録の閉鎖等,0,2023-09-26,2023-09-20,株式会社磯次郎,,株式会社,愛知県,名古屋市中区,錦３丁目８番１号,,23,106,4600003,,,2023-09-20,清算の結了等,,,2015-10-05,1,,,,,イソジロウ,0
2144,9180002022792,登記記録の閉鎖等,0,2023-09-26,2023-09-22,有限会社ウーマン,,有限会社,愛知県,名古屋市北区,駒止町１丁目４番地の１,,23,103,4620059,,,2023-09-22,清算の結了等,,,2015-10-05,1,,,,,ウーマン,0
2148,9180005008764,登記記録の閉鎖等,0,2023-09-26,2023-09-20,医療法人薫鈴会,,その他の設立登記法人,愛知県,瀬戸市,菱野台３丁目５７番地,,23,204,4890887,,,2023-09-20,清算の結了等,,,2015-10-05,1,,,,,クンレイカイ,0
2154,9200001032253,登記記録の閉鎖等,0,2023-09-26,2023-09-20,株式会社ファインピース,,株式会社,岐阜県,岐阜市,日野南７丁目１０番１号,,21,201,5008212,,,2023-09-20,合併による解散等,7200001012983,令和５年９月２０日岐阜市日野南七丁目１０番１号株式会社アルファ・パートナー（7200001012983）に合併し解散,2015-11-10,1,,,,,ファインピース,0
2155,9200001032625,登記記録の閉鎖等,0,2023-09-26,2023-09-20,株式会社櫻軒,,株式会社,岐阜県,高山市,緑ケ丘町１丁目５１番地,,21,203,5060056,,,2023-09-20,清算の結了等,,,2016-03-04,1,,,,,サクラケン,0
2158,9210002000571,登記記録の閉鎖等,0,2023-09-26,2023-09-22,有限会社小川モダン,,有限会社,福井県,福井市,小路町第１号４番地の２,,18,201,9102166,,,2023-09-22,清算の結了等,,,2015-10-05,1,,,,,オガワモダン,0
2162,9230001003227,登記記録の閉鎖等,0,2023-09-26,2023-09-22,株式会社宗電気工事社,,株式会社,富山県,富山市,堀川小泉町１丁目４番１号,,16,201,9398081,,,2023-09-22,清算の結了等,,,2015-10-05,1,,,,,ムネデンキコウジシャ,0
2164,9240001041928,登記記録の閉鎖等,0,2023-09-26,2023-09-22,株式会社ライツフォル,,株式会社,広島県,福山市,柳津町４丁目６番５号,,34,207,7290114,,,2023-09-22,清算の結了等,,,2015-10-05,1,,,,,ライツフォル,0
2167,9250001008793,登記記録の閉鎖等,0,2023-09-26,2023-09-20,株式会社クライム,,株式会社,山口県,周南市,銀座１丁目２２番地,,35,215,7450032,,,2023-09-20,清算の結了等,,,2015-10-05,1,,,,,クライム,0
2173,9260005006512,登記記録の閉鎖等,0,2023-09-26,2023-09-22,津山西工業協同組合,,その他の設立登記法人,岡山県,津山市,神戸１５８番１,,33,203,7080015,,,2023-09-22,清算の結了等,,,2015-10-05,1,,,,,ツヤマニシコウギョウ,0
2181,9330001027199,登記記録の閉鎖等,0,2023-09-26,2023-09-19,株式会社ＭＥＭＯＬＯＧ,,株式会社,熊本県,玉名郡玉東町,大字山口５５番地４,,43,364,8690302,,,2023-09-19,清算の結了等,,,2020-02-06,1,,,,,メモログ,0
2193,9370402001724,登記記録の閉鎖等,0,2023-09-26,2023-09-20,有限会社佐藤企画,,有限会社,宮城県,登米市,迫町佐沼字梅ノ木４丁目３番地の４,,04,212,9870511,,,2023-09-20,清算の結了等,,,2015-10-05,1,,,,,サトウキカク,0
2198,9420002011408,登記記録の閉鎖等,0,2023-09-26,2023-09-20,有限会社三上コンタクトレンズ研究所,,有限会社,青森県,五所川原市,字旭町５９番地,,02,205,0370062,,,2023-09-20,清算の結了等,,,2015-10-05,1,,,,,ミカミコンタクトレンズケンキュウショ,0
2211,9460302004553,登記記録の閉鎖等,0,2023-09-26,2023-09-22,有限会社マルセ,,有限会社,北海道,網走市,字二見ケ岡３７番地の６０,,01,211,0930132,,,2023-09-22,清算の結了等,,,2015-10-05,1,,,,,マルセ,0
2212,9470002010339,登記記録の閉鎖等,0,2023-09-26,2023-09-22,有限会社長谷川興産,,有限会社,香川県,高松市,高松町１７９０番地,,37,201,7610104,,,2023-09-22,清算の結了等,,,2015-10-05,1,,,,,ハセガワコウサン,0
2215,9490005006753,登記記録の閉鎖等,0,2023-09-26,2023-09-22,特定非営利活動法人Ｍａｋａｎａ,,その他の設立登記法人,高知県,土佐清水市,幸町４番２号,,39,209,7870306,,,2023-09-22,清算の結了等,,,2021-02-12,1,,,,,マカナ,0
