sequenceNumber,corporateNumber,process,correct,updateDate,changeDate,name,nameImageId,kind,prefectureName,cityName,streetNumber,addressImageId,prefectureCode,cityCode,postCode,addressOutside,addressOutsideImageId,closeDate,closeCause,successorCorporateNumber,changeCause,assignmentDate,latest,enName,enPrefectureName,enCityName,enAddressOutside,furigana,hihyoji
4,1010001168702,登記記録の閉鎖等,0,2023-01-11,2022-12-28,株式会社伊勝,,株式会社,神奈川県,横浜市南区,浦舟町３丁目４３－６－３０３,,14,105,2320024,,,2022-12-28,清算の結了等,,,2015-10-05,1,,,,,イカツ,0
9,1010002045834,登記記録の閉鎖等,0,2023-01-11,2022-12-28,株式会社オフィスマッサージ,,株式会社,東京都,文京区,本郷３丁目４番３号ヒルズ８８４お茶の水ビル５Ｆ,,13,105,1130033,,,2022-12-28,清算の結了等,,,2015-10-05,1,,,,,オフィスマッサージ,0
69,1012402000229,登記記録の閉鎖等,0,2023-01-11,2023-01-06,有限会社インクス,,有限会社,東京都,府中市,西原町４丁目３７番地の６,,13,206,1830046,,,2023-01-06,清算の結了等,,,2015-10-05,1,,,,,,0
76,1013201002085,登記記録の閉鎖等,0,2023-01-11,2022-12-21,株式会社コンテンツコーポレーション,,株式会社,東京都,目黒区,目黒本町２丁目１番１８号,,13,110,1520002,,,2022-12-21,清算の結了等,,,2015-10-05,1,,,,,コンテンツコーポレーション,0
78,1013402003353,登記記録の閉鎖等,0,2023-01-11,2023-01-05,有限会社小田商店,,有限会社,東京都,稲城市,平尾１丁目２２番地の１５,,13,225,2060823,,,2023-01-05,清算の結了等,,,2015-10-05,1,,,,,オダショウテン,0
83,1020001106058,登記記録の閉鎖等,0,2023-01-11,2023-01-04,ＢａｙＣｉｔｙ株式会社,,株式会社,神奈川県,横浜市中区,翁町２丁目８番地５第一東里ビル３０２,,14,104,2310028,,,2023-01-04,清算の結了等,,,2015-10-05,1,,,,,ベイシティ,0
95,1020003013104,登記記録の閉鎖等,0,2023-01-11,2023-01-04,ＣＦＲ内装合同会社,,合同会社,神奈川県,横浜市中区,日ノ出町１番地２号スカイノート日ノ出町９０１,,14,104,2310000,,,2023-01-04,清算の結了等,,,2017-08-03,1,,,,,シーエフアールナイソウ,0
103,1020005009918,登記記録の閉鎖等,0,2023-01-11,2022-12-28,特定非営利活動法人神奈川シニア自然大学校,,その他の設立登記法人,神奈川県,横浜市都筑区,見花山１－３０見花山ビル３Ｆ,,14,118,2240066,,,2022-12-28,清算の結了等,,,2015-10-05,1,,,,,カナガワシニアシゼンダイガッコウ,0
107,1021001050122,登記記録の閉鎖等,0,2023-01-11,2022-12-28,ダイシン和楽株式会社,,株式会社,神奈川県,大和市,中央林間３丁目１７番１７号サウスクラウドビル１Ｆ,,14,213,2420007,,,2022-12-28,清算の結了等,,,2015-10-05,1,,,,,ダイシンワラク,0
135,1030003011692,登記記録の閉鎖等,0,2023-01-11,2022-12-23,合同会社オフィスＳＡＳ,,合同会社,埼玉県,さいたま市西区,プラザ４６番５号,,11,101,3310063,,,2022-12-23,清算の結了等,,,2018-04-05,1,,,,,オフィスエスエーエス,0
146,1040002025461,登記記録の閉鎖等,0,2023-01-11,2023-01-04,有限会社松和建設,,有限会社,千葉県,船橋市,三咲２丁目５番２７号,,12,204,2740812,,,2023-01-04,清算の結了等,,,2015-10-05,1,,,,,マツワケンセツ,0
165,1070001007342,登記記録の閉鎖等,0,2023-01-11,2023-01-04,ｉＳＫＩ　Ｊａｐａｎ株式会社,,株式会社,群馬県,前橋市,箱田町６１４番地７,,10,201,3710837,,,2023-01-04,清算の結了等,,,2015-10-05,1,,,,,アイスキージャパン,0
176,1100002023483,登記記録の閉鎖等,0,2023-01-11,2023-01-05,有限会社協栄技術サービス,,有限会社,長野県,安曇野市,堀金烏川２３１４番地１,,20,220,3998211,,,2023-01-05,清算の結了等,,,2015-10-05,1,,,,,キョウエイギジュツサービス,0
228,1140002051159,登記記録の閉鎖等,0,2023-01-11,2023-01-04,宮田蒲団有限会社,,有限会社,兵庫県,姫路市,飾磨区妻鹿１１２３番地,,28,201,6728031,,,2023-01-04,清算の結了等,,,2022-08-30,1,,,,,ミヤタフトン,0
231,1140005024293,登記記録の閉鎖等,0,2023-01-11,2022-12-26,一般社団法人日本ケアエキスパート協会,,その他の設立登記法人,兵庫県,神戸市中央区,八幡通４丁目２番１０号２０２,,28,110,6510085,,,2022-12-26,清算の結了等,,,2018-10-04,1,,,,,ニホンケアエキスパートキョウカイ,0
233,1150001001188,登記記録の閉鎖等,0,2023-01-11,2023-01-11,大進株式会社,,株式会社,奈良県,奈良市,下三条町２８番地の３,,29,201,6308236,,,2023-01-11,登記官による閉鎖,,,2015-10-05,1,,,,,,0
234,1150001008704,登記記録の閉鎖等,0,2023-01-11,2023-01-11,株式会社アドバンテージ,,株式会社,奈良県,奈良市,西木辻町６３番地の２３－１０７号,00042874,29,201,6308325,,,2023-01-11,登記官による閉鎖,,,2015-10-05,1,,,,,,0
235,1150001011906,登記記録の閉鎖等,0,2023-01-11,2023-01-11,薬師平民堂株式会社,,株式会社,奈良県,奈良市,四条大路１丁目１０番２６号,,29,201,6308014,,,2023-01-11,登記官による閉鎖,,,2015-10-05,1,,,,,,0
236,1150001012094,登記記録の閉鎖等,0,2023-01-11,2023-01-11,株式会社木虎電器,,株式会社,奈良県,磯城郡田原本町,大字千代１６８番地１,,29,363,6360246,,,2023-01-11,登記官による閉鎖,,,2015-10-05,1,,,,,,0
242,1180001020598,登記記録の閉鎖等,0,2023-01-11,2023-01-04,株式会社登り松商店,,株式会社,愛知県,名古屋市中川区,尾頭橋１丁目５番１６号,,23,110,4540012,,,2023-01-04,清算の結了等,,,2015-10-05,1,,,,,ノボリマツショウテン,0
245,1180002056699,登記記録の閉鎖等,0,2023-01-11,2023-01-04,有限会社Ｚ’ｓ　Ａｒｔｅｘ　Ｃｏ．，Ｌｔｄ．,,有限会社,愛知県,名古屋市港区,中川本町５丁目１番地の１６,,23,111,4550051,,,2023-01-04,清算の結了等,,,2015-10-05,1,,,,,ズィーズアルテクスカンパニーリミテッド,0
246,1180002065254,登記記録の閉鎖等,0,2023-01-11,2023-01-06,有限会社永光電業社,,有限会社,愛知県,春日井市,上田楽町１９６４番地,,23,206,4860801,,,2023-01-06,清算の結了等,,,2015-10-05,1,,,,,エイコウデンギョウシャ,0
251,1190003002552,登記記録の閉鎖等,0,2023-01-11,2023-01-04,合資会社ＨＴ．ｇｒｏｏｖｅ,,合資会社,三重県,桑名郡木曽岬町,大字富田子３１９番地,,24,303,4980813,,,2023-01-04,清算の結了等,,,2016-08-02,1,,,,,エイチティーグルーヴ,0
258,1220002001915,登記記録の閉鎖等,0,2023-01-11,2023-01-05,有限会社金子板金工業,,有限会社,石川県,金沢市,専光寺町タ５２番地１,,17,201,9200356,,,2023-01-05,清算の結了等,,,2015-10-05,1,,,,,カネコバンキンコウギョウ,0
264,1240001042009,登記記録の閉鎖等,0,2023-01-11,2023-01-04,株式会社オレンジシステム広島,,株式会社,広島県,広島市中区,基町２１番３号,,34,101,7300011,,,2023-01-04,合併による解散等,7240001000679,令和５年１月１日広島市中区基町２１番３号中国放送会館内株式会社ｅＲＣＣ（7240001000679）に合併し解散,2015-10-05,1,,,,,オレンジシステムヒロシマ,0
287,1290001085655,登記記録の閉鎖等,0,2023-01-11,2023-01-06,日和株式会社,,株式会社,福岡県,福岡市中央区,舞鶴１丁目３番３１号,,40,133,8100073,,,2023-01-06,清算の結了等,,,2019-06-27,1,,,,,ヒヨリ,0
302,1330001019204,登記記録の閉鎖等,0,2023-01-11,2023-01-04,株式会社吉幸,,株式会社,熊本県,熊本市中央区,黒髪６丁目３０番３７号,,43,101,8600862,,,2023-01-04,清算の結了等,,,2015-10-05,1,,,,,ヨシユキ,0
328,1470001004670,登記記録の閉鎖等,0,2023-01-11,2023-01-11,株式会社ポテトランド,,株式会社,香川県,高松市,本町１２番４号,,37,201,7600032,,,2023-01-11,登記官による閉鎖,,,2015-10-05,1,,,,,,0
329,1470001007921,登記記録の閉鎖等,0,2023-01-11,2023-01-11,株式会社田岡組,,株式会社,香川県,仲多度郡多度津町,西港町２９番地４,,37,404,7640017,,,2023-01-11,登記官による閉鎖,,,2015-10-05,1,,,,,,0
330,1470001016146,登記記録の閉鎖等,0,2023-01-11,2023-01-11,岡村産業株式会社,,株式会社,香川県,さぬき市,志度２９１５番地,,37,206,7692101,,,2023-01-11,登記官による閉鎖,,,2017-03-02,1,,,,,,0
331,1470002000306,登記記録の閉鎖等,0,2023-01-11,2023-01-11,有限会社菰渕ビル,,有限会社,香川県,高松市,牟礼町牟礼２３１０番地３,,37,201,7610121,,,2023-01-11,登記官による閉鎖,,,2015-10-05,1,,,,,,0
332,1470002002351,登記記録の閉鎖等,0,2023-01-11,2023-01-11,共同興産有限会社,,有限会社,香川県,高松市,神在川窪町３２番地４,,37,201,7618003,,,2023-01-11,登記官による閉鎖,,,2015-10-05,1,,,,,,0
333,1470002009917,登記記録の閉鎖等,0,2023-01-11,2023-01-11,有限会社柏原鉄筋工業,,有限会社,香川県,高松市,国分寺町福家甲２８５７番地１,,37,201,7690103,,,2023-01-11,登記官による閉鎖,,,2015-10-05,1,,,,,,0
334,1470002012581,登記記録の閉鎖等,0,2023-01-11,2023-01-11,有限会社甲斐組,,有限会社,香川県,仲多度郡多度津町,大字山階２３０番地,,37,404,7640034,,,2023-01-11,登記官による閉鎖,,,2015-10-05,1,,,,,,0
336,1470005003702,登記記録の閉鎖等,0,2023-01-11,2023-01-11,農事組合法人紀伊組合,,その他の設立登記法人,香川県,観音寺市,大野原町丸井２６０番地,,37,205,7691615,,,2023-01-11,登記官による閉鎖,,,2015-10-05,1,,,,,,0
337,1470005004799,登記記録の閉鎖等,0,2023-01-11,2023-01-11,特定非営利活動法人ＫＧＣアートプロジェクト,,その他の設立登記法人,香川県,善通寺市,大麻町１３２２番地,,37,204,7650052,,,2023-01-11,登記官による閉鎖,,,2015-10-05,1,,,,,,0
338,1470005004956,登記記録の閉鎖等,0,2023-01-11,2023-01-11,香川県造船工業協同組合,,その他の設立登記法人,香川県,小豆郡小豆島町,草壁本町２２０番地１６,,37,324,7614432,,,2023-01-11,登記官による閉鎖,,,2015-10-05,1,,,,,,0
357,2010003030561,登記記録の閉鎖等,0,2023-01-11,2022-12-28,ＦＲ１合同会社,,合同会社,東京都,千代田区,霞が関３丁目２番５号,,13,101,1000013,,,2022-12-28,清算の結了等,,,2019-09-11,1,,,,,エフアールワン,0
395,2011001140154,登記記録の閉鎖等,0,2023-01-11,2023-01-04,株式会社Ｃａｒｅ　Ｔｅｃｈｎｏｌｏｇｙ,,株式会社,東京都,渋谷区,渋谷２丁目２２－３渋谷東口ビル６Ｆ,,13,113,1500002,,,2023-01-04,合併による解散等,2011001096974,令和５年１月１日東京都渋谷区渋谷二丁目２２－３渋谷東口ビル６Ｆ株式会社Ｂｒａｎｄｉｎｇ　Ｅｎｇｉｎｅｅｒ（2011001096974）に合併し解散,2021-04-26,1,,,,,ケアテクノロジー,0
399,2011102005280,登記記録の閉鎖等,0,2023-01-11,2023-01-04,有限会社三協製本,,有限会社,東京都,新宿区,中落合３丁目２９番１２－１０２号,,13,104,1610032,,,2023-01-04,清算の結了等,,,2015-10-05,1,,,,,,0
404,2011302000908,登記記録の閉鎖等,0,2023-01-11,2023-01-04,有限会社泉麻人事務所,,有限会社,東京都,杉並区,成田西１丁目２８番１１号,,13,115,1660016,,,2023-01-04,清算の結了等,,,2015-10-05,1,,,,,イズミアサトジムショ,0
419,2012301007191,登記記録の閉鎖等,0,2023-01-11,2022-12-28,株式会社湯河原ラケットクラブ,,株式会社,東京都,町田市,玉川学園７丁目３番２０号,,13,209,1940041,,,2022-12-28,清算の結了等,,,2015-10-05,1,,,,,ユガワララケットクラブ,0
430,2020001070344,登記記録の閉鎖等,0,2023-01-11,2023-01-04,山中精工株式会社,,株式会社,神奈川県,川崎市高津区,久地３丁目７番２５号,,14,134,2130032,,,2023-01-04,清算の結了等,,,2015-10-05,1,,,,,ヤマナカセイコウ,0
456,2021003006286,登記記録の閉鎖等,0,2023-01-11,2023-01-04,合同会社ナナイチワークス,,合同会社,神奈川県,相模原市緑区,二本松３丁目２７番９号,,14,151,2520137,,,2023-01-04,清算の結了等,,,2016-11-02,1,,,,,ナナイチワークス,0
461,2030001054049,登記記録の閉鎖等,0,2023-01-11,2023-01-05,株式会社ＴＣプラットフォーム,,株式会社,埼玉県,所沢市,大字北秋津５４０番地の１７,,11,208,3590038,,,2023-01-05,清算の結了等,,,2015-10-05,1,,,,,ティーシープラットフォーム,0
478,2030002053264,登記記録の閉鎖等,0,2023-01-11,2023-01-05,遠藤土建工業有限会社,,有限会社,埼玉県,上尾市,栄町４番２０号,,11,219,3620033,,,2023-01-05,清算の結了等,,,2015-10-05,1,,,,,エンドウドケンコウギョウ,0
488,2040002039907,登記記録の閉鎖等,0,2023-01-11,2023-01-04,有限会社イワノコーポレーション,,有限会社,千葉県,市川市,菅野４丁目１２番４号,,12,203,2720824,,,2023-01-04,清算の結了等,,,2015-10-05,1,,,,,イワノコーポレーション,0
496,2050001031434,登記記録の閉鎖等,0,2023-01-11,2022-12-28,株式会社広進商事,,株式会社,茨城県,筑西市,横島８４３番地２,,08,227,3080802,,,2022-12-28,清算の結了等,,,2015-10-05,1,,,,,コウシンショウジ,0
500,2050002042018,登記記録の閉鎖等,0,2023-01-11,2022-12-28,有限会社小林鉄工所,,有限会社,茨城県,筑西市,小川１２４１番地,,08,227,3080857,,,2022-12-28,清算の結了等,,,2015-10-05,1,,,,,コバヤシテッコウジョ,0
511,2080102013972,登記記録の閉鎖等,0,2023-01-11,2023-01-06,有限会社サンクリーン矢部美商,,有限会社,静岡県,富士市,五貫島９６２番地の３,,22,210,4160946,,,2023-01-06,清算の結了等,,,2015-10-05,1,,,,,サンクリーンヤベビショウ,0
515,2100001029340,登記記録の閉鎖等,0,2023-01-11,2023-01-04,株式会社音羽,,株式会社,長野県,小諸市,鶴巻２丁目２番２７号,,20,208,3840007,,,2023-01-04,合併による解散等,6100001008349,令和５年１月１日長野県小諸市大字御影新田２６０８番地株式会社あんでーくっく（6100001008349）に合併し解散,2016-05-13,1,,,,,オトワ,0
527,2120001200972,登記記録の閉鎖等,0,2023-01-11,2023-01-05,エイブル引越サービス株式会社,,株式会社,大阪府,東大阪市,川俣１丁目３番８号,,27,227,5770063,,,2023-01-05,合併による解散等,4010401004280,令和５年１月１日東京都港区元赤坂一丁目５番５号株式会社エイブル（4010401004280）に合併し解散,2016-10-03,1,,,,,エイブルヒッコシサービス,0
552,2130002024577,登記記録の閉鎖等,0,2023-01-11,2023-01-05,有限会社カン綜合計画,,有限会社,京都府,京都市中京区,寺町通夷川上る久遠院前町６６９番地１,,26,104,6040993,,,2023-01-05,合併による解散等,9130002019711,令和５年１月１日京都市中京区寺町通夷川上ル久遠院前町６６９番地１株式会社カン綜合計画・博國屋（9130002019711）に合併し解散,2015-10-05,1,,,,,カンソウゴウケイカク,0
559,2140001036300,登記記録の閉鎖等,0,2023-01-11,2023-01-05,株式会社三共商品,,株式会社,兵庫県,神戸市中央区,多聞通２丁目２番１６号,,28,110,6500015,,,2023-01-05,清算の結了等,,,2015-10-05,1,,,,,サンキョウショウヒン,0
573,2150001002631,登記記録の閉鎖等,0,2023-01-11,2023-01-11,株式会社レディー美容室,,株式会社,奈良県,奈良市,登美ヶ丘３丁目１２番９号,,29,201,6310004,,,2023-01-11,登記官による閉鎖,,,2015-10-05,1,,,,,,0
574,2150002004049,登記記録の閉鎖等,0,2023-01-11,2023-01-11,有限会社大垣建材店,,有限会社,奈良県,生駒市,東新町２番２１号,,29,209,6300258,,,2023-01-11,登記官による閉鎖,,,2015-10-05,1,,,,,,0
575,2150002004718,登記記録の閉鎖等,0,2023-01-11,2023-01-11,有限会社ケアアシスト,,有限会社,奈良県,奈良市,富雄北２丁目８番１５号ガーデンハイツ高川３０５号室,,29,201,6310076,,,2023-01-11,登記官による閉鎖,,,2015-10-05,1,,,,,,0
576,2150002006128,登記記録の閉鎖等,0,2023-01-11,2023-01-11,有限会社池田興業,,有限会社,奈良県,生駒郡安堵町,大字東安堵５１１番地の５,,29,345,6391061,,,2023-01-11,登記官による閉鎖,,,2015-10-05,1,,,,,,0
577,2150002009205,登記記録の閉鎖等,0,2023-01-11,2023-01-11,有限会社中西保険事務所,,有限会社,奈良県,大和高田市,大字築山６７４番地の９,,29,202,6350071,,,2023-01-11,登記官による閉鎖,,,2015-10-05,1,,,,,,0
580,2160002013619,登記記録の閉鎖等,0,2023-01-11,2023-01-05,有限会社リンク滋賀,,有限会社,滋賀県,草津市,草津３丁目１０番４５号,,25,206,5250034,,,2023-01-05,清算の結了等,,,2015-10-05,1,,,,,リンクシガ,0
581,2180001020507,登記記録の閉鎖等,0,2023-01-11,2023-01-04,株式会社ニッケイ,,株式会社,愛知県,名古屋市中川区,高畑３丁目１３８番地,,23,110,4540911,,,2023-01-04,清算の結了等,,,2015-10-05,1,,,,,ニッケイ,0
585,2180002024408,登記記録の閉鎖等,0,2023-01-11,2023-01-05,有限会社平田屋商店,,有限会社,愛知県,名古屋市西区,花の木２丁目９番５号,,23,104,4510062,,,2023-01-05,清算の結了等,,,2015-10-05,1,,,,,ヒラタヤショウテン,0
597,2220002002128,登記記録の閉鎖等,0,2023-01-11,2023-01-05,有限会社岸建築,,有限会社,石川県,金沢市,長土塀３丁目１４番２号,,17,201,9200867,,,2023-01-05,清算の結了等,,,2015-10-05,1,,,,,キシケンチク,0
609,2240002031471,登記記録の閉鎖等,0,2023-01-11,2023-01-05,有限会社庄原ミシン商会,,有限会社,島根県,松江市,上乃木４丁目３１番１５号,,32,201,6900015,,,2023-01-05,清算の結了等,,,2015-10-05,1,,,,,ショウバラミシンショウカイ,0
619,2260005008317,登記記録の閉鎖等,0,2023-01-11,2023-01-06,特定非営利活動法人玉野つつじねっと,,その他の設立登記法人,岡山県,玉野市,迫間２２９１番地５,,33,204,7060142,,,2023-01-06,清算の結了等,,,2015-10-05,1,,,,,タマノツツジネット,0
621,2280002010744,登記記録の閉鎖等,0,2023-01-11,2023-01-06,有限会社ＭＡＲＩＮ企画,,有限会社,島根県,益田市,駅前町２５番３５号,,32,204,6980024,,,2023-01-06,清算の結了等,,,2015-10-05,1,,,,,マリンキカク,0
635,2290801011009,登記記録の閉鎖等,0,2023-01-11,2023-01-05,株式会社アクアデザイン九州,,株式会社,福岡県,北九州市八幡西区,大字野面１１１１番地,,40,109,8071262,,,2023-01-05,合併による解散等,7290801009072,令和５年１月１日北九州市八幡西区野面１１１１番地株式会社エルゼ（7290801009072）に合併し解散,2015-10-05,1,,,,,アクアデザインキュウシュウ,0
636,2290801016040,登記記録の閉鎖等,0,2023-01-11,2023-01-05,株式会社美洗人,,株式会社,福岡県,北九州市八幡西区,大字野面１１１１番地,,40,109,8071262,,,2023-01-05,合併による解散等,7290801009072,令和５年１月１日北九州市八幡西区野面１１１１番地株式会社エルゼ（7290801009072）に合併し解散,2015-10-05,1,,,,,ビセント,0
652,2370301003480,登記記録の閉鎖等,0,2023-01-11,2022-12-28,櫻デンキ株式会社,,株式会社,宮城県,東松島市,赤井字七反谷地４３４番地１５,,04,214,9810501,,,2022-12-28,清算の結了等,,,2015-10-05,1,,,,,サクラデンキ,0
668,2440001002073,登記記録の閉鎖等,0,2023-01-11,2023-01-04,株式会社ＤＳＫマーケティング,,株式会社,北海道,札幌市中央区,北五条西１７丁目４番４号第５８藤栄ビル,,01,101,0600005,,,2023-01-04,合併による解散等,4430001060525,令和５年１月１日札幌市中央区北五条西十七丁目４番４号第５８藤栄ビルＨＩＲ株式会社（4430001060525）に合併し解散,2015-10-05,1,,,,,ディーエスケーマーケティング,0
673,2470001000149,登記記録の閉鎖等,0,2023-01-11,2023-01-11,株式会社丸春石材,,株式会社,香川県,高松市,牟礼町牟礼２９９５番地第１,,37,201,7610121,,,2023-01-11,登記官による閉鎖,,,2015-10-05,1,,,,,,0
674,2470001010247,登記記録の閉鎖等,0,2023-01-11,2023-01-11,三栄商事株式会社,,株式会社,香川県,三豊市,高瀬町佐股３９５番地３３,,37,208,7670021,,,2023-01-11,登記官による閉鎖,,,2015-10-05,1,,,,,,0
675,2470001012540,登記記録の閉鎖等,0,2023-01-11,2023-01-11,株式会社エフファイブ,,株式会社,香川県,高松市,香西本町２１０番地３,,37,201,7618012,,,2023-01-11,登記官による閉鎖,,,2015-10-05,1,,,,,,0
676,2470001013407,登記記録の閉鎖等,0,2023-01-11,2023-01-11,グランド観光株式会社,,株式会社,香川県,丸亀市,土器町東３丁目４４番地,,37,202,7630082,,,2023-01-11,登記官による閉鎖,,,2015-10-05,1,,,,,,0
678,2470002005221,登記記録の閉鎖等,0,2023-01-11,2023-01-11,有限会社ニシオ,,有限会社,香川県,高松市,香西本町７５１番地８０,,37,201,7618012,,,2023-01-11,登記官による閉鎖,,,2015-10-05,1,,,,,,0
679,2470002005915,登記記録の閉鎖等,0,2023-01-11,2023-01-11,有限会社フジモト,,有限会社,香川県,高松市,上福岡町８７５番地９,,37,201,7600077,,,2023-01-11,登記官による閉鎖,,,2015-10-05,1,,,,,,0
680,2470002008769,登記記録の閉鎖等,0,2023-01-11,2023-01-11,東急システム有限会社,,有限会社,香川県,高松市,林町６番地３３,,37,201,7610301,,,2023-01-11,登記官による閉鎖,,,2015-10-05,1,,,,,,0
681,2470002010832,登記記録の閉鎖等,0,2023-01-11,2023-01-11,有限会社川田商店,,有限会社,香川県,綾歌郡綾川町,北１２７２番地,,37,387,7612306,,,2023-01-11,登記官による閉鎖,,,2015-10-05,1,,,,,,0
682,2470002012589,登記記録の閉鎖等,0,2023-01-11,2023-01-11,有限会社ハヤシ産業,,有限会社,香川県,仲多度郡琴平町,榎井４６４番地２,,37,403,7660004,,,2023-01-11,登記官による閉鎖,,,2015-10-05,1,,,,,,0
683,2470002012837,登記記録の閉鎖等,0,2023-01-11,2023-01-11,香川観光有限会社,,有限会社,香川県,善通寺市,吉原町２１１２番地,,37,204,7650061,,,2023-01-11,登記官による閉鎖,,,2015-10-05,1,,,,,,0
691,3010001072415,登記記録の閉鎖等,0,2023-01-11,2023-01-04,株式会社インタールクス,,株式会社,東京都,豊島区,東池袋４丁目２７番５号,,13,116,1700013,,,2023-01-04,清算の結了等,,,2015-10-05,1,,,,,インタールクス,0
737,3010902002057,登記記録の閉鎖等,0,2023-01-11,2022-12-28,有限会社内海印刷所,,有限会社,東京都,世田谷区,千歳台２丁目１３番１号,,13,112,1570071,,,2022-12-28,清算の結了等,,,2015-10-05,1,,,,,ウツミインサツジョ,0
769,3011301001344,登記記録の閉鎖等,0,2023-01-11,2022-12-28,株式会社オフィスティーアンドティー,,株式会社,東京都,杉並区,永福３丁目５１番８号,,13,115,1680064,,,2022-12-28,清算の結了等,,,2015-10-05,1,,,,,オフィスティーアンドティー,0
789,3012402014284,登記記録の閉鎖等,0,2023-01-11,2023-01-04,アート・コーポラティブハウジング株式会社,,株式会社,東京都,府中市,若松町２丁目８番地の４８,,13,206,1830005,,,2023-01-04,清算の結了等,,,2015-10-05,1,,,,,アートコーポラティブハウジング,0
791,3012803001443,登記記録の閉鎖等,0,2023-01-11,2022-12-26,合同会社ＥＡパートナーズ,,合同会社,東京都,国立市,東４丁目１６番地の７０－２０６号,,13,215,1860002,,,2022-12-26,清算の結了等,,,2016-05-17,1,,,,,イーエーパートナーズ,0
796,3013301042970,登記記録の閉鎖等,0,2023-01-11,2023-01-04,ドワーフワークス株式会社,,株式会社,東京都,豊島区,南池袋２丁目３２番４号,,13,116,1710022,,,2023-01-04,清算の結了等,,,2018-10-22,1,,,,,ドワーフワークス,0
803,3020001029430,登記記録の閉鎖等,0,2023-01-11,2022-12-28,株式会社横浜建築研究所,,株式会社,神奈川県,鎌倉市,扇ガ谷１丁目１０番２２号,,14,204,2480011,,,2022-12-28,清算の結了等,,,2015-10-05,1,,,,,ヨコハマケンチクケンキュウジョ,0
846,3040002017102,登記記録の閉鎖等,0,2023-01-11,2023-01-04,総合環境システム有限会社,,有限会社,千葉県,千葉市緑区,あすみが丘３丁目１番地３１,,12,105,2670066,,,2023-01-04,清算の結了等,,,2015-10-05,1,,,,,ソウゴウカンキョウシステム,0
848,3040002068970,登記記録の閉鎖等,0,2023-01-11,2023-01-04,ヒロックス株式会社,,株式会社,千葉県,袖ケ浦市,蔵波台２丁目１３番地１９,,12,229,2990245,,,2023-01-04,合併による解散等,6040001125381,令和５年１月１日千葉県袖ケ浦市蔵波台二丁目１３番地１９株式会社ヒロックス（6040001125381）に合併し解散,2015-10-05,1,,,,,ヒロックス,0
867,3100002000687,登記記録の閉鎖等,0,2023-01-11,2023-01-05,エース観光有限会社,,有限会社,長野県,長野市,川中島町御厨１３６９番地,,20,201,3812221,,,2023-01-05,清算の結了等,,,2015-10-05,1,,,,,エースカンコウ,0
872,3110002020684,登記記録の閉鎖等,0,2023-01-11,2023-01-05,有限会社大道,,有限会社,新潟県,柏崎市,大字野田１８３２番地１,,15,205,9451241,,,2023-01-05,清算の結了等,,,2015-10-05,1,,,,,ダイドウ,0
882,3120001222116,登記記録の閉鎖等,0,2023-01-11,2023-01-04,赤坂５丁目ホテルシステムズ株式会社,,株式会社,大阪府,大阪市北区,大淀中１丁目１番８８号,,27,127,5310076,,,2023-01-04,合併による解散等,7120001179690,令和５年１月１日大阪市北区大淀中一丁目１番８８号ＳＨホテルシステムズ株式会社（7120001179690）に合併し解散,2019-07-03,1,,,,,アカサカゴチョウメホテルシステムズ,0
889,3120002065844,登記記録の閉鎖等,0,2023-01-11,2023-01-06,日本テクノハウジング東日本有限会社,,有限会社,千葉県,市川市,原木２０６０番地,,12,203,2720004,,,2023-01-06,合併による解散等,2120102014438,令和４年１２月２７日大阪府松原市天美西一丁目１番５号日本テクノハウジング株式会社（2120102014438）に合併し解散,2015-10-05,1,,,,,ニホンテクノハウジングヒガシニホン,0
890,3120003015237,登記記録の閉鎖等,0,2023-01-11,2022-12-26,合同会社大沢パワー,,合同会社,千葉県,市原市,五井東３丁目６番地１３五井東ビル２階,,12,219,2900055,,,2022-12-26,合併による解散等,9060003002483,令和４年１２月２６日千葉県市原市五井東三丁目６番地１３五井東ビル２階合同会社ｉｋｅｃｏ（9060003002483）に合併し解散,2019-01-28,1,,,,,オオサワパワー,0
914,3140001002755,登記記録の閉鎖等,0,2023-01-11,2023-01-05,株式会社ワイコ,,株式会社,兵庫県,神戸市東灘区,森北町７丁目２３番１２号,,28,101,6580001,,,2023-01-05,清算の結了等,,,2015-10-05,1,,,,,ワイコ,0
927,3140005024878,登記記録の閉鎖等,0,2023-01-11,2023-01-10,特定非営利活動法人アスリートコネクト,,その他の設立登記法人,兵庫県,姫路市,高尾町１２番地舞ビル１Ｆ,,28,201,6700915,,,2023-01-10,清算の結了等,,,2019-11-28,1,,,,,アスリートコネクト,0
930,3150001009907,登記記録の閉鎖等,0,2023-01-11,2023-01-11,株式会社暮らしの友,00042912,株式会社,奈良県,宇陀市,室生上笠間１１４７番地の９３,,29,212,6320202,,,2023-01-11,登記官による閉鎖,,,2015-10-05,1,,,,,,0
931,3150001012365,登記記録の閉鎖等,0,2023-01-11,2022-12-08,生野木材株式会社,,株式会社,奈良県,葛城市,北花内４９４番地,,29,211,6392113,,,2022-12-08,合併による解散等,5150001012371,令和４年１２月１日奈良県葛城市北花内４９４番地株式会社生野建設（5150001012371）に合併し解散,2015-10-05,1,,,,,イクノモクザイ,0
932,3150002000096,登記記録の閉鎖等,0,2023-01-11,2023-01-11,有限会社アダーチ,,有限会社,奈良県,奈良市,高畑町１０６６番地の２,,29,201,6308301,,,2023-01-11,登記官による閉鎖,,,2015-10-05,1,,,,,,0
933,3150005003245,登記記録の閉鎖等,0,2023-01-11,2023-01-11,財団法人天理教維持財団,,その他の設立登記法人,奈良県,天理市,三島町２７１番地,,29,204,6320015,,,2023-01-11,登記官による閉鎖,,,2015-10-05,1,,,,,,0
934,3150005003633,登記記録の閉鎖等,0,2023-01-11,2023-01-11,関西総合建設事業協同組合,,その他の設立登記法人,奈良県,生駒郡三郷町,三室２丁目３４１番３,,29,343,6360802,,,2023-01-11,登記官による閉鎖,,,2015-10-05,1,,,,,,0
948,3180302025022,登記記録の閉鎖等,0,2023-01-11,2022-12-27,有限会社田中商店,,有限会社,愛知県,豊田市,天王町１丁目９０番地,,23,211,4710054,,,2022-12-27,清算の結了等,,,2015-10-05,1,,,,,タナカショウテン,0
953,3210001016938,登記記録の閉鎖等,0,2023-01-11,2023-01-05,芝工業株式会社,,株式会社,福井県,丹生郡越前町,江波第６７号３番地,,18,423,9160255,,,2023-01-05,清算の結了等,,,2017-11-07,1,,,,,シバコウギョウ,0
955,3230001001343,登記記録の閉鎖等,0,2023-01-11,2023-01-04,スダコー株式会社,,株式会社,富山県,富山市,八日町２４７番地１９,,16,201,9398221,,,2023-01-04,合併による解散等,1230001003416,令和５年１月１日富山市白銀町２番５号紙ぷらす株式会社（1230001003416）に合併し解散,2015-10-05,1,,,,,スダコー,0
1014,3470001000692,登記記録の閉鎖等,0,2023-01-11,2023-01-11,エコー纎維株式会社,,株式会社,香川県,高松市,築地町９番地４３,,37,201,7600061,,,2023-01-11,登記官による閉鎖,,,2015-10-05,1,,,,,,0
1015,3470001001253,登記記録の閉鎖等,0,2023-01-11,2023-01-11,共同技研開発株式会社,,株式会社,香川県,高松市,屋島東町１２００番地,,37,201,7610111,,,2023-01-11,登記官による閉鎖,,,2015-10-05,1,,,,,,0
1017,3470001008257,登記記録の閉鎖等,0,2023-01-11,2023-01-11,株式会社西山建設,,株式会社,香川県,仲多度郡まんのう町,炭所西１８６１番地１,,37,406,7660017,,,2023-01-11,登記官による閉鎖,,,2017-03-30,1,,,,,,0
1018,3470001011046,登記記録の閉鎖等,0,2023-01-11,2023-01-11,株式会社ゼンチクミート,,株式会社,香川県,さぬき市,大川町富田西２８６６番地５,,37,206,7610901,,,2023-01-11,登記官による閉鎖,,,2015-10-05,1,,,,,,0
1020,3470002002960,登記記録の閉鎖等,0,2023-01-11,2023-01-11,有限会社斎藤燃料,,有限会社,香川県,高松市,室新町１０５４番地の３,,37,201,7618062,,,2023-01-11,登記官による閉鎖,,,2015-10-05,1,,,,,,0
1021,3470002007828,登記記録の閉鎖等,0,2023-01-11,2023-01-11,有限会社マックス,,有限会社,香川県,高松市,藤塚町１丁目６番１号,,37,201,7600071,,,2023-01-11,登記官による閉鎖,,,2015-10-05,1,,,,,,0
1022,3470002008660,登記記録の閉鎖等,0,2023-01-11,2023-01-11,有限会社アン・ロワイヤル,,有限会社,香川県,高松市,仏生山町乙１７番地１０,,37,201,7618079,,,2023-01-11,登記官による閉鎖,,,2015-10-05,1,,,,,,0
1023,3470002010039,登記記録の閉鎖等,0,2023-01-11,2023-01-11,有限会社西日本特殊溶接工業,,有限会社,香川県,高松市,国分寺町新名１１０６番地１６,,37,201,7690104,,,2023-01-11,登記官による閉鎖,,,2015-10-05,1,,,,,,0
1047,4010102003961,登記記録の閉鎖等,0,2023-01-11,2022-12-27,有限会社多摩テクノ,,有限会社,東京都,八王子市,別所２丁目１０番地１－２０５,,13,201,1920363,,,2022-12-27,清算の結了等,,,2015-10-05,1,,,,,タマテクノ,0
1050,4010401099032,登記記録の閉鎖等,0,2023-01-11,2022-12-14,レイエイトホールディングス株式会社,,株式会社,東京都,港区,虎ノ門５丁目１３番１号,,13,103,1050001,,,2022-12-14,合併による解散等,9010403009133,令和４年１２月１４日東京都港区虎ノ門五丁目１３番１号レイエイト株式会社（9010403009133）に合併し解散,2015-10-05,1,,,,,レイエイトホールディングス,0
1102,4011403001704,登記記録の閉鎖等,0,2023-01-11,2023-01-10,合同会社ＴＲ　ｃｏｍｐａｎｙ,,合同会社,東京都,板橋区,高島平２丁目２８－１－１０４,,13,119,1750082,,,2023-01-10,清算の結了等,,,2015-10-05,1,,,,,,0
1104,4011501018609,登記記録の閉鎖等,0,2023-01-11,2022-12-26,株式会社ライフガード,,株式会社,東京都,北区,赤羽北３丁目２番４号,,13,117,1150052,,,2022-12-26,清算の結了等,,,2015-10-05,1,,,,,ライフガード,0
1105,4011505002154,登記記録の閉鎖等,0,2023-01-11,2022-12-27,一般社団法人パームリー協会,,その他の設立登記法人,東京都,荒川区,西日暮里２丁目３２番９号,,13,118,1160013,,,2022-12-27,清算の結了等,,,2018-05-25,1,,,,,パームリーキョウカイ,0
1108,4011702009935,登記記録の閉鎖等,0,2023-01-11,2023-01-06,有限会社フォレスト,,有限会社,東京都,江戸川区,南葛西３丁目１５番２２号フォレストグリーン１０３号室,,13,123,1340085,,,2023-01-06,清算の結了等,,,2015-10-05,1,,,,,フォレスト,0
1110,4012401002834,登記記録の閉鎖等,0,2023-01-11,2023-01-05,株式会社大沢商事,,株式会社,東京都,小金井市,貫井南町２丁目１番２号,,13,210,1840014,,,2023-01-05,清算の結了等,,,2015-10-05,1,,,,,オオサワショウジ,0
1126,4020001127225,登記記録の閉鎖等,0,2023-01-11,2023-01-04,株式会社スパーク横浜,,株式会社,神奈川県,横浜市神奈川区,三ツ沢上町７番８号ハイツジュネス２０３,,14,102,2210856,,,2023-01-04,清算の結了等,,,2018-07-19,1,,,,,スパークヨコハマ,0
1140,4021001054748,登記記録の閉鎖等,0,2023-01-11,2023-01-06,漢泰溶材株式会社,,株式会社,大阪府,大阪市淀川区,宮原２丁目１４番１４号,,27,123,5320003,,,2023-01-06,清算の結了等,,,2015-10-05,1,,,,,カンタイヨウザイ,0
1147,4030001063072,登記記録の閉鎖等,0,2023-01-11,2023-01-06,株式会社Ｇ．Ｗ．ＪＡＰＡＮ,,株式会社,埼玉県,さいたま市桜区,栄和２丁目１４番５号,,11,106,3380823,,,2023-01-06,合併による解散等,5120001040961,令和５年１月１日大阪市西区北堀江四丁目１４番１号株式会社Ａ．Ｐ．Ｉ．（5120001040961）に合併し解散,2015-10-05,1,,,,,,0
1149,4030001138023,登記記録の閉鎖等,0,2023-01-11,2023-01-06,株式会社Ｓｔｉｌｌ　Ｇｒｅｅｎ,,株式会社,埼玉県,新座市,石神２丁目５番３号,,11,230,3520033,,,2023-01-06,清算の結了等,,,2020-09-01,1,,,,,スティルグリーン,0
1167,4040001105047,登記記録の閉鎖等,0,2023-01-11,2022-12-22,株式会社ｋｉｔｃｈｅｎ　ｆｕｒｕｙａｍａ,,株式会社,千葉県,八千代市,萱田７１３番地１,,12,221,2760043,,,2022-12-22,清算の結了等,,,2018-06-13,1,,,,,キッチンフルヤマ,0
1190,4100002000703,登記記録の閉鎖等,0,2023-01-11,2023-01-05,有限会社エーブイシー,,有限会社,長野県,長野市,吉田２丁目９番１２号,,20,201,3810043,,,2023-01-05,清算の結了等,,,2015-10-05,1,,,,,エーブイシー,0
1194,4110001017540,登記記録の閉鎖等,0,2023-01-11,2023-01-05,株式会社柏新時報社,,株式会社,新潟県,柏崎市,西本町１丁目８番１７号,,15,205,9450066,,,2023-01-05,清算の結了等,,,2015-10-05,1,,,,,ハクシンジホウシャ,0
1237,4150001004312,登記記録の閉鎖等,0,2023-01-11,2023-01-11,株式会社あかね住宅,,株式会社,奈良県,奈良市,西大寺赤田町２丁目４番８－１,,29,201,6310818,,,2023-01-11,登記官による閉鎖,,,2017-12-07,1,,,,,,0
1238,4150001007694,登記記録の閉鎖等,0,2023-01-11,2023-01-11,株式会社つちや,,株式会社,奈良県,奈良市,南京終町７４４番地の１,,29,201,6308141,,,2023-01-11,登記官による閉鎖,,,2015-10-05,1,,,,,,0
1240,4150002004146,登記記録の閉鎖等,0,2023-01-11,2023-01-11,有限会社田村家具装飾店,,有限会社,奈良県,生駒市,北新町２１番２１号,,29,209,6300245,,,2023-01-11,登記官による閉鎖,,,2015-10-05,1,,,,,,0
1241,4150002006043,登記記録の閉鎖等,0,2023-01-11,2023-01-11,有限会社田中工業,,有限会社,奈良県,奈良市,南京終町３丁目３９３番地の３,,29,201,6308141,,,2023-01-11,登記官による閉鎖,,,2015-10-05,1,,,,,,0
1242,4150002007504,登記記録の閉鎖等,0,2023-01-11,2023-01-11,有限会社幸運,,有限会社,奈良県,橿原市,曲川町４丁目１７０番地２,,29,205,6340837,,,2023-01-11,登記官による閉鎖,,,2015-10-05,1,,,,,,0
1243,4150002007826,登記記録の閉鎖等,0,2023-01-11,2023-01-11,有限会社吉田鉄工所,,有限会社,奈良県,高市郡明日香村,大字奥山５７０番地,,29,402,6340102,,,2023-01-11,登記官による閉鎖,,,2015-10-05,1,,,,,,0
1247,4160002000318,登記記録の閉鎖等,0,2023-01-11,2023-01-06,有限会社エグチ,,有限会社,滋賀県,大津市,松山町９番３５号,,25,201,5200024,,,2023-01-06,清算の結了等,,,2015-10-05,1,,,,,エグチ,0
1248,4160002013154,登記記録の閉鎖等,0,2023-01-11,2023-01-04,有限会社マツヒロ,,有限会社,滋賀県,栗東市,綣３丁目９番１８－３１２号,,25,208,5203031,,,2023-01-04,清算の結了等,,,2015-10-05,1,,,,,マツヒロ,0
1253,4180001080771,登記記録の閉鎖等,0,2023-01-11,2023-01-05,株式会社カネコ製作所,,株式会社,愛知県,犬山市,大字羽黒字高屋１６番地の１,,23,215,4840894,,,2023-01-05,清算の結了等,,,2015-10-05,1,,,,,カネコセイサクショ,0
1297,4320002015794,登記記録の閉鎖等,0,2023-01-11,2023-01-04,有限会社日將,,有限会社,大分県,速見郡日出町,２６０３番地,,44,341,8791506,,,2023-01-04,清算の結了等,,,2015-10-05,1,,,,,ニッショウ,0
1305,4340002024653,登記記録の閉鎖等,0,2023-01-11,2023-01-05,中光電建工業有限会社,,有限会社,鹿児島県,南九州市,頴娃町郡９７００番地,,46,223,8910701,,,2023-01-05,清算の結了等,,,2015-10-05,1,,,,,チュウコウデンケンコウギョウ,0
1309,4370001001709,登記記録の閉鎖等,0,2023-01-11,2022-12-28,株式会社サカエ工業,,株式会社,宮城県,仙台市太白区,郡山５丁目１４番１８号,,04,104,9820003,,,2022-12-28,清算の結了等,,,2015-10-05,1,,,,,サカエコウギョウ,0
1313,4370002012837,登記記録の閉鎖等,0,2023-01-11,2023-01-04,有限会社花弦,,有限会社,宮城県,仙台市宮城野区,萩野町１丁目１２番１号,,04,102,9830043,,,2023-01-04,合併による解散等,4370001005412,令和４年１２月３１日仙台市泉区天神沢一丁目３番２７号株式会社仙和（4370001005412）に合併し解散,2015-10-05,1,,,,,カゲン,0
1329,4420002014646,登記記録の閉鎖等,0,2023-01-11,2023-01-05,有限会社木村塗装,,有限会社,青森県,南津軽郡藤崎町,大字西豊田３丁目２番地の４,,02,361,0383803,,,2023-01-05,清算の結了等,,,2015-10-05,1,,,,,キムラトソウ,0
1333,4430001068741,登記記録の閉鎖等,0,2023-01-11,2023-01-04,株式会社ＨＩＲフード,,株式会社,北海道,札幌市中央区,北五条西１７丁目４番４号第５８藤栄ビル,,01,101,0600005,,,2023-01-04,合併による解散等,4430001060525,令和５年１月１日札幌市中央区北五条西十七丁目４番４号第５８藤栄ビルＨＩＲ株式会社（4430001060525）に合併し解散,2015-10-05,1,,,,,エイチアイアールフード,0
1341,4460001000404,登記記録の閉鎖等,0,2023-01-11,2023-01-10,釧路漁網株式会社,,株式会社,北海道,釧路郡釧路町,中央２丁目２５番地１,,01,661,0880606,,,2023-01-10,清算の結了等,,,2015-10-05,1,,,,,クシロギョモウ,0
1342,4470001005162,登記記録の閉鎖等,0,2023-01-11,2023-01-11,株式会社シナジー,,株式会社,香川県,高松市,林町２２１７番地１５,,37,201,7610301,,,2023-01-11,登記官による閉鎖,,,2015-10-05,1,,,,,,0
1343,4470001009485,登記記録の閉鎖等,0,2023-01-11,2023-01-11,株式会社ＫＦシステム,,株式会社,香川県,綾歌郡宇多津町,浜一番丁７番９号,,37,386,7690201,,,2023-01-11,登記官による閉鎖,,,2015-10-05,1,,,,,,0
1344,4470001013306,登記記録の閉鎖等,0,2023-01-11,2023-01-11,株式会社絆化学,,株式会社,香川県,高松市,国分寺町国分１２１０番地１,,37,201,7690102,,,2023-01-11,登記官による閉鎖,,,2015-10-05,1,,,,,,0
1346,4470002006580,登記記録の閉鎖等,0,2023-01-11,2023-01-11,有限会社丸八呉服店,,有限会社,香川県,高松市,伏石町２１３２番地２,,37,201,7618071,,,2023-01-11,登記官による閉鎖,,,2015-10-05,1,,,,,,0
1347,4470002007001,登記記録の閉鎖等,0,2023-01-11,2023-01-11,森谷興産有限会社,00005349,有限会社,香川県,高松市,古新町７番地１１,,37,201,7600025,,,2023-01-11,登記官による閉鎖,,,2015-10-05,1,,,,,,0
1348,4470002007678,登記記録の閉鎖等,0,2023-01-11,2023-01-11,有限会社完土タイル工業所,,有限会社,香川県,高松市,松縄町１０５７番地４,,37,201,7600079,,,2023-01-11,登記官による閉鎖,,,2015-10-05,1,,,,,,0
1349,4470002009261,登記記録の閉鎖等,0,2023-01-11,2023-01-11,有限会社松本石材店,,有限会社,香川県,高松市,牟礼町牟礼２６８０番地１,,37,201,7610121,,,2023-01-11,登記官による閉鎖,,,2015-10-05,1,,,,,,0
1350,4470002010459,登記記録の閉鎖等,0,2023-01-11,2023-01-11,有限会社アクア設計,,有限会社,香川県,高松市,高松町２２０５番地２,,37,201,7610104,,,2023-01-11,登記官による閉鎖,,,2015-10-05,1,,,,,,0
1351,4470002012488,登記記録の閉鎖等,0,2023-01-11,2023-01-11,有限会社米本薬局,,有限会社,香川県,丸亀市,宗古町１０番地,,37,202,7630007,,,2023-01-11,登記官による閉鎖,,,2015-10-05,1,,,,,,0
1352,4470002013214,登記記録の閉鎖等,0,2023-01-11,2023-01-11,有限会社黒木油店,,有限会社,香川県,仲多度郡琴平町,榎井７００番地４,,37,403,7660004,,,2023-01-11,登記官による閉鎖,,,2015-10-05,1,,,,,,0
1353,4470002014864,登記記録の閉鎖等,0,2023-01-11,2023-01-11,有限会社こまつや,,有限会社,香川県,坂出市,元町２丁目９番１７号,,37,203,7620045,,,2023-01-11,登記官による閉鎖,,,2015-10-05,1,,,,,,0
1354,4470002015739,登記記録の閉鎖等,0,2023-01-11,2023-01-11,有限会社三幸商会,,有限会社,香川県,三豊市,詫間町詫間５２２番地２,,37,208,7691101,,,2023-01-11,登記官による閉鎖,,,2015-10-05,1,,,,,,0
1356,4470005000770,登記記録の閉鎖等,0,2023-01-11,2023-01-11,香川汽船協同組合,,その他の設立登記法人,香川県,高松市,城東町１丁目８番１２号,,37,201,7600036,,,2023-01-11,登記官による閉鎖,,,2015-10-05,1,,,,,,0
1357,4470005001298,登記記録の閉鎖等,0,2023-01-11,2023-01-11,財団法人香川県企業振興公社,,その他の設立登記法人,香川県,高松市,福岡町２丁目２番２－５０２号,,37,201,7600066,,,2023-01-11,登記官による閉鎖,,,2017-11-10,1,,,,,,0
1382,5010005016325,登記記録の閉鎖等,0,2023-01-11,2023-01-06,一般社団法人金融事業振興協会,,その他の設立登記法人,東京都,中央区,日本橋３丁目８番２号,,13,102,1030027,,,2023-01-06,清算の結了等,,,2015-10-05,1,,,,,キンユウジギョウシンコウキョウカイ,0
1401,5010602027625,登記記録の閉鎖等,0,2023-01-11,2023-01-04,有限会社シマ産業,,有限会社,東京都,墨田区,立花４丁目１７番１８－６０５号,,13,107,1310043,,,2023-01-04,清算の結了等,,,2015-10-05,1,,,,,,0
1416,5011001068764,登記記録の閉鎖等,0,2023-01-11,2023-01-05,株式会社東京ハウスパートナー,,株式会社,東京都,渋谷区,桜丘町２３－１７シティコート桜丘４１０,,13,113,1500031,,,2023-01-05,合併による解散等,4011001046218,令和４年１２月６日広島県府中市高木町１９番地３株式会社府中投資（4011001046218）に合併し解散,2015-10-05,1,,,,,トウキョウハウスパートナー,0
1424,5011002000065,登記記録の閉鎖等,0,2023-01-11,2023-01-10,有限会社アースワーク,,有限会社,東京都,江戸川区,西瑞江３丁目３番９５号,,13,123,1320015,,,2023-01-10,清算の結了等,,,2015-10-05,1,,,,,アースワーク,0
1450,5012405000214,登記記録の閉鎖等,0,2023-01-11,2022-12-28,医療法人社団巧養会,,その他の設立登記法人,東京都,府中市,清水が丘１丁目１１番地の１０,,13,206,1830015,,,2022-12-28,清算の結了等,,,2015-10-05,1,,,,,コウヨウカイ,0
1458,5020001127224,登記記録の閉鎖等,0,2023-01-11,2023-01-04,株式会社ゲンティン横浜,,株式会社,神奈川県,横浜市神奈川区,三ツ沢上町７番８号ハイツジュネス２０３,,14,102,2210856,,,2023-01-04,清算の結了等,,,2018-07-19,1,,,,,ゲンティンヨコハマ,0
1466,5020002022060,登記記録の閉鎖等,0,2023-01-11,2022-12-28,有限会社名畑商会,,有限会社,神奈川県,横浜市旭区,上白根町７４９番地の３,,14,112,2410001,,,2022-12-28,清算の結了等,,,2015-10-05,1,,,,,ナバタショウカイ,0
1469,5020003017596,登記記録の閉鎖等,0,2023-01-11,2023-01-04,合同会社アートプランニング,,合同会社,神奈川県,横浜市港北区,新横浜２丁目１５番地１２－９Ｆ,,14,109,2220033,,,2023-01-04,清算の結了等,,,2020-03-26,1,,,,,アートプランニング,0
1477,5030001035392,登記記録の閉鎖等,0,2023-01-11,2023-01-05,株式会社小山建設,,株式会社,埼玉県,草加市,旭町３丁目５番３号,,11,221,3400053,,,2023-01-05,合併による解散等,2030001116708,令和５年１月１日京都市中京区烏丸通錦小路上ル手洗水町６７０番地株式会社ハウスドゥ・ジャパン（2030001116708）に合併し解散,2015-10-05,1,,,,,コヤマケンセツ,0
1492,5040001112810,登記記録の閉鎖等,0,2023-01-11,2023-01-04,令和警備株式会社,,株式会社,千葉県,千葉市中央区,松波２丁目１７番５号パールヴィラ西千葉４０１,,12,101,2600044,,,2023-01-04,合併による解散等,7040001076153,令和５年１月１日千葉市稲毛区稲毛東三丁目６番１５号株式会社ＭＳＫ（7040001076153）に合併し解散,2020-03-10,1,,,,,レイワケイビ,0
1497,5050001029426,登記記録の閉鎖等,0,2023-01-11,2022-12-26,新生食品株式会社,,株式会社,茨城県,常総市,新井木町２０８番地２,,08,211,3030016,,,2022-12-26,清算の結了等,,,2015-10-05,1,,,,,シンセイショクヒン,0
1499,5050002006787,登記記録の閉鎖等,0,2023-01-11,2022-12-28,有限会社三平内装業,,有限会社,茨城県,那珂市,東木倉字山ノ神３６１番地の２,,08,226,3110114,,,2022-12-28,清算の結了等,,,2015-10-05,1,,,,,ミヒラナイソウギョウ,0
1511,5080402014998,登記記録の閉鎖等,0,2023-01-11,2023-01-06,有限会社サンダース浜北,,有限会社,静岡県,浜松市浜北区,沼２２５番地の５,,22,136,4340037,,,2023-01-06,清算の結了等,,,2015-10-05,1,,,,,サンダースハマキタ,0
1547,5120901044236,登記記録の閉鎖等,0,2023-01-11,2023-01-05,株式会社ＩＮＧ,,株式会社,大阪府,豊中市,庄内栄町２丁目１５番１２号,,27,203,5610834,,,2023-01-05,清算の結了等,,,2021-04-22,1,,,,,アイエヌジー,0
1564,5140002025571,登記記録の閉鎖等,0,2023-01-11,2023-01-05,有限会社あおば,,有限会社,兵庫県,神戸市兵庫区,羽坂通１丁目１番１１号,,28,105,6520805,,,2023-01-05,清算の結了等,,,2015-10-05,1,,,,,アオバ,0
1567,5150001000599,登記記録の閉鎖等,0,2023-01-11,2023-01-11,株式会社キリンヤ,,株式会社,奈良県,奈良市,平松２丁目３番１４号,,29,201,6310846,,,2023-01-11,登記官による閉鎖,,,2015-10-05,1,,,,,,0
1568,5150001002620,登記記録の閉鎖等,0,2023-01-11,2023-01-11,株式会社リバーシャロウ,,株式会社,奈良県,奈良市,勝南院町１１番地の１,,29,201,6308363,,,2023-01-11,登記官による閉鎖,,,2015-10-05,1,,,,,,0
1569,5150001006415,登記記録の閉鎖等,0,2023-01-11,2023-01-11,大国燃料株式会社,,株式会社,奈良県,天理市,櫟本町２９９３番地の２,,29,204,6320004,,,2023-01-11,登記官による閉鎖,,,2015-10-05,1,,,,,,0
1570,5150001009616,登記記録の閉鎖等,0,2023-01-11,2023-01-11,株式会社よしの,,株式会社,奈良県,桜井市,大字川合２５９番地の５,,29,206,6330063,,,2023-01-11,登記官による閉鎖,,,2015-10-05,1,,,,,,0
1573,5150002008856,登記記録の閉鎖等,0,2023-01-11,2023-01-11,有限会社葛城健康医学社,,有限会社,奈良県,葛城市,南道穗２３９番地,,29,211,6392143,,,2023-01-11,登記官による閉鎖,,,2015-10-05,1,,,,,,0
1590,5180301023074,登記記録の閉鎖等,0,2023-01-11,2022-12-28,ミカワツール株式会社,,株式会社,愛知県,西尾市,吉良町白浜新田井骨道上１２番地,,23,213,4440514,,,2022-12-28,清算の結了等,,,2015-10-05,1,,,,,ミカワツール,0
1598,5200002015161,登記記録の閉鎖等,0,2023-01-11,2023-01-04,有限会社アサヒ・インターナショナル,,有限会社,岐阜県,安八郡輪之内町,下大榑新田字大道２０７１番地１,,21,382,5030206,,,2023-01-04,合併による解散等,9200001036709,令和５年１月１日岐阜県安八郡輪之内町下大榑新田６９３番地１株式会社アサヒ・リンクホールディングス（9200001036709）に合併し解散,2015-10-05,1,,,,,アサヒインターナショナル,0
1615,5270001005000,登記記録の閉鎖等,0,2023-01-11,2022-12-28,株式会社空研,,株式会社,鳥取県,倉吉市,広栄町９３１番地２,,31,203,6820035,,,2022-12-28,清算の結了等,,,2015-10-05,1,,,,,クウケン,0
1616,5290001021136,登記記録の閉鎖等,0,2023-01-11,2023-01-04,株式会社城南タクシー,,株式会社,福岡県,福岡市城南区,梅林５丁目１１番１５号,,40,136,8140144,,,2023-01-04,合併による解散等,3290001000604,令和５年１月１日福岡市西区小戸四丁目１９番２０号株式会社姪浜タクシー（3290001000604）に合併し解散,2015-10-05,1,,,,,ジョウナンタクシー,0
1620,5290001088472,登記記録の閉鎖等,0,2023-01-11,2023-01-05,株式会社天地夢創,,株式会社,福岡県,福岡市城南区,友丘２丁目１０番３号,,40,136,8140112,,,2023-01-05,清算の結了等,,,2020-03-27,1,,,,,テンチムソウ,0
1654,5380001006846,登記記録の閉鎖等,0,2023-01-11,2023-01-04,株式会社山口商店,,株式会社,福島県,郡山市,笹川２丁目１７０番地,,07,203,9630108,,,2023-01-04,合併による解散等,6380001006845,令和５年１月１日福島県郡山市三穂田町川田二丁目１７３番地４山口倉庫株式会社（6380001006845）に合併し解散,2015-10-05,1,,,,,ヤマグチショウテン,0
1659,5380002026819,登記記録の閉鎖等,0,2023-01-11,2023-01-05,有限会社渡辺ランビル,,有限会社,福島県,いわき市,小名浜寺廻町５番地１４,,07,204,9718164,,,2023-01-05,合併による解散等,2380002026813,令和５年１月１日福島県いわき市小名浜寺廻町５番地１４株式会社渡辺ビジネス（2380002026813）に合併し解散,2015-10-05,1,,,,,ワタナベランビル,0
1669,5430002051019,登記記録の閉鎖等,0,2023-01-11,2022-12-28,有限会社西山自動車整備工場,,有限会社,北海道,夕張郡栗山町,中央２丁目１３６番地,,01,429,0691511,,,2022-12-28,清算の結了等,,,2015-10-05,1,,,,,ニシヤマジドウシャセイビコウジョウ,0
1674,5470001006457,登記記録の閉鎖等,0,2023-01-11,2023-01-11,ＲＣ株式会社,,株式会社,香川県,東かがわ市,伊座６７３番地５,,37,207,7692703,,,2023-01-11,登記官による閉鎖,,,2015-10-05,1,,,,,,0
1675,5470001006795,登記記録の閉鎖等,0,2023-01-11,2023-01-11,日本システムライン株式会社,,株式会社,香川県,木田郡三木町,大字井戸４６０８番地,,37,341,7610823,,,2023-01-11,登記官による閉鎖,,,2015-10-05,1,,,,,,0
1676,5470001012629,登記記録の閉鎖等,0,2023-01-11,2023-01-11,株式会社パンナレ,,株式会社,香川県,高松市,御坊町４番地１２,,37,201,7600044,,,2023-01-11,登記官による閉鎖,,,2015-10-05,1,,,,,,0
1677,5470001016646,登記記録の閉鎖等,0,2023-01-11,2023-01-11,早谷川商事興業株式会社,,株式会社,香川県,高松市,栗林町２丁目８番１号,,37,201,7600073,,,2023-01-11,登記官による閉鎖,,,2017-12-18,1,,,,,,0
1681,5470002003164,登記記録の閉鎖等,0,2023-01-11,2023-01-11,有限会社サンテス中井,,有限会社,香川県,高松市,亀岡町９番２号,,37,201,7600006,,,2023-01-11,登記官による閉鎖,,,2015-10-05,1,,,,,,0
1682,5470002005747,登記記録の閉鎖等,0,2023-01-11,2023-01-11,有限会社フォトショップミヤウチ,,有限会社,香川県,高松市,国分寺町新居１８８４番地１,,37,201,7690101,,,2023-01-11,登記官による閉鎖,,,2015-10-05,1,,,,,,0
1683,5470002007438,登記記録の閉鎖等,0,2023-01-11,2023-01-11,有限会社リソース・エンジニアリング,,有限会社,香川県,高松市,新田町甲１１３０番地９,,37,201,7610102,,,2023-01-11,登記官による閉鎖,,,2015-10-05,1,,,,,,0
1684,5470002008989,登記記録の閉鎖等,0,2023-01-11,2023-01-11,有限会社バークリィー音楽企画,,有限会社,香川県,高松市,木太町２７３４番地２－２０１,,37,201,7600080,,,2023-01-11,登記官による閉鎖,,,2015-10-05,1,,,,,,0
1685,5470002009582,登記記録の閉鎖等,0,2023-01-11,2023-01-11,有限会社三好タイル,,有限会社,香川県,高松市,香川町川東上６３６番地９９,,37,201,7611706,,,2023-01-11,登記官による閉鎖,,,2015-10-05,1,,,,,,0
1686,5470002009599,登記記録の閉鎖等,0,2023-01-11,2023-01-11,有限会社山縁養鶏場,,有限会社,香川県,高松市,香川町川東下５８１番地,,37,201,7611705,,,2023-01-11,登記官による閉鎖,,,2015-10-05,1,,,,,,0
1687,5470002014376,登記記録の閉鎖等,0,2023-01-11,2023-01-11,土岐産業有限会社,,有限会社,香川県,丸亀市,綾歌町岡田上１６４１番地,,37,202,7612401,,,2023-01-11,登記官による閉鎖,,,2015-10-05,1,,,,,,0
1688,5470002014616,登記記録の閉鎖等,0,2023-01-11,2023-01-11,有限会社阿河電機商会,,有限会社,香川県,坂出市,本町２丁目１０番１２号,,37,203,7620044,,,2023-01-11,登記官による閉鎖,,,2015-10-05,1,,,,,,0
1689,5470002015523,登記記録の閉鎖等,0,2023-01-11,2023-01-11,横井製綿有限会社,,有限会社,香川県,坂出市,青葉町８番１４号,,37,203,7620037,,,2023-01-11,登記官による閉鎖,,,2015-10-05,1,,,,,,0
1690,5470002015589,登記記録の閉鎖等,0,2023-01-11,2023-01-11,有限会社スミダ建設,,有限会社,香川県,坂出市,福江町１丁目６番７号,,37,203,7620034,,,2023-01-11,登記官による閉鎖,,,2015-10-05,1,,,,,,0
1693,5490001007214,登記記録の閉鎖等,0,2023-01-11,2023-01-06,株式会社ペンギン堂薬局,,株式会社,高知県,高知市,日の出町２番２０号,,39,201,7800804,,,2023-01-06,清算の結了等,,,2015-10-05,1,,,,,ペンギンドウヤッキョク,0
1701,6010001109131,登記記録の閉鎖等,0,2023-01-11,2023-01-05,ユーロアクト株式会社,,株式会社,新潟県,上越市,五智４丁目７番１４号,,15,222,9420081,,,2023-01-05,清算の結了等,,,2015-10-05,1,,,,,ユーロアクト,0
1702,6010001123990,登記記録の閉鎖等,0,2023-01-11,2022-12-28,株式会社スエヒロそば,,株式会社,東京都,中央区,八丁堀４丁目２番１号,,13,102,1040032,,,2022-12-28,清算の結了等,,,2015-10-05,1,,,,,スエヒロソバ,0
1742,6011001025731,登記記録の閉鎖等,0,2023-01-11,2023-01-04,ケイ・エム・エル・ジャパン株式会社,,株式会社,東京都,中央区,日本橋馬喰町２丁目２番１２号,,13,102,1030002,,,2023-01-04,合併による解散等,5011001008712,令和５年１月１日東京都中央区日本橋馬喰町二丁目２番１２号株式会社サイネット（5011001008712）に合併し解散,2015-10-05,1,,,,,ケイエムエルジャパン,0
1751,6011002031043,登記記録の閉鎖等,0,2023-01-11,2023-01-04,有限会社ディライト,,有限会社,東京都,墨田区,東駒形１丁目３番１９号,,13,107,1300005,,,2023-01-04,清算の結了等,,,2015-10-05,1,,,,,,0
1774,6020001106623,登記記録の閉鎖等,0,2023-01-11,2022-12-28,株式会社ピーシー・オフ,,株式会社,神奈川県,横浜市都筑区,荏田南４丁目１６番４号,,14,118,2240007,,,2022-12-28,清算の結了等,,,2015-10-05,1,,,,,ピーシーオフ,0
1783,6020005008816,登記記録の閉鎖等,0,2023-01-11,2023-01-04,医療法人おおば内科クリニック,,その他の設立登記法人,神奈川県,川崎市宮前区,土橋３丁目３番地１ドゥーエ・アコルデ２０４号室,,14,136,2160005,,,2023-01-04,清算の結了等,,,2015-10-05,1,,,,,オオバナイカクリニック,0
1812,6030002100830,登記記録の閉鎖等,0,2023-01-11,2023-01-05,エース通信工業有限会社,,有限会社,埼玉県,川口市,元郷２丁目１５番１－３９０６号,,11,203,3320011,,,2023-01-05,清算の結了等,,,2015-10-05,1,,,,,エースツウシンコウギョウ,0
1819,6040001016011,登記記録の閉鎖等,0,2023-01-11,2023-01-04,株式会社八木事務所,,株式会社,千葉県,千葉市緑区,高津戸町２番地の１２３,,12,105,2670053,,,2023-01-04,清算の結了等,,,2015-10-05,1,,,,,ヤギジムショ,0
1821,6040001046495,登記記録の閉鎖等,0,2023-01-11,2023-01-04,株式会社空港警備パーキング,,株式会社,千葉県,成田市,取香２５５番地２,,12,211,2860106,,,2023-01-04,清算の結了等,,,2015-10-05,1,,,,,クウコウケイビパーキング,0
1833,6050001009030,登記記録の閉鎖等,0,2023-01-11,2022-12-27,株式会社大久保写真センター,,株式会社,茨城県,土浦市,中高津３丁目６番６号,,08,203,3000815,,,2022-12-27,清算の結了等,,,2015-10-05,1,,,,,オオクボシャシンセンター,0
1841,6050002041453,登記記録の閉鎖等,0,2023-01-11,2022-12-27,有限会社山本製作所,,有限会社,茨城県,常総市,鴻野山１３０９番地の７,,08,211,3002746,,,2022-12-27,清算の結了等,,,2015-10-05,1,,,,,ヤマモトセイサクジョ,0
1844,6060002013039,登記記録の閉鎖等,0,2023-01-11,2023-01-04,有限会社たむら,,有限会社,栃木県,塩谷郡高根沢町,大字文挾３７４番地１,,09,386,3291204,,,2023-01-04,清算の結了等,,,2015-10-05,1,,,,,タムラ,0
1849,6080001021412,登記記録の閉鎖等,0,2023-01-11,2023-01-05,株式会社Ｃｒｕｓｈ　ｏｎ　Ｄｅｓｉｇｎ,,株式会社,静岡県,静岡市葵区,瀬名２丁目２７番２５号,,22,101,4200911,,,2023-01-05,清算の結了等,,,2017-02-10,1,,,,,クラッシュオンデザイン,0
1850,6080101010728,登記記録の閉鎖等,0,2023-01-11,2023-01-06,株式会社住宅工房うんの家,,株式会社,静岡県,富士市,平垣町３番２６号,,22,210,4160918,,,2023-01-06,合併による解散等,5080101008203,令和５年１月６日静岡県富士市平垣町３番２６号株式会社海野材木店（5080101008203）に合併し解散,2015-10-05,1,,,,,ジュウタクコウボウウンノヤ,0
1858,6100002010064,登記記録の閉鎖等,0,2023-01-11,2023-01-04,鶴賀商事有限会社,,有限会社,長野県,千曲市,大字羽尾２０９７番地,,20,218,3890812,,,2023-01-04,合併による解散等,8100001006318,令和４年１２月３１日長野県千曲市大字羽尾２０９７番地株式会社トラベルイン（8100001006318）に合併し解散,2015-10-05,1,,,,,ツルガショウジ,0
1862,6110001022398,登記記録の閉鎖等,0,2023-01-11,2023-01-04,グローバルホーム株式会社,,株式会社,新潟県,長岡市,寺島町６２６番地,,15,202,9402101,,,2023-01-04,合併による解散等,1110001022741,令和５年１月１日新潟県長岡市宝四丁目２番地２５ダイエープロビス株式会社（1110001022741）に合併し解散,2015-10-05,1,,,,,グローバルホーム,0
1873,6120001129572,登記記録の閉鎖等,0,2023-01-11,2023-01-05,株式会社たおか,,株式会社,大阪府,大阪市西淀川区,出来島２丁目４番２４号,,27,113,5550031,,,2023-01-05,清算の結了等,,,2015-10-05,1,,,,,タオカ,0
1888,6120101004741,登記記録の閉鎖等,0,2023-01-11,2023-01-06,トーシンケミテック株式会社,,株式会社,大阪府,堺市西区,築港浜寺西町１３番地１３,,27,144,5928352,,,2023-01-06,合併による解散等,2120001021304,令和５年１月１日大阪市平野区加美北六丁目１５番１４号ハシダ技研工業株式会社（2120001021304）に合併し解散,2015-10-05,1,,,,,トーシンケミテック,0
1901,6130005006791,登記記録の閉鎖等,0,2023-01-11,2022-12-27,医療法人スワ診療所,,その他の設立登記法人,京都府,宇治市,宇治野神１番地８６,,26,204,6110021,,,2022-12-27,清算の結了等,,,2015-10-05,1,,,,,スワシンリョウショ,0
1910,6140002058208,登記記録の閉鎖等,0,2023-01-11,2023-01-05,有限会社吉川歯科商店,,有限会社,兵庫県,西宮市,今津山中町１番１２号,,28,204,6638211,,,2023-01-05,清算の結了等,,,2015-10-05,1,,,,,,0
1916,6150001007783,登記記録の閉鎖等,0,2023-01-11,2023-01-11,株式会社むらさき栄光商店,,株式会社,奈良県,天理市,櫟本町１１７番地の１,,29,204,6320004,,,2023-01-11,登記官による閉鎖,,,2015-10-05,1,,,,,,0
1917,6150001009012,登記記録の閉鎖等,0,2023-01-11,2023-01-11,ＯＵＩ　ＪＡＩＭＥ株式会社,,株式会社,奈良県,奈良市,藤原町１０２８番地の３５,,29,201,6308421,,,2023-01-11,登記官による閉鎖,,,2015-10-05,1,,,,,,0
1918,6150001016719,登記記録の閉鎖等,0,2023-01-11,2023-01-11,株式会社植泉,,株式会社,奈良県,生駒市,高山町７２２０の１,,29,209,6300101,,,2023-01-11,登記官による閉鎖,,,2015-10-05,1,,,,,,0
1919,6150001017031,登記記録の閉鎖等,0,2023-01-11,2023-01-11,オーアイ商事株式会社,,株式会社,奈良県,天理市,庵治町４４９番地４,,29,204,6320086,,,2023-01-11,登記官による閉鎖,,,2015-10-05,1,,,,,,0
1920,6150002011363,登記記録の閉鎖等,0,2023-01-11,2023-01-11,有限会社更谷商事,,有限会社,奈良県,吉野郡上北山村,大字河合６６６番地の１３,,29,451,6393701,,,2023-01-11,登記官による閉鎖,,,2015-10-05,1,,,,,,0
1921,6150003000381,登記記録の閉鎖等,0,2023-01-11,2023-01-11,合資会社油重商店,,合資会社,奈良県,山辺郡山添村,大字中之庄６６番地の１,,29,322,6302352,,,2023-01-11,登記官による閉鎖,,,2015-10-05,1,,,,,,0
1922,6150005004620,登記記録の閉鎖等,0,2023-01-11,2023-01-11,一般社団法人纒向県営団地自治会,,その他の設立登記法人,奈良県,桜井市,大字辻６７番地,00043944,29,206,6330083,,,2023-01-11,登記官による閉鎖,,,2015-10-05,1,,,,,,0
1934,6180301005451,登記記録の閉鎖等,0,2023-01-11,2022-12-27,株式会社起商,,株式会社,愛知県,豊橋市,東光町２６番地,,23,201,4400036,,,2022-12-27,清算の結了等,,,2015-10-05,1,,,,,キショウ,0
1951,6270002007515,登記記録の閉鎖等,0,2023-01-11,2023-01-04,有限会社米子ダクト工業所,,有限会社,鳥取県,米子市,富益町１２８５番地１,,31,202,6830103,,,2023-01-04,合併による解散等,4270001003343,令和５年１月１日鳥取県米子市富益町６３番地８曽我工業株式会社（4270001003343）に合併し解散,2015-10-05,1,,,,,ヨナゴダクトコウギョウショ,0
2003,6380001015887,登記記録の閉鎖等,0,2023-01-11,2023-01-04,株式会社浅野設備,,株式会社,福島県,南相馬市,小高区田町１丁目５１－３番地,,07,212,9792112,,,2023-01-04,清算の結了等,,,2015-10-05,1,,,,,アサノセツビ,0
2013,6470001003668,登記記録の閉鎖等,0,2023-01-11,2023-01-11,フレックスホーム株式会社,,株式会社,香川県,高松市,今里町１丁目４０６番地５,,37,201,7600078,,,2023-01-11,登記官による閉鎖,,,2015-10-05,1,,,,,,0
2014,6470001012165,登記記録の閉鎖等,0,2023-01-11,2023-01-11,小豆島手延素麺販売株式会社,00005167,株式会社,香川県,小豆郡土庄町,甲６１９１番地１７,,37,322,7614101,,,2023-01-11,登記官による閉鎖,,,2015-10-05,1,,,,,,0
2015,6470002001704,登記記録の閉鎖等,0,2023-01-11,2023-01-11,有限会社オーシャン,,有限会社,香川県,高松市,中野町１番３１号,,37,201,7600008,,,2023-01-11,登記官による閉鎖,,,2015-10-05,1,,,,,,0
2016,6470002004938,登記記録の閉鎖等,0,2023-01-11,2023-01-11,有限会社トモエ化粧品店,,有限会社,香川県,高松市,香西本町４１５番地２,,37,201,7618012,,,2023-01-11,登記官による閉鎖,,,2015-10-05,1,,,,,,0
2017,6470002008864,登記記録の閉鎖等,0,2023-01-11,2023-01-11,有限会社ＩＮＧサポート,,有限会社,香川県,高松市,木太町５０４０番地１３,,37,201,7600080,,,2023-01-11,登記官による閉鎖,,,2015-10-05,1,,,,,,0
2018,6470002013294,登記記録の閉鎖等,0,2023-01-11,2023-01-11,有限会社鳶商,,有限会社,香川県,仲多度郡琴平町,３４０番地,,37,403,7660001,,,2023-01-11,登記官による閉鎖,,,2015-10-05,1,,,,,,0
2019,6470002015877,登記記録の閉鎖等,0,2023-01-11,2023-01-11,有限会社片山冷熱工業,,有限会社,香川県,観音寺市,池之尻町２１５番地,,37,205,7680031,,,2023-01-11,登記官による閉鎖,,,2015-10-05,1,,,,,,0
2076,7011001045720,登記記録の閉鎖等,0,2023-01-11,2023-01-04,株式会社ビープロ,,株式会社,神奈川県,川崎市麻生区,上麻生１丁目７－２,,14,137,2150021,,,2023-01-04,清算の結了等,,,2015-10-05,1,,,,,ビープロ,0
2090,7011101090856,登記記録の閉鎖等,0,2023-01-11,2023-01-04,ブルベース株式会社,,株式会社,東京都,新宿区,新宿５丁目１５番５号新宿三光町ビル４階,,13,104,1600022,,,2023-01-04,合併による解散等,6010401103907,令和５年１月１日東京都新宿区新宿五丁目１５番５号新宿三光町ビル４階バレットグループ株式会社（6010401103907）に合併し解散,2020-03-27,1,,,,,ブルベース,0
2106,7011802003042,登記記録の閉鎖等,0,2023-01-11,2023-01-04,有限会社さいくに,,有限会社,東京都,葛飾区,西水元２丁目１２番６号,,13,122,1250031,,,2023-01-04,清算の結了等,,,2015-10-05,1,,,,,サイクニ,0
2118,7020001010287,登記記録の閉鎖等,0,2023-01-11,2023-01-04,ＣＫアセット株式会社,,株式会社,神奈川県,横浜市保土ケ谷区,狩場町６５番地,,14,106,2400025,,,2023-01-04,合併による解散等,3020001029505,令和５年１月１日横浜市中区山下町３３番地ウエインズアセット株式会社（3020001029505）に合併し解散,2015-10-05,1,,,,,シーケーアセット,0
2142,7021002024937,登記記録の閉鎖等,0,2023-01-11,2023-01-04,有限会社ヤギエンタープライズ,,有限会社,神奈川県,相模原市中央区,矢部１丁目２３番１１号,,14,152,2520232,,,2023-01-04,清算の結了等,,,2015-10-05,1,,,,,ヤギエンタープライズ,0
2149,7030001043006,登記記録の閉鎖等,0,2023-01-11,2022-12-28,株式会社出版ＱＲセンター,,株式会社,埼玉県,桶川市,大字上日出谷１２０２番地の１,,11,231,3630026,,,2022-12-28,清算の結了等,,,2015-10-05,1,,,,,シュッパンキューアールセンター,0
2184,7040002092455,登記記録の閉鎖等,0,2023-01-11,2022-12-27,小川ソフト有限会社,,有限会社,千葉県,我孫子市,船戸１丁目６番３２号,,12,222,2701158,,,2022-12-27,清算の結了等,,,2015-10-05,1,,,,,オガワソフト,0
2195,7050005004984,登記記録の閉鎖等,0,2023-01-11,2023-01-04,とほかみ社,,その他の設立登記法人,茨城県,つくば市,沼田字新田１４３５番地７２,,08,220,3004353,,,2023-01-04,清算の結了等,,,2015-10-05,1,,,,,トホカミシャ,0
2202,7080101014793,登記記録の閉鎖等,0,2023-01-11,2023-01-06,株式会社稲葉製材所,,株式会社,静岡県,賀茂郡松崎町,櫻田２５番地の１,,22,305,4103625,,,2023-01-06,清算の結了等,,,2015-10-05,1,,,,,イナバセイザイショ,0
2207,7080402001334,登記記録の閉鎖等,0,2023-01-11,2023-01-06,有限会社エスワイデー,,有限会社,静岡県,浜松市東区,市野町１３４３番地,,22,132,4350051,,,2023-01-06,清算の結了等,,,2015-10-05,1,,,,,エスワイデー,0
2213,7110002020152,登記記録の閉鎖等,0,2023-01-11,2023-01-04,有限会社湊メゾン,,有限会社,新潟県,南蒲原郡田上町,大字田上乙１６４８番地,,15,361,9591502,,,2023-01-04,合併による解散等,6110001001732,令和５年１月１日新潟市中央区湊町通四ノ町３３４２番地３株式会社ＳＴＳ（6110001001732）に合併し解散,2015-10-05,1,,,,,ミナトメゾン,0
2223,7120002000302,登記記録の閉鎖等,0,2023-01-11,2023-01-04,有限会社河野運送,,有限会社,大阪府,大阪市旭区,中宮３丁目１６番２４号,,27,117,5350003,,,2023-01-04,清算の結了等,,,2015-10-05,1,,,,,コウノウンソウ,0
2229,7120002063299,登記記録の閉鎖等,0,2023-01-11,2023-01-10,有限会社倖栄,,有限会社,大阪府,大阪市港区,築港１丁目１４番３,,27,107,5520021,,,2023-01-10,清算の結了等,,,2015-10-05,1,,,,,コウエイ,0
2234,7120101004914,登記記録の閉鎖等,0,2023-01-11,2023-01-05,株式会社高千穂電機工業所,00032162,株式会社,大阪府,堺市堺区,旭ヶ丘中町２丁２番１８号,,27,141,5900808,,,2023-01-05,清算の結了等,,,2015-10-05,1,,,,,タカチホデンキコウギョウショ,0
2240,7122001025172,登記記録の閉鎖等,0,2023-01-11,2022-12-26,谷口工業株式会社,,株式会社,大阪府,東大阪市,三島２丁目１６番１２号,,27,227,5780966,,,2022-12-26,清算の結了等,,,2015-10-05,1,,,,,タニグチコウギョウ,0
2260,7150001005332,登記記録の閉鎖等,0,2023-01-11,2023-01-11,阪井商事株式会社,,株式会社,奈良県,生駒市,門前町２番１９号,,29,209,6300266,,,2023-01-11,登記官による閉鎖,,,2015-10-05,1,,,,,,0
2261,7150001008681,登記記録の閉鎖等,0,2023-01-11,2023-01-11,東邦土建工業株式会社,,株式会社,奈良県,奈良市,水門町１６番地,,29,201,6308208,,,2023-01-11,登記官による閉鎖,,,2015-10-05,1,,,,,,0
2262,7150001009267,登記記録の閉鎖等,0,2023-01-11,2023-01-11,片岡木材株式会社,,株式会社,奈良県,桜井市,大字粟殿１０１０番地の１３,,29,206,6330062,,,2023-01-11,登記官による閉鎖,,,2015-10-05,1,,,,,,0
2264,7150002006668,登記記録の閉鎖等,0,2023-01-11,2023-01-11,有限会社グローブ社,,有限会社,奈良県,生駒市,山崎町４番５号,,29,209,6300252,,,2023-01-11,登記官による閉鎖,,,2015-10-05,1,,,,,,0
2266,7150005006533,登記記録の閉鎖等,0,2023-01-11,2023-01-11,特定非営利活動法人生活応援団カインドサービス,,その他の設立登記法人,奈良県,大和高田市,大東町６番６号,,29,202,6350016,,,2023-01-11,登記官による閉鎖,,,2015-10-05,1,,,,,,0
2268,7160001011321,登記記録の閉鎖等,0,2023-01-11,2023-01-05,ソブホールディングス株式会社,,株式会社,滋賀県,草津市,矢倉２丁目５番５５号,,25,206,5250053,,,2023-01-05,合併による解散等,4160001018071,令和４年１２月３１日滋賀県東近江市八日市町４番３号想武不動産株式会社（4160001018071）に合併し解散,2015-10-05,1,,,,,ソブホールディングス,0
2274,7180001013423,登記記録の閉鎖等,0,2023-01-11,2023-01-06,株式会社細野印刷,,株式会社,愛知県,名古屋市北区,中切町３丁目７７番地,,23,103,4620051,,,2023-01-06,清算の結了等,,,2015-10-05,1,,,,,ホソノインサツ,0
2285,7200001004238,登記記録の閉鎖等,0,2023-01-11,2023-01-10,バンビジネスサポート株式会社,,株式会社,岐阜県,羽島郡岐南町,野中５丁目１３１番地,,21,302,5016004,,,2023-01-10,清算の結了等,,,2015-10-05,1,,,,,バンビジネスサポート,0
2287,7200002000145,登記記録の閉鎖等,0,2023-01-11,2023-01-10,アカナベ印刷有限会社,,有限会社,岐阜県,羽島郡岐南町,野中５丁目１３１番地,,21,302,5016004,,,2023-01-10,清算の結了等,,,2015-10-05,1,,,,,,0
2312,7290001066492,登記記録の閉鎖等,0,2023-01-11,2023-01-04,ＳｔａｒＬｉｇｈｔ株式会社,,株式会社,福岡県,福岡市博多区,千代２丁目２２番８号２０２,,40,132,8120044,,,2023-01-04,清算の結了等,,,2015-10-05,1,,,,,スターライト,0
2322,7290002056328,登記記録の閉鎖等,0,2023-01-11,2022-12-27,有限会社花つばき,,有限会社,福岡県,大牟田市,鳥塚町１１番地２シニアパークマンション鳥塚１Ｆ,00102133,40,202,8360803,,,2022-12-27,清算の結了等,,,2015-10-05,1,,,,,ハナツバキ,0
2331,7330001006923,登記記録の閉鎖等,0,2023-01-11,2022-12-26,ミリーヴ株式会社,,株式会社,熊本県,熊本市中央区,辛島町４番３５号,,43,101,8600804,,,2022-12-26,合併による解散等,6330001004647,令和４年１２月２６日熊本市中央区辛島町４番３５号株式会社明和不動産（6330001004647）に合併し解散,2015-10-05,1,,,,,ミリーヴ,0
2341,7370001024112,登記記録の閉鎖等,0,2023-01-11,2023-01-04,株式会社Ｍ＆Ｍ,,株式会社,宮城県,仙台市青葉区,二日町１０番１５号,,04,101,9800802,,,2023-01-04,清算の結了等,,,2015-10-05,1,,,,,エムアンドエム,0
2363,7470001012998,登記記録の閉鎖等,0,2023-01-11,2023-01-11,株式会社高松加賀屋商店,,株式会社,香川県,高松市,鹿角町２００番地４,,37,201,7618082,,,2023-01-11,登記官による閉鎖,,,2015-10-05,1,,,,,,0
2364,7470001013063,登記記録の閉鎖等,0,2023-01-11,2023-01-11,Ｍａｓｔｅｒｐｉｅｃｅ株式会社,,株式会社,香川県,高松市,鍛冶屋町１番地９,,37,201,7600028,,,2023-01-11,登記官による閉鎖,,,2015-10-05,1,,,,,,0
2366,7470002000630,登記記録の閉鎖等,0,2023-01-11,2023-01-11,有限会社飛鳥セキュリティ,,有限会社,香川県,高松市,松縄町１０１８番地１,,37,201,7600079,,,2023-01-11,登記官による閉鎖,,,2015-10-05,1,,,,,,0
2367,7470002003253,登記記録の閉鎖等,0,2023-01-11,2023-01-11,三友電気工事有限会社,,有限会社,香川県,高松市,今里町２丁目２４番地８,,37,201,7600078,,,2023-01-11,登記官による閉鎖,,,2015-10-05,1,,,,,,0
2368,7470002003930,登記記録の閉鎖等,0,2023-01-11,2023-01-11,有限会社セイヤング,,有限会社,香川県,高松市,飯田町２００番地,,37,201,7618033,,,2023-01-11,登記官による閉鎖,,,2015-10-05,1,,,,,,0
2369,7470002004441,登記記録の閉鎖等,0,2023-01-11,2023-01-11,有限会社多田産業,,有限会社,香川県,高松市,三谷町４９２２番地１,,37,201,7610450,,,2023-01-11,登記官による閉鎖,,,2015-10-05,1,,,,,,0
2370,7470002004937,登記記録の閉鎖等,0,2023-01-11,2023-01-11,有限会社富岡左官工業,,有限会社,香川県,高松市,木太町１５５９番地１２,,37,201,7600080,,,2023-01-11,登記官による閉鎖,,,2015-10-05,1,,,,,,0
2371,7470002007543,登記記録の閉鎖等,0,2023-01-11,2023-01-11,有限会社ロータリー食堂,,有限会社,香川県,高松市,栗林町３丁目１１番２６号,,37,201,7600073,,,2023-01-11,登記官による閉鎖,,,2015-10-05,1,,,,,,0
2372,7470002013178,登記記録の閉鎖等,0,2023-01-11,2023-01-11,有限会社石井金物店,,有限会社,香川県,仲多度郡琴平町,榎井７７０番地,,37,403,7660004,,,2023-01-11,登記官による閉鎖,,,2015-10-05,1,,,,,,0
2373,7470002016057,登記記録の閉鎖等,0,2023-01-11,2023-01-11,有限会社高橋蒲鉾,,有限会社,香川県,観音寺市,観音寺町甲２３０４番地,,37,205,7680060,,,2023-01-11,登記官による閉鎖,,,2015-10-05,1,,,,,,0
2374,7470002016684,登記記録の閉鎖等,0,2023-01-11,2023-01-11,有限会社清村食品店,00005491,有限会社,香川県,観音寺市,豊浜町和田浜１２７５番地の１,,37,205,7691602,,,2023-01-11,登記官による閉鎖,,,2015-10-05,1,,,,,,0
2375,7470002017625,登記記録の閉鎖等,0,2023-01-11,2023-01-11,有限会社菊水,,有限会社,香川県,さぬき市,昭和１４７９番地５,,37,206,7692304,,,2023-01-11,登記官による閉鎖,,,2015-10-05,1,,,,,,0
2376,7470002018714,登記記録の閉鎖等,0,2023-01-11,2023-01-11,有限会社渡辺歯科技工所,,有限会社,香川県,東かがわ市,馬篠５３７番地,,37,207,7692520,,,2023-01-11,登記官による閉鎖,,,2015-10-05,1,,,,,,0
2377,7470005002054,登記記録の閉鎖等,0,2023-01-11,2023-01-11,特定非営利活動法人西日本入れ歯回収機構,,その他の設立登記法人,香川県,高松市,屋島西町２３１９番地１,,37,201,7610113,,,2023-01-11,登記官による閉鎖,,,2015-10-05,1,,,,,,0
2394,8010003023634,登記記録の閉鎖等,0,2023-01-11,2023-01-10,ＬＩＶＥＰＲＯＤＵＣＴＩＯＮＪＡＰＡＮ合同会社,,合同会社,東京都,千代田区,神田錦町３丁目１１弦本ビル２Ｆ,,13,101,1010054,,,2023-01-10,清算の結了等,,,2016-06-07,1,,,,,ライブプロダクションジャパン,0
2395,8010003027908,登記記録の閉鎖等,0,2023-01-11,2022-12-28,合同会社りょうぜん,,合同会社,東京都,千代田区,霞が関３丁目２番５号,,13,101,1000013,,,2022-12-28,清算の結了等,,,2018-07-25,1,,,,,リョウゼン,0
2398,8010401076795,登記記録の閉鎖等,0,2023-01-11,2022-12-28,株式会社ゲンティン・インターナショナル・ジャパン,,株式会社,東京都,千代田区,大手町２丁目６番４号常盤橋タワー８階ｘＬＩＮＫ常盤橋タワー＃１０３,00128160,13,101,1000004,,,2022-12-28,清算の結了等,,,2015-10-05,1,,,,,ゲンティンインターナショナルジャパン,0
2400,8010401149808,登記記録の閉鎖等,0,2023-01-11,2023-01-05,ＨＣホールディングス株式会社,,株式会社,東京都,港区,芝大門１丁目１３番９号,,13,103,1050012,,,2023-01-05,合併による解散等,3011101018084,令和５年１月１日東京都千代田区丸の内一丁目９番２号昭和電工マテリアルズ株式会社（3011101018084）に合併し解散,2019-12-11,1,,,,,エイチシーホールディングス,0
2437,8011101081227,登記記録の閉鎖等,0,2023-01-11,2023-01-04,ＢＧテクノロジー株式会社,,株式会社,東京都,新宿区,新宿５丁目１５番５号新宿三光町ビル４階,,13,104,1600022,,,2023-01-04,合併による解散等,6010401103907,令和５年１月１日東京都新宿区新宿五丁目１５番５号新宿三光町ビル４階バレットグループ株式会社（6010401103907）に合併し解散,2017-07-27,1,,,,,ビージーテクノロジー,0
2457,8012402020492,登記記録の閉鎖等,0,2023-01-11,2023-01-05,有限会社ひかり産業,,有限会社,東京都,三鷹市,野崎３丁目８番１５号ＫＳビル２Ｆ,,13,204,1810014,,,2023-01-05,清算の結了等,,,2015-10-05,1,,,,,ヒカリサンギョウ,0
2470,8020003017627,登記記録の閉鎖等,0,2023-01-11,2023-01-04,合同会社オークプランニング,,合同会社,神奈川県,横浜市港北区,新吉田東１丁目２９番８号,,14,109,2230058,,,2023-01-04,清算の結了等,,,2020-04-01,1,,,,,オークプランニング,0
2478,8021001055404,登記記録の閉鎖等,0,2023-01-11,2023-01-04,株式会社ダンレイリノテック,,株式会社,神奈川県,茅ヶ崎市,南湖１丁目１０番２６号,,14,207,2530061,,,2023-01-04,合併による解散等,3021001007847,令和５年１月１日神奈川県茅ヶ崎市南湖一丁目１０番２６号株式会社ダンレイ（3021001007847）に合併し解散,2015-10-05,1,,,,,ダンレイリノテック,0
2486,8021005012005,登記記録の閉鎖等,0,2023-01-11,2022-12-28,一般社団法人ジ・アジャイル・ギルド,,その他の設立登記法人,神奈川県,鎌倉市,小町２丁目１６番３５号,,14,204,2480006,,,2022-12-28,清算の結了等,,,2020-08-14,1,,,,,ジアジャイルギルド,0
2501,8030002033665,登記記録の閉鎖等,0,2023-01-11,2023-01-04,有限会社狭山観光サービス,,有限会社,埼玉県,狭山市,入間川１丁目１８番２５号,,11,215,3501305,,,2023-01-04,清算の結了等,,,2015-10-05,1,,,,,サヤマカンコウサービス,0
2503,8030002095400,登記記録の閉鎖等,0,2023-01-11,2022-12-28,有限会社集積算エンジニアリング,,有限会社,埼玉県,比企郡鳩山町,松ヶ丘１丁目８番２０号,,11,348,3500313,,,2022-12-28,清算の結了等,,,2015-10-05,1,,,,,シュウセキサンエンジニアリング,0
2543,8100005012072,登記記録の閉鎖等,0,2023-01-11,2023-01-04,上伊那総合林業協同組合,,その他の設立登記法人,長野県,伊那市,中央５２１４番地１,,20,209,3960015,,,2023-01-04,清算の結了等,,,2017-05-29,1,,,,,カミイナソウゴウリンギョウ,0
2550,8120001065683,登記記録の閉鎖等,0,2023-01-11,2022-12-28,新大阪電設株式会社,,株式会社,兵庫県,尼崎市,七松町２丁目３番２５－１０１号,,28,202,6600052,,,2022-12-28,清算の結了等,,,2015-10-05,1,,,,,シンオオサカデンセツ,0
2568,8120005013473,登記記録の閉鎖等,0,2023-01-11,2023-01-10,特定非営利活動法人フレッシュステップ関西,,その他の設立登記法人,大阪府,寝屋川市,池田本町４番６２号,,27,215,5720030,,,2023-01-10,清算の結了等,,,2015-10-05,1,,,,,フレッシュステップカンサイ,0
2583,8130005015436,登記記録の閉鎖等,0,2023-01-11,2022-12-28,一般社団法人夢現,,その他の設立登記法人,京都府,京都市西京区,下津林東芝ノ宮町２４番地,,26,111,6158034,,,2022-12-28,清算の結了等,,,2018-11-09,1,,,,,ムゲン,0
2599,8150001017335,登記記録の閉鎖等,0,2023-01-11,2023-01-11,株式会社ベクトルＥ．Ｓ．,,株式会社,奈良県,奈良市,小西町１番地５,,29,201,6308226,,,2023-01-11,登記官による閉鎖,,,2015-10-05,1,,,,,,0
2602,8150005005427,登記記録の閉鎖等,0,2023-01-11,2023-01-11,ネットワーク創造協同組合,,その他の設立登記法人,奈良県,橿原市,上品寺町１９４番地の１,,29,205,6340803,,,2023-01-11,登記官による閉鎖,,,2015-10-05,1,,,,,,0
2610,8180001103025,登記記録の閉鎖等,0,2023-01-11,2023-01-04,株式会社ＪＦＳ貿易,,株式会社,愛知県,犬山市,字高根洞５番地４１,,23,215,4840000,,,2023-01-04,合併による解散等,8180001076320,令和４年１２月２８日愛知県小牧市小牧原新田字樋下１６８５番地日本ファンドリーサービス株式会社（8180001076320）に合併し解散,2015-10-05,1,,,,,ジェイエフエスボウエキ,0
2622,8200005008110,登記記録の閉鎖等,0,2023-01-11,2023-01-10,特定非営利活動法人健康生きがいを創る会岐阜,,その他の設立登記法人,岐阜県,関市,西本郷通３丁目４番２３号,,21,205,5013803,,,2023-01-10,清算の結了等,,,2015-10-05,1,,,,,ケンコウイキガイヲツクルカイギフ,0
2626,8220001015711,登記記録の閉鎖等,0,2023-01-11,2023-01-05,株式会社中能登タクシー,,株式会社,石川県,鹿島郡中能登町,能登部上ヲ部９５番地,,17,407,9291602,,,2023-01-05,合併による解散等,5220001015697,令和５年１月１日石川県鹿島郡中能登町能登部上ヲ部９５番地株式会社杉本工務店（5220001015697）に合併し解散,2015-10-05,1,,,,,ナカノトタクシー,0
2658,8290005014546,登記記録の閉鎖等,0,2023-01-11,2023-01-10,一般社団法人ワイズ・ライフ・アカデミアグループ,,その他の設立登記法人,福岡県,太宰府市,五条２丁目２０－３２ソルベルデ五条４０２,,40,221,8180125,,,2023-01-10,清算の結了等,,,2015-10-05,1,,,,,ワイズライフアカデミアグループ,0
2663,8310001013813,登記記録の閉鎖等,0,2023-01-11,2023-01-05,株式会社木楽,,株式会社,長崎県,大村市,池田２丁目３１７番地１,,42,205,8560026,,,2023-01-05,合併による解散等,4310001009055,令和５年１月１日長崎県諫早市本野町４１４番地５株式会社中川建設（4310001009055）に合併し解散,2015-10-05,1,,,,,キラク,0
2668,8340001009825,登記記録の閉鎖等,0,2023-01-11,2023-01-05,株式会社種子島観光物産,,株式会社,鹿児島県,西之表市,西之表１４１２４番地９８,,46,213,8913101,,,2023-01-05,清算の結了等,,,2015-10-05,1,,,,,タネガシマカンコウブッサン,0
2688,8400001006758,登記記録の閉鎖等,0,2023-01-11,2023-01-10,アルファ株式会社,,株式会社,岩手県,遠野市,中央通り５番５号,,03,208,0280523,,,2023-01-10,清算の結了等,,,2015-10-05,1,,,,,,0
2706,8450005000513,登記記録の閉鎖等,0,2023-01-11,2023-01-06,医療法人社団東光中央医院,,その他の設立登記法人,北海道,旭川市,東光十条２丁目３番１号,,01,204,0788350,,,2023-01-06,清算の結了等,,,2015-10-05,1,,,,,トウコウチュウオウイイン,0
2707,8470001006636,登記記録の閉鎖等,0,2023-01-11,2023-01-11,株式会社暮らしに絵を普及協会,,株式会社,香川県,高松市,朝日町２丁目１４番７号,,37,201,7600065,,,2023-01-11,登記官による閉鎖,,,2015-10-05,1,,,,,,0
2708,8470001009960,登記記録の閉鎖等,0,2023-01-11,2023-01-11,四国産業株式会社,,株式会社,香川県,観音寺市,観音寺町甲１２１６番地４,,37,205,7680060,,,2023-01-11,登記官による閉鎖,,,2015-10-05,1,,,,,,0
2709,8470001012915,登記記録の閉鎖等,0,2023-01-11,2023-01-11,株式会社ＳＫＳ,,株式会社,香川県,観音寺市,吉岡町７６７番地,,37,205,7680021,,,2023-01-11,登記官による閉鎖,,,2015-10-05,1,,,,,,0
2710,8470002001215,登記記録の閉鎖等,0,2023-01-11,2023-01-11,有限会社植村不動産事務所,,有限会社,香川県,高松市,中野町２番２号,,37,201,7600008,,,2023-01-11,登記官による閉鎖,,,2015-10-05,1,,,,,,0
2711,8470002003517,登記記録の閉鎖等,0,2023-01-11,2023-01-11,有限会社ジンスケ,,有限会社,香川県,高松市,瓦町２丁目９番地９,,37,201,7600052,,,2023-01-11,登記官による閉鎖,,,2015-10-05,1,,,,,,0
2712,8470002007212,登記記録の閉鎖等,0,2023-01-11,2023-01-11,有限会社弥生興業,,有限会社,香川県,高松市,東山崎町３６４番地５６,,37,201,7610312,,,2023-01-11,登記官による閉鎖,,,2015-10-05,1,,,,,,0
2713,8470002009183,登記記録の閉鎖等,0,2023-01-11,2023-01-11,有限会社佐々木土木,,有限会社,香川県,高松市,塩江町安原下第２号１７４１番地２,,37,201,7611502,,,2023-01-11,登記官による閉鎖,,,2015-10-05,1,,,,,,0
2714,8470002012195,登記記録の閉鎖等,0,2023-01-11,2023-01-11,有限会社フルネス,,有限会社,香川県,丸亀市,垂水町７０２番地２,,37,202,7630095,,,2023-01-11,登記官による閉鎖,,,2015-10-05,1,,,,,,0
2715,8470002015405,登記記録の閉鎖等,0,2023-01-11,2023-01-11,有限会社松村工務店,,有限会社,香川県,坂出市,大池町１番５４号,,37,203,7620027,,,2023-01-11,登記官による閉鎖,,,2015-10-05,1,,,,,,0
2730,9010401049156,登記記録の閉鎖等,0,2023-01-11,2022-12-28,トランスオーシャン・エルエヌジー輸送株式会社,,株式会社,東京都,千代田区,丸の内１丁目４番１号,,13,101,1000005,,,2022-12-28,清算の結了等,,,2015-10-05,1,,,,,トランスオーシャンエルエヌジーユソウ,0
2731,9010401072265,登記記録の閉鎖等,0,2023-01-11,2023-01-05,ＭＥＩコンラックスホールディングスジャパン株式会社,,株式会社,埼玉県,坂戸市,千代田５丁目３番８号,,11,239,3500214,,,2023-01-05,合併による解散等,7030001069942,令和４年１２月３０日埼玉県坂戸市千代田五丁目３番８号株式会社日本コンラックス（7030001069942）に合併し解散,2015-10-05,1,,,,,エムイーアイコンラックスホールディングスジャパン,0
2742,9010405014783,登記記録の閉鎖等,0,2023-01-11,2023-01-05,ＧＬＰ八千代３特定目的会社,,その他の設立登記法人,東京都,中央区,八重洲２丁目２番１号,,13,102,1040028,,,2023-01-05,清算の結了等,,,2016-05-11,1,,,,,ジーエルピーヤチヨスリー,0
2753,9011001032469,登記記録の閉鎖等,0,2023-01-11,2022-12-28,株式会社フロンティアグループ,,株式会社,東京都,渋谷区,南平台１７番１－２１２号,,13,113,1500000,,,2022-12-28,清算の結了等,,,2015-10-05,1,,,,,フロンティアグループ,0
2763,9011001140742,登記記録の閉鎖等,0,2023-01-11,2023-01-04,株式会社Ｘ　Ｉｎｖｅｓｔｏｒｓ,,株式会社,東京都,渋谷区,渋谷２丁目２２－３渋谷東口ビル６Ｆ,,13,113,1500002,,,2023-01-04,合併による解散等,2011001096974,令和５年１月１日東京都渋谷区渋谷二丁目２２－３渋谷東口ビル６Ｆ株式会社Ｂｒａｎｄｉｎｇ　Ｅｎｇｉｎｅｅｒ（2011001096974）に合併し解散,2021-05-25,1,,,,,クロスインベスターズ,0
2794,9012401007705,登記記録の閉鎖等,0,2023-01-11,2023-01-05,小松長建設株式会社,,株式会社,東京都,調布市,入間町１丁目２番地の１２,,13,208,1820004,,,2023-01-05,清算の結了等,,,2015-10-05,1,,,,,コマツチョウケンセツ,0
2795,9012402001161,登記記録の閉鎖等,0,2023-01-11,2023-01-04,有限会社三伸商会,,有限会社,東京都,府中市,美好町２丁目８番９号ヴェレーナ府中美好４０４,,13,206,1830045,,,2023-01-04,清算の結了等,,,2015-10-05,1,,,,,サンシンショウカイ,0
2798,9012402011004,登記記録の閉鎖等,0,2023-01-11,2023-01-04,有限会社コージー・ハウス,,有限会社,東京都,調布市,菊野台３丁目３０番地１,,13,208,1820007,,,2023-01-04,合併による解散等,4012402011487,令和５年１月１日東京都調布市菊野台三丁目３０番地１株式会社すずもり（4012402011487）に合併し解散,2015-10-05,1,,,,,コージーハウス,0
2821,9020002082043,登記記録の閉鎖等,0,2023-01-11,2023-01-04,有限会社とい工房,,有限会社,神奈川県,川崎市幸区,鹿島田３丁目１２番５１号さくら荘,,14,132,2120058,,,2023-01-04,清算の結了等,,,2015-10-05,1,,,,,トイコウボウ,0
2830,9021002001884,登記記録の閉鎖等,0,2023-01-11,2023-01-04,有限会社小林住設,,有限会社,神奈川県,藤沢市,長後６４５番地９,,14,205,2520801,,,2023-01-04,清算の結了等,,,2015-10-05,1,,,,,コバヤシジュウセツ,0
2833,9021005010750,登記記録の閉鎖等,0,2023-01-11,2022-12-28,特定非営利活動法人Ｇｏｏｄ　Ｆａｍｉｌｙ,,その他の設立登記法人,神奈川県,茅ヶ崎市,赤羽根２０４番地４８,,14,207,2530001,,,2022-12-28,清算の結了等,,,2016-09-26,1,,,,,グッドファミリー,0
2839,9030001013378,登記記録の閉鎖等,0,2023-01-11,2022-12-28,株式会社Ｋ・エモーション,,株式会社,埼玉県,さいたま市浦和区,北浦和１丁目２１番１８号シャトー雁ヶ音２０１号室,,11,107,3300074,,,2022-12-28,清算の結了等,,,2015-10-05,1,,,,,ケイエモーション,0
2855,9030002095184,登記記録の閉鎖等,0,2023-01-11,2023-01-04,有限会社大久保ストアー,,有限会社,埼玉県,入間郡毛呂山町,大字毛呂本郷９番地４,,11,326,3500451,,,2023-01-04,清算の結了等,,,2015-10-05,1,,,,,オオクボストアー,0
2908,9120001148900,登記記録の閉鎖等,0,2023-01-11,2023-01-05,ＴＰＲ熱学株式会社,,株式会社,大阪府,枚方市,出口１丁目２番１７号,,27,210,5730065,,,2023-01-05,合併による解散等,2260001021216,令和５年１月１日岡山県津山市神戸９９番地１ＴＰＲアルテック株式会社（2260001021216）に合併し解散,2015-10-05,1,,,,,ティーピーアールネツガク,0
2909,9120001178162,登記記録の閉鎖等,0,2023-01-11,2023-01-06,株式会社ココサロ,,株式会社,大阪府,大阪市中央区,南船場３丁目４番２２号,,27,128,5420081,,,2023-01-06,合併による解散等,6500001017697,令和５年１月１日愛媛県松山市南江戸三丁目３番１６号株式会社彩さ美（6500001017697）に合併し解散,2015-10-05,1,,,,,ココサロ,0
2936,9122001015931,登記記録の閉鎖等,0,2023-01-11,2023-01-06,株式会社マイティ,,株式会社,大阪府,大東市,新田西町３番１５号,,27,218,5740057,,,2023-01-06,合併による解散等,9122001015989,令和５年１月１日滋賀県蒲生郡日野町北脇１番地１０１株式会社三鈴（9122001015989）に合併し解散,2015-10-05,1,,,,,マイティ,0
2946,9140001048009,登記記録の閉鎖等,0,2023-01-11,2022-12-28,大阪ライオンコンクリート株式会社,,株式会社,兵庫県,尼崎市,東海岸町１９番地,,28,202,6600843,,,2022-12-28,清算の結了等,,,2015-10-05,1,,,,,オオサカライオンコンクリート,0
2953,9140002009703,登記記録の閉鎖等,0,2023-01-11,2023-01-05,有限会社エス・イー・システム,,有限会社,兵庫県,神戸市北区,西山１丁目２５番地の６,,28,109,6511305,,,2023-01-05,清算の結了等,,,2015-10-05,1,,,,,エスイーシステム,0
2954,9140002044964,登記記録の閉鎖等,0,2023-01-11,2022-12-28,有限会社アユタニテック,,有限会社,兵庫県,尼崎市,西難波町１丁目８番１２号,,28,202,6600893,,,2022-12-28,清算の結了等,,,2015-10-05,1,,,,,アユタニテック,0
2957,9150001016757,登記記録の閉鎖等,0,2023-01-11,2023-01-11,株式会社奈良屋,,株式会社,奈良県,橿原市,葛本町７１２－２,00043109,29,205,6340007,,,2023-01-11,登記官による閉鎖,,,2015-10-05,1,,,,,,0
2959,9150005002217,登記記録の閉鎖等,0,2023-01-11,2023-01-11,やまと京滋建設事業協同組合,,その他の設立登記法人,奈良県,奈良市,三条町４８９番地１,,29,201,6308244,,,2023-01-11,登記官による閉鎖,,,2015-10-05,1,,,,,,0
2966,9180003000938,登記記録の閉鎖等,0,2023-01-11,2023-01-05,合資会社松永無線,,合資会社,愛知県,名古屋市昭和区,白金１丁目１６番１号,,23,107,4660058,,,2023-01-05,清算の結了等,,,2015-10-05,1,,,,,マツナガムセン,0
3037,9380002029529,登記記録の閉鎖等,0,2023-01-11,2023-01-04,有限会社タシロモータース,,有限会社,福島県,南相馬市,小高区本町２丁目９５番地,,07,212,9792124,,,2023-01-04,清算の結了等,,,2015-10-05,1,,,,,タシロモータース,0
3047,9420001002300,登記記録の閉鎖等,0,2023-01-11,2022-12-01,株式会社国土社,,株式会社,青森県,東津軽郡平内町,大字藤沢字竹達１番地１,,02,301,0393361,,,2022-12-01,清算の結了等,,,2016-08-04,1,,,,,,0
3058,9470002007954,登記記録の閉鎖等,0,2023-01-11,2023-01-11,有限会社ミリオン,,有限会社,香川県,高松市,瓦町２丁目２番地１３,,37,201,7600052,,,2023-01-11,登記官による閉鎖,,,2015-10-05,1,,,,,,0
3059,9470002015362,登記記録の閉鎖等,0,2023-01-11,2023-01-11,有限会社ワキ不動産,,有限会社,香川県,坂出市,府中町２０７７番地１,,37,203,7620024,,,2023-01-11,登記官による閉鎖,,,2015-10-05,1,,,,,,0
3060,9470002018092,登記記録の閉鎖等,0,2023-01-11,2023-01-06,有限会社フルケアサービス,,有限会社,香川県,さぬき市,津田町鶴羽７３６番地,,37,206,7692402,,,2023-01-06,清算の結了等,,,2015-10-05,1,,,,,,0
3061,9470005001335,登記記録の閉鎖等,0,2023-01-11,2023-01-11,財団法人香川県手をつなぐ育成会,,その他の設立登記法人,香川県,高松市,檀紙町八幡１４５２番地２,,37,201,7618041,,,2023-01-11,登記官による閉鎖,,,2015-10-05,1,,,,,,0
