sequenceNumber,corporateNumber,process,correct,updateDate,changeDate,name,nameImageId,kind,prefectureName,cityName,streetNumber,addressImageId,prefectureCode,cityCode,postCode,addressOutside,addressOutsideImageId,closeDate,closeCause,successorCorporateNumber,changeCause,assignmentDate,latest,enName,enPrefectureName,enCityName,enAddressOutside,furigana,hihyoji
17,1010003041519,新規,0,2023-08-31,2023-08-31,Ｖｅｃｔｒｕｓ　Ｓｅｒｖｉｃｅｓ　Ｊａｐａｎ合同会社,,合同会社,東京都,中央区,銀座６丁目１３番１６号銀座ＷａｌｌビルＵＣＦ５０１,,13,102,1040061,,,,,,,2023-08-31,1,,,,,ベクトラスサービスジャパン,0
18,1010003041535,新規,0,2023-08-31,2023-08-31,トレンド・ワン合同会社,,合同会社,東京都,中央区,銀座１丁目６番１１号土志田ビルディング３Ｆ,,13,102,1040061,,,,,,,2023-08-31,1,,,,,トレンドワン,0
20,1010005037192,新規,0,2023-08-31,2023-08-31,サステナブルレンディングホールディングスＡ号一般社団法人,,その他の設立登記法人,東京都,中央区,八丁堀４丁目２番１０号ＡＯＪ税理士法人内,,13,102,1040032,,,,,,,2023-08-31,1,,,,,サステナブルレンディングホールディングスエーゴウ,0
26,1010401176874,新規,0,2023-08-31,2023-08-31,株式会社Ｂａｉｎ,,株式会社,東京都,港区,南青山６丁目８番６号５０３号室,,13,103,1070062,,,,,,,2023-08-31,1,,,,,バイン,0
29,1010405022463,新規,0,2023-08-31,2023-08-31,一般社団法人Ｅｗｉｎｉａｒ,,その他の設立登記法人,東京都,港区,虎ノ門５丁目１番４号,,13,103,1050001,,,,,,,2023-08-31,1,,,,,イーウィニャ,0
57,1011301028975,新規,0,2023-08-31,2023-08-31,株式会社総建,,株式会社,東京都,杉並区,成田東４丁目３５番６号マイプレイス阿佐ヶ谷１０３,,13,115,1660015,,,,,,,2023-08-31,1,,,,,ソウケン,0
68,1011801042963,新規,0,2023-08-31,2023-08-31,株式会社クラサワ,,株式会社,東京都,葛飾区,堀切７丁目３番３号,,13,122,1240006,,,,,,,2023-08-31,1,,,,,クラサワ,0
69,1011803005803,新規,0,2023-08-31,2023-08-31,合同会社タナカ事務所,,合同会社,東京都,足立区,中川４丁目１７番７号,,13,121,1200002,,,,,,,2023-08-31,1,,,,,タナカジムショ,0
71,1012401040936,新規,0,2023-08-31,2023-08-31,Ｇ・Ｉ株式会社,,株式会社,東京都,武蔵野市,中町２丁目１２－８,,13,203,1800006,,,,,,,2023-08-31,1,,,,,ジーアイ,0
78,1013301051288,新規,0,2023-08-31,2023-08-31,株式会社センターテイル,,株式会社,東京都,豊島区,南大塚２丁目６番１号シャトレ・ナガシマ１０６号,,13,116,1700005,,,,,,,2023-08-31,1,,,,,センターテイル,0
81,1013303006777,新規,0,2023-08-31,2023-08-31,合同会社Ｈ＆Ｎエステート,,合同会社,東京都,豊島区,雑司が谷２丁目１６番１号,,13,116,1710032,,,,,,,2023-08-31,1,,,,,エイチアンドエヌエステート,0
87,1020001153257,新規,0,2023-08-31,2023-08-31,株式会社長谷美,,株式会社,神奈川県,横浜市中区,翁町２丁目７番地１０関内フレックスビル６０５号室,,14,104,2310028,,,,,,,2023-08-31,1,,,,,ハセビ,0
91,1021001080053,新規,0,2023-08-31,2023-08-31,株式会社Ｖ‐ｅｄｕｃａｔｉｏｎ,,株式会社,神奈川県,厚木市,戸室５丁目３１番１号アツギトレリス３階,,14,212,2430031,,,,,,,2023-08-31,1,,,,,ファイブエデュケーション,0
92,1021003013531,新規,0,2023-08-31,2023-08-31,合同会社前田成彦編集制作事務所,,合同会社,神奈川県,鎌倉市,材木座６丁目２‐２１,,14,204,2480013,,,,,,,2023-08-31,1,,,,,マエダナルヒコヘンシュウセイサクジムショ,0
99,1030001155541,新規,0,2023-08-31,2023-08-31,株式会社未来ホールディングス,,株式会社,埼玉県,川越市,豊田町３丁目１６番５号,,11,201,3501110,,,,,,,2023-08-31,1,,,,,ミライホールディングス,0
103,1030003022376,新規,0,2023-08-31,2023-08-31,合同会社ＺＥＲＯ　Ｌａｂ．,,合同会社,埼玉県,さいたま市南区,南本町２丁目１７番１－６０２号,,11,108,3360018,,,,,,,2023-08-31,1,,,,,ゼロラボ,0
107,1040001129858,新規,0,2023-08-31,2023-08-31,株式会社よろずや工業,,株式会社,千葉県,千葉市若葉区,若松町５３１番地３７,,12,104,2640021,,,,,,,2023-08-31,1,,,,,ヨロズヤコウギョウ,0
110,1040003023217,新規,0,2023-08-31,2023-08-31,ラベラ合同会社,,合同会社,千葉県,八千代市,米本２５４０番地１３,,12,221,2760015,,,,,,,2023-08-31,1,,,,,ラベラ,0
121,1100001036726,新規,0,2023-08-31,2023-08-31,株式会社アルプスリフォーム,,株式会社,長野県,駒ヶ根市,赤穂１６１５番地２,,20,210,3994117,,,,,,,2023-08-31,1,,,,,アルプスリフォーム,0
122,1100003007163,新規,0,2023-08-31,2023-08-31,合同会社ゆたか,,合同会社,長野県,北安曇郡松川村,７０３３番地１６９,,20,482,3998501,,,,,,,2023-08-31,1,,,,,ユタカ,0
132,1120001257683,新規,0,2023-08-31,2023-08-31,ＶＡＲＡ　ＪＰ株式会社,,株式会社,大阪府,大阪市東成区,深江北３丁目４番２１号エクラ深江橋５１５Ａ,,27,115,5370001,,,,,,,2023-08-31,1,,,,,バラジェーピー,0
138,1120901047993,新規,0,2023-08-31,2023-08-31,宝島開発株式会社,,株式会社,大阪府,豊中市,庄内東町６丁目１８番４５号,,27,203,5610831,,,,,,,2023-08-31,1,,,,,タカラジマカイハツ,0
140,1120905006517,新規,0,2023-08-31,2023-08-31,さつき税理士法人,,その他の設立登記法人,大阪府,池田市,菅原町６番２号３階,,27,204,5630055,,,,,,,2023-08-31,1,,,,,サツキ,0
146,1150001026680,新規,0,2023-08-31,2023-08-31,株式会社なな色,,株式会社,奈良県,大和郡山市,九条町４８７番地１８,,29,203,6391001,,,,,,,2023-08-31,1,,,,,ナナイロ,0
147,1160001025293,新規,0,2023-08-31,2023-08-31,株式会社園山,,株式会社,滋賀県,近江八幡市,東町１８１番地１２,,25,204,5230037,,,,,,,2023-08-31,1,,,,,ソノヤマ,0
155,1200001041641,新規,0,2023-08-31,2023-08-31,株式会社ワコウホールディング,,株式会社,岐阜県,可児市,長坂１丁目５７番地,,21,214,5090257,,,,,,,2023-08-31,1,,,,,ワコウホールディング,0
159,1220003003571,新規,0,2023-08-31,2023-08-31,サークルステイ合同会社,,合同会社,石川県,小松市,青路町７０番地,,17,203,9230967,,,,,,,2023-08-31,1,,,,,サークルステイ,0
168,1260001038260,新規,0,2023-08-31,2023-08-31,株式会社ＢＬＣ,,株式会社,岡山県,浅口市,鴨方町益坂１３８４番地１,,33,216,7190234,,,,,,,2023-08-31,1,,,,,ビーエルシー,0
171,1290001102831,新規,0,2023-08-31,2023-08-31,株式会社ウィズ・ワース,,株式会社,福岡県,福岡市中央区,天神４丁目６番２８号天神ファーストビル７階,,40,133,8100001,,,,,,,2023-08-31,1,,,,,ウィズワース,0
178,1330003009954,新規,0,2023-08-31,2023-08-31,合同会社すまいる,,合同会社,熊本県,熊本市東区,西原２丁目１１番３８号フラワーマンション保田窪３０２号,,43,102,8618029,,,,,,,2023-08-31,1,,,,,スマイル,0
180,1350003004425,新規,0,2023-08-31,2023-08-31,合同会社ＷｅＺ,,合同会社,宮崎県,西諸県郡高原町,大字広原４９５１－１３,,45,361,8894411,,,,,,,2023-08-31,1,,,,,ウィズ,0
182,1360003013251,新規,0,2023-08-31,2023-08-31,合同会社Ｒｅｓｔ沖縄,,合同会社,沖縄県,浦添市,西原５丁目１番２－２０２号アーバンパレット浦西,,47,208,9012101,,,,,,,2023-08-31,1,,,,,レストオキナワ,0
189,1420001018386,新規,0,2023-08-31,2023-08-31,株式会社エボステージプロダクション,,株式会社,青森県,八戸市,大字十三日町１５番地フラワーエイトビル３階,,02,203,0310042,,,,,,,2023-08-31,1,,,,,エボステージプロダクション,0
204,1430003015380,新規,0,2023-08-31,2023-08-31,合同会社はな,,合同会社,北海道,札幌市中央区,南五条東２丁目１６番２－９０７号,,01,101,0600055,,,,,,,2023-08-31,1,,,,,ハナ,0
206,1470001019784,新規,0,2023-08-31,2023-08-31,株式会社秋元ホールディングス,,株式会社,香川県,高松市,瓦町１丁目３番地３,,37,201,7600052,,,,,,,2023-08-31,1,,,,,アキモトホールディングス,0
209,1700150113430,新規,0,2023-08-31,2023-08-31,ＳＺ　ＲｅａｃｈｉｎｇＴｅｃｈ　Ｌｉｍｉｔｅｄ,,外国会社等,,,,,,,,Ｌｏｎｇｇａｎｇ　Ｄｉｓｔｒｉｃｔ，Ｂａｎｔｉａｎ　Ｓｔｒｅｅｔ，Ｎｏ．３４　Ｃｈａｎｇｆａ　Ｗｅｓｔ　Ｒｏａｄ，Ｚｈｏｎｇｂａｏｔｏｎｇ，Ｂｕｉｌｄｉｎｇ　Ｂ２，５１２　ＳｈｅｎＺｈｅｎ　Ｇｕａｎｇ　Ｄｏｎｇ　５１８０００　ＣＮ,,,,,,2023-08-31,1,,,,,シンセンシエイソウインテリジエントテクノロジー,0
210,1700150117687,新規,0,2023-08-31,2023-08-31,ｓｈｅｎｚｈｅｎｓｈｉ　ｍａｉ　ｃｅ　ｊｉ　ｇｕａｎｇ　ｋｅ　ｊｉ　ｙｏｕ　ｘｉａｎ　ｇｏｎｇ　ｓｉ,,外国会社等,,,,,,,,ｎａｎ　ｔｏｕ　ｊｉｅ　ｄａｏ　ｍａ　ｊｉａ　ｌｏｎｇ　ｓｈｅ　ｑｕ　ｄａ　ｘｉｎ　ｌｕ　１９８　ｈａｏ　ｃｈｕａｎｇ　ｘｉｎ　ｄａ　ｓｈａ　Ｂ　ｚｕｏ　２００２Ａ５７　Ｓｈｅｎｚｈｅｎ　ｎａｎ　ｓｈａｎ　ｑｕ　ｇｕａｎｇｄｏｎｇｓｈｅｎｇ,,,,,,2023-08-31,1,,,,,シェンチェンシマイチェジーグアンケジヨウシアンゴンス,0
211,1700150118454,新規,0,2023-08-31,2023-07-14,Ａｒｔ　Ｔｒａｎｓｌａｔｏｒｓ　Ｃｏｌｌｅｃｔｉｖｅ,,その他,東京都,世田谷区,松原４丁目３３－８－１０１,,13,112,1560043,,,,,,,2023-07-14,1,,,,,アートトランスレイターズコレクテイブ,0
212,1700150119618,新規,0,2023-08-31,2023-08-31,ｓｈｅｎｚｈｅｎｓｈｉｊｉｎｚｈｉｎａｎｇｋｅｊｉ　ｙｏｕｘｉａｎｇｏｎｇｓｉ,,外国会社等,,,,,,,,Ｌｕｏｈｕｑｕｑｉｎｇｓｈｕｉｈｅｊｉｅｄａｏｍｅｉｙｕａｎｓｈｅｑｕｈｏｎｇｇａｎｇｌｕ１００５ｈａｏｈｏｎｇｇａｎｇｘｉｃｕｎ２２ｄｏｎｇｙｉｄａｎｙｕａｎ４０１　Ｓｈｅｎｚｈｅｎ,,,,,,2023-08-31,1,,,,,シンセンシジンジナンカギユウゲンコウシ,0
213,1700150119626,新規,0,2023-08-31,2023-08-31,ＳｈｅｎｚｈｅｎＳｈｉ　ＤｕｏｇｅｊｉＣｈｏｎｇｗｕＹｏｎｇｐｉｎ　ＹｏｕｘｉａｎＧｏｎｇｓｉ,,外国会社等,,,,,,,,ＳｈｅｎｚｈｅｎＳｈｉＢａｏＡｎＱｕＸｉｎＡｎＪｉｅｄａｏＤａｌａｎｇＳｈｅｑｕ２３ｑｕ　ＤｏｎｇｌｉａｎＧｏｎｇｙｅｑｕ５ｄｏｎｇ５０３,,,,,,2023-08-31,1,,,,,シンセンシドゲジチョンウヨンピンユウゲンコウシ,0
214,1700150119634,新規,0,2023-08-31,2023-08-31,ＳＨＥＮＺＨＥＮＷＡＮＲＵＩＪＩＳＨＵＣＨＵＡＮＧＸＩＮ　ＹＯＵＸＩＡＮＧＯＮＧＳＩ,,外国会社等,,,,,,,,ＮＡＮＴＯＵＪＩＥＤＡＯＤＡＷＡＮＧＳＨＡＮＧＳＨＥＱＵＴＡＯＹＵＡＮＬＵ８ＨＡＯＴＩＡＮＸＩＡＧＵＯＪＩＺＨＯＮＧＸＩＮＢＺＵＯ３０１７　ＳＨＥＮＧＺＨＥＮＳＨＩＮＡＮＳＨＡＮＱＵ,,,,,,2023-08-31,1,,,,,シンセンワンルイジシュチワンシンユウゲンコウシ,0
215,1700150119642,新規,0,2023-08-31,2023-08-31,ｇｕａｎｇｚｈｏｕ　ｒｏｎｇｓｅｎｄｉａｎｚｉｓｈａｎｇｗｕｋｅｊｉ　ｙｏｕｘｉａｎｇｏｎｇｓｉ,,外国会社等,,,,,,,,ｇｕａｎｇｚｈｏｕｓｈｉ　ｔｉａｎｈｅｑｕ　ｄｏｎｇｐｕｂｅｉｄｏｎｇｌｕ１８ｈａｏｅｒｌｏｕ２６６－０５ｆａｎｇ,,,,,,2023-08-31,1,,,,,コウシュウヨンセンデンシショウムカギユウゲンコウシ,0
216,1700150119650,新規,0,2023-08-31,2023-08-31,ｆｕｘｉｈｕｉｎｅｎｇｓｈｅｎｚｈｅｎ　ｋｅｊｉｙｏｕｘｉａｎｇｏｎｇｓｉ　,,外国会社等,,,,,,,,ｆｕｂａｏｊｉｅｄａｏｆｕｍｉｎｌｕｂｏｌｕｎｈｕａｙｕａｎ３ｚｈｕａｎｇ２ｄａｎｙｕａｎ３０４ｓｈｉ　ｓｈｅｎｚｈｅｎｓｈｉ　ｆｕｔｉａｎｑｕ　Ｃｈｉｎａ,,,,,,2023-08-31,1,,,,,フシフイネンシンセンカギユウゲンコウシ,0
217,1700150119659,新規,0,2023-08-31,2023-08-31,ＨＯＮＧＹＥ　ＩＭＰＯＲＴ　ＡＮＤ　ＥＸＰＯＲＴ　ＣＯ．，ＬＩＭＩＴＥＤ,,外国会社等,,,,,,,,ＲＯＯＭ　６０３Ｅ　６／Ｆ　ＨＡＮＧ　ＰＯＮＴ　ＣＯＭＭＥＲＣＩＡＬ　ＢＵＩＬＤＩＮＧ　３１　ＴＯＮＫＩＮ　ＳＴ　ＣＨＥＵＮＧ　ＳＨＡ　ＷＡＮ　ＫＬ　ＨｏｎｇＫｏｎｇ,,,,,,2023-08-31,1,,,,,ホンイェインポートアンドエクスポートカンパニーリミテッド,0
231,2010001238058,新規,0,2023-08-31,2023-08-31,ＭＳＤ企業投資六号株式会社,,株式会社,東京都,千代田区,大手町１丁目９番２号,,13,101,1000004,,,,,,,2023-08-31,1,,,,,エムエスディーキギョウトウシロクゴウ,0
232,2010001238074,新規,0,2023-08-31,2023-08-31,株式会社ＴＨＥＯＲＹ,,株式会社,東京都,千代田区,神田東松下町１２番地１,,13,101,1010042,,,,,,,2023-08-31,1,,,,,セオリー,0
233,2010001238090,新規,0,2023-08-31,2023-08-31,ＬａｎｄＹ株式会社,,株式会社,東京都,千代田区,飯田橋４丁目４番９号ダイアパレス飯田橋４１０号室,,13,101,1020072,,,,,,,2023-08-31,1,,,,,ランディー,0
234,2010001238099,新規,0,2023-08-31,2023-08-31,株式会社プレロ,,株式会社,東京都,中央区,銀座１丁目２２番１１号銀座大竹ビジデンス２Ｆ,,13,102,1040061,,,,,,,2023-08-31,1,,,,,プレロ,0
235,2010003041534,新規,0,2023-08-31,2023-08-31,広尾合同会社,,合同会社,東京都,中央区,銀座１丁目６番１１号土志田ビルディング３Ｆ,,13,102,1040061,,,,,,,2023-08-31,1,,,,,ヒロオ,0
245,2010401176717,新規,0,2023-08-31,2023-08-31,株式会社プログリフ,,株式会社,東京都,港区,三田５丁目２番１８－１０２３号,,13,103,1080073,,,,,,,2023-08-31,1,,,,,プログリフ,0
248,2010403030780,新規,0,2023-08-31,2023-08-31,合同会社ＭＩＮＡＦ,,合同会社,東京都,港区,芝浦４丁目１２番３８号,,13,103,1080023,,,,,,,2023-08-31,1,,,,,ミナフ,0
249,2010403030830,新規,0,2023-08-31,2023-08-31,合同会社サンストリング,,合同会社,東京都,港区,北青山１丁目３番１号アールキューブ青山３階,,13,103,1070061,,,,,,,2023-08-31,1,,,,,サンストリング,0
252,2010405022421,新規,0,2023-08-31,2023-08-31,一般社団法人ＩＣＴＳＧ　ＪＡＰＡＮ,,その他の設立登記法人,東京都,港区,六本木１丁目３番４１号アークヒルズサイド１Ｆ,,13,103,1060032,,,,,,,2023-08-31,1,,,,,アイシーティーエスジージャパン,0
253,2010501050961,新規,0,2023-08-31,2023-08-31,ロボアプリケーションズ株式会社,,株式会社,東京都,台東区,台東３丁目４２番７号,,13,106,1100016,,,,,,,2023-08-31,1,,,,,ロボアプリケーションズ,0
255,2010701044771,新規,0,2023-08-31,2023-08-31,株式会社マニフェスター,,株式会社,東京都,品川区,旗の台４丁目３番６号ホワイトハウス旗の台５階,,13,109,1420064,,,,,,,2023-08-31,1,,,,,マニフェスター,0
257,2010703006844,新規,0,2023-08-31,2023-08-31,キャス・ラップ合同会社,,合同会社,東京都,品川区,南大井３丁目３３番１２号メゾン高橋２０１,,13,109,1400013,,,,,,,2023-08-31,1,,,,,キャスラップ,0
260,2010901053721,新規,0,2023-08-31,2023-08-31,株式会社Ａｄｍｅｗ,,株式会社,東京都,世田谷区,代田１丁目４４番１１号,,13,112,1550033,,,,,,,2023-08-31,1,,,,,アドミュー,0
266,2011001156464,新規,0,2023-08-31,2023-08-31,株式会社ｙｕｎｔｓｕｎａ,,株式会社,東京都,渋谷区,代官山町１３－７ベルビー代官山１Ｆ,,13,113,1500034,,,,,,,2023-08-31,1,,,,,ユンツナ,0
267,2011001156679,新規,0,2023-08-31,2023-08-31,株式会社ＧＲＩＳ,,株式会社,東京都,渋谷区,渋谷２丁目１９－１５宮益坂ビルディング６０９,,13,113,1500002,,,,,,,2023-08-31,1,,,,,グリス,0
268,2011001156695,新規,0,2023-08-31,2023-08-31,株式会社ＷＡＫＯビューティープロモーション,,株式会社,東京都,渋谷区,東３丁目２３番４号ゼネラルビル東７階,,13,113,1500011,,,,,,,2023-08-31,1,,,,,ワコビューティープロモーション,0
271,2011003017458,新規,0,2023-08-31,2023-08-31,つばさデザイン合同会社,,合同会社,東京都,渋谷区,道玄坂１丁目１０番８号渋谷道玄坂東急ビル２Ｆ－Ｃ,,13,113,1500043,,,,,,,2023-08-31,1,,,,,ツバサデザイン,0
278,2011405002256,新規,0,2023-08-31,2023-08-31,医療法人社団さいしょ小児科,,その他の設立登記法人,東京都,板橋区,東新町２丁目５５番４号１階２階,,13,119,1740074,,,,,,,2023-08-31,1,,,,,サイショショウニカ,0
281,2011501029707,新規,0,2023-08-31,2023-08-31,株式会社ＷＡＫＡＢＡ．Ｆｉｌｍ,,株式会社,東京都,荒川区,東尾久５丁目１７番１１号,,13,118,1160012,,,,,,,2023-08-31,1,,,,,ワカバフィルム,0
286,2011805003291,新規,0,2023-08-31,2023-08-31,土地家屋調査士法人大柄根事務所,,その他の設立登記法人,東京都,葛飾区,細田１丁目１６番５号,,13,122,1240021,,,,,,,2023-08-31,1,,,,,オオガラネジムショ,0
287,2012303001861,新規,0,2023-08-31,2023-08-31,合同会社ハラディ,,合同会社,東京都,町田市,木曽東４丁目６－２２１,,13,209,1940036,,,,,,,2023-08-31,1,,,,,ハラディ,0
288,2012401040935,新規,0,2023-08-31,2023-08-31,株式会社ＳＯＹＯＬ,,株式会社,東京都,稲城市,平尾４丁目６７―４,,13,225,2060823,,,,,,,2023-08-31,1,,,,,ソヨラ,0
293,2012403006117,新規,0,2023-08-31,2023-08-31,合同会社ｍｏｆｆ　ａｐａｒｔｍｅｎｔ,,合同会社,東京都,稲城市,百村１９３番地の６,,13,225,2060804,,,,,,,2023-08-31,1,,,,,モフアパートメント,0
294,2012805003216,新規,0,2023-08-31,2023-08-31,一般社団法人ジェントルマン協会,,その他の設立登記法人,東京都,国立市,北１丁目７番４号国立ＨＡＵＳ－Ｄ,,13,215,1860001,,,,,,,2023-08-31,1,,,,,ジェントルマンキョウカイ,0
306,2020001153256,新規,0,2023-08-31,2023-08-31,株式会社ラピーナ,,株式会社,神奈川県,横浜市中区,元町１丁目５１番地,,14,104,2310861,,,,,,,2023-08-31,1,,,,,ラピーナ,0
308,2020005016104,新規,0,2023-08-31,2023-08-31,一般社団法人ＰＯＮＯ,,その他の設立登記法人,神奈川県,横浜市金沢区,柳町３３番地１４,,14,108,2360026,,,,,,,2023-08-31,1,,,,,ポノ,0
314,2030001155540,新規,0,2023-08-31,2023-08-31,株式会社ＴＥＲＡＢＩＴ,,株式会社,埼玉県,所沢市,大字北秋津２２１番地の１６,,11,208,3590038,,,,,,,2023-08-31,1,,,,,テラビット,0
315,2030001155549,新規,0,2023-08-31,2023-08-31,Ｍ４株式会社,,株式会社,埼玉県,さいたま市西区,三橋６丁目１３２４番地１,,11,101,3310052,,,,,,,2023-08-31,1,,,,,エムフォー,0
319,2030003022391,新規,0,2023-08-31,2023-08-31,合同会社Ｄｏｏｒ　Ｖｉｌｌｅｇｅ,,合同会社,埼玉県,熊谷市,弥藤吾１１３４番地３９,,11,202,3600203,,,,,,,2023-08-31,1,,,,,ドアービレッジ,0
325,2040001129849,新規,0,2023-08-31,2023-08-31,株式会社ランド,,株式会社,千葉県,松戸市,新松戸３丁目８０番地の２,,12,207,2700034,,,,,,,2023-08-31,1,,,,,ランド,0
326,2040001129857,新規,0,2023-08-31,2023-08-31,株式会社ＧＯＮＤＡＬ　ＴＲＡＤＥＲＳ＆ＣＯ,,株式会社,千葉県,野田市,東高野１７０番地１４９,,12,208,2700211,,,,,,,2023-08-31,1,,,,,ゴンダルトレーダーズアンドシーオー,0
333,2050003007762,新規,0,2023-08-31,2023-08-31,合同会社ＫＡＩ,,合同会社,茨城県,ひたちなか市,表町３番地１正栄ビル１階,,08,221,3120047,,,,,,,2023-08-31,1,,,,,ケーエーアイ,0
343,2120001257674,新規,0,2023-08-31,2023-08-31,リカー・エクスプレス株式会社,,株式会社,大阪府,大阪市中央区,東心斎橋１丁目３番３－１３０６号,,27,128,5420083,,,,,,,2023-08-31,1,,,,,リカーエクスプレス,0
344,2120001257682,新規,0,2023-08-31,2023-08-31,藍海迅馳株式会社,,株式会社,大阪府,大阪市城東区,蒲生３丁目１５番１２号セザンヌ藤３０３Ｂ,,27,118,5360016,,,,,,,2023-08-31,1,,,,,アイミジンチ,0
345,2120001257724,新規,0,2023-08-31,2023-08-31,株式会社Ａｒｏｏｎ,,株式会社,大阪府,大阪市淀川区,十三東３丁目２０番２６号,,27,123,5320023,,,,,,,2023-08-31,1,,,,,アルーン,0
348,2120003024809,新規,0,2023-08-31,2023-08-31,合同会社ＪＩＮＺＡＩ,,合同会社,大阪府,大阪市住吉区,庭井１丁目１３番１６号,,27,120,5580012,,,,,,,2023-08-31,1,,,,,ジンザイ,0
358,2120901047992,新規,0,2023-08-31,2023-08-31,株式会社ラフスイッチ,,株式会社,大阪府,豊中市,服部西町１丁目３番２５号,,27,203,5610858,,,,,,,2023-08-31,1,,,,,ラフスイッチ,0
359,2120903004810,新規,0,2023-08-31,2023-08-31,ｄｅｓｔｉｎｙｘ合同会社,,合同会社,大阪府,豊能郡豊能町,ときわ台５丁目６番地の１２,,27,321,5630102,,,,,,,2023-08-31,1,,,,,デスティニーエックス,0
369,2160001025292,新規,0,2023-08-31,2023-08-31,サブロクセブン株式会社,,株式会社,滋賀県,高島市,今津町浜分１５０番地１,,25,212,5201604,,,,,,,2023-08-31,1,,,,,サブロクセブン,0
380,2180301037754,新規,0,2023-08-31,2023-08-31,株式会社教育の窓口,,株式会社,愛知県,みよし市,明知町河田２番地,,23,236,4700214,,,,,,,2023-08-31,1,,,,,キョウイクノマドグチ,0
383,2200001041640,新規,0,2023-08-31,2023-08-31,木村ホールディングス株式会社,,株式会社,岐阜県,瑞浪市,小田町２１９９番地の１,,21,208,5096112,,,,,,,2023-08-31,1,,,,,キムラホールディングス,0
384,2210001019438,新規,0,2023-08-31,2023-08-31,株式会社Ｃａｍｅｌｌｉａ,,株式会社,福井県,福井市,松本４丁目１７番２３号エスコート松本２０６,,18,201,9100003,,,,,,,2023-08-31,1,,,,,カメリア,0
386,2230001019989,新規,0,2023-08-31,2023-08-31,ＴＯＴＡＬ　ＬＩＦＥ株式会社,,株式会社,富山県,富山市,永楽町３５番１０号,,16,201,9300853,,,,,,,2023-08-31,1,,,,,トータルライフ,0
388,2240001062047,新規,0,2023-08-31,2023-08-31,株式会社ＢＯＯＭ,,株式会社,広島県,広島市安芸区,矢野西１丁目３６番４号,,34,107,7360085,,,,,,,2023-08-31,1,,,,,ブーム,0
391,2240005015637,新規,0,2023-08-31,2023-08-31,一般社団法人ハンドトリートメント・ウェル,,その他の設立登記法人,広島県,広島市中区,銀山町１番９－１９０２号,,34,101,7300022,,,,,,,2023-08-31,1,,,,,ハンドトリートメントウェル,0
408,2290003014297,新規,0,2023-08-31,2023-08-31,合同会社Ｂｅｎｅｆｉｔ　ｏｎｅ,,合同会社,福岡県,福岡市博多区,博多駅南３丁目１７番２２－１４０１号ザ・クォータニティバイサヴォイ,,40,132,8120016,,,,,,,2023-08-31,1,,,,,ベネフィットワン,0
409,2290005019138,新規,0,2023-08-31,2023-08-31,一般社団法人ミラｅファイン,,その他の設立登記法人,福岡県,福岡市中央区,天神２丁目３番１０号天神パインクレスト７１９号,,40,133,8100001,,,,,,,2023-08-31,1,,,,,ミライーファイン,0
410,2290801029819,新規,0,2023-08-31,2023-08-31,株式会社オーリー不動産,,株式会社,福岡県,北九州市小倉北区,黒原３丁目１４番２４号１Ｆ,,40,106,8020051,,,,,,,2023-08-31,1,,,,,オーリーフドウサン,0
415,2320001019971,新規,0,2023-08-31,2023-08-31,株式会社鶴商,,株式会社,大分県,玖珠郡玖珠町,大字古後２２３９番地,,44,462,8794523,,,,,,,2023-08-31,1,,,,,ツルショウ,0
416,2340001025852,新規,0,2023-08-31,2023-08-31,株式会社ＭＵＳＵＢＩ,,株式会社,鹿児島県,姶良市,加治木町錦江町１９２,,46,225,8995222,,,,,,,2023-08-31,1,,,,,ムスビ,0
417,2340003004227,新規,0,2023-08-31,2023-08-31,カラビナ合同会社,,合同会社,鹿児島県,鹿児島市,真砂本町３番７５－４０７号サーパス真砂本町,,46,201,8900067,,,,,,,2023-08-31,1,,,,,カラビナ,0
420,2360001032483,新規,0,2023-08-31,2023-08-31,株式会社ｆａｍｕｌｕ,,株式会社,沖縄県,宜野湾市,伊佐２丁目４番８号,,47,205,9012221,,,,,,,2023-08-31,1,,,,,ファムール,0
421,2360003013250,新規,0,2023-08-31,2023-08-31,合同会社元気工房,,合同会社,沖縄県,中頭郡中城村,字当間９５３番地,,47,328,9012406,,,,,,,2023-08-31,1,,,,,ゲンキコウボウ,0
442,2700150117686,新規,0,2023-08-31,2023-08-31,ｇａｏｍｉｗｅｉｇａｏｌａｏｂａｏｙｏｎｇｐｉｎｙｏｕｘｉａｎｇｏｎｇｓｉ,,外国会社等,,,,,,,,ｊｉｎｇｊｉｋａｉｆａｑｕｙａｏｑｉａｎｌｕ１６７７ｈａｏ　ｗｅｉｆａｎｇ　ｇａｏｍｉ　ｓｈａｎｄｏｎｇ　２６１５０２　ＣＮ,,,,,,2023-08-31,1,,,,,ガオミウェイガオラオバオヨンピンヨウシアンゴンス,0
443,2700150119609,新規,0,2023-08-31,2023-08-31,Ｃｈｅｎｇｄｕ　Ｊｉａ　Ｙａｎ　Ｅ－Ｂｕｓｉｎｅｓｓ　Ｃｏ．，Ｌｔｄ,,外国会社等,,,,,,,,Ｚｈａｎｗａｎｇ　Ｒｏａｄ　４７，Ｐｉｄｕ　ｄｉｓｔｒｉｃｔ　Ｒｏｏｍ　１１２　Ｃｈｅｎｇｄｕ　Ｓｉｃｈｕａｎ,,,,,,2023-08-31,1,,,,,セイトカエンデンシショウムユウゲンコウシ,0
444,2700150119617,新規,0,2023-08-31,2023-08-31,ｃｈｅｎｇｄｕｓｈｉｓｈｉｑｉａｏｓｈａｎｇｋｅｊｉ　ｙｏｕｘｉａｎｇｏｎｇｓｉ,,外国会社等,,,,,,,,ｋｅｈｕａｂｅｉｌｕ６５ｈａｏｓｈｉｗａｉｔａｏｙｕａｎｇｕａｎｇｃｈａｎｇ２６ｌｏｕ１００１ｈａｏｗｕｈｏｕｑｕ　ｃｈｅｎｇｄｕｓｈｉ　ｓｉｃｈｕａｎｓｈｅｎｇ,,,,,,2023-08-31,1,,,,,セイトシシチャオシャンカギユウゲンコウシ,0
445,2700150119625,新規,0,2023-08-31,2023-08-31,ＦＯＳＨＡＮＬＩＴＯＮＧＦＡＮＰＥＮＧ　ＣＯ．，ＬＴＤ．,,外国会社等,,,,,,,,ＤａｌｉＴｏｗｎＮａｎｈａｉＤｉｓｔｒｉｃｔ　Ｎｏ．６６ＺｈｏｎｇｂｉａｎＡｖｅｎｕｅ　Ｓｏｕｔｈ　Ｆｏｓｈａｎ　Ｃｉｔｙ,,,,,,2023-08-31,1,,,,,フツザンリトンファンペンカンパニーリミテッド,0
446,2700150119633,新規,0,2023-08-31,2023-08-31,Ｓｈｅｎｚｈｅｎ　Ｊｉｎｇｚｈｉ　Ｅｌｅｃｔｒｏｎｉｃ　Ｔｅｃｈｎｏｌｏｇｙ　Ｃｏ．Ｌｔｄ,,外国会社等,,,,,,,,Ｒｏｏｍ１４０８　ＣｈａｎｇｈｏｎｇＢｕｉｌｄｉｎｇ　ＳｕｎｇａｎｇＲｏａｄ　ＬｕｏｈｕＤｉｓｔｒｉｃｔ　Ｓｈｅｎｚｈｅｎ,,,,,,2023-08-31,1,,,,,シンセンジンジイエレクトロニックテクノロジーカンパニーリミテッド,0
447,2700150119641,新規,0,2023-08-31,2023-08-31,Ｕｄｅａｐｌｕｓ　Ｍａｎｕｆａｃｔｕｒｉｎｇ　Ｌｉｍｉｔｅｄ,,外国会社等,,,,,,,,ＦＬＡＴ／ＲＭ　１２０１　１２／Ｆ　ＴＡＩＳＡＮＧ　ＢＡＮＫ　ＢＵＩＬＤＩＮＧ　１３０－１３２　ＤＥＳ　ＶＯＥＵＸ　ＲＯＡＤ　ＣＥＮＴＲＡＬ　ＨＫ,,,,,,2023-08-31,1,,,,,ユディプラスマニュファクチュアリングリミテッド,0
448,2700150119658,新規,0,2023-08-31,2023-08-31,ｘｉａｎｈｕａｓｈｕｏ（ｓｈａｎｇｈａｉ）ｋｅｊｉｙｏｕｘｉａｎｇｏｎｇｓｉ,,外国会社等,,,,,,,,ｗｕｙｉｌｕ６５６－６５８ｈａｏ２ｚｈｕａｎｇ２１８６ｓｈｉ　ｃｈａｎｇｎｉｎｇｑｕｓｈａｎｇｈａｉｓｈｉ　２０００５１　ＣＮ,,,,,,2023-08-31,1,,,,,シエンフワーシュオシャンハイコージーヨウシエンゴンスー,0
458,3010001238107,新規,0,2023-08-31,2023-08-31,株式会社Ｌｉｌｙ,,株式会社,東京都,中央区,日本橋馬喰町１丁目６番９－８０２号,,13,102,1030002,,,,,,,2023-08-31,1,,,,,リリー,0
463,3010003041541,新規,0,2023-08-31,2023-08-31,合同会社點石,,合同会社,東京都,中央区,日本橋室町１丁目１１番１２号日本橋水野ビル７階,,13,102,1030022,,,,,,,2023-08-31,1,,,,,テンセキ,0
471,3010403030846,新規,0,2023-08-31,2023-08-31,シネマデベロップメント合同会社,,合同会社,東京都,港区,赤坂４丁目１番３１号,,13,103,1070052,,,,,,,2023-08-31,1,,,,,シネマデベロップメント,0
475,3010801034291,新規,0,2023-08-31,2023-08-31,株式会社ＭＫ＆Ｔ,,株式会社,東京都,大田区,南蒲田２丁目６番２２号,,13,111,1440035,,,,,,,2023-08-31,1,,,,,エムケーアンドティー,0
483,3011003017457,新規,0,2023-08-31,2023-08-31,合同会社いちがつ,,合同会社,東京都,渋谷区,渋谷２丁目１９－１５宮益坂ビルディング６０９,,13,113,1500002,,,,,,,2023-08-31,1,,,,,イチガツ,0
488,3011101104181,新規,0,2023-08-31,2023-08-31,株式会社Ｉｓｌｅ,,株式会社,東京都,新宿区,新宿３丁目２－９新宿ワシントンホテルビル本館２Ｆ,,13,104,1600022,,,,,,,2023-08-31,1,,,,,アイル,0
502,3011601027064,新規,0,2023-08-31,2023-08-31,株式会社Ａｌｔｅｏ,,株式会社,東京都,練馬区,東大泉６丁目１４番６号,,13,120,1780063,,,,,,,2023-08-31,1,,,,,アルテオ,0
510,3012301013569,新規,0,2023-08-31,2023-08-31,株式会社和ｎａｇｏｍｉ企画,,株式会社,東京都,町田市,広袴町６５８番地１フェニックス佐藤３１５,,13,209,1950052,,,,,,,2023-08-31,1,,,,,ナゴミキカク,0
511,3012305002056,新規,0,2023-08-31,2023-08-31,一般社団法人アトリエ花習,,その他の設立登記法人,東京都,町田市,三輪緑山３丁目１９番地１３,,13,209,1950055,,,,,,,2023-08-31,1,,,,,アトリエカシュウ,0
512,3013305003507,新規,0,2023-08-31,2023-08-31,行政書士法人ＫＯＫＩ,,その他の設立登記法人,東京都,豊島区,池袋２丁目２４番２号１４０２号,,13,116,1710014,,,,,,,2023-08-31,1,,,,,コーキ,0
517,3020005016103,新規,0,2023-08-31,2023-08-31,一般社団法人日本保険外リハビリ促進協会,,その他の設立登記法人,神奈川県,横浜市都筑区,北山田６丁目４３番１３－１０４号,,14,118,2240021,,,,,,,2023-08-31,1,,,,,ニホンホケンガイリハビリソクシンキョウカイ,0
521,3030001155515,新規,0,2023-08-31,2023-08-31,株式会社Ｄ設計,,株式会社,埼玉県,深谷市,小前田９７７番地３,,11,218,3691246,,,,,,,2023-08-31,1,,,,,ディーセッケイ,0
522,3030001155548,新規,0,2023-08-31,2023-08-31,Ｓｍａｒｌｉｖ株式会社,,株式会社,埼玉県,上尾市,大字上尾下６６７番地,,11,219,3620025,,,,,,,2023-08-31,1,,,,,スマリブ,0
533,3040001129856,新規,0,2023-08-31,2023-08-31,東呉株式会社,,株式会社,千葉県,八千代市,村上１１１３番地１・３街区２２棟５０３号,,12,221,2760028,,,,,,,2023-08-31,1,,,,,トウゴ,0
534,3040001129864,新規,0,2023-08-31,2023-08-31,株式会社ＵＭＥＤＡホールディングス,,株式会社,千葉県,山武郡芝山町,大台３１５５番地１７,,12,409,2891605,,,,,,,2023-08-31,1,,,,,ウメダホールディングス,0
536,3040003023215,新規,0,2023-08-31,2023-08-31,未来果南合同会社,,合同会社,千葉県,船橋市,前原東２丁目８番２号,,12,204,2740824,,,,,,,2023-08-31,1,,,,,ミライカナ,0
547,3120001257681,新規,0,2023-08-31,2023-08-31,華坤株式会社,,株式会社,大阪府,大阪市大正区,三軒家西３丁目４番１６号中山ビル３０３Ｂ,,27,108,5510001,,,,,,,2023-08-31,1,,,,,カコン,0
548,3120001257707,新規,0,2023-08-31,2023-08-31,株式会社ＡＩＫＥＮ,,株式会社,大阪府,大阪市北区,堂島１丁目３番３号,,27,127,5300003,,,,,,,2023-08-31,1,,,,,アイケン,0
549,3120001257731,新規,0,2023-08-31,2023-08-31,京玉堂株式会社,,株式会社,大阪府,大阪市住吉区,万代東１丁目３番２２号メゾン東和２０６号室,,27,120,5580056,,,,,,,2023-08-31,1,,,,,キョウギョクドウ,0
553,3120003024808,新規,0,2023-08-31,2023-08-31,合同会社タームアンド,,合同会社,大阪府,大阪市阿倍野区,長池町９番２３号,,27,119,5450013,,,,,,,2023-08-31,1,,,,,タームアンド,0
562,3140003019475,新規,0,2023-08-31,2023-08-31,合同会社ＵｔｏＭＥ,,合同会社,兵庫県,尼崎市,塚口本町２丁目３４番１６号,,28,202,6610001,,,,,,,2023-08-31,1,,,,,ユートミー,0
564,3150003003049,新規,0,2023-08-31,2023-08-31,合同会社Ｔｏｉｒｏ,,合同会社,奈良県,大和郡山市,矢田山町４８４２－１ヴィラナリー大和郡山１号棟１０３号室,,29,203,6391055,,,,,,,2023-08-31,1,,,,,トイロ,0
572,3180001157802,新規,0,2023-08-31,2023-08-31,株式会社ツバキ,,株式会社,愛知県,あま市,七宝町安松瀬木戸２２４１番地,,23,237,4970011,,,,,,,2023-08-31,1,,,,,ツバキ,0
574,3180003025676,新規,0,2023-08-31,2023-08-31,Ｈ＆Ｔ合同会社,,合同会社,愛知県,岩倉市,下本町下市場５０番地,,23,228,4820005,,,,,,,2023-08-31,1,,,,,エイチアンドティー,0
576,3180301037753,新規,0,2023-08-31,2023-08-31,株式会社エスアイ,,株式会社,愛知県,豊田市,豊栄町１０丁目２１番地１,,23,211,4701201,,,,,,,2023-08-31,1,,,,,エスアイ,0
578,3190001030693,新規,0,2023-08-31,2023-08-31,株式会社ＬｉＦｉｘ,,株式会社,三重県,津市,大倉１１番１４号,,24,201,5140834,,,,,,,2023-08-31,1,,,,,リフィックス,0
582,3230001019988,新規,0,2023-08-31,2023-08-31,株式会社ジュータイ,,株式会社,富山県,砺波市,となみ町２番２号,,16,208,9391387,,,,,,,2023-08-31,1,,,,,ジュータイ,0
585,3240001020111,新規,0,2023-08-31,2023-08-31,国際総業株式会社,,株式会社,広島県,広島市佐伯区,屋代３丁目１１番６号,,34,108,7315146,,,,,,,2023-08-31,1,,,,,コクサイソウギョウ,0
586,3240001062046,新規,0,2023-08-31,2023-08-31,株式会社ＫＳＭ,,株式会社,広島県,広島市西区,小河内町２丁目２３番３－６０４号,,34,104,7330025,,,,,,,2023-08-31,1,,,,,ケーエスエム,0
597,3290001102805,新規,0,2023-08-31,2023-08-31,株式会社ＴＯＮＥ,,株式会社,福岡県,福岡市博多区,御供所町３番２９－１１０３号,,40,132,8120037,,,,,,,2023-08-31,1,,,,,トーン,0
598,3290001102821,新規,0,2023-08-31,2023-08-31,株式会社木村機工,,株式会社,福岡県,大川市,大字新田２６７番地５,,40,212,8310043,,,,,,,2023-08-31,1,,,,,キムラキコウ,0
600,3290003014296,新規,0,2023-08-31,2023-08-31,やまさきファーム合同会社,,合同会社,福岡県,筑紫野市,大字原田２１３２番地,,40,217,8180024,,,,,,,2023-08-31,1,,,,,,0
602,3300001013439,新規,0,2023-08-31,2023-08-31,株式会社くすのき不動産,,株式会社,佐賀県,佐賀市,城内１丁目１３番８号,,41,201,8400041,,,,,,,2023-08-31,1,,,,,クスノキフドウサン,0
605,3320001019970,新規,0,2023-08-31,2023-08-31,株式会社藤葉漢方,,株式会社,大分県,別府市,大字鶴見２２６０番地の１６０,,44,202,8740840,,,,,,,2023-08-31,1,,,,,フジハカンポウ,0
608,3350001004433,新規,0,2023-08-31,2023-08-31,日宝商事株式会社,,株式会社,宮崎県,宮崎市,高岡町小山田９１６番地１,,45,201,8802214,,,,,,,2023-08-31,1,,,,,ニッポウショウジ,0
612,3360003013241,新規,0,2023-08-31,2023-08-31,合同会社和,,合同会社,沖縄県,国頭郡宜野座村,字漢那１３９５－４コーポＹＡＧＩ２０５号,,47,313,9041304,,,,,,,2023-08-31,1,,,,,ナゴミ,0
621,3410001013584,新規,0,2023-08-31,2023-08-31,株式会社すとろーるーぷ,,株式会社,秋田県,男鹿市,角間崎字十文字１７－６,,05,206,0100422,,,,,,,2023-08-31,1,,,,,ストローループ,0
641,3700150113429,新規,0,2023-08-31,2023-08-31,ＷＥＮＺＨＯＵ　ＨＯＭＥＩＮ　ＣＯ．，ＬＴＤ,,外国会社等,,,,,,,,ＲＯＯＭ　２０６，ＢＵＩＬＤＩＮＧ　Ａ，１８８　ＬＡＮＪＩＡＮＧ　ＲＯＡＤ，ＰＵＺＨＯＵ　ＳＴＲＥＥＴ，ＬＯＮＧＷＡＮ　ＷＥＮＺＨＯＵ　ＺＨＥＪＩＡＮＧ　３２５０００　ＣＮ,00131697,,,,,2023-08-31,1,,,,,オンシユウホンミンボウエキユウゲンコウシ,0
642,3700150119608,新規,0,2023-08-31,2023-08-31,ｇｕａｎｇｚｈｏｕｔｉｎｇｆｅｎｇｋｅｊｉｙｏｕｘｉａｎｇｏｎｇｓｉ,,外国会社等,,,,,,,,Ｇｕａｎｇｄｏｎｇｓｈｅｎｇ　Ｇｕａｎｇｚｈｏｕｓｈｉｙｕｅｘｉｕｑｕ　ｎｏｎｇｌｉｎｘｉａｌｕ８１　ｈａｏｚｈｉｙｉ１９Ｂ１－Ａ２２１２,,,,,,2023-08-31,1,,,,,コウシュウテイホウカギユウゲンコウシ,0
643,3700150119616,新規,0,2023-08-31,2023-08-31,ＳＨＡＮＧＨＡＩ　ＤＵＩＤＥＳＨＡＮＧＷＵＺＩＸＵＮ　ＹＯＵＸＩＡＮＧＯＮＧＳＩ,,外国会社等,,,,,,,,ＱＩＮＧＰＵＱＵ　ＨＵＱＩＮＧＰＩＮＧＧＯＮＧＬＵ　９５６５ＨＡＯ　１ＺＨＵＡＮＧ　Ｙ　Ｚｏｎｅ　Ｒｏｏｍ　２６９　ＳＨＡＮＧＨＡＩ,,,,,,2023-08-31,1,,,,,シャンハイドゥイデショウムシジュンユウゲンコウシ,0
644,3700150119624,新規,0,2023-08-31,2023-08-31,Ｃｈｅｎｇｄｕ　Ｍｉｌｅｓｉ　Ｔｅｃｈｎｏｌｏｇｙ　Ｃｏ．，Ｌｔｄ．,,外国会社等,,,,,,,,Ｃｈｉｎａ（Ｓｉｃｈｕａｎ）　ＰｉｌｏｔＦｒｅｅＴｒａｄｅＺｏｎｅ　Ｎｏ１６０９　１６ｔｈ　Ｆｌｏｏｒ　ＴｉａｎｆｕＪｉｎｇｒｏｎｇＢｕｉｌｄｉｎｇ　Ｎｏ２０３９　ＳｏｕｔｈＳｅｃｔｉｏｎ　ｏｆ　ＴｉａｎｆｕＡｖｅｎｕｅ　ＴｉａｎｆｕＮｅｗＤｉｓｔｒｉｃｔ　Ｃｈｅｎｇｄｕ,,,,,,2023-08-31,1,,,,,セイトミレシテクノロジーカンパニーリミテッド,0
645,3700150119632,新規,0,2023-08-31,2023-08-31,ｑｕａｎｚｈｏｕｓｈｉｔｉａｎｃｈｅｎｇｌｉｎｇｍａｏｙｉ　ｙｏｕｘｉａｎｇｏｎｇｓｉ,,外国会社等,,,,,,,,ｆｕｊｉａｎｓｈｅｎｇｑｕａｎｚｈｏｕｓｈｉｎａｎａｎｓｈｉｓｈｉｓｈａｎｚｈｅｎｗｕｆｅｎｇｃｕｎｚｈｏｎｇｊｉａｏ６１ｈａｏ,,,,,,2023-08-31,1,,,,,センシュウシテンチェンリンマオイユウゲンコウシ,0
646,3700150119640,新規,0,2023-08-31,2023-08-31,Ｓｈｅｎｚｈｅｎ　Ｆｏｒｄｃｏｎｎ　Ｉｎｄｕｓｔｒｉａｌ　ｃｏ．，ＬＴＤ,,外国会社等,,,,,,,,３０８，Ｌｉａｎｒｕｎｆａ　Ｂｕｉｌｄｉｎｇ，Ｎｏ．９　Ｌｏｎｇｘｉ　Ｒｏａｄ，Ｎａｎｌｉａｎ　Ｃｏｍｍｕｎｉｔｙ，Ｌｏｎｇｇａｎｇ　Ｓｔｒｅｅｔ，Ｌｏｎｇｇａｎｇ　Ｄｉｓｔｒｉｃｔ，Ｓｈｅｎｚｈｅｎ　Ｃｉｔｙ,,,,,,2023-08-31,1,,,,,シンセンフォドカンインダストゥリアルカンパニーリミテッド,0
647,3700150119649,新規,0,2023-08-31,2023-08-31,ｇｕａｎｇｚｈｏｕｓｈｉ　ｈｅｎｇａｉｙｉｌｉａｏｓｈｅｂｅｉｋｅｊｉ　ｙｏｕｘｉａｎｇｏｎｇｓｉ　,,外国会社等,,,,,,,,Ｎｏ６８　ＴａｉｊｉＲｏａｄ　ＴａｉｐｉｎｇＴｏｗｎ　Ｇｕａｎｇｚｈｏｕ　ＣｏｎｇｈｕａＤｉｓｔｒｉｃｔ　Ｃｈｉｎａ,,,,,,2023-08-31,1,,,,,コウシュウシヘンアイイリョウセツビカギユウゲンコウシ,0
648,3700150119657,新規,0,2023-08-31,2023-08-31,Ｓｈｅｎｚｈｅｎｓｈｉ　Ｂｏｗｅｉ　Ｄｉａｎｚｉ　Ｓｈａｎｇｗｕ　Ｙｏｕｘｉａｎｇｏｎｇｓｉ,,外国会社等,,,,,,,,ＢａｏＡｎＱｕＸｉＸｉａｎｇＪｉｅＤａｏＮａｎＣｈａｎｇＳｈｅＱｕＨａｎｇＣｈｅｎｇＤａＤａｏ　ＨｕａＦｅｎｇＧｕｏＪｉＪｉＱｉＲｅｎＣｈａｎＹｅＹｕａｎＡＤｏｎｇＡ６１８　ＳｈｅｎＺｈｅｎ　ＧｕａｎｇＤｏｎｇ　５１８０００　ＣＮ,,,,,,2023-08-31,1,,,,,シェンジェンシーボーウェイディエンズーシャンウーヨウシエンゴンスー,0
652,4010001238072,新規,0,2023-08-31,2023-08-31,ａｒａｇａ株式会社,,株式会社,東京都,千代田区,神田和泉町１番地６－１６ヤマトビル４０５,,13,101,1010024,,,,,,,2023-08-31,1,,,,,アラガ,0
653,4010001238097,新規,0,2023-08-31,2023-08-31,三宝株式会社,,株式会社,東京都,文京区,西片２丁目２１番３－１０２,,13,105,1130024,,,,,,,2023-08-31,1,,,,,サンポウ,0
654,4010001238106,新規,0,2023-08-31,2023-08-31,イノベ株式会社,,株式会社,東京都,中央区,銀座６丁目６－１銀座風月堂ビル５Ｆ,,13,102,1040061,,,,,,,2023-08-31,1,,,,,イノベ,0
671,4010401176847,新規,0,2023-08-31,2023-08-31,株式会社アールシノワ,,株式会社,東京都,港区,白金３丁目１７番１０－２０８号,,13,103,1080072,,,,,,,2023-08-31,1,,,,,アールシノワ,0
674,4010403030829,新規,0,2023-08-31,2023-08-31,合同会社Ｕｎｉｏｎ　ＳＱ,,合同会社,東京都,港区,赤坂２丁目１４番５号ダイワ赤坂ビル７階,,13,103,1070052,,,,,,,2023-08-31,1,,,,,ユニオンスクウェア,0
676,4010405022403,新規,0,2023-08-31,2023-08-31,一般財団法人三千年の未来会議,,その他の設立登記法人,東京都,港区,虎ノ門５丁目１３番１号虎ノ門４０ＭＴビル７階,,13,103,1050001,,,,,,,2023-08-31,1,,,,,サンゼンネンノミライカイギ,0
677,4010405022452,新規,0,2023-08-31,2023-08-31,Ｙｅｌｌｏｗ　Ｂｅａｋ特定目的会社,,その他の設立登記法人,東京都,港区,西新橋１丁目２２番５号６階,,13,103,1050003,,,,,,,2023-08-31,1,,,,,イエロービーク,0
678,4010501050968,新規,0,2023-08-31,2023-08-31,株式会社スロースライフ,,株式会社,東京都,台東区,東上野６丁目４番２―２０２号,,13,106,1100015,,,,,,,2023-08-31,1,,,,,スロースライフ,0
681,4010601063696,新規,0,2023-08-31,2023-08-31,ファーマシーＨＤ株式会社,,株式会社,東京都,江東区,北砂５丁目１７番１６－１００２号,,13,108,1360073,,,,,,,2023-08-31,1,,,,,ファーマシーホールディングス,0
682,4010703006842,新規,0,2023-08-31,2023-08-31,ヴィクトリー・トレーディング合同会社,,合同会社,東京都,品川区,西大井２丁目７番２号,,13,109,1400015,,,,,,,2023-08-31,1,,,,,ヴィクトリートレーディング,0
693,4011001156644,新規,0,2023-08-31,2023-08-31,株式会社ｍｔｃ．ｑｕｏｔａｔｉｏｎ,,株式会社,東京都,目黒区,三田２丁目１６－１０,,13,110,1530062,,,,,,,2023-08-31,1,,,,,エムティーシークォーテーション,0
697,4011101104180,新規,0,2023-08-31,2023-08-31,株式会社Ｗｉｎｒｉｃｈ,,株式会社,東京都,新宿区,新宿１丁目３６番２号新宿第七葉山ビル３階,,13,104,1600022,,,,,,,2023-08-31,1,,,,,ウィンリッチ,0
707,4012401040933,新規,0,2023-08-31,2023-08-31,株式会社いろどり,,株式会社,東京都,稲城市,平尾４丁目３８番地の３,,13,225,2060823,,,,,,,2023-08-31,1,,,,,イロドリ,0
708,4012401040941,新規,0,2023-08-31,2023-08-31,株式会社ＤＲＥＡＭ,,株式会社,東京都,調布市,入間町３丁目１７番地９アーバンヒルズ成城Ｂ－２０１号,,13,208,1820004,,,,,,,2023-08-31,1,,,,,ドリーム,0
730,4020003024511,新規,0,2023-08-31,2023-08-31,合同会社横星企画,,合同会社,神奈川県,横浜市保土ケ谷区,川辺町２―５,,14,106,2400001,,,,,,,2023-08-31,1,,,,,ヨコボシキカク,0
731,4021001080059,新規,0,2023-08-31,2023-08-31,株式会社ＡＳＭＭＹ,,株式会社,神奈川県,小田原市,池上１５０番地の１２,,14,206,2500041,,,,,,,2023-08-31,1,,,,,アスミー,0
737,4030001155373,新規,0,2023-08-31,2023-08-31,株式会社幹カンパニー,,株式会社,埼玉県,行田市,棚田町１丁目３番地３０,,11,206,3610041,,,,,,,2023-08-31,1,,,,,ミキカンパニー,0
738,4030001155514,新規,0,2023-08-31,2023-08-31,アミラフシ株式会社,,株式会社,埼玉県,さいたま市浦和区,常盤６丁目１３番４号,,11,107,3300061,,,,,,,2023-08-31,1,,,,,アミラフシ,0
739,4030001155539,新規,0,2023-08-31,2023-08-31,久株式会社,,株式会社,埼玉県,戸田市,喜沢２丁目８番地の５５,,11,224,3350013,,,,,,,2023-08-31,1,,,,,ク,0
740,4030001155737,新規,0,2023-08-31,2023-08-31,クリエ株式会社,,株式会社,埼玉県,さいたま市緑区,松木３丁目１１番地９エスポワール１０１,,11,109,3360918,,,,,,,2023-08-31,1,,,,,クリエ,0
745,4040005022107,新規,0,2023-08-31,2023-08-31,特定非営利活動法人ＬＩＢＥＲＴＹ　ＢＥＬＬ,,その他の設立登記法人,千葉県,市川市,宮久保３丁目４１番１号,,12,203,2720822,,,,,,,2023-08-31,1,,,,,リバティーベル,0
751,4050001053369,新規,0,2023-08-31,2023-08-31,日の出商会株式会社,,株式会社,茨城県,取手市,桜が丘１丁目２０番６号,,08,217,3001525,,,,,,,2023-08-31,1,,,,,ヒノデショウカイ,0
754,4070003005077,新規,0,2023-08-31,2023-08-31,合同会社ひふみ,,合同会社,群馬県,桐生市,相生町２丁目２８２番地１２,,10,203,3760011,,,,,,,2023-08-31,1,,,,,ヒフミ,0
755,4080001025828,新規,0,2023-08-31,2023-08-31,梅屋清兵衛株式会社,,株式会社,静岡県,静岡市駿河区,中原３５４番地スカイヤード中原１０３号,,22,102,4228058,,,,,,,2023-08-31,1,,,,,ウメヤセイベイ,0
762,4100003007160,新規,0,2023-08-31,2023-08-31,合同会社きのこブラザーズ,,合同会社,長野県,茅野市,ちの３０３８－３０,,20,214,3910001,,,,,,,2023-08-31,1,,,,,キノコブラザーズ,0
776,4120001257680,新規,0,2023-08-31,2023-08-31,超易株式会社,,株式会社,大阪府,大阪市中央区,松屋町９番２０号ローレルステート松屋町１２０５Ａ,,27,128,5420067,,,,,,,2023-08-31,1,,,,,チョウイ,0
777,4120001257730,新規,0,2023-08-31,2023-08-31,丁九株式会社,,株式会社,大阪府,大阪市生野区,巽北１丁目７番３号３０１号室,00131721,27,116,5440004,,,,,,,2023-08-31,1,,,,,テイキュウ,0
781,4120003024807,新規,0,2023-08-31,2023-08-31,合同会社陽,,合同会社,大阪府,大阪市福島区,海老江２丁目１番３８号ウェルネス６０２号,,27,103,5530001,,,,,,,2023-08-31,1,,,,,ハル,0
783,4122003002651,新規,0,2023-08-31,2023-08-31,合同会社ＺＥＮ,,合同会社,大阪府,八尾市,永畑町３丁目２番３－６０５号,,27,212,5810083,,,,,,,2023-08-31,1,,,,,ゼン,0
787,4140005026725,新規,0,2023-08-31,2023-08-31,一般社団法人プロミネンス・ソリューションズ,,その他の設立登記法人,兵庫県,西宮市,六湛寺町９番７号,,28,204,6620918,,,,,,,2023-08-31,1,,,,,プロミネンスソリューションズ,0
788,4150003003048,新規,0,2023-08-31,2023-08-31,合同会社ＶＯＩＣＥ,,合同会社,奈良県,生駒郡平群町,若葉台５丁目１１番２２号,,29,342,6360938,,,,,,,2023-08-31,1,,,,,ボイス,0
792,4160003002973,新規,0,2023-08-31,2023-08-31,合同会社ＥＮＴＺｅｒｏ,,合同会社,滋賀県,大津市,春日町１番５‐１２０９号,,25,201,5200055,,,,,,,2023-08-31,1,,,,,エントゼロ,0
803,4180301037752,新規,0,2023-08-31,2023-08-31,株式会社中日本ＨＤ,,株式会社,愛知県,岡崎市,大門５丁目１２番地１３,,23,202,4442135,,,,,,,2023-08-31,1,,,,,ナカニホンホールディングス,0
804,4180301037760,新規,0,2023-08-31,2023-08-31,株式会社ＭＹ‐ＤＥＳＩＧＮ,,株式会社,愛知県,岡崎市,昭和町字神郷８番地２,,23,202,4440938,,,,,,,2023-08-31,1,,,,,マイデザイン,0
808,4190001030692,新規,0,2023-08-31,2023-08-31,株式会社山叶,,株式会社,三重県,四日市市,三ツ谷町１６番２６号,,24,202,5100802,,,,,,,2023-08-31,1,,,,,サンキョウ,0
813,4200001041639,新規,0,2023-08-31,2023-08-31,ＬＴＳ株式会社,,株式会社,岐阜県,揖斐郡大野町,大字六里１５３番地１,,21,403,5010525,,,,,,,2023-08-31,1,,,,,エルティーエス,0
816,4200003006061,新規,0,2023-08-31,2023-08-31,Ｉｎｔｅｇｒａｌ合同会社,,合同会社,岐阜県,岐阜市,岩地１丁目１１番２１号,,21,201,5008225,,,,,,,2023-08-31,1,,,,,インテグラル,0
820,4210001019436,新規,0,2023-08-31,2023-08-31,三晃サービス株式会社,,株式会社,福井県,坂井市,春江町安沢第１８号１９番地,,18,210,9190484,,,,,,,2023-08-31,1,,,,,サンコウサービス,0
822,4220003003577,新規,0,2023-08-31,2023-08-31,本谷内建築合同会社,,合同会社,石川県,珠洲市,折戸町ル部５５番地１,,17,205,9271446,,,,,,,2023-08-31,1,,,,,モトヤチケンチク,0
823,4220005008780,新規,0,2023-08-31,2023-08-31,一般社団法人山代温泉観光協会,,その他の設立登記法人,石川県,加賀市,山代温泉北部３丁目７０番地,,17,206,9220243,,,,,,,2023-08-31,1,,,,,ヤマシロオンセンカンコウキョウカイ,0
828,4230001019987,新規,0,2023-08-31,2023-08-31,オリプロテック株式会社,,株式会社,富山県,富山市,婦中町板倉３２番地,,16,201,9392721,,,,,,,2023-08-31,1,,,,,オリプロテック,0
829,4240001062045,新規,0,2023-08-31,2023-08-31,株式会社野津田,,株式会社,広島県,広島市中区,東白島町５番３０－１５０２号,,34,101,7300004,,,,,,,2023-08-31,1,,,,,ノツダ,0
836,4290001102787,新規,0,2023-08-31,2023-08-31,ＵＳＹＫＦ株式会社,,株式会社,福岡県,福岡市博多区,西月隈３丁目２１番１０号,,40,132,8120857,,,,,,,2023-08-31,1,,,,,ユーエスワイケイエフ,0
839,4300003002018,新規,0,2023-08-31,2023-08-31,合同会社ＳＫＰ,,合同会社,佐賀県,佐賀市,神野東３丁目６－１９,,41,201,8400804,,,,,,,2023-08-31,1,,,,,エスケイピー,0
847,4330001031214,新規,0,2023-08-31,2023-08-31,株式会社Ｂｒｉｄｇｅ,,株式会社,熊本県,山鹿市,熊入町２４１番地２,,43,208,8610511,,,,,,,2023-08-31,1,,,,,ブリッジ,0
853,4350003001659,新規,0,2023-08-31,2023-08-31,三嶋酒造合名会社,,合名会社,宮崎県,日南市,大堂津３丁目２番２５号,,45,204,8893141,,,,,,,2023-08-31,1,,,,,ミシマシュゾウ,0
855,4360001032473,新規,0,2023-08-31,2023-08-31,株式会社Ｃ‐ｂｕｎ,,株式会社,沖縄県,那覇市,首里石嶺町４丁目２３９番地１フリースピュア２０１,,47,201,9030804,,,,,,,2023-08-31,1,,,,,シーブン,0
858,4370001050342,新規,0,2023-08-31,2023-08-31,株式会社ＷＥＳＴ,,株式会社,宮城県,仙台市青葉区,芋沢字唄坂８番地１,,04,101,9893212,,,,,,,2023-08-31,1,,,,,ウエスト,0
876,4700150060876,新規,0,2023-08-31,2015-10-09,ニューライフ佐賀管理組合,,その他,佐賀県,佐賀市,大財３丁目１０－２０,,41,201,8400811,,,,,,,2015-10-09,1,,,,,ニユーライフサガカンリクミアイ,0
877,4700150116612,新規,0,2023-08-31,2023-08-31,ＮＩＮＧＢＯ　ＬＩＤＵＮ　ＰＲＯＴＥＣＴＩＶＥ　ＰＲＯＤＵＣＴ　ＣＯ．，ＬＴＤ,,外国会社等,,,,,,,,ｓａｎｑｉｓｈｉｃｕｎ　ｍｏａｏ１２８ｈａｏ　ｓａｎｑｉｓｈｉｚｈｅｎ　Ｙｕｙａｏｓｈｉ　Ｎｉｎｇｂｏｓｈｉ　ｚｈｅｊｉａｎｇｓｈｅｎｇ　３４５４１２　ＣＮ,,,,,,2023-08-31,1,,,,,ニンボーリドゥンプロテクティブプロダクトカンパニーリミテッド,0
878,4700150119607,新規,0,2023-08-31,2023-08-31,Ｓｈａｏｙａｎｇｘｉａｎ　ｒｕｉｍａｉｈｕａｚｈｕａｎｇｐｉｎ　ｙｏｕｘｉａｎｇｏｎｇｓｉ,,外国会社等,,,,,,,,ｊｉｎｃｈｅｎｇｓｈｉｚｈｅｎｌｉａｎｘｉｃｕｎ　ｌｉｕｆａｎｇ５ｚｕ１４ｄｏｎｇ３ｈａｏ　ｓｈａｏｙａｎｇｓｈｉ　ｓｈａｏｙａｎｇｘｉａｎ　ｈｕｎａｎｓｈｅｎｇ,,,,,,2023-08-31,1,,,,,ショウヨウケンズイバクゲショウヒンユウゲンコウシ,0
879,4700150119615,新規,0,2023-08-31,2023-08-31,ｐｉｎｇｘｉａｎｇｓｈｉｈａｉｒｕｉｅｒｍａｏｙｉｙｏｕｘｉａｎｇｏｎｇｓｉ,,外国会社等,,,,,,,,ａｎｙｕａｎｑｕｓｈａｏｓｈａｎｄｏｎｇｌｕ２８ｈａｏ　ｌｏｎｇｆｅｉｊｉｎｘｉｕｊｉａｙｕａｎｄｉｅｒｓｈｉｙｉｄｏｎｇ２ｄａｎｙｕａｎ６０４ｓｈｉ　ｐｉｎｇｘｉａｎｇｓｈｉ　ｊｉａｎｇｘｉｓｈｅｎｇ,,,,,,2023-08-31,1,,,,,ヘイキョウシカイズイジボウエキユウゲンコウシ,0
880,4700150119623,新規,0,2023-08-31,2023-08-31,Ｗｕｈａｎ　ＬＦＤ　Ｍａｔｅｒｉａｌ　Ｃｏ．，Ｌｔｄ．,,外国会社等,,,,,,,,ｈｏｎｇｓｈａｎｑｕｑｉｎｇｌｉｎｇｘｉａｎｇｆｅｎｇｈｕｏｃｕｎｘｉｎｇｃａｉｑｕ１２ｄｏｎｇ,,,,,,2023-08-31,1,,,,,ブカンエルエフディーマテリアルカンパニーリミテッド,0
881,4700150119631,新規,0,2023-08-31,2023-08-31,ＳｈａｎｔｏｕｓｈｉＪｉｎｌｉｄａＧｏｎｇｙｉ　ＹｏｕｘｉａｎＧｏｎｇｓｉ,,外国会社等,,,,,,,,ＨａｏｊｉａｎｇｑｕＣｈｉｇａｎｇＱｉｆｕｂｕＧｏｎｇｙｅｑｕ　Ｓｈａｎｔｏｕｓｈｉ,,,,,,2023-08-31,1,,,,,スワトウシジンリダゴンイユウゲンコウシ,0
882,4700150119648,新規,0,2023-08-31,2023-08-31,ｇｕａｎｇｚｈｏｕｓｈｉ　ｙｏｎｇｈｅｎｇｔｏｎｇｘｉｎｋｅｊｉ　ｙｏｕｘｉａｎｇｏｎｇｓｉ,,外国会社等,,,,,,,,ｃｅｎｃｕｎｈｏｎｇｈｕａｇａｎｇｘｉｊｉｅ６６ｈａｏＢ７７１ｓｈｉ　Ｔｉａｎｈｅｑｕ　Ｇｕａｎｇｚｈｏｕｓｈｉ　Ｃｈｉｎａ,,,,,,2023-08-31,1,,,,,コウシュウシヨンヘントンシンカギユウゲンコウシ,0
883,4700150119664,新規,0,2023-08-31,2023-08-31,Ｑｕａｎｊｉａｏ　Ｃｏｕｎｔｙ　Ｇｒｅａｔ　ａｂｉｌｉｔｙ．Ｅｌｅｃｔｒｏｎｉｃ　Ｃｏｍｍｅｒｃｅ　Ｃｏ．，Ｌｔｄ．,,外国会社等,,,,,,,,Ｘｉａｎｇｈｅ　ｔｏｗｎ　Ｆａｃａｄｅ　ｏｆ　Ｎｏ．３１１，Ｂｌｏｃｋ　Ｄ，Ｒｕｌｉｎ　Ｘｉｙｕａｎ　ｑｕａｎｊｉａｏ　ｃｈｕｚｈｏｕ　ａｎｈｕｉ,,,,,,2023-08-31,1,,,,,チユアンジャオカウンティーグレイトアビリティーイレクトゥロニックコマースカンパニーリミテッド,0
889,5010001238039,新規,0,2023-08-31,2023-08-31,Ｎｅｗ　Ｇａｌａｘｙ　Ｅｎｔｅｒｔａｉｎｍｅｎｔ　Ｊａｐａｎ株式会社,,株式会社,東京都,中央区,日本橋室町４丁目３番９号,,13,102,1030022,,,,,,,2023-08-31,1,,,,,ニューギャラクシーエンターテインメントジャパン,0
890,5010001238063,新規,0,2023-08-31,2023-08-31,株式会社ブライトホーム,,株式会社,東京都,中央区,八丁堀４丁目１番３号安和宝町ビル,,13,102,1040032,,,,,,,2023-08-31,1,,,,,ブライトホーム,0
891,5010001238121,新規,0,2023-08-31,2023-08-31,株式会社リュウリー,,株式会社,東京都,中央区,銀座７丁目１７番１８－４０５号,,13,102,1040061,,,,,,,2023-08-31,1,,,,,リュウリー,0
897,5010101015791,新規,0,2023-08-31,2023-08-31,ＪＯＩＮ株式会社,,株式会社,東京都,八王子市,東中野１５番地１,,13,201,1920351,,,,,,,2023-08-31,1,,,,,ジョイン,0
906,5010401176846,新規,0,2023-08-31,2023-08-31,株式会社Ｄｒａｗｉｎｇ,,株式会社,東京都,港区,南青山２丁目２番１５号ウィン青山９４２,,13,103,1070062,,,,,,,2023-08-31,1,,,,,ドロウイング,0
907,5010401176887,新規,0,2023-08-31,2023-08-31,株式会社ＵｎｌｏｃＸ,,株式会社,東京都,港区,南青山３丁目１番３６号,,13,103,1070062,,,,,,,2023-08-31,1,,,,,アンロックス,0
911,5010403030836,新規,0,2023-08-31,2023-08-31,合同会社ＪＯＳＥ,,合同会社,東京都,港区,白金１丁目２番１－Ｅ３８１８号,,13,103,1080072,,,,,,,2023-08-31,1,,,,,ジョセ,0
912,5010405022402,新規,0,2023-08-31,2023-08-31,一般社団法人営業力向上協会,,その他の設立登記法人,東京都,港区,東麻布２丁目３５番１号ＫＣビル６Ｆ,,13,103,1060044,,,,,,,2023-08-31,1,,,,,エイギョウリョクコウジョウキョウカイ,0
924,5010901053710,新規,0,2023-08-31,2023-08-31,株式会社Ｖａｌｕａｂｌｅ　Ｓｅｒｖｉｃｅ,,株式会社,東京都,世田谷区,玉川３丁目１５－６フェリス玉川５０１,,13,112,1580094,,,,,,,2023-08-31,1,,,,,バリュアブルサービス,0
931,5011001156668,新規,0,2023-08-31,2023-08-31,ＩＭＡ株式会社,,株式会社,東京都,渋谷区,神宮前１丁目５番８号神宮前タワービルディング１３階,,13,113,1500001,,,,,,,2023-08-31,1,,,,,イマ,0
932,5011001156676,新規,0,2023-08-31,2023-08-31,トーマストレーディング株式会社,,株式会社,東京都,渋谷区,上原３丁目４３番１号東高代々木上原ペアシティアネックス７０１,,13,113,1510064,,,,,,,2023-08-31,1,,,,,トーマストレーディング,0
937,5011101104163,新規,0,2023-08-31,2023-08-31,株式会社ＭｉｎＤ　ＣｒｅＷ,,株式会社,東京都,新宿区,片町２番６－１３０２,,13,104,1600001,,,,,,,2023-08-31,1,,,,,マインドクルー,0
939,5011501029704,新規,0,2023-08-31,2023-08-31,オアシスクリエイション株式会社,,株式会社,東京都,北区,十条仲原２丁目３番４－５０１号,,13,117,1140031,,,,,,,2023-08-31,1,,,,,オアシスクリエイション,0
940,5011503005744,新規,0,2023-08-31,2023-08-31,合同会社ＫＩＺＵＮＡ,,合同会社,東京都,北区,王子３丁目１番８－２０２号セイホクハイツ,,13,117,1140002,,,,,,,2023-08-31,1,,,,,キズナ,0
949,5011803005808,新規,0,2023-08-31,2023-08-31,合同会社Ｋｍ　ｇｌｏｒｉａ,,合同会社,東京都,足立区,竹の塚１丁目２８番３号小早川ビル１Ｆ,,13,121,1210813,,,,,,,2023-08-31,1,,,,,ケームグロリア,0
950,5012301013575,新規,0,2023-08-31,2023-08-31,縁事企画株式会社,,株式会社,東京都,町田市,南町田４丁目６番１号,,13,209,1940005,,,,,,,2023-08-31,1,,,,,,0
956,5013101009235,新規,0,2023-08-31,2023-08-31,株式会社お悩み解体マッチング,,株式会社,東京都,福生市,志茂１６９－１ラインオンズマンション１０７,,13,218,1970023,,,,,,,2023-08-31,1,,,,,,0
962,5020001153195,新規,0,2023-08-31,2023-08-31,株式会社吉田電気,,株式会社,神奈川県,横浜市中区,根岸町３丁目１４８番地２エクセル根岸３０１,,14,104,2310836,,,,,,,2023-08-31,1,,,,,ヨシダデンキ,0
977,5030001155538,新規,0,2023-08-31,2023-08-31,株式会社フジヤ,,株式会社,埼玉県,川越市,仲町６番地１,,11,201,3500065,,,,,,,2023-08-31,1,,,,,フジヤ,0
987,5040003023205,新規,0,2023-08-31,2023-08-31,合同会社ＭＴＫ,,合同会社,千葉県,千葉市稲毛区,園生町１１５番地４,,12,103,2630051,,,,,,,2023-08-31,1,,,,,エムティーケー,0
990,5050001053368,新規,0,2023-08-31,2023-08-31,株式会社冨田,,株式会社,茨城県,笠間市,大田町８６１番地,,08,216,3091738,,,,,,,2023-08-31,1,,,,,トミタ,0
993,5060001036297,新規,0,2023-08-31,2023-08-31,株式会社エムアンドエス,,株式会社,栃木県,大田原市,加治屋８７番地８５,,09,210,3240046,,,,,,,2023-08-31,1,,,,,エムアンドエス,0
996,5070002027286,新規,0,2023-08-31,2023-08-31,有限会社不二屋建材店,,有限会社,群馬県,渋川市,１９７０番地,,10,208,3770000,,,,,,,2023-08-31,1,,,,,フジヤケンザイテン,0
1012,5120001257721,新規,0,2023-08-31,2023-08-31,株式会社ゴマ,,株式会社,大阪府,大阪市住吉区,東粉浜３丁目１番７－１０２号,,27,120,5580051,,,,,,,2023-08-31,1,,,,,ゴマ,0
1015,5120003024806,新規,0,2023-08-31,2023-08-31,合同会社大橋商事,,合同会社,大阪府,大阪市阿倍野区,丸山通１丁目２番２３号ベルデフラッツあべの丸山通６０１号,,27,119,5450042,,,,,,,2023-08-31,1,,,,,オオハシショウジ,0
1016,5120003024814,新規,0,2023-08-31,2023-08-31,合同会社サークルバレーコーポレーション,,合同会社,大阪府,大阪市北区,天神橋４丁目８番２５号２０２,,27,127,5300041,,,,,,,2023-08-31,1,,,,,サークルバレーコーポレーション,0
1029,5140003019473,新規,0,2023-08-31,2023-08-31,ＹＳＤ合同会社,,合同会社,兵庫県,神戸市垂水区,朝谷町１４番地の５,,28,108,6550862,,,,,,,2023-08-31,1,,,,,ワイエスディー,0
1033,5170001017757,新規,0,2023-08-31,2023-08-31,株式会社ＳＥＲＡ,,株式会社,和歌山県,伊都郡かつらぎ町,大字丁ノ町２４２９番地の６,,30,341,6497121,,,,,,,2023-08-31,1,,,,,セラ,0
1045,5200003006060,新規,0,2023-08-31,2023-08-31,合同会社ｅｎ,,合同会社,岐阜県,高山市,荘川町町屋３７９,,21,203,5015416,,,,,,,2023-08-31,1,,,,,エン,0
1054,5260003004406,新規,0,2023-08-31,2023-08-31,合同会社ＷｏｎｄｅｒＷａｌｌ,,合同会社,岡山県,笠岡市,西大島１７７０番地４,,33,205,7140032,,,,,,,2023-08-31,1,,,,,ワンダーウォール,0
1059,5290001102803,新規,0,2023-08-31,2023-08-31,株式会社ケーアンドアイ,,株式会社,福岡県,福岡市中央区,大手門２丁目４－１１ＫＮアビテ８０２号室,,40,133,8100074,,,,,,,2023-08-31,1,,,,,ケーアンドアイ,0
1060,5290001102811,新規,0,2023-08-31,2023-08-31,株式会社ディー工房,,株式会社,福岡県,福岡市城南区,飯倉１丁目４番３８号,,40,136,8140134,,,,,,,2023-08-31,1,,,,,ディーコウボウ,0
1061,5290005019135,新規,0,2023-08-31,2023-08-31,菰田総合行政書士法人,,その他の設立登記法人,福岡県,福岡市博多区,博多駅前２丁目２０番１号大博多ビル８Ｆ,,40,132,8120011,,,,,,,2023-08-31,1,,,,,コモダソウゴウ,0
1067,5310003004631,新規,0,2023-08-31,2023-08-31,合同会社龍庵窯,,合同会社,長崎県,東彼杵郡波佐見町,井石郷４１９番地２,,42,323,8593711,,,,,,,2023-08-31,1,,,,,リュウアンガマ,0
1074,5360001032480,新規,0,2023-08-31,2023-08-31,琉球コーヒーエナジー株式会社,,株式会社,沖縄県,南城市,玉城字百名１１４７番地コーポひゃくな４０３号,,47,215,9010603,,,,,,,2023-08-31,1,,,,,リュウキュウコーヒーエナジー,0
1079,5370001050341,新規,0,2023-08-31,2023-08-31,株式会社武咲建設,,株式会社,宮城県,仙台市泉区,天神沢１丁目２７番８号,,04,105,9813105,,,,,,,2023-08-31,1,,,,,タケサキケンセツ,0
1095,5430001089877,新規,0,2023-08-31,2023-08-31,北海道グローバル株式会社,,株式会社,北海道,札幌市中央区,南七条西２丁目１－８１２,,01,101,0640807,,,,,,,2023-08-31,1,,,,,ホッカイドウグローバル,0
1107,5460101007430,新規,0,2023-08-31,2023-08-31,株式会社エマーブル,,株式会社,北海道,河東郡音更町,緑陽台仲区２４番地７,,01,631,0800317,,,,,,,2023-08-31,1,,,,,エマーブル,0
1108,5462501000964,新規,0,2023-08-31,2023-08-31,株式会社ヨシダ,,株式会社,北海道,野付郡別海町,別海４２番地の６,,01,691,0860216,,,,,,,2023-08-31,1,,,,,ヨシダ,0
1109,5490001010572,新規,0,2023-08-31,2023-08-31,株式会社巽Ｔａｔｕｍｉ,,株式会社,高知県,高知市,葛島４丁目３番１４号５０２号,,39,201,7818121,,,,,,,2023-08-31,1,,,,,タツミ,0
1111,5700150119606,新規,0,2023-08-31,2023-08-31,ｓｈｅｎｚｈｅｎｓｈｉｊｉｎｘｕａｎｄｉａｎｚｉｓｈａｎｇｗｕｙｏｕｘｉａｎｇｏｎｇｓｉ,,外国会社等,,,,,,,,ｓｈｅｎｚｈｅｎｓｈｉｌｏｎｇｈｕａｑｕｇｕａｎｌａｎｊｉｅｄａｏ　ｄａｆｕｓｈｅｑｕｄａｆｕｇｏｎｇｙｅｑｕ２２ｈａｏＡ４ｄｏｎｇ３０１　ｓｈｅｎｚｈｅｎ　ｇｕａｎａｄｏｎｇ,,,,,,2023-08-31,1,,,,,シンセンシキンセンデンシショウムユウゲンコウシ,0
1112,5700150119614,新規,0,2023-08-31,2023-08-31,Ｓｈｅｎｚｈｅｎｓｈｉｇａｏｈｕｉｈｏｎｇｄｉａｎｚｉｋｅｊｉｙｏｕｘｉａｎｇｏｎｇｓｉ,,外国会社等,,,,,,,,Ｎａｎ　Ｓｈａｎ　Ｑｕ　Ｘｉ　Ｌｉ　Ｊｉｅ　Ｄａｏ　Ｘｉ　Ｌｉ　Ｂｅｉ　Ｌｕ　Ｊｉｎ　Ｓｈｅｎｇ　Ｙｕａｎ　Ｊｉｎ　Ｌａｎ　Ｇｅ　２０２　ＳＨＥＮＺＨＥＮ　ＧＵＡＮＧＤＯＮＧ,,,,,,2023-08-31,1,,,,,シンセンシコウキコウデンシカギユウゲンコウシ,0
1113,5700150119622,新規,0,2023-08-31,2023-08-31,ｓｈｅｎｚｈｅｎｓｈｉｈｏｎｇｊｉｎｇｓｈｉｙｅ　ｙｏｕｘｉａｎｇｏｎｇｓｉ,,外国会社等,,,,,,,,ｓｈｅｎｚｈｅｎｓｈｉｂａｏａｎｑｕｓｈｉｙａｎｊｉｅｄａｏｇｕａｎｔｉａｎｓｈｅｑｕｂｅｉｈｕａｎｈｅｎｇｋｅｎｇｇｏｎｇｙｅｑｕＢ４ｄｏｎｇｃｈａｎｇｆａｎｇｂｉａｎｈａｏ：Ｔ７－０２０２－Ｂ００２２４ｗｕｃｅｎｇ,,,,,,2023-08-31,1,,,,,シンセンシホンジンジツギョウユウゲンコウシ,0
1114,5700150119630,新規,0,2023-08-31,2023-08-31,Ｌｉａｎｙｕｎｇａｎｇ　ｂｕｓｈｅｎｇ　ｔｒａｄｉｎｇ　ｃｏ．，ｌｔｄ,,外国会社等,,,,,,,,Ｒｏｏｍ１２０３Ｂ－６１　ＲｕｎｃｈａｏＢｕｉｌｄｉｎｇ　ＨａｉｚｈｏｕＤｉｓｔｒｉｃｔ　ＬｉａｎｙｕｎｇａｎｇＣｉｔｙ　ＪｉａｎｇｓｕＰｒｏｖｉｎｃｅ,,,,,,2023-08-31,1,,,,,レンウンコウブショントレーディングカンパニーリミテッド,0
1115,5700150119639,新規,0,2023-08-31,2023-08-31,ｓｈｅｎｚｈｅｎｓｈｉｗｅｉｄｏｎｇｚｈｉｘｉｎｋｅｊｉｙｏｕｘｉａｎｇｏｎｇｓｉ,,外国会社等,,,,,,,,ｊｉｈｕａｊｉｅｄａｏｇａｎｋｅｎｇｓｈｅｑｕｇａｎｌｉｅｒｌｕ１１ｈａｏ　ｚｈｏｎｇｈａｉｘｉｎｃｈｕａｎｇｘｉｎｃｈａｎｙｅｃｈｅｎｇ２１ｄｏｎｇ９０１　ｓｈｅｎｚｈｅｎｓｈｉｌｏｎｇｇａｎｇｑｕ　ｇｕａｎｇｄｏｎｇｓｈｅｎｇ　５１８０００　ＣＮ,,,,,,2023-08-31,1,,,,,シェンジェンシーウェイドンジーシンコージーヨウシエンゴンスー,0
1116,5700150119647,新規,0,2023-08-31,2023-08-31,汕頭市美竹家居有限公司,,外国会社等,,,,,,,,中国汕頭市潮南区隴田鎮仙家広興崛洋第１１号２楼,,,,,,2023-08-31,1,,,,,セントウシビチクカキョユウゲンコウシ,0
1117,5700150119655,新規,0,2023-08-31,2023-08-31,四川欧奇科技有限公司,,外国会社等,,,,,,,,中国四川省南充市順慶区西華路二段２３８号栖鳳佳宛５号楼負１層７号,00131699,,,,,2023-08-31,1,,,,,シセンオウキカギユウゲンコウシ,0
1118,5700150119663,新規,0,2023-08-31,2023-08-31,Ｔｏｎｇｌｕ　Ｘｉｙｕ　Ｔｒａｄｉｎｇ　Ｃｏ．，ＬＴＤ,,外国会社等,,,,,,,,Ｒｏｏｍ　１８０３，Ｚｈｅｆｕ　Ｂｕｉｌｄｉｎｇ，１７７　Ｙｉｎｇｃｈｕｎ　Ｓｏｕｔｈ　Ｒｏａｄ，Ｓｏｕｔｈ　Ｓｔｒｅｅｔ，Ｔｏｎｇｌｕ　Ｃｏｕｎｔｙ，Ｈａｎｇｚｈｏｕ　Ｃｉｔｙ，Ｚｈｅｊｉａｎｇ　Ｐｒｏｖｉｎｃｅ,,,,,,2023-08-31,1,,,,,トンルシユトレーディングカンパニーリミテッド,0
1129,6010001238046,新規,0,2023-08-31,2023-08-31,ＦＷＡＬ　ＧＲＯＵＰ　ＪＡＰＡＮ株式会社,,株式会社,東京都,千代田区,神田三崎町２丁目１０番１１号ＰＥＧビル４Ａ－３部屋,,13,101,1010061,,,,,,,2023-08-31,1,,,,,エフダブルエイエルグループジャパン,0
1130,6010001238095,新規,0,2023-08-31,2023-08-31,株式会社ｓｔｕｄ,,株式会社,東京都,中央区,銀座１丁目２２番１１号銀座大竹ビジデンス２Ｆ,,13,102,1040061,,,,,,,2023-08-31,1,,,,,スタッド,0
1139,6010401176837,新規,0,2023-08-31,2023-08-31,株式会社トラスト,,株式会社,東京都,港区,芝浦１丁目１５番７号,,13,103,1050023,,,,,,,2023-08-31,1,,,,,トラスト,0
1141,6010403030827,新規,0,2023-08-31,2023-08-31,合同会社ｌｕｌｕ,,合同会社,東京都,港区,白金１丁目２番１－Ｅ３７１７号,,13,103,1080072,,,,,,,2023-08-31,1,,,,,ルル,0
1142,6010403030835,新規,0,2023-08-31,2023-08-31,合同会社Ｊｏｅ　Ｃｏｔｔｏｎ,,合同会社,東京都,港区,虎ノ門５丁目１番４号,,13,103,1050001,,,,,,,2023-08-31,1,,,,,ジョーコットン,0
1143,6010403030851,新規,0,2023-08-31,2023-08-31,バックオフィスＰｒｏ合同会社,,合同会社,東京都,港区,北青山１丁目３番１号アールキューブ青山３階,,13,103,1070061,,,,,,,2023-08-31,1,,,,,バックオフィスプロ,0
1146,6010501050966,新規,0,2023-08-31,2023-08-31,株式会社Ｕ‐Ｗｈｉｔｅ,,株式会社,東京都,台東区,清川２丁目１１番５－Ｂ３０２,,13,106,1110022,,,,,,,2023-08-31,1,,,,,ユーホワイト,0
1148,6010601063686,新規,0,2023-08-31,2023-08-31,アイラブケンセツ株式会社,,株式会社,東京都,江東区,東陽１丁目２３－９,,13,108,1350016,,,,,,,2023-08-31,1,,,,,アイラブケンセツ,0
1161,6011001156659,新規,0,2023-08-31,2023-08-31,ＮｅｗＶｉｓｉｏｎ　Ｊａｐａｎ株式会社,,株式会社,東京都,渋谷区,円山町５番５号Ｎａｖｉ渋谷Ｖ３階,,13,113,1500044,,,,,,,2023-08-31,1,,,,,ニュービジョンジャパン,0
1162,6011003017454,新規,0,2023-08-31,2023-08-31,ｌｉｆｅｖｏｙａｇｅ合同会社,,合同会社,東京都,目黒区,目黒４丁目２５番２号,,13,110,1530063,,,,,,,2023-08-31,1,,,,,ライフボヤージ,0
1172,6011501029711,新規,0,2023-08-31,2023-08-31,株式会社ストラウス,,株式会社,東京都,北区,東田端１丁目１０番９－３０１号ホルツ田端,,13,117,1140013,,,,,,,2023-08-31,1,,,,,ストラウス,0
1173,6011503005743,新規,0,2023-08-31,2023-08-31,ＨＭ東十条合同会社,,合同会社,東京都,北区,神谷２丁目２４－６コーポオカダ１０１号室,,13,117,1150043,,,,,,,2023-08-31,1,,,,,エイチエムヒガシジュウジョウ,0
1190,6013301051283,新規,0,2023-08-31,2023-08-31,澳洋株式会社,,株式会社,東京都,豊島区,池袋本町１丁目２５－１４－４Ｃ,,13,116,1700011,,,,,,,2023-08-31,1,,,,,オウヨウ,0
1191,6013301051291,新規,0,2023-08-31,2023-08-31,株式会社アシスト,,株式会社,東京都,豊島区,南池袋２丁目９番９号第一池袋ホワイトビル９Ｆ,,13,116,1710022,,,,,,,2023-08-31,1,,,,,アシスト,0
1197,6020001153203,新規,0,2023-08-31,2023-08-31,株式会社こむぎ堂,,株式会社,神奈川県,川崎市麻生区,高石６丁目２３番２２号,,14,137,2150003,,,,,,,2023-08-31,1,,,,,コムギドウ,0
1200,6021001080057,新規,0,2023-08-31,2023-08-31,株式会社Ｓｏｌｅｉｌ,,株式会社,神奈川県,横須賀市,久里浜４丁目５番２号久里浜ロンタンビル３階,,14,201,2390831,,,,,,,2023-08-31,1,,,,,ソレイ,0
1210,6030001155504,新規,0,2023-08-31,2023-08-31,株式会社ＬＩＶ,,株式会社,埼玉県,草加市,両新田西町１７７番地７,,11,221,3400027,,,,,,,2023-08-31,1,,,,,リブ,0
1211,6030001155685,新規,0,2023-08-31,2023-08-31,株式会社Ｃｒｙｓｔａ,,株式会社,埼玉県,さいたま市大宮区,大門町２丁目２０番地２ＴＭＯ北棟,,11,103,3300846,,,,,,,2023-08-31,1,,,,,クリスタ,0
1212,6030001155743,新規,0,2023-08-31,2023-08-31,株式会社Ａｒｋ　ｔｈｅ　ｎｅｘｔ,,株式会社,埼玉県,越谷市,大字大泊５３３－１,,11,222,3430044,,,,,,,2023-08-31,1,,,,,アークザネクスト,0
1215,6030003022363,新規,0,2023-08-31,2023-08-31,合同会社ヤマトクリエイト,,合同会社,埼玉県,春日部市,粕壁東２丁目９番２０号,,11,214,3440062,,,,,,,2023-08-31,1,,,,,ヤマトクリエイト,0
1216,6030003022388,新規,0,2023-08-31,2023-08-31,ランキングストア合同会社,,合同会社,埼玉県,越谷市,赤山町３丁目２６１番地１ヌーべレール１０２,,11,222,3430807,,,,,,,2023-08-31,1,,,,,ランキングストア,0
1217,6030003022470,新規,0,2023-08-31,2023-08-31,合同会社ＬＯＣＯ,,合同会社,埼玉県,川口市,西川口１丁目８－３－１Ｆ,,11,203,3320021,,,,,,,2023-08-31,1,,,,,ロコ,0
1221,6040001129853,新規,0,2023-08-31,2023-08-31,大良商事株式会社,,株式会社,千葉県,木更津市,港南台４丁目１３番地３,,12,206,2920827,,,,,,,2023-08-31,1,,,,,タイラショウジ,0
1222,6040001129861,新規,0,2023-08-31,2023-08-31,株式会社ＣＬＡＳＳ,,株式会社,千葉県,君津市,八幡２４３番地,,12,225,2991134,,,,,,,2023-08-31,1,,,,,クラス,0
1228,6040005022105,新規,0,2023-08-31,2023-08-31,特定非営利活動法人よろずサポ,,その他の設立登記法人,千葉県,浦安市,北栄２丁目２４番２－７０４号パルコート浦安ベルジュール,,12,227,2790002,,,,,,,2023-08-31,1,,,,,ヨロズサポ,0
1231,6050003007759,新規,0,2023-08-31,2023-08-31,合同会社ＤＳ　ＥＮＴＥＲＰＲＩＳＥＳ,,合同会社,茨城県,下妻市,高道祖４２７０番４－Ｃ,,08,210,3040031,,,,,,,2023-08-31,1,,,,,ディーエスエンタープライス,0
1233,6050005013318,新規,0,2023-08-31,2023-08-31,一般社団法人Ｔｈｅ　Ｓｔｏｒｉｅｓ,,その他の設立登記法人,茨城県,水戸市,梅香２丁目２番５６号,,08,201,3100022,,,,,,,2023-08-31,1,,,,,ザストーリーズ,0
1235,6060003000242,新規,0,2023-08-31,2023-08-31,合資会社池田商店,,合資会社,栃木県,宇都宮市,大谷町５６５番地,,09,201,3210345,,,,,,,2023-08-31,1,,,,,イケダショウテン,0
1239,6080001025826,新規,0,2023-08-31,2023-08-31,株式会社Ｔステイト,,株式会社,静岡県,静岡市葵区,横内町２０番地の３,,22,101,4200832,,,,,,,2023-08-31,1,,,,,ティステイト,0
1240,6080003003045,新規,0,2023-08-31,2023-08-31,合同会社Ｃ．Ｑ．Ｃ,,合同会社,静岡県,藤枝市,岡出山２丁目１３番４号,,22,214,4260026,,,,,,,2023-08-31,1,,,,,シーキューシー,0
1242,6090001018291,新規,0,2023-08-31,2023-08-31,株式会社ＫＩＣＱ,,株式会社,山梨県,南巨摩郡身延町,飯富１８９２番地１,,19,365,4093423,,,,,,,2023-08-31,1,,,,,キックス,0
1245,6100005013056,新規,0,2023-08-31,2023-08-31,Ｋｏｓｈｉｋａｋｅ　Ｅｖｅｎｔｓ労働者協同組合,,その他の設立登記法人,長野県,長野市,大字上ケ屋２４７１番地２５７２,,20,201,3800888,,,,,,,2023-08-31,1,,,,,コシカケイベンツ,0
1256,6120001257670,新規,0,2023-08-31,2023-08-31,豊和ホールディングス株式会社,,株式会社,大阪府,大阪市北区,天神橋１丁目６番１８号,,27,127,5300041,,,,,,,2023-08-31,1,,,,,ホウワホールディングス,0
1257,6120001257729,新規,0,2023-08-31,2023-08-31,株式会社風逸,,株式会社,大阪府,大阪市淀川区,東三国２丁目３８番１２号岸本第三ビル３０５号室,,27,123,5320002,,,,,,,2023-08-31,1,,,,,フウイツ,0
1260,6120003024805,新規,0,2023-08-31,2023-08-31,マルチパーパス・ジャパン合同会社,,合同会社,大阪府,大阪市都島区,友渕町１丁目５番１０－５０４号,,27,102,5340016,,,,,,,2023-08-31,1,,,,,マルチパーパスジャパン,0
1261,6120005023821,新規,0,2023-08-31,2023-08-31,一般財団法人ＡＴ＆Ｓ財団,,その他の設立登記法人,大阪府,大阪市淀川区,十三本町２丁目９番３－６０２号,,27,123,5320024,,,,,,,2023-08-31,1,,,,,エーティーアンドエスザイダン,0
1262,6120005023846,新規,0,2023-08-31,2023-08-31,一般社団法人全国フリーランス支援機構,,その他の設立登記法人,大阪府,大阪市北区,堂山町１４－２９鈴木ビル２０１,,27,127,5300027,,,,,,,2023-08-31,1,,,,,ゼンコクフリーランスシエンキコウ,0
1263,6120101068118,新規,0,2023-08-31,2023-08-31,ワイエムツー株式会社,,株式会社,大阪府,堺市堺区,竜神橋町１丁４番４号シティコート堺駅前ロータリー２階,,27,141,5900972,,,,,,,2023-08-31,1,,,,,ワイエムツー,0
1265,6130001075089,新規,0,2023-08-31,2023-08-31,株式会社京都酒蔵館別邸,,株式会社,京都府,京都市中京区,堺町通二条上る亀屋町１７２番地,,26,104,6040811,,,,,,,2023-08-31,1,,,,,キョウトサカクラカンベッテイ,0
1266,6130003008930,新規,0,2023-08-31,2023-08-31,光栄合同会社,,合同会社,京都府,京都市南区,東九条西岩本町１６番地,,26,107,6018005,,,,,,,2023-08-31,1,,,,,コウエイ,0
1269,6160001025297,新規,0,2023-08-31,2023-08-31,株式会社未来教育開発,,株式会社,滋賀県,大津市,皇子が丘３丁目６番１８号,,25,201,5200025,,,,,,,2023-08-31,1,,,,,ミライキョウイクカイハツ,0
1270,6160003002971,新規,0,2023-08-31,2023-08-31,ｓｈａｒｅ　ｏａｚｏ合同会社,,合同会社,滋賀県,甲賀市,水口町本町３丁目２４２９番地２,,25,209,5280031,,,,,,,2023-08-31,1,,,,,シェアオアゾ,0
1273,6170003001915,新規,0,2023-08-31,2023-08-31,Ｂ．Ｕｒｏｂｏｒｏｓｕ合同会社,,合同会社,和歌山県,橋本市,高野口町名古曽１２０５番地の１,,30,203,6497203,,,,,,,2023-08-31,1,,,,,ウロボロス,0
1277,6180001157790,新規,0,2023-08-31,2023-08-31,株式会社美霞,,株式会社,愛知県,名古屋市西区,花の木３丁目１１－１７ウエスト花の木３Ｅ,,23,104,4510062,,,,,,,2023-08-31,1,,,,,ミカ,0
1278,6180001157799,新規,0,2023-08-31,2023-08-31,株式会社ＷＥＳＴ‐Ｆｏｕｒ,,株式会社,愛知県,名古屋市中川区,十番町３丁目１２・４０１,,23,110,4540055,,,,,,,2023-08-31,1,,,,,ウエストフォー,0
1279,6180001157808,新規,0,2023-08-31,2023-08-31,株式会社ファーストステップ,,株式会社,愛知県,春日井市,柏井町７丁目７番地１号メゾネット柏井Ｂ１０２,,23,206,4860927,,,,,,,2023-08-31,1,,,,,ファーストステップ,0
1283,6180003025681,新規,0,2023-08-31,2023-08-31,合同会社Ｔｍｆｏｏｄｓ,,合同会社,愛知県,名古屋市南区,大堀町１３番２５号,,23,112,4570002,,,,,,,2023-08-31,1,,,,,ティーエムフーズ,0
1287,6180301037759,新規,0,2023-08-31,2023-08-31,株式会社高宮城３,,株式会社,愛知県,西尾市,今川町石橋９０番地,,23,213,4450063,,,,,,,2023-08-31,1,,,,,タカミヤギスリー,0
1305,6230001019985,新規,0,2023-08-31,2023-08-31,仁王電工株式会社,,株式会社,富山県,高岡市,能町１２８０番地,,16,202,9330003,,,,,,,2023-08-31,1,,,,,ニオウデンコウ,0
1311,6260003004405,新規,0,2023-08-31,2023-08-31,３Ｃ合同会社,,合同会社,岡山県,倉敷市,児島稗田町２９９１番地４,,33,202,7110937,,,,,,,2023-08-31,1,,,,,サンシ,0
1325,6320003004159,新規,0,2023-08-31,2023-08-31,日出検査合同会社,,合同会社,大分県,速見郡日出町,大字藤原２０１７番地１,,44,341,8791502,,,,,,,2023-08-31,1,,,,,ヒジケンサ,0
1327,6340001025857,新規,0,2023-08-31,2023-08-31,ＢＲＯＴＨＥＲ株式会社,,株式会社,鹿児島県,鹿児島市,呉服町２番８号,,46,201,8920826,,,,,,,2023-08-31,1,,,,,ブラザー,0
1329,6340003004231,新規,0,2023-08-31,2023-08-31,合同会社Ｌｉｂ　ｗｏｒｋｓ,,合同会社,鹿児島県,薩摩川内市,平佐１丁目１１３番地,,46,215,8950012,,,,,,,2023-08-31,1,,,,,リブワークス,0
1332,6370003006266,新規,0,2023-08-31,2023-08-31,合同会社ＡＰＦ,,合同会社,宮城県,黒川郡大和町,落合蒜袋字作田５８番,,04,421,9813406,,,,,,,2023-08-31,1,,,,,エーピーエフ,0
1336,6400003003136,新規,0,2023-08-31,2023-08-31,合同会社ＶＵＯＮＧ　ＰＨＡＴ,,合同会社,岩手県,北上市,常盤台１丁目７番２－１０３号,,03,206,0240012,,,,,,,2023-08-31,1,,,,,,0
1337,6420001018381,新規,0,2023-08-31,2023-08-31,株式会社吉川建築設計事務所,,株式会社,青森県,南津軽郡大鰐町,大字大鰐字大鰐１９０番地２,,02,362,0380211,,,,,,,2023-08-31,1,,,,,ヨシカワケンチクセッケイジムショ,0
1348,6700150119605,新規,0,2023-08-31,2023-08-31,ｓｈｅｎｚｈｅｎｓｈｉｆｅｉｔｕｏｚｈｉｎｅｎｇｙｏｕｘｉａｎｇｏｎｇｓｉ,,外国会社等,,,,,,,,ｓｈｅｎｚｈｅｎｓｈｉｌｏｎｇｈｕａｑｕｇｕａｎｌａｎｊｉｅｄａｏ　ｄａｆｕｓｈｅｑｕｄａｆｕｇｏｎｇｙｅｑｕ２２ｈａｏＡ４ｄｏｎｇ４０１Ｂ－０２　ｓｈｅｎｚｈｅｎ　ｇｕａｎｇｄｏｎｇ,,,,,,2023-08-31,1,,,,,シンセンシヒタクチノウユウゲンコウシ,0
1349,6700150119613,新規,0,2023-08-31,2023-08-31,ｊｉｎａｎｓｈｅｎｇｂｉｎｓｈｕａｉｓｈａｎｇｍａｏｘｉａｏｓｈｏｕｙｏｕｘｉａｎｇｏｎｇｓｉ,,外国会社等,,,,,,,,Ｓｈｕａｎｇｓｈａｎ　Ｊｉｅｄａｏ　Ｙａｎｇｂｕｌｉｎｇ　Ｃｏｍｍｕｎｉｔｙ　６－１－２０２　Ｊｉｎａｎ　Ｃｉｔｙ　Ｚｈａｎｇｑｉｕ　Ｄｉｓｔｒｉｃｔ　Ｓｈａｎｄｏｎｇ　Ｐｒｏｖｉｎｃｅ,,,,,,2023-08-31,1,,,,,サイナンセイヒンセイショウボウハンバイユウゲンコウシ,0
1350,6700150119621,新規,0,2023-08-31,2023-08-31,Ｄｏｎｇｇｕａｎｓｈｉ　ｃｈｕａｎｇｙｉｎｇｊｉｎｃｈｕｋｏｕｍａｏｙｉ　ｙｏｕｘｉａｎｇｏｎｇｓｉ,,外国会社等,,,,,,,,Ｈｏｕｊｉｅｚｈｅｎｊｉｕｙｕａｎｄａｌｕ５０ｈａｏ１０１ｓｈｉ　Ｄｏｎｇｇｕａｎ　Ｇｕａｎｇｄｏｎｇ,,,,,,2023-08-31,1,,,,,トンガンシチワンインジンチュコマオイユウゲンコウシ,0
1351,6700150119638,新規,0,2023-08-31,2023-08-31,ｇｕａｎｇｚｈｏｕｓｈｉｈｅｎｇｊｉａｏｍａｏｙｉｙｏｕｘｉａｎｇｏｎｇｓｉ,,外国会社等,,,,,,,,ｇｕａｎｇ　ｄｏｎｇ　ｓｈｅｎｇ　ｇｕａｎｇ　ｚｈｏｕ　ｓｈｉ　ｙｕｅ　ｘｉｕ　ｑｕ　ｎｏｎｇ　ｌｉｎ　ｘｉａ　ｌｕ　８１　ｈａｏ　ｚｈｉ　ｙｉ　１９Ｂ１－Ａ１５７２（ｊｉ　ｑｕｎ　ｚｈｕ　ｃｅ）,,,,,,2023-08-31,1,,,,,グワンジョウシーホンジャオマオイーヨウシエンゴンスー,0
1352,6700150119646,新規,0,2023-08-31,2023-08-31,Ｓｕｚｈｏｕｙｉｎｒｕｉｆｕｓｈｉｙｏｕｘｉａｎｇｏｎｇｓｉ,,外国会社等,,,,,,,,Ｕｎｉｔ　４３９，Ｃ－７　Ｏｕｒｕｉ　Ｂｕｉｌｄｉｎｇ，Ｎｏ．３２８，Ｘｉｎｇｈｕ　Ｓｔｒｅｅｔ，Ｓｕｚｈｏｕ　Ｉｎｄｕｓｔｒｉａｌ　Ｐａｒｋ，Ｃｈｉｎａ（Ｊｉａｎｇｓｕ）　Ｐｉｌｏｔ　Ｆｒｅｅ　Ｔｒａｄｅ　Ｚｏｎｅ,,,,,,2023-08-31,1,,,,,ソシュウインゼイフクショクユウゲンコウシ,0
1353,6700150119654,新規,0,2023-08-31,2023-08-31,南町自治会,,その他,兵庫県,伊丹市,南町２丁目４番１２号,,28,207,6640854,,,,,,,2023-08-31,1,,,,,ミナミチョウジチカイ,0
1354,6700150119662,新規,0,2023-08-31,2023-08-31,ｎｉｎｇｂｏｑｉｃｈａｎｇｚｈｉｚｈｉｐｉｎｙｏｕｘｉａｎｇｏｎｇｓｉ,,外国会社等,,,,,,,,ｄａｑｉｅｌｏｎｇｔａｎｓｈａｎｌｕ３９ｈａｏ５ｚｈｕａｎｇ１ｈａｏ２ｃｅｎｇ－１　ｎｉｎｇｂｏｓｈｉｂｅｉｌｕｎｑｕ　ｚｈｅｊｉａｎｇｓｈｅｎｇ　３１５８００　ＣＮ,,,,,,2023-08-31,1,,,,,ニンポーチーチャンジージーピンヨウシエンゴンスー,0
1363,7010001237666,新規,0,2023-08-31,2023-08-31,株式会社ＭｅａｓｕｒｅＴｈｉｎｇｓＳｙｓｔｅｍｓ,,株式会社,東京都,中央区,日本橋本町３丁目３番６号ワカ末ビル,,13,102,1030023,,,,,,,2023-08-31,1,,,,,メジャアシングスシステムズ,0
1364,7010001238078,新規,0,2023-08-31,2023-08-31,株式会社Ｅｓｓｅｎｃｉａ,,株式会社,東京都,中央区,日本橋小網町１６－１８,,13,102,1030016,,,,,,,2023-08-31,1,,,,,エッセンシア,0
1365,7010001238086,新規,0,2023-08-31,2023-08-31,株式会社ＮＫプランニング,,株式会社,東京都,千代田区,外神田６丁目１番５号岩上ビル２階,,13,101,1010021,,,,,,,2023-08-31,1,,,,,エヌケイプランニング,0
1366,7010001238094,新規,0,2023-08-31,2023-08-31,株式会社ＩＣＭＧ　Ｈｏｌｄｉｎｇｓ,,株式会社,東京都,千代田区,丸の内２丁目１番１号,,13,101,1000005,,,,,,,2023-08-31,1,,,,,アイシーエムジーホールディングス,0
1367,7010001238103,新規,0,2023-08-31,2023-08-31,ＴＣ３１株式会社,,株式会社,東京都,千代田区,丸の内３丁目１番１号国際ビル,,13,101,1000005,,,,,,,2023-08-31,1,,,,,ティーシーサンジュウイチ,0
1370,7010003041546,新規,0,2023-08-31,2023-08-31,Ｒｕｆｆｉｎｏ　Ｅａｓｔ　Ｃｏｎｓｕｌｔｉｎｇ合同会社,,合同会社,東京都,中央区,日本橋室町１丁目２番６号日本橋大栄ビル７階,,13,102,1030022,,,,,,,2023-08-31,1,,,,,ルフィーノイーストコンサルティング,0
1376,7010401176844,新規,0,2023-08-31,2023-08-31,Ｃｌｏｕｄ　Ｐｌｕｓ　Ｘ株式会社,,株式会社,東京都,港区,西新橋１丁目２４番１６号平和ビル８Ｆ,,13,103,1050003,,,,,,,2023-08-31,1,,,,,クラウドプラスエックス,0
1377,7010401176852,新規,0,2023-08-31,2023-08-31,陽だまりもよう株式会社,,株式会社,東京都,港区,赤坂８丁目４番１４号青山タワープレイス８Ｆ,,13,103,1070052,,,,,,,2023-08-31,1,,,,,ヒダマリモヨウ,0
1378,7010401176877,新規,0,2023-08-31,2023-08-31,クイックスペース株式会社,,株式会社,東京都,港区,浜松町２丁目２番１５号浜松町ダイヤビル２Ｆ,,13,103,1050013,,,,,,,2023-08-31,1,,,,,クイックスペース,0
1398,7011003017461,新規,0,2023-08-31,2023-08-31,合同会社Ａｍｐｅｒｓａｎｄ,,合同会社,東京都,渋谷区,神宮前６丁目２８番５号宮崎ビル６０２,,13,113,1500001,,,,,,,2023-08-31,1,,,,,アンパサンド,0
1399,7011005010175,新規,0,2023-08-31,2023-08-31,一般社団法人なないろ,,その他の設立登記法人,東京都,渋谷区,神南１丁目２０番３号ＫＳビルＢ１Ｆ,,13,113,1500041,,,,,,,2023-08-31,1,,,,,ナナイロ,0
1409,7011605002539,新規,0,2023-08-31,2023-08-31,医療法人社団惺和会,,その他の設立登記法人,東京都,練馬区,下石神井４丁目７番２８号グランバトー・Ｍ１階,,13,120,1770042,,,,,,,2023-08-31,1,,,,,セイワカイ,0
1412,7011801042958,新規,0,2023-08-31,2023-08-31,株式会社ＴＳＤ,,株式会社,東京都,足立区,梅田８丁目１番１６号,,13,121,1230851,,,,,,,2023-08-31,1,,,,,ティエスディ,0
1413,7011801042966,新規,0,2023-08-31,2023-08-31,株式会社アンニコーポレーション,,株式会社,東京都,足立区,西新井２丁目１８番８号石塚第二ビル１１０号,,13,121,1230841,,,,,,,2023-08-31,1,,,,,アンニコーポレーション,0
1415,7011803005806,新規,0,2023-08-31,2023-08-31,合同会社ｒｈｅｏ,,合同会社,東京都,足立区,千住宮元町３０－８ＢＳＣハイツ３号室,,13,121,1200043,,,,,,,2023-08-31,1,,,,,レオ,0
1416,7012301013573,新規,0,2023-08-31,2023-08-31,株式会社ＭＯＤＥＬ　ＫＯＬ,,株式会社,東京都,町田市,南成瀬１丁目１番地２プラザ成瀬８０５,,13,209,1940045,,,,,,,2023-08-31,1,,,,,モデルケイオーエル,0
1418,7012403006145,新規,0,2023-08-31,2023-08-31,合同会社アクシーノ,,合同会社,東京都,小金井市,緑町２丁目１５番２２号ＴｏｋｙｏＤｏｒｍｉｔｏｒｙ東小金井ＩＩ２１３号室,00131725,13,210,1840003,,,,,,,2023-08-31,1,,,,,アクシーノ,0
1421,7012801022594,新規,0,2023-08-31,2023-08-31,ＭＩＴＳＵＫＩホールディングス株式会社,,株式会社,東京都,立川市,高松町３丁目２９番１７号,,13,202,1900011,,,,,,,2023-08-31,1,,,,,ミツキホールディングス,0
1429,7020001153251,新規,0,2023-08-31,2023-08-31,株式会社オルバイ,,株式会社,神奈川県,横浜市保土ケ谷区,岩井町５０長谷川ビル４０４号室,,14,106,2400023,,,,,,,2023-08-31,1,,,,,オルバイ,0
1448,7030001155701,新規,0,2023-08-31,2023-08-31,株式会社明拓商事,,株式会社,埼玉県,川口市,西川口１丁目２３番５号ＳＹビル３階,,11,203,3320021,,,,,,,2023-08-31,1,,,,,メイタクショウジ,0
1449,7030003022387,新規,0,2023-08-31,2023-08-31,ＫＢＳ合同会社,,合同会社,埼玉県,川越市,大字池辺２１８番地,,11,201,3501171,,,,,,,2023-08-31,1,,,,,ケービーエス,0
1453,7040003023194,新規,0,2023-08-31,2023-08-31,Ｂｌｅｕｅ　Ｌａ　ｍｅｒ合同会社,,合同会社,千葉県,富津市,竹岡１７５番地２９,,12,226,2991621,,,,,,,2023-08-31,1,,,,,ブルーラメール,0
1454,7040003023211,新規,0,2023-08-31,2023-08-31,ＯＳＨＡＤＡ　ＡＵＴＯ　ＴＲＡＤＩＮＧ合同会社,,合同会社,千葉県,八千代市,島田９０３番地４－Ａ,,12,221,2760005,,,,,,,2023-08-31,1,,,,,オシャダオートトレーディング,0
1463,7080001025825,新規,0,2023-08-31,2023-08-31,ＬＵＣＫＹ　ＨＯＭＥ株式会社,,株式会社,静岡県,静岡市駿河区,中島２０３番地の１第二昌栄ビル３階Ｇ室,,22,102,4228046,,,,,,,2023-08-31,1,,,,,ラッキーホーム,0
1465,7080103002879,新規,0,2023-08-31,2023-08-31,持ち運べるお墓合同会社,,合同会社,静岡県,富士市,伝法２５２９－５ランドマークＦＵＪＩ６階,,22,210,4170061,,,,,,,2023-08-31,1,,,,,モチハコベルオハカ,0
1469,7080403004856,新規,0,2023-08-31,2023-08-31,合同会社グッジョブ,,合同会社,静岡県,菊川市,下平川１４０９番地の１（メゾンファミーユ１０２）,,22,224,4371514,,,,,,,2023-08-31,1,,,,,グッジョブ,0
1471,7090003002375,新規,0,2023-08-31,2023-08-31,合同会社チャグリ,,合同会社,山梨県,甲府市,里吉４丁目３番１７号,,19,201,4000822,,,,,,,2023-08-31,1,,,,,チャグリ,0
1472,7100001036720,新規,0,2023-08-31,2023-08-31,株式会社ストラス,,株式会社,長野県,諏訪市,四賀赤沼１８２１番地松木ビル２階,,20,206,,,,,,,,2023-08-31,1,,,,,ストラス,0
1473,7100003007166,新規,0,2023-08-31,2023-08-31,片桐合同会社,,合同会社,長野県,飯田市,下久堅下虎岩８９４番地１６,,20,205,3992602,,,,,,,2023-08-31,1,,,,,カタギリ,0
1475,7110003005144,新規,0,2023-08-31,2023-08-31,合同会社くくり音,,合同会社,新潟県,新潟市東区,河渡新町１丁目１７番１号,,15,102,9500033,,,,,,,2023-08-31,1,,,,,ククリネ,0
1480,7120001257653,新規,0,2023-08-31,2023-08-31,鶴来商事株式会社,,株式会社,大阪府,大阪市生野区,巽北１丁目１番１号１Ｆ－Ｇ,00131726,27,116,5440004,,,,,,,2023-08-31,1,,,,,ツルギショウジ,0
1481,7120001257736,新規,0,2023-08-31,2023-08-31,ＥＳＴインベストメント株式会社,,株式会社,大阪府,大阪市阿倍野区,文の里１丁目５番２０号,,27,119,5450004,,,,,,,2023-08-31,1,,,,,エストインベストメント,0
1482,7120003024812,新規,0,2023-08-31,2023-08-31,禾場合同会社,,合同会社,大阪府,大阪市東淀川区,下新庄２丁目８番１６号セントラル淡路４０３号室,,27,114,5330021,,,,,,,2023-08-31,1,,,,,イネバ,0
1483,7120005023820,新規,0,2023-08-31,2023-08-31,一般社団法人ＡＴ＆Ｒ,,その他の設立登記法人,大阪府,大阪市淀川区,十三本町２丁目９番３－６０２号,,27,123,5320024,,,,,,,2023-08-31,1,,,,,エーティーアンドアール,0
1487,7120903004814,新規,0,2023-08-31,2023-08-31,合同会社ＢＡＳＴＡ,,合同会社,大阪府,箕面市,新稲１丁目７番６－２０６号,,27,220,5620005,,,,,,,2023-08-31,1,,,,,バスタ,0
1499,7160001025296,新規,0,2023-08-31,2023-08-31,株式会社ブレインラボ,,株式会社,滋賀県,彦根市,長曽根南町４４８－２３,,25,202,5220052,,,,,,,2023-08-31,1,,,,,ブレインラボ,0
1507,7180001157798,新規,0,2023-08-31,2023-08-31,株式会社未来,,株式会社,愛知県,名古屋市南区,内田橋２丁目３９番２４号,,23,112,4570862,,,,,,,2023-08-31,1,,,,,ミライ,0
1509,7180005020333,新規,0,2023-08-31,2023-08-31,一般社団法人終活身元引受人協会,,その他の設立登記法人,愛知県,春日井市,白山町１丁目６１番地６,,23,206,4870034,,,,,,,2023-08-31,1,,,,,シュウカツミモトヒキウケニンキョウカイ,0
1511,7180301037758,新規,0,2023-08-31,2023-08-31,株式会社ＮｙａＮｓ,,株式会社,愛知県,豊田市,古瀬間町坂能瀬１１４番地１９３,00131719,23,211,4710801,,,,,,,2023-08-31,1,,,,,ニャンズ,0
1518,7200003006059,新規,0,2023-08-31,2023-08-31,太賀実合同会社,,合同会社,岐阜県,揖斐郡大野町,大字瀬古２４５番地１３,,21,403,5010563,,,,,,,2023-08-31,1,,,,,タガミ,0
1529,7290001102834,新規,0,2023-08-31,2023-08-31,株式会社理貴の趣味部屋,,株式会社,福岡県,福岡市西区,元浜１丁目３７番地３ヴィレッジ九大前３０５号,,40,135,8190386,,,,,,,2023-08-31,1,,,,,リキノシュミベヤ,0
1535,7290801029822,新規,0,2023-08-31,2023-08-31,株式会社龍,,株式会社,福岡県,北九州市八幡西区,若葉２丁目１１番１０号,,40,109,8060066,,,,,,,2023-08-31,1,,,,,タツ,0
1540,7320001019967,新規,0,2023-08-31,2023-08-31,株式会社ＮＯＶＥＲ,,株式会社,大分県,大分市,公園通り５丁目１２番地の３,,44,201,8700173,,,,,,,2023-08-31,1,,,,,ノヴァ,0
1545,7350001018537,新規,0,2023-08-31,2023-08-31,株式会社ＳＫＫオーガニックファーム,,株式会社,宮崎県,串間市,大字西方６８７５番地,,45,207,8880001,,,,,,,2023-08-31,1,,,,,エスケイケイオーガニックファーム,0
1546,7360001032470,新規,0,2023-08-31,2023-08-31,株式会社Ｍ＆Ｍ,,株式会社,沖縄県,宮古島市,平良字下里４０番地１・２Ｆ,,47,214,9060013,,,,,,,2023-08-31,1,,,,,エムアンドエム,0
1547,7360001032479,新規,0,2023-08-31,2023-08-31,株式会社Ｆｉｎ,,株式会社,沖縄県,那覇市,樋川２丁目１０番１４－６０６号,,47,201,9000022,,,,,,,2023-08-31,1,,,,,フィン,0
1556,7400005008355,新規,0,2023-08-31,2023-08-31,特定非営利活動法人タカタカラ,,その他の設立登記法人,岩手県,陸前高田市,気仙町字福伏２１０－５,,03,210,0292204,,,,,,,2023-08-31,1,,,,,タカタカラ,0
1559,7420001018380,新規,0,2023-08-31,2023-08-31,ｄｉｓｋ株式会社,,株式会社,青森県,青森市,大字浜田字玉川１６８番地５２,,02,201,0300843,,,,,,,2023-08-31,1,,,,,ディスク,0
1570,7700150119604,新規,0,2023-08-31,2023-08-31,ｓｈｅｎｚｈｅｎｄａｏｇｅｃｈｕａｎｇｘｉａｎｇｄｉａｎｚｉｓｈａｎｇｗｕｙｏｕｘｉａｎｇｏｎｇｓｉ,,外国会社等,,,,,,,,ｓｈｅｎｚｈｅｎｓｈｉｌｏｎｇｈｕａｑｕｍｉｎｚｈｉｊｉｅｄａｏｓｈａｎｇｆｅｎｓｈｅｑｕ　ｊｉａｎｓｈｅｌｕｄａｗｅｉｓｈａｎｇｗｕｓｈｉｋｏｎｇＤｚｕｏ２０１Ａ－０２　ｓｈｅｎｚｈｅｎ　ｇｕａｎｇｄｏｎｇ,,,,,,2023-08-31,1,,,,,シンセンシドウカクソウソウデンシショウムユウゲンコウシ,0
1571,7700150119612,新規,0,2023-08-31,2023-08-31,Ｘｉａｎｋａｎｇ（Ｔｉａｎｊｉｎ）Ｔｅｃｈｎｏｌｏｇｙ　Ｃｏ．，Ｌｔｄ．,,外国会社等,,,,,,,,Ｒｏｏｍ　１０２，Ｈｅｘｉａｎｇｙｕａｎ　Ｂｕｉｌｄｉｎｇ１０－２　Ｈａｎｇｚｈｏｕ　Ｒｏａｄ　Ｂｉｎｈａｉｘｉｎｑｕ　Ｔｉａｎｊｉｎ,,,,,,2023-08-31,1,,,,,ケンコウテンシンカギユウゲンコウシ,0
1572,7700150119620,新規,0,2023-08-31,2023-08-31,Ｓｈｅｎｚｈｅｎ　Ｘｉｎｇｈｕｉｄａ　Ｔｅｃｈｎｏｌｏｇｙ　Ｃｏ．，ｌｔｄ,,外国会社等,,,,,,,,ｓｈｅｎｚｈｅｎｓｈｉｌｏｎｇｇａｎｇｑｕｊｉｈｕａｊｉｅｄａｏｓｈｕｉｊｉｎｇｓｈｅｑｕｓｈａｎｇｓｈｕｉｊｉｎｇｘｉｎｍｅｉｚｉｙｕａｎｌｉｕｘｉａｎｇ８ｈａｏ１０２,,,,,,2023-08-31,1,,,,,シンセンシンホイダテクノロジーカンパニーリミテッド,0
1573,7700150119629,新規,0,2023-08-31,2023-08-31,ｓｈｅｎｚｈｅｎｓｈｉ　ｚｈｏｎｇｋｅｃｈｕａｎｇｘｉｎｓｈｕｍａ　ｙｏｕｘｉａｎｇｏｎｇｓｉ,,外国会社等,,,,,,,,ｌｏｎｇｈｕａｑｕｍｉｎｚｈｉｊｉｅｄａｏｍｉｎｚｈｉｄａｄａｏ４３５ｈａｏ５ｌｏｕＡ１０　ＳＨＥＮＺＨＥＮＳＨＩ,,,,,,2023-08-31,1,,,,,シンセンシゾンケツゥアンシンスマユウゲンコウシ,0
1574,7700150119637,新規,0,2023-08-31,2023-08-31,ｃｈａｎｇｓｈａｊｉｎｇｚｅＴｅｃｈｎｏｌｏｇｙ　Ｃｏ．，Ｌｔｄ,,外国会社等,,,,,,,,Ｒｏｏｍ　１０４－１０７－２４４，Ｂｕｉｌｄｉｎｇ　Ａ，Ｘｕｒｉ　Ｄｏｎｇｓｈｅｎｇ　Ｈｏｍｅｌａｎｄ，Ｎｏ．４２７，Ｊｉａｙｕ　Ｒｏａｄ，Ｄｏｎｇｔｕｎｄｕ，Ｆｕｒｏｎｇ　Ｄｉｓｔｒｉｃｔ，Ｃｈａｎｇｓｈａ，Ｈｕｎａｎ　Ｐｒｏｖｉｎｃｅ,,,,,,2023-08-31,1,,,,,ジャンシャージンゾーコージーヨウシエンゴンスー,0
1575,7700150119645,新規,0,2023-08-31,2023-08-31,ｆｕｙａｎｇｏｕｄｅｗａｎｇｌｕｏｋｅｊｉｙｏｕｘｉａｎｇｏｎｇｓｉ,,外国会社等,,,,,,,,ｙｉｎｇｑｕａｎｑｕｚｈｏｎｇｓｈｉｊｉｅｄａｏｙｉｎｇｚｈｏｕｂｅｉｌｕ８ｈａｏ　ｊｕｃｈｕａｎｇｕｏｊｉｇｕａｎｇｃｈａｎｇＡｚｕｏ２２０３ｓｈｉ　ｆｕｙａｎｇ　ａｎｈｕｉ,,,,,,2023-08-31,1,,,,,フヨウオウトクネットワークカギユウゲンコウシ,0
1576,7700150119653,新規,0,2023-08-31,2023-08-31,アジア・アントレプレナーシップ・アワード運営委員会,,その他,千葉県,柏市,若柴１７８番地４柏の葉キャンパス１４８街区２ショップ＆オフィス棟ＫＯＩＬ６階　三井不動産（株）柏の葉街づくり推進部内,,12,217,2770871,,,,,,,2023-08-31,1,,,,,アジアアントレプレナーシップアワードウンエイイインカイ,0
1577,7700150119661,新規,0,2023-08-31,2023-08-31,ＣｈａｎｇＬｉｎｇＣｈａｎｇＹｕａｎＲｉＹｏｎｇＰｉｎＸｉａｏＳｈｏｕＹｏｕＸｉａｎＧｏｎｇＳｉ,,外国会社等,,,,,,,,Ｓｅｃｔｉｏｎ　６，Ｄｉｓｔｒｉｃｔ　３，Ｔａｉｐｉｎｇｃｈｕａｎ　Ｔｏｗｎ，Ｃｈａｎｇｌｉｎｇ　Ｃｏｕｎｔｙ，Ｓｏｎｇｙｕａｎ　Ｃｉｔｙ,,,,,,2023-08-31,1,,,,,ジャンリンジャンユエンリーヨンピンシャオショウヨウシエンゴンスー,0
1586,8010001238044,新規,0,2023-08-31,2023-08-31,株式会社まふ,,株式会社,東京都,文京区,本郷７丁目２番１１－７０４号,,13,105,1130033,,,,,,,2023-08-31,1,,,,,マフ,0
1587,8010001238085,新規,0,2023-08-31,2023-08-31,クラレットグループ株式会社,,株式会社,東京都,千代田区,霞が関３丁目２番５号霞が関ビル３１階,,13,101,1000013,,,,,,,2023-08-31,1,,,,,クラレットグループ,0
1588,8010001238093,新規,0,2023-08-31,2023-08-31,ＺＸ株式会社,,株式会社,東京都,中央区,日本橋室町１丁目１１番１２号日本橋水野ビル７階,,13,102,1030022,,,,,,,2023-08-31,1,,,,,ゼットエックス,0
1589,8010001238102,新規,0,2023-08-31,2023-08-31,三井製薬株式会社,,株式会社,東京都,中央区,銀座１丁目１６番７号銀座大栄ビル５０２,,13,102,1040061,,,,,,,2023-08-31,1,,,,,ミツイセイヤク,0
1593,8010003041537,新規,0,2023-08-31,2023-08-31,トレンド・スリー合同会社,,合同会社,東京都,中央区,銀座１丁目６番１１号土志田ビルディング３Ｆ,,13,102,1040061,,,,,,,2023-08-31,1,,,,,トレンドスリー,0
1594,8010003041545,新規,0,2023-08-31,2023-08-31,スカイレンディングウエスト２合同会社,,合同会社,東京都,中央区,八丁堀４丁目２番１０号ＡＯＪ税理士法人内,,13,102,1040032,,,,,,,2023-08-31,1,,,,,スカイレンディングウエストツー,0
1602,8010403030791,新規,0,2023-08-31,2023-08-31,合同会社ｌｉｂｅｒｔｙ,,合同会社,東京都,港区,南青山３丁目１番３６号青山丸竹ビル６階,,13,103,1070062,,,,,,,2023-08-31,1,,,,,リバティー,0
1616,8010701044774,新規,0,2023-08-31,2023-08-31,株式会社ｐｉｎｅ　ｗａｌｋ,,株式会社,東京都,品川区,北品川５丁目３番１号,,13,109,1410001,,,,,,,2023-08-31,1,,,,,パインウォーク,0
1632,8010901053666,新規,0,2023-08-31,2023-08-31,新東信株式会社,,株式会社,東京都,世田谷区,南烏山３丁目２５－１０ＡＤレジデンス南烏山３０２号室,,13,112,1570062,,,,,,,2023-08-31,1,,,,,シントウシン,0
1633,8010903008387,新規,0,2023-08-31,2023-08-31,合同会社ＴｅｃｈＫｎｏｗＧｒａｍ,,合同会社,東京都,世田谷区,尾山台１丁目１０番４号,,13,112,1580086,,,,,,,2023-08-31,1,,,,,テックノウグラム,0
1640,8011001156649,新規,0,2023-08-31,2023-08-31,サマンサ株式会社,,株式会社,東京都,渋谷区,道玄坂１丁目１０番８号渋谷道玄坂東急ビル２Ｆ－Ｃ,,13,113,1500043,,,,,,,2023-08-31,1,,,,,サマンサ,0
1646,8011101104185,新規,0,2023-08-31,2023-08-31,株式会社リアルトライ,,株式会社,東京都,新宿区,西新宿３丁目３番１３号西新宿水間ビル２Ｆ,,13,104,1600023,,,,,,,2023-08-31,1,,,,,リアルトライ,0
1666,8020003024490,新規,0,2023-08-31,2023-08-31,エッセンス合同会社,,合同会社,神奈川県,横浜市中区,海岸通１丁目１番地横浜貿易協会ビル１階,,14,104,2310002,,,,,,,2023-08-31,1,,,,,エッセンス,0
1669,8021001079989,新規,0,2023-08-31,2023-08-31,株式会社ＲｉｃｅＷｉｎｅ　Ｂｒｅｗｅｒｙ,,株式会社,神奈川県,小田原市,鬼柳１３８－２５,,14,206,2500211,,,,,,,2023-08-31,1,,,,,ライスワインブニュワリー,0
1670,8021001080047,新規,0,2023-08-31,2023-08-31,株式会社ＧＡＩＡ,,株式会社,神奈川県,茅ヶ崎市,白浜町１番７－１１号カフー茅ヶ崎２０６号,,14,207,2530036,,,,,,,2023-08-31,1,,,,,ガイア,0
1674,8030001155519,新規,0,2023-08-31,2023-08-31,株式会社Ｍ．Ｉ　ＴＲＡＤＩＮＧ,,株式会社,埼玉県,久喜市,菖蒲町新堀２３７４番地,,11,232,3460105,,,,,,,2023-08-31,1,,,,,エムアイトレーディング,0
1683,8040003023210,新規,0,2023-08-31,2023-08-31,合同会社アルファステップ,,合同会社,千葉県,流山市,江戸川台東２丁目２５１番１号松田店舗２号室,,12,220,2700111,,,,,,,2023-08-31,1,,,,,アルファステップ,0
1684,8040003023219,新規,0,2023-08-31,2023-08-31,合同会社ＡＲＣＡＴＨ,,合同会社,千葉県,柏市,若柴１７８番地４柏の葉キャンパス１４８街区２ショップ＆オフィス棟６Ｆ,,12,217,2770871,,,,,,,2023-08-31,1,,,,,アーカス,0
1690,8050003007757,新規,0,2023-08-31,2023-08-31,ＰＩＧＥＯＮ　ＴＲＡＤＩＮＧ合同会社,,合同会社,茨城県,猿島郡境町,陽光台１丁目３番地３、Ａ棟－１０１号室,,08,546,3060435,,,,,,,2023-08-31,1,,,,,ピジョントレーディング,0
1692,8060001036294,新規,0,2023-08-31,2023-08-31,株式会社ランド・ショップ,,株式会社,栃木県,宇都宮市,中岡本町３７１３番地１３０,,09,201,3291105,,,,,,,2023-08-31,1,,,,,ランドショップ,0
1698,8080401026686,新規,0,2023-08-31,2023-08-31,株式会社フェリス,,株式会社,静岡県,掛川市,下俣１０４７番地の３０,,22,213,4360025,,,,,,,2023-08-31,1,,,,,フェリス,0
1701,8110001037808,新規,0,2023-08-31,2023-08-31,株式会社ＦＬＡＧ,,株式会社,新潟県,新潟市中央区,紫竹山１丁目１番６９号１Ｆ,,15,103,9500914,,,,,,,2023-08-31,1,,,,,フラッグ,0
1707,8120001257652,新規,0,2023-08-31,2023-08-31,致朴餐飲管理株式会社,,株式会社,大阪府,大阪市生野区,巽北１丁目１番１号２Ｆ－Ｉ,00131723,27,116,5440004,,,,,,,2023-08-31,1,,,,,チボクサンインカンリ,0
1708,8120001257677,新規,0,2023-08-31,2023-08-31,株式会社スターチス,,株式会社,大阪府,大阪市淀川区,東三国１丁目７番５号,,27,123,5320002,,,,,,,2023-08-31,1,,,,,スターチス,0
1709,8120001257685,新規,0,2023-08-31,2023-08-31,株式会社Ｃｌｅａｒｎｏｔｅ,,株式会社,大阪府,大阪市北区,梅田１丁目３番１号大阪駅前第１ビル８階５号,,27,127,5300001,,,,,,,2023-08-31,1,,,,,クリアノート,0
1710,8120001257727,新規,0,2023-08-31,2023-08-31,株式会社ＫＩＲＡ,,株式会社,大阪府,門真市,打越町３０番１０号,,27,223,5710029,,,,,,,2023-08-31,1,,,,,キラ,0
1711,8120003024811,新規,0,2023-08-31,2023-08-31,Ｈ＆Ｈ合同会社,,合同会社,大阪府,大阪市都島区,都島南通２丁目１４番２１号,,27,102,5340023,,,,,,,2023-08-31,1,,,,,エイチアンドエイチ,0
1712,8120003024828,新規,0,2023-08-31,2023-08-31,合同会社タモンテ,,合同会社,大阪府,大阪市東成区,大今里３丁目８－９,,27,115,5370012,,,,,,,2023-08-31,1,,,,,タモンテ,0
1714,8120101068116,新規,0,2023-08-31,2023-08-31,ＡＮＧＥＬ　ＰＥＡＣＥ株式会社,,株式会社,大阪府,松原市,天美北６丁目５３２番地（２０１号）,,27,217,5800031,,,,,,,2023-08-31,1,,,,,エンジェルピース,0
1718,8120903004813,新規,0,2023-08-31,2023-08-31,合同会社メイプルロッジ,,合同会社,大阪府,箕面市,新稲１丁目７番６－２０６号,,27,220,5620005,,,,,,,2023-08-31,1,,,,,メイプルロッジ,0
1719,8122001037324,新規,0,2023-08-31,2023-08-31,株式会社ＰＡＴＨ．,,株式会社,大阪府,東大阪市,菱江３丁目８番７号,,27,227,5780984,,,,,,,2023-08-31,1,,,,,パス,0
1720,8130001075038,新規,0,2023-08-31,2023-08-31,株式会社オイケファミリーオフィス,,株式会社,京都府,京都市伏見区,桃山福島太夫南町６１番地３,,26,109,6120062,,,,,,,2023-08-31,1,,,,,オイケファミリーオフィス,0
1722,8130003008929,新規,0,2023-08-31,2023-08-31,合同会社ＴＳＵＫＵＭ,,合同会社,京都府,京都市下京区,西七条赤社町１６番地メゾンドＭＯＭＯ２０３号室,,26,106,6008899,,,,,,,2023-08-31,1,,,,,ツクム,0
1736,8200001041635,新規,0,2023-08-31,2023-08-31,ＭＫホールディングス株式会社,,株式会社,岐阜県,大垣市,長沢町３丁目４２番地１,,21,202,5030833,,,,,,,2023-08-31,1,,,,,エムケーホールディングス,0
1753,8290005019140,新規,0,2023-08-31,2023-08-31,一般社団法人ＲｅＡＮＤ,,その他の設立登記法人,福岡県,朝倉市,甘木１７８５－１－２０１,,40,228,8380068,,,,,,,2023-08-31,1,,,,,リアンド,0
1756,8290801029821,新規,0,2023-08-31,2023-08-31,株式会社静凛,,株式会社,福岡県,中間市,岩瀬西町５６番６号,,40,215,8090041,,,,,,,2023-08-31,1,,,,,セイリン,0
1765,8370001050339,新規,0,2023-08-31,2023-08-31,株式会社ファインエステートホールディングス,,株式会社,宮城県,仙台市太白区,鹿野３丁目２７番１７－１０５号,,04,104,9820023,,,,,,,2023-08-31,1,,,,,ファインエステートホールディングス,0
1766,8370003006264,新規,0,2023-08-31,2023-08-31,ＳＳＣ合同会社,,合同会社,宮城県,仙台市青葉区,本町１丁目５－２８,,04,101,9800014,,,,,,,2023-08-31,1,,,,,エスエスシー,0
1779,8430001089882,新規,0,2023-08-31,2023-08-31,株式会社御厨,,株式会社,北海道,札幌市中央区,南六条西９丁目１０２３番地１８ディアコート６９－４０７号,,01,101,0640806,,,,,,,2023-08-31,1,,,,,ミクリ,0
1780,8440003001539,新規,0,2023-08-31,2023-08-31,合同会社ＴＡＫＡＳＵＧＩ,,合同会社,北海道,函館市,東山３丁目２０番１号,,01,202,0410835,,,,,,,2023-08-31,1,,,,,タカスギ,0
1786,8480005006978,新規,0,2023-08-31,2023-08-31,特定非営利活動法人とくしまさいくるくらぶ,,その他の設立登記法人,徳島県,鳴門市,撫養町黒崎字宮津１３９番地１２,,36,202,7720001,,,,,,,2023-08-31,1,,,,,トクシマサイクルクラブ,0
1790,8700150117706,新規,0,2023-08-31,2023-08-31,ｓｈｅｎｚｈｅｎｓｈｉｌａｉｄｅｗａｎｇｋｅｊｉｙｏｕｘｉａｎｇｏｎｇｓｉ,,外国会社等,,,,,,,,ｌｏｎｇｈｕａｑｕｍｉｎｚｈｉｊｉｅｄａｏｘｉｎｎｉｕｓｈｅｑｕ　ｙｕａｎｃｈｕａｎｇｋｏｎｇｊｉａｎｎａｎｑｕ３ｄｏｎｇ４０１　ｓｈｅｎｚｈｅｎｓｈｉ　ｇｕａｎｇｄｏｎｇ　５１８０００　ＣＮ,,,,,,2023-08-31,1,,,,,シェンチェンシライデワンケジヨウウシアンゴンス,0
1791,8700150119603,新規,0,2023-08-31,2023-08-31,ｓｈｅｎｚｈｅｎｓｈｉｙｉｘｉｎｃｈｅｎｇｍｉｎｇｄｉａｎｚｉｓｈａｎｇｗｕｙｏｕｘｉａｎｇｏｎｇｓｉ,,外国会社等,,,,,,,,ｘｉｘｉａｎｇｊｉｅｄａｏｈａｏｙｅｓｈｅｑｕ　ｗａｎｍｅｉｈｕａｙｕａｎ９ｄｏｎｇ１６２０　Ｓｈｅｎｚｈｅｎｓｈｉ　ｂａｏａｎｑｕ　ｇｕａｎｇｄｏｎｇｓｈｅｎｇ,,,,,,2023-08-31,1,,,,,シンセンシイキンセイメイデンシショウムユウゲンコウシ,0
1792,8700150119611,新規,0,2023-08-31,2023-08-31,ｈｅｆｅｉｃｈｅｎｄｕａｎｗａｎｇｌｕｏｋｅｊｉｙｏｕｘｉａｎｇｏｎｇｓｉ,,外国会社等,,,,,,,,Ｌｕｙａｎｇｑｕｆｅｎｇｔａｉｌｕ３２８ｈａｏ　Ｍｅｉｌｕｎｈａｏｔｉｎｇ１０，１１ｚｈｕａｎｇｓｈａｎｇ－１０２　ＨｅＦｅｉＳｈｉ　Ａｎｈｕｉｓｈｅｎｇ,,,,,,2023-08-31,1,,,,,ゴウヒシンタンネットワークユウゲンコウシ,0
1793,8700150119628,新規,0,2023-08-31,2023-08-31,ＳｈａｎｔｏｕＪｉｎｇｂａｎｇＭａｏｙｉ　ＹｏｕｘｉａｎＧｏｎｇｓｉ,,外国会社等,,,,,,,,Ｊｉｎｓｈａｌｕ１０４ＨａｏＪｉｎｌｏｎｇＤａｓｈａＡｄｏｎｇ２４ＢＨａｏＦａｎｇ　Ｄｏｎｇｃｅ　Ｓｈａｎｔｏｕ,,,,,,2023-08-31,1,,,,,スワトウジンバンマオイユウゲンコウシ,0
1794,8700150119636,新規,0,2023-08-31,2023-08-31,Ｓｈｅｎｚｈｅｎ　Ｍｕｗａｎ　Ｅｓｌｉｔｅ　Ｔｅｃｈｎｏｌｏｇｙ　Ｃｏ．，Ｌｔｄ．,,外国会社等,,,,,,,,Ａ２０５，Ｎｏ．５，Ｑｉａｏｘｉ　Ｒｏａｄ，Ｑｉａｏｔｏｕ　Ｃｏｍｍｕｎｉｔｙ，Ｆｕｈａｉ　Ｓｔｒｅｅｔ，Ｂａｏａｎ　Ｄｉｓｔｒｉｃｔ，Ｓｈｅｎｚｈｅｎ,,,,,,2023-08-31,1,,,,,シェンジェンシームーワンチョンピンコージーヨウシエンゴンスー,0
1795,8700150119644,新規,0,2023-08-31,2023-08-31,ｗｕｈａｎｄｉｎｇｐａｉｄｉａｎｚｉｋｅｊｉｙｏｕｘｉａｎｇｏｎｇｓｉ,,外国会社等,,,,,,,,ＦａｎＹｕｅ　Ｃｅｎｔｅｒ，Ｎａｎ　Ｇｕｏ　Ｔａｎ　Ｈｕａ　ＬｉｎＮｏ．２０２　Ｔａｎ　Ｈｕａ　Ｌｉｎ　Ｒｏａｄ　Ｕｎｉｔ　０４，０５，０６，０７，０８，２４ｔｈ　Ｆｌｏｏｒ，Ｏｆｆｉｃｅ　Ｂｕｉｌｄｉｎｇ　Ｗｕｃｈａｎｇｑｕ，Ｗｕｈａｎ，Ｈｕｂｅｉ,,,,,,2023-08-31,1,,,,,ブカンテイハイデンシカギユウゲンコウシ,0
1803,9010001238076,新規,0,2023-08-31,2023-08-31,株式会社石橋永田,,株式会社,東京都,千代田区,神田須田町１丁目１２番８号,,13,101,1010041,,,,,,,2023-08-31,1,,,,,イシバシナガタ,0
1804,9010001238084,新規,0,2023-08-31,2023-08-31,株式会社ＳＴＡＲＧＡＴＥ,,株式会社,東京都,千代田区,九段南１丁目５番６号りそな九段ビル５階ＫＳフロア,,13,101,1020074,,,,,,,2023-08-31,1,,,,,スターゲート,0
1805,9010001238092,新規,0,2023-08-31,2023-08-31,株式会社虹,,株式会社,東京都,中央区,日本橋小網町２番１号,,13,102,1030016,,,,,,,2023-08-31,1,,,,,ニジ,0
1807,9010003041445,新規,0,2023-08-31,2023-08-31,ＳＫ　Ｐａｒｔｎｅｒｓ合同会社,,合同会社,東京都,中央区,銀座６丁目１３－１６銀座ＷａｌｌビルＵＣＦ５階,,13,102,1040061,,,,,,,2023-08-31,1,,,,,エスケーパートナーズ,0
1808,9010003041528,新規,0,2023-08-31,2023-08-31,合同会社ＪＩＮ　ＷＯＲＬＤ　ＴＥＣＨＮＯＬＯＧＹ,,合同会社,東京都,中央区,日本橋小舟町８番１３号天翔日本橋ビル３階,,13,102,1030024,,,,,,,2023-08-31,1,,,,,ジンワールドテクノロジー,0
1809,9010003041536,新規,0,2023-08-31,2023-08-31,トレンド・ツー合同会社,,合同会社,東京都,中央区,銀座１丁目６番１１号土志田ビルディング３Ｆ,,13,102,1040061,,,,,,,2023-08-31,1,,,,,トレンドツー,0
1810,9010003041544,新規,0,2023-08-31,2023-08-31,サステナブルレンディングＡ号合同会社,,合同会社,東京都,中央区,八丁堀４丁目２番１０号ＡＯＪ税理士法人内,,13,102,1040032,,,,,,,2023-08-31,1,,,,,サステナブルレンディングエーゴウ,0
1815,9010005037185,新規,0,2023-08-31,2023-08-31,一般社団法人ＪＳＢＣ,,その他の設立登記法人,東京都,中央区,日本橋富沢町１３番３号,,13,102,1030006,,,,,,,2023-08-31,1,,,,,ジェイエスビーシー,0
1816,9010005037193,新規,0,2023-08-31,2023-08-31,スカイレンディングウエストホールディングス２一般社団法人,,その他の設立登記法人,東京都,中央区,八丁堀４丁目２番１０号ＡＯＪ税理士法人内,,13,102,1040032,,,,,,,2023-08-31,1,,,,,スカイレンディングウエストホールディングスツー,0
1823,9010401176347,新規,0,2023-08-31,2023-08-31,株式会社ＴＲＵＳＴ弐,,株式会社,東京都,港区,芝公園１丁目２番９号,,13,103,1050011,,,,,,,2023-08-31,1,,,,,トラストツー,0
1826,9010403030832,新規,0,2023-08-31,2023-08-31,ＫＳＣ合同会社,,合同会社,東京都,港区,北青山１丁目３番１号アールキューブ青山３階,,13,103,1070061,,,,,,,2023-08-31,1,,,,,ケーエスシー,0
1827,9010405022464,新規,0,2023-08-31,2023-08-31,一般社団法人Ｊｅｌａｗａｔ,,その他の設立登記法人,東京都,港区,虎ノ門５丁目１番４号,,13,103,1050001,,,,,,,2023-08-31,1,,,,,ジェラワット,0
1828,9010501050971,新規,0,2023-08-31,2023-08-31,株式会社ジャル,,株式会社,東京都,台東区,今戸２丁目１５番１号,,13,106,1110024,,,,,,,2023-08-31,1,,,,,ジャル,0
1835,9010903008411,新規,0,2023-08-31,2023-08-31,合同会社オフィスナマライカ,,合同会社,東京都,世田谷区,奥沢２丁目４７－２コーポ伊藤１０１,,13,112,1580083,,,,,,,2023-08-31,1,,,,,オフィスナマライカ,0
1838,9011001156664,新規,0,2023-08-31,2023-08-31,株式会社ＮＳＥＷ,,株式会社,東京都,渋谷区,神宮前２丁目１３－７本州ビル３Ｄ,,13,113,1500001,,,,,,,2023-08-31,1,,,,,エヌエスイーダブリュー,0
1839,9011001156689,新規,0,2023-08-31,2023-08-31,株式会社ボゴプロ,,株式会社,東京都,目黒区,青葉台３丁目２２番１－９１９号目黒ハイツ,,13,110,1530042,,,,,,,2023-08-31,1,,,,,ボゴプロ,0
1845,9011103013433,新規,0,2023-08-31,2023-08-31,合同会社ＬＵＴＦ,,合同会社,東京都,新宿区,西新宿７丁目５番５号Ｐｌａｚａ西新宿ＵＣＦ４０６,,13,104,1600023,,,,,,,2023-08-31,1,,,,,ラットフ,0
1847,9011303004892,新規,0,2023-08-31,2023-08-31,ＫＭＧ合同会社,,合同会社,東京都,杉並区,浜田山２丁目１番１０号,,13,115,1680065,,,,,,,2023-08-31,1,,,,,ケーエムジー,0
1849,9011401025411,新規,0,2023-08-31,2023-08-31,株式会社Ｎポイント,,株式会社,東京都,板橋区,赤塚５丁目１１番４－２０１号,,13,119,1750092,,,,,,,2023-08-31,1,,,,,エヌポイント,0
1852,9011501029709,新規,0,2023-08-31,2023-08-31,夏木立株式会社,,株式会社,東京都,北区,中里１丁目２１番２号中里ビル１Ｆ,,13,117,1140015,,,,,,,2023-08-31,1,,,,,ナツコダチ,0
1860,9012401040929,新規,0,2023-08-31,2023-08-31,エーツーリアルエステート株式会社,,株式会社,東京都,狛江市,中和泉５丁目３８番３号,,13,219,2010012,,,,,,,2023-08-31,1,,,,,エーツーリアルエステート,0
1862,9012403006143,新規,0,2023-08-31,2023-08-31,合同会社ＴＥＮＴ,,合同会社,東京都,武蔵野市,御殿山１丁目４番１８－１７０５号井之頭パークサイドマンション,,13,203,1800005,,,,,,,2023-08-31,1,,,,,テント,0
1868,9013301051280,新規,0,2023-08-31,2023-08-31,Ｓｗｅｅｔｙ株式会社,,株式会社,東京都,豊島区,北大塚２丁目２番１３号大塚シャトレートーコー３０２,,13,116,1700004,,,,,,,2023-08-31,1,,,,,スィーティ,0
1876,9020001153258,新規,0,2023-08-31,2023-08-31,ＮＡＮＤＡ　ＩＮＴＥＲＮＡＴＩＯＮＡＬ株式会社,,株式会社,神奈川県,横浜市港北区,綱島西３丁目２３番１７号サンパレス綱島３０１,,14,109,2230053,,,,,,,2023-08-31,1,,,,,ナンダインターナショナル,0
1882,9020005016106,新規,0,2023-08-31,2023-08-31,特定非営利活動法人柏伸会しんざわあゆみ保育室,,その他の設立登記法人,神奈川県,横浜市戸塚区,戸塚町３６８０番地２ライオンズマンション戸塚第６－１０８号,,14,110,2440003,,,,,,,2023-08-31,1,,,,,ハクシンカイシンザワアユミホイクシツ,0
1883,9021001080046,新規,0,2023-08-31,2023-08-31,株式会社Ａｃｔｉｖｅ,,株式会社,神奈川県,茅ヶ崎市,白浜町１番７－１１号カフー茅ヶ崎２０６号,,14,207,2530036,,,,,,,2023-08-31,1,,,,,アクティブ,0
1884,9021003013516,新規,0,2023-08-31,2023-08-31,合同会社ＦＲＥＥＲＩＤＥ,,合同会社,神奈川県,藤沢市,辻堂２丁目３番９～１０２号,,14,205,2510047,,,,,,,2023-08-31,1,,,,,フリーライド,0
1887,9030001155476,新規,0,2023-08-31,2023-08-31,株式会社遥電設,,株式会社,埼玉県,八潮市,大字大原６４４番地２アルバ八潮１０１,,11,234,3400825,,,,,,,2023-08-31,1,,,,,ハルデンセツ,0
1888,9030001155526,新規,0,2023-08-31,2023-08-31,ＫＭ　Ｂｕｄｄｙ株式会社,,株式会社,埼玉県,春日部市,谷原３丁目１４番地４４,,11,214,3440065,,,,,,,2023-08-31,1,,,,,ケイエムバディー,0
1889,9030001155550,新規,0,2023-08-31,2023-08-31,株式会社熊二,,株式会社,埼玉県,さいたま市北区,東大成町１丁目４５７番地６,,11,102,3310814,,,,,,,2023-08-31,1,,,,,クマジ,0
1893,9030003022385,新規,0,2023-08-31,2023-08-31,ＮＧＳ合同会社,,合同会社,埼玉県,深谷市,上柴町東４丁目１８番地８,,11,218,3660051,,,,,,,2023-08-31,1,,,,,エヌジーエス,0
1894,9030005021377,新規,0,2023-08-31,2023-08-31,一般社団法人やまと華うどん,,その他の設立登記法人,埼玉県,比企郡小川町,大字下里８０９番地,,11,343,3550323,,,,,,,2023-08-31,1,,,,,ヤマトハナウドン,0
1902,9040001129850,新規,0,2023-08-31,2023-08-31,株式会社グレート,,株式会社,千葉県,松戸市,新松戸３丁目８０番地の２,,12,207,2700034,,,,,,,2023-08-31,1,,,,,グレート,0
1903,9040001129859,新規,0,2023-08-31,2023-08-31,ａｉｕｅｏ株式会社,,株式会社,千葉県,浦安市,高洲８丁目１番Ｃ－８３２号プラウド新浦安パームコート,,12,227,2790023,,,,,,,2023-08-31,1,,,,,アイウエオ,0
1904,9040001129867,新規,0,2023-08-31,2023-08-31,株式会社ラジカル,,株式会社,千葉県,野田市,桐ケ作１１９９番地１,,12,208,2700213,,,,,,,2023-08-31,1,,,,,ラジカル,0
1905,9040001129883,新規,0,2023-08-31,2023-08-31,株式会社セミナルフォワード,,株式会社,千葉県,千葉市花見川区,横戸台７番地１,,12,102,2620006,,,,,,,2023-08-31,1,,,,,セミナルフォワード,0
1909,9050003007764,新規,0,2023-08-31,2023-08-31,合同会社かりもす,,合同会社,茨城県,つくば市,東平塚１２５３番地４,,08,220,3050812,,,,,,,2023-08-31,1,,,,,カリモス,0
1912,9090005007585,新規,0,2023-08-31,2023-08-31,一般社団法人Ｓｏｌｅｉｌ’ｓ,,その他の設立登記法人,山梨県,甲斐市,竜王新町１３７９番地１小池住宅Ａ棟,,19,210,4000111,,,,,,,2023-08-31,1,,,,,ソレイユズ,0
1915,9110001037807,新規,0,2023-08-31,2023-08-31,株式会社ベイシック,,株式会社,新潟県,長岡市,笹崎１丁目３番地１,,15,202,9400833,,,,,,,2023-08-31,1,,,,,ベイシック,0
1916,9110003005142,新規,0,2023-08-31,2023-08-31,さとう・たかみ事務所合同会社,,合同会社,新潟県,長岡市,台町１丁目４番１９号,,15,202,9400048,,,,,,,2023-08-31,1,,,,,サトウタカミジムショ,0
1920,9120001257684,新規,0,2023-08-31,2023-08-31,富通株式会社,,株式会社,大阪府,大阪市大正区,三軒家西３丁目４番１６号中山ビル１００９,,27,108,5510001,,,,,,,2023-08-31,1,,,,,フツウ,0
1921,9120001257692,新規,0,2023-08-31,2023-08-31,ＲＯＹＡ株式会社,,株式会社,大阪府,大阪市大正区,三軒家西３丁目４番１６号中山ビル１０２０,,27,108,5510001,,,,,,,2023-08-31,1,,,,,ロヤ,0
1922,9120001257726,新規,0,2023-08-31,2023-08-31,株式会社ＴＯＲＥＣＯ,,株式会社,大阪府,大阪市大正区,泉尾２丁目９－７,,27,108,5510031,,,,,,,2023-08-31,1,,,,,トレコ,0
1923,9120001257734,新規,0,2023-08-31,2023-08-31,株式会社ＡｃｅＵｐ,,株式会社,大阪府,大阪市淀川区,宮原４丁目１番４５号新大阪八千代ビル,,27,123,5320003,,,,,,,2023-08-31,1,,,,,エースアップ,0
1924,9120001257742,新規,0,2023-08-31,2023-08-31,株式会社ワイケーテック,,株式会社,大阪府,守口市,東町２丁目１８番１２号,,27,209,5700013,,,,,,,2023-08-31,1,,,,,ワイケーテック,0
1925,9120001257750,新規,0,2023-08-31,2023-08-31,ＴＨＡＮＨ　ＡＮグループ株式会社,,株式会社,大阪府,大阪市東住吉区,住道矢田７丁目１２番６号,,27,121,5460022,,,,,,,2023-08-31,1,,,,,タンアングループ,0
1932,9130001075037,新規,0,2023-08-31,2023-08-31,株式会社向陽,,株式会社,京都府,京都市左京区,一乗寺向畑町１７番地４０３号室,,26,103,6068126,,,,,,,2023-08-31,1,,,,,コウヨウ,0
1933,9130001075045,新規,0,2023-08-31,2023-08-31,株式会社尊都,,株式会社,京都府,向日市,寺戸町瓜生２０番地の３モン・ソレイユ３０１号,,26,208,6170002,,,,,,,2023-08-31,1,,,,,タカツ,0
1937,9140001131409,新規,0,2023-08-31,2023-08-31,株式会社ＨＯＰＰＥＲＳ,,株式会社,兵庫県,神戸市中央区,磯辺通１丁目１－８カサベラ国際プラザビル７０７,,28,110,6510084,,,,,,,2023-08-31,1,,,,,ホッパーズ,0
1944,9160001025294,新規,0,2023-08-31,2023-08-31,株式会社Ｔａｒｇｅｔ　Ｐｌａｃｅ,,株式会社,滋賀県,大津市,今堅田２丁目１１番１０－７０２号,,25,201,5200241,,,,,,,2023-08-31,1,,,,,ターゲットプレイス,0
1956,9180001157796,新規,0,2023-08-31,2023-08-31,株式会社ヴァンフィールド,,株式会社,愛知県,名古屋市港区,東茶屋１丁目４３８番地,,23,111,4550851,,,,,,,2023-08-31,1,,,,,ヴァンフィールド,0
1958,9180301037756,新規,0,2023-08-31,2023-08-31,信都投資株式会社,,株式会社,愛知県,豊橋市,小向町字北小向６番地１,,23,201,4418003,,,,,,,2023-08-31,1,,,,,シントトウシ,0
1964,9200001041642,新規,0,2023-08-31,2023-08-31,人生を楽しむ株式会社,,株式会社,岐阜県,可児市,中恵土２３０１番地２,,21,214,5090202,,,,,,,2023-08-31,1,,,,,ジンセイヲタノシム,0
1969,9220001025577,新規,0,2023-08-31,2023-08-31,株式会社ミゾグイ,,株式会社,石川県,金沢市,末町１の２０６番地６,,17,201,9201302,,,,,,,2023-08-31,1,,,,,ミゾグイ,0
1970,9220003003572,新規,0,2023-08-31,2023-08-31,合同会社ニュースタイル,,合同会社,石川県,金沢市,横川４丁目２０番地,,17,201,9218163,,,,,,,2023-08-31,1,,,,,ニュースタイル,0
1976,9240003006276,新規,0,2023-08-31,2023-08-31,合同会社ライフサポート笑陽,,合同会社,広島県,三次市,十日市南２丁目１４番１０号,,34,209,7280014,,,,,,,2023-08-31,1,,,,,ライフサポートワラビ,0
1977,9250003003339,新規,0,2023-08-31,2023-08-31,Ｙｅｌｌｏｗ　Ｄｉａｍｏｎｄ合同会社,,合同会社,山口県,山陽小野田市,大字厚狭１３５７番地２,,35,216,7570001,,,,,,,2023-08-31,1,,,,,イエローダイアモンド,0
1978,9260001038261,新規,0,2023-08-31,2023-08-31,ＭＫホールディングス株式会社,,株式会社,岡山県,岡山市中区,浜１丁目１８番２９号,,33,102,7038256,,,,,,,2023-08-31,1,,,,,エムケーホールディングス,0
1987,9300001013441,新規,0,2023-08-31,2023-08-31,株式会社蓮,,株式会社,佐賀県,杵島郡白石町,大字遠江６１４４番地２,,41,425,8491105,,,,,,,2023-08-31,1,,,,,レン,0
1994,9360001032485,新規,0,2023-08-31,2023-08-31,イーヴンレイン株式会社,,株式会社,沖縄県,宜野湾市,真志喜５丁目２１番５－３０１号,,47,205,9012224,,,,,,,2023-08-31,1,,,,,イーヴンレイン,0
2000,9420003002785,新規,0,2023-08-31,2023-08-31,合同会社イーニー,,合同会社,青森県,五所川原市,字元町４６番地９,,02,205,0370044,,,,,,,2023-08-31,1,,,,,イーニー,0
2007,9430001089873,新規,0,2023-08-31,2023-08-31,エスエスホールディングス株式会社,,株式会社,北海道,札幌市北区,北七条西２丁目８番地１札幌北ビル９階,,01,102,0600807,,,,,,,2023-08-31,1,,,,,エスエスホールディングス,0
2008,9430001089881,新規,0,2023-08-31,2023-08-31,Ｏｎｌｙ　Ｈｏｋｋａｉｄｏ株式会社,,株式会社,北海道,虻田郡倶知安町,ニセコひらふ一条３丁目２番１８号,,01,400,0440080,,,,,,,2023-08-31,1,,,,,オンリーホッカイドウ,0
2012,9440003001538,新規,0,2023-08-31,2023-08-31,合同会社ＴＳＩ,,合同会社,北海道,亀田郡七飯町,大川３丁目２０番４２号,,01,337,0411122,,,,,,,2023-08-31,1,,,,,ティーエスアイ,0
2013,9460103001551,新規,0,2023-08-31,2023-08-31,合同会社Ｆａｒｍ　Ｆｌｅｘ,,合同会社,北海道,帯広市,西十七条北１丁目２０番１７号,,01,207,0800047,,,,,,,2023-08-31,1,,,,,ファームフレックス,0
2016,9700150067074,新規,0,2023-08-31,2015-11-25,高円寺南サマリヤマンション及び壱番館管理組合,,その他,東京都,杉並区,高円寺南４丁目４５番４号,,13,115,1660003,,,,,,,2015-11-25,1,,,,,コウエンジミナミサマリヤマンシヨンオヨビイチバンカンカンリクミアイ,0
2017,9700150117688,新規,0,2023-08-31,2023-08-31,Ｓｈｅｎｚｈｅｎｓｈｉｌｉｘｉａｎｇｋｅｊｉｙｏｕｘｉａｎｇｏｎｇｓｉ,,外国会社等,,,,,,,,ｂａｏａｎｑｕｘｉｎａｎｊｉｅｄａｏ　ｓｈａｎｇｈｅｓｈｅｑｕ３２ｑｕｓｈａｎｇｃｈｕａｎｃｕｎｓｉｐｉａｎ１８ｈａｏ　５０２　Ｓｈｅｎｚｈｅｎｓｈｉ　Ｇｕａｎｇｄｏｎｇｓｈｅｎｇ　５１８１００　ＣＮ,,,,,,2023-08-31,1,,,,,シェンチェンシリシヤンケジヨウシアンゴンス,0
2018,9700150119610,新規,0,2023-08-31,2023-08-31,ＧＵＡＮＧＺＨＯＵＸＩＮＴＵＫＥＪＩＹＯＵＸＩＡＮＧＯＮＧＳＩ,,外国会社等,,,,,,,,Ｒｏｏｍ　１３０５－１０８，１３Ｆ，Ｔｉａｎｈｅ　Ｓｈｏｐｐｉｎｇ　Ｍａｌｌ　Ｎ０．６，８　Ｚｈｏｎｇｓｈａｎ　Ａｖ　Ｗｅｓｔ　Ｇｕａｎｇｚｈｏｕ　Ｔｉａｎｈｅ,,,,,,2023-08-31,1,,,,,コウシュウシントカギユウゲンコウシ,0
2019,9700150119619,新規,0,2023-08-31,2023-08-31,ＳｈｅｎｚｈｅｎＳｈｉ　ＮｉｎｇｍｉＴｅｃｈｎｏｌｏｇｙ　Ｃｏｍｐａｎｙ　Ｌｉｍｉｔｅｄ,,外国会社等,,,,,,,,４Ａ－０９７ＥｒｑｉＹｕａｎｆｕｌｉａｏＷｕｌｉｕｑｕＨｕａｎａｎＧｕｏｊｉＰｉｇｅＰｉｊｕ　ＨｕａｎａｎＤａｄａｏＹｉｈａｏＨｅｈｕａＳｈｅｑｕＰｉｎｇｈｕＪｉｅｄａｏ　ＬｏｎｇｇａｎｇＱｕ　Ｓｈｅｎｚｈｅｎ,,,,,,2023-08-31,1,,,,,シンセンシニンミテクノロジーカンパニーリミテッド,0
2020,9700150119627,新規,0,2023-08-31,2023-08-31,ｓｈｅｎｚｈｅｎｓｈｉ　ｍｕｘｉｕｙａｎｇｇｕａｎｇｆｕｓｈｉ　ｙｏｕｘｉａｎｇｏｎｇｓｉ,,外国会社等,,,,,,,,Ｆｌｏｏｒ３　ＢｕｉｌｄｉｎｇＡ　ＹｕａｎＬｉｎｇ　Ｚｈｅｎｘｉｎｇ　ＺｈｏｎｇｊｉｎｇＩｎｄｕｓｔｒｉａｌＰａｒｋ　ＳｈｉｙａｎＳｔｒｅｅｔ　ＢａｏａｎＤｉｓｔｒｉｃｔ　ＳｈｅｎｚｈｅｎＣｉｔｙ,,,,,,2023-08-31,1,,,,,シンセンシムシュウヤングアンフクショクユウゲンコウシ,0
2021,9700150119635,新規,0,2023-08-31,2023-08-31,Ｓｈｅｎｚｈｅｎｓｈｉ　ｙａｎｇｂｏｒｕｉｍａｏｙｉ　ｙｏｕｘｉａｎｇｏｎｇｓｉ,,外国会社等,,,,,,,,ｂａｏａｎｑｕ　ｘｉｎａｎｊｉｅｄａｏｂａｏｍｉｎｈｕａｙｕａｎＡｄｏｎｇ２０１　ＸｉｎＡｎＪｉｅＤａｏＢａｏＭｉｎＳｈｅＱｕＣｈｕａｎｇＹｅＥｒＬｕ　ＧｕａｎｇＤｏｎｇＳｈｅｎｇ　ＳｈｅｎＺｈｅｎＳｈｉ,,,,,,2023-08-31,1,,,,,シンセンシヤンボルイボウエキユウゲンコウシ,0
2022,9700150119643,新規,0,2023-08-31,2023-08-31,ｓｈｅｎｚｈｅｎｓｈｉ　ｌａｉｓｈａｎｇｋｅｊｉ　ｙｏｕｘｉａｎｇｏｎｇｓｉ,,外国会社等,,,,,,,,ＬｏｎｇｈｕａＱｕ　ＤａｌａｎｇＪｉｅｄａｏ　ＨｅｎｇｌａｎｇＳｈｅｑｕ　ＴｏｎｇｓｈｅｎｇＺｏｎｇｈｅＸｉａｏｑｕ　４５、５３　Ｈａｏ１０３　ＳｈｅｎｚｈｅｎＳｈｉ,,,,,,2023-08-31,1,,,,,シンセンシライシャンカギユウゲンコウシ,0
2023,9700150119651,新規,0,2023-08-31,2023-08-31,浜名湖救護サポート,,その他,静岡県,湖西市,新居町浜名８９８,,22,221,4310303,,,,,,,2023-08-31,1,,,,,ハマナコキュウゴサポート,0
