sequenceNumber,corporateNumber,process,correct,updateDate,changeDate,name,nameImageId,kind,prefectureName,cityName,streetNumber,addressImageId,prefectureCode,cityCode,postCode,addressOutside,addressOutsideImageId,closeDate,closeCause,successorCorporateNumber,changeCause,assignmentDate,latest,enName,enPrefectureName,enCityName,enAddressOutside,furigana,hihyoji
16,1010001258057,新規,0,2025-08-29,2025-08-29,スリーアイズ・アセット・サーキュラー株式会社,,株式会社,東京都,千代田区,永田町２丁目１４番２号山王グランドビル３階スリーアイズキャピタル株式会社内,,13,101,1000014,,,,,,,2025-08-29,1,,,,,スリーアイズアセットサーキュラー,0
20,1010101016843,新規,0,2025-08-29,2025-08-29,株式会社ヴィタナージュ,,株式会社,東京都,八王子市,鑓水２丁目８５番地３１,,13,201,1920375,,,,,,,2025-08-29,1,,,,,ヴィタナージュ,0
24,1010401192624,新規,0,2025-08-29,2025-08-29,Ｐｌａｎｅｔ　Ｌａｂｓ　Ｊａｐａｎ株式会社,,株式会社,東京都,港区,赤坂２丁目１４番５号Ｄａｉｗａ赤坂ビル４階,,13,103,1070052,,,,,,,2025-08-29,1,,,,,プラネットラボスジャパン,0
25,1010401192640,新規,0,2025-08-29,2025-08-29,株式会社Ｃａｎｄｙ　Ｌａｂｏ,,株式会社,東京都,港区,浜松町２丁目２番１５号浜松町ダイヤビル２Ｆ,,13,103,1050013,,,,,,,2025-08-29,1,,,,,キャンディラボ,0
26,1010401192707,新規,0,2025-08-29,2025-08-29,株式会社Ｄｒａｆｔｉｅ,,株式会社,東京都,港区,北青山１丁目３番１号アールキューブ青山３階,,13,103,1070061,,,,,,,2025-08-29,1,,,,,ドラフティ,0
27,1010401192731,新規,0,2025-08-29,2025-08-29,株式会社みやぎリバイタル,,株式会社,東京都,港区,港南２丁目１５番３号,,13,103,1080075,,,,,,,2025-08-29,1,,,,,ミヤギリバイタル,0
28,1010401192748,新規,0,2025-08-29,2025-08-29,株式会社ＫＳホールディングス,,株式会社,東京都,港区,虎ノ門４丁目３－１,,13,103,1050001,,,,,,,2025-08-29,1,,,,,ケイエスホールディングス,0
32,1010403035863,新規,0,2025-08-29,2025-08-29,Ｍａｒｋｅｔ　Ｐｌａｃｅ合同会社,,合同会社,東京都,港区,六本木７丁目１２番２号,,13,103,1060032,,,,,,,2025-08-29,1,,,,,マーケットプレイス,0
33,1010403035921,新規,0,2025-08-29,2025-08-29,合同会社ｄｙｂａｌａ,,合同会社,東京都,港区,新橋５丁目３１番８号ル・グラシエルＢＬＤＧ３２－２０１,,13,103,1050004,,,,,,,2025-08-29,1,,,,,ディバラ,0
56,1011003022434,新規,0,2025-08-29,2025-08-29,合同会社ラブオール,,合同会社,東京都,目黒区,目黒１丁目６番１６号,,13,110,1530063,,,,,,,2025-08-29,1,,,,,ラブオール,0
61,1011101112822,新規,0,2025-08-29,2025-08-29,株式会社ＦＵＫＵＤＡ　ＡＳＳＯＣＩＡＴＥＳ,,株式会社,東京都,新宿区,新宿６丁目２８番１０号大阪屋ビル９０３号室,,13,104,1600022,,,,,,,2025-08-29,1,,,,,フクダアソシエイツ,0
62,1011101112938,新規,0,2025-08-29,2025-08-29,Ｎｕｔｒｉｌａｎｄ株式会社,,株式会社,東京都,新宿区,新宿２丁目１２番１６号セントフォービル５０２－Ｅ号,,13,104,1600022,,,,,,,2025-08-29,1,,,,,ニュートリランド,0
63,1011103016261,新規,0,2025-08-29,2025-08-29,合同会社ウィステリアスペース,,合同会社,東京都,新宿区,西新宿３丁目３番１３号西新宿水間ビル２Ｆ,,13,104,1600023,,,,,,,2025-08-29,1,,,,,ウィステリアスペース,0
69,1011601028898,新規,0,2025-08-29,2025-08-29,株式会社ｋａｇａｙａｋｕｙｏｈ,,株式会社,東京都,練馬区,北町１丁目１７番１４号,,13,120,1790081,,,,,,,2025-08-29,1,,,,,カガヤクヨー,0
81,1020001164519,新規,0,2025-08-29,2025-08-29,ＭＡＲＵＳＥＮホールディングス株式会社,,株式会社,神奈川県,川崎市川崎区,塩浜４丁目７番１号,,14,131,2100826,,,,,,,2025-08-29,1,,,,,マルセンホールディングス,0
83,1020003029232,新規,0,2025-08-29,2025-08-29,ＬＵＭＩＲＡ合同会社,,合同会社,神奈川県,横浜市栄区,若竹町８番２６号,,14,115,2470012,,,,,,,2025-08-29,1,,,,,ルミラ,0
84,1020003029249,新規,0,2025-08-29,2025-08-29,ビオニス合同会社,,合同会社,神奈川県,横浜市中区,山下町１６８番地１レイトンハウス９０２,,14,104,2310023,,,,,,,2025-08-29,1,,,,,ビオニス,0
85,1020003029257,新規,0,2025-08-29,2025-08-29,合同会社Ｒｅｐｔｉｒｃａ,,合同会社,神奈川県,横浜市青葉区,あざみ野３丁目２６番７号,,14,117,2250011,,,,,,,2025-08-29,1,,,,,レプティルカ,0
87,1021001086166,新規,0,2025-08-29,2025-08-29,株式会社軽‐ＮＥＸＴ,,株式会社,神奈川県,平塚市,岡崎５８０１番地の１パレス湘南Ｉ－１０３,00140450,14,203,2591212,,,,,,,2025-08-29,1,,,,,ケイネクスト,0
93,1021005013422,新規,0,2025-08-29,2025-08-29,協同組合Ｇｌｏｂａｌ　Ｌｉｎｋ,,その他の設立登記法人,神奈川県,大和市,上和田９１１番地１２,,14,213,2420014,,,,,,,2025-08-29,1,,,,,グローバルリンク,0
100,1030001168361,新規,0,2025-08-29,2025-08-29,株式会社エレック,,株式会社,埼玉県,春日部市,大衾９２番地１７,,11,214,3440116,,,,,,,2025-08-29,1,,,,,エレック,0
105,1040001140245,新規,0,2025-08-29,2025-08-29,株式会社シバクラ,,株式会社,千葉県,八街市,八街ほ７２８番地１７０,,12,230,2891115,,,,,,,2025-08-29,1,,,,,シバクラ,0
109,1040003028380,新規,0,2025-08-29,2025-08-29,合同会社三矢二号,,合同会社,千葉県,千葉市中央区,院内１丁目１８番１３号三矢四番館３階,,12,101,2600018,,,,,,,2025-08-29,1,,,,,ミツヤニゴウ,0
112,1050001057166,新規,0,2025-08-29,2025-08-29,株式会社４７,,株式会社,茨城県,土浦市,桜町２丁目１３番７号,,08,203,3000037,,,,,,,2025-08-29,1,,,,,フォーティセブン,0
120,1100001038904,新規,0,2025-08-29,2025-08-29,ＪＯＩＮＳ　ＡＧＥＮＴ株式会社,,株式会社,長野県,北安曇郡白馬村,大字北城３０２０番地８７０ＮＯＭＡＤ白馬,,20,485,3999301,,,,,,,2025-08-29,1,,,,,ジョインズエージェント,0
126,1110003005851,新規,0,2025-08-29,2025-08-29,ＧｌｉｄｅＸ合同会社,,合同会社,新潟県,南魚沼郡湯沢町,大字土樽６３０３‐１スポーツメント湯沢１１０１６号室,,15,461,9496103,,,,,,,2025-08-29,1,,,,,グライドエックス,0
142,1120001279166,新規,0,2025-08-29,2025-08-29,長信株式会社,,株式会社,大阪府,大阪市浪速区,恵美須西２丁目１２番１９号４１０室,,27,111,5560003,,,,,,,2025-08-29,1,,,,,チョウシン,0
143,1120001279174,新規,0,2025-08-29,2025-08-29,株式会社Ｓ．Ｊ　ｃｏｍｐａｎｙ,,株式会社,大阪府,大阪市中央区,瓦屋町３丁目７番２０号グラシア松屋町５０３号,,27,128,5420066,,,,,,,2025-08-29,1,,,,,エスジェイカンパニー,0
144,1120001279224,新規,0,2025-08-29,2025-08-29,株式会社ＬＥＯ　ｎｏ　ＬＹＮＫ　ｉｎｋ,,株式会社,大阪府,大阪市中央区,北久宝寺町２丁目６番１０－１５０３号,,27,128,5410057,,,,,,,2025-08-29,1,,,,,レノリンクインク,0
152,1120003030403,新規,0,2025-08-29,2025-08-29,大華都市更新合同会社,,合同会社,大阪府,大阪市生野区,巽北１丁目７番３号、２０３号室,00140448,27,116,5440004,,,,,,,2025-08-29,1,,,,,ダイカトシコウシン,0
162,1120901051418,新規,0,2025-08-29,2025-08-29,株式会社Ｇｏｓｅｎ,,株式会社,大阪府,池田市,神田２丁目１１番７号,,27,204,5630043,,,,,,,2025-08-29,1,,,,,ゴセン,0
163,1120901051426,新規,0,2025-08-29,2025-08-29,株式会社ＳＥＱＵＡ,,株式会社,大阪府,豊中市,立花町３丁目１２番２０号,,27,203,5600025,,,,,,,2025-08-29,1,,,,,セクア,0
165,1120903005826,新規,0,2025-08-29,2025-08-29,Ｓｍｉｌｅ　Ｆｏｏｄｓ合同会社,,合同会社,大阪府,豊中市,螢池中町４丁目４番１１号エアセンターハイツ５０２号,,27,203,5600033,,,,,,,2025-08-29,1,,,,,スマイルフーズ,0
166,1122001039574,新規,0,2025-08-29,2025-08-29,株式会社Ａｍｒ　Ｈｏｍｅ,,株式会社,大阪府,東大阪市,下小阪４丁目７番２６号シャーメゾン下小阪ＩＩＩ０１０３号室,00140453,27,227,5770803,,,,,,,2025-08-29,1,,,,,アムルホーム,0
172,1130001080382,新規,0,2025-08-29,2025-08-29,株式会社ｓｗｅｌｌ　ｗｏｒｋｓ,,株式会社,京都府,京都市下京区,大宮通丹波口下る大宮１丁目５６２番地,,26,106,6008363,,,,,,,2025-08-29,1,,,,,スウェルワークス,0
174,1140001139814,新規,0,2025-08-29,2025-08-29,株式会社Ａｙ．ｓ　Ｐｒｏｊｅｃｔ,,株式会社,兵庫県,神戸市東灘区,田中町１丁目１０番２０－２０３号,,28,101,6580081,,,,,,,2025-08-29,1,,,,,エーワイズプロジェクト,0
185,1180001168223,新規,0,2025-08-29,2025-08-29,株式会社宝人,,株式会社,愛知県,名古屋市中村区,名駅３丁目４番２号,,23,105,4500002,,,,,,,2025-08-29,1,,,,,タカラビト,0
189,1180003028945,新規,0,2025-08-29,2025-08-29,歩む合同会社,,合同会社,愛知県,一宮市,浅井町西浅井字郷裏６番地１,,23,203,4910113,,,,,,,2025-08-29,1,,,,,アユム,0
208,1260001040480,新規,0,2025-08-29,2025-08-29,株式会社マルサ工業,,株式会社,岡山県,加賀郡吉備中央町,豊野４３７１番地３,,33,681,7161101,,,,,,,2025-08-29,1,,,,,マルサコウギョウ,0
210,1260003005317,新規,0,2025-08-29,2025-08-29,合同会社ｅｔｏ,,合同会社,岡山県,岡山市北区,大安寺南町２丁目１１番１５‐７号,,33,101,7000064,,,,,,,2025-08-29,1,,,,,エト,0
217,1290001111213,新規,0,2025-08-29,2025-08-29,株式会社Ｃｅｌｌ　Ｔｅｃｈｎｏｌｏｇｉｅｓ　Ｊａｐａｎ,,株式会社,福岡県,福岡市中央区,大名２丁目６－１１ＦｕｋｕｏｋａＧｒｏｗｔｈＮｅｘｔ,,40,133,8100041,,,,,,,2025-08-29,1,,,,,セルテクノロジーズジャパン,0
218,1290001111246,新規,0,2025-08-29,2025-08-29,株式会社ＪＸ　ＴＲＡＤＩＮＧ,,株式会社,福岡県,飯塚市,勢田２１０５番地,,40,205,8201111,,,,,,,2025-08-29,1,,,,,ジェイエックストレーディング,0
221,1290801031809,新規,0,2025-08-29,2025-08-29,株式会社コンフィル,,株式会社,福岡県,北九州市小倉北区,熊谷３丁目８番１６号,,40,106,8030864,,,,,,,2025-08-29,1,,,,,コンフィル,0
225,1310003005071,新規,0,2025-08-29,2025-08-29,合同会社松崎工業,,合同会社,長崎県,佐世保市,日宇町２１６１番地７,,42,202,8571151,,,,,,,2025-08-29,1,,,,,マツザキコウギョウ,0
239,1360003015198,新規,0,2025-08-29,2025-08-29,合同会社ｓｏｎａｅｌ,,合同会社,沖縄県,浦添市,伊祖３丁目８番１号,,47,208,9012132,,,,,,,2025-08-29,1,,,,,ソナエル,0
243,1400001017150,新規,0,2025-08-29,2025-08-29,陽ノ杜電工株式会社,,株式会社,岩手県,盛岡市,岩脇町１５番４１号,,03,201,0200101,,,,,,,2025-08-29,1,,,,,ヒノモリデンコウ,0
264,2010001257958,新規,0,2025-08-29,2025-08-29,株式会社セントラル,,株式会社,東京都,文京区,根津２丁目１番１６－５１１号,,13,105,1130031,,,,,,,2025-08-29,1,,,,,セントラル,0
265,2010001258031,新規,0,2025-08-29,2025-08-29,株式会社シンリミテス,,株式会社,東京都,中央区,日本橋室町１丁目１１番１２号日本橋水野ビル７階,,13,102,1030022,,,,,,,2025-08-29,1,,,,,シンリミテス,0
267,2010003048364,新規,0,2025-08-29,2025-08-29,合同会社ダブルエイト,,合同会社,東京都,中央区,銀座１丁目１２番４号,,13,102,1040061,,,,,,,2025-08-29,1,,,,,ダブルエイト,0
274,2010401192623,新規,0,2025-08-29,2025-08-29,株式会社Ｃｏｒｓａ　Ｐａｒｔｎｅｒｓ,,株式会社,東京都,港区,赤坂９丁目５番１５号,,13,103,1070052,,,,,,,2025-08-29,1,,,,,コルサパートナーズ,0
275,2010401192697,新規,0,2025-08-29,2025-08-29,株式会社Ｕｎｓｅａｌ,,株式会社,東京都,港区,北青山１丁目３番１号アールキューブ青山３階,,13,103,1070061,,,,,,,2025-08-29,1,,,,,アンシール,0
276,2010401192739,新規,0,2025-08-29,2025-08-29,Ｖｉｍｅｏ　Ｊａｐａｎ株式会社,,株式会社,東京都,港区,赤坂２丁目１４番５号Ｄａｉｗａ赤坂ビル４階,,13,103,1070052,,,,,,,2025-08-29,1,,,,,ビメオジャパン,0
277,2010401192747,新規,0,2025-08-29,2025-08-29,Ｒｏｕｔｅ６株式会社,,株式会社,東京都,港区,新橋２丁目１１番６号６０２,,13,103,1050004,,,,,,,2025-08-29,1,,,,,ルートシックス,0
279,2010403035904,新規,0,2025-08-29,2025-08-29,合同会社ファルコンエース,,合同会社,東京都,港区,浜松町２丁目２番１５号浜松町ダイヤビル２Ｆ,,13,103,1050013,,,,,,,2025-08-29,1,,,,,ファルコンエース,0
281,2010405024665,新規,0,2025-08-29,2025-08-29,一般社団法人ラーゴグランデ,,その他の設立登記法人,東京都,港区,芝浦１丁目１番１号,,13,103,1050023,,,,,,,2025-08-29,1,,,,,ラーゴグランデ,0
282,2010405024707,新規,0,2025-08-29,2025-08-29,一般社団法人向日葵,,その他の設立登記法人,東京都,港区,西新橋１丁目２番９号メンターキャピタル税理士法人内,,13,103,1050003,,,,,,,2025-08-29,1,,,,,ヒマワリ,0
284,2010501054632,新規,0,2025-08-29,2025-08-29,株式会社美和,,株式会社,東京都,台東区,台東１丁目２９番３号イースタンクロスアキバ３０９号室,,13,106,1100016,,,,,,,2025-08-29,1,,,,,ミワ,0
285,2010503007976,新規,0,2025-08-29,2025-08-29,合同会社彩羽,,合同会社,東京都,台東区,根岸１丁目３番２１号,,13,106,1100003,,,,,,,2025-08-29,1,,,,,イロハ,0
287,2010701048236,新規,0,2025-08-29,2025-08-29,ＳＡＮＹＵ株式会社,,株式会社,東京都,品川区,東五反田５丁目１７番５号,,13,109,1410022,,,,,,,2025-08-29,1,,,,,サンユ,0
293,2010901057994,新規,0,2025-08-29,2025-08-29,株式会社ＳＡＫＡＥ　ＢＬＵＥ,,株式会社,東京都,世田谷区,代沢１丁目１４番３号,,13,112,1550032,,,,,,,2025-08-29,1,,,,,サカエブルー,0
299,2011001171926,新規,0,2025-08-29,2025-08-29,Ｖｅｒｔｕｒｎ　Ｇｒｏｕｐ株式会社,,株式会社,東京都,渋谷区,桜丘町２６－１セルリアンタワー１５階,,13,113,1500031,,,,,,,2025-08-29,1,,,,,ヴァータングループ,0
303,2011101112937,新規,0,2025-08-29,2025-08-29,株式会社栄拓,,株式会社,東京都,新宿区,新宿５丁目１番１９号藤和新宿番衆町コープ６０８,,13,104,1600022,,,,,,,2025-08-29,1,,,,,エイタク,0
304,2011101112953,新規,0,2025-08-29,2025-08-29,株式会社ＭＥＧＡ　ＭＧＣ　ＪＡＰＡＮ,,株式会社,東京都,新宿区,大久保２丁目３番６－２０５号室,,13,104,1690072,,,,,,,2025-08-29,1,,,,,メガエムジーシージャパン,0
306,2011103016260,新規,0,2025-08-29,2025-08-29,合同会社ｃｏｎｎｅｃｔｕｓ,,合同会社,東京都,新宿区,新宿２丁目１２番１３号新宿アントレサロンビル２階,,13,104,1600022,,,,,,,2025-08-29,1,,,,,コネクタス,0
323,2012801024199,新規,0,2025-08-29,2025-08-29,株式会社Ｂｌｏｏｍａｉｄ,,株式会社,東京都,国分寺市,南町２丁目１８番３号国分寺マンション５０９,,13,214,1850021,,,,,,,2025-08-29,1,,,,,ブルームエイド,0
324,2013103001481,新規,0,2025-08-29,2025-08-29,合同会社起庵,,合同会社,東京都,あきる野市,油平１４７番地５,,13,228,1970827,,,,,,,2025-08-29,1,,,,,キアン,0
334,2020001164534,新規,0,2025-08-29,2025-08-29,株式会社京浜テクノ,,株式会社,神奈川県,川崎市川崎区,江川２丁目１５番１－６１２号,,14,131,2100823,,,,,,,2025-08-29,1,,,,,ケイヒンテクノ,0
336,2020003029256,新規,0,2025-08-29,2025-08-29,新機能材料研究所合同会社,,合同会社,神奈川県,横浜市神奈川区,東神奈川２丁目４０－１－４０４,,14,102,2210044,,,,,,,2025-08-29,1,,,,,シンキノウザイリョウケンキュウショ,0
337,2020005016979,新規,0,2025-08-29,2025-08-29,一般財団法人Ｆｕｎｄｓ　ｏｆ　和人　Ｋａｚｕｎｄｏ,,その他の設立登記法人,神奈川県,川崎市幸区,大宮町２２番地２ロイヤルシャトー川崎４０２,,14,132,2120014,,,,,,,2025-08-29,1,,,,,ファンズオブカズンドカズンド,0
350,2030001168253,新規,0,2025-08-29,2025-08-29,株式会社ＢＺＡ,,株式会社,埼玉県,さいたま市桜区,大字下大久保９３３番地１,,11,106,3380825,,,,,,,2025-08-29,1,,,,,ビーゼットエー,0
351,2030001168360,新規,0,2025-08-29,2025-08-29,株式会社一心,,株式会社,埼玉県,川口市,飯塚１丁目１番５号高木ビル１Ｆ,,11,203,3320023,,,,,,,2025-08-29,1,,,,,イッシン,0
352,2030001168377,新規,0,2025-08-29,2025-08-29,株式会社Ｈａｒｕｋａｚｅ,,株式会社,埼玉県,深谷市,後榛沢４３６,,11,218,3690222,,,,,,,2025-08-29,1,,,,,ハルカゼ,0
355,2030003027481,新規,0,2025-08-29,2025-08-29,ＢＥ‐ＦＩＲＳＴ合同会社,,合同会社,埼玉県,草加市,青柳３丁目４番１３号,,11,221,3400002,,,,,,,2025-08-29,1,,,,,ビーフアースト,0
362,2040001140211,新規,0,2025-08-29,2025-08-29,福の芸株式会社,,株式会社,千葉県,船橋市,海神４丁目１３番２号神田荘２０２号,,12,204,2730021,,,,,,,2025-08-29,1,,,,,フクノゲイ,0
366,2040003028388,新規,0,2025-08-29,2025-08-29,ＲＩＳＥ合同会社,,合同会社,千葉県,白井市,冨士２０－９,,12,232,2701432,,,,,,,2025-08-29,1,,,,,ライズ,0
368,2050001057181,新規,0,2025-08-29,2025-08-29,日彰電気株式会社,,株式会社,茨城県,北茨城市,磯原町上相田１１２５番地６,,08,215,3191544,,,,,,,2025-08-29,1,,,,,ニッショウデンキ,0
370,2050005013684,新規,0,2025-08-29,2025-08-29,一般社団法人住宅建築ＷＥＢ担当者育成協会,,その他の設立登記法人,茨城県,つくばみらい市,富士見ヶ丘２丁目１４番地５,,08,235,3002417,,,,,,,2025-08-29,1,,,,,ジュウタクケンチクウェブタントウシャイクセイキョウカイ,0
373,2060001038528,新規,0,2025-08-29,2025-08-29,株式会社村越建装管理サービス,,株式会社,栃木県,小山市,大字出井２６８番地１,,09,208,3230808,,,,,,,2025-08-29,1,,,,,ムラコシケンソウカンリサービス,0
374,2060003005699,新規,0,2025-08-29,2025-08-29,海天サービス合同会社,00140451,合同会社,栃木県,日光市,所野１３２３－１０,,09,206,3211421,,,,,,,2025-08-29,1,,,,,カイテンサービス,0
375,2060003005708,新規,0,2025-08-29,2025-08-29,ふく音合同会社,,合同会社,栃木県,宇都宮市,平出町３７７５番地７５,,09,201,3210901,,,,,,,2025-08-29,1,,,,,フクオト,0
376,2060003005716,新規,0,2025-08-29,2025-08-29,ＡＬＥＥＭ　ＴＲＡＤＩＮＧ合同会社,,合同会社,栃木県,栃木市,岩舟町新里１３０３－２－２５号室,,09,203,3294316,,,,,,,2025-08-29,1,,,,,アリームトレーディング,0
380,2080103003411,新規,0,2025-08-29,2025-08-29,合同会社Ｎｏ．ｃｉｎｑｕｅｃｅｎｔｏ,,合同会社,静岡県,三島市,川原ケ谷１４７－３リベラエレンシア４０３,,22,206,4110022,,,,,,,2025-08-29,1,,,,,ナンバーチンクエチェント,0
391,2090001019483,新規,0,2025-08-29,2025-08-29,株式会社Ｓｐａｒｋｌｅ,,株式会社,山梨県,南都留郡富士河口湖町,大石１８９番地,,19,430,4010305,,,,,,,2025-08-29,1,,,,,スパークル,0
396,2100003008359,新規,0,2025-08-29,2025-08-29,合同会社ＤＡＮＫ,,合同会社,長野県,松本市,石芝３丁目９番３１号２Ｆ,,20,202,3990007,,,,,,,2025-08-29,1,,,,,ダンク,0
418,2120003030402,新規,0,2025-08-29,2025-08-29,ＤＩＮＨＰＨＡＮ　ＶＩＥＴＦＯＯＤ合同会社,,合同会社,大阪府,大阪市西成区,千本北２丁目９－１２カタオカマンション２０１号,,27,122,5570053,,,,,,,2025-08-29,1,,,,,ディンファンヴィエットフッド,0
427,2120901051425,新規,0,2025-08-29,2025-08-29,株式会社メゾン・ド・シュシュ,,株式会社,大阪府,豊中市,上新田３丁目５番７－４０６号,,27,203,5600085,,,,,,,2025-08-29,1,,,,,メゾンドシュシュ,0
428,2120903005825,新規,0,2025-08-29,2025-08-29,合同会社コンテグループ,,合同会社,大阪府,三島郡島本町,広瀬４丁目１７番２８－１９号,,27,301,6180011,,,,,,,2025-08-29,1,,,,,コンテグループ,0
435,2140001139838,新規,0,2025-08-29,2025-08-29,株式会社バウテック,,株式会社,兵庫県,加古川市,野口町北野４７－１,,28,210,6750011,,,,,,,2025-08-29,1,,,,,バウテック,0
439,2140003022505,新規,0,2025-08-29,2025-08-29,合同会社唯の心,,合同会社,兵庫県,西宮市,名塩３丁目５番１５号,,28,204,6691147,,,,,,,2025-08-29,1,,,,,ユイノココロ,0
442,2150001028362,新規,0,2025-08-29,2025-08-29,マイプロパティクラフト株式会社,,株式会社,奈良県,大和郡山市,城見町３番５号,,29,203,6391012,,,,,,,2025-08-29,1,,,,,マイプロパティクラフト,0
443,2160001027017,新規,0,2025-08-29,2025-08-29,瑞繊産研株式会社,,株式会社,滋賀県,湖南市,下田１８２１番地４２,,25,211,5203201,,,,,,,2025-08-29,1,,,,,ズイセンサンケン,0
446,2180001168222,新規,0,2025-08-29,2025-08-29,株式会社ノノ,,株式会社,愛知県,名古屋市緑区,西神の倉１丁目１２６番地,,23,114,4580809,,,,,,,2025-08-29,1,,,,,ノノ,0
447,2180001168370,新規,0,2025-08-29,2025-08-29,株式会社ｍａｒｇｉｇｒａｍ,,株式会社,愛知県,名古屋市中村区,名駅４丁目２４番５号第２森ビル４０１,,23,105,4500002,,,,,,,2025-08-29,1,,,,,マージグラム,0
448,2180001168395,新規,0,2025-08-29,2025-08-29,株式会社一,,株式会社,愛知県,東海市,加木屋町御林１番地の３５,,23,222,4770032,,,,,,,2025-08-29,1,,,,,ハジメ,0
450,2180003028960,新規,0,2025-08-29,2025-08-29,合同会社ＡＫグループ,,合同会社,愛知県,名古屋市中村区,名駅３丁目４－１０アルティメイト名駅１ｓｔ２階,,23,105,4500002,,,,,,,2025-08-29,1,,,,,エーケーグループ,0
452,2180005021204,新規,0,2025-08-29,2025-08-29,特定非営利活動法人こいのぼり,,その他の設立登記法人,愛知県,名古屋市守山区,大森４丁目１８０３番地,,23,113,4630021,,,,,,,2025-08-29,1,,,,,コイノボリ,0
457,2200003006996,新規,0,2025-08-29,2025-08-29,ＧＳ合同会社,,合同会社,岐阜県,大垣市,楽田町８丁目７９,,21,202,5030008,,,,,,,2025-08-29,1,,,,,ジーエス,0
464,2240001065421,新規,0,2025-08-29,2025-08-29,Ｎホールディングス株式会社,,株式会社,広島県,東広島市,安芸津町三津４３９２番地１０４,,34,212,7392402,,,,,,,2025-08-29,1,,,,,エヌホールディングス,0
468,2260003005316,新規,0,2025-08-29,2025-08-29,ＯＳａｌｅｓ合同会社,,合同会社,岡山県,岡山市北区,東島田町１丁目２番１号スタシオン南２０３号室,,33,101,7000983,,,,,,,2025-08-29,1,,,,,オーセールス,0
469,2270003001784,新規,0,2025-08-29,2025-08-29,合同会社エビス,,合同会社,鳥取県,東伯郡湯梨浜町,はわい長瀬２０６５番地１５,,31,370,6820722,,,,,,,2025-08-29,1,,,,,エビス,0
472,2290001111170,新規,0,2025-08-29,2025-08-29,株式会社ＬｉｎｋＡ,,株式会社,福岡県,飯塚市,川津８０番地７,,40,205,8200067,,,,,,,2025-08-29,1,,,,,リンクエー,0
473,2290001111212,新規,0,2025-08-29,2025-08-29,株式会社いとやまアセットマネジメント,,株式会社,福岡県,福岡市西区,西都１丁目８番５－９０１号,,40,135,8190367,,,,,,,2025-08-29,1,,,,,イトヤマアセットマネジメント,0
474,2290001111253,新規,0,2025-08-29,2025-08-29,旭陽株式会社,,株式会社,福岡県,福岡市早良区,次郎丸６丁目５番１－２０２号,,40,137,8140165,,,,,,,2025-08-29,1,,,,,キョクヨウ,0
475,2290003017325,新規,0,2025-08-29,2025-08-29,合同会社福岡ノラネコ総合研究所,,合同会社,福岡県,福岡市中央区,六本松４丁目８番１２－２０３号,,40,133,8100044,,,,,,,2025-08-29,1,,,,,フクオカノラネコソウゴウケンキュウショ,0
476,2320001021300,新規,0,2025-08-29,2025-08-29,株式会社トランスネットワークＨＤ,,株式会社,大分県,大分市,大字廻栖野２１８８番地,,44,201,8701201,,,,,,,2025-08-29,1,,,,,トランスネットワークホールディングス,0
480,2330001033518,新規,0,2025-08-29,2025-08-29,アグリジン株式会社,,株式会社,熊本県,熊本市東区,戸島西１丁目７番１３号,,43,102,8618043,,,,,,,2025-08-29,1,,,,,アグリジン,0
481,2330001033526,新規,0,2025-08-29,2025-08-29,株式会社白山クラフト,,株式会社,熊本県,熊本市中央区,白山３丁目６番２号,,43,101,8620959,,,,,,,2025-08-29,1,,,,,ハクザンクラフト,0
494,2370001052968,新規,0,2025-08-29,2025-08-29,ＯＡＫＭＯＮＴ株式会社,,株式会社,宮城県,多賀城市,伝上山１丁目５番２８‐２０４,,04,209,9850872,,,,,,,2025-08-29,1,,,,,オークモント,0
509,2420001019243,新規,0,2025-08-29,2025-08-29,３６９Ｂ．Ｂ株式会社,,株式会社,青森県,三沢市,岡三沢８丁目７６番地１号,,02,207,0330021,,,,,,,2025-08-29,1,,,,,ミロクビービー,0
516,2430003018036,新規,0,2025-08-29,2025-08-29,合同会社ｋａｒｕｎａ,,合同会社,北海道,小樽市,星野町２７番１９号,,01,203,0470262,,,,,,,2025-08-29,1,,,,,カルナ,0
542,3010001258055,新規,0,2025-08-29,2025-08-29,Ｖｅｓｔａ株式会社,,株式会社,東京都,千代田区,永田町２丁目１４番２号山王グランドビル３階スリーアイズキャピタル株式会社内,,13,101,1000014,,,,,,,2025-08-29,1,,,,,ウェスタ,0
550,3010401192647,新規,0,2025-08-29,2025-08-29,Ｕｎｉｔａｓ　Ｊａｐａｎ株式会社,,株式会社,東京都,港区,南青山２丁目４番１２号南青山アサヒビル南青山ＡＮＮＥＸオフィス００４,,13,103,1070062,,,,,,,2025-08-29,1,,,,,ユニタスジャパン,0
551,3010401192762,新規,0,2025-08-29,2025-08-29,株式会社ＬＩＬＩ　Ａｃａｄｅｍｙ,,株式会社,東京都,港区,赤坂２丁目１４番５号７階,,13,103,1070052,,,,,,,2025-08-29,1,,,,,リリアカデミー,0
553,3010403035894,新規,0,2025-08-29,2025-08-29,栄和合同会社,,合同会社,東京都,港区,浜松町２丁目７番１７号イーグル浜松町天翔オフィス浜松町大門１０階１０５９号室,,13,103,1050013,,,,,,,2025-08-29,1,,,,,エイワ,0
554,3010403035928,新規,0,2025-08-29,2025-08-29,ＳＣＧ８８合同会社,,合同会社,東京都,港区,虎ノ門２丁目６番１号,,13,103,1050001,,,,,,,2025-08-29,1,,,,,エスシージーエイティエイト,0
556,3010501054508,新規,0,2025-08-29,2025-08-29,株式会社Ｓ１Ｓ,,株式会社,東京都,台東区,東浅草２丁目２８番４号,,13,106,1110025,,,,,,,2025-08-29,1,,,,,,0
563,3010601067888,新規,0,2025-08-29,2025-08-29,株式会社ｎｏａｉ,,株式会社,東京都,江東区,南砂７丁目８番１号,,13,108,1360076,,,,,,,2025-08-29,1,,,,,ノアイ,0
567,3010901058001,新規,0,2025-08-29,2025-08-29,株式会社ＰＲＩＭＥＩＲＡ,,株式会社,東京都,世田谷区,北沢２丁目１０番１５－７０３号,,13,112,1550031,,,,,,,2025-08-29,1,,,,,プリメイラ,0
573,3011001172106,新規,0,2025-08-29,2025-08-29,株式会社Ｘ‐ｎａｖｉ,,株式会社,東京都,渋谷区,渋谷４丁目５番６号トキワビル５０３,,13,113,1500002,,,,,,,2025-08-29,1,,,,,,0
574,3011003022250,新規,0,2025-08-29,2025-08-29,ティーティス合同会社,,合同会社,東京都,渋谷区,道玄坂１丁目１０番５号渋谷プレイス３Ｆ・ＯｒｂｉｔＳｈｉｂｕｙａ内,,13,113,1500043,,,,,,,2025-08-29,1,,,,,ティーティス,0
576,3011101112845,新規,0,2025-08-29,2025-08-29,ジージニアグループ株式会社,,株式会社,東京都,新宿区,西新宿３丁目２番９号,,13,104,1600023,,,,,,,2025-08-29,1,,,,,ジージニアグループ,0
577,3011101112911,新規,0,2025-08-29,2025-08-29,株式会社日越鉄鋼エンジニアリング,,株式会社,東京都,新宿区,新宿１丁目９番２号ナリコマＨＤ新宿ビル７階,,13,104,1600022,,,,,,,2025-08-29,1,,,,,ニチエツテッコウエンジニアリング,0
583,3011201026598,新規,0,2025-08-29,2025-08-29,Ｌ＆Ｐ株式会社,,株式会社,東京都,中野区,上高田１丁目４３番５号,,13,114,1640002,,,,,,,2025-08-29,1,,,,,エルアンドピー,0
585,3011205002703,新規,0,2025-08-29,2025-08-29,特定非営利活動法人日本遺伝子関連検査品質保証・教育機構,,その他の設立登記法人,東京都,中野区,中野４丁目１０番２号２階,,13,114,1640001,,,,,,,2025-08-29,1,,,,,,0
586,3011305003064,新規,0,2025-08-29,2025-08-29,一般社団法人澁澤総合研究所,,その他の設立登記法人,東京都,杉並区,下高井戸３丁目２１番１７号,,13,115,1680073,,,,,,,2025-08-29,1,,,,,シブサワソウゴウケンキュウショ,0
599,3011801046657,新規,0,2025-08-29,2025-08-29,株式会社フェミナス,,株式会社,東京都,葛飾区,小菅４丁目８番９号メゾンドアヤセ１Ｆ,,13,122,1240001,,,,,,,2025-08-29,1,,,,,フェミナス,0
602,3012803003844,新規,0,2025-08-29,2025-08-29,テラ・アセット・マネジメント・アンド・アドバイザリー合同会社,,合同会社,東京都,日野市,三沢１丁目２６番地の１１,,13,212,1910032,,,,,,,2025-08-29,1,,,,,テラアセットマネジメントアンドアドバイザリー,0
603,3012803003852,新規,0,2025-08-29,2025-08-29,合同会社エテルネル,,合同会社,東京都,日野市,万願寺４丁目２７番地の２４シャルマン１０１,,13,212,1910024,,,,,,,2025-08-29,1,,,,,エテルネル,0
622,3021003016466,新規,0,2025-08-29,2025-08-29,ＫＤ　ＡＵＴＯ合同会社,,合同会社,神奈川県,厚木市,愛名９３５番地１－１０７,,14,212,2430038,,,,,,,2025-08-29,1,,,,,ケーディーオート,0
623,3021003016474,新規,0,2025-08-29,2025-08-29,合同会社潤環,,合同会社,神奈川県,藤沢市,羽鳥４丁目４番２７号,,14,205,2510056,,,,,,,2025-08-29,1,,,,,ジュンカン,0
624,3021005013429,新規,0,2025-08-29,2025-08-29,藤和シティコープ茅ヶ崎東海岸管理組合法人,,その他の設立登記法人,神奈川県,茅ヶ崎市,東海岸北３丁目１０番８号,,14,207,2530053,,,,,,,2025-08-29,1,,,,,トウワシティコープチガサキヒガシカイガン,0
631,3030001168384,新規,0,2025-08-29,2025-08-29,酒類提供株式会社,,株式会社,埼玉県,さいたま市大宮区,仲町１丁目６０番地アイスビル１Ｆ,,11,103,3300845,,,,,,,2025-08-29,1,,,,,シュルイテイキョウ,0
634,3030003027472,新規,0,2025-08-29,2025-08-29,Ｔｈｒｉｖｅ　Ｃａｒｅｅｒｓ合同会社,,合同会社,埼玉県,上尾市,本町６丁目９－７,,11,219,3620014,,,,,,,2025-08-29,1,,,,,スライブキャリアーズ,0
635,3030003027480,新規,0,2025-08-29,2025-08-29,Ｔ＆Ｋ合同会社,,合同会社,埼玉県,川口市,桜町３丁目１７－２１－２Ａ,,11,203,3340001,,,,,,,2025-08-29,1,,,,,ティーアンドケー,0
648,3060003005715,新規,0,2025-08-29,2025-08-29,ＡＮＷＥＲ　ＴＲＡＤＩＮＧ合同会社,,合同会社,栃木県,栃木市,岩舟町新里１３０３－２－２４号室,,09,203,3294316,,,,,,,2025-08-29,1,,,,,アンワルトレーディング,0
661,3100003008341,新規,0,2025-08-29,2025-08-29,合同会社Ｍ‐ＬＩＮＫ,,合同会社,長野県,長野市,稲田３丁目３９－５,,20,201,3810042,,,,,,,2025-08-29,1,,,,,エムリンク,0
662,3100003008358,新規,0,2025-08-29,2025-08-29,合同会社ことのは,,合同会社,長野県,松本市,蟻ケ崎５丁目１番３号２Ｆ,,20,202,3900861,,,,,,,2025-08-29,1,,,,,コトノハ,0
677,3120001279222,新規,0,2025-08-29,2025-08-29,株式会社エンデザインワークス,,株式会社,大阪府,大阪市北区,中崎西４丁目３番３２号ＡＲＣＡ梅田ビル７０５,,27,127,5300015,,,,,,,2025-08-29,1,,,,,エンデザインワークス,0
695,3120901051424,新規,0,2025-08-29,2025-08-29,株式会社ソキウス,,株式会社,大阪府,豊中市,大黒町３丁目８番２号,,27,203,5610827,,,,,,,2025-08-29,1,,,,,ソキウス,0
704,3122001039564,新規,0,2025-08-29,2025-08-29,株式会社くすりびと,,株式会社,大阪府,大東市,中垣内４丁目３番５号,,27,218,5740013,,,,,,,2025-08-29,1,,,,,クスリビト,0
705,3122001039572,新規,0,2025-08-29,2025-08-29,株式会社ヨシムラ,,株式会社,大阪府,大東市,中垣内７丁目２番９号,,27,218,5740013,,,,,,,2025-08-29,1,,,,,ヨシムラ,0
706,3122001039589,新規,0,2025-08-29,2025-08-29,株式会社ＴＡＫＩＭＯＴＯ,,株式会社,大阪府,大東市,深野２丁目５番１０号５０２号,,27,218,5740072,,,,,,,2025-08-29,1,,,,,タキモト,0
708,3130001080372,新規,0,2025-08-29,2025-08-29,株式会社ｆｉｒｓｔ,,株式会社,京都府,京都市山科区,西野山百々町１２３番地１４,,26,110,6078301,,,,,,,2025-08-29,1,,,,,ファースト,0
709,3130003010716,新規,0,2025-08-29,2025-08-29,グローブインベストメント合同会社,,合同会社,京都府,京都市下京区,七条通油小路東入大黒町２２７番地第２キョートビル４０２,,26,106,6008223,,,,,,,2025-08-29,1,,,,,グローブインベストメント,0
710,3130003010749,新規,0,2025-08-29,2025-08-29,合同会社ｄｏｃｋ．,,合同会社,京都府,京都市下京区,朱雀宝蔵町４４番地－２Ｆ京都朱雀スタジオＡＲ－４０４,,26,106,6008846,,,,,,,2025-08-29,1,,,,,ドック,0
714,3150001028361,新規,0,2025-08-29,2025-08-29,株式会社レギャン,,株式会社,奈良県,生駒市,北田原町１５７５番地３,,29,209,6300142,,,,,,,2025-08-29,1,,,,,レギャン,0
717,3160001027016,新規,0,2025-08-29,2025-08-29,株式会社大勝,,株式会社,滋賀県,彦根市,池州町１２番１９号,,25,202,5220065,,,,,,,2025-08-29,1,,,,,タイショウ,0
727,3180001168361,新規,0,2025-08-29,2025-08-29,株式会社中京建装,,株式会社,愛知県,名古屋市中村区,名駅４丁目２４番１６号,,23,105,4500002,,,,,,,2025-08-29,1,,,,,チュウキョウケンソウ,0
728,3180001168378,新規,0,2025-08-29,2025-08-29,中京セレクト株式会社,,株式会社,愛知県,名古屋市緑区,徳重４丁目５３２番地の１,,23,114,4580815,,,,,,,2025-08-29,1,,,,,チュウキョウセレクト,0
739,3200003006995,新規,0,2025-08-29,2025-08-29,ＦＡＨＩＭＡ　ＴＲＡＤＩＮＧ合同会社,,合同会社,岐阜県,土岐市,下石町６６０番地の２９サンテラス雅Ａ－２０２号,,21,212,5095202,,,,,,,2025-08-29,1,,,,,ファヒマトレーディング,0
745,3220005008996,新規,0,2025-08-29,2025-08-29,一般社団法人食のチカラいしかわ,,その他の設立登記法人,石川県,金沢市,旭町２丁目１８番２０号,,17,201,9200941,,,,,,,2025-08-29,1,,,,,ショクノチカライシカワ,0
750,3240001065429,新規,0,2025-08-29,2025-08-29,株式会社ＣＫホールディングス,,株式会社,広島県,尾道市,西藤町字志村２００７５番地１３２,,34,205,7290142,,,,,,,2025-08-29,1,,,,,シーケーホールディングス,0
758,3290001111252,新規,0,2025-08-29,2025-08-29,諾泰普株式会社,,株式会社,福岡県,福岡市博多区,美野島１丁目１５番１８号,,40,132,8120017,,,,,,,2025-08-29,1,,,,,ダクタイフ,0
760,3290801031807,新規,0,2025-08-29,2025-08-29,株式会社スマートベース,,株式会社,福岡県,北九州市八幡西区,引野３丁目１２番１２－６０１号,,40,109,8060067,,,,,,,2025-08-29,1,,,,,スマートベース,0
767,3330001033525,新規,0,2025-08-29,2025-08-29,株式会社ＴｅａｍＨＡＹＡＴＡ,,株式会社,熊本県,八代市,本町２丁目３番２９号,,43,202,8660861,,,,,,,2025-08-29,1,,,,,チームハヤタ,0
772,3360001035667,新規,0,2025-08-29,2025-08-29,Ｚａｙｒａ株式会社,,株式会社,沖縄県,中頭郡北谷町,北谷１丁目１２－１８－１０１,,47,326,9040116,,,,,,,2025-08-29,1,,,,,ザイラ,0
784,3400003003527,新規,0,2025-08-29,2025-08-29,合同会社Ｔｅｎｉｒｏ,,合同会社,岩手県,北上市,中野町１丁目７番２９号カーサＫ－Ｃ棟,,03,206,0240024,,,,,,,2025-08-29,1,,,,,テニロ,0
812,4010003048536,新規,0,2025-08-29,2025-08-29,合同会社ＪＯＹＮＩＣＳ,,合同会社,東京都,中央区,日本橋堀留町１丁目６－１０ＧＲＥＥＮＰＡＲＫ日本橋人形町７０１号,,13,102,1030012,,,,,,,2025-08-29,1,,,,,ジョイニクス,0
813,4010003048544,新規,0,2025-08-29,2025-08-29,合同会社Ａｕｒａｔｅｃｈ,,合同会社,東京都,中央区,日本橋蛎殻町１丁目１８－４アーバネックス日本橋水天宮６０３,,13,102,1030014,,,,,,,2025-08-29,1,,,,,アウラテック,0
824,4010401192472,新規,0,2025-08-29,2025-08-29,株式会社ＬＥＰＩＯＳ,,株式会社,東京都,港区,港南２丁目１５番１号品川インターシティＡ棟２８階,,13,103,1080075,,,,,,,2025-08-29,1,,,,,レピオス,0
825,4010401192596,新規,0,2025-08-29,2025-08-29,Ｆａｍｉｌｙ　Ｃａｒｅ　Ｐａｒｔｎｅｒｓ株式会社,,株式会社,東京都,港区,港南１丁目９番３６号アレア品川１３階,,13,103,1080075,,,,,,,2025-08-29,1,,,,,ファミリーケアパートナーズ,0
826,4010401192646,新規,0,2025-08-29,2025-08-29,Ｂｕｔｌｒ　Ｔｅｃｈｎｏｌｏｇｉｅｓ株式会社,,株式会社,東京都,港区,虎ノ門１丁目１７番１号虎ノ門ヒルズビジネスタワー１５Ｆ,,13,103,1050001,,,,,,,2025-08-29,1,,,,,バトラテクノロジーズ,0
827,4010401192679,新規,0,2025-08-29,2025-08-29,株式会社ＣａｐｓｕｌｅＬｉｎｋ,,株式会社,東京都,港区,北青山１丁目３番１号アールキューブ青山３階,,13,103,1070061,,,,,,,2025-08-29,1,,,,,カプセルリンク,0
828,4010401192712,新規,0,2025-08-29,2025-08-29,株式会社ＳＫＹ　ＩＮＴＥＲＮＡＴＩＯＮＡＬ,,株式会社,東京都,港区,北青山１丁目３番１号アールキューブ青山３階,,13,103,1070061,,,,,,,2025-08-29,1,,,,,スカイインターナショナル,0
829,4010401192720,新規,0,2025-08-29,2025-08-29,レカン株式会社,,株式会社,東京都,港区,浜松町２丁目２番１５号浜松町ダイヤビル２Ｆ,,13,103,1050013,,,,,,,2025-08-29,1,,,,,レカン,0
831,4010403035910,新規,0,2025-08-29,2025-08-29,Ｐａｎｄａ合同会社,,合同会社,東京都,港区,虎ノ門３丁目２２番１０－２０１号,,13,103,1050001,,,,,,,2025-08-29,1,,,,,パンダ,0
832,4010403035927,新規,0,2025-08-29,2025-08-29,ＳＣＧ８７合同会社,,合同会社,東京都,港区,虎ノ門２丁目６番１号,,13,103,1050001,,,,,,,2025-08-29,1,,,,,エスシージーエイティセブン,0
838,4010803005521,新規,0,2025-08-29,2025-08-29,合同会社クロススリー会計,,合同会社,東京都,大田区,蒲田５丁目２１番１３号Ｂ２Ｆ－１８,,13,111,1440052,,,,,,,2025-08-29,1,,,,,クロススリーカイケイ,0
840,4010901057992,新規,0,2025-08-29,2025-08-29,株式会社ＬｉＢ,,株式会社,東京都,世田谷区,太子堂２丁目３０番５号,,13,112,1540004,,,,,,,2025-08-29,1,,,,,リブ,0
841,4010903010223,新規,0,2025-08-29,2025-08-29,合同会社山本コーポレーション,,合同会社,東京都,世田谷区,三軒茶屋１丁目４１－８レジディア３０２,,13,112,1540024,,,,,,,2025-08-29,1,,,,,ヤマモトコーポレーション,0
843,4011001171635,新規,0,2025-08-29,2025-08-29,株式会社ＯＭＰホールディングス,,株式会社,東京都,渋谷区,千駄ヶ谷３丁目１３番７号,,13,113,1510051,,,,,,,2025-08-29,1,,,,,オーエムピーホールディングス,0
852,4011603004820,新規,0,2025-08-29,2025-08-29,合同会社トラスト,,合同会社,東京都,練馬区,錦２丁目５番２－２０４号,,13,120,1790082,,,,,,,2025-08-29,1,,,,,トラスト,0
861,4012801024197,新規,0,2025-08-29,2025-08-29,白欧ファーマ株式会社,,株式会社,東京都,国立市,東３丁目１１－１２－３０４,,13,215,1860002,,,,,,,2025-08-29,1,,,,,ハクオウファーマ,0
866,4020001164573,新規,0,2025-08-29,2025-08-29,株式会社ＦＬＡＲＩＳ,,株式会社,神奈川県,川崎市高津区,下作延２丁目８番地２２号クムクムストリート２０３号室,,14,134,2130033,,,,,,,2025-08-29,1,,,,,フラリス,0
867,4020001164581,新規,0,2025-08-29,2025-08-29,株式会社アフステ,,株式会社,神奈川県,横浜市中区,新山下１丁目１４番１－２１３号,,14,104,2310801,,,,,,,2025-08-29,1,,,,,アフステ,0
870,4020003029072,新規,0,2025-08-29,2025-08-29,合同会社プロバンスｉｎｃ．,,合同会社,神奈川県,横浜市中区,元町１丁目５０元町パセオ１０２,,14,104,2310861,,,,,,,2025-08-29,1,,,,,プロバンスインク,0
872,4021001086163,新規,0,2025-08-29,2025-08-29,株式会社星翔,,株式会社,神奈川県,藤沢市,用田１５１９番地の５,,14,205,2520821,,,,,,,2025-08-29,1,,,,,セイショウ,0
876,4021003016432,新規,0,2025-08-29,2025-08-29,オーシャンサイド合同会社,,合同会社,神奈川県,藤沢市,藤沢４丁目１２番１８号,,14,205,2510052,,,,,,,2025-08-29,1,,,,,オーシャンサイド,0
883,4030001168350,新規,0,2025-08-29,2025-08-29,株式会社ｓｈｉｎｅ,,株式会社,埼玉県,草加市,北谷２丁目１２番３８号,,11,221,3400046,,,,,,,2025-08-29,1,,,,,シャイン,0
884,4030001168359,新規,0,2025-08-29,2025-08-29,セキュア・エステート株式会社,,株式会社,埼玉県,桶川市,北１丁目９番６号,,11,231,3630011,,,,,,,2025-08-29,1,,,,,セキュアエステート,0
885,4030001168367,新規,0,2025-08-29,2025-08-29,株式会社アネティス２４,,株式会社,埼玉県,加須市,花崎北３丁目１７番地２０,,11,210,3470016,,,,,,,2025-08-29,1,,,,,アネティスニジュウヨン,0
886,4030001168375,新規,0,2025-08-29,2025-08-29,ＪＫＭＰ株式会社,,株式会社,埼玉県,川越市,熊野町１６番地４４,,11,201,3501146,,,,,,,2025-08-29,1,,,,,ジェイケーエムピー,0
888,4030003027372,新規,0,2025-08-29,2025-08-29,さくら合同会社,,合同会社,埼玉県,川越市,新富町１丁目８番５号ラ・グラース本川越１００１,,11,201,3500043,,,,,,,2025-08-29,1,,,,,サクラ,0
889,4030003027496,新規,0,2025-08-29,2025-08-29,合同会社ふわりす,,合同会社,埼玉県,飯能市,大字双柳２－８,,11,209,3570021,,,,,,,2025-08-29,1,,,,,フワリス,0
890,4030005022256,新規,0,2025-08-29,2025-08-29,特定非営利活動法人ＪＯＹ　ＧＩＦＴ,,その他の設立登記法人,埼玉県,南埼玉郡宮代町,川端４丁目８番１０号,,11,442,3450804,,,,,,,2025-08-29,1,,,,,ジョイギフト,0
898,4040001140226,新規,0,2025-08-29,2025-08-29,株式会社侑進設備,,株式会社,千葉県,千葉市中央区,富士見２丁目７番９号富士見ビル６０９号,,12,101,2600015,,,,,,,2025-08-29,1,,,,,ユウシンセツビ,0
899,4040003028353,新規,0,2025-08-29,2025-08-29,合同会社アンビ,,合同会社,千葉県,東金市,押堀２６７番地,,12,213,2830065,,,,,,,2025-08-29,1,,,,,アンビ,0
900,4050001057188,新規,0,2025-08-29,2025-08-29,株式会社ＮＯＧＵＣＨＩ,,株式会社,茨城県,牛久市,柏田町２７５番地１,,08,219,3001211,,,,,,,2025-08-29,1,,,,,ノグチ,0
903,4060003005706,新規,0,2025-08-29,2025-08-29,合同会社みどりば,,合同会社,栃木県,栃木市,藤岡町緑川５１２番地,,09,203,3290313,,,,,,,2025-08-29,1,,,,,ミドリバ,0
908,4070001043293,新規,0,2025-08-29,2025-08-29,株式会社ＺＯＯＭ　ＡＵＴＯ,,株式会社,群馬県,太田市,六千石町１２７番地４２,,10,205,3792305,,,,,,,2025-08-29,1,,,,,ゾームオート,0
909,4080001027106,新規,0,2025-08-29,2025-08-29,株式会社くじら環境サービス,,株式会社,静岡県,牧之原市,東萩間２７８８番地１,,22,226,4210501,,,,,,,2025-08-29,1,,,,,クジラカンキョウサービス,0
917,4110003005865,新規,0,2025-08-29,2025-08-29,ＪＢＫＳ合同会社,,合同会社,新潟県,妙高市,大字赤倉５８５番地１１７,,15,217,9492111,,,,,,,2025-08-29,1,,,,,ジェイビーケーエス,0
955,4120905006786,新規,0,2025-08-29,2025-08-29,一般社団法人えさか,,その他の設立登記法人,大阪府,吹田市,豊津町１８番３７－５０１,,27,205,5640051,,,,,,,2025-08-29,1,,,,,エサカ,0
961,4130001080330,新規,0,2025-08-29,2025-08-29,株式会社ＯＺ総建,,株式会社,京都府,京都市上京区,今出川通千本西入南上善寺町１６２,,26,102,6028321,,,,,,,2025-08-29,1,,,,,オズソウケン,0
962,4130003010715,新規,0,2025-08-29,2025-08-29,合同会社コネクテッド,,合同会社,京都府,京都市下京区,朱雀宝蔵町４４番地協栄ビル２階京都朱雀スタジオＡＲ－４０３,,26,106,6008846,,,,,,,2025-08-29,1,,,,,コネクテッド,0
964,4140001139828,新規,0,2025-08-29,2025-08-29,株式会社ファミリエ,,株式会社,兵庫県,神戸市垂水区,舞多聞東２丁目５番１９号,,28,108,6550052,,,,,,,2025-08-29,1,,,,,ファミリエ,0
968,4170003002279,新規,0,2025-08-29,2025-08-29,ミライネ合同会社,,合同会社,和歌山県,御坊市,御坊６７番地,,30,205,6440001,,,,,,,2025-08-29,1,,,,,ミライネ,0
973,4180001168360,新規,0,2025-08-29,2025-08-29,株式会社プレーマ,,株式会社,愛知県,名古屋市昭和区,小坂町１丁目１７番地の２,,23,107,4660021,,,,,,,2025-08-29,1,,,,,プレーマ,0
974,4180001168393,新規,0,2025-08-29,2025-08-29,株式会社エーテック,,株式会社,愛知県,名古屋市中区,錦１丁目１１番２０号,,23,106,4600003,,,,,,,2025-08-29,1,,,,,エーテック,0
975,4180003028918,新規,0,2025-08-29,2025-08-29,合同会社ＳＵＢＡＲＵ,,合同会社,愛知県,小牧市,安田町１６２－２－１０１,,23,219,4850014,,,,,,,2025-08-29,1,,,,,スバル,0
976,4180003028934,新規,0,2025-08-29,2025-08-29,合同会社Ｇ‐ＭＯＴＴＯ,,合同会社,愛知県,名古屋市中村区,名駅４丁目２４番５号第２森ビル４０１,,23,105,4500002,,,,,,,2025-08-29,1,,,,,ジーモット,0
982,4190005012068,新規,0,2025-08-29,2025-08-29,社会福祉法人全辰会,,その他の設立登記法人,三重県,鈴鹿市,稲生町８７５１番地６,,24,207,5100201,,,,,,,2025-08-29,1,,,,,ゼンシンカイ,0
984,4200001044170,新規,0,2025-08-29,2025-08-29,ＵＴＩＬＩＮＫＳ株式会社,,株式会社,岐阜県,多治見市,新町１丁目２３番地多治見市産業文化センター,,21,204,5070831,,,,,,,2025-08-29,1,,,,,ユーティリンクス,0
985,4200001044179,新規,0,2025-08-29,2025-08-29,株式会社リアンワークス,,株式会社,岐阜県,瑞浪市,稲津町萩原１１２２番地の７,,21,208,5096102,,,,,,,2025-08-29,1,,,,,リアンワークス,0
986,4210001020294,新規,0,2025-08-29,2025-08-29,株式会社高村,00140463,株式会社,福井県,福井市,宝永３丁目３５番２０号,,18,201,9100004,,,,,,,2025-08-29,1,,,,,タカムラ,0
991,4240001065428,新規,0,2025-08-29,2025-08-29,株式会社Ｍｙ　Ｒｕｔｉｎ,,株式会社,広島県,広島市中区,薬研堀７番２号ＹＧビル３０２,,34,101,7300027,,,,,,,2025-08-29,1,,,,,マイルーティーン,0
992,4240001065436,新規,0,2025-08-29,2025-08-29,株式会社ＲＵＭＯＲＩＡ,,株式会社,広島県,広島市南区,宇品御幸２丁目１１番３－４０３号,,34,103,7340015,,,,,,,2025-08-29,1,,,,,ルモリア,0
999,4260001040478,新規,0,2025-08-29,2025-08-29,ダイヤモンドプロジェクト株式会社,,株式会社,岡山県,倉敷市,白楽町１８番地１５,,33,202,7100824,,,,,,,2025-08-29,1,,,,,ダイヤモンドプロジェクト,0
1000,4260001040494,新規,0,2025-08-29,2025-08-29,株式会社Ｈ＆Ｃ,,株式会社,岡山県,玉野市,東紅陽台２丁目１９番地３３,,33,204,7060131,,,,,,,2025-08-29,1,,,,,エイチアンドシー,0
1001,4260003005314,新規,0,2025-08-29,2025-08-29,合同会社インベスティ,,合同会社,岡山県,岡山市南区,箕島１２４３－１,,33,104,7010206,,,,,,,2025-08-29,1,,,,,インベスティ,0
1021,4310005008870,新規,0,2025-08-29,2025-08-29,一般社団法人Ｒｅｇｉｏｎ,,その他の設立登記法人,長崎県,東彼杵郡波佐見町,折敷瀬郷１７６５番地,,42,323,8593701,,,,,,,2025-08-29,1,,,,,レギオン,0
1025,4360001035666,新規,0,2025-08-29,2025-08-29,Ｓａｋｈｒａｎｉ　Ｈｏｔｅｌｓ＆Ｒｅｓｏｒｔｓ株式会社,,株式会社,沖縄県,中頭郡北谷町,北谷２丁目８－４ＹｏｕｒｓＭａｎｓｉｏｎ１０１,,47,326,9040116,,,,,,,2025-08-29,1,,,,,サクラニホテルズアンドリゾーツ,0
1026,4360001035708,新規,0,2025-08-29,2025-08-29,ＯＫ企画株式会社,,株式会社,沖縄県,糸満市,字阿波根１４０６番地の２２９,,47,210,9010301,,,,,,,2025-08-29,1,,,,,オーケーキカク,0
1027,4360003015204,新規,0,2025-08-29,2025-08-29,琉光合同会社,,合同会社,沖縄県,うるま市,勝連比嘉６１８－５,,47,213,9042316,,,,,,,2025-08-29,1,,,,,ルカ,0
1034,4380003006119,新規,0,2025-08-29,2025-08-29,Ｆａｂｒｅｅ合同会社,,合同会社,福島県,福島市,泉字長滝前５番地の２３,,07,201,9608253,,,,,,,2025-08-29,1,,,,,ファブリー,0
1036,4400001017156,新規,0,2025-08-29,2025-08-29,株式会社仁藝,,株式会社,岩手県,陸前高田市,広田町字赤坂角地８３－４,,03,210,0292208,,,,,,,2025-08-29,1,,,,,ニンゲイ,0
1040,4400003003526,新規,0,2025-08-29,2025-08-29,合同会社ＯＧＡＳＡ,,合同会社,岩手県,滝沢市,室小路６５１－１６,,03,216,0200634,,,,,,,2025-08-29,1,,,,,オガサ,0
1066,5010005040589,新規,0,2025-08-29,2025-08-29,一般社団法人日本出版ＤＸコンソーシアム,,その他の設立登記法人,東京都,千代田区,神田錦町３丁目１３番地,,13,101,1010054,,,,,,,2025-08-29,1,,,,,ニホンシュッパンディーエックスコンソーシアム,0
1072,5010401192579,新規,0,2025-08-29,2025-08-29,株式会社ＢｉｏＰｈｉｌｉＱ,,株式会社,東京都,港区,赤坂１丁目３－５赤坂アビタシオンビル３Ｆ,,13,103,1070052,,,,,,,2025-08-29,1,,,,,バイオフィリック,0
1073,5010401192595,新規,0,2025-08-29,2025-08-29,株式会社パピヨン,,株式会社,東京都,港区,麻布十番３丁目２－６ライオンズマンション麻布十番第３,,13,103,1060045,,,,,,,2025-08-29,1,,,,,パピヨン,0
1074,5010401192620,新規,0,2025-08-29,2025-08-29,株式会社Ｏｙａｊｉ　Ａｏｙａｍａ,,株式会社,東京都,港区,南青山１丁目３番２３号Ｃａｓａｍｉａ１Ｆ,,13,103,1070062,,,,,,,2025-08-29,1,,,,,オヤジアオヤマ,0
1075,5010401192694,新規,0,2025-08-29,2025-08-29,株式会社ＰＬＡＹＩＯ,,株式会社,東京都,港区,南青山４丁目１８－１１フォレストヒルズイーストウィング２Ｆ,,13,103,1070062,,,,,,,2025-08-29,1,,,,,プレイオ,0
1076,5010401192760,新規,0,2025-08-29,2025-08-29,株式会社Ｃｙｎｏｒａ,,株式会社,東京都,港区,南青山７丁目１０番９－１２０３号,,13,103,1070062,,,,,,,2025-08-29,1,,,,,シノラ,0
1077,5010401192793,新規,0,2025-08-29,2025-08-29,Ｍｉｒａｉ　Ｍａｐ株式会社,,株式会社,東京都,港区,北青山１丁目３番１号アールキューブ青山３階,,13,103,1070061,,,,,,,2025-08-29,1,,,,,ミライマップ,0
1080,5010403035926,新規,0,2025-08-29,2025-08-29,ＳＣＧ８６合同会社,,合同会社,東京都,港区,虎ノ門２丁目６番１号,,13,103,1050001,,,,,,,2025-08-29,1,,,,,エスシージーエイティシックス,0
1081,5010405024670,新規,0,2025-08-29,2025-08-29,一般社団法人百名・新原ビーチ健全利用推進会,,その他の設立登記法人,東京都,港区,海岸３丁目７番１７－３０３号,,13,103,1080022,,,,,,,2025-08-29,1,,,,,ヒャクナミーバルビーチケンゼンリヨウスイシンカイ,0
1087,5010601067886,新規,0,2025-08-29,2025-08-29,ＳＡＫＵＲＡ　ＰＵＬＳＥ株式会社,,株式会社,東京都,江東区,大島５丁目５０番１３号,,13,108,1360072,,,,,,,2025-08-29,1,,,,,サクラパルス,0
1088,5010801036534,新規,0,2025-08-29,2025-08-29,Ｋｉｋｏｒａ株式会社,,株式会社,東京都,大田区,雪谷大塚町１９番６号,,13,111,1450067,,,,,,,2025-08-29,1,,,,,キコラ,0
1097,5011001171469,新規,0,2025-08-29,2025-08-29,株式会社村コンサルタント,,株式会社,東京都,目黒区,駒場１丁目４４番１４－３１３号,,13,110,1530041,,,,,,,2025-08-29,1,,,,,ムラコンサルタント,0
1098,5011001172095,新規,0,2025-08-29,2025-08-29,株式会社セブンブリッジ,,株式会社,東京都,渋谷区,神宮前３丁目１４番７号,,13,113,1500001,,,,,,,2025-08-29,1,,,,,セブンブリッジ,0
1109,5011101113040,新規,0,2025-08-29,2025-08-29,株式会社蓮華,,株式会社,東京都,新宿区,新宿５丁目１５番１号みくにビル４Ｆ,,13,104,1600022,,,,,,,2025-08-29,1,,,,,レンゲ,0
1112,5011501032501,新規,0,2025-08-29,2025-08-29,ミクニ綜合株式会社,,株式会社,東京都,荒川区,東日暮里３丁目２８番１号,,13,118,1160014,,,,,,,2025-08-29,1,,,,,ミクニソウゴウ,0
1115,5011601028928,新規,0,2025-08-29,2025-08-29,Ｖｅｌｕｘ株式会社,,株式会社,東京都,練馬区,関町北５丁目１３番２５号－Ｉ室,,13,120,1770051,,,,,,,2025-08-29,1,,,,,ベルックス,0
1119,5011701028679,新規,0,2025-08-29,2025-08-29,ＭｅｇａＵｎｉ株式会社,,株式会社,東京都,江戸川区,東小岩６丁目３３－１８東小岩ＺＫＹビル１０６号,,13,123,1330052,,,,,,,2025-08-29,1,,,,,メガユニ,0
1122,5012803003842,新規,0,2025-08-29,2025-08-29,合同会社Ｋ２,,合同会社,東京都,立川市,柴崎町４丁目６番１９号,,13,202,1900023,,,,,,,2025-08-29,1,,,,,ケイツー,0
1129,5020001164548,新規,0,2025-08-29,2025-08-29,株式会社Ｆｏｒｔｕｎｉｔｙ,,株式会社,神奈川県,横浜市中区,北仲通５丁目５７番地２ザ・タワー横浜北仲３５２１号室,,14,104,2310003,,,,,,,2025-08-29,1,,,,,フォーチュニティー,0
1133,5020003029237,新規,0,2025-08-29,2025-08-29,合同会社上原興業,,合同会社,神奈川県,横浜市緑区,西八朔町３８ハイツセイミヤ２０２,,14,113,2260024,,,,,,,2025-08-29,1,,,,,ウエハラコウギョウ,0
1143,5030001168333,新規,0,2025-08-29,2025-08-29,株式会社Ｓｅｉｋｏｕ　Ｌｉｎ,,株式会社,埼玉県,越谷市,大字袋山１２３９番地１ｍｏｌｔｉ袋山ＩＩ１０３,00140452,11,222,3430032,,,,,,,2025-08-29,1,,,,,セイコウリン,0
1144,5030001168374,新規,0,2025-08-29,2025-08-29,株式会社ＮＯＤＡ,,株式会社,埼玉県,川口市,東領家２丁目２番１０号,,11,203,3320003,,,,,,,2025-08-29,1,,,,,ノダ,0
1149,5030003027479,新規,0,2025-08-29,2025-08-29,合同会社創心工業,,合同会社,埼玉県,川口市,大字安行吉蔵２８７番地の９,,11,203,3340053,,,,,,,2025-08-29,1,,,,,ソウシンコウギョウ,0
1150,5030005022255,新規,0,2025-08-29,2025-08-29,一般社団法人人材支援機構,,その他の設立登記法人,埼玉県,さいたま市浦和区,常盤５丁目９番１号,,11,107,3300061,,,,,,,2025-08-29,1,,,,,ジンザイシエンキコウ,0
1157,5040003028435,新規,0,2025-08-29,2025-08-29,合同会社ＭＩＲＡＲＩＡ,,合同会社,千葉県,東金市,日吉台３丁目３６番地８,,12,213,2830803,,,,,,,2025-08-29,1,,,,,ミラリア,0
1162,5050001057170,新規,0,2025-08-29,2025-08-29,株式会社ＳＡＫＵＲＡ,,株式会社,茨城県,坂東市,上出島８８５番地１,,08,228,3060654,,,,,,,2025-08-29,1,,,,,サクラ,0
1168,5060001038533,新規,0,2025-08-29,2025-08-29,株式会社ＡｍＴ,,株式会社,栃木県,足利市,葉鹿町１丁目８番地３３,,09,202,3260143,,,,,,,2025-08-29,1,,,,,エーエムティー,0
1173,5080401028140,新規,0,2025-08-29,2025-08-29,ＯＴＫ株式会社,,株式会社,静岡県,掛川市,吉岡１０８８番地の２１,,22,213,4360115,,,,,,,2025-08-29,1,,,,,オーティーケー,0
1181,5100001038900,新規,0,2025-08-29,2025-08-29,ｍｅｔ株式会社,,株式会社,長野県,下高井郡山ノ内町,大字夜間瀬７０８３番地３,,20,561,3810405,,,,,,,2025-08-29,1,,,,,メート,0
1195,5120001279278,新規,0,2025-08-29,2025-08-29,竜梅株式会社,,株式会社,大阪府,大阪市西成区,津守１丁目６番３２号,,27,122,5570062,,,,,,,2025-08-29,1,,,,,リュウマイ,0
1200,5120003030399,新規,0,2025-08-29,2025-08-29,ウォートン・テクノロジーズ・ジャパン合同会社,,合同会社,大阪府,大阪市西成区,萩之茶屋２丁目６番４号ニューかめや２３６号室,,27,122,5570004,,,,,,,2025-08-29,1,,,,,ウォートンテクノロジーズジャパン,0
1201,5120003030457,新規,0,2025-08-29,2025-08-29,ＤＮ合同会社,,合同会社,大阪府,大阪市浪速区,恵美須西１丁目４番２１号,,27,111,5560003,,,,,,,2025-08-29,1,,,,,ディーエヌ,0
1202,5120005025133,新規,0,2025-08-29,2025-08-29,一般社団法人ガンバ門真,,その他の設立登記法人,大阪府,門真市,幸福町２７番１０号,,27,223,5710066,,,,,,,2025-08-29,1,,,,,ガンバカドマ,0
1211,5122001039595,新規,0,2025-08-29,2025-08-29,株式会社Ｗｅｌｄ　Ｌｉｆｅ,,株式会社,大阪府,八尾市,太田新町４丁目３５,,27,212,5810039,,,,,,,2025-08-29,1,,,,,ウェルドライフ,0
1216,5130003010714,新規,0,2025-08-29,2025-08-29,Ｋｕｙａｎｉ合同会社,,合同会社,京都府,京都市上京区,堀川通寺之内上る２丁目下天神町６４６番地１ジョイフル紫野４０１,,26,102,6020074,,,,,,,2025-08-29,1,,,,,クヤニ,0
1221,5140001139827,新規,0,2025-08-29,2025-08-29,株式会社Ｓｌｏｏｐ,,株式会社,兵庫県,神戸市中央区,若菜通４丁目２－４ＮＫラポート１０１,,28,110,6510091,,,,,,,2025-08-29,1,,,,,スループ,0
1223,5140003022510,新規,0,2025-08-29,2025-08-29,合同会社データビジョン,,合同会社,兵庫県,神戸市灘区,摩耶海岸通１丁目１番１－５０７号,,28,102,6570855,,,,,,,2025-08-29,1,,,,,データビジョン,0
1226,5140005027615,新規,0,2025-08-29,2025-08-29,一般社団法人縁日地域振興協会,,その他の設立登記法人,兵庫県,三木市,加佐１０１５番地の１０,,28,215,6730402,,,,,,,2025-08-29,1,,,,,エンニチチイキシンコウキョウカイ,0
1229,5160001027014,新規,0,2025-08-29,2025-08-29,豊本貿易株式会社,,株式会社,滋賀県,彦根市,肥田町９８１－１－２０４号室,,25,202,5211123,,,,,,,2025-08-29,1,,,,,トヨモトボウエキ,0
1230,5160001027022,新規,0,2025-08-29,2025-08-29,株式会社アーヴァントセーフティ,,株式会社,滋賀県,大津市,大萱１丁目１３番１３号（３０２）,,25,201,5202144,,,,,,,2025-08-29,1,,,,,アーヴァントセーフティ,0
1240,5180003028941,新規,0,2025-08-29,2025-08-29,合同会社Ｐｌａｃｅ　Ａｒｃ,,合同会社,愛知県,一宮市,多加木４丁目３２番１４号,,23,203,4910837,,,,,,,2025-08-29,1,,,,,プレイスアーク,0
1246,5190003005155,新規,0,2025-08-29,2025-08-29,合同会社三匡,,合同会社,三重県,亀山市,みずほ台１４番地３９９,,24,210,5190105,,,,,,,2025-08-29,1,,,,,サンキョウ,0
1247,5200001044161,新規,0,2025-08-29,2025-08-29,株式会社よこづな,,株式会社,岐阜県,多治見市,笠原町１６４７番地の１,,21,204,5070901,,,,,,,2025-08-29,1,,,,,ヨコヅナ,0
1248,5200001044178,新規,0,2025-08-29,2025-08-29,株式会社マリー,,株式会社,岐阜県,岐阜市,柳津町蓮池６丁目７８番地,,21,201,5016103,,,,,,,2025-08-29,1,,,,,マリー,0
1250,5210001020293,新規,0,2025-08-29,2025-08-29,株式会社ＫＡＴＯ　ＢＬＡＤＥ,,株式会社,福井県,越前市,武生柳町８番２１号,,18,209,9150824,,,,,,,2025-08-29,1,,,,,カトウブレード,0
1258,5240001065419,新規,0,2025-08-29,2025-08-29,株式会社Ｍｏｌｌｙ　Ｂａｓｅ,,株式会社,広島県,福山市,新涯町１丁目７番９号,,34,207,7210955,,,,,,,2025-08-29,1,,,,,モーリーベイス,0
1260,5250003003805,新規,0,2025-08-29,2025-08-29,合同会社ＡＧＲＩＮＩＴＹ,,合同会社,山口県,下関市,豊北町大字北宇賀２８５番地,,35,201,7595513,,,,,,,2025-08-29,1,,,,,アグリニティ,0
1262,5260001040493,新規,0,2025-08-29,2025-08-29,株式会社ひかり工房,,株式会社,岡山県,総社市,山田１７９１番地,,33,208,7101202,,,,,,,2025-08-29,1,,,,,ヒカリコウボウ,0
1274,5290005019820,新規,0,2025-08-29,2025-08-29,一般社団法人妊活・マタニティと女性のためのトータルケア協会,,その他の設立登記法人,福岡県,太宰府市,御笠１丁目２番１６号,,40,221,8180110,,,,,,,2025-08-29,1,,,,,ニンカツマタニティトジョセイノタメノトータルケアキョウカイ,0
1276,5320001021306,新規,0,2025-08-29,2025-08-29,株式会社音,,株式会社,大分県,大分市,大字荏隈１８４９番地の７９,,44,201,8700889,,,,,,,2025-08-29,1,,,,,オト,0
1277,5330001033515,新規,0,2025-08-29,2025-08-29,株式会社豆助アルシオ,,株式会社,熊本県,熊本市中央区,花畑町一丁目１４番Ａ＆Ｍ・ＨＡＮＡＢＡＴＡ３０１号,,43,101,8600806,,,,,,,2025-08-29,1,,,,,マメスケアルシオ,0
1283,5350001019710,新規,0,2025-08-29,2025-08-29,株式会社ひなたテーブル,,株式会社,宮崎県,宮崎市,東宮２丁目４７番地,,45,201,8800928,,,,,,,2025-08-29,1,,,,,ヒナタテーブル,0
1284,5360001035665,新規,0,2025-08-29,2025-08-29,Ｓａｋｈｒａｎｉ　Ｅｓｔａｔｅｓ株式会社,,株式会社,沖縄県,中頭郡北谷町,北谷２丁目８－４ＹｏｕｒｓＭａｎｓｉｏｎ１０１,,47,326,9040116,,,,,,,2025-08-29,1,,,,,サクラニエステーツ,0
1285,5360001035698,新規,0,2025-08-29,2025-08-29,クガニファシリティーズ株式会社,,株式会社,沖縄県,国頭郡本部町,字渡久地１４１番地１,,47,308,9050214,,,,,,,2025-08-29,1,,,,,クガニファシリティーズ,0
1287,5360003015203,新規,0,2025-08-29,2025-08-29,合同会社発想リリー,,合同会社,沖縄県,宜野湾市,真栄原２丁目１５番－２９号,,47,205,9012215,,,,,,,2025-08-29,1,,,,,ハッソウリリー,0
1289,5370001052981,新規,0,2025-08-29,2025-08-29,株式会社アグリＬジャパン,,株式会社,宮城県,栗原市,若柳字川南二又２６０番地,,04,213,9895502,,,,,,,2025-08-29,1,,,,,アグリエールジャパン,0
1290,5370003007265,新規,0,2025-08-29,2025-08-29,合同会社プライベートパブリック,,合同会社,宮城県,仙台市青葉区,北目町２番２８－３０２号,,04,101,9800023,,,,,,,2025-08-29,1,,,,,プライベートパブリック,0
1294,5380003006118,新規,0,2025-08-29,2025-08-29,合同会社Ｂｒａｖｅ,,合同会社,福島県,いわき市,小名浜大原字富岡前２番地の３９,,07,204,9718111,,,,,,,2025-08-29,1,,,,,ブレイブ,0
1295,5390001018089,新規,0,2025-08-29,2025-08-29,加藤住建株式会社,,株式会社,山形県,東根市,大字蟹沢２１１０番地６１,,06,211,9993716,,,,,,,2025-08-29,1,,,,,カトウジュウケン,0
1297,5400001017155,新規,0,2025-08-29,2025-08-29,株式会社シンシアサービス,,株式会社,岩手県,滝沢市,大崎２０８番地２５,,03,216,0200621,,,,,,,2025-08-29,1,,,,,シンシアサービス,0
1302,5410001014259,新規,0,2025-08-29,2025-08-29,Ｎｅｘｕｓ　Ａｒｃｈ　Ｃｒｅａｔｅ株式会社,,株式会社,秋田県,横手市,中央町６番４３号,,05,203,0130023,,,,,,,2025-08-29,1,,,,,ネクサスアーチクリエイト,0
1303,5410005006657,新規,0,2025-08-29,2025-08-29,一般社団法人白神の環地域共生協議会,,その他の設立登記法人,秋田県,能代市,朴瀬字宇藤台１９０番地６,,05,202,0160002,,,,,,,2025-08-29,1,,,,,シラカミノワチイキキョウセイキョウギカイ,0
1304,5420001019240,新規,0,2025-08-29,2025-08-29,Ｂｅｓｍｉｌｅ　Ｆａｃｔｏｒｙ株式会社,,株式会社,青森県,八戸市,城下４丁目１４－３８,,02,203,0310072,,,,,,,2025-08-29,1,,,,,ビースマイルファクトリー,0
1308,5430003018033,新規,0,2025-08-29,2025-08-29,Ｌａ　ｒｏｓａ　ａｚｕｌ合同会社,,合同会社,北海道,札幌市白石区,北郷八条７丁目１０番２１号,,01,104,0030838,,,,,,,2025-08-29,1,,,,,ラロサアスル,0
1312,5500001026484,新規,0,2025-08-29,2025-08-29,みつば商会株式会社,,株式会社,愛媛県,松山市,保免中１丁目５番６号,,38,201,7900042,,,,,,,2025-08-29,1,,,,,ミツバショウカイ,0
1318,6010001257624,新規,0,2025-08-29,2025-08-29,株式会社三宅,,株式会社,東京都,千代田区,神田三崎町３丁目７番１３号三大ビル２階,,13,101,1010061,,,,,,,2025-08-29,1,,,,,ミヤケ,0
1321,6010003048410,新規,0,2025-08-29,2025-08-29,武蔵合同会社,,合同会社,東京都,千代田区,丸の内１丁目８－３丸の内トラストタワー本館２０階,,13,101,1000005,,,,,,,2025-08-29,1,,,,,ムサシ,0
1322,6010003048542,新規,0,2025-08-29,2025-08-29,Ｒｅｄ１７Ｃａｔ合同会社,,合同会社,東京都,中央区,銀座１丁目１２番４号Ｎ＆ＥＢＬＤ．６Ｆ,,13,102,1040061,,,,,,,2025-08-29,1,,,,,レッドセブンティーンキャット,0
1323,6010005040596,新規,0,2025-08-29,2025-08-29,医療法人社団ＴＥＲＲＡ,,その他の設立登記法人,東京都,千代田区,大手町１丁目２番１ＯｔｅｍａｃｈｉＯｎｅＢ１ＦＢ１０２－１号室,,13,101,1000004,,,,,,,2025-08-29,1,,,,,テラ,0
1333,6010401192553,新規,0,2025-08-29,2025-08-29,ひかるラボ株式会社,,株式会社,東京都,港区,浜松町２丁目２番１５号浜松町ダイヤビル２Ｆ,,13,103,1050013,,,,,,,2025-08-29,1,,,,,ヒカルラボ,0
1334,6010401192611,新規,0,2025-08-29,2025-08-29,株式会社ＨａＳｅＲｕ,,株式会社,東京都,港区,高輪３丁目１０－２グラスプラス高輪,,13,103,1080074,,,,,,,2025-08-29,1,,,,,ハセル,0
1335,6010401192660,新規,0,2025-08-29,2025-08-29,エブリホールディングス株式会社,,株式会社,東京都,港区,虎ノ門１丁目１６番１６号,,13,103,1050001,,,,,,,2025-08-29,1,,,,,エブリホールディングス,0
1336,6010401192669,新規,0,2025-08-29,2025-08-29,株式会社Ｌａ　Ｒｏｊａ,,株式会社,東京都,港区,南青山２丁目２２番１９号,,13,103,1070062,,,,,,,2025-08-29,1,,,,,ラロハ,0
1337,6010401192693,新規,0,2025-08-29,2025-08-29,ハクビエンタテイメント株式会社,,株式会社,東京都,港区,虎ノ門１丁目１５番１０号名和ビル４階,,13,103,1050001,,,,,,,2025-08-29,1,,,,,ハクビエンタテイメント,0
1338,6010401192719,新規,0,2025-08-29,2025-08-29,株式会社ＭＡＸマネジメントコーポレーション,,株式会社,東京都,港区,北青山１丁目３－１アールキューブ青山３Ｆ,,13,103,1070061,,,,,,,2025-08-29,1,,,,,マックスマネジメントコーポレーション,0
1339,6010403035900,新規,0,2025-08-29,2025-08-29,合同会社Ｌａｃｒｏｓｓｅ　Ｎａｔｉｏｎ,,合同会社,東京都,港区,西麻布３丁目７番９号,,13,103,1060031,,,,,,,2025-08-29,1,,,,,ラクロスネーション,0
1340,6010403035925,新規,0,2025-08-29,2025-08-29,ＹＴＨ合同会社,,合同会社,東京都,港区,北青山１丁目４－５ＶＯＲＴ青山一丁目Ｄｕａｌ’ｓ１１０１号室,,13,103,1070061,,,,,,,2025-08-29,1,,,,,ワイティーエイチ,0
1341,6010403035933,新規,0,2025-08-29,2025-08-29,ＭＳＴトラスト合同会社,,合同会社,東京都,港区,西麻布３丁目２番２６－２０１号,,13,103,1060031,,,,,,,2025-08-29,1,,,,,エムエスティートラスト,0
1343,6010405024629,新規,0,2025-08-29,2025-08-29,一般社団法人日本米食推進協会,,その他の設立登記法人,東京都,港区,北青山１丁目３番１号アールキューブ青山３階,,13,103,1070061,,,,,,,2025-08-29,1,,,,,ニホンベイショクスイシンキョウカイ,0
1344,6010405024711,新規,0,2025-08-29,2025-08-29,ＳＣＧ８８一般社団法人,,その他の設立登記法人,東京都,港区,虎ノ門２丁目６番１号,,13,103,1050001,,,,,,,2025-08-29,1,,,,,エスシージーエイティエイト,0
1347,6010501054645,新規,0,2025-08-29,2025-08-29,高山株式会社,,株式会社,東京都,台東区,浅草橋２丁目１４番４号,,13,106,1110053,,,,,,,2025-08-29,1,,,,,,0
1351,6010601067893,新規,0,2025-08-29,2025-08-29,株式会社よりそい,,株式会社,東京都,江東区,北砂５丁目１７―１６―３１４,,13,108,1360073,,,,,,,2025-08-29,1,,,,,ヨリソイ,0
1352,6010603011750,新規,0,2025-08-29,2025-08-29,合同会社２４６ｖｏｌ．１,,合同会社,東京都,墨田区,本所４丁目８－７－３０３ドゥエル本所,,13,107,1300004,,,,,,,2025-08-29,1,,,,,ニーヨンロクボリュームワン,0
1356,6010901057990,新規,0,2025-08-29,2025-08-29,株式会社エスメディカルリンク,,株式会社,東京都,世田谷区,豪徳寺１丁目４６番１５号Ｂ１Ｆ,,13,112,1540021,,,,,,,2025-08-29,1,,,,,エスメディカルリンク,0
1357,6010901057999,新規,0,2025-08-29,2025-08-29,株式会社三協エステート,,株式会社,東京都,世田谷区,三軒茶屋２丁目９－１５ＴＣＫビル３Ｆ,,13,112,1540024,,,,,,,2025-08-29,1,,,,,サンキョウエステート,0
1360,6011001171815,新規,0,2025-08-29,2025-08-29,コゼ・アートプロダクション株式会社,,株式会社,東京都,渋谷区,道玄坂１丁目１６番６号二葉ビル８ｂ,,13,113,1500043,,,,,,,2025-08-29,1,,,,,コゼアートプロダクション,0
1364,6011101112801,新規,0,2025-08-29,2025-08-29,オフィスブラザーズ株式会社,,株式会社,東京都,新宿区,神楽坂２丁目１３番２号ホームズ飯田３０３号室,,13,104,1620825,,,,,,,2025-08-29,1,,,,,オフィスブラザーズ,0
1365,6011101112818,新規,0,2025-08-29,2025-08-29,ＡＢＢＥＹ　ＲＯＡＤ株式会社,,株式会社,東京都,新宿区,富久町１１番５号シャトレ市ヶ谷１０５,,13,104,1620067,,,,,,,2025-08-29,1,,,,,アビーロード,0
1366,6011101112826,新規,0,2025-08-29,2025-08-29,株式会社洋樽本家酒造,,株式会社,東京都,新宿区,北新宿４丁目１７番１号,,13,104,1690074,,,,,,,2025-08-29,1,,,,,ヨウタルホンケシュゾウ,0
1367,6011101113056,新規,0,2025-08-29,2025-08-29,ＵｎｉｔｅＤ株式会社,,株式会社,東京都,新宿区,南元町２０番地３－４１３号,,13,104,1600012,,,,,,,2025-08-29,1,,,,,ユナイテッド,0
1369,6011301030828,新規,0,2025-08-29,2025-08-29,ＯＮＴＯ株式会社,,株式会社,東京都,杉並区,阿佐谷北１丁目３３番１６号マルコせいさく所,,13,115,1660001,,,,,,,2025-08-29,1,,,,,オント,0
1371,6011501032467,新規,0,2025-08-29,2025-08-29,ＬｉｎｋＳｐｈｅｒｅ株式会社,,株式会社,東京都,荒川区,荒川５丁目１８番１－９０２号,,13,118,1160002,,,,,,,2025-08-29,1,,,,,リンクスフィア,0
1374,6011601028943,新規,0,2025-08-29,2025-08-29,株式会社Ｇｌｅｎｔｏｒｉ,,株式会社,東京都,練馬区,春日町６丁目１６－１１フォーチュン光が丘２３５号室,,13,120,1790074,,,,,,,2025-08-29,1,,,,,グレントリ,0
1375,6011603004819,新規,0,2025-08-29,2025-08-29,グリーンメガソーラー合同会社,,合同会社,東京都,練馬区,石神井町４丁目１２番２８号,,13,120,1770041,,,,,,,2025-08-29,1,,,,,グリーンメガソーラー,0
1378,6011801046662,新規,0,2025-08-29,2025-08-29,株式会社Ｔｗｅｎｔｙｔｈｒｅｅ　Ｈｏｌｄｉｎｇｓ,,株式会社,東京都,足立区,千住寿町１７番４号ＴｏｐＬａｎｄ千住寿町３０１,,13,121,1200033,,,,,,,2025-08-29,1,,,,,トウェンティスリーホールディングス,0
1385,6012801024195,新規,0,2025-08-29,2025-08-29,株式会社三友エステート,,株式会社,東京都,日野市,豊田３丁目３３番地の８,,13,212,1910053,,,,,,,2025-08-29,1,,,,,ミトモエステート,0
1400,6020003029260,新規,0,2025-08-29,2025-08-29,合同会社サントラスト,,合同会社,神奈川県,横浜市神奈川区,羽沢南４丁目１２番８号,,14,102,2210866,,,,,,,2025-08-29,1,,,,,サントラスト,0
1404,6021001086038,新規,0,2025-08-29,2025-08-29,株式会社Ｂｅｌｌ　Ｓｍｉｌｅ,,株式会社,神奈川県,横須賀市,大矢部５丁目１３番１３号,,14,201,2380024,,,,,,,2025-08-29,1,,,,,,0
1405,6021001086145,新規,0,2025-08-29,2025-08-29,株式会社シナジーヘアー,,株式会社,神奈川県,厚木市,中町３丁目１２番３号藍田ビル４階Ｂ号室,,14,212,2430018,,,,,,,2025-08-29,1,,,,,シナジーヘアー,0
1406,6021001086178,新規,0,2025-08-29,2025-08-29,ＪＣＮ株式会社,,株式会社,神奈川県,海老名市,社家５丁目２－３６,,14,215,2430424,,,,,,,2025-08-29,1,,,,,ジェーシーエヌ,0
1411,6021003016463,新規,0,2025-08-29,2025-08-29,合同会社大弥,,合同会社,神奈川県,相模原市中央区,高根２丁目１４番１９－３号,,14,152,2520221,,,,,,,2025-08-29,1,,,,,ダイヤ,0
1412,6021003016505,新規,0,2025-08-29,2025-08-29,合同会社建築テクノラボ,,合同会社,神奈川県,大和市,福田７丁目１１番地３,,14,213,2420024,,,,,,,2025-08-29,1,,,,,ケンチクテクノラボ,0
1427,6040003028368,新規,0,2025-08-29,2025-08-29,合同会社Ａｗａｎ　Ｔｒａｄｉｎｇ,,合同会社,千葉県,印西市,小林２４９１番地１天壇荘１０２号,,12,231,2701318,,,,,,,2025-08-29,1,,,,,アワントレーディング,0
1432,6060001038532,新規,0,2025-08-29,2025-08-29,ユアセイク株式会社,,株式会社,栃木県,那須塩原市,北弥六３５３番地４０,,09,213,3293132,,,,,,,2025-08-29,1,,,,,ユアセイク,0
1434,6070001043291,新規,0,2025-08-29,2025-08-29,株式会社ネクスプロ,,株式会社,群馬県,前橋市,堀越町９８９番地２７,,10,201,3710231,,,,,,,2025-08-29,1,,,,,ネクスプロ,0
1438,6080003003540,新規,0,2025-08-29,2025-08-29,合同会社いろはの樹,,合同会社,静岡県,焼津市,焼津２丁目８番２号,,22,212,4250026,,,,,,,2025-08-29,1,,,,,イロハノキ,0
1444,6100005013386,新規,0,2025-08-29,2025-08-29,一般社団法人Ｗｅｌｌｎｅｓｔ　Ｌｉｎｋｓ,,その他の設立登記法人,長野県,飯田市,大通２丁目２１８番地２,,20,205,3950056,,,,,,,2025-08-29,1,,,,,ウェルネストリンクス,0
1445,6110001039525,新規,0,2025-08-29,2025-08-29,株式会社リフト,,株式会社,新潟県,新潟市江南区,天野５９９番地３５,,15,104,9501134,,,,,,,2025-08-29,1,,,,,リフト,0
1452,6120002004543,新規,0,2025-08-29,2025-08-29,テエケエテンポラリー有限会社,,有限会社,大阪府,大阪市都島区,大東町１丁目６４番５号,,27,102,5340002,,,,,,,2025-08-29,1,,,,,テエケエテンポラリー,0
1456,6120003030398,新規,0,2025-08-29,2025-08-29,喜馬拉雅合同会社,,合同会社,大阪府,大阪市西成区,萩之茶屋２丁目６番４号ニューかめや２３５号室,,27,122,5570004,,,,,,,2025-08-29,1,,,,,ヒマラヤ,0
1470,6120901051421,新規,0,2025-08-29,2025-08-29,ＹＦ　ＶＩＴＡ株式会社,,株式会社,大阪府,豊中市,熊野町４丁目１０番地５号アドラブール１０２号室,,27,203,5600014,,,,,,,2025-08-29,1,,,,,ワイエフヴィタ,0
1477,6140001139818,新規,0,2025-08-29,2025-08-29,株式会社Ｌｅｘ　ｍｏｒｅ,,株式会社,兵庫県,西宮市,六湛寺町９番３１号エクセレント六湛寺ビル・ＵＲＩＯＦＦＩＣＥ４０２号室,,28,204,6620918,,,,,,,2025-08-29,1,,,,,レクスモア,0
1478,6140001139834,新規,0,2025-08-29,2025-08-29,株式会社ｃｈｒｏｖｉａ,,株式会社,兵庫県,尼崎市,南武庫之荘３丁目２４番２０号,,28,202,6610033,,,,,,,2025-08-29,1,,,,,クローヴィア,0
1479,6140001139842,新規,0,2025-08-29,2025-08-29,株式会社神戸ブリーディングファーム,,株式会社,兵庫県,小野市,小田町２０３３番地,,28,218,6751301,,,,,,,2025-08-29,1,,,,,コウベブリーディングファーム,0
1485,6150001028359,新規,0,2025-08-29,2025-08-29,株式会社晴天創業,,株式会社,奈良県,北葛城郡広陵町,大字百済１０７３－１,,29,426,6350813,,,,,,,2025-08-29,1,,,,,セイテンソウギョウ,0
1487,6160001027013,新規,0,2025-08-29,2025-08-29,株式会社ＫＩ‐ＴＥ,,株式会社,滋賀県,大津市,石山寺２丁目１９番１５号,,25,201,5200861,,,,,,,2025-08-29,1,,,,,キート,0
1488,6160001027021,新規,0,2025-08-29,2025-08-29,株式会社シンエイ,,株式会社,滋賀県,近江八幡市,浅小井町４４４番地,,25,204,5230817,,,,,,,2025-08-29,1,,,,,シンエイ,0
1494,6180001168359,新規,0,2025-08-29,2025-08-29,株式会社ネクシード,,株式会社,愛知県,一宮市,伝法寺５丁目１３番１３の２,,23,203,4910828,,,,,,,2025-08-29,1,,,,,ネクシード,0
1498,6180003028908,新規,0,2025-08-29,2025-08-29,ＬａＢｏ合同会社,,合同会社,愛知県,名古屋市中村区,名駅４丁目２４番５号第２森ビル４０１,,23,105,4500002,,,,,,,2025-08-29,1,,,,,ラボ,0
1506,6240001065434,新規,0,2025-08-29,2025-08-29,株式会社Ａｘｉｓ　Ｃｏｎｓｕｌｔｉｎｇ,,株式会社,広島県,福山市,箕島町５２６８番地１８,,34,207,7210957,,,,,,,2025-08-29,1,,,,,アクシスコンサルティング,0
1508,6250005009023,新規,0,2025-08-29,2025-08-29,ＢＩＺＡＲＱ行政書士法人,,その他の設立登記法人,山口県,宇部市,常盤町２丁目１番２８号常盤町ビル２階,,35,202,7550031,,,,,,,2025-08-29,1,,,,,ビズアーク,0
1513,6260003005312,新規,0,2025-08-29,2025-08-29,里山ｄｒａｇｏｎ合同会社,,合同会社,岡山県,美作市,上山３６７０番地,,33,215,7012614,,,,,,,2025-08-29,1,,,,,サトヤマドラゴン,0
1514,6270001009272,新規,0,2025-08-29,2025-08-29,株式会社丸六組,,株式会社,鳥取県,境港市,夕日ヶ丘２丁目１５６番地２,,31,204,6840076,,,,,,,2025-08-29,1,,,,,マルロクグミ,0
1516,6280003001986,新規,0,2025-08-29,2025-08-29,合同会社ＢＤＴＢ,,合同会社,島根県,益田市,かもしま東町１３－１７,,32,204,6980046,,,,,,,2025-08-29,1,,,,,ビーディーティービー,0
1520,6290001111217,新規,0,2025-08-29,2025-08-29,株式会社城正,,株式会社,福岡県,春日市,千歳町３丁目２０－１０２,,40,218,8160805,,,,,,,2025-08-29,1,,,,,ジョウセイ,0
1521,6290001111241,新規,0,2025-08-29,2025-08-29,ＳＵＮ　ＡＮＤ　ＭＯＯＮ株式会社,,株式会社,福岡県,福岡市中央区,天神２丁目２番１２号Ｔ＆Ｊビルディング７Ｆ,,40,133,8100001,,,,,,,2025-08-29,1,,,,,サンアンドムーン,0
1524,6290003017321,新規,0,2025-08-29,2025-08-29,合同会社ＹＨＭＲ,,合同会社,福岡県,福岡市南区,大橋４丁目８番１２－６０６号,,40,134,8150033,,,,,,,2025-08-29,1,,,,,ワイエイチエムアール,0
1525,6290003017346,新規,0,2025-08-29,2025-08-29,ＦＫＤ合同会社,,合同会社,福岡県,福岡市中央区,今川１丁目２５番２６－３０３号メゾンシレンス大濠,,40,133,8100054,,,,,,,2025-08-29,1,,,,,エフケーディー,0
1529,6310003005075,新規,0,2025-08-29,2025-08-29,ｓｏｕｆｆｌｅｒ合同会社,,合同会社,長崎県,大村市,富の原１丁目１２３１番地１８,,42,205,8560806,,,,,,,2025-08-29,1,,,,,スフレ,0
1537,6350003005014,新規,0,2025-08-29,2025-08-29,合同会社国志,,合同会社,宮崎県,都城市,山之口町富吉２９８６－２９,,45,202,8891801,,,,,,,2025-08-29,1,,,,,コクシ,0
1542,6360001035706,新規,0,2025-08-29,2025-08-29,栄和株式会社,,株式会社,沖縄県,中頭郡北谷町,伊平１丁目１３番１４号プレミスト北谷伊平Ｓｅａ＆Ｆｏｒｅｓｔ６０７,,47,326,9040102,,,,,,,2025-08-29,1,,,,,エイワ,0
1549,6370003007264,新規,0,2025-08-29,2025-08-29,ＹＳｃｏｍｍｅｒｃｅ合同会社,,合同会社,宮城県,仙台市青葉区,昭和町５番１３号,,04,101,9810913,,,,,,,2025-08-29,1,,,,,ワイエスコマース,0
1559,6390001018088,新規,0,2025-08-29,2025-08-29,株式会社紅企画,,株式会社,山形県,酒田市,宮野浦２丁目１８番７号,,06,204,9980054,,,,,,,2025-08-29,1,,,,,クレナイキカク,0
1561,6400001017154,新規,0,2025-08-29,2025-08-29,株式会社セイコウホーム,,株式会社,岩手県,一関市,末広１丁目７番２９号,,03,209,0210032,,,,,,,2025-08-29,1,,,,,セイコウホーム,0
1569,6450001014717,新規,0,2025-08-29,2025-08-29,株式会社アンカー,,株式会社,北海道,旭川市,春光六条３丁目３番３号,,01,204,0700876,,,,,,,2025-08-29,1,,,,,アンカー,0
1570,6450003002711,新規,0,2025-08-29,2025-08-29,合同会社Ｋ,,合同会社,北海道,旭川市,一条通２３丁目１１１番地２５館脇ビル第一２Ｆ,,01,204,0788211,,,,,,,2025-08-29,1,,,,,ケー,0
1572,6460103001736,新規,0,2025-08-29,2025-08-29,合同会社Ｋエンジニア,,合同会社,北海道,帯広市,西二十五条南２丁目１９番地１,,01,207,0802475,,,,,,,2025-08-29,1,,,,,ケイエンジニア,0
1575,6470003002965,新規,0,2025-08-29,2025-08-29,合同会社なごみ,,合同会社,香川県,高松市,国分寺町新居１６５４番地２,,37,201,7690101,,,,,,,2025-08-29,1,,,,,ナゴミ,0
1590,7010001257706,新規,0,2025-08-29,2025-08-29,ひのたかみ株式会社,,株式会社,東京都,中央区,銀座１丁目１２番４号,,13,102,1040061,,,,,,,2025-08-29,1,,,,,ヒノタカミ,0
1593,7010101016821,新規,0,2025-08-29,2025-08-29,株式会社三木芸術,,株式会社,東京都,八王子市,子安町１丁目４８番９号２０２号室,,13,201,1920904,,,,,,,2025-08-29,1,,,,,ミキゲイジュツ,0
1596,7010401192619,新規,0,2025-08-29,2025-08-29,株式会社ＡＵＲＯ,,株式会社,東京都,港区,六本木４丁目８－７,,13,103,1060032,,,,,,,2025-08-29,1,,,,,アウロ,0
1597,7010401192651,新規,0,2025-08-29,2025-08-29,株式会社室木商社,,株式会社,東京都,港区,元赤坂１丁目２番７号赤坂Ｋ‐ＴＯＷＥＲ４階,,13,103,1070051,,,,,,,2025-08-29,1,,,,,ムロキショウシャ,0
1598,7010401192676,新規,0,2025-08-29,2025-08-29,株式会社Ｄａｔａｔｅａｍ,,株式会社,東京都,港区,南麻布３丁目２０－１Ｄａｉｗａ麻布テラス５Ｆ,,13,103,1060047,,,,,,,2025-08-29,1,,,,,データチーム,0
1599,7010401192750,新規,0,2025-08-29,2025-08-29,株式会社ＥｖｅｒＧｒｏｗ,,株式会社,東京都,港区,芝公園１丁目１番１３号１階,,13,103,1050011,,,,,,,2025-08-29,1,,,,,エバーグロウ,0
1600,7010401192791,新規,0,2025-08-29,2025-08-29,ＴＸＣ株式会社,,株式会社,東京都,港区,六本木３丁目１６番１２号六本木ＫＳビル５Ｆ,,13,103,1060032,,,,,,,2025-08-29,1,,,,,ティーエックスシー,0
1604,7010403035882,新規,0,2025-08-29,2025-08-29,合同会社ミートマニアジャパン,,合同会社,東京都,港区,麻布台１丁目１１番１０号日総第２２ビル４０４,,13,103,1060041,,,,,,,2025-08-29,1,,,,,ミートマニアジャパン,0
1605,7010403035890,新規,0,2025-08-29,2025-08-29,合同会社Ｍａｒｉｇｏｌｄ,,合同会社,東京都,港区,六本木１丁目９番１０号アークヒルズ仙石山森タワー４０階,,13,103,1060032,,,,,,,2025-08-29,1,,,,,マリーゴールド,0
1606,7010403035916,新規,0,2025-08-29,2025-08-29,産業保健とこころのオフィス合同会社,,合同会社,東京都,港区,東麻布２丁目２８番１号,,13,103,1060044,,,,,,,2025-08-29,1,,,,,サンギョウホケントココロノオフィス,0
1607,7010403035924,新規,0,2025-08-29,2025-08-29,合同会社夏冬,,合同会社,東京都,港区,芝２丁目３番２１号花芝園ハイツ別館１Ｆ,,13,103,1050014,,,,,,,2025-08-29,1,,,,,カトウ,0
1612,7010405024628,新規,0,2025-08-29,2025-08-29,一般社団法人ＨＤＧ４４,,その他の設立登記法人,東京都,港区,虎ノ門３丁目２２番１０－２０１号,,13,103,1050001,,,,,,,2025-08-29,1,,,,,エイチディージーフォーフォー,0
1613,7010405024710,新規,0,2025-08-29,2025-08-29,ＳＣＧ８７一般社団法人,,その他の設立登記法人,東京都,港区,虎ノ門２丁目６番１号,,13,103,1050001,,,,,,,2025-08-29,1,,,,,エスシージーエイティセブン,0
1623,7010903010220,新規,0,2025-08-29,2025-08-29,福うさぎマーケティング合同会社,,合同会社,東京都,世田谷区,世田谷２丁目５番１号大協ビル４Ｆ,,13,112,1540017,,,,,,,2025-08-29,1,,,,,フクウサギマーケティング,0
1630,7011001172218,新規,0,2025-08-29,2025-08-29,ＹｅＳ株式会社,,株式会社,東京都,目黒区,上目黒５丁目６番２５号,,13,110,1530051,,,,,,,2025-08-29,1,,,,,イェス,0
1631,7011003022214,新規,0,2025-08-29,2025-08-29,合同会社ｉｃｏｉ,,合同会社,東京都,渋谷区,恵比寿３丁目４０番１９号メゾンドミエル恵比寿１階,,13,113,1500013,,,,,,,2025-08-29,1,,,,,アイコーアイ,0
1636,7011101112825,新規,0,2025-08-29,2025-08-29,Ｇｒｏｗｉｔｈ株式会社,,株式会社,東京都,新宿区,西新宿３丁目７番１号新宿パークタワーＮ３０階,,13,104,1600023,,,,,,,2025-08-29,1,,,,,グローウィズ,0
1637,7011101112924,新規,0,2025-08-29,2025-08-29,楊国福株式会社,,株式会社,東京都,新宿区,北新宿３丁目１０番１０－７１１号－Ｈ,,13,104,1690074,,,,,,,2025-08-29,1,,,,,ヨウコクフク,0
1638,7011101112940,新規,0,2025-08-29,2025-08-29,株式会社ｓｏｌｏｎｏ,,株式会社,東京都,新宿区,西新宿３丁目３番１３号西新宿水間ビル６階,,13,104,1600023,,,,,,,2025-08-29,1,,,,,ソロノ,0
1639,7011101113055,新規,0,2025-08-29,2025-08-29,株式会社４Ｂｕｄｄｉｅｓ,,株式会社,東京都,新宿区,新宿６丁目１１番９号新宿第二松喜ビル４Ｆ,,13,104,1600022,,,,,,,2025-08-29,1,,,,,フォーバディーズ,0
1641,7011201026603,新規,0,2025-08-29,2025-08-29,株式会社Ｉｎｓｔｉｎｃｔ　Ｃｒｅａｔｉｏｎ,,株式会社,東京都,中野区,東中野５丁目１２－１ユニゾンタワー８０３,,13,114,1640003,,,,,,,2025-08-29,1,,,,,インステッククリエーション,0
1646,7011501032499,新規,0,2025-08-29,2025-08-29,株式会社Ｎａｇｏｍｉ,,株式会社,東京都,北区,赤羽南１丁目３番７号長瀬ビル４階,,13,117,1150044,,,,,,,2025-08-29,1,,,,,ナゴミ,0
1647,7011601028926,新規,0,2025-08-29,2025-08-29,株式会社ＹＹ,,株式会社,東京都,練馬区,高野台４丁目１０番８号リトモビル２０５号室,,13,120,1770033,,,,,,,2025-08-29,1,,,,,ワイワイ,0
1652,7012401043537,新規,0,2025-08-29,2025-08-29,ＣＯＣＯ　ＳＴＹＬＥ　ＬＡＢ株式会社,,株式会社,東京都,狛江市,中和泉２丁目２５番５号,,13,219,2010012,,,,,,,2025-08-29,1,,,,,ココスタイルラボ,0
1657,7020001164513,新規,0,2025-08-29,2025-08-29,日本語アカデミー株式会社,,株式会社,神奈川県,横浜市西区,浅間町１丁目４番３号ウィザードビル４０２,,14,103,2200072,,,,,,,2025-08-29,1,,,,,ニホンゴアカデミー,0
1658,7020001164570,新規,0,2025-08-29,2025-08-29,ＴＡＮＲＯＮ株式会社,,株式会社,神奈川県,川崎市川崎区,桜本２丁目３８番１０号１０３,,14,131,2100833,,,,,,,2025-08-29,1,,,,,タンロン,0
1659,7020001164579,新規,0,2025-08-29,2025-08-29,株式会社ＲｉｓｅＯｎｅ,,株式会社,神奈川県,横浜市中区,翁町２丁目７－１０関内フレックスビル４０６,,14,104,2310028,,,,,,,2025-08-29,1,,,,,ライズワン,0
1660,7020001164587,新規,0,2025-08-29,2025-08-29,株式会社Ｌｉｂｅｒｔｙ,,株式会社,神奈川県,横浜市瀬谷区,二ツ橋町１６２番地,,14,114,2460021,,,,,,,2025-08-29,1,,,,,リバティ,0
1661,7020001164612,新規,0,2025-08-29,2025-08-29,株式会社ＫＡＭＩＫＡＺＥ,,株式会社,神奈川県,横浜市西区,久保町３９－３ポルトボヌール２０１,,14,103,2200061,,,,,,,2025-08-29,1,,,,,カミカゼ,0
1663,7020003029235,新規,0,2025-08-29,2025-08-29,合同会社ＫＩＮＧＳ,,合同会社,神奈川県,横浜市鶴見区,江ケ崎町２４番４６号,,14,101,2300002,,,,,,,2025-08-29,1,,,,,,0
1664,7020003029251,新規,0,2025-08-29,2025-08-29,合同会社こころ整理社,,合同会社,神奈川県,横浜市戸塚区,俣野町４３０番地５６,,14,110,2450066,,,,,,,2025-08-29,1,,,,,ココロセイリシャ,0
1668,7021003016470,新規,0,2025-08-29,2025-08-29,合同会社ヒュッテ湘南,,合同会社,神奈川県,藤沢市,片瀬山５丁目１６－６,,14,205,2510033,,,,,,,2025-08-29,1,,,,,ヒュッテショウナン,0
1678,7030001168348,新規,0,2025-08-29,2025-08-29,セレーノホールディングス株式会社,,株式会社,埼玉県,本庄市,児玉町蛭川１０５１番地６,,11,211,3670204,,,,,,,2025-08-29,1,,,,,セレーノホールディングス,0
1679,7030001168356,新規,0,2025-08-29,2025-08-29,株式会社おーたむ,,株式会社,埼玉県,川口市,大字峯２５４番３号,,11,203,3340056,,,,,,,2025-08-29,1,,,,,オータム,0
1685,7030003027477,新規,0,2025-08-29,2025-08-29,ＫＵＭＡ合同会社,,合同会社,埼玉県,川口市,西川口１丁目２３－４西川口ロイヤルビル４Ａ,,11,203,3320021,,,,,,,2025-08-29,1,,,,,クマ,0
1692,7040003028342,新規,0,2025-08-29,2025-08-29,テックマルチ合同会社,,合同会社,千葉県,船橋市,七林町４３６番地２６８,,12,204,2740821,,,,,,,2025-08-29,1,,,,,テックマルチ,0
1694,7050001057185,新規,0,2025-08-29,2025-08-29,株式会社９５,,株式会社,茨城県,つくば市,千現２丁目１番６,,08,220,3050047,,,,,,,2025-08-29,1,,,,,ナイントゥーファイブ,0
1696,7060001038531,新規,0,2025-08-29,2025-08-29,株式会社桜美土建,,株式会社,栃木県,さくら市,櫻野１７３２番地３５,,09,214,3291312,,,,,,,2025-08-29,1,,,,,オウビドケン,0
1701,7070001043282,新規,0,2025-08-29,2025-08-29,ＡＫＩＢＡ　ＨＤ株式会社,,株式会社,群馬県,高崎市,大八木町５８０番地,,10,202,3700072,,,,,,,2025-08-29,1,,,,,アキバホールディングス,0
1702,7070003006064,新規,0,2025-08-29,2025-08-29,合同会社はぐくみ,,合同会社,群馬県,前橋市,南町３丁目５０－２プラザアン２階Ｄ－７７,,10,201,3710805,,,,,,,2025-08-29,1,,,,,ハグクミ,0
1708,7100005013385,新規,0,2025-08-29,2025-08-29,特定非営利活動法人どあい,,その他の設立登記法人,長野県,安曇野市,三郷小倉２２９９番地１,,20,220,3998103,,,,,,,2025-08-29,1,,,,,ドアイ,0
1720,7120001279169,新規,0,2025-08-29,2025-08-29,株式会社結び,,株式会社,大阪府,大阪市住之江区,安立２丁目８－９－１０２,,27,125,5590003,,,,,,,2025-08-29,1,,,,,ムスビ,0
1721,7120001279177,新規,0,2025-08-29,2025-08-29,株式会社ＴＡＳＴ,,株式会社,大阪府,大阪市西区,新町４丁目１２番１６号７０１,,27,106,5500013,,,,,,,2025-08-29,1,,,,,タスト,0
1722,7120001279193,新規,0,2025-08-29,2025-08-29,株式会社ＪＩＣ　ＰＵＢＬＩＳＨＩＮＧ,,株式会社,大阪府,大阪市西成区,長橋１丁目４番７－６０５号,,27,122,5570025,,,,,,,2025-08-29,1,,,,,ジェーアイシーパブリッシング,0
1727,7120003030389,新規,0,2025-08-29,2025-08-29,Ａｎｄ．Ｙ合同会社,,合同会社,大阪府,大阪市阿倍野区,美章園２丁目２－２８－５０１,,27,119,5450003,,,,,,,2025-08-29,1,,,,,アンドワイ,0
1728,7120003030397,新規,0,2025-08-29,2025-08-29,遠山合同会社,,合同会社,大阪府,大阪市西成区,萩之茶屋２丁目６番４号ニューかめや２５３号室,,27,122,5570004,,,,,,,2025-08-29,1,,,,,エンザン,0
1731,7120005025131,新規,0,2025-08-29,2025-08-29,特定非営利活動法人日本ベビリック協会,,その他の設立登記法人,大阪府,大阪市中央区,博労町３丁目３番９号田中ビル８Ｆ,,27,128,5410059,,,,,,,2025-08-29,1,,,,,ニホンベビリックキョウカイ,0
1746,7120901051412,新規,0,2025-08-29,2025-08-29,株式会社エス・インフィニッツ,,株式会社,大阪府,豊中市,千里園１丁目１０番２号,,27,203,5600046,,,,,,,2025-08-29,1,,,,,エスインフィニッツ,0
1754,7130001080344,新規,0,2025-08-29,2025-08-29,株式会社ＣＨＥＲＩ１,,株式会社,京都府,京都市北区,小山北大野町１９番地１１,,26,101,6038161,,,,,,,2025-08-29,1,,,,,シェリワン,0
1755,7130001080385,新規,0,2025-08-29,2025-08-29,株式会社大坪自動車,,株式会社,京都府,京都市左京区,吉田中大路町２２－２０８号室,,26,103,6068313,,,,,,,2025-08-29,1,,,,,オオツボジドウシャ,0
1757,7140001139809,新規,0,2025-08-29,2025-08-29,Ｔｅｎｄｅｒ　Ｌｉｎｋ株式会社,,株式会社,兵庫県,川辺郡猪名川町,つつじが丘４丁目７番地２,,28,301,6660245,,,,,,,2025-08-29,1,,,,,テンダーリンク,0
1758,7140001139833,新規,0,2025-08-29,2025-08-29,ＬＩＦＥＬＩＸ株式会社,,株式会社,兵庫県,神戸市垂水区,北舞子１丁目２番５６－３号,,28,108,6550045,,,,,,,2025-08-29,1,,,,,リフェリクス,0
1762,7150001028358,新規,0,2025-08-29,2025-08-29,ランドアー光株式会社,,株式会社,奈良県,奈良市,八条１丁目８３９番地の１,,29,201,6308145,,,,,,,2025-08-29,1,,,,,ランドアーヒカリ,0
1765,7160001026922,新規,0,2025-08-29,2025-08-29,株式会社ＪＥＬ,,株式会社,滋賀県,草津市,大路２丁目１番２７－８１５号,,25,206,5250032,,,,,,,2025-08-29,1,,,,,ジェイイーエル,0
1766,7160003003580,新規,0,2025-08-29,2025-08-29,ＨＢＡ合同会社,,合同会社,滋賀県,草津市,大路１丁目６番１３号５０１号室,,25,206,5250032,,,,,,,2025-08-29,1,,,,,エイチビーエー,0
1770,7170005007166,新規,0,2025-08-29,2025-08-29,特定非営利活動法人９番目の雲,,その他の設立登記法人,和歌山県,和歌山市,中之島１４９６,,30,201,6408392,,,,,,,2025-08-29,1,,,,,キュウバンメノクモ,0
1777,7180001167517,新規,0,2025-08-29,2025-08-29,株式会社フードサービス尾張,,株式会社,愛知県,丹羽郡大口町,下小口２丁目１１０番地,,23,361,4800144,,,,,,,2025-08-29,1,,,,,フードサービスオワリ,0
1778,7180001168358,新規,0,2025-08-29,2025-08-29,株式会社ＳＵＩＺＡＮ,,株式会社,愛知県,名古屋市中区,栄５丁目１０番２３号ラ・メゾン翠山８０４号,,23,106,4600008,,,,,,,2025-08-29,1,,,,,スイザン,0
1783,7200001044184,新規,0,2025-08-29,2025-08-29,Ｓｔｅａｄｙ　Ｌｉｆｅ株式会社,,株式会社,岐阜県,瑞穂市,穂積１０１６番地８,,21,216,5010223,,,,,,,2025-08-29,1,,,,,ステディライフ,0
1786,7210005010223,新規,0,2025-08-29,2025-08-29,社会保険労務士法人ヒトノコト,,その他の設立登記法人,福井県,福井市,城東４丁目２６番３４号廣田第一ビル２階北,,18,201,9100853,,,,,,,2025-08-29,1,,,,,ヒトノコト,0
1787,7230001021057,新規,0,2025-08-29,2025-08-29,株式会社メープルリンク,,株式会社,富山県,高岡市,木津５９７番地１,,16,202,9330857,,,,,,,2025-08-29,1,,,,,メープルリンク,0
1790,7240001065433,新規,0,2025-08-29,2025-08-29,Ｋ‐ＴＥＣ株式会社,,株式会社,広島県,東広島市,高屋町造賀５１６３番地３,,34,212,7392101,,,,,,,2025-08-29,1,,,,,ケーテック,0
1801,7290001111257,新規,0,2025-08-29,2025-08-29,株式会社三陽浜田水産,,株式会社,福岡県,福岡市中央区,長浜２丁目３番６号,,40,133,8100072,,,,,,,2025-08-29,1,,,,,サンヨウハマダスイサン,0
1807,7290801031811,新規,0,2025-08-29,2025-08-29,株式会社ＲＥＬＩＶＥ,,株式会社,福岡県,北九州市八幡西区,町上津役西３丁目１５番５３－１０５号,,40,109,8070074,,,,,,,2025-08-29,1,,,,,リライブ,0
1809,7310005008868,新規,0,2025-08-29,2025-08-29,一般社団法人オルタナティブスクールおうち楽幸,,その他の設立登記法人,長崎県,西彼杵郡長与町,嬉里郷４６３番地中村ビル２０１,,42,307,8512128,,,,,,,2025-08-29,1,,,,,オルタナティブスクールオウチガッコウ,0
1810,7320001021304,新規,0,2025-08-29,2025-08-29,株式会社まる藤,,株式会社,大分県,大分市,大字毛井７番地の１,,44,201,8700124,,,,,,,2025-08-29,1,,,,,マルフジ,0
1811,7330001033521,新規,0,2025-08-29,2025-08-29,株式会社ラックプラングリーンワークス,,株式会社,熊本県,合志市,幾久富１７５８番地７６６,,43,216,8611112,,,,,,,2025-08-29,1,,,,,ラックプラングリーンワークス,0
1815,7350001019709,新規,0,2025-08-29,2025-08-29,エアレット株式会社,,株式会社,宮崎県,宮崎市,田野町乙１０８４３番地３,,45,201,8891702,,,,,,,2025-08-29,1,,,,,エアレット,0
1816,7350003005013,新規,0,2025-08-29,2025-08-29,合同会社健都漢方,,合同会社,宮崎県,都城市,妻ケ丘町３９街区６号,,45,202,8850033,,,,,,,2025-08-29,1,,,,,,0
1827,7370003007263,新規,0,2025-08-29,2025-08-29,リリーネスト合同会社,,合同会社,宮城県,多賀城市,高橋２丁目１６番２４号,,04,209,9850853,,,,,,,2025-08-29,1,,,,,リリーネスト,0
1844,7470003002964,新規,0,2025-08-29,2025-08-29,合同会社桃里庵,,合同会社,香川県,高松市,古新町６番地１,,37,201,7600025,,,,,,,2025-08-29,1,,,,,トウリアン,0
1857,8010001257762,新規,0,2025-08-29,2025-08-29,株式会社ひのきインシュアランス,,株式会社,東京都,千代田区,神田神保町２丁目３２番５号神保町フロント６階,,13,101,1010051,,,,,,,2025-08-29,1,,,,,ヒノキインシュアランス,0
1858,8010001257952,新規,0,2025-08-29,2025-08-29,株式会社Ｎｉｃｏｌｅ＆Ｃｏ,,株式会社,東京都,千代田区,外神田１丁目８番１３号ＮＲＥＧ秋葉原ビル１Ｆ,,13,101,1010021,,,,,,,2025-08-29,1,,,,,ニコルアンドコー,0
1859,8010001258067,新規,0,2025-08-29,2025-08-29,ｋｏｄｏｍｏ株式会社,,株式会社,東京都,文京区,湯島１丁目７番９号,,13,105,1130034,,,,,,,2025-08-29,1,,,,,コドモ,0
1867,8010401192618,新規,0,2025-08-29,2025-08-29,ルミノート株式会社,,株式会社,東京都,港区,浜松町２丁目２番１５号浜松町ダイヤビル２Ｆ,,13,103,1050013,,,,,,,2025-08-29,1,,,,,ルミノート,0
1868,8010401192634,新規,0,2025-08-29,2025-08-29,株式会社Ｋａｆｕｎｅ,,株式会社,東京都,港区,南青山３丁目１番３６号青山丸竹ビル６Ｆ,,13,103,1070062,,,,,,,2025-08-29,1,,,,,カフネ,0
1869,8010401192642,新規,0,2025-08-29,2025-08-29,日本ＡＯＨＡＩ科技株式会社,,株式会社,東京都,港区,芝２丁目２８－１１,,13,103,1050014,,,,,,,2025-08-29,1,,,,,ニホンアオハイカギ,0
1870,8010401192650,新規,0,2025-08-29,2025-08-29,無迹探索株式会社,,株式会社,東京都,港区,南青山２丁目２番８号ＤＦビル１０Ｆ・１０３４Ｂ,,13,103,1070062,,,,,,,2025-08-29,1,,,,,ムセキタンサク,0
1871,8010401192659,新規,0,2025-08-29,2025-08-29,株式会社トランク,,株式会社,東京都,港区,芝浦４丁目１９番１－１６０６号,,13,103,1080023,,,,,,,2025-08-29,1,,,,,トランク,0
1872,8010401192725,新規,0,2025-08-29,2025-08-29,株式会社みなとソリューションズ,,株式会社,東京都,港区,南麻布１丁目２７番地２０号カーサ麻布ルグラン３０１,,13,103,1060047,,,,,,,2025-08-29,1,,,,,ミナトソリューションズ,0
1874,8010403035733,新規,0,2025-08-29,2025-08-29,橙然ニューエナジー合同会社,,合同会社,東京都,港区,赤坂２丁目８番１４－５０４号,,13,103,1070052,,,,,,,2025-08-29,1,,,,,トウゼンニューエナジー,0
1875,8010403035857,新規,0,2025-08-29,2025-08-29,合同会社Ｒｅｏｎｏｔｉｓ,,合同会社,東京都,港区,西麻布４丁目１－１０－６０２,,13,103,1060031,,,,,,,2025-08-29,1,,,,,レオノティス,0
1876,8010403035931,新規,0,2025-08-29,2025-08-29,ＴＣＫ　Ｇｌｏｂａｌ　Ｅｄｕｃａｔｉｏｎ合同会社,,合同会社,東京都,港区,赤坂１丁目１２番３２号アーク森ビル,,13,103,1070052,,,,,,,2025-08-29,1,,,,,ティーシーケーグローバルエデュケーション,0
1884,8010601067891,新規,0,2025-08-29,2025-08-29,ＩＫＩＫＩＲＵ株式会社,,株式会社,東京都,江東区,南砂２丁目５－１４ｇｏｏｄｏｆｆｉｃｅ東陽町,,13,108,1360076,,,,,,,2025-08-29,1,,,,,イキキル,0
1890,8010901057997,新規,0,2025-08-29,2025-08-29,株式会社ＡＴＨＲＥＶＥ　Ｘ,,株式会社,東京都,世田谷区,玉川２丁目１４番１１号アベコーマンション６０２,,13,112,1580094,,,,,,,2025-08-29,1,,,,,アスリーヴエックス,0
1896,8011001171549,新規,0,2025-08-29,2025-08-29,３ｔｅｍｐｌｅ　ｃｉｒｃｕｓ株式会社,,株式会社,東京都,渋谷区,円山町５番５Ｎａｖｉ渋谷Ｖ３階,,13,113,1500044,,,,,,,2025-08-29,1,,,,,スリーテンプルサーカス,0
1900,8011101112832,新規,0,2025-08-29,2025-08-29,株式会社新都市開発研究所,,株式会社,東京都,新宿区,新宿１丁目７番３号三栄ビル３階,,13,104,1600022,,,,,,,2025-08-29,1,,,,,シントシカイハツケンキュウジョ,0
1901,8011101112931,新規,0,2025-08-29,2025-08-29,シノビトラベル株式会社,,株式会社,東京都,新宿区,西新宿７丁目７番２８号第一山本ビル７０２,,13,104,1600023,,,,,,,2025-08-29,1,,,,,シノビトラベル,0
1906,8011501032498,新規,0,2025-08-29,2025-08-29,瑞盈株式会社,,株式会社,東京都,荒川区,西日暮里１丁目５９番３号ＳＷＯｆｆｉｃｅＣｅｎｔｅｒ１０４号室,,13,118,1160013,,,,,,,2025-08-29,1,,,,,ズイエイ,0
1909,8011601028891,新規,0,2025-08-29,2025-08-29,株式会社櫻台マンション,,株式会社,東京都,練馬区,桜台１丁目２番地,,13,120,1760002,,,,,,,2025-08-29,1,,,,,,0
1910,8011601028933,新規,0,2025-08-29,2025-08-29,ハーモニーフーズ株式会社,,株式会社,東京都,練馬区,高松４丁目６番１号,,13,120,1790075,,,,,,,2025-08-29,1,,,,,ハーモニーフーズ,0
1913,8011603004817,新規,0,2025-08-29,2025-08-29,合同会社はちあち,,合同会社,東京都,練馬区,錦１丁目２１－８,,13,120,1790082,,,,,,,2025-08-29,1,,,,,ハチアチ,0
1917,8011703004320,新規,0,2025-08-29,2025-08-29,ＵＮＴＩＥＤ　ＴＯＫＹＯ合同会社,,合同会社,東京都,江戸川区,中葛西５丁目３９―２ＬｅａｆＶｉｌｌａｇｅ３Ｆ,,13,123,1340083,,,,,,,2025-08-29,1,,,,,アンタイドトウキョウ,0
1918,8011801046652,新規,0,2025-08-29,2025-08-29,株式会社未来創投,,株式会社,東京都,葛飾区,細田４丁目４０番１０号,,13,122,1240021,,,,,,,2025-08-29,1,,,,,ミライソウトウ,0
1919,8013101009785,新規,0,2025-08-29,2025-08-29,株式会社アット,,株式会社,東京都,羽村市,羽加美４丁目８番５号,,13,227,2050016,,,,,,,2025-08-29,1,,,,,アット,0
1929,8020001164537,新規,0,2025-08-29,2025-08-29,株式会社ユナイテッドパス,,株式会社,神奈川県,横浜市神奈川区,金港町１番地１１－４１０２号,,14,102,2210056,,,,,,,2025-08-29,1,,,,,ユナイテッドパス,0
1930,8020001164561,新規,0,2025-08-29,2025-08-29,ＢＬＵＥ　ＣＯＭＰＡＳＳ株式会社,,株式会社,神奈川県,横浜市神奈川区,金港町５－１４クアドリフォリオ８階,,14,102,2210056,,,,,,,2025-08-29,1,,,,,ブルーコンパス,0
1939,8021003016503,新規,0,2025-08-29,2025-08-29,なぎさカンパニー合同会社,,合同会社,神奈川県,藤沢市,鵠沼海岸２丁目２番８号,,14,205,2510037,,,,,,,2025-08-29,1,,,,,ナギサカンパニー,0
1947,8030001168347,新規,0,2025-08-29,2025-08-29,株式会社サイフォルテック,,株式会社,埼玉県,川越市,旭町２丁目２０番地１４,,11,201,3501126,,,,,,,2025-08-29,1,,,,,サイフォルテック,0
1956,8040001140206,新規,0,2025-08-29,2025-08-29,万誠商事株式会社,,株式会社,千葉県,市川市,曽谷２丁目２４番９号,,12,203,2720832,,,,,,,2025-08-29,1,,,,,マンセイショウジ,0
1957,8040001140214,新規,0,2025-08-29,2025-08-29,株式会社ＮＡＩＴＯ,,株式会社,千葉県,流山市,東初石４丁目１８７番地の１５,,12,220,2700114,,,,,,,2025-08-29,1,,,,,ナイトウ,0
1958,8040001140247,新規,0,2025-08-29,2025-08-29,株式会社ｅｎｔｏ,,株式会社,千葉県,市原市,八幡２１１６番地２,,12,219,2900062,,,,,,,2025-08-29,1,,,,,エント,0
1963,8040003028341,新規,0,2025-08-29,2025-08-29,テックコネクト合同会社,,合同会社,千葉県,船橋市,七林町４３６番地２６８,,12,204,2740821,,,,,,,2025-08-29,1,,,,,テックコネクト,0
1978,8080101025749,新規,0,2025-08-29,2025-08-29,Ｓｙｎｅｒｇｙ　Ｂａｓｅ株式会社,,株式会社,静岡県,富士市,松富町１４０－２プランドール松富Ｉ－１０１,00140449,22,210,4160919,,,,,,,2025-08-29,1,,,,,シナジーベース,0
1979,8080401028138,新規,0,2025-08-29,2025-08-29,タキイホールディングス株式会社,,株式会社,静岡県,浜松市浜名区,中瀬７４３７番地の１,,22,139,4340012,,,,,,,2025-08-29,1,,,,,タキイホールディングス,0
2003,8120003030396,新規,0,2025-08-29,2025-08-29,チョコレ合同会社,,合同会社,大阪府,大阪市西成区,萩之茶屋２丁目６番４号ニューかめや２３７号室,,27,122,5570004,,,,,,,2025-08-29,1,,,,,チョコレ,0
2021,8120901051411,新規,0,2025-08-29,2025-08-29,大暉株式会社,,株式会社,大阪府,茨木市,別院町７番１６－１０５号,,27,211,5670817,,,,,,,2025-08-29,1,,,,,ダイキ,0
2026,8122003003299,新規,0,2025-08-29,2025-08-29,ＳＵＰＥＲ　ＣＡＲ　ＴＲＡＤＩＮＧ合同会社,,合同会社,大阪府,東大阪市,六万寺町１丁目１０－３４,,27,227,5798061,,,,,,,2025-08-29,1,,,,,スーパーカートレーディング,0
2027,8130001080351,新規,0,2025-08-29,2025-08-29,株式会社昊和,,株式会社,京都府,京都市山科区,東野片下リ町２２番地１ときわぎビル４０８,,26,110,6078156,,,,,,,2025-08-29,1,,,,,コウワ,0
2032,8140001139799,新規,0,2025-08-29,2025-08-29,一諾株式会社,,株式会社,兵庫県,神戸市中央区,楠町２丁目６番７号（１Ｆ）,,28,110,6500017,,,,,,,2025-08-29,1,,,,,イチダク,0
2035,8150001028365,新規,0,2025-08-29,2025-08-29,株式会社ＣＯＣＯ,,株式会社,奈良県,天理市,田部町３３９番地,,29,204,6320017,,,,,,,2025-08-29,1,,,,,ココ,0
2047,8180001168407,新規,0,2025-08-29,2025-08-29,株式会社汐碇工業,,株式会社,愛知県,東海市,名和町森ノ上５３番地の２７,,23,222,4760002,,,,,,,2025-08-29,1,,,,,シオイカリコウギョウ,0
2055,8200001044167,新規,0,2025-08-29,2025-08-29,コムテスコ株式会社,,株式会社,岐阜県,不破郡垂井町,１４１４番地,,21,361,5032121,,,,,,,2025-08-29,1,,,,,コムテスコ,0
2056,8200003006990,新規,0,2025-08-29,2025-08-29,ナガサワトレーディング合同会社,,合同会社,岐阜県,羽島郡岐南町,伏屋５丁目１７１番地の１,,21,302,5016006,,,,,,,2025-08-29,1,,,,,,0
2058,8210005010222,新規,0,2025-08-29,2025-08-29,一般社団法人地域共創坂井,,その他の設立登記法人,福井県,坂井市,三国町川崎第１２５号１番地１,,18,210,9130025,,,,,,,2025-08-29,1,,,,,チイキキョウソウサカイ,0
2062,8240001065432,新規,0,2025-08-29,2025-08-29,ｉＡｓｓｅｔ株式会社,,株式会社,広島県,広島市西区,古田台２丁目５番２３号,,34,104,7330877,,,,,,,2025-08-29,1,,,,,アイアセット,0
2064,8260003005327,新規,0,2025-08-29,2025-08-29,ＫＯＭＥＳＡ合同会社,,合同会社,岡山県,倉敷市,児島阿津３丁目２番６号,,33,202,7110923,,,,,,,2025-08-29,1,,,,,コメサ,0
2067,8290003017303,新規,0,2025-08-29,2025-08-29,合同会社ＣＩＲＱ,,合同会社,福岡県,大川市,大字大野島４０７４番地,,40,212,8310045,,,,,,,2025-08-29,1,,,,,サーク,0
2068,8290003017328,新規,0,2025-08-29,2025-08-29,海牛土地合同会社,,合同会社,福岡県,福岡市中央区,天神４丁目６―２８いちご天神ノースビル７階,,40,133,8100001,,,,,,,2025-08-29,1,,,,,マナティトチ,0
2070,8290803005143,新規,0,2025-08-29,2025-08-29,合同会社あんさんぶる,,合同会社,福岡県,北九州市小倉北区,馬借１丁目６番１５－３０８号,,40,106,8020077,,,,,,,2025-08-29,1,,,,,アンサンブル,0
2072,8310001019769,新規,0,2025-08-29,2025-08-29,株式会社カーライフＴＫ,,株式会社,長崎県,長崎市,古賀町１５番地,,42,201,8510101,,,,,,,2025-08-29,1,,,,,カーライフティーケー,0
2085,8360001035704,新規,0,2025-08-29,2025-08-29,Ｊｕｓｔｒｉａ株式会社,,株式会社,沖縄県,浦添市,内間４丁目１８番７号東江ガス内間ビル１Ｆ,,47,208,9012121,,,,,,,2025-08-29,1,,,,,ジャストリア,0
2088,8370001052979,新規,0,2025-08-29,2025-08-29,株式会社ユウキ,,株式会社,宮城県,仙台市青葉区,五橋１丁目３番１号シティタワー仙台五橋１３０３,,04,101,9800022,,,,,,,2025-08-29,1,,,,,ユウキ,0
2096,8400001017152,新規,0,2025-08-29,2025-08-29,株式会社サクション,,株式会社,岩手県,久慈市,門前第３地割７９番地６,,03,207,0280021,,,,,,,2025-08-29,1,,,,,サクション,0
2101,8430001095121,新規,0,2025-08-29,2025-08-29,株式会社ＢＣＩ,,株式会社,北海道,小樽市,最上１丁目２２番５号,,01,203,0470023,,,,,,,2025-08-29,1,,,,,ビーシーアイ,0
2107,8500003003578,新規,0,2025-08-29,2025-08-29,合同会社カワウチファーム,,合同会社,愛媛県,東温市,北方２３５８番地１,,38,215,7910303,,,,,,,2025-08-29,1,,,,,カワウチファーム,0
2128,9010003048548,新規,0,2025-08-29,2025-08-29,合同会社ＰＦアルテア,,合同会社,東京都,千代田区,平河町１丁目６番１５号シルスフィア会計事務所内,,13,101,1020093,,,,,,,2025-08-29,1,,,,,ピーエフアルテア,0
2132,9010401192625,新規,0,2025-08-29,2025-08-29,ＰＩＦＥＺ株式会社,,株式会社,東京都,港区,三田３丁目２番１３号,,13,103,1080073,,,,,,,2025-08-29,1,,,,,ピーフェッツ,0
2133,9010401192658,新規,0,2025-08-29,2025-08-29,株式会社ＨＩＫＡＬＯＯＰ,,株式会社,東京都,港区,北青山１丁目３番１号アールキューブ青山３階,,13,103,1070061,,,,,,,2025-08-29,1,,,,,ヒカループ,0
2134,9010401192732,新規,0,2025-08-29,2025-08-29,株式会社ＡＤＶＡＮＣＥＤ　ＪＡＰＡＮ　ＴＲＡＶＥＬ,,株式会社,東京都,港区,南青山２丁目２番１５号ウィン青山１２１４号,,13,103,1070062,,,,,,,2025-08-29,1,,,,,アドバンスジャパントラベル,0
2139,9010403035889,新規,0,2025-08-29,2025-08-29,Ｗａｙｍｏ　Ｊａｐａｎ合同会社,,合同会社,東京都,港区,海岸１丁目２番２０号汐留ビルディング３階,,13,103,1050022,,,,,,,2025-08-29,1,,,,,ウェイモジャパン,0
2141,9010405024709,新規,0,2025-08-29,2025-08-29,ＳＣＧ８６一般社団法人,,その他の設立登記法人,東京都,港区,虎ノ門２丁目６番１号,,13,103,1050001,,,,,,,2025-08-29,1,,,,,エスシージーエイティシックス,0
2152,9010901057988,新規,0,2025-08-29,2025-08-29,株式会社Ｇ．Ｃ　ＰＨＡＲＭＡＣＹ,,株式会社,東京都,世田谷区,桜新町２丁目１６番６号,,13,112,1540015,,,,,,,2025-08-29,1,,,,,ジーシーファーマシー,0
2153,9010905004821,新規,0,2025-08-29,2025-08-29,特定非営利活動法人音の花束,,その他の設立登記法人,東京都,世田谷区,成城７丁目１０番１４号,,13,112,1570066,,,,,,,2025-08-29,1,,,,,オトノハナタバ,0
2157,9011001171614,新規,0,2025-08-29,2025-08-29,株式会社Ｓｐｈｅｒｅ,,株式会社,東京都,渋谷区,渋谷２丁目１９－１５宮益坂ビルディング６０９,,13,113,1500002,,,,,,,2025-08-29,1,,,,,スフィア,0
2158,9011001171630,新規,0,2025-08-29,2025-08-29,株式会社Ｅｎｃｏｌｏｒ,,株式会社,東京都,目黒区,青葉台３丁目１－１２,,13,110,1530042,,,,,,,2025-08-29,1,,,,,エンカラー,0
2160,9011005011147,新規,0,2025-08-29,2025-08-29,一般社団法人日本中国茶普及協会,,その他の設立登記法人,東京都,渋谷区,桜丘町２４番４号,,13,113,1500031,,,,,,,2025-08-29,1,,,,,ニホンチュウゴクチャフキュウキョウカイ,0
2163,9011101112823,新規,0,2025-08-29,2025-08-29,株式会社Ｕｓａｇｉ　Ｃｒｅａｔｉｏｎｓ,,株式会社,東京都,新宿区,神楽坂１丁目９番地,,13,104,1620825,,,,,,,2025-08-29,1,,,,,ウサギクリエイションズ,0
2164,9011101112831,新規,0,2025-08-29,2025-08-29,株式会社くらげ,,株式会社,東京都,新宿区,北新宿１丁目３０番３０号,,13,104,1690074,,,,,,,2025-08-29,1,,,,,クラゲ,0
2165,9011101112880,新規,0,2025-08-29,2025-08-29,株式会社ＭＡＬＩＡＮ,,株式会社,東京都,新宿区,新宿１丁目３６番４号丁子屋ビル８階,,13,104,1600022,,,,,,,2025-08-29,1,,,,,マリアン,0
2166,9011101112930,新規,0,2025-08-29,2025-08-29,トウキョウキャリアマネジメント株式会社,,株式会社,東京都,新宿区,東五軒町１－９ＳＢＳ－Ｅ－２号,,13,104,1620813,,,,,,,2025-08-29,1,,,,,トウキョウキャリアマネジメント,0
2167,9011101112947,新規,0,2025-08-29,2025-08-29,株式会社景和,,株式会社,東京都,新宿区,新宿１丁目２４番７号ルネ御苑プラザ４１７号室,,13,104,1600022,,,,,,,2025-08-29,1,,,,,ケイワ,0
2168,9011101113004,新規,0,2025-08-29,2025-08-29,大川ライフ株式会社,,株式会社,東京都,新宿区,北新宿２丁目５番１１号,,13,104,1690074,,,,,,,2025-08-29,1,,,,,オオカワライフ,0
2169,9011103016262,新規,0,2025-08-29,2025-08-29,合同会社プラスワン・コンサルティング,,合同会社,東京都,新宿区,西早稲田３丁目１番６号エミール西早稲田１Ｆ,,13,104,1690051,,,,,,,2025-08-29,1,,,,,プラスワンコンサルティング,0
2173,9011601028899,新規,0,2025-08-29,2025-08-29,株式会社グランデ,,株式会社,東京都,練馬区,中村南１丁目２７番２０号ガーデンスクウェア３階,,13,120,1760025,,,,,,,2025-08-29,1,,,,,グランデ,0
2177,9011803007049,新規,0,2025-08-29,2025-08-29,合同会社エチュード,,合同会社,東京都,葛飾区,柴又４丁目２４番８号トーキョーベータ柴又９－２０３,,13,122,1250052,,,,,,,2025-08-29,1,,,,,エチュード,0
2178,9012401043535,新規,0,2025-08-29,2025-08-29,株式会社ＳＥＣ,,株式会社,東京都,武蔵野市,吉祥寺北町１丁目１７番１５号,,13,203,1800001,,,,,,,2025-08-29,1,,,,,エスイーシー,0
2179,9012403007307,新規,0,2025-08-29,2025-08-29,合同会社ＨＡＮＡＭＩ,,合同会社,東京都,調布市,富士見町３丁目１３番地８,,13,208,1820033,,,,,,,2025-08-29,1,,,,,ハナミ,0
2189,9020001164528,新規,0,2025-08-29,2025-08-29,株式会社レイズ,,株式会社,神奈川県,川崎市川崎区,大島３丁目２８番６号リブリキーファー２０１,,14,131,2100834,,,,,,,2025-08-29,1,,,,,レイズ,0
2194,9020003029258,新規,0,2025-08-29,2025-08-29,合同会社ＩＧパートナーズ,,合同会社,神奈川県,横浜市港南区,港南台７丁目４２番７－３０１号,,14,111,2340054,,,,,,,2025-08-29,1,,,,,アイジーパートナーズ,0
2205,9030001168362,新規,0,2025-08-29,2025-08-29,株式会社関谷,,株式会社,埼玉県,所沢市,星の宮１丁目１３番９号,,11,208,3591127,,,,,,,2025-08-29,1,,,,,セキヤ,0
2207,9030003027491,新規,0,2025-08-29,2025-08-29,アークシル合同会社,,合同会社,埼玉県,戸田市,南町８－３３ハイラーク戸田公園１００７,,11,224,3350025,,,,,,,2025-08-29,1,,,,,アークシル,0
2214,9040003028340,新規,0,2025-08-29,2025-08-29,テックグロース合同会社,,合同会社,千葉県,船橋市,七林町４３６番地２６８,,12,204,2740821,,,,,,,2025-08-29,1,,,,,テックグロース,0
2217,9050001057175,新規,0,2025-08-29,2025-08-29,株式会社衆興工業,,株式会社,茨城県,石岡市,柿岡１０８２番地,,08,205,3150116,,,,,,,2025-08-29,1,,,,,シュウコウコウギョウ,0
2224,9080003003538,新規,0,2025-08-29,2025-08-29,合同会社いなせ不動産,,合同会社,静岡県,藤枝市,大洲５丁目５番地の５０,,22,214,4260051,,,,,,,2025-08-29,1,,,,,イナセフドウサン,0
2225,9080101025748,新規,0,2025-08-29,2025-08-29,株式会社エベレストフーズ,,株式会社,静岡県,沼津市,大手町３丁目２－２２桃和ビル２０１,,22,203,4100801,,,,,,,2025-08-29,1,,,,,エベレストフーズ,0
2250,9120001279167,新規,0,2025-08-29,2025-08-29,ＧＸｐｏｒｔ株式会社,,株式会社,大阪府,大阪市天王寺区,東上町５番１７号ハイツフローリッシュ４０１号室,,27,109,5430026,,,,,,,2025-08-29,1,,,,,ジーエックスポート,0
2251,9120001279191,新規,0,2025-08-29,2025-08-29,株式会社ＡＲＩＶＡ,,株式会社,大阪府,大阪市中央区,東心斎橋２丁目８番６号ＬＵＸＥビル３階中号室,,27,128,5420083,,,,,,,2025-08-29,1,,,,,アリバ,0
2254,9120003030395,新規,0,2025-08-29,2025-08-29,合同会社環和,,合同会社,大阪府,大阪市西成区,萩之茶屋２丁目６番４号ニューかめや２２５号室,,27,122,5570004,,,,,,,2025-08-29,1,,,,,カンワ,0
2255,9120003030404,新規,0,2025-08-29,2025-08-29,合同会社ヒューマンテック,,合同会社,大阪府,大阪市生野区,田島１丁目１１番２８号,,27,116,5440011,,,,,,,2025-08-29,1,,,,,ヒューマンテック,0
2256,9120003030412,新規,0,2025-08-29,2025-08-29,合同会社テピコット,,合同会社,大阪府,大阪市西区,北堀江３丁目４番１９号大阪金物会館１０１号,,27,106,5500014,,,,,,,2025-08-29,1,,,,,テピコット,0
2264,9120901051410,新規,0,2025-08-29,2025-08-29,株式会社モッチモ＆アソシエイツ,,株式会社,大阪府,吹田市,古江台２丁目１０番１７－６０２号,,27,205,5650874,,,,,,,2025-08-29,1,,,,,モッチモアンドアソシエイツ,0
2276,9130003010660,新規,0,2025-08-29,2025-08-29,合同会社ＦＡライト,,合同会社,京都府,福知山市,篠尾新町２丁目２７番地３Ｆ,,26,201,6200055,,,,,,,2025-08-29,1,,,,,エフエーライト,0
2280,9140001139823,新規,0,2025-08-29,2025-08-29,コーヨー株式会社,,株式会社,兵庫県,神戸市須磨区,離宮前町２丁目７番４号,,28,107,6540065,,,,,,,2025-08-29,1,,,,,コーヨー,0
2281,9140001139831,新規,0,2025-08-29,2025-08-29,株式会社綴未,,株式会社,兵庫県,姫路市,飾磨区下野田４丁目５２７番地２,,28,201,6728044,,,,,,,2025-08-29,1,,,,,ツヅミ,0
2285,9150001028356,新規,0,2025-08-29,2025-08-29,株式会社ケイズコーズ,,株式会社,奈良県,奈良市,西千代ヶ丘２丁目７番６号,,29,201,6310046,,,,,,,2025-08-29,1,,,,,ケイズコーズ,0
2286,9170003002282,新規,0,2025-08-29,2025-08-29,合同会社Ｒｅｆｉｎｅ,,合同会社,和歌山県,橋本市,高野口町向島９８番地の１４,,30,203,6497206,,,,,,,2025-08-29,1,,,,,リファイン,0
2292,9180003028946,新規,0,2025-08-29,2025-08-29,合同会社Ａｓｔｅｐ,,合同会社,愛知県,一宮市,森本３丁目７番２０号,,23,203,4910831,,,,,,,2025-08-29,1,,,,,アステップ,0
2299,9200001044166,新規,0,2025-08-29,2025-08-29,エスキャピタル株式会社,,株式会社,岐阜県,岐阜市,金町８丁目１番地フロンティア丸杉ビル,,21,201,5008842,,,,,,,2025-08-29,1,,,,,エスキャピタル,0
2300,9200001044174,新規,0,2025-08-29,2025-08-29,トグフォース株式会社,,株式会社,岐阜県,養老郡養老町,祖父江２１５０番地１,,21,341,5031305,,,,,,,2025-08-29,1,,,,,トグフォース,0
2306,9260001040473,新規,0,2025-08-29,2025-08-29,ＰＲＩＭＥ　ＧＡＴＥ株式会社,,株式会社,岡山県,岡山市北区,厚生町２丁目７－１７アルフィーネ厚生町１０５,,33,101,7000985,,,,,,,2025-08-29,1,,,,,プライムゲイト,0
2309,9260003005318,新規,0,2025-08-29,2025-08-29,合同会社クリーンアップサポート,,合同会社,岡山県,倉敷市,庄新町２番２－６号,,33,202,7010102,,,,,,,2025-08-29,1,,,,,クリーンアップサポート,0
2314,9290003017302,新規,0,2025-08-29,2025-08-29,合同会社からだ調律サロン琴音,,合同会社,福岡県,みやま市,高田町岩津６０２番地１,,40,229,8390223,,,,,,,2025-08-29,1,,,,,カラダチョウリツサロンコトネ,0
2315,9290003017319,新規,0,2025-08-29,2025-08-29,シャロ合同会社,,合同会社,福岡県,福岡市博多区,博多駅南５丁目２番１６号Ｒマンション駅南５０２,,40,132,8120016,,,,,,,2025-08-29,1,,,,,シャロ,0
2327,9360001035703,新規,0,2025-08-29,2025-08-29,株式会社ビ・アール・ディ,,株式会社,沖縄県,浦添市,字経塚８１１－９８,00140454,47,208,9012111,,,,,,,2025-08-29,1,,,,,ビアールディ,0
2333,9360003015199,新規,0,2025-08-29,2025-08-29,合同会社結和,,合同会社,沖縄県,浦添市,西原４丁目１２番１１号,,47,208,9012101,,,,,,,2025-08-29,1,,,,,ユイワ,0
2340,9420003003172,新規,0,2025-08-29,2025-08-29,合同会社農場文庫,,合同会社,青森県,十和田市,東二十一番町３番１５号,,02,206,0340014,,,,,,,2025-08-29,1,,,,,ノウジョウブンコ,0
2343,9430001095161,新規,0,2025-08-29,2025-08-29,ＡＩプロパティ＆テクノロジー株式会社,,株式会社,北海道,北広島市,Ｆビレッジ６番地レ・ジェイド北海道ボールパーク８０１号室,,01,234,0611116,,,,,,,2025-08-29,1,,,,,エーアイプロパティアンドテクノロジー,0
2348,9470005006648,新規,0,2025-08-29,2025-08-29,医療法人社団博裕会,,その他の設立登記法人,香川県,丸亀市,西平山町１１１番地２,,37,202,7630041,,,,,,,2025-08-29,1,,,,,ハクユウカイ,0
