sequenceNumber,corporateNumber,process,correct,updateDate,changeDate,name,nameImageId,kind,prefectureName,cityName,streetNumber,addressImageId,prefectureCode,cityCode,postCode,addressOutside,addressOutsideImageId,closeDate,closeCause,successorCorporateNumber,changeCause,assignmentDate,latest,enName,enPrefectureName,enCityName,enAddressOutside,furigana,hihyoji
8,1010001130802,登記記録の閉鎖等,0,2022-12-06,2022-11-30,株式会社グランデ,,株式会社,東京都,中央区,銀座８丁目６番２１号ウォータータワービル５階,,13,102,1040061,,,2022-11-30,合併による解散等,4010001170647,令和４年１１月３０日東京都中央区銀座八丁目６番４号株式会社グランデ（4010001170647）に合併し解散,2015-10-05,1,,,,,グランデ,0
48,1011001094748,登記記録の閉鎖等,0,2022-12-06,2022-11-30,フェニックス・フーズ株式会社,,株式会社,神奈川県,横浜市西区,みなとみらい４丁目４番５号,,14,103,2200012,,,2022-11-30,清算の結了等,,,2015-10-05,1,,,,,フェニックスフーズ,0
51,1011001119711,登記記録の閉鎖等,0,2022-12-06,2022-11-29,マザーケアジャパン株式会社,,株式会社,東京都,渋谷区,本町３丁目１２番１号,,13,113,1510071,,,2022-11-29,清算の結了等,,,2017-12-12,1,,,,,マザーケアジャパン,0
67,1011601001772,登記記録の閉鎖等,0,2022-12-06,2022-12-01,株式会社協伸,,株式会社,東京都,練馬区,関町南１丁目１１番２９号,,13,120,1770053,,,2022-12-01,合併による解散等,7011601000348,令和４年１２月１日東京都練馬区高松六丁目３３番１４号アライ電機産業株式会社（7011601000348）に合併し解散,2015-10-05,1,,,,,キョウシン,0
93,1020003013368,登記記録の閉鎖等,0,2022-12-06,2022-12-01,Ｏｈｎｏ　Ｓｏｌａｒ合同会社,,合同会社,神奈川県,横浜市都筑区,大棚町７４番地８サングレイス港北３０７,,14,118,2240027,,,2022-12-01,清算の結了等,,,2017-10-04,1,,,,,オオノソーラー,0
99,1021001071696,登記記録の閉鎖等,0,2022-12-06,2022-11-30,株式会社ＹＣ茅ヶ崎西部,,株式会社,神奈川県,茅ヶ崎市,東海岸北４丁目６番４７号,,14,207,2530053,,,2022-11-30,合併による解散等,9021001007924,令和４年１１月３０日神奈川県茅ヶ崎市東海岸北四丁目６番４７号株式会社湘南トレンディー（9021001007924）に合併し解散,2020-12-25,1,,,,,ワイシーチガサキセイブ,0
108,1030001122913,登記記録の閉鎖等,0,2022-12-06,2022-12-01,株式会社スリーギブアンドシェア,,株式会社,埼玉県,上尾市,小泉２丁目１番３号,,11,219,3620063,,,2022-12-01,清算の結了等,,,2017-11-09,1,,,,,スリーギブアンドシェア,0
115,1030002029653,登記記録の閉鎖等,0,2022-12-06,2022-12-01,有限会社真帆,,有限会社,埼玉県,所沢市,東狭山ケ丘１丁目２９番地の５,,11,208,3591106,,,2022-12-01,清算の結了等,,,2015-10-05,1,,,,,マホ,0
116,1030003015025,登記記録の閉鎖等,0,2022-12-06,2022-11-30,合同会社オネスティ,,合同会社,埼玉県,川口市,並木２丁目１０－１７コンフォルト西川口１００１,,11,203,3320034,,,2022-11-30,清算の結了等,,,2020-03-30,1,,,,,オネスティ,0
145,1110001019556,登記記録の閉鎖等,0,2022-12-06,2022-12-01,株式会社キヨサト生コン,,株式会社,新潟県,上越市,清里区今曽根６８５番地３,,15,222,9430513,,,2022-12-01,合併による解散等,9110001019557,令和４年１２月１日新潟県上越市清里区寺脇７７７番地の１株式会社三原田組（9110001019557）に合併し解散,2015-10-05,1,,,,,キヨサトナマコン,0
147,1110001033805,登記記録の閉鎖等,0,2022-12-06,2022-12-01,株式会社ＦＩＮＥ　ＥＦＦＥＣＴ,,株式会社,神奈川県,横浜市西区,みなとみらい４丁目４番２号横浜ブルーアベニュー１２階,,14,103,2200012,,,2022-12-01,清算の結了等,,,2019-02-05,1,,,,,ファインエフェクト,0
149,1120001060220,登記記録の閉鎖等,0,2022-12-06,2022-12-01,株式会社アートフロンテイア,,株式会社,大阪府,大阪市北区,天満３丁目６番１８号,,27,127,5300043,,,2022-12-01,清算の結了等,,,2015-10-05,1,,,,,アートフロンティア,0
150,1120001090060,登記記録の閉鎖等,0,2022-12-06,2022-12-05,株式会社丸大,,株式会社,大阪府,大阪市中央区,松屋町６番１０－２０２号,,27,128,5420067,,,2022-12-05,清算の結了等,,,2015-10-05,1,,,,,マルダイ,0
186,1140001070218,登記記録の閉鎖等,0,2022-12-06,2022-12-01,株式会社フジワラ設計事務所,,株式会社,兵庫県,西宮市,芦原町７番１５号,,28,204,6620842,,,2022-12-01,合併による解散等,6140001070205,令和４年１２月１日兵庫県西宮市芦原町７番１５号株式会社フジックス建設（6140001070205）に合併し解散,2015-10-05,1,,,,,,0
199,1150001002491,登記記録の閉鎖等,0,2022-12-06,2022-11-30,株式会社山田ハウジング,,株式会社,奈良県,奈良市,帝塚山４丁目３番２７号,,29,201,6310062,,,2022-11-30,清算の結了等,,,2015-10-05,1,,,,,ヤマダハウジング,0
217,1180005002997,登記記録の閉鎖等,0,2022-12-06,2022-12-01,大同特殊鋼高蔵労働組合,,その他の設立登記法人,愛知県,名古屋市熱田区,六野１丁目２番５号大同特殊鋼株式会社高蔵製作所内,,23,109,4560023,,,2022-12-01,清算の結了等,,,2015-10-05,1,,,,,ダイドウトクシュコウタカクラ,0
247,1260002017718,登記記録の閉鎖等,0,2022-12-06,2022-12-02,有限会社倉敷機電工業,,有限会社,岡山県,倉敷市,大畠２丁目１７番６号,,33,202,7110924,,,2022-12-02,清算の結了等,,,2015-10-05,1,,,,,クラシキキデンコウギョウ,0
251,1280002001075,登記記録の閉鎖等,0,2022-12-06,2022-12-02,有限会社深海,,有限会社,島根県,松江市,東本町２丁目４２番地,,32,201,6900842,,,2022-12-02,清算の結了等,,,2015-10-05,1,,,,,シンカイ,0
253,1290001058124,登記記録の閉鎖等,0,2022-12-06,2022-12-01,株式会社レイ・コーポレーション,,株式会社,福岡県,福岡市博多区,東光寺町１丁目１１番３０号,,40,132,8120896,,,2022-12-01,合併による解散等,8290001017148,令和４年１２月１日福岡市博多区東光寺町一丁目１１番３０号株式会社ヤナギ研究所（8290001017148）に合併し解散,2015-10-05,1,,,,,レイコーポレーション,0
324,2010001187107,登記記録の閉鎖等,0,2022-12-06,2022-12-01,いちご土地心築株式会社,,株式会社,東京都,千代田区,内幸町１丁目１番１号,,13,101,1000011,,,2022-12-01,合併による解散等,1010001125620,令和４年１２月１日東京都千代田区内幸町一丁目１番１号いちご地所株式会社（1010001125620）に合併し解散,2017-10-20,1,,,,,イチゴトチシンチク,0
344,2010401141885,登記記録の閉鎖等,0,2022-12-06,2022-12-02,株式会社ウム,,株式会社,東京都,渋谷区,道玄坂１丁目１６番３号,,13,113,1500043,,,2022-12-02,清算の結了等,,,2018-11-08,1,,,,,ウム,0
345,2010401157873,登記記録の閉鎖等,0,2022-12-06,2022-12-01,ＺＥＮＨ株式会社,,株式会社,大阪府,大阪市北区,大深町３番１号グランフロント大阪北館６階,,27,127,5300011,,,2022-12-01,清算の結了等,,,2021-01-29,1,,,,,ゼン,0
387,2011101071968,登記記録の閉鎖等,0,2022-12-06,2022-12-02,株式会社レゴリスギア,,株式会社,東京都,台東区,台東２丁目６番６号陽輪台みかみビル４０５,,13,106,1100016,,,2022-12-02,清算の結了等,,,2015-10-05,1,,,,,レゴリスギア,0
393,2011402001665,登記記録の閉鎖等,0,2022-12-06,2022-12-01,有限会社エム・ケイ・メンテナンス,,有限会社,東京都,板橋区,南町３５番９号,,13,119,1730027,,,2022-12-01,清算の結了等,,,2015-10-05,1,,,,,エムケイメンテナンス,0
397,2011702007461,登記記録の閉鎖等,0,2022-12-06,2022-12-02,有限会社チカラビルサービス,,有限会社,東京都,江戸川区,東小岩５丁目１４番７号,,13,123,1330052,,,2022-12-02,清算の結了等,,,2015-10-05,1,,,,,チカラビルサービス,0
409,2013101003208,登記記録の閉鎖等,0,2022-12-06,2022-12-02,武蔵オート販売株式会社,,株式会社,東京都,福生市,大字熊川１１００番地１０,,13,218,1970003,,,2022-12-02,清算の結了等,,,2015-10-05,1,,,,,ムサシオートハンバイ,0
412,2013201001103,登記記録の閉鎖等,0,2022-12-06,2022-12-01,株式会社大木商店,,株式会社,東京都,目黒区,洗足１丁目１７番５号,,13,110,1520012,,,2022-12-01,清算の結了等,,,2015-10-05,1,,,,,オオキショウテン,0
416,2020001011752,登記記録の閉鎖等,0,2022-12-06,2022-11-29,株式会社テッラリブラ,,株式会社,神奈川県,横浜市青葉区,あざみ野４丁目９番地２１,,14,117,2250011,,,2022-11-29,清算の結了等,,,2022-10-26,1,,,,,テッラリブラ,0
420,2020001108623,登記記録の閉鎖等,0,2022-12-06,2022-11-30,株式会社共映システム,,株式会社,神奈川県,横浜市都筑区,東方町８６１番地,,14,118,2240045,,,2022-11-30,合併による解散等,2020001046121,令和４年１１月３０日横浜市青葉区桜台２５番地１桜台ビレッジショッピングコリドールＦ１１株式会社アクアラボ（2020001046121）に合併し解散,2015-10-05,1,,,,,キョウエイシステム,0
421,2020001117938,登記記録の閉鎖等,0,2022-12-06,2022-12-01,株式会社青葉電設,,株式会社,神奈川県,横浜市青葉区,あかね台２丁目１８番地２５,,14,117,2270066,,,2022-12-01,清算の結了等,,,2016-09-21,1,,,,,アオバデンセツ,0
429,2020002080400,登記記録の閉鎖等,0,2022-12-06,2022-11-30,有限会社オサム工業,,有限会社,神奈川県,川崎市幸区,戸手本町１丁目１１７番４号,,14,132,2120023,,,2022-11-30,清算の結了等,,,2015-10-05,1,,,,,オサムコウギョウ,0
436,2030001026428,登記記録の閉鎖等,0,2022-12-06,2022-12-01,株式会社ソニック,,株式会社,埼玉県,狭山市,大字東三ツ木１０２番地の５１,,11,215,3501302,,,2022-12-01,清算の結了等,,,2015-10-05,1,,,,,ソニック,0
452,2040003008687,登記記録の閉鎖等,0,2022-12-06,2022-11-28,合同会社ＣＨＡＰＴＥＲ　ＴＷＯ,,合同会社,千葉県,佐倉市,飯田９２８番地５,,12,212,2850032,,,2022-11-28,清算の結了等,,,2016-06-09,1,,,,,,0
453,2040003014776,登記記録の閉鎖等,0,2022-12-06,2022-11-28,フロンティアソリューションズ株式会社,,株式会社,千葉県,鎌ケ谷市,鎌ケ谷１丁目１番１９－１号,,12,224,2730105,,,2022-11-28,清算の結了等,,,2020-02-04,1,,,,,フロンティアソリューションズ,0
457,2050001038685,登記記録の閉鎖等,0,2022-12-06,2022-12-01,株式会社ＨＭ,,株式会社,茨城県,水戸市,見川５丁目１６２番６号,,08,201,3100912,,,2022-12-01,清算の結了等,,,2015-10-05,1,,,,,,0
471,2090001015524,登記記録の閉鎖等,0,2022-12-06,2022-11-29,株式会社Ｒａｔレスキュー,,株式会社,山梨県,甲府市,大里町１９２２番地３,,19,201,4000053,,,2022-11-29,清算の結了等,,,2018-04-17,1,,,,,ラットレスキュー,0
476,2110001019555,登記記録の閉鎖等,0,2022-12-06,2022-12-01,株式会社三商,,株式会社,新潟県,上越市,清里区寺脇７７７番地１,,15,222,9430521,,,2022-12-01,合併による解散等,9110001019557,令和４年１２月１日新潟県上越市清里区寺脇７７７番地の１株式会社三原田組（9110001019557）に合併し解散,2015-10-05,1,,,,,サンショウ,0
493,2120101047926,登記記録の閉鎖等,0,2022-12-06,2022-12-05,株式会社イースト・サイド・マリオズ,,株式会社,大阪府,和泉市,青葉台３丁目１１番６号,,27,219,5941153,,,2022-12-05,清算の結了等,,,2015-10-05,1,,,,,イーストサイドマリオズ,0
537,2220001013464,登記記録の閉鎖等,0,2022-12-06,2022-12-01,株式会社山代プラザ,,株式会社,石川県,加賀市,山代温泉１６の７８番地１,,17,206,9220242,,,2022-12-01,合併による解散等,1220001006411,令和４年１２月１日石川県金沢市割出町５５６番地北陸鉄道株式会社（1220001006411）に合併し解散,2015-10-05,1,,,,,ヤマシロプラザ,0
546,2240002022842,登記記録の閉鎖等,0,2022-12-06,2022-12-05,有限会社陣栄工業,,有限会社,広島県,広島市佐伯区,藤の木３丁目６番１６号,,34,108,7315103,,,2022-12-05,清算の結了等,,,2015-10-05,1,,,,,ジンエイコウギョウ,0
552,2240003003759,登記記録の閉鎖等,0,2022-12-06,2022-11-30,ビーエスジェー合同会社,,合同会社,広島県,東広島市,西条下見６丁目１１番８号サンファンリセス１０５０号,,34,212,7390047,,,2022-11-30,合併による解散等,1240001047973,令和４年１１月３０日広島県東広島市西条下見六丁目１１番８サンファンリセス１０５０号テラスプランニング株式会社（1240001047973）に合併し解散,2018-01-04,1,,,,,ビーエスジェー,0
559,2260002026569,登記記録の閉鎖等,0,2022-12-06,2022-11-29,有限会社秀作工房,,有限会社,千葉県,茂原市,茂原１２１番地,,12,210,2970026,,,2022-11-29,清算の結了等,,,2015-10-05,1,,,,,シュウサクコウボウ,0
568,2310005001885,登記記録の閉鎖等,0,2022-12-06,2022-12-05,医療法人社団宮崎耳鼻咽喉科医院,,その他の設立登記法人,長崎県,西彼杵郡長与町,嬉里郷１４８番地１３,,42,307,8512128,,,2022-12-05,清算の結了等,,,2015-10-05,1,,,,,ミヤザキジビインコウカイイン,0
581,2380002025716,登記記録の閉鎖等,0,2022-12-06,2022-11-30,有限会社フイットネス・ニューボデイ,,有限会社,福島県,いわき市,内郷高野町川平５０番地の２,,07,204,9738406,,,2022-11-30,清算の結了等,,,2015-10-05,1,,,,,フィットネスニューボデイ,0
651,3010603004963,登記記録の閉鎖等,0,2022-12-06,2022-12-01,合同会社オールハッピー,,合同会社,宮城県,仙台市太白区,桜木町３６番５号,,04,104,9820835,,,2022-12-01,合併による解散等,6370003002463,令和４年１２月１日仙台市太白区桜木町３６番５号合同会社ＡＭＧ（6370003002463）に合併し解散,2015-10-05,1,,,,,オールハッピー,0
670,3011301004289,登記記録の閉鎖等,0,2022-12-06,2022-11-29,株式会社タリサイ,,株式会社,東京都,杉並区,荻窪４丁目２１番１２号,,13,115,1670051,,,2022-11-29,清算の結了等,,,2015-10-05,1,,,,,タリサイ,0
713,3020002063164,登記記録の閉鎖等,0,2022-12-06,2022-12-02,有限会社集和建工,,有限会社,神奈川県,横浜市戸塚区,汲沢６丁目３０番２２－２０３号,00011209,14,110,2450061,,,2022-12-02,清算の結了等,,,2015-10-05,1,,,,,,0
741,3040001047034,登記記録の閉鎖等,0,2022-12-06,2022-11-28,株式会社林建材,,株式会社,千葉県,佐倉市,城７６６番地の１,,12,212,2850815,,,2022-11-28,清算の結了等,,,2015-10-05,1,,,,,ハヤシケンザイ,0
742,3040001047810,登記記録の閉鎖等,0,2022-12-06,2022-11-28,八街観光旅行株式会社,,株式会社,千葉県,八街市,八街ほ３７３番地６９,,12,230,2891115,,,2022-11-28,清算の結了等,,,2015-10-05,1,,,,,ヤチマタカンコウリョコウ,0
767,3110001032623,登記記録の閉鎖等,0,2022-12-06,2022-12-01,株式会社コールサポート,,株式会社,新潟県,新発田市,大伝５２３番地５,,15,206,9592304,,,2022-12-01,清算の結了等,,,2017-08-08,1,,,,,コールサポート,0
771,3120001005792,登記記録の閉鎖等,0,2022-12-06,2022-12-05,大豊興業株式会社,,株式会社,大阪府,大阪市阿倍野区,桃ケ池町２丁目９番６号,,27,119,5450012,,,2022-12-05,清算の結了等,,,2015-10-05,1,,,,,タイホウコウギョウ,0
778,3120001206705,登記記録の閉鎖等,0,2022-12-06,2022-12-05,ＨＳ　ＴＲＡＤＩＮＧ株式会社,,株式会社,大阪府,大阪市中央区,高麗橋１丁目６番６号３Ｆ,,27,128,5410043,,,2022-12-05,清算の結了等,,,2017-07-04,1,,,,,エイチエストレーディング,0
812,3180001024589,登記記録の閉鎖等,0,2022-12-06,2022-11-30,株式会社愛豊商会,,株式会社,愛知県,稲沢市,奥田町古知野５０３７番地２４,,23,220,4928233,,,2022-11-30,清算の結了等,,,2015-10-05,1,,,,,アイホウショウカイ,0
833,3240002035892,登記記録の閉鎖等,0,2022-12-06,2022-12-02,有限会社ケー・ダッシュ,,有限会社,広島県,江田島市,大柿町大原字鳥井元１０２５－１,,34,215,7372213,,,2022-12-02,清算の結了等,,,2015-10-05,1,,,,,ケーダッシュ,0
844,3260001031255,登記記録の閉鎖等,0,2022-12-06,2022-12-01,ミュンスター株式会社,,株式会社,岡山県,新見市,高尾３６２番地の１,,33,210,7180003,,,2022-12-01,合併による解散等,1260001030259,令和４年１２月１日岡山県新見市高尾３６２番地の１ＫａｅＲｕｕ株式会社（1260001030259）に合併し解散,2017-09-13,1,,,,,ミュンスター,0
845,3260001033425,登記記録の閉鎖等,0,2022-12-06,2022-12-01,株式会社ＷＥＳＴ,,株式会社,岡山県,倉敷市,笹沖４８７番地１,,33,202,7100834,,,2022-12-01,合併による解散等,3260001025414,令和４年１２月１日岡山県倉敷市笹沖４８７番地１株式会社大建地所ＮＸ（3260001025414）に合併し解散,2019-08-07,1,,,,,ウエスト,0
848,3260002023318,登記記録の閉鎖等,0,2022-12-06,2022-12-02,有限会社ＴＴＳ,,有限会社,岡山県,倉敷市,真備町市場２８１６番地の３２,,33,202,7101305,,,2022-12-02,清算の結了等,,,2015-10-05,1,,,,,ティーティーエス,0
864,3340002024522,登記記録の閉鎖等,0,2022-12-06,2022-12-02,有限会社アクアシステム,,有限会社,鹿児島県,南九州市,頴娃町別府５５９番地,,46,223,8910704,,,2022-12-02,清算の結了等,,,2015-10-05,1,,,,,アクアシステム,0
876,3370001042472,登記記録の閉鎖等,0,2022-12-06,2022-12-02,株式会社Ｔｏｒｕｓｌｉｎｋ,,株式会社,宮城県,柴田郡大河原町,金ケ瀬字土手下６０番地１,,04,321,9891224,,,2022-12-02,清算の結了等,,,2018-01-05,1,,,,,トーラスリンク,0
899,3460101003415,登記記録の閉鎖等,0,2022-12-06,2022-11-29,株式会社忠類振興公社,,株式会社,北海道,中川郡幕別町,忠類白銀町３８４番地１,,01,643,0891701,,,2022-11-29,清算の結了等,,,2015-10-05,1,,,,,チュウルイシンコウコウシャ,0
900,3460102006301,登記記録の閉鎖等,0,2022-12-06,2022-12-02,有限会社平賀電機産業,,有限会社,北海道,中川郡本別町,南３丁目５番地,,01,646,0893314,,,2022-12-02,清算の結了等,,,2015-10-05,1,,,,,ヒラガデンキサンギョウ,0
903,3480003001572,登記記録の閉鎖等,0,2022-12-06,2022-12-02,合同会社Ｋ－ＮＥＸＴ,,合同会社,徳島県,徳島市,川内町平石夷野１５０ハーヴェストＩＡ－４,00121332,36,201,7710132,,,2022-12-02,清算の結了等,,,2020-11-13,1,,,,,ケイネクスト,0
912,4010001070062,登記記録の閉鎖等,0,2022-12-06,2022-12-01,日本ネットワーク・エンジニアリング株式会社,,株式会社,東京都,中央区,銀座７丁目１５番５号,,13,102,1040061,,,2022-12-01,合併による解散等,8010001001716,令和４年１２月１日東京都文京区白山一丁目３７番６号Ｊ－ＰＯＷＥＲテレコミュニケーションサービス株式会社（8010001001716）に合併し解散,2015-10-05,1,,,,,ニホンネットワークエンジニアリング,0
928,4010005034096,登記記録の閉鎖等,0,2022-12-06,2022-12-02,一般社団法人えびす,,その他の設立登記法人,東京都,千代田区,丸の内３丁目１番１号東京共同会計事務所内,,13,101,1000005,,,2022-12-02,清算の結了等,,,2021-10-19,1,,,,,エビス,0
944,4010502022719,登記記録の閉鎖等,0,2022-12-06,2022-12-01,有限会社銀座,,有限会社,東京都,台東区,浅草橋３丁目２６番５号,,13,106,1110053,,,2022-12-01,合併による解散等,3010501047040,令和４年１２月１日東京都台東区浅草橋三丁目２６番５号株式会社ＫＢホールディングス（3010501047040）に合併し解散,2015-10-05,1,,,,,ギンザ,0
947,4010602024499,登記記録の閉鎖等,0,2022-12-06,2022-11-21,ティージェー通商有限会社,,有限会社,東京都,江東区,亀戸１丁目４３番９－７０８号,,13,108,1360071,,,2022-11-21,清算の結了等,,,2015-10-05,1,,,,,,0
948,4010703005968,登記記録の閉鎖等,0,2022-12-06,2022-12-02,エーアイライフ合同会社,,合同会社,東京都,品川区,東品川４丁目１３番１０－７０６号,,13,109,1400002,,,2022-12-02,清算の結了等,,,2021-10-13,1,,,,,エーアイライフ,0
955,4011001061101,登記記録の閉鎖等,0,2022-12-06,2022-12-02,ＣＯＡテクノロジ株式会社,,株式会社,東京都,渋谷区,鶯谷町５番６号武田ビル３号,,13,113,1500032,,,2022-12-02,清算の結了等,,,2015-10-05,1,,,,,,0
967,4011002014116,登記記録の閉鎖等,0,2022-12-06,2022-12-05,有限会社ディーコード,,有限会社,東京都,渋谷区,神宮前３丁目１５番２２号,,13,113,1500001,,,2022-12-05,清算の結了等,,,2015-10-05,1,,,,,ディーコード,0
968,4011003005361,登記記録の閉鎖等,0,2022-12-06,2022-11-29,合同会社ｍｃｊａ,,合同会社,東京都,渋谷区,西原２丁目３番３号,,13,113,1510066,,,2022-11-29,清算の結了等,,,2015-10-05,1,,,,,エムシージェーエー,0
1022,4030001078120,登記記録の閉鎖等,0,2022-12-06,2022-11-30,株式会社栄晃箔押企画,,株式会社,埼玉県,川口市,末広１丁目２５番６号,,11,203,3320006,,,2022-11-30,清算の結了等,,,2015-10-05,1,,,,,エイコウハクオシキカク,0
1023,4030001119642,登記記録の閉鎖等,0,2022-12-06,2022-11-30,萬福株式会社,,株式会社,千葉県,千葉市花見川区,天戸町９８２番１天戸台市原ビル１階,,12,102,2620043,,,2022-11-30,清算の結了等,,,2017-04-11,1,,,,,マンプク,0
1025,4030001135367,登記記録の閉鎖等,0,2022-12-06,2022-12-02,株式会社Ｍｅｅｒ,,株式会社,埼玉県,吉川市,大字川藤８２５番１,,11,243,3420005,,,2022-12-02,清算の結了等,,,2020-03-02,1,,,,,メーア,0
1031,4030002076429,登記記録の閉鎖等,0,2022-12-06,2022-12-01,有限会社オービット,,有限会社,埼玉県,ふじみ野市,大井武蔵野１３４７番地の２０,,11,245,3560054,,,2022-12-01,清算の結了等,,,2015-10-05,1,,,,,オービット,0
1033,4040001050103,登記記録の閉鎖等,0,2022-12-06,2022-11-28,株式会社ＮＫＦＩＥＬＤ,,株式会社,千葉県,八街市,八街に１０６番地２２５,,12,230,2891103,,,2022-11-28,清算の結了等,,,2015-10-05,1,,,,,,0
1046,4060001020698,登記記録の閉鎖等,0,2022-12-06,2022-12-01,株式会社佑昌,,株式会社,栃木県,佐野市,下羽田町２０１５番地,,09,204,3270044,,,2022-12-01,合併による解散等,9010601010132,令和４年１２月１日栃木県佐野市下羽田町２０１７番地株式会社協成産業（9010601010132）に合併し解散,2015-10-05,1,,,,,ユウショウ,0
1049,4070002002348,登記記録の閉鎖等,0,2022-12-06,2022-11-30,有限会社桜井塗料店,,有限会社,群馬県,前橋市,若宮町３丁目６番１９号,,10,201,3710032,,,2022-11-30,清算の結了等,,,2015-10-05,1,,,,,サクライトリョウテン,0
1058,4090001016132,登記記録の閉鎖等,0,2022-12-06,2022-11-25,株式会社開平企画,,株式会社,山梨県,笛吹市,春日居町寺本１９２番地,,19,211,4060013,,,2022-11-25,清算の結了等,,,2019-07-31,1,,,,,カイヘイキカク,0
1060,4100002018555,登記記録の閉鎖等,0,2022-12-06,2022-11-30,信濃建設有限会社,,有限会社,長野県,下高井郡山ノ内町,大字夜間瀬２７０６番地,,20,561,3810405,,,2022-11-30,清算の結了等,,,2015-10-05,1,,,,,シナノケンセツ,0
1062,4110002032530,登記記録の閉鎖等,0,2022-12-06,2022-12-01,有限会社ＳＵＮ鋼業,,有限会社,新潟県,小千谷市,城内２丁目１番５号,,15,208,9470028,,,2022-12-01,合併による解散等,6110001011608,令和４年１２月１日新潟県新潟市秋葉区川口５７８番地９神田鉄筋工業株式会社（6110001011608）に合併し解散,2015-10-05,1,,,,,サンコウギョウ,0
1065,4120001058724,登記記録の閉鎖等,0,2022-12-06,2022-12-02,株式会社宮本真空,,株式会社,大阪府,大阪市淀川区,宮原１丁目１９番１０号新大阪エクセルビル４０４,,27,123,5320003,,,2022-12-02,清算の結了等,,,2015-10-05,1,,,,,ミヤモトシンクウ,0
1075,4120002045341,登記記録の閉鎖等,0,2022-12-06,2022-12-01,チヨダビルサービス有限会社,,有限会社,大阪府,大阪市北区,西天満４丁目３番１８号,,27,127,5300047,,,2022-12-01,合併による解散等,1120001106056,令和４年１２月１日大阪市北区西天満四丁目３番１８号前田不動産株式会社（1120001106056）に合併し解散,2015-10-05,1,,,,,チヨダビルサービス,0
1079,4120102004189,登記記録の閉鎖等,0,2022-12-06,2022-12-01,有限会社不動ブック,,有限会社,大阪府,堺市中区,福田４８４番地４５,,27,142,5998241,,,2022-12-01,清算の結了等,,,2015-10-05,1,,,,,フドウブック,0
1083,4120905006118,登記記録の閉鎖等,0,2022-12-06,2022-12-05,一般社団法人戦略的未病改善・健康増進医学会,,その他の設立登記法人,大阪府,吹田市,豊津町４１番１０－１０２号,,27,205,5640051,,,2022-12-05,清算の結了等,,,2021-01-06,1,,,,,センリャクテキミビョウカイゼンケンコウゾウシンイガッカイ,0
1084,4130001034609,登記記録の閉鎖等,0,2022-12-06,2022-12-01,株式会社アライヤインターナショナル,,株式会社,京都府,京都市右京区,嵯峨天龍寺油掛町１番地２２,,26,108,6168346,,,2022-12-01,清算の結了等,,,2015-10-05,1,,,,,アライヤインターナショナル,0
1089,4140001014337,登記記録の閉鎖等,0,2022-12-06,2022-12-01,株式会社宮浦商店,,株式会社,兵庫県,神戸市兵庫区,中道通３丁目３番７号,,28,105,6520801,,,2022-12-01,清算の結了等,,,2015-10-05,1,,,,,ミヤウラショウテン,0
1098,4150001009261,登記記録の閉鎖等,0,2022-12-06,2022-11-30,株式会社金井呉服店,,株式会社,奈良県,桜井市,大字桜井８７２番地,,29,206,6330091,,,2022-11-30,清算の結了等,,,2015-10-05,1,,,,,カナイゴフクテン,0
1109,4180001091851,登記記録の閉鎖等,0,2022-12-06,2022-12-01,株式会社知多中日サービス,,株式会社,愛知県,半田市,乙川八幡町１丁目２４番地の１１,,23,205,4750044,,,2022-12-01,清算の結了等,,,2015-10-05,1,,,,,チタチュウニチサービス,0
1118,4190001003211,登記記録の閉鎖等,0,2022-12-06,2022-12-01,株式会社いちい,,株式会社,三重県,津市,岩田３番８号,,24,201,5140838,,,2022-12-01,合併による解散等,8190001010773,令和４年１１月３０日三重県松阪市肥留町５９１番地株式会社ダイギ（8190001010773）に合併し解散,2015-10-05,1,,,,,イチイ,0
1132,4260001030966,登記記録の閉鎖等,0,2022-12-06,2022-12-02,株式会社イーライフ,,株式会社,岡山県,岡山市北区,大供表町１４番１号,,33,101,7000912,,,2022-12-02,合併による解散等,7260001033974,令和４年１１月３０日岡山市北区大供表町１４番１号株式会社マクロン（7260001033974）に合併し解散,2017-06-16,1,,,,,イーライフ,0
1136,4270002007459,登記記録の閉鎖等,0,2022-12-06,2022-11-30,有限会社山陰断熱工業所,,有限会社,鳥取県,米子市,上福原３丁目９番５０号,,31,202,6830004,,,2022-11-30,清算の結了等,,,2015-10-05,1,,,,,サンインダンネツコウギョウショ,0
1156,4350001009670,登記記録の閉鎖等,0,2022-12-06,2022-12-02,平原建設株式会社,,株式会社,宮崎県,串間市,大字西方１１９３２番地,,45,207,8880001,,,2022-12-02,清算の結了等,,,2015-10-05,1,,,,,ヒラバルケンセツ,0
1165,4380002022744,登記記録の閉鎖等,0,2022-12-06,2022-11-30,有限会社大谷唐板,,有限会社,福島県,いわき市,平沼ノ内諏訪原２丁目８番地の６,,07,204,9700222,,,2022-11-30,清算の結了等,,,2015-10-05,1,,,,,オオタニカライタ,0
1166,4380002031373,登記記録の閉鎖等,0,2022-12-06,2022-11-30,有限会社岡部工業,,有限会社,福島県,会津若松市,旭町６番５２号,,07,202,9650032,,,2022-11-30,清算の結了等,,,2015-10-05,1,,,,,オカベコウギョウ,0
1185,4460002003174,登記記録の閉鎖等,0,2022-12-06,2022-12-01,有限会社村山設備コンサル,,有限会社,北海道,釧路市,大楽毛西２丁目２８番１１号,,01,206,0840916,,,2022-12-01,清算の結了等,,,2015-10-05,1,,,,,ムラヤマセツビコンサル,0
1197,5010001000588,登記記録の閉鎖等,0,2022-12-06,2022-11-30,株式会社インコムマーケティングサービス,,株式会社,東京都,文京区,関口１丁目２３番６号プラザ江戸川橋,,13,105,1120014,,,2022-11-30,合併による解散等,2010001000582,令和４年１１月１日東京都文京区関口一丁目２３番６号プラザ江戸川橋株式会社インコム（2010001000582）に合併し解散,2015-10-05,1,,,,,インコムマーケティングサービス,0
1219,5010503004657,登記記録の閉鎖等,0,2022-12-06,2022-12-01,合同会社おうゆう会計,,合同会社,埼玉県,戸田市,大字新曽２３５２番地,,11,224,3350021,,,2022-12-01,清算の結了等,,,2016-04-11,1,,,,,オウユウカイケイ,0
1255,5011701007162,登記記録の閉鎖等,0,2022-12-06,2022-12-01,北越コンクリート工業株式会社,,株式会社,東京都,江戸川区,一之江６丁目６番１２号,,13,123,1320024,,,2022-12-01,清算の結了等,,,2015-10-05,1,,,,,ホクエツコンクリートコウギョウ,0
1263,5012402011164,登記記録の閉鎖等,0,2022-12-06,2022-12-02,有限会社桜塚商事,,有限会社,東京都,多摩市,関戸１丁目１０番地１０,,13,224,2060011,,,2022-12-02,清算の結了等,,,2015-10-05,1,,,,,,0
1277,5020002021938,登記記録の閉鎖等,0,2022-12-06,2022-11-30,有限会社塚本商店,,有限会社,神奈川県,横浜市旭区,都岡町５５番地４,,14,112,2410805,,,2022-11-30,清算の結了等,,,2015-10-05,1,,,,,ツカモトショウテン,0
1279,5020002032118,登記記録の閉鎖等,0,2022-12-06,2022-12-05,有限会社リビングショップ五味金物店,,有限会社,神奈川県,横浜市南区,睦町２丁目１７９番地の１０,,14,105,2320041,,,2022-12-05,清算の結了等,,,2015-10-05,1,,,,,,0
1292,5021002037560,登記記録の閉鎖等,0,2022-12-06,2022-12-01,有限会社エイ・エヌ・ディ,,有限会社,神奈川県,秦野市,松原町３番３６号,,14,211,2591313,,,2022-12-01,清算の結了等,,,2015-10-05,1,,,,,エイエヌディ,0
1310,5040001034336,登記記録の閉鎖等,0,2022-12-06,2022-11-29,松喜屋株式会社,,株式会社,千葉県,浦安市,猫実３丁目２８番２１号,,12,227,2790004,,,2022-11-29,清算の結了等,,,2015-10-05,1,,,,,マツキヤ,0
1333,5080102013994,登記記録の閉鎖等,0,2022-12-06,2022-12-02,有限会社佐藤熔材,,有限会社,静岡県,富士市,富士岡１５２３番地,,22,210,4170841,,,2022-12-02,清算の結了等,,,2015-10-05,1,,,,,サトウヨウザイ,0
1341,5100002007763,登記記録の閉鎖等,0,2022-12-06,2022-12-01,有限会社北長野介護センター,,有限会社,長野県,長野市,大字富竹４５５番地１３,,20,201,3810006,,,2022-12-01,清算の結了等,,,2015-10-05,1,,,,,キタナガノカイゴセンター,0
1352,5120001104329,登記記録の閉鎖等,0,2022-12-06,2022-12-01,ボンド販売株式会社,,株式会社,大阪府,大阪市中央区,道修町１丁目６番１０号,,27,128,5410045,,,2022-12-01,清算の結了等,,,2015-10-05,1,,,,,ボンドハンバイ,0
1362,5120002045340,登記記録の閉鎖等,0,2022-12-06,2022-12-01,有限会社ヤチヨエステート,,有限会社,大阪府,大阪市北区,西天満４丁目３番１８号,,27,127,5300047,,,2022-12-01,合併による解散等,1120001106056,令和４年１２月１日大阪市北区西天満四丁目３番１８号前田不動産株式会社（1120001106056）に合併し解散,2015-10-05,1,,,,,ヤチヨエステート,0
1363,5120101037577,登記記録の閉鎖等,0,2022-12-06,2022-12-05,株式会社フルヤ,,株式会社,大阪府,岸和田市,沼町１７番１号,,27,202,5960053,,,2022-12-05,清算の結了等,,,2015-10-05,1,,,,,フルヤ,0
1370,5120901037628,登記記録の閉鎖等,0,2022-12-06,2022-12-01,株式会社イントホープ,,株式会社,大阪府,豊中市,東泉丘１丁目１１番１９号,,27,203,5610861,,,2022-12-01,合併による解散等,3120901038768,令和４年１２月１日大阪府豊中市東泉丘一丁目１１番１９号株式会社イントサクセス（3120901038768）に合併し解散,2016-11-07,1,,,,,イントホープ,0
1380,5130002032098,登記記録の閉鎖等,0,2022-12-06,2022-11-30,提中浴槽有限会社,,有限会社,京都府,宮津市,字獅子崎小字問屋町１４４番地の１３,,26,205,6260065,,,2022-11-30,清算の結了等,,,2015-10-05,1,,,,,ダイナカヨクソウ,0
1385,5140001037171,登記記録の閉鎖等,0,2022-12-06,2022-12-05,株式会社ＷＡＬＬ　ＯＮＥ,,株式会社,兵庫県,明石市,藤江１５８３番地の１０,,28,203,6730044,,,2022-12-05,清算の結了等,,,2015-10-05,1,,,,,ウォールワン,0
1404,5180001142975,登記記録の閉鎖等,0,2022-12-06,2022-11-29,株式会社山内商会,,株式会社,愛知県,東海市,加木屋町北鹿持３４番地１８０,,23,222,4770032,,,2022-11-29,清算の結了等,,,2020-09-29,1,,,,,ヤマウチショウカイ,0
1410,5180003020972,登記記録の閉鎖等,0,2022-12-06,2022-12-01,合同会社ｈａｎｃｈａｍ,,合同会社,愛知県,一宮市,萩原町串作字松本１７番地１ハイレジデンス萩原苑９０１,,23,203,4910376,,,2022-12-01,清算の結了等,,,2020-03-23,1,,,,,ハンチャム,0
1411,5180005003059,登記記録の閉鎖等,0,2022-12-06,2022-12-01,日本鉄鋼産業労働組合連合会大同特殊鋼築地工場労働組合,,その他の設立登記法人,愛知県,名古屋市港区,龍宮町１０番地,,23,111,4550022,,,2022-12-01,清算の結了等,,,2015-10-05,1,,,,,ニホンテッコウサンギョウダイドウトクシュコウツキジコウジョウ,0
1425,5210002009336,登記記録の閉鎖等,0,2022-12-06,2022-12-02,有限会社糸工房タカマツ,,有限会社,福井県,大野市,矢１０号２６番地,,18,205,9120008,,,2022-12-02,清算の結了等,,,2015-10-05,1,,,,,イトコウボウタカマツ,0
1427,5220005006049,登記記録の閉鎖等,0,2022-12-06,2022-11-30,財団法人小木漁業後継者育成基金,,その他の設立登記法人,石川県,鳳珠郡能登町,字小木３４字１１番地,,17,463,9270553,,,2022-11-30,清算の結了等,,,2015-10-05,1,,,,,オギギョギョウコウケイシャイクセイキキン,0
1433,5240001047887,登記記録の閉鎖等,0,2022-12-06,2022-12-01,ＳＡＮＤ．Ｂ株式会社,,株式会社,広島県,広島市東区,牛田中２丁目１－２２,,34,102,7320065,,,2022-12-01,清算の結了等,,,2015-10-05,1,,,,,サンドビー,0
1437,5250001003617,登記記録の閉鎖等,0,2022-12-06,2022-12-01,三好保温工業株式会社,,株式会社,山口県,宇部市,大字小串字前堀８番地の１,,35,202,7550067,,,2022-12-01,清算の結了等,,,2015-10-05,1,,,,,ミヨシホオンコウギョウ,0
1451,5290001088877,登記記録の閉鎖等,0,2022-12-06,2022-12-01,株式会社エスエムケイ,,株式会社,福岡県,筑紫野市,上古賀３丁目１２番１５号,,40,217,8180041,,,2022-12-01,清算の結了等,,,2020-05-26,1,,,,,,0
1465,5340002006774,登記記録の閉鎖等,0,2022-12-06,2022-12-02,有限会社南栄商会,,有限会社,鹿児島県,鹿児島市,川上町２６５４番地２,,46,201,8920875,,,2022-12-02,清算の結了等,,,2015-10-05,1,,,,,ナンエイショウカイ,0
1466,5340002027523,登記記録の閉鎖等,0,2022-12-06,2022-12-01,有限会社しろやま農産,,有限会社,鹿児島県,曽於郡大崎町,假宿１０７５番地,,46,468,8997305,,,2022-12-01,清算の結了等,,,2015-10-05,1,,,,,シロヤマノウサン,0
1473,5370001018917,登記記録の閉鎖等,0,2022-12-06,2022-12-01,株式会社花兄園フーヅ,,株式会社,宮城県,仙台市太白区,三神峯２丁目２番３０号,,04,104,9820826,,,2022-12-01,合併による解散等,8370001001589,令和４年１２月１日仙台市太白区西の平一丁目１番３号株式会社花兄園（8370001001589）に合併し解散,2015-10-05,1,,,,,カケイエンフーヅ,0
1486,5430001077188,登記記録の閉鎖等,0,2022-12-06,2022-12-05,タイヤシティ株式会社,,株式会社,北海道,札幌市東区,北十四条東５丁目３番８号,,01,103,0650014,,,2022-12-05,清算の結了等,,,2018-08-09,1,,,,,タイヤシティ,0
1489,5430002063856,登記記録の閉鎖等,0,2022-12-06,2022-11-29,有限会社石尾商店,,有限会社,北海道,室蘭市,日の出町２丁目９番３号,,01,205,0500081,,,2022-11-29,清算の結了等,,,2015-10-05,1,,,,,イシオショウテン,0
1495,5460101001607,登記記録の閉鎖等,0,2022-12-06,2022-12-01,北海道トータルシステム株式会社,,株式会社,北海道,中川郡幕別町,札内春日町８９番地,,01,643,0890542,,,2022-12-01,清算の結了等,,,2015-10-05,1,,,,,ホッカイドウトータルシステム,0
1506,6010001145110,登記記録の閉鎖等,0,2022-12-06,2022-12-01,ポケットファーマシー販売株式会社,,株式会社,東京都,新宿区,西新宿３丁目８番４号,,13,104,1600023,,,2022-12-01,合併による解散等,6010001141745,令和４年１２月１日東京都新宿区西新宿三丁目８番４号株式会社メディカルフロント（6010001141745）に合併し解散,2015-10-05,1,,,,,ポケットファーマシーハンバイ,0
1520,6010005012406,登記記録の閉鎖等,0,2022-12-06,2022-12-02,特定非営利活動法人ブルースカイ推進機構,,その他の設立登記法人,東京都,千代田区,永田町２丁目４番７号秀和永田町レジデンス５０１,,13,101,1000014,,,2022-12-02,清算の結了等,,,2015-10-05,1,,,,,ブルースカイスイシンキコウ,0
1531,6010405013854,登記記録の閉鎖等,0,2022-12-06,2022-11-28,一般社団法人東日本太陽光発電事業,,その他の設立登記法人,東京都,港区,虎ノ門３丁目２２番１０－２０１号,,13,103,1050001,,,2022-11-28,清算の結了等,,,2015-10-05,1,,,,,ヒガシニッポンタイヨウコウハツデンジギョウ,0
1534,6010501036321,登記記録の閉鎖等,0,2022-12-06,2022-12-02,株式会社シグマックス,,株式会社,千葉県,八千代市,大和田新田６番地７１,,12,221,2760046,,,2022-12-02,合併による解散等,6010502011117,令和４年１２月１日東京都台東区上野三丁目１４番５号株式会社とうきょう第一（6010502011117）に合併し解散,2015-10-05,1,,,,,シグマックス,0
1538,6010602014234,登記記録の閉鎖等,0,2022-12-06,2022-11-28,有限会社福井商事,,有限会社,東京都,墨田区,石原４丁目２４番４号,,13,107,1300011,,,2022-11-28,清算の結了等,,,2015-10-05,1,,,,,フクイショウジ,0
1599,6021002062946,登記記録の閉鎖等,0,2022-12-06,2022-12-01,有限会社ウインクス,,有限会社,神奈川県,横須賀市,衣笠栄町１丁目５番２号,,14,201,2380031,,,2022-12-01,清算の結了等,,,2015-10-05,1,,,,,ウインクス,0
1618,6040002035646,登記記録の閉鎖等,0,2022-12-06,2022-11-22,中川工業有限会社,,有限会社,千葉県,松戸市,串崎新田２１３番地６,,12,207,2702216,,,2022-11-22,清算の結了等,,,2015-10-05,1,,,,,ナカガワコウギョウ,0
1626,6070002022682,登記記録の閉鎖等,0,2022-12-06,2022-12-01,有限会社市毛鉄工,,有限会社,群馬県,桐生市,相生町５丁目３０７番地５,,10,203,3760011,,,2022-12-01,清算の結了等,,,2015-10-05,1,,,,,イチゲテッコウ,0
1627,6070005002351,登記記録の閉鎖等,0,2022-12-06,2022-11-30,医療法人優輝会,,その他の設立登記法人,群馬県,高崎市,八幡町１１７番地,,10,202,3700884,,,2022-11-30,清算の結了等,,,2015-10-05,1,,,,,ユウキカイ,0
1629,6080102000075,登記記録の閉鎖等,0,2022-12-06,2022-12-02,有限会社アールアンドディー,,有限会社,静岡県,沼津市,柳澤７８３番地,,22,203,4100000,,,2022-12-02,清算の結了等,,,2015-10-05,1,,,,,アールアンドディー,0
1650,6120002028212,登記記録の閉鎖等,0,2022-12-06,2022-12-02,有限会社ふくだ,,有限会社,大阪府,大阪市淀川区,東三国１丁目１８番２号,,27,123,5320002,,,2022-12-02,清算の結了等,,,2015-10-05,1,,,,,フクダ,0
1652,6120002079569,登記記録の閉鎖等,0,2022-12-06,2022-12-01,有限会社協和エンジニアリング,,有限会社,大阪府,門真市,御堂町９番１４号,,27,223,5710064,,,2022-12-01,清算の結了等,,,2015-10-05,1,,,,,キョウワエンジニアリング,0
1665,6130001003504,登記記録の閉鎖等,0,2022-12-06,2022-11-30,株式会社なかひで,,株式会社,京都府,京都市上京区,新町通一条上る一条殿町４９７番地,,26,102,6020934,,,2022-11-30,清算の結了等,,,2015-10-05,1,,,,,ナカヒデ,0
1695,6180001018514,登記記録の閉鎖等,0,2022-12-06,2022-11-24,株式会社山一不動産,,株式会社,愛知県,名古屋市守山区,松坂町２４３番地,,23,113,4630007,,,2022-11-24,清算の結了等,,,2015-10-05,1,,,,,ヤマイチフドウサン,0
1705,6180002014009,登記記録の閉鎖等,0,2022-12-06,2022-12-01,有限会社鈴智製作所,,有限会社,愛知県,名古屋市南区,大同町４丁目１番地の３５,,23,112,4570811,,,2022-12-01,清算の結了等,,,2015-10-05,1,,,,,スズトモセイサクショ,0
1711,6180302001061,登記記録の閉鎖等,0,2022-12-06,2022-12-02,有限会社黒木建設,,有限会社,愛知県,岡崎市,竜泉寺町字前田１２番地１,,23,202,4443524,,,2022-12-02,清算の結了等,,,2015-10-05,1,,,,,クロキケンセツ,0
1717,6190001018736,登記記録の閉鎖等,0,2022-12-06,2022-12-01,株式会社美総備,,株式会社,三重県,四日市市,鹿間町９番地２,,24,202,5121113,,,2022-12-01,清算の結了等,,,2015-10-05,1,,,,,ビソウビ,0
1725,6230001010548,登記記録の閉鎖等,0,2022-12-06,2022-12-02,株式会社トーホー通信電機,,株式会社,富山県,高岡市,東海老坂４２７番地,,16,202,9330987,,,2022-12-02,清算の結了等,,,2015-10-05,1,,,,,トーホーツウシンデンキ,0
1728,6240005008934,登記記録の閉鎖等,0,2022-12-06,2022-12-01,特定非営利活動法人大地を守る会,,その他の設立登記法人,広島県,福山市,野上町２丁目６番６号,,34,207,7200815,,,2022-12-01,清算の結了等,,,2015-10-05,1,,,,,ダイチヲマモルカイ,0
1736,6290001034368,登記記録の閉鎖等,0,2022-12-06,2022-12-01,ＫＩＮＤ株式会社,,株式会社,大阪府,大阪市淀川区,宮原４丁目４番６３号,,27,123,5320003,,,2022-12-01,合併による解散等,8290001024466,令和４年１２月１日大阪市淀川区宮原四丁目４番６３号アーチ企業株式会社（8290001024466）に合併し解散,2015-10-05,1,,,,,カインド,0
1740,6290001097448,登記記録の閉鎖等,0,2022-12-06,2022-12-01,株式会社研進興業,,株式会社,福岡県,福岡市博多区,吉塚６丁目６番３６号,,40,132,8120041,,,2022-12-01,合併による解散等,4290001012210,令和４年１２月１日福岡市博多区吉塚六丁目６番３６号株式会社環境開発（4290001012210）に合併し解散,2022-05-11,1,,,,,ケンシンコウギョウ,0
1754,6300002010746,登記記録の閉鎖等,0,2022-12-06,2022-11-30,有限会社メガネの平岡,,有限会社,佐賀県,唐津市,和多田天満町１丁目２番２４号,,41,202,8470082,,,2022-11-30,清算の結了等,,,2015-10-05,1,,,,,メガネノヒラオカ,0
1759,6320202000818,登記記録の閉鎖等,0,2022-12-06,2022-12-01,有限会社野口水産,,有限会社,大分県,津久見市,大字保戸島１１４１番地の１,,44,207,8792501,,,2022-12-01,清算の結了等,,,2015-10-05,1,,,,,,0
1767,6350001009735,登記記録の閉鎖等,0,2022-12-06,2022-12-01,株式会社中村,,株式会社,宮崎県,串間市,大字西方５９１６番地４,,45,207,8880001,,,2022-12-01,清算の結了等,,,2015-10-05,1,,,,,ナカムラ,0
1774,6370003003627,登記記録の閉鎖等,0,2022-12-06,2022-12-01,合同会社ＤＣＴ,,合同会社,宮城県,仙台市太白区,桜木町３６番５号,,04,104,9820835,,,2022-12-01,合併による解散等,6370003002463,令和４年１２月１日仙台市太白区桜木町３６番５号合同会社ＡＭＧ（6370003002463）に合併し解散,2016-10-28,1,,,,,ディーシーティー,0
1779,6420001008779,登記記録の閉鎖等,0,2022-12-06,2022-12-01,株式会社花だん,,株式会社,青森県,五所川原市,大字姥萢字船橋４５番地６,00087391,02,205,0370015,,,2022-12-01,清算の結了等,,,2015-10-05,1,,,,,カダン,0
1794,6450005000366,登記記録の閉鎖等,0,2022-12-06,2022-12-01,医療法人社団菊池外科医院,,その他の設立登記法人,北海道,旭川市,四条通１２丁目左１号,,01,204,0700034,,,2022-12-01,清算の結了等,,,2015-10-05,1,,,,,キクチゲカイイン,0
1809,7010002013439,登記記録の閉鎖等,0,2022-12-06,2022-11-30,有限会社パシフィック・ベーシン・アソシエイツ,,有限会社,東京都,千代田区,麹町３丁目７番地半蔵門村山ビル西館６階,00107481,13,101,1020083,,,2022-11-30,清算の結了等,,,2015-10-05,1,,,,,パシフィックベーシンアソシエイツ,0
1817,7010005029853,登記記録の閉鎖等,0,2022-12-06,2022-12-02,ＥＳＲ夜光１一般社団法人,,その他の設立登記法人,東京都,中央区,日本橋１丁目４番１号日本橋一丁目ビルディング,,13,102,1030027,,,2022-12-02,清算の結了等,,,2019-03-12,1,,,,,イーエスアールヤコウイチ,0
1822,7010403013401,登記記録の閉鎖等,0,2022-12-06,2022-11-29,ジェイ１投資合同会社,,合同会社,東京都,港区,赤坂１丁目１１番４４号赤坂インターシティ６階,,13,103,1070052,,,2022-11-29,清算の結了等,,,2015-10-05,1,,,,,ジェイワントウシ,0
1852,7011401001439,登記記録の閉鎖等,0,2022-12-06,2022-12-01,株式会社兼光,,株式会社,東京都,板橋区,中丸町４３番１２号,,13,119,1730026,,,2022-12-01,清算の結了等,,,2015-10-05,1,,,,,カネミツ,0
1858,7011701005387,登記記録の閉鎖等,0,2022-12-06,2022-12-02,株式会社東京日本油紙,,株式会社,東京都,江戸川区,松江２丁目２６番２５号,,13,123,1320025,,,2022-12-02,清算の結了等,,,2015-10-05,1,,,,,トウキョウニホンユシ,0
1859,7012302005363,登記記録の閉鎖等,0,2022-12-06,2022-12-01,有限会社リプリー,,有限会社,東京都,町田市,小山町４０３５番地５,,13,209,1940212,,,2022-12-01,清算の結了等,,,2015-10-05,1,,,,,リプリー,0
1860,7012303001345,登記記録の閉鎖等,0,2022-12-06,2022-12-02,ＲＫ．ＦＡＴＡ株式会社,,株式会社,東京都,世田谷区,玉川３丁目２０番２号マノア玉川第３ビル５０１号室,,13,112,1580094,,,2022-12-02,清算の結了等,,,2019-12-11,1,,,,,アールケーファータ,0
1895,7030002049415,登記記録の閉鎖等,0,2022-12-06,2022-11-30,有限会社豊田タイル工業,,有限会社,埼玉県,三郷市,早稲田４丁目１１番地２,,11,237,3410018,,,2022-11-30,清算の結了等,,,2015-10-05,1,,,,,トヨダタイルコウギョウ,0
1896,7030002091813,登記記録の閉鎖等,0,2022-12-06,2022-11-30,有限会社オフィス・エス,,有限会社,埼玉県,越谷市,宮本町３丁目６３番地１,,11,222,3430806,,,2022-11-30,清算の結了等,,,2015-10-05,1,,,,,オフィスエス,0
1912,7050001036569,登記記録の閉鎖等,0,2022-12-06,2022-11-30,株式会社Ｉ・Ｐ,,株式会社,茨城県,水戸市,住吉町３２番地の６,,08,201,3100844,,,2022-11-30,清算の結了等,,,2015-10-05,1,,,,,アイピー,0
1919,7080001002411,登記記録の閉鎖等,0,2022-12-06,2022-12-05,静遠運輸株式会社,,株式会社,静岡県,静岡市駿河区,中吉田７番５８号,,22,102,4228001,,,2022-12-05,清算の結了等,,,2015-10-05,1,,,,,セイエンウンユ,0
1928,7110001025895,登記記録の閉鎖等,0,2022-12-06,2022-12-02,株式会社プリママリエリアジャパン,,株式会社,新潟県,見附市,柳橋町２７０番地１,,15,211,9540082,,,2022-12-02,清算の結了等,,,2015-10-05,1,,,,,プリママリエリアジャパン,0
1929,7110002013734,登記記録の閉鎖等,0,2022-12-06,2022-12-02,有限会社寿々長,,有限会社,新潟県,五泉市,本町２丁目１番１１号,,15,218,9591865,,,2022-12-02,清算の結了等,,,2015-10-05,1,,,,,スズチョウ,0
1933,7120001139083,登記記録の閉鎖等,0,2022-12-06,2022-12-05,株式会社Ｔ＆Ｊ,,株式会社,大阪府,大阪市生野区,巽北２丁目２０番１３号,00029241,27,116,5440004,,,2022-12-05,清算の結了等,,,2015-10-05,1,,,,,ティーアンドジェイ,0
1962,7140001029646,登記記録の閉鎖等,0,2022-12-06,2022-11-30,株式会社テクノアント,,株式会社,兵庫県,神戸市中央区,海岸通３丁目１番１号ＫＣＣビル４Ｆ,,28,110,6500024,,,2022-11-30,清算の結了等,,,2015-10-05,1,,,,,テクノアント,0
1974,7140001107468,登記記録の閉鎖等,0,2022-12-06,2022-12-01,株式会社左官ＫＯＭＡ,,株式会社,兵庫県,姫路市,豊富町御蔭１４９６番地,,28,201,6792122,,,2022-12-01,清算の結了等,,,2017-09-05,1,,,,,サカンコウマ,0
1988,7180001044022,登記記録の閉鎖等,0,2022-12-06,2022-12-01,株式会社インフォウェア,,株式会社,愛知県,名古屋市中村区,名駅南２丁目１４番１９号,,23,105,4500003,,,2022-12-01,合併による解散等,9180001105466,令和４年１２月１日名古屋市中村区名駅南二丁目１４番１９号株式会社グローバルワイズ（9180001105466）に合併し解散,2015-10-05,1,,,,,インフォウェア,0
1989,7180001081511,登記記録の閉鎖等,0,2022-12-06,2022-11-30,株式会社ミックファーム大口,,株式会社,愛知県,丹羽郡大口町,大御堂１丁目２３３番地の１,,23,361,4800138,,,2022-11-30,合併による解散等,6180001081157,令和４年１１月３０日愛知県丹羽郡大口町大御堂一丁目２３３番地の１エスペックミック株式会社（6180001081157）に合併し解散,2015-10-05,1,,,,,ミックファームオオグチ,0
2007,7200001009237,登記記録の閉鎖等,0,2022-12-06,2022-12-05,株式会社ヤマオカヤ,,株式会社,岐阜県,岐阜市,東材木町３４番地,,21,201,5008029,,,2022-12-05,清算の結了等,,,2015-10-05,1,,,,,ヤマオカヤ,0
2040,7300002007171,登記記録の閉鎖等,0,2022-12-06,2022-11-30,有限会社健心薬局,,有限会社,佐賀県,杵島郡白石町,大字廿治１２４１番地４,,41,425,8491106,,,2022-11-30,清算の結了等,,,2015-10-05,1,,,,,ケンシンヤッキョク,0
2044,7320202000619,登記記録の閉鎖等,0,2022-12-06,2022-12-01,有限会社新貢水産,,有限会社,大分県,津久見市,大字保戸島７５４番地の１０,,44,207,8792501,,,2022-12-01,清算の結了等,,,2015-10-05,1,,,,,シンコウスイサン,0
2059,7380002007965,登記記録の閉鎖等,0,2022-12-06,2022-11-29,有限会社イマイズミ住建,,有限会社,福島県,郡山市,八山田西１丁目２５２番地,,07,203,9638053,,,2022-11-29,清算の結了等,,,2015-10-05,1,,,,,イマイズミジュウケン,0
2060,7380002008030,登記記録の閉鎖等,0,2022-12-06,2022-12-01,有限会社ウェルネス,,有限会社,福島県,郡山市,朝日２丁目２２番１８号,,07,203,9638024,,,2022-12-01,合併による解散等,9380001008970,令和４年１２月１日福島県郡山市安積町長久保一丁目２４番地の１株式会社ウイ（9380001008970）に合併し解散,2015-10-05,1,,,,,ウェルネス,0
2062,7410001008696,登記記録の閉鎖等,0,2022-12-06,2022-11-30,株式会社田沢湖高原ハイランド山荘,,株式会社,秋田県,仙北市,田沢湖生保内字駒ヶ岳２－３１,,05,215,0141201,,,2022-11-30,清算の結了等,,,2015-10-05,1,,,,,,0
2063,7410002011518,登記記録の閉鎖等,0,2022-12-06,2022-11-30,有限会社秋南商事,,有限会社,秋田県,仙北郡美郷町,土崎字久保田１０８番地１,,05,434,0191541,,,2022-11-30,清算の結了等,,,2015-10-05,1,,,,,,0
2076,7470002019076,登記記録の閉鎖等,0,2022-12-06,2022-12-02,有限会社藤本喜一郎製麺所,00005552,有限会社,香川県,小豆郡小豆島町,池田４５８２番地,,37,324,7614301,,,2022-12-02,清算の結了等,,,2015-10-05,1,,,,,フジモトキイチロウセイメンショ,0
2080,7500002007283,登記記録の閉鎖等,0,2022-12-06,2022-12-05,有限会社酒井設備,,有限会社,愛媛県,松山市,井門町１３４３番地１０,,38,201,7911114,,,2022-12-05,清算の結了等,,,2015-10-05,1,,,,,サカイセツビ,0
2085,8010001157087,登記記録の閉鎖等,0,2022-12-06,2022-11-30,株式会社エイムヴァーテックス,,株式会社,東京都,中央区,京橋２丁目７番１４号,,13,102,1040031,,,2022-11-30,清算の結了等,,,2015-10-05,1,,,,,エイムヴァーテックス,0
2123,8010901007036,登記記録の閉鎖等,0,2022-12-06,2022-12-02,太洋電線株式会社,,株式会社,東京都,目黒区,中目黒４丁目１０番１４号,,13,110,1530061,,,2022-12-02,清算の結了等,,,2015-10-05,1,,,,,タイヨウデンセン,0
2143,8011005005397,登記記録の閉鎖等,0,2022-12-06,2022-11-29,特定非営利活動法人ＭＯＮＫＥＹＰＯＤ,,その他の設立登記法人,東京都,文京区,本郷１丁目２８－３２パークハウス楠郷臺２０１,,13,105,1130033,,,2022-11-29,清算の結了等,,,2015-10-05,1,,,,,モンキーポッド,0
2145,8011101074494,登記記録の閉鎖等,0,2022-12-06,2022-11-28,羽翼貿易株式会社,,株式会社,埼玉県,川越市,大字下松原６５４－７０,,11,201,3501153,,,2022-11-28,清算の結了等,,,2015-10-05,1,,,,,ツバサボウエキ,0
2147,8011102005432,登記記録の閉鎖等,0,2022-12-06,2022-12-02,有限会社佐藤折栄社,,有限会社,東京都,新宿区,早稲田鶴巻町５４６番地,,13,104,1620041,,,2022-12-02,清算の結了等,,,2015-10-05,1,,,,,サトウセツエイシャ,0
2157,8011701001030,登記記録の閉鎖等,0,2022-12-06,2022-12-01,ヴェルデ不動産管理株式会社,,株式会社,東京都,江戸川区,中葛西３丁目３５番８号,,13,123,1340083,,,2022-12-01,合併による解散等,5011701008524,令和４年１２月１日東京都江戸川区中葛西三丁目３５番８号株式会社渡辺ハウジング（5011701008524）に合併し解散,2015-10-05,1,,,,,ヴェルデフドウサンカンリ,0
2174,8020002027354,登記記録の閉鎖等,0,2022-12-06,2022-12-02,有限会社デコアフォーム,,有限会社,神奈川県,横浜市鶴見区,鶴見中央１丁目１８番６号,,14,101,2300051,,,2022-12-02,清算の結了等,,,2015-10-05,1,,,,,デコアフォーム,0
2201,8040001010243,登記記録の閉鎖等,0,2022-12-06,2022-12-01,美浜シーサイドパワー株式会社,,株式会社,東京都,中央区,銀座６丁目１５番１号,,13,102,1040061,,,2022-12-01,清算の結了等,,,2015-10-05,1,,,,,ミハマシーサイドパワー,0
2206,8040002057382,登記記録の閉鎖等,0,2022-12-06,2022-11-28,有限会社篠塚製菓,,有限会社,千葉県,印西市,小林１１５６番地２,,12,231,2701318,,,2022-11-28,清算の結了等,,,2015-10-05,1,,,,,,0
2219,8080002014842,登記記録の閉鎖等,0,2022-12-06,2022-12-01,有限会社ガールズヘアー,,有限会社,静岡県,牧之原市,大沢５６７番地の１,,22,226,4210526,,,2022-12-01,清算の結了等,,,2015-10-05,1,,,,,ガールズヘアー,0
2231,8120001166011,登記記録の閉鎖等,0,2022-12-06,2022-12-01,株式会社スタンダード,,株式会社,大阪府,大阪市中央区,安土町２丁目５番５号,,27,128,5410052,,,2022-12-01,合併による解散等,5120001185518,令和４年１２月１日大阪市中央区安土町二丁目５番５号株式会社ＪＯＵＪＯＵジャパン（5120001185518）に合併し解散,2015-10-05,1,,,,,スタンダード,0
2245,8120005002014,登記記録の閉鎖等,0,2022-12-06,2022-12-05,木曽御嶽本教神路教会,,その他の設立登記法人,大阪府,大阪市東成区,神路１丁目４番１７号,,27,115,5370003,,,2022-12-05,清算の結了等,,,2015-10-05,1,,,,,キソオンタケホンキョウカミジキョウカイ,0
2253,8122001023506,登記記録の閉鎖等,0,2022-12-06,2022-12-01,株式会社ストラーダテック,,株式会社,大阪府,大阪市鶴見区,今津中４丁目２番２７号,,27,124,5380042,,,2022-12-01,合併による解散等,5120001001740,令和４年１２月１日大阪市鶴見区今津北二丁目３番２６号協和道路株式会社（5120001001740）に合併し解散,2015-10-05,1,,,,,ストラーダテック,0
2261,8130002013946,登記記録の閉鎖等,0,2022-12-06,2022-11-30,有限会社シーダー,,有限会社,京都府,京都市伏見区,深草西浦町１丁目１８番地名神ビル,,26,109,6120029,,,2022-11-30,清算の結了等,,,2015-10-05,1,,,,,シーダー,0
2265,8140001048959,登記記録の閉鎖等,0,2022-12-06,2022-12-02,三正精機工業株式会社,,株式会社,兵庫県,尼崎市,神崎町２２番９号,,28,202,6610964,,,2022-12-02,清算の結了等,,,2015-10-05,1,,,,,サンセイセイキコウギョウ,0
2266,8140001087684,登記記録の閉鎖等,0,2022-12-06,2022-12-01,株式会社プライムクリエイト,,株式会社,兵庫県,姫路市,西延末４２０番地５,,28,201,6700971,,,2022-12-01,清算の結了等,,,2015-10-05,1,,,,,プライムクリエイト,0
2267,8140001112277,登記記録の閉鎖等,0,2022-12-06,2022-12-02,株式会社ＮＥＳＴＡ　ＲＥＳＯＲＴ,,株式会社,兵庫県,三木市,細川町垂穂８９４番地の６０号,,28,215,6730703,,,2022-12-02,合併による解散等,3122001019698,令和４年１２月１日大阪市中央区心斎橋筋二丁目１番６号株式会社延田エンタープライズ（3122001019698）に合併し解散,2019-01-07,1,,,,,ネスタリゾート,0
2291,8180005002999,登記記録の閉鎖等,0,2022-12-06,2022-12-01,大同特殊鋼中央研究所労働組合,,その他の設立登記法人,愛知県,名古屋市南区,大同町２丁目３０番地大同特殊鋼株式会社研究開発本部,,23,112,4570811,,,2022-12-01,清算の結了等,,,2015-10-05,1,,,,,ダイドウトクシュコウチュウオウケンキュウショ,0
2311,8240001032044,登記記録の閉鎖等,0,2022-12-06,2022-12-01,株式会社プリズム,,株式会社,広島県,福山市,内海町ロ３７６０番地２,,34,207,7222632,,,2022-12-01,清算の結了等,,,2015-10-05,1,,,,,プリズム,0
2319,8250001013893,登記記録の閉鎖等,0,2022-12-06,2022-12-01,株式会社Ｊｚプライズ,,株式会社,山口県,山口市,吉敷中東４丁目２番１７号,,35,203,7530813,,,2022-12-01,清算の結了等,,,2015-10-05,1,,,,,ジェイズプライズ,0
2325,8280002005152,登記記録の閉鎖等,0,2022-12-06,2022-12-02,有限会社今岡食品,,有限会社,島根県,出雲市,荒茅町７２１番地９,,32,203,6930044,,,2022-12-02,清算の結了等,,,2015-10-05,1,,,,,イマオカショクヒン,0
2333,8290002025232,登記記録の閉鎖等,0,2022-12-06,2022-12-01,有限会社コーア介護家政婦紹介所,,有限会社,福岡県,福岡市早良区,西新１丁目１１番３０号,,40,137,8140002,,,2022-12-01,清算の結了等,,,2015-10-05,1,,,,,コーアカイゴカセイフ,0
2348,8410001008695,登記記録の閉鎖等,0,2022-12-06,2022-11-30,株式会社田沢湖トレッキングサービス,,株式会社,秋田県,仙北市,田沢湖生保内字駒ヶ岳２－３１,,05,215,0141201,,,2022-11-30,清算の結了等,,,2015-10-05,1,,,,,,0
2364,8450001002546,登記記録の閉鎖等,0,2022-12-06,2022-12-05,廣本印刷株式会社,,株式会社,北海道,旭川市,旭町一条１３丁目６８８番地,,01,204,0700831,,,2022-12-05,清算の結了等,,,2015-10-05,1,,,,,ヒロモトインサツ,0
2367,8460102007690,登記記録の閉鎖等,0,2022-12-06,2022-12-01,有限会社三明,,有限会社,北海道,帯広市,西十二条南９丁目１０番地３,,01,207,0800022,,,2022-12-01,清算の結了等,,,2015-10-05,1,,,,,サンメイ,0
2379,9010001011061,登記記録の閉鎖等,0,2022-12-06,2022-11-30,株式会社ビジネスアクロスカルチャーズ,,株式会社,東京都,千代田区,平河町１丁目７番５－６０２号,,13,101,1020093,,,2022-11-30,清算の結了等,,,2015-10-05,1,,,,,ビジネスアクロスカルチャーズ,0
2404,9010003027907,登記記録の閉鎖等,0,2022-12-06,2022-12-01,ＫＩＣデベロップメント株式会社,,株式会社,東京都,千代田区,神田錦町３丁目１９番,,13,101,1010054,,,2022-12-01,合併による解散等,9010003027782,令和４年１２月１日東京都千代田区神田錦町三丁目１９番ＫＩＣホールディングス株式会社（9010003027782）に合併し解散,2018-07-17,1,,,,,ケイアイシーデベロップメント,0
2425,9010901016457,登記記録の閉鎖等,0,2022-12-06,2022-12-01,株式会社ＮＡＣ商品開発研究所,,株式会社,東京都,世田谷区,瀬田４丁目７番１１－８０４号,,13,112,1580095,,,2022-12-01,清算の結了等,,,2015-10-05,1,,,,,ナックショウヒンカイハツケンキュウショ,0
2436,9011003008698,登記記録の閉鎖等,0,2022-12-06,2022-12-02,アンビエント合同会社,,合同会社,東京都,渋谷区,桜丘町２３番１７号シティコート桜丘４０８,,13,113,1500031,,,2022-12-02,清算の結了等,,,2018-04-16,1,,,,,アンビエント,0
2443,9011602007737,登記記録の閉鎖等,0,2022-12-06,2022-12-01,有限会社新國電機,,有限会社,東京都,練馬区,早宮２丁目１６番２５号,,13,120,1790085,,,2022-12-01,清算の結了等,,,2015-10-05,1,,,,,ニックニデンキ,0
2454,9012701012594,登記記録の閉鎖等,0,2022-12-06,2022-12-02,株式会社インフィニティ,,株式会社,東京都,小平市,喜平町３丁目１番２号４０１,,13,211,1870044,,,2022-12-02,清算の結了等,,,2015-10-05,1,,,,,,0
2459,9020002083256,登記記録の閉鎖等,0,2022-12-06,2022-12-02,有限会社サンリッチ,,有限会社,神奈川県,川崎市中原区,木月３丁目２５番１０号国際ハイム１Ｆ,,14,133,2110025,,,2022-12-02,清算の結了等,,,2015-10-05,1,,,,,サンリッチ,0
2478,9040001064734,登記記録の閉鎖等,0,2022-12-06,2022-11-28,株式会社アルファプランニング,,株式会社,千葉県,船橋市,高根台１丁目１１番１－６０４号,,12,204,2740065,,,2022-11-28,清算の結了等,,,2015-10-05,1,,,,,アルファプランニング,0
2479,9040001089871,登記記録の閉鎖等,0,2022-12-06,2022-11-29,株式会社コラソン・デル・アルマ,,株式会社,千葉県,千葉市中央区,長洲１丁目１７番１５号,,12,101,2600854,,,2022-11-29,清算の結了等,,,2015-10-05,1,,,,,コラソンデルアルマ,0
2482,9040002036212,登記記録の閉鎖等,0,2022-12-06,2022-11-28,有限会社フードショップわたなべ,,有限会社,千葉県,市川市,東菅野５丁目８番２３号,,12,203,2720823,,,2022-11-28,清算の結了等,,,2015-10-05,1,,,,,フードショップワタナベ,0
2497,9060001021163,登記記録の閉鎖等,0,2022-12-06,2022-12-01,株式会社宏栄リース,,株式会社,栃木県,佐野市,下羽田町２０１５番地,,09,204,3270044,,,2022-12-01,合併による解散等,9010601010132,令和４年１２月１日栃木県佐野市下羽田町２０１７番地株式会社協成産業（9010601010132）に合併し解散,2015-10-05,1,,,,,コウエイリース,0
2500,9070001029701,登記記録の閉鎖等,0,2022-12-06,2022-12-01,株式会社ＳＡＮＫＩ,,株式会社,群馬県,北群馬郡榛東村,大字広馬場３０８番地,,10,344,3703504,,,2022-12-01,合併による解散等,4070001018122,令和４年１２月１日群馬県北群馬郡榛東村大字広馬場３０８番地株式会社三機工（4070001018122）に合併し解散,2015-10-05,1,,,,,サンキ,0
2541,9120002045345,登記記録の閉鎖等,0,2022-12-06,2022-12-01,有限会社アール・ワイ,,有限会社,大阪府,大阪市北区,西天満４丁目３番１８号,,27,127,5300047,,,2022-12-01,合併による解散等,9120001106057,令和４年１２月１日大阪市北区西天満四丁目３番１８号八千代建物株式会社（9120001106057）に合併し解散,2015-10-05,1,,,,,アールワイ,0
2572,9180001040135,登記記録の閉鎖等,0,2022-12-06,2022-11-30,株式会社ＦＰＣ,,株式会社,愛知県,名古屋市昭和区,御器所４丁目１番１号,,23,107,4660051,,,2022-11-30,清算の結了等,,,2015-10-05,1,,,,,エフピーシー,0
2573,9180001045398,登記記録の閉鎖等,0,2022-12-06,2022-11-30,株式会社名工製作所,,株式会社,愛知県,清須市,土田３丁目１４番地１,,23,233,4520945,,,2022-11-30,清算の結了等,,,2015-10-05,1,,,,,メイコウセイサクショ,0
2579,9180002007918,登記記録の閉鎖等,0,2022-12-06,2022-12-01,有限会社クリーンファーム,,有限会社,愛知県,名古屋市天白区,平針５丁目２０４番地,,23,116,4680011,,,2022-12-01,清算の結了等,,,2015-10-05,1,,,,,クリーンファーム,0
2585,9180302021544,登記記録の閉鎖等,0,2022-12-06,2022-12-01,有限会社エスコート,,有限会社,愛知県,豊田市,宮上町２丁目１８番地,,23,211,4710038,,,2022-12-01,清算の結了等,,,2015-10-05,1,,,,,エスコート,0
2615,9330002030160,登記記録の閉鎖等,0,2022-12-06,2022-12-01,有限会社光徳商事,,有限会社,熊本県,球磨郡錦町,大字一武２９８９番地２,,43,501,8680302,,,2022-12-01,清算の結了等,,,2015-10-05,1,,,,,,0
2624,9380005009718,登記記録の閉鎖等,0,2022-12-06,2022-11-29,特定非営利活動法人喜多方市グリーン・ツーリズムサポートセンター,,その他の設立登記法人,福島県,喜多方市,熊倉町熊倉字大竹１３６４番地,,07,208,9660024,,,2022-11-29,清算の結了等,,,2015-10-05,1,,,,,キタカタシグリーンツーリズムサポートセンター,0
2634,9430001039192,登記記録の閉鎖等,0,2022-12-06,2022-11-30,株式会社道新ひろがみ,,株式会社,北海道,北広島市,中央１丁目３番地５,,01,234,0611121,,,2022-11-30,清算の結了等,,,2015-10-05,1,,,,,ドウシンヒロガミ,0
2639,9430001076203,登記記録の閉鎖等,0,2022-12-06,2022-12-05,株式会社Ａｒｖｏ,,株式会社,北海道,札幌市中央区,南一条西２６丁目１番２２号,,01,101,0640801,,,2022-12-05,清算の結了等,,,2018-03-27,1,,,,,アーヴォ,0
2643,9430002059256,登記記録の閉鎖等,0,2022-12-06,2022-11-25,有限会社手づくりハウスパレット,,有限会社,北海道,苫小牧市,澄川町２丁目２番１３号,,01,213,0591271,,,2022-11-25,清算の結了等,,,2015-10-05,1,,,,,,0
2647,9460102002113,登記記録の閉鎖等,0,2022-12-06,2022-12-02,有限会社津崎運輸,00091235,有限会社,北海道,帯広市,西二十五条南３丁目４８番地１１,,01,207,0802475,,,2022-12-02,清算の結了等,,,2015-10-05,1,,,,,,0
2652,9470001006610,登記記録の閉鎖等,0,2022-12-06,2022-12-02,株式会社ひらた,,株式会社,香川県,高松市,木太町２３４５番地４,,37,201,7600080,,,2022-12-02,清算の結了等,,,2015-10-05,1,,,,,ヒラタ,0
2655,9470002003524,登記記録の閉鎖等,0,2022-12-06,2022-12-01,有限会社ジー・ステーション,,有限会社,香川県,高松市,丸の内１２番３号,,37,201,7600033,,,2022-12-01,合併による解散等,9470001005612,令和４年１２月１日香川県高松市番町二丁目１７番１５号ファロス第一ビル六階株式会社グランド商事・アドバンス（9470001005612）に合併し解散,2015-10-05,1,,,,,ジーステーション,0
