sequenceNumber,corporateNumber,process,correct,updateDate,changeDate,name,nameImageId,kind,prefectureName,cityName,streetNumber,addressImageId,prefectureCode,cityCode,postCode,addressOutside,addressOutsideImageId,closeDate,closeCause,successorCorporateNumber,changeCause,assignmentDate,latest,enName,enPrefectureName,enCityName,enAddressOutside,furigana,hihyoji
5,1010001233885,新規,0,2023-03-29,2023-03-29,株式会社ｈｅｒｍａｎａ,,株式会社,東京都,千代田区,麹町４丁目５番２０号ＫＳビル４階７階８階,,13,101,1020083,,,,,,,2023-03-29,1,,,,,エルマーナ,0
6,1010001233984,新規,0,2023-03-29,2023-03-29,株式会社ＣＸＣ,,株式会社,東京都,中央区,日本橋２丁目１番１７号丹生ビル２階,,13,102,1030027,,,,,,,2023-03-29,1,,,,,シーエックスシー,0
7,1010001233992,新規,0,2023-03-29,2023-03-29,アールエスケーホールディングス株式会社,,株式会社,東京都,千代田区,丸の内１丁目８番３号トラストタワー本館２０階,,13,101,1000005,,,,,,,2023-03-29,1,,,,,アールエスケーホールディングス,0
8,1010003040058,新規,0,2023-03-29,2023-03-29,Ｎｅｘｔ　Ｌｉｎｋ合同会社,,合同会社,東京都,中央区,勝どき５丁目３番１－３１１６号,,13,102,1040054,,,,,,,2023-03-29,1,,,,,ネクストリンク,0
20,1010401173392,新規,0,2023-03-29,2023-03-29,株式会社ティービハインド,,株式会社,東京都,港区,南青山３丁目１番３６号青山丸竹ビル６Ｆ,,13,103,1070062,,,,,,,2023-03-29,1,,,,,ティービハインド,0
21,1010403029808,新規,0,2023-03-29,2023-03-29,ＰＩＳＴＡ　ＥＮＴＥＲＰＲＩＳＥＳ合同会社,,合同会社,東京都,港区,赤坂２丁目１４番５号Ｄａｉｗａ赤坂ビル４階,,13,103,1070052,,,,,,,2023-03-29,1,,,,,ピスタエンタープライゼス,0
22,1010403029816,新規,0,2023-03-29,2023-03-29,イクオリティワールド合同会社,,合同会社,東京都,港区,南青山２丁目２－１５－５Ｆ,,13,103,1070062,,,,,,,2023-03-29,1,,,,,イクオリティワールド,0
23,1010405021952,新規,0,2023-03-29,2023-03-29,一般社団法人Ｓｉｃａ　Ｂｏｙ,,その他の設立登記法人,東京都,港区,虎ノ門５丁目１番４号,,13,103,1050001,,,,,,,2023-03-29,1,,,,,シカボーイ,0
25,1010501050211,新規,0,2023-03-29,2023-03-29,株式会社成和,,株式会社,東京都,台東区,池之端４丁目１９番１号,,13,106,1100008,,,,,,,2023-03-29,1,,,,,セイワ,0
30,1010801033808,新規,0,2023-03-29,2023-03-29,株式会社モークリーン,,株式会社,東京都,大田区,東雪谷１丁目１２番２号フィオーレ雪谷,,13,111,1450065,,,,,,,2023-03-29,1,,,,,モークリーン,0
39,1011101102328,新規,0,2023-03-29,2023-03-29,株式会社ＣＣＣ,,株式会社,東京都,新宿区,西新宿３丁目３番１３号,,13,104,1600023,,,,,,,2023-03-29,1,,,,,シーシーシー,0
44,1011601026687,新規,0,2023-03-29,2023-03-29,株式会社和霖,,株式会社,東京都,練馬区,上石神井２丁目１８番２０号ニューライフ上石神井２０２号室,,13,120,1770044,,,,,,,2023-03-29,1,,,,,ワリン,0
49,1011801042146,新規,0,2023-03-29,2023-03-29,松林株式会社,,株式会社,東京都,足立区,栗原３丁目２６番１号２Ｆ,,13,121,1230842,,,,,,,2023-03-29,1,,,,,マツバヤシ,0
52,1012301013372,新規,0,2023-03-29,2023-03-29,アサヒリンク株式会社,,株式会社,東京都,町田市,旭町３丁目２０番２１号,,13,209,1940023,,,,,,,2023-03-29,1,,,,,アサヒリンク,0
55,1012801022220,新規,0,2023-03-29,2023-03-29,株式会社プリマヴェーラ,,株式会社,東京都,日野市,日野本町２丁目５番地７,,13,212,1910011,,,,,,,2023-03-29,1,,,,,プリマヴェーラ,0
57,1012803003037,新規,0,2023-03-29,2023-03-29,合同会社Ｔｖｉｌｂｉｄｖｉｒｋ,,合同会社,東京都,日野市,百草８８２番地の１プリムローズ百草園５０８,,13,212,1910033,,,,,,,2023-03-29,1,,,,,トゥビルビッドゥバーク,0
71,1013303006546,新規,0,2023-03-29,2023-03-29,合同会社Ｗｉｂｅｒｏ,,合同会社,東京都,豊島区,東池袋１丁目１７番１１号パークハイツ池袋１１０５号,,13,116,1700013,,,,,,,2023-03-29,1,,,,,ウィベロ,0
79,1020001150840,新規,0,2023-03-29,2023-03-29,株式会社マルヨシ,,株式会社,神奈川県,川崎市宮前区,菅生４丁目１２番９号,,14,136,2160015,,,,,,,2023-03-29,1,,,,,マルヨシ,0
82,1020003023598,新規,0,2023-03-29,2023-03-29,合同会社インペリアル,,合同会社,神奈川県,川崎市川崎区,堀之内町１１－６,,14,131,2100003,,,,,,,2023-03-29,1,,,,,インペリアル,0
83,1020003023607,新規,0,2023-03-29,2023-03-29,ＳＡＣＨＩＦＵＬＬ合同会社,,合同会社,神奈川県,横浜市西区,北幸２丁目１０番２８号むつみビル３Ｆ,,14,103,2200004,,,,,,,2023-03-29,1,,,,,サチフル,0
84,1020005015908,新規,0,2023-03-29,2023-03-29,特定非営利活動法人第３の家族,,その他の設立登記法人,神奈川県,横浜市青葉区,奈良２丁目３６番地１エクセレント岩崎３０１,,14,117,2270038,,,,,,,2023-03-29,1,,,,,ダイサンノカゾク,0
86,1021001078527,新規,0,2023-03-29,2023-03-29,株式会社ジュンレオ,,株式会社,神奈川県,海老名市,柏ケ谷５５５番地５,,14,215,2430402,,,,,,,2023-03-29,1,,,,,ジュンレオ,0
87,1021001078543,新規,0,2023-03-29,2023-03-29,株式会社Ｂｓワークス,,株式会社,神奈川県,綾瀬市,深谷上７丁目３０番５１号,,14,218,2521108,,,,,,,2023-03-29,1,,,,,ビーエスワークス,0
88,1021001078551,新規,0,2023-03-29,2023-03-29,株式会社健勇アルミ,,株式会社,神奈川県,秦野市,戸川４２５番地の７,,14,211,2591306,,,,,,,2023-03-29,1,,,,,ケンユウアルミ,0
92,1021003012913,新規,0,2023-03-29,2023-03-29,合同会社Ｃｌｏｖｅｒ　Ｃａｔ,,合同会社,神奈川県,相模原市緑区,下九沢３１９番地１２,,14,151,2520134,,,,,,,2023-03-29,1,,,,,クローバーキャット,0
99,1030003021452,新規,0,2023-03-29,2023-03-29,合同会社弥,,合同会社,埼玉県,日高市,大字栗坪３０１番地８,,11,242,3501245,,,,,,,2023-03-29,1,,,,,アマネ,0
100,1030005021178,新規,0,2023-03-29,2023-03-29,一般社団法人ＡＢＡＲＥＷＯＲＫ,,その他の設立登記法人,埼玉県,坂戸市,大字塚越１３８４番地２７,,11,239,3500209,,,,,,,2023-03-29,1,,,,,アバリワーク,0
104,1040001127705,新規,0,2023-03-29,2023-03-29,スナップピース株式会社,,株式会社,千葉県,千葉市美浜区,中瀬２丁目６番地１,,12,106,2610023,,,,,,,2023-03-29,1,,,,,スナップピース,0
106,1040003022276,新規,0,2023-03-29,2023-03-29,合同会社レアレア,,合同会社,千葉県,君津市,北子安５丁目１１番３号,,12,225,2991161,,,,,,,2023-03-29,1,,,,,レアレア,0
107,1040003022292,新規,0,2023-03-29,2023-03-29,合同会社ＳＵＮＲＩＳＥ,,合同会社,千葉県,千葉市中央区,弁天１丁目１５番３号リードシー千葉駅前ビルＢ１Ｆ,,12,101,2600045,,,,,,,2023-03-29,1,,,,,,0
115,1080003002951,新規,0,2023-03-29,2023-03-29,合同会社サファイア,,合同会社,静岡県,静岡市駿河区,池田２２５番地の１,,22,102,4228005,,,,,,,2023-03-29,1,,,,,サファイア,0
117,1080405007532,新規,0,2023-03-29,2023-03-29,医療法人社団Ｋ‐ＡＬＡ,,その他の設立登記法人,静岡県,磐田市,国府台１１番地７,,22,211,4380077,,,,,,,2023-03-29,1,,,,,コアラ,0
119,1100001036263,新規,0,2023-03-29,2023-03-29,ＥＣＯ　ＲＡＮＣＨ　ＭＡＲＫＥＴ株式会社,,株式会社,長野県,伊那市,ますみヶ丘１１７２－３２,,20,209,3960027,,,,,,,2023-03-29,1,,,,,エコランチマーケット,0
120,1100002017956,新規,0,2023-03-29,2023-03-29,有限会社伸幸板ガラス,,有限会社,長野県,中野市,東山８番１３号,,20,211,3830024,,,,,,,2023-03-29,1,,,,,シンコウイタガラス,0
129,1120001253501,新規,0,2023-03-29,2023-03-29,神耀株式会社,,株式会社,大阪府,大阪市生野区,小路東６丁目８番１７号昭和エクセルビュー東大阪１０３－Ｇ２０,,27,116,5440003,,,,,,,2023-03-29,1,,,,,シンヨウ,0
130,1120001253526,新規,0,2023-03-29,2023-03-29,株式会社神戸ネクストプラン,,株式会社,大阪府,大阪市西区,新町１丁目４番２６号,,27,106,5500013,,,,,,,2023-03-29,1,,,,,コウベネクストプラン,0
131,1120001253534,新規,0,2023-03-29,2023-03-29,株式会社Ｃａｎｔｒｙｓｉｄｅ,,株式会社,大阪府,大阪市浪速区,戎本町１丁目９番２２号グレースカーサＭ７０２号,,27,111,5560013,,,,,,,2023-03-29,1,,,,,カントリーサイド,0
132,1120001253567,新規,0,2023-03-29,2023-03-29,日本林業株式会社,,株式会社,大阪府,大阪市港区,八幡屋１丁目３番１号第２共栄マンション２０１号,,27,107,5520014,,,,,,,2023-03-29,1,,,,,ニホンリンギョウ,0
133,1120005023529,新規,0,2023-03-29,2023-03-29,一般社団法人ソーシャル事業者認証機構おおさか,,その他の設立登記法人,大阪府,大阪市阿倍野区,阪南町１丁目５０番３号,,27,119,5450021,,,,,,,2023-03-29,1,,,,,ソーシャルジギョウシャニンショウキコウオオサカ,0
135,1120101067198,新規,0,2023-03-29,2023-03-29,忠岡エコサービス株式会社,,株式会社,大阪府,泉北郡忠岡町,忠岡北２丁目１２番５９号,,27,341,5950811,,,,,,,2023-03-29,1,,,,,タダオカエコサービス,0
140,1122001036828,新規,0,2023-03-29,2023-03-29,株式会社Ｓｐａｒｋｌｅ　ａｎｄ,,株式会社,大阪府,東大阪市,小若江３丁目６－９,,27,227,5770818,,,,,,,2023-03-29,1,,,,,スパークルアンド,0
153,1140003018891,新規,0,2023-03-29,2023-03-29,バグデーヴ合同会社,,合同会社,兵庫県,神戸市中央区,東川崎町１丁目８番４号神戸市産業振興センター５階,,28,110,6500044,,,,,,,2023-03-29,1,,,,,バグデーヴ,0
158,1180003024993,新規,0,2023-03-29,2023-03-29,合同会社柿澤建設,,合同会社,愛知県,名古屋市中区,大須２丁目１０－４５,,23,106,4600011,,,,,,,2023-03-29,1,,,,,カキザワケンセツ,0
162,1210001019265,新規,0,2023-03-29,2023-03-29,株式会社井口工業,,株式会社,福井県,大野市,下据第２３号４７番地,,18,205,9120431,,,,,,,2023-03-29,1,,,,,イグチコウギョウ,0
163,1220001025329,新規,0,2023-03-29,2023-03-29,株式会社モリマサ,,株式会社,石川県,白山市,成町３２５番地１,,17,210,9240023,,,,,,,2023-03-29,1,,,,,モリマサ,0
165,1230003001987,新規,0,2023-03-29,2023-03-29,合同会社ＯＦＦＩＣＥユズキ,,合同会社,富山県,南砺市,坪野４３０番地,,16,210,9320218,,,,,,,2023-03-29,1,,,,,オフィスユズキ,0
172,1240001061264,新規,0,2023-03-29,2023-03-29,Ｓ‐ＣＲＡＦＴ株式会社,,株式会社,広島県,広島市安佐南区,西原２丁目２６番３５－１０３号,,34,105,7310113,,,,,,,2023-03-29,1,,,,,エスクラフト,0
175,1240003006069,新規,0,2023-03-29,2023-03-29,合同会社ブリンク,,合同会社,広島県,広島市中区,銀山町１１番１０号,,34,101,7300022,,,,,,,2023-03-29,1,,,,,ブリンク,0
177,1260001037766,新規,0,2023-03-29,2023-03-29,なないろ不動産株式会社,,株式会社,岡山県,津山市,金井７６６番地３０,,33,203,7080855,,,,,,,2023-03-29,1,,,,,ナナイロフドウサン,0
178,1260001037774,新規,0,2023-03-29,2023-03-29,株式会社ＤＯＵ,,株式会社,岡山県,倉敷市,新田２３８５番地,,33,202,7100038,,,,,,,2023-03-29,1,,,,,ドウ,0
188,1310001018331,新規,0,2023-03-29,2023-03-29,株式会社西九州建設工業,,株式会社,長崎県,大村市,本町４５０番地２,,42,205,8560832,,,,,,,2023-03-29,1,,,,,ニシキュウシュウケンセツコウギョウ,0
195,1340003004087,新規,0,2023-03-29,2023-03-29,合同会社森人くらぶ,,合同会社,鹿児島県,垂水市,田神３６９８番地,,46,214,8912104,,,,,,,2023-03-29,1,,,,,モリンチュクラブ,0
198,1360001031750,新規,0,2023-03-29,2023-03-29,株式会社ＬＥＯＬＥＡＤ,,株式会社,沖縄県,豊見城市,字豊崎１番地１２６９－１３０１号,,47,212,9010225,,,,,,,2023-03-29,1,,,,,レオリード,0
203,1370003006056,新規,0,2023-03-29,2023-03-29,合同会社気仙沼の人事部,,合同会社,宮城県,気仙沼市,南町２丁目２番１７号,,04,205,9880017,,,,,,,2023-03-29,1,,,,,ケセンヌマノジンジブ,0
211,1430001088718,新規,0,2023-03-29,2023-03-29,千樹企画株式会社,,株式会社,北海道,恵庭市,中島町１丁目２番地１,,01,231,0611435,,,,,,,2023-03-29,1,,,,,センジュキカク,0
215,1500001024830,新規,0,2023-03-29,2023-03-29,フェイトフル株式会社,,株式会社,愛媛県,松山市,三番町１丁目１１番地１０Ｉｓｓｅｉビル１階,,38,201,7900003,,,,,,,2023-03-29,1,,,,,フェイトフル,0
217,1700150115047,新規,0,2023-03-29,2023-03-29,ＢＴＡＳ　Ｑ　Ｈｏｌｄｉｎｇｓ　Ｌ．Ｌ．Ｃ．,,外国会社等,,,,,,,,Ｂｌａｃｋｓｔｏｎｅ－３４５　Ｐａｒｋ　Ａｖｅｎｕｅ，１６ｔｈ　Ｆｌ　Ｎｅｗ　Ｙｏｒｋ，ＮＹ　１０１５４,,,,,,2023-03-29,1,,,,,ビーテイエーエスキユーホールデイングスエルエルシー,0
218,1700150115055,新規,0,2023-03-29,2023-03-29,Ｊｉａｎｇｈｕａｙｕｘｉｎ　Ｃｒｏｓｓ－ｂｏｒｄｅｒ　Ｅ－ｃｏｍｍｅｒｃｅ　Ｃｏ．，Ｌｔｄ,,外国会社等,,,,,,,,ｊｉａｎｇｈｕａｙａｏｚｕｚｉｚｈｉｘｉａｎｔｕｏｊｉａｎｇｚｈｅｎ　ｃｈａｎｇｚｈｅｎｇｌｕ　ｊｉａｎｓｈｅｘｉａｏｊｉｅ　６ｈａｏ　ｙｏｎｇｚｈｏｕ　ｈｕｎａｎ，Ｃｈｉｎａ,,,,,,2023-03-29,1,,,,,ジャンフアユシンクロスボーダーイーコマースカンパニーリミテッド,0
227,2010001234008,新規,0,2023-03-29,2023-03-29,株式会社ＡＶＥＮＣＩ,,株式会社,東京都,中央区,明石町１番２９－１００６号,,13,102,1040044,,,,,,,2023-03-29,1,,,,,アヴェンチ,0
228,2010001234081,新規,0,2023-03-29,2023-03-29,株式会社Ｓｕｓｈｉ　Ｍｕｒａｙａｍａ　Ｌｉｍｉｔｅｄ,,株式会社,東京都,中央区,銀座７丁目６番２号銀座門ビル５階,,13,102,1040061,,,,,,,2023-03-29,1,,,,,スシムラヤマリミテッド,0
231,2010003040164,新規,0,2023-03-29,2023-03-29,合同会社久保木ＩＴエンジニアリング,,合同会社,東京都,千代田区,神田和泉町一丁目６番１６号ヤマトビル４０５,,13,101,1010024,,,,,,,2023-03-29,1,,,,,クボキアイティーエンジニアリング,0
232,2010003040180,新規,0,2023-03-29,2023-03-29,合同会社パブリックベネフィットコーポレーション,,合同会社,東京都,千代田区,六番町６－４ＬＨ番町スクエア５Ｆ,,13,101,1020085,,,,,,,2023-03-29,1,,,,,パブリックベネフィットコーポレーション,0
240,2010403029781,新規,0,2023-03-29,2023-03-29,合同会社Ｓｉｃａ　Ｂｏｙ,,合同会社,東京都,港区,虎ノ門５丁目１番４号,,13,103,1050001,,,,,,,2023-03-29,1,,,,,シカボーイ,0
241,2010403029815,新規,0,2023-03-29,2023-03-29,ジャパンインフラ３３号合同会社,,合同会社,東京都,港区,元赤坂１丁目１番７号,,13,103,1070051,,,,,,,2023-03-29,1,,,,,ジャパンインフラサンジュウサンゴウ,0
243,2010501050210,新規,0,2023-03-29,2023-03-29,株式会社プールサイド,,株式会社,東京都,台東区,台東３丁目２３番９－５０１号シティハウス御徒町,,13,106,1100016,,,,,,,2023-03-29,1,,,,,プールサイド,0
251,2010901052780,新規,0,2023-03-29,2023-03-29,株式会社サムライフォース,,株式会社,東京都,世田谷区,新町３丁目２番１３－１０２号,,13,112,1540014,,,,,,,2023-03-29,1,,,,,サムライフォース,0
263,2011101102319,新規,0,2023-03-29,2023-03-29,株式会社レイズ,,株式会社,東京都,新宿区,富久町３０番６号１０２,,13,104,1620067,,,,,,,2023-03-29,1,,,,,レイズ,0
264,2011101102327,新規,0,2023-03-29,2023-03-29,ＨＡＵＱＵＥ株式会社,,株式会社,東京都,新宿区,西新宿８丁目３番１号西新宿ＧＦビル１Ｆ,,13,104,1600023,,,,,,,2023-03-29,1,,,,,オーク,0
270,2011301028561,新規,0,2023-03-29,2023-03-29,ハルジャパン株式会社,,株式会社,東京都,杉並区,上荻３丁目４番１８号,,13,115,1670043,,,,,,,2023-03-29,1,,,,,ハルジャパン,0
272,2011305002892,新規,0,2023-03-29,2023-03-29,一般社団法人Ｇｌｏｂａｌ　Ｓｕｐｐｏｒｔ　Ｃｅｎｔｅｒ,,その他の設立登記法人,東京都,杉並区,久我山５丁目２３番９号,,13,115,1680082,,,,,,,2023-03-29,1,,,,,,0
275,2011501029087,新規,0,2023-03-29,2023-03-29,株式会社ＡＮＯＶＡ,,株式会社,東京都,北区,滝野川５丁目３８番３号スパシエアルテシモベッタ１２０１,,13,117,1140023,,,,,,,2023-03-29,1,,,,,アノヴァ,0
277,2011505002544,新規,0,2023-03-29,2023-03-29,一般社団法人既存住宅再生スクラム,,その他の設立登記法人,東京都,北区,赤羽１丁目６５番１０号東第一ビル１Ｆ,,13,117,1150045,,,,,,,2023-03-29,1,,,,,キゾンジュウタクサイセイスクラム,0
279,2011701026108,新規,0,2023-03-29,2023-03-29,株式会社ＹＢ,,株式会社,東京都,江戸川区,西小松川町１８番６号,,13,123,1320032,,,,,,,2023-03-29,1,,,,,ワイビー,0
287,2012701017559,新規,0,2023-03-29,2023-03-29,株式会社ＮＡＳＨ,,株式会社,東京都,西東京市,富士町１丁目７番７６－７０７号,,13,229,2020014,,,,,,,2023-03-29,1,,,,,ナッシュ,0
300,2020001150848,新規,0,2023-03-29,2023-03-29,株式会社ＭＡＳＡＲＡ　ＭＬＣＯ,,株式会社,神奈川県,横浜市西区,北幸２丁目１０番２８号むつみビル３Ｆ,,14,103,2200004,,,,,,,2023-03-29,1,,,,,マサーラエムエルシーオー,0
301,2020001150856,新規,0,2023-03-29,2023-03-29,株式会社Ｎｏｉｒｅ,,株式会社,神奈川県,川崎市宮前区,宮崎３丁目９番地５グリーンパーク宮崎１０１,,14,136,2160033,,,,,,,2023-03-29,1,,,,,ノワール,0
302,2020001150864,新規,0,2023-03-29,2023-03-29,株式会社８８ホーム,,株式会社,神奈川県,横浜市南区,高砂町２丁目２７－１０コーポＧ３階３０１号室,,14,105,2320025,,,,,,,2023-03-29,1,,,,,ハチハチホーム,0
304,2020003023614,新規,0,2023-03-29,2023-03-29,合同会社さざん花,,合同会社,神奈川県,横浜市港南区,野庭町６２１番地,,14,111,2340056,,,,,,,2023-03-29,1,,,,,サザンカ,0
305,2020005015898,新規,0,2023-03-29,2023-03-29,社会福祉法人あおばの実,,その他の設立登記法人,神奈川県,横浜市青葉区,荏田西２丁目１４番３号ハーモス荏田４階４０２,,14,117,2250014,,,,,,,2023-03-29,1,,,,,アオバノミ,0
309,2021001078550,新規,0,2023-03-29,2023-03-29,株式会社ＫＳＢ,,株式会社,神奈川県,大和市,中央１丁目３－２１－２０１,,14,213,2420021,,,,,,,2023-03-29,1,,,,,ケーエスビー,0
318,2030001153057,新規,0,2023-03-29,2023-03-29,株式会社ファミリー・コア,,株式会社,埼玉県,熊谷市,宮前町２丁目１２９番地２,,11,202,3600045,,,,,,,2023-03-29,1,,,,,ファミリーコア,0
320,2030003021393,新規,0,2023-03-29,2023-03-29,合同会社ＨｉｇｈＤａｙｓコーポレーション,,合同会社,埼玉県,日高市,大字栗坪３０１番地８,,11,242,3501245,,,,,,,2023-03-29,1,,,,,ハイデイズコーポレーション,0
321,2030003021451,新規,0,2023-03-29,2023-03-29,トリシユル合同会社,,合同会社,埼玉県,川越市,脇田新町２番地２６プラザドゥジュール１０５,,11,201,3501121,,,,,,,2023-03-29,1,,,,,トリシユル,0
325,2040001127687,新規,0,2023-03-29,2023-03-29,株式会社みんなの愛車屋,,株式会社,千葉県,野田市,七光台１４７番地七光台マンション１０２号室,,12,208,2780051,,,,,,,2023-03-29,1,,,,,ミンナノアイシャヤ,0
327,2070003004873,新規,0,2023-03-29,2023-03-29,合同会社ＩＣＧｒｅｅｎ,,合同会社,群馬県,太田市,宝町６２１番地,,10,205,3730042,,,,,,,2023-03-29,1,,,,,アイシーグリーン,0
330,2080101023873,新規,0,2023-03-29,2023-03-29,株式会社フジクリエイト,,株式会社,静岡県,伊東市,荻５６５番６８号,,22,208,4140053,,,,,,,2023-03-29,1,,,,,フジクリエイト,0
344,2110001037391,新規,0,2023-03-29,2023-03-29,ＫＡＮＯＡ株式会社,,株式会社,新潟県,新潟市西区,小針３丁目１４番５号,,15,107,9502022,,,,,,,2023-03-29,1,,,,,カノア,0
352,2120001253491,新規,0,2023-03-29,2023-03-29,株式会社グレッジインベスト,,株式会社,大阪府,大阪市西区,西本町３丁目１番４３号西本町ソーラービル６階,,27,106,5500005,,,,,,,2023-03-29,1,,,,,グレッジインベスト,0
353,2120001253500,新規,0,2023-03-29,2023-03-29,ＯＦＦＥＲＳ株式会社,,株式会社,大阪府,大阪市生野区,小路東６丁目８番１７号昭和エクセルビュー東大阪１０３－Ｇ２５,,27,116,5440003,,,,,,,2023-03-29,1,,,,,オファーズ,0
354,2120001253590,新規,0,2023-03-29,2023-03-29,株式会社オフショア,,株式会社,大阪府,大阪市城東区,成育４丁目１９番３号３Ｃ,,27,118,5360007,,,,,,,2023-03-29,1,,,,,オフショア,0
365,2130001073939,新規,0,2023-03-29,2023-03-29,株式会社御明宝,,株式会社,京都府,京都市下京区,上珠数屋町３３３－１,,26,106,6008150,,,,,,,2023-03-29,1,,,,,ゴミョウホウ,0
368,2140003018890,新規,0,2023-03-29,2023-03-29,合同会社５・アンシャンテ,,合同会社,兵庫県,神戸市東灘区,岡本２丁目１１－９,,28,101,6580072,,,,,,,2023-03-29,1,,,,,ゴアンシャンテ,0
372,2150005009466,新規,0,2023-03-29,2023-03-29,一般社団法人愛ＦＬＯＲＡ,,その他の設立登記法人,奈良県,橿原市,木原町２２２番地の４,,29,205,6340004,,,,,,,2023-03-29,1,,,,,アイフローラ,0
379,2220001025328,新規,0,2023-03-29,2023-03-29,株式会社天とてんホールディングス,,株式会社,石川県,金沢市,西念４丁目７番１号,,17,201,9200024,,,,,,,2023-03-29,1,,,,,テントテンホールディングス,0
388,2260005011205,新規,0,2023-03-29,2023-03-29,一般社団法人鉄道観光開発,,その他の設立登記法人,岡山県,倉敷市,下津井４丁目１番６号２階,,33,202,7110927,,,,,,,2023-03-29,1,,,,,テツドウカンコウカイハツ,0
404,2320001003793,新規,0,2023-03-29,2023-03-29,株式会社日栄興産,,株式会社,大分県,大分市,西鶴崎２丁目３番１２号,,44,201,8700105,,,,,,,2023-03-29,1,,,,,,0
406,2330001030705,新規,0,2023-03-29,2023-03-29,株式会社栄九翔,,株式会社,熊本県,山鹿市,中１３２６番地４１,,43,208,8610531,,,,,,,2023-03-29,1,,,,,エイキュウト,0
409,2340003004086,新規,0,2023-03-29,2023-03-29,ＴＫエステート合同会社,,合同会社,鹿児島県,鹿児島市,下竜尾町５番１６号木下ビル２Ｆ,,46,201,8920852,,,,,,,2023-03-29,1,,,,,ティケイエステート,0
411,2350003004325,新規,0,2023-03-29,2023-03-29,合同会社ｆｉｎｅｄａｙ　ｃｏｍｐａｎｙ,,合同会社,宮崎県,宮崎市,青島西２丁目９－１１,,45,201,8892163,,,,,,,2023-03-29,1,,,,,ファインデーカンパニー,0
420,2390001017201,新規,0,2023-03-29,2023-03-29,株式会社ＫＯＤＥＲＡ,,株式会社,山形県,米沢市,泉町１丁目３番６６号,,06,202,9920063,,,,,,,2023-03-29,1,,,,,コデラ,0
424,2430001088700,新規,0,2023-03-29,2023-03-29,株式会社ｏｄｄ,,株式会社,北海道,札幌市中央区,大通東７丁目１２番地１９,,01,101,0600041,,,,,,,2023-03-29,1,,,,,オッド,0
425,2430001088717,新規,0,2023-03-29,2023-03-29,株式会社ＢＬＵＥＳＴＯＮＥ,,株式会社,北海道,札幌市中央区,南九条西３丁目１番１１－５０５号,,01,101,0640809,,,,,,,2023-03-29,1,,,,,ブルーストーン,0
426,2430001088725,新規,0,2023-03-29,2023-03-29,札幌内装株式会社,,株式会社,北海道,札幌市中央区,南二条西６丁目１２番１号,,01,101,0600062,,,,,,,2023-03-29,1,,,,,サッポロナイソウ,0
428,2430003014869,新規,0,2023-03-29,2023-03-29,合同会社ｔｏｔｔｅ,,合同会社,北海道,札幌市豊平区,月寒東五条６丁目３－１５－１４０３,,01,105,0620055,,,,,,,2023-03-29,1,,,,,トッテ,0
431,2460305001991,新規,0,2023-03-29,2023-03-29,一般社団法人アイリス,,その他の設立登記法人,北海道,北見市,中ノ島町４丁目４番１３号,,01,208,0900813,,,,,,,2023-03-29,1,,,,,アイリス,0
435,2700150054079,新規,0,2023-03-29,2015-10-09,山陽青空市運営協議会,,その他,岡山県,赤磐市,下市５０２番地,,33,213,7090816,,,,,,,2015-10-09,1,,,,,サンヨウアオゾライチウンエイキヨウギカイ,0
436,2700150108396,新規,0,2023-03-29,2022-04-27,高山右近夫妻顕彰会　実行委員会,,その他,大阪府,豊能郡豊能町,東ときわ台７丁目５－１７,,27,321,5630103,,,,,,,2022-04-27,1,,,,,タカヤマウコンフサイケンシヨウカイジツコウイインカイ,0
437,2700150115046,新規,0,2023-03-29,2023-03-29,Ｂｌａｃｋｓｔｏｎｅ　Ｈｏｌｄｉｎｇｓ　ＩＩＩ　Ｌ．Ｐ．,00129882,外国会社等,,,,,,,,１　Ｐｌａｃｅ　Ｖｉｌｌｅ　Ｍａｒｉｅ，３７ｔｈ　Ｆｌｏｏｒ，Ｍｏｎｔｒｅａｌ，Ｑｕｅｂｅｃ　Ｈ３Ｂ　３Ｐ４,,,,,,2023-03-29,1,,,,,ブラツクストーンホールデイングスサンエルピー,0
438,2700150115054,新規,0,2023-03-29,2023-03-29,Ｐｕｔｉａｎ　Ｚｈｅｎｃｈｕａｎｇｋｅｊｉ　Ｙｏｕｘｉａｎｇｏｎｇｓｉ,,外国会社等,,,,,,,,Ｒｏｏｍ　２０６，ｆｌｏｏｒ　４，ｂｕｉｌｄｉｎｇ　２，Ｎｏ．４６８，Ｃａｉｘｉａｎｇ　Ｓｏｕｔｈ　Ｓｔｒｅｅ　Ｆｅｎｇｔｉｎｇ　Ｔｏｗｎ，Ｘｉａｎｙｏｕ　Ｃｏｕｎｔｙ，ＰｕｔｉａｎＦｕｊｉａｎ，Ｃｈｉｎａ,,,,,,2023-03-29,1,,,,,プーティアンゼンチュウアンケジユウゲンコウシ,0
443,3010001234031,新規,0,2023-03-29,2023-03-29,金橋リバブル株式会社,,株式会社,東京都,中央区,月島１丁目２７番９－３０５号,,13,102,1040052,,,,,,,2023-03-29,1,,,,,キンキョウリバブル,0
444,3010003040171,新規,0,2023-03-29,2023-03-29,ディーセッション合同会社,,合同会社,東京都,中央区,日本橋堀留町１丁目３番２１‐１２０１号,,13,102,1030012,,,,,,,2023-03-29,1,,,,,ディーセッション,0
450,3010005036424,新規,0,2023-03-29,2023-03-29,一般社団法人ＫＳＴ６,,その他の設立登記法人,東京都,千代田区,内幸町２丁目１番６号,,13,101,1000011,,,,,,,2023-03-29,1,,,,,ケイエスティーシックス,0
465,3010401173192,新規,0,2023-03-29,2023-03-29,株式会社ＡＨ　Ｃｏｍｐａｎｙ,,株式会社,東京都,港区,芝大門１丁目１番３２号,,13,103,1050012,,,,,,,2023-03-29,1,,,,,エイエイチカンパニー,0
466,3010401173358,新規,0,2023-03-29,2023-03-29,Ｗｏｎ　ａｎｄ　Ｐａｒｔｎｅｒｓ　Ｊａｐａｎ株式会社,,株式会社,東京都,港区,新橋４丁目３１番３号第三名和ビル１Ｆ－９Ｆ,,13,103,1050004,,,,,,,2023-03-29,1,,,,,ウォンアンドパートナーズジャパン,0
470,3010403029814,新規,0,2023-03-29,2023-03-29,ジャパンインフラ３２号合同会社,,合同会社,東京都,港区,元赤坂１丁目１番７号,,13,103,1070051,,,,,,,2023-03-29,1,,,,,ジャパンインフラサンジュウニゴウ,0
472,3010405021975,新規,0,2023-03-29,2023-03-29,ジャパンインフラホールディングス３３号一般社団法人,,その他の設立登記法人,東京都,港区,元赤坂１丁目１番７号,,13,103,1070051,,,,,,,2023-03-29,1,,,,,ジャパンインフラホールディングスサンジュウサンゴウ,0
475,3010701044036,新規,0,2023-03-29,2023-03-29,株式会社トクジツ,,株式会社,東京都,品川区,二葉３丁目１番１４号モウリハイツ１０１,,13,109,1420043,,,,,,,2023-03-29,1,,,,,トクジツ,0
484,3011001153411,新規,0,2023-03-29,2023-03-29,株式会社ＯｐｕｓＬｉｎｋ,,株式会社,東京都,渋谷区,円山町５－６道玄坂イトウビル３Ｆ,,13,113,1500044,,,,,,,2023-03-29,1,,,,,オーパスリンク,0
487,3011003016541,新規,0,2023-03-29,2023-03-29,合同会社シゴタノ,,合同会社,東京都,渋谷区,道玄坂１丁目１０番８号渋谷道玄坂東急ビル２Ｆ－Ｃ,,13,113,1500043,,,,,,,2023-03-29,1,,,,,シゴタノ,0
491,3011101102318,新規,0,2023-03-29,2023-03-29,株式会社ブイエール,,株式会社,東京都,新宿区,新宿２丁目８－５東弥鋼業ビル４階,,13,104,1600022,,,,,,,2023-03-29,1,,,,,ブイエール,0
492,3011101102334,新規,0,2023-03-29,2023-03-29,彩風株式会社,,株式会社,東京都,新宿区,榎町３４－３榎町ビル７階－１０室,,13,104,1620806,,,,,,,2023-03-29,1,,,,,アヤカゼ,0
493,3011103012878,新規,0,2023-03-29,2023-03-29,合同会社５６６企画,,合同会社,東京都,新宿区,百人町３丁目７－８志賀ビル３０２号室,,13,104,1690073,,,,,,,2023-03-29,1,,,,,ゴーロクロクキカク,0
494,3011201024528,新規,0,2023-03-29,2023-03-29,Ｙ’ｓ　ｌａｂｏ株式会社,,株式会社,東京都,中野区,野方３丁目２８番４号,,13,114,1650027,,,,,,,2023-03-29,1,,,,,ワイズラボ,0
496,3011203004040,新規,0,2023-03-29,2023-03-29,合同会社セブンスター,,合同会社,東京都,中野区,新井２丁目３３番１号,,13,114,1650026,,,,,,,2023-03-29,1,,,,,セブンスター,0
497,3011205002538,新規,0,2023-03-29,2023-03-29,一般社団法人ミュージックテック・ジャパン,,その他の設立登記法人,東京都,中野区,東中野１丁目３５番１４号,,13,114,1640003,,,,,,,2023-03-29,1,,,,,ミュージックテックジャパン,0
498,3011301028560,新規,0,2023-03-29,2023-03-29,Ｒ．Ｉ．Ｎ株式会社,,株式会社,東京都,杉並区,天沼３丁目２番４号ＦＹ荻窪共同ビル６０１,,13,115,1670032,,,,,,,2023-03-29,1,,,,,アールアイエヌ,0
506,3011701026098,新規,0,2023-03-29,2023-03-29,株式会社ＪＪメディケアキャリア,,株式会社,東京都,江戸川区,篠崎町７丁目２１番８号江戸鉄ビル２階,,13,123,1330061,,,,,,,2023-03-29,1,,,,,ジェイジェイメディケアキャリア,0
509,3012301013370,新規,0,2023-03-29,2023-03-29,株式会社チームサコン,,株式会社,東京都,町田市,原町田２丁目２７番１６号,,13,209,1940013,,,,,,,2023-03-29,1,,,,,チームサコン,0
511,3012403005902,新規,0,2023-03-29,2023-03-29,合同会社クリエイティブワークス,,合同会社,東京都,武蔵野市,吉祥寺本町１丁目２０番１－１００２号吉祥寺永谷シティプラザ,,13,203,1800004,,,,,,,2023-03-29,1,,,,,クリエイティブワークス,0
512,3012801022219,新規,0,2023-03-29,2023-03-29,株式会社米倉工業,,株式会社,東京都,東大和市,清水２丁目９３２番地の１１,,13,220,2070004,,,,,,,2023-03-29,1,,,,,ヨネクラコウギョウ,0
513,3013301050511,新規,0,2023-03-29,2023-03-29,株式会社Ｋ．Ｐｌａｔｉｎｕｍ,,株式会社,東京都,豊島区,東池袋１丁目３４番５号いちご東池袋ビル６階,,13,116,1700013,,,,,,,2023-03-29,1,,,,,ケープラチナム,0
517,3020001150847,新規,0,2023-03-29,2023-03-29,株式会社Ｔｅｃｈ　Ｃｌｏｃｋ,,株式会社,神奈川県,川崎市中原区,木月２丁目２４番１６号,,14,133,2110025,,,,,,,2023-03-29,1,,,,,テッククロック,0
518,3020001150855,新規,0,2023-03-29,2023-03-29,株式会社Ｓｈｅｅｐｌｙ,,株式会社,神奈川県,川崎市多摩区,菅城下３１番４号,,14,135,2140007,,,,,,,2023-03-29,1,,,,,シープリー,0
520,3020003023596,新規,0,2023-03-29,2023-03-29,合同会社Ｐａｒｉｋｋａｒａｍ,,合同会社,神奈川県,横浜市中区,長者町２丁目５番地５－６１０,,14,104,2310033,,,,,,,2023-03-29,1,,,,,パリカラム,0
521,3020003023613,新規,0,2023-03-29,2023-03-29,合同会社ＣＯＣＯ,,合同会社,神奈川県,横浜市西区,浅間町１丁目４番３号ウィザードビル４０２,,14,103,2200072,,,,,,,2023-03-29,1,,,,,ココ,0
525,3021001078558,新規,0,2023-03-29,2023-03-29,株式会社翔工業,,株式会社,神奈川県,相模原市南区,相模大野５丁目６番１５号,,14,153,2520303,,,,,,,2023-03-29,1,,,,,カケルコウギョウ,0
530,3030001153023,新規,0,2023-03-29,2023-03-29,株式会社ペンギン,,株式会社,埼玉県,鴻巣市,八幡田８３７番地２,,11,217,3650073,,,,,,,2023-03-29,1,,,,,ペンギン,0
531,3030001153056,新規,0,2023-03-29,2023-03-29,株式会社セミフレッド,,株式会社,埼玉県,行田市,持田３丁目１３番１０－５号,,11,206,3610056,,,,,,,2023-03-29,1,,,,,セミフレッド,0
541,3060003004493,新規,0,2023-03-29,2023-03-29,合同会社Ｃｏｏｋ　Ｃｏｎｎｅｃｔ,,合同会社,栃木県,那須塩原市,石林８４１,,09,213,3292711,,,,,,,2023-03-29,1,,,,,クックコネクト,0
547,3080101023872,新規,0,2023-03-29,2023-03-29,株式会社ＣＲＡＦＴ　ＤＥＳＩＧＮ,,株式会社,静岡県,富士市,永田町１丁目１３５番地,,22,210,4170055,,,,,,,2023-03-29,1,,,,,クラフトデザイン,0
551,3100001036261,新規,0,2023-03-29,2023-03-29,株式会社マイカラー,,株式会社,長野県,長野市,丹波島１丁目１番１１号,,20,201,3812246,,,,,,,2023-03-29,1,,,,,マイカラー,0
568,3120001253466,新規,0,2023-03-29,2023-03-29,株式会社ＹＧ建設,,株式会社,大阪府,大阪市鶴見区,諸口１丁目２番１号しらゆりピュアレンツ１０２号室,,27,124,5380051,,,,,,,2023-03-29,1,,,,,ワイジーケンセツ,0
569,3120001253524,新規,0,2023-03-29,2023-03-29,漫歩大阪株式会社,00129892,株式会社,大阪府,大阪市北区,西天満２丁目６番８号新東京国際リーガル内,,27,127,5300047,,,,,,,2023-03-29,1,,,,,ミアンダーオオサカ,0
570,3120001253532,新規,0,2023-03-29,2023-03-29,飛梵株式会社,,株式会社,大阪府,大阪市淀川区,三津屋南２丁目５番１５－３０３号,,27,123,5320035,,,,,,,2023-03-29,1,,,,,ヒボン,0
571,3120001253581,新規,0,2023-03-29,2023-03-29,株式会社ＤＡＩ設備,,株式会社,大阪府,寝屋川市,点野５丁目３０番１－２０２号,,27,215,5720077,,,,,,,2023-03-29,1,,,,,ダイセツビ,0
575,3120003023652,新規,0,2023-03-29,2023-03-29,合同会社木榕会,,合同会社,大阪府,大阪市北区,大淀北１丁目６番２１―１８１７号,,27,127,5310077,,,,,,,2023-03-29,1,,,,,モクヨウカイ,0
576,3120003023702,新規,0,2023-03-29,2023-03-29,合同会社駿野,,合同会社,大阪府,大阪市東成区,大今里南６丁目２番１８号第二岩本コーポ５０１号室,,27,115,5370013,,,,,,,2023-03-29,1,,,,,シュンヤ,0
577,3120003023719,新規,0,2023-03-29,2023-03-29,合同会社吉呈,,合同会社,大阪府,大阪市住吉区,南住吉１丁目８番２２－３０１号,,27,120,5580041,,,,,,,2023-03-29,1,,,,,キツテイ,0
578,3120003023727,新規,0,2023-03-29,2023-03-29,合同会社ＳＴＣ,,合同会社,大阪府,大阪市北区,梅田１丁目２番２号大阪駅前第２ビル１２‐１２,,27,127,5300001,,,,,,,2023-03-29,1,,,,,エスティーシー,0
585,3120901047307,新規,0,2023-03-29,2023-03-29,南華社株式会社,,株式会社,大阪府,高槻市,塚原６丁目３１番１６号,,27,207,5691046,,,,,,,2023-03-29,1,,,,,ナバナシャ,0
586,3120903004561,新規,0,2023-03-29,2023-03-29,合同会社Ｍ’ｓカンパニー,,合同会社,大阪府,摂津市,正雀４丁目４番６号,,27,224,5660023,,,,,,,2023-03-29,1,,,,,エムズカンパニー,0
590,3130001073913,新規,0,2023-03-29,2023-03-29,善友株式会社,,株式会社,京都府,京都市中京区,西ノ京西中合町６２番地１,,26,104,6048441,,,,,,,2023-03-29,1,,,,,ゼンユウ,0
591,3130003008611,新規,0,2023-03-29,2023-03-29,合同会社えさき商事,,合同会社,京都府,京都市西京区,下津林大般若町９０－１４－１０７,,26,111,6158037,,,,,,,2023-03-29,1,,,,,エサキショウジ,0
597,3140001129565,新規,0,2023-03-29,2023-03-29,株式会社ＣＨＡＩＺ,,株式会社,兵庫県,神戸市東灘区,岡本４丁目９番１８号,,28,101,6580072,,,,,,,2023-03-29,1,,,,,チャイズ,0
602,3140003018774,新規,0,2023-03-29,2023-03-29,ＭｏｈｏＪＡＰＡＮ合同会社,,合同会社,兵庫県,神戸市北区,長尾町宅原６７６,,28,109,6511511,,,,,,,2023-03-29,1,,,,,モーホジャパン,0
615,3180003025008,新規,0,2023-03-29,2023-03-29,ＤＣ合同会社,,合同会社,愛知県,名古屋市南区,内田橋２丁目２４番２１号,,23,112,4570862,,,,,,,2023-03-29,1,,,,,ディーシー,0
621,3210001019263,新規,0,2023-03-29,2023-03-29,Ｅｍ．株式会社,,株式会社,福井県,坂井市,丸岡町北横地４６号１番地アイビス２０１号室,,18,210,9100374,,,,,,,2023-03-29,1,,,,,エン,0
623,3230001019757,新規,0,2023-03-29,2023-03-29,株式会社ＣＲＥＳＴ,,株式会社,富山県,富山市,上袋２３１番地,,16,201,9398071,,,,,,,2023-03-29,1,,,,,クレスト,0
628,3240001061262,新規,0,2023-03-29,2023-03-29,株式会社オカモクリエイト,,株式会社,広島県,広島市中区,宝町７番１７号,,34,101,7300044,,,,,,,2023-03-29,1,,,,,オカモクリエイト,0
629,3240001061270,新規,0,2023-03-29,2023-03-29,株式会社大和,,株式会社,広島県,福山市,川口町５丁目２５番３１号,,34,207,7200822,,,,,,,2023-03-29,1,,,,,ダイワ,0
631,3240003006075,新規,0,2023-03-29,2023-03-29,合同会社サーダ,,合同会社,広島県,福山市,今町４－１１－１３０３,,34,207,7200046,,,,,,,2023-03-29,1,,,,,サーダ,0
634,3260001037772,新規,0,2023-03-29,2023-03-29,株式会社エピック,,株式会社,岡山県,倉敷市,松江１丁目２３番３号,,33,202,7128052,,,,,,,2023-03-29,1,,,,,エピック,0
649,3320001019649,新規,0,2023-03-29,2023-03-29,株式会社トラストテック,,株式会社,大分県,大分市,横尾東町２丁目４番７号,,44,201,8700130,,,,,,,2023-03-29,1,,,,,トラストテック,0
677,3420001018203,新規,0,2023-03-29,2023-03-29,株式会社眞翔,,株式会社,青森県,上北郡六ヶ所村,大字倉内字笹崎５５０番地,,02,411,0393215,,,,,,,2023-03-29,1,,,,,シンショウ,0
678,3420003002691,新規,0,2023-03-29,2023-03-29,ＨＡＳＮＡＩＮ　ＴＲＡＤＩＮＧ合同会社,,合同会社,青森県,上北郡六戸町,大字折茂字今熊６４８番地１,,02,405,0330072,,,,,,,2023-03-29,1,,,,,ハスナイントレーディング,0
679,3430001088699,新規,0,2023-03-29,2023-03-29,株式会社幸希,,株式会社,北海道,千歳市,北斗２丁目５－１１,,01,224,0660073,,,,,,,2023-03-29,1,,,,,タツキ,0
680,3430001088724,新規,0,2023-03-29,2023-03-29,株式会社ＧＥＥＮＩＥ,,株式会社,北海道,札幌市豊平区,福住二条２丁目８番１３号,,01,105,0620042,,,,,,,2023-03-29,1,,,,,ジーニー,0
681,3430003014876,新規,0,2023-03-29,2023-03-29,Ｔｒａｎｃｅｍｉｓｓｉｏｎ合同会社,,合同会社,北海道,札幌市中央区,南八条西５丁目２８８‐５ＣＲＥＡ　ＭＵＳＥ　Ｂｌｄｇ．２Ｆ‐Ｃ,,01,101,0640808,,,,,,,2023-03-29,1,,,,,トランスミッション,0
687,3700150115045,新規,0,2023-03-29,2023-03-29,Ｂｌａｃｋｓｔｏｎｅ　Ｍａｎａｇｅｍｅｎｔ　Ａｓｓｏｃｉａｔｅｓ（Ｃａｙｍａｎ）ＶＩＩ　Ｌ．Ｐ．,00129881,外国会社等,,,,,,,,Ｏｎｅ　Ｎｅｘｕｓ　Ｗａｙ，Ｃａｍａｎａ　Ｂａｙ，Ｇｒａｎｄ　Ｃａｙｍａｎ，ＫＹ１－９００５,,,,,,2023-03-29,1,,,,,ブラツクストーンマネジメントアソシエイツケイマンナナエルピー,0
688,3700150115053,新規,0,2023-03-29,2023-03-29,ＣｈａｎｇＤｅ　ＣｕｉＳｉＴｅＳｈａｎｇＭａｏ　ＹｏｕＸｉａｎＧｏｎｇＳｉ,,外国会社等,,,,,,,,Ｇｒｏｕｐ　Ｅｒ，Ｔｏｎｇｆｕｑｉａｏ　Ｖｉｌｌａｇｅ，Ｂａｉｈｅ　Ｔｏｗｎ，Ｌｉｕｙｅ　Ｌａｋｅ　Ｔｏｕｒｉｓｔ　Ｒｅｓｏｒｔ，Ｃｈａｎｇｄｅ　Ｈｕｎａｎ，Ｃｈｉｎａ,,,,,,2023-03-29,1,,,,,チャンデクイシテシャンマオユウゲンコウシ,0
696,4010005036423,新規,0,2023-03-29,2023-03-29,一般社団法人京都六地蔵インベストメント,,その他の設立登記法人,東京都,中央区,日本橋１丁目４番１号日本橋一丁目ビルディング,,13,102,1030027,,,,,,,2023-03-29,1,,,,,キョウトロクジゾウインベストメント,0
704,4010401173324,新規,0,2023-03-29,2023-03-29,ＪＭＨ株式会社,,株式会社,東京都,港区,赤坂４丁目２番２５－１０２号,,13,103,1070052,,,,,,,2023-03-29,1,,,,,ジェイエムエイチ,0
705,4010401173398,新規,0,2023-03-29,2023-03-29,株式会社ｎｏｄｏｋａ,,株式会社,東京都,港区,白金台１丁目３番１６号,,13,103,1080071,,,,,,,2023-03-29,1,,,,,ノドカ,0
707,4010405021941,新規,0,2023-03-29,2023-03-29,一般社団法人日本家族力協会,,その他の設立登記法人,東京都,港区,白金台３丁目１２－３－５０４,,13,103,1080071,,,,,,,2023-03-29,1,,,,,ニホンカゾクリョクキョウカイ,0
708,4010405021974,新規,0,2023-03-29,2023-03-29,ジャパンインフラホールディングス３２号一般社団法人,,その他の設立登記法人,東京都,港区,元赤坂１丁目１番７号,,13,103,1070051,,,,,,,2023-03-29,1,,,,,ジャパンインフラホールディングスサンジュウニゴウ,0
717,4010903008060,新規,0,2023-03-29,2023-03-29,Ａｎｄｌｅｓｓ合同会社,,合同会社,東京都,世田谷区,池尻３丁目２１番２号アドルク３０４,,13,112,1540001,,,,,,,2023-03-29,1,,,,,アンドレス,0
726,4011001153377,新規,0,2023-03-29,2023-03-29,株式会社Ａｍｐａｉ,,株式会社,東京都,渋谷区,代々木５丁目１４番３－４０５号,,13,113,1510053,,,,,,,2023-03-29,1,,,,,アンパイ,0
727,4011001153410,新規,0,2023-03-29,2023-03-29,株式会社Ｓｔｕｄｉｏ　ＭＯＯＯＶＥ,,株式会社,東京都,目黒区,上目黒１丁目１６番１２号鈴房ビル３階,,13,110,1530051,,,,,,,2023-03-29,1,,,,,スタジオムーブ,0
728,4011001153419,新規,0,2023-03-29,2023-03-29,株式会社幕明,,株式会社,東京都,渋谷区,千駄ヶ谷５丁目１６－１０,,13,113,1510051,,,,,,,2023-03-29,1,,,,,マクアケ,0
735,4011101102317,新規,0,2023-03-29,2023-03-29,株式会社ＣＬＩＦＦ,,株式会社,東京都,新宿区,西新宿３丁目３番１３号西新宿水間ビル２Ｆ,,13,104,1600023,,,,,,,2023-03-29,1,,,,,クリフ,0
736,4011101102325,新規,0,2023-03-29,2023-03-29,株式会社ワンフォーティー,,株式会社,東京都,新宿区,高田馬場４丁目２３番２０－４０２号,,13,104,1690075,,,,,,,2023-03-29,1,,,,,ワンフォーティー,0
743,4011303004708,新規,0,2023-03-29,2023-03-29,合同会社ＦＡＭｉＬＩＡ,,合同会社,東京都,杉並区,阿佐谷北１丁目３１－１８ルボワ阿佐谷１０１,,13,115,1660001,,,,,,,2023-03-29,1,,,,,ファミリア,0
746,4011403003948,新規,0,2023-03-29,2023-03-29,合同会社ＮＯＭＯＳＳ,,合同会社,東京都,板橋区,中板橋４番５号,,13,119,1730016,,,,,,,2023-03-29,1,,,,,ノーモス,0
749,4012403005901,新規,0,2023-03-29,2023-03-29,合同会社ＳＫＮザンクト・ペルテン,,合同会社,東京都,調布市,深大寺元町２丁目１３番地１３,,13,208,1820017,,,,,,,2023-03-29,1,,,,,エスケーエヌザンクトペルテン,0
750,4012701017557,新規,0,2023-03-29,2023-03-29,株式会社ＥＦＡＬＯ,,株式会社,東京都,小平市,たかの台３８番４号,,13,211,1870024,,,,,,,2023-03-29,1,,,,,エファロ,0
752,4012801022218,新規,0,2023-03-29,2023-03-29,株式会社Ｌｉｅｔｏ,,株式会社,東京都,日野市,多摩平４丁目１番地の１,,13,212,1910062,,,,,,,2023-03-29,1,,,,,リエット,0
761,4020001150838,新規,0,2023-03-29,2023-03-29,株式会社ＳＳＬ,,株式会社,神奈川県,横浜市西区,北幸２丁目１０番２８号むつみビル３Ｆ,,14,103,2200004,,,,,,,2023-03-29,1,,,,,エスエスエル,0
762,4020001150854,新規,0,2023-03-29,2023-03-29,株式会社ＴＯＡＳｔ,,株式会社,神奈川県,川崎市多摩区,登戸１８９１番地第３井出ビル２階２号,,14,135,2140014,,,,,,,2023-03-29,1,,,,,トースト,0
764,4020003023604,新規,0,2023-03-29,2023-03-29,合同会社Ｐｕｂｌｉｃ,,合同会社,神奈川県,川崎市中原区,苅宿１５番１０－１０７号,,14,133,2110022,,,,,,,2023-03-29,1,,,,,パブリック,0
765,4020005015913,新規,0,2023-03-29,2023-03-29,医療法人稲村眼科,,その他の設立登記法人,神奈川県,横浜市中区,伊勢佐木町５丁目１２５番地,,14,104,2310045,,,,,,,2023-03-29,1,,,,,イナムラガンカ,0
767,4021001078524,新規,0,2023-03-29,2023-03-29,１３４メディア株式会社,,株式会社,神奈川県,鎌倉市,笛田５丁目３０番６号,,14,204,2480027,,,,,,,2023-03-29,1,,,,,イチサンヨンメディア,0
768,4021001078565,新規,0,2023-03-29,2023-03-29,株式会社ピースｏｆぴぃす,,株式会社,神奈川県,伊勢原市,上粕屋１２７５番地の２１,,14,214,2591141,,,,,,,2023-03-29,1,,,,,ピースオブピィス,0
792,4050001052577,新規,0,2023-03-29,2023-03-29,株式会社ＨＭ,,株式会社,茨城県,行方市,矢幡１６９２番地,,08,233,3113826,,,,,,,2023-03-29,1,,,,,エイチエム,0
799,4100001036260,新規,0,2023-03-29,2023-03-29,株式会社Ｃ＆Ｉグループ,,株式会社,長野県,埴科郡坂城町,大字南条４５０４番地１,,20,521,3890603,,,,,,,2023-03-29,1,,,,,シーアンドアイグループ,0
801,4100003006947,新規,0,2023-03-29,2023-03-29,合同会社ＭＡＥ,,合同会社,長野県,小県郡長和町,和田１８９番地,,20,350,3860701,,,,,,,2023-03-29,1,,,,,エムエーイー,0
815,4120001253523,新規,0,2023-03-29,2023-03-29,株式会社優守,,株式会社,大阪府,門真市,朝日町１２－３,,27,223,5710061,,,,,,,2023-03-29,1,,,,,ユウズ,0
816,4120001253531,新規,0,2023-03-29,2023-03-29,鵬鯤株式会社,,株式会社,大阪府,大阪市淀川区,木川西２丁目２６番１５号巴第一マンション５０３号,,27,123,5320013,,,,,,,2023-03-29,1,,,,,ホウコン,0
817,4120001253580,新規,0,2023-03-29,2023-03-29,株式会社Ｎｅｏ　Ｓａｐｏ,,株式会社,大阪府,大阪市北区,本庄東１丁目１３－１－３Ｆ,,27,127,5310074,,,,,,,2023-03-29,1,,,,,ネオサポ,0
818,4120003023701,新規,0,2023-03-29,2023-03-29,宇信合同会社,,合同会社,大阪府,大阪市此花区,梅香１丁目１９番１２号ボンジュール梅香３０５号室,,27,104,5540013,,,,,,,2023-03-29,1,,,,,ウシン,0
823,4120903004560,新規,0,2023-03-29,2023-03-29,合同会社ユーイー,,合同会社,大阪府,茨木市,真砂１丁目２０番２４号,,27,211,5670851,,,,,,,2023-03-29,1,,,,,ユーイー,0
835,4140001129572,新規,0,2023-03-29,2023-03-29,株式会社望月設計,,株式会社,兵庫県,神戸市兵庫区,北逆瀬川町２番１号,,28,105,6520837,,,,,,,2023-03-29,1,,,,,モチヅキセッケイ,0
838,4140003018872,新規,0,2023-03-29,2023-03-29,合同会社きじま建装,,合同会社,兵庫県,伊丹市,寺本６丁目１４３番地１４,,28,207,6640026,,,,,,,2023-03-29,1,,,,,キジマケンソウ,0
839,4140003018889,新規,0,2023-03-29,2023-03-29,合同会社ｉｎｉｐｉトータルヘルスケア,,合同会社,兵庫県,尼崎市,七松町２丁目２０－８木造二階建て南側,,28,202,6600052,,,,,,,2023-03-29,1,,,,,イニピトータルヘルスケア,0
841,4150001026265,新規,0,2023-03-29,2023-03-29,ＢＥ　ＮＩＣＥ株式会社,,株式会社,奈良県,大和高田市,大字野口６９３番地６,,29,202,6350075,,,,,,,2023-03-29,1,,,,,ビーナイス,0
842,4150003002917,新規,0,2023-03-29,2023-03-29,合同会社Ｆｏｏｔｂａｌｌ　Ｄｉａｒｙ,,合同会社,奈良県,香芝市,磯壁３丁目１１１番地サンシャイン二上２０２号,,29,210,6390236,,,,,,,2023-03-29,1,,,,,フットボールダイアリー,0
852,4180001155508,新規,0,2023-03-29,2023-03-29,株式会社ＨＡＯＮＡＮ,,株式会社,愛知県,豊明市,新田町村合４３番地３号,,23,229,4701112,,,,,,,2023-03-29,1,,,,,ホーナン,0
860,4200001041110,新規,0,2023-03-29,2023-03-29,株式会社そらいろ,,株式会社,岐阜県,中津川市,中津川２３６４番地の２９３１,,21,206,5080001,,,,,,,2023-03-29,1,,,,,ソライロ,0
869,4240001061261,新規,0,2023-03-29,2023-03-29,株式会社ドクチョク,,株式会社,広島県,広島市中区,上八丁堀４番１－１９１２号,,34,101,7300012,,,,,,,2023-03-29,1,,,,,ドクチョク,0
870,4240003006074,新規,0,2023-03-29,2023-03-29,合同会社アクロスオファー,,合同会社,広島県,広島市東区,福田３丁目２１番１８号,,34,102,7320029,,,,,,,2023-03-29,1,,,,,アクロスオファー,0
875,4260001023623,新規,0,2023-03-29,2023-03-29,株式会社水島住宅,,株式会社,岡山県,岡山市北区,奥田南町４番３２号,,33,101,7000934,,,,,,,2023-03-29,1,,,,,,0
878,4290001101013,新規,0,2023-03-29,2023-03-29,株式会社エムエス,,株式会社,福岡県,福岡市南区,若久１丁目１５番地１０－２０５,,40,134,8150042,,,,,,,2023-03-29,1,,,,,エムエス,0
892,4310001018329,新規,0,2023-03-29,2023-03-29,株式会社ＬｉｆｅＡＲＴ,,株式会社,長崎県,長崎市,滑石３丁目１番１２号１号室,,42,201,8528061,,,,,,,2023-03-29,1,,,,,ライフアート,0
898,4370003006053,新規,0,2023-03-29,2023-03-29,合同会社たまい工務店,,合同会社,宮城県,岩沼市,桜２丁目８番１６号－１０２号,,04,211,9892433,,,,,,,2023-03-29,1,,,,,タマイコウムテン,0
899,4370005010607,新規,0,2023-03-29,2023-03-29,一般社団法人ＭＯＲＩＵＭＩＵＳ　ＦＡＲＭ,,その他の設立登記法人,宮城県,石巻市,雄勝町明神字沼尻１３－５,,04,202,9861331,,,,,,,2023-03-29,1,,,,,モリウミアスファーム,0
909,4420001018202,新規,0,2023-03-29,2023-03-29,株式会社あおいのやさい畑,,株式会社,青森県,弘前市,大字八幡字岸野田５０－５,,02,202,0361314,,,,,,,2023-03-29,1,,,,,アオイノヤサイバタケ,0
911,4420003002690,新規,0,2023-03-29,2023-03-29,ビーエスワーク合同会社,,合同会社,青森県,青森市,大字古舘字大柳８０番地３５,,02,201,0380000,,,,,,,2023-03-29,1,,,,,ビーエスワーク,0
915,4430001088698,新規,0,2023-03-29,2023-03-29,株式会社イグレックゲーミング,,株式会社,北海道,札幌市東区,北十条東２丁目３番３１号,,01,103,0650010,,,,,,,2023-03-29,1,,,,,イグレックゲーミング,0
916,4430001088715,新規,0,2023-03-29,2023-03-29,スターリングセキュリティ株式会社,,株式会社,北海道,苫小牧市,澄川町３丁目１４番１８号,,01,213,0591271,,,,,,,2023-03-29,1,,,,,スターリングセキュリティ,0
917,4430003014875,新規,0,2023-03-29,2023-03-29,合同会社Ｓｔｅｐ　Ｏｎｅ,,合同会社,北海道,札幌市東区,北二十六条東１８丁目２番２６号,,01,103,0650026,,,,,,,2023-03-29,1,,,,,ステップワン,0
919,4470005006495,新規,0,2023-03-29,2023-03-29,一般社団法人丸亀ＩＣＴクラブ,,その他の設立登記法人,香川県,丸亀市,城西町２丁目２番３４号,,37,202,7630032,,,,,,,2023-03-29,1,,,,,マルガメアイシーティークラブ,0
925,4700150115052,新規,0,2023-03-29,2023-03-29,ＳＨＥＮＺＨＥＮ　ＹＵＫＵＯ　ＴＥＣＨＮＯＬＯＧＹ　ＣＯ．，ＬＴＤ．,,外国会社等,,,,,,,,ｆｕｔｉａｎ　ｑｕ　ｈｕａｑｉａｎｇｂｅｉ　ｊｉｅｄａｏ　ｚｈｅｎｘｉｎｇｌｕ　３３　ｈｕａｆａ　ｄａｓｈａ　１６０２　ｓｈｅｎｚｈｅｎｓｈｉ　ｇｕａｎｇｄｏｎｇ,,,,,,2023-03-29,1,,,,,シンセンユクオテクノロジーカンパニーリミテッド,0
933,5010001233907,新規,0,2023-03-29,2023-03-29,株式会社ゼレニウム,,株式会社,東京都,中央区,銀座４丁目１４番１５－９０４,,13,102,1040061,,,,,,,2023-03-29,1,,,,,ゼレニウム,0
934,5010001234038,新規,0,2023-03-29,2023-03-29,Ｐｒａｘｉｓ　Ｄｅｓｉｇｎ株式会社,,株式会社,東京都,中央区,銀座１丁目１２番４号Ｎ＆ＥＢＬＤ．６Ｆ,,13,102,1040061,,,,,,,2023-03-29,1,,,,,プラクシスデザイン,0
946,5010401173356,新規,0,2023-03-29,2023-03-29,ＮＫＬａｂ株式会社,,株式会社,東京都,港区,芝３丁目２１－１０－１９０４号室,,13,103,1050014,,,,,,,2023-03-29,1,,,,,ラボ,0
947,5010401173397,新規,0,2023-03-29,2023-03-29,株式会社ヴェスティオ,,株式会社,東京都,港区,麻布台１丁目５番６－９０２号,,13,103,1060041,,,,,,,2023-03-29,1,,,,,ヴェスティオ,0
951,5010405021940,新規,0,2023-03-29,2023-03-29,一般社団法人新惟和会,,その他の設立登記法人,東京都,港区,高輪２丁目１２番１３号,,13,103,1080074,,,,,,,2023-03-29,1,,,,,シンユイワカイ,0
956,5010601062813,新規,0,2023-03-29,2023-03-29,スマイリーファーム株式会社,,株式会社,東京都,墨田区,錦糸１丁目２番１号アルカセントラル１４階,,13,107,1300013,,,,,,,2023-03-29,1,,,,,スマイリーファーム,0
958,5010701044042,新規,0,2023-03-29,2023-03-29,株式会社Ｓ＆Ｏ,,株式会社,東京都,品川区,東五反田２丁目９番５号,,13,109,1410022,,,,,,,2023-03-29,1,,,,,エスアンドオー,0
961,5010803004489,新規,0,2023-03-29,2023-03-29,ｉｇｎｉｔｅ合同会社,,合同会社,東京都,大田区,東雪谷５丁目２７番９号,,13,111,1450065,,,,,,,2023-03-29,1,,,,,イグニット,0
967,5010905004461,新規,0,2023-03-29,2023-03-29,特定非営利活動法人日本障がい者レスリング連盟,,その他の設立登記法人,東京都,世田谷区,中町５丁目９番３－４１１号,,13,112,1580091,,,,,,,2023-03-29,1,,,,,ニホンショウガイシャレスリングレンメイ,0
970,5011001153384,新規,0,2023-03-29,2023-03-29,株式会社Ｌａｇｎａ　Ｓｙｓｔｅｍｓ,,株式会社,東京都,渋谷区,円山町５－３,,13,113,1500044,,,,,,,2023-03-29,1,,,,,ラグナシステムズ,0
971,5011001153401,新規,0,2023-03-29,2023-03-29,株式会社想,,株式会社,東京都,渋谷区,南平台町５－１２－３０１,,13,113,1500036,,,,,,,2023-03-29,1,,,,,オモウ,0
974,5011101102316,新規,0,2023-03-29,2023-03-29,隆一株式会社,,株式会社,東京都,新宿区,榎町３４－３榎町ビル７階－０８室,,13,104,1620806,,,,,,,2023-03-29,1,,,,,リュウイチ,0
975,5011101102324,新規,0,2023-03-29,2023-03-29,Ｃｒｏｓｓ　Ｃｕｌｔｕｒｅ　Ｊａｐａｎ株式会社,,株式会社,東京都,新宿区,西新宿６丁目１２番７号,,13,104,1600023,,,,,,,2023-03-29,1,,,,,クロスカルチャージャパン,0
995,5011803005576,新規,0,2023-03-29,2023-03-29,ランドマルシェ合同会社,,合同会社,東京都,葛飾区,青戸４丁目２１―８,,13,122,1250062,,,,,,,2023-03-29,1,,,,,ランドマルシェ,0
996,5012303001801,新規,0,2023-03-29,2023-03-29,ＭＨ‐Ｐ合同会社,,合同会社,東京都,町田市,小山ヶ丘６丁目５番地１リーフィアレジデンス橋本１０２９,,13,209,1940215,,,,,,,2023-03-29,1,,,,,エムエイチピー,0
1005,5020001150853,新規,0,2023-03-29,2023-03-29,株式会社ハピマル,,株式会社,神奈川県,横浜市青葉区,あかね台２丁目１番地２７,,14,117,2270066,,,,,,,2023-03-29,1,,,,,ハピマル,0
1006,5020001150861,新規,0,2023-03-29,2023-03-29,株式会社ｉ＆シナジー,,株式会社,神奈川県,川崎市中原区,今井上町１０番１－１４１４号ガーデンティアラ武蔵小杉,,14,133,2110067,,,,,,,2023-03-29,1,,,,,アイアンドシナジー,0
1007,5020003023611,新規,0,2023-03-29,2023-03-29,合同会社みらいエステート,,合同会社,神奈川県,横浜市西区,みなとみらい６丁目３番４－２３０２号,,14,103,2200012,,,,,,,2023-03-29,1,,,,,ミライエステート,0
1009,5021001078564,新規,0,2023-03-29,2023-03-29,株式会社Ｓｕｎｎｙ’ｓ　Ｃａｒｅ,,株式会社,神奈川県,小田原市,新屋２０９番地の１,,14,206,2500856,,,,,,,2023-03-29,1,,,,,サニーズケア,0
1011,5021003012918,新規,0,2023-03-29,2023-03-29,合同会社大和南不動産,,合同会社,神奈川県,大和市,大和南２丁目４番８―９０４号,,14,213,2420016,,,,,,,2023-03-29,1,,,,,ヤマトミナミフドウサン,0
1024,5030001153054,新規,0,2023-03-29,2023-03-29,株式会社ＳＰＥＳ,,株式会社,埼玉県,さいたま市浦和区,神明１丁目２７番１４号,,11,107,3300065,,,,,,,2023-03-29,1,,,,,スペース,0
1026,5030003021440,新規,0,2023-03-29,2023-03-29,合同会社ＧＲＥＥＮ　ＦＯＯＤ,,合同会社,埼玉県,坂戸市,薬師町３３番地７ロワール坂戸１０１号室,,11,239,3500229,,,,,,,2023-03-29,1,,,,,グリーンフード,0
1027,5030005021182,新規,0,2023-03-29,2023-03-29,特定非営利活動法人やまざくら,,その他の設立登記法人,埼玉県,川口市,大字東本郷２０３３の１江端ビル２階,,11,203,3340063,,,,,,,2023-03-29,1,,,,,ヤマザクラ,0
1030,5040001127684,新規,0,2023-03-29,2023-03-29,帝国後光株式会社,,株式会社,千葉県,船橋市,前原西２丁目１４番１号ダイアパレス津田沼４０４号室,,12,204,2740825,,,,,,,2023-03-29,1,,,,,テイコクゴコウ,0
1032,5040003022280,新規,0,2023-03-29,2023-03-29,合同会社ＳＥＮＥＳＨ　ＭＯＴＯＲＳ,,合同会社,千葉県,成田市,津富浦１００６番地６７６,,12,211,2870236,,,,,,,2023-03-29,1,,,,,セネシュモータース,0
1035,5050001052584,新規,0,2023-03-29,2023-03-29,株式会社アンビション,,株式会社,茨城県,水戸市,栄町２丁目６番２９号,,08,201,3100064,,,,,,,2023-03-29,1,,,,,アンビション,0
1043,5080005007524,新規,0,2023-03-29,2023-03-29,医療法人社団いらか,,その他の設立登記法人,静岡県,藤枝市,瀬戸新屋２４６番地の２,,22,214,4260075,,,,,,,2023-03-29,1,,,,,イラカ,0
1060,5110001037389,新規,0,2023-03-29,2023-03-29,株式会社ビューティーヘアケアネット,,株式会社,新潟県,上越市,大字上名柄７３１番地１,,15,222,9420252,,,,,,,2023-03-29,1,,,,,ビューティーヘアケアネット,0
1075,5120001253480,新規,0,2023-03-29,2023-03-29,福邦株式会社,,株式会社,大阪府,大阪市東住吉区,鷹合３丁目４－２プレジデント鷹合７０６号室,,27,121,5460014,,,,,,,2023-03-29,1,,,,,フクホウ,0
1076,5120001253539,新規,0,2023-03-29,2023-03-29,株式会社ゴールドプラザ,,株式会社,大阪府,大阪市中央区,南船場１丁目１３番２０号,,27,128,5420081,,,,,,,2023-03-29,1,,,,,ゴールドプラザ,0
1077,5120001253555,新規,0,2023-03-29,2023-03-29,株式会社ＣＩＯＬＩ,,株式会社,大阪府,門真市,上島町４６番地５,,27,223,5710071,,,,,,,2023-03-29,1,,,,,シオリ,0
1080,5120003023709,新規,0,2023-03-29,2023-03-29,合同会社リーガル・プロセス・サポート,,合同会社,大阪府,大阪市中央区,南新町１丁目３番１１号高分子工学第一ビル３階,,27,128,5400024,,,,,,,2023-03-29,1,,,,,リーガルプロセスサポート,0
1085,5120101067211,新規,0,2023-03-29,2023-03-29,株式会社ハンビットホーム,,株式会社,大阪府,南河内郡河南町,大宝１丁目１番４号,,27,382,5850005,,,,,,,2023-03-29,1,,,,,ハンビットホーム,0
1086,5120103005136,新規,0,2023-03-29,2023-03-29,合同会社碧千舗,,合同会社,大阪府,阪南市,桃の木台６丁目８番地の２,,27,232,5990236,,,,,,,2023-03-29,1,,,,,ヘキセンホ,0
1087,5120901047313,新規,0,2023-03-29,2023-03-29,株式会社アグリズム摂津,,株式会社,大阪府,摂津市,鳥飼八町１丁目１３番３号,,27,224,5660061,,,,,,,2023-03-29,1,,,,,アグリズムセッツ,0
1088,5120901047321,新規,0,2023-03-29,2023-03-29,アイナインオー株式会社,,株式会社,大阪府,吹田市,桃山台５丁目４番１－３１１号,,27,205,5650854,,,,,,,2023-03-29,1,,,,,アイナインオー,0
1091,5122001036832,新規,0,2023-03-29,2023-03-29,長木株式会社,,株式会社,大阪府,東大阪市,花園東町２丁目１３－１２－１０２室,,27,227,5780931,,,,,,,2023-03-29,1,,,,,チョウキ,0
1094,5130001073936,新規,0,2023-03-29,2023-03-29,株式会社ｅ‐ｄｏｎｕｔｓ,,株式会社,京都府,京都市西京区,大原野上里北ノ町９０７番地９,,26,111,6101121,,,,,,,2023-03-29,1,,,,,イードーナツ,0
1098,5130003008618,新規,0,2023-03-29,2023-03-29,合同会社Ｙ．Ｍ．ｃｒｅａｔｉｏｎ,,合同会社,京都府,京都市右京区,嵯峨天龍寺瀬戸川町１８番地の５６,,26,108,6168376,,,,,,,2023-03-29,1,,,,,ワイエムクリエーション,0
1103,5140001129258,新規,0,2023-03-29,2023-03-29,株式会社アクト電設,,株式会社,兵庫県,西宮市,樋ノ口町２丁目１番７－２０６号,,28,204,6638011,,,,,,,2023-03-29,1,,,,,アクトデンセツ,0
1104,5140001129571,新規,0,2023-03-29,2023-03-29,株式会社ＡＭＡ　ＣＯＲＰＯＲＡＴＩＯＮ,,株式会社,兵庫県,神戸市北区,鹿の子台北町４丁目７番７－２０６号,,28,109,6511513,,,,,,,2023-03-29,1,,,,,エーエムエーコーポレーション,0
1114,5170001017526,新規,0,2023-03-29,2023-03-29,株式会社スミカマネジメント,,株式会社,和歌山県,和歌山市,三番丁８５,,30,201,6408142,,,,,,,2023-03-29,1,,,,,スミカマネジメント,0
1131,5220003003485,新規,0,2023-03-29,2023-03-29,Ｈｙｄｒｏ　Ｅｎｅｒｇｙ作山川合同会社,,合同会社,石川県,金沢市,御影町１０番７号,,17,201,9218021,,,,,,,2023-03-29,1,,,,,ハイドロエナジーツクリヤマガワ,0
1146,5290005018987,新規,0,2023-03-29,2023-03-29,一般社団法人マイトレイヤファンデーションＪａｐａｎ,,その他の設立登記法人,福岡県,嘉麻市,椎木７９－１６,,40,227,8200323,,,,,,,2023-03-29,1,,,,,マイトレイヤファンデーションジャパン,0
1151,5320003004052,新規,0,2023-03-29,2023-03-29,合同会社志閃工業,,合同会社,大分県,大分市,新川町２丁目９番４号,,44,201,8700016,,,,,,,2023-03-29,1,,,,,シセンコウギョウ,0
1154,5330003009777,新規,0,2023-03-29,2023-03-29,合同会社セレクト不動産,,合同会社,熊本県,八代市,古閑中町２３３０番地,,43,202,8660898,,,,,,,2023-03-29,1,,,,,セレクトフドウウサン,0
1155,5340005009576,新規,0,2023-03-29,2023-03-29,一般財団法人ＳＫＬＶそお,,その他の設立登記法人,鹿児島県,曽於市,財部町南俣１３４３番地,,46,217,8994101,,,,,,,2023-03-29,1,,,,,スクラブソオ,0
1160,5350003004330,新規,0,2023-03-29,2023-03-29,合同会社ネクストファーム,,合同会社,宮崎県,日向市,大字財光寺１２４７番地,,45,206,8830021,,,,,,,2023-03-29,1,,,,,ネクストファーム,0
1166,5370001049755,新規,0,2023-03-29,2023-03-29,株式会社ライブプロ,,株式会社,宮城県,登米市,南方町大袋浦５３９番地,,04,212,9870426,,,,,,,2023-03-29,1,,,,,ライブプロ,0
1178,5430001088697,新規,0,2023-03-29,2023-03-29,株式会社ＩＭＡ建設,,株式会社,北海道,札幌市東区,北五十条東１５丁目４番１１号ＫＩハウスＮ５０Ｃ棟１０１号,,01,103,0070850,,,,,,,2023-03-29,1,,,,,アイエムエーケンセツ,0
1179,5430001088722,新規,0,2023-03-29,2023-03-29,ミネラルプラネット株式会社,,株式会社,北海道,札幌市中央区,南一条西１６丁目１番地３２３春野ビル３Ｆ,,01,101,0600061,,,,,,,2023-03-29,1,,,,,ミネラルプラネット,0
1180,5430003014858,新規,0,2023-03-29,2023-03-29,合同会社大三池田商會,,合同会社,北海道,余市郡余市町,黒川町１２丁目１００番地４,,01,408,0460003,,,,,,,2023-03-29,1,,,,,ダイサンイケダショウカイ,0
1181,5430003014866,新規,0,2023-03-29,2023-03-29,合同会社大西農園,,合同会社,北海道,三笠市,いちきしり９２番地,,01,222,0682164,,,,,,,2023-03-29,1,,,,,オオニシノウエン,0
1182,5430003014874,新規,0,2023-03-29,2023-03-29,合同会社ＧＴＵ,,合同会社,北海道,札幌市南区,澄川四条１１丁目４番１６号,,01,106,0050004,,,,,,,2023-03-29,1,,,,,ジーティーユー,0
1183,5450005004368,新規,0,2023-03-29,2023-03-29,医療法人ＭＵＳＡＳＨＩ,,その他の設立登記法人,北海道,旭川市,一条通２３丁目１１番地の３９,,01,204,0788211,,,,,,,2023-03-29,1,,,,,ムサシ,0
1187,5700150115051,新規,0,2023-03-29,2023-03-29,Ｆｏｓｈａｎ　Ｍａｌｉａｏ　Ｄｉａｎｚｉｓｈａｎｇｗｕ　ＣＯ．，ＬＴＤ,,外国会社等,,,,,,,,Ｎａｎｈａｉｑｕ　Ｄａｎｚａｏｚｈｅｎ　Ｈｕａｎａｎ　Ｗｕｊｉｎ　Ｃｈａｎｙｅ　Ｊｉｄｉ　Ｙｉｎｇｊｉｎ　Ｅｒｌｕ　３ｈａｏ　１　Ｄｏｎｇ　Ｂａｎｇｏｎｇｌｏｕ　Ｅｒｌｏｕ　２Ｓｈｉ　Ｆｏｓｈａｎ　Ｇｕａｎｇｄｏｎｇ　Ｃｈｉｎａ,,,,,,2023-03-29,1,,,,,フォシャンマリアオデンシショウムカンパニーリミテッド,0
1200,6010003040169,新規,0,2023-03-29,2023-03-29,合同会社アーティファクト,,合同会社,東京都,中央区,銀座１丁目２２番１１号銀座大竹ビジデンス２Ｆ,,13,102,1040061,,,,,,,2023-03-29,1,,,,,アーティファクト,0
1201,6010103002110,新規,0,2023-03-29,2023-03-29,合同会社秀晴,,合同会社,東京都,八王子市,西寺方町１１９８番地７,,13,201,1920153,,,,,,,2023-03-29,1,,,,,ヒデハル,0
1208,6010401173347,新規,0,2023-03-29,2023-03-29,株式会社スターク,,株式会社,東京都,港区,赤坂１丁目１２番３２号アーク森ビル２３階,,13,103,1070052,,,,,,,2023-03-29,1,,,,,スターク,0
1209,6010401173396,新規,0,2023-03-29,2023-03-29,エイチ・アンド・ビー株式会社,,株式会社,東京都,港区,西新橋２丁目４－３プロス西新橋ビル７階,,13,103,1050003,,,,,,,2023-03-29,1,,,,,エイチアンドビー,0
1214,6010403029737,新規,0,2023-03-29,2023-03-29,合同会社Ｌｉｌｙ２７,,合同会社,東京都,港区,麻布十番１丁目５－１１波多野ビル６０２号,,13,103,1060045,,,,,,,2023-03-29,1,,,,,リィリィニジュウナナ,0
1216,6010501050207,新規,0,2023-03-29,2023-03-29,株式会社Ｓｅｅｄ,,株式会社,東京都,台東区,千束３丁目１９番９－１２０４号メインステージ浅草国際通り,,13,106,1110031,,,,,,,2023-03-29,1,,,,,シード,0
1223,6010701044041,新規,0,2023-03-29,2023-03-29,株式会社コネクト,,株式会社,東京都,品川区,平塚１丁目５番９号,,13,109,1420051,,,,,,,2023-03-29,1,,,,,コネクト,0
1235,6011003016539,新規,0,2023-03-29,2023-03-29,合同会社白百合,,合同会社,東京都,渋谷区,広尾４丁目１番１６－９０４号,,13,113,1500012,,,,,,,2023-03-29,1,,,,,シラユリ,0
1239,6011101102323,新規,0,2023-03-29,2023-03-29,ＣｏｍｅＣｉｔｙ株式会社,,株式会社,東京都,新宿区,西新宿３丁目３番１３号,,13,104,1600023,,,,,,,2023-03-29,1,,,,,カムシティー,0
1240,6011101102331,新規,0,2023-03-29,2023-03-29,株式会社フ．リー,,株式会社,東京都,新宿区,西新宿３丁目３－１３西新宿水間ビル６階,,13,104,1600023,,,,,,,2023-03-29,1,,,,,フリー,0
1242,6011201024525,新規,0,2023-03-29,2023-03-29,ＣＡＭＥＬＬＩＡ株式会社,,株式会社,東京都,中野区,中野５丁目６０番２－２２０号,,13,114,1640001,,,,,,,2023-03-29,1,,,,,カメリア,0
1253,6012401040320,新規,0,2023-03-29,2023-03-29,株式会社ＭＵＧＩ,,株式会社,東京都,狛江市,岩戸南４丁目３０番１２号Ｈ・ＭパークスＩＩＩ１０１,00129900,13,219,2010005,,,,,,,2023-03-29,1,,,,,ムギ,0
1256,6012703002662,新規,0,2023-03-29,2023-03-29,合同会社ウミドコ,,合同会社,東京都,東村山市,久米川町３丁目１５番地７,,13,213,1890003,,,,,,,2023-03-29,1,,,,,ウミドコ,0
1257,6012801022224,新規,0,2023-03-29,2023-03-29,株式会社ティグレＧ,,株式会社,東京都,昭島市,拝島町２丁目２番９号,,13,207,1960002,,,,,,,2023-03-29,1,,,,,ティグレジー,0
1266,6020001150877,新規,0,2023-03-29,2023-03-29,株式会社ＤＴＦ,,株式会社,神奈川県,横浜市中区,山下町１６２番地１,,14,104,2310023,,,,,,,2023-03-29,1,,,,,ディーティーエフ,0
1269,6020005015911,新規,0,2023-03-29,2023-03-29,医療法人健健健医会,,その他の設立登記法人,神奈川県,横浜市緑区,長津田２丁目５番１４号長津田森島ビル１階,,14,113,2260027,,,,,,,2023-03-29,1,,,,,ケンケンケンイカイ,0
1275,6021001078563,新規,0,2023-03-29,2023-03-29,株式会社ローレルキャニオン,,株式会社,神奈川県,逗子市,山の根１丁目４番１５－４０５号,,14,208,2490002,,,,,,,2023-03-29,1,,,,,ローレルキャニオン,0
1277,6021003012925,新規,0,2023-03-29,2023-03-29,合同会社オットケオットケ,,合同会社,神奈川県,伊勢原市,板戸５０９番地の２,,14,214,2591145,,,,,,,2023-03-29,1,,,,,オットケオットケ,0
1280,6030003021415,新規,0,2023-03-29,2023-03-29,合同会社ＡｒｍａｎＡｂｉｄ貿易,,合同会社,埼玉県,久喜市,太田袋５９１番,,11,232,3460023,,,,,,,2023-03-29,1,,,,,アルマンアビドボウエキ,0
1281,6030003021423,新規,0,2023-03-29,2023-03-29,加須商会合同会社,,合同会社,埼玉県,加須市,大越１０６１番地１,,11,210,3470001,,,,,,,2023-03-29,1,,,,,カゾショウカイ,0
1282,6030003021448,新規,0,2023-03-29,2023-03-29,ＬＡＬＩ　ＧＵＲＡＳＨ合同会社,,合同会社,埼玉県,さいたま市見沼区,深作３丁目３番６サンハイム１０２,,11,104,3370003,,,,,,,2023-03-29,1,,,,,ラリグラシュ,0
1286,6040001127675,新規,0,2023-03-29,2023-03-29,ＫＩＮＧＳＭＡＮ株式会社,,株式会社,千葉県,千葉市美浜区,若葉３丁目１番地１８幕張ベイパーククロスレジデンスＳ２－１,,12,106,2610014,,,,,,,2023-03-29,1,,,,,キングスマン,0
1290,6050001052583,新規,0,2023-03-29,2023-03-29,ＰＡＴＨＵＭ　ＡＵＴＯ　ＪＡＰＡＮ株式会社,,株式会社,茨城県,つくばみらい市,野堀４７６－１７,,08,235,3002311,,,,,,,2023-03-29,1,,,,,パトムオートジャパン,0
1307,6120001253538,新規,0,2023-03-29,2023-03-29,株式会社ＦＡＶＯＲ,,株式会社,大阪府,大阪市阿倍野区,天王寺町南３丁目８番３０－９０５号,,27,119,5450002,,,,,,,2023-03-29,1,,,,,フェイバー,0
1308,6120001253570,新規,0,2023-03-29,2023-03-29,ＭＡＧＮＭＳ　Ｈｏｌｄｉｎｇｓ株式会社,,株式会社,大阪府,大阪市旭区,高殿２丁目３番２０号,,27,117,5350031,,,,,,,2023-03-29,1,,,,,マグナムスホールディングス,0
1311,6120003023699,新規,0,2023-03-29,2023-03-29,ウェルネスインベストメントジャパン合同会社,,合同会社,大阪府,大阪市北区,梅田１丁目２番２号大阪駅前第２ビル１２－１２,,27,127,5300001,,,,,,,2023-03-29,1,,,,,ウェルネスインベストメントジャパン,0
1312,6120003023716,新規,0,2023-03-29,2023-03-29,合同会社ＹＯＬＯ,,合同会社,大阪府,大阪市阿倍野区,相生通２丁目１１番２７号ルネ北畠５０５号,,27,119,5450033,,,,,,,2023-03-29,1,,,,,ヨロ,0
1313,6120101067210,新規,0,2023-03-29,2023-03-29,株式会社堺コンピュータ,,株式会社,大阪府,堺市西区,上野芝町５丁２番１上野芝レジデンス１１１９号,,27,144,5938301,,,,,,,2023-03-29,1,,,,,サカイコンピュータ,0
1321,6130001073943,新規,0,2023-03-29,2023-03-29,一省書屋株式会社,,株式会社,京都府,京都市右京区,西院東今田町３７－４ラトゥール西院３０１,,26,108,6160000,,,,,,,2023-03-29,1,,,,,イッセイショヤ,0
1335,6140003018887,新規,0,2023-03-29,2023-03-29,キャストグローバルプロパティ関西合同会社,,合同会社,兵庫県,西宮市,小曽根町４丁目８番３１号,,28,204,6638122,,,,,,,2023-03-29,1,,,,,キャストグローバルプロパティカンサイ,0
1336,6140003018895,新規,0,2023-03-29,2023-03-29,合同会社イトーケア,,合同会社,兵庫県,神戸市長田区,西丸山町３丁目３番９号,,28,106,6530874,,,,,,,2023-03-29,1,,,,,イトーケア,0
1341,6150001026263,新規,0,2023-03-29,2023-03-29,株式会社Ｈｙｐｅｒｉｏｎ　ＦｏｏｄＴｅｃｈ,,株式会社,奈良県,奈良市,あやめ池南１丁目７番３７－６０２号,,29,201,6310033,,,,,,,2023-03-29,1,,,,,ハイペリオンフードテック,0
1353,6220003003484,新規,0,2023-03-29,2023-03-29,Ｈｙｄｒｏ　Ｅｎｅｒｇｙ和佐父川合同会社,,合同会社,石川県,金沢市,御影町１０番７号,,17,201,9218021,,,,,,,2023-03-29,1,,,,,ハイドロエナジーワサブガワ,0
1362,6270005005549,新規,0,2023-03-29,2023-03-29,一般社団法人メディア教育研究室,,その他の設立登記法人,鳥取県,鳥取市,大覚寺７４番地１３,,31,201,6800863,,,,,,,2023-03-29,1,,,,,メディアキョウイクケンキュウシツ,0
1369,6290003013717,新規,0,2023-03-29,2023-03-29,Ｄドリーム愛合同会社,,合同会社,福岡県,福岡市城南区,荒江１丁目３３番１９－２０４号,,40,136,8140101,,,,,,,2023-03-29,1,,,,,ディドリームアイ,0
1374,6290801029402,新規,0,2023-03-29,2023-03-29,ＭＩＹＡＤＥＮ　ＥＣＷ株式会社,,株式会社,福岡県,北九州市戸畑区,新池１丁目６番５号軍馬ビル１０２号,,40,105,8040082,,,,,,,2023-03-29,1,,,,,ミヤデンイーシーダブリュー,0
1381,6330001030676,新規,0,2023-03-29,2023-03-29,肥後繊維株式会社,,株式会社,熊本県,熊本市東区,御領町１８１番地３,,43,102,8610000,,,,,,,2023-03-29,1,,,,,ヒゴセンイ,0
1390,6340001025452,新規,0,2023-03-29,2023-03-29,株式会社グロースファンド,,株式会社,鹿児島県,鹿屋市,川西町４２７２－１,,46,203,8930032,,,,,,,2023-03-29,1,,,,,グロースファンド,0
1392,6360005006810,新規,0,2023-03-29,2023-03-29,一般社団法人ビーチの未来,,その他の設立登記法人,沖縄県,那覇市,字松川３０１番地１５テラス坂下７０１,,47,201,9020062,,,,,,,2023-03-29,1,,,,,ビーチノミライ,0
1394,6370001049762,新規,0,2023-03-29,2023-03-29,株式会社オガタ,,株式会社,宮城県,名取市,飯野坂４丁目３番６－１号,,04,207,9811225,,,,,,,2023-03-29,1,,,,,オガタ,0
1395,6370003006051,新規,0,2023-03-29,2023-03-29,合同会社ハピネスアトラクト,,合同会社,宮城県,仙台市青葉区,荒巻本沢１丁目１６番地８号協栄マンション２０３号室,,04,101,9810966,,,,,,,2023-03-29,1,,,,,ハピネスアトラクト,0
1404,6420003002689,新規,0,2023-03-29,2023-03-29,ＴＨＧ合同会社,,合同会社,青森県,八戸市,大字十三日町一番地ヴィアノヴァビル３階,,02,203,0310042,,,,,,,2023-03-29,1,,,,,ティーエイチジー,0
1408,6430001088713,新規,0,2023-03-29,2023-03-29,株式会社ミズカミ,,株式会社,北海道,札幌市東区,北四十三条東１６丁目１番６号,,01,103,0070843,,,,,,,2023-03-29,1,,,,,ミズカミ,0
1409,6430003014865,新規,0,2023-03-29,2023-03-29,合同会社ＡＲＡＴＡ,,合同会社,北海道,札幌市手稲区,手稲本町二条４丁目８番１２－１２０１号,,01,109,0060022,,,,,,,2023-03-29,1,,,,,アラタ,0
1410,6430003014881,新規,0,2023-03-29,2023-03-29,合同会社みずぐちけ,,合同会社,北海道,小樽市,若竹町３５‐１４,,01,203,0470001,,,,,,,2023-03-29,1,,,,,ミズグチケ,0
1414,6480001012049,新規,0,2023-03-29,2023-03-29,グリーンシトラス株式会社,,株式会社,徳島県,徳島市,八万町下福万７９－２０,,36,201,7708074,,,,,,,2023-03-29,1,,,,,グリーンシトラス,0
1417,6700150115050,新規,0,2023-03-29,2023-03-29,Ｓｈｅｎｚｈｅｎｓｈｉ　Ｘｕｎｎｅｎｇｄｉａｎｚｉ　Ｙｏｕｘｉａｎｇｏｎｇｓｉ,,外国会社等,,,,,,,,Ｌｏｎｇｇａｎｇｊｉｅｄａｏｘｉｎｓｈｅｎｇｓｈｅｑｕｊｉｎｃｈｅｎｇｘｉｎｇｙｕａｎ２Ｄｏｎｇ４０９　Ｓｈｅｎｚｈｅｎｓｈｉ　Ｇｕａｎｇｄｏｎｇｓｈｅｎｇ，Ｃｈｉｎａ,,,,,,2023-03-29,1,,,,,シンセンシシュネンデンシユウゲンコウシ,0
1418,6700150115059,新規,0,2023-03-29,2023-03-29,Ａｎｈｕｉ　Ｒｕｉｓｈｅｎｇｊｉａｎｋａｎｇ　Ｃｈａｎｙｅｆａｚｈａｎ　Ｙｏｕｘｉａｎｇｏｎｇｓｉ,,外国会社等,,,,,,,,１５０９，Ｂｌｏｃｋ　Ｃ，Ｇｒｅｅｎｌａｎｄ　Ｙｉｎｇｈａｉ　Ｉｎｔｅｒｎａｔｉｏｎａｌ　Ｂｕｉｌｄｉｎｇ，Ｍａ’ａｎｓｈａｎ　Ｒｏａｄ，Ｂａｏｈｅ　Ｄｉｓｔｒｉｃｔ，Ｈｅｆｅｉ　Ｃｉｔｙ，Ｃｈｉｎａ,,,,,,2023-03-29,1,,,,,アンフイルイシェンジャンカンチェンエファザンユウゲンコウシ,0
1443,7010501050197,新規,0,2023-03-29,2023-03-29,華瑞株式会社,,株式会社,東京都,台東区,上野６丁目７－１６川久保ビル５１１号,,13,106,1100005,,,,,,,2023-03-29,1,,,,,カズイ,0
1444,7010503006932,新規,0,2023-03-29,2023-03-29,合同会社ｆｉｘｓ,,合同会社,東京都,台東区,橋場１丁目３５番１０号きゃみーハウス２０１,,13,106,1110023,,,,,,,2023-03-29,1,,,,,フィックス,0
1447,7010603010082,新規,0,2023-03-29,2023-03-29,ｎｏｖｏｒｅ合同会社,,合同会社,東京都,江東区,北砂１丁目３番１９,,13,108,1360073,,,,,,,2023-03-29,1,,,,,ノボレ,0
1452,7010701044040,新規,0,2023-03-29,2023-03-29,株式会社ビルラポ,,株式会社,東京都,品川区,西品川１丁目１－１住友不動産大崎ガーデンタワー９階ＴＵＮＮＥＬ・ＴＯＫＹＯ,,13,109,1410033,,,,,,,2023-03-29,1,,,,,ビルラポ,0
1453,7010703006641,新規,0,2023-03-29,2023-03-29,旭クリエイト合同会社,,合同会社,東京都,品川区,北品川５丁目９番４３－１０７号,,13,109,1410001,,,,,,,2023-03-29,1,,,,,アサヒクリエイト,0
1454,7010901052784,新規,0,2023-03-29,2023-03-29,株式会社Ｄｒｅａｍ　ｏｎ　Ｄｒｅａｍｅｒｓ,,株式会社,東京都,世田谷区,玉川台２丁目４番６－３０２号,,13,112,1580096,,,,,,,2023-03-29,1,,,,,ドリームオンドリーマーズ,0
1455,7010903008058,新規,0,2023-03-29,2023-03-29,ＴＹコラボ合同会社,,合同会社,東京都,世田谷区,三宿２丁目１７番１９号,,13,112,1540005,,,,,,,2023-03-29,1,,,,,ティワイコラボ,0
1459,7011001153374,新規,0,2023-03-29,2023-03-29,Ｃｒｏｗｄ　Ａｒｃｈ株式会社,,株式会社,東京都,渋谷区,神宮前６丁目２３番４号桑野ビル２Ｆ,,13,113,1500001,,,,,,,2023-03-29,1,,,,,クラウドアーチ,0
1460,7011001153408,新規,0,2023-03-29,2023-03-29,株式会社Ｃｈｉｐｓ,,株式会社,東京都,渋谷区,桜丘町２１番１２号桜丘アーバンライフＢ棟２１２号室,,13,113,1500031,,,,,,,2023-03-29,1,,,,,チップス,0
1461,7011003016538,新規,0,2023-03-29,2023-03-29,ＩＮＥＲＴＩＡ合同会社,,合同会社,東京都,渋谷区,渋谷２丁目１９－１５宮益坂ビルディング６０９,,13,113,1500002,,,,,,,2023-03-29,1,,,,,イナーシャ,0
1467,7011103012874,新規,0,2023-03-29,2023-03-29,テディベア合同会社,,合同会社,東京都,新宿区,高田馬場３丁目３１番１２号,,13,104,1690075,,,,,,,2023-03-29,1,,,,,テディベア,0
1468,7011201024524,新規,0,2023-03-29,2023-03-29,株式会社情緒画国際商事,,株式会社,東京都,中野区,東中野４丁目４－１丸新ビル２０１室,,13,114,1640003,,,,,,,2023-03-29,1,,,,,ジョウチョガコクサイショウジ,0
1473,7011503005528,新規,0,2023-03-29,2023-03-29,ＨＬ　Ｍａｒｔ合同会社,,合同会社,東京都,荒川区,東日暮里５丁目４３－２－１Ｆ,,13,118,1160014,,,,,,,2023-03-29,1,,,,,,0
1479,7011805003254,新規,0,2023-03-29,2023-03-29,行政書士法人ＡＣＥ,,その他の設立登記法人,東京都,足立区,竹の塚２丁目２３番１３号－２Ｆ,,13,121,1210813,,,,,,,2023-03-29,1,,,,,エース,0
1494,7020001150827,新規,0,2023-03-29,2023-03-29,株式会社リーディア,,株式会社,神奈川県,横浜市中区,長者町３丁目８番１３号ＴＫ関内プラザ３０３Ａ,,14,104,2310033,,,,,,,2023-03-29,1,,,,,リーディア,0
1496,7020003023477,新規,0,2023-03-29,2023-03-29,合同会社Ｌｅ　Ｒｉｒｅ,,合同会社,神奈川県,横浜市中区,北仲通５丁目５７－２ＴＨＥ・ＴＯＷＥＲ横浜北仲１００８号室,,14,104,2310003,,,,,,,2023-03-29,1,,,,,ルリール,0
1497,7020003023618,新規,0,2023-03-29,2023-03-29,合同会社エアフォルク,,合同会社,神奈川県,横浜市西区,北幸２丁目１０番２８号むつみビル３Ｆ,,14,103,2200004,,,,,,,2023-03-29,1,,,,,エアフォルク,0
1498,7021001078562,新規,0,2023-03-29,2023-03-29,Ｍｉｘうんち株式会社,,株式会社,神奈川県,茅ヶ崎市,東海岸北５丁目４－２６,,14,207,2530053,,,,,,,2023-03-29,1,,,,,ミックスウンチ,0
1503,7021003012924,新規,0,2023-03-29,2023-03-29,ＨＬ合同会社,,合同会社,神奈川県,厚木市,愛甲４丁目１－９出口貸店舗１Ｆ,,14,212,2430035,,,,,,,2023-03-29,1,,,,,エイチエル,0
1509,7030001153003,新規,0,2023-03-29,2023-03-29,ＡＹＮ株式会社,,株式会社,埼玉県,熊谷市,三ヶ尻１６７５番地,,11,202,3600843,,,,,,,2023-03-29,1,,,,,エーワイエヌ,0
1510,7030001153052,新規,0,2023-03-29,2023-03-29,フジハウス株式会社,,株式会社,埼玉県,上尾市,中妻１丁目１５番地１３北上尾藤澤マンション３０１,,11,219,3620072,,,,,,,2023-03-29,1,,,,,フジハウス,0
1511,7030001153060,新規,0,2023-03-29,2023-03-29,株式会社スペース・イノベーション,,株式会社,埼玉県,さいたま市見沼区,大字風渡野２６７番地１,,11,104,3370017,,,,,,,2023-03-29,1,,,,,スペースイノベーション,0
1518,7030003021455,新規,0,2023-03-29,2023-03-29,合同会社リサイクルボックス,,合同会社,埼玉県,越谷市,越ヶ谷１丁目１０番６号チュリス越谷７０２,,11,222,3430813,,,,,,,2023-03-29,1,,,,,リサイクルボックス,0
1530,7050005013234,新規,0,2023-03-29,2023-03-29,ＦＵＴＵＲＥ　ＣＯＵＲＴみらい平団地管理組合法人,,その他の設立登記法人,茨城県,つくばみらい市,陽光台２丁目１番地９６,,08,235,3002358,,,,,,,2023-03-29,1,,,,,フューチャーコートミライダイラ,0
1532,7070005010097,新規,0,2023-03-29,2023-03-29,ＮＰＯ法人群馬ナッツ協会,,その他の設立登記法人,群馬県,高崎市,北双葉町七丁目２０番,,10,202,3700842,,,,,,,2023-03-29,1,,,,,エヌピーオーホウジングンマナッツキョウカイ,0
1550,7120001253512,新規,0,2023-03-29,2023-03-29,＿澤株式会社,00129893,株式会社,大阪府,大阪市大正区,三軒家西３丁目４番１６号中山ビル２０８Ａ,,27,108,5510001,,,,,,,2023-03-29,1,,,,,シンザワ,0
1551,7120001253586,新規,0,2023-03-29,2023-03-29,ＡＹＵＭＩ株式会社,,株式会社,大阪府,大阪市住吉区,我孫子５丁目６番２５号ジュネスシャトー６号館１０３号,,27,120,5580014,,,,,,,2023-03-29,1,,,,,アユミ,0
1554,7120103005142,新規,0,2023-03-29,2023-03-29,合同会社ＲＫＳプロモーション,,合同会社,大阪府,泉大津市,東豊中町３丁目１４番１４号,,27,206,5950021,,,,,,,2023-03-29,1,,,,,アールケイエスプロモーション,0
1555,7120901047311,新規,0,2023-03-29,2023-03-29,株式会社まきごこち,,株式会社,大阪府,高槻市,上牧町１丁目２０番１７７,,27,207,5690003,,,,,,,2023-03-29,1,,,,,マキゴコチ,0
1556,7120905006445,新規,0,2023-03-29,2023-03-29,ワールドコネクト協同組合,,その他の設立登記法人,大阪府,豊中市,利倉西１丁目８番１４号,,27,203,5610844,,,,,,,2023-03-29,1,,,,,ワールドコネクト,0
1559,7122001036830,新規,0,2023-03-29,2023-03-29,株式会社エムイー,,株式会社,大阪府,八尾市,山本町南１丁目１０－２３,,27,212,5810013,,,,,,,2023-03-29,1,,,,,エムイー,0
1567,7150001026270,新規,0,2023-03-29,2023-03-29,株式会社アセットマネジメント,,株式会社,奈良県,香芝市,真美ヶ丘２丁目５－３０,,29,210,6390223,,,,,,,2023-03-29,1,,,,,アセットマネジメント,0
1570,7180001155505,新規,0,2023-03-29,2023-03-29,Ｌ株式会社,,株式会社,愛知県,名古屋市中村区,二瀬町１番地の２千成ハイツ４０３,,23,105,4530837,,,,,,,2023-03-29,1,,,,,エル,0
1571,7180001155521,新規,0,2023-03-29,2023-03-29,株式会社ＳＯＷＡＫＡ,,株式会社,愛知県,日進市,赤池町箕ノ手２番地１５２１,,23,230,4700126,,,,,,,2023-03-29,1,,,,,ソワカ,0
1572,7180001155546,新規,0,2023-03-29,2023-03-29,株式会社ＪＴＣ,,株式会社,愛知県,弥富市,東末広６丁目１０番地１,,23,235,4980063,,,,,,,2023-03-29,1,,,,,ジェーティーシー,0
1577,7190005011802,新規,0,2023-03-29,2023-03-29,一般社団法人大紀・大台トラック・クレーン協会,,その他の設立登記法人,三重県,度会郡大紀町,金輪３８４番地９,,24,471,5192733,,,,,,,2023-03-29,1,,,,,タイキオオダイトラッククレーンキョウカイ,0
1585,7200003005911,新規,0,2023-03-29,2023-03-29,合同会社笑叶,,合同会社,岐阜県,瑞穂市,呂久１０４１番地,,21,216,5010324,,,,,,,2023-03-29,1,,,,,ニコ,0
1586,7220003003483,新規,0,2023-03-29,2023-03-29,Ｈｙｄｒｏ　Ｅｎｅｒｇｙ山田川Ａ合同会社,,合同会社,石川県,金沢市,御影町１０番７号,,17,201,9218021,,,,,,,2023-03-29,1,,,,,ハイドロエナジーヤマダガワエー,0
1595,7280003001713,新規,0,2023-03-29,2023-03-29,合同会社ポンデルーチェ,,合同会社,島根県,松江市,東出雲町揖屋２４５０－１９,,32,201,6990101,,,,,,,2023-03-29,1,,,,,,0
1600,7290001100978,新規,0,2023-03-29,2023-03-29,ＬＥＡＰ　ＭＡＲＫ株式会社,,株式会社,福岡県,筑紫野市,大字若江２１３番地１（区画整理４０－１７）,,40,217,8180023,,,,,,,2023-03-29,1,,,,,リープマーク,0
1607,7290801029401,新規,0,2023-03-29,2023-03-29,株式会社Ｎ‐ａｄｖａｎｃｅ,,株式会社,福岡県,北九州市八幡西区,上上津役５丁目１０番２号,,40,109,8070072,,,,,,,2023-03-29,1,,,,,エヌアドバンス,0
1616,7320003004050,新規,0,2023-03-29,2023-03-29,合同会社７ｚｅｒｏ　ＦＡＲＭ,,合同会社,大分県,大分市,大字木田１１７６番地の１,,44,201,8700311,,,,,,,2023-03-29,1,,,,,ナナゼロファーム,0
1619,7350003004329,新規,0,2023-03-29,2023-03-29,合同会社Ｆ．Ｅ．Ｂ,,合同会社,宮崎県,宮崎市,橘通西３丁目１０番４０号中めがねタワービル６Ｆ,,45,201,8800001,,,,,,,2023-03-29,1,,,,,エフイービー,0
1624,7370001049753,新規,0,2023-03-29,2023-03-29,株式会社ａｏｄａｍｏ,,株式会社,宮城県,名取市,愛の杜１丁目１４番地の６,,04,207,9811230,,,,,,,2023-03-29,1,,,,,アオダモ,0
1632,7420005007842,新規,0,2023-03-29,2023-03-29,一般社団法人新都,,その他の設立登記法人,青森県,八戸市,大字尻内町字三条目３番地１,,02,203,0391101,,,,,,,2023-03-29,1,,,,,シント,0
1634,7430001088712,新規,0,2023-03-29,2023-03-29,株式会社瀬戸商店,,株式会社,北海道,札幌市白石区,北郷２３８０番地２０,,01,104,0030849,,,,,,,2023-03-29,1,,,,,セトショウテン,0
1635,7430003014872,新規,0,2023-03-29,2023-03-29,ＩＲＩＳ合同会社,,合同会社,北海道,岩見沢市,北五条西１１丁目４番１５号１０２号,,01,210,0680045,,,,,,,2023-03-29,1,,,,,アイリス,0
1636,7450001013932,新規,0,2023-03-29,2023-03-29,株式会社エイテックス,,株式会社,北海道,旭川市,忠和一条２丁目６番１号,,01,204,0708041,,,,,,,2023-03-29,1,,,,,エイテックス,0
1639,7470003002378,新規,0,2023-03-29,2023-03-29,白井運送店合同会社,,合同会社,香川県,高松市,太田上町８５７番地県住３－１０１,,37,201,7618074,,,,,,,2023-03-29,1,,,,,シライウンソウテン,0
1640,7480001012048,新規,0,2023-03-29,2023-03-29,株式会社Ｒｏｓｅｅｈｉｌ,,株式会社,徳島県,徳島市,山城町東浜傍示５１番地９,,36,201,7708055,,,,,,,2023-03-29,1,,,,,ロゼヒル,0
1641,7700150114729,新規,0,2023-03-29,2023-03-10,劇団これから,,その他,愛知県,名古屋市中村区,猪之越町２丁目６－１０,,23,105,4530038,,,,,,,2023-03-10,1,,,,,ゲキダンコレカラ,0
1642,7700150115058,新規,0,2023-03-29,2023-03-29,ｓｈｅｎｚｈｅｎｓｈｉ　ｍｏｗｅｎｋｅｊｉ　ｙｏｕｘｉａｎｇｏｎｇｓｉ,,外国会社等,,,,,,,,Ｇｕａｎｇｐｅｉｓｈｅｑｕ，Ｇａｏｅｒｆｕｓａｉｗｅｉｎａ　Ｃ　Ｈａｏ　Ｅ８０３，Ｓｈｅｎｚｈｅｎｓｈｉ，Ｌｏｎｇｈｕａｑｕ　Ｇｕａｎｌａｎｊｉｅｄａｏ，Ｇｕａｎｇｄｏｎｇ　Ｓｈｅｎｇ，Ｃｈｉｎａ,,,,,,2023-03-29,1,,,,,シンセンシモウェンケジユウゲンコウシ,0
1654,8010003040175,新規,0,2023-03-29,2023-03-29,合同会社さがみ産業医事務所,,合同会社,東京都,文京区,小石川１丁目５番１－２４０４号,,13,105,1120002,,,,,,,2023-03-29,1,,,,,サガミサンギョウイジムショ,0
1662,8010401173378,新規,0,2023-03-29,2023-03-29,ガーデン・イン・ザ・ハウス株式会社,,株式会社,東京都,港区,芝４丁目３番５号３Ｆ,,13,103,1080014,,,,,,,2023-03-29,1,,,,,ガーデンインザハウス,0
1667,8010503006931,新規,0,2023-03-29,2023-03-29,合同会社ダキニ,,合同会社,東京都,台東区,根岸１丁目１番３０号,,13,106,1100003,,,,,,,2023-03-29,1,,,,,ダキニ,0
1676,8010703006640,新規,0,2023-03-29,2023-03-29,合同会社Ａｖｅｒａｇｅ‐Ｏｎｅ,,合同会社,東京都,品川区,西五反田２丁目１４番１３号リバーサイドニックハイム五反田２階,,13,109,1410031,,,,,,,2023-03-29,1,,,,,アベレージワン,0
1680,8010901052783,新規,0,2023-03-29,2023-03-29,株式会社ＦＩＮＤ,,株式会社,東京都,世田谷区,等々力４丁目１０番６号,,13,112,1580082,,,,,,,2023-03-29,1,,,,,ファインド,0
1694,8011101102305,新規,0,2023-03-29,2023-03-29,バイブズコンサルティング株式会社,,株式会社,東京都,新宿区,西新宿３丁目３番１３号,,13,104,1600023,,,,,,,2023-03-29,1,,,,,バイブズコンサルティング,0
1695,8011101102313,新規,0,2023-03-29,2023-03-29,株式会社小林氷業,,株式会社,東京都,新宿区,百人町２丁目２６番９号,,13,104,1690073,,,,,,,2023-03-29,1,,,,,コバヤシコオリギョウ,0
1696,8011101102321,新規,0,2023-03-29,2023-03-29,株式会社ミセゴト,,株式会社,東京都,新宿区,西新宿８丁目４番７号,,13,104,1600023,,,,,,,2023-03-29,1,,,,,ミセゴト,0
1697,8011103012873,新規,0,2023-03-29,2023-03-29,合同会社プログレス,,合同会社,東京都,新宿区,新宿５丁目１８番２０号ルックハイツ新宿８０３号,,13,104,1600022,,,,,,,2023-03-29,1,,,,,プログレス,0
1699,8011503005535,新規,0,2023-03-29,2023-03-29,合同会社サトラ,,合同会社,東京都,北区,赤羽西４丁目５番５号グランエッグス赤羽２０４号,,13,117,1150055,,,,,,,2023-03-29,1,,,,,サトラ,0
1703,8011803005573,新規,0,2023-03-29,2023-03-29,合同会社輝虎,,合同会社,東京都,葛飾区,西水元１丁目２２―３,,13,122,1250031,,,,,,,2023-03-29,1,,,,,キラト,0
1707,8012403005906,新規,0,2023-03-29,2023-03-29,ことばこ合同会社,,合同会社,東京都,調布市,調布ケ丘２丁目２５番地１,,13,208,1820021,,,,,,,2023-03-29,1,,,,,コトバコ,0
1719,8020001150826,新規,0,2023-03-29,2023-03-29,株式会社遥陽,,株式会社,神奈川県,横浜市都筑区,川和町２１６６番地３,,14,118,2240057,,,,,,,2023-03-29,1,,,,,ハルヒ,0
1720,8020001150834,新規,0,2023-03-29,2023-03-29,株式会社ＣＥＬＡＶＩＥ,,株式会社,神奈川県,川崎市宮前区,鷺沼３丁目１番地３５鷺沼ブルーネ３０１,,14,136,2160004,,,,,,,2023-03-29,1,,,,,セラヴィ,0
1721,8020001150850,新規,0,2023-03-29,2023-03-29,株式会社ムラサキ,,株式会社,神奈川県,横浜市中区,福富町仲通３番地４石橋ビル５０１号室,,14,104,2310043,,,,,,,2023-03-29,1,,,,,ムラサキ,0
1722,8020001150859,新規,0,2023-03-29,2023-03-29,株式会社Ｍ２,,株式会社,神奈川県,横浜市青葉区,あかね台１丁目２１番地９,,14,117,2270066,,,,,,,2023-03-29,1,,,,,エムツー,0
1726,8020003023534,新規,0,2023-03-29,2023-03-29,Ｇｌａｎｚ合同会社,,合同会社,神奈川県,川崎市多摩区,中野島５丁目４番２７号ロイヤルグレース２０３,,14,135,2140012,,,,,,,2023-03-29,1,,,,,グランツ,0
1727,8020003023591,新規,0,2023-03-29,2023-03-29,合同会社オセアニア出版社,,合同会社,神奈川県,横浜市港南区,丸山台２丁目４１番３６号,,14,111,2330013,,,,,,,2023-03-29,1,,,,,オセアニアシュッパンシャ,0
1728,8020003023600,新規,0,2023-03-29,2023-03-29,合同会社Ｓａｎ,,合同会社,神奈川県,横浜市港北区,下田町６丁目３番２号第二吉原ハイツ１０１号室,,14,109,2230064,,,,,,,2023-03-29,1,,,,,サン,0
1729,8020003023609,新規,0,2023-03-29,2023-03-29,合同会社ルナエージェンシー,,合同会社,神奈川県,横浜市神奈川区,羽沢町１７９８番地１雅ハイツ１７９８－２０２号,,14,102,2210863,,,,,,,2023-03-29,1,,,,,ルナエージェンシー,0
1734,8021003012923,新規,0,2023-03-29,2023-03-29,合同会社ＳＲトレーディング,,合同会社,神奈川県,伊勢原市,沼目４丁目３６番３７号ー２０１号室,,14,214,2591126,,,,,,,2023-03-29,1,,,,,エスアールトレーディング,0
1742,8030001153051,新規,0,2023-03-29,2023-03-29,株式会社Ａドリーム,,株式会社,埼玉県,草加市,氷川町８４５番地ミヨシハウス２０８号,,11,221,3400034,,,,,,,2023-03-29,1,,,,,エードリーム,0
1743,8030001153068,新規,0,2023-03-29,2023-03-29,株式会社ＪＳラボ,,株式会社,埼玉県,さいたま市大宮区,上小町１３０３番地６,,11,103,3300855,,,,,,,2023-03-29,1,,,,,ジェイエスラボ,0
1745,8030003021272,新規,0,2023-03-29,2023-03-29,ＳＳＳ２０２３合同会社,,合同会社,埼玉県,さいたま市大宮区,三橋２丁目２９９番地２,,11,103,3300856,,,,,,,2023-03-29,1,,,,,トリプルエス,0
1746,8030003021438,新規,0,2023-03-29,2023-03-29,合同会社ＳＴＡＲＲＹ,,合同会社,埼玉県,志木市,幸町１丁目７番４３号,,11,228,3530005,,,,,,,2023-03-29,1,,,,,スタリー,0
1750,8040001127673,新規,0,2023-03-29,2023-03-29,株式会社言葉と経営研究所,,株式会社,千葉県,市川市,堀之内４丁目１７番１８号スターコート堀之内３０６号室,,12,203,2720837,,,,,,,2023-03-29,1,,,,,コトバトケイエイケンキュウジョ,0
1751,8040001127681,新規,0,2023-03-29,2023-03-29,株式会社ＴＥＲＲＡＳ,,株式会社,千葉県,習志野市,谷津５丁目１６番１１号,,12,216,2750026,,,,,,,2023-03-29,1,,,,,テラス,0
1752,8040003022278,新規,0,2023-03-29,2023-03-29,Ｌｉｎｋ　Ｔｒｅｅ合同会社,,合同会社,千葉県,柏市,北柏３丁目２０番地７ヌーベルバーグ北柏１０５号,,12,217,2770832,,,,,,,2023-03-29,1,,,,,リンクツリー,0
1755,8060003004480,新規,0,2023-03-29,2023-03-29,合同会社ニイガタランカエコリサイクル,,合同会社,栃木県,芳賀郡茂木町,大字茂木６０３,,09,343,3213531,,,,,,,2023-03-29,1,,,,,ニイガタランカエコリサイクル,0
1757,8070001040254,新規,0,2023-03-29,2023-03-29,株式会社ＰＡＲＩＶＡＲＴ,,株式会社,群馬県,吾妻郡草津町,大字草津６２６番３号中沢ヴィレッジヴィラＶ１１２５号室,00129901,10,426,3771711,,,,,,,2023-03-29,1,,,,,パリバート,0
1759,8080001025535,新規,0,2023-03-29,2023-03-29,株式会社ＡＫＦ,,株式会社,静岡県,静岡市清水区,有東坂１番地の１,,22,103,4240873,,,,,,,2023-03-29,1,,,,,エーケーエフ,0
1771,8100002010896,新規,0,2023-03-29,2023-03-29,有限会社ジュエリーワイアール,,有限会社,長野県,佐久市,北川５３０番地３,,20,217,3840304,,,,,,,2023-03-29,1,,,,,ジュエリーワイアール,0
1774,8100003006943,新規,0,2023-03-29,2023-03-29,フィレール合同会社,,合同会社,長野県,佐久市,根岸４３０６番地６,,20,217,3850062,,,,,,,2023-03-29,1,,,,,フィレール,0
1785,8120001253544,新規,0,2023-03-29,2023-03-29,ＱＸ株式会社,,株式会社,大阪府,大阪市東成区,中本５丁目２３番８－１２０２号,,27,115,5370022,,,,,,,2023-03-29,1,,,,,キューエックス,0
1786,8120001253552,新規,0,2023-03-29,2023-03-29,株式会社ココステート,,株式会社,大阪府,大阪市西区,本田２丁目１番２－６０３号,,27,106,5500022,,,,,,,2023-03-29,1,,,,,ココステート,0
1787,8120001253577,新規,0,2023-03-29,2023-03-29,株式会社ｏｌｆｅ,,株式会社,大阪府,大阪市城東区,諏訪３丁目１番２０－３０２号,,27,118,5360021,,,,,,,2023-03-29,1,,,,,オルフェ,0
1790,8120003023714,新規,0,2023-03-29,2023-03-29,合同会社メデパ,,合同会社,大阪府,大阪市西成区,萩之茶屋３丁目６－２２－４０２,,27,122,5570004,,,,,,,2023-03-29,1,,,,,メデパ,0
1791,8120003023730,新規,0,2023-03-29,2023-03-29,合同会社オフィスＹ．Ｙ,,合同会社,大阪府,大阪市北区,梅田１丁目２番２号大阪駅前第２ビル１２－１２,,27,127,5300001,,,,,,,2023-03-29,1,,,,,オフィスワイワイ,0
1792,8120005023530,新規,0,2023-03-29,2023-03-29,一般社団法人国際ラーメン学会,,その他の設立登記法人,大阪府,大阪市城東区,野江２丁目１３番１９号２Ｆ,,27,118,5360006,,,,,,,2023-03-29,1,,,,,コクサイラーメンガッカイ,0
1797,8120901047310,新規,0,2023-03-29,2023-03-29,株式会社Ｃ‐ｓｔｙｌｅ,,株式会社,大阪府,高槻市,如是町２８番１－１１５号,,27,207,5690827,,,,,,,2023-03-29,1,,,,,シースタイル,0
1800,8130001073941,新規,0,2023-03-29,2023-03-29,采納株式会社,,株式会社,京都府,京都市南区,上鳥羽南唐戸町７番地６０２号室,,26,107,6018107,,,,,,,2023-03-29,1,,,,,サイノウ,0
1803,8140001061945,新規,0,2023-03-29,2023-03-29,望月工業株式会社,,株式会社,兵庫県,姫路市,大津区吉美７７６番地,,28,201,6711133,,,,,,,2023-03-29,1,,,,,モチヅキコウギョウ,0
1806,8140001129544,新規,0,2023-03-29,2023-03-29,株式会社Ｋｅ‐ＮＥＸ,,株式会社,兵庫県,尼崎市,武庫之荘東１丁目３番４－２０１号,,28,202,6610032,,,,,,,2023-03-29,1,,,,,キーネクス,0
1807,8140001129569,新規,0,2023-03-29,2023-03-29,株式会社Ｒ・Ａ,,株式会社,兵庫県,神戸市中央区,磯上通８丁目１番２９号カサベラＣ＆Ｍビル４０３号,,28,110,6510086,,,,,,,2023-03-29,1,,,,,アールエイ,0
1808,8140001129577,新規,0,2023-03-29,2023-03-29,株式会社ＳＨＩＮＫ　ＪＡＰＡＮ,,株式会社,兵庫県,尼崎市,杭瀬北新町３丁目４番１９－４０６号,,28,202,6600815,,,,,,,2023-03-29,1,,,,,シンクジャパン,0
1811,8140003018885,新規,0,2023-03-29,2023-03-29,Ｇａｍｅｙａ合同会社,,合同会社,兵庫県,神戸市中央区,港島中町３丁目１番地４９号棟１０６号室,,28,110,6500046,,,,,,,2023-03-29,1,,,,,ガメヤ,0
1824,8220003003482,新規,0,2023-03-29,2023-03-29,Ｈｙｄｒｏ　Ｅｎｅｒｇｙ山田川Ｂ合同会社,,合同会社,石川県,金沢市,御影町１０番７号,,17,201,9218021,,,,,,,2023-03-29,1,,,,,ハイドロエナジーヤマダガワビー,0
1825,8240001061266,新規,0,2023-03-29,2023-03-29,株式会社広島プラットホーム,,株式会社,広島県,安芸郡海田町,日の出町３番６号,,34,304,7360035,,,,,,,2023-03-29,1,,,,,ヒロシマプラットホーム,0
1826,8240005015549,新規,0,2023-03-29,2023-03-29,一般社団法人ハウオリスポーツクラブ,,その他の設立登記法人,広島県,尾道市,神田町１番１５号,,34,205,7220016,,,,,,,2023-03-29,1,,,,,ハウオリスポーツクラブ,0
1832,8260001037776,新規,0,2023-03-29,2023-03-29,まえじまセキュアベース株式会社,,株式会社,岡山県,瀬戸内市,牛窓町牛窓６２９５番９３,,33,212,7014302,,,,,,,2023-03-29,1,,,,,マエジマセキュアベース,0
1838,8290003013707,新規,0,2023-03-29,2023-03-29,アンシェル合同会社,,合同会社,福岡県,福岡市博多区,博多駅前４丁目３３番７号,,40,132,8120011,,,,,,,2023-03-29,1,,,,,アンシェル,0
1839,8320001019652,新規,0,2023-03-29,2023-03-29,株式会社ＥＭＩＮＡＳ,,株式会社,大分県,大分市,西新地２丁目６番１号ダイヤモンドオフィス西新地１０３号室,,44,201,8700901,,,,,,,2023-03-29,1,,,,,エミナス,0
1842,8330003009774,新規,0,2023-03-29,2023-03-29,合同会社マモル,,合同会社,熊本県,熊本市中央区,帯山３丁目５２番１３号,,43,101,8620924,,,,,,,2023-03-29,1,,,,,マモル,0
1843,8360001031752,新規,0,2023-03-29,2023-03-29,ゴー・ストレート株式会社,,株式会社,沖縄県,那覇市,松山２丁目１０番１３号,,47,201,9000032,,,,,,,2023-03-29,1,,,,,ゴーストレート,0
1852,8430001088736,新規,0,2023-03-29,2023-03-29,株式会社北海道一暮,,株式会社,北海道,札幌市手稲区,稲穂一条６丁目２０番５号,,01,109,0060031,,,,,,,2023-03-29,1,,,,,ホッカイドウイチクラ,0
1855,8430003014871,新規,0,2023-03-29,2023-03-29,合同会社ニュートラルオフィス,,合同会社,北海道,札幌市中央区,北四条西４丁目１－７ＭＭＳ札幌駅前ビル１階,,01,101,0600004,,,,,,,2023-03-29,1,,,,,ニュートラルオフィス,0
1857,8480001012047,新規,0,2023-03-29,2023-03-29,株式会社Ｕｍ　ｍｉｒａｉシステム,,株式会社,徳島県,徳島市,川内町加賀須野６５８番地１６,,36,201,7710130,,,,,,,2023-03-29,1,,,,,ウムミライシステム,0
1861,8500003003000,新規,0,2023-03-29,2023-03-29,合同会社絆の里,,合同会社,愛媛県,上浮穴郡久万高原町,東川８１番地１,,38,386,7911512,,,,,,,2023-03-29,1,,,,,キズナノサト,0
1862,8700150115049,新規,0,2023-03-29,2023-03-29,デリーゴ・ホンコン・リミテッド,,外国会社等,,,,,,,,Ｌｅｖｅｌ　１８，Ｆｕｇｒｏ　Ｈｏｕｓｅ－ＫＣＣ２，Ｎｏ１　Ｋｗａｉ　Ｏｎ　Ｒｏａｄ，Ｋｗａｉ　Ｃｈｕｎｇ　ＫＬＮ　Ｈｏｎｇ　Ｋｏｎｇ，ＳＡＲ,,,,,,2023-03-29,1,,,,,デリーゴホンコンリミテツド,0
1863,8700150115057,新規,0,2023-03-29,2023-03-29,Ｓｈｅｎｚｈｅｎ　ｙｉ　ｂａｉ　ｃｈｕａｎｇ　ｆｅｉ　ｋｅ　ｊｉ　ｙｏｕ　ｘｉａｎ　ｇｏｎｇ　ｓｉ,,外国会社等,,,,,,,,２１－８０３，Ｂｕｉｌｄｉｎｇ　２１，Ｂｕｉｌｄｉｎｇ　２２，Ｐｈａｓｅ　Ｉ，Ｃｕｉｌｉｎｇ　Ｇａｒｄｅｎ，Ｚｈｏｎｇｊｕｎ　Ｌａｎｗａｎ，Ｔｏｎｇｘｉｎ　Ｃｏｍｍｕｎｉｔｙ，Ｂａｏｌｏｎｇ　Ｓｔｒｅｅｔ，Ｌｏｎｇｇａｎｇ　Ｄｉｓｔｒｉｃｔ，Ｓｈｅｎｚｈｅｎ　Ｃｉｔｙ，Ｇｕａｎｇｄｏｎｇ　Ｐｒｏｖｉｎｃｅ，Ｃｈｉｎａ,,,,,,2023-03-29,1,,,,,シンセンイバイチャンフェイケジユウゲンコウシ,0
1871,9010001234050,新規,0,2023-03-29,2023-03-29,えふぴーらぽーる株式会社,,株式会社,東京都,文京区,大塚２丁目８番５号,,13,105,1120012,,,,,,,2023-03-29,1,,,,,エフピーラポール,0
1886,9010401173187,新規,0,2023-03-29,2023-03-29,ＴＡＮＡＭＩ株式会社,,株式会社,東京都,港区,高輪３丁目４－４ＴｈｅＶｅｒｌｕｘＴａｋａｎａｗａ２０２,,13,103,1080074,,,,,,,2023-03-29,1,,,,,タナミ,0
1887,9010401173336,新規,0,2023-03-29,2023-03-29,株式会社ＨＥＲＯ,,株式会社,東京都,港区,西麻布３丁目２４番２２号,,13,103,1060031,,,,,,,2023-03-29,1,,,,,ヒーロー,0
1889,9010403029817,新規,0,2023-03-29,2023-03-29,ＡＥＪ秩父ソーラー合同会社,,合同会社,東京都,港区,新橋５丁目２３番７号三栄ビル４階エーアンドシー総合事務所内,,13,103,1050004,,,,,,,2023-03-29,1,,,,,エーイージェーチチブソーラー,0
1891,9010503006930,新規,0,2023-03-29,2023-03-29,ＢＸＳ合同会社,,合同会社,東京都,台東区,上野６丁目７－１６川久保ビル４１９号室,,13,106,1100005,,,,,,,2023-03-29,1,,,,,ビーエックスエス,0
1893,9010601062834,新規,0,2023-03-29,2023-03-29,株式会社新洋社,,株式会社,東京都,江東区,南砂２丁目２７番４－１００４号,,13,108,1360076,,,,,,,2023-03-29,1,,,,,シンヨウシャ,0
1909,9011001153414,新規,0,2023-03-29,2023-03-29,株式会社Ｋａｒｃｈｉ建築設計事務所,,株式会社,東京都,渋谷区,富ヶ谷２丁目３６－５－１００号室,,13,113,1510063,,,,,,,2023-03-29,1,,,,,カーキケンチクセッケイジムショ,0
1915,9011101102304,新規,0,2023-03-29,2023-03-29,羲和生命医療株式会社,,株式会社,東京都,新宿区,西早稲田１丁目１１番８号ヴィラ早稲田２０３ｂ,,13,104,1690051,,,,,,,2023-03-29,1,,,,,ギワセイメイイリョウ,0
1916,9011101102329,新規,0,2023-03-29,2023-03-29,株式会社ＢＷＰ,,株式会社,東京都,新宿区,歌舞伎町２丁目２２番１号アイストビル１階,,13,104,1600021,,,,,,,2023-03-29,1,,,,,ビーダブリューピー,0
1917,9011103012872,新規,0,2023-03-29,2023-03-29,田野合同会社,,合同会社,東京都,新宿区,高田馬場２丁目１４番６号スワンビル４０１号室,,13,104,1690075,,,,,,,2023-03-29,1,,,,,タノ,0
1922,9011505002546,新規,0,2023-03-29,2023-03-29,一般社団法人日本教育支援連盟,,その他の設立登記法人,東京都,北区,中里２丁目６番９号地ビル３０２号,,13,117,1140015,,,,,,,2023-03-29,1,,,,,ニホンキョウイクシエンレンメイ,0
1926,9012401040326,新規,0,2023-03-29,2023-03-29,株式会社ＦＵＫＵ,,株式会社,東京都,武蔵野市,吉祥寺南町１丁目３２番２８号,,13,203,1800003,,,,,,,2023-03-29,1,,,,,フク,0
1929,9013301050514,新規,0,2023-03-29,2023-03-29,株式会社アドバース,,株式会社,東京都,豊島区,池袋２丁目１４番５号,,13,116,1710014,,,,,,,2023-03-29,1,,,,,アドバース,0
1934,9020001150841,新規,0,2023-03-29,2023-03-29,プレシャスプランニング株式会社,,株式会社,神奈川県,横浜市中区,桜木町１丁目１０１番地１クロスゲート７階,,14,104,2310062,,,,,,,2023-03-29,1,,,,,プレシャスプランニング,0
1941,9020003023599,新規,0,2023-03-29,2023-03-29,合同会社グローバルデータマネジメント,,合同会社,神奈川県,横浜市港北区,新横浜３丁目７番地７,,14,109,2220033,,,,,,,2023-03-29,1,,,,,グローバルデータマネジメント,0
1942,9020003023608,新規,0,2023-03-29,2023-03-29,アビーズ合同会社,,合同会社,神奈川県,川崎市麻生区,細山６丁目５番４号,,14,137,2150001,,,,,,,2023-03-29,1,,,,,アビーズ,0
1944,9020005015867,新規,0,2023-03-29,2023-03-29,特定非営利活動法人Ｈｏｌｙ　Ａｒｃｈｉｔｅｃｔ,,その他の設立登記法人,神奈川県,横浜市中区,扇町２丁目５番地１４Ｙ＿ｓトレゾワ関内６Ｆ,00129887,14,104,2310027,,,,,,,2023-03-29,1,,,,,ホーリーアーキテクト,0
1948,9021001078536,新規,0,2023-03-29,2023-03-29,株式会社フォース・オーシャン,,株式会社,神奈川県,横須賀市,西逸見町１丁目３８番地１１天空の街１８０２,,14,201,2380046,,,,,,,2023-03-29,1,,,,,フォースオーシャン,0
1949,9021001078544,新規,0,2023-03-29,2023-03-29,８２１株式会社,,株式会社,神奈川県,小田原市,栄町２丁目１２番１５－２０１号剱持ビル,,14,206,2500011,,,,,,,2023-03-29,1,,,,,ハチニィイチ,0
1950,9021001078560,新規,0,2023-03-29,2023-03-29,株式会社ＥＬＵＡ,,株式会社,神奈川県,大和市,下鶴間１０番地５－１０２号室,,14,213,2420001,,,,,,,2023-03-29,1,,,,,エルア,0
1956,9021003012914,新規,0,2023-03-29,2023-03-29,ＢＥＥ　ＡＳＳＩＳＴ合同会社,,合同会社,神奈川県,藤沢市,本町２丁目３番１０号,,14,205,2510053,,,,,,,2023-03-29,1,,,,,ビーアシスト,0
1962,9030001153050,新規,0,2023-03-29,2023-03-29,株式会社藤原金属,,株式会社,埼玉県,さいたま市岩槻区,本町４丁目３－２－３０５,,11,110,3390057,,,,,,,2023-03-29,1,,,,,フジワラキンゾク,0
1964,9030003021437,新規,0,2023-03-29,2023-03-29,合同会社Ｌｏｃｋ,,合同会社,埼玉県,入間市,春日町２丁目１３番３１号２Ａ２０２,,11,225,3580006,,,,,,,2023-03-29,1,,,,,ロック,0
1965,9030003021453,新規,0,2023-03-29,2023-03-29,ＺＡＷＡ合同会社,,合同会社,埼玉県,越谷市,七左町７丁目３１９番地９,,11,222,3430851,,,,,,,2023-03-29,1,,,,,ザワ,0
1966,9030005021179,新規,0,2023-03-29,2023-03-29,一般社団法人日本メンタルヘルス政策機構,,その他の設立登記法人,埼玉県,狭山市,つつじ野２番１５－５０４号,,11,215,3501326,,,,,,,2023-03-29,1,,,,,ニホンメンタルヘルスセイサクキコウ,0
1970,9040003022252,新規,0,2023-03-29,2023-03-29,合同会社７ａ６１,,合同会社,千葉県,富里市,七栄３２３,,12,233,2860221,,,,,,,2023-03-29,1,,,,,ナナエロクイチ,0
1971,9040003022269,新規,0,2023-03-29,2023-03-29,ＩＮＵＫＩ　ＪＬ　ＩＮＴＥＲＮＡＴＩＯＮＡＬ合同会社,,合同会社,千葉県,香取郡神崎町,小松７２３番地,,12,342,2890223,,,,,,,2023-03-29,1,,,,,イヌキジェーエルインターナショナル,0
1975,9070001040253,新規,0,2023-03-29,2023-03-29,株式会社ａｎｃｈｏｒ,,株式会社,群馬県,前橋市,千代田町２丁目７－１０,,10,201,3710022,,,,,,,2023-03-29,1,,,,,アンカー,0
1979,9090001018041,新規,0,2023-03-29,2023-03-29,株式会社Ｆｕｊｉ　Ｂａｓｅ,,株式会社,山梨県,南都留郡富士河口湖町,船津７６４６番地５,,19,430,4010301,,,,,,,2023-03-29,1,,,,,フジベイス,0
1989,9120001253527,新規,0,2023-03-29,2023-03-29,株式会社ｓｕｎｈｏｕｓｅ,,株式会社,大阪府,大阪市中央区,島之内１丁目１３番１９号４０１,,27,128,5420082,,,,,,,2023-03-29,1,,,,,サンハウス,0
1990,9120001253535,新規,0,2023-03-29,2023-03-29,株式会社セレクトスタイル,,株式会社,大阪府,大阪市中央区,南船場４丁目４番１０号,,27,128,5420081,,,,,,,2023-03-29,1,,,,,セレクトスタイル,0
1991,9120001253576,新規,0,2023-03-29,2023-03-29,株式会社Ｍ’ｓ建総,,株式会社,大阪府,大阪市東淀川区,井高野４丁目３－６２,,27,114,5330001,,,,,,,2023-03-29,1,,,,,エムズケンソウ,0
1993,9120003023721,新規,0,2023-03-29,2023-03-29,アイナオリ合同会社,,合同会社,大阪府,大阪市住之江区,南港東１丁目６番１－９２５号,,27,125,5590031,,,,,,,2023-03-29,1,,,,,アイナオリ,0
1997,9120903004556,新規,0,2023-03-29,2023-03-29,コウ・ホールディングス合同会社,,合同会社,大阪府,池田市,緑丘２丁目４番６５号,,27,204,5630026,,,,,,,2023-03-29,1,,,,,コウホールディングス,0
1998,9120903004564,新規,0,2023-03-29,2023-03-29,合同会社ＳＡＫＥＸ,,合同会社,大阪府,吹田市,豊津町一丁目１８番エクラート江坂ビル３階,,27,205,5640051,,,,,,,2023-03-29,1,,,,,サケックス,0
1999,9122001036837,新規,0,2023-03-29,2023-03-29,株式会社ＭＩＲＡＩＪＵ,,株式会社,大阪府,四條畷市,雁屋西町４番３号,,27,229,5750045,,,,,,,2023-03-29,1,,,,,ミライジュ,0
2007,9140001129568,新規,0,2023-03-29,2023-03-29,株式会社晟虹,,株式会社,兵庫県,神戸市中央区,元町通５丁目２－３甲南サンシティ元町３１３,,28,110,6500022,,,,,,,2023-03-29,1,,,,,セイコウ,0
2011,9180002083488,新規,0,2023-03-29,2023-03-29,有限会社シンセイワールド,,有限会社,愛知県,半田市,港町３丁目１番地の１,,23,205,4750823,,,,,,,2023-03-29,1,,,,,シンセイワールド,0
2012,9180003025027,新規,0,2023-03-29,2023-03-29,ＺＥＳＴＲＯ　ＢＩＺＬＩＮＫＳ合同会社,,合同会社,愛知県,名古屋市中区,錦１丁目１７番１３号名興ビルディング２階Ａ３５,,23,106,4600003,,,,,,,2023-03-29,1,,,,,ゼストロビズリンクス,0
2021,9220003003481,新規,0,2023-03-29,2023-03-29,Ｈｙｄｒｏ　Ｅｎｅｒｇｙ高山合同会社,,合同会社,石川県,金沢市,御影町１０番７号,,17,201,9218021,,,,,,,2023-03-29,1,,,,,ハイドロエナジータカヤマ,0
2028,9240005015548,新規,0,2023-03-29,2023-03-29,医療法人三桜会,,その他の設立登記法人,広島県,三次市,南畑敷町５０６番地１１,,34,209,7280017,,,,,,,2023-03-29,1,,,,,サンオウカイ,0
2035,9290003013648,新規,0,2023-03-29,2023-03-29,ＣＫ　ｐｒｏｔｅｃｔ合同会社,,合同会社,福岡県,福岡市博多区,博多駅南６丁目８－３０－３２１,,40,132,8120016,,,,,,,2023-03-29,1,,,,,シーケープロテクト,0
2036,9290003013714,新規,0,2023-03-29,2023-03-29,合同会社１ｓｔ　Ｃｌａｓｓ,,合同会社,福岡県,福岡市中央区,平尾４丁目２番６－３０２号グランドメゾン平尾プレイス,,40,133,8100014,,,,,,,2023-03-29,1,,,,,ファーストクラス,0
2039,9290801029399,新規,0,2023-03-29,2023-03-29,株式会社ＰＬＡＹ　ＡＺＵＲＥ,,株式会社,福岡県,北九州市八幡西区,上上津役６丁目１１番１号,,40,109,8070072,,,,,,,2023-03-29,1,,,,,プレイアジュール,0
2041,9320001019651,新規,0,2023-03-29,2023-03-29,株式会社グランクレール,,株式会社,大分県,大分市,田室町３番１０号大和電業社第３ビル２０１,,44,201,8700816,,,,,,,2023-03-29,1,,,,,グランクレール,0
2045,9350001018254,新規,0,2023-03-29,2023-03-29,株式会社温泉屋,,株式会社,宮崎県,宮崎市,桜ケ丘町２５番１１号,,45,201,8800955,,,,,,,2023-03-29,1,,,,,オンセンヤ,0
2050,9370001049768,新規,0,2023-03-29,2023-03-29,株式会社高岩工務店,00129889,株式会社,宮城県,仙台市泉区,住吉台西３丁目１５番地の４,,04,105,9813223,,,,,,,2023-03-29,1,,,,,タカイワコウムテン,0
2071,9430003014870,新規,0,2023-03-29,2023-03-29,合同会社Ｐｒｕｎｕｓ,,合同会社,北海道,札幌市北区,北二十二条西６丁目２番３－２０３号,,01,102,0010022,,,,,,,2023-03-29,1,,,,,プルーヌス,0
2074,9450001013930,新規,0,2023-03-29,2023-03-29,デイリード株式会社,,株式会社,北海道,旭川市,忠和五条６丁目３－２３,,01,204,0708045,,,,,,,2023-03-29,1,,,,,デイリード,0
2080,9490003001756,新規,0,2023-03-29,2023-03-29,合同会社山一林業,,合同会社,高知県,安芸市,本町５丁目１６番１６号,,39,203,7840004,,,,,,,2023-03-29,1,,,,,ヤマイチリンギョウ,0
2081,9500001024831,新規,0,2023-03-29,2023-03-29,株式会社Ｗｈｉｔｅ　Ｌａｂｅｌ　Ｗｏｒｋｓ,,株式会社,愛媛県,松山市,朝生田町７丁目２番２４号－２Ｆ,,38,201,7900952,,,,,,,2023-03-29,1,,,,,ホワイトレーベルワークス,0
2084,9700150115048,新規,0,2023-03-29,2023-03-29,ＨＡＮＷＨＡ　ＳＯＬＵＴＩＯＮＳ　ＣＯＲＰＯＲＡＴＩＯＮ,,外国会社等,,,,,,,,＃８６，Ｃｈｅｏｎｇｇｙｅｃｈｅｏｎ－ｒｏ　Ｊｕｎｇ－ｇｕ，Ｓｅｏｕｌ，Ｒｅｐｕｂｌｉｃ　ｏｆ　Ｋｏｒｅａ,,,,,,2023-03-29,1,,,,,ハンフアソリユウシヨンコーポレーシヨン,0
2085,9700150115056,新規,0,2023-03-29,2023-03-29,Ｗｕｈａｎ　Ｙｉｘｕａｎ　Ｂｕｉｌｄｉｎｇ　Ｍａｔｅｒｉａｌ　Ｔｒａｄｉｎｇ　Ｃｏ．，Ｌｔｄ．,,外国会社等,,,,,,,,Ｗｕｈａｎ　Ｕｎｉｖｅｒｓｉｔｙ　ｏｆ　Ｔｅｃｈ　Ｐｉｏｎｅｅｒ　Ｐａｒｋ，Ｎｏ．１４７，Ｌｕｏｓｈｉ　Ｒｏａｄ　Ｒｏｏｍ　３１７－６２，３ｒｄ　Ｆｌｏｏｒ，Ｈｏｎｇｓｈａｎ　Ｄｉｓｔ，Ｗｕｈａｎ，Ｈｕｂｅｉ，ＣＮ,,,,,,2023-03-29,1,,,,,ウハンイシュアンビルディングマテリアルトレーディングカンパニーリミテッド,0
