sequenceNumber,corporateNumber,process,correct,updateDate,changeDate,name,nameImageId,kind,prefectureName,cityName,streetNumber,addressImageId,prefectureCode,cityCode,postCode,addressOutside,addressOutsideImageId,closeDate,closeCause,successorCorporateNumber,changeCause,assignmentDate,latest,enName,enPrefectureName,enCityName,enAddressOutside,furigana,hihyoji
1,1010001222723,新規,0,2021-11-25,2021-11-25,株式会社Ｎａｏｍｉ　Ｓｔｙｌｅ　ＱＯＬ,,株式会社,東京都,中央区,銀座１丁目２２番１１号銀座大竹ビジデンス２階,,13,102,1040061,,,,,,,2021-11-25,1,,,,,ナオミスタイルキューオーエル,0
2,1010001222756,新規,0,2021-11-25,2021-11-25,株式会社ＡＣ　Ｌａｂｏｒａｔｏｒｙ,,株式会社,東京都,中央区,銀座１丁目１２番４号Ｎ＆ＥＢＬＤ．７階,,13,102,1040061,,,,,,,2021-11-25,1,,,,,エーシーラボラトリー,0
3,1010001222847,新規,0,2021-11-25,2021-11-25,株式会社イノシア,,株式会社,東京都,千代田区,大手町１丁目２番１号,,13,101,1000004,,,,,,,2021-11-25,1,,,,,イノシア,0
25,1010601060283,新規,0,2021-11-25,2021-11-25,株式会社Ｅｎａｂｌｅ　Ｅａｒｔｈ,,株式会社,東京都,江東区,東砂８丁目１８番２２号,,13,108,1360074,,,,,,,2021-11-25,1,,,,,エネイブルアース,0
26,1010601060291,新規,0,2021-11-25,2021-11-25,株式会社エムワイ,,株式会社,東京都,墨田区,両国４丁目３０番１６号ストーク両国６０４号室,,13,107,1300026,,,,,,,2021-11-25,1,,,,,エムワイ,0
27,1010603009270,新規,0,2021-11-25,2021-11-25,高氏合同会社,,合同会社,東京都,江東区,亀戸３丁目５３番１０号,,13,108,1360071,,,,,,,2021-11-25,1,,,,,コウシ,0
28,1010701041836,新規,0,2021-11-25,2021-11-25,ゴルモバ株式会社,,株式会社,東京都,品川区,西五反田３丁目１３番６号,,13,109,1410031,,,,,,,2021-11-25,1,,,,,ゴルモバ,0
32,1010801032504,新規,0,2021-11-25,2021-11-25,株式会社オネスト,,株式会社,東京都,大田区,上池台５丁目７番１２号ＮＭマンション３００,,13,111,1450064,,,,,,,2021-11-25,1,,,,,オネスト,0
36,1010803003965,新規,0,2021-11-25,2021-11-25,合同会社Ｍｏｂｉｌｒｉｓ,,合同会社,東京都,大田区,大森北３丁目４１番９号,,13,111,1430016,,,,,,,2021-11-25,1,,,,,モビリス,0
44,1011001144098,新規,0,2021-11-25,2021-11-25,株式会社ビニファイ,,株式会社,東京都,渋谷区,神宮前６丁目２３番４号桑野ビル２階,,13,113,1500001,,,,,,,2021-11-25,1,,,,,ビニファイ,0
45,1011001144107,新規,0,2021-11-25,2021-11-25,ＣｏｌｏｕｒＬｏｔｕｓ株式会社,,株式会社,東京都,目黒区,駒場４丁目２－１５パンセ駒場５０３号室,,13,110,1530041,,,,,,,2021-11-25,1,,,,,カラーロータス,0
46,1011001144115,新規,0,2021-11-25,2021-11-25,ＮＲ株式会社,,株式会社,東京都,目黒区,中根１丁目１２番２５－３０２号－プレスティージュ都立大学,,13,110,1520031,,,,,,,2021-11-25,1,,,,,エヌアール,0
47,1011001144206,新規,0,2021-11-25,2021-11-25,株式会社ＣＯ－ＣＲ３ＡＴＩＯＮ,,株式会社,東京都,渋谷区,松濤１丁目２８番２号ＷＯＲＫＣＯＵＲＴ渋谷松濤,,13,113,1500046,,,,,,,2021-11-25,1,,,,,コクリエイション,0
55,1011101097031,新規,0,2021-11-25,2021-11-25,エクウスジャパン株式会社,,株式会社,東京都,新宿区,西新宿３丁目７番１号,,13,104,1600023,,,,,,,2021-11-25,1,,,,,エクウスジャパン,0
61,1011501027505,新規,0,2021-11-25,2021-11-25,東祥産業株式会社,,株式会社,東京都,北区,豊島３丁目９番１６号,,13,117,1140003,,,,,,,2021-11-25,1,,,,,トウショウサンギョウ,0
62,1011501027513,新規,0,2021-11-25,2021-11-25,株式会社アーチコンサルティング,,株式会社,東京都,北区,上十条３丁目８番１０号,,13,117,1140034,,,,,,,2021-11-25,1,,,,,アーチコンサルティング,0
65,1011701024863,新規,0,2021-11-25,2021-11-25,株式会社ＭＡＤＥ　ＢＹ　ＳＯＩＬ,,株式会社,東京都,江戸川区,南葛西５丁目５番１８号,,13,123,1340085,,,,,,,2021-11-25,1,,,,,メイドバイソイル,0
68,1011803004870,新規,0,2021-11-25,2021-11-25,プーン合同会社,,合同会社,東京都,足立区,西綾瀬４丁目１番１７号,,13,121,1200014,,,,,,,2021-11-25,1,,,,,プーン,0
83,1021001074559,新規,0,2021-11-25,2021-11-25,ビルドワークス株式会社,,株式会社,神奈川県,相模原市緑区,下九沢１９５１番地６,,14,151,2520134,,,,,,,2021-11-25,1,,,,,ビルドワークス,0
84,1021001074575,新規,0,2021-11-25,2021-11-25,株式会社こうめ動物病院,,株式会社,神奈川県,三浦郡葉山町,木古庭１６８７番地の５,,14,301,2400114,,,,,,,2021-11-25,1,,,,,コウメドウブツビョウイン,0
85,1021001074591,新規,0,2021-11-25,2021-11-25,株式会社Ｄｏｏｒｓ,,株式会社,神奈川県,藤沢市,村岡東３丁目２９番地２シャンテ２０２,,14,205,2510012,,,,,,,2021-11-25,1,,,,,ドアーズ,0
88,1030001145501,新規,0,2021-11-25,2021-11-25,豊田引越サプライズ株式会社,,株式会社,埼玉県,戸田市,笹目５丁目１番地の１７ー２０３号室,,11,224,3350034,,,,,,,2021-11-25,1,,,,,トヨダヒッコシサプライズ,0
104,1040005021441,新規,0,2021-11-25,2021-11-25,特定非営利活動法人みらいファーム,,その他の設立登記法人,千葉県,旭市,鎌数１０８０番地１２,,12,215,2892505,,,,,,,2021-11-25,1,,,,,ミライファーム,0
107,1060001034313,新規,0,2021-11-25,2021-11-25,株式会社エコロジー・ヴェール,,株式会社,栃木県,日光市,猪倉１９７０番地１,,09,206,3212344,,,,,,,2021-11-25,1,,,,,エコロジーヴェール,0
109,1070001038676,新規,0,2021-11-25,2021-11-25,Ｔｙｈ株式会社,,株式会社,群馬県,みどり市,大間々町桐原２２０番地３,,10,212,3760102,,,,,,,2021-11-25,1,,,,,ティーワイエイチ,0
112,1080003002687,新規,0,2021-11-25,2021-11-25,合同会社不二パン港店,,合同会社,静岡県,焼津市,中港５丁目１０番１５号,,22,212,4250021,,,,,,,2021-11-25,1,,,,,フジパンミナトテン,0
115,1080103002463,新規,0,2021-11-25,2021-11-25,合同会社まあるい発電,,合同会社,静岡県,富士宮市,大岩１８６２番地の３,,22,207,4180013,,,,,,,2021-11-25,1,,,,,マアルイハツデン,0
134,1120001242009,新規,0,2021-11-25,2021-11-25,株式会社ディーフォー,,株式会社,大阪府,大阪市淀川区,三国本町３丁目１９番１５号ライゼホビー０８号,,27,123,5320005,,,,,,,2021-11-25,1,,,,,ディーフォー,0
135,1120001242090,新規,0,2021-11-25,2021-11-25,Ｍａｉｓｏｎ　Ｒｉｃｈｅｓ株式会社,,株式会社,大阪府,大阪市北区,天満４丁目６番２１号,,27,127,5300043,,,,,,,2021-11-25,1,,,,,メゾンリッシュ,0
136,1120003020651,新規,0,2021-11-25,2021-11-25,合同会社アネスミクス,,合同会社,大阪府,大阪市北区,中津１丁目６番２９－１００３号,,27,127,5310071,,,,,,,2021-11-25,1,,,,,アネスミクス,0
141,1120101064699,新規,0,2021-11-25,2021-11-25,株式会社矢野建築設計事務所,,株式会社,大阪府,堺市西区,浜寺昭和町２丁１８９番地５,,27,144,5928345,,,,,,,2021-11-25,1,,,,,ヤノケンチクセッケイジムショ,0
149,1120901045196,新規,0,2021-11-25,2021-11-25,ＵＮｅＸ株式会社,,株式会社,大阪府,吹田市,山田北９番２－１４号,,27,205,5650825,,,,,,,2021-11-25,1,,,,,ユーネックス,0
151,1122001035383,新規,0,2021-11-25,2021-11-25,株式会社サンショット,,株式会社,大阪府,八尾市,北本町２丁目５番１２号,,27,212,5810802,,,,,,,2021-11-25,1,,,,,サンショット,0
155,1130003007598,新規,0,2021-11-25,2021-11-25,合同会社エフ,,合同会社,京都府,綾部市,大島町畠田５番地の１,,26,203,6230046,,,,,,,2021-11-25,1,,,,,エフ,0
156,1130005016325,新規,0,2021-11-25,2021-11-25,社会福祉法人伏見別院伏見幼児園,,その他の設立登記法人,京都府,京都市伏見区,大阪町６０９番地,,26,109,6128048,,,,,,,2021-11-25,1,,,,,フシミベツインフシミヨウジエン,0
165,1140001123933,新規,0,2021-11-25,2021-11-25,フードコネクツホールディングス株式会社,,株式会社,兵庫県,神戸市中央区,上筒井通４丁目３番７号,,28,110,6510061,,,,,,,2021-11-25,1,,,,,フードコネクツホールディングス,0
166,1140003016929,新規,0,2021-11-25,2021-11-25,合同会社ｅｙｅｔｉｍｅ,,合同会社,兵庫県,神戸市中央区,中山手通３丁目２－２トア山手プラザウイング棟１０１－４階,,28,110,6500004,,,,,,,2021-11-25,1,,,,,,0
176,1180001148844,新規,0,2021-11-25,2021-11-25,株式会社楽商商事,,株式会社,愛知県,稲沢市,今村町沼７番地１,,23,220,4928453,,,,,,,2021-11-25,1,,,,,ラクショウショウジ,0
179,1180003023228,新規,0,2021-11-25,2021-11-25,ＡＴ　Ｇｒｏｕｐ合同会社,,合同会社,愛知県,名古屋市千種区,内山３丁目２５番６号ＩＫＫＯ千種ターミナルビルＢ１,,23,101,4640075,,,,,,,2021-11-25,1,,,,,エーティーグループ,0
194,1200001039454,新規,0,2021-11-25,2021-11-25,株式会社リーフウィンドウ,,株式会社,岐阜県,岐阜市,岩崎２丁目５番２４号,,21,201,5020005,,,,,,,2021-11-25,1,,,,,リーフウィンドウ,0
204,1240001058970,新規,0,2021-11-25,2021-11-25,株式会社田晋,,株式会社,広島県,広島市中区,中町１番１７号,,34,101,7300037,,,,,,,2021-11-25,1,,,,,デンシン,0
220,1290001095464,新規,0,2021-11-25,2021-11-25,株式会社金山,,株式会社,福岡県,福岡市中央区,渡辺通５丁目７番２２号ビジネスワン天神５０８,,40,133,8100004,,,,,,,2021-11-25,1,,,,,カネヤマ,0
221,1290001095514,新規,0,2021-11-25,2021-11-25,株式会社福飯,,株式会社,福岡県,福岡市西区,愛宕４丁目２番４５－８１５号コアマンションマリナヒルズ室見,,40,135,8190015,,,,,,,2021-11-25,1,,,,,フクメシ,0
222,1290001095522,新規,0,2021-11-25,2021-11-25,株式会社アール,,株式会社,福岡県,福岡市南区,皿山３丁目７番４号,,40,134,8111365,,,,,,,2021-11-25,1,,,,,アール,0
223,1290001095530,新規,0,2021-11-25,2021-11-25,株式会社リノベストホーム,,株式会社,福岡県,福岡市南区,平和１丁目２６－４９,,40,134,8150071,,,,,,,2021-11-25,1,,,,,リノベストホーム,0
225,1290003011865,新規,0,2021-11-25,2021-11-25,合同会社ＳＡＲＡ　ＬＩＶＩＮＧ,,合同会社,福岡県,福岡市南区,塩原３丁目１－３３－２０４,,40,134,8150032,,,,,,,2021-11-25,1,,,,,サラリビング,0
232,1320001018751,新規,0,2021-11-25,2021-11-25,株式会社ＡＬＬ　ＴＨＡＴ　ＩＳ,,株式会社,大分県,大分市,都町３丁目４番１６号１・２・３都町ビル３０２号室,,44,201,8700034,,,,,,,2021-11-25,1,,,,,オールザットイズ,0
237,1360001029621,新規,0,2021-11-25,2021-11-25,株式会社Ｍ　Ｓｔｙｌｅ,,株式会社,沖縄県,那覇市,繁多川２丁目１４番２９号プランドールレキオ２０１,,47,201,9020071,,,,,,,2021-11-25,1,,,,,エムスタイル,0
242,1370003005487,新規,0,2021-11-25,2021-11-25,合同会社樹木伐採高橋,,合同会社,宮城県,刈田郡蔵王町,大字曲竹字河原前１番地２７,,04,301,9890851,,,,,,,2021-11-25,1,,,,,ジュモクバッサイタカハシ,0
245,1400001015682,新規,0,2021-11-25,2021-11-25,株式会社Ｏｎｅｓ,,株式会社,岩手県,盛岡市,上堂１丁目１９番８５号,,03,201,0200125,,,,,,,2021-11-25,1,,,,,ワンズ,0
257,1430003013392,新規,0,2021-11-25,2021-11-25,合同会社ＴＲＡＣＥ,,合同会社,北海道,江別市,野幌町６１番地１８第３高関ビル５階,,01,217,0690813,,,,,,,2021-11-25,1,,,,,トレイス,0
262,1500001023832,新規,0,2021-11-25,2021-11-25,株式会社ファインディア,,株式会社,愛媛県,松山市,北土居５丁目９番１１号,,38,201,7911104,,,,,,,2021-11-25,1,,,,,ファインディア,0
277,2010001222714,新規,0,2021-11-25,2021-11-25,株式会社フィールドオン,,株式会社,東京都,中央区,日本橋中洲１１－１１日本橋アムフラット６０１号,,13,102,1030008,,,,,,,2021-11-25,1,,,,,フィールドオン,0
278,2010001222747,新規,0,2021-11-25,2021-11-25,株式会社百年優品,,株式会社,東京都,中央区,湊３丁目１２番６－８０３号,,13,102,1040043,,,,,,,2021-11-25,1,,,,,ヒャクネンユウヒン,0
279,2010003036360,新規,0,2021-11-25,2021-11-25,ＳＳアセットマネジメント合同会社,,合同会社,東京都,中央区,銀座１丁目１２番４号Ｎ＆Ｅ・ＢＬＤ．７階,,13,102,1040061,,,,,,,2021-11-25,1,,,,,エスエスアセットマネジメント,0
280,2010003036369,新規,0,2021-11-25,2021-11-25,上野２丁目２号合同会社,,合同会社,東京都,中央区,築地３丁目１番１号築地ＦＡビル６階,,13,102,1040045,,,,,,,2021-11-25,1,,,,,ウエノニチョウメニゴウ,0
289,2010401164011,新規,0,2021-11-25,2021-11-25,三田ウーリー株式会社,,株式会社,東京都,港区,浜松町２丁目２番１５号浜松町ダイヤビル２階,,13,103,1050013,,,,,,,2021-11-25,1,,,,,ミタウーリー,0
295,2010405020441,新規,0,2021-11-25,2021-11-25,一般社団法人Ａｒｔｂａｓｅ,,その他の設立登記法人,東京都,港区,南麻布３丁目１１番１２－Ｗ４０１号,,13,103,1060047,,,,,,,2021-11-25,1,,,,,アートベース,0
303,2010601060282,新規,0,2021-11-25,2021-11-25,ＵＳＳ株式会社,,株式会社,東京都,江東区,東陽５丁目２７番１０号岩波ビル２０２号室,,13,108,1350016,,,,,,,2021-11-25,1,,,,,ユーエスエス,0
304,2010701041835,新規,0,2021-11-25,2021-11-25,株式会社ＧＯＬＤＥＸ,,株式会社,東京都,品川区,西五反田３丁目１３番６号,,13,109,1410031,,,,,,,2021-11-25,1,,,,,ゴルデックス,0
326,2011001144080,新規,0,2021-11-25,2021-11-25,株式会社リテルナ,,株式会社,東京都,渋谷区,神宮前６丁目２３番４号桑野ビル２階,,13,113,1500001,,,,,,,2021-11-25,1,,,,,リテルナ,0
327,2011001144089,新規,0,2021-11-25,2021-11-25,株式会社ｅｔｅｒｃｅｒｉｅ,,株式会社,東京都,渋谷区,代々木２丁目１１－５－７０３号,,13,113,1510053,,,,,,,2021-11-25,1,,,,,エタセリエ,0
328,2011001144106,新規,0,2021-11-25,2021-11-25,株式会社ｕｎｓｈｉｆｔ,,株式会社,東京都,渋谷区,千駄ヶ谷３丁目３－８第五スカイビル４０７,,13,113,1510051,,,,,,,2021-11-25,1,,,,,アンシフト,0
340,2011501027487,新規,0,2021-11-25,2021-11-25,バックアップライフ株式会社,,株式会社,東京都,北区,豊島３丁目７番７号,,13,117,1140003,,,,,,,2021-11-25,1,,,,,バックアップライフ,0
345,2011801040000,新規,0,2021-11-25,2021-11-25,ショウキチ株式会社,,株式会社,東京都,足立区,竹の塚５丁目３６番１８－２０１号,,13,121,1210813,,,,,,,2021-11-25,1,,,,,ショウキチ,0
352,2012401038541,新規,0,2021-11-25,2021-11-25,株式会社ＴＨＳ,,株式会社,東京都,多摩市,南野２丁目９番地の１７－２０４号,,13,224,2060032,,,,,,,2021-11-25,1,,,,,ティーエイチエス,0
353,2012401038566,新規,0,2021-11-25,2021-11-25,株式会社Ｔ．Ｓ．ＰＲＯ,,株式会社,東京都,多摩市,南野２丁目９番地の１７－２０４号,,13,224,2060032,,,,,,,2021-11-25,1,,,,,ティーエスプロ,0
362,2020001144032,新規,0,2021-11-25,2021-11-25,株式会社秋建興業,,株式会社,神奈川県,横浜市瀬谷区,阿久和東３丁目１番地４９,,14,114,2460023,,,,,,,2021-11-25,1,,,,,シュウケンコウギョウ,0
363,2020001144073,新規,0,2021-11-25,2021-11-25,株式会社折田興業,,株式会社,神奈川県,川崎市川崎区,鋼管通２丁目１５番１１－１号,,14,131,2100852,,,,,,,2021-11-25,1,,,,,オリタコウギョウ,0
367,2020003020875,新規,0,2021-11-25,2021-11-25,合同会社ＳＬＫ,,合同会社,神奈川県,横浜市旭区,若葉台４丁目２９番１００４号,,14,112,2410801,,,,,,,2021-11-25,1,,,,,エスエルケイ,0
373,2021001074582,新規,0,2021-11-25,2021-11-25,株式会社ＭＨプラス,,株式会社,神奈川県,相模原市南区,上鶴間５丁目６番４－２０４号,,14,153,2520302,,,,,,,2021-11-25,1,,,,,エムエイチプラス,0
377,2021003011096,新規,0,2021-11-25,2021-11-25,合同会社じん,,合同会社,神奈川県,相模原市南区,南台４丁目１１番２号,,14,153,2520314,,,,,,,2021-11-25,1,,,,,ジン,0
383,2030001145467,新規,0,2021-11-25,2021-11-25,株式会社関東エンジニアリング,,株式会社,埼玉県,蓮田市,大字根金１２５７,,11,238,3490131,,,,,,,2021-11-25,1,,,,,カントウエンジニアリング,0
384,2030001145483,新規,0,2021-11-25,2021-11-25,ＳＡＩＭＥＩ貿易株式会社,,株式会社,埼玉県,川口市,並木３丁目３１番１号メゾンドエスポワール２０３号室,,11,203,3320034,,,,,,,2021-11-25,1,,,,,サイメイボウエキ,0
391,2040001121095,新規,0,2021-11-25,2021-11-25,株式会社リトル・バンコク,,株式会社,千葉県,船橋市,習志野台５丁目４番１７号,,12,204,2740063,,,,,,,2021-11-25,1,,,,,リトルバンコク,0
399,2050001050186,新規,0,2021-11-25,2021-11-25,株式会社小泉製作所県北工場,,株式会社,茨城県,常陸太田市,大中町１９８１,,08,212,3110505,,,,,,,2021-11-25,1,,,,,コイズミセイサクショケンポクコウジョウ,0
401,2050005012975,新規,0,2021-11-25,2021-11-25,農事組合法人青葉,,その他の設立登記法人,茨城県,行方市,井貝６００番地４,,08,233,3113803,,,,,,,2021-11-25,1,,,,,,0
408,2060001034320,新規,0,2021-11-25,2021-11-25,株式会社Ｒｅａｌｉｓｅ,,株式会社,栃木県,宇都宮市,鶴田町２６６５番地２エルサティＩ－１０１号室,,09,201,3200851,,,,,,,2021-11-25,1,,,,,リアライズ,0
414,2070001038683,新規,0,2021-11-25,2021-11-25,株式会社フロー,,株式会社,群馬県,前橋市,南町４丁目２１番地３,,10,201,3710805,,,,,,,2021-11-25,1,,,,,フロー,0
415,2070003004304,新規,0,2021-11-25,2021-11-25,ＯＲＴ合同会社,,合同会社,群馬県,吾妻郡嬬恋村,大字鎌原７１０番地１７４エイトオフィス嬬恋,,10,425,3771524,,,,,,,2021-11-25,1,,,,,オルト,0
419,2080401025487,新規,0,2021-11-25,2021-11-25,株式会社かけがわ有機の郷,,株式会社,静岡県,掛川市,初馬２４１２番地の１,,22,213,4360081,,,,,,,2021-11-25,1,,,,,カケガワユウキノサト,0
434,2120001242065,新規,0,2021-11-25,2021-11-25,株式会社エーキャリア,,株式会社,大阪府,大阪市中央区,島之内１丁目２２番２３号堺筋山忠ビル９０１,,27,128,5420082,,,,,,,2021-11-25,1,,,,,エーキャリア,0
435,2120001242073,新規,0,2021-11-25,2021-11-25,阪信株式会社,,株式会社,大阪府,大阪市生野区,巽北１丁目２１－１９生野ハイツ,00124959,27,116,5440004,,,,,,,2021-11-25,1,,,,,ハンシン,0
438,2120003020650,新規,0,2021-11-25,2021-11-25,合同会社堂島コンサルティング,,合同会社,大阪府,大阪市北区,中津１丁目６番２９－１００３号,,27,127,5310071,,,,,,,2021-11-25,1,,,,,ドウジマコンサルティング,0
439,2120003020659,新規,0,2021-11-25,2021-11-25,サインカスタム合同会社,,合同会社,大阪府,大阪市北区,梅田１丁目２番２号大阪駅前第２ビル２階５－６号室,,27,127,5300001,,,,,,,2021-11-25,1,,,,,サインカスタム,0
451,2122003002224,新規,0,2021-11-25,2021-11-25,ＫＴ．合同会社,,合同会社,大阪府,東大阪市,上四条町２２番２０号,,27,227,5798052,,,,,,,2021-11-25,1,,,,,ケイティー,0
454,2130001070580,新規,0,2021-11-25,2021-11-25,ＪＩＮ京都株式会社,,株式会社,京都府,京都市上京区,寺之内通千本一丁東入下る姥ケ寺之前町９０２番地,,26,102,6020000,,,,,,,2021-11-25,1,,,,,ジンキョウト,0
455,2130001070606,新規,0,2021-11-25,2021-11-25,株式会社メル・ラポール,,株式会社,京都府,京都市下京区,四条通室町東入函谷鉾町８５番地１－４Ｆ,,26,106,6008009,,,,,,,2021-11-25,1,,,,,メルラポール,0
463,2140001123908,新規,0,2021-11-25,2021-11-25,株式会社ＤｉＦＡＴＥ,,株式会社,兵庫県,神戸市須磨区,大田町１丁目３番２０号,,28,107,6540024,,,,,,,2021-11-25,1,,,,,ディフェイト,0
464,2140001123973,新規,0,2021-11-25,2021-11-25,株式会社久遠,,株式会社,兵庫県,神戸市中央区,元町通７丁目２－４藤井ビル４Ｆ,,28,110,6500022,,,,,,,2021-11-25,1,,,,,クオン,0
468,2140003017026,新規,0,2021-11-25,2021-11-25,合同会社千年住宅,,合同会社,兵庫県,明石市,本町２丁目３番２６－９０４号,,28,203,6730892,,,,,,,2021-11-25,1,,,,,センネンジュウタク,0
472,2160001023833,新規,0,2021-11-25,2021-11-25,株式会社スマイルエンジニア,,株式会社,滋賀県,愛知郡愛荘町,平居８７７番地１,,25,425,5291322,,,,,,,2021-11-25,1,,,,,スマイルエンジニア,0
480,2180001148851,新規,0,2021-11-25,2021-11-25,将建株式会社,,株式会社,愛知県,名古屋市中川区,戸田西１丁目１４０３番地の２エレガンス１０１号,,23,110,4540967,,,,,,,2021-11-25,1,,,,,ショウケン,0
481,2180001148868,新規,0,2021-11-25,2021-11-25,ＥＶＥＢＯＴ　ＪＡＰＡＮ株式会社,,株式会社,愛知県,名古屋市中村区,名駅３丁目１２番５号竹生ビル別館２階,,23,105,4500002,,,,,,,2021-11-25,1,,,,,イヴボットジャパン,0
482,2180001148876,新規,0,2021-11-25,2021-11-25,株式会社ＡＣＴ,,株式会社,愛知県,海部郡大治町,大字西條字北屋敷１８９番地,,23,424,4901144,,,,,,,2021-11-25,1,,,,,アクト,0
483,2180003023227,新規,0,2021-11-25,2021-11-25,ＡＯＴ合同会社,,合同会社,愛知県,一宮市,牛野通４丁目１５番地,,23,203,4910846,,,,,,,2021-11-25,1,,,,,エイオーティー,0
484,2180005019520,新規,0,2021-11-25,2021-11-25,一般社団法人ロイヤルアカデミー,,その他の設立登記法人,愛知県,名古屋市名東区,八前３丁目１１１番地,,23,115,4650018,,,,,,,2021-11-25,1,,,,,ロイヤルアカデミー,0
490,2180301035659,新規,0,2021-11-25,2021-11-25,株式会社ＺＥＲＯ,,株式会社,愛知県,豊橋市,西小鷹野４丁目８番地１７,,23,201,4400013,,,,,,,2021-11-25,1,,,,,ゼロ,0
498,2190003003830,新規,0,2021-11-25,2021-11-25,合同会社ヒロチメソツド,,合同会社,三重県,桑名市,大山田２丁目１２番地１２,,24,205,5110903,,,,,,,2021-11-25,1,,,,,ヒロチメソツド,0
510,2240001058978,新規,0,2021-11-25,2021-11-25,トパーズ株式会社,,株式会社,広島県,廿日市市,桜尾１丁目３番５号,,34,213,7380004,,,,,,,2021-11-25,1,,,,,トパーズ,0
512,2250005008706,新規,0,2021-11-25,2021-11-25,一般財団法人濱本四十吉援護の会,,その他の設立登記法人,山口県,岩国市,岩国１丁目１５番４号,,35,208,7410062,,,,,,,2021-11-25,1,,,,,ハマモトヨソキチエンゴノカイ,0
515,2260001036239,新規,0,2021-11-25,2021-11-25,株式会社ａｎｉｆｕｌｌ,,株式会社,岡山県,岡山市南区,古新田１１１７－１,,33,104,7010203,,,,,,,2021-11-25,1,,,,,アニフル,0
524,2290001095471,新規,0,2021-11-25,2021-11-25,株式会社ソレユケ,,株式会社,福岡県,久留米市,西町３８６－１,,40,203,8300038,,,,,,,2021-11-25,1,,,,,ソレユケ,0
530,2290803003994,新規,0,2021-11-25,2021-11-25,合同会社想幸社,,合同会社,福岡県,北九州市八幡西区,幸神１丁目２番１－２０５号,,40,109,8060055,,,,,,,2021-11-25,1,,,,,ソウコウシャ,0
539,2360001029645,新規,0,2021-11-25,2021-11-25,アイトラ株式会社,,株式会社,沖縄県,中頭郡北中城村,字渡口１８６５番地２Ｆ,,47,327,9012302,,,,,,,2021-11-25,1,,,,,アイトラ,0
550,2430001085441,新規,0,2021-11-25,2021-11-25,株式会社旭山サポート,,株式会社,北海道,札幌市中央区,南九条西５丁目４２１番地,,01,101,0640809,,,,,,,2021-11-25,1,,,,,アサヒヤマサポート,0
552,2430003013391,新規,0,2021-11-25,2021-11-25,合同会社フェアフィールド,,合同会社,北海道,札幌市白石区,平和通１３丁目南４番１６号,,01,104,0030028,,,,,,,2021-11-25,1,,,,,フェアフィールド,0
556,2470001018851,新規,0,2021-11-25,2021-11-25,株式会社みたらい,,株式会社,香川県,高松市,牟礼町大町６６８番地６２,,37,201,7610122,,,,,,,2021-11-25,1,,,,,ミタライ,0
557,2490001010039,新規,0,2021-11-25,2021-11-25,株式会社ｌｕｃＫｓ,,株式会社,高知県,高知市,北本町３丁目８番２８号１階南,,39,201,7800056,,,,,,,2021-11-25,1,,,,,ラックス,0
559,2700150105666,新規,0,2021-11-25,2021-11-09,とよなか雇用創造協議会,,その他,大阪府,豊中市,北桜塚２丁目２－１豊中市立生活情報センターくらしかん,,27,203,5600022,,,,,,,2021-11-09,1,,,,,トヨナカコヨウソウゾウキヨウギカイ,0
560,2700150105815,新規,0,2021-11-25,2021-11-16,埼玉県立川越工業高等学校　定時制父母と教師の会,,その他,埼玉県,川越市,西小仙波町２丁目２８－１,,11,201,3500035,,,,,,,2021-11-16,1,,,,,サイタマケンリツカワゴエコウギヨウコウトウガツコウテイジセイフボトキヨウシノカイ,0
561,2700150105963,新規,0,2021-11-25,2021-11-25,ＢＭＣ　Ｈｏｌｄｉｎｇｓ　Ｐｒｉｖａｔｅ　Ｌｉｍｉｔｅｄ,,外国会社等,千葉県,山武市,森１４９９番地２,,12,237,2891214,スリランカ民主社会主義共和国、東部州、アンパラ区、アッダライチェナイ５、ＢＭＣコンプレックス、６,,,,,,2021-11-25,1,,,,,ビーエムシーホールデイングスプライベートリミテツド,0
569,3010001222556,新規,0,2021-11-25,2021-11-25,株式会社丸八碁盤店,,株式会社,東京都,文京区,本駒込５丁目７２番１２号,,13,105,1130021,,,,,,,2021-11-25,1,,,,,マルハチゴバンテン,0
570,3010001222754,新規,0,2021-11-25,2021-11-25,株式会社虹遊舎,,株式会社,東京都,中央区,日本橋室町４丁目３番９号,,13,102,1030022,,,,,,,2021-11-25,1,,,,,ゴウユウシャ,0
571,3010003036376,新規,0,2021-11-25,2021-11-25,合同会社シリウス,,合同会社,東京都,中央区,銀座１丁目２２－１１銀座大竹ビジデンス２Ｆ,,13,102,1040061,,,,,,,2021-11-25,1,,,,,シリウス,0
588,3010403026514,新規,0,2021-11-25,2021-11-25,ヌムトズ合同会社,,合同会社,東京都,港区,六本木４丁目１－２－７０５,,13,103,1060032,,,,,,,2021-11-25,1,,,,,ヌムトズ,0
598,3010603009269,新規,0,2021-11-25,2021-11-25,合同会社開晴,,合同会社,東京都,江東区,塩浜２丁目５番１２－６０７号,,13,108,1350043,,,,,,,2021-11-25,1,,,,,カイセイ,0
607,3010901049867,新規,0,2021-11-25,2021-11-25,株式会社Ｂ．Ｄ．Ｍ,,株式会社,東京都,世田谷区,祖師谷６丁目２３番地２０号,,13,112,1570072,,,,,,,2021-11-25,1,,,,,ビーディーエム,0
614,3011001144088,新規,0,2021-11-25,2021-11-25,株式会社アルコ＆ＦＯＯＤ,,株式会社,東京都,目黒区,目黒１丁目６番１３号１階,,13,110,1530063,,,,,,,2021-11-25,1,,,,,アルコアンドフード,0
615,3011001144096,新規,0,2021-11-25,2021-11-25,ＭＨ　Ｐｈａｒｍａｃｙ株式会社,,株式会社,東京都,渋谷区,桜丘町２３番１７号シティコート桜丘４０８,,13,113,1500031,,,,,,,2021-11-25,1,,,,,エムエイチファーマシー,0
616,3011001144187,新規,0,2021-11-25,2021-11-25,ルメッドアクア株式会社,,株式会社,東京都,目黒区,洗足１丁目９番１６号,,13,110,1520012,,,,,,,2021-11-25,1,,,,,ルメッドアクア,0
622,3011101097005,新規,0,2021-11-25,2021-11-25,株式会社虹,,株式会社,東京都,新宿区,百人町１丁目１２－１杉山荘２０１,,13,104,1690073,,,,,,,2021-11-25,1,,,,,ニジ,0
623,3011101097013,新規,0,2021-11-25,2021-11-25,株式会社Ｄａｉｑｕｉｒｉ,,株式会社,東京都,新宿区,高田馬場１丁目３２番１０号,,13,104,1690075,,,,,,,2021-11-25,1,,,,,ダイキリ,0
625,3011201023439,新規,0,2021-11-25,2021-11-25,俺バル山口株式会社,,株式会社,東京都,中野区,中野５丁目４９番６号３階,,13,114,1640001,,,,,,,2021-11-25,1,,,,,オレバルヤマグチ,0
626,3011203003703,新規,0,2021-11-25,2021-11-25,合同会社ケンズ整理,,合同会社,東京都,中野区,中野２丁目２８番１号プロスペアー中野８０５,,13,114,1640001,,,,,,,2021-11-25,1,,,,,ケンズセイリ,0
634,3011403003511,新規,0,2021-11-25,2021-11-25,結夢企画合同会社,,合同会社,東京都,板橋区,大山町３番５－７０５号,,13,119,1730023,,,,,,,2021-11-25,1,,,,,ユイムキカク,0
646,3012303001621,新規,0,2021-11-25,2021-11-25,ＲＭストラテジー・アンド・コンサルティング合同会社,,合同会社,東京都,町田市,三輪町３１－５４,,13,209,1950054,,,,,,,2021-11-25,1,,,,,アールエムストラテジーアンドコンサルティング,0
656,3013301048316,新規,0,2021-11-25,2021-11-25,ＩＧＯ商会株式会社,,株式会社,東京都,豊島区,雑司が谷２丁目１６番５号,,13,116,1710032,,,,,,,2021-11-25,1,,,,,アイジーオーショウカイ,0
657,3013301048332,新規,0,2021-11-25,2021-11-25,ＣＡＭＡＹＡ株式会社,,株式会社,東京都,豊島区,上池袋１丁目３番７号２階,,13,116,1700012,,,,,,,2021-11-25,1,,,,,カマヤ,0
663,3020003020866,新規,0,2021-11-25,2021-11-25,合同会社Ｏ・Ｎ・Ｅ,,合同会社,神奈川県,横浜市中区,寺久保３番地３,,14,104,2310855,,,,,,,2021-11-25,1,,,,,ワン,0
664,3020003020874,新規,0,2021-11-25,2021-11-25,合同会社みなとみらい船級相談所,,合同会社,神奈川県,横浜市中区,寺久保６４番地１０,,14,104,2310855,,,,,,,2021-11-25,1,,,,,ミナトミライセンキュウソウダンジョ,0
665,3020003020882,新規,0,2021-11-25,2021-11-25,合同会社和,,合同会社,神奈川県,横浜市南区,蒔田町８８３番地アルス蒔田Ｃ号室１階,,14,105,2320043,,,,,,,2021-11-25,1,,,,,ナゴミ,0
672,3030001145474,新規,0,2021-11-25,2021-11-25,ＭＪＫ株式会社,,株式会社,埼玉県,三郷市,鷹野１丁目４６６番地１アバカスハイツ１０２号室,,11,237,3410035,,,,,,,2021-11-25,1,,,,,エムジェイケイ,0
675,3030003018356,新規,0,2021-11-25,2021-11-25,鎌倉美術合同会社,,合同会社,埼玉県,朝霞市,膝折町４丁目８番１号,,11,227,3510014,,,,,,,2021-11-25,1,,,,,カマクラビジュツ,0
690,3040003018982,新規,0,2021-11-25,2021-11-25,合同会社葵巳興業,,合同会社,千葉県,千葉市若葉区,貝塚町３７４番地１１フルール３番館１０２号,,12,104,2640023,,,,,,,2021-11-25,1,,,,,アオイコウギョウ,0
692,3050001050193,新規,0,2021-11-25,2021-11-25,株式会社疋田組,,株式会社,茨城県,ひたちなか市,洞下町９番２７号,,08,221,3111227,,,,,,,2021-11-25,1,,,,,ヒキタグミ,0
699,3070001038674,新規,0,2021-11-25,2021-11-25,株式会社ＦＡＬＡＫ　ＴＲＡＤＩＮＧ,,株式会社,群馬県,前橋市,西片貝町４丁目１番地９グリーンハイツ西片貝Ａ２０３,,10,201,3710013,,,,,,,2021-11-25,1,,,,,ファルクトレーディング,0
700,3070001038682,新規,0,2021-11-25,2021-11-25,ビルドフューチャー株式会社,,株式会社,群馬県,前橋市,総社町３丁目５番地２５－１０２,,10,201,3710853,,,,,,,2021-11-25,1,,,,,ビルドフューチャー,0
704,3080001024599,新規,0,2021-11-25,2021-11-25,株式会社アベ・ピクチャーズ,,株式会社,静岡県,静岡市葵区,御幸町３番地の２１ペガサート６階,,22,101,4200857,,,,,,,2021-11-25,1,,,,,アベピクチャーズ,0
720,3120001242023,新規,0,2021-11-25,2021-11-25,株式会社ＩＴ電機,,株式会社,大阪府,枚方市,香里ケ丘９丁目１５－１・Ｄ６－１０３,,27,210,5730084,,,,,,,2021-11-25,1,,,,,アイティーデンキ,0
721,3120001242106,新規,0,2021-11-25,2021-11-25,株式会社ｄｏｕｂｌｅ,,株式会社,大阪府,寝屋川市,桜木町９番１１号,,27,215,5720041,,,,,,,2021-11-25,1,,,,,ダブル,0
722,3120003020658,新規,0,2021-11-25,2021-11-25,合同会社松洋,,合同会社,大阪府,枚方市,伊加賀栄町１４番１２号,,27,210,5730062,,,,,,,2021-11-25,1,,,,,ショウヨウ,0
723,3120005022628,新規,0,2021-11-25,2021-11-25,一般社団法人グロウアクティビティ,,その他の設立登記法人,大阪府,大阪市天王寺区,東高津町１１番７号,,27,109,5430021,,,,,,,2021-11-25,1,,,,,グロウアクティビティ,0
725,3120101064697,新規,0,2021-11-25,2021-11-25,株式会社ＭｅｄｉＧｏ,,株式会社,大阪府,泉大津市,式内町５番３６号,,27,206,5950035,,,,,,,2021-11-25,1,,,,,メディゴー,0
727,3122001035381,新規,0,2021-11-25,2021-11-25,株式会社グランメルケア,,株式会社,大阪府,東大阪市,鴻池徳庵町８番１３号,,27,227,5780977,,,,,,,2021-11-25,1,,,,,グランメルケア,0
732,3130001070596,新規,0,2021-11-25,2021-11-25,ツナガルプロジェクト株式会社,,株式会社,京都府,京都市左京区,岩倉長谷町６５０番地６８,,26,103,6060026,,,,,,,2021-11-25,1,,,,,ツナガルプロジェクト,0
733,3130001070613,新規,0,2021-11-25,2021-11-25,株式会社ＵＰＧＲＯＷＴＨ,,株式会社,京都府,京都市下京区,梅小路石橋町２０番地,,26,106,6008855,,,,,,,2021-11-25,1,,,,,アップグロース,0
734,3130005016323,新規,0,2021-11-25,2021-11-25,一般社団法人人とペットの健康支援協会,,その他の設立登記法人,京都府,福知山市,字長田２７５９－１スウィートグレジデンスＩ１０１号室,00124954,26,201,6200000,,,,,,,2021-11-25,1,,,,,ヒトトペットノケンコウシエンキョウカイ,0
739,3140001123964,新規,0,2021-11-25,2021-11-25,株式会社エコリングライフ,,株式会社,兵庫県,姫路市,飾磨区恵美酒２１３番地,,28,201,6728057,,,,,,,2021-11-25,1,,,,,エコリングライフ,0
742,3140005025901,新規,0,2021-11-25,2021-11-25,医療法人社団みずほ会,,その他の設立登記法人,兵庫県,尼崎市,南塚口町２丁目１２番１８号塚口若松ビル１Ｆ,,28,202,6610012,,,,,,,2021-11-25,1,,,,,ミズホカイ,0
743,3150001025128,新規,0,2021-11-25,2021-11-25,株式会社立花商会,,株式会社,奈良県,宇陀郡曽爾村,大字山粕３３４番地の２,,29,385,6331216,,,,,,,2021-11-25,1,,,,,タチバナショウカイ,0
745,3160005011016,新規,0,2021-11-25,2021-11-25,熊野企業組合,,その他の設立登記法人,滋賀県,蒲生郡日野町,大字熊野４３１番地,,25,383,5291623,,,,,,,2021-11-25,1,,,,,クマノ,0
746,3170001016876,新規,0,2021-11-25,2021-11-25,株式会社ホームタウンエステート,,株式会社,和歌山県,田辺市,稲成町４７番地の１ＨＴビル,,30,206,6460051,,,,,,,2021-11-25,1,,,,,ホームタウンエステート,0
750,3180001148859,新規,0,2021-11-25,2021-11-25,サンアイホールディングス株式会社,,株式会社,愛知県,春日井市,味美町２丁目１２２番地,,23,206,4860968,,,,,,,2021-11-25,1,,,,,サンアイホールディングス,0
751,3180001148867,新規,0,2021-11-25,2021-11-25,株式会社ｓｅｓｓａｎｔａ,,株式会社,愛知県,名古屋市中区,金山５丁目１８番３０号,,23,106,4600022,,,,,,,2021-11-25,1,,,,,セッサンタ,0
753,3180005019528,新規,0,2021-11-25,2021-11-25,暁星弁護士法人,,その他の設立登記法人,愛知県,名古屋市守山区,中新７番５号,,23,113,4630057,,,,,,,2021-11-25,1,,,,,ギョウセイ,0
759,3190001028878,新規,0,2021-11-25,2021-11-25,株式会社Ｗａｖｅｓ,,株式会社,三重県,南牟婁郡御浜町,大字志原２００５番地２２,,24,561,5195202,,,,,,,2021-11-25,1,,,,,ウェイヴス,0
763,3230003001762,新規,0,2021-11-25,2021-11-25,合同会社ナインサポト,,合同会社,富山県,富山市,経堂３４０番地７,,16,201,9300951,,,,,,,2021-11-25,1,,,,,ナインサポト,0
779,3260001036238,新規,0,2021-11-25,2021-11-25,株式会社てんとう虫ファーム,,株式会社,岡山県,岡山市北区,吉備津２１９８番地,,33,101,7011341,,,,,,,2021-11-25,1,,,,,テントウムシファーム,0
788,3290001095495,新規,0,2021-11-25,2021-11-25,株式会社Ｙ’ｓサービスジャパン,,株式会社,福岡県,筑紫野市,針摺西１丁目３番３９号,,40,217,8180084,,,,,,,2021-11-25,1,,,,,ワイズサービスジャパン,0
789,3290001095529,新規,0,2021-11-25,2021-11-25,福岡住販株式会社,,株式会社,福岡県,糟屋郡志免町,別府北２丁目２番２号,,40,343,8112233,,,,,,,2021-11-25,1,,,,,フクオカジュウハン,0
793,3290003011863,新規,0,2021-11-25,2021-11-25,合同会社Ｐｏｎｏ,,合同会社,福岡県,福岡市東区,箱崎１丁目２６番４１号,,40,131,8120053,,,,,,,2021-11-25,1,,,,,ポノ,0
794,3290003011871,新規,0,2021-11-25,2021-11-25,合同会社ＯＮＥＴＲＥＥ,,合同会社,福岡県,福岡市西区,野方２丁目４３番１０号,,40,135,8190043,,,,,,,2021-11-25,1,,,,,ワンツリー,0
797,3300001012721,新規,0,2021-11-25,2021-11-25,株式会社ｔｅｎ．ｔｅｎ,,株式会社,佐賀県,武雄市,武雄町大字永島１３７９７番地１７,,41,206,8430021,,,,,,,2021-11-25,1,,,,,テンテン,0
809,3330003009143,新規,0,2021-11-25,2021-11-25,合同会社ＤＮＪ,,合同会社,熊本県,熊本市東区,長嶺東４丁目４－９４－Ｂ１０５,,43,102,8618038,,,,,,,2021-11-25,1,,,,,ディーエヌジェイ,0
811,3350001017435,新規,0,2021-11-25,2021-11-25,株式会社ＧＡＲＤＥＮ　ＳＴＹＬＥ　Ｍ＆Ｍ,,株式会社,宮崎県,宮崎市,佐土原町下那珂１０６０９番地１,,45,201,8800212,,,,,,,2021-11-25,1,,,,,カーデンスタイルエムアンドエム,0
846,3490001010038,新規,0,2021-11-25,2021-11-25,株式会社陽翔,,株式会社,高知県,吾川郡いの町,枝川３０２９番地２－２０１,,39,386,7812120,,,,,,,2021-11-25,1,,,,,ヒショウ,0
847,3500001023830,新規,0,2021-11-25,2021-11-25,カーラ・ラボ株式会社,,株式会社,愛媛県,伊予郡砥部町,宮内１４０４番地１Ｓステージビル２Ｆ,,38,402,7912120,,,,,,,2021-11-25,1,,,,,カーララボ,0
848,3500005008431,新規,0,2021-11-25,2021-11-25,医療法人おちいま元気会,,その他の設立登記法人,愛媛県,今治市,鐘場町１丁目２番地９,,38,202,7940004,,,,,,,2021-11-25,1,,,,,オチイマゲンキカイ,0
850,3700150105756,新規,0,2021-11-25,2021-11-12,日本包括歯科臨床学会,,その他,東京都,文京区,関口１丁目４５－１５－１０４,,13,105,1120014,,,,,,,2021-11-12,1,,,,,ニホンホウカツシカリンシヨウガツカイ,0
851,3700150105962,新規,0,2021-11-25,2021-11-25,ＷＥＬＬ　ＭＯＴＯＲＳ　ＰＶＴ　ＬＴＤ,,外国会社等,千葉県,山武郡九十九里町,西野１４０４－１０８－Ｂ,,12,403,2830116,スリランカ民主社会主義共和国、キャンディ、アクラナ、ニーラレ、Ｎｏ．５６１／Ａ１,,,,,,2021-11-25,1,,,,,ウエルモータースプライベートリミテツド,0
858,4010001222737,新規,0,2021-11-25,2021-11-25,ＮＡＮ株式会社,,株式会社,東京都,文京区,後楽２丁目２１番１８号,,13,105,1120004,,,,,,,2021-11-25,1,,,,,ナン,0
859,4010001222786,新規,0,2021-11-25,2021-11-25,ＰＡＹＵａｎｄ株式会社,,株式会社,東京都,千代田区,神田錦町３丁目７番地２東京堂錦町ビル８階８１４号室,,13,101,1010054,,,,,,,2021-11-25,1,,,,,ペイユーアンド,0
861,4010003036334,新規,0,2021-11-25,2021-11-25,合同会社Ｌａｚｕｒ　Ｌｉｎｋ,,合同会社,東京都,中央区,銀座７丁目１３番６号サガミビル２階,,13,102,1040061,,,,,,,2021-11-25,1,,,,,ラズールリンク,0
862,4010003036350,新規,0,2021-11-25,2021-11-25,八幡平観光活性化合同会社,,合同会社,東京都,千代田区,丸の内２丁目５番１号,,13,101,1000005,,,,,,,2021-11-25,1,,,,,ハチマンタイカンコウカッセイカ,0
870,4010405020448,新規,0,2021-11-25,2021-11-25,一般社団法人ハーブス,,その他の設立登記法人,東京都,港区,虎ノ門３丁目２２番１０－２０１号,,13,103,1050001,,,,,,,2021-11-25,1,,,,,ハーブス,0
873,4010501048129,新規,0,2021-11-25,2021-11-25,株式会社Ｌｕｍｉｉ,,株式会社,東京都,台東区,浅草橋２丁目１６番９号,,13,106,1110053,,,,,,,2021-11-25,1,,,,,ルミー,0
874,4010501048137,新規,0,2021-11-25,2021-11-25,Ｔｙｏ　ｍａｍａ株式会社,,株式会社,東京都,台東区,上野７丁目７番１１号伸栄ビル６０２号室,,13,106,1100005,,,,,,,2021-11-25,1,,,,,トヨママ,0
893,4010901049841,新規,0,2021-11-25,2021-11-25,株式会社Ｎ．Ｉ．Ｃ,,株式会社,東京都,世田谷区,松原５丁目４２番１０号ビイラフォレスタ２Ａ,,13,112,1560043,,,,,,,2021-11-25,1,,,,,エヌアイシー,0
894,4010901049866,新規,0,2021-11-25,2021-11-25,株式会社アーチ,,株式会社,東京都,世田谷区,上用賀６丁目１９番８号,,13,112,1580098,,,,,,,2021-11-25,1,,,,,アーチ,0
895,4010901049874,新規,0,2021-11-25,2021-11-25,株式会社若松企画,00124960,株式会社,東京都,世田谷区,上馬４丁目１２番１７号,,13,112,1540011,,,,,,,2021-11-25,1,,,,,ワカマツキカク,0
897,4010903006964,新規,0,2021-11-25,2021-11-25,合同会社オフィスＫ,,合同会社,東京都,世田谷区,若林２丁目２１番２２号,,13,112,1540023,,,,,,,2021-11-25,1,,,,,オフィスケイ,0
904,4011001144087,新規,0,2021-11-25,2021-11-25,株式会社ＯＮＥ　ＣＵＬＴＵＲＥ．,,株式会社,東京都,渋谷区,神宮前６丁目２３－４桑野ビル２Ｆ,,13,113,1500001,,,,,,,2021-11-25,1,,,,,ワンカルチャー,0
905,4011001144095,新規,0,2021-11-25,2021-11-25,株式会社アノアノ,,株式会社,東京都,渋谷区,神宮前６丁目２３番４号桑野ビル２階,,13,113,1500001,,,,,,,2021-11-25,1,,,,,アノアノ,0
906,4011001144186,新規,0,2021-11-25,2021-11-25,株式会社ＳＵＮＮＹ,,株式会社,東京都,渋谷区,神宮前６丁目２３番４号桑野ビル２階,,13,113,1500001,,,,,,,2021-11-25,1,,,,,サニー,0
919,4011201023421,新規,0,2021-11-25,2021-11-25,株式会社三恵不動産,,株式会社,東京都,中野区,中野４丁目５番１号中野ＫＩビル１Ｆ,,13,114,1640001,,,,,,,2021-11-25,1,,,,,サンケイフドウサン,0
920,4011201023438,新規,0,2021-11-25,2021-11-25,松韻株式会社,,株式会社,東京都,中野区,上高田５丁目４３番１号グリーンビル,,13,114,1640002,,,,,,,2021-11-25,1,,,,,ショウイン,0
923,4011303004229,新規,0,2021-11-25,2021-11-25,合同会社ビルド,,合同会社,東京都,杉並区,大宮１丁目９番１１号エトワールＫ３０３,,13,115,1680061,,,,,,,2021-11-25,1,,,,,ビルド,0
925,4011501027493,新規,0,2021-11-25,2021-11-25,ブラザージャパン株式会社,,株式会社,東京都,荒川区,西日暮里２丁目４０－３日神パレス日暮里２０１号,,13,118,1160013,,,,,,,2021-11-25,1,,,,,ブラザージャパン,0
928,4011503004986,新規,0,2021-11-25,2021-11-25,ウォッチマン合同会社,,合同会社,東京都,荒川区,東日暮里１丁目３番２－５０６号,,13,118,1160014,,,,,,,2021-11-25,1,,,,,ウォッチマン,0
940,4020001144055,新規,0,2021-11-25,2021-11-25,株式会社陸,,株式会社,神奈川県,横浜市戸塚区,深谷町１３８４番地１４,,14,110,2450067,,,,,,,2021-11-25,1,,,,,リク,0
945,4020003020881,新規,0,2021-11-25,2021-11-25,合同会社Ｍａｇｉｃａｌ　Ｇｒｏｗ,,合同会社,神奈川県,横浜市西区,北幸１丁目１１－１,,14,103,2200004,,,,,,,2021-11-25,1,,,,,マジカルグロウ,0
952,4021001074548,新規,0,2021-11-25,2021-11-25,株式会社ｓｕｋｋｕ,,株式会社,神奈川県,鎌倉市,山ノ内３０９番地９号,,14,204,2470062,,,,,,,2021-11-25,1,,,,,スック,0
953,4021001074572,新規,0,2021-11-25,2021-11-25,株式会社ＡＬＴＰＬＡＮ,,株式会社,神奈川県,小田原市,飯泉５３３番地の１ルピナ大北Ｂ－１０１,,14,206,2500863,,,,,,,2021-11-25,1,,,,,,0
955,4021005012355,新規,0,2021-11-25,2021-11-25,ＮＰＯ法人関谷農園,,その他の設立登記法人,神奈川県,鎌倉市,腰越１５８４番地３,,14,204,2480033,,,,,,,2021-11-25,1,,,,,セキヤノウエン,0
960,4030001145457,新規,0,2021-11-25,2021-11-25,株式会社ウィズＵハウス,,株式会社,埼玉県,さいたま市緑区,大間木３丁目１７番地３１,,11,109,3360923,,,,,,,2021-11-25,1,,,,,ウィズユーハウス,0
961,4030001145465,新規,0,2021-11-25,2021-11-25,株式会社あいのて,,株式会社,埼玉県,本庄市,共栄７０,,11,211,3670037,,,,,,,2021-11-25,1,,,,,アイノテ,0
971,4040005021439,新規,0,2021-11-25,2021-11-25,一般社団法人笑楽,,その他の設立登記法人,千葉県,千葉市若葉区,小倉台６丁目１１７４－９,,12,104,2640006,,,,,,,2021-11-25,1,,,,,ララ,0
979,4060001034319,新規,0,2021-11-25,2021-11-25,トライホールディングス株式会社,,株式会社,栃木県,小山市,大字土塔２５３番地１８,,09,208,3230812,,,,,,,2021-11-25,1,,,,,トライホールディングス,0
982,4060005009928,新規,0,2021-11-25,2021-11-25,一般社団法人心の窓,,その他の設立登記法人,栃木県,宇都宮市,戸祭町２６３８番地１２,,09,201,3200053,,,,,,,2021-11-25,1,,,,,ココロノマド,0
987,4080401025493,新規,0,2021-11-25,2021-11-25,株式会社貢献不動産,,株式会社,静岡県,浜松市東区,北島町２０１番地の２、２０３号,,22,132,4350041,,,,,,,2021-11-25,1,,,,,コウケンフドウサン,0
1006,4120001242063,新規,0,2021-11-25,2021-11-25,株式会社Ａｋｅｍｉ,,株式会社,大阪府,大阪市北区,中崎３丁目３番１０号,,27,127,5300016,,,,,,,2021-11-25,1,,,,,アケミ,0
1007,4120001242105,新規,0,2021-11-25,2021-11-25,株式会社ＲＯＵＴＥ３２,,株式会社,大阪府,大阪市西淀川区,福町１丁目１０番１－４０５号,,27,113,5550034,,,,,,,2021-11-25,1,,,,,ルートサンジュウニ,0
1012,4120003020649,新規,0,2021-11-25,2021-11-25,合同会社アネスパイラル,,合同会社,大阪府,大阪市北区,中津１丁目６番２９－１００３号,,27,127,5310071,,,,,,,2021-11-25,1,,,,,アネスパイラル,0
1013,4120003020657,新規,0,2021-11-25,2021-11-25,合同会社リバー,,合同会社,大阪府,大阪市住之江区,平林南１丁目２番５７号ヘッドビル３０２号室,,27,125,5590025,,,,,,,2021-11-25,1,,,,,リバー,0
1019,4120101064696,新規,0,2021-11-25,2021-11-25,ガロ・エンジニアリング株式会社,,株式会社,大阪府,羽曳野市,野々上３丁目４９７番地の１,,27,222,5830871,,,,,,,2021-11-25,1,,,,,ガロエンジニアリング,0
1025,4130001070587,新規,0,2021-11-25,2021-11-25,長格株式会社,,株式会社,京都府,京都市東山区,東大路松原上る東入月輪町９６－２Ｆ,,26,105,6050854,,,,,,,2021-11-25,1,,,,,チョウカク,0
1038,4140001123947,新規,0,2021-11-25,2021-11-25,株式会社ｉｉｒｏ,,株式会社,兵庫県,神戸市中央区,元町通１丁目１３番１５号４Ｆ,,28,110,6500022,,,,,,,2021-11-25,1,,,,,イロ,0
1039,4140001123963,新規,0,2021-11-25,2021-11-25,株式会社エコリングネクスト,,株式会社,兵庫県,姫路市,飾磨区恵美酒２１３番地,,28,201,6728057,,,,,,,2021-11-25,1,,,,,エコリングネクスト,0
1040,4140001123971,新規,0,2021-11-25,2021-11-25,株式会社エヌエスオー,,株式会社,兵庫県,神戸市西区,白水２丁目４番１０号シンワ・メゾン伊川谷４０１号室,,28,111,6512129,,,,,,,2021-11-25,1,,,,,エヌエスオー,0
1044,4140003017024,新規,0,2021-11-25,2021-11-25,合同会社樹,,合同会社,兵庫県,伊丹市,荻野２丁目３０番地２,,28,207,6640002,,,,,,,2021-11-25,1,,,,,イツキ,0
1045,4140005025900,新規,0,2021-11-25,2021-11-25,一般社団法人アグリステーション丹波ささやま,,その他の設立登記法人,兵庫県,丹波篠山市,小枕９３番地,,28,221,6692461,,,,,,,2021-11-25,1,,,,,アグリステーションタンバササヤマ,0
1051,4180001148767,新規,0,2021-11-25,2021-11-25,株式会社オアシス,,株式会社,愛知県,東海市,養父町３丁目３０番地,,23,222,4770034,,,,,,,2021-11-25,1,,,,,オアシス,0
1052,4180001148866,新規,0,2021-11-25,2021-11-25,株式会社グレープ,,株式会社,愛知県,名古屋市中区,丸の内２丁目１８番２０号ＤＫ丸の内ビル２０３号,,23,106,4600002,,,,,,,2021-11-25,1,,,,,グレープ,0
1053,4180001148874,新規,0,2021-11-25,2021-11-25,株式会社ＮＥＸＵＳ,,株式会社,愛知県,半田市,苗代町１丁目４０番地の２０,,23,205,4750075,,,,,,,2021-11-25,1,,,,,ネクサス,0
1057,4180003023225,新規,0,2021-11-25,2021-11-25,日越貿易合同会社,,合同会社,愛知県,名古屋市東区,徳川２丁目１０－２２徳川園ウエストマンション４Ｃ,,23,102,4610025,,,,,,,2021-11-25,1,,,,,ニチエツボウエキ,0
1058,4180005019527,新規,0,2021-11-25,2021-11-25,税理士法人松坂会計,,その他の設立登記法人,愛知県,日進市,赤池１丁目１５０７番地Ｍ　ＨｏｕｓｅＩＩ　１Ｆ,00124953,23,230,4700125,,,,,,,2021-11-25,1,,,,,マツサカカイケイ,0
1062,4180303005179,新規,0,2021-11-25,2021-11-25,合同会社ＬＯＯＰ,,合同会社,愛知県,岡崎市,柱曙２丁目２番地１,,23,202,4440833,,,,,,,2021-11-25,1,,,,,ループ,0
1066,4190001028877,新規,0,2021-11-25,2021-11-25,株式会社エングランツ,,株式会社,三重県,伊勢市,小俣町本町３４１番地１６９,,24,203,5190505,,,,,,,2021-11-25,1,,,,,エングランツ,0
1073,4220001024559,新規,0,2021-11-25,2021-11-25,株式会社縁成堂,,株式会社,石川県,小松市,串町セ４７番地２,,17,203,9230965,,,,,,,2021-11-25,1,,,,,エンセイドウ,0
1084,4260001036237,新規,0,2021-11-25,2021-11-25,株式会社秋山商店,,株式会社,岡山県,新見市,新見７２３番地１,,33,210,7180011,,,,,,,2021-11-25,1,,,,,アキヤマショウテン,0
1099,4290001095404,新規,0,2021-11-25,2021-11-25,セイブ環境サービス株式会社,,株式会社,福岡県,福岡市中央区,六本松１丁目４番３０号,,40,133,8100044,,,,,,,2021-11-25,1,,,,,セイブカンキョウサービス,0
1100,4290001095503,新規,0,2021-11-25,2021-11-25,株式会社八,,株式会社,福岡県,福岡市西区,姪の浜４丁目１４番２５号華香ビル４Ｆ,,40,135,8190002,,,,,,,2021-11-25,1,,,,,ハチ,0
1108,4290003011870,新規,0,2021-11-25,2021-11-25,Ｓ．ＨＣＯＭＰＡＮＹ合同会社,,合同会社,福岡県,福岡市早良区,賀茂３丁目１０番９号,,40,137,8140164,,,,,,,2021-11-25,1,,,,,エスエイチカンパニー,0
1111,4290005018427,新規,0,2021-11-25,2021-11-25,特定非営利活動法人Ｎｔｈ　Ｆｏｕｎｄａｔｉｏｎ,,その他の設立登記法人,福岡県,福岡市中央区,大名２丁目１０番２号シャンボール大名Ｂ棟－１２０１号,,40,133,8100041,,,,,,,2021-11-25,1,,,,,エヌスファウンデーション,0
1113,4290801028026,新規,0,2021-11-25,2021-11-25,株式会社ライフプラス,,株式会社,福岡県,直方市,大字頓野１９０３番地２,,40,204,8220002,,,,,,,2021-11-25,1,,,,,ライフプラス,0
1118,4320001018749,新規,0,2021-11-25,2021-11-25,ソーシャルサポート株式会社,,株式会社,大分県,大分市,大字片島字武ノ内１２２３番１,,44,201,8700943,,,,,,,2021-11-25,1,,,,,ソーシャルサポート,0
1136,4480001011556,新規,0,2021-11-25,2021-11-25,株式会社愛心工業,,株式会社,徳島県,徳島市,国府町中４０２番地５,,36,201,7793124,,,,,,,2021-11-25,1,,,,,アイシンコウギョウ,0
1138,4700150105961,新規,0,2021-11-25,2021-11-25,ＭＵＬＴＹ　ＴＲＡＤＩＮＧ,,外国会社等,千葉県,山武市,横田４９０番地３２オフィスＢ号,,12,237,2891226,スリランカ民主社会主義共和国、キャンディ、ガルヒンナ、キャンディロード、２４８－Ｄ,,,,,,2021-11-25,1,,,,,ムルテイトレーデイング,0
1145,5010001222728,新規,0,2021-11-25,2021-11-25,ステラリンクス株式会社,,株式会社,東京都,千代田区,内神田３丁目１１番１号菊原ビル３Ｆ,,13,101,1010047,,,,,,,2021-11-25,1,,,,,ステラリンクス,0
1146,5010001222744,新規,0,2021-11-25,2021-11-25,ＵＫ株式会社,,株式会社,東京都,中央区,銀座１丁目２２番１１号銀座大竹ビジデンス２階,,13,102,1040061,,,,,,,2021-11-25,1,,,,,ユーケー,0
1147,5010001222785,新規,0,2021-11-25,2021-11-25,株式会社ＭＥＲＡＣＬＥ,,株式会社,東京都,千代田区,九段南１丁目５番６号りそな九段ビル５Ｆ、ＫＳフロア,,13,101,1020074,,,,,,,2021-11-25,1,,,,,メラクル,0
1148,5010003036317,新規,0,2021-11-25,2021-11-25,合同会社ａｍａｎｅ,,合同会社,東京都,中央区,京橋２丁目２番１号京橋エドグラン２６階,,13,102,1040031,,,,,,,2021-11-25,1,,,,,アマネ,0
1149,5010003036374,新規,0,2021-11-25,2021-11-25,ＭＥＴＡ　Ｍａｎａｇｅｍｅｎｔ合同会社,,合同会社,東京都,中央区,晴海３丁目１３番１号,,13,102,1040053,,,,,,,2021-11-25,1,,,,,メタマネジメント,0
1164,5010701041824,新規,0,2021-11-25,2021-11-25,株式会社ＲＣ　Ｇｒｏｕｐ,,株式会社,東京都,品川区,東五反田５丁目２１番１５号メタリオンＯＳビル３０７,,13,109,1410022,,,,,,,2021-11-25,1,,,,,アールシーグループ,0
1166,5010801032517,新規,0,2021-11-25,2021-11-25,株式会社シリカジェン,,株式会社,東京都,大田区,山王２丁目１番２号大森ステーションＢＯＸ６Ｆ,,13,111,1430023,,,,,,,2021-11-25,1,,,,,シリカジェン,0
1167,5010901049824,新規,0,2021-11-25,2021-11-25,株式会社オリエンタル設備,,株式会社,東京都,世田谷区,羽根木１丁目９－１６－１０２,,13,112,1560042,,,,,,,2021-11-25,1,,,,,オリエンタルセツビ,0
1168,5010901049865,新規,0,2021-11-25,2021-11-25,株式会社メドループ,,株式会社,東京都,世田谷区,駒沢５丁目１８番７号,,13,112,1540012,,,,,,,2021-11-25,1,,,,,メドループ,0
1169,5010901049873,新規,0,2021-11-25,2021-11-25,ＡＰ株式会社,,株式会社,東京都,世田谷区,世田谷２丁目１２番１７号,,13,112,1540017,,,,,,,2021-11-25,1,,,,,エーピー,0
1170,5010903006963,新規,0,2021-11-25,2021-11-25,ＳＴＣ合同会社,,合同会社,東京都,世田谷区,桜新町１丁目２７番２３号ブルームステージ桜新町１０１,,13,112,1540015,,,,,,,2021-11-25,1,,,,,エスティーシー,0
1175,5011001144012,新規,0,2021-11-25,2021-11-25,株式会社ソーシャル・エックス,,株式会社,東京都,渋谷区,渋谷２丁目２１番１号,,13,113,1500002,,,,,,,2021-11-25,1,,,,,ソーシャルエックス,0
1176,5011001144210,新規,0,2021-11-25,2021-11-25,株式会社Ｓｉｇｎｉｆｙ,,株式会社,東京都,目黒区,東山３丁目４番８号東北林業ビル２０１,,13,110,1530043,,,,,,,2021-11-25,1,,,,,シグニファイ,0
1177,5011101096979,新規,0,2021-11-25,2021-11-25,株式会社ＹＮＷＡ,,株式会社,東京都,新宿区,舟町４番地２アビテ四谷三丁目２０１,,13,104,1600006,,,,,,,2021-11-25,1,,,,,ワイエヌダブルユーエー,0
1180,5011201023437,新規,0,2021-11-25,2021-11-25,株式会社ナックテクノサイエンス,,株式会社,東京都,中野区,松が丘２丁目１９番９－４１２号,,13,114,1650024,,,,,,,2021-11-25,1,,,,,ナックテクノサイエンス,0
1181,5011203003701,新規,0,2021-11-25,2021-11-25,合同会社ベルシーシー,,合同会社,東京都,中野区,松が丘２丁目２７番４－３０８号,,13,114,1650024,,,,,,,2021-11-25,1,,,,,ベルシーシー,0
1185,5011301027370,新規,0,2021-11-25,2021-11-25,株式会社電空,,株式会社,東京都,杉並区,永福１丁目１３番４－１０７号,,13,115,1680064,,,,,,,2021-11-25,1,,,,,デンクウ,0
1186,5011303004228,新規,0,2021-11-25,2021-11-25,合同会社ホープフルライフ,,合同会社,東京都,杉並区,高円寺南５丁目２１番１２号ＧｒａｎＤｕｏＫｏｕｅｎｊｉ２０３,,13,115,1660003,,,,,,,2021-11-25,1,,,,,ホープフルライフ,0
1190,5011503004985,新規,0,2021-11-25,2021-11-25,元日商事合同会社,,合同会社,東京都,北区,滝野川４丁目６番５号,,13,117,1140023,,,,,,,2021-11-25,1,,,,,ガンジツショウジ,0
1198,5011803004875,新規,0,2021-11-25,2021-11-25,ＭＢ合同会社,,合同会社,東京都,葛飾区,青戸７丁目２３番１１号,,13,122,1250062,,,,,,,2021-11-25,1,,,,,エムビー,0
1201,5012401038571,新規,0,2021-11-25,2021-11-25,豊倉興業株式会社,,株式会社,東京都,三鷹市,下連雀３丁目３５－１,,13,204,1810013,,,,,,,2021-11-25,1,,,,,トヨクラコウギョウ,0
1213,5020001144070,新規,0,2021-11-25,2021-11-25,株式会社ＦＲｅｅ,,株式会社,神奈川県,横浜市瀬谷区,宮沢３丁目３５番地９,,14,114,2460038,,,,,,,2021-11-25,1,,,,,フリー,0
1216,5021001029666,新規,0,2021-11-25,2021-11-25,亜細亜産業株式会社,,株式会社,神奈川県,綾瀬市,寺尾中１丁目１７番２６号,,14,218,2521132,,,,,,,2021-11-25,1,,,,,アジアサンギョウ,0
1219,5021001074571,新規,0,2021-11-25,2021-11-25,株式会社鎌倉山コーポレーション,,株式会社,神奈川県,鎌倉市,津１０６９番地３５２,,14,204,2480032,,,,,,,2021-11-25,1,,,,,カマクラヤマコーポレーション,0
1220,5021003011119,新規,0,2021-11-25,2021-11-25,ＭＹＡ　ＢＲＩＤＧＥ合同会社,,合同会社,神奈川県,藤沢市,鵠沼松が岡４丁目８－１８,,14,205,2510038,,,,,,,2021-11-25,1,,,,,マイアブリッジ,0
1221,5021003011127,新規,0,2021-11-25,2021-11-25,合同会社ケイデザインパートナーズ,,合同会社,神奈川県,鎌倉市,鎌倉山１丁目８番７号,,14,204,2480031,,,,,,,2021-11-25,1,,,,,ケイデザインパートナーズ,0
1228,5030001145357,新規,0,2021-11-25,2021-11-25,ＰＩＫ株式会社,,株式会社,埼玉県,朝霞市,本町２丁目１２番２０号,,11,227,3510011,,,,,,,2021-11-25,1,,,,,ピーアイケー,0
1236,5040001121035,新規,0,2021-11-25,2021-11-25,Ｒｅ－ｓｔｙｌｅ株式会社,,株式会社,千葉県,習志野市,津田沼１丁目１０番４７号１階,,12,216,2750016,,,,,,,2021-11-25,1,,,,,リスタイル,0
1237,5040001121092,新規,0,2021-11-25,2021-11-25,株式会社四季,,株式会社,千葉県,いすみ市,岬町三門２１７１番地フラットＳ１０１号,,12,238,2994613,,,,,,,2021-11-25,1,,,,,シキ,0
1239,5040003019005,新規,0,2021-11-25,2021-11-25,エスケー流通合同会社,,合同会社,千葉県,千葉市稲毛区,天台４丁目６－２１クレイン１号,,12,103,2630016,,,,,,,2021-11-25,1,,,,,エスケーリュウツウ,0
1246,5060001034318,新規,0,2021-11-25,2021-11-25,株式会社ｉｔｏｓｉｍ,,株式会社,栃木県,下都賀郡壬生町,幸町３丁目３５番１号,,09,361,3210203,,,,,,,2021-11-25,1,,,,,イトシム,0
1247,5060003003873,新規,0,2021-11-25,2021-11-25,合同会社えにし,,合同会社,栃木県,日光市,小代４８番地,,09,206,3211107,,,,,,,2021-11-25,1,,,,,,0
1251,5070001038680,新規,0,2021-11-25,2021-11-25,株式会社ライフアソシエーション徳島,,株式会社,群馬県,北群馬郡吉岡町,大字南下１３７５番地３９,,10,345,3703604,,,,,,,2021-11-25,1,,,,,ライフアソシエーショントクシマ,0
1254,5080101022930,新規,0,2021-11-25,2021-11-25,株式会社ＳＯＵＫＥ　ＧＲＯＵＰ,,株式会社,静岡県,田方郡函南町,間宮３２７番地の１６,,22,325,4190123,,,,,,,2021-11-25,1,,,,,ソウケグループ,0
1265,5100003006293,新規,0,2021-11-25,2021-11-25,合同会社ヨシトモ,,合同会社,長野県,塩尻市,大字広丘堅石７５番地８,,20,215,3990705,,,,,,,2021-11-25,1,,,,,ヨシトモ,0
1278,5120001242038,新規,0,2021-11-25,2021-11-25,株式会社クレスト,,株式会社,大阪府,大阪市北区,長柄東２丁目９番７７－７２９号,,27,127,5310063,,,,,,,2021-11-25,1,,,,,クレスト,0
1279,5120001242054,新規,0,2021-11-25,2021-11-25,株式会社八六,,株式会社,大阪府,大阪市西成区,北津守１丁目５番３１号,,27,122,5570061,,,,,,,2021-11-25,1,,,,,ハチロク,0
1280,5120001242079,新規,0,2021-11-25,2021-11-25,株式会社ゲームボーイズ,,株式会社,大阪府,大阪市北区,堂山町１番５号,,27,127,5300027,,,,,,,2021-11-25,1,,,,,ゲームボーイズ,0
1281,5120001242087,新規,0,2021-11-25,2021-11-25,株式会社Ｒｅ・Ｓｉｄｅ,,株式会社,大阪府,大阪市西区,北堀江１丁目１番３号四ツ橋日生ビル別館１０－Ａ,,27,106,5500014,,,,,,,2021-11-25,1,,,,,リサイド,0
1282,5120001242095,新規,0,2021-11-25,2021-11-25,株式会社ＵＮＩＴＥ,,株式会社,大阪府,大阪市東住吉区,桑津５丁目１９－１４,,27,121,5460041,,,,,,,2021-11-25,1,,,,,ユナイト,0
1284,5120003020648,新規,0,2021-11-25,2021-11-25,合同会社アネワーク,,合同会社,大阪府,大阪市北区,中津１丁目６番２９－１００３号,,27,127,5310071,,,,,,,2021-11-25,1,,,,,アネワーク,0
1285,5120003020656,新規,0,2021-11-25,2021-11-25,Ａｌｏｈａ．ｚｍｋ合同会社,,合同会社,大阪府,寝屋川市,池田本町１－３,,27,215,5720030,,,,,,,2021-11-25,1,,,,,アロハゼットエムケイ,0
1286,5120005022626,新規,0,2021-11-25,2021-11-25,一般社団法人元気づくり・おおきに会,,その他の設立登記法人,大阪府,大阪市住吉区,南住吉１丁目３番５号,,27,120,5580041,,,,,,,2021-11-25,1,,,,,ゲンキヅクリオオキニカイ,0
1289,5120103004451,新規,0,2021-11-25,2021-11-25,合同会社衛,,合同会社,大阪府,高石市,加茂１丁目２０番１－４０４号,,27,225,5920011,,,,,,,2021-11-25,1,,,,,マモル,0
1294,5120901045259,新規,0,2021-11-25,2021-11-25,株式会社くくるファーム,,株式会社,大阪府,高槻市,千代田町８－９,,27,207,5690087,,,,,,,2021-11-25,1,,,,,ククルファーム,0
1296,5120903003917,新規,0,2021-11-25,2021-11-25,合同会社Ｈａｌｅ　Ｎａｌｕ,,合同会社,大阪府,池田市,旭丘２丁目３番１５号,,27,204,5630022,,,,,,,2021-11-25,1,,,,,ハレナル,0
1303,5130001070594,新規,0,2021-11-25,2021-11-25,株式会社ケイエヌ,,株式会社,京都府,京都市右京区,太秦安井辰巳町２番地７３,,26,108,6168072,,,,,,,2021-11-25,1,,,,,ケイエヌ,0
1304,5130001070611,新規,0,2021-11-25,2021-11-25,株式会社響美,,株式会社,京都府,京都市山科区,大宅中小路町１９番地１３,,26,110,6078176,,,,,,,2021-11-25,1,,,,,キョウビ,0
1307,5140001123987,新規,0,2021-11-25,2021-11-25,イノベートパートナーズ株式会社,,株式会社,兵庫県,神戸市中央区,南本町通２丁目２－４,,28,110,6510074,,,,,,,2021-11-25,1,,,,,イノベートパートナーズ,0
1309,5170001016874,新規,0,2021-11-25,2021-11-25,株式会社ダイコー,,株式会社,和歌山県,和歌山市,梅原１３２番地９,,30,201,6408452,,,,,,,2021-11-25,1,,,,,ダイコー,0
1317,5180001148873,新規,0,2021-11-25,2021-11-25,株式会社Ｂａｒｏｎ,,株式会社,愛知県,名古屋市天白区,池場１丁目４０４番地フィルシティ植田南８０２号,,23,116,4680055,,,,,,,2021-11-25,1,,,,,バロン,0
1318,5180001148898,新規,0,2021-11-25,2021-11-25,株式会社ファーマプロダクト,,株式会社,愛知県,名古屋市中村区,名駅５丁目４番１４号花車ビル北館４０９,,23,105,4500002,,,,,,,2021-11-25,1,,,,,ファーマプロダクト,0
1326,5180303005178,新規,0,2021-11-25,2021-11-25,トヨタタイニーラボ合同会社,,合同会社,愛知県,豊田市,丸山町４丁目３番地５３,,23,211,4710832,,,,,,,2021-11-25,1,,,,,トヨタタイニーラボ,0
1329,5190001028884,新規,0,2021-11-25,2021-11-25,株式会社ＡＳＣ,,株式会社,三重県,員弁郡東員町,大字中上１８６５,,24,324,5110254,,,,,,,2021-11-25,1,,,,,エーエスシー,0
1341,5240001058967,新規,0,2021-11-25,2021-11-25,株式会社ウォーターミュージック,,株式会社,広島県,広島市中区,袋町５番３８号山中ビル５０２,,34,101,7300036,,,,,,,2021-11-25,1,,,,,ウォーターミュージック,0
1343,5250001019274,新規,0,2021-11-25,2021-11-25,株式会社ＯＤＡ建築工匠,,株式会社,山口県,周南市,西千代田町３番１９号,,35,215,7460002,,,,,,,2021-11-25,1,,,,,オダケンチクコウショウ,0
1344,5260001036236,新規,0,2021-11-25,2021-11-25,寿ばとん株式会社,,株式会社,岡山県,岡山市北区,田益１４９０番地６,,33,101,7011154,,,,,,,2021-11-25,1,,,,,コトブキバトン,0
1349,5290001095519,新規,0,2021-11-25,2021-11-25,オーシャンロジスティック株式会社,,株式会社,福岡県,福岡市東区,多の津５丁目１０番６号,,40,131,8130034,,,,,,,2021-11-25,1,,,,,オーシャンロジスティック,0
1354,5300003001753,新規,0,2021-11-25,2021-11-25,合同会社ＦＡＩＲＹ・ＪＯＹ,,合同会社,佐賀県,唐津市,八幡町７５８番地１３８,,41,202,8470102,,,,,,,2021-11-25,1,,,,,フェアリージョイ,0
1355,5300005007047,新規,0,2021-11-25,2021-11-25,一般社団法人佐賀県社会福祉就労支援協会,,その他の設立登記法人,佐賀県,佐賀市,神野東１丁目３－１４,,41,201,8400804,,,,,,,2021-11-25,1,,,,,サガケンシャカイフクシシュウロウシエンキョウカイ,0
1361,5320001018756,新規,0,2021-11-25,2021-11-25,株式会社仁進,,株式会社,大分県,大分市,新貝１０番２４号,,44,201,8700911,,,,,,,2021-11-25,1,,,,,ユウシン,0
1362,5330001029224,新規,0,2021-11-25,2021-11-25,農業法人ＣＯＧ株式会社,,株式会社,熊本県,上益城郡山都町,北中島２８５０番地６,,43,447,8613455,,,,,,,2021-11-25,1,,,,,ノウギョウホウジンシーオージー,0
1367,5370001047874,新規,0,2021-11-25,2021-11-25,株式会社レコルタン,,株式会社,宮城県,仙台市青葉区,国分町３丁目１０番３３－１３０２号,,04,101,9800803,,,,,,,2021-11-25,1,,,,,レコルタン,0
1376,5390001016687,新規,0,2021-11-25,2021-11-25,株式会社アトゥリー,,株式会社,山形県,酒田市,若宮町２丁目１４番１１号,,06,204,9980053,,,,,,,2021-11-25,1,,,,,アトゥリー,0
1385,5430003013389,新規,0,2021-11-25,2021-11-25,合同会社英和土地,,合同会社,北海道,札幌市北区,新琴似一条７丁目８番１８号,,01,102,0010901,,,,,,,2021-11-25,1,,,,,エイワトチ,0
1396,5700150105960,新規,0,2021-11-25,2021-11-25,ＡＵＴＯ　ＬＡＮＫＡ　ＥＮＴＥＲＰＲＩＳＥ,,外国会社等,千葉県,山武市,横田４９０番地３２オフィスＡ号,,12,237,2891226,スリランカ民主社会主義共和国、キャンディ、ジェリオヤ、ガンポラロード、４１２－２０,,,,,,2021-11-25,1,,,,,オートランカエンタープライズ,0
1401,6010001222727,新規,0,2021-11-25,2021-11-25,株式会社向栄,,株式会社,東京都,文京区,千駄木１丁目２３番２－４０５号,,13,105,1130022,,,,,,,2021-11-25,1,,,,,コウエイ,0
1402,6010001222735,新規,0,2021-11-25,2021-11-25,エンデバー・ユナイテッド・パートナーズ・２３株式会社,,株式会社,東京都,千代田区,丸の内２丁目５番１号丸の内二丁目ビル６階,,13,101,1000005,,,,,,,2021-11-25,1,,,,,エンデバーユナイテッドパートナーズトゥエンティスリー,0
1404,6010003036357,新規,0,2021-11-25,2021-11-25,合同会社Ｐｌｕｓ１,,合同会社,東京都,千代田区,東神田１丁目７番１０号,,13,101,1010031,,,,,,,2021-11-25,1,,,,,プラスワン,0
1405,6010003036373,新規,0,2021-11-25,2021-11-25,合同会社オルタナ９,,合同会社,東京都,千代田区,丸の内３丁目１番１号東京共同会計事務所内,,13,101,1000005,,,,,,,2021-11-25,1,,,,,オルタナナイン,0
1417,6010401164008,新規,0,2021-11-25,2021-11-25,株式会社ＦＨＤ,,株式会社,東京都,港区,南青山５丁目４番５１号,,13,103,1070062,,,,,,,2021-11-25,1,,,,,エフエイチディー,0
1418,6010401164024,新規,0,2021-11-25,2021-11-25,株式会社Ｍｉｌｌｉｏｎａｉｒｅ　Ｌｉｆｅ,,株式会社,東京都,港区,元赤坂１丁目２－１７号ＡＫＡＳＡＫＡ・Ｋ－ＴＯＷＥＲ・ＲＥＳＩＤＥＮＣＥ２９０２,,13,103,1070051,,,,,,,2021-11-25,1,,,,,ミリオネアライフ,0
1419,6010501048135,新規,0,2021-11-25,2021-11-25,株式会社Ｒｅ．ｓｔａｒｔ,,株式会社,東京都,台東区,台東２丁目３１番３号アサヒビル５Ｆ,,13,106,1100016,,,,,,,2021-11-25,1,,,,,リスタート,0
1422,6010801032516,新規,0,2021-11-25,2021-11-25,ユニバーサル・フードマシン株式会社,,株式会社,東京都,大田区,蒲田５丁目２１番１３号,,13,111,1440052,,,,,,,2021-11-25,1,,,,,ユニバーサルフードマシン,0
1428,6010901049856,新規,0,2021-11-25,2021-11-25,ＵＣＲ株式会社,,株式会社,東京都,世田谷区,船橋１丁目３７番７号コーポちとせ２０２,,13,112,1560055,,,,,,,2021-11-25,1,,,,,ユーシーアール,0
1429,6010901049864,新規,0,2021-11-25,2021-11-25,株式会社Ｓｔｏｎｅｓ,,株式会社,東京都,世田谷区,弦巻４丁目２１番１－２０１号,,13,112,1540016,,,,,,,2021-11-25,1,,,,,ストーンズ,0
1432,6010903006962,新規,0,2021-11-25,2021-11-25,合同会社ウスキ,,合同会社,東京都,世田谷区,上祖師谷１丁目２８番１１－２０３号,,13,112,1570065,,,,,,,2021-11-25,1,,,,,ウスキ,0
1438,6011001144192,新規,0,2021-11-25,2021-11-25,株式会社ＫＳ　Ｏｆｆｉｃｅ,,株式会社,東京都,渋谷区,恵比寿１丁目２２番２３号,,13,113,1500013,,,,,,,2021-11-25,1,,,,,ケーエスオフィス,0
1441,6011101097010,新規,0,2021-11-25,2021-11-25,トキノツユ株式会社,,株式会社,東京都,新宿区,荒木町９番地１９,,13,104,1600007,,,,,,,2021-11-25,1,,,,,トキノツユ,0
1443,6011201023436,新規,0,2021-11-25,2021-11-25,ＲｅａｃｈＮｅｘｔ　Ｔｏｋｙｏ株式会社,,株式会社,東京都,中野区,中央３丁目３１番１４－Ａ４０２号,,13,114,1640011,,,,,,,2021-11-25,1,,,,,リーチネクストトウキョウ,0
1448,6011501027509,新規,0,2021-11-25,2021-11-25,株式会社ユリイカ,,株式会社,東京都,荒川区,町屋８丁目５－１６－３０３,,13,118,1160001,,,,,,,2021-11-25,1,,,,,ユリイカ,0
1449,6011503004984,新規,0,2021-11-25,2021-11-25,Ｆｒｅｅ　ｌｉｆｅ合同会社,,合同会社,東京都,北区,志茂４丁目１０番地１５号,,13,117,1150042,,,,,,,2021-11-25,1,,,,,フリーライフ,0
1453,6011801040005,新規,0,2021-11-25,2021-11-25,株式会社Ａｏｉ,,株式会社,東京都,足立区,中央本町４丁目２２番１７－６１７号,,13,121,1210011,,,,,,,2021-11-25,1,,,,,アオイ,0
1454,6012301012782,新規,0,2021-11-25,2021-11-25,株式会社ガーデンハーベスト,,株式会社,東京都,町田市,小山町２５８番地１,,13,209,1940212,,,,,,,2021-11-25,1,,,,,ガーデンハーベスト,0
1456,6012401038570,新規,0,2021-11-25,2021-11-25,アロカ株式会社,,株式会社,東京都,三鷹市,牟礼６丁目２２番１号,,13,204,1810002,,,,,,,2021-11-25,1,,,,,アロカ,0
1457,6012701016788,新規,0,2021-11-25,2021-11-25,Ｉｓｌｅ設備工業株式会社,,株式会社,東京都,西東京市,中町２丁目２番３号,,13,229,2020013,,,,,,,2021-11-25,1,,,,,アイルセツビコウギョウ,0
1468,6013301048313,新規,0,2021-11-25,2021-11-25,株式会社Ｏｍｏｃｈｉ,,株式会社,東京都,豊島区,東池袋１丁目４２番１２号ステーションサイドビル３階,,13,116,1700013,,,,,,,2021-11-25,1,,,,,オモチ,0
1477,6020001144045,新規,0,2021-11-25,2021-11-25,第二期霞が関Ｒ７株式会社,,株式会社,神奈川県,横浜市西区,みなとみらい２丁目２番１号横浜ランドマークタワー,,14,103,2200012,,,,,,,2021-11-25,1,,,,,ダイニキカスミガセキアールセブン,0
1486,6021001074595,新規,0,2021-11-25,2021-11-25,株式会社ソラニサカナ,,株式会社,神奈川県,相模原市緑区,相原６丁目５番３２号,,14,151,2520141,,,,,,,2021-11-25,1,,,,,ソラニサカナ,0
1488,6021003011126,新規,0,2021-11-25,2021-11-25,合同会社成功商事,,合同会社,神奈川県,大和市,大和東３丁目１０－２－Ｂ１Ｆ,,14,213,2420017,,,,,,,2021-11-25,1,,,,,セイコウショウジ,0
1501,6050001050190,新規,0,2021-11-25,2021-11-25,あさひＦＡＳ株式会社,,株式会社,茨城県,水戸市,南町２丁目４番５１－１５０７号レーベン水戸ＴＨＥＰＲＥＭＩＥＲＥ,,08,201,3100021,,,,,,,2021-11-25,1,,,,,アサヒファイナンシャルアドバイザリーサービス,0
1505,6080103002467,新規,0,2021-11-25,2021-11-25,静岡経営合同会社,,合同会社,静岡県,沼津市,松長７９番地の１,,22,203,4100874,,,,,,,2021-11-25,1,,,,,シズオカケイエイ,0
1520,6120001242086,新規,0,2021-11-25,2021-11-25,宇成株式会社,,株式会社,大阪府,大阪市港区,市岡元町２丁目６番１１－５０１号,,27,107,5520002,,,,,,,2021-11-25,1,,,,,ウナリ,0
1521,6120001242094,新規,0,2021-11-25,2021-11-25,株式会社ファーストクライム,,株式会社,大阪府,大阪市北区,梅田１丁目１－３大阪駅前第３ビル２９階１－１－１号室,,27,127,5300001,,,,,,,2021-11-25,1,,,,,ファーストクライム,0
1527,6120003020647,新規,0,2021-11-25,2021-11-25,合同会社アネスエージェント,,合同会社,大阪府,大阪市北区,中津１丁目６番２９－１００３号,,27,127,5310071,,,,,,,2021-11-25,1,,,,,アネスエージェント,0
1528,6120005022625,新規,0,2021-11-25,2021-11-25,特定非営利活動法人ファースト,,その他の設立登記法人,大阪府,大阪市中央区,本町４丁目８番１号ＳＤ本町ビル７０２号,,27,128,5410053,,,,,,,2021-11-25,1,,,,,ファースト,0
1538,6130001070593,新規,0,2021-11-25,2021-11-25,京都消防設備株式会社,,株式会社,京都府,京都市南区,吉祥院西ノ茶屋町７３番１,,26,107,6018381,,,,,,,2021-11-25,1,,,,,キョウトショウボウセツビ,0
1546,6140003017030,新規,0,2021-11-25,2021-11-25,エーダッシュ合同会社,,合同会社,兵庫県,高砂市,米田町島４２５番地,,28,216,6760807,,,,,,,2021-11-25,1,,,,,エーダッシュ,0
1548,6150003002551,新規,0,2021-11-25,2021-11-25,合同会社Ｌｏｏｋ,,合同会社,奈良県,奈良市,芝辻町２丁目１１－１５－４０６,00124955,29,201,6308114,,,,,,,2021-11-25,1,,,,,ルック,0
1562,6180001148872,新規,0,2021-11-25,2021-11-25,株式会社ＵＬＤ．ｉｎｃ,,株式会社,愛知県,名古屋市中川区,小本本町３丁目１２０,,23,110,4540826,,,,,,,2021-11-25,1,,,,,ユーエルディーインク,0
1564,6180005019525,新規,0,2021-11-25,2021-11-25,一般社団法人プレシャス,,その他の設立登記法人,愛知県,名古屋市千種区,法王町２丁目２番地－１０３,,23,101,4640057,,,,,,,2021-11-25,1,,,,,プレシャス,0
1565,6190005011646,新規,0,2021-11-25,2021-11-25,医療法人徳知会,,その他の設立登記法人,三重県,尾鷲市,中央町４番３号,,24,209,5193615,,,,,,,2021-11-25,1,,,,,トクチカイ,0
1568,6200001039458,新規,0,2021-11-25,2021-11-25,宇宙クロラ株式会社,,株式会社,岐阜県,飛騨市,神岡町殿字山越４４７－１,,21,217,5061121,,,,,,,2021-11-25,1,,,,,スカイクロラ,0
1569,6200003005383,新規,0,2021-11-25,2021-11-25,イープロ合同会社,,合同会社,岐阜県,関市,千疋４３１番地１,,21,205,5013954,,,,,,,2021-11-25,1,,,,,イープロ,0
1582,6260001036243,新規,0,2021-11-25,2021-11-25,アイビーストーン株式会社,,株式会社,岡山県,倉敷市,中島９８４番地９－２階,,33,202,7100803,,,,,,,2021-11-25,1,,,,,アイビーストーン,0
1587,6270003001368,新規,0,2021-11-25,2021-11-25,合同会社鳥取農産,,合同会社,鳥取県,東伯郡北栄町,大谷８１０番地１,,31,372,6892223,,,,,,,2021-11-25,1,,,,,トットリノウサン,0
1589,6280001008570,新規,0,2021-11-25,2021-11-25,株式会社３ｓｅｔ,,株式会社,島根県,隠岐郡海士町,大字福井８２７番地１,,32,525,6840404,,,,,,,2021-11-25,1,,,,,サンセット,0
1597,6290001095501,新規,0,2021-11-25,2021-11-25,株式会社Ａｘｉａ　ｃｏｒｐ．,,株式会社,福岡県,太宰府市,五条１丁目７番２２－３０１号,,40,221,8180125,,,,,,,2021-11-25,1,,,,,アクシアコーポレーション,0
1598,6290001095526,新規,0,2021-11-25,2021-11-25,ＣＭＴ株式会社,,株式会社,福岡県,福岡市南区,塩原４丁目１９番３６－１１０２号トーノビル,,40,134,8150032,,,,,,,2021-11-25,1,,,,,シーエムティー,0
1599,6290001095534,新規,0,2021-11-25,2021-11-25,株式会社Ｌｏｏｐ,,株式会社,福岡県,福岡市城南区,樋井川２丁目１４番２５号,,40,136,8140153,,,,,,,2021-11-25,1,,,,,ループ,0
1603,6290801028024,新規,0,2021-11-25,2021-11-25,株式会社ＫＴＳエンジニア,,株式会社,福岡県,遠賀郡水巻町,頃末南３丁目３２番１５号２０１号,,40,382,8070025,,,,,,,2021-11-25,1,,,,,ケイティーエス,0
1605,6300001012719,新規,0,2021-11-25,2021-11-25,株式会社ドアーズ,,株式会社,佐賀県,佐賀市,神園３丁目３－２５,,41,201,8400806,,,,,,,2021-11-25,1,,,,,ドアーズ,0
1606,6300003001752,新規,0,2021-11-25,2021-11-25,合同会社スマイル,,合同会社,佐賀県,唐津市,八幡町７３４番地３８１レフレス唐津１ｃ,,41,202,8470102,,,,,,,2021-11-25,1,,,,,スマイル,0
1608,6310003004218,新規,0,2021-11-25,2021-11-25,ＭＯＵＮＴＡＩＮ　ＪＡＭ合同会社,,合同会社,長崎県,大村市,田下町４６８番地５,,42,205,8560014,,,,,,,2021-11-25,1,,,,,マウンテンジャム,0
1617,6350001017432,新規,0,2021-11-25,2021-11-25,ひかり株式会社,,株式会社,宮崎県,延岡市,桜ケ丘２丁目５０６番地１６,,45,203,8820007,,,,,,,2021-11-25,1,,,,,ヒカリ,0
1622,6360003011597,新規,0,2021-11-25,2021-11-25,合同会社ＩＩＣ,,合同会社,沖縄県,那覇市,壺川３丁目４番１号田崎ビル２階,,47,201,9000025,,,,,,,2021-11-25,1,,,,,アイアイシー,0
1635,6462505000282,新規,0,2021-11-25,2021-11-25,特定非営利活動法人自然・文化遺産保存活用ネット,,その他の設立登記法人,北海道,標津郡標津町,南三条西１丁目１番６号,,01,693,0861653,,,,,,,2021-11-25,1,,,,,シゼンブンカイサンホゾンカツヨウネット,0
1650,7010001222726,新規,0,2021-11-25,2021-11-25,株式会社Ｓａｌｅｓ　ｓｙｎｅｒｇｙ,,株式会社,東京都,文京区,春日２丁目１２番５号,,13,105,1120003,,,,,,,2021-11-25,1,,,,,セールスシナジー,0
1651,7010001222750,新規,0,2021-11-25,2021-11-25,株式会社ｂｅＡｄｖｅｎｔｕｒｏｕｓ,,株式会社,東京都,文京区,本郷４丁目８番１７－８０６号,,13,105,1130033,,,,,,,2021-11-25,1,,,,,ビーアドベンチャラス,0
1652,7010001222783,新規,0,2021-11-25,2021-11-25,株式会社アレンジ,,株式会社,東京都,千代田区,神田紺屋町８ＮＣＯ神田紺屋町７Ｆ－７０２,,13,101,1010035,,,,,,,2021-11-25,1,,,,,アレンジ,0
1663,7010401163834,新規,0,2021-11-25,2021-11-25,株式会社ｔａｎａ,,株式会社,東京都,港区,南青山２丁目２番１５号,,13,103,1070062,,,,,,,2021-11-25,1,,,,,ターナ,0
1665,7010403026535,新規,0,2021-11-25,2021-11-25,合同会社ＭＡＣＯＳ．ＪＡＰＡＮ,,合同会社,東京都,港区,芝浦４丁目１２番３１号ＶＯＲＴ芝浦ＷａｔｅｒＦｒｏｎｔ４Ｆ,,13,103,1080023,,,,,,,2021-11-25,1,,,,,マコスジャパン,0
1666,7010403026584,新規,0,2021-11-25,2021-11-25,栗東湖南ＭＬ合同会社,,合同会社,東京都,港区,東新橋１丁目５番２号汐留シティセンター,,13,103,1050021,,,,,,,2021-11-25,1,,,,,リットウコナンエムエル,0
1667,7010405020437,新規,0,2021-11-25,2021-11-25,一般社団法人未病息災推進協会,,その他の設立登記法人,東京都,港区,赤坂３丁目１４番７号,,13,103,1070052,,,,,,,2021-11-25,1,,,,,ミビョウソクサイスイシンキョウカイ,0
1668,7010501048134,新規,0,2021-11-25,2021-11-25,株式会社ＫＵＲＡＰＥＫＯ,,株式会社,東京都,台東区,浅草６丁目２２番１４号,,13,106,1110032,,,,,,,2021-11-25,1,,,,,クラペコ,0
1683,7010901049839,新規,0,2021-11-25,2021-11-25,キャッシュレスＰａｙシステム株式会社,,株式会社,東京都,世田谷区,船橋２丁目１１番１５号,,13,112,1560055,,,,,,,2021-11-25,1,,,,,キャッシュレスペイシステム,0
1684,7010901049863,新規,0,2021-11-25,2021-11-25,株式会社エディトリアルデパートメント,,株式会社,東京都,世田谷区,弦巻４丁目３３番５－４０７号,,13,112,1540016,,,,,,,2021-11-25,1,,,,,エディトリアルデパートメント,0
1686,7011001144068,新規,0,2021-11-25,2021-11-25,株式会社阡寿,,株式会社,東京都,渋谷区,千駄ヶ谷３丁目５１番１０号,,13,113,1510051,,,,,,,2021-11-25,1,,,,,センジュ,0
1687,7011001144084,新規,0,2021-11-25,2021-11-25,ＭＯＳＴ　ＪＡＰＡＮ株式会社,,株式会社,東京都,渋谷区,桜丘町２６番１号,,13,113,1500031,,,,,,,2021-11-25,1,,,,,モストジャパン,0
1688,7011001144092,新規,0,2021-11-25,2021-11-25,株式会社スターチス,,株式会社,東京都,渋谷区,本町５丁目３５番６号,,13,113,1510071,,,,,,,2021-11-25,1,,,,,スターチス,0
1690,7011003013733,新規,0,2021-11-25,2021-11-25,ユーロンジャパン合同会社,,合同会社,東京都,渋谷区,神宮前６丁目２３番４号桑野ビル２Ｆ,,13,113,1500001,,,,,,,2021-11-25,1,,,,,ユーロンジャパン,0
1693,7011101096993,新規,0,2021-11-25,2021-11-25,株式会社ＩＱＴｉ,,株式会社,東京都,新宿区,赤城下町４５番地,,13,104,1620803,,,,,,,2021-11-25,1,,,,,イクティ,0
1701,7011201023435,新規,0,2021-11-25,2021-11-25,株式会社ＤＥＡＲ　ＪＡＰＡＮ,,株式会社,東京都,中野区,中央４丁目６番２４号グリーンヒル中野３０２,,13,114,1640011,,,,,,,2021-11-25,1,,,,,ディアージャパン,0
1703,7011303004218,新規,0,2021-11-25,2021-11-25,Ｋ＆Ａ合同会社,,合同会社,東京都,杉並区,和泉２丁目４６－１４,,13,115,1680063,,,,,,,2021-11-25,1,,,,,ケイアンドエー,0
1705,7011403003508,新規,0,2021-11-25,2021-11-25,合同会社コスメニア,,合同会社,東京都,板橋区,南常盤台１丁目１１－６レフア南常盤台１０１号室,,13,119,1740072,,,,,,,2021-11-25,1,,,,,コスメニア,0
1710,7011801040004,新規,0,2021-11-25,2021-11-25,赤坂建設株式会社,,株式会社,東京都,足立区,辰沼２丁目１６番２５号,,13,121,1210054,,,,,,,2021-11-25,1,,,,,アカサカケンセツ,0
1716,7012703002356,新規,0,2021-11-25,2021-11-25,Ｓｈｅｅｐ＆Ｃｏ．合同会社,,合同会社,東京都,東久留米市,中央町２丁目４番２７号ラ・メゾン・マロニエＤ－８,,13,222,2030054,,,,,,,2021-11-25,1,,,,,シープアンドコー,0
1731,7020001144044,新規,0,2021-11-25,2021-11-25,株式会社うらしま,,株式会社,神奈川県,横浜市戸塚区,矢部町１２７５番地,,14,110,2440002,,,,,,,2021-11-25,1,,,,,ウラシマ,0
1732,7020001144069,新規,0,2021-11-25,2021-11-25,株式会社Ｍ－ＡＬＬ,,株式会社,神奈川県,横浜市金沢区,釜利谷西３丁目５４番２７号,,14,108,2360046,,,,,,,2021-11-25,1,,,,,エムオール,0
1734,7021001074586,新規,0,2021-11-25,2021-11-25,株式会社ＯＮＥ　ＦＲＩＥＮＤバスケットボールスクール,,株式会社,神奈川県,相模原市南区,麻溝台７丁目８番１１－５号,,14,153,2520328,,,,,,,2021-11-25,1,,,,,ワンフレンドバスケットボールスクール,0
1757,7070001038670,新規,0,2021-11-25,2021-11-25,株式会社Ｈｕ‐ｍｏ,,株式会社,群馬県,前橋市,大手町２丁目１５番６号,,10,201,3710026,,,,,,,2021-11-25,1,,,,,ヒューモ,0
1759,7070003004308,新規,0,2021-11-25,2021-11-25,合同会社ＡＲＡＫＩ建築,,合同会社,群馬県,太田市,新田早川町５１４番地,,10,205,3700344,,,,,,,2021-11-25,1,,,,,アラキケンチク,0
1762,7080001024604,新規,0,2021-11-25,2021-11-25,株式会社ＧＬＡＤ,,株式会社,静岡県,静岡市駿河区,丸子１丁目６番２４号ライムライトＢ１０１号室,,22,102,4210103,,,,,,,2021-11-25,1,,,,,グラッド,0
1765,7080401025490,新規,0,2021-11-25,2021-11-25,株式会社ＹＭＳ,,株式会社,静岡県,浜松市東区,大蒲町８４－６,,22,132,4350014,,,,,,,2021-11-25,1,,,,,ワイエムエス,0
1768,7110001036216,新規,0,2021-11-25,2021-11-25,Ｌｕｖ．株式会社,,株式会社,新潟県,新潟市中央区,西堀通３番町７９９西堀カメリア１０６,,15,103,9518061,,,,,,,2021-11-25,1,,,,,ラヴ,0
1773,7110005016734,新規,0,2021-11-25,2021-11-25,一般社団法人Ｓｕｓｔａｉｎａｂｌｅ　Ｎｉｉｇａｔａ,,その他の設立登記法人,新潟県,新潟市中央区,本町通５番町２４８番地カセヤビル２階,,15,103,9518067,,,,,,,2021-11-25,1,,,,,サステイナブルニイガタ,0
1783,7120001242077,新規,0,2021-11-25,2021-11-25,株式会社ニニ,,株式会社,大阪府,大阪市北区,梅田２丁目２－２ヒルトンプラザウエストオフィスタワー１９階,,27,127,5300001,,,,,,,2021-11-25,1,,,,,ニニ,0
1784,7120001242085,新規,0,2021-11-25,2021-11-25,株式会社藤山商事,,株式会社,大阪府,大阪市天王寺区,南河堀町１番９号２０１室,,27,109,5430054,,,,,,,2021-11-25,1,,,,,フジヤマショウジ,0
1786,7120003020646,新規,0,2021-11-25,2021-11-25,合同会社アネコム,,合同会社,大阪府,大阪市北区,中津１丁目６番２９－１００３号,,27,127,5310071,,,,,,,2021-11-25,1,,,,,アネコム,0
1787,7120003020654,新規,0,2021-11-25,2021-11-25,合同会社アネダス,,合同会社,大阪府,大阪市北区,中津１丁目６番２９－１００３号,,27,127,5310071,,,,,,,2021-11-25,1,,,,,アネダス,0
1788,7120003020662,新規,0,2021-11-25,2021-11-25,合同会社援満,,合同会社,大阪府,大阪市城東区,蒲生１丁目３番９号,,27,118,5360016,,,,,,,2021-11-25,1,,,,,エンマン,0
1790,7120101064693,新規,0,2021-11-25,2021-11-25,Ｆメンテナンス株式会社,,株式会社,大阪府,堺市東区,丈六３１１－１１,,27,143,5998122,,,,,,,2021-11-25,1,,,,,エフメンテナンス,0
1795,7120901045257,新規,0,2021-11-25,2021-11-25,株式会社Ｆｕｎ＆Ｍｏｖｉｎｇ,,株式会社,大阪府,豊中市,上野西１丁目９番１２号,,27,203,5600011,,,,,,,2021-11-25,1,,,,,ファンアンドムーヴィング,0
1797,7122001035378,新規,0,2021-11-25,2021-11-25,株式会社バード体操クラブ,,株式会社,大阪府,東大阪市,鴻池元町２番２号２Ｆ,,27,227,5780974,,,,,,,2021-11-25,1,,,,,バードタイソウクラブ,0
1802,7130001070568,新規,0,2021-11-25,2021-11-25,株式会社ＫＴ,,株式会社,京都府,宇治市,小倉町南浦３０番地の１２３,,26,204,6110042,,,,,,,2021-11-25,1,,,,,ケーティー,0
1803,7130001070601,新規,0,2021-11-25,2021-11-25,株式会社鳥忠,,株式会社,京都府,京都市中京区,木屋町通四条上る三丁目材木町１９０番地永吉木屋町ビル１階,,26,104,6040000,,,,,,,2021-11-25,1,,,,,トリチュウ,0
1804,7130003007601,新規,0,2021-11-25,2021-11-25,エバーオンワード合同会社,,合同会社,京都府,京都市南区,唐橋花園町６５番地５,,26,107,6018465,,,,,,,2021-11-25,1,,,,,,0
1807,7140001123936,新規,0,2021-11-25,2021-11-25,株式会社ＮＥＸＴＡＧＥ,,株式会社,兵庫県,豊岡市,出石町日野辺７７６番地の１４,,28,209,6680246,,,,,,,2021-11-25,1,,,,,ネクステージ,0
1808,7140001123952,新規,0,2021-11-25,2021-11-25,日本海洋国際株式会社,,株式会社,兵庫県,神戸市中央区,港島中町３丁目２番１号６６－８１１,,28,110,6500046,,,,,,,2021-11-25,1,,,,,ニホンカイヨウコクサイ,0
1809,7140001123993,新規,0,2021-11-25,2021-11-25,株式会社ＢｉｇＪｏ,,株式会社,兵庫県,神戸市垂水区,福田１丁目２－２４－２０２,,28,108,6550013,,,,,,,2021-11-25,1,,,,,ビッグジョー,0
1812,7140003016923,新規,0,2021-11-25,2021-11-25,合同会社ｍａａｎｅ,,合同会社,兵庫県,西宮市,羽衣町１－１４,,28,204,6620051,,,,,,,2021-11-25,1,,,,,マーネ,0
1813,7140003017021,新規,0,2021-11-25,2021-11-25,Ｓｈｉｎｙ＆Ｃｏ合同会社,,合同会社,兵庫県,神戸市東灘区,住吉山手１丁目９－３５,,28,101,6580063,,,,,,,2021-11-25,1,,,,,シャイニーアンドコー,0
1814,7150003002550,新規,0,2021-11-25,2021-11-25,合同会社きっと明日も,,合同会社,奈良県,奈良市,学園南２丁目１３番１４号,,29,201,6310034,,,,,,,2021-11-25,1,,,,,キットアシタモ,0
1816,7160001023829,新規,0,2021-11-25,2021-11-25,株式会社ＲＥＳＴＡＲＴ,,株式会社,滋賀県,大津市,雄琴５丁目１６番６０号,,25,201,5200101,,,,,,,2021-11-25,1,,,,,リスタート,0
1820,7180001148847,新規,0,2021-11-25,2021-11-25,株式会社ＩＬＬＵＭＩＮＡＴＥ,,株式会社,愛知県,名古屋市中区,栄４丁目１５番１４号栄ハイホーム８０５,,23,106,4600008,,,,,,,2021-11-25,1,,,,,イルミネート,0
1821,7180001148871,新規,0,2021-11-25,2021-11-25,株式会社ｈｅａｒｔｓｔｒｉｎｇｓ,,株式会社,愛知県,名古屋市東区,主税町２丁目３番地法務総合ビル５０１号,,23,102,4610018,,,,,,,2021-11-25,1,,,,,ハートストリングス,0
1832,7180305009266,新規,0,2021-11-25,2021-11-25,ＮＰＯ法人ほのぼのふぁみりー,,その他の設立登記法人,愛知県,安城市,横山町横山１５９番地,,23,212,4460045,,,,,,,2021-11-25,1,,,,,ホノボノファミリー,0
1835,7190001028882,新規,0,2021-11-25,2021-11-25,株式会社結び,,株式会社,三重県,四日市市,日永西５丁目６－１,,24,202,5100891,,,,,,,2021-11-25,1,,,,,ムスビ,0
1841,7210001018708,新規,0,2021-11-25,2021-11-25,株式会社萬屋,,株式会社,福井県,福井市,豊岡１丁目１１番１０号斉藤第３ハイツ２０２,,18,201,9100027,,,,,,,2021-11-25,1,,,,,ヨロズヤ,0
1844,7230003001759,新規,0,2021-11-25,2021-11-25,合同会社ＰＭＴ,,合同会社,富山県,滑川市,開７５４番地６,,16,206,9360835,,,,,,,2021-11-25,1,,,,,ピーエムティ,0
1854,7250003002945,新規,0,2021-11-25,2021-11-25,合同会社アイゲンザイン,,合同会社,山口県,山陽小野田市,日の出１丁目１番３３号,,35,216,7560091,,,,,,,2021-11-25,1,,,,,アイゲンザイン,0
1858,7290001095525,新規,0,2021-11-25,2021-11-25,株式会社フォギー,,株式会社,福岡県,福岡市中央区,大名２丁目６番１１号,,40,133,8100041,,,,,,,2021-11-25,1,,,,,フォギー,0
1862,7290801028023,新規,0,2021-11-25,2021-11-25,オフィスＨＯＮＵ株式会社,,株式会社,福岡県,田川郡香春町,大字中津原２８０５番地８,,40,601,8221405,,,,,,,2021-11-25,1,,,,,オフィスホヌ,0
1873,7340001024288,新規,0,2021-11-25,2021-11-25,株式会社ＭＳ工房,,株式会社,鹿児島県,鹿児島市,川上町１５７４番地,,46,201,8920875,,,,,,,2021-11-25,1,,,,,エムエスコウボウ,0
1874,7340003003637,新規,0,2021-11-25,2021-11-25,ＫＯＭＥＸ合同会社,,合同会社,鹿児島県,姶良市,東餅田１２６２番地２,,46,225,8995421,,,,,,,2021-11-25,1,,,,,コメックス,0
1876,7350001017431,新規,0,2021-11-25,2021-11-25,株式会社Ｓｏｕｔｈ　ＡＴＨＥＮＡ,,株式会社,宮崎県,都城市,都原町７３２０番地１,,45,202,8850094,,,,,,,2021-11-25,1,,,,,サウスアテナ,0
1899,7470003002080,新規,0,2021-11-25,2021-11-25,合同会社最中,,合同会社,香川県,坂出市,西庄町６９６番地１０,,37,203,7620021,,,,,,,2021-11-25,1,,,,,サナカ,0
1900,7470005006393,新規,0,2021-11-25,2021-11-25,特定非営利活動法人善通寺市スポーツコミュニティークラブ,,その他の設立登記法人,香川県,善通寺市,生野本町２丁目２番１２号,,37,204,7650014,,,,,,,2021-11-25,1,,,,,ゼンツウジシスポーツコミュニティークラブ,0
1902,7490003001601,新規,0,2021-11-25,2021-11-25,合同会社Ｗａｙｆａｒｅｒ,,合同会社,高知県,南国市,国分１２７７番地５,,39,204,7830053,,,,,,,2021-11-25,1,,,,,ウェイフェーラー,0
1905,7700150105959,新規,0,2021-11-25,2021-11-25,Ｎ．Ｓ．Ｋ．ＡＰＰＡＲＥＬ　ＥＮＴＥＲＰＲＩＳＥＳ,,外国会社等,千葉県,山武郡九十九里町,藤下９５６番地５オフィスＡ号,,12,403,2830112,スリランカ民主社会主義共和国、キャンディ、カトゥガストタ、ガッラワッタ、２１０,,,,,,2021-11-25,1,,,,,エヌエスケーアツパレルエンタープライセス,0
1911,8010001222733,新規,0,2021-11-25,2021-11-25,株式会社ＭＯＶＩＭＯ,,株式会社,東京都,中央区,銀座１丁目２７番８号,,13,102,1040061,,,,,,,2021-11-25,1,,,,,モビモ,0
1912,8010001222741,新規,0,2021-11-25,2021-11-25,株式会社ＪＩＧＥＮ,,株式会社,東京都,千代田区,神田佐久間町２丁目２４番地千代田ブリスビル３階,,13,101,1010025,,,,,,,2021-11-25,1,,,,,ジゲン,0
1913,8010001222774,新規,0,2021-11-25,2021-11-25,株式会社ジャスティン,,株式会社,東京都,千代田区,内幸町１丁目１番１号帝国ホテルタワー,,13,101,1000011,,,,,,,2021-11-25,1,,,,,ジャスティン,0
1914,8010001222832,新規,0,2021-11-25,2021-11-25,株式会社ルミライズ,,株式会社,東京都,中央区,銀座３丁目１１番１９－８０２号,,13,102,1040061,,,,,,,2021-11-25,1,,,,,ルミライズ,0
1932,8010403026583,新規,0,2021-11-25,2021-11-25,合同会社ハーブス,,合同会社,東京都,港区,虎ノ門３丁目２２番１０－２０１号,,13,103,1050001,,,,,,,2021-11-25,1,,,,,ハーブス,0
1935,8010503006436,新規,0,2021-11-25,2021-11-25,合同会社Ｒｅｐｌａｙ,,合同会社,東京都,台東区,上野２丁目５番３号ＳＮビル３階,,13,106,1100005,,,,,,,2021-11-25,1,,,,,リプレイ,0
1940,8010601060293,新規,0,2021-11-25,2021-11-25,株式会社碓井企画,,株式会社,東京都,江東区,大島８丁目３７番３号,,13,108,1360072,,,,,,,2021-11-25,1,,,,,ウスイキカク,0
1945,8010901049862,新規,0,2021-11-25,2021-11-25,株式会社あるく,,株式会社,東京都,世田谷区,玉川３丁目２０番４号グランフォレ３Ｄ,,13,112,1580094,,,,,,,2021-11-25,1,,,,,アルク,0
1946,8010901049870,新規,0,2021-11-25,2021-11-25,株式会社サンゾウ,,株式会社,東京都,世田谷区,北沢３丁目１９番２０号ｒｅｌｏａｄ１－７,,13,112,1550031,,,,,,,2021-11-25,1,,,,,サンゾウ,0
1947,8010903006960,新規,0,2021-11-25,2021-11-25,合同会社ＫＩＡＣＯＮＳ,,合同会社,東京都,世田谷区,宮坂３丁目１５－６カンタ・ラーモ２０３,,13,112,1560051,,,,,,,2021-11-25,1,,,,,キアコンズ,0
1952,8011001143969,新規,0,2021-11-25,2021-11-25,株式会社めぐりっつ,,株式会社,東京都,渋谷区,宇田川町３番７号ヒューリック渋谷公園通りビル５Ｆ－１９,,13,113,1500042,,,,,,,2021-11-25,1,,,,,メグリッツ,0
1953,8011001144166,新規,0,2021-11-25,2021-11-25,株式会社ｕｎｉ,,株式会社,東京都,渋谷区,神宮前４丁目１１－１３－Ｂ１,,13,113,1500001,,,,,,,2021-11-25,1,,,,,ユニ,0
1954,8011001144190,新規,0,2021-11-25,2021-11-25,ＡＯＩ株式会社,,株式会社,東京都,渋谷区,広尾５丁目１８番１０号広尾ピア柴田８０１,,13,113,1500012,,,,,,,2021-11-25,1,,,,,エーオーアイ,0
1955,8011001144208,新規,0,2021-11-25,2021-11-25,株式会社ＮＤＲＨＤ,,株式会社,東京都,渋谷区,恵比寿西１丁目１８番３号,,13,113,1500021,,,,,,,2021-11-25,1,,,,,エヌディーアールエイチディー,0
1956,8011003013732,新規,0,2021-11-25,2021-11-25,ｆｉｎ合同会社,,合同会社,東京都,渋谷区,渋谷２丁目１９－１５宮益坂ビルディング６０９,,13,113,1500002,,,,,,,2021-11-25,1,,,,,ファン,0
1957,8011003013740,新規,0,2021-11-25,2021-11-25,合同会社Ａｐｐｌａｕｓｅ,,合同会社,東京都,渋谷区,渋谷１丁目１－３,,13,113,1500002,,,,,,,2021-11-25,1,,,,,アプローズ,0
1961,8011105010058,新規,0,2021-11-25,2021-11-25,一般社団法人不動産分析センター,,その他の設立登記法人,東京都,新宿区,住吉町５番７－５０１号,,13,104,1620065,,,,,,,2021-11-25,1,,,,,フドウサンブンセキセンター,0
1962,8011201023434,新規,0,2021-11-25,2021-11-25,株式会社Ｌｕｃｋｇｒａｐｈｙ,,株式会社,東京都,中野区,中野２丁目１７番１０号,,13,114,1640001,,,,,,,2021-11-25,1,,,,,ラックグラフィー,0
1965,8011501027507,新規,0,2021-11-25,2021-11-25,株式会社フリーダム,,株式会社,東京都,荒川区,東日暮里５丁目５２番６号日経商事ビル７０２号室,,13,118,1160014,,,,,,,2021-11-25,1,,,,,フリーダム,0
1967,8012301012780,新規,0,2021-11-25,2021-11-25,株式会社クローバー,,株式会社,東京都,町田市,南町田１丁目４番３号,,13,209,1940005,,,,,,,2021-11-25,1,,,,,クローバー,0
1971,8013101008779,新規,0,2021-11-25,2021-11-25,株式会社ＹＭＯカンパニー,,株式会社,東京都,西多摩郡瑞穂町,大字石畑１７４８番地１,,13,303,1901211,,,,,,,2021-11-25,1,,,,,ワイエムオーカンパニー,0
1976,8013301048336,新規,0,2021-11-25,2021-11-25,株式会社衣服知能,,株式会社,東京都,豊島区,東池袋２丁目６２番８号ＢＩＧオフィスプラザ池袋１１０２,,13,116,1700013,,,,,,,2021-11-25,1,,,,,イフクチノウ,0
1984,8020001144043,新規,0,2021-11-25,2021-11-25,株式会社ウィンパルス,,株式会社,神奈川県,横浜市港北区,日吉本町６丁目５番３号,,14,109,2230062,,,,,,,2021-11-25,1,,,,,ウィンパルス,0
1985,8020001144076,新規,0,2021-11-25,2021-11-25,シーエイチオー株式会社,,株式会社,神奈川県,横浜市中区,扇町２丁目５番地１４Ｙ’ｓトレゾワ関内６０２号,,14,104,2310027,,,,,,,2021-11-25,1,,,,,シーエイチオー,0
1990,8021001074552,新規,0,2021-11-25,2021-11-25,株式会社ミヤビコーポレーション,,株式会社,神奈川県,相模原市南区,上鶴間本町３丁目１４番地－田園コーポ１０１号,,14,153,2520318,,,,,,,2021-11-25,1,,,,,ミヤビコーポレーション,0
1991,8021001074577,新規,0,2021-11-25,2021-11-25,Ｋ＆Ｋコンサルティング株式会社,,株式会社,神奈川県,相模原市緑区,橋本２丁目１３番１０号,,14,151,2520143,,,,,,,2021-11-25,1,,,,,ケーアンドケーコンサルティング,0
1992,8021001074585,新規,0,2021-11-25,2021-11-25,Ｂ．Ｍ．Ｏ株式会社,,株式会社,神奈川県,厚木市,鳶尾２丁目５－１０,,14,212,2430204,,,,,,,2021-11-25,1,,,,,,0
1993,8021001074593,新規,0,2021-11-25,2021-11-25,株式会社Ｊｏｕｒｎｅｙ,,株式会社,神奈川県,大和市,南林間１丁目１９番１６号・石井ビル１０１,,14,213,2420006,,,,,,,2021-11-25,1,,,,,ジャーニー,0
1994,8021003011124,新規,0,2021-11-25,2021-11-25,ＴＹＤ合同会社,,合同会社,神奈川県,相模原市南区,麻溝台６丁目８番８号レオパレス麻溝台２０１,,14,153,2520328,,,,,,,2021-11-25,1,,,,,ティーワイディー,0
2001,8040001121098,新規,0,2021-11-25,2021-11-25,株式会社トーシン,,株式会社,千葉県,流山市,南流山６丁目１３番地の１,,12,220,2700163,,,,,,,2021-11-25,1,,,,,トーシン,0
2002,8040001121115,新規,0,2021-11-25,2021-11-25,株式会社品川商会,,株式会社,千葉県,船橋市,浜町１丁目９番１１号,,12,204,2730012,,,,,,,2021-11-25,1,,,,,シナガワショウカイ,0
2008,8040003018986,新規,0,2021-11-25,2021-11-25,合同会社鷹尾企画,,合同会社,千葉県,浦安市,堀江４丁目３３―３５―３０３,,12,227,2790041,,,,,,,2021-11-25,1,,,,,タカオキカク,0
2009,8050001050189,新規,0,2021-11-25,2021-11-25,株式会社近代モーター,,株式会社,茨城県,水戸市,城東２丁目１２番３３号,,08,201,3100012,,,,,,,2021-11-25,1,,,,,キンダイモーター,0
2011,8050003006214,新規,0,2021-11-25,2021-11-25,合同会社ｋｕｋｕｎｕ,,合同会社,茨城県,取手市,青柳１丁目５番２６－１号,,08,217,3020006,,,,,,,2021-11-25,1,,,,,ククヌ,0
2012,8050003006222,新規,0,2021-11-25,2021-11-25,合同会社嘉多山事務所,,合同会社,茨城県,土浦市,桜町１丁目１５番１１号,,08,203,3000037,,,,,,,2021-11-25,1,,,,,カタヤマジムショ,0
2015,8060001034315,新規,0,2021-11-25,2021-11-25,株式会社ＴＭＴ,,株式会社,栃木県,宇都宮市,石井町２９１１番地１４,,09,201,3210912,,,,,,,2021-11-25,1,,,,,ティーエムティー,0
2016,8060001034323,新規,0,2021-11-25,2021-11-25,株式会社未来ＭＩＲＡＩ,,株式会社,栃木県,佐野市,堀米町３６７９番地静庵四１０１号室,,09,204,3270843,,,,,,,2021-11-25,1,,,,,ミライミライ,0
2023,8070001038678,新規,0,2021-11-25,2021-11-25,Ｃｅａｄｓ株式会社,,株式会社,群馬県,前橋市,五代町６７２番４,,10,201,3710132,,,,,,,2021-11-25,1,,,,,シーズ,0
2026,8080001024603,新規,0,2021-11-25,2021-11-25,エムオーサービス．プラス株式会社,,株式会社,静岡県,榛原郡吉田町,片岡２３７０番,,22,424,4210303,,,,,,,2021-11-25,1,,,,,エムオーサービスプラス,0
2028,8080101022936,新規,0,2021-11-25,2021-11-25,御殿場珈琲株式会社,,株式会社,静岡県,御殿場市,大坂３６７番地の４３,,22,215,4120034,,,,,,,2021-11-25,1,,,,,ゴテンバコーヒー,0
2030,8080103002465,新規,0,2021-11-25,2021-11-25,合同会社テラス,,合同会社,静岡県,富士市,島田町１丁目５０番地,,22,210,4170033,,,,,,,2021-11-25,1,,,,,テラス,0
2037,8100001034839,新規,0,2021-11-25,2021-11-25,株式会社アルバード,,株式会社,長野県,東筑摩郡山形村,４１７１番地１５,,20,450,3901301,,,,,,,2021-11-25,1,,,,,アルバード,0
2055,8120001242076,新規,0,2021-11-25,2021-11-25,株式会社ＵＷ,,株式会社,大阪府,大阪市港区,弁天２丁目５番６号,,27,107,5520007,,,,,,,2021-11-25,1,,,,,ユーダブリュー,0
2060,8120003020645,新規,0,2021-11-25,2021-11-25,合同会社アネスター,,合同会社,大阪府,大阪市北区,中津１丁目６番２９－１００３号,,27,127,5310071,,,,,,,2021-11-25,1,,,,,アネスター,0
2061,8120003020653,新規,0,2021-11-25,2021-11-25,合同会社アネスドア,,合同会社,大阪府,大阪市北区,中津１丁目６番２９－１００３号,,27,127,5310071,,,,,,,2021-11-25,1,,,,,アネスドア,0
2062,8120003020661,新規,0,2021-11-25,2021-11-25,合同会社Ｓｔａｒ　Ｓｏｌｕｔｉｏｎｓ,,合同会社,大阪府,大阪市中央区,石町１丁目１番１号,,27,128,5400033,,,,,,,2021-11-25,1,,,,,スターソリューションズ,0
2069,8120101064692,新規,0,2021-11-25,2021-11-25,ＴＫ企画株式会社,,株式会社,大阪府,藤井寺市,津堂２丁目６番１８号,,27,226,5830037,,,,,,,2021-11-25,1,,,,,ティーケーキカク,0
2074,8120901045256,新規,0,2021-11-25,2021-11-25,シコウテック株式会社,,株式会社,大阪府,摂津市,鳥飼八防２丁目１１－３,,27,224,5660054,,,,,,,2021-11-25,1,,,,,シコウテック,0
2075,8120903003914,新規,0,2021-11-25,2021-11-25,合同会社ＨＡＧＩＨＡＲＡ,,合同会社,大阪府,豊中市,中桜塚２丁目２７－８,,27,203,5610881,,,,,,,2021-11-25,1,,,,,ハギハラ,0
2078,8122001035377,新規,0,2021-11-25,2021-11-25,株式会社Ｏｚ,,株式会社,大阪府,八尾市,萱振町３丁目１３１番地の２,,27,212,5810834,,,,,,,2021-11-25,1,,,,,オズ,0
2079,8130001070591,新規,0,2021-11-25,2021-11-25,一恵株式会社,,株式会社,京都府,京都市右京区,嵯峨天龍寺北造路町１番地ジオ京都嵯峨嵐山４０５号室,,26,108,6168374,,,,,,,2021-11-25,1,,,,,ヒトエ,0
2085,8140001123951,新規,0,2021-11-25,2021-11-25,株式会社植広園,,株式会社,兵庫県,伊丹市,荻野１丁目１７２番地の１,,28,207,6640002,,,,,,,2021-11-25,1,,,,,ショクコウエン,0
2087,8140003017012,新規,0,2021-11-25,2021-11-25,合同会社ＮＥＸＴ　ＴＯＮＥ,,合同会社,兵庫県,伊丹市,荒牧２丁目１番２４号,,28,207,6640001,,,,,,,2021-11-25,1,,,,,ネクストトーン,0
2088,8140003017029,新規,0,2021-11-25,2021-11-25,Ｎラボラトリーズ合同会社,,合同会社,兵庫県,神戸市中央区,山本通４丁目３番２０号,,28,110,6500003,,,,,,,2021-11-25,1,,,,,エヌラボラトリーズ,0
2089,8140005025896,新規,0,2021-11-25,2021-11-25,医療法人社団ＥＭＩＦＵＬＬ,,その他の設立登記法人,兵庫県,西宮市,神楽町１１番２５号ステーションビルディング３階,,28,204,6620977,,,,,,,2021-11-25,1,,,,,エミフル,0
2092,8170001016871,新規,0,2021-11-25,2021-11-25,株式会社ｃｏｍｅ　ｆａｃｔｏｒｙ,,株式会社,和歌山県,和歌山市,岩橋５５５番地５,,30,201,6408301,,,,,,,2021-11-25,1,,,,,カムファクトリー,0
2101,8180001148805,新規,0,2021-11-25,2021-11-25,株式会社勇建,,株式会社,愛知県,小牧市,大字西之島１８９８番地１ＧＯＹＵビル２Ｆ,,23,219,4850077,,,,,,,2021-11-25,1,,,,,ユウケン,0
2102,8180001148846,新規,0,2021-11-25,2021-11-25,株式会社ＪＡＭ,,株式会社,愛知県,一宮市,浅野字大島１２番地,,23,203,4910871,,,,,,,2021-11-25,1,,,,,ジャム,0
2103,8180001148862,新規,0,2021-11-25,2021-11-25,株式会社Ｉ　ａｍ,,株式会社,愛知県,名古屋市西区,名駅１丁目１番１７号名駅ダイヤメイテツビル１１階,,23,104,4510045,,,,,,,2021-11-25,1,,,,,アイアム,0
2109,8190001028881,新規,0,2021-11-25,2021-11-25,藤博不動産株式会社,,株式会社,三重県,名張市,百合が丘東３番町７９番地,,24,208,5180473,,,,,,,2021-11-25,1,,,,,フジヒロフドウサン,0
2110,8190005011644,新規,0,2021-11-25,2021-11-25,特定非営利活動法人障がい者支援の輪ののはな,,その他の設立登記法人,三重県,いなべ市,北勢町麓村２８１番地２,,24,214,5110434,,,,,,,2021-11-25,1,,,,,ショウガイシャシエンノワノノハナ,0
2123,8290001095508,新規,0,2021-11-25,2021-11-25,株式会社ＡＲＬＵＥ,,株式会社,福岡県,福岡市中央区,薬院３丁目１４－２１　２０１号室,,40,133,8100022,,,,,,,2021-11-25,1,,,,,アールイー,0
2127,8290003011859,新規,0,2021-11-25,2021-11-25,ルカ・アルキテクト合同会社,,合同会社,福岡県,福岡市中央区,天神２丁目３番１０号天神パインクレスト７１９号,,40,133,8100001,,,,,,,2021-11-25,1,,,,,ルカアルキテクト,0
2128,8290003011867,新規,0,2021-11-25,2021-11-25,はなおもい商事合同会社,,合同会社,福岡県,福岡市東区,美和台４丁目５番１号,,40,131,8110212,,,,,,,2021-11-25,1,,,,,ハナオモイショウジ,0
2130,8290803003997,新規,0,2021-11-25,2021-11-25,合同会社ＡＳＴ,,合同会社,福岡県,北九州市小倉北区,木町３丁目１３番２０号,,40,106,8030851,,,,,,,2021-11-25,1,,,,,エーエスティ,0
2133,8340001024287,新規,0,2021-11-25,2021-11-25,株式会社ジョイント,,株式会社,鹿児島県,薩摩川内市,西向田町４番６号２Ｆ,,46,215,8950027,,,,,,,2021-11-25,1,,,,,ジョイント,0
2134,8350003003973,新規,0,2021-11-25,2021-11-25,パシフィックインポート合同会社,,合同会社,宮崎県,宮崎市,矢の先町１２２－１パークビル３０５号,,45,201,8800034,,,,,,,2021-11-25,1,,,,,パシフィックインポート,0
2138,8360003011587,新規,0,2021-11-25,2021-11-25,合同会社ンナピマイ,,合同会社,沖縄県,宮古島市,平良字東仲宗根７８１－２砂川アパート１０２,,47,214,9060007,,,,,,,2021-11-25,1,,,,,,0
2141,8370001047863,新規,0,2021-11-25,2021-11-25,株式会社リベタス,,株式会社,宮城県,角田市,角田字泉町３４番地３,,04,208,9811505,,,,,,,2021-11-25,1,,,,,リベタス,0
2142,8370001047871,新規,0,2021-11-25,2021-11-25,楽天モバイルカスタマーサービス株式会社,,株式会社,宮城県,仙台市青葉区,中央１丁目６番２８号,,04,101,9800021,,,,,,,2021-11-25,1,,,,,ラクテンモバイルカスタマーサービス,0
2155,8430001085436,新規,0,2021-11-25,2021-11-25,株式会社ＲＯＹＡＬＳＰＡＣＥ,,株式会社,北海道,虻田郡ニセコ町,字曽我７５６番地１４,,01,395,0481522,,,,,,,2021-11-25,1,,,,,ロイヤルスペース,0
2158,8450005004316,新規,0,2021-11-25,2021-11-25,一般社団法人ペニウンクル,,その他の設立登記法人,北海道,上川郡上川町,西町１８番地１,,01,457,0781742,,,,,,,2021-11-25,1,,,,,ペニウンクル,0
2161,8460303000742,新規,0,2021-11-25,2021-11-25,合同会社アグリロテート,,合同会社,北海道,網走郡美幌町,字報徳９４番地北海道美幌高等学校,,01,543,0920017,,,,,,,2021-11-25,1,,,,,アグリロテート,0
2165,8500001023834,新規,0,2021-11-25,2021-11-25,株式会社ＳｔｅｐＵｐ,,株式会社,愛媛県,松山市,二番町１丁目１２番地５,,38,201,7900002,,,,,,,2021-11-25,1,,,,,ステップアップ,0
2174,9010001222732,新規,0,2021-11-25,2021-11-25,株式会社ＳＯＲＡ,,株式会社,東京都,千代田区,永田町２丁目１７番１０号２Ｆ,,13,101,1000014,,,,,,,2021-11-25,1,,,,,ソラ,0
2175,9010001222740,新規,0,2021-11-25,2021-11-25,マフテック株式会社,,株式会社,東京都,千代田区,大手町１丁目６番１号,,13,101,1000004,,,,,,,2021-11-25,1,,,,,マフテック,0
2180,9010003036379,新規,0,2021-11-25,2021-11-25,合同会社ＡＬＩＶＥ１,,合同会社,東京都,中央区,八丁堀４丁目２番１０号ＡＯＪ税理士法人内,,13,102,1040032,,,,,,,2021-11-25,1,,,,,アライブワン,0
2196,9010501048140,新規,0,2021-11-25,2021-11-25,株式会社つるや商事,,株式会社,東京都,台東区,東上野１丁目７番２号,,13,106,1100015,,,,,,,2021-11-25,1,,,,,ツルヤショウジ,0
2203,9010801032521,新規,0,2021-11-25,2021-11-25,株式会社ヒルブック・カンパニー,,株式会社,東京都,大田区,山王２丁目１－８山王アーバンライフ１２０１,,13,111,1430023,,,,,,,2021-11-25,1,,,,,ヒルブックカンパニー,0
2209,9010903006968,新規,0,2021-11-25,2021-11-25,合同会社ａｎｄＣＵＲＲＹ,,合同会社,東京都,世田谷区,羽根木１丁目２１－２４亀甲新い１Ｆ,,13,112,1560042,,,,,,,2021-11-25,1,,,,,アンドカリー,0
2215,9011001144207,新規,0,2021-11-25,2021-11-25,ＧＵＦＯ株式会社,,株式会社,東京都,渋谷区,幡ヶ谷３丁目３９番１２号渋谷ウェストビル１階,,13,113,1510072,,,,,,,2021-11-25,1,,,,,グーフォ,0
2217,9011003013756,新規,0,2021-11-25,2021-11-25,ＡＡＡ合同会社,,合同会社,東京都,渋谷区,笹塚１丁目２９番３号ＳＳ－Ｄ６０２,,13,113,1510073,,,,,,,2021-11-25,1,,,,,トリプルエー,0
2219,9011105010057,新規,0,2021-11-25,2021-11-25,一般社団法人日本パブリックリレーションズ学会,,その他の設立登記法人,東京都,新宿区,四谷４丁目２８番地４ＹＫＢエンサインビル１２Ｆ,,13,104,1600004,,,,,,,2021-11-25,1,,,,,ニホンパブリックリレーションズガッカイ,0
2224,9011501027506,新規,0,2021-11-25,2021-11-25,株式会社ＰＨＡＮ　ＤＵＣ,,株式会社,東京都,荒川区,西尾久１丁目２１番６号,,13,118,1160011,,,,,,,2021-11-25,1,,,,,ファンドック,0
2229,9011701024864,新規,0,2021-11-25,2021-11-25,住活本舗株式会社,,株式会社,東京都,江戸川区,北小岩７丁目１９番２号,,13,123,1330051,,,,,,,2021-11-25,1,,,,,ジュウカツホンポ,0
2236,9012401038568,新規,0,2021-11-25,2021-11-25,株式会社Ａ＆Ｄコンサルティングサービス,,株式会社,東京都,武蔵野市,中町１丁目１０番７号武蔵野Ｋビル３階,,13,203,1800006,,,,,,,2021-11-25,1,,,,,エーアンドディーコンサルティングサービス,0
2238,9012801021231,新規,0,2021-11-25,2021-11-25,Ｆｏｒｅｓｔａ株式会社,,株式会社,東京都,国立市,東２丁目２３番地の１４,,13,215,1860002,,,,,,,2021-11-25,1,,,,,フォレスタ,0
2242,9013303005920,新規,0,2021-11-25,2021-11-25,ＨＡＮＡＫＯ　ＳＨＯＰ合同会社,,合同会社,東京都,豊島区,南池袋１丁目９番１８号３３９号室,,13,116,1710022,,,,,,,2021-11-25,1,,,,,ハナコショップ,0
2250,9020003020877,新規,0,2021-11-25,2021-11-25,合同会社こころ,,合同会社,神奈川県,横浜市神奈川区,三ツ沢南町２０番３０号,,14,102,2210854,,,,,,,2021-11-25,1,,,,,ココロ,0
2253,9021001074485,新規,0,2021-11-25,2021-11-25,株式会社Ｒａｓｈｉｃ,,株式会社,神奈川県,相模原市中央区,相模原５丁目７番３号,,14,152,2520231,,,,,,,2021-11-25,1,,,,,ラシック,0
2254,9021001074568,新規,0,2021-11-25,2021-11-25,株式会社エフテン,,株式会社,神奈川県,相模原市中央区,相模原６丁目２４番４号ＣＲＥＳＣＯ相模原２０１,,14,152,2520231,,,,,,,2021-11-25,1,,,,,エフテン,0
2255,9021001074584,新規,0,2021-11-25,2021-11-25,株式会社マーケティングブレインズ,,株式会社,神奈川県,小田原市,栄町２丁目１２－３,,14,206,2500011,,,,,,,2021-11-25,1,,,,,マーケティングブレインズ,0
2272,9040001121097,新規,0,2021-11-25,2021-11-25,まごころ介護株式会社,,株式会社,千葉県,佐倉市,表町３丁目２０番地１,,12,212,2850811,,,,,,,2021-11-25,1,,,,,マゴコロカイゴ,0
2275,9040005021442,新規,0,2021-11-25,2021-11-25,一般社団法人さくら猫の会,,その他の設立登記法人,千葉県,船橋市,三山９丁目４３番１号,,12,204,2740072,,,,,,,2021-11-25,1,,,,,サクラネコノカイ,0
2278,9060001034314,新規,0,2021-11-25,2021-11-25,株式会社ｄａｄａ・Ｄ,,株式会社,栃木県,宇都宮市,駒生町３３５８番地３セジュールウエサワＡ２０１,,09,201,3200065,,,,,,,2021-11-25,1,,,,,ダダディー,0
2279,9060001034322,新規,0,2021-11-25,2021-11-25,株式会社ＫＥＹ　Ｃｏｍｐａｎｙ,,株式会社,栃木県,宇都宮市,睦町１０番１５号,,09,201,3200865,,,,,,,2021-11-25,1,,,,,キーカンパニー,0
2280,9070001038677,新規,0,2021-11-25,2021-11-25,株式会社ＳＯＬＡＲＴ,,株式会社,群馬県,高崎市,和田多中町２４９番地,,10,202,3700844,,,,,,,2021-11-25,1,,,,,ソラート,0
2303,9120001242067,新規,0,2021-11-25,2021-11-25,唯睿文化株式会社,,株式会社,大阪府,大阪市生野区,巽北１丁目１番１号２Ｆ－Ｇ,,27,116,5440004,,,,,,,2021-11-25,1,,,,,ユイエイブンカ,0
2304,9120001242083,新規,0,2021-11-25,2021-11-25,長松株式会社,,株式会社,大阪府,大阪市西成区,花園南２丁目７番２６号２０３室,,27,122,5570015,,,,,,,2021-11-25,1,,,,,ナガマツ,0
2305,9120001242100,新規,0,2021-11-25,2021-11-25,株式会社ヒルズリサーチ,,株式会社,大阪府,大阪市中央区,南久宝寺町１丁目７番５号,,27,128,5410058,,,,,,,2021-11-25,1,,,,,ヒルズリサーチ,0
2308,9120003020561,新規,0,2021-11-25,2021-11-25,合同会社Ｂｏｎｈｅｕｌｉｅｎ,,合同会社,大阪府,大阪市城東区,今福東１丁目４番１２－１１１０号,,27,118,5360002,,,,,,,2021-11-25,1,,,,,ボヌーリオン,0
2309,9120003020652,新規,0,2021-11-25,2021-11-25,合同会社アネッツ,,合同会社,大阪府,大阪市北区,中津１丁目６番２９－１００３号,,27,127,5310071,,,,,,,2021-11-25,1,,,,,アネッツ,0
2314,9120101064667,新規,0,2021-11-25,2021-11-25,株式会社リーベコーポレーション,,株式会社,大阪府,岸和田市,上野町西１９番２５号,,27,202,5960048,,,,,,,2021-11-25,1,,,,,リーベコーポレーション,0
2315,9120101064675,新規,0,2021-11-25,2021-11-25,Ｕｎｉｑｕｅ株式会社,,株式会社,大阪府,泉南郡熊取町,紺屋２丁目１９番１－１０２号,,27,361,5900412,,,,,,,2021-11-25,1,,,,,ユニーク,0
2316,9120101064691,新規,0,2021-11-25,2021-11-25,株式会社いちふく,,株式会社,大阪府,河内長野市,寿町３番２２号,,27,216,5860026,,,,,,,2021-11-25,1,,,,,イチフク,0
2320,9120903003913,新規,0,2021-11-25,2021-11-25,ＣＡＬＩＦＯＲＮＩＡ　ＢＡＳＥ合同会社,,合同会社,大阪府,豊中市,服部豊町１丁目１１番１－２０２号,,27,203,5610859,,,,,,,2021-11-25,1,,,,,カリフォルニアベース,0
2323,9122001035376,新規,0,2021-11-25,2021-11-25,ミキコーポレーション株式会社,,株式会社,大阪府,大東市,北条３丁目１６番６号,,27,218,5740011,,,,,,,2021-11-25,1,,,,,ミキコーポレーション,0
2325,9130001070582,新規,0,2021-11-25,2021-11-25,ＴＨＥ　ＢＡＳＥ株式会社,,株式会社,京都府,京都市山科区,大塚大岩４番地４,,26,110,6078123,,,,,,,2021-11-25,1,,,,,ザベース,0
2335,9140001123934,新規,0,2021-11-25,2021-11-25,株式会社Ｌｉｌｙ　Ｒｏｓｙ,,株式会社,兵庫県,神戸市中央区,国香通４丁目２－４－１０１号室,,28,110,6510066,,,,,,,2021-11-25,1,,,,,リリーロジー,0
2336,9140001123967,新規,0,2021-11-25,2021-11-25,株式会社椿,,株式会社,兵庫県,神戸市中央区,御幸通４丁目２－２４ＢＥＬＬＴＲＥＥ御幸通６０２,,28,110,6510087,,,,,,,2021-11-25,1,,,,,ツバキ,0
2337,9150001025122,新規,0,2021-11-25,2021-11-25,株式会社ＳＹ８８,,株式会社,奈良県,奈良市,瓦堂町２２番地の１サンコーポ瓦堂１０３号,,29,201,6308326,,,,,,,2021-11-25,1,,,,,エスワイハチハチ,0
2347,9180001148845,新規,0,2021-11-25,2021-11-25,株式会社Ｈ＆Ｍ,,株式会社,愛知県,名古屋市千種区,唐山町２丁目３７番地の３グランドメゾン東山ザ・テラス３０３号,,23,101,4640806,,,,,,,2021-11-25,1,,,,,エイチアンドエム,0
2353,9190001028880,新規,0,2021-11-25,2021-11-25,株式会社ＬｉＦｉＸ,,株式会社,三重県,四日市市,日永１丁目１３番８号,,24,202,5100885,,,,,,,2021-11-25,1,,,,,リフィックス,0
2354,9190003003832,新規,0,2021-11-25,2021-11-25,Ｆ４Ｕ合同会社,,合同会社,三重県,四日市市,諏訪栄町４‐１０アピカビル３Ｆ,,24,202,5100086,,,,,,,2021-11-25,1,,,,,エフフォーユー,0
2359,9230001019116,新規,0,2021-11-25,2021-11-25,株式会社ＬＢＲ　Ｄｅｖｅｌｏｐｍｅｎｔ,,株式会社,富山県,中新川郡舟橋村,国重１７８番地１０,,16,321,9300288,,,,,,,2021-11-25,1,,,,,エルビーアールディベロップメント,0
2366,9250005008708,新規,0,2021-11-25,2021-11-25,農事組合法人なごファーム,,その他の設立登記法人,山口県,阿武郡阿武町,大字奈古２００８番地１,,35,502,7593622,,,,,,,2021-11-25,1,,,,,ナゴファーム,0
2369,9260005010992,新規,0,2021-11-25,2021-11-25,一般社団法人ＩＰＵスポーツアカデミー,,その他の設立登記法人,岡山県,岡山市東区,瀬戸町観音寺７２１番地,,33,103,7090863,,,,,,,2021-11-25,1,,,,,アイピーユースポーツアカデミー,0
2375,9290001095507,新規,0,2021-11-25,2021-11-25,株式会社アグウェル,,株式会社,福岡県,八女市,稲富４４０番地１,,40,210,8340047,,,,,,,2021-11-25,1,,,,,アグウェル,0
2376,9290001095523,新規,0,2021-11-25,2021-11-25,株式会社インザパーク福岡,,株式会社,福岡県,福岡市東区,大字西戸崎１－２,,40,131,8110321,,,,,,,2021-11-25,1,,,,,インザパークフクオカ,0
2377,9290003011858,新規,0,2021-11-25,2021-11-25,合同会社Ｔプランニング,,合同会社,福岡県,福岡市早良区,藤崎１丁目５－２８－７０４,,40,137,8140013,,,,,,,2021-11-25,1,,,,,ティープランニング,0
2380,9290801028013,新規,0,2021-11-25,2021-11-25,株式会社スウィッチ,,株式会社,福岡県,京都郡みやこ町,国作６０８番地３,,40,625,8240125,,,,,,,2021-11-25,1,,,,,スウィッチ,0
2383,9330001029220,新規,0,2021-11-25,2021-11-25,くらす家づくり株式会社,,株式会社,熊本県,熊本市中央区,水前寺４丁目２９番４号東水荘２０５,,43,101,8620950,,,,,,,2021-11-25,1,,,,,クラスイエヅクリ,0
2424,9430001085443,新規,0,2021-11-25,2021-11-25,Ａｕｔｏ　ｓｈｏｐ　ｋａｍｕｙ株式会社,,株式会社,北海道,札幌市東区,中沼町６３番３,,01,103,0070890,,,,,,,2021-11-25,1,,,,,オートショップカムイ,0
2427,9430003013393,新規,0,2021-11-25,2021-11-25,ＦＩＸＸ合同会社,,合同会社,北海道,札幌市中央区,北五条西２８丁目３番３,,01,101,0640825,,,,,,,2021-11-25,1,,,,,フィックス,0
2428,9430003013402,新規,0,2021-11-25,2021-11-25,合同会社ＬＩＦＥ　ＬＩＮＫ　ＤＥＬＩＧＨＴ,,合同会社,北海道,苫小牧市,拓勇西町５丁目６番４５号,,01,213,0591302,,,,,,,2021-11-25,1,,,,,ライフリンクディライト,0
2432,9460105002226,新規,0,2021-11-25,2021-11-25,一般社団法人グランディール音楽コンクール,,その他の設立登記法人,北海道,帯広市,西十八条南４丁目２０番６号,,01,207,0800028,,,,,,,2021-11-25,1,,,,,グランディールオンガクコンクール,0
