sequenceNumber,corporateNumber,process,correct,updateDate,changeDate,name,nameImageId,kind,prefectureName,cityName,streetNumber,addressImageId,prefectureCode,cityCode,postCode,addressOutside,addressOutsideImageId,closeDate,closeCause,successorCorporateNumber,changeCause,assignmentDate,latest,enName,enPrefectureName,enCityName,enAddressOutside,furigana,hihyoji
10,1010101014806,新規,0,2021-08-11,2021-08-11,株式会社エフティ―オー,,株式会社,東京都,八王子市,元横山町１丁目２０番１１号,,13,201,1920063,,,,,,,2021-08-11,1,,,,,エフティーオー,0
14,1010401161942,新規,0,2021-08-11,2021-08-11,株式会社ＩＮＴＯ９,,株式会社,東京都,港区,北青山３丁目８番８号カーム青山１０１,,13,103,1070061,,,,,,,2021-08-11,1,,,,,イントゥナイン,0
15,1010401162024,新規,0,2021-08-11,2021-08-11,全日空商事カトレアリーシング株式会社,,株式会社,東京都,港区,東新橋１丁目５番２号,,13,103,1050021,,,,,,,2021-08-11,1,,,,,ゼンニックウカトレアリーシング,0
16,1010401162040,新規,0,2021-08-11,2021-08-11,株式会社ＳＢＩＣホールディングス,,株式会社,東京都,港区,東新橋１丁目９番２号汐留住友ビル１６階,,13,103,1050021,,,,,,,2021-08-11,1,,,,,エスビーアイシーホールディングス,0
18,1010403025872,新規,0,2021-08-11,2021-08-11,Ｆｌａｓｈ　Ｃｏｆｆｅｅ　ＪＰ合同会社,,合同会社,東京都,港区,南麻布３丁目１９番２３号オーク南麻布ビル２階,,13,103,1060047,,,,,,,2021-08-11,1,,,,,フラッシュコーヒージェーピー,0
19,1010403025880,新規,0,2021-08-11,2021-08-11,合同会社ＪＵＧＥＭ　ＣＯＦＦＥＥ,,合同会社,東京都,港区,新橋５丁目３０番７―６０５号,,13,103,1050004,,,,,,,2021-08-11,1,,,,,ジュゲムコーヒー,0
21,1010405020070,新規,0,2021-08-11,2021-08-11,一般社団法人ＨＤＧ２８,,その他の設立登記法人,東京都,港区,虎ノ門３丁目２２番１０－２０１号,,13,103,1050001,,,,,,,2021-08-11,1,,,,,エイチディージーツーエイト,0
24,1010501047661,新規,0,2021-08-11,2021-08-11,株式会社ＢＡＲＢＥＲ　ＴＯＭＩＴＡ,,株式会社,東京都,台東区,元浅草４丁目６番５号,,13,106,1110041,,,,,,,2021-08-11,1,,,,,バーバートミタ,0
32,1010603009089,新規,0,2021-08-11,2021-08-11,タクシー求人ドットコム合同会社,,合同会社,東京都,江東区,有明３丁目７番２６号有明フロンティアビルＢ棟９階,,13,108,1350063,,,,,,,2021-08-11,1,,,,,タクシーキュウジンドットコム,0
34,1010705003254,新規,0,2021-08-11,2021-08-11,一般社団法人Ｍｅｌｉａ　ｂｅａｕｔｙ　ｃｌｉｎｉｃ,,その他の設立登記法人,東京都,品川区,東五反田５丁目２７番１０号第一野村ビル５階－Ｂ,,13,109,1410022,,,,,,,2021-08-11,1,,,,,メリアビューティークリニック,0
41,1011001142201,新規,0,2021-08-11,2021-08-11,ＴＯＫＹＯ　ＡＣＥ　ＣＬＩＮＩＣ株式会社,,株式会社,東京都,渋谷区,宇田川町１９番５号山手マンション８０４号室,,13,113,1500042,,,,,,,2021-08-11,1,,,,,トウキョウエースクリニック,0
42,1011001142283,新規,0,2021-08-11,2021-08-11,株式会社Ｒｉｌｙ,,株式会社,東京都,目黒区,自由が丘２丁目９番２３号ラポール自由が丘３Ｆ,,13,110,1520035,,,,,,,2021-08-11,1,,,,,リリー,0
43,1011003013185,新規,0,2021-08-11,2021-08-11,合同会社渡邉,,合同会社,東京都,渋谷区,神宮前２丁目３４番１０－３０５号,,13,113,1500001,,,,,,,2021-08-11,1,,,,,ワタナベ,0
46,1011101095951,新規,0,2021-08-11,2021-08-11,カーピックス株式会社,,株式会社,東京都,新宿区,馬場下町１番地１,,13,104,1620045,,,,,,,2021-08-11,1,,,,,カーピックス,0
47,1011103010917,新規,0,2021-08-11,2021-08-11,ブルックス合同会社,,合同会社,東京都,新宿区,若葉１丁目２２番地１５号,,13,104,1600011,,,,,,,2021-08-11,1,,,,,ブルックス,0
48,1011103010925,新規,0,2021-08-11,2021-08-11,合同会社フェニックス,,合同会社,東京都,新宿区,下宮比町２番１８号グランドメゾン飯田橋９０２号,,13,104,1620822,,,,,,,2021-08-11,1,,,,,フェニックス,0
50,1011201023176,新規,0,2021-08-11,2021-08-11,ＳＬＡＣＫＥＲ　ＡＰＰＳ株式会社,,株式会社,東京都,中野区,新井１丁目１２番１２号モデリアカラーズ中野Ａ－１,,13,114,1650026,,,,,,,2021-08-11,1,,,,,スラッカーアップス,0
51,1011303004124,新規,0,2021-08-11,2021-08-11,ＹＡ合同会社,,合同会社,東京都,杉並区,下井草１丁目１５番１１号サンフラワー２０３,,13,115,1670022,,,,,,,2021-08-11,1,,,,,ワイエー,0
57,1011605002387,新規,0,2021-08-11,2021-08-11,行政書士法人古屋事務所,,その他の設立登記法人,東京都,練馬区,氷川台３丁目７番１６－４０５号,,13,120,1790084,,,,,,,2021-08-11,1,,,,,フルヤジムショ,0
58,1011801039563,新規,0,2021-08-11,2021-08-11,株式会社旭日承,,株式会社,東京都,足立区,鹿浜４丁目１番７号,,13,121,1230864,,,,,,,2021-08-11,1,,,,,アサヒショウ,0
59,1011803004739,新規,0,2021-08-11,2021-08-11,合同会社ＡＡＭＡ,,合同会社,東京都,葛飾区,お花茶屋１丁目２０番２号１階,,13,122,1240003,,,,,,,2021-08-11,1,,,,,アーマ,0
62,1012401038187,新規,0,2021-08-11,2021-08-11,株式会社Ｄｅｓｉｇｎ　Ｓｔｕｄｉｏ　ＹＡＮＧ,,株式会社,東京都,調布市,柴崎２丁目２５番７号,,13,208,1820014,,,,,,,2021-08-11,1,,,,,デザインスタジオヤン,0
63,1012405004631,新規,0,2021-08-11,2021-08-11,一般社団法人心のコーディネートラーニングセンター,,その他の設立登記法人,東京都,小金井市,中町４丁目１８番２４号,,13,210,1840012,,,,,,,2021-08-11,1,,,,,ココロノコーディネートラーニングセンター,0
85,1030001143637,新規,0,2021-08-11,2021-08-11,株式会社森田工業,,株式会社,埼玉県,草加市,弁天１丁目１６番４号,,11,221,3400004,,,,,,,2021-08-11,1,,,,,モリタコウギョウ,0
86,1030001143645,新規,0,2021-08-11,2021-08-11,株式会社ＡＣＥ－ＭＥＴＡＬ,,株式会社,埼玉県,川越市,大字府川８１番地３,,11,201,3500831,,,,,,,2021-08-11,1,,,,,エースメタル,0
87,1030001143777,新規,0,2021-08-11,2021-08-11,株式会社Ｄ・Ｚ・Ｇ,,株式会社,埼玉県,久喜市,久喜中央１丁目４番４７号島田ビル１階,,11,232,3460003,,,,,,,2021-08-11,1,,,,,ディーゼットジー,0
91,1030003017731,新規,0,2021-08-11,2021-08-11,合同会社西屋不動産,,合同会社,埼玉県,朝霞市,西弁財１丁目９－２６,,11,227,3510021,,,,,,,2021-08-11,1,,,,,ニシヤフドウサン,0
92,1030003017756,新規,0,2021-08-11,2021-08-11,合同会社ＳＫＡＹ　Ｃｏｍｐａｎｙ,,合同会社,埼玉県,ふじみ野市,亀久保４丁目１４番５号,,11,245,3560051,,,,,,,2021-08-11,1,,,,,スカイカンパニー,0
98,1040001119710,新規,0,2021-08-11,2021-08-11,株式会社カタチューシステム,,株式会社,千葉県,船橋市,前原西３丁目２番２－１号,,12,204,2740825,,,,,,,2021-08-11,1,,,,,カタチューシステム,0
99,1040001119727,新規,0,2021-08-11,2021-08-11,株式会社Ｍ２４Ｄｅｓｉｇｎ　Ｓｔｕｄｉｏ,,株式会社,千葉県,千葉市美浜区,打瀬２丁目５番地パティオス３番街５０３号,,12,106,2610013,,,,,,,2021-08-11,1,,,,,エムニジュウヨンデザインスタジオ,0
100,1040001119751,新規,0,2021-08-11,2021-08-11,株式会社Ｔｏｋｙｏ　Ｂａｙ　Ｆｉｓｈｅｒｍａｎ’ｓ,,株式会社,千葉県,木更津市,請西２丁目１８番８号,,12,206,2920801,,,,,,,2021-08-11,1,,,,,トウキョウベイフィッッシャーマンズ,0
104,1050001049683,新規,0,2021-08-11,2021-08-11,株式会社ユウヤ工業,,株式会社,茨城県,行方市,矢幡６１２番地２,,08,233,3113826,,,,,,,2021-08-11,1,,,,,ユウヤコウギョウ,0
105,1050003006022,新規,0,2021-08-11,2021-08-11,合同会社ロシャンインターナショナル,,合同会社,茨城県,筑西市,舟生１８７番地２,,08,227,3080111,,,,,,,2021-08-11,1,,,,,ロシャンインターナショナル,0
111,1070001038338,新規,0,2021-08-11,2021-08-11,株式会社近代プラント,,株式会社,群馬県,太田市,藤久良町５６番地１４Ｋ＆Ａ’ＳコーポＢ号,,10,205,3730035,,,,,,,2021-08-11,1,,,,,キンダイプラント,0
117,1080401025265,新規,0,2021-08-11,2021-08-11,株式会社ｎａｚｕｎａ,,株式会社,静岡県,周智郡森町,天宮１１４４番地の３,,22,461,4370216,,,,,,,2021-08-11,1,,,,,ナズナ,0
123,1100001034523,新規,0,2021-08-11,2021-08-11,浅野コーポレーション株式会社,,株式会社,長野県,塩尻市,大字広丘吉田９５３番地３,,20,215,3990701,,,,,,,2021-08-11,1,,,,,アサノコーポレーション,0
127,1110001035966,新規,0,2021-08-11,2021-08-11,株式会社カーボンニュートラル長岡,,株式会社,新潟県,長岡市,城岡２丁目８番１号,,15,202,9400021,,,,,,,2021-08-11,1,,,,,カーボンニュートラルナガオカ,0
134,1120001239517,新規,0,2021-08-11,2021-08-11,ＥＭＩＥＬＤ株式会社,,株式会社,大阪府,大阪市北区,堂山町１番５号三共梅田ビル７階,,27,127,5300027,,,,,,,2021-08-11,1,,,,,エミールド,0
135,1120001239590,新規,0,2021-08-11,2021-08-11,ＪＣＩ株式会社,,株式会社,大阪府,大阪市北区,梅田２丁目５番１３号桜橋第一ビル３０４号,,27,127,5300001,,,,,,,2021-08-11,1,,,,,ジェーシーアイ,0
136,1120001239681,新規,0,2021-08-11,2021-08-11,株式会社ＢＥＰマネジメント,,株式会社,大阪府,大阪市中央区,安土町１丁目５番８号,,27,128,5410052,,,,,,,2021-08-11,1,,,,,ビーイーピーマネジメント,0
138,1120003019990,新規,0,2021-08-11,2021-08-11,Ｄ＆Ｃ合同会社,,合同会社,大阪府,大阪市西淀川区,御幣島４丁目２番２２号,,27,113,5550012,,,,,,,2021-08-11,1,,,,,ディーアンドシー,0
139,1120003020008,新規,0,2021-08-11,2021-08-11,合同会社颯,,合同会社,大阪府,大阪市中央区,南船場２丁目２番２－２０４号,,27,128,5420081,,,,,,,2021-08-11,1,,,,,ハヤテ,0
140,1120101064121,新規,0,2021-08-11,2021-08-11,株式会社リーフ,,株式会社,大阪府,大阪狭山市,西山台３丁目５番１６号,,27,231,5890022,,,,,,,2021-08-11,1,,,,,リーフ,0
141,1120101064138,新規,0,2021-08-11,2021-08-11,株式会社みちライフ,,株式会社,大阪府,羽曳野市,誉田３丁目６番１３号,,27,222,5830857,,,,,,,2021-08-11,1,,,,,ミチライフ,0
151,1122003002150,新規,0,2021-08-11,2021-08-11,合同会社福陽,,合同会社,大阪府,東大阪市,吉松２丁目４番８号フォレステージュ長瀬２０１,,27,227,5770821,,,,,,,2021-08-11,1,,,,,フクヨウ,0
163,1140001122654,新規,0,2021-08-11,2021-08-11,株式会社Ｔ．Ｏ　ｂｏｄｙ,,株式会社,兵庫県,神戸市北区,ひよどり台南町３丁目２番地の２８,,28,109,6511125,,,,,,,2021-08-11,1,,,,,ティーオーボディ,0
164,1140001122662,新規,0,2021-08-11,2021-08-11,Ｔ２ｄｅｓｉｇｎ株式会社,,株式会社,兵庫県,西宮市,津田町２番２６号ディオ西宮Ｇ,,28,204,6620853,,,,,,,2021-08-11,1,,,,,ティーツーデザイン,0
170,1160001023545,新規,0,2021-08-11,2021-08-11,株式会社大谷工業,,株式会社,滋賀県,大津市,森２丁目６番１０号,,25,201,5202274,,,,,,,2021-08-11,1,,,,,オオタニコウギョウ,0
176,1180001147400,新規,0,2021-08-11,2021-08-11,ＭＬＣ株式会社,,株式会社,愛知県,名古屋市中区,栄３丁目２３番２４号,,23,106,4600008,,,,,,,2021-08-11,1,,,,,エムエルシー,0
177,1180001147409,新規,0,2021-08-11,2021-08-11,株式会社クレア,,株式会社,愛知県,名古屋市千種区,見附町３丁目３番地の１,,23,101,4640817,,,,,,,2021-08-11,1,,,,,クレア,0
184,1180005019397,新規,0,2021-08-11,2021-08-11,一般社団法人ＩＤＡ音楽協会,,その他の設立登記法人,愛知県,名古屋市瑞穂区,下山町２丁目３１番地の６,,23,108,4670049,,,,,,,2021-08-11,1,,,,,アイディーエーオンガクキョウカイ,0
191,1200005013240,新規,0,2021-08-11,2021-08-11,一般社団法人アルコ・イリス,,その他の設立登記法人,岐阜県,下呂市,萩原町桜洞１６１１番地５,,21,220,5092513,,,,,,,2021-08-11,1,,,,,アルコイリス,0
195,1220003003101,新規,0,2021-08-11,2021-08-11,ＨＴＳ工業合同会社,,合同会社,石川県,金沢市,野町５丁目４番５号,,17,201,9218031,,,,,,,2021-08-11,1,,,,,エイチティーエスコウギョウ,0
196,1230001018926,新規,0,2021-08-11,2021-08-11,株式会社Ｇｏｏｄｗｉｌｌ,,株式会社,富山県,富山市,高田５２７番地情報ビル,,16,201,9300866,,,,,,,2021-08-11,1,,,,,グッドウィル,0
201,1240001058434,新規,0,2021-08-11,2021-08-11,株式会社ＶＩＢＥＳ,,株式会社,広島県,広島市中区,薬研堀４番１３号さくらビル,,34,101,7300027,,,,,,,2021-08-11,1,,,,,バイブス,0
206,1250001019039,新規,0,2021-08-11,2021-08-11,株式会社まつもと,,株式会社,山口県,下関市,稗田北町１３番３１号,,35,201,7510857,,,,,,,2021-08-11,1,,,,,マツモト,0
210,1260005010942,新規,0,2021-08-11,2021-08-11,農事組合法人アガペファーム,,その他の設立登記法人,岡山県,津山市,加茂町公郷１８５４番地１,,33,203,7093921,,,,,,,2021-08-11,1,,,,,アガペファーム,0
211,1280003001520,新規,0,2021-08-11,2021-08-11,合同会社ＴＳＵＮＡＧＵ,,合同会社,島根県,出雲市,小山町２７６番地１５,,32,203,6930051,,,,,,,2021-08-11,1,,,,,ツナグ,0
212,1290001094160,新規,0,2021-08-11,2021-08-11,株式会社松田商店,,株式会社,福岡県,福岡市博多区,対馬小路１０番１３号,,40,132,8120020,,,,,,,2021-08-11,1,,,,,マツダショウテン,0
213,1290001094169,新規,0,2021-08-11,2021-08-11,株式会社ワタケン,,株式会社,福岡県,福岡市早良区,室見５丁目１３－２８号グランツリー室見２Ｆ,,40,137,8140015,,,,,,,2021-08-11,1,,,,,ワタケン,0
214,1290001094185,新規,0,2021-08-11,2021-08-11,ｆｅｐｐｉｎｅｓｓ株式会社,,株式会社,福岡県,糸島市,二丈深江６０２番地２９,,40,230,8191601,,,,,,,2021-08-11,1,,,,,フェピネス,0
215,1290001094193,新規,0,2021-08-11,2021-08-11,ＡＣＥホールディングス株式会社,,株式会社,福岡県,那珂川市,片縄北１丁目５番９号,,40,231,8111203,,,,,,,2021-08-11,1,,,,,エースホールディングス,0
216,1290003011493,新規,0,2021-08-11,2021-08-11,合同会社Ｏｆｆｉｃｅ　Ｋ,,合同会社,福岡県,福岡市南区,長丘３丁目２０番５号スコーレ長丘２０３号,,40,134,8150075,,,,,,,2021-08-11,1,,,,,オフィスケイ,0
259,1430005014240,新規,0,2021-08-11,2021-08-11,特定非営利活動法人おひたし,,その他の設立登記法人,北海道,札幌市東区,北三十八条東８丁目１番６号パーサビル,,01,103,0070838,,,,,,,2021-08-11,1,,,,,オヒタシ,0
264,1450003002113,新規,0,2021-08-11,2021-08-11,合同会社キタワセソバ普及協議会,,合同会社,北海道,旭川市,豊岡十三条９丁目１番８号,,01,204,0788243,,,,,,,2021-08-11,1,,,,,キタワセソバフキュウキョウギカイ,0
265,1460101007046,新規,0,2021-08-11,2021-08-11,株式会社帯広みらい計画,,株式会社,北海道,帯広市,西十八条南２丁目１０番地１５,,01,207,0800028,,,,,,,2021-08-11,1,,,,,オビヒロミライケイカク,0
273,1700150104000,新規,0,2021-08-11,2021-07-07,パレシール東淡路管理組合,,その他,大阪府,大阪市東淀川区,東淡路３丁目６番１号,,27,114,5330023,,,,,,,2021-07-07,1,,,,,パレシールヒガシアワジカンリクミアイ,0
274,1700150104322,新規,0,2021-08-11,2021-08-11,ＰＱ　Ｓａｌｅｓ　Ｓｅｒｖｉｃｅ　ＬＬＣ,,外国会社等,東京都,中央区,日本橋室町４丁目３番９号,,13,102,1030022,アメリカ合衆国１９３５５ペンシルベニア州モルバーン、リンデンウッドドライブ３００,,,,,,2021-08-11,1,,,,,ピーキユーセールスサービスエルエルシー,0
288,2010001220222,新規,0,2021-08-11,2021-08-11,株式会社３６５Ｈｅａｌｔｈｙ,,株式会社,東京都,中央区,京橋２丁目６番１４号,,13,102,1040031,,,,,,,2021-08-11,1,,,,,サンロクゴヘルシー,0
289,2010001220346,新規,0,2021-08-11,2021-08-11,万鼎株式会社,,株式会社,東京都,中央区,銀座８丁目５番６号,,13,102,1040061,,,,,,,2021-08-11,1,,,,,,0
293,2010003035486,新規,0,2021-08-11,2021-08-11,合同会社東京レジデンシャル６,,合同会社,東京都,中央区,日本橋１丁目４番１号,,13,102,1030027,,,,,,,2021-08-11,1,,,,,トウキョウレジデンシャルシックス,0
294,2010101014805,新規,0,2021-08-11,2021-08-11,株式会社興山園グループ,,株式会社,東京都,八王子市,東浅川町５２３番地１３,,13,201,1930834,,,,,,,2021-08-11,1,,,,,コウザンエングループ,0
297,2010401162023,新規,0,2021-08-11,2021-08-11,全日空商事クロッカスリーシング株式会社,,株式会社,東京都,港区,東新橋１丁目５番２号,,13,103,1050021,,,,,,,2021-08-11,1,,,,,ゼンニックウショウジクロッカスリーシング,0
307,2010501047669,新規,0,2021-08-11,2021-08-11,Ｓｔｙｌｅ１８株式会社,,株式会社,東京都,台東区,元浅草１丁目２０番９－３０１号,,13,106,1110041,,,,,,,2021-08-11,1,,,,,スタイルワンエイト,0
313,2010703005887,新規,0,2021-08-11,2021-08-11,Ｃｈｉｒｉｃｏ合同会社,,合同会社,東京都,品川区,東大井２丁目１９－６－２０１,,13,109,1400011,,,,,,,2021-08-11,1,,,,,チリコ,0
324,2011001142183,新規,0,2021-08-11,2021-08-11,株式会社国井美果,,株式会社,東京都,渋谷区,富ヶ谷２丁目３０番１号,,13,113,1510063,,,,,,,2021-08-11,1,,,,,クニイミカ,0
325,2011001142191,新規,0,2021-08-11,2021-08-11,株式会社カラーズバリュートウキョウ,,株式会社,東京都,渋谷区,千駄ヶ谷５丁目１２番１３号ウエストサイド新宿御苑５０８号室,,13,113,1510051,,,,,,,2021-08-11,1,,,,,カラーズバリュートウキョウ,0
326,2011001142200,新規,0,2021-08-11,2021-08-11,株式会社ＣＡＮＮＡ,,株式会社,東京都,渋谷区,円山町５番５－３階,,13,113,1500044,,,,,,,2021-08-11,1,,,,,カンナ,0
327,2011005009156,新規,0,2021-08-11,2021-08-11,一般社団法人ＦＢＳＬ,,その他の設立登記法人,東京都,渋谷区,代々木４丁目２５－１１－１Ｆ,,13,113,1510053,,,,,,,2021-08-11,1,,,,,エフビーエスエル,0
332,2011101095950,新規,0,2021-08-11,2021-08-11,ＳＣＨＯＬＥ株式会社,,株式会社,東京都,新宿区,西早稲田１丁目２２番３号,,13,104,1690051,,,,,,,2021-08-11,1,,,,,スコレ,0
333,2011101095975,新規,0,2021-08-11,2021-08-11,株式会社ジャパンリアルエステート,,株式会社,東京都,新宿区,歌舞伎町２丁目２５番８号,,13,104,1600021,,,,,,,2021-08-11,1,,,,,ジャパンリアルエステート,0
336,2011103010916,新規,0,2021-08-11,2021-08-11,合同会社Ｄｏｂｕｙ,,合同会社,東京都,新宿区,市谷台町５番地３第二光ビル１Ｆ,,13,104,1620066,,,,,,,2021-08-11,1,,,,,ドバイ,0
337,2011103010924,新規,0,2021-08-11,2021-08-11,合同会社Ｑｓｔｏｎｅ,,合同会社,東京都,新宿区,下落合１丁目１４番７号,,13,104,1610033,,,,,,,2021-08-11,1,,,,,キューストーン,0
341,2011203003613,新規,0,2021-08-11,2021-08-11,Ｋ＆Ａ合同会社,,合同会社,東京都,中野区,新井３丁目３２番１号フォーブルコーナー２０２号室,,13,114,1650026,,,,,,,2021-08-11,1,,,,,ケイアンドエイ,0
347,2011803004738,新規,0,2021-08-11,2021-08-11,合同会社Ａｂｅｆ,,合同会社,東京都,足立区,西新井栄町２丁目２６番２号Ｈ２、Ｅ号室,,13,121,1230843,,,,,,,2021-08-11,1,,,,,エイベフ,0
351,2012403004979,新規,0,2021-08-11,2021-08-11,インライブ合同会社,,合同会社,東京都,府中市,宮町１丁目１１番地の１、１階,,13,206,1830023,,,,,,,2021-08-11,1,,,,,インライブ,0
361,2020001142548,新規,0,2021-08-11,2021-08-11,株式会社ｅ－コネクション,,株式会社,神奈川県,川崎市中原区,中丸子１３番地７リエトコート武蔵小杉Ｅａｓｔｔｏｗｅｒ２６１１,,14,133,2110012,,,,,,,2021-08-11,1,,,,,イーコネクション,0
383,2030001143727,新規,0,2021-08-11,2021-08-11,株式会社Ｔｒａｎｓ　Ｂｅａｕｔｙ＆Ｓｐａ,,株式会社,埼玉県,さいたま市浦和区,北浦和３丁目４番１４号,,11,107,3300074,,,,,,,2021-08-11,1,,,,,トランスビューティアンドスパ,0
384,2030001143768,新規,0,2021-08-11,2021-08-11,株式会社３６０,,株式会社,埼玉県,ふじみ野市,苗間２３１－１,,11,245,3560052,,,,,,,2021-08-11,1,,,,,サブロク,0
385,2030001143784,新規,0,2021-08-11,2021-08-11,ガガインターナショナル株式会社,,株式会社,埼玉県,春日部市,西金野井１９０４番地１８－１０１,,11,214,3440112,,,,,,,2021-08-11,1,,,,,ガガインターナショナル,0
388,2030003017755,新規,0,2021-08-11,2021-08-11,合同会社あやなり本舗,,合同会社,埼玉県,朝霞市,東弁財３丁目１５番３号,,11,227,3510022,,,,,,,2021-08-11,1,,,,,アヤナリホンポ,0
394,2040001119718,新規,0,2021-08-11,2021-08-11,株式会社清匠,,株式会社,千葉県,松戸市,横須賀２丁目１８番７号１０２号室,,12,207,2700031,,,,,,,2021-08-11,1,,,,,セイショウ,0
402,2040003018315,新規,0,2021-08-11,2021-08-11,ａｒｔｅｌｉｂｒｅ合同会社,,合同会社,千葉県,市川市,鬼越２丁目２－１２,,12,203,2720022,,,,,,,2021-08-11,1,,,,,アルトリブレ,0
406,2050005012918,新規,0,2021-08-11,2021-08-11,シュメール税理士法人,,その他の設立登記法人,茨城県,つくば市,天久保２丁目１０番地２１,,08,220,3050005,,,,,,,2021-08-11,1,,,,,シュメール,0
410,2070001038337,新規,0,2021-08-11,2021-08-11,株式会社ｉｅｎｏｗａ,,株式会社,群馬県,太田市,大原町１１０７番地１７岡部スクエア１３号,,10,205,3792304,,,,,,,2021-08-11,1,,,,,イエノワ,0
412,2070003004196,新規,0,2021-08-11,2021-08-11,Ａｌｉｍｏｕ　ｔｒａｄｉｎｇ　ｉｎｔｅｒｎａｔｉｏｎａｌ合同会社,,合同会社,群馬県,館林市,美園町５番１５号ライオンズプラザマンション２階２１０号室,,10,207,3740039,,,,,,,2021-08-11,1,,,,,アリモウトレーディングインターナショナル,0
416,2080401025264,新規,0,2021-08-11,2021-08-11,ＯＹＡＲＡ　ＷＩＪＥＫＯＯＮ株式会社,,株式会社,静岡県,掛川市,西大渕６９６番地の７,,22,213,4371304,,,,,,,2021-08-11,1,,,,,オヤラウィジェコン,0
420,2090001017149,新規,0,2021-08-11,2021-08-11,株式会社山梨道路保全,,株式会社,山梨県,中巨摩郡昭和町,押越２０９７番地,,19,384,4093864,,,,,,,2021-08-11,1,,,,,ヤマナシドウロホゼン,0
424,2100001034522,新規,0,2021-08-11,2021-08-11,株式会社鳶宮本組,,株式会社,長野県,中野市,大字中野３１２－６,,20,211,3830013,,,,,,,2021-08-11,1,,,,,トビミヤモトグミ,0
426,2110001035965,新規,0,2021-08-11,2021-08-11,株式会社松田農園,,株式会社,新潟県,新潟市南区,下塩俵７８番地,,15,106,9501241,,,,,,,2021-08-11,1,,,,,マツダノウエン,0
435,2120001239499,新規,0,2021-08-11,2021-08-11,万達屋株式会社,,株式会社,大阪府,大阪市中央区,平野町１丁目２－９グランドメゾン大手前７０４,,27,128,5410046,,,,,,,2021-08-11,1,,,,,マンタツヤ,0
436,2120001239565,新規,0,2021-08-11,2021-08-11,Ｇｉｎｏｏペイント株式会社,,株式会社,大阪府,大阪市北区,天神橋６丁目５番１号,,27,127,5300041,,,,,,,2021-08-11,1,,,,,ギノオペイント,0
437,2120003020007,新規,0,2021-08-11,2021-08-11,合同会社Ｂｌｕｅ　Ｍ,,合同会社,大阪府,大阪市北区,本庄西１丁目１番７－２００７号,,27,127,5310073,,,,,,,2021-08-11,1,,,,,ブルーエム,0
438,2120101064129,新規,0,2021-08-11,2021-08-11,株式会社Ｈｙｒ,,株式会社,大阪府,岸和田市,阿間河滝町１３４４番地の１,,27,202,5960845,,,,,,,2021-08-11,1,,,,,エイチワイアール,0
444,2120905006219,新規,0,2021-08-11,2021-08-11,一般社団法人インディペンデンス,,その他の設立登記法人,大阪府,高槻市,古曽部町１丁目１番８号,,27,207,5691115,,,,,,,2021-08-11,1,,,,,インディペンデンス,0
446,2130001069904,新規,0,2021-08-11,2021-08-11,株式会社Ｇｒｅｅｎ　Ｖｉｅｎｎｅｔｔａ,,株式会社,京都府,京都市上京区,加賀屋町３９９番地スミヤビル５階,,26,102,6028281,,,,,,,2021-08-11,1,,,,,グリーンビエネッタ,0
447,2130001069912,新規,0,2021-08-11,2021-08-11,ＥＡＳＴ　ＬＩＮＫ株式会社,,株式会社,京都府,京都市南区,久世中久世町４丁目２番地５,,26,107,6018213,,,,,,,2021-08-11,1,,,,,イーストリンク,0
448,2130001069920,新規,0,2021-08-11,2021-08-11,株式会社志京,,株式会社,京都府,京都市右京区,常盤神田町１５番地の１５,,26,108,6168219,,,,,,,2021-08-11,1,,,,,ココロキョウ,0
454,2140001122637,新規,0,2021-08-11,2021-08-11,株式会社ヒエン,,株式会社,兵庫県,神戸市西区,竜が岡２丁目１３番地１０,,28,111,6512412,,,,,,,2021-08-11,1,,,,,ヒエン,0
455,2140001122661,新規,0,2021-08-11,2021-08-11,株式会社アイアンサイド,,株式会社,兵庫県,伊丹市,池尻６丁目８２番地１パレ武庫川プルミエールⅢ１００４号,00123901,28,207,6640027,,,,,,,2021-08-11,1,,,,,アイアンサイド,0
459,2140003016622,新規,0,2021-08-11,2021-08-11,合同会社ＡＧＡＪＰ,,合同会社,兵庫県,神戸市須磨区,大池町５丁目１３番１号,,28,107,6540026,,,,,,,2021-08-11,1,,,,,エージィーエージェーピー,0
468,2170003001613,新規,0,2021-08-11,2021-08-11,合同会社Ｄａｈｌｉａ,,合同会社,和歌山県,西牟婁郡上富田町,岡１番地の１,,30,404,6492101,,,,,,,2021-08-11,1,,,,,ダリア,0
472,2180001147382,新規,0,2021-08-11,2021-08-11,株式会社梅登屋,,株式会社,愛知県,名古屋市瑞穂区,津賀田町３丁目８１番地の５,,23,108,4670823,,,,,,,2021-08-11,1,,,,,ウメトヤ,0
473,2180001147399,新規,0,2021-08-11,2021-08-11,北川電設株式会社,,株式会社,愛知県,東海市,高横須賀町柳ケ坪３８番地,,23,222,4770037,,,,,,,2021-08-11,1,,,,,キタガワデンセツ,0
475,2180003022848,新規,0,2021-08-11,2021-08-11,ＫｉｋｋＡ合同会社,,合同会社,愛知県,名古屋市中川区,中野新町４丁目２５番地の１,,23,110,4540837,,,,,,,2021-08-11,1,,,,,キッカ,0
483,2200001039008,新規,0,2021-08-11,2021-08-11,株式会社ＧＴｒａｄｉｎｇ,,株式会社,岐阜県,大垣市,三津屋町５丁目１５番地２,,21,202,5030012,,,,,,,2021-08-11,1,,,,,ジートレーディング,0
487,2220001024354,新規,0,2021-08-11,2021-08-11,アルファシステムサポート株式会社,,株式会社,石川県,金沢市,駅西新町３丁目４番７号,,17,201,9200027,,,,,,,2021-08-11,1,,,,,アルファシステムサポート,0
499,2260001035868,新規,0,2021-08-11,2021-08-11,株式会社ＨＯＬＡ，ＦＵ,,株式会社,岡山県,岡山市南区,植松５２１番地２,,33,104,7100151,,,,,,,2021-08-11,1,,,,,オラフ,0
502,2260005010958,新規,0,2021-08-11,2021-08-11,弁護士法人アインザッツ,,その他の設立登記法人,岡山県,岡山市北区,本町６番６号第一セントラルビル４階,,33,101,7000901,,,,,,,2021-08-11,1,,,,,アインザッツ,0
505,2290001094135,新規,0,2021-08-11,2021-08-11,株式会社ベーシック,,株式会社,福岡県,福岡市中央区,白金１丁目１７番１５号７階,,40,133,8100012,,,,,,,2021-08-11,1,,,,,ベーシック,0
506,2290001094151,新規,0,2021-08-11,2021-08-11,株式会社ｃｏｍａｍ九州,,株式会社,福岡県,福岡市中央区,赤坂１丁目１３番８号,,40,133,8100042,,,,,,,2021-08-11,1,,,,,コマムキュウシュウ,0
507,2290001094184,新規,0,2021-08-11,2021-08-11,株式会社ビーアスタリンク,,株式会社,福岡県,福岡市西区,愛宕１丁目１６番３５号花かずビル３階,,40,135,8190015,,,,,,,2021-08-11,1,,,,,ビーアスタリンク,0
508,2290005018313,新規,0,2021-08-11,2021-08-11,一般社団法人メッターサポート,,その他の設立登記法人,福岡県,小郡市,寺福童８４９番地２３,,40,216,8380138,,,,,,,2021-08-11,1,,,,,メッターサポート,0
510,2300001012581,新規,0,2021-08-11,2021-08-11,株式会社ドライバーズエンジン,,株式会社,佐賀県,伊万里市,山代町久原２９７６番地２２,,41,205,8494256,,,,,,,2021-08-11,1,,,,,ドライバーズエンジン,0
514,2320001018536,新規,0,2021-08-11,2021-08-11,株式会社Ｄｒｅａｍｅｒｓ　Ｈｏｌｄｉｎｇｓ,,株式会社,大分県,杵築市,大字杵築６６５－６７１ロフティ杵築シーサイド１００８号,,44,210,8730001,,,,,,,2021-08-11,1,,,,,ドリーマーズホールディングス,0
522,2330005010380,新規,0,2021-08-11,2021-08-11,土地家屋調査士法人８ｏｔｔｏ測量登記事務所,,その他の設立登記法人,熊本県,熊本市北区,津浦町５番２０号,,43,105,8600088,,,,,,,2021-08-11,1,,,,,オットーソクリョウトウキジムショ,0
533,2360003011304,新規,0,2021-08-11,2021-08-11,合同会社１プラス１,,合同会社,沖縄県,那覇市,前島２丁目１１番１号,,47,201,9000016,,,,,,,2021-08-11,1,,,,,イチプラスイチ,0
537,2370001047472,新規,0,2021-08-11,2021-08-11,ＨＩＮＯＭＯＴＯ株式会社,,株式会社,宮城県,多賀城市,八幡３丁目５番３０号,,04,209,9850874,,,,,,,2021-08-11,1,,,,,,0
538,2370003005346,新規,0,2021-08-11,2021-08-11,クレア・コンサルティングオフィス合同会社,,合同会社,宮城県,多賀城市,高橋５丁目２４番６号,,04,209,9850853,,,,,,,2021-08-11,1,,,,,クレアコンサルティングオフィス,0
546,2420001017544,新規,0,2021-08-11,2021-08-11,佐藤塗装株式会社,,株式会社,青森県,北津軽郡鶴田町,大字沖字岡田５７６番地２,,02,384,0383513,,,,,,,2021-08-11,1,,,,,サトウトソウ,0
547,2420003002362,新規,0,2021-08-11,2021-08-11,合同会社リフレーミング,,合同会社,青森県,十和田市,西十二番町７番２８号,,02,206,0340093,,,,,,,2021-08-11,1,,,,,リフレーミング,0
552,2430001084682,新規,0,2021-08-11,2021-08-11,株式会社ＥｖｅｒＧｒｅｅｎ,,株式会社,北海道,札幌市中央区,宮の森二条１０丁目１番３２－３０２号,,01,101,0640952,,,,,,,2021-08-11,1,,,,,エバーグリーン,0
553,2430001084690,新規,0,2021-08-11,2021-08-11,美徳株式会社,,株式会社,北海道,札幌市中央区,南十一条西６丁目１番４８号,,01,101,0640811,,,,,,,2021-08-11,1,,,,,ビトク,0
561,2450003002112,新規,0,2021-08-11,2021-08-11,合同会社旭,,合同会社,北海道,旭川市,十条通９丁目９７５番地の８２ダイアナ常盤ヒルズ５０３,,01,204,0700040,,,,,,,2021-08-11,1,,,,,アサヒ,0
567,2480003001706,新規,0,2021-08-11,2021-08-11,合同会社ａｌｂｏ,,合同会社,徳島県,鳴門市,大津町大代６９５番地１Ｌｅａｏ・ｅｓｐｅｃｉａｌ２０２号,,36,202,7720041,,,,,,,2021-08-11,1,,,,,アルボ,0
569,2700150015171,新規,0,2021-08-11,2015-10-09,習志野市商店会連合会,,その他,千葉県,習志野市,津田沼５丁目１２－１２サンロード津田沼６Ｆ,,12,216,2750016,,,,,,,2015-10-09,1,,,,,ナラシノシシヨウテンカイレンゴウカイ,0
576,3010001220221,新規,0,2021-08-11,2021-08-11,株式会社ナンバーエイト,,株式会社,東京都,千代田区,東神田１丁目１０番８号,,13,101,1010031,,,,,,,2021-08-11,1,,,,,ナンバーエイト,0
577,3010001220345,新規,0,2021-08-11,2021-08-11,Ｒ－ＢＲＡＮＤ株式会社,,株式会社,東京都,中央区,日本橋蛎殻町１丁目１７番２－６１０号,,13,102,1030014,,,,,,,2021-08-11,1,,,,,アールブランド,0
584,3010103001742,新規,0,2021-08-11,2021-08-11,ＥＡＲＴＨ　ＡＮＩＭＡ合同会社,,合同会社,東京都,八王子市,明神町３丁目２０－５エイトビル３Ｆ,,13,201,1920046,,,,,,,2021-08-11,1,,,,,,0
587,3010401162006,新規,0,2021-08-11,2021-08-11,株式会社コトレア,,株式会社,東京都,港区,浜松町２丁目２番１５号浜松町ダイヤビル２Ｆ,,13,103,1050013,,,,,,,2021-08-11,1,,,,,コトレア,0
588,3010401162022,新規,0,2021-08-11,2021-08-11,全日空商事サジタリアスリーシング株式会社,,株式会社,東京都,港区,東新橋１丁目５番２号,,13,103,1050021,,,,,,,2021-08-11,1,,,,,ゼンニックウショウジサジタリアスリーシング,0
590,3010403025895,新規,0,2021-08-11,2021-08-11,ＢｏＫｏＤｅＫｏ合同会社,,合同会社,東京都,港区,六本木３丁目１５番１１号,,13,103,1060032,,,,,,,2021-08-11,1,,,,,ボコデコ,0
593,3010405020069,新規,0,2021-08-11,2021-08-11,一般社団法人ＨＤＧ２７,,その他の設立登記法人,東京都,港区,虎ノ門３丁目２２番１０－２０１号,,13,103,1050001,,,,,,,2021-08-11,1,,,,,エイチディージーツーセブン,0
600,3010701041371,新規,0,2021-08-11,2021-08-11,株式会社ＴＯＩＴＯＩＴＯ,,株式会社,東京都,品川区,北品川５丁目５番１５号,,13,109,1410001,,,,,,,2021-08-11,1,,,,,トイトイト,0
601,3010705003252,新規,0,2021-08-11,2021-08-11,品川コーポ管理組合法人,,その他の設立登記法人,東京都,品川区,北品川１丁目２９番１５号,,13,109,1400001,,,,,,,2021-08-11,1,,,,,シナガワコーポ,0
608,3011001142182,新規,0,2021-08-11,2021-08-11,サキコンサルタンツ株式会社,,株式会社,東京都,目黒区,目黒１丁目１番１号,,13,110,1530063,,,,,,,2021-08-11,1,,,,,サキコンサルタンツ,0
609,3011001142199,新規,0,2021-08-11,2021-08-11,株式会社Ｓａｙ．,,株式会社,東京都,渋谷区,神宮前４丁目５番１３号アピス表参道スクエア３Ｆ,,13,113,1500001,,,,,,,2021-08-11,1,,,,,セイドット,0
610,3011001142216,新規,0,2021-08-11,2021-08-11,株式会社ｉＸｉＡ,,株式会社,東京都,渋谷区,円山町５番１８号道玄坂スクエア５Ｆ,,13,113,1500044,,,,,,,2021-08-11,1,,,,,イキシア,0
611,3011001142240,新規,0,2021-08-11,2021-08-11,株式会社グロース,,株式会社,東京都,渋谷区,西原２丁目１２番５号,,13,113,1510066,,,,,,,2021-08-11,1,,,,,グロース,0
612,3011003013183,新規,0,2021-08-11,2021-08-11,合同会社ＮＲＭ,,合同会社,東京都,目黒区,青葉台３丁目１０番１１号青葉台フラッツ５０５,,13,110,1530042,,,,,,,2021-08-11,1,,,,,エヌアールエム,0
613,3011005009171,新規,0,2021-08-11,2021-08-11,一般社団法人全酪アカデミー,,その他の設立登記法人,東京都,渋谷区,代々木１丁目３７番２号,,13,113,1510053,,,,,,,2021-08-11,1,,,,,ゼンラクアカデミー,0
615,3011101095941,新規,0,2021-08-11,2021-08-11,建宇株式会社,,株式会社,東京都,新宿区,大久保２丁目２３－６カルム大久保Ａ２０１,,13,104,1690072,,,,,,,2021-08-11,1,,,,,ケンウ,0
616,3011101095982,新規,0,2021-08-11,2021-08-11,得昌株式会社,,株式会社,東京都,新宿区,百人町２丁目１番４５号赤煉瓦２１０,,13,104,1690073,,,,,,,2021-08-11,1,,,,,トクショウ,0
617,3011103010915,新規,0,2021-08-11,2021-08-11,合同会社Ｆｌｙｉｎｇ　Ｈｉｐｐｏ,,合同会社,東京都,新宿区,北町１１番地,,13,104,1620834,,,,,,,2021-08-11,1,,,,,フライングヒッポ,0
618,3011103010923,新規,0,2021-08-11,2021-08-11,合同会社エムアイ,,合同会社,東京都,新宿区,西新宿５丁目５番１－７１５号,,13,104,1600023,,,,,,,2021-08-11,1,,,,,エムアイ,0
621,3011201023174,新規,0,2021-08-11,2021-08-11,ナカノ不動産株式会社,,株式会社,東京都,中野区,中野３丁目９番６号,,13,114,1640001,,,,,,,2021-08-11,1,,,,,ナカノフドウサン,0
622,3011203003612,新規,0,2021-08-11,2021-08-11,白猫ストラテイズ合同会社,,合同会社,東京都,中野区,弥生町２丁目３６番２号ＣＨＥＬＳＥＡＧＡＲＤＥＮ４０３,,13,114,1640013,,,,,,,2021-08-11,1,,,,,シロネコストラテイズ,0
625,3011401023593,新規,0,2021-08-11,2021-08-11,株式会社意識革命,,株式会社,東京都,板橋区,中台３丁目１１番１０－１０７号,,13,119,1740064,,,,,,,2021-08-11,1,,,,,イシキカクメイ,0
654,3020001142571,新規,0,2021-08-11,2021-08-11,株式会社きたがわ,,株式会社,神奈川県,横浜市保土ケ谷区,帷子町２丁目５６番地,,14,106,2400013,,,,,,,2021-08-11,1,,,,,キタガワ,0
671,3030001143742,新規,0,2021-08-11,2021-08-11,株式会社吉盛製作所,,株式会社,埼玉県,さいたま市大宮区,吉敷町４丁目２６２番地４すずらん館４０３,,11,103,3300843,,,,,,,2021-08-11,1,,,,,ヨシモリセイサクショ,0
672,3030001143783,新規,0,2021-08-11,2021-08-11,エイト株式会社,,株式会社,埼玉県,新座市,新堀１丁目１３番３１－３０号,,11,230,3520032,,,,,,,2021-08-11,1,,,,,エイト,0
673,3030001143791,新規,0,2021-08-11,2021-08-11,株式会社トップワン,,株式会社,埼玉県,さいたま市桜区,大字五関１５８番地８２,,11,106,3380815,,,,,,,2021-08-11,1,,,,,トップワン,0
679,3030003017746,新規,0,2021-08-11,2021-08-11,合同会社エヌオー技研,,合同会社,埼玉県,加須市,花崎北２丁目１６番地１－Ｆ－１２０５,,11,210,3470016,,,,,,,2021-08-11,1,,,,,エヌオーギケン,0
680,3030003017754,新規,0,2021-08-11,2021-08-11,アイカネトレーディング・ジャパン合同会社,,合同会社,埼玉県,朝霞市,田島２丁目１４番２２号,,11,227,3510032,,,,,,,2021-08-11,1,,,,,アイカネトレーディングジャパン,0
687,3040001119790,新規,0,2021-08-11,2021-08-11,株式会社アシーマ,,株式会社,千葉県,木更津市,富士見１丁目２‐１スパークルシティ木更津７階,,12,206,2920831,,,,,,,2021-08-11,1,,,,,アシーマ,0
689,3040003018314,新規,0,2021-08-11,2021-08-11,合同会社ＴＡＫＡＹＵＲＩ,,合同会社,千葉県,松戸市,稔台３丁目１０－１９－Ａ,,12,207,2702231,,,,,,,2021-08-11,1,,,,,タカユリ,0
690,3040005021308,新規,0,2021-08-11,2021-08-11,一般社団法人いろどり,,その他の設立登記法人,千葉県,我孫子市,栄２０番８号,,12,222,2701141,,,,,,,2021-08-11,1,,,,,イロドリ,0
691,3050005012917,新規,0,2021-08-11,2021-08-11,特定非営利活動法人小田地域まちづくり推進機構,,その他の設立登記法人,茨城県,つくば市,小田３１０８番地４,,08,220,3004223,,,,,,,2021-08-11,1,,,,,オダチイキマチヅクリスイシンキコウ,0
701,3080401025263,新規,0,2021-08-11,2021-08-11,湖西貿易株式会社,,株式会社,静岡県,湖西市,白須賀６０７９番地,,22,221,4310451,,,,,,,2021-08-11,1,,,,,コサイボウエキ,0
712,3110001035964,新規,0,2021-08-11,2021-08-11,株式会社小幡農機,,株式会社,新潟県,南魚沼市,麓４７５番地１５,,15,226,9497111,,,,,,,2021-08-11,1,,,,,オバタノウキ,0
715,3110005016688,新規,0,2021-08-11,2021-08-11,一般社団法人新潟ふるさと組合,,その他の設立登記法人,新潟県,新潟市中央区,花町２０６９番地新潟花町ビル５Ｆ,,15,103,9518056,,,,,,,2021-08-11,1,,,,,ニイガタフルサトクミアイ,0
721,3120001239548,新規,0,2021-08-11,2021-08-11,菅野建裝株式会社,,株式会社,大阪府,枚方市,長尾台３丁目４０番２５号,,27,210,5730106,,,,,,,2021-08-11,1,,,,,カンノケンソウ,0
722,3120001239671,新規,0,2021-08-11,2021-08-11,株式会社ＣＲＳ,,株式会社,大阪府,大阪市城東区,鴫野西１丁目１０番地１０号,,27,118,5360014,,,,,,,2021-08-11,1,,,,,シーアールエス,0
723,3120001239688,新規,0,2021-08-11,2021-08-11,ＯＮＥ株式会社,,株式会社,大阪府,大阪市西区,南堀江１丁目２１－１２メゾンナカムラ２０１号室,,27,106,5500015,,,,,,,2021-08-11,1,,,,,ワン,0
727,3120003020006,新規,0,2021-08-11,2021-08-11,合同会社みらい遊育,,合同会社,大阪府,大阪市鶴見区,緑２丁目２－３０－２０２,,27,124,5380054,,,,,,,2021-08-11,1,,,,,,0
737,3120903003778,新規,0,2021-08-11,2021-08-11,合同会社ワイオーテック,,合同会社,大阪府,摂津市,別府１丁目２２番３４号,,27,224,5660046,,,,,,,2021-08-11,1,,,,,ワイオーテック,0
748,3140001122652,新規,0,2021-08-11,2021-08-11,株式会社星野純直商店,,株式会社,兵庫県,神戸市中央区,雲井通３丁目６番５号,,28,110,6510096,,,,,,,2021-08-11,1,,,,,ホシノジュンチョクショウテン,0
752,3140003016613,新規,0,2021-08-11,2021-08-11,合同会社ＭＯＭＯ,,合同会社,兵庫県,宝塚市,栄町３丁目１０番２０－１００６号,,28,214,6650845,,,,,,,2021-08-11,1,,,,,モモ,0
757,3180001147266,新規,0,2021-08-11,2021-08-11,株式会社グランドステージ,,株式会社,愛知県,名古屋市中村区,長筬町３丁目４５番地２,,23,105,4530839,,,,,,,2021-08-11,1,,,,,グランドステージ,0
758,3180001147407,新規,0,2021-08-11,2021-08-11,ＹＵＲＩＣＡ株式会社,,株式会社,愛知県,名古屋市守山区,廿軒家１３－３０,,23,113,4630065,,,,,,,2021-08-11,1,,,,,ユリカ,0
776,3230001018932,新規,0,2021-08-11,2021-08-11,株式会社ＤＥＥＰ,,株式会社,富山県,富山市,総曲輪１丁目２番２０号桜木町センタービル４階,,16,201,9300083,,,,,,,2021-08-11,1,,,,,ディープ,0
780,3240001058416,新規,0,2021-08-11,2021-08-11,瑞華世紀株式会社,,株式会社,広島県,広島市西区,観音町７番２９号,,34,104,7330031,,,,,,,2021-08-11,1,,,,,ズイカセイキ,0
781,3240001058432,新規,0,2021-08-11,2021-08-11,相生サポート株式会社,,株式会社,広島県,広島市西区,中広町２丁目１９番３０－２０１号,,34,104,7330012,,,,,,,2021-08-11,1,,,,,アイオイサポート,0
784,3240003005242,新規,0,2021-08-11,2021-08-11,合同会社福新テック,,合同会社,広島県,福山市,鞆町後地２６－１５２,,34,207,7200202,,,,,,,2021-08-11,1,,,,,フクシンテック,0
788,3260001035859,新規,0,2021-08-11,2021-08-11,ＴＫマテリアル株式会社,,株式会社,岡山県,備前市,伊部２１２９番地１,,33,211,7050001,,,,,,,2021-08-11,1,,,,,ティーケーマテリアル,0
790,3280005007431,新規,0,2021-08-11,2021-08-11,司法書士法人中村事務所,,その他の設立登記法人,島根県,松江市,玉湯町湯町１９９１番地１,,32,201,6990202,,,,,,,2021-08-11,1,,,,,,0
794,3290001094118,新規,0,2021-08-11,2021-08-11,株式会社ＺＩＫＵＹＡ,,株式会社,福岡県,福岡市南区,塩原４丁目１６番１２号,,40,134,8150032,,,,,,,2021-08-11,1,,,,,ジクヤ,0
795,3290001094126,新規,0,2021-08-11,2021-08-11,株式会社ＨＫＳ,,株式会社,福岡県,久留米市,寺町８４番地６,,40,203,8300014,,,,,,,2021-08-11,1,,,,,エイチケーエス,0
796,3290001094159,新規,0,2021-08-11,2021-08-11,株式会社ＴＡＩＧＡ,,株式会社,福岡県,久留米市,安武町武島６９６番地８,,40,203,8300071,,,,,,,2021-08-11,1,,,,,タイガ,0
797,3290001094209,新規,0,2021-08-11,2021-08-11,株式会社ＳＲＰ,,株式会社,福岡県,福岡市早良区,干隈３丁目２１番２１号,,40,137,8140163,,,,,,,2021-08-11,1,,,,,エスアールピー,0
800,3290003011491,新規,0,2021-08-11,2021-08-11,合同会社クリアスカイ,,合同会社,福岡県,糟屋郡粕屋町,大字仲原２７５８番地１グラン・エルドール空港東１１０５号,,40,349,8112304,,,,,,,2021-08-11,1,,,,,クリアスカイ,0
801,3290803003903,新規,0,2021-08-11,2021-08-11,きよし合同会社,,合同会社,福岡県,北九州市小倉南区,下貫４丁目１番２０号,,40,107,8000236,,,,,,,2021-08-11,1,,,,,キヨシ,0
806,3330001028905,新規,0,2021-08-11,2021-08-11,次代株式会社,,株式会社,熊本県,熊本市北区,龍田陳内２丁目４１番３号,,43,105,8618005,,,,,,,2021-08-11,1,,,,,ジダイ,0
812,3340003003509,新規,0,2021-08-11,2021-08-11,合同会社Ｆｒｕｉｔｓ　Ｔａｂｌｅ,,合同会社,鹿児島県,鹿児島市,桜ヶ丘８丁目４６番地２２号,,46,201,8900075,,,,,,,2021-08-11,1,,,,,フルーツテーブル,0
815,3360003011344,新規,0,2021-08-11,2021-08-11,合同会社ａｗａｂａｒ沖縄,,合同会社,沖縄県,那覇市,牧志１丁目４－２６－４０２,,47,201,9000013,,,,,,,2021-08-11,1,,,,,,0
816,3370003005345,新規,0,2021-08-11,2021-08-11,合同会社ニイツマホーム,,合同会社,宮城県,大崎市,岩出山字浦小路７７番地１,,04,215,9896435,,,,,,,2021-08-11,1,,,,,ニイツマホーム,0
830,3420001017543,新規,0,2021-08-11,2021-08-11,株式会社Ｒｉｄｕｎ,,株式会社,青森県,弘前市,大字富田３丁目１２番地１６シンエイハイツＢ－２０７号,,02,202,0368186,,,,,,,2021-08-11,1,,,,,リズン,0
838,3430003012954,新規,0,2021-08-11,2021-08-11,合同会社ライズスタイル,,合同会社,北海道,江別市,新栄台８５番地の３０,,01,217,0690806,,,,,,,2021-08-11,1,,,,,ライズスタイル,0
839,3450001013440,新規,0,2021-08-11,2021-08-11,株式会社プレミアム運輸,,株式会社,北海道,旭川市,八条通７丁目３４番地１９,,01,204,0700038,,,,,,,2021-08-11,1,,,,,プレミアムウンユ,0
845,3490003001571,新規,0,2021-08-11,2021-08-11,合同会社ＨＩＭＩＫＡＲＩ,,合同会社,高知県,土佐市,宮ノ内１５番地２,,39,205,7811124,,,,,,,2021-08-11,1,,,,,ヒミカリ,0
848,3700150104188,新規,0,2021-08-11,2021-07-28,山形県史跡整備市町村協議会,,その他,山形県,酒田市,本町２丁目２－４５,,06,204,9980043,,,,,,,2021-07-28,1,,,,,ヤマガタケンシセキセイビシチヨウソンキヨウギカイ,0
865,4010005033726,新規,0,2021-08-11,2021-08-11,安田不動産プライベートリート投資法人,,その他の設立登記法人,東京都,千代田区,神田錦町２丁目１１番地,,13,101,1010054,,,,,,,2021-08-11,1,,,,,ヤスダフドウサンプライベートリート,0
873,4010401162005,新規,0,2021-08-11,2021-08-11,株式会社イエロー・デジタルエンターテインメント,,株式会社,東京都,港区,虎ノ門４丁目１番１号神谷町トラストタワー２３階,,13,103,1050001,,,,,,,2021-08-11,1,,,,,イエローデジタルエンターテインメント,0
874,4010401162021,新規,0,2021-08-11,2021-08-11,全日空商事スコーピオリーシング株式会社,,株式会社,東京都,港区,東新橋１丁目５番２号,,13,103,1050021,,,,,,,2021-08-11,1,,,,,ゼンニックウショウジスコーピオリーシング,0
875,4010403025820,新規,0,2021-08-11,2021-08-11,合同会社ＧＫ０５０,,合同会社,東京都,港区,虎ノ門３丁目２２番１０－２０１号,,13,103,1050001,,,,,,,2021-08-11,1,,,,,ジーケイゼロファイブゼロ,0
876,4010403025894,新規,0,2021-08-11,2021-08-11,飯舘村陸上風力発電所合同会社,,合同会社,東京都,港区,新橋６丁目１７番２１号,,13,103,1050004,,,,,,,2021-08-11,1,,,,,イイダテムラリクジョウフウリョクハツデンショ,0
877,4010405020068,新規,0,2021-08-11,2021-08-11,一般社団法人ＨＤＧ２６,,その他の設立登記法人,東京都,港区,虎ノ門３丁目２２番１０－２０１号,,13,103,1050001,,,,,,,2021-08-11,1,,,,,エイチディージーツーシックス,0
879,4010503006349,新規,0,2021-08-11,2021-08-11,サニユナデザイン合同会社,,合同会社,東京都,台東区,竜泉３丁目８番９号,,13,106,1100012,,,,,,,2021-08-11,1,,,,,サニユナデザイン,0
887,4010701041370,新規,0,2021-08-11,2021-08-11,株式会社エスエス,,株式会社,東京都,品川区,東五反田２丁目２番２号,,13,109,1410022,,,,,,,2021-08-11,1,,,,,エスエス,0
904,4011001142009,新規,0,2021-08-11,2021-08-11,株式会社ＬｉＢ,,株式会社,東京都,渋谷区,神宮前６丁目２３番４号桑野ビル２階,,13,113,1500001,,,,,,,2021-08-11,1,,,,,リブ,0
905,4011001142198,新規,0,2021-08-11,2021-08-11,エスエス工房株式会社,,株式会社,東京都,渋谷区,神宮前１丁目２０番１４号,,13,113,1500001,,,,,,,2021-08-11,1,,,,,エスエスコウボウ,0
906,4011001142207,新規,0,2021-08-11,2021-08-11,株式会社ｚｏｏｂａ,,株式会社,東京都,渋谷区,円山町２８番１号渋谷道玄坂スカイビル１１Ｆ,,13,113,1500044,,,,,,,2021-08-11,1,,,,,ズーバ,0
907,4011001142223,新規,0,2021-08-11,2021-08-11,株式会社ギムレットスタイル,,株式会社,東京都,渋谷区,恵比寿西２丁目７番１０号恵比寿第三ビル７階,,13,113,1500021,,,,,,,2021-08-11,1,,,,,ギムレットスタイル,0
908,4011001142248,新規,0,2021-08-11,2021-08-11,株式会社ＣＣＤＸ,,株式会社,東京都,渋谷区,道玄坂１丁目２１番１号渋谷ソラスタ１５階,,13,113,1500043,,,,,,,2021-08-11,1,,,,,シーシーディーエックス,0
915,4011101095940,新規,0,2021-08-11,2021-08-11,株式会社ティーエムシィーソリューションズ,,株式会社,東京都,新宿区,大久保２丁目４番１５号,,13,104,1690072,,,,,,,2021-08-11,1,,,,,ティーエムシィーソリューションズ,0
916,4011101095949,新規,0,2021-08-11,2021-08-11,株式会社オニックス,,株式会社,東京都,新宿区,神楽坂２丁目１２番地１５,,13,104,1620825,,,,,,,2021-08-11,1,,,,,オニックス,0
917,4011101095973,新規,0,2021-08-11,2021-08-11,株式会社サン・エナジー,,株式会社,東京都,新宿区,西新宿１丁目２６－２新宿野村ビル３２階,,13,104,1600023,,,,,,,2021-08-11,1,,,,,サンエナジー,0
919,4011201023173,新規,0,2021-08-11,2021-08-11,株式会社ＡＶＶＥＮＴＵＲＡ,,株式会社,東京都,中野区,弥生町３丁目３３番１号,,13,114,1640013,,,,,,,2021-08-11,1,,,,,アベンチュラ,0
928,4011603003368,新規,0,2021-08-11,2021-08-11,合同会社Ｍｘ２ｆｉｌｍｓ,,合同会社,東京都,練馬区,石神井台４丁目９－３５セントラルハイツ３０２,,13,120,1770045,,,,,,,2021-08-11,1,,,,,エムツーフィルムズ,0
958,4030001143626,新規,0,2021-08-11,2021-08-11,株式会社マルちゃん塗装,,株式会社,埼玉県,草加市,新栄１丁目５７番地１,,11,221,3400056,,,,,,,2021-08-11,1,,,,,マルチャントソウ,0
959,4030001143717,新規,0,2021-08-11,2021-08-11,株式会社サウィン,,株式会社,埼玉県,上尾市,大字上尾下６８６番地１９,,11,219,3620025,,,,,,,2021-08-11,1,,,,,サウィン,0
960,4030001143725,新規,0,2021-08-11,2021-08-11,株式会社Ｈ．Ｌ．Ｒ,,株式会社,埼玉県,吉川市,美南２丁目１６番地７,,11,243,3420038,,,,,,,2021-08-11,1,,,,,エイチエルアール,0
961,4030001143782,新規,0,2021-08-11,2021-08-11,株式会社ＳＨＥＥＰＬＵＣＫ,,株式会社,埼玉県,越谷市,大字大房１０６６番地４,,11,222,3430027,,,,,,,2021-08-11,1,,,,,シープラック,0
962,4030001143790,新規,0,2021-08-11,2021-08-11,株式会社悠成,,株式会社,埼玉県,さいたま市岩槻区,大字村国５４９番地１１号,,11,110,3390041,,,,,,,2021-08-11,1,,,,,ユウセイ,0
971,4030003017753,新規,0,2021-08-11,2021-08-11,合同会社ＵＮＩＶＥＲＳＥ,,合同会社,埼玉県,熊谷市,箱田６丁目４番５３号,,11,202,3600014,,,,,,,2021-08-11,1,,,,,ユニバース,0
974,4040001119633,新規,0,2021-08-11,2021-08-11,株式会社Ｌｉｂｉｓｔ,,株式会社,千葉県,松戸市,串崎南町２０８番地,,12,207,2702215,,,,,,,2021-08-11,1,,,,,リビスト,0
975,4040001119757,新規,0,2021-08-11,2021-08-11,株式会社米山総合住設,,株式会社,千葉県,いすみ市,岬町桑田１８３１番地３,,12,238,2994504,,,,,,,2021-08-11,1,,,,,ヨネヤマソウゴウジュウセツ,0
990,4100001034520,新規,0,2021-08-11,2021-08-11,株式会社七変化,,株式会社,長野県,長野市,大字栗田１０００番地１長栄長野東口ビル１Ｆ,,20,201,3800921,,,,,,,2021-08-11,1,,,,,シチヘンゲ,0
994,4100005012753,新規,0,2021-08-11,2021-08-11,山口社会保険労務士法人,,その他の設立登記法人,長野県,長野市,若里７丁目１２番１５号モアエテルノ１０１,,20,201,3800928,,,,,,,2021-08-11,1,,,,,ヤマグチ,0
1008,4120001239670,新規,0,2021-08-11,2021-08-11,株式会社明立ＮＥＸＴ,,株式会社,大阪府,大阪市東住吉区,西今川１丁目６番７号,,27,121,5460042,,,,,,,2021-08-11,1,,,,,メイリツネクスト,0
1009,4120001239679,新規,0,2021-08-11,2021-08-11,ＷＩＮＧＬＯＢＡＬ株式会社,,株式会社,大阪府,大阪市生野区,巽中３丁目１１番４号,,27,116,5440013,,,,,,,2021-08-11,1,,,,,ウイングローバル,0
1010,4120001239687,新規,0,2021-08-11,2021-08-11,株式会社税トラストジャパン,,株式会社,大阪府,大阪市中央区,北新町２－１２北新町センタービル６階,,27,128,5400023,,,,,,,2021-08-11,1,,,,,ゼイトラストジャパン,0
1015,4120903003777,新規,0,2021-08-11,2021-08-11,合同会社Ｈｉｍａｗａｒｉ,,合同会社,大阪府,箕面市,半町４丁目７番１４号,,27,220,5620044,,,,,,,2021-08-11,1,,,,,ヒマワリ,0
1020,4130001069910,新規,0,2021-08-11,2021-08-11,ＴＯＣ株式会社,,株式会社,京都府,京都市上京区,河原町通丸太町上る出水町２５２番地,,26,102,6020862,,,,,,,2021-08-11,1,,,,,ティーオーシー,0
1021,4130001069919,新規,0,2021-08-11,2021-08-11,株式会社えん,,株式会社,京都府,京都市伏見区,向島中島町８３番地６１,,26,109,6128113,,,,,,,2021-08-11,1,,,,,エン,0
1022,4130005016248,新規,0,2021-08-11,2021-08-11,特定非営利活動法人Ｃａｆｅ　ｌｉｆｅ,,その他の設立登記法人,京都府,京都市西京区,松尾鈴川町７１番地１,,26,111,6158216,,,,,,,2021-08-11,1,,,,,カフェライフ,0
1041,4140003016612,新規,0,2021-08-11,2021-08-11,合同会社Ｓ・Ｊ　ＬＡＢＯ,,合同会社,兵庫県,豊岡市,寿町２番２４号,,28,209,6680024,,,,,,,2021-08-11,1,,,,,エスジェイラボ,0
1045,4160001023550,新規,0,2021-08-11,2021-08-11,株式会社Ｂｅｌｌａ　Ｖｉｔａ,,株式会社,滋賀県,草津市,西渋川１丁目１番２６－１１０６号プレサンスロジェ草津駅前,,25,206,5250025,,,,,,,2021-08-11,1,,,,,ベラヴィータ,0
1060,4180003022846,新規,0,2021-08-11,2021-08-11,Ｍ＆Ｊコーポレーション合同会社,,合同会社,愛知県,名古屋市港区,七番町２丁目１１番地の１,,23,111,4550001,,,,,,,2021-08-11,1,,,,,エムアンドジェイコーポレーション,0
1064,4190001028596,新規,0,2021-08-11,2021-08-11,森川テクノ株式会社,,株式会社,三重県,桑名市,大字江場５３４番地６,,24,205,5110836,,,,,,,2021-08-11,1,,,,,モリカワテクノ,0
1074,4220001024352,新規,0,2021-08-11,2021-08-11,株式会社タイプウエスト,,株式会社,石川県,加賀市,山代温泉北部１丁目１９３番地,,17,206,9220243,,,,,,,2021-08-11,1,,,,,タイプウエスト,0
1076,4230001018931,新規,0,2021-08-11,2021-08-11,株式会社ＴｒｕｅＨｅａｒｔ,,株式会社,富山県,富山市,富岡町４３２番地４,,16,201,9300928,,,,,,,2021-08-11,1,,,,,トゥルーハート,0
1087,4240003005241,新規,0,2021-08-11,2021-08-11,合同会社４３０１,,合同会社,広島県,広島市中区,基町１１番１０号合人社広島紙屋町ビル８Ｆ－Ｅ０１,,34,101,7300011,,,,,,,2021-08-11,1,,,,,ヨンサンゼロイチ,0
1098,4260003003648,新規,0,2021-08-11,2021-08-11,合同会社日生商事,,合同会社,岡山県,新見市,高尾２２０８番地１,,33,210,7180003,,,,,,,2021-08-11,1,,,,,ニッセイショウジ,0
1099,4260005010956,新規,0,2021-08-11,2021-08-11,医療法人社団えたに耳鼻咽喉科クリニック,,その他の設立登記法人,岡山県,岡山市北区,問屋町２１番地１０４,,33,101,7000977,,,,,,,2021-08-11,1,,,,,エタニジビインコウカクリニック,0
1101,4270005005476,新規,0,2021-08-11,2021-08-11,一般社団法人文化交流研究会,,その他の設立登記法人,鳥取県,倉吉市,関金町関金宿１２１８番地,,31,203,6820411,,,,,,,2021-08-11,1,,,,,ブンカコウリュウケンキュウカイ,0
1108,4290001094125,新規,0,2021-08-11,2021-08-11,株式会社金湶,,株式会社,福岡県,福岡市博多区,築港本町２番３－１０１号,,40,132,8120021,,,,,,,2021-08-11,1,,,,,キンセン,0
1109,4290001094141,新規,0,2021-08-11,2021-08-11,株式会社ＪＯＳＨ,,株式会社,福岡県,福岡市西区,内浜２丁目８番１０号,,40,135,8190005,,,,,,,2021-08-11,1,,,,,ジョシュ,0
1110,4290001094182,新規,0,2021-08-11,2021-08-11,株式会社プレシャス,,株式会社,福岡県,福岡市中央区,平尾３丁目１４番１０号,,40,133,8100014,,,,,,,2021-08-11,1,,,,,プレシャス,0
1111,4290001094249,新規,0,2021-08-11,2021-08-11,株式会社西日本スペースエンタープライズ,,株式会社,福岡県,久留米市,西町８６４番地２,,40,203,8300038,,,,,,,2021-08-11,1,,,,,ニシニホンスペースエンタープライズ,0
1112,4290003011490,新規,0,2021-08-11,2021-08-11,合同会社元石商店,,合同会社,福岡県,久留米市,北野町中川４２３,,40,203,8301101,,,,,,,2021-08-11,1,,,,,モトイシショウテン,0
1113,4290003011508,新規,0,2021-08-11,2021-08-11,合同会社アイフィールド,,合同会社,福岡県,小郡市,祇園２丁目７－２シャトー深町２Ｆ,,40,216,8380144,,,,,,,2021-08-11,1,,,,,アイフィールド,0
1121,4360001029164,新規,0,2021-08-11,2021-08-11,株式会社ＴＥＡＭ沖縄,,株式会社,沖縄県,豊見城市,宜保３丁目５番地８ひまわりハウス１０１,,47,212,9010244,,,,,,,2021-08-11,1,,,,,チームオキナワ,0
1122,4360001029197,新規,0,2021-08-11,2021-08-11,株式会社ＹＮＴコンサルタント,,株式会社,沖縄県,名護市,宇茂佐の森４丁目１９番３号,,47,209,9050009,,,,,,,2021-08-11,1,,,,,,0
1123,4360001029206,新規,0,2021-08-11,2021-08-11,株式会社中山浩成,,株式会社,沖縄県,那覇市,上之屋１丁目１１番８号,,47,201,9000011,,,,,,,2021-08-11,1,,,,,ナカヤマヒロナリ,0
1131,4370001047462,新規,0,2021-08-11,2021-08-11,株式会社ネクシィーズ北日本,,株式会社,宮城県,仙台市青葉区,中央１丁目６番３５号,,04,101,9800021,,,,,,,2021-08-11,1,,,,,,0
1143,4400001015564,新規,0,2021-08-11,2021-08-11,株式会社藤庭,,株式会社,岩手県,花巻市,西宮野目第９地割１５３番地９,,03,205,0250002,,,,,,,2021-08-11,1,,,,,フジテイ,0
1145,4420001017542,新規,0,2021-08-11,2021-08-11,株式会社ＮＧＦ,,株式会社,青森県,平川市,新屋栄館７４番地１,,02,210,0360121,,,,,,,2021-08-11,1,,,,,エヌジーエフ,0
1151,4460003000856,新規,0,2021-08-11,2021-08-11,合同会社かけはし,,合同会社,北海道,釧路市,益浦２丁目８番１号,,01,206,0850803,,,,,,,2021-08-11,1,,,,,カケハシ,0
1153,4700150104162,新規,0,2021-08-11,2021-07-26,よこはま縁むすび講中,,その他,神奈川県,横浜市都筑区,中川中央１丁目１８－１横浜市歴史博物館内,,14,118,2240003,,,,,,,2021-07-26,1,,,,,ヨコハマエンムスビコウジユウ,0
1165,5010001220236,新規,0,2021-08-11,2021-08-11,株式会社ＯＴＭ,,株式会社,東京都,千代田区,五番町６番地２,,13,101,1020076,,,,,,,2021-08-11,1,,,,,,0
1171,5010005033766,新規,0,2021-08-11,2021-08-11,一般社団法人スタートアップスタジオ協会,,その他の設立登記法人,東京都,千代田区,平河町２丁目５番３号,,13,101,1020093,,,,,,,2021-08-11,1,,,,,スタートアップスタジオキョウカイ,0
1172,5010101014810,新規,0,2021-08-11,2021-08-11,エースハイ株式会社,,株式会社,東京都,八王子市,東町１３番１２号八王子ＯＭビル３階,,13,201,1920082,,,,,,,2021-08-11,1,,,,,エースハイ,0
1181,5010401161947,新規,0,2021-08-11,2021-08-11,ポラリス株式会社,,株式会社,東京都,港区,南青山２丁目２番１５号,,13,103,1070062,,,,,,,2021-08-11,1,,,,,ポラリス,0
1184,5010403025893,新規,0,2021-08-11,2021-08-11,相馬山中陸上風力発電所合同会社,,合同会社,東京都,港区,新橋６丁目１７番２１号,,13,103,1050004,,,,,,,2021-08-11,1,,,,,ソウマヤマナカリクジョウフウリョクハツデンショ,0
1187,5010405020067,新規,0,2021-08-11,2021-08-11,一般社団法人ＳＨ０５１,,その他の設立登記法人,東京都,港区,虎ノ門３丁目２２番１０－２０１号,,13,103,1050001,,,,,,,2021-08-11,1,,,,,エスエイチゼロファイブワン,0
1191,5010501047666,新規,0,2021-08-11,2021-08-11,株式会社Ｐａｓｓ,,株式会社,東京都,台東区,浅草５丁目５番４号,,13,106,1110032,,,,,,,2021-08-11,1,,,,,パス,0
1192,5010505003252,新規,0,2021-08-11,2021-08-11,特定非営利活動法人ＢＯＲＮＳ,,その他の設立登記法人,東京都,台東区,浅草２丁目１２番１０号,,13,106,1110032,,,,,,,2021-08-11,1,,,,,ボーンズ,0
1203,5011001142206,新規,0,2021-08-11,2021-08-11,株式会社住安ホーム,,株式会社,東京都,渋谷区,南平台町１６番２８号Ｄａｉｗａ渋谷スクエア９階,,13,113,1500036,,,,,,,2021-08-11,1,,,,,スミヤスホーム,0
1204,5011001142230,新規,0,2021-08-11,2021-08-11,株式会社ＴＹＤ,,株式会社,東京都,渋谷区,渋谷１丁目１５番１５号,,13,113,1500002,,,,,,,2021-08-11,1,,,,,ティーワイディー,0
1205,5011001142263,新規,0,2021-08-11,2021-08-11,株式会社Ｔ２ＦＩＥＬＤ,,株式会社,東京都,目黒区,下目黒２丁目２２番１７号ＡＤビル２０２,,13,110,1530064,,,,,,,2021-08-11,1,,,,,ティーツーフィールド,0
1206,5011001142305,新規,0,2021-08-11,2021-08-11,株式会社Ｖｉｄａｂｅｌｌａ,,株式会社,東京都,渋谷区,神宮前６丁目２３番４号桑野ビル２階,,13,113,1500001,,,,,,,2021-08-11,1,,,,,ビダベジャ,0
1210,5011101095931,新規,0,2021-08-11,2021-08-11,株式会社ライトブルー,,株式会社,東京都,新宿区,新宿２丁目５番１１号甲州屋ビル３階,,13,104,1600022,,,,,,,2021-08-11,1,,,,,ライトブルー,0
1211,5011101095972,新規,0,2021-08-11,2021-08-11,株式会社Ｒｅ．ｒｉｓｅ,,株式会社,東京都,新宿区,新宿１丁目３６番２号新宿第七葉山ビル３階,,13,104,1600022,,,,,,,2021-08-11,1,,,,,リライズ,0
1214,5011103010921,新規,0,2021-08-11,2021-08-11,合同会社データロー,,合同会社,東京都,新宿区,西新宿７丁目５－９ファーストリアルタワー１１０５,,13,104,1600023,,,,,,,2021-08-11,1,,,,,データロー,0
1223,5011403003402,新規,0,2021-08-11,2021-08-11,Ｏｆｆｉｃｅ－５２合同会社,,合同会社,東京都,板橋区,小茂根１丁目１７番１２－１０１号コスモ小竹向原アーバンフォルム,,13,119,1730037,,,,,,,2021-08-11,1,,,,,オフィスゴートゥー,0
1235,5011801039568,新規,0,2021-08-11,2021-08-11,森源株式会社,,株式会社,東京都,足立区,保木間４丁目２番７号,,13,121,1210064,,,,,,,2021-08-11,1,,,,,モリゲン,0
1239,5012403004984,新規,0,2021-08-11,2021-08-11,合同会社ｋｅｉ,,合同会社,東京都,三鷹市,上連雀６丁目３２番１９－１０１号,,13,204,1810012,,,,,,,2021-08-11,1,,,,,ケイ,0
1240,5012803002571,新規,0,2021-08-11,2021-08-11,合同会社ネジェム,,合同会社,東京都,東大和市,向原５丁目１１２９－１サンビーム２０２,,13,220,2070013,,,,,,,2021-08-11,1,,,,,ネジェム,0
1251,5020001142504,新規,0,2021-08-11,2021-08-11,株式会社ｒｏｂｏｔｔｔｅ,,株式会社,神奈川県,横浜市神奈川区,鶴屋町２丁目１０番地１,,14,102,2210835,,,,,,,2021-08-11,1,,,,,ロボテ,0
1252,5020001142553,新規,0,2021-08-11,2021-08-11,株式会社ｄｅｅｐＵｎｉｖｅｒｓｅ,,株式会社,神奈川県,横浜市青葉区,市ケ尾町５２３番地１０,,14,117,2250024,,,,,,,2021-08-11,1,,,,,ディープユニバース,0
1271,5030001143773,新規,0,2021-08-11,2021-08-11,株式会社アルフ建設,,株式会社,埼玉県,川口市,戸塚東１丁目１番１０号エレガンスシティ２０１,,11,203,3330802,,,,,,,2021-08-11,1,,,,,アルフケンセツ,0
1277,5030003017752,新規,0,2021-08-11,2021-08-11,ＹＵＮＩＫＡ　ＴＲＡＤＥ合同会社,,合同会社,埼玉県,さいたま市中央区,下落合３丁目１９番地１３ファインコーポユキ１０１号室,,11,105,3380002,,,,,,,2021-08-11,1,,,,,ユニカトレード,0
1287,5040001119707,新規,0,2021-08-11,2021-08-11,株式会社ＦＡＢＲＩＣ,,株式会社,千葉県,松戸市,松戸１８３６番地メグロビル３階,,12,207,2710092,,,,,,,2021-08-11,1,,,,,ファブリック,0
1293,5050001049688,新規,0,2021-08-11,2021-08-11,株式会社康栄,,株式会社,茨城県,古河市,諸川１８６２番地３９,,08,204,3060126,,,,,,,2021-08-11,1,,,,,コウエイ,0
1299,5070001038342,新規,0,2021-08-11,2021-08-11,株式会社ウィンドウデザイン,,株式会社,群馬県,前橋市,江田町２９４番地１,,10,201,3710836,,,,,,,2021-08-11,1,,,,,ウィンドウデザイン,0
1303,5070005009892,新規,0,2021-08-11,2021-08-11,協同組合ユニオン,,その他の設立登記法人,群馬県,太田市,下浜田町１０８６番地１９,,10,205,3730821,,,,,,,2021-08-11,1,,,,,ユニオン,0
1311,5100003006203,新規,0,2021-08-11,2021-08-11,合同会社ＷＩＬＬ,,合同会社,長野県,北佐久郡御代田町,大字草越３６８番地１,,20,323,3890202,,,,,,,2021-08-11,1,,,,,ウィル,0
1320,5120001239620,新規,0,2021-08-11,2021-08-11,株式会社Ｄ－ワイズ,,株式会社,大阪府,枚方市,藤阪元町３丁目４０番７号－４０６,,27,210,5730157,,,,,,,2021-08-11,1,,,,,ディーワイズ,0
1321,5120001239629,新規,0,2021-08-11,2021-08-11,株式会社アヴェニール,,株式会社,大阪府,大阪市淀川区,宮原４丁目４番６４号新大阪千代田ビル８階Ａ号室,,27,123,5320003,,,,,,,2021-08-11,1,,,,,アヴェニール,0
1322,5120001239645,新規,0,2021-08-11,2021-08-11,株式会社ｎａｎｎａｎ９,,株式会社,大阪府,大阪市西区,阿波座１丁目１４番１２号アーバネックス本町１００３,,27,106,5500011,,,,,,,2021-08-11,1,,,,,ナンナンナイン,0
1323,5120001239678,新規,0,2021-08-11,2021-08-11,株式会社Ｆｒｏｇ,,株式会社,大阪府,大阪市中央区,南船場３丁目１番７－５Ｆ７,,27,128,5420081,,,,,,,2021-08-11,1,,,,,フロッグ,0
1326,5120003020004,新規,0,2021-08-11,2021-08-11,合同会社Ｙ’Ｓ,,合同会社,大阪府,大阪市北区,天神橋８丁目１０－１メゾンドール天神橋４０２号,,27,127,5310041,,,,,,,2021-08-11,1,,,,,ワイズ,0
1328,5120005022436,新規,0,2021-08-11,2021-08-11,特定非営利活動法人在関西モンゴル人会,,その他の設立登記法人,大阪府,大阪市西淀川区,姫島３丁目７番２０－１０６号,,27,113,5550033,,,,,,,2021-08-11,1,,,,,ザイカンサイモンゴルジンカイ,0
1330,5120101064101,新規,0,2021-08-11,2021-08-11,株式会社マーシャル・ジャパン,,株式会社,大阪府,堺市西区,平岡町４０番地１,,27,144,5938307,,,,,,,2021-08-11,1,,,,,マーシャルジャパン,0
1331,5120101064142,新規,0,2021-08-11,2021-08-11,株式会社ツールドア,,株式会社,大阪府,和泉市,室堂町１１０３番地の１６９,,27,219,5941101,,,,,,,2021-08-11,1,,,,,ツールドア,0
1334,5120903003776,新規,0,2021-08-11,2021-08-11,合同会社ＴＤＣ,,合同会社,大阪府,高槻市,三島江４丁目１番３号,,27,207,5690835,,,,,,,2021-08-11,1,,,,,ティーディーシー,0
1338,5130001069827,新規,0,2021-08-11,2021-08-11,始華未展株式会社,,株式会社,京都府,京都市左京区,鹿ケ谷桜谷町７番地３,,26,103,6068423,,,,,,,2021-08-11,1,,,,,シカミテン,0
1339,5130001069876,新規,0,2021-08-11,2021-08-11,株式会社レナートサイエンス,,株式会社,京都府,京都市左京区,吉田橘町３４番地,,26,103,6068303,,,,,,,2021-08-11,1,,,,,レナートサイエンス,0
1340,5130001069892,新規,0,2021-08-11,2021-08-11,ＢＨＲ株式会社,,株式会社,京都府,京都市中京区,烏丸通三条下る饅頭屋町５９５番地３,,26,104,6048161,,,,,,,2021-08-11,1,,,,,ビーエイチアール,0
1341,5130001069918,新規,0,2021-08-11,2021-08-11,Ｂａｇｇ株式会社,,株式会社,京都府,京都市伏見区,深草下川原町１１０番地６,,26,109,6128401,,,,,,,2021-08-11,1,,,,,バッグ,0
1357,5140001122626,新規,0,2021-08-11,2021-08-11,一笑健命株式会社,,株式会社,兵庫県,姫路市,野里９１３番地１,,28,201,6700811,,,,,,,2021-08-11,1,,,,,イッショウケンメイ,0
1373,5180001147388,新規,0,2021-08-11,2021-08-11,株式会社Ｔｅｃｈ　Ｓｅｔ,,株式会社,愛知県,小牧市,小牧４丁目２７番地１,,23,219,4850041,,,,,,,2021-08-11,1,,,,,テックセット,0
1374,5180001147396,新規,0,2021-08-11,2021-08-11,株式会社アットグラーロ,,株式会社,愛知県,名古屋市中区,大須３丁目３０－６０,,23,106,4600011,,,,,,,2021-08-11,1,,,,,アットグラーロ,0
1378,5180003022820,新規,0,2021-08-11,2021-08-11,合同会社ＫＵＬＩＮＡ,,合同会社,愛知県,知多市,八幡字東大平地４番地の７,,23,224,4780001,,,,,,,2021-08-11,1,,,,,クリナ,0
1379,5180003022845,新規,0,2021-08-11,2021-08-11,合同会社ｓｗｏｒｋｓ,,合同会社,愛知県,名古屋市中区,栄５丁目２６－３９ＧＳ栄ビル３Ｆ,,23,106,4600008,,,,,,,2021-08-11,1,,,,,エスワークス,0
1386,5200005013237,新規,0,2021-08-11,2021-08-11,一般社団法人Ａｍｏｍｅｎｔ,,その他の設立登記法人,岐阜県,高山市,神明町３丁目５３番地,,21,203,5060821,,,,,,,2021-08-11,1,,,,,アモメント,0
1387,5210001018569,新規,0,2021-08-11,2021-08-11,Ｏｖｅｒｌａｐ株式会社,,株式会社,福井県,福井市,御幸３丁目３番３５号３階,,18,201,9100854,,,,,,,2021-08-11,1,,,,,オーバーラップ,0
1390,5220001024343,新規,0,2021-08-11,2021-08-11,株式会社山本屋,,株式会社,石川県,加賀市,小塩町コ３７番地,,17,206,9220553,,,,,,,2021-08-11,1,,,,,ヤマモトヤ,0
1391,5220001024351,新規,0,2021-08-11,2021-08-11,エコリンク株式会社,,株式会社,石川県,金沢市,東力町ニ２３８番地１,,17,201,9218016,,,,,,,2021-08-11,1,,,,,エコリンク,0
1395,5230001018930,新規,0,2021-08-11,2021-08-11,株式会社氷見ふれあい定置,,株式会社,富山県,氷見市,泊１６３４番地,,16,205,9350423,,,,,,,2021-08-11,1,,,,,ヒミフレアイテイチ,0
1401,5240001058439,新規,0,2021-08-11,2021-08-11,Ｐｒｉｍａｖｅｒａ株式会社,,株式会社,広島県,福山市,引野町北４丁目１７番９号,,34,207,7210941,,,,,,,2021-08-11,1,,,,,プリマヴェーラ,0
1415,5290001094099,新規,0,2021-08-11,2021-08-11,株式会社太陽,,株式会社,福岡県,福岡市博多区,博多駅前３丁目７－８－２Ｆ,,40,132,8120011,,,,,,,2021-08-11,1,,,,,タイヨー,0
1416,5290001094108,新規,0,2021-08-11,2021-08-11,株式会社ＮＡＡＦＹ,,株式会社,福岡県,福岡市南区,大楠２丁目２２番１２号,,40,134,8150082,,,,,,,2021-08-11,1,,,,,ナーフィー,0
1417,5290001094116,新規,0,2021-08-11,2021-08-11,ＣＲＯＷＮＳ株式会社,,株式会社,福岡県,福岡市博多区,博多駅南２丁目１４番４－２０２号,,40,132,8120016,,,,,,,2021-08-11,1,,,,,クラウンズ,0
1418,5290001094149,新規,0,2021-08-11,2021-08-11,リバウンド彈株式会社,,株式会社,福岡県,福岡市中央区,渡辺通５丁目５番１８号,,40,133,8100004,,,,,,,2021-08-11,1,,,,,リバウンドダン,0
1419,5290001094157,新規,0,2021-08-11,2021-08-11,株式会社角蔵家,,株式会社,福岡県,福岡市博多区,博多駅中央街２番１号,,40,132,8120012,,,,,,,2021-08-11,1,,,,,カクゾウヤ,0
1420,5290001094207,新規,0,2021-08-11,2021-08-11,株式会社ハルプラス,,株式会社,福岡県,福岡市博多区,美野島３丁目１４番４号,,40,132,8120017,,,,,,,2021-08-11,1,,,,,ハルプラス,0
1422,5290003011498,新規,0,2021-08-11,2021-08-11,合同会社アイティーレヴ,,合同会社,福岡県,春日市,惣利４丁目９２番地,,40,218,8160813,,,,,,,2021-08-11,1,,,,,アイティーレヴ,0
1423,5290005018319,新規,0,2021-08-11,2021-08-11,一般社団法人グリーンコープ産直市場,,その他の設立登記法人,福岡県,福岡市博多区,博多駅前１丁目５番１号,,40,132,8120011,,,,,,,2021-08-11,1,,,,,グリーンコープサンチョクイチバ,0
1424,5290801027687,新規,0,2021-08-11,2021-08-11,株式会社外構,,株式会社,福岡県,直方市,大字山部１０１４番地１,,40,204,8220034,,,,,,,2021-08-11,1,,,,,ガイコウ,0
1446,5370001047478,新規,0,2021-08-11,2021-08-11,サンコーポレーション株式会社,,株式会社,宮城県,仙台市泉区,七北田字町２３番地,,04,105,9813131,,,,,,,2021-08-11,1,,,,,サンコーポレーション,0
1474,5700150104302,新規,0,2021-08-11,2021-08-11,セインパントレーディングカンパニーリミテッド,,外国会社等,東京都,新宿区,高田馬場２丁目１９－７タックイレブン高田馬場９０１号,,13,104,1690075,ミヤンマー連邦ヤンゴン市ボタタウング町テインビュー通り２７８,,,,,,2021-08-11,1,,,,,セインパントレーデイングカンパニーリミテツド,0
1483,6010001220342,新規,0,2021-08-11,2021-08-11,株式会社Ｔａｍｂａｈ,,株式会社,東京都,文京区,向丘２丁目１１番１４号,,13,105,1130023,,,,,,,2021-08-11,1,,,,,タンバァ,0
1487,6010005033740,新規,0,2021-08-11,2021-08-11,一般社団法人日本ベトナムビジネス連合会,,その他の設立登記法人,東京都,千代田区,六番町６番地４,,13,101,1020085,,,,,,,2021-08-11,1,,,,,ニホンベトナムビジネスレンゴウカイ,0
1488,6010005033765,新規,0,2021-08-11,2021-08-11,一般社団法人東京レジデンシャル６,,その他の設立登記法人,東京都,中央区,日本橋１丁目４番１号,,13,102,1030027,,,,,,,2021-08-11,1,,,,,トウキョウレジデンシャルシックス,0
1492,6010401161921,新規,0,2021-08-11,2021-08-11,株式会社ＭＯＴＨＥＲ　ＴＲＥＥ　ＣＯＦＦＥＥ,,株式会社,東京都,港区,赤坂３丁目２１番１５号,,13,103,1070052,,,,,,,2021-08-11,1,,,,,マザーツリーコーヒー,0
1493,6010401161946,新規,0,2021-08-11,2021-08-11,ＡＩＸ　Ｔｅｃｈ　Ｖｅｎｔｕｒｅｓ株式会社,,株式会社,東京都,港区,西新橋３丁目１６番１１号,,13,103,1050003,,,,,,,2021-08-11,1,,,,,エーアイクロステックベンチャーズ,0
1494,6010401162003,新規,0,2021-08-11,2021-08-11,株式会社グロウクレディ,,株式会社,東京都,港区,赤坂９丁目４番１号,,13,103,1070052,,,,,,,2021-08-11,1,,,,,グロウクレディ,0
1496,6010403025819,新規,0,2021-08-11,2021-08-11,合同会社ＧＫ０４９,,合同会社,東京都,港区,虎ノ門３丁目２２番１０－２０１号,,13,103,1050001,,,,,,,2021-08-11,1,,,,,ジーケイゼロフォーナイン,0
1497,6010403025868,新規,0,2021-08-11,2021-08-11,合同会社エースプロモーション,,合同会社,東京都,港区,南青山２丁目２番１５号,,13,103,1070062,,,,,,,2021-08-11,1,,,,,エースプロモーション,0
1498,6010405020066,新規,0,2021-08-11,2021-08-11,一般社団法人ＳＨ０５０,,その他の設立登記法人,東京都,港区,虎ノ門３丁目２２番１０－２０１号,,13,103,1050001,,,,,,,2021-08-11,1,,,,,エスエイチゼロファイブゼロ,0
1504,6010501047673,新規,0,2021-08-11,2021-08-11,株式会社ジェーダブリュービー,,株式会社,東京都,台東区,東上野６丁目１８番１９号フラットサクライビル２階,,13,106,1100015,,,,,,,2021-08-11,1,,,,,ジェーダブリュービー,0
1511,6010701041369,新規,0,2021-08-11,2021-08-11,株式会社ワールド・スタンダード・ネットワーク,,株式会社,東京都,品川区,西五反田８丁目３番６号,,13,109,1410031,,,,,,,2021-08-11,1,,,,,ワールドスタンダードネットワーク,0
1517,6010901049237,新規,0,2021-08-11,2021-08-11,株式会社アウトドア,,株式会社,東京都,世田谷区,弦巻３丁目１２番１７号,,13,112,1540016,,,,,,,2021-08-11,1,,,,,アウトドア,0
1518,6010903006715,新規,0,2021-08-11,2021-08-11,Ｅｘｃｅｌ　Ｅｄｉｔｉｎｇ合同会社,,合同会社,東京都,世田谷区,東玉川１丁目３４－８,,13,112,1580084,,,,,,,2021-08-11,1,,,,,エクセルエディティング,0
1526,6011001142188,新規,0,2021-08-11,2021-08-11,株式会社モネ・ライセンス,,株式会社,東京都,渋谷区,恵比寿１丁目５番７号,,13,113,1500013,,,,,,,2021-08-11,1,,,,,モネライセンス,0
1527,6011001142196,新規,0,2021-08-11,2021-08-11,株式会社ＬＩＦＥＳＴＹＬＥＳ,,株式会社,東京都,目黒区,東山１丁目６番７号フォーラム中目黒５階,,13,110,1530043,,,,,,,2021-08-11,1,,,,,ライフスタイルズ,0
1528,6011001142221,新規,0,2021-08-11,2021-08-11,株式会社ＴＲＥＳ　ＰＡＲＴＮＥＲＳ,,株式会社,東京都,目黒区,駒場１丁目１６番１４号,,13,110,1530041,,,,,,,2021-08-11,1,,,,,トレスパートナーズ,0
1529,6011001142246,新規,0,2021-08-11,2021-08-11,株式会社アリーズ,,株式会社,東京都,渋谷区,神宮前６丁目２９番２号,,13,113,1500001,,,,,,,2021-08-11,1,,,,,アリーズ,0
1530,6011001142295,新規,0,2021-08-11,2021-08-11,株式会社ｍｉｒｕｂｕｚｚ,,株式会社,東京都,渋谷区,渋谷２丁目２２番６号幸和ビル１０Ｆ,,13,113,1500002,,,,,,,2021-08-11,1,,,,,ミルバズ,0
1538,6011101095930,新規,0,2021-08-11,2021-08-11,株式会社ＴＯＲＡＨＩＫＯ,,株式会社,東京都,新宿区,中落合２丁目１６番２８号Ｃｏｍｆｏｒｉａ中落合１１８,,13,104,1610032,,,,,,,2021-08-11,1,,,,,トラヒコ,0
1539,6011101095939,新規,0,2021-08-11,2021-08-11,ＣｌｏｕｄＦｕｖｅ株式会社,,株式会社,東京都,新宿区,大久保２丁目５番２２号,,13,104,1690072,,,,,,,2021-08-11,1,,,,,クラウドファブ,0
1540,6011101095947,新規,0,2021-08-11,2021-08-11,株式会社ブレイクスルーテクノロジー,,株式会社,東京都,新宿区,西新宿６丁目１６番１２号,,13,104,1600023,,,,,,,2021-08-11,1,,,,,ブレイクスルーテクノロジー,0
1541,6011101095955,新規,0,2021-08-11,2021-08-11,株式会社ＴＲＩＢＡＬ,,株式会社,東京都,新宿区,歌舞伎町１丁目５番４号,,13,104,1600021,,,,,,,2021-08-11,1,,,,,トライバル,0
1542,6011101095971,新規,0,2021-08-11,2021-08-11,株式会社Ｎｕｒｓｉｎｇ　Ｄｏｕｌａ・ＳＳ,,株式会社,東京都,新宿区,上落合２丁目１６番９号,,13,104,1610034,,,,,,,2021-08-11,1,,,,,ナーシングドゥーラエスエス,0
1543,6011103010920,新規,0,2021-08-11,2021-08-11,ｄａｉ合同会社,,合同会社,東京都,新宿区,西新宿１丁目２６番２号新宿野村ビル３２階,,13,104,1600023,,,,,,,2021-08-11,1,,,,,ダイ,0
1549,6011501027203,新規,0,2021-08-11,2021-08-11,ＳＱ　ＴＡＭ　ＨＯＡ株式会社,,株式会社,東京都,荒川区,東日暮里６丁目２２番５号大和マンション１０５,,13,118,1160014,,,,,,,2021-08-11,1,,,,,エスキュータムホア,0
1550,6011603003366,新規,0,2021-08-11,2021-08-11,エブリモーメント合同会社,,合同会社,東京都,練馬区,田柄１丁目１７番１５号,,13,120,1790073,,,,,,,2021-08-11,1,,,,,エブリモーメント,0
1558,6011801039559,新規,0,2021-08-11,2021-08-11,株式会社レゼルブ,,株式会社,東京都,足立区,栗原２丁目７番３－３０２号,,13,121,1230842,,,,,,,2021-08-11,1,,,,,レゼルブ,0
1559,6011803004734,新規,0,2021-08-11,2021-08-11,アストリー合同会社,,合同会社,東京都,葛飾区,東堀切２丁目２５番６－２０１号,,13,122,1240004,,,,,,,2021-08-11,1,,,,,アストリー,0
1560,6012301012659,新規,0,2021-08-11,2021-08-11,株式会社スミレペットクリニック,,株式会社,東京都,町田市,成瀬台３丁目８番地１４ヒルズガーデン店舗１階１号室,,13,209,1940043,,,,,,,2021-08-11,1,,,,,スミレペットクリニック,0
1564,6012701016615,新規,0,2021-08-11,2021-08-11,株式会社ユマ,,株式会社,東京都,東久留米市,前沢３丁目７－１４三沢ビル４０３,,13,222,2030032,,,,,,,2021-08-11,1,,,,,ユマ,0
1565,6012703002282,新規,0,2021-08-11,2021-08-11,合同会社ＣＡＩＹＡ,,合同会社,東京都,西東京市,富士町１丁目１番３号１２,,13,229,2020014,,,,,,,2021-08-11,1,,,,,カイヤ,0
1572,6013301047827,新規,0,2021-08-11,2021-08-11,株式会社ＰＡＰＩＬＬＯＮ,,株式会社,東京都,豊島区,池袋本町２丁目５番３－３０１号,,13,116,1700011,,,,,,,2021-08-11,1,,,,,パピヨン,0
1599,6021003010788,新規,0,2021-08-11,2021-08-11,合同会社しんわーく,,合同会社,神奈川県,厚木市,森の里３丁目２－８,,14,212,2430122,,,,,,,2021-08-11,1,,,,,シンワーク,0
1605,6030001143649,新規,0,2021-08-11,2021-08-11,株式会社Ｊ－Ｓｍｉｌｅ　Ｌｏｇｉｓｔｉｃｓ,,株式会社,埼玉県,草加市,中根３丁目１番３１－２０６号,,11,221,3400005,,,,,,,2021-08-11,1,,,,,ジェイスマイルロジスティクス,0
1606,6030001143698,新規,0,2021-08-11,2021-08-11,Ｋａｊｉｂａ株式会社,,株式会社,埼玉県,深谷市,岡里９－１４,,11,218,3690202,,,,,,,2021-08-11,1,,,,,カジバ,0
1607,6030001143715,新規,0,2021-08-11,2021-08-11,Ｍ＆Ｍコーポレーション株式会社,,株式会社,埼玉県,坂戸市,三光町４９番地１４,,11,239,3500235,,,,,,,2021-08-11,1,,,,,エムアンドエムコーポレーション,0
1608,6030001143780,新規,0,2021-08-11,2021-08-11,株式会社セイショーホーム,,株式会社,埼玉県,春日部市,道口蛭田１３６－１ルネ春日部２号棟１０７号室,,11,214,3440045,,,,,,,2021-08-11,1,,,,,セイショーホーム,0
1612,6030003017751,新規,0,2021-08-11,2021-08-11,合同会社ＲＩＣＫ,,合同会社,埼玉県,春日部市,中央５丁目３番５号ジュネパレス春日部第８－１０２号室,,11,214,3440067,,,,,,,2021-08-11,1,,,,,リック,0
1619,6040001119706,新規,0,2021-08-11,2021-08-11,株式会社ＬＡＭＡＫＵ,,株式会社,千葉県,市川市,真間５丁目２２番５号,,12,203,2720826,,,,,,,2021-08-11,1,,,,,ラマク,0
1620,6040001119730,新規,0,2021-08-11,2021-08-11,株式会社知財の楽校,,株式会社,千葉県,千葉市美浜区,若葉３丁目１番地１８クロスレジデンスＳ２－１,,12,106,2610014,,,,,,,2021-08-11,1,,,,,チザイノガッコウ,0
1621,6040001119747,新規,0,2021-08-11,2021-08-11,株式会社椎名木材,,株式会社,千葉県,東金市,家之子４８６番地１,,12,213,2830001,,,,,,,2021-08-11,1,,,,,シイナモクザイ,0
1622,6040001119763,新規,0,2021-08-11,2021-08-11,植松商店株式会社,,株式会社,千葉県,香取郡多古町,十余三３８５番地６３２,,12,347,2892306,,,,,,,2021-08-11,1,,,,,ウエマツショウテン,0
1627,6040003018245,新規,0,2021-08-11,2021-08-11,エー・シー・エム合同会社,,合同会社,千葉県,佐倉市,江原台２丁目１５番地６,,12,212,2850825,,,,,,,2021-08-11,1,,,,,エーシーエム,0
1631,6070005009891,新規,0,2021-08-11,2021-08-11,医療法人ほほえみ会,,その他の設立登記法人,群馬県,前橋市,西片貝町１丁目３１１番地７,,10,201,3710013,,,,,,,2021-08-11,1,,,,,ホホエミカイ,0
1650,6110005016693,新規,0,2021-08-11,2021-08-11,行政書士法人Ｌａｓｔ　Ｈｏｐｅ,,その他の設立登記法人,新潟県,新潟市西区,東青山１丁目１２番地１パークメゾン青山１０１号室,,15,107,9502003,,,,,,,2021-08-11,1,,,,,ラストホープ,0
1657,6120001239545,新規,0,2021-08-11,2021-08-11,株式会社ＰＩＡＴＴＩＢＥＬＬＡ,,株式会社,大阪府,大阪市西区,南堀江１丁目１４番２６号,,27,106,5500015,,,,,,,2021-08-11,1,,,,,ピアッティーベッラ,0
1658,6120001239553,新規,0,2021-08-11,2021-08-11,株式会社ｓｅｅｄ,,株式会社,大阪府,大阪市中央区,心斎橋筋２丁目２番３号ＥＮＪＯＹＴＲＵＳＴＢＬＤ５Ｆ,,27,128,5420085,,,,,,,2021-08-11,1,,,,,シード,0
1659,6120001239586,新規,0,2021-08-11,2021-08-11,株式会社Ｓ・Ｓパートナー,,株式会社,大阪府,大阪市西区,西本町１丁目８番２号三晃ビル９階,,27,106,5500005,,,,,,,2021-08-11,1,,,,,エスエスパートナー,0
1662,6120003020003,新規,0,2021-08-11,2021-08-11,合同会社ラウレア,,合同会社,大阪府,大阪市都島区,友渕町１丁目５番８５号,,27,102,5340016,,,,,,,2021-08-11,1,,,,,ラウレア,0
1666,6120101064133,新規,0,2021-08-11,2021-08-11,Ｉ＆Ｋ株式会社,,株式会社,大阪府,貝塚市,地藏堂５３番３４号,,27,208,5970053,,,,,,,2021-08-11,1,,,,,アイアンドケー,0
1667,6120103004293,新規,0,2021-08-11,2021-08-11,合同会社ＸＵＡＮ　ＮＨＩＥＮ,,合同会社,大阪府,藤井寺市,沢田４丁目６番８号,,27,226,5830011,,,,,,,2021-08-11,1,,,,,スアンニエン,0
1669,6120901044747,新規,0,2021-08-11,2021-08-11,エイオン株式会社,,株式会社,大阪府,吹田市,昭和町９番２２号,,27,205,5640028,,,,,,,2021-08-11,1,,,,,エイオン,0
1682,6140001122609,新規,0,2021-08-11,2021-08-11,ＮＥＫＡＳＡＭ株式会社,,株式会社,兵庫県,尼崎市,額田町８番３号,,28,202,6610962,,,,,,,2021-08-11,1,,,,,ネカサム,0
1683,6140003016610,新規,0,2021-08-11,2021-08-11,合同会社パチャース,,合同会社,兵庫県,神戸市兵庫区,西出町２丁目１７－１８,,28,105,6520822,,,,,,,2021-08-11,1,,,,,パチャース,0
1684,6140005025782,新規,0,2021-08-11,2021-08-11,一般社団法人きせき,,その他の設立登記法人,兵庫県,三木市,志染町広野４丁目４９６番地,,28,215,6730541,,,,,,,2021-08-11,1,,,,,キセキ,0
1685,6150001024853,新規,0,2021-08-11,2021-08-11,株式会社Ｒｅｂｅ,,株式会社,奈良県,吉野郡東吉野村,大字木津川６６番地,,29,453,6332432,,,,,,,2021-08-11,1,,,,,リーベ,0
1688,6150003002452,新規,0,2021-08-11,2021-08-11,合同会社マツモリ,,合同会社,奈良県,奈良市,法蓮町北２丁目１２５７,,29,201,6300000,,,,,,,2021-08-11,1,,,,,マツモリ,0
1697,6180001147354,新規,0,2021-08-11,2021-08-11,株式会社アヴァンセ,,株式会社,愛知県,名古屋市東区,矢田東４番３号ルノンドームＡ６０２号室,,23,102,4610044,,,,,,,2021-08-11,1,,,,,アヴァンセ,0
1703,6180003022836,新規,0,2021-08-11,2021-08-11,合同会社グラビティ,,合同会社,愛知県,名古屋市千種区,池下町２丁目６３番地の２５,,23,101,4640066,,,,,,,2021-08-11,1,,,,,グラビティ,0
1731,6240001058438,新規,0,2021-08-11,2021-08-11,株式会社蒼衣庭園,,株式会社,広島県,三次市,三次町３６７番地１,,34,209,7280021,,,,,,,2021-08-11,1,,,,,アオイテイエン,0
1739,6260003003646,新規,0,2021-08-11,2021-08-11,サーブロジテック合同会社,,合同会社,岡山県,倉敷市,玉島３丁目１３‐３,,33,202,7138102,,,,,,,2021-08-11,1,,,,,サーブロジテック,0
1747,6290001094180,新規,0,2021-08-11,2021-08-11,日本ライフサイエンス株式会社,,株式会社,福岡県,福岡市中央区,渡辺通５丁目１４番１２号南天神ビル３階３１３号,,40,133,8100004,,,,,,,2021-08-11,1,,,,,ニホンライフサイエンス,0
1748,6290001094197,新規,0,2021-08-11,2021-08-11,株式会社ファイブアールカンパニー,,株式会社,福岡県,春日市,白水ヶ丘４丁目５８番地リバティー館２０７号,,40,218,8160845,,,,,,,2021-08-11,1,,,,,ファイブアールカンパニー,0
1749,6290001094206,新規,0,2021-08-11,2021-08-11,株式会社エヌセツ,,株式会社,福岡県,福岡市南区,老司４丁目２５番６号,,40,134,8111346,,,,,,,2021-08-11,1,,,,,エヌセツ,0
1752,6290003011448,新規,0,2021-08-11,2021-08-11,ロイドオフィス合同会社,,合同会社,福岡県,福岡市中央区,高砂１丁目１９－９－５０２,,40,133,8100011,,,,,,,2021-08-11,1,,,,,ロイドオフィス,0
1753,6290005018318,新規,0,2021-08-11,2021-08-11,一般社団法人篠原桃源廟,,その他の設立登記法人,福岡県,糸島市,前原南１丁目１４番１７号,,40,230,8191139,,,,,,,2021-08-11,1,,,,,シノワラトウゲンビョウ,0
1754,6290801027686,新規,0,2021-08-11,2021-08-11,ｃｏｏｋ　ｉｎｋ株式会社,,株式会社,福岡県,北九州市八幡西区,木屋瀬１丁目２５番３６号,,40,109,8071261,,,,,,,2021-08-11,1,,,,,クックインク,0
1755,6290801027703,新規,0,2021-08-11,2021-08-11,株式会社タキオン・カンパニー,,株式会社,福岡県,北九州市小倉北区,井堀２丁目７番１８号,,40,106,8030835,,,,,,,2021-08-11,1,,,,,タキオンカンパニー,0
1773,6360001029212,新規,0,2021-08-11,2021-08-11,株式会社當銘工業,,株式会社,沖縄県,うるま市,字仲嶺３３４番地、１Ｆ,,47,213,9042226,,,,,,,2021-08-11,1,,,,,トウメコウギョウ,0
1777,6370001047428,新規,0,2021-08-11,2021-08-11,株式会社まえやち接骨院,,株式会社,宮城県,石巻市,前谷地字黒沢前１６７,,04,202,9871101,,,,,,,2021-08-11,1,,,,,マエヤチセッコツイン,0
1778,6370001047469,新規,0,2021-08-11,2021-08-11,株式会社ＯＮＥ　ｆｏｒ　ＡＬＬ　ｆｏｒ　ＯＮＥ,,株式会社,宮城県,仙台市青葉区,国分町３丁目５番７号,,04,101,9800803,,,,,,,2021-08-11,1,,,,,ワンフォーオールフォーワン,0
1785,6390001016562,新規,0,2021-08-11,2021-08-11,株式会社たいようパン,,株式会社,山形県,東置賜郡高畠町,大字深沼２８５９番地の６,,06,381,9920344,,,,,,,2021-08-11,1,,,,,タイヨウパン,0
1794,6420003002359,新規,0,2021-08-11,2021-08-11,合同会社ＳＪ,,合同会社,青森県,つがる市,柏桑野木田幾世９番地４,,02,209,0383104,,,,,,,2021-08-11,1,,,,,エスジェイ,0
1801,6430001084695,新規,0,2021-08-11,2021-08-11,株式会社岡本商会,,株式会社,北海道,札幌市北区,新川７７７番地１５,,01,102,0010930,,,,,,,2021-08-11,1,,,,,オカモトショウカイ,0
1820,6500001023621,新規,0,2021-08-11,2021-08-11,株式会社ＮＭＨ,,株式会社,愛媛県,松山市,山越２丁目８番３６号,,38,201,7918013,,,,,,,2021-08-11,1,,,,,エヌエムエイチ,0
1821,6700150104177,新規,0,2021-08-11,2021-07-28,九州ＩＲ推進協議会,,その他,長崎県,長崎市,尾上町３－１,,42,201,8500058,,,,,,,2021-07-28,1,,,,,キユウシユウアイアールスイシンキヨウギカイ,0
1831,7010003035465,新規,0,2021-08-11,2021-08-11,ＭＪヘルスケア合同会社,,合同会社,東京都,中央区,日本橋１丁目４番１号日本橋一丁目ビルディング,,13,102,1030027,,,,,,,2021-08-11,1,,,,,エムジェイヘルスケア,0
1832,7010003035572,新規,0,2021-08-11,2021-08-11,合同会社ケアパートナーズ,,合同会社,東京都,千代田区,神田須田町２丁目２番５号,,13,101,1010041,,,,,,,2021-08-11,1,,,,,ケアパートナーズ,0
1841,7010401161945,新規,0,2021-08-11,2021-08-11,株式会社２ＮＤ　ＳＴＥＰ,,株式会社,東京都,港区,新橋５丁目１番３号新正堂第１ビル,,13,103,1050004,,,,,,,2021-08-11,1,,,,,セカンドステップ,0
1842,7010401162027,新規,0,2021-08-11,2021-08-11,株式会社ＭＭＤ－Ｐ,,株式会社,東京都,港区,新橋２丁目１６番１号,,13,103,1050004,,,,,,,2021-08-11,1,,,,,エムエムディーピー,0
1843,7010405020065,新規,0,2021-08-11,2021-08-11,一般社団法人ＳＨ０４９,,その他の設立登記法人,東京都,港区,虎ノ門３丁目２２番１０－２０１号,,13,103,1050001,,,,,,,2021-08-11,1,,,,,エスエイチゼロフォーナイン,0
1851,7010705003257,新規,0,2021-08-11,2021-08-11,行政書士法人山内法務事務所,,その他の設立登記法人,東京都,品川区,大井４丁目１２番２２号,,13,109,1400014,,,,,,,2021-08-11,1,,,,,ヤマウチホウムジムショ,0
1865,7011001142179,新規,0,2021-08-11,2021-08-11,株式会社ＢＧ,,株式会社,東京都,渋谷区,千駄ヶ谷３丁目１２番１５号佐野ビル３階,,13,113,1510051,,,,,,,2021-08-11,1,,,,,ビージー,0
1866,7011001142187,新規,0,2021-08-11,2021-08-11,株式会社Ｚ　Ｈｅｒｏ,,株式会社,東京都,渋谷区,宇田川町３番３－１２０１号,,13,113,1500042,,,,,,,2021-08-11,1,,,,,ゼットヒーロー,0
1867,7011001142195,新規,0,2021-08-11,2021-08-11,Ａｇｇｒｅｇａｔｉｏｎ株式会社,,株式会社,東京都,渋谷区,千駄ヶ谷２丁目２９番５号カーサ千駄ヶ谷２０１号室,,13,113,1510051,,,,,,,2021-08-11,1,,,,,アグリゲーション,0
1868,7011001142204,新規,0,2021-08-11,2021-08-11,株式会社ＣＲＥＤＩＴ,,株式会社,東京都,目黒区,上目黒５丁目１９番３８号,,13,110,1530051,,,,,,,2021-08-11,1,,,,,クレジット,0
1869,7011001142212,新規,0,2021-08-11,2021-08-11,ＬＤＰ株式会社,,株式会社,東京都,渋谷区,広尾１丁目１番２２－１１１号,,13,113,1500012,,,,,,,2021-08-11,1,,,,,エルディーピー,0
1870,7011001142229,新規,0,2021-08-11,2021-08-11,トラストサポート株式会社,,株式会社,東京都,渋谷区,道玄坂１丁目１５番３－６２２号プリメーラ道玄坂,,13,113,1500043,,,,,,,2021-08-11,1,,,,,トラストサポート,0
1873,7011003013188,新規,0,2021-08-11,2021-08-11,リトルネロフィルムズ合同会社,,合同会社,東京都,渋谷区,渋谷１丁目１番３号アミーホール３階,,13,113,1500002,,,,,,,2021-08-11,1,,,,,リトルネロフィルムズ,0
1874,7011003013196,新規,0,2021-08-11,2021-08-11,フェネクス合同会社,,合同会社,東京都,渋谷区,代官山町１１番１号住友不動産代官山ハイツＡ３０５,,13,113,1500034,,,,,,,2021-08-11,1,,,,,フェネクス,0
1876,7011101095954,新規,0,2021-08-11,2021-08-11,ＨＡＴＡＲＡＫＵエルダー株式会社,,株式会社,東京都,新宿区,新小川町６番２９号,,13,104,1620814,,,,,,,2021-08-11,1,,,,,ハタラクエルダー,0
1877,7011101095962,新規,0,2021-08-11,2021-08-11,株式会社ＰａｎｄａＯｆｆｉｃｅ,,株式会社,東京都,新宿区,新宿３丁目１２番４号新宿Ｎタウンプラザ３０９号,,13,104,1600022,,,,,,,2021-08-11,1,,,,,パンダオフィス,0
1878,7011101095970,新規,0,2021-08-11,2021-08-11,株式会社オゥシャン,,株式会社,東京都,新宿区,原町２丁目３０番牛込ハイム,,13,104,1620053,,,,,,,2021-08-11,1,,,,,オゥシャン,0
1879,7011103010928,新規,0,2021-08-11,2021-08-11,合同会社ＰＯＮＴＯＯＮ,,合同会社,東京都,新宿区,市谷田町３丁目８市ヶ谷科学技術イノベーションセンタービル２Ｆ,,13,104,1620843,,,,,,,2021-08-11,1,,,,,ポントゥーン,0
1880,7011201023154,新規,0,2021-08-11,2021-08-11,株式会社ＣＨＥＺＣＨＩＣ,,株式会社,東京都,中野区,本町４丁目４２番１号,,13,114,1640012,,,,,,,2021-08-11,1,,,,,シェシック,0
1881,7011201023170,新規,0,2021-08-11,2021-08-11,株式会社長岡屋,,株式会社,東京都,中野区,新井１丁目８番１号ビルドナガオカ１Ｆ,,13,114,1650026,,,,,,,2021-08-11,1,,,,,ナガオカヤ,0
1886,7011303004127,新規,0,2021-08-11,2021-08-11,合同会社小梅,,合同会社,東京都,杉並区,高円寺南２丁目２４番１５号フォンテーヌ４０１,,13,115,1660003,,,,,,,2021-08-11,1,,,,,コウメ,0
1894,7011801039558,新規,0,2021-08-11,2021-08-11,株式会社Ｙｕｍｍｙ　Ｓｔｕｄｉｏｓ,,株式会社,東京都,足立区,神明南２丁目１０番２号,,13,121,1210057,,,,,,,2021-08-11,1,,,,,ユミースタジオス,0
1898,7012401038165,新規,0,2021-08-11,2021-08-11,ブラックスミス株式会社,,株式会社,東京都,調布市,調布ケ丘１丁目３４番地１,,13,208,1820021,,,,,,,2021-08-11,1,,,,,ブラックスミス,0
1899,7012403004982,新規,0,2021-08-11,2021-08-11,合同会社ハイブリッジ,,合同会社,東京都,調布市,調布ケ丘１丁目１４番２１号パレス調布ヶ丘３０３号室,,13,208,1820021,,,,,,,2021-08-11,1,,,,,ハイブリッジ,0
1905,7013301047834,新規,0,2021-08-11,2021-08-11,株式会社ペトリコール,,株式会社,東京都,豊島区,西池袋５丁目５番２１－３２０１号,,13,116,1710021,,,,,,,2021-08-11,1,,,,,ペトリコール,0
1933,7030001143730,新規,0,2021-08-11,2021-08-11,Ｒｅ．Ｒａｉｓｅ株式会社,,株式会社,埼玉県,吉川市,栄町７６３－３,,11,243,3420050,,,,,,,2021-08-11,1,,,,,リレイズ,0
1934,7030001143739,新規,0,2021-08-11,2021-08-11,株式会社紅雄工業,,株式会社,埼玉県,戸田市,美女木１丁目１０番地の１２,,11,224,3350031,,,,,,,2021-08-11,1,,,,,ベニオコウギョウ,0
1935,7030001143788,新規,0,2021-08-11,2021-08-11,株式会社トータルケア,,株式会社,埼玉県,さいたま市大宮区,桜木町２丁目２番地８花背ビル３Ｆ,,11,103,3300854,,,,,,,2021-08-11,1,,,,,トータルケア,0
1939,7030003017692,新規,0,2021-08-11,2021-08-11,合同会社ピクラリダ,,合同会社,埼玉県,さいたま市北区,東大成町２丁目７１７－３マルギガーデン４０３,,11,102,3310814,,,,,,,2021-08-11,1,,,,,ピクラリダ,0
1943,7040001119762,新規,0,2021-08-11,2021-08-11,株式会社Ｆ,,株式会社,千葉県,千葉市若葉区,高品町１５９８番地６サニーハイツ１０２号室,,12,104,2640024,,,,,,,2021-08-11,1,,,,,エフ,0
1947,7050003006025,新規,0,2021-08-11,2021-08-11,合同会社ＴＲＩＬＹ,,合同会社,茨城県,水戸市,西原２丁目１２番地９号グランジェロ３０４号室,,08,201,3100044,,,,,,,2021-08-11,1,,,,,トライリー,0
1949,7060001033953,新規,0,2021-08-11,2021-08-11,ＪＡＳＳ　ＪＡＰＡＮ株式会社,,株式会社,栃木県,佐野市,越名町２０６番地２,,09,204,3270822,,,,,,,2021-08-11,1,,,,,ジャスジャパン,0
1961,7100001034501,新規,0,2021-08-11,2021-08-11,株式会社ＶＥＲＴＥＸ,,株式会社,長野県,小諸市,大字市６７１番地１１,,20,208,3840083,,,,,,,2021-08-11,1,,,,,バーテクス,0
1980,7120001239627,新規,0,2021-08-11,2021-08-11,福気国際貿易株式会社,,株式会社,大阪府,大阪市住之江区,安立２丁目１０番１４号三坂ビル３０７号室,,27,125,5590003,,,,,,,2021-08-11,1,,,,,フクキコクサイボウエキ,0
1981,7120001239684,新規,0,2021-08-11,2021-08-11,アキュラシー株式会社,,株式会社,大阪府,大阪市淀川区,西中島６丁目３番２４号Ｋ４０２,,27,123,5320011,,,,,,,2021-08-11,1,,,,,アキュラシー,0
1985,7120003020010,新規,0,2021-08-11,2021-08-11,合同会社ＳＵＧＯＩ,,合同会社,大阪府,大阪市生野区,新今里４丁目１１番２－１０３号,,27,116,5440001,,,,,,,2021-08-11,1,,,,,スゴイ,0
1990,7120005022442,新規,0,2021-08-11,2021-08-11,税理士法人ＧＲＯＷＬＥＡＤ,,その他の設立登記法人,大阪府,大阪市中央区,平野町２丁目１番２号沢の鶴ビル７階,,27,128,5410046,,,,,,,2021-08-11,1,,,,,グロウリード,0
1991,7120101064140,新規,0,2021-08-11,2021-08-11,株式会社ウィライズ,,株式会社,大阪府,松原市,柴垣１丁目２３番８号,,27,217,5800017,,,,,,,2021-08-11,1,,,,,ウィライズ,0
1992,7120103004292,新規,0,2021-08-11,2021-08-11,デジタルパレット合同会社,,合同会社,大阪府,富田林市,寺池台５丁目１－７９－４０８,,27,214,5840073,,,,,,,2021-08-11,1,,,,,デジタルパレット,0
1995,7120901044746,新規,0,2021-08-11,2021-08-11,株式会社ボヌール,,株式会社,大阪府,箕面市,瀬川５丁目１６番５－５０４号,,27,220,5620045,,,,,,,2021-08-11,1,,,,,ボヌール,0
2000,7130001069908,新規,0,2021-08-11,2021-08-11,株式会社長尾設備,,株式会社,京都府,京都市南区,唐橋大宮尻町１１番地,,26,107,6018467,,,,,,,2021-08-11,1,,,,,ナガオセツビ,0
2016,7150001024852,新規,0,2021-08-11,2021-08-11,株式会社ポチ,,株式会社,奈良県,北葛城郡広陵町,大字安部２０７番地１,,29,426,6350825,,,,,,,2021-08-11,1,,,,,ポチ,0
2017,7150003002451,新規,0,2021-08-11,2021-08-11,合同会社Ｏｚ,,合同会社,奈良県,大和高田市,大字有井１８１－１,,29,202,6350072,,,,,,,2021-08-11,1,,,,,オズ,0
2026,7180001147403,新規,0,2021-08-11,2021-08-11,株式会社一直土木,,株式会社,愛知県,弥富市,竹田６丁目７８番１,,23,235,4901428,,,,,,,2021-08-11,1,,,,,イッチョクドボク,0
2039,7210003001397,新規,0,2021-08-11,2021-08-11,アクシアメディカル合同会社,,合同会社,福井県,福井市,堀ノ宮１丁目１１９番地,,18,201,9100032,,,,,,,2021-08-11,1,,,,,アクシアメディカル,0
2042,7230001018929,新規,0,2021-08-11,2021-08-11,ＩＲＥｃｏｍｍｕｎｉｃａｔｉｏｎ株式会社,,株式会社,富山県,富山市,水橋辻ヶ堂６１０番地８,00123898,16,201,9393515,,,,,,,2021-08-11,1,,,,,アイアールイーコミュニケーション,0
2043,7230001018937,新規,0,2021-08-11,2021-08-11,株式会社産業未来化研究室,,株式会社,富山県,射水市,中央町１４番４号,,16,211,9340012,,,,,,,2021-08-11,1,,,,,サンギョウミライカケンキュウシツ,0
2045,7240001058437,新規,0,2021-08-11,2021-08-11,株式会社瀬戸緑化,,株式会社,広島県,広島市安佐北区,三入東１丁目１８番１４号,,34,106,7310212,,,,,,,2021-08-11,1,,,,,セトリョッカ,0
2052,7240005015252,新規,0,2021-08-11,2021-08-11,一般社団法人にじいろ,,その他の設立登記法人,広島県,安芸郡府中町,青崎東２０番５号,,34,302,7350015,,,,,,,2021-08-11,1,,,,,ニジイロ,0
2055,7250001019058,新規,0,2021-08-11,2021-08-11,虹テクノ株式会社,,株式会社,山口県,光市,虹ケ丘６丁目１４番２６号,,35,210,7430031,,,,,,,2021-08-11,1,,,,,ニジテクノ,0
2066,7290001094130,新規,0,2021-08-11,2021-08-11,ＣＡＮＯＷ株式会社,,株式会社,福岡県,福岡市博多区,住吉５丁目５番２２－１００２号アルファライフ博多,,40,132,8120018,,,,,,,2021-08-11,1,,,,,キャノウ,0
2067,7290001094155,新規,0,2021-08-11,2021-08-11,株式会社Ａｒｓｈａｍ,,株式会社,福岡県,久留米市,西町１４８６番地１,,40,203,8300038,,,,,,,2021-08-11,1,,,,,アーシャム,0
2068,7290001094188,新規,0,2021-08-11,2021-08-11,株式会社ＰＡＳＳ,,株式会社,福岡県,福岡市中央区,天神１丁目６番８号天神ツインビル７階,,40,133,8100001,,,,,,,2021-08-11,1,,,,,パス,0
2069,7290001094213,新規,0,2021-08-11,2021-08-11,株式会社三春,,株式会社,福岡県,福岡市中央区,天神５丁目４番６号,,40,133,8100001,,,,,,,2021-08-11,1,,,,,ミハル,0
2072,7290003011488,新規,0,2021-08-11,2021-08-11,ダイナスティウエイ合同会社,,合同会社,福岡県,福岡市博多区,諸岡５丁目３１番１４－１０１号,,40,132,8120894,,,,,,,2021-08-11,1,,,,,ダイナスティウエイ,0
2073,7290005018309,新規,0,2021-08-11,2021-08-11,一般社団法人グリーンコープこども基金,,その他の設立登記法人,福岡県,福岡市博多区,博多駅前１丁目５番１号,,40,132,8120011,,,,,,,2021-08-11,1,,,,,グリーンコープコドモキキン,0
2075,7290801027693,新規,0,2021-08-11,2021-08-11,株式会社フクヒデ,,株式会社,福岡県,鞍手郡鞍手町,大字中山２７９９番地４,,40,402,8071312,,,,,,,2021-08-11,1,,,,,フクヒデ,0
2076,7290803003899,新規,0,2021-08-11,2021-08-11,合同会社カインドネス,,合同会社,福岡県,北九州市小倉北区,昭和町１０－３－３０２,,40,106,8020075,,,,,,,2021-08-11,1,,,,,カインドネス,0
2086,7360001029186,新規,0,2021-08-11,2021-08-11,株式会社ＫＴＤｓｏｉｌ,,株式会社,沖縄県,島尻郡北大東村,字中野１５,,47,358,9013902,,,,,,,2021-08-11,1,,,,,,0
2087,7360001029203,新規,0,2021-08-11,2021-08-11,Ｔｈｅ　ｃｈｅｒｒｙ　ｂｌｏｓｓｏｍｓ株式会社,,株式会社,沖縄県,島尻郡南風原町,字本部１４５番地４,,47,350,9011112,,,,,,,2021-08-11,1,,,,,ザッチェリーブロッサムズ,0
2088,7360003011349,新規,0,2021-08-11,2021-08-11,合同会社ワークライフコミュニケーションズ,,合同会社,沖縄県,那覇市,おもろまち１丁目１番２５号ＲＹＵＸ・ＴＯＷＥＲ・Ｔｈｅ・ＷＥＳＴ２９０１,,47,201,9000006,,,,,,,2021-08-11,1,,,,,ワークライフコミュニケーションズ,0
2090,7370001047427,新規,0,2021-08-11,2021-08-11,株式会社かんだホールディングス,,株式会社,宮城県,仙台市青葉区,中央１丁目７番４０号大野第一ビル,,04,101,9800021,,,,,,,2021-08-11,1,,,,,カンダホールディングス,0
2091,7370001047468,新規,0,2021-08-11,2021-08-11,株式会社雅,,株式会社,宮城県,仙台市太白区,四郎丸字大宮６６番地の８,,04,104,9811101,,,,,,,2021-08-11,1,,,,,ミヤビ,0
2092,7370001047476,新規,0,2021-08-11,2021-08-11,株式会社ランド,,株式会社,宮城県,仙台市青葉区,芋沢字青野木２５６番地,,04,101,9893212,,,,,,,2021-08-11,1,,,,,,0
2101,7400001015561,新規,0,2021-08-11,2021-08-11,株式会社あんばい牧場,,株式会社,岩手県,奥州市,胆沢若柳字上堰袋４６番地,,03,215,0230403,,,,,,,2021-08-11,1,,,,,アンバイボクジョウ,0
2107,7420003002366,新規,0,2021-08-11,2021-08-11,合同会社Ｗａｋｅ,,合同会社,青森県,つがる市,稲垣町沼崎幾代崎７４番地２,,02,209,0370106,,,,,,,2021-08-11,1,,,,,ウェイク,0
2113,7430001084678,新規,0,2021-08-11,2021-08-11,ＩＤＭ株式会社,,株式会社,北海道,札幌市清田区,平岡八条３丁目１１番１７号,,01,110,0040878,,,,,,,2021-08-11,1,,,,,アイディーエム,0
2114,7430001084728,新規,0,2021-08-11,2021-08-11,株式会社ナインエンターテインメント,,株式会社,北海道,札幌市白石区,北郷五条１０丁目４番２５号,,01,104,0030835,,,,,,,2021-08-11,1,,,,,ナインエンターテインメント,0
2122,7470001018657,新規,0,2021-08-11,2021-08-11,株式会社ａｎｄ,,株式会社,香川県,高松市,花園町３丁目４番１号－１０２,,37,201,7600072,,,,,,,2021-08-11,1,,,,,アンド,0
2125,7490005006796,新規,0,2021-08-11,2021-08-11,税理士法人いせざき事務所,,その他の設立登記法人,高知県,高知市,伊勢崎町１５番６号,,39,201,7800046,,,,,,,2021-08-11,1,,,,,イセザキジムショ,0
2128,7700150048729,新規,0,2021-08-11,2015-10-09,中津川自家用自動車組合,,その他,岐阜県,中津川市,かやの木町３－８,,21,206,5080045,,,,,,,2015-10-09,1,,,,,ナカツガワジカヨウジドウシヤクミアイ,0
2129,7700150103764,新規,0,2021-08-11,2021-06-17,空き家対策組合,,その他,神奈川県,横浜市鶴見区,寺谷１丁目３－３６－２０３,,14,101,2300015,,,,,,,2021-06-17,1,,,,,アキヤタイサククミアイ,0
2130,7700150104168,新規,0,2021-08-11,2021-07-27,全駐労神奈川地区本部　退職者の会,,その他,神奈川県,相模原市南区,相武台２丁目２０－１４,,14,153,2520324,,,,,,,2021-07-27,1,,,,,ゼンチユウロウカナガワチクホンブタイシヨクシヤノカイ,0
2138,8010001220332,新規,0,2021-08-11,2021-08-11,フレンズ株式会社,,株式会社,東京都,中央区,銀座１丁目３番先北有楽ビル１階,,13,102,1040061,,,,,,,2021-08-11,1,,,,,フレンズ,0
2142,8010005033755,新規,0,2021-08-11,2021-08-11,一般社団法人ＭＪヘルスケア,,その他の設立登記法人,東京都,中央区,日本橋１丁目４番１号日本橋一丁目ビルディング,,13,102,1030027,,,,,,,2021-08-11,1,,,,,エムジェイヘルスケア,0
2156,8010403025874,新規,0,2021-08-11,2021-08-11,ホライズンパートナーズ合同会社,,合同会社,東京都,港区,浜松町２丁目２番１５号浜松町ダイヤビル２Ｆ,,13,103,1050013,,,,,,,2021-08-11,1,,,,,ホライズンパートナーズ,0
2157,8010403025890,新規,0,2021-08-11,2021-08-11,ＷＥＬＬ合同会社,,合同会社,東京都,港区,芝浦４丁目２２番１－１４２２号,,13,103,1080023,,,,,,,2021-08-11,1,,,,,ウェル,0
2159,8010405020064,新規,0,2021-08-11,2021-08-11,一般社団法人じぶんクリニック,,その他の設立登記法人,東京都,港区,六本木３丁目２番１号住友不動産六本木グランドタワー,,13,103,1060032,,,,,,,2021-08-11,1,,,,,ジブンクリニック,0
2161,8010501047655,新規,0,2021-08-11,2021-08-11,株式会社Ｂａｍｂｏｏ．ＡＩ,,株式会社,東京都,台東区,上野６丁目１６番２０号,,13,106,1100005,,,,,,,2021-08-11,1,,,,,バンブードットエイ,0
2162,8010503006345,新規,0,2021-08-11,2021-08-11,合同会社Ａｚｅｒｏ,,合同会社,東京都,台東区,元浅草１丁目６番１２－６０２号,,13,106,1110041,,,,,,,2021-08-11,1,,,,,アゼロ,0
2167,8010705003256,新規,0,2021-08-11,2021-08-11,特定非営利活動法人はぴこね,,その他の設立登記法人,東京都,品川区,東大井５丁目８番１０号パレス・ぼだい樹５０３,,13,109,1400011,,,,,,,2021-08-11,1,,,,,ハピコネ,0
2174,8010903006713,新規,0,2021-08-11,2021-08-11,合同会社ＪＩＲＵ,,合同会社,東京都,世田谷区,深沢４丁目２８番６号,,13,112,1580081,,,,,,,2021-08-11,1,,,,,ジル,0
2184,8011001142178,新規,0,2021-08-11,2021-08-11,株式会社Ｓｐｒｉｍｅ　Ｅｎｔｅｒｔａｉｎｍｅｎｔ,,株式会社,東京都,渋谷区,渋谷２丁目２４番１２号,,13,113,1500002,,,,,,,2021-08-11,1,,,,,スプライムエンターテインメント,0
2185,8011001142203,新規,0,2021-08-11,2021-08-11,株式会社ＢＯＯＫＳ,,株式会社,東京都,渋谷区,代々木１丁目１１番２号代々木コミュニティビル５Ｆ,,13,113,1510053,,,,,,,2021-08-11,1,,,,,ブックス,0
2186,8011001142211,新規,0,2021-08-11,2021-08-11,株式会社ＨＡＹＡＭＡ,,株式会社,東京都,渋谷区,代々木４丁目２７番２８号,,13,113,1510053,,,,,,,2021-08-11,1,,,,,ハヤマ,0
2191,8011101095945,新規,0,2021-08-11,2021-08-11,銀座デンタルホワイト株式会社,,株式会社,東京都,新宿区,四谷４丁目３番地,,13,104,1600004,,,,,,,2021-08-11,1,,,,,ギンザデンタルホワイト,0
2192,8011101095953,新規,0,2021-08-11,2021-08-11,株式会社Ｉ＆Ｋ,,株式会社,東京都,新宿区,筑土八幡町４番２３号,,13,104,1620815,,,,,,,2021-08-11,1,,,,,アイアンドケー,0
2193,8011103010927,新規,0,2021-08-11,2021-08-11,合同会社ＴＯＹＯＤＡ,,合同会社,東京都,新宿区,歌舞伎町２丁目２５番８号エコプレイス新宿４０７,,13,104,1600021,,,,,,,2021-08-11,1,,,,,トヨダ,0
2194,8011303004126,新規,0,2021-08-11,2021-08-11,合同会社ＨＩＤＥコーポレーション,,合同会社,東京都,杉並区,阿佐谷北４丁目２４番１１号ＭＤＭ・ＡＳＡＧＡＹＡ４０２,,13,115,1660001,,,,,,,2021-08-11,1,,,,,ヒデコーポレーション,0
2200,8011703002910,新規,0,2021-08-11,2021-08-11,３インフィニティー合同会社,,合同会社,東京都,江戸川区,西一之江３丁目１８番１９号,,13,123,1320023,,,,,,,2021-08-11,1,,,,,スリーインフィニティー,0
2207,8012701016613,新規,0,2021-08-11,2021-08-11,株式会社ピーター,,株式会社,東京都,小平市,小川町２丁目１２６７番地の７－１階,,13,211,1870032,,,,,,,2021-08-11,1,,,,,ピーター,0
2212,8013303005772,新規,0,2021-08-11,2021-08-11,華鑫合同会社,00123900,合同会社,東京都,豊島区,池袋１丁目１番４号,,13,116,1700014,,,,,,,2021-08-11,1,,,,,カシン,0
2221,8020003020300,新規,0,2021-08-11,2021-08-11,合同会社ナイン,,合同会社,神奈川県,横浜市中区,扇町２丁目５－１５リラックスビル９Ｆ,,14,104,2310027,,,,,,,2021-08-11,1,,,,,ナイン,0
2222,8020003020309,新規,0,2021-08-11,2021-08-11,合同会社Ｒ－ｒｅｖｏｌｕｔｉｏｎ,,合同会社,神奈川県,横浜市都筑区,中川中央１丁目６番１２号,,14,118,2240003,,,,,,,2021-08-11,1,,,,,アールレボリューション,0
2232,8030001143647,新規,0,2021-08-11,2021-08-11,株式会社Ｂｉｇ．Ｔ　Ｇｒｏｕｐ,,株式会社,埼玉県,上尾市,西宮下２丁目４２６番地ガーデンＳＵＧＡ２０２,,11,219,3620043,,,,,,,2021-08-11,1,,,,,ビッグティーグループ,0
2233,8030001143779,新規,0,2021-08-11,2021-08-11,株式会社アーキクラフト,,株式会社,埼玉県,川越市,大字天沼新田２４１番地５,,11,201,3500806,,,,,,,2021-08-11,1,,,,,アーキクラフト,0
2234,8030001143787,新規,0,2021-08-11,2021-08-11,株式会社ＦＺＳ,,株式会社,埼玉県,さいたま市大宮区,桜木町１丁目１番地７号ＯＮビル４Ｆ,,11,103,3300854,,,,,,,2021-08-11,1,,,,,エフゼットエス,0
2244,8040001119687,新規,0,2021-08-11,2021-08-11,株式会社ＭＡＨ,,株式会社,千葉県,千葉市緑区,平山町１９２２番地６４,,12,105,2660002,,,,,,,2021-08-11,1,,,,,エムエイエイチ,0
2245,8040001119704,新規,0,2021-08-11,2021-08-11,Ｔ－ＡＣＴ２１コーポレーション株式会社,,株式会社,千葉県,富里市,七栄２８４－１０,,12,233,2860221,,,,,,,2021-08-11,1,,,,,ティーアクトニジュウイチコーポレーション,0
2250,8050003006024,新規,0,2021-08-11,2021-08-11,ＹＯＵＳＡＦ　ＩＮＴＥＲＮＡＴＩＯＮＡＬ合同会社,,合同会社,茨城県,坂東市,上出島２７番２２,,08,228,3060654,,,,,,,2021-08-11,1,,,,,ユソフインターナショナル,0
2253,8080003002623,新規,0,2021-08-11,2021-08-11,合同会社Ｓ．Ｐ．Ａ．ＪＡＰＡＮ,,合同会社,静岡県,焼津市,高新田１７９４番地の１,,22,212,4210204,,,,,,,2021-08-11,1,,,,,エスピーエージャパン,0
2260,8100001034517,新規,0,2021-08-11,2021-08-11,株式会社ジェースタイル,,株式会社,長野県,松本市,南原２丁目６番１５号,,20,202,3900846,,,,,,,2021-08-11,1,,,,,ジェースタイル,0
2264,8110001035968,新規,0,2021-08-11,2021-08-11,ＴＫホールディングス株式会社,,株式会社,新潟県,新潟市中央区,女池２丁目２番２５号,,15,103,9500941,,,,,,,2021-08-11,1,,,,,ティーケーホールディングス,0
2272,8120001239626,新規,0,2021-08-11,2021-08-11,株式会社ＮＥＳ　Ｃｏｒｐｏｒａｔｉｏｎ．,,株式会社,大阪府,大阪市北区,万歳町３－１２－４０１,,27,127,5300028,,,,,,,2021-08-11,1,,,,,ネスコーポレーション,0
2273,8120001239659,新規,0,2021-08-11,2021-08-11,株式会社ＢＯＤＹ　ＲＥＰＯＲＴ,,株式会社,大阪府,大阪市中央区,本町１丁目７番１号,,27,128,5410053,,,,,,,2021-08-11,1,,,,,ボディリポート,0
2274,8120001239675,新規,0,2021-08-11,2021-08-11,株式会社ＶＯＥＵ,,株式会社,大阪府,大阪市平野区,瓜破５丁目２番８号,,27,126,5470024,,,,,,,2021-08-11,1,,,,,ヴェウ,0
2277,8120103004291,新規,0,2021-08-11,2021-08-11,合同会社ユー,,合同会社,大阪府,堺市南区,泉田中２３４８,,27,145,5900126,,,,,,,2021-08-11,1,,,,,ユー,0
2289,8130001069915,新規,0,2021-08-11,2021-08-11,株式会社造園計画,,株式会社,京都府,京都市左京区,北白川久保田町５７－１,,26,103,6068266,,,,,,,2021-08-11,1,,,,,ゾウエンケイカク,0
2290,8130003007419,新規,0,2021-08-11,2021-08-11,コアズ合同会社,,合同会社,京都府,京都市上京区,武者小路通小川東入西無車小路町５９９番地リーガル京都御所西Ⅱ５０２,00123910,26,102,6020936,,,,,,,2021-08-11,1,,,,,コアズ,0
2298,8140001122573,新規,0,2021-08-11,2021-08-11,株式会社一巴,,株式会社,兵庫県,神戸市中央区,栄町通４丁目２番１８号,,28,110,6500023,,,,,,,2021-08-11,1,,,,,イチハ,0
2299,8140001122664,新規,0,2021-08-11,2021-08-11,株式会社ブリリアンスウーマン,,株式会社,兵庫県,芦屋市,翠ケ丘町１９番１７－２０２号,,28,206,6590014,,,,,,,2021-08-11,1,,,,,ブリリアンスウーマン,0
2308,8140003016600,新規,0,2021-08-11,2021-08-11,合同会社ＯＮＥＰＥＲＣＥＮＴ,,合同会社,兵庫県,南あわじ市,福良乙１５０２番地１０７ジーアール２番館２０２号,,28,224,6560502,,,,,,,2021-08-11,1,,,,,ワンパーセント,0
2324,8180001147261,新規,0,2021-08-11,2021-08-11,コトブキメンテナンス株式会社,,株式会社,愛知県,一宮市,森本５丁目１６番２６－１号,,23,203,4910831,,,,,,,2021-08-11,1,,,,,コトブキメンテナンス,0
2325,8180001147402,新規,0,2021-08-11,2021-08-11,株式会社ＴＲ電工,,株式会社,愛知県,名古屋市西区,花の木１丁目１３番１８号マザー花の木５０２号,,23,104,4510062,,,,,,,2021-08-11,1,,,,,ティーアールデンコウ,0
2328,8180003022834,新規,0,2021-08-11,2021-08-11,合同会社ＮｉＣＯＬＥ,,合同会社,愛知県,名古屋市東区,東桜２丁目９－３４成田ビル１階,,23,102,4610005,,,,,,,2021-08-11,1,,,,,ニコル,0
2329,8180003022842,新規,0,2021-08-11,2021-08-11,合同会社Ｅｌｌｅｎ,,合同会社,愛知県,名古屋市名東区,社台３丁目２１８番地,,23,115,4650092,,,,,,,2021-08-11,1,,,,,エレン,0
2330,8180003022850,新規,0,2021-08-11,2021-08-11,合同会社メルヴェイユアムール,,合同会社,愛知県,名古屋市守山区,大字中志段味字吉田洞２９１１番地１５４,,23,113,4630002,,,,,,,2021-08-11,1,,,,,メルヴェイユアムール,0
2331,8180301035265,新規,0,2021-08-11,2021-08-11,株式会社家楓,,株式会社,愛知県,岡崎市,仁木町字東郷１番地,,23,202,4442148,,,,,,,2021-08-11,1,,,,,カフウ,0
2358,8240001058436,新規,0,2021-08-11,2021-08-11,エースハウジング株式会社,,株式会社,広島県,広島市西区,己斐本町１丁目１７番１３号４Ｆ,,34,104,7330812,,,,,,,2021-08-11,1,,,,,エースハウジング,0
2362,8240003005238,新規,0,2021-08-11,2021-08-11,合同会社池田工業,,合同会社,広島県,呉市,吉浦中町３丁目１４番２１号,,34,202,7370853,,,,,,,2021-08-11,1,,,,,イケダコウギョウ,0
2377,8290001094105,新規,0,2021-08-11,2021-08-11,株式会社ココデキレイ,,株式会社,福岡県,福岡市中央区,清川１丁目２番３号,,40,133,8100005,,,,,,,2021-08-11,1,,,,,ココデキレイ,0
2378,8290001094179,新規,0,2021-08-11,2021-08-11,株式会社ＪＶＮ九州,,株式会社,福岡県,久留米市,津福今町４７０番地８,,40,203,8300061,,,,,,,2021-08-11,1,,,,,ジェイブイエヌキュウシュウ,0
2379,8290001094212,新規,0,2021-08-11,2021-08-11,ＭＩＣ保険株式会社,,株式会社,福岡県,久留米市,国分町１３１９番地１,,40,203,8390863,,,,,,,2021-08-11,1,,,,,マイクホケン,0
2381,8290003011462,新規,0,2021-08-11,2021-08-11,合同会社Ｐｈｉｌｏｓｏｐｈｉａ,,合同会社,福岡県,久留米市,荒木町荒木１５８０番地２,,40,203,8300063,,,,,,,2021-08-11,1,,,,,フィロソフィア,0
2382,8290003011495,新規,0,2021-08-11,2021-08-11,合同会社Ｋ’ｓ　Ｏｆｆｉｃｅ,,合同会社,福岡県,福岡市早良区,荒江２丁目６番１１号,,40,137,8140021,,,,,,,2021-08-11,1,,,,,ケイズオフィス,0
2383,8290005018316,新規,0,2021-08-11,2021-08-11,一般財団法人西日本新聞文化財団,,その他の設立登記法人,福岡県,福岡市中央区,天神１丁目４番１号,,40,133,8100001,,,,,,,2021-08-11,1,,,,,ニシニッポンシンブンブンカザイダン,0
2384,8290801027684,新規,0,2021-08-11,2021-08-11,株式会社ＯＫＡＺＡＫＩ,,株式会社,福岡県,京都郡みやこ町,徳永２３６６番地,,40,625,8240101,,,,,,,2021-08-11,1,,,,,オカザキ,0
2385,8290803003898,新規,0,2021-08-11,2021-08-11,合同会社ヤマガタ・プランニング,,合同会社,福岡県,北九州市八幡西区,折尾５丁目８番８－８０８号,,40,109,8070825,,,,,,,2021-08-11,1,,,,,ヤマガタプランニング,0
2386,8320003003596,新規,0,2021-08-11,2021-08-11,佐野工業合同会社,,合同会社,大分県,佐伯市,大字木立２７１２番地３,,44,205,8762121,,,,,,,2021-08-11,1,,,,,サノコウギョウ,0
2387,8330001028900,新規,0,2021-08-11,2021-08-11,野田牧場株式会社,,株式会社,熊本県,球磨郡あさぎり町,上西２８８６番地,,43,514,8680424,,,,,,,2021-08-11,1,,,,,ノダボクジョウ,0
2394,8350001017257,新規,0,2021-08-11,2021-08-11,シグマメディア株式会社,,株式会社,宮崎県,宮崎市,太田３丁目１番２７号ＢＬＫｓｑｕａｒｅ２Ｆ－１号室,,45,201,8800903,,,,,,,2021-08-11,1,,,,,シグマメディア,0
2400,8360003011356,新規,0,2021-08-11,2021-08-11,たまむらアセットマネージメント合同会社,,合同会社,沖縄県,国頭郡国頭村,字鏡地１００番地,,47,301,9051416,,,,,,,2021-08-11,1,,,,,タマムラアセットマネージメント,0
2407,8370001047475,新規,0,2021-08-11,2021-08-11,株式会社島源,,株式会社,宮城県,宮城郡松島町,松島字三十刈１７番地,,04,401,9810213,,,,,,,2021-08-11,1,,,,,シマゲン,0
2425,8420005007767,新規,0,2021-08-11,2021-08-11,フラット７青森協同組合,,その他の設立登記法人,青森県,むつ市,赤川町１５番１０号,,02,208,0350044,,,,,,,2021-08-11,1,,,,,フラットセブンアオモリ,0
2428,8430001084710,新規,0,2021-08-11,2021-08-11,株式会社ＫＡＮＡＺＡＷＡ　Ｃｏｎｓｔｒｕｃｔｉｏｎ　ｍａｃｈｉｎｅｒｙ,,株式会社,北海道,札幌市北区,篠路町福移１１４番３４,,01,102,0028055,,,,,,,2021-08-11,1,,,,,カナザワコントラクションマシーナリー,0
2433,8480005006854,新規,0,2021-08-11,2021-08-11,特定非営利活動法人心の帆,,その他の設立登記法人,徳島県,吉野川市,鴨島町森藤１１２６番地,,36,205,7760035,,,,,,,2021-08-11,1,,,,,ココロノホ,0
2437,8500003002679,新規,0,2021-08-11,2021-08-11,Ｊａｐａｒｃａｎａ合同会社,,合同会社,愛媛県,今治市,波方町波方甲２０１０－２,,38,202,7992101,,,,,,,2021-08-11,1,,,,,ジャパカナ,0
2438,8700150104084,新規,0,2021-08-11,2021-07-12,かめおか霧の芸術祭実行委員会,,その他,京都府,亀岡市,安町野々神８亀岡市文化国際課,,26,206,6210805,,,,,,,2021-07-12,1,,,,,カメオカキリノゲイジユツサイジツコウイインカイ,0
2442,9010003035463,新規,0,2021-08-11,2021-08-11,合同会社太平プランニング,,合同会社,東京都,中央区,日本橋兜町１７番２号兜町第６葉山ビル４階,,13,102,1030026,,,,,,,2021-08-11,1,,,,,タイヘイプランニング,0
2443,9010003035546,新規,0,2021-08-11,2021-08-11,ＪＩＡ　Ａｖｉａｔｉｏｎ　Ｆｉｎａｎｃｅ合同会社,,合同会社,東京都,千代田区,霞が関３丁目２番１号,,13,101,1000013,,,,,,,2021-08-11,1,,,,,ジェイアイエーアヴィエイションファイナンス,0
2444,9010005033754,新規,0,2021-08-11,2021-08-11,一般社団法人小規模事業者支援協会,,その他の設立登記法人,東京都,千代田区,外神田２丁目２－１７喜助お茶の水ビル９４号,,13,101,1010021,,,,,,,2021-08-11,1,,,,,ショウキボジギョウシャシエンキョウカイ,0
2451,9010401161935,新規,0,2021-08-11,2021-08-11,株式会社ＳＰＩＮ　ＴＥＣＨＮＯＬＯＧＹ,,株式会社,東京都,港区,麻布台１丁目７番３号,,13,103,1060041,,,,,,,2021-08-11,1,,,,,スピンテクノロジー,0
2452,9010401161992,新規,0,2021-08-11,2021-08-11,ＴＥＮＥＴ株式会社,,株式会社,東京都,港区,新橋１丁目１８番２１号,,13,103,1050004,,,,,,,2021-08-11,1,,,,,テネット,0
2453,9010401162017,新規,0,2021-08-11,2021-08-11,株式会社メサウェル,,株式会社,東京都,港区,南麻布４丁目１２番２６号,,13,103,1060047,,,,,,,2021-08-11,1,,,,,メサウェル,0
2457,9010403025881,新規,0,2021-08-11,2021-08-11,合同会社メビウス,,合同会社,東京都,港区,白金台３丁目６番１６号プラウド白金台三丁目１０１,,13,103,1080071,,,,,,,2021-08-11,1,,,,,メビウス,0
2459,9010405020063,新規,0,2021-08-11,2021-08-11,一般社団法人健康経営協会,,その他の設立登記法人,東京都,港区,西新橋３丁目２０番１号,,13,103,1050003,,,,,,,2021-08-11,1,,,,,ケンコウケイエイキョウカイ,0
2460,9010405020071,新規,0,2021-08-11,2021-08-11,一般社団法人ＡＩホスピタル普及協会,,その他の設立登記法人,東京都,港区,六本木３丁目７番１号,,13,103,1060032,,,,,,,2021-08-11,1,,,,,エーアイホスピタルフキュウキョウカイ,0
2465,9010503006344,新規,0,2021-08-11,2021-08-11,スパイラルスター合同会社,,合同会社,東京都,台東区,西浅草３丁目２２番３－１７２０号浅草タワー,,13,106,1110035,,,,,,,2021-08-11,1,,,,,スパイラルスター,0
2475,9010701041382,新規,0,2021-08-11,2021-08-11,株式会社ＭｉｒｒｏｒＰｒｏｍｏｔｉｏｎ,,株式会社,東京都,品川区,小山台１丁目３３－９トップ不動前６０２,,13,109,1420061,,,,,,,2021-08-11,1,,,,,ミラープロモーション,0
2476,9010703005889,新規,0,2021-08-11,2021-08-11,合同会社リヴァース,,合同会社,東京都,品川区,豊町６丁目３１番６号ハイムＫ１－２０１号,,13,109,1420042,,,,,,,2021-08-11,1,,,,,リヴァース,0
2494,9011001142177,新規,0,2021-08-11,2021-08-11,株式会社七,,株式会社,東京都,渋谷区,松濤１丁目２８番２号,,13,113,1500046,,,,,,,2021-08-11,1,,,,,ナナ,0
2495,9011001142185,新規,0,2021-08-11,2021-08-11,アレン・クロスビー株式会社,,株式会社,東京都,渋谷区,広尾５丁目４番１２号,,13,113,1500012,,,,,,,2021-08-11,1,,,,,アレンクロスビー,0
2496,9011001142193,新規,0,2021-08-11,2021-08-11,株式会社Ｈｅｒｉｔａｇｅ,,株式会社,東京都,目黒区,目黒本町１丁目１２番１２－５０２号,,13,110,1520002,,,,,,,2021-08-11,1,,,,,エリタージュ,0
2497,9011001142210,新規,0,2021-08-11,2021-08-11,株式会社ジーエムワークス,,株式会社,東京都,目黒区,平町１丁目１６番８号,,13,110,1520032,,,,,,,2021-08-11,1,,,,,ジーエムワークス,0
2498,9011001142227,新規,0,2021-08-11,2021-08-11,株式会社ＤＡＴ,,株式会社,東京都,渋谷区,東２丁目２３番８号渋谷ＭＭＩビル５Ａ,,13,113,1500011,,,,,,,2021-08-11,1,,,,,ダット,0
2502,9011005009174,新規,0,2021-08-11,2021-08-11,一般社団法人Ｍｅｅｔ　ｔｈｅ　Ｉｎｓｔｒｕｍｅｎｔｓ,,その他の設立登記法人,東京都,渋谷区,代官山町２番７号シャトレ代官山３０１号室,,13,113,1500034,,,,,,,2021-08-11,1,,,,,ミートザインストゥルメンツ,0
2506,9011101095952,新規,0,2021-08-11,2021-08-11,株式会社ＦＬＩＮＴＥＲＳ　ＢＡＳＥ,,株式会社,東京都,新宿区,西新宿８丁目１７番１号,,13,104,1600023,,,,,,,2021-08-11,1,,,,,フリンターズベース,0
2508,9011103010926,新規,0,2021-08-11,2021-08-11,ＣＷＤ合同会社,,合同会社,東京都,新宿区,西新宿６丁目１５番１ラ・トゥール新宿８２４,,13,104,1600023,,,,,,,2021-08-11,1,,,,,クウィード,0
2509,9011103010934,新規,0,2021-08-11,2021-08-11,合同会社ナナ,,合同会社,東京都,新宿区,新宿７丁目１３－９,,13,104,1600022,,,,,,,2021-08-11,1,,,,,ナナ,0
2511,9011201023177,新規,0,2021-08-11,2021-08-11,宇平株式会社,,株式会社,東京都,中野区,野方３丁目２３番３号,,13,114,1650027,,,,,,,2021-08-11,1,,,,,ウヘイ,0
2542,9020003020299,新規,0,2021-08-11,2021-08-11,合同会社建誠,,合同会社,神奈川県,川崎市宮前区,馬絹３丁目４番４２号,,14,136,2160035,,,,,,,2021-08-11,1,,,,,ケンセイ,0
2546,9021001073553,新規,0,2021-08-11,2021-08-11,株式会社Ｎｅｗ　Ｇａｔｅ,,株式会社,神奈川県,伊勢原市,東大竹１１２７番地の１,,14,214,2591133,,,,,,,2021-08-11,1,,,,,ニューゲート,0
2554,9030001143737,新規,0,2021-08-11,2021-08-11,株式会社クレセンシャル・パートナーズ,,株式会社,埼玉県,さいたま市大宮区,桜木町４丁目８８６番地,,11,103,3300854,,,,,,,2021-08-11,1,,,,,クレセンシャルパートナーズ,0
2555,9030001143786,新規,0,2021-08-11,2021-08-11,ＨＯＤＯ　ＨＯＵＳＥ株式会社,,株式会社,埼玉県,川越市,大字久下戸３１５４番地５,,11,201,3500011,,,,,,,2021-08-11,1,,,,,ホドハウス,0
2559,9030003017749,新規,0,2021-08-11,2021-08-11,合同会社ＴＲＵＳＴ,,合同会社,埼玉県,戸田市,大字新曽２４１０番地（エスペランスⅠ１０３号室）,00123911,11,224,3350021,,,,,,,2021-08-11,1,,,,,トラスト,0
2560,9030003017757,新規,0,2021-08-11,2021-08-11,合同会社スワンソング,,合同会社,埼玉県,狭山市,新狭山２丁目１５－２３－１０１,,11,215,3501331,,,,,,,2021-08-11,1,,,,,スワンソング,0
2563,9040001119752,新規,0,2021-08-11,2021-08-11,株式会社ＨＡＰＩＶＥＲＩ,,株式会社,千葉県,千葉市中央区,富士見１丁目１４－１３千葉大栄ビル８Ｆ,,12,101,2600015,,,,,,,2021-08-11,1,,,,,ハピベリ,0
2566,9040003018309,新規,0,2021-08-11,2021-08-11,ＨＩＭＡＮＩ合同会社,,合同会社,千葉県,君津市,南久保１丁目１３番２０号２Ｆ,,12,225,2991154,,,,,,,2021-08-11,1,,,,,ヒマニ,0
2587,9080105006166,新規,0,2021-08-11,2021-08-11,一般社団法人国際就労支援協会,,その他の設立登記法人,静岡県,富士市,五貫島３６９番地の６,,22,210,4160946,,,,,,,2021-08-11,1,,,,,コクサイシュウロウシエンキョウカイ,0
2592,9100001034524,新規,0,2021-08-11,2021-08-11,株式会社中部,,株式会社,長野県,岡谷市,川岸西２丁目８番２０号,,20,204,3940046,,,,,,,2021-08-11,1,,,,,チュウブ,0
2605,9120001239674,新規,0,2021-08-11,2021-08-11,株式会社Ｌａ　ＳＥＳＳＩＯＮＳ　ＷＥＳＴ,,株式会社,大阪府,大阪市中央区,南船場１丁目３番１４号ストークビル南船場７０３号,,27,128,5420081,,,,,,,2021-08-11,1,,,,,ラセッションズウエスト,0
2608,9120003020000,新規,0,2021-08-11,2021-08-11,合同会社スマイル,,合同会社,大阪府,大阪市此花区,春日出南２丁目３番２７号,,27,104,5540023,,,,,,,2021-08-11,1,,,,,スマイル,0
2609,9120003020009,新規,0,2021-08-11,2021-08-11,合同会社豊麗,,合同会社,大阪府,大阪市天王寺区,東高津町３番３０号コーポ谷町５０４号室,,27,109,5430021,,,,,,,2021-08-11,1,,,,,ホウレイ,0
2611,9120005022440,新規,0,2021-08-11,2021-08-11,一般社団法人教育産業推進機構,,その他の設立登記法人,大阪府,大阪市中央区,日本橋１丁目２１番６号,,27,128,5420073,,,,,,,2021-08-11,1,,,,,キョウイクサンギョウスイシンキコウ,0
2612,9120101064130,新規,0,2021-08-11,2021-08-11,五葉の花株式会社,,株式会社,大阪府,貝塚市,海塚１７８番３,,27,208,5970083,,,,,,,2021-08-11,1,,,,,ゴヨウノハナ,0
2613,9120103004290,新規,0,2021-08-11,2021-08-11,合同会社コランダム,,合同会社,大阪府,泉北郡忠岡町,忠岡東１丁目４番３号,,27,341,5950805,,,,,,,2021-08-11,1,,,,,コランダム,0
2620,9120901044752,新規,0,2021-08-11,2021-08-11,株式会社ＯＫＵＤＡ,,株式会社,大阪府,三島郡島本町,高浜１丁目１５番２６号,,27,301,6180012,,,,,,,2021-08-11,1,,,,,オクダ,0
2621,9120905006220,新規,0,2021-08-11,2021-08-11,医療法人侑彩会,,その他の設立登記法人,大阪府,吹田市,岸部新町５番４５号ＶＩＥＲＲＡ岸辺健都２Ｆ,,27,205,5640018,,,,,,,2021-08-11,1,,,,,ユウサイカイ,0
2628,9130001069914,新規,0,2021-08-11,2021-08-11,ティーケイシー株式会社,,株式会社,京都府,京都市上京区,三軒町６９－２２北野ヤングハウス２０２号,,26,102,6028341,,,,,,,2021-08-11,1,,,,,ティーケイシー,0
2638,9140001122564,新規,0,2021-08-11,2021-08-11,不二商事株式会社,,株式会社,兵庫県,神戸市灘区,水道筋５丁目１番７－５０７号,,28,102,6570831,,,,,,,2021-08-11,1,,,,,フジショウジ,0
2643,9140003016590,新規,0,2021-08-11,2021-08-11,ＤＤｏ建築合同会社,,合同会社,兵庫県,加古川市,加古川町木村７５８番地の１０,,28,210,6750038,,,,,,,2021-08-11,1,,,,,ディーディーオーケンチク,0
2646,9150001024850,新規,0,2021-08-11,2021-08-11,株式会社彦庵,,株式会社,奈良県,奈良市,学園南３丁目４番２１号,,29,201,6310034,,,,,,,2021-08-11,1,,,,,ヒコアン,0
2647,9150005009311,新規,0,2021-08-11,2021-08-11,特定非営利活動法人和楽器教育研究所,,その他の設立登記法人,奈良県,生駒郡平群町,大字椣原７５番地の１,,29,342,6360901,,,,,,,2021-08-11,1,,,,,ワガッキキョウイクケンキュウショ,0
2657,9180001147327,新規,0,2021-08-11,2021-08-11,株式会社アルフィーネ,,株式会社,愛知県,清須市,西枇杷島町古城１丁目１１番地６,,23,233,4520001,,,,,,,2021-08-11,1,,,,,アルフィーネ,0
2670,9230001018927,新規,0,2021-08-11,2021-08-11,株式会社ｉｃｈｉｚｏｋｕ,,株式会社,富山県,富山市,小杉１０９番地２,,16,201,9398063,,,,,,,2021-08-11,1,,,,,イチゾク,0
2671,9230001018935,新規,0,2021-08-11,2021-08-11,株式会社ＮＡＫＡＳＡＩ　ＡＲＣＨＩＴＥＣＴＳ,,株式会社,富山県,富山市,布瀬町１丁目８番１号タカイシビル２Ｆ,,16,201,9398206,,,,,,,2021-08-11,1,,,,,ナカサイアーキテクツ,0
2684,9240001058435,新規,0,2021-08-11,2021-08-11,株式会社藍,,株式会社,広島県,福山市,御幸町大字森脇甲４３９番地４,,34,207,7200003,,,,,,,2021-08-11,1,,,,,アイ,0
2693,9240005015250,新規,0,2021-08-11,2021-08-11,一般社団法人日本イノシシコンサルタント協会,,その他の設立登記法人,広島県,広島市東区,福田１丁目５９３番２１号,,34,102,7320029,,,,,,,2021-08-11,1,,,,,ニホンイノシシコンサルタントキョウカイ,0
2698,9290001094120,新規,0,2021-08-11,2021-08-11,株式会社躍進工業,,株式会社,福岡県,八女市,柳島５１番地２,,40,210,8340022,,,,,,,2021-08-11,1,,,,,ヤクシンコウギョウ,0
2699,9290001094145,新規,0,2021-08-11,2021-08-11,株式会社武末建設,,株式会社,福岡県,那珂川市,片縄東１丁目６番２３号,,40,231,8111204,,,,,,,2021-08-11,1,,,,,タケスエケンセツ,0
2700,9290001094161,新規,0,2021-08-11,2021-08-11,Ａｃｔ　Ｉｎｎｏｖａｔｉｏｎ株式会社,,株式会社,福岡県,福岡市早良区,西新１丁目３番１２号ＮＣビル６Ｆ,,40,137,8140002,,,,,,,2021-08-11,1,,,,,アクトイノベーション,0
2701,9290001094178,新規,0,2021-08-11,2021-08-11,アイエムエス技研株式会社,,株式会社,福岡県,福岡市東区,香住ヶ丘６丁目３番７－３０２号,,40,131,8130003,,,,,,,2021-08-11,1,,,,,アイエムエスギケン,0
2702,9290001094186,新規,0,2021-08-11,2021-08-11,ＪＯＣＡＶＩＯ株式会社,,株式会社,福岡県,久留米市,百年公園１番１号,,40,203,8390864,,,,,,,2021-08-11,1,,,,,ヨカヴィオ,0
2706,9290003011486,新規,0,2021-08-11,2021-08-11,ＶＩＮＥＥ合同会社,,合同会社,福岡県,福岡市中央区,高砂２丁目１６番２８－６０３号シティパレス平尾駅前ＰＡＲＴ－Ⅰ,00123903,40,133,8100011,,,,,,,2021-08-11,1,,,,,ヴィネー,0
2709,9290801027700,新規,0,2021-08-11,2021-08-11,株式会社中野油業,,株式会社,福岡県,北九州市若松区,大字安屋２９２４番地３,,40,103,8080124,,,,,,,2021-08-11,1,,,,,ナカノユギョウ,0
2712,9300001012583,新規,0,2021-08-11,2021-08-11,株式会社Ｕ‐Ｐｌｕｍｂｅｒ,,株式会社,佐賀県,佐賀市,本庄町大字末次４５８番地５,,41,201,8400024,,,,,,,2021-08-11,1,,,,,ユープランバー,0
2727,9360003011339,新規,0,2021-08-11,2021-08-11,оｋｕｍоｋｕ合同会社,,合同会社,沖縄県,石垣市,字新川２２７３－２,,47,207,9070024,,,,,,,2021-08-11,1,,,,,,0
2728,9360003011355,新規,0,2021-08-11,2021-08-11,合同会社Ｌｉｎｋ　Ｅｉｇｈｔ,,合同会社,沖縄県,沖縄市,嘉間良１丁目１４－３６,,47,211,9040005,,,,,,,2021-08-11,1,,,,,,0
2732,9370003005331,新規,0,2021-08-11,2021-08-11,合同会社サンレッドカンパニー,,合同会社,宮城県,仙台市青葉区,堤町３丁目２７番１４－１０１号,,04,101,9810912,,,,,,,2021-08-11,1,,,,,,0
2742,9420001017538,新規,0,2021-08-11,2021-08-11,株式会社コンフォーティア,,株式会社,青森県,十和田市,東十六番町５２番１７号,,02,206,0340035,,,,,,,2021-08-11,1,,,,,コンフォーティア,0
2748,9430003013022,新規,0,2021-08-11,2021-08-11,合同会社ｓｉｇｎ,,合同会社,北海道,札幌市北区,北二十八条西１２丁目４番１７号,,01,102,0010028,,,,,,,2021-08-11,1,,,,,サイン,0
2758,9700150023465,新規,0,2021-08-11,2015-10-09,ＡＡ関西セントラルオフィス,,その他,大阪府,大阪市西区,北堀江３丁目６－２８乳業センタービル３０７号室,,27,106,5500014,,,,,,,2015-10-09,1,,,,,エイエイカンサイセントラルオフイス,0
2759,9700150104166,新規,0,2021-08-11,2021-07-27,堤ヶ岡第三学童保育クラブ,,その他,群馬県,高崎市,棟高町２５５３－２,,10,202,3703521,,,,,,,2021-07-27,1,,,,,ツツミガオカダイサンガクドウホイククラブ,0
