sequenceNumber,corporateNumber,process,correct,updateDate,changeDate,name,nameImageId,kind,prefectureName,cityName,streetNumber,addressImageId,prefectureCode,cityCode,postCode,addressOutside,addressOutsideImageId,closeDate,closeCause,successorCorporateNumber,changeCause,assignmentDate,latest,enName,enPrefectureName,enCityName,enAddressOutside,furigana,hihyoji
10,1010001255509,新規,0,2025-06-02,2025-06-02,株式会社ＵＮＩＳＥＮＳＥ,,株式会社,東京都,中央区,銀座１丁目１２番４号Ｎ＆ＥＢＬＤ．７階,,13,102,1040061,,,,,,,2025-06-02,1,,,,,ユニセンス,0
13,1010003047499,新規,0,2025-06-02,2025-06-02,ＬＶＣファンド３２号合同会社,,合同会社,東京都,千代田区,紀尾井町３－８第２紀尾井町ビル９０１アクシス綜合会計事務所内,,13,101,1020094,,,,,,,2025-06-02,1,,,,,エルブイシーファンドサンジュウニゴウ,0
14,1010003047524,新規,0,2025-06-02,2025-06-02,合同会社ＫＵＲＵＭＩ,,合同会社,東京都,中央区,八丁堀４丁目１１番２号ＷｅＷｉｌｌ八丁堀８０３,,13,102,1040032,,,,,,,2025-06-02,1,,,,,クルミ,0
15,1010005040097,新規,0,2025-06-02,2025-06-02,一般社団法人ＳＨＯＮＡＩホールディングス,,その他の設立登記法人,東京都,中央区,銀座１丁目１２番４号Ｎ＆ＥＢＬＤ．６Ｆ,,13,102,1040061,,,,,,,2025-06-02,1,,,,,ショウナイホールディングス,0
16,1010005040122,新規,0,2025-06-02,2025-06-02,一般社団法人ＷＳ４,,その他の設立登記法人,東京都,千代田区,永田町２丁目１７番５号,,13,101,1000014,,,,,,,2025-06-02,1,,,,,ダブリュエスフォー,0
25,1010501054146,新規,0,2025-06-02,2025-06-02,株式会社Ｗａｖｖ　Ｊａｐａｎ,,株式会社,東京都,台東区,台東３丁目５番１０号ダイアパレス御徒町第３－１０２－Ｌ号,,13,106,1100016,,,,,,,2025-06-02,1,,,,,ウェーブジャパン,0
26,1010601067394,新規,0,2025-06-02,2025-06-02,株式会社セコナレ,,株式会社,東京都,江東区,潮見２丁目８番２０号,,13,108,1350052,,,,,,,2025-06-02,1,,,,,セコナレ,0
40,1011001169748,新規,0,2025-06-02,2025-06-02,株式会社ＡＴＳ,,株式会社,東京都,渋谷区,笹塚３丁目２番３号,,13,113,1510073,,,,,,,2025-06-02,1,,,,,エーティーエス,0
42,1011003021650,新規,0,2025-06-02,2025-06-02,トラディショナルメイド合同会社,,合同会社,東京都,目黒区,自由が丘２丁目１６－２ＬＣ１Ｆ,,13,110,1520035,,,,,,,2025-06-02,1,,,,,トラディショナルメイド,0
46,1011101111915,新規,0,2025-06-02,2025-06-02,イグロ株式会社,,株式会社,東京都,新宿区,西新宿３丁目３番１３号西新宿水間ビル２Ｆ,,13,104,1600023,,,,,,,2025-06-02,1,,,,,イグロ,0
47,1011101111923,新規,0,2025-06-02,2025-06-02,株式会社ＮｅｘｕｓＦｌｏｗ,,株式会社,東京都,新宿区,新宿１丁目３４番３号,,13,104,1600022,,,,,,,2025-06-02,1,,,,,ネクサスフロー,0
50,1011103015949,新規,0,2025-06-02,2025-06-02,千夜賀風合同会社,,合同会社,東京都,新宿区,新宿１丁目３６番２号,,13,104,1600022,,,,,,,2025-06-02,1,,,,,センヤガフウ,0
58,1011301030618,新規,0,2025-06-02,2025-06-02,株式会社ＦＬＡＴオオサワ,,株式会社,東京都,杉並区,堀ノ内３丁目４７番９号,,13,115,1660013,,,,,,,2025-06-02,1,,,,,フラットオオサワ,0
63,1011501032141,新規,0,2025-06-02,2025-06-02,株式会社ＭＮＴＸ,,株式会社,東京都,北区,志茂１丁目８番１４号ＶＩＬＬＥＳＴ志茂２０２号,,13,117,1150042,,,,,,,2025-06-02,1,,,,,マナティックス,0
64,1011505002693,新規,0,2025-06-02,2025-06-02,一般社団法人鈴蘭会,,その他の設立登記法人,東京都,北区,赤羽１丁目１３番１号ミドリヤビル６階,,13,117,1150045,,,,,,,2025-06-02,1,,,,,レイランカイ,0
69,1011701028385,新規,0,2025-06-02,2025-06-02,株式会社エムアンドエム,,株式会社,東京都,江戸川区,上篠崎４丁目２５番１５号,,13,123,1330054,,,,,,,2025-06-02,1,,,,,エムアンドエム,0
74,1012403007165,新規,0,2025-06-02,2025-06-02,合同会社ｍｅｒ,,合同会社,東京都,多摩市,諏訪１丁目６６番地１,,13,224,2060024,,,,,,,2025-06-02,1,,,,,メル,0
75,1012405005118,新規,0,2025-06-02,2025-06-02,特定非営利活動法人孤独・孤立を感じる高齢者を支援する会,,その他の設立登記法人,東京都,三鷹市,下連雀４丁目１７番１８－２０３号,,13,204,1810013,,,,,,,2025-06-02,1,,,,,コドクコリツヲカンジルコウレイシャヲシエンスルカイ,0
78,1012805003340,新規,0,2025-06-02,2025-06-02,一般社団法人プライムシャイン,,その他の設立登記法人,東京都,日野市,多摩平５丁目１８番地の１３,,13,212,1910062,,,,,,,2025-06-02,1,,,,,プライムシャイン,0
87,1020001163082,新規,0,2025-06-02,2025-06-02,ＳＨＩＮＯＢＲＩＤＧＥ株式会社,,株式会社,神奈川県,川崎市多摩区,菅仙谷３丁目１番１９号,,14,135,2140006,,,,,,,2025-06-02,1,,,,,シノブリッジ,0
88,1020001163108,新規,0,2025-06-02,2025-06-02,株式会社佐野興業,,株式会社,神奈川県,横浜市旭区,白根８丁目７番２－４０４号,,14,112,2410005,,,,,,,2025-06-02,1,,,,,サノコウギョウ,0
89,1020001163116,新規,0,2025-06-02,2025-06-02,ビリーヴェイ株式会社,,株式会社,神奈川県,横浜市港北区,日吉本町２丁目２番１号,,14,109,2230062,,,,,,,2025-06-02,1,,,,,ビリーヴェイ,0
90,1020001163124,新規,0,2025-06-02,2025-06-02,株式会社キバレッジ,,株式会社,神奈川県,横浜市旭区,二俣川２丁目１３－３ファミール幸栄１０１,,14,112,2410821,,,,,,,2025-06-02,1,,,,,キバレッジ,0
94,1020003028564,新規,0,2025-06-02,2025-06-02,ＢＳＤ　Ｃｏｎｓｕｌｔｉｎｇ合同会社,,合同会社,神奈川県,川崎市川崎区,東田町１１―５,,14,131,2100005,,,,,,,2025-06-02,1,,,,,ビーエスディーコンサルティング,0
95,1020003028589,新規,0,2025-06-02,2025-06-02,コスタインターナショナル合同会社,,合同会社,神奈川県,横浜市中区,本牧町１丁目２８番１号コスタ本牧壱番館,,14,104,2310806,,,,,,,2025-06-02,1,,,,,コスタインターナショナル,0
97,1021001085382,新規,0,2025-06-02,2025-06-02,株式会社川口商事,,株式会社,神奈川県,秦野市,幸町３番２０号,,14,211,2570048,,,,,,,2025-06-02,1,,,,,カワグチショウジ,0
98,1021001085399,新規,0,2025-06-02,2025-06-02,株式会社ＨＩＴ,,株式会社,神奈川県,鎌倉市,小町１丁目６番５号小町今井ビル１０１号室,,14,204,2480006,,,,,,,2025-06-02,1,,,,,ヒット,0
105,1030001166753,新規,0,2025-06-02,2025-06-02,株式会社Ｄｅｎ,,株式会社,埼玉県,坂戸市,大字中小坂７３６番地４９,,11,239,3500206,,,,,,,2025-06-02,1,,,,,デン,0
107,1030003026889,新規,0,2025-06-02,2025-06-02,合同会社ＭＲ,,合同会社,埼玉県,川越市,仙波町２丁目２１番地１,,11,201,3500034,,,,,,,2025-06-02,1,,,,,エムアール,0
116,1040001138982,新規,0,2025-06-02,2025-06-02,株式会社八面六臂,,株式会社,千葉県,柏市,若柴１７８番地４柏の葉キャンパス１４８街区２ショップ＆オフィス棟,,12,217,2770871,,,,,,,2025-06-02,1,,,,,ハチメンロッピ,0
117,1040003027721,新規,0,2025-06-02,2025-06-02,合同会社ＡＣＥカンパニー,,合同会社,千葉県,船橋市,湊町１丁目１１番９号,,12,204,2730011,,,,,,,2025-06-02,1,,,,,エーシーイーカンパニー,0
123,1070001042950,新規,0,2025-06-02,2025-06-02,ＫＯＭＵＧＩ株式会社,,株式会社,群馬県,館林市,岡野町２４５番地の１,,10,207,3740067,,,,,,,2025-06-02,1,,,,,,0
127,1080001026960,新規,0,2025-06-02,2025-06-02,株式会社リノア,,株式会社,静岡県,静岡市清水区,高橋１丁目５番３１号,,22,103,4240041,,,,,,,2025-06-02,1,,,,,リノア,0
140,1120003029602,新規,0,2025-06-02,2025-06-02,合同会社ＡＰＨＲＯＤＩＴＥ,,合同会社,大阪府,大阪市中央区,上町１丁目１番２３号アルシオーネ上町５０２,,27,128,5400005,,,,,,,2025-06-02,1,,,,,アフロディテ,0
146,1120901050948,新規,0,2025-06-02,2025-06-02,ｅｎｗａ株式会社,,株式会社,大阪府,高槻市,郡家新町１１番２号の２,,27,207,5691136,,,,,,,2025-06-02,1,,,,,エンワ,0
147,1120901050980,新規,0,2025-06-02,2025-06-02,株式会社ＳＡＴＵＫＩナカガワ,,株式会社,大阪府,豊中市,利倉１丁目８番３３号,,27,203,5610845,,,,,,,2025-06-02,1,,,,,サツキナカガワ,0
148,1120903005702,新規,0,2025-06-02,2025-06-02,ＨＭＳＲ・Ｙ合同会社,,合同会社,大阪府,吹田市,垂水町１丁目５６番２１－１２０２号,,27,205,5640062,,,,,,,2025-06-02,1,,,,,エイチエムエスアールワイ,0
155,1140001138758,新規,0,2025-06-02,2025-06-02,ＦＤ　Ｓｔｕｄｉｏ株式会社,,株式会社,兵庫県,加東市,厚利６番地,,28,228,6731338,,,,,,,2025-06-02,1,,,,,エフディースタジオ,0
156,1140001138766,新規,0,2025-06-02,2025-06-02,株式会社ＣＯＣＯ,,株式会社,兵庫県,尼崎市,大庄中通３丁目８番地の１１,,28,202,6600075,,,,,,,2025-06-02,1,,,,,ココ,0
157,1140001138790,新規,0,2025-06-02,2025-06-02,ユメミ商会株式会社,,株式会社,兵庫県,伊丹市,安堂寺町３丁目２３,,28,207,6640864,,,,,,,2025-06-02,1,,,,,ユメミショウカイ,0
159,1150003003620,新規,0,2025-06-02,2025-06-02,合同会社遊学舎,,合同会社,奈良県,葛城市,新町１１７番地２,,29,211,6392127,,,,,,,2025-06-02,1,,,,,ユウガクシャ,0
167,1200001043844,新規,0,2025-06-02,2025-06-02,株式会社村井商事,,株式会社,岐阜県,山県市,高富４８５番地１３,,21,215,5012105,,,,,,,2025-06-02,1,,,,,ムライショウジ,0
168,1200003006857,新規,0,2025-06-02,2025-06-02,合同会社まちの企画,,合同会社,岐阜県,岐阜市,旦島４丁目４番８号,,21,201,5020926,,,,,,,2025-06-02,1,,,,,マチノキカク,0
170,1200005013769,新規,0,2025-06-02,2025-06-02,一般社団法人美濃白川ゴルフ振興会,,その他の設立登記法人,岐阜県,加茂郡白川町,白山１０３３番地,,21,506,5091101,,,,,,,2025-06-02,1,,,,,ミノシラカワゴルフシンコウカイ,0
189,1250001021168,新規,0,2025-06-02,2025-06-02,株式会社ウエストオート,,株式会社,山口県,岩国市,錦見１丁目５番２３号,,35,208,7410061,,,,,,,2025-06-02,1,,,,,ウエストオート,0
194,1290001110149,新規,0,2025-06-02,2025-06-02,株式会社福治建設,,株式会社,福岡県,春日市,平田台４丁目４６番地モンテクレーセＡ１０２号,,40,218,8160812,,,,,,,2025-06-02,1,,,,,フクジケンセツ,0
195,1290001110207,新規,0,2025-06-02,2025-06-02,Ｈａｙａｓｈｉ株式会社,,株式会社,福岡県,福岡市博多区,博多駅前３丁目２７番２５号第２岡部ビル８階８０８室,,40,132,8120011,,,,,,,2025-06-02,1,,,,,ハヤシ,0
198,1290003016914,新規,0,2025-06-02,2025-06-02,飲酒倶楽部合同会社,,合同会社,福岡県,福岡市東区,香椎照葉６丁目４－４－１１０１,,40,131,8130017,,,,,,,2025-06-02,1,,,,,インシュクラブ,0
199,1290003016930,新規,0,2025-06-02,2025-06-02,合同会社Ｓａｃｔ,,合同会社,福岡県,福岡市博多区,博多駅前１丁目２３番２号５Ｆ－Ｂ,,40,132,8120011,,,,,,,2025-06-02,1,,,,,サクト,0
203,1310005008857,新規,0,2025-06-02,2025-06-02,一般社団法人ＭＩＣＨＩＳＨＩＲＵＢＥ,,その他の設立登記法人,長崎県,長崎市,女の都２丁目１１－１２,,42,201,8528144,,,,,,,2025-06-02,1,,,,,ミチシルベ,0
205,1330001033221,新規,0,2025-06-02,2025-06-02,ルイーダ株式会社,,株式会社,熊本県,阿蘇市,永草２７６４番地３,,43,214,8692231,,,,,,,2025-06-02,1,,,,,ルイーダ,0
210,1360001035280,新規,0,2025-06-02,2025-06-02,株式会社みんぐスター,,株式会社,沖縄県,那覇市,松尾２丁目１２－２５－２,,47,201,9000014,,,,,,,2025-06-02,1,,,,,ミングスター,0
221,1410001014171,新規,0,2025-06-02,2025-06-02,ＪＦＥ商事秋田オフショアマテリアルズ株式会社,,株式会社,秋田県,男鹿市,船川港船川字外ケ沢１４７番地,,05,206,0100511,,,,,,,2025-06-02,1,,,,,ジェイエフイーショウジアキタオフショアマテリアルズ,0
222,1420003003122,新規,0,2025-06-02,2025-06-02,合同会社葵,,合同会社,青森県,上北郡おいらせ町,鶉久保１番地１７,,02,412,0392182,,,,,,,2025-06-02,1,,,,,アオイ,0
227,1430001094526,新規,0,2025-06-02,2025-06-02,株式会社ＭＥＮＴＯＮ,,株式会社,北海道,札幌市東区,北十五条東２丁目１－４０ボックス１５Ｃ,,01,103,0650015,,,,,,,2025-06-02,1,,,,,メントン,0
228,1430001094550,新規,0,2025-06-02,2025-06-02,株式会社フェリーチェ,,株式会社,北海道,札幌市中央区,南二条東５丁目１番地１４－１１０５号,,01,101,0600052,,,,,,,2025-06-02,1,,,,,フェリーチェ,0
229,1430001094559,新規,0,2025-06-02,2025-06-02,株式会社Ｃｌａｆｏｎ,,株式会社,北海道,札幌市北区,拓北一条４丁目７番２５号,,01,102,0028061,,,,,,,2025-06-02,1,,,,,クラフォン,0
240,2010001255375,新規,0,2025-06-02,2025-06-02,株式会社インタラクティブスタジオ,,株式会社,東京都,千代田区,神田和泉町１番地６－１６ヤマトビル４０５,,13,101,1010024,,,,,,,2025-06-02,1,,,,,インタラクティブスタジオ,0
241,2010001255391,新規,0,2025-06-02,2025-06-02,ライテント株式会社,,株式会社,東京都,千代田区,神田須田町１丁目２６,,13,101,1010041,,,,,,,2025-06-02,1,,,,,ライテント,0
242,2010001255557,新規,0,2025-06-02,2025-06-02,コモンズジャパン株式会社,,株式会社,東京都,中央区,日本橋２丁目１番３号アーバンネット日本橋二丁目ビル１０階,,13,102,1030027,,,,,,,2025-06-02,1,,,,,コモンズジャパン,0
243,2010001255565,新規,0,2025-06-02,2025-06-02,ラリヴィエル東京株式会社,,株式会社,東京都,中央区,日本橋本町２丁目２番２号日本橋本町ＹＳビル２階在日フランス商工会議所内,,13,102,1030023,,,,,,,2025-06-02,1,,,,,ラリヴィエルトウキョウ,0
244,2010003047523,新規,0,2025-06-02,2025-06-02,ＣＤＪ合同会社,,合同会社,東京都,中央区,銀座１丁目１２－４Ｎ＆ＥＢＬＤ．７階,,13,102,1040061,,,,,,,2025-06-02,1,,,,,シーディージェー,0
246,2010105002343,新規,0,2025-06-02,2025-06-02,みつみ行政書士法人,,その他の設立登記法人,東京都,八王子市,滝山町１丁目２６７番地６,,13,201,1920011,,,,,,,2025-06-02,1,,,,,ミツミ,0
256,2010403035219,新規,0,2025-06-02,2025-06-02,ＱＵＥＰＡＳ合同会社,,合同会社,東京都,港区,北青山１丁目３番１号アールキューブ青山３階,,13,103,1070061,,,,,,,2025-06-02,1,,,,,クエパス,0
259,2010501054145,新規,0,2025-06-02,2025-06-02,Ｔ株式会社,,株式会社,東京都,台東区,北上野２丁目２５番９号ＩＳビル５０２号室,,13,106,1100014,,,,,,,2025-06-02,1,,,,,ティー,0
261,2010601067385,新規,0,2025-06-02,2025-06-02,株式会社Ｌｉｂｒａ,,株式会社,東京都,江東区,東雲２丁目７番５－２７０６号,,13,108,1350062,,,,,,,2025-06-02,1,,,,,リブラ,0
262,2010601067393,新規,0,2025-06-02,2025-06-02,Ｍｅｒａｋｉ株式会社,,株式会社,東京都,墨田区,石原２丁目１６番１０－１０４号,,13,107,1300011,,,,,,,2025-06-02,1,,,,,メラキ,0
275,2011001169730,新規,0,2025-06-02,2025-06-02,調和テック株式会社,,株式会社,東京都,渋谷区,円山町５番３号ＭＩＥＵＸ渋谷ビル８階,,13,113,1500044,,,,,,,2025-06-02,1,,,,,チョウワテック,0
282,2011103015948,新規,0,2025-06-02,2025-06-02,ごほうびアセットマネジメント合同会社,,合同会社,東京都,新宿区,舟町３番地２７オープンレジデンシア四谷舟町１００２,,13,104,1600006,,,,,,,2025-06-02,1,,,,,ゴホウビアセットマネジメント,0
283,2011103015964,新規,0,2025-06-02,2025-06-02,Ｕｎｉｔｅｄ　Ｍｕｓｅ合同会社,,合同会社,東京都,新宿区,西新宿３丁目３番１３号西新宿水間ビル２Ｆ,,13,104,1600023,,,,,,,2025-06-02,1,,,,,ユナイテッドミューズ,0
287,2011301030617,新規,0,2025-06-02,2025-06-02,株式会社ＯＭＩＹＡＧＥ,,株式会社,東京都,杉並区,上高井戸１丁目７番２４号,,13,115,1680074,,,,,,,2025-06-02,1,,,,,オミヤゲ,0
290,2011501032149,新規,0,2025-06-02,2025-06-02,トモダチヲカタセル株式会社,,株式会社,東京都,荒川区,東日暮里６丁目４５番２号,,13,118,1160014,,,,,,,2025-06-02,1,,,,,トモダチヲカタセル,0
298,2011703004268,新規,0,2025-06-02,2025-06-02,合同会社ＬＡＲＧＯ,,合同会社,東京都,江戸川区,中央４丁目２番２３号ブルージュタウン７号棟,,13,123,1320021,,,,,,,2025-06-02,1,,,,,ラルゴ,0
300,2011801046237,新規,0,2025-06-02,2025-06-02,株式会社アラタニ,,株式会社,東京都,足立区,保塚町１４－８サカエハイム３０５号,,13,121,1210072,,,,,,,2025-06-02,1,,,,,アラタニ,0
311,2020001163148,新規,0,2025-06-02,2025-06-02,株式会社マグノリアエステート,,株式会社,神奈川県,横浜市青葉区,美しが丘５丁目３４番地２レ・ジェイド美しが丘３０３,,14,117,2250002,,,,,,,2025-06-02,1,,,,,マグノリアエステート,0
312,2020001163156,新規,0,2025-06-02,2025-06-02,まなゆうホーム株式会社,,株式会社,神奈川県,横浜市泉区,和泉町７５６１番地９,,14,116,2450016,,,,,,,2025-06-02,1,,,,,マナユウホーム,0
319,2020003028539,新規,0,2025-06-02,2025-06-02,合同会社ＭＳＫ,,合同会社,神奈川県,横浜市港北区,篠原東２丁目１６－７－２１１,,14,109,2220022,,,,,,,2025-06-02,1,,,,,エムエスケー,0
320,2020003028605,新規,0,2025-06-02,2025-06-02,合同会社山武美装,,合同会社,神奈川県,横浜市旭区,中希望が丘１３８番地１第２山西ビル４０１,,14,112,2410825,,,,,,,2025-06-02,1,,,,,サンブビゾウ,0
326,2021001085340,新規,0,2025-06-02,2025-06-02,株式会社アベック,,株式会社,神奈川県,鎌倉市,西御門１丁目２２番３０号,,14,204,2480004,,,,,,,2025-06-02,1,,,,,アベック,0
338,2040001139022,新規,0,2025-06-02,2025-06-02,株式会社Ｃｏｍｅｔ,,株式会社,千葉県,流山市,南流山６丁目２９番地の１南流山壱番街２－７０８,,12,220,2700163,,,,,,,2025-06-02,1,,,,,コメット,0
339,2040001139039,新規,0,2025-06-02,2025-06-02,ヒューマンフォース株式会社,,株式会社,千葉県,松戸市,本町１４番地２松戸第一生命ビルディング３階,,12,207,2710091,,,,,,,2025-06-02,1,,,,,ヒューマンフォース,0
340,2040001139047,新規,0,2025-06-02,2025-06-02,ネクストワークエージェント株式会社,,株式会社,千葉県,市原市,能満１８５６番地２,,12,219,2900011,,,,,,,2025-06-02,1,,,,,ネクストワークエージェント,0
349,2060003005575,新規,0,2025-06-02,2025-06-02,ＭＡＨＲＯＺ　ＴＲＡＤＩＮＧ合同会社,,合同会社,栃木県,下都賀郡野木町,大字友沼５９７３番地３山中ハイツＡ棟１０１号室,,09,364,3290101,,,,,,,2025-06-02,1,,,,,マフロズトレーディング,0
351,2080101025523,新規,0,2025-06-02,2025-06-02,株式会社シィムシー,,株式会社,静岡県,沼津市,戸田８３９番地８,,22,203,4103402,,,,,,,2025-06-02,1,,,,,シィムシー,0
353,2080405007738,新規,0,2025-06-02,2025-06-02,特定非営利活動法人こどもの文化センター,,その他の設立登記法人,静岡県,菊川市,高橋３６９５番の１８,,22,224,4371505,,,,,,,2025-06-02,1,,,,,コドモノブンカセンター,0
356,2100003008193,新規,0,2025-06-02,2025-06-02,合同会社ハマチ企画,,合同会社,長野県,上田市,御所２９９番地１８,,20,203,3860033,,,,,,,2025-06-02,1,,,,,ハマチキカク,0
357,2110003005776,新規,0,2025-06-02,2025-06-02,Ｓｈｉｋａ　Ｈｏｔｅｌ　Ｇｒｏｕｐ合同会社,,合同会社,新潟県,妙高市,大字田口１５５６番地７７,,15,217,9492106,,,,,,,2025-06-02,1,,,,,シカホテルグループ,0
360,2120001276328,新規,0,2025-06-02,2025-06-02,株式会社ＭＯＭＯ,,株式会社,大阪府,大阪市西成区,南津守３丁目１－３７－３Ｃ,,27,122,5570063,,,,,,,2025-06-02,1,,,,,モモ,0
361,2120001276360,新規,0,2025-06-02,2025-06-02,智宇株式会社,,株式会社,大阪府,大阪市淀川区,加島４丁目２番２１－３０１号,,27,123,5320031,,,,,,,2025-06-02,1,,,,,チウ,0
362,2120001276369,新規,0,2025-06-02,2025-06-02,ハルホーム株式会社,,株式会社,大阪府,大阪市東成区,大今里西２丁目１４番２号,,27,115,5370014,,,,,,,2025-06-02,1,,,,,ハルホーム,0
363,2120101071769,新規,0,2025-06-02,2025-06-02,株式会社ＲＥＡＬ　ＧＲＯＵＰ,,株式会社,大阪府,和泉市,府中町７丁目３番３８号,,27,219,5940071,,,,,,,2025-06-02,1,,,,,リアルグループ,0
365,2120903005692,新規,0,2025-06-02,2025-06-02,合同会社セットアップ,,合同会社,大阪府,摂津市,鳥飼本町５丁目４番５号,,27,224,5660052,,,,,,,2025-06-02,1,,,,,セットアップ,0
367,2130001079738,新規,0,2025-06-02,2025-06-02,数字力量株式会社,,株式会社,京都府,京都市東山区,弓矢町５０番地１・２０３室,,26,105,6050817,,,,,,,2025-06-02,1,,,,,スウジリキリョウ,0
368,2130001079804,新規,0,2025-06-02,2025-06-02,株式会社Ｚｅｎｅｘ,,株式会社,京都府,京都市下京区,二帖半敷町６４７－２オンリー烏丸ビル１Ｆ,,26,106,6008412,,,,,,,2025-06-02,1,,,,,ゼネックス,0
371,2140001138757,新規,0,2025-06-02,2025-06-02,株式会社ＺＥＮ　Ｇｌｏｂａｌ,,株式会社,兵庫県,神戸市中央区,山本通２丁目１３－１５ＷＡＬＬＳＱＵＡＲＥ北野坂,,28,110,6500003,,,,,,,2025-06-02,1,,,,,ゼングローバル,0
372,2140001138765,新規,0,2025-06-02,2025-06-02,株式会社サングリーン,,株式会社,兵庫県,尼崎市,七松町２丁目４番１７－３０２号,,28,202,6600052,,,,,,,2025-06-02,1,,,,,サングリーン,0
383,2180001167042,新規,0,2025-06-02,2025-06-02,株式会社ＡＮＣＡＲＩ,,株式会社,愛知県,名古屋市西区,那古野２丁目１４番１号,,23,104,4510042,,,,,,,2025-06-02,1,,,,,アンキャリ,0
388,2180301039858,新規,0,2025-06-02,2025-06-02,株式会社琥春,,株式会社,愛知県,蒲郡市,三谷北通１丁目２８番地グレイスコート１０１,,23,214,4430022,,,,,,,2025-06-02,1,,,,,コハル,0
394,2200001043843,新規,0,2025-06-02,2025-06-02,株式会社松建,,株式会社,岐阜県,多治見市,大原町３丁目３０番地１,,21,204,5070074,,,,,,,2025-06-02,1,,,,,マツケン,0
398,2220001026714,新規,0,2025-06-02,2025-06-02,株式会社ＳＳＩ,,株式会社,石川県,金沢市,長土塀１丁目１番５０－２号,,17,201,9200867,,,,,,,2025-06-02,1,,,,,エスエスアイ,0
403,2230005009482,新規,0,2025-06-02,2025-06-02,一般社団法人良書をすすめる会,,その他の設立登記法人,富山県,富山市,石坂２０８３番地２,,16,201,9300892,,,,,,,2025-06-02,1,,,,,リョウショヲススメルカイ,0
406,2240001065009,新規,0,2025-06-02,2025-06-02,株式会社ＭＡＩＳＯＮ,,株式会社,広島県,広島市西区,井口台３丁目３４番２－３０３号,,34,104,7330844,,,,,,,2025-06-02,1,,,,,マイソン,0
418,2290001110172,新規,0,2025-06-02,2025-06-02,エコストック株式会社,,株式会社,福岡県,福岡市東区,香椎浜３丁目３番５－１６１３号,,40,131,8130016,,,,,,,2025-06-02,1,,,,,エコストック,0
419,2290001110214,新規,0,2025-06-02,2025-06-02,株式会社新令鉄設備,,株式会社,福岡県,糸島市,高祖１７０番地１,,40,230,8191571,,,,,,,2025-06-02,1,,,,,シンレイテツセツビ,0
422,2290003016921,新規,0,2025-06-02,2025-06-02,楽しいＥｎｇｉｎｅ合同会社,,合同会社,福岡県,福岡市中央区,薬院２丁目９－１０－４０２号,,40,133,8100022,,,,,,,2025-06-02,1,,,,,タノシイエンジン,0
425,2290005019765,新規,0,2025-06-02,2025-06-02,ＮＰＯ法人福岡遺伝のクリニック金木犀,,その他の設立登記法人,福岡県,福岡市中央区,渡辺通５丁目２３番２－４０９号,,40,133,8100004,,,,,,,2025-06-02,1,,,,,フクオカイデンノクリニックキンモクセイ,0
429,2320001021127,新規,0,2025-06-02,2025-06-02,株式会社碧翠堂,,株式会社,大分県,大分市,坂ノ市西１丁目８番１号,,44,201,8700309,,,,,,,2025-06-02,1,,,,,ヘキスイドウ,0
432,2330001033237,新規,0,2025-06-02,2025-06-02,株式会社結,,株式会社,熊本県,熊本市南区,近見１丁目９番４９号,,43,104,8614101,,,,,,,2025-06-02,1,,,,,ムスビ,0
445,2430001094541,新規,0,2025-06-02,2025-06-02,株式会社Ｒ宮ノ森倶楽部,,株式会社,北海道,札幌市中央区,宮の森三条９丁目１番３０－６０６号,,01,101,0640953,,,,,,,2025-06-02,1,,,,,アールミヤノモリクラブ,0
446,2430001094558,新規,0,2025-06-02,2025-06-02,株式会社ＹＮＧ,,株式会社,北海道,札幌市北区,拓北一条４丁目７番２５号,,01,102,0028061,,,,,,,2025-06-02,1,,,,,ワイエヌジー,0
448,2430003017723,新規,0,2025-06-02,2025-06-02,ＮＲＳＪａｐａｎ合同会社,,合同会社,北海道,札幌市西区,八軒九条西２丁目６番１１号,,01,107,0630849,,,,,,,2025-06-02,1,,,,,エヌアールエスジャパン,0
468,3010003047464,新規,0,2025-06-02,2025-06-02,合同会社ＴＯＲＩＬＡＢ,,合同会社,東京都,千代田区,神田須田町１丁目７番８号ＶＯＲＴ秋葉原ＩＶビル２階,00139399,13,101,1010041,,,,,,,2025-06-02,1,,,,,トリラボ,0
480,3010405024409,新規,0,2025-06-02,2025-06-02,一般社団法人耕作放棄地再生協会,,その他の設立登記法人,東京都,港区,南青山７丁目１３番２６号,,13,103,1070062,,,,,,,2025-06-02,1,,,,,コウサクホウキチサイセイキョウカイ,0
484,3010501054144,新規,0,2025-06-02,2025-06-02,ｋｏｒｒｅ株式会社,,株式会社,東京都,台東区,松が谷２丁目１５番８号浅草Ｋ２ビル４０６号室,,13,106,1110036,,,,,,,2025-06-02,1,,,,,コレ,0
486,3010601067384,新規,0,2025-06-02,2025-06-02,株式会社ＴＡＫ,,株式会社,東京都,江東区,亀戸１丁目６－２,,13,108,1360071,,,,,,,2025-06-02,1,,,,,タク,0
487,3010601067392,新規,0,2025-06-02,2025-06-02,株式会社ハッピーケア,,株式会社,東京都,江東区,大島４丁目１番７号,,13,108,1360072,,,,,,,2025-06-02,1,,,,,ハッピーケア,0
492,3010903009968,新規,0,2025-06-02,2025-06-02,合同会社ウィステリア,,合同会社,東京都,世田谷区,上馬２丁目２９番７号,,13,112,1540011,,,,,,,2025-06-02,1,,,,,ウィステリア,0
496,3011001169928,新規,0,2025-06-02,2025-06-02,株式会社Ｓｉｄｅ　Ａｓｓｉｓｔ,,株式会社,東京都,渋谷区,神宮前４丁目８番６号メイプルハウスＤ－１,,13,113,1500001,,,,,,,2025-06-02,1,,,,,サイドアシスト,0
501,3011101111946,新規,0,2025-06-02,2025-06-02,ＴＲＩＬＩＡ株式会社,,株式会社,東京都,新宿区,西新宿６丁目１５番１－３７０６号,,13,104,1600023,,,,,,,2025-06-02,1,,,,,トリリア,0
502,3011103015963,新規,0,2025-06-02,2025-06-02,合同会社わくわくくわっち,,合同会社,東京都,新宿区,北新宿２丁目６番２９－３２２号,,13,104,1690074,,,,,,,2025-06-02,1,,,,,ワクワククワッチ,0
503,3011201026375,新規,0,2025-06-02,2025-06-02,株式会社メイクセル,,株式会社,東京都,中野区,新井１丁目１２番１４号秀光建設本社ビル４Ｆ,,13,114,1650026,,,,,,,2025-06-02,1,,,,,メイクセル,0
509,3011501032156,新規,0,2025-06-02,2025-06-02,Ｚｅｒｏ　Ｐｈａｓｅ株式会社,,株式会社,東京都,北区,王子５丁目２番５－４０２号,,13,117,1140002,,,,,,,2025-06-02,1,,,,,ゼロフェイズ,0
514,3011701028375,新規,0,2025-06-02,2025-06-02,西建設ＨＤ株式会社,,株式会社,東京都,江戸川区,西葛西６丁目３番４号,,13,123,1340088,,,,,,,2025-06-02,1,,,,,ニシケンセツホールディングス,0
523,3012803003753,新規,0,2025-06-02,2025-06-02,合同会社Ｌｅｉ,,合同会社,東京都,国分寺市,西恋ヶ窪４丁目６番地１０,,13,214,1850013,,,,,,,2025-06-02,1,,,,,レイ,0
530,3020001163139,新規,0,2025-06-02,2025-06-02,株式会社ＶＩＳＴＡ,,株式会社,神奈川県,川崎市中原区,中丸子１３－２フロンティア武蔵小杉Ｎ棟１２階,,14,133,2110012,,,,,,,2025-06-02,1,,,,,ビスタ,0
533,3020003028579,新規,0,2025-06-02,2025-06-02,合同会社Ｆｌｏｏｄｏｍ,,合同会社,神奈川県,横浜市都筑区,牛久保東１丁目３８番２２－４０１号,,14,118,2240014,,,,,,,2025-06-02,1,,,,,フローダム,0
534,3020003028604,新規,0,2025-06-02,2025-06-02,合同会社コアテクノスファーム,,合同会社,神奈川県,横浜市都筑区,川和台２８－２,,14,118,2240056,,,,,,,2025-06-02,1,,,,,コアテクノスファーム,0
535,3020005016887,新規,0,2025-06-02,2025-06-02,一般社団法人英語保育士認定協会,,その他の設立登記法人,神奈川県,川崎市高津区,上作延１丁目３番３１－１０７号,,14,134,2130034,,,,,,,2025-06-02,1,,,,,エイゴホイクシニンテイキョウカイ,0
547,3030001166834,新規,0,2025-06-02,2025-06-02,株式会社ＣＯＬＯＲＳ,,株式会社,埼玉県,川口市,上青木３丁目１３番１７号,,11,203,3330844,,,,,,,2025-06-02,1,,,,,カラーズ,0
552,3040001138948,新規,0,2025-06-02,2025-06-02,ＩＪＫ株式会社,,株式会社,千葉県,市原市,村上２３０３番地３,,12,219,2900031,,,,,,,2025-06-02,1,,,,,アイジェイケー,0
553,3040001138972,新規,0,2025-06-02,2025-06-02,株式会社ＭＡＲＵＴＡＫＥ,,株式会社,千葉県,千葉市中央区,都町３丁目２５番２３号,,12,101,2600001,,,,,,,2025-06-02,1,,,,,マルタケ,0
554,3040001139005,新規,0,2025-06-02,2025-06-02,株式会社ハナクラフト,,株式会社,千葉県,松戸市,河原塚３０番地１グレースレジデンスＢ２０５,,12,207,2702254,,,,,,,2025-06-02,1,,,,,ハナクラフト,0
555,3040001139013,新規,0,2025-06-02,2025-06-02,株式会社Ｒｉｖｅｒ,,株式会社,千葉県,四街道市,和田１８１番地５,,12,228,2840035,,,,,,,2025-06-02,1,,,,,リバー,0
560,3050003009320,新規,0,2025-06-02,2025-06-02,ＡＣＥ合同会社,,合同会社,茨城県,結城郡八千代町,大字沼森８９番地１グリーンヒルＩＩ－６,00139398,08,521,3003525,,,,,,,2025-06-02,1,,,,,エース,0
563,3080001026959,新規,0,2025-06-02,2025-06-02,株式会社ピークルーム,,株式会社,静岡県,静岡市葵区,安倍口新田２５５番地の５,,22,101,4212114,,,,,,,2025-06-02,1,,,,,ピークルーム,0
570,3100003008143,新規,0,2025-06-02,2025-06-02,ＢＳ合同会社,,合同会社,長野県,北安曇郡小谷村,大字千国乙１２８４０番地１ＴｈｅＰｈａｔＰａｃｋｅｒｓ,,20,486,3999422,,,,,,,2025-06-02,1,,,,,ビーエス,0
572,3110001039305,新規,0,2025-06-02,2025-06-02,株式会社ＴＡＫＡＵホールディングス,,株式会社,新潟県,長岡市,与板町与板１１９番地,,15,202,9402402,,,,,,,2025-06-02,1,,,,,タカウホールディングス,0
579,3120001276302,新規,0,2025-06-02,2025-06-02,七星株式会社,,株式会社,大阪府,大阪市西成区,天下茶屋東１丁目１９番１２号,,27,122,5570011,,,,,,,2025-06-02,1,,,,,シチセイ,0
580,3120001276343,新規,0,2025-06-02,2025-06-02,株式会社ＢｅｓｔＢｅｌｌｅ,,株式会社,大阪府,大阪市福島区,福島２丁目１０‐１９メガロコープ福島２０５号室,,27,103,5530003,,,,,,,2025-06-02,1,,,,,ベストベル,0
581,3120001276368,新規,0,2025-06-02,2025-06-02,株式会社エフリゾート,,株式会社,大阪府,大阪市中央区,南本町３丁目１番１２号カネセ中央ビル４階,,27,128,5410054,,,,,,,2025-06-02,1,,,,,エフリゾート,0
585,3120101071776,新規,0,2025-06-02,2025-06-02,ａｉＤ　Ｔｅｃｈｎｏｌｏｇｙ株式会社,,株式会社,大阪府,堺市北区,東浅香山町１丁２２番地２４,,27,146,5918008,,,,,,,2025-06-02,1,,,,,エーアイディーテクノロジー,0
586,3120101071784,新規,0,2025-06-02,2025-06-02,株式会社グロリア魔法瓶製作所,,株式会社,大阪府,羽曳野市,羽曳が丘西１丁目５番３号,,27,222,5830865,,,,,,,2025-06-02,1,,,,,グロリアマホウビンセイサクショ,0
590,3120901050979,新規,0,2025-06-02,2025-06-02,株式会社ＴＦＣ,,株式会社,大阪府,吹田市,五月が丘南７番１６－１０６号,,27,205,5650832,,,,,,,2025-06-02,1,,,,,ティーエフシー,0
597,3130003010492,新規,0,2025-06-02,2025-06-02,アイリス合同会社,,合同会社,京都府,相楽郡精華町,光台６丁目１０番地２,,26,366,6190237,,,,,,,2025-06-02,1,,,,,アイリス,0
603,3140001138723,新規,0,2025-06-02,2025-06-02,株式会社弁慶,,株式会社,兵庫県,神戸市東灘区,魚崎南町２丁目６番地１２アメニティ東神戸５１０５,,28,101,6580025,,,,,,,2025-06-02,1,,,,,ベンケイ,0
604,3140003022124,新規,0,2025-06-02,2025-06-02,シキトイ合同会社,,合同会社,兵庫県,神戸市長田区,浜添通１丁目２－１９－１Ｆ,,28,106,6530024,,,,,,,2025-06-02,1,,,,,シキトイ,0
605,3150003003619,新規,0,2025-06-02,2025-06-02,合同会社虹夢カンパニー,,合同会社,奈良県,北葛城郡広陵町,馬見北４丁目１番１３号,,29,426,6350831,,,,,,,2025-06-02,1,,,,,コウムカンパニー,0
606,3150005009705,新規,0,2025-06-02,2025-06-02,一般社団法人スギイロ,,その他の設立登記法人,奈良県,吉野郡黒滝村,大字堂原３８５番地,,29,444,6380243,,,,,,,2025-06-02,1,,,,,スギイロ,0
609,3170001018641,新規,0,2025-06-02,2025-06-02,株式会社お米のいいなり,,株式会社,和歌山県,和歌山市,小松原５丁目１－１６,,30,201,6408265,,,,,,,2025-06-02,1,,,,,オコメノイイナリ,0
612,3180001167033,新規,0,2025-06-02,2025-06-02,株式会社ＫＩＮＧＤＯＭ,,株式会社,愛知県,名古屋市瑞穂区,東栄町５丁目１番地の３,,23,108,4670017,,,,,,,2025-06-02,1,,,,,キングダム,0
615,3180003028555,新規,0,2025-06-02,2025-06-02,合同会社Ｙ２　Ｂｉｌｌｉａｒｄ　Ｓｔｕｄｉｏ,,合同会社,愛知県,春日井市,気噴町１丁目７番地８,,23,206,4870014,,,,,,,2025-06-02,1,,,,,ワイツービリヤードスタジオ,0
618,3200001043842,新規,0,2025-06-02,2025-06-02,高山ウレタン株式会社,,株式会社,岐阜県,高山市,下切町２１６番地,,21,203,5060041,,,,,,,2025-06-02,1,,,,,タカヤマウレタン,0
619,3200001043850,新規,0,2025-06-02,2025-06-02,株式会社ＳｏｕＢｌｏｏｍ,,株式会社,岐阜県,各務原市,鵜沼山崎町４丁目３３番地１,,21,213,5090124,,,,,,,2025-06-02,1,,,,,ソウブルーム,0
621,3210001020188,新規,0,2025-06-02,2025-06-02,カケヒＨＤ株式会社,,株式会社,福井県,坂井市,丸岡町上金屋第１１号１３番地,,18,210,9100335,,,,,,,2025-06-02,1,,,,,カケヒエイチディー,0
622,3210005010210,新規,0,2025-06-02,2025-06-02,一般社団法人福井県地域おこしネットワーク,,その他の設立登記法人,福井県,南条郡南越前町,今庄第８２号１０番地,,18,404,9190131,,,,,,,2025-06-02,1,,,,,フクイケンチイキオコシネットワーク,0
627,3240001065008,新規,0,2025-06-02,2025-06-02,株式会社ＣＱホールディングス,,株式会社,広島県,広島市西区,観音町１５番２０号,,34,104,7330031,,,,,,,2025-06-02,1,,,,,シーキューホールディングス,0
630,3250003003732,新規,0,2025-06-02,2025-06-02,合同会社はちくろ,,合同会社,山口県,岩国市,麻里布町４丁目２０番１５号,,35,208,7400018,,,,,,,2025-06-02,1,,,,,ハチクロ,0
638,3260005011484,新規,0,2025-06-02,2025-06-02,一般社団法人ミコリザ,,その他の設立登記法人,岡山県,英田郡西粟倉村,大字長尾４６１番地１,,33,643,7070504,,,,,,,2025-06-02,1,,,,,ミコリザ,0
645,3290003016912,新規,0,2025-06-02,2025-06-02,ＴＩＤＹ　ＣＬＥＡＮ合同会社,,合同会社,福岡県,福岡市早良区,梅林７丁目２９番１０号,,40,137,8140172,,,,,,,2025-06-02,1,,,,,タイディクリーン,0
653,3340001027369,新規,0,2025-06-02,2025-06-02,株式会社ＹＯＫＯＰＬＡ,,株式会社,鹿児島県,鹿児島市,西伊敷３丁目７番２１号,,46,201,8900002,,,,,,,2025-06-02,1,,,,,ヨコプラ,0
658,3360001035254,新規,0,2025-06-02,2025-06-02,株式会社ＤＰ,,株式会社,沖縄県,宜野湾市,真志喜２丁目１１番１５号,,47,205,9012224,,,,,,,2025-06-02,1,,,,,ディーピー,0
667,3370001052637,新規,0,2025-06-02,2025-06-02,ロンドベル株式会社,,株式会社,宮城県,仙台市青葉区,宮町２丁目１番７－３号,,04,101,9800004,,,,,,,2025-06-02,1,,,,,ロンドベル,0
675,3450005004452,新規,0,2025-06-02,2025-06-02,一般社団法人ＢＬＵＥＳＣＨＯＯＬＨｉｇａｓｈｉｋａｗａ,,その他の設立登記法人,北海道,上川郡東川町,東３号北１２番地,,01,458,0711433,,,,,,,2025-06-02,1,,,,,ブルースクールヒガシカワ,0
683,4010001255522,新規,0,2025-06-02,2025-06-02,株式会社ステディ,,株式会社,東京都,千代田区,九段南２丁目７番１号喜京家ビル６階,,13,101,1020074,,,,,,,2025-06-02,1,,,,,ステディ,0
684,4010001255539,新規,0,2025-06-02,2025-06-02,株式会社ベニトリ,,株式会社,東京都,中央区,銀座７丁目１３－２０銀座ＴＨビル９階,,13,102,1040061,,,,,,,2025-06-02,1,,,,,ベニトリ,0
686,4010003047455,新規,0,2025-06-02,2025-06-02,合同会社八百萬,,合同会社,東京都,千代田区,富士見２丁目４－１２ＡＳＰＲＩＭＥ千代田富士見１０２,,13,101,1020071,,,,,,,2025-06-02,1,,,,,ヤオヨロズ,0
687,4010003047505,新規,0,2025-06-02,2025-06-02,ＬＶＣファンド３８号合同会社,,合同会社,東京都,千代田区,紀尾井町３－８第２紀尾井町ビル９０１アクシス綜合会計事務所内,,13,101,1020094,,,,,,,2025-06-02,1,,,,,エルブイシーファンドサンジュウハチゴウ,0
688,4010003047521,新規,0,2025-06-02,2025-06-02,Ｋｉｎｇｄｏｍ　ＢＥＳＳ　Ｄｅｖｅｌｏｐｍｅｎｔ合同会社,,合同会社,東京都,千代田区,霞が関３丁目２番６号東京倶楽部ビルディング１１階,,13,101,1000013,,,,,,,2025-06-02,1,,,,,キングダムベスディベロップメント,0
698,4010401190699,新規,0,2025-06-02,2025-06-02,ＡＥＳモビリティ株式会社,,株式会社,東京都,港区,虎ノ門１丁目１７番１号虎ノ門ヒルズビジネスタワー１５階,,13,103,1050001,,,,,,,2025-06-02,1,,,,,エーイーエスモビリティ,0
700,4010501054127,新規,0,2025-06-02,2025-06-02,株式会社ＫＩＥＬＯ,,株式会社,東京都,台東区,橋場２丁目２１番１号,,13,106,1110023,,,,,,,2025-06-02,1,,,,,,0
709,4011001169745,新規,0,2025-06-02,2025-06-02,株式会社Ｓａｚａｎａｍｉ,,株式会社,東京都,目黒区,下目黒１丁目２－１２白金ビル地下３階,,13,110,1530064,,,,,,,2025-06-02,1,,,,,サザナミ,0
710,4011001169753,新規,0,2025-06-02,2025-06-02,株式会社Ｎａｍｉｎｏｒｉ,,株式会社,東京都,目黒区,自由が丘２丁目１６番１２号ＲＪ３,,13,110,1520035,,,,,,,2025-06-02,1,,,,,ナミノリ,0
712,4011003021648,新規,0,2025-06-02,2025-06-02,合同会社ＴｉｐＳｈａｒｅ,,合同会社,東京都,渋谷区,道玄坂１丁目１０番８号渋谷道玄坂東急ビル２Ｆ－Ｃ,,13,113,1500043,,,,,,,2025-06-02,1,,,,,ティップシェア,0
719,4011401027131,新規,0,2025-06-02,2025-06-02,鯨の力塾株式会社,,株式会社,東京都,板橋区,坂下１丁目２８番２号,,13,119,1740043,,,,,,,2025-06-02,1,,,,,ゲイノパワージュク,0
720,4011501032139,新規,0,2025-06-02,2025-06-02,株式会社アップガイ,,株式会社,東京都,北区,浮間５丁目１４番１８号,,13,117,1150051,,,,,,,2025-06-02,1,,,,,アップガイ,0
721,4011503006561,新規,0,2025-06-02,2025-06-02,逓進科技合同会社,,合同会社,東京都,荒川区,南千住３丁目２７－２浅草ビル５０８,,13,118,1160003,,,,,,,2025-06-02,1,,,,,テイシンテクノロジー,0
726,4011703004274,新規,0,2025-06-02,2025-06-02,合同会社ｍｏｒｅＮＡ．,,合同会社,東京都,江戸川区,篠崎町６丁目２３番２１号メゾンファンタジア１０１,,13,123,1330061,,,,,,,2025-06-02,1,,,,,モアナ,0
727,4011801046227,新規,0,2025-06-02,2025-06-02,Ｇｌｏｂａｌ　Ｅｘｐｌｏｒｅ株式会社,,株式会社,東京都,足立区,栗原３丁目２６番１号２Ｆ,,13,121,1230842,,,,,,,2025-06-02,1,,,,,グローバルエクスプロア,0
728,4012401043176,新規,0,2025-06-02,2025-06-02,株式会社ＧＴＤ　ＪＡＰＡＮ,,株式会社,東京都,多摩市,和田１７３７,,13,224,2060001,,,,,,,2025-06-02,1,,,,,ジーティーディージャパン,0
736,4020001163121,新規,0,2025-06-02,2025-06-02,株式会社スタジオシマ,,株式会社,神奈川県,横浜市港北区,日吉本町２丁目３１－２－３１７,,14,109,2230062,,,,,,,2025-06-02,1,,,,,スタジオシマ,0
737,4020001163138,新規,0,2025-06-02,2025-06-02,株式会社アップホーム,,株式会社,神奈川県,横浜市港南区,野庭町６３４番地野庭団地２棟２７２号,,14,111,2340056,,,,,,,2025-06-02,1,,,,,アップホーム,0
740,4021001085322,新規,0,2025-06-02,2025-06-02,ＳＨＡＮＩＫＯ株式会社,,株式会社,神奈川県,厚木市,棚沢字川原付６１９番１,,14,212,2430205,,,,,,,2025-06-02,1,,,,,シャニコ,0
741,4021003016069,新規,0,2025-06-02,2025-06-02,合同会社Ｐｅｎｔｈｏｕｓｅ,,合同会社,神奈川県,相模原市南区,相模大野３丁目２５－３－１３０３,,14,153,2520303,,,,,,,2025-06-02,1,,,,,ペントハウス,0
758,4040001138856,新規,0,2025-06-02,2025-06-02,ＭｕＳｕＢｉ株式会社,,株式会社,千葉県,習志野市,実籾４丁目９番２号,,12,216,2750002,,,,,,,2025-06-02,1,,,,,ムスビ,0
759,4040001139004,新規,0,2025-06-02,2025-06-02,春山商事株式会社,,株式会社,千葉県,船橋市,習志野台８丁目２番８－３１３,,12,204,2740063,,,,,,,2025-06-02,1,,,,,ハルヤマショウジ,0
760,4040001139020,新規,0,2025-06-02,2025-06-02,巴晨株式会社,,株式会社,千葉県,市原市,藪７８０－１,,12,219,2900227,,,,,,,2025-06-02,1,,,,,バシン,0
761,4040001139037,新規,0,2025-06-02,2025-06-02,ＭＡＡ　ＩＮＴＥＲＮＡＴＩＯＮＡＬ株式会社,,株式会社,千葉県,市川市,八幡２丁目９番１５号ブラッサムフォーラム市川３３,,12,203,2720021,,,,,,,2025-06-02,1,,,,,エムエーエーインターナショナル,0
762,4040001139045,新規,0,2025-06-02,2025-06-02,株式会社すみれホーム,,株式会社,千葉県,船橋市,二宮１丁目５８番２号,,12,204,2740823,,,,,,,2025-06-02,1,,,,,スミレホーム,0
763,4050001056743,新規,0,2025-06-02,2025-06-02,株式会社テイストライズ,,株式会社,茨城県,水戸市,堀町１８１７番地の１８,,08,201,3100903,,,,,,,2025-06-02,1,,,,,テイストライズ,0
770,4070005010397,新規,0,2025-06-02,2025-06-02,一般社団法人ＪＡＰＡＮ　ＦＯＯＤ　ＬＡＢ,,その他の設立登記法人,群馬県,太田市,脇屋町３８４番地１,,10,205,3730031,,,,,,,2025-06-02,1,,,,,ジャパンフードラブ,0
786,4110001039304,新規,0,2025-06-02,2025-06-02,ＣＲＡＦＴ株式会社,,株式会社,新潟県,三条市,栗林３４４番地１０,,15,204,9550085,,,,,,,2025-06-02,1,,,,,クラフト,0
791,4120001276350,新規,0,2025-06-02,2025-06-02,株式会社立道,,株式会社,大阪府,大阪市東住吉区,矢田３丁目３番２号ライゼホビー３番,,27,121,5460023,,,,,,,2025-06-02,1,,,,,タテミチ,0
792,4120001276367,新規,0,2025-06-02,2025-06-02,ＨＩ日本株式会社,,株式会社,大阪府,大阪市中央区,島之内２丁目６番７号サウザンドイレブンビル４０７号室,,27,128,5420082,,,,,,,2025-06-02,1,,,,,エイチアイニホン,0
794,4120003029582,新規,0,2025-06-02,2025-06-02,合同会社Ｋｉｚｕｎａ　Ｗｏｒｋｓ,,合同会社,大阪府,大阪市北区,東天満２丁目６－１－２００３,,27,127,5300044,,,,,,,2025-06-02,1,,,,,キズナワークス,0
795,4120003029632,新規,0,2025-06-02,2025-06-02,合同会社Ａｒｏｚａ,,合同会社,大阪府,大阪市北区,梅田１丁目２番２号大阪駅前第２ビル１２－１２,,27,127,5300001,,,,,,,2025-06-02,1,,,,,アローザ,0
796,4120003029640,新規,0,2025-06-02,2025-06-02,虫歯建設合同会社,,合同会社,大阪府,大阪市北区,梅田１丁目１‐３大阪駅前第３ビル２９階１‐１‐１号室,,27,127,5300001,,,,,,,2025-06-02,1,,,,,ムシバケンセツ,0
797,4120003029665,新規,0,2025-06-02,2025-06-02,合同会社ジャパンオートスクラップ,,合同会社,大阪府,大阪市大正区,北恩加島１丁目４番４３号,,27,108,5510033,,,,,,,2025-06-02,1,,,,,ジャパンオートスクラップ,0
798,4120101071767,新規,0,2025-06-02,2025-06-02,オスケン株式会社,,株式会社,大阪府,堺市西区,浜寺昭和町２丁２９７番地２,,27,144,5928345,,,,,,,2025-06-02,1,,,,,オスケン,0
800,4120903005699,新規,0,2025-06-02,2025-06-02,合同会社レトロユキ,,合同会社,大阪府,豊中市,北桜塚３丁目５番２１号,,27,203,5600022,,,,,,,2025-06-02,1,,,,,レトロユキ,0
802,4120905006737,新規,0,2025-06-02,2025-06-02,一般社団法人ＭＵＡ,,その他の設立登記法人,大阪府,豊中市,夕日丘１丁目４番２０－６０４号,,27,203,5610864,,,,,,,2025-06-02,1,,,,,ムア,0
807,4122001039299,新規,0,2025-06-02,2025-06-02,ドリームスターインベストメント株式会社,,株式会社,大阪府,柏原市,法善寺４丁目２番２７号グランドール法善寺６０３,,27,221,5820005,,,,,,,2025-06-02,1,,,,,ドリームスターインベストメント,0
811,4130005017378,新規,0,2025-06-02,2025-06-02,一般社団法人日本赤ギ友好協会,,その他の設立登記法人,京都府,亀岡市,南つつじケ丘大葉台１丁目１６－８,,26,206,6210846,,,,,,,2025-06-02,1,,,,,ニホンセキギユウコウキョウカイ,0
815,4140001138763,新規,0,2025-06-02,2025-06-02,株式会社ＭＥＭＯＤＩＡ　ＪＡＰＡＮ,,株式会社,兵庫県,神戸市中央区,磯上通４丁目１番３２号ロイヤル磯上,,28,110,6510086,,,,,,,2025-06-02,1,,,,,メモディアジャパン,0
817,4140003022131,新規,0,2025-06-02,2025-06-02,Ｊｙｏｔｉ合同会社,,合同会社,兵庫県,尼崎市,東塚口町１丁目２番２２－３１５号,,28,202,6610011,,,,,,,2025-06-02,1,,,,,ジョティ,0
818,4150001028162,新規,0,2025-06-02,2025-06-02,株式会社アイセル,,株式会社,奈良県,磯城郡田原本町,大字阪手６６５番地の２,,29,363,6360247,,,,,,,2025-06-02,1,,,,,アイセル,0
819,4150005009704,新規,0,2025-06-02,2025-06-02,一般社団法人みこと舎,,その他の設立登記法人,奈良県,宇陀市,室生龍口３８５,,29,212,6330311,,,,,,,2025-06-02,1,,,,,ミコトヤ,0
822,4160001026784,新規,0,2025-06-02,2025-06-02,株式会社ＴＯＧＥＴＨＥＲ,,株式会社,滋賀県,大津市,大萱１丁目９番２－４０３号,,25,201,5202144,,,,,,,2025-06-02,1,,,,,トゥゲザー,0
824,4170003002221,新規,0,2025-06-02,2025-06-02,合同会社ビルドアップ,,合同会社,和歌山県,海南市,岡田２６８番地９,,30,202,6420012,,,,,,,2025-06-02,1,,,,,ビルドアップ,0
830,4180001167073,新規,0,2025-06-02,2025-06-02,株式会社ＪＣＳ,,株式会社,愛知県,稲沢市,稲島７丁目７８番地１,,23,220,4928229,,,,,,,2025-06-02,1,,,,,ジェーシーエス,0
834,4180301039848,新規,0,2025-06-02,2025-06-02,ＳｅｉｄｅｎＨＤ株式会社,,株式会社,愛知県,豊橋市,中野町字平西１番地の５４,,23,201,4418149,,,,,,,2025-06-02,1,,,,,セイデンホールディングス,0
835,4180301039856,新規,0,2025-06-02,2025-06-02,株式会社ＧＯＵＳＥＮ,,株式会社,愛知県,岡崎市,真伝吉祥１丁目５番地２,,23,202,4443176,,,,,,,2025-06-02,1,,,,,ゴウセン,0
841,4200001043841,新規,0,2025-06-02,2025-06-02,株式会社ＷＩＴ,,株式会社,岐阜県,岐阜市,西川手８丁目２４番地２Ｆ,,21,201,5008258,,,,,,,2025-06-02,1,,,,,ウィット,0
847,4210001020179,新規,0,2025-06-02,2025-06-02,株式会社ｋｏｔｏｈｉｒｏ,,株式会社,福井県,鯖江市,旭町１丁目８番４号,,18,207,9160025,,,,,,,2025-06-02,1,,,,,コトヒロ,0
849,4220001026712,新規,0,2025-06-02,2025-06-02,株式会社バズゲイングロース,,株式会社,石川県,金沢市,諸江町下丁９３－１飯田ビル２階,,17,201,9200017,,,,,,,2025-06-02,1,,,,,,0
850,4220003004047,新規,0,2025-06-02,2025-06-02,合同会社ＴｒｙＨｕｂ,,合同会社,石川県,金沢市,角間町ヌ７番地金沢大学ベンチャー・ビジネス・ラボラトリー,,17,201,9201164,,,,,,,2025-06-02,1,,,,,トライハブ,0
863,4290001110204,新規,0,2025-06-02,2025-06-02,東明昇國際實業株式会社,,株式会社,福岡県,福岡市中央区,薬院４丁目１８番１５－９０１号,,40,133,8100022,,,,,,,2025-06-02,1,,,,,トウメイショウコクサイジツギョウ,0
864,4290001110212,新規,0,2025-06-02,2025-06-02,株式会社オリエイト,,株式会社,福岡県,太宰府市,水城５丁目１４番１３号,,40,221,8180131,,,,,,,2025-06-02,1,,,,,オリエイト,0
869,4300001014205,新規,0,2025-06-02,2025-06-02,株式会社天穂,,株式会社,佐賀県,杵島郡白石町,大字福吉１８４９番地１５,,41,425,8491113,,,,,,,2025-06-02,1,,,,,テンスイ,0
870,4300005007246,新規,0,2025-06-02,2025-06-02,一般社団法人友桝グループ運営協議会,,その他の設立登記法人,佐賀県,小城市,小城町岩蔵２５７５番地３,,41,208,8450003,,,,,,,2025-06-02,1,,,,,トモマスグループウンエイキョウギカイ,0
875,4330003011032,新規,0,2025-06-02,2025-06-02,合同会社ツクヨミ,,合同会社,熊本県,熊本市南区,御幸笛田２丁目１５番３８号,,43,104,8614172,,,,,,,2025-06-02,1,,,,,ツクヨミ,0
878,4340001027376,新規,0,2025-06-02,2025-06-02,ハナミライかのや株式会社,,株式会社,鹿児島県,鹿屋市,輝北町諏訪原４２０７番地１,,46,203,8998512,,,,,,,2025-06-02,1,,,,,ハナミライカノヤ,0
887,4370003007118,新規,0,2025-06-02,2025-06-02,合同会社Ｄオンラインコーポレーション,,合同会社,宮城県,仙台市青葉区,錦町１丁目１０－１０仙台錦町ハルヤマテラス２１１,,04,101,9800012,,,,,,,2025-06-02,1,,,,,ディーオンラインコーポレーション,0
894,4450001014636,新規,0,2025-06-02,2025-06-02,株式会社ＡＣＭＯ,,株式会社,北海道,稚内市,大黒２丁目４番１７号,,01,214,0970005,,,,,,,2025-06-02,1,,,,,アクモ,0
912,5010001255397,新規,0,2025-06-02,2025-06-02,マッピング・ジャパン・サポート株式会社,,株式会社,東京都,中央区,銀座７丁目１３番６号サガミビル２階,,13,102,1040061,,,,,,,2025-06-02,1,,,,,,0
913,5010001255513,新規,0,2025-06-02,2025-06-02,株式会社ＧＯＳＴ　ＪＡＰＡＮ,,株式会社,東京都,中央区,銀座７丁目１１－３矢島ビル４Ｆ,,13,102,1040061,,,,,,,2025-06-02,1,,,,,ゴーストジャパン,0
914,5010001255546,新規,0,2025-06-02,2025-06-02,株式会社ＣＨＣＰトラスティ,,株式会社,東京都,千代田区,丸の内１丁目８番１号,,13,101,1000005,,,,,,,2025-06-02,1,,,,,シーエイチシーピートラスティ,0
915,5010001255562,新規,0,2025-06-02,2025-06-02,エナジェンス株式会社,,株式会社,東京都,千代田区,丸の内１丁目８番３号丸の内トラストタワー本館２０Ｆ,,13,101,1000005,,,,,,,2025-06-02,1,,,,,エナジェンス,0
916,5010003047504,新規,0,2025-06-02,2025-06-02,ＬＶＣファンド３７号合同会社,,合同会社,東京都,千代田区,紀尾井町３－８第２紀尾井町ビル９０１アクシス綜合会計事務所内,,13,101,1020094,,,,,,,2025-06-02,1,,,,,エルブイシーファンドサンジュウナナゴウ,0
930,5010503007858,新規,0,2025-06-02,2025-06-02,合同会社十和田,,合同会社,東京都,台東区,浅草１丁目３３番５号,,13,106,1110032,,,,,,,2025-06-02,1,,,,,トワダ,0
940,5010901057447,新規,0,2025-06-02,2025-06-02,株式会社上新リアルエステートプラス,,株式会社,東京都,世田谷区,駒沢４丁目１２番２３号,,13,112,1540012,,,,,,,2025-06-02,1,,,,,ジョウシンリアルエステートプラス,0
941,5010901057471,新規,0,2025-06-02,2025-06-02,ＳＯＲＡ‐ｉ株式会社,,株式会社,東京都,世田谷区,三宿１丁目１４番８号三宿バドスクエア３１７号室,,13,112,1540005,,,,,,,2025-06-02,1,,,,,ソラアイ,0
942,5010903009966,新規,0,2025-06-02,2025-06-02,ｕｂｐ合同会社,,合同会社,東京都,世田谷区,太子堂４丁目１８番１５号マガザン三軒茶屋２－３Ｆ－３,,13,112,1540004,,,,,,,2025-06-02,1,,,,,ユービーピー,0
948,5011001169752,新規,0,2025-06-02,2025-06-02,株式会社ＢＩＧＨＩＴ,,株式会社,東京都,目黒区,駒場２丁目１番７－５０２号駒場パークサイドヒルズ,,13,110,1530041,,,,,,,2025-06-02,1,,,,,ビッグヒット,0
955,5011105011439,新規,0,2025-06-02,2025-06-02,一般社団法人全国民間保育園経営研究懇話会,,その他の設立登記法人,東京都,新宿区,納戸町２６－３保育プラザ３Ｆ,,13,104,1620837,,,,,,,2025-06-02,1,,,,,ゼンコクミンカンホイクエンケイエイケンキュウコンワカイ,0
957,5011303005564,新規,0,2025-06-02,2025-06-02,合同会社ＴＯＭＩ,,合同会社,東京都,杉並区,上荻１丁目１５番９号,,13,115,1670043,,,,,,,2025-06-02,1,,,,,トミ,0
963,5011405002393,新規,0,2025-06-02,2025-06-02,一般社団法人まちのたね,,その他の設立登記法人,東京都,板橋区,小茂根１丁目１－４１－１２０９,,13,119,1730037,,,,,,,2025-06-02,1,,,,,マチノタネ,0
967,5011801046234,新規,0,2025-06-02,2025-06-02,株式会社ＣＡＲＴ　ＴＥＣＨ,,株式会社,東京都,足立区,弘道２丁目２９－１５－５０５,,13,121,1200013,,,,,,,2025-06-02,1,,,,,カートテック,0
979,5020001163112,新規,0,2025-06-02,2025-06-02,株式会社Ｔｅｘｏｒａ,,株式会社,神奈川県,川崎市川崎区,駅前本町１１番地２川崎フロンティアビル４階,,14,131,2100007,,,,,,,2025-06-02,1,,,,,テクソラ,0
983,5020003028593,新規,0,2025-06-02,2025-06-02,合同会社ｔｏ　Ｋａｉｎ,,合同会社,神奈川県,横浜市港北区,大倉山２丁目２５番２２号ラピス大倉山７－１０３,,14,109,2220037,,,,,,,2025-06-02,1,,,,,テゥカイン,0
984,5020003028610,新規,0,2025-06-02,2025-06-02,グッドシングスウェディングカンパニー合同会社,,合同会社,神奈川県,横浜市中区,山下町３１番地ベイサイド上田ビル５階,,14,104,2310023,,,,,,,2025-06-02,1,,,,,グッドシングスウェディングカンパニー,0
992,5021001085370,新規,0,2025-06-02,2025-06-02,株式会社ホワイト,,株式会社,神奈川県,三浦郡葉山町,長柄７０５番地の１０５,,14,301,2400113,,,,,,,2025-06-02,1,,,,,ホワイト,0
1000,5030001166790,新規,0,2025-06-02,2025-06-02,株式会社ハイブ,,株式会社,埼玉県,三郷市,彦江１丁目１０９番地２,,11,237,3410058,,,,,,,2025-06-02,1,,,,,ハイブ,0
1001,5030001166824,新規,0,2025-06-02,2025-06-02,株式会社ＮＲＦサービス,,株式会社,埼玉県,春日部市,中央１丁目１０番地１２オキナヤビル４階,,11,214,3440067,,,,,,,2025-06-02,1,,,,,エヌアールエフサービス,0
1002,5030003026844,新規,0,2025-06-02,2025-06-02,ＨＭＲ合同会社,,合同会社,埼玉県,蕨市,錦町３丁目３番１２号カーネルヤードＡ７号,,11,223,3350005,,,,,,,2025-06-02,1,,,,,エイチエムアール,0
1003,5030003026885,新規,0,2025-06-02,2025-06-02,合同会社ＴＡＫＵＭＩ,,合同会社,埼玉県,入間市,東藤沢３丁目２番１３号ＫＩＶ商会館入間Ｇ号室,,11,225,3580012,,,,,,,2025-06-02,1,,,,,タクミ,0
1007,5040003027668,新規,0,2025-06-02,2025-06-02,合同会社Ｍｏｏｎ　Ｓｍｉｌｅ,,合同会社,千葉県,千葉市中央区,大森町２６０－４１,,12,101,2600811,,,,,,,2025-06-02,1,,,,,ムーンスマイル,0
1012,5050001056742,新規,0,2025-06-02,2025-06-02,オステリアヴィッテロ株式会社,,株式会社,茨城県,つくば市,筑穂２丁目１番地２の１階,,08,220,3003257,,,,,,,2025-06-02,1,,,,,オステリアヴィッテロ,0
1017,5060001038252,新規,0,2025-06-02,2025-06-02,株式会社オフィス工藤,,株式会社,栃木県,佐野市,米山南町４４番地１７,,09,204,3270818,,,,,,,2025-06-02,1,,,,,オフィスクドウ,0
1020,5070001042971,新規,0,2025-06-02,2025-06-02,株式会社ＤＥＩＳ,,株式会社,群馬県,前橋市,力丸町２２１番地９,,10,201,3792134,,,,,,,2025-06-02,1,,,,,デイズ,0
1038,5120001276399,新規,0,2025-06-02,2025-06-02,ＧＶＲｅｎｔｉｎｇ株式会社,,株式会社,大阪府,大阪市住之江区,安立２丁目７番２７号,,27,125,5590003,,,,,,,2025-06-02,1,,,,,ジーブイレンティング,0
1039,5120001276440,新規,0,2025-06-02,2025-06-02,株式会社ＴＹＧ,,株式会社,大阪府,大阪市北区,梅田１丁目２番２号大阪駅前第２ビル１２‐１２,,27,127,5300001,,,,,,,2025-06-02,1,,,,,ティーワイジー,0
1042,5120003029598,新規,0,2025-06-02,2025-06-02,合同会社ＹＯＫＩスペース,,合同会社,大阪府,大阪市西区,本田２丁目８番１９号ＦＤＳＡＺＵＬ８０５,,27,106,5500022,,,,,,,2025-06-02,1,,,,,ヨキスペース,0
1045,5120101071766,新規,0,2025-06-02,2025-06-02,ビオスマネジメント株式会社,,株式会社,大阪府,羽曳野市,西浦５丁目１５５番地の３７,,27,222,5830861,,,,,,,2025-06-02,1,,,,,ビオスマネジメント,0
1051,5120901050952,新規,0,2025-06-02,2025-06-02,株式会社ＳＡＷＡＴＥＣＨ,,株式会社,大阪府,吹田市,穂波町１８番２６号,,27,205,5640042,,,,,,,2025-06-02,1,,,,,サワテック,0
1065,5140001138754,新規,0,2025-06-02,2025-06-02,株式会社Ｋｉｔルーフ,,株式会社,兵庫県,川西市,けやき坂３丁目４番地の１４,,28,217,6660145,,,,,,,2025-06-02,1,,,,,キットルーフ,0
1066,5140001138762,新規,0,2025-06-02,2025-06-02,株式会社ＭＡＴＳＵＤＡ　ＤＲＥＡＭ,,株式会社,兵庫県,神戸市中央区,加納町２丁目９番２０号クラタ１２号館２Ｆ,,28,110,6500001,,,,,,,2025-06-02,1,,,,,マツダドリーム,0
1072,5180001167031,新規,0,2025-06-02,2025-06-02,株式会社達美ホールディングス,,株式会社,愛知県,名古屋市緑区,滝ノ水３丁目５１１番地の１,,23,114,4580021,,,,,,,2025-06-02,1,,,,,タツミホールディングス,0
1073,5180003028529,新規,0,2025-06-02,2025-06-02,合同会社畑工業,,合同会社,愛知県,弥富市,子宝２丁目１０３番地４,,23,235,4901413,,,,,,,2025-06-02,1,,,,,ハタコウギョウ,0
1074,5180003028553,新規,0,2025-06-02,2025-06-02,合同会社まちラボＫ,,合同会社,愛知県,名古屋市中村区,日比津町３丁目６番１６号,,23,105,4530061,,,,,,,2025-06-02,1,,,,,マチラボケイ,0
1076,5180301039855,新規,0,2025-06-02,2025-06-02,株式会社ＦＯＲＷＡＡＡＹ,,株式会社,愛知県,豊橋市,西小鷹野２丁目１２番地３２,,23,201,4400013,,,,,,,2025-06-02,1,,,,,フォーウェーイ,0
1081,5200001043840,新規,0,2025-06-02,2025-06-02,株式会社ＨＹＫ,,株式会社,岐阜県,各務原市,川島小網町２０２５番地２４,,21,213,5016023,,,,,,,2025-06-02,1,,,,,エイチワイケイ,0
1089,5240001065006,新規,0,2025-06-02,2025-06-02,株式会社リ・ジェネテック,,株式会社,広島県,安芸郡海田町,大正町２番１５－２号,,34,304,7360041,,,,,,,2025-06-02,1,,,,,リジェネテック,0
1102,5290001110203,新規,0,2025-06-02,2025-06-02,Ｉ．Ｌｏｖ＆Ｃｏ株式会社,,株式会社,福岡県,福岡市中央区,大名２丁目６番５号福岡大名ガーデンシティ８階,,40,133,8100041,,,,,,,2025-06-02,1,,,,,アイラボアンドコー,0
1105,5290003016910,新規,0,2025-06-02,2025-06-02,合同会社サテラ,,合同会社,福岡県,大牟田市,大字吉野１０９７番地,,40,202,8370904,,,,,,,2025-06-02,1,,,,,サテラ,0
1109,5330001033234,新規,0,2025-06-02,2025-06-02,Ｙ総合運輸株式会社,,株式会社,熊本県,熊本市東区,上南部３丁目３１番１－２０６号,,43,102,8618010,,,,,,,2025-06-02,1,,,,,ワイソウゴウウンユ,0
1111,5340001027359,新規,0,2025-06-02,2025-06-02,株式会社ＡＴＡＲＩ,,株式会社,鹿児島県,鹿児島市,山之口町１１番１８号１階,,46,201,8920844,,,,,,,2025-06-02,1,,,,,アタリ,0
1116,5360001035285,新規,0,2025-06-02,2025-06-02,株式会社朝日自動車,,株式会社,沖縄県,国頭郡金武町,字金武４３０４番地の２,,47,314,9041201,,,,,,,2025-06-02,1,,,,,アサヒジドウシャ,0
1117,5360003014980,新規,0,2025-06-02,2025-06-02,合同会社ＬＡＹＬＩＮＥ,,合同会社,沖縄県,宮古島市,下地字与那覇２４番地,,47,214,9060305,,,,,,,2025-06-02,1,,,,,レイライン,0
1118,5370005010969,新規,0,2025-06-02,2025-06-02,一般社団法人みらいのちから,,その他の設立登記法人,宮城県,仙台市青葉区,花京院１丁目２番１５号ソララプラザ３Ｆ,,04,101,9800013,,,,,,,2025-06-02,1,,,,,ミライノチカラ,0
1122,5410001014168,新規,0,2025-06-02,2025-06-02,株式会社Ｋ＆Ｅ．ｃｏ,,株式会社,秋田県,秋田市,中通２丁目５番１号クロッセ秋田４階,,05,201,0100001,,,,,,,2025-06-02,1,,,,,ケーアンドイードットシーオー,0
1124,5430001094539,新規,0,2025-06-02,2025-06-02,株式会社ＴａａａＢｏ,,株式会社,北海道,札幌市中央区,南二条西５丁目３１番地１ＲＭＢｌｄ．７０１,,01,101,0600062,,,,,,,2025-06-02,1,,,,,ターボ,0
1125,5430001094563,新規,0,2025-06-02,2025-06-02,風鈴Ａｒｃｈｔｅｃｈｓ株式会社,,株式会社,北海道,千歳市,祝梅４９４番地５７,,01,224,0660006,,,,,,,2025-06-02,1,,,,,フウリンアーチテックス,0
1128,5470003002891,新規,0,2025-06-02,2025-06-02,合同会社サテツ,,合同会社,香川県,高松市,今里町２丁目２９番地１３,,37,201,7600078,,,,,,,2025-06-02,1,,,,,サテツ,0
1131,5700150130843,新規,0,2025-06-02,2025-06-02,Ｚｈｅｊｉａｎｇ　Ｚｈｉｂｉａｏ　Ｉｎｄｕｓｔｒｙ＆Ｔｒａｄｅ　Ｃｏ．，Ｌｔｄ,,外国会社等,,,,,,,,Ｎｏ．１３８－８　Ｙｕｅｇｕｉ　Ｓｏｕｔｈ　Ｒｏａｄ，　Ｃｈｅｎｇｘｉ　Ｎｅｗ　Ｄｉｓｔｒｉｃｔ，　Ｙｏｎｇｋａｎｇ，　Ｊｉｎｈｕａ，　Ｚｈｅｊｉａｎｇ，　Ｃｈｉｎａ　３２１３００,,,,,,2025-06-02,1,,,,,ジェジャンジビャオインダストゥリーアンドトレードカンパニーリミテッド,0
1139,6010001255537,新規,0,2025-06-02,2025-06-02,Ｅｎｖｉｓｉｏｎ　Ｐｒｏｐｅｒｔｉｅｓ株式会社,,株式会社,東京都,中央区,銀座２丁目１０番８号マニエラ銀座ビル４階,,13,102,1040061,,,,,,,2025-06-02,1,,,,,エンビジョンプロパティーズ,0
1140,6010003047503,新規,0,2025-06-02,2025-06-02,ＬＶＣファンド３６号合同会社,,合同会社,東京都,千代田区,紀尾井町３－８第２紀尾井町ビル９０１アクシス綜合会計事務所内,,13,101,1020094,,,,,,,2025-06-02,1,,,,,エルブイシーファンドサンジュウロクゴウ,0
1143,6010101016707,新規,0,2025-06-02,2025-06-02,ブリビック株式会社,,株式会社,東京都,八王子市,左入町５８５番地５,,13,201,1920012,,,,,,,2025-06-02,1,,,,,ブリビック,0
1149,6010401190441,新規,0,2025-06-02,2025-06-02,株式会社ＭｉｄｏｒｉＸ,,株式会社,東京都,港区,赤坂１丁目３－３Ｔ－ＦＲＯＮＴビル２階,,13,103,1070052,,,,,,,2025-06-02,1,,,,,ミドリックス,0
1150,6010401190516,新規,0,2025-06-02,2025-06-02,株式会社ＳＴＯＲＩＥＳ,,株式会社,東京都,港区,六本木５丁目１３－１４メゾン麻布２０８,,13,103,1060032,,,,,,,2025-06-02,1,,,,,ストーリーズ,0
1151,6010401190672,新規,0,2025-06-02,2025-06-02,花壇の星株式会社,,株式会社,東京都,港区,虎ノ門１丁目１７－１虎ノ門ヒルズビジネスタワー１５階,,13,103,1050001,,,,,,,2025-06-02,1,,,,,カダンノホシ,0
1159,6010601067373,新規,0,2025-06-02,2025-06-02,株式会社ＫＯＥ投資,,株式会社,東京都,江東区,東雲１丁目９番５０－５１０２号,,13,108,1350062,,,,,,,2025-06-02,1,,,,,コエトウシ,0
1160,6010601067381,新規,0,2025-06-02,2025-06-02,恒膳株式会社,,株式会社,東京都,墨田区,江東橋２丁目５番９号２Ｆ,,13,107,1300022,,,,,,,2025-06-02,1,,,,,コウゼン,0
1163,6010603011602,新規,0,2025-06-02,2025-06-02,合同会社Ｋｎｏｔ,,合同会社,東京都,江東区,塩浜１丁目４－９ＲａｓｓｕｒｅｒＰｌｕｓ１０３,,13,108,1350043,,,,,,,2025-06-02,1,,,,,ノット,0
1165,6010703007731,新規,0,2025-06-02,2025-06-02,ＫＩＤＭＡＮ　ＴＯＫＹＯ合同会社,,合同会社,東京都,品川区,荏原３丁目６番１３－６０１号,,13,109,1420063,,,,,,,2025-06-02,1,,,,,キッドマントーキョー,0
1172,6011001169710,新規,0,2025-06-02,2025-06-02,エルヴィエフ株式会社,,株式会社,東京都,渋谷区,元代々木町４４－１－２０６,,13,113,1510062,,,,,,,2025-06-02,1,,,,,エルヴィエフ,0
1173,6011001169719,新規,0,2025-06-02,2025-06-02,ＳＭＯＫＹ　ＢＬＵＥ株式会社,,株式会社,東京都,渋谷区,渋谷２丁目１９番１５号宮益坂ビルディング６０９,,13,113,1500002,,,,,,,2025-06-02,1,,,,,スモーキーブルー,0
1174,6011001169727,新規,0,2025-06-02,2025-06-02,株式会社Ｋｉｖｉａｑ,,株式会社,東京都,渋谷区,道玄坂１丁目２－３,,13,113,1500043,,,,,,,2025-06-02,1,,,,,キビヤック,0
1175,6011001169743,新規,0,2025-06-02,2025-06-02,株式会社ＪＩＧＥＮＪＩ,,株式会社,東京都,目黒区,中根２丁目２番７号－５０５号ミニカムマンション,,13,110,1520031,,,,,,,2025-06-02,1,,,,,ジゲンジ,0
1176,6011001169751,新規,0,2025-06-02,2025-06-02,株式会社オールマンズランド,,株式会社,東京都,渋谷区,恵比寿西２丁目４番８号ウィンド恵比寿ビル八階,,13,113,1500021,,,,,,,2025-06-02,1,,,,,オールマンズランド,0
1181,6011101111794,新規,0,2025-06-02,2025-06-02,闕劉資産管理株式会社,,株式会社,東京都,新宿区,高田馬場３丁目３６－７－６階,,13,104,1690075,,,,,,,2025-06-02,1,,,,,ケツリュウシサンカンリ,0
1187,6011501032153,新規,0,2025-06-02,2025-06-02,星株式会社,,株式会社,東京都,北区,中里１丁目２１番２号中里ビル１Ｆ,,13,117,1140015,,,,,,,2025-06-02,1,,,,,ホシ,0
1204,6020001163103,新規,0,2025-06-02,2025-06-02,林工務店株式会社,,株式会社,神奈川県,横浜市南区,白妙町４丁目４３－１７－１０５号,,14,105,2320023,,,,,,,2025-06-02,1,,,,,ハヤシコウムテン,0
1205,6020001163136,新規,0,2025-06-02,2025-06-02,株式会社Ｈ＆Ｓ,,株式会社,神奈川県,横浜市西区,北幸１丁目１１番１号水信ビル７階,,14,103,2200004,,,,,,,2025-06-02,1,,,,,エイチアンドエス,0
1210,6020003028584,新規,0,2025-06-02,2025-06-02,ＳＴＥＰ合同会社,,合同会社,神奈川県,川崎市中原区,宮内４丁目２７番１号レモンハウス２０５,,14,133,2110051,,,,,,,2025-06-02,1,,,,,ステップ,0
1214,6021001085337,新規,0,2025-06-02,2025-06-02,株式会社圓商事不動産,,株式会社,神奈川県,海老名市,東柏ケ谷２丁目２４番４号,,14,215,2430401,,,,,,,2025-06-02,1,,,,,マドカショウジフドウサン,0
1215,6021001085394,新規,0,2025-06-02,2025-06-02,岩田株式会社,,株式会社,神奈川県,平塚市,四之宮５丁目３番１２号,,14,203,2540014,,,,,,,2025-06-02,1,,,,,イワタ,0
1216,6021003016067,新規,0,2025-06-02,2025-06-02,合同会社ライズインベスト,,合同会社,神奈川県,相模原市中央区,すすきの町２９番４号,,14,152,2520213,,,,,,,2025-06-02,1,,,,,ライズインベスト,0
1218,6030001166798,新規,0,2025-06-02,2025-06-02,株式会社ｐａｒｅｊａ,,株式会社,埼玉県,川口市,西青木１丁目３番１２－１０５号,,11,203,3320035,,,,,,,2025-06-02,1,,,,,パレハ,0
1220,6030003026892,新規,0,2025-06-02,2025-06-02,インナーワークス合同会社,,合同会社,埼玉県,所沢市,東所沢和田３丁目１１番地の３６,,11,208,3590023,,,,,,,2025-06-02,1,,,,,インナーワークス,0
1226,6040003027717,新規,0,2025-06-02,2025-06-02,合同会社かげとら,,合同会社,千葉県,我孫子市,緑２丁目５番１５号,,12,222,2701153,,,,,,,2025-06-02,1,,,,,カゲトラ,0
1229,6050001056741,新規,0,2025-06-02,2025-06-02,平松建築株式会社,,株式会社,茨城県,牛久市,下根町７２０番地,,08,219,3001203,,,,,,,2025-06-02,1,,,,,ヒラマツケンチク,0
1232,6050003009292,新規,0,2025-06-02,2025-06-02,合同会社ＬＩＮＫ,,合同会社,茨城県,稲敷郡阿見町,うずら野２丁目２８‐６,,08,443,3000341,,,,,,,2025-06-02,1,,,,,リンク,0
1236,6080003003466,新規,0,2025-06-02,2025-06-02,アオハル合同会社,,合同会社,静岡県,静岡市葵区,丸山町７０番地の２,,22,101,4200861,,,,,,,2025-06-02,1,,,,,アオハル,0
1248,6120001276332,新規,0,2025-06-02,2025-06-02,株式会社ＧＥＭデータソリューションズジャパン,,株式会社,大阪府,大阪市浪速区,敷津西２丁目１３番２号,,27,111,5560015,,,,,,,2025-06-02,1,,,,,ジーイーエムデータソリューションズジャパン,0
1249,6120001276381,新規,0,2025-06-02,2025-06-02,株式会社ＳＯＲＡ　Ｈｏｌｄｉｎｇｓ,,株式会社,大阪府,大阪市生野区,中川４丁目２－４ホワイトビル３０５,,27,116,5440005,,,,,,,2025-06-02,1,,,,,ソラホールディングス,0
1250,6120001276398,新規,0,2025-06-02,2025-06-02,株式会社Ｈ．Ｋ,,株式会社,大阪府,門真市,宮野町４番１５－６０４号,,27,223,5710062,,,,,,,2025-06-02,1,,,,,エイチケー,0
1252,6120003029630,新規,0,2025-06-02,2025-06-02,合同会社ＸＵＡＮ　ＸＵＯＮＧ,,合同会社,大阪府,大阪市西成区,山王２丁目１５番１７号融得マンション３１５号,,27,122,5570001,,,,,,,2025-06-02,1,,,,,スァンスォン,0
1254,6120101071765,新規,0,2025-06-02,2025-06-02,喬株式会社,,株式会社,大阪府,貝塚市,海塚２丁目１２－２２－１０５室,,27,208,5970083,,,,,,,2025-06-02,1,,,,,キョウ,0
1259,6122001039306,新規,0,2025-06-02,2025-06-02,株式会社ＡＴＷＯＳ,,株式会社,大阪府,東大阪市,長田東１丁目３番４３号,,27,227,5770012,,,,,,,2025-06-02,1,,,,,アトウォス,0
1262,6130003010507,新規,0,2025-06-02,2025-06-02,ＡＹＡＺ　ＴＲＡＤＩＮＧ合同会社,,合同会社,京都府,木津川市,加茂町里西鳥口７７番地,,26,214,6191152,,,,,,,2025-06-02,1,,,,,アヤズトレーディング,0
1271,6140001138761,新規,0,2025-06-02,2025-06-02,株式会社ＤＯＣＳ,,株式会社,兵庫県,川西市,見野２丁目３３番１５号,,28,217,6660105,,,,,,,2025-06-02,1,,,,,ディーオーシーエス,0
1284,6180003028544,新規,0,2025-06-02,2025-06-02,全楽合同会社,,合同会社,愛知県,名古屋市港区,須成町３丁目２９番地２,,23,111,4550072,,,,,,,2025-06-02,1,,,,,ゼンラク,0
1289,6200001043848,新規,0,2025-06-02,2025-06-02,株式会社ＵＳＯ　ＴＲＡＤＩＮＧ,,株式会社,岐阜県,安八郡安八町,西結字東甚内山２３６７番地,,21,383,5030111,,,,,,,2025-06-02,1,,,,,ユーエスオートレーディング,0
1303,6290001110169,新規,0,2025-06-02,2025-06-02,株式会社煌,,株式会社,福岡県,福岡市中央区,天神４丁目６番２８号いちご天神ノースビル７Ｆ,,40,133,8100001,,,,,,,2025-06-02,1,,,,,キラメキ,0
1304,6290001110227,新規,0,2025-06-02,2025-06-02,株式会社ＡＲＯＭＡＦＯＲＩＡ　ＪＡＰＡＮ,,株式会社,福岡県,福岡市中央区,大名１丁目４番３５号ＭＯＤＥＲＮＢＵＲＥＡＵ大名９０１,,40,133,8100041,,,,,,,2025-06-02,1,,,,,アロマフォリアジャパン,0
1307,6340001027358,新規,0,2025-06-02,2025-06-02,株式会社ＴＯＫＩコーポレーション,,株式会社,鹿児島県,鹿児島市,上之園町２５番４号,,46,201,8900052,,,,,,,2025-06-02,1,,,,,トキコーポレーション,0
1309,6350001019560,新規,0,2025-06-02,2025-06-02,株式会社ＪＩＮＭＵ,,株式会社,宮崎県,宮崎市,松山２丁目１番１号,,45,201,8800865,,,,,,,2025-06-02,1,,,,,ジンム,0
1310,6360001035292,新規,0,2025-06-02,2025-06-02,株式会社Ｏｄｙｓｓｅｙ　Ｎｅｖｅｒ　Ｅｎｄｉｎｇ,,株式会社,沖縄県,那覇市,牧志２丁目１６－１３－１,,47,201,9000013,,,,,,,2025-06-02,1,,,,,オデッセイネバーエンディング,0
1316,6370001052634,新規,0,2025-06-02,2025-06-02,株式会社アイビー,,株式会社,宮城県,仙台市青葉区,本町１丁目５番２８号カーニープレイス仙台駅前通６０３号室,,04,101,9800014,,,,,,,2025-06-02,1,,,,,アイビー,0
1317,6370005010968,新規,0,2025-06-02,2025-06-02,一般社団法人蒼会,,その他の設立登記法人,宮城県,仙台市青葉区,国分町１丁目８－１３,,04,101,9800803,,,,,,,2025-06-02,1,,,,,アオイカイ,0
1318,6380001035357,新規,0,2025-06-02,2025-06-02,株式会社Ｈ＆Ｍ．ｃｏｍｐａｎｙ,,株式会社,福島県,南相馬市,原町区旭町１丁目２０番地,,07,212,9750004,,,,,,,2025-06-02,1,,,,,エイチアンドエムカンパニー,0
1324,6430001094562,新規,0,2025-06-02,2025-06-02,ラクスリース株式会社,,株式会社,北海道,札幌市中央区,南二条西５丁目３１番１号ＲＭＢｌｄ．７０１,,01,101,0600062,,,,,,,2025-06-02,1,,,,,ラクスリース,0
1327,6440001009619,新規,0,2025-06-02,2025-06-02,株式会社岩越ホールディングス,,株式会社,北海道,二海郡八雲町,三杉町１３番地１０,,01,346,0493114,,,,,,,2025-06-02,1,,,,,イワコシホールディングス,0
1332,6480003002270,新規,0,2025-06-02,2025-06-02,エンジェルズダスト合同会社,,合同会社,徳島県,阿波市,阿波町王地２８５番地１,,36,206,7711701,,,,,,,2025-06-02,1,,,,,エンジェルズダスト,0
1335,6500001026319,新規,0,2025-06-02,2025-06-02,たいようエステイト株式会社,,株式会社,愛媛県,松山市,萱町１丁目３番地１２,,38,201,7900813,,,,,,,2025-06-02,1,,,,,タイヨウエステイト,0
1337,6700150130842,新規,0,2025-06-02,2025-06-02,ｇｕａｎｇｚｈｏｕｙｕｃａｉｋｅｊｉｙｏｕｘｉａｎｇｏｎｇｓｉ,,外国会社等,,,,,,,,Ｂ２０１，　Ｒｏｏｍ　６１４，　６ｔｈ　Ｆｌｏｏｒ，　Ｎｏ．４　Ｌｉｎｇｓｈａｎ　Ｅａｓｔ　Ｒｏａｄ　Ｔｉａｎｈｅ　ＧＵＡＮＧＺＨＯＵ　５１００００　ＣＮ,,,,,,2025-06-02,1,,,,,グゥアンゾウユウチャイカギヨウシエンゴンスー,0
1349,7010001255552,新規,0,2025-06-02,2025-06-02,株式会社茂林国際,,株式会社,東京都,千代田区,麹町４丁目５－２０ＫＳビル４１３号,,13,101,1020083,,,,,,,2025-06-02,1,,,,,モリンコクサイ,0
1354,7010003047469,新規,0,2025-06-02,2025-06-02,合同会社月霜,,合同会社,東京都,中央区,日本橋室町１丁目１１番１２号日本橋水野ビル７階,,13,102,1030022,,,,,,,2025-06-02,1,,,,,ツキシモ,0
1355,7010003047502,新規,0,2025-06-02,2025-06-02,ＬＶＣファンド３５号合同会社,,合同会社,東京都,千代田区,紀尾井町３－８第２紀尾井町ビル９０１アクシス綜合会計事務所内,,13,101,1020094,,,,,,,2025-06-02,1,,,,,エルブイシーファンドサンジュウゴゴウ,0
1356,7010003047510,新規,0,2025-06-02,2025-06-02,Ｇｅｎｉｍｏ合同会社,,合同会社,東京都,中央区,銀座１丁目１２番４号Ｎ＆ＥＢＬＤ．６Ｆ,,13,102,1040061,,,,,,,2025-06-02,1,,,,,ジェニモ,0
1357,7010003047519,新規,0,2025-06-02,2025-06-02,合同会社クロノス,,合同会社,東京都,千代田区,神田和泉町１番地６の１６ヤマトビル４０５,,13,101,1010024,,,,,,,2025-06-02,1,,,,,クロノス,0
1364,7010401190671,新規,0,2025-06-02,2025-06-02,株式会社ＪＯＩＮＴ,,株式会社,東京都,港区,南麻布１丁目１５番１２号東都ビル４０５,,13,103,1060047,,,,,,,2025-06-02,1,,,,,ジョイント,0
1367,7010405024421,新規,0,2025-06-02,2025-06-02,一般社団法人ＡＩＣＡ,,その他の設立登記法人,東京都,港区,麻布十番２丁目２０番７号,,13,103,1060045,,,,,,,2025-06-02,1,,,,,エーアイシーエー,0
1380,7010901057420,新規,0,2025-06-02,2025-06-02,株式会社ＮｅｖａＣｏｒｅ,,株式会社,東京都,世田谷区,尾山台３丁目８番８号ジェイパーク尾山台１０２,,13,112,1580086,,,,,,,2025-06-02,1,,,,,ネーヴァコア,0
1385,7011001169734,新規,0,2025-06-02,2025-06-02,株式会社Ｎｅｘｔａｇｅ,,株式会社,東京都,渋谷区,渋谷１丁目１番３号,,13,113,1500002,,,,,,,2025-06-02,1,,,,,ネクステージ,0
1387,7011003021612,新規,0,2025-06-02,2025-06-02,合同会社Ｐｕｆｆｉｎ　Ｔｅｃｈ,,合同会社,東京都,渋谷区,道玄坂１丁目１０番８号渋谷道玄坂東急ビル２Ｆ－Ｃ,,13,113,1500043,,,,,,,2025-06-02,1,,,,,パフィンテック,0
1388,7011003021645,新規,0,2025-06-02,2025-06-02,合同会社ＤＲＡＰＥ,,合同会社,東京都,渋谷区,渋谷３丁目６番４－２０３号プライア渋谷,,13,113,1500002,,,,,,,2025-06-02,1,,,,,ドレープ,0
1389,7011003021653,新規,0,2025-06-02,2025-06-02,合同会社ＰＮＩＧＨＴ,,合同会社,東京都,渋谷区,円山町５番４号フィールＡ渋谷４１８,,13,113,1500044,,,,,,,2025-06-02,1,,,,,ピーナイト,0
1391,7011101111901,新規,0,2025-06-02,2025-06-02,株式会社光導舎,,株式会社,東京都,新宿区,西新宿３丁目３番１３号西新宿水間ビル６階,,13,104,1600023,,,,,,,2025-06-02,1,,,,,コウドウシャ,0
1393,7011201026388,新規,0,2025-06-02,2025-06-02,株式会社ｅｍｐｒｅｓｓ,,株式会社,東京都,中野区,本町３丁目１９－２４－２０４,,13,114,1640012,,,,,,,2025-06-02,1,,,,,エンプレス,0
1397,7011301030604,新規,0,2025-06-02,2025-06-02,株式会社Ｓｏｐｉｏ　Ｈｏｌｄｉｎｇｓ,,株式会社,東京都,杉並区,下井草５丁目２２番１７－１０２号,,13,115,1670022,,,,,,,2025-06-02,1,,,,,ソピオホールディングス,0
1398,7011301030620,新規,0,2025-06-02,2025-06-02,株式会社すず,,株式会社,東京都,杉並区,和泉１丁目２８番１４号,,13,115,1680063,,,,,,,2025-06-02,1,,,,,スズ,0
1400,7011501032152,新規,0,2025-06-02,2025-06-02,Ｄ株式会社,,株式会社,東京都,荒川区,町屋３丁目２４番２号面川ビル２１０号室,,13,118,1160001,,,,,,,2025-06-02,1,,,,,ディー,0
1403,7013103001452,新規,0,2025-06-02,2025-06-02,合同会社ＳＡＢＯ,,合同会社,東京都,西多摩郡瑞穂町,大字二本木４６７番地３,,13,303,1901201,,,,,,,2025-06-02,1,,,,,サボ,0
1412,7020003028609,新規,0,2025-06-02,2025-06-02,合同会社さぎぬま経営研究所,,合同会社,神奈川県,川崎市宮前区,鷺沼４丁目１４番地２号Ｄ４１４,,14,136,2160004,,,,,,,2025-06-02,1,,,,,サギヌマケイエイケンキュウショ,0
1413,7020005016883,新規,0,2025-06-02,2025-06-02,一般社団法人ＳＳＷ情報研修センター,,その他の設立登記法人,神奈川県,川崎市川崎区,田島町１７番１０号,,14,131,2100853,,,,,,,2025-06-02,1,,,,,エスエスダブリュジョウホウケンシュウセンター,0
1430,7040001139018,新規,0,2025-06-02,2025-06-02,株式会社デメテル,,株式会社,千葉県,柏市,高田１０７５番地１７コスモ柏サニーフィールズ５０３号,,12,217,2770861,,,,,,,2025-06-02,1,,,,,デメテル,0
1432,7040003027724,新規,0,2025-06-02,2025-06-02,合同会社ＲＯＵＴＥ＆ＤＡＰ,,合同会社,千葉県,成田市,花崎町５２３,,12,211,2860033,,,,,,,2025-06-02,1,,,,,ルートアンドダップ,0
1435,7050001056732,新規,0,2025-06-02,2025-06-02,株式会社スズケン,,株式会社,茨城県,桜川市,真壁町椎尾７２９番地,,08,231,3004414,,,,,,,2025-06-02,1,,,,,スズケン,0
1437,7050003009317,新規,0,2025-06-02,2025-06-02,ＬｚｅＡ合同会社,,合同会社,茨城県,つくば市,東光台２丁目２０－１０,,08,220,3002635,,,,,,,2025-06-02,1,,,,,エルゼア,0
1439,7050005013639,新規,0,2025-06-02,2025-06-02,八溝鋸目立協同組合,,その他の設立登記法人,茨城県,常陸太田市,高柿町６５番地,,08,212,3130113,,,,,,,2025-06-02,1,,,,,,0
1454,7110001039301,新規,0,2025-06-02,2025-06-02,株式会社Ｇ．Ｍ,,株式会社,新潟県,上越市,板倉区稲増３３２番地１,,15,222,9440101,,,,,,,2025-06-02,1,,,,,ジーエム,0
1456,7110005017237,新規,0,2025-06-02,2025-06-02,一般社団法人ＩＳＥ持株会,,その他の設立登記法人,新潟県,南魚沼市,上原４００番地３,,15,226,9497137,,,,,,,2025-06-02,1,,,,,アイエスイーモチカブカイ,0
1457,7120001106975,新規,0,2025-06-02,2025-06-02,千住建設株式会社,,株式会社,大阪府,大阪市天王寺区,逢阪１丁目３番３号,00139330,27,109,5430062,,,,,,,2025-06-02,1,,,,,,0
1468,7120001276323,新規,0,2025-06-02,2025-06-02,株式会社らいふステップ,,株式会社,大阪府,大阪市西区,本田１丁目６番２２－６１０号,,27,106,5500022,,,,,,,2025-06-02,1,,,,,ライフステップ,0
1471,7120003029638,新規,0,2025-06-02,2025-06-02,ＡＮＬＡＩＲ合同会社,,合同会社,大阪府,大阪市阿倍野区,天王寺町北２丁目６番３号ＧＳ阿倍野４０２号,,27,119,5450001,,,,,,,2025-06-02,1,,,,,アンライアー,0
1476,7120101071764,新規,0,2025-06-02,2025-06-02,鹿栖株式会社,,株式会社,大阪府,堺市堺区,住吉橋町１丁７－１３－６０１２,,27,141,5900973,,,,,,,2025-06-02,1,,,,,カセイ,0
1477,7120101071780,新規,0,2025-06-02,2025-06-02,立彬インフォメーション株式会社,,株式会社,大阪府,泉佐野市,中庄２４番地の４３,,27,213,5980002,,,,,,,2025-06-02,1,,,,,リッヒンインフォメーション,0
1481,7120901050950,新規,0,2025-06-02,2025-06-02,株式会社西村工業,,株式会社,大阪府,高槻市,氷室町２丁目４５番１号リバリティヒムロ２号館１０３号,,27,207,5691141,,,,,,,2025-06-02,1,,,,,ニシムラコウギョウ,0
1482,7120901050959,新規,0,2025-06-02,2025-06-02,株式会社Ｔｅｃｈ　Ｐｈｏｅｎｉｘ　Ｇｒｏｕｐ,,株式会社,大阪府,豊中市,蛍池東町四丁目４番２３号,,27,203,5600000,,,,,,,2025-06-02,1,,,,,テックフェニックスグループ,0
1485,7122001039296,新規,0,2025-06-02,2025-06-02,株式会社Ｂｈａｒａｔ　Ｉｎｔｅｒｎａｔｉｏｎａｌ,,株式会社,大阪府,柏原市,平野２丁目１８番２５号,,27,221,5820019,,,,,,,2025-06-02,1,,,,,バーラトインターナショナル,0
1487,7130001079758,新規,0,2025-06-02,2025-06-02,株式会社ｉｂ．,,株式会社,京都府,京都市上京区,下立売通千本東入下る中務町４９０番地１１８,,26,102,6028158,,,,,,,2025-06-02,1,,,,,アイビー,0
1488,7130001079790,新規,0,2025-06-02,2025-06-02,ＹＵＥ　ｊｏｙ＆ｊｅｗｅｌｒｙ株式会社,,株式会社,京都府,京都市右京区,嵯峨観空寺久保殿町１番地１,,26,108,6168444,,,,,,,2025-06-02,1,,,,,ユエジョイアンドジュエリー,0
1489,7130003010506,新規,0,2025-06-02,2025-06-02,合同会社まるう製作所,,合同会社,京都府,京都市南区,吉祥院嶋高町１６番地,,26,107,6018372,,,,,,,2025-06-02,1,,,,,マルウセイサクショ,0
1493,7140001138744,新規,0,2025-06-02,2025-06-02,ＭＩＣＩＥＬ　Ｃｏｍｐｏｓｅｒ株式会社,,株式会社,兵庫県,神戸市中央区,御幸通８丁目１－６神戸国際会館２２階,,28,110,6510087,,,,,,,2025-06-02,1,,,,,ミシエルコンポーザー,0
1498,7140003022129,新規,0,2025-06-02,2025-06-02,六甲園芸合同会社,,合同会社,兵庫県,神戸市中央区,北長狭通２丁目３－７,,28,110,6500012,,,,,,,2025-06-02,1,,,,,ロッコウエンゲイ,0
1503,7170001018646,新規,0,2025-06-02,2025-06-02,株式会社ＣＡＢＡＮＯＮ,,株式会社,和歌山県,和歌山市,匠町４８番地,,30,201,6408028,,,,,,,2025-06-02,1,,,,,キャバノン,0
1508,7180001166989,新規,0,2025-06-02,2025-06-02,株式会社ＹＧＤＲ,,株式会社,愛知県,名古屋市熱田区,金山町１丁目１３番８号ほたるビル５階,,23,109,4560002,,,,,,,2025-06-02,1,,,,,ワイジーディーアール,0
1522,7240003007235,新規,0,2025-06-02,2025-06-02,一星ヒロミｈａｐｐｙ　ｓｈｉｎｅ合同会社,,合同会社,広島県,広島市東区,山根町６番１号,,34,102,7320048,,,,,,,2025-06-02,1,,,,,イチジョウヒロミハッピーシャイン,0
1524,7250003003737,新規,0,2025-06-02,2025-06-02,山口労働衛生合同会社,,合同会社,山口県,宇部市,大字東須恵１１８７番地１２,,35,202,7590206,,,,,,,2025-06-02,1,,,,,ヤマグチロウドウエイセイ,0
1539,7290001110127,新規,0,2025-06-02,2025-06-02,福岡高所技建株式会社,,株式会社,福岡県,福岡市南区,西長住１丁目１１番８号,,40,134,8111361,,,,,,,2025-06-02,1,,,,,フクオカコウショギケン,0
1541,7290003016925,新規,0,2025-06-02,2025-06-02,合同会社京町プロパティーズ,,合同会社,福岡県,福岡市博多区,古門戸町１番１号日刊工業新聞社ビル８階,,40,132,8120029,,,,,,,2025-06-02,1,,,,,キョウマチプロパティーズ,0
1543,7320001021130,新規,0,2025-06-02,2025-06-02,七光興産株式会社,,株式会社,大分県,大分市,都町１丁目３番１５号藤コーポＮｏ．３－２１０,,44,201,8700034,,,,,,,2025-06-02,1,,,,,ナナヒカリコウサン,0
1545,7330001033240,新規,0,2025-06-02,2025-06-02,株式会社スギノ塗装,,株式会社,熊本県,八代市,本町４丁目８番３号,,43,202,8660861,,,,,,,2025-06-02,1,,,,,スギノトソウ,0
1549,7360001035291,新規,0,2025-06-02,2025-06-02,株式会社ビサナ,,株式会社,沖縄県,名護市,宮里７丁目１－９・２階,,47,209,9050011,,,,,,,2025-06-02,1,,,,,ビサナ,0
1556,7370001052641,新規,0,2025-06-02,2025-06-02,株式会社いずみ企画,,株式会社,宮城県,気仙沼市,長磯下原６５番地３,,04,205,9880232,,,,,,,2025-06-02,1,,,,,イズミキカク,0
1568,7430003017719,新規,0,2025-06-02,2025-06-02,Ｇａｔｅｓ合同会社,,合同会社,北海道,札幌市中央区,円山西町９丁目５番８号,,01,101,0640944,,,,,,,2025-06-02,1,,,,,ゲイツ,0
1572,7500001026318,新規,0,2025-06-02,2025-06-02,株式会社ＳＨＩＮＰＵ,,株式会社,愛媛県,新居浜市,坂井町２丁目３番１７号,,38,205,7920812,,,,,,,2025-06-02,1,,,,,シンプウ,0
1576,7700150130841,新規,0,2025-06-02,2025-06-02,ｇｕａｎｇｚｈｏｕｓａｉａｎｇｋｅｊｉｚｉｘｕｎｙｏｕｘｉａｎｇｏｎｇｓｉ,,外国会社等,,,,,,,,ｔｉａｎｈｅｑｕ　ｋｅ　ｍｕ　ｌａｎｇ　ｎａｎ　ｌｕ　９　ｈａｏ　３　ｃｅｎｇ　３１４　ｆａｎｇ　Ｂ１２５　ｇｕａｎｇｚｈｏｕｓｈｉ　５１００００　ＣＮ,,,,,,2025-06-02,1,,,,,グゥアンゾウサイアンカギジシュンヨウシエンゴンスー,0
1585,8010001255428,新規,0,2025-06-02,2025-06-02,株式会社プレゼンス,,株式会社,東京都,中央区,銀座１丁目９－８,,13,102,1040061,,,,,,,2025-06-02,1,,,,,,0
1588,8010003047468,新規,0,2025-06-02,2025-06-02,合同会社ｃｈｕａｍ,,合同会社,東京都,中央区,日本橋室町１丁目１１番１２号日本橋水野ビル７階,,13,102,1030022,,,,,,,2025-06-02,1,,,,,チュアム,0
1589,8010003047501,新規,0,2025-06-02,2025-06-02,ＬＶＣファンド３４号合同会社,,合同会社,東京都,千代田区,紀尾井町３－８第２紀尾井町ビル９０１アクシス綜合会計事務所内,,13,101,1020094,,,,,,,2025-06-02,1,,,,,エルブイシーファンドサンジュウヨンゴウ,0
1591,8010101016705,新規,0,2025-06-02,2025-06-02,株式会社ドットケイ,,株式会社,東京都,八王子市,元本郷町２丁目９番２２号,,13,201,1920051,,,,,,,2025-06-02,1,,,,,ドットケイ,0
1594,8010103002587,新規,0,2025-06-02,2025-06-02,ＯＡＳＣＯ　ＨＯＬＤＩＮＧＳ　ＪＰ合同会社,,合同会社,東京都,八王子市,明神町２丁目２５番３号ＳＩＣビル２０５号,,13,201,1920046,,,,,,,2025-06-02,1,,,,,オアスコホールディングス,0
1603,8010401190662,新規,0,2025-06-02,2025-06-02,株式会社若井商事,,株式会社,東京都,港区,赤坂４丁目５番２１号バルミー赤坂３１７号室,,13,103,1070052,,,,,,,2025-06-02,1,,,,,ワカイショウジ,0
1606,8010501054131,新規,0,2025-06-02,2025-06-02,株式会社高島事務所,00139400,株式会社,東京都,台東区,浅草２丁目４番３号,,13,106,1110032,,,,,,,2025-06-02,1,,,,,タカシマジムショ,0
1607,8010501054148,新規,0,2025-06-02,2025-06-02,株式会社三和,,株式会社,東京都,台東区,鳥越２丁目１１番９号,,13,106,1110054,,,,,,,2025-06-02,1,,,,,サンワ,0
1614,8010901057460,新規,0,2025-06-02,2025-06-02,株式会社カントール,,株式会社,東京都,世田谷区,奥沢１丁目４４番７－２０２号,,13,112,1580083,,,,,,,2025-06-02,1,,,,,カントール,0
1620,8011003021652,新規,0,2025-06-02,2025-06-02,合同会社ＰＮＵＴＳ,,合同会社,東京都,渋谷区,道玄坂１丁目１０番８号渋谷道玄坂東急ビル２Ｆ－Ｃ,,13,113,1500043,,,,,,,2025-06-02,1,,,,,ピーナッツ,0
1631,8011103015967,新規,0,2025-06-02,2025-06-02,合同会社ブラネス,,合同会社,東京都,新宿区,新宿２丁目１２番１３号,,13,104,1600022,,,,,,,2025-06-02,1,,,,,ブラネス,0
1637,8011501032151,新規,0,2025-06-02,2025-06-02,匯達株式会社,,株式会社,東京都,荒川区,町屋３丁目２４番２号面川ビル３０２号室,,13,118,1160001,,,,,,,2025-06-02,1,,,,,カイタツ,0
1645,8012801023996,新規,0,2025-06-02,2025-06-02,株式会社Ｈａｔｓｕｎｅ．Ｋｅｎｃｈｉｋｕ,,株式会社,東京都,立川市,砂川町６丁目４７番地の２４,,13,202,1900031,,,,,,,2025-06-02,1,,,,,ハツネドットケンチク,0
1678,8030001166821,新規,0,2025-06-02,2025-06-02,株式会社ミィトマン,,株式会社,埼玉県,入間市,東町１丁目６番５号ジョンソンタウン内,,11,225,3580002,,,,,,,2025-06-02,1,,,,,ミィトマン,0
1679,8030001166838,新規,0,2025-06-02,2025-06-02,株式会社ＲＳ,,株式会社,埼玉県,草加市,新栄１丁目１２番地１０ボヌールＩＩ－２０１号,00139388,11,221,3400056,,,,,,,2025-06-02,1,,,,,アールエス,0
1683,8030003026874,新規,0,2025-06-02,2025-06-02,ＡｃｅＰａｔｈ合同会社,,合同会社,埼玉県,草加市,中根３丁目３１番２２号１０２,,11,221,3400005,,,,,,,2025-06-02,1,,,,,エースパス,0
1686,8040001139017,新規,0,2025-06-02,2025-06-02,ＪＵＮＪＥＴ株式会社,,株式会社,千葉県,船橋市,湊町３丁目２４番５－２号,,12,204,2730011,,,,,,,2025-06-02,1,,,,,ジュンジェット,0
1701,8050003009308,新規,0,2025-06-02,2025-06-02,合同会社ファーストワン,,合同会社,茨城県,土浦市,田中町１９６１番地クラールＩＶ１０４,00139397,08,203,3000049,,,,,,,2025-06-02,1,,,,,ファーストワン,0
1702,8050003009316,新規,0,2025-06-02,2025-06-02,しょうじ合同会社,,合同会社,茨城県,北相馬郡利根町,大字立崎３７１,,08,564,3001614,,,,,,,2025-06-02,1,,,,,ショウジ,0
1707,8060003005578,新規,0,2025-06-02,2025-06-02,合同会社ＣＬＡＲＡ,,合同会社,栃木県,宇都宮市,清原台５丁目６－１９,,09,201,3213223,,,,,,,2025-06-02,1,,,,,クララ,0
1721,8120001276157,新規,0,2025-06-02,2025-06-02,ＫＯＭＯ株式会社,,株式会社,大阪府,大阪市住之江区,南加賀屋３丁目８番２６号Ｙ．Ｓ．ビル６階,,27,125,5590015,,,,,,,2025-06-02,1,,,,,コモ,0
1722,8120001276215,新規,0,2025-06-02,2025-06-02,株式会社リクリエイト,,株式会社,大阪府,大阪市東成区,深江南３丁目６番７号,,27,115,5370002,,,,,,,2025-06-02,1,,,,,リクリエイト,0
1723,8120001276256,新規,0,2025-06-02,2025-06-02,ＯＣＭ　ＪＡＰＡＮ株式会社,,株式会社,大阪府,大阪市東住吉区,駒川４丁目１８－２１－４Ｂ,,27,121,5460043,,,,,,,2025-06-02,1,,,,,オーシーエムジャパン,0
1724,8120003029629,新規,0,2025-06-02,2025-06-02,合同会社スター,,合同会社,大阪府,大阪市鶴見区,浜３丁目１２－２,,27,124,5380035,,,,,,,2025-06-02,1,,,,,スター,0
1726,8120005024966,新規,0,2025-06-02,2025-06-02,一般社団法人日本山西商会,,その他の設立登記法人,大阪府,大阪市城東区,関目４丁目１０番１３号１階,,27,118,5360008,,,,,,,2025-06-02,1,,,,,ニホンサンセイショウカイ,0
1736,8120901050974,新規,0,2025-06-02,2025-06-02,株式会社ｇｒａｎｄ,,株式会社,大阪府,吹田市,桃山台２丁目３番８‐２０８号,,27,205,5650854,,,,,,,2025-06-02,1,,,,,グラン,0
1741,8130001079798,新規,0,2025-06-02,2025-06-02,幸孝株式会社,,株式会社,京都府,京都市右京区,嵯峨野宮ノ元町５番地１,,26,108,6168315,,,,,,,2025-06-02,1,,,,,ユキタカ,0
1747,8140001138768,新規,0,2025-06-02,2025-06-02,株式会社ＡＺ,,株式会社,兵庫県,明石市,硯町１丁目４番２７号,,28,203,6730028,,,,,,,2025-06-02,1,,,,,エーゼット,0
1748,8140001138776,新規,0,2025-06-02,2025-06-02,株式会社ＷＥＬＬＴＵＲＥ,,株式会社,兵庫県,神戸市垂水区,五色山３丁目１番３５－２１８号,,28,108,6550035,,,,,,,2025-06-02,1,,,,,ウェルチャー,0
1751,8150003003622,新規,0,2025-06-02,2025-06-02,ＬＥＶＡＬＩＡ合同会社,,合同会社,奈良県,磯城郡三宅町,大字伴堂１０７３－１,,29,362,6360213,,,,,,,2025-06-02,1,,,,,レヴァリア,0
1752,8170001018645,新規,0,2025-06-02,2025-06-02,株式会社ＭＡＴＯ,,株式会社,和歌山県,田辺市,湊６番８号,,30,206,6460031,,,,,,,2025-06-02,1,,,,,マト,0
1762,8180001167061,新規,0,2025-06-02,2025-06-02,ＵＮＩＶＥＲＳ株式会社,,株式会社,愛知県,名古屋市中村区,名駅３丁目４番１０号アルティメイト名駅１ｓｔ２階,,23,105,4500002,,,,,,,2025-06-02,1,,,,,ユニヴェール,0
1763,8180001167078,新規,0,2025-06-02,2025-06-02,ＫＭ２株式会社,,株式会社,愛知県,名古屋市瑞穂区,駒場町４丁目１２番地の２パールナッツ７Ａ号,,23,108,4670807,,,,,,,2025-06-02,1,,,,,ケーエムツー,0
1768,8200001043838,新規,0,2025-06-02,2025-06-02,マウントテック株式会社,,株式会社,岐阜県,高山市,朝日町甲５６１番地１,,21,203,5093326,,,,,,,2025-06-02,1,,,,,マウントテック,0
1774,8220003004043,新規,0,2025-06-02,2025-06-02,アヴァンド合同会社,,合同会社,石川県,金沢市,矢木２丁目３１０‐１,,17,201,9218066,,,,,,,2025-06-02,1,,,,,アヴァンド,0
1792,8290001110233,新規,0,2025-06-02,2025-06-02,株式会社ｍｕｎｅｏ　ｗａｔａｎａｂｅ,,株式会社,福岡県,福岡市中央区,荒戸２丁目２番２５－７０２号アンピール大濠公園,,40,133,8100062,,,,,,,2025-06-02,1,,,,,ムネオワタナベ,0
1798,8330005010920,新規,0,2025-06-02,2025-06-02,一般社団法人生殖制御医学研究所,,その他の設立登記法人,熊本県,熊本市東区,沼山津３丁目８番５５号,,43,102,8612102,,,,,,,2025-06-02,1,,,,,セイショクセイギョイガクケンキュウジョ,0
1800,8340001027372,新規,0,2025-06-02,2025-06-02,株式会社永田消防設備,,株式会社,鹿児島県,鹿児島市,喜入瀬々串町３３８番地２,,46,201,8910201,,,,,,,2025-06-02,1,,,,,ナガタショウボウセツビ,0
1807,8370001052632,新規,0,2025-06-02,2025-06-02,株式会社ヒノマル舎,,株式会社,宮城県,仙台市青葉区,国分町３丁目２番１０号麻井１０７,,04,101,9800803,,,,,,,2025-06-02,1,,,,,ヒノマルヤ,0
1818,8430001094420,新規,0,2025-06-02,2025-06-02,株式会社Ｌａ　ｐｌｕｓ,,株式会社,北海道,札幌市中央区,南二条西５丁目３１‐１ＲＭＢｌｄ．７０１,,01,101,0600062,,,,,,,2025-06-02,1,,,,,ラプラス,0
1820,8430003017726,新規,0,2025-06-02,2025-06-02,合同会社フリージア,,合同会社,北海道,夕張郡長沼町,旭町北１丁目７番４４号,,01,428,0691343,,,,,,,2025-06-02,1,,,,,フリージア,0
1822,8500001026317,新規,0,2025-06-02,2025-06-02,株式会社ＢＢｉＢ,,株式会社,愛媛県,松山市,松末２丁目３番３１号,,38,201,7900915,,,,,,,2025-06-02,1,,,,,ビブ,0
1829,9010001255567,新規,0,2025-06-02,2025-06-02,合晶科技日本株式会社,,株式会社,東京都,中央区,築地４丁目２番７－６０１号,,13,102,1040045,,,,,,,2025-06-02,1,,,,,ウェーハワークスジャパン,0
1835,9010003047434,新規,0,2025-06-02,2025-06-02,合同会社ｓｉｓｉｚａ,,合同会社,東京都,中央区,銀座１丁目１２番４号Ｎ＆ＥＢＬＤ．６Ｆ,,13,102,1040061,,,,,,,2025-06-02,1,,,,,シシザ,0
1836,9010003047500,新規,0,2025-06-02,2025-06-02,ＬＶＣファンド３３号合同会社,,合同会社,東京都,千代田区,紀尾井町３－８第２紀尾井町ビル９０１アクシス綜合会計事務所内,,13,101,1020094,,,,,,,2025-06-02,1,,,,,エルブイシーファンドサンジュウサンゴウ,0
1841,9010401190240,新規,0,2025-06-02,2025-06-02,未来コンサルティング株式会社,,株式会社,東京都,港区,北青山１丁目３番１号アールキューブ青山３階,,13,103,1070061,,,,,,,2025-06-02,1,,,,,ミライコンサルティング,0
1844,9010501054139,新規,0,2025-06-02,2025-06-02,日翔株式会社,,株式会社,東京都,台東区,根岸５丁目８－４,,13,106,1100003,,,,,,,2025-06-02,1,,,,,ニッショウ,0
1845,9010501054163,新規,0,2025-06-02,2025-06-02,株式会社ビトネス,,株式会社,東京都,台東区,下谷１丁目１１番１５号,,13,106,1100004,,,,,,,2025-06-02,1,,,,,ビトネス,0
1847,9010601067387,新規,0,2025-06-02,2025-06-02,株式会社ハルタク,,株式会社,東京都,墨田区,錦糸４丁目１２番６号,,13,107,1300013,,,,,,,2025-06-02,1,,,,,ハルタク,0
1849,9010603011590,新規,0,2025-06-02,2025-06-02,豊川合同会社,,合同会社,東京都,江東区,豊洲３丁目６－８シティタフーズ豊洲ザ・シンボル２００２号室,,13,108,1350061,,,,,,,2025-06-02,1,,,,,トヨカワ,0
1850,9010801008348,新規,0,2025-06-02,2025-06-02,株式会社トーハル,,株式会社,東京都,大田区,北馬込２丁目３３番１号,,13,111,1430021,,,,,,,2025-06-02,1,,,,,トーハル,0
1854,9010903009954,新規,0,2025-06-02,2025-06-02,合同会社維誠,,合同会社,東京都,世田谷区,玉川台２丁目３９－１０－１０１,,13,112,1580096,,,,,,,2025-06-02,1,,,,,イセイ,0
1859,9011001169749,新規,0,2025-06-02,2025-06-02,株式会社パパリース,,株式会社,東京都,渋谷区,笹塚３丁目２番３号,,13,113,1510073,,,,,,,2025-06-02,1,,,,,パパリース,0
1862,9011003021651,新規,0,2025-06-02,2025-06-02,合同会社ＵｎＬｅａｓｈ,,合同会社,東京都,渋谷区,円山町５番３号ＭＩＥＵＸ渋谷ビル８階,,13,113,1500044,,,,,,,2025-06-02,1,,,,,アンリーシュ,0
1866,9011101111916,新規,0,2025-06-02,2025-06-02,株式会社ＧＩＶＥＲ,,株式会社,東京都,新宿区,神楽坂３丁目６－８４,,13,104,1620825,,,,,,,2025-06-02,1,,,,,ギバー,0
1869,9011201026394,新規,0,2025-06-02,2025-06-02,株式会社ワールドコレクト,,株式会社,東京都,中野区,中央４丁目４１番１６号ダイナシティ中野中央１３Ｆ,,13,114,1640011,,,,,,,2025-06-02,1,,,,,ワールドコレクト,0
1870,9011301030619,新規,0,2025-06-02,2025-06-02,株式会社ＭＳコンサルタント,,株式会社,東京都,杉並区,阿佐谷北２丁目３０番１１号,,13,115,1660001,,,,,,,2025-06-02,1,,,,,エムエスコンサルタント,0
1881,9011701028378,新規,0,2025-06-02,2025-06-02,株式会社五十嵐,,株式会社,東京都,江戸川区,東葛西６丁目４４番１０－５０３号,,13,123,1340084,,,,,,,2025-06-02,1,,,,,イガラシ,0
1886,9012405005119,新規,0,2025-06-02,2025-06-02,一般社団法人Ｒｉｎｏ,,その他の設立登記法人,東京都,府中市,清水が丘３丁目４番地の１１,,13,206,1830015,,,,,,,2025-06-02,1,,,,,リーノ,0
1898,9021003016072,新規,0,2025-06-02,2025-06-02,ＴＩＮＡＤＯ合同会社,,合同会社,神奈川県,相模原市中央区,上矢部２丁目１番７－３号,,14,152,2520201,,,,,,,2025-06-02,1,,,,,ティナド,0
1902,9030001166804,新規,0,2025-06-02,2025-06-02,ビズクリエイト株式会社,,株式会社,埼玉県,新座市,新座２丁目７番１号,,11,230,3520006,,,,,,,2025-06-02,1,,,,,ビズクリエイト,0
1903,9030001166812,新規,0,2025-06-02,2025-06-02,光翔株式会社,,株式会社,埼玉県,川越市,砂新田５丁目２３番地４４,,11,201,3501137,,,,,,,2025-06-02,1,,,,,コウショウ,0
1910,9040001139040,新規,0,2025-06-02,2025-06-02,ＨｉｕｍａＬｏｕｎｄ株式会社,,株式会社,千葉県,千葉市中央区,中央２丁目５番１号,,12,101,2600013,,,,,,,2025-06-02,1,,,,,ヒウマラウンド,0
1911,9040003027722,新規,0,2025-06-02,2025-06-02,合同会社ＧＤＣ,,合同会社,千葉県,千葉市緑区,誉田町２丁目２０番地５０９ピオニエール２０４号,,12,105,2660005,,,,,,,2025-06-02,1,,,,,ジーディーシー,0
1915,9040005022787,新規,0,2025-06-02,2025-06-02,特定非営利活動法人関東日中友好交流促進会,,その他の設立登記法人,千葉県,千葉市中央区,南町２丁目９番１０号,,12,101,2600842,,,,,,,2025-06-02,1,,,,,カントウニッチュウユウコウコウリュウソクシンカイ,0
1919,9050001056739,新規,0,2025-06-02,2025-06-02,株式会社ボディオートＭ．Ａ．Ｒ,,株式会社,茨城県,土浦市,中村南２丁目８番１３号,,08,203,3000843,,,,,,,2025-06-02,1,,,,,ボディオートエムエーアール,0
1920,9050003009315,新規,0,2025-06-02,2025-06-02,オープン貿易合同会社,,合同会社,茨城県,北相馬郡利根町,大字立崎３７１,,08,564,3001614,,,,,,,2025-06-02,1,,,,,オープンボウエキ,0
1929,9100001038657,新規,0,2025-06-02,2025-06-02,株式会社ボヌソワ,,株式会社,長野県,長野市,大字鶴賀七瀬４１６－１,,20,201,3800906,,,,,,,2025-06-02,1,,,,,ボヌソワ,0
1931,9100003008195,新規,0,2025-06-02,2025-06-02,合同会社ｓｍｉｌｅ　ｄｒｅａｍ,,合同会社,長野県,諏訪市,大字四賀７７５１番地グランドール四賀１０５,,20,206,3920012,,,,,,,2025-06-02,1,,,,,スマイルドリーム,0
1935,9120001276354,新規,0,2025-06-02,2025-06-02,株式会社傾奇者ホールディングス,,株式会社,大阪府,大阪市天王寺区,上汐４丁目５番８号ＬａＣＡＳＡ上汐１００２号,,27,109,5430002,,,,,,,2025-06-02,1,,,,,カブキモノホールディングス,0
1936,9120001276362,新規,0,2025-06-02,2025-06-02,羽月閣株式会社,,株式会社,大阪府,大阪市東成区,大今里南６丁目２番１７－３０２号,,27,115,5370013,,,,,,,2025-06-02,1,,,,,ウゲツカク,0
1937,9120001276420,新規,0,2025-06-02,2025-06-02,株式会社Ｋプロパティ,,株式会社,大阪府,大阪市西淀川区,柏里２丁目７－２６柏里ハイツ１Ｅ,,27,113,5550022,,,,,,,2025-06-02,1,,,,,ケープロパティ,0
1938,9120003029652,新規,0,2025-06-02,2025-06-02,Ｎｅｘｖｉａ　Ａｄｖｉｓｏｒｙ合同会社,,合同会社,大阪府,大阪市北区,梅田１丁目２番２号大阪駅前第２ビル１２－１２,,27,127,5300001,,,,,,,2025-06-02,1,,,,,ネクスヴィアアドバイザリー,0
1939,9120005024949,新規,0,2025-06-02,2025-06-02,一般社団法人ＰＡＸ　ＳＴＯＮＥ,,その他の設立登記法人,大阪府,大阪市中央区,平野町２丁目２番１３号,,27,128,5410046,,,,,,,2025-06-02,1,,,,,パックスストーン,0
1947,9130001079797,新規,0,2025-06-02,2025-06-02,株式会社プラステック,,株式会社,京都府,京都市伏見区,石田森東町６番地パデシオン石田駅前２０８号,,26,109,6011439,,,,,,,2025-06-02,1,,,,,プラステック,0
1949,9130003010495,新規,0,2025-06-02,2025-06-02,Ｍａｒｒｏｎ　Ｐａｒｔｎｅｒｓ合同会社,,合同会社,京都府,木津川市,加茂町里口薬井１０番地,,26,214,6191152,,,,,,,2025-06-02,1,,,,,マロンパートナーズ,0
1950,9140001138759,新規,0,2025-06-02,2025-06-02,株式会社楠の木,,株式会社,兵庫県,養父市,養父市場３２８番地３,,28,222,6670112,,,,,,,2025-06-02,1,,,,,クスノキ,0
1954,9180001167052,新規,0,2025-06-02,2025-06-02,株式会社ＥＡＳＴ　ＢＡＳＥ,,株式会社,愛知県,名古屋市東区,白壁１丁目２１番地名東ビル２Ｂ,,23,102,4610011,,,,,,,2025-06-02,1,,,,,イーストベイス,0
1964,9200001043845,新規,0,2025-06-02,2025-06-02,株式会社日本楽園,,株式会社,岐阜県,海津市,海津町秋江字江西２３９０番,,21,221,5030611,,,,,,,2025-06-02,1,,,,,ニホンラクエン,0
1988,9290001109695,新規,0,2025-06-02,2025-06-02,株式会社Ａ‐ｒｏｏｍ,,株式会社,福岡県,福岡市中央区,天神２丁目２－１２Ｔ＆Ｊビルディング７Ｆ,,40,133,8100001,,,,,,,2025-06-02,1,,,,,エールーム,0
1989,9290001110232,新規,0,2025-06-02,2025-06-02,株式会社北里建装,,株式会社,福岡県,福岡市早良区,田隈１丁目３５番８号,,40,137,8140174,,,,,,,2025-06-02,1,,,,,キタザトケンソウ,0
1995,9290003016923,新規,0,2025-06-02,2025-06-02,フラットアウト合同会社,,合同会社,福岡県,福岡市博多区,博多駅前１丁目２３番２号ＰａｒｋＦｒｏｎｔ博多駅前一丁目５Ｆ－Ｂ,,40,132,8120011,,,,,,,2025-06-02,1,,,,,,0
2000,9290801031578,新規,0,2025-06-02,2025-06-02,株式会社ＡＴＴＩＣ,,株式会社,福岡県,築上郡上毛町,大字東下４８７番地１,,40,646,8710922,,,,,,,2025-06-02,1,,,,,アティック,0
2003,9320003004676,新規,0,2025-06-02,2025-06-02,合同会社ＨＧＶ,,合同会社,大分県,大分市,高崎１丁目６番１７号,,44,201,8700872,,,,,,,2025-06-02,1,,,,,エイチジーブイ,0
2011,9350001019509,新規,0,2025-06-02,2025-06-02,Ｌｏｃａｌ　Ｃｅｌｌａｒ株式会社,,株式会社,宮崎県,日南市,飫肥２丁目１番１０号,,45,204,8892535,,,,,,,2025-06-02,1,,,,,ローカルセラー,0
2012,9350005006313,新規,0,2025-06-02,2025-06-02,土地家屋調査士法人中村事務所,,その他の設立登記法人,宮崎県,宮崎市,曽師町１５番地,,45,201,8800875,,,,,,,2025-06-02,1,,,,,ナカムラジムショ,0
2015,9370001052623,新規,0,2025-06-02,2025-06-02,株式会社ＦｌｏｗＧｒａｃｅ,,株式会社,宮城県,仙台市宮城野区,田子２丁目２８番６号,,04,102,9830021,,,,,,,2025-06-02,1,,,,,フローグレース,0
2016,9370005010965,新規,0,2025-06-02,2025-06-02,竜胆行政書士法人,,その他の設立登記法人,宮城県,石巻市,大街道北４丁目７番８４号セフィーラタウンＢ２０１号,,04,202,9860854,,,,,,,2025-06-02,1,,,,,リンドウ,0
2018,9390005009122,新規,0,2025-06-02,2025-06-02,一般社団法人Ｎ不動産,,その他の設立登記法人,山形県,山形市,あかねケ丘１丁目６番１１号,,06,201,9902481,,,,,,,2025-06-02,1,,,,,,0
2022,9420001019146,新規,0,2025-06-02,2025-06-02,株式会社ＢＵＩＬＤＥＲ,,株式会社,青森県,三戸郡五戸町,大字浅水字下平４７番地１,,02,442,0391528,,,,,,,2025-06-02,1,,,,,ビルダー,0
2028,9430003017709,新規,0,2025-06-02,2025-06-02,合同会社マッチング,,合同会社,北海道,新冠郡新冠町,字東町１９番地の３５,,01,604,0592404,,,,,,,2025-06-02,1,,,,,マッチング,0
2029,9430003017725,新規,0,2025-06-02,2025-06-02,合同会社テラス,,合同会社,北海道,札幌市手稲区,富丘二条６丁目３番２０－５０３号,,01,109,0060012,,,,,,,2025-06-02,1,,,,,テラス,0
2034,9470001020735,新規,0,2025-06-02,2025-06-02,株式会社ＡＨＥＡＤ,,株式会社,香川県,高松市,春日町７３７番地１３,,37,201,7610101,,,,,,,2025-06-02,1,,,,,アヘッド,0
