sequenceNumber,corporateNumber,process,correct,updateDate,changeDate,name,nameImageId,kind,prefectureName,cityName,streetNumber,addressImageId,prefectureCode,cityCode,postCode,addressOutside,addressOutsideImageId,closeDate,closeCause,successorCorporateNumber,changeCause,assignmentDate,latest,enName,enPrefectureName,enCityName,enAddressOutside,furigana,hihyoji
13,1010401093624,登記記録の閉鎖等,0,2025-12-09,2025-11-17,株式会社ＥａｒｔｈＶｉｅｗ,,株式会社,東京都,港区,三田２丁目８番１７－２０１号,,13,103,1080073,,,2025-11-17,清算の結了等,,,2015-10-05,1,,,,,アースビュー,0
14,1010401136077,登記記録の閉鎖等,0,2025-12-09,2025-11-19,株式会社ファンディアル,,株式会社,神奈川県,足柄下郡湯河原町,福浦３１５番地の７ライオンズマンション湯河原町福浦６０６号室,,14,384,2590311,,,2025-11-19,清算の結了等,,,2018-01-19,1,,,,,ファンディアル,0
20,1010405021093,登記記録の閉鎖等,0,2025-12-09,2025-11-13,一般社団法人日本ウェルネス漢方協会,,その他の設立登記法人,東京都,港区,南麻布４丁目５番４８号フォーサイト南麻布４階,,13,103,1060047,,,2025-11-13,清算の結了等,,,2022-06-24,1,,,,,ニホンウェルネスカンポウキョウカイ,0
28,1010801026720,登記記録の閉鎖等,0,2025-12-09,2025-12-02,株式会社真喜商店,,株式会社,東京都,品川区,八潮５丁目３番１１－５０２号,,13,109,1400003,,,2025-12-02,清算の結了等,,,2016-05-25,1,,,,,シンキショウテン,0
34,1010902004138,登記記録の閉鎖等,0,2025-12-09,2025-12-04,有限会社金子事務所,,有限会社,東京都,世田谷区,三軒茶屋１丁目９番７号,,13,112,1540024,,,2025-12-04,清算の結了等,,,2015-10-05,1,,,,,カネコジムショ,0
36,1011001002792,登記記録の閉鎖等,0,2025-12-09,2025-12-04,株式会社ピーチジャム,,株式会社,東京都,渋谷区,道玄坂１丁目１６番１５号,,13,113,1500043,,,2025-12-04,清算の結了等,,,2015-10-05,1,,,,,ピーチジャム,0
41,1011001148611,登記記録の閉鎖等,0,2025-12-09,2025-11-17,株式会社ｈｕｒｍｔｈ　ａｉｒ,,株式会社,東京都,港区,南青山４丁目１７－１４ＶＡＬＯ南青山２０２,,13,103,1070062,,,2025-11-17,清算の結了等,,,2022-07-13,1,,,,,ハームスエアー,0
55,1011101078262,登記記録の閉鎖等,0,2025-12-09,2025-11-13,株式会社晃翔会,,株式会社,東京都,新宿区,南元町２０番地３,,13,104,1600012,,,2025-11-13,清算の結了等,,,2016-09-21,1,,,,,コウショウカイ,0
62,1011601028007,登記記録の閉鎖等,0,2025-12-09,2025-12-05,嘉創国際株式会社,,株式会社,東京都,練馬区,大泉町２丁目８－７,,13,120,1780062,,,2025-12-05,清算の結了等,,,2024-08-23,1,,,,,カソウコクサイ,0
72,1012801019729,登記記録の閉鎖等,0,2025-12-09,2025-12-03,株式会社アンビエンス,,株式会社,東京都,武蔵野市,吉祥寺本町３丁目２０番１３号,,13,203,1800004,,,2025-12-03,清算の結了等,,,2019-10-30,1,,,,,アンビエンス,0
73,1013202002571,登記記録の閉鎖等,0,2025-12-09,2025-11-13,有限会社コスコムランゲージサービス,,有限会社,東京都,目黒区,中目黒２丁目９番６号,,13,110,1530061,,,2025-11-13,清算の結了等,,,2015-10-05,1,,,,,コスコムランゲージサービス,0
76,1013303007172,登記記録の閉鎖等,0,2025-12-09,2025-11-26,ＡＢＣ合同会社,,合同会社,東京都,豊島区,池袋本町１丁目２１番８号アネックスハナブサ１Ｂ号,,13,116,1700011,,,2025-11-26,清算の結了等,,,2024-06-10,1,,,,,エービーシー,0
87,1021001061111,登記記録の閉鎖等,0,2025-12-09,2025-11-17,株式会社ＳＫグローイング,,株式会社,神奈川県,綾瀬市,上土棚北２丁目６番１９号,,14,218,2521111,,,2025-11-17,清算の結了等,,,2017-01-12,1,,,,,,0
91,1021003013705,登記記録の閉鎖等,0,2025-12-09,2025-11-19,合同会社ｕｃａ　ｌａｂ,,合同会社,神奈川県,海老名市,大谷北４丁目１番３５－３０１号,,14,215,2430419,,,2025-11-19,清算の結了等,,,2023-10-26,1,,,,,ユカラボ,0
95,1030001045775,登記記録の閉鎖等,0,2025-12-09,2025-12-01,株式会社エヌ・デイ・エス,,株式会社,埼玉県,新座市,石神１丁目５番１９号,,11,230,3520033,,,2025-12-01,清算の結了等,,,2015-10-05,1,,,,,エヌデイエス,0
96,1030001068066,登記記録の閉鎖等,0,2025-12-09,2025-12-01,株式会社関根ロジスティクス,,株式会社,埼玉県,越谷市,大字増森２０７番地１２,,11,222,3430012,,,2025-12-01,合併による解散等,7030001065231,令和７年１２月１日埼玉県越谷市大字増森２０７番地１２株式会社関根エンタープライズ（7030001065231）に合併し解散,2015-10-05,1,,,,,セキネロジスティクス,0
117,1040002003723,登記記録の閉鎖等,0,2025-12-09,2025-11-17,有限会社ケイ・エス・コンサルタント,,有限会社,千葉県,八街市,八街ろ５８番地１３１,,12,230,2891144,,,2025-11-17,清算の結了等,,,2015-10-05,1,,,,,ケイエスコンサルタント,0
120,1040002089408,登記記録の閉鎖等,0,2025-12-09,2025-11-17,有限会社カシワ,,有限会社,千葉県,柏市,小青田５丁目１２番,,12,217,2770803,,,2025-11-17,清算の結了等,,,2015-10-05,1,,,,,カシワ,0
121,1040005006888,登記記録の閉鎖等,0,2025-12-09,2025-11-13,ヤマギシズム生活成田実顕地農事組合法人,,その他の設立登記法人,千葉県,成田市,稲荷山３１３番地１,,12,211,2870233,,,2025-11-13,清算の結了等,,,2015-10-05,1,,,,,ヤマギシズムセイカツナリタジッケンチ,0
123,1050002000109,登記記録の閉鎖等,0,2025-12-09,2025-12-03,有限会社朝倉プロモーション,,有限会社,茨城県,水戸市,南町３丁目６番２７号ウィング南ビル２Ｆ,,08,201,3100021,,,2025-12-03,清算の結了等,,,2015-10-05,1,,,,,アサクラプロモーション,0
135,1080101023131,登記記録の閉鎖等,0,2025-12-09,2025-12-05,株式会社丸井,,株式会社,静岡県,駿東郡小山町,小山１番地の１,,22,344,4101311,,,2025-12-05,合併による解散等,6100001006468,令和７年１１月１日長野県千曲市大字寂蒔８８０番地丸善物流システム株式会社（6100001006468）に合併し解散,2022-03-10,1,,,,,マルイ,0
139,1090001000997,登記記録の閉鎖等,0,2025-12-09,2025-12-02,株式会社シーケンス,,株式会社,山梨県,甲府市,大里町４３３４番地１,,19,201,4000053,,,2025-12-02,清算の結了等,,,2015-10-05,1,,,,,シーケンス,0
151,1120001244954,登記記録の閉鎖等,0,2025-12-09,2025-12-04,株式会社ＴＳＣトムソーヤクラブ,,株式会社,兵庫県,尼崎市,西立花町２丁目１番８号,,28,202,6600054,,,2025-12-04,清算の結了等,,,2022-04-06,1,,,,,ティーエスシートムソーヤクラブ,0
152,1120001247817,登記記録の閉鎖等,0,2025-12-09,2025-12-04,株式会社ＦＯＸＪＯＢ,,株式会社,大阪府,大阪市北区,芝田２丁目２番１７－４０２号,,27,127,5300012,,,2025-12-04,清算の結了等,,,2022-07-29,1,,,,,フォックスジョブ,0
161,1120002074434,登記記録の閉鎖等,0,2025-12-09,2025-12-04,有限会社ソウアイ,,有限会社,大阪府,枚方市,穂谷３丁目１３番２１号,,27,210,5730114,,,2025-12-04,清算の結了等,,,2015-10-05,1,,,,,ソウアイ,0
183,1170001002003,登記記録の閉鎖等,0,2025-12-09,2025-12-05,太陽交通株式会社,,株式会社,和歌山県,和歌山市,神前３６６番地の１,,30,201,6408314,,,2025-12-05,清算の結了等,,,2015-10-05,1,,,,,タイヨウコウツウ,0
188,1180002075096,登記記録の閉鎖等,0,2025-12-09,2025-12-04,有限会社ケミケア,,有限会社,愛知県,犬山市,大字犬山字東古券４２４番地の２,,23,215,4840083,,,2025-12-04,清算の結了等,,,2015-10-05,1,,,,,ケミケア,0
212,1260005008887,登記記録の閉鎖等,0,2025-12-09,2025-12-01,特定非営利活動法人母のさらだボウル委員会,,その他の設立登記法人,岡山県,岡山市北区,富田町２丁目１２番１６号センチュリー富田町４０３号,,33,101,7000816,,,2025-12-01,清算の結了等,,,2015-10-05,1,,,,,ハハノサラダボウルイインカイ,0
225,1290802015315,登記記録の閉鎖等,0,2025-12-09,2025-12-08,有限会社本城建具製作所,,有限会社,福岡県,北九州市八幡西区,本城東４丁目５番３５号,,40,109,8070815,,,2025-12-08,清算の結了等,,,2015-10-05,1,,,,,ホンジョウタテグセイサクショ,0
226,1310005001218,登記記録の閉鎖等,0,2025-12-09,2025-12-08,医療法人社団興歯会,,その他の設立登記法人,長崎県,長崎市,滑石１丁目２５番６号,,42,201,8528061,,,2025-12-08,清算の結了等,,,2015-10-05,1,,,,,コウシカイ,0
231,1330002006993,登記記録の閉鎖等,0,2025-12-09,2025-12-03,有限会社ディー・ビー・ネット,,有限会社,熊本県,熊本市中央区,八王寺町５番１１号,,43,101,8600831,,,2025-12-03,清算の結了等,,,2015-10-05,1,,,,,ディービーネット,0
246,1370201002229,登記記録の閉鎖等,0,2025-12-09,2025-12-01,株式会社住建,,株式会社,宮城県,大崎市,鹿島台木間塚字草刈場４４番地の１,,04,215,9894102,,,2025-12-01,清算の結了等,,,2015-10-05,1,,,,,ジュウケン,0
251,1410003002629,登記記録の閉鎖等,0,2025-12-09,2025-12-05,合名会社日新商会,,合名会社,秋田県,横手市,十文字町字本町２５番地の２,,05,203,0190524,,,2025-12-05,清算の結了等,,,2015-10-05,1,,,,,ニッシンショウカイ,0
259,1460101005413,登記記録の閉鎖等,0,2025-12-09,2025-12-03,株式会社ファクトリーパワー,,株式会社,北海道,河西郡更別村,字更別南四線７４番地１０,,01,639,0891542,,,2025-12-03,清算の結了等,,,2015-10-05,1,,,,,ファクトリーパワー,0
264,1480002013380,登記記録の閉鎖等,0,2025-12-09,2025-12-08,有限会社霧ケ峰,,有限会社,徳島県,阿南市,宝田町平岡８４３番地２,,36,204,7740045,,,2025-12-08,清算の結了等,,,2015-10-05,1,,,,,キリガミネ,0
266,1500002000855,登記記録の閉鎖等,0,2025-12-09,2025-12-05,伊予ビル有限会社,,有限会社,愛媛県,松山市,一番町１丁目１４番地４,,38,201,7900001,,,2025-12-05,清算の結了等,,,2015-10-05,1,,,,,イヨビル,0
281,2010002018839,登記記録の閉鎖等,0,2025-12-09,2025-11-20,有限会社笠原商店,,有限会社,東京都,中央区,湊３丁目１３番１０号,,13,102,1040043,,,2025-11-20,清算の結了等,,,2015-10-05,1,,,,,カサハラショウテン,0
289,2010401174175,登記記録の閉鎖等,0,2025-12-09,2025-11-14,株式会社海洋化学,,株式会社,東京都,港区,南麻布３丁目１１番４号,,13,103,1060047,,,2025-11-14,清算の結了等,,,2023-05-10,1,,,,,カイヨウカガク,0
291,2010401188563,登記記録の閉鎖等,0,2025-12-09,2025-11-11,ＧＣＪＧ５０株式会社,,株式会社,東京都,港区,元赤坂１丁目１番７－１２０９号株式会社赤坂国際会計内,,13,103,1070051,,,2025-11-11,合併による解散等,3240001065230,令和７年１０月１日広島市南区的場町一丁目５番５号株式会社テクノクラーツ（3240001065230）に合併し解散,2025-03-03,1,,,,,ジーシージェイジーフィフティー,0
292,2010402008258,登記記録の閉鎖等,0,2025-12-09,2025-11-17,有限会社第一カシマ,,有限会社,東京都,港区,新橋２丁目１０番１号,,13,103,1050004,,,2025-11-17,清算の結了等,,,2015-10-05,1,,,,,ダイイチカシマ,0
293,2010405012752,登記記録の閉鎖等,0,2025-12-09,2025-11-17,ＲＷ久喜特定目的会社,,その他の設立登記法人,東京都,港区,赤坂２丁目１０番５号デロイトトーマツ赤坂インターナショナル株式会社内,,13,103,1070052,,,2025-11-17,清算の結了等,,,2015-10-05,1,,,,,アールダブリュークキ,0
303,2010901029176,登記記録の閉鎖等,0,2025-12-09,2025-12-08,株式会社リトリート・インターナショナル,,株式会社,東京都,世田谷区,弦巻４丁目１１番８号,,13,112,1540016,,,2025-12-08,清算の結了等,,,2015-10-05,1,,,,,リトリートインターナショナル,0
315,2011002017277,登記記録の閉鎖等,0,2025-12-09,2025-11-13,グローバルデザイン有限会社,,有限会社,東京都,渋谷区,広尾５丁目４番１８号,,13,113,1500012,,,2025-11-13,清算の結了等,,,2015-10-05,1,,,,,グローバルデザイン,0
320,2011102012979,登記記録の閉鎖等,0,2025-12-09,2025-11-10,有限会社森茶店,,有限会社,東京都,新宿区,山吹町３３５番地,,13,104,1620801,,,2025-11-10,清算の結了等,,,2015-10-05,1,,,,,モリチャテン,0
332,2011801046229,登記記録の閉鎖等,0,2025-12-09,2025-12-02,班匠坊株式会社,,株式会社,東京都,葛飾区,東金町６丁目６番５号センタービル金町４階４１８室,,13,122,1250041,,,2025-12-02,清算の結了等,,,2025-06-10,1,,,,,ハンショウボウ,0
339,2012701010101,登記記録の閉鎖等,0,2025-12-09,2025-12-01,株式会社近江フーズサービス,,株式会社,東京都,東久留米市,本町３丁目９番１号,,13,222,2030053,,,2025-12-01,清算の結了等,,,2015-10-05,1,,,,,オウミフーズサービス,0
343,2013301005920,登記記録の閉鎖等,0,2025-12-09,2025-11-28,昌和産業株式会社,,株式会社,東京都,豊島区,池袋本町３丁目１７番８号,,13,116,1700011,,,2025-11-28,清算の結了等,,,2015-10-05,1,,,,,,0
345,2013301052764,登記記録の閉鎖等,0,2025-12-09,2025-11-28,美航株式会社,,株式会社,東京都,豊島区,北大塚２丁目１２－８大星ビル５Ｆ,,13,116,1700004,,,2025-11-28,清算の結了等,,,2024-07-05,1,,,,,,0
348,2020001092396,登記記録の閉鎖等,0,2025-12-09,2025-12-05,勝山コンサルティングサービス株式会社,,株式会社,東京都,世田谷区,玉川台２丁目１番１５号,,13,112,1580096,,,2025-12-05,清算の結了等,,,2015-10-05,1,,,,,カツヤマコンサルティングサービス,0
355,2021001044734,登記記録の閉鎖等,0,2025-12-09,2025-11-17,株式会社ＴＭＲ,,株式会社,神奈川県,相模原市南区,新磯野１０２番地,,14,153,2520325,,,2025-11-17,清算の結了等,,,2015-10-05,1,,,,,ティーエムアール,0
356,2021001079920,登記記録の閉鎖等,0,2025-12-09,2025-11-17,信和電気株式会社,,株式会社,神奈川県,相模原市中央区,富士見３丁目１６番１１－１０９号,,14,152,2520236,,,2025-11-17,清算の結了等,,,2023-08-14,1,,,,,シンワデンキ,0
357,2021002003185,登記記録の閉鎖等,0,2025-12-09,2025-11-17,有限会社高田クリーニング,00012926,有限会社,神奈川県,藤沢市,鵠沼藤が谷２丁目９番２４号,,14,205,2510031,,,2025-11-17,清算の結了等,,,2015-10-05,1,,,,,タカダクリーニング,0
358,2021002005116,登記記録の閉鎖等,0,2025-12-09,2025-11-20,有限会社やまご電器,,有限会社,神奈川県,藤沢市,遠藤２７６７番地,,14,205,2520816,,,2025-11-20,清算の結了等,,,2015-10-05,1,,,,,ヤマゴデンキ,0
379,2040001087436,登記記録の閉鎖等,0,2025-12-09,2025-12-03,株式会社ＭＪＯ,,株式会社,千葉県,船橋市,前原西１丁目３２番１号,,12,204,2740825,,,2025-12-03,合併による解散等,1040001072802,令和７年１０月３１日福岡市中央区天神四丁目５番１０号チサンマンション天神第二７１１号室株式会社Ｋスマイル（1040001072802）に合併し解散,2015-10-05,1,,,,,エムジェイオー,0
384,2040003001758,登記記録の閉鎖等,0,2025-12-09,2025-11-14,合資会社経営管理センター,,合資会社,千葉県,松戸市,上矢切１０９９番地の４,,12,207,2710094,,,2025-11-14,清算の結了等,,,2015-10-05,1,,,,,ケイエイカンリセンター,0
394,2080002004428,登記記録の閉鎖等,0,2025-12-09,2025-12-03,有限会社ニシキ管財,,有限会社,静岡県,静岡市駿河区,高松１８１７番地の１,,22,102,4228034,,,2025-12-03,清算の結了等,,,2015-10-05,1,,,,,ニシキカンザイ,0
406,2100002033275,登記記録の閉鎖等,0,2025-12-09,2025-12-03,有限会社保科建設,,有限会社,長野県,伊那市,高遠町藤沢３４２５番地,,20,209,3960000,,,2025-12-03,清算の結了等,,,2015-10-05,1,,,,,ホシナケンセツ,0
407,2100002035593,登記記録の閉鎖等,0,2025-12-09,2025-12-03,有限会社安全グループ,,有限会社,長野県,下伊那郡阿智村,春日１２７８番地２,,20,407,3950301,,,2025-12-03,清算の結了等,,,2015-10-05,1,,,,,アンゼングループ,0
413,2120001206227,登記記録の閉鎖等,0,2025-12-09,2025-12-04,株式会社アイ・エム・シー,,株式会社,大阪府,大阪市西区,西本町１丁目６番９号川田ビル２階,,27,106,5500005,,,2025-12-04,清算の結了等,,,2017-06-09,1,,,,,アイエムシー,0
423,2120003013266,登記記録の閉鎖等,0,2025-12-09,2025-12-04,合同会社こはま,,合同会社,大阪府,大阪市都島区,東野田町２丁目１番３８号,,27,102,5340024,,,2025-12-04,清算の結了等,,,2017-09-13,1,,,,,コハマ,0
434,2140001068913,登記記録の閉鎖等,0,2025-12-09,2025-12-03,株式会社マインド・ビー,,株式会社,兵庫県,西宮市,市庭町４番１５号,,28,204,6620975,,,2025-12-03,清算の結了等,,,2015-10-05,1,,,,,マインドビー,0
445,2160001017050,登記記録の閉鎖等,0,2025-12-09,2025-12-04,エスアイアミューズメント株式会社,,株式会社,滋賀県,東近江市,八日市浜野町３番１号,,25,213,5270011,,,2025-12-04,清算の結了等,,,2015-10-05,1,,,,,エスアイアミューズメント,0
494,2300005000252,登記記録の閉鎖等,0,2025-12-09,2025-12-04,職業訓練法人佐賀総合美容訓練協会,,その他の設立登記法人,佐賀県,佐賀市,大財１丁目６－７,,41,201,8400811,,,2025-12-04,清算の結了等,,,2015-10-05,1,,,,,サガソウゴウビヨウクンレンキョウカイ,0
505,2370201002954,登記記録の閉鎖等,0,2025-12-09,2025-12-01,株式会社津田畜産,,株式会社,宮城県,栗原市,築館伊豆１丁目６番１６号,,04,213,9872216,,,2025-12-01,清算の結了等,,,2015-10-05,1,,,,,ツダチクサン,0
509,2390001002500,登記記録の閉鎖等,0,2025-12-09,2025-12-05,三嶋工業株式会社,,株式会社,山形県,東村山郡山辺町,大字簗沢２４３番地,,06,301,9900351,,,2025-12-05,清算の結了等,,,2015-10-05,1,,,,,ミシマコウギョウ,0
513,2390002001575,登記記録の閉鎖等,0,2025-12-09,2025-12-04,有限会社多田板金加工所,,有限会社,山形県,山形市,錦町１３番３５号,,06,201,9900056,,,2025-12-04,清算の結了等,,,2015-10-05,1,,,,,タダバンキンカコウショ,0
523,2430003014852,登記記録の閉鎖等,0,2025-12-09,2025-12-04,合同会社匠技研,,合同会社,北海道,札幌市南区,川沿十一条３丁目３番３号,,01,106,0050811,,,2025-12-04,清算の結了等,,,2023-03-20,1,,,,,タクミギケン,0
528,2470002010898,登記記録の閉鎖等,0,2025-12-09,2025-12-05,有限会社ニューカノン,,有限会社,香川県,綾歌郡綾川町,滝宮字原井田５５３番地４,,37,387,7612305,,,2025-12-05,清算の結了等,,,2015-10-05,1,,,,,ニューカノン,0
565,3010402003910,登記記録の閉鎖等,0,2025-12-09,2025-11-14,有限会社生蕎麦鈴木,,有限会社,東京都,港区,赤坂１丁目８番５号ＡＩＲレジデンス６０６号,,13,103,1070052,,,2025-11-14,清算の結了等,,,2015-10-05,1,,,,,,0
573,3010603006613,登記記録の閉鎖等,0,2025-12-09,2025-12-02,派生総研合同会社,,合同会社,東京都,江東区,東砂６丁目２番１号,,13,108,1360074,,,2025-12-02,清算の結了等,,,2017-02-01,1,,,,,ハセイソウケン,0
604,3011802009233,登記記録の閉鎖等,0,2025-12-09,2025-12-03,有限会社アトリエスギ,,有限会社,東京都,足立区,西新井栄町１丁目１８番３３－３２３号,,13,121,1230843,,,2025-12-03,清算の結了等,,,2015-10-05,1,,,,,アトリエスギ,0
605,3012303001679,登記記録の閉鎖等,0,2025-12-09,2025-10-21,合同会社エアクオート,,合同会社,東京都,墨田区,東墨田２丁目１４－４,,13,107,1310042,,,2025-10-21,清算の結了等,,,2022-05-23,1,,,,,エアクオート,0
607,3012403004375,登記記録の閉鎖等,0,2025-12-09,2025-12-03,スポレーリンク合同会社,,合同会社,東京都,府中市,八幡町２丁目８番地の２０,,13,206,1830016,,,2025-12-03,清算の結了等,,,2020-06-04,1,,,,,スポレーリンク,0
608,3012701015405,登記記録の閉鎖等,0,2025-12-09,2025-12-01,株式会社ルート６０,,株式会社,東京都,小平市,学園西町２丁目１３番３３号コスモ一橋学園,,13,211,1870045,,,2025-12-01,清算の結了等,,,2019-06-24,1,,,,,ルートロクジュウ,0
611,3013101003826,登記記録の閉鎖等,0,2025-12-09,2025-12-04,株式会社旬菜デリ,,株式会社,東京都,昭島市,代官山３丁目１番３号,,13,207,1960005,,,2025-12-04,合併による解散等,4012401001092,令和７年１２月１日東京都調布市仙川町二丁目５番地７デリア食品株式会社（4012401001092）に合併し解散,2015-10-05,1,,,,,シュンサイデリ,0
612,3013101004700,登記記録の閉鎖等,0,2025-12-09,2025-12-05,株式会社有利精工,,株式会社,東京都,西多摩郡瑞穂町,大字石畑１７５番地１,,13,303,1901211,,,2025-12-05,清算の結了等,,,2015-10-05,1,,,,,ユウリセイコウ,0
619,3020002102475,登記記録の閉鎖等,0,2025-12-09,2025-12-01,有限会社武春堂,,有限会社,神奈川県,川崎市宮前区,宮崎１丁目４番地２７,,14,136,2160033,,,2025-12-01,清算の結了等,,,2015-10-05,1,,,,,タケハルドウ,0
622,3021001000728,登記記録の閉鎖等,0,2025-12-09,2025-11-17,五洋産業株式会社,,株式会社,神奈川県,藤沢市,石川２丁目１１番地の１３,,14,205,2520815,,,2025-11-17,清算の結了等,,,2015-10-05,1,,,,,ゴヨウサンギョウ,0
625,3021001048874,登記記録の閉鎖等,0,2025-12-09,2025-11-17,株式会社ジーンテック,,株式会社,神奈川県,茅ヶ崎市,代官町５－１－３０２,,14,207,2530015,,,2025-11-17,清算の結了等,,,2015-10-05,1,,,,,,0
627,3021002051480,登記記録の閉鎖等,0,2025-12-09,2025-11-19,有限会社鴨宮運送,,有限会社,神奈川県,小田原市,西酒匂３丁目４番４号,,14,206,2560817,,,2025-11-19,清算の結了等,,,2015-10-05,1,,,,,カモノミヤウンソウ,0
633,3030001138503,登記記録の閉鎖等,0,2025-12-09,2025-12-02,丸三電子株式会社,,株式会社,埼玉県,上尾市,柏座２丁目４－３２アンジュルムＫ１０３号,,11,219,3620075,,,2025-12-02,清算の結了等,,,2020-10-01,1,,,,,マルサンデンシ,0
637,3030002004357,登記記録の閉鎖等,0,2025-12-09,2025-12-03,有限会社倉持新聞店,,有限会社,埼玉県,さいたま市中央区,大字下落合１０３４番地,,11,105,3380002,,,2025-12-03,清算の結了等,,,2015-10-05,1,,,,,クラモチシンブンテン,0
639,3030002062751,登記記録の閉鎖等,0,2025-12-09,2025-11-27,有限会社あむ,,有限会社,静岡県,浜松市浜名区,小松３３６１番地,,22,139,4340042,,,2025-11-27,清算の結了等,,,2015-10-05,1,,,,,アム,0
655,3080001005302,登記記録の閉鎖等,0,2025-12-09,2025-12-03,株式会社森田工務店,,株式会社,静岡県,静岡市駿河区,馬渕３丁目１０番５号,,22,102,4228063,,,2025-12-03,清算の結了等,,,2015-10-05,1,,,,,モリタコウムテン,0
656,3080001024046,登記記録の閉鎖等,0,2025-12-09,2025-12-04,株式会社プライズ,,株式会社,静岡県,掛川市,宮脇１２１番地の５,,22,213,4360086,,,2025-12-04,清算の結了等,,,2021-03-16,1,,,,,プライズ,0
660,3080102016966,登記記録の閉鎖等,0,2025-12-09,2025-12-05,有限会社高見澤電設,00068056,有限会社,静岡県,富士宮市,小泉１１６番地の１,,22,207,4180022,,,2025-12-05,清算の結了等,,,2015-10-05,1,,,,,タカミザワデンセツ,0
666,3100001003848,登記記録の閉鎖等,0,2025-12-09,2025-12-04,株式会社白木屋,,株式会社,長野県,長野市,信州新町新町１４６番地,,20,201,3812405,,,2025-12-04,清算の結了等,,,2015-10-05,1,,,,,シロキヤ,0
668,3100001031717,登記記録の閉鎖等,0,2025-12-09,2025-12-03,株式会社ファースン,,株式会社,長野県,松本市,大字原１３４番地５シルクハウスＢ１０３,,20,202,3900316,,,2025-12-03,清算の結了等,,,2018-11-01,1,,,,,ファースン,0
672,3120001139343,登記記録の閉鎖等,0,2025-12-09,2025-12-05,株式会社ポルトフィーノ,,株式会社,大阪府,大阪市北区,堂山町４番６号ＳＥＲタワーズ８階,,27,127,5300027,,,2025-12-05,清算の結了等,,,2015-10-05,1,,,,,ポルトフィーノ,0
676,3120001244226,登記記録の閉鎖等,0,2025-12-09,2025-12-01,株式会社Ｇｏｏｄ　Ｗａｙ,,株式会社,大阪府,大阪市中央区,南船場３丁目４番２６号,,27,128,5420081,,,2025-12-01,合併による解散等,4120001089224,令和７年１２月１日大阪市中央区南船場三丁目４番２６号株式会社宝美堂（4120001089224）に合併し解散,2022-03-08,1,,,,,グッドウェイ,0
685,3120003015674,登記記録の閉鎖等,0,2025-12-09,2025-12-04,合同会社ＫｚＰＲＯ,,合同会社,大阪府,大阪市福島区,福島３丁目１番６１－１２０１号,,27,103,5530003,,,2025-12-04,清算の結了等,,,2019-05-08,1,,,,,ケーズプロ,0
690,3122001003438,登記記録の閉鎖等,0,2025-12-09,2025-12-01,松栄電機株式会社,,株式会社,大阪府,東大阪市,金岡１丁目８番１０号,,27,227,5770823,,,2025-12-01,清算の結了等,,,2015-10-05,1,,,,,ショウエイデンキ,0
698,3130002010717,登記記録の閉鎖等,0,2025-12-09,2025-12-05,有限会社吉祥院自動車工業,,有限会社,京都府,京都市南区,吉祥院宮ノ西町３５番地,,26,107,6018306,,,2025-12-05,清算の結了等,,,2015-10-05,1,,,,,キッショウインジドウシャコウギョウ,0
699,3130003008173,登記記録の閉鎖等,0,2025-12-09,2025-11-14,合同会社ＥＳＰＬＯＲＡＲＥ　ＫＹＯＴＯ,,合同会社,京都府,京都市中京区,河原町通御池下る下丸屋町３９０－２,,26,104,6048006,,,2025-11-14,清算の結了等,,,2022-09-16,1,,,,,エスプロラーレキョウト,0
700,3130005017263,登記記録の閉鎖等,0,2025-12-09,2025-11-28,特定非営利活動法人Ｄｈａｍｍａ　Ｒｕｋｋｈａ,,その他の設立登記法人,京都府,京都市左京区,田中西浦町４１番地第八若竹寮６号室,,26,103,6068217,,,2025-11-28,清算の結了等,,,2025-01-07,1,,,,,ダンマルッカ,0
705,3140002002184,登記記録の閉鎖等,0,2025-12-09,2025-12-01,有限会社ひかり幼児教育研究所,00040459,有限会社,兵庫県,神戸市東灘区,住吉宮町３丁目１２番２３号,,28,101,6580053,,,2025-12-01,清算の結了等,,,2015-10-05,1,,,,,ヒカリヨウジキョウイクケンキュウショ,0
706,3140002056247,登記記録の閉鎖等,0,2025-12-09,2025-12-03,有限会社共立製作所,,有限会社,兵庫県,西宮市,小松東町２丁目１５番６号,,28,204,6638123,,,2025-12-03,清算の結了等,,,2015-10-05,1,,,,,キョウリツセイサクショ,0
715,3170005005784,登記記録の閉鎖等,0,2025-12-09,2025-12-04,特定非営利活動法人助けあいセンターみかん,,その他の設立登記法人,和歌山県,新宮市,磐盾２番２０号,,30,207,6470051,,,2025-12-04,清算の結了等,,,2015-10-05,1,,,,,タスケアイセンターミカン,0
717,3180001164591,登記記録の閉鎖等,0,2025-12-09,2025-12-04,株式会社バクアテ,,株式会社,愛知県,名古屋市中村区,平池町４丁目６０番地の５ロイヤルパークスＥＲささしま５１１号,,23,105,4530872,,,2025-12-04,清算の結了等,,,2024-12-17,1,,,,,バクアテ,0
728,3200001017458,登記記録の閉鎖等,0,2025-12-09,2025-12-05,みの食製菓株式会社,,株式会社,岐阜県,加茂郡八百津町,八百津８３４７番地,,21,505,5050301,,,2025-12-05,清算の結了等,,,2015-10-05,1,,,,,ミノショクセイカ,0
738,3280002001057,登記記録の閉鎖等,0,2025-12-09,2025-12-08,有限会社島根用地計画,,有限会社,島根県,松江市,西川津町３５４８番地３,,32,201,6900823,,,2025-12-08,清算の結了等,,,2015-10-05,1,,,,,シマネヨウチケイカク,0
760,3330005009991,登記記録の閉鎖等,0,2025-12-09,2025-12-02,一般社団法人リーダース,,その他の設立登記法人,熊本県,熊本市中央区,上通町６番８号ホテルオークス７Ｆ,,43,101,8600845,,,2025-12-02,清算の結了等,,,2019-03-20,1,,,,,リーダース,0
767,3360001025750,登記記録の閉鎖等,0,2025-12-09,2025-12-04,株式会社リージョン,,株式会社,沖縄県,名護市,字伊差川４３１番地１,,47,209,9051152,,,2025-12-04,清算の結了等,,,2019-06-06,1,,,,,リージョン,0
769,3370502001035,登記記録の閉鎖等,0,2025-12-09,2025-12-02,平成観光有限会社,,有限会社,宮城県,本吉郡南三陸町,歌津字桝沢９５番地の１,,04,606,9860700,,,2025-12-02,清算の結了等,,,2015-10-05,1,,,,,ヘイセイカンコウ,0
775,3430005012952,登記記録の閉鎖等,0,2025-12-09,2025-12-04,特定非営利活動法人エール,,その他の設立登記法人,北海道,札幌市東区,北二十四条東１５丁目４番１６号元町大坂ビル２階,,01,103,0650024,,,2025-12-04,清算の結了等,,,2016-10-13,1,,,,,エール,0
778,3480002013148,登記記録の閉鎖等,0,2025-12-09,2025-12-05,有限会社信友総合ビジネス,,有限会社,徳島県,阿南市,西路見町堤外６５番地１,,36,204,7740009,,,2025-12-05,清算の結了等,,,2015-10-05,1,,,,,シンユウソウゴウビジネス,0
803,4010401134573,登記記録の閉鎖等,0,2025-12-09,2025-12-04,株式会社ジョージ,,株式会社,神奈川県,川崎市高津区,久本３丁目５番４,,14,134,2130011,,,2025-12-04,清算の結了等,,,2017-10-25,1,,,,,ジョージ,0
806,4010403029607,登記記録の閉鎖等,0,2025-12-09,2025-11-17,ウィンズ合同会社,,合同会社,東京都,港区,西新橋３丁目２３－６,,13,103,1050003,,,2025-11-17,清算の結了等,,,2023-03-01,1,,,,,ウィンズ,0
812,4010801022411,登記記録の閉鎖等,0,2025-12-09,2025-12-01,株式会社ウィルプライズ,,株式会社,東京都,大田区,山王３丁目２７番６号大森ラルタビル７階,,13,111,1430023,,,2025-12-01,清算の結了等,,,2015-10-05,1,,,,,ウィルプライズ,0
816,4010902011858,登記記録の閉鎖等,0,2025-12-09,2025-12-05,有限会社パイロットハウス,,有限会社,東京都,世田谷区,奥沢３丁目３２番６号,,13,112,1580083,,,2025-12-05,清算の結了等,,,2015-10-05,1,,,,,パイロットハウス,0
847,4011803001444,登記記録の閉鎖等,0,2025-12-09,2025-11-26,合同会社ｙａｓ,,合同会社,東京都,足立区,小台２丁目３番２１－１３０５号,,13,121,1200046,,,2025-11-26,清算の結了等,,,2015-10-05,1,,,,,ワイエーエス,0
852,4013303006642,登記記録の閉鎖等,0,2025-12-09,2025-11-26,ティンカーベル合同会社,,合同会社,東京都,豊島区,池袋本町１丁目２１－８アネックスハナブサ１Ｂ,,13,116,1700011,,,2025-11-26,清算の結了等,,,2023-06-08,1,,,,,ティンカーベル,0
854,4020001014233,登記記録の閉鎖等,0,2025-12-09,2025-12-05,株式会社出雲屋,,株式会社,神奈川県,横浜市港北区,新羽町４７０番地,,14,109,2230057,,,2025-12-05,清算の結了等,,,2015-10-05,1,,,,,イズモヤ,0
860,4020002066637,登記記録の閉鎖等,0,2025-12-09,2025-11-27,有限会社エム・エス・ワイ,,有限会社,神奈川県,横浜市神奈川区,鶴屋町３丁目３２番地１６,,14,102,2210835,,,2025-11-27,清算の結了等,,,2015-10-05,1,,,,,エムエスワイ,0
869,4021002056561,登記記録の閉鎖等,0,2025-12-09,2025-11-18,有限会社アイ・エス・オフイス永見,,有限会社,神奈川県,平塚市,ふじみ野２丁目１４番７号,,14,203,2591211,,,2025-11-18,清算の結了等,,,2015-10-05,1,,,,,,0
872,4030001065267,登記記録の閉鎖等,0,2025-12-09,2025-12-02,株式会社サビーナドンナ,,株式会社,埼玉県,越谷市,花田５丁目１３番地３５,,11,222,3430015,,,2025-12-02,清算の結了等,,,2015-10-05,1,,,,,サビーナドンナ,0
889,4050002042172,登記記録の閉鎖等,0,2025-12-09,2025-12-01,有限会社スギヤマ住設,,有限会社,茨城県,筑西市,下中山３２４番地の１,,08,227,3080825,,,2025-12-01,清算の結了等,,,2015-10-05,1,,,,,スギヤマジュウセツ,0
897,4080001021356,登記記録の閉鎖等,0,2025-12-09,2025-12-05,株式会社トイズキャビン,,株式会社,静岡県,静岡市葵区,南２丁目９番１４号,,22,101,4200956,,,2025-12-05,合併による解散等,7010001256798,令和７年１１月２８日東京都千代田区外神田三丁目１６番１２号アキバＣＯビル８Ｆ株式会社トイズキャビン（7010001256798）に合併し解散,2017-01-13,1,,,,,トイズキャビン,0
898,4080001025927,登記記録の閉鎖等,0,2025-12-09,2025-12-02,ＡＭＰＥＣ　ＪＡＰＡＮ株式会社,,株式会社,静岡県,静岡市駿河区,東静岡２丁目５番４５－６０１号,,22,102,4228019,,,2025-12-02,清算の結了等,,,2023-10-19,1,,,,,アムペックジャパン,0
908,4120001130078,登記記録の閉鎖等,0,2025-12-09,2025-11-27,株式会社アキュベリノス,,株式会社,大阪府,大阪市淀川区,西中島７丁目１２番５号,,27,123,5320011,,,2025-11-27,清算の結了等,,,2015-10-05,1,,,,,アキュベリノス,0
909,4120001175957,登記記録の閉鎖等,0,2025-12-09,2025-12-03,株式会社ウイズ,,株式会社,大阪府,大阪市中央区,森ノ宮中央２丁目４番６号,,27,128,5400003,,,2025-12-03,清算の結了等,,,2015-10-05,1,,,,,ウイズ,0
931,4140001037841,登記記録の閉鎖等,0,2025-12-09,2025-11-17,株式会社エンバーアンテック,,株式会社,神奈川県,茅ヶ崎市,代官町５－１－３０２,,14,207,2530015,,,2025-11-17,清算の結了等,,,2015-10-05,1,,,,,,0
932,4140001048079,登記記録の閉鎖等,0,2025-12-09,2025-12-05,岡重株式会社,,株式会社,兵庫県,尼崎市,浜３丁目４番１５号,,28,202,6610967,,,2025-12-05,清算の結了等,,,2015-10-05,1,,,,,オカシゲ,0
933,4140001078794,登記記録の閉鎖等,0,2025-12-09,2025-12-04,株式会社ハンシンデリカ,,株式会社,兵庫県,伊丹市,南町４丁目７番１号,,28,207,6640854,,,2025-12-04,合併による解散等,4012401001092,令和７年１２月１日東京都調布市仙川町二丁目５番地７デリア食品株式会社（4012401001092）に合併し解散,2015-10-05,1,,,,,ハンシンデリカ,0
950,4180003010025,登記記録の閉鎖等,0,2025-12-09,2025-12-08,株式会社佐高畳店,,株式会社,愛知県,春日井市,柏井町２丁目５０番地,,23,206,4860927,,,2025-12-08,清算の結了等,,,2015-10-05,1,,,,,サダカタタミテン,0
956,4180303003538,登記記録の閉鎖等,0,2025-12-09,2025-11-28,合同会社同心,,合同会社,愛知県,豊田市,美里１丁目２０番地１１,,23,211,4710805,,,2025-11-28,清算の結了等,,,2015-12-03,1,,,,,ドウシン,0
958,4190003003275,登記記録の閉鎖等,0,2025-12-09,2025-12-04,ＧＣ　Ｓｔｙｌｅ合同会社,,合同会社,大阪府,大阪市中央区,南船場３丁目２番２２号おおきに南船場ビル２０５,,27,128,5420081,,,2025-12-04,清算の結了等,,,2020-01-10,1,,,,,ジーシースタイル,0
962,4220001009171,登記記録の閉鎖等,0,2025-12-09,2025-12-04,株式会社シノハラ,,株式会社,石川県,白山市,横江町１７２６番地１７,,17,210,9240011,,,2025-12-04,清算の結了等,,,2015-10-05,1,,,,,シノハラ,0
963,4220001018404,登記記録の閉鎖等,0,2025-12-09,2025-12-05,株式会社ＬＵＮＡ,,株式会社,石川県,金沢市,松村１丁目５番地末栄ビル１０３,,17,201,9200348,,,2025-12-05,清算の結了等,,,2015-10-05,1,,,,,ルナ,0
964,4220003003940,登記記録の閉鎖等,0,2025-12-09,2025-11-28,合同会社Ｈ．Ａ．Ｋ．Ｕ,,合同会社,石川県,白山市,あさひ荘苑４丁目１６７,,17,210,9240019,,,2025-11-28,清算の結了等,,,2025-01-24,1,,,,,ハク,0
982,4280001005966,登記記録の閉鎖等,0,2025-12-09,2025-12-01,株式会社三輝テック,,株式会社,広島県,東広島市,志和町奥屋１０２８４番２,,34,212,7390266,,,2025-12-01,合併による解散等,1240001023041,令和７年１２月１日広島県東広島市西条上市町１０番４号株式会社三輝ホールディングス（1240001023041）に合併し解散,2015-10-05,1,,,,,サンキテック,0
1005,4300001006425,登記記録の閉鎖等,0,2025-12-09,2025-12-04,株式会社トスデリカ,,株式会社,佐賀県,鳥栖市,田代外町７０１番地,,41,203,8410016,,,2025-12-04,合併による解散等,4012401001092,令和７年１２月１日東京都調布市仙川町二丁目５番地７デリア食品株式会社（4012401001092）に合併し解散,2015-10-05,1,,,,,トスデリカ,0
1021,4350002001429,登記記録の閉鎖等,0,2025-12-09,2025-12-04,有限会社くすりの福元,,有限会社,宮崎県,宮崎市,大工３丁目１３３番地,,45,201,8800015,,,2025-12-04,清算の結了等,,,2015-10-05,1,,,,,クスリノフクモト,0
1030,4390002002745,登記記録の閉鎖等,0,2025-12-09,2025-12-05,山形ミツウロコ商事有限会社,,有限会社,山形県,山形市,円応寺町９番８号,,06,201,9900052,,,2025-12-05,清算の結了等,,,2015-10-05,1,,,,,ヤマガタミツウロコショウジ,0
1031,4390002010401,登記記録の閉鎖等,0,2025-12-09,2025-12-04,有限会社カーオーディオサトー,,有限会社,山形県,鶴岡市,西目丙５５番地,,06,203,9997541,,,2025-12-04,清算の結了等,,,2015-10-05,1,,,,,カーオーディオサトー,0
1032,4400001012875,登記記録の閉鎖等,0,2025-12-09,2025-12-01,エールホーム株式会社,,株式会社,岩手県,一関市,狐禅寺字峰下７９番地４,,03,209,0290131,,,2025-12-01,清算の結了等,,,2015-10-05,1,,,,,エールホーム,0
1034,4400001013956,登記記録の閉鎖等,0,2025-12-09,2025-12-01,株式会社あぐり雫石,,株式会社,岩手県,岩手郡雫石町,小日谷地７０番地６,,03,301,0200535,,,2025-12-01,清算の結了等,,,2017-12-06,1,,,,,アグリシズクイシ,0
1039,4430002063584,登記記録の閉鎖等,0,2025-12-09,2025-12-02,有限会社入谷商店,,有限会社,北海道,虻田郡洞爺湖町,洞爺湖温泉７１番地,,01,584,0495721,,,2025-12-02,清算の結了等,,,2015-10-05,1,,,,,イリタニショウテン,0
1041,4450002010972,登記記録の閉鎖等,0,2025-12-09,2025-12-03,有限会社シドウ・スポーツ,,有限会社,北海道,稚内市,潮見２丁目６番２８号,,01,214,0970002,,,2025-12-03,清算の結了等,,,2015-10-05,1,,,,,シドウスポーツ,0
1060,5010401070958,登記記録の閉鎖等,0,2025-12-09,2025-11-14,昭光通商保険サービス株式会社,,株式会社,東京都,港区,芝浦３丁目１番１号,,13,103,1080023,,,2025-11-14,清算の結了等,,,2015-10-05,1,,,,,ショウコウツウショウホケンサービス,0
1063,5010403014582,登記記録の閉鎖等,0,2025-12-09,2025-11-17,ＲＷ久喜合同会社,,合同会社,東京都,港区,赤坂２丁目１０番５号デロイトトーマツ赤坂インターナショナル株式会社内,,13,103,1070052,,,2025-11-17,清算の結了等,,,2016-03-17,1,,,,,アールダブリュークキ,0
1064,5010403027980,登記記録の閉鎖等,0,2025-12-09,2025-11-14,ローガン合同会社,,合同会社,東京都,港区,六本木１丁目６番１号泉ガーデンタワーＫＰＭＧ税理士法人内,,13,103,1060032,,,2025-11-14,清算の結了等,,,2022-06-23,1,,,,,ローガン,0
1065,5010405015678,登記記録の閉鎖等,0,2025-12-09,2025-11-17,ＲＷ久喜２一般社団法人,,その他の設立登記法人,東京都,港区,赤坂２丁目１０番５号デロイトトーマツ赤坂インターナショナル株式会社内,,13,103,1070052,,,2025-11-17,清算の結了等,,,2017-04-13,1,,,,,アールダブリュークキツー,0
1076,5010802012220,登記記録の閉鎖等,0,2025-12-09,2025-11-14,有限会社富士コピー,,有限会社,千葉県,市川市,末広２丁目１番８号,,12,203,2720121,,,2025-11-14,清算の結了等,,,2015-10-05,1,,,,,フジコピー,0
1134,5020002096419,登記記録の閉鎖等,0,2025-12-09,2025-12-03,有限会社川崎コンタクトレンズ研究所,,有限会社,神奈川県,川崎市川崎区,砂子２丁目６番地２,,14,131,2100006,,,2025-12-03,清算の結了等,,,2015-10-05,1,,,,,カワサキコンタクトレンズケンキュウショ,0
1136,5021001022852,登記記録の閉鎖等,0,2025-12-09,2025-11-18,株式会社山口高一商店,00012394,株式会社,神奈川県,秦野市,菩提４２５番地,,14,211,2591302,,,2025-11-18,清算の結了等,,,2015-10-05,1,,,,,ヤマグチタカイチショウテン,0
1141,5021002068390,登記記録の閉鎖等,0,2025-12-09,2025-11-18,有限会社長岡酒店,,有限会社,神奈川県,逗子市,山の根３丁目７番８号,,14,208,2490002,,,2025-11-18,清算の結了等,,,2015-10-05,1,,,,,ナガオカサケテン,0
1144,5030001034790,登記記録の閉鎖等,0,2025-12-09,2025-12-02,株式会社オフィスワン,,株式会社,埼玉県,草加市,草加１丁目２番２０号,,11,221,3400043,,,2025-12-02,清算の結了等,,,2015-10-05,1,,,,,オフィスワン,0
1148,5030001116226,登記記録の閉鎖等,0,2025-12-09,2025-12-01,株式会社オークス,,株式会社,埼玉県,戸田市,新曽２０９７番地１,,11,224,3350021,,,2025-12-01,合併による解散等,7030001040192,令和７年１２月１日埼玉県戸田市新曽２０９７番地１株式会社ＳＥＩＫＯＵ（7030001040192）に合併し解散,2016-09-06,1,,,,,オークス,0
1159,5030002088687,登記記録の閉鎖等,0,2025-12-09,2025-12-02,有限会社江澤開発,,有限会社,埼玉県,越谷市,大字袋山１３３３番地１６,,11,222,3430032,,,2025-12-02,清算の結了等,,,2015-10-05,1,,,,,エザワカイハツ,0
1174,5040002083877,登記記録の閉鎖等,0,2025-12-09,2025-11-11,有限会社鎌形,,有限会社,千葉県,匝瑳市,椿１６７６番地の３,,12,235,2892102,,,2025-11-11,清算の結了等,,,2015-10-05,1,,,,,カマガタ,0
1175,5040003007728,登記記録の閉鎖等,0,2025-12-09,2025-11-13,台東エステート合同会社,,合同会社,千葉県,流山市,おおたかの森南１丁目６番地の１シティハウスおおたかの森９０２,,12,220,2700139,,,2025-11-13,清算の結了等,,,2015-10-05,1,,,,,ダイトウエステート,0
1185,5070005005198,登記記録の閉鎖等,0,2025-12-09,2025-11-17,特定非営利活動法人北関東産官学研究会,,その他の設立登記法人,群馬県,桐生市,織姫町２番５号,,10,203,3760024,,,2025-11-17,清算の結了等,,,2015-10-05,1,,,,,キタカントウサンカンガクケンキュウカイ,0
1187,5080401013456,登記記録の閉鎖等,0,2025-12-09,2025-11-26,株式会社サンキョウ技建,,株式会社,静岡県,浜松市中央区,神田町１６５番地,,22,138,4328047,,,2025-11-26,清算の結了等,,,2015-10-05,1,,,,,サンキョウギケン,0
1192,5080402017778,登記記録の閉鎖等,0,2025-12-09,2025-12-03,有限会社ヤマキ,,有限会社,静岡県,掛川市,掛川４７５番地の１,,22,213,4360079,,,2025-12-03,清算の結了等,,,2015-10-05,1,,,,,ヤマキ,0
1193,5080403003208,登記記録の閉鎖等,0,2025-12-09,2025-12-05,合同会社カランコ縁,,合同会社,静岡県,浜松市中央区,和合町３１５番地の１４７０,,22,138,4338125,,,2025-12-05,清算の結了等,,,2015-12-24,1,,,,,,0
1197,5090005000569,登記記録の閉鎖等,0,2025-12-09,2025-12-04,やまなしアパレルＡＣＦ事業協同組合,,その他の設立登記法人,山梨県,甲府市,元紺屋町４８番地アンローブ工場内,,19,201,4000022,,,2025-12-04,清算の結了等,,,2015-10-05,1,,,,,ヤマナシアパレルエイシーエフ,0
1199,5110003005550,登記記録の閉鎖等,0,2025-12-09,2025-12-02,スリーイーディーワークス合同会社,,合同会社,新潟県,新潟市東区,紫竹３丁目９‐２,,15,102,9500864,,,2025-12-02,清算の結了等,,,2024-10-18,1,,,,,スリーイーディーワークス,0
1212,5120002029384,登記記録の閉鎖等,0,2025-12-09,2025-12-04,有限会社魚徳,,有限会社,大阪府,大阪市北区,天神橋５丁目４番１１号,,27,127,5300041,,,2025-12-04,清算の結了等,,,2015-10-05,1,,,,,ウオトク,0
1223,5122002009878,登記記録の閉鎖等,0,2025-12-09,2025-12-05,有限会社Ｆ．Ｋ物流,,有限会社,大阪府,東大阪市,川俣１丁目１０番１９号,,27,227,5770063,,,2025-12-05,清算の結了等,,,2015-10-05,1,,,,,,0
1225,5130001035829,登記記録の閉鎖等,0,2025-12-09,2025-12-01,松本株式会社,,株式会社,京都府,亀岡市,紺屋町８番地,,26,206,6210852,,,2025-12-01,合併による解散等,6130001035902,令和７年１２月１日京都府亀岡市紺屋町８番地株式会社隆成物産（6130001035902）に合併し解散,2015-10-05,1,,,,,マツモト,0
1226,5130001050381,登記記録の閉鎖等,0,2025-12-09,2025-11-26,株式会社ゴルフカローレ,,株式会社,京都府,八幡市,橋本意足７番１２号,,26,210,6148331,,,2025-11-26,清算の結了等,,,2015-10-05,1,,,,,ゴルフカローレ,0
1230,5130002032239,登記記録の閉鎖等,0,2025-12-09,2025-12-05,有限会社こどもの森,,有限会社,京都府,与謝郡与謝野町,字明石５１５番地の１,,26,465,6292411,,,2025-12-05,清算の結了等,,,2015-10-05,1,,,,,コドモノモリ,0
1241,5140001111471,登記記録の閉鎖等,0,2025-12-09,2025-12-04,ＹＰＭ株式会社,,株式会社,兵庫県,西宮市,熊野町１４番２号,,28,204,6638103,,,2025-12-04,清算の結了等,,,2018-10-05,1,,,,,ワイピーエム,0
1242,5140002020936,登記記録の閉鎖等,0,2025-12-09,2025-12-04,有限会社多聞,,有限会社,兵庫県,神戸市垂水区,本多聞１丁目１２番４号,,28,108,6550006,,,2025-12-04,清算の結了等,,,2015-10-05,1,,,,,タモン,0
1248,5160001009202,登記記録の閉鎖等,0,2025-12-09,2025-12-01,株式会社シムスインターナショナル,,株式会社,滋賀県,犬上郡豊郷町,大字沢字阿曽田２１５番地１,,25,441,5291175,,,2025-12-01,清算の結了等,,,2015-10-05,1,,,,,シムスインターナショナル,0
1252,5170002011718,登記記録の閉鎖等,0,2025-12-09,2025-12-05,有限会社しょらさん渡船,,有限会社,和歌山県,東牟婁郡串本町,サンゴ台１０６０番地の１１１,,30,428,6493510,,,2025-12-05,清算の結了等,,,2015-10-05,1,,,,,ショラサントセン,0
1264,5180005020491,登記記録の閉鎖等,0,2025-12-09,2025-12-03,かなで社会保険労務士法人,,その他の設立登記法人,愛知県,名古屋市東区,代官町３５番１６号第一富士ビル６階Ｃ室,,23,102,4610002,,,2025-12-03,清算の結了等,,,2024-01-16,1,,,,,カナデ,0
1267,5180302011177,登記記録の閉鎖等,0,2025-12-09,2025-12-03,小林メンテナンス工業有限会社,,有限会社,愛知県,豊橋市,東赤沢町字観音堂２９番地の１７,,23,201,4413212,,,2025-12-03,清算の結了等,,,2025-11-20,1,,,,,コバヤシメンテナンスコウギョウ,0
1268,5180302023734,登記記録の閉鎖等,0,2025-12-09,2025-12-03,有限会社モリサンチェーン,,有限会社,愛知県,豊田市,美里５丁目１８番地１０,,23,211,4710805,,,2025-12-03,清算の結了等,,,2015-10-05,1,,,,,モリサンチェーン,0
1275,5220002008007,登記記録の閉鎖等,0,2025-12-09,2025-12-05,有限会社ポストワーク,,有限会社,石川県,金沢市,矢木２丁目２２１番地,,17,201,9218066,,,2025-12-05,清算の結了等,,,2015-10-05,1,,,,,ポストワーク,0
1277,5240001002594,登記記録の閉鎖等,0,2025-12-09,2025-12-03,株式会社吉川,,株式会社,広島県,広島市中区,中町４番２４号,,34,101,7300037,,,2025-12-03,清算の結了等,,,2015-10-05,1,,,,,キッカワ,0
1285,5250001020125,登記記録の閉鎖等,0,2025-12-09,2025-12-05,秋本水産株式会社,,株式会社,山口県,長門市,仙崎１４０番地３,,35,211,7594106,,,2025-12-05,清算の結了等,,,2023-06-08,1,,,,,アキモトスイサン,0
1289,5260002014975,登記記録の閉鎖等,0,2025-12-09,2025-12-05,株式会社ＧＦＪ,,株式会社,岡山県,赤磐市,仁堀東３１８番地の１,,33,213,7012434,,,2025-12-05,清算の結了等,,,2015-10-05,1,,,,,,0
1300,5290801029989,登記記録の閉鎖等,0,2025-12-09,2025-12-03,株式会社樹来,,株式会社,福岡県,北九州市八幡東区,中央１丁目１番１２－６０５号,,40,108,8050019,,,2025-12-03,清算の結了等,,,2023-10-25,1,,,,,ジュライ,0
1302,5290802001360,登記記録の閉鎖等,0,2025-12-09,2025-12-08,有限会社観山荘,,有限会社,福岡県,北九州市小倉北区,片野２丁目１９番１８号,,40,106,8020064,,,2025-12-08,清算の結了等,,,2015-10-05,1,,,,,カンザンソウ,0
1304,5310001011695,登記記録の閉鎖等,0,2025-12-09,2025-12-04,株式会社ＮＫコーポレーション,,株式会社,長崎県,長崎市,本石灰町６番１０－４０２号,,42,201,8500901,,,2025-12-04,清算の結了等,,,2015-10-05,1,,,,,エヌケーコーポレーション,0
1306,5310002003881,登記記録の閉鎖等,0,2025-12-09,2025-12-08,有限会社長崎マネキン紹介所,,有限会社,長崎県,西彼杵郡時津町,西時津郷１３２４番地２,,42,308,8512101,,,2025-12-08,清算の結了等,,,2015-10-05,1,,,,,ナガサキマネキンショウカイジョ,0
1317,5380002010946,登記記録の閉鎖等,0,2025-12-09,2025-12-03,有限会社東高商事,,有限会社,福島県,郡山市,安積４丁目２２２番地,,07,203,9630107,,,2025-12-03,合併による解散等,8390002015834,令和７年１２月１日山形県寒河江市大字寒河江９３番地株式会社吉成商事（8390002015834）に合併し解散,2015-10-05,1,,,,,トウコウショウジ,0
1318,5390002009806,登記記録の閉鎖等,0,2025-12-09,2025-12-03,有限会社ミック,,有限会社,山形県,鶴岡市,みどり町１０番１８号,,06,203,9970046,,,2025-12-03,清算の結了等,,,2015-10-05,1,,,,,ミック,0
1342,6010001147651,登記記録の閉鎖等,0,2025-12-09,2025-11-14,株式会社ＩＫＣ,,株式会社,東京都,港区,赤坂６丁目４番１１号,,13,103,1070052,,,2025-11-14,清算の結了等,,,2015-10-05,1,,,,,アイケーシー,0
1352,6010401147838,登記記録の閉鎖等,0,2025-12-09,2025-11-14,株式会社ＯＭＷ企画,,株式会社,東京都,港区,麻布十番２丁目１２－１０－６０３,,13,103,1060045,,,2025-11-14,清算の結了等,,,2019-09-04,1,,,,,オーエムダブリューキカク,0
1353,6010401152540,登記記録の閉鎖等,0,2025-12-09,2025-12-01,株式会社スペシャルサンクス,,株式会社,大阪府,吹田市,広芝町１０番８号,,27,205,5640052,,,2025-12-01,清算の結了等,,,2020-04-30,1,,,,,スペシャルサンクス,0
1362,6010405014654,登記記録の閉鎖等,0,2025-12-09,2025-11-17,ＲＷ久喜１一般社団法人,,その他の設立登記法人,東京都,港区,赤坂２丁目１０番５号デロイトトーマツ赤坂インターナショナル株式会社内,,13,103,1070052,,,2025-11-17,清算の結了等,,,2016-03-15,1,,,,,アールダブリュークキワン,0
1375,6010802014372,登記記録の閉鎖等,0,2025-12-09,2025-12-01,有限会社睦電機工業,,有限会社,東京都,大田区,西糀谷１丁目１５番１１号,,13,111,1440034,,,2025-12-01,清算の結了等,,,2015-10-05,1,,,,,ムツミデンキコウギョウ,0
1377,6010901016468,登記記録の閉鎖等,0,2025-12-09,2025-12-08,株式会社未来樹,,株式会社,東京都,世田谷区,下馬５丁目１８番１６号,,13,112,1540002,,,2025-12-08,清算の結了等,,,2015-10-05,1,,,,,ミライジュ,0
1388,6011003012406,登記記録の閉鎖等,0,2025-12-09,2025-11-13,ＡＫアセットマネジメント合同会社,,合同会社,東京都,渋谷区,恵比寿２丁目２５番１９－３０３号ザ・サンメゾン広尾エルド,,13,113,1500013,,,2025-11-13,清算の結了等,,,2021-03-12,1,,,,,エーケーアセットマネジメント,0
1390,6011101042676,登記記録の閉鎖等,0,2025-12-09,2025-12-03,株式会社ジェイ．シー．エス．,,株式会社,東京都,新宿区,四谷坂町４番８号,,13,104,1600002,,,2025-12-03,合併による解散等,3130001017242,令和７年１１月２７日京都市下京区間之町通六条上ル塗師屋町１２０番地株式会社好日居（3130001017242）に合併し解散,2015-10-05,1,,,,,ジェイシーエス,0
1426,6020001136950,登記記録の閉鎖等,0,2025-12-09,2025-12-03,ゼタテクノロジーズ株式会社,,株式会社,神奈川県,横浜市港北区,新横浜２丁目２番地８,,14,109,2220033,,,2025-12-03,清算の結了等,,,2020-08-05,1,,,,,ゼタテクノロジーズ,0
1427,6020001154267,登記記録の閉鎖等,0,2025-12-09,2025-12-03,株式会社ＬＫｄａｎｃｅ,,株式会社,神奈川県,横浜市保土ケ谷区,岩井町１番地７アーバン保土ヶ谷駅ビル５Ｆ,,14,106,2400023,,,2025-12-03,清算の結了等,,,2023-11-06,1,,,,,エルケーダンス,0
1436,6020003010922,登記記録の閉鎖等,0,2025-12-09,2025-12-05,ディーマーケティングジャパン合同会社,,合同会社,神奈川県,横浜市南区,井土ケ谷中町３０番地６,,14,105,2320052,,,2025-12-05,清算の結了等,,,2016-02-12,1,,,,,ディーマーケティングジャパン,0
1450,6030001145067,登記記録の閉鎖等,0,2025-12-09,2025-12-03,株式会社Ｒｅｓｅａｒｃｈ,,株式会社,東京都,中央区,日本橋室町１丁目１１番１２号日本橋水野ビル７階,,13,102,1030022,,,2025-12-03,合併による解散等,9030001080468,令和７年１１月２３日埼玉県川口市大字安行藤八３３９番地小櫃ビル株式会社創栄（9030001080468）に合併し解散,2021-11-01,1,,,,,リサーチ,0
1461,6040001075552,登記記録の閉鎖等,0,2025-12-09,2025-11-17,株式会社黒田不動産鑑定,,株式会社,千葉県,木更津市,中央１丁目４番９号,,12,206,2920067,,,2025-11-17,清算の結了等,,,2015-10-05,1,,,,,クロダフドウサンカンテイ,0
1466,6040002010186,登記記録の閉鎖等,0,2025-12-09,2025-11-06,有限会社ブルームーン,,有限会社,千葉県,千葉市稲毛区,稲毛３丁目１５番１９号,,12,103,2630034,,,2025-11-06,清算の結了等,,,2015-10-05,1,,,,,ブルームーン,0
1468,6040002093578,登記記録の閉鎖等,0,2025-12-09,2025-11-12,有限会社たびや商店,,有限会社,千葉県,柏市,大井１８４９番地５,,12,217,2770902,,,2025-11-12,清算の結了等,,,2015-10-05,1,,,,,タビヤショウテン,0
1477,6060001030241,登記記録の閉鎖等,0,2025-12-09,2025-12-05,株式会社ネクストプロジェクト,,株式会社,栃木県,栃木市,川原田町１２５８番地２,,09,203,3280123,,,2025-12-05,清算の結了等,,,2018-02-13,1,,,,,ネクストプロジェクト,0
1502,6100001035723,登記記録の閉鎖等,0,2025-12-09,2025-12-04,ＰＬＡＹＯＮ株式会社,,株式会社,長野県,岡谷市,本町３丁目１１番１５号ポレスター岡谷１１０３号,,20,204,3940028,,,2025-12-04,清算の結了等,,,2022-09-28,1,,,,,プレイオン,0
1504,6110001003332,登記記録の閉鎖等,0,2025-12-09,2025-12-01,津野商事株式会社,,株式会社,新潟県,新潟市中央区,上近江３丁目２番１９号,,15,103,9500973,,,2025-12-01,合併による解散等,1110002001397,令和７年１２月１日新潟市中央区上近江三丁目２番２２号株式会社近江自動車工業（1110002001397）に合併し解散,2015-10-05,1,,,,,ツノショウジ,0
1515,6120002075568,登記記録の閉鎖等,0,2025-12-09,2025-12-05,有限会社ヤマトネットワーク,,有限会社,大阪府,交野市,倉治２丁目１９番８号,,27,230,5760051,,,2025-12-05,清算の結了等,,,2015-10-05,1,,,,,ヤマトネットワーク,0
1534,6122002013350,登記記録の閉鎖等,0,2025-12-09,2025-12-01,有限会社音田鉄工所,,有限会社,大阪府,八尾市,西弓削２丁目１８１番地,,27,212,5810035,,,2025-12-01,清算の結了等,,,2015-10-05,1,,,,,オトダテッコウショ,0
1535,6130001021043,登記記録の閉鎖等,0,2025-12-09,2025-12-04,システムマネジメント株式会社,,株式会社,京都府,京都市下京区,和泉屋町１６３－１木屋町ビル５０１,,26,106,6008014,,,2025-12-04,清算の結了等,,,2015-10-05,1,,,,,システムマネジメント,0
1547,6140001073001,登記記録の閉鎖等,0,2025-12-09,2025-12-04,株式会社レフトフィールド,,株式会社,兵庫県,芦屋市,東山町１２番７号,,28,206,6590091,,,2025-12-04,合併による解散等,5120001182498,令和７年１１月３０日大阪市福島区海老江一丁目９番１３号株式会社グランプラス（5120001182498）に合併し解散,2015-10-05,1,,,,,レフトフィールド,0
1551,6140002001340,登記記録の閉鎖等,0,2025-12-09,2025-12-04,有限会社絵芯社,,有限会社,兵庫県,神戸市東灘区,御影郡家２丁目６番１２号,,28,101,6580048,,,2025-12-04,清算の結了等,,,2015-10-05,1,,,,,カイシンシャ,0
1562,6180001165364,登記記録の閉鎖等,0,2025-12-09,2025-12-01,株式会社Ｄ．Ｂ．Ａ,,株式会社,愛知県,名古屋市中区,錦２丁目１７番３０号河越ビル９０１,,23,106,4600003,,,2025-12-01,清算の結了等,,,2025-02-10,1,,,,,ドラゴンズブルーエージェンシー,0
1571,6180301038757,登記記録の閉鎖等,0,2025-12-09,2025-12-02,株式会社シンデレラ,,株式会社,愛知県,安城市,御幸本町１０番１５号,,23,212,4460032,,,2025-12-02,清算の結了等,,,2024-06-19,1,,,,,シンデレラ,0
1581,6230002000556,登記記録の閉鎖等,0,2025-12-09,2025-12-04,有限会社エム・シー・カンパニー,,有限会社,富山県,富山市,室町通り１丁目４番１５号,,16,201,9300051,,,2025-12-04,清算の結了等,,,2015-10-05,1,,,,,エムシーカンパニー,0
1582,6240001003699,登記記録の閉鎖等,0,2025-12-09,2025-12-03,三洋コーテック株式会社,,株式会社,広島県,広島市中区,東白島町１９－３第２イノウエビル９０３,,34,101,7300004,,,2025-12-03,清算の結了等,,,2015-10-05,1,,,,,サンヨウコーテック,0
1583,6240001060212,登記記録の閉鎖等,0,2025-12-09,2025-12-02,株式会社岡井鮮魚店,,株式会社,広島県,広島市中区,江波南２丁目５番１号,,34,101,7300835,,,2025-12-02,清算の結了等,,,2022-08-09,1,,,,,オカイセンギョテン,0
1608,6310002015950,登記記録の閉鎖等,0,2025-12-09,2025-12-05,有限会社イケダオート,,有限会社,長崎県,諫早市,森山町田尻１３９５番地,,42,204,8540204,,,2025-12-05,清算の結了等,,,2015-10-05,1,,,,,,0
1625,6420001010867,登記記録の閉鎖等,0,2025-12-09,2025-11-27,株式会社ＭＥＤＩＡＭａｋｅｒ,,株式会社,青森県,青森市,浪岡福田２丁目１０番地２,,02,201,0381306,,,2025-11-27,清算の結了等,,,2015-10-05,1,,,,,メディアメーカー,0
1627,6430001034015,登記記録の閉鎖等,0,2025-12-09,2025-12-02,株式会社戸島商店,,株式会社,北海道,札幌市北区,北二十条西５丁目１８番９０４,,01,102,0010020,,,2025-12-02,清算の結了等,,,2015-10-05,1,,,,,トシマショウテン,0
1631,6430002019923,登記記録の閉鎖等,0,2025-12-09,2025-12-02,有限会社メンズサロンジロー,,有限会社,北海道,札幌市東区,北十八条東７丁目１番３１号,,01,103,0650018,,,2025-12-02,清算の結了等,,,2015-10-05,1,,,,,メンズサロンジロー,0
1632,6430003014171,登記記録の閉鎖等,0,2025-12-09,2025-12-02,フォルトシュリット合同会社,,合同会社,北海道,札幌市東区,伏古八条２丁目９番２４号,,01,103,0070868,,,2025-12-02,清算の結了等,,,2022-08-09,1,,,,,フォルトシュリット,0
1640,6470001004105,登記記録の閉鎖等,0,2025-12-09,2025-12-01,屋島マリーナ株式会社,,株式会社,香川県,高松市,庵治町６３９１番地,,37,201,7610130,,,2025-12-01,合併による解散等,1470001001008,令和７年１１月３０日香川県高松市庵治町６３９１番地香川マリン株式会社（1470001001008）に合併し解散,2015-10-05,1,,,,,ヤシママリーナ,0
1662,7010002050770,登記記録の閉鎖等,0,2025-12-09,2025-12-01,株式会社鋒柳,,株式会社,愛知県,豊橋市,八町通５丁目９０番地,,23,201,4400806,,,2025-12-01,清算の結了等,,,2015-10-05,1,,,,,ホウリュウ,0
1726,7011801041670,登記記録の閉鎖等,0,2025-12-09,2025-12-04,東京迅馳株式会社,,株式会社,東京都,足立区,竹の塚２丁目２９番１３号,,13,121,1210813,,,2025-12-04,清算の結了等,,,2022-12-14,1,,,,,トウキョウジンハセ,0
1749,7021001040951,登記記録の閉鎖等,0,2025-12-09,2025-11-18,株式会社早川質店,,株式会社,神奈川県,横須賀市,安浦町３丁目８番地,,14,201,2380012,,,2025-11-18,清算の結了等,,,2015-10-05,1,,,,,ハヤカワシチテン,0
1757,7030001073903,登記記録の閉鎖等,0,2025-12-09,2025-12-01,栄光ビジネスフオーム株式会社,,株式会社,埼玉県,さいたま市北区,奈良町１６番地１２,,11,102,3310822,,,2025-12-01,清算の結了等,,,2015-10-05,1,,,,,エイコウビジネスフォーム,0
1762,7030001138409,登記記録の閉鎖等,0,2025-12-09,2025-12-01,株式会社関根エンタープライズＴＬＳ,,株式会社,埼玉県,越谷市,大字増森２０７番地１２,,11,222,3430012,,,2025-12-01,合併による解散等,7030001065231,令和７年１２月１日埼玉県越谷市大字増森２０７番地１２株式会社関根エンタープライズ（7030001065231）に合併し解散,2020-09-24,1,,,,,セキネエンタープライズティーエルエス,0
1764,7030001159999,登記記録の閉鎖等,0,2025-12-09,2025-12-02,株式会社ＹＯＳＨＩＥ　ＳＡＳＡＫＩ,,株式会社,埼玉県,入間市,鍵山３丁目５番１０号,,11,225,3580004,,,2025-12-02,清算の結了等,,,2024-04-24,1,,,,,ヨシエササキ,0
1770,7030002093330,登記記録の閉鎖等,0,2025-12-09,2025-12-02,有限会社サンキュー技研,,有限会社,埼玉県,鶴ヶ島市,大字上広谷７１８番地９,,11,241,3502203,,,2025-12-02,清算の結了等,,,2015-10-05,1,,,,,サンキューギケン,0
1772,7030002119416,登記記録の閉鎖等,0,2025-12-09,2025-12-01,有限会社ケーワンエヌ,,有限会社,埼玉県,秩父市,柳田町７番９号,,11,207,3680015,,,2025-12-01,清算の結了等,,,2015-10-05,1,,,,,ケーワンエヌ,0
1786,7040003013914,登記記録の閉鎖等,0,2025-12-09,2025-11-17,合同会社Ｍ－ＺＥＮＳＵＫＥ,,合同会社,千葉県,千葉市稲毛区,稲毛東４丁目８番１８－１０５号,,12,103,2630031,,,2025-11-17,清算の結了等,,,2019-08-23,1,,,,,エムゼンスケ,0
1800,7080002007525,登記記録の閉鎖等,0,2025-12-09,2025-12-02,有限会社青木事務所,,有限会社,静岡県,静岡市葵区,本通１丁目３番２号ひきのビル３階,,22,101,4200064,,,2025-12-02,清算の結了等,,,2015-10-05,1,,,,,アオキジムショ,0
1802,7080102015295,登記記録の閉鎖等,0,2025-12-09,2025-12-05,有限会社山崎ホーム企画,00068034,有限会社,静岡県,富士市,中野４９０番地の７０,,22,210,4170809,,,2025-12-05,清算の結了等,,,2015-10-05,1,,,,,ヤマザキホームキカク,0
1806,7090001008424,登記記録の閉鎖等,0,2025-12-09,2025-12-03,株式会社タナカ測量コンサルタント,,株式会社,山梨県,都留市,桂町１４４７番地６,,19,204,4020034,,,2025-12-03,清算の結了等,,,2015-10-05,1,,,,,タナカソクリョウコンサルタント,0
1811,7110001029855,登記記録の閉鎖等,0,2025-12-09,2025-12-01,株式会社日の出自動車ホールディングス,,株式会社,新潟県,新潟市東区,中興野７番５３号,,15,102,9500803,,,2025-12-01,合併による解散等,9110001004732,令和７年１２月１日新潟市東区中興野７番５３号株式会社日の出自動車（9110001004732）に合併し解散,2015-10-05,1,,,,,ヒノデジドウシャホールディングス,0
1816,7120001031876,登記記録の閉鎖等,0,2025-12-09,2025-12-04,株式会社横井工務店,,株式会社,大阪府,大阪市住之江区,浜口東３丁目１０番２０号,,27,125,5590002,,,2025-12-04,清算の結了等,,,2015-10-05,1,,,,,ヨコイコウムテン,0
1845,7140001065195,登記記録の閉鎖等,0,2025-12-09,2025-12-05,株式会社イー・リラックス,,株式会社,兵庫県,姫路市,別所町別所２丁目６６番地,,28,201,6710221,,,2025-12-05,清算の結了等,,,2015-10-05,1,,,,,イーリラックス,0
1861,7180001137288,登記記録の閉鎖等,0,2025-12-09,2025-12-05,株式会社フェリシア,,株式会社,愛知県,名古屋市緑区,有松１８０４番地,,23,114,4580924,,,2025-12-05,清算の結了等,,,2019-07-09,1,,,,,フェリシア,0
1862,7180001152824,登記記録の閉鎖等,0,2025-12-09,2025-12-04,株式会社ＪＡＰＩＴＡ,,株式会社,愛知県,名古屋市瑞穂区,南山町１９番地の１・６０７号,,23,108,4670023,,,2025-12-04,清算の結了等,,,2022-09-01,1,,,,,ジャピタ,0
1865,7180002081353,登記記録の閉鎖等,0,2025-12-09,2025-12-05,有限会社森製作,,有限会社,愛知県,稲沢市,坂田町北畑３番地の２,,23,220,4928454,,,2025-12-05,清算の結了等,,,2015-10-05,1,,,,,モリセイサク,0
1866,7180005018550,登記記録の閉鎖等,0,2025-12-09,2025-12-03,税理士法人プライオリティ,,その他の設立登記法人,愛知県,名古屋市中区,金山１丁目１４番１８号Ａ－ＰＬＡＣＥ金山４階,,23,106,4600022,,,2025-12-03,清算の結了等,,,2019-12-03,1,,,,,プライオリティ,0
1877,7190002022637,登記記録の閉鎖等,0,2025-12-09,2025-12-05,四日市鈑金整備有限会社,,有限会社,三重県,四日市市,西富田町２４９番地２ライオンズ四日市富田マークスフォート８０２号,,24,202,5108024,,,2025-12-05,清算の結了等,,,2015-10-05,1,,,,,,0
1879,7200002001606,登記記録の閉鎖等,0,2025-12-09,2025-12-01,有限会社ケイ・アイ・メディカル,,有限会社,岐阜県,岐阜市,元町４丁目２０番地,,21,201,5008185,,,2025-12-01,清算の結了等,,,2015-10-05,1,,,,,ケイアイメディカル,0
1889,7260001020898,登記記録の閉鎖等,0,2025-12-09,2025-12-03,株式会社もりとう工芸,,株式会社,岡山県,勝田郡勝央町,黒坂４０番地２,,33,622,7094323,,,2025-12-03,清算の結了等,,,2015-10-05,1,,,,,モリトウコウゲイ,0
1915,7340005000938,登記記録の閉鎖等,0,2025-12-09,2025-12-02,鹿児島県地質調査業協同組合,,その他の設立登記法人,鹿児島県,鹿児島市,新栄町３１番２号,,46,201,8900072,,,2025-12-02,清算の結了等,,,2015-10-05,1,,,,,カゴシマケンチシツチョウサギョウ,0
1922,7380002001885,登記記録の閉鎖等,0,2025-12-09,2025-12-03,有限会社鈴義工務店,,有限会社,福島県,福島市,飯坂町字筑前１４番地の１０,,07,201,9600201,,,2025-12-03,清算の結了等,,,2015-10-05,1,,,,,スズヨシコウムテン,0
1941,7490001006544,登記記録の閉鎖等,0,2025-12-09,2025-12-04,株式会社タクト,,株式会社,高知県,香美市,土佐山田町百石町１丁目１番４号,,39,212,7820035,,,2025-12-04,清算の結了等,,,2015-10-05,1,,,,,タクト,0
1956,8010102001656,登記記録の閉鎖等,0,2025-12-09,2025-12-03,有限会社小布施工業,,有限会社,東京都,八王子市,長房町８９５番地の７,,13,201,1930824,,,2025-12-03,清算の結了等,,,2015-10-05,1,,,,,オブセコウギョウ,0
1958,8010401017915,登記記録の閉鎖等,0,2025-12-09,2025-12-04,ＣＢグループマネジメント株式会社,,株式会社,東京都,港区,南青山２丁目２番３号,,13,103,1070062,,,2025-12-04,合併による解散等,1010001250823,令和７年１１月１日東京都千代田区内幸町一丁目３番３号内幸町ダイビルＣＢグループマネジメント株式会社（1010001250823）に合併し解散,2015-10-05,1,,,,,シービーグループマネジメント,0
1966,8010405019957,登記記録の閉鎖等,0,2025-12-09,2025-11-17,一般社団法人三原橋ホールディングス,,その他の設立登記法人,東京都,港区,西新橋１丁目２番９号メンターキャピタル税理士法人内,,13,103,1050003,,,2025-11-17,清算の結了等,,,2021-06-28,1,,,,,ミハラバシホールディングス,0
1978,8011001121371,登記記録の閉鎖等,0,2025-12-09,2025-11-13,神六再開発株式会社,,株式会社,東京都,渋谷区,道玄坂１丁目２１番１号,,13,113,1500043,,,2025-11-13,清算の結了等,,,2018-03-28,1,,,,,ジンロクサイカイハツ,0
1997,8012401011501,登記記録の閉鎖等,0,2025-12-09,2025-12-04,株式会社嶋屋,,株式会社,東京都,武蔵野市,吉祥寺南町１丁目３番４号吉祥寺南口ビル９階９０３号,,13,203,1800003,,,2025-12-04,清算の結了等,,,2015-10-05,1,,,,,シマヤ,0
2000,8012401024528,登記記録の閉鎖等,0,2025-12-09,2025-12-01,ＴＵＲＢＡＮ　ＳＨＥＬＬ　ＦＡＭＩＬＹ株式会社,,株式会社,東京都,国分寺市,本町２丁目２５番７号フォレスト１ビル４０１,,13,214,1850012,,,2025-12-01,合併による解散等,8012401017498,令和７年１２月１日東京都国分寺市本町四丁目１番１０号シティハイツＢ１株式会社猿屋一家（8012401017498）に合併し解散,2015-10-05,1,,,,,ターバンシェルファミリー,0
2004,8012703002495,登記記録の閉鎖等,0,2025-12-09,2025-11-21,Ｍｅｒｃｙ合同会社,,合同会社,東京都,西東京市,ひばりが丘北４丁目３番１３号,,13,229,2020002,,,2025-11-21,清算の結了等,,,2022-07-14,1,,,,,マーシー,0
2021,8020002003660,登記記録の閉鎖等,0,2025-12-09,2025-12-05,有限会社ロートレック,,有限会社,神奈川県,横浜市泉区,岡津町１５００番地の２ルネ戸塚弥生台３１７号,,14,116,2450003,,,2025-12-05,清算の結了等,,,2015-10-05,1,,,,,ロートレック,0
2029,8030001074537,登記記録の閉鎖等,0,2025-12-09,2025-12-02,協誠株式会社,,株式会社,埼玉県,川口市,南前川２丁目１１番２６号,,11,203,3330846,,,2025-12-02,清算の結了等,,,2015-10-05,1,,,,,キョウセイ,0
2031,8030001092019,登記記録の閉鎖等,0,2025-12-09,2025-12-02,ＦＬＳ東日本株式会社,,株式会社,埼玉県,川口市,上青木６丁目３０番１１号,,11,203,3330844,,,2025-12-02,清算の結了等,,,2015-10-05,1,,,,,エフエルエスヒガシニホン,0
2034,8030002055593,登記記録の閉鎖等,0,2025-12-09,2025-12-01,有限会社オフィスエヌ,,有限会社,埼玉県,桶川市,若宮２丁目１９番５号,,11,231,3630022,,,2025-12-01,清算の結了等,,,2015-10-05,1,,,,,オフィスエヌ,0
2047,8040001110720,登記記録の閉鎖等,0,2025-12-09,2025-12-05,株式会社三鈴工業,,株式会社,神奈川県,横浜市瀬谷区,阿久和南２丁目５番６号,,14,114,2460026,,,2025-12-05,清算の結了等,,,2019-09-12,1,,,,,サンリンコウギョウ,0
2051,8040002013897,登記記録の閉鎖等,0,2025-12-09,2025-11-14,有限会社福田建設輸送,,有限会社,千葉県,千葉市若葉区,川井町４４４番地,,12,104,2650062,,,2025-11-14,清算の結了等,,,2015-10-05,1,,,,,,0
2065,8050002037466,登記記録の閉鎖等,0,2025-12-09,2025-12-02,有限会社メリーコンピューター,,有限会社,茨城県,取手市,双葉１丁目４番１２号,,08,217,3001501,,,2025-12-02,清算の結了等,,,2015-10-05,1,,,,,メリーコンピューター,0
2066,8050003007740,登記記録の閉鎖等,0,2025-12-09,2025-12-03,ステラ・ナビス合同会社,,合同会社,茨城県,つくば市,竹園３丁目５－３,,08,220,3050032,,,2025-12-03,清算の結了等,,,2023-08-21,1,,,,,ステラナビス,0
2067,8060002005380,登記記録の閉鎖等,0,2025-12-09,2025-12-05,有限会社園部彫刻,,有限会社,栃木県,宇都宮市,下荒針町３３４０番地３,,09,201,3210346,,,2025-12-05,清算の結了等,,,2015-10-05,1,,,,,ソノベチョウコク,0
2077,8100002035258,登記記録の閉鎖等,0,2025-12-09,2025-12-03,有限会社タツミ油化,,有限会社,長野県,上伊那郡辰野町,大字樋口８８７番地２,,20,382,3990425,,,2025-12-03,清算の結了等,,,2015-10-05,1,,,,,タツミユカ,0
2081,8120001144801,登記記録の閉鎖等,0,2025-12-09,2025-12-04,株式会社ＫＪコーポレーション,,株式会社,大阪府,大阪市浪速区,日本橋東３丁目６番２－１００４号,,27,111,5560006,,,2025-12-04,清算の結了等,,,2015-10-05,1,,,,,ケイジェイコーポレーション,0
2104,8130001045817,登記記録の閉鎖等,0,2025-12-09,2025-12-01,株式会社はんなり氷,,株式会社,京都府,京都市南区,吉祥院石原開町３５番地桂川＿野ビル１階,00117011,26,107,6018365,,,2025-12-01,合併による解散等,7140001130197,令和７年１２月１日京都市南区吉祥院石原開町３５株式会社アイスマン（7140001130197）に合併し解散,2015-10-05,1,,,,,ハンナリゴオリ,0
2117,8150001001520,登記記録の閉鎖等,0,2025-12-09,2025-12-05,トップ技術コンサルタント株式会社,,株式会社,奈良県,奈良市,法蓮町１６３番地の１新大宮愛正寺ビル,,29,201,6308113,,,2025-12-05,清算の結了等,,,2015-10-05,1,,,,,トップギジュツコンサルタント,0
2122,8160002002450,登記記録の閉鎖等,0,2025-12-09,2025-12-04,有限会社西村商会,,有限会社,福井県,福井市,大森町第９９号１８番地４,,18,201,9103634,,,2025-12-04,清算の結了等,,,2015-10-05,1,,,,,ニシムラショウカイ,0
2141,8180005009524,登記記録の閉鎖等,0,2025-12-09,2025-12-04,医療法人和康会,,その他の設立登記法人,愛知県,一宮市,本町３丁目８番１１号,,23,203,4910859,,,2025-12-04,清算の結了等,,,2015-10-05,1,,,,,ワコウカイ,0
2145,8200001038870,登記記録の閉鎖等,0,2025-12-09,2025-12-03,株式会社ＳＫサポート,,株式会社,岐阜県,大垣市,墨俣町さい川１３９番地,,21,202,5030106,,,2025-12-03,清算の結了等,,,2021-07-06,1,,,,,エスケーサポート,0
2149,8210002012345,登記記録の閉鎖等,0,2025-12-09,2025-12-04,有限会社神谷運送,,有限会社,福井県,丹生郡越前町,米ノ第６２号６８番地,,18,423,9160426,,,2025-12-04,清算の結了等,,,2015-10-05,1,,,,,カミヤウンソウ,0
2160,8260002009304,登記記録の閉鎖等,0,2025-12-09,2025-12-05,有限会社マサキノ,,有限会社,岡山県,岡山市北区,中央町４番６号,,33,101,7000836,,,2025-12-05,清算の結了等,,,2015-10-05,1,,,,,マサキノ,0
2163,8280002002736,登記記録の閉鎖等,0,2025-12-09,2025-12-05,有限会社中国企画,,有限会社,島根県,松江市,美保関町片江１７３７番地,,32,201,6901315,,,2025-12-05,清算の結了等,,,2015-10-05,1,,,,,チュウゴクキカク,0
2170,8290002034803,登記記録の閉鎖等,0,2025-12-09,2025-11-26,有限会社ライフサポート,,有限会社,福岡県,古賀市,小竹５８３番地６,,40,223,8113135,,,2025-11-26,清算の結了等,,,2015-10-05,1,,,,,ライフサポート,0
2175,8300003000513,登記記録の閉鎖等,0,2025-12-09,2025-12-05,合名会社金星堂,,合名会社,佐賀県,三養基郡基山町,大字宮浦１８５番地１,,41,341,8410204,,,2025-12-05,清算の結了等,,,2015-10-05,1,,,,,キンセイドウ,0
2195,8420002011953,登記記録の閉鎖等,0,2025-12-09,2025-12-03,有限会社吉企画,,有限会社,青森県,五所川原市,金木町中柏木鎧石２６３番地１,,02,205,0370205,,,2025-12-03,清算の結了等,,,2015-10-05,1,,,,,ヨシキカク,0
2204,8430001086681,登記記録の閉鎖等,0,2025-12-09,2025-12-01,株式会社Ｈ．Ｅフードウェイズ,,株式会社,北海道,札幌市中央区,南七条西１丁目２１番地１第３弘安ビル８階,,01,101,0640807,,,2025-12-01,合併による解散等,5430001086734,令和７年１２月１日札幌市中央区南七条西一丁目２１番地１第３弘安ビル８階株式会社Ｈ．Ｅエステート（5430001086734）に合併し解散,2022-05-23,1,,,,,エイチイーフードウェイズ,0
2234,9010402032474,登記記録の閉鎖等,0,2025-12-09,2025-11-17,パレスフロント有限会社,,有限会社,東京都,港区,赤坂２丁目１７番７号赤坂溜池タワー９階,,13,103,1070052,,,2025-11-17,清算の結了等,,,2015-10-05,1,,,,,パレスフロント,0
2239,9010502000835,登記記録の閉鎖等,0,2025-12-09,2025-12-01,有限会社石丸設計事務所,,有限会社,埼玉県,鴻巣市,宮前５９３番地４,,11,217,3650051,,,2025-12-01,清算の結了等,,,2015-10-05,1,,,,,イシマルセッケイジムショ,0
2249,9010802011409,登記記録の閉鎖等,0,2025-12-09,2025-11-18,有限会社ハクサン製作所,,有限会社,東京都,大田区,下丸子４丁目１７番１９号,,13,111,1460092,,,2025-11-18,清算の結了等,,,2015-10-05,1,,,,,ハクサンセイサクショ,0
2268,9011101108730,登記記録の閉鎖等,0,2025-12-09,2025-11-13,株式会社ドバイ総合研究所,,株式会社,東京都,新宿区,新宿１丁目３６番２号新宿第七葉山ビル３階,,13,104,1600022,,,2025-11-13,清算の結了等,,,2024-09-19,1,,,,,ドバイソウゴウケンキュウショ,0
2278,9011601005411,登記記録の閉鎖等,0,2025-12-09,2025-12-04,株式会社ニューパッケージ・センター,,株式会社,東京都,練馬区,北町１丁目１７番１５号,,13,120,1790081,,,2025-12-04,清算の結了等,,,2015-10-05,1,,,,,ニューパッケージセンター,0
2285,9011801010310,登記記録の閉鎖等,0,2025-12-09,2025-12-04,株式会社東冠,,株式会社,東京都,足立区,本木１丁目１３番７号,,13,121,1230853,,,2025-12-04,合併による解散等,7030001014262,令和７年１２月１日埼玉県さいたま市大宮区上小町５３５番地サイカンシステム株式会社（7030001014262）に合併し解散,2015-10-05,1,,,,,トウカン,0
2286,9011801012100,登記記録の閉鎖等,0,2025-12-09,2025-12-02,丸一運輸株式会社,,株式会社,東京都,足立区,花畑４丁目１８番１８号,,13,121,1210061,,,2025-12-02,清算の結了等,,,2015-10-05,1,,,,,マルイチウンユ,0
2305,9020002070997,登記記録の閉鎖等,0,2025-12-09,2025-11-18,有限会社ジー・エー・ティ・インターナショナル,,有限会社,神奈川県,平塚市,万田２丁目１４番３号,,14,203,2540913,,,2025-11-18,清算の結了等,,,2015-10-05,1,,,,,ジーエーティインターナショナル,0
2309,9021001029357,登記記録の閉鎖等,0,2025-12-09,2025-11-17,株式会社ＴＤＣジャパン,,株式会社,神奈川県,海老名市,柏ケ谷７０１番地の１－６２９,,14,215,2430402,,,2025-11-17,清算の結了等,,,2015-10-05,1,,,,,,0
2319,9030002047821,登記記録の閉鎖等,0,2025-12-09,2025-12-01,有限会社ほていや,,有限会社,埼玉県,八潮市,大字鶴ケ曽根９１１番地２ほていやビル３Ｆ,,11,234,3400802,,,2025-12-01,清算の結了等,,,2015-10-05,1,,,,,ホテイヤ,0
2321,9040001091340,登記記録の閉鎖等,0,2025-12-09,2025-11-17,株式会社出口工業,,株式会社,千葉県,野田市,山崎２０６２番地２,,12,208,2780022,,,2025-11-17,清算の結了等,,,2015-10-05,1,,,,,デグチコウギョウ,0
2328,9040002016214,登記記録の閉鎖等,0,2025-12-09,2025-11-17,有限会社エムツーライン,,有限会社,千葉県,千葉市若葉区,大宮台２丁目４番９号,,12,104,2640015,,,2025-11-17,清算の結了等,,,2015-10-05,1,,,,,エムツーライン,0
2336,9060005009270,登記記録の閉鎖等,0,2025-12-09,2025-12-04,とちぎ県代行運転協同組合,,その他の設立登記法人,栃木県,宇都宮市,吉野２丁目８番２３号,,09,201,3200838,,,2025-12-04,清算の結了等,,,2016-12-14,1,,,,,トチギケンダイコウウンテン,0
2351,9100002006373,登記記録の閉鎖等,0,2025-12-09,2025-11-21,有限会社新町建設,,有限会社,長野県,長野市,信州新町山上条２０番地,,20,201,3812402,,,2025-11-21,清算の結了等,,,2015-10-05,1,,,,,シンマチケンセツ,0
2373,9120102023705,登記記録の閉鎖等,0,2025-12-09,2025-10-28,有限会社センシュウヤスダインフォメーションセンター,,有限会社,大阪府,泉佐野市,羽倉崎２丁目５番２－３０７号,,27,213,5980046,,,2025-10-28,清算の結了等,,,2015-10-05,1,,,,,センシュウヤスダインフォメーションセンター,0
2402,9160001009933,登記記録の閉鎖等,0,2025-12-09,2025-12-05,三協株式会社,,株式会社,滋賀県,東近江市,猪子町５８番地,,25,213,5211223,,,2025-12-05,清算の結了等,,,2015-10-05,1,,,,,サンキョウ,0
2415,9180003022338,登記記録の閉鎖等,0,2025-12-09,2025-12-04,合同会社声明,,合同会社,愛知県,一宮市,新生３丁目６番３０号,,23,203,4910912,,,2025-12-04,清算の結了等,,,2021-04-09,1,,,,,,0
2419,9180301010944,登記記録の閉鎖等,0,2025-12-09,2025-12-04,株式会社城所保険企画,,株式会社,愛知県,蒲郡市,竹谷町松田７４番地２１６,,23,214,4430046,,,2025-12-04,清算の結了等,,,2015-10-05,1,,,,,キドコロホケンキカク,0
2422,9190002005499,登記記録の閉鎖等,0,2025-12-09,2025-12-02,ナガセ有限会社,,有限会社,三重県,尾鷲市,中井町１１番７号,,24,209,5193605,,,2025-12-02,清算の結了等,,,2015-10-05,1,,,,,ナガセ,0
2435,9250001003290,登記記録の閉鎖等,0,2025-12-09,2025-12-02,株式会社シンコー,,株式会社,山口県,宇部市,東梶返３丁目１０番４５－６号,,35,202,7550039,,,2025-12-02,清算の結了等,,,2015-10-05,1,,,,,シンコー,0
2436,9250002016060,登記記録の閉鎖等,0,2025-12-09,2025-12-05,有限会社エムズコーポレーション,,有限会社,山口県,周南市,平和通２丁目２１番地,,35,215,7450015,,,2025-12-05,清算の結了等,,,2015-10-05,1,,,,,エムズコーポレーション,0
2439,9270002001754,登記記録の閉鎖等,0,2025-12-09,2025-12-08,有限会社馬場徳石版所,,有限会社,鳥取県,鳥取市,二階町２丁目１１１番地の２,,31,201,6800033,,,2025-12-08,清算の結了等,,,2015-10-05,1,,,,,ババトクセキハンショ,0
2452,9320002016326,登記記録の閉鎖等,0,2025-12-09,2025-12-02,朝日新聞佐伯販売有限会社,,有限会社,大分県,佐伯市,大字長良１９３３番地の３,,44,205,8761511,,,2025-12-02,清算の結了等,,,2015-10-05,1,,,,,アサヒシンブンサイキハンバイ,0
2463,9390002010735,登記記録の閉鎖等,0,2025-12-09,2025-12-01,有限会社あざきクリーニング,,有限会社,山形県,新庄市,下田町１番地の２,,06,205,9960034,,,2025-12-01,合併による解散等,7390001015308,令和７年１２月１日山形県新庄市下田町１番地の２株式会社オーガニック・リネン（7390001015308）に合併し解散,2015-10-05,1,,,,,アザキクリーニング,0
2465,9420002011894,登記記録の閉鎖等,0,2025-12-09,2025-12-02,有限会社成辰建築,,有限会社,青森県,つがる市,富萢町荘野５９番地,00087729,02,209,0383301,,,2025-12-02,清算の結了等,,,2015-10-05,1,,,,,ナリタツケンチク,0
2474,9430005008656,登記記録の閉鎖等,0,2025-12-09,2025-11-21,医療法人社団千葉外科医院,,その他の設立登記法人,北海道,岩内郡岩内町,字高台１９１番地の２,,01,402,0450013,,,2025-11-21,清算の結了等,,,2015-10-05,1,,,,,,0
2475,9430005010827,登記記録の閉鎖等,0,2025-12-09,2025-12-01,一般社団法人北海道ハイヤー無線協会,,その他の設立登記法人,北海道,札幌市中央区,南八条西１５丁目,,01,101,0640808,,,2025-12-01,清算の結了等,,,2015-10-05,1,,,,,ホッカイドウハイヤームセンキョウカイ,0
2478,9460103001122,登記記録の閉鎖等,0,2025-12-09,2025-12-02,Ｇ．Ｔ．Ｏサポートコンサル合同会社,,合同会社,北海道,帯広市,西十八条南３９丁目１番地４,,01,207,0800028,,,2025-12-02,清算の結了等,,,2018-03-06,1,,,,,ジーティーオーサポートコンサル,0
