sequenceNumber,corporateNumber,process,correct,updateDate,changeDate,name,nameImageId,kind,prefectureName,cityName,streetNumber,addressImageId,prefectureCode,cityCode,postCode,addressOutside,addressOutsideImageId,closeDate,closeCause,successorCorporateNumber,changeCause,assignmentDate,latest,enName,enPrefectureName,enCityName,enAddressOutside,furigana,hihyoji
7,1010001224026,新規,0,2022-01-28,2022-01-28,株式会社リベラルセンス,,株式会社,東京都,中央区,日本橋小網町１２番７号,,13,102,1030016,,,,,,,2022-01-28,1,,,,,リベラセンス,0
8,1010001224133,新規,0,2022-01-28,2022-01-28,株式会社風神・雷神,,株式会社,東京都,中央区,日本橋箱崎町２１番地６セブンスターマンション第２日本橋５０２号,,13,102,1030015,,,,,,,2022-01-28,1,,,,,フウジンライジン,0
9,1010001224190,新規,0,2022-01-28,2022-01-28,株式会社ゆめらぼ,,株式会社,東京都,中央区,銀座１丁目２２番１１号銀座大竹ビジデンス２階,,13,102,1040061,,,,,,,2022-01-28,1,,,,,ユメラボ,0
10,1010001224216,新規,0,2022-01-28,2022-01-28,センチュリー産業株式会社,,株式会社,東京都,文京区,本郷３丁目１３番６号,,13,105,1130033,,,,,,,2022-01-28,1,,,,,センチュリーサンギョウ,0
14,1010003036873,新規,0,2022-01-28,2022-01-28,合同会社ダブルライン,,合同会社,東京都,千代田区,有楽町１丁目７番１号,,13,101,1000006,,,,,,,2022-01-28,1,,,,,ダブルライン,0
15,1010003036881,新規,0,2022-01-28,2022-01-28,合同会社オールデイズ,,合同会社,東京都,中央区,東日本橋２丁目２３－６パレステュディオドルチェ日本橋ＥＡＳＴ３０５,,13,102,1030004,,,,,,,2022-01-28,1,,,,,オールデイズ,0
18,1010005034537,新規,0,2022-01-28,2022-01-28,一般社団法人ＳＣリテールインベストメント,,その他の設立登記法人,東京都,中央区,日本橋１丁目４番１号日本橋一丁目ビルディング,,13,102,1030027,,,,,,,2022-01-28,1,,,,,エスシーリテールインベストメント,0
25,1010401165282,新規,0,2022-01-28,2022-01-28,ＬＡＣＴＡＬＩＳ　ＪＡＰＡＮ株式会社,,株式会社,東京都,港区,芝２丁目１０番１号芝メディックビル４Ｆ,,13,103,1050014,,,,,,,2022-01-28,1,,,,,ラクタリスジャパン,0
27,1010403026986,新規,0,2022-01-28,2022-01-28,合同会社コネクト,,合同会社,東京都,港区,三田５丁目２番２２号ザ・パークハウス三田ガーデン９０７,,13,103,1080073,,,,,,,2022-01-28,1,,,,,コネクト,0
32,1010501048379,新規,0,2022-01-28,2022-01-28,株式会社シムス,,株式会社,東京都,台東区,松が谷１丁目４番６号ライオンズマンション上野松が谷１１０５,,13,106,1110036,,,,,,,2022-01-28,1,,,,,シムス,0
33,1010603009361,新規,0,2022-01-28,2022-01-28,合同会社Ｃａｓｔ,,合同会社,東京都,墨田区,江東橋４丁目１９番１２号近代ビル４階,,13,107,1300022,,,,,,,2022-01-28,1,,,,,キャスト,0
42,1011001145170,新規,0,2022-01-28,2022-01-28,株式会社ｓｔｕｄｉｏ　ＲＩＤＥＲ,,株式会社,東京都,渋谷区,神宮前６丁目２３番４号桑野ビル２Ｆ,,13,113,1500001,,,,,,,2022-01-28,1,,,,,スタジオライダー,0
47,1011101097601,新規,0,2022-01-28,2022-01-28,株式会社リリーフコミット,,株式会社,東京都,新宿区,四谷１丁目１８番地ｂｅｌｌｅ四谷７階,,13,104,1600004,,,,,,,2022-01-28,1,,,,,リリーフコミット,0
54,1011401023983,新規,0,2022-01-28,2022-01-28,株式会社メタスピリッツ,,株式会社,東京都,板橋区,成増２丁目３４番１３号,,13,119,1750094,,,,,,,2022-01-28,1,,,,,メタスピリッツ,0
57,1011501027694,新規,0,2022-01-28,2022-01-28,株式会社サウンドトレジャーボックス,,株式会社,東京都,荒川区,町屋７丁目８番１１号,,13,118,1160001,,,,,,,2022-01-28,1,,,,,,0
58,1011601025706,新規,0,2022-01-28,2022-01-28,株式会社エスケイロード,,株式会社,東京都,練馬区,石神井町１丁目２番７号,,13,120,1770041,,,,,,,2022-01-28,1,,,,,エスケイロード,0
59,1011603003511,新規,0,2022-01-28,2022-01-28,東創合同会社,,合同会社,東京都,練馬区,田柄２丁目１１－２０長谷川ビル１０２,,13,120,1790073,,,,,,,2022-01-28,1,,,,,トウソウ,0
71,1012401038807,新規,0,2022-01-28,2022-01-28,株式会社ＳＰＥＣ,,株式会社,東京都,武蔵野市,境南町４丁目５番１号,,13,203,1800023,,,,,,,2022-01-28,1,,,,,スペック,0
75,1012703002394,新規,0,2022-01-28,2022-01-28,合同会社昇経済研究所,,合同会社,東京都,西東京市,栄町２丁目１番３２号,,13,229,2020006,,,,,,,2022-01-28,1,,,,,ノボリケイザイケンキュウジョ,0
88,1020001145007,新規,0,2022-01-28,2022-01-28,株式会社ＡＵＫＡＩ,,株式会社,神奈川県,横浜市中区,根岸町３丁目１８６番地１マートルコート横浜根岸３０６号室,,14,104,2310836,,,,,,,2022-01-28,1,,,,,アウカイ,0
89,1020001145023,新規,0,2022-01-28,2022-01-28,株式会社ラレル設備工業,,株式会社,神奈川県,横浜市磯子区,上中里町６１９番地１,,14,107,2350042,,,,,,,2022-01-28,1,,,,,ラレルセツビコウギョウ,0
106,1021001075053,新規,0,2022-01-28,2022-01-28,株式会社学楽,,株式会社,神奈川県,中郡大磯町,国府本郷１８０５番地２,,14,341,2590111,,,,,,,2022-01-28,1,,,,,ガクラク,0
131,1021003011345,新規,0,2022-01-28,2022-01-28,合同会社猫の手,,合同会社,神奈川県,綾瀬市,大上５丁目２７番１０号,,14,218,2521104,,,,,,,2022-01-28,1,,,,,ネコノテ,0
134,1030001146490,新規,0,2022-01-28,2022-01-28,株式会社プラマー,,株式会社,埼玉県,越谷市,大字大道４６９番地,,11,222,3430035,,,,,,,2022-01-28,1,,,,,プラマー,0
135,1030001146557,新規,0,2022-01-28,2022-01-28,株式会社コモリ・テクニカル,,株式会社,埼玉県,上尾市,大字平塚１６５８番地９,,11,219,3620011,,,,,,,2022-01-28,1,,,,,コモリテクニカル,0
138,1030003018738,新規,0,2022-01-28,2022-01-28,合同会社酢屋商店,,合同会社,埼玉県,上尾市,大字上１２９５番地１,,11,219,3620001,,,,,,,2022-01-28,1,,,,,スヤショウテン,0
155,1050001050534,新規,0,2022-01-28,2022-01-28,南武トレーディング株式会社,,株式会社,茨城県,つくば市,市之台８２番地２,,08,220,3050073,,,,,,,2022-01-28,1,,,,,ナンブトレーディング,0
156,1050001050550,新規,0,2022-01-28,2022-01-28,株式会社ひまわりコンサルティングファーム,,株式会社,茨城県,ひたちなか市,東大島３丁目２４番９,,08,221,3120042,,,,,,,2022-01-28,1,,,,,ヒマワリコンサルティングファーム,0
160,1060003003935,新規,0,2022-01-28,2022-01-28,合同会社ＷＥＸＣＥＬ,,合同会社,栃木県,小山市,大字立木１３２２番地９カーサヴィオラ１０２,,09,208,3230062,,,,,,,2022-01-28,1,,,,,ウェクセル,0
162,1070001038882,新規,0,2022-01-28,2022-01-28,株式会社クレッシェンド,,株式会社,群馬県,桐生市,巴町２丁目５番地５－３０２号,,10,203,3760021,,,,,,,2022-01-28,1,,,,,クレッシェンド,0
163,1080001024709,新規,0,2022-01-28,2022-01-28,株式会社植真,,株式会社,静岡県,牧之原市,細江２００番地５２,,22,226,4210421,,,,,,,2022-01-28,1,,,,,ウエマサ,0
166,1080401025595,新規,0,2022-01-28,2022-01-28,Ｆｉｎａｎｃｉａｌ　Ｄｅｓｉｇｎ　Ｊａｐａｎ株式会社,,株式会社,静岡県,浜松市中区,元城町２１６番地の４，６Ｆ,,22,131,4300946,,,,,,,2022-01-28,1,,,,,ファイナンシャルデザインジャパン,0
169,1090001017389,新規,0,2022-01-28,2022-01-28,株式会社ピコハウス,,株式会社,山梨県,甲府市,堀之内町８４０番地１,,19,201,4000056,,,,,,,2022-01-28,1,,,,,ピコハウス,0
170,1100001007801,新規,0,2022-01-28,2022-01-28,株式会社エイシン,,株式会社,長野県,北佐久郡立科町,大字山部字榎田２０１１番地,,20,324,3842307,,,,,,,2022-01-28,1,,,,,エイシン,0
171,1100003006388,新規,0,2022-01-28,2022-01-28,かとゆ合同会社,,合同会社,長野県,諏訪市,大字湖南８９１５番地１,,20,206,3920131,,,,,,,2022-01-28,1,,,,,カトユ,0
176,1110001036394,新規,0,2022-01-28,2022-01-28,株式会社Ｖｉｆ,,株式会社,新潟県,見附市,市野坪町１番３６－１号,,15,211,9540083,,,,,,,2022-01-28,1,,,,,ヴィフ,0
189,1120001243436,新規,0,2022-01-28,2022-01-28,ｉＰＰＵ株式会社,,株式会社,大阪府,大阪市西区,江之子島１丁目７番３－７０７号,,27,106,5500006,,,,,,,2022-01-28,1,,,,,イップ,0
190,1120001243452,新規,0,2022-01-28,2022-01-28,株式会社Ｉ－ｓｍｉｌｅ,,株式会社,大阪府,大阪市中央区,東平１丁目４－１カイテビル３Ｆ,,27,128,5420063,,,,,,,2022-01-28,1,,,,,アイスマイル,0
191,1120001243519,新規,0,2022-01-28,2022-01-28,株式会社ネクスト,,株式会社,大阪府,大阪市北区,山崎町１番１４－３０７号,,27,127,5300024,,,,,,,2022-01-28,1,,,,,ネクスト,0
192,1120003021039,新規,0,2022-01-28,2022-01-28,合同会社オフィスゼロ,,合同会社,大阪府,大阪市中央区,内平野町２丁目２番６号,,27,128,5400037,,,,,,,2022-01-28,1,,,,,オフィスゼロ,0
195,1120103004546,新規,0,2022-01-28,2022-01-28,ＳＦＧインベストメント合同会社,,合同会社,大阪府,堺市堺区,南花田口町２丁２－３オプレント堺東ビル４Ｂ,,27,141,5900075,,,,,,,2022-01-28,1,,,,,エスエフジーインベストメント,0
199,1120901045485,新規,0,2022-01-28,2022-01-28,株式会社Ｗｉｌｌ　Ｗｉｎ,,株式会社,大阪府,豊中市,中桜塚５丁目７番７号,,27,203,5610881,,,,,,,2022-01-28,1,,,,,ウィルウィン,0
200,1120901045519,新規,0,2022-01-28,2022-01-28,株式会社山満,,株式会社,大阪府,茨木市,上穂積４丁目３番７号の１０,,27,211,5670036,,,,,,,2022-01-28,1,,,,,ヤーマン,0
211,1130001071019,新規,0,2022-01-28,2022-01-28,株式会社Ｈａｌｌｅ　Ｇａｍｅ　Ｌａｂ,,株式会社,京都府,相楽郡精華町,狛田２丁目７番地１,,26,366,6190247,,,,,,,2022-01-28,1,,,,,ハレゲームラボ,0
215,1130003007722,新規,0,2022-01-28,2022-01-28,森松合同会社,,合同会社,京都府,京都市中京区,壬生下溝町９番地６ラ・トゥール・イリエ４０１号,,26,104,6048832,,,,,,,2022-01-28,1,,,,,モリマツ,0
222,1140001124717,新規,0,2022-01-28,2022-01-28,株式会社Ａｓｈｉｙａファイバーズーム,,株式会社,兵庫県,芦屋市,松浜町１５番１５－２０１号,,28,206,6590053,,,,,,,2022-01-28,1,,,,,アシヤファイバーズーム,0
223,1140001124733,新規,0,2022-01-28,2022-01-28,株式会社ユミテック,,株式会社,兵庫県,淡路市,大磯２１番地２,,28,226,6562302,,,,,,,2022-01-28,1,,,,,ユミテック,0
226,1150001025286,新規,0,2022-01-28,2022-01-28,株式会社鈴木仮設興業,,株式会社,奈良県,北葛城郡広陵町,大字三吉１７番地５,,29,426,6350823,,,,,,,2022-01-28,1,,,,,スズキカセツコウギョウ,0
227,1160001023966,新規,0,2022-01-28,2022-01-28,株式会社ホレユメ,,株式会社,滋賀県,近江八幡市,中村町３１番地５（３号）,,25,204,5230894,,,,,,,2022-01-28,1,,,,,ホレユメ,0
232,1180001149727,新規,0,2022-01-28,2022-01-28,株式会社楽七楽座,,株式会社,愛知県,東海市,東海町３丁目８番２２号,,23,222,4760015,,,,,,,2022-01-28,1,,,,,ラクシチラクザ,0
236,1180003023434,新規,0,2022-01-28,2022-01-28,羽衣の郷合同会社,,合同会社,愛知県,日進市,浅田町下小深田１０番地１１,,23,230,4700124,,,,,,,2022-01-28,1,,,,,ハゴロモノサト,0
241,1190001029060,新規,0,2022-01-28,2022-01-28,株式会社ＢＵＬＬＴＥＣ,,株式会社,三重県,四日市市,大字泊村９６９番地２,,24,202,5100894,,,,,,,2022-01-28,1,,,,,ブルテック,0
242,1190001029069,新規,0,2022-01-28,2022-01-28,株式会社森本水産,,株式会社,三重県,尾鷲市,栄町１０番１２号富士コーポ２０８号室,,24,209,5193618,,,,,,,2022-01-28,1,,,,,モリモトスイサン,0
245,1200001039702,新規,0,2022-01-28,2022-01-28,加治田製材株式会社,,株式会社,岐阜県,加茂郡富加町,加治田８２７番地３,,21,502,5013301,,,,,,,2022-01-28,1,,,,,カジタセイザイ,0
246,1210003001452,新規,0,2022-01-28,2022-01-28,合同会社よしき商店,,合同会社,福井県,小浜市,下竹原第２号４４番地の３,,18,204,9170007,,,,,,,2022-01-28,1,,,,,ヨシキショウテン,0
249,1220001024669,新規,0,2022-01-28,2022-01-28,株式会社Ｌａｂｅｌ,,株式会社,石川県,金沢市,森山１丁目２番１号２１４,,17,201,9200843,,,,,,,2022-01-28,1,,,,,ラベル,0
255,1250001019377,新規,0,2022-01-28,2022-01-28,株式会社インフェクションガード,,株式会社,山口県,山口市,嘉川１６４６番地４,,35,203,7540897,,,,,,,2022-01-28,1,,,,,インフェクションガード,0
257,1270001008444,新規,0,2022-01-28,2022-01-28,株式会社リアルアセットマネジメント,,株式会社,鳥取県,倉吉市,伊木２１４番地３,,31,203,6820024,,,,,,,2022-01-28,1,,,,,リアルアセットマネジメント,0
260,1290001096248,新規,0,2022-01-28,2022-01-28,株式会社ＡＳＴＲＯ,,株式会社,福岡県,福岡市南区,井尻２丁目４８番１６号,,40,134,8111302,,,,,,,2022-01-28,1,,,,,アストロ,0
261,1290001096256,新規,0,2022-01-28,2022-01-28,株式会社メディカルスターク,,株式会社,福岡県,福岡市東区,千早４丁目１４番１‐７０３号,,40,131,8130044,,,,,,,2022-01-28,1,,,,,メディカルスターク,0
264,1290003012087,新規,0,2022-01-28,2022-01-28,ｎｅｗｃｏｍｐｅ合同会社,,合同会社,福岡県,うきは市,浮羽町高見３９７,,40,225,8391406,,,,,,,2022-01-28,1,,,,,ニューコンペ,0
267,1290801028210,新規,0,2022-01-28,2022-01-28,株式会社ルコホーム,,株式会社,福岡県,北九州市八幡西区,鷹の巣２丁目４番７号,,40,109,8060047,,,,,,,2022-01-28,1,,,,,ルコホーム,0
273,1320001018859,新規,0,2022-01-28,2022-01-28,大分ジェイコンビシステム株式会社,,株式会社,大分県,大分市,三佐６丁目２番５０号,,44,201,8700108,,,,,,,2022-01-28,1,,,,,オオイタジェイコンビシステム,0
274,1320001018867,新規,0,2022-01-28,2022-01-28,株式会社友誠,,株式会社,大分県,大分市,角子原１丁目１４番３８－１号,,44,201,8700271,,,,,,,2022-01-28,1,,,,,ユウセイ,0
275,1320003003710,新規,0,2022-01-28,2022-01-28,合同会社サキカワ,,合同会社,大分県,宇佐市,住吉町２丁目６番１号,,44,211,8720033,,,,,,,2022-01-28,1,,,,,サキカワ,0
278,1320005009961,新規,0,2022-01-28,2022-01-28,一般社団法人特定技能支援協会,,その他の設立登記法人,大分県,国東市,国東町安国寺１９番地１,,44,214,8730504,,,,,,,2022-01-28,1,,,,,トクテイギノウシエンキョウカイ,0
280,1330001029392,新規,0,2022-01-28,2022-01-28,株式会社銀河,,株式会社,熊本県,熊本市中央区,新町４丁目２番２３－３０２号,,43,101,8600004,,,,,,,2022-01-28,1,,,,,ギンガ,0
281,1340001024459,新規,0,2022-01-28,2022-01-28,カーライフ宮地株式会社,,株式会社,鹿児島県,志布志市,有明町野井倉４８５４番地６,,46,221,8997402,,,,,,,2022-01-28,1,,,,,カーライフミヤチ,0
283,1360001029943,新規,0,2022-01-28,2022-01-28,Ｎｅｗ　Ｓｔａｇｅ株式会社,,株式会社,沖縄県,那覇市,首里寒川町１丁目８１番４号玉城アパート１０２号室,,47,201,9030826,,,,,,,2022-01-28,1,,,,,ニューステージ,0
290,1370001048141,新規,0,2022-01-28,2022-01-28,株式会社ＬＩＦＥ　ＬＡＮＤ,,株式会社,宮城県,石巻市,三ツ股４丁目５番５号,,04,202,9860858,,,,,,,2022-01-28,1,,,,,ライフランド,0
299,1380001032532,新規,0,2022-01-28,2022-01-28,株式会社福Ｋａｍｅ,,株式会社,福島県,南相馬市,原町区上高平字芦ノ口前１０４番地,00125550,07,212,9750026,,,,,,,2022-01-28,1,,,,,フクカメ,0
306,1430003013558,新規,0,2022-01-28,2022-01-28,合同会社ｉｎｆｉｎｉｔｙ,,合同会社,北海道,札幌市豊平区,中の島一条１丁目３－１０リラハイツ幌平橋９０２,,01,105,0620921,,,,,,,2022-01-28,1,,,,,インフィニティ,0
307,1440001009020,新規,0,2022-01-28,2022-01-28,株式会社レイホーム,,株式会社,北海道,函館市,本通２丁目３０番３号,,01,202,0410851,,,,,,,2022-01-28,1,,,,,レイホーム,0
310,1460103001419,新規,0,2022-01-28,2022-01-28,Ｐｏｌａｒｉｓ２１合同会社,,合同会社,北海道,河東郡音更町,木野大通西５丁目２番地４ハピオ壱番館８０４,,01,631,0800301,,,,,,,2022-01-28,1,,,,,ポラリスニジュウイチ,0
312,1470001018943,新規,0,2022-01-28,2022-01-28,株式会社アリーシア,,株式会社,香川県,高松市,寺井町１０６０番地１５,,37,201,7618085,,,,,,,2022-01-28,1,,,,,アリーシア,0
313,1470001018951,新規,0,2022-01-28,2022-01-28,株式会社菜の花,,株式会社,香川県,高松市,香南町吉光５００番地２,,37,201,7611403,,,,,,,2022-01-28,1,,,,,ナノハナ,0
326,2010001224157,新規,0,2022-01-28,2022-01-28,株式会社Ｆｅｒｍｅｎｔｏ　Ｔｏｋｙｏ,,株式会社,東京都,中央区,銀座１丁目２２番１１号銀座大竹ビジデンス２階,,13,102,1040061,,,,,,,2022-01-28,1,,,,,フェルメントトウキョウ,0
327,2010001224181,新規,0,2022-01-28,2022-01-28,日本医学歯科研究院株式会社,,株式会社,東京都,中央区,東日本橋２丁目２８番５号５０８,,13,102,1030004,,,,,,,2022-01-28,1,,,,,ニホンイガクシカケンキュウイン,0
331,2010003036864,新規,0,2022-01-28,2022-01-28,合同会社ＣＬＯＵＤ　ＭＥＤＩＣＡＬ　ＰＡＲＴＮＥＲＳ,,合同会社,東京都,中央区,新富１丁目７番１１号マルイビル３階,,13,102,1040041,,,,,,,2022-01-28,1,,,,,クラウドメディカルパートナーズ,0
333,2010101015051,新規,0,2022-01-28,2022-01-28,株式会社ＳＡＬＥＳ　ＡＧＥＮＣＹ,,株式会社,東京都,八王子市,椚田町５２６番地５,,13,201,1930942,,,,,,,2022-01-28,1,,,,,セールスエージェンシー,0
334,2010401165166,新規,0,2022-01-28,2022-01-28,株式会社ＦＡＴ　ＨＡＲＭＯＮＹ,,株式会社,東京都,港区,白金台５丁目５番２号,,13,103,1080071,,,,,,,2022-01-28,1,,,,,ファットハーモニー,0
335,2010401165182,新規,0,2022-01-28,2022-01-28,株式会社Ｂｅ．ｃｏｅｉｒ,,株式会社,東京都,港区,南青山３丁目３－３,,13,103,1070062,,,,,,,2022-01-28,1,,,,,ビーコエル,0
336,2010401165224,新規,0,2022-01-28,2022-01-28,株式会社プライスハブルジャパンテック,,株式会社,東京都,港区,高輪１丁目２３番２３－２７０５号,,13,103,1080074,,,,,,,2022-01-28,1,,,,,プライスハブルジャパンテック,0
339,2010403026993,新規,0,2022-01-28,2022-01-28,合同会社Ｃｌａｒｏ,,合同会社,東京都,港区,南青山２丁目１５番５号ＦＡＲＯ青山１階,,13,103,1070062,,,,,,,2022-01-28,1,,,,,クラロ,0
342,2010601060571,新規,0,2022-01-28,2022-01-28,株式会社パレスハウジング,,株式会社,東京都,江東区,富岡２丁目１１番１８号,,13,108,1350047,,,,,,,2022-01-28,1,,,,,パレスハウジング,0
344,2010603009360,新規,0,2022-01-28,2022-01-28,合同会社ｕｓ．,,合同会社,東京都,江東区,豊洲６丁目２番３１,,13,108,1350061,,,,,,,2022-01-28,1,,,,,アス,0
346,2010701042148,新規,0,2022-01-28,2022-01-28,株式会社グッドコミック,,株式会社,東京都,品川区,上大崎２丁目１３番３０号ｏａｋｍｅｇｕｒｏ８階,,13,109,1410021,,,,,,,2022-01-28,1,,,,,グッドコミック,0
355,2010903007114,新規,0,2022-01-28,2022-01-28,合同会社唯一無二,,合同会社,東京都,世田谷区,池尻２丁目３３番１５,,13,112,1540001,,,,,,,2022-01-28,1,,,,,ユイイツムニ,0
370,2011003014050,新規,0,2022-01-28,2022-01-28,合同会社ワガパイ,,合同会社,東京都,目黒区,南３丁目１５－１－２０２,,13,110,1520013,,,,,,,2022-01-28,1,,,,,ワガパイ,0
380,2011601025705,新規,0,2022-01-28,2022-01-28,株式会社ヨーヨー,,株式会社,東京都,練馬区,田柄２丁目１番２８号,,13,120,1790073,,,,,,,2022-01-28,1,,,,,ヨーヨー,0
384,2012403005218,新規,0,2022-01-28,2022-01-28,合同会社Ｍｅｅ,,合同会社,東京都,府中市,美好町１丁目１９番地の３プラウド府中美好町６０２,,13,206,1830045,,,,,,,2022-01-28,1,,,,,ミー,0
385,2012405004696,新規,0,2022-01-28,2022-01-28,一般社団法人ＭＥＷＯ,,その他の設立登記法人,東京都,府中市,白糸台４丁目４４番地の１車返団地３－８－４０７,,13,206,1830011,,,,,,,2022-01-28,1,,,,,メオ,0
406,2020001144981,新規,0,2022-01-28,2022-01-28,株式会社ＣＣ．ｃｏｍｐａｎｙ,,株式会社,神奈川県,横浜市神奈川区,羽沢町９２６－１９９,,14,102,2210863,,,,,,,2022-01-28,1,,,,,シーシーカンパニー,0
407,2020001144998,新規,0,2022-01-28,2022-01-28,株式会社リアルインベストメント,,株式会社,神奈川県,横浜市中区,港町４丁目１６番地リアル関内ビルディング１０Ｆ,,14,104,2310017,,,,,,,2022-01-28,1,,,,,リアルインベストメント,0
408,2020001145030,新規,0,2022-01-28,2022-01-28,株式会社Ｔｒｉ－ａｎｇｌｅ,,株式会社,神奈川県,川崎市高津区,明津７２番地１,,14,134,2130024,,,,,,,2022-01-28,1,,,,,トライアングル,0
409,2020003021213,新規,0,2022-01-28,2022-01-28,合同会社ワイエービーラグズ,,合同会社,神奈川県,横浜市青葉区,荏田町２４６番地３５,,14,117,2250013,,,,,,,2022-01-28,1,,,,,ワイエービーラグズ,0
418,2021001075052,新規,0,2022-01-28,2022-01-28,株式会社ビューティ・フリー,,株式会社,神奈川県,相模原市中央区,上溝１丁目４番２２号,,14,152,2520243,,,,,,,2022-01-28,1,,,,,ビューティフリー,0
419,2021001075060,新規,0,2022-01-28,2022-01-28,株式会社ＲＯＫＵ,,株式会社,神奈川県,茅ヶ崎市,新栄町６番１４－１００３号,,14,207,2530044,,,,,,,2022-01-28,1,,,,,ロク,0
436,2021003011336,新規,0,2022-01-28,2022-01-28,合同会社ｂｌａｎｃ,,合同会社,神奈川県,藤沢市,南藤沢３番地の３藤沢平和ビル４階,,14,205,2510055,,,,,,,2022-01-28,1,,,,,ブラン,0
437,2021003011344,新規,0,2022-01-28,2022-01-28,大切な花合同会社,,合同会社,神奈川県,三浦市,向ケ崎町７番地１号,,14,210,2380233,,,,,,,2022-01-28,1,,,,,タイセツナハナ,0
438,2021003011352,新規,0,2022-01-28,2022-01-28,合同会社スプリングスキャピタル,,合同会社,神奈川県,足柄上郡山北町,中川４４８－２,,14,364,2580201,,,,,,,2022-01-28,1,,,,,スプリングスキャピタル,0
445,2030001146548,新規,0,2022-01-28,2022-01-28,株式会社和コーポレーション,,株式会社,埼玉県,草加市,高砂２丁目１１番９－６０３号,,11,221,3400015,,,,,,,2022-01-28,1,,,,,ナゴミコーポレーション,0
446,2030001146556,新規,0,2022-01-28,2022-01-28,株式会社タイラ,,株式会社,埼玉県,さいたま市南区,大字大谷口１７３７番地１０,,11,108,3360042,,,,,,,2022-01-28,1,,,,,タイラ,0
448,2030003018745,新規,0,2022-01-28,2022-01-28,合同会社レッドフラット,,合同会社,埼玉県,戸田市,笹目４丁目１３番地の２１（プレステージ笹目１０３号室）,,11,224,3350034,,,,,,,2022-01-28,1,,,,,レッドフラット,0
454,2050001050541,新規,0,2022-01-28,2022-01-28,トウユウホールディングス株式会社,,株式会社,茨城県,鹿嶋市,大字長栖２１５６番地１６６,,08,222,3140022,,,,,,,2022-01-28,1,,,,,トウユウホールディングス,0
455,2050003006343,新規,0,2022-01-28,2022-01-28,星総合物販合同会社,,合同会社,茨城県,龍ケ崎市,南中島町１６３－１３,,08,208,3010047,,,,,,,2022-01-28,1,,,,,ホシソウゴウブッパン,0
462,2060001034510,新規,0,2022-01-28,2022-01-28,北の郷株式会社,,株式会社,栃木県,足利市,樺崎町６１１番地３,,09,202,3260004,,,,,,,2022-01-28,1,,,,,キタノサト,0
467,2080403004456,新規,0,2022-01-28,2022-01-28,遠州商工グループ合同会社,,合同会社,静岡県,浜松市西区,佐浜町２２９番地,,22,133,4311114,,,,,,,2022-01-28,1,,,,,エンシュウショウコウグループ,0
469,2100001035017,新規,0,2022-01-28,2022-01-28,株式会社Ｒｅｃｉｏｓ,,株式会社,長野県,長野市,大字栗田１０００－１長栄長野東口ビル１Ｆ,,20,201,3800921,,,,,,,2022-01-28,1,,,,,レシオス,0
487,2120001243451,新規,0,2022-01-28,2022-01-28,株式会社青誠,,株式会社,大阪府,大阪市西区,新町３丁目６－１７ＧＳハイム西長堀６０５号室,,27,106,5500013,,,,,,,2022-01-28,1,,,,,セイセイ,0
488,2120001243492,新規,0,2022-01-28,2022-01-28,南秀昌株式会社,,株式会社,大阪府,大阪市生野区,中川６丁目２番１２号,,27,116,5440005,,,,,,,2022-01-28,1,,,,,ミナミヒデアキ,0
489,2120001243501,新規,0,2022-01-28,2022-01-28,ＢＩＤ株式会社,,株式会社,大阪府,大阪市中央区,谷町２丁目３番４号,,27,128,5400012,,,,,,,2022-01-28,1,,,,,ビッド,0
492,2120005022744,新規,0,2022-01-28,2022-01-28,医療法人野口医院,,その他の設立登記法人,大阪府,大阪市城東区,関目３丁目１３番１号,,27,118,5360008,,,,,,,2022-01-28,1,,,,,ノグチイイン,0
501,2120901045518,新規,0,2022-01-28,2022-01-28,株式会社ミヤタニ,,株式会社,大阪府,豊中市,立花町３丁目１３番１号,,27,203,5600025,,,,,,,2022-01-28,1,,,,,ミヤタニ,0
503,2130001071026,新規,0,2022-01-28,2022-01-28,株式会社ＹＯＵＨＥＩ,,株式会社,京都府,京都市伏見区,深草一ノ坪町３７番地４大元ビル２０２,,26,109,6120012,,,,,,,2022-01-28,1,,,,,ヨウヘイ,0
509,2140001124716,新規,0,2022-01-28,2022-01-28,株式会社Ｏｒｇａファイバーズーム,,株式会社,兵庫県,芦屋市,松浜町１５番１５－２０１号,,28,206,6590053,,,,,,,2022-01-28,1,,,,,オルガファイバーズーム,0
510,2140001124724,新規,0,2022-01-28,2022-01-28,ＭｅＫＬＩＭ株式会社,,株式会社,兵庫県,川西市,東畦野山手１丁目２０－２,,28,217,6660114,,,,,,,2022-01-28,1,,,,,ミクリム,0
511,2140001124740,新規,0,2022-01-28,2022-01-28,株式会社Ｔｒｅｖｅｒｚ,,株式会社,兵庫県,尼崎市,昭和通２丁目６－６８,,28,202,6600881,,,,,,,2022-01-28,1,,,,,トレバーズ,0
516,2160001023965,新規,0,2022-01-28,2022-01-28,株式会社セダイエ,,株式会社,滋賀県,湖南市,石部西２丁目５番１１号,,25,211,5203105,,,,,,,2022-01-28,1,,,,,セダイエ,0
519,2170003001679,新規,0,2022-01-28,2022-01-28,合同会社ロクジョウ,,合同会社,和歌山県,新宮市,緑ケ丘１丁目１番３４号,,30,207,6470043,,,,,,,2022-01-28,1,,,,,ロクジョウ,0
523,2180001149734,新規,0,2022-01-28,2022-01-28,株式会社Ｕ－ＴＥＣ,,株式会社,愛知県,名古屋市天白区,天白町大字野並字相生２８番地の２０８,,23,116,4680037,,,,,,,2022-01-28,1,,,,,ユーテック,0
524,2180001149750,新規,0,2022-01-28,2022-01-28,スタックオリジナル株式会社,,株式会社,愛知県,一宮市,木曽川町門間字西郷３番地２,,23,203,4930002,,,,,,,2022-01-28,1,,,,,スタックオリジナル,0
528,2180301035881,新規,0,2022-01-28,2022-01-28,株式会社Ａ・Ｉ,,株式会社,愛知県,岡崎市,明大寺町字南山新切２０番地１アートハウス明大寺２０６,,23,202,4440864,,,,,,,2022-01-28,1,,,,,エイアイ,0
529,2180303005239,新規,0,2022-01-28,2022-01-28,合同会社春,,合同会社,愛知県,豊橋市,上野町字上野１０７番地４,,23,201,4418157,,,,,,,2022-01-28,1,,,,,ハル,0
534,2190001029068,新規,0,2022-01-28,2022-01-28,株式会社Ｔｅｅ　Ｇａｒａｇｅ,,株式会社,三重県,鈴鹿市,西玉垣町１５３１番地,,24,207,5130815,,,,,,,2022-01-28,1,,,,,ティーガレージ,0
538,2200003005437,新規,0,2022-01-28,2022-01-28,フレンズルック合同会社,,合同会社,岐阜県,各務原市,松本町２丁目２４番地,,21,213,5040925,,,,,,,2022-01-28,1,,,,,フレンズルック,0
543,2220005008634,新規,0,2022-01-28,2022-01-28,一般社団法人リサーチ・アドミニストレータースキル認定機構,,その他の設立登記法人,石川県,金沢市,角間町ヌ７番地,,17,201,9201164,,,,,,,2022-01-28,1,,,,,リサーチアドミニストレータースキルニンテイキコウ,0
546,2240001059241,新規,0,2022-01-28,2022-01-28,株式会社小泉組,,株式会社,広島県,府中市,鵜飼町２２番地,,34,208,7260002,,,,,,,2022-01-28,1,,,,,コイズミグミ,0
550,2260001036478,新規,0,2022-01-28,2022-01-28,株式会社ＥＬテクノ,,株式会社,岡山県,岡山市北区,西古松１丁目１９番２１号,,33,101,7000927,,,,,,,2022-01-28,1,,,,,イーエルテクノ,0
555,2290001096271,新規,0,2022-01-28,2022-01-28,安泰株式会社,,株式会社,福岡県,福津市,西郷２０５４番地４,,40,224,8113213,,,,,,,2022-01-28,1,,,,,アンタイ,0
561,2320001018866,新規,0,2022-01-28,2022-01-28,株式会社Ｉｍｐｒｏｖｅ,,株式会社,大分県,佐伯市,弥生大字江良１８６８番地１,,44,205,8760125,,,,,,,2022-01-28,1,,,,,インプルーブ,0
565,2330001029391,新規,0,2022-01-28,2022-01-28,ＵＴＯＭＥＳＨＩ株式会社,,株式会社,熊本県,宇土市,走潟町２２３５番地,,43,211,8690404,,,,,,,2022-01-28,1,,,,,ウトメシ,0
566,2330001029400,新規,0,2022-01-28,2022-01-28,アイ建リフォーム株式会社,,株式会社,熊本県,熊本市北区,楡木５丁目７番５号,,43,105,8618083,,,,,,,2022-01-28,1,,,,,アイケンリフォーム,0
580,2380001032531,新規,0,2022-01-28,2022-01-28,真壁板金工業株式会社,,株式会社,福島県,喜多方市,松山町村松字常盤町２５０７番地３,,07,208,9660902,,,,,,,2022-01-28,1,,,,,マカベバンキンコウギョウ,0
591,2430001085895,新規,0,2022-01-28,2022-01-28,株式会社北奨,,株式会社,北海道,札幌市北区,あいの里二条１丁目１５番３号,,01,102,0028072,,,,,,,2022-01-28,1,,,,,ホクショウ,0
593,2430003013573,新規,0,2022-01-28,2022-01-28,合同会社ソーシャルワーク,,合同会社,北海道,札幌市清田区,美しが丘四条６丁目９番８号,,01,110,0040814,,,,,,,2022-01-28,1,,,,,ソーシャルワーク,0
594,2430003013581,新規,0,2022-01-28,2022-01-28,合同会社エージェンシー,,合同会社,北海道,札幌市中央区,北一条西１９丁目２番１号緒方ビル,,01,101,0600001,,,,,,,2022-01-28,1,,,,,エージェンシー,0
601,2470001018942,新規,0,2022-01-28,2022-01-28,株式会社あい,,株式会社,香川県,高松市,花ノ宮町１丁目８番２１号ＮＭビル１階,,37,201,7618063,,,,,,,2022-01-28,1,,,,,アイ,0
602,2490003001622,新規,0,2022-01-28,2022-01-28,永尾エアコン合同会社,,合同会社,高知県,高知市,薊野西町２丁目２１番２４号,,39,201,7810015,,,,,,,2022-01-28,1,,,,,ナガオエアコン,0
605,2500001023971,新規,0,2022-01-28,2022-01-28,Ｆｅｅｌ　ｆｒｅｅ株式会社,,株式会社,愛媛県,今治市,大西町脇甲９２５番地５,,38,202,7992206,,,,,,,2022-01-28,1,,,,,フィールフリー,0
619,3010001224172,新規,0,2022-01-28,2022-01-28,株式会社Ｌ＆Ｔ,,株式会社,東京都,千代田区,九段北４丁目３番２０号九段フラワーホーム７階７１１号室,,13,101,1020073,,,,,,,2022-01-28,1,,,,,エルアンドティー,0
620,3010001224189,新規,0,2022-01-28,2022-01-28,株式会社コーラルスクエアード,,株式会社,東京都,千代田区,永田町２丁目１０番３号,,13,101,1000014,,,,,,,2022-01-28,1,,,,,コーラルスクエアード,0
621,3010001224214,新規,0,2022-01-28,2022-01-28,シープラッツ株式会社,,株式会社,東京都,中央区,銀座１丁目２２番１１号銀座大竹ビジデンス２階,,13,102,1040061,,,,,,,2022-01-28,1,,,,,シープラッツ,0
623,3010003036871,新規,0,2022-01-28,2022-01-28,千葉インダストリアル合同会社,,合同会社,東京都,千代田区,平河町１丁目６番１５号シルスフィア会計事務所内,,13,101,1020093,,,,,,,2022-01-28,1,,,,,チバインダストリアル,0
632,3010401165140,新規,0,2022-01-28,2022-01-28,ＢＥＬＬＯ　ＴＥＣＣＨＩＯ株式会社,,株式会社,東京都,港区,赤坂２丁目１４－１２赤坂第一井上ビル５０４号,,13,103,1070052,,,,,,,2022-01-28,1,,,,,ベッロテッキョ,0
633,3010401165173,新規,0,2022-01-28,2022-01-28,株式会社日本総合管理,,株式会社,東京都,港区,南青山３丁目１４番１０号カシェート南青山,,13,103,1070062,,,,,,,2022-01-28,1,,,,,ニホンソウゴウカンリ,0
634,3010401165256,新規,0,2022-01-28,2022-01-28,株式会社ふるさとサポート,,株式会社,東京都,港区,南青山２丁目２番１５号ウィン青山１２１４号,,13,103,1070062,,,,,,,2022-01-28,1,,,,,フルサトサポート,0
637,3010402038700,新規,0,2022-01-28,2022-01-28,有限会社出沢豆腐店,,有限会社,東京都,港区,三田１丁目１３番１５号,,13,103,1080073,,,,,,,2022-01-28,1,,,,,デザワトウフテン,0
638,3010403026984,新規,0,2022-01-28,2022-01-28,合同会社ＴＡＫ,,合同会社,東京都,港区,高輪２丁目５番１０号,,13,103,1080074,,,,,,,2022-01-28,1,,,,,ティーエーケー,0
639,3010501048385,新規,0,2022-01-28,2022-01-28,株式会社ＢＬＴ,,株式会社,東京都,台東区,東上野５丁目１番１号奥田ビル３階,,13,106,1100015,,,,,,,2022-01-28,1,,,,,ビーエルティー,0
641,3010601060570,新規,0,2022-01-28,2022-01-28,株式会社ＡＣＴＶＡＬ,,株式会社,東京都,墨田区,京島３丁目３４番７－２０２号,,13,107,1310046,,,,,,,2022-01-28,1,,,,,アクトヴァル,0
643,3010701042147,新規,0,2022-01-28,2022-01-28,株式会社ぷりん,,株式会社,東京都,品川区,西五反田８丁目１－１はじめのびる５階,,13,109,1410031,,,,,,,2022-01-28,1,,,,,プリン,0
644,3010705003310,新規,0,2022-01-28,2022-01-28,一般財団法人Ｋｏｎｎｏ＆レスター財団,,その他の設立登記法人,東京都,品川区,東品川３丁目６番５号,,13,109,1400002,,,,,,,2022-01-28,1,,,,,コンノアンドレスターザイダン,0
650,3010903007113,新規,0,2022-01-28,2022-01-28,ブルーランタン合同会社,,合同会社,東京都,世田谷区,若林４丁目１２番４号,,13,112,1540023,,,,,,,2022-01-28,1,,,,,ブルーランタン,0
656,3011001145350,新規,0,2022-01-28,2022-01-28,株式会社ＫＨ,,株式会社,東京都,目黒区,自由が丘２丁目１６－１２ＬＣ１Ｆ,,13,110,1520035,,,,,,,2022-01-28,1,,,,,ケイエイチ,0
664,3011103011401,新規,0,2022-01-28,2022-01-28,ｎｉｃｅ　ａｎｄ　ｓｌｏｗ合同会社,,合同会社,東京都,新宿区,若松町９番１４－１１０３号,,13,104,1620056,,,,,,,2022-01-28,1,,,,,ナイスアンドスロウ,0
666,3011201023595,新規,0,2022-01-28,2022-01-28,株式会社ＭｉｎＥ．,,株式会社,東京都,中野区,上高田１丁目４３番５号,,13,114,1640002,,,,,,,2022-01-28,1,,,,,マイン,0
668,3011303004295,新規,0,2022-01-28,2022-01-28,合同会社カンフー,,合同会社,東京都,杉並区,高円寺北３丁目２－１２,,13,115,1660002,,,,,,,2022-01-28,1,,,,,,0
670,3011501027692,新規,0,2022-01-28,2022-01-28,株式会社スプラウト,,株式会社,東京都,北区,西ケ原１丁目３０番１－７０１号東高西ケ原ペアシティ,,13,117,1140024,,,,,,,2022-01-28,1,,,,,スプラウト,0
671,3011501027701,新規,0,2022-01-28,2022-01-28,株式会社ＴＥＮ　ＦＩＥＬＤ,,株式会社,東京都,北区,滝野川６丁目３４番９号,,13,117,1140023,,,,,,,2022-01-28,1,,,,,テンフィールド,0
676,3011801040172,新規,0,2022-01-28,2022-01-28,株式会社ファーストビレッジ,,株式会社,東京都,葛飾区,立石４丁目２８－２１第二横山ビル３０１,,13,122,1240012,,,,,,,2022-01-28,1,,,,,ファーストビレッジ,0
677,3011801040263,新規,0,2022-01-28,2022-01-28,株式会社ＡＳ‐Ｕ,,株式会社,東京都,葛飾区,白鳥３丁目３１番２３号,,13,122,1250063,,,,,,,2022-01-28,1,,,,,アスユー,0
679,3012301012868,新規,0,2022-01-28,2022-01-28,株式会社Ｌｕａｎａ,,株式会社,東京都,町田市,図師町６０４番地４,,13,209,1940203,,,,,,,2022-01-28,1,,,,,ルアナ,0
680,3012403005217,新規,0,2022-01-28,2022-01-28,合同会社Ｄ＆Ｓ　ＥｄＮｅｔ,,合同会社,東京都,小金井市,緑町３丁目１番１７号（１８）,,13,210,1840003,,,,,,,2022-01-28,1,,,,,ディーアンドエスエドネット,0
681,3012801021369,新規,0,2022-01-28,2022-01-28,株式会社Ｍｏｒｇａｎａ,,株式会社,東京都,国分寺市,本多１丁目５番４号宝ビル地下１階,,13,214,1850011,,,,,,,2022-01-28,1,,,,,モルガナ,0
695,3020001144989,新規,0,2022-01-28,2022-01-28,リンクワールド・デジタル株式会社,,株式会社,神奈川県,横浜市保土ケ谷区,岩崎町１５番３号,,14,106,2400015,,,,,,,2022-01-28,1,,,,,リンクワールドデジタル,0
696,3020001144997,新規,0,2022-01-28,2022-01-28,カクキチ株式会社,,株式会社,神奈川県,横浜市鶴見区,尻手１丁目１番１６－５４１号,,14,101,2300003,,,,,,,2022-01-28,1,,,,,カクキチ,0
702,3020003021212,新規,0,2022-01-28,2022-01-28,合同会社インテリア・スダ,,合同会社,神奈川県,横浜市瀬谷区,五貫目町２７番地３９,,14,114,2460008,,,,,,,2022-01-28,1,,,,,インテリアスダ,0
716,3021001075068,新規,0,2022-01-28,2022-01-28,株式会社Ａｎｎｕｌｕｓ,,株式会社,神奈川県,相模原市南区,麻溝台４丁目６番８－１号,,14,153,2520328,,,,,,,2022-01-28,1,,,,,アニュラス,0
739,3030001146539,新規,0,2022-01-28,2022-01-28,株式会社ＭＩＲＯＫＵ,,株式会社,埼玉県,さいたま市見沼区,大字大谷７８６番地１,,11,104,3370014,,,,,,,2022-01-28,1,,,,,ミロク,0
740,3030001146555,新規,0,2022-01-28,2022-01-28,株式会社リンケイジ,,株式会社,埼玉県,さいたま市北区,日進町１丁目８５番地１,,11,102,3310823,,,,,,,2022-01-28,1,,,,,リンケイジ,0
742,3030003018736,新規,0,2022-01-28,2022-01-28,合同会社アルファベート,,合同会社,埼玉県,新座市,東１丁目２番３の１０６号,,11,230,3520002,,,,,,,2022-01-28,1,,,,,アルファベート,0
743,3030003018744,新規,0,2022-01-28,2022-01-28,ＹＵＹＵコンサルティング合同会社,,合同会社,埼玉県,草加市,氷川町２８８－４,,11,221,3400034,,,,,,,2022-01-28,1,,,,,ユユコンサルティング,0
747,3060001034526,新規,0,2022-01-28,2022-01-28,株式会社ＴＳＵＫＩ,,株式会社,栃木県,那須郡那須町,大字高久乙１番地５,,09,407,3250303,,,,,,,2022-01-28,1,,,,,ツキ,0
751,3070003004369,新規,0,2022-01-28,2022-01-28,ＴＳ管理サービス合同会社,,合同会社,群馬県,前橋市,大友町２丁目２０－１２ドミールＳ３０２号,,10,201,3710847,,,,,,,2022-01-28,1,,,,,ティーエスカンリサービス,0
759,3100003006386,新規,0,2022-01-28,2022-01-28,ＫＨＩ合同会社,,合同会社,長野県,長野市,大字栗田４９０番地,,20,201,3800921,,,,,,,2022-01-28,1,,,,,ケイエイチアイ,0
761,3110001036401,新規,0,2022-01-28,2022-01-28,株式会社ケアバンガード,,株式会社,新潟県,新潟市東区,寺山２丁目,,15,102,9500892,,,,,,,2022-01-28,1,,,,,ケアバンガード,0
768,3120001243450,新規,0,2022-01-28,2022-01-28,ブールヘックス株式会社,,株式会社,大阪府,大阪市中央区,内本町２丁目２－１４ＧＳハイム内本町１１０２号室,,27,128,5400026,,,,,,,2022-01-28,1,,,,,ブールヘックス,0
769,3120001243491,新規,0,2022-01-28,2022-01-28,株式会社ＨＩＫＥＮ,,株式会社,大阪府,守口市,橋波東之町３丁目８番２５号,,27,209,5700031,,,,,,,2022-01-28,1,,,,,ヒケン,0
770,3120001243509,新規,0,2022-01-28,2022-01-28,株式会社未来ＯＮ,,株式会社,大阪府,枚方市,茄子作北町１１番２８号,,27,210,5730083,,,,,,,2022-01-28,1,,,,,ミライオン,0
771,3120001243533,新規,0,2022-01-28,2022-01-28,ＳＫＹＣＯＯＬ株式会社,,株式会社,大阪府,大阪市北区,西天満４丁目１１番６－１００４号,,27,127,5300047,,,,,,,2022-01-28,1,,,,,スカイクール,0
772,3120005022751,新規,0,2022-01-28,2022-01-28,医療法人一功会,,その他の設立登記法人,大阪府,大阪市阿倍野区,天王寺町北３丁目１１番４号,,27,119,5450001,,,,,,,2022-01-28,1,,,,,イッコウカイ,0
776,3120103004544,新規,0,2022-01-28,2022-01-28,Ｈｏａｎｇ　Ｈａｎｈ合同会社,,合同会社,大阪府,堺市堺区,櫛屋町東２丁１番７－２０２号,00125551,27,141,5900944,,,,,,,2022-01-28,1,,,,,ホアンハイン,0
779,3120901045525,新規,0,2022-01-28,2022-01-28,フタバ株式会社,,株式会社,大阪府,豊中市,東豊中町５丁目２７－３０,,27,203,5600003,,,,,,,2022-01-28,1,,,,,フタバ,0
783,3122001035539,新規,0,2022-01-28,2022-01-28,株式会社メタルファクトリー,,株式会社,大阪府,東大阪市,川俣１丁目１８番３２号,,27,227,5770063,,,,,,,2022-01-28,1,,,,,メタルファクトリー,0
792,3130005016372,新規,0,2022-01-28,2022-01-28,一般社団法人ＴＯＭＯ学習センター,,その他の設立登記法人,京都府,京都市上京区,智恵光院通上長者町下る下山里町２４３番地ベルスーズ西陣２０３号室,,26,102,6028265,,,,,,,2022-01-28,1,,,,,トモガクシュウセンター,0
798,3140001124582,新規,0,2022-01-28,2022-01-28,アキラ工業株式会社,,株式会社,兵庫県,豊岡市,日高町十戸２８番地,,28,209,6695365,,,,,,,2022-01-28,1,,,,,アキラコウギョウ,0
799,3140001124698,新規,0,2022-01-28,2022-01-28,株式会社尚楓,,株式会社,兵庫県,尼崎市,椎堂１丁目１６番２８号,,28,202,6610952,,,,,,,2022-01-28,1,,,,,ショウフウ,0
800,3140001124715,新規,0,2022-01-28,2022-01-28,株式会社Ｉｒｉｓファイバーズーム,,株式会社,兵庫県,芦屋市,松浜町１５番１５－２０１号,,28,206,6590053,,,,,,,2022-01-28,1,,,,,イリスファイバーズーム,0
803,3140003017289,新規,0,2022-01-28,2022-01-28,合同会社Ｙ．Ｓカンパニー,,合同会社,兵庫県,姫路市,大塩町８５３番地５,,28,201,6710101,,,,,,,2022-01-28,1,,,,,ワイエスカンパニー,0
805,3140005026016,新規,0,2022-01-28,2022-01-28,医療法人社団仁徳会,00125555,その他の設立登記法人,兵庫県,たつの市,神岡町東觜崎字鍵田４７３番５,,28,229,6794109,,,,,,,2022-01-28,1,,,,,ジントクカイ,0
807,3160001023964,新規,0,2022-01-28,2022-01-28,株式会社三十二ホールディングス,,株式会社,滋賀県,蒲生郡日野町,大字上野田８９５番地,,25,383,5291642,,,,,,,2022-01-28,1,,,,,ミソジホールディングス,0
809,3180001149733,新規,0,2022-01-28,2022-01-28,株式会社ＨＹＰＥ,,株式会社,愛知県,名古屋市中区,大須４丁目３－４０ＡＲＫ　ＺＯＮＥ４Ｂ,,23,106,4600011,,,,,,,2022-01-28,1,,,,,ハイプ,0
813,3180003023432,新規,0,2022-01-28,2022-01-28,合同会社Ｋ‐ｐｏｗｅｒ　ｅｎｔｅｒｔａｉｎｍｅｎｔ,,合同会社,愛知県,名古屋市中区,新栄２丁目１３番８－８０８号,,23,106,4600007,,,,,,,2022-01-28,1,,,,,ケーパワーエンターテイメント,0
815,3180005019619,新規,0,2022-01-28,2022-01-28,特定非営利活動法人ＬｉｖＥＱｕａｌｉｔｙ　ＨＵＢ,,その他の設立登記法人,愛知県,名古屋市熱田区,千年１丁目１１番３号,,23,109,4560054,,,,,,,2022-01-28,1,,,,,リブクオリティハブ,0
817,3180301006353,新規,0,2022-01-28,2022-01-28,株式会社東部サービスショップ,,株式会社,愛知県,豊橋市,東小鷹野４丁目２１番地の２２,,23,201,4400012,,,,,,,2022-01-28,1,,,,,トウブサービスショップ,0
828,3240001059249,新規,0,2022-01-28,2022-01-28,株式会社ハングオート,,株式会社,広島県,府中市,鵜飼町８００番地６７,,34,208,7260002,,,,,,,2022-01-28,1,,,,,ハングオート,0
837,3290001096114,新規,0,2022-01-28,2022-01-28,株式会社東京マツシマ福岡,,株式会社,福岡県,糟屋郡志免町,別府北４丁目２番１号,,40,343,8112233,,,,,,,2022-01-28,1,,,,,トウキョウマツシマフクオカ,0
841,3290805009519,新規,0,2022-01-28,2022-01-28,行政書士法人竹井法務事務所,,その他の設立登記法人,福岡県,行橋市,大字元永２８０番地２１２,,40,213,8240015,,,,,,,2022-01-28,1,,,,,タケイホウムジムショ,0
842,3300001012787,新規,0,2022-01-28,2022-01-28,株式会社エイト,,株式会社,佐賀県,鳥栖市,藤木町９５８－２,,41,203,8410048,,,,,,,2022-01-28,1,,,,,エイト,0
849,3330001029390,新規,0,2022-01-28,2022-01-28,株式会社ＪＳＩ,,株式会社,熊本県,熊本市東区,健軍４丁目１８番２１号,,43,102,8620911,,,,,,,2022-01-28,1,,,,,ジェイエスアイ,0
855,3360003011765,新規,0,2022-01-28,2022-01-28,合同会社たきぐすファーム,,合同会社,沖縄県,宮古島市,伊良部字前里添５８８番地９８,,47,214,9060501,,,,,,,2022-01-28,1,,,,,,0
857,3380003005096,新規,0,2022-01-28,2022-01-28,エクセル合同会社,,合同会社,福島県,いわき市,泉町字小山６２番地,,07,204,9718185,,,,,,,2022-01-28,1,,,,,エクセル,0
866,3430003013580,新規,0,2022-01-28,2022-01-28,合同会社Ｕ－Ａｇｅｒｓ,,合同会社,北海道,札幌市中央区,円山西町１丁目６番１号,,01,101,0640944,,,,,,,2022-01-28,1,,,,,ユーエイジャーズ,0
869,3490003001621,新規,0,2022-01-28,2022-01-28,清流ファーム合同会社,,合同会社,高知県,吾川郡仁淀川町,土居乙１９９番地２,,39,387,7811606,,,,,,,2022-01-28,1,,,,,セイリュウファーム,0
871,3700150106655,新規,0,2022-01-28,2022-01-17,岡崎市ナイトタイムエコノミー推進協議会,,その他,愛知県,岡崎市,十王町２丁目９番地岡崎市総合政策部企画課内,,23,202,4440034,,,,,,,2022-01-17,1,,,,,オカザキシナイトタイムエコノミースイシンキヨウギカイ,0
878,4010001223941,新規,0,2022-01-28,2022-01-28,株式会社ブロックスプラス,,株式会社,東京都,千代田区,丸の内３丁目１番１号,,13,101,1000005,,,,,,,2022-01-28,1,,,,,ブロックスプラス,0
879,4010001224139,新規,0,2022-01-28,2022-01-28,Ｂｉｔｏｎｉｃ　Ｔｅｃｈｎｏｌｏｇｙ　Ｌａｂｓ　Ｊａｐａｎ株式会社,,株式会社,東京都,中央区,日本橋小網町１２－７,,13,102,1030016,,,,,,,2022-01-28,1,,,,,バイトニックテクノロジーラボズジャパン,0
880,4010001224171,新規,0,2022-01-28,2022-01-28,ＡＩＳ　Ｂｉｏｔｅｃｈ株式会社,,株式会社,東京都,千代田区,丸の内１丁目５番１号,,13,101,1000005,,,,,,,2022-01-28,1,,,,,エーアイエスバイオテック,0
881,4010001224196,新規,0,2022-01-28,2022-01-28,株式会社ファスト,,株式会社,東京都,千代田区,内神田１丁目２番８号,,13,101,1010047,,,,,,,2022-01-28,1,,,,,ファスト,0
882,4010001224205,新規,0,2022-01-28,2022-01-28,株式会社エコリオ・ホールディングス,,株式会社,東京都,中央区,京橋１丁目３番２号モリイチビル９階,,13,102,1040031,,,,,,,2022-01-28,1,,,,,エコリオホールディングス,0
885,4010005034518,新規,0,2022-01-28,2022-01-28,一般社団法人輝禮舎,,その他の設立登記法人,東京都,中央区,月島３丁目２４番５号月島ＮＲビル１階,,13,102,1040052,,,,,,,2022-01-28,1,,,,,キレイシャ,0
896,4010401165164,新規,0,2022-01-28,2022-01-28,株式会社ＢＬＡＳＴ,,株式会社,東京都,港区,麻布十番１丁目２番７号ラフィネ麻布十番７０１号室,,13,103,1060045,,,,,,,2022-01-28,1,,,,,ブラスト,0
897,4010401165197,新規,0,2022-01-28,2022-01-28,溜池プロパティマネジメント株式会社,,株式会社,東京都,港区,赤坂３丁目５番５号ストロング赤坂ビル７階,,13,103,1070052,,,,,,,2022-01-28,1,,,,,タメイケプロパティマネジメント,0
898,4010401165239,新規,0,2022-01-28,2022-01-28,株式会社ウェルビーイングス,,株式会社,東京都,港区,六本木３丁目２番１号住友不動産六本木グランドタワー８階,,13,103,1060032,,,,,,,2022-01-28,1,,,,,ウェルビーイングス,0
899,4010401165247,新規,0,2022-01-28,2022-01-28,株式会社Ｋ－ＬＩＮＥ,,株式会社,東京都,港区,芝２丁目２８番４号,,13,103,1050014,,,,,,,2022-01-28,1,,,,,ケイライン,0
906,4010403026991,新規,0,2022-01-28,2022-01-28,新東京合同会社,,合同会社,東京都,港区,南青山２丁目２番１５号,,13,103,1070062,,,,,,,2022-01-28,1,,,,,シントウキョウ,0
907,4010501048376,新規,0,2022-01-28,2022-01-28,景源株式会社,,株式会社,東京都,台東区,上野５丁目８番１０－９０６号,,13,106,1100005,,,,,,,2022-01-28,1,,,,,ケイゲン,0
909,4010601060561,新規,0,2022-01-28,2022-01-28,株式会社アトリエ雪花,,株式会社,東京都,江東区,有明２丁目１番２－２３０７号,,13,108,1350063,,,,,,,2022-01-28,1,,,,,アトリエセッカ,0
910,4010601060578,新規,0,2022-01-28,2022-01-28,株式会社オルマイル,,株式会社,東京都,江東区,東雲１丁目９番４２－３６１０号,,13,108,1350062,,,,,,,2022-01-28,1,,,,,オルマイル,0
913,4010701042154,新規,0,2022-01-28,2022-01-28,ペレグリン・ライフ・コンサルティング株式会社,,株式会社,東京都,品川区,東五反田５丁目２２番３７号オフィスサークルＮ五反田６階,,13,109,1410022,,,,,,,2022-01-28,1,,,,,ペレグリンライフコンサルティング,0
914,4010703006082,新規,0,2022-01-28,2022-01-28,ｏｆｆｂｅａｔ合同会社,,合同会社,東京都,品川区,南大井５丁目１０番１２－７０１号,,13,109,1400013,,,,,,,2022-01-28,1,,,,,オフビート,0
917,4010801032690,新規,0,2022-01-28,2022-01-28,エスケーエムズ株式会社,,株式会社,東京都,大田区,南馬込３丁目３番１２号,,13,111,1430025,,,,,,,2022-01-28,1,,,,,エスケーエムズ,0
918,4010803004044,新規,0,2022-01-28,2022-01-28,合同会社ＲＢＳ,,合同会社,東京都,大田区,池上３丁目２番１９号カーサ須永１０１,,13,111,1460082,,,,,,,2022-01-28,1,,,,,アールビーエス,0
932,4011001145218,新規,0,2022-01-28,2022-01-28,株式会社ｓｕａｌｙ,,株式会社,東京都,渋谷区,神宮前６丁目２３番４号桑野ビル２階,,13,113,1500001,,,,,,,2022-01-28,1,,,,,スアリー,0
933,4011001145333,新規,0,2022-01-28,2022-01-28,株式会社トリニティノット,,株式会社,東京都,渋谷区,神宮前６丁目２３番４号桑野ビル２階,,13,113,1500001,,,,,,,2022-01-28,1,,,,,トリニティノット,0
939,4011101097598,新規,0,2022-01-28,2022-01-28,株式会社ハッピーリフォーム,,株式会社,東京都,新宿区,四谷坂町１１－９－４０１,,13,104,1600002,,,,,,,2022-01-28,1,,,,,ハッピーリフォーム,0
940,4011103011400,新規,0,2022-01-28,2022-01-28,ｈａｐｐｙ　ｈｏｕｒ合同会社,,合同会社,東京都,新宿区,若松町９番１４－１１０３号,,13,104,1620056,,,,,,,2022-01-28,1,,,,,ハッピーアワー,0
941,4011303004294,新規,0,2022-01-28,2022-01-28,合同会社こよみ,,合同会社,東京都,杉並区,和田２丁目５－１－５２２,,13,115,1660012,,,,,,,2022-01-28,1,,,,,コヨミ,0
947,4011401023989,新規,0,2022-01-28,2022-01-28,トラストホープ株式会社,,株式会社,東京都,板橋区,高島平１丁目７９番３号,,13,119,1750082,,,,,,,2022-01-28,1,,,,,トラストホープ,0
953,4011803004950,新規,0,2022-01-28,2022-01-28,ＩＫＳ　ＪＡＰＡＮ合同会社,,合同会社,東京都,足立区,大谷田４丁目２番１５号イクス北綾瀬１０１,,13,121,1200001,,,,,,,2022-01-28,1,,,,,イクスジャパン,0
961,4020001144988,新規,0,2022-01-28,2022-01-28,株式会社湊電工,,株式会社,神奈川県,横浜市金沢区,六浦４丁目１１番４５号ハイツカバヤ２０１,,14,108,2360031,,,,,,,2022-01-28,1,,,,,ミナトデンコウ,0
962,4020001145029,新規,0,2022-01-28,2022-01-28,株式会社阪奈不動産,,株式会社,神奈川県,横浜市神奈川区,上反町２丁目１７番地１ＴＯＹＯメゾン１０２号,,14,102,2210831,,,,,,,2022-01-28,1,,,,,ハンナフドウサン,0
963,4020001145037,新規,0,2022-01-28,2022-01-28,ＤＥＮＺＡＩ株式会社,,株式会社,神奈川県,川崎市川崎区,浅野町９番１号,,14,131,2100854,,,,,,,2022-01-28,1,,,,,デンザイ,0
995,4021003011326,新規,0,2022-01-28,2022-01-28,合同会社ＭＹ,,合同会社,神奈川県,伊勢原市,串橋２７８番地の１９,,14,214,2591136,,,,,,,2022-01-28,1,,,,,エムワイ,0
996,4021003011342,新規,0,2022-01-28,2022-01-28,合同会社ベントーブックスジャパン,,合同会社,神奈川県,厚木市,林２丁目３７－５,,14,212,2430816,,,,,,,2022-01-28,1,,,,,ベントーブックスジャパン,0
1004,4030003018751,新規,0,2022-01-28,2022-01-28,合同会社ｎｅｓｔ,,合同会社,埼玉県,越谷市,南越谷１丁目６－８６－８０１,,11,222,3430845,,,,,,,2022-01-28,1,,,,,ネスト,0
1013,4050003006341,新規,0,2022-01-28,2022-01-28,Ｒｅｉｗａ　Ｊａｐａｎ合同会社,,合同会社,茨城県,筑西市,岡芹９０２番地１,,08,227,3080051,,,,,,,2022-01-28,1,,,,,レイワジャパン,0
1014,4050005013006,新規,0,2022-01-28,2022-01-28,一般社団法人クオリード,,その他の設立登記法人,茨城県,水戸市,笠原町９９番地２,,08,201,3100852,,,,,,,2022-01-28,1,,,,,クオリード,0
1023,4080001024714,新規,0,2022-01-28,2022-01-28,株式会社ＢＥＴＴＥＲ　ＥＡＲＴＨ,,株式会社,静岡県,藤枝市,青葉町３丁目１１番２８号,,22,214,4260066,,,,,,,2022-01-28,1,,,,,ベターアース,0
1026,4080401025592,新規,0,2022-01-28,2022-01-28,株式会社浜松ベジタブル設立準備会社,,株式会社,静岡県,浜松市南区,金折町１９０９番地,,22,134,4350026,,,,,,,2022-01-28,1,,,,,ハママツベジタブルセツリツジュンビガイシャ,0
1031,4100001035015,新規,0,2022-01-28,2022-01-28,重機工業株式会社,,株式会社,長野県,長野市,大字川合新田１４０２番地５,,20,201,3800913,,,,,,,2022-01-28,1,,,,,ジュウキコウギョウ,0
1045,4120001243425,新規,0,2022-01-28,2022-01-28,株式会社ＯＫマーケティング,,株式会社,大阪府,大阪市西区,南堀江４丁目１１番８－３００５号,,27,106,5500015,,,,,,,2022-01-28,1,,,,,オーケーマーケティング,0
1046,4120001243482,新規,0,2022-01-28,2022-01-28,亜細亜フーズ株式会社,,株式会社,大阪府,大阪市西区,靱本町３丁目８番１８－１００３号,,27,106,5500004,,,,,,,2022-01-28,1,,,,,アジアフーズ,0
1047,4120001243490,新規,0,2022-01-28,2022-01-28,安和通商株式会社,,株式会社,大阪府,大阪市北区,松ケ枝町１番３９号,,27,127,5300037,,,,,,,2022-01-28,1,,,,,アンワツウショウ,0
1048,4120001243524,新規,0,2022-01-28,2022-01-28,株式会社Ｔサンクス,,株式会社,大阪府,大阪市中央区,谷町１丁目７番４号５階,,27,128,5400012,,,,,,,2022-01-28,1,,,,,ティーサンクス,0
1053,4120003021036,新規,0,2022-01-28,2022-01-28,合同会社ＮＢＭ　Ｊａｐａｎ,,合同会社,大阪府,大阪市城東区,諏訪１丁目８番１９号,,27,118,5360021,,,,,,,2022-01-28,1,,,,,エンビエムジャパン,0
1054,4120003021044,新規,0,2022-01-28,2022-01-28,合同会社ＮＥＷ　ＦＯＣＵＳ,,合同会社,大阪府,大阪市東住吉区,杭全１丁目３番９号,,27,121,5460002,,,,,,,2022-01-28,1,,,,,ニューフォーカス,0
1067,4140001124730,新規,0,2022-01-28,2022-01-28,株式会社オトシネマ,,株式会社,兵庫県,神戸市灘区,岩屋北町４丁目４－１５－１,,28,102,6570846,,,,,,,2022-01-28,1,,,,,オトシネマ,0
1069,4140003017296,新規,0,2022-01-28,2022-01-28,リブアンドピース合同会社,,合同会社,兵庫県,神戸市北区,鈴蘭台北町７丁目１７番４号,,28,109,6511111,,,,,,,2022-01-28,1,,,,,リブアンドピース,0
1071,4170001016958,新規,0,2022-01-28,2022-01-28,株式会社桑原組,,株式会社,和歌山県,有田郡有田川町,大字庄７７４番地２,,30,366,6430811,,,,,,,2022-01-28,1,,,,,クワバラグミ,0
1080,4180001149732,新規,0,2022-01-28,2022-01-28,株式会社Ｂ’ｓ,,株式会社,愛知県,名古屋市中区,栄３丁目３１－１８－１０Ｆ－Ｓ,,23,106,4600008,,,,,,,2022-01-28,1,,,,,ビーズ,0
1085,4180005019618,新規,0,2022-01-28,2022-01-28,一般社団法人親子発達サポートそーる,,その他の設立登記法人,愛知県,名古屋市北区,柳原３丁目１０番５号,,23,103,4620845,,,,,,,2022-01-28,1,,,,,オヤコハッタツサポートソール,0
1088,4190001029066,新規,0,2022-01-28,2022-01-28,株式会社ＡＵＴＯ　ＣＩＴＹ,,株式会社,三重県,桑名郡木曽岬町,大字白鷺６２８番地１６５,,24,303,4980815,,,,,,,2022-01-28,1,,,,,オートシティ,0
1096,4240001059256,新規,0,2022-01-28,2022-01-28,株式会社友鉄アロー,,株式会社,広島県,安芸高田市,吉田町竹原５１５番地,,34,214,7310511,,,,,,,2022-01-28,1,,,,,トモテツアロー,0
1100,4240003005480,新規,0,2022-01-28,2022-01-28,Ｃｏｃｏ合同会社,,合同会社,広島県,江田島市,能美町鹿川２０８１－１,,34,215,7372302,,,,,,,2022-01-28,1,,,,,ココ,0
1106,4260003003788,新規,0,2022-01-28,2022-01-28,合同会社Ｔｏｍｏｒｒｏｗ,,合同会社,岡山県,岡山市南区,浜野２丁目６番１５号,,33,104,7000845,,,,,,,2022-01-28,1,,,,,トゥモロー,0
1112,4290001096229,新規,0,2022-01-28,2022-01-28,株式会社ＳＦＩＤＡ,,株式会社,福岡県,福岡市博多区,築港本町１０番２０－１２０８号エンクレスト天神ＬＩＮＫ,,40,132,8120021,,,,,,,2022-01-28,1,,,,,スフィーダ,0
1122,4320005009959,新規,0,2022-01-28,2022-01-28,農事組合法人ライス＆グレープなかやま,,その他の設立登記法人,大分県,宇佐市,安心院町中山１８８番地,,44,211,8720525,,,,,,,2022-01-28,1,,,,,ライスアンドグレープナカヤマ,0
1123,4330001029398,新規,0,2022-01-28,2022-01-28,くまもと農工株式会社,,株式会社,熊本県,八代市,東陽町南３０２８番地,,43,202,8694301,,,,,,,2022-01-28,1,,,,,クマモトノウコウ,0
1124,4340001024456,新規,0,2022-01-28,2022-01-28,株式会社彩陣,,株式会社,鹿児島県,姶良市,加治木町港町２３番地,,46,225,8995221,,,,,,,2022-01-28,1,,,,,サイジン,0
1128,4340003003697,新規,0,2022-01-28,2022-01-28,合同会社ＮＩＳＨＩＹＡＭＡ,,合同会社,鹿児島県,薩摩川内市,御陵下町５番３２号,,46,215,8950061,,,,,,,2022-01-28,1,,,,,ニシヤマ,0
1131,4360001029949,新規,0,2022-01-28,2022-01-28,農地所有適格法人彩農開花株式会社,,株式会社,沖縄県,豊見城市,字豊崎１番地６０８,,47,212,9010225,,,,,,,2022-01-28,1,,,,,,0
1134,4370001048130,新規,0,2022-01-28,2022-01-28,株式会社加藤畜産,,株式会社,宮城県,角田市,藤田字舘８８番地１,,04,208,9811501,,,,,,,2022-01-28,1,,,,,カトウチクサン,0
1135,4370001048139,新規,0,2022-01-28,2022-01-28,株式会社ＬＳＣ,,株式会社,宮城県,仙台市青葉区,中央４丁目１－３プレイビル３階,,04,101,9800021,,,,,,,2022-01-28,1,,,,,エルエスシー,0
1136,4370001048147,新規,0,2022-01-28,2022-01-28,株式会社Ａｔｈｎｏｍｅｄｉｃａｌ,,株式会社,宮城県,仙台市青葉区,一番町２丁目４－１９シリウス一番町３階青葉通り一番町形成外科皮ふ科,,04,101,9800811,,,,,,,2022-01-28,1,,,,,アスノメディカル,0
1143,4420001017724,新規,0,2022-01-28,2022-01-28,小林農事株式会社,,株式会社,青森県,上北郡七戸町,字山屋１１０番地,,02,402,0392559,,,,,,,2022-01-28,1,,,,,コバヤシノウジ,0
1146,4430001085885,新規,0,2022-01-28,2022-01-28,株式会社空間ＣＲＥＡＴＥ,,株式会社,北海道,札幌市北区,新琴似十条１４丁目５番２０号,,01,102,0010910,,,,,,,2022-01-28,1,,,,,クウカンクリエイト,0
1152,4450003002176,新規,0,2022-01-28,2022-01-28,合同会社リフォームサポート縁,,合同会社,北海道,旭川市,神楽岡十六条４丁目２番１９号,,01,204,0788326,,,,,,,2022-01-28,1,,,,,リフォームサポートエン,0
1154,4470001018949,新規,0,2022-01-28,2022-01-28,令和産業株式会社,,株式会社,香川県,高松市,飯田町４８７番地１キャトルセゾン２０１,,37,201,7618033,,,,,,,2022-01-28,1,,,,,レイワサンギョウ,0
1162,4700150106852,新規,0,2022-01-28,2022-01-28,Ｓｈｅｎｚｈｅｎ　Ｄｏｎｇｚｈａｎ　Ｅ－ｃｏｍｍｅｒｃｅ　Ｔｅｃｈｎｏｌｏｇｙ　Ｃｏ．，Ｌｔｄ,,外国会社等,,,,,,,,Ｎｏ３３５，Ｂｕｌｏｎｇ　Ｒｄ，Ｍａ’ａｎｔａｎｇ　Ｃｏｍｍｕｎｉｔｙ，Ｂａｎｔｉａｎ　Ｓｔ，Ｌｏｎｇｇａｎｇ　Ｄｉｓｔｒｉｃｔ，Ｓｈｅｎｚｈｅｎ，Ｃｈｉｎａ　,,,,,,2022-01-28,1,,,,,シエンチエンドンヂアンイーコマーステクノロジーカンパニーリミテツド,0
1183,5010005034517,新規,0,2022-01-28,2022-01-28,コスモス２一般社団法人,,その他の設立登記法人,東京都,中央区,日本橋１丁目４番１号日本橋一丁目ビルディング,,13,102,1030027,,,,,,,2022-01-28,1,,,,,コスモスニ,0
1185,5010101015049,新規,0,2022-01-28,2022-01-28,ＬＥＯ　ＥＮＴＥＲＰＲＩＳＥ株式会社,,株式会社,東京都,八王子市,鑓水２丁目１４７９番地３８,,13,201,1920375,,,,,,,2022-01-28,1,,,,,レオエンタープライズ,0
1189,5010401165188,新規,0,2022-01-28,2022-01-28,株式会社アートマイクローブ,,株式会社,東京都,港区,新橋２丁目１６番１号,,13,103,1050004,,,,,,,2022-01-28,1,,,,,アートマイクローブ,0
1190,5010401165196,新規,0,2022-01-28,2022-01-28,ＷｉｓｅＦＸ　Ｊａｐａｎ株式会社,,株式会社,東京都,港区,虎ノ門１丁目２３番１号虎ノ門ヒルズ森タワー２９階,,13,103,1050001,,,,,,,2022-01-28,1,,,,,ワイズエフエックスジャパン,0
1194,5010403026974,新規,0,2022-01-28,2022-01-28,合同会社わあむ,,合同会社,東京都,港区,元麻布２丁目１０－２サンビューハイツ第二元麻布３０１,,13,103,1060046,,,,,,,2022-01-28,1,,,,,ワアム,0
1195,5010403026999,新規,0,2022-01-28,2022-01-28,合同会社ｍｕｓｔ,,合同会社,東京都,港区,赤坂２丁目１７番５０－３２１１号,,13,103,1070052,,,,,,,2022-01-28,1,,,,,マスト,0
1196,5010501048375,新規,0,2022-01-28,2022-01-28,ウィンテック株式会社,,株式会社,東京都,台東区,台東４丁目１０番１号,,13,106,1100016,,,,,,,2022-01-28,1,,,,,ウィンテック,0
1205,5010803004043,新規,0,2022-01-28,2022-01-28,合同会社オールドパー,,合同会社,東京都,大田区,大森南２丁目４番１３号メゾンカルム１Ｆ,,13,111,1430013,,,,,,,2022-01-28,1,,,,,,0
1210,5011001145225,新規,0,2022-01-28,2022-01-28,株式会社花田企画,,株式会社,東京都,渋谷区,千駄ヶ谷５丁目２番４号,,13,113,1510051,,,,,,,2022-01-28,1,,,,,ハナダキカク,0
1223,5011303004293,新規,0,2022-01-28,2022-01-28,Ｆ＆Ｂ２合同会社,,合同会社,東京都,杉並区,南荻窪４丁目４１－６Ｎｏ．１００２,,13,115,1670052,,,,,,,2022-01-28,1,,,,,エフアンドビーツー,0
1225,5011401023988,新規,0,2022-01-28,2022-01-28,株式会社スリーエイト,,株式会社,東京都,板橋区,南町１番９号ルミナス７０４,,13,119,1730027,,,,,,,2022-01-28,1,,,,,スリーエイト,0
1226,5011403003550,新規,0,2022-01-28,2022-01-28,合同会社ＰＤ設計,,合同会社,東京都,板橋区,中台１丁目２２番１５号,,13,119,1740064,,,,,,,2022-01-28,1,,,,,ピーディーセッケイ,0
1232,5012301012866,新規,0,2022-01-28,2022-01-28,株式会社エースリゾート,,株式会社,東京都,町田市,南成瀬１丁目７番９号,,13,209,1940045,,,,,,,2022-01-28,1,,,,,エースリゾート,0
1236,5012401038786,新規,0,2022-01-28,2022-01-28,株式会社ＹＲＴハウスソリューションズ,,株式会社,東京都,府中市,本宿町２丁目１番地の６プレシス府中エンティア９０３,,13,206,1830032,,,,,,,2022-01-28,1,,,,,ワイアールティーハウスソリューションズ,0
1237,5012401038803,新規,0,2022-01-28,2022-01-28,ティズクリエイション株式会社,,株式会社,東京都,武蔵野市,中町１丁目２２番２号,,13,203,1800006,,,,,,,2022-01-28,1,,,,,ティズクリエイション,0
1238,5012403005207,新規,0,2022-01-28,2022-01-28,ＭＴＣ合同会社,,合同会社,東京都,三鷹市,上連雀８丁目１０番２号,,13,204,1810012,,,,,,,2022-01-28,1,,,,,エムティシー,0
1250,5020001144995,新規,0,2022-01-28,2022-01-28,株式会社大塚塗工,00125547,株式会社,神奈川県,横浜市戸塚区,下倉田町１７５６番地１０７－１０４号,,14,110,2440815,,,,,,,2022-01-28,1,,,,,オオツカトコウ,0
1251,5020001145011,新規,0,2022-01-28,2022-01-28,株式会社ＲＹＵＨＯ,,株式会社,神奈川県,横浜市青葉区,奈良町２８２４番地１ワコーレ玉川学園Ｂ棟２０５号,,14,117,2270036,,,,,,,2022-01-28,1,,,,,リュウホウ,0
1252,5020001145036,新規,0,2022-01-28,2022-01-28,ＰｒｏＬＩＮＫエンジニアリング株式会社,,株式会社,神奈川県,川崎市麻生区,千代ケ丘８丁目１３番９号,,14,137,2150005,,,,,,,2022-01-28,1,,,,,プロリンクエンジニアリング,0
1258,5020003021185,新規,0,2022-01-28,2022-01-28,８８合同会社,,合同会社,神奈川県,横浜市青葉区,荏子田３丁目７番地６,,14,117,2250005,,,,,,,2022-01-28,1,,,,,ハチハチ,0
1259,5020003021210,新規,0,2022-01-28,2022-01-28,合同会社ＡＱＵＡ,,合同会社,神奈川県,横浜市旭区,今宿町２６５８番地４３,,14,112,2410813,,,,,,,2022-01-28,1,,,,,アクア,0
1270,5021001032463,新規,0,2022-01-28,2022-01-28,株式会社オール・プランナー,,株式会社,神奈川県,小田原市,寿町１丁目９番１７号,,14,206,2500002,,,,,,,2022-01-28,1,,,,,,0
1275,5021001075058,新規,0,2022-01-28,2022-01-28,株式会社和総合開発,,株式会社,神奈川県,相模原市緑区,根小屋１８９１番地,,14,151,2520153,,,,,,,2022-01-28,1,,,,,ヤマトソウゴウカイハツ,0
1276,5021001075066,新規,0,2022-01-28,2022-01-28,株式会社仁空調,,株式会社,神奈川県,三浦郡葉山町,長柄１４６１番地の４３６,,14,301,2400113,,,,,,,2022-01-28,1,,,,,ジンクウチョウ,0
1304,5030001146512,新規,0,2022-01-28,2022-01-28,幸和商事株式会社,,株式会社,埼玉県,所沢市,小手指町３丁目７番３号煉瓦館２５－１０１,,11,208,3591141,,,,,,,2022-01-28,1,,,,,コウワショウジ,0
1305,5030001146545,新規,0,2022-01-28,2022-01-28,株式会社ホームズ訪問看護,,株式会社,埼玉県,深谷市,緑ケ丘２４番６号,,11,218,3660054,,,,,,,2022-01-28,1,,,,,ホームズホウモンカンゴ,0
1309,5030005020705,新規,0,2022-01-28,2022-01-28,ＮＰＯ法人Ｒｅａｌｉｚｅ,,その他の設立登記法人,埼玉県,草加市,旭町３丁目５番５号,,11,221,3400053,,,,,,,2022-01-28,1,,,,,リアライズ,0
1320,5050001050547,新規,0,2022-01-28,2022-01-28,株式会社Ｋ－ＳＴＹＬＥ,,株式会社,茨城県,つくば市,森の里７６番地１０,,08,220,3001256,,,,,,,2022-01-28,1,,,,,ケイスタイル,0
1321,5050003006340,新規,0,2022-01-28,2022-01-28,合同会社宇佐美管工,,合同会社,茨城県,石岡市,須釜１３４０番地５,,08,205,3150151,,,,,,,2022-01-28,1,,,,,ウサミカンコウ,0
1328,5060001034532,新規,0,2022-01-28,2022-01-28,株式会社ＵＳ　ＴＲＡＤＩＮＧ,,株式会社,栃木県,小山市,大字出井７６１番地１９,,09,208,3230808,,,,,,,2022-01-28,1,,,,,ユーエストレーディング,0
1334,5070005009942,新規,0,2022-01-28,2022-01-28,特定非営利活動法人ＳＡＶＥＲ自立支援サポートセンター,,その他の設立登記法人,群馬県,吾妻郡嬬恋村,大字袋倉１０２２番地２,,10,425,3771522,,,,,,,2022-01-28,1,,,,,セイバージリツシエンサポートセンター,0
1335,5080001024721,新規,0,2022-01-28,2022-01-28,Ｋｅｅｐ　Ｆｉｔ株式会社,,株式会社,静岡県,静岡市葵区,古庄６丁目５番１１号,,22,101,4200812,,,,,,,2022-01-28,1,,,,,キープフィット,0
1338,5080401025591,新規,0,2022-01-28,2022-01-28,株式会社浜中設立準備会社,,株式会社,静岡県,浜松市南区,新貝町２３９番地の１,,22,134,4350023,,,,,,,2022-01-28,1,,,,,ハマチュウセツリツジュンビガイシャ,0
1360,5120001243498,新規,0,2022-01-28,2022-01-28,株式会社ラリーコムレイド,,株式会社,大阪府,大阪市鶴見区,緑３丁目２番２号,,27,124,5380054,,,,,,,2022-01-28,1,,,,,ラリーコムレイド,0
1361,5120001243523,新規,0,2022-01-28,2022-01-28,株式会社シュバリエ,,株式会社,大阪府,大阪市中央区,西心斎橋２丁目１２番２２号朝日プラザ心斎橋１０１５号室,,27,128,5420086,,,,,,,2022-01-28,1,,,,,シュバリエ,0
1364,5120003021035,新規,0,2022-01-28,2022-01-28,合同会社中島計算センター,,合同会社,大阪府,大阪市北区,梅田１丁目１－３大阪駅前第３ビル２９階１－１－１号室,,27,127,5300001,,,,,,,2022-01-28,1,,,,,ナカジマケイサンセンター,0
1365,5120003021043,新規,0,2022-01-28,2022-01-28,ＳＨｅｅｅＮＡ合同会社,,合同会社,大阪府,大阪市此花区,高見１丁目３番３２－３０４号,,27,104,5540001,,,,,,,2022-01-28,1,,,,,シイナ,0
1367,5120005022758,新規,0,2022-01-28,2022-01-28,医療法人悠恵会,,その他の設立登記法人,大阪府,大阪市大正区,小林西１丁目２番２号,,27,108,5510013,,,,,,,2022-01-28,1,,,,,ユウケイカイ,0
1373,5120903004015,新規,0,2022-01-28,2022-01-28,合同会社ＳＩ＆Ｔ,,合同会社,大阪府,吹田市,佐竹台３丁目８番１２－１号,,27,205,5650855,,,,,,,2022-01-28,1,,,,,エスアイアンドティ,0
1375,5122001035537,新規,0,2022-01-28,2022-01-28,シンエイ株式会社,,株式会社,大阪府,八尾市,竹渕西４丁目２２３番地,,27,212,5810051,,,,,,,2022-01-28,1,,,,,シンエイ,0
1379,5130003007710,新規,0,2022-01-28,2022-01-28,石橋商会合同会社,,合同会社,京都府,京都市中京区,御池通東洞院東入笹屋町４３６永和御池ビル６０６号,,26,104,6048187,,,,,,,2022-01-28,1,,,,,イシバシショウカイ,0
1380,5130003007719,新規,0,2022-01-28,2022-01-28,合同会社あいあい２４,,合同会社,京都府,宇治市,広野町一里山３４番地５Ｙ・Ｂエステート１－Ｂ,,26,204,6110031,,,,,,,2022-01-28,1,,,,,アイアイニジュウヨン,0
1384,5140001124663,新規,0,2022-01-28,2022-01-28,株式会社Ｐｌａｎｔｓ　Ｂａｋａ,,株式会社,兵庫県,神戸市中央区,熊内町２丁目１番１９－１号,,28,110,6510056,,,,,,,2022-01-28,1,,,,,プランツバカ,0
1385,5140001124713,新規,0,2022-01-28,2022-01-28,株式会社いろは,,株式会社,兵庫県,丹波篠山市,二階町１８番地１,,28,221,6692331,,,,,,,2022-01-28,1,,,,,イロハ,0
1386,5140001124721,新規,0,2022-01-28,2022-01-28,株式会社のぶ建,,株式会社,兵庫県,西宮市,名塩茶園町５番１号,,28,204,6691144,,,,,,,2022-01-28,1,,,,,ノブケン,0
1388,5140003017295,新規,0,2022-01-28,2022-01-28,合同会社ＹＳプランニング,,合同会社,兵庫県,神戸市長田区,若松町９丁目１－５,,28,106,6530038,,,,,,,2022-01-28,1,,,,,ワイエスプランニング,0
1391,5150001025290,新規,0,2022-01-28,2022-01-28,株式会社ＧＥＯＣＯＲＥ,,株式会社,奈良県,奈良市,京終地方東側町４番地の７ローレルコート奈良南６０６号,,29,201,6308323,,,,,,,2022-01-28,1,,,,,ジーイーオーコア,0
1392,5160001023962,新規,0,2022-01-28,2022-01-28,東洋和装縫製株式会社,,株式会社,滋賀県,米原市,醒井４７９番地,,25,214,5210035,,,,,,,2022-01-28,1,,,,,トウヨウワソウホウセイ,0
1393,5170001016957,新規,0,2022-01-28,2022-01-28,ＰＢＹコンサルティング株式会社,,株式会社,和歌山県,和歌山市,加納４４７番地７,,30,201,6408391,,,,,,,2022-01-28,1,,,,,ピービーワイコンサルティング,0
1394,5170001016965,新規,0,2022-01-28,2022-01-28,株式会社サンセール,,株式会社,和歌山県,和歌山市,小雑賀１４７番地１,,30,201,6410007,,,,,,,2022-01-28,1,,,,,サンセール,0
1396,5180001149723,新規,0,2022-01-28,2022-01-28,株式会社凛,,株式会社,愛知県,名古屋市西区,菊井１丁目１２番１８号,,23,104,4510044,,,,,,,2022-01-28,1,,,,,リン,0
1402,5180301035879,新規,0,2022-01-28,2022-01-28,株式会社ＶＩＥＴＡ　ＧＬＯＢＡＬ,,株式会社,愛知県,岡崎市,伝馬通２丁目２５番地２,,23,202,4440038,,,,,,,2022-01-28,1,,,,,ベットアグローバル,0
1409,5200001039698,新規,0,2022-01-28,2022-01-28,株式会社フクハチ,,株式会社,岐阜県,郡上市,白鳥町白鳥１２４番地２,,21,219,5015121,,,,,,,2022-01-28,1,,,,,フクハチ,0
1410,5200001039707,新規,0,2022-01-28,2022-01-28,株式会社ＯＪＰ,,株式会社,岐阜県,高山市,国府町金桶２２０番地２,,21,203,5094123,,,,,,,2022-01-28,1,,,,,オージェーピー,0
1418,5260001036467,新規,0,2022-01-28,2022-01-28,株式会社イートシー,,株式会社,岡山県,倉敷市,北畝２丁目３番３２号,,33,202,7128032,,,,,,,2022-01-28,1,,,,,イートシー,0
1429,5290803004049,新規,0,2022-01-28,2022-01-28,合同会社ヒューマニティー,,合同会社,福岡県,行橋市,行事６丁目１１番８号,,40,213,8240001,,,,,,,2022-01-28,1,,,,,ヒューマニティー,0
1431,5300003001786,新規,0,2022-01-28,2022-01-28,合同会社みやき野あいちゃん農園,,合同会社,佐賀県,三養基郡みやき町,大字坂口３１５番地,,41,346,8401103,,,,,,,2022-01-28,1,,,,,ミヤキノアイチャンノウエン,0
1432,5310001017692,新規,0,2022-01-28,2022-01-28,株式会社ＳＷＩＮＧ,,株式会社,長崎県,長崎市,滑石３丁目８番１３号,,42,201,8528061,,,,,,,2022-01-28,1,,,,,スウィング,0
1434,5330001029389,新規,0,2022-01-28,2022-01-28,株式会社日向風,,株式会社,熊本県,宇城市,松橋町久具２３５５番地４,,43,213,8690532,,,,,,,2022-01-28,1,,,,,ヒムカシ,0
1440,5340001024455,新規,0,2022-01-28,2022-01-28,株式会社コウヅマ,,株式会社,鹿児島県,鹿屋市,寿２丁目７番２１－２号,,46,203,8930014,,,,,,,2022-01-28,1,,,,,コウヅマ,0
1445,5350001017557,新規,0,2022-01-28,2022-01-28,株式会社椛,,株式会社,宮崎県,日南市,南郷町中村甲４００番地,,45,204,8893202,,,,,,,2022-01-28,1,,,,,モミジ,0
1446,5350005006044,新規,0,2022-01-28,2022-01-28,特定非営利活動法人えびの白鳥地域森林・歴史・文化等を保存伝承する会,,その他の設立登記法人,宮崎県,えびの市,大字末永１１９７番地,,45,209,8894302,,,,,,,2022-01-28,1,,,,,エビノシラトリチイキシンリンレキシブンカナドヲホゾンデンショウスルカイ,0
1459,5390003001919,新規,0,2022-01-28,2022-01-28,合同会社Ｌｅ　ｌｉｅｎ,,合同会社,山形県,米沢市,城南２丁目３番２３号１階,,06,202,9920038,,,,,,,2022-01-28,1,,,,,リアン,0
1469,5430001085884,新規,0,2022-01-28,2022-01-28,エスケージー株式会社,,株式会社,北海道,札幌市中央区,北二条西２０丁目２番１５号,,01,101,0640822,,,,,,,2022-01-28,1,,,,,エスケージー,0
1470,5430001085892,新規,0,2022-01-28,2022-01-28,株式会社ＹＮＳトラスト,,株式会社,北海道,札幌市白石区,菊水七条３丁目１番７－１４０３号,,01,104,0030807,,,,,,,2022-01-28,1,,,,,ワイエヌエストラスト,0
1473,5430003013579,新規,0,2022-01-28,2022-01-28,合同会社Ｆａｉｎ,,合同会社,北海道,札幌市中央区,南六条西２４丁目３番７号,,01,101,0640806,,,,,,,2022-01-28,1,,,,,ファイン,0
1474,5450001013604,新規,0,2022-01-28,2022-01-28,株式会社Ｌａｎｇｐｏｒｔ,,株式会社,北海道,上川郡東川町,南町３丁目１３番２号,,01,458,0711424,,,,,,,2022-01-28,1,,,,,ランポート,0
1476,5460101007133,新規,0,2022-01-28,2022-01-28,株式会社ＷａｙｔｏＧｏ,,株式会社,北海道,帯広市,西三条南１１丁目６,,01,207,0800013,,,,,,,2022-01-28,1,,,,,ウェイトゥゴー,0
1477,5460301003568,新規,0,2022-01-28,2022-01-28,株式会社北州,,株式会社,北海道,網走郡美幌町,字野崎６４番地の２,,01,543,0920005,,,,,,,2022-01-28,1,,,,,,0
1479,5490001010102,新規,0,2022-01-28,2022-01-28,株式会社ＰＬＵＳＮＩＮＥ,,株式会社,高知県,高知市,長浜１６０７番地５,,39,201,7810270,,,,,,,2022-01-28,1,,,,,プラスナイン,0
1489,6010001224137,新規,0,2022-01-28,2022-01-28,株式会社ＭａｒｕＤｉｎｉｎｇ,,株式会社,東京都,文京区,湯島３丁目３６－１ＴＯＹＯＴＯＭＩビル５階,,13,105,1130034,,,,,,,2022-01-28,1,,,,,マルダイニング,0
1490,6010001224153,新規,0,2022-01-28,2022-01-28,株式会社らせん,,株式会社,東京都,中央区,銀座１丁目２２番１１号銀座大竹ビジデンス２階,,13,102,1040061,,,,,,,2022-01-28,1,,,,,ラセン,0
1491,6010001224186,新規,0,2022-01-28,2022-01-28,株式会社サイドブレイン,,株式会社,東京都,千代田区,九段北１丁目３番１号ＶＯＲＴ九段下５Ｆ,,13,101,1020073,,,,,,,2022-01-28,1,,,,,サイドブレイン,0
1492,6010003036877,新規,0,2022-01-28,2022-01-28,ＩＫグリーンインベストメント合同会社,,合同会社,東京都,中央区,日本橋本町２丁目８番２号,,13,102,1030023,,,,,,,2022-01-28,1,,,,,アイケーグリーンインベストメント,0
1493,6010101015048,新規,0,2022-01-28,2022-01-28,株式会社ＫＤたびや,,株式会社,東京都,八王子市,北野町５３５番地２３,,13,201,1920906,,,,,,,2022-01-28,1,,,,,ケーディータビヤ,0
1499,6010403026998,新規,0,2022-01-28,2022-01-28,ａｎａｄｉｇｉ合同会社,,合同会社,東京都,港区,浜松町２丁目２番１５号浜松町ダイヤビル２Ｆ,,13,103,1050013,,,,,,,2022-01-28,1,,,,,アナデジ,0
1501,6010501048374,新規,0,2022-01-28,2022-01-28,万像ジャパン株式会社,,株式会社,東京都,台東区,台東３丁目３２番６－９０２号,,13,106,1100016,,,,,,,2022-01-28,1,,,,,マンゾウジャパン,0
1502,6010501048382,新規,0,2022-01-28,2022-01-28,株式会社ＣＬＯＵＤ　ＳＥＶＥＮ,,株式会社,東京都,台東区,浅草橋２丁目７－１村崎ビル４Ｆ,,13,106,1110053,,,,,,,2022-01-28,1,,,,,クラウドセブン,0
1507,6010701042152,新規,0,2022-01-28,2022-01-28,株式会社インサイトアイズ,,株式会社,東京都,品川区,南品川４丁目４－１７品川サウスタワー,,13,109,1400004,,,,,,,2022-01-28,1,,,,,インサイトアイズ,0
1516,6011001145240,新規,0,2022-01-28,2022-01-28,株式会社ネスペ東京,,株式会社,東京都,渋谷区,道玄坂１丁目１５－３プリメーラ道玄坂４２２,,13,113,1500043,,,,,,,2022-01-28,1,,,,,ネスペトウキョウ,0
1525,6011201023601,新規,0,2022-01-28,2022-01-28,株式会社ルドラクシャ,,株式会社,東京都,中野区,江原町３丁目１２番４号,,13,114,1650023,,,,,,,2022-01-28,1,,,,,ルドラクシャ,0
1526,6011401023987,新規,0,2022-01-28,2022-01-28,株式会社Ｓ－ｐｌｕｓ,,株式会社,東京都,板橋区,富士見町１１番１３号,,13,119,1740062,,,,,,,2022-01-28,1,,,,,エスプラス,0
1529,6011501027707,新規,0,2022-01-28,2022-01-28,株式会社ガウディ,,株式会社,東京都,北区,赤羽２丁目４番２号,,13,117,1150045,,,,,,,2022-01-28,1,,,,,ガウディ,0
1534,6011701025015,新規,0,2022-01-28,2022-01-28,株式会社和羽,,株式会社,東京都,江戸川区,瑞江３丁目３４番８号,,13,123,1320011,,,,,,,2022-01-28,1,,,,,カズハ,0
1537,6011801040252,新規,0,2022-01-28,2022-01-28,株式会社ＴＩＤＥ,,株式会社,東京都,葛飾区,新小岩１丁目３２番４号,,13,122,1240024,,,,,,,2022-01-28,1,,,,,タイド,0
1539,6011803004949,新規,0,2022-01-28,2022-01-28,ＳＫＹＴＨＡＩＰＨＡ＆ＪＡＰＡＮ合同会社,,合同会社,東京都,葛飾区,東金町１丁目４２－１０金町ビル６Ｆ,,13,122,1250041,,,,,,,2022-01-28,1,,,,,スカイタイファーアンドジャパン,0
1542,6012403005222,新規,0,2022-01-28,2022-01-28,Ｋ２合同会社,,合同会社,東京都,三鷹市,上連雀８丁目２－４１－８０２,,13,204,1810012,,,,,,,2022-01-28,1,,,,,ケーツー,0
1546,6013301048610,新規,0,2022-01-28,2022-01-28,株式会社ＥＳ　ｍａｎａｇｅｍｅｎｔ,,株式会社,東京都,豊島区,高松２丁目９番２号,,13,116,1710042,,,,,,,2022-01-28,1,,,,,イーエスマネージメント,0
1555,6020001145010,新規,0,2022-01-28,2022-01-28,株式会社アンド,,株式会社,神奈川県,横浜市港南区,最戸１丁目２２番１７号ＪＴハイツ上大岡１０１,,14,111,2330008,,,,,,,2022-01-28,1,,,,,アンド,0
1556,6020001145019,新規,0,2022-01-28,2022-01-28,株式会社Ａｓａｎｔｅ,,株式会社,神奈川県,川崎市中原区,新丸子町９１１－１ユニーブル小杉４０５,,14,133,2110005,,,,,,,2022-01-28,1,,,,,アサンテ,0
1573,6021001075065,新規,0,2022-01-28,2022-01-28,株式会社なないろ,,株式会社,神奈川県,鎌倉市,津西２丁目１８番１５号,,14,204,2480034,,,,,,,2022-01-28,1,,,,,ナナイロ,0
1592,6021003011340,新規,0,2022-01-28,2022-01-28,合同会社アヤセキ,,合同会社,神奈川県,綾瀬市,深谷中５丁目９番４５号,,14,218,2521107,,,,,,,2022-01-28,1,,,,,アヤセキ,0
1593,6021003011349,新規,0,2022-01-28,2022-01-28,合同会社忠野浅信,,合同会社,神奈川県,横須賀市,武４丁目１９－７,,14,201,2380313,,,,,,,2022-01-28,1,,,,,タダノアサノブ,0
1601,6030001146536,新規,0,2022-01-28,2022-01-28,ＲＡＭＢＯ株式会社,,株式会社,埼玉県,さいたま市緑区,大字中尾２１６１番地１ヴァンベール冨士３０６号,,11,109,3360932,,,,,,,2022-01-28,1,,,,,ランボー,0
1602,6030001146544,新規,0,2022-01-28,2022-01-28,株式会社エニタイムコンサル埼玉,,株式会社,埼玉県,さいたま市見沼区,大字丸ヶ崎１９７３番地１３,,11,104,3370001,,,,,,,2022-01-28,1,,,,,エニタイムコンサルサイタマ,0
1610,6050001050538,新規,0,2022-01-28,2022-01-28,株式会社谷畑興業,,株式会社,茨城県,つくば市,天久保１丁目８番地１１Ｋビル２Ｂ,,08,220,3050005,,,,,,,2022-01-28,1,,,,,ヤバタコウギョウ,0
1620,6070003004366,新規,0,2022-01-28,2022-01-28,合同会社Ｆａｍｉｌｌｅ,,合同会社,群馬県,桐生市,川内町３丁目１６４番地６,,10,203,3760041,,,,,,,2022-01-28,1,,,,,ファミーユ,0
1624,6100001035013,新規,0,2022-01-28,2022-01-28,株式会社あさま社,,株式会社,長野県,北佐久郡軽井沢町,大字発地１１８４番３１,,20,321,3890113,,,,,,,2022-01-28,1,,,,,アサマシャ,0
1625,6100005012818,新規,0,2022-01-28,2022-01-28,一般社団法人生活民芸舎,,その他の設立登記法人,長野県,塩尻市,大字木曽平沢２２２８番地３２,,20,215,3996302,,,,,,,2022-01-28,1,,,,,セイカツミンゲイシャ,0
1642,6120001243497,新規,0,2022-01-28,2022-01-28,株式会社光エステート,,株式会社,大阪府,大阪市中央区,東心斎橋９番６号藤和シティコープ心斎橋１０２,,27,128,5390000,,,,,,,2022-01-28,1,,,,,ヒカリエステート,0
1643,6120001243522,新規,0,2022-01-28,2022-01-28,ＳＧエステート株式会社,,株式会社,大阪府,大阪市東住吉区,北田辺１丁目１１番１３－２０２号,,27,121,5460044,,,,,,,2022-01-28,1,,,,,エスジーエステート,0
1655,6120003021034,新規,0,2022-01-28,2022-01-28,合同会社Ｔｈａｎｋ　Ｙｏｕ,,合同会社,大阪府,大阪市中央区,大手通３丁目３番３号日宝東本町ビル３階,,27,128,5400021,,,,,,,2022-01-28,1,,,,,,0
1660,6120101065008,新規,0,2022-01-28,2022-01-28,株式会社ＡＰＰＬＡＴ,,株式会社,大阪府,堺市北区,長曽根町１３０番地４２,,27,146,5918025,,,,,,,2022-01-28,1,,,,,アプラート,0
1661,6120903004014,新規,0,2022-01-28,2022-01-28,みやび合同会社,,合同会社,大阪府,豊中市,名神口３丁目５番１７号,,27,203,5610841,,,,,,,2022-01-28,1,,,,,ミヤビ,0
1668,6130001071014,新規,0,2022-01-28,2022-01-28,株式会社大島自動車工作所,,株式会社,京都府,京都市伏見区,竹田中川原町５８番地１,,26,109,6128412,,,,,,,2022-01-28,1,,,,,オオシマジドウシャコウサクショ,0
1669,6130001071030,新規,0,2022-01-28,2022-01-28,株式会社開運堂,,株式会社,京都府,京都市山科区,北花山市田町９３番２,,26,110,6078483,,,,,,,2022-01-28,1,,,,,カイウンドウ,0
1677,6140001124712,新規,0,2022-01-28,2022-01-28,株式会社Ｈｏｎｅｓｔ,,株式会社,兵庫県,川西市,錦松台１４番１０号,,28,217,6660135,,,,,,,2022-01-28,1,,,,,オネスト,0
1678,6140001124729,新規,0,2022-01-28,2022-01-28,株式会社川西敦史建築設計事務所,,株式会社,兵庫県,川西市,栄町１０番地５号パルティ川西９０８,,28,217,6660033,,,,,,,2022-01-28,1,,,,,カワニシアツシケンチクセッケイジムショ,0
1685,6160001023961,新規,0,2022-01-28,2022-01-28,株式会社ケイエスエステート,,株式会社,滋賀県,湖南市,岩根４９９番地１３０（１０５号）,,25,211,5203252,,,,,,,2022-01-28,1,,,,,ケイエスエステート,0
1686,6160003002484,新規,0,2022-01-28,2022-01-28,合同会社ニレ研究所,,合同会社,滋賀県,彦根市,楡町５３０番地３,,25,202,5291151,,,,,,,2022-01-28,1,,,,,ニレケンキュウショ,0
1689,6180001149730,新規,0,2022-01-28,2022-01-28,株式会社ＲＥＶＩＶＥ,,株式会社,愛知県,名古屋市中区,錦３丁目１－１４（２０１）,,23,106,4600003,,,,,,,2022-01-28,1,,,,,リバイブ,0
1693,6180003023413,新規,0,2022-01-28,2022-01-28,合同会社佐々木事業再生事務所,,合同会社,愛知県,名古屋市西区,牛島町６－１,,23,104,4510046,,,,,,,2022-01-28,1,,,,,ササキジギョウサイセイジムショ,0
1696,6180301035878,新規,0,2022-01-28,2022-01-28,株式会社Ｓｈｉｎｅ,,株式会社,愛知県,安城市,姫小川町姫１４４番地１,,23,212,4441161,,,,,,,2022-01-28,1,,,,,シャイン,0
1701,6210001018799,新規,0,2022-01-28,2022-01-28,株式会社フェアプロダクト,,株式会社,福井県,あわら市,春宮３丁目７番６号,,18,208,9190632,,,,,,,2022-01-28,1,,,,,フェアプロダクト,0
1704,6220001024672,新規,0,2022-01-28,2022-01-28,株式会社アリティア,,株式会社,石川県,野々市市,稲荷４丁目１５番地４,,17,212,9218805,,,,,,,2022-01-28,1,,,,,アリティア,0
1705,6220003003195,新規,0,2022-01-28,2022-01-28,合同会社ちょうあい多面体,,合同会社,石川県,野々市市,太平寺２丁目６９番地,,17,212,9218845,,,,,,,2022-01-28,1,,,,,チョウアイタメンタイ,0
1707,6240001059246,新規,0,2022-01-28,2022-01-28,株式会社Ｙｏｓｈｉｍｕｎｅ,,株式会社,広島県,尾道市,因島三庄町２３３５番地,,34,205,7222322,,,,,,,2022-01-28,1,,,,,ヨシムネ,0
1708,6240003005479,新規,0,2022-01-28,2022-01-28,合同会社ＲＩＫＡＳＥＩ,,合同会社,広島県,広島市中区,十日市町１丁目３番３０－１０１号,,34,101,7300805,,,,,,,2022-01-28,1,,,,,リカセイ,0
1709,6250001019380,新規,0,2022-01-28,2022-01-28,株式会社ＬＩＮＯ,,株式会社,山口県,宇部市,大字東岐波５６９番地３,,35,202,7550241,,,,,,,2022-01-28,1,,,,,リノ,0
1713,6280001008620,新規,0,2022-01-28,2022-01-28,株式会社ＡＳＡ山陰中央,,株式会社,島根県,益田市,乙吉町イ３３５番地１１,,32,204,6980003,,,,,,,2022-01-28,1,,,,,アササンインチュウオウ,0
1714,6280003001573,新規,0,2022-01-28,2022-01-28,ＳＯＵ合同会社,,合同会社,島根県,出雲市,斐川町上直江６６３番地６,,32,203,6990624,,,,,,,2022-01-28,1,,,,,ソウ,0
1717,6290001096235,新規,0,2022-01-28,2022-01-28,Оｎｅ　ｅｉｇｈｔ　ｃｏｍｐａｎｙ株式会社,,株式会社,福岡県,福岡市城南区,長尾５丁目９番１７号,,40,136,8140123,,,,,,,2022-01-28,1,,,,,ワンエイトカンパニー,0
1718,6290001096243,新規,0,2022-01-28,2022-01-28,株式会社エルシステム,,株式会社,福岡県,福岡市東区,香椎浜４丁目８－１－１３１０,,40,131,8130016,,,,,,,2022-01-28,1,,,,,エルシステム,0
1720,6290003012082,新規,0,2022-01-28,2022-01-28,合同会社コガ,,合同会社,福岡県,福岡市中央区,赤坂１丁目７番５号ロマネスク赤坂第二５１１号室,,40,133,8100042,,,,,,,2022-01-28,1,,,,,コガ,0
1724,6290801028206,新規,0,2022-01-28,2022-01-28,株式会社龍昇,,株式会社,福岡県,北九州市若松区,東二島３丁目２９番９号,,40,103,8080102,,,,,,,2022-01-28,1,,,,,リュウショウ,0
1726,6300003001785,新規,0,2022-01-28,2022-01-28,合同会社Ｃｕｒｉｏｓｉｔｙ,,合同会社,佐賀県,唐津市,和多田本村７番１４２号,,41,202,8470085,,,,,,,2022-01-28,1,,,,,キュリオシティ,0
1735,6340001024454,新規,0,2022-01-28,2022-01-28,株式会社アプレイザルＮ,,株式会社,鹿児島県,鹿児島市,真砂町９番１２号今吉ビル２０１号,,46,201,8900066,,,,,,,2022-01-28,1,,,,,アプレイザルエヌ,0
1736,6350001017556,新規,0,2022-01-28,2022-01-28,株式会社Ｅｎｊｏｙ－Ｗｏｒｋ,,株式会社,宮崎県,小林市,堤３５５５番地１,,45,205,8860003,,,,,,,2022-01-28,1,,,,,エンジョイワーク,0
1738,6350003004016,新規,0,2022-01-28,2022-01-28,合同会社カリノファーム,,合同会社,宮崎県,東諸県郡国富町,大字森永２０２９番地,,45,382,8801106,,,,,,,2022-01-28,1,,,,,カリノファーム,0
1739,6370001048129,新規,0,2022-01-28,2022-01-28,株式会社いえカウンター,,株式会社,宮城県,仙台市宮城野区,榴ケ岡１０６番地の２ＲｅｖａｒｃＢｌｄｇ２Ｆ,,04,102,9830851,,,,,,,2022-01-28,1,,,,,イエカウンター,0
1740,6370001048145,新規,0,2022-01-28,2022-01-28,株式会社ＣＯＭＦＯＲＴ　ＧＡＴＥ,,株式会社,宮城県,大崎市,鹿島台平渡字銭神２９８－１,,04,215,9894103,,,,,,,2022-01-28,1,,,,,コンフォートゲート,0
1745,6400001015760,新規,0,2022-01-28,2022-01-28,株式会社小代管理,,株式会社,岩手県,盛岡市,上田２丁目１６番６号,,03,201,0200066,,,,,,,2022-01-28,1,,,,,ショウダイカンリ,0
1757,6490001010101,新規,0,2022-01-28,2022-01-28,フォレストシステム株式会社,,株式会社,高知県,高知市,葛島２丁目１番２号,,39,201,7818121,,,,,,,2022-01-28,1,,,,,フォレストシステム,0
1758,6500001023968,新規,0,2022-01-28,2022-01-28,株式会社ｏｅｃ,,株式会社,愛媛県,松山市,北久米町４２８番地６,,38,201,7900923,,,,,,,2022-01-28,1,,,,,オーイーシー,0
1760,6500003002763,新規,0,2022-01-28,2022-01-28,フリークリエイティブシティ合同会社,,合同会社,愛媛県,松山市,本谷甲３８７番地,,38,201,7992456,,,,,,,2022-01-28,1,,,,,フリークリエイティブシティ,0
1780,7010001224185,新規,0,2022-01-28,2022-01-28,アルティマイノベーション株式会社,,株式会社,東京都,千代田区,丸の内１丁目１１番１号パシフィックセンチュリープレイス１３階,,13,101,1000005,,,,,,,2022-01-28,1,,,,,アルティマイノベーション,0
1781,7010001224193,新規,0,2022-01-28,2022-01-28,オリーブプラネット株式会社,,株式会社,東京都,中央区,日本橋兜町１７番１号日本橋ロイヤルプラザ７０６,,13,102,1030026,,,,,,,2022-01-28,1,,,,,オリーブプラネット,0
1782,7010001224235,新規,0,2022-01-28,2022-01-28,株式会社ネオス,,株式会社,東京都,千代田区,一番町１０番地８一番町ウエストビル５Ｆ,,13,101,1020082,,,,,,,2022-01-28,1,,,,,ネオス,0
1783,7010003036835,新規,0,2022-01-28,2022-01-28,合同会社Ｍ５５,,合同会社,東京都,中央区,佃２丁目１１番地６号クレストタワー１０１３号室,,13,102,1040051,,,,,,,2022-01-28,1,,,,,エムゴーゴー,0
1784,7010003036884,新規,0,2022-01-28,2022-01-28,ＤＳＢ合同会社,,合同会社,東京都,中央区,銀座１丁目２２番１１号銀座大竹ビジデンス２階,,13,102,1040061,,,,,,,2022-01-28,1,,,,,ディーエスビー,0
1785,7010005034515,新規,0,2022-01-28,2022-01-28,一般社団法人日本文化芸術推進機構,,その他の設立登記法人,東京都,千代田区,内神田３丁目２３番８号第三唐沢ビル５階,,13,101,1010047,,,,,,,2022-01-28,1,,,,,ニホンブンカゲイジュツスイシンキコウ,0
1786,7010101015047,新規,0,2022-01-28,2022-01-28,株式会社ＷＡМ,,株式会社,東京都,八王子市,中野上町１丁目３０番４号,,13,201,1920041,,,,,,,2022-01-28,1,,,,,ワム,0
1789,7010401165186,新規,0,2022-01-28,2022-01-28,バロック・インベストメンツ株式会社,,株式会社,東京都,港区,南青山２丁目２－８,,13,103,1070062,,,,,,,2022-01-28,1,,,,,バロックインベストメンツ,0
1790,7010401165194,新規,0,2022-01-28,2022-01-28,株式会社桜ＳｔａｒａｎｇｅＬ,,株式会社,東京都,港区,南青山２丁目２番１５号,,13,103,1070062,,,,,,,2022-01-28,1,,,,,サクラスターエンジェル,0
1791,7010403026989,新規,0,2022-01-28,2022-01-28,合同会社ＩＲ　ＧＲＯＵＰ,,合同会社,東京都,港区,西麻布１丁目２－１３デュオ・スカーラ西麻布タワーＣＥＮＴＲＡＬ２０１号室,,13,103,1060031,,,,,,,2022-01-28,1,,,,,アイアールグループ,0
1792,7010501048381,新規,0,2022-01-28,2022-01-28,株式会社藤田商事,,株式会社,東京都,台東区,台東１丁目２４番９号ブライト秋葉原２Ｆ,,13,106,1100016,,,,,,,2022-01-28,1,,,,,フジタショウジ,0
1795,7010701042143,新規,0,2022-01-28,2022-01-28,株式会社フルコ,,株式会社,東京都,品川区,戸越１丁目２４番１４号,,13,109,1420041,,,,,,,2022-01-28,1,,,,,フルコ,0
1805,7011001145248,新規,0,2022-01-28,2022-01-28,ｏｖｉｉ株式会社,,株式会社,東京都,目黒区,上目黒３丁目３６番２９号ＰＡＳＥＯ上目黒００１,,13,110,1530051,,,,,,,2022-01-28,1,,,,,オビィ,0
1806,7011001145355,新規,0,2022-01-28,2022-01-28,株式会社Ｓ＆Ｈ,,株式会社,東京都,渋谷区,恵比寿４丁目７番２号ＳｕｎｎｙＤａｙ恵比寿４Ｆ,,13,113,1500013,,,,,,,2022-01-28,1,,,,,エスアンドエイチ,0
1809,7011101097612,新規,0,2022-01-28,2022-01-28,株式会社ＧＳＫ,,株式会社,東京都,新宿区,弁天町１４７番地コンフォリア早稲田１１３,,13,104,1620851,,,,,,,2022-01-28,1,,,,,ジーエスケー,0
1811,7011301027518,新規,0,2022-01-28,2022-01-28,株式会社ＢＥＹＯＮＤ　ＴＨＥ　ＰＩＮＥ,,株式会社,東京都,杉並区,阿佐谷北１丁目３４番５号,,13,115,1660001,,,,,,,2022-01-28,1,,,,,ビヨンドザパイン,0
1815,7011501027697,新規,0,2022-01-28,2022-01-28,株式会社クロスビュー,,株式会社,東京都,荒川区,西日暮里６丁目５３番１０号,,13,118,1160013,,,,,,,2022-01-28,1,,,,,,0
1816,7011501027706,新規,0,2022-01-28,2022-01-28,株式会社ＳＴＳ,,株式会社,東京都,北区,岩淵町３２番２５号,,13,117,1150041,,,,,,,2022-01-28,1,,,,,エスティーエス,0
1817,7011503005057,新規,0,2022-01-28,2022-01-28,合同会社アルカード,,合同会社,東京都,北区,上十条１丁目１６番９号,,13,117,1140034,,,,,,,2022-01-28,1,,,,,,0
1822,7011801040251,新規,0,2022-01-28,2022-01-28,株式会社Ｄｙｌｉｇｈｔｅｒ,,株式会社,東京都,足立区,花畑４丁目３８－５,,13,121,1210061,,,,,,,2022-01-28,1,,,,,ディライター,0
1824,7011803004948,新規,0,2022-01-28,2022-01-28,合同会社谷ぐち介助クラブ,,合同会社,東京都,葛飾区,高砂２丁目２９番５号,,13,122,1250054,,,,,,,2022-01-28,1,,,,,タニグチカイジョクラブ,0
1827,7012303001634,新規,0,2022-01-28,2022-01-28,合同会社豊富笑店,,合同会社,東京都,町田市,原町田２丁目２２番１４号,,13,209,1940013,,,,,,,2022-01-28,1,,,,,トヨトミショウテン,0
1830,7012401038801,新規,0,2022-01-28,2022-01-28,株式会社クロウマエール,,株式会社,東京都,三鷹市,井の頭１丁目２４番１９号Ｂ１,,13,204,1810001,,,,,,,2022-01-28,1,,,,,クロウマエール,0
1839,7013303006012,新規,0,2022-01-28,2022-01-28,半夏食品合同会社,,合同会社,東京都,豊島区,長崎４丁目４９－１２,,13,116,1710051,,,,,,,2022-01-28,1,,,,,バンシャショクヒン,0
1848,7020001144993,新規,0,2022-01-28,2022-01-28,株式会社フューチャー,,株式会社,神奈川県,横浜市中区,山手町２５２番地,,14,104,2310862,,,,,,,2022-01-28,1,,,,,フューチャー,0
1855,7020003021209,新規,0,2022-01-28,2022-01-28,合同会社プロネット,,合同会社,神奈川県,川崎市多摩区,登戸２０６１番地向ヶ丘遊園パークホームズ２０４,,14,135,2140014,,,,,,,2022-01-28,1,,,,,プロネット,0
1865,7021001075072,新規,0,2022-01-28,2022-01-28,株式会社ランドリサーチ,,株式会社,神奈川県,横須賀市,米が浜通２丁目３番地,,14,201,2380011,,,,,,,2022-01-28,1,,,,,ランドリサーチ,0
1888,7021003011331,新規,0,2022-01-28,2022-01-28,合同会社ＲｕｓｈＯｎ,,合同会社,神奈川県,伊勢原市,板戸５５１番地の２６,,14,214,2591145,,,,,,,2022-01-28,1,,,,,ラッシュオン,0
1889,7021003011348,新規,0,2022-01-28,2022-01-28,合同会社アイム・ミー,,合同会社,神奈川県,三浦市,向ケ崎町１－１,,14,210,2380233,,,,,,,2022-01-28,1,,,,,アイムミー,0
1895,7030001145990,新規,0,2022-01-28,2022-01-28,株式会社暁オート,,株式会社,埼玉県,熊谷市,大野２１３番地１,,11,202,3600221,,,,,,,2022-01-28,1,,,,,アカツキオート,0
1896,7030001146551,新規,0,2022-01-28,2022-01-28,ベータレーザーマイク株式会社,,株式会社,埼玉県,川越市,かわつる三芳野１番地（１８－２０７）,,11,201,3501177,,,,,,,2022-01-28,1,,,,,ベータレーザーマイク,0
1897,7030001146568,新規,0,2022-01-28,2022-01-28,株式会社Ｂｅｅａｎｔ,,株式会社,埼玉県,戸田市,喜沢１丁目４５番地の５－２０５号,,11,224,3350013,,,,,,,2022-01-28,1,,,,,ビーアント,0
1899,7030003018732,新規,0,2022-01-28,2022-01-28,ＢＯＮＮＩＥ＆Ｃｏ．合同会社,,合同会社,埼玉県,深谷市,明戸７２７番地２,,11,218,3660024,,,,,,,2022-01-28,1,,,,,ボニーアンドコー,0
1902,7050001050537,新規,0,2022-01-28,2022-01-28,株式会社アドバンス土地建物,,株式会社,茨城県,水戸市,渡里町２８６９番地１－１０２,,08,201,3100902,,,,,,,2022-01-28,1,,,,,アドバンストチタテモノ,0
1903,7050001050545,新規,0,2022-01-28,2022-01-28,頌和建工株式会社,,株式会社,茨城県,龍ケ崎市,久保台３丁目２番地２グリーンヒルズ久保台Ｃ－１０１,,08,208,3010001,,,,,,,2022-01-28,1,,,,,ショウワケンコウ,0
1904,7050001050553,新規,0,2022-01-28,2022-01-28,株式会社眞田造園,,株式会社,茨城県,鉾田市,安塚８４２番地７,,08,234,3111514,,,,,,,2022-01-28,1,,,,,サナダゾウエン,0
1906,7050003006339,新規,0,2022-01-28,2022-01-28,アンテナコンテナ合同会社,,合同会社,茨城県,那珂市,杉６０３番地１,,08,226,3110106,,,,,,,2022-01-28,1,,,,,アンテナコンテナ,0
1908,7060001034530,新規,0,2022-01-28,2022-01-28,株式会社ベスティー,,株式会社,栃木県,宇都宮市,中央３丁目１番４号栃木県産業会館３階,,09,201,3200806,,,,,,,2022-01-28,1,,,,,ベスティー,0
1913,7080001024711,新規,0,2022-01-28,2022-01-28,株式会社ブライトベース,,株式会社,静岡県,島田市,東町２４６番地の４,,22,209,4270011,,,,,,,2022-01-28,1,,,,,ブライトベース,0
1915,7100001035012,新規,0,2022-01-28,2022-01-28,株式会社エスポワール,,株式会社,長野県,下高井郡山ノ内町,大字平穏２１番地６号,,20,561,3810401,,,,,,,2022-01-28,1,,,,,エスポワール,0
1920,7100003006382,新規,0,2022-01-28,2022-01-28,合同会社クラインキーファ,,合同会社,長野県,上伊那郡南箕輪村,１６３４－３０,,20,385,3994511,,,,,,,2022-01-28,1,,,,,クラインキーファ,0
1923,7110001036397,新規,0,2022-01-28,2022-01-28,株式会社Ｋスリー浅井,,株式会社,新潟県,新潟市中央区,姥ケ山１丁目４番２８号,,15,103,9500923,,,,,,,2022-01-28,1,,,,,ケースリーアサイ,0
1932,7120001243447,新規,0,2022-01-28,2022-01-28,株式会社ＨＳ　ＪＡＰＡＮ,,株式会社,大阪府,大阪市天王寺区,堂ケ芝１丁目１１番１１－３０１号,,27,109,5430033,,,,,,,2022-01-28,1,,,,,エイチエスジャパン,0
1933,7120001243471,新規,0,2022-01-28,2022-01-28,ＳＣアドバンス株式会社,,株式会社,大阪府,大阪市此花区,伝法５丁目１番４４号,,27,104,5540002,,,,,,,2022-01-28,1,,,,,エスシーアドバンス,0
1934,7120001243488,新規,0,2022-01-28,2022-01-28,株式会社オーシャンズ,,株式会社,大阪府,大阪市城東区,諏訪４丁目１０番３２号エステート諏訪１０３,,27,118,5360021,,,,,,,2022-01-28,1,,,,,オーシャンズ,0
1935,7120001243496,新規,0,2022-01-28,2022-01-28,株式会社ＶＯＡＧ,,株式会社,大阪府,大阪市北区,西天満１丁目１１番２０－２１０３号,,27,127,5300047,,,,,,,2022-01-28,1,,,,,ヴォーグ,0
1937,7120003021025,新規,0,2022-01-28,2022-01-28,ＮＭＹ合同会社,,合同会社,大阪府,大阪市住吉区,帝塚山中２丁目５番１号,,27,120,5580053,,,,,,,2022-01-28,1,,,,,エヌエムワイ,0
1942,7120101065007,新規,0,2022-01-28,2022-01-28,御池工業株式会社,,株式会社,大阪府,堺市南区,御池台４丁１番６号,,27,145,5900134,,,,,,,2022-01-28,1,,,,,ミイケコウギョウ,0
1946,7120901045521,新規,0,2022-01-28,2022-01-28,株式会社ハピネストライフ,,株式会社,大阪府,豊中市,大黒町１丁目１３番１２号,,27,203,5610827,,,,,,,2022-01-28,1,,,,,ハピネストライフ,0
1947,7120905006271,新規,0,2022-01-28,2022-01-28,医療法人だいとう皮フ科クリニック,,その他の設立登記法人,大阪府,高槻市,西冠３丁目２９番７号１階,,27,207,5690055,,,,,,,2022-01-28,1,,,,,ダイトウヒフカクリニック,0
1955,7140001124728,新規,0,2022-01-28,2022-01-28,株式会社スパイクモビリティ,,株式会社,兵庫県,姫路市,西延末２８４番地の１,,28,201,6700971,,,,,,,2022-01-28,1,,,,,スパイクモビリティ,0
1959,7140005026012,新規,0,2022-01-28,2022-01-28,一般社団法人Ｐ．Ｐ．Ｋ,,その他の設立登記法人,兵庫県,加古川市,神野町福留１丁目８９番地,,28,210,6750004,,,,,,,2022-01-28,1,,,,,ピーピーケー,0
1962,7150003002609,新規,0,2022-01-28,2022-01-28,合同会社おもだか総合商社,,合同会社,奈良県,香芝市,関屋北７丁目２０番１７号,,29,210,6390254,,,,,,,2022-01-28,1,,,,,オモダカソウゴウショウシャ,0
1968,7180003023437,新規,0,2022-01-28,2022-01-28,ＨＰＴ合同会社,,合同会社,愛知県,西春日井郡豊山町,大字青山字東川８６番地３,,23,342,4800201,,,,,,,2022-01-28,1,,,,,エイチピィティ,0
1969,7180005019615,新規,0,2022-01-28,2022-01-28,特定非営利活動法人愛知北福祉事業支援友の会,,その他の設立登記法人,愛知県,名古屋市中区,丸の内２丁目１７－１３ＮＫ丸の内ビル２Ｆ,,23,106,4600002,,,,,,,2022-01-28,1,,,,,アイチキタフクシジギョウシエントモノカイ,0
1973,7190001029071,新規,0,2022-01-28,2022-01-28,泰心建設株式会社,,株式会社,三重県,四日市市,浮橋１丁目２０番地６,,24,202,5120931,,,,,,,2022-01-28,1,,,,,タイシンケンセツ,0
1978,7200001039696,新規,0,2022-01-28,2022-01-28,株式会社Ｎ・ＳＥＥＤ,,株式会社,岐阜県,多治見市,十九田町１丁目２４番地,,21,204,5070039,,,,,,,2022-01-28,1,,,,,エヌシード,0
1979,7200001039705,新規,0,2022-01-28,2022-01-28,辻建設株式会社,,株式会社,岐阜県,美濃市,上野２４８番地２,,21,207,5013787,,,,,,,2022-01-28,1,,,,,ツジケンセツ,0
1981,7200003005440,新規,0,2022-01-28,2022-01-28,Ｊｅｔｔｅｃｈ　Ｊａｐａｎ合同会社,,合同会社,岐阜県,大垣市,南頬町１丁目１９番地１,,21,202,5030864,,,,,,,2022-01-28,1,,,,,ジェットテックジャパン,0
1985,7210005010009,新規,0,2022-01-28,2022-01-28,一般社団法人和久の里,,その他の設立登記法人,福井県,小浜市,和久里第４２号１番地,,18,204,9170024,,,,,,,2022-01-28,1,,,,,ワクノサト,0
1987,7230001019209,新規,0,2022-01-28,2022-01-28,株式会社ナオイワークス,,株式会社,富山県,富山市,新庄銀座２丁目１９番７号,,16,201,9300991,,,,,,,2022-01-28,1,,,,,ナオイワークス,0
1993,7260001036465,新規,0,2022-01-28,2022-01-28,日研クリエーション株式会社,,株式会社,岡山県,岡山市北区,楢津４５７番地１,,33,101,7011202,,,,,,,2022-01-28,1,,,,,ニッケンクリエーション,0
1994,7260001036473,新規,0,2022-01-28,2022-01-28,株式会社Ａファーストサービス,,株式会社,岡山県,津山市,勝部６９６番地１,,33,203,7080804,,,,,,,2022-01-28,1,,,,,エーファーストサービス,0
1999,7260003003785,新規,0,2022-01-28,2022-01-28,合同会社ハイビスト,,合同会社,岡山県,岡山市中区,江並２７６番地１２,,33,102,7028004,,,,,,,2022-01-28,1,,,,,ハイビスト,0
2001,7280003001572,新規,0,2022-01-28,2022-01-28,合同会社なごみ庵,,合同会社,島根県,邑智郡邑南町,三日市４６２番地,,32,449,6960311,,,,,,,2022-01-28,1,,,,,,0
2003,7290001096250,新規,0,2022-01-28,2022-01-28,株式会社テイクスタイル,,株式会社,福岡県,福岡市西区,内浜２丁目１０番２０－４０１号,,40,135,8190005,,,,,,,2022-01-28,1,,,,,テイクスタイル,0
2005,7290003012081,新規,0,2022-01-28,2022-01-28,合同会社Ｋａｌｏｎ,,合同会社,福岡県,飯塚市,弁分１６１－１,,40,205,8200088,,,,,,,2022-01-28,1,,,,,カロン,0
2020,7370001048128,新規,0,2022-01-28,2022-01-28,株式会社ＩＫワークス,,株式会社,宮城県,仙台市宮城野区,中野字寺前３－２,,04,102,9830013,,,,,,,2022-01-28,1,,,,,アイケーワークス,0
2040,7450001013602,新規,0,2022-01-28,2022-01-28,株式会社Ｒｏｏｔｓｙ,,株式会社,北海道,旭川市,三条通７丁目４２４番地１,,01,204,0700033,,,,,,,2022-01-28,1,,,,,ルーチー,0
2044,7470001018946,新規,0,2022-01-28,2022-01-28,株式会社力夢,,株式会社,香川県,綾歌郡宇多津町,２６２８番地９６３,,37,386,7690210,,,,,,,2022-01-28,1,,,,,ツトム,0
2045,7490005006821,新規,0,2022-01-28,2022-01-28,特定非営利活動法人喫茶去ＣｈａＫｎｏｗＹｏｕ,,その他の設立登記法人,高知県,高知市,愛宕山１６１番地１ビ・ウェル愛宕山１０２号,,39,201,7800025,,,,,,,2022-01-28,1,,,,,キッサコチャノユ,0
2047,7700150050123,新規,0,2022-01-28,2015-10-09,福井県木材組合連合会,,その他,福井県,福井市,合島町３－１,,18,201,9188233,,,,,,,2015-10-09,1,,,,,フクイケンモクザイクミアイレンゴウカイ,0
2062,8010003036818,新規,0,2022-01-28,2022-01-28,エスティファンドツー合同会社,,合同会社,東京都,千代田区,丸の内３丁目１番１号東京共同会計事務所内,,13,101,1000005,,,,,,,2022-01-28,1,,,,,エスティファンドツー,0
2063,8010003036859,新規,0,2022-01-28,2022-01-28,御殿場ＭＬ合同会社,,合同会社,東京都,千代田区,丸の内３丁目１番１号東京共同会計事務所内,,13,101,1000005,,,,,,,2022-01-28,1,,,,,ゴテンバエムエル,0
2064,8010005034506,新規,0,2022-01-28,2022-01-28,社会保険労務士法人リンクベル,,その他の設立登記法人,東京都,中央区,築地６丁目１番８号協栄ビル４階,,13,102,1040045,,,,,,,2022-01-28,1,,,,,リンクベル,0
2065,8010005034522,新規,0,2022-01-28,2022-01-28,一般社団法人スポットワーク協会,,その他の設立登記法人,東京都,千代田区,神田三崎町３丁目１番１６号,,13,101,1010061,,,,,,,2022-01-28,1,,,,,スポットワークキョウカイ,0
2073,8010401165177,新規,0,2022-01-28,2022-01-28,意誠株式会社,,株式会社,東京都,港区,芝大門１丁目１－３３三洋ビル５階,,13,103,1050012,,,,,,,2022-01-28,1,,,,,イセイ,0
2074,8010401165268,新規,0,2022-01-28,2022-01-28,株式会社ハリー,,株式会社,東京都,港区,浜松町２丁目２－１５浜松町ダイヤビル２Ｆ,,13,103,1050013,,,,,,,2022-01-28,1,,,,,ハリー,0
2088,8010901050151,新規,0,2022-01-28,2022-01-28,株式会社ＩＣ,,株式会社,東京都,世田谷区,瀬田２丁目１番７号,,13,112,1580095,,,,,,,2022-01-28,1,,,,,アイシー,0
2089,8010901050259,新規,0,2022-01-28,2022-01-28,株式会社Ｈｉｖｅ＆Ｃｏ,,株式会社,東京都,世田谷区,東玉川１丁目４１番１６号の１,,13,112,1580084,,,,,,,2022-01-28,1,,,,,ハイブアンドコー,0
2095,8011003014086,新規,0,2022-01-28,2022-01-28,合同会社ｓｈｏｗｋｅｎ,,合同会社,東京都,目黒区,原町２丁目６番７号,,13,110,1520011,,,,,,,2022-01-28,1,,,,,ショウケン,0
2097,8011101097669,新規,0,2022-01-28,2022-01-28,株式会社新和トレーディング,,株式会社,東京都,新宿区,新宿５丁目３番４－１１０２号,,13,104,1600022,,,,,,,2022-01-28,1,,,,,シンワトレーディング,0
2104,8011301027525,新規,0,2022-01-28,2022-01-28,株式会社いちい,,株式会社,東京都,杉並区,堀ノ内３丁目１４番１４号１－Ｄ,,13,115,1660013,,,,,,,2022-01-28,1,,,,,イチイ,0
2108,8011501027705,新規,0,2022-01-28,2022-01-28,株式会社ＡＲＵＫＩＢＩＴＯ,,株式会社,東京都,北区,上十条１丁目２６番地４号２階,,13,117,1140034,,,,,,,2022-01-28,1,,,,,アルキビト,0
2111,8011601025699,新規,0,2022-01-28,2022-01-28,ＦｉｒｓｔＣｌａｓｓ株式会社,,株式会社,東京都,練馬区,光が丘３丁目７－９－４０５,,13,120,1790072,,,,,,,2022-01-28,1,,,,,,0
2112,8011601025708,新規,0,2022-01-28,2022-01-28,株式会社ゴールド・ニッポン研究所,,株式会社,東京都,練馬区,谷原３丁目１８番１４号,,13,120,1770032,,,,,,,2022-01-28,1,,,,,ゴールドニッポンケンキュウジョ,0
2121,8011803004947,新規,0,2022-01-28,2022-01-28,合同会社ニマック,,合同会社,東京都,足立区,千住龍田町５－３－１３０３,,13,121,1200042,,,,,,,2022-01-28,1,,,,,ニマック,0
2125,8012403005212,新規,0,2022-01-28,2022-01-28,ＩＰ　Ｈｏｌｄｉｎｇｓ合同会社,,合同会社,東京都,三鷹市,井の頭５丁目１０番地５号,,13,204,1810001,,,,,,,2022-01-28,1,,,,,アイピーホールディングス,0
2128,8013101008837,新規,0,2022-01-28,2022-01-28,株式会社田村総建,,株式会社,東京都,青梅市,東青梅２丁目１６番地の２０,,13,205,1980042,,,,,,,2022-01-28,1,,,,,タムラソウケン,0
2133,8013301048609,新規,0,2022-01-28,2022-01-28,株式会社クローバー,,株式会社,東京都,豊島区,北大塚２丁目１７番２号,,13,116,1700004,,,,,,,2022-01-28,1,,,,,クローバー,0
2143,8020001145025,新規,0,2022-01-28,2022-01-28,株式会社ルーファス,,株式会社,神奈川県,川崎市幸区,堀川町７２－２１－Ｒ９０２,,14,132,2120013,,,,,,,2022-01-28,1,,,,,ルーファス,0
2160,8021001074973,新規,0,2022-01-28,2022-01-28,株式会社エール,,株式会社,神奈川県,三浦郡葉山町,一色７３３番地の７,,14,301,2400111,,,,,,,2022-01-28,1,,,,,エール,0
2161,8021001075071,新規,0,2022-01-28,2022-01-28,株式会社Ｓｔｕｄｉｏ　Ｈａｒｔ,,株式会社,神奈川県,厚木市,温水西２丁目３１番１７号,,14,212,2430039,,,,,,,2022-01-28,1,,,,,スタジオハート,0
2181,8021003011347,新規,0,2022-01-28,2022-01-28,合同会社ナルブリッジ,,合同会社,神奈川県,海老名市,望地２丁目１６番１２－２号,,14,215,2430403,,,,,,,2022-01-28,1,,,,,ナルブリッジ,0
2189,8030001146550,新規,0,2022-01-28,2022-01-28,株式会社大翔,,株式会社,埼玉県,朝霞市,宮戸３丁目５－６,,11,227,3510031,,,,,,,2022-01-28,1,,,,,ヒロト,0
2190,8030001146575,新規,0,2022-01-28,2022-01-28,株式会社キュリオス,,株式会社,埼玉県,熊谷市,村岡３９９－５－５１７,,11,202,3600162,,,,,,,2022-01-28,1,,,,,キュリオス,0
2197,8030005020702,新規,0,2022-01-28,2022-01-28,ＮＰＯ法人出張ボードゲーム会ヴェルフェル,,その他の設立登記法人,埼玉県,さいたま市西区,大字指扇２８５６番地２４１,,11,101,3310047,,,,,,,2022-01-28,1,,,,,シュッチョウボードゲームカイヴェルフェル,0
2205,8050001050528,新規,0,2022-01-28,2022-01-28,株式会社シャ・ムビーヌ,,株式会社,茨城県,常総市,水海道宝町２７６２番地１,,08,211,3030023,,,,,,,2022-01-28,1,,,,,シャムビーヌ,0
2206,8050001050536,新規,0,2022-01-28,2022-01-28,株式会社ブラウト,,株式会社,茨城県,つくば市,学園の森２丁目２９番地１０,,08,220,3050816,,,,,,,2022-01-28,1,,,,,ブラウト,0
2207,8050001050544,新規,0,2022-01-28,2022-01-28,株式会社ＡＳＸＥＥＤ,,株式会社,茨城県,神栖市,居切１４５５－１３,,08,232,3140141,,,,,,,2022-01-28,1,,,,,アスシード,0
2208,8050001050552,新規,0,2022-01-28,2022-01-28,株式会社ロイヤルプランニング,,株式会社,茨城県,つくば市,下広岡１０５５番地５６８,,08,220,3050042,,,,,,,2022-01-28,1,,,,,ロイヤルプランニング,0
2209,8050003006338,新規,0,2022-01-28,2022-01-28,合同会社ＫＭＲ,,合同会社,茨城県,守谷市,百合ケ丘３丁目２６５２番地の６,,08,224,3020110,,,,,,,2022-01-28,1,,,,,ケイエムアール,0
2220,8080001024710,新規,0,2022-01-28,2022-01-28,株式会社メタルホールディングス,,株式会社,静岡県,静岡市葵区,西草深町１３番２号,,22,101,4200866,,,,,,,2022-01-28,1,,,,,メタルホールディングス,0
2223,8080101023067,新規,0,2022-01-28,2022-01-28,株式会社ＳＤホールディングス,,株式会社,静岡県,沼津市,岡宮１２９９番地の３,,22,203,4100011,,,,,,,2022-01-28,1,,,,,エスディーホールディングス,0
2226,8080405007427,新規,0,2022-01-28,2022-01-28,農事組合法人船頭,,その他の設立登記法人,静岡県,浜松市北区,細江町中川２８４３番地の２の２,,22,135,4311304,,,,,,,2022-01-28,1,,,,,センドウ,0
2227,8100001035011,新規,0,2022-01-28,2022-01-28,株式会社ミラクリーン・ｌａｂｏ,,株式会社,長野県,北佐久郡御代田町,大字御代田１８４１番地５,,20,323,3890206,,,,,,,2022-01-28,1,,,,,ミラクリーンラボ,0
2228,8100003006381,新規,0,2022-01-28,2022-01-28,合同会社おかん,,合同会社,長野県,諏訪郡下諏訪町,社１２３番地１,,20,361,3930000,,,,,,,2022-01-28,1,,,,,オカン,0
2232,8120001243438,新規,0,2022-01-28,2022-01-28,株式会社美恵国際,,株式会社,大阪府,大阪市平野区,加美鞍作１丁目１番５０－９０２号,,27,126,5470004,,,,,,,2022-01-28,1,,,,,ミエコクサイ,0
2233,8120001243454,新規,0,2022-01-28,2022-01-28,Ｇｒｏｏｖｙ　Ｇｏｏｄｓ株式会社,,株式会社,大阪府,大阪市西成区,南津守７丁目１４番４号,,27,122,5570063,,,,,,,2022-01-28,1,,,,,グルーヴィーグッズ,0
2234,8120001243487,新規,0,2022-01-28,2022-01-28,エイゼン開発株式会社,,株式会社,大阪府,大阪市天王寺区,玉造元町７番１０号,,27,109,5430014,,,,,,,2022-01-28,1,,,,,エイゼンカイハツ,0
2235,8120001243512,新規,0,2022-01-28,2022-01-28,株式会社ＫＨＡＯＳ,,株式会社,大阪府,大阪市北区,天満１丁目５番２号,,27,127,5300043,,,,,,,2022-01-28,1,,,,,カオス,0
2236,8120001243520,新規,0,2022-01-28,2022-01-28,株式会社エムズ,,株式会社,大阪府,大阪市東淀川区,下新庄５丁目２番１５号,,27,114,5330021,,,,,,,2022-01-28,1,,,,,エムズ,0
2240,8120003021024,新規,0,2022-01-28,2022-01-28,ＨＴＫ＆Ｋ合同会社,,合同会社,大阪府,大阪市住吉区,帝塚山東１丁目１０番１７号,,27,120,5580054,,,,,,,2022-01-28,1,,,,,エイチティーケーアンドケー,0
2242,8120005022755,新規,0,2022-01-28,2022-01-28,Ｇ．Ｏ．Ａ．Ｔ．協同組合,,その他の設立登記法人,大阪府,大阪市浪速区,元町２丁目５番１６号,,27,111,5560016,,,,,,,2022-01-28,1,,,,,ゴート,0
2245,8120101065006,新規,0,2022-01-28,2022-01-28,株式会社宮永製作所,,株式会社,大阪府,堺市西区,上野芝向ヶ丘町６丁６１番地,,27,144,5938303,,,,,,,2022-01-28,1,,,,,ミヤナガセイサクショ,0
2250,8120901045520,新規,0,2022-01-28,2022-01-28,株式会社日幸,,株式会社,大阪府,豊中市,服部本町１丁目１番２３号,,27,203,5610852,,,,,,,2022-01-28,1,,,,,ニッコウ,0
2251,8120901045529,新規,0,2022-01-28,2022-01-28,株式会社ネクストナカジマ,,株式会社,大阪府,豊中市,原田南２丁目１番４０号,,27,203,5610805,,,,,,,2022-01-28,1,,,,,ネクストナカジマ,0
2255,8130001071029,新規,0,2022-01-28,2022-01-28,トリプル・Ｉ株式会社,,株式会社,京都府,京都市北区,大北山原谷乾町２３３,,26,101,6038487,,,,,,,2022-01-28,1,,,,,トリプルアイ,0
2256,8130003007724,新規,0,2022-01-28,2022-01-28,合同会社パークス,,合同会社,京都府,京都市東山区,今熊野宝蔵町３１番地３,,26,105,6050952,,,,,,,2022-01-28,1,,,,,パークス,0
2261,8140001124710,新規,0,2022-01-28,2022-01-28,株式会社アミユズ,,株式会社,兵庫県,姫路市,飾磨区都倉１丁目３７番地,,28,201,6728046,,,,,,,2022-01-28,1,,,,,アミユズ,0
2262,8140001124743,新規,0,2022-01-28,2022-01-28,株式会社インテンション,,株式会社,兵庫県,尼崎市,常吉１丁目３番６号－２０２,,28,202,6610042,,,,,,,2022-01-28,1,,,,,インテンション,0
2264,8140003017292,新規,0,2022-01-28,2022-01-28,合同会社なないろ,,合同会社,兵庫県,神戸市須磨区,車字古川１３３３番地の１グレーシィ須磨弐番館６２４号,,28,107,6540111,,,,,,,2022-01-28,1,,,,,ナナイロ,0
2266,8150001025288,新規,0,2022-01-28,2022-01-28,株式会社花都ホールディング,,株式会社,奈良県,奈良市,西木辻町３０５番地の１１,00125548,29,201,6308325,,,,,,,2022-01-28,1,,,,,ハナノミヤコホールディング,0
2269,8170001016962,新規,0,2022-01-28,2022-01-28,株式会社すまいる,,株式会社,和歌山県,和歌山市,木ノ本４７３番地２,,30,201,6408453,,,,,,,2022-01-28,1,,,,,スマイル,0
2270,8170003001681,新規,0,2022-01-28,2022-01-28,合同会社ジャム,,合同会社,和歌山県,田辺市,芳養松原１丁目１０－１６,,30,206,6460063,,,,,,,2022-01-28,1,,,,,ジャム,0
2279,8190001029070,新規,0,2022-01-28,2022-01-28,株式会社ＴＥＮＮＥ,,株式会社,三重県,津市,一志町みのりヶ丘１１５番地１７７,,24,201,5152517,,,,,,,2022-01-28,1,,,,,テンネ,0
2284,8210001018797,新規,0,2022-01-28,2022-01-28,株式会社ＨＯＳＡＫＡ　ＷＥＬＤ,,株式会社,福井県,大飯郡高浜町,下車持第１５号２０２番地１,,18,481,9192205,,,,,,,2022-01-28,1,,,,,ホサカウェルド,0
2297,8250001019379,新規,0,2022-01-28,2022-01-28,株式会社ａｌｒｉｇｈｔ,,株式会社,山口県,下関市,本町１丁目２番１７号,,35,201,7510815,,,,,,,2022-01-28,1,,,,,オールライト,0
2314,8290001096241,新規,0,2022-01-28,2022-01-28,株式会社修栄建工,,株式会社,福岡県,福岡市博多区,昭南町２丁目３番１２－５０８号,,40,132,8120876,,,,,,,2022-01-28,1,,,,,シュウエイケンコウ,0
2316,8290003012080,新規,0,2022-01-28,2022-01-28,合同会社ティー・エヌ・ジー・エスラボ,,合同会社,福岡県,筑紫野市,大字下見１１４番地５,,40,217,8180021,,,,,,,2022-01-28,1,,,,,ティーエヌジーエスラボ,0
2317,8300001012790,新規,0,2022-01-28,2022-01-28,きよかわ株式会社,,株式会社,佐賀県,佐賀市,富士町大字小副川２０９３番地,,41,201,8400521,,,,,,,2022-01-28,1,,,,,キヨカワ,0
2319,8310003004265,新規,0,2022-01-28,2022-01-28,合同会社トッキーホーム諫早,,合同会社,長崎県,大村市,溝陸町１０２９番地１０８,,42,205,8560844,,,,,,,2022-01-28,1,,,,,トッキーホームイサハヤ,0
2320,8320001018860,新規,0,2022-01-28,2022-01-28,株式会社ＭＪＫ,,株式会社,大分県,大分市,東津留１丁目５番１号,,44,201,8700934,,,,,,,2022-01-28,1,,,,,エムジェイケイ,0
2327,8330001029394,新規,0,2022-01-28,2022-01-28,株式会社ｏｆｆｉｃｅ　ＤＩＯ,,株式会社,熊本県,人吉市,鬼木町８３６番地,,43,203,8680021,,,,,,,2022-01-28,1,,,,,オフィスディオ,0
2329,8340001024460,新規,0,2022-01-28,2022-01-28,ウエストハウス株式会社,,株式会社,鹿児島県,鹿児島市,田上２丁目２８番１８号１Ｆ,,46,201,8900034,,,,,,,2022-01-28,1,,,,,ウエストハウス,0
2335,8370001048127,新規,0,2022-01-28,2022-01-28,株式会社斉藤商事,,株式会社,宮城県,宮城郡七ヶ浜町,境山２丁目２１－１６,,04,404,9850824,,,,,,,2022-01-28,1,,,,,サイトウショウジ,0
2336,8370001048135,新規,0,2022-01-28,2022-01-28,株式会社ＳＴＢＱ　Ｌａｂ．,,株式会社,宮城県,仙台市青葉区,国分町３丁目８番２９号ＰＩＢＲＯ４Ｆ,,04,101,9800803,,,,,,,2022-01-28,1,,,,,エスティビーキューラボ,0
2337,8370001048143,新規,0,2022-01-28,2022-01-28,株式会社ｍｅｒｃｉ,,株式会社,宮城県,仙台市宮城野区,出花２丁目１２番地の５,,04,102,9830012,,,,,,,2022-01-28,1,,,,,メルシー,0
2347,8400001015759,新規,0,2022-01-28,2022-01-28,株式会社ケイアイティ,,株式会社,岩手県,北上市,村崎野２２地割８３番地１９,,03,206,0240004,,,,,,,2022-01-28,1,,,,,ケイアイティ,0
2352,8440001009022,新規,0,2022-01-28,2022-01-28,株式会社ライズシェア,,株式会社,北海道,函館市,柏木町４０番６号,,01,202,0420942,,,,,,,2022-01-28,1,,,,,ライズシェア,0
2355,8470001018945,新規,0,2022-01-28,2022-01-28,株式会社ＴＡＲＥＳ,,株式会社,香川県,高松市,春日町１７２９番地１,,37,201,7610101,,,,,,,2022-01-28,1,,,,,ティアレス,0
2360,8490005006820,新規,0,2022-01-28,2022-01-28,一般財団法人アースキーパークリスタル協会,,その他の設立登記法人,高知県,高知市,神田１６７６番地,,39,201,7808040,,,,,,,2022-01-28,1,,,,,アースキーパークリスタルキョウカイ,0
2364,8700150106849,新規,0,2022-01-28,2022-01-28,Ｋａｚ　Ｉｓｏ　Ｉｎｔｅｒｎａｔｉｏｎａｌ，Ｉｎｃ,,外国会社等,,,,,,,,４２　Ｃｏｒｐｏｒａｔｅ　Ｐａｒｋ，Ｓｕｉｔｅ　２５０，Ｉｒｖｉｎｅ，ＣＡ　９２６０６，ＵＳＡ,,,,,,2022-01-28,1,,,,,カズイソインターナシヨナルインク,0
2372,9010001224150,新規,0,2022-01-28,2022-01-28,ＰＦＣ茨城株式会社,,株式会社,東京都,千代田区,神田和泉町１番地,,13,101,1010024,,,,,,,2022-01-28,1,,,,,ピーエフシーイバラキ,0
2376,9010003036833,新規,0,2022-01-28,2022-01-28,合同会社ＳＨＩＰＳ,,合同会社,東京都,千代田区,飯田橋２丁目１番４号九段セントラルビル１０２号室,,13,101,1020072,,,,,,,2022-01-28,1,,,,,シップス,0
2377,9010003036866,新規,0,2022-01-28,2022-01-28,合同会社ＲＩＶＹ,,合同会社,東京都,中央区,日本橋小網町１番５号日本橋小網町ハイツ７０５号室,,13,102,1030016,,,,,,,2022-01-28,1,,,,,ライヴィー,0
2378,9010003036882,新規,0,2022-01-28,2022-01-28,合同会社ＳＣリテールインベストメント,,合同会社,東京都,中央区,日本橋１丁目４番１号日本橋一丁目ビルディング,,13,102,1030027,,,,,,,2022-01-28,1,,,,,エスシーリテールインベストメント,0
2386,9010401165267,新規,0,2022-01-28,2022-01-28,アジアパシフィック・ファンド株式会社,,株式会社,東京都,港区,港南２丁目１６－１品川イーストワンタワー７Ｆ,,13,103,1080075,,,,,,,2022-01-28,1,,,,,アジアパシフィックファンド,0
2388,9010403026987,新規,0,2022-01-28,2022-01-28,合同会社難波,,合同会社,東京都,港区,白金台２丁目２６番１２－８０１号,,13,103,1080071,,,,,,,2022-01-28,1,,,,,ナンバ,0
2389,9010403026995,新規,0,2022-01-28,2022-01-28,Ｂ＆Ｉ　Ｔａｌｅｎｔ　Ｍａｎａｇｅｍｅｎｔ合同会社,,合同会社,東京都,港区,元麻布３丁目６番２６号ＭＡＪＥＳ元麻布Ｄ２０５,,13,103,1060046,,,,,,,2022-01-28,1,,,,,ビーアンドアイタレントマネジメント,0
2398,9010901050258,新規,0,2022-01-28,2022-01-28,株式会社ＰＲＥＳＥＥＮ,,株式会社,東京都,世田谷区,太子堂５丁目１１番８号,,13,112,1540004,,,,,,,2022-01-28,1,,,,,プレシーン,0
2406,9011001145279,新規,0,2022-01-28,2022-01-28,Ｌｕｎｅ株式会社,,株式会社,東京都,渋谷区,恵比寿１丁目３０番１号,,13,113,1500013,,,,,,,2022-01-28,1,,,,,リュンヌ,0
2407,9011005009414,新規,0,2022-01-28,2022-01-28,一般社団法人日本電動モビリティ推進協会,,その他の設立登記法人,東京都,渋谷区,神宮前６丁目２３番４号桑野ビル２階,,13,113,1500001,,,,,,,2022-01-28,1,,,,,ニホンデンドウモビリティスイシンキョウカイ,0
2409,9011101097602,新規,0,2022-01-28,2022-01-28,株式会社ワンリーリステッド,,株式会社,東京都,新宿区,西新宿４丁目３１番３号,,13,104,1600023,,,,,,,2022-01-28,1,,,,,ワンリーリステッド,0
2415,9011501027704,新規,0,2022-01-28,2022-01-28,株式会社リーコ,,株式会社,東京都,荒川区,西尾久６丁目１番６－１０１号,,13,118,1160011,,,,,,,2022-01-28,1,,,,,リーコ,0
2416,9011503005055,新規,0,2022-01-28,2022-01-28,ＫＯＫＯＲＯ合同会社,,合同会社,東京都,荒川区,東日暮里６丁目３９番１３号メゾンヴェルデ５０１,,13,118,1160014,,,,,,,2022-01-28,1,,,,,ココロ,0
2420,9011801040258,新規,0,2022-01-28,2022-01-28,株式会社コンパス,,株式会社,東京都,足立区,梅田７丁目２５番１３－５１９号,,13,121,1230851,,,,,,,2022-01-28,1,,,,,コンパス,0
2421,9011803004938,新規,0,2022-01-28,2022-01-28,ＡＭＡ合同会社,,合同会社,東京都,葛飾区,立石６丁目３１番９号２Ｆ,,13,122,1240012,,,,,,,2022-01-28,1,,,,,アマ,0
2428,9012401038799,新規,0,2022-01-28,2022-01-28,株式会社嘉橘経済,,株式会社,東京都,小金井市,東町５丁目１１－１４,,13,210,1840011,,,,,,,2022-01-28,1,,,,,カキツケイザイ,0
2436,9013301048616,新規,0,2022-01-28,2022-01-28,株式会社健康ブルーベリー,,株式会社,東京都,豊島区,池袋２丁目６０－１１ともビル１０Ｆ,,13,116,1710014,,,,,,,2022-01-28,1,,,,,ケンコウブルーベリー,0
2443,9020001145016,新規,0,2022-01-28,2022-01-28,株式会社ＮＩＫＫＥＮ,,株式会社,神奈川県,横浜市西区,みなとみらい２丁目２番１号横浜ランドマークタワー１５階１５０４区,,14,103,2200012,,,,,,,2022-01-28,1,,,,,ニッケン,0
2448,9020003021207,新規,0,2022-01-28,2022-01-28,ＶＮ　ＹＯＫＯＨＡＭＡ合同会社,,合同会社,神奈川県,横浜市保土ケ谷区,峰沢町１５８,,14,106,2400061,,,,,,,2022-01-28,1,,,,,ビーエヌヨコハマ,0
2449,9020003021215,新規,0,2022-01-28,2022-01-28,Ｓｅｃｏｎｄ　ｌｉｆｅ合同会社,,合同会社,神奈川県,横浜市青葉区,すすき野１丁目１番地５ウェルハイムあざみ野３０７号,,14,117,2250021,,,,,,,2022-01-28,1,,,,,セカンドライフ,0
2469,9021001075046,新規,0,2022-01-28,2022-01-28,三田貿易株式会社,,株式会社,神奈川県,相模原市南区,鵜野森３丁目１３番６号,,14,153,2520301,,,,,,,2022-01-28,1,,,,,ミタボウエキ,0
2470,9021001075054,新規,0,2022-01-28,2022-01-28,ｐｅｎｄｏ株式会社,,株式会社,神奈川県,鎌倉市,山ノ内１０９５－３４,,14,204,2470062,,,,,,,2022-01-28,1,,,,,ペンド,0
2484,9021003011346,新規,0,2022-01-28,2022-01-28,合同会社ＮＹ,,合同会社,神奈川県,横須賀市,津久井２丁目１７番２３号,,14,201,2390843,,,,,,,2022-01-28,1,,,,,エヌワイ,0
2488,9030001146467,新規,0,2022-01-28,2022-01-28,株式会社ＢＡＮＯ　ＩＮＴＥＲＮＡＴＩＯＮＡＬ,,株式会社,埼玉県,熊谷市,村岡５３２番地１,,11,202,3600162,,,,,,,2022-01-28,1,,,,,バノインターナショナル,0
2489,9030001146541,新規,0,2022-01-28,2022-01-28,株式会社レフォルム,,株式会社,埼玉県,八潮市,大字垳５２９番地１,,11,234,3400824,,,,,,,2022-01-28,1,,,,,レフォルム,0
2490,9030001146582,新規,0,2022-01-28,2022-01-28,株式会社Ｄｅａｒ　ｆａｍｉｌｉａｒ,,株式会社,埼玉県,さいたま市見沼区,大和田町２丁目７７８－１,,11,104,3370053,,,,,,,2022-01-28,1,,,,,ディアファミリア,0
2491,9030003018706,新規,0,2022-01-28,2022-01-28,合同会社共進商事,,合同会社,埼玉県,春日部市,内牧３１１５番１号,,11,214,3440051,,,,,,,2022-01-28,1,,,,,キョウシンショウジ,0
2492,9030003018730,新規,0,2022-01-28,2022-01-28,中星合同会社,,合同会社,埼玉県,蕨市,中央１丁目９番１１号小池ビル２階,,11,223,3350004,,,,,,,2022-01-28,1,,,,,ナカボシ,0
2493,9030003018739,新規,0,2022-01-28,2022-01-28,合同会社ＴＹ　Ｃｏｒｐｏｒａｔｉｏｎ,,合同会社,埼玉県,さいたま市南区,松本１丁目５番２－１号,,11,108,3360035,,,,,,,2022-01-28,1,,,,,ティーワイコーポレーション,0
2508,9050001050535,新規,0,2022-01-28,2022-01-28,株式会社坂本建商,,株式会社,茨城県,下妻市,平方１６０番地１,,08,210,3040001,,,,,,,2022-01-28,1,,,,,サカモトケンショウ,0
2509,9050001050543,新規,0,2022-01-28,2022-01-28,株式会社Ｙ．Ｋ．ＲＯＯＦ,,株式会社,茨城県,水戸市,笠原町１１４１番地の８,,08,201,3100852,,,,,,,2022-01-28,1,,,,,ワイケールーフ,0
2510,9050001050551,新規,0,2022-01-28,2022-01-28,株式会社弘和工業,,株式会社,茨城県,つくば市,栄３３２番地,,08,220,3050013,,,,,,,2022-01-28,1,,,,,コウワコウギョウ,0
2513,9050003006329,新規,0,2022-01-28,2022-01-28,合同会社村山彦七商店,,合同会社,茨城県,稲敷市,古渡５１番地,,08,229,3000638,,,,,,,2022-01-28,1,,,,,ムラヤマヒコシチショウテン,0
2515,9060003003936,新規,0,2022-01-28,2022-01-28,Ｋ－Ｏ　ＲＥＡＬ　ＥＳＴＡＴＥ合同会社,,合同会社,栃木県,那須塩原市,東三島５丁目７３－１５メルベイユＢ２０２号室,,09,213,3292751,,,,,,,2022-01-28,1,,,,,ケーオーリアルエステート,0
2519,9070001038891,新規,0,2022-01-28,2022-01-28,株式会社ライフアップ,,株式会社,群馬県,前橋市,富士見町時沢３５８番地２,,10,201,3710104,,,,,,,2022-01-28,1,,,,,ライフアップ,0
2539,9120001243478,新規,0,2022-01-28,2022-01-28,Ｉｎｆｉｎｉｔｙ　Ａｓｓｏｃｉａｔｅｓ株式会社,,株式会社,大阪府,大阪市城東区,東中浜３丁目１９番２２号,,27,118,5360023,,,,,,,2022-01-28,1,,,,,インフィニティアソシエイツ,0
2540,9120001243494,新規,0,2022-01-28,2022-01-28,株式会社Ｃｈａｏｓ,,株式会社,大阪府,大阪市中央区,東心斎橋２丁目５番２１号,,27,128,5420083,,,,,,,2022-01-28,1,,,,,カオス,0
2541,9120001243511,新規,0,2022-01-28,2022-01-28,株式会社ベルファースト,,株式会社,大阪府,大阪市西区,北堀江１丁目２３番２５－２２０２号,,27,106,5500014,,,,,,,2022-01-28,1,,,,,ベルファースト,0
2542,9120001243528,新規,0,2022-01-28,2022-01-28,株式会社トリート,,株式会社,大阪府,大阪市平野区,平野西６丁目３番９－２１０号,,27,126,5470033,,,,,,,2022-01-28,1,,,,,トリート,0
2563,9140001124734,新規,0,2022-01-28,2022-01-28,株式会社ＶＯＬＴＥＣ,,株式会社,兵庫県,神戸市須磨区,村雨町６丁目１番８号,,28,107,6540046,,,,,,,2022-01-28,1,,,,,ボルテック,0
2566,9140003017291,新規,0,2022-01-28,2022-01-28,合同会社ぎぶたん,,合同会社,兵庫県,神戸市灘区,篠原南町６丁目２番３号,,28,102,6570059,,,,,,,2022-01-28,1,,,,,ギブタン,0
2568,9150001025287,新規,0,2022-01-28,2022-01-28,株式会社創造空間,,株式会社,奈良県,奈良市,東九条町２１９番地の２３,,29,201,6308144,,,,,,,2022-01-28,1,,,,,ソウゾウクウカン,0
2584,9180003023427,新規,0,2022-01-28,2022-01-28,合同会社悦楽,,合同会社,愛知県,名古屋市瑞穂区,東栄町４丁目７番地１,,23,108,4670017,,,,,,,2022-01-28,1,,,,,エツラク,0
2585,9180003023435,新規,0,2022-01-28,2022-01-28,あるふぁちーむ合同会社,,合同会社,愛知県,春日井市,中央台５丁目３－１６,,23,206,4870011,,,,,,,2022-01-28,1,,,,,アルファチーム,0
2589,9180303005240,新規,0,2022-01-28,2022-01-28,合同会社フジ・ベック,,合同会社,愛知県,安城市,上条町南組１２番地１,,23,212,4460023,,,,,,,2022-01-28,1,,,,,フジベック,0
2592,9200003005439,新規,0,2022-01-28,2022-01-28,合同会社アンドライト,,合同会社,岐阜県,関市,富之保２５９７番地の３,,21,205,5013501,,,,,,,2022-01-28,1,,,,,アンドライト,0
2593,9210001018796,新規,0,2022-01-28,2022-01-28,株式会社ソリッドラボ,,株式会社,福井県,福井市,高木中央１丁目１５０１番地,,18,201,9100804,,,,,,,2022-01-28,1,,,,,ソリッドラボ,0
2594,9210003001453,新規,0,2022-01-28,2022-01-28,コミュニケーションＶ合同会社,,合同会社,福井県,鯖江市,有定町２丁目２－２２Ｐｒｅｓｅｎｎｔ－ｂｙ－Ｈａｉｒ－Ｔｏｍｍｙ２階,,18,207,9160057,,,,,,,2022-01-28,1,,,,,コミュニケーションブイ,0
2604,9260005011025,新規,0,2022-01-28,2022-01-28,一般社団法人Ｓｕｎ　Ｌｅａｆ,,その他の設立登記法人,岡山県,倉敷市,西中新田３６５番地１０,,33,202,7100833,,,,,,,2022-01-28,1,,,,,サンリーフ,0
2609,9290001096133,新規,0,2022-01-28,2022-01-28,株式会社Ｒｅ‐ａｌｉｚｅ,,株式会社,福岡県,久留米市,御井旗崎２丁目２４番３８号パレ・クレール３０３,,40,203,8390841,,,,,,,2022-01-28,1,,,,,リアライズ,0
2610,9290001096232,新規,0,2022-01-28,2022-01-28,株式会社Ｍ’ｓｅｘｐｒｅｓｓ,,株式会社,福岡県,糟屋郡粕屋町,大字大隈１２１８番地３,,40,349,8112302,,,,,,,2022-01-28,1,,,,,エムズエクスプレス,0
2611,9290001096240,新規,0,2022-01-28,2022-01-28,株式会社今井工業,,株式会社,福岡県,福岡市南区,老司３丁目３番３号,,40,134,8111346,,,,,,,2022-01-28,1,,,,,イマイコウギョウ,0
2612,9290001096249,新規,0,2022-01-28,2022-01-28,株式会社幸正会,,株式会社,福岡県,福岡市中央区,薬院４丁目１番１２号２Ｆ,,40,133,8100022,,,,,,,2022-01-28,1,,,,,コウセイカイ,0
2613,9290001096257,新規,0,2022-01-28,2022-01-28,株式会社茶時遊空間,,株式会社,福岡県,大野城市,下大利２丁目１番１－５０２,,40,219,8160952,,,,,,,2022-01-28,1,,,,,チャジユウクウカン,0
2615,9310001017689,新規,0,2022-01-28,2022-01-28,株式会社ＦＨＫ,,株式会社,長崎県,佐世保市,大和町３４２番地１,,42,202,8571165,,,,,,,2022-01-28,1,,,,,エフエイチケイ,0
2616,9310003004264,新規,0,2022-01-28,2022-01-28,合同会社ｐｏｃｏ,,合同会社,長崎県,長崎市,八千代町２番２－５０１号,,42,201,8500043,,,,,,,2022-01-28,1,,,,,ポコ,0
2620,9330001029393,新規,0,2022-01-28,2022-01-28,新生株式会社,,株式会社,熊本県,八代市,古閑上町１５７番地１０,,43,202,8660897,,,,,,,2022-01-28,1,,,,,シンセイ,0
2621,9330003009220,新規,0,2022-01-28,2022-01-28,合同会社ブラジリアン柔術アカデミーＴＡＴＯＲＵ,,合同会社,熊本県,熊本市南区,出仲間８丁目５番２６号,,43,104,8620963,,,,,,,2022-01-28,1,,,,,ブラジリアンジュウジュツアカデミータトル,0
2629,9360003011768,新規,0,2022-01-28,2022-01-28,合同会社ルーカス,,合同会社,沖縄県,宮古島市,平良字下里３０３４番地１３,,47,214,9060013,,,,,,,2022-01-28,1,,,,,ルーカス,0
2631,9370001048126,新規,0,2022-01-28,2022-01-28,株式会社ベルティック,,株式会社,宮城県,多賀城市,高橋１丁目１８－１２,,04,209,9850853,,,,,,,2022-01-28,1,,,,,ベルティック,0
2632,9370001048134,新規,0,2022-01-28,2022-01-28,株式会社プランエステート,,株式会社,宮城県,仙台市泉区,八乙女４丁目１４番地の１８,,04,105,9813112,,,,,,,2022-01-28,1,,,,,プランエステート,0
2642,9400001015758,新規,0,2022-01-28,2022-01-28,株式会社あかりファーム,,株式会社,岩手県,九戸郡洋野町,阿子木第１２地割３３番地１０９,,03,507,0288803,,,,,,,2022-01-28,1,,,,,アカリファーム,0
2643,9400003002886,新規,0,2022-01-28,2022-01-28,合同会社レゾナンス,,合同会社,岩手県,北上市,中野町１丁目１１番１１号,,03,206,0240024,,,,,,,2022-01-28,1,,,,,レゾナンス,0
2652,9430001085889,新規,0,2022-01-28,2022-01-28,株式会社ＭＥＴＡＬ－Ａ,,株式会社,北海道,札幌市東区,東雁来十条１丁目１８番１２号,,01,103,0070030,,,,,,,2022-01-28,1,,,,,メタルエー,0
2654,9430003013575,新規,0,2022-01-28,2022-01-28,ジャストタイム合同会社,,合同会社,北海道,札幌市北区,北九条西４丁目７番地４エルムビル５階,,01,102,0600809,,,,,,,2022-01-28,1,,,,,ジャストタイム,0
2655,9430003013583,新規,0,2022-01-28,2022-01-28,エイチ・プランニング合同会社,,合同会社,北海道,札幌市中央区,大通西１５丁目１－１２マンション大通４０６号,,01,101,0600042,,,,,,,2022-01-28,1,,,,,エイチプランニング,0
2660,9470003002120,新規,0,2022-01-28,2022-01-28,合同会社ＳＫアカデミー,,合同会社,香川県,善通寺市,原田町１０６２番地３,,37,204,7650032,,,,,,,2022-01-28,1,,,,,エスケーアカデミー,0
2669,9700150106856,新規,0,2022-01-28,2022-01-28,Ｏｓｔｒｅｍ　Ｇｍｂｈ,,外国会社等,,,,,,,,Ｏｂｅｒｇａｓｓｅ　１５　６１４４０，Ｏｂｅｒｕｒｓｅｌ（Ｔａｕｎｕｓ），Ｈｅｓｓｅｎ　Ｇｅｒｍａｎｙ,,,,,,2022-01-28,1,,,,,オストレムゲーエムベーハー,0
