sequenceNumber,corporateNumber,process,correct,updateDate,changeDate,name,nameImageId,kind,prefectureName,cityName,streetNumber,addressImageId,prefectureCode,cityCode,postCode,addressOutside,addressOutsideImageId,closeDate,closeCause,successorCorporateNumber,changeCause,assignmentDate,latest,enName,enPrefectureName,enCityName,enAddressOutside,furigana,hihyoji
5,1010001224736,新規,0,2022-02-22,2022-02-22,株式会社ヴァレ・リジェール,,株式会社,東京都,千代田区,九段北１丁目５番９号,,13,101,1020073,,,,,,,2022-02-22,1,,,,,ヴァレリジェール,0
6,1010003036972,新規,0,2022-02-22,2022-02-22,合同会社大志,,合同会社,東京都,千代田区,麹町４丁目７番２号,,13,101,1020083,,,,,,,2022-02-22,1,,,,,タイシ,0
7,1010003037054,新規,0,2022-02-22,2022-02-22,Ｓｔｒｅｅｔ　Ｓｍａｒｔ合同会社,,合同会社,東京都,中央区,銀座１丁目１２番４号Ｎ＆ＥＢＬＤ．７階,,13,102,1040061,,,,,,,2022-02-22,1,,,,,ストリートスマート,0
12,1010401165621,新規,0,2022-02-22,2022-02-22,株式会社シンミレニアムフィルム,,株式会社,東京都,港区,南青山２丁目２番１５号,,13,103,1070062,,,,,,,2022-02-22,1,,,,,シンミレニアムフィルム,0
13,1010401165638,新規,0,2022-02-22,2022-02-22,タインフォン株式会社,,株式会社,東京都,港区,港南２丁目１６番２号,,13,103,1080075,,,,,,,2022-02-22,1,,,,,タインフォン,0
14,1010401165662,新規,0,2022-02-22,2022-02-22,ＣＩＲＣＬＥＳ株式会社,,株式会社,東京都,港区,北青山２丁目７番２０号猪瀬ビル２Ｆ,,13,103,1070061,,,,,,,2022-02-22,1,,,,,サークルズ,0
15,1010401165679,新規,0,2022-02-22,2022-02-22,ＡｓｉａＷｉｓｅ　Ｍａｎａｇｅｍｅｎｔ株式会社,,株式会社,東京都,港区,虎ノ門１丁目１７－１虎ノ門ヒルズビジネスタワー１５階,,13,103,1050001,,,,,,,2022-02-22,1,,,,,アジアワイズマネジメント,0
16,1010401165704,新規,0,2022-02-22,2022-02-22,株式会社ＭａｘｉｍｕｓＬｉｆｅ,,株式会社,東京都,港区,虎ノ門１丁目１７番１号,,13,103,1050001,,,,,,,2022-02-22,1,,,,,マキシマスライフ,0
17,1010401165712,新規,0,2022-02-22,2022-02-22,ＰｉｎｅＶｉｌｌａｇｅ株式会社,,株式会社,東京都,港区,赤坂１丁目７番１号,,13,103,1070052,,,,,,,2022-02-22,1,,,,,パインビレッジ,0
18,1010401165737,新規,0,2022-02-22,2022-02-22,峰愛夏株式会社,,株式会社,東京都,港区,港南４丁目６番５－１９０３号,,13,103,1080075,,,,,,,2022-02-22,1,,,,,ミネアイカ,0
19,1010403027101,新規,0,2022-02-22,2022-02-22,Ｂａｍｂｕｓｅｒ　Ｊａｐａｎ合同会社,,合同会社,東京都,港区,南麻布３丁目１９番２３号オーク南麻布ビル２階,,13,103,1060047,,,,,,,2022-02-22,1,,,,,バンブーザージャパン,0
20,1010403027134,新規,0,2022-02-22,2022-02-22,合同会社ＨＡＷＩＮ,,合同会社,東京都,港区,南麻布４丁目１番１４－１２０３号,,13,103,1060047,,,,,,,2022-02-22,1,,,,,ホーウィン,0
24,1010601060705,新規,0,2022-02-22,2022-02-22,株式会社無駄,,株式会社,東京都,江東区,大島６丁目２６－７大友ビル３Ｆ－ＡＲＫＥ,,13,108,1360072,,,,,,,2022-02-22,1,,,,,ムダ,0
25,1010601060713,新規,0,2022-02-22,2022-02-22,株式会社きい,,株式会社,東京都,江東区,亀戸２丁目３９－１２,,13,108,1360071,,,,,,,2022-02-22,1,,,,,キイ,0
26,1010601060721,新規,0,2022-02-22,2022-02-22,株式会社タカトヨ,,株式会社,東京都,墨田区,文花１丁目３４番１１－１０１号,,13,107,1310044,,,,,,,2022-02-22,1,,,,,タカトヨ,0
31,1010801032743,新規,0,2022-02-22,2022-02-22,株式会社プラントゥースリー,,株式会社,東京都,大田区,東糀谷１丁目１番１０号,,13,111,1440033,,,,,,,2022-02-22,1,,,,,プラントゥースリー,0
37,1010901050389,新規,0,2022-02-22,2022-02-22,株式会社ＰａＫａＫｏ,,株式会社,東京都,世田谷区,上祖師谷７丁目１番８号,,13,112,1570065,,,,,,,2022-02-22,1,,,,,パカコ,0
38,1010903007164,新規,0,2022-02-22,2022-02-22,心美合同会社,,合同会社,東京都,世田谷区,上馬２丁目２０番１５号,,13,112,1540011,,,,,,,2022-02-22,1,,,,,シンビ,0
50,1011001145848,新規,0,2022-02-22,2022-02-22,株式会社ＷＴＣ,,株式会社,東京都,目黒区,上目黒３丁目１－１０ヴェルデナポリ２０３,,13,110,1530051,,,,,,,2022-02-22,1,,,,,ダブリュティーシー,0
55,1011003014183,新規,0,2022-02-22,2022-02-22,オカザキコンサルティング合同会社,,合同会社,東京都,渋谷区,道玄坂１丁目９番４号ＯＤＡビルディング３Ｆ,,13,113,1500043,,,,,,,2022-02-22,1,,,,,オカザキコンサルティング,0
61,1011101097865,新規,0,2022-02-22,2022-02-22,Ａｃｔｉｏｎｂｏｏｋ株式会社,,株式会社,東京都,新宿区,高田馬場１丁目３２番１０号,,13,104,1690075,,,,,,,2022-02-22,1,,,,,アクションブック,0
63,1011103011493,新規,0,2022-02-22,2022-02-22,ロチャン合同会社,,合同会社,東京都,新宿区,百人町２丁目１８－１５,,13,104,1690073,,,,,,,2022-02-22,1,,,,,ロチャン,0
66,1011301027580,新規,0,2022-02-22,2022-02-22,株式会社ｅｃｏ　ｆｅｅｌｉｎｇ,,株式会社,東京都,杉並区,善福寺２丁目３７番１９号,,13,115,1670041,,,,,,,2022-02-22,1,,,,,エコフィーリング,0
70,1011601025755,新規,0,2022-02-22,2022-02-22,株式会社ｄａｔａ,,株式会社,東京都,練馬区,豊玉上１丁目２０番１４－３０１号,,13,120,1760011,,,,,,,2022-02-22,1,,,,,ダータ,0
74,1012301012894,新規,0,2022-02-22,2022-02-22,オリーブ株式会社,,株式会社,東京都,町田市,小山ヶ丘５丁目７－１－１１３,,13,209,1940215,,,,,,,2022-02-22,1,,,,,オリーブ,0
77,1012803002708,新規,0,2022-02-22,2022-02-22,ブランジェルズ合同会社,,合同会社,東京都,国立市,谷保６０４９番地,,13,215,1860011,,,,,,,2022-02-22,1,,,,,ブランジェルズ,0
86,1020001145287,新規,0,2022-02-22,2022-02-22,株式会社スタフォ,,株式会社,神奈川県,川崎市多摩区,登戸７２１番地３６,,14,135,2140014,,,,,,,2022-02-22,1,,,,,スタフォ,0
87,1020001145320,新規,0,2022-02-22,2022-02-22,ＡＩＭ　Ｊａｐａｎ株式会社,,株式会社,神奈川県,横浜市港北区,新横浜３丁目７番地１８,,14,109,2220033,,,,,,,2022-02-22,1,,,,,エイムジャパン,0
89,1021001075235,新規,0,2022-02-22,2022-02-22,株式会社ＨＩ－ＢＡＳＥ,,株式会社,神奈川県,藤沢市,高谷５番１１号グリーンコーポ湘南１０２,,14,205,2510017,,,,,,,2022-02-22,1,,,,,ハイベース,0
95,1030001146581,新規,0,2022-02-22,2022-02-22,ＡＤＩＴＩ株式会社,,株式会社,埼玉県,川越市,的場北１丁目５番１２号フラワーハイツ２０２,,11,201,3501102,,,,,,,2022-02-22,1,,,,,アディティ,0
98,1030003018886,新規,0,2022-02-22,2022-02-22,合同会社ＴＲＡＩＬ,,合同会社,埼玉県,さいたま市北区,日進町１丁目４１０番地２若林倉庫３階,,11,102,3310823,,,,,,,2022-02-22,1,,,,,トレイル,0
103,1040003019537,新規,0,2022-02-22,2022-02-22,合同会社ＡＬＨＡＳ,,合同会社,千葉県,千葉市稲毛区,黒砂台１丁目３番地２号１,,12,103,2630041,,,,,,,2022-02-22,1,,,,,オルハス,0
104,1040003019545,新規,0,2022-02-22,2022-02-22,合同会社ＤＯＩ,,合同会社,千葉県,柏市,東上町３番１０サンライズ柏２０２号室,,12,217,2770011,,,,,,,2022-02-22,1,,,,,ディーオーアイ,0
105,1050001050658,新規,0,2022-02-22,2022-02-22,株式会社藤正,,株式会社,茨城県,かすみがうら市,稲吉４丁目７番３１号,,08,230,3150054,,,,,,,2022-02-22,1,,,,,フジショウ,0
106,1050001050666,新規,0,2022-02-22,2022-02-22,株式会社ＮＩＥホールディングス,,株式会社,茨城県,神栖市,知手中央３丁目８番１６号,,08,232,3140112,,,,,,,2022-02-22,1,,,,,エヌアイイーホールディングス,0
111,1070001038957,新規,0,2022-02-22,2022-02-22,株式会社トリプルディー,,株式会社,群馬県,邑楽郡大泉町,大字吉田３４２３番地,,10,524,3700523,,,,,,,2022-02-22,1,,,,,トリプルディー,0
117,1080403004473,新規,0,2022-02-22,2022-02-22,合同会社ラシックモア,,合同会社,静岡県,浜松市中区,曳馬６丁目２３番１６号モリショウ第１ビル２０１号室,,22,131,4300901,,,,,,,2022-02-22,1,,,,,ラシックモア,0
125,1110001036452,新規,0,2022-02-22,2022-02-22,株式会社パディス,,株式会社,新潟県,燕市,花園町１７番１４号,,15,213,9591221,,,,,,,2022-02-22,1,,,,,パディス,0
135,1120001243782,新規,0,2022-02-22,2022-02-22,株式会社ピーマン,,株式会社,大阪府,大阪市中央区,南船場２丁目６番５号ファースト船場３０１,,27,128,5420081,,,,,,,2022-02-22,1,,,,,ピーマン,0
136,1120001243948,新規,0,2022-02-22,2022-02-22,株式会社ハピネスゲート,,株式会社,大阪府,大阪市北区,大淀南１丁目３番１９号２階,,27,127,5310075,,,,,,,2022-02-22,1,,,,,ハピネスゲート,0
137,1120001243964,新規,0,2022-02-22,2022-02-22,株式会社Ｙｓアメニティ,,株式会社,大阪府,大阪市天王寺区,大道１丁目１２番１５号,,27,109,5430052,,,,,,,2022-02-22,1,,,,,ワイエスアメニティ,0
138,1120001243989,新規,0,2022-02-22,2022-02-22,株式会社麗匠設備,,株式会社,大阪府,門真市,岸和田３丁目６番１号,,27,223,5710002,,,,,,,2022-02-22,1,,,,,リショウセツビ,0
139,1120001243997,新規,0,2022-02-22,2022-02-22,株式会社チームデータム,,株式会社,大阪府,枚方市,北中振３丁目４０２番２８,,27,210,5730064,,,,,,,2022-02-22,1,,,,,チームデータム,0
143,1120003021179,新規,0,2022-02-22,2022-02-22,合同会社Ｏｌｉｖｅｒ　Ｂ．Ｇｉｌｍｏｕｒ’ｓ　Ｎｅｔｗｏｒｋ　＆　Ｅｎｔｅｒｐｒｉｓｅｓ　Ａｌｌｉｅｄ　Ｗｏｒｌｄｗｉｄｅ,,合同会社,大阪府,大阪市東住吉区,今林２丁目２５番５号,,27,121,5460001,,,,,,,2022-02-22,1,,,,,オリバービーギルモアズネットワークアンドエンタープライズアライドワールドワイド,0
145,1120105009527,新規,0,2022-02-22,2022-02-22,一般社団法人ＰＲＯＪＥＴＯ　ＣＯＮＳＴＲＵＩＲ　ＡＲＴＥＬ,,その他の設立登記法人,大阪府,堺市堺区,石津町１丁９番２３号,,27,141,5900814,,,,,,,2022-02-22,1,,,,,プロジェトコンストルイルアルテル,0
148,1122003002274,新規,0,2022-02-22,2022-02-22,合同会社おくの運送,,合同会社,大阪府,東大阪市,永和３丁目１５番２３号,,27,227,5770809,,,,,,,2022-02-22,1,,,,,オクノウンソウ,0
149,1130001071159,新規,0,2022-02-22,2022-02-22,株式会社ワナリ,,株式会社,京都府,京都市左京区,一乗寺中ノ田町６３番地ＬａＳｏｒｔｉｅ１０３号,,26,103,6068163,,,,,,,2022-02-22,1,,,,,ワナリ,0
156,1140001124849,新規,0,2022-02-22,2022-02-22,株式会社バイタイム,,株式会社,兵庫県,西宮市,柏堂西町２番２７号,,28,204,6620098,,,,,,,2022-02-22,1,,,,,バイタイム,0
157,1140001124956,新規,0,2022-02-22,2022-02-22,株式会社ユース不動産,,株式会社,兵庫県,姫路市,佃町７９番地堀ビル２Ｆ,,28,201,6728049,,,,,,,2022-02-22,1,,,,,ユースフドウサン,0
158,1140001124980,新規,0,2022-02-22,2022-02-22,株式会社グレゴリー・コレ,,株式会社,兵庫県,神戸市中央区,山本通２丁目３番５号,,28,110,6500003,,,,,,,2022-02-22,1,,,,,グレゴリーコレ,0
163,1150001025344,新規,0,2022-02-22,2022-02-22,株式会社絆次,,株式会社,奈良県,奈良市,菅原町３３１番地の２１,,29,201,6310842,,,,,,,2022-02-22,1,,,,,バンジ,0
164,1160001011979,新規,0,2022-02-22,2022-02-22,株式会社天馬屋,,株式会社,滋賀県,高島市,安曇川町上小川１番地の５,,25,212,5201224,,,,,,,2022-02-22,1,,,,,テンマヤ,0
173,1180001150049,新規,0,2022-02-22,2022-02-22,株式会社ＡＴＯＭ,,株式会社,愛知県,名古屋市天白区,焼山１丁目１０１番地,,23,116,4680002,,,,,,,2022-02-22,1,,,,,アトム,0
174,1180001150081,新規,0,2022-02-22,2022-02-22,株式会社ＡＩＥＳＴ,,株式会社,愛知県,名古屋市中区,大須３丁目１４番４３号第２アメ横ビル１階,,23,106,4600011,,,,,,,2022-02-22,1,,,,,アイエスト,0
176,1180003023509,新規,0,2022-02-22,2022-02-22,合同会社ルーア,,合同会社,愛知県,名古屋市中区,栄５丁目２６－３９ＧＳ栄ビル３Ｆ,,23,106,4600008,,,,,,,2022-02-22,1,,,,,ルーア,0
177,1180003023517,新規,0,2022-02-22,2022-02-22,合同会社エムズ・エスト,,合同会社,愛知県,名古屋市中川区,中花町２４番地中花明豊ビル２Ｂ,,23,110,4540931,,,,,,,2022-02-22,1,,,,,エムズエスト,0
178,1180301035940,新規,0,2022-02-22,2022-02-22,佐野商事株式会社,,株式会社,愛知県,豊橋市,西高師町字沢向４番地の４,,23,201,4418154,,,,,,,2022-02-22,1,,,,,サノショウジサノショウジ,0
181,1180305009305,新規,0,2022-02-22,2022-02-22,一般社団法人申命会,,その他の設立登記法人,愛知県,岡崎市,魚町１丁目９番地,,23,202,4440058,,,,,,,2022-02-22,1,,,,,シンメイカイ,0
194,1240001059366,新規,0,2022-02-22,2022-02-22,株式会社Ｙ’ｓテック,,株式会社,広島県,広島市中区,舟入南４丁目１番４９号,,34,101,7300847,,,,,,,2022-02-22,1,,,,,ワイズテック,0
197,1240005015332,新規,0,2022-02-22,2022-02-22,医療法人社団ＲＳ会,,その他の設立登記法人,広島県,広島市西区,庚午北３丁目１番２号,,34,104,7330821,,,,,,,2022-02-22,1,,,,,アールエスカイ,0
199,1250001019419,新規,0,2022-02-22,2022-02-22,株式会社Ｕ．Ｃ．Ｍ,,株式会社,山口県,防府市,大字下右田３９６番地の５,,35,206,7470063,,,,,,,2022-02-22,1,,,,,ユーシーエム,0
203,1280001008641,新規,0,2022-02-22,2022-02-22,株式会社ｏｂｊｅｃｔｓ,,株式会社,島根県,松江市,東本町２丁目８番地,,32,201,6900842,,,,,,,2022-02-22,1,,,,,オブジェクツ,0
207,1290001096504,新規,0,2022-02-22,2022-02-22,北九州洋上風力発電株式会社,,株式会社,福岡県,福岡市博多区,綱場町７番１号リアンプレミアム呉服町ステーション９階,,40,132,8120024,,,,,,,2022-02-22,1,,,,,キタキュウシュウヨウジョウフウリョクハツデン,0
208,1290001096512,新規,0,2022-02-22,2022-02-22,株式会社ＬＯＤ,,株式会社,福岡県,みやま市,瀬高町河内１８１３番地１,,40,229,8350014,,,,,,,2022-02-22,1,,,,,エルオーディー,0
209,1290001096520,新規,0,2022-02-22,2022-02-22,株式会社Ｌｉｆｅ　ｄｅｓｉｇｎ　ｉｎｃ,,株式会社,福岡県,福岡市南区,大池１丁目２１番２５号大池第一ハイツ２０５,,40,134,8150073,,,,,,,2022-02-22,1,,,,,ライフデザイン,0
215,1290801028268,新規,0,2022-02-22,2022-02-22,株式会社金商,,株式会社,福岡県,北九州市門司区,大字吉志２４４番地４（１０６）,,40,101,8000114,,,,,,,2022-02-22,1,,,,,キンショウ,0
224,1340003003717,新規,0,2022-02-22,2022-02-22,合同会社ぷらっと,,合同会社,鹿児島県,鹿児島市,上谷口町１６９５番地１０,,46,201,8992703,,,,,,,2022-02-22,1,,,,,プラット,0
226,1360001030026,新規,0,2022-02-22,2022-02-22,株式会社セブンオーシャン,,株式会社,沖縄県,国頭郡恩納村,字前兼久１５９番地４,,47,311,9040414,,,,,,,2022-02-22,1,,,,,セブンオーシャン,0
229,1360003011825,新規,0,2022-02-22,2022-02-22,イギー合同会社,,合同会社,沖縄県,名護市,宇茂佐の森２丁目１３番３号３０３,,47,209,9050009,,,,,,,2022-02-22,1,,,,,イギー,0
230,1370003005594,新規,0,2022-02-22,2022-02-22,合同会社エイト,,合同会社,宮城県,仙台市若林区,卸町４丁目７番１号斎喜卸ビル１０３,,04,103,9840015,,,,,,,2022-02-22,1,,,,,エイト,0
234,1380001032573,新規,0,2022-02-22,2022-02-22,株式会社高原の森,,株式会社,福島県,双葉郡川内村,大字上川内字早渡１３番地,,07,544,9791201,,,,,,,2022-02-22,1,,,,,コウゲンノモリ,0
248,1430001086003,新規,0,2022-02-22,2022-02-22,株式会社ジモット,,株式会社,北海道,札幌市東区,北十二条東１３丁目１番１２号,,01,103,0650012,,,,,,,2022-02-22,1,,,,,ジモット,0
254,1430005014397,新規,0,2022-02-22,2022-02-22,行政書士法人きずな北海道,,その他の設立登記法人,北海道,札幌市東区,北二十八条東２丁目２番７－１０１号,,01,103,0650028,,,,,,,2022-02-22,1,,,,,キズナホッカイドウ,0
256,1460103001427,新規,0,2022-02-22,2022-02-22,合同会社クルーピエ,,合同会社,北海道,帯広市,西十五条南４丁目７番地８ホームスペース１５４‐１０３,,01,207,0800025,,,,,,,2022-02-22,1,,,,,クルーピエ,0
259,1470001018976,新規,0,2022-02-22,2022-02-22,ＢＥＮＬＹ．ＯＮＥ株式会社,,株式会社,香川県,高松市,木太町１８２１番地２６,,37,201,7600080,,,,,,,2022-02-22,1,,,,,ベンリーワン,0
260,1470003002136,新規,0,2022-02-22,2022-02-22,合同会社ノギア,,合同会社,香川県,仲多度郡多度津町,大字道福寺２１番地６,,37,404,7640027,,,,,,,2022-02-22,1,,,,,ノギア,0
270,2010001224512,新規,0,2022-02-22,2022-02-22,株式会社ＢＵＺＺ　ＢＵＺＺ,,株式会社,東京都,千代田区,麹町１丁目３－１１麹町第２センタービル８０２号室,,13,101,1020083,,,,,,,2022-02-22,1,,,,,バズバズ,0
271,2010001224751,新規,0,2022-02-22,2022-02-22,株式会社Ｐｒｏｇｒｅｅ,,株式会社,東京都,千代田区,神田猿楽町２丁目８番１１号ＶＯＲＴ水道橋ＩＩＩ９階,00125766,13,101,1010064,,,,,,,2022-02-22,1,,,,,プログリー,0
274,2010003036971,新規,0,2022-02-22,2022-02-22,合同会社輝星,,合同会社,東京都,千代田区,麹町４丁目７番２号,,13,101,1020083,,,,,,,2022-02-22,1,,,,,キセイ,0
276,2010005034619,新規,0,2022-02-22,2022-02-22,弁護士法人Ｚ,,その他の設立登記法人,東京都,中央区,銀座１丁目１９番１２号,,13,102,1040061,,,,,,,2022-02-22,1,,,,,ゼット,0
278,2010103001867,新規,0,2022-02-22,2022-02-22,７Ｒ　Ｃｏｎｓｕｌｔｉｎｇ合同会社,,合同会社,東京都,八王子市,北野台５丁目３３番７号,,13,201,1920913,,,,,,,2022-02-22,1,,,,,セブンアールコンサルティング,0
282,2010401165570,新規,0,2022-02-22,2022-02-22,ＳＴＩＧ株式会社,,株式会社,東京都,港区,芝浦４丁目１６番２３号,,13,103,1080023,,,,,,,2022-02-22,1,,,,,,0
283,2010401165661,新規,0,2022-02-22,2022-02-22,株式会社０－ＳＴＩＬＥ,,株式会社,東京都,港区,浜松町２丁目２番１５号浜松町ダイヤビル２Ｆ,,13,103,1050013,,,,,,,2022-02-22,1,,,,,ゼロースティーレ,0
284,2010401165686,新規,0,2022-02-22,2022-02-22,株式会社ＤＡＴＳＵＢＲＩＧＨＴ,,株式会社,東京都,港区,南青山１丁目２６－１３－１１０２,,13,103,1070062,,,,,,,2022-02-22,1,,,,,ダツブライト,0
285,2010401165711,新規,0,2022-02-22,2022-02-22,株式会社キュリアス・コーナーズ,,株式会社,東京都,港区,南青山４丁目１６番３号南青山コトリビル３０１号室,,13,103,1070062,,,,,,,2022-02-22,1,,,,,キュリアスコーナーズ,0
286,2010401165728,新規,0,2022-02-22,2022-02-22,ＧａｍｅＷｉｔｈ　ＡＲＴＥＲＩＡ株式会社,,株式会社,東京都,港区,新橋６丁目９番８号,,13,103,1050004,,,,,,,2022-02-22,1,,,,,ゲームウィズアルテリア,0
291,2010403027117,新規,0,2022-02-22,2022-02-22,合同会社ｓｔａｐ,,合同会社,東京都,港区,六本木７丁目１２番３号パワーハウス六本木７－Ａ,,13,103,1060032,,,,,,,2022-02-22,1,,,,,スタップ,0
292,2010501048493,新規,0,2022-02-22,2022-02-22,株式会社ＯＮＤ,,株式会社,東京都,台東区,上野２丁目１番５号大阪屋ビル３階,,13,106,1100005,,,,,,,2022-02-22,1,,,,,オンド,0
295,2010601060704,新規,0,2022-02-22,2022-02-22,株式会社京葉メカニカル,,株式会社,東京都,江東区,大島２丁目３５番１０号操ビル６０１,,13,108,1360072,,,,,,,2022-02-22,1,,,,,ケイヨウメカニカル,0
296,2010601060720,新規,0,2022-02-22,2022-02-22,株式会社中鐵工業,,株式会社,東京都,江東区,亀戸５丁目６番２１号ＵＩＷ９ＢＬＤＧ．４Ｆ－２５,,13,108,1360071,,,,,,,2022-02-22,1,,,,,ナカテツコウギョウ,0
298,2010603009402,新規,0,2022-02-22,2022-02-22,ＳｕｎｎｙＣｏｏｐ合同会社,,合同会社,東京都,江東区,木場６丁目１１番５号,,13,108,1350042,,,,,,,2022-02-22,1,,,,,サニーコーポ,0
301,2010703006118,新規,0,2022-02-22,2022-02-22,合同会社ｍｏｔｔａｉｎｅ,,合同会社,東京都,品川区,西品川１丁目１７番７号,,13,109,1410033,,,,,,,2022-02-22,1,,,,,モッタイネ,0
305,2010901050388,新規,0,2022-02-22,2022-02-22,ＫＯＣＨＩ株式会社,,株式会社,東京都,世田谷区,経堂４丁目３８番３号,,13,112,1560052,,,,,,,2022-02-22,1,,,,,コチ,0
312,2011001145830,新規,0,2022-02-22,2022-02-22,プレイシス株式会社,,株式会社,東京都,渋谷区,代々木４丁目３７番１２－５０５号,,13,113,1510053,,,,,,,2022-02-22,1,,,,,プレイシス,0
315,2011003014199,新規,0,2022-02-22,2022-02-22,合同会社ディグフリー,,合同会社,東京都,渋谷区,神宮前６丁目２３番４号桑野ビル２階,,13,113,1500001,,,,,,,2022-02-22,1,,,,,ディグフリー,0
328,2011703003071,新規,0,2022-02-22,2022-02-22,合同会社バックエンド,,合同会社,東京都,江戸川区,中央１丁目２番７号,,13,123,1320021,,,,,,,2022-02-22,1,,,,,バックエンド,0
330,2011801040355,新規,0,2022-02-22,2022-02-22,株式会社Ｃｕｏｒｅ,,株式会社,東京都,葛飾区,柴又５丁目４５番３号,,13,122,1250052,,,,,,,2022-02-22,1,,,,,クオレ,0
332,2012303001639,新規,0,2022-02-22,2022-02-22,合同会社ピロー,,合同会社,東京都,町田市,原町田１丁目１０番１７号メゾンドＡ２－４０１,,13,209,1940013,,,,,,,2022-02-22,1,,,,,ピロー,0
345,2020001145278,新規,0,2022-02-22,2022-02-22,株式会社ＦＭＴコンフィアンセ,,株式会社,神奈川県,川崎市宮前区,南野川１丁目１８番２３号,,14,136,2160042,,,,,,,2022-02-22,1,,,,,エフエムティコンフィアンセ,0
346,2020001145303,新規,0,2022-02-22,2022-02-22,株式会社高成工業,00125772,株式会社,神奈川県,川崎市川崎区,小田２丁目１５番１７号メゾンＮ２－１０１,,14,131,2100846,,,,,,,2022-02-22,1,,,,,タカミコウギョウ,0
347,2020001145311,新規,0,2022-02-22,2022-02-22,Ｚｉ‐Ｇ株式会社,,株式会社,神奈川県,横浜市神奈川区,羽沢南１丁目３５番４号,,14,102,2210866,,,,,,,2022-02-22,1,,,,,ジーグ,0
350,2020003021337,新規,0,2022-02-22,2022-02-22,合同会社ノア,,合同会社,神奈川県,横浜市金沢区,六浦２丁目９番１８号,,14,108,2360031,,,,,,,2022-02-22,1,,,,,ノア,0
354,2021001075218,新規,0,2022-02-22,2022-02-22,株式会社ＹＭＣ,,株式会社,神奈川県,茅ヶ崎市,共恵１丁目７番２０－５０３号,,14,207,2530056,,,,,,,2022-02-22,1,,,,,ワイエムシー,0
355,2021001075226,新規,0,2022-02-22,2022-02-22,株式会社ユーテック,,株式会社,神奈川県,相模原市中央区,南橋本２丁目３番１０－８０３号,,14,152,2520253,,,,,,,2022-02-22,1,,,,,ユーテック,0
356,2021001075250,新規,0,2022-02-22,2022-02-22,株式会社ドードー,,株式会社,神奈川県,茅ヶ崎市,柳島海岸１２番３１号,,14,207,2530063,,,,,,,2022-02-22,1,,,,,ドードー,0
360,2030001146861,新規,0,2022-02-22,2022-02-22,株式会社マック,,株式会社,埼玉県,八潮市,緑町３丁目１番地１２,,11,234,3400808,,,,,,,2022-02-22,1,,,,,マック,0
361,2030001146878,新規,0,2022-02-22,2022-02-22,俊和工業株式会社,,株式会社,埼玉県,川口市,大字安行領家１０１８番地の９,,11,203,3340058,,,,,,,2022-02-22,1,,,,,シュンワコウギョウ,0
362,2030001146911,新規,0,2022-02-22,2022-02-22,株式会社バンデ,,株式会社,埼玉県,さいたま市浦和区,前地１丁目１４番１２号グランドコート３０３,,11,107,3300053,,,,,,,2022-02-22,1,,,,,バンデ,0
364,2030005020724,新規,0,2022-02-22,2022-02-22,さいたまに在る教会,,その他の設立登記法人,埼玉県,さいたま市中央区,下落合２丁目１番４号,,11,105,3380002,,,,,,,2022-02-22,1,,,,,サイタマニアルキョウカイ,0
368,2040001122317,新規,0,2022-02-22,2022-02-22,株式会社泰成クラース,,株式会社,千葉県,東金市,菱沼１０３３番地３,,12,213,2830016,,,,,,,2022-02-22,1,,,,,タイセイクラース,0
371,2050001050657,新規,0,2022-02-22,2022-02-22,坂太建設株式会社,,株式会社,茨城県,水戸市,石川２丁目４３０２番地の８ピエールリヴィエールＣ棟１０１号,,08,201,3100905,,,,,,,2022-02-22,1,,,,,サカタケンセツ,0
372,2050001050665,新規,0,2022-02-22,2022-02-22,株式会社ネオトラスト不動産,,株式会社,茨城県,水戸市,元吉田町８５番地の５グリーンハイツＢ－６,,08,201,3100836,,,,,,,2022-02-22,1,,,,,ネオトラストフドウサン,0
373,2050001050673,新規,0,2022-02-22,2022-02-22,ＡＩＥＲＩＮＯ株式会社,,株式会社,茨城県,水戸市,元吉田町２３０５－２,,08,201,3100836,,,,,,,2022-02-22,1,,,,,アイエリーノ,0
374,2050001050681,新規,0,2022-02-22,2022-02-22,株式会社ＲＥＧＡＬＯ,,株式会社,茨城県,龍ケ崎市,藤ケ丘７丁目２８番地８,,08,208,3010855,,,,,,,2022-02-22,1,,,,,レガロ,0
391,2070001038964,新規,0,2022-02-22,2022-02-22,株式会社ＬＩＮＫ,,株式会社,群馬県,吾妻郡長野原町,大字北軽井沢地蔵堂１９９１番地１２７,,10,424,3771412,,,,,,,2022-02-22,1,,,,,リンク,0
394,2080001024773,新規,0,2022-02-22,2022-02-22,株式会社Ｎ．Ｅ．Ｗ,,株式会社,静岡県,牧之原市,松本２５７番地１,,22,226,4210513,,,,,,,2022-02-22,1,,,,,エヌイーダブリュー,0
397,2080103002529,新規,0,2022-02-22,2022-02-22,合同会社ｔａｍａ　ｃｒｅａｔｉｖｅ,,合同会社,静岡県,駿東郡清水町,徳倉１４８８‐４,,22,341,4110917,,,,,,,2022-02-22,1,,,,,タマクリエイティブ,0
399,2090001017421,新規,0,2022-02-22,2022-02-22,まちつむぎ株式会社,,株式会社,山梨県,都留市,田原２丁目４番２１号,,19,204,4020054,,,,,,,2022-02-22,1,,,,,マチツムギ,0
403,2100003006420,新規,0,2022-02-22,2022-02-22,合同会社想像喚起,,合同会社,長野県,長野市,大字鶴賀上千歳町１１３７番地２３長野１１３７ビル２階ＢＰＮ,,20,201,3800821,,,,,,,2022-02-22,1,,,,,ソウゾウカンキ,0
412,2120001243955,新規,0,2022-02-22,2022-02-22,株式会社飯嶋不動産鑑定士事務所,,株式会社,大阪府,大阪市中央区,南本町２丁目３番１２号ＥＤＧＥ本町３階,,27,128,5410054,,,,,,,2022-02-22,1,,,,,イイジマフドウサンカンテイシジムショ,0
413,2120001243971,新規,0,2022-02-22,2022-02-22,株式会社ＥＶＥＲＧＲＥＥＮ,,株式会社,大阪府,大阪市生野区,中川２丁目１４番２７－４０１号,,27,116,5440005,,,,,,,2022-02-22,1,,,,,エバーグリーン,0
419,2120101065102,新規,0,2022-02-22,2022-02-22,株式会社ＭＡＩＯＮ,,株式会社,大阪府,堺市北区,百舌鳥梅北町１丁５５番地７,,27,146,5918031,,,,,,,2022-02-22,1,,,,,マイオン,0
420,2120101065110,新規,0,2022-02-22,2022-02-22,ＳＥＮＲＩ　Ｃｏｒｐｏｒａｔｉｏｎ株式会社,,株式会社,大阪府,堺市西区,下田町２５番２６－２０２号,,27,144,5938329,,,,,,,2022-02-22,1,,,,,センリコーポレーション,0
423,2120901045625,新規,0,2022-02-22,2022-02-22,株式会社アドニース,,株式会社,大阪府,茨木市,下穂積１丁目６番１４－６０３号,,27,211,5670041,,,,,,,2022-02-22,1,,,,,アドニース,0
425,2122001035597,新規,0,2022-02-22,2022-02-22,株式会社ＥＡＳＴＷＥＳＴ,,株式会社,大阪府,東大阪市,加納１丁目３番３４号,,27,227,5780901,,,,,,,2022-02-22,1,,,,,イーストウェスト,0
426,2130001071166,新規,0,2022-02-22,2022-02-22,株式会社Ｌ＆Ｂ佐藤,,株式会社,京都府,長岡京市,城の里８番地１１,,26,209,6170835,,,,,,,2022-02-22,1,,,,,エルアンドビーサトウ,0
427,2130001071182,新規,0,2022-02-22,2022-02-22,株式会社白波瀬建設,,株式会社,京都府,京都市右京区,太秦堀ケ内町１２番地,,26,108,6168152,,,,,,,2022-02-22,1,,,,,シラハセケンセツ,0
430,2140001124955,新規,0,2022-02-22,2022-02-22,ｔｒｉａｎｇｌｅ　ｐｌｕｓ株式会社,,株式会社,兵庫県,芦屋市,岩園町９番２９－３０２号,,28,206,6590013,,,,,,,2022-02-22,1,,,,,トライアングルプラス,0
431,2140001124988,新規,0,2022-02-22,2022-02-22,株式会社フジリアルエステート,,株式会社,兵庫県,尼崎市,武庫之荘１丁目２１番２号１０１,,28,202,6610035,,,,,,,2022-02-22,1,,,,,フジリアルエステート,0
434,2140003017364,新規,0,2022-02-22,2022-02-22,安新合同会社,,合同会社,兵庫県,神戸市中央区,北長狭通５丁目７－１２第２七曜マンション４０４号室,,28,110,6500012,,,,,,,2022-02-22,1,,,,,アンシン,0
438,2150001025343,新規,0,2022-02-22,2022-02-22,株式会社タニグチ,,株式会社,奈良県,五條市,田園３丁目２８番地の８,,29,207,6370093,,,,,,,2022-02-22,1,,,,,タニグチ,0
452,2180001150048,新規,0,2022-02-22,2022-02-22,ＦＯＲＴＵＮＥ　ＲＩＣＨ株式会社,,株式会社,愛知県,日進市,栄４丁目６０３番地セルシオコート日進４０１,,23,230,4700113,,,,,,,2022-02-22,1,,,,,フォーチュンリッチ,0
453,2180001150056,新規,0,2022-02-22,2022-02-22,株式会社一宮テック,,株式会社,愛知県,一宮市,猿海道３丁目２番２６号,,23,203,4910838,,,,,,,2022-02-22,1,,,,,イチノミヤテック,0
454,2180001150064,新規,0,2022-02-22,2022-02-22,株式会社雅,,株式会社,愛知県,名古屋市千種区,赤坂町２丁目８番地の１,,23,101,4640094,,,,,,,2022-02-22,1,,,,,ミヤビ,0
455,2180001150072,新規,0,2022-02-22,2022-02-22,リンデンホフ株式会社,,株式会社,愛知県,名古屋市昭和区,広路町字松風園２,,23,107,4660834,,,,,,,2022-02-22,1,,,,,リンデンホフ,0
457,2180003023516,新規,0,2022-02-22,2022-02-22,合同会社ＥＧＡコンサルティング,,合同会社,愛知県,江南市,飛高町泉２０１番地１,,23,217,4838333,,,,,,,2022-02-22,1,,,,,イージーエーコンサルティング,0
458,2180005019644,新規,0,2022-02-22,2022-02-22,特定非営利活動法人一宮福祉事業支援友の会,,その他の設立登記法人,愛知県,一宮市,松降通７丁目１番地２ライオンズマンション一宮貴船１００３号,,23,203,4910078,,,,,,,2022-02-22,1,,,,,イチノミヤフクシジギョウシエントモノカイ,0
462,2180305009304,新規,0,2022-02-22,2022-02-22,一般社団法人サンタイエ,,その他の設立登記法人,愛知県,豊橋市,平川本町１丁目２番１１号,,23,201,4400038,,,,,,,2022-02-22,1,,,,,サンタイエ,0
467,2230001019246,新規,0,2022-02-22,2022-02-22,株式会社炎馬,,株式会社,富山県,富山市,経堂新町１８６番地４０,,16,201,9300956,,,,,,,2022-02-22,1,,,,,エンバ,0
471,2240001059357,新規,0,2022-02-22,2022-02-22,株式会社ＴＨＹ,,株式会社,広島県,広島市西区,庚午南２丁目３７番１－２０６号,,34,104,7330823,,,,,,,2022-02-22,1,,,,,ザイ,0
472,2240001059365,新規,0,2022-02-22,2022-02-22,株式会社白圭高友興産,00125763,株式会社,広島県,広島市西区,南観音４丁目７番１０号,,34,104,7330035,,,,,,,2022-02-22,1,,,,,ハッケイタカトモコウサン,0
473,2250001019418,新規,0,2022-02-22,2022-02-22,株式会社絆恵工業,,株式会社,山口県,宇部市,岬町１丁目７番１３－４０６号,,35,202,7550006,,,,,,,2022-02-22,1,,,,,キズエコウギョウ,0
475,2260001036544,新規,0,2022-02-22,2022-02-22,株式会社ＩＧＡ,,株式会社,岡山県,岡山市中区,原尾島３丁目２番１号（２０１号）,,33,102,7038235,,,,,,,2022-02-22,1,,,,,アイジーエー,0
480,2290001096486,新規,0,2022-02-22,2022-02-22,ＹＯＳＨＩＮＡＧＡ．株式会社,,株式会社,福岡県,福岡市中央区,薬院３丁目９番９号,,40,133,8100022,,,,,,,2022-02-22,1,,,,,ヨシナガ,0
481,2290001096494,新規,0,2022-02-22,2022-02-22,株式会社クラージュ,,株式会社,福岡県,福岡市博多区,吉塚１丁目４１番２２号,,40,132,8120041,,,,,,,2022-02-22,1,,,,,クラージュ,0
482,2290803004068,新規,0,2022-02-22,2022-02-22,ＡＷＥＳＯＭＥ　ＬＩＦＥ合同会社,,合同会社,福岡県,北九州市小倉南区,高野１丁目９番１３号,,40,107,8030275,,,,,,,2022-02-22,1,,,,,オウサムライフ,0
485,2310001017720,新規,0,2022-02-22,2022-02-22,株式会社ＤＤ’ｓ　ｖｉｓｉоｎ,,株式会社,長崎県,佐世保市,里美町４００－４,,42,202,8570122,,,,,,,2022-02-22,1,,,,,ディーディーズビジョン,0
486,2310001017729,新規,0,2022-02-22,2022-02-22,株式会社Ｌｉｅｎ,,株式会社,長崎県,大村市,水主町１丁目７４７－３７Ｆ－２,,42,205,8560827,,,,,,,2022-02-22,1,,,,,,0
494,2330003009251,新規,0,2022-02-22,2022-02-22,合同会社馬勝蔵,,合同会社,熊本県,熊本市中央区,白山１丁目３番７号,,43,101,8620959,,,,,,,2022-02-22,1,,,,,ウマカツゾウ,0
497,2340003003716,新規,0,2022-02-22,2022-02-22,合同会社ＳＮＫサービス,,合同会社,鹿児島県,鹿児島市,紫原３丁目１３番３－１号,,46,201,8900082,,,,,,,2022-02-22,1,,,,,エスエヌケイサービス,0
501,2360001030025,新規,0,2022-02-22,2022-02-22,株式会社はるとはれ,,株式会社,沖縄県,那覇市,首里久場川町２丁目１８－８ライオンズ首里マスタープレイス５０５,,47,201,9030807,,,,,,,2022-02-22,1,,,,,ハルトハレ,0
502,2360003011816,新規,0,2022-02-22,2022-02-22,合同会社ＴＫオフィス,,合同会社,沖縄県,うるま市,字江洲５１８大城アパートＡ－２号室,,47,213,9042244,,,,,,,2022-02-22,1,,,,,,0
503,2360003011824,新規,0,2022-02-22,2022-02-22,合同会社芳樹,,合同会社,沖縄県,浦添市,前田３丁目４番４５号１Ｆ,,47,208,9012102,,,,,,,2022-02-22,1,,,,,ホウジュ,0
505,2370001048223,新規,0,2022-02-22,2022-02-22,菊吉総工業株式会社,,株式会社,宮城県,石巻市,築山３丁目４番４１－４号,,04,202,9860857,,,,,,,2022-02-22,1,,,,,キクヨシソウコウギョウ,0
510,2380005012538,新規,0,2022-02-22,2022-02-22,一般社団法人水素ドローン産業化推進協議会,,その他の設立登記法人,福島県,双葉郡浪江町,大字幾世橋字芋頭２６－３,,07,547,9791513,,,,,,,2022-02-22,1,,,,,スイソドローンサンギョウカスイシンキョウギカイ,0
518,2460003000882,新規,0,2022-02-22,2022-02-22,合同会社ＳｅｒｉｏｕＳ,,合同会社,北海道,釧路市,星が浦北２丁目３番７０号,,01,206,0840911,,,,,,,2022-02-22,1,,,,,シリアス,0
519,2460101007144,新規,0,2022-02-22,2022-02-22,ＢОＳＣО株式会社,,株式会社,北海道,帯広市,西七条北３丁目１１番地２,,01,207,0800037,,,,,,,2022-02-22,1,,,,,ボスコ,0
521,2460103001426,新規,0,2022-02-22,2022-02-22,合同会社Ａｉｒｉｓ,,合同会社,北海道,帯広市,西三条南２６丁目９－１－１Ａ,,01,207,0800013,,,,,,,2022-02-22,1,,,,,アイリス,0
526,2470003002135,新規,0,2022-02-22,2022-02-22,合同会社Ｓｔｒａｎｇｅｌｅｔ,,合同会社,香川県,高松市,太田下町１９６２番地１６,,37,201,7618073,,,,,,,2022-02-22,1,,,,,ストレンジレット,0
527,2490005006826,新規,0,2022-02-22,2022-02-22,一般社団法人しまんとのわ,,その他の設立登記法人,高知県,高岡郡四万十町,大正中津川７０５番地３,,39,412,7860316,,,,,,,2022-02-22,1,,,,,シマントノワ,0
529,2700150107159,新規,0,2022-02-22,2022-02-22,ＡＬＥＥＦ　ＬＡＮＫＡ,,外国会社等,千葉県,八街市,東吉田３５８－４オフィス１,,12,230,2891114,スリランカ民主社会主義共和国、コロンボー１０、ティー・ビィー、ジャヤマワサ、Ｎｏ．２１１,,,,,,2022-02-22,1,,,,,アリーフランカ,0
535,3010001224692,新規,0,2022-02-22,2022-02-22,株式会社三銀河,,株式会社,東京都,中央区,銀座３丁目４番１号大倉別館５階,,13,102,1040061,,,,,,,2022-02-22,1,,,,,サンギンワ,0
539,3010101015075,新規,0,2022-02-22,2022-02-22,株式会社ノアセンス,,株式会社,東京都,八王子市,泉町１３６８番地,,13,201,1930814,,,,,,,2022-02-22,1,,,,,,0
549,3010401165594,新規,0,2022-02-22,2022-02-22,株式会社Ｔｉｅｒ,,株式会社,東京都,港区,芝３丁目４０番３号,,13,103,1050014,,,,,,,2022-02-22,1,,,,,ティア,0
550,3010401165636,新規,0,2022-02-22,2022-02-22,薜記食業株式会社,,株式会社,東京都,港区,芝浦２丁目１番１０号,,13,103,1080023,,,,,,,2022-02-22,1,,,,,セッキショクギョウ,0
551,3010401165644,新規,0,2022-02-22,2022-02-22,株式会社Ｎｅａｕｔｅｃｈ,,株式会社,東京都,港区,南青山２丁目２番１５号,,13,103,1070062,,,,,,,2022-02-22,1,,,,,ニューテック,0
552,3010401165685,新規,0,2022-02-22,2022-02-22,株式会社スタックアクト,,株式会社,東京都,港区,浜松町２丁目２番１５号浜松町ダイヤビル２Ｆ,,13,103,1050013,,,,,,,2022-02-22,1,,,,,スタックアクト,0
553,3010401165693,新規,0,2022-02-22,2022-02-22,株式会社アプリーム,,株式会社,東京都,港区,麻布十番２丁目５番地９ライオンズマンション麻布十番６０１号室,,13,103,1060045,,,,,,,2022-02-22,1,,,,,アプリーム,0
554,3010401165702,新規,0,2022-02-22,2022-02-22,株式会社Ｎｏ．５,,株式会社,東京都,港区,浜松町１丁目１３番２号,,13,103,1050013,,,,,,,2022-02-22,1,,,,,ナンバーファイブ,0
555,3010401165710,新規,0,2022-02-22,2022-02-22,ＲＡＮＫＳＳ株式会社,,株式会社,東京都,港区,新橋２丁目２０番１５号新橋駅前ビル１号館４階４０２号室Ｂ,,13,103,1050004,,,,,,,2022-02-22,1,,,,,ランクス,0
557,3010403027116,新規,0,2022-02-22,2022-02-22,ペンタクロス合同会社,,合同会社,東京都,港区,南麻布１丁目９番１６号,,13,103,1060047,,,,,,,2022-02-22,1,,,,,ペンタクロス,0
558,3010403027124,新規,0,2022-02-22,2022-02-22,合同会社ＡＴＶＩＳ　ＳＴＵＤＩＯ,,合同会社,東京都,港区,東麻布１丁目３番８号ＴＯＷＥＲＦＲＯＮＴ神谷町３Ｆ,,13,103,1060044,,,,,,,2022-02-22,1,,,,,アトビズスタジオ,0
560,3010503006507,新規,0,2022-02-22,2022-02-22,システム開発合同会社,,合同会社,東京都,台東区,西浅草３丁目６番９－３０１号,,13,106,1110035,,,,,,,2022-02-22,1,,,,,システムカイハツ,0
561,3010601060694,新規,0,2022-02-22,2022-02-22,株式会社涵瑞斯,,株式会社,東京都,墨田区,文花１丁目３４番１１－２０３号,,13,107,1310044,,,,,,,2022-02-22,1,,,,,カンズイシ,0
562,3010601060703,新規,0,2022-02-22,2022-02-22,株式会社アズーロ,,株式会社,東京都,墨田区,横網２丁目１４番１３号,,13,107,1300015,,,,,,,2022-02-22,1,,,,,アズーロ,0
563,3010601060728,新規,0,2022-02-22,2022-02-22,株式会社ＬａｕｇｈＬａｓｔ,,株式会社,東京都,江東区,豊洲３丁目５番３号豊洲レジデンスＤ３４０,,13,108,1350061,,,,,,,2022-02-22,1,,,,,ラフラスト,0
567,3010701042262,新規,0,2022-02-22,2022-02-22,株式会社ＶｉａＡｇｅ,,株式会社,東京都,品川区,西五反田２丁目１４番１１－６０２号,,13,109,1410031,,,,,,,2022-02-22,1,,,,,ヴィアエイジ,0
573,3010901050387,新規,0,2022-02-22,2022-02-22,株式会社八童心,,株式会社,東京都,世田谷区,上野毛３丁目２番１６号,,13,112,1580093,,,,,,,2022-02-22,1,,,,,ハチドウシン,0
574,3011001025494,新規,0,2022-02-22,2022-02-22,株式会社ロータリービジョン,,株式会社,東京都,渋谷区,道玄坂１丁目１５番３号,,13,113,1500043,,,,,,,2022-02-22,1,,,,,ロータリービジョン,0
581,3011001145813,新規,0,2022-02-22,2022-02-22,株式会社７ｔｈＣｏｄｅ,,株式会社,東京都,渋谷区,渋谷４丁目５番６号トキワビル５０３,,13,113,1500002,,,,,,,2022-02-22,1,,,,,セブンスコード,0
582,3011001145846,新規,0,2022-02-22,2022-02-22,株式会社渋谷の達人,,株式会社,東京都,渋谷区,神宮前５丁目４７番８号,,13,113,1500001,,,,,,,2022-02-22,1,,,,,シブヤノタツジン,0
584,3011003014223,新規,0,2022-02-22,2022-02-22,ライムライト合同会社,,合同会社,東京都,渋谷区,道玄坂１丁目１０番８号渋谷道玄坂東急ビル２Ｆ－Ｃ,,13,113,1500043,,,,,,,2022-02-22,1,,,,,ライムライト,0
588,3011101097855,新規,0,2022-02-22,2022-02-22,ＴＡＩＬＥＤ　ＦＡＭＩＬＹ株式会社,,株式会社,東京都,新宿区,西新宿３丁目３番１３号西新宿水間ビル６階,,13,104,1600023,,,,,,,2022-02-22,1,,,,,テイルドファミリー,0
592,3011203003752,新規,0,2022-02-22,2022-02-22,グリーン・プロモーション合同会社,,合同会社,東京都,中野区,大和町４丁目１１番１４号,,13,114,1650034,,,,,,,2022-02-22,1,,,,,グリーンプロモーション,0
593,3011301027570,新規,0,2022-02-22,2022-02-22,ハイローズエステート株式会社,,株式会社,東京都,杉並区,宮前３丁目６番２７号,,13,115,1680081,,,,,,,2022-02-22,1,,,,,ハイローズエステート,0
595,3011603003534,新規,0,2022-02-22,2022-02-22,ＳＰＩＣＹ　ＬＩＦＥ　ＣＡＲＥ合同会社,,合同会社,東京都,練馬区,北町３丁目７番１６－１０６号,,13,120,1790081,,,,,,,2022-02-22,1,,,,,スパイシーライフケア,0
599,3011701025050,新規,0,2022-02-22,2022-02-22,株式会社染谷工業,,株式会社,東京都,江戸川区,松江４丁目２０－１,,13,123,1320025,,,,,,,2022-02-22,1,,,,,ソメヤコウギョウ,0
607,3013301048695,新規,0,2022-02-22,2022-02-22,株式会社ＢＬＵＥ　ＴＡＢＬＥ,,株式会社,東京都,豊島区,西池袋３丁目２２番１０号大晃第７ビル１階,,13,116,1710021,,,,,,,2022-02-22,1,,,,,ブルーテーブル,0
608,3013301048704,新規,0,2022-02-22,2022-02-22,株式会社博多建設,,株式会社,東京都,豊島区,巣鴨２丁目１５番１号,,13,116,1700002,,,,,,,2022-02-22,1,,,,,ハカタケンセツ,0
615,3020001145302,新規,0,2022-02-22,2022-02-22,株式会社ＮＴプラス,,株式会社,神奈川県,川崎市川崎区,榎町１番１８－２０３号セントラルハイツ,,14,131,2100002,,,,,,,2022-02-22,1,,,,,エヌティプラス,0
616,3020001145327,新規,0,2022-02-22,2022-02-22,株式会社グーストレーディング,,株式会社,神奈川県,川崎市宮前区,鷺沼１丁目１１番地１ＤＩＫマンション２１６,,14,136,2160004,,,,,,,2022-02-22,1,,,,,グーストレーディング,0
621,3021001075233,新規,0,2022-02-22,2022-02-22,株式会社ＯｎｅＤｏｏｒＰｌｕｓ,,株式会社,神奈川県,相模原市南区,若松３丁目３２番２５－３０２号,,14,153,2520334,,,,,,,2022-02-22,1,,,,,ワンドアプラス,0
622,3021001075241,新規,0,2022-02-22,2022-02-22,株式会社ファースト,,株式会社,神奈川県,藤沢市,羽鳥５丁目８番２７～３０３号,,14,205,2510056,,,,,,,2022-02-22,1,,,,,ファースト,0
625,3021003011343,新規,0,2022-02-22,2022-02-22,イデオグラム合同会社,,合同会社,神奈川県,鎌倉市,大町６丁目６番１４号２２号室,,14,204,2480007,,,,,,,2022-02-22,1,,,,,イデオグラム,0
629,3030001146860,新規,0,2022-02-22,2022-02-22,株式会社ＴＲＤ,,株式会社,埼玉県,戸田市,新曽南３丁目６番１－１０１６号,,11,224,3350026,,,,,,,2022-02-22,1,,,,,ティーアールディー,0
630,3030001146902,新規,0,2022-02-22,2022-02-22,株式会社レスゴ,,株式会社,埼玉県,さいたま市桜区,大字白鍬６０９－１,,11,106,3380811,,,,,,,2022-02-22,1,,,,,レスゴ,0
631,3030001146919,新規,0,2022-02-22,2022-02-22,光ＴＲＡＤＩＮＧ株式会社,,株式会社,埼玉県,久喜市,菖蒲町三箇８３６番地Ｃ－１,,11,232,3460104,,,,,,,2022-02-22,1,,,,,ヒカリトレーディング,0
639,3050001050631,新規,0,2022-02-22,2022-02-22,株式会社キタイバプランニング,,株式会社,茨城県,北茨城市,華川町下小津田５０１番地,,08,215,3191533,,,,,,,2022-02-22,1,,,,,キタイバプランニング,0
640,3050001050648,新規,0,2022-02-22,2022-02-22,株式会社ウィステリア,,株式会社,茨城県,つくば市,赤塚６９５番地３,,08,220,3050062,,,,,,,2022-02-22,1,,,,,ウィステリア,0
641,3050001050656,新規,0,2022-02-22,2022-02-22,株式会社フルーツの郷栄果,,株式会社,茨城県,行方市,芹沢９２８番地９,,08,233,3113501,,,,,,,2022-02-22,1,,,,,フルーツノサトエイカ,0
642,3050003006383,新規,0,2022-02-22,2022-02-22,ラハマンインターナショナル合同会社,,合同会社,茨城県,坂東市,みどり町４番３３号,,08,228,3060637,,,,,,,2022-02-22,1,,,,,ラハマンインターナショナル,0
644,3060005009953,新規,0,2022-02-22,2022-02-22,一般社団法人ハーモニーワークス,,その他の設立登記法人,栃木県,真岡市,田町１番地２０,,09,209,3214325,,,,,,,2022-02-22,1,,,,,ハーモニーワークス,0
645,3070001038955,新規,0,2022-02-22,2022-02-22,株式会社大和興業,,株式会社,群馬県,高崎市,芝塚町１８７９番地８サンライトビル芝塚１３,,10,202,3700064,,,,,,,2022-02-22,1,,,,,ダイワコウギョウ,0
647,3070003004393,新規,0,2022-02-22,2022-02-22,合同会社Ｅｖｅｒｍｅｄ　Ｔｒａｄｉｎｇ,,合同会社,群馬県,伊勢崎市,昭和町１６３６番地１,,10,204,3720014,,,,,,,2022-02-22,1,,,,,エヴァーメッドトレーディング,0
648,3090005007467,新規,0,2022-02-22,2022-02-22,一般社団法人ＥａｒｔｈＧｕａｒｄｉａｎ,,その他の設立登記法人,山梨県,南巨摩郡身延町,中山１８８８,,19,365,4093432,,,,,,,2022-02-22,1,,,,,アースガーディアン,0
652,3110001036450,新規,0,2022-02-22,2022-02-22,株式会社モッズエンジニアリング,,株式会社,新潟県,新潟市北区,笹山１５２６番地１,,15,101,9503301,,,,,,,2022-02-22,1,,,,,モッズエンジニアリング,0
655,3110003004703,新規,0,2022-02-22,2022-02-22,遠東実業合同会社,,合同会社,新潟県,三条市,代官島１５８１番地,,15,204,9550095,,,,,,,2022-02-22,1,,,,,エントウジツギョウ,0
664,3120001243731,新規,0,2022-02-22,2022-02-22,株式会社ＴＥＮ,,株式会社,大阪府,大阪市中央区,南本町２丁目４－１６本町デビスビル７階,,27,128,5410054,,,,,,,2022-02-22,1,,,,,テン,0
665,3120001243921,新規,0,2022-02-22,2022-02-22,フジタＪＥＴ株式会社,,株式会社,大阪府,大阪市住吉区,墨江１丁目３番１１号,,27,120,5580043,,,,,,,2022-02-22,1,,,,,フジタジェット,0
666,3120001243938,新規,0,2022-02-22,2022-02-22,ＧＤＩ管理株式会社,,株式会社,大阪府,大阪市阿倍野区,阪南町５丁目１２番２０号,,27,119,5450021,,,,,,,2022-02-22,1,,,,,ジーディーアイカンリ,0
667,3120001243954,新規,0,2022-02-22,2022-02-22,株式会社Ｍａｔｃｈｃｕｔ,,株式会社,大阪府,大阪市西区,江戸堀１丁目６番１３号肥後橋堀田ビル４０３,,27,106,5500002,,,,,,,2022-02-22,1,,,,,マッチカット,0
668,3120001243979,新規,0,2022-02-22,2022-02-22,株式会社ｉ・ＲＥＰＡＩＮＴ,,株式会社,大阪府,大阪市生野区,新今里３丁目２０番２５号,,27,116,5440001,,,,,,,2022-02-22,1,,,,,アイリペイント,0
669,3120001244003,新規,0,2022-02-22,2022-02-22,株式会社マクタバ,,株式会社,大阪府,大阪市北区,梅田１丁目１－３大阪駅前第三ビル２９階１－１－１号室,,27,127,5300001,,,,,,,2022-02-22,1,,,,,マクタバ,0
674,3120901045632,新規,0,2022-02-22,2022-02-22,ＤＩＧＩＦＩＴ株式会社,,株式会社,大阪府,茨木市,上中条１丁目６番２９号,,27,211,5670881,,,,,,,2022-02-22,1,,,,,デジフィット,0
677,3122001035588,新規,0,2022-02-22,2022-02-22,ａｎｏｊａｐａｎ株式会社,,株式会社,大阪府,大東市,曙町５番３号Ｒｉｎｏｎ住道２０５号,00125768,27,218,5740076,,,,,,,2022-02-22,1,,,,,アーノジャパン,0
678,3122001035596,新規,0,2022-02-22,2022-02-22,ＹＯＵ　ＤＥＮ株式会社,,株式会社,大阪府,東大阪市,古箕輪１丁目４番２３号Ｂ２０２,,27,227,5780915,,,,,,,2022-02-22,1,,,,,ユウデン,0
681,3130001071157,新規,0,2022-02-22,2022-02-22,株式会社ユウホーム,,株式会社,京都府,宇治市,槇島町三十五７番地の６,,26,204,6110041,,,,,,,2022-02-22,1,,,,,ユウホーム,0
682,3130001071165,新規,0,2022-02-22,2022-02-22,佳澤美術株式会社,,株式会社,京都府,京都市南区,上鳥羽南唐戸町７番地Ｋビル５０４号室,,26,107,6018107,,,,,,,2022-02-22,1,,,,,ヨシザワビジュツ,0
683,3130001071173,新規,0,2022-02-22,2022-02-22,株式会社Ａ．Ｓ．Ａ．Ｐ　ＷＯＲＫＳ,,株式会社,京都府,京都市中京区,河原町通三条上る下丸屋町４０６番地グリントランドビル４階,,26,104,6048006,,,,,,,2022-02-22,1,,,,,エーエスエーピーワークス,0
684,3130001071181,新規,0,2022-02-22,2022-02-22,株式会社佳林,,株式会社,京都府,京都市下京区,七条御所ノ内本町６９番地シティオ西大路１０１号室,,26,106,6008863,,,,,,,2022-02-22,1,,,,,カリン,0
691,3140001124954,新規,0,2022-02-22,2022-02-22,株式会社えん,,株式会社,兵庫県,加古川市,東神吉町神吉９３８番地の５,,28,210,6750057,,,,,,,2022-02-22,1,,,,,エン,0
695,3140003017371,新規,0,2022-02-22,2022-02-22,合同会社三宮企画,,合同会社,兵庫県,神戸市垂水区,神和台１丁目３番地１４,,28,108,6550851,,,,,,,2022-02-22,1,,,,,サンノミヤキカク,0
696,3150001025350,新規,0,2022-02-22,2022-02-22,株式会社Ｆ＆Ｒマネジメント,,株式会社,奈良県,香芝市,旭ケ丘２丁目２１番地４,,29,210,6390266,,,,,,,2022-02-22,1,,,,,エフアンドアールマネジメント,0
699,3160001024005,新規,0,2022-02-22,2022-02-22,株式会社仲商,,株式会社,滋賀県,彦根市,川瀬馬場町１０９７番地１４,,25,202,5220223,,,,,,,2022-02-22,1,,,,,ナカショウ,0
706,3180001150014,新規,0,2022-02-22,2022-02-22,株式会社ＳＩＧＩ,,株式会社,愛知県,名古屋市中区,千代田４丁目２２番３号プロビデンス栄南６０３号,,23,106,4600012,,,,,,,2022-02-22,1,,,,,シギ,0
707,3180001150022,新規,0,2022-02-22,2022-02-22,株式会社ＣＬＥＯ　ＪＡＰＡＮ,,株式会社,愛知県,名古屋市天白区,天白町大字平針字黒石２８７８番地の３４９４,,23,116,4680021,,,,,,,2022-02-22,1,,,,,クレオジャパン,0
708,3180001150063,新規,0,2022-02-22,2022-02-22,ＨＢＰ株式会社,,株式会社,愛知県,名古屋市南区,元柴田東町３丁目２７番地３,,23,112,4570816,,,,,,,2022-02-22,1,,,,,エイチビーピー,0
715,3180003023515,新規,0,2022-02-22,2022-02-22,合資会社ケイズプロパティ,,合資会社,愛知県,名古屋市南区,岩戸町１８番２３号,,23,112,4570015,,,,,,,2022-02-22,1,,,,,ケイズプロパティ,0
716,3180003023523,新規,0,2022-02-22,2022-02-22,合同会社幸狛,,合同会社,愛知県,海部郡蟹江町,城１丁目１３９番地,,23,425,4970040,,,,,,,2022-02-22,1,,,,,サチコマ,0
721,3190005011673,新規,0,2022-02-22,2022-02-22,一般社団法人ＫｉｄｓＪａｚｚ,,その他の設立登記法人,三重県,津市,安濃町光明寺１７番地１,,24,201,5142315,,,,,,,2022-02-22,1,,,,,キッズジャズ,0
724,3200001039766,新規,0,2022-02-22,2022-02-22,ビジネスパートナー株式会社,,株式会社,岐阜県,関市,下白金４７番地１９,,21,205,5013955,,,,,,,2022-02-22,1,,,,,ビジネスパートナー,0
725,3220001024700,新規,0,2022-02-22,2022-02-22,株式会社ミラリス,,株式会社,石川県,金沢市,小金町８番１６号万石ビル３階,,17,201,9200805,,,,,,,2022-02-22,1,,,,,ミラリス,0
727,3230001019245,新規,0,2022-02-22,2022-02-22,ハナテック株式会社,,株式会社,富山県,富山市,山室荒屋１番地１２３,,16,201,9398022,,,,,,,2022-02-22,1,,,,,ハナテック,0
732,3240003005515,新規,0,2022-02-22,2022-02-22,合同会社マル,,合同会社,広島県,廿日市市,津田３３５６番地２,,34,213,7380222,,,,,,,2022-02-22,1,,,,,マル,0
736,3250001019417,新規,0,2022-02-22,2022-02-22,株式会社ｅ‐ｃｏｍｐａｎｙ,,株式会社,山口県,防府市,中泉町４番１９号,,35,206,7470055,,,,,,,2022-02-22,1,,,,,イーカンパニー,0
738,3260001036535,新規,0,2022-02-22,2022-02-22,株式会社広和創建,,株式会社,岡山県,倉敷市,亀島１丁目２２番３４号,,33,202,7128013,,,,,,,2022-02-22,1,,,,,コウワソウケン,0
742,3280003001584,新規,0,2022-02-22,2022-02-22,ファーム長藤合同会社,,合同会社,島根県,邑智郡美郷町,長藤１８２番地１,,32,448,6960706,,,,,,,2022-02-22,1,,,,,ファームナガトウ,0
752,3290003012168,新規,0,2022-02-22,2022-02-22,楢林建設合同会社,00125760,合同会社,福岡県,久留米市,荒木町今１４４番地１,,40,203,8300065,,,,,,,2022-02-22,1,,,,,ナラバヤシケンセツ,0
756,3310001017728,新規,0,2022-02-22,2022-02-22,株式会社アーバン設計,,株式会社,長崎県,諫早市,立石町１０１３番地,,42,204,8540043,,,,,,,2022-02-22,1,,,,,アーバンセッケイ,0
758,3350001017591,新規,0,2022-02-22,2022-02-22,株式会社ミライズ,,株式会社,宮崎県,都城市,栄町４７５２番地１,,45,202,8850023,,,,,,,2022-02-22,1,,,,,ミライズ,0
760,3360001030024,新規,0,2022-02-22,2022-02-22,株式会社ＢＲＡＶＥ,,株式会社,沖縄県,那覇市,銘苅１丁目７－３０サニーグランデ１０７,,47,201,9000004,,,,,,,2022-02-22,1,,,,,ブレイブ,0
761,3360001030032,新規,0,2022-02-22,2022-02-22,株式会社具志堅建装,,株式会社,沖縄県,島尻郡南風原町,字与那覇４７２番地１丸城アパート２０２,,47,350,9011103,,,,,,,2022-02-22,1,,,,,グシケンケンソウ,0
762,3360003011823,新規,0,2022-02-22,2022-02-22,合同会社天久産業,,合同会社,沖縄県,宜野湾市,大謝名５丁目３番１４号,,47,205,9012225,,,,,,,2022-02-22,1,,,,,アメクサンギョウ,0
768,3380001032588,新規,0,2022-02-22,2022-02-22,株式会社ファーストガレージ・ＹＯＳＨＩＤＡ,,株式会社,福島県,郡山市,大槻町字肩張５番地の３,,07,203,9630201,,,,,,,2022-02-22,1,,,,,ファーストガレージヨシダ,0
783,3430001086042,新規,0,2022-02-22,2022-02-22,きらテック株式会社,,株式会社,北海道,札幌市東区,北十五条東４丁目１番５５－６０３号,,01,103,0650015,,,,,,,2022-02-22,1,,,,,キラテック,0
785,3460301005046,新規,0,2022-02-22,2022-02-22,株式会社レゴフラ,,株式会社,北海道,北見市,端野町二区３４１番地１０,,01,208,0992102,,,,,,,2022-02-22,1,,,,,レゴフラ,0
787,3470003002134,新規,0,2022-02-22,2022-02-22,合同会社Ｌｉｂｅｒｔａ,,合同会社,香川県,坂出市,川津町５１０番地４,,37,203,7620025,,,,,,,2022-02-22,1,,,,,リベルタ,0
788,3500005008464,新規,0,2022-02-22,2022-02-22,一般社団法人いけばな未生流・東京青見会,,その他の設立登記法人,愛媛県,大洲市,若宮２８６番地５,,38,207,7950052,,,,,,,2022-02-22,1,,,,,イケバナミショウリュウトウキョウセイケンカイ,0
798,4010001224733,新規,0,2022-02-22,2022-02-22,株式会社オールズ,,株式会社,東京都,千代田区,九段南１丁目５番６号りそな九段ビル５ＦＫＳフロア,,13,101,1020074,,,,,,,2022-02-22,1,,,,,オールズ,0
800,4010003037027,新規,0,2022-02-22,2022-02-22,ＡＳ　Ｒｅｓｉｄｅｎｃｅ合同会社,,合同会社,東京都,千代田区,内神田２丁目２番６号５階あすな会計事務所内,,13,101,1010047,,,,,,,2022-02-22,1,,,,,エーエスレジデンス,0
805,4010401165701,新規,0,2022-02-22,2022-02-22,株式会社道ノ学舎,,株式会社,東京都,港区,三田５丁目２番２７号６１５,,13,103,1080073,,,,,,,2022-02-22,1,,,,,ミチノガクシャ,0
806,4010401165734,新規,0,2022-02-22,2022-02-22,株式会社シナガス・カンパニー,,株式会社,東京都,港区,元赤坂１丁目１番１６号,,13,103,1070051,,,,,,,2022-02-22,1,,,,,シナガスカンパニー,0
810,4010405020704,新規,0,2022-02-22,2022-02-22,一般社団法人日本歯科補綴協会,,その他の設立登記法人,東京都,港区,六本木６丁目１７番１号蟻川ビル２階,,13,103,1060032,,,,,,,2022-02-22,1,,,,,ニホンシカホテツキョウカイ,0
811,4010405020720,新規,0,2022-02-22,2022-02-22,マイアミホールディング２一般社団法人,,その他の設立登記法人,東京都,港区,虎ノ門３丁目２２番１０－２０１号,,13,103,1050001,,,,,,,2022-02-22,1,,,,,マイアミホールディングツー,0
813,4010601060702,新規,0,2022-02-22,2022-02-22,株式会社ＡＬｕｐｉｎｕｓ,,株式会社,東京都,墨田区,東向島３丁目３８番４－５０２号,,13,107,1310032,,,,,,,2022-02-22,1,,,,,アルピナス,0
814,4010601060710,新規,0,2022-02-22,2022-02-22,株式会社ＴＫＳ,,株式会社,東京都,墨田区,両国２丁目４番１０号,,13,107,1300026,,,,,,,2022-02-22,1,,,,,ティーケーエス,0
818,4010901050386,新規,0,2022-02-22,2022-02-22,株式会社ＳｐａｒｋＬａｂ,,株式会社,東京都,世田谷区,瀬田１丁目２３－７１０１,,13,112,1580095,,,,,,,2022-02-22,1,,,,,スパークラボ,0
819,4010901050394,新規,0,2022-02-22,2022-02-22,株式会社源三,,株式会社,東京都,世田谷区,赤堤４丁目３７番８号丸茂ビルＢ１Ｆ,,13,112,1560044,,,,,,,2022-02-22,1,,,,,ゲンサン,0
820,4010901050403,新規,0,2022-02-22,2022-02-22,株式会社ディレクターズファクトリー,,株式会社,東京都,世田谷区,祖師谷１丁目１１番８号２０５,,13,112,1570072,,,,,,,2022-02-22,1,,,,,ディレクターズファクトリー,0
827,4011003014206,新規,0,2022-02-22,2022-02-22,合同会社ＬｏｕｎＧｅ,,合同会社,東京都,渋谷区,渋谷２丁目１９－１５宮益坂ビルディング６０９,,13,113,1500002,,,,,,,2022-02-22,1,,,,,ラウンジ,0
830,4011101097879,新規,0,2022-02-22,2022-02-22,ＩＣＨＩＫＡＷＡ株式会社,,株式会社,東京都,新宿区,西新宿３丁目２番９号新宿ワシントンホテルビル本館２階,,13,104,1600023,,,,,,,2022-02-22,1,,,,,イチカワ,0
831,4011103011490,新規,0,2022-02-22,2022-02-22,Ｍ２合同会社,,合同会社,東京都,新宿区,四谷２丁目９番地１５東京ユナイテッド綜合事務所内,,13,104,1600004,,,,,,,2022-02-22,1,,,,,エムツー,0
834,4011501027766,新規,0,2022-02-22,2022-02-22,維眞株式会社,,株式会社,東京都,荒川区,南千住２丁目７番７号,,13,118,1160003,,,,,,,2022-02-22,1,,,,,イシン,0
835,4011501027774,新規,0,2022-02-22,2022-02-22,ＨＩＫＩＹＯＳＥ株式会社,,株式会社,東京都,荒川区,荒川４丁目３７番１号,,13,118,1160002,,,,,,,2022-02-22,1,,,,,ヒキヨセ,0
837,4011503005076,新規,0,2022-02-22,2022-02-22,合同会社Ｈａｍｏｎ,,合同会社,東京都,北区,東十条１丁目３－２,,13,117,1140001,,,,,,,2022-02-22,1,,,,,ハモン,0
839,4011603003533,新規,0,2022-02-22,2022-02-22,ＥＭＰＨＡＳＡ合同会社,,合同会社,東京都,練馬区,関町北２丁目１番１－４０２号メゾン関,,13,120,1770051,,,,,,,2022-02-22,1,,,,,エムファサ,0
841,4011801040353,新規,0,2022-02-22,2022-02-22,Ｈ．Ｋ．Ｎ株式会社,,株式会社,東京都,葛飾区,東新小岩５丁目２番９号５Ｆ,,13,122,1240023,,,,,,,2022-02-22,1,,,,,エイチケーエヌ,0
842,4012301012891,新規,0,2022-02-22,2022-02-22,にじいろ不動産株式会社,,株式会社,東京都,町田市,成瀬が丘２丁目１番地１きめたハウジング第３ビル３Ｆ－Ｄ,,13,209,1940011,,,,,,,2022-02-22,1,,,,,ニジイロフドウサン,0
849,4013301048703,新規,0,2022-02-22,2022-02-22,エコプロダクツジャパン株式会社,,株式会社,東京都,豊島区,南大塚２丁目３９番７号,,13,116,1700005,,,,,,,2022-02-22,1,,,,,エコプロダクツジャパン,0
858,4020003021335,新規,0,2022-02-22,2022-02-22,ＭＮＫライフウェル合同会社,,合同会社,神奈川県,川崎市麻生区,王禅寺西３丁目２９番地１８号,,14,137,2150017,,,,,,,2022-02-22,1,,,,,エムエヌケーライフウェル,0
861,4021001075199,新規,0,2022-02-22,2022-02-22,株式会社エクサバイト,,株式会社,神奈川県,相模原市緑区,東橋本１丁目８番１号ドミ中屋１０１,,14,151,2520144,,,,,,,2022-02-22,1,,,,,エクサバイト,0
862,4021001075216,新規,0,2022-02-22,2022-02-22,株式会社クオーレプラス,,株式会社,神奈川県,藤沢市,藤沢９７６番地２秀明ビル２Ｆ,,14,205,2510052,,,,,,,2022-02-22,1,,,,,クオーレプラス,0
863,4021001075224,新規,0,2022-02-22,2022-02-22,株式会社トライアングルクリエイティブサービス,,株式会社,神奈川県,横須賀市,小川町２７番地１６,,14,201,2380004,,,,,,,2022-02-22,1,,,,,トライアングルクリエイティブサービス,0
867,4021003011417,新規,0,2022-02-22,2022-02-22,合同会社オフィス・ケー,,合同会社,神奈川県,平塚市,徳延６１４番地の１－４０１,,14,203,2540902,,,,,,,2022-02-22,1,,,,,オフィスケー,0
872,4030001146901,新規,0,2022-02-22,2022-02-22,ＯＮＥ　ＦＡＩＴＨ株式会社,,株式会社,埼玉県,新座市,畑中１丁目８番３０－３０４号,,11,230,3520012,,,,,,,2022-02-22,1,,,,,ワンフェイス,0
875,4030003018859,新規,0,2022-02-22,2022-02-22,合同会社一輝,,合同会社,埼玉県,さいたま市南区,文蔵３丁目３１番３―４０７,,11,108,3360025,,,,,,,2022-02-22,1,,,,,イッキ,0
876,4030003018875,新規,0,2022-02-22,2022-02-22,合同会社Ｍｉｄｏｒｉ,,合同会社,埼玉県,北葛飾郡松伏町,大字松伏３９０番地１,,11,465,3430111,,,,,,,2022-02-22,1,,,,,ミドリ,0
885,4040003019542,新規,0,2022-02-22,2022-02-22,合同会社ホタル荘ファーマートシエ,,合同会社,千葉県,八千代市,吉橋２１４１番地,,12,221,2760047,,,,,,,2022-02-22,1,,,,,ホタルソウファーマートシエ,0
892,4050001050655,新規,0,2022-02-22,2022-02-22,株式会社ＨＩＫＡＲＩｓｔａ,,株式会社,茨城県,鹿嶋市,大字青塚９２５番地２７,,08,222,3112211,,,,,,,2022-02-22,1,,,,,ヒカリスタ,0
894,4050003006390,新規,0,2022-02-22,2022-02-22,龍騰商事合同会社,,合同会社,茨城県,常陸太田市,落合町１０５２番地,,08,212,3130036,,,,,,,2022-02-22,1,,,,,リュウトウショウジ,0
900,4060005009952,新規,0,2022-02-22,2022-02-22,小山市造園建設業協同組合,,その他の設立登記法人,栃木県,小山市,大字間々田１０２１番地,,09,208,3290205,,,,,,,2022-02-22,1,,,,,オヤマシゾウエンケンセツギョウ,0
902,4070001038954,新規,0,2022-02-22,2022-02-22,株式会社ニアック,,株式会社,群馬県,伊勢崎市,上諏訪町１２５１番地３プリマヴェーラＢ１０２,,10,204,3720021,,,,,,,2022-02-22,1,,,,,ニアック,0
904,4080101023112,新規,0,2022-02-22,2022-02-22,ステルス株式会社,,株式会社,静岡県,沼津市,双葉町９番１２－２号,,22,203,4100005,,,,,,,2022-02-22,1,,,,,ステルス,0
906,4080105006220,新規,0,2022-02-22,2022-02-22,一般社団法人Ｋｉ・Ｚｕ・Ｎａ,,その他の設立登記法人,静岡県,裾野市,岩波１０５番地の１アークハイツ１０２,,22,220,4101101,,,,,,,2022-02-22,1,,,,,キズナ,0
908,4090001017428,新規,0,2022-02-22,2022-02-22,株式会社Ｈａｎａ,,株式会社,山梨県,富士吉田市,松山２丁目２番１０号,,19,202,4030016,,,,,,,2022-02-22,1,,,,,,0
921,4120001243929,新規,0,2022-02-22,2022-02-22,株式会社ＭＵＳＵＢＩ,,株式会社,大阪府,大阪市東住吉区,今川６丁目４番１０号,,27,121,5460003,,,,,,,2022-02-22,1,,,,,ムスビ,0
922,4120001243937,新規,0,2022-02-22,2022-02-22,プロパティデザイン株式会社,,株式会社,大阪府,大阪市中央区,南船場４丁目１１番１９－２０１号,,27,128,5420081,,,,,,,2022-02-22,1,,,,,プロパティデザイン,0
923,4120001243953,新規,0,2022-02-22,2022-02-22,ユウキ株式会社,,株式会社,大阪府,大阪市大正区,泉尾６丁目６番５号,,27,108,5510031,,,,,,,2022-02-22,1,,,,,ユウキ,0
924,4120001243978,新規,0,2022-02-22,2022-02-22,株式会社ＺＯＲＯＭＥ,,株式会社,大阪府,大阪市浪速区,戎本町１丁目４－１８えびす大黒ビル８Ａ号,,27,111,5560013,,,,,,,2022-02-22,1,,,,,ゾロメ,0
926,4120003021176,新規,0,2022-02-22,2022-02-22,合同会社ＯＦＦＩＣＥ　ＨＩＴＯＭＩ,,合同会社,大阪府,大阪市都島区,中野町５丁目１４番２－２０８号,,27,102,5340027,,,,,,,2022-02-22,1,,,,,オフィスヒトミ,0
927,4120003021184,新規,0,2022-02-22,2022-02-22,Ｌ’ｅｎｆａｎｔ　ｂｌｅｕ合同会社,,合同会社,大阪府,大阪市中央区,伏見町３丁目１番１－３１０１号,,27,128,5410044,,,,,,,2022-02-22,1,,,,,ランファンブルー,0
932,4120103004584,新規,0,2022-02-22,2022-02-22,合同会社ヒラメキ,,合同会社,大阪府,泉佐野市,泉ケ丘２丁目８番２０号,,27,213,5980072,,,,,,,2022-02-22,1,,,,,ヒラメキ,0
938,4122005003607,新規,0,2022-02-22,2022-02-22,一般社団法人Ｓｐａｙ　Ｖｅｔｓ　Ｊａｐａｎ,,その他の設立登記法人,大阪府,八尾市,中田４丁目１３６番地の３,,27,212,5810014,,,,,,,2022-02-22,1,,,,,スペイベッツジャパン,0
950,4140001124953,新規,0,2022-02-22,2022-02-22,株式会社ＧＥＳプランニング,,株式会社,兵庫県,尼崎市,武庫之荘西２丁目４５番１号,,28,202,6610034,,,,,,,2022-02-22,1,,,,,ジーエスプランニング,0
951,4140001125010,新規,0,2022-02-22,2022-02-22,株式会社アイスタイル,,株式会社,兵庫県,西宮市,山口町船坂１５６３番地９,,28,204,6511423,,,,,,,2022-02-22,1,,,,,アイスタイル,0
953,4140003017271,新規,0,2022-02-22,2022-02-22,合同会社驚,,合同会社,兵庫県,尼崎市,南武庫之荘７丁目２－１５モリノブハイツ４０７,,28,202,6610033,,,,,,,2022-02-22,1,,,,,オドロキ,0
957,4140005026048,新規,0,2022-02-22,2022-02-22,一般社団法人オフィステラ,,その他の設立登記法人,兵庫県,神戸市灘区,中原通７丁目４－１０,,28,102,6570825,,,,,,,2022-02-22,1,,,,,オフィステラ,0
965,4170003001685,新規,0,2022-02-22,2022-02-22,合同会社小路清忠アーティスツサークル,,合同会社,和歌山県,紀の川市,西井阪１３１－１７,,30,208,6496427,,,,,,,2022-02-22,1,,,,,ショウジセイチュウアーティスツサークル,0
973,4180001150038,新規,0,2022-02-22,2022-02-22,株式会社奏,,株式会社,愛知県,名古屋市熱田区,一番２丁目４４番１０号,,23,109,4560053,,,,,,,2022-02-22,1,,,,,カナデ,0
974,4180001150046,新規,0,2022-02-22,2022-02-22,株式会社Ｇデンキ工事,,株式会社,愛知県,一宮市,千秋町佐野字農中２１番地２,,23,203,4910804,,,,,,,2022-02-22,1,,,,,ジーデンキコウジ,0
975,4180001150095,新規,0,2022-02-22,2022-02-22,株式会社３Ｓ,,株式会社,愛知県,名古屋市中区,丸の内３丁目８番８号山富丸の内ビル２階,,23,106,4600002,,,,,,,2022-02-22,1,,,,,スリーエス,0
977,4180003023514,新規,0,2022-02-22,2022-02-22,新ＣＴＳ合同会社,,合同会社,愛知県,名古屋市名東区,にじが丘１丁目１番地の１,,23,115,4650078,,,,,,,2022-02-22,1,,,,,シンシーティーエス,0
978,4180003023522,新規,0,2022-02-22,2022-02-22,平戸清掃合同会社,,合同会社,愛知県,あま市,木田五反田３８番地９,,23,237,4901222,,,,,,,2022-02-22,1,,,,,ヒラトセイソウ,0
980,4180301035938,新規,0,2022-02-22,2022-02-22,古都吹株式会社,,株式会社,愛知県,豊橋市,若松町字北ケ谷２９‐１,,23,201,4418123,,,,,,,2022-02-22,1,,,,,コトブキ,0
989,4200005013312,新規,0,2022-02-22,2022-02-22,一般社団法人岐阜県卓球協会,,その他の設立登記法人,岐阜県,関市,栄町３丁目８番１０号,,21,205,5013253,,,,,,,2022-02-22,1,,,,,ギフケンタッキュウキョウカイ,0
995,4250001019416,新規,0,2022-02-22,2022-02-22,株式会社ウッドクラフト,,株式会社,山口県,山陽小野田市,大字郡１１９７番地１,,35,216,7570002,,,,,,,2022-02-22,1,,,,,ウッドクラフト,0
997,4250003003013,新規,0,2022-02-22,2022-02-22,合同会社ウェブマーケティング,,合同会社,山口県,宇部市,西宇部南２丁目１２番３３号,,35,202,7590208,,,,,,,2022-02-22,1,,,,,ウェブマーケテイング,0
998,4260001036534,新規,0,2022-02-22,2022-02-22,アーステック株式会社,,株式会社,岡山県,苫田郡鏡野町,古川１０４０番地１,,33,606,7080333,,,,,,,2022-02-22,1,,,,,アーステック,0
1000,4280003001583,新規,0,2022-02-22,2022-02-22,合同会社白峯,,合同会社,島根県,松江市,八雲台２丁目１４番４号,,32,201,6900014,,,,,,,2022-02-22,1,,,,,ハクホウ,0
1003,4290001096484,新規,0,2022-02-22,2022-02-22,株式会社ＡＮＳ設計事務所,,株式会社,福岡県,福岡市中央区,白金２丁目３番８－５０３号,,40,133,8100012,,,,,,,2022-02-22,1,,,,,アンズセッケイジムショ,0
1004,4290001096492,新規,0,2022-02-22,2022-02-22,ＨＳ．Ａｇｅｎｃｙ株式会社,,株式会社,福岡県,福岡市早良区,百道浜４丁目３１番１０－１４０６アトモスももち,,40,137,8140001,,,,,,,2022-02-22,1,,,,,エイチエスエージェンシー,0
1005,4290001096518,新規,0,2022-02-22,2022-02-22,株式会社ａ．ｎ．ｔ．,,株式会社,福岡県,福岡市中央区,荒戸３丁目５番１３号,,40,133,8100062,,,,,,,2022-02-22,1,,,,,アント,0
1008,4290003012175,新規,0,2022-02-22,2022-02-22,合同会社Ｔｈｕｍｂ＆Ｐｕｌｌ　Ｃｏｍｐａｎｙ,,合同会社,福岡県,福岡市中央区,薬院３丁目３番９－２０１号,,40,133,8100022,,,,,,,2022-02-22,1,,,,,サムアンドプルカンパニー,0
1022,4310001017727,新規,0,2022-02-22,2022-02-22,Ａｎ’ｓ　ｆａｃｔｏｒｙ株式会社,,株式会社,長崎県,佐世保市,崎岡町２９１１番地スペースＡ３０１号室,,42,202,8593226,,,,,,,2022-02-22,1,,,,,アンズファクトリー,0
1024,4310003004277,新規,0,2022-02-22,2022-02-22,合同会社ｉｓｈｉｂａｓｈｉ,,合同会社,長崎県,松浦市,御厨町里免８６番地,,42,208,8594752,,,,,,,2022-02-22,1,,,,,イシバシ,0
1027,4320003003716,新規,0,2022-02-22,2022-02-22,合同会社ミドル,,合同会社,大分県,大分市,城南西１丁目２番３１－３１４１号１Ａ３１,,44,201,8700826,,,,,,,2022-02-22,1,,,,,ミドル,0
1029,4340001024514,新規,0,2022-02-22,2022-02-22,株式会社アイランドスタイル,,株式会社,鹿児島県,熊毛郡中種子町,野間５２９８番地３５,,46,501,8913604,,,,,,,2022-02-22,1,,,,,アイランドスタイル,0
1032,4350001017599,新規,0,2022-02-22,2022-02-22,株式会社ＭＡＲＵＧＡＫＵ,,株式会社,宮崎県,延岡市,方財町１１７番地,,45,203,8820853,,,,,,,2022-02-22,1,,,,,マルガク,0
1035,4360005006597,新規,0,2022-02-22,2022-02-22,一般社団法人ＳＵＮ,,その他の設立登記法人,沖縄県,那覇市,金城５丁目１６番地１１,,47,201,9010155,,,,,,,2022-02-22,1,,,,,サン,0
1043,4380003005104,新規,0,2022-02-22,2022-02-22,合同会社赤津総合企画,,合同会社,福島県,いわき市,植田町中央１丁目５―８,,07,204,9748261,,,,,,,2022-02-22,1,,,,,アカツソウゴウキカク,0
1047,4430001086017,新規,0,2022-02-22,2022-02-22,株式会社エスワークス,,株式会社,北海道,札幌市東区,東苗穂十三条４丁目９番６２号,,01,103,0070813,,,,,,,2022-02-22,1,,,,,エスワークス,0
1048,4430001086025,新規,0,2022-02-22,2022-02-22,Ｉｗａｏ株式会社,,株式会社,北海道,虻田郡倶知安町,北四条東４丁目３番地,,01,400,0440004,,,,,,,2022-02-22,1,,,,,イワオ,0
1049,4430001086033,新規,0,2022-02-22,2022-02-22,北海道ウヰスキー株式会社,,株式会社,北海道,夕張郡長沼町,字加賀団体,,01,428,0691316,,,,,,,2022-02-22,1,,,,,ホッカイドウウイスキー,0
1050,4430001086041,新規,0,2022-02-22,2022-02-22,株式会社Ｓ・Ｈ・Ｉファーム,,株式会社,北海道,勇払郡安平町,早来守田６３番地,,01,585,0591504,,,,,,,2022-02-22,1,,,,,エスエイチアイファーム,0
1052,4430003013646,新規,0,2022-02-22,2022-02-22,合同会社ネクストステップ,,合同会社,北海道,札幌市白石区,菊水七条２丁目１－１２－１０３号室,,01,104,0030807,,,,,,,2022-02-22,1,,,,,ネクストステップ,0
1058,4480005006882,新規,0,2022-02-22,2022-02-22,医療法人悠永会,,その他の設立登記法人,徳島県,徳島市,富田橋２丁目４番地,,36,201,7700937,,,,,,,2022-02-22,1,,,,,ユウエイカイ,0
1059,4700150107157,新規,0,2022-02-22,2022-02-22,Ａ　Ｋ　ＮＩＰＰＯＮ　ＬＡＮＫＡ　ＴＲＡＤＥＲＳ,,外国会社等,千葉県,八街市,八街字立合松東は４５－２８,,12,230,2891100,スリランカ民主社会主義共和国、カツガストタ、イニガラロード、Ｎｏ．４７４／１／Ｂ,,,,,,2022-02-22,1,,,,,エーケーニツポンランカトレーダース,0
1060,4700150107165,新規,0,2022-02-22,2022-02-22,南砺市土地改良区,,その他,富山県,南砺市,城端４３１６－１,,16,210,9391861,,,,,,,2022-02-22,1,,,,,ナントシトチカイリヨウク,0
1069,5010001224716,新規,0,2022-02-22,2022-02-22,株式会社ＪＥＩ,,株式会社,東京都,中央区,銀座６丁目６番１号,,13,102,1040061,,,,,,,2022-02-22,1,,,,,ジェーイーアイ,0
1070,5010001224740,新規,0,2022-02-22,2022-02-22,株式会社ふじいろ,,株式会社,東京都,中央区,銀座１丁目２２番１１号２Ｆ,,13,102,1040061,,,,,,,2022-02-22,1,,,,,フジイロ,0
1072,5010003037026,新規,0,2022-02-22,2022-02-22,カノープス合同会社,,合同会社,東京都,千代田区,内神田２丁目２番６号５階あすな会計事務所内,,13,101,1010047,,,,,,,2022-02-22,1,,,,,カノープス,0
1073,5010003037042,新規,0,2022-02-22,2022-02-22,半蔵キャピタル合同会社,,合同会社,東京都,千代田区,一番町１４番地２パークコート一番町４０３号,,13,101,1020082,,,,,,,2022-02-22,1,,,,,ハンゾウキャピタル,0
1074,5010003037050,新規,0,2022-02-22,2022-02-22,合同会社ＫＥＹ　ＶＩＩ,,合同会社,東京都,中央区,日本橋３丁目２番１４号新槇町ビル別館第一１階,,13,102,1030027,,,,,,,2022-02-22,1,,,,,ケイセブン,0
1075,5010005034624,新規,0,2022-02-22,2022-02-22,一般社団法人ライブチャット協会,,その他の設立登記法人,東京都,千代田区,神田松永町１７番アサヒＫビル５階,,13,101,1010023,,,,,,,2022-02-22,1,,,,,ライブチャットキョウカイ,0
1085,5010401165618,新規,0,2022-02-22,2022-02-22,株式会社メリーゴーランド,,株式会社,東京都,港区,港南２丁目１６番４号,,13,103,1080075,,,,,,,2022-02-22,1,,,,,メリーゴーランド,0
1086,5010401165659,新規,0,2022-02-22,2022-02-22,株式会社Ｏｃｔｏｂｅｒ２ｎｄ,,株式会社,東京都,港区,高輪１丁目１９番１１号,,13,103,1080074,,,,,,,2022-02-22,1,,,,,オクトーバーセカンド,0
1087,5010401165667,新規,0,2022-02-22,2022-02-22,株式会社ＯＮＥｌｙ　Ｒｅｃｏｒｄｉｎｇｓ,,株式会社,東京都,港区,赤坂１丁目１番１６号細川ビル２０５,,13,103,1070052,,,,,,,2022-02-22,1,,,,,オンリーレコーディングス,0
1088,5010401165683,新規,0,2022-02-22,2022-02-22,株式会社Ｎｏｓ,,株式会社,東京都,港区,北青山３丁目５番１７Ｒ＆Ｍ４０２号,,13,103,1070061,,,,,,,2022-02-22,1,,,,,ノズ,0
1089,5010401165741,新規,0,2022-02-22,2022-02-22,株式会社トリオ,,株式会社,東京都,港区,西麻布１丁目１５番１６号,,13,103,1060031,,,,,,,2022-02-22,1,,,,,トリオ,0
1092,5010403027023,新規,0,2022-02-22,2022-02-22,合同会社セブンブルーム,,合同会社,東京都,港区,白金５丁目１４番３－２０１号,,13,103,1080072,,,,,,,2022-02-22,1,,,,,セブンブルーム,0
1093,5010403027130,新規,0,2022-02-22,2022-02-22,合同会社Ｅｎｖｉｓｉｏｎ,,合同会社,東京都,港区,南青山２丁目２－１５ＷＩＮ青山５３１,,13,103,1070062,,,,,,,2022-02-22,1,,,,,エンビジョン,0
1094,5010403027139,新規,0,2022-02-22,2022-02-22,リーゼロッテ合同会社,,合同会社,東京都,港区,六本木２丁目３番６－２０４号,,13,103,1060032,,,,,,,2022-02-22,1,,,,,リーゼロッテ,0
1095,5010501048499,新規,0,2022-02-22,2022-02-22,Ｈａｐｐｙ　Ｓｅｅｄｓ　Ｈｏｌｄｉｎｇｓ株式会社,,株式会社,東京都,台東区,西浅草２丁目２５番１－９０３号パークアクシス浅草レジデンス,,13,106,1110035,,,,,,,2022-02-22,1,,,,,ハッピーシーズホールディングス,0
1098,5010601060718,新規,0,2022-02-22,2022-02-22,Ｚ・Ｓ株式会社,,株式会社,東京都,江東区,亀戸６丁目２番２号,,13,108,1360071,,,,,,,2022-02-22,1,,,,,ゼッドエス,0
1100,5010603009399,新規,0,2022-02-22,2022-02-22,合同会社ＦＤ綾瀬,,合同会社,東京都,江東区,毛利１丁目２１番２号,,13,108,1350001,,,,,,,2022-02-22,1,,,,,エフディアヤセ,0
1102,5010701042269,新規,0,2022-02-22,2022-02-22,ｗｉｌｌｅ株式会社,,株式会社,東京都,品川区,西五反田４丁目４－１８,,13,109,1410031,,,,,,,2022-02-22,1,,,,,ヴィーレ,0
1107,5010901050393,新規,0,2022-02-22,2022-02-22,ミ・ライズ株式会社,,株式会社,東京都,世田谷区,若林４丁目３１番９号,,13,112,1540023,,,,,,,2022-02-22,1,,,,,ミライズ,0
1108,5010903007160,新規,0,2022-02-22,2022-02-22,アルチウム合同会社,,合同会社,東京都,世田谷区,成城６丁目２５番２２号,,13,112,1570066,,,,,,,2022-02-22,1,,,,,アルチウム,0
1113,5011001145753,新規,0,2022-02-22,2022-02-22,株式会社ＷＥＢ　ＦＬＥＥＫ,,株式会社,東京都,渋谷区,恵比寿南３丁目１番１号,,13,113,1500022,,,,,,,2022-02-22,1,,,,,ウェブフリーク,0
1119,5011101097886,新規,0,2022-02-22,2022-02-22,株式会社Ｌａｐｉｓ　Ｌｉｖｅ,,株式会社,東京都,新宿区,西早稲田１丁目２２－３,,13,104,1690051,,,,,,,2022-02-22,1,,,,,ラピスライブ,0
1130,5011801040344,新規,0,2022-02-22,2022-02-22,株式会社橘企画建築設計事務所,,株式会社,東京都,足立区,柳原２丁目４４番６号,,13,121,1200022,,,,,,,2022-02-22,1,,,,,タチバナキカクケンチクセッケイジムショ,0
1132,5012401038869,新規,0,2022-02-22,2022-02-22,オオウチトモ企画株式会社,,株式会社,東京都,三鷹市,下連雀３丁目３５番１号６Ｆ,,13,204,1810013,,,,,,,2022-02-22,1,,,,,オオウチトモキカク,0
1140,5013303006047,新規,0,2022-02-22,2022-02-22,合同会社ＯＴＡＮＩＡＣＳ,,合同会社,東京都,豊島区,東池袋１丁目１７番１１号パークハイツ池袋１１０５号,,13,116,1700013,,,,,,,2022-02-22,1,,,,,オタニアックス,0
1148,5020001145250,新規,0,2022-02-22,2022-02-22,思華株式会社,,株式会社,神奈川県,横浜市中区,山下町２１９,,14,104,2310023,,,,,,,2022-02-22,1,,,,,シカ,0
1149,5020001145283,新規,0,2022-02-22,2022-02-22,株式会社ＳＷＡＧ,,株式会社,神奈川県,横浜市旭区,上白根１丁目２９番３２号,,14,112,2410002,,,,,,,2022-02-22,1,,,,,スワッグ,0
1150,5020001145309,新規,0,2022-02-22,2022-02-22,Ｙｏｕ＆ｍｅ　ＪＡＰＡＮ株式会社,,株式会社,神奈川県,横浜市中区,柏葉１０９番地,,14,104,2310866,,,,,,,2022-02-22,1,,,,,ユーアンドミージャパン,0
1151,5020001145317,新規,0,2022-02-22,2022-02-22,３Ｈａｐｐｉｎｅｓｓ株式会社,,株式会社,神奈川県,横浜市鶴見区,仲通２丁目６５番１１,,14,101,2300042,,,,,,,2022-02-22,1,,,,,スリーハピネス,0
1152,5020001145325,新規,0,2022-02-22,2022-02-22,株式会社ＲＳＫ,,株式会社,神奈川県,川崎市中原区,下小田中２丁目３２番９号ＹＯＵ’ＳＦＬＡＴ１０１,,14,133,2110041,,,,,,,2022-02-22,1,,,,,アールエスケー,0
1153,5020001145333,新規,0,2022-02-22,2022-02-22,四ッ葉トランスポート株式会社,,株式会社,神奈川県,横浜市戸塚区,上柏尾町１９７番地３－２Ｆ,,14,110,2440811,,,,,,,2022-02-22,1,,,,,ヨツバトランスポート,0
1158,5020003021334,新規,0,2022-02-22,2022-02-22,合同会社ＤＨＡＲＭＡ,,合同会社,神奈川県,横浜市西区,高島２丁目１１－２スカイメナー横浜５１９,,14,103,2200011,,,,,,,2022-02-22,1,,,,,ダルマ,0
1159,5020003021342,新規,0,2022-02-22,2022-02-22,ケンイチ・アンド・カンパニー合同会社,,合同会社,神奈川県,横浜市港北区,箕輪町２丁目７番４０号プラウドシティ日吉レジデンスＩＩ１１１３号室,00125771,14,109,2230051,,,,,,,2022-02-22,1,,,,,ケンイチアンドカンパニー,0
1161,5021001075223,新規,0,2022-02-22,2022-02-22,株式会社三橋,,株式会社,神奈川県,相模原市緑区,橋本３丁目２６番１４号,,14,151,2520143,,,,,,,2022-02-22,1,,,,,ミツハシ,0
1164,5021003011416,新規,0,2022-02-22,2022-02-22,Ｐｌａｔｉｎｕｍ合同会社,,合同会社,神奈川県,横須賀市,公郷町２丁目１４番地６０,,14,201,2380022,,,,,,,2022-02-22,1,,,,,プラチナ,0
1168,5030001146883,新規,0,2022-02-22,2022-02-22,株式会社エルシャマイム,,株式会社,埼玉県,川越市,大字砂新田３７４番地７,,11,201,3501137,,,,,,,2022-02-22,1,,,,,エルシャマイム,0
1169,5030001146900,新規,0,2022-02-22,2022-02-22,株式会社Ｋ－ｍａｎａｇｅｍｅｎｔ,,株式会社,埼玉県,戸田市,大字新曽１０７番地,,11,224,3350021,,,,,,,2022-02-22,1,,,,,ケーマネージメント,0
1170,5030001146933,新規,0,2022-02-22,2022-02-22,株式会社ＴＡＫＡＤＡ,,株式会社,埼玉県,川越市,大字砂９３１番地１（クレールシンシア１０２号室）,,11,201,3501133,,,,,,,2022-02-22,1,,,,,タカダ,0
1172,5030003018874,新規,0,2022-02-22,2022-02-22,合同会社ルイーダ,,合同会社,埼玉県,草加市,住吉１丁目７番３号,,11,221,3400014,,,,,,,2022-02-22,1,,,,,ルイーダ,0
1182,5040003019541,新規,0,2022-02-22,2022-02-22,合同会社田辺ファーム,,合同会社,千葉県,成田市,官林３８９番地５,,12,211,2870221,,,,,,,2022-02-22,1,,,,,タナベファーム,0
1189,5050001050654,新規,0,2022-02-22,2022-02-22,株式会社シェアハピネス,,株式会社,茨城県,水戸市,笠原町４３７番地の８９,,08,201,3100852,,,,,,,2022-02-22,1,,,,,シェアハピネス,0
1194,5080001024770,新規,0,2022-02-22,2022-02-22,Ｓ．Ｖ．Ｊホールディングス株式会社,,株式会社,静岡県,藤枝市,高洲５５番地の１,,22,214,4260046,,,,,,,2022-02-22,1,,,,,エスブイジェイホールディングス,0
1195,5080001024779,新規,0,2022-02-22,2022-02-22,株式会社ＭＵＫＩＪＩＫＵ,,株式会社,静岡県,静岡市駿河区,丸子新田５３７番地の１メゾンカルムマンション１０２,,22,102,4210111,,,,,,,2022-02-22,1,,,,,ムキジク,0
1204,5110001036449,新規,0,2022-02-22,2022-02-22,株式会社芯美,,株式会社,新潟県,燕市,井土巻２丁目２２１番地２,,15,213,9591232,,,,,,,2022-02-22,1,,,,,シンビ,0
1216,5120001243928,新規,0,2022-02-22,2022-02-22,株式会社シンギュラーズ,,株式会社,大阪府,大阪市淀川区,西宮原２丁目６番１６号新大阪コーポビアネーズ８２９号室,,27,123,5320004,,,,,,,2022-02-22,1,,,,,シンギュラーズ,0
1217,5120001243977,新規,0,2022-02-22,2022-02-22,株式会社ＡＺ,,株式会社,大阪府,大阪市中央区,道頓堀１丁目東４番７号,,27,128,5420071,,,,,,,2022-02-22,1,,,,,アズ,0
1218,5120001243993,新規,0,2022-02-22,2022-02-22,株式会社アンビュー,,株式会社,大阪府,大阪市北区,梅田１丁目１番３号大阪駅前第３ビル２９階１－１－１号室,,27,127,5300001,,,,,,,2022-02-22,1,,,,,アンビュー,0
1219,5120003021167,新規,0,2022-02-22,2022-02-22,Ｍ＆Ｋ　Ｔｒｅｅ合同会社,,合同会社,大阪府,大阪市生野区,巽中４丁目２番６号,00125761,27,116,5440013,,,,,,,2022-02-22,1,,,,,エムアンドケイツリー,0
1224,5130003007768,新規,0,2022-02-22,2022-02-22,合同会社サンティー,,合同会社,京都府,京都市伏見区,小栗栖森ケ淵町２番地１－６０１号,,26,109,6011445,,,,,,,2022-02-22,1,,,,,サンティー,0
1235,5150001025266,新規,0,2022-02-22,2022-02-22,株式会社ＳＵＩＴＵ,,株式会社,奈良県,生駒市,新旭ケ丘２番３８号,,29,209,6300253,,,,,,,2022-02-22,1,,,,,ストゥー,0
1249,5180001150004,新規,0,2022-02-22,2022-02-22,株式会社ＭＯＣＯ,,株式会社,愛知県,東海市,大田町的場６７番地２,,23,222,4770031,,,,,,,2022-02-22,1,,,,,モコ,0
1250,5180001150037,新規,0,2022-02-22,2022-02-22,株式会社ＫＡＮＯ,,株式会社,愛知県,名古屋市瑞穂区,東栄町３丁目２２番地,,23,108,4670017,,,,,,,2022-02-22,1,,,,,カノウ,0
1251,5180001150045,新規,0,2022-02-22,2022-02-22,Ｒ・Ｓ・Ａ株式会社,,株式会社,愛知県,名古屋市天白区,笹原町８０２番地の４,,23,116,4680044,,,,,,,2022-02-22,1,,,,,アールエスエー,0
1261,5200001039756,新規,0,2022-02-22,2022-02-22,株式会社ＳＬＩ,,株式会社,岐阜県,養老郡養老町,大場９０６番地５９,,21,341,5031272,,,,,,,2022-02-22,1,,,,,エスエルアイ,0
1266,5220001024698,新規,0,2022-02-22,2022-02-22,株式会社大成不動産,,株式会社,石川県,能美市,中町申４６番地８,,17,211,9290123,,,,,,,2022-02-22,1,,,,,タイセイフドウサン,0
1271,5240001059362,新規,0,2022-02-22,2022-02-22,株式会社ワタナベジョブズ,,株式会社,広島県,広島市東区,矢賀新町５丁目１０番７号,,34,102,7320044,,,,,,,2022-02-22,1,,,,,ワタナベジョブズ,0
1272,5240001059370,新規,0,2022-02-22,2022-02-22,株式会社クエスト,,株式会社,広島県,広島市安佐南区,緑井３丁目１２番２７号,,34,105,7310103,,,,,,,2022-02-22,1,,,,,クエスト,0
1273,5240003005513,新規,0,2022-02-22,2022-02-22,ＣＬＵＴＣＨ合同会社,,合同会社,広島県,広島市西区,己斐東１丁目８番１１－４０６号,,34,104,7330811,,,,,,,2022-02-22,1,,,,,クラッチ,0
1280,5260001036533,新規,0,2022-02-22,2022-02-22,株式会社ＮＥＵＢＡＵＤＥＳＩＧＮ,,株式会社,岡山県,久米郡美咲町,塚角１８３８番地,00125777,33,666,7081541,,,,,,,2022-02-22,1,,,,,ノイバウデザイン,0
1285,5290001096475,新規,0,2022-02-22,2022-02-22,株式会社フリースペース７６１,,株式会社,福岡県,嘉穂郡桂川町,大字土居１０７３番地２,,40,421,8200606,,,,,,,2022-02-22,1,,,,,フリースペースナナロクイチ,0
1286,5290001096483,新規,0,2022-02-22,2022-02-22,株式会社ＳＡＬＵＴＥ,,株式会社,福岡県,糸島市,泊６４７番地２,,40,230,8191111,,,,,,,2022-02-22,1,,,,,サルーテ,0
1287,5290001096517,新規,0,2022-02-22,2022-02-22,株式会社なのはなベース,,株式会社,福岡県,福岡市中央区,薬院１丁目１５番８－１３０３号,,40,133,8100022,,,,,,,2022-02-22,1,,,,,ナノハナベース,0
1288,5290001096533,新規,0,2022-02-22,2022-02-22,株式会社Ｕｎｉｔｅｄ　Ｈｏｍｅ’ｓ不動産,,株式会社,福岡県,八女市,本町字東紺屋町２６番５,,40,210,8340031,,,,,,,2022-02-22,1,,,,,ユナイテッドホームズフドウサン,0
1290,5290003012174,新規,0,2022-02-22,2022-02-22,合同会社ｕｎｔａｋｅ,,合同会社,福岡県,福岡市東区,原田２丁目１０番１４－２０６号,,40,131,8120063,,,,,,,2022-02-22,1,,,,,アンテイク,0
1291,5290005018566,新規,0,2022-02-22,2022-02-22,ＮＰＯ法人福岡てらこやあそび,,その他の設立登記法人,福岡県,福岡市南区,皿山２丁目１番５７号,,40,134,8111365,,,,,,,2022-02-22,1,,,,,フクオカテラコヤアソビ,0
1302,5310001017726,新規,0,2022-02-22,2022-02-22,株式会社リーブルコティ,,株式会社,長崎県,東彼杵郡波佐見町,長野郷１４２１番地,,42,323,8593725,,,,,,,2022-02-22,1,,,,,リーブルコティ,0
1304,5330001029447,新規,0,2022-02-22,2022-02-22,株式会社聖真,,株式会社,熊本県,八代市,鼠蔵町１１３９番地２,,43,202,8695164,,,,,,,2022-02-22,1,,,,,セイマ,0
1312,5360001030022,新規,0,2022-02-22,2022-02-22,株式会社心さぽーと,,株式会社,沖縄県,沖縄市,高原７丁目２５－９,,47,211,9042171,,,,,,,2022-02-22,1,,,,,ココロサポート,0
1314,5360005006596,新規,0,2022-02-22,2022-02-22,一般社団法人アガペ育英会,,その他の設立登記法人,沖縄県,中頭郡北中城村,字大城３１１番地,,47,327,9012314,,,,,,,2022-02-22,1,,,,,アガペイクエイカイ,0
1316,5370005010440,新規,0,2022-02-22,2022-02-22,一般社団法人リトルグリーン,,その他の設立登記法人,宮城県,登米市,登米町寺池桜小路５３番地１,,04,212,9870702,,,,,,,2022-02-22,1,,,,,リトルグリーン,0
1318,5380001032586,新規,0,2022-02-22,2022-02-22,株式会社日新エクステリア,,株式会社,福島県,会津若松市,日新町１２番２３号,,07,202,9650861,,,,,,,2022-02-22,1,,,,,ニッシンエクステリア,0
1326,5430001086024,新規,0,2022-02-22,2022-02-22,エムアールティー株式会社,,株式会社,北海道,苫小牧市,沼ノ端中央４丁目６－６レジデンスＹＲＩＩ２０３号,00125770,01,213,0591305,,,,,,,2022-02-22,1,,,,,エムアールティー,0
1327,5430001086032,新規,0,2022-02-22,2022-02-22,株式会社レアスター,,株式会社,北海道,札幌市白石区,南郷通３丁目北５番２４号,,01,104,0030023,,,,,,,2022-02-22,1,,,,,レアスター,0
1336,5470003002132,新規,0,2022-02-22,2022-02-22,合同会社ＧＲＡＭ,,合同会社,香川県,高松市,西植田町３４８５－３,,37,201,7610445,,,,,,,2022-02-22,1,,,,,グラム,0
1337,5470003002140,新規,0,2022-02-22,2022-02-22,合同会社心月,,合同会社,香川県,高松市,太田上町９４２番２ホープＴＯＭＯ２０２,,37,201,7618074,,,,,,,2022-02-22,1,,,,,シンゲツ,0
1342,5700150107156,新規,0,2022-02-22,2022-02-22,Ｊ．Ｍ．Ｗ．ＥＮＴＥＲＰＲＩＳＥＳ,,外国会社等,千葉県,八街市,四木１１９３番地１１四木オフィス２０２,,12,230,2891122,スリランカ民主社会主義共和国、キャンディ、アラワトゥゴダ、オウィッサロード、ティープラッツナーサリー、７８－５,,,,,,2022-02-22,1,,,,,ジエイエムダブリユーエンタープライセス,0
1349,6010001224731,新規,0,2022-02-22,2022-02-22,株式会社餃子図書館,,株式会社,東京都,中央区,築地３丁目２番１０－１１０６号,,13,102,1040045,,,,,,,2022-02-22,1,,,,,ギョウザトショカン,0
1350,6010001224748,新規,0,2022-02-22,2022-02-22,株式会社Ｗｉｓｈ,,株式会社,東京都,中央区,銀座６丁目２番１号,,13,102,1040061,,,,,,,2022-02-22,1,,,,,ウィッシュ,0
1351,6010001224780,新規,0,2022-02-22,2022-02-22,株式会社アップドラフト,,株式会社,東京都,中央区,日本橋小伝馬町４番１号,,13,102,1030001,,,,,,,2022-02-22,1,,,,,アップドラフト,0
1354,6010003037041,新規,0,2022-02-22,2022-02-22,合同会社エムエーシーバルセロナ,,合同会社,東京都,千代田区,内幸町１丁目３番３号内幸町ダイビル６階,,13,101,1000011,,,,,,,2022-02-22,1,,,,,エムエーシーバルセロナ,0
1355,6010003037058,新規,0,2022-02-22,2022-02-22,合同会社ｅｙｅ－ｌａｎｄ,,合同会社,東京都,中央区,日本橋浜町２丁目５５番５－３０４号,,13,102,1030007,,,,,,,2022-02-22,1,,,,,アイランド,0
1358,6010101015072,新規,0,2022-02-22,2022-02-22,株式会社キカツク,,株式会社,東京都,八王子市,東町１２－８,,13,201,1920082,,,,,,,2022-02-22,1,,,,,キカツク,0
1367,6010401165716,新規,0,2022-02-22,2022-02-22,パノラマ企画株式会社,,株式会社,東京都,港区,白金４丁目６番６－３０２号,,13,103,1080072,,,,,,,2022-02-22,1,,,,,パノラマキカク,0
1371,6010403027113,新規,0,2022-02-22,2022-02-22,合同会社ＣＷＦＳ,,合同会社,東京都,港区,南青山２丁目２番１５号,,13,103,1070062,,,,,,,2022-02-22,1,,,,,シーダブリューエフエス,0
1372,6010403027121,新規,0,2022-02-22,2022-02-22,麗哲商事合同会社,,合同会社,東京都,港区,東麻布１丁目２３番２号石井ビル４０２号,,13,103,1060044,,,,,,,2022-02-22,1,,,,,レイテツショウジ,0
1373,6010405020719,新規,0,2022-02-22,2022-02-22,マイアミホールディング１一般社団法人,,その他の設立登記法人,東京都,港区,虎ノ門３丁目２２番１０－２０１号,,13,103,1050001,,,,,,,2022-02-22,1,,,,,マイアミホールディングワン,0
1374,6010405020735,新規,0,2022-02-22,2022-02-22,ジー・ジェイ・レジデンス・ナイン特定目的会社,,その他の設立登記法人,東京都,港区,虎ノ門４丁目３番１号城山トラストタワー２７階ＳａｎｎｅＧｒｏｕｐＪａｐａｎ株式会社内,,13,103,1050001,,,,,,,2022-02-22,1,,,,,ジージェイレジデンスナイン,0
1375,6010501048481,新規,0,2022-02-22,2022-02-22,株式会社ＭＥＤＩＵＳ,,株式会社,東京都,台東区,浅草橋１丁目９番１２号,,13,106,1110053,,,,,,,2022-02-22,1,,,,,メディアス,0
1381,6010601060700,新規,0,2022-02-22,2022-02-22,株式会社アニマ,,株式会社,東京都,江東区,平野３丁目２番１号,,13,108,1350023,,,,,,,2022-02-22,1,,,,,アニマ,0
1382,6010601060709,新規,0,2022-02-22,2022-02-22,コンサルインフィニティ株式会社,,株式会社,東京都,江東区,東砂８丁目１９番４－５０５号,,13,108,1360074,,,,,,,2022-02-22,1,,,,,コンサルインフィニティ,0
1383,6010603009398,新規,0,2022-02-22,2022-02-22,合同会社ＦＤ江戸川,,合同会社,東京都,江東区,毛利１丁目２１番２号,,13,108,1350001,,,,,,,2022-02-22,1,,,,,エフディエドガワ,0
1385,6010703006122,新規,0,2022-02-22,2022-02-22,インユナイトサロン合同会社,,合同会社,東京都,品川区,荏原３丁目６番１０エルカシータ５０２,,13,109,1420063,,,,,,,2022-02-22,1,,,,,インユナイトサロン,0
1386,6010801032747,新規,0,2022-02-22,2022-02-22,ＨｕｍａｎＯＳ株式会社,,株式会社,東京都,大田区,南六郷３丁目１０番１６号六郷ＢＡＳＥ２１７,,13,111,1440045,,,,,,,2022-02-22,1,,,,,ヒューマンオーエス,0
1392,6010901050384,新規,0,2022-02-22,2022-02-22,株式会社ウェルユニバース,,株式会社,東京都,世田谷区,等々力７丁目２３番２号等々力グリーミングピークス２階,,13,112,1580082,,,,,,,2022-02-22,1,,,,,ウェルユニバース,0
1393,6010901050392,新規,0,2022-02-22,2022-02-22,株式会社ケイロックス,,株式会社,東京都,世田谷区,祖師谷５丁目３９番１号,,13,112,1570072,,,,,,,2022-02-22,1,,,,,ケイロックス,0
1412,6011501027772,新規,0,2022-02-22,2022-02-22,株式会社無次元,,株式会社,東京都,北区,東十条５丁目７番１２号,,13,117,1140001,,,,,,,2022-02-22,1,,,,,ムジゲン,0
1415,6011701025064,新規,0,2022-02-22,2022-02-22,株式会社Ｏｓｉｒｉｓ,,株式会社,東京都,江戸川区,西葛西２丁目１８番１６号,,13,123,1340088,,,,,,,2022-02-22,1,,,,,オシリス,0
1417,6012801021408,新規,0,2022-02-22,2022-02-22,株式会社ＴＯＵＣＨ　ＯＮＥ,,株式会社,東京都,武蔵村山市,三ツ藤１丁目６１番地の１３,,13,223,2080021,,,,,,,2022-02-22,1,,,,,タッチワン,0
1428,6020001145290,新規,0,2022-02-22,2022-02-22,曙株式会社,,株式会社,神奈川県,川崎市宮前区,水沢３丁目１番１５号グリーンコーポ大平ＩＩ２０２,00125764,14,136,2160012,,,,,,,2022-02-22,1,,,,,アケボノ,0
1429,6020001145316,新規,0,2022-02-22,2022-02-22,株式会社ＴＨＣ,,株式会社,神奈川県,横浜市磯子区,上中里町１０２８番地１棟１３２号,,14,107,2350042,,,,,,,2022-02-22,1,,,,,ティーエイチシー,0
1430,6020001145324,新規,0,2022-02-22,2022-02-22,株式会社寺内音楽出版,,株式会社,神奈川県,横浜市南区,三春台１５９番地,,14,105,2320002,,,,,,,2022-02-22,1,,,,,テラウチオンガクシュッパン,0
1434,6020003021325,新規,0,2022-02-22,2022-02-22,ＳＳＫＰＩ　ＪＡＰＡＮ合同会社,,合同会社,神奈川県,横浜市中区,山下町２番地産業貿易センタービル２階,,14,104,2310023,,,,,,,2022-02-22,1,,,,,エスエスケーピーアイジャパン,0
1441,6021001075222,新規,0,2022-02-22,2022-02-22,ＭＪ株式会社,,株式会社,神奈川県,横須賀市,大滝町１丁目２６番地清水ビル４Ｆ,,14,201,2380008,,,,,,,2022-02-22,1,,,,,エムジェイ,0
1442,6021001075239,新規,0,2022-02-22,2022-02-22,株式会社高橋美建,,株式会社,神奈川県,秦野市,弥生町四丁目２１番１５号,,14,211,2591311,,,,,,,2022-02-22,1,,,,,タカハシビケン,0
1443,6021001075247,新規,0,2022-02-22,2022-02-22,トランスワールド株式会社,,株式会社,神奈川県,相模原市緑区,又野８７０番地３,,14,151,2520158,,,,,,,2022-02-22,1,,,,,トランスワールド,0
1446,6021003011407,新規,0,2022-02-22,2022-02-22,サンライズ合同会社,,合同会社,神奈川県,藤沢市,鵠沼石上３丁目３番１２号,,14,205,2510025,,,,,,,2022-02-22,1,,,,,サンライズ,0
1447,6021003011423,新規,0,2022-02-22,2022-02-22,合同会社ＣＡＭＥＬ　ＦＡＣＴＯＲＹ,,合同会社,神奈川県,相模原市中央区,小山２丁目４－５ベルググランデ相模原シティデュオウエストレジデンス８０２,,14,152,2520205,,,,,,,2022-02-22,1,,,,,キャメルファクトリー,0
1448,6021005012444,新規,0,2022-02-22,2022-02-22,土地家屋調査士法人徳佐丸,,その他の設立登記法人,神奈川県,横須賀市,佐原１丁目１９番３号,,14,201,2390835,,,,,,,2022-02-22,1,,,,,トクサマル,0
1458,6030003018873,新規,0,2022-02-22,2022-02-22,合同会社ＯＤＡ,,合同会社,埼玉県,所沢市,くすのき台３丁目１９番地１ドミール所沢１－１０１,,11,208,3590037,,,,,,,2022-02-22,1,,,,,オーディーエー,0
1467,6040001122107,新規,0,2022-02-22,2022-02-22,株式会社ムダレス,,株式会社,千葉県,船橋市,本町４丁目４０番２１号,,12,204,2730005,,,,,,,2022-02-22,1,,,,,ムダレス,0
1471,6050001050653,新規,0,2022-02-22,2022-02-22,株式会社Ｂｅハウス・ネオ,,株式会社,茨城県,稲敷郡阿見町,大字阿見３９６２番地１２、１０２号,,08,443,3000331,,,,,,,2022-02-22,1,,,,,ビーハウスネオ,0
1474,6070001038969,新規,0,2022-02-22,2022-02-22,株式会社Ｒ．Ｏ．Ｎ,,株式会社,群馬県,高崎市,南町４－４南町貸事務所１階Ｂ区画,,10,202,3700834,,,,,,,2022-02-22,1,,,,,アールオーエヌ,0
1476,6080001024778,新規,0,2022-02-22,2022-02-22,株式会社ＢＲＩＣＫｓ,,株式会社,静岡県,静岡市駿河区,西中原２丁目３番１８号ＳＡＩＮＴＭＡＲＴＡ３０１,,22,102,4228053,,,,,,,2022-02-22,1,,,,,ブリックス,0
1477,6090001017418,新規,0,2022-02-22,2022-02-22,株式会社長田工業,,株式会社,山梨県,甲斐市,長塚２６１番地１米山住宅Ｂ,,19,210,4000125,,,,,,,2022-02-22,1,,,,,オサダコウギョウ,0
1486,6120001243670,新規,0,2022-02-22,2022-02-22,株式会社脳梗塞リハビリ院,,株式会社,大阪府,大阪市西成区,天下茶屋３丁目２８－５Ｔ．Ｍビル３Ｆ,,27,122,5570014,,,,,,,2022-02-22,1,,,,,ノウコウソクリハビリイン,0
1487,6120001243919,新規,0,2022-02-22,2022-02-22,株式会社ｋ－ｓｔｙｌｅ,,株式会社,大阪府,大阪市北区,大淀中２丁目３番１５－３０１号,,27,127,5310076,,,,,,,2022-02-22,1,,,,,ケイスタイル,0
1488,6120001243951,新規,0,2022-02-22,2022-02-22,株式会社Ｇｏｌｆ　Ｈｕｂ,,株式会社,大阪府,大阪市西区,京町堀１丁目８番３３号京町堀スクエア９階（お多福ｌａｂ内）,,27,106,5500003,,,,,,,2022-02-22,1,,,,,ゴルフハブ,0
1489,6120001243976,新規,0,2022-02-22,2022-02-22,株式会社ヒラテック,,株式会社,大阪府,枚方市,上之町１７番５－３０２号,,27,210,5730000,,,,,,,2022-02-22,1,,,,,ヒラテック,0
1490,6120001244000,新規,0,2022-02-22,2022-02-22,ＶＩＣＫＩ株式会社,,株式会社,大阪府,大阪市天王寺区,上本町３丁目２番１４号上本町シティハイツ８０１,,27,109,5430001,,,,,,,2022-02-22,1,,,,,ヴィッキー,0
1491,6120003021174,新規,0,2022-02-22,2022-02-22,グランプリン合同会社,,合同会社,大阪府,大阪市城東区,中央３丁目２－１４－７０２号,,27,118,5360005,,,,,,,2022-02-22,1,,,,,グランプリン,0
1492,6120003021182,新規,0,2022-02-22,2022-02-22,合同会社ベスティーロ,,合同会社,大阪府,大阪市西区,川口２丁目７－７－３０１,,27,106,5500021,,,,,,,2022-02-22,1,,,,,ベスティーロ,0
1503,6130001071187,新規,0,2022-02-22,2022-02-22,株式会社ジーピック,,株式会社,京都府,京田辺市,河原食田６番地レインボービル１０１号,,26,211,6100361,,,,,,,2022-02-22,1,,,,,ジーピック,0
1516,6140001124951,新規,0,2022-02-22,2022-02-22,株式会社Ｈａｒｄ　Ｂｏｏｋ　Ｌａｂｏ,,株式会社,兵庫県,姫路市,駅前町３１９番地,,28,201,6700927,,,,,,,2022-02-22,1,,,,,ハードブックラボ,0
1518,6140003017360,新規,0,2022-02-22,2022-02-22,合同会社あいかむ,,合同会社,兵庫県,明石市,大久保町江井島７７０番地の１２,,28,203,6740064,,,,,,,2022-02-22,1,,,,,アイカム,0
1520,6140005026046,新規,0,2022-02-22,2022-02-22,一般社団法人老林の里ファーム,,その他の設立登記法人,兵庫県,揖保郡太子町,老原１２９番地１,,28,464,6711553,,,,,,,2022-02-22,1,,,,,ロウリンノサトファーム,0
1524,6170001016980,新規,0,2022-02-22,2022-02-22,株式会社スリーエス,,株式会社,和歌山県,有田郡湯浅町,大字別所１１３番地５,,30,361,6430003,,,,,,,2022-02-22,1,,,,,スリーエス,0
1526,6180001150044,新規,0,2022-02-22,2022-02-22,株式会社ＭＡＴＳＵ,,株式会社,愛知県,海部郡大治町,大字北間島字屋敷１３番地,,23,424,4901132,,,,,,,2022-02-22,1,,,,,マツ,0
1527,6180001150052,新規,0,2022-02-22,2022-02-22,Ｔ‐Ｇｌｏｂａｌ株式会社,,株式会社,愛知県,一宮市,東五城字備前２３番地４,,23,203,4940008,,,,,,,2022-02-22,1,,,,,ティーグローバル,0
1530,6180003023520,新規,0,2022-02-22,2022-02-22,合同会社ミリ,,合同会社,愛知県,名古屋市北区,辻町２丁目２３番地の６,,23,103,4620032,,,,,,,2022-02-22,1,,,,,ミリ,0
1532,6180301035936,新規,0,2022-02-22,2022-02-22,株式会社ＴＫ,,株式会社,愛知県,安城市,大山町１丁目１番地３,,23,212,4460042,,,,,,,2022-02-22,1,,,,,ティーケー,0
1534,6190001029147,新規,0,2022-02-22,2022-02-22,株式会社坂工業,,株式会社,三重県,鈴鹿市,西冨田町８３１番地の３,,24,207,5130008,,,,,,,2022-02-22,1,,,,,サカコウギョウ,0
1537,6240005015336,新規,0,2022-02-22,2022-02-22,一般社団法人ワールドハピネスクリエイター協会,,その他の設立登記法人,広島県,広島市西区,高須台４丁目１番９号,,34,104,7330876,,,,,,,2022-02-22,1,,,,,ワールドハピネスクリエイターキョウカイ,0
1538,6250001019414,新規,0,2022-02-22,2022-02-22,株式会社ＴＨＯＵ　ＣＯＮＮＥＣＴ,,株式会社,山口県,宇部市,北琴芝２丁目７番６号松井ビル３０３号,,35,202,7550036,,,,,,,2022-02-22,1,,,,,ソウコネクト,0
1539,6250001019422,新規,0,2022-02-22,2022-02-22,ワールドトランスポート株式会社,,株式会社,山口県,山口市,秋穂東７８１番地５,,35,203,7541101,,,,,,,2022-02-22,1,,,,,ワールドトランスポート,0
1545,6270005005499,新規,0,2022-02-22,2022-02-22,一般社団法人とっとりプロフェッショナル人材戦略拠点,,その他の設立登記法人,鳥取県,鳥取市,東品治町１１１番地１,,31,201,6800835,,,,,,,2022-02-22,1,,,,,トットリプロフェッショナルジンザイセンリャクキョテン,0
1549,6290001096532,新規,0,2022-02-22,2022-02-22,株式会社九州産地直送センター,,株式会社,福岡県,福岡市博多区,博多駅前４丁目１７番１５号,,40,132,8120011,,,,,,,2022-02-22,1,,,,,キュウシュウサンチチョクソウセンター,0
1550,6290003012181,新規,0,2022-02-22,2022-02-22,合同会社木蓮,,合同会社,福岡県,久留米市,西町５６７番地１,,40,203,8300038,,,,,,,2022-02-22,1,,,,,モクレン,0
1556,6300003001793,新規,0,2022-02-22,2022-02-22,合同会社アイティーエム,,合同会社,佐賀県,佐賀市,大和町大字川上５２８０番地３,,41,201,8400214,,,,,,,2022-02-22,1,,,,,アイティーエム,0
1557,6310001017725,新規,0,2022-02-22,2022-02-22,しまいろ株式会社,,株式会社,長崎県,五島市,吉田町２４１４番地４木場住宅Ｃ,,42,211,8530042,,,,,,,2022-02-22,1,,,,,シマイロ,0
1561,6320002022847,新規,0,2022-02-22,2022-02-22,コーメイ宅建有限会社,,有限会社,大分県,大分市,大字森６３３番地の５,,44,201,8700128,,,,,,,2022-02-22,1,,,,,コーメイタッケン,0
1563,6330001029462,新規,0,2022-02-22,2022-02-22,株式会社みのり,,株式会社,熊本県,熊本市東区,長嶺南５丁目１番３９号,,43,102,8618039,,,,,,,2022-02-22,1,,,,,ミノリ,0
1566,6340001024504,新規,0,2022-02-22,2022-02-22,松建興業株式会社,,株式会社,鹿児島県,霧島市,霧島永水３２８７番地１０,,46,218,8994202,,,,,,,2022-02-22,1,,,,,マツケンコウギョウ,0
1567,6340005009410,新規,0,2022-02-22,2022-02-22,特定非営利活動法人えん,,その他の設立登記法人,鹿児島県,熊毛郡中種子町,納官１８３４番地,,46,501,8913601,,,,,,,2022-02-22,1,,,,,エン,0
1569,6360001030021,新規,0,2022-02-22,2022-02-22,株式会社Ｄａｉｓｙ,,株式会社,沖縄県,中頭郡読谷村,字儀間７９,,47,324,9040327,,,,,,,2022-02-22,1,,,,,デイジー,0
1576,6370001048236,新規,0,2022-02-22,2022-02-22,株式会社マルショウ,,株式会社,宮城県,仙台市宮城野区,高砂２丁目１８番地の１８,,04,102,9830014,,,,,,,2022-02-22,1,,,,,マルショウ,0
1581,6410001013103,新規,0,2022-02-22,2022-02-22,ベンチャー開発株式会社,,株式会社,秋田県,秋田市,大町４丁目６番２０号,,05,201,0100921,,,,,,,2022-02-22,1,,,,,ベンチャーカイハツ,0
1583,6430001086015,新規,0,2022-02-22,2022-02-22,株式会社シロクマの家,,株式会社,北海道,札幌市中央区,北八条西２３丁目２番１２号,,01,101,0600008,,,,,,,2022-02-22,1,,,,,シロクマノオウチ,0
1587,6440001009032,新規,0,2022-02-22,2022-02-22,株式会社アイエフプラン,,株式会社,北海道,函館市,富岡町２丁目２８番１８号,,01,202,0410811,,,,,,,2022-02-22,1,,,,,アイエフプラン,0
1592,6480001011653,新規,0,2022-02-22,2022-02-22,株式会社那須不動産,,株式会社,徳島県,徳島市,南矢三町１丁目１２番７８－２２号,,36,201,7700005,,,,,,,2022-02-22,1,,,,,ナスフドウサン,0
1593,6490001010118,新規,0,2022-02-22,2022-02-22,レイシスＨＤ株式会社,,株式会社,高知県,高岡郡四万十町,宮内５９６番地,,39,412,7860086,,,,,,,2022-02-22,1,,,,,レイシスホールディング,0
1608,7010001224689,新規,0,2022-02-22,2022-02-22,ＵＣ５ホールディングス株式会社,,株式会社,東京都,千代田区,紀尾井町４番１号,,13,101,1020094,,,,,,,2022-02-22,1,,,,,ユーシーファイブホールディングス,0
1609,7010001224739,新規,0,2022-02-22,2022-02-22,株式会社ヘルスケアバンク,,株式会社,東京都,千代田区,九段南１丁目５番６号りそな九段ビル５Ｆ・ＫＳフロア,,13,101,1020074,,,,,,,2022-02-22,1,,,,,ヘルスケアバンク,0
1610,7010001224747,新規,0,2022-02-22,2022-02-22,株式会社Ｚ,,株式会社,東京都,中央区,銀座１丁目１９番１２号,,13,102,1040061,,,,,,,2022-02-22,1,,,,,ゼット,0
1611,7010001224788,新規,0,2022-02-22,2022-02-22,Ｃｏｍｐｔｅｓ株式会社,,株式会社,東京都,中央区,東日本橋３丁目６番１６号,,13,102,1030004,,,,,,,2022-02-22,1,,,,,コムテス,0
1613,7010003037049,新規,0,2022-02-22,2022-02-22,ＡｔｏＸディレクションズ合同会社,,合同会社,東京都,千代田区,丸の内１丁目８－３丸の内トラストタワー２０階,,13,101,1000005,,,,,,,2022-02-22,1,,,,,エィトゥディレクションズ,0
1614,7010003037057,新規,0,2022-02-22,2022-02-22,合同会社ＭＵＲＡＯＫＡ,,合同会社,東京都,千代田区,九段南３丁目９番１１号マートルコート麹町１１０１号室,,13,101,1020074,,,,,,,2022-02-22,1,,,,,ムラオカ,0
1622,7010401165681,新規,0,2022-02-22,2022-02-22,クレアシオン・クラブ株式会社,,株式会社,東京都,港区,赤坂９丁目７番１号,,13,103,1070052,,,,,,,2022-02-22,1,,,,,クレアシオンクラブ,0
1623,7010401165707,新規,0,2022-02-22,2022-02-22,十条商会株式会社,,株式会社,東京都,港区,南青山２丁目２番１５号ＷＩＮ青山５３１,,13,103,1070062,,,,,,,2022-02-22,1,,,,,ジュウジョウショウカイ,0
1624,7010401165723,新規,0,2022-02-22,2022-02-22,株式会社クラリス,,株式会社,東京都,港区,浜松町２丁目２番１５号浜松町ダイヤビル２Ｆ,,13,103,1050013,,,,,,,2022-02-22,1,,,,,クラリス,0
1626,7010403027112,新規,0,2022-02-22,2022-02-22,ナガサコ合同会社,,合同会社,東京都,港区,高輪２丁目１４番３－４０３号,,13,103,1080074,,,,,,,2022-02-22,1,,,,,ナガサコ,0
1627,7010403027129,新規,0,2022-02-22,2022-02-22,合同会社伊吹山,,合同会社,東京都,港区,北青山１丁目２番３号,,13,103,1070061,,,,,,,2022-02-22,1,,,,,イブキヤマ,0
1631,7010405020718,新規,0,2022-02-22,2022-02-22,ダラスホールディング２一般社団法人,,その他の設立登記法人,東京都,港区,虎ノ門３丁目２２番１０－２０１号,,13,103,1050001,,,,,,,2022-02-22,1,,,,,ダラスホールディングツー,0
1637,7010801032746,新規,0,2022-02-22,2022-02-22,株式会社ネクステージ,,株式会社,東京都,大田区,久が原２丁目１２番１２－８０４号,,13,111,1460085,,,,,,,2022-02-22,1,,,,,ネクステージ,0
1638,7010801032754,新規,0,2022-02-22,2022-02-22,株式会社ＬＩＦＥ‐Ａ,,株式会社,東京都,大田区,大森北３丁目３４番１７号,,13,111,1430016,,,,,,,2022-02-22,1,,,,,ライフエイ,0
1639,7010803004066,新規,0,2022-02-22,2022-02-22,美和合同会社,,合同会社,東京都,大田区,北嶺町９番１号フォレストヒルズ２０５号,,13,111,1450073,,,,,,,2022-02-22,1,,,,,ミワ,0
1640,7010901050391,新規,0,2022-02-22,2022-02-22,株式会社アパートメント,,株式会社,東京都,世田谷区,上用賀４丁目２９番３号,,13,112,1580098,,,,,,,2022-02-22,1,,,,,アパートメント,0
1652,7011001145669,新規,0,2022-02-22,2022-02-22,株式会社ＨＡＫＯＨＡＲＥ,,株式会社,東京都,渋谷区,道玄坂１丁目１０番８号渋谷道玄坂東急ビル２Ｆ－Ｃ,,13,113,1500043,,,,,,,2022-02-22,1,,,,,ハコハレ,0
1653,7011001145867,新規,0,2022-02-22,2022-02-22,株式会社Ｃａｒｏｌ,,株式会社,東京都,渋谷区,渋谷２丁目３番４号,,13,113,1500002,,,,,,,2022-02-22,1,,,,,キャロル,0
1657,7011101097851,新規,0,2022-02-22,2022-02-22,ＬＪ　ＪＡＰＡＮ株式会社,,株式会社,東京都,新宿区,新宿２丁目１１番２号ＹＭビル４階,,13,104,1600022,,,,,,,2022-02-22,1,,,,,エルジェイジャパン,0
1662,7011501027771,新規,0,2022-02-22,2022-02-22,明石化成株式会社,,株式会社,東京都,北区,滝野川７丁目３９番１５－３０６号,,13,117,1140023,,,,,,,2022-02-22,1,,,,,アカシカセイ,0
1666,7011601025758,新規,0,2022-02-22,2022-02-22,サニーロック株式会社,,株式会社,東京都,練馬区,豊玉北３丁目２６番１１号,,13,120,1760012,,,,,,,2022-02-22,1,,,,,サニーロック,0
1667,7012801021415,新規,0,2022-02-22,2022-02-22,株式会社７Ａ．ＪＡＰＡＮ,,株式会社,東京都,国分寺市,東元町３丁目８番５号,,13,214,1850022,,,,,,,2022-02-22,1,,,,,セブンエードットジャパン,0
1670,7013301048717,新規,0,2022-02-22,2022-02-22,株式会社ベイスロップ,,株式会社,東京都,豊島区,南池袋２丁目４５－２－３９０５,,13,116,1710022,,,,,,,2022-02-22,1,,,,,ベイスロップ,0
1674,7020001145281,新規,0,2022-02-22,2022-02-22,株式会社ＡＲＡＳＹＯ,,株式会社,神奈川県,川崎市宮前区,水沢３丁目４番２－２０５号ラフレ水沢,,14,136,2160012,,,,,,,2022-02-22,1,,,,,アラショウ,0
1675,7020001145315,新規,0,2022-02-22,2022-02-22,株式会社ＥＮ　ＭＡＳＳＥ,,株式会社,神奈川県,川崎市宮前区,馬絹６丁目２９番２号アッシュ馬絹１０１,,14,136,2160035,,,,,,,2022-02-22,1,,,,,エンマッセ,0
1686,7021001075221,新規,0,2022-02-22,2022-02-22,ＭＫＳ株式会社,,株式会社,神奈川県,平塚市,代官町８番１５号メゾン平塚１０１号室,,14,203,2540807,,,,,,,2022-02-22,1,,,,,エムケーエス,0
1687,7021001075238,新規,0,2022-02-22,2022-02-22,株式会社和心,,株式会社,神奈川県,藤沢市,長後１２７８番地２５,,14,205,2520801,,,,,,,2022-02-22,1,,,,,ワシン,0
1693,7030001146857,新規,0,2022-02-22,2022-02-22,令和電気株式会社,,株式会社,埼玉県,新座市,野寺４丁目６番３８号ソワレ２０１号室,,11,230,3520034,,,,,,,2022-02-22,1,,,,,レイワデンキ,0
1694,7030001146865,新規,0,2022-02-22,2022-02-22,鴻源興業株式会社,,株式会社,埼玉県,さいたま市浦和区,常盤５丁目１番７－５号,,11,107,3300061,,,,,,,2022-02-22,1,,,,,コウゲンコウギョウ,0
1695,7030001146923,新規,0,2022-02-22,2022-02-22,七澤商事株式会社,,株式会社,埼玉県,川口市,川口２丁目１２番１７－２０３号ワコーレ川口ＩＩ,00125779,11,203,3320015,,,,,,,2022-02-22,1,,,,,ナナサワショウジ,0
1699,7030003018864,新規,0,2022-02-22,2022-02-22,合同会社ＡＶＴ　Ｇｒｏｕｐ,,合同会社,埼玉県,比企郡嵐山町,大字菅谷４２４－１,,11,342,3550221,,,,,,,2022-02-22,1,,,,,エーブイティーグループ,0
1704,7040001122320,新規,0,2022-02-22,2022-02-22,株式会社Ｌｕｚ,,株式会社,千葉県,千葉市花見川区,幕張町５丁目４７８ヴィラ・カクタ２０２,,12,102,2620032,,,,,,,2022-02-22,1,,,,,ルース,0
1706,7040002020845,新規,0,2022-02-22,2022-02-22,有限会社エクセル,,有限会社,千葉県,船橋市,新高根２丁目５番７号,,12,204,2740814,,,,,,,2022-02-22,1,,,,,エクセル,0
1707,7040005021519,新規,0,2022-02-22,2022-02-22,一般社団法人縄文グルメ推進委員会,,その他の設立登記法人,千葉県,千葉市若葉区,加曽利町１０３２番地８０,,12,104,2640017,,,,,,,2022-02-22,1,,,,,ジョウモングルメスイシンイインカイ,0
1714,7060003003962,新規,0,2022-02-22,2022-02-22,栃木オート合同会社,,合同会社,栃木県,宇都宮市,大曽１丁目５－５ＳＥＡＢＩＲＤビル２階２－Ｂ号室,,09,201,3200014,,,,,,,2022-02-22,1,,,,,トチギオート,0
1717,7080001024777,新規,0,2022-02-22,2022-02-22,株式会社ｅｎａｋｓｈｉオート,,株式会社,静岡県,焼津市,本町１丁目５番５号レオパレス焼津本町１０５号室,,22,212,4250022,,,,,,,2022-02-22,1,,,,,エナクシオート,0
1719,7080101023101,新規,0,2022-02-22,2022-02-22,株式会社ｈａｒｕ,,株式会社,静岡県,駿東郡長泉町,下長窪８９番地の１６サニーコートヴィラＤ２０２号,,22,342,4110934,,,,,,,2022-02-22,1,,,,,ハル,0
1723,7090001017417,新規,0,2022-02-22,2022-02-22,株式会社タートル,,株式会社,山梨県,甲府市,山宮町１１８１番地５,,19,201,4000075,,,,,,,2022-02-22,1,,,,,タートル,0
1736,7120001243744,新規,0,2022-02-22,2022-02-22,株式会社ＴＯＫＩ,,株式会社,大阪府,大阪市中央区,千日前１丁目８番１８号,,27,128,5420074,,,,,,,2022-02-22,1,,,,,トキ,0
1737,7120001243926,新規,0,2022-02-22,2022-02-22,株式会社ｅｍｙ,,株式会社,大阪府,大阪市北区,堂島１丁目５－３５堂島レジャービル５階,,27,127,5300003,,,,,,,2022-02-22,1,,,,,エミー,0
1738,7120001243942,新規,0,2022-02-22,2022-02-22,株式会社Ｒ＆Ｅ,,株式会社,大阪府,大阪市港区,磯路２丁目１番３－８０３号,,27,107,5520003,,,,,,,2022-02-22,1,,,,,アールアンドイー,0
1739,7120001243983,新規,0,2022-02-22,2022-02-22,株式会社ＡＣＥ,,株式会社,大阪府,大阪市淀川区,木川東２丁目５－４１Ｋ－２ＥＡＳＴ６０６,,27,123,5320012,,,,,,,2022-02-22,1,,,,,エース,0
1740,7120003021157,新規,0,2022-02-22,2022-02-22,合同会社ソング,,合同会社,大阪府,大阪市平野区,背戸口２丁目３番１８号,,27,126,5470034,,,,,,,2022-02-22,1,,,,,ソング,0
1741,7120003021181,新規,0,2022-02-22,2022-02-22,合同会社ＯＪＲ,,合同会社,大阪府,大阪市天王寺区,上本町７丁目１番１６－２１０２号,,27,109,5430001,,,,,,,2022-02-22,1,,,,,オージェイアール,0
1742,7120005022806,新規,0,2022-02-22,2022-02-22,一般社団法人惣,,その他の設立登記法人,大阪府,大阪市東成区,東小橋１丁目２番１６号,,27,115,5370024,,,,,,,2022-02-22,1,,,,,ソウ,0
1753,7140001124959,新規,0,2022-02-22,2022-02-22,株式会社清和不動産,,株式会社,兵庫県,川西市,緑台３丁目２番地５５,,28,217,6660129,,,,,,,2022-02-22,1,,,,,セイワフドウサン,0
1754,7140001125008,新規,0,2022-02-22,2022-02-22,株式会社ウイングウイングワールド,,株式会社,兵庫県,神戸市中央区,元町通５丁目３番４号,,28,110,6500022,,,,,,,2022-02-22,1,,,,,ウイングウイングワールド,0
1756,7140003017368,新規,0,2022-02-22,2022-02-22,合同会社真堪建設,,合同会社,兵庫県,宝塚市,売布東の町３－１ラムール売布１０４,,28,214,6650867,,,,,,,2022-02-22,1,,,,,シンカンケンセツ,0
1757,7150001025347,新規,0,2022-02-22,2022-02-22,株式会社タイム,,株式会社,奈良県,桜井市,朝倉台西５丁目１０９３番地の１９３,,29,206,6330004,,,,,,,2022-02-22,1,,,,,タイム,0
1758,7160001024001,新規,0,2022-02-22,2022-02-22,株式会社山誠プラスチック,,株式会社,滋賀県,大津市,牧１丁目６番１３号,,25,201,5202112,,,,,,,2022-02-22,1,,,,,サンセイプラスチック,0
1764,7180001150068,新規,0,2022-02-22,2022-02-22,株式会社オンリー・ココ,,株式会社,愛知県,名古屋市北区,落合町１９２番地,,23,103,4620017,,,,,,,2022-02-22,1,,,,,オンリーココ,0
1765,7180001150084,新規,0,2022-02-22,2022-02-22,株式会社ＬＥＡＶＥＳ,,株式会社,愛知県,瀬戸市,品野町４丁目１０３５番地,,23,204,4801207,,,,,,,2022-02-22,1,,,,,リーブス,0
1768,7180003023511,新規,0,2022-02-22,2022-02-22,オフィスアサイ合同会社,,合同会社,愛知県,名古屋市守山区,長栄１９番１３号,,23,113,4630062,,,,,,,2022-02-22,1,,,,,オフィスアサイ,0
1772,7190001029138,新規,0,2022-02-22,2022-02-22,フィジークプラス株式会社,,株式会社,三重県,桑名市,末広町５３番地,,24,205,5110077,,,,,,,2022-02-22,1,,,,,フィジークプラス,0
1781,7220005008638,新規,0,2022-02-22,2022-02-22,一般社団法人ＮＯＴＯＦＵＥ,,その他の設立登記法人,石川県,七尾市,中島町中島八部７７番地,,17,202,9292222,,,,,,,2022-02-22,1,,,,,ノトフュー,0
1784,7240003005511,新規,0,2022-02-22,2022-02-22,合同会社グッドフェローズ,,合同会社,広島県,広島市南区,宇品御幸５丁目８番１７号,,34,103,7340015,,,,,,,2022-02-22,1,,,,,グッドフェローズ,0
1787,7250001019421,新規,0,2022-02-22,2022-02-22,株式会社貢清ライン,,株式会社,山口県,下関市,大和町１丁目６番３－１１０２号,,35,201,7500067,,,,,,,2022-02-22,1,,,,,コウシンライン,0
1796,7270005005498,新規,0,2022-02-22,2022-02-22,皆生温泉灯り協同組合,,その他の設立登記法人,鳥取県,米子市,皆生温泉３丁目１番１号,,31,202,6830001,,,,,,,2022-02-22,1,,,,,カイケオンセンアカリ,0
1799,7290001096515,新規,0,2022-02-22,2022-02-22,株式会社リハフィット,,株式会社,福岡県,福岡市中央区,薬院３丁目３番５号５階,,40,133,8100022,,,,,,,2022-02-22,1,,,,,リハフィット,0
1800,7290003012180,新規,0,2022-02-22,2022-02-22,ＭＴＴ合同会社,,合同会社,福岡県,筑紫野市,二日市中央４丁目１４－８,,40,217,8180072,,,,,,,2022-02-22,1,,,,,エムティーティー,0
1806,7330001029461,新規,0,2022-02-22,2022-02-22,株式会社Ｇ・シュロス,,株式会社,熊本県,菊池郡大津町,美咲野３丁目１１番５号,,43,403,8691237,,,,,,,2022-02-22,1,,,,,ジーシュロス,0
1808,7330003009255,新規,0,2022-02-22,2022-02-22,合同会社インターワーク,,合同会社,熊本県,阿蘇郡南阿蘇村,大字両併１３８番地２,,43,433,8691501,,,,,,,2022-02-22,1,,,,,インターワーク,0
1817,7360001030029,新規,0,2022-02-22,2022-02-22,依夢株式会社,,株式会社,沖縄県,那覇市,字天久１１９６番地１２藤浦通関ビル３階ＳｅａｓｉｄｅＯｆｆｉｃｅ３１６号室,,47,201,9000005,,,,,,,2022-02-22,1,,,,,イモン,0
1820,7370001048235,新規,0,2022-02-22,2022-02-22,株式会社ミカコーポレーション,,株式会社,宮城県,仙台市宮城野区,原町１丁目３－２１コンフォート宮城野ステーションビル,,04,102,9830841,,,,,,,2022-02-22,1,,,,,ミカコーポレーション,0
1823,7380001032592,新規,0,2022-02-22,2022-02-22,株式会社甲斐設計,,株式会社,福島県,郡山市,富田町字矢ノ根石４０番地の３,,07,203,9638041,,,,,,,2022-02-22,1,,,,,カイセッケイ,0
1827,7400003002905,新規,0,2022-02-22,2022-02-22,合同会社ナチュラル・エッセイ,,合同会社,岩手県,二戸郡一戸町,小鳥谷字篠畑４８番地２,,03,524,0285221,,,,,,,2022-02-22,1,,,,,ナチュラルエッセイ,0
1838,7430001086022,新規,0,2022-02-22,2022-02-22,株式会社ＡＩＨ,,株式会社,北海道,滝川市,西町１丁目６番８号,,01,225,0730044,,,,,,,2022-02-22,1,,,,,アイエイチ,0
1839,7430001086030,新規,0,2022-02-22,2022-02-22,松前洋上風力発電株式会社,,株式会社,北海道,札幌市中央区,大通西１丁目１４番地２桂和大通ビル５０－９階,,01,101,0600042,,,,,,,2022-02-22,1,,,,,マツマエヨウジョウフウリョクハツデン,0
1840,7430001086039,新規,0,2022-02-22,2022-02-22,株式会社水電社,,株式会社,北海道,札幌市中央区,南二十三条西１１丁目１番２５号アルファコート南２３条２０２号,,01,101,0640923,,,,,,,2022-02-22,1,,,,,スイデンシャ,0
1842,7450001013619,新規,0,2022-02-22,2022-02-22,グッドワン北海道株式会社,,株式会社,北海道,紋別市,渚滑町７丁目９番地の１０,,01,219,0995171,,,,,,,2022-02-22,1,,,,,グッドワンホッカイドウ,0
1844,7470001018979,新規,0,2022-02-22,2022-02-22,ｉ－Ｌｉｎｋホールディングス株式会社,,株式会社,香川県,高松市,屋島西町２４８７番１２,,37,201,7610113,,,,,,,2022-02-22,1,,,,,アイリンクホールディングス,0
1845,7470003002139,新規,0,2022-02-22,2022-02-22,合同会社ベネフィットマーケティング,,合同会社,香川県,高松市,太田上町９番地４,,37,201,7618074,,,,,,,2022-02-22,1,,,,,ベネフィットマーケティング,0
1851,7500001024016,新規,0,2022-02-22,2022-02-22,写真の時株式会社,,株式会社,愛媛県,松山市,南斎院町１００９番地５,,38,201,7918032,,,,,,,2022-02-22,1,,,,,シャシンノトキ,0
1858,8010001224580,新規,0,2022-02-22,2022-02-22,株式会社Ｖｉｔｉ,,株式会社,東京都,中央区,銀座１丁目２２番１１号銀座大竹ビジデンス２Ｆ,,13,102,1040061,,,,,,,2022-02-22,1,,,,,,0
1859,8010001224696,新規,0,2022-02-22,2022-02-22,株式会社ユナイテッド,,株式会社,東京都,中央区,佃１丁目１１番６－３００９号,,13,102,1040051,,,,,,,2022-02-22,1,,,,,ユナイテッド,0
1860,8010001224738,新規,0,2022-02-22,2022-02-22,株式会社マルハンユナイテッドパートナーズ,,株式会社,東京都,千代田区,丸の内１丁目１１番１号,,13,101,1000005,,,,,,,2022-02-22,1,,,,,マルハンユナイテッドパートナーズ,0
1861,8010003036974,新規,0,2022-02-22,2022-02-22,エスエルインベストメント合同会社,,合同会社,東京都,千代田区,麹町４丁目７番２号,,13,101,1020083,,,,,,,2022-02-22,1,,,,,エスエルインベストメント,0
1869,8010401165664,新規,0,2022-02-22,2022-02-22,株式会社Ａ－Ｄｉｇｉｔａｌ,,株式会社,東京都,港区,愛宕２丁目５番１号,,13,103,1050002,,,,,,,2022-02-22,1,,,,,エーデジタル,0
1870,8010401165697,新規,0,2022-02-22,2022-02-22,株式会社ｍｕ,,株式会社,東京都,港区,南青山２丁目２－１５,,13,103,1070062,,,,,,,2022-02-22,1,,,,,ミユー,0
1871,8010401165706,新規,0,2022-02-22,2022-02-22,株式会社ＮＡＴＳＵＭＥ,,株式会社,東京都,港区,三田１丁目２－１５－１２０２,,13,103,1080073,,,,,,,2022-02-22,1,,,,,ナツメ,0
1875,8010403027103,新規,0,2022-02-22,2022-02-22,Ａｉｖｅｎ　Ｊａｐａｎ合同会社,,合同会社,東京都,港区,元麻布３丁目１番６号,,13,103,1060046,,,,,,,2022-02-22,1,,,,,エイブンジャパン,0
1876,8010403027111,新規,0,2022-02-22,2022-02-22,Ｉ．Ｓ．コンサルティング合同会社,,合同会社,東京都,港区,赤坂２丁目２１番６－４０６号,,13,103,1070052,,,,,,,2022-02-22,1,,,,,アイエスコンサルティング,0
1877,8010403027128,新規,0,2022-02-22,2022-02-22,合同会社筑波山,,合同会社,東京都,港区,北青山１丁目２番３号,,13,103,1070061,,,,,,,2022-02-22,1,,,,,ツクバサン,0
1878,8010405020717,新規,0,2022-02-22,2022-02-22,ダラスホールディング１一般社団法人,,その他の設立登記法人,東京都,港区,虎ノ門３丁目２２番１０－２０１号,,13,103,1050001,,,,,,,2022-02-22,1,,,,,ダラスホールディングワン,0
1879,8010501048463,新規,0,2022-02-22,2022-02-22,心享勢成株式会社,,株式会社,東京都,台東区,浅草橋１丁目２５－７シティコープ浅草橋２０２,,13,106,1110053,,,,,,,2022-02-22,1,,,,,シンキョウイセイ,0
1880,8010503006510,新規,0,2022-02-22,2022-02-22,川田合同会社,,合同会社,東京都,台東区,松が谷２丁目５－２グランデール上野２０４,,13,106,1110036,,,,,,,2022-02-22,1,,,,,カワタ,0
1886,8010601060707,新規,0,2022-02-22,2022-02-22,あずま設計株式会社,,株式会社,東京都,墨田区,立花６丁目２０番１４号,,13,107,1310043,,,,,,,2022-02-22,1,,,,,アズマセッケイ,0
1887,8010601060715,新規,0,2022-02-22,2022-02-22,株式会社楽陽邦,,株式会社,東京都,墨田区,京島１丁目１－１イーストコア曳舟一番館Ａ１０５,,13,107,1310046,,,,,,,2022-02-22,1,,,,,ラクヨウホウ,0
1888,8010601060723,新規,0,2022-02-22,2022-02-22,株式会社金地興業,,株式会社,東京都,江東区,亀戸５丁目４３番１３号,,13,108,1360071,,,,,,,2022-02-22,1,,,,,キンジコウギョウ,0
1889,8010603009405,新規,0,2022-02-22,2022-02-22,合同会社筑棠,,合同会社,東京都,江東区,豊洲２丁目５番１号,,13,108,1350061,,,,,,,2022-02-22,1,,,,,チクドウ,0
1890,8010701042258,新規,0,2022-02-22,2022-02-22,株式会社ご・ひいき,,株式会社,東京都,品川区,西大井６丁目１５番４号,,13,109,1400015,,,,,,,2022-02-22,1,,,,,ゴヒイキ,0
1891,8010801032753,新規,0,2022-02-22,2022-02-22,株式会社クレム,,株式会社,東京都,大田区,久が原２丁目１３番３－３０３号,,13,111,1460085,,,,,,,2022-02-22,1,,,,,クレム,0
1892,8010803004065,新規,0,2022-02-22,2022-02-22,青希合同会社,,合同会社,東京都,大田区,大森西４丁目１５番８－４０２号,,13,111,1430015,,,,,,,2022-02-22,1,,,,,アオキ,0
1894,8010901050390,新規,0,2022-02-22,2022-02-22,ハルコーポレーション株式会社,,株式会社,東京都,世田谷区,玉川１丁目１５番２－６０８号,,13,112,1580094,,,,,,,2022-02-22,1,,,,,,0
1898,8011001145651,新規,0,2022-02-22,2022-02-22,ダヴィンチパートナーズ株式会社,,株式会社,東京都,渋谷区,桜丘町２６－１セルリアンタワー１５階,,13,113,1500031,,,,,,,2022-02-22,1,,,,,ダヴィンチパートナーズ,0
1899,8011001145759,新規,0,2022-02-22,2022-02-22,株式会社Ｃｏｎｎｅｃｔｉｏｎ　Ｓｕｐｐｏｒｔ,,株式会社,東京都,渋谷区,神宮前６丁目２３番４桑野ビル２Ｆ,,13,113,1500001,,,,,,,2022-02-22,1,,,,,コネクションサポート,0
1900,8011001145817,新規,0,2022-02-22,2022-02-22,株式会社清弘工務店,,株式会社,東京都,目黒区,自由が丘１丁目２４－６ＧＲＯＶＥビル４０１,,13,110,1520035,,,,,,,2022-02-22,1,,,,,キヨヒロコウムテン,0
1901,8011003014193,新規,0,2022-02-22,2022-02-22,Ｙｏｈａｋｕ　Ｃｏｎｓｕｌｔｉｎｇ合同会社,,合同会社,東京都,渋谷区,道玄坂１丁目１０番８号渋谷道玄坂東急ビル２Ｆ－Ｃ,,13,113,1500043,,,,,,,2022-02-22,1,,,,,ヨハクコンサルティング,0
1904,8011101097875,新規,0,2022-02-22,2022-02-22,株式会社アトリエスーツ,,株式会社,東京都,新宿区,西新宿７丁目３番５号ピアットワンビル２０１号室,,13,104,1600023,,,,,,,2022-02-22,1,,,,,アトリエスーツ,0
1905,8011105010140,新規,0,2022-02-22,2022-02-22,一般社団法人国歌の輪,,その他の設立登記法人,東京都,新宿区,赤城下町７０番地ハイコート・フジ１０１,,13,104,1620803,,,,,,,2022-02-22,1,,,,,コッカノワ,0
1908,8011401024042,新規,0,2022-02-22,2022-02-22,株式会社翼勇,,株式会社,東京都,板橋区,徳丸６丁目４４番１号,,13,119,1750083,,,,,,,2022-02-22,1,,,,,ヨクユウ,0
1910,8011405002184,新規,0,2022-02-22,2022-02-22,一般社団法人ソーシャルリンク,,その他の設立登記法人,東京都,板橋区,常盤台１丁目１７番１６号,,13,119,1740071,,,,,,,2022-02-22,1,,,,,ソーシャルリンク,0
1912,8011501027779,新規,0,2022-02-22,2022-02-22,ＯＭ　ＳＨＩＶＡ株式会社,,株式会社,東京都,荒川区,東尾久４丁目１１番１６－９０２号,,13,118,1160012,,,,,,,2022-02-22,1,,,,,オンシバ,0
1913,8011701025070,新規,0,2022-02-22,2022-02-22,株式会社オキナ工業,,株式会社,東京都,江戸川区,興宮町３３番１４号,,13,123,1330042,,,,,,,2022-02-22,1,,,,,オキナコウギョウ,0
1927,8020001145280,新規,0,2022-02-22,2022-02-22,ワイズアセットトラスト株式会社,,株式会社,神奈川県,横浜市青葉区,藤が丘２丁目１６番地１８,,14,117,2270043,,,,,,,2022-02-22,1,,,,,ワイズアセットトラスト,0
1928,8020001145297,新規,0,2022-02-22,2022-02-22,株式会社アリタワークス,,株式会社,神奈川県,横浜市神奈川区,羽沢町１３９７番地,,14,102,2210863,,,,,,,2022-02-22,1,,,,,アリタワークス,0
1929,8020001145314,新規,0,2022-02-22,2022-02-22,窓一株式会社,,株式会社,神奈川県,川崎市幸区,南加瀬１丁目４番３３－３０７号,,14,132,2120055,,,,,,,2022-02-22,1,,,,,マドイチ,0
1941,8021001075179,新規,0,2022-02-22,2022-02-22,株式会社Ｆｉｌｅｒ,,株式会社,神奈川県,小田原市,飯泉２１６番地の１サンロード紅沢Ａ１０２,,14,206,2500863,,,,,,,2022-02-22,1,,,,,フィレール,0
1942,8021001075220,新規,0,2022-02-22,2022-02-22,株式会社Ｓ．ＬＩＮＥ,,株式会社,神奈川県,相模原市緑区,下九沢２６１２番地４,,14,151,2520134,,,,,,,2022-02-22,1,,,,,エスライン,0
1943,8021001075229,新規,0,2022-02-22,2022-02-22,株式会社ＳＫＹＣホールディングス,,株式会社,神奈川県,相模原市南区,相模大野３丁目１５番１７号５階,,14,153,2520303,,,,,,,2022-02-22,1,,,,,スカイシーホールディングス,0
1951,8030001146872,新規,0,2022-02-22,2022-02-22,Ｋ’Ｓ株式会社,,株式会社,埼玉県,三郷市,仁蔵２８３番地,,11,237,3410023,,,,,,,2022-02-22,1,,,,,ケーズ,0
1952,8030001146889,新規,0,2022-02-22,2022-02-22,株式会社マルミコーポレーション,,株式会社,埼玉県,川越市,菅原町１９番地４,,11,201,3500046,,,,,,,2022-02-22,1,,,,,マルミコーポレーション,0
1953,8030001146906,新規,0,2022-02-22,2022-02-22,株式会社グレートブリテン,,株式会社,埼玉県,朝霞市,栄町３丁目８番３５号,,11,227,3510012,,,,,,,2022-02-22,1,,,,,グレートブリテン,0
1954,8030001146930,新規,0,2022-02-22,2022-02-22,株式会社ＫＩＣＨＩＤＥＮ,,株式会社,埼玉県,川越市,大字砂７１６番地１８,,11,201,3501133,,,,,,,2022-02-22,1,,,,,キチデン,0
1955,8030001146939,新規,0,2022-02-22,2022-02-22,株式会社ＫＡＳＥＴＵＹＡ,,株式会社,埼玉県,ふじみ野市,駒林７９１番地５,,11,245,3560034,,,,,,,2022-02-22,1,,,,,カセツヤ,0
1963,8030003018888,新規,0,2022-02-22,2022-02-22,リープトレード合同会社,,合同会社,埼玉県,さいたま市大宮区,桜木町１丁目２６６番３号,,11,103,3300854,,,,,,,2022-02-22,1,,,,,リープトレード,0
1969,8040003019514,新規,0,2022-02-22,2022-02-22,合同会社ＺＩＩＬＬ,,合同会社,千葉県,市原市,中２８８番地２８,,12,219,2900226,,,,,,,2022-02-22,1,,,,,ジール,0
1971,8050001050627,新規,0,2022-02-22,2022-02-22,株式会社キボウノヒカリ,,株式会社,茨城県,つくば市,高見原３丁目３番地６,,08,220,3001252,,,,,,,2022-02-22,1,,,,,キボウノヒカリ,0
1974,8070001038959,新規,0,2022-02-22,2022-02-22,株式会社ハウスエステ,,株式会社,群馬県,邑楽郡明和町,梅原１００４番地１,,10,522,3700714,,,,,,,2022-02-22,1,,,,,ハウスエステ,0
1979,8080101023109,新規,0,2022-02-22,2022-02-22,株式会社テイル,,株式会社,静岡県,伊東市,富戸９３９番地の７,,22,208,4130231,,,,,,,2022-02-22,1,,,,,テイル,0
1981,8080103002531,新規,0,2022-02-22,2022-02-22,合同会社リライド,,合同会社,静岡県,富士宮市,大中里７９１番地の１９,,22,207,4180044,,,,,,,2022-02-22,1,,,,,リライド,0
2002,8120001243925,新規,0,2022-02-22,2022-02-22,株式会社テェール,,株式会社,大阪府,大阪市西区,九条南１丁目９番５－３０６号,,27,106,5500025,,,,,,,2022-02-22,1,,,,,テール,0
2003,8120001243933,新規,0,2022-02-22,2022-02-22,株式会社Ｇｏｏｄ,,株式会社,大阪府,大阪市生野区,巽東２丁目１１番３１号,00125762,27,116,5440014,,,,,,,2022-02-22,1,,,,,グッド,0
2004,8120003021180,新規,0,2022-02-22,2022-02-22,ホット・パイロット合同会社,,合同会社,大阪府,大阪市中央区,平野町２丁目３番７号アーバンエース北浜ビル１階,,27,128,5410046,,,,,,,2022-02-22,1,,,,,ホットパイロット,0
2008,8120005022805,新規,0,2022-02-22,2022-02-22,行政書士法人ＳＵＮ,,その他の設立登記法人,大阪府,大阪市淀川区,東三国４丁目１２番７号,,27,123,5320002,,,,,,,2022-02-22,1,,,,,サン,0
2011,8120101065105,新規,0,2022-02-22,2022-02-22,株式会社ワイ・エス・エス,,株式会社,大阪府,羽曳野市,野２７３,,27,222,5830884,,,,,,,2022-02-22,1,,,,,ワイエスエス,0
2021,8122003002276,新規,0,2022-02-22,2022-02-22,合同会社ライズ,,合同会社,大阪府,東大阪市,稲葉２丁目５番４号,,27,227,5780925,,,,,,,2022-02-22,1,,,,,ライズ,0
2022,8130001071185,新規,0,2022-02-22,2022-02-22,天馬貿易株式会社,,株式会社,京都府,京都市伏見区,深草大亀谷古御香町１１１番地２,,26,109,6120843,,,,,,,2022-02-22,1,,,,,テンマボウエキ,0
2028,8140001124958,新規,0,2022-02-22,2022-02-22,株式会社小西設計事務所,,株式会社,兵庫県,姫路市,勝原区宮田７番地４,,28,201,6711213,,,,,,,2022-02-22,1,,,,,コニシセッケイジムショ,0
2030,8140003017375,新規,0,2022-02-22,2022-02-22,合同会社アイシープランニング,,合同会社,兵庫県,尼崎市,昭和通４丁目１２４番地,,28,202,6600881,,,,,,,2022-02-22,1,,,,,アイシープランニング,0
2031,8150003002624,新規,0,2022-02-22,2022-02-22,合同会社福笑,,合同会社,奈良県,奈良市,四条大路１丁目４番５２－３１３号,,29,201,6308014,,,,,,,2022-02-22,1,,,,,フクショウ,0
2036,8170001016979,新規,0,2022-02-22,2022-02-22,丸陽組株式会社,,株式会社,和歌山県,有田郡有田川町,大字庄６７８番地３,,30,366,6430811,,,,,,,2022-02-22,1,,,,,マルヨウグミ,0
2042,8180001150034,新規,0,2022-02-22,2022-02-22,株式会社ＷＡＫＥＡ,,株式会社,愛知県,名古屋市昭和区,御器所２丁目１番１号,,23,107,4660051,,,,,,,2022-02-22,1,,,,,ワケア,0
2043,8180001150042,新規,0,2022-02-22,2022-02-22,株式会社ＡＣＴＩＶＥ,,株式会社,愛知県,小牧市,大字大草２２２４番地１０,,23,219,4850802,,,,,,,2022-02-22,1,,,,,アクティブ,0
2044,8180001150050,新規,0,2022-02-22,2022-02-22,株式会社ベリース,,株式会社,愛知県,江南市,赤童子町大間１７２番地８,,23,217,4838226,,,,,,,2022-02-22,1,,,,,ベリース,0
2045,8180001150059,新規,0,2022-02-22,2022-02-22,株式会社イボーナ,,株式会社,愛知県,名古屋市西区,枇杷島３丁目２６番１１号,,23,104,4510053,,,,,,,2022-02-22,1,,,,,イボーナ,0
2046,8180001150067,新規,0,2022-02-22,2022-02-22,株式会社エムズ,,株式会社,愛知県,あま市,甚目寺流４２番地１,,23,237,4901111,,,,,,,2022-02-22,1,,,,,エムズ,0
2047,8180001150075,新規,0,2022-02-22,2022-02-22,株式会社ＷＡＯ　ＬＩＦ,,株式会社,愛知県,名古屋市名東区,本郷２丁目１２７番地,,23,115,4650024,,,,,,,2022-02-22,1,,,,,ワオウリフ,0
2048,8180001150083,新規,0,2022-02-22,2022-02-22,株式会社Ｓｏｒｃｉｅｒｅ,,株式会社,愛知県,名古屋市東区,泉１丁目４－２パレスサイド泉３０３号室,,23,102,4610001,,,,,,,2022-02-22,1,,,,,ソルシエール,0
2051,8180003023519,新規,0,2022-02-22,2022-02-22,ＢＯＲＤＥＲＬＥＳＳ合同会社,,合同会社,愛知県,名古屋市千種区,桜が丘５０番地２Ｆ,,23,101,4640025,,,,,,,2022-02-22,1,,,,,ボーダーレス,0
2057,8220003003219,新規,0,2022-02-22,2022-02-22,合同会社ＮＯＵＫＩ,,合同会社,石川県,河北郡津幡町,字庄ト１２番地８,,17,361,9290327,,,,,,,2022-02-22,1,,,,,ノウキ,0
2059,8240001059368,新規,0,2022-02-22,2022-02-22,株式会社エムシード,,株式会社,広島県,福山市,加茂町大字下加茂１２０７番地２,,34,207,7202412,,,,,,,2022-02-22,1,,,,,エムシード,0
2060,8240005015334,新規,0,2022-02-22,2022-02-22,医療法人社団よつ葉会,,その他の設立登記法人,広島県,広島市安佐南区,祇園２丁目１１番１６号,,34,105,7310138,,,,,,,2022-02-22,1,,,,,ヨツバカイ,0
2064,8250001019420,新規,0,2022-02-22,2022-02-22,株式会社ＡｒｕＨａｎｄｙ,,株式会社,山口県,下関市,熊野町２丁目２番２２号,,35,201,7510852,,,,,,,2022-02-22,1,,,,,アルハンディー,0
2069,8290001096514,新規,0,2022-02-22,2022-02-22,株式会社ＺＯＮＥ‐ＴＥＣＨ,,株式会社,福岡県,春日市,春日公園８丁目１９番地１ウインザー春日公園６０５号,,40,218,8160811,,,,,,,2022-02-22,1,,,,,ゾーンテック,0
2072,8290801028278,新規,0,2022-02-22,2022-02-22,株式会社花のいわさき,,株式会社,福岡県,北九州市小倉北区,片野４丁目１６番１号,,40,106,8020064,,,,,,,2022-02-22,1,,,,,ハナノイワサキ,0
2073,8300001012816,新規,0,2022-02-22,2022-02-22,株式会社ウィステリア,,株式会社,佐賀県,唐津市,藤崎通６９１３番地２,,41,202,8470874,,,,,,,2022-02-22,1,,,,,ウィステリア,0
2078,8310003004281,新規,0,2022-02-22,2022-02-22,合同会社ＬＭＳ,,合同会社,長崎県,長崎市,銀屋町４番２２号シティ奥山７０１,,42,201,8500854,,,,,,,2022-02-22,1,,,,,エルエムエス,0
2079,8310005008586,新規,0,2022-02-22,2022-02-22,医療法人琉櫻会,,その他の設立登記法人,長崎県,長崎市,東町１９１８番地２,,42,201,8510116,,,,,,,2022-02-22,1,,,,,リュウオウカイ,0
2083,8340001024502,新規,0,2022-02-22,2022-02-22,株式会社鹿児島土地建物,,株式会社,鹿児島県,鹿児島市,真砂町３３番２０号誠ビル２Ｆ,,46,201,8900066,,,,,,,2022-02-22,1,,,,,カゴシマトチタテモノ,0
2086,8360001030028,新規,0,2022-02-22,2022-02-22,株式会社エムズホールディングス,,株式会社,沖縄県,石垣市,美崎町１２番地３,,47,207,9070012,,,,,,,2022-02-22,1,,,,,エムズホールディングス,0
2088,8360003011819,新規,0,2022-02-22,2022-02-22,合同会社華さん,,合同会社,沖縄県,宜野湾市,志真志３丁目７番２号グリーンビューＡ２０４,,47,205,9012213,,,,,,,2022-02-22,1,,,,,ハナサン,0
2101,8390001016791,新規,0,2022-02-22,2022-02-22,株式会社岡崎総合保険,,株式会社,山形県,西置賜郡白鷹町,大字菖蒲１４７６番地の１,,06,402,9920863,,,,,,,2022-02-22,1,,,,,オカザキソウゴウホケン,0
2102,8390005008942,新規,0,2022-02-22,2022-02-22,農事組合法人クオーレ・ドーロ,,その他の設立登記法人,山形県,東置賜郡高畠町,大字馬頭２４７番地,,06,381,9920264,,,,,,,2022-02-22,1,,,,,クオーレドーロ,0
2105,8420003002464,新規,0,2022-02-22,2022-02-22,合同会社貝鮮,,合同会社,青森県,むつ市,南町１０－４５,,02,208,0350046,,,,,,,2022-02-22,1,,,,,カイセン,0
2108,8430003013642,新規,0,2022-02-22,2022-02-22,岩宇洋上風力発電合同会社,,合同会社,北海道,札幌市中央区,大通西１丁目１４番地２桂和大通ビル５０－９階,,01,101,0600042,,,,,,,2022-02-22,1,,,,,ガンウヨウジョウフウリョクハツデン,0
2109,8430005014399,新規,0,2022-02-22,2022-02-22,行政書士法人高橋事務所,,その他の設立登記法人,北海道,室蘭市,海岸町３丁目３番６号,,01,205,0510022,,,,,,,2022-02-22,1,,,,,タカハシジムショ,0
2125,9010001224670,新規,0,2022-02-22,2022-02-22,株式会社Ｒｅａｌｒｉｓｅ,,株式会社,東京都,中央区,新富２丁目５番２号増田ビル２Ｆ,,13,102,1040041,,,,,,,2022-02-22,1,,,,,リアライズ,0
2126,9010001224704,新規,0,2022-02-22,2022-02-22,アコーステックウインドウ株式会社,,株式会社,東京都,文京区,大塚１丁目８番４－５０４号,,13,105,1120012,,,,,,,2022-02-22,1,,,,,アコーステックウインドウ,0
2127,9010001224712,新規,0,2022-02-22,2022-02-22,株式会社ＰＱＣ　Ｊａｐａｎ,,株式会社,東京都,中央区,日本橋人形町１丁目１１番１２号リガーレ日本橋人形町ＡＮＮＥＸ３０３,,13,102,1030013,,,,,,,2022-02-22,1,,,,,ピーキューシージャパン,0
2128,9010001224737,新規,0,2022-02-22,2022-02-22,株式会社アクセラレート,,株式会社,東京都,文京区,本駒込５丁目３１番３号,,13,105,1130021,,,,,,,2022-02-22,1,,,,,アクセラレート,0
2129,9010001224753,新規,0,2022-02-22,2022-02-22,株式会社キャリアンサンブル,,株式会社,東京都,中央区,月島１丁目８番１－８１１号,,13,102,1040052,,,,,,,2022-02-22,1,,,,,キャリアンサンブル,0
2130,9010003036973,新規,0,2022-02-22,2022-02-22,アイジーインベストメント合同会社,,合同会社,東京都,千代田区,麹町４丁目７番２号,,13,101,1020083,,,,,,,2022-02-22,1,,,,,アイジーインベストメント,0
2131,9010003037039,新規,0,2022-02-22,2022-02-22,合同会社Ｅｍｂａｒｋ,,合同会社,東京都,千代田区,六番町６番４号,,13,101,1020085,,,,,,,2022-02-22,1,,,,,イーエムバーク,0
2132,9010003037055,新規,0,2022-02-22,2022-02-22,ＹＭＫ　Ｔｏｋｙｏ　Ａｓｓｅｔ　Ｍａｎａｇｅｍｅｎｔ合同会社,,合同会社,東京都,中央区,日本橋馬喰町２丁目７番１５号パークレックス日本橋馬喰町ビル３Ｆ,,13,102,1030002,,,,,,,2022-02-22,1,,,,,ワイエムケートーキョーアセットマネジメント,0
2137,9010401165663,新規,0,2022-02-22,2022-02-22,株式会社Ｏｆｆｉｃｅ　ＴＳＹ,,株式会社,東京都,港区,浜松町２丁目２番１５号,,13,103,1050013,,,,,,,2022-02-22,1,,,,,オフィスティーエスワイ,0
2138,9010401165705,新規,0,2022-02-22,2022-02-22,グランリデル株式会社,,株式会社,東京都,港区,北青山２丁目７番１３号プラセオ青山ビル３Ｆ,,13,103,1070061,,,,,,,2022-02-22,1,,,,,グランリデル,0
2139,9010401165713,新規,0,2022-02-22,2022-02-22,株式会社ＬＩＦＥ,,株式会社,東京都,港区,東新橋１丁目１０番１－２７０３号,,13,103,1050021,,,,,,,2022-02-22,1,,,,,ライフ,0
2140,9010401165738,新規,0,2022-02-22,2022-02-22,株式会社Ｗｏｎｄｅｒｌａｂｏ,,株式会社,東京都,港区,芝４丁目１６番１号カテリーナ三田ウエストアーク４０５,,13,103,1080014,,,,,,,2022-02-22,1,,,,,ワンダーラボ,0
2143,9010403027127,新規,0,2022-02-22,2022-02-22,合同会社Ｃｈａｒｍｅｒ,,合同会社,東京都,港区,南青山１丁目２０－１２ＲＢＴ,,13,103,1070062,,,,,,,2022-02-22,1,,,,,シャルメ,0
2144,9010403027135,新規,0,2022-02-22,2022-02-22,隆盛合同会社,00125778,合同会社,東京都,港区,三田３丁目３－２豊田ビル１Ｆ,,13,103,1080073,,,,,,,2022-02-22,1,,,,,リュウセイ,0
2145,9010405020716,新規,0,2022-02-22,2022-02-22,一般社団法人科学と金融による未来創造イニシアティブ,,その他の設立登記法人,東京都,港区,六本木２丁目２番７号,,13,103,1060032,,,,,,,2022-02-22,1,,,,,カガクトキンユウニヨルミライソウゾウイニシアティブ,0
2147,9010501048495,新規,0,2022-02-22,2022-02-22,株式会社ＵＰメンテナンス,,株式会社,東京都,台東区,上野２丁目１１番１３号,,13,106,1100005,,,,,,,2022-02-22,1,,,,,アップメンテナンス,0
2155,9010703006128,新規,0,2022-02-22,2022-02-22,合同会社ＤＲＥＡＭ,,合同会社,東京都,品川区,上大崎１丁目３番１１号２０１,,13,109,1410021,,,,,,,2022-02-22,1,,,,,ドリーム,0
2157,9010801032752,新規,0,2022-02-22,2022-02-22,えほんインク株式会社,,株式会社,東京都,大田区,南久が原２丁目５番１０号,,13,111,1460084,,,,,,,2022-02-22,1,,,,,エホンインク,0
2174,9011001145626,新規,0,2022-02-22,2022-02-22,株式会社ｃｕｅｎｔｏ,,株式会社,東京都,渋谷区,渋谷２丁目２－１７ＴｒａｎｃｅＷＯＲＫＳ青山ビル３Ｆ,,13,113,1500002,,,,,,,2022-02-22,1,,,,,クエント,0
2175,9011001145865,新規,0,2022-02-22,2022-02-22,プリズーム株式会社,,株式会社,東京都,渋谷区,東４丁目９番１３号,,13,113,1500011,,,,,,,2022-02-22,1,,,,,プリズーム,0
2182,9011101097800,新規,0,2022-02-22,2022-02-22,株式会社ＳＢＳ,,株式会社,東京都,新宿区,西新宿５丁目５番１－５８０６号,,13,104,1600023,,,,,,,2022-02-22,1,,,,,エスビーエス,0
2183,9011105010148,新規,0,2022-02-22,2022-02-22,一般社団法人Ｍｏｒｅ　Ｆｒｅｅｌｙ,,その他の設立登記法人,東京都,新宿区,西新宿７丁目５－５－３０９,,13,104,1600023,,,,,,,2022-02-22,1,,,,,モアフリーリー,0
2185,9011201023664,新規,0,2022-02-22,2022-02-22,株式会社アイズ,,株式会社,東京都,中野区,新井１丁目１番１６号,,13,114,1650026,,,,,,,2022-02-22,1,,,,,アイズ,0
2187,9011301027565,新規,0,2022-02-22,2022-02-22,株式会社ＭＩＮＴ,,株式会社,東京都,杉並区,堀ノ内３丁目１９番２号,,13,115,1660013,,,,,,,2022-02-22,1,,,,,ミント,0
2188,9011401024041,新規,0,2022-02-22,2022-02-22,株式会社ミライノミスミ,,株式会社,東京都,板橋区,若木３丁目１１番２－２０２号,,13,119,1740065,,,,,,,2022-02-22,1,,,,,ミライノミスミ,0
2190,9011501027778,新規,0,2022-02-22,2022-02-22,株式会社ＨＡＬ,,株式会社,東京都,北区,田端５丁目６－１４,,13,117,1140014,,,,,,,2022-02-22,1,,,,,ハル,0
2191,9011601025756,新規,0,2022-02-22,2022-02-22,株式会社グランツ,,株式会社,東京都,練馬区,旭丘２丁目２９番６－２０２号,,13,120,1760005,,,,,,,2022-02-22,1,,,,,グランツ,0
2197,9012401038873,新規,0,2022-02-22,2022-02-22,株式会社ＵＰ,,株式会社,東京都,調布市,緑ケ丘２丁目５９番地１１,,13,208,1820001,,,,,,,2022-02-22,1,,,,,アップ,0
2212,9020001145288,新規,0,2022-02-22,2022-02-22,株式会社Ｗｉｎ,,株式会社,神奈川県,横浜市港北区,綱島西１丁目１３番３号,,14,109,2230053,,,,,,,2022-02-22,1,,,,,ウイン,0
2213,9020001145338,新規,0,2022-02-22,2022-02-22,株式会社ステイドリーム,,株式会社,神奈川県,横浜市旭区,白根７丁目１５番６号ライフしらね１０２,,14,112,2410005,,,,,,,2022-02-22,1,,,,,ステイドリーム,0
2231,9030001146707,新規,0,2022-02-22,2022-02-22,株式会社Ｐｏｔａｔｏ,,株式会社,埼玉県,深谷市,黒田１２０２番地,,11,218,3691244,,,,,,,2022-02-22,1,,,,,ポテト,0
2232,9030001146871,新規,0,2022-02-22,2022-02-22,株式会社エムズリボルバー,,株式会社,埼玉県,川口市,元郷２丁目１５番２－２９０５号エルザタワー３２,,11,203,3320011,,,,,,,2022-02-22,1,,,,,エムズリボルバー,0
2233,9030001146896,新規,0,2022-02-22,2022-02-22,株式会社おんだ塗装,,株式会社,埼玉県,大里郡寄居町,大字末野１２５２番地２,,11,408,3691205,,,,,,,2022-02-22,1,,,,,オンダトソウ,0
2234,9030001146905,新規,0,2022-02-22,2022-02-22,ＡＳＴ株式会社,,株式会社,埼玉県,熊谷市,原島１３０２番地,,11,202,3600811,,,,,,,2022-02-22,1,,,,,エーエスティー,0
2235,9030001146913,新規,0,2022-02-22,2022-02-22,株式会社Ｎ－ｓｔａｇｅ,,株式会社,埼玉県,加須市,久下６丁目６番地９,,11,210,3470063,,,,,,,2022-02-22,1,,,,,エヌステージ,0
2240,9040001122327,新規,0,2022-02-22,2022-02-22,株式会社プルメリスタ,,株式会社,千葉県,松戸市,新松戸２丁目１６ハクアイビル５０１,,12,207,2700034,,,,,,,2022-02-22,1,,,,,プルメリスタ,0
2243,9050001050659,新規,0,2022-02-22,2022-02-22,株式会社共進エンタープライズ,,株式会社,茨城県,つくば市,谷田部１１１２番地１（陣場Ｆ５６街区７）,,08,220,3050861,,,,,,,2022-02-22,1,,,,,キョウシンエンタープライズ,0
2244,9050001050675,新規,0,2022-02-22,2022-02-22,株式会社ジャン,,株式会社,茨城県,常総市,水海道本町字新町２６１２番地３,,08,211,3030026,,,,,,,2022-02-22,1,,,,,ジャン,0
2247,9050003006386,新規,0,2022-02-22,2022-02-22,合同会社ＭＡＲＩＡＬＩＴＥ,,合同会社,茨城県,土浦市,大和町１番６－１００７号アネージュ土浦グランミッド,,08,203,3000036,,,,,,,2022-02-22,1,,,,,マリアライト,0
2253,9070001038958,新規,0,2022-02-22,2022-02-22,株式会社ＧＬＳ,,株式会社,群馬県,伊勢崎市,富塚町２７６番地１５カメイハイツ１０５,,10,204,3720833,,,,,,,2022-02-22,1,,,,,ジーエルエス,0
2254,9070001038966,新規,0,2022-02-22,2022-02-22,株式会社プレジャーワークス,,株式会社,群馬県,太田市,新田市野井町６３９番地１,,10,205,3700314,,,,,,,2022-02-22,1,,,,,プレジャーワークス,0
2256,9080001024775,新規,0,2022-02-22,2022-02-22,株式会社ＫＯＩＺＵＭＩ,,株式会社,静岡県,静岡市葵区,常磐町２丁目１２番地の４タウンコート常磐町２０Ａ,,22,101,4200034,,,,,,,2022-02-22,1,,,,,コイズミ,0
2259,9080101023099,新規,0,2022-02-22,2022-02-22,株式会社ＭＣプロダクト,,株式会社,静岡県,富士市,大淵３０４０番地の４０,,22,210,4170801,,,,,,,2022-02-22,1,,,,,エムシープロダクト,0
2260,9100001035043,新規,0,2022-02-22,2022-02-22,株式会社まるため,,株式会社,長野県,長野市,南千歳１丁目３番地５,,20,201,3800823,,,,,,,2022-02-22,1,,,,,マルタメ,0
2261,9100001035084,新規,0,2022-02-22,2022-02-22,株式会社軽井沢総合研究所,,株式会社,長野県,北佐久郡軽井沢町,軽井沢１０６７－９,,20,321,3890103,,,,,,,2022-02-22,1,,,,,カルイザワソウゴウケンキュウジョ,0
2281,9120001243916,新規,0,2022-02-22,2022-02-22,株式会社パーソナルレコードアナリティクス,,株式会社,大阪府,大阪市中央区,谷町２丁目７番４号,,27,128,5400012,,,,,,,2022-02-22,1,,,,,パーソナルレコードアナリティクス,0
2282,9120001243924,新規,0,2022-02-22,2022-02-22,株式会社ｔｈｅｒｏｃｋ,,株式会社,大阪府,大阪市浪速区,幸町３丁目２番２９号,,27,111,5560021,,,,,,,2022-02-22,1,,,,,ザロック,0
2283,9120001243957,新規,0,2022-02-22,2022-02-22,ベルケア株式会社,,株式会社,大阪府,大阪市平野区,瓜破１丁目１番１１－１２０９号,,27,126,5470024,,,,,,,2022-02-22,1,,,,,ベルケア,0
2284,9120001243973,新規,0,2022-02-22,2022-02-22,株式会社ＶＯＮＩＱＵＥ,,株式会社,大阪府,大阪市西区,南堀江１丁目１０番１１号西谷ビル本館,,27,106,5500015,,,,,,,2022-02-22,1,,,,,ヴォニーク,0
2285,9120003021171,新規,0,2022-02-22,2022-02-22,合同会社ルアナ,,合同会社,大阪府,大阪市淀川区,東中島一丁目９番２１号,,27,123,5320000,,,,,,,2022-02-22,1,,,,,ルアナ,0
2292,9120101065104,新規,0,2022-02-22,2022-02-22,株式会社結こころ,,株式会社,大阪府,河内長野市,南ケ丘３３番８号,,27,216,5860065,,,,,,,2022-02-22,1,,,,,ユイココロ,0
2293,9120105009528,新規,0,2022-02-22,2022-02-22,特定非営利活動法人チャイルドラインとんだばやし,,その他の設立登記法人,大阪府,富田林市,若松町２丁目３番２号太陽ビル３０３号室,,27,214,5840024,,,,,,,2022-02-22,1,,,,,チャイルドライントンダバヤシ,0
2295,9120903004044,新規,0,2022-02-22,2022-02-22,合同会社ほのか,,合同会社,大阪府,吹田市,山田西４丁目１３番１－４１３号,,27,205,5650824,,,,,,,2022-02-22,1,,,,,ホノカ,0
2299,9130003007764,新規,0,2022-02-22,2022-02-22,Ｋ２Ｒ合同会社,,合同会社,京都府,京都市西京区,上桂宮ノ後町５２番地３,,26,111,6158227,,,,,,,2022-02-22,1,,,,,ケーツーアール,0
2307,9140001124957,新規,0,2022-02-22,2022-02-22,株式会社ティーズケア,,株式会社,兵庫県,尼崎市,久々知西町１丁目１０番１７号,,28,202,6610978,,,,,,,2022-02-22,1,,,,,ティーズケア,0
2308,9140001124981,新規,0,2022-02-22,2022-02-22,株式会社ＭＯＮＯｓｔｙｌｅ,,株式会社,兵庫県,姫路市,飾磨区英賀甲１９５８番地４１,,28,201,6728078,,,,,,,2022-02-22,1,,,,,モノスタイル,0
2315,9140003017358,新規,0,2022-02-22,2022-02-22,但馬訪問看護合同会社,,合同会社,兵庫県,豊岡市,若松町１２番２９号Ｋ＆Ｋビル３階,,28,209,6680027,,,,,,,2022-02-22,1,,,,,タジマホウモンカンゴ,0
2317,9150001025345,新規,0,2022-02-22,2022-02-22,株式会社小島建工,,株式会社,奈良県,大和郡山市,北西町３１番地１０２,,29,203,6391025,,,,,,,2022-02-22,1,,,,,コジマケンコウ,0
2326,9180001150058,新規,0,2022-02-22,2022-02-22,株式会社虹のひかり,,株式会社,愛知県,一宮市,真清田２丁目４番１９号,,23,203,4910043,,,,,,,2022-02-22,1,,,,,ニジノヒカリ,0
2327,9180001150082,新規,0,2022-02-22,2022-02-22,株式会社オクタグラム,,株式会社,愛知県,名古屋市昭和区,萩原町４丁目３番地の４,,23,107,4660852,,,,,,,2022-02-22,1,,,,,オクタグラム,0
2328,9180001150090,新規,0,2022-02-22,2022-02-22,株式会社ｋｉｎｔｏｏ,,株式会社,愛知県,名古屋市千種区,振甫町３丁目３６－１アルバックス覚王山ブランシェ２０６号,,23,101,4640072,,,,,,,2022-02-22,1,,,,,キントオ,0
2330,9180005019646,新規,0,2022-02-22,2022-02-22,社会保険労務士法人ことぶき,,その他の設立登記法人,愛知県,半田市,白山町４丁目１２番地ガウディ白山１Ｄ,,23,205,4750912,,,,,,,2022-02-22,1,,,,,コトブキ,0
2331,9200001039760,新規,0,2022-02-22,2022-02-22,穂積庭園株式会社,,株式会社,岐阜県,瑞穂市,別府７４８番地４,,21,216,5010222,,,,,,,2022-02-22,1,,,,,ホヅミテイエン,0
2332,9230003001807,新規,0,2022-02-22,2022-02-22,皆花合同会社,,合同会社,富山県,富山市,本郷町７番地１１,,16,201,9398045,,,,,,,2022-02-22,1,,,,,ミンカ,0
2336,9240001059359,新規,0,2022-02-22,2022-02-22,株式会社ＡＬＭＩＧＨＴ,,株式会社,広島県,広島市東区,牛田早稲田１丁目１３番２－１０３号,,34,102,7320062,,,,,,,2022-02-22,1,,,,,オールマイト,0
2337,9240001059367,新規,0,2022-02-22,2022-02-22,株式会社新聞販売大野,,株式会社,広島県,廿日市市,大野４４０５番地１,,34,213,7390488,,,,,,,2022-02-22,1,,,,,シンブンハンバイオオノ,0
2355,9290001096463,新規,0,2022-02-22,2022-02-22,伊藤ホールディングス株式会社,,株式会社,福岡県,福岡市中央区,天神２丁目１４番３８号,,40,133,8100001,,,,,,,2022-02-22,1,,,,,イトウホールディングス,0
2356,9290001096513,新規,0,2022-02-22,2022-02-22,株式会社Ｕｎｂａｒ,,株式会社,福岡県,福岡市西区,姪浜駅南４丁目１６番１４号,,40,135,8190006,,,,,,,2022-02-22,1,,,,,アンバー,0
2357,9290003012154,新規,0,2022-02-22,2022-02-22,合同会社ゼットエス,,合同会社,福岡県,福岡市博多区,那珂６丁目１６－１５－１０２,,40,132,8120893,,,,,,,2022-02-22,1,,,,,ゼットエス,0
2358,9290003012179,新規,0,2022-02-22,2022-02-22,池田合同会社,,合同会社,福岡県,福岡市東区,香椎照葉４丁目２－２セントラルパーク香椎照葉弐番館２０３,,40,131,8130017,,,,,,,2022-02-22,1,,,,,イケダ,0
2378,9340003003718,新規,0,2022-02-22,2022-02-22,合同会社吹上浜の未来を考える漁業者たち,,合同会社,鹿児島県,日置市,東市来町伊作田１８６５番地,,46,216,8992203,,,,,,,2022-02-22,1,,,,,フキアゲハマノミライヲカンガエルギョギョウシャタチ,0
2379,9350005006049,新規,0,2022-02-22,2022-02-22,一般社団法人ハルナピア,,その他の設立登記法人,宮崎県,都城市,太郎坊町１６３８番地,,45,202,8850002,,,,,,,2022-02-22,1,,,,,ハルナピア,0
2382,9360001030019,新規,0,2022-02-22,2022-02-22,株式会社Ｒｅｓｏｒｌｄ,,株式会社,沖縄県,石垣市,字大川２５８番地,,47,207,9070022,,,,,,,2022-02-22,1,,,,,リゾールド,0
2383,9360001030027,新規,0,2022-02-22,2022-02-22,ＴＳワークス株式会社,,株式会社,沖縄県,沖縄市,美里４丁目１４番２１号,,47,211,9042153,,,,,,,2022-02-22,1,,,,,ティーエスワークス,0
2384,9360001030035,新規,0,2022-02-22,2022-02-22,株式会社ＣＲＩＢ,,株式会社,沖縄県,那覇市,首里金城町１丁目１０番地４,,47,201,9030815,,,,,,,2022-02-22,1,,,,,クリブ,0
2388,9370001048217,新規,0,2022-02-22,2022-02-22,株式会社クラリス,,株式会社,宮城県,東松島市,大塩字緑ケ丘三丁目１３－２,,04,214,9810505,,,,,,,2022-02-22,1,,,,,クラリス,0
2398,9400003002903,新規,0,2022-02-22,2022-02-22,合同会社クリーン,,合同会社,岩手県,北上市,諏訪町１丁目１番１４号リバーサイドビル５階,,03,206,0240034,,,,,,,2022-02-22,1,,,,,クリーン,0
2405,9430001086020,新規,0,2022-02-22,2022-02-22,株式会社令和龍馬会,,株式会社,北海道,札幌市中央区,南五条西２丁目１－１４,,01,101,0640805,,,,,,,2022-02-22,1,,,,,レイワリョウマカイ,0
2406,9430001086029,新規,0,2022-02-22,2022-02-22,株式会社商,,株式会社,北海道,美唄市,東四条南６丁目１３番７０号,,01,215,0720015,,,,,,,2022-02-22,1,,,,,アキナイ,0
2407,9430001086037,新規,0,2022-02-22,2022-02-22,株式会社川見,,株式会社,北海道,札幌市豊平区,平岸二条５丁目１番６号,,01,105,0620932,,,,,,,2022-02-22,1,,,,,カワミ,0
2409,9430003013641,新規,0,2022-02-22,2022-02-22,合同会社ヒロ暖,,合同会社,北海道,千歳市,北栄１丁目２１番６号,,01,224,0660036,,,,,,,2022-02-22,1,,,,,ヒロダン,0
2410,9430005014398,新規,0,2022-02-22,2022-02-22,社会保険労務士法人労政事務代行社,,その他の設立登記法人,北海道,札幌市中央区,大通西１９丁目１番３５０号２Ｆ,,01,101,0600042,,,,,,,2022-02-22,1,,,,,ロウセイジムダイコウシャ,0
2419,9700150107160,新規,0,2022-02-22,2022-02-22,ＳＡＫＵＲＡ　ＥＮＴＥＲＰＲＩＳＥＳ,,外国会社等,茨城県,稲敷郡美浦村,大字土屋３１２７－６９,,08,442,3000426,スリランカ民主社会主義共和国、マハオヤ、マインストリト、サクラプレース,,,,,,2022-02-22,1,,,,,サクラエンタープライセス,0
