sequenceNumber,corporateNumber,process,correct,updateDate,changeDate,name,nameImageId,kind,prefectureName,cityName,streetNumber,addressImageId,prefectureCode,cityCode,postCode,addressOutside,addressOutsideImageId,closeDate,closeCause,successorCorporateNumber,changeCause,assignmentDate,latest,enName,enPrefectureName,enCityName,enAddressOutside,furigana,hihyoji
1,1010001012637,登記記録の閉鎖等,0,2022-12-07,2022-12-01,株式会社エム・ジェー・ピーエックス,,株式会社,東京都,千代田区,丸の内２丁目６番１号,,13,101,1000005,,,2022-12-01,清算の結了等,,,2015-10-05,1,,,,,エムジェーピーエックス,0
23,1010405013363,登記記録の閉鎖等,0,2022-12-07,2022-11-30,一般社団法人会計政策研究会,,その他の設立登記法人,神奈川県,藤沢市,鵠沼神明５丁目１２番２７号,,14,205,2510021,,,2022-11-30,清算の結了等,,,2015-10-05,1,,,,,カイケイセイサクケンキュウカイ,0
29,1010502006443,登記記録の閉鎖等,0,2022-12-07,2022-12-05,有限会社大東花環センター,,有限会社,東京都,台東区,今戸１丁目１９番８号,,13,106,1110024,,,2022-12-05,清算の結了等,,,2015-10-05,1,,,,,,0
30,1010502011088,登記記録の閉鎖等,0,2022-12-07,2022-12-06,有限会社三宅電機,,有限会社,東京都,台東区,台東３丁目８番７号西畑ビル,,13,106,1100016,,,2022-12-06,清算の結了等,,,2015-10-05,1,,,,,ミヤケデンキ,0
41,1011001101636,登記記録の閉鎖等,0,2022-12-07,2022-12-01,株式会社ドラミートウキョウ,,株式会社,東京都,港区,赤坂８丁目１０番２２号ニュー新坂ビル４Ｆ,,13,103,1070052,,,2022-12-01,合併による解散等,9010401147273,令和４年１２月１日東京都港区赤坂八丁目１０番２２号ニュー新坂ビル４ＦＬＭＩグループ株式会社（9010401147273）に合併し解散,2015-10-05,1,,,,,ドラミートウキョウ,0
57,1011401001626,登記記録の閉鎖等,0,2022-12-07,2022-12-06,株式会社キックスメディカルシステム,,株式会社,東京都,板橋区,小茂根４丁目２３番９号,,13,119,1730037,,,2022-12-06,清算の結了等,,,2015-10-05,1,,,,,キックスメディカルシステム,0
59,1011501008884,登記記録の閉鎖等,0,2022-12-07,2022-12-01,株式会社幹,,株式会社,東京都,荒川区,東日暮里３丁目２６番１５号,,13,118,1160014,,,2022-12-01,清算の結了等,,,2015-10-05,1,,,,,ミキ,0
60,1011601019699,登記記録の閉鎖等,0,2022-12-07,2022-12-01,株式会社正達日本,,株式会社,東京都,練馬区,旭町３丁目２８番６号,,13,120,1790071,,,2022-12-01,清算の結了等,,,2015-10-05,1,,,,,セイタツニホン,0
66,1012401038831,登記記録の閉鎖等,0,2022-12-07,2022-12-02,株式会社サニーサービス,,株式会社,東京都,多摩市,関戸４丁目２７番地の１８聖蹟ヒルズ３０３,,13,224,2060011,,,2022-12-02,清算の結了等,,,2022-02-04,1,,,,,サニーサービス,0
68,1012701007841,登記記録の閉鎖等,0,2022-12-07,2022-12-05,ＮａｐａＪｅｎ　Ｐｈａｒｍａ株式会社,,株式会社,東京都,小金井市,梶野町１丁目２番３６号,,13,210,1840002,,,2022-12-05,清算の結了等,,,2015-10-05,1,,,,,ナパジェンファーマ,0
87,1020003018210,登記記録の閉鎖等,0,2022-12-07,2022-12-01,合同会社ランシングキャピタル,,合同会社,神奈川県,川崎市宮前区,鷺沼４丁目１４番地２ドレッセ鷺沼の杜プライムフォレストＡ－４０７,,14,136,2160004,,,2022-12-01,清算の結了等,,,2020-07-20,1,,,,,ランシングキャピタル,0
102,1030003009464,登記記録の閉鎖等,0,2022-12-07,2022-12-02,合同会社ＲｉｉＮｕ,,合同会社,埼玉県,久喜市,久喜東３丁目３７番１２号Ｐｒｏｓｐｅｒａｒ１０１,,11,232,3460016,,,2022-12-02,清算の結了等,,,2016-10-25,1,,,,,リーヌ,0
119,1040002029685,登記記録の閉鎖等,0,2022-12-07,2022-12-01,有限会社東明商会,,有限会社,千葉県,八千代市,勝田台１丁目３２番地１６,,12,221,2760023,,,2022-12-01,清算の結了等,,,2015-10-05,1,,,,,トウメイショウカイ,0
128,1050002001107,登記記録の閉鎖等,0,2022-12-07,2022-12-02,有限会社共進電機,,有限会社,茨城県,水戸市,千波町１９０９番地,,08,201,3100851,,,2022-12-02,清算の結了等,,,2015-10-05,1,,,,,キョウシンデンキ,0
129,1050002006403,登記記録の閉鎖等,0,2022-12-07,2022-12-05,有限会社住宅アール,,有限会社,茨城県,水戸市,鯉渕町１７０７番地の１２７,,08,201,3100000,,,2022-12-05,清算の結了等,,,2015-10-05,1,,,,,ジュウタクアール,0
141,1080402002032,登記記録の閉鎖等,0,2022-12-07,2022-12-05,有限会社加藤,,有限会社,静岡県,浜松市中区,佐鳴台５丁目２３番１５号,,22,131,4328021,,,2022-12-05,清算の結了等,,,2015-10-05,1,,,,,カトウ,0
162,1120001157677,登記記録の閉鎖等,0,2022-12-07,2022-12-06,田中一産業株式会社,,株式会社,大阪府,門真市,下島町５番２号,,27,223,5710075,,,2022-12-06,清算の結了等,,,2015-10-05,1,,,,,タナカイチサンギョウ,0
182,1120102020338,登記記録の閉鎖等,0,2022-12-07,2022-11-30,有限会社Ｄ－ｍｉｎｄ,,有限会社,大阪府,河内長野市,荘園町１８番１５号,,27,216,5860093,,,2022-11-30,清算の結了等,,,2015-10-05,1,,,,,ディマインド,0
204,1140003017150,登記記録の閉鎖等,0,2022-12-07,2022-11-22,ＭＹ合同会社,,合同会社,兵庫県,西宮市,上ケ原四番町２番２３号,,28,204,6620894,,,2022-11-22,清算の結了等,,,2021-12-28,1,,,,,マイ,0
227,1180005001025,登記記録の閉鎖等,0,2022-12-07,2022-11-07,武島天神社,,その他の設立登記法人,愛知県,名古屋市西区,城西５丁目１６番４号,,23,104,4510031,,,2022-11-07,合併による解散等,4180005001105,令和４年１１月７日名古屋市西区城西五丁目１８番８号山神社（4180005001105）に合併し解散,2015-10-05,1,,,,,タケシマテンジンシャ,0
230,1180302016519,登記記録の閉鎖等,0,2022-12-07,2022-12-02,有限会社神谷工業,,有限会社,愛知県,安城市,福釜町荒子５９番地２,,23,212,4460052,,,2022-12-02,清算の結了等,,,2015-10-05,1,,,,,カミヤコウギョウ,0
231,1180302020033,登記記録の閉鎖等,0,2022-12-07,2022-12-05,有限会社さとうコーポレーション,,有限会社,愛知県,碧南市,松江町６丁目８３番地,,23,209,4470868,,,2022-12-05,清算の結了等,,,2015-10-05,1,,,,,サトウコーポレーション,0
239,1230001016590,登記記録の閉鎖等,0,2022-12-07,2022-12-05,株式会社ファニートレード,,株式会社,富山県,富山市,中老田１３５２番地,,16,201,9300166,,,2022-12-05,清算の結了等,,,2016-08-08,1,,,,,,0
268,1310002008430,登記記録の閉鎖等,0,2022-12-07,2022-12-01,有限会社富士製作所,,有限会社,長崎県,長崎市,西海町７６３番地,,42,201,8513101,,,2022-12-01,清算の結了等,,,2015-10-05,1,,,,,フジサイサクショ,0
270,1320001007663,登記記録の閉鎖等,0,2022-12-07,2022-12-05,西部エンジニアリング株式会社,,株式会社,大分県,宇佐市,大字佐野２０１番地,,44,211,8790237,,,2022-12-05,清算の結了等,,,2015-10-05,1,,,,,セイブエンジニアリング,0
275,1350002009210,登記記録の閉鎖等,0,2022-12-07,2022-12-01,有限会社横山建設,,有限会社,宮崎県,児湯郡西米良村,大字村所１０５番地１９,,45,403,8811411,,,2022-12-01,合併による解散等,8350002011283,令和４年１２月１日宮崎県日向市東郷町山陰己６５５番地株式会社南九建設（8350002011283）に合併し解散,2015-10-05,1,,,,,ヨコヤマケンセツ,0
282,1380002020916,登記記録の閉鎖等,0,2022-12-07,2022-12-01,有限会社榮産業,,有限会社,福島県,石川郡石川町,大字母畑字高蔵内９６番地の３,,07,501,9637831,,,2022-12-01,清算の結了等,,,2015-10-05,1,,,,,サカエサンギョウ,0
296,1450002004135,登記記録の閉鎖等,0,2022-12-07,2022-12-05,日鋼テック有限会社,,有限会社,北海道,旭川市,西神楽北一条４丁目２３４番地１２２,,01,204,0710173,,,2022-12-05,清算の結了等,,,2015-10-05,1,,,,,ニッコウテック,0
298,1460102006823,登記記録の閉鎖等,0,2022-12-07,2022-12-05,有限会社コマザキ工業,,有限会社,北海道,広尾郡広尾町,並木通東２丁目１３７番地の１,,01,642,0892624,,,2022-12-05,清算の結了等,,,2015-10-05,1,,,,,コマザキコウギョウ,0
350,2011001069328,登記記録の閉鎖等,0,2022-12-07,2022-12-01,クレインズワイキキプロパティーズホールディングス１株式会社,,株式会社,東京都,渋谷区,神宮前６丁目１８番１号,,13,113,1500001,,,2022-12-01,清算の結了等,,,2015-10-05,1,,,,,,0
354,2011001124322,登記記録の閉鎖等,0,2022-12-07,2022-12-02,株式会社アンクス,,株式会社,東京都,渋谷区,神宮前４丁目２６番地２８号２階,,13,113,1500001,,,2022-12-02,清算の結了等,,,2018-09-21,1,,,,,アンクス,0
359,2011102000959,登記記録の閉鎖等,0,2022-12-07,2022-12-02,有限会社生川商店,,有限会社,東京都,新宿区,西新宿１丁目１番１号,,13,104,1600023,,,2022-12-02,清算の結了等,,,2015-10-05,1,,,,,ナルカワショウテン,0
363,2011301025749,登記記録の閉鎖等,0,2022-12-07,2022-11-30,株式会社Ｗｅｌｌ　ｂｅｉｎｇ,,株式会社,東京都,杉並区,清水２丁目２番１４号,,13,115,1670033,,,2022-11-30,清算の結了等,,,2020-03-03,1,,,,,ウェルビーイング,0
366,2011402018445,登記記録の閉鎖等,0,2022-12-07,2022-12-01,有限会社プロスパー,,有限会社,東京都,板橋区,舟渡２丁目４番３号ウインベルガーデン浮間公園８０１号,,13,119,1740041,,,2022-12-01,清算の結了等,,,2015-10-05,1,,,,,プロスパー,0
396,2020001141194,登記記録の閉鎖等,0,2022-12-07,2022-12-02,株式会社江戸っ子,,株式会社,神奈川県,横浜市戸塚区,平戸町１８８－２,,14,110,2440803,,,2022-12-02,清算の結了等,,,2021-05-10,1,,,,,エドッコ,0
405,2020005008159,登記記録の閉鎖等,0,2022-12-07,2022-12-02,大同特殊鋼川崎工場労働組合,,その他の設立登記法人,神奈川県,川崎市川崎区,夜光２丁目４番１号,,14,131,2100863,,,2022-12-02,清算の結了等,,,2015-10-05,1,,,,,ダイドウトクシュコウカワサキコウジョウ,0
406,2021001009679,登記記録の閉鎖等,0,2022-12-07,2022-12-02,株式会社富士サービス,,株式会社,神奈川県,鎌倉市,寺分２１４番地１２,,14,204,2470064,,,2022-12-02,清算の結了等,,,2015-10-05,1,,,,,フジサービス,0
409,2021001060376,登記記録の閉鎖等,0,2022-12-07,2022-12-01,株式会社恵伸,,株式会社,神奈川県,平塚市,明石町２６番２７号,,14,203,2540042,,,2022-12-01,合併による解散等,2021001036517,令和４年１２月１日神奈川県平塚市明石町２５番１号株式会社サカエヤ（2021001036517）に合併し解散,2016-10-11,1,,,,,ケイシン,0
420,2030001077438,登記記録の閉鎖等,0,2022-12-07,2022-11-30,宮村電機冷暖房株式会社,,株式会社,埼玉県,川口市,並木１丁目５番１６号,,11,203,3320034,,,2022-11-30,清算の結了等,,,2015-10-05,1,,,,,ミヤムラデンキレイダンボウ,0
471,2070001003596,登記記録の閉鎖等,0,2022-12-07,2022-11-28,株式会社ワールド・テック,,株式会社,群馬県,前橋市,高井町１丁目３２番２２号,,10,201,3710857,,,2022-11-28,合併による解散等,5070001017478,令和４年１１月１５日群馬県渋川市渋川４４１３番地の１瑞穂建設株式会社（5070001017478）に合併し解散,2015-10-05,1,,,,,ワールドテック,0
486,2110001014498,登記記録の閉鎖等,0,2022-12-07,2022-12-05,株式会社西潟,,株式会社,新潟県,三条市,林町２丁目１４番９号,,15,204,9550061,,,2022-12-05,清算の結了等,,,2015-10-05,1,,,,,ニシカタ,0
499,2120001090349,登記記録の閉鎖等,0,2022-12-07,2022-12-06,株式会社水森硝子店,,株式会社,大阪府,大阪市北区,天満橋１丁目８番１５－２６０６号,,27,127,5300042,,,2022-12-06,清算の結了等,,,2015-10-05,1,,,,,ミズモリガラステン,0
506,2120002080927,登記記録の閉鎖等,0,2022-12-07,2022-12-06,有限会社和合技建,,有限会社,大阪府,守口市,東町２丁目１４番１１号,,27,209,5700013,,,2022-12-06,清算の結了等,,,2015-10-05,1,,,,,ワゴウギケン,0
525,2140001069548,登記記録の閉鎖等,0,2022-12-07,2022-12-05,東朋興産株式会社,,株式会社,兵庫県,西宮市,段上町６丁目２２番２２－１０１号,,28,204,6638006,,,2022-12-05,清算の結了等,,,2015-10-05,1,,,,,トウホウコウサン,0
535,2180001034300,登記記録の閉鎖等,0,2022-12-07,2022-11-30,株式会社イトーゴルフサービス,,株式会社,愛知県,名古屋市中区,栄１丁目１６番１６号,,23,106,4600008,,,2022-11-30,清算の結了等,,,2015-10-05,1,,,,,イトーゴルフサービス,0
541,2180001138002,登記記録の閉鎖等,0,2022-12-07,2022-12-01,株式会社テクマ,,株式会社,愛知県,あま市,甚目寺沖田４５番地,,23,237,4901111,,,2022-12-01,清算の結了等,,,2019-09-05,1,,,,,テクマ,0
548,2180003014523,登記記録の閉鎖等,0,2022-12-07,2022-12-02,合同会社リアン,,合同会社,岐阜県,可児市,皐ケ丘５丁目３７番地,,21,214,5090236,,,2022-12-02,清算の結了等,,,2015-10-05,1,,,,,リアン,0
553,2180302021567,登記記録の閉鎖等,0,2022-12-07,2022-12-02,有限会社エヌテック,,有限会社,愛知県,豊田市,田中町２丁目５２番地２,,23,211,4710845,,,2022-12-02,清算の結了等,,,2015-10-05,1,,,,,,0
565,2210002002327,登記記録の閉鎖等,0,2022-12-07,2022-12-05,土田弘木材建設有限会社,,有限会社,福井県,福井市,日之出２丁目７番７号,,18,201,9100859,,,2022-12-05,清算の結了等,,,2015-10-05,1,,,,,ツチダヒロシモクザイケンセツ,0
577,2240002030283,登記記録の閉鎖等,0,2022-12-07,2022-12-02,有限会社林メガネ店,,有限会社,広島県,三次市,十日市中２丁目１３番２４号,,34,209,7280012,,,2022-12-02,清算の結了等,,,2015-10-05,1,,,,,ハヤシメガネテン,0
579,2240002033583,登記記録の閉鎖等,0,2022-12-07,2022-12-05,有限会社なかがわ,,有限会社,広島県,呉市,三条３丁目２番１６号,,34,202,7370821,,,2022-12-05,清算の結了等,,,2015-10-05,1,,,,,ナカガワ,0
589,2280003001008,登記記録の閉鎖等,0,2022-12-07,2022-12-06,合同会社アオヤマプラン,,合同会社,島根県,松江市,鹿島町恵曇３６１番地,,32,201,6900322,,,2022-12-06,清算の結了等,,,2015-10-05,1,,,,,アオヤマプラン,0
592,2290001088673,登記記録の閉鎖等,0,2022-12-07,2022-12-02,株式会社サクセス,,株式会社,福岡県,福津市,上西郷１３８８番地１,,40,224,8113207,,,2022-12-02,清算の結了等,,,2020-04-24,1,,,,,サクセス,0
620,2410001012678,登記記録の閉鎖等,0,2022-12-07,2022-12-05,株式会社みよし,,株式会社,秋田県,秋田市,広面字釣瓶町８番地３,,05,201,0100041,,,2022-12-05,清算の結了等,,,2020-12-04,1,,,,,ミヨシ,0
626,2420002018392,登記記録の閉鎖等,0,2022-12-07,2022-12-02,有限会社上北観光,,有限会社,青森県,上北郡東北町,大字大浦字境ノ沢２４番地２,,02,408,0392402,,,2022-12-02,清算の結了等,,,2015-10-05,1,,,,,カミキタカンコウ,0
636,2490002002860,登記記録の閉鎖等,0,2022-12-07,2022-12-06,有限会社関ペンキ塗装店,,有限会社,高知県,高知市,本町１丁目５番９号,,39,201,7800870,,,2022-12-06,清算の結了等,,,2015-10-05,1,,,,,セキペンキトソウテン,0
653,3010401096501,登記記録の閉鎖等,0,2022-12-07,2022-11-30,あい生保準備株式会社,,株式会社,東京都,港区,六本木１丁目６番１号,,13,103,1060032,,,2022-11-30,清算の結了等,,,2015-10-05,1,,,,,アイセイホジュンビ,0
666,3010701015524,登記記録の閉鎖等,0,2022-12-07,2022-12-05,株式会社ミネトニ,,株式会社,東京都,品川区,東大井２丁目２６番１４号,,13,109,1400011,,,2022-12-05,清算の結了等,,,2022-03-30,1,,,,,ミネトニ,0
689,3011101085587,登記記録の閉鎖等,0,2022-12-07,2022-12-05,ＭＯＴ株式会社,,株式会社,東京都,品川区,西五反田７丁目５番７号,,13,109,1410031,,,2022-12-05,清算の結了等,,,2018-10-04,1,,,,,モット,0
703,3011702013624,登記記録の閉鎖等,0,2022-12-07,2022-12-02,有限会社ホリエフーズ,,有限会社,東京都,江戸川区,西小松川町７番２３号,,13,123,1320032,,,2022-12-02,清算の結了等,,,2015-10-05,1,,,,,ホリエフーズ,0
704,3011801023441,登記記録の閉鎖等,0,2022-12-07,2022-12-01,株式会社ティアラ,,株式会社,埼玉県,三郷市,鷹野４丁目２２６番地第二コーポＭＫＫ３０５号,,11,237,3410035,,,2022-12-01,清算の結了等,,,2015-10-05,1,,,,,ティアラ,0
706,3012301009146,登記記録の閉鎖等,0,2022-12-07,2022-12-02,株式会社フジタコーポレーション,,株式会社,東京都,町田市,真光寺町３１５番地２１,,13,209,1950051,,,2022-12-02,清算の結了等,,,2015-10-05,1,,,,,フジタコーポレーション,0
727,3020002056374,登記記録の閉鎖等,0,2022-12-07,2022-12-01,有限会社横浜精密,,有限会社,神奈川県,横浜市港北区,新羽町８０９番地５,,14,109,2230057,,,2022-12-01,清算の結了等,,,2015-10-05,1,,,,,ヨコハマセイミツ,0
728,3020002088095,登記記録の閉鎖等,0,2022-12-07,2022-12-05,有限会社エステック,,有限会社,神奈川県,川崎市高津区,子母口４３０番地,,14,134,2130023,,,2022-12-05,清算の結了等,,,2015-10-05,1,,,,,エステック,0
754,3040001027003,登記記録の閉鎖等,0,2022-12-07,2022-11-30,東方化成株式会社,,株式会社,千葉県,市川市,東菅野２丁目１４番１２号,,12,203,2720823,,,2022-11-30,清算の結了等,,,2015-10-05,1,,,,,トウホウカセイ,0
767,3050001011352,登記記録の閉鎖等,0,2022-12-07,2022-12-02,茨石工業株式会社,,株式会社,茨城県,石岡市,府中２丁目３番１９号,,08,205,3150013,,,2022-12-02,合併による解散等,2050001011353,令和４年１２月１日茨城県石岡市府中二丁目３番１９号茨石商事株式会社（2050001011353）に合併し解散,2015-10-05,1,,,,,イバセキコウギョウ,0
772,3050002008208,登記記録の閉鎖等,0,2022-12-07,2022-12-02,有限会社春日ケミカル,,有限会社,茨城県,ひたちなか市,春日町１２番２号,,08,221,3120048,,,2022-12-02,清算の結了等,,,2015-10-05,1,,,,,カスガケミカル,0
773,3050002010634,登記記録の閉鎖等,0,2022-12-07,2022-12-06,有限会社マルイチ設備,,有限会社,茨城県,笠間市,押辺１４２７番地の１,,08,216,3190205,,,2022-12-06,清算の結了等,,,2015-10-05,1,,,,,マルイチセツビ,0
786,3080101000021,登記記録の閉鎖等,0,2022-12-07,2022-12-05,株式会社アイエスフーズ,,株式会社,静岡県,沼津市,志下６４０番地の５,,22,203,4100106,,,2022-12-05,清算の結了等,,,2015-10-05,1,,,,,,0
787,3080101000203,登記記録の閉鎖等,0,2022-12-07,2022-12-05,株式会社イリニ水産,,株式会社,静岡県,沼津市,志下６６１番地,,22,203,4100106,,,2022-12-05,清算の結了等,,,2015-10-05,1,,,,,,0
791,3080105002666,登記記録の閉鎖等,0,2022-12-07,2022-12-05,静岡県紙紐紙バンド協同組合,,その他の設立登記法人,静岡県,富士市,大渕２５９０番地の１,,22,210,4170000,,,2022-12-05,清算の結了等,,,2015-10-05,1,,,,,シズオカケンカミヒモカミバンド,0
796,3080402009075,登記記録の閉鎖等,0,2022-12-07,2022-12-06,有限会社レンタル鈴浜,,有限会社,静岡県,浜松市南区,飯田町８６番地,,22,134,4350028,,,2022-12-06,清算の結了等,,,2015-10-05,1,,,,,レンタルスズハマ,0
798,3090001013171,登記記録の閉鎖等,0,2022-12-07,2022-12-01,株式会社朝日新聞甲府中央,,株式会社,山梨県,甲府市,朝日２丁目１７番１２号,,19,201,4000025,,,2022-12-01,清算の結了等,,,2015-10-05,1,,,,,アサヒシンブンコウフチュウオウ,0
806,3110001015025,登記記録の閉鎖等,0,2022-12-07,2022-12-05,株式会社テイケイエス,,株式会社,新潟県,三条市,新光町１２番１６－３号,,15,204,9550057,,,2022-12-05,清算の結了等,,,2015-10-05,1,,,,,テイケイエス,0
823,3120002034758,登記記録の閉鎖等,0,2022-12-07,2022-12-05,有限会社オアタ保険事務所,,有限会社,大阪府,大阪市西成区,玉出中１丁目７番２１号,,27,122,5570044,,,2022-12-05,清算の結了等,,,2015-10-05,1,,,,,オアタホケンジムショ,0
831,3120101056694,登記記録の閉鎖等,0,2022-12-07,2022-12-05,セレスフーズ株式会社,,株式会社,大阪府,枚方市,茄子作南町１３１２,,27,210,5730072,,,2022-12-05,合併による解散等,7120001121223,令和４年１２月１日大阪府茨木市島二丁目１４番２５号株式会社幸福フーズ（7120001121223）に合併し解散,2017-06-16,1,,,,,セレスフーズ,0
841,3130001021384,登記記録の閉鎖等,0,2022-12-07,2022-12-01,株式会社ダイコウプリントシコー,,株式会社,京都府,京都市中京区,西ノ京冷泉町１５番地,,26,104,6048481,,,2022-12-01,合併による解散等,8130001021611,令和４年１２月１日京都市中京区西ノ京冷泉町１５番地株式会社ダイコウパッケージ（8130001021611）に合併し解散,2015-10-05,1,,,,,ダイコウプリントシコー,0
842,3130001064276,登記記録の閉鎖等,0,2022-12-07,2022-12-01,ＳＴＰｒｏｍｏｔｉｏｎＧｒｏｕｐ株式会社,,株式会社,京都府,京都市西京区,嵐山上海道町６６－１３,,26,111,6160016,,,2022-12-01,清算の結了等,,,2019-04-09,1,,,,,エスティープロモーショングループ,0
844,3130002015939,登記記録の閉鎖等,0,2022-12-07,2022-12-01,有限会社おりよし北村,,有限会社,京都府,京都市上京区,御前通下立売上る二丁目仲之町２８５番地１,,26,102,6020000,,,2022-12-01,清算の結了等,,,2015-10-05,1,,,,,,0
859,3150001011350,登記記録の閉鎖等,0,2022-12-07,2022-12-01,安井建設株式会社,,株式会社,奈良県,磯城郡田原本町,大字八田３９８番地の２,,29,363,6360221,,,2022-12-01,清算の結了等,,,2015-10-05,1,,,,,ヤスイケンセツ,0
864,3170005003706,登記記録の閉鎖等,0,2022-12-07,2022-11-14,金光教田辺教会,,その他の設立登記法人,和歌山県,田辺市,中屋敷町７７番地,,30,206,6460035,,,2022-11-14,合併による解散等,3170005002591,令和４年１１月１４日和歌山県有田郡湯浅町大字湯浅５４９番地の１金光教湯浅教会（3170005002591）に合併し解散,2015-10-05,1,,,,,,0
897,3240001033864,登記記録の閉鎖等,0,2022-12-07,2022-12-05,大岐産業株式会社,,株式会社,広島県,福山市,松永町４丁目９番９号,,34,207,7290104,,,2022-12-05,清算の結了等,,,2015-10-05,1,,,,,オオキサンギョウ,0
939,3340002003781,登記記録の閉鎖等,0,2022-12-07,2022-12-06,有限会社興建技術,,有限会社,鹿児島県,鹿児島市,長田町１番１２号,,46,201,8920854,,,2022-12-06,清算の結了等,,,2015-10-05,1,,,,,コウケンギジュツ,0
947,3370001045806,登記記録の閉鎖等,0,2022-12-07,2022-12-01,株式会社ブリックスグローバル,,株式会社,宮城県,仙台市青葉区,一番町１丁目１５番２０号,,04,101,9800811,,,2022-12-01,合併による解散等,9370001038911,令和４年１２月１日宮城県宮城郡利府町赤沼字浜田１００番地１３株式会社ブリックス（9370001038911）に合併し解散,2020-06-04,1,,,,,ブリックスグローバル,0
999,4010801031461,登記記録の閉鎖等,0,2022-12-07,2022-11-30,株式会社デジソー,,株式会社,東京都,中央区,銀座１丁目２２番１１号銀座大竹ビジデンス２階,,13,102,1040061,,,2022-11-30,清算の結了等,,,2020-12-07,1,,,,,デジソー,0
1026,4011602005828,登記記録の閉鎖等,0,2022-12-07,2022-12-02,有限会社総合メデイカル,,有限会社,東京都,練馬区,南田中３丁目３０番２６号,,13,120,1770035,,,2022-12-02,清算の結了等,,,2015-10-05,1,,,,,ソウゴウメディカル,0
1060,4030001075183,登記記録の閉鎖等,0,2022-12-07,2022-12-01,株式会社山宝商会,,株式会社,埼玉県,川口市,前川３丁目８番１１号,,11,203,3330842,,,2022-12-01,清算の結了等,,,2015-10-05,1,,,,,サンポウショウカイ,0
1071,4030002036176,登記記録の閉鎖等,0,2022-12-07,2022-11-30,有限会社渡辺エンジニアリング,,有限会社,埼玉県,入間市,大字新久９１５番地８５,,11,225,3580031,,,2022-11-30,清算の結了等,,,2015-10-05,1,,,,,ワタナベエンジニアリング,0
1072,4030002070638,登記記録の閉鎖等,0,2022-12-07,2022-12-01,株式会社エスエヌシーエス,,株式会社,埼玉県,北葛飾郡杉戸町,杉戸３丁目６番４号,,11,464,3450036,,,2022-12-01,清算の結了等,,,2015-10-05,1,,,,,エスエヌシーエス,0
1080,4040002067212,登記記録の閉鎖等,0,2022-12-07,2022-12-01,有限会社泰伸興業,,有限会社,千葉県,木更津市,畑沢南２丁目１４番２３号,,12,206,2920826,,,2022-12-01,清算の結了等,,,2015-10-05,1,,,,,,0
1098,4080002005572,登記記録の閉鎖等,0,2022-12-07,2022-12-06,有限会社マロン商会,,有限会社,静岡県,静岡市葵区,大岩宮下町１２番地,,22,101,4200883,,,2022-12-06,清算の結了等,,,2015-10-05,1,,,,,マロンショウカイ,0
1113,4120001008778,登記記録の閉鎖等,0,2022-12-07,2022-12-02,株式会社エムスマーレ,,株式会社,大阪府,大阪市都島区,都島中通１丁目２番１４号,,27,102,5340022,,,2022-12-02,清算の結了等,,,2015-10-05,1,,,,,エムスマーレ,0
1116,4120001042843,登記記録の閉鎖等,0,2022-12-07,2022-12-01,グッドウッド株式会社,,株式会社,大阪府,大阪市西区,新町２丁目５番１－３８０５号,,27,106,5500013,,,2022-12-01,清算の結了等,,,2015-10-05,1,,,,,グッドウッド,0
1137,4120003017034,登記記録の閉鎖等,0,2022-12-07,2022-12-01,合同会社ＤＲＣ総研,,合同会社,大阪府,大阪市北区,鶴野町４－１１朝日プラザ梅田２Ｆ,,27,127,5300014,,,2022-12-01,合併による解散等,4200001008712,令和４年１２月１日大阪市北区梅田一丁目３番１号大阪駅前第１ビル８階５号株式会社ＥＣＦサポート（4200001008712）に合併し解散,2020-02-21,1,,,,,ディーアールシーソウケン,0
1168,4150002001060,登記記録の閉鎖等,0,2022-12-07,2022-12-02,有限会社高商,,有限会社,奈良県,奈良市,学園大和町２丁目４３番地,,29,201,6310041,,,2022-12-02,清算の結了等,,,2015-10-05,1,,,,,タカショウ,0
1171,4180001137919,登記記録の閉鎖等,0,2022-12-07,2022-12-01,株式会社丸八,,株式会社,愛知県,一宮市,木曽川町黒田字松枝７０番地１,,23,203,4930001,,,2022-12-01,清算の結了等,,,2019-08-30,1,,,,,マルハチ,0
1186,4200001001691,登記記録の閉鎖等,0,2022-12-07,2022-12-05,玉姓商事株式会社,,株式会社,岐阜県,山県市,伊佐美２４３番地,,21,215,5012102,,,2022-12-05,清算の結了等,,,2015-10-05,1,,,,,ギョクセイショウジ,0
1194,4230001006069,登記記録の閉鎖等,0,2022-12-07,2022-12-05,株式会社ティーシーピー,,株式会社,富山県,富山市,音羽町２丁目４番１４号,,16,201,9300037,,,2022-12-05,清算の結了等,,,2015-10-05,1,,,,,ティーシーピー,0
1213,4290001081949,登記記録の閉鎖等,0,2022-12-07,2022-12-02,株式会社ゆめ工房,,株式会社,福岡県,福岡市南区,大楠３丁目２２番１－１４０１号,,40,134,8150082,,,2022-12-02,清算の結了等,,,2018-07-02,1,,,,,ユメコウボウ,0
1240,4380001003893,登記記録の閉鎖等,0,2022-12-07,2022-12-01,株式会社興信,,株式会社,福島県,福島市,成川字西谷地２３番地の１,,07,201,9601108,,,2022-12-01,清算の結了等,,,2015-10-05,1,,,,,コウシン,0
1245,4390001009031,登記記録の閉鎖等,0,2022-12-07,2022-11-29,株式会社テクノ住工,,株式会社,山形県,新庄市,千門町４番１号,,06,205,9960079,,,2022-11-29,清算の結了等,,,2015-10-05,1,,,,,テクノジュウコウ,0
1264,4480001005401,登記記録の閉鎖等,0,2022-12-07,2022-12-05,株式会社ＯＧＡＴＡ開発,,株式会社,徳島県,板野郡北島町,鯛浜字西ノ須５１番地１１７,,36,402,7710204,,,2022-12-05,清算の結了等,,,2022-07-15,1,,,,,オガタカイハツ,0
1268,4500005006269,登記記録の閉鎖等,0,2022-12-07,2022-11-22,金光教宇和島南教会,,その他の設立登記法人,愛媛県,宇和島市,京町２番４５号,,38,203,7980052,,,2022-11-22,合併による解散等,6500005003438,令和４年１１月２２日愛媛県八幡浜市広瀬二丁目１番１１号金光教八幡浜教会（6500005003438）に合併し解散,2015-10-05,1,,,,,コンコウキョウウワジマミナミキョウカイ,0
1274,5010001091859,登記記録の閉鎖等,0,2022-12-07,2022-12-01,株式会社クレスト,,株式会社,東京都,港区,赤坂８丁目１０番２２号ニュー新坂ビル４Ｆ,,13,103,1070052,,,2022-12-01,合併による解散等,9010401147273,令和４年１２月１日東京都港区赤坂八丁目１０番２２号ニュー新坂ビル４ＦＬＭＩグループ株式会社（9010401147273）に合併し解散,2015-10-05,1,,,,,クレスト,0
1299,5010401139489,登記記録の閉鎖等,0,2022-12-07,2022-12-02,株式会社ユーリ,,株式会社,東京都,武蔵野市,吉祥寺北町３丁目９番１４号,,13,203,1800001,,,2022-12-02,清算の結了等,,,2018-07-10,1,,,,,ユーリ,0
1305,5010403012917,登記記録の閉鎖等,0,2022-12-07,2022-12-01,合同会社ＪＲＥ高知香美,,合同会社,東京都,港区,六本木６丁目２番３１号六本木ヒルズノースタワー１５階,,13,103,1060032,,,2022-12-01,合併による解散等,5010401101449,令和４年１２月１日東京都港区六本木六丁目２番３１号六本木ヒルズノースタワー１５階ジャパン・リニューアブル・エナジー株式会社（5010401101449）に合併し解散,2015-10-05,1,,,,,ジェーアールイーコウチカミ,0
1311,5010602014128,登記記録の閉鎖等,0,2022-12-07,2022-11-30,有限会社千成屋呉服店,,有限会社,東京都,墨田区,京島３丁目２０番７号,,13,107,1310046,,,2022-11-30,清算の結了等,,,2015-10-05,1,,,,,センナリヤゴフクテン,0
1314,5010701032278,登記記録の閉鎖等,0,2022-12-07,2022-12-05,株式会社ビーオービー,,株式会社,東京都,品川区,東大井１丁目３番３５号,,13,109,1400011,,,2022-12-05,清算の結了等,,,2016-04-12,1,,,,,ビーオービー,0
1317,5010905001236,登記記録の閉鎖等,0,2022-12-07,2022-12-05,特定非営利活動法人ＩＴＦ,,その他の設立登記法人,東京都,世田谷区,代田６丁目２８番９号,,13,112,1550033,,,2022-12-05,清算の結了等,,,2015-10-05,1,,,,,アイテイエフ,0
1357,5013401006287,登記記録の閉鎖等,0,2022-12-07,2022-12-02,株式会社エネル・ケア,,株式会社,東京都,多摩市,和田１８番地の１,,13,224,2060001,,,2022-12-02,清算の結了等,,,2015-10-05,1,,,,,,0
1365,5020001143824,登記記録の閉鎖等,0,2022-12-07,2022-11-22,株式会社Ｋ,,株式会社,神奈川県,横浜市青葉区,鴨志田町５２９番地６ミルキーウェイＢ２０１,,14,117,2270033,,,2022-11-22,清算の結了等,,,2021-11-09,1,,,,,ケー,0
1378,5021002028295,登記記録の閉鎖等,0,2022-12-07,2022-12-02,有限会社ルーマコーポレーション,,有限会社,神奈川県,相模原市中央区,相生４丁目７番６号,,14,152,2520235,,,2022-12-02,清算の結了等,,,2015-10-05,1,,,,,ルーマコーポレーション,0
1395,5040003009963,登記記録の閉鎖等,0,2022-12-07,2022-10-03,藤豊合同会社,,合同会社,千葉県,富里市,十倉２９２番地１５５,,12,233,2860212,,,2022-10-03,清算の結了等,,,2017-04-12,1,,,,,フジトヨ,0
1427,5120001184809,登記記録の閉鎖等,0,2022-12-07,2022-12-01,株式会社ＭＡＴＳＵ,,株式会社,兵庫県,明石市,本町１丁目１番３２号,,28,203,6730892,,,2022-12-01,清算の結了等,,,2015-10-05,1,,,,,,0
1440,5120101021572,登記記録の閉鎖等,0,2022-12-07,2022-12-05,株式会社セイワ,,株式会社,大阪府,堺市美原区,さつき野西２丁目１番地の１８,,27,147,5870031,,,2022-12-05,清算の結了等,,,2015-10-05,1,,,,,セイワ,0
1454,5130005013764,登記記録の閉鎖等,0,2022-12-07,2022-11-30,一般社団法人京都観光ガイド協会,,その他の設立登記法人,京都府,京都市伏見区,醍醐構口町２８番地１ルネス・ピース醍醐３０４,,26,109,6011354,,,2022-11-30,清算の結了等,,,2015-10-05,1,,,,,キョウトカンコウガイドキョウカイ,0
1464,5160002009390,登記記録の閉鎖等,0,2022-12-07,2022-12-01,有限会社円相ミュージアム,,有限会社,滋賀県,東近江市,永源寺高野町９２番地,,25,213,5270212,,,2022-12-01,合併による解散等,7160001009761,令和４年１２月１日滋賀県東近江市永源寺高野町９２番地上田源株式会社（7160001009761）に合併し解散,2015-10-05,1,,,,,エンソウミュージアム,0
1476,5180003021046,登記記録の閉鎖等,0,2022-12-07,2022-12-01,合同会社リハコン,,合同会社,愛知県,名古屋市中村区,日ノ宮町５丁目２９番地,,23,105,4530823,,,2022-12-01,清算の結了等,,,2020-05-11,1,,,,,リハコン,0
1479,5180301006120,登記記録の閉鎖等,0,2022-12-07,2022-12-01,大和医薬品工業株式会社,,株式会社,愛知県,豊橋市,雲谷町字外ノ谷２５６番地,,23,201,4413104,,,2022-12-01,合併による解散等,3180301006221,令和４年１２月１日愛知県豊橋市白河町１００番地株式会社アスコ（3180301006221）に合併し解散,2015-10-05,1,,,,,ダイワイヤクヒンコウギョウ,0
1495,5240001027435,登記記録の閉鎖等,0,2022-12-07,2022-12-01,ＮＳマシナリー株式会社,,株式会社,広島県,呉市,中央５丁目９番４号,,34,202,7370051,,,2022-12-01,合併による解散等,4240001008097,令和４年１２月１日広島市南区東雲二丁目１８番２１号日本産商株式会社（4240001008097）に合併し解散,2015-10-05,1,,,,,エヌエスマシナリー,0
1497,5240001042434,登記記録の閉鎖等,0,2022-12-07,2022-11-30,株式会社榎並鑑定事務所,,株式会社,広島県,広島市南区,皆実町１丁目４番２７－９０２号,,34,103,7340007,,,2022-11-30,清算の結了等,,,2015-10-05,1,,,,,エナミカンテイジムショ,0
1503,5250002003608,登記記録の閉鎖等,0,2022-12-07,2022-12-02,有限会社吉田商亊,,有限会社,山口県,防府市,上天神町３番８号,,35,206,7470033,,,2022-12-02,清算の結了等,,,2015-10-05,1,,,,,ヨシダショウジ,0
1504,5250002018622,登記記録の閉鎖等,0,2022-12-07,2022-12-01,松本産業有限会社,,有限会社,山口県,岩国市,室の木町３丁目１番４４号,,35,208,7400021,,,2022-12-01,清算の結了等,,,2015-10-05,1,,,,,マツモトサンギョウ,0
1505,5250003002294,登記記録の閉鎖等,0,2022-12-07,2022-11-18,合同会社ＫｅｎｔａＣｏｍｐａｎｙ,,合同会社,山口県,下関市,綾羅木本町８丁目５番１８号,,35,201,7510849,,,2022-11-18,清算の結了等,,,2018-07-24,1,,,,,ケンタカンパニー,0
1519,5290005012692,登記記録の閉鎖等,0,2022-12-07,2022-11-10,天理教幡中分教会,,その他の設立登記法人,福岡県,大牟田市,平原町１６０番地の１・４,,40,202,8360813,,,2022-11-10,合併による解散等,8290005010140,令和４年１１月１０日福岡県久留米市上津町１８９２番地の１天理教諏訪野分教会（8290005010140）に合併し解散,2015-10-05,1,,,,,テンリキョウハタナカブンキョウカイ,0
1534,5330002026831,登記記録の閉鎖等,0,2022-12-07,2022-11-30,有限会社リックもり,,有限会社,熊本県,八代郡氷川町,鹿島６３９番地の２,,43,468,8694815,,,2022-11-30,清算の結了等,,,2015-10-05,1,,,,,リックモリ,0
1535,5340002001370,登記記録の閉鎖等,0,2022-12-07,2022-12-06,有限会社一福ダクト工業,,有限会社,鹿児島県,鹿児島市,平川町１０３９番地６,,46,201,8910133,,,2022-12-06,清算の結了等,,,2015-10-05,1,,,,,イチフクダクトコウギョウ,0
1551,5370102000278,登記記録の閉鎖等,0,2022-12-07,2022-12-05,有限会社柴崎建設,,有限会社,宮城県,柴田郡村田町,大字小泉字豊田１３番地１,,04,322,9891302,,,2022-12-05,清算の結了等,,,2015-10-05,1,,,,,シバサキケンセツ,0
1567,5430001076149,登記記録の閉鎖等,0,2022-12-07,2022-12-06,株式会社ｙｕａ　ｃｈａｎｇｅ,,株式会社,北海道,札幌市手稲区,星置三条９丁目１０番１４号テラス星置Ｂ号,,01,109,0060853,,,2022-12-06,清算の結了等,,,2018-03-23,1,,,,,ユアチェンジ,0
1586,5500005004189,登記記録の閉鎖等,0,2022-12-07,2022-11-22,天理教旭予分教会,,その他の設立登記法人,愛媛県,西条市,丹原町高松字四尾ノ上甲２９１番地の１,,38,206,7910524,,,2022-11-22,合併による解散等,1500005005141,令和４年１１月２２日愛媛県今治市国分五丁目４番１４号天理教幾志分教会（1500005005141）に合併し解散,2015-10-05,1,,,,,テンリキョウキョクヨブンキョウカイ,0
1595,6010001195353,登記記録の閉鎖等,0,2022-12-07,2022-12-01,株式会社ｆｅｌｉｘ　Ｉｎｎｏｖａｔｏｒｓ　Ｆａｃｔｏｒｙ,,株式会社,東京都,千代田区,岩本町１丁目３番１号,,13,101,1010032,,,2022-12-01,合併による解散等,7010401086168,令和４年１２月１日東京都千代田区大手町一丁目１番３号株式会社ＬＥＯＣ（7010401086168）に合併し解散,2018-10-11,1,,,,,フェリックスイノベーターズファクトリー,0
1612,6010403020431,登記記録の閉鎖等,0,2022-12-07,2022-11-30,合同会社ＱＯＬ・ブリッジ１,,合同会社,東京都,港区,赤坂７丁目６番１５号,,13,103,1070052,,,2022-11-30,清算の結了等,,,2019-03-26,1,,,,,キューオーエルブリッジワン,0
1617,6010501009632,登記記録の閉鎖等,0,2022-12-07,2022-12-05,中林プラント株式会社,,株式会社,東京都,台東区,千束２丁目３２番８号,,13,106,1110031,,,2022-12-05,清算の結了等,,,2015-10-05,1,,,,,,0
1618,6010502014961,登記記録の閉鎖等,0,2022-12-07,2022-11-30,株式会社ハネッセル,,株式会社,愛知県,名古屋市中区,栄３丁目１２番２８号,,23,106,4600008,,,2022-11-30,合併による解散等,6180001041086,令和４年１１月３０日名古屋市中区栄三丁目１２番２８号株式会社水野鞄店（6180001041086）に合併し解散,2015-10-05,1,,,,,ハネッセル,0
1637,6011201007125,登記記録の閉鎖等,0,2022-12-07,2022-12-01,株式会社中央経営研究所,,株式会社,東京都,中野区,東中野２丁目２２番２１号,,13,114,1640003,,,2022-12-01,合併による解散等,2011302016177,令和４年１１月１日東京都杉並区天沼三丁目３０番４０－３０８号株式会社総合管財サポート（2011302016177）に合併し解散,2015-10-05,1,,,,,チュウオウケイエイケンキュウジョ,0
1639,6011303003253,登記記録の閉鎖等,0,2022-12-07,2022-11-21,ＤＳＰ　Ｐｌａｎｎｉｎｇ合同会社,,合同会社,東京都,杉並区,宮前２丁目３０番２８号パレホームズ高井戸３０２号室,,13,115,1680081,,,2022-11-21,清算の結了等,,,2019-03-14,1,,,,,ディーエスピープランニング,0
1663,6020001124740,登記記録の閉鎖等,0,2022-12-07,2022-12-02,株式会社ＳＷＴＥＣＨ,,株式会社,神奈川県,川崎市宮前区,菅生６丁目６番５５号,,14,136,2160015,,,2022-12-02,清算の結了等,,,2018-01-22,1,,,,,エスダブリュテック,0
1669,6020003004718,登記記録の閉鎖等,0,2022-12-07,2022-12-06,モリヤ・オペレーションズ・プランニング合資会社,,合資会社,静岡県,田方郡函南町,桑原８８０番地の１０８,,22,325,4190101,,,2022-12-06,清算の結了等,,,2015-10-05,1,,,,,モリヤオペレーションズプランニング,0
1675,6021001047295,登記記録の閉鎖等,0,2022-12-07,2022-12-02,株式会社けやき,,株式会社,神奈川県,厚木市,栄町１丁目１６番１５号,,14,212,2430017,,,2022-12-02,清算の結了等,,,2015-10-05,1,,,,,,0
1679,6021002030473,登記記録の閉鎖等,0,2022-12-07,2022-12-02,有限会社アイテック,,有限会社,神奈川県,厚木市,寿町３丁目４番５号,,14,212,2430003,,,2022-12-02,清算の結了等,,,2015-10-05,1,,,,,アイテック,0
1680,6021005010274,登記記録の閉鎖等,0,2022-12-07,2022-11-30,医療法人社団輝洋会,,その他の設立登記法人,神奈川県,三浦市,南下浦町上宮田３２５７番地５高橋ビル１階,,14,210,2380101,,,2022-11-30,清算の結了等,,,2015-10-05,1,,,,,キヨウカイ,0
1686,6030001101755,登記記録の閉鎖等,0,2022-12-07,2022-12-02,株式会社ノースアップ,,株式会社,埼玉県,朝霞市,岡１丁目２０番２０号クイーンハイツ１０７号室,,11,227,3510007,,,2022-12-02,清算の結了等,,,2015-10-05,1,,,,,ノースアップ,0
1698,6030002100681,登記記録の閉鎖等,0,2022-12-07,2022-12-01,有限会社ウイズ,,有限会社,埼玉県,川口市,大字道合１２４６番地,,11,203,3330835,,,2022-12-01,清算の結了等,,,2015-10-05,1,,,,,ウイズ,0
1700,6030003001623,登記記録の閉鎖等,0,2022-12-07,2022-11-30,合資会社浅岡情報システム,,合資会社,埼玉県,幸手市,中２丁目９番３０号,,11,240,3400115,,,2022-11-30,清算の結了等,,,2015-10-05,1,,,,,アサオカジョウホウシステム,0
1734,6100001000413,登記記録の閉鎖等,0,2022-12-07,2022-12-02,株式会社エステートコスモス,,株式会社,長野県,長野市,川中島町今里６８８番地,,20,201,3812234,,,2022-12-02,清算の結了等,,,2015-10-05,1,,,,,エステートコスモス,0
1747,6120001035952,登記記録の閉鎖等,0,2022-12-07,2022-12-02,株式会社なにわ小倉屋,,株式会社,大阪府,大阪市福島区,福島８丁目９番５号,,27,103,5530003,,,2022-12-02,清算の結了等,,,2015-10-05,1,,,,,ナニワオグラヤ,0
1814,6180001093838,登記記録の閉鎖等,0,2022-12-07,2022-11-30,株式会社ライフ・パートナー,,株式会社,愛知県,知多郡阿久比町,大字卯坂字小曽ケ脇１７１番地,,23,441,4702212,,,2022-11-30,清算の結了等,,,2015-10-05,1,,,,,ライフパートナー,0
1839,6230002005662,登記記録の閉鎖等,0,2022-12-07,2022-12-05,有限会社ホークスウイル,,有限会社,富山県,富山市,大町１０４番地の１,,16,201,9398073,,,2022-12-05,清算の結了等,,,2015-10-05,1,,,,,ホークスウイル,0
1849,6290001000527,登記記録の閉鎖等,0,2022-12-07,2022-12-02,フッケンリバイブ株式会社,,株式会社,福岡県,福岡市西区,下山門４丁目１７番４－３０１号,,40,135,8190052,,,2022-12-02,清算の結了等,,,2015-10-05,1,,,,,フッケンリバイブ,0
1893,6380002035075,登記記録の閉鎖等,0,2022-12-07,2022-12-05,有限会社ベイクド・ポテト,,有限会社,福島県,耶麻郡北塩原村,大字桧原字曽原山１０９６番地の５２０,,07,402,9692701,,,2022-12-05,清算の結了等,,,2015-10-05,1,,,,,ベイクドポテト,0
1913,6430005007132,登記記録の閉鎖等,0,2022-12-07,2022-11-18,天理教若竹分教会,,その他の設立登記法人,北海道,岩見沢市,南町六条２丁目１番５号,,01,210,0680806,,,2022-11-18,合併による解散等,9430005007278,令和４年１１月１８日北海道滝川市二の坂町西四丁目１０５番地４天理教龍昇分教会（9430005007278）に合併し解散,2015-10-05,1,,,,,,0
1915,6450002010509,登記記録の閉鎖等,0,2022-12-07,2022-12-01,有限会社山本菓子舗,,有限会社,北海道,士別市,大通西５丁目,,01,220,0950029,,,2022-12-01,清算の結了等,,,2015-10-05,1,,,,,ヤマモトカシホ,0
1951,7010403010497,登記記録の閉鎖等,0,2022-12-07,2022-12-01,合同会社ＪＲＥ香取,,合同会社,東京都,港区,六本木６丁目２番３１号六本木ヒルズノースタワー１５階,,13,103,1060032,,,2022-12-01,合併による解散等,5010401101449,令和４年１２月１日東京都港区六本木六丁目２番３１号六本木ヒルズノースタワー１５階ジャパン・リニューアブル・エナジー株式会社（5010401101449）に合併し解散,2015-10-05,1,,,,,ジェーアールイーカトリ,0
1952,7010403011859,登記記録の閉鎖等,0,2022-12-07,2022-12-01,合同会社ＪＲＥ美浦,,合同会社,東京都,港区,六本木６丁目２番３１号六本木ヒルズノースタワー１５階,,13,103,1060032,,,2022-12-01,合併による解散等,5010401101449,令和４年１２月１日東京都港区六本木六丁目２番３１号六本木ヒルズノースタワー１５階ジャパン・リニューアブル・エナジー株式会社（5010401101449）に合併し解散,2015-10-05,1,,,,,ジェーアールイーミホ,0
1954,7010403016503,登記記録の閉鎖等,0,2022-12-07,2022-12-01,合同会社ＪＲＥ美浦第四,,合同会社,東京都,港区,六本木６丁目２番３１号六本木ヒルズノースタワー１５階,,13,103,1060032,,,2022-12-01,合併による解散等,5010401101449,令和４年１２月１日東京都港区六本木六丁目２番３１号六本木ヒルズノースタワー１５階ジャパン・リニューアブル・エナジー株式会社（5010401101449）に合併し解散,2017-05-09,1,,,,,ジェーアールイーミホダイヨン,0
1970,7011001064101,登記記録の閉鎖等,0,2022-12-07,2022-11-17,シグマ・キャピタル株式会社,,株式会社,東京都,港区,東新橋２丁目１０番１０号東新橋ビル２階,,13,103,1050021,,,2022-11-17,清算の結了等,,,2015-10-05,1,,,,,シグマキャピタル,0
1973,7011001144308,登記記録の閉鎖等,0,2022-12-07,2022-12-01,株式会社ｄｅｕｘ　ｍ,,株式会社,東京都,渋谷区,神宮前６丁目８番１０号,,13,113,1500001,,,2022-12-01,清算の結了等,,,2021-12-02,1,,,,,ドゥエム,0
1986,7011301018517,登記記録の閉鎖等,0,2022-12-07,2022-11-30,株式会社アートセクション,,株式会社,東京都,杉並区,阿佐谷南１丁目２７番１２号,,13,115,1660004,,,2022-11-30,清算の結了等,,,2015-10-05,1,,,,,アートセクション,0
1991,7011602005255,登記記録の閉鎖等,0,2022-12-07,2022-12-02,しらかば工房有限会社,,有限会社,東京都,練馬区,南大泉４丁目１番１０号,,13,120,1780064,,,2022-12-02,清算の結了等,,,2015-10-05,1,,,,,シラカバコウボウ,0
2016,7020001121621,登記記録の閉鎖等,0,2022-12-07,2022-12-05,Ｆｉｖｅ　Ｒｏｓｅｓ株式会社,,株式会社,神奈川県,川崎市中原区,新丸子東２丁目９２５番地,,14,133,2110004,,,2022-12-05,清算の結了等,,,2017-06-01,1,,,,,,0
2032,7030001026695,登記記録の閉鎖等,0,2022-12-07,2022-12-01,株式会社裕工,,株式会社,埼玉県,狭山市,入間川１４４１番地の１７,,11,215,3501305,,,2022-12-01,清算の結了等,,,2015-10-05,1,,,,,ユウコウ,0
2061,7060002000317,登記記録の閉鎖等,0,2022-12-07,2022-12-01,トアヴァルト有限会社,,有限会社,栃木県,宇都宮市,立伏町９４８番地１８９,,09,201,3291116,,,2022-12-01,合併による解散等,2060001012136,令和４年１２月１日栃木県那須塩原市下田野５３２番地１７１株式会社庫や（2060001012136）に合併し解散,2015-10-05,1,,,,,トアヴァルト,0
2067,7070002024265,登記記録の閉鎖等,0,2022-12-07,2022-12-05,有限会社トラベルサロン,,有限会社,群馬県,みどり市,大間々町大間々４０番地,,10,212,3760101,,,2022-12-05,清算の結了等,,,2015-10-05,1,,,,,トラベルサロン,0
2084,7120001110622,登記記録の閉鎖等,0,2022-12-07,2022-12-06,インクステクノサービス株式会社,,株式会社,大阪府,大阪市西区,江戸堀１丁目２３番３７号,,27,106,5500002,,,2022-12-06,清算の結了等,,,2015-10-05,1,,,,,インクステクノサービス,0
2111,7122002001718,登記記録の閉鎖等,0,2022-12-07,2022-11-30,有限会社ゴオダ,,有限会社,大阪府,東大阪市,東豊浦町１０番１７号,,27,227,5798032,,,2022-11-30,合併による解散等,5122001002157,令和４年１１月３０日大阪府東大阪市若江東町二丁目６番３８号ゴオダ工業株式会社（5122001002157）に合併し解散,2015-10-05,1,,,,,ゴオダ,0
2123,7140001120215,登記記録の閉鎖等,0,2022-12-07,2022-12-05,株式会社ミライ製畳所,,株式会社,兵庫県,伊丹市,北伊丹９丁目８０番３,,28,207,6640831,,,2022-12-05,清算の結了等,,,2021-01-25,1,,,,,ミライセイジョウショ,0
2126,7150005000899,登記記録の閉鎖等,0,2022-12-07,2022-11-29,平城産業協同組合,,その他の設立登記法人,奈良県,奈良市,佐紀町４７番地,,29,201,6308003,,,2022-11-29,清算の結了等,,,2015-10-05,1,,,,,ヘイジョウサンギョウ,0
2145,7180002028536,登記記録の閉鎖等,0,2022-12-07,2022-12-01,有限会社長瀬電機製作所,,有限会社,愛知県,名古屋市中村区,並木１丁目２０２番地,,23,105,4530856,,,2022-12-01,清算の結了等,,,2015-10-05,1,,,,,ナガセデンキセイサクショ,0
2147,7180002045977,登記記録の閉鎖等,0,2022-12-07,2022-12-01,有限会社エム・アイ・シー,,有限会社,愛知県,名古屋市中区,千代田２丁目２０番１号,,23,106,4600012,,,2022-12-01,清算の結了等,,,2015-10-05,1,,,,,エムアイシー,0
2154,7180302025497,登記記録の閉鎖等,0,2022-12-07,2022-12-02,有限会社大橋商店,,有限会社,愛知県,豊田市,福受町四ツ屋５９番地５,,23,211,4701214,,,2022-12-02,清算の結了等,,,2015-10-05,1,,,,,オオハシショウテン,0
2196,7290801028659,登記記録の閉鎖等,0,2022-12-07,2022-11-21,株式会社ペットメモリアル想花,,株式会社,福岡県,中間市,太賀３丁目５番２２号,,40,215,8090015,,,2022-11-21,清算の結了等,,,2022-06-21,1,,,,,ペットメモリアルソウカ,0
2202,7330001017623,登記記録の閉鎖等,0,2022-12-07,2022-12-05,株式会社Ｎｅｗｓｔａｒコーポレーション,,株式会社,熊本県,山鹿市,鹿央町合里５９８８番地,,43,208,8610565,,,2022-12-05,清算の結了等,,,2015-10-05,1,,,,,ニュースターコーポレーション,0
2204,7330002025856,登記記録の閉鎖等,0,2022-12-07,2022-11-30,有限会社サンアイ,,有限会社,熊本県,八代市,横手町１６３７番地の３,,43,202,8660873,,,2022-11-30,清算の結了等,,,2015-10-05,1,,,,,サンアイ,0
2263,8010401147877,登記記録の閉鎖等,0,2022-12-07,2022-12-01,株式会社インナチュラル,,株式会社,東京都,港区,赤坂８丁目１０番２２号ニュー新坂ビル４Ｆ,,13,103,1070052,,,2022-12-01,合併による解散等,9010401147273,令和４年１２月１日東京都港区赤坂八丁目１０番２２号ニュー新坂ビル４ＦＬＭＩグループ株式会社（9010401147273）に合併し解散,2019-09-06,1,,,,,インナチュラル,0
2267,8010403017649,登記記録の閉鎖等,0,2022-12-07,2022-12-01,合同会社ＪＲＥ波崎北,,合同会社,東京都,港区,六本木６丁目２番３１号六本木ヒルズノースタワー１５階,,13,103,1060032,,,2022-12-01,合併による解散等,5010401101449,令和４年１２月１日東京都港区六本木六丁目２番３１号六本木ヒルズノースタワー１５階ジャパン・リニューアブル・エナジー株式会社（5010401101449）に合併し解散,2017-11-20,1,,,,,ジェーアールイーハサキキタ,0
2268,8010403022277,登記記録の閉鎖等,0,2022-12-07,2022-11-29,Ｓ２合同会社,,合同会社,東京都,港区,西麻布１丁目１５番４号グラード西麻布７０２,,13,103,1060031,,,2022-11-29,合併による解散等,4010001128645,令和４年１０月２２日東京都港区六本木４－１２－８株式会社ソーヤローガ（4010001128645）に合併し解散,2020-02-12,1,,,,,エスツー,0
2270,8010501031048,登記記録の閉鎖等,0,2022-12-07,2022-11-30,株式会社ＮＥＯ　ＴＲＡＤＥ,,株式会社,千葉県,野田市,目吹１４６３－１,,12,208,2780001,,,2022-11-30,清算の結了等,,,2015-10-05,1,,,,,,0
2271,8010503005033,登記記録の閉鎖等,0,2022-12-07,2022-12-06,合同会社如月マネジメント,,合同会社,東京都,台東区,台東４丁目２９番１３－８０２号,,13,106,1100016,,,2022-12-06,清算の結了等,,,2017-07-24,1,,,,,,0
2288,8011001111249,登記記録の閉鎖等,0,2022-12-07,2022-12-01,Ｌａｂ　ａｎｄ　Ｄｅｓｉｇｎ株式会社,,株式会社,東京都,目黒区,祐天寺２丁目１３番４号,,13,110,1530052,,,2022-12-01,合併による解散等,9011001111248,令和４年１２月１日東京都目黒区祐天寺二丁目１３番４号Ｌａｂ＆Ｄｅｓｉｇｎ株式会社（9011001111248）に合併し解散,2016-06-08,1,,,,,ラボアンドデザイン,0
2306,8011303003490,登記記録の閉鎖等,0,2022-12-07,2022-11-30,合同会社ＳＰＯＲＴＳ　ＰＡＲＫ,,合同会社,東京都,杉並区,大宮２丁目１０番１５号,,13,115,1680061,,,2022-11-30,清算の結了等,,,2019-12-06,1,,,,,スポーツパーク,0
2309,8011401012823,登記記録の閉鎖等,0,2022-12-07,2022-12-06,株式会社ＩＭＣ,,株式会社,東京都,板橋区,徳丸３丁目２５番１２－１０５号,,13,119,1750083,,,2022-12-06,清算の結了等,,,2015-10-05,1,,,,,アイエムシー,0
2324,8012401024081,登記記録の閉鎖等,0,2022-12-07,2022-12-02,株式会社寿理庵,,株式会社,東京都,三鷹市,下連雀１丁目２８番４号,,13,204,1810013,,,2022-12-02,清算の結了等,,,2015-10-05,1,,,,,ジュリアン,0
2329,8013301047230,登記記録の閉鎖等,0,2022-12-07,2022-12-01,株式会社ＲＥＩＧＥＴＳＵ　ＨＲ　Ｐｅｒｆｏｒｍａｎｃｅ,,株式会社,東京都,豊島区,西池袋３丁目２９番９号福利ビル４Ｆ,,13,116,1710021,,,2022-12-01,合併による解散等,2013301044596,令和４年１２月１日東京都豊島区西池袋三丁目２９番９号福利ビル４Ｆ株式会社ＲＥＩＧＥＴＳＵ（2013301044596）に合併し解散,2021-04-07,1,,,,,レイゲツヒューマンリソースパフォーマンス,0
2341,8020001143466,登記記録の閉鎖等,0,2022-12-07,2022-12-02,株式会社マゴダチ,,株式会社,神奈川県,横浜市磯子区,中原３丁目７番１－３０８号,,14,107,2350036,,,2022-12-02,清算の結了等,,,2021-10-14,1,,,,,マゴダチ,0
2343,8020002030201,登記記録の閉鎖等,0,2022-12-07,2022-12-02,有限会社ジャパン,,有限会社,神奈川県,横浜市港南区,丸山台１丁目２番－１京急シティー上永谷ＬウイングＷ－３１３号,,14,111,2330013,,,2022-12-02,清算の結了等,,,2015-10-05,1,,,,,ジャパン,0
2345,8020002075601,登記記録の閉鎖等,0,2022-12-07,2022-12-02,有限会社さくら,,有限会社,神奈川県,横浜市港北区,篠原西町２２番１６号,,14,109,2220025,,,2022-12-02,清算の結了等,,,2015-10-05,1,,,,,サクラ,0
2368,8030002048977,登記記録の閉鎖等,0,2022-12-07,2022-12-01,有限会社淨化槽サービスセンター,,有限会社,埼玉県,三郷市,谷中６３番地,,11,237,3410032,,,2022-12-01,清算の結了等,,,2015-10-05,1,,,,,ジョウカソウサービスセンター,0
2379,8040002033210,登記記録の閉鎖等,0,2022-12-07,2022-11-30,有限会社小田プラン,,有限会社,千葉県,市川市,東国分２丁目２番７号,,12,203,2720833,,,2022-11-30,清算の結了等,,,2015-10-05,1,,,,,オダプラン,0
2425,8120001246093,登記記録の閉鎖等,0,2022-12-07,2022-12-02,株式会社アークス,,株式会社,大阪府,大阪市西淀川区,中島１丁目２３番４号,,27,113,5550041,,,2022-12-02,清算の結了等,,,2022-05-27,1,,,,,アークス,0
2428,8120002068818,登記記録の閉鎖等,0,2022-12-07,2022-12-02,有限会社大島興業,,有限会社,大阪府,大阪市東淀川区,豊里２丁目１番３－７０５号,,27,114,5330013,,,2022-12-02,清算の結了等,,,2015-10-05,1,,,,,オオシマコウギョウ,0
2445,8122002012350,登記記録の閉鎖等,0,2022-12-07,2022-12-05,有限会社東邦産業,,有限会社,大阪府,大東市,新田北町４番２５号,,27,218,5740052,,,2022-12-05,清算の結了等,,,2015-10-05,1,,,,,トウホウサンギョウ,0
2447,8130001024936,登記記録の閉鎖等,0,2022-12-07,2022-12-05,株式会社イーライフ,,株式会社,京都府,京都市左京区,吉田中大路町１０番地３,,26,103,6068313,,,2022-12-05,清算の結了等,,,2015-10-05,1,,,,,イーライフ,0
2471,8180001003596,登記記録の閉鎖等,0,2022-12-07,2022-12-02,株式会社絵里奈フアツシヨン,,株式会社,愛知県,名古屋市千種区,若水３丁目２７番１９号,,23,101,4640071,,,2022-12-02,清算の結了等,,,2015-10-05,1,,,,,エリナフアツシヨン,0
2473,8180001077178,登記記録の閉鎖等,0,2022-12-07,2022-12-02,名古屋中野物産株式会社,,株式会社,愛知県,春日井市,鳥居松町１丁目３１４番地,,23,206,4860844,,,2022-12-02,清算の結了等,,,2015-10-05,1,,,,,ナゴヤナカノブッサン,0
2481,8180002016886,登記記録の閉鎖等,0,2022-12-07,2022-11-30,有限会社丸秋商事,,有限会社,愛知県,名古屋市東区,大幸２丁目３番５号,,23,102,4610043,,,2022-11-30,清算の結了等,,,2015-10-05,1,,,,,マルシュウショウジ,0
2483,8180002084520,登記記録の閉鎖等,0,2022-12-07,2022-12-01,有限会社丸正不動産建設,,有限会社,愛知県,知多郡阿久比町,大字矢高字仲組５０番地,,23,441,4702215,,,2022-12-01,清算の結了等,,,2015-10-05,1,,,,,マルショウフドウサンケンセツ,0
2485,8180002086368,登記記録の閉鎖等,0,2022-12-07,2022-12-01,ヤマホ商事有限会社,,有限会社,愛知県,常滑市,小林町１丁目３０番地,,23,216,4790865,,,2022-12-01,清算の結了等,,,2015-10-05,1,,,,,ヤマホショウジ,0
2496,8200002010325,登記記録の閉鎖等,0,2022-12-07,2022-12-01,有限会社浅井工業,,有限会社,岐阜県,羽島郡笠松町,円城寺字川田１８２番地,,21,303,5016035,,,2022-12-01,合併による解散等,4200001013984,令和４年１２月１日岐阜県大垣市荒尾町１２７８番地槌谷工業株式会社（4200001013984）に合併し解散,2015-10-05,1,,,,,アサイコウギョウ,0
2533,8310001008607,登記記録の閉鎖等,0,2022-12-07,2022-12-05,グッドラックホーム株式会社,,株式会社,長崎県,諫早市,長野町１４７７番地２,,42,204,8540036,,,2022-12-05,清算の結了等,,,2015-10-05,1,,,,,グッドラックホーム,0
2537,8320002003408,登記記録の閉鎖等,0,2022-12-07,2022-12-06,有限会社信保,,有限会社,大分県,大分市,大道町３丁目４番４８号,,44,201,8700822,,,2022-12-06,清算の結了等,,,2015-10-05,1,,,,,シンポ,0
2574,8470002006858,登記記録の閉鎖等,0,2022-12-07,2022-12-05,有限会社三栄ハウジング,,有限会社,香川県,高松市,香川町寺井６３２番地２９,,37,201,7611702,,,2022-12-05,清算の結了等,,,2015-10-05,1,,,,,サンエイハウジング,0
2575,8500005006380,登記記録の閉鎖等,0,2022-12-07,2022-11-21,天理教成妙分教會,,その他の設立登記法人,愛媛県,宇和島市,三間町曽根４５６番地,,38,203,7981104,,,2022-11-21,合併による解散等,4500005006277,令和４年１１月２１日愛媛県宇和島市本町追手二丁目２番８号天理教南豫分教会（4500005006277）に合併し解散,2015-10-05,1,,,,,テンリキョウナルタエブンキョウカイ,0
2593,9010003032147,登記記録の閉鎖等,0,2022-12-07,2022-12-01,合同会社リバーサイド・インベストメント,,合同会社,東京都,千代田区,内幸町２丁目１番６号,,13,101,1000011,,,2022-12-01,清算の結了等,,,2020-05-01,1,,,,,リバーサイドインベストメント,0
2596,9010401150871,登記記録の閉鎖等,0,2022-12-07,2022-11-29,株式会社ｍａｉｓｏｎ　Ｎ,,株式会社,東京都,港区,麻布台１丁目１１番１０号,,13,103,1060041,,,2022-11-29,清算の結了等,,,2020-02-07,1,,,,,メゾンエヌ,0
2599,9010403010495,登記記録の閉鎖等,0,2022-12-07,2022-12-01,合同会社ＪＲＥ益子,,合同会社,東京都,港区,六本木６丁目２番３１号六本木ヒルズノースタワー１５階,,13,103,1060032,,,2022-12-01,合併による解散等,5010401101449,令和４年１２月１日東京都港区六本木六丁目２番３１号六本木ヒルズノースタワー１５階ジャパン・リニューアブル・エナジー株式会社（5010401101449）に合併し解散,2015-10-05,1,,,,,ジェーアールイーマシコ,0
2600,9010405003497,登記記録の閉鎖等,0,2022-12-07,2022-11-30,ディー・ティー・シー・トゥー特定目的会社,,その他の設立登記法人,東京都,港区,虎ノ門３丁目２２番１０－２０１号,,13,103,1050001,,,2022-11-30,清算の結了等,,,2015-10-05,1,,,,,ディーティーシートゥー,0
2604,9010701015386,登記記録の閉鎖等,0,2022-12-07,2022-12-02,株式会社青山堂本店,,株式会社,東京都,品川区,中延１丁目２番２２号,,13,109,1420053,,,2022-12-02,清算の結了等,,,2015-10-05,1,,,,,,0
2610,9010803003743,登記記録の閉鎖等,0,2022-12-07,2022-12-01,合同会社メルカトール,,合同会社,東京都,大田区,久が原１丁目５番１２号５０１号室,,13,111,1460085,,,2022-12-01,清算の結了等,,,2021-05-11,1,,,,,メルカトール,0
2657,9012402002614,登記記録の閉鎖等,0,2022-12-07,2022-12-05,丸福有限会社,,有限会社,東京都,府中市,宮町１丁目２３番地の３,,13,206,1830023,,,2022-12-05,清算の結了等,,,2015-10-05,1,,,,,マルフク,0
2673,9020002027064,登記記録の閉鎖等,0,2022-12-07,2022-12-05,有限会社正栄興業,,有限会社,神奈川県,横浜市神奈川区,羽沢南２丁目３６番８－２０１号,,14,102,2210866,,,2022-12-05,清算の結了等,,,2015-10-05,1,,,,,,0
2689,9030002044884,登記記録の閉鎖等,0,2022-12-07,2022-11-14,有限会社田代工業,,有限会社,埼玉県,草加市,稲荷４丁目４番２１号,,11,221,3400003,,,2022-11-14,清算の結了等,,,2015-10-05,1,,,,,タシロコウギョウ,0
2690,9030002053258,登記記録の閉鎖等,0,2022-12-07,2022-12-01,有限会社海老装業,,有限会社,埼玉県,上尾市,大字上１３８０番地の１０,,11,219,3620001,,,2022-12-01,清算の結了等,,,2015-10-05,1,,,,,エビソウギョウ,0
2691,9030002089979,登記記録の閉鎖等,0,2022-12-07,2022-12-01,有限会社アートサービス,,有限会社,埼玉県,吉川市,大字下内川１５３番地２,,11,243,3420002,,,2022-12-01,合併による解散等,1030001126674,令和４年１２月１日埼玉県吉川市大字川藤２２１２番地２株式会社アートサービス（1030001126674）に合併し解散,2015-10-05,1,,,,,アートサービス,0
2692,9030002102915,登記記録の閉鎖等,0,2022-12-07,2022-12-01,有限会社サイトープラント工業,,有限会社,埼玉県,さいたま市緑区,芝原３丁目１８番地１,,11,109,3360917,,,2022-12-01,清算の結了等,,,2015-10-05,1,,,,,サイトウプラントコウギョウ,0
2695,9040001110050,登記記録の閉鎖等,0,2022-12-07,2022-12-01,洋洋株式会社,,株式会社,千葉県,千葉市中央区,祐光２丁目７番１棟７１３号,,12,101,2600007,,,2022-12-01,清算の結了等,,,2019-07-24,1,,,,,ヨウヨウ,0
2708,9050005011590,登記記録の閉鎖等,0,2022-12-07,2022-12-01,一般社団法人日本ハリウッド式小顔整顔協会,,その他の設立登記法人,茨城県,土浦市,中１１４１番地２９,,08,203,3000841,,,2022-12-01,清算の結了等,,,2015-10-05,1,,,,,ニホンハリウッドシキコガオセイガンキョウカイ,0
2709,9060001014266,登記記録の閉鎖等,0,2022-12-07,2022-12-01,株式会社三洋ファスナー,,株式会社,栃木県,小山市,大字横倉８１４番地６,,09,208,3230813,,,2022-12-01,清算の結了等,,,2015-10-05,1,,,,,サンヨウファスナー,0
2726,9100001025382,登記記録の閉鎖等,0,2022-12-07,2022-11-30,株式会社諏訪駅前開発,,株式会社,長野県,諏訪市,諏訪１丁目６番１号,,20,206,3920004,,,2022-11-30,合併による解散等,6100001018174,令和４年１１月３０日長野県諏訪郡下諏訪町６０８２番地１株式会社井口（6100001018174）に合併し解散,2015-10-05,1,,,,,スワエキマエカイハツ,0
2734,9120001067613,登記記録の閉鎖等,0,2022-12-07,2022-12-02,東海特殊熔接工業株式会社,,株式会社,大阪府,大阪市北区,大淀中１丁目１４番２号,,27,127,5310076,,,2022-12-02,清算の結了等,,,2015-10-05,1,,,,,トウカイトクシュヨウセツコウギョウ,0
2754,9120101003765,登記記録の閉鎖等,0,2022-12-07,2022-12-02,株式会社まちづくりＭＧＰ,,株式会社,大阪府,堺市堺区,老松町３丁７３番地２,,27,141,5900824,,,2022-12-02,清算の結了等,,,2015-10-05,1,,,,,マチヅクリエムジーピー,0
2756,9120101030982,登記記録の閉鎖等,0,2022-12-07,2022-12-05,タナカ造園石材株式会社,,株式会社,大阪府,富田林市,中野町３丁目２９７８番地,,27,214,5840021,,,2022-12-05,清算の結了等,,,2015-10-05,1,,,,,タナカゾウエンセキザイ,0
2760,9120101054057,登記記録の閉鎖等,0,2022-12-07,2022-11-30,安全運転法令順守株式会社,,株式会社,大阪府,高石市,千代田５丁目３番２６号,,27,225,5920005,,,2022-11-30,清算の結了等,,,2015-12-24,1,,,,,アンゼンウンテンホウレイジュンシュ,0
2764,9120901017510,登記記録の閉鎖等,0,2022-12-07,2022-12-06,株式会社プランニングシバザキ,,株式会社,大阪府,高槻市,真上町６丁目８番１－４０４号,,27,207,5691121,,,2022-12-06,清算の結了等,,,2015-10-05,1,,,,,プランニングシバザキ,0
2770,9122001034774,登記記録の閉鎖等,0,2022-12-07,2022-12-01,株式会社マゼックスファクトリー,,株式会社,大阪府,東大阪市,川田４丁目３番１６号,,27,227,5780905,,,2022-12-01,合併による解散等,2122001030557,令和４年１２月１日大阪府東大阪市川田四丁目３番１６号株式会社マゼックス（2122001030557）に合併し解散,2021-05-12,1,,,,,マゼックスファクトリー,0
2794,9140001120444,登記記録の閉鎖等,0,2022-12-07,2022-12-05,株式会社ＣＯＴＯエステート,,株式会社,兵庫県,伊丹市,北伊丹９丁目８０番３,,28,207,6640831,,,2022-12-05,清算の結了等,,,2021-02-16,1,,,,,コトエステート,0
2806,9150001010388,登記記録の閉鎖等,0,2022-12-07,2022-12-05,橿原電機株式会社,,株式会社,奈良県,橿原市,膳夫町４７７番地の１１,,29,205,6340012,,,2022-12-05,合併による解散等,2120001021304,令和４年１２月１日大阪市平野区加美北六丁目１５番１４号ハシダ技研工業株式会社（2120001021304）に合併し解散,2015-10-05,1,,,,,カシハラデンキ,0
2811,9170002000543,登記記録の閉鎖等,0,2022-12-07,2022-12-05,有限会社エクステリア竹中,,有限会社,和歌山県,和歌山市,鳴神１１５番地の８,,30,201,6408303,,,2022-12-05,清算の結了等,,,2015-10-05,1,,,,,エクステリアタケナカ,0
2814,9180001065256,登記記録の閉鎖等,0,2022-12-07,2022-12-01,株式会社ウップス,,株式会社,愛知県,名古屋市中区,上前津２丁目５番２５号,,23,106,4600013,,,2022-12-01,清算の結了等,,,2015-10-05,1,,,,,ウップス,0
2831,9200001013427,登記記録の閉鎖等,0,2022-12-07,2022-11-24,カーサロン旭株式会社,,株式会社,岐阜県,大垣市,鶴見町２５９番地１,,21,202,5030805,,,2022-11-24,清算の結了等,,,2015-10-05,1,,,,,カーサロンアサヒ,0
2839,9230001006700,登記記録の閉鎖等,0,2022-12-07,2022-12-05,株式会社ファニーファーム,,株式会社,富山県,富山市,中老田１３５２番地,,16,201,9300166,,,2022-12-05,清算の結了等,,,2015-10-05,1,,,,,ファニーファーム,0
2864,9290001082224,登記記録の閉鎖等,0,2022-12-07,2022-12-05,株式会社エール,,株式会社,福岡県,福岡市城南区,片江２丁目２－１５,,40,136,8140142,,,2022-12-05,清算の結了等,,,2018-08-02,1,,,,,エール,0
2875,9300002006452,登記記録の閉鎖等,0,2022-12-07,2022-12-01,有限会社草場工業,,有限会社,佐賀県,武雄市,山内町大字大野１２０９５番地,,41,206,8492304,,,2022-12-01,清算の結了等,,,2015-10-05,1,,,,,クサバコウギョウ,0
2890,9370001021792,登記記録の閉鎖等,0,2022-12-07,2022-12-02,株式会社トゥエンティワン,,株式会社,宮城県,仙台市宮城野区,福室２丁目８番地１７福室マンション３１４号室,,04,102,9830005,,,2022-12-02,清算の結了等,,,2015-10-05,1,,,,,トゥエンティワン,0
2895,9370002013070,登記記録の閉鎖等,0,2022-12-07,2022-12-01,有限会社東日本会計センター,,有限会社,宮城県,仙台市宮城野区,福住町５番地の１５,,04,102,9830033,,,2022-12-01,清算の結了等,,,2015-10-05,1,,,,,ヒガシニホンカイケイセンター,0
2900,9400502000069,登記記録の閉鎖等,0,2022-12-07,2022-11-30,有限会社石川商事,,有限会社,岩手県,一関市,関が丘１０１番地５,,03,209,0210851,,,2022-11-30,清算の結了等,,,2015-10-05,1,,,,,イシカワショウジ,0
2901,9402701000568,登記記録の閉鎖等,0,2022-12-07,2022-12-01,株式会社リアス生コン,,株式会社,岩手県,陸前高田市,米崎町字川西１１番地３,,03,210,0292206,,,2022-12-01,清算の結了等,,,2015-10-05,1,,,,,リアスナマコン,0
2908,9430002017478,登記記録の閉鎖等,0,2022-12-07,2022-12-02,有限会社フラワーヨシダ,,有限会社,北海道,札幌市南区,南沢二条２丁目４番１１号,,01,106,0050822,,,2022-12-02,清算の結了等,,,2015-10-05,1,,,,,フラワーヨシダ,0
2915,9450002012782,登記記録の閉鎖等,0,2022-12-07,2022-12-05,有限会社丸さ佐藤土建,,有限会社,北海道,紋別市,緑町４丁目２２番４４号,,01,219,0940014,,,2022-12-05,清算の結了等,,,2015-10-05,1,,,,,マルササトウドケン,0
