sequenceNumber,corporateNumber,process,correct,updateDate,changeDate,name,nameImageId,kind,prefectureName,cityName,streetNumber,addressImageId,prefectureCode,cityCode,postCode,addressOutside,addressOutsideImageId,closeDate,closeCause,successorCorporateNumber,changeCause,assignmentDate,latest,enName,enPrefectureName,enCityName,enAddressOutside,furigana,hihyoji
10,1010003023244,登記記録の閉鎖等,0,2022-06-08,2022-06-01,ラ・バランス合同会社,,合同会社,東京都,中央区,銀座１丁目１３番１号,,13,102,1040061,,,2022-06-01,清算の結了等,,,2016-03-16,1,,,,,ラバランス,0
23,1010603005468,登記記録の閉鎖等,0,2022-06-08,2022-06-01,合同会社ジーエイト辰巳,,合同会社,東京都,江東区,亀戸６丁目５６番１５号,,13,108,1360071,,,2022-06-01,清算の結了等,,,2015-10-05,1,,,,,ジーエイトタツミ,0
29,1011001023269,登記記録の閉鎖等,0,2022-06-08,2022-06-03,株式会社メルティス,,株式会社,東京都,新宿区,信濃町３番地,,13,104,1600016,,,2022-06-03,清算の結了等,,,2015-10-05,1,,,,,メルティス,0
34,1011001140584,登記記録の閉鎖等,0,2022-06-08,2022-05-25,お得な賃貸株式会社,,株式会社,東京都,渋谷区,道玄坂１丁目２番３号,,13,113,1500043,,,2022-05-25,清算の結了等,,,2021-05-24,1,,,,,オトクナチンタイ,0
39,1011101090911,登記記録の閉鎖等,0,2022-06-08,2022-06-02,株式会社エントランス,,株式会社,東京都,新宿区,西落合２丁目２４番１１号,,13,104,1610031,,,2022-06-02,清算の結了等,,,2020-04-01,1,,,,,エントランス,0
41,1011301026871,登記記録の閉鎖等,0,2022-06-08,2022-05-25,株式会社Ｂａｇｅｌ　Ｘ,,株式会社,東京都,渋谷区,本町５丁目４４番２号,,13,113,1510071,,,2022-05-25,清算の結了等,,,2021-05-27,1,,,,,ベーグルエックス,0
53,1011705001603,登記記録の閉鎖等,0,2022-06-08,2022-06-06,一般社団法人Ａｌａｍ　Ｃｏｍｍｕｎｉｃａｔｉｏｎ　Ｓｏｃｉｅｔｙ,,その他の設立登記法人,東京都,江戸川区,船堀２丁目１６番１４－２０３号フレンズマンション,,13,123,1340091,,,2022-06-06,清算の結了等,,,2020-02-20,1,,,,,アラムコミュニケーションソサエティ,0
90,1030002089854,登記記録の閉鎖等,0,2022-06-08,2022-06-02,有限会社浅水商店,,有限会社,埼玉県,吉川市,大字平沼３５番地１,,11,243,3420056,,,2022-06-02,清算の結了等,,,2015-10-05,1,,,,,アサミズショウテン,0
95,1040001003006,登記記録の閉鎖等,0,2022-06-08,2022-06-02,株式会社ジオソフト,,株式会社,千葉県,千葉市美浜区,磯辺１丁目２番１１号,,12,106,2610012,,,2022-06-02,清算の結了等,,,2015-10-05,1,,,,,ジオソフト,0
96,1040001004565,登記記録の閉鎖等,0,2022-06-08,2022-06-01,千葉合同開発株式会社,,株式会社,千葉県,千葉市中央区,中央４丁目１４番１号,,12,101,2600013,,,2022-06-01,清算の結了等,,,2015-10-05,1,,,,,チバゴウドウカイハツ,0
108,1040002085472,登記記録の閉鎖等,0,2022-06-08,2022-05-31,有限会社コウケン,,有限会社,千葉県,銚子市,八木町４０７４番地,,12,202,2880822,,,2022-05-31,清算の結了等,,,2015-10-05,1,,,,,コウケン,0
123,1080101018882,登記記録の閉鎖等,0,2022-06-08,2022-05-31,ネクストステーション株式会社,,株式会社,静岡県,駿東郡長泉町,下土狩１６９番地の１エンゼルフォレシス三島西１００３号,,22,342,4110943,,,2022-05-31,清算の結了等,,,2016-01-27,1,,,,,ネクストステーション,0
155,1122001017753,登記記録の閉鎖等,0,2022-06-08,2022-06-01,株式会社イモタニ,,株式会社,大阪府,八尾市,東山本新町８丁目１５番５号,,27,212,5810866,,,2022-06-01,合併による解散等,6010501029473,令和４年６月１日大阪市城東区中央二丁目１５番２０号ゼネラル株式会社（6010501029473）に合併し解散,2015-10-05,1,,,,,イモタニ,0
157,1130001070854,登記記録の閉鎖等,0,2022-06-08,2022-06-01,株式会社都音通,,株式会社,京都府,京都市西京区,桂上野中町１７５番地,,26,111,6158002,,,2022-06-01,合併による解散等,6130002022049,令和４年６月１日京都市右京区西院平町３１番地株式会社林友（6130002022049）に合併し解散,2022-01-14,1,,,,,ツウオンツウ,0
192,1210001000695,登記記録の閉鎖等,0,2022-06-08,2022-06-01,開拓航営設計株式会社,,株式会社,福井県,敦賀市,疋田６１号８番地の１７,,18,202,9140302,,,2022-06-01,清算の結了等,,,2015-10-05,1,,,,,カイタクコウエイセッケイ,0
194,1220002012689,登記記録の閉鎖等,0,2022-06-08,2022-06-03,有限会社西田商事,,有限会社,石川県,金沢市,田上の里２丁目２２３番地,,17,201,9201156,,,2022-06-03,清算の結了等,,,2015-10-05,1,,,,,ニシタショウジ,0
202,1240002033857,登記記録の閉鎖等,0,2022-06-08,2022-06-02,有限会社広自動車工業,,有限会社,広島県,呉市,広徳丸町１５番１号,,34,202,7370102,,,2022-06-02,清算の結了等,,,2015-10-05,1,,,,,ヒロジドウシャコウギョウ,0
214,1300001000950,登記記録の閉鎖等,0,2022-06-08,2022-06-01,実笠産業株式会社,,株式会社,佐賀県,佐賀市,高木瀬西４丁目２番８号,,41,201,8490921,,,2022-06-01,合併による解散等,3300002009163,令和４年６月１日佐賀県鳥栖市永吉町１０９５番地西九州自動車株式会社（3300002009163）に合併し解散,2015-10-05,1,,,,,ミカササンギョウ,0
235,1370001018061,登記記録の閉鎖等,0,2022-06-08,2022-05-30,株式会社ファーイースト,,株式会社,宮城県,仙台市青葉区,中央４丁目８番１５号,,04,101,9800021,,,2022-05-30,清算の結了等,,,2015-10-05,1,,,,,ファーイースト,0
277,2010003033457,登記記録の閉鎖等,0,2022-06-08,2022-06-01,リアルブルーフォレスト合同会社,,合同会社,東京都,中央区,八丁堀４丁目２番１０号ＡＯＪ税理士法人内,,13,102,1040032,,,2022-06-01,清算の結了等,,,2020-11-05,1,,,,,リアルブルーフォレスト,0
286,2010401156660,登記記録の閉鎖等,0,2022-06-08,2022-06-02,株式会社クラタホールディングス,,株式会社,東京都,渋谷区,恵比寿４丁目２０番３号恵比寿ガーデンプレイスタワー３４階,,13,113,1500013,,,2022-06-02,合併による解散等,7011101074784,令和４年５月２０日東京都渋谷区恵比寿四丁目２０番３号恵比寿ガーデンプレイスタワー３４階株式会社クリア（7011101074784）に合併し解散,2020-11-24,1,,,,,クラタホールディングス,0
295,2010602018874,登記記録の閉鎖等,0,2022-06-08,2022-06-02,有限会社エーティーワン,,有限会社,東京都,墨田区,東駒形２丁目２番６号,,13,107,1300005,,,2022-06-02,清算の結了等,,,2015-10-05,1,,,,,エーティーワン,0
312,2011001128422,登記記録の閉鎖等,0,2022-06-08,2022-05-25,Ｒｏｏｓｔ株式会社,,株式会社,東京都,渋谷区,代々木２丁目２７番１６－３０４号,,13,113,1510053,,,2022-05-25,清算の結了等,,,2019-06-10,1,,,,,ルースト,0
330,2011201015610,登記記録の閉鎖等,0,2022-06-08,2022-06-03,株式会社グレイス,,株式会社,東京都,新宿区,新宿６丁目２７番２９－３１５号,,13,104,1600022,,,2022-06-03,清算の結了等,,,2015-10-05,1,,,,,グレイス,0
334,2011301016450,登記記録の閉鎖等,0,2022-06-08,2022-05-31,株式会社フェブインターナショナル,,株式会社,東京都,杉並区,高円寺南４丁目８－７－１Ｆ,,13,115,1660003,,,2022-05-31,清算の結了等,,,2015-10-05,1,,,,,フェブインターナショナル,0
346,2011601001268,登記記録の閉鎖等,0,2022-06-08,2022-06-06,株式会社おかもと,,株式会社,東京都,練馬区,早宮１丁目５２番７号,,13,120,1790085,,,2022-06-06,清算の結了等,,,2015-10-05,1,,,,,オカモト,0
360,2013302018013,登記記録の閉鎖等,0,2022-06-08,2022-06-02,有限会社エステ惠友,00060104,有限会社,東京都,豊島区,巣鴨１丁目１６番２－６１２号,,13,116,1700002,,,2022-06-02,清算の結了等,,,2015-10-05,1,,,,,エステケイユウ,0
379,2021002073914,登記記録の閉鎖等,0,2022-06-08,2022-06-03,有限会社ホクシンエステート,,有限会社,神奈川県,秦野市,曲松１丁目２番地１３号,,14,211,2591321,,,2022-06-03,清算の結了等,,,2021-11-18,1,,,,,ホクシンエステート,0
386,2030002017244,登記記録の閉鎖等,0,2022-06-08,2022-05-27,有限会社いんぐ,,有限会社,埼玉県,さいたま市北区,日進町１丁目４５１番地の２,,11,102,3310823,,,2022-05-27,合併による解散等,8030001087761,令和４年５月２５日埼玉県行田市大字持田２１６５番地株式会社テスココンポ（8030001087761）に合併し解散,2015-10-05,1,,,,,イング,0
457,2140003012613,登記記録の閉鎖等,0,2022-06-08,2022-06-02,合同会社ＳＡＳ産業保健コンサルティング,,合同会社,兵庫県,尼崎市,崇徳院３丁目４２番８５－２０５号,,28,202,6600071,,,2022-06-02,清算の結了等,,,2017-12-04,1,,,,,サスサンギョウホケンコンサルティング,0
523,2350001015423,登記記録の閉鎖等,0,2022-06-08,2022-06-01,富陽農材株式会社,,株式会社,宮崎県,宮崎市,大塚町八所３７７６番地ＭＹパレス２０３号,,45,201,8800951,,,2022-06-01,合併による解散等,9120001063570,令和４年６月１日大阪市北区西天満六丁目３番１９号株式会社コイアジャパン（9120001063570）に合併し解散,2018-08-27,1,,,,,フヨウノウザイ,0
534,2370502000054,登記記録の閉鎖等,0,2022-06-08,2022-06-01,有限会社岩城自動車整備工場,,有限会社,宮城県,気仙沼市,神山２番地４,,04,205,9880044,,,2022-06-01,合併による解散等,5370501000168,令和４年６月１日宮城県気仙沼市魚市場前４番２１号株式会社気仙沼商会（5370501000168）に合併し解散,2015-10-05,1,,,,,イワキジドウシャセイビコウジョウ,0
547,2480002010220,登記記録の閉鎖等,0,2022-06-08,2022-06-06,有限会社ひまわり,,有限会社,徳島県,鳴門市,撫養町木津字原見谷１４５６番地１２,,36,202,7720004,,,2022-06-06,清算の結了等,,,2015-10-05,1,,,,,ヒマワリ,0
570,3010003030924,登記記録の閉鎖等,0,2022-06-08,2022-06-01,Ｐａｐｅｎｄａｌ　Ｊａｐａｎ合同会社,,合同会社,東京都,中央区,新富１丁目１５番３号ジパングアウトソーシングサービス株式会社内,,13,102,1040041,,,2022-06-01,清算の結了等,,,2019-10-24,1,,,,,パペンダルジャパン,0
572,3010005025749,登記記録の閉鎖等,0,2022-06-08,2022-06-03,一般社団法人フィンテックビジネスインキュベーション,,その他の設立登記法人,東京都,千代田区,紀尾井町４番１号ニューオータニビジネスコート２９１８号室,,13,101,1020094,,,2022-06-03,清算の結了等,,,2016-09-06,1,,,,,フィンテックビジネスインキュベーション,0
596,3010901038201,登記記録の閉鎖等,0,2022-06-08,2022-05-31,株式会社Ｌｉｂｅｉｒｏ,,株式会社,東京都,中央区,新川１丁目３番３号,,13,102,1040033,,,2022-05-31,合併による解散等,1010401166322,令和４年５月１日東京都港区赤坂三丁目２番１２号株式会社アラヴィス（1010401166322）に合併し解散,2016-05-31,1,,,,,リベイロ,0
605,3011003012318,登記記録の閉鎖等,0,2022-06-08,2022-05-25,ＬＥＶＩＴＡＳ合同会社,,合同会社,東京都,渋谷区,神南１丁目１２番１４号,,13,113,1500041,,,2022-05-25,清算の結了等,,,2021-02-24,1,,,,,レビタス,0
613,3011201001667,登記記録の閉鎖等,0,2022-06-08,2022-05-31,合田設備株式会社,,株式会社,東京都,中野区,大和町１丁目６２番８号,,13,114,1650034,,,2022-05-31,清算の結了等,,,2015-10-05,1,,,,,ゴウダセツビ,0
623,3011601020845,登記記録の閉鎖等,0,2022-06-08,2022-06-06,株式会社ウィズダム,,株式会社,東京都,練馬区,豊玉上２丁目５番７号,,13,120,1760011,,,2022-06-06,清算の結了等,,,2016-04-14,1,,,,,,0
639,3013202013550,登記記録の閉鎖等,0,2022-06-08,2022-06-02,有限会社ブルダーフード,,有限会社,東京都,世田谷区,玉川３丁目３番１８－２０２号,,13,112,1580094,,,2022-06-02,清算の結了等,,,2015-10-05,1,,,,,ブルダーフード,0
652,3021001012070,登記記録の閉鎖等,0,2022-06-08,2022-06-03,株式会社小竹銘木商店,,株式会社,神奈川県,相模原市緑区,二本松２丁目３３番２２号,,14,151,2520137,,,2022-06-03,清算の結了等,,,2015-10-05,1,,,,,コダケメイボクショウテン,0
694,3080402014744,登記記録の閉鎖等,0,2022-06-08,2022-06-06,有限会社荒澤建築,,有限会社,静岡県,浜松市浜北区,中瀬９０５０番地,,22,136,4340012,,,2022-06-06,清算の結了等,,,2015-10-05,1,,,,,アラサワケンチク,0
695,3080402015874,登記記録の閉鎖等,0,2022-06-08,2022-06-02,有限会社コスモサハラ,,有限会社,静岡県,浜松市北区,細江町小野２８９番地の８,,22,135,4311301,,,2022-06-02,清算の結了等,,,2015-10-05,1,,,,,コスモサハラ,0
707,3120001185602,登記記録の閉鎖等,0,2022-06-08,2022-06-02,株式会社オーケージー,,株式会社,大阪府,大阪市西区,阿波座１丁目６番１３号,,27,106,5500011,,,2022-06-02,合併による解散等,6120001041810,令和４年６月１日大阪市西区阿波座一丁目６番１３号オーケージーリース株式会社（6120001041810）に合併し解散,2015-10-05,1,,,,,オーケージー,0
717,3120101006360,登記記録の閉鎖等,0,2022-06-08,2022-06-03,株式会社ベストシステム,,株式会社,大阪府,大阪市平野区,喜連６丁目４番２５号,,27,126,5470027,,,2022-06-03,清算の結了等,,,2015-10-05,1,,,,,ベストシステム,0
725,3122001009559,登記記録の閉鎖等,0,2022-06-08,2022-06-01,株式会社東和商事,,株式会社,大阪府,東大阪市,東鴻池町１丁目７番６２号,,27,227,5780973,,,2022-06-01,合併による解散等,2122001008727,令和４年６月１日大阪府東大阪市東鴻池町一丁目７番１４号株式会社東大阪ゴルフセンター（2122001008727）に合併し解散,2015-10-05,1,,,,,トウワショウジ,0
735,3140001078192,登記記録の閉鎖等,0,2022-06-08,2022-06-01,関西住宅株式会社,,株式会社,兵庫県,伊丹市,山田６丁目９番１６号,,28,207,6640874,,,2022-06-01,清算の結了等,,,2015-10-05,1,,,,,カンサイジュウタク,0
747,3180001033706,登記記録の閉鎖等,0,2022-06-08,2022-06-06,青葉産業株式会社,,株式会社,愛知県,名古屋市西区,牛島町２番５号ＴＯＭＩＴＡビル,,23,104,4510046,,,2022-06-06,清算の結了等,,,2015-10-05,1,,,,,アオバサンギョウ,0
760,3180005014462,登記記録の閉鎖等,0,2022-06-08,2022-06-02,一般社団法人ユニゾグラフ藝術研究所,,その他の設立登記法人,愛知県,瀬戸市,城ケ根町１７番地１３,,23,204,4890924,,,2022-06-02,清算の結了等,,,2015-10-05,1,,,,,ユニゾグラフゲイジュツケンキュウショ,0
765,3190001010704,登記記録の閉鎖等,0,2022-06-08,2022-06-01,株式会社分部商店,,株式会社,三重県,松阪市,大塚町３６６番地の７,,24,204,5150813,,,2022-06-01,清算の結了等,,,2015-10-05,1,,,,,ワケベショウテン,0
771,3210001001898,登記記録の閉鎖等,0,2022-06-08,2022-06-02,株式会社末吉商事,,株式会社,福井県,福井市,下江守町９号３２番地の１,,18,201,9188037,,,2022-06-02,清算の結了等,,,2015-10-05,1,,,,,スエヨシショウジ,0
788,3270001006462,登記記録の閉鎖等,0,2022-06-08,2022-06-01,株式会社ハイブリッドマテリアル,,株式会社,鳥取県,米子市,和田町２９１９番地,,31,202,6830102,,,2022-06-01,清算の結了等,,,2015-10-05,1,,,,,ハイブリッドマテリアル,0
843,3390002008859,登記記録の閉鎖等,0,2022-06-08,2022-06-01,有限会社たんばや製菓,,有限会社,山形県,酒田市,飛鳥字大林７１７番地５,,06,204,9996711,,,2022-06-01,合併による解散等,3390001016821,令和４年６月１日山形県東田川郡庄内町狩川字雁ケ原１５１番地７株式会社ニュー・マウンテン（3390001016821）に合併し解散,2015-10-05,1,,,,,タンバヤセイカ,0
880,4010401119822,登記記録の閉鎖等,0,2022-06-08,2022-06-01,タマホーム不動産株式会社,,株式会社,東京都,港区,高輪３丁目２２番９号,,13,103,1080074,,,2022-06-01,合併による解散等,7010401057862,令和４年５月３１日東京都港区高輪三丁目２２番９号タマホーム株式会社（7010401057862）に合併し解散,2015-10-05,1,,,,,タマホームフドウサン,0
885,4010401158003,登記記録の閉鎖等,0,2022-06-08,2022-05-23,株式会社エルトン,,株式会社,東京都,港区,浜松町２丁目２番１５号,,13,103,1050013,,,2022-05-23,清算の結了等,,,2021-02-05,1,,,,,エルトン,0
906,4011001104933,登記記録の閉鎖等,0,2022-06-08,2022-05-23,株式会社フィクサー,,株式会社,東京都,港区,南麻布４丁目２番４２号,,13,103,1060047,,,2022-05-23,清算の結了等,,,2015-10-05,1,,,,,フィクサー,0
929,4011701005638,登記記録の閉鎖等,0,2022-06-08,2022-06-06,株式会社トータルアップ社,,株式会社,東京都,江戸川区,西瑞江３丁目６番地９６,,13,123,1320015,,,2022-06-06,清算の結了等,,,2015-10-05,1,,,,,トータルアップシャ,0
931,4011801035857,登記記録の閉鎖等,0,2022-06-08,2022-06-02,健康フィットネス株式会社,,株式会社,東京都,足立区,鹿浜７丁目１２番４号,,13,121,1230864,,,2022-06-02,清算の結了等,,,2019-03-14,1,,,,,ケンコウフィットネス,0
934,4012401008971,登記記録の閉鎖等,0,2022-06-08,2022-06-02,株式会社オストリッチダイヤ,,株式会社,埼玉県,所沢市,大字南永井６６７番地１,,11,208,3590011,,,2022-06-02,合併による解散等,2010001049249,令和４年５月１日東京都中央区日本橋人形町一丁目８番４号株式会社ディーソル（2010001049249）に合併し解散,2015-10-05,1,,,,,オストリッチダイヤ,0
959,4030001094976,登記記録の閉鎖等,0,2022-06-08,2022-06-02,株式会社ＬＯＯＰ,,株式会社,埼玉県,さいたま市西区,大字指扇３３６３番地２（８０２）,,11,101,3310047,,,2022-06-02,清算の結了等,,,2015-10-05,1,,,,,ループ,0
965,4030003000131,登記記録の閉鎖等,0,2022-06-08,2022-05-12,合資会社千代田工芸,00018164,合資会社,埼玉県,さいたま市緑区,大字大崎２０４１番地２,,11,109,3360974,,,2022-05-12,清算の結了等,,,2015-10-05,1,,,,,チヨダコウゲイ,0
979,4060002017099,登記記録の閉鎖等,0,2022-06-08,2022-06-01,有限会社大塚電機,,有限会社,栃木県,真岡市,小林６５７番地,,09,209,3214321,,,2022-06-01,清算の結了等,,,2015-10-05,1,,,,,オオツカデンキ,0
988,4080101015191,登記記録の閉鎖等,0,2022-06-08,2022-06-07,株式会社ＭＯＴＯ企画,,株式会社,静岡県,駿東郡清水町,長沢１６１番地,,22,341,4110905,,,2022-06-07,清算の結了等,,,2015-10-05,1,,,,,モトキカク,0
1004,4120002032240,登記記録の閉鎖等,0,2022-06-08,2022-06-06,有限会社畑田建築計画所,,有限会社,大阪府,大阪市北区,大淀南１丁目６番４－４１０号,,27,127,5310075,,,2022-06-06,清算の結了等,,,2015-10-05,1,,,,,ハタダケンチクケイカクショ,0
1012,4120103002282,登記記録の閉鎖等,0,2022-06-08,2022-06-07,合同会社ＫＯＭＳ,,合同会社,大阪府,堺市南区,御池台１丁１４番２号,,27,145,5900134,,,2022-06-07,清算の結了等,,,2015-10-05,1,,,,,コムス,0
1031,4170005001816,登記記録の閉鎖等,0,2022-06-08,2022-06-07,アイ・ツー・ティ協同組合,,その他の設立登記法人,和歌山県,和歌山市,六十谷７８０番地,,30,201,6408482,,,2022-06-07,清算の結了等,,,2015-10-05,1,,,,,アイツーティ,0
1068,4270002007467,登記記録の閉鎖等,0,2022-06-08,2022-06-02,有限会社山陰パイオニア,,有限会社,鳥取県,境港市,小篠津町２５７番地２,,31,204,6840053,,,2022-06-02,清算の結了等,,,2015-10-05,1,,,,,,0
1069,4290001000363,登記記録の閉鎖等,0,2022-06-08,2022-06-01,株式会社田代硝子店,,株式会社,福岡県,福岡市西区,野方２丁目９番２０号,,40,135,8190043,,,2022-06-01,合併による解散等,7290001055529,令和４年６月１日福岡市西区野方二丁目９番２０号株式会社ＦＴ（7290001055529）に合併し解散,2015-10-05,1,,,,,タシロガラステン,0
1090,4360001006717,登記記録の閉鎖等,0,2022-06-08,2022-05-23,株式会社イーダス,,株式会社,沖縄県,南城市,玉城字前川５４６番地２,,47,215,9010616,,,2022-05-23,清算の結了等,,,2015-10-05,1,,,,,イーダス,0
1096,4380002012299,登記記録の閉鎖等,0,2022-06-08,2022-06-01,有限会社街プロダクツ,,有限会社,福島県,郡山市,麓山２丁目１０番２６号,,07,203,9638876,,,2022-06-01,清算の結了等,,,2015-10-05,1,,,,,マチプロダクツ,0
1110,4440002009108,登記記録の閉鎖等,0,2022-06-08,2022-06-02,有限会社広沢塗装店,,有限会社,北海道,二海郡八雲町,熊石泊川町１２９番地,,01,346,0430334,,,2022-06-02,清算の結了等,,,2015-10-05,1,,,,,ヒロサワトソウテン,0
1111,4440002009116,登記記録の閉鎖等,0,2022-06-08,2022-06-02,有限会社水野建設,,有限会社,北海道,久遠郡せたな町,大成区本陣１６３番地,,01,371,0430505,,,2022-06-02,清算の結了等,,,2015-10-05,1,,,,,ミズノケンセツ,0
1119,4490005000117,登記記録の閉鎖等,0,2022-06-08,2022-06-02,高知金属加工処理協同組合,,その他の設立登記法人,高知県,高知市,仁井田４５７０番地１,,39,201,7810112,,,2022-06-02,清算の結了等,,,2015-10-05,1,,,,,コウチキンゾクカコウショリ,0
1123,4500005004314,登記記録の閉鎖等,0,2022-06-08,2022-06-03,特定非営利活動法人日本レスキュー支援協会,,その他の設立登記法人,愛媛県,新居浜市,南小松原町８番６６号,,38,205,7920863,,,2022-06-03,清算の結了等,,,2015-10-05,1,,,,,ニホンレスキューシエンキョウカイ,0
1138,5010001200881,登記記録の閉鎖等,0,2022-06-08,2022-06-01,株式会社田ノ実,,株式会社,東京都,文京区,後楽１丁目５番３号,,13,105,1120004,,,2022-06-01,合併による解散等,3290001015800,令和４年６月１日福岡市博多区上川端町１２番１９２号株式会社はせがわ（3290001015800）に合併し解散,2019-05-20,1,,,,,タノミ,0
1139,5010001210261,登記記録の閉鎖等,0,2022-06-08,2022-06-02,ＳＴＡＲホールディングス株式会社,,株式会社,東京都,千代田区,永田町１丁目１１番３０号サウスヒル永田町５階,,13,101,1000014,,,2022-06-02,合併による解散等,9110001036049,令和４年６月１日新潟県新発田市大手町四丁目３番２１号株式会社岩村管財（9110001036049）に合併し解散,2020-06-12,1,,,,,スターホールディングス,0
1148,5010005019666,登記記録の閉鎖等,0,2022-06-08,2022-05-24,特定非営利活動法人高齢者住環境リフォームプロジェクト,,その他の設立登記法人,東京都,港区,芝浦３丁目９番１４号,,13,103,1080023,,,2022-05-24,清算の結了等,,,2015-10-05,1,,,,,コウレイシャジュウカンキョウリフォームプロジェクト,0
1163,5010603006842,登記記録の閉鎖等,0,2022-06-08,2022-06-01,合同会社ジーナイン・ジャパン・スリー,,合同会社,東京都,江東区,亀戸６丁目５６番１５号,,13,108,1360071,,,2022-06-01,清算の結了等,,,2017-07-24,1,,,,,ジーナインジャパンスリー,0
1212,5013302007780,登記記録の閉鎖等,0,2022-06-08,2022-06-02,有限会社野口商事,,有限会社,東京都,豊島区,東池袋２丁目５３番５号,,13,116,1700013,,,2022-06-02,清算の結了等,,,2015-10-05,1,,,,,ノグチショウジ,0
1223,5020002095362,登記記録の閉鎖等,0,2022-06-08,2022-06-02,有限会社浅野自動車,,有限会社,神奈川県,川崎市川崎区,塩浜４丁目４番１３号,,14,131,2100826,,,2022-06-02,清算の結了等,,,2015-10-05,1,,,,,アサノジドウシャ,0
1235,5021001073706,登記記録の閉鎖等,0,2022-06-08,2022-06-01,株式会社Ｌｉｎｋａｇｅ,,株式会社,神奈川県,相模原市南区,相南１丁目２２番２２号土屋ビル,,14,153,2520312,,,2022-06-01,清算の結了等,,,2021-08-18,1,,,,,リンケージ,0
1258,5040001054508,登記記録の閉鎖等,0,2022-06-08,2022-05-10,富士見商運株式会社,,株式会社,千葉県,市原市,五井中央東２丁目１７番地７二反田ビル３Ｆ,,12,219,2900054,,,2022-05-10,合併による解散等,5040001054301,令和４年５月９日千葉県市原市五井８８０１番地株式会社長太（5040001054301）に合併し解散,2015-10-05,1,,,,,,0
1283,5080002015736,登記記録の閉鎖等,0,2022-06-08,2022-06-03,有限会社協進鉄工所,,有限会社,静岡県,焼津市,田尻２２９０番地の６,,22,212,4250052,,,2022-06-03,清算の結了等,,,2015-10-05,1,,,,,キョウシンテッコウジョ,0
1297,5120001016193,登記記録の閉鎖等,0,2022-06-08,2022-06-03,株式会社ホシヤ商店,,株式会社,大阪府,大阪市城東区,今福西１丁目１０番４号,,27,118,5360004,,,2022-06-03,清算の結了等,,,2015-10-05,1,,,,,ホシヤショウテン,0
1300,5120001196928,登記記録の閉鎖等,0,2022-06-08,2022-06-06,株式会社Ｋ２ＢＮＣＴ理工学研究所,,株式会社,大阪府,大阪市淀川区,西中島４丁目５番１号新栄ビル１０Ｆ,,27,123,5320011,,,2022-06-06,清算の結了等,,,2016-03-16,1,,,,,ケーツービーエヌシーティーリコウガクケンキュウショ,0
1312,5120005022279,登記記録の閉鎖等,0,2022-06-08,2022-06-06,一般社団法人いぬねことボート,,その他の設立登記法人,大阪府,大阪市西区,京町堀１丁目６番２３号西京町堀ビル北館２５号,,27,106,5500003,,,2022-06-06,清算の結了等,,,2021-06-11,1,,,,,イヌネコトボート,0
1315,5120105006165,登記記録の閉鎖等,0,2022-06-08,2022-06-06,農事組合法人奥貝塚彩の谷,,その他の設立登記法人,大阪府,貝塚市,馬場３０８１番地,,27,208,5970103,,,2022-06-06,清算の結了等,,,2015-10-05,1,,,,,オクカイヅカイロドリノタニ,0
1321,5130001061453,登記記録の閉鎖等,0,2022-06-08,2022-06-02,ＴＥＲＲＡＤＡ　ＣＡＫ株式会社,,株式会社,滋賀県,守山市,守山２丁目２番４号,,25,207,5240022,,,2022-06-02,清算の結了等,,,2018-02-06,1,,,,,テラダシーエーケー,0
1336,5180001000464,登記記録の閉鎖等,0,2022-06-08,2022-06-03,山昇建設株式会社,,株式会社,愛知県,名古屋市守山区,原境町９０８番地,,23,113,4630038,,,2022-06-03,合併による解散等,1120001100091,令和４年６月１日大阪市中央区道修町一丁目７番１号ボンドエンジニアリング株式会社（1120001100091）に合併し解散,2015-10-05,1,,,,,サンショウケンセツ,0
1362,5220002016934,登記記録の閉鎖等,0,2022-06-08,2022-06-03,有限会社シモタニ,,有限会社,石川県,かほく市,松浜ニ２８－３,,17,209,9291172,,,2022-06-03,清算の結了等,,,2015-10-05,1,,,,,シモタニ,0
1368,5250002014794,登記記録の閉鎖等,0,2022-06-08,2022-06-02,有限会社正下工業,,有限会社,山口県,下松市,大字末武中１０４６番の８,,35,207,7440023,,,2022-06-02,清算の結了等,,,2015-10-05,1,,,,,,0
1378,5290801017473,登記記録の閉鎖等,0,2022-06-08,2022-06-01,アクス株式会社,,株式会社,福岡県,直方市,知古１丁目６番９号セトルビル１Ｆ,,40,204,8220022,,,2022-06-01,合併による解散等,2290801014201,令和４年６月１日福岡県直方市知古一丁目６番９号セトル株式会社（2290801014201）に合併し解散,2015-10-05,1,,,,,,0
1416,5440001007697,登記記録の閉鎖等,0,2022-06-08,2022-06-01,株式会社プレイスケア,,株式会社,北海道,函館市,上湯川町２８番３２号,,01,202,0420914,,,2022-06-01,合併による解散等,4440001004712,令和４年６月１日北海道北斗市七重浜一丁目４番１７号株式会社あんじゅう（4440001004712）に合併し解散,2015-10-05,1,,,,,プレイスケア,0
1428,5500005007002,登記記録の閉鎖等,0,2022-06-08,2022-06-01,一般社団法人愛媛県勤労会館,,その他の設立登記法人,愛媛県,松山市,宮田町１３２番地,,38,201,7900066,,,2022-06-01,合併による解散等,6500005007001,令和４年６月１日愛媛県松山市宮田町１２５番地２一般社団法人愛媛県労働者福祉協議会（6500005007001）に合併し解散,2015-10-05,1,,,,,エヒメケンキンロウカイカン,0
1456,6010601030612,登記記録の閉鎖等,0,2022-06-08,2022-06-01,一條ランバー株式会社,,株式会社,東京都,江東区,木場５丁目１２番８号,,13,108,1350042,,,2022-06-01,合併による解散等,7010601000481,令和４年６月１日東京都江東区木場五丁目１２番８号一條木材株式会社（7010601000481）に合併し解散,2015-10-05,1,,,,,イチジョウランバー,0
1461,6010603005439,登記記録の閉鎖等,0,2022-06-08,2022-05-31,合同会社ＫＯＦＵ,,合同会社,東京都,江東区,東雲２丁目７番５－６０５号,,13,108,1350062,,,2022-05-31,清算の結了等,,,2015-10-05,1,,,,,コフウ,0
1467,6010802015412,登記記録の閉鎖等,0,2022-06-08,2022-06-01,有限会社吉本,,有限会社,東京都,大田区,田園調布５丁目１４番３号,,13,111,1450071,,,2022-06-01,清算の結了等,,,2015-10-05,1,,,,,ヨシモト,0
1484,6011001120482,登記記録の閉鎖等,0,2022-06-08,2022-05-25,株式会社ＡＲ　ＬＡＢ,,株式会社,東京都,渋谷区,神宮前６丁目２９番１０号,,13,113,1500001,,,2022-05-25,清算の結了等,,,2018-02-08,1,,,,,エーアールラボ,0
1499,6011105004210,登記記録の閉鎖等,0,2022-06-08,2022-06-02,特定非営利活動法人スタディ・アブロード・ファウンデーション日本事務局,,その他の設立登記法人,東京都,新宿区,西新宿６丁目５番１号,,13,104,1600023,,,2022-06-02,清算の結了等,,,2015-10-05,1,,,,,スタディアブロードファウンデーションニホンジムキョク,0
1503,6011301026529,登記記録の閉鎖等,0,2022-06-08,2022-06-02,株式会社Ｈａｐｐｙｏｇａ,,株式会社,東京都,渋谷区,恵比寿４丁目２０番３号恵比寿ガーデンプレイスタワー３４階,,13,113,1500013,,,2022-06-02,合併による解散等,7011101074784,令和４年５月２０日東京都渋谷区恵比寿四丁目２０番３号恵比寿ガーデンプレイスタワー３４階株式会社クリア（7011101074784）に合併し解散,2021-01-14,1,,,,,ハピヨガ,0
1507,6011402008632,登記記録の閉鎖等,0,2022-06-08,2022-06-03,有限会社南坂内装,,有限会社,東京都,板橋区,中台２丁目１番５号,,13,119,1740064,,,2022-06-03,清算の結了等,,,2015-10-05,1,,,,,ミナミザカナイソウ,0
1534,6020001073392,登記記録の閉鎖等,0,2022-06-08,2022-06-02,株式会社セントラル・ビルデイング,,株式会社,神奈川県,横浜市鶴見区,鶴見中央１丁目１９番５号,,14,101,2300051,,,2022-06-02,合併による解散等,6020001017564,令和４年６月１日横浜市鶴見区鶴見中央一丁目１９番５号新栄ビル３階新栄開発株式会社（6020001017564）に合併し解散,2015-10-05,1,,,,,セントラルビルデイング,0
1551,6030002034269,登記記録の閉鎖等,0,2022-06-08,2022-06-01,有限会社ピーシー橋梁技術社,00016464,有限会社,埼玉県,狭山市,大字水野２６７番地の１９,,11,215,3501317,,,2022-06-01,清算の結了等,,,2015-10-05,1,,,,,ピーシーキョウリュウギジュツシャ,0
1585,6080005006343,登記記録の閉鎖等,0,2022-06-08,2022-06-01,一般社団法人賛美の園,,その他の設立登記法人,静岡県,静岡市清水区,蒲原４丁目３２番１７号,,22,103,4213203,,,2022-06-01,清算の結了等,,,2015-10-05,1,,,,,サンビノソノ,0
1589,6080403002324,登記記録の閉鎖等,0,2022-06-08,2022-06-01,合同会社ワンビス,,合同会社,静岡県,浜松市中区,泉４丁目３番１２号,,22,131,4338124,,,2022-06-01,清算の結了等,,,2015-10-05,1,,,,,ワンビス,0
1601,6120001070644,登記記録の閉鎖等,0,2022-06-08,2022-06-06,株式会社マーフィープランニング,,株式会社,大阪府,大阪市北区,中津５丁目６番１号,,27,127,5310071,,,2022-06-06,清算の結了等,,,2015-10-05,1,,,,,マーフィープランニング,0
1631,6120101045983,登記記録の閉鎖等,0,2022-06-08,2022-06-06,株式会社セジュールあそがわ,,株式会社,大阪府,泉佐野市,鶴原１８０９番地６,,27,213,5980071,,,2022-06-06,清算の結了等,,,2015-10-05,1,,,,,セジュールアソガワ,0
1635,6120903001473,登記記録の閉鎖等,0,2022-06-08,2022-05-23,合同会社シエル,,合同会社,大阪府,池田市,城南３丁目１１番１８号,,27,204,5630025,,,2022-05-23,清算の結了等,,,2015-10-05,1,,,,,シエル,0
1648,6130005014605,登記記録の閉鎖等,0,2022-06-08,2022-06-03,一般社団法人アットリーフ会計センター,,その他の設立登記法人,京都府,京都市北区,大宮南田尻町２０番地,,26,101,6038832,,,2022-06-03,清算の結了等,,,2016-05-23,1,,,,,アットリーフカイケイセンター,0
1675,6180002059409,登記記録の閉鎖等,0,2022-06-08,2022-06-03,有限会社メーコー,,有限会社,愛知県,名古屋市北区,喜惣治２丁目８４番地の１,,23,103,4620065,,,2022-06-03,清算の結了等,,,2015-10-05,1,,,,,メーコー,0
1682,6180302010822,登記記録の閉鎖等,0,2022-06-08,2022-06-02,有限会社ナミザキ,,有限会社,愛知県,田原市,赤羽根町荒古１５番地の１,,23,231,4413502,,,2022-06-02,清算の結了等,,,2015-10-05,1,,,,,,0
1684,6200002010970,登記記録の閉鎖等,0,2022-06-08,2022-06-08,有限会社道家商店,,有限会社,岐阜県,羽島郡笠松町,松栄町４７番地,,21,303,5016091,,,2022-06-08,清算の結了等,,,2015-10-05,1,,,,,ドウケショウテン,0
1697,6240002037498,登記記録の閉鎖等,0,2022-06-08,2022-06-02,有限会社躍進建装,,有限会社,広島県,廿日市市,阿品台２丁目５番２９号,,34,213,7380053,,,2022-06-02,清算の結了等,,,2015-10-05,1,,,,,ヤクシンケンソウ,0
1734,6390002008625,登記記録の閉鎖等,0,2022-06-08,2022-06-02,有限会社アイホーム,,有限会社,山形県,酒田市,東大町３丁目２７番地１０,,06,204,9980851,,,2022-06-02,清算の結了等,,,2015-10-05,1,,,,,,0
1738,6420002001881,登記記録の閉鎖等,0,2022-06-08,2022-06-06,有限会社ツヅキ室内,,有限会社,青森県,青森市,浪館前田４丁目２４番２６号,,02,201,0380024,,,2022-06-06,清算の結了等,,,2015-10-05,1,,,,,ツヅキシツナイ,0
1744,6430001037983,登記記録の閉鎖等,0,2022-06-08,2022-06-02,株式会社ライラックメディカル,,株式会社,北海道,札幌市中央区,北一条東２丁目５番地２,,01,101,0600031,,,2022-06-02,合併による解散等,8010401056616,令和４年６月１日東京都千代田区霞が関三丁目２番５号株式会社ユカリア（8010401056616）に合併し解散,2015-10-05,1,,,,,ライラックメディカル,0
1846,7011701017110,登記記録の閉鎖等,0,2022-06-08,2022-06-07,株式会社江戸川ベース,,株式会社,東京都,江戸川区,大杉２丁目１５番５号,,13,123,1320022,,,2022-06-07,清算の結了等,,,2015-10-05,1,,,,,エドガワベース,0
1851,7012301011189,登記記録の閉鎖等,0,2022-06-08,2022-06-03,株式会社ｏｗｌＳｕｉｔｅｓ,,株式会社,東京都,日野市,南平６丁目２５番地１南平ビル１０２,,13,212,1910041,,,2022-06-03,清算の結了等,,,2017-11-17,1,,,,,アウルスイート,0
1852,7012401032390,登記記録の閉鎖等,0,2022-06-08,2022-06-03,株式会社ＴＩＧＥＲ　ＷＨＥＥＬ,,株式会社,東京都,調布市,柴崎１丁目５３番地２,,13,208,1820014,,,2022-06-03,清算の結了等,,,2017-02-17,1,,,,,タイガーホイール,0
1864,7020001035598,登記記録の閉鎖等,0,2022-06-08,2022-06-01,株式会社池竹研究所,,株式会社,神奈川県,横浜市港北区,篠原西町３０番３号,,14,109,2220025,,,2022-06-01,合併による解散等,7020002057633,令和４年６月１日横浜市港北区篠原西町３０番３号株式会社ウッドヴィレッジ（7020002057633）に合併し解散,2015-10-05,1,,,,,イケタケケンキュウジョ,0
1873,7020001130119,登記記録の閉鎖等,0,2022-06-08,2022-06-02,株式会社三共総合リフォーム,,株式会社,神奈川県,横浜市港南区,日野４丁目５５番１７号アムールｋｅｉ２０２,,14,111,2340051,,,2022-06-02,清算の結了等,,,2019-03-01,1,,,,,サンキョウソウゴウリフォーム,0
1891,7021002049678,登記記録の閉鎖等,0,2022-06-08,2022-06-02,有限会社メディアマップシステム,,有限会社,神奈川県,相模原市中央区,東淵野辺４丁目２５番２７号,,14,152,2520203,,,2022-06-02,清算の結了等,,,2015-10-05,1,,,,,メディアマップシステム,0
1900,7030002065180,登記記録の閉鎖等,0,2022-06-08,2022-06-01,有限会社新井総合企画,,有限会社,埼玉県,富士見市,上沢３丁目１０番３号,,11,235,3540034,,,2022-06-01,清算の結了等,,,2015-10-05,1,,,,,アライソウゴウキカク,0
1902,7030005017889,登記記録の閉鎖等,0,2022-06-08,2022-06-01,一般社団法人日本衛生管理協会,,その他の設立登記法人,埼玉県,川越市,仙波町２丁目１番地１,,11,201,3500034,,,2022-06-01,清算の結了等,,,2016-04-12,1,,,,,ニホンエイセイカンリキョウカイ,0
1909,7040005012996,登記記録の閉鎖等,0,2022-06-08,2022-06-02,全一教本部教会,,その他の設立登記法人,千葉県,香取市,佐原イ４８４番地,,12,236,2870003,,,2022-06-02,清算の結了等,,,2015-10-05,1,,,,,,0
1919,7060005009859,登記記録の閉鎖等,0,2022-06-08,2022-06-01,一般社団法人ＡＲＵＳＨＩＯＮ,,その他の設立登記法人,栃木県,塩谷郡塩谷町,大字熊ノ木１４３２番地３１,,09,384,3292213,,,2022-06-01,清算の結了等,,,2021-04-19,1,,,,,アルシオン,0
1936,7120002025571,登記記録の閉鎖等,0,2022-06-08,2022-06-07,有限会社はりまや商事,,有限会社,大阪府,大阪市東淀川区,下新庄４丁目１１番３７号,,27,114,5330021,,,2022-06-07,清算の結了等,,,2015-10-05,1,,,,,ハリマヤショウジ,0
1964,7180001076569,登記記録の閉鎖等,0,2022-06-08,2022-06-03,名豊商事株式会社,,株式会社,愛知県,小牧市,大字南外山字道上１２３番地,,23,219,4850024,,,2022-06-03,清算の結了等,,,2015-10-05,1,,,,,メイホウショウジ,0
1970,7180002006376,登記記録の閉鎖等,0,2022-06-08,2022-06-02,有限会社ジエイ・エス・ピー,,有限会社,愛知県,名古屋市港区,遠若町１丁目７９番地,,23,111,4550054,,,2022-06-02,清算の結了等,,,2015-10-05,1,,,,,ジエイエスピー,0
1975,7180301010582,登記記録の閉鎖等,0,2022-06-08,2022-06-02,株式会社ホウショウＥＧ,,株式会社,愛知県,豊川市,南千両２丁目４０番地,,23,207,4420008,,,2022-06-02,清算の結了等,,,2015-10-05,1,,,,,,0
2002,7240003002153,登記記録の閉鎖等,0,2022-06-08,2022-05-31,合資会社橋本酒店,,合資会社,広島県,東広島市,西条町寺家８０６９－４メゾンハピネス弐番館１号,,34,212,7390041,,,2022-05-31,清算の結了等,,,2015-10-05,1,,,,,ハシモトサケテン,0
2062,7430005002215,登記記録の閉鎖等,0,2022-06-08,2022-06-06,田園都市開発協同組合,,その他の設立登記法人,北海道,札幌市北区,北三十二条西５丁目３番２８号,,01,102,0010032,,,2022-06-06,清算の結了等,,,2015-10-05,1,,,,,デンエントシカイハツ,0
2063,7440002001318,登記記録の閉鎖等,0,2022-06-08,2022-06-01,有限会社キュウシメイチ小野寺水産,,有限会社,北海道,松前郡松前町,字館浜５３８番地の２,,01,331,0491641,,,2022-06-01,清算の結了等,,,2015-10-05,1,,,,,キュウシメイチオノデラスイサン,0
2064,7440002005194,登記記録の閉鎖等,0,2022-06-08,2022-06-07,有限会社よしずみ,,有限会社,北海道,函館市,五稜郭町３３番１５号,,01,202,0400001,,,2022-06-07,清算の結了等,,,2015-10-05,1,,,,,ヨシズミ,0
2065,7440002009897,登記記録の閉鎖等,0,2022-06-08,2022-06-02,有限会社平和電工,,有限会社,北海道,檜山郡上ノ国町,字北村１６５番地の５,,01,362,0490622,,,2022-06-02,清算の結了等,,,2015-10-05,1,,,,,ヘイワデンコウ,0
2083,8010001224028,登記記録の閉鎖等,0,2022-06-08,2022-06-02,ＭＨＤ株式会社,,株式会社,東京都,千代田区,麹町３丁目５番地２,,13,101,1020083,,,2022-06-02,合併による解散等,5021001009544,令和４年５月３１日新潟県胎内市高畑字新割５３番地２マルイ工業株式会社（5021001009544）に合併し解散,2022-01-21,1,,,,,エムエイチディ,0
2086,8010003035324,登記記録の閉鎖等,0,2022-06-08,2022-06-01,合同会社Ａｎｉｍａｌ　Ｃｏｎｎｅｃｔ,,合同会社,東京都,中央区,銀座１丁目２２番１１号銀座大竹ビジデンス２階,,13,102,1040061,,,2022-06-01,清算の結了等,,,2021-07-15,1,,,,,アニマルコネクト,0
2089,8010005002487,登記記録の閉鎖等,0,2022-06-08,2022-06-01,宮内庁生活協同組合,,その他の設立登記法人,東京都,千代田区,千代田１番１号宮内庁内,,13,101,1000001,,,2022-06-01,清算の結了等,,,2015-10-05,1,,,,,クナイチョウ,0
2137,8011402005768,登記記録の閉鎖等,0,2022-06-08,2022-06-06,有限会社谷合造園,,有限会社,東京都,板橋区,坂下２丁目１３番１号,,13,119,1740043,,,2022-06-06,清算の結了等,,,2015-10-05,1,,,,,,0
2142,8011702003414,登記記録の閉鎖等,0,2022-06-08,2022-06-06,有限会社共和設備工業,,有限会社,東京都,江戸川区,谷河内２丁目７番１１号,,13,123,1330002,,,2022-06-06,清算の結了等,,,2015-10-05,1,,,,,キョウワセツビコウギョウ,0
2165,8021001073315,登記記録の閉鎖等,0,2022-06-08,2022-06-03,湘北堂株式会社,,株式会社,神奈川県,大和市,つきみ野１丁目６番地８,,14,213,2420002,,,2022-06-03,清算の結了等,,,2021-07-05,1,,,,,ショウホクドウ,0
2183,8040001119514,登記記録の閉鎖等,0,2022-06-08,2022-06-01,株式会社サロン,,株式会社,千葉県,鎌ケ谷市,新鎌ケ谷１丁目１８番１０ー２０１号,,12,224,2730107,,,2022-06-01,清算の結了等,,,2021-07-27,1,,,,,サロン,0
2193,8070002015866,登記記録の閉鎖等,0,2022-06-08,2022-06-01,有限会社浅岡モータース,,有限会社,群馬県,高崎市,稲荷台町１３００番地１,,10,202,3703516,,,2022-06-01,合併による解散等,4070001018122,令和４年６月１日群馬県北群馬郡榛東村大字広馬場３０８番地株式会社三機工（4070001018122）に合併し解散,2015-10-05,1,,,,,アサオカモータース,0
2223,8120002040446,登記記録の閉鎖等,0,2022-06-08,2022-06-03,有限会社モン,,有限会社,大阪府,大阪市淀川区,三国本町１丁目１６番５０－５０７号,,27,123,5320005,,,2022-06-03,清算の結了等,,,2015-10-05,1,,,,,モン,0
2231,8120901026388,登記記録の閉鎖等,0,2022-06-08,2022-06-02,谷本プレス工業株式会社,,株式会社,大阪府,豊中市,走井２丁目７番８号,,27,203,5610891,,,2022-06-02,清算の結了等,,,2015-10-05,1,,,,,タニモトプレスコウギョウ,0
2249,8140002065920,登記記録の閉鎖等,0,2022-06-08,2022-05-31,有限会社セ・シュウェット,,有限会社,兵庫県,伊丹市,南野北１丁目１２番４８号,,28,207,6640887,,,2022-05-31,清算の結了等,,,2015-10-05,1,,,,,セシュウェット,0
2252,8160001020726,登記記録の閉鎖等,0,2022-06-08,2022-06-02,ＴＥＲＲＡＤＡ　ＣＡＳ株式会社,,株式会社,滋賀県,守山市,守山２丁目２番４号,,25,207,5240022,,,2022-06-02,清算の結了等,,,2018-02-09,1,,,,,テラダシーエーエス,0
2259,8180001129516,登記記録の閉鎖等,0,2022-06-08,2022-06-02,株式会社Ｄｒａｇｏｎ　Ｆｌｙ,,株式会社,愛知県,名古屋市中区,錦３丁目１４番４号,,23,106,4600003,,,2022-06-02,清算の結了等,,,2017-09-27,1,,,,,ドラゴンフライ,0
2261,8180001141727,登記記録の閉鎖等,0,2022-06-08,2022-05-27,株式会社ベネフィットネス,,株式会社,愛知県,名古屋市千種区,猫洞通４丁目２７ウェザーフィールド１Ｃ,,23,101,4640032,,,2022-05-27,清算の結了等,,,2020-06-24,1,,,,,ベネフィットネス,0
2262,8180001145100,登記記録の閉鎖等,0,2022-06-08,2022-06-01,ＩＮＶＥＳＴ　ＲＥＶＯ株式会社,,株式会社,愛知県,名古屋市中区,大須４丁目１番７１号矢場町中駒ビル４０５,,23,106,4600011,,,2022-06-01,清算の結了等,,,2021-03-09,1,,,,,インベストレボ,0
2265,8180003018394,登記記録の閉鎖等,0,2022-06-08,2022-06-06,合同会社Ｇｏｏｄｙ,,合同会社,愛知県,知多市,大興寺字丹波脇４４番地の１１１,,23,224,4780022,,,2022-06-06,清算の結了等,,,2017-10-30,1,,,,,グッディー,0
2271,8180302025620,登記記録の閉鎖等,0,2022-06-08,2022-05-31,有限会社石川工芸社,,有限会社,愛知県,豊田市,若林東町宮間４３番地３,,23,211,4730914,,,2022-05-31,清算の結了等,,,2015-10-05,1,,,,,イシカワコウゲイシャ,0
2278,8200001027931,登記記録の閉鎖等,0,2022-06-08,2022-06-06,株式会社ＫＦ・平野,,株式会社,岐阜県,美濃市,３１６５番地の２の１,,21,207,5013701,,,2022-06-06,合併による解散等,4180001146052,令和４年６月１日名古屋市中区錦一丁目１７番２６号株式会社平野商事（4180001146052）に合併し解散,2015-10-05,1,,,,,,0
2281,8220005003431,登記記録の閉鎖等,0,2022-06-08,2022-06-02,小松本折商店街振興組合,,その他の設立登記法人,石川県,小松市,本折町７２番地,,17,203,9230957,,,2022-06-02,清算の結了等,,,2015-10-05,1,,,,,コマツモトオリショウテンガイ,0
2295,8290001069478,登記記録の閉鎖等,0,2022-06-08,2022-06-01,株式会社Ｍｅｄｙ,,株式会社,福岡県,福岡市博多区,半道橋１丁目１８番６－６０７号,,40,132,8120897,,,2022-06-01,清算の結了等,,,2015-10-05,1,,,,,メディ,0
2337,8430002013825,登記記録の閉鎖等,0,2022-06-08,2022-05-30,有限会社東茂企画,,有限会社,北海道,札幌市東区,北四十一条東２０丁目１番地６,,01,103,0070841,,,2022-05-30,清算の結了等,,,2015-10-05,1,,,,,トウモキカク,0
2351,8470002017665,登記記録の閉鎖等,0,2022-06-08,2022-06-06,有限会社タナカ,,有限会社,香川県,さぬき市,長尾西１８１２番地２,,37,206,7692302,,,2022-06-06,清算の結了等,,,2015-10-05,1,,,,,タナカ,0
2358,8500001012291,登記記録の閉鎖等,0,2022-06-08,2022-06-01,株式会社ホンダカーズ今治東,,株式会社,愛媛県,今治市,東鳥生町４丁目３番３２号,,38,202,7940801,,,2022-06-01,合併による解散等,7500001007656,令和４年６月１日愛媛県大洲市東大洲１１８２番地１株式会社ホンダカーズ中央愛媛（7500001007656）に合併し解散,2015-10-05,1,,,,,ホンダカーズイマバリヒガシ,0
2367,9010001197314,登記記録の閉鎖等,0,2022-06-08,2022-05-25,株式会社リテック,,株式会社,東京都,中央区,銀座６丁目１４番８号銀座石井ビル４Ｆ,,13,102,1040061,,,2022-05-25,清算の結了等,,,2018-12-26,1,,,,,リテック,0
2372,9010003034291,登記記録の閉鎖等,0,2022-06-08,2022-05-24,合同会社２０２０ホストタウンＰＣＲ感染対策支援協議会,,合同会社,東京都,千代田区,一番町１０番２号,,13,101,1020082,,,2022-05-24,清算の結了等,,,2021-03-01,1,,,,,ニイゼロニイゼロホストタウンピーシーアールカンセンタイサクシエンキョウギカイ,0
2410,9011103010166,登記記録の閉鎖等,0,2022-06-08,2022-06-03,バウンシージャパン合同会社,,合同会社,東京都,新宿区,新宿５丁目１８番２０号ルックハイツ新宿８０３号,,13,104,1600022,,,2022-06-03,清算の結了等,,,2020-11-09,1,,,,,バウンシージャパン,0
2481,9030002021891,登記記録の閉鎖等,0,2022-06-08,2022-06-03,有限会社柳機工,,有限会社,埼玉県,さいたま市岩槻区,城南１丁目２番１４号,,11,110,3390043,,,2022-06-03,清算の結了等,,,2015-10-05,1,,,,,ヤナギキコウ,0
2511,9080401010986,登記記録の閉鎖等,0,2022-06-08,2022-06-02,株式会社三明,,株式会社,静岡県,湖西市,新居町新居２６０９番地,,22,221,4310302,,,2022-06-02,清算の結了等,,,2015-10-05,1,,,,,サンメイ,0
2518,9110002021231,登記記録の閉鎖等,0,2022-06-08,2022-06-03,有限会社佐々木工業,,有限会社,新潟県,柏崎市,剣野町２９番１２号,,15,205,9450835,,,2022-06-03,清算の結了等,,,2015-10-05,1,,,,,ササキコウギョウ,0
2524,9120001185720,登記記録の閉鎖等,0,2022-06-08,2022-06-06,株式会社アキドラ,,株式会社,大阪府,大阪市中央区,島之内２丁目１４番２３号,,27,128,5420082,,,2022-06-06,清算の結了等,,,2015-10-05,1,,,,,アキドラ,0
2530,9120002054825,登記記録の閉鎖等,0,2022-06-08,2022-06-06,有限会社プロデュースマーケットやすい,,有限会社,大阪府,大阪市中央区,日本橋２丁目３番５号,,27,128,5420073,,,2022-06-06,清算の結了等,,,2015-10-05,1,,,,,プロデュースマーケットヤスイ,0
2555,9170001009016,登記記録の閉鎖等,0,2022-06-08,2022-06-06,イリイ和歌山株式会社,,株式会社,和歌山県,西牟婁郡白浜町,１１９７番地の８,,30,401,6492211,,,2022-06-06,清算の結了等,,,2015-10-05,1,,,,,イリイワカヤマ,0
2557,9180001003901,登記記録の閉鎖等,0,2022-06-08,2022-06-03,コーエーライン株式会社,,株式会社,愛知県,名古屋市千種区,赤坂町５丁目２１番地,,23,101,4640094,,,2022-06-03,清算の結了等,,,2015-10-05,1,,,,,コーエーライン,0
2568,9180003016389,登記記録の閉鎖等,0,2022-06-08,2022-06-06,合同会社ミヤタ企画,,合同会社,愛知県,名古屋市北区,山田４丁目９番２１号三井大曽根ハイツ１１０７号,,23,103,4620810,,,2022-06-06,清算の結了等,,,2015-10-05,1,,,,,ミヤタキカク,0
2586,9240002043667,登記記録の閉鎖等,0,2022-06-08,2022-06-02,有限会社横山組,,有限会社,広島県,福山市,新涯町２丁目１２番１２号,,34,207,7210955,,,2022-06-02,清算の結了等,,,2015-10-05,1,,,,,ヨコヤマグミ,0
2594,9260002030647,登記記録の閉鎖等,0,2022-06-08,2022-06-07,有限会社ビッグ,,有限会社,岡山県,勝田郡勝央町,黒土１００番地の４,,33,622,7094312,,,2022-06-07,清算の結了等,,,2015-10-05,1,,,,,,0
2598,9290001086613,登記記録の閉鎖等,0,2022-06-08,2022-06-01,株式会社フィールドアンドライフサポート,,株式会社,福岡県,糟屋郡志免町,志免４丁目９番１１号１０３号,,40,343,8112202,,,2022-06-01,清算の結了等,,,2019-10-01,1,,,,,フィールドアンドライフサポート,0
2621,9380002027094,登記記録の閉鎖等,0,2022-06-08,2022-06-01,有限会社すげのさく薬局,,有限会社,福島県,いわき市,中央台鹿島３丁目３９番地の４,,07,204,9708043,,,2022-06-01,合併による解散等,5380001014080,令和４年６月１日福島県いわき市常磐関船町一丁目８番地の１５株式会社ユモト薬局（5380001014080）に合併し解散,2015-10-05,1,,,,,スゲノサクヤッキョク,0
2623,9390002001354,登記記録の閉鎖等,0,2022-06-08,2022-06-02,有限会社伸和精工,,有限会社,山形県,山形市,銅町２丁目１４番８号,,06,201,9900051,,,2022-06-02,清算の結了等,,,2015-10-05,1,,,,,シンワセイコウ,0
2625,9410002006144,登記記録の閉鎖等,0,2022-06-08,2022-06-02,有限会社男鹿クリーニング舎,,有限会社,秋田県,男鹿市,脇本富永字野田３６番地４,,05,206,0100344,,,2022-06-02,清算の結了等,,,2015-10-05,1,,,,,,0
