sequenceNumber,corporateNumber,process,correct,updateDate,changeDate,name,nameImageId,kind,prefectureName,cityName,streetNumber,addressImageId,prefectureCode,cityCode,postCode,addressOutside,addressOutsideImageId,closeDate,closeCause,successorCorporateNumber,changeCause,assignmentDate,latest,enName,enPrefectureName,enCityName,enAddressOutside,furigana,hihyoji
1,1010001044242,登記記録の閉鎖等,0,2023-07-28,2023-07-18,株式会社三倉,,株式会社,東京都,中央区,入船３丁目３番７号,,13,102,1040042,,,2023-07-18,清算の結了等,,,2015-10-05,1,,,,,ミクラ,0
2,1010001089254,登記記録の閉鎖等,0,2023-07-28,2023-07-18,株式会社シービーシー,,株式会社,東京都,文京区,本郷３丁目１５番４号,,13,105,1130033,,,2023-07-18,清算の結了等,,,2015-10-05,1,,,,,シービーシー,0
8,1010001220743,登記記録の閉鎖等,0,2023-07-28,2023-07-26,Ｍｉｎｅｒｖａ　Ｇａｍｅｓ　ＪＡＰＡＮ株式会社,,株式会社,東京都,新宿区,若葉１丁目１２－５四谷若葉三信ビル,,13,104,1600011,,,2023-07-26,清算の結了等,,,2021-08-31,1,,,,,ミネルバゲームズジャパン,0
14,1010003027006,登記記録の閉鎖等,0,2023-07-28,2023-07-13,ＥＪ＆ＡＩＴ合同会社,,合同会社,東京都,千代田区,丸の内２丁目４番１号,,13,101,1000005,,,2023-07-13,合併による解散等,4010003026995,令和５年７月１０日東京都千代田区丸の内二丁目４番１号ＡＬＰＳ合同会社（4010003026995）に合併し解散,2018-02-21,1,,,,,イージェーアンドエーアイティー,0
15,1010003036270,登記記録の閉鎖等,0,2023-07-28,2023-07-20,合同会社フォレスト１号,,合同会社,東京都,千代田区,大手町１丁目１番２号,,13,101,1000004,,,2023-07-20,清算の結了等,,,2021-11-12,1,,,,,フォレストイチゴウ,0
21,1010005028852,登記記録の閉鎖等,0,2023-07-28,2023-07-20,一般社団法人開発７３号,,その他の設立登記法人,東京都,千代田区,飯田橋１丁目３番２号曙杉館４階清和コンサルティング株式会社内,,13,101,1020072,,,2023-07-20,清算の結了等,,,2018-07-27,1,,,,,カイハツナナジュウサンゴウ,0
30,1010405017141,登記記録の閉鎖等,0,2023-07-28,2023-07-05,一般社団法人Ｗａｄａ,,その他の設立登記法人,東京都,港区,虎ノ門５丁目１番４号,,13,103,1050001,,,2023-07-05,清算の結了等,,,2018-10-11,1,,,,,ワダ,0
62,1011301014307,登記記録の閉鎖等,0,2023-07-28,2023-07-20,株式会社馬橋堂,,株式会社,東京都,杉並区,阿佐谷南２丁目１番１号,,13,115,1660004,,,2023-07-20,清算の結了等,,,2015-10-05,1,,,,,,0
83,1013301041883,登記記録の閉鎖等,0,2023-07-28,2023-07-18,株式会社クオレ学習塾,,株式会社,東京都,豊島区,巣鴨１丁目１６番２－９０５号,,13,116,1700002,,,2023-07-18,清算の結了等,,,2018-03-01,1,,,,,,0
123,1040005013991,登記記録の閉鎖等,0,2023-07-28,2023-07-05,特定非営利活動法人ふれあい塾あびこ,,その他の設立登記法人,千葉県,我孫子市,並木７丁目１５番７号秋田桂子方,,12,222,2701165,,,2023-07-05,清算の結了等,,,2015-10-05,1,,,,,フレアイジュクアビコ,0
131,1070001030526,登記記録の閉鎖等,0,2023-07-28,2023-07-25,テリオン株式会社,,株式会社,群馬県,邑楽郡明和町,大佐貫１５２番地,,10,522,3700715,,,2023-07-25,清算の結了等,,,2015-10-05,1,,,,,テリオン,0
141,1080402006628,登記記録の閉鎖等,0,2023-07-28,2023-07-28,有限会社ハロークリーニング,,有限会社,静岡県,浜松市中区,上島３丁目３３番１８号,,22,131,4338122,,,2023-07-28,清算の結了等,,,2015-10-05,1,,,,,ハロークリーニング,0
143,1090003001457,登記記録の閉鎖等,0,2023-07-28,2023-07-25,合同会社アス,,合同会社,山梨県,甲府市,徳行４丁目１６番２６号,,19,201,4000047,,,2023-07-25,清算の結了等,,,2018-11-08,1,,,,,アス,0
145,1100002025760,登記記録の閉鎖等,0,2023-07-28,2023-07-21,有限会社オフパーツ,,有限会社,長野県,松本市,大字新村４４４番地６,,20,202,3901241,,,2023-07-21,清算の結了等,,,2015-10-05,1,,,,,オフパーツ,0
151,1120001156274,登記記録の閉鎖等,0,2023-07-28,2023-07-26,株式会社店舗防災システムズ,,株式会社,大阪府,堺市中区,深井清水町３２５９番地,,27,142,5998273,,,2023-07-26,清算の結了等,,,2015-10-05,1,,,,,テンポボウサイシステムズ,0
167,1120103001824,登記記録の閉鎖等,0,2023-07-28,2023-07-26,ＦＫ・インターナショナル合同会社,,合同会社,大阪府,和泉市,伏屋町４丁目９番８号,,27,219,5940031,,,2023-07-26,清算の結了等,,,2015-10-05,1,,,,,エフケイインターナショナル,0
197,1190001028277,登記記録の閉鎖等,0,2023-07-28,2023-07-18,株式会社タイガ,,株式会社,三重県,松阪市,川井町６１１番地５,,24,204,5150818,,,2023-07-18,清算の結了等,,,2021-04-30,1,,,,,タイガ,0
201,1200002002270,登記記録の閉鎖等,0,2023-07-28,2023-07-26,有限会社柴田コーキング,,有限会社,岐阜県,岐阜市,北柿ケ瀬１０９番地３,,21,201,5011133,,,2023-07-26,清算の結了等,,,2015-10-05,1,,,,,シバタコーキング,0
215,1280005000553,登記記録の閉鎖等,0,2023-07-28,2023-07-11,医療法人社団長谷川歯科医院,,その他の設立登記法人,島根県,松江市,東出雲町出雲郷７３１番地１,,32,201,6990108,,,2023-07-11,清算の結了等,,,2015-10-05,1,,,,,ハセガワシカイイン,0
221,1290002025750,登記記録の閉鎖等,0,2023-07-28,2023-07-12,有限会社ネクストフーヅ,,有限会社,福岡県,福岡市博多区,奈良屋町８番１５号,,40,132,8120023,,,2023-07-12,清算の結了等,,,2015-10-05,1,,,,,ネクストフーヅ,0
224,1310001010635,登記記録の閉鎖等,0,2023-07-28,2023-07-24,株式会社松浦旅行サービス,,株式会社,長崎県,松浦市,志佐町里免３８４番地１,,42,208,8594502,,,2023-07-24,清算の結了等,,,2015-10-05,1,,,,,マツウラリョコウサービス,0
246,1400002010518,登記記録の閉鎖等,0,2023-07-28,2023-07-07,有限会社エース橋本,,有限会社,岩手県,宮古市,河南１丁目３番１７号,,03,202,0270039,,,2023-07-07,清算の結了等,,,2015-10-05,1,,,,,,0
248,1400603000058,登記記録の閉鎖等,0,2023-07-28,2023-07-05,合資会社石川屋商店,,合資会社,岩手県,奥州市,江刺中町７番１３号,,03,215,0231113,,,2023-07-05,清算の結了等,,,2015-10-05,1,,,,,イシカワヤショウテン,0
264,1480001008968,登記記録の閉鎖等,0,2023-07-28,2023-07-27,株式会社きこえ工房,,株式会社,徳島県,阿南市,津乃峰町新浜１３番地１,,36,204,7740021,,,2023-07-27,清算の結了等,,,2015-10-05,1,,,,,キコエコウボウ,0
267,1500002001242,登記記録の閉鎖等,0,2023-07-28,2023-07-27,有限会社愛媛オフィスサービス,,有限会社,愛媛県,松山市,吉藤５丁目２番６号,,38,201,7918011,,,2023-07-27,清算の結了等,,,2015-10-05,1,,,,,エヒメオフィスサービス,0
296,2010005034206,登記記録の閉鎖等,0,2023-07-28,2023-07-20,一般社団法人プロジェクト・フォレスト,,その他の設立登記法人,東京都,千代田区,大手町１丁目１番２号,,13,101,1000004,,,2023-07-20,清算の結了等,,,2021-11-12,1,,,,,プロジェクトフォレスト,0
324,2011001144444,登記記録の閉鎖等,0,2023-07-28,2023-07-24,ネクストスイーツ株式会社,,株式会社,東京都,目黒区,自由が丘２丁目２２－６－１Ｆ,,13,110,1520035,,,2023-07-24,清算の結了等,,,2021-12-06,1,,,,,ネクストスイーツ,0
329,2011003010891,登記記録の閉鎖等,0,2023-07-28,2023-07-24,タイソンキャピタル１号合同会社,,合同会社,東京都,渋谷区,上原１丁目１７番１４号,,13,113,1510064,,,2023-07-24,清算の結了等,,,2020-02-18,1,,,,,タイソンキャピタルイチゴウ,0
336,2011302002012,登記記録の閉鎖等,0,2023-07-28,2023-07-26,株式会社エンジェル・ハート,,株式会社,東京都,練馬区,旭町１丁目３６番１号,,13,120,1790071,,,2023-07-26,清算の結了等,,,2015-10-05,1,,,,,エンジェルハート,0
348,2012801009266,登記記録の閉鎖等,0,2023-07-28,2023-07-21,株式会社ケーアールコーポレーション,,株式会社,東京都,立川市,柴崎町４丁目６番３５号,,13,202,1900023,,,2023-07-21,清算の結了等,,,2015-10-05,1,,,,,ケーアールコーポレーション,0
349,2012802003846,登記記録の閉鎖等,0,2023-07-28,2023-07-21,有限会社美好昭島店,,有限会社,東京都,昭島市,昭和町２丁目７番１４号,,13,207,1960015,,,2023-07-21,清算の結了等,,,2015-10-05,1,,,,,ミヨシアキシマテン,0
354,2020001025959,登記記録の閉鎖等,0,2023-07-28,2023-07-14,株式会社海龍王商事,,株式会社,神奈川県,横浜市中区,本牧大里町２５番６号,,14,104,2310823,,,2023-07-14,清算の結了等,,,2015-10-05,1,,,,,カイリュウオウショウジ,0
358,2020001138463,登記記録の閉鎖等,0,2023-07-28,2023-07-13,株式会社Ｅａｒ－Ｓｅａ,,株式会社,神奈川県,横浜市泉区,和泉中央南４丁目６番２１号プランベール泉１０２号室,,14,116,2450023,,,2023-07-13,清算の結了等,,,2020-11-05,1,,,,,アーシー,0
364,2020003011783,登記記録の閉鎖等,0,2023-07-28,2023-07-13,合同会社中林計装コンサルティング,,合同会社,神奈川県,横浜市旭区,中尾２丁目９番１０号,,14,112,2410815,,,2023-07-13,清算の結了等,,,2016-09-09,1,,,,,ナカバヤシケイソウコンサルティング,0
370,2030001051269,登記記録の閉鎖等,0,2023-07-28,2023-07-25,東京鉄鋼運輸株式会社,,株式会社,埼玉県,春日部市,不動院野２５０３番地１,,11,214,3440001,,,2023-07-25,合併による解散等,9050001020769,令和５年７月１日東京都港区新橋五丁目１１番３号ＢＳ東日本テック株式会社（9050001020769）に合併し解散,2015-10-05,1,,,,,トウキョウテッコウウンユ,0
372,2030001070574,登記記録の閉鎖等,0,2023-07-28,2023-07-04,株式会社マイマイ,,株式会社,埼玉県,坂戸市,本町１６番地１９,,11,239,3500226,,,2023-07-04,清算の結了等,,,2015-10-05,1,,,,,マイマイ,0
384,2040001016064,登記記録の閉鎖等,0,2023-07-28,2023-07-05,株式会社ビーナスガーデン,,株式会社,千葉県,千葉市中央区,中央３丁目１２番２号,,12,101,2600013,,,2023-07-05,清算の結了等,,,2015-10-05,1,,,,,ビーナスガーデン,0
388,2040001094639,登記記録の閉鎖等,0,2023-07-28,2023-07-05,株式会社ＭＢＡ,,株式会社,千葉県,成田市,中台４丁目１０番地３,,12,211,2860015,,,2023-07-05,清算の結了等,,,2016-03-30,1,,,,,エムビーエー,0
394,2040002091528,登記記録の閉鎖等,0,2023-07-28,2023-07-03,有限会社ベルベル,,有限会社,千葉県,柏市,明原３丁目１７番２３号,,12,217,2770843,,,2023-07-03,清算の結了等,,,2015-10-05,1,,,,,ベルベル,0
401,2050002014363,登記記録の閉鎖等,0,2023-07-28,2023-07-21,有限会社リブロ・コーポレーション,,有限会社,茨城県,かすみがうら市,中志筑２１８８番地,,08,230,3150075,,,2023-07-21,清算の結了等,,,2015-10-05,1,,,,,リブロコーポレーション,0
404,2060001016302,登記記録の閉鎖等,0,2023-07-28,2023-07-20,株式会社協伸,,株式会社,栃木県,栃木市,川原田町６２８番地,,09,203,3280123,,,2023-07-20,清算の結了等,,,2015-10-05,1,,,,,キョウシン,0
422,2100002007766,登記記録の閉鎖等,0,2023-07-28,2023-07-21,有限会社菜の花薬局,,有限会社,東京都,中央区,日本橋２丁目１５番１０号,,13,102,1030027,,,2023-07-21,合併による解散等,4370001013217,令和５年７月１日仙台市泉区泉中央一丁目７番地の１シップヘルスケアファーマシー東日本株式会社（4370001013217）に合併し解散,2015-10-05,1,,,,,ナノハナヤッキョク,0
427,2110005009651,登記記録の閉鎖等,0,2023-07-28,2023-07-19,農事組合法人ファーム高森,,その他の設立登記法人,新潟県,上越市,大字高森７１０番地,,15,222,9430182,,,2023-07-19,清算の結了等,,,2015-10-05,1,,,,,ファームタカモリ,0
471,2140002020204,登記記録の閉鎖等,0,2023-07-28,2023-07-26,有限会社婆佐羅建築工房,,有限会社,兵庫県,芦屋市,上宮川町１番２０号,,28,206,6590061,,,2023-07-26,清算の結了等,,,2015-10-05,1,,,,,バサラケンチクコウボウ,0
489,2200001024430,登記記録の閉鎖等,0,2023-07-28,2023-07-21,株式会社ジオ・プランニング,,株式会社,岐阜県,恵那市,大井町１６２２番地７１,,21,210,5097201,,,2023-07-21,清算の結了等,,,2015-10-05,1,,,,,ジオプランニング,0
494,2230001003209,登記記録の閉鎖等,0,2023-07-28,2023-07-26,株式会社メルディックス,,株式会社,富山県,富山市,町村１３１番地,,16,201,9300952,,,2023-07-26,清算の結了等,,,2015-10-05,1,,,,,メルディックス,0
495,2240001009601,登記記録の閉鎖等,0,2023-07-28,2023-07-21,広島林田機械工業株式会社,,株式会社,広島県,広島市安佐南区,東原２丁目１０番３４号,,34,105,7310112,,,2023-07-21,清算の結了等,,,2015-10-05,1,,,,,ヒロシマハヤシダキカイコウギョウ,0
500,2240002039911,登記記録の閉鎖等,0,2023-07-28,2023-07-20,有限会社オタフク,,有限会社,広島県,福山市,城見町１丁目３番４号,,34,207,7200054,,,2023-07-20,清算の結了等,,,2015-10-05,1,,,,,オタフク,0
505,2250001016828,登記記録の閉鎖等,0,2023-07-28,2023-07-26,シリウス・エレクトロニクス株式会社,,株式会社,兵庫県,明石市,沢野２丁目２番１０号,,28,203,6730008,,,2023-07-26,清算の結了等,,,2017-10-04,1,,,,,シリウスエレクトロニクス,0
513,2290002056852,登記記録の閉鎖等,0,2023-07-28,2023-07-12,株式会社鶴山社中,,株式会社,福岡県,福岡市東区,舞松原５丁目３０番１－６０８号,,40,131,8130042,,,2023-07-12,清算の結了等,,,2015-10-05,1,,,,,ツルヤマシャチュウ,0
518,2300001010585,登記記録の閉鎖等,0,2023-07-28,2023-07-18,株式会社翔輝,,株式会社,佐賀県,佐賀市,久保田町大字久保田３２０番地２,,41,201,8490204,,,2023-07-18,清算の結了等,,,2016-12-07,1,,,,,ショウキ,0
522,2320002008643,登記記録の閉鎖等,0,2023-07-28,2023-07-24,有限会社翼建板,,有限会社,大分県,大分市,大字片島２２７番地,,44,201,8700943,,,2023-07-24,清算の結了等,,,2015-10-05,1,,,,,,0
531,2360005001253,登記記録の閉鎖等,0,2023-07-28,2023-07-25,医療法人セントペアレント石間,,その他の設立登記法人,沖縄県,那覇市,金城２丁目１番地５,,47,201,9010155,,,2023-07-25,清算の結了等,,,2015-10-05,1,,,,,セントペアレントイシマ,0
532,2370001020553,登記記録の閉鎖等,0,2023-07-28,2023-07-19,株式会社ボディ・サポート,,株式会社,宮城県,仙台市太白区,鈎取字御堂平３８番地２０１,,04,104,9820804,,,2023-07-19,清算の結了等,,,2015-10-05,1,,,,,ボディサポート,0
539,2410002000649,登記記録の閉鎖等,0,2023-07-28,2023-07-13,伊藤惣菜有限会社,,有限会社,秋田県,秋田市,旭川南町２番７１号,,05,201,0100834,,,2023-07-13,清算の結了等,,,2015-10-05,1,,,,,イトウソウザイ,0
547,2460101004389,登記記録の閉鎖等,0,2023-07-28,2023-07-26,株式会社アフターステーション,,株式会社,北海道,帯広市,西二十五条南１丁目１２番地２１,,01,207,0802475,,,2023-07-26,清算の結了等,,,2015-10-05,1,,,,,アフターステーション,0
562,3010001032880,登記記録の閉鎖等,0,2023-07-28,2023-07-18,日本営繕建設株式会社,,株式会社,東京都,千代田区,麹町２丁目５番地４,,13,101,1020083,,,2023-07-18,清算の結了等,,,2015-10-05,1,,,,,ニホンエイゼンケンセツ,0
578,3010501004520,登記記録の閉鎖等,0,2023-07-28,2023-07-25,株式会社コマツコーポレーシヨン,,株式会社,東京都,台東区,上野公園９番８３号恩賜上野動物園内,,13,106,1100007,,,2023-07-25,清算の結了等,,,2015-10-05,1,,,,,コマツコーポレーション,0
579,3010601027487,登記記録の閉鎖等,0,2023-07-28,2023-07-25,株式会社オーティーエフ,,株式会社,東京都,墨田区,亀沢２丁目１４番８号,,13,107,1300014,,,2023-07-25,清算の結了等,,,2015-10-05,1,,,,,オーティーエフ,0
584,3010601046248,登記記録の閉鎖等,0,2023-07-28,2023-07-20,株式会社平和技建,,株式会社,福島県,双葉郡浪江町,大字権現堂字下蔵役目１４番１,,07,547,9791521,,,2023-07-20,清算の結了等,,,2015-10-05,1,,,,,ヘイワギケン,0
599,3011001104810,登記記録の閉鎖等,0,2023-07-28,2023-07-11,株式会社ニューズピックス,,株式会社,東京都,千代田区,丸の内２丁目５番２号,,13,101,1000005,,,2023-07-11,合併による解散等,7010401075212,令和５年７月１日東京都千代田区丸の内二丁目５番２号株式会社ユーザベース（7010401075212）に合併し解散,2015-10-05,1,,,,,ニューズピックス,0
601,3011001135665,登記記録の閉鎖等,0,2023-07-28,2023-07-25,株式会社ＣＯＰ,,株式会社,東京都,渋谷区,南平台町１６番１７号,,13,113,1500036,,,2023-07-25,清算の結了等,,,2020-09-09,1,,,,,シーオーピー,0
614,3011402008577,登記記録の閉鎖等,0,2023-07-28,2023-07-26,有限会社みつを製作所,,有限会社,東京都,板橋区,東坂下２丁目１番８号,,13,119,1740042,,,2023-07-26,清算の結了等,,,2015-10-05,1,,,,,ミツヲセイサクショ,0
629,3013202003064,登記記録の閉鎖等,0,2023-07-28,2023-07-25,有限会社シーエス機工,,有限会社,東京都,目黒区,八雲２丁目１１番５号,,13,110,1520023,,,2023-07-25,清算の結了等,,,2015-10-05,1,,,,,,0
632,3020001088105,登記記録の閉鎖等,0,2023-07-28,2023-07-13,株式会社ネイト,,株式会社,神奈川県,川崎市宮前区,初山１丁目７番１２号,,14,136,2160026,,,2023-07-13,清算の結了等,,,2015-10-05,1,,,,,ネイト,0
644,3030001072025,登記記録の閉鎖等,0,2023-07-28,2023-07-05,株式会社ハマコ,,株式会社,埼玉県,東松山市,大字高坂１９１６番地１６３,,11,212,3550047,,,2023-07-05,清算の結了等,,,2015-10-05,1,,,,,ハマコ,0
647,3030001111121,登記記録の閉鎖等,0,2023-07-28,2023-06-30,株式会社やわらか素材,,株式会社,東京都,千代田区,神田猿楽町２丁目７－１７織本ビル５０１,,13,101,1010064,,,2023-06-30,清算の結了等,,,2015-10-29,1,,,,,ヤワラカソザイ,0
656,3040001008036,登記記録の閉鎖等,0,2023-07-28,2023-07-05,株式会社ロツク千葉調色センター,,株式会社,千葉県,千葉市花見川区,幕張町５丁目４１７番地１０４,,12,102,2620032,,,2023-07-05,清算の結了等,,,2015-10-05,1,,,,,ロツクチバチョウショクセンター,0
658,3040001045780,登記記録の閉鎖等,0,2023-07-28,2023-07-03,株式会社アドストラクチャー,,株式会社,千葉県,白井市,平塚２７６１番地の１,,12,232,2701402,,,2023-07-03,合併による解散等,2040001044197,令和５年７月１日千葉県白井市平塚２７６１番地の１株式会社進富（2040001044197）に合併し解散,2015-10-05,1,,,,,アドストラクチャー,0
662,3040001082246,登記記録の閉鎖等,0,2023-07-28,2023-07-03,介護予防ぱーとなー千葉株式会社,,株式会社,千葉県,千葉市稲毛区,園生町１３８番地１９,,12,103,2630051,,,2023-07-03,合併による解散等,4040001013258,令和５年７月１日千葉市稲毛区園生町１３８番地１９株式会社セブンシーズカンパニー（4040001013258）に合併し解散,2015-10-05,1,,,,,カイゴヨボウパートナーチバ,0
673,3050002004611,登記記録の閉鎖等,0,2023-07-28,2023-07-24,ジングコーポレーション有限会社,,有限会社,茨城県,水戸市,末広町２丁目２番２９号,,08,201,3100053,,,2023-07-24,清算の結了等,,,2015-10-05,1,,,,,,0
684,3090003001810,登記記録の閉鎖等,0,2023-07-28,2023-07-27,合同会社コア・ラック,,合同会社,山梨県,甲府市,上小河原町１０９４番地１９,,19,201,4000044,,,2023-07-27,清算の結了等,,,2021-02-01,1,,,,,コアラック,0
690,3110001032557,登記記録の閉鎖等,0,2023-07-28,2023-07-18,株式会社田中建設工業,,株式会社,新潟県,新潟市南区,白根東町１丁目９番１７号,,15,106,9501222,,,2023-07-18,清算の結了等,,,2017-07-20,1,,,,,,0
716,3140002041315,登記記録の閉鎖等,0,2023-07-28,2023-07-24,有限会社スペーステクノ,,有限会社,兵庫県,尼崎市,下坂部３丁目１２番１５号,,28,202,6610975,,,2023-07-24,清算の結了等,,,2015-10-05,1,,,,,スペーステクノ,0
735,3190002010926,登記記録の閉鎖等,0,2023-07-28,2023-07-14,有限会社西井造船,,有限会社,三重県,度会郡南伊勢町,贄浦２４４番地１２,,24,472,5161307,,,2023-07-14,清算の結了等,,,2015-10-05,1,,,,,ニシイゾウセン,0
736,3190005011335,登記記録の閉鎖等,0,2023-07-28,2023-07-18,一般財団法人伊勢神宮灯籠奉賛会,,その他の設立登記法人,三重県,伊勢市,本町４番１号,,24,203,5160074,,,2023-07-18,清算の結了等,,,2019-06-21,1,,,,,イセジングウトウロウホウサンカイ,0
742,3230002001417,登記記録の閉鎖等,0,2023-07-28,2023-07-26,有限会社新栄自動車,,有限会社,富山県,富山市,新保１１２０番地,,16,201,9398253,,,2023-07-26,清算の結了等,,,2015-10-05,1,,,,,シンエイジドウシャ,0
755,3290001043660,登記記録の閉鎖等,0,2023-07-28,2023-07-13,株式会社ピーナッツ,,株式会社,福岡県,福岡市中央区,警固１丁目１４番１号,,40,133,8100023,,,2023-07-13,清算の結了等,,,2015-10-05,1,,,,,ピーナッツ,0
756,3290001053164,登記記録の閉鎖等,0,2023-07-28,2023-07-12,平川フーズ株式会社,,株式会社,福岡県,柳川市,大和町栄芝原７９０番地,,40,207,8390252,,,2023-07-12,清算の結了等,,,2015-10-05,1,,,,,ヒラカワフーズ,0
771,3310002018139,登記記録の閉鎖等,0,2023-07-28,2023-07-24,有限会社明和興産,,有限会社,長崎県,島原市,南崩山町丁２４２０番地１０３,,42,203,8550871,,,2023-07-24,清算の結了等,,,2015-10-05,1,,,,,メイワコウサン,0
772,3320001006052,登記記録の閉鎖等,0,2023-07-28,2023-07-24,株式会社タナカグランド企画,,株式会社,大分県,大分市,大字光吉９９７番地の１,,44,201,8701132,,,2023-07-24,清算の結了等,,,2015-10-05,1,,,,,タナカグランドキカク,0
773,3330001017866,登記記録の閉鎖等,0,2023-07-28,2023-07-12,辻本化成株式会社,00097470,株式会社,熊本県,菊池市,旭志川辺１１２６番地１７,,43,210,8691205,,,2023-07-12,清算の結了等,,,2015-10-05,1,,,,,ツジモトカセイ,0
788,3380001001808,登記記録の閉鎖等,0,2023-07-28,2023-07-20,株式会社旅館松雲閣,,株式会社,福島県,福島市,土湯温泉町字油畑６１番地,,07,201,9602157,,,2023-07-20,清算の結了等,,,2015-10-05,1,,,,,リョカンショウウンカク,0
791,3380002025839,登記記録の閉鎖等,0,2023-07-28,2023-07-20,有限会社プレ建築設計事務所,,有限会社,福島県,いわき市,郷ケ丘２丁目９５番地の１０,,07,204,9708045,,,2023-07-20,清算の結了等,,,2015-10-05,1,,,,,プレケンチクセッケイジムショ,0
793,3390002012935,登記記録の閉鎖等,0,2023-07-28,2023-07-21,有限会社しなのや酒店,,有限会社,山形県,米沢市,東３丁目８番２８号,,06,202,9920026,,,2023-07-21,清算の結了等,,,2015-10-05,1,,,,,シナノヤサケテン,0
795,3390005004129,登記記録の閉鎖等,0,2023-07-28,2023-07-24,小名部生産森林組合,,その他の設立登記法人,山形県,鶴岡市,小名部甲４２番地,,06,203,9997125,,,2023-07-24,清算の結了等,,,2015-10-05,1,,,,,オナベセイサン,0
803,3410001001408,登記記録の閉鎖等,0,2023-07-28,2023-07-14,株式会社食生活科学研究所,,株式会社,秋田県,秋田市,飯島美砂町１０番４号,,05,201,0110914,,,2023-07-14,清算の結了等,,,2015-10-05,1,,,,,ショクセイカツカガクケンキュウショ,0
805,3410005002121,登記記録の閉鎖等,0,2023-07-28,2023-07-12,本荘製餡協同組合,,その他の設立登記法人,秋田県,由利本荘市,観音町２８番地,,05,210,0150825,,,2023-07-12,清算の結了等,,,2015-10-05,1,,,,,ホンジョウセイアン,0
813,3440003001254,登記記録の閉鎖等,0,2023-07-28,2023-07-25,合同会社愛の羽,,合同会社,北海道,函館市,中島町１２番１６号,,01,202,0400014,,,2023-07-25,清算の結了等,,,2019-02-18,1,,,,,アイノハネ,0
821,3490001009492,登記記録の閉鎖等,0,2023-07-28,2023-07-24,株式会社一路工業,,株式会社,高知県,高岡郡越知町,越知甲２３１２番地８,,39,403,7811301,,,2023-07-24,清算の結了等,,,2020-02-06,1,,,,,イチロコウギョウ,0
826,4010001023549,登記記録の閉鎖等,0,2023-07-28,2023-07-18,株式会社テクノシステム,,株式会社,東京都,千代田区,外神田２丁目３番６号,,13,101,1010021,,,2023-07-18,清算の結了等,,,2015-10-05,1,,,,,テクノシステム,0
838,4010003039304,登記記録の閉鎖等,0,2023-07-28,2023-07-21,ＭＢＫＰ　Ｌｉｆｅ２株式会社,,株式会社,東京都,千代田区,永田町２丁目１０番３号,,13,101,1000014,,,2023-07-21,合併による解散等,3010401095635,令和５年７月１日東京都港区北青山二丁目７番１３号プラセオ青山ビル株式会社ＳＯＹＯＫＡＺＥ（3010401095635）に合併し解散,2022-12-12,1,,,,,エムビーケーピーライフツー,0
843,4010401135398,登記記録の閉鎖等,0,2023-07-28,2023-07-24,株式会社ＬＩＳＩ,,株式会社,兵庫県,西宮市,戸田町５－３０－１２０２,,28,204,6620916,,,2023-07-24,清算の結了等,,,2017-12-19,1,,,,,リジー,0
844,4010401145182,登記記録の閉鎖等,0,2023-07-28,2023-07-05,インベスターズ株式会社,,株式会社,東京都,港区,南青山２丁目２番１５号ウィン青山１３０２,,13,103,1070062,,,2023-07-05,清算の結了等,,,2019-04-24,1,,,,,インベスターズ,0
849,4010501024030,登記記録の閉鎖等,0,2023-07-28,2023-07-27,オリエント・アロー株式会社,,株式会社,東京都,台東区,下谷２丁目１５番１２号,,13,106,1100004,,,2023-07-27,清算の結了等,,,2015-10-05,1,,,,,オリエントアロー,0
858,4011001131787,登記記録の閉鎖等,0,2023-07-28,2023-07-18,株式会社ミユ,,株式会社,東京都,渋谷区,上原１丁目４番４号１階,,13,113,1510064,,,2023-07-18,清算の結了等,,,2020-01-16,1,,,,,ミユ,0
867,4011005002398,登記記録の閉鎖等,0,2023-07-28,2023-07-18,特定非営利活動法人カウンセリングジャパン,,その他の設立登記法人,東京都,中央区,八丁堀４丁目１０番１号,,13,102,1040032,,,2023-07-18,清算の結了等,,,2015-10-05,1,,,,,カウンセリングジャパン,0
868,4011101066727,登記記録の閉鎖等,0,2023-07-28,2023-07-21,株式会社ＡＬＭ,,株式会社,東京都,品川区,南大井３丁目３３番１０号,,13,109,1400013,,,2023-07-21,清算の結了等,,,2015-10-05,1,,,,,エーエルエム,0
879,4012302003238,登記記録の閉鎖等,0,2023-07-28,2023-07-26,有限会社デジコム,,有限会社,東京都,町田市,東玉川学園４丁目３４３９番地１９,,13,209,1940042,,,2023-07-26,清算の結了等,,,2015-10-05,1,,,,,デジコム,0
913,4030001132240,登記記録の閉鎖等,0,2023-07-28,2023-07-24,株式会社フレブルジャパン,,株式会社,埼玉県,幸手市,東２丁目２０番６号,,11,240,3400114,,,2023-07-24,合併による解散等,8050001014953,令和５年６月１日茨城県猿島郡境町大字浦向５８８番地１株式会社小野寺商事（8050001014953）に合併し解散,2019-08-01,1,,,,,フレブルジャパン,0
928,4040002023495,登記記録の閉鎖等,0,2023-07-28,2023-07-05,有限会社竹野商会,,有限会社,千葉県,船橋市,馬込西２丁目１２番３棟２０１号,,12,204,2730855,,,2023-07-05,清算の結了等,,,2015-10-05,1,,,,,,0
938,4050001029105,登記記録の閉鎖等,0,2023-07-28,2023-07-24,株式会社Ｂｅハウス・リモデル,,株式会社,茨城県,牛久市,女化町７０７番地１,,08,219,3001214,,,2023-07-24,清算の結了等,,,2015-10-05,1,,,,,ビーハウスリモデル,0
939,4050001031498,登記記録の閉鎖等,0,2023-07-28,2023-07-21,株式会社杉山商事,,株式会社,茨城県,筑西市,野殿８０６番地の２,,08,227,3080843,,,2023-07-21,清算の結了等,,,2015-10-05,1,,,,,スギヤマショウジ,0
957,4100001014308,登記記録の閉鎖等,0,2023-07-28,2023-07-24,山一不動産株式会社,,株式会社,長野県,松本市,井川城３丁目１番１号,,20,202,3900831,,,2023-07-24,清算の結了等,,,2015-10-05,1,,,,,ヤマイチフドウサン,0
958,4100001024067,登記記録の閉鎖等,0,2023-07-28,2023-07-24,株式会社アド・レポート・センター,,株式会社,長野県,長野市,吉田１丁目２０番６号,,20,201,3810043,,,2023-07-24,清算の結了等,,,2015-10-05,1,,,,,アドレポートセンター,0
964,4110002007978,登記記録の閉鎖等,0,2023-07-28,2023-07-18,有限会社大越建築研究所,,有限会社,新潟県,新潟市江南区,亀田向陽１丁目２番１９号,,15,104,9500121,,,2023-07-18,清算の結了等,,,2015-10-05,1,,,,,オオコシケンチクケンキュウジョ,0
983,4140001016548,登記記録の閉鎖等,0,2023-07-28,2023-07-21,中島商事株式会社,,株式会社,兵庫県,神戸市須磨区,飛松町３丁目３番４号,,28,107,6540012,,,2023-07-21,清算の結了等,,,2015-10-05,1,,,,,ナカジマショウジ,0
990,4140002008429,登記記録の閉鎖等,0,2023-07-28,2023-07-26,有限会社共進印刷所,,有限会社,兵庫県,神戸市長田区,梅ケ香町２丁目９－９,,28,106,6530021,,,2023-07-26,清算の結了等,,,2015-10-05,1,,,,,キョウシンインサツショ,0
991,4140002011184,登記記録の閉鎖等,0,2023-07-28,2023-07-25,有限会社栗原工務店,,有限会社,兵庫県,神戸市兵庫区,吉田町２丁目１５番２－１号,,28,105,6520872,,,2023-07-25,清算の結了等,,,2015-10-05,1,,,,,,0
992,4150001000195,登記記録の閉鎖等,0,2023-07-28,2023-07-27,石橋興産株式会社,,株式会社,奈良県,奈良市,芝辻町４丁目１番９,00108648,29,201,6308114,,,2023-07-27,清算の結了等,,,2015-10-05,1,,,,,イシバシコウサン,0
1009,4220001011326,登記記録の閉鎖等,0,2023-07-28,2023-07-21,株式会社文殊舎,,株式会社,石川県,金沢市,此花町５番６号,,17,201,9200852,,,2023-07-21,清算の結了等,,,2015-10-05,1,,,,,モンジュシャ,0
1011,4220002015409,登記記録の閉鎖等,0,2023-07-28,2023-07-20,有限会社アキラ設備,,有限会社,石川県,羽咋郡宝達志水町,北川尻ヲ５０番地５,,17,386,9291332,,,2023-07-20,清算の結了等,,,2015-10-05,1,,,,,アキラセツビ,0
1018,4260002015108,登記記録の閉鎖等,0,2023-07-28,2023-07-24,有限会社コンテック,,有限会社,岡山県,岡山市南区,西紅陽台１丁目５８番地の２０５,,33,104,7091203,,,2023-07-24,清算の結了等,,,2015-10-05,1,,,,,コンテック,0
1030,4290002028239,登記記録の閉鎖等,0,2023-07-28,2023-07-12,有限会社恵プラン,,有限会社,福岡県,福岡市早良区,藤崎１丁目１８番８号ユーライフ藤崎３０２号,,40,137,8140013,,,2023-07-12,清算の結了等,,,2015-10-05,1,,,,,ケイプラン,0
1037,4290802018430,登記記録の閉鎖等,0,2023-07-28,2023-07-27,有限会社古川建工,,有限会社,福岡県,北九州市八幡西区,大字本城２９５４番地３,,40,109,8070801,,,2023-07-27,清算の結了等,,,2015-10-05,1,,,,,フルカワケンコウ,0
1047,4340002015909,登記記録の閉鎖等,0,2023-07-28,2023-07-24,有限会社ｏｆｆｉｃｅ　Ｋ,,有限会社,鹿児島県,姶良市,加治木町木田２０４１番地４,,46,225,8995241,,,2023-07-24,清算の結了等,,,2015-10-05,1,,,,,オフィスケイ,0
1057,4390005005019,登記記録の閉鎖等,0,2023-07-28,2023-07-21,特定非営利活動法人光の子,,その他の設立登記法人,山形県,鶴岡市,大塚町２８番４０号Ｅ棟,,06,203,9970047,,,2023-07-21,清算の結了等,,,2015-10-05,1,,,,,ヒカリノコ,0
1064,4460101006409,登記記録の閉鎖等,0,2023-07-28,2023-07-26,株式会社森商,,株式会社,北海道,帯広市,西三条南３６丁目１番１１号,,01,207,0800013,,,2023-07-26,清算の結了等,,,2018-07-12,1,,,,,モリショウ,0
1073,5010001041252,登記記録の閉鎖等,0,2023-07-28,2023-07-14,ロクストン株式会社,,株式会社,東京都,千代田区,永田町２丁目１３番１０号,,13,101,1000014,,,2023-07-14,清算の結了等,,,2015-10-05,1,,,,,ロクストン,0
1074,5010001046821,登記記録の閉鎖等,0,2023-07-28,2023-07-13,株式会社システム技術研究所,,株式会社,東京都,文京区,湯島３丁目２１番８号,,13,105,1130034,,,2023-07-13,清算の結了等,,,2015-10-05,1,,,,,システムギジュツケンキュウジョ,0
1076,5010001100041,登記記録の閉鎖等,0,2023-07-28,2023-07-18,株式会社産業と環境,,株式会社,東京都,千代田区,外神田３丁目７番３号,,13,101,1010021,,,2023-07-18,清算の結了等,,,2015-10-05,1,,,,,サンギョウトカンキョウ,0
1078,5010001197581,登記記録の閉鎖等,0,2023-07-28,2023-07-11,Ｂ．ＭＡＲＫＥＴＩＮＧ株式会社,,株式会社,東京都,文京区,後楽１丁目７番２７号後楽鹿島ビル６階,,13,105,1120004,,,2023-07-11,合併による解散等,4010001178120,令和５年７月１日東京都文京区後楽一丁目７番２７号後楽鹿島ビル６階バスケットボール・コーポレーション株式会社（4010001178120）に合併し解散,2019-01-23,1,,,,,ビーマーケティング,0
1087,5010005030375,登記記録の閉鎖等,0,2023-07-28,2023-07-21,ＯＲＩＯＮ特定目的会社,,その他の設立登記法人,東京都,千代田区,永田町２丁目１２番４号,,13,101,1000014,,,2023-07-21,清算の結了等,,,2019-06-27,1,,,,,オリオン,0
1096,5010405017600,登記記録の閉鎖等,0,2023-07-28,2023-07-18,一般社団法人篠栗ロジ,,その他の設立登記法人,東京都,千代田区,霞が関３丁目２番５号,,13,101,1000013,,,2023-07-18,清算の結了等,,,2019-04-04,1,,,,,ササグリロジ,0
1110,5011001057791,登記記録の閉鎖等,0,2023-07-28,2023-07-24,株式会社ＤＡＲＵＭＡＲ,,株式会社,東京都,渋谷区,猿楽町９番８号,,13,113,1500033,,,2023-07-24,清算の結了等,,,2015-10-05,1,,,,,ダルマー,0
1124,5011201021093,登記記録の閉鎖等,0,2023-07-28,2023-07-27,株式会社フードプロデュース,,株式会社,東京都,中野区,東中野５丁目９番８号ブライトヒル東中野３０１,,13,114,1640003,,,2023-07-27,清算の結了等,,,2019-01-17,1,,,,,フードプロデュース,0
1126,5011401023617,登記記録の閉鎖等,0,2023-07-28,2023-07-26,株式会社ＧＯＯＤＬＩＦＥ,,株式会社,東京都,板橋区,板橋４丁目４４番２号ハイム大竹３０２号室,,13,119,1730004,,,2023-07-26,清算の結了等,,,2021-08-23,1,,,,,グッドライフ,0
1130,5011802020956,登記記録の閉鎖等,0,2023-07-28,2023-07-20,有限会社トーカン建設工業,,有限会社,東京都,文京区,向丘１丁目９番２５号,,13,105,1130023,,,2023-07-20,清算の結了等,,,2022-09-05,1,,,,,トーカンケンセツコウギョウ,0
1132,5013301048982,登記記録の閉鎖等,0,2023-07-28,2023-06-26,株式会社スカイトップコマース,,株式会社,千葉県,習志野市,津田沼３丁目１７－１３サンブライト津田沼１０１号,,12,216,2750016,,,2023-06-26,清算の結了等,,,2022-04-18,1,,,,,スカイトップコマース,0
1134,5020001103613,登記記録の閉鎖等,0,2023-07-28,2023-07-05,株式会社三浦工業,,株式会社,神奈川県,横浜市旭区,都岡町３１番地３３,,14,112,2410805,,,2023-07-05,清算の結了等,,,2015-10-05,1,,,,,ミウラコウギョウ,0
1142,5020003012977,登記記録の閉鎖等,0,2023-07-28,2023-07-13,合同会社タケイ,,合同会社,神奈川県,川崎市川崎区,駅前本町１１番地２川崎フロンティアビル４階,,14,131,2100007,,,2023-07-13,清算の結了等,,,2017-07-05,1,,,,,タケイ,0
1162,5030002117198,登記記録の閉鎖等,0,2023-07-28,2023-07-04,有限会社深谷メデイカル,,有限会社,埼玉県,深谷市,原郷４５０番地１,,11,218,3660035,,,2023-07-04,清算の結了等,,,2015-10-05,1,,,,,フカヤメデイカル,0
1174,5040003020895,登記記録の閉鎖等,0,2023-07-28,2023-06-26,合同会社ＫＥＮＴＡ　ＩＳＨＩＹＡＭＡ,,合同会社,千葉県,野田市,関宿町１４０４,,12,208,2700206,,,2023-06-26,清算の結了等,,,2022-09-27,1,,,,,ケンタイシヤマ,0
1177,5040005020332,登記記録の閉鎖等,0,2023-07-28,2023-07-14,一般社団法人水を通して健康と環境改善を促進する協議会,,その他の設立登記法人,千葉県,船橋市,高瀬町３１番地６,,12,204,2730014,,,2023-07-14,清算の結了等,,,2019-03-25,1,,,,,ミズヲトオシテケンコウトカンキョウカイゼンヲソクシンスルキョウギカイ,0
1180,5050001047964,登記記録の閉鎖等,0,2023-07-28,2023-07-25,株式会社水戸キャリアライフ,,株式会社,茨城県,水戸市,小吹町２６７番地２７１,,08,201,3100914,,,2023-07-25,清算の結了等,,,2020-08-24,1,,,,,ミトキャリアライフ,0
1185,5050003003057,登記記録の閉鎖等,0,2023-07-28,2023-07-21,ヒューマンハート合同会社,,合同会社,茨城県,つくば市,上横場２５７３番地８６,,08,220,3050854,,,2023-07-21,清算の結了等,,,2015-10-21,1,,,,,ヒューマンハート,0
1186,5050003004699,登記記録の閉鎖等,0,2023-07-28,2023-07-18,合同会社リーザコーポレーション,,合同会社,茨城県,土浦市,永国８８３番地４,,08,203,3000817,,,2023-07-18,清算の結了等,,,2019-06-06,1,,,,,リーザコーポレーション,0
1188,5060005000910,登記記録の閉鎖等,0,2023-07-28,2023-07-11,医療法人白百合会,,その他の設立登記法人,栃木県,宇都宮市,西川田町９２９番地４,,09,201,3210151,,,2023-07-11,清算の結了等,,,2015-10-05,1,,,,,シラユリカイ,0
1206,5100001026137,登記記録の閉鎖等,0,2023-07-28,2023-07-24,東京商業株式会社,,株式会社,長野県,長野市,大字上ケ屋９６１番地,,20,201,3800888,,,2023-07-24,清算の結了等,,,2015-10-05,1,,,,,トウキョウショウギョウ,0
1218,5120003014658,登記記録の閉鎖等,0,2023-07-28,2023-07-10,合同会社Ｈｉｂｉｋｉ,,合同会社,大阪府,大阪市北区,梅田１丁目２番２号２００大阪駅前第２ビル２階１－１－１号室,,27,127,5300001,,,2023-07-10,清算の結了等,,,2018-08-29,1,,,,,ヒビキ,0
1233,5130001031448,登記記録の閉鎖等,0,2023-07-28,2023-07-10,株式会社オオサカルーブ,,株式会社,京都府,京都市伏見区,久我西出町４番地６,,26,109,6128496,,,2023-07-10,清算の結了等,,,2015-10-05,1,,,,,オオサカルーブ,0
1238,5140001093710,登記記録の閉鎖等,0,2023-07-28,2023-07-21,株式会社ビクトワール,,株式会社,兵庫県,神戸市灘区,楠丘町２丁目２番１９号,,28,102,6570024,,,2023-07-21,清算の結了等,,,2015-10-05,1,,,,,ビクトワール,0
1262,5220002010342,登記記録の閉鎖等,0,2023-07-28,2023-07-24,有限会社岡本タイヤ商会,,有限会社,石川県,小松市,光町９０番地,,17,203,9230804,,,2023-07-24,清算の結了等,,,2015-10-05,1,,,,,オカモトタイヤショウカイ,0
1265,5240001011117,登記記録の閉鎖等,0,2023-07-28,2023-07-20,株式会社マル井,,株式会社,広島県,広島市南区,東雲本町１丁目１０番２２号,,34,103,7340023,,,2023-07-20,清算の結了等,,,2015-10-05,1,,,,,マルイ,0
1266,5240001049082,登記記録の閉鎖等,0,2023-07-28,2023-07-20,株式会社Ｔｒｉｐｌｅ　Ｉｍｐａｃｔ,,株式会社,広島県,福山市,東川口町２丁目５番１０－６号,,34,207,7200821,,,2023-07-20,清算の結了等,,,2016-03-29,1,,,,,トリプルインパクト,0
1284,5330001009325,登記記録の閉鎖等,0,2023-07-28,2023-07-10,株式会社ＫＳイヅミ,,株式会社,熊本県,菊池郡大津町,大字室１７３８番地,,43,403,8691235,,,2023-07-10,合併による解散等,7330001004951,令和５年７月１日熊本市西区上熊本一丁目２番６号株式会社レイメイ藤井（7330001004951）に合併し解散,2015-10-05,1,,,,,ケイエスイヅミ,0
1286,5340001002485,登記記録の閉鎖等,0,2023-07-28,2023-07-26,株式会社大興建設,,株式会社,鹿児島県,鹿児島市,田上８丁目２０番１号,,46,201,8900034,,,2023-07-26,清算の結了等,,,2015-10-05,1,,,,,タイコウケンセツ,0
1288,5340002016988,登記記録の閉鎖等,0,2023-07-28,2023-07-24,有限会社浜田水産,,有限会社,鹿児島県,薩摩川内市,港町６１１５番地,,46,215,8991924,,,2023-07-24,清算の結了等,,,2015-10-05,1,,,,,,0
1294,5370002009031,登記記録の閉鎖等,0,2023-07-28,2023-07-21,有限会社ビジ・エール,,有限会社,宮城県,多賀城市,伝上山３丁目３１番１－９１１号,,04,209,9850872,,,2023-07-21,清算の結了等,,,2015-10-05,1,,,,,ビジエール,0
1296,5370302003122,登記記録の閉鎖等,0,2023-07-28,2023-07-14,有限会社瑞康,,有限会社,宮城県,石巻市,千石町２番３３号,,04,202,9860827,,,2023-07-14,清算の結了等,,,2015-10-05,1,,,,,ズイコウ,0
1303,5400603000046,登記記録の閉鎖等,0,2023-07-28,2023-07-07,合資会社輝製作所,,合資会社,岩手県,奥州市,水沢字北丑沢３６番地の１,,03,215,0230031,,,2023-07-07,清算の結了等,,,2015-10-05,1,,,,,ヒカリセイサクショ,0
1306,5430001047439,登記記録の閉鎖等,0,2023-07-28,2023-07-06,三好土建株式会社,,株式会社,北海道,夕張市,沼ノ沢５９番地,,01,209,0680751,,,2023-07-06,合併による解散等,6430001001576,令和５年７月１日札幌市中央区南八条西六丁目１０３６番地株式会社いちたかガスワン（6430001001576）に合併し解散,2015-10-05,1,,,,,ミヨシドケン,0
1310,5430001066447,登記記録の閉鎖等,0,2023-07-28,2023-07-06,株式会社よしかわ整骨院,,株式会社,北海道,札幌市豊平区,平岸三条７丁目６番２２号,,01,105,0620933,,,2023-07-06,清算の結了等,,,2015-10-05,1,,,,,ヨシカワセイコツイン,0
1321,5500002010751,登記記録の閉鎖等,0,2023-07-28,2023-07-27,今井電機有限会社,,有限会社,愛媛県,伊予郡砥部町,五本松３１４番地２,,38,402,7912133,,,2023-07-27,清算の結了等,,,2015-10-05,1,,,,,イマイデンキ,0
1326,6010001122134,登記記録の閉鎖等,0,2023-07-28,2023-07-27,アクタージャパン株式会社,,株式会社,東京都,千代田区,神田錦町１丁目１７,,13,101,1010054,,,2023-07-27,清算の結了等,,,2015-10-05,1,,,,,アクタージャパン,0
1337,6010001202365,登記記録の閉鎖等,0,2023-07-28,2023-07-26,株式会社ＤａｔａＴｒｕｓｔ,,株式会社,群馬県,前橋市,表町１丁目３番３号,,10,201,3710024,,,2023-07-26,清算の結了等,,,2019-07-19,1,,,,,データトラスト,0
1342,6010002028792,登記記録の閉鎖等,0,2023-07-28,2023-07-13,有限会社ワイズ・コーポレーション,,有限会社,東京都,千代田区,東神田１丁目４番８号谷郷館ＩＩ３０１,00049845,13,101,1010031,,,2023-07-13,清算の結了等,,,2015-10-05,1,,,,,ワイズコーポレーション,0
1345,6010003036456,登記記録の閉鎖等,0,2023-07-28,2023-07-20,合同会社フォレストＳ,,合同会社,東京都,千代田区,大手町１丁目１番２号,,13,101,1000004,,,2023-07-20,清算の結了等,,,2021-12-02,1,,,,,フォレストエス,0
1353,6010005033765,登記記録の閉鎖等,0,2023-07-28,2023-07-20,一般社団法人東京レジデンシャル６,,その他の設立登記法人,東京都,中央区,日本橋１丁目４番１号,,13,102,1030027,,,2023-07-20,清算の結了等,,,2021-08-11,1,,,,,トウキョウレジデンシャルシックス,0
1354,6010101000306,登記記録の閉鎖等,0,2023-07-28,2023-07-26,株式会社飯沢,,株式会社,東京都,八王子市,川口町２７２２番地,,13,201,1930801,,,2023-07-26,清算の結了等,,,2015-10-05,1,,,,,イイザワ,0
1368,6010601050338,登記記録の閉鎖等,0,2023-07-28,2023-07-25,株式会社ｆｌｉｘｙ,,株式会社,東京都,港区,芝大門２丁目５番５号,,13,103,1050012,,,2023-07-25,合併による解散等,6010001151703,令和５年７月３日福岡市中央区大名一丁目１番３２号ＧＬＡＮＺビル４階株式会社ＨＥＲＯ　ｉｎｎｏｖａｔｉｏｎ（6010001151703）に合併し解散,2016-09-08,1,,,,,フリクシー,0
1389,6011101083308,登記記録の閉鎖等,0,2023-07-28,2023-07-10,株式会社レナヴィス,,株式会社,東京都,新宿区,下落合３丁目２０番３号本間ビル３Ｆ,,13,104,1610033,,,2023-07-10,清算の結了等,,,2018-02-23,1,,,,,レナヴィス,0
1455,6080102000059,登記記録の閉鎖等,0,2023-07-28,2023-07-27,有限会社アート建築事務所,,有限会社,静岡県,沼津市,大岡２０３７番地の２,,22,203,4100022,,,2023-07-27,清算の結了等,,,2015-10-05,1,,,,,アートケンチクジムショ,0
1459,6090001000043,登記記録の閉鎖等,0,2023-07-28,2023-07-20,株式会社アクス,,株式会社,山梨県,甲府市,城東３丁目６番２号,,19,201,4000861,,,2023-07-20,清算の結了等,,,2015-10-05,1,,,,,アクス,0
1461,6100001026136,登記記録の閉鎖等,0,2023-07-28,2023-07-24,東京工業株式会社,,株式会社,長野県,長野市,大字上ケ屋９６１番地,,20,201,3800888,,,2023-07-24,清算の結了等,,,2015-10-05,1,,,,,トウキョウコウギョウ,0
1491,6130001041859,登記記録の閉鎖等,0,2023-07-28,2023-07-07,牧野工業株式会社,,株式会社,京都府,綾部市,宮代町前田６番地の６,,26,203,6230053,,,2023-07-07,清算の結了等,,,2015-10-05,1,,,,,マキノコウギョウ,0
1495,6140001072639,登記記録の閉鎖等,0,2023-07-28,2023-07-25,株式会社タケイ,,株式会社,兵庫県,西宮市,甲子園三番町１１番２０号,,28,204,6638173,,,2023-07-25,清算の結了等,,,2015-10-05,1,,,,,タケイ,0
1500,6160001002032,登記記録の閉鎖等,0,2023-07-28,2023-07-26,株式会社ヤギコーポレーション,,株式会社,滋賀県,大津市,際川２丁目１番１８号,,25,201,5200002,,,2023-07-26,清算の結了等,,,2015-10-05,1,,,,,ヤギコーポレーション,0
1519,6200002001607,登記記録の閉鎖等,0,2023-07-28,2023-07-24,有限会社ケー・アール・エス,,有限会社,岐阜県,岐阜市,宇佐南３丁目１番６号クイーンビル３０１,,21,201,5008367,,,2023-07-24,清算の結了等,,,2015-10-05,1,,,,,ケーアールエス,0
1528,6240001024167,登記記録の閉鎖等,0,2023-07-28,2023-07-21,株式会社ＰＲＥＭＩＵＭ,,株式会社,広島県,東広島市,西条町寺家４９３８番地,,34,212,7390041,,,2023-07-21,清算の結了等,,,2015-10-05,1,,,,,プレミアム,0
1543,6290801023900,登記記録の閉鎖等,0,2023-07-28,2023-07-24,株式会社ライフワークス,,株式会社,福岡県,北九州市小倉北区,東篠崎１丁目１１番１１号,,40,106,8020072,,,2023-07-24,清算の結了等,,,2017-08-17,1,,,,,,0
1547,6300002010639,登記記録の閉鎖等,0,2023-07-28,2023-07-14,有限会社ブライダルサロン中山,,有限会社,佐賀県,唐津市,町田１８６０番地３,,41,202,8470821,,,2023-07-14,清算の結了等,,,2015-10-05,1,,,,,ブライダルサロンナカヤマ,0
1552,6320002000539,登記記録の閉鎖等,0,2023-07-28,2023-07-24,有限会社あけぼの,,有限会社,大分県,大分市,大字光吉９８８番地の１,,44,201,8701132,,,2023-07-24,清算の結了等,,,2015-10-05,1,,,,,アケボノ,0
1553,6320002007121,登記記録の閉鎖等,0,2023-07-28,2023-07-24,有限会社夜明,,有限会社,大分県,大分市,大字光吉９６２番地の１,,44,201,8701132,,,2023-07-24,清算の結了等,,,2015-10-05,1,,,,,ヨアケ,0
1566,6370001006078,登記記録の閉鎖等,0,2023-07-28,2023-07-20,堀籠畳商工株式会社,,株式会社,宮城県,仙台市宮城野区,原町１丁目１番４７－８０９号,,04,102,9830841,,,2023-07-20,清算の結了等,,,2015-10-05,1,,,,,ホリゴメタタミショウコウ,0
1571,6380002032213,登記記録の閉鎖等,0,2023-07-28,2023-07-25,有限会社竹田商事,,有限会社,福島県,福島市,黒岩字素利町２０番地の１,,07,201,9608153,,,2023-07-25,合併による解散等,8380002001083,令和５年７月２５日福島市黒岩字素利町２０番地の１株式会社きららコンタクト（8380002001083）に合併し解散,2015-10-05,1,,,,,タケダショウジ,0
1572,6390002007602,登記記録の閉鎖等,0,2023-07-28,2023-07-21,太平プラント工業有限会社,,有限会社,山形県,酒田市,十里塚字村東山南２９３の６,,06,204,9980114,,,2023-07-21,清算の結了等,,,2015-10-05,1,,,,,タイヘイプラントコウギョウ,0
1576,6400602000129,登記記録の閉鎖等,0,2023-07-28,2023-07-06,有限会社遠藤工務店,,有限会社,岩手県,奥州市,水沢真城字町屋敷１０８番地,,03,215,0230841,,,2023-07-06,清算の結了等,,,2015-10-05,1,,,,,エンドウコウムテン,0
1577,6420001006106,登記記録の閉鎖等,0,2023-07-28,2023-07-13,株式会社高野写真館,,株式会社,青森県,八戸市,大字鍛冶町１番地,,02,203,0310037,,,2023-07-13,清算の結了等,,,2015-10-05,1,,,,,タカノシャシンカン,0
1588,6500002013992,登記記録の閉鎖等,0,2023-07-28,2023-07-27,有限会社伊藤メディカル,,有限会社,愛媛県,西条市,飯岡１２４１番地の９１,,38,206,7930010,,,2023-07-27,清算の結了等,,,2015-10-05,1,,,,,イトウメディカル,0
1589,6500002023174,登記記録の閉鎖等,0,2023-07-28,2023-07-27,有限会社水口畳店,,有限会社,愛媛県,宇和島市,新町１丁目３番１３号,,38,203,7980035,,,2023-07-27,清算の結了等,,,2015-10-05,1,,,,,ミズグチタタミテン,0
1606,7010003025417,登記記録の閉鎖等,0,2023-07-28,2023-07-21,Ｊ．Ｔ．ＡＳＳＥＴ合同会社,,合同会社,東京都,千代田区,九段南１丁目５番６号りそな九段ビル５階ＫＳフロア,,13,101,1020074,,,2023-07-21,合併による解散等,4010003023407,令和５年７月１日沖縄県那覇市首里寒川町一丁目５番地２シャールレーク首里城公園４号棟２０４Ｅ．Ｔ．ＡＳＳＥＴ合同会社（4010003023407）に合併し解散,2017-05-31,1,,,,,ジェイティーアセット,0
1614,7010005014368,登記記録の閉鎖等,0,2023-07-28,2023-07-20,一般社団法人環境プランニング学会,,その他の設立登記法人,東京都,中央区,銀座６丁目１３番７号新保ビル,,13,102,1040061,,,2023-07-20,清算の結了等,,,2015-10-05,1,,,,,カンキョウプランニングガッカイ,0
1616,7010005033789,登記記録の閉鎖等,0,2023-07-28,2023-07-20,一般社団法人東京レジデンシャル８,,その他の設立登記法人,東京都,中央区,日本橋１丁目４番１号,,13,102,1030027,,,2023-07-20,清算の結了等,,,2021-08-10,1,,,,,トウキョウレジデンシャルエイト,0
1620,7010401143753,登記記録の閉鎖等,0,2023-07-28,2023-07-05,株式会社アルファ・キャピタル,,株式会社,東京都,港区,北青山３丁目６番７号青山パラシオタワー１１階,,13,103,1070061,,,2023-07-05,清算の結了等,,,2019-02-13,1,,,,,アルファキャピタル,0
1635,7010901036936,登記記録の閉鎖等,0,2023-07-28,2023-07-27,株式会社サンズエステート,,株式会社,東京都,渋谷区,代々木１丁目５８番１６号清水ビル３Ｆ,,13,113,1510053,,,2023-07-27,清算の結了等,,,2015-10-21,1,,,,,サンズエステート,0
1642,7011003014789,登記記録の閉鎖等,0,2023-07-28,2023-07-24,ナチュールプルミエ合同会社,,合同会社,東京都,渋谷区,神宮前６丁目１９番１５号,,13,113,1500001,,,2023-07-24,清算の結了等,,,2022-06-10,1,,,,,ナチュールプルミエ,0
1651,7011302002016,登記記録の閉鎖等,0,2023-07-28,2023-07-20,有限会社オフィスエックス,,有限会社,東京都,杉並区,今川４丁目１７番８号,,13,115,1670035,,,2023-07-20,清算の結了等,,,2015-10-05,1,,,,,,0
1675,7030001051594,登記記録の閉鎖等,0,2023-07-28,2023-07-04,株式会社リサーチ,,株式会社,埼玉県,北葛飾郡松伏町,ゆめみ野４丁目１１番地４,,11,465,3430113,,,2023-07-04,清算の結了等,,,2015-10-05,1,,,,,リサーチ,0
1682,7030002108088,登記記録の閉鎖等,0,2023-07-28,2023-07-04,有限会社ユーキファッション,,有限会社,埼玉県,川口市,大字伊刈９８３番地,,11,203,3330865,,,2023-07-04,清算の結了等,,,2015-10-05,1,,,,,ユーキファッション,0
1693,7040001097653,登記記録の閉鎖等,0,2023-07-28,2023-07-27,株式会社ＬＩＮＧＥＵＳ,,株式会社,東京都,多摩市,和田１１３６番地の１,,13,224,2060001,,,2023-07-27,清算の結了等,,,2016-11-15,1,,,,,リンジアス,0
1698,7040002010706,登記記録の閉鎖等,0,2023-07-28,2023-07-05,有限会社萬華園緑化,,有限会社,千葉県,千葉市中央区,星久喜町１５０番地の６,,12,101,2600808,,,2023-07-05,清算の結了等,,,2015-10-05,1,,,,,,0
1702,7040005021147,登記記録の閉鎖等,0,2023-07-28,2023-07-04,農事組合法人温室そだち,,その他の設立登記法人,千葉県,旭市,入野１８０３番地,,12,215,2890515,,,2023-07-04,清算の結了等,,,2021-04-01,1,,,,,オンシツソダチ,0
1705,7050002003700,登記記録の閉鎖等,0,2023-07-28,2023-07-24,有限会社酒井左官工業,,有限会社,茨城県,東茨城郡茨城町,大字大戸３５７９番地,,08,302,3113114,,,2023-07-24,清算の結了等,,,2015-10-05,1,,,,,サカイサカンコウギョウ,0
1708,7050005011568,登記記録の閉鎖等,0,2023-07-28,2023-07-21,特定非営利活動法人ピアニッシモ,,その他の設立登記法人,茨城県,水戸市,河和田町１５１番地,,08,201,3114153,,,2023-07-21,清算の結了等,,,2015-10-05,1,,,,,ピアニッシモ,0
1709,7060002032475,登記記録の閉鎖等,0,2023-07-28,2023-07-20,有限会社野尻児童乘物製作所,,有限会社,栃木県,栃木市,川原田町６２８番地,,09,203,3280123,,,2023-07-20,清算の結了等,,,2015-10-05,1,,,,,ノジリジドウノリモノセイサクショ,0
1719,7090001014918,登記記録の閉鎖等,0,2023-07-28,2023-07-19,マイライフ株式会社,,株式会社,山梨県,南アルプス市,落合２３７０番地４,,19,208,4000423,,,2023-07-19,清算の結了等,,,2017-01-12,1,,,,,マイライフ,0
1720,7100001026135,登記記録の閉鎖等,0,2023-07-28,2023-07-24,東京農業株式会社,,株式会社,長野県,長野市,大字上ケ屋９６１番地,,20,201,3800888,,,2023-07-24,清算の結了等,,,2015-10-05,1,,,,,トウキョウノウギョウ,0
1723,7120001020895,登記記録の閉鎖等,0,2023-07-28,2023-07-26,大有プレシジヨン株式会社,,株式会社,大阪府,大阪市平野区,加美南３丁目１番６号,,27,126,5470003,,,2023-07-26,清算の結了等,,,2015-10-05,1,,,,,,0
1730,7120003019168,登記記録の閉鎖等,0,2023-07-28,2023-07-27,合同会社きずなプロジェクト,,合同会社,大阪府,大阪市福島区,鷺洲３丁目６番１０号,,27,103,5530002,,,2023-07-27,清算の結了等,,,2021-04-02,1,,,,,キズナプロジェクト,0
1742,7130005009728,登記記録の閉鎖等,0,2023-07-28,2023-07-07,浄見寺,,その他の設立登記法人,京都府,与謝郡与謝野町,字算所５７２番地,,26,465,6292402,,,2023-07-07,清算の結了等,,,2015-10-05,1,,,,,ジョウケンジ,0
1752,7160001017509,登記記録の閉鎖等,0,2023-07-28,2023-07-25,株式会社フィリシティ,,株式会社,滋賀県,大津市,池の里１５番１号,,25,201,5200827,,,2023-07-25,清算の結了等,,,2015-10-05,1,,,,,フィリシティ,0
1753,7160002010149,登記記録の閉鎖等,0,2023-07-28,2023-07-26,有限会社八木,,有限会社,滋賀県,東近江市,妙法寺町８５５番地４,,25,213,5270046,,,2023-07-26,清算の結了等,,,2015-10-05,1,,,,,ヤギ,0
1761,7180003009386,登記記録の閉鎖等,0,2023-07-28,2023-07-25,合同会社ヤダランドリー,,合同会社,愛知県,名古屋市北区,大曽根４丁目２０番７号,,23,103,4620825,,,2023-07-25,清算の結了等,,,2015-10-05,1,,,,,ヤダランドリー,0
1765,7200001033146,登記記録の閉鎖等,0,2023-07-28,2023-07-26,柴道路株式会社,,株式会社,岐阜県,美濃加茂市,下米田町西脇１４４７番地１,,21,211,5050018,,,2023-07-26,清算の結了等,,,2016-08-08,1,,,,,,0
1769,7220002009036,登記記録の閉鎖等,0,2023-07-28,2023-07-24,有限会社北村オートサービス,,有限会社,石川県,白山市,下柏野町３４番地,,17,210,9240038,,,2023-07-24,清算の結了等,,,2015-10-05,1,,,,,キタムラオートサービス,0
1789,7290005016312,登記記録の閉鎖等,0,2023-07-28,2023-07-06,協同組合上三緒ストア,,その他の設立登記法人,福岡県,飯塚市,大字上三緒６６６番地の１,,40,205,8200000,,,2023-07-06,清算の結了等,,,2017-03-14,1,,,,,カミミオストア,0
1790,7290801002093,登記記録の閉鎖等,0,2023-07-28,2023-07-21,株式会社総合管理センター,,株式会社,福岡県,北九州市八幡東区,中畑１丁目１番７号１Ｆ,,40,108,8050024,,,2023-07-21,清算の結了等,,,2015-10-05,1,,,,,ソウゴウカンリセンター,0
1799,7320002002617,登記記録の閉鎖等,0,2023-07-28,2023-07-24,有限会社コーポテイ・ケイ,,有限会社,大分県,大分市,南太平寺１丁目６番７号,,44,201,8700885,,,2023-07-24,清算の結了等,,,2015-10-05,1,,,,,,0
1805,7350002012539,登記記録の閉鎖等,0,2023-07-28,2023-07-20,有限会社日の出センター,,有限会社,宮崎県,延岡市,日の出町１丁目９番地４,,45,203,8820035,,,2023-07-20,清算の結了等,,,2015-10-05,1,,,,,,0
1807,7360001010352,登記記録の閉鎖等,0,2023-07-28,2023-07-25,株式会社ホウオウボクの樹の下で深呼吸して考えたっ,,株式会社,沖縄県,中頭郡北中城村,字渡口９５３番地,,47,327,9012302,,,2023-07-25,清算の結了等,,,2015-10-05,1,,,,,ホウオウボクノキノシタデシンコキュウシテカンガエタッ,0
1810,7360003007231,登記記録の閉鎖等,0,2023-07-28,2023-07-19,合同会社りんく,,合同会社,沖縄県,沖縄市,桃原４丁目２３番４９号,,47,211,9042164,,,2023-07-19,清算の結了等,,,2015-10-05,1,,,,,リンク,0
1812,7360003011877,登記記録の閉鎖等,0,2023-07-28,2023-07-25,ＹＬ合同会社,,合同会社,沖縄県,那覇市,松川３丁目１８番３５－４０２号ＦＬＡＴＳ松川,,47,201,9020062,,,2023-07-25,清算の結了等,,,2022-03-17,1,,,,,ワイエル,0
1836,7430002021382,登記記録の閉鎖等,0,2023-07-28,2023-07-14,有限会社米沢商店,,有限会社,北海道,札幌市豊平区,平岸二条８丁目１番４０号,,01,105,0620932,,,2023-07-14,清算の結了等,,,2015-10-05,1,,,,,ヨネザワショウテン,0
1843,7490002009926,登記記録の閉鎖等,0,2023-07-28,2023-07-21,有限会社岡本衣料品店,,有限会社,高知県,高岡郡佐川町,乙１８３８番地９,,39,402,7891202,,,2023-07-21,清算の結了等,,,2015-10-05,1,,,,,オカモトイリョウヒンテン,0
1855,8010001216388,登記記録の閉鎖等,0,2023-07-28,2023-07-13,株式会社ブタノミライ,,株式会社,東京都,千代田区,神田神保町３丁目２番地高橋ビルディング５階,,13,101,1010051,,,2023-07-13,清算の結了等,,,2021-03-09,1,,,,,ブタノミライ,0
1880,8010501013302,登記記録の閉鎖等,0,2023-07-28,2023-07-27,株式会社東光時計商会,,株式会社,東京都,台東区,東上野３丁目１１番１０号,,13,106,1100015,,,2023-07-27,清算の結了等,,,2015-10-05,1,,,,,トウコウトケイショウカイ,0
1896,8010902013108,登記記録の閉鎖等,0,2023-07-28,2023-07-24,有限会社ふじクリーナース,,有限会社,東京都,世田谷区,祖師谷１丁目９番１４号,,13,112,1570072,,,2023-07-24,清算の結了等,,,2015-10-05,1,,,,,,0
1899,8011001026711,登記記録の閉鎖等,0,2023-07-28,2023-07-27,株式会社パドック,,株式会社,東京都,渋谷区,初台２丁目５番８号,,13,113,1510061,,,2023-07-27,清算の結了等,,,2015-10-05,1,,,,,,0
1900,8011001109598,登記記録の閉鎖等,0,2023-07-28,2023-07-18,ＡｓｓｅｔＭｅｄｉａ株式会社,,株式会社,東京都,千代田区,神田小川町３丁目１１番地２,,13,101,1010052,,,2023-07-18,清算の結了等,,,2016-02-18,1,,,,,アセットメディア,0
1917,8011601026045,登記記録の閉鎖等,0,2023-07-28,2023-07-25,株式会社Ｏ・Ｓ・Ｐ,,株式会社,東京都,練馬区,北町２丁目２７番８号,,13,120,1790081,,,2023-07-25,清算の結了等,,,2022-06-24,1,,,,,オーエスピー,0
1922,8012801021637,登記記録の閉鎖等,0,2023-07-28,2023-07-21,株式会社ＢＲ,,株式会社,東京都,立川市,砂川町６丁目３２番地の２２,,13,202,1900031,,,2023-07-21,清算の結了等,,,2022-06-09,1,,,,,ビーアール,0
1951,8040001026280,登記記録の閉鎖等,0,2023-07-28,2023-07-05,株式会社サークル・ウエイブ,,株式会社,千葉県,市川市,大野町４丁目２８５１番地７２,,12,203,2720805,,,2023-07-05,清算の結了等,,,2015-10-05,1,,,,,サークルウエイブ,0
1957,8040002006868,登記記録の閉鎖等,0,2023-07-28,2023-07-05,有限会社大和冷機工業,,有限会社,千葉県,千葉市花見川区,花園１丁目７番５号,,12,102,2620025,,,2023-07-05,清算の結了等,,,2015-10-05,1,,,,,,0
1960,8040002072175,登記記録の閉鎖等,0,2023-07-28,2023-07-04,有限会社市原際物センター,,有限会社,千葉県,市原市,五井中央西１丁目２５番地２２,,12,219,2900081,,,2023-07-04,清算の結了等,,,2015-10-05,1,,,,,イチハラキワモノセンター,0
1964,8050002013673,登記記録の閉鎖等,0,2023-07-28,2023-07-21,有限会社森田装蹄所,,有限会社,茨城県,稲敷郡阿見町,大字大室６１番地１７,,08,443,3000303,,,2023-07-21,清算の結了等,,,2015-10-05,1,,,,,モリタソウテイジョ,0
1983,8100005012551,登記記録の閉鎖等,0,2023-07-28,2023-07-18,一般社団法人信濃町スポーツ企画サービス,,その他の設立登記法人,長野県,上水内郡信濃町,大字柏原３４０番地２,,20,583,3891305,,,2023-07-18,清算の結了等,,,2020-04-03,1,,,,,シナノマチスポーツキカクサービス,0
1995,8120101060948,登記記録の閉鎖等,0,2023-07-28,2023-07-27,株式会社千,,株式会社,大阪府,和泉市,いぶき野３丁目６番１－５１９号,,27,219,5940041,,,2023-07-27,清算の結了等,,,2019-12-09,1,,,,,セン,0
1998,8120902009045,登記記録の閉鎖等,0,2023-07-28,2023-07-19,有限会社浜口産業,,有限会社,大阪府,摂津市,正雀本町２丁目２９番２号,,27,224,5660024,,,2023-07-19,清算の結了等,,,2015-10-05,1,,,,,ハマグチサンギョウ,0
2005,8140002005414,登記記録の閉鎖等,0,2023-07-28,2023-07-27,有限会社ヨコヤマ,,有限会社,兵庫県,神戸市西区,狩場台１丁目８番地の５,,28,111,6512272,,,2023-07-27,清算の結了等,,,2015-10-05,1,,,,,ヨコヤマ,0
2006,8140002016436,登記記録の閉鎖等,0,2023-07-28,2023-07-26,有限会社ワイ．アール,,有限会社,兵庫県,神戸市中央区,栄町通３丁目６番２７－１７０４号,,28,110,6500023,,,2023-07-26,清算の結了等,,,2015-10-05,1,,,,,ワイアール,0
2015,8180002083200,登記記録の閉鎖等,0,2023-07-28,2023-07-24,有限会社エヌ・エス検査,,有限会社,愛知県,半田市,一本木町３丁目３１番地,,23,205,4750014,,,2023-07-24,清算の結了等,,,2015-10-05,1,,,,,エヌエスケンサ,0
2018,8190001024674,登記記録の閉鎖等,0,2023-07-28,2023-07-14,株式会社クラウドナイン,,株式会社,三重県,松阪市,中林町４１０番地,,24,204,5152111,,,2023-07-14,清算の結了等,,,2017-05-23,1,,,,,,0
2021,8200001013097,登記記録の閉鎖等,0,2023-07-28,2023-07-24,株式会社水環境電池,,株式会社,岐阜県,山県市,佐野３４０番地１,,21,215,5012312,,,2023-07-24,清算の結了等,,,2015-10-05,1,,,,,ミズカンキョウデンチ,0
2030,8200005010842,登記記録の閉鎖等,0,2023-07-28,2023-07-24,シーエフチェーン郡上酒販協同組合,,その他の設立登記法人,岐阜県,郡上市,八幡町島谷７１５番地,,21,219,5014222,,,2023-07-24,清算の結了等,,,2015-10-05,1,,,,,シーエフチェーングジョウシュハン,0
2040,8250005008527,登記記録の閉鎖等,0,2023-07-28,2023-07-14,ＭＣネットワーク協同組合,,その他の設立登記法人,山口県,周南市,大字須々万本郷字氏次３５８番地の１０ススマＡＰワイズ１０２号,,35,215,7450122,,,2023-07-14,清算の結了等,,,2019-10-11,1,,,,,エムシーネットワーク,0
2052,8310002005149,登記記録の閉鎖等,0,2023-07-28,2023-07-26,有限会社まつうコンタクトレンズ,,有限会社,長崎県,長崎市,磯道町５番１０号,,42,201,8500971,,,2023-07-26,清算の結了等,,,2015-10-05,1,,,,,マツウコンタクトレンズ,0
2057,8340002000304,登記記録の閉鎖等,0,2023-07-28,2023-07-24,有限会社盛満工務店,,有限会社,鹿児島県,鹿児島市,花尾町２８６８番地１,,46,201,8911101,,,2023-07-24,清算の結了等,,,2015-10-05,1,,,,,,0
2075,8400602000804,登記記録の閉鎖等,0,2023-07-28,2023-07-06,有限会社ワイエス測量設計,,有限会社,岩手県,奥州市,水沢真城字北塩加羅１０１番地８,,03,215,0230841,,,2023-07-06,清算の結了等,,,2015-10-05,1,,,,,ワイエスソクリョウセッケイ,0
2082,8470002015149,登記記録の閉鎖等,0,2023-07-28,2023-07-24,有限会社手打うどんてっちゃん,,有限会社,香川県,坂出市,西庄町５７８番地３,,37,203,7620021,,,2023-07-24,清算の結了等,,,2015-10-05,1,,,,,テウチウドンテッチャン,0
2108,9010003027989,登記記録の閉鎖等,0,2023-07-28,2023-07-20,合同会社開発７３号,,合同会社,東京都,千代田区,飯田橋１丁目３番２号曙杉館４階清和コンサルティング株式会社内,,13,101,1020072,,,2023-07-20,清算の結了等,,,2018-07-30,1,,,,,カイハツナナジュウサンゴウ,0
2134,9010501029727,登記記録の閉鎖等,0,2023-07-28,2023-07-18,株式会社ウインズ,,株式会社,東京都,豊島区,西池袋２丁目２５番１６号,,13,116,1710021,,,2023-07-18,清算の結了等,,,2015-10-05,1,,,,,ウインズ,0
2150,9011001072366,登記記録の閉鎖等,0,2023-07-28,2023-07-25,株式会社ビツグハート,,株式会社,和歌山県,西牟婁郡白浜町,２９２７番地の３２６,,30,401,6492211,,,2023-07-25,清算の結了等,,,2015-10-05,1,,,,,ビツグハート,0
2161,9011301026831,登記記録の閉鎖等,0,2023-07-28,2023-07-21,株式会社ＵＮＩＦＹ,,株式会社,東京都,杉並区,高円寺南４丁目１１番１０号高円寺ヴィレッヂ２０５,,13,115,1660003,,,2023-07-21,清算の結了等,,,2021-05-12,1,,,,,ユニファイ,0
2168,9012401001749,登記記録の閉鎖等,0,2023-07-28,2023-07-27,株式会社安村建設コンサルタント,,株式会社,東京都,府中市,白糸台６丁目５９番地の３２,,13,206,1830011,,,2023-07-27,清算の結了等,,,2015-10-05,1,,,,,ヤスムラケンセツコンサルタント,0
2171,9012405003130,登記記録の閉鎖等,0,2023-07-28,2023-07-26,一般社団法人日本ターゲット・バードゴルフ協会,,その他の設立登記法人,東京都,武蔵野市,境南町３丁目１１番１１号武蔵野ヒルズ１０１号,,13,203,1800023,,,2023-07-26,清算の結了等,,,2015-10-05,1,,,,,,0
2187,9020001136898,登記記録の閉鎖等,0,2023-07-28,2023-07-13,株式会社フリックス,,株式会社,神奈川県,川崎市宮前区,初山１丁目７番１２号,,14,136,2160026,,,2023-07-13,清算の結了等,,,2020-07-13,1,,,,,フリックス,0
2196,9020002098592,登記記録の閉鎖等,0,2023-07-28,2023-07-13,有限会社林商会,,有限会社,神奈川県,川崎市川崎区,池上新町１丁目１３番１３号,,14,131,2100832,,,2023-07-13,清算の結了等,,,2015-10-05,1,,,,,ハヤシショウカイ,0
2203,9030001120414,登記記録の閉鎖等,0,2023-07-28,2023-07-04,ＮｅｗＳｏｆｔ株式会社,,株式会社,埼玉県,さいたま市浦和区,常盤３丁目４番１２－９０１号,,11,107,3300061,,,2023-07-04,清算の結了等,,,2017-05-24,1,,,,,ニューソフト,0
2209,9030002056995,登記記録の閉鎖等,0,2023-07-28,2023-07-03,有限会社テクノ・セールス・タケ,,有限会社,埼玉県,北足立郡伊奈町,栄４丁目１９２番地３,,11,301,3620805,,,2023-07-03,清算の結了等,,,2015-10-05,1,,,,,テクノセールスタケ,0
2258,9120001101438,登記記録の閉鎖等,0,2023-07-28,2023-07-27,株式会社ミヤワーク,,株式会社,大阪府,大阪市東淀川区,小松１丁目１６番２５号,,27,114,5330004,,,2023-07-27,清算の結了等,,,2015-10-05,1,,,,,ミヤワーク,0
2309,9240001041317,登記記録の閉鎖等,0,2023-07-28,2023-07-21,株式会社和火,,株式会社,広島県,東広島市,西条中央８丁目２７番３号２Ｆ,,34,212,7390025,,,2023-07-21,清算の結了等,,,2015-10-05,1,,,,,ワビ,0
2316,9250003000897,登記記録の閉鎖等,0,2023-07-28,2023-07-07,合同会社キノシタフードサービス,,合同会社,山口県,下関市,豊前田町２丁目４番１６号,,35,201,7500018,,,2023-07-07,清算の結了等,,,2015-10-05,1,,,,,キノシタフードサービス,0
2342,9340001019204,登記記録の閉鎖等,0,2023-07-28,2023-07-26,株式会社魚河岸鮮匠一家,,株式会社,鹿児島県,鹿児島市,千日町８番１２号第２三木ビル１階,,46,201,8920843,,,2023-07-26,清算の結了等,,,2016-04-06,1,,,,,ウオガシセンショウイッカ,0
2346,9350003002355,登記記録の閉鎖等,0,2023-07-28,2023-07-18,合同会社ほけんのあんしんサポート,,合同会社,宮崎県,都城市,一万城町２９号１１番地１,,45,202,8850041,,,2023-07-18,清算の結了等,,,2015-10-05,1,,,,,ホケンノアンシンサポート,0
2356,9380001024860,登記記録の閉鎖等,0,2023-07-28,2023-07-20,株式会社ＡＢＣエンタープライズ,,株式会社,福島県,会津若松市,河東町八田字大野原６２番地,,07,202,9693451,,,2023-07-20,清算の結了等,,,2015-10-05,1,,,,,エービーシーエンタープライズ,0
2360,9400002012168,登記記録の閉鎖等,0,2023-07-28,2023-07-07,有限会社一戸商事,,有限会社,岩手県,二戸郡一戸町,一戸字上野１６２番地５,,03,524,0285312,,,2023-07-07,清算の結了等,,,2015-10-05,1,,,,,イチノヘショウジ,0
2361,9400003002952,登記記録の閉鎖等,0,2023-07-28,2023-07-07,合同会社成海,,合同会社,岩手県,奥州市,水沢字桜屋敷２６３番地１０,,03,215,0230865,,,2023-07-07,清算の結了等,,,2022-06-20,1,,,,,ナルミ,0
2372,9460301003102,登記記録の閉鎖等,0,2023-07-28,2023-07-27,株式会社オホーツク網走,,株式会社,北海道,網走市,字北浜２６１番地,,01,211,0993112,,,2023-07-27,清算の結了等,,,2015-10-05,1,,,,,オホーツクアバシリ,0
2379,9500002017982,登記記録の閉鎖等,0,2023-07-28,2023-07-26,有限会社越智商会,,有限会社,愛媛県,今治市,大西町脇甲８５７番地２,,38,202,7992206,,,2023-07-26,清算の結了等,,,2015-10-05,1,,,,,オチショウカイ,0
