sequenceNumber,corporateNumber,process,correct,updateDate,changeDate,name,nameImageId,kind,prefectureName,cityName,streetNumber,addressImageId,prefectureCode,cityCode,postCode,addressOutside,addressOutsideImageId,closeDate,closeCause,successorCorporateNumber,changeCause,assignmentDate,latest,enName,enPrefectureName,enCityName,enAddressOutside,furigana,hihyoji
11,1010001239998,新規,0,2023-11-17,2023-11-17,株式会社ＡＳＴＲＯ,,株式会社,東京都,中央区,銀座１丁目１２－４Ｎ＆ＥＢＬＤ．７階,,13,102,1040061,,,,,,,2023-11-17,1,,,,,アストロ,0
12,1010001240106,新規,0,2023-11-17,2023-11-17,＿宏益株式会社,00132690,株式会社,東京都,千代田区,神田錦町３丁目７番２号東京堂錦町ビル８０４号室,,13,101,1010054,,,,,,,2023-11-17,1,,,,,キンコウエキ,0
13,1010001240155,新規,0,2023-11-17,2023-11-17,ＣＣＨ７ｄ株式会社,,株式会社,東京都,千代田区,一番町２番地,,13,101,1020082,,,,,,,2023-11-17,1,,,,,シーシーエイチセブンディー,0
14,1010001240213,新規,0,2023-11-17,2023-11-17,ＤａｒＤａｒ　Ｔｅｃｈ　ＪＡＰＡＮ株式会社,,株式会社,東京都,千代田区,平河町１丁目９－１メゾン平河町３０１号室,,13,101,1020093,,,,,,,2023-11-17,1,,,,,ダーダーテックジャパン,0
23,1010005037531,新規,0,2023-11-17,2023-11-17,ソーラーショパンホールディングス一般社団法人,,その他の設立登記法人,東京都,中央区,八丁堀４丁目２番１０号ＡＯＪ税理士法人内,,13,102,1040032,,,,,,,2023-11-17,1,,,,,ソーラーショパンホールディングス,0
31,1010401178524,新規,0,2023-11-17,2023-11-17,東晟株式会社,,株式会社,東京都,港区,三田５丁目４番４号３Ｆ,,13,103,1080073,,,,,,,2023-11-17,1,,,,,トウセイ,0
43,1010701045143,新規,0,2023-11-17,2023-11-17,株式会社ＤＹＭエンジニアリング,,株式会社,東京都,品川区,大崎１丁目１１番２号,,13,109,1410032,,,,,,,2023-11-17,1,,,,,ディーワイエムエンジニアリング,0
44,1010703006952,新規,0,2023-11-17,2023-11-17,合同会社ドリームＳコンツェルン,,合同会社,東京都,品川区,東大井１丁目２５番８号ストークビレッジナガオ２０３,,13,109,1400011,,,,,,,2023-11-17,1,,,,,ドリームエスコンツェルン,0
50,1011001158255,新規,0,2023-11-17,2023-11-17,株式会社ＴＨＥ　ＷＨＩＴＥ　ＰＡＰＥＲ,,株式会社,東京都,渋谷区,西原１丁目１９番１０号ガーデンハイツ１－１０５号,,13,113,1510066,,,,,,,2023-11-17,1,,,,,ザホワイトペーパー,0
51,1011001158321,新規,0,2023-11-17,2023-11-17,株式会社ＮＡＶＷＹ,,株式会社,東京都,渋谷区,千駄ヶ谷４丁目２９番１２号,,13,113,1510051,,,,,,,2023-11-17,1,,,,,ネイビー,0
52,1011003017954,新規,0,2023-11-17,2023-11-17,ピジン合同会社,,合同会社,東京都,目黒区,下目黒１丁目１番１４号コノトラビル７Ｆ,,13,110,1530064,,,,,,,2023-11-17,1,,,,,ピジン,0
54,1011101105149,新規,0,2023-11-17,2023-11-17,ＶＥＬＶＥＮＩＵＭ株式会社,,株式会社,東京都,新宿区,新宿２丁目１番１１号御苑スカイビル３階,,13,104,1600022,,,,,,,2023-11-17,1,,,,,ヴェルヴェニウム,0
55,1011101105157,新規,0,2023-11-17,2023-11-17,グランツ株式会社,,株式会社,東京都,新宿区,西新宿３丁目３番１３号西新宿水間ビル２Ｆ,,13,104,1600023,,,,,,,2023-11-17,1,,,,,グランツ,0
56,1011101105165,新規,0,2023-11-17,2023-11-17,株式会社ＹＨＲ,,株式会社,東京都,新宿区,西新宿３丁目３番１３号西新宿水間ビル６階,,13,104,1600023,,,,,,,2023-11-17,1,,,,,ワイエイチアール,0
57,1011101105181,新規,0,2023-11-17,2023-11-17,株式会社Ａｙａｗｅｌｌｎｅｓｓ,,株式会社,東京都,新宿区,新宿１丁目１５－４ＲｉｍｂａＳｈｉｎｊｕｋｕＧｙｏｅｎ３Ｆ,,13,104,1600022,,,,,,,2023-11-17,1,,,,,アヤウェルネス,0
61,1011103013762,新規,0,2023-11-17,2023-11-17,菊池合同会社,,合同会社,東京都,新宿区,市谷山伏町３番１号,,13,104,1620857,,,,,,,2023-11-17,1,,,,,キクチ,0
67,1011501029988,新規,0,2023-11-17,2023-11-17,ピカソアートワールドジャパン株式会社,,株式会社,東京都,北区,堀船３丁目２４－４梶原銀座ビル４０６号室,,13,117,1140004,,,,,,,2023-11-17,1,,,,,ピカソアートワールドジャパン,0
68,1011501029996,新規,0,2023-11-17,2023-11-17,株式会社協成コーポレーション,,株式会社,東京都,北区,王子３丁目２２番２３号協成ビル,,13,117,1140002,,,,,,,2023-11-17,1,,,,,キョウセイコーポレーション,0
70,1011801043367,新規,0,2023-11-17,2023-11-17,株式会社彩生トータルサロン,,株式会社,東京都,足立区,西新井６丁目４０－１０－１０１,,13,121,1230841,,,,,,,2023-11-17,1,,,,,サイセイトータルサロン,0
72,1012401041232,新規,0,2023-11-17,2023-11-17,株式会社ｓ．ｉ．ｄ,,株式会社,東京都,稲城市,平尾４丁目１１番地の１７,,13,225,2060823,,,,,,,2023-11-17,1,,,,,シド,0
73,1012403006282,新規,0,2023-11-17,2023-11-17,ＲＡＩＺＥ東京合同会社,,合同会社,東京都,三鷹市,大沢４丁目７番１５号コーポサンリバー１０５,,13,204,1810015,,,,,,,2023-11-17,1,,,,,ライズトウキョウ,0
77,1012805003241,新規,0,2023-11-17,2023-11-17,一般社団法人ＳＴＳ研究所,,その他の設立登記法人,東京都,国立市,西３丁目８番地の３１－１－１０６,,13,215,1860005,,,,,,,2023-11-17,1,,,,,エスティエスケンキュウジョ,0
87,1020001154453,新規,0,2023-11-17,2023-11-17,創盛ジャパン株式会社,,株式会社,神奈川県,川崎市幸区,新小倉２番７－１０３号,,14,132,2120031,,,,,,,2023-11-17,1,,,,,ソウセイジャパン,0
88,1020001154486,新規,0,2023-11-17,2023-11-17,株式会社ルリアン,,株式会社,神奈川県,川崎市宮前区,鷺沼１丁目１１番地１４鷺沼パレス１０６,,14,136,2160004,,,,,,,2023-11-17,1,,,,,ルリアン,0
91,1021001080763,新規,0,2023-11-17,2023-11-17,株式会社アールエムシー,,株式会社,神奈川県,大和市,鶴間２丁目１１番２３号,,14,213,2420004,,,,,,,2023-11-17,1,,,,,アールエムシー,0
92,1021001080771,新規,0,2023-11-17,2023-11-17,〆二株式会社,,株式会社,神奈川県,三浦市,白石町２１番６号,,14,210,2380244,,,,,,,2023-11-17,1,,,,,シメニ,0
101,1030001157190,新規,0,2023-11-17,2023-11-17,ＹＳ国際株式会社,,株式会社,埼玉県,草加市,瀬崎７丁目２５番２１－１号,,11,221,3400022,,,,,,,2023-11-17,1,,,,,ワイエスコクサイ,0
102,1030001157224,新規,0,2023-11-17,2023-11-17,株式会社ユートピア,,株式会社,埼玉県,大里郡寄居町,大字保田原２９５番地１３,,11,408,3691221,,,,,,,2023-11-17,1,,,,,ユートピア,0
108,1030003022673,新規,0,2023-11-17,2023-11-17,安心コンサルティング合同会社,,合同会社,埼玉県,春日部市,大沼４丁目６５－３１０,,11,214,3440038,,,,,,,2023-11-17,1,,,,,アンシンコンサルティング,0
109,1030003023003,新規,0,2023-11-17,2023-11-17,ＴＭ合同会社,,合同会社,埼玉県,本庄市,寿１丁目９番１２号山田荘８号棟,,11,211,3670023,,,,,,,2023-11-17,1,,,,,ティーエム,0
110,1030003023011,新規,0,2023-11-17,2023-11-17,ＭＳ空調サービス合同会社,,合同会社,埼玉県,入間市,小谷田２丁目１―１６,,11,225,3580026,,,,,,,2023-11-17,1,,,,,エムエスクウチョウサービス,0
111,1030003023052,新規,0,2023-11-17,2023-11-17,合同会社ＹｏｕＳｈａｒｅ,,合同会社,埼玉県,所沢市,大字荒幡３４１番地の１,,11,208,3591133,,,,,,,2023-11-17,1,,,,,ユーシェア,0
116,1040001130881,新規,0,2023-11-17,2023-11-17,株式会社富多,,株式会社,千葉県,野田市,山崎１３７２番地１,,12,208,2780022,,,,,,,2023-11-17,1,,,,,,0
117,1040001130980,新規,0,2023-11-17,2023-11-17,株式会社キーウエスト,,株式会社,千葉県,浦安市,富士見５丁目１１番９号,,12,227,2790043,,,,,,,2023-11-17,1,,,,,キーウエスト,0
118,1040001130997,新規,0,2023-11-17,2023-11-17,エスレントティー株式会社,,株式会社,千葉県,柏市,中新宿３丁目４番１号,,12,217,2770066,,,,,,,2023-11-17,1,,,,,エスレントティー,0
124,1040003023704,新規,0,2023-11-17,2023-11-17,ＨＧＣ合同会社,,合同会社,千葉県,千葉市中央区,弁天２丁目６－１６,,12,101,2600045,,,,,,,2023-11-17,1,,,,,エイチジーシー,0
125,1040005022200,新規,0,2023-11-17,2023-11-17,特定非営利活動法人グローバルキッズ,,その他の設立登記法人,千葉県,市原市,ちはら台西５丁目１７番地５,,12,219,2900143,,,,,,,2023-11-17,1,,,,,グローバルキッズ,0
137,1070001041077,新規,0,2023-11-17,2023-11-17,株式会社ＧＯＩＮＧ,,株式会社,群馬県,高崎市,栄町６番８号,,10,202,3700841,,,,,,,2023-11-17,1,,,,,ゴーイング,0
139,1080001025979,新規,0,2023-11-17,2023-11-17,株式会社ＭＡＮＵＩＡ,,株式会社,静岡県,焼津市,八楠３丁目９番地の６,,22,212,4250091,,,,,,,2023-11-17,1,,,,,マヌイア,0
144,1090003002414,新規,0,2023-11-17,2023-11-17,合同会社日本ジープセンター,,合同会社,山梨県,大月市,笹子町白野３３９番１,,19,206,4010023,,,,,,,2023-11-17,1,,,,,ニホンジープセンター,0
149,1110001037979,新規,0,2023-11-17,2023-11-17,株式会社蝶名林,,株式会社,新潟県,三条市,上須頃２４６５番地１ボワヴェールＩ１０６,00132702,15,204,9550091,,,,,,,2023-11-17,1,,,,,チョウナバヤシ,0
156,1120001259829,新規,0,2023-11-17,2023-11-17,株式会社ＹＷＹ,,株式会社,大阪府,大阪市中央区,難波１丁目６番１９号,,27,128,5420076,,,,,,,2023-11-17,1,,,,,ワイダブルワイ,0
157,1120001259960,新規,0,2023-11-17,2023-11-17,ウェル設備株式会社,,株式会社,大阪府,寝屋川市,池田旭町２３番１０号,,27,215,5720035,,,,,,,2023-11-17,1,,,,,ウェルセツビ,0
158,1120003025089,新規,0,2023-11-17,2023-11-17,合同会社パラレルパートナーズ,,合同会社,大阪府,大阪市都島区,高倉町３丁目２番９号クルバジェ４０１号,,27,102,5340011,,,,,,,2023-11-17,1,,,,,パラレルパートナーズ,0
159,1120003025345,新規,0,2023-11-17,2023-11-17,合同会社カルダ,,合同会社,大阪府,大阪市住之江区,中加賀屋４丁目１番２２号,,27,125,5590017,,,,,,,2023-11-17,1,,,,,カルダ,0
160,1120005023999,新規,0,2023-11-17,2023-11-17,一般社団法人大御所会,,その他の設立登記法人,大阪府,大阪市中央区,瓦町１丁目１番３号セナドーラ瓦町１０１,,27,128,5410048,,,,,,,2023-11-17,1,,,,,オオゴショカイ,0
167,1122001037586,新規,0,2023-11-17,2023-11-17,株式会社Ｆｏｒｌｋ,,株式会社,大阪府,東大阪市,花園東町１丁目２０番４号,,27,227,5780931,,,,,,,2023-11-17,1,,,,,フォーク,0
168,1122003002729,新規,0,2023-11-17,2023-11-17,合同会社アウトサイダーアート,,合同会社,大阪府,東大阪市,菱屋西５丁目９番２３号ホープ小阪１０１号室,,27,227,5770807,,,,,,,2023-11-17,1,,,,,アウトサイダーアート,0
182,1140001132380,新規,0,2023-11-17,2023-11-17,株式会社芦屋総合企画,00132694,株式会社,兵庫県,芦屋市,三条南町１番５号南棟,,28,206,6590086,,,,,,,2023-11-17,1,,,,,アシヤソウゴウキカク,0
183,1140001132389,新規,0,2023-11-17,2023-11-17,株式会社Ａ＆Ｋコーポレーション,,株式会社,兵庫県,神戸市東灘区,本山北町２丁目１２番３号,,28,101,6580003,,,,,,,2023-11-17,1,,,,,エーアンドケーコーポレーション,0
184,1140001132397,新規,0,2023-11-17,2023-11-17,株式会社ＫＯＢＡＫＯ,,株式会社,兵庫県,神戸市北区,藤原台南町３丁目１番１０号,,28,109,6511303,,,,,,,2023-11-17,1,,,,,コバコ,0
185,1140001132414,新規,0,2023-11-17,2023-11-17,株式会社菜果ホールディングス,,株式会社,兵庫県,神戸市須磨区,須磨本町１丁目１番１６号,,28,107,6540054,,,,,,,2023-11-17,1,,,,,サイカホールディングス,0
188,1140003019824,新規,0,2023-11-17,2023-11-17,合同会社ビクトリー,,合同会社,兵庫県,小野市,古川町１２４５－３,,28,218,6751363,,,,,,,2023-11-17,1,,,,,ビクトリー,0
189,1140003019840,新規,0,2023-11-17,2023-11-17,合同会社ＴＪｏｐｓ,,合同会社,兵庫県,南あわじ市,賀集鍛治屋６８－１,,28,224,6560515,,,,,,,2023-11-17,1,,,,,ティージェイオプス,0
191,1150003003117,新規,0,2023-11-17,2023-11-17,くるみ商事合同会社,,合同会社,奈良県,大和郡山市,稗田町１３番地５３,,29,203,6391108,,,,,,,2023-11-17,1,,,,,クルミショウジ,0
197,1180001158926,新規,0,2023-11-17,2023-11-17,ユキダ・ラボ株式会社,,株式会社,愛知県,あま市,小橋方杁之口３７０番地１,,23,237,4901212,,,,,,,2023-11-17,1,,,,,ユキダラボ,0
198,1180001158942,新規,0,2023-11-17,2023-11-17,株式会社ＭＳＭＩ,,株式会社,愛知県,名古屋市中村区,亀島１丁目３番１１号,,23,105,4530013,,,,,,,2023-11-17,1,,,,,エムエスミー,0
199,1180001158967,新規,0,2023-11-17,2023-11-17,株式会社ケイエムシーマネジメント,,株式会社,愛知県,名古屋市千種区,御棚町１丁目２番地の２,00132696,23,101,4640835,,,,,,,2023-11-17,1,,,,,ケイエムシーマネジメント,0
203,1180003026016,新規,0,2023-11-17,2023-11-17,ＲＦｗｏｒｋｓ合同会社,,合同会社,愛知県,一宮市,貴船２丁目１２番１３－６０５号ナビシティ貴船,,23,203,4910037,,,,,,,2023-11-17,1,,,,,アールエフワークス,0
208,1200005013538,新規,0,2023-11-17,2023-11-17,エポシー協同組合,,その他の設立登記法人,岐阜県,安八郡神戸町,大字神戸１１１２番地の１,,21,381,5032305,,,,,,,2023-11-17,1,,,,,エポシー,0
234,1300001013531,新規,0,2023-11-17,2023-11-17,株式会社ＥｄｕＴｏｐｉａ,,株式会社,佐賀県,三養基郡基山町,大字宮浦６８３番地,,41,341,8410204,,,,,,,2023-11-17,1,,,,,エデュトピア,0
238,1330001031472,新規,0,2023-11-17,2023-11-17,株式会社タカ建築工房,,株式会社,熊本県,合志市,須屋２９８８番地４４,,43,216,8611102,,,,,,,2023-11-17,1,,,,,タカケンチクコウボウ,0
240,1340001026083,新規,0,2023-11-17,2023-11-17,株式会社ＢＥＥＩＮＧ,,株式会社,鹿児島県,鹿児島市,伊敷８丁目１８番１０号,,46,201,8900008,,,,,,,2023-11-17,1,,,,,ビーイング,0
241,1350003004490,新規,0,2023-11-17,2023-11-17,ユニフルッタ合同会社,,合同会社,宮崎県,都城市,今町７２４３番地２,,45,202,8850064,,,,,,,2023-11-17,1,,,,,ユニフルッタ,0
247,1360001032831,新規,0,2023-11-17,2023-11-17,株式会社ケアスリー,,株式会社,沖縄県,南城市,玉城字糸数３９６番地２Ｆ,,47,215,9010606,,,,,,,2023-11-17,1,,,,,ケアスリー,0
252,1370001050634,新規,0,2023-11-17,2023-11-17,株式会社薬研沢農場,,株式会社,宮城県,黒川郡大郷町,大松沢字一ノ沢橋本７番地,,04,422,9813501,,,,,,,2023-11-17,1,,,,,ヤゲンザワノウジョウ,0
254,1370005010709,新規,0,2023-11-17,2023-11-17,一般社団法人ハートワン,,その他の設立登記法人,宮城県,仙台市太白区,あすと長町１丁目５番４２－２８１１号,,04,104,9820007,,,,,,,2023-11-17,1,,,,,ハートワン,0
261,1380003005619,新規,0,2023-11-17,2023-11-17,合同会社Ｕｎｌｅａｓｈ,,合同会社,福島県,いわき市,平字田町１２０番地ＬＡＴＯＶ６Ｆ・Ｍ１,,07,204,9708026,,,,,,,2023-11-17,1,,,,,アンリーシュ,0
269,1430001090434,新規,0,2023-11-17,2023-11-17,株式会社Ｅｄｉｆｙ,,株式会社,北海道,札幌市中央区,南一条西２丁目１８ＩＫＥＵＣＨＩＬＡＢ４Ｆ,,01,101,0600061,,,,,,,2023-11-17,1,,,,,エディファイ,0
270,1430001090442,新規,0,2023-11-17,2023-11-17,株式会社ａｌｌ　ｇｒｅｅｎ,,株式会社,北海道,札幌市豊平区,豊平二条１丁目１番３７－２０３号,,01,105,0620902,,,,,,,2023-11-17,1,,,,,オールグリーン,0
271,1430001090475,新規,0,2023-11-17,2023-11-17,株式会社徳ふじ,,株式会社,北海道,札幌市南区,南沢一条１丁目３番３０号,,01,106,0050821,,,,,,,2023-11-17,1,,,,,トクフジ,0
275,1430003015645,新規,0,2023-11-17,2023-11-17,合同会社ななかまど,,合同会社,北海道,江別市,野幌町１４番地の１７,,01,217,0690813,,,,,,,2023-11-17,1,,,,,ナナカマド,0
281,1470001019900,新規,0,2023-11-17,2023-11-17,株式会社Ｓｄクリーン,,株式会社,香川県,高松市,牟礼町牟礼２３２１番地１４－１１１号室,,37,201,7610121,,,,,,,2023-11-17,1,,,,,エスディークリーン,0
286,1500001025309,新規,0,2023-11-17,2023-11-17,株式会社オノメディカル,,株式会社,愛媛県,松山市,勝山町１丁目７番地９勝山町バートン９０１号,,38,201,7900878,,,,,,,2023-11-17,1,,,,,オノメディカル,0
288,1700150122142,新規,0,2023-11-17,2023-11-17,ｑｕａｎｚｈｏｕｓｈｉｈｕｉｍａｉｗａｎｇｌｕｏｋｅｊｉｙｏｕｘｉａｎｇｏｎｇｓｉ,,外国会社等,,,,,,,,ｑｕａｎｚｈｏｕｓｈｉ　ｈｕｉｍａｉ　ｗａｎｇｌｕｏｋｅｊｉ　ｙｏｕｘｉａｎｇｏｎｇｓｉ　ｓｈｕｉｍｕｃｈｕｎｔｉａｎ　２ｈａｏｌｏｕ２６０６ｓｈｉ　ｆｅｎｇｚｅｑｕ　ｈｕａｄａｊｉｅｄａｏ　ｑｕａｎｚｈｏｕ　ｆｕｊｉａｎ,,,,,,2023-11-17,1,,,,,チユエンジヨウシーフイマイワンルオコージーヨウシエンゴンスー,0
289,1700150122150,新規,0,2023-11-17,2023-11-17,ｙｉｆｅｎｇｗａｎｇｋｅｊｉ（ｓｈｅｎｚｈｅｎ）ｙｏｕｘｉａｎｇｏｎｇｓｉ,,外国会社等,,,,,,,,ｓｈｅｎｚｈｅｎｓｈｉｂａｏａｎｑｕｘｉｘｉａｎｇｊｉｅｄａｏｂａｏｙｕａｎｌｕ１０６５ｈａｏＦ５１８ｓｈｉｓｈａｎｇｃｈｕａｎｇｙｉｙｕａｎＦ５ｄｏｎｇ１０１,,,,,,2023-11-17,1,,,,,イーフエンネツトテクノロジーシンセンカンパニリミテツド,0
290,1700150122159,新規,0,2023-11-17,2023-11-17,Ｓｈｅｎｚｈｅｎ　ＰＡ　Ｔｉｍｅｓ　Ｔｅｃｈｎｏｌｏｇｙ　ＣＯ．，ＬＴＤ．,,外国会社等,,,,,,,,１４Ｄ，１４Ｅ，Ｂｌｏｃｋ　Ｂ，Ｘｕｅｓｏｎｇ　Ｂｕｉｌｄｉｎｇ，Ｎｏ．５２，Ｔａｉｒａｎ　６ｔｈ　Ｒｏａｄ　Ｔｉａｎ’ａｎ　Ｃｏｍｍｕｎｉｔｙ，Ｓｈａｔｏｕ　Ｓｔｒｅｅｔ，Ｆｕｔｉａｎ　Ｄｉｓｔｒｉｃｔ　Ｓｈｅｎｚｈｅｎ　Ｇｕａｎｇｄｏｎｇ　５１８０００　ＣＮ,,,,,,2023-11-17,1,,,,,シエンジエンシーボーヤーシーダイコージーヨウシエンゴンスー,0
291,1700150122167,新規,0,2023-11-17,2023-11-17,Ｓｈｅｎｚｈｅｎ　ｓｈｉｄａｉ　ｚｈｕｆｅｎｇ　Ｔｅｃｈｎｏｌｏｇｙ　Ｃｏ．，Ｌｔｄ,,外国会社等,,,,,,,,Ｂ６１１，Ｂｕｉｌｄｉｎｇ　１，Ｚｏｎｅ　Ａ，Ｂａｏｙｕａｎ　Ｒｏａｄ　Ｉｎｔｅｒｎｅｔ　Ｉｎｄｕｓｔｒｙ　Ｂａｓｅ，Ｘｉｘｉａｎｇ　Ｓｔｒｅｅｔ，Ｂａｏａｎ　Ｄｉｓｔｒｉｃｔ，Ｓｈｅｎｚｈｅｎ,,,,,,2023-11-17,1,,,,,シンセンジダイシユホウテクノロジーカンパニリミテツド,0
301,2010001240047,新規,0,2023-11-17,2023-11-17,株式会社リソーブック＆ディベロップメント,,株式会社,東京都,文京区,白山３丁目４番１１号２Ｆ,,13,105,1120001,,,,,,,2023-11-17,1,,,,,リソーブックアンドディベロップメント,0
302,2010001240154,新規,0,2023-11-17,2023-11-17,株式会社ＵＫビジネスサポート,,株式会社,東京都,中央区,銀座１丁目１２番４号６Ｆ,,13,102,1040061,,,,,,,2023-11-17,1,,,,,ユーケービジネスサポート,0
305,2010003042227,新規,0,2023-11-17,2023-11-17,Ｐａｎｇｅａ　Ｊａｐａｎ合同会社,,合同会社,東京都,中央区,日本橋２丁目２番３号ＲＩＳＨＥビルＵＣＦ４階,,13,102,1030027,,,,,,,2023-11-17,1,,,,,パンゲアジャパン,0
306,2010005037530,新規,0,2023-11-17,2023-11-17,ソーラーシューマンホールディングス一般社団法人,,その他の設立登記法人,東京都,中央区,八丁堀４丁目２番１０号ＡＯＪ税理士法人内,,13,102,1040032,,,,,,,2023-11-17,1,,,,,ソーラーシューマンホールディングス,0
314,2010403031399,新規,0,2023-11-17,2023-11-17,ラッフルズ・ジャパン合同会社,,合同会社,東京都,港区,虎ノ門１丁目３番１号東京虎ノ門グローバルスクエア１３階,,13,103,1050001,,,,,,,2023-11-17,1,,,,,ラッフルズジャパン,0
315,2010403031416,新規,0,2023-11-17,2023-11-17,ヘキサワン・リアルティ合同会社,,合同会社,東京都,港区,赤坂６丁目５番２５－４０１号,,13,103,1070052,,,,,,,2023-11-17,1,,,,,ヘキサワンリアルティ,0
321,2010701045142,新規,0,2023-11-17,2023-11-17,株式会社ＤＹＭロジスティクス,,株式会社,東京都,品川区,大崎１丁目１１番２号,,13,109,1410032,,,,,,,2023-11-17,1,,,,,ディーワイエムロジスティクス,0
325,2010801034524,新規,0,2023-11-17,2023-11-17,ピリから株式会社,,株式会社,東京都,大田区,上池台３丁目１１番１５号,,13,111,1450064,,,,,,,2023-11-17,1,,,,,ピリカラ,0
326,2010803004756,新規,0,2023-11-17,2023-11-17,合同会社ＦＯコーポレーション,,合同会社,東京都,大田区,大森北１丁目３３番１１号大森北パークビル５０１,,13,111,1430016,,,,,,,2023-11-17,1,,,,,エフオーコーポレーション,0
327,2010901054208,新規,0,2023-11-17,2023-11-17,株式会社ＰＢＦ,,株式会社,東京都,世田谷区,玉川３丁目２０番２号マノア玉川第３ビル５０１号室,,13,112,1580094,,,,,,,2023-11-17,1,,,,,ピービーエフ,0
336,2011001158262,新規,0,2023-11-17,2023-11-17,株式会社Ｐｉｏｎｅｅｒ　Ｐａｔｈ　Ｐａｒｔｎｅｒｓ,,株式会社,東京都,目黒区,碑文谷５丁目２－５Ｔ＆Ａビル５Ｆ,,13,110,1520003,,,,,,,2023-11-17,1,,,,,パイオニアパスパートナーズ,0
337,2011001158295,新規,0,2023-11-17,2023-11-17,株式会社ｄａｔｔａｒａ,,株式会社,東京都,渋谷区,本町２丁目４番１８号,,13,113,1510071,,,,,,,2023-11-17,1,,,,,ダッタラ,0
338,2011001158320,新規,0,2023-11-17,2023-11-17,雪風エージェンシー株式会社,,株式会社,東京都,渋谷区,神山町２２番２号,,13,113,1500047,,,,,,,2023-11-17,1,,,,,ユキカゼエージェンシー,0
347,2011101105107,新規,0,2023-11-17,2023-11-17,株式会社Ｂｏａ,,株式会社,東京都,新宿区,新宿１丁目１２番１号,,13,104,1600022,,,,,,,2023-11-17,1,,,,,,0
349,2011103013761,新規,0,2023-11-17,2023-11-17,ユーラシアクシー合同会社,,合同会社,東京都,新宿区,西新宿３丁目３番１３号西新宿水間ビル２Ｆ,,13,104,1600023,,,,,,,2023-11-17,1,,,,,ユーラシアクシー,0
351,2011201025031,新規,0,2023-11-17,2023-11-17,Ｂｌｏｓｓｏｍ　Ｇｏｖｃｏ株式会社,,株式会社,東京都,中野区,中央５丁目３８番１６号,,13,114,1640011,,,,,,,2023-11-17,1,,,,,ブロッサムガブコ,0
359,2011603004137,新規,0,2023-11-17,2023-11-17,合同会社Ｆｕｎ　Ｂａｓｅ,,合同会社,東京都,練馬区,三原台２丁目１１番２号,,13,120,1770031,,,,,,,2023-11-17,1,,,,,ファンベース,0
367,2011801043366,新規,0,2023-11-17,2023-11-17,株式会社クレダス,,株式会社,東京都,葛飾区,東新小岩８丁目３８番１３号,,13,122,1240023,,,,,,,2023-11-17,1,,,,,クレダス,0
374,2013301051626,新規,0,2023-11-17,2023-11-17,リアン・フード株式会社,,株式会社,東京都,豊島区,千川１丁目１番１１号,,13,116,1710041,,,,,,,2023-11-17,1,,,,,リアンフード,0
390,2020001154510,新規,0,2023-11-17,2023-11-17,東京福来祥株式会社,,株式会社,神奈川県,横浜市中区,日ノ出町２丁目１２４－１メゾンＴＳ４０２室,,14,104,2310066,,,,,,,2023-11-17,1,,,,,トウキョウフクライショウ,0
394,2020003024975,新規,0,2023-11-17,2023-11-17,ケイティエール合同会社,,合同会社,神奈川県,横浜市港北区,日吉７丁目２２－５３グランシティ日吉サウスガーデン１０１,,14,109,2230061,,,,,,,2023-11-17,1,,,,,ケイティエール,0
395,2020003025008,新規,0,2023-11-17,2023-11-17,合同会社高陽機工,,合同会社,神奈川県,川崎市川崎区,大師本町４番８－４０５号,,14,131,2100817,,,,,,,2023-11-17,1,,,,,コウヨウキコウ,0
396,2021001080762,新規,0,2023-11-17,2023-11-17,株式会社ワイツー,,株式会社,神奈川県,平塚市,岡崎６２３２番地の５,,14,203,2591212,,,,,,,2023-11-17,1,,,,,ワイツー,0
397,2021001080770,新規,0,2023-11-17,2023-11-17,株式会社Ｌｕｃｋ＆Ｓｍｉｌｅ,,株式会社,神奈川県,茅ヶ崎市,菱沼海岸７番１６号,,14,207,2530037,,,,,,,2023-11-17,1,,,,,ラックアンドスマイル,0
405,2030001157132,新規,0,2023-11-17,2023-11-17,ＹＡＭＡＮ株式会社,,株式会社,埼玉県,川口市,戸塚東１丁目２２番３号,,11,203,3330802,,,,,,,2023-11-17,1,,,,,ヤマン,0
409,2030003022994,新規,0,2023-11-17,2023-11-17,合同会社優,,合同会社,埼玉県,所沢市,大字松郷２４６－２,,11,208,3590027,,,,,,,2023-11-17,1,,,,,マサル,0
420,2040003023752,新規,0,2023-11-17,2023-11-17,Ｋ２‐ｌｉｎＫ合同会社,,合同会社,千葉県,習志野市,谷津３丁目１番２０－４０７号,,12,216,2750026,,,,,,,2023-11-17,1,,,,,ケーツーリンク,0
437,2070001041076,新規,0,2023-11-17,2023-11-17,ゆこスマイル株式会社,,株式会社,群馬県,渋川市,有馬１１７３番地,,10,208,3770005,,,,,,,2023-11-17,1,,,,,ユコスマイル,0
438,2070001041084,新規,0,2023-11-17,2023-11-17,株式会社ｅｖｅｒｙｏｎｅ,,株式会社,群馬県,前橋市,茂木町２３９－２９,,10,201,3710232,,,,,,,2023-11-17,1,,,,,,0
447,2100001036964,新規,0,2023-11-17,2023-11-17,株式会社全国中小企業支援機構,,株式会社,長野県,上田市,五加２６２番地１,,20,203,3861324,,,,,,,2023-11-17,1,,,,,ゼンコクチュウショウキギョウシエンキコウ,0
448,2100001036980,新規,0,2023-11-17,2023-11-17,ＡＹＥＫ株式会社,,株式会社,長野県,下高井郡野沢温泉村,大字豊郷４７８０番地３,,20,563,3892502,,,,,,,2023-11-17,1,,,,,アイーク,0
463,2120001259951,新規,0,2023-11-17,2023-11-17,アイ・フィールド株式会社,,株式会社,大阪府,枚方市,南中振２丁目５９番７－１０４号,,27,210,5730094,,,,,,,2023-11-17,1,,,,,アイフィールド,0
471,2120901048371,新規,0,2023-11-17,2023-11-17,株式会社Ｅｍｉ　ｂｅｌｌ,,株式会社,大阪府,吹田市,江坂町５丁目１４番１４－４０１号,,27,205,5640063,,,,,,,2023-11-17,1,,,,,エミベル,0
474,2122001037577,新規,0,2023-11-17,2023-11-17,７２５ホールディングス株式会社,,株式会社,大阪府,東大阪市,吉田４丁目７番１３号,,27,227,5780924,,,,,,,2023-11-17,1,,,,,ナナニゴホールディングス,0
475,2122001037585,新規,0,2023-11-17,2023-11-17,株式会社慶菜工務店,,株式会社,大阪府,四條畷市,蔀屋本町８番８号,,27,229,5750042,,,,,,,2023-11-17,1,,,,,ケイナコウムテン,0
477,2130001075761,新規,0,2023-11-17,2023-11-17,株式会社中央環境,,株式会社,京都府,綴喜郡井手町,大字井手小字久保６６番地,,26,343,6100302,,,,,,,2023-11-17,1,,,,,チュウオウカンキョウ,0
493,2140001132388,新規,0,2023-11-17,2023-11-17,株式会社ＢＥＯＮＥ,,株式会社,兵庫県,川辺郡猪名川町,つつじが丘２丁目４番地１４,,28,301,6660245,,,,,,,2023-11-17,1,,,,,ビーワン,0
494,2140001132396,新規,0,2023-11-17,2023-11-17,株式会社なんで屋,,株式会社,兵庫県,神戸市中央区,下山手通２丁目１７番２０号ライオンビル三宮館００２号室,,28,110,6500011,,,,,,,2023-11-17,1,,,,,ナンデヤ,0
495,2140001132405,新規,0,2023-11-17,2023-11-17,アリアットコンサルティング株式会社,,株式会社,兵庫県,神戸市中央区,海岸通６番地建隆ビルＩ５階,00132705,28,110,6500024,,,,,,,2023-11-17,1,,,,,アリアットコンサルティング,0
496,2140003019815,新規,0,2023-11-17,2023-11-17,居留地Ｄｅｓｉｇｎ合同会社,,合同会社,兵庫県,神戸市中央区,栄町通３丁目２番２号和栄ビル３号館３０６号室,,28,110,6500023,,,,,,,2023-11-17,1,,,,,キョリュウチデザイン,0
497,2140003019831,新規,0,2023-11-17,2023-11-17,合同会社０６Ｂａｓｅ,,合同会社,兵庫県,尼崎市,額田町１７番１３号カーサ・イマキタ・ルナ１０２,,28,202,6610962,,,,,,,2023-11-17,1,,,,,ゼロロクベース,0
498,2160001025508,新規,0,2023-11-17,2023-11-17,ＯＮＥ　ＳＬＡＳＨ株式会社,,株式会社,滋賀県,長浜市,西浅井町庄９７９番地１,,25,203,5290722,,,,,,,2023-11-17,1,,,,,ワンスラッシュ,0
503,2180301038042,新規,0,2023-11-17,2023-11-17,ＮＴロジスティクス株式会社,,株式会社,愛知県,豊橋市,柳生町４６番地の３,,23,201,4418041,,,,,,,2023-11-17,1,,,,,エヌティーロジスティクス,0
508,2190001030892,新規,0,2023-11-17,2023-11-17,株式会社アトム,,株式会社,三重県,鈴鹿市,神戸７丁目８番１号,,24,207,5130801,,,,,,,2023-11-17,1,,,,,アトム,0
516,2230001020113,新規,0,2023-11-17,2023-11-17,株式会社中興産業,,株式会社,富山県,富山市,水橋小出１１５３番地１,,16,201,9390553,,,,,,,2023-11-17,1,,,,,チュウコウサンギョウ,0
534,2290001103779,新規,0,2023-11-17,2023-11-17,株式会社Ｒｏｎｉｔａｓ,,株式会社,福岡県,糟屋郡粕屋町,長者原東２丁目７番８号,,40,349,8112317,,,,,,,2023-11-17,1,,,,,ロニタス,0
545,2300001013530,新規,0,2023-11-17,2023-11-17,株式会社ＴＨＲＥＥＷＯＲＫＳＪＡＰＡＮ,,株式会社,佐賀県,佐賀市,本庄町大字本庄２０３番地,,41,201,8400027,,,,,,,2023-11-17,1,,,,,スリーワークスジャパン,0
547,2310001018710,新規,0,2023-11-17,2023-11-17,株式会社古川重機,,株式会社,長崎県,佐世保市,有福町１７１２番地８シーサイド大塔Ａ棟２０８,,42,202,8593241,,,,,,,2023-11-17,1,,,,,フルカワジュウキ,0
551,2330001031471,新規,0,2023-11-17,2023-11-17,ＫＫＣホールディングス株式会社,,株式会社,熊本県,熊本市中央区,水前寺１丁目７番２６号,,43,101,8620950,,,,,,,2023-11-17,1,,,,,ケイケイシーホールディングス,0
553,2350001018665,新規,0,2023-11-17,2023-11-17,株式会社かけはし,,株式会社,宮崎県,宮崎市,池内町池ノ内１１０７番地３,,45,201,8800041,,,,,,,2023-11-17,1,,,,,カケハシ,0
556,2360003013481,新規,0,2023-11-17,2023-11-17,合同会社ステージ西原,,合同会社,沖縄県,中頭郡西原町,字棚原３６番地ＭリトルハウスＣ－１,,47,329,9030126,,,,,,,2023-11-17,1,,,,,ステージニシハラ,0
561,2390005009038,新規,0,2023-11-17,2023-11-17,一般社団法人東部耕舎,,その他の設立登記法人,山形県,最上郡金山町,大字金山１４７４番地２,,06,361,9995402,,,,,,,2023-11-17,1,,,,,トウブコウシャ,0
572,2430001090458,新規,0,2023-11-17,2023-11-17,なないろ社会福祉士事務所株式会社,,株式会社,北海道,札幌市厚別区,もみじ台南６丁目５番３号,,01,108,0040012,,,,,,,2023-11-17,1,,,,,ナナイロシャカイフクシシジムショ,0
573,2430001090466,新規,0,2023-11-17,2023-11-17,コネクトワーク株式会社,,株式会社,北海道,札幌市東区,伏古十条１丁目３番３３号,,01,103,0070870,,,,,,,2023-11-17,1,,,,,コネクトワーク,0
577,2430003015586,新規,0,2023-11-17,2023-11-17,合同会社ふるーつＭＩＸ,,合同会社,北海道,札幌市東区,北三十四条東９丁目３番１２号,,01,103,0070834,,,,,,,2023-11-17,1,,,,,フルーツミックス,0
578,2430003015652,新規,0,2023-11-17,2023-11-17,合同会社ビリーブの木,,合同会社,北海道,苫小牧市,ウトナイ北７丁目１１番１１号,,01,213,0591306,,,,,,,2023-11-17,1,,,,,ビリーブノキ,0
581,2470001019899,新規,0,2023-11-17,2023-11-17,株式会社西日本ホテルサービス,,株式会社,香川県,高松市,観光町６５０番地３,,37,201,7600076,,,,,,,2023-11-17,1,,,,,ニシニホンホテルサービス,0
584,2500003003138,新規,0,2023-11-17,2023-11-17,合同会社矢原企画,,合同会社,愛媛県,新居浜市,船木甲３８３４番地の３,,38,205,7920856,,,,,,,2023-11-17,1,,,,,ヤハラキカク,0
586,2700150122141,新規,0,2023-11-17,2023-11-17,ｓｈｅｎ　ｚｈｅｎ　ｓｈｉ　ｈｕｉ　ｘｉｎ　ｋｅ　ｊｉ　ｙｏｕ　ｘｉａｎ　ｇｏｎｇ　ｓｉ,,外国会社等,,,,,,,,ｆｕ　ｔｉａｎ　ｑｕ　ｓｈａ　ｔｏｕ　ｊｉｅ　ｄａｏ　ｔａｉ　ｒａｎ　ｙｉ　ｌｕ　１０　ｈａｏ　ｔｉａｎ　ａｎ　ｇａｏ　ｅｒ　ｆｕ　ｈｕａ　ｙｕａｎ　ｃｕｉ　ｊｉｎｇ　ｇｅ　６Ｆ　Ｓｈｅｎｚｈｅｎ　Ｇｕａｎｇｄｏｎｇ　５１８１０４　ＣＮ,,,,,,2023-11-17,1,,,,,シエンジエンシーフイシンコージーヨウシエンゴンスー,0
587,2700150122158,新規,0,2023-11-17,2023-11-17,Ｇｕａｎｇｄｏｎｇ　Ｚｈａｏｑｉｎｇ　Ｚｈｅｈｅｎｇ　Ｔｅｃｈｎｏｌｏｇｙ　Ｃｏ．，Ｌｔｄ．,,外国会社等,,,,,,,,Ｎｏ．３６３，３ｒｄ　Ｆｌｏｏｒ，Ｏｘｙｇｅｎ　Ｂａｒ　Ｍｉｎｇｘｕａｎ　Ｇａｒｄｅｎ　Ｃｌｕｂ　Ｂ，Ｄｉｓｔｒｉｃｔ３９　Ｋｅｎｇｋｏｕ　Ｎｅｗ　Ｃｉｔｙ，Ｄｉｎｇｈｕ　Ｄｉｓｔｒｉｃｔ，Ｚｈａｏｑｉｎｇ　Ｃｉｔｙ，Ｇｕａｎｇｄｏｎｇ　Ｐｒｏｖｉｎｃｅ,,,,,,2023-11-17,1,,,,,グワンドンジヤオチンジヨーホンコージーヨウシエンゴンスー,0
588,2700150122166,新規,0,2023-11-17,2023-11-17,Ｙｉｗｕ　Ｙｏｕｘｉ　Ｉｍｐｏｒｔ　ａｎｄ　Ｅｘｐｏｒｔ　Ｔｒａｄｉｎｇ　Ｃｏ．，Ｌｔｄ,,外国会社等,,,,,,,,５Ｆ，Ｎｏ．５２９　Ｚｏｎｇｚｅ　Ｎｏｒｔｈ　Ｒｏａｄ，Ｂｅｉｙｕａｎ　Ｓｔｒｅｅｔ，Ｙｉｗｕ　Ｃｉｔｙ，Ｚｈｅｊｉａｎｇ　Ｐｒｏｖｉｎｃｅ，Ｃｈｉｎａ,,,,,,2023-11-17,1,,,,,イーウーヨウシユニユウユシユツトレーテイングカンパニリミテツド,0
589,2700150122174,新規,0,2023-11-17,2023-11-17,ＳＨＥＬＬ　ＥＡＳＴＥＲＮ　ＴＲＡＤＩＮＧ　ＰＴＥ　ＬＴＤ,,外国会社等,,,,,,,,９　ＮＯＲＴＨ　ＢＵＯＮＡ　ＶＩＳＴＡ　ＤＲＩＶＥ　＃０７－０１　ＴＨＥ　ＭＥＴＲＯＰＯＬＩＳ　ＳＩＮＧＡＰＯＲＥ（１３８５８８）,,,,,,2023-11-17,1,,,,,シエルイースタントレイデイングエルテイーデイー,0
597,3010001240186,新規,0,2023-11-17,2023-11-17,株式会社九,,株式会社,東京都,千代田区,神田須田町２丁目１９－７,,13,101,1010041,,,,,,,2023-11-17,1,,,,,キュウ,0
598,3010001240211,新規,0,2023-11-17,2023-11-17,株式会社Ｂｒｉｏｔｔｏ,,株式会社,東京都,千代田区,外神田３丁目６番５号永谷タウンプラザ２０４号室,,13,101,1010021,,,,,,,2023-11-17,1,,,,,ブリオット,0
599,3010003042226,新規,0,2023-11-17,2023-11-17,１５１Ａ合同会社,,合同会社,東京都,中央区,銀座１丁目２２－１１銀座大竹ビジデンス２階,,13,102,1040061,,,,,,,2023-11-17,1,,,,,イチゴイチエ,0
609,3010405022718,新規,0,2023-11-17,2023-11-17,一般社団法人日本ゲームエコシステム協会,,その他の設立登記法人,東京都,港区,六本木６丁目８－２９六本木シローマンション５０７,,13,103,1060032,,,,,,,2023-11-17,1,,,,,ニホンゲームエコシステムキョウカイ,0
616,3010601064142,新規,0,2023-11-17,2023-11-17,中小企業経営研究所株式会社,,株式会社,東京都,墨田区,江東橋５丁目１０番３号,,13,107,1300022,,,,,,,2023-11-17,1,,,,,チュウショウキギョウケイエイケンキュウジョ,0
618,3010603010482,新規,0,2023-11-17,2023-11-17,美装合同会社,,合同会社,東京都,江東区,北砂３丁目３７番２－２０５号,,13,108,1360073,,,,,,,2023-11-17,1,,,,,ビソウ,0
620,3010703006950,新規,0,2023-11-17,2023-11-17,合同会社ｂｒａｉｎ　ｗｏｒｋｓ,,合同会社,東京都,品川区,平塚１丁目７番１８号メゾンド星山３０１,,13,109,1420051,,,,,,,2023-11-17,1,,,,,ブレインワークス,0
623,3010803004755,新規,0,2023-11-17,2023-11-17,合同会社４１ｓ,,合同会社,東京都,大田区,南馬込６丁目１番２３－６０３号,,13,111,1430025,,,,,,,2023-11-17,1,,,,,フォーワンズ,0
627,3010901054207,新規,0,2023-11-17,2023-11-17,ビィアルファエンジニアリング株式会社,,株式会社,東京都,世田谷区,喜多見７丁目２９番１９号,,13,112,1570067,,,,,,,2023-11-17,1,,,,,ビィアルファエンジニアリング,0
628,3010903008598,新規,0,2023-11-17,2023-11-17,Ｓ＆Ａｓｓｏｃｉａｔｅｓ会計事務所合同会社,,合同会社,東京都,世田谷区,北沢３丁目２０番１１号グレース北沢２０５,,13,112,1550031,,,,,,,2023-11-17,1,,,,,エスアンドアソシエイツカイケイジムショ,0
635,3011001158229,新規,0,2023-11-17,2023-11-17,株式会社ＭａｇｉｃＡｌ　Ｐａｓｓ,,株式会社,東京都,目黒区,大岡山１丁目６－６ヴィソカ１Ｂ,,13,110,1520033,,,,,,,2023-11-17,1,,,,,マジカルパス,0
636,3011001158245,新規,0,2023-11-17,2023-11-17,株式会社ＨＩＮＡ　ＴＯＫＹＯ,,株式会社,東京都,渋谷区,神宮前６丁目２３番４号桑野ビル２階,,13,113,1500001,,,,,,,2023-11-17,1,,,,,ヒナトーキョー,0
637,3011003017960,新規,0,2023-11-17,2023-11-17,合同会社千葉万仁土地,,合同会社,東京都,渋谷区,神宮前１丁目５番８号,,13,113,1500001,,,,,,,2023-11-17,1,,,,,チバマンニトチ,0
661,3011801043373,新規,0,2023-11-17,2023-11-17,株式会社松柏,,株式会社,東京都,足立区,扇１丁目４５番４号,,13,121,1230873,,,,,,,2023-11-17,1,,,,,ショウハク,0
662,3011805003316,新規,0,2023-11-17,2023-11-17,一般社団法人東京未来リハビリテーション＆トレーニングセンター,,その他の設立登記法人,東京都,足立区,西新井栄町２丁目９－１２栄ハイム１Ｃ,,13,121,1230843,,,,,,,2023-11-17,1,,,,,トウキョウミライリハビリテーションアンドトレーニングセンター,0
666,3012401041230,新規,0,2023-11-17,2023-11-17,ａｌｋｕ　ｆａｃｉｒｉｔｙ株式会社,,株式会社,東京都,三鷹市,下連雀４丁目１１番４０号,,13,204,1810013,,,,,,,2023-11-17,1,,,,,アルクファシリティ,0
672,3013301051609,新規,0,2023-11-17,2023-11-17,株式会社カンテラ舎,,株式会社,東京都,豊島区,西池袋３丁目１番７－１４０２号,,13,116,1710021,,,,,,,2023-11-17,1,,,,,カンテラシャ,0
695,3030001157189,新規,0,2023-11-17,2023-11-17,株式会社卯月,,株式会社,埼玉県,春日部市,備後東６丁目１０番３９号,,11,214,3440032,,,,,,,2023-11-17,1,,,,,ウヅキ,0
706,3040001130938,新規,0,2023-11-17,2023-11-17,アールアセット株式会社,,株式会社,千葉県,松戸市,新松戸５丁目４７番地１,,12,207,2700034,,,,,,,2023-11-17,1,,,,,アールアセット,0
707,3040001130962,新規,0,2023-11-17,2023-11-17,三友株式会社,,株式会社,千葉県,市川市,鬼越１丁目１６番６号,,12,203,2720022,,,,,,,2023-11-17,1,,,,,ミツトモ,0
708,3040001130979,新規,0,2023-11-17,2023-11-17,株式会社ｈｏｌｏｍｕａ,,株式会社,千葉県,柏市,柏１１４７番地１５,,12,217,2770005,,,,,,,2023-11-17,1,,,,,ホロムア,0
709,3040001130987,新規,0,2023-11-17,2023-11-17,株式会社バケットバゲージ,,株式会社,千葉県,船橋市,前原西２丁目２２番５号,,12,204,2740825,,,,,,,2023-11-17,1,,,,,バケットバゲージ,0
713,3040003023735,新規,0,2023-11-17,2023-11-17,合同会社ＵｔｉｌｉｔｙＰｅｒｓｏｎ,,合同会社,千葉県,千葉市花見川区,三角町４８７番地１８０,,12,102,2620011,,,,,,,2023-11-17,1,,,,,ユーティリティパーソン,0
714,3040003023751,新規,0,2023-11-17,2023-11-17,合同会社農育エナジー,,合同会社,千葉県,千葉市稲毛区,弥生町２番１５号,,12,103,2630022,,,,,,,2023-11-17,1,,,,,ノウイクエナジー,0
717,3040005022207,新規,0,2023-11-17,2023-11-17,医療法人社団晟心会,,その他の設立登記法人,千葉県,船橋市,本町１丁目９番１１号ドーイチビル２階,,12,204,2730005,,,,,,,2023-11-17,1,,,,,セイシンカイ,0
729,3070001041075,新規,0,2023-11-17,2023-11-17,株式会社柳竹,,株式会社,群馬県,前橋市,総社町植野１１０番地４,,10,201,3710851,,,,,,,2023-11-17,1,,,,,リュウチク,0
735,3070003005169,新規,0,2023-11-17,2023-11-17,五合興業合同会社,,合同会社,群馬県,高崎市,新田町５番地１４（２Ｆ）,,10,202,3700833,,,,,,,2023-11-17,1,,,,,ゴゴウコウギョウ,0
737,3070005010191,新規,0,2023-11-17,2023-11-17,一般社団法人アールラボ,,その他の設立登記法人,群馬県,前橋市,前箱田町３８７番地１ＴＭＯｆｆｉｃｅ×３ｈａｐｐｙ１１７号室,,10,201,3710835,,,,,,,2023-11-17,1,,,,,アールラボ,0
739,3080103002924,新規,0,2023-11-17,2023-11-17,合同会社ＫＵＲＥＢＡ,,合同会社,静岡県,三島市,芝本町５番３２号野田ビル１階北側,,22,206,4110857,,,,,,,2023-11-17,1,,,,,クレバ,0
757,3120001259827,新規,0,2023-11-17,2023-11-17,東尚株式会社,,株式会社,大阪府,大阪市港区,市岡３丁目１３－９藤原文化３０２Ａ,,27,107,5520012,,,,,,,2023-11-17,1,,,,,トウショウ,0
758,3120001259835,新規,0,2023-11-17,2023-11-17,株式会社ｅＸ,,株式会社,大阪府,守口市,藤田町５丁目５番１３号,,27,209,5700014,,,,,,,2023-11-17,1,,,,,イーエックス,0
759,3120001259868,新規,0,2023-11-17,2023-11-17,株式会社エルフィー,,株式会社,大阪府,大阪市西淀川区,柏里１丁目１６番１５号,,27,113,5550022,,,,,,,2023-11-17,1,,,,,エルフィー,0
760,3120001259892,新規,0,2023-11-17,2023-11-17,ファーベル株式会社,,株式会社,大阪府,大阪市西区,西本町２丁目１番４１号,,27,106,5500005,,,,,,,2023-11-17,1,,,,,ファーベル,0
761,3120001259901,新規,0,2023-11-17,2023-11-17,５じかんめ図画工作所株式会社,,株式会社,大阪府,大阪市住之江区,粉浜西３丁目２番１０号ウインズコート２０１,,27,125,5590007,,,,,,,2023-11-17,1,,,,,ゴジカンメズガコウサクショ,0
768,3120903004933,新規,0,2023-11-17,2023-11-17,ＧａｒｒｅｔＬａｂｏ合同会社,,合同会社,大阪府,豊中市,春日町１丁目３－６,,27,203,5600052,,,,,,,2023-11-17,1,,,,,ガレットラボ,0
772,3122001037584,新規,0,2023-11-17,2023-11-17,株式会社ＪＩＮ,,株式会社,大阪府,東大阪市,善根寺町３丁目３番３号,,27,227,5798001,,,,,,,2023-11-17,1,,,,,ジン,0
773,3122003002735,新規,0,2023-11-17,2023-11-17,ＭＡＮＡＫＡＭＡＮＡ合同会社,,合同会社,大阪府,柏原市,法善寺３丁目６０３番地の１アウスレーゼ法善寺３０６号,,27,221,5820005,,,,,,,2023-11-17,1,,,,,マナカマナ,0
779,3140001132379,新規,0,2023-11-17,2023-11-17,株式会社明立,,株式会社,兵庫県,洲本市,桑間６３０番地,,28,205,6560014,,,,,,,2023-11-17,1,,,,,メイリツ,0
780,3140001132395,新規,0,2023-11-17,2023-11-17,株式会社メディチ家５１,,株式会社,兵庫県,丹波篠山市,杉２８８番地１,,28,221,6692204,,,,,,,2023-11-17,1,,,,,メディチケゴジュウイチ,0
781,3140001132404,新規,0,2023-11-17,2023-11-17,Ｓｕｎｎｙ’ｓ　Ｍａｋｅｒ１５株式会社,,株式会社,兵庫県,神戸市西区,樫野台３丁目２番地１１－３０２号,,28,111,6512275,,,,,,,2023-11-17,1,,,,,サニーズメーカーフィフティーン,0
787,3140003019839,新規,0,2023-11-17,2023-11-17,青空蝶合同会社,,合同会社,兵庫県,神戸市兵庫区,梅元町１５番１５号１Ｆ,,28,105,6520003,,,,,,,2023-11-17,1,,,,,アオゾラチョウ,0
788,3140005026800,新規,0,2023-11-17,2023-11-17,一般社団法人兵庫県狩猟研修協会,,その他の設立登記法人,兵庫県,宍粟市,山崎町鹿沢７２番地８,,28,227,6712576,,,,,,,2023-11-17,1,,,,,ヒョウゴケンシュリョウケンシュウキョウカイ,0
792,3180001158949,新規,0,2023-11-17,2023-11-17,株式会社ＫＯＭＵＧＩ,,株式会社,愛知県,名古屋市中村区,城屋敷町１丁目４０番地３,,23,105,4530058,,,,,,,2023-11-17,1,,,,,コムギ,0
793,3180001158973,新規,0,2023-11-17,2023-11-17,株式会社Ｔｅａｍ　ＮＩＮＥ,,株式会社,愛知県,名古屋市東区,徳川町２４２５番地,,23,102,4610023,,,,,,,2023-11-17,1,,,,,チームナイン,0
795,3180003025998,新規,0,2023-11-17,2023-11-17,合同会社ひかり道路,,合同会社,愛知県,北名古屋市,鹿田東蒲屋敷５７７番地１コーポ東蒲４０１号,,23,234,4810004,,,,,,,2023-11-17,1,,,,,ヒカリドウロ,0
796,3180005020428,新規,0,2023-11-17,2023-11-17,一般社団法人ＩＧＯ　ＧｅｅＫ,,その他の設立登記法人,愛知県,名古屋市天白区,原２丁目３０１番地,,23,116,4680015,,,,,,,2023-11-17,1,,,,,イゴギーク,0
798,3180301038041,新規,0,2023-11-17,2023-11-17,株式会社Ｎｉｊｉ‐Ｉｒｏ,,株式会社,愛知県,岡崎市,末広町３番地６,,23,202,4440914,,,,,,,2023-11-17,1,,,,,ニジイロ,0
805,3230001020112,新規,0,2023-11-17,2023-11-17,株式会社ＦＵＣＨＵ　ＳＨＯＪＩ,,株式会社,富山県,富山市,婦中町西本郷４２２番地１,,16,201,9392701,,,,,,,2023-11-17,1,,,,,フチュウショウジ,0
814,3290001103761,新規,0,2023-11-17,2023-11-17,株式会社ＢｅｓｔＶａｌｕｅ,,株式会社,福岡県,筑紫野市,大字筑紫７５３番地１９,,40,217,8180025,,,,,,,2023-11-17,1,,,,,ベストバリュー,0
815,3290001103778,新規,0,2023-11-17,2023-11-17,拾伍庫産業株式会社,,株式会社,福岡県,福岡市東区,若宮３丁目２－３１－２０２,,40,131,8130036,,,,,,,2023-11-17,1,,,,,ジュウゴコサンギョウ,0
820,3290003014619,新規,0,2023-11-17,2023-11-17,合同会社ＭＡＶＥＲＩＣＫ,,合同会社,福岡県,三井郡大刀洗町,大字高樋２４８５番地２６,00132695,40,503,8301221,,,,,,,2023-11-17,1,,,,,マーベリック,0
828,3330001031479,新規,0,2023-11-17,2023-11-17,ＢＡＳＥ株式会社,,株式会社,熊本県,八代市,鏡町内田１５１５番地,,43,202,8694202,,,,,,,2023-11-17,1,,,,,ベース,0
837,3380001034139,新規,0,2023-11-17,2023-11-17,白鳥ＥＮＶ株式会社,,株式会社,福島県,いわき市,泉滝尻２丁目２０番地の１６,,07,204,9718189,,,,,,,2023-11-17,1,,,,,シラトリイーエヌブイ,0
842,3400005008367,新規,0,2023-11-17,2023-11-17,一般社団法人いわてグローバル人材育成プロジェクト,,その他の設立登記法人,岩手県,盛岡市,菜園１丁目２番１１号,,03,201,0200024,,,,,,,2023-11-17,1,,,,,イワテグローバルジンザイイクセイプロジェクト,0
844,3420003002832,新規,0,2023-11-17,2023-11-17,合同会社ＴＣ,,合同会社,青森県,上北郡七戸町,字七戸２５２番地,,02,402,0392525,,,,,,,2023-11-17,1,,,,,ティーシー,0
851,3430001090432,新規,0,2023-11-17,2023-11-17,株式会社Ｎｏｐｒｅｓｓｕｒｅ,,株式会社,北海道,札幌市白石区,東札幌五条３丁目２番３５－３１５号,,01,104,0030005,,,,,,,2023-11-17,1,,,,,ノープレッシャー,0
852,3430001090440,新規,0,2023-11-17,2023-11-17,株式会社幌向農産,,株式会社,北海道,岩見沢市,御茶の水町１７６番地７,,01,210,0690384,,,,,,,2023-11-17,1,,,,,ホロムイノウサン,0
853,3430001090457,新規,0,2023-11-17,2023-11-17,株式会社ブライターフューチャー,,株式会社,北海道,日高郡新ひだか町,静内中野町４丁目２番地,,01,610,0560006,,,,,,,2023-11-17,1,,,,,ブライターフューチャー,0
855,3430003015627,新規,0,2023-11-17,2023-11-17,合同会社アンドノワール,,合同会社,北海道,札幌市豊平区,美園四条７丁目１番地７号,,01,105,0620004,,,,,,,2023-11-17,1,,,,,アンドノワール,0
856,3430003015643,新規,0,2023-11-17,2023-11-17,合同会社カスタマーサービス,,合同会社,北海道,札幌市東区,北二十三条東１５丁目２番１７－３０３号,,01,103,0650023,,,,,,,2023-11-17,1,,,,,カスタマーサービス,0
857,3430003015651,新規,0,2023-11-17,2023-11-17,合同会社ＳＵＮＮＹ　ＳＩＤＥ,,合同会社,北海道,札幌市西区,宮の沢二条３丁目１５－１３宮の沢ガーデンハウスＣ,,01,107,0630052,,,,,,,2023-11-17,1,,,,,サニーサイド,0
858,3430005014833,新規,0,2023-11-17,2023-11-17,特定非営利活動法人子どもアドボカシーセンター札幌,,その他の設立登記法人,北海道,札幌市北区,北八条西３丁目札幌エルプラザ２階札幌市市民活動サポートセンター内事務ブースＮｏ．１,,01,102,0600808,,,,,,,2023-11-17,1,,,,,コドモアドボカシーセンターサッポロ,0
859,3440001009349,新規,0,2023-11-17,2023-11-17,株式会社ゼスト,,株式会社,北海道,函館市,白鳥町８番１７号,,01,202,0400082,,,,,,,2023-11-17,1,,,,,ゼスト,0
863,3490001010640,新規,0,2023-11-17,2023-11-17,ｓｈｉｎ株式会社,,株式会社,高知県,須崎市,大間本町１８番１４号,,39,206,7850034,,,,,,,2023-11-17,1,,,,,シン,0
864,3500003003137,新規,0,2023-11-17,2023-11-17,合同会社ベアアセット,,合同会社,愛媛県,松山市,山越３丁目１９番３号,,38,201,7918013,,,,,,,2023-11-17,1,,,,,ベアアセット,0
866,3500005008654,新規,0,2023-11-17,2023-11-17,医療法人ゆりかごファミリークリニック,,その他の設立登記法人,愛媛県,新居浜市,東田１丁目甲１２３９番地２,,38,205,7920852,,,,,,,2023-11-17,1,,,,,ユリカゴファミリークリニック,0
867,3700150122140,新規,0,2023-11-17,2023-11-17,Ｄｏｎｇｇｕａｎ　Ｓｈａｎｇｅｎ　Ｅｌｅｃｔｒｏｎｉｃｓ　Ｃｏ．，Ｌｔｄ,,外国会社等,,,,,,,,Ｎｏ．９０７－９０８，Ｆｌｏｏｒ　９，Ｔｅｌｅｃｏｍ　Ｂｕｉｌｄｉｎｇ，Ｎｏ．１２６，Ｈｕａｎｇｊｉａｎｇ　Ａｖｅｎｕｅ，Ｈｕａｎｇｊｉａｎｇ　Ｔｏｗｎ，Ｄｏｎｇｇｕａｎ　Ｃｉｔｙ,,,,,,2023-11-17,1,,,,,ドングワンシーシヤンエンデイエンズーヨウシエンゴンスー,0
868,3700150122149,新規,0,2023-11-17,2023-11-17,Ｓｈｅｎｚｈｅｎ　Ｑｉａｎｙａｎｇ　Ｅｌｅｃｔｒｏｎｉｃ　Ｃｏｍｍｅｒｃｅ　Ｃｏ．，Ｌｔｄ．,,外国会社等,,,,,,,,Ｒｏｏｍ　２１３，Ｎｏ．２，Ｊｉｎｆｕｙｕａｎ，Ｄａｓｈｕｉｋｅｎｇ　Ｃｏｍｍｕｎｉｔｙ，Ｆｕｃｈｅｎｇ　Ｓｔｒｅｅｔ，Ｌｏｎｇｈｕａ　Ｄｉｓｔｒｉｃｔ，Ｓｈｅｎｚｈｅｎ,,,,,,2023-11-17,1,,,,,シンセンセンヨウイーコマースカンパニリミテツド,0
869,3700150122157,新規,0,2023-11-17,2023-11-17,Ｓｈｅｎｚｈｅｎ　Ｗｏｙｅｂｅｎｄａ　Ｔｒａｄｉｎｇ　Ｃｏ．，Ｌｔｄ,,外国会社等,,,,,,,,６０５Ｃ，６Ｆ，Ｃａｉｈｕａｎｇ　Ｆａｃｔｏｒｙ　Ｏｆｆｉｃｅ　Ｂｕｉｌｄｉｎｇ　Ｅａｓｔ　ｏｆ　Ｑｉｎｇｈｕ　Ｍｅｉｇｕａｎ　Ｅｘｐｒｅｓｓｗａｙ，Ｑｉｎｇｈｕ　Ｃｏｍｍｕｎｉｔｙ，Ｌｏｎｇｈｕａ　Ｓｈｅｎｚｈｅｎ　Ｇｕａｎｇｄｏｎｇ　５１８１０９　ＣＮ,,,,,,2023-11-17,1,,,,,シエンジエンシーウオイエベンダーマオイーヨウシエンゴンスー,0
870,3700150122165,新規,0,2023-11-17,2023-11-17,ｙｉｗｕｄｅｌｅｉｄｉａｎｚｉｓｈａｎｇｗｕｙｏｕｘｉａｎｇｏｎｇｓｉ,,外国会社等,,,,,,,,Ｂｕｉｌｄｉｎｇ　３，Ｚｈｏｎｇｆｕ　Ｂｕｉｌｄｉｎｇ，Ｆｕｔｉａｎ　Ｓｔｒｅｅｔ，Ｙｉｗｕ　Ｃｉｔｙ，Ｃｈｉｎａ,,,,,,2023-11-17,1,,,,,イーウーデライイーコマースカンパニリミテツド,0
871,3700150122173,新規,0,2023-11-17,2023-11-17,Ａｔｉｑ　Ａｕｔｏｓ,,外国会社等,栃木県,栃木市,岩舟町新里１３０４番地４１号室,,09,203,3294316,パキスタン・イスラム共和国、ジャミアマスジッド市民地区ペシャワール、ショップＮｏ３,,,,,,2023-11-17,1,,,,,アテイクアウトス,0
886,4010001240193,新規,0,2023-11-17,2023-11-17,株式会社中口屋,,株式会社,東京都,千代田区,富士見１丁目７－５富士見ヒルズ,,13,101,1020071,,,,,,,2023-11-17,1,,,,,ナカグチヤ,0
887,4010001240210,新規,0,2023-11-17,2023-11-17,ＧＴＳＯＬＵＴＩＯＮＳ株式会社,,株式会社,東京都,千代田区,内神田１丁目１８－１１東京ロイヤルプラザ５０６室,,13,101,1010047,,,,,,,2023-11-17,1,,,,,ジーティーソリューションズ,0
899,4010005037529,新規,0,2023-11-17,2023-11-17,ソーラーサティホールディングス一般社団法人,,その他の設立登記法人,東京都,中央区,八丁堀４丁目２番１０号ＡＯＪ税理士法人内,,13,102,1040032,,,,,,,2023-11-17,1,,,,,ソーラーサティホールディングス,0
904,4010401178562,新規,0,2023-11-17,2023-11-17,ひいらぎホールディングス株式会社,,株式会社,東京都,港区,東新橋１丁目９番２号汐留住友ビル１６階,,13,103,1050021,,,,,,,2023-11-17,1,,,,,ヒイラギホールディングス,0
906,4010403031397,新規,0,2023-11-17,2023-11-17,アコー・ラグジュアリー・ジャパン合同会社,,合同会社,東京都,港区,虎ノ門１丁目３番１号東京虎ノ門グローバルスクエア１３階,,13,103,1050001,,,,,,,2023-11-17,1,,,,,アコーラグジュアリージャパン,0
909,4010501051388,新規,0,2023-11-17,2023-11-17,株式会社ＥａｓｔＣｏａｓｔ,,株式会社,東京都,台東区,竜泉２丁目６－１７－２０１号,,13,106,1100012,,,,,,,2023-11-17,1,,,,,イーストコースト,0
912,4010801034522,新規,0,2023-11-17,2023-11-17,ＳＥＬＥＣＴ　ＶＡＬＵＥ株式会社,,株式会社,東京都,大田区,西蒲田７丁目４番４号小山第２ビル６Ｆ,,13,111,1440051,,,,,,,2023-11-17,1,,,,,セレクトバリュー,0
916,4010901054214,新規,0,2023-11-17,2023-11-17,ＰＯＳＨ株式会社,,株式会社,東京都,世田谷区,用賀１丁目１１－１８－２０２,,13,112,1580097,,,,,,,2023-11-17,1,,,,,ポシュ,0
917,4010903008597,新規,0,2023-11-17,2023-11-17,合同会社ＰＯＰＴＯＰＩＡ,,合同会社,東京都,世田谷区,南烏山２丁目６番１号,,13,112,1570062,,,,,,,2023-11-17,1,,,,,ポップトピア,0
927,4011001158277,新規,0,2023-11-17,2023-11-17,株式会社ＷＵＧ,,株式会社,東京都,渋谷区,円山町５番５号Ｎａｖｉ渋谷Ｖ３階,,13,113,1500044,,,,,,,2023-11-17,1,,,,,ワグ,0
928,4011001158302,新規,0,2023-11-17,2023-11-17,株式会社東京寿園,,株式会社,東京都,渋谷区,宇田川町２番１－９０９号,,13,113,1500042,,,,,,,2023-11-17,1,,,,,トウキョウコトブキエン,0
929,4011001158343,新規,0,2023-11-17,2023-11-17,株式会社令和恒産,,株式会社,東京都,目黒区,上目黒４丁目２５番３号,,13,110,1530051,,,,,,,2023-11-17,1,,,,,レイワコウサン,0
930,4011003017951,新規,0,2023-11-17,2023-11-17,ＡＢＣ合同会社,,合同会社,東京都,目黒区,下目黒１丁目１番１４号コノトラビル７Ｆ,,13,110,1530064,,,,,,,2023-11-17,1,,,,,エービーシー,0
934,4011101105146,新規,0,2023-11-17,2023-11-17,株式会社Ｓｏｃｉａｌｉｏ,,株式会社,東京都,新宿区,西新宿４丁目９番１号,,13,104,1600023,,,,,,,2023-11-17,1,,,,,ソーシャリオ,0
937,4011103013743,新規,0,2023-11-17,2023-11-17,本田商事合同会社,,合同会社,東京都,新宿区,西新宿６丁目５番１号アイランドタワー２階,,13,104,1600023,,,,,,,2023-11-17,1,,,,,ホンダショウジ,0
941,4011301029129,新規,0,2023-11-17,2023-11-17,株式会社カズバーム,,株式会社,東京都,杉並区,西荻北１丁目６番２号,,13,115,1670042,,,,,,,2023-11-17,1,,,,,カズバーム,0
944,4011401025614,新規,0,2023-11-17,2023-11-17,株式会社ブランカッセ,,株式会社,東京都,板橋区,東山町４１番６号,,13,119,1740073,,,,,,,2023-11-17,1,,,,,ブランカッセ,0
950,4011701026774,新規,0,2023-11-17,2023-11-17,トップみらい株式会社,,株式会社,東京都,江戸川区,平井３丁目２３番１９号,,13,123,1320035,,,,,,,2023-11-17,1,,,,,トップミライ,0
953,4011801043364,新規,0,2023-11-17,2023-11-17,株式会社ＲＩＮ企画,,株式会社,東京都,足立区,梅田１丁目５番１４号２Ｆ,,13,121,1230851,,,,,,,2023-11-17,1,,,,,リンキカク,0
972,4020001154517,新規,0,2023-11-17,2023-11-17,株式会社スフィーダ,,株式会社,神奈川県,川崎市川崎区,小川町４番地１,,14,131,2100023,,,,,,,2023-11-17,1,,,,,スフィーダ,0
976,4020003024981,新規,0,2023-11-17,2023-11-17,合同会社といっしょ,,合同会社,神奈川県,川崎市麻生区,細山１丁目１番６－２０１号,,14,137,2150001,,,,,,,2023-11-17,1,,,,,トイッショ,0
978,4020005016176,新規,0,2023-11-17,2023-11-17,一般財団法人空き家活用促進サポートセンター,,その他の設立登記法人,神奈川県,横浜市港南区,上大岡西３丁目１９番１６,,14,111,2330002,,,,,,,2023-11-17,1,,,,,アキヤカツヨウソクシンサポートセンター,0
979,4020005016184,新規,0,2023-11-17,2023-11-17,一般社団法人いきいきライフ協会川崎南,,その他の設立登記法人,神奈川県,川崎市川崎区,中島２丁目１３番地４号テルス川崎中島レジデンス１階,,14,131,2100806,,,,,,,2023-11-17,1,,,,,イキイキライフキョウカイカワサキミナミ,0
982,4021001080760,新規,0,2023-11-17,2023-11-17,Ｔ’ｚプラントサービス株式会社,,株式会社,神奈川県,横須賀市,西浦賀４丁目２番６号,,14,201,2390824,,,,,,,2023-11-17,1,,,,,テーズプラントサービス,0
991,4030001157188,新規,0,2023-11-17,2023-11-17,株式会社フラクタルケア,,株式会社,埼玉県,さいたま市大宮区,東町２丁目５６番地Ｂ棟,,11,103,3300841,,,,,,,2023-11-17,1,,,,,フラクタルケア,0
1002,4040001130912,新規,0,2023-11-17,2023-11-17,株式会社ＣＫインテリア,,株式会社,千葉県,松戸市,横須賀２丁目１８－７キャビンイトウ１０２号室,,12,207,2700031,,,,,,,2023-11-17,1,,,,,シーケーインテリア,0
1003,4040001130961,新規,0,2023-11-17,2023-11-17,株式会社Ｃ’ｓＣＲＥＡＴＩＶＥ,,株式会社,千葉県,我孫子市,若松１１９－４,,12,222,2701147,,,,,,,2023-11-17,1,,,,,シーズクリエイティブ,0
1004,4040001130994,新規,0,2023-11-17,2023-11-17,株式会社ヘイシンファーム,,株式会社,千葉県,習志野市,大久保４丁目１２番２２号,,12,216,2750011,,,,,,,2023-11-17,1,,,,,ヘイシンファーム,0
1008,4040003023742,新規,0,2023-11-17,2023-11-17,合同会社Ｒｅａｌｉｚｅ　ＢＯＤＹ,,合同会社,千葉県,千葉市中央区,鶴沢町２０番２３号２階,,12,101,2600003,,,,,,,2023-11-17,1,,,,,リアライズボディ,0
1015,4050001053823,新規,0,2023-11-17,2023-11-17,ＴＳＥ株式会社,,株式会社,茨城県,猿島郡境町,大字百戸１５８２番地２,,08,546,3060423,,,,,,,2023-11-17,1,,,,,ティーエスイー,0
1018,4060001036554,新規,0,2023-11-17,2023-11-17,ＧＵＪＡＲＡＴ　ＴＲＡＤＩＮＧ株式会社,,株式会社,栃木県,小山市,大字神鳥谷９３４番地７エメラルドガーデン小山２０７号室,,09,208,3230827,,,,,,,2023-11-17,1,,,,,グジャラートトレーディング,0
1019,4060001036562,新規,0,2023-11-17,2023-11-17,ＡＲ　Ｔｅｒｒａｃｅ株式会社,,株式会社,栃木県,那須烏山市,金井１丁目５番９号,,09,215,3210628,,,,,,,2023-11-17,1,,,,,エーアールテラス,0
1022,4070001041074,新規,0,2023-11-17,2023-11-17,みね工業所株式会社,,株式会社,群馬県,前橋市,力丸町４０８番地,,10,201,3792134,,,,,,,2023-11-17,1,,,,,ミネコウギョウショ,0
1023,4070003005168,新規,0,2023-11-17,2023-11-17,グランアレス合同会社,,合同会社,群馬県,沼田市,白沢町上古語父１００番地１ハッピーヴィレッヂ白沢２０３号,,10,206,3780126,,,,,,,2023-11-17,1,,,,,,0
1025,4080103002923,新規,0,2023-11-17,2023-11-17,Ａｌｍａｎ合同会社,,合同会社,静岡県,熱海市,上多賀１０６５－３１０,,22,205,4130101,,,,,,,2023-11-17,1,,,,,アルマン,0
1030,4110001037976,新規,0,2023-11-17,2023-11-17,株式会社プラスアルファ,,株式会社,新潟県,佐渡市,市野沢２５番地,,15,224,9521302,,,,,,,2023-11-17,1,,,,,プラスアルファ,0
1045,4120001259719,新規,0,2023-11-17,2023-11-17,株式会社Ｃｈａｎｇｅ　ｎｏｗ,,株式会社,大阪府,大阪市西区,江戸堀２丁目１－１江戸堀センタービル９階,,27,106,5500002,,,,,,,2023-11-17,1,,,,,チェンジナウ,0
1046,4120001259826,新規,0,2023-11-17,2023-11-17,株式会社ｓｕｎｆｌｏｗｅｒ,,株式会社,大阪府,大阪市東成区,大今里南１丁目１７番２２－２０７号,,27,115,5370013,,,,,,,2023-11-17,1,,,,,サンフラワー,0
1047,4120001259842,新規,0,2023-11-17,2023-11-17,株式会社Ｍａｃａｎ,,株式会社,大阪府,大阪市東住吉区,田辺５丁目１２番９号,,27,121,5460031,,,,,,,2023-11-17,1,,,,,マカン,0
1048,4120001259900,新規,0,2023-11-17,2023-11-17,株式会社ＡＮＮＡＮ　ＴＲＵＳＳ,,株式会社,大阪府,大阪市浪速区,敷津西１丁目３番２３－３０１号,,27,111,5560015,,,,,,,2023-11-17,1,,,,,アナントラス,0
1051,4120003025367,新規,0,2023-11-17,2023-11-17,ＧＵＲＵＮＧ合同会社,,合同会社,大阪府,大阪市東成区,大今里南６丁目２７番９号,,27,115,5370013,,,,,,,2023-11-17,1,,,,,グルン,0
1052,4120005023996,新規,0,2023-11-17,2023-11-17,一般社団法人Ｌ．Ｖ．Ｒ,,その他の設立登記法人,大阪府,大阪市中央区,心斎橋筋１丁目５番３０号３階南Ｂ号室,,27,128,5420085,,,,,,,2023-11-17,1,,,,,エルヴイアール,0
1062,4122001037583,新規,0,2023-11-17,2023-11-17,株式会社ＲＥＧＯＬＩＴＨ,,株式会社,大阪府,東大阪市,西堤西３番６－３０４号,,27,227,5770048,,,,,,,2023-11-17,1,,,,,レゴリス,0
1064,4122003002734,新規,0,2023-11-17,2023-11-17,合同会社グッドフーズカンパニー,,合同会社,大阪府,東大阪市,旭町１５－２５,,27,227,5798048,,,,,,,2023-11-17,1,,,,,グッドフーズカンパニー,0
1067,4130001075644,新規,0,2023-11-17,2023-11-17,株式会社Ｍａｇａｎｄａ　Ｃｌｅａｎ,,株式会社,京都府,京都市南区,久世大藪町２１６番地４０,,26,107,6010000,,,,,,,2023-11-17,1,,,,,マガンダクリーン,0
1068,4130001075727,新規,0,2023-11-17,2023-11-17,株式会社ＳＮＣ,,株式会社,京都府,京都市右京区,西京極末広町６番地ルミエール西京極２２２号,,26,108,6150845,,,,,,,2023-11-17,1,,,,,エスエヌシー,0
1069,4130001075751,新規,0,2023-11-17,2023-11-17,ボン・ジャポン株式会社,,株式会社,京都府,木津川市,州見台８丁目５番地１１,,26,214,6190216,,,,,,,2023-11-17,1,,,,,ボンジャポン,0
1077,4140001132378,新規,0,2023-11-17,2023-11-17,株式会社光蓮,,株式会社,兵庫県,尼崎市,西難波町５丁目１４番１０号,,28,202,6600893,,,,,,,2023-11-17,1,,,,,コウレン,0
1078,4140001132403,新規,0,2023-11-17,2023-11-17,株式会社ＳＫＲ,,株式会社,兵庫県,神崎郡福崎町,福田３４７番地１０つるやビル２号館１０１号,,28,443,6792212,,,,,,,2023-11-17,1,,,,,,0
1090,4180001158964,新規,0,2023-11-17,2023-11-17,株式会社かね丈,,株式会社,愛知県,名古屋市南区,西桜町５７番地の１,,23,112,4570039,,,,,,,2023-11-17,1,,,,,カネジョウ,0
1091,4180001159005,新規,0,2023-11-17,2023-11-17,康臨丸株式会社,,株式会社,愛知県,知多郡東浦町,大字森岡字中町５２番地の１３,,23,442,4702101,,,,,,,2023-11-17,1,,,,,コウリンマル,0
1094,4180005020427,新規,0,2023-11-17,2023-11-17,一般社団法人ＭＩＲＡＩサポートぽると,,その他の設立登記法人,愛知県,名古屋市名東区,本郷３丁目５番地グロゥバルビル５Ｂ,,23,115,4650024,,,,,,,2023-11-17,1,,,,,ミライサポートポルト,0
1095,4180301038040,新規,0,2023-11-17,2023-11-17,株式会社ｈｏｕｓａｎ,,株式会社,愛知県,豊田市,上原町西山６６１番地,,23,211,4700341,,,,,,,2023-11-17,1,,,,,ホウサン,0
1098,4190005011887,新規,0,2023-11-17,2023-11-17,一般社団法人ＬｏｃａｌＣｏｏｐ尾鷲,,その他の設立登記法人,三重県,尾鷲市,朝日町１４番２号,,24,209,5193611,,,,,,,2023-11-17,1,,,,,ローカルコープオワセ,0
1103,4200005013543,新規,0,2023-11-17,2023-11-17,農事組合法人三国の郷,,その他の設立登記法人,岐阜県,土岐市,鶴里町柿野９７０番地の１,,21,212,5095312,,,,,,,2023-11-17,1,,,,,ミクニノサト,0
1106,4210003001722,新規,0,2023-11-17,2023-11-17,合同会社木の音,,合同会社,福井県,福井市,曽万布町第１０号２７番地１,,18,201,9188234,,,,,,,2023-11-17,1,,,,,キノオト,0
1110,4230001020111,新規,0,2023-11-17,2023-11-17,株式会社日徳,,株式会社,富山県,砺波市,苗加３７０番地１,,16,208,9391333,,,,,,,2023-11-17,1,,,,,イルトク,0
1117,4260001038497,新規,0,2023-11-17,2023-11-17,嘉和産業株式会社,,株式会社,岡山県,岡山市東区,東平島１３７１番地２,,33,103,7090631,,,,,,,2023-11-17,1,,,,,カワサンギョウ,0
1146,4370003006383,新規,0,2023-11-17,2023-11-17,合同会社金子,,合同会社,宮城県,黒川郡大和町,吉岡字北原西３３番地の２,,04,421,9813621,,,,,,,2023-11-17,1,,,,,カネコ,0
1166,4430001090423,新規,0,2023-11-17,2023-11-17,株式会社白井設備,,株式会社,北海道,札幌市東区,北三十八条東１２丁目１番２０号,,01,103,0070838,,,,,,,2023-11-17,1,,,,,シライセツビ,0
1167,4430001090464,新規,0,2023-11-17,2023-11-17,株式会社ＡＰＥＸメディカル,,株式会社,北海道,札幌市西区,山の手一条２丁目４番６号,,01,107,0630001,,,,,,,2023-11-17,1,,,,,エイペックスメディカル,0
1180,4700150122148,新規,0,2023-11-17,2023-11-17,Ｘｉｎｙｕ　Ｓｅｍｕ　Ｅｌｅｃｔｒｏｎｉｃ　Ｃｏｍｍｅｒｃｅ　Ｃｏ．，Ｌｔｄ．,,外国会社等,,,,,,,,Ｒｏｏｍ　１０１，Ｕｎｉｔ　１，Ｂｕｉｌｄｉｎｇ　Ｅ，Ｓｏｕｔｈ　ｏｆ　Ｑｉａｎｓｈａｎ　Ｗｅｓｔ　Ｒｏａｄ（Ｑｉａｎｙａｎｇ　Ｈｕａｆｕ），Ｆｅｎｙｉ　Ｃｏｕｎｔｙ，Ｘｉｎｙｕ，Ｊｉａｎｇｘｉ,,,,,,2023-11-17,1,,,,,シンヨセムイーコマースカンパニリミテツド,0
1181,4700150122156,新規,0,2023-11-17,2023-11-17,Ｙｉｗｕｓｈｉ　Ｌｅ　Ｃｈｅｎ　Ｔｒａｄｉｎｇ　Ｃｏ．，Ｌｔｄ,,外国会社等,,,,,,,,Ｎｏ．１４６　Ｊｉａｎｇｄｏｎｇ　Ｓｏｕｔｈ　Ｒｏａｄ，Ｊｉａｎｇｄｏｎｇ　Ｓｔｒｅｅｔ,,,,,,2023-11-17,1,,,,,イーウーシーラーチエンマオイーヨウシエンゴンスー,0
1182,4700150122164,新規,0,2023-11-17,2023-11-17,Ｓｈｅｎｚｈｅｎ　Ｙｉｄｉｎｇｒｉｎ　ｅｌｅｃｔｒｏｎｉｃｓ　ｃｏ．，ｌｔｄ,,外国会社等,,,,,,,,Ｆｕｔｉａｎｑｕ　ＨｕａｑｉａｎｇｂｅｉｊｉｅｄａｏＬｉｃｕｎｓｈｅｑｕｚｈｅｎｘｉｎｇｌｕ１２０ｈａｏ　Ｓａｉｇｅｋｅｊｉｙｕａｎ２ｄｏｎｇｄｏｎｇ４ｃｅｎｇＡ４０５　Ｓｈｅｎｚｈｅｎ　Ｇｕａｎｇｄｏｎｇ　５１８０００　ＣＮ,,,,,,2023-11-17,1,,,,,シエンジエンシーイーデインルイデイエンズーヨウシエンゴンスー,0
1183,4700150122172,新規,0,2023-11-17,2023-11-17,ＧｕａｎｇＺｈｏｕＳｈｉ　ＸｉｎＭｉｎｇ　ＤｉａｎＺｉＫｅｊｉ　Ｃｏ．，Ｌｔｄ,,外国会社等,,,,,,,,Ｇｕａｎｇｚｈｏｕｓｈｉｎａｎｓｈａｑｕｊｉｎｔａｏｘｉｊｉｅ９０ｈａｏ４１１ｆａｎｇ,,,,,,2023-11-17,1,,,,,グワンジヨウシーシンミンデイエンズーコージーヨウシエンゴンスー,0
1187,5010001239978,新規,0,2023-11-17,2023-11-17,株式会社ＹＯＲＵ,,株式会社,東京都,中央区,日本橋室町１丁目１１番１２号日本橋水野ビル７階,,13,102,1030022,,,,,,,2023-11-17,1,,,,,ヨル,0
1188,5010001239986,新規,0,2023-11-17,2023-11-17,株式会社ＨＯＰＥＥ　ＪＡＰＡＮ,,株式会社,東京都,中央区,日本橋２丁目１番３号アーバンネット日本橋二丁目ビル１０階,,13,102,1030027,,,,,,,2023-11-17,1,,,,,ホーピージャパン,0
1189,5010001240060,新規,0,2023-11-17,2023-11-17,株式会社アウトバーン,,株式会社,東京都,中央区,銀座１丁目２２番１１号銀座大竹ビジデンス２Ｆ,,13,102,1040061,,,,,,,2023-11-17,1,,,,,アウトバーン,0
1190,5010001240127,新規,0,2023-11-17,2023-11-17,栗田アセットマネジメント株式会社,,株式会社,東京都,千代田区,神田神保町１丁目３９番地,,13,101,1010051,,,,,,,2023-11-17,1,,,,,クリタアセットマネジメント,0
1191,5010001240143,新規,0,2023-11-17,2023-11-17,株式会社インウェブアウト,,株式会社,東京都,中央区,銀座１丁目１２番４号Ｎ＆ＥＢＬＤ．６Ｆ,,13,102,1040061,,,,,,,2023-11-17,1,,,,,インウェブアウト,0
1192,5010001240176,新規,0,2023-11-17,2023-11-17,株式会社ＴＳＵＤＡＫＥＩ,,株式会社,東京都,千代田区,丸の内１丁目１１番１号パシフィックセンチュリープレイス丸の内８Ｆ,,13,101,1000005,,,,,,,2023-11-17,1,,,,,ツダケイ,0
1195,5010003042224,新規,0,2023-11-17,2023-11-17,ＭＡＢＥ　ＧＰＣＳ合同会社,,合同会社,東京都,中央区,日本橋兜町９番１号,,13,102,1030026,,,,,,,2023-11-17,1,,,,,メイブジーピーシーエス,0
1196,5010003042232,新規,0,2023-11-17,2023-11-17,ソーラーサティ合同会社,,合同会社,東京都,中央区,八丁堀４丁目２番１０号ＡＯＪ税理士法人内,,13,102,1040032,,,,,,,2023-11-17,1,,,,,ソーラーサティ,0
1209,5010401178561,新規,0,2023-11-17,2023-11-17,株式会社ハリー＆カンパニー,,株式会社,東京都,港区,東新橋１丁目９番２号汐留住友ビル１６階,,13,103,1050021,,,,,,,2023-11-17,1,,,,,ハリーアンドカンパニー,0
1212,5010403031405,新規,0,2023-11-17,2023-11-17,ＳＫＭ合同会社,,合同会社,東京都,港区,芝１丁目２番１号－２００９号室,,13,103,1050014,,,,,,,2023-11-17,1,,,,,,0
1216,5010601064157,新規,0,2023-11-17,2023-11-17,株式会社Ｎｏｂｌｅ‐Ｓｕｃｃｅｅｄ,,株式会社,東京都,江東区,東雲１丁目９番４２－１７０６号,,13,108,1350062,,,,,,,2023-11-17,1,,,,,ノーブルサクシード,0
1217,5010601064173,新規,0,2023-11-17,2023-11-17,スズナリ株式会社,,株式会社,東京都,墨田区,両国２丁目７番１１号,,13,107,1300026,,,,,,,2023-11-17,1,,,,,スズナリ,0
1225,5010801034521,新規,0,2023-11-17,2023-11-17,株式会社エムディーシーグループ,,株式会社,東京都,大田区,大森北１丁目１７番１３号１０Ｆ,,13,111,1430016,,,,,,,2023-11-17,1,,,,,エムディーシーグループ,0
1226,5010803004753,新規,0,2023-11-17,2023-11-17,合同会社佑,,合同会社,東京都,大田区,上池台１丁目１番６号,,13,111,1450064,,,,,,,2023-11-17,1,,,,,ユウ,0
1234,5011001158128,新規,0,2023-11-17,2023-11-17,株式会社ふんわり,,株式会社,東京都,渋谷区,道玄坂１丁目１０番８号渋谷道玄坂東急ビル２Ｆ－Ｃ,,13,113,1500043,,,,,,,2023-11-17,1,,,,,フンワリ,0
1246,5011101105161,新規,0,2023-11-17,2023-11-17,株式会社ルース,,株式会社,東京都,新宿区,新宿５丁目１０番４号,,13,104,1600022,,,,,,,2023-11-17,1,,,,,ルース,0
1249,5011203004229,新規,0,2023-11-17,2023-11-17,ｎｉｃｏｒｉ合同会社,,合同会社,東京都,中野区,若宮１丁目５２番１３号,,13,114,1650033,,,,,,,2023-11-17,1,,,,,ニコリ,0
1250,5011601027285,新規,0,2023-11-17,2023-11-17,株式会社Ｌａ　Ｒｉｓｏｒｓａ,,株式会社,東京都,練馬区,田柄２丁目４９番１－２０４号,,13,120,1790073,,,,,,,2023-11-17,1,,,,,ラリソルサ,0
1251,5011601027293,新規,0,2023-11-17,2023-11-17,Ｓｔａｒ株式会社,,株式会社,東京都,練馬区,北町５丁目５番７－１０２号,,13,120,1790081,,,,,,,2023-11-17,1,,,,,スター,0
1255,5011701026765,新規,0,2023-11-17,2023-11-17,株式会社一徳設備,,株式会社,東京都,江戸川区,宇喜田町１３７５番地２,,13,123,1340082,,,,,,,2023-11-17,1,,,,,イチトクセツビ,0
1258,5011801043363,新規,0,2023-11-17,2023-11-17,株式会社ＮＯＡＨインターナショナル,,株式会社,東京都,足立区,新田３丁目３７番１１号,,13,121,1230865,,,,,,,2023-11-17,1,,,,,ノアインターナショナル,0
1259,5012401041229,新規,0,2023-11-17,2023-11-17,株式会社Ｂ級グルメ研究所ホールディングス,,株式会社,東京都,武蔵野市,吉祥寺本町２丁目５番１０号いちご吉祥寺ビル７階,,13,203,1800004,,,,,,,2023-11-17,1,,,,,ビーキュウグルメケンキュウジョホールディングス,0
1260,5012401041237,新規,0,2023-11-17,2023-11-17,株式会社ｂｅｌｌ,,株式会社,東京都,調布市,西つつじケ丘３丁目３２番地２,,13,208,1820006,,,,,,,2023-11-17,1,,,,,ベル,0
1262,5012403006287,新規,0,2023-11-17,2023-11-17,合同会社Ｋ‐Ｈａｐｐｙ,,合同会社,東京都,三鷹市,北野３丁目９番７号,,13,204,1810003,,,,,,,2023-11-17,1,,,,,ケイハッピー,0
1273,5013301051631,新規,0,2023-11-17,2023-11-17,未来株式会社,,株式会社,東京都,豊島区,要町３丁目２０番３号,,13,116,1710043,,,,,,,2023-11-17,1,,,,,ミライ,0
1282,5021001080776,新規,0,2023-11-17,2023-11-17,株式会社ＯＷＮＭＡＰ,,株式会社,神奈川県,茅ヶ崎市,共恵２丁目５番５３号,,14,207,2530056,,,,,,,2023-11-17,1,,,,,オウンマップ,0
1286,5021003013809,新規,0,2023-11-17,2023-11-17,合同会社光新,,合同会社,神奈川県,三浦市,南下浦町上宮田５０６番地,,14,210,2380101,,,,,,,2023-11-17,1,,,,,コウシン,0
1288,5030001157229,新規,0,2023-11-17,2023-11-17,株式会社ワコークリエイト,,株式会社,埼玉県,川口市,上青木５丁目４番２７号,,11,203,3330844,,,,,,,2023-11-17,1,,,,,ワコークリエイト,0
1289,5030001157245,新規,0,2023-11-17,2023-11-17,ＭＩＬＡＣＫＳ株式会社,,株式会社,埼玉県,川口市,大字伊刈１０６５番地の２０,,11,203,3330865,,,,,,,2023-11-17,1,,,,,ミラックス,0
1297,5030003023008,新規,0,2023-11-17,2023-11-17,合同会社ｍｅｗ,,合同会社,埼玉県,富士見市,西みずほ台１丁目４番４号第２みずほ台マンション１０２,,11,235,3540018,,,,,,,2023-11-17,1,,,,,ミュウ,0
1302,5040001130977,新規,0,2023-11-17,2023-11-17,株式会社Ｒ＆Ｔ,,株式会社,千葉県,市原市,山木１２６５番地１８,,12,219,2900005,,,,,,,2023-11-17,1,,,,,アールアンドティー,0
1308,5040003023733,新規,0,2023-11-17,2023-11-17,合同会社ＲＯＳＡＲＩ　ＩＮＴＥＲＮＡＴＩＯＮＡＬ,,合同会社,千葉県,茂原市,高師２４番地１４,,12,210,2970029,,,,,,,2023-11-17,1,,,,,ロサリインターナショナル,0
1309,5040005022205,新規,0,2023-11-17,2023-11-17,医療法人社団秀幸会,,その他の設立登記法人,千葉県,千葉市中央区,祐光４丁目３番４号セナリオプラザ千葉高品２階,,12,101,2600007,,,,,,,2023-11-17,1,,,,,シュウコウカイ,0
1311,5050001053822,新規,0,2023-11-17,2023-11-17,プライムホーム株式会社,,株式会社,茨城県,牛久市,栄町６丁目３５番地４ミウラテナント１０１号,,08,219,3001233,,,,,,,2023-11-17,1,,,,,プライムホーム,0
1325,5080001025983,新規,0,2023-11-17,2023-11-17,ＳＦＧ不動産投資顧問株式会社,,株式会社,静岡県,静岡市清水区,草薙北２番１号,,22,103,4240883,,,,,,,2023-11-17,1,,,,,エスエフジーフドウサントウシコモン,0
1331,5080103002922,新規,0,2023-11-17,2023-11-17,合同会社Ｗｏｏｔ,,合同会社,静岡県,熱海市,銀座町８―３,,22,205,4130013,,,,,,,2023-11-17,1,,,,,ウート,0
1333,5100001036961,新規,0,2023-11-17,2023-11-17,株式会社トップフロア,,株式会社,長野県,飯田市,滝の沢５８１７番地８６,,20,205,3950048,,,,,,,2023-11-17,1,,,,,トップフロア,0
1334,5100001036978,新規,0,2023-11-17,2023-11-17,株式会社ＧＫＣホールディングス,,株式会社,長野県,飯田市,毛賀１３３１番地２,,20,205,3950813,,,,,,,2023-11-17,1,,,,,ジーケーシーホールディングス,0
1337,5110001037975,新規,0,2023-11-17,2023-11-17,株式会社ＥＴＥＲＮＡＬ,,株式会社,新潟県,新潟市西区,坂井東５丁目２０番２２号,,15,107,9502041,,,,,,,2023-11-17,1,,,,,エターナル,0
1345,5120001259825,新規,0,2023-11-17,2023-11-17,華宇控股株式会社,,株式会社,大阪府,大阪市中央区,南船場２丁目９－１ＴｈｅＰｅａｋＳｈｉｎｓａｉｂａｓｈｉ５０１室,,27,128,5420081,,,,,,,2023-11-17,1,,,,,カウホールディングス,0
1346,5120001259916,新規,0,2023-11-17,2023-11-17,ＦＥＮＢＩ　ＦＡＮＴＡＳＹ株式会社,,株式会社,大阪府,大阪市此花区,春日出南２丁目３－７栄ハイツ２０２室,,27,104,5540023,,,,,,,2023-11-17,1,,,,,フェンビファンタジー,0
1347,5120001259932,新規,0,2023-11-17,2023-11-17,山の長木株式会社,,株式会社,大阪府,大阪市中央区,内本町２丁目３番１１号内本町グリーンビル７Ｆ,,27,128,5400026,,,,,,,2023-11-17,1,,,,,ヤマノチョウボク,0
1348,5120001259973,新規,0,2023-11-17,2023-11-17,株式会社１９９３,,株式会社,大阪府,大阪市中央区,高津２丁目８－１０末広ビル２０５号,,27,128,5420072,,,,,,,2023-11-17,1,,,,,イチキュウキュウサン,0
1352,5120003025341,新規,0,2023-11-17,2023-11-17,合同会社忠誠,,合同会社,大阪府,大阪市福島区,大開２丁目１４番７号,,27,103,5530007,,,,,,,2023-11-17,1,,,,,チュウセイ,0
1353,5120005024003,新規,0,2023-11-17,2023-11-17,一般社団法人笑顔の森,,その他の設立登記法人,大阪府,大阪市旭区,森小路２丁目１１番３号,,27,117,5350013,,,,,,,2023-11-17,1,,,,,エガオノモリ,0
1359,5120901048369,新規,0,2023-11-17,2023-11-17,株式会社モースト,,株式会社,大阪府,豊中市,名神口３丁目６－７,,27,203,5610841,,,,,,,2023-11-17,1,,,,,モースト,0
1368,5130001075718,新規,0,2023-11-17,2023-11-17,株式会社オレンジ,,株式会社,京都府,京都市伏見区,羽束師鴨川町７９番地１リジェール鴨川５０５,,26,109,6128484,,,,,,,2023-11-17,1,,,,,オレンジ,0
1369,5130001075759,新規,0,2023-11-17,2023-11-17,Ｗａｇｙｕ　Ｉｎｔｅｒｎａｔｉｏｎａｌ株式会社,,株式会社,京都府,京都市伏見区,羽束師菱川町２８２－１,,26,109,6128487,,,,,,,2023-11-17,1,,,,,ワギュウインターナショナル,0
1370,5130003009137,新規,0,2023-11-17,2023-11-17,合同会社ＮＯＩＲ,,合同会社,京都府,京都市右京区,太秦一町芝町５番地の１６,,26,108,6168175,,,,,,,2023-11-17,1,,,,,ノアール,0
1371,5130005016932,新規,0,2023-11-17,2023-11-17,ウェーブ社会保険労務士法人,,その他の設立登記法人,京都府,京都市西京区,桂南巽町４番地,,26,111,6158074,,,,,,,2023-11-17,1,,,,,ウェーブ,0
1379,5140005026798,新規,0,2023-11-17,2023-11-17,特定非営利活動法人ひとのわ,,その他の設立登記法人,兵庫県,西宮市,小松西町１丁目４番１６号２Ｆ,,28,204,6638125,,,,,,,2023-11-17,1,,,,,ヒトノワ,0
1386,5180001158922,新規,0,2023-11-17,2023-11-17,株式会社セット・アップ,,株式会社,愛知県,海部郡大治町,大字北間島字宮東２１番地グリーンコンフォート１棟１０２号,,23,424,4901132,,,,,,,2023-11-17,1,,,,,セットアップ,0
1387,5180001159004,新規,0,2023-11-17,2023-11-17,株式会社ＦＵＪＩＹＡＭＡ,,株式会社,愛知県,名古屋市中川区,服部５丁目１３０３番地の１,,23,110,4540976,,,,,,,2023-11-17,1,,,,,フジヤマ,0
1408,5280001009074,新規,0,2023-11-17,2023-11-17,株式会社ＧＴＲ　ＡＵＴＯ,,株式会社,島根県,出雲市,東園町２８５番地１ハンナンハイツＣ－３０９,,32,203,6930045,,,,,,,2023-11-17,1,,,,,ジーティーアールオート,0
1414,5290001103776,新規,0,2023-11-17,2023-11-17,株式会社グランツ福岡,,株式会社,福岡県,福岡市博多区,中呉服町３番２９号,,40,132,8120035,,,,,,,2023-11-17,1,,,,,グランツフクオカ,0
1417,5290003014625,新規,0,2023-11-17,2023-11-17,合同会社コネクト,,合同会社,福岡県,朝倉市,甘木１７５４番地５,,40,228,8380068,,,,,,,2023-11-17,1,,,,,コネクト,0
1429,5310001018716,新規,0,2023-11-17,2023-11-17,株式会社共栄技術開発,,株式会社,長崎県,大村市,東大村１丁目２６９３番地４６,,42,205,8560032,,,,,,,2023-11-17,1,,,,,キョウエイギジュツカイハツ,0
1432,5330001031477,新規,0,2023-11-17,2023-11-17,株式会社ＮＡＳＳＥ,,株式会社,熊本県,熊本市中央区,魚屋町２丁目５サンコミビル３Ｆ,,43,101,8600031,,,,,,,2023-11-17,1,,,,,ナッセ,0
1433,5330003010082,新規,0,2023-11-17,2023-11-17,合同会社南阿蘇企画,,合同会社,熊本県,熊本市中央区,大江５丁目２－１１－１０７,,43,101,8620971,,,,,,,2023-11-17,1,,,,,ミナミアソキカク,0
1443,5370001050639,新規,0,2023-11-17,2023-11-17,株式会社いちごびとたち,,株式会社,宮城県,柴田郡大河原町,字町１８５番地,,04,321,9891241,,,,,,,2023-11-17,1,,,,,イチゴビトタチ,0
1446,5380001034137,新規,0,2023-11-17,2023-11-17,株式会社大志興業,,株式会社,福島県,いわき市,常磐湯本町宝海８７番地の２マ・メゾンＭｅｇｕｍｉ１０３,,07,204,9728321,,,,,,,2023-11-17,1,,,,,タイシコウギョウ,0
1450,5430001090447,新規,0,2023-11-17,2023-11-17,株式会社Ｄ‐ＤＥＲＥ,,株式会社,北海道,札幌市手稲区,手稲山口７１６番地１,,01,109,0060860,,,,,,,2023-11-17,1,,,,,ディデーレ,0
1451,5430001090455,新規,0,2023-11-17,2023-11-17,株式会社いしかり鑑定,,株式会社,北海道,札幌市手稲区,前田九条１５丁目７番１３号,,01,109,0060819,,,,,,,2023-11-17,1,,,,,イシカリカンテイ,0
1452,5430001090463,新規,0,2023-11-17,2023-11-17,株式会社ｄａｎ,,株式会社,北海道,札幌市中央区,南五条西２４丁目３番１７号第１７藤栄ビル１階,,01,101,0640805,,,,,,,2023-11-17,1,,,,,ダン,0
1462,5460103001571,新規,0,2023-11-17,2023-11-17,合同会社オフィス・リファニット,,合同会社,北海道,帯広市,西十六条南１丁目３４番地５－２０５号,,01,207,0800026,,,,,,,2023-11-17,1,,,,,オフィスリファニット,0
1466,5490001010639,新規,0,2023-11-17,2023-11-17,株式会社えねぷらざ高知,,株式会社,高知県,南国市,浜改田５４９番地,,39,204,7830083,,,,,,,2023-11-17,1,,,,,エネプラザコウチ,0
1470,5700150122139,新規,0,2023-11-17,2023-11-17,Ｇｕａｎｇｚｈｏｕ　Ｙｉｙｉｎｇ　Ｔｒａｄｉｎｇ　ＣＯ．，Ｌｔｄ,,外国会社等,,,,,,,,ｂａｉ　ｙｕｎ　ｑｕ　ｓａｎｙｕａｎｌｉｊｉｅ　ｊｉ　ｃｈａｎｇ　ｌｕ　７２　ｈａｏ　ｓａｎｌｏｕ　３０２　ｆａｎｇ　Ｇｕａｎｇｚｈｏｕ　Ｇｕａｎｇｄｏｎｇ　５１０４２０　ＣＮ,,,,,,2023-11-17,1,,,,,グワンジヨウシーイーインマオイーヨウシエンゴンスー,0
1471,5700150122147,新規,0,2023-11-17,2023-11-17,Ｓｈａｎｇｈａｉ　Ｘｉｓｈｕｎ　Ｅｌｅｃｔｒｉｃ　Ｃｏ．，Ｌｔｄ．,,外国会社等,,,,,,,,Ａｒｅａ　Ｂ，Ｂｕｉｌｄｉｎｇ　１，Ｎｏ．１１８，Ｘｉｇａｎｇｓｈｅｎ　Ｒｏａｄ，Ｗａｉｇａｎｇ　Ｔｏｗｎ，Ｊｉａｄｉｎｇ　Ｄｉｓｔｒｉｃｔ,,,,,,2023-11-17,1,,,,,シヤンハイシジヨンイレエクトウリイクカンパニリミテツド,0
1472,5700150122155,新規,0,2023-11-17,2023-11-17,ｒｉｃｈａｎｇｙｉｗｕｓｈｉｊｉｎｃｈｕｋｏｕｙｏｕｘｉａｎｇｏｎｇｓｉ,,外国会社等,,,,,,,,ｚｈｅｊｉａｎｇｓｈｅｎｇ　ｊｉｎｈｕａｓｈｉ　ｙｉｗｕｓｈｉ　ｂｅｉｙｕａｎｊｉｅｄａｏ　ｌｉｎｇｙｕｎ８ｑｕ１２５ｚｈｕａｎｇ１ｄａｎｙｕａｎ４０５ｓｈｉ,,,,,,2023-11-17,1,,,,,リーチヤンイーウーシージンチユーコウヨウシエンゴンスー,0
1473,5700150122163,新規,0,2023-11-17,2023-11-17,ＰｕｔｉａｎｓｈｉＨａｎｊｉａｎｇｑｕＳａｎｘｉｎｇｗｕｊｉｎｓｕｌｉａｏｙｏｕｘｉａｎｇｏｎｇｓｉ,,外国会社等,,,,,,,,ＨａｎｊｉａｎｇｑｕＪｉａｎｇｋｏｕｚｈｅｎＳｈｉｘｉｃｕｎｈｏｕｃｈｅｎｇ１１８ｈａｏ，Ｐｕｔｉａｎｓｈｉ,,,,,,2023-11-17,1,,,,,プーテイエンシーハンジヤンチーサンシンウージンスーリヤオヨウシエンゴンスー,0
1474,5700150122171,新規,0,2023-11-17,2023-11-17,Ｂｏｖｅｄａ　Ｉｎｃ．,,外国会社等,,,,,,,,１０２３７　Ｙｅｌｌｏｗ　Ｃｉｒｃｌｅ　Ｄｒｉｖｅ，Ｍｉｎｎｅｔｏｎｋａ，ＭＮ　５５３４３，ＵＳ,,,,,,2023-11-17,1,,,,,ボベダインク,0
1486,6010001239416,新規,0,2023-11-17,2023-11-17,Ｔｕｂｉｃｅｎ　ｊａｐａｎ株式会社,,株式会社,東京都,千代田区,大手町１丁目７番２号東京サンケイビル２７階,,13,101,1000004,,,,,,,2023-11-17,1,,,,,トゥビセンジャパン,0
1487,6010001240043,新規,0,2023-11-17,2023-11-17,ＡＵＴＯＷＥＬＬ日本株式会社,,株式会社,東京都,千代田区,大手町１丁目６番１号大手町ビル２階,,13,101,1000004,,,,,,,2023-11-17,1,,,,,オートウェルニホン,0
1488,6010001240092,新規,0,2023-11-17,2023-11-17,デジタルワークス株式会社,,株式会社,東京都,千代田区,神田佐久間町３丁目９番第三田中ビル４７号室,,13,101,1010025,,,,,,,2023-11-17,1,,,,,デジタルワークス,0
1489,6010001240126,新規,0,2023-11-17,2023-11-17,株式会社白兎屋,,株式会社,東京都,中央区,勝どき６丁目３番２－４５２３号,,13,102,1040054,,,,,,,2023-11-17,1,,,,,シラトヤ,0
1490,6010001240142,新規,0,2023-11-17,2023-11-17,ＧｅＶ株式会社,,株式会社,東京都,中央区,銀座２丁目１２番１２号深山ビル９階,,13,102,1040061,,,,,,,2023-11-17,1,,,,,ゲーブ,0
1491,6010001240159,新規,0,2023-11-17,2023-11-17,株式会社レキオスインターナショナル,,株式会社,東京都,千代田区,神田三崎町２丁目１４番７号,,13,101,1010061,,,,,,,2023-11-17,1,,,,,レキオスインターナショナル,0
1495,6010003042231,新規,0,2023-11-17,2023-11-17,合同会社ヒガシア,,合同会社,東京都,文京区,白山２丁目２番７号,,13,105,1120001,,,,,,,2023-11-17,1,,,,,ヒガシア,0
1506,6010401178585,新規,0,2023-11-17,2023-11-17,パゲロジャパン株式会社,,株式会社,東京都,港区,西新橋３丁目２４番８号山内ビル３階,,13,103,1050003,,,,,,,2023-11-17,1,,,,,パゲロジャパン,0
1527,6010901054212,新規,0,2023-11-17,2023-11-17,株式会社ＤＯａｎｄＧＯ,,株式会社,東京都,世田谷区,代沢４丁目４１番１１号,,13,112,1550032,,,,,,,2023-11-17,1,,,,,ドゥアンドゴー,0
1529,6010903008595,新規,0,2023-11-17,2023-11-17,合同会社ＳＵＭＥＲＡ　ＯＮＥ　ＦＯＵＲ,,合同会社,東京都,世田谷区,鎌田４丁目１１－１６－Ｄ,,13,112,1570077,,,,,,,2023-11-17,1,,,,,スメラワンフォー,0
1533,6011001158309,新規,0,2023-11-17,2023-11-17,Ａ‐ＮＥＸＴ株式会社,,株式会社,東京都,渋谷区,道玄坂１丁目１０番８号渋谷道玄坂東急ビル２Ｆ－Ｃ,,13,113,1500043,,,,,,,2023-11-17,1,,,,,エーネクスト,0
1538,6011101105152,新規,0,2023-11-17,2023-11-17,株式会社Ｂａｎｓｈｅｅ,,株式会社,東京都,新宿区,西新宿６丁目１５番１号セントラルパークタワーラトゥール新宿５１１,,13,104,1600023,,,,,,,2023-11-17,1,,,,,バンシィ,0
1552,6012403006278,新規,0,2023-11-17,2023-11-17,合同会社ギョロ,,合同会社,東京都,武蔵野市,吉祥寺本町１丁目１７番１０号石崎ビル２Ｆ,,13,203,1800004,,,,,,,2023-11-17,1,,,,,ギョロ,0
1555,6013101009283,新規,0,2023-11-17,2023-11-17,株式会社Ｔｒｅａｓｕｒｅｓ　Ｒｅｂｏｒｎ,,株式会社,東京都,福生市,大字熊川１６３０－１,,13,218,1970003,,,,,,,2023-11-17,1,,,,,,0
1559,6013301051630,新規,0,2023-11-17,2023-11-17,ＬＸＢコーポレーション株式会社,,株式会社,東京都,豊島区,東池袋２丁目２４番９アークプラザ東池袋２０１,,13,116,1700013,,,,,,,2023-11-17,1,,,,,エルエックスビーコーポレーション,0
1560,6013305003545,新規,0,2023-11-17,2023-11-17,碧山巖寺東京別院一般社団法人,,その他の設立登記法人,東京都,豊島区,池袋本町３丁目２１番１５,,13,116,1700011,,,,,,,2023-11-17,1,,,,,ヘキザンガンジトウキョウベツイン,0
1580,6021001080651,新規,0,2023-11-17,2023-11-17,株式会社Ｋｏｔｏｎａ,,株式会社,神奈川県,藤沢市,遠藤４４８９番１０５,,14,205,2520816,,,,,,,2023-11-17,1,,,,,コトナ,0
1581,6021001080767,新規,0,2023-11-17,2023-11-17,株式会社カーレン,,株式会社,神奈川県,厚木市,中町３丁目１７番２２号栗原ビル３階Ｃ号室,,14,212,2430018,,,,,,,2023-11-17,1,,,,,カーレン,0
1584,6021003013808,新規,0,2023-11-17,2023-11-17,合同会社まじめ,,合同会社,神奈川県,平塚市,纒３２０番地の３ブランヴェール１０２,,14,203,2540901,,,,,,,2023-11-17,1,,,,,マジメ,0
1587,6030001157087,新規,0,2023-11-17,2023-11-17,丸達株式会社,,株式会社,埼玉県,志木市,館１丁目１番８号３０１－Ｃ,,11,228,3530006,,,,,,,2023-11-17,1,,,,,マルタツ,0
1588,6030001157186,新規,0,2023-11-17,2023-11-17,株式会社Ｌａ　Ｓａｌｕｔｅ,,株式会社,埼玉県,さいたま市見沼区,深作３丁目１０番地３０,,11,104,3370003,,,,,,,2023-11-17,1,,,,,ラサルーテ,0
1589,6030001157203,新規,0,2023-11-17,2023-11-17,株式会社アーケイン,,株式会社,埼玉県,さいたま市浦和区,常盤６丁目１６番７号,,11,107,3300061,,,,,,,2023-11-17,1,,,,,アーケイン,0
1601,6040001131000,新規,0,2023-11-17,2023-11-17,株式会社Ａｓｐｉｒｅ,,株式会社,千葉県,鎌ケ谷市,東中沢３丁目９番３３号,,12,224,2730112,,,,,,,2023-11-17,1,,,,,アスパイア,0
1616,6080105006375,新規,0,2023-11-17,2023-11-17,一般社団法人ｅｎｔ,,その他の設立登記法人,静岡県,伊東市,馬場町１丁目９番３号,,22,208,4140033,,,,,,,2023-11-17,1,,,,,エント,0
1625,6120001259931,新規,0,2023-11-17,2023-11-17,ケーバック株式会社,,株式会社,大阪府,大阪市中央区,南新町１丁目４番９号谷町昭和ビル３０５号,,27,128,5400024,,,,,,,2023-11-17,1,,,,,ケーバック,0
1626,6120001259956,新規,0,2023-11-17,2023-11-17,株式会社エレヴァネージュ,,株式会社,大阪府,大阪市北区,梅田１丁目１－３大阪駅前第３ビル２９階１－１－１号室,,27,127,5300001,,,,,,,2023-11-17,1,,,,,エレヴァネージュ,0
1630,6120003025340,新規,0,2023-11-17,2023-11-17,合同会社常翔,,合同会社,大阪府,大阪市鶴見区,鶴見１丁目６番９号,,27,124,5380053,,,,,,,2023-11-17,1,,,,,ジョウショウ,0
1634,6120103005531,新規,0,2023-11-17,2023-11-17,合同会社Ｓｏｌａ‐ｓｈｉｅ,,合同会社,大阪府,泉南郡熊取町,大久保北３丁目３３２－２０,,27,361,5900402,,,,,,,2023-11-17,1,,,,,ソラシエ,0
1635,6120903004930,新規,0,2023-11-17,2023-11-17,ＭＨＴ　ＪＡＰＡＮ合同会社,,合同会社,大阪府,豊中市,豊南町西４丁目２８－１１－１０１,,27,203,5610816,,,,,,,2023-11-17,1,,,,,エムエイチティージャパン,0
1637,6122001037581,新規,0,2023-11-17,2023-11-17,エムズ株式会社,,株式会社,大阪府,柏原市,国分本町２丁目３番４５－２０６号,,27,221,5820021,,,,,,,2023-11-17,1,,,,,エムズ,0
1643,6130001075717,新規,0,2023-11-17,2023-11-17,えいち株式会社,,株式会社,京都府,京都市右京区,太秦石垣町２１番地２Ｍ′ｓ太秦２Ｅ,,26,108,6168166,,,,,,,2023-11-17,1,,,,,エイチ,0
1646,6130003009128,新規,0,2023-11-17,2023-11-17,合同会社ダスク,,合同会社,京都府,京都市下京区,七条通油小路東入大黒町２２７番地,,26,106,6008223,,,,,,,2023-11-17,1,,,,,ダスク,0
1654,6140001132392,新規,0,2023-11-17,2023-11-17,株式会社ｃａｌｍ　ｓｎｏｗ,,株式会社,兵庫県,西宮市,老松町２番４号,,28,204,6620085,,,,,,,2023-11-17,1,,,,,カームスノウ,0
1660,6140003019811,新規,0,2023-11-17,2023-11-17,合同会社ＣＡＮｖａｓ,,合同会社,兵庫県,神戸市東灘区,本山南町５丁目４番２５号グランフェルティ本山７０１,,28,101,6580015,,,,,,,2023-11-17,1,,,,,キャンバス,0
1661,6140003019828,新規,0,2023-11-17,2023-11-17,ミヤコ商事合同会社,,合同会社,兵庫県,神戸市中央区,琴ノ緒町５丁目５番９号フューチャービル３階,,28,110,6510094,,,,,,,2023-11-17,1,,,,,ミヤコショウジ,0
1662,6140003019844,新規,0,2023-11-17,2023-11-17,弘元商事合同会社,,合同会社,兵庫県,神戸市中央区,神若通５丁目２番２３－１号,,28,110,6510067,,,,,,,2023-11-17,1,,,,,コウケンショウジ,0
1663,6150003003120,新規,0,2023-11-17,2023-11-17,合同会社ウンチク,,合同会社,奈良県,奈良市,平松２丁目２３番５号,,29,201,6310846,,,,,,,2023-11-17,1,,,,,ウンチク,0
1679,6180001158921,新規,0,2023-11-17,2023-11-17,株式会社Ｍａｔｒｉｘ　Ｉｎｎｏｖａｔｉｏｎ,,株式会社,愛知県,名古屋市北区,清水３丁目１７番１９号８０２号,,23,103,4620844,,,,,,,2023-11-17,1,,,,,マトリックスイノベーション,0
1680,6180001158946,新規,0,2023-11-17,2023-11-17,株式会社ハイプレイス,,株式会社,愛知県,名古屋市西区,押切２丁目５番５号,,23,104,4510063,,,,,,,2023-11-17,1,,,,,ハイプレイス,0
1683,6180301038039,新規,0,2023-11-17,2023-11-17,株式会社倉建,,株式会社,愛知県,西尾市,一色町生田宮東４１番地,,23,213,4440412,,,,,,,2023-11-17,1,,,,,クラケン,0
1701,6280001009073,新規,0,2023-11-17,2023-11-17,株式会社アルトクラシー,,株式会社,島根県,松江市,東津田町１０４１番地１,,32,201,6900011,,,,,,,2023-11-17,1,,,,,アルトクラシー,0
1706,6290001103759,新規,0,2023-11-17,2023-11-17,株式会社ポコペン,,株式会社,福岡県,福岡市城南区,長尾２丁目２９番１－１０８号笹の台団地１棟,,40,136,8140123,,,,,,,2023-11-17,1,,,,,ポコペン,0
1710,6290003014624,新規,0,2023-11-17,2023-11-17,シーエフ合同会社,,合同会社,福岡県,福岡市城南区,梅林１丁目１０－７－１０２,,40,136,8140144,,,,,,,2023-11-17,1,,,,,シーエフ,0
1711,6290801030054,新規,0,2023-11-17,2023-11-17,株式会社Ｋ・Ｍ・Ｄ,,株式会社,福岡県,北九州市小倉北区,城野団地２番４－３０１号,,40,106,8020055,,,,,,,2023-11-17,1,,,,,ケーエムディー,0
1715,6330001031476,新規,0,2023-11-17,2023-11-17,熊本総合事業株式会社,,株式会社,熊本県,熊本市北区,八景水谷４丁目７番３号,,43,105,8618064,,,,,,,2023-11-17,1,,,,,,0
1721,6360001032827,新規,0,2023-11-17,2023-11-17,マックスビルグループ株式会社,,株式会社,沖縄県,那覇市,字国場３５番地１,,47,201,9020075,,,,,,,2023-11-17,1,,,,,マックスビルグループ,0
1722,6360001032835,新規,0,2023-11-17,2023-11-17,株式会社ヒダマリ,,株式会社,沖縄県,那覇市,松山１丁目１９－１２ｍｅｉｔｈ松山６０２,,47,201,9000032,,,,,,,2023-11-17,1,,,,,ヒダマリ,0
1723,6360003013494,新規,0,2023-11-17,2023-11-17,合同会社又吉内装,,合同会社,沖縄県,糸満市,字名城１４２番地の１,,47,210,9010351,,,,,,,2023-11-17,1,,,,,マタヨシナイソウ,0
1743,6420001018480,新規,0,2023-11-17,2023-11-17,ヤマサ商事株式会社,,株式会社,青森県,南津軽郡藤崎町,大字俵舛字東平岡１３０番地３,,02,361,0383835,,,,,,,2023-11-17,1,,,,,ヤマサショウジ,0
1750,6430003015649,新規,0,2023-11-17,2023-11-17,Ｔｅｋｋｅｙ合同会社,,合同会社,北海道,札幌市清田区,北野六条３丁目１３番１６号,,01,110,0040866,,,,,,,2023-11-17,1,,,,,テッキー,0
1759,6500001025312,新規,0,2023-11-17,2023-11-17,株式会社感動創造研究所,,株式会社,愛媛県,松山市,船ケ谷町乙１４０番地１１,,38,201,7918073,,,,,,,2023-11-17,1,,,,,カンドウソウゾウケンキュウショ,0
1760,6700150122138,新規,0,2023-11-17,2023-11-17,Ｇｕａｎｇｚｈｏｕ　Ｃｈｕｎｙｕｅ　Ｔｅｃｈｎｏｌｏｇｙ　Ｃｏ．，Ｌｔｄ,,外国会社等,,,,,,,,ｂａｉｙｕｎ　ｑｕ　ｙｏｎｇ　ｐｉｎｇ　ｊｉｅ　ｙｏｎｇ　ｔａｉ　ｚｈｉ　ｈｅ　ｊｉｅ　ｑｉ　ｘｉａｎｇ　２２－４　ｈａｏ　Ｂ　ｄｏｎｇｓａｎ　ｌｏｕ　Ｋ０４８　ｈａｏ　ｆａｎｇ　Ｇｕａｎｇｚｈｏｕ　ｓｈｉ　Ｇｕａｎｇｄｏｎｇ　５１００００　ＣＮ,,,,,,2023-11-17,1,,,,,グワンジヨウチユンユエコージーヨウシエンゴンスー,0
1761,6700150122146,新規,0,2023-11-17,2023-11-17,Ｋｉｎｇ　Ｇｒｉｎｄｅｒ　Ｃｏ．，Ｌｔｄ．,,外国会社等,,,,,,,,１１Ｆ－３，ＮＯ．２２，Ｓｈｏｕｄｅ　Ｓｔ．，ＺＨＯＮＧＨＥ　ＤＩＳＴ　ＮＥＷ　ＴＡＩＰＥＩ　ＣＩＴＹ　ＴＡＩＷＡＮ　２３５,,,,,,2023-11-17,1,,,,,キンググラインダーカンパニリミテツド,0
1762,6700150122154,新規,0,2023-11-17,2023-11-17,ＳＨＥＮＺＨＥＮ　ＬＥＩ　ＨＡＩ　ＴＥＣＨＮＯＬＯＧＹ　ＣＯ．，ＬＴＤ,,外国会社等,,,,,,,,２Ｆ　Ｅａｓｔ　Ｂｕｉｌｄｉｎｇ　１２　Ｌｏｎｇｗａｎｇｍｉａｏ　Ｉｎｄｕｓｔｒｉａｌ　Ｚｏｎｅ　Ｆｕｙｏｎｇ　Ｓｔｒｅｅｔ　Ｂａｏａｎ　Ｄｉｓｔｒｉｃｔ　Ｓｈｅｎｚｈｅｎ,,,,,,2023-11-17,1,,,,,シエンジエンシーレイハイコージーヨウシエンゴンスー,0
1763,6700150122162,新規,0,2023-11-17,2023-11-17,Ｓｈｅｎｚｈｅｎ　Ｘｉｎｆｅｎｇｇｅ　Ｉｎｔｅｒｎｅｔ　Ｔｅｃｈｎｏｌｏｇｙ　Ｃｏ．Ｌｔｄ．,,外国会社等,,,,,,,,ｒｏｏｍ　４０１－３９，４ｔｈ　ｆｌｏｏｒ，Ｎｏ．０１　ｆａｃｔｏｒｙ　ｂｕｉｌｄｉｎｇ，Ｘｉｎｔｉａｎｘｉａ　ｉｎｄｕｓｔｒｉａｌ　ｃｉｔｙ，Ｗａｎｋｅ　ｃｏｍｍｕｎｉｔｙ，Ｂａｎｔｉａｎ　ｓｔｒｅｅｔ，Ｌｏｎｇｇａｎｇ　ｄｉｓｔｒｉｃｔ，Ｓｈｅｎｚｈｅｎ,,,,,,2023-11-17,1,,,,,シエンジエンシーシンフオンゴーワンルオジーシユーヨウシエンゴンスー,0
1764,6700150122170,新規,0,2023-11-17,2023-11-17,Ｓｈｅｎｚｈｅｎ　Ｂａｔｉａｎｄａ　Ｔｒａｄｉｎｇ　Ｃｏ．，Ｌｔｄ．,,外国会社等,,,,,,,,ｌｏｎｇｇａｎｇｑｕ　ｊｉｈｕａｊｉｅｄａｏ　ｓｈｕｉｊｉｎｇｓｈｅｑｕ　ｓｈｅｎｌｏｎｇｇｏｎｇｙｅｑｕ　Ｄ　ｄｏｎｇ　Ｃｈａｎｇｆａｎｇ　４０３　Ｓｈｅｎｚｈｅｎ　Ｇｕａｎｇｄｏｎｇ　５１８１１２　ＣＮ,,,,,,2023-11-17,1,,,,,シエンジエンシーバーテイエンダーマオイーヨウシエンゴンスー,0
1776,7010001240091,新規,0,2023-11-17,2023-11-17,ＴＯＰＩ株式会社,,株式会社,東京都,中央区,銀座１丁目１４番５号銀座ウイングビル４Ｆ,,13,102,1040061,,,,,,,2023-11-17,1,,,,,トピ,0
1777,7010001240117,新規,0,2023-11-17,2023-11-17,株式会社ｆｕｊｉ,,株式会社,東京都,文京区,白山２丁目２１番２号ＰＡＳＥＯ白山ＩＩ３０２,00132691,13,105,1120001,,,,,,,2023-11-17,1,,,,,フジ,0
1778,7010001240133,新規,0,2023-11-17,2023-11-17,株式会社ＬＩＦＵＬＬ　Ｆｉｎａｎｃｉａｌ,,株式会社,東京都,千代田区,麹町１丁目４番地４,,13,101,1020083,,,,,,,2023-11-17,1,,,,,ライフルフィナンシャル,0
1779,7010001240158,新規,0,2023-11-17,2023-11-17,ライズテック株式会社,,株式会社,東京都,中央区,日本橋茅場町２丁目１７番６号いづみハイツニュー茅場町６０３,,13,102,1030025,,,,,,,2023-11-17,1,,,,,ライズテック,0
1784,7010003042239,新規,0,2023-11-17,2023-11-17,合同会社ｆｕｗｅａｒ,,合同会社,東京都,中央区,日本橋室町１丁目１１番１２号日本橋水野ビル７階,,13,102,1030022,,,,,,,2023-11-17,1,,,,,フェア,0
1786,7010103002258,新規,0,2023-11-17,2023-11-17,合同会社アルパカ,,合同会社,東京都,八王子市,千人町３丁目１１番２３号,,13,201,1930835,,,,,,,2023-11-17,1,,,,,アルパカ,0
1796,7010501051377,新規,0,2023-11-17,2023-11-17,ＴＡＩＭＡＴＳＵ株式会社,,株式会社,東京都,台東区,松が谷４丁目２４‐１１シティーオオソネ２１・３０４号室,,13,106,1110036,,,,,,,2023-11-17,1,,,,,タイマツ,0
1797,7010501051393,新規,0,2023-11-17,2023-11-17,株式会社日本経営財務会計,,株式会社,東京都,台東区,蔵前２丁目１５番７号ＳＵＳ御蔵前４０１,,13,106,1110051,,,,,,,2023-11-17,1,,,,,ニホンケイエイザイムカイケイ,0
1803,7010701045138,新規,0,2023-11-17,2023-11-17,株式会社グランエスタード,,株式会社,東京都,品川区,東五反田１丁目４番１３号国分ビル１階,,13,109,1410022,,,,,,,2023-11-17,1,,,,,グランエスタード,0
1818,7011001158266,新規,0,2023-11-17,2023-11-17,株式会社サンヒルズ,,株式会社,東京都,渋谷区,渋谷３丁目１２番２４号,,13,113,1500002,,,,,,,2023-11-17,1,,,,,サンヒルズ,0
1819,7011001158299,新規,0,2023-11-17,2023-11-17,ＴＫＭＫ株式会社,,株式会社,東京都,渋谷区,宇田川町３番７号ヒューリック渋谷公園通りビル５Ｆ－７６,,13,113,1500042,,,,,,,2023-11-17,1,,,,,トキメキ,0
1820,7011001158316,新規,0,2023-11-17,2023-11-17,株式会社ＳＭＵＣ,,株式会社,東京都,渋谷区,初台１丁目４０番５号アーバンプレイス代々木公園１０５,,13,113,1510061,,,,,,,2023-11-17,1,,,,,エスエムユーシー,0
1821,7011003017874,新規,0,2023-11-17,2023-11-17,ドーンライト合同会社,,合同会社,東京都,渋谷区,道玄坂１丁目１０番８号渋谷道玄坂東急ビル２Ｆ－Ｃ,,13,113,1500043,,,,,,,2023-11-17,1,,,,,ドーンライト,0
1822,7011003017949,新規,0,2023-11-17,2023-11-17,アブロードシステム合同会社,,合同会社,東京都,渋谷区,神宮前６丁目２３番４号桑野ビル２階,,13,113,1500001,,,,,,,2023-11-17,1,,,,,アブロードシステム,0
1827,7011101105069,新規,0,2023-11-17,2023-11-17,株式会社Ｙｅａａａｈ,,株式会社,東京都,新宿区,四谷４丁目３３番２号マーキュリースクエア５階,,13,104,1600004,,,,,,,2023-11-17,1,,,,,ヤーッ,0
1828,7011101105143,新規,0,2023-11-17,2023-11-17,株式会社ｅｎｇｒｏｓｓ,,株式会社,東京都,新宿区,西新宿３丁目３番１３号西新宿水間ビル２階,,13,104,1600023,,,,,,,2023-11-17,1,,,,,イングロウス,0
1834,7011401025603,新規,0,2023-11-17,2023-11-17,株式会社ブラックロータス,,株式会社,東京都,板橋区,板橋４丁目１２番９号,,13,119,1730004,,,,,,,2023-11-17,1,,,,,,0
1838,7011601027283,新規,0,2023-11-17,2023-11-17,株式会社ＫＩＲＩＥ,,株式会社,東京都,練馬区,練馬３丁目１番６号,,13,120,1760001,,,,,,,2023-11-17,1,,,,,キリエ,0
1846,7011803005938,新規,0,2023-11-17,2023-11-17,合同会社ＢＬＵＥ,,合同会社,東京都,足立区,伊興１丁目６番３２号,,13,121,1210823,,,,,,,2023-11-17,1,,,,,,0
1847,7012403006277,新規,0,2023-11-17,2023-11-17,合同会社ＷＤ,,合同会社,東京都,府中市,府中町１丁目５番６号高橋ビル３Ｆ,,13,206,1830055,,,,,,,2023-11-17,1,,,,,ダブリューディー,0
1851,7012803003238,新規,0,2023-11-17,2023-11-17,合同会社ｅ‐Ｍｏｔｉｏｎ,,合同会社,東京都,東大和市,清水６丁目１１５０番地の１グレースハウスＦ号室,,13,220,2070004,,,,,,,2023-11-17,1,,,,,イーモーション,0
1853,7013301051638,新規,0,2023-11-17,2023-11-17,株式会社Ｄｅｅｊｉ　Ｙａｓｓａ,,株式会社,東京都,豊島区,南池袋１丁目１６番１５号ダイヤゲート池袋５階,,13,116,1710022,,,,,,,2023-11-17,1,,,,,デージヤッサー,0
1854,7013305003544,新規,0,2023-11-17,2023-11-17,一般社団法人働楽,,その他の設立登記法人,東京都,豊島区,目白３丁目１７番３号,,13,116,1710031,,,,,,,2023-11-17,1,,,,,ハタラク,0
1861,7020003025003,新規,0,2023-11-17,2023-11-17,インフィニタスコネクト合同会社,,合同会社,神奈川県,横浜市西区,北幸２丁目１０番地４８むつみビル３Ｆ,,14,103,2200004,,,,,,,2023-11-17,1,,,,,インフィニタスコネクト,0
1868,7021001080733,新規,0,2023-11-17,2023-11-17,株式会社ファーマシーガーデン,,株式会社,神奈川県,横須賀市,西浦賀６丁目１０番地,,14,201,2390824,,,,,,,2023-11-17,1,,,,,ファーマシーガーデン,0
1869,7021001080758,新規,0,2023-11-17,2023-11-17,株式会社ロータスプロ,,株式会社,神奈川県,藤沢市,本藤沢５丁目７番１～２１３号,,14,205,2510875,,,,,,,2023-11-17,1,,,,,ロータスプロ,0
1870,7021001080766,新規,0,2023-11-17,2023-11-17,株式会社ホワイトテックス,,株式会社,神奈川県,厚木市,中町３丁目１番２４号吉村ビル３Ｆ,,14,212,2430018,,,,,,,2023-11-17,1,,,,,ホワイトテックス,0
1871,7021001080774,新規,0,2023-11-17,2023-11-17,株式会社ＨＩＫＯ,,株式会社,神奈川県,逗子市,逗子７丁目１番５３号グランテージベイビュー５０３,,14,208,2490006,,,,,,,2023-11-17,1,,,,,ヒコ,0
1883,7030001157219,新規,0,2023-11-17,2023-11-17,株式会社オープンスケール,,株式会社,埼玉県,川口市,西川口１丁目２２番７－４０３号,,11,203,3320021,,,,,,,2023-11-17,1,,,,,オープンスケール,0
1888,7040001130950,新規,0,2023-11-17,2023-11-17,マルト未来企画株式会社,,株式会社,千葉県,流山市,大字中野久木５５番地の１,,12,220,2700116,,,,,,,2023-11-17,1,,,,,マルトミライキカク,0
1889,7040001130975,新規,0,2023-11-17,2023-11-17,Ｗｈｉｔｅ　Ｓｔａｒ株式会社,,株式会社,千葉県,柏市,あけぼの４丁目２番１８号,,12,217,2770841,,,,,,,2023-11-17,1,,,,,ホワイトスター,0
1898,7070001041071,新規,0,2023-11-17,2023-11-17,株式会社清水組,,株式会社,群馬県,伊勢崎市,堀口町２８２番地１,,10,204,3720834,,,,,,,2023-11-17,1,,,,,シミズグミ,0
1901,7080101024347,新規,0,2023-11-17,2023-11-17,株式会社ネクサス安生,,株式会社,静岡県,富士市,青島町２２８番地１Ｆ,,22,210,4170047,,,,,,,2023-11-17,1,,,,,ネクサスアンジョウ,0
1909,7110001037973,新規,0,2023-11-17,2023-11-17,株式会社吉田プランニングＲ,,株式会社,新潟県,新潟市中央区,東大畑通２番町４７８番地,,15,103,9518106,,,,,,,2023-11-17,1,,,,,ヨシダプランニングアール,0
1919,7120001259872,新規,0,2023-11-17,2023-11-17,株式会社チャンタ,,株式会社,大阪府,大阪市北区,中津５丁目５番６－７０１号,,27,127,5310071,,,,,,,2023-11-17,1,,,,,チャンタ,0
1920,7120001259906,新規,0,2023-11-17,2023-11-17,株式会社ハニーゴールド,,株式会社,大阪府,大阪市西区,新町１丁目２４番８号１０Ｆ,,27,106,5500013,,,,,,,2023-11-17,1,,,,,ハニーゴールド,0
1921,7120001259939,新規,0,2023-11-17,2023-11-17,シンクラウド株式会社,,株式会社,大阪府,大阪市北区,梅田２丁目２番２２号梅田阪神第２ビルディング,,27,127,5300001,,,,,,,2023-11-17,1,,,,,シンクラウド,0
1924,7120005024001,新規,0,2023-11-17,2023-11-17,一般社団法人日本健康推進機構,,その他の設立登記法人,大阪府,大阪市北区,梅田２丁目１番２２号野村不動産西梅田ビル１２階,,27,127,5300001,,,,,,,2023-11-17,1,,,,,ニホンケンコウスイシンキコウ,0
1928,7120101068554,新規,0,2023-11-17,2023-11-17,原株式会社,,株式会社,大阪府,堺市南区,三原台４丁３番２号,,27,145,5900111,,,,,,,2023-11-17,1,,,,,ハラ,0
1940,7130001075757,新規,0,2023-11-17,2023-11-17,株式会社ビットワン,,株式会社,京都府,城陽市,久世北垣内８２－１,,26,207,6100102,,,,,,,2023-11-17,1,,,,,ビットワン,0
1950,7140001132375,新規,0,2023-11-17,2023-11-17,株式会社ワンダーマイン,,株式会社,兵庫県,伊丹市,稲野町１丁目８５番１号ＴＭプラザ１０１,,28,207,6640861,,,,,,,2023-11-17,1,,,,,ワンダーマイン,0
1951,7140001132409,新規,0,2023-11-17,2023-11-17,Ｌｉｔｔｌｅ　ｈｉｌｌ株式会社,,株式会社,兵庫県,芦屋市,楠町３番１０－３０３号,,28,206,6590015,,,,,,,2023-11-17,1,,,,,リトルヒル,0
1963,7140003019802,新規,0,2023-11-17,2023-11-17,エグザートコーポレーション合同会社,,合同会社,兵庫県,神戸市中央区,下山手通７丁目１６番２１号,,28,110,6500011,,,,,,,2023-11-17,1,,,,,エグザートコーポレーション,0
1964,7140003019827,新規,0,2023-11-17,2023-11-17,合同会社９２’ｓＦＡＣＴＯＲＹ,,合同会社,兵庫県,神戸市北区,泉台３丁目２番地の６,,28,109,6511141,,,,,,,2023-11-17,1,,,,,キュウニズファクトリー,0
1965,7140003019835,新規,0,2023-11-17,2023-11-17,合同会社Ｓａｅｔｔａ,,合同会社,兵庫県,尼崎市,大庄北３丁目１４－２３,,28,202,6600063,,,,,,,2023-11-17,1,,,,,サエッタ,0
1968,7160001025511,新規,0,2023-11-17,2023-11-17,株式会社慧薀舎,,株式会社,滋賀県,栗東市,手原３丁目６番３０号,,25,208,5203047,,,,,,,2023-11-17,1,,,,,ケイウンシャ,0
1984,7200005013540,新規,0,2023-11-17,2023-11-17,一般社団法人美濃国地域医療リンケージ,,その他の設立登記法人,岐阜県,羽島郡笠松町,田代１８５番地の１,,21,303,5016062,,,,,,,2023-11-17,1,,,,,ミノノクニチイキイリョウリンケージ,0
1987,7220001025694,新規,0,2023-11-17,2023-11-17,株式会社スベテック,,株式会社,石川県,能美市,浜開発町丁１６２番地１,,17,211,9290114,,,,,,,2023-11-17,1,,,,,スベテック,0
2009,7290003014623,新規,0,2023-11-17,2023-11-17,Ｖ‐ｏｌｄ合同会社,,合同会社,福岡県,福岡市博多区,博多駅前１丁目２３番２号ＰａｒｋＦｒｏｎｔ博多駅前１丁目５Ｆ－Ｂ,,40,132,8120011,,,,,,,2023-11-17,1,,,,,ブイオールド,0
2018,7320001020149,新規,0,2023-11-17,2023-11-17,株式会社Ｎ．Ｆ．Ｃｒｅａｔｅ,,株式会社,大分県,大分市,大字寒田８１１番地７,,44,201,8701123,,,,,,,2023-11-17,1,,,,,エヌエフクリエイト,0
2019,7330001031475,新規,0,2023-11-17,2023-11-17,株式会社トーシン,,株式会社,熊本県,山鹿市,山鹿１６０９番地,,43,208,8610501,,,,,,,2023-11-17,1,,,,,トーシン,0
2022,7340001026086,新規,0,2023-11-17,2023-11-17,株式会社アップ,,株式会社,鹿児島県,鹿児島市,郡元３丁目４－３－２０２,,46,201,8900065,,,,,,,2023-11-17,1,,,,,アップ,0
2023,7350001018660,新規,0,2023-11-17,2023-11-17,株式会社宝夢ゴルフスタジアム,,株式会社,宮崎県,児湯郡都農町,大字川北１８８８６－２,,45,406,8891201,,,,,,,2023-11-17,1,,,,,ホウムゴルフスタジアム,0
2029,7370003006380,新規,0,2023-11-17,2023-11-17,合同会社東立物流,,合同会社,宮城県,登米市,石越町南郷字小谷地前１１０番地,,04,212,9894703,,,,,,,2023-11-17,1,,,,,トウリツブツリュウ,0
2032,7410001013647,新規,0,2023-11-17,2023-11-17,株式会社ダイヤホールディングス,,株式会社,秋田県,大仙市,大曲西根字上野１４０番地１,,05,212,0140072,,,,,,,2023-11-17,1,,,,,ダイヤホールディングス,0
2037,7430001090461,新規,0,2023-11-17,2023-11-17,株式会社ｈｉｍａｒｉ,,株式会社,北海道,小樽市,若松１丁目８番３号－１０１,,01,203,0470017,,,,,,,2023-11-17,1,,,,,ヒマリ,0
2039,7430003015656,新規,0,2023-11-17,2023-11-17,Ｅｄｕｖｅｎｔｓ合同会社,,合同会社,北海道,札幌市南区,中ノ沢１丁目５－７,,01,106,0050831,,,,,,,2023-11-17,1,,,,,エデュベンツ,0
2044,7700150122137,新規,0,2023-11-17,2023-11-17,Ｇｕａｎｇｚｈｏｕ　ＸｉａｏＸｕｅ　Ｅ－Ｃｏｍｍｅｒｃｅ　Ｔｅｃｈｎｏｌｏｇｙ　Ｃｏ．，Ｌｔｄ,,外国会社等,,,,,,,,ｙｕｅｘｉｕｑｕ　ｓｈｕｉｙｉｎｌｕ　１１９ｈａｏ　ｘｉｎｇｇｕａｎｇｙｉｎｇｊｉｎｇ１６ｃｅｎｇ２１８４ｈａｏ　Ｇｕａｎｇｚｈｏｕ　Ｇｕａｎｇｄｏｎｇ　５１００００　ＣＮ,,,,,,2023-11-17,1,,,,,グワンジヨウシヤオシユエデイエンズーシヤンウーコージーヨウシエンゴンスー,0
2045,7700150122145,新規,0,2023-11-17,2023-11-17,Ｓｈａｎｘｉ　Ｙｉｍｅｎｇ　Ｔｒａｄｉｎｇ　Ｃｏ．，Ｌｔｄ．,,外国会社等,,,,,,,,Ｎｏ．１１１７，１１ｔｈ　Ｆｌｏｏｒ，Ｂｕｉｌｄｉｎｇ　１，Ｔｏｒｃｈ　Ｐｉｏｎｅｅｒｉｎｇ　Ｂｕｉｌｄｉｎｇ，Ｎｏ．３０６，Ｃｈａｎｇｚｈｉ　Ｒｏａｄ，Ｘｕｅｆｕ　Ｉｎｄｕｓｔｒｉａｌ　Ｐａｒｋ，Ｓｈａｎｘｉ　Ｔｒａｎｓｆｏｒｍａｔｉｏｎ　Ｃｏｍｐｒｅｈｅｎｓｉｖｅ　Ｒｅｆｏｒｍ　Ｄｅｍｏｎｓｔｒａｔｉｏｎ　Ｚｏｎｅ,,,,,,2023-11-17,1,,,,,シヤンシーイーモンシヤンマオヨウシエンゴンスー,0
2046,7700150122153,新規,0,2023-11-17,2023-11-17,ＮｉｎｇＢｏ　ＭａｉＫｅ　Ｍｅｄｉｃａｌ　Ｉｎｓｔｒｕｍｅｎｔ　Ｃｏ．，Ｌｔｄ,,外国会社等,,,,,,,,Ｊｉａｎｇｂｅｉ　Ｑｕ，Ｊｉａｎｇｂｅｉ　ｄａ　ｄａｏ，１６８ｈａｏ　１２８　ｚｈｕａｎｇ，２ｃｅ　Ｎｉｎｇｂｏ　Ｚｈｅｊｉａｎｇ　３１５０００　ＣＮ,,,,,,2023-11-17,1,,,,,ニンボーマイコーイーリヤオチーシエヨウシエンゴンスー,0
2047,7700150122161,新規,0,2023-11-17,2023-11-17,Ｓｕｚｈｏｕ　Ｍｏｓｅｎｓ　Ｔｅｃｈｎｏｌｏｇｙ　ＬＭＴ．Ｃｏ,,外国会社等,,,,,,,,Ｒｏｏｍ　１－２０２９，Ｎｏ．８３３　Ｘｉａｎｇｃｈｅｎｇ　Ａｖｅｎｕｅ，Ｘｉａｎｇｃｈｅｎｇ　Ｄｉｓｔｒｉｃｔ，Ｓｕｚｈｏｕ　Ｊｉａｎｇｓｕ　２１５１３１　ＣＮ,,,,,,2023-11-17,1,,,,,スージヨウメイシヨンシヤンノンシヨンタイノンイエコージーヨウシエンゴンスー,0
2056,8010001240108,新規,0,2023-11-17,2023-11-17,瑞豊株式会社,,株式会社,東京都,中央区,入船１丁目９番８号ピエノアーク入船３０４室,,13,102,1040042,,,,,,,2023-11-17,1,,,,,ルイフォン,0
2057,8010001240157,新規,0,2023-11-17,2023-11-17,株式会社３６ｄｅｓｉｇｎ,,株式会社,東京都,中央区,新富２丁目１４番５－２０２号,,13,102,1040041,,,,,,,2023-11-17,1,,,,,スリーシックスデザイン,0
2058,8010001240181,新規,0,2023-11-17,2023-11-17,ニューアイランド株式会社,,株式会社,東京都,千代田区,平河町１丁目４番１５号ＶＯＲＴ麹町３階,,13,101,1020093,,,,,,,2023-11-17,1,,,,,ニューアイランド,0
2059,8010001240198,新規,0,2023-11-17,2023-11-17,株式会社フォトジェニック,,株式会社,東京都,中央区,日本橋室町１丁目１１番１２号日本橋水野ビル７階,,13,102,1030022,,,,,,,2023-11-17,1,,,,,フォトジェニック,0
2068,8010103002257,新規,0,2023-11-17,2023-11-17,合同会社キューブ,,合同会社,東京都,八王子市,打越町１５３２番地１１４－１０２,,13,201,1920911,,,,,,,2023-11-17,1,,,,,,0
2076,8010401178600,新規,0,2023-11-17,2023-11-17,株式会社Ｃｈａｉｒｓ,,株式会社,東京都,港区,南青山５丁目３番５号,,13,103,1070062,,,,,,,2023-11-17,1,,,,,チェアーズ,0
2084,8010501051376,新規,0,2023-11-17,2023-11-17,東京東平株式会社,,株式会社,東京都,台東区,下谷２丁目３－１６－１０２,,13,106,1100004,,,,,,,2023-11-17,1,,,,,トウキョウトウヘイ,0
2085,8010501051384,新規,0,2023-11-17,2023-11-17,ＰＰＭ株式会社,,株式会社,東京都,台東区,浅草７丁目６番３号テンフィールドビル,,13,106,1110032,,,,,,,2023-11-17,1,,,,,ピーピエム,0
2093,8010701045145,新規,0,2023-11-17,2023-11-17,株式会社ＢａｙｓｉｄｅＤｒｅａｍ,,株式会社,東京都,品川区,東品川１丁目１番１１号,,13,109,1400002,,,,,,,2023-11-17,1,,,,,ベイサイドドリーム,0
2100,8010801034519,新規,0,2023-11-17,2023-11-17,株式会社一代,,株式会社,東京都,大田区,池上８丁目４番１０－６０４号,,13,111,1460082,,,,,,,2023-11-17,1,,,,,イチダイ,0
2107,8011001158298,新規,0,2023-11-17,2023-11-17,株式会社ビジネスエナジー,,株式会社,東京都,渋谷区,円山町５番５号Ｎａｖｉ渋谷Ｖ３階,,13,113,1500044,,,,,,,2023-11-17,1,,,,,ビジネスエナジー,0
2114,8011101105167,新規,0,2023-11-17,2023-11-17,Ａｓｔｅｒｏｉｄｓ株式会社,,株式会社,東京都,新宿区,上落合１丁目５番１３号フェリーチェＭ１０１,,13,104,1610034,,,,,,,2023-11-17,1,,,,,アステロイド,0
2120,8011601027290,新規,0,2023-11-17,2023-11-17,株式会社Ｋ＆ＹＯＵ,,株式会社,東京都,練馬区,平和台１丁目１６番４号,,13,120,1790083,,,,,,,2023-11-17,1,,,,,ケーアンドユー,0
2125,8011703003660,新規,0,2023-11-17,2023-11-17,光輝合同会社,,合同会社,東京都,江戸川区,篠崎町１丁目１６－１,,13,123,1330061,,,,,,,2023-11-17,1,,,,,コウキ,0
2129,8011801043360,新規,0,2023-11-17,2023-11-17,株式会社Ｆｅｒｖｅｎｔ,,株式会社,東京都,足立区,千住４丁目１０番１号－９０３号,,13,121,1200034,,,,,,,2023-11-17,1,,,,,フェルベン,0
2149,8020001154496,新規,0,2023-11-17,2023-11-17,株式会社まつはし笑店,,株式会社,神奈川県,横浜市南区,新川町２丁目４番地,,14,105,2320027,,,,,,,2023-11-17,1,,,,,マツハシショウテン,0
2151,8020003025002,新規,0,2023-11-17,2023-11-17,フレッド合同会社,,合同会社,神奈川県,横浜市旭区,さちが丘１０４番地４６,,14,112,2410822,,,,,,,2023-11-17,1,,,,,フレッド,0
2153,8021001080757,新規,0,2023-11-17,2023-11-17,株式会社湘南高齢者住宅紹介センター,,株式会社,神奈川県,藤沢市,藤沢２２３番地の２,,14,205,2510052,,,,,,,2023-11-17,1,,,,,ショウナンコウレイシャジュウタクショウカイセンター,0
2154,8021001080765,新規,0,2023-11-17,2023-11-17,株式会社ＤＲＥＡＭＲＩＳＥ,,株式会社,神奈川県,平塚市,紅谷町１６－２１ロイヤル平塚４０３,,14,203,2540043,,,,,,,2023-11-17,1,,,,,ドリームライズ,0
2156,8021003013814,新規,0,2023-11-17,2023-11-17,合同会社湘南グローバル産業,,合同会社,神奈川県,平塚市,御殿４丁目１番４９－８０２号ライオンズガーデン湘南平塚,,14,203,2540061,,,,,,,2023-11-17,1,,,,,ショウナングローバルサンギョウ,0
2176,8030003023013,新規,0,2023-11-17,2023-11-17,合同会社Ｆｉｒｓｔ　Ｔｈｉｎｇｓ,,合同会社,埼玉県,さいたま市岩槻区,城南５丁目６番４４号,,11,110,3390043,,,,,,,2023-11-17,1,,,,,ファーストスィングス,0
2183,8040001130966,新規,0,2023-11-17,2023-11-17,株式会社飯沼鋼業,,株式会社,千葉県,船橋市,本中山４丁目１８番１５－３号,,12,204,2730035,,,,,,,2023-11-17,1,,,,,イイヌマコウギョウ,0
2184,8040001130999,新規,0,2023-11-17,2023-11-17,株式会社燕,,株式会社,千葉県,市原市,磯ケ谷８番地１１,,12,219,2900204,,,,,,,2023-11-17,1,,,,,ツバメ,0
2193,8050001053844,新規,0,2023-11-17,2023-11-17,株式会社医想空間研究所,,株式会社,茨城県,つくば市,春日２丁目４１番３号Ｂ１０５号室,,08,220,3050821,,,,,,,2023-11-17,1,,,,,イソウクウカンケンキュウジョ,0
2197,8070001041079,新規,0,2023-11-17,2023-11-17,株式会社ｋｕｂｏｔａ　ｙａ,,株式会社,群馬県,伊勢崎市,本関町１２２８番地５,,10,204,3720016,,,,,,,2023-11-17,1,,,,,クボタヤ,0
2198,8070001041087,新規,0,2023-11-17,2023-11-17,株式会社Ｌｅｓ　Ｅｃｈｏｓ,,株式会社,群馬県,太田市,大原町１２８３番地９号,,10,205,3792304,,,,,,,2023-11-17,1,,,,,,0
2201,8070003005164,新規,0,2023-11-17,2023-11-17,ハナントレーディング合同会社,,合同会社,群馬県,邑楽郡千代田町,大字舞木２７６９－１,,10,523,3700504,,,,,,,2023-11-17,1,,,,,ハナントレーディング,0
2206,8080001025980,新規,0,2023-11-17,2023-11-17,株式会社ＮＫ,,株式会社,静岡県,静岡市駿河区,登呂３丁目３番Ｂ－１１０７号,,22,102,4228033,,,,,,,2023-11-17,1,,,,,エヌケー,0
2207,8080101024346,新規,0,2023-11-17,2023-11-17,株式会社ＳＰｉＲｉＴ　ＢＯＭＢ,,株式会社,静岡県,三島市,栄町１１番１号,,22,206,4110846,,,,,,,2023-11-17,1,,,,,スピリットボム,0
2216,8110003005218,新規,0,2023-11-17,2023-11-17,合同会社ｃｒａｆｔ　ｍａｐ,,合同会社,新潟県,十日町市,高田町３丁目西１０３番地９,,15,210,9480065,,,,,,,2023-11-17,1,,,,,クラフトマップ,0
2226,8120001259863,新規,0,2023-11-17,2023-11-17,株式会社ＫＩＮＧＤＯＭ,,株式会社,大阪府,大阪市鶴見区,鶴見１丁目６番１２５号ＫＩＮＧＧＹＭ,,27,124,5380053,,,,,,,2023-11-17,1,,,,,キングダム,0
2229,8120005024000,新規,0,2023-11-17,2023-11-17,一般社団法人インフラドローン協会,,その他の設立登記法人,大阪府,大阪市城東区,蒲生４丁目１７番５号,,27,118,5360016,,,,,,,2023-11-17,1,,,,,インフラドローンキョウカイ,0
2231,8120901048374,新規,0,2023-11-17,2023-11-17,株式会社ＫｏＮｅｘｔ,,株式会社,大阪府,吹田市,五月が丘西３－２４メイカーサ千里１０１,,27,205,5650833,,,,,,,2023-11-17,1,,,,,オネスト,0
2233,8120903004920,新規,0,2023-11-17,2023-11-17,ＧＯＮＥＴ合同会社,,合同会社,大阪府,摂津市,鳥飼西２丁目２５番１４号ＴＥＫＫＥＮ,,27,224,5660072,,,,,,,2023-11-17,1,,,,,ゴネット,0
2234,8120903004929,新規,0,2023-11-17,2023-11-17,合同会社ＳＫサポート,,合同会社,大阪府,吹田市,千里山竹園１丁目１２番１４号,,27,205,5650852,,,,,,,2023-11-17,1,,,,,エスケーサポート,0
2236,8122001037571,新規,0,2023-11-17,2023-11-17,株式会社ＨＥＡＴ,,株式会社,大阪府,八尾市,植松町７丁目１１番１３－１０６号,,27,212,5810084,,,,,,,2023-11-17,1,,,,,ヒート,0
2237,8122005003719,新規,0,2023-11-17,2023-11-17,一般社団法人御厨南自治会,,その他の設立登記法人,大阪府,東大阪市,御厨南２丁目６番２７号,,27,227,5770034,,,,,,,2023-11-17,1,,,,,ミクリヤミナミジチカイ,0
2240,8130001075748,新規,0,2023-11-17,2023-11-17,株式会社仁葵,,株式会社,京都府,京都市南区,吉祥院三ノ宮西町１番地メロディーハイム西大路デュオノワール７０４,,26,107,6018318,,,,,,,2023-11-17,1,,,,,ニキ,0
2241,8130001075756,新規,0,2023-11-17,2023-11-17,株式会社ＡＩＲ．ｃｏｎ,,株式会社,京都府,京都市下京区,中堂寺坊城町２番地ＢＥＡＵＴＹ・ＢＵＩＬＤＩＮＧ・ＴＡＭＢＡＧＵＣＨＩ・３Ａ,,26,106,6008811,,,,,,,2023-11-17,1,,,,,エアードットコン,0
2251,8140001132390,新規,0,2023-11-17,2023-11-17,株式会社Ｃｏｏｌ　Ｌｉｆｅ　Ｃｏｍｐａｓｓ,,株式会社,兵庫県,西宮市,津門大箇町１０番１８号,,28,204,6638243,,,,,,,2023-11-17,1,,,,,クールライフコンパス,0
2252,8140001132416,新規,0,2023-11-17,2023-11-17,株式会社ＣＯＤＩＱ,,株式会社,兵庫県,神戸市中央区,磯辺通１丁目１番１８号カサベラ国際プラザビル７０７号室,,28,110,6510084,,,,,,,2023-11-17,1,,,,,コーディック,0
2256,8140003019818,新規,0,2023-11-17,2023-11-17,合同会社Ｈｅａｌｔｈ　Ｇｅｎｅｒａｌ,,合同会社,兵庫県,西宮市,産所町８番６－１号,,28,204,6620978,,,,,,,2023-11-17,1,,,,,ヘルスジェネラル,0
2257,8140003019834,新規,0,2023-11-17,2023-11-17,合同会社丹波農産,,合同会社,兵庫県,丹波篠山市,井ノ上３２８番地２,,28,221,6692416,,,,,,,2023-11-17,1,,,,,タンバノウサン,0
2261,8160001025510,新規,0,2023-11-17,2023-11-17,株式会社ＰＲＯＢ,,株式会社,滋賀県,大津市,萱野浦１８番７号,,25,201,5202143,,,,,,,2023-11-17,1,,,,,プロブ,0
2266,8180001158928,新規,0,2023-11-17,2023-11-17,株式会社Ｂ＆Ｋ,,株式会社,愛知県,東海市,高横須賀町４丁目１３１番地,,23,222,4770037,,,,,,,2023-11-17,1,,,,,ビイアンドケイ,0
2267,8180001158960,新規,0,2023-11-17,2023-11-17,株式会社ｒｅ・ｆｉｎａｎｃｅ,,株式会社,愛知県,知多郡東浦町,大字生路字梨ノ木２２番地の１,,23,442,4702104,,,,,,,2023-11-17,1,,,,,リファイナンス,0
2268,8180001158985,新規,0,2023-11-17,2023-11-17,株式会社エスティージー,,株式会社,愛知県,名古屋市昭和区,御器所３丁目１０番５号,,23,107,4660051,,,,,,,2023-11-17,1,,,,,エスティージー,0
2269,8180001158993,新規,0,2023-11-17,2023-11-17,ＢＹ　ＣＯＮＮＥＣＴＩＦＹ株式会社,,株式会社,愛知県,名古屋市中村区,宿跡町１丁目１１番地シティコープ本陣通４０１号,,23,105,4530067,,,,,,,2023-11-17,1,,,,,ビーワイコネクティファイ,0
2273,8180003026018,新規,0,2023-11-17,2023-11-17,Ｓ＆Ｓ合同会社,,合同会社,愛知県,名古屋市西区,新道１丁目１８番１６号,,23,104,4510043,,,,,,,2023-11-17,1,,,,,エスアンドエス,0
2281,8260001038493,新規,0,2023-11-17,2023-11-17,花の森の不動産株式会社,,株式会社,岡山県,岡山市北区,足守１７２８番地１,,33,101,7011463,,,,,,,2023-11-17,1,,,,,ハナノモリノフドウサン,0
2284,8280001009071,新規,0,2023-11-17,2023-11-17,カーショップ石見株式会社,,株式会社,島根県,邑智郡邑南町,中野９９７番地１,,32,449,6960102,,,,,,,2023-11-17,1,,,,,カーショップイワミ,0
2288,8290001103773,新規,0,2023-11-17,2023-11-17,株式会社未来健康プランニング,,株式会社,福岡県,福岡市博多区,美野島３丁目８番１０－１２０２号,,40,132,8120017,,,,,,,2023-11-17,1,,,,,ミライケンコウプランニング,0
2292,8290005019198,新規,0,2023-11-17,2023-11-17,ＮＰＯ法人シン・フクシ,,その他の設立登記法人,福岡県,福岡市早良区,高取２丁目１６番２４号,,40,137,8140011,,,,,,,2023-11-17,1,,,,,シンフクシ,0
2297,8310001018713,新規,0,2023-11-17,2023-11-17,ＡＥＴＯＣ株式会社,,株式会社,長崎県,佐世保市,中里町１８２８番地１Ａ棟２０２,,42,202,8580904,,,,,,,2023-11-17,1,,,,,エートック,0
2304,8360001032833,新規,0,2023-11-17,2023-11-17,株式会社ＫＳＧ那覇,,株式会社,沖縄県,那覇市,久米２丁目３番１５号ＣＯＩ那覇ビル５Ｆ,,47,201,9000033,,,,,,,2023-11-17,1,,,,,ケーエスジーナハ,0
2307,8370001050636,新規,0,2023-11-17,2023-11-17,株式会社５３ｗｏｒｋｓ,,株式会社,宮城県,仙台市青葉区,一番町１丁目１６番１２－５０６号,,04,101,9800811,,,,,,,2023-11-17,1,,,,,コミーワークス,0
2312,8380003005620,新規,0,2023-11-17,2023-11-17,合同会社ＴＯＲＩＮＯＳ,,合同会社,福島県,郡山市,並木２丁目１１番地の７ネオハイツ並木ＩＩ６０７号,00132707,07,203,9638026,,,,,,,2023-11-17,1,,,,,トリノス,0
2324,8430003015647,新規,0,2023-11-17,2023-11-17,合同会社かたつむり,,合同会社,北海道,室蘭市,高砂町１丁目５６番２号,,01,205,0500072,,,,,,,2023-11-17,1,,,,,カタツムリ,0
2327,8470001019902,新規,0,2023-11-17,2023-11-17,株式会社宮脇経営サポート,,株式会社,香川県,高松市,香西西町１７０－２９,,37,201,7618015,,,,,,,2023-11-17,1,,,,,ミヤワキケイエイサポート,0
2328,8470005006533,新規,0,2023-11-17,2023-11-17,一般社団法人日本芸術士協会,,その他の設立登記法人,香川県,高松市,塩上町１丁目２番７号,,37,201,7600062,,,,,,,2023-11-17,1,,,,,ニホンゲイジュツシキョウカイ,0
2330,8480003002046,新規,0,2023-11-17,2023-11-17,合同会社ヒカリ,,合同会社,徳島県,徳島市,三軒屋町外２４番地１９,,36,201,7708025,,,,,,,2023-11-17,1,,,,,ヒカリ,0
2335,8700150122144,新規,0,2023-11-17,2023-11-17,Ｓｈａｎｘｉ　Ｈｕａｙｕｅ　Ｙｉｂｏ　Ｔｒａｄｉｎｇ　Ｃｏ．，Ｌｔｄ．,,外国会社等,,,,,,,,Ｎｏ．１１１２，１１ｔｈ　Ｆｌｏｏｒ，Ｂｕｉｌｄｉｎｇ　１，Ｔｏｒｃｈ　Ｐｉｏｎｅｅｒｉｎｇ　Ｂｕｉｌｄｉｎｇ，Ｎｏ．３０６，Ｃｈａｎｇｚｈｉ　Ｒｏａｄ，Ｘｕｅｆｕ　Ｉｎｄｕｓｔｒｉａｌ　Ｐａｒｋ，Ｓｈａｎｘｉ　Ｔｒａｎｓｆｏｒｍａｔｉｏｎ　Ｃｏｍｐｒｅｈｅｎｓｉｖｅ　Ｒｅｆｏｒｍ　Ｄｅｍｏｎｓｔｒａｔｉｏｎ　Ｚｏｎｅ,,,,,,2023-11-17,1,,,,,シヤンシーフワーユエイーボーシヤンマオヨウシエンゴンスー,0
2336,8700150122152,新規,0,2023-11-17,2023-11-17,ｊｉｎｊｉａｎｇｓｈｉｌｉｎｇｈａｎｇｄｕｉｚｈａｎｇｘｉｅｙｅｙｏｕｘｉａｎｇｏｎｇｓｉ,,外国会社等,,,,,,,,ｊｉｎｊｉａｎｇｓｈｉｃｈｅｎｄａｉｚｈｅｎｈｕａｔｉｎｇｋｏｕｃｕｎｘｉｎｇｚｈｅｎｂｅｉｌｕ１３２ｈａｏ　ｑｕａｎｚｈｏｕｓｈｉ　ｆｕｊｉａｎｓｈｅｎｇ,,,,,,2023-11-17,1,,,,,ジンジヤンシーリンハンドウイジヤンシエイエヨウシエンゴンスー,0
2337,8700150122160,新規,0,2023-11-17,2023-11-17,ｑｕａｎ　ｚｈｏｕ　ｓｈｉ　ｙｉ　ｇｕａｎｇ　ｗａｎｇ　ｌｕｏ　ｋｅ　ｊｉ　ｙｏｕ　ｘｉａｎ　ｇｏｎｇ　ｓｉ,,外国会社等,,,,,,,,３　８０５　ｈａｏｓｈｅｎｇｈｕａｙｕａｎ　ｑｕａｎｘｉｕ　ｒｏａｄ　ｑｕａｎｘｉｕ　ｓｔｒｅｅｔ　ｆｅｎｇｚｅ　ｄｉｓｔｒｉｃｔ　ｑｕａｎｚｈｏｕ　ｃｉｔｙ　ｆｕｊｉａｎ　ｐｒｏｖｉｎｃｅ,,,,,,2023-11-17,1,,,,,チユエンジヨウシーイーグワンワンルオコージーヨウシエンゴンスー,0
2338,8700150122169,新規,0,2023-11-17,2023-11-17,Ｈｕａｃｈｅｎｇ　Ｎｅｔｗｏｒｋ　（ＨＫ）　Ｔｅｃｈｎｏｌｏｇｙ　Ｌｉｍｉｔｅｄ,,外国会社等,,,,,,,,１３／Ｆ，Ｇｌｏｕｃｅｓｔｅｒ　Ｔｏｗｅｒ，Ｔｈｅ　Ｌａｎｄｍａｒｋ　１５　Ｑｕｅｅｎ’ｓ　Ｒｏａｄ　Ｃｅｎｔｒａｌ，Ｈｏｎｇ　Ｋｏｎｇ,,,,,,2023-11-17,1,,,,,フアチエンネツトワークホンコンテクノロジーカンパニリミテツド,0
2348,9010001240065,新規,0,2023-11-17,2023-11-17,ユーケーアイ株式会社,,株式会社,東京都,千代田区,内神田２丁目１３番３号滝口ビル４階,,13,101,1010047,,,,,,,2023-11-17,1,,,,,ユーケーアイ,0
2349,9010001240131,新規,0,2023-11-17,2023-11-17,株式会社ＹＯＨＡＫＵ,,株式会社,東京都,千代田区,神田神保町１丁目４１,,13,101,1010051,,,,,,,2023-11-17,1,,,,,ヨハク,0
2350,9010001240156,新規,0,2023-11-17,2023-11-17,京睿株式会社,,株式会社,東京都,中央区,新川１丁目１４番５号金盃第３ビル,,13,102,1040033,,,,,,,2023-11-17,1,,,,,キョウエイ,0
2351,9010001240189,新規,0,2023-11-17,2023-11-17,株式会社ＡｒｔＷｏｒｋｅｒ,,株式会社,東京都,千代田区,九段南１丁目５番６号りそな九段ビル５階ＫＳフロア,,13,101,1020074,,,,,,,2023-11-17,1,,,,,アートワーカー,0
2356,9010003042229,新規,0,2023-11-17,2023-11-17,ＷｉｓｔｅｒｉａＶｅｎｔｕｒｅｓＪａｐａｎ合同会社,,合同会社,東京都,中央区,銀座１丁目２２番１１号銀座大竹ビジデンス２Ｆ,,13,102,1040061,,,,,,,2023-11-17,1,,,,,ウィステリアベンチャーズジャパン,0
2357,9010003042253,新規,0,2023-11-17,2023-11-17,ＳＴＡＣＫ　ＯＣＭ　ＦＭ合同会社,,合同会社,東京都,中央区,京橋２丁目２番１号京橋エドグラン２６階,,13,102,1040031,,,,,,,2023-11-17,1,,,,,スタックオーシーエムエフエム,0
2358,9010005037532,新規,0,2023-11-17,2023-11-17,ソーラーリストホールディングス一般社団法人,,その他の設立登記法人,東京都,中央区,八丁堀４丁目２番１０号ＡＯＪ税理士法人内,,13,102,1040032,,,,,,,2023-11-17,1,,,,,ソーラーリストホールディングス,0
2366,9010401178608,新規,0,2023-11-17,2023-11-17,株式会社Ｐ．Ｐ商事,,株式会社,東京都,港区,高輪２丁目１６番５２－５０８号,,13,103,1080074,,,,,,,2023-11-17,1,,,,,,0
2372,9010501051391,新規,0,2023-11-17,2023-11-17,ラカラ・ジャパン・テクノロジー株式会社,,株式会社,東京都,台東区,台東１丁目２４番９号ブライト秋葉原Ｂ１Ｆ,,13,106,1100016,,,,,,,2023-11-17,1,,,,,ラカラジャパンテクノロジー,0
2377,9010701045144,新規,0,2023-11-17,2023-11-17,ＬＩＢＥＲＡＳ株式会社,,株式会社,東京都,品川区,大井５丁目１６番５号,,13,109,1400014,,,,,,,2023-11-17,1,,,,,リベラス,0
2384,9010901054218,新規,0,2023-11-17,2023-11-17,株式会社スペシャルズ,,株式会社,東京都,世田谷区,大蔵１丁目１４番３－２０３号,,13,112,1570074,,,,,,,2023-11-17,1,,,,,スペシャルズ,0
2389,9011001158289,新規,0,2023-11-17,2023-11-17,イリオスター株式会社,,株式会社,東京都,渋谷区,代官山町８番７号ＤＡＩＷＡ代官山ビル,,13,113,1500034,,,,,,,2023-11-17,1,,,,,イリオスター,0
2390,9011001158297,新規,0,2023-11-17,2023-11-17,株式会社ａｔｏｍｉｃ　ｌｉｎｋ,,株式会社,東京都,渋谷区,渋谷２丁目１９－１５宮益坂ビルディング６０９,,13,113,1500002,,,,,,,2023-11-17,1,,,,,アトミックリンク,0
2400,9011103013763,新規,0,2023-11-17,2023-11-17,合同会社モンブラン,,合同会社,東京都,新宿区,歌舞伎町１丁目１番１９号,,13,104,1600021,,,,,,,2023-11-17,1,,,,,モンブラン,0
2409,9011403004157,新規,0,2023-11-17,2023-11-17,ＨＯＮＥＳＴ合同会社,,合同会社,東京都,板橋区,赤塚７丁目１５－７－１０１,,13,119,1750092,,,,,,,2023-11-17,1,,,,,オネスト,0
2411,9011803005944,新規,0,2023-11-17,2023-11-17,いしずえ設計コンサルタント合同会社,,合同会社,東京都,葛飾区,四つ木１丁目１５番７号ＢＩＺｃｏｍｆｏｒｔ四ツ木０２,,13,122,1240011,,,,,,,2023-11-17,1,,,,,イシズエセッケイコンサルタント,0
2415,9012801022766,新規,0,2023-11-17,2023-11-17,株式会社ＡＮ　ＣＯＭＰＡＮＹ,,株式会社,東京都,国立市,西１丁目１３番地の１９フェリス国立２０１,,13,215,1860005,,,,,,,2023-11-17,1,,,,,エーエヌカンパニー,0
2421,9013301051636,新規,0,2023-11-17,2023-11-17,株式会社Ｆｅａｓｉｂｌｅ,,株式会社,東京都,豊島区,池袋２丁目７８番５号,,13,116,1710014,,,,,,,2023-11-17,1,,,,,フィージブル,0
2434,9020001154495,新規,0,2023-11-17,2023-11-17,株式会社ＥＳＳＥＮＣＥ,,株式会社,神奈川県,横浜市港北区,大曽根台１０番６－２２号,,14,109,2220004,,,,,,,2023-11-17,1,,,,,エッセンス,0
2439,9021001080764,新規,0,2023-11-17,2023-11-17,株式会社ジャイディー,,株式会社,神奈川県,茅ヶ崎市,新栄町７番５号ＣＨＩＧＡＳＡＫＩＢｉｚ－Ｎａｚ４階Ａ区画,,14,207,2530044,,,,,,,2023-11-17,1,,,,,ジャイディー,0
2440,9021001080772,新規,0,2023-11-17,2023-11-17,ＡＮＫＡＩ株式会社,,株式会社,神奈川県,厚木市,上荻野６８０番地２－２,,14,212,2430201,,,,,,,2023-11-17,1,,,,,アンカイ,0
2451,9030001157035,新規,0,2023-11-17,2023-11-17,株式会社コネクト,,株式会社,埼玉県,所沢市,上新井２丁目３番地の５,,11,208,3591142,,,,,,,2023-11-17,1,,,,,コネクト,0
2457,9040001130981,新規,0,2023-11-17,2023-11-17,株式会社Ｔ＆Ｌ,,株式会社,千葉県,千葉市中央区,春日２丁目２１番１０－７０１号,,12,101,2600033,,,,,,,2023-11-17,1,,,,,ティーアンドエル,0
2461,9040003023738,新規,0,2023-11-17,2023-11-17,ＬＩＭ合同会社,,合同会社,千葉県,千葉市中央区,生実町８３２番地３Ｂ棟,,12,101,2600813,,,,,,,2023-11-17,1,,,,,リム,0
2472,9070001041078,新規,0,2023-11-17,2023-11-17,株式会社アイサン,,株式会社,群馬県,高崎市,和田多中町３６３番地１,,10,202,3700844,,,,,,,2023-11-17,1,,,,,,0
2473,9070001041086,新規,0,2023-11-17,2023-11-17,株式会社ライフエージェンシー,,株式会社,群馬県,高崎市,下中居町４５５－３,,10,202,3700853,,,,,,,2023-11-17,1,,,,,,0
2481,9080101024345,新規,0,2023-11-17,2023-11-17,ＹＯＲＯＩＤＯ屋株式会社,,株式会社,静岡県,富士市,三ツ沢４０５番地の１,,22,210,4170855,,,,,,,2023-11-17,1,,,,,ヨロイドヤ,0
2486,9080401026850,新規,0,2023-11-17,2023-11-17,株式会社Ｃｏｎｎｅｃｔ　Ｉｎｎｏｖａｔｉｏｎ,,株式会社,静岡県,菊川市,下平川４９５８番地,,22,224,4371514,,,,,,,2023-11-17,1,,,,,コネクトイノベーション,0
2489,9090001018421,新規,0,2023-11-17,2023-11-17,心明クリエイション株式会社,,株式会社,山梨県,南都留郡富士河口湖町,小立５３７４－１,,19,430,4010302,,,,,,,2023-11-17,1,,,,,コアクリエイション,0
2492,9100003007263,新規,0,2023-11-17,2023-11-17,合同会社リンクス,,合同会社,長野県,小諸市,大字御影新田２４２１番地２２,,20,208,3840808,,,,,,,2023-11-17,1,,,,,リンクス,0
2498,9110003005217,新規,0,2023-11-17,2023-11-17,合同会社旬鮮直送越後尊美,,合同会社,新潟県,上越市,大和５丁目１番５号,,15,222,9430861,,,,,,,2023-11-17,1,,,,,シュンセンチョクソウエチゴタカミ,0
2511,9120001259887,新規,0,2023-11-17,2023-11-17,株式会社タツミアークスケアサービス,,株式会社,大阪府,大阪市生野区,中川西１丁目１７番１２号２階,,27,116,5440032,,,,,,,2023-11-17,1,,,,,タツミアークスケアサービス,0
2514,9120003025362,新規,0,2023-11-17,2023-11-17,合同会社深谷,,合同会社,大阪府,大阪市天王寺区,寺田町２丁目４－１３－２－Ｂ,,27,109,5430045,,,,,,,2023-11-17,1,,,,,フカヤ,0
2529,9130001075680,新規,0,2023-11-17,2023-11-17,ｄａｖｉｎｃｉ株式会社,,株式会社,京都府,八幡市,欽明台東３番地１Ｅ－１３０３号,,26,210,6148296,,,,,,,2023-11-17,1,,,,,ダヴィンチ,0
2530,9130001075714,新規,0,2023-11-17,2023-11-17,株式会社地創トラスト,,株式会社,京都府,亀岡市,北町１４番地,,26,206,6210861,,,,,,,2023-11-17,1,,,,,チソウトラスト,0
2531,9130001075755,新規,0,2023-11-17,2023-11-17,株式会社ＢＬＥＮＤＥＲ’Ｓ,,株式会社,京都府,京都市左京区,岩倉木野町３番地７,,26,103,6060016,,,,,,,2023-11-17,1,,,,,ブレンダーズ,0
2540,9140001132415,新規,0,2023-11-17,2023-11-17,株式会社みやびコンサルタント,,株式会社,兵庫県,姫路市,北条永良町４３番地６,,28,201,6700946,,,,,,,2023-11-17,1,,,,,ミヤビコンサルタント,0
2545,9140005026778,新規,0,2023-11-17,2023-11-17,一般社団法人ＡＩマンション管理合同事務所,,その他の設立登記法人,兵庫県,尼崎市,西立花町１丁目２番３号,,28,202,6600054,,,,,,,2023-11-17,1,,,,,エイアイマンションカンリゴウドウジムショ,0
2547,9150003003118,新規,0,2023-11-17,2023-11-17,合同会社ＳＴＵＤＩＯ　ＭＩＴＺ,,合同会社,奈良県,北葛城郡王寺町,畠田２丁目８８,,29,425,6360021,,,,,,,2023-11-17,1,,,,,スタジオミッツ,0
2554,9180001158943,新規,0,2023-11-17,2023-11-17,株式会社ブライトン,,株式会社,愛知県,稲沢市,治郎丸石塚町１６番地,,23,220,4928135,,,,,,,2023-11-17,1,,,,,ブライトン,0
2555,9180001158984,新規,0,2023-11-17,2023-11-17,株式会社トレカＪａｐａｎ,,株式会社,愛知県,一宮市,今伊勢町本神戸字東出３５番地花水木Ｂ棟１０５号,,23,203,4910053,,,,,,,2023-11-17,1,,,,,トレカジャパン,0
2556,9180001159000,新規,0,2023-11-17,2023-11-17,ＹＡＱＯＯＢ＆ＳＯＮＳ株式会社,,株式会社,愛知県,名古屋市港区,当地一丁目１２１２番地１ＣＨ当地２０２号室,,23,111,4550000,,,,,,,2023-11-17,1,,,,,ヤクブアンドサンズ,0
2568,9200005013539,新規,0,2023-11-17,2023-11-17,特定非営利活動法人オーガニックスプレッドジャパン,,その他の設立登記法人,岐阜県,関市,神野３０５２番地２,,21,205,5013203,,,,,,,2023-11-17,1,,,,,オーガニックスプレッドジャパン,0
2594,9290805009686,新規,0,2023-11-17,2023-11-17,日本・スリランカ経済事業協同組合,,その他の設立登記法人,福岡県,北九州市小倉北区,田町１５番４号ビジネスブレイン田町３０１号,,40,106,8030817,,,,,,,2023-11-17,1,,,,,ニホンスリランカケイザイ,0
2603,9360001032832,新規,0,2023-11-17,2023-11-17,株式会社４７沖縄,,株式会社,沖縄県,那覇市,おもろまち２丁目８番３号,,47,201,9000006,,,,,,,2023-11-17,1,,,,,ヨンジュウナナ,0
2615,9420001018486,新規,0,2023-11-17,2023-11-17,株式会社トウキチ,,株式会社,青森県,弘前市,大字稔町１８番地９,,02,202,0368231,,,,,,,2023-11-17,1,,,,,トウキチ,0
2621,9430001090435,新規,0,2023-11-17,2023-11-17,桂山株式会社,,株式会社,北海道,札幌市中央区,南二十二条西８丁目３番６－１号,,01,101,0640922,,,,,,,2023-11-17,1,,,,,カツラヤマ,0
2622,9430001090451,新規,0,2023-11-17,2023-11-17,株式会社ジプロス,,株式会社,北海道,札幌市中央区,大通西２４丁目２番１号,,01,101,0640820,,,,,,,2023-11-17,1,,,,,ジプロス,0
2623,9430001090468,新規,0,2023-11-17,2023-11-17,杉原商事株式会社,,株式会社,北海道,札幌市東区,東雁来七条２丁目５番１号,,01,103,0070827,,,,,,,2023-11-17,1,,,,,スギハラショウジ,0
2628,9430003015654,新規,0,2023-11-17,2023-11-17,合同会社フロンティア・ソウル,,合同会社,北海道,札幌市白石区,平和通１２丁目北３番２６号アビロードＩＩ－１０３号,00132693,01,104,0030029,,,,,,,2023-11-17,1,,,,,フロンティアソウル,0
2636,9700150122143,新規,0,2023-11-17,2023-11-17,Ｓｈａｎｘｉ　Ｊｉａｎｙａｎｇ　Ｔｒａｄｉｎｇ　Ｃｏ．，Ｌｔｄ．,,外国会社等,,,,,,,,Ｒｏｏｍ　１１０１，１１ｔｈ　Ｆｌｏｏｒ，Ｂｌｏｃｋ　Ｂ，Ｂｕｉｌｄｉｎｇ　１，Ｎｏ．３０６，Ｃｈａｎｇｚｈｉ　Ｒｏａｄ，Ｘｕｅｆｕ　Ｉｎｄｕｓｔｒｉａｌ　Ｐａｒｋ，Ｓｈａｎｘｉ　Ｔｒａｎｓｆｏｒｍａｔｉｏｎ　Ｃｏｍｐｒｅｈｅｎｓｉｖｅ　Ｒｅｆｏｒｍ　Ｄｅｍｏｎｓｔｒａｔｉｏｎ　Ｚｏｎｅ,,,,,,2023-11-17,1,,,,,シヤンシージエンヤンシヤンマオヨウシエンゴンスー,0
2637,9700150122151,新規,0,2023-11-17,2023-11-17,ＧｕａｎｇＺｈｏｕ　ＷＯＮＰＥＴ　Ｃｏ．，Ｌｔｄ,,外国会社等,,,,,,,,ＢａｉＹｕｎ　Ｑｕ　ＹｕｎＪｉｎｇ　Ｌｕ　ＹｕｎＪｉａ　Ｊｉｅ　３　Ｈａｏ　５１８　Ｆａｎｇ　ＧｕａｎｇＺｈｏｕ　ＧｕａｎｇＤｏｎｇ　５１０５１０　ＣＮ,,,,,,2023-11-17,1,,,,,グワンジヨウシーワンピーチヨンウーヨンピンヨウシエンゴンスー,0
2638,9700150122168,新規,0,2023-11-17,2023-11-17,Ｙｉｗｕ　Ｇｕａｎｓｈｉ　Ｉｍｐｏｒｔ　ａｎｄ　Ｅｘｐｏｒｔ　Ｔｒａｄｉｎｇ　Ｃｏ．，Ｌｔｄ,,外国会社等,,,,,,,,Ｌｏｎｇｘｉ　Ｔｏｗｎ　Ｎｏ．９０１　Ｌｏｎｇｑｉ　Ｒｏａｄ　Ｎｏ．１　Ｂｕｌｉｄｉｎｇ　Ｓｅｃｏｎｄ　Ｆｌｏｏｒ　Ｒｏｏｍ　２０１　Ｙｉｗｕ　Ｚｈｅｊｉａｎｇ,,,,,,2023-11-17,1,,,,,イーウーカンシユニユウユシユツトレーテイングカンパニリミテツド,0
