sequenceNumber,corporateNumber,process,correct,updateDate,changeDate,name,nameImageId,kind,prefectureName,cityName,streetNumber,addressImageId,prefectureCode,cityCode,postCode,addressOutside,addressOutsideImageId,closeDate,closeCause,successorCorporateNumber,changeCause,assignmentDate,latest,enName,enPrefectureName,enCityName,enAddressOutside,furigana,hihyoji
1,1010001136931,登記記録の閉鎖等,0,2024-01-19,2024-01-16,株式会社ＥＣ‐ＣＵＢＥ　Ｉｎｎｏｖａｔｉｏｎｓ,,株式会社,東京都,千代田区,九段北１丁目４番５号７階北の丸グラスゲート,,13,101,1020073,,,2024-01-16,合併による解散等,1120001216342,令和６年１月１日大阪市北区梅田二丁目２番２２号株式会社イーシーキューブ（1120001216342）に合併し解散,2015-10-05,1,,,,,イーシーキューブイノベーションズ,0
17,1010401001405,登記記録の閉鎖等,0,2024-01-19,2024-01-10,アザブ光機株式会社,,株式会社,東京都,港区,麻布十番２丁目１３番１０号,,13,103,1060045,,,2024-01-10,清算の結了等,,,2015-10-05,1,,,,,アザブコウキ,0
18,1010401037242,登記記録の閉鎖等,0,2024-01-19,2024-01-16,株式会社ワークスタジオ,,株式会社,東京都,新宿区,原町２丁目２８番地１,,13,104,1620053,,,2024-01-16,清算の結了等,,,2015-10-05,1,,,,,,0
25,1010401138916,登記記録の閉鎖等,0,2024-01-19,2024-01-10,株式会社器官原基創生研究所,,株式会社,東京都,港区,海岸１丁目２番２０号,,13,103,1050022,,,2024-01-10,清算の結了等,,,2018-06-11,1,,,,,キカンゲンキソウセイケンキュウジョ,0
27,1010401169812,登記記録の閉鎖等,0,2024-01-19,2024-01-09,株式会社ウェルズゴルフマネージメント,,株式会社,東京都,港区,虎ノ門１丁目１番２０号虎ノ門実業会館,,13,103,1050001,,,2024-01-09,清算の結了等,,,2022-09-22,1,,,,,ウェルズゴルフマネージメント,0
45,1010701004867,登記記録の閉鎖等,0,2024-01-19,2024-01-19,白岩工業株式会社,,株式会社,神奈川県,横浜市港北区,綱島東３丁目１１番２７号,,14,109,2230052,,,2024-01-19,登記官による閉鎖,,,2015-10-05,1,,,,,,0
49,1010901001615,登記記録の閉鎖等,0,2024-01-19,2024-01-18,株式会社エーシーイー,,株式会社,東京都,世田谷区,成城２丁目１７番９号,,13,112,1570066,,,2024-01-18,登記官による閉鎖,,,2015-10-05,1,,,,,,0
50,1010901001986,登記記録の閉鎖等,0,2024-01-19,2024-01-18,株式会社エム・エイ・エス,,株式会社,東京都,世田谷区,等々力７丁目１４番７号,,13,112,1580082,,,2024-01-18,登記官による閉鎖,,,2015-10-05,1,,,,,,0
52,1010901004923,登記記録の閉鎖等,0,2024-01-19,2024-01-18,株式会社サワ・コーポレーション,,株式会社,東京都,世田谷区,羽根木１丁目１０番１７号,,13,112,1560042,,,2024-01-18,登記官による閉鎖,,,2015-10-05,1,,,,,サワコーポレーション,0
54,1010901013957,登記記録の閉鎖等,0,2024-01-19,2024-01-18,イットイット株式会社,,株式会社,東京都,世田谷区,桜新町２丁目２８番１６号,,13,112,1540015,,,2024-01-18,登記官による閉鎖,,,2015-10-05,1,,,,,,0
55,1010901016893,登記記録の閉鎖等,0,2024-01-19,2024-01-18,株式会社ＥＲＧＯ,,株式会社,東京都,世田谷区,弦巻４丁目１９番２０号ルミエール弦巻３０５,,13,112,1540016,,,2024-01-18,登記官による閉鎖,,,2015-10-05,1,,,,,,0
56,1010901020565,登記記録の閉鎖等,0,2024-01-19,2024-01-18,株式会社マドレーヌ,,株式会社,東京都,世田谷区,北沢２丁目１２番１０号,,13,112,1550031,,,2024-01-18,登記官による閉鎖,,,2015-10-05,1,,,,,,0
57,1010901028303,登記記録の閉鎖等,0,2024-01-19,2024-01-18,株式会社ゲンナイインターナショナル,,株式会社,東京都,世田谷区,岡本１丁目３５番４号,,13,112,1570076,,,2024-01-18,登記官による閉鎖,,,2015-10-05,1,,,,,,0
59,1010902002769,登記記録の閉鎖等,0,2024-01-19,2024-01-18,有限会社エフ・ディー自動車工業,,有限会社,東京都,世田谷区,喜多見１丁目２番１２号,,13,112,1570067,,,2024-01-18,登記官による閉鎖,,,2015-10-05,1,,,,,,0
60,1010902004212,登記記録の閉鎖等,0,2024-01-19,2024-01-18,有限会社上馬横山畳店,,有限会社,東京都,世田谷区,上馬１丁目３番１号,,13,112,1540011,,,2024-01-18,登記官による閉鎖,,,2015-10-05,1,,,,,,0
61,1010902026165,登記記録の閉鎖等,0,2024-01-19,2024-01-18,有限会社クリエイションプラン,,有限会社,東京都,世田谷区,太子堂４丁目６番２号,,13,112,1540004,,,2024-01-18,登記官による閉鎖,,,2015-10-05,1,,,,,,0
62,1011001061599,登記記録の閉鎖等,0,2024-01-19,2024-01-18,株式会社ＬＩＰ,,株式会社,東京都,渋谷区,神宮前６丁目６番８号２０２,,13,113,1500001,,,2024-01-18,清算の結了等,,,2015-10-05,1,,,,,リップ,0
65,1011001149683,登記記録の閉鎖等,0,2024-01-19,2024-01-17,株式会社チャージサポート,,株式会社,東京都,渋谷区,神宮前６丁目２３番４号桑野ビル２階,,13,113,1500001,,,2024-01-17,合併による解散等,2010901021018,令和６年１月１日東京都世田谷区池尻三丁目２１番２８号株式会社データサポート（2010901021018）に合併し解散,2022-09-07,1,,,,,チャージサポート,0
69,1011002007048,登記記録の閉鎖等,0,2024-01-19,2024-01-18,有限会社石源,,有限会社,東京都,渋谷区,桜丘町１７番１２号,,13,113,1500031,,,2024-01-18,清算の結了等,,,2015-10-05,1,,,,,,0
82,1011302006798,登記記録の閉鎖等,0,2024-01-19,2024-01-10,有限会社ながふじ,,有限会社,東京都,杉並区,阿佐谷北２丁目１０番１１号,,13,115,1660001,,,2024-01-10,清算の結了等,,,2015-10-05,1,,,,,ナガフジ,0
85,1011601001582,登記記録の閉鎖等,0,2024-01-19,2024-01-15,木村金属株式会社,,株式会社,東京都,練馬区,豊玉南２丁目１１番１号,,13,120,1760014,,,2024-01-15,清算の結了等,,,2015-10-05,1,,,,,キムラキンゾク,0
98,1013102005278,登記記録の閉鎖等,0,2024-01-19,2024-01-18,有限会社ネクストトライ,,有限会社,東京都,西多摩郡瑞穂町,箱根ケ崎東松原８番地の６,,13,303,1901222,,,2024-01-18,清算の結了等,,,2015-10-05,1,,,,,,0
100,1020001003429,登記記録の閉鎖等,0,2024-01-19,2024-01-19,株式会社ユニテック,,株式会社,神奈川県,横浜市磯子区,洋光台４丁目４番３０号,,14,107,2350045,,,2024-01-19,登記官による閉鎖,,,2015-10-05,1,,,,,,0
101,1020001011324,登記記録の閉鎖等,0,2024-01-19,2024-01-19,株式会社港北鉄工所,,株式会社,神奈川県,横浜市青葉区,柿の木台４７番地１１,,14,117,2270048,,,2024-01-19,登記官による閉鎖,,,2015-10-05,1,,,,,,0
102,1020001016513,登記記録の閉鎖等,0,2024-01-19,2024-01-19,株式会社アットイーズ,,株式会社,神奈川県,横浜市中区,元町３丁目１１６番地白石ビル１階,,14,104,2310861,,,2024-01-19,登記官による閉鎖,,,2015-10-05,1,,,,,,0
103,1020001018724,登記記録の閉鎖等,0,2024-01-19,2024-01-19,福島建設株式会社,,株式会社,神奈川県,横浜市鶴見区,市場西中町１番４号,,14,101,2300023,,,2024-01-19,登記官による閉鎖,,,2015-10-05,1,,,,,,0
104,1020001024417,登記記録の閉鎖等,0,2024-01-19,2024-01-19,株式会社ベスト,,株式会社,神奈川県,横浜市神奈川区,白幡南町３０番１６号,,14,102,2210073,,,2024-01-19,登記官による閉鎖,,,2015-10-05,1,,,,,,0
105,1020001033640,登記記録の閉鎖等,0,2024-01-19,2024-01-19,株式会社ワイ・アンドカンパニー,,株式会社,神奈川県,横浜市中区,桜木町１丁目１番地８,,14,104,2310062,,,2024-01-19,登記官による閉鎖,,,2015-10-05,1,,,,,,0
108,1020001049117,登記記録の閉鎖等,0,2024-01-19,2024-01-19,株式会社玄鹿,,株式会社,神奈川県,横浜市西区,戸部本町９番６,,14,103,2200041,,,2024-01-19,登記官による閉鎖,,,2015-10-05,1,,,,,,0
109,1020001074692,登記記録の閉鎖等,0,2024-01-19,2024-01-19,室星商事株式会社,,株式会社,神奈川県,川崎市川崎区,藤崎１丁目１３番１２号,,14,131,2100804,,,2024-01-19,登記官による閉鎖,,,2015-10-05,1,,,,,ムロホシショウジ,0
110,1020001075022,登記記録の閉鎖等,0,2024-01-19,2024-01-19,株式会社レクトロン,,株式会社,神奈川県,川崎市宮前区,神木本町５丁目１番３号,,14,136,2160031,,,2024-01-19,登記官による閉鎖,,,2015-10-05,1,,,,,,0
111,1020001078553,登記記録の閉鎖等,0,2024-01-19,2024-01-19,株式会社ライトニング,,株式会社,神奈川県,川崎市麻生区,片平５丁目５番３－３０５号,,14,137,2150023,,,2024-01-19,登記官による閉鎖,,,2015-10-05,1,,,,,,0
112,1020001080071,登記記録の閉鎖等,0,2024-01-19,2024-01-19,株式会社細矢精工,,株式会社,神奈川県,川崎市幸区,小倉１丁目１番３号,,14,132,2120054,,,2024-01-19,登記官による閉鎖,,,2015-10-05,1,,,,,,0
113,1020001087521,登記記録の閉鎖等,0,2024-01-19,2024-01-19,株式会社ＴＡＫＥ－１,,株式会社,神奈川県,横浜市西区,南幸２丁目１９番２号,,14,103,2200005,,,2024-01-19,登記官による閉鎖,,,2015-10-05,1,,,,,,0
114,1020001089559,登記記録の閉鎖等,0,2024-01-19,2024-01-19,株式会社丸平,,株式会社,神奈川県,横浜市磯子区,杉田４丁目８番５７－４０３号,,14,107,2350033,,,2024-01-19,登記官による閉鎖,,,2015-10-05,1,,,,,,0
115,1020001091275,登記記録の閉鎖等,0,2024-01-19,2024-01-19,株式会社ライフコース,,株式会社,神奈川県,横浜市青葉区,荏田北３丁目２１番地９,,14,117,2250015,,,2024-01-19,登記官による閉鎖,,,2015-10-05,1,,,,,,0
124,1020002003106,登記記録の閉鎖等,0,2024-01-19,2024-01-19,有限会社手塚産業,00010153,有限会社,神奈川県,横浜市泉区,和泉町６０６番地の１３１,,14,116,2450016,,,2024-01-19,登記官による閉鎖,,,2015-10-05,1,,,,,,0
125,1020002006612,登記記録の閉鎖等,0,2024-01-19,2024-01-19,有限会社東京環境サービス,,有限会社,神奈川県,横浜市都筑区,東山田４丁目８番１９号,,14,118,2240023,,,2024-01-19,登記官による閉鎖,,,2015-10-05,1,,,,,,0
126,1020002013476,登記記録の閉鎖等,0,2024-01-19,2024-01-19,有限会社アポロエンジニアリング,,有限会社,神奈川県,横浜市青葉区,市ケ尾町２１４２番地７,,14,117,2250024,,,2024-01-19,登記官による閉鎖,,,2015-10-05,1,,,,,,0
127,1020002015150,登記記録の閉鎖等,0,2024-01-19,2024-01-19,有限会社はなびし,,有限会社,神奈川県,横浜市青葉区,しらとり台２番地２,,14,117,2270054,,,2024-01-19,登記官による閉鎖,,,2015-10-05,1,,,,,,0
128,1020002018624,登記記録の閉鎖等,0,2024-01-19,2024-01-19,有限会社港南台乗用車センター,,有限会社,神奈川県,横浜市港南区,港南台９丁目２４番１９号,,14,111,2340054,,,2024-01-19,登記官による閉鎖,,,2015-10-05,1,,,,,,0
129,1020002024861,登記記録の閉鎖等,0,2024-01-19,2024-01-19,有限会社保土ケ谷よろい,,有限会社,神奈川県,横浜市保土ケ谷区,岩井町１２３番地の２,,14,106,2400023,,,2024-01-19,登記官による閉鎖,,,2015-10-05,1,,,,,,0
130,1020002025059,登記記録の閉鎖等,0,2024-01-19,2024-01-19,有限会社やまさん常盤台店,,有限会社,神奈川県,横浜市保土ケ谷区,仏向町１５１６番地,,14,106,2400044,,,2024-01-19,登記官による閉鎖,,,2015-10-05,1,,,,,,0
131,1020002035470,登記記録の閉鎖等,0,2024-01-19,2024-01-19,有限会社日吉朋文堂,,有限会社,神奈川県,横浜市港北区,日吉７丁目２２番５９－３０１号,,14,109,2230061,,,2024-01-19,登記官による閉鎖,,,2015-10-05,1,,,,,,0
132,1020002037698,登記記録の閉鎖等,0,2024-01-19,2024-01-19,有限会社橘田商店,,有限会社,神奈川県,横浜市鶴見区,梶山２丁目６番２３号,,14,101,2300072,,,2024-01-19,登記官による閉鎖,,,2015-10-05,1,,,,,,0
133,1020002038713,登記記録の閉鎖等,0,2024-01-19,2024-01-19,有限会社スタートヤマ,,有限会社,神奈川県,横浜市鶴見区,矢向４丁目４番２号,,14,101,2300001,,,2024-01-19,登記官による閉鎖,,,2015-10-05,1,,,,,,0
134,1020002044232,登記記録の閉鎖等,0,2024-01-19,2024-01-19,有限会社錦音楽教室,,有限会社,神奈川県,横浜市中区,錦町１７番地,,14,104,2310812,,,2024-01-19,登記官による閉鎖,,,2015-10-05,1,,,,,,0
135,1020002060205,登記記録の閉鎖等,0,2024-01-19,2024-01-19,有限会社シャレード,,有限会社,神奈川県,横浜市神奈川区,台町１３番地６ピュアハイツ台町６０１,,14,102,2210834,,,2024-01-19,登記官による閉鎖,,,2015-10-05,1,,,,,,0
136,1020002062011,登記記録の閉鎖等,0,2024-01-19,2024-01-19,有限会社アスタウンド,,有限会社,神奈川県,横浜市金沢区,高舟台２丁目３８番１２号,,14,108,2360044,,,2024-01-19,登記官による閉鎖,,,2015-10-05,1,,,,,,0
137,1020002062424,登記記録の閉鎖等,0,2024-01-19,2024-01-19,有限会社石井自動車,,有限会社,神奈川県,横浜市都筑区,大熊町２０番地１,,14,118,2240042,,,2024-01-19,登記官による閉鎖,,,2015-10-05,1,,,,,,0
138,1020002079278,登記記録の閉鎖等,0,2024-01-19,2024-01-19,有限会社マム・コーポレーション,,有限会社,神奈川県,横浜市港北区,篠原北２丁目６番５号,,14,109,2220021,,,2024-01-19,登記官による閉鎖,,,2015-10-05,1,,,,,,0
139,1020002084501,登記記録の閉鎖等,0,2024-01-19,2024-01-19,有限会社中山商事,,有限会社,神奈川県,川崎市中原区,新丸子東１丁目９８３番地ＴＹＭマンション２０２号,,14,133,2110004,,,2024-01-19,登記官による閉鎖,,,2015-10-05,1,,,,,,0
141,1020002091530,登記記録の閉鎖等,0,2024-01-19,2024-01-19,有限会社岩崎企画,,有限会社,神奈川県,川崎市多摩区,三田５丁目３番地１０,,14,135,2140034,,,2024-01-19,登記官による閉鎖,,,2015-10-05,1,,,,,,0
142,1020002091761,登記記録の閉鎖等,0,2024-01-19,2024-01-19,有限会社榎本企画設計,,有限会社,神奈川県,川崎市多摩区,西生田５丁目１２番３号,,14,135,2140037,,,2024-01-19,登記官による閉鎖,,,2015-10-05,1,,,,,,0
143,1020003007485,登記記録の閉鎖等,0,2024-01-19,2024-01-19,合同会社明幸企画,,合同会社,神奈川県,横浜市青葉区,鉄町１５８－１,,14,117,2250025,,,2024-01-19,登記官による閉鎖,,,2015-10-05,1,,,,,,0
148,1020005006023,登記記録の閉鎖等,0,2024-01-19,2024-01-19,特定非営利活動法人あいりぶ横浜,,その他の設立登記法人,神奈川県,横浜市磯子区,栗木２丁目２５番１４号,,14,107,2350041,,,2024-01-19,登記官による閉鎖,,,2015-10-05,1,,,,,,0
149,1020005006403,登記記録の閉鎖等,0,2024-01-19,2024-01-19,特定非営利活動法人地球友の会神奈川協会,,その他の設立登記法人,神奈川県,横浜市西区,老松町２４番地有限会社ＴＡＫＥ１００内,,14,103,2200032,,,2024-01-19,登記官による閉鎖,,,2015-10-05,1,,,,,,0
151,1021001006784,登記記録の閉鎖等,0,2024-01-19,2024-01-19,株式会社工研,,株式会社,神奈川県,茅ヶ崎市,香川２丁目１１番９号,,14,207,2530082,,,2024-01-19,登記官による閉鎖,,,2015-10-05,1,,,,,,0
152,1021001009886,登記記録の閉鎖等,0,2024-01-19,2024-01-19,株式会社キャナルホーム,,株式会社,神奈川県,鎌倉市,常盤４２番地１松金ビル２０１,,14,204,2480022,,,2024-01-19,登記官による閉鎖,,,2015-10-05,1,,,,,,0
153,1021001026832,登記記録の閉鎖等,0,2024-01-19,2024-01-19,コンプ株式会社,,株式会社,神奈川県,海老名市,中央３丁目３番２６－１０３号,,14,215,2430432,,,2024-01-19,登記官による閉鎖,,,2015-10-05,1,,,,,,0
154,1021001029868,登記記録の閉鎖等,0,2024-01-19,2024-01-19,ワールドトレードコーポレーション株式会社,,株式会社,神奈川県,大和市,つきみ野８丁目１３番３,,14,213,2420002,,,2024-01-19,登記官による閉鎖,,,2015-10-05,1,,,,,,0
155,1021001038316,登記記録の閉鎖等,0,2024-01-19,2024-01-19,株式会社湘南建設,,株式会社,神奈川県,中郡大磯町,西小磯８７５番地１,,14,341,2550005,,,2024-01-19,登記官による閉鎖,,,2015-10-05,1,,,,,,0
156,1021001043398,登記記録の閉鎖等,0,2024-01-19,2024-01-19,株式会社カネは木村商店,,株式会社,神奈川県,三浦市,三崎町城ケ島６５８番地６８,,14,210,2380237,,,2024-01-19,登記官による閉鎖,,,2015-10-05,1,,,,,,0
157,1021001043778,登記記録の閉鎖等,0,2024-01-19,2024-01-19,株式会社日本健康水産食品,,株式会社,神奈川県,逗子市,久木３丁目８番８号,,14,208,2490001,,,2024-01-19,登記官による閉鎖,,,2015-10-05,1,,,,,,0
158,1021001050163,登記記録の閉鎖等,0,2024-01-19,2024-01-19,株式会社一元堂,,株式会社,神奈川県,足柄下郡真鶴町,真鶴１８７０番地６,,14,383,2590201,,,2024-01-19,登記官による閉鎖,,,2015-10-05,1,,,,,,0
160,1021002010819,登記記録の閉鎖等,0,2024-01-19,2024-01-19,有限会社湘南ホームサービス,,有限会社,神奈川県,茅ヶ崎市,白浜町６番２４号,,14,207,2530036,,,2024-01-19,登記官による閉鎖,,,2015-10-05,1,,,,,,0
161,1021002011593,登記記録の閉鎖等,0,2024-01-19,2024-01-19,有限会社東海機工,,有限会社,神奈川県,茅ヶ崎市,室田３丁目１１番４７号,,14,207,2530018,,,2024-01-19,登記官による閉鎖,,,2015-10-05,1,,,,,,0
162,1021002019918,登記記録の閉鎖等,0,2024-01-19,2024-01-19,有限会社幸伸建設,,有限会社,神奈川県,相模原市南区,相模大野１丁目１３番２２号,,14,153,2520303,,,2024-01-19,登記官による閉鎖,,,2015-10-05,1,,,,,,0
163,1021002023515,登記記録の閉鎖等,0,2024-01-19,2024-01-19,有限会社樋口工務店,00013221,有限会社,神奈川県,相模原市南区,上鶴間４丁目２４番３４号,,14,153,2520302,,,2024-01-19,登記官による閉鎖,,,2015-10-05,1,,,,,,0
164,1021002029512,登記記録の閉鎖等,0,2024-01-19,2024-01-19,有限会社長田建築,,有限会社,神奈川県,相模原市緑区,原宿１丁目７番１０号,,14,151,2520102,,,2024-01-19,登記官による閉鎖,,,2015-10-05,1,,,,,,0
165,1021002030395,登記記録の閉鎖等,0,2024-01-19,2024-01-19,有限会社ヤマテック,,有限会社,神奈川県,厚木市,鳶尾１丁目１８番７号,,14,212,2430204,,,2024-01-19,登記官による閉鎖,,,2015-10-05,1,,,,,,0
166,1021002030552,登記記録の閉鎖等,0,2024-01-19,2024-01-19,有限会社足柄デンキあつぎ店,,有限会社,神奈川県,厚木市,温水西２丁目３５番５号,,14,212,2430039,,,2024-01-19,登記官による閉鎖,,,2015-10-05,1,,,,,,0
167,1021002030924,登記記録の閉鎖等,0,2024-01-19,2024-01-19,有限会社ライフコンシェルジュ,,有限会社,神奈川県,厚木市,妻田西１丁目２２番７号小川ビル１階,,14,212,2430815,,,2024-01-19,登記官による閉鎖,,,2015-10-05,1,,,,,,0
168,1021002037696,登記記録の閉鎖等,0,2024-01-19,2024-01-19,有限会社神奈川高圧ホース,,有限会社,神奈川県,秦野市,東田原５６８番地,,14,211,2570028,,,2024-01-19,登記官による閉鎖,,,2015-10-05,1,,,,,,0
169,1021002038760,登記記録の閉鎖等,0,2024-01-19,2024-01-19,有限会社村上不動産,,有限会社,神奈川県,秦野市,戸川１１５５番地の１,,14,211,2591306,,,2024-01-19,登記官による閉鎖,,,2015-10-05,1,,,,,,0
170,1021002040080,登記記録の閉鎖等,0,2024-01-19,2024-01-19,有限会社今福商店,,有限会社,神奈川県,大和市,福田５５２８番地,,14,213,2420024,,,2024-01-19,登記官による閉鎖,,,2015-10-05,1,,,,,,0
171,1021002040345,登記記録の閉鎖等,0,2024-01-19,2024-01-19,有限会社オートサービスタナカ,,有限会社,神奈川県,大和市,代官３丁目４番地８,,14,213,2420025,,,2024-01-19,登記官による閉鎖,,,2015-10-05,1,,,,,,0
172,1021002046383,登記記録の閉鎖等,0,2024-01-19,2024-01-19,有限会社サンワ電業,,有限会社,神奈川県,綾瀬市,寺尾西２丁目１０番２３号,,14,218,2521136,,,2024-01-19,登記官による閉鎖,,,2015-10-05,1,,,,,,0
173,1021002050600,登記記録の閉鎖等,0,2024-01-19,2024-01-19,有限会社中田屋商事,,有限会社,神奈川県,足柄下郡箱根町,宮ノ下３７９番地,,14,382,2500404,,,2024-01-19,登記官による閉鎖,,,2015-10-05,1,,,,,,0
174,1021002055236,登記記録の閉鎖等,0,2024-01-19,2024-01-19,有限会社ナイト電気工事,,有限会社,神奈川県,足柄上郡松田町,松田庶子２１３１番地８,,14,363,2580004,,,2024-01-19,登記官による閉鎖,,,2015-10-05,1,,,,,,0
175,1021002055715,登記記録の閉鎖等,0,2024-01-19,2024-01-19,有限会社アペックス,,有限会社,神奈川県,足柄上郡山北町,岸４８９番地,,14,364,2580112,,,2024-01-19,登記官による閉鎖,,,2015-10-05,1,,,,,,0
178,1021002066745,登記記録の閉鎖等,0,2024-01-19,2024-01-19,有限会社望洋熱器船舶,,有限会社,神奈川県,横須賀市,望洋台１６番１２号,,14,201,2380053,,,2024-01-19,登記官による閉鎖,,,2015-10-05,1,,,,,,0
179,1021002067818,登記記録の閉鎖等,0,2024-01-19,2024-01-19,有限会社渡辺電工,,有限会社,神奈川県,横須賀市,公郷町５丁目３７番地,,14,201,2380022,,,2024-01-19,登記官による閉鎖,,,2015-10-05,1,,,,,,0
180,1021002069302,登記記録の閉鎖等,0,2024-01-19,2024-01-19,有限会社インサイト・テクノロジーズ,,有限会社,神奈川県,横須賀市,富士見町１丁目５番地４,,14,201,2380021,,,2024-01-19,登記官による閉鎖,,,2015-10-05,1,,,,,,0
181,1021002072529,登記記録の閉鎖等,0,2024-01-19,2024-01-19,有限会社オール・イン・ワン,,有限会社,神奈川県,茅ヶ崎市,東海岸南３丁目８－３１－８０１,,14,207,2530054,,,2024-01-19,登記官による閉鎖,,,2015-10-05,1,,,,,,0
182,1021005005238,登記記録の閉鎖等,0,2024-01-19,2024-01-19,特定非営利活動法人はるの,,その他の設立登記法人,神奈川県,海老名市,国分北２丁目１８番７号,,14,215,2430406,,,2024-01-19,登記官による閉鎖,,,2015-10-05,1,,,,,,0
183,1021005007713,登記記録の閉鎖等,0,2024-01-19,2024-01-19,横須賀三浦製麺業協同組合,00014314,その他の設立登記法人,神奈川県,横須賀市,田浦町３丁目７番地,,14,201,2370075,,,2024-01-19,登記官による閉鎖,,,2015-10-05,1,,,,,,0
184,1021005009032,登記記録の閉鎖等,0,2024-01-19,2024-01-19,税理士法人湘南会計,,その他の設立登記法人,神奈川県,平塚市,横内１９８７番地１,,14,203,2540002,,,2024-01-19,登記官による閉鎖,,,2015-10-05,1,,,,,,0
217,1080102010005,登記記録の閉鎖等,0,2024-01-19,2024-01-17,有限会社木村屋酒店,,有限会社,静岡県,三島市,広小路町３番１号,,22,206,4110856,,,2024-01-17,清算の結了等,,,2015-10-05,1,,,,,キムラヤサケテン,0
259,1110001024473,登記記録の閉鎖等,0,2024-01-19,2024-01-18,株式会社渡健,,株式会社,新潟県,長岡市,栃尾山田町２番１３号,,15,202,9400213,,,2024-01-18,清算の結了等,,,2015-10-05,1,,,,,ワタケン,0
262,1110002028721,登記記録の閉鎖等,0,2024-01-19,2024-01-17,有限会社日東電機工業所,,有限会社,新潟県,長岡市,要町１丁目７番８号,,15,202,9401153,,,2024-01-17,清算の結了等,,,2015-10-05,1,,,,,ニットウデンキコウギョウショ,0
265,1120001180043,登記記録の閉鎖等,0,2024-01-19,2024-01-11,株式会社ＧＦＢＤＩＪ,,株式会社,大阪府,大阪市北区,中津７丁目６番１８号,,27,127,5310071,,,2024-01-11,清算の結了等,,,2015-10-05,1,,,,,ジーエフビーディーアイジェイ,0
288,1120101023291,登記記録の閉鎖等,0,2024-01-19,2024-01-18,株式会社ムーブコーポレーション,,株式会社,大阪府,高石市,取石７丁目９番４０号,,27,225,5920013,,,2024-01-18,清算の結了等,,,2015-10-05,1,,,,,,0
298,1130001063544,登記記録の閉鎖等,0,2024-01-19,2024-01-15,株式会社西別院アグリ,,株式会社,京都府,亀岡市,西別院町柚原東中山１１番地,,26,206,6210124,,,2024-01-15,清算の結了等,,,2018-12-17,1,,,,,ニシベツインアグリ,0
303,1130002035187,登記記録の閉鎖等,0,2024-01-19,2024-01-18,有限会社京都三条,,有限会社,奈良県,磯城郡田原本町,大字千代２２７番地の１,,29,363,6360246,,,2024-01-18,清算の結了等,,,2015-10-05,1,,,,,キョウトサンジョウ,0
316,1140003016631,登記記録の閉鎖等,0,2024-01-19,2024-01-17,合同会社アギラ,,合同会社,兵庫県,神戸市北区,大原１丁目１番７０７号,,28,109,6511222,,,2024-01-17,清算の結了等,,,2021-08-17,1,,,,,アギラ,0
326,1180001149842,登記記録の閉鎖等,0,2024-01-19,2024-01-16,株式会社新川プライム,,株式会社,愛知県,半田市,北末広町１０番地,,23,205,4750852,,,2024-01-16,清算の結了等,,,2022-02-03,1,,,,,シンカワプライム,0
330,1180002063729,登記記録の閉鎖等,0,2024-01-19,2024-01-15,有限会社アイチクリーン,,有限会社,愛知県,長久手市,井堀５１６番地,,23,238,4801143,,,2024-01-15,清算の結了等,,,2015-10-05,1,,,,,アイチクリーン,0
338,1200001002461,登記記録の閉鎖等,0,2024-01-19,2024-01-19,株式会社新岐阜堂,,株式会社,岐阜県,岐阜市,住田町１丁目２７番地,,21,201,5008843,,,2024-01-19,登記官による閉鎖,,,2015-10-05,1,,,,,,0
341,1200001009622,登記記録の閉鎖等,0,2024-01-19,2024-01-19,株式会社オーバーロード,,株式会社,岐阜県,岐阜市,日野南１丁目７番２号,,21,201,5008212,,,2024-01-19,登記官による閉鎖,,,2015-10-05,1,,,,,,0
342,1200001012997,登記記録の閉鎖等,0,2024-01-19,2024-01-19,株式会社クリア,,株式会社,岐阜県,岐阜市,神田町１丁目７番地,,21,201,5008833,,,2024-01-19,登記官による閉鎖,,,2015-10-05,1,,,,,,0
343,1200001014969,登記記録の閉鎖等,0,2024-01-19,2024-01-19,河村建設株式会社,,株式会社,岐阜県,養老郡養老町,宇田２００番地の２,,21,341,5031335,,,2024-01-19,登記官による閉鎖,,,2015-10-05,1,,,,,,0
345,1200002001693,登記記録の閉鎖等,0,2024-01-19,2024-01-19,有限会社巧成電気工業,,有限会社,岐阜県,岐阜市,岩崎４５３番地の９,,21,201,5020005,,,2024-01-19,登記官による閉鎖,,,2015-10-05,1,,,,,,0
346,1200002007369,登記記録の閉鎖等,0,2024-01-19,2024-01-19,坂井建設有限会社,,有限会社,岐阜県,各務原市,蘇原古市場町３丁目４０番地の１,,21,213,5040852,,,2024-01-19,登記官による閉鎖,,,2015-10-05,1,,,,,,0
347,1200002013706,登記記録の閉鎖等,0,2024-01-19,2024-01-19,有限会社後藤自動車鈑金塗装,,有限会社,岐阜県,不破郡垂井町,７９３番地,,21,361,5032121,,,2024-01-19,登記官による閉鎖,,,2015-10-05,1,,,,,,0
349,1200002022062,登記記録の閉鎖等,0,2024-01-19,2024-01-19,有限会社タイセイ商会,,有限会社,岐阜県,瑞浪市,南小田町４丁目８４番地,,21,208,5096116,,,2024-01-19,登記官による閉鎖,,,2015-10-05,1,,,,,,0
350,1200002022310,登記記録の閉鎖等,0,2024-01-19,2024-01-19,有限会社照明電工,,有限会社,岐阜県,多治見市,笠原町１２６２番地の３,,21,204,5070901,,,2024-01-19,登記官による閉鎖,,,2015-10-05,1,,,,,,0
351,1200003002303,登記記録の閉鎖等,0,2024-01-19,2024-01-19,合資会社青木製陶所,,合資会社,岐阜県,土岐市,土岐津町高山３２７番地の１,,21,212,5095121,,,2024-01-19,登記官による閉鎖,,,2015-10-05,1,,,,,,0
353,1200005001154,登記記録の閉鎖等,0,2024-01-19,2024-01-19,岐阜県電話信用事業協同組合,,その他の設立登記法人,岐阜県,岐阜市,忠節町１丁目１８番地,,21,201,5008801,,,2024-01-19,登記官による閉鎖,,,2015-10-05,1,,,,,,0
354,1200005007234,登記記録の閉鎖等,0,2024-01-19,2024-01-19,富加リサイクル事業協同組合,,その他の設立登記法人,岐阜県,加茂郡富加町,羽生２２１８番地の１,,21,502,5013303,,,2024-01-19,登記官による閉鎖,,,2015-10-05,1,,,,,,0
355,1200005007424,登記記録の閉鎖等,0,2024-01-19,2024-01-19,財団法人平田研究所,,その他の設立登記法人,岐阜県,美濃市,２２３４番地,,21,207,5013701,,,2024-01-19,登記官による閉鎖,,,2015-10-05,1,,,,,,0
356,1200005009354,登記記録の閉鎖等,0,2024-01-19,2024-01-19,農事組合法人飯田洞採草地組合,,その他の設立登記法人,岐阜県,恵那市,上矢作町２５０９番地の４,,21,210,5097521,,,2024-01-19,登記官による閉鎖,,,2015-10-05,1,,,,,イイダホラサイソウチクミアイ,0
357,1200005009544,登記記録の閉鎖等,0,2024-01-19,2024-01-19,農事組合法人西邦園,,その他の設立登記法人,岐阜県,中津川市,中津川１１９８番地の２,,21,206,5080001,,,2024-01-19,登記官による閉鎖,,,2015-10-05,1,,,,,,0
361,1220002002509,登記記録の閉鎖等,0,2024-01-19,2024-01-11,有限会社小泉左官工業,,有限会社,石川県,金沢市,高尾台２丁目２１番地,,17,201,9218155,,,2024-01-11,清算の結了等,,,2015-10-05,1,,,,,コイズミサカンコウギョウ,0
362,1220002008316,登記記録の閉鎖等,0,2024-01-19,2024-01-09,有限会社洗浄機．ｃｏｍ,,有限会社,石川県,金沢市,百坂町ハ１３番地４,,17,201,9203131,,,2024-01-09,清算の結了等,,,2015-10-05,1,,,,,センジョウキドットコム,0
365,1230005008353,登記記録の閉鎖等,0,2024-01-19,2023-12-19,一般社団法人富山アジア交流協会,,その他の設立登記法人,富山県,富山市,二口町１丁目７－１４,,16,201,9398211,,,2023-12-19,清算の結了等,,,2015-10-05,1,,,,,トヤマアジアコウリュウキョウカイ,0
369,1240002050084,登記記録の閉鎖等,0,2024-01-19,2024-01-12,有限会社エイカ玩具,,有限会社,広島県,尾道市,土堂２丁目７番３号,,34,205,7220035,,,2024-01-12,清算の結了等,,,2015-10-05,1,,,,,エイカガング,0
391,1310001003564,登記記録の閉鎖等,0,2024-01-19,2024-01-11,株式会社パーソナルクリエイト,,株式会社,長崎県,長崎市,旭町６番１号,,42,201,8528003,,,2024-01-11,登記官による閉鎖,,,2015-10-05,1,,,,,,0
392,1310002006913,登記記録の閉鎖等,0,2024-01-19,2024-01-11,有限会社めぐみ,,有限会社,長崎県,長崎市,小江原２丁目４番６号,,42,201,8511132,,,2024-01-11,登記官による閉鎖,,,2015-10-05,1,,,,,,0
393,1310002014809,登記記録の閉鎖等,0,2024-01-19,2024-01-11,有限会社総和興業,,有限会社,長崎県,佐世保市,木風町１４４２番地１７,,42,202,8571166,,,2024-01-11,登記官による閉鎖,,,2015-10-05,1,,,,,,0
394,1310003001541,登記記録の閉鎖等,0,2024-01-19,2024-01-11,合同会社成栄,,合同会社,長崎県,佐世保市,福石町６番３号,,42,202,8570854,,,2024-01-11,登記官による閉鎖,,,2015-10-05,1,,,,,,0
400,1330001003463,登記記録の閉鎖等,0,2024-01-19,2024-01-19,日建清水株式会社,,株式会社,熊本県,熊本市北区,室園町１３番２１号,,43,105,8618072,,,2024-01-19,登記官による閉鎖,,,2018-10-19,1,,,,,ニッケンシミズ,0
401,1330001011986,登記記録の閉鎖等,0,2024-01-19,2024-01-19,株式会社萬新センター,,株式会社,熊本県,熊本市北区,清水万石１丁目９番５号,,43,105,8618068,,,2024-01-19,登記官による閉鎖,,,2015-10-05,1,,,,,,0
402,1330001014691,登記記録の閉鎖等,0,2024-01-19,2024-01-19,株式会社ラ・ルーシェ,,株式会社,熊本県,熊本市中央区,新町２丁目７番１号,,43,101,8600004,,,2024-01-19,登記官による閉鎖,,,2015-10-05,1,,,,,,0
403,1330001017562,登記記録の閉鎖等,0,2024-01-19,2024-01-19,株式会社ＭＩＮＧＯ,,株式会社,熊本県,熊本市中央区,下通２丁目１番２０号,,43,101,8600807,,,2024-01-19,登記官による閉鎖,,,2015-10-05,1,,,,,,0
405,1330002007439,登記記録の閉鎖等,0,2024-01-19,2024-01-19,有限会社ドラッグマツムラ,,有限会社,熊本県,熊本市中央区,新町１丁目７番１７号,,43,101,8600004,,,2024-01-19,登記官による閉鎖,,,2015-10-05,1,,,,,,0
406,1330002011985,登記記録の閉鎖等,0,2024-01-19,2024-01-19,有限会社ニーノアンドニーナ,,有限会社,熊本県,熊本市中央区,上通町３番１５号,,43,101,8600845,,,2024-01-19,登記官による閉鎖,,,2015-10-05,1,,,,,,0
407,1330002012686,登記記録の閉鎖等,0,2024-01-19,2024-01-19,有限会社太成工業,,有限会社,熊本県,熊本市北区,麻生田５丁目２５番４５号,,43,105,8618081,,,2024-01-19,登記官による閉鎖,,,2015-10-05,1,,,,,,0
408,1330002013635,登記記録の閉鎖等,0,2024-01-19,2024-01-19,有限会社ラポン,,有限会社,熊本県,熊本市南区,南高江１丁目７番４１号,,43,104,8614106,,,2024-01-19,登記官による閉鎖,,,2015-10-05,1,,,,,,0
409,1330002022693,登記記録の閉鎖等,0,2024-01-19,2024-01-19,有限会社船越商店,,有限会社,熊本県,荒尾市,荒尾２７２１番地３１,,43,204,8640041,,,2024-01-19,登記官による閉鎖,,,2015-10-05,1,,,,,,0
410,1330002025382,登記記録の閉鎖等,0,2024-01-19,2024-01-19,有限会社村本電器,,有限会社,熊本県,宇城市,三角町波多２６４番地の１,,43,213,8693205,,,2024-01-19,登記官による閉鎖,,,2015-10-05,1,,,,,,0
411,1330002027445,登記記録の閉鎖等,0,2024-01-19,2024-01-19,有限会社水戸総合建設,,有限会社,熊本県,八代市,鏡町鏡２６６番地の１,,43,202,8694203,,,2024-01-19,登記官による閉鎖,,,2015-10-05,1,,,,,ミトソウゴウケンセツ,0
412,1330002029895,登記記録の閉鎖等,0,2024-01-19,2024-01-19,有限会社ゼロ経営,,有限会社,熊本県,天草市,牛深町２０３９番地３７,,43,215,8631901,,,2024-01-19,登記官による閉鎖,,,2015-10-05,1,,,,,,0
413,1330003001787,登記記録の閉鎖等,0,2024-01-19,2024-01-19,合同会社ＨＹ,,合同会社,熊本県,熊本市中央区,中央街５番１７号,,43,101,8600802,,,2024-01-19,登記官による閉鎖,,,2015-10-05,1,,,,,,0
421,1380001019678,登記記録の閉鎖等,0,2024-01-19,2024-01-17,株式会社ヤマザキ,,株式会社,福島県,いわき市,平南白土字八ツ坂１３７番地の１リヴェールＡ１０２,,07,204,9708025,,,2024-01-17,清算の結了等,,,2015-10-05,1,,,,,ヤマザキ,0
428,1410001008355,登記記録の閉鎖等,0,2024-01-19,2024-01-18,ミノワ工業株式会社,,株式会社,秋田県,大仙市,太田町国見字佐幣神４４番地３,,05,212,0191605,,,2024-01-18,登記官による閉鎖,,,2015-10-05,1,,,,,,0
429,1410002009955,登記記録の閉鎖等,0,2024-01-19,2024-01-10,有限会社良工建設,,有限会社,秋田県,鹿角市,尾去沢字山根１４番地１９,,05,209,0185202,,,2024-01-10,清算の結了等,,,2015-10-05,1,,,,,リョウコウケンセツ,0
431,1410003000731,登記記録の閉鎖等,0,2024-01-19,2024-01-18,合名会社山水館,,合名会社,秋田県,秋田市,保戸野千代田町１４番４３号,,05,201,0100914,,,2024-01-18,登記官による閉鎖,,,2015-10-05,1,,,,,,0
432,1410005005159,登記記録の閉鎖等,0,2024-01-19,2024-01-18,特定非営利活動法人ヒューマンサービス,,その他の設立登記法人,秋田県,横手市,婦気大堤字婦気４２番地,,05,203,0130063,,,2024-01-18,登記官による閉鎖,,,2015-10-05,1,,,,,,0
458,2010001188063,登記記録の閉鎖等,0,2024-01-19,2024-01-12,株式会社ＮＧＰ－ＥＮＥＲＧＹ＆ＡＳＳＥＴ,,株式会社,東京都,中央区,日本橋浜町３丁目２６番地浜町京都ビル,,13,102,1030007,,,2024-01-12,合併による解散等,1130001030354,令和５年１２月１５日京都府長岡京市城の里１０番地９株式会社Ｇ－Ｐｌａｃｅ（1130001030354）に合併し解散,2017-12-06,1,,,,,エヌジーピーエナジーアンドアセット,0
467,2010003036311,登記記録の閉鎖等,0,2024-01-19,2024-01-12,合同会社築地鍋研究所,,合同会社,東京都,中央区,築地４丁目１４－１,,13,102,1040045,,,2024-01-12,清算の結了等,,,2021-11-18,1,,,,,ツキヂナベケンキュウショ,0
475,2010401094571,登記記録の閉鎖等,0,2024-01-19,2024-01-19,マークタッシュ株式会社,,株式会社,神奈川県,横浜市栄区,犬山町６７番６号,,14,115,2470026,,,2024-01-19,登記官による閉鎖,,,2015-10-05,1,,,,,,0
496,2010701016044,登記記録の閉鎖等,0,2024-01-19,2024-01-17,シナリーロジスティック株式会社,,株式会社,東京都,品川区,上大崎２丁目１１番１３号,,13,109,1410021,,,2024-01-17,合併による解散等,2013201011589,令和６年１月１日東京都目黒区目黒一丁目３番３２号シナリーホールディングス株式会社（2013201011589）に合併し解散,2015-10-05,1,,,,,シナリーロジスティック,0
503,2010901014310,登記記録の閉鎖等,0,2024-01-19,2024-01-18,三恵ビル管理株式会社,,株式会社,東京都,世田谷区,太子堂２丁目２番２３号,,13,112,1540004,,,2024-01-18,登記官による閉鎖,,,2015-10-05,1,,,,,,0
506,2010901025571,登記記録の閉鎖等,0,2024-01-19,2024-01-18,株式会社エイチアイケイ,,株式会社,東京都,世田谷区,奥沢３丁目３５番１３号諏訪山ビル,,13,112,1580083,,,2024-01-18,登記官による閉鎖,,,2015-10-05,1,,,,,,0
511,2010902017345,登記記録の閉鎖等,0,2024-01-19,2024-01-18,有限会社オリベスト,,有限会社,東京都,世田谷区,瀬田３丁目５番７号,,13,112,1580095,,,2024-01-18,登記官による閉鎖,,,2015-10-05,1,,,,,,0
512,2010902020316,登記記録の閉鎖等,0,2024-01-19,2024-01-18,有限会社デフィ,,有限会社,東京都,世田谷区,池尻３丁目１９番２３号,,13,112,1540001,,,2024-01-18,登記官による閉鎖,,,2015-10-05,1,,,,,,0
513,2010902026024,登記記録の閉鎖等,0,2024-01-19,2024-01-18,有限会社ナンバーワン・デザイン・オフィス,,有限会社,東京都,世田谷区,池尻１丁目６番４号,,13,112,1540001,,,2024-01-18,登記官による閉鎖,,,2015-10-05,1,,,,,,0
514,2010902026073,登記記録の閉鎖等,0,2024-01-19,2024-01-18,有限会社フォトワークショップ,,有限会社,東京都,世田谷区,尾山台２丁目２９番１７号アーバンスペースビル２０１,,13,112,1580086,,,2024-01-18,登記官による閉鎖,,,2015-10-05,1,,,,,,0
515,2010903001091,登記記録の閉鎖等,0,2024-01-19,2024-01-18,アミーゴプリュス合同会社,,合同会社,東京都,世田谷区,上祖師谷５丁目２１番１４号,,13,112,1570065,,,2024-01-18,登記官による閉鎖,,,2015-10-05,1,,,,,,0
516,2010905001569,登記記録の閉鎖等,0,2024-01-19,2024-01-18,特定非営利活動法人ケアーネット東京,,その他の設立登記法人,東京都,世田谷区,給田４丁目２番１０号,,13,112,1570064,,,2024-01-18,登記官による閉鎖,,,2015-10-05,1,,,,,,0
541,2011701020531,登記記録の閉鎖等,0,2024-01-19,2024-01-09,株式会社ユーアイ,,株式会社,千葉県,八街市,八街は１－３６８,,12,230,2891107,,,2024-01-09,清算の結了等,,,2017-01-20,1,,,,,ユーアイ,0
550,2012403004368,登記記録の閉鎖等,0,2024-01-19,2024-01-15,合同会社ｒｅｎｃｏｎｔｒｅ,,合同会社,東京都,武蔵野市,境３丁目２４番５号,,13,203,1800022,,,2024-01-15,清算の結了等,,,2020-06-10,1,,,,,ランコントル,0
556,2020001005606,登記記録の閉鎖等,0,2024-01-19,2024-01-19,株式会社丸装,,株式会社,神奈川県,横浜市鶴見区,鶴見中央４丁目４２番１８号,,14,101,2300051,,,2024-01-19,登記官による閉鎖,,,2015-10-05,1,,,,,,0
557,2020001008030,登記記録の閉鎖等,0,2024-01-19,2024-01-19,株式会社ポート．サニー,,株式会社,神奈川県,横浜市戸塚区,戸塚町３６２６番地,,14,110,2440003,,,2024-01-19,登記官による閉鎖,,,2018-07-06,1,,,,,ポートドットサニー,0
558,2020001028516,登記記録の閉鎖等,0,2024-01-19,2024-01-19,株式会社ヒロセコーポレーシヨン,,株式会社,神奈川県,横浜市磯子区,森が丘１丁目２２番１２号,,14,107,2350024,,,2024-01-19,登記官による閉鎖,,,2015-10-05,1,,,,,,0
559,2020001029472,登記記録の閉鎖等,0,2024-01-19,2024-01-19,株式会社横浜新電,,株式会社,神奈川県,横浜市中区,南仲通３丁目３０番２号,,14,104,2310006,,,2024-01-19,登記官による閉鎖,,,2015-10-05,1,,,,,,0
560,2020001057523,登記記録の閉鎖等,0,2024-01-19,2024-01-19,進藤内装株式会社,,株式会社,神奈川県,横浜市西区,桜木町７丁目４５番２号,,14,103,2200021,,,2024-01-19,登記官による閉鎖,,,2015-10-05,1,,,,,,0
561,2020001060056,登記記録の閉鎖等,0,2024-01-19,2024-01-19,株式会社ＺＥＲＯ,,株式会社,神奈川県,横浜市中区,花咲町１丁目５１番地,,14,104,2310063,,,2024-01-19,登記官による閉鎖,,,2015-10-05,1,,,,,,0
562,2020001063281,登記記録の閉鎖等,0,2024-01-19,2024-01-19,阿部薬品株式会社,,株式会社,神奈川県,横浜市西区,高島２丁目７番２－３１１０号,,14,103,2200011,,,2024-01-19,登記官による閉鎖,,,2015-10-05,1,,,,,,0
563,2020001063612,登記記録の閉鎖等,0,2024-01-19,2024-01-19,株式会社エヌエムケー,,株式会社,神奈川県,横浜市中区,山元町１丁目４１番地,,14,104,2310851,,,2024-01-19,登記官による閉鎖,,,2015-10-05,1,,,,,,0
564,2020001070914,登記記録の閉鎖等,0,2024-01-19,2024-01-19,三葉電気工業株式会社,,株式会社,神奈川県,川崎市幸区,南加瀬３丁目４番１号,,14,132,2120055,,,2024-01-19,登記官による閉鎖,,,2015-10-05,1,,,,,,0
565,2020001084749,登記記録の閉鎖等,0,2024-01-19,2024-01-19,株式会社メトラ,,株式会社,神奈川県,横浜市中区,山下町４１番３グリフィン横浜・山下公園弐番館７１３号,,14,104,2310023,,,2024-01-19,登記官による閉鎖,,,2015-10-05,1,,,,,,0
566,2020001090771,登記記録の閉鎖等,0,2024-01-19,2024-01-19,株式会社イートレンド,,株式会社,神奈川県,川崎市中原区,木月２丁目１２番２４号,,14,133,2110025,,,2024-01-19,登記官による閉鎖,,,2015-10-05,1,,,,,,0
567,2020001092891,登記記録の閉鎖等,0,2024-01-19,2024-01-19,株式会社ティーボックス,,株式会社,神奈川県,横浜市都筑区,東山田２丁目６番３２号,,14,118,2240023,,,2024-01-19,登記官による閉鎖,,,2015-10-05,1,,,,,,0
568,2020001097981,登記記録の閉鎖等,0,2024-01-19,2024-01-19,株式会社栗原,,株式会社,神奈川県,横浜市旭区,笹野台４丁目６４番２６号,,14,112,2410816,,,2024-01-19,登記官による閉鎖,,,2015-10-05,1,,,,,,0
569,2020001099292,登記記録の閉鎖等,0,2024-01-19,2024-01-19,ＨＡＭＡＺＯＮＥ株式会社,,株式会社,神奈川県,横浜市港南区,丸山台３丁目３９番８号,,14,111,2330013,,,2024-01-19,登記官による閉鎖,,,2015-10-05,1,,,,,,0
573,2020002009606,登記記録の閉鎖等,0,2024-01-19,2024-01-19,有限会社永興開発,,有限会社,神奈川県,横浜市磯子区,杉田１丁目１６番１１号,,14,107,2350033,,,2024-01-19,登記官による閉鎖,,,2015-10-05,1,,,,,,0
574,2020002011396,登記記録の閉鎖等,0,2024-01-19,2024-01-19,有限会社大川金物店,,有限会社,神奈川県,横浜市戸塚区,原宿４丁目１３番３号,,14,110,2450063,,,2024-01-19,登記官による閉鎖,,,2015-10-05,1,,,,,,0
575,2020002015298,登記記録の閉鎖等,0,2024-01-19,2024-01-19,有限会社ポントス,,有限会社,神奈川県,横浜市青葉区,元石川町７５１０番地２３,,14,117,2250004,,,2024-01-19,登記官による閉鎖,,,2015-10-05,1,,,,,,0
576,2020002019415,登記記録の閉鎖等,0,2024-01-19,2024-01-19,有限会社東亜測量設計事務所,,有限会社,神奈川県,横浜市港南区,日野南３丁目１４番２６号,,14,111,2340055,,,2024-01-19,登記官による閉鎖,,,2015-10-05,1,,,,,,0
577,2020002023895,登記記録の閉鎖等,0,2024-01-19,2024-01-19,有限会社椎名商事,,有限会社,神奈川県,横浜市保土ケ谷区,鎌谷町２７０番地の４８,,14,106,2400063,,,2024-01-19,登記官による閉鎖,,,2015-10-05,1,,,,,,0
578,2020002026774,登記記録の閉鎖等,0,2024-01-19,2024-01-19,有限会社シティサービス,,有限会社,神奈川県,横浜市神奈川区,西寺尾２丁目９番地の１号の１０２,,14,102,2210001,,,2024-01-19,登記官による閉鎖,,,2015-10-05,1,,,,,,0
580,2020002036550,登記記録の閉鎖等,0,2024-01-19,2024-01-19,有限会社ワショー物産,,有限会社,神奈川県,横浜市港北区,日吉本町６丁目５５番１１号,,14,109,2230062,,,2024-01-19,登記官による閉鎖,,,2015-10-05,1,,,,,ワショーブッサン,0
581,2020002039041,登記記録の閉鎖等,0,2024-01-19,2024-01-19,有限会社たけや金物,,有限会社,神奈川県,横浜市鶴見区,矢向６丁目１０番４号,,14,101,2300001,,,2024-01-19,登記官による閉鎖,,,2015-10-05,1,,,,,,0
582,2020002049890,登記記録の閉鎖等,0,2024-01-19,2024-01-19,有限会社サテハウス,,有限会社,神奈川県,横浜市磯子区,氷取沢町１５０番地４（３棟１１３号）,,14,107,2350043,,,2024-01-19,登記官による閉鎖,,,2015-10-05,1,,,,,,0
583,2020002061557,登記記録の閉鎖等,0,2024-01-19,2024-01-19,有限会社ヴリッジ,,有限会社,神奈川県,横浜市旭区,白根２丁目１６番１号,,14,112,2410005,,,2024-01-19,登記官による閉鎖,,,2015-10-05,1,,,,,,0
584,2020002062497,登記記録の閉鎖等,0,2024-01-19,2024-01-19,有限会社山文電鈑,,有限会社,神奈川県,横浜市港北区,新吉田東１丁目２６番３号,,14,109,2230058,,,2024-01-19,登記官による閉鎖,,,2015-10-05,1,,,,,,0
585,2020002080012,登記記録の閉鎖等,0,2024-01-19,2024-01-19,有限会社あおき,,有限会社,神奈川県,横浜市中区,新山下３丁目７番２０号,,14,104,2310801,,,2024-01-19,登記官による閉鎖,,,2015-10-05,1,,,,,,0
586,2020002086414,登記記録の閉鎖等,0,2024-01-19,2024-01-19,有限会社甲正電器製作所,,有限会社,神奈川県,川崎市宮前区,神木本町２丁目２１番７号,,14,136,2160031,,,2024-01-19,登記官による閉鎖,,,2015-10-05,1,,,,,,0
587,2020002090242,登記記録の閉鎖等,0,2024-01-19,2024-01-19,有限会社佐々木製作所,,有限会社,神奈川県,川崎市宮前区,馬絹４丁目３６番４９号,,14,136,2160035,,,2024-01-19,登記官による閉鎖,,,2015-10-05,1,,,,,ササキセイサクショ,0
588,2020002097997,登記記録の閉鎖等,0,2024-01-19,2024-01-19,有限会社田辺工業所,,有限会社,神奈川県,川崎市川崎区,渡田新町１丁目１０番１号,,14,131,2100844,,,2024-01-19,登記官による閉鎖,,,2015-10-05,1,,,,,,0
589,2020002098582,登記記録の閉鎖等,0,2024-01-19,2024-01-19,有限会社パリエ,,有限会社,神奈川県,川崎市川崎区,小田４丁目１３番６号,,14,131,2100846,,,2024-01-19,登記官による閉鎖,,,2015-10-05,1,,,,,,0
590,2020002106659,登記記録の閉鎖等,0,2024-01-19,2024-01-19,有限会社篠原邦博事務所,,有限会社,神奈川県,横浜市青葉区,つつじが丘２６番地１,,14,117,2270055,,,2024-01-19,登記官による閉鎖,,,2015-10-05,1,,,,,,0
591,2020003007526,登記記録の閉鎖等,0,2024-01-19,2024-01-19,カイン合同会社,,合同会社,神奈川県,川崎市高津区,二子５丁目３番９号－２０１,,14,134,2130002,,,2024-01-19,登記官による閉鎖,,,2015-10-05,1,,,,,,0
592,2020003018399,登記記録の閉鎖等,0,2024-01-19,2023-12-28,ＮＳ　Ｂｕｓｉｎｅｓｓ　Ｐａｒｔｎｅｒｓ合同会社,,合同会社,神奈川県,海老名市,めぐみ町５番６－２４０５,,14,215,2430438,,,2023-12-28,清算の結了等,,,2020-08-28,1,,,,,エヌエスビジネスパートナーズ,0
593,2020005001502,登記記録の閉鎖等,0,2024-01-19,2024-01-19,社団法人経営開発情報機構,,その他の設立登記法人,神奈川県,横浜市中区,本町６丁目５２番地,,14,104,2310005,,,2024-01-19,登記官による閉鎖,,,2015-10-05,1,,,,,,0
594,2020005008695,登記記録の閉鎖等,0,2024-01-19,2024-01-19,特定非営利活動法人全国生前契約信託機構,,その他の設立登記法人,神奈川県,横浜市栄区,上郷町２６２番地３２－４号館３１０号,,14,115,2470013,,,2024-01-19,登記官による閉鎖,,,2015-10-05,1,,,,,,0
595,2021001000266,登記記録の閉鎖等,0,2024-01-19,2024-01-19,株式会社エス・エム・アール事業戦略研究所,,株式会社,神奈川県,藤沢市,藤沢９１７番地の１－４０１号,,14,205,2510052,,,2024-01-19,登記官による閉鎖,,,2015-10-05,1,,,,,,0
596,2021001007055,登記記録の閉鎖等,0,2024-01-19,2024-01-19,曽我住販株式会社,,株式会社,神奈川県,茅ヶ崎市,東海岸北２丁目１２番３９号,,14,207,2530053,,,2024-01-19,登記官による閉鎖,,,2018-11-15,1,,,,,,0
597,2021001008929,登記記録の閉鎖等,0,2024-01-19,2024-01-19,株式会社オールディーズ,,株式会社,神奈川県,鎌倉市,雪ノ下１丁目１４番１１号,,14,204,2480005,,,2024-01-19,登記官による閉鎖,,,2015-10-05,1,,,,,,0
598,2021001012311,登記記録の閉鎖等,0,2024-01-19,2024-01-19,サンコープラスチック工業株式会社,,株式会社,神奈川県,相模原市南区,大野台６丁目１８番２８号,,14,153,2520331,,,2024-01-19,登記官による閉鎖,,,2015-10-05,1,,,,,,0
599,2021001030412,登記記録の閉鎖等,0,2024-01-19,2024-01-19,株式会社ティー・エス,,株式会社,神奈川県,綾瀬市,寺尾台３丁目９番２７号,,14,218,2521137,,,2024-01-19,登記官による閉鎖,,,2015-10-05,1,,,,,,0
600,2021001036384,登記記録の閉鎖等,0,2024-01-19,2024-01-19,木村ダクト工業株式会社,,株式会社,神奈川県,平塚市,広川３００番地の２,,14,203,2591219,,,2024-01-19,登記官による閉鎖,,,2015-10-05,1,,,,,,0
601,2021001046664,登記記録の閉鎖等,0,2024-01-19,2024-01-19,株式会社ワイズ企画,,株式会社,神奈川県,座間市,相武台４丁目４６７２番地の１０,,14,216,2520011,,,2024-01-19,登記官による閉鎖,,,2015-10-05,1,,,,,,0
602,2021001048396,登記記録の閉鎖等,0,2024-01-19,2024-01-19,株式会社アトム,,株式会社,神奈川県,藤沢市,遠藤２０２０番地の１,,14,205,2520816,,,2024-01-19,登記官による閉鎖,,,2015-10-05,1,,,,,,0
603,2021001049337,登記記録の閉鎖等,0,2024-01-19,2024-01-19,株式会社ＡＤＤ　ＢＲＩＤＧＥ,,株式会社,神奈川県,相模原市中央区,東淵野辺５丁目６番９号,,14,152,2520203,,,2024-01-19,登記官による閉鎖,,,2015-10-05,1,,,,,,0
606,2021002003342,登記記録の閉鎖等,0,2024-01-19,2024-01-19,有限会社長南土建,,有限会社,神奈川県,藤沢市,羽鳥４丁目９番３号,,14,205,2510056,,,2024-01-19,登記官による閉鎖,,,2015-10-05,1,,,,,,0
607,2021002005586,登記記録の閉鎖等,0,2024-01-19,2024-01-19,有限会社東洋工産,,有限会社,神奈川県,藤沢市,鵠沼藤が谷３丁目１３番１２号,,14,205,2510031,,,2024-01-19,登記官による閉鎖,,,2015-10-05,1,,,,,,0
608,2021002009562,登記記録の閉鎖等,0,2024-01-19,2024-01-19,有限会社佐藤製作所,,有限会社,神奈川県,高座郡寒川町,倉見２１６０番地,,14,321,2530101,,,2024-01-19,登記官による閉鎖,,,2015-10-05,1,,,,,,0
609,2021002009777,登記記録の閉鎖等,0,2024-01-19,2024-01-19,有限会社並木工務店,,有限会社,神奈川県,高座郡寒川町,宮山１０番地の１,,14,321,2530106,,,2024-01-19,登記官による閉鎖,,,2015-10-05,1,,,,,ナミキコウムテン,0
610,2021002021930,登記記録の閉鎖等,0,2024-01-19,2024-01-19,有限会社太勝商事,,有限会社,神奈川県,相模原市南区,上鶴間３５０９番地,,14,153,2520302,,,2024-01-19,登記官による閉鎖,,,2015-10-05,1,,,,,,0
611,2021002024891,登記記録の閉鎖等,0,2024-01-19,2024-01-19,森崎電設有限会社,,有限会社,神奈川県,相模原市緑区,相原３丁目２９番５号,,14,151,2520141,,,2024-01-19,登記官による閉鎖,,,2015-10-05,1,,,,,,0
612,2021002030601,登記記録の閉鎖等,0,2024-01-19,2024-01-19,有限会社アトリエサン,,有限会社,神奈川県,厚木市,中依知３４９番地の９,,14,212,2430805,,,2024-01-19,登記官による閉鎖,,,2015-10-05,1,,,,,,0
613,2021002032928,登記記録の閉鎖等,0,2024-01-19,2024-01-19,有限会社ファルシステム,,有限会社,神奈川県,厚木市,戸室１丁目２７番２０－５０１号,,14,212,2430031,,,2024-01-19,登記官による閉鎖,,,2015-10-05,1,,,,,,0
614,2021002037266,登記記録の閉鎖等,0,2024-01-19,2024-01-19,有限会社Ｃｒｅａｔｉｖｅ　Ｉｎｖｅｓｔｍｅｎｔ,,有限会社,神奈川県,厚木市,中町３丁目１３番１号トリノビル２階,,14,212,2430018,,,2024-01-19,登記官による閉鎖,,,2015-10-05,1,,,,,,0
615,2021002038363,登記記録の閉鎖等,0,2024-01-19,2024-01-19,有限会社田中材木店,,有限会社,神奈川県,秦野市,上今川町２番２６号,,14,211,2570052,,,2024-01-19,登記官による閉鎖,,,2015-10-05,1,,,,,,0
616,2021002053206,登記記録の閉鎖等,0,2024-01-19,2024-01-19,有限会社三石商店,,有限会社,神奈川県,小田原市,栢山３１３１番地,,14,206,2500852,,,2024-01-19,登記官による閉鎖,,,2015-10-05,1,,,,,,0
617,2021002054542,登記記録の閉鎖等,0,2024-01-19,2024-01-19,有限会社安齊商店,,有限会社,神奈川県,南足柄市,和田河原５９８番地３,,14,217,2500112,,,2024-01-19,登記官による閉鎖,,,2018-10-30,1,,,,,,0
618,2021002058758,登記記録の閉鎖等,0,2024-01-19,2024-01-19,有限会社千倉屋文具店,,有限会社,神奈川県,平塚市,明石町２３番３４号,,14,203,2540042,,,2024-01-19,登記官による閉鎖,,,2015-10-05,1,,,,,,0
620,2021002066868,登記記録の閉鎖等,0,2024-01-19,2024-01-19,有限会社マシュ,,有限会社,神奈川県,横須賀市,大滝町１丁目２３番地,,14,201,2380008,,,2024-01-19,登記官による閉鎖,,,2015-10-05,1,,,,,,0
621,2021003003432,登記記録の閉鎖等,0,2024-01-19,2024-01-19,和らく合同会社,,合同会社,神奈川県,横須賀市,安浦町１丁目３番１１号,,14,201,2380012,,,2024-01-19,登記官による閉鎖,,,2015-10-05,1,,,,,,0
622,2021005001418,登記記録の閉鎖等,0,2024-01-19,2024-01-19,財団法人神奈川県特別機動事業団,,その他の設立登記法人,神奈川県,茅ヶ崎市,香川４丁目２２番９号,,14,207,2530082,,,2024-01-19,登記官による閉鎖,,,2015-10-05,1,,,,,,0
623,2021005008363,登記記録の閉鎖等,0,2024-01-19,2024-01-19,特定非営利活動法人すみれ,,その他の設立登記法人,神奈川県,横須賀市,武１丁目１８番１５号１０３,,14,201,2380313,,,2024-01-19,登記官による閉鎖,,,2015-10-05,1,,,,,,0
627,2030001088138,登記記録の閉鎖等,0,2024-01-19,2024-01-17,株式会社さくら,,株式会社,栃木県,宇都宮市,鶴田町３４９２番地１０５,,09,201,3200851,,,2024-01-17,清算の結了等,,,2015-10-05,1,,,,,サクラ,0
633,2030001133637,登記記録の閉鎖等,0,2024-01-19,2024-01-10,シンフォニックテクノロジー株式会社,,株式会社,埼玉県,川口市,栄町２丁目２番１０－１００６号,,11,203,3320017,,,2024-01-10,清算の結了等,,,2019-11-11,1,,,,,シンフォニックテクノロジー,0
640,2040001041112,登記記録の閉鎖等,0,2024-01-19,2024-01-09,株式会社ユーアイ,,株式会社,千葉県,松戸市,常盤平４丁目１２番地の７,,12,207,2702261,,,2024-01-09,清算の結了等,,,2015-10-05,1,,,,,ユーアイ,0
647,2040002010891,登記記録の閉鎖等,0,2024-01-19,2024-01-10,有限会社まつもとテキスタイル,,有限会社,千葉県,千葉市花見川区,長作町１２３１番地５ダイヤモンドマンションビーランド４０２号,,12,102,2620044,,,2024-01-10,清算の結了等,,,2015-10-05,1,,,,,マツモトテキスタイル,0
673,2080401011231,登記記録の閉鎖等,0,2024-01-19,2024-01-18,株式会社新本工業所,,株式会社,静岡県,浜松市浜名区,引佐町井伊谷２１５７番地の４,,22,139,4312212,,,2024-01-18,清算の結了等,,,2015-10-05,1,,,,,,0
683,2080402001099,登記記録の閉鎖等,0,2024-01-19,2024-01-04,有限会社ウッドワーク,,有限会社,静岡県,浜松市中央区,龍禅寺町７２５番地,,22,138,4300924,,,2024-01-04,清算の結了等,,,2015-10-05,1,,,,,ウッドワーク,0
721,2120003012037,登記記録の閉鎖等,0,2024-01-19,2024-01-16,合同会社ＲＡプロパティーズ,,合同会社,大阪府,大阪市中央区,北浜１丁目９番１０号北浜宗田ビル５０２,,27,128,5410041,,,2024-01-16,合併による解散等,5150001019400,令和６年１月５日奈良市平松五丁目３０番３－１号リアルアセット株式会社（5150001019400）に合併し解散,2016-09-27,1,,,,,アールエープロパティーズ,0
731,2120902011816,登記記録の閉鎖等,0,2024-01-19,2024-01-17,有限会社フジヤマ,,有限会社,大阪府,高槻市,東天川１丁目９番１６号,,27,207,5690012,,,2024-01-17,清算の結了等,,,2015-10-05,1,,,,,フジヤマ,0
732,2122001025037,登記記録の閉鎖等,0,2024-01-19,2024-01-18,株式会社ＢＥ－ＳＥＬＦ,,株式会社,大阪府,東大阪市,岩田町６丁目４番５１号,,27,227,5780941,,,2024-01-18,清算の結了等,,,2015-10-05,1,,,,,ビーセルフ,0
743,2140001086964,登記記録の閉鎖等,0,2024-01-19,2024-01-15,株式会社ＺＥＳＴ,,株式会社,兵庫県,神戸市中央区,元町通６丁目１番４号４Ｆ－Ｂ,,28,110,6500022,,,2024-01-15,清算の結了等,,,2015-10-05,1,,,,,ゼスト,0
751,2140002021284,登記記録の閉鎖等,0,2024-01-19,2024-01-11,有限会社御影メディカル,,有限会社,兵庫県,神戸市東灘区,御影本町４丁目１０番９号,,28,101,6580046,,,2024-01-11,清算の結了等,,,2015-10-05,1,,,,,ミカゲメディカル,0
757,2180001057524,登記記録の閉鎖等,0,2024-01-19,2024-01-17,株式会社インプレスト,,株式会社,愛知県,名古屋市中区,錦１丁目７番１５号,,23,106,4600003,,,2024-01-17,清算の結了等,,,2015-10-05,1,,,,,インプレスト,0
763,2180001143068,登記記録の閉鎖等,0,2024-01-19,2024-01-15,株式会社ＭＵＤＡＳＴＯＰ,,株式会社,愛知県,名古屋市中区,栄４丁目１６番３３号日本経済新聞社名古屋支社ビル５階,,23,106,4600008,,,2024-01-15,清算の結了等,,,2020-10-06,1,,,,,ムダストップ,0
771,2200001005752,登記記録の閉鎖等,0,2024-01-19,2024-01-19,吉安商事株式会社,,株式会社,岐阜県,岐阜市,鏡島西１丁目１３番３１号,,21,201,5010123,,,2024-01-19,登記官による閉鎖,,,2015-10-05,1,,,,,,0
772,2200001009175,登記記録の閉鎖等,0,2024-01-19,2024-01-19,株式会社サンコーホーム,,株式会社,岐阜県,岐阜市,高森町２丁目３番地,,21,201,5008171,,,2024-01-19,登記官による閉鎖,,,2015-10-05,1,,,,,,0
773,2200001009704,登記記録の閉鎖等,0,2024-01-19,2024-01-19,株式会社ＴＴＫ,,株式会社,岐阜県,各務原市,那加山崎町８７番地７,,21,213,5040014,,,2024-01-19,登記官による閉鎖,,,2015-10-05,1,,,,,,0
774,2200001010471,登記記録の閉鎖等,0,2024-01-19,2024-01-19,三興建設株式会社,,株式会社,岐阜県,瑞穂市,本田２１５２番地の７,,21,216,5010236,,,2024-01-19,登記官による閉鎖,,,2015-10-05,1,,,,,サンコウケンセツ,0
775,2200001020017,登記記録の閉鎖等,0,2024-01-19,2024-01-19,株式会社美濃合同銀行,,株式会社,岐阜県,関市,甲２０５番地の１,,21,205,5013200,,,2024-01-19,登記官による閉鎖,,,2015-10-05,1,,,,,,0
777,2200002008770,登記記録の閉鎖等,0,2024-01-19,2024-01-19,有限会社Ｎ・Ｙコーポレーション,,有限会社,岐阜県,各務原市,小佐野町３丁目７２番地３,,21,213,5040942,,,2024-01-19,登記官による閉鎖,,,2015-10-05,1,,,,,,0
778,2200002010405,登記記録の閉鎖等,0,2024-01-19,2024-01-19,鵜花井飲料有限会社,,有限会社,岐阜県,羽島郡岐南町,下印食５丁目１９番地,,21,302,5016018,,,2024-01-19,登記官による閉鎖,,,2015-10-05,1,,,,,,0
780,2200002018051,登記記録の閉鎖等,0,2024-01-19,2024-01-19,有限会社鈴木興業,,有限会社,岐阜県,可児市,土田６８８番地１,,21,214,5090206,,,2024-01-19,登記官による閉鎖,,,2015-10-05,1,,,,,,0
781,2200005005798,登記記録の閉鎖等,0,2024-01-19,2024-01-19,財団法人清水みらい教育福祉基金,,その他の設立登記法人,岐阜県,安八郡輪之内町,楡俣１６９５番地の１,,21,382,5030201,,,2024-01-19,登記官による閉鎖,,,2015-10-05,1,,,,,,0
782,2200005009106,登記記録の閉鎖等,0,2024-01-19,2024-01-19,社団法人中央報徳社,,その他の設立登記法人,岐阜県,恵那市,三郷町野井１４９４番地の１,,21,210,5097123,,,2024-01-19,登記官による閉鎖,,,2015-10-05,1,,,,,,0
806,2310001003010,登記記録の閉鎖等,0,2024-01-19,2024-01-11,株式会社長崎菱自オート,,株式会社,長崎県,長崎市,梁川町１番１４号,,42,201,8528013,,,2024-01-11,登記官による閉鎖,,,2019-01-07,1,,,,,ナガサキリョウジオート,0
807,2310001005972,登記記録の閉鎖等,0,2024-01-19,2024-01-11,豊栄鋼材株式会社,,株式会社,長崎県,佐世保市,上原町１１５２番地１,,42,202,8593202,,,2024-01-11,登記官による閉鎖,,,2015-10-05,1,,,,,,0
808,2310001010948,登記記録の閉鎖等,0,2024-01-19,2024-01-11,株式会社倉成石油,,株式会社,長崎県,対馬市,上県町佐須奈乙８５０番地,,42,209,8171602,,,2024-01-11,登記官による閉鎖,,,2015-10-05,1,,,,,,0
810,2310002003190,登記記録の閉鎖等,0,2024-01-19,2024-01-11,有限会社たびら建設,,有限会社,長崎県,長崎市,宮崎町９２３番地,,42,201,8510408,,,2024-01-11,登記官による閉鎖,,,2015-10-05,1,,,,,,0
811,2310002020780,登記記録の閉鎖等,0,2024-01-19,2024-01-11,有限会社岩忠工業,,有限会社,長崎県,五島市,大荒町５８８番地３,,42,211,8530032,,,2024-01-11,登記官による閉鎖,,,2015-10-05,1,,,,,,0
812,2310003002290,登記記録の閉鎖等,0,2024-01-19,2024-01-11,合資会社江藤製材所,,合資会社,長崎県,対馬市,上県町佐護東里１０番地４,,42,209,8171603,,,2024-01-11,登記官による閉鎖,,,2015-10-05,1,,,,,エトウセイザイショ,0
814,2310005006447,登記記録の閉鎖等,0,2024-01-19,2024-01-11,特定非営利活動法人けんほくＥＲ倶楽部,,その他の設立登記法人,長崎県,平戸市,田平町山内免２７８番地１,,42,207,8594825,,,2024-01-11,登記官による閉鎖,,,2015-10-05,1,,,,,,0
815,2310005007115,登記記録の閉鎖等,0,2024-01-19,2024-01-11,農事組合法人島原ファーム,,その他の設立登記法人,長崎県,島原市,長貫町丙１８７８－１,,42,203,8550022,,,2024-01-11,登記官による閉鎖,,,2015-10-05,1,,,,,,0
817,2330001008057,登記記録の閉鎖等,0,2024-01-19,2024-01-19,株式会社優蘭,,株式会社,熊本県,熊本市西区,二本木２丁目８番１０号,,43,103,8600051,,,2024-01-19,登記官による閉鎖,,,2015-10-05,1,,,,,,0
818,2330001011449,登記記録の閉鎖等,0,2024-01-19,2024-01-19,宝産業株式会社,,株式会社,熊本県,玉名市,高瀬２１５番地,,43,206,8650025,,,2024-01-19,登記官による閉鎖,,,2015-10-05,1,,,,,,0
819,2330001017561,登記記録の閉鎖等,0,2024-01-19,2024-01-19,ＰＢ株式会社,,株式会社,熊本県,熊本市中央区,下通２丁目１番２０号,,43,101,8600807,,,2024-01-19,登記官による閉鎖,,,2015-10-05,1,,,,,,0
822,2330002022461,登記記録の閉鎖等,0,2024-01-19,2024-01-19,有限会社コンビニエンス六田,,有限会社,熊本県,玉名市,六田３０番地１６,,43,206,8650058,,,2024-01-19,登記官による閉鎖,,,2015-10-05,1,,,,,,0
823,2330002024053,登記記録の閉鎖等,0,2024-01-19,2024-01-19,有限会社上杉組,,有限会社,熊本県,宇城市,小川町北新田１０８６番地,,43,213,8690631,,,2024-01-19,登記官による閉鎖,,,2015-10-05,1,,,,,,0
824,2330002024136,登記記録の閉鎖等,0,2024-01-19,2024-01-19,有限会社松本機工,,有限会社,熊本県,宇城市,小川町川尻１３８番地２,,43,213,8690623,,,2024-01-19,登記官による閉鎖,,,2015-10-05,1,,,,,,0
825,2330002026693,登記記録の閉鎖等,0,2024-01-19,2024-01-19,有限会社園田生花店,,有限会社,熊本県,八代市,鏡町鏡５７番地,,43,202,8694203,,,2024-01-19,登記官による閉鎖,,,2015-10-05,1,,,,,,0
826,2330002029093,登記記録の閉鎖等,0,2024-01-19,2024-01-15,有限会社松下電機,,有限会社,熊本県,天草市,本渡町本戸馬場３０３０番地の３,,43,215,8630002,,,2024-01-15,清算の結了等,,,2015-10-05,1,,,,,マツシタデンキ,0
828,2330005008061,登記記録の閉鎖等,0,2024-01-19,2024-01-19,八幡養蚕農業協同組合,,その他の設立登記法人,熊本県,山鹿市,下吉田９５２番地,,43,208,8610526,,,2024-01-19,登記官による閉鎖,,,2015-10-05,1,,,,,ヤハタヨウザン,0
833,2360002000134,登記記録の閉鎖等,0,2024-01-19,2024-01-15,有限会社赤土機構,,有限会社,沖縄県,那覇市,小禄５丁目１３番１号,,47,201,9010152,,,2024-01-15,清算の結了等,,,2015-10-05,1,,,,,アカツチキコウ,0
849,2410002000888,登記記録の閉鎖等,0,2024-01-19,2024-01-18,有限会社大江戸,,有限会社,秋田県,秋田市,山王１丁目５番１１号,,05,201,0100951,,,2024-01-18,登記官による閉鎖,,,2015-10-05,1,,,,,,0
850,2410002007355,登記記録の閉鎖等,0,2024-01-19,2024-01-18,有限会社ふくだ写真館,,有限会社,秋田県,にかほ市,象潟町字四丁目塩越６８番地１,,05,214,0180116,,,2024-01-18,登記官による閉鎖,,,2015-10-05,1,,,,,,0
851,2410002010458,登記記録の閉鎖等,0,2024-01-19,2024-01-18,有限会社能代生鮮市場,,有限会社,秋田県,能代市,花園町２６番１６号,,05,202,0160844,,,2024-01-18,登記官による閉鎖,,,2015-10-05,1,,,,,,0
852,2410002010482,登記記録の閉鎖等,0,2024-01-19,2024-01-18,有限会社東能代商業振興会,,有限会社,秋田県,能代市,桧山字新田沢１０５番の１１,,05,202,0160000,,,2024-01-18,登記官による閉鎖,,,2015-10-05,1,,,,,,0
853,2410002011984,登記記録の閉鎖等,0,2024-01-19,2024-01-18,有限会社セフティ警備,,有限会社,秋田県,大仙市,戸地谷字川前３１６番地１７,,05,212,0140801,,,2024-01-18,登記官による閉鎖,,,2015-10-05,1,,,,,,0
854,2410005000332,登記記録の閉鎖等,0,2024-01-19,2024-01-18,社団法人秋田県調理師会,,その他の設立登記法人,秋田県,秋田市,千秋矢留町１番１９号,,05,201,0100877,,,2024-01-18,登記官による閉鎖,,,2015-10-05,1,,,,,,0
855,2410005005133,登記記録の閉鎖等,0,2024-01-19,2024-01-18,社団法人馬鞍愛郷社,,その他の設立登記法人,秋田県,横手市,平鹿町醍醐字三嶋７４番地の２,,05,203,0130102,,,2024-01-18,登記官による閉鎖,,,2015-10-05,1,,,,,,0
856,2410005005397,登記記録の閉鎖等,0,2024-01-19,2024-01-18,一般社団法人旭陽会,,その他の設立登記法人,秋田県,秋田市,山王中島町２番１６号,,05,201,0100955,,,2024-01-18,登記官による閉鎖,,,2015-10-05,1,,,,,,0
877,2700150029056,登記記録の閉鎖等,0,2024-01-19,2023-08-30,多可町ふるさと交流協会,,その他,兵庫県,多可郡多可町,八千代区中野間３６３－１４,,28,365,6770121,,,2023-08-30,その他の清算の結了等,,,2015-10-09,1,,,,,タカチヨウフルサトコウリユウキヨウカイ,0
878,2700150107241,登記記録の閉鎖等,0,2024-01-19,2023-04-30,ツジモトケンジと愉快な音楽仲間たち,,その他,京都府,宇治市,莵道谷下り８－１０パデシオン宇治三室戸ＩＩＩ番館１０８号,00125811,26,204,6110013,,,2023-04-30,その他の清算の結了等,,,2022-03-02,1,,,,,ツジモトケンジトユカイナオンガクナカマタチ,0
886,3010001204926,登記記録の閉鎖等,0,2024-01-19,2024-01-16,株式会社えにすた,,株式会社,東京都,文京区,向丘１丁目７番１１号,,13,105,1130023,,,2024-01-16,清算の結了等,,,2019-10-29,1,,,,,エニスタ,0
887,3010001209842,登記記録の閉鎖等,0,2024-01-19,2024-01-11,昭和の森デベロップメント株式会社,,株式会社,東京都,昭島市,田中町５６８番地１,,13,207,1960014,,,2024-01-11,清算の結了等,,,2020-05-29,1,,,,,ショウワノモリデベロップメント,0
902,3010005017515,登記記録の閉鎖等,0,2024-01-19,2024-01-12,特定非営利活動法人ＪＪＦＣ,,その他の設立登記法人,東京都,中央区,日本橋大伝馬町１３－７日本橋大富ビル,,13,102,1030011,,,2024-01-12,清算の結了等,,,2015-10-05,1,,,,,ジェイジェイエフシー,0
903,3010005034130,登記記録の閉鎖等,0,2024-01-19,2024-01-17,麹町ソーラーホールディングス一般社団法人,,その他の設立登記法人,東京都,千代田区,麹町２丁目８番地ＭＬＣ麹町ビル４階フィンポート税理士法人内,,13,101,1020083,,,2024-01-17,清算の結了等,,,2021-10-22,1,,,,,コウジマチソーラーホールディングス,0
906,3010105001410,登記記録の閉鎖等,0,2024-01-19,2024-01-19,農事組合法人湘南,,その他の設立登記法人,神奈川県,横須賀市,秋谷１丁目１番１２号,,14,201,2400105,,,2024-01-19,登記官による閉鎖,,,2015-10-05,1,,,,,,0
936,3010901002132,登記記録の閉鎖等,0,2024-01-19,2024-01-18,株式会社エルム,,株式会社,東京都,世田谷区,赤堤２丁目４０番１５号,,13,112,1560044,,,2024-01-18,登記官による閉鎖,,,2015-10-05,1,,,,,,0
938,3010901018161,登記記録の閉鎖等,0,2024-01-19,2024-01-18,イコマ通商株式会社,,株式会社,東京都,世田谷区,深沢５丁目１０番１０号,,13,112,1580081,,,2024-01-18,登記官による閉鎖,,,2015-10-05,1,,,,,イコマツウショウ,0
939,3010901027880,登記記録の閉鎖等,0,2024-01-19,2024-01-18,株式会社サミーズ・コンサルタント,,株式会社,東京都,世田谷区,玉川台２丁目２４番７－１０２号,,13,112,1580096,,,2024-01-18,登記官による閉鎖,,,2017-11-20,1,,,,,,0
940,3010901039554,登記記録の閉鎖等,0,2024-01-19,2024-01-18,株式会社京絲,,株式会社,東京都,世田谷区,祖師谷１丁目１８番９号祖師谷コーポ１０８号室,,13,112,1570072,,,2024-01-18,登記官による閉鎖,,,2017-02-14,1,,,,,,0
942,3010902004680,登記記録の閉鎖等,0,2024-01-19,2024-01-18,有限会社紀葉,,有限会社,東京都,世田谷区,大原２丁目２２番６号,,13,112,1560041,,,2024-01-18,登記官による閉鎖,,,2015-10-05,1,,,,,,0
943,3010902006363,登記記録の閉鎖等,0,2024-01-19,2024-01-18,有限会社サカエ商会,,有限会社,東京都,世田谷区,羽根木２丁目３２番３号,,13,112,1560042,,,2024-01-18,登記官による閉鎖,,,2015-10-05,1,,,,,,0
944,3010902019266,登記記録の閉鎖等,0,2024-01-19,2024-01-18,有限会社ジェームズダイヤモンドエンタープライズ,,有限会社,東京都,世田谷区,南烏山５丁目１番１３号,,13,112,1570062,,,2024-01-18,登記官による閉鎖,,,2015-10-05,1,,,,,,0
945,3010902022220,登記記録の閉鎖等,0,2024-01-19,2024-01-18,有限会社アメージング,,有限会社,東京都,世田谷区,鎌田３丁目１９番７号,,13,112,1570077,,,2024-01-18,登記官による閉鎖,,,2015-10-05,1,,,,,,0
946,3010902022872,登記記録の閉鎖等,0,2024-01-19,2024-01-18,有限会社アドクルー,,有限会社,東京都,世田谷区,羽根木２丁目１８番８号,,13,112,1560042,,,2024-01-18,登記官による閉鎖,,,2015-10-05,1,,,,,,0
948,3010905001262,登記記録の閉鎖等,0,2024-01-19,2024-01-18,特定非営利活動法人環境グリーンエイト,,その他の設立登記法人,東京都,世田谷区,玉川田園調布１丁目５番１２号,,13,112,1580085,,,2024-01-18,登記官による閉鎖,,,2015-10-05,1,,,,,,0
949,3010905001592,登記記録の閉鎖等,0,2024-01-19,2024-01-18,特定非営利活動法人エマージェンシー・マネジメント・アカデミー,,その他の設立登記法人,東京都,世田谷区,松原３丁目７番１５号,,13,112,1560043,,,2024-01-18,登記官による閉鎖,,,2015-10-05,1,,,,,,0
950,3010905002599,登記記録の閉鎖等,0,2024-01-19,2024-01-18,一般社団法人日本バーオソル協会,,その他の設立登記法人,東京都,世田谷区,若林１丁目１５番１０号世田谷電設会館３階西,,13,112,1540023,,,2024-01-18,登記官による閉鎖,,,2015-10-05,1,,,,,,0
965,3011101062173,登記記録の閉鎖等,0,2024-01-19,2024-01-17,株式会社世界,,株式会社,東京都,新宿区,新宿６丁目２７番３０号,,13,104,1600022,,,2024-01-17,清算の結了等,,,2015-10-05,1,,,,,セカイ,0
971,3011102014628,登記記録の閉鎖等,0,2024-01-19,2024-01-18,有限会社ヒートカンパニー,,有限会社,東京都,新宿区,新宿１丁目１１番４号,,13,104,1600022,,,2024-01-18,清算の結了等,,,2015-10-05,1,,,,,ヒートカンパニー,0
975,3011305001778,登記記録の閉鎖等,0,2024-01-19,2024-01-18,医療法人社団ディスポ,,その他の設立登記法人,東京都,世田谷区,千歳台４丁目２６番７号,,13,112,1570071,,,2024-01-18,登記官による閉鎖,,,2015-10-05,1,,,,,,0
979,3011701002438,登記記録の閉鎖等,0,2024-01-19,2024-01-15,株式会社京ばし園芸資材,,株式会社,東京都,江戸川区,上篠崎３丁目３番２２号,,13,123,1330054,,,2024-01-15,清算の結了等,,,2015-10-05,1,,,,,,0
980,3011701024366,登記記録の閉鎖等,0,2024-01-19,2024-01-15,株式会社理成,,株式会社,東京都,江戸川区,新堀１丁目２番９号ペインズ・コート２０７,,13,123,1320001,,,2024-01-15,清算の結了等,,,2021-05-14,1,,,,,リセイ,0
998,3020001002065,登記記録の閉鎖等,0,2024-01-19,2024-01-19,三伸建設株式会社,,株式会社,神奈川県,横浜市緑区,東本郷２丁目５番２７号,,14,113,2260002,,,2024-01-19,登記官による閉鎖,,,2015-10-05,1,,,,,,0
999,3020001005662,登記記録の閉鎖等,0,2024-01-19,2024-01-19,株式会社三輪ステイプル,,株式会社,神奈川県,横浜市旭区,白根５丁目５２番１８号,,14,112,2410005,,,2024-01-19,登記官による閉鎖,,,2015-10-05,1,,,,,,0
1000,3020001006818,登記記録の閉鎖等,0,2024-01-19,2024-01-19,株式会社ボルボックス,,株式会社,神奈川県,横浜市金沢区,六浦３丁目１番１０－３号,,14,108,2360031,,,2024-01-19,登記官による閉鎖,,,2015-10-05,1,,,,,,0
1001,3020001021313,登記記録の閉鎖等,0,2024-01-19,2024-01-19,ニック電子工業株式会社,,株式会社,神奈川県,横浜市港北区,綱島西４丁目９番２号,,14,109,2230053,,,2024-01-19,登記官による閉鎖,,,2015-10-05,1,,,,,,0
1002,3020001026163,登記記録の閉鎖等,0,2024-01-19,2024-01-19,株式会社協栄化学商会,,株式会社,神奈川県,横浜市中区,本町３丁目２４番地,,14,104,2310005,,,2024-01-19,登記官による閉鎖,,,2015-10-05,1,,,,,,0
1003,3020001044941,登記記録の閉鎖等,0,2024-01-19,2024-01-19,株式会社ワイズコーポレーション,,株式会社,神奈川県,横浜市港南区,上永谷１丁目４番１５号,,14,111,2330012,,,2024-01-19,登記官による閉鎖,,,2015-10-05,1,,,,,,0
1004,3020001046871,登記記録の閉鎖等,0,2024-01-19,2024-01-19,株式会社フロントキューブ,,株式会社,神奈川県,横浜市西区,楠町５番地２エクセレント横浜１０４号,,14,103,2200003,,,2024-01-19,登記官による閉鎖,,,2015-10-05,1,,,,,,0
1005,3020001046979,登記記録の閉鎖等,0,2024-01-19,2024-01-19,株式会社興和商会,,株式会社,神奈川県,横浜市神奈川区,羽沢町１６８５番地２ペガサスＢ１０５号,,14,102,2210863,,,2024-01-19,登記官による閉鎖,,,2015-10-05,1,,,,,,0
1006,3020001047630,登記記録の閉鎖等,0,2024-01-19,2024-01-19,株式会社ユナイト建設,,株式会社,神奈川県,横浜市鶴見区,平安町２丁目１９番地５オーベル横濱・鶴見セントラルパーク４０７,,14,101,2300031,,,2024-01-19,登記官による閉鎖,,,2015-10-05,1,,,,,,0
1007,3020001049123,登記記録の閉鎖等,0,2024-01-19,2024-01-19,株式会社ｉ女性調査室,,株式会社,神奈川県,横浜市西区,藤棚町１丁目４９番地,,14,103,2200053,,,2024-01-19,登記官による閉鎖,,,2015-10-05,1,,,,,,0
1008,3020001050270,登記記録の閉鎖等,0,2024-01-19,2024-01-19,日本東方国際投資株式会社,,株式会社,神奈川県,横浜市南区,浦舟町１丁目１６番地３クリオ阪東橋壱番館１００３号,,14,105,2320024,,,2024-01-19,登記官による閉鎖,,,2015-10-05,1,,,,,,0
1009,3020001053141,登記記録の閉鎖等,0,2024-01-19,2024-01-19,株式会社横浜投資企画,,株式会社,神奈川県,横浜市旭区,今宿東町８３２番地の１,,14,112,2410032,,,2024-01-19,登記官による閉鎖,,,2015-10-05,1,,,,,,0
1010,3020001054180,登記記録の閉鎖等,0,2024-01-19,2024-01-19,株式会社アドホック,,株式会社,神奈川県,横浜市戸塚区,上矢部町１８０１番地１コーポラス相沢２０３号,,14,110,2450053,,,2024-01-19,登記官による閉鎖,,,2015-10-05,1,,,,,,0
1011,3020001058727,登記記録の閉鎖等,0,2024-01-19,2024-01-19,株式会社エフエイト,,株式会社,神奈川県,横浜市鶴見区,生麦３丁目６番３０号ダイアパレス生麦４０５号,,14,101,2300052,,,2024-01-19,登記官による閉鎖,,,2015-10-05,1,,,,,,0
1013,3020001072018,登記記録の閉鎖等,0,2024-01-19,2024-01-19,株式会社磯福,,株式会社,神奈川県,川崎市川崎区,大師駅前１丁目１４番５号,,14,131,2100802,,,2024-01-19,登記官による閉鎖,,,2015-10-05,1,,,,,,0
1014,3020001079203,登記記録の閉鎖等,0,2024-01-19,2024-01-19,株式会社デライト,,株式会社,神奈川県,川崎市高津区,子母口７９４番地３７,,14,134,2130023,,,2024-01-19,登記官による閉鎖,,,2015-10-05,1,,,,,,0
1015,3020001086975,登記記録の閉鎖等,0,2024-01-19,2024-01-19,株式会社アーキテクト・アソシエイツ,,株式会社,神奈川県,横浜市港北区,仲手原１丁目１２番３０号,,14,109,2220023,,,2024-01-19,登記官による閉鎖,,,2015-10-05,1,,,,,,0
1016,3020001087511,登記記録の閉鎖等,0,2024-01-19,2024-01-19,ソーラージャパン株式会社,,株式会社,神奈川県,横浜市緑区,十日市場町８６６番地５サードアドバンス１階Ａ,,14,113,2260025,,,2024-01-19,登記官による閉鎖,,,2015-10-05,1,,,,,,0
1017,3020001095646,登記記録の閉鎖等,0,2024-01-19,2024-01-19,アキネット株式会社,,株式会社,神奈川県,川崎市麻生区,高石３丁目６番１－３１５号,,14,137,2150003,,,2024-01-19,登記官による閉鎖,,,2015-10-05,1,,,,,,0
1021,3020002001330,登記記録の閉鎖等,0,2024-01-19,2024-01-19,有限会社サウンドケイエム,,有限会社,神奈川県,横浜市瀬谷区,宮沢３丁目２８番地７,,14,114,2460038,,,2024-01-19,登記官による閉鎖,,,2015-10-05,1,,,,,,0
1022,3020002001339,登記記録の閉鎖等,0,2024-01-19,2024-01-19,有限会社栄商事,,有限会社,神奈川県,横浜市瀬谷区,阿久和東２丁目２３番地８,,14,114,2460023,,,2024-01-19,登記官による閉鎖,,,2015-10-05,1,,,,,,0
1023,3020002001685,登記記録の閉鎖等,0,2024-01-19,2024-01-19,有限会社ツバサ,,有限会社,神奈川県,横浜市瀬谷区,三ツ境１５番地の４,,14,114,2460022,,,2024-01-19,登記官による閉鎖,,,2015-10-05,1,,,,,,0
1026,3020002019298,登記記録の閉鎖等,0,2024-01-19,2024-01-19,有限会社ツカハラ金属,,有限会社,神奈川県,横浜市港南区,芹が谷２丁目２３番５－１７号三枝木台団地,,14,111,2330006,,,2024-01-19,登記官による閉鎖,,,2015-10-05,1,,,,,,0
1028,3020002026014,登記記録の閉鎖等,0,2024-01-19,2024-01-19,有限会社カリブ,,有限会社,神奈川県,横浜市神奈川区,神之木町１番６号,,14,102,2210015,,,2024-01-19,登記官による閉鎖,,,2018-08-24,1,,,,,カリブ,0
1030,3020002044775,登記記録の閉鎖等,0,2024-01-19,2024-01-19,有限会社エヌ・ワークス,,有限会社,神奈川県,横浜市中区,花咲町３丁目８４番地,,14,104,2310063,,,2024-01-19,登記官による閉鎖,,,2015-10-05,1,,,,,,0
1031,3020002048124,登記記録の閉鎖等,0,2024-01-19,2024-01-19,有限会社美興,,有限会社,神奈川県,横浜市西区,岡野１丁目２０番２３号,,14,103,2200073,,,2024-01-19,登記官による閉鎖,,,2015-10-05,1,,,,,,0
1032,3020002049270,登記記録の閉鎖等,0,2024-01-19,2024-01-19,有限会社渡辺不動産,,有限会社,神奈川県,横浜市鶴見区,寺谷１丁目７番１１号,,14,101,2300015,,,2024-01-19,登記官による閉鎖,,,2015-10-05,1,,,,,,0
1033,3020002050682,登記記録の閉鎖等,0,2024-01-19,2024-01-19,有限会社タカラモデル,,有限会社,神奈川県,横浜市都筑区,佐江戸町４０３番地,,14,118,2240054,,,2024-01-19,登記官による閉鎖,,,2015-10-05,1,,,,,,0
1034,3020002060252,登記記録の閉鎖等,0,2024-01-19,2024-01-19,有限会社エイチ・シー・ティー,,有限会社,神奈川県,横浜市南区,中里１丁目１６番９－４０２号,,14,105,2320063,,,2024-01-19,登記官による閉鎖,,,2015-10-05,1,,,,,,0
1035,3020002064154,登記記録の閉鎖等,0,2024-01-19,2024-01-19,有限会社杉建,,有限会社,神奈川県,横浜市保土ケ谷区,坂本町９８番地,,14,106,2400043,,,2024-01-19,登記官による閉鎖,,,2015-10-05,1,,,,,,0
1036,3020002070466,登記記録の閉鎖等,0,2024-01-19,2024-01-19,太平洋倉庫有限会社,,有限会社,神奈川県,横浜市磯子区,滝頭１丁目７番２１号,,14,107,2350012,,,2024-01-19,登記官による閉鎖,,,2015-10-05,1,,,,,,0
1037,3020002075085,登記記録の閉鎖等,0,2024-01-19,2024-01-19,有限会社イウチ商店,,有限会社,神奈川県,横浜市鶴見区,東寺尾３丁目２２番２２号,,14,101,2300077,,,2024-01-19,登記官による閉鎖,,,2015-10-05,1,,,,,,0
1038,3020002076843,登記記録の閉鎖等,0,2024-01-19,2024-01-19,有限会社西建,,有限会社,神奈川県,横浜市都筑区,茅ケ崎東３丁目７番２２号,,14,118,2240033,,,2024-01-19,登記官による閉鎖,,,2015-10-05,1,,,,,,0
1039,3020002080300,登記記録の閉鎖等,0,2024-01-19,2024-01-19,有限会社上田商店,,有限会社,神奈川県,川崎市幸区,幸町２丁目６８４番地,,14,132,2120011,,,2024-01-19,登記官による閉鎖,,,2015-10-05,1,,,,,,0
1040,3020002081389,登記記録の閉鎖等,0,2024-01-19,2024-01-19,有限会社田村塗装店,,有限会社,神奈川県,川崎市幸区,南幸町１丁目４２番地１４,,14,132,2120016,,,2024-01-19,登記官による閉鎖,,,2015-10-05,1,,,,,,0
1041,3020002084251,登記記録の閉鎖等,0,2024-01-19,2024-01-19,有限会社高島水道工業,,有限会社,神奈川県,川崎市中原区,木月４丁目２３番１号,,14,133,2110025,,,2024-01-19,登記官による閉鎖,,,2015-10-05,1,,,,,,0
1042,3020002089011,登記記録の閉鎖等,0,2024-01-19,2024-01-19,有限会社栄モールド,,有限会社,神奈川県,川崎市高津区,下野毛１丁目１３番１１号,,14,134,2130006,,,2024-01-19,登記官による閉鎖,,,2015-10-05,1,,,,,,0
1043,3020002092378,登記記録の閉鎖等,0,2024-01-19,2024-01-19,有限会社センチユリーハウス,,有限会社,神奈川県,川崎市多摩区,堰３丁目２番２３号,,14,135,2140022,,,2024-01-19,登記官による閉鎖,,,2015-10-05,1,,,,,,0
1044,3020002092477,登記記録の閉鎖等,0,2024-01-19,2024-01-19,有限会社大平屋角田商店,,有限会社,神奈川県,川崎市多摩区,西生田３丁目９番１９号,,14,135,2140037,,,2024-01-19,登記官による閉鎖,,,2015-10-05,1,,,,,,0
1045,3020002093392,登記記録の閉鎖等,0,2024-01-19,2024-01-19,有限会社民衆本店,,有限会社,神奈川県,川崎市多摩区,登戸１８８９番地,,14,135,2140014,,,2024-01-19,登記官による閉鎖,,,2015-10-05,1,,,,,,0
1046,3020002094408,登記記録の閉鎖等,0,2024-01-19,2024-01-19,有限会社坂井製作所,00011611,有限会社,神奈川県,川崎市麻生区,東百合丘４丁目１０番３号,,14,137,2150012,,,2024-01-19,登記官による閉鎖,,,2015-10-05,1,,,,,,0
1047,3020002106542,登記記録の閉鎖等,0,2024-01-19,2024-01-19,有限会社リーフ,,有限会社,神奈川県,川崎市川崎区,下並木１１番地５川崎サイトシティＩＶ番館１００７,00011735,14,131,2100025,,,2024-01-19,登記官による閉鎖,,,2015-10-05,1,,,,,,0
1048,3020003007475,登記記録の閉鎖等,0,2024-01-19,2024-01-19,合同会社毘沙門天,,合同会社,神奈川県,横浜市西区,霞ケ丘４４番地,,14,103,2200035,,,2024-01-19,登記官による閉鎖,,,2015-10-05,1,,,,,,0
1050,3020003022680,登記記録の閉鎖等,0,2024-01-19,2024-01-15,ＮＡＫＡＮＯ‐ＪＩＭ合同会社,,合同会社,神奈川県,横浜市港南区,最戸２丁目１２番２０－７１３号,,14,111,2330008,,,2024-01-15,清算の結了等,,,2022-11-07,1,,,,,ナカノジム,0
1052,3020005005262,登記記録の閉鎖等,0,2024-01-19,2024-01-19,特定非営利活動法人かながわ風土の会,,その他の設立登記法人,神奈川県,横浜市南区,南吉田町４丁目３７番地２０,,14,105,2320012,,,2024-01-19,登記官による閉鎖,,,2015-10-05,1,,,,,,0
1053,3020005006252,登記記録の閉鎖等,0,2024-01-19,2024-01-19,特定非営利活動法人海と海辺の環境学校,,その他の設立登記法人,神奈川県,横浜市青葉区,寺家町９番地１,,14,117,2270031,,,2024-01-19,登記官による閉鎖,,,2015-10-05,1,,,,,,0
1054,3020005006475,登記記録の閉鎖等,0,2024-01-19,2024-01-19,特定非営利活動法人ちびっ子ハウス,,その他の設立登記法人,神奈川県,横浜市保土ケ谷区,瀬戸ケ谷町３８番地３号グランドメゾン保土ヶ谷３０１号,,14,106,2400024,,,2024-01-19,登記官による閉鎖,,,2015-10-05,1,,,,,,0
1055,3020005006525,登記記録の閉鎖等,0,2024-01-19,2024-01-19,特定非営利活動法人子供の為のスポーツ＆カルチャー交流振興協会ヒラソール,,その他の設立登記法人,神奈川県,横浜市中区,石川町２丁目８１番地プラージュ石川町１Ｆいきいき学習プラザ内,,14,104,2310868,,,2024-01-19,登記官による閉鎖,,,2015-10-05,1,,,,,,0
1056,3020005009916,登記記録の閉鎖等,0,2024-01-19,2024-01-19,ＮＰＯ法人活き活きまちづくりの会,,その他の設立登記法人,神奈川県,川崎市高津区,下作延２丁目７番３３号,,14,134,2130033,,,2024-01-19,登記官による閉鎖,,,2015-10-05,1,,,,,,0
1058,3021001000513,登記記録の閉鎖等,0,2024-01-19,2024-01-19,株式会社川京,,株式会社,神奈川県,藤沢市,湘南台７丁目５０番地の２,,14,205,2520804,,,2024-01-19,登記官による閉鎖,,,2015-10-05,1,,,,,,0
1059,3021001004836,登記記録の閉鎖等,0,2024-01-19,2024-01-19,株式会社カルナメディカル,,株式会社,神奈川県,藤沢市,辻堂３丁目１９番１７号,,14,205,2510047,,,2024-01-19,登記官による閉鎖,,,2015-10-05,1,,,,,,0
1060,3021001011782,登記記録の閉鎖等,0,2024-01-19,2024-01-19,日本エプル株式会社,,株式会社,神奈川県,相模原市中央区,淵野辺本町２丁目１６番２３号,,14,152,2520202,,,2024-01-19,登記官による閉鎖,,,2015-10-05,1,,,,,,0
1061,3021001018068,登記記録の閉鎖等,0,2024-01-19,2024-01-19,株式会社カインズホーム,,株式会社,神奈川県,相模原市南区,大野台３丁目３０番８－５号,,14,153,2520331,,,2024-01-19,登記官による閉鎖,,,2015-10-05,1,,,,,,0
1062,3021001025403,登記記録の閉鎖等,0,2024-01-19,2024-01-19,株式会社菅原鉄工,,株式会社,神奈川県,大和市,福田６丁目１０番地の４,,14,213,2420024,,,2024-01-19,登記官による閉鎖,,,2015-10-05,1,,,,,,0
1064,3021001030510,登記記録の閉鎖等,0,2024-01-19,2024-01-19,株式会社ＡＭＥＲＩＣＡＮ　ＤＲＥＡＭ,,株式会社,神奈川県,大和市,中央１丁目３番２１号,,14,213,2420021,,,2024-01-19,登記官による閉鎖,,,2015-10-05,1,,,,,,0
1065,3021001032705,登記記録の閉鎖等,0,2024-01-19,2024-01-19,清水印刷株式会社,,株式会社,神奈川県,小田原市,本町２丁目３番１４号,,14,206,2500012,,,2024-01-19,登記官による閉鎖,,,2015-10-05,1,,,,,,0
1066,3021001033810,登記記録の閉鎖等,0,2024-01-19,2024-01-19,株式会社生沼製材所,,株式会社,神奈川県,南足柄市,中沼１２３番地,,14,217,2500123,,,2024-01-19,登記官による閉鎖,,,2015-10-05,1,,,,,,0
1067,3021001038487,登記記録の閉鎖等,0,2024-01-19,2024-01-19,株式会社メタルフロンティア,,株式会社,神奈川県,平塚市,岡崎３４２３番地の８,,14,203,2591212,,,2024-01-19,登記官による閉鎖,,,2015-10-05,1,,,,,,0
1071,3021002002839,登記記録の閉鎖等,0,2024-01-19,2024-01-19,有限会社彩海ディーアンドシー,,有限会社,神奈川県,鎌倉市,手広１丁目１６番１７号,,14,204,2480036,,,2024-01-19,登記官による閉鎖,,,2015-10-05,1,,,,,,0
1072,3021002010627,登記記録の閉鎖等,0,2024-01-19,2024-01-19,有限会社岸材木店,,有限会社,神奈川県,茅ヶ崎市,十間坂３丁目１番３号,,14,207,2530045,,,2024-01-19,登記官による閉鎖,,,2015-10-05,1,,,,,,0
1073,3021002017829,登記記録の閉鎖等,0,2024-01-19,2024-01-19,有限会社石黒商事,,有限会社,神奈川県,相模原市南区,相模台２丁目４番１５号,,14,153,2520321,,,2024-01-19,登記官による閉鎖,,,2015-10-05,1,,,,,,0
1074,3021002017894,登記記録の閉鎖等,0,2024-01-19,2024-01-19,有限会社伊藤,,有限会社,神奈川県,相模原市中央区,宮下本町１丁目１番９号,,14,152,2520211,,,2024-01-19,登記官による閉鎖,,,2015-10-05,1,,,,,,0
1076,3021002041572,登記記録の閉鎖等,0,2024-01-19,2024-01-19,高義産業有限会社,,有限会社,神奈川県,大和市,上草柳６丁目２２番１号,,14,213,2420029,,,2024-01-19,登記官による閉鎖,,,2015-10-05,1,,,,,,0
1077,3021002048023,登記記録の閉鎖等,0,2024-01-19,2024-01-19,有限会社グレース企画,,有限会社,神奈川県,座間市,ひばりが丘１丁目２４番１４号,,14,216,2520003,,,2024-01-19,登記官による閉鎖,,,2015-10-05,1,,,,,,0
1078,3021002065860,登記記録の閉鎖等,0,2024-01-19,2024-01-19,有限会社冨田興業,,有限会社,神奈川県,横須賀市,鶴が丘２丁目１番１８号,,14,201,2380056,,,2024-01-19,登記官による閉鎖,,,2015-10-05,1,,,,,,0
1082,3021005006201,登記記録の閉鎖等,0,2024-01-19,2024-01-19,足柄食肉事業協同組合,,その他の設立登記法人,神奈川県,足柄上郡松田町,松田惣領１２０６番地,,14,363,2580003,,,2024-01-19,登記官による閉鎖,,,2015-10-05,1,,,,,,0
1104,3040002025765,登記記録の閉鎖等,0,2024-01-19,2024-01-09,有限会社宮本商店,,有限会社,千葉県,船橋市,二和西２丁目１２番５号,,12,204,2740806,,,2024-01-09,清算の結了等,,,2015-10-05,1,,,,,ミヤモトショウテン,0
1117,3060001032950,登記記録の閉鎖等,0,2024-01-19,2024-01-16,株式会社スマイル,,株式会社,栃木県,宇都宮市,竹下町４３５番地１５０,,09,201,3213236,,,2024-01-16,清算の結了等,,,2020-09-10,1,,,,,スマイル,0
1121,3070001026068,登記記録の閉鎖等,0,2024-01-19,2024-01-12,株式会社ベルポスト,,株式会社,群馬県,太田市,新島町９１０店舗２Ｆ,,10,205,3730819,,,2024-01-12,清算の結了等,,,2015-10-05,1,,,,,ベルポスト,0
1158,3080402005727,登記記録の閉鎖等,0,2024-01-19,2024-01-15,有限会社中畑機械設計,,有限会社,静岡県,浜松市中央区,大平台３丁目８番１号,,22,138,4328068,,,2024-01-15,清算の結了等,,,2015-10-05,1,,,,,ナカハタキカイセッケイ,0
1174,3110002024891,登記記録の閉鎖等,0,2024-01-19,2024-01-16,有限会社志保屋書店,,有限会社,新潟県,妙高市,上町７番６号,,15,217,9440046,,,2024-01-16,清算の結了等,,,2015-10-05,1,,,,,シホヤショテン,0
1205,3120105009120,登記記録の閉鎖等,0,2024-01-19,2024-01-17,一般社団法人グリーンインフラ推進協会,,その他の設立登記法人,大阪府,堺市堺区,向陵中町３丁４－２４,,27,141,5900024,,,2024-01-17,清算の結了等,,,2019-10-29,1,,,,,グリーンインフラスイシンキョウカイ,0
1209,3122001012926,登記記録の閉鎖等,0,2024-01-19,2024-01-18,東大阪土地建物株式会社,,株式会社,大阪府,東大阪市,喜里川町１番２７号,,27,227,5798041,,,2024-01-18,清算の結了等,,,2015-10-05,1,,,,,ヒガシオオサカトチタテモノ,0
1211,3130001007219,登記記録の閉鎖等,0,2024-01-19,2024-01-18,株式会社フレックス,,株式会社,京都府,宇治市,宇治半白８５番地の７,,26,204,6110021,,,2024-01-18,清算の結了等,,,2015-10-05,1,,,,,フレックス,0
1212,3130001009116,登記記録の閉鎖等,0,2024-01-19,2024-01-16,株式会社かじ富金物製作所,,株式会社,京都府,京都市伏見区,桃山町安芸山１００－１５,,26,109,6120834,,,2024-01-16,清算の結了等,,,2015-10-05,1,,,,,カジトミカナモノセイサクショ,0
1214,3130001049392,登記記録の閉鎖等,0,2024-01-19,2024-01-16,株式会社桃山デザインラボ,,株式会社,京都府,京都市伏見区,桃山町下野３７番地,,26,109,6128021,,,2024-01-16,清算の結了等,,,2015-10-05,1,,,,,モモヤマデザインラボ,0
1233,3180001090499,登記記録の閉鎖等,0,2024-01-19,2024-01-15,株式会社ｓｅｌｆｉｓｈ,,株式会社,愛知県,一宮市,若竹２丁目３番１号,,23,203,4910832,,,2024-01-15,清算の結了等,,,2015-10-05,1,,,,,セルフィッシュ,0
1253,3180302009603,登記記録の閉鎖等,0,2024-01-19,2024-01-10,ベルウッド開発有限会社,,有限会社,愛知県,豊橋市,佐藤１丁目１８番地の２,,23,201,4400853,,,2024-01-10,清算の結了等,,,2015-10-05,1,,,,,ベルウッドカイハツ,0
1257,3200001008861,登記記録の閉鎖等,0,2024-01-19,2024-01-19,大堀商事株式会社,,株式会社,岐阜県,岐阜市,曽我屋２丁目５番地,,21,201,5010101,,,2024-01-19,登記官による閉鎖,,,2015-10-05,1,,,,,,0
1258,3200001010181,登記記録の閉鎖等,0,2024-01-19,2024-01-19,水野ニット株式会社,,株式会社,岐阜県,瑞穂市,祖父江６０５番地の１,,21,216,5010225,,,2024-01-19,登記官による閉鎖,,,2015-10-05,1,,,,,,0
1259,3200001021435,登記記録の閉鎖等,0,2024-01-19,2024-01-19,東海不動産株式会社,,株式会社,岐阜県,土岐市,土岐津町高山３２９番地の２,,21,212,5095121,,,2024-01-19,登記官による閉鎖,,,2015-10-05,1,,,,,,0
1261,3200001028406,登記記録の閉鎖等,0,2024-01-19,2024-01-19,株式会社Ｃａｎｖａｓ,,株式会社,岐阜県,瑞穂市,馬場小城町２丁目５３－１,,21,216,5010205,,,2024-01-19,登記官による閉鎖,,,2015-10-05,1,,,,,,0
1262,3200002001403,登記記録の閉鎖等,0,2024-01-19,2024-01-19,有限会社ギホクエンジニアリング,,有限会社,岐阜県,岐阜市,中西郷５丁目７１番地の６,,21,201,5011177,,,2024-01-19,登記官による閉鎖,,,2015-10-05,1,,,,,,0
1263,3200002005354,登記記録の閉鎖等,0,2024-01-19,2024-01-19,有限会社中部道路設備,,有限会社,岐阜県,岐阜市,則武西２丁目２０番９号,,21,201,5020939,,,2024-01-19,登記官による閉鎖,,,2015-10-05,1,,,,,,0
1264,3200002021616,登記記録の閉鎖等,0,2024-01-19,2024-01-19,有限会社マルキ印刷,,有限会社,岐阜県,土岐市,下石町１２０６番地の２,,21,212,5095202,,,2024-01-19,登記官による閉鎖,,,2015-10-05,1,,,,,,0
1266,3200003000247,登記記録の閉鎖等,0,2024-01-19,2024-01-19,合資会社アイ・ウェブ,,合資会社,岐阜県,岐阜市,東材木町３７番地,,21,201,5008029,,,2024-01-19,登記官による閉鎖,,,2015-10-05,1,,,,,,0
1267,3200003001765,登記記録の閉鎖等,0,2024-01-19,2024-01-19,合資会社柏屋呉服店,,合資会社,岐阜県,不破郡垂井町,１１３９番地の１,,21,361,5032121,,,2024-01-19,登記官による閉鎖,,,2015-10-05,1,,,,,,0
1269,3200005001193,登記記録の閉鎖等,0,2024-01-19,2024-01-19,ギフフレンズフード協同組合,,その他の設立登記法人,岐阜県,岐阜市,六条江東２丁目９番２号,,21,201,5008356,,,2024-01-19,登記官による閉鎖,,,2015-10-05,1,,,,,,0
1270,3200005002877,登記記録の閉鎖等,0,2024-01-19,2024-01-19,協同組合ｃｏｎｓｔｒｕｃｔ,,その他の設立登記法人,岐阜県,岐阜市,一日市場１丁目３０番地１Ｋ’Ｓマンション１０３,,21,201,5010103,,,2024-01-19,登記官による閉鎖,,,2015-10-05,1,,,,,,0
1271,3220001012548,登記記録の閉鎖等,0,2024-01-19,2024-01-15,株式会社山中機工,,株式会社,石川県,小松市,佐美町壬１８番地１,,17,203,9230984,,,2024-01-15,清算の結了等,,,2015-10-05,1,,,,,ヤマナカキコウ,0
1299,3290005014121,登記記録の閉鎖等,0,2024-01-19,2024-01-12,未来経営事業協同組合,,その他の設立登記法人,福岡県,福岡市城南区,松山１丁目１０番２２号,,40,136,8140131,,,2024-01-12,清算の結了等,,,2015-10-05,1,,,,,ミライケイエイ,0
1302,3310001005352,登記記録の閉鎖等,0,2024-01-19,2024-01-11,株式会社興和,,株式会社,長崎県,佐世保市,立神町２３番１７号,,42,202,8570063,,,2024-01-11,登記官による閉鎖,,,2015-10-05,1,,,,,,0
1303,3310001006929,登記記録の閉鎖等,0,2024-01-19,2024-01-11,昭生商事株式会社,,株式会社,長崎県,南松浦郡新上五島町,岩瀬浦郷７１４番地,,42,411,8533102,,,2024-01-11,登記官による閉鎖,,,2015-10-05,1,,,,,,0
1304,3310005002049,登記記録の閉鎖等,0,2024-01-19,2024-01-11,特定非営利活動法人シルバーサポートはじめ会,,その他の設立登記法人,長崎県,長崎市,鳴見台１丁目１０番１０号,,42,201,8512215,,,2024-01-11,登記官による閉鎖,,,2015-10-05,1,,,,,,0
1305,3310005002156,登記記録の閉鎖等,0,2024-01-19,2024-01-11,特定非営利活動法人自立生活支援の会,,その他の設立登記法人,長崎県,長崎市,花丘町１１番２４号サンライズビル１階,,42,201,8528153,,,2024-01-11,登記官による閉鎖,,,2015-10-05,1,,,,,,0
1310,3330001008312,登記記録の閉鎖等,0,2024-01-19,2024-01-19,センチュリオン株式会社,,株式会社,熊本県,熊本市中央区,新屋敷３丁目１５番１１－３０４号,,43,101,8620975,,,2024-01-19,登記官による閉鎖,,,2015-10-05,1,,,,,,0
1311,3330001010763,登記記録の閉鎖等,0,2024-01-19,2024-01-19,株式会社女性のみかた,,株式会社,熊本県,熊本市中央区,春竹町大字春竹６１番地,,43,101,8600815,,,2024-01-19,登記官による閉鎖,,,2015-10-05,1,,,,,,0
1312,3330001015977,登記記録の閉鎖等,0,2024-01-19,2024-01-19,人吉通信建設株式会社,,株式会社,熊本県,人吉市,下薩摩瀬町６５５番地５,,43,203,8680014,,,2024-01-19,登記官による閉鎖,,,2015-10-05,1,,,,,,0
1313,3330001025308,登記記録の閉鎖等,0,2024-01-19,2024-01-19,株式会社キューコーシン,,株式会社,熊本県,合志市,豊岡２０００番地１０８,,43,216,8611115,,,2024-01-19,登記官による閉鎖,,,2018-05-09,1,,,,,キューコーシン,0
1315,3330002001869,登記記録の閉鎖等,0,2024-01-19,2024-01-19,有限会社フライトワン,,有限会社,熊本県,熊本市東区,昭和町１番４号,,43,102,8612108,,,2024-01-19,登記官による閉鎖,,,2015-10-05,1,,,,,,0
1316,3330002012486,登記記録の閉鎖等,0,2024-01-19,2024-01-19,有限会社ウエノ・ウイング,,有限会社,熊本県,熊本市中央区,坪井４丁目１３番１９号,,43,101,8600863,,,2024-01-19,登記官による閉鎖,,,2015-10-05,1,,,,,,0
1317,3330002030356,登記記録の閉鎖等,0,2024-01-19,2024-01-19,有限会社中神商会,,有限会社,熊本県,球磨郡錦町,大字一武１５４３番地の５,,43,501,8680302,,,2024-01-19,登記官による閉鎖,,,2015-10-05,1,,,,,,0
1318,3330005003763,登記記録の閉鎖等,0,2024-01-19,2024-01-19,農事組合法人益城専業酪農組合,,その他の設立登記法人,熊本県,上益城郡益城町,大字木山４４０番地,,43,443,8612242,,,2024-01-19,登記官による閉鎖,,,2015-10-05,1,,,,,,0
1331,3390001015393,登記記録の閉鎖等,0,2024-01-19,2024-01-17,株式会社ブーランジェ・エス・オオオカ,,株式会社,山形県,鶴岡市,東新斎町２番５０号,,06,203,9970043,,,2024-01-17,清算の結了等,,,2018-07-25,1,,,,,ブーランジェエスオオオカ,0
1336,3410001004229,登記記録の閉鎖等,0,2024-01-19,2024-01-18,フレックス株式会社,,株式会社,秋田県,秋田市,川尻大川町１２番４３号,,05,201,0100942,,,2024-01-18,登記官による閉鎖,,,2015-10-05,1,,,,,,0
1337,3410002006083,登記記録の閉鎖等,0,2024-01-19,2024-01-18,有限会社プロモーションオフィス・ゼロ,,有限会社,秋田県,秋田市,手形休下町６番２６号,,05,201,0100863,,,2024-01-18,登記官による閉鎖,,,2015-10-05,1,,,,,,0
1338,3410005001387,登記記録の閉鎖等,0,2024-01-19,2024-01-18,財団法人石川翁遺跡保存会,,その他の設立登記法人,秋田県,潟上市,昭和豊川山田字家の上６２番地,,05,211,0181416,,,2024-01-18,登記官による閉鎖,,,2015-10-05,1,,,,,,0
1339,3410005002385,登記記録の閉鎖等,0,2024-01-19,2024-01-18,企業組合長生きの里,,その他の設立登記法人,秋田県,秋田市,川尻大川町２－４３,,05,201,0100942,,,2024-01-18,登記官による閉鎖,,,2015-10-05,1,,,,,,0
1340,3410005003466,登記記録の閉鎖等,0,2024-01-19,2024-01-18,県北繊維協同組合,,その他の設立登記法人,秋田県,鹿角市,尾去沢字下大屋布３番地,,05,209,0185202,,,2024-01-18,登記官による閉鎖,,,2015-10-05,1,,,,,,0
1341,3410005003722,登記記録の閉鎖等,0,2024-01-19,2024-01-18,社団法人能代木材会館,,その他の設立登記法人,秋田県,能代市,河戸川字上西山６３番地の６,,05,202,0160171,,,2024-01-18,登記官による閉鎖,,,2015-10-05,1,,,,,,0
1354,3700150113569,登記記録の閉鎖等,0,2024-01-19,2023-08-27,ケンケンクリエイト,,その他,東京都,町田市,木曽東２丁目８番１３－４０３,,13,209,1940036,,,2023-08-27,その他の清算の結了等,,,2023-01-11,1,,,,,ケンケンクリエイト,0
1395,4010901005142,登記記録の閉鎖等,0,2024-01-19,2024-01-18,株式会社シーエフシー・フーズ,,株式会社,東京都,世田谷区,宇奈根３丁目１番３０号,,13,112,1570068,,,2024-01-18,登記官による閉鎖,,,2015-10-05,1,,,,,,0
1396,4010901018185,登記記録の閉鎖等,0,2024-01-19,2024-01-18,株式会社ナイカ,,株式会社,東京都,世田谷区,南烏山４丁目１８番１８号,,13,112,1570062,,,2024-01-18,登記官による閉鎖,,,2015-10-05,1,,,,,,0
1399,4010902005315,登記記録の閉鎖等,0,2024-01-19,2024-01-18,有限会社ケアー・セフティー松原介護支援センター,,有限会社,東京都,世田谷区,松原６丁目３６番１２号,,13,112,1560043,,,2024-01-18,登記官による閉鎖,,,2015-10-05,1,,,,,,0
1400,4010902006049,登記記録の閉鎖等,0,2024-01-19,2024-01-18,有限会社小林ネオン工業所,,有限会社,東京都,世田谷区,東玉川１丁目２番１０号,,13,112,1580084,,,2024-01-18,登記官による閉鎖,,,2015-10-05,1,,,,,,0
1402,4010902012542,登記記録の閉鎖等,0,2024-01-19,2024-01-18,ビタパツプフード有限会社,,有限会社,東京都,世田谷区,代田３丁目３０番１７号,,13,112,1550033,,,2024-01-18,登記官による閉鎖,,,2015-10-05,1,,,,,,0
1403,4010902013103,登記記録の閉鎖等,0,2024-01-19,2024-01-18,フジコウ販売有限会社,,有限会社,東京都,世田谷区,深沢５丁目５番１４－６０１号,,13,112,1580081,,,2024-01-18,登記官による閉鎖,,,2015-10-05,1,,,,,,0
1407,4011001058072,登記記録の閉鎖等,0,2024-01-19,2024-01-19,株式会社エープラス,,株式会社,神奈川県,横浜市磯子区,磯子２丁目９番１６号,,14,107,2350016,,,2024-01-19,登記官による閉鎖,,,2015-10-05,1,,,,,,0
1415,4011101062197,登記記録の閉鎖等,0,2024-01-19,2024-01-17,株式会社ＶＢＰＯジャパン,,株式会社,東京都,新宿区,新宿１丁目３６番１２号サンカテリーナビル６階１３,,13,104,1600022,,,2024-01-17,合併による解散等,9011001151608,令和６年１月１日東京都渋谷区道玄坂一丁目１０番８号渋谷道玄坂東急ビル（Ｐｌｕｇ＆ＰｌａｙＳｈｉｂｕｙａ）ＲａｉｎＳｃａｌｅｓ　Ｊａｐａｎ株式会社（9011001151608）に合併し解散,2015-10-05,1,,,,,,0
1437,4020001006809,登記記録の閉鎖等,0,2024-01-19,2024-01-19,ホライズン株式会社,,株式会社,神奈川県,横浜市金沢区,瀬戸１７番３号,,14,108,2360027,,,2024-01-19,登記官による閉鎖,,,2015-10-05,1,,,,,,0
1438,4020001015181,登記記録の閉鎖等,0,2024-01-19,2024-01-19,成友建設株式会社,,株式会社,神奈川県,横浜市西区,南浅間町３１番地１３サンライズプラザ２階,,14,103,2200074,,,2024-01-19,登記官による閉鎖,,,2015-10-05,1,,,,,,0
1440,4020001045113,登記記録の閉鎖等,0,2024-01-19,2024-01-19,ファイアー技研株式会社,,株式会社,神奈川県,横浜市磯子区,東町１７番２９号,,14,107,2350005,,,2024-01-19,登記官による閉鎖,,,2015-10-05,1,,,,,,0
1441,4020001053470,登記記録の閉鎖等,0,2024-01-19,2024-01-19,株式会社ノイス,,株式会社,神奈川県,横浜市磯子区,岡村３丁目２５番５－１４０４号,,14,107,2350021,,,2024-01-19,登記官による閉鎖,,,2015-10-05,1,,,,,,0
1442,4020001055566,登記記録の閉鎖等,0,2024-01-19,2024-01-19,株式会社飛仔商事,,株式会社,神奈川県,横浜市緑区,鴨居５丁目１２番１６号,,14,113,2260003,,,2024-01-19,登記官による閉鎖,,,2015-10-05,1,,,,,,0
1443,4020001055624,登記記録の閉鎖等,0,2024-01-19,2024-01-19,インレース株式会社,,株式会社,神奈川県,横浜市鶴見区,矢向６丁目１０番５号,,14,101,2300001,,,2024-01-19,登記官による閉鎖,,,2015-10-05,1,,,,,,0
1444,4020001070458,登記記録の閉鎖等,0,2024-01-19,2024-01-19,株式会社シーマックス,,株式会社,神奈川県,川崎市中原区,下小田中１丁目６番２８号シーマックスビル,,14,133,2110041,,,2024-01-19,登記官による閉鎖,,,2015-10-05,1,,,,,,0
1445,4020001074062,登記記録の閉鎖等,0,2024-01-19,2024-01-12,日興運輸倉庫株式会社,,株式会社,神奈川県,川崎市川崎区,白石町７番６号,,14,131,2100857,,,2024-01-12,清算の結了等,,,2015-10-05,1,,,,,,0
1446,4020001076513,登記記録の閉鎖等,0,2024-01-19,2024-01-19,株式会社福与,,株式会社,神奈川県,川崎市高津区,下作延１丁目６番１－５０４号バースシティ溝の口クインク,,14,134,2130033,,,2024-01-19,登記官による閉鎖,,,2015-10-05,1,,,,,,0
1447,4020001099340,登記記録の閉鎖等,0,2024-01-19,2024-01-19,株式会社ＧＬＯＷＩＮＧ,,株式会社,神奈川県,川崎市川崎区,貝塚１丁目１２番１６,,14,131,2100014,,,2024-01-19,登記官による閉鎖,,,2015-10-05,1,,,,,,0
1449,4020001145037,登記記録の閉鎖等,0,2024-01-19,2024-01-12,ＤＥＮＺＡＩ株式会社,,株式会社,北海道,室蘭市,大沢町１丁目２番８号,,01,205,0500086,,,2024-01-12,合併による解散等,2020001109654,令和６年１月１日北海道室蘭市大沢町一丁目２番８号株式会社電材ホールディングス（2020001109654）に合併し解散,2022-01-28,1,,,,,デンザイ,0
1454,4020002002170,登記記録の閉鎖等,0,2024-01-19,2024-01-19,有限会社ヨシダ,,有限会社,神奈川県,横浜市瀬谷区,南台１丁目３番地の１－２０７号,,14,114,2460032,,,2024-01-19,登記官による閉鎖,,,2015-10-05,1,,,,,,0
1455,4020002004150,登記記録の閉鎖等,0,2024-01-19,2024-01-19,有限会社グリーンサービス,,有限会社,神奈川県,横浜市緑区,白山４丁目２３番３号,,14,113,2260006,,,2024-01-19,登記官による閉鎖,,,2015-10-05,1,,,,,,0
1456,4020002012962,登記記録の閉鎖等,0,2024-01-19,2024-01-19,有限会社三浦電設,,有限会社,神奈川県,横浜市戸塚区,俣野町１４０３番地,,14,110,2450066,,,2024-01-19,登記官による閉鎖,,,2015-10-05,1,,,,,,0
1457,4020002017961,登記記録の閉鎖等,0,2024-01-19,2024-01-19,有限会社東工業,,有限会社,神奈川県,横浜市港南区,日野２丁目６番４号,,14,111,2340051,,,2024-01-19,登記官による閉鎖,,,2015-10-05,1,,,,,,0
1459,4020002028579,登記記録の閉鎖等,0,2024-01-19,2024-01-19,有限会社横浜鶏卵岩島商店,,有限会社,神奈川県,横浜市神奈川区,栄町２３番地１８,,14,102,2210052,,,2024-01-19,登記官による閉鎖,,,2015-10-05,1,,,,,,0
1460,4020002053098,登記記録の閉鎖等,0,2024-01-19,2024-01-19,有限会社ヤマ・ハイテック,,有限会社,神奈川県,横浜市旭区,中沢２丁目２６番４号,,14,112,2410814,,,2024-01-19,登記官による閉鎖,,,2018-08-17,1,,,,,ヤマハイテック,0
1461,4020002073435,登記記録の閉鎖等,0,2024-01-19,2024-01-19,有限会社栄進エンジニアリング,,有限会社,神奈川県,横浜市泉区,和泉町２０５７番地２,,14,116,2450016,,,2024-01-19,登記官による閉鎖,,,2015-10-05,1,,,,,,0
1462,4020002076818,登記記録の閉鎖等,0,2024-01-19,2024-01-19,有限会社大宮砿油,,有限会社,神奈川県,横浜市港北区,小机町２１２０番地,,14,109,2220036,,,2024-01-19,登記官による閉鎖,,,2015-10-05,1,,,,,,0
1463,4020002079333,登記記録の閉鎖等,0,2024-01-19,2024-01-19,有限会社Ａｒｉｅｌ,,有限会社,神奈川県,横浜市中区,元町３丁目１４１番地８,,14,104,2310861,,,2024-01-19,登記官による閉鎖,,,2015-10-05,1,,,,,,0
1464,4020002081875,登記記録の閉鎖等,0,2024-01-19,2024-01-19,有限会社ミノル建築事務所,,有限会社,神奈川県,川崎市幸区,塚越１丁目６０番地,,14,132,2120024,,,2024-01-19,登記官による閉鎖,,,2015-10-05,1,,,,,,0
1465,4020002082130,登記記録の閉鎖等,0,2024-01-19,2024-01-19,有限会社深沢青果,,有限会社,神奈川県,川崎市幸区,古市場２丁目９９番地,,14,132,2120052,,,2024-01-19,登記官による閉鎖,,,2015-10-05,1,,,,,,0
1466,4020002092360,登記記録の閉鎖等,0,2024-01-19,2024-01-19,有限会社鈴江商店,,有限会社,神奈川県,川崎市多摩区,長尾１丁目８番１７号,,14,135,2140023,,,2024-01-19,登記官による閉鎖,,,2015-10-05,1,,,,,,0
1467,4020002099521,登記記録の閉鎖等,0,2024-01-19,2024-01-19,有限会社明華,,有限会社,神奈川県,川崎市川崎区,田町３丁目１５番２号,,14,131,2100822,,,2024-01-19,登記官による閉鎖,,,2015-10-05,1,,,,,,0
1468,4020002099785,登記記録の閉鎖等,0,2024-01-19,2024-01-19,有限会社吉田商事,,有限会社,神奈川県,川崎市川崎区,渡田４丁目３番３号,,14,131,2100837,,,2024-01-19,登記官による閉鎖,,,2015-10-05,1,,,,,,0
1469,4020002105733,登記記録の閉鎖等,0,2024-01-19,2024-01-19,有限会社ビューティーバランス,,有限会社,神奈川県,横浜市青葉区,あざみ野４丁目９番２８号,,14,117,2250011,,,2024-01-19,登記官による閉鎖,,,2015-10-05,1,,,,,,0
1470,4020002105832,登記記録の閉鎖等,0,2024-01-19,2024-01-19,有限会社ルミネス２１,,有限会社,神奈川県,川崎市幸区,大宮町２６番地３－３－６０９,,14,132,2120014,,,2024-01-19,登記官による閉鎖,,,2015-10-05,1,,,,,,0
1471,4020003006831,登記記録の閉鎖等,0,2024-01-19,2024-01-19,ＲｅｃＭａｎ合同会社,,合同会社,神奈川県,横浜市中区,桜木町１丁目１番７号ＴＯＣみなとみらい１０階,,14,104,2310062,,,2024-01-19,登記官による閉鎖,,,2015-10-05,1,,,,,,0
1475,4020005006318,登記記録の閉鎖等,0,2024-01-19,2024-01-19,特定非営利活動法人グリーンセーフガードファンデーション,,その他の設立登記法人,神奈川県,横浜市神奈川区,鶴屋町３丁目３３番１７号大河原ビル２Ｆ,,14,102,2210835,,,2024-01-19,登記官による閉鎖,,,2015-10-05,1,,,,,,0
1476,4020005007002,登記記録の閉鎖等,0,2024-01-19,2024-01-19,特定非営利活動法人環境セイバーブルーアース,,その他の設立登記法人,神奈川県,横浜市南区,浦舟町１丁目１番１１号,,14,105,2320024,,,2024-01-19,登記官による閉鎖,,,2015-10-05,1,,,,,,0
1477,4020005009072,登記記録の閉鎖等,0,2024-01-19,2024-01-19,特定非営利活動法人退役馬シニアライフの会,,その他の設立登記法人,神奈川県,川崎市幸区,南幸町２丁目２１番地シノックスプラザ３Ｆ,,14,132,2120016,,,2024-01-19,登記官による閉鎖,,,2015-10-05,1,,,,,,0
1478,4021001005511,登記記録の閉鎖等,0,2024-01-19,2024-01-19,株式会社湘南建工,,株式会社,神奈川県,藤沢市,下土棚６２０番地,,14,205,2520807,,,2024-01-19,登記官による閉鎖,,,2015-10-05,1,,,,,,0
1479,4021001008332,登記記録の閉鎖等,0,2024-01-19,2024-01-19,株式会社バイユアサイド,,株式会社,神奈川県,茅ヶ崎市,中海岸２丁目５番５号,,14,207,2530055,,,2024-01-19,登記官による閉鎖,,,2015-10-05,1,,,,,,0
1480,4021001024569,登記記録の閉鎖等,0,2024-01-19,2024-01-19,株式会社ＭＡＴＴＳ,,株式会社,神奈川県,厚木市,戸田４８８番地２セ・ラ・ヴィシマヤ２０２,,14,212,2430023,,,2024-01-19,登記官による閉鎖,,,2015-10-05,1,,,,,,0
1481,4021001036960,登記記録の閉鎖等,0,2024-01-19,2024-01-19,東海サービス株式会社,,株式会社,神奈川県,平塚市,立野町３４番１７号,,14,203,2540046,,,2024-01-19,登記官による閉鎖,,,2015-10-05,1,,,,,,0
1482,4021001044419,登記記録の閉鎖等,0,2024-01-19,2024-01-19,株式会社湘南健康水産食品,,株式会社,神奈川県,逗子市,久木３丁目８番８号,,14,208,2490001,,,2024-01-19,登記官による閉鎖,,,2015-10-05,1,,,,,,0
1483,4021001046142,登記記録の閉鎖等,0,2024-01-19,2024-01-19,株式会社アースンウェア,,株式会社,神奈川県,小田原市,小竹７３５番地の６２,,14,206,2560802,,,2024-01-19,登記官による閉鎖,,,2015-10-05,1,,,,,,0
1484,4021001047314,登記記録の閉鎖等,0,2024-01-19,2024-01-19,株式会社ｅｖｅｒ,,株式会社,神奈川県,相模原市中央区,星が丘３丁目１５番２２号,,14,152,2520238,,,2024-01-19,登記官による閉鎖,,,2015-10-05,1,,,,,,0
1487,4021002005205,登記記録の閉鎖等,0,2024-01-19,2024-01-19,ユアーズ総業有限会社,,有限会社,神奈川県,藤沢市,湘南台４丁目３番１１号,,14,205,2520804,,,2024-01-19,登記官による閉鎖,,,2015-10-05,1,,,,,,0
1488,4021002009610,登記記録の閉鎖等,0,2024-01-19,2024-01-19,有限会社プレズント,,有限会社,神奈川県,高座郡寒川町,小動５３０番地,,14,321,2530102,,,2024-01-19,登記官による閉鎖,,,2015-10-05,1,,,,,,0
1489,4021002014338,登記記録の閉鎖等,0,2024-01-19,2024-01-19,有限会社神谷興業,,有限会社,神奈川県,鎌倉市,七里ガ浜東３丁目２７番３号,,14,204,2480025,,,2024-01-19,登記官による閉鎖,,,2015-10-05,1,,,,,,0
1490,4021002017324,登記記録の閉鎖等,0,2024-01-19,2024-01-19,有限会社アイトーク,,有限会社,神奈川県,相模原市緑区,橋本３丁目２９番１４号,,14,151,2520143,,,2024-01-19,登記官による閉鎖,,,2015-10-05,1,,,,,,0
1491,4021002022935,登記記録の閉鎖等,0,2024-01-19,2024-01-19,有限会社中西板金,,有限会社,神奈川県,相模原市南区,麻溝台１丁目８番１０号,,14,153,2520328,,,2024-01-19,登記官による閉鎖,,,2015-10-05,1,,,,,,0
1492,4021002028362,登記記録の閉鎖等,0,2024-01-19,2024-01-19,有限会社ジーオーキャピタル,,有限会社,神奈川県,相模原市南区,相南２丁目４番４５号,,14,153,2520312,,,2024-01-19,登記官による閉鎖,,,2015-10-05,1,,,,,,0
1493,4021002033189,登記記録の閉鎖等,0,2024-01-19,2024-01-19,有限会社松兼技建,,有限会社,神奈川県,厚木市,三田６３１番地の１５,,14,212,2430211,,,2024-01-19,登記官による閉鎖,,,2015-10-05,1,,,,,,0
1494,4021002033817,登記記録の閉鎖等,0,2024-01-19,2024-01-19,有限会社旭屋金物建材,,有限会社,神奈川県,愛甲郡愛川町,中津７６６番地,,14,401,2430303,,,2024-01-19,登記官による閉鎖,,,2015-10-05,1,,,,,,0
1495,4021002037396,登記記録の閉鎖等,0,2024-01-19,2024-01-19,有限会社阿部ハウジング,,有限会社,神奈川県,秦野市,鈴張町２番１１号,,14,211,2570055,,,2024-01-19,登記官による閉鎖,,,2015-10-05,1,,,,,,0
1496,4021002041349,登記記録の閉鎖等,0,2024-01-19,2024-01-19,有限会社誠栄興業,,有限会社,神奈川県,大和市,西鶴間５丁目２０番１２号,,14,213,2420005,,,2024-01-19,登記官による閉鎖,,,2015-10-05,1,,,,,,0
1497,4021002048294,登記記録の閉鎖等,0,2024-01-19,2024-01-19,有限会社タートルズ,,有限会社,神奈川県,大和市,中央３丁目４番２０号,,14,213,2420021,,,2024-01-19,登記官による閉鎖,,,2015-10-05,1,,,,,,0
1498,4021002056355,登記記録の閉鎖等,0,2024-01-19,2024-01-19,有限会社川上,,有限会社,神奈川県,足柄下郡箱根町,仙石原９３４番地の３９,,14,382,2500631,,,2024-01-19,登記官による閉鎖,,,2015-10-05,1,,,,,,0
1499,4021002059960,登記記録の閉鎖等,0,2024-01-19,2024-01-19,有限会社森本建材重機,,有限会社,神奈川県,平塚市,土屋１９０１番地,,14,203,2591205,,,2024-01-19,登記官による閉鎖,,,2015-10-05,1,,,,,,0
1500,4021002060547,登記記録の閉鎖等,0,2024-01-19,2024-01-19,有限会社ハラダ酒店,,有限会社,神奈川県,中郡大磯町,国府本郷３８３番地,,14,341,2590111,,,2024-01-19,登記官による閉鎖,,,2015-10-05,1,,,,,,0
1501,4021002063698,登記記録の閉鎖等,0,2024-01-19,2024-01-19,有限会社河本一興業,,有限会社,神奈川県,三浦郡葉山町,堀内８０８番地の３,,14,301,2400112,,,2024-01-19,登記官による閉鎖,,,2015-10-05,1,,,,,,0
1502,4021002065703,登記記録の閉鎖等,0,2024-01-19,2024-01-19,有限会社ティディエス,,有限会社,神奈川県,横須賀市,追浜東町３丁目４５番地,,14,201,2370063,,,2024-01-19,登記官による閉鎖,,,2015-10-05,1,,,,,,0
1503,4021002068895,登記記録の閉鎖等,0,2024-01-19,2024-01-19,有限会社高木印刷所,,有限会社,神奈川県,三浦郡葉山町,木古庭４７４番地,,14,301,2400114,,,2024-01-19,登記官による閉鎖,,,2015-10-05,1,,,,,,0
1504,4021002072113,登記記録の閉鎖等,0,2024-01-19,2024-01-19,光和興業有限会社,,有限会社,神奈川県,三浦市,南下浦町松輪１１６９番地１,,14,210,2380104,,,2024-01-19,登記官による閉鎖,,,2015-10-05,1,,,,,,0
1505,4021005004625,登記記録の閉鎖等,0,2024-01-19,2024-01-19,財団法人宗教福祉協会,,その他の設立登記法人,神奈川県,大和市,南林間６丁目４番１５号,,14,213,2420006,,,2024-01-19,登記官による閉鎖,,,2015-10-05,1,,,,,,0
1514,4030002010809,登記記録の閉鎖等,0,2024-01-19,2024-01-11,有限会社浜寿司,,有限会社,埼玉県,さいたま市緑区,大字中尾３００２番地,,11,109,3360932,,,2024-01-11,清算の結了等,,,2015-10-05,1,,,,,ハマズシ,0
1521,4040001084126,登記記録の閉鎖等,0,2024-01-19,2024-01-05,テッドアラカワ株式会社,,株式会社,千葉県,船橋市,松が丘５丁目３６番１３号,,12,204,2740064,,,2024-01-05,清算の結了等,,,2015-10-05,1,,,,,テッドアラカワ,0
1528,4040002015229,登記記録の閉鎖等,0,2024-01-19,2024-01-09,あすみが丘ビジネス・コンサルティング有限会社,,有限会社,千葉県,千葉市緑区,あすみが丘３丁目５１番地１４,,12,105,2670066,,,2024-01-09,清算の結了等,,,2015-10-05,1,,,,,,0
1529,4040002044772,登記記録の閉鎖等,0,2024-01-19,2024-01-09,有限会社大島工務店,,有限会社,千葉県,松戸市,八ケ崎４丁目５番地の１０,,12,207,2700023,,,2024-01-09,清算の結了等,,,2015-10-05,1,,,,,,0
1533,4040002094330,登記記録の閉鎖等,0,2024-01-19,2024-01-09,有限会社プロテック,,有限会社,千葉県,柏市,宿連寺４３３番地の１,,12,217,2770826,,,2024-01-09,清算の結了等,,,2015-10-05,1,,,,,プロテック,0
1536,4040003022471,登記記録の閉鎖等,0,2024-01-19,2024-01-05,ＧｏｖｖｉＪａｐａｎ合同会社,,合同会社,千葉県,千葉市緑区,あすみが丘２丁目１番４号花澤ビルディング４Ｆ,,12,105,2670066,,,2024-01-05,清算の結了等,,,2023-04-26,1,,,,,ゴヴィジャパン,0
1604,4120001227114,登記記録の閉鎖等,0,2024-01-19,2024-01-16,株式会社猫舌堂,,株式会社,大阪府,大阪市北区,中之島３丁目６番１６号,,27,127,5300005,,,2024-01-16,合併による解散等,9010001230933,令和６年１月１日東京都中央区京橋三丁目１番１号１４Ｆ株式会社ｍｉｃｈｉｔｅｋｕ（9010001230933）に合併し解散,2020-02-12,1,,,,,ネコジタドウ,0
1645,4150001000617,登記記録の閉鎖等,0,2024-01-19,2024-01-18,株式会社ＬＴＰ,,株式会社,奈良県,奈良市,三条添川町５番４０号,,29,201,6308127,,,2024-01-18,清算の結了等,,,2015-10-05,1,,,,,エルティピー,0
1651,4180001090531,登記記録の閉鎖等,0,2024-01-19,2024-01-19,株式会社ケープラス,,株式会社,岐阜県,養老郡養老町,船附字大割田１４３７番地,,21,341,5031382,,,2024-01-19,登記官による閉鎖,,,2015-10-05,1,,,,,,0
1652,4180001129817,登記記録の閉鎖等,0,2024-01-19,2024-01-15,株式会社喜和璃,,株式会社,愛知県,犬山市,東古券４６１番地,,23,215,4840000,,,2024-01-15,清算の結了等,,,2017-10-19,1,,,,,キワリ,0
1666,4180302024031,登記記録の閉鎖等,0,2024-01-19,2024-01-09,有限会社大島食糧,,有限会社,愛知県,みよし市,三好町八和田２１番地,,23,236,4700224,,,2024-01-09,清算の結了等,,,2015-10-05,1,,,,,オオシマショクリョウ,0
1672,4200001001295,登記記録の閉鎖等,0,2024-01-19,2024-01-19,株式会社岐阜清飲鉱泉所,,株式会社,岐阜県,岐阜市,鏡島２８９０番地の１１,,21,201,5010111,,,2024-01-19,登記官による閉鎖,,,2015-10-05,1,,,,,,0
1673,4200001005701,登記記録の閉鎖等,0,2024-01-19,2024-01-19,株式会社洋伸不動産,,株式会社,岐阜県,岐阜市,道三町６０番地２,,21,201,5020816,,,2024-01-19,登記官による閉鎖,,,2015-10-05,1,,,,,,0
1674,4200001006575,登記記録の閉鎖等,0,2024-01-19,2024-01-19,サワダヤ株式会社,,株式会社,岐阜県,山県市,岩佐７０４番地の２,,21,215,5012259,,,2024-01-19,登記官による閉鎖,,,2015-10-05,1,,,,,,0
1675,4200001010949,登記記録の閉鎖等,0,2024-01-19,2024-01-19,株式会社ギメン,,株式会社,岐阜県,羽島郡笠松町,朝日町１７番地,,21,303,5016056,,,2024-01-19,登記官による閉鎖,,,2015-10-05,1,,,,,ギメン,0
1676,4200001019916,登記記録の閉鎖等,0,2024-01-19,2024-01-19,長屋土木建設株式会社,,株式会社,岐阜県,関市,板取３２５０番地１,,21,205,5012901,,,2024-01-19,登記官による閉鎖,,,2015-10-05,1,,,,,,0
1677,4200001025922,登記記録の閉鎖等,0,2024-01-19,2024-01-19,株式会社宮田,,株式会社,岐阜県,下呂市,萩原町大ヶ洞１０６８番地,,21,220,5092512,,,2024-01-19,登記官による閉鎖,,,2015-10-05,1,,,,,,0
1680,4200002013645,登記記録の閉鎖等,0,2024-01-19,2024-01-19,有限会社松,,有限会社,岐阜県,不破郡関ケ原町,大字野上１３７２番地の２,,21,362,5031532,,,2024-01-19,登記官による閉鎖,,,2015-10-05,1,,,,,,0
1681,4200002014908,登記記録の閉鎖等,0,2024-01-19,2024-01-19,有限会社新大阪シャットル,,有限会社,岐阜県,不破郡垂井町,２０７２番地,,21,361,5032121,,,2024-01-19,登記官による閉鎖,,,2018-02-21,1,,,,,,0
1682,4200002018256,登記記録の閉鎖等,0,2024-01-19,2024-01-19,有限会社ＡＳＩネット,,有限会社,岐阜県,可児市,愛岐ケ丘１丁目１１６番地,,21,214,5090259,,,2024-01-19,登記官による閉鎖,,,2015-10-05,1,,,,,,0
1684,4200005000005,登記記録の閉鎖等,0,2024-01-19,2024-01-19,社団法人理美容技術者協会,,その他の設立登記法人,岐阜県,岐阜市,加納上本町４丁目１番地,,21,201,5008451,,,2024-01-19,登記官による閉鎖,,,2015-10-05,1,,,,,,0
1685,4200005002819,登記記録の閉鎖等,0,2024-01-19,2024-01-19,中部人材支援企業組合,,その他の設立登記法人,岐阜県,岐阜市,長住町２丁目１１番地２号,,21,201,5008175,,,2024-01-19,登記官による閉鎖,,,2015-10-05,1,,,,,,0
1687,4200005005796,登記記録の閉鎖等,0,2024-01-19,2024-01-19,特定非営利活動法人Ｆ．Ｃ．Ａｌｍａ大垣,,その他の設立登記法人,岐阜県,大垣市,伝馬町６０番地,,21,202,5030897,,,2024-01-19,登記官による閉鎖,,,2015-10-05,1,,,,,,0
1698,4240003003864,登記記録の閉鎖等,0,2024-01-19,2024-01-04,合同会社わかばコーポレーション,,合同会社,広島県,福山市,藤江町２３３６番地,,34,207,7200543,,,2024-01-04,清算の結了等,,,2018-04-18,1,,,,,ワカバコーポレーション,0
1700,4250001009466,登記記録の閉鎖等,0,2024-01-19,2024-01-16,株式会社黒部工業,,株式会社,山口県,周南市,周陽１丁目１３番１２号,,35,215,7450823,,,2024-01-16,清算の結了等,,,2015-10-05,1,,,,,クロベコウギョウ,0
1721,4310001002605,登記記録の閉鎖等,0,2024-01-19,2024-01-11,小林開発株式会社,,株式会社,長崎県,長崎市,戸町４丁目１番９号岩口ビル２Ｆ,,42,201,8500952,,,2024-01-11,登記官による閉鎖,,,2015-10-05,1,,,,,,0
1722,4310001004626,登記記録の閉鎖等,0,2024-01-19,2024-01-11,株式会社クオリティ,,株式会社,長崎県,長崎市,出島町４番４号－５０３号,,42,201,8500862,,,2024-01-11,登記官による閉鎖,,,2015-10-05,1,,,,,,0
1723,4310001005194,登記記録の閉鎖等,0,2024-01-19,2024-01-11,大泉株式会社,,株式会社,長崎県,佐世保市,石坂町６３番地,,42,202,8570037,,,2024-01-11,登記官による閉鎖,,,2015-10-05,1,,,,,,0
1726,4310002002827,登記記録の閉鎖等,0,2024-01-19,2024-01-11,有限会社大和ドライ,,有限会社,長崎県,長崎市,恵美須町１０番７号,,42,201,8500056,,,2024-01-11,登記官による閉鎖,,,2015-10-05,1,,,,,,0
1727,4310002010359,登記記録の閉鎖等,0,2024-01-19,2024-01-11,有限会社下田もやし店,,有限会社,長崎県,佐世保市,木風町７０２番地,,42,202,8571166,,,2024-01-11,登記官による閉鎖,,,2015-10-05,1,,,,,,0
1728,4310002013378,登記記録の閉鎖等,0,2024-01-19,2024-01-11,和真興産有限会社,,有限会社,長崎県,西海市,西海町七釜郷１６１５番地,,42,212,8572223,,,2024-01-11,登記官による閉鎖,,,2015-10-05,1,,,,,,0
1733,4330001002999,登記記録の閉鎖等,0,2024-01-19,2024-01-19,株式会社千代田ホーム,,株式会社,熊本県,熊本市中央区,水前寺公園１６番３６号,,43,101,8620956,,,2024-01-19,登記官による閉鎖,,,2015-10-05,1,,,,,チヨダホーム,0
1734,4330001005275,登記記録の閉鎖等,0,2024-01-19,2024-01-19,株式会社宮崎会計事務所,00097328,株式会社,熊本県,熊本市東区,長嶺西３丁目１番１号,,43,102,8618037,,,2024-01-19,登記官による閉鎖,,,2015-10-05,1,,,,,,0
1735,4330001008071,登記記録の閉鎖等,0,2024-01-19,2024-01-19,株式会社　秀学館,,株式会社,熊本県,熊本市中央区,神水２丁目１０番２３号,,43,101,8620954,,,2024-01-19,登記官による閉鎖,,,2015-10-05,1,,,,,,0
1736,4330001014722,登記記録の閉鎖等,0,2024-01-19,2024-01-19,コーエイホーム株式会社,,株式会社,熊本県,菊池市,野間口３３８番地１,,43,210,8611324,,,2024-01-19,登記官による閉鎖,,,2015-10-05,1,,,,,,0
1737,4330001017502,登記記録の閉鎖等,0,2024-01-19,2024-01-19,株式会社グリーン,,株式会社,熊本県,熊本市南区,合志１丁目４番１,,43,104,8614111,,,2024-01-19,登記官による閉鎖,,,2015-10-05,1,,,,,,0
1740,4330002004912,登記記録の閉鎖等,0,2024-01-19,2024-01-19,有限会社新生交通,,有限会社,熊本県,熊本市中央区,本荘４丁目５番８号,,43,101,8600811,,,2024-01-19,登記官による閉鎖,,,2015-10-05,1,,,,,,0
1741,4330002008541,登記記録の閉鎖等,0,2024-01-19,2024-01-19,有限会社ビーピープランニング,,有限会社,熊本県,熊本市東区,戸島７丁目２４番１０号,,43,102,8618041,,,2024-01-19,登記官による閉鎖,,,2015-10-05,1,,,,,,0
1742,4330002018342,登記記録の閉鎖等,0,2024-01-19,2024-01-19,有限会社イタハシ,,有限会社,熊本県,山鹿市,鹿本町来民１５８９番地の４,,43,208,8610331,,,2024-01-19,登記官による閉鎖,,,2015-10-05,1,,,,,,0
1744,4330003003657,登記記録の閉鎖等,0,2024-01-19,2024-01-19,合資会社小ヶ倉食品,,合資会社,熊本県,水俣市,牧ノ内１番１号,,43,205,8670005,,,2024-01-19,登記官による閉鎖,,,2015-10-05,1,,,,,,0
1745,4330003003839,登記記録の閉鎖等,0,2024-01-19,2024-01-19,合同会社隈部翻訳事務所,,合同会社,熊本県,菊池市,泗水町永８２０番地１６,,43,210,8611204,,,2024-01-19,登記官による閉鎖,,,2015-10-05,1,,,,,,0
1746,4330003007385,登記記録の閉鎖等,0,2024-01-19,2024-01-19,合資会社オーエス電気商会,,合資会社,熊本県,熊本市中央区,上通町３番１９号,,43,101,8600845,,,2024-01-19,登記官による閉鎖,,,2018-02-15,1,,,,,,0
1747,4330003009778,登記記録の閉鎖等,0,2024-01-19,2024-01-16,合同会社快,,合同会社,熊本県,山鹿市,方保田１１６番地２,,43,208,8610382,,,2024-01-16,清算の結了等,,,2023-03-30,1,,,,,カイ,0
1748,4330005002013,登記記録の閉鎖等,0,2024-01-19,2024-01-19,協同組合くまもとイベント事業協会,,その他の設立登記法人,熊本県,熊本市北区,下硯川町１２６５番地,,43,105,8615522,,,2024-01-19,登記官による閉鎖,,,2015-10-05,1,,,,,,0
1749,4330005002260,登記記録の閉鎖等,0,2024-01-19,2024-01-19,特定非営利活動法人スマイル,,その他の設立登記法人,熊本県,熊本市東区,戸島２丁目６番２２号,,43,102,8618041,,,2024-01-19,登記官による閉鎖,,,2015-10-05,1,,,,,,0
1760,4380001011616,登記記録の閉鎖等,0,2024-01-19,2024-01-17,東京精工株式会社,,株式会社,福島県,石川郡玉川村,大字川辺字宮ノ前３９３番地の１,,07,502,9636313,,,2024-01-17,合併による解散等,5012301001794,令和６年１月１日東京都町田市南成瀬四丁目２１番地１株式会社ＴＢＫ（5012301001794）に合併し解散,2015-10-05,1,,,,,トウキョウセイコウ,0
1764,4380005011785,登記記録の閉鎖等,0,2024-01-19,2024-01-17,一般社団法人ふきのとう,,その他の設立登記法人,福島県,田村市,滝根町菅谷字大子堂１３２番地,,07,211,9633601,,,2024-01-17,清算の結了等,,,2017-02-03,1,,,,,フキノトウ,0
1766,4410001003997,登記記録の閉鎖等,0,2024-01-19,2024-01-18,株式会社エコ・フィールド,,株式会社,秋田県,秋田市,河辺神内字宇利沢６番３,,05,201,0192631,,,2024-01-18,登記官による閉鎖,,,2015-10-05,1,,,,,,0
1768,4410001011851,登記記録の閉鎖等,0,2024-01-19,2024-01-17,Ｔ．Ｉ．Ｓコーポレーション株式会社,,株式会社,宮城県,仙台市青葉区,国分町２丁目１５番２０号与五郎ビル５階,,04,101,9800803,,,2024-01-17,清算の結了等,,,2018-05-09,1,,,,,ティーアイエスコーポレーション,0
1769,4410002000028,登記記録の閉鎖等,0,2024-01-19,2024-01-12,有限会社田口商事,,有限会社,秋田県,秋田市,川元むつみ町２番５４号,,05,201,0100934,,,2024-01-12,清算の結了等,,,2015-10-05,1,,,,,タグチショウジ,0
1771,4410002009515,登記記録の閉鎖等,0,2024-01-19,2024-01-18,有限会社マルモフジシマ,,有限会社,秋田県,北秋田市,材木町９番８号,,05,213,0183311,,,2024-01-18,登記官による閉鎖,,,2015-10-05,1,,,,,,0
1772,4410005004372,登記記録の閉鎖等,0,2024-01-19,2024-01-18,特定非営利活動法人ヒューマントラスト研究所,,その他の設立登記法人,秋田県,大仙市,大曲浜町７番３９号,,05,212,0140051,,,2024-01-18,登記官による閉鎖,,,2015-10-05,1,,,,,,0
1791,4700150086541,登記記録の閉鎖等,0,2024-01-19,2023-09-29,やまなしシニア世代就労推進協議会,,その他,山梨県,甲府市,丸の内１丁目６－１労政雇用課内,,19,201,4000031,,,2023-09-29,その他の清算の結了等,,,2017-12-12,1,,,,,ヤマナシシニアセダイシユウロウスイシンキヨウギカイ,0
1792,4700150104955,登記記録の閉鎖等,0,2024-01-19,2023-06-30,Ａｔｌａｓ,,その他,大阪府,大阪市東成区,玉津２丁目１７－９レモンハイム３０２号室,,27,115,5370023,,,2023-06-30,その他の清算の結了等,,,2021-10-04,1,,,,,アトラス,0
1840,5010502015242,登記記録の閉鎖等,0,2024-01-19,2024-01-16,有限会社紅や,,有限会社,東京都,台東区,東上野４丁目１０番７号,,13,106,1100015,,,2024-01-16,清算の結了等,,,2015-10-05,1,,,,,,0
1847,5010901004787,登記記録の閉鎖等,0,2024-01-19,2024-01-11,株式会社佐藤塗装,,株式会社,東京都,世田谷区,代田１丁目２８番３号,,13,112,1550033,,,2024-01-11,清算の結了等,,,2015-10-05,1,,,,,サトウトソウ,0
1848,5010901007229,登記記録の閉鎖等,0,2024-01-19,2024-01-18,田代空調設備株式会社,,株式会社,東京都,世田谷区,鎌田１丁目１４番６号,,13,112,1570077,,,2024-01-18,登記官による閉鎖,,,2015-10-05,1,,,,,,0
1849,5010901016139,登記記録の閉鎖等,0,2024-01-19,2024-01-18,株式会社共同測量,,株式会社,東京都,世田谷区,用賀２丁目１番２号,,13,112,1580097,,,2024-01-18,登記官による閉鎖,,,2015-10-05,1,,,,,キョウドウソクリョウ,0
1850,5010901030825,登記記録の閉鎖等,0,2024-01-19,2024-01-18,株式会社アスプラス,,株式会社,東京都,世田谷区,池尻３丁目１６番１８号スカイコート池尻４０６号室,,13,112,1540001,,,2024-01-18,登記官による閉鎖,,,2015-10-05,1,,,,,,0
1851,5010901032441,登記記録の閉鎖等,0,2024-01-19,2024-01-18,株式会社彩香,,株式会社,東京都,世田谷区,松原１丁目５６－９クリオール明大前２０３,,13,112,1560043,,,2024-01-18,登記官による閉鎖,,,2015-10-05,1,,,,,,0
1854,5010902001825,登記記録の閉鎖等,0,2024-01-19,2024-01-18,有限会社イラストファクトリーシノダ,,有限会社,東京都,世田谷区,鎌田２丁目２番７号,,13,112,1570077,,,2024-01-18,登記官による閉鎖,,,2015-10-05,1,,,,,,0
1855,5010902005215,登記記録の閉鎖等,0,2024-01-19,2024-01-18,有限会社クラフト・マン,,有限会社,東京都,世田谷区,南烏山６丁目２番３号,,13,112,1570062,,,2024-01-18,登記官による閉鎖,,,2015-10-05,1,,,,,,0
1856,5010902016443,登記記録の閉鎖等,0,2024-01-19,2024-01-18,有限会社リリカ,,有限会社,東京都,世田谷区,上北沢４丁目４番１２号,,13,112,1560057,,,2024-01-18,登記官による閉鎖,,,2015-10-05,1,,,,,,0
1857,5010903001535,登記記録の閉鎖等,0,2024-01-19,2024-01-18,合同会社オフィスコジマ,,合同会社,東京都,世田谷区,太子堂４丁目４－１－６０３,,13,112,1540004,,,2024-01-18,登記官による閉鎖,,,2015-10-05,1,,,,,,0
1858,5010905000493,登記記録の閉鎖等,0,2024-01-19,2024-01-18,食心会事業協同組合,,その他の設立登記法人,東京都,世田谷区,若林３丁目８番３号,,13,112,1540023,,,2024-01-18,登記官による閉鎖,,,2015-10-05,1,,,,,,0
1859,5010905001558,登記記録の閉鎖等,0,2024-01-19,2024-01-18,特定非営利活動法人日本ヒアリングインターナショナル,,その他の設立登記法人,東京都,世田谷区,中町２丁目２１番１２号なかまちＮＰＯセンター内,,13,112,1580091,,,2024-01-18,登記官による閉鎖,,,2015-10-05,1,,,,,,0
1860,5010905001748,登記記録の閉鎖等,0,2024-01-19,2024-01-18,特定非営利活動法人ハートトゥハート,,その他の設立登記法人,東京都,世田谷区,瀬田３丁目１１番６号,,13,112,1580095,,,2024-01-18,登記官による閉鎖,,,2015-10-05,1,,,,,,0
1861,5011001058088,登記記録の閉鎖等,0,2024-01-19,2024-01-19,株式会社オールインデックス,,株式会社,神奈川県,横浜市戸塚区,川上町６０６番地３,,14,110,2440805,,,2024-01-19,登記官による閉鎖,,,2015-10-05,1,,,,,,0
1865,5011001153475,登記記録の閉鎖等,0,2024-01-19,2024-01-12,ＦｉｅｒＺ株式会社,,株式会社,東京都,渋谷区,代官山町８－９竜王ビル５階,,13,113,1500034,,,2024-01-12,清算の結了等,,,2023-04-04,1,,,,,フィアーズ,0
1884,5011302001135,登記記録の閉鎖等,0,2024-01-19,2024-01-10,有限会社岩崎渉アトリエ,,有限会社,東京都,杉並区,阿佐谷南１丁目１２番５－３０６号,,13,115,1660004,,,2024-01-10,清算の結了等,,,2015-10-05,1,,,,,イワサキワタルアトリエ,0
1903,5012402017871,登記記録の閉鎖等,0,2024-01-19,2024-01-15,有限会社宮城屋,,有限会社,東京都,武蔵野市,境２丁目２番２２号,,13,203,1800022,,,2024-01-15,清算の結了等,,,2015-10-05,1,,,,,ミヤギヤ,0
1909,5020001013606,登記記録の閉鎖等,0,2024-01-19,2024-01-19,ハウス・サービス株式会社,,株式会社,神奈川県,横浜市南区,宮元町１丁目２３番地,,14,105,2320016,,,2024-01-19,登記官による閉鎖,,,2015-10-05,1,,,,,,0
1910,5020001019124,登記記録の閉鎖等,0,2024-01-19,2024-01-19,株式会社横浜ラツキング工業,,株式会社,神奈川県,横浜市鶴見区,北寺尾７丁目２２番１７号,,14,101,2300074,,,2024-01-19,登記官による閉鎖,,,2015-10-05,1,,,,,,0
1911,5020001022788,登記記録の閉鎖等,0,2024-01-19,2024-01-19,株式会社北村ゲージ製作所,,株式会社,神奈川県,横浜市神奈川区,松見町１丁目４３番地の５,,14,102,2210005,,,2024-01-19,登記官による閉鎖,,,2015-10-05,1,,,,,,0
1912,5020001037159,登記記録の閉鎖等,0,2024-01-19,2024-01-19,ニチラバ工業株式会社,,株式会社,神奈川県,横浜市栄区,本郷台１丁目２３番６号,,14,115,2470008,,,2024-01-19,登記官による閉鎖,,,2015-10-05,1,,,,,,0
1913,5020001050707,登記記録の閉鎖等,0,2024-01-19,2024-01-19,鶴田電装株式会社,,株式会社,神奈川県,横浜市緑区,西八朔町７６９番地５９,,14,113,2260024,,,2024-01-19,登記官による閉鎖,,,2015-10-05,1,,,,,,0
1914,5020001050806,登記記録の閉鎖等,0,2024-01-19,2024-01-19,株式会社オフィスエル,,株式会社,神奈川県,横浜市西区,楠町１８番地１,,14,103,2200003,,,2024-01-19,登記官による閉鎖,,,2015-10-05,1,,,,,,0
1915,5020001051300,登記記録の閉鎖等,0,2024-01-19,2024-01-19,株式会社ナチュロパ,,株式会社,神奈川県,横浜市戸塚区,品濃町５４８－２ＮＳビル４階Ｅ,,14,110,2440801,,,2024-01-19,登記官による閉鎖,,,2015-10-05,1,,,,,,0
1916,5020001064310,登記記録の閉鎖等,0,2024-01-19,2024-01-16,株式会社双和アート,,株式会社,神奈川県,川崎市多摩区,東生田４丁目１８番５号,,14,135,2140031,,,2024-01-16,清算の結了等,,,2015-10-05,1,,,,,ソウワアート,0
1917,5020001065267,登記記録の閉鎖等,0,2024-01-19,2024-01-19,株式会社新和,,株式会社,神奈川県,川崎市麻生区,東百合丘２丁目５番１６号,,14,137,2150012,,,2024-01-19,登記官による閉鎖,,,2015-10-05,1,,,,,,0
1918,5020001065457,登記記録の閉鎖等,0,2024-01-19,2024-01-19,ナチュレールイオン化粧品株式会社,,株式会社,神奈川県,川崎市麻生区,王禅寺東４丁目１２番１１号,,14,137,2150018,,,2024-01-19,登記官による閉鎖,,,2015-10-05,1,,,,,,0
1919,5020001066868,登記記録の閉鎖等,0,2024-01-19,2024-01-19,株式会社花菱,,株式会社,神奈川県,川崎市高津区,千年２７番地,,14,134,2130022,,,2024-01-19,登記官による閉鎖,,,2015-10-05,1,,,,,,0
1920,5020001071612,登記記録の閉鎖等,0,2024-01-19,2024-01-19,株式会社武蔵情報開発,,株式会社,神奈川県,川崎市幸区,新塚越１－２－７－５０４,,14,132,2120027,,,2024-01-19,登記官による閉鎖,,,2015-10-05,1,,,,,,0
1921,5020001078665,登記記録の閉鎖等,0,2024-01-19,2024-01-19,株式会社Ｓ２Ｓ　Ｐｌａｎｎｅｒ,,株式会社,神奈川県,川崎市高津区,二子６丁目１２番５－４０７号,,14,134,2130002,,,2024-01-19,登記官による閉鎖,,,2015-10-05,1,,,,,,0
1922,5020001085307,登記記録の閉鎖等,0,2024-01-19,2024-01-19,株式会社イイホーム,,株式会社,神奈川県,川崎市川崎区,渡田４丁目５番１－１０３号,,14,131,2100837,,,2024-01-19,登記官による閉鎖,,,2015-10-05,1,,,,,,0
1923,5020001088623,登記記録の閉鎖等,0,2024-01-19,2024-01-19,株式会社フルフェイス,,株式会社,神奈川県,川崎市川崎区,本町１丁目８番３号東急ドエルアルス２０７号,,14,131,2100001,,,2024-01-19,登記官による閉鎖,,,2015-10-05,1,,,,,,0
1924,5020001091263,登記記録の閉鎖等,0,2024-01-19,2024-01-19,カトー産業株式会社,,株式会社,神奈川県,川崎市川崎区,本町１丁目９－９クリオ川崎壱番館３０５,,14,131,2100001,,,2024-01-19,登記官による閉鎖,,,2015-10-05,1,,,,,,0
1925,5020001099554,登記記録の閉鎖等,0,2024-01-19,2024-01-19,株式会社Ｇｙｔｈ,,株式会社,神奈川県,横浜市西区,中央２丁目４０番－２－１００７号,,14,103,2200051,,,2024-01-19,登記官による閉鎖,,,2015-10-05,1,,,,,,0
1926,5020001125351,登記記録の閉鎖等,0,2024-01-19,2024-01-19,三矢冷機工業株式会社,,株式会社,神奈川県,横浜市鶴見区,平安町１丁目５３番地２号,,14,101,2300031,,,2024-01-19,登記官による閉鎖,,,2018-03-09,1,,,,,,0
1932,5020002004744,登記記録の閉鎖等,0,2024-01-19,2024-01-19,有限会社藤電気工事,,有限会社,神奈川県,横浜市緑区,長津田７丁目１０番１３号,,14,113,2260027,,,2024-01-19,登記官による閉鎖,,,2015-10-05,1,,,,,,0
1933,5020002015485,登記記録の閉鎖等,0,2024-01-19,2024-01-19,有限会社ミドリエンタープライズ,,有限会社,神奈川県,横浜市青葉区,元石川町４１８４番地,,14,117,2250004,,,2024-01-19,登記官による閉鎖,,,2015-10-05,1,,,,,,0
1934,5020002019024,登記記録の閉鎖等,0,2024-01-19,2024-01-19,有限会社スインク・トップ,,有限会社,神奈川県,横浜市港南区,上永谷４丁目４番２３号,,14,111,2330012,,,2024-01-19,登記官による閉鎖,,,2015-10-05,1,,,,,,0
1935,5020002024552,登記記録の閉鎖等,0,2024-01-19,2024-01-19,有限会社ハマ・オフ・コンス,,有限会社,神奈川県,横浜市保土ケ谷区,川島町１５７１番地の７,,14,106,2400045,,,2024-01-19,登記官による閉鎖,,,2015-10-05,1,,,,,,0
1936,5020002030757,登記記録の閉鎖等,0,2024-01-19,2024-01-19,有限会社手戸塗装店,,有限会社,神奈川県,横浜市南区,中島町１丁目１６番地,,14,105,2320055,,,2024-01-19,登記官による閉鎖,,,2015-10-05,1,,,,,,0
1937,5020002037694,登記記録の閉鎖等,0,2024-01-19,2024-01-19,有限会社北川精密工業,,有限会社,神奈川県,横浜市鶴見区,矢向６丁目２０番５号,,14,101,2300001,,,2024-01-19,登記官による閉鎖,,,2015-10-05,1,,,,,,0
1938,5020002039963,登記記録の閉鎖等,0,2024-01-19,2024-01-19,有限会社富士精器,,有限会社,神奈川県,横浜市鶴見区,尻手３丁目５番１３号,,14,101,2300003,,,2024-01-19,登記官による閉鎖,,,2015-10-05,1,,,,,,0
1939,5020002042001,登記記録の閉鎖等,0,2024-01-19,2024-01-19,有限会社ＤＩＴＴＡ,,有限会社,神奈川県,横浜市中区,本牧原４番１－６０８号,,14,104,2310821,,,2024-01-19,登記官による閉鎖,,,2015-10-05,1,,,,,,0
1940,5020002051167,登記記録の閉鎖等,0,2024-01-19,2024-01-19,有限会社フィール,,有限会社,神奈川県,横浜市中区,曙町２丁目１９番１号,00011070,14,104,2310057,,,2024-01-19,登記官による閉鎖,,,2015-10-05,1,,,,,,0
1941,5020002068673,登記記録の閉鎖等,0,2024-01-19,2024-01-19,有限会社田中カメラ工房,,有限会社,神奈川県,横浜市泉区,上飯田町１０２７番地５,,14,116,2450018,,,2024-01-19,登記官による閉鎖,,,2015-10-05,1,,,,,,0
1942,5020002070910,登記記録の閉鎖等,0,2024-01-19,2024-01-19,有限会社Ｏｒａｎｇｅ　Ｃｏｃｏ,,有限会社,神奈川県,横浜市青葉区,市ケ尾町１０６４番地５,,14,117,2250024,,,2024-01-19,登記官による閉鎖,,,2015-10-05,1,,,,,,0
1943,5020002073624,登記記録の閉鎖等,0,2024-01-19,2024-01-19,有限会社エイトガーデン,,有限会社,神奈川県,横浜市都筑区,中川４丁目８－６４,,14,118,2240001,,,2024-01-19,登記官による閉鎖,,,2015-10-05,1,,,,,,0
1946,5020002085033,登記記録の閉鎖等,0,2024-01-19,2024-01-19,有限会社村岡タイル工業所,,有限会社,神奈川県,川崎市中原区,市ノ坪５８１番地１,,14,133,2110016,,,2024-01-19,登記官による閉鎖,,,2015-10-05,1,,,,,,0
1947,5020002085594,登記記録の閉鎖等,0,2024-01-19,2024-01-19,有限会社ワイアールシー,,有限会社,神奈川県,川崎市中原区,上丸子天神町３０１番地,,14,133,2110007,,,2024-01-19,登記官による閉鎖,,,2015-10-05,1,,,,,,0
1948,5020002091163,登記記録の閉鎖等,0,2024-01-19,2024-01-19,有限会社平田工務店,,有限会社,神奈川県,川崎市高津区,北見方３丁目１番４７号,,14,134,2130005,,,2024-01-19,登記官による閉鎖,,,2015-10-05,1,,,,,,0
1949,5020002095370,登記記録の閉鎖等,0,2024-01-19,2024-01-19,有限会社梓木設計,,有限会社,神奈川県,川崎市川崎区,大師駅前１丁目４番８号,,14,131,2100802,,,2024-01-19,登記官による閉鎖,,,2015-10-05,1,,,,,,0
1950,5020003001195,登記記録の閉鎖等,0,2024-01-19,2024-01-19,合資会社藤信,,合資会社,神奈川県,横浜市瀬谷区,三ツ境２３番地の８,,14,114,2460022,,,2024-01-19,登記官による閉鎖,,,2015-10-05,1,,,,,,0
1951,5020003007226,登記記録の閉鎖等,0,2024-01-19,2024-01-19,合同会社ＳｐｒａｙＰａｉｎｔ,,合同会社,神奈川県,横浜市鶴見区,岸谷３丁目１６番４－４号,,14,101,2300078,,,2024-01-19,登記官による閉鎖,,,2015-10-05,1,,,,,,0
1952,5020003007465,登記記録の閉鎖等,0,2024-01-19,2024-01-19,合同会社破暁商事,,合同会社,神奈川県,横浜市中区,長者町８丁目１３６番地エースビル３２号室,,14,104,2310033,,,2024-01-19,登記官による閉鎖,,,2015-10-05,1,,,,,,0
1953,5020003010956,登記記録の閉鎖等,0,2024-01-19,2024-01-15,株式会社天の技,,株式会社,東京都,大田区,西蒲田７丁目４番４号,,13,111,1440051,,,2024-01-15,清算の結了等,,,2016-02-18,1,,,,,アマノギ,0
1955,5020005003017,登記記録の閉鎖等,0,2024-01-19,2024-01-19,財団法人扶桑伝統文化振興財団,,その他の設立登記法人,神奈川県,横浜市西区,北幸１丁目４番１号,,14,103,2200004,,,2024-01-19,登記官による閉鎖,,,2015-10-05,1,,,,,,0
1956,5020005004824,登記記録の閉鎖等,0,2024-01-19,2024-01-19,特定非営利活動法人ＭＯＮＯ　ＫＩＮＤＮＥＳＳ　ＹＯＫＯＨＡＭＡ,,その他の設立登記法人,神奈川県,横浜市旭区,上白根町７９５番地３－１－２０３号室,,14,112,2410001,,,2024-01-19,登記官による閉鎖,,,2015-10-05,1,,,,,,0
1957,5020005006746,登記記録の閉鎖等,0,2024-01-19,2024-01-19,特定非営利活動法人かながわユースボランティアりんぐファクトリー,,その他の設立登記法人,神奈川県,横浜市南区,別所２丁目５番４号,,14,105,2320064,,,2024-01-19,登記官による閉鎖,,,2015-10-05,1,,,,,,0
1958,5020005008916,登記記録の閉鎖等,0,2024-01-19,2024-01-19,特定非営利活動法人おとつみき,,その他の設立登記法人,神奈川県,川崎市麻生区,白鳥２丁目１１番１号コーポ白鳥２０１,,14,137,2150024,,,2024-01-19,登記官による閉鎖,,,2015-10-05,1,,,,,,0
1959,5020005010764,登記記録の閉鎖等,0,2024-01-19,2024-01-19,ＳＴＩＬＬ　ＰＥＮＤＩＮＧ企業組合,,その他の設立登記法人,神奈川県,横浜市西区,楠町１１番地３,,14,103,2200003,,,2024-01-19,登記官による閉鎖,,,2015-10-05,1,,,,,,0
1960,5021001006525,登記記録の閉鎖等,0,2024-01-19,2024-01-19,暁建設株式会社,,株式会社,神奈川県,茅ヶ崎市,香川１丁目４１番５号,,14,207,2530082,,,2024-01-19,登記官による閉鎖,,,2015-10-05,1,,,,,アカツキケンセツ,0
1961,5021001009346,登記記録の閉鎖等,0,2024-01-19,2024-01-19,東洋カット織物株式会社,,株式会社,神奈川県,鎌倉市,御成町１４番１０号,,14,204,2480012,,,2024-01-19,登記官による閉鎖,,,2015-10-05,1,,,,,,0
1962,5021001010675,登記記録の閉鎖等,0,2024-01-19,2024-01-19,株式会社デベロップマネージメント,,株式会社,神奈川県,鎌倉市,七里ガ浜１丁目１番１号,,14,204,2480026,,,2024-01-19,登記官による閉鎖,,,2015-10-05,1,,,,,,0
1963,5021001011681,登記記録の閉鎖等,0,2024-01-19,2024-01-19,株式会社金子孟保商店,,株式会社,神奈川県,相模原市緑区,橋本２丁目２１番１７号,,14,151,2520143,,,2024-01-19,登記官による閉鎖,,,2015-10-05,1,,,,,,0
1964,5021001021227,登記記録の閉鎖等,0,2024-01-19,2024-01-19,日豊建設株式会社,,株式会社,神奈川県,伊勢原市,白根５０４番地,,14,214,2591147,,,2024-01-19,登記官による閉鎖,,,2015-10-05,1,,,,,,0
1965,5021001036844,登記記録の閉鎖等,0,2024-01-19,2024-01-19,相和木材株式会社,,株式会社,神奈川県,平塚市,御殿２丁目１番７号,,14,203,2540061,,,2024-01-19,登記官による閉鎖,,,2015-10-05,1,,,,,,0
1966,5021001039731,登記記録の閉鎖等,0,2024-01-19,2024-01-19,太田孝文ソフト開発株式会社,,株式会社,神奈川県,綾瀬市,小園南２丁目２１番２２号,,14,218,2521122,,,2024-01-19,登記官による閉鎖,,,2015-10-05,1,,,,,,0
1967,5021001039888,登記記録の閉鎖等,0,2024-01-19,2024-01-19,アクセス・ジャパン株式会社,,株式会社,神奈川県,横須賀市,湘南鷹取５丁目４１番７号,,14,201,2370066,,,2024-01-19,登記官による閉鎖,,,2015-10-05,1,,,,,,0
1968,5021001042735,登記記録の閉鎖等,0,2024-01-19,2024-01-19,株式会社横須賀運輸,,株式会社,神奈川県,横須賀市,船越町１丁目２８４番地５号,,14,201,2370076,,,2024-01-19,登記官による閉鎖,,,2015-10-05,1,,,,,,0
1969,5021002001665,登記記録の閉鎖等,0,2024-01-19,2024-01-19,有限会社ケイ・エス,,有限会社,神奈川県,藤沢市,鵠沼東６番１藤沢東急プラザ南館,,14,205,2510026,,,2024-01-19,登記官による閉鎖,,,2015-10-05,1,,,,,,0
1970,5021002030532,登記記録の閉鎖等,0,2024-01-19,2024-01-19,有限会社浅岡商事,,有限会社,神奈川県,厚木市,旭町１丁目２４番３号,,14,212,2430014,,,2024-01-19,登記官による閉鎖,,,2015-10-05,1,,,,,,0
1971,5021002030648,登記記録の閉鎖等,0,2024-01-19,2024-01-19,有限会社厚木大村庵,,有限会社,神奈川県,厚木市,酒井２１２７番地の４,,14,212,2430022,,,2024-01-19,登記官による閉鎖,,,2015-10-05,1,,,,,,0
1972,5021002032504,登記記録の閉鎖等,0,2024-01-19,2024-01-19,有限会社テストロニクス,,有限会社,神奈川県,厚木市,鳶尾５丁目４番２８号,,14,212,2430204,,,2024-01-19,登記官による閉鎖,,,2015-10-05,1,,,,,,0
1973,5021002035242,登記記録の閉鎖等,0,2024-01-19,2024-01-19,有限会社高森デンキ,,有限会社,神奈川県,伊勢原市,高森５丁目１号棟２０６,,14,214,2591114,,,2024-01-19,登記官による閉鎖,,,2015-10-05,1,,,,,,0
1974,5021002036959,登記記録の閉鎖等,0,2024-01-19,2024-01-19,有限会社エキスパ国際規格コンサルタント,,有限会社,神奈川県,厚木市,長谷１０５５番地１５,,14,212,2430036,,,2024-01-19,登記官による閉鎖,,,2015-10-05,1,,,,,,0
1975,5021002046644,登記記録の閉鎖等,0,2024-01-19,2024-01-19,有限会社デイリー笠間,,有限会社,神奈川県,綾瀬市,寺尾釜田１丁目１１番３号,,14,218,2521135,,,2024-01-19,登記官による閉鎖,,,2015-10-05,1,,,,,,0
1976,5021002052799,登記記録の閉鎖等,0,2024-01-19,2024-01-19,花形水道設備工業有限会社,00013648,有限会社,神奈川県,小田原市,南町３丁目７番１５号,,14,206,2500013,,,2024-01-19,登記官による閉鎖,,,2015-10-05,1,,,,,,0
1977,5021002057278,登記記録の閉鎖等,0,2024-01-19,2024-01-19,ハンザ有限会社,,有限会社,神奈川県,平塚市,老松町４番９号,,14,203,2540033,,,2024-01-19,登記官による閉鎖,,,2015-10-05,1,,,,,,0
1978,5021002057823,登記記録の閉鎖等,0,2024-01-19,2024-01-19,有限会社さがみ活版,,有限会社,神奈川県,平塚市,夕陽ケ丘６３番１２－１３０９号,,14,203,2540806,,,2024-01-19,登記官による閉鎖,,,2015-10-05,1,,,,,,0
1979,5021002059068,登記記録の閉鎖等,0,2024-01-19,2024-01-19,有限会社新山金型製作所,,有限会社,神奈川県,平塚市,長持１８０番地の６,,14,203,2591217,,,2024-01-19,登記官による閉鎖,,,2015-10-05,1,,,,,,0
1980,5021002062006,登記記録の閉鎖等,0,2024-01-19,2024-01-19,有限会社Ｅテック,,有限会社,神奈川県,平塚市,入野２７０番地の５四谷壱番館２０３号室,,14,203,2591216,,,2024-01-19,登記官による閉鎖,,,2015-10-05,1,,,,,,0
1981,5021002067681,登記記録の閉鎖等,0,2024-01-19,2024-01-19,有限会社横田商事,,有限会社,神奈川県,横須賀市,若松町３丁目９番地,,14,201,2380007,,,2024-01-19,登記官による閉鎖,,,2015-10-05,1,,,,,,0
1982,5021002068242,登記記録の閉鎖等,0,2024-01-19,2024-01-19,有限会社城新機械,,有限会社,神奈川県,逗子市,沼間３丁目１４番２０号,,14,208,2490004,,,2024-01-19,登記官による閉鎖,,,2015-10-05,1,,,,,,0
1983,5021002070751,登記記録の閉鎖等,0,2024-01-19,2024-01-19,有限会社大沢工業,,有限会社,神奈川県,横須賀市,金谷１丁目４番１３号,,14,201,2380034,,,2024-01-19,登記官による閉鎖,,,2015-10-05,1,,,,,,0
1984,5021003003990,登記記録の閉鎖等,0,2024-01-19,2024-01-19,合同会社オーソック,,合同会社,神奈川県,相模原市中央区,中央３丁目６番６号トーエイビル２０６Ｂ,,14,152,2520239,,,2024-01-19,登記官による閉鎖,,,2015-10-05,1,,,,,,0
1985,5021005007404,登記記録の閉鎖等,0,2024-01-19,2024-01-19,ＮＰＯ法人生涯レクリエーション普及協会,,その他の設立登記法人,神奈川県,平塚市,広川２８６番地の３,,14,203,2591219,,,2024-01-19,登記官による閉鎖,,,2015-10-05,1,,,,,,0
1990,5030001077063,登記記録の閉鎖等,0,2024-01-19,2024-01-16,株式会社ブリティッシュカルチャーアカデミー,,株式会社,埼玉県,川口市,本町２丁目２番１５号クレール川口１階,,11,203,3320012,,,2024-01-16,合併による解散等,2010901021091,令和６年１月１日東京都世田谷区下馬二丁目６番８号株式会社アイ・エス・シー（2010901021091）に合併し解散,2015-10-05,1,,,,,ブリティッシュカルチャーアカデミー,0
1997,5030002043873,登記記録の閉鎖等,0,2024-01-19,2024-01-11,協栄産業有限会社,,有限会社,埼玉県,さいたま市岩槻区,愛宕町９番３５号,,11,110,3390066,,,2024-01-11,清算の結了等,,,2015-10-05,1,,,,,キョウエイサンギョウ,0
2002,5040001033981,登記記録の閉鎖等,0,2024-01-19,2024-01-09,株式会社フジコーポレーション,,株式会社,千葉県,市川市,行徳駅前３丁目７番８－４０３号,,12,203,2720133,,,2024-01-09,清算の結了等,,,2015-10-05,1,,,,,フジコーポレーション,0
2021,5060002020985,登記記録の閉鎖等,0,2024-01-19,2024-01-17,水沼運輸有限会社,,有限会社,栃木県,鹿沼市,茂呂５９５番地５,,09,205,3220026,,,2024-01-17,清算の結了等,,,2015-10-05,1,,,,,ミズヌマウンユ,0
2042,5080401015188,登記記録の閉鎖等,0,2024-01-19,2024-01-16,株式会社雅博,,株式会社,静岡県,掛川市,弥生町１５３番地,,22,213,4360053,,,2024-01-16,清算の結了等,,,2015-10-05,1,,,,,ガハク,0
2073,5120001031829,登記記録の閉鎖等,0,2024-01-19,2024-01-18,山大鉄工株式会社,,株式会社,大阪府,大阪市住之江区,南加賀屋４丁目１番４０－３１３号,,27,125,5590015,,,2024-01-18,清算の結了等,,,2015-10-05,1,,,,,ヤマダイテッコウ,0
2100,5130002004345,登記記録の閉鎖等,0,2024-01-19,2024-01-17,有限会社松岡商店,,有限会社,京都府,京都市北区,西賀茂大道口町７６番地,,26,101,6038813,,,2024-01-17,清算の結了等,,,2015-10-05,1,,,,,マツオカショウテン,0
2105,5140002032709,登記記録の閉鎖等,0,2024-01-19,2024-01-15,中央出版有限会社,,有限会社,兵庫県,宍粟市,山崎町山田１９３番地の３,,28,227,6712575,,,2024-01-15,清算の結了等,,,2015-10-05,1,,,,,,0
2106,5140002064140,登記記録の閉鎖等,0,2024-01-19,2024-01-17,有限会社山田鉄工所,,有限会社,兵庫県,伊丹市,岩屋１丁目３番１３号,,28,207,6640843,,,2024-01-17,清算の結了等,,,2015-10-05,1,,,,,ヤマダテッコウショ,0
2128,5180002079969,登記記録の閉鎖等,0,2024-01-19,2024-01-12,有限会社カワグチ技建,,有限会社,愛知県,一宮市,千秋町浅野羽根字羽知古３４番地１,,23,203,4910816,,,2024-01-12,清算の結了等,,,2015-10-05,1,,,,,カワグチギケン,0
2138,5200001000726,登記記録の閉鎖等,0,2024-01-19,2024-01-19,大桑開発株式会社,,株式会社,岐阜県,山県市,梅原１７００番地,,21,215,5012115,,,2024-01-19,登記官による閉鎖,,,2015-10-05,1,,,,,オオガカイハツ,0
2140,5200001013876,登記記録の閉鎖等,0,2024-01-19,2024-01-19,株式会社大萬実業,,株式会社,岐阜県,大垣市,本今町４８２番地の１,,21,202,5030932,,,2024-01-19,登記官による閉鎖,,,2015-10-05,1,,,,,,0
2141,5200001028552,登記記録の閉鎖等,0,2024-01-19,2024-01-19,株式会社イート,,株式会社,岐阜県,揖斐郡揖斐川町,谷汲名礼１１７１番地１,00076772,21,401,5011314,,,2024-01-19,登記官による閉鎖,,,2015-10-05,1,,,,,,0
2142,5200002001624,登記記録の閉鎖等,0,2024-01-19,2024-01-19,有限会社ケイ・エム,,有限会社,岐阜県,岐阜市,大字清字上沼７０６番地,,21,201,5000000,,,2024-01-19,登記官による閉鎖,,,2015-10-05,1,,,,,,0
2143,5200002007687,登記記録の閉鎖等,0,2024-01-19,2024-01-17,有限会社苅谷金型,,有限会社,岐阜県,各務原市,川島小網町字前河原２１４６番地の１７７,,21,213,5016023,,,2024-01-17,清算の結了等,,,2015-10-05,1,,,,,カリヤカナガタ,0
2144,5200002013900,登記記録の閉鎖等,0,2024-01-19,2024-01-19,有限会社加藤モータース,,有限会社,岐阜県,養老郡養老町,石畑１２６０番地の１,,21,341,5031251,,,2024-01-19,登記官による閉鎖,,,2015-10-05,1,,,,,,0
2145,5200002016093,登記記録の閉鎖等,0,2024-01-19,2024-01-19,有限会社荘加建設,,有限会社,岐阜県,美濃加茂市,三和町廿屋８５４番地,,21,211,5050001,,,2024-01-19,登記官による閉鎖,,,2015-10-05,1,,,,,,0
2146,5200002019344,登記記録の閉鎖等,0,2024-01-19,2024-01-19,有限会社新小田組,,有限会社,岐阜県,関市,小屋名８４８番地の７,,21,205,5013941,,,2024-01-19,登記官による閉鎖,,,2015-10-05,1,,,,,,0
2147,5200003001111,登記記録の閉鎖等,0,2024-01-19,2024-01-19,大眞合資会社,,合資会社,岐阜県,各務原市,大佐野町８６６番地,,21,213,5040931,,,2024-01-19,登記官による閉鎖,,,2015-10-05,1,,,,,,0
2148,5200003001623,登記記録の閉鎖等,0,2024-01-19,2024-01-19,合資会社大垣製＿所,00077203,合資会社,岐阜県,大垣市,寺内町４丁目８０番地,,21,202,5030865,,,2024-01-19,登記官による閉鎖,,,2015-10-05,1,,,,,,0
2149,5200005000029,登記記録の閉鎖等,0,2024-01-19,2024-01-19,社団法人岐阜県経営科学協会,,その他の設立登記法人,岐阜県,岐阜市,鏡島中２丁目２番７号,,21,201,5010124,,,2024-01-19,登記官による閉鎖,,,2015-10-05,1,,,,,,0
2150,5200005000136,登記記録の閉鎖等,0,2024-01-19,2024-01-19,財団法人国井福祉会,,その他の設立登記法人,岐阜県,岐阜市,弁天町３丁目３０番地丸一ビル内,,21,201,5008307,,,2024-01-19,登記官による閉鎖,,,2015-10-05,1,,,,,,0
2151,5200005002751,登記記録の閉鎖等,0,2024-01-19,2024-01-19,特定非営利活動法人青い空白い雲,,その他の設立登記法人,岐阜県,岐阜市,鏡島１０６９番地８,,21,201,5010111,,,2024-01-19,登記官による閉鎖,,,2015-10-05,1,,,,,,0
2152,5200005004005,登記記録の閉鎖等,0,2024-01-19,2024-01-19,特定非営利活動法人ゆうき救命の会,,その他の設立登記法人,岐阜県,岐阜市,県町１丁目６番地,,21,201,5008176,,,2024-01-19,登記官による閉鎖,,,2015-10-05,1,,,,,,0
2153,5200005008096,登記記録の閉鎖等,0,2024-01-19,2024-01-19,リサイクルネット協同組合,,その他の設立登記法人,岐阜県,関市,肥田瀬７９５番地２,,21,205,5013911,,,2024-01-19,登記官による閉鎖,,,2015-10-05,1,,,,,,0
2168,5290802006161,登記記録の閉鎖等,0,2024-01-19,2024-01-15,有限会社松本建設工業,,有限会社,福岡県,北九州市小倉北区,木町２丁目１６番１６号,,40,106,8030851,,,2024-01-15,清算の結了等,,,2015-10-05,1,,,,,マツモトケンセツコウギョウ,0
2171,5310002017196,登記記録の閉鎖等,0,2024-01-19,2024-01-11,有限会社建設速報社,,有限会社,長崎県,大村市,杭出津２丁目６９６－１,,42,205,8560828,,,2024-01-11,登記官による閉鎖,,,2015-10-05,1,,,,,,0
2175,5330001001876,登記記録の閉鎖等,0,2024-01-19,2024-01-19,株式会社呉服の華木,,株式会社,熊本県,熊本市東区,戸島西５丁目１０番２２号,,43,102,8618043,,,2024-01-19,登記官による閉鎖,,,2015-10-05,1,,,,,,0
2176,5330001009993,登記記録の閉鎖等,0,2024-01-19,2024-01-19,マキシ株式会社,,株式会社,熊本県,合志市,須屋１４３０番地２,,43,216,8611102,,,2024-01-19,登記官による閉鎖,,,2015-10-05,1,,,,,,0
2177,5330001011966,登記記録の閉鎖等,0,2024-01-19,2024-01-19,株式会社イトー,,株式会社,熊本県,玉名郡和水町,内田２１６６番地２,,43,369,8650104,,,2024-01-19,登記官による閉鎖,,,2015-10-05,1,,,,,,0
2178,5330001012766,登記記録の閉鎖等,0,2024-01-19,2024-01-19,株式会社トア・オオタ,,株式会社,熊本県,宇城市,小川町江頭５３１番地の１,,43,213,8690624,,,2024-01-19,登記官による閉鎖,,,2015-10-05,1,,,,,,0
2179,5330001014837,登記記録の閉鎖等,0,2024-01-19,2024-01-19,株式会社ＡＲＩ,,株式会社,熊本県,熊本市中央区,南熊本１丁目９番２９号,,43,101,8600812,,,2024-01-19,登記官による閉鎖,,,2015-10-05,1,,,,,,0
2180,5330001018747,登記記録の閉鎖等,0,2024-01-19,2024-01-19,株式会社ＹＯＵＭＥ,,株式会社,熊本県,熊本市中央区,神水１丁目２４番１号,,43,101,8620954,,,2024-01-19,登記官による閉鎖,,,2015-10-05,1,,,,,,0
2181,5330001019118,登記記録の閉鎖等,0,2024-01-19,2024-01-19,株式会社ＫＵＲＡＲＡ,,株式会社,熊本県,八代市,大福寺町２５３０番地,,43,202,8660082,,,2024-01-19,登記官による閉鎖,,,2015-10-05,1,,,,,,0
2184,5330002000794,登記記録の閉鎖等,0,2024-01-19,2024-01-15,有限会社一誠堂文具店,,有限会社,熊本県,熊本市西区,出町４番２３－６０１号,,43,103,8600074,,,2024-01-15,清算の結了等,,,2015-10-05,1,,,,,イッセイドウブングテン,0
2185,5330002002790,登記記録の閉鎖等,0,2024-01-19,2024-01-19,有限会社キヨタ冷凍工業,,有限会社,熊本県,熊本市中央区,春竹町春竹６１番地１０,,43,101,8610000,,,2024-01-19,登記官による閉鎖,,,2015-10-05,1,,,,,,0
2186,5330002009828,登記記録の閉鎖等,0,2024-01-19,2024-01-19,マツダエンタープライズ有限会社,,有限会社,熊本県,熊本市東区,長嶺南１丁目６番４３号,,43,102,8618039,,,2024-01-19,登記官による閉鎖,,,2015-10-05,1,,,,,,0
2187,5330002013219,登記記録の閉鎖等,0,2024-01-19,2024-01-19,ビオ・トピア有限会社,,有限会社,熊本県,熊本市南区,良町５丁目１３－１５,,43,104,8620969,,,2024-01-19,登記官による閉鎖,,,2015-10-05,1,,,,,,0
2188,5330002020165,登記記録の閉鎖等,0,2024-01-19,2024-01-19,有限会社ホームプランニング,,有限会社,熊本県,上益城郡益城町,大字平田１３１８番地,,43,443,8612212,,,2024-01-19,登記官による閉鎖,,,2015-10-05,1,,,,,,0
2189,5330002020371,登記記録の閉鎖等,0,2024-01-19,2024-01-19,有限会社矢部設備,,有限会社,熊本県,上益城郡山都町,城原１７０番地の５,,43,447,8613514,,,2024-01-19,登記官による閉鎖,,,2018-02-20,1,,,,,,0
2192,5330002027045,登記記録の閉鎖等,0,2024-01-19,2024-01-19,有限会社丸商,,有限会社,熊本県,八代市,郡築十番町４番地の４,,43,202,8660003,,,2024-01-19,登記官による閉鎖,,,2015-10-05,1,,,,,,0
2193,5330002030817,登記記録の閉鎖等,0,2024-01-19,2024-01-19,有限会社エー・ビー・シー,,有限会社,熊本県,球磨郡あさぎり町,免田東１４１７番地１６,,43,514,8680408,,,2024-01-19,登記官による閉鎖,,,2015-10-05,1,,,,,,0
2194,5330003001197,登記記録の閉鎖等,0,2024-01-19,2024-01-19,合名会社山崎商店,,合名会社,熊本県,熊本市中央区,出水１丁目７番５６号,,43,101,8620941,,,2024-01-19,登記官による閉鎖,,,2015-10-05,1,,,,,,0
2197,5330005001022,登記記録の閉鎖等,0,2024-01-19,2024-01-19,熊本手延製麺事業協同組合,00098296,その他の設立登記法人,熊本県,熊本市南区,並建町８３８番地,,43,104,8615263,,,2024-01-19,登記官による閉鎖,,,2015-10-05,1,,,,,,0
2200,5360002016193,登記記録の閉鎖等,0,2024-01-19,2024-01-16,有限会社タイヨウ設計,,有限会社,沖縄県,宜野湾市,嘉数２丁目４番１０－３号,,47,205,9012226,,,2024-01-16,清算の結了等,,,2015-10-05,1,,,,,,0
2204,5370001009981,登記記録の閉鎖等,0,2024-01-19,2024-01-16,東日本パルカ株式会社,,株式会社,宮城県,仙台市青葉区,大町２丁目６番２６号,,04,101,9800804,,,2024-01-16,清算の結了等,,,2015-10-05,1,,,,,ヒガシニホンパルカ,0
2224,5410001006082,登記記録の閉鎖等,0,2024-01-19,2024-01-11,株式会社とうしゆん,,株式会社,秋田県,大館市,清水５丁目９番３０号,,05,204,0170046,,,2024-01-11,清算の結了等,,,2015-10-05,1,,,,,トウシュン,0
2225,5410001008748,登記記録の閉鎖等,0,2024-01-19,2024-01-18,ディー・エス・クリエイト株式会社,,株式会社,秋田県,大仙市,大曲栄町１３番４５号,,05,212,0140061,,,2024-01-18,登記官による閉鎖,,,2015-10-05,1,,,,,,0
2226,5410001011776,登記記録の閉鎖等,0,2024-01-19,2024-01-18,株式会社テクノ不動産建設,,株式会社,秋田県,秋田市,山王２丁目７番４１号,,05,201,0100951,,,2024-01-18,登記官による閉鎖,,,2018-03-01,1,,,,,,0
2227,5410002003310,登記記録の閉鎖等,0,2024-01-19,2024-01-18,プリマドンナ・ヨーコ有限会社,,有限会社,秋田県,秋田市,旭川南町８番７号,,05,201,0100834,,,2024-01-18,登記官による閉鎖,,,2015-10-05,1,,,,,,0
2228,5410002008631,登記記録の閉鎖等,0,2024-01-19,2024-01-18,大協商事有限会社,,有限会社,秋田県,大館市,釈迦内字二ツ森８８番地,00086750,05,204,0170012,,,2024-01-18,登記官による閉鎖,,,2015-10-05,1,,,,,,0
2229,5410002008680,登記記録の閉鎖等,0,2024-01-19,2024-01-18,有限会社ドライブイン・ハツピー,,有限会社,秋田県,大館市,釈迦内字釈迦内１０８番地１,00086753,05,204,0170012,,,2024-01-18,登記官による閉鎖,,,2015-10-05,1,,,,,,0
2230,5410002009043,登記記録の閉鎖等,0,2024-01-19,2024-01-18,有限会社ムラカミ,,有限会社,秋田県,大館市,比内町扇田字下扇田４８番地,,05,204,0185701,,,2024-01-18,登記官による閉鎖,,,2015-10-05,1,,,,,,0
2231,5410002009992,登記記録の閉鎖等,0,2024-01-19,2024-01-18,有限会社ブロード,,有限会社,秋田県,北秋田市,脇神字平崎川戸沼６１番地５,,05,213,0183454,,,2024-01-18,登記官による閉鎖,,,2015-10-05,1,,,,,,0
2232,5410002010364,登記記録の閉鎖等,0,2024-01-19,2024-01-18,有限会社辰巳鉄工,,有限会社,秋田県,能代市,河戸川字砂崎３０番地２,,05,202,0160171,,,2024-01-18,登記官による閉鎖,,,2015-10-05,1,,,,,,0
2233,5410003002451,登記記録の閉鎖等,0,2024-01-19,2024-01-18,合資会社堀内商店,,合資会社,秋田県,横手市,前郷二番町５番１６号,,05,203,0130037,,,2024-01-18,登記官による閉鎖,,,2015-10-05,1,,,,,,0
2234,5410005006137,登記記録の閉鎖等,0,2024-01-19,2024-01-18,能代駅前百貨店協同組合,,その他の設立登記法人,秋田県,能代市,元町３番６号,,05,202,0160831,,,2024-01-18,登記官による閉鎖,,,2018-05-15,1,,,,,,0
2239,5430001082444,登記記録の閉鎖等,0,2024-01-19,2024-01-17,Ａｃｔｉｖｅ－Ｚｏｎｅ株式会社,,株式会社,北海道,石狩市,親船町５４番地２,,01,235,0613377,,,2024-01-17,清算の結了等,,,2020-10-06,1,,,,,アクティブゾーン,0
2249,5490002012361,登記記録の閉鎖等,0,2024-01-19,2024-01-15,有限会社ライン測量設計事務所,,有限会社,高知県,香南市,野市町東佐古２２３番地５,,39,211,7815224,,,2024-01-15,清算の結了等,,,2015-10-05,1,,,,,ラインソクリョウセッケイジムショ,0
2251,6010001074994,登記記録の閉鎖等,0,2024-01-19,2024-01-18,株式会社ディーエムエル,,株式会社,東京都,世田谷区,岡本１丁目３５番４号,,13,112,1570076,,,2024-01-18,登記官による閉鎖,,,2015-10-05,1,,,,,,0
2271,6010401061808,登記記録の閉鎖等,0,2024-01-19,2024-01-16,株式会社グローブ,,株式会社,東京都,港区,南青山１丁目１０番２号,,13,103,1070062,,,2024-01-16,清算の結了等,,,2015-10-05,1,,,,,グローブ,0
2272,6010401130843,登記記録の閉鎖等,0,2024-01-19,2024-01-11,まほろば洋上風力発電株式会社,,株式会社,東京都,千代田区,霞が関３丁目２番５号,,13,101,1000013,,,2024-01-11,清算の結了等,,,2017-04-20,1,,,,,マホロバヨウジョウフウリョクハツデン,0
2280,6010402010945,登記記録の閉鎖等,0,2024-01-19,2023-12-28,有限会社ＨＩＲＡＮＯ,,有限会社,東京都,港区,南麻布１丁目１０番７号,,13,103,1060047,,,2023-12-28,清算の結了等,,,2015-10-05,1,,,,,ヒラノ,0
2296,6010701009795,登記記録の閉鎖等,0,2024-01-19,2024-01-15,八千代ケータリング株式会社,,株式会社,東京都,品川区,南品川３丁目７－１５前田ビル１Ｆ,,13,109,1400004,,,2024-01-15,清算の結了等,,,2015-10-05,1,,,,,ヤチヨケータリング,0
2297,6010901004076,登記記録の閉鎖等,0,2024-01-19,2024-01-18,幸和物産株式会社,,株式会社,東京都,世田谷区,若林３丁目２３番３号,,13,112,1540023,,,2024-01-18,登記官による閉鎖,,,2015-10-05,1,,,,,,0
2298,6010901008127,登記記録の閉鎖等,0,2024-01-19,2024-01-18,東洋工務株式会社,,株式会社,東京都,世田谷区,世田谷１丁目２６番７号,,13,112,1540017,,,2024-01-18,登記官による閉鎖,,,2017-09-20,1,,,,,,0
2299,6010901008168,登記記録の閉鎖等,0,2024-01-19,2024-01-18,株式会社東栄商事,,株式会社,東京都,世田谷区,太子堂５丁目４番８号,,13,112,1540004,,,2024-01-18,登記官による閉鎖,,,2015-10-05,1,,,,,トウエイショウジ,0
2300,6010901014942,登記記録の閉鎖等,0,2024-01-19,2024-01-18,辰濃建設株式会社,,株式会社,東京都,世田谷区,給田５丁目９番３号,,13,112,1570064,,,2024-01-18,登記官による閉鎖,,,2018-10-02,1,,,,,タツノケンセツ,0
2304,6010902008316,登記記録の閉鎖等,0,2024-01-19,2024-01-18,有限会社須永装会,,有限会社,東京都,世田谷区,上馬４丁目２１番５号,,13,112,1540011,,,2024-01-18,登記官による閉鎖,,,2015-10-05,1,,,,,,0
2305,6010903001666,登記記録の閉鎖等,0,2024-01-19,2024-01-18,ラ・ベイ合同会社,,合同会社,東京都,世田谷区,用賀３丁目８番１１号,,13,112,1580097,,,2024-01-18,登記官による閉鎖,,,2015-10-05,1,,,,,,0
2306,6010905001004,登記記録の閉鎖等,0,2024-01-19,2024-01-18,特定非営利活動法人ヒマラヤハーモニー,,その他の設立登記法人,東京都,世田谷区,上用賀５丁目１０番１６号,,13,112,1580098,,,2024-01-18,登記官による閉鎖,,,2015-10-05,1,,,,,,0
2307,6010905001474,登記記録の閉鎖等,0,2024-01-19,2024-01-18,特定非営利活動法人芸術への行動,,その他の設立登記法人,東京都,世田谷区,北沢２丁目１０番１５号藤和下北沢ハイタウン３１３号,,13,112,1550031,,,2024-01-18,登記官による閉鎖,,,2015-10-05,1,,,,,,0
2308,6010905001805,登記記録の閉鎖等,0,2024-01-19,2024-01-18,特定非営利活動法人日本すこやか情報協会,,その他の設立登記法人,東京都,世田谷区,梅丘２丁目２２番７号ベクベームハウス３０１,,13,112,1540022,,,2024-01-18,登記官による閉鎖,,,2015-10-05,1,,,,,,0
2313,6011001139515,登記記録の閉鎖等,0,2024-01-19,2024-01-09,株式会社ＯＦＦＩＣＥ　ＭＵＳＵＢＩ,,株式会社,東京都,渋谷区,道玄坂１丁目２番３号渋谷フクラス１７階,,13,113,1500043,,,2024-01-09,清算の結了等,,,2021-04-09,1,,,,,オフィスムスビ,0
2343,6013102002213,登記記録の閉鎖等,0,2024-01-19,2024-01-17,有限会社トモエ．エンジニアリング,,有限会社,東京都,あきる野市,草花２０９８番地１４,,13,228,1970802,,,2024-01-17,清算の結了等,,,2015-10-05,1,,,,,トモエエンジニアリング,0
2346,6020001000090,登記記録の閉鎖等,0,2024-01-19,2024-01-19,株式会社大船ラドン温泉,,株式会社,神奈川県,横浜市神奈川区,神奈川本町２番地８,,14,102,2210046,,,2024-01-19,登記官による閉鎖,,,2015-10-05,1,,,,,オオフナラドンオンセン,0
2347,6020001007020,登記記録の閉鎖等,0,2024-01-19,2024-01-19,アークライフサポー卜株式会社,,株式会社,神奈川県,横浜市戸塚区,品濃町１４５０番地１,,14,110,2440801,,,2024-01-19,登記官による閉鎖,,,2015-10-05,1,,,,,アークライフサポート,0
2348,6020001009644,登記記録の閉鎖等,0,2024-01-19,2024-01-19,株式会社巌商会,,株式会社,神奈川県,横浜市保土ケ谷区,星川３丁目１１番１６号,,14,106,2400006,,,2024-01-19,登記官による閉鎖,,,2015-10-05,1,,,,,,0
2349,6020001018686,登記記録の閉鎖等,0,2024-01-19,2024-01-19,株式会社フジカワ薬局,,株式会社,神奈川県,横浜市鶴見区,矢向４丁目８番７号,,14,101,2300001,,,2024-01-19,登記官による閉鎖,,,2015-10-05,1,,,,,,0
2350,6020001024610,登記記録の閉鎖等,0,2024-01-19,2024-01-19,ムラタ塗装株式会社,,株式会社,神奈川県,横浜市神奈川区,西大口８３番地３１,,14,102,2210004,,,2024-01-19,登記官による閉鎖,,,2015-10-05,1,,,,,,0
2351,6020001025294,登記記録の閉鎖等,0,2024-01-19,2024-01-19,株式会社アムスコ・エレクトロニクス,,株式会社,神奈川県,横浜市磯子区,磯子台２６－１－６０４,,14,107,2350019,,,2024-01-19,登記官による閉鎖,,,2015-10-05,1,,,,,,0
2352,6020001029865,登記記録の閉鎖等,0,2024-01-19,2024-01-19,株式会社エルク,,株式会社,神奈川県,横浜市緑区,三保町１３７１番地,,14,113,2260015,,,2024-01-19,登記官による閉鎖,,,2015-10-05,1,,,,,,0
2353,6020001035500,登記記録の閉鎖等,0,2024-01-19,2024-01-19,株式会社ゆうき水産,,株式会社,神奈川県,横浜市緑区,台村町２２５番地,,14,113,2260014,,,2024-01-19,登記官による閉鎖,,,2015-10-05,1,,,,,,0
2354,6020001043635,登記記録の閉鎖等,0,2024-01-19,2024-01-19,株式会社花実,,株式会社,神奈川県,横浜市保土ケ谷区,上菅田町８３０番地３０１号,,14,106,2400051,,,2024-01-19,登記官による閉鎖,,,2015-10-05,1,,,,,,0
2355,6020001063831,登記記録の閉鎖等,0,2024-01-19,2024-01-19,株式会社うめや,,株式会社,神奈川県,川崎市多摩区,登戸２５９０番地３石井ビル２階,,14,135,2140014,,,2024-01-19,登記官による閉鎖,,,2018-09-05,1,,,,,ウメヤ,0
2356,6020001082534,登記記録の閉鎖等,0,2024-01-19,2024-01-19,ＪｅｌｌｅｅＡ株式会社,,株式会社,神奈川県,川崎市麻生区,百合丘３丁目４番地５,,14,137,2150011,,,2024-01-19,登記官による閉鎖,,,2015-10-05,1,,,,,,0
2357,6020001085454,登記記録の閉鎖等,0,2024-01-19,2024-01-19,株式会社Ｓｅａｂｒｅｅｚｅ,,株式会社,神奈川県,横浜市港北区,師岡町３２９番地１－１０９,,14,109,2220002,,,2024-01-19,登記官による閉鎖,,,2015-10-05,1,,,,,,0
2358,6020001088812,登記記録の閉鎖等,0,2024-01-19,2024-01-19,株式会社シナテック,,株式会社,神奈川県,横浜市磯子区,杉田６丁目３４番５号,,14,107,2350033,,,2024-01-19,登記官による閉鎖,,,2015-10-05,1,,,,,,0
2359,6020001091238,登記記録の閉鎖等,0,2024-01-19,2024-01-19,不動産Ｎ株式会社,,株式会社,神奈川県,横浜市神奈川区,鶴屋町１丁目６番２号,,14,102,2210835,,,2024-01-19,登記官による閉鎖,,,2015-10-05,1,,,,,,0
2360,6020001091510,登記記録の閉鎖等,0,2024-01-19,2024-01-19,千歳工業株式会社,,株式会社,神奈川県,横浜市鶴見区,大東町７番地１,,14,101,2300032,,,2024-01-19,登記官による閉鎖,,,2015-10-05,1,,,,,,0
2362,6020001104701,登記記録の閉鎖等,0,2024-01-19,2024-01-17,株式会社オールジーン,,株式会社,東京都,新宿区,西新宿７丁目２２番３６号,,13,104,1600023,,,2024-01-17,清算の結了等,,,2015-10-05,1,,,,,オールジーン,0
2363,6020001129095,登記記録の閉鎖等,0,2024-01-19,2024-01-19,叶建設株式会社,,株式会社,神奈川県,横浜市中区,南仲通１丁目１４番地,,14,104,2310006,,,2024-01-19,登記官による閉鎖,,,2018-12-14,1,,,,,,0
2367,6020002009643,登記記録の閉鎖等,0,2024-01-19,2024-01-19,有限会社カネタ工業,,有限会社,神奈川県,横浜市磯子区,栗木３丁目３３番１８号,,14,107,2350041,,,2024-01-19,登記官による閉鎖,,,2015-10-05,1,,,,,,0
2368,6020002024270,登記記録の閉鎖等,0,2024-01-19,2024-01-15,有限会社つくりんぼ,,有限会社,神奈川県,横浜市保土ケ谷区,権太坂１丁目５２番６号,,14,106,2400026,,,2024-01-15,清算の結了等,,,2015-10-05,1,,,,,ツクリンボ,0
2370,6020002033825,登記記録の閉鎖等,0,2024-01-19,2024-01-19,佐藤興業有限会社,,有限会社,神奈川県,横浜市港北区,綱島東４丁目９番６号,,14,109,2230052,,,2024-01-19,登記官による閉鎖,,,2015-10-05,1,,,,,,0
2372,6020002065645,登記記録の閉鎖等,0,2024-01-19,2024-01-19,有限会社ウシキ不動産総合事務所,,有限会社,神奈川県,横浜市戸塚区,品濃町５３５番地２－１２０９号,,14,110,2440801,,,2024-01-19,登記官による閉鎖,,,2015-10-05,1,,,,,,0
2373,6020002070281,登記記録の閉鎖等,0,2024-01-19,2024-01-19,有限会社辰巳企業,,有限会社,神奈川県,横浜市保土ケ谷区,今井町４９５番地１リーベスト保土ケ谷Ｈ棟５０１号,,14,106,2400035,,,2024-01-19,登記官による閉鎖,,,2015-10-05,1,,,,,,0
2374,6020002072063,登記記録の閉鎖等,0,2024-01-19,2024-01-19,有限会社美和産業,,有限会社,神奈川県,横浜市都筑区,茅ケ崎南３丁目１４番１号－３０６号,,14,118,2240037,,,2024-01-19,登記官による閉鎖,,,2015-10-05,1,,,,,,0
2375,6020002072360,登記記録の閉鎖等,0,2024-01-19,2024-01-19,有限会社タロー・エンタープライズ,,有限会社,神奈川県,横浜市中区,柏葉４３番地,,14,104,2310866,,,2024-01-19,登記官による閉鎖,,,2015-10-05,1,,,,,,0
2376,6020002079777,登記記録の閉鎖等,0,2024-01-19,2024-01-15,有限会社友西エンジニアリング,,有限会社,神奈川県,横浜市磯子区,森が丘２丁目１１番１５号,,14,107,2350024,,,2024-01-15,清算の結了等,,,2015-10-05,1,,,,,ユウサイエンジニアリング,0
2377,6020002081411,登記記録の閉鎖等,0,2024-01-19,2024-01-19,有限会社橘エンタープライズ,,有限会社,神奈川県,川崎市幸区,小倉９２５番地,,14,132,2120054,,,2024-01-19,登記官による閉鎖,,,2015-10-05,1,,,,,,0
2378,6020002081824,登記記録の閉鎖等,0,2024-01-19,2024-01-19,有限会社三谷板金,,有限会社,神奈川県,川崎市幸区,下平間２３番地,,14,132,2120053,,,2024-01-19,登記官による閉鎖,,,2015-10-05,1,,,,,,0
2381,6020002093745,登記記録の閉鎖等,0,2024-01-19,2024-01-19,有限会社ルレーブ美容室,,有限会社,神奈川県,川崎市多摩区,宿河原３丁目４番８号,,14,135,2140021,,,2024-01-19,登記官による閉鎖,,,2015-10-05,1,,,,,,0
2382,6020002095816,登記記録の閉鎖等,0,2024-01-19,2024-01-19,有限会社植草工業所,,有限会社,神奈川県,川崎市川崎区,旭町１丁目１６番１０号,,14,131,2100808,,,2024-01-19,登記官による閉鎖,,,2015-10-05,1,,,,,,0
2383,6020002096582,登記記録の閉鎖等,0,2024-01-19,2024-01-19,有限会社黒沢商店,,有限会社,神奈川県,川崎市川崎区,小田栄１丁目３番１０号,,14,131,2100843,,,2024-01-19,登記官による閉鎖,,,2015-10-05,1,,,,,,0
2384,6020002098488,登記記録の閉鎖等,0,2024-01-19,2024-01-19,有限会社ニッコーフォート,,有限会社,神奈川県,川崎市川崎区,日進町１番地川崎日航ホテルビル８階,,14,131,2100024,,,2024-01-19,登記官による閉鎖,,,2015-10-05,1,,,,,,0
2385,6020002099222,登記記録の閉鎖等,0,2024-01-19,2024-01-19,有限会社丸新商店,,有限会社,神奈川県,川崎市川崎区,浜町１丁目２１番５号,,14,131,2100851,,,2024-01-19,登記官による閉鎖,,,2018-08-22,1,,,,,,0
2386,6020002103280,登記記録の閉鎖等,0,2024-01-19,2024-01-19,有限会社ＹＮコンサルタント,,有限会社,神奈川県,川崎市川崎区,駅前本町１８番１号４０２,,14,131,2100007,,,2024-01-19,登記官による閉鎖,,,2015-10-05,1,,,,,,0
2387,6020002108115,登記記録の閉鎖等,0,2024-01-19,2024-01-19,有限会社今関製作所,,有限会社,神奈川県,川崎市麻生区,百合丘２丁目５番地３４の１０４号,,14,137,2150011,,,2024-01-19,登記官による閉鎖,,,2018-08-16,1,,,,,,0
2388,6020003004370,登記記録の閉鎖等,0,2024-01-19,2024-01-19,合資会社毎進学院,,合資会社,神奈川県,横浜市金沢区,西柴３丁目８番３号,,14,108,2360017,,,2024-01-19,登記官による閉鎖,,,2015-10-05,1,,,,,,0
2390,6020005002991,登記記録の閉鎖等,0,2024-01-19,2024-01-19,財団法人光和英学院,,その他の設立登記法人,神奈川県,横浜市南区,永楽町２丁目２６番地,,14,105,2320031,,,2024-01-19,登記官による閉鎖,,,2015-10-05,1,,,,,,0
2391,6020005003949,登記記録の閉鎖等,0,2024-01-19,2024-01-19,特定非営利活動法人神奈川成年後見サポートセンター,,その他の設立登記法人,神奈川県,横浜市中区,山下町２番地,,14,104,2310023,,,2024-01-19,登記官による閉鎖,,,2015-10-05,1,,,,,,0
2392,6020005004360,登記記録の閉鎖等,0,2024-01-19,2024-01-19,特定非営利活動法人日本フォニックス協会,,その他の設立登記法人,神奈川県,横浜市中区,末吉町３丁目５１番地メゾン伊勢佐木１００４号室,,14,104,2310055,,,2024-01-19,登記官による閉鎖,,,2015-10-05,1,,,,,,0
2393,6020005005986,登記記録の閉鎖等,0,2024-01-19,2024-01-19,特定非営利活動法人ピュアライフ,,その他の設立登記法人,神奈川県,横浜市中区,曙町３丁目４４番地レザミ曙５０２号,,14,104,2310057,,,2024-01-19,登記官による閉鎖,,,2015-10-05,1,,,,,,0
2394,6020005008460,登記記録の閉鎖等,0,2024-01-19,2024-01-19,財団法人三橋体育研究所,,その他の設立登記法人,神奈川県,川崎市麻生区,高石２丁目３４番９,,14,137,2150003,,,2024-01-19,登記官による閉鎖,,,2015-10-05,1,,,,,,0
2395,6020005008510,登記記録の閉鎖等,0,2024-01-19,2024-01-19,特定非営利活動法人日本理科実験教育活動推進協会,,その他の設立登記法人,神奈川県,川崎市中原区,下小田中１丁目２５番２２－３０４号セシーズ武蔵中原,,14,133,2110041,,,2024-01-19,登記官による閉鎖,,,2015-10-05,1,,,,,,0
2396,6021001008520,登記記録の閉鎖等,0,2024-01-19,2024-01-19,株式会社東京黄色いりぼん,,株式会社,神奈川県,茅ヶ崎市,円蔵２丁目１番３４号,,14,207,2530084,,,2024-01-19,登記官による閉鎖,,,2015-10-05,1,,,,,,0
2397,6021001015748,登記記録の閉鎖等,0,2024-01-19,2024-01-19,株式会社ゴーウエント,,株式会社,神奈川県,相模原市中央区,東淵野辺１丁目１２番２１号,,14,152,2520203,,,2024-01-19,登記官による閉鎖,,,2015-10-05,1,,,,,,0
2398,6021001016077,登記記録の閉鎖等,0,2024-01-19,2024-01-19,株式会社サンアイ,,株式会社,神奈川県,相模原市緑区,太井４３１番地,,14,151,2520152,,,2024-01-19,登記官による閉鎖,,,2015-10-05,1,,,,,,0
2399,6021001024575,登記記録の閉鎖等,0,2024-01-19,2024-01-19,株式会社カノン・ジャパン,,株式会社,神奈川県,厚木市,愛甲２丁目１２番２号,,14,212,2430035,,,2024-01-19,登記官による閉鎖,,,2015-10-05,1,,,,,,0
2400,6021001034871,登記記録の閉鎖等,0,2024-01-19,2024-01-19,株式会社來人,,株式会社,神奈川県,足柄上郡山北町,向原１７番地の１９,,14,364,2580111,,,2024-01-19,登記官による閉鎖,,,2015-10-05,1,,,,,,0
2401,6021001041637,登記記録の閉鎖等,0,2024-01-19,2024-01-19,株式会社松元屋商店,,株式会社,神奈川県,逗子市,逗子５丁目３番４２号,,14,208,2490006,,,2024-01-19,登記官による閉鎖,,,2015-10-05,1,,,,,,0
2404,6021002014303,登記記録の閉鎖等,0,2024-01-19,2024-01-19,有限会社金井不動産,,有限会社,神奈川県,鎌倉市,大船３丁目６番２７号,,14,204,2470056,,,2024-01-19,登記官による閉鎖,,,2015-10-05,1,,,,,,0
2405,6021002020326,登記記録の閉鎖等,0,2024-01-19,2024-01-19,有限会社岩屋産業,,有限会社,神奈川県,藤沢市,長後７９１－１,,14,205,2520801,,,2024-01-19,登記官による閉鎖,,,2015-10-05,1,,,,,,0
2406,6021002020656,登記記録の閉鎖等,0,2024-01-19,2024-01-19,有限会社三照建築設計事務所,,有限会社,神奈川県,伊勢原市,高森２８５番地,,14,214,2591114,,,2024-01-19,登記官による閉鎖,,,2015-10-05,1,,,,,,0
2407,6021002021118,登記記録の閉鎖等,0,2024-01-19,2024-01-19,有限会社清水エクステリア,,有限会社,神奈川県,相模原市中央区,上溝２０２番地の１,,14,152,2520243,,,2024-01-19,登記官による閉鎖,,,2015-10-05,1,,,,,,0
2408,6021002022966,登記記録の閉鎖等,0,2024-01-19,2024-01-19,有限会社中村設備,,有限会社,神奈川県,相模原市中央区,陽光台４丁目８番３３号,,14,152,2520226,,,2024-01-19,登記官による閉鎖,,,2015-10-05,1,,,,,,0
2409,6021002024426,登記記録の閉鎖等,0,2024-01-19,2024-01-19,有限会社丸ス工業,,有限会社,神奈川県,相模原市南区,相模大野６丁目１３番１６号,,14,153,2520303,,,2024-01-19,登記官による閉鎖,,,2015-10-05,1,,,,,,0
2410,6021002030754,登記記録の閉鎖等,0,2024-01-19,2024-01-19,有限会社石川商会,,有限会社,神奈川県,厚木市,中町３丁目１８番１６号,,14,212,2430018,,,2024-01-19,登記官による閉鎖,,,2015-10-05,1,,,,,,0
2411,6021002036132,登記記録の閉鎖等,0,2024-01-19,2024-01-19,有限会社武商,,有限会社,神奈川県,厚木市,妻田南２丁目３番２５号,,14,212,2430814,,,2024-01-19,登記官による閉鎖,,,2015-10-05,1,,,,,,0
2412,6021002043186,登記記録の閉鎖等,0,2024-01-19,2024-01-19,有限会社イリキ・コトブキヤ酒店,,有限会社,神奈川県,座間市,相模が丘４丁目５番２３号,,14,216,2520001,,,2024-01-19,登記官による閉鎖,,,2015-10-05,1,,,,,,0
2413,6021002049761,登記記録の閉鎖等,0,2024-01-19,2024-01-19,有限会社梅原水産加工,,有限会社,神奈川県,足柄下郡真鶴町,真鶴８９４番地の１,,14,383,2590201,,,2024-01-19,登記官による閉鎖,,,2015-10-05,1,,,,,,0
2414,6021002051924,登記記録の閉鎖等,0,2024-01-19,2024-01-19,寒川エム・ジエー・シーフオト有限会社,,有限会社,神奈川県,小田原市,南町３丁目５番２３号,,14,206,2500013,,,2024-01-19,登記官による閉鎖,,,2015-10-05,1,,,,,,0
2415,6021002052286,登記記録の閉鎖等,0,2024-01-19,2024-01-19,有限会社相産,,有限会社,神奈川県,小田原市,栄町１丁目１４番４８号,,14,206,2500011,,,2024-01-19,登記官による閉鎖,,,2015-10-05,1,,,,,,0
2416,6021002053193,登記記録の閉鎖等,0,2024-01-19,2024-01-19,未華インベント有限会社,,有限会社,神奈川県,小田原市,東町４丁目５番２０号,,14,206,2500003,,,2024-01-19,登記官による閉鎖,,,2015-10-05,1,,,,,,0
2417,6021002067144,登記記録の閉鎖等,0,2024-01-19,2024-01-19,有限会社みつるビル,,有限会社,神奈川県,横須賀市,若松町３丁目９番地,,14,201,2380007,,,2024-01-19,登記官による閉鎖,,,2015-10-05,1,,,,,,0
2418,6021002068753,登記記録の閉鎖等,0,2024-01-19,2024-01-19,関東油化有限会社,,有限会社,神奈川県,三浦郡葉山町,一色５２６番地の５,,14,301,2400111,,,2024-01-19,登記官による閉鎖,,,2015-10-05,1,,,,,,0
2419,6021002069149,登記記録の閉鎖等,0,2024-01-19,2024-01-19,有限会社ナノテック・ジャパン,,有限会社,神奈川県,三浦郡葉山町,一色１１９３番地の３,,14,301,2400111,,,2024-01-19,登記官による閉鎖,,,2015-10-05,1,,,,,,0
2422,6021005002338,登記記録の閉鎖等,0,2024-01-19,2024-01-19,特定非営利活動法人フィリピン新日系人を支える会関東支部,,その他の設立登記法人,神奈川県,藤沢市,善行７丁目４番１号,,14,205,2510871,,,2024-01-19,登記官による閉鎖,,,2015-10-05,1,,,,,,0
2425,6030002014733,登記記録の閉鎖等,0,2024-01-19,2023-12-28,有限会社ワイビイ企画,,有限会社,埼玉県,さいたま市北区,宮原町２丁目２５番地２１第１２大宮ハイツ２０２,,11,102,3310812,,,2023-12-28,清算の結了等,,,2015-10-05,1,,,,,ワイビイキカク,0
2426,6030002017447,登記記録の閉鎖等,0,2024-01-19,2024-01-10,有限会社ハラダ,,有限会社,埼玉県,さいたま市桜区,田島１０丁目２０番１０号,,11,106,3380837,,,2024-01-10,清算の結了等,,,2015-10-05,1,,,,,ハラダ,0
2427,6030002086624,登記記録の閉鎖等,0,2024-01-19,2024-01-11,有限会社寿司建,,有限会社,埼玉県,越谷市,蒲生茜町２番地１,,11,222,3430843,,,2024-01-11,清算の結了等,,,2015-10-05,1,,,,,スシケン,0
2432,6040001087655,登記記録の閉鎖等,0,2024-01-19,2024-01-10,株式会社修農舎,,株式会社,千葉県,香取市,九美上１２番地１６７,,12,236,2870022,,,2024-01-10,清算の結了等,,,2015-10-05,1,,,,,シュウノウシャ,0
2435,6040002010921,登記記録の閉鎖等,0,2024-01-19,2024-01-09,有限会社インテリア若葉,,有限会社,千葉県,千葉市若葉区,殿台町２８９番地１サニーヒルビル３０３,,12,104,2640036,,,2024-01-09,清算の結了等,,,2015-10-05,1,,,,,インテリアワカバ,0
2525,6130001039647,登記記録の閉鎖等,0,2024-01-19,2024-01-17,株式会社Ｔ．Ｎ保険サービス,,株式会社,京都府,城陽市,平川長筬４番地の３８,,26,207,6100101,,,2024-01-17,清算の結了等,,,2015-10-05,1,,,,,ティーエヌホケンサービス,0
2542,6180001102318,登記記録の閉鎖等,0,2024-01-19,2024-01-15,株式会社もろのき,,株式会社,愛知県,名古屋市熱田区,一番３丁目６番７号メゾン・アルモニーＡ４０２,,23,109,4560053,,,2024-01-15,清算の結了等,,,2015-10-05,1,,,,,モロノキ,0
2548,6180002025286,登記記録の閉鎖等,0,2024-01-19,2024-01-15,一番測量設計有限会社,,有限会社,愛知県,名古屋市緑区,浦里１丁目１６８番地,,23,114,4580847,,,2024-01-15,清算の結了等,,,2015-10-05,1,,,,,イチバンソクリョウセッケイ,0
2559,6200001001707,登記記録の閉鎖等,0,2024-01-19,2024-01-19,株式会社岐和刺繍,00112672,株式会社,岐阜県,岐阜市,芋島４丁目３１番５号,,21,201,5008234,,,2024-01-19,登記官による閉鎖,,,2018-03-01,1,,,,,ギワシシュウ,0
2560,6200001016671,登記記録の閉鎖等,0,2024-01-19,2024-01-19,株式会社中山加工所,,株式会社,岐阜県,養老郡養老町,若宮４８１番地１４,,21,341,5031265,,,2024-01-19,登記官による閉鎖,,,2015-10-05,1,,,,,,0
2561,6200001018081,登記記録の閉鎖等,0,2024-01-19,2024-01-19,株式会社アイアンドエルヤマダ,,株式会社,岐阜県,可児市,下恵土５８２６番地の３８,,21,214,5090203,,,2024-01-19,登記官による閉鎖,,,2015-10-05,1,,,,,,0
2562,6200001018263,登記記録の閉鎖等,0,2024-01-19,2024-01-19,株式会社なかやま,,株式会社,岐阜県,可児市,中恵土１６６０番地５,,21,214,5090202,,,2024-01-19,登記官による閉鎖,,,2015-10-05,1,,,,,,0
2563,6200001020896,登記記録の閉鎖等,0,2024-01-19,2024-01-19,株式会社ニューマテリアル研究所,,株式会社,岐阜県,多治見市,高田町岩曽根４番地,,21,204,5070011,,,2024-01-19,登記官による閉鎖,,,2015-10-05,1,,,,,,0
2564,6200002004790,登記記録の閉鎖等,0,2024-01-19,2024-01-19,有限会社メゾン小林,,有限会社,岐阜県,岐阜市,北一色５丁目２番６号,,21,201,5008227,,,2024-01-19,登記官による閉鎖,,,2018-11-13,1,,,,,メゾンコバヤシ,0
2567,6200005007295,登記記録の閉鎖等,0,2024-01-19,2024-01-19,特定非営利活動法人中部生涯学習アカデミー,,その他の設立登記法人,岐阜県,可児市,下恵土５８２６番地の３８,,21,214,5090203,,,2024-01-19,登記官による閉鎖,,,2015-10-05,1,,,,,,0
2571,6210003000870,登記記録の閉鎖等,0,2024-01-19,2024-01-17,合同会社モア,,合同会社,福井県,福井市,西開発１丁目７番１３号,,18,201,9100843,,,2024-01-17,清算の結了等,,,2015-10-05,1,,,,,モア,0
2584,6250001013359,登記記録の閉鎖等,0,2024-01-19,2024-01-17,株式会社ヤマグチ,,株式会社,山口県,岩国市,中津町１丁目８番５号,,35,208,7400027,,,2024-01-17,清算の結了等,,,2015-10-05,1,,,,,ヤマグチ,0
2600,6310001004021,登記記録の閉鎖等,0,2024-01-19,2024-01-11,保険工房株式会社,,株式会社,長崎県,長崎市,松山町４番３２号,,42,201,8528118,,,2024-01-11,登記官による閉鎖,,,2015-10-05,1,,,,,,0
2601,6310001009524,登記記録の閉鎖等,0,2024-01-19,2024-01-11,株式会社ドリームスカイワード,,株式会社,長崎県,諫早市,馬渡町１６番地１,,42,204,8540075,,,2024-01-11,登記官による閉鎖,,,2015-10-05,1,,,,,,0
2602,6310001011678,登記記録の閉鎖等,0,2024-01-19,2024-01-11,株式会社サンシャイン,,株式会社,長崎県,長崎市,多以良町２１６３番地２,,42,201,8512213,,,2024-01-11,登記官による閉鎖,,,2015-10-05,1,,,,,,0
2604,6310002010118,登記記録の閉鎖等,0,2024-01-19,2024-01-11,有限会社三光検査,,有限会社,長崎県,佐世保市,広田３丁目３５番２７号,,42,202,8593223,,,2024-01-11,登記官による閉鎖,,,2015-10-05,1,,,,,,0
2605,6310005001997,登記記録の閉鎖等,0,2024-01-19,2024-01-11,特定非営利活動法人ＮＰＯタスクフォースおりおん,,その他の設立登記法人,長崎県,西彼杵郡時津町,西時津郷１０００番地２２２,,42,308,8512101,,,2024-01-11,登記官による閉鎖,,,2015-10-05,1,,,,,,0
2610,6330001000324,登記記録の閉鎖等,0,2024-01-19,2024-01-19,稲田実業株式会社,,株式会社,熊本県,熊本市西区,春日２丁目１１番２６号,,43,103,8600047,,,2024-01-19,登記官による閉鎖,,,2015-10-05,1,,,,,,0
2612,6330001008441,登記記録の閉鎖等,0,2024-01-19,2024-01-19,株式会社ＬＩＮＫ,,株式会社,熊本県,熊本市中央区,中央街四丁目２６番地,,43,101,8600802,,,2024-01-19,登記官による閉鎖,,,2015-10-05,1,,,,,,0
2613,6330001015000,登記記録の閉鎖等,0,2024-01-19,2024-01-19,株式会社ＦＩＢＥＲ－Ｔ,,株式会社,熊本県,熊本市中央区,九品寺６丁目１０番１５号,,43,101,8620976,,,2024-01-19,登記官による閉鎖,,,2015-10-05,1,,,,,,0
2614,6330001018779,登記記録の閉鎖等,0,2024-01-19,2024-01-19,株式会社美の源,,株式会社,熊本県,熊本市東区,渡鹿８丁目１９番１５号サニーパレス小碩１０３号,,43,102,8620970,,,2024-01-19,登記官による閉鎖,,,2015-10-05,1,,,,,,0
2617,6330002008746,登記記録の閉鎖等,0,2024-01-19,2024-01-19,有限会社美容室そのみ,,有限会社,熊本県,熊本市東区,長嶺南１丁目７番３１号,,43,102,8618039,,,2024-01-19,登記官による閉鎖,,,2015-10-05,1,,,,,,0
2618,6330002008928,登記記録の閉鎖等,0,2024-01-19,2024-01-19,有限会社ファミコンショップサンライト,,有限会社,熊本県,熊本市西区,島崎３丁目４番１７号,,43,103,8600073,,,2024-01-19,登記官による閉鎖,,,2015-10-05,1,,,,,,0
2619,6330002008969,登記記録の閉鎖等,0,2024-01-19,2024-01-19,有限会社福田鉄工,,有限会社,熊本県,熊本市中央区,世安町字水町１３０番地,,43,101,8600823,,,2024-01-19,登記官による閉鎖,,,2015-10-05,1,,,,,,0
2620,6330002010990,登記記録の閉鎖等,0,2024-01-19,2024-01-19,有限会社ユーエスデンタルラボラトリー,,有限会社,熊本県,熊本市東区,尾上二丁目４番６号,,43,102,8610000,,,2024-01-19,登記官による閉鎖,,,2015-10-05,1,,,,,,0
2621,6330002022581,登記記録の閉鎖等,0,2024-01-19,2024-01-19,有限会社スマイルプラント,,有限会社,熊本県,玉名郡長洲町,大字長洲７１８番地,,43,368,8690123,,,2024-01-19,登記官による閉鎖,,,2015-10-05,1,,,,,,0
2622,6330002023588,登記記録の閉鎖等,0,2024-01-19,2024-01-19,有限会社マルセイ,,有限会社,熊本県,阿蘇郡南小国町,大字赤馬場１９４１番地,,43,423,8692401,,,2024-01-19,登記官による閉鎖,,,2015-10-05,1,,,,,,0
2623,6330002023836,登記記録の閉鎖等,0,2024-01-19,2024-01-19,有限会社坂口衣料,,有限会社,熊本県,宇城市,松橋町古保山２０５７番地,,43,213,8690512,,,2024-01-19,登記官による閉鎖,,,2015-10-05,1,,,,,,0
2625,6330005001987,登記記録の閉鎖等,0,2024-01-19,2024-01-19,特定非営利活動法人　新緑の会,,その他の設立登記法人,熊本県,熊本市中央区,菅原町２番６号ハイツ中根１号,,43,101,8620957,,,2024-01-19,登記官による閉鎖,,,2015-10-05,1,,,,,,0
2626,6330005003117,登記記録の閉鎖等,0,2024-01-19,2024-01-19,ＮＰＯ法人グラン・オム,,その他の設立登記法人,熊本県,菊池市,隈府立町１４５番地,,43,210,8611331,,,2024-01-19,登記官による閉鎖,,,2015-10-05,1,,,,,,0
2627,6330005004008,登記記録の閉鎖等,0,2024-01-19,2024-01-19,農事組合法人緑川酪農組合,,その他の設立登記法人,熊本県,上益城郡甲佐町,大字下横田１０８１番地１,,43,444,8614621,,,2024-01-19,登記官による閉鎖,,,2015-10-05,1,,,,,,0
2628,6330005006482,登記記録の閉鎖等,0,2024-01-19,2024-01-19,医療法人社団大塚内科医院,,その他の設立登記法人,熊本県,水俣市,浜町１丁目８番３２号,,43,205,8670065,,,2024-01-19,登記官による閉鎖,,,2015-10-05,1,,,,,,0
2642,6370001045571,登記記録の閉鎖等,0,2024-01-19,2024-01-18,株式会社フレシード東北,,株式会社,宮城県,仙台市若林区,卸町３丁目３番地の１２,,04,103,9840015,,,2024-01-18,清算の結了等,,,2020-03-24,1,,,,,フレシードトウホク,0
2646,6370601003417,登記記録の閉鎖等,0,2024-01-19,2024-01-12,株式会社Ｂｒｅａｋｌｅ,,株式会社,宮城県,角田市,角田字牛舘７７－１,,04,208,9811505,,,2024-01-12,清算の結了等,,,2015-10-05,1,,,,,ブリークル,0
2653,6410001005546,登記記録の閉鎖等,0,2024-01-19,2024-01-18,株式会社ビルトラスト,,株式会社,秋田県,湯沢市,清水町５丁目２番８号,,05,207,0120033,,,2024-01-18,登記官による閉鎖,,,2015-10-05,1,,,,,ビルトラスト,0
2655,6410002002014,登記記録の閉鎖等,0,2024-01-19,2024-01-18,有限会社秀コーポレーション,,有限会社,秋田県,秋田市,中通１丁目３番４６号,,05,201,0100001,,,2024-01-18,登記官による閉鎖,,,2015-10-05,1,,,,,,0
2656,6410002005735,登記記録の閉鎖等,0,2024-01-19,2024-01-18,有限会社ダイサン,,有限会社,秋田県,潟上市,天王字追分２９番地１,,05,211,0100101,,,2024-01-18,登記官による閉鎖,,,2015-10-05,1,,,,,,0
2657,6410003002310,登記記録の閉鎖等,0,2024-01-19,2024-01-18,合資会社佐藤,,合資会社,秋田県,仙北市,田沢湖生保内字宮ノ前２８番地,,05,215,0141201,,,2024-01-18,登記官による閉鎖,,,2015-10-05,1,,,,,,0
2659,6410005005484,登記記録の閉鎖等,0,2024-01-19,2024-01-18,農事組合法人アグリビジョン秋田,,その他の設立登記法人,秋田県,仙北市,角館町下延上野坊１４８番地２,,05,215,0140343,,,2024-01-18,登記官による閉鎖,,,2015-10-05,1,,,,,,0
2666,6480003001124,登記記録の閉鎖等,0,2024-01-19,2024-01-17,合同会社キセキ,,合同会社,徳島県,小松島市,金磯町３番８９号,,36,203,7730007,,,2024-01-17,清算の結了等,,,2017-07-18,1,,,,,キセキ,0
2670,6700150017536,登記記録の閉鎖等,0,2024-01-19,2023-09-28,味菜工房,,その他,埼玉県,比企郡嵐山町,大字千手堂６９０－１,,11,342,3550227,,,2023-09-28,その他の清算の結了等,,,2015-10-09,1,,,,,アジサイコウボウ,0
2671,6700150017569,登記記録の閉鎖等,0,2024-01-19,2023-09-30,ときがわ町都幾川四季彩館,,その他,埼玉県,比企郡ときがわ町,大字別所５５６－１,,11,349,3550352,,,2023-09-30,その他の清算の結了等,,,2015-10-09,1,,,,,トキガワマチトキガワシキサイカン,0
2691,7010005029201,登記記録の閉鎖等,0,2024-01-19,2024-01-18,Ｇｏｌｄｅｎ　Ｔｏｕｃｈ２一般社団法人,,その他の設立登記法人,東京都,千代田区,丸の内３丁目１番１号東京共同会計事務所内,,13,101,1000005,,,2024-01-18,清算の結了等,,,2018-10-11,1,,,,,ゴールデンタッチツー,0
2710,7010501009862,登記記録の閉鎖等,0,2024-01-19,2024-01-15,株式会社西川,,株式会社,東京都,武蔵野市,御殿山１丁目４番１６号,,13,203,1800005,,,2024-01-15,清算の結了等,,,2015-10-05,1,,,,,ニシカワ,0
2714,7010601021560,登記記録の閉鎖等,0,2024-01-19,2024-01-15,株式会社サン・ドウ,,株式会社,東京都,墨田区,両国１丁目３番８号,,13,107,1300026,,,2024-01-15,清算の結了等,,,2015-10-05,1,,,,,サンドウ,0
2716,7010901001411,登記記録の閉鎖等,0,2024-01-19,2024-01-18,株式会社魚定,,株式会社,東京都,世田谷区,豪徳寺１丁目１９番４号,,13,112,1540021,,,2024-01-18,登記官による閉鎖,,,2015-10-05,1,,,,,,0
2719,7010901019148,登記記録の閉鎖等,0,2024-01-19,2024-01-18,株式会社ジャパンロボティクスマネージメント,,株式会社,東京都,世田谷区,南烏山２丁目３１番３１－２０８号,,13,112,1570062,,,2024-01-18,登記官による閉鎖,,,2015-10-05,1,,,,,,0
2721,7010901031623,登記記録の閉鎖等,0,2024-01-19,2024-01-18,株式会社ピージーエス,,株式会社,東京都,世田谷区,成城８丁目２３番２１号,,13,112,1570066,,,2024-01-18,登記官による閉鎖,,,2015-10-05,1,,,,,,0
2725,7010901048205,登記記録の閉鎖等,0,2024-01-19,2024-01-18,株式会社Ｌｉｅｎ　ｄｅ,,株式会社,大阪府,河内長野市,清見台５丁目７番６号,,27,216,5860043,,,2024-01-18,清算の結了等,,,2021-03-11,1,,,,,リヤンド,0
2727,7010902004719,登記記録の閉鎖等,0,2024-01-19,2024-01-18,有限会社共栄商事,,有限会社,東京都,世田谷区,宮坂１丁目４１番８号,,13,112,1560051,,,2024-01-18,登記官による閉鎖,,,2015-10-05,1,,,,,,0
2728,7010902012143,登記記録の閉鎖等,0,2024-01-19,2024-01-18,有限会社浜島工房,,有限会社,東京都,世田谷区,羽根木２丁目３７番１６号,,13,112,1560042,,,2024-01-18,登記官による閉鎖,,,2015-10-05,1,,,,,,0
2738,7011005007238,登記記録の閉鎖等,0,2024-01-19,2024-01-12,特定非営利活動法人ソーシャルプロデューサーズ,,その他の設立登記法人,東京都,目黒区,自由が丘３丁目１６番１９－４０７号自由が丘ハイタウン,,13,110,1520035,,,2024-01-12,清算の結了等,,,2017-06-20,1,,,,,ソーシャルプロデューサーズ,0
2769,7013401001162,登記記録の閉鎖等,0,2024-01-19,2024-01-15,三和興業株式会社,,株式会社,東京都,多摩市,東寺方１丁目８番地７,,13,224,2060003,,,2024-01-15,清算の結了等,,,2023-03-13,1,,,,,サンワコウギョウ,0
2770,7020001013323,登記記録の閉鎖等,0,2024-01-19,2024-01-19,株式会社高城商会,,株式会社,神奈川県,横浜市南区,真金町２丁目１３番地,,14,105,2320021,,,2024-01-19,登記官による閉鎖,,,2015-10-05,1,,,,,,0
2771,7020001028486,登記記録の閉鎖等,0,2024-01-19,2024-01-19,株式会社ヴィーナス,,株式会社,神奈川県,横浜市中区,太田町２丁目３０番地,,14,104,2310011,,,2024-01-19,登記官による閉鎖,,,2015-10-05,1,,,,,ヴィーナス,0
2772,7020001030236,登記記録の閉鎖等,0,2024-01-19,2024-01-19,株式会社岡野興業,,株式会社,神奈川県,横浜市保土ケ谷区,鎌谷町５２番地の１０,,14,106,2400063,,,2024-01-19,登記官による閉鎖,,,2015-10-05,1,,,,,,0
2773,7020001039921,登記記録の閉鎖等,0,2024-01-19,2024-01-19,関東まさむら株式会社,,株式会社,神奈川県,横浜市南区,前里町３丁目６８番地,,14,105,2320004,,,2024-01-19,登記官による閉鎖,,,2015-10-05,1,,,,,,0
2774,7020001053781,登記記録の閉鎖等,0,2024-01-19,2024-01-19,株式会社ベルコ,,株式会社,神奈川県,横浜市港南区,港南台５丁目１０番１号,,14,111,2340054,,,2024-01-19,登記官による閉鎖,,,2015-10-05,1,,,,,,0
2775,7020001055233,登記記録の閉鎖等,0,2024-01-19,2024-01-19,株式会社伸陽企画,,株式会社,神奈川県,横浜市南区,弘明寺町字前田１１２番地の６,,14,105,2320067,,,2024-01-19,登記官による閉鎖,,,2015-10-05,1,,,,,,0
2776,7020001061116,登記記録の閉鎖等,0,2024-01-19,2024-01-19,株式会社オギハラ,,株式会社,神奈川県,横浜市鶴見区,上末吉２丁目１１番４０号,,14,101,2300011,,,2024-01-19,登記官による閉鎖,,,2015-10-05,1,,,,,,0
2777,7020001069877,登記記録の閉鎖等,0,2024-01-19,2024-01-19,株式会社長橋製作所,,株式会社,神奈川県,川崎市中原区,宮内４丁目３番２０号,,14,133,2110051,,,2024-01-19,登記官による閉鎖,,,2015-10-05,1,,,,,,0
2778,7020001072856,登記記録の閉鎖等,0,2024-01-19,2024-01-19,株式会社幸志ワイドサークル,,株式会社,神奈川県,川崎市川崎区,大島１丁目２８番１５－１０３号,,14,131,2100834,,,2024-01-19,登記官による閉鎖,,,2015-10-05,1,,,,,,0
2779,7020001074753,登記記録の閉鎖等,0,2024-01-19,2024-01-19,モードサロンニース株式会社,,株式会社,神奈川県,川崎市川崎区,大島上町１８番２号,,14,131,2100836,,,2024-01-19,登記官による閉鎖,,,2016-02-12,1,,,,,,0
2781,7020001077665,登記記録の閉鎖等,0,2024-01-19,2024-01-19,株式会社Ｈ＆Ｔ企画,,株式会社,神奈川県,川崎市中原区,市ノ坪６６番地５,,14,133,2110016,,,2024-01-19,登記官による閉鎖,,,2015-10-05,1,,,,,,0
2782,7020001079802,登記記録の閉鎖等,0,2024-01-19,2024-01-19,株式会社エヌ・ビー・エス,,株式会社,神奈川県,川崎市幸区,小向西町４丁目２４番地,,14,132,2120004,,,2024-01-19,登記官による閉鎖,,,2015-10-05,1,,,,,,0
2783,7020001080297,登記記録の閉鎖等,0,2024-01-19,2024-01-19,株式会社エヴォリージョン,,株式会社,神奈川県,川崎市中原区,井田中ノ町３０番２６－６０４号,,14,133,2110034,,,2024-01-19,登記官による閉鎖,,,2015-10-05,1,,,,,,0
2784,7020001082748,登記記録の閉鎖等,0,2024-01-19,2024-01-19,株式会社クリエイト,,株式会社,神奈川県,川崎市高津区,溝口２丁目１４番１８号,,14,134,2130001,,,2024-01-19,登記官による閉鎖,,,2015-10-05,1,,,,,,0
2785,7020001085775,登記記録の閉鎖等,0,2024-01-19,2024-01-19,サンタキャラック株式会社,,株式会社,神奈川県,横浜市保土ケ谷区,東川島町４１番地１９フェイム上星川３０２号,,14,106,2400041,,,2024-01-19,登記官による閉鎖,,,2015-10-05,1,,,,,,0
2786,7020001086732,登記記録の閉鎖等,0,2024-01-19,2024-01-19,株式会社ＭＦ,,株式会社,神奈川県,横浜市青葉区,田奈町１番地２５,,14,117,2270064,,,2024-01-19,登記官による閉鎖,,,2015-10-05,1,,,,,,0
2787,7020001090180,登記記録の閉鎖等,0,2024-01-19,2024-01-19,株式会社テニスワールドシンパシー,,株式会社,神奈川県,川崎市宮前区,南平台７番３３号,,14,136,2160024,,,2024-01-19,登記官による閉鎖,,,2015-10-05,1,,,,,,0
2788,7020001102571,登記記録の閉鎖等,0,2024-01-19,2024-01-19,大洋株式会社,,株式会社,神奈川県,横浜市栄区,小菅ケ谷２丁目１番１－１１１８号,,14,115,2470007,,,2024-01-19,登記官による閉鎖,,,2015-10-05,1,,,,,,0
2793,7020002003645,登記記録の閉鎖等,0,2024-01-19,2024-01-19,有限会社リカーアンドフーズもちだ,,有限会社,神奈川県,横浜市泉区,上飯田町２７９１番地,,14,116,2450018,,,2024-01-19,登記官による閉鎖,,,2015-10-05,1,,,,,,0
2794,7020002004486,登記記録の閉鎖等,0,2024-01-19,2024-01-19,有限会社台村金物店,,有限会社,神奈川県,横浜市緑区,台村町１７７番地,,14,113,2260014,,,2024-01-19,登記官による閉鎖,,,2015-10-05,1,,,,,,0
2795,7020002005807,登記記録の閉鎖等,0,2024-01-19,2024-01-19,有限会社光香工業,,有限会社,神奈川県,横浜市都筑区,折本町４３０番地２,,14,118,2240043,,,2024-01-19,登記官による閉鎖,,,2017-12-22,1,,,,,コウカコウギョウ,0
2796,7020002006334,登記記録の閉鎖等,0,2024-01-19,2024-01-19,有限会社築城商事,,有限会社,神奈川県,横浜市都筑区,折本町１１４４番地４,,14,118,2240043,,,2024-01-19,登記官による閉鎖,,,2015-10-05,1,,,,,,0
2797,7020002011251,登記記録の閉鎖等,0,2024-01-19,2024-01-19,有限会社内田工業所,,有限会社,神奈川県,横浜市戸塚区,汲沢５丁目１０番２０号,00010255,14,110,2450061,,,2024-01-19,登記官による閉鎖,,,2015-10-05,1,,,,,,0
2798,7020002016985,登記記録の閉鎖等,0,2024-01-19,2024-01-19,有限会社田中屋食堂,,有限会社,神奈川県,横浜市西区,戸部町３丁目９６番地,,14,103,2200042,,,2024-01-19,登記官による閉鎖,,,2015-10-05,1,,,,,,0
2799,7020002017050,登記記録の閉鎖等,0,2024-01-19,2024-01-19,有限会社手毬すし,,有限会社,神奈川県,横浜市西区,中央２丁目１８番６号,,14,103,2200051,,,2024-01-19,登記官による閉鎖,,,2015-10-05,1,,,,,,0
2800,7020002022604,登記記録の閉鎖等,0,2024-01-19,2024-01-19,有限会社ムラオカ,,有限会社,神奈川県,横浜市旭区,笹野台３丁目１９番１３号,,14,112,2410816,,,2024-01-19,登記官による閉鎖,,,2015-10-05,1,,,,,,0
2801,7020002023882,登記記録の閉鎖等,0,2024-01-19,2024-01-19,川本会計計算センター有限会社,,有限会社,神奈川県,横浜市保土ケ谷区,岩井町１１番地ダイアナプラザ７０５号,,14,106,2400023,,,2024-01-19,登記官による閉鎖,,,2015-10-05,1,,,,,,0
2802,7020002027074,登記記録の閉鎖等,0,2024-01-19,2024-01-19,有限会社誠正企画,,有限会社,神奈川県,横浜市神奈川区,平川町２７番地９,,14,102,2210812,,,2024-01-19,登記官による閉鎖,,,2015-10-05,1,,,,,,0
2803,7020002032909,登記記録の閉鎖等,0,2024-01-19,2024-01-19,有限会社岡田電業社,,有限会社,神奈川県,横浜市都筑区,佐江戸町６７３番地３,,14,118,2240054,,,2024-01-19,登記官による閉鎖,,,2015-10-05,1,,,,,,0
2804,7020002035663,登記記録の閉鎖等,0,2024-01-19,2024-01-19,有限会社藤美工務店,,有限会社,神奈川県,横浜市港北区,綱島東３丁目１０番１４号,,14,109,2230052,,,2024-01-19,登記官による閉鎖,,,2015-10-05,1,,,,,,0
2805,7020002039895,登記記録の閉鎖等,0,2024-01-19,2024-01-19,有限会社ぶーがる,,有限会社,神奈川県,横浜市鶴見区,潮田町３丁目１４０番２号,,14,101,2300041,,,2024-01-19,登記官による閉鎖,,,2015-10-05,1,,,,,,0
2806,7020002047857,登記記録の閉鎖等,0,2024-01-19,2024-01-19,有限会社タック,,有限会社,神奈川県,横浜市旭区,中白根４丁目１番２－２４１号,,14,112,2410004,,,2024-01-19,登記官による閉鎖,,,2015-10-05,1,,,,,,0
2807,7020002055488,登記記録の閉鎖等,0,2024-01-19,2024-01-19,有限会社ジョイ・ワールド,,有限会社,神奈川県,横浜市神奈川区,富家町１番地の１３,,14,102,2210821,,,2024-01-19,登記官による閉鎖,,,2015-10-05,1,,,,,,0
2808,7020002057716,登記記録の閉鎖等,0,2024-01-19,2024-01-19,有限会社コーラルエンジニアリング,,有限会社,神奈川県,横浜市港南区,東永谷２丁目９番１３号,,14,111,2330011,,,2024-01-19,登記官による閉鎖,,,2015-10-05,1,,,,,,0
2809,7020002071329,登記記録の閉鎖等,0,2024-01-19,2024-01-19,有限会社フォーサイト教育研究所,,有限会社,神奈川県,横浜市旭区,鶴ケ峰２丁目１４番３号,,14,112,2410022,,,2024-01-19,登記官による閉鎖,,,2015-10-05,1,,,,,,0
2810,7020002080866,登記記録の閉鎖等,0,2024-01-19,2024-01-19,有限会社菊池総合企画,,有限会社,神奈川県,川崎市幸区,下平間２０５番地,,14,132,2120053,,,2024-01-19,登記官による閉鎖,,,2015-10-05,1,,,,,,0
2811,7020002083555,登記記録の閉鎖等,0,2024-01-19,2024-01-19,有限会社小杉建装,,有限会社,神奈川県,川崎市中原区,小杉御殿町２丁目９７番地,,14,133,2110068,,,2024-01-19,登記官による閉鎖,,,2015-10-05,1,,,,,,0
2812,7020002084776,登記記録の閉鎖等,0,2024-01-19,2024-01-19,平間精密有限会社,,有限会社,神奈川県,川崎市幸区,古市場１丁目５番地２,,14,132,2120052,,,2024-01-19,登記官による閉鎖,,,2015-10-05,1,,,,,,0
2813,7020002089643,登記記録の閉鎖等,0,2024-01-19,2024-01-19,有限会社大地堂書店,,有限会社,神奈川県,川崎市高津区,久地４丁目１２番１号,,14,134,2130032,,,2024-01-19,登記官による閉鎖,,,2015-10-05,1,,,,,,0
2814,7020003004171,登記記録の閉鎖等,0,2024-01-19,2024-01-19,合資会社ラ・テール,,合資会社,神奈川県,横浜市神奈川区,神之木町１番６号プラザ大口５０１号,,14,102,2210015,,,2024-01-19,登記官による閉鎖,,,2015-10-05,1,,,,,ラテール,0
2815,7020003005178,登記記録の閉鎖等,0,2024-01-19,2024-01-19,合同会社松本海事,,合同会社,神奈川県,横浜市南区,井土ケ谷下町２７番地７,,14,105,2320053,,,2024-01-19,登記官による閉鎖,,,2015-10-05,1,,,,,,0
2816,7020003013701,登記記録の閉鎖等,0,2024-01-19,2024-01-15,合同会社瀧澤商会,,合同会社,神奈川県,横浜市青葉区,鴨志田町５６６番地４,,14,117,2270033,,,2024-01-15,清算の結了等,,,2017-12-25,1,,,,,タキザワショウカイ,0
2818,7020005005077,登記記録の閉鎖等,0,2024-01-19,2024-01-19,特定非営利活動法人永遠のふれあい,,その他の設立登記法人,神奈川県,横浜市旭区,金が谷２丁目２番１４号,,14,112,2410812,,,2024-01-19,登記官による閉鎖,,,2015-10-05,1,,,,,,0
2819,7020005005787,登記記録の閉鎖等,0,2024-01-19,2024-01-19,特定非営利活動法人エコプロセス,,その他の設立登記法人,神奈川県,横浜市港北区,新横浜２丁目５番２２号エクセレントプラザ新横浜１１０３号,,14,109,2220033,,,2024-01-19,登記官による閉鎖,,,2015-10-05,1,,,,,,0
2820,7020005006711,登記記録の閉鎖等,0,2024-01-19,2024-01-19,特定非営利活動法人アジア産野生生物研究センター,,その他の設立登記法人,神奈川県,横浜市中区,曙町１丁目３番地藤和伊勢佐木ハイタウン７２８号,,14,104,2310057,,,2024-01-19,登記官による閉鎖,,,2015-10-05,1,,,,,,0
2821,7020005008757,登記記録の閉鎖等,0,2024-01-19,2024-01-19,特定非営利活動法人虹ヶ丘コミュニティ,,その他の設立登記法人,神奈川県,川崎市麻生区,虹ケ丘３丁目２番１０号,,14,137,2150015,,,2024-01-19,登記官による閉鎖,,,2015-10-05,1,,,,,,0
2822,7020005009342,登記記録の閉鎖等,0,2024-01-19,2024-01-19,特定非営利活動法人横浜ＥＣＯＰＲＯＪＥＣＴ推進委員会,,その他の設立登記法人,神奈川県,横浜市西区,西戸部町３丁目２５３番地田村荘２０１号,,14,103,2200046,,,2024-01-19,登記官による閉鎖,,,2015-10-05,1,,,,,,0
2823,7021001001474,登記記録の閉鎖等,0,2024-01-19,2024-01-19,東愛興業株式会社,,株式会社,神奈川県,藤沢市,鵠沼松が岡５丁目１４番１８号,,14,205,2510038,,,2024-01-19,登記官による閉鎖,,,2015-10-05,1,,,,,,0
2825,7021001021324,登記記録の閉鎖等,0,2024-01-19,2024-01-19,株式会社ユービック,,株式会社,神奈川県,伊勢原市,桜台１丁目２番７号,,14,214,2591132,,,2024-01-19,登記官による閉鎖,,,2015-10-05,1,,,,,,0
2826,7021001030829,登記記録の閉鎖等,0,2024-01-19,2024-01-19,株式会社ＭＳ,,株式会社,神奈川県,綾瀬市,寺尾台３丁目９番３１号,,14,218,2521137,,,2024-01-19,登記官による閉鎖,,,2015-10-05,1,,,,,,0
2827,7021001041702,登記記録の閉鎖等,0,2024-01-19,2024-01-19,株式会社サンケン,,株式会社,神奈川県,三浦郡葉山町,堀内７６１番地の３,,14,301,2400112,,,2024-01-19,登記官による閉鎖,,,2015-10-05,1,,,,,,0
2828,7021001043310,登記記録の閉鎖等,0,2024-01-19,2024-01-19,株式会社Ａ＆Ｔ,,株式会社,神奈川県,横須賀市,舟倉２丁目６番１－７０６号,,14,201,2390805,,,2024-01-19,登記官による閉鎖,,,2015-10-05,1,,,,,,0
2832,7021002014491,登記記録の閉鎖等,0,2024-01-19,2024-01-19,有限会社倉石繊維,,有限会社,神奈川県,鎌倉市,台１５０７番地,,14,204,2470061,,,2024-01-19,登記官による閉鎖,,,2015-10-05,1,,,,,,0
2833,7021002016686,登記記録の閉鎖等,0,2024-01-19,2024-01-19,有限会社葦津事務所,,有限会社,神奈川県,鎌倉市,長谷１丁目１３番６号,,14,204,2480016,,,2024-01-19,登記官による閉鎖,,,2015-10-05,1,,,,,,0
2834,7021002024961,登記記録の閉鎖等,0,2024-01-19,2024-01-19,有限会社ヤスキ工業,,有限会社,神奈川県,相模原市中央区,高根１丁目１３番１７号,,14,152,2520221,,,2024-01-19,登記官による閉鎖,,,2015-10-05,1,,,,,,0
2835,7021002027956,登記記録の閉鎖等,0,2024-01-19,2024-01-19,有限会社コヤマ総合企画,,有限会社,神奈川県,相模原市緑区,大島６４１番地１,,14,151,2520135,,,2024-01-19,登記官による閉鎖,,,2015-10-05,1,,,,,,0
2836,7021002031719,登記記録の閉鎖等,0,2024-01-19,2024-01-19,有限会社斉藤金型,,有限会社,神奈川県,厚木市,上依知２５８３番地,,14,212,2430801,,,2024-01-19,登記官による閉鎖,,,2015-10-05,1,,,,,,0
2837,7021002032873,登記記録の閉鎖等,0,2024-01-19,2024-01-19,有限会社飛田製作所,,有限会社,神奈川県,厚木市,上依知１３１０番地の１０,,14,212,2430801,,,2024-01-19,登記官による閉鎖,,,2015-10-05,1,,,,,,0
2838,7021002033847,登記記録の閉鎖等,0,2024-01-19,2024-01-19,有限会社井上板金工業所,,有限会社,神奈川県,愛甲郡愛川町,中津５７１０番地,,14,401,2430303,,,2024-01-19,登記官による閉鎖,,,2015-10-05,1,,,,,,0
2839,7021002039431,登記記録の閉鎖等,0,2024-01-19,2024-01-19,有限会社近藤商店,,有限会社,神奈川県,秦野市,東田原３７番地の８,,14,211,2570028,,,2024-01-19,登記官による閉鎖,,,2015-10-05,1,,,,,,0
2840,7021002042609,登記記録の閉鎖等,0,2024-01-19,2024-01-19,有限会社ムツギ工業,,有限会社,神奈川県,大和市,林間１丁目１８番１１号,,14,213,2420003,,,2024-01-19,登記官による閉鎖,,,2015-10-05,1,,,,,,0
2841,7021002043111,登記記録の閉鎖等,0,2024-01-19,2024-01-19,有限会社阿部工作所,,有限会社,神奈川県,座間市,ひばりが丘５丁目５３番２３号,,14,216,2520003,,,2024-01-19,登記官による閉鎖,,,2015-10-05,1,,,,,,0
2842,7021002050421,登記記録の閉鎖等,0,2024-01-19,2024-01-19,有限会社荒川塗装店,,有限会社,神奈川県,足柄下郡箱根町,宮ノ下４１３番地,,14,382,2500404,,,2024-01-19,登記官による閉鎖,,,2015-10-05,1,,,,,,0
2843,7021002050504,登記記録の閉鎖等,0,2024-01-19,2024-01-19,有限会社三翠旅館,00013563,有限会社,神奈川県,足柄下郡箱根町,湯本４６６番地,,14,382,2500311,,,2024-01-19,登記官による閉鎖,,,2015-10-05,1,,,,,,0
2844,7021002064289,登記記録の閉鎖等,0,2024-01-19,2024-01-19,有限会社小松建築設計事務所,,有限会社,神奈川県,横須賀市,湘南鷹取３丁目１９番８号,,14,201,2370066,,,2024-01-19,登記官による閉鎖,,,2015-10-05,1,,,,,,0
2845,7021002071186,登記記録の閉鎖等,0,2024-01-19,2024-01-19,有限会社アッシュコンサルティング,,有限会社,神奈川県,逗子市,沼間２丁目１３番１号,,14,208,2490004,,,2024-01-19,登記官による閉鎖,,,2015-10-05,1,,,,,,0
2846,7021003003444,登記記録の閉鎖等,0,2024-01-19,2024-01-19,合同会社ＢｒａｉｎＷｏｒｋｓ,,合同会社,神奈川県,三浦郡葉山町,堀内１０８４番地,,14,301,2400112,,,2024-01-19,登記官による閉鎖,,,2015-10-05,1,,,,,,0
2847,7021003004112,登記記録の閉鎖等,0,2024-01-19,2024-01-19,千金合同会社,,合同会社,神奈川県,厚木市,上依知９５７番地１号,,14,212,2430801,,,2024-01-19,登記官による閉鎖,,,2015-10-05,1,,,,,,0
2849,7021005000299,登記記録の閉鎖等,0,2024-01-19,2024-01-19,財団法人木村学園,,その他の設立登記法人,神奈川県,藤沢市,藤沢１０１５番地,,14,205,2510052,,,2024-01-19,登記官による閉鎖,,,2015-10-05,1,,,,,,0
2850,7021005001297,登記記録の閉鎖等,0,2024-01-19,2024-01-19,特定非営利活動法人リーチユアドリームオブフープ,,その他の設立登記法人,神奈川県,藤沢市,鵠沼海岸１丁目２番地１８～１０５号,,14,205,2510037,,,2024-01-19,登記官による閉鎖,,,2015-10-05,1,,,,,,0
2851,7021005004481,登記記録の閉鎖等,0,2024-01-19,2024-01-19,特定非営利活動法人日本愛護犬協会,,その他の設立登記法人,神奈川県,秦野市,曽屋５７８９番地の４,,14,211,2570031,,,2024-01-19,登記官による閉鎖,,,2015-10-05,1,,,,,,0
2852,7021005004944,登記記録の閉鎖等,0,2024-01-19,2024-01-19,大和市食肉事業協同組合,,その他の設立登記法人,神奈川県,大和市,西鶴間１丁目１６番１号,,14,213,2420005,,,2024-01-19,登記官による閉鎖,,,2015-10-05,1,,,,,,0
2857,7030001014964,登記記録の閉鎖等,0,2024-01-19,2024-01-04,株式会社山中,,株式会社,埼玉県,越谷市,レイクタウン２丁目１番地１,,11,222,3430828,,,2024-01-04,合併による解散等,7030003021785,令和６年１月１日埼玉県越谷市千間台東二丁目１５番地９ビィファーストビル４階株式会社ＲｔｏＪ（7030003021785）に合併し解散,2015-10-05,1,,,,,ヤマナカ,0
2874,7040002091449,登記記録の閉鎖等,0,2024-01-19,2024-01-10,有限会社芙蓉堂,,有限会社,千葉県,柏市,東１丁目２番１５号,,12,217,2770014,,,2024-01-10,清算の結了等,,,2015-10-05,1,,,,,フヨウドウ,0
2878,7070001005877,登記記録の閉鎖等,0,2024-01-19,2024-01-15,株式会社システムプランニング,,株式会社,群馬県,前橋市,関根町２丁目５番地９,,10,201,3710047,,,2024-01-15,清算の結了等,,,2015-10-05,1,,,,,システムプランニング,0
2891,7080401003942,登記記録の閉鎖等,0,2024-01-19,2024-01-15,ニューブラジル珈琲株式会社,,株式会社,静岡県,浜松市中央区,海老塚２丁目２番８号,,22,138,4328033,,,2024-01-15,清算の結了等,,,2015-10-05,1,,,,,ニューブラジルコーヒー,0
2914,7080403004410,登記記録の閉鎖等,0,2024-01-19,2023-12-18,Ｆｉｒｓｔｅｐ合同会社,,合同会社,静岡県,浜松市中区,砂山町３５５番地の４ハマキョウレックス浜松駅南ビル４Ｆ,,22,131,4300926,,,2023-12-18,清算の結了等,,,2021-11-15,1,,,,,ファーステップ,0
2921,7100001004801,登記記録の閉鎖等,0,2024-01-19,2024-01-12,トヨタホームしなの株式会社,,株式会社,長野県,長野市,真島町真島１２９２番地,,20,201,3812204,,,2024-01-12,合併による解散等,2060001003242,令和６年１月１日栃木県宇都宮市一ノ沢町２５６番地７トヨタウッドユーホーム株式会社（2060001003242）に合併し解散,2015-10-05,1,,,,,トヨタホームシナノ,0
2969,7180001050400,登記記録の閉鎖等,0,2024-01-19,2024-01-16,株式会社ＳＴＩ－ＮＳＫ,,株式会社,愛知県,名古屋市中区,上前津１丁目７番８号,,23,106,4600013,,,2024-01-16,清算の結了等,,,2015-10-05,1,,,,,エスティアイーエヌエスケイ,0
2977,7180301037675,登記記録の閉鎖等,0,2024-01-19,2024-01-10,株式会社プラムチェリー,,株式会社,愛知県,豊田市,金谷町５丁目１３番地,,23,211,4710876,,,2024-01-10,清算の結了等,,,2023-08-08,1,,,,,プラムチェリー,0
2980,7200001009823,登記記録の閉鎖等,0,2024-01-19,2024-01-19,大野北部開発株式会社,,株式会社,岐阜県,瑞穂市,牛牧８７８番地３,,21,216,5010234,,,2024-01-19,登記官による閉鎖,,,2015-10-05,1,,,,,オオノホクブカイハツ,0
2981,7200001019236,登記記録の閉鎖等,0,2024-01-19,2024-01-19,スミレ・タクシー株式会社,,株式会社,岐阜県,関市,大平町１丁目４５番地,,21,205,5013833,,,2024-01-19,登記官による閉鎖,,,2015-10-05,1,,,,,,0
2982,7200001020020,登記記録の閉鎖等,0,2024-01-19,2024-01-19,株式会社アルティメット,,株式会社,岐阜県,関市,平和通３丁目１２番地,,21,205,5013874,,,2024-01-19,登記官による閉鎖,,,2015-10-05,1,,,,,,0
2983,7200001024649,登記記録の閉鎖等,0,2024-01-19,2024-01-19,株式会社ビックハウス,,株式会社,岐阜県,揖斐郡大野町,大字公郷１１１０番地１０８,,21,403,5010555,,,2024-01-19,登記官による閉鎖,,,2015-10-05,1,,,,,,0
2987,7200002012090,登記記録の閉鎖等,0,2024-01-19,2024-01-18,金森建材有限会社,,有限会社,岐阜県,羽島郡笠松町,門間２２４０番地の２,,21,303,5016065,,,2024-01-18,清算の結了等,,,2015-10-05,1,,,,,カナモリケンザイ,0
2988,7200002013667,登記記録の閉鎖等,0,2024-01-19,2024-01-19,有限会社魚貞給食,,有限会社,岐阜県,不破郡垂井町,綾戸５３３番地の５,,21,361,5032112,,,2024-01-19,登記官による閉鎖,,,2015-10-05,1,,,,,,0
2989,7200002020432,登記記録の閉鎖等,0,2024-01-19,2024-01-19,有限会社電晃ムセン,,有限会社,岐阜県,多治見市,喜多町４丁目１６番地,,21,204,5070055,,,2024-01-19,登記官による閉鎖,,,2015-10-05,1,,,,,,0
2990,7200002022040,登記記録の閉鎖等,0,2024-01-19,2024-01-19,有限会社センゴク電化瑞浪店,,有限会社,岐阜県,瑞浪市,土岐町７０２８番地の１,,21,208,5096101,,,2024-01-19,登記官による閉鎖,,,2015-10-05,1,,,,,,0
2991,7200002026909,登記記録の閉鎖等,0,2024-01-19,2024-01-19,有限会社田舎中自動車,,有限会社,岐阜県,飛騨市,古川町杉崎９８１番地の１,,21,217,5094215,,,2024-01-19,登記官による閉鎖,,,2015-10-05,1,,,,,,0
2994,7200005001223,登記記録の閉鎖等,0,2024-01-19,2024-01-19,ジーエフ建築土木協同組合,,その他の設立登記法人,岐阜県,岐阜市,六条江東２丁目９番２号,,21,201,5008356,,,2024-01-19,登記官による閉鎖,,,2015-10-05,1,,,,,,0
2995,7200005001256,登記記録の閉鎖等,0,2024-01-19,2024-01-19,Ｇスタイル協同組合,,その他の設立登記法人,岐阜県,岐阜市,御望６丁目２３番地２,,21,201,5011171,,,2024-01-19,登記官による閉鎖,,,2015-10-05,1,,,,,,0
2997,7200005009547,登記記録の閉鎖等,0,2024-01-19,2024-01-19,農事組合法人オーストリッチファーム,,その他の設立登記法人,岐阜県,恵那市,山岡町上手向６３３番地３,,21,210,5097603,,,2024-01-19,登記官による閉鎖,,,2015-10-05,1,,,,,,0
3006,7220002016486,登記記録の閉鎖等,0,2024-01-19,2024-01-10,株式会社北陸マネジメントサービス,,株式会社,石川県,かほく市,宇野気１丁目２１番地１,,17,209,9291125,,,2024-01-10,合併による解散等,1220002016772,令和５年１２月３１日石川県かほく市宇野気リ２１９番地株式会社今村商事（1220002016772）に合併し解散,2015-10-05,1,,,,,ホクリクマネジメントサービス,0
3011,7230002003062,登記記録の閉鎖等,0,2024-01-19,2024-01-18,有限会社古川酒販,,有限会社,富山県,富山市,東老田１１１８番地,,16,201,9300161,,,2024-01-18,清算の結了等,,,2015-10-05,1,,,,,フルカワシュハン,0
3015,7240002023398,登記記録の閉鎖等,0,2024-01-19,2024-01-10,有限会社黒木工務店,,有限会社,広島県,広島市南区,皆実町３丁目６番３３号,,34,103,7340007,,,2024-01-10,清算の結了等,,,2015-10-05,1,,,,,クロキコウムテン,0
3033,7310002001314,登記記録の閉鎖等,0,2024-01-19,2024-01-17,有限会社九州装工,,有限会社,長崎県,長崎市,愛宕２丁目９番４９号,,42,201,8500822,,,2024-01-17,清算の結了等,,,2015-10-05,1,,,,,キュウシュウソウコウ,0
3037,7310002019835,登記記録の閉鎖等,0,2024-01-19,2024-01-11,有限会社松尾精肉店,,有限会社,長崎県,松浦市,今福町仏坂免１４０８番地２,,42,208,8594527,,,2024-01-11,登記官による閉鎖,,,2015-10-05,1,,,,,,0
3040,7330001003482,登記記録の閉鎖等,0,2024-01-19,2024-01-19,株式会社日産サティオ熊本,,株式会社,熊本県,熊本市中央区,世安町３４２番地,,43,101,8600823,,,2024-01-19,登記官による閉鎖,,,2015-10-05,1,,,,,,0
3041,7330001010066,登記記録の閉鎖等,0,2024-01-19,2024-01-19,株式会社ブックツーブック,,株式会社,熊本県,菊池市,七城町砂田４６２番地,,43,210,8611351,,,2024-01-19,登記官による閉鎖,,,2015-10-05,1,,,,,,0
3043,7330002006294,登記記録の閉鎖等,0,2024-01-19,2024-01-19,有限会社大丸旅館,,有限会社,熊本県,熊本市中央区,新市街１３番２１号,,43,101,8600803,,,2024-01-19,登記官による閉鎖,,,2015-10-05,1,,,,,,0
3044,7330002006773,登記記録の閉鎖等,0,2024-01-19,2024-01-19,有限会社近見不動産プランニング,,有限会社,熊本県,熊本市南区,近見２丁目６番１４号,,43,104,8614101,,,2024-01-19,登記官による閉鎖,,,2015-10-05,1,,,,,,0
3045,7330002007458,登記記録の閉鎖等,0,2024-01-19,2024-01-19,有限会社内外自動車,,有限会社,熊本県,熊本市東区,昭和町１０番３２号,,43,102,8612108,,,2024-01-19,登記官による閉鎖,,,2015-10-05,1,,,,,,0
3046,7330002016632,登記記録の閉鎖等,0,2024-01-19,2024-01-19,有限会社涼泉,,有限会社,熊本県,菊池市,泗水町吉富２５２９番地７,,43,210,8611201,,,2024-01-19,登記官による閉鎖,,,2015-10-05,1,,,,,,0
3047,7330002022333,登記記録の閉鎖等,0,2024-01-19,2024-01-19,有限会社永井工業,,有限会社,熊本県,荒尾市,八幡台２丁目１６番１２号,,43,204,8640164,,,2024-01-19,登記官による閉鎖,,,2015-10-05,1,,,,,,0
3048,7330002025039,登記記録の閉鎖等,0,2024-01-19,2024-01-19,有限会社ヴィヴァーチェ,,有限会社,熊本県,宇城市,松橋町松橋２７４番地１,,43,213,8690502,,,2024-01-19,登記官による閉鎖,,,2015-10-05,1,,,,,,0
3049,7330002031516,登記記録の閉鎖等,0,2024-01-19,2024-01-19,有限会社御任,,有限会社,熊本県,熊本市中央区,下通１丁目２番１号,,43,101,8600807,,,2024-01-19,登記官による閉鎖,,,2018-05-10,1,,,,,ミトウ,0
3050,7330003007366,登記記録の閉鎖等,0,2024-01-19,2024-01-19,合資会社小島商事,,合資会社,熊本県,阿蘇市,内牧３６５番地,,43,214,8692301,,,2024-01-19,登記官による閉鎖,,,2018-02-01,1,,,,,,0
3052,7360001024823,登記記録の閉鎖等,0,2024-01-19,2024-01-16,株式会社Ｓｅｎｓｅｉ　Ｓｃｕｂａ,,株式会社,沖縄県,宜野湾市,大山５丁目１番３号１０２号室,,47,205,9012223,,,2024-01-16,清算の結了等,,,2018-11-07,1,,,,,センセイスキューバ,0
3064,7410001004464,登記記録の閉鎖等,0,2024-01-19,2024-01-18,株式会社ジェイ・ケイ物産,,株式会社,秋田県,秋田市,大町４丁目３番９号,,05,201,0100921,,,2024-01-18,登記官による閉鎖,,,2015-10-05,1,,,,,,0
3066,7410002001675,登記記録の閉鎖等,0,2024-01-19,2024-01-18,有限会社坂本組,,有限会社,秋田県,秋田市,浜田字自在山５２番地,,05,201,0101654,,,2024-01-18,登記官による閉鎖,,,2015-10-05,1,,,,,,0
3067,7410002002021,登記記録の閉鎖等,0,2024-01-19,2024-01-18,有限会社嘯月,,有限会社,秋田県,秋田市,千秋矢留町２番５号,,05,201,0100877,,,2024-01-18,登記官による閉鎖,,,2015-10-05,1,,,,,,0
3073,7430002034500,登記記録の閉鎖等,0,2024-01-19,2024-01-11,有限会社トウショ,,有限会社,北海道,札幌市白石区,菊水一条１丁目３番３８号,,01,104,0030801,,,2024-01-11,清算の結了等,,,2015-10-05,1,,,,,トウショ,0
3076,7470002011495,登記記録の閉鎖等,0,2024-01-19,2024-01-16,金崎商事有限会社,,有限会社,香川県,丸亀市,広島町甲路１７８５番地,,37,202,7630104,,,2024-01-16,清算の結了等,,,2015-10-05,1,,,,,カナザキショウジ,0
3080,7490001001074,登記記録の閉鎖等,0,2024-01-19,2024-01-17,山伸工業株式会社,,株式会社,高知県,高知市,五台山４８６９番地３,,39,201,7818125,,,2024-01-17,清算の結了等,,,2015-10-05,1,,,,,ヤマシンコウギョウ,0
3084,8010001108544,登記記録の閉鎖等,0,2024-01-19,2024-01-19,株式会社家具新聞社,,株式会社,神奈川県,横須賀市,長坂４丁目５番１－４０４号,,14,201,2400101,,,2024-01-19,登記官による閉鎖,,,2015-10-05,1,,,,,,0
3091,8010001194915,登記記録の閉鎖等,0,2024-01-19,2024-01-11,株式会社福＿,00114496,株式会社,東京都,中央区,日本橋兜町１７－１日本橋ロイヤルプラザ７０６,,13,102,1030026,,,2024-01-11,清算の結了等,,,2018-09-19,1,,,,,フクイク,0
3093,8010001197926,登記記録の閉鎖等,0,2024-01-19,2024-01-16,東京Ｒ＆Ｄパワーソリューションズ株式会社,,株式会社,東京都,千代田区,内幸町２丁目２番２号,,13,101,1000011,,,2024-01-16,合併による解散等,9010001140224,令和５年１２月３１日横浜市港北区新横浜三丁目９番地１８株式会社ピューズ（9010001140224）に合併し解散,2019-01-23,1,,,,,,0
3103,8010005024655,登記記録の閉鎖等,0,2024-01-19,2024-01-17,一般社団法人ＴＨＥ汐留インベストメント,,その他の設立登記法人,東京都,中央区,日本橋１丁目４番１号,,13,102,1030027,,,2024-01-17,清算の結了等,,,2015-11-20,1,,,,,ザシオドメインベストメント,0
3122,8010501031246,登記記録の閉鎖等,0,2024-01-19,2024-01-16,ユーバーテック株式会社,,株式会社,東京都,中央区,日本橋茅場町２丁目１７－５,,13,102,1030025,,,2024-01-16,清算の結了等,,,2015-10-05,1,,,,,ユーバーテック,0
3125,8010501050502,登記記録の閉鎖等,0,2024-01-19,2024-01-16,Ｔｉｍｅｌａｒｋ株式会社,,株式会社,東京都,台東区,北上野２丁目２５番９号－２０１号室,,13,106,1100014,,,2024-01-16,清算の結了等,,,2023-05-30,1,,,,,タイムラーク,0
3132,8010601040915,登記記録の閉鎖等,0,2024-01-19,2024-01-15,株式会社ワンコーポレーション,,株式会社,東京都,墨田区,立川２丁目３番１号,,13,107,1300023,,,2024-01-15,清算の結了等,,,2015-10-05,1,,,,,ワンコーポレーション,0
3136,8010801024593,登記記録の閉鎖等,0,2024-01-19,2024-01-15,株式会社ハルコーポレーション,,株式会社,石川県,野々市市,本町１丁目２６番２号,,17,212,9218815,,,2024-01-15,清算の結了等,,,2015-10-05,1,,,,,ハルコーポレーション,0
3137,8010802018941,登記記録の閉鎖等,0,2024-01-19,2024-01-16,トレワイズ有限会社,,有限会社,福岡県,福岡市中央区,大手門１丁目２番２３－１９０６号,,40,133,8100074,,,2024-01-16,清算の結了等,,,2015-10-05,1,,,,,,0
3138,8010901000164,登記記録の閉鎖等,0,2024-01-19,2024-01-18,株式会社アイ・ティー・シー,,株式会社,東京都,世田谷区,等々力２丁目３７番１号,,13,112,1580082,,,2024-01-18,登記官による閉鎖,,,2015-10-05,1,,,,,,0
3139,8010901009643,登記記録の閉鎖等,0,2024-01-19,2024-01-18,株式会社ハイブリッヂ,,株式会社,東京都,世田谷区,用賀１丁目９番１０号,,13,112,1580097,,,2024-01-18,登記官による閉鎖,,,2015-10-05,1,,,,,,0
3140,8010901009916,登記記録の閉鎖等,0,2024-01-19,2024-01-18,春名電気工事株式会社,,株式会社,東京都,世田谷区,代沢４丁目３８番１号,,13,112,1550032,,,2024-01-18,登記官による閉鎖,,,2015-10-05,1,,,,,,0
3141,8010901013224,登記記録の閉鎖等,0,2024-01-19,2024-01-18,株式会社大伴商事,,株式会社,東京都,世田谷区,上馬１丁目１５番４号,,13,112,1540011,,,2024-01-18,登記官による閉鎖,,,2015-10-05,1,,,,,,0
3143,8010902001574,登記記録の閉鎖等,0,2024-01-19,2024-01-18,一興建装有限会社,,有限会社,東京都,世田谷区,三軒茶屋２丁目３１番６号,,13,112,1540024,,,2024-01-18,登記官による閉鎖,,,2015-10-05,1,,,,,,0
3144,8010902003059,登記記録の閉鎖等,0,2024-01-19,2024-01-18,有限会社鳳花,,有限会社,東京都,世田谷区,成城２丁目３６番１４号,,13,112,1570066,,,2024-01-18,登記官による閉鎖,,,2019-01-08,1,,,,,ホウカ,0
3145,8010902009816,登記記録の閉鎖等,0,2024-01-19,2024-01-18,有限会社朝文堂,,有限会社,東京都,世田谷区,桜上水４丁目９番１４号,,13,112,1560045,,,2024-01-18,登記官による閉鎖,,,2015-10-05,1,,,,,,0
3146,8010902012910,登記記録の閉鎖等,0,2024-01-19,2024-01-18,有限会社フォトジョラス,,有限会社,東京都,世田谷区,松原４丁目３４番３号,,13,112,1560043,,,2024-01-18,登記官による閉鎖,,,2015-10-05,1,,,,,フォトジョラス,0
3147,8010902021589,登記記録の閉鎖等,0,2024-01-19,2024-01-18,有限会社ギャラリーせきた,,有限会社,東京都,世田谷区,玉堤１丁目１５番３２号,,13,112,1580087,,,2024-01-18,登記官による閉鎖,,,2015-10-05,1,,,,,,0
3150,8010905001786,登記記録の閉鎖等,0,2024-01-19,2024-01-18,特定非営利活動法人日本芸術映像文化支援センター,,その他の設立登記法人,東京都,世田谷区,中町２丁目２１番１２号なかまちＮＰＯセンター２０５号室,,13,112,1580091,,,2024-01-18,登記官による閉鎖,,,2015-10-05,1,,,,,,0
3162,8011005001347,登記記録の閉鎖等,0,2024-01-19,2024-01-19,特定非営利活動法人日本学習協会,,その他の設立登記法人,神奈川県,川崎市幸区,中幸町２丁目１９,,14,132,2120012,,,2024-01-19,登記官による閉鎖,,,2015-10-05,1,,,,,,0
3171,8011402010818,登記記録の閉鎖等,0,2024-01-19,2024-01-10,有限会社サタイア,,有限会社,東京都,板橋区,加賀２丁目３番１－７１５号,,13,119,1730003,,,2024-01-10,清算の結了等,,,2015-10-05,1,,,,,サタイア,0
3179,8011702015145,登記記録の閉鎖等,0,2024-01-19,2024-01-15,有限会社ＢＮＪ,,有限会社,東京都,江戸川区,本一色１丁目４番２２号,,13,123,1330044,,,2024-01-15,清算の結了等,,,2015-10-05,1,,,,,,0
3192,8012701010665,登記記録の閉鎖等,0,2024-01-19,2024-01-17,株式会社オフィス・デルタ,,株式会社,東京都,西東京市,西原町４丁目４番３６号３－２０６,,13,229,1880004,,,2024-01-17,清算の結了等,,,2015-10-05,1,,,,,オフィスデルタ,0
3197,8020001009469,登記記録の閉鎖等,0,2024-01-19,2024-01-19,株式会社ヨコハマ技研,,株式会社,神奈川県,横浜市都筑区,大熊町１０４番地,,14,118,2240042,,,2024-01-19,登記官による閉鎖,,,2015-10-05,1,,,,,,0
3198,8020001011152,登記記録の閉鎖等,0,2024-01-19,2024-01-19,株式会社カンズ,,株式会社,神奈川県,横浜市青葉区,若草台２１番地５号,,14,117,2270045,,,2024-01-19,登記官による閉鎖,,,2015-10-05,1,,,,,,0
3200,8020001018453,登記記録の閉鎖等,0,2024-01-19,2024-01-19,日建不動産株式会社,,株式会社,神奈川県,横浜市鶴見区,豊岡町１８番９号,,14,101,2300062,,,2024-01-19,登記官による閉鎖,,,2015-10-05,1,,,,,ニッケンフドウサン,0
3201,8020001024170,登記記録の閉鎖等,0,2024-01-19,2024-01-19,白楽商事株式会社,,株式会社,神奈川県,横浜市神奈川区,白楽１００番地,,14,102,2210065,,,2024-01-19,登記官による閉鎖,,,2015-10-05,1,,,,,,0
3202,8020001024410,登記記録の閉鎖等,0,2024-01-19,2024-01-19,堀田産業株式会社,00009336,株式会社,神奈川県,横浜市神奈川区,新町２９９番１－９０５号,,14,102,2210043,,,2024-01-19,登記官による閉鎖,,,2015-10-05,1,,,,,,0
3203,8020001025986,登記記録の閉鎖等,0,2024-01-19,2024-01-19,株式会社川島洋服店,,株式会社,神奈川県,横浜市中区,真砂町４丁目４５番地,,14,104,2310016,,,2024-01-19,登記官による閉鎖,,,2015-10-05,1,,,,,,0
3204,8020001031902,登記記録の閉鎖等,0,2024-01-19,2024-01-19,経営管理サービス株式会社,,株式会社,神奈川県,横浜市旭区,左近山１９９７番地の７左近山団地２街区６棟１０２号,,14,112,2410831,,,2024-01-19,登記官による閉鎖,,,2015-10-05,1,,,,,,0
3205,8020001040548,登記記録の閉鎖等,0,2024-01-19,2024-01-19,株式会社テクノロジスト・コム,,株式会社,神奈川県,横浜市栄区,飯島町５３２番地３３,,14,115,2440842,,,2024-01-19,登記官による閉鎖,,,2015-10-05,1,,,,,,0
3206,8020001047502,登記記録の閉鎖等,0,2024-01-19,2024-01-19,株式会社ファスト,,株式会社,神奈川県,横浜市港北区,新横浜３丁目２０番５号,,14,109,2220033,,,2024-01-19,登記官による閉鎖,,,2015-10-05,1,,,,,,0
3207,8020001051669,登記記録の閉鎖等,0,2024-01-19,2024-01-19,株式会社アストラル,,株式会社,神奈川県,横浜市港南区,上永谷１丁目４番１５号,,14,111,2330012,,,2024-01-19,登記官による閉鎖,,,2015-10-05,1,,,,,,0
3208,8020001053649,登記記録の閉鎖等,0,2024-01-19,2024-01-19,株式会社モア,,株式会社,神奈川県,横浜市旭区,左近山１９９７番地の７左近山団地２街区２３棟１０６号,,14,112,2410831,,,2024-01-19,登記官による閉鎖,,,2015-10-05,1,,,,,,0
3209,8020001056965,登記記録の閉鎖等,0,2024-01-19,2024-01-19,株式会社日進関東,,株式会社,神奈川県,横浜市中区,山手町２７番５ベイステージ元町４０２号,,14,104,2310862,,,2024-01-19,登記官による閉鎖,,,2015-10-05,1,,,,,,0
3210,8020001059448,登記記録の閉鎖等,0,2024-01-19,2024-01-19,株式会社グランデワン,,株式会社,神奈川県,横浜市港南区,日限山２丁目１番３３号,,14,111,2330015,,,2024-01-19,登記官による閉鎖,,,2015-10-05,1,,,,,,0
3211,8020001059571,登記記録の閉鎖等,0,2024-01-19,2024-01-19,株式会社ケーツーウイングス,,株式会社,神奈川県,横浜市鶴見区,佃野町２番１０号,,14,101,2300061,,,2024-01-19,登記官による閉鎖,,,2015-10-05,1,,,,,,0
3213,8020001065719,登記記録の閉鎖等,0,2024-01-19,2024-01-19,連系情報株式会社,,株式会社,神奈川県,川崎市麻生区,王禅寺西４丁目１４番２９号,,14,137,2150017,,,2024-01-19,登記官による閉鎖,,,2015-10-05,1,,,,,,0
3214,8020001067632,登記記録の閉鎖等,0,2024-01-19,2024-01-19,川崎スズキ販売株式会社,,株式会社,神奈川県,川崎市宮前区,土橋１丁目３番地３,,14,136,2160005,,,2024-01-19,登記官による閉鎖,,,2018-04-20,1,,,,,,0
3215,8020001069059,登記記録の閉鎖等,0,2024-01-19,2024-01-19,株式会社オーイーティエス,,株式会社,神奈川県,川崎市中原区,新丸子東２丁目８９８番地,,14,133,2110004,,,2024-01-19,登記官による閉鎖,,,2015-10-05,1,,,,,,0
3216,8020001080445,登記記録の閉鎖等,0,2024-01-19,2024-01-19,屋久島自然物産株式会社,,株式会社,神奈川県,川崎市川崎区,池田１丁目４番５号,,14,131,2100022,,,2024-01-19,登記官による閉鎖,,,2015-10-05,1,,,,,,0
3217,8020001089511,登記記録の閉鎖等,0,2024-01-19,2024-01-19,株式会社パールジャム,,株式会社,神奈川県,横浜市港北区,篠原町３２０７番地１２ヴェルドミールＤ－２０１,,14,109,2220026,,,2024-01-19,登記官による閉鎖,,,2015-10-05,1,,,,,,0
3218,8020001091194,登記記録の閉鎖等,0,2024-01-19,2024-01-19,株式会社ユーコー企画,,株式会社,神奈川県,横浜市磯子区,磯子３丁目２番２６号,,14,107,2350016,,,2024-01-19,登記官による閉鎖,,,2015-10-05,1,,,,,,0
3219,8020001093050,登記記録の閉鎖等,0,2024-01-19,2024-01-09,オリエントネットワークジャパン株式会社,,株式会社,神奈川県,横浜市西区,平沼２丁目４番１０号森ビル,,14,103,2200023,,,2024-01-09,合併による解散等,7010901002145,令和６年１月１日横浜市西区平沼二丁目４番１０号森ビル大井建設株式会社（7010901002145）に合併し解散,2015-10-05,1,,,,,オリエントネットワークジャパン,0
3225,8020002008305,登記記録の閉鎖等,0,2024-01-19,2024-01-19,有限会社装建,,有限会社,神奈川県,横浜市金沢区,長浜２丁目２３番２５号,,14,108,2360011,,,2024-01-19,登記官による閉鎖,,,2015-10-05,1,,,,,,0
3226,8020002010392,登記記録の閉鎖等,0,2024-01-19,2024-01-19,有限会社肉の大成,,有限会社,神奈川県,横浜市磯子区,滝頭２丁目１５番７号,,14,107,2350012,,,2024-01-19,登記官による閉鎖,,,2015-10-05,1,,,,,,0
3227,8020002010764,登記記録の閉鎖等,0,2024-01-19,2024-01-19,有限会社三橋工業,,有限会社,神奈川県,横浜市磯子区,岡村５丁目７番３号,,14,107,2350021,,,2024-01-19,登記官による閉鎖,,,2015-10-05,1,,,,,,0
3228,8020002011928,登記記録の閉鎖等,0,2024-01-19,2024-01-19,有限会社サンリース,,有限会社,神奈川県,横浜市南区,別所３丁目３０番２３号,,14,105,2320064,,,2024-01-19,登記官による閉鎖,,,2015-10-05,1,,,,,,0
3229,8020002012406,登記記録の閉鎖等,0,2024-01-19,2024-01-19,有限会社戸松工業,,有限会社,神奈川県,横浜市戸塚区,汲沢４丁目３２番１７－５０２号,00010350,14,110,2450061,,,2024-01-19,登記官による閉鎖,,,2015-10-05,1,,,,,,0
3230,8020002014138,登記記録の閉鎖等,0,2024-01-19,2024-01-19,有限会社ケイ・エス・エース,,有限会社,神奈川県,横浜市青葉区,元石川町３７１３番地８,,14,117,2250004,,,2024-01-19,登記官による閉鎖,,,2015-10-05,1,,,,,,0
3231,8020002017438,登記記録の閉鎖等,0,2024-01-19,2024-01-19,有限会社プロ・サウンド,,有限会社,神奈川県,横浜市西区,戸部町３丁目１０５番山口ビル１Ｆ,,14,103,2200042,,,2024-01-19,登記官による閉鎖,,,2015-10-05,1,,,,,,0
3232,8020002021340,登記記録の閉鎖等,0,2024-01-19,2024-01-19,有限会社三幸塗装,,有限会社,神奈川県,横浜市旭区,中白根２丁目３０番３号,,14,112,2410004,,,2024-01-19,登記官による閉鎖,,,2015-10-05,1,,,,,,0
3233,8020002022693,登記記録の閉鎖等,0,2024-01-19,2024-01-19,有限会社ヤマカ青果店,,有限会社,神奈川県,横浜市旭区,東希望が丘１００番地,,14,112,2410826,,,2024-01-19,登記官による閉鎖,,,2015-10-05,1,,,,,,0
3234,8020002030457,登記記録の閉鎖等,0,2024-01-19,2024-01-19,有限会社聖和工業,,有限会社,神奈川県,横浜市緑区,東本郷５丁目２９番２２号,,14,113,2260002,,,2024-01-19,登記官による閉鎖,,,2015-10-05,1,,,,,,0
3235,8020002033063,登記記録の閉鎖等,0,2024-01-19,2024-01-19,鎌田ホツトスタンピング有限会社,,有限会社,神奈川県,横浜市港北区,新羽町４１４１番地,,14,109,2230057,,,2024-01-19,登記官による閉鎖,,,2015-10-05,1,,,,,,0
3237,8020002042709,登記記録の閉鎖等,0,2024-01-19,2024-01-19,榮商事有限会社,,有限会社,神奈川県,横浜市中区,山下町１４８番地,,14,104,2310023,,,2024-01-19,登記官による閉鎖,,,2015-10-05,1,,,,,,0
3238,8020002043070,登記記録の閉鎖等,0,2024-01-19,2024-01-19,有限会社昭文堂文具店,,有限会社,神奈川県,横浜市中区,日ノ出町２丁目１５１番地,,14,104,2310066,,,2024-01-19,登記官による閉鎖,,,2015-10-05,1,,,,,,0
3239,8020002047212,登記記録の閉鎖等,0,2024-01-19,2024-01-19,有限会社長谷鐡工所,,有限会社,神奈川県,横浜市中区,北方町２丁目１０９番８号,,14,104,2310865,,,2024-01-19,登記官による閉鎖,,,2015-10-05,1,,,,,,0
3240,8020002047971,登記記録の閉鎖等,0,2024-01-19,2024-01-19,有限会社栄電社,,有限会社,神奈川県,横浜市西区,中央１丁目１１番４号,,14,103,2200051,,,2024-01-19,登記官による閉鎖,,,2015-10-05,1,,,,,,0
3241,8020002050042,登記記録の閉鎖等,0,2024-01-19,2024-01-19,有限会社クリーニングショップエバー,,有限会社,神奈川県,横浜市栄区,犬山町３２番７号,,14,115,2470026,,,2024-01-19,登記官による閉鎖,,,2015-10-05,1,,,,,,0
3242,8020002052699,登記記録の閉鎖等,0,2024-01-19,2024-01-19,有限会社かねき商會,,有限会社,神奈川県,横浜市中区,本牧三之谷１８番地２１,,14,104,2310824,,,2024-01-19,登記官による閉鎖,,,2015-10-05,1,,,,,,0
3244,8020002059736,登記記録の閉鎖等,0,2024-01-19,2024-01-15,有限会社ジェイド・マウンテン,,有限会社,神奈川県,横浜市鶴見区,岸谷３丁目２７番１１号,,14,101,2300078,,,2024-01-15,清算の結了等,,,2015-10-05,1,,,,,ジェイドマウンテン,0
3245,8020002065404,登記記録の閉鎖等,0,2024-01-19,2024-01-19,有限会社松健,,有限会社,神奈川県,横浜市南区,通町４丁目１１４番地４,,14,105,2320056,,,2024-01-19,登記官による閉鎖,,,2015-10-05,1,,,,,,0
3246,8020002071872,登記記録の閉鎖等,0,2024-01-19,2024-01-19,有限会社スタッフオフィス,,有限会社,神奈川県,横浜市旭区,南希望が丘４２番地の１５,,14,112,2410824,,,2024-01-19,登記官による閉鎖,,,2015-10-05,1,,,,,,0
3247,8020002079684,登記記録の閉鎖等,0,2024-01-19,2024-01-19,有限会社タチバナサービス,,有限会社,神奈川県,横浜市都筑区,北山田４丁目２３番１２号クレールテラスＡ１０２号,,14,118,2240021,,,2024-01-19,登記官による閉鎖,,,2015-10-05,1,,,,,,0
3248,8020002085071,登記記録の閉鎖等,0,2024-01-19,2024-01-19,有限会社メイセイ,,有限会社,神奈川県,川崎市中原区,木月３丁目２５番１０号,,14,133,2110025,,,2024-01-19,登記官による閉鎖,,,2015-10-05,1,,,,,,0
3249,8020002093446,登記記録の閉鎖等,0,2024-01-19,2024-01-19,有限会社森山,,有限会社,神奈川県,川崎市多摩区,栗谷１丁目１番２号,,14,135,2140039,,,2024-01-19,登記官による閉鎖,,,2015-10-05,1,,,,,,0
3250,8020002096044,登記記録の閉鎖等,0,2024-01-19,2024-01-19,有限会社奥山商店,,有限会社,神奈川県,川崎市川崎区,浅田３丁目８番１２号,,14,131,2100847,,,2024-01-19,登記官による閉鎖,,,2015-10-05,1,,,,,,0
3251,8020002106785,登記記録の閉鎖等,0,2024-01-19,2024-01-19,有限会社新立工機,,有限会社,神奈川県,川崎市川崎区,日進町１番地（６－９０２）,,14,131,2100024,,,2024-01-19,登記官による閉鎖,,,2015-10-05,1,,,,,,0
3252,8020003004170,登記記録の閉鎖等,0,2024-01-19,2024-01-19,合資会社イルマ,,合資会社,神奈川県,横浜市神奈川区,神之木町１番６号プラザ大口５０３号,,14,102,2210015,,,2024-01-19,登記官による閉鎖,,,2015-10-05,1,,,,,イルマ,0
3253,8020003006010,登記記録の閉鎖等,0,2024-01-19,2024-01-19,ミニマルプロ合資会社,,合資会社,神奈川県,川崎市中原区,中丸子３５７番地,,14,133,2110012,,,2024-01-19,登記官による閉鎖,,,2015-10-05,1,,,,,,0
3254,8020003006282,登記記録の閉鎖等,0,2024-01-19,2024-01-19,合同会社ＪＦＫ,,合同会社,神奈川県,川崎市中原区,下小田中３丁目１８番１号３０３,,14,133,2110041,,,2024-01-19,登記官による閉鎖,,,2015-10-05,1,,,,,,0
3255,8020005002809,登記記録の閉鎖等,0,2024-01-19,2024-01-19,社団法人神奈川県商業協会,,その他の設立登記法人,神奈川県,横浜市中区,尾上町５丁目８０番地,,14,104,2310015,,,2024-01-19,登記官による閉鎖,,,2015-10-05,1,,,,,,0
3256,8020005006000,登記記録の閉鎖等,0,2024-01-19,2024-01-19,特定非営利活動法人Ｋｅｎ　Ｆａｍｉｌｙ,,その他の設立登記法人,神奈川県,横浜市神奈川区,新子安２丁目３番地３６号,,14,102,2210013,,,2024-01-19,登記官による閉鎖,,,2015-10-05,1,,,,,,0
3257,8021001001696,登記記録の閉鎖等,0,2024-01-19,2024-01-19,株式会社日東,,株式会社,神奈川県,藤沢市,辻堂２丁目１番６号,,14,205,2510047,,,2024-01-19,登記官による閉鎖,,,2015-10-05,1,,,,,,0
3258,8021001006159,登記記録の閉鎖等,0,2024-01-19,2024-01-19,株式会社高柳植物栽培研究所,,株式会社,神奈川県,藤沢市,片瀬山３丁目２０番１１号,,14,205,2510033,,,2024-01-19,登記官による閉鎖,,,2015-10-05,1,,,,,,0
3259,8021001007818,登記記録の閉鎖等,0,2024-01-19,2024-01-19,株式会社マイティ,,株式会社,神奈川県,茅ヶ崎市,萩園１２７０番地１６３,,14,207,2530071,,,2024-01-19,登記官による閉鎖,,,2015-10-05,1,,,,,,0
3260,8021001007826,登記記録の閉鎖等,0,2024-01-19,2024-01-19,株式会社七光,,株式会社,神奈川県,茅ヶ崎市,南湖６丁目８番５号,,14,207,2530061,,,2024-01-19,登記官による閉鎖,,,2015-10-05,1,,,,,,0
3261,8021001009954,登記記録の閉鎖等,0,2024-01-19,2024-01-19,ナレイ株式会社,,株式会社,神奈川県,鎌倉市,岩瀬１丁目３０番９号,,14,204,2470051,,,2024-01-19,登記官による閉鎖,,,2015-10-05,1,,,,,,0
3262,8021001010961,登記記録の閉鎖等,0,2024-01-19,2024-01-19,株式会社美・藝・塾,,株式会社,神奈川県,鎌倉市,植木４２２番地１４グランシティ鎌倉植木の杜９０２号,,14,204,2470073,,,2024-01-19,登記官による閉鎖,,,2015-10-05,1,,,,,,0
3263,8021001011324,登記記録の閉鎖等,0,2024-01-19,2024-01-19,株式会社岩中電機製作所,,株式会社,神奈川県,相模原市中央区,小山３丁目５番８号,,14,152,2520205,,,2024-01-19,登記官による閉鎖,,,2015-10-05,1,,,,,,0
3264,8021001012099,登記記録の閉鎖等,0,2024-01-19,2024-01-19,株式会社コミュニティーホワイト,,株式会社,神奈川県,相模原市緑区,橋本２丁目３番２２号,,14,151,2520143,,,2024-01-19,登記官による閉鎖,,,2015-10-05,1,,,,,,0
3265,8021001023740,登記記録の閉鎖等,0,2024-01-19,2024-01-19,株式会社大平興産,,株式会社,神奈川県,秦野市,西大竹８番地６,,14,211,2570012,,,2024-01-19,登記官による閉鎖,,,2015-10-05,1,,,,,,0
3266,8021001026561,登記記録の閉鎖等,0,2024-01-19,2024-01-19,株式会社ホンダセンター相模,,株式会社,神奈川県,座間市,相模が丘１丁目２８番１０号,,14,216,2520001,,,2024-01-19,登記官による閉鎖,,,2015-10-05,1,,,,,,0
3267,8021001027725,登記記録の閉鎖等,0,2024-01-19,2024-01-19,株式会社湘南建材土木,,株式会社,神奈川県,綾瀬市,大上３丁目２番４２号,,14,218,2521104,,,2024-01-19,登記官による閉鎖,,,2015-10-05,1,,,,,,0
3268,8021001033005,登記記録の閉鎖等,0,2024-01-19,2024-01-19,株式会社ヴァンテアン,,株式会社,神奈川県,小田原市,東町５丁目１０番４３号,,14,206,2500003,,,2024-01-19,登記官による閉鎖,,,2015-10-05,1,,,,,,0
3269,8021001046832,登記記録の閉鎖等,0,2024-01-19,2024-01-19,株式会社サリュー,,株式会社,神奈川県,三浦郡葉山町,堀内５３４番地,,14,301,2400112,,,2024-01-19,登記官による閉鎖,,,2015-10-05,1,,,,,,0
3270,8021001047847,登記記録の閉鎖等,0,2024-01-19,2024-01-09,ソニーオプティアーク株式会社,,株式会社,東京都,港区,港南１丁目７番１号,,13,103,1080075,,,2024-01-09,清算の結了等,,,2015-10-05,1,,,,,ソニーオプティアーク,0
3271,8021001062004,登記記録の閉鎖等,0,2024-01-19,2024-01-19,株式会社渓文堂加藤商店,,株式会社,神奈川県,足柄下郡箱根町,強羅１３２０番地１１３４,,14,382,2500408,,,2024-01-19,登記官による閉鎖,,,2017-05-02,1,,,,,,0
3272,8021001063183,登記記録の閉鎖等,0,2024-01-19,2024-01-19,中央綜合株式会社,,株式会社,神奈川県,中郡大磯町,東小磯４２０番地８,,14,341,2550004,,,2024-01-19,登記官による閉鎖,,,2017-09-27,1,,,,,,0
3273,8021002000342,登記記録の閉鎖等,0,2024-01-19,2024-01-19,有限会社アユーダ,,有限会社,神奈川県,藤沢市,湘南台５丁目３番地３４,,14,205,2520804,,,2024-01-19,登記官による閉鎖,,,2015-10-05,1,,,,,,0
3274,8021002002826,登記記録の閉鎖等,0,2024-01-19,2024-01-19,鈴木造園有限会社,,有限会社,神奈川県,藤沢市,石川５丁目７番地の１０,,14,205,2520815,,,2024-01-19,登記官による閉鎖,,,2015-10-05,1,,,,,,0
3275,8021002003898,登記記録の閉鎖等,0,2024-01-19,2024-01-19,有限会社博光堂,,有限会社,神奈川県,藤沢市,藤沢９６番地,,14,205,2510052,,,2024-01-19,登記官による閉鎖,,,2015-10-05,1,,,,,,0
3276,8021002006414,登記記録の閉鎖等,0,2024-01-19,2024-01-19,有限会社新和建設工業,,有限会社,神奈川県,藤沢市,石川３丁目３１番地の２６,,14,205,2520815,,,2024-01-19,登記官による閉鎖,,,2015-10-05,1,,,,,,0
3278,8021002010977,登記記録の閉鎖等,0,2024-01-19,2024-01-19,有限会社伸和工業,,有限会社,神奈川県,茅ヶ崎市,萩園３０２５番地,,14,207,2530071,,,2024-01-19,登記官による閉鎖,,,2015-10-05,1,,,,,,0
3279,8021002011926,登記記録の閉鎖等,0,2024-01-19,2024-01-19,有限会社平瀬タイル店,,有限会社,神奈川県,茅ヶ崎市,松林１丁目１７番５号,,14,207,2530017,,,2024-01-19,登記官による閉鎖,,,2015-10-05,1,,,,,,0
3280,8021002017411,登記記録の閉鎖等,0,2024-01-19,2024-01-19,亜輝有限会社,,有限会社,神奈川県,相模原市緑区,西橋本５丁目２番－１３－１７０４号,,14,151,2520131,,,2024-01-19,登記官による閉鎖,,,2015-10-05,1,,,,,,0
3281,8021002018707,登記記録の閉鎖等,0,2024-01-19,2024-01-19,有限会社大谷鈑金,,有限会社,神奈川県,相模原市南区,麻溝台５丁目２番９号,,14,153,2520328,,,2024-01-19,登記官による閉鎖,,,2015-10-05,1,,,,,,0
3282,8021002023343,登記記録の閉鎖等,0,2024-01-19,2024-01-19,有限会社バッソー,,有限会社,神奈川県,相模原市緑区,橋本３丁目２９番６号,,14,151,2520143,,,2024-01-19,登記官による閉鎖,,,2015-10-05,1,,,,,,0
3283,8021002046113,登記記録の閉鎖等,0,2024-01-19,2024-01-19,有限会社カーサ,,有限会社,神奈川県,綾瀬市,寺尾西１丁目１番１号,,14,218,2521136,,,2024-01-19,登記官による閉鎖,,,2015-10-05,1,,,,,,0
3284,8021002052160,登記記録の閉鎖等,0,2024-01-19,2024-01-19,有限会社杉山製作所,,有限会社,神奈川県,小田原市,下新田２２６番地,,14,206,2500878,,,2024-01-19,登記官による閉鎖,,,2015-10-05,1,,,,,,0
3285,8021002052573,登記記録の閉鎖等,0,2024-01-19,2024-01-19,有限会社トータル．ビジネス．ブレイン,,有限会社,神奈川県,足柄下郡湯河原町,土肥１丁目１１番地３ゼファー湯河原Ｄプレイス７０１号,,14,384,2590303,,,2024-01-19,登記官による閉鎖,,,2015-10-05,1,,,,,,0
3286,8021002056962,登記記録の閉鎖等,0,2024-01-19,2024-01-19,有限会社エイト不動産,,有限会社,神奈川県,平塚市,徳延１３１番地１,,14,203,2540902,,,2024-01-19,登記官による閉鎖,,,2015-10-05,1,,,,,,0
3287,8021002058380,登記記録の閉鎖等,0,2024-01-19,2024-01-19,有限会社鈴木管工,,有限会社,神奈川県,平塚市,四之宮２丁目２番６号,,14,203,2540014,,,2024-01-19,登記官による閉鎖,,,2015-10-05,1,,,,,,0
3288,8021002058752,登記記録の閉鎖等,0,2024-01-19,2024-01-19,有限会社タローズ,,有限会社,神奈川県,平塚市,田村２丁目２番１号,,14,203,2540013,,,2024-01-19,登記官による閉鎖,,,2015-10-05,1,,,,,,0
3289,8021002060287,登記記録の閉鎖等,0,2024-01-19,2024-01-19,有限会社渡邊電機,00013804,有限会社,神奈川県,平塚市,中堂３番２６号,,14,203,2540026,,,2024-01-19,登記官による閉鎖,,,2015-10-05,1,,,,,,0
3290,8021002062465,登記記録の閉鎖等,0,2024-01-19,2024-01-19,有限会社あきぬ不動産,,有限会社,神奈川県,横須賀市,日の出町１丁目６番地７フェニックス横須賀中央１００４,,14,201,2380006,,,2024-01-19,登記官による閉鎖,,,2015-10-05,1,,,,,,0
3291,8021002063827,登記記録の閉鎖等,0,2024-01-19,2024-01-19,有限会社協和船舶,,有限会社,神奈川県,横須賀市,長浦町３丁目１１番地,,14,201,2370072,,,2024-01-19,登記官による閉鎖,,,2015-10-05,1,,,,,,0
3292,8021002064585,登記記録の閉鎖等,0,2024-01-19,2024-01-19,有限会社サンマリン,,有限会社,神奈川県,横須賀市,公郷町１丁目３３番地４,,14,201,2380022,,,2024-01-19,登記官による閉鎖,,,2015-10-05,1,,,,,,0
3293,8021002065501,登記記録の閉鎖等,0,2024-01-19,2024-01-19,有限会社橘屋小澤商店,,有限会社,神奈川県,横須賀市,大矢部３丁目２５番９号,,14,201,2380024,,,2024-01-19,登記官による閉鎖,,,2015-10-05,1,,,,,,0
3294,8021002071524,登記記録の閉鎖等,0,2024-01-19,2024-01-19,有限会社山幸工業,,有限会社,神奈川県,三浦市,南下浦町上宮田１２０５番地２,,14,210,2380101,,,2024-01-19,登記官による閉鎖,,,2015-10-05,1,,,,,,0
3295,8021005005231,登記記録の閉鎖等,0,2024-01-19,2024-01-19,特定非営利活動法人日本整体普及協会,,その他の設立登記法人,神奈川県,藤沢市,石川６丁目１０番地の２２ダイアパレス湘南台ＩＩ８０９号室,00014233,14,205,2520815,,,2024-01-19,登記官による閉鎖,,,2015-10-05,1,,,,,,0
3302,8030002032329,登記記録の閉鎖等,0,2024-01-19,2024-01-10,有限会社東京電化,,有限会社,埼玉県,所沢市,北原町９２１番地２,,11,208,3590004,,,2024-01-10,清算の結了等,,,2015-10-05,1,,,,,トウキョウデンカ,0
3303,8030002054141,登記記録の閉鎖等,0,2024-01-19,2024-01-11,有限会社スズキ,,有限会社,埼玉県,上尾市,柏座４丁目２番１５号,,11,219,3620075,,,2024-01-11,清算の結了等,,,2015-10-05,1,,,,,スズキ,0
3305,8030002086622,登記記録の閉鎖等,0,2024-01-19,2024-01-05,有限会社スズキ,,有限会社,埼玉県,越谷市,宮本町４丁目１番地,,11,222,3430806,,,2024-01-05,合併による解散等,5030001064193,令和６年１月１日埼玉県越谷市赤山町二丁目１８０番地株式会社鈴木組（5030001064193）に合併し解散,2015-10-05,1,,,,,スズキ,0
3309,8040001006679,登記記録の閉鎖等,0,2024-01-19,2024-01-09,株式会社フタバレジンプランニング,,株式会社,千葉県,千葉市中央区,新千葉３丁目２番１号,,12,101,2600031,,,2024-01-09,清算の結了等,,,2015-10-05,1,,,,,フタバレジンプランニング,0
3311,8040001089022,登記記録の閉鎖等,0,2024-01-19,2024-01-09,株式会社愛和,,株式会社,千葉県,松戸市,常盤平１丁目３番地の２ユナイテッドマンション３０６号,,12,207,2702261,,,2024-01-09,清算の結了等,,,2015-10-05,1,,,,,,0
3388,8100001028147,登記記録の閉鎖等,0,2024-01-19,2024-01-12,株式会社ＡＤＶＡＮＣＥ,,株式会社,長野県,飯田市,松尾上溝２６９４番地８,,20,205,3950811,,,2024-01-12,清算の結了等,,,2015-10-05,1,,,,,アドバンス,0
3395,8110002034085,登記記録の閉鎖等,0,2024-01-19,2024-01-16,有限会社ヤマトヤ薬局,,有限会社,新潟県,魚沼市,堀之内３２１番地,,15,225,9497413,,,2024-01-16,清算の結了等,,,2015-10-05,1,,,,,ヤマトヤヤッキョク,0
3402,8120001184285,登記記録の閉鎖等,0,2024-01-19,2024-01-11,ＦＵＪＩＫ株式会社,,株式会社,大阪府,大阪市北区,西天満３丁目３－７ライオンズマンション中之島公園北２０５,,27,127,5300047,,,2024-01-11,清算の結了等,,,2015-10-05,1,,,,,フジック,0
3436,8150001016725,登記記録の閉鎖等,0,2024-01-19,2024-01-17,株式会社ピーエイト,,株式会社,奈良県,大和高田市,今里町１７番１号,,29,202,6350031,,,2024-01-17,清算の結了等,,,2015-10-05,1,,,,,ピーエイト,0
3444,8180001134301,登記記録の閉鎖等,0,2024-01-19,2024-01-16,株式会社スギト,,株式会社,愛知県,一宮市,花池２丁目１９番９号,,23,203,4910914,,,2024-01-16,清算の結了等,,,2018-11-05,1,,,,,スギト,0
3445,8180001134846,登記記録の閉鎖等,0,2024-01-19,2024-01-17,株式会社ネクストフューチャー,,株式会社,愛知県,名古屋市熱田区,大宝３丁目２番１５号こうしょう庵７０５号,,23,109,4560062,,,2024-01-17,清算の結了等,,,2018-12-20,1,,,,,ネクストフューチャー,0
3447,8180001141553,登記記録の閉鎖等,0,2024-01-19,2024-01-15,株式会社Ｈａｎｄｙｍａｎ,,株式会社,愛知県,名古屋市西区,幅下１丁目１０番３４号,,23,104,4510041,,,2024-01-15,清算の結了等,,,2020-06-12,1,,,,,ハンディーマン,0
3450,8180002042288,登記記録の閉鎖等,0,2024-01-19,2024-01-05,有限会社八番鋼業,,有限会社,愛知県,名古屋市港区,明正１丁目９７番地の１,,23,111,4550806,,,2024-01-05,清算の結了等,,,2015-10-05,1,,,,,ハチバンコウギョウ,0
3451,8180002045266,登記記録の閉鎖等,0,2024-01-19,2024-01-15,有限会社シラキ産業,,有限会社,愛知県,清須市,西枇杷島町北大和１７１番地,,23,233,4520012,,,2024-01-15,清算の結了等,,,2015-10-05,1,,,,,シラキサンギョウ,0
3461,8200002005267,登記記録の閉鎖等,0,2024-01-19,2024-01-19,有限会社ワーゴ,,有限会社,岐阜県,岐阜市,萱場北町２丁目１２番,,21,201,5020938,,,2024-01-19,登記官による閉鎖,,,2015-10-05,1,,,,,,0
3462,8200002006991,登記記録の閉鎖等,0,2024-01-19,2024-01-19,有限会社石坂新聞店,,有限会社,岐阜県,各務原市,鵜沼東町６丁目１４番地の１,,21,213,5090126,,,2024-01-19,登記官による閉鎖,,,2015-10-05,1,,,,,,0
3463,8200002007610,登記記録の閉鎖等,0,2024-01-19,2024-01-19,有限会社龍泉,,有限会社,岐阜県,各務原市,鵜沼三ツ池町３丁目３３５番地,,21,213,5090146,,,2024-01-19,登記官による閉鎖,,,2015-10-05,1,,,,,,0
3465,8200002015679,登記記録の閉鎖等,0,2024-01-19,2024-01-19,有限会社福丸,,有限会社,岐阜県,揖斐郡池田町,八幡２４６５番地の１３,,21,404,5032426,,,2024-01-19,登記官による閉鎖,,,2015-10-05,1,,,,,,0
3466,8200002025810,登記記録の閉鎖等,0,2024-01-19,2024-01-19,有限会社飛騨環境開発,00077101,有限会社,岐阜県,高山市,上岡本町８丁目３６８番地,,21,203,5060055,,,2024-01-19,登記官による閉鎖,,,2015-10-05,1,,,,,,0
3467,8200005001164,登記記録の閉鎖等,0,2024-01-19,2024-01-19,岐阜鉄工技術開発協同組合,,その他の設立登記法人,岐阜県,岐阜市,六条江東２丁目９番２号,,21,201,5008356,,,2024-01-19,登記官による閉鎖,,,2015-10-05,1,,,,,,0
3468,8200005002708,登記記録の閉鎖等,0,2024-01-19,2024-01-19,特定非営利活動法人寿々,,その他の設立登記法人,岐阜県,瑞穂市,只越１０５２－６ビラコート瑞穂３０３号,,21,216,5010221,,,2024-01-19,登記官による閉鎖,,,2015-10-05,1,,,,,,0
3469,8200005005818,登記記録の閉鎖等,0,2024-01-19,2024-01-19,財団法人信和会,,その他の設立登記法人,岐阜県,揖斐郡大野町,大字下座倉２８０番地の３,,21,403,5010534,,,2024-01-19,登記官による閉鎖,,,2015-10-05,1,,,,,,0
3470,8200005006378,登記記録の閉鎖等,0,2024-01-19,2024-01-19,特定非営利活動法人てんぷら燃料・油屋半兵衛,,その他の設立登記法人,岐阜県,不破郡垂井町,大石７３７番地の１,,21,361,5032108,,,2024-01-19,登記官による閉鎖,,,2015-10-05,1,,,,,,0
3471,8200005007129,登記記録の閉鎖等,0,2024-01-19,2024-01-19,財団法人しおみ自然道場,,その他の設立登記法人,岐阜県,加茂郡八百津町,潮見字松山９９３番地の７,,21,505,5050531,,,2024-01-19,登記官による閉鎖,,,2015-10-05,1,,,,,,0
3472,8200005009562,登記記録の閉鎖等,0,2024-01-19,2024-01-19,財団法人加子母育英会,,その他の設立登記法人,岐阜県,中津川市,加子母４８９８番地,,21,206,5080421,,,2024-01-19,登記官による閉鎖,,,2015-10-05,1,,,,,,0
3479,8250001001907,登記記録の閉鎖等,0,2024-01-19,2024-01-18,株式会社オーエスコンピュータ,,株式会社,山口県,防府市,岩畠１丁目１７番２７号,,35,206,7470001,,,2024-01-18,清算の結了等,,,2015-10-05,1,,,,,オーエスコンピュータ,0
3483,8260002017645,登記記録の閉鎖等,0,2024-01-19,2024-01-18,共進建設有限会社,,有限会社,岡山県,倉敷市,玉島陶７３２番地の２,,33,202,7138112,,,2024-01-18,清算の結了等,,,2015-10-05,1,,,,,キョウシンケンセツ,0
3485,8280002002851,登記記録の閉鎖等,0,2024-01-19,2024-01-18,有限会社島田鉄工所,,有限会社,島根県,松江市,東出雲町揖屋２３６２番地１,,32,201,6990101,,,2024-01-18,清算の結了等,,,2015-10-05,1,,,,,シマダテッコウショ,0
3497,8310001001891,登記記録の閉鎖等,0,2024-01-19,2024-01-11,富士貿易株式会社,,株式会社,長崎県,長崎市,恵美須町７番９号,,42,201,8500056,,,2024-01-11,登記官による閉鎖,,,2015-10-05,1,,,,,,0
3498,8310001008565,登記記録の閉鎖等,0,2024-01-19,2024-01-11,株式会社ファルマ・スクエア,,株式会社,長崎県,諫早市,小船越町５７６番地３,,42,204,8540062,,,2024-01-11,登記官による閉鎖,,,2015-10-05,1,,,,,,0
3501,8310002001833,登記記録の閉鎖等,0,2024-01-19,2024-01-11,有限会社コトー,,有限会社,長崎県,長崎市,中川１丁目１番７号,,42,201,8500013,,,2024-01-11,登記官による閉鎖,,,2015-10-05,1,,,,,,0
3502,8310002002781,登記記録の閉鎖等,0,2024-01-19,2024-01-11,有限会社総合エム・ケイ,,有限会社,長崎県,長崎市,花園町２９番１５号,,42,201,8528024,,,2024-01-11,登記官による閉鎖,,,2015-10-05,1,,,,,,0
3503,8310002006576,登記記録の閉鎖等,0,2024-01-19,2024-01-11,有限会社華工房苑土蘭,,有限会社,長崎県,長崎市,三景台町２１番２０号,,42,201,8500824,,,2024-01-11,登記官による閉鎖,,,2015-10-05,1,,,,,,0
3504,8310002020230,登記記録の閉鎖等,0,2024-01-19,2024-01-11,あそう開拓有限会社,,有限会社,長崎県,対馬市,美津島町大船越２３９番地１,,42,209,8170323,,,2024-01-11,登記官による閉鎖,,,2015-10-05,1,,,,,,0
3505,8310003001667,登記記録の閉鎖等,0,2024-01-19,2024-01-11,合資会社ティーエムケー,,合資会社,長崎県,諫早市,小野町１０７２番地３６,,42,204,8540034,,,2024-01-11,登記官による閉鎖,,,2015-10-05,1,,,,,,0
3508,8320001010751,登記記録の閉鎖等,0,2024-01-19,2024-01-15,アイ・ティ・システム株式会社,,株式会社,大分県,中津市,大字東浜５９３番地,,44,203,8710006,,,2024-01-15,清算の結了等,,,2015-10-05,1,,,,,アイティシステム,0
3511,8330001006591,登記記録の閉鎖等,0,2024-01-19,2024-01-19,株式会社ブリッジメディア,,株式会社,熊本県,熊本市中央区,八王寺町３０番１号グランメディアビル,,43,101,8600831,,,2024-01-19,登記官による閉鎖,,,2015-10-05,1,,,,,,0
3512,8330001010065,登記記録の閉鎖等,0,2024-01-19,2024-01-19,株式会社スタイルアイ,,株式会社,熊本県,菊池市,七城町砂田４６２番地,,43,210,8611351,,,2024-01-19,登記官による閉鎖,,,2015-10-05,1,,,,,,0
3514,8330001018208,登記記録の閉鎖等,0,2024-01-19,2024-01-19,株式会社アコール,,株式会社,熊本県,熊本市中央区,米屋町１丁目９番地１（１２０２号）,,43,101,8600029,,,2024-01-19,登記官による閉鎖,,,2015-10-05,1,,,,,,0
3518,8330002005114,登記記録の閉鎖等,0,2024-01-19,2024-01-19,有限会社島本ボーリング,,有限会社,熊本県,熊本市東区,画図町所島３２９番地,,43,102,8610000,,,2024-01-19,登記官による閉鎖,,,2015-10-05,1,,,,,,0
3519,8330002005477,登記記録の閉鎖等,0,2024-01-19,2024-01-19,有限会社食料品卸森本,,有限会社,熊本県,熊本市中央区,新町２丁目１２番２４号,,43,101,8600004,,,2024-01-19,登記官による閉鎖,,,2015-10-05,1,,,,,,0
3520,8330002006855,登記記録の閉鎖等,0,2024-01-19,2024-01-19,有限会社津賀尾,,有限会社,熊本県,熊本市中央区,河原町２番地,,43,101,8600023,,,2024-01-19,登記官による閉鎖,,,2015-10-05,1,,,,,,0
3521,8330002008835,登記記録の閉鎖等,0,2024-01-19,2024-01-19,有限会社水菜,,有限会社,熊本県,熊本市中央区,京町２丁目１番４４号,,43,101,8600078,,,2024-01-19,登記官による閉鎖,,,2015-10-05,1,,,,,,0
3522,8330002011426,登記記録の閉鎖等,0,2024-01-19,2024-01-19,有限会社リバーパースト,,有限会社,熊本県,熊本市中央区,新町４丁目３番３１号,,43,101,8600004,,,2024-01-19,登記官による閉鎖,,,2015-10-05,1,,,,,,0
3523,8330002021086,登記記録の閉鎖等,0,2024-01-19,2024-01-19,有限会社築森開発,,有限会社,熊本県,玉名市,築地１５１２番地３２０,,43,206,8650065,,,2024-01-19,登記官による閉鎖,,,2015-10-05,1,,,,,,0
3525,8330002025789,登記記録の閉鎖等,0,2024-01-19,2024-01-19,有限会社惠商,,有限会社,熊本県,八代市,郡築十一番町８番地２,,43,202,8660002,,,2024-01-19,登記官による閉鎖,,,2015-10-05,1,,,,,,0
3526,8330003002300,登記記録の閉鎖等,0,2024-01-19,2024-01-19,合資会社三芳商店,,合資会社,熊本県,上益城郡甲佐町,大字豊内７０１番地,,43,444,8614607,,,2024-01-19,登記官による閉鎖,,,2015-10-05,1,,,,,,0
3539,8380002029075,登記記録の閉鎖等,0,2024-01-19,2024-01-16,有限会社福成建設工業,,有限会社,福島県,南相馬市,原町区北原字岩見堀子１４３番地の１,,07,212,9750037,,,2024-01-16,清算の結了等,,,2015-10-05,1,,,,,フクセイケンセツコウギョウ,0
3545,8410001005263,登記記録の閉鎖等,0,2024-01-19,2024-01-18,株式会社ロイ,,株式会社,秋田県,由利本荘市,井戸尻５２番地３９,,05,210,0150876,,,2024-01-18,登記官による閉鎖,,,2015-10-05,1,,,,,,0
3546,8410001006385,登記記録の閉鎖等,0,2024-01-19,2024-01-18,株式会社五輪産業,,株式会社,秋田県,北秋田市,川井字漣岱２５番地,00086367,05,213,0184211,,,2024-01-18,登記官による閉鎖,,,2015-10-05,1,,,,,,0
3547,8410001009917,登記記録の閉鎖等,0,2024-01-19,2024-01-18,株式会社本多,,株式会社,秋田県,山本郡八峰町,峰浜内荒巻字家ノ上６５番地,,05,349,0182505,,,2024-01-18,登記官による閉鎖,,,2015-10-05,1,,,,,,0
3548,8410001011955,登記記録の閉鎖等,0,2024-01-19,2024-01-18,若松産業株式会社,,株式会社,秋田県,秋田市,大町３丁目５番２９号,,05,201,0100921,,,2024-01-18,登記官による閉鎖,,,2018-09-07,1,,,,,ワカマツサンギョウ,0
3549,8410002001609,登記記録の閉鎖等,0,2024-01-19,2024-01-11,有限会社三伊商事,,有限会社,秋田県,秋田市,山王１丁目５番８号,,05,201,0100951,,,2024-01-11,清算の結了等,,,2015-10-05,1,,,,,ミツイショウジ,0
3550,8410002007309,登記記録の閉鎖等,0,2024-01-19,2024-01-18,有限会社象潟自販,,有限会社,秋田県,にかほ市,象潟町字才の神２０番地の８,,05,214,0180129,,,2024-01-18,登記官による閉鎖,,,2015-10-05,1,,,,,,0
3551,8410002012366,登記記録の閉鎖等,0,2024-01-19,2024-01-18,有限会社富樫組,,有限会社,秋田県,大仙市,大曲西根字瀬下２９番地,,05,212,0140072,,,2024-01-18,登記官による閉鎖,,,2015-10-05,1,,,,,トガシグミ,0
3552,8410002012779,登記記録の閉鎖等,0,2024-01-19,2024-01-18,有限会社みやもと薬店,,有限会社,秋田県,仙北市,田沢湖生保内字街道ノ上９５番地,,05,215,0141201,,,2024-01-18,登記官による閉鎖,,,2015-10-05,1,,,,,,0
3553,8410002014049,登記記録の閉鎖等,0,2024-01-19,2024-01-18,有限会社エスケイトータル企画,,有限会社,秋田県,秋田市,川尻若葉町４番２４号,,05,201,0100944,,,2024-01-18,登記官による閉鎖,,,2018-12-14,1,,,,,エスケイトータルキカク,0
3554,8410005006299,登記記録の閉鎖等,0,2024-01-19,2024-01-18,農事組合法人八竜養鶏組合,,その他の設立登記法人,秋田県,山本郡三種町,浜田字中台３番地の２５,,05,348,0182407,,,2024-01-18,登記官による閉鎖,,,2020-03-31,1,,,,,ハチリュウヨウケイクミアイ,0
3560,8430001046314,登記記録の閉鎖等,0,2024-01-19,2024-01-15,株式会社あづま商事,,株式会社,北海道,岩見沢市,七条西８丁目５番地,,01,210,0680027,,,2024-01-15,清算の結了等,,,2015-10-05,1,,,,,アヅマショウジ,0
3563,8450001000707,登記記録の閉鎖等,0,2024-01-19,2024-01-18,株式会社オスパー企画,,株式会社,北海道,旭川市,宮下通１６丁目３番１号,,01,204,0700030,,,2024-01-18,清算の結了等,,,2015-10-05,1,,,,,オスパーキカク,0
3564,8470001006669,登記記録の閉鎖等,0,2024-01-19,2024-01-17,株式会社メンテナンスハウス植本,,株式会社,香川県,高松市,鶴市町５６９番地３,,37,201,7618032,,,2024-01-17,清算の結了等,,,2015-10-05,1,,,,,メンテナンスハウスウエモト,0
3566,8700150046285,登記記録の閉鎖等,0,2024-01-19,2023-08-31,浜松市西美薗西土地区画整理組合,,その他,静岡県,浜松市中区,中央１丁目２番１号,,22,131,4300929,,,2023-08-31,その他の清算の結了等,,,2015-10-09,1,,,,,ハママツシニシミソノニシトチクカクセイリクミアイ,0
3572,9010001145438,登記記録の閉鎖等,0,2024-01-19,2024-01-16,ベルパック株式会社,,株式会社,東京都,千代田区,神田駿河台３丁目３番地４０１号,,13,101,1010062,,,2024-01-16,合併による解散等,5030001065159,令和６年１月１日埼玉県越谷市平方１００４番１１大日本パックェージ株式会社（5030001065159）に合併し解散,2015-10-05,1,,,,,ベルパック,0
3573,9010001221288,登記記録の閉鎖等,0,2024-01-19,2024-01-11,八峰・能代洋上風力開発株式会社,,株式会社,東京都,千代田区,霞が関３丁目２番５号,,13,101,1000013,,,2024-01-11,清算の結了等,,,2021-09-22,1,,,,,ハッポウノシロヨウジョウフウリョクカイハツ,0
3611,9010901001806,登記記録の閉鎖等,0,2024-01-19,2024-01-18,株式会社エスケーハウジング,,株式会社,東京都,世田谷区,等々力２丁目３８番２８号,,13,112,1580082,,,2024-01-18,登記官による閉鎖,,,2015-10-05,1,,,,,,0
3612,9010901002886,登記記録の閉鎖等,0,2024-01-19,2024-01-18,株式会社神林建築事務所,,株式会社,東京都,世田谷区,船橋１丁目１５番５号,,13,112,1560055,,,2024-01-18,登記官による閉鎖,,,2015-10-05,1,,,,,,0
3613,9010901014163,登記記録の閉鎖等,0,2024-01-19,2024-01-18,株式会社リュウサテライトプランニング,,株式会社,東京都,世田谷区,粕谷４丁目７番３号,,13,112,1570063,,,2024-01-18,登記官による閉鎖,,,2015-10-05,1,,,,,,0
3614,9010901029137,登記記録の閉鎖等,0,2024-01-19,2024-01-18,株式会社ベルタスジャパン,,株式会社,東京都,世田谷区,北沢１丁目１９番１８号,,13,112,1550031,,,2024-01-18,登記官による閉鎖,,,2015-10-05,1,,,,,,0
3615,9010901030318,登記記録の閉鎖等,0,2024-01-19,2024-01-18,株式会社ファム,,株式会社,東京都,世田谷区,松原１丁目４５番３－３０１号,,13,112,1560043,,,2024-01-18,登記官による閉鎖,,,2015-10-05,1,,,,,,0
3616,9010901041117,登記記録の閉鎖等,0,2024-01-19,2024-01-18,富士建商事株式会社,,株式会社,東京都,世田谷区,成城５丁目８番２３号,,13,112,1570066,,,2024-01-18,登記官による閉鎖,,,2017-11-22,1,,,,,,0
3619,9010902009138,登記記録の閉鎖等,0,2024-01-19,2024-01-18,有限会社大東和紙工,,有限会社,東京都,世田谷区,北烏山８丁目２番１号,,13,112,1570061,,,2024-01-18,登記官による閉鎖,,,2015-10-05,1,,,,,,0
3620,9010902019525,登記記録の閉鎖等,0,2024-01-19,2024-01-18,有限会社リーベ,,有限会社,東京都,世田谷区,八幡山３丁目３４番２号,,13,112,1560056,,,2024-01-18,登記官による閉鎖,,,2015-10-05,1,,,,,,0
3621,9010903001151,登記記録の閉鎖等,0,2024-01-19,2024-01-18,ｓｕｂｔｌｅ合同会社,,合同会社,東京都,世田谷区,代沢２丁目３６番２７号,,13,112,1550032,,,2024-01-18,登記官による閉鎖,,,2015-10-05,1,,,,,,0
3622,9010903001317,登記記録の閉鎖等,0,2024-01-19,2024-01-18,合同会社ユニオンサービス,,合同会社,東京都,世田谷区,奥沢１丁目３７番２号,,13,112,1580083,,,2024-01-18,登記官による閉鎖,,,2015-10-05,1,,,,,,0
3624,9010905000085,登記記録の閉鎖等,0,2024-01-19,2024-01-18,財団法人日本柔道育英学会,,その他の設立登記法人,東京都,世田谷区,駒沢３丁目２７番２号,,13,112,1540012,,,2024-01-18,登記官による閉鎖,,,2015-10-05,1,,,,,,0
3625,9010905001901,登記記録の閉鎖等,0,2024-01-19,2024-01-18,特定非営利活動法人生活改善サポートセンター,,その他の設立登記法人,東京都,世田谷区,用賀４丁目１３番２号メゾンシルベスト４０６号,,13,112,1580097,,,2024-01-18,登記官による閉鎖,,,2015-10-05,1,,,,,,0
3651,9011101096323,登記記録の閉鎖等,0,2024-01-19,2024-01-15,株式会社エターナル,,株式会社,東京都,新宿区,富久町１５番１－２７１２号室,,13,104,1620067,,,2024-01-15,清算の結了等,,,2021-09-17,1,,,,,エターナル,0
3665,9011703002075,登記記録の閉鎖等,0,2024-01-19,2024-01-11,ヴィークル・デプス合同会社,,合同会社,東京都,江戸川区,東小岩３丁目７番１８号,,13,123,1330052,,,2024-01-11,清算の結了等,,,2018-08-17,1,,,,,ヴィークルデプス,0
3672,9011802005912,登記記録の閉鎖等,0,2024-01-19,2024-01-17,有限会社新潟自動車整備工場,,有限会社,東京都,葛飾区,四つ木２丁目２９番６号,,13,122,1240011,,,2024-01-17,清算の結了等,,,2015-10-05,1,,,,,ニイガタジドウシャセイビコウジョウ,0
3679,9020001029648,登記記録の閉鎖等,0,2024-01-19,2024-01-19,横浜古沢工業株式会社,,株式会社,神奈川県,横浜市栄区,亀井町８番６号,,14,115,2470028,,,2024-01-19,登記官による閉鎖,,,2015-10-05,1,,,,,,0
3682,9020001047716,登記記録の閉鎖等,0,2024-01-19,2024-01-19,株式会社ＤＡ・ＲＡ,,株式会社,神奈川県,横浜市泉区,和泉町５８７６番地７,,14,116,2450016,,,2024-01-19,登記官による閉鎖,,,2015-10-05,1,,,,,,0
3683,9020001050117,登記記録の閉鎖等,0,2024-01-19,2024-01-19,株式会社グリーンフラッグ,,株式会社,神奈川県,横浜市青葉区,あざみ野３丁目１３番地１６,,14,117,2250011,,,2024-01-19,登記官による閉鎖,,,2015-10-05,1,,,,,,0
3684,9020001074421,登記記録の閉鎖等,0,2024-01-19,2024-01-19,株式会社フアンタススポーツクラブ,,株式会社,神奈川県,川崎市川崎区,大島３丁目３８番７号,,14,131,2100834,,,2024-01-19,登記官による閉鎖,,,2015-10-05,1,,,,,,0
3685,9020001075139,登記記録の閉鎖等,0,2024-01-19,2024-01-19,株式会社焼肉苑,,株式会社,神奈川県,川崎市中原区,上平間１７００番地,,14,133,2110013,,,2024-01-19,登記官による閉鎖,,,2015-10-05,1,,,,,,0
3686,9020001081335,登記記録の閉鎖等,0,2024-01-19,2024-01-19,株式会社アイ・ピー・コンサルタンツ,,株式会社,神奈川県,川崎市多摩区,登戸１１９３番地,,14,135,2140014,,,2024-01-19,登記官による閉鎖,,,2015-10-05,1,,,,,,0
3687,9020001086004,登記記録の閉鎖等,0,2024-01-19,2024-01-19,株式会社トーキ,,株式会社,神奈川県,横浜市南区,永田北２丁目３４番１セレナハイム永田北３０３,,14,105,2320071,,,2024-01-19,登記官による閉鎖,,,2015-10-05,1,,,,,,0
3688,9020001088140,登記記録の閉鎖等,0,2024-01-19,2024-01-19,ドゥーブロス株式会社,,株式会社,神奈川県,横浜市港北区,新吉田東２丁目５番６号,,14,109,2230058,,,2024-01-19,登記官による閉鎖,,,2015-10-05,1,,,,,,0
3691,9020001096721,登記記録の閉鎖等,0,2024-01-19,2024-01-19,株式会社シティプラス,,株式会社,神奈川県,横浜市南区,永楽町１丁目１４番地１マリーヌ伊勢佐木９０１,,14,105,2320031,,,2024-01-19,登記官による閉鎖,,,2015-10-05,1,,,,,,0
3692,9020001098552,登記記録の閉鎖等,0,2024-01-19,2024-01-19,株式会社Ｅａｇｌｅ　Ｅｙｅ,,株式会社,神奈川県,川崎市川崎区,砂子２丁目８番１１号パルサー川崎２Ｆ,,14,131,2100006,,,2024-01-19,登記官による閉鎖,,,2015-10-05,1,,,,,,0
3693,9020001098899,登記記録の閉鎖等,0,2024-01-19,2024-01-19,ＪＡＭ株式会社,,株式会社,神奈川県,川崎市高津区,上作延９６６番地８ロータスＥ,,14,134,2130034,,,2024-01-19,登記官による閉鎖,,,2015-10-05,1,,,,,,0
3695,9020001129415,登記記録の閉鎖等,0,2024-01-19,2024-01-19,株式会社宮原工務店,,株式会社,神奈川県,横浜市港南区,上大岡東１丁目１２番１６号,,14,111,2330001,,,2024-01-19,登記官による閉鎖,,,2019-01-10,1,,,,,ミヤハラコウムテン,0
3698,9020002005251,登記記録の閉鎖等,0,2024-01-19,2024-01-19,有限会社秋光企画,,有限会社,神奈川県,横浜市都筑区,中川４丁目３番５号,,14,118,2240001,,,2024-01-19,登記官による閉鎖,,,2015-10-05,1,,,,,,0
3699,9020002008790,登記記録の閉鎖等,0,2024-01-19,2024-01-19,有限会社フィールドロード,,有限会社,神奈川県,横浜市金沢区,平潟町１９番１６－６０２号,,14,108,2360023,,,2024-01-19,登記官による閉鎖,,,2015-10-05,1,,,,,,0
3700,9020002009582,登記記録の閉鎖等,0,2024-01-19,2024-01-19,有限会社石川クリーニング商会,,有限会社,神奈川県,横浜市港南区,港南台２丁目８番１４号,,14,111,2340054,,,2024-01-19,登記官による閉鎖,,,2015-10-05,1,,,,,,0
3703,9020002025142,登記記録の閉鎖等,0,2024-01-19,2024-01-19,有限会社ユニコム,,有限会社,神奈川県,横浜市保土ケ谷区,新桜ケ丘２丁目２０番１２号,,14,106,2400036,,,2024-01-19,登記官による閉鎖,,,2015-10-05,1,,,,,,0
3704,9020002038581,登記記録の閉鎖等,0,2024-01-19,2024-01-19,昭栄自動車工業有限会社,,有限会社,神奈川県,横浜市鶴見区,駒岡２丁目９番４６号,,14,101,2300071,,,2024-01-19,登記官による閉鎖,,,2015-10-05,1,,,,,,0
3705,9020002045009,登記記録の閉鎖等,0,2024-01-19,2024-01-17,有限会社本陣,,有限会社,神奈川県,横浜市中区,福富町西通４４番地１,,14,104,2310042,,,2024-01-17,合併による解散等,6011801002509,令和６年１月１日東京都葛飾区金町三丁目１３番１５号相進興業株式会社（6011801002509）に合併し解散,2015-10-05,1,,,,,,0
3706,9020002046080,登記記録の閉鎖等,0,2024-01-19,2024-01-19,有限会社リスタージャパン,,有限会社,神奈川県,横浜市中区,本郷町３丁目１０５番地の３,,14,104,2310843,,,2024-01-19,登記官による閉鎖,,,2015-10-05,1,,,,,,0
3707,9020002056402,登記記録の閉鎖等,0,2024-01-19,2024-01-19,ハマトレーディング有限会社,,有限会社,神奈川県,横浜市金沢区,泥亀１丁目１７番１５号,,14,108,2360021,,,2024-01-19,登記官による閉鎖,,,2015-10-05,1,,,,,,0
3708,9020002057383,登記記録の閉鎖等,0,2024-01-19,2024-01-19,有限会社インテル,,有限会社,神奈川県,横浜市神奈川区,羽沢町１７１９番地,,14,102,2210863,,,2024-01-19,登記官による閉鎖,,,2015-10-05,1,,,,,,0
3709,9020002060263,登記記録の閉鎖等,0,2024-01-19,2024-01-19,有限会社エーシーエス,,有限会社,神奈川県,横浜市神奈川区,大口通１２,,14,102,2210002,,,2024-01-19,登記官による閉鎖,,,2015-10-05,1,,,,,,0
3710,9020002066640,登記記録の閉鎖等,0,2024-01-19,2024-01-19,有限会社耶麻電設,,有限会社,神奈川県,横須賀市,小矢部２丁目３８番１０号,,14,201,2380026,,,2024-01-19,登記官による閉鎖,,,2015-10-05,1,,,,,,0
3711,9020002067498,登記記録の閉鎖等,0,2024-01-19,2024-01-19,有限会社スカイタイム,,有限会社,神奈川県,横浜市神奈川区,大口通１９番地,,14,102,2210002,,,2024-01-19,登記官による閉鎖,,,2015-10-05,1,,,,,,0
3712,9020002069800,登記記録の閉鎖等,0,2024-01-19,2024-01-19,有限会社ビージェイ,,有限会社,神奈川県,横浜市鶴見区,生麦５丁目７番５－５０７号,,14,101,2300052,,,2024-01-19,登記官による閉鎖,,,2015-10-05,1,,,,,,0
3713,9020002073158,登記記録の閉鎖等,0,2024-01-19,2024-01-19,有限会社コロナフーズ,,有限会社,神奈川県,横浜市神奈川区,栄町８９番地１８,,14,102,2210052,,,2024-01-19,登記官による閉鎖,,,2015-10-05,1,,,,,,0
3714,9020002073216,登記記録の閉鎖等,0,2024-01-19,2024-01-19,有限会社ニューライフテクノロジー,,有限会社,神奈川県,横浜市磯子区,氷取沢町１５０番地４,,14,107,2350043,,,2024-01-19,登記官による閉鎖,,,2015-10-05,1,,,,,,0
3715,9020002076185,登記記録の閉鎖等,0,2024-01-19,2024-01-19,有限会社エス・シー商運,,有限会社,神奈川県,横浜市鶴見区,矢向６丁目３番２３号,,14,101,2300001,,,2024-01-19,登記官による閉鎖,,,2015-10-05,1,,,,,,0
3716,9020002076458,登記記録の閉鎖等,0,2024-01-19,2024-01-19,有限会社ＨＩＴ・ＤＡＹプロジェクト,,有限会社,神奈川県,横浜市神奈川区,白幡南町１５番１６号,,14,102,2210073,,,2024-01-19,登記官による閉鎖,,,2015-10-05,1,,,,,,0
3719,9020002081318,登記記録の閉鎖等,0,2024-01-19,2024-01-19,有限会社関根金型,,有限会社,神奈川県,川崎市幸区,南加瀬５丁目２２番１０号,,14,132,2120055,,,2024-01-19,登記官による閉鎖,,,2015-10-05,1,,,,,,0
3720,9020002081433,登記記録の閉鎖等,0,2024-01-19,2024-01-19,有限会社たけみ,,有限会社,神奈川県,川崎市幸区,古市場２丁目１２１番地１５,,14,132,2120052,,,2024-01-19,登記官による閉鎖,,,2015-10-05,1,,,,,,0
3721,9020002083396,登記記録の閉鎖等,0,2024-01-19,2024-01-19,有限会社菜華,,有限会社,神奈川県,川崎市中原区,木月２丁目１９番５号,,14,133,2110025,,,2024-01-19,登記官による閉鎖,,,2015-10-05,1,,,,,,0
3722,9020002084469,登記記録の閉鎖等,0,2024-01-19,2024-01-19,東海精工有限会社,,有限会社,神奈川県,川崎市中原区,苅宿４７番２０号,,14,133,2110022,,,2024-01-19,登記官による閉鎖,,,2015-10-05,1,,,,,,0
3723,9020002091606,登記記録の閉鎖等,0,2024-01-19,2024-01-19,有限会社いがぐり,,有限会社,神奈川県,川崎市多摩区,登戸２６６２番地２,,14,135,2140014,,,2024-01-19,登記官による閉鎖,,,2015-10-05,1,,,,,,0
3724,9020002092612,登記記録の閉鎖等,0,2024-01-19,2024-01-19,有限会社デルタ・システム,,有限会社,神奈川県,川崎市多摩区,東生田２丁目１番１０－５０２号,,14,135,2140031,,,2024-01-19,登記官による閉鎖,,,2015-10-05,1,,,,,,0
3725,9020002094344,登記記録の閉鎖等,0,2024-01-19,2024-01-19,有限会社光学薄膜研究所,,有限会社,神奈川県,川崎市麻生区,東百合丘２丁目３２番４号,,14,137,2150012,,,2024-01-19,登記官による閉鎖,,,2015-10-05,1,,,,,,0
3726,9020002101918,登記記録の閉鎖等,0,2024-01-19,2024-01-19,有限会社ケイ・ワイ,,有限会社,神奈川県,川崎市川崎区,桜本１丁目９番９号,,14,131,2100833,,,2024-01-19,登記官による閉鎖,,,2015-10-05,1,,,,,,0
3727,9020003006728,登記記録の閉鎖等,0,2024-01-19,2024-01-19,合同会社エムズ,,合同会社,神奈川県,川崎市川崎区,観音２丁目６番１６号,,14,131,2100831,,,2024-01-19,登記官による閉鎖,,,2015-10-05,1,,,,,,0
3730,9020005001520,登記記録の閉鎖等,0,2024-01-19,2024-01-19,社団法人横浜市市友会,,その他の設立登記法人,神奈川県,横浜市西区,宮崎町２５番地,,14,103,2200031,,,2024-01-19,登記官による閉鎖,,,2015-10-05,1,,,,,,0
3731,9020005002634,登記記録の閉鎖等,0,2024-01-19,2024-01-19,特定非営利活動法人サイドワークスネキスト,,その他の設立登記法人,神奈川県,横浜市緑区,東本郷５丁目１６番３９号,,14,113,2260002,,,2024-01-19,登記官による閉鎖,,,2015-10-05,1,,,,,,0
3732,9020005003830,登記記録の閉鎖等,0,2024-01-19,2024-01-19,日中生鮮品開発輸入協同組合,,その他の設立登記法人,神奈川県,横浜市中区,山下町２７９番地,,14,104,2310023,,,2024-01-19,登記官による閉鎖,,,2015-10-05,1,,,,,,0
3733,9020005004358,登記記録の閉鎖等,0,2024-01-19,2024-01-19,ユーズドピアノ協同組合,,その他の設立登記法人,神奈川県,横浜市栄区,金井町２６９番地,,14,115,2440845,,,2024-01-19,登記官による閉鎖,,,2015-10-05,1,,,,,,0
3734,9020005007022,登記記録の閉鎖等,0,2024-01-19,2024-01-19,特定非営利活動法人国際交流協会アジアの風,,その他の設立登記法人,神奈川県,横浜市瀬谷区,宮沢３丁目１７番地３,,14,114,2460038,,,2024-01-19,登記官による閉鎖,,,2015-10-05,1,,,,,,0
3735,9020005008631,登記記録の閉鎖等,0,2024-01-19,2024-01-19,特定非営利活動法人現代三味線音楽協会,,その他の設立登記法人,神奈川県,川崎市高津区,久本２丁目３番１号洗足学園音楽大学現代邦楽研究所内,,14,134,2130011,,,2024-01-19,登記官による閉鎖,,,2015-10-05,1,,,,,,0
3736,9021001007701,登記記録の閉鎖等,0,2024-01-19,2024-01-19,株式会社アミティエ,,株式会社,神奈川県,茅ヶ崎市,東海岸南６丁目４番３７ーＢ－３０６号,,14,207,2530054,,,2024-01-19,登記官による閉鎖,,,2015-10-05,1,,,,,,0
3737,9021001011315,登記記録の閉鎖等,0,2024-01-19,2024-01-19,株式会社今仁,,株式会社,神奈川県,相模原市緑区,下九沢１５０７番地９,,14,151,2520134,,,2024-01-19,登記官による閉鎖,,,2015-10-05,1,,,,,,0
3738,9021001018533,登記記録の閉鎖等,0,2024-01-19,2024-01-19,株式会社第一電工,,株式会社,神奈川県,相模原市中央区,陽光台４丁目１番１２号,,14,152,2520226,,,2024-01-19,登記官による閉鎖,,,2015-10-05,1,,,,,,0
3739,9021001028268,登記記録の閉鎖等,0,2024-01-19,2024-01-19,東英不動産株式会社,,株式会社,神奈川県,座間市,立野台３丁目２６番２７号,,14,216,2520023,,,2024-01-19,登記官による閉鎖,,,2015-10-05,1,,,,,,0
3740,9021001028367,登記記録の閉鎖等,0,2024-01-19,2024-01-19,株式会社ノーリツ製作所,,株式会社,神奈川県,海老名市,中新田１丁目２４番２号,,14,215,2430422,,,2024-01-19,登記官による閉鎖,,,2015-10-05,1,,,,,,0
3741,9021001037252,登記記録の閉鎖等,0,2024-01-19,2024-01-19,株式会社百万石,,株式会社,神奈川県,平塚市,紅谷町８番１６－１１０２号サニープラザ平塚,,14,203,2540043,,,2024-01-19,登記官による閉鎖,,,2015-10-05,1,,,,,,0
3742,9021001039967,登記記録の閉鎖等,0,2024-01-19,2024-01-19,株式会社いづみフォート,,株式会社,神奈川県,横須賀市,久里浜４丁目１１番１４号,,14,201,2390831,,,2024-01-19,登記官による閉鎖,,,2015-10-05,1,,,,,,0
3743,9021001043382,登記記録の閉鎖等,0,2024-01-19,2024-01-19,株式会社石渡土木,,株式会社,神奈川県,三浦市,南下浦町金田１５９３番地１８,,14,210,2380103,,,2024-01-19,登記官による閉鎖,,,2015-10-05,1,,,,,,0
3744,9021001045486,登記記録の閉鎖等,0,2024-01-19,2024-01-19,株式会社ライヴズ,,株式会社,神奈川県,小田原市,扇町３丁目５番８号マザーニシマルビル２階,,14,206,2500001,,,2024-01-19,登記官による閉鎖,,,2015-10-05,1,,,,,,0
3745,9021001049396,登記記録の閉鎖等,0,2024-01-19,2024-01-19,株式会社ワイズセレクト,,株式会社,神奈川県,相模原市中央区,水郷田名２丁目１３番３６号,,14,152,2520246,,,2024-01-19,登記官による閉鎖,,,2015-10-05,1,,,,,,0
3749,9021002002916,登記記録の閉鎖等,0,2024-01-19,2024-01-19,有限会社靖邦機工,,有限会社,神奈川県,藤沢市,葛原字宮沼３８６番地,,14,205,2520822,,,2024-01-19,登記官による閉鎖,,,2015-10-05,1,,,,,,0
3750,9021002009911,登記記録の閉鎖等,0,2024-01-19,2024-01-19,有限会社皆川工務所,,有限会社,神奈川県,高座郡寒川町,小動８５６番地１,,14,321,2530102,,,2024-01-19,登記官による閉鎖,,,2015-10-05,1,,,,,,0
3751,9021002014382,登記記録の閉鎖等,0,2024-01-19,2024-01-19,有限会社鎌倉時代,,有限会社,神奈川県,鎌倉市,大船１２７８番地,,14,204,2470056,,,2024-01-19,登記官による閉鎖,,,2015-10-05,1,,,,,,0
3752,9021002016255,登記記録の閉鎖等,0,2024-01-19,2024-01-19,有限会社湘南熱錬,,有限会社,神奈川県,鎌倉市,台１丁目１６番３号,,14,204,2470061,,,2024-01-19,登記官による閉鎖,,,2015-10-05,1,,,,,ショウナンネツレン,0
3753,9021002021049,登記記録の閉鎖等,0,2024-01-19,2024-01-19,有限会社篠崎企画設計,,有限会社,神奈川県,相模原市中央区,田名１９２１番地の４,,14,152,2520244,,,2024-01-19,登記官による閉鎖,,,2015-10-05,1,,,,,,0
3754,9021002022179,登記記録の閉鎖等,0,2024-01-19,2024-01-19,有限会社多田工業,,有限会社,神奈川県,相模原市中央区,田名４３０１番地２,,14,152,2520244,,,2024-01-19,登記官による閉鎖,,,2015-10-05,1,,,,,,0
3755,9021002025693,登記記録の閉鎖等,0,2024-01-19,2024-01-19,有限会社トモエヒューマンサポート,,有限会社,神奈川県,相模原市南区,若松４丁目５番１号グレイスノート１０１,,14,153,2520334,,,2024-01-19,登記官による閉鎖,,,2015-10-05,1,,,,,,0
3756,9021002032401,登記記録の閉鎖等,0,2024-01-19,2024-01-19,有限会社田中青果店,,有限会社,神奈川県,厚木市,幸町５番３号,,14,212,2430012,,,2024-01-19,登記官による閉鎖,,,2015-10-05,1,,,,,,0
3757,9021002035610,登記記録の閉鎖等,0,2024-01-19,2024-01-19,有限会社山梨商店,,有限会社,神奈川県,伊勢原市,伊勢原１丁目２番１３号,,14,214,2591131,,,2024-01-19,登記官による閉鎖,,,2015-10-05,1,,,,,,0
3758,9021002041022,登記記録の閉鎖等,0,2024-01-19,2024-01-19,佐藤輝商事有限会社,,有限会社,神奈川県,大和市,下鶴間２４６番地,,14,213,2420001,,,2024-01-19,登記官による閉鎖,,,2015-10-05,1,,,,,,0
3759,9021002047647,登記記録の閉鎖等,0,2024-01-19,2024-01-19,有限会社メンテナンスアキ,,有限会社,神奈川県,座間市,ひばりが丘３丁目３４番２号,,14,216,2520003,,,2024-01-19,登記官による閉鎖,,,2015-10-05,1,,,,,,0
3760,9021002050155,登記記録の閉鎖等,0,2024-01-19,2024-01-19,有限会社ドミンゴ,,有限会社,神奈川県,足柄下郡湯河原町,土肥５丁目５番地の５,,14,384,2590303,,,2024-01-19,登記官による閉鎖,,,2015-10-05,1,,,,,,0
3761,9021002055360,登記記録の閉鎖等,0,2024-01-19,2024-01-19,オオイ有限会社,,有限会社,神奈川県,足柄上郡大井町,金手１０８３番地,,14,362,2580018,,,2024-01-19,登記官による閉鎖,,,2015-10-05,1,,,,,,0
3762,9021002055476,登記記録の閉鎖等,0,2024-01-19,2024-01-19,有限会社日成工業所,,有限会社,神奈川県,足柄上郡大井町,山田９５７番地４,,14,362,2580015,,,2024-01-19,登記官による閉鎖,,,2015-10-05,1,,,,,,0
3763,9021003003946,登記記録の閉鎖等,0,2024-01-19,2024-01-19,横浜ＳＴＫ保安サービス合同会社,,合同会社,神奈川県,茅ヶ崎市,赤羽根１４４７番地１－２０３号,,14,207,2530001,,,2024-01-19,登記官による閉鎖,,,2015-10-05,1,,,,,,0
3793,9060001029438,登記記録の閉鎖等,0,2024-01-19,2024-01-17,株式会社ショウエイ,,株式会社,栃木県,真岡市,下高間木２丁目１７番地５,,09,209,3214335,,,2024-01-17,清算の結了等,,,2017-05-26,1,,,,,ショウエイ,0
3800,9080101017233,登記記録の閉鎖等,0,2024-01-19,2024-01-17,株式会社スルガサービス,,株式会社,静岡県,沼津市,小諏訪字正改３７番地８,,22,203,4100872,,,2024-01-17,清算の結了等,,,2015-10-05,1,,,,,スルガサービス,0
3812,9080401017940,登記記録の閉鎖等,0,2024-01-19,2024-01-16,株式会社翔建設,,株式会社,静岡県,浜松市中央区,大人見町１２番地の４２２,,22,138,4311112,,,2024-01-16,清算の結了等,,,2015-10-05,1,,,,,カケルケンセツ,0
3863,9120102010678,登記記録の閉鎖等,0,2024-01-19,2024-01-19,有限会社サロンド呱呱,,有限会社,大阪府,堺市北区,新金岡町３丁１番１８－３０１号,,27,146,5918021,,,2024-01-19,清算の結了等,,,2015-10-05,1,,,,,サロンドココ,0
3866,9120901034316,登記記録の閉鎖等,0,2024-01-19,2024-01-15,株式会社アスカカンパニー,,株式会社,大阪府,豊中市,曽根南町３丁目３番１－１０３号,,27,203,5610804,,,2024-01-15,清算の結了等,,,2015-10-05,1,,,,,アスカカンパニー,0
3870,9122002004272,登記記録の閉鎖等,0,2024-01-19,2024-01-18,有限会社樋上産業,00034740,有限会社,大阪府,東大阪市,加納８丁目２番３９号,,27,227,5780901,,,2024-01-18,清算の結了等,,,2015-10-05,1,,,,,ヒノウエサンギョウ,0
3877,9130002024991,登記記録の閉鎖等,0,2024-01-19,2024-01-15,有限会社薮内竹材店,,有限会社,京都府,長岡京市,粟生川久保１番地,,26,209,6170811,,,2024-01-15,清算の結了等,,,2015-10-05,1,,,,,ヤブウチチクザイテン,0
3895,9150001019223,登記記録の閉鎖等,0,2024-01-19,2024-01-17,佐藤農園株式会社,,株式会社,奈良県,高市郡明日香村,大字御園２８５番地の１,,29,402,6340131,,,2024-01-17,合併による解散等,4120101000908,令和６年１月１６日大阪府堺市堺区中田出井町三丁４番２２号株式会社エルマック（4120101000908）に合併し解散,2015-10-05,1,,,,,,0
3901,9180001072731,登記記録の閉鎖等,0,2024-01-19,2024-01-16,シバタ汽缶株式会社,,株式会社,愛知県,名古屋市中村区,竹橋町２７番８号,,23,105,4530016,,,2024-01-16,清算の結了等,,,2015-10-05,1,,,,,シバタキカン,0
3913,9180002026455,登記記録の閉鎖等,0,2024-01-19,2024-01-16,有限会社フジ製作所,,有限会社,愛知県,名古屋市緑区,鳴海町字山下７３番の１,,23,114,4580801,,,2024-01-16,清算の結了等,,,2015-10-05,1,,,,,フジセイサクジョ,0
3920,9180003019607,登記記録の閉鎖等,0,2024-01-19,2024-01-11,合同会社Ｐ＆Ｒ,,合同会社,愛知県,知多郡武豊町,字多賀２丁目６番地,,23,447,4702361,,,2024-01-11,清算の結了等,,,2019-01-21,1,,,,,ピーアンドアール,0
3924,9200001003790,登記記録の閉鎖等,0,2024-01-19,2024-01-19,株式会社東洋商会,,株式会社,岐阜県,岐阜市,長森岩戸７８２番地の２,,21,201,5008229,,,2024-01-19,登記官による閉鎖,,,2015-10-05,1,,,,,,0
3925,9200001006389,登記記録の閉鎖等,0,2024-01-19,2024-01-19,アサヒ電子株式会社,,株式会社,岐阜県,岐阜市,石谷１１７７番地,,21,201,5011106,,,2024-01-19,登記官による閉鎖,,,2015-10-05,1,,,,,,0
3926,9200001011769,登記記録の閉鎖等,0,2024-01-19,2024-01-19,株式会社味工房,,株式会社,岐阜県,岐阜市,長森本町２丁目９番８－３０５号,,21,201,5008228,,,2024-01-19,登記官による閉鎖,,,2015-10-05,1,,,,,,0
3927,9200001019201,登記記録の閉鎖等,0,2024-01-19,2024-01-19,下之保林産株式会社,,株式会社,岐阜県,関市,下之保２８２０番地の１,,21,205,5013521,,,2024-01-19,登記官による閉鎖,,,2015-10-05,1,,,,,,0
3928,9200001020885,登記記録の閉鎖等,0,2024-01-19,2024-01-19,株式会社中山製陶所,,株式会社,岐阜県,多治見市,平井町６丁目１５番地の１,,21,204,5070058,,,2024-01-19,登記官による閉鎖,,,2015-10-05,1,,,,,,0
3930,9200002027343,登記記録の閉鎖等,0,2024-01-19,2024-01-19,有限会社平井ベース工業,,有限会社,岐阜県,下呂市,萩原町大ヶ洞１１１０番地の２,,21,220,5092512,,,2024-01-19,登記官による閉鎖,,,2015-10-05,1,,,,,,0
3931,9200003002097,登記記録の閉鎖等,0,2024-01-19,2024-01-19,合資会社晴嵐社,,合資会社,岐阜県,可児市,緑１丁目６９番地,,21,214,5090263,,,2024-01-19,登記官による閉鎖,,,2015-10-05,1,,,,,,0
3932,9200005007136,登記記録の閉鎖等,0,2024-01-19,2024-01-19,岐阜県振興産業協同組合,,その他の設立登記法人,岐阜県,加茂郡川辺町,上川辺４９５番地,,21,503,5090302,,,2024-01-19,登記官による閉鎖,,,2015-10-05,1,,,,,,0
3933,9200005007227,登記記録の閉鎖等,0,2024-01-19,2024-01-19,可茂建築解体処理協同組合,,その他の設立登記法人,岐阜県,美濃加茂市,牧野２３９１番地１,,21,211,5050016,,,2024-01-19,登記官による閉鎖,,,2015-10-05,1,,,,,,0
3962,9300002006675,登記記録の閉鎖等,0,2024-01-19,2024-01-18,有限会社伊東時計店,,有限会社,佐賀県,鹿島市,大字高津原３９７３番地の１,,41,207,8491311,,,2024-01-18,清算の結了等,,,2015-10-05,1,,,,,,0
3963,9310001003821,登記記録の閉鎖等,0,2024-01-19,2024-01-11,株式会社ｂｅｇｉｎ,,株式会社,長崎県,長崎市,岩川町２番４号,,42,201,8528106,,,2024-01-11,登記官による閉鎖,,,2015-10-05,1,,,,,,0
3964,9310001005900,登記記録の閉鎖等,0,2024-01-19,2024-01-11,株式会社万松楼トラスト,,株式会社,長崎県,佐世保市,谷郷町５番３２号,,42,202,8570027,,,2024-01-11,登記官による閉鎖,,,2015-10-05,1,,,,,,0
3965,9310002014272,登記記録の閉鎖等,0,2024-01-19,2024-01-11,有限会社牧山塗装工業,,有限会社,長崎県,佐世保市,大和町１１４６番地１０,,42,202,8571165,,,2024-01-11,登記官による閉鎖,,,2015-10-05,1,,,,,,0
3966,9310002015171,登記記録の閉鎖等,0,2024-01-19,2024-01-11,有限会社三和コンサル,,有限会社,長崎県,大村市,杭出津２丁目６９６番地１,,42,205,8560828,,,2024-01-11,登記官による閉鎖,,,2015-10-05,1,,,,,,0
3967,9310003002227,登記記録の閉鎖等,0,2024-01-19,2024-01-11,合同会社創和,,合同会社,長崎県,松浦市,志佐町浦免１９７番地１９,,42,208,8594501,,,2024-01-11,登記官による閉鎖,,,2015-10-05,1,,,,,,0
3968,9330001010262,登記記録の閉鎖等,0,2024-01-19,2024-01-19,株式会社三容企画,,株式会社,熊本県,山鹿市,中央通８０６番地,,43,208,8610516,,,2024-01-19,登記官による閉鎖,,,2015-10-05,1,,,,,,0
3969,9330001010964,登記記録の閉鎖等,0,2024-01-19,2024-01-19,株式会社矢部観光,,株式会社,熊本県,上益城郡山都町,下馬尾３５７番地の１,,43,447,8613512,,,2024-01-19,登記官による閉鎖,,,2015-10-05,1,,,,,,0
3970,9330001011888,登記記録の閉鎖等,0,2024-01-19,2024-01-19,株式会社萬新センター本店,,株式会社,熊本県,熊本市北区,清水万石１丁目９番５号,,43,105,8618068,,,2024-01-19,登記官による閉鎖,,,2015-10-05,1,,,,,,0
3972,9330001017646,登記記録の閉鎖等,0,2024-01-19,2024-01-19,株式会社Ｓｗａｎ,,株式会社,熊本県,熊本市中央区,下通２丁目１番２０号,,43,101,8600807,,,2024-01-19,登記官による閉鎖,,,2015-10-05,1,,,,,,0
3973,9330001017984,登記記録の閉鎖等,0,2024-01-19,2024-01-19,株式会社Ｆａｌｌ　ｉｎ,,株式会社,熊本県,熊本市中央区,水前寺１丁目１５番２号,,43,101,8620950,,,2024-01-19,登記官による閉鎖,,,2015-10-05,1,,,,,,0
3975,9330002005006,登記記録の閉鎖等,0,2024-01-19,2024-01-19,有限会社進拓技術研究所,,有限会社,熊本県,熊本市中央区,水前寺１丁目１０番１号奥村ビル,,43,101,8620950,,,2024-01-19,登記官による閉鎖,,,2015-10-05,1,,,,,,0
3976,9330002008198,登記記録の閉鎖等,0,2024-01-19,2024-01-19,有限会社パーマハウス公園通り,,有限会社,熊本県,熊本市東区,花立３丁目２１番１５号,,43,102,8612118,,,2024-01-19,登記官による閉鎖,,,2015-10-05,1,,,,,,0
3977,9330002013594,登記記録の閉鎖等,0,2024-01-19,2024-01-19,有限会社エスアイリサーチ,,有限会社,熊本県,熊本市北区,龍田４丁目２６番３号,,43,105,8618006,,,2024-01-19,登記官による閉鎖,,,2015-10-05,1,,,,,,0
3978,9330002028048,登記記録の閉鎖等,0,2024-01-19,2024-01-19,有限会社アルブスコーポレーション,,有限会社,熊本県,熊本市中央区,新町２丁目７番１号,,43,101,8600004,,,2024-01-19,登記官による閉鎖,,,2015-10-05,1,,,,,,0
3979,9330002028056,登記記録の閉鎖等,0,2024-01-19,2024-01-19,有限会社ＣＲＯＳＳ,,有限会社,熊本県,熊本市中央区,下通２丁目１番２１号,,43,101,8600807,,,2024-01-19,登記官による閉鎖,,,2015-10-05,1,,,,,,0
3983,9330005001720,登記記録の閉鎖等,0,2024-01-19,2024-01-19,特定非営利活動法人孫の手,,その他の設立登記法人,熊本県,熊本市中央区,新町３丁目４番２号兵庫屋ビル２０２号,,43,101,8600004,,,2024-01-19,登記官による閉鎖,,,2015-10-05,1,,,,,,0
3984,9330005003023,登記記録の閉鎖等,0,2024-01-19,2024-01-19,菊池酪農牧野改良農事組合法人,,その他の設立登記法人,熊本県,菊池市,隈府７２６番地１,,43,210,8611331,,,2024-01-19,登記官による閉鎖,,,2015-10-05,1,,,,,,0
3985,9330005005408,登記記録の閉鎖等,0,2024-01-19,2024-01-19,農事組合法人不知火町酪農組合,,その他の設立登記法人,熊本県,宇城市,不知火町高良１０８１番地,,43,213,8690552,,,2024-01-19,登記官による閉鎖,,,2015-10-05,1,,,,,,0
3989,9340005001158,登記記録の閉鎖等,0,2024-01-19,2024-01-16,医療法人寿陽会,,その他の設立登記法人,鹿児島県,鹿児島市,武１丁目１３番７号,,46,201,8900045,,,2024-01-16,清算の結了等,,,2015-10-05,1,,,,,ジュヨウカイ,0
3995,9370005003069,登記記録の閉鎖等,0,2024-01-19,2024-01-17,特定非営利活動法人ソイプラム,,その他の設立登記法人,宮城県,仙台市青葉区,中山４丁目１３番１８号,,04,101,9810952,,,2024-01-17,清算の結了等,,,2015-10-05,1,,,,,ソイプラム,0
4003,9400602000506,登記記録の閉鎖等,0,2024-01-19,2024-01-12,有限会社東京ドレス,,有限会社,岩手県,奥州市,水沢台町３番３８号,,03,215,0230825,,,2024-01-12,清算の結了等,,,2015-10-05,1,,,,,トウキョウドレス,0
4004,9410001006780,登記記録の閉鎖等,0,2024-01-19,2024-01-18,ＣＳＥ株式会社,,株式会社,秋田県,鹿角市,八幡平字大里下モ川原２００番地１,,05,209,0185141,,,2024-01-18,登記官による閉鎖,,,2015-10-05,1,,,,,,0
4005,9410002002382,登記記録の閉鎖等,0,2024-01-19,2024-01-18,有限会社大和工業所,,有限会社,秋田県,秋田市,豊岩豊巻字居使４８番地,,05,201,0101652,,,2024-01-18,登記官による閉鎖,,,2015-10-05,1,,,,,,0
4006,9410005003997,登記記録の閉鎖等,0,2024-01-19,2024-01-18,農事組合法人のしろ白鳥村,,その他の設立登記法人,秋田県,能代市,檜山字新田家ノ前９７番地,,05,202,0160151,,,2024-01-18,登記官による閉鎖,,,2015-10-05,1,,,,,,0
4014,9450001005721,登記記録の閉鎖等,0,2024-01-19,2024-01-18,シティクリエイト株式会社,,株式会社,北海道,旭川市,東光六条５丁目２番９号,,01,204,0788346,,,2024-01-18,清算の結了等,,,2015-10-05,1,,,,,,0
4016,9460401000123,登記記録の閉鎖等,0,2024-01-19,2024-01-18,株式会社洲崎組,,株式会社,北海道,根室市,平内町４丁目１２番地,,01,223,0870048,,,2024-01-18,登記官による閉鎖,,,2015-10-05,1,,,,,,0
4017,9460405000020,登記記録の閉鎖等,0,2024-01-19,2024-01-18,根室厚生企業組合,,その他の設立登記法人,北海道,根室市,光洋町２丁目２０番地,,01,223,0870004,,,2024-01-18,登記官による閉鎖,,,2015-10-05,1,,,,,,0
4027,9700150108266,登記記録の閉鎖等,0,2024-01-19,2023-09-29,珠スタ,,その他,東京都,練馬区,春日町４丁目２４－１,,13,120,1790074,,,2023-09-29,その他の清算の結了等,,,2022-04-22,1,,,,,タマスタ,0
