sequenceNumber,corporateNumber,process,correct,updateDate,changeDate,name,nameImageId,kind,prefectureName,cityName,streetNumber,addressImageId,prefectureCode,cityCode,postCode,addressOutside,addressOutsideImageId,closeDate,closeCause,successorCorporateNumber,changeCause,assignmentDate,latest,enName,enPrefectureName,enCityName,enAddressOutside,furigana,hihyoji
5,1010001167729,登記記録の閉鎖等,0,2024-01-16,2024-01-05,株式会社先進医学研究所,,株式会社,東京都,千代田区,麹町５丁目３番地１,,13,101,1020083,,,2024-01-05,清算の結了等,,,2015-10-05,1,,,,,センシンイガクケンキュウショ,0
14,1010101006943,登記記録の閉鎖等,0,2024-01-16,2024-01-12,紀州建設株式会社,,株式会社,東京都,八王子市,川口町１７００番地１２,,13,201,1930801,,,2024-01-12,清算の結了等,,,2015-10-05,1,,,,,キシュウケンセツ,0
27,1010401156884,登記記録の閉鎖等,0,2024-01-16,2024-01-04,ＶｉｓｉｏｎＤａｔａ株式会社,,株式会社,東京都,港区,南青山２丁目２番１５号ＷＩＮ青山５３１,,13,103,1070062,,,2024-01-04,清算の結了等,,,2020-12-07,1,,,,,ビジョンデータ,0
34,1010403021137,登記記録の閉鎖等,0,2024-01-16,2024-01-04,合同会社アストロナージ鈴鹿３,,合同会社,東京都,港区,芝公園１丁目１番１２号芝公園電気ビルディング６階,,13,103,1050011,,,2024-01-04,清算の結了等,,,2019-07-25,1,,,,,アストロナージスズカスリー,0
49,1011001142861,登記記録の閉鎖等,0,2024-01-16,2024-01-09,Ｅ－ｂｏｘ株式会社,,株式会社,東京都,渋谷区,恵比寿南３丁目９番３５号ワクセル恵比寿,,13,113,1500022,,,2024-01-09,清算の結了等,,,2021-09-21,1,,,,,エボックス,0
71,1011801034787,登記記録の閉鎖等,0,2024-01-16,2024-01-10,株式会社ＬＩＢＲＡ,,株式会社,東京都,渋谷区,南平台町２番１３号大崎ビル８０１号,,13,113,1500036,,,2024-01-10,清算の結了等,,,2018-06-04,1,,,,,リブラ,0
74,1011805000471,登記記録の閉鎖等,0,2024-01-16,2023-12-21,天理教本導齋分教会,,その他の設立登記法人,東京都,葛飾区,柴又４丁目２２番７号,,13,122,1250052,,,2023-12-21,合併による解散等,7011805000482,令和５年１２月２１日東京都葛飾区東水元二丁目３５番１６号天理教本導分教会（7011805000482）に合併し解散,2015-10-05,1,,,,,テンリキョウホンドウサイブンキョウカイ,0
75,1011805002600,登記記録の閉鎖等,0,2024-01-16,2024-01-11,一般社団法人日本盆景協会,,その他の設立登記法人,東京都,足立区,東和５丁目１４－１２－１１０１,,13,121,1200003,,,2024-01-11,清算の結了等,,,2016-08-15,1,,,,,ニホンボンケイキョウカイ,0
81,1012801007989,登記記録の閉鎖等,0,2024-01-16,2024-01-05,株式会社アジアネット教育研究所,,株式会社,東京都,立川市,曙町２丁目９番８号大黒屋ビルヂング７階,00058856,13,202,1900012,,,2024-01-05,清算の結了等,,,2015-10-05,1,,,,,アジアネットキョウイクケンキュウショ,0
96,1020001128192,登記記録の閉鎖等,0,2024-01-16,2024-01-10,Ｖａｓａｙｏ　Ｊａｐａｎ株式会社,,株式会社,神奈川県,川崎市多摩区,枡形３丁目５番１９－７０１号,,14,135,2140032,,,2024-01-10,清算の結了等,,,2018-10-05,1,,,,,ヴァサヨジャパン,0
100,1021002032383,登記記録の閉鎖等,0,2024-01-16,2024-01-10,有限会社田尻左官工業,,有限会社,神奈川県,厚木市,下荻野１３０１番地の２,,14,212,2430203,,,2024-01-10,清算の結了等,,,2015-10-05,1,,,,,タジリサカンコウギョウ,0
101,1021002038315,登記記録の閉鎖等,0,2024-01-16,2024-01-11,有限会社西湘測機サービス,,有限会社,神奈川県,秦野市,西田原４８番地の１２,,14,211,2570027,,,2024-01-11,清算の結了等,,,2015-10-05,1,,,,,セイショウソッキサービス,0
118,1030005010809,登記記録の閉鎖等,0,2024-01-16,2023-12-18,白山神社,,その他の設立登記法人,埼玉県,坂戸市,大字赤尾１６６８番地,,11,239,3500201,,,2023-12-18,合併による解散等,2030005010824,令和５年１２月１８日埼玉県坂戸市大字赤尾１６６８番地１八坂神社（2030005010824）に合併し解散,2015-10-05,1,,,,,ハクサンジンジャ,0
132,1060001023860,登記記録の閉鎖等,0,2024-01-16,2024-01-10,健康ライフ株式会社,,株式会社,栃木県,宇都宮市,道場宿町１１２２番地,,09,201,3213237,,,2024-01-10,清算の結了等,,,2015-10-05,1,,,,,ケンコウライフ,0
139,1080001024386,登記記録の閉鎖等,0,2024-01-16,2024-01-15,壱産業株式会社,,株式会社,静岡県,静岡市葵区,西草深町６番３９号,,22,101,4200866,,,2024-01-15,清算の結了等,,,2021-08-17,1,,,,,イチサンギョウ,0
181,1120001044826,登記記録の閉鎖等,0,2024-01-16,2024-01-09,株式会社大一美装,,株式会社,大阪府,大阪市西区,本田１丁目５番３０号,,27,106,5500022,,,2024-01-09,清算の結了等,,,2015-10-05,1,,,,,ダイイチビソウ,0
187,1120001210411,登記記録の閉鎖等,0,2024-01-16,2024-01-15,株式会社Ｒｏｏｆ　Ｅｎｅｒｇｙ,,株式会社,大阪府,松原市,立部２丁目２２０番地の４,,27,217,5800012,,,2024-01-15,清算の結了等,,,2017-12-28,1,,,,,ルーフエナジー,0
198,1120005008620,登記記録の閉鎖等,0,2024-01-16,2024-01-11,特定非営利活動法人モレキュラーインフォマティクス機構,,その他の設立登記法人,大阪府,大阪市中央区,馬場町１－８－５０１,,27,128,5400007,,,2024-01-11,清算の結了等,,,2015-10-05,1,,,,,モレキュラーインフォマティクスキコウ,0
209,1140002055300,登記記録の閉鎖等,0,2024-01-16,2024-01-09,有限会社アステックワン,,有限会社,兵庫県,三田市,狭間が丘２丁目１３番地１,,28,219,6691545,,,2024-01-09,清算の結了等,,,2015-10-05,1,,,,,アステックワン,0
211,1140003005691,登記記録の閉鎖等,0,2024-01-16,2024-01-10,合資会社トミヤ,,合資会社,兵庫県,明石市,大久保町高丘５丁目２番地の３,,28,203,6740057,,,2024-01-10,清算の結了等,,,2015-10-05,1,,,,,トミヤ,0
219,1180001029672,登記記録の閉鎖等,0,2024-01-16,2024-01-16,株式会社おいせ堂,,株式会社,愛知県,名古屋市中村区,井深町４番３８号,,23,105,4530012,,,2024-01-16,登記官による閉鎖,,,2015-10-05,1,,,,,,0
220,1180001052402,登記記録の閉鎖等,0,2024-01-16,2024-01-16,株式会社瑞商事,,株式会社,愛知県,西春日井郡豊山町,大字豊場字八反１２０番地の１,,23,342,4800202,,,2024-01-16,登記官による閉鎖,,,2015-10-05,1,,,,,,0
221,1180001062888,登記記録の閉鎖等,0,2024-01-16,2024-01-16,株式会社ＥＳＡ,,株式会社,愛知県,名古屋市千種区,千種２丁目２２番８号名古屋医工連携インキュベータ３０８,,23,101,4640858,,,2024-01-16,登記官による閉鎖,,,2015-10-05,1,,,,,,0
222,1180001085311,登記記録の閉鎖等,0,2024-01-16,2024-01-16,株式会社江嶋,,株式会社,愛知県,一宮市,千秋町町屋字北若野６番地１,,23,203,4910813,,,2024-01-16,登記官による閉鎖,,,2015-10-05,1,,,,,,0
223,1180001086821,登記記録の閉鎖等,0,2024-01-16,2024-01-16,株式会社ＦＵＭＡ,,株式会社,愛知県,一宮市,千秋町天摩５番地,,23,203,4910817,,,2024-01-16,登記官による閉鎖,,,2015-10-05,1,,,,,,0
224,1180001089849,登記記録の閉鎖等,0,2024-01-16,2024-01-16,株式会社インタシティー,,株式会社,愛知県,小牧市,小木５丁目２８９番２,,23,219,4850058,,,2024-01-16,登記官による閉鎖,,,2015-10-05,1,,,,,,0
225,1180001090088,登記記録の閉鎖等,0,2024-01-16,2024-01-16,株式会社萬屋建築工房,,株式会社,愛知県,名古屋市天白区,中平３丁目１７０７番地,,23,116,4680014,,,2024-01-16,登記官による閉鎖,,,2015-10-05,1,,,,,,0
226,1180001090377,登記記録の閉鎖等,0,2024-01-16,2024-01-16,株式会社グランドヘリックス,,株式会社,愛知県,名古屋市中村区,竹橋町２０番１２号,,23,105,4530016,,,2024-01-16,登記官による閉鎖,,,2015-10-05,1,,,,,,0
227,1180001098486,登記記録の閉鎖等,0,2024-01-16,2024-01-16,株式会社宮城運輸,,株式会社,愛知県,あま市,二ツ寺六町１１番地,,23,237,4901207,,,2024-01-16,登記官による閉鎖,,,2015-10-05,1,,,,,,0
228,1180001101225,登記記録の閉鎖等,0,2024-01-16,2024-01-16,株式会社ハッピースタイル,,株式会社,愛知県,一宮市,三条字道東８３番地１,,23,203,4940003,,,2024-01-16,登記官による閉鎖,,,2015-10-05,1,,,,,,0
229,1180001101448,登記記録の閉鎖等,0,2024-01-16,2024-01-16,株式会社タイヨウ,,株式会社,愛知県,名古屋市緑区,鳴海町字上ノ山９１番地の３,,23,114,4580842,,,2024-01-16,登記官による閉鎖,,,2015-10-05,1,,,,,,0
231,1180002000871,登記記録の閉鎖等,0,2024-01-16,2024-01-16,宗家岡田流大正琴有限会社,,有限会社,愛知県,名古屋市守山区,金屋２丁目１４２番地,,23,113,4630072,,,2024-01-16,登記官による閉鎖,,,2015-10-05,1,,,,,,0
232,1180002005887,登記記録の閉鎖等,0,2024-01-16,2023-12-19,有限会社金岡,,有限会社,愛知県,名古屋市港区,宝神４丁目１２２１番地,,23,111,4550832,,,2023-12-19,清算の結了等,,,2015-10-05,1,,,,,カナオカ,0
233,1180002007363,登記記録の閉鎖等,0,2024-01-16,2024-01-16,有限会社山田商店,,有限会社,愛知県,名古屋市港区,惟信町４丁目１５番地の９,,23,111,4550823,,,2024-01-16,登記官による閉鎖,,,2015-10-05,1,,,,,,0
234,1180002012388,登記記録の閉鎖等,0,2024-01-16,2024-01-16,有限会社飛騨商事,,有限会社,愛知県,名古屋市北区,志賀町５丁目１０番地志賀住宅２０７号,,23,103,4620037,,,2024-01-16,登記官による閉鎖,,,2015-10-05,1,,,,,,0
235,1180002013378,登記記録の閉鎖等,0,2024-01-16,2024-01-16,有限会社大原合成,,有限会社,愛知県,名古屋市南区,南野２丁目３２５番地,,23,112,4570068,,,2024-01-16,登記官による閉鎖,,,2015-10-05,1,,,,,,0
236,1180002013477,登記記録の閉鎖等,0,2024-01-16,2024-01-16,有限会社環亜,,有限会社,愛知県,名古屋市南区,大堀町３番２２号,,23,112,4570002,,,2024-01-16,登記官による閉鎖,,,2015-10-05,1,,,,,,0
238,1180002024904,登記記録の閉鎖等,0,2024-01-16,2024-01-16,有限会社名和食品,,有限会社,愛知県,名古屋市西区,城西３丁目７番３号,,23,104,4510031,,,2024-01-16,登記官による閉鎖,,,2015-10-05,1,,,,,,0
239,1180002047789,登記記録の閉鎖等,0,2024-01-16,2024-01-16,有限会社日新ホームサービス,,有限会社,愛知県,名古屋市中川区,草平町２丁目１３番地の１,,23,110,4540868,,,2024-01-16,登記官による閉鎖,,,2015-10-05,1,,,,,,0
240,1180002055123,登記記録の閉鎖等,0,2024-01-16,2024-01-16,有限会社タナカ,,有限会社,愛知県,名古屋市守山区,茶臼前１２番２８号,,23,113,4630012,,,2024-01-16,登記官による閉鎖,,,2015-10-05,1,,,,,,0
241,1180002059990,登記記録の閉鎖等,0,2024-01-16,2024-01-10,有限会社荒木商店,,有限会社,愛知県,名古屋市南区,弥次ヱ町２丁目２５番地ユーハウス前浜通２０４号,,23,112,4570821,,,2024-01-10,清算の結了等,,,2015-10-05,1,,,,,アラキショウテン,0
242,1180002074767,登記記録の閉鎖等,0,2024-01-16,2024-01-16,有限会社家具の千代田,,有限会社,愛知県,犬山市,字西北野１２５番地の４,,23,215,4840905,,,2024-01-16,登記官による閉鎖,,,2015-10-05,1,,,,,,0
243,1180002084155,登記記録の閉鎖等,0,2024-01-16,2024-01-16,有限会社ワタナベ設備,,有限会社,愛知県,半田市,勘内町３６番地,,23,205,4750877,,,2024-01-16,登記官による閉鎖,,,2015-10-05,1,,,,,,0
244,1180002085310,登記記録の閉鎖等,0,2024-01-16,2024-01-16,有限会社オダ自動車,,有限会社,愛知県,知多郡東浦町,大字藤江字上廻間１２７番地の２,,23,442,4702105,,,2024-01-16,登記官による閉鎖,,,2015-10-05,1,,,,,,0
245,1180003009895,登記記録の閉鎖等,0,2024-01-16,2024-01-16,合同会社メディカルデータマインド,,合同会社,愛知県,名古屋市北区,城見通３丁目９番地３,,23,103,4620046,,,2024-01-16,登記官による閉鎖,,,2015-10-05,1,,,,,,0
246,1180003013955,登記記録の閉鎖等,0,2024-01-16,2024-01-16,合同会社ＴＨ,,合同会社,愛知県,半田市,旭町４丁目７番地の７,,23,205,4750838,,,2024-01-16,登記官による閉鎖,,,2015-10-05,1,,,,,,0
247,1180003014540,登記記録の閉鎖等,0,2024-01-16,2024-01-16,ジェーシービー合同会社,,合同会社,愛知県,一宮市,真清田２丁目４番８号,,23,203,4910043,,,2024-01-16,登記官による閉鎖,,,2015-10-05,1,,,,,,0
248,1180005007154,登記記録の閉鎖等,0,2024-01-16,2024-01-16,特定非営利活動法人中部環境保全システム,,その他の設立登記法人,愛知県,名古屋市中川区,上高畑１丁目２９番地の２高畑ハイツ２０１号,,23,110,4540873,,,2024-01-16,登記官による閉鎖,,,2015-10-05,1,,,,,,0
249,1180301004706,登記記録の閉鎖等,0,2024-01-16,2024-01-16,株式会社Ｋ２ラインズ,,株式会社,愛知県,岡崎市,井ノ口新町３番地１０,,23,202,4442132,,,2024-01-16,登記官による閉鎖,,,2015-10-05,1,,,,,,0
250,1180301007320,登記記録の閉鎖等,0,2024-01-16,2024-01-04,株式会社宮林工務店,,株式会社,愛知県,豊橋市,飯村町字寺前９５番地の５,,23,201,4400836,,,2024-01-04,清算の結了等,,,2015-10-05,1,,,,,ミヤバヤシコウムテン,0
251,1180301008640,登記記録の閉鎖等,0,2024-01-16,2024-01-16,コアエンタープライズ株式会社,,株式会社,愛知県,豊橋市,下地町字橋口１４８番地３,,23,201,4400086,,,2024-01-16,登記官による閉鎖,,,2015-10-05,1,,,,,,0
252,1180301021379,登記記録の閉鎖等,0,2024-01-16,2024-01-16,アクア・クローバー・ジャパン株式会社,,株式会社,愛知県,豊田市,北一色町石畑４３８番地,,23,211,4700453,,,2024-01-16,登記官による閉鎖,,,2015-10-05,1,,,,,,0
254,1180302006544,登記記録の閉鎖等,0,2024-01-16,2024-01-16,植田製材有限会社,,有限会社,愛知県,豊橋市,植田町字中ノ堀６８番地,,23,201,4418134,,,2024-01-16,登記官による閉鎖,,,2015-10-05,1,,,,,,0
255,1180302009852,登記記録の閉鎖等,0,2024-01-16,2024-01-16,有限会社マルオショップ,,有限会社,愛知県,豊橋市,東脇４丁目２０番地の７,,23,201,4418083,,,2024-01-16,登記官による閉鎖,,,2015-10-05,1,,,,,,0
256,1180302020355,登記記録の閉鎖等,0,2024-01-16,2024-01-16,有限会社浅井勝事務所,,有限会社,愛知県,高浜市,神明町７丁目１３番地１２,,23,227,4441305,,,2024-01-16,登記官による閉鎖,,,2015-10-05,1,,,,,,0
257,1180302020917,登記記録の閉鎖等,0,2024-01-16,2024-01-04,有限会社ＦＰコンサルティング,,有限会社,愛知県,知立市,山町中畑１３番地４,,23,225,4720006,,,2024-01-04,清算の結了等,,,2015-10-05,1,,,,,エフピーコンサルティング,0
258,1180302021080,登記記録の閉鎖等,0,2024-01-16,2024-01-16,有限会社ａプラス,,有限会社,愛知県,刈谷市,野田町北屋敷１５７番地２,,23,210,4480803,,,2024-01-16,登記官による閉鎖,,,2015-10-05,1,,,,,,0
259,1180302025478,登記記録の閉鎖等,0,2024-01-16,2024-01-16,有限会社サウスエンタテイメント,,有限会社,愛知県,豊田市,今町７丁目２１番地,,23,211,4710823,,,2024-01-16,登記官による閉鎖,,,2015-10-05,1,,,,,,0
260,1180302027714,登記記録の閉鎖等,0,2024-01-16,2024-01-16,有限会社田口左官,,有限会社,愛知県,新城市,稲木９２１番地の７,,23,221,4411351,,,2024-01-16,登記官による閉鎖,,,2015-10-05,1,,,,,,0
261,1180303002807,登記記録の閉鎖等,0,2024-01-16,2024-01-16,合資会社橋文精肉店,,合資会社,愛知県,西尾市,吉良町富好新田蔵井戸３８番地,,23,213,4440515,,,2024-01-16,登記官による閉鎖,,,2015-10-05,1,,,,,,0
262,1180305005238,登記記録の閉鎖等,0,2024-01-16,2024-01-16,特定非営利活動法人ＡＣＢＪ,,その他の設立登記法人,愛知県,知立市,昭和９丁目２番地知立団地７４棟７号,,23,225,4720011,,,2024-01-16,登記官による閉鎖,,,2015-10-05,1,,,,,,0
271,1210001009175,登記記録の閉鎖等,0,2024-01-16,2024-01-16,株式会社ふくい旅倶楽部,,株式会社,福井県,福井市,宝永２丁目４番３号,,18,201,9100004,,,2024-01-16,登記官による閉鎖,,,2015-10-05,1,,,,,,0
272,1210001013202,登記記録の閉鎖等,0,2024-01-16,2024-01-16,株式会社福岡造園,,株式会社,福井県,鯖江市,下新庄町５３号５４番地,,18,207,9160034,,,2024-01-16,登記官による閉鎖,,,2015-10-05,1,,,,,,0
273,1210002003318,登記記録の閉鎖等,0,2024-01-16,2024-01-16,有限会社ベストサイン,,有限会社,福井県,福井市,米松２丁目２１－４７,,18,201,9100851,,,2024-01-16,登記官による閉鎖,,,2015-10-05,1,,,,,,0
281,1240002015608,登記記録の閉鎖等,0,2024-01-16,2024-01-05,有限会社マツダエージエンシー,,有限会社,広島県,広島市南区,東雲本町１丁目１番７号,,34,103,7340023,,,2024-01-05,清算の結了等,,,2015-10-05,1,,,,,マツダエージェンシー,0
282,1240002033304,登記記録の閉鎖等,0,2024-01-16,2024-01-04,タカサゴ産業有限会社,,有限会社,広島県,呉市,海岸１丁目１２番２０号,,34,202,7370823,,,2024-01-04,清算の結了等,,,2015-10-05,1,,,,,タカサゴサンギョウ,0
288,1260001012785,登記記録の閉鎖等,0,2024-01-16,2024-01-15,株式会社岡山ウッドハウス,,株式会社,岡山県,倉敷市,四十瀬３０８番地の８,,33,202,7100835,,,2024-01-15,清算の結了等,,,2015-10-05,1,,,,,オカヤマウッドハウス,0
309,1340005009084,登記記録の閉鎖等,0,2024-01-16,2023-12-22,行政書士法人ＨＩＴＯＴＯパートナーズ,,その他の設立登記法人,鹿児島県,薩摩川内市,平佐町１６７７番地１,,46,215,8950012,,,2023-12-22,合併による解散等,9010405015030,令和５年１２月１９日大阪市北区太融寺町３番２４号ミカタ行政書士法人（9010405015030）に合併し解散,2019-11-12,1,,,,,ヒトトパートナーズ,0
318,1400001000783,登記記録の閉鎖等,0,2024-01-16,2024-01-10,城西レミコン株式会社,,株式会社,岩手県,盛岡市,下太田沢田２３番地,,03,201,0200051,,,2024-01-10,登記官による閉鎖,,,2015-10-05,1,,,,,,0
319,1400001010106,登記記録の閉鎖等,0,2024-01-16,2024-01-10,株式会社一徳商事,,株式会社,岩手県,滝沢市,黒沢１００番地３,,03,216,0200646,,,2024-01-10,登記官による閉鎖,,,2015-10-05,1,,,,,,0
320,1400002002655,登記記録の閉鎖等,0,2024-01-16,2024-01-10,有限会社ビジネスインテリジェンスコーポレーション,,有限会社,岩手県,盛岡市,紺屋町２番１２号,,03,201,0200885,,,2024-01-10,登記官による閉鎖,,,2015-10-05,1,,,,,,0
321,1400002005014,登記記録の閉鎖等,0,2024-01-16,2024-01-10,有限会社智徳事務所,,有限会社,岩手県,盛岡市,西松園４丁目１８番６号,,03,201,0200103,,,2024-01-10,登記官による閉鎖,,,2015-10-05,1,,,,,,0
322,1400505000346,登記記録の閉鎖等,0,2024-01-16,2024-01-10,特定非営利活動法人グリーンハート,,その他の設立登記法人,岩手県,一関市,花泉町油島字砂押７５番地,,03,209,0293207,,,2024-01-10,登記官による閉鎖,,,2015-10-05,1,,,,,,0
323,1400605000295,登記記録の閉鎖等,0,2024-01-16,2024-01-10,農事組合法人玉里葉タバコ生産組合,,その他の設立登記法人,岩手県,奥州市,江刺玉里字大松沢１３６番地５,,03,215,0231134,,,2024-01-10,登記官による閉鎖,,,2015-10-05,1,,,,,,0
329,1450002004671,登記記録の閉鎖等,0,2024-01-16,2024-01-12,有限会社ビューテイサロンびりゅう,,有限会社,北海道,旭川市,六条通８丁目右４号,,01,204,0700036,,,2024-01-12,清算の結了等,,,2015-10-05,1,,,,,ビューテイサロンビリュウ,0
331,1470001019099,登記記録の閉鎖等,0,2024-01-16,2024-01-12,株式会社へそグループ,,株式会社,香川県,高松市,瀬戸内町３０番７３号,,37,201,7600012,,,2024-01-12,清算の結了等,,,2022-05-30,1,,,,,ヘソグループ,0
334,1480002004537,登記記録の閉鎖等,0,2024-01-16,2024-01-12,有限会社細井商店,,有限会社,徳島県,徳島市,新町橋２丁目３０番地２,,36,201,7700904,,,2024-01-12,清算の結了等,,,2015-10-05,1,,,,,ホソイショウテン,0
336,1500001007397,登記記録の閉鎖等,0,2024-01-16,2024-01-15,株式会社ＢＣプランニング,,株式会社,愛媛県,東温市,志津川１２９番地,,38,215,7910204,,,2024-01-15,登記官による閉鎖,,,2015-10-05,1,,,,,,0
337,1500001012265,登記記録の閉鎖等,0,2024-01-16,2024-01-15,株式会社文林堂,,株式会社,愛媛県,今治市,常盤町２丁目５番地１４,,38,202,7940015,,,2024-01-15,登記官による閉鎖,,,2015-10-05,1,,,,,,0
338,1500002002785,登記記録の閉鎖等,0,2024-01-16,2024-01-15,壽エンジニアリング・サービス有限会社,,有限会社,愛媛県,松山市,錦町２番地１９,,38,201,7900877,,,2024-01-15,登記官による閉鎖,,,2015-10-05,1,,,,,,0
339,1500002007181,登記記録の閉鎖等,0,2024-01-16,2024-01-15,有限会社之ソーイング,,有限会社,愛媛県,松山市,空港通３丁目７番２２号,,38,201,7910054,,,2024-01-15,登記官による閉鎖,,,2015-10-05,1,,,,,,0
340,1500002012289,登記記録の閉鎖等,0,2024-01-16,2024-01-15,有限会社宇和電気,,有限会社,愛媛県,西予市,宇和町れんげ１９６５番地３０,,38,214,7970028,,,2024-01-15,登記官による閉鎖,,,2015-10-05,1,,,,,,0
341,1500002012462,登記記録の閉鎖等,0,2024-01-16,2024-01-15,有限会社あんどう,,有限会社,愛媛県,西予市,野村町野村１２号５０１番地,,38,214,7971212,,,2024-01-15,登記官による閉鎖,,,2015-10-05,1,,,,,,0
342,1500002014896,登記記録の閉鎖等,0,2024-01-16,2024-01-15,有限会社黒河測量設計,,有限会社,愛媛県,西条市,丹原町今井４１０番地１０,,38,206,7910503,,,2024-01-15,登記官による閉鎖,,,2015-10-05,1,,,,,,0
343,1500002015432,登記記録の閉鎖等,0,2024-01-16,2024-01-11,有限会社ウイズ・ケイ,,有限会社,愛媛県,西条市,壬生川１４番地２,,38,206,7991341,,,2024-01-11,清算の結了等,,,2015-10-05,1,,,,,ウイズケイ,0
344,1500002018971,登記記録の閉鎖等,0,2024-01-16,2024-01-15,有限会社ひつじや,,有限会社,愛媛県,今治市,大西町新町甲７０５番地１,,38,202,7992203,,,2024-01-15,登記官による閉鎖,,,2015-10-05,1,,,,,,0
346,1500005001801,登記記録の閉鎖等,0,2024-01-16,2024-01-15,愛媛県カイロプラクティック協同組合,00008432,その他の設立登記法人,愛媛県,松山市,山越１丁目２０番地５,,38,201,7918013,,,2024-01-15,登記官による閉鎖,,,2015-10-05,1,,,,,,0
370,2010403021136,登記記録の閉鎖等,0,2024-01-16,2024-01-04,合同会社アストロナージ鈴鹿２,,合同会社,東京都,港区,芝公園１丁目１番１２号芝公園電気ビルディング６階,,13,103,1050011,,,2024-01-04,清算の結了等,,,2019-07-25,1,,,,,アストロナージスズカツー,0
376,2010603007521,登記記録の閉鎖等,0,2024-01-16,2023-12-14,Ａｓｈｐｈａｓｅ　ｍｕｓｉｃ合同会社,,合同会社,東京都,江東区,有明３丁目７番２６号有明フロンティアビルＢ棟９階,,13,108,1350063,,,2023-12-14,清算の結了等,,,2018-10-30,1,,,,,アッシュフェイズミュージック,0
379,2010701022629,登記記録の閉鎖等,0,2024-01-16,2024-01-09,明電商事株式会社,,株式会社,東京都,品川区,大崎２丁目８番１号,,13,109,1410032,,,2024-01-09,合併による解散等,4010701009640,令和６年１月１日東京都品川区大崎二丁目１番１号株式会社明電舎（4010701009640）に合併し解散,2015-10-05,1,,,,,メイデンショウジ,0
383,2010902001811,登記記録の閉鎖等,0,2024-01-16,2024-01-04,有限会社岩片電機商会,,有限会社,東京都,世田谷区,大原２丁目９番２号,,13,112,1560041,,,2024-01-04,清算の結了等,,,2015-10-05,1,,,,,イワカタデンキショウカイ,0
388,2011001108119,登記記録の閉鎖等,0,2024-01-16,2024-01-05,株式会社チームリア,,株式会社,東京都,渋谷区,円山町３番６号Ｅ・スペースタワー４階,,13,113,1500044,,,2024-01-05,合併による解散等,7011001097737,令和６年１月１日東京都渋谷区円山町３番６号Ｅ・スペースタワー４階株式会社Ｆｕｌｌ　Ｂｅｔ　Ｇｒｏｕｐ（7011001097737）に合併し解散,2015-11-12,1,,,,,チームリア,0
389,2011001113044,登記記録の閉鎖等,0,2024-01-16,2024-01-12,株式会社キャリアネクスト,,株式会社,北海道,札幌市中央区,大通西５丁目１番１号桂和大通ビル３８、５階,,01,101,0600042,,,2024-01-12,合併による解散等,2011001062274,令和６年１月１日東京都渋谷区渋谷一丁目１７番４号ＰＭＯ渋谷１０階株式会社ＧＯＯＹＡ（2011001062274）に合併し解散,2016-10-12,1,,,,,キャリアネクスト,0
391,2011001154682,登記記録の閉鎖等,0,2024-01-16,2024-01-11,株式会社ＮＧＴＧ０９,,株式会社,東京都,渋谷区,渋谷１丁目３－１８ビラ・モデルナＡ４０２,,13,113,1500002,,,2024-01-11,合併による解散等,2090001011390,令和６年１月１日山梨県韮崎市龍岡町下條南割３４２番地株式会社天鳥（2090001011390）に合併し解散,2023-05-30,1,,,,,エヌジーティージーゼロキュー,0
396,2011101093442,登記記録の閉鎖等,0,2024-01-16,2024-01-05,株式会社ＤＬＸホールディングス,,株式会社,東京都,新宿区,新宿２丁目１９番１号,,13,104,1600022,,,2024-01-05,合併による解散等,5013301044404,令和６年１月１日東京都新宿区新宿二丁目１９番１号株式会社アルシエ（5013301044404）に合併し解散,2020-12-11,1,,,,,ディーエルエックスホールディングス,0
421,2011803004374,登記記録の閉鎖等,0,2024-01-16,2024-01-11,合同会社ＩＤ　ＣＲＥＷ,,合同会社,東京都,葛飾区,立石８丁目５１番１－７０８号ライオンズ青砥リバーフロントオアシス,,13,122,1240012,,,2024-01-11,清算の結了等,,,2020-11-18,1,,,,,アイディークルー,0
423,2012401019599,登記記録の閉鎖等,0,2024-01-16,2024-01-10,株式会社日総サービス,,株式会社,東京都,調布市,染地２丁目１４－６２,,13,208,1820023,,,2024-01-10,清算の結了等,,,2015-10-05,1,,,,,ニッソウサービス,0
442,2021002004019,登記記録の閉鎖等,0,2024-01-16,2024-01-09,有限会社端山鉄工所,,有限会社,神奈川県,藤沢市,藤が岡３丁目２３番１１号,,14,205,2510004,,,2024-01-09,清算の結了等,,,2015-10-05,1,,,,,ハヤマテツコウショ,0
444,2021002049575,登記記録の閉鎖等,0,2024-01-16,2024-01-10,有限会社三友,,有限会社,神奈川県,大和市,上和田２６８１番地寺ノ上サニーコート７－１０１,,14,213,2420014,,,2024-01-10,清算の結了等,,,2015-10-05,1,,,,,サンユウ,0
515,2090001012612,登記記録の閉鎖等,0,2024-01-16,2024-01-15,山信ホーム株式会社,,株式会社,山梨県,甲府市,上今井町２１８番地１,,19,201,4000845,,,2024-01-15,清算の結了等,,,2015-10-05,1,,,,,,0
518,2100005006229,登記記録の閉鎖等,0,2024-01-16,2024-01-09,伊勢町商店街振興組合,,その他の設立登記法人,長野県,松本市,中央１丁目１８番１号,,20,202,3900811,,,2024-01-09,清算の結了等,,,2015-10-05,1,,,,,イセマチ,0
520,2110003001528,登記記録の閉鎖等,0,2024-01-16,2024-01-09,株式会社樗沢商店,,株式会社,新潟県,妙高市,国賀１丁目２番７号,,15,217,9440004,,,2024-01-09,清算の結了等,,,2015-10-05,1,,,,,ブナザワショウテン,0
535,2120101001081,登記記録の閉鎖等,0,2024-01-16,2024-01-15,株式会社岡城製作所,,株式会社,大阪府,堺市西区,草部１６１９番地,,27,144,5938312,,,2024-01-15,清算の結了等,,,2015-10-05,1,,,,,,0
536,2120103000759,登記記録の閉鎖等,0,2024-01-16,2024-01-04,ＪＵ観光合同会社,,合同会社,大阪府,大阪市北区,天神橋１丁目１８－２７天神ビル,,27,127,5300041,,,2024-01-04,合併による解散等,7120003010787,令和６年１月１日大阪市北区天神橋一丁目１８－２７天神ビル江龍合同会社（7120003010787）に合併し解散,2015-10-05,1,,,,,ジェイユーカンコウ,0
540,2120901045369,登記記録の閉鎖等,0,2024-01-16,2023-12-26,株式会社こだち,,株式会社,大阪府,吹田市,豊津町２５番１９号,,27,205,5640051,,,2023-12-26,清算の結了等,,,2021-12-24,1,,,,,コダチ,0
544,2130002008209,登記記録の閉鎖等,0,2024-01-16,2024-01-11,有限会社わしお,,有限会社,京都府,京都市下京区,麩屋町通四条下る八文字町３５０番地都築マンション１０３号,,26,106,6008041,,,2024-01-11,清算の結了等,,,2015-10-05,1,,,,,ワシオ,0
554,2140002026903,登記記録の閉鎖等,0,2024-01-16,2024-01-10,有限会社オルデン,,有限会社,兵庫県,神戸市兵庫区,荒田町１丁目５番６号,,28,105,6520032,,,2024-01-10,合併による解散等,2010001012074,令和６年１月１日東京都文京区西片一丁目１５番１５号株式会社トモズ（2010001012074）に合併し解散,2015-10-05,1,,,,,オルデン,0
559,2150002010798,登記記録の閉鎖等,0,2024-01-16,2024-01-15,有限会社イースター,,有限会社,奈良県,香芝市,高１２０番地の１,,29,210,6390241,,,2024-01-15,清算の結了等,,,2015-10-05,1,,,,,イースター,0
563,2180001018278,登記記録の閉鎖等,0,2024-01-16,2024-01-16,株式会社松永事務所,,株式会社,愛知県,名古屋市東区,葵１丁目１８番７号,,23,102,4610004,,,2024-01-16,登記官による閉鎖,,,2015-10-05,1,,,,,,0
565,2180001069643,登記記録の閉鎖等,0,2024-01-16,2024-01-16,株式会社ズッカ,,株式会社,愛知県,豊明市,新栄町６丁目１７９番地３,,23,229,4701154,,,2024-01-16,登記官による閉鎖,,,2015-10-05,1,,,,,,0
568,2180001084196,登記記録の閉鎖等,0,2024-01-16,2024-01-16,神田自動車工業株式会社,,株式会社,愛知県,一宮市,三条字道東４７番地の１,,23,203,4940003,,,2024-01-16,登記官による閉鎖,,,2015-10-05,1,,,,,,0
569,2180001086853,登記記録の閉鎖等,0,2024-01-16,2024-01-16,株式会社シンコー,,株式会社,愛知県,一宮市,萩原町朝宮字神ノ木３２番地１,,23,203,4910354,,,2024-01-16,登記官による閉鎖,,,2015-10-05,1,,,,,,0
570,2180001090863,登記記録の閉鎖等,0,2024-01-16,2024-01-16,ブーブーナビ株式会社,,株式会社,愛知県,春日井市,白山町３丁目１３番地２３シェールフジエ２０２号,,23,206,4870034,,,2024-01-16,登記官による閉鎖,,,2015-10-05,1,,,,,,0
571,2180001099054,登記記録の閉鎖等,0,2024-01-16,2024-01-16,株式会社山田工務店,,株式会社,愛知県,あま市,森山堂建１１番地,,23,237,4901223,,,2024-01-16,登記官による閉鎖,,,2015-10-05,1,,,,,,0
572,2180001102081,登記記録の閉鎖等,0,2024-01-16,2024-01-16,株式会社中日本自販機,,株式会社,愛知県,春日井市,松河戸町１７５番地４シャンドフルール１０１号,,23,206,4860932,,,2024-01-16,登記官による閉鎖,,,2015-10-05,1,,,,,,0
573,2180001103294,登記記録の閉鎖等,0,2024-01-16,2024-01-16,株式会社ビーンズ・ジャパン,,株式会社,愛知県,名古屋市中区,千代田３丁目１番１１号,,23,106,4600012,,,2024-01-16,登記官による閉鎖,,,2015-10-05,1,,,,,,0
574,2180001104078,登記記録の閉鎖等,0,2024-01-16,2024-01-16,グリーンポート株式会社,,株式会社,愛知県,長久手市,香桶３０１,,23,238,4801176,,,2024-01-16,登記官による閉鎖,,,2015-10-05,1,,,,,,0
581,2180002022915,登記記録の閉鎖等,0,2024-01-16,2024-01-16,有限会社大野工業所,00072994,有限会社,愛知県,名古屋市西区,鳥見町２丁目２８番地,,23,104,4510071,,,2024-01-16,登記官による閉鎖,,,2015-10-05,1,,,,,,0
582,2180002024523,登記記録の閉鎖等,0,2024-01-16,2024-01-16,有限会社プラコンサ,,有限会社,愛知県,名古屋市西区,中小田井２丁目３８２番地,,23,104,4520822,,,2024-01-16,登記官による閉鎖,,,2015-10-05,1,,,,,,0
583,2180002027245,登記記録の閉鎖等,0,2024-01-16,2024-01-10,有限会社エフテック,,有限会社,愛知県,名古屋市中村区,二ツ橋町３丁目５番地,,23,105,4530813,,,2024-01-10,清算の結了等,,,2015-10-05,1,,,,,エフテック,0
584,2180002032105,登記記録の閉鎖等,0,2024-01-16,2024-01-16,有限会社中嶋屋,,有限会社,愛知県,名古屋市中区,栄３丁目１０番４号,,23,106,4600008,,,2024-01-16,登記官による閉鎖,,,2015-10-05,1,,,,,,0
585,2180002040116,登記記録の閉鎖等,0,2024-01-16,2024-01-16,有限会社ピザサンマリノ極楽,,有限会社,愛知県,名古屋市名東区,極楽４丁目１３０３番地,,23,115,4650053,,,2024-01-16,登記官による閉鎖,,,2015-10-05,1,,,,,,0
586,2180002040339,登記記録の閉鎖等,0,2024-01-16,2024-01-16,有限会社清水工務店,00073126,有限会社,愛知県,清須市,西市場２丁目６番地の５,,23,233,4520941,,,2024-01-16,登記官による閉鎖,,,2015-10-05,1,,,,,,0
587,2180002063397,登記記録の閉鎖等,0,2024-01-16,2024-01-16,有限会社中京メディック,,有限会社,愛知県,長久手市,西原１８番地の４,,23,238,4801183,,,2024-01-16,登記官による閉鎖,,,2015-10-05,1,,,,,,0
588,2180002065261,登記記録の閉鎖等,0,2024-01-16,2024-01-16,有限会社映像テレワーク,,有限会社,愛知県,春日井市,東野町１丁目３番地の８,,23,206,4860817,,,2024-01-16,登記官による閉鎖,,,2015-10-05,1,,,,,,0
589,2180002074808,登記記録の閉鎖等,0,2024-01-16,2024-01-16,有限会社グランドフーズ,,有限会社,愛知県,犬山市,大字橋爪字石畑２番地の４,,23,215,4840076,,,2024-01-16,登記官による閉鎖,,,2015-10-05,1,,,,,,0
590,2180002085342,登記記録の閉鎖等,0,2024-01-16,2024-01-16,有限会社共信精工,,有限会社,愛知県,知多郡東浦町,大字生路字生川尻１番地,,23,442,4702104,,,2024-01-16,登記官による閉鎖,,,2015-10-05,1,,,,,,0
591,2180002093072,登記記録の閉鎖等,0,2024-01-16,2024-01-16,有限会社レインボー,,有限会社,愛知県,海部郡蟹江町,源氏２丁目３番地,,23,425,4970055,,,2024-01-16,登記官による閉鎖,,,2015-10-05,1,,,,,,0
592,2180005004778,登記記録の閉鎖等,0,2024-01-16,2024-01-16,財団法人愛知県福利協会,,その他の設立登記法人,愛知県,名古屋市中区,大須４丁目１５番１２号,,23,106,4600011,,,2024-01-16,登記官による閉鎖,,,2015-10-05,1,,,,,,0
593,2180301021601,登記記録の閉鎖等,0,2024-01-16,2024-01-16,株式会社ＢＰＭ建設,,株式会社,愛知県,豊田市,大清水町大清水５６番地,,23,211,4700342,,,2024-01-16,登記官による閉鎖,,,2015-10-05,1,,,,,,0
595,2180305004635,登記記録の閉鎖等,0,2024-01-16,2024-01-16,特定非営利活動法人あんぐる,,その他の設立登記法人,愛知県,安城市,朝日町２２番３号,,23,212,4460031,,,2024-01-16,登記官による閉鎖,,,2015-10-05,1,,,,,,0
596,2190002006520,登記記録の閉鎖等,0,2024-01-16,2024-01-11,鈴鹿商事有限会社,,有限会社,三重県,鈴鹿市,上田町１７０番地の３,,24,207,5130018,,,2024-01-11,清算の結了等,,,2015-10-05,1,,,,,スズカショウジ,0
599,2210001000686,登記記録の閉鎖等,0,2024-01-16,2024-01-16,株式会社光ハウジング,,株式会社,福井県,福井市,荒木新保町第１４号３番地の２,,18,201,9102172,,,2024-01-16,登記官による閉鎖,,,2015-10-05,1,,,,,,0
600,2210001003895,登記記録の閉鎖等,0,2024-01-16,2024-01-16,株式会社マツダモータース福井,,株式会社,福井県,福井市,西開発４丁目１０５番地,,18,201,9100843,,,2024-01-16,登記官による閉鎖,,,2015-10-05,1,,,,,マツダモータースフクイ,0
601,2210001008795,登記記録の閉鎖等,0,2024-01-16,2024-01-16,株式会社リバーフォレスト・ワークス,,株式会社,福井県,坂井市,三国町覚善第１０号３９番地,,18,210,9130041,,,2024-01-16,登記官による閉鎖,,,2015-10-05,1,,,,,,0
602,2210001014752,登記記録の閉鎖等,0,2024-01-16,2024-01-16,株式会社ケアシス,,株式会社,福井県,越前市,萱谷町第２１号１８番地,,18,209,9150037,,,2024-01-16,登記官による閉鎖,,,2015-10-05,1,,,,,,0
603,2210002003911,登記記録の閉鎖等,0,2024-01-16,2024-01-16,有限会社北陸菓糧資材商会,,有限会社,福井県,福井市,高木中央１丁目１２０２番地,,18,201,9100804,,,2024-01-16,登記官による閉鎖,,,2015-10-05,1,,,,,,0
604,2210002005057,登記記録の閉鎖等,0,2024-01-16,2024-01-16,有限会社マエダロック,,有限会社,福井県,福井市,中央２丁目１０番６号,,18,201,9100006,,,2024-01-16,登記官による閉鎖,,,2015-10-05,1,,,,,,0
605,2210002012367,登記記録の閉鎖等,0,2024-01-16,2024-01-16,有限会社八田製材所,,有限会社,福井県,丹生郡越前町,八田３３号２７番地,,18,423,9160264,,,2024-01-16,登記官による閉鎖,,,2015-10-05,1,,,,,,0
610,2240001037692,登記記録の閉鎖等,0,2024-01-16,2024-01-04,ツネイシキャピタルパートナーズ株式会社,,株式会社,広島県,福山市,沼隈町大字常石１０８３番地,,34,207,7200313,,,2024-01-04,合併による解散等,2240001029368,令和６年１月１日広島県福山市沼隈町大字常石１０８３番地常石商事株式会社（2240001029368）に合併し解散,2015-10-05,1,,,,,ツネイシキャピタルパートナーズ,0
612,2240002003512,登記記録の閉鎖等,0,2024-01-16,2024-01-04,有限会社オフィスケイ・アンド・エム,,有限会社,広島県,広島市西区,古江西町１６番７－６０５号,,34,104,7330874,,,2024-01-04,清算の結了等,,,2015-10-05,1,,,,,オフィスケイアンドエム,0
615,2250002011737,登記記録の閉鎖等,0,2024-01-16,2024-01-12,増本電工有限会社,,有限会社,山口県,下関市,豊浦町大字黒井２２５０番地の１,,35,201,7596312,,,2024-01-12,清算の結了等,,,2015-10-05,1,,,,,マスモトデンコウ,0
616,2250005004770,登記記録の閉鎖等,0,2024-01-16,2023-12-22,学校法人深川学園,,その他の設立登記法人,山口県,長門市,東深川９８０番地の２６,,35,211,7594101,,,2023-12-22,清算の結了等,,,2015-10-05,1,,,,,,0
644,2360001020505,登記記録の閉鎖等,0,2024-01-16,2023-12-21,株式会社フューチャースピリッツアジア,,株式会社,沖縄県,那覇市,樋川１丁目５番３６号,,47,201,9000022,,,2023-12-21,合併による解散等,3130001023678,令和５年１２月１日京都市下京区中堂寺粟田町９１番地京都リサーチパーク株式会社フューチャースピリッツ（3130001023678）に合併し解散,2016-02-19,1,,,,,フューチャースピリッツアジア,0
647,2370001003120,登記記録の閉鎖等,0,2024-01-16,2024-01-12,株式会社サンマリ,,株式会社,宮城県,仙台市宮城野区,扇町４丁目３番１０号,,04,102,9830034,,,2024-01-12,合併による解散等,1410001008636,令和６年１月１日秋田県仙北市角館町横町２７番地株式会社伏見屋（1410001008636）に合併し解散,2015-10-05,1,,,,,サンマリ,0
650,2370405000465,登記記録の閉鎖等,0,2024-01-16,2023-12-20,天理教北上分教会,,その他の設立登記法人,宮城県,登米市,迫町佐沼字錦１３５番地,,04,212,9870511,,,2023-12-20,合併による解散等,7050005009868,令和５年１２月１４日茨城県筑西市岡芹一丁目１９４番地天理教東国分教会（7050005009868）に合併し解散,2015-10-05,1,,,,,,0
657,2400001008545,登記記録の閉鎖等,0,2024-01-16,2024-01-10,ライフ・レスキュー株式会社,,株式会社,岩手県,紫波郡矢巾町,大字北伝法寺第２地割２１番地,,03,322,0283624,,,2024-01-10,登記官による閉鎖,,,2015-10-05,1,,,,,,0
660,2400002001771,登記記録の閉鎖等,0,2024-01-16,2024-01-10,有限会社セイブ商事,,有限会社,岩手県,滝沢市,鵜飼洞畑８６番地１,,03,216,0200652,,,2024-01-10,登記官による閉鎖,,,2015-10-05,1,,,,,,0
661,2400005000903,登記記録の閉鎖等,0,2024-01-16,2024-01-10,エコ・パール・ウッド協同組合,,その他の設立登記法人,岩手県,盛岡市,西青山２丁目１０番３２号,,03,201,0200132,,,2024-01-10,登記官による閉鎖,,,2015-10-05,1,,,,,,0
663,2402702000466,登記記録の閉鎖等,0,2024-01-16,2024-01-10,有限会社五ツ和産業,,有限会社,岩手県,陸前高田市,広田町字泊７５番地１,,03,210,0292208,,,2024-01-10,登記官による閉鎖,,,2015-10-05,1,,,,,,0
672,2440002005785,登記記録の閉鎖等,0,2024-01-16,2024-01-12,有限会社工藤建工,,有限会社,北海道,函館市,東山１丁目２６番１２号,,01,202,0410835,,,2024-01-12,清算の結了等,,,2015-10-05,1,,,,,クドウケンコウ,0
673,2450005000147,登記記録の閉鎖等,0,2024-01-16,2024-01-12,道央木材生産協同組合,,その他の設立登記法人,北海道,旭川市,東八条８丁目１番３２号,,01,204,0700028,,,2024-01-12,清算の結了等,,,2015-10-05,1,,,,,ドウオウモクザイセイサン,0
677,2490002000674,登記記録の閉鎖等,0,2024-01-16,2024-01-12,有限会社大石組,,有限会社,高知県,高知市,曙町１丁目２８番１７号,,39,201,7808072,,,2024-01-12,清算の結了等,,,2015-10-05,1,,,,,オオイシグミ,0
678,2500001009392,登記記録の閉鎖等,0,2024-01-16,2024-01-15,フラワー産業株式会社,,株式会社,愛媛県,西条市,丹原町池田６６３番地１,,38,206,7910508,,,2024-01-15,登記官による閉鎖,,,2018-08-06,1,,,,,フラワーサンギョウ,0
679,2500001013989,登記記録の閉鎖等,0,2024-01-16,2024-01-15,横山電設株式会社,,株式会社,愛媛県,松山市,今在家３丁目９番３４号,,38,201,7911106,,,2024-01-15,登記官による閉鎖,,,2015-10-05,1,,,,,,0
680,2500001016281,登記記録の閉鎖等,0,2024-01-16,2024-01-15,株式会社魚水,,株式会社,愛媛県,宇和島市,愛宕町３丁目２番９号岡崎アパート１Ｆ,,38,203,7980042,,,2024-01-15,登記官による閉鎖,,,2015-10-05,1,,,,,,0
681,2500001016604,登記記録の閉鎖等,0,2024-01-16,2024-01-15,株式会社エビスフーヅ,,株式会社,愛媛県,松山市,枝松５丁目１０５,,38,201,7900962,,,2024-01-15,登記官による閉鎖,,,2015-10-05,1,,,,,,0
682,2500001016843,登記記録の閉鎖等,0,2024-01-16,2024-01-15,株式会社渡邊,,株式会社,愛媛県,四国中央市,川之江町２５８２番地,,38,213,7990101,,,2024-01-15,登記官による閉鎖,,,2015-10-05,1,,,,,,0
685,2500002013030,登記記録の閉鎖等,0,2024-01-16,2024-01-15,井上木材販売有限会社,,有限会社,愛媛県,八幡浜市,産業通１４番１６号,,38,204,7968004,,,2024-01-15,登記官による閉鎖,,,2015-10-05,1,,,,,,0
686,2500002017205,登記記録の閉鎖等,0,2024-01-16,2024-01-15,有限会社真部組,00008104,有限会社,愛媛県,新居浜市,大生院４７番地の４,,38,205,7920060,,,2024-01-15,登記官による閉鎖,,,2015-10-05,1,,,,,,0
687,2500003000374,登記記録の閉鎖等,0,2024-01-16,2024-01-15,池内製菓合資会社,,合資会社,愛媛県,松山市,北京町三丁目６番地,,38,201,7910000,,,2024-01-15,登記官による閉鎖,,,2018-07-03,1,,,,,,1
696,3010001076408,登記記録の閉鎖等,0,2024-01-16,2024-01-05,パットシステムズ・ジャパン株式会社,,株式会社,東京都,千代田区,丸の内２丁目１番１号明治安田生命ビル６階,,13,101,1000005,,,2024-01-05,合併による解散等,6010001073815,令和６年１月１日東京都千代田区丸の内二丁目１番１号株式会社アイオン・グループ・ジャパン（6010001073815）に合併し解散,2015-10-05,1,,,,,パットシステムズジャパン,0
698,3010001150063,登記記録の閉鎖等,0,2024-01-16,2024-01-10,株式会社グローバポート,,株式会社,神奈川県,横浜市港北区,富士塚２丁目２８番５６号,,14,109,2220012,,,2024-01-10,清算の結了等,,,2015-10-05,1,,,,,グローバポート,0
700,3010001186017,登記記録の閉鎖等,0,2024-01-16,2024-01-11,ＴＣＳビジネスソリューションズ株式会社,,株式会社,東京都,中央区,日本橋本町４丁目８番１４号,,13,102,1030023,,,2024-01-11,合併による解散等,2010001095739,令和６年１月１日東京都中央区日本橋本町四丁目８番１４号東京コンピュータサービス株式会社（2010001095739）に合併し解散,2017-09-04,1,,,,,ティーシィエスビジネスソリューションズ,0
717,3010401133592,登記記録の閉鎖等,0,2024-01-16,2024-01-12,株式会社エヌエスアイテクス,,株式会社,東京都,港区,港南２丁目１６番４号品川グランドセントラルタワー,,13,103,1080075,,,2024-01-12,合併による解散等,9180301014251,令和６年１月１日愛知県刈谷市昭和町一丁目１番地株式会社デンソー（9180301014251）に合併し解散,2017-09-11,1,,,,,エヌエスアイテクス,0
718,3010401147782,登記記録の閉鎖等,0,2024-01-16,2023-12-18,株式会社デルタＨＲソリューション,,株式会社,東京都,港区,新橋２丁目２０番１５号,,13,103,1050004,,,2023-12-18,合併による解散等,6013301036111,令和５年７月１日東京都千代田区丸の内二丁目５番２号ＤＥＬＴＡ　Ｈｏｌｄｉｎｇｓ株式会社（6013301036111）に合併し解散,2019-09-03,1,,,,,デルタエイチアールソリューション,0
721,3010403021135,登記記録の閉鎖等,0,2024-01-16,2024-01-04,合同会社アストロナージ鈴鹿１,,合同会社,東京都,港区,芝公園１丁目１番１２号芝公園電気ビルディング６階,,13,103,1050011,,,2024-01-04,清算の結了等,,,2019-07-25,1,,,,,アストロナージスズカワン,0
730,3010801023848,登記記録の閉鎖等,0,2024-01-16,2024-01-10,イノセントメディカル株式会社,,株式会社,東京都,大田区,蒲田５丁目４０番１０号初穂マンション蒲田３０１,,13,111,1440052,,,2024-01-10,清算の結了等,,,2015-10-05,1,,,,,イノセントメディカル,0
736,3011001066448,登記記録の閉鎖等,0,2024-01-16,2024-01-05,マクスタアエンタテインメント株式会社,,株式会社,東京都,渋谷区,代々木３丁目４１番９号,,13,113,1510053,,,2024-01-05,合併による解散等,4011001059277,令和６年１月１日東京都渋谷区代々木三丁目４１番９号マクスタア株式会社（4011001059277）に合併し解散,2015-10-05,1,,,,,マクスタアエンタテインメント,0
745,3011005002143,登記記録の閉鎖等,0,2024-01-16,2023-12-14,医療法人社団幸祐会,,その他の設立登記法人,東京都,渋谷区,広尾５丁目１９番１号テンカラットビル１階,,13,113,1500012,,,2023-12-14,合併による解散等,4430005001608,令和５年１２月１日北海道留萌市開運町一丁目６番１号医療法人社団心優会（4430005001608）に合併し解散,2015-10-05,1,,,,,コウユウカイ,0
752,3011403001374,登記記録の閉鎖等,0,2024-01-16,2024-01-15,合同会社アインクライス,,合同会社,東京都,八王子市,明神町４丁目８番１３号,,13,201,1920046,,,2024-01-15,清算の結了等,,,2015-10-05,1,,,,,アインクライス,0
756,3011701017502,登記記録の閉鎖等,0,2024-01-16,2024-01-11,株式会社アートブルー,,株式会社,東京都,渋谷区,神南１丁目１３番１４号高野ビル４Ｆ,,13,113,1500041,,,2024-01-11,清算の結了等,,,2015-10-05,1,,,,,アートブルー,0
757,3011802021287,登記記録の閉鎖等,0,2024-01-16,2024-01-09,有限会社大友,,有限会社,東京都,葛飾区,宝町２丁目１９番１６号,,13,122,1240005,,,2024-01-09,清算の結了等,,,2015-10-05,1,,,,,オオトモ,0
758,3011802029743,登記記録の閉鎖等,0,2024-01-16,2024-01-09,有限会社網代工業所,,有限会社,東京都,葛飾区,堀切１丁目３４番１８号,,13,122,1240006,,,2024-01-09,清算の結了等,,,2015-10-05,1,,,,,アジロコウギョウショ,0
763,3012701004894,登記記録の閉鎖等,0,2024-01-16,2024-01-12,株式会社ジオイアインテルモーダ,,株式会社,東京都,西東京市,芝久保町２丁目９番１６－５０４号,,13,229,1880014,,,2024-01-12,清算の結了等,,,2015-10-05,1,,,,,ジオイアインテルモーダ,0
775,3020001133232,登記記録の閉鎖等,0,2024-01-16,2024-01-10,株式会社龍海商事,,株式会社,神奈川県,横浜市中区,山下町１４６番地２,,14,104,2310023,,,2024-01-10,清算の結了等,,,2019-10-16,1,,,,,リュウカイショウジ,0
777,3020002096726,登記記録の閉鎖等,0,2024-01-16,2024-01-11,京浜総合管理株式会社,,株式会社,神奈川県,川崎市川崎区,田島町１６番１５号,,14,131,2100853,,,2024-01-11,合併による解散等,4010801006983,令和６年１月１日東京都大田区羽田旭町１３番１３号高橋商事株式会社（4010801006983）に合併し解散,2015-10-05,1,,,,,ケイヒンソウゴウカンリ,0
779,3020005000321,登記記録の閉鎖等,0,2024-01-16,2023-12-04,天理教濱潮分教会,,その他の設立登記法人,神奈川県,横浜市鶴見区,佃野町２１番１１号,,14,101,2300061,,,2023-12-04,合併による解散等,5020005000179,令和５年１２月４日横浜市南区堀ノ内町一丁目７番地の３宗教法人天理教保濱分教会（5020005000179）に合併し解散,2015-10-05,1,,,,,テンリキョウハシオブンキョウカイ,0
804,3040001083087,登記記録の閉鎖等,0,2024-01-16,2023-12-28,株式会社行徳マリーンクラブ,,株式会社,千葉県,市川市,南行徳４丁目１番１１号,,12,203,2720138,,,2023-12-28,清算の結了等,,,2015-10-05,1,,,,,ギョウトクマリーンクラブ,0
814,3050001015824,登記記録の閉鎖等,0,2024-01-16,2024-01-11,筑波都市整備株式会社,,株式会社,茨城県,つくば市,竹園３丁目１８番地２,,08,220,3050032,,,2024-01-11,合併による解散等,8011101009021,令和６年１月１日東京都新宿区西新宿六丁目５番１号株式会社新都市ライフホールディングス（8011101009021）に合併し解散,2015-10-05,1,,,,,ツクバトシセイビ,0
817,3050002021029,登記記録の閉鎖等,0,2024-01-16,2024-01-04,尾口電設有限会社,,有限会社,茨城県,つくば市,要元猿壁２６１番地,,08,220,3002622,,,2024-01-04,清算の結了等,,,2015-10-05,1,,,,,オグチデンセツ,0
825,3080102021495,登記記録の閉鎖等,0,2024-01-16,2024-01-12,有限会社高橋電気商会,00068099,有限会社,静岡県,賀茂郡南伊豆町,加納５０７番地の１,,22,304,4150304,,,2024-01-12,清算の結了等,,,2015-10-05,1,,,,,タカハシデンキショウカイ,0
845,3080402004968,登記記録の閉鎖等,0,2024-01-16,2024-01-11,有限会社中部機電,,有限会社,静岡県,浜松市中央区,三方原町６２２番地の６,,22,138,4338105,,,2024-01-11,清算の結了等,,,2015-10-05,1,,,,,チュウブキデン,0
893,3120901011733,登記記録の閉鎖等,0,2024-01-16,2024-01-09,日本テクノプラス株式会社,,株式会社,兵庫県,神戸市兵庫区,和田宮通３丁目２番２４号,,28,105,6520863,,,2024-01-09,合併による解散等,1140001014570,令和６年１月１日神戸市兵庫区和田宮通三丁目２番２４号株式会社神戸工業試験場（1140001014570）に合併し解散,2015-10-05,1,,,,,ニホンテクノプラス,0
902,3140001000437,登記記録の閉鎖等,0,2024-01-16,2024-01-12,芝川興産株式会社,,株式会社,兵庫県,芦屋市,東山町７番２６－６０１号,,28,206,6590091,,,2024-01-12,清算の結了等,,,2015-10-05,1,,,,,シバカワコウサン,0
910,3150001014808,登記記録の閉鎖等,0,2024-01-16,2024-01-11,株式会社介護やオンリーワン,,株式会社,奈良県,香芝市,旭ケ丘４丁目１６番地の６,,29,210,6390266,,,2024-01-11,清算の結了等,,,2015-10-05,1,,,,,カイゴヤオンリーワン,0
918,3170005004398,登記記録の閉鎖等,0,2024-01-16,2023-12-22,天理教御坊分教会,,その他の設立登記法人,和歌山県,御坊市,薗２９４番地の７,,30,205,6440002,,,2023-12-22,合併による解散等,3170005003763,令和５年１２月２２日和歌山県西牟婁郡白浜町富田１２５７番地天理教富田分教会（3170005003763）に合併し解散,2015-10-05,1,,,,,テンリキョウゴボウブンキョウカイ,0
920,3170005004506,登記記録の閉鎖等,0,2024-01-16,2023-12-22,天理教西野栄分教会,,その他の設立登記法人,和歌山県,日高郡由良町,大字阿戸２５９番地,,30,383,6491113,,,2023-12-22,合併による解散等,9170005005597,令和５年１２月２２日和歌山県東牟婁郡串本町西向６４５番地天理教西向分教会（9170005005597）に合併し解散,2015-10-05,1,,,,,テンリキョウニシノエブンキョウカイ,0
921,3180001049223,登記記録の閉鎖等,0,2024-01-16,2024-01-16,株式会社オネスト,,株式会社,愛知県,名古屋市東区,矢田２丁目１３番１７号マリンビル３階,,23,102,4610040,,,2024-01-16,登記官による閉鎖,,,2015-10-05,1,,,,,,0
922,3180001053803,登記記録の閉鎖等,0,2024-01-16,2024-01-16,株式会社グリーンパートナー,,株式会社,愛知県,名古屋市北区,駒止町１丁目１１８番地,,23,103,4620059,,,2024-01-16,登記官による閉鎖,,,2015-10-05,1,,,,,,0
923,3180001054495,登記記録の閉鎖等,0,2024-01-16,2024-01-16,アールアイシー出版販売株式会社,,株式会社,愛知県,名古屋市中村区,那古野１丁目４７番１号,,23,105,4500001,,,2024-01-16,登記官による閉鎖,,,2015-10-05,1,,,,,,0
924,3180001057052,登記記録の閉鎖等,0,2024-01-16,2024-01-16,名古屋エヌビーエス株式会社,,株式会社,愛知県,名古屋市東区,芳野１丁目１７番９号,,23,102,4610027,,,2024-01-16,登記官による閉鎖,,,2015-10-05,1,,,,,,0
925,3180001059412,登記記録の閉鎖等,0,2024-01-16,2024-01-16,株式会社フリー,,株式会社,愛知県,名古屋市中区,錦１丁目２０番８号,,23,106,4600003,,,2024-01-16,登記官による閉鎖,,,2015-10-05,1,,,,,,0
927,3180001062267,登記記録の閉鎖等,0,2024-01-16,2024-01-16,株式会社スタッフプロジェクト,,株式会社,愛知県,名古屋市中区,丸の内３丁目１６番１９号,,23,106,4600002,,,2024-01-16,登記官による閉鎖,,,2015-10-05,1,,,,,,0
932,3180001075095,登記記録の閉鎖等,0,2024-01-16,2024-01-16,株式会社メディカル建築センター,,株式会社,愛知県,春日井市,知多町１丁目６０番地の１,,23,206,4860947,,,2024-01-16,登記官による閉鎖,,,2015-10-05,1,,,,,,0
933,3180001080178,登記記録の閉鎖等,0,2024-01-16,2024-01-16,株式会社エスピーカンパニー,,株式会社,愛知県,尾張旭市,東山町１丁目１０番地１５クイーンハイツ東山２－Ｂ,,23,226,4880825,,,2024-01-16,登記官による閉鎖,,,2015-10-05,1,,,,,,0
934,3180001081622,登記記録の閉鎖等,0,2024-01-16,2024-01-16,株式会社ヒラキ,,株式会社,愛知県,犬山市,大字上野字米野１１５２番地,,23,215,4840077,,,2024-01-16,登記官による閉鎖,,,2015-10-05,1,,,,,,0
935,3180001084633,登記記録の閉鎖等,0,2024-01-16,2024-01-16,株式会社八百武商店,,株式会社,愛知県,一宮市,木曽川町黒田字酉新田東ノ切１３番地,,23,203,4930001,,,2024-01-16,登記官による閉鎖,,,2015-10-05,1,,,,,,0
936,3180001131047,登記記録の閉鎖等,0,2024-01-16,2024-01-10,株式会社ＦＵＪＩＡＵＴＯ,,株式会社,愛知県,名古屋市千種区,新西２丁目１番４号,,23,101,4640003,,,2024-01-10,清算の結了等,,,2018-02-05,1,,,,,フジオート,0
939,3180002000639,登記記録の閉鎖等,0,2024-01-16,2024-01-16,有限会社サカイ,,有限会社,愛知県,名古屋市守山区,元郷１丁目１４０２番地,,23,113,4630025,,,2024-01-16,登記官による閉鎖,,,2015-10-05,1,,,,,,0
940,3180002003897,登記記録の閉鎖等,0,2024-01-16,2024-01-16,有限会社金子製薬局,,有限会社,愛知県,名古屋市千種区,仲田２丁目１２番２５号,,23,101,4640074,,,2024-01-16,登記官による閉鎖,,,2015-10-05,1,,,,,,0
941,3180002007840,登記記録の閉鎖等,0,2024-01-16,2024-01-16,有限会社若早,,有限会社,愛知県,名古屋市昭和区,滝子通４丁目９番地,,23,107,4660055,,,2024-01-16,登記官による閉鎖,,,2015-10-05,1,,,,,,0
942,3180002034208,登記記録の閉鎖等,0,2024-01-16,2024-01-16,有限会社ケー・エス,,有限会社,愛知県,名古屋市東区,東桜２丁目１７番４７号,,23,102,4610005,,,2024-01-16,登記官による閉鎖,,,2015-10-05,1,,,,,,0
943,3180002038002,登記記録の閉鎖等,0,2024-01-16,2024-01-16,有限会社テイク,,有限会社,愛知県,名古屋市天白区,表山２丁目１７０３番地,,23,116,4680069,,,2024-01-16,登記官による閉鎖,,,2015-10-05,1,,,,,,0
944,3180002039891,登記記録の閉鎖等,0,2024-01-16,2024-01-16,有限会社あずみ,,有限会社,愛知県,北名古屋市,九之坪竹田８５番地,,23,234,4810041,,,2024-01-16,登記官による閉鎖,,,2015-10-05,1,,,,,,0
945,3180002051582,登記記録の閉鎖等,0,2024-01-16,2024-01-16,あかね有限会社,,有限会社,愛知県,北名古屋市,鹿田院田前６番地,,23,234,4810004,,,2024-01-16,登記官による閉鎖,,,2015-10-05,1,,,,,,0
946,3180002052110,登記記録の閉鎖等,0,2024-01-16,2024-01-16,有限会社宮本電気,,有限会社,愛知県,北名古屋市,鹿田栄７３番地の２,,23,234,4810004,,,2024-01-16,登記官による閉鎖,,,2015-10-05,1,,,,,,0
947,3180002063041,登記記録の閉鎖等,0,2024-01-16,2024-01-16,アキヤマ自動車有限会社,,有限会社,愛知県,日進市,栄２丁目９０１番地グローリアスヒルズ日進第６・１０１,,23,230,4700113,,,2024-01-16,登記官による閉鎖,,,2015-10-05,1,,,,,,0
948,3180002064510,登記記録の閉鎖等,0,2024-01-16,2024-01-16,有限会社アルヴィーエス,,有限会社,愛知県,豊明市,阿野町寺内２２番地,,23,229,4701141,,,2024-01-16,登記官による閉鎖,,,2015-10-05,1,,,,,,0
949,3180002090829,登記記録の閉鎖等,0,2024-01-16,2024-01-16,有限会社トーワ,,有限会社,愛知県,津島市,今市場町３丁目１２番地,,23,208,4960803,,,2024-01-16,登記官による閉鎖,,,2015-10-05,1,,,,,,0
950,3180002093204,登記記録の閉鎖等,0,2024-01-16,2024-01-16,有限会社ニューブリード,,有限会社,愛知県,知多郡東浦町,大字石浜字吹付２－２０５,,23,442,4702103,,,2024-01-16,登記官による閉鎖,,,2015-10-05,1,,,,,,0
951,3180003007625,登記記録の閉鎖等,0,2024-01-16,2024-01-16,合資会社堀田不動産,,合資会社,愛知県,名古屋市中区,丸の内２丁目１４番３１号,,23,106,4600002,,,2024-01-16,登記官による閉鎖,,,2015-10-05,1,,,,,,0
952,3180003014308,登記記録の閉鎖等,0,2024-01-16,2024-01-16,ＢＵＲＯＭＯ合同会社,,合同会社,愛知県,名古屋市西区,新道１丁目１４番９号,,23,104,4510043,,,2024-01-16,登記官による閉鎖,,,2015-10-05,1,,,,,,0
954,3180005004983,登記記録の閉鎖等,0,2024-01-16,2024-01-16,財団法人山田学園,,その他の設立登記法人,愛知県,名古屋市中村区,則武１丁目２５番１０号,,23,105,4530014,,,2024-01-16,登記官による閉鎖,,,2015-10-05,1,,,,,,0
955,3180005005841,登記記録の閉鎖等,0,2024-01-16,2024-01-16,特定非営利活動法人日中文化交流会,,その他の設立登記法人,愛知県,名古屋市中区,栄１丁目１４番１４号,,23,106,4600008,,,2024-01-16,登記官による閉鎖,,,2015-10-05,1,,,,,,0
956,3180005014322,登記記録の閉鎖等,0,2024-01-16,2024-01-16,特定非営利活動法人愛知生活支援相談センター,,その他の設立登記法人,愛知県,名古屋市中村区,鳥居通２丁目４１－１ウチフジビル３階,,23,105,4530044,,,2024-01-16,登記官による閉鎖,,,2015-10-05,1,,,,,,0
957,3180005014751,登記記録の閉鎖等,0,2024-01-16,2024-01-16,一般社団法人日本ウェルフェア推進協会,,その他の設立登記法人,愛知県,名古屋市中区,金山２丁目６番１７号,,23,106,4600022,,,2024-01-16,登記官による閉鎖,,,2015-10-05,1,,,,,,0
959,3180301019017,登記記録の閉鎖等,0,2024-01-16,2024-01-16,野崎工業株式会社,,株式会社,愛知県,豊田市,新町３丁目３番地３,,23,211,4710044,,,2024-01-16,登記官による閉鎖,,,2015-10-05,1,,,,,,0
960,3180301019933,登記記録の閉鎖等,0,2024-01-16,2024-01-16,株式会社山田ソーイングアンドサービス,,株式会社,愛知県,豊田市,平畑町下里７５７番地,,23,211,4700523,,,2024-01-16,登記官による閉鎖,,,2015-10-05,1,,,,,,0
961,3180301025452,登記記録の閉鎖等,0,2024-01-16,2024-01-16,株式会社ＧＭＷ,,株式会社,愛知県,岡崎市,美合新町１５番地の８,,23,202,4440801,,,2024-01-16,登記官による閉鎖,,,2015-10-05,1,,,,,,0
964,3180302022762,登記記録の閉鎖等,0,2024-01-16,2024-01-16,有限会社テクノ松田,,有限会社,愛知県,豊田市,平山町３丁目３番地３,,23,211,4710827,,,2024-01-16,登記官による閉鎖,,,2015-10-05,1,,,,,,0
965,3180302026383,登記記録の閉鎖等,0,2024-01-16,2024-01-16,有限会社ネクストワン,,有限会社,愛知県,西尾市,米津町五郎田１番地１,,23,213,4450802,,,2024-01-16,登記官による閉鎖,,,2015-10-05,1,,,,,,0
966,3180305003603,登記記録の閉鎖等,0,2024-01-16,2024-01-16,豊川市諏訪商店街振興組合,,その他の設立登記法人,愛知県,豊川市,諏訪３丁目４４番地,,23,207,4420068,,,2024-01-16,登記官による閉鎖,,,2015-10-05,1,,,,,,0
975,3210002009057,登記記録の閉鎖等,0,2024-01-16,2024-01-16,有限会社サンケイ土木,,有限会社,福井県,坂井市,坂井町上兵庫第７２号２７番地３,,18,210,9190526,,,2024-01-16,登記官による閉鎖,,,2015-10-05,1,,,,,,0
979,3230001008850,登記記録の閉鎖等,0,2024-01-16,2024-01-11,株式会社大岡商店,,株式会社,富山県,南砺市,城端５１３番地,,16,210,9391861,,,2024-01-11,清算の結了等,,,2015-10-05,1,,,,,オオオカショウテン,0
980,3230002010475,登記記録の閉鎖等,0,2024-01-16,2024-01-11,有限会社グロ・ワール,,有限会社,富山県,高岡市,戸出町６丁目４番１０号,,16,202,9391104,,,2024-01-11,清算の結了等,,,2015-10-05,1,,,,,グロワール,0
984,3240001021992,登記記録の閉鎖等,0,2024-01-16,2024-01-04,株式会社並木,,株式会社,広島県,広島市南区,比治山町２番５号６０３,,34,103,7320817,,,2024-01-04,合併による解散等,8240002049252,令和６年１月１日広島県安芸郡海田町蟹原一丁目４番７３号株式会社海田自動車学校（8240002049252）に合併し解散,2015-10-05,1,,,,,ナミキ,0
985,3240001027453,登記記録の閉鎖等,0,2024-01-16,2024-01-09,株式会社アジアシップトレーダー,,株式会社,広島県,江田島市,大柿町柿浦１９４番地１,,34,215,7372211,,,2024-01-09,清算の結了等,,,2015-10-05,1,,,,,アジアシップトレーダー,0
989,3260001012775,登記記録の閉鎖等,0,2024-01-16,2024-01-15,株式会社オビエ,,株式会社,岡山県,倉敷市,西田１３９番地の３,,33,202,7100027,,,2024-01-15,清算の結了等,,,2015-10-05,1,,,,,オビエ,0
998,3290001075332,登記記録の閉鎖等,0,2024-01-16,2024-01-10,株式会社ワークポート九州,,株式会社,福岡県,福岡市中央区,天神１丁目３番３８号,,40,133,8100001,,,2024-01-10,合併による解散等,9010701016178,令和６年１月１日東京都品川区大崎一丁目２番２号株式会社ワークポート（9010701016178）に合併し解散,2016-10-03,1,,,,,,0
1003,3290005018329,登記記録の閉鎖等,0,2024-01-16,2024-01-09,一般社団法人Ｔｈｅ　Ｉｎｔｅｒｎａｔｉｏｎａｌ　Ｐｌａｓｍａｌｏｇｅｎ　Ｓｏｃｉｅｔｙ,,その他の設立登記法人,福岡県,糟屋郡久山町,大字久原２２４１番地の１,,40,348,8112501,,,2024-01-09,清算の結了等,,,2021-09-13,1,,,,,ザインターナショナルプラズマローゲンソサイエティ,0
1011,3370001011510,登記記録の閉鎖等,0,2024-01-16,2024-01-11,株式会社ビイ・ビイ技研,,株式会社,宮城県,仙台市若林区,遠見塚１丁目７番３９－２号,,04,103,9840823,,,2024-01-11,清算の結了等,,,2015-10-05,1,,,,,ビイビイギケン,0
1015,3380003000717,登記記録の閉鎖等,0,2024-01-16,2024-01-11,合資会社ビジネス・パートナー・ヌマコ,,合資会社,福島県,東白川郡塙町,大字植田字前ノ内３８番地４,,07,483,9635343,,,2024-01-11,清算の結了等,,,2015-10-05,1,,,,,ビジネスパートナーヌマコ,0
1019,3400001008288,登記記録の閉鎖等,0,2024-01-16,2024-01-10,龍飛株式会社,,株式会社,岩手県,北上市,九年橋３丁目１４番４２号グランデール北上３号棟２階２０４号室,,03,206,0240063,,,2024-01-10,登記官による閉鎖,,,2015-10-05,1,,,,,,0
1020,3400002010326,登記記録の閉鎖等,0,2024-01-16,2024-01-11,有限会社遠野,,有限会社,岩手県,遠野市,材木町２番１６号,,03,208,0280521,,,2024-01-11,清算の結了等,,,2015-10-05,1,,,,,トオノ,0
1021,3400005004341,登記記録の閉鎖等,0,2024-01-16,2024-01-10,財団法人箱崎町愛林公益会,,その他の設立登記法人,岩手県,釜石市,箱崎町第７地割６１番地２,,03,211,0260303,,,2024-01-10,登記官による閉鎖,,,2015-10-05,1,,,,,,0
1022,3400605000285,登記記録の閉鎖等,0,2024-01-16,2024-01-10,農事組合法人江梁葉たばこ生産組合,,その他の設立登記法人,岩手県,奥州市,江刺梁川字濁沢１４０番地１,,03,215,0231341,,,2024-01-10,登記官による閉鎖,,,2015-10-05,1,,,,,,0
1023,3400605000368,登記記録の閉鎖等,0,2024-01-16,2024-01-10,農事組合法人金ケ崎町畜産経営環境保全組合,,その他の設立登記法人,岩手県,胆沢郡金ケ崎町,西根谷来浦４６番地の１,,03,381,0294503,,,2024-01-10,登記官による閉鎖,,,2015-10-05,1,,,,,,0
1024,3402702000498,登記記録の閉鎖等,0,2024-01-16,2024-01-10,有限会社久保殖産,,有限会社,岩手県,陸前高田市,気仙町字要谷４４番地２,,03,210,0292204,,,2024-01-10,登記官による閉鎖,,,2016-01-08,1,,,,,,0
1028,3420002008104,登記記録の閉鎖等,0,2024-01-16,2024-01-11,有限会社南部美術,,有限会社,青森県,八戸市,日計１丁目２番１６号,,02,203,0391169,,,2024-01-11,清算の結了等,,,2015-10-05,1,,,,,ナンブビジュツ,0
1039,3500001001084,登記記録の閉鎖等,0,2024-01-16,2024-01-15,株式会社オオニシ,,株式会社,愛媛県,松山市,宮西１丁目９番２２号,,38,201,7900065,,,2024-01-15,登記官による閉鎖,,,2018-09-07,1,,,,,オオニシ,0
1040,3500001005993,登記記録の閉鎖等,0,2024-01-16,2024-01-15,株式会社ユウキ精工,,株式会社,愛媛県,松山市,恵原町甲８４６番地,,38,201,7911134,,,2024-01-15,登記官による閉鎖,,,2015-10-05,1,,,,,,0
1041,3500001008311,登記記録の閉鎖等,0,2024-01-16,2024-01-15,株式会社佐々木本店,,株式会社,愛媛県,西宇和郡伊方町,川永田甲１４２番地,,38,442,7960312,,,2024-01-15,登記官による閉鎖,,,2015-10-05,1,,,,,,0
1042,3500001015860,登記記録の閉鎖等,0,2024-01-16,2024-01-15,株式会社竜進商事,,株式会社,愛媛県,宇和島市,坂下津甲４０７番地８４,,38,203,7980087,,,2024-01-15,登記官による閉鎖,,,2015-10-05,1,,,,,,0
1043,3500001016306,登記記録の閉鎖等,0,2024-01-16,2024-01-15,株式会社楽プロジェクト,,株式会社,愛媛県,伊予郡松前町,大字北黒田７２４番地１,,38,401,7913102,,,2024-01-15,登記官による閉鎖,,,2015-10-05,1,,,,,,0
1045,3500001025083,登記記録の閉鎖等,0,2024-01-16,2024-01-15,伸光興産株式会社,,株式会社,愛媛県,今治市,古国分２丁目３番１０号,,38,202,7991521,,,2024-01-15,登記官による閉鎖,,,2023-08-09,1,,,,,シンコウコウサン,0
1047,3500002001059,登記記録の閉鎖等,0,2024-01-16,2024-01-15,有限会社インテリア持田,,有限会社,愛媛県,松山市,朝生田町７丁目１２番１３号,,38,201,7900952,,,2024-01-15,登記官による閉鎖,,,2015-10-05,1,,,,,,0
1048,3500002004417,登記記録の閉鎖等,0,2024-01-16,2024-01-15,有限会社中豫興産,,有限会社,愛媛県,松山市,三番町８丁目３２４番地３,,38,201,7900003,,,2024-01-15,登記官による閉鎖,,,2015-10-05,1,,,,,,0
1049,3500002007279,登記記録の閉鎖等,0,2024-01-16,2024-01-15,有限会社吉本建工,,有限会社,愛媛県,松山市,土居田町８３２番地５,,38,201,7900056,,,2024-01-15,登記官による閉鎖,,,2015-10-05,1,,,,,ヨシモトケンコウ,0
1050,3500002019282,登記記録の閉鎖等,0,2024-01-16,2024-01-15,有限会社八木洋品店,,有限会社,愛媛県,今治市,菊間町浜７０９番地,,38,202,7992303,,,2024-01-15,登記官による閉鎖,,,2018-07-03,1,,,,,,0
1051,3500002022006,登記記録の閉鎖等,0,2024-01-16,2024-01-15,有限会社伊予秀芸,,有限会社,愛媛県,四国中央市,土居町蕪崎２６３９番地,,38,213,7990724,,,2024-01-15,登記官による閉鎖,,,2015-10-05,1,,,,,,0
1052,3500005001064,登記記録の閉鎖等,0,2024-01-16,2024-01-15,耐震工業協同組合,,その他の設立登記法人,愛媛県,松山市,中野町甲１４３番地３,,38,201,7911121,,,2024-01-15,登記官による閉鎖,,,2015-10-05,1,,,,,,0
1053,3500005002062,登記記録の閉鎖等,0,2024-01-16,2024-01-15,中四国人材支援企業組合,,その他の設立登記法人,愛媛県,松山市,東方町甲１９１９番地,,38,201,7911123,,,2024-01-15,登記官による閉鎖,,,2015-10-05,1,,,,,,0
1054,3500005004232,登記記録の閉鎖等,0,2024-01-16,2024-01-15,特定非営利活動法人瀬戸内エコライフ,,その他の設立登記法人,愛媛県,西条市,西泉乙３８５番地,,38,206,7930064,,,2024-01-15,登記官による閉鎖,,,2015-10-05,1,,,,,,0
1073,4010401018074,登記記録の閉鎖等,0,2024-01-16,2024-01-10,株式会社ディーエイチシー,,株式会社,東京都,港区,南麻布２丁目７番１号,,13,103,1060047,,,2024-01-10,合併による解散等,1010401170497,令和６年１月１日東京都港区南麻布二丁目７番１号株式会社ディーエイチシー（1010401170497）に合併し解散,2015-10-05,1,,,,,ディーエイチシー,0
1081,4010401113123,登記記録の閉鎖等,0,2024-01-16,2023-12-28,株式会社ＴＯＫＥＸ,,株式会社,東京都,港区,六本木１丁目４番５号アークヒルズサウスタワー１６階,,13,103,1060032,,,2023-12-28,清算の結了等,,,2015-10-05,1,,,,,トケックス,0
1101,4010901027376,登記記録の閉鎖等,0,2024-01-16,2024-01-11,株式会社あんしんリンク,,株式会社,福岡県,福岡市中央区,舞鶴１丁目２番１号天神陽明ビル３階,,40,133,8100073,,,2024-01-11,合併による解散等,8310001003509,令和６年１月１日長崎県西彼杵郡長与町高田郷１７８５番地１０株式会社Ｍシステムズ（8310001003509）に合併し解散,2015-10-05,1,,,,,,0
1108,4011001060284,登記記録の閉鎖等,0,2024-01-16,2024-01-05,マクスタアフィルム株式会社,,株式会社,東京都,渋谷区,代々木３丁目４１番９号,,13,113,1510053,,,2024-01-05,合併による解散等,4011001059277,令和６年１月１日東京都渋谷区代々木三丁目４１番９号マクスタア株式会社（4011001059277）に合併し解散,2015-10-05,1,,,,,マクスタアフィルム,0
1116,4011101087640,登記記録の閉鎖等,0,2024-01-16,2024-01-11,ヴァーダー・サイエンティフィック・ホールディング・ジャパン株式会社,,株式会社,東京都,新宿区,新宿５丁目８番８号,,13,104,1600022,,,2024-01-11,合併による解散等,2011001042160,令和６年１月１日大阪市住之江区南港東八丁目２番５２号マイクロトラック・ベル株式会社（2011001042160）に合併し解散,2019-05-17,1,,,,,ヴァーダーサイエンティフィックホールディングジャパン,0
1130,4011602024035,登記記録の閉鎖等,0,2024-01-16,2024-01-05,京浜ロジテック有限会社,,有限会社,東京都,練馬区,石神井町３丁目２７番４号,,13,120,1770041,,,2024-01-05,清算の結了等,,,2015-10-05,1,,,,,ケイヒンロジテック,0
1136,4011803004042,登記記録の閉鎖等,0,2024-01-16,2023-12-28,エール地所株式会社,,株式会社,千葉県,八千代市,勝田台北２丁目２１番３号,,12,221,2760020,,,2023-12-28,清算の結了等,,,2020-03-05,1,,,,,エールジショ,0
1141,4012805000079,登記記録の閉鎖等,0,2024-01-16,2023-12-27,医療法人社団弘樹会,,その他の設立登記法人,東京都,昭島市,田中町５６２番８号昭島昭和ビル２階,,13,207,1960014,,,2023-12-27,清算の結了等,,,2015-10-05,1,,,,,コウジュカイ,0
1147,4020001030197,登記記録の閉鎖等,0,2024-01-16,2024-01-11,株式会社日本コンサルティング,,株式会社,神奈川県,横浜市神奈川区,沢渡１番地２,,14,102,2210844,,,2024-01-11,合併による解散等,7010001146074,令和６年１月１日東京都千代田区丸の内一丁目８番３号株式会社アウトソーシングテクノロジー（7010001146074）に合併し解散,2015-10-05,1,,,,,ニホンコンサルティング,0
1179,4040001070729,登記記録の閉鎖等,0,2024-01-16,2023-12-28,株式会社サイエンスフォーラム,,株式会社,千葉県,我孫子市,天王台５丁目９番３号,,12,222,2701143,,,2023-12-28,清算の結了等,,,2015-10-05,1,,,,,サイエンスフォーラム,0
1245,4090001008807,登記記録の閉鎖等,0,2024-01-16,2024-01-15,株式会社アライブ,,株式会社,山梨県,大月市,猿橋町伊良原６３番地,,19,206,4090613,,,2024-01-15,清算の結了等,,,2015-10-05,1,,,,,,0
1270,4120005008130,登記記録の閉鎖等,0,2024-01-16,2024-01-12,弁護士法人西田広一法律事務所,,その他の設立登記法人,大阪府,大阪市北区,西天満５丁目１番３号南森町パークビル５階,,27,127,5300047,,,2024-01-12,清算の結了等,,,2015-10-05,1,,,,,,0
1282,4120902019733,登記記録の閉鎖等,0,2024-01-16,2024-01-10,有限会社北摂メディカルサービス,,有限会社,大阪府,豊中市,岡上の町４丁目３番１７号,,27,203,5600023,,,2024-01-10,清算の結了等,,,2015-10-05,1,,,,,ホクセツメディカルサービス,0
1283,4122002013154,登記記録の閉鎖等,0,2024-01-16,2024-01-10,有限会社イヌイ商事,,有限会社,大阪府,八尾市,小畑町３丁目７４番地の２,,27,212,5810835,,,2024-01-10,合併による解散等,7122001017748,令和５年１２月３１日大阪府八尾市小畑町三丁目７４番地の２イヌイ建販株式会社（7122001017748）に合併し解散,2015-10-05,1,,,,,イヌイショウジ,0
1300,4170005002137,登記記録の閉鎖等,0,2024-01-16,2023-12-18,龍泉寺,,その他の設立登記法人,和歌山県,海南市,下津町方１０９９番地,,30,202,6490111,,,2023-12-18,合併による解散等,6170005002267,令和５年１２月１８日和歌山県海南市下津町梅田２７１番地善福院（6170005002267）に合併し解散,2015-10-05,1,,,,,リュウセンジ,0
1303,4180001016305,登記記録の閉鎖等,0,2024-01-16,2024-01-16,株式会社ダイソウ,,株式会社,愛知県,名古屋市東区,泉１丁目１８番１４号,,23,102,4610001,,,2024-01-16,登記官による閉鎖,,,2015-10-05,1,,,,,,0
1304,4180001026007,登記記録の閉鎖等,0,2024-01-16,2024-01-16,株式会社大荘,,株式会社,愛知県,名古屋市西区,城西町１１４番１,,23,104,4520841,,,2024-01-16,登記官による閉鎖,,,2015-10-05,1,,,,,,0
1305,4180001033928,登記記録の閉鎖等,0,2024-01-16,2024-01-16,株式会社アドフォスター,,株式会社,愛知県,名古屋市中区,錦２丁目１９番１８号,,23,106,4600003,,,2024-01-16,登記官による閉鎖,,,2015-10-05,1,,,,,,0
1306,4180001034166,登記記録の閉鎖等,0,2024-01-16,2024-01-16,株式会社磯部式商店,,株式会社,愛知県,名古屋市中区,門前町６番２９号,,23,106,4600018,,,2024-01-16,登記官による閉鎖,,,2015-10-05,1,,,,,,0
1307,4180001055757,登記記録の閉鎖等,0,2024-01-16,2024-01-16,株式会社ＡＤ　ＳＴＵＦＦ,,株式会社,愛知県,名古屋市北区,大杉２丁目６番６号,,23,103,4620837,,,2024-01-16,登記官による閉鎖,,,2015-10-05,1,,,,,,0
1308,4180001062431,登記記録の閉鎖等,0,2024-01-16,2024-01-16,ＴＧＷＩ　Ｊａｐａｎ株式会社,,株式会社,愛知県,名古屋市中区,栄１丁目６番１４号,,23,106,4600008,,,2024-01-16,登記官による閉鎖,,,2015-10-05,1,,,,,,0
1309,4180001071903,登記記録の閉鎖等,0,2024-01-16,2024-01-16,株式会社キャストバンク,,株式会社,愛知県,名古屋市緑区,定納山１丁目１６０４番地,,23,114,4598011,,,2024-01-16,登記官による閉鎖,,,2015-10-05,1,,,,,,0
1310,4180001073024,登記記録の閉鎖等,0,2024-01-16,2024-01-16,株式会社インターメディエイト,,株式会社,愛知県,名古屋市中村区,名駅４丁目５－２６ユニモール桜ビル４Ｆ,,23,105,4500002,,,2024-01-16,登記官による閉鎖,,,2015-10-05,1,,,,,,0
1311,4180001081142,登記記録の閉鎖等,0,2024-01-16,2024-01-16,株式会社堀井精工,,株式会社,愛知県,丹羽郡大口町,奈良子１丁目９１番地,,23,361,4800139,,,2024-01-16,登記官による閉鎖,,,2015-10-05,1,,,,,,0
1312,4180001088575,登記記録の閉鎖等,0,2024-01-16,2024-01-16,株式会社長崎商事,00072412,株式会社,愛知県,名古屋市中川区,供米田１丁目９０７番地,,23,110,4540984,,,2024-01-16,登記官による閉鎖,,,2015-10-05,1,,,,,,0
1313,4180001096289,登記記録の閉鎖等,0,2024-01-16,2024-01-16,天佑株式会社,,株式会社,愛知県,半田市,榎下町２６番地の２メゾニティーヒルズＢ棟１０２号,,23,205,4750867,,,2024-01-16,登記官による閉鎖,,,2015-10-05,1,,,,,,0
1314,4180001105537,登記記録の閉鎖等,0,2024-01-16,2024-01-16,ＭＹ　ｅｘｃｌｕｓｉｖｅ株式会社,,株式会社,愛知県,名古屋市緑区,鶴が沢２丁目７０５番地,,23,114,4580814,,,2024-01-16,登記官による閉鎖,,,2015-10-05,1,,,,,,0
1315,4180001110248,登記記録の閉鎖等,0,2024-01-16,2024-01-16,ＧｅｉＳｈｉｎｎｓｕｉ株式会社,,株式会社,愛知県,尾張旭市,三郷町陶栄１０５クリスタル三郷２０１号,,23,226,4880016,,,2024-01-16,登記官による閉鎖,,,2015-10-05,1,,,,,,0
1323,4180002003590,登記記録の閉鎖等,0,2024-01-16,2024-01-16,有限会社勲商事,,有限会社,愛知県,名古屋市千種区,姫池通１丁目８番地,,23,101,4640055,,,2024-01-16,登記官による閉鎖,,,2015-10-05,1,,,,,,0
1324,4180002014729,登記記録の閉鎖等,0,2024-01-16,2024-01-16,星崎化学有限会社,,有限会社,愛知県,名古屋市南区,本星崎町字寺坂７４８番地の１,,23,112,4570056,,,2024-01-16,登記官による閉鎖,,,2015-10-05,1,,,,,,0
1325,4180002015801,登記記録の閉鎖等,0,2024-01-16,2024-01-16,あいち営繕センター有限会社,,有限会社,愛知県,名古屋市名東区,神月町２０３番地,,23,115,4650006,,,2024-01-16,登記官による閉鎖,,,2015-10-05,1,,,,,,0
1326,4180002033299,登記記録の閉鎖等,0,2024-01-16,2024-01-16,有限会社屋根のヨロヅヤ,,有限会社,愛知県,名古屋市中区,新栄３丁目６番１１号,,23,106,4600007,,,2024-01-16,登記官による閉鎖,,,2015-10-05,1,,,,,,0
1327,4180002046870,登記記録の閉鎖等,0,2024-01-16,2024-01-16,有限会社すてっぷ,,有限会社,愛知県,名古屋市西区,名駅２丁目２５番３号,,23,104,4510045,,,2024-01-16,登記官による閉鎖,,,2015-10-05,1,,,,,,0
1328,4180002058775,登記記録の閉鎖等,0,2024-01-16,2024-01-16,有限会社ＪＬＳＩＮ,,有限会社,愛知県,名古屋市東区,筒井２丁目１２番４０号,,23,102,4610003,,,2024-01-16,登記官による閉鎖,,,2015-10-05,1,,,,,,0
1330,4180002068411,登記記録の閉鎖等,0,2024-01-16,2024-01-16,有限会社ケアシステム,,有限会社,愛知県,春日井市,大手町３丁目７番地の５,,23,206,4860807,,,2024-01-16,登記官による閉鎖,,,2015-10-05,1,,,,,,0
1331,4180002071480,登記記録の閉鎖等,0,2024-01-16,2024-01-16,有限会社イトミック,,有限会社,愛知県,瀬戸市,瀬戸口町４番地,,23,204,4890941,,,2024-01-16,登記官による閉鎖,,,2015-10-05,1,,,,,,0
1332,4180002072710,登記記録の閉鎖等,0,2024-01-16,2024-01-16,有限会社佐分製作所,,有限会社,愛知県,尾張旭市,庄南町４丁目７番地,,23,226,4880823,,,2024-01-16,登記官による閉鎖,,,2015-10-05,1,,,,,,0
1333,4180002079945,登記記録の閉鎖等,0,2024-01-16,2024-01-16,有限会社松原軌道,,有限会社,愛知県,一宮市,西五城字飛石北３７番地５,,23,203,4940005,,,2024-01-16,登記官による閉鎖,,,2015-10-05,1,,,,,,0
1334,4180002085407,登記記録の閉鎖等,0,2024-01-16,2024-01-16,有限会社前進工房,,有限会社,愛知県,知多郡東浦町,大字森岡字祖母懐６番地の６５,,23,442,4702101,,,2024-01-16,登記官による閉鎖,,,2015-10-05,1,,,,,,0
1335,4180003002939,登記記録の閉鎖等,0,2024-01-16,2024-01-16,合資会社福井商会,,合資会社,愛知県,名古屋市中川区,中野本町１丁目５番地,,23,110,4540047,,,2024-01-16,登記官による閉鎖,,,2015-10-05,1,,,,,,0
1336,4180003010099,登記記録の閉鎖等,0,2024-01-16,2024-01-16,合資会社七福製パン,,合資会社,愛知県,春日井市,高山町１丁目１９番地９,,23,206,4860912,,,2024-01-16,登記官による閉鎖,,,2015-10-05,1,,,,,,0
1337,4180003014018,登記記録の閉鎖等,0,2024-01-16,2024-01-16,テレコール合同会社,,合同会社,愛知県,名古屋市天白区,元八事５丁目１１１番地,,23,116,4680066,,,2024-01-16,登記官による閉鎖,,,2015-10-05,1,,,,,,0
1339,4180005005213,登記記録の閉鎖等,0,2024-01-16,2024-01-16,社団法人豊茗会,,その他の設立登記法人,愛知県,名古屋市中区,錦３丁目２３番３１号栄町ビル６階,,23,106,4600003,,,2024-01-16,登記官による閉鎖,,,2015-10-05,1,,,,,,0
1341,4180005014247,登記記録の閉鎖等,0,2024-01-16,2024-01-16,特定非営利活動法人ユー・アイ・ワールド,,その他の設立登記法人,愛知県,名古屋市港区,善南町４２番地の２,,23,111,4550814,,,2024-01-16,登記官による閉鎖,,,2015-10-05,1,,,,,,0
1343,4180301012160,登記記録の閉鎖等,0,2024-01-16,2024-01-16,株式会社サカイモールド,,株式会社,愛知県,蒲郡市,大塚町下長尾７番地,,23,214,4430013,,,2024-01-16,登記官による閉鎖,,,2015-10-05,1,,,,,,0
1344,4180301017705,登記記録の閉鎖等,0,2024-01-16,2024-01-16,株式会社エフツーエー,,株式会社,愛知県,安城市,安城町名広８７番地,,23,212,4460026,,,2024-01-16,登記官による閉鎖,,,2015-10-05,1,,,,,,0
1345,4180301018950,登記記録の閉鎖等,0,2024-01-16,2024-01-16,豊田木材株式会社,,株式会社,愛知県,豊田市,日之出町１丁目４番地の１,,23,211,4710075,,,2024-01-16,登記官による閉鎖,,,2015-10-05,1,,,,,トヨタモクザイ,0
1346,4180301021979,登記記録の閉鎖等,0,2024-01-16,2024-01-16,株式会社ミクモ,,株式会社,愛知県,額田郡幸田町,大字坂崎字海老子２０番地１,,23,501,4440104,,,2024-01-16,登記官による閉鎖,,,2015-10-05,1,,,,,,0
1347,4180301031771,登記記録の閉鎖等,0,2024-01-16,2024-01-16,株式会社マルサ,,株式会社,愛知県,豊橋市,石巻本町字北市場４５番地の３１,,23,201,4411115,,,2024-01-16,登記官による閉鎖,,,2018-08-14,1,,,,,マルサ,0
1349,4180302011384,登記記録の閉鎖等,0,2024-01-16,2024-01-16,有限会社ジェイ・トラフィック,,有限会社,愛知県,豊橋市,菰口町３丁目５８番地の１,,23,201,4418011,,,2024-01-16,登記官による閉鎖,,,2015-10-05,1,,,,,,0
1350,4180302027521,登記記録の閉鎖等,0,2024-01-16,2024-01-16,有限会社豊,,有限会社,愛知県,蒲郡市,神明町２３番１１号,,23,214,4430056,,,2024-01-16,登記官による閉鎖,,,2015-10-05,1,,,,,ユタカ,0
1356,4190002016600,登記記録の閉鎖等,0,2024-01-16,2024-01-10,有限会社米徳鋳造所,,有限会社,三重県,桑名市,大字額田３１９番地,,24,205,5110911,,,2024-01-10,清算の結了等,,,2015-10-05,1,,,,,コメトクチュウゾウショ,0
1362,4210001014263,登記記録の閉鎖等,0,2024-01-16,2024-01-16,株式会社谷口徳兵衛,,株式会社,福井県,大飯郡高浜町,鎌倉第１３号１６番地１,,18,481,9192352,,,2024-01-16,登記官による閉鎖,,,2015-10-05,1,,,,,,0
1363,4210001017233,登記記録の閉鎖等,0,2024-01-16,2024-01-16,山重木材株式会社,,株式会社,福井県,鯖江市,西袋町第１８号３番地,,18,207,9161221,,,2024-01-16,登記官による閉鎖,,,2018-08-01,1,,,,,ヤマジュウモクザイ,0
1369,4240002016603,登記記録の閉鎖等,0,2024-01-16,2024-01-04,有限会社メイコー冷熱サービス,,有限会社,広島県,広島市佐伯区,八幡１丁目１６番１０号,,34,108,7315116,,,2024-01-04,清算の結了等,,,2015-10-05,1,,,,,メイコーレイネツサービス,0
1370,4240002033417,登記記録の閉鎖等,0,2024-01-16,2024-01-09,有限会社ツーテック,,有限会社,広島県,呉市,仁方西神町１番１０号,,34,202,7370145,,,2024-01-09,清算の結了等,,,2015-10-05,1,,,,,ツーテック,0
1371,4240002035669,登記記録の閉鎖等,0,2024-01-16,2024-01-05,有限会社たちばな,,有限会社,広島県,江田島市,江田島町切串３丁目７番６号,,34,215,7372111,,,2024-01-05,清算の結了等,,,2015-10-05,1,,,,,タチバナ,0
1372,4250005003234,登記記録の閉鎖等,0,2024-01-16,2024-01-11,医療法人平井医院,,その他の設立登記法人,山口県,下関市,宮田町２丁目１６番９号,,35,201,7500002,,,2024-01-11,清算の結了等,,,2015-10-05,1,,,,,ヒライイイン,0
1376,4270001005769,登記記録の閉鎖等,0,2024-01-16,2024-01-15,株式会社ドラセナ,,株式会社,鳥取県,鳥取市,湖山町東１丁目１３０番地４９,,31,201,6800942,,,2024-01-15,清算の結了等,,,2015-10-05,1,,,,,ドラセナ,0
1379,4290001001304,登記記録の閉鎖等,0,2024-01-16,2024-01-12,三成産業株式会社,,株式会社,福岡県,福岡市南区,長住２丁目１１番２２号,,40,134,8111362,,,2024-01-12,清算の結了等,,,2015-10-05,1,,,,,サンセイサンギョウ,0
1394,4320002001638,登記記録の閉鎖等,0,2024-01-16,2024-01-11,有限会社小川硝子店,,有限会社,大分県,大分市,碩田町１丁目３番１０号,,44,201,8700048,,,2024-01-11,清算の結了等,,,2015-10-05,1,,,,,オガワガラステン,0
1411,4400001004658,登記記録の閉鎖等,0,2024-01-16,2024-01-10,株式会社クオリティライフ,,株式会社,岩手県,盛岡市,内丸１７番３６－２０５号,,03,201,0200023,,,2024-01-10,登記官による閉鎖,,,2015-10-05,1,,,,,,0
1414,4400002011513,登記記録の閉鎖等,0,2024-01-16,2024-01-10,有限会社釜石礦油,,有限会社,岩手県,釜石市,中妻町１丁目１９番８号,,03,211,0260034,,,2024-01-10,登記官による閉鎖,,,2015-10-05,1,,,,,,0
1438,4500001003600,登記記録の閉鎖等,0,2024-01-16,2024-01-15,株式会社フレックス,,株式会社,愛媛県,松山市,保免上２丁目３番８号,,38,201,7900041,,,2024-01-15,登記官による閉鎖,,,2015-10-05,1,,,,,,0
1439,4500001005456,登記記録の閉鎖等,0,2024-01-16,2024-01-15,株式会社ニッカンエンジニアリング,,株式会社,愛媛県,松山市,太山寺町乙２４９番地１,,38,201,7992662,,,2024-01-15,登記官による閉鎖,,,2015-10-05,1,,,,,ニッカンエンジニアリング,0
1440,4500001005704,登記記録の閉鎖等,0,2024-01-16,2024-01-15,株式会社双美,,株式会社,愛媛県,松山市,南吉田町１８５４番地２１,,38,201,7918042,,,2024-01-15,登記官による閉鎖,,,2015-10-05,1,,,,,,0
1442,4500001011413,登記記録の閉鎖等,0,2024-01-16,2024-01-15,株式会社亀田組,,株式会社,愛媛県,今治市,宮下町２丁目３番２１号,,38,202,7940052,,,2024-01-15,登記官による閉鎖,,,2015-10-05,1,,,,,,0
1443,4500001011628,登記記録の閉鎖等,0,2024-01-16,2024-01-15,株式会社サンスポーツ,,株式会社,愛媛県,今治市,東村南１丁目１０番６号,,38,202,7991507,,,2024-01-15,登記官による閉鎖,,,2015-10-05,1,,,,,,0
1445,4500002007121,登記記録の閉鎖等,0,2024-01-16,2024-01-15,有限会社山本鉄筋,,有限会社,愛媛県,松山市,祇園町７番１５号,,38,201,7900965,,,2024-01-15,登記官による閉鎖,,,2015-10-05,1,,,,,,0
1447,4500002019389,登記記録の閉鎖等,0,2024-01-16,2024-01-15,有限会社読売新聞今治南直配所,,有限会社,愛媛県,今治市,新谷甲１４６４番地５,,38,202,7940850,,,2024-01-15,登記官による閉鎖,,,2015-10-05,1,,,,,,0
1448,4500005001063,登記記録の閉鎖等,0,2024-01-16,2024-01-15,拓南被服工業協同組合,,その他の設立登記法人,愛媛県,松山市,立花１丁目６番３１号,,38,201,7900966,,,2024-01-15,登記官による閉鎖,,,2015-10-05,1,,,,,,0
1449,4500005001096,登記記録の閉鎖等,0,2024-01-16,2024-01-15,松山石油協同組合,,その他の設立登記法人,愛媛県,松山市,宮西２丁目５番１６号,,38,201,7900065,,,2024-01-15,登記官による閉鎖,,,2015-10-05,1,,,,,,0
1450,4500005001402,登記記録の閉鎖等,0,2024-01-16,2024-01-15,財団法人愛媛県育英会,00009086,その他の設立登記法人,愛媛県,松山市,一番町７第７番地８ノ２番地、１５番地、１６番地、乙５番地、乙６番地愛媛県庁内,00009087,38,201,7910000,,,2024-01-15,登記官による閉鎖,,,2015-10-05,1,,,,,,0
1468,5010401054738,登記記録の閉鎖等,0,2024-01-16,2024-01-11,株式会社日本旅行リテイリング,,株式会社,東京都,港区,海岸２丁目１番２４号,,13,103,1050022,,,2024-01-11,合併による解散等,1010401023408,令和５年１２月３１日東京都中央区日本橋一丁目１９番１号株式会社日本旅行（1010401023408）に合併し解散,2015-10-05,1,,,,,ニホンリョコウリテイリング,0
1477,5010601013428,登記記録の閉鎖等,0,2024-01-16,2023-12-27,株式会社佃よし本店,,株式会社,東京都,墨田区,押上３丁目２２番１４号,,13,107,1310045,,,2023-12-27,清算の結了等,,,2015-10-05,1,,,,,ツクヨシホンテン,0
1478,5010701016140,登記記録の閉鎖等,0,2024-01-16,2024-01-10,Ｎ＆Ｆテクノサービス株式会社,,株式会社,東京都,調布市,柴崎１丁目６７番地１,,13,208,1820014,,,2024-01-10,合併による解散等,9370201003302,令和６年１月１日宮城県栗原市若柳字川北中文字９５番１株式会社富士フイルムテクノサービス（9370201003302）に合併し解散,2015-10-05,1,,,,,エヌアンドエフテクノサービス,0
1481,5010702005043,登記記録の閉鎖等,0,2024-01-16,2024-01-09,有限会社タッドインターナショナル,,有限会社,東京都,品川区,大崎２丁目１１番２－４１１号,,13,109,1410032,,,2024-01-09,清算の結了等,,,2015-10-05,1,,,,,タッドインターナショナル,0
1487,5010902022292,登記記録の閉鎖等,0,2024-01-16,2024-01-09,有限会社下田ブロック,,有限会社,東京都,目黒区,中目黒５丁目２４番２０号,,13,110,1530061,,,2024-01-09,清算の結了等,,,2015-10-05,1,,,,,シモダブロック,0
1492,5011002000131,登記記録の閉鎖等,0,2024-01-16,2024-01-11,有限会社アートウェアー,,有限会社,東京都,渋谷区,本町５丁目４２番１１号,,13,113,1510071,,,2024-01-11,清算の結了等,,,2015-10-05,1,,,,,アートウェアー,0
1496,5011101095865,登記記録の閉鎖等,0,2024-01-16,2024-01-09,株式会社Ｃｏ－Ｃｒｅａｔｉｏｎ,,株式会社,東京都,品川区,北品川４丁目８番３３号御殿山ハウス３１１,,13,109,1400001,,,2024-01-09,清算の結了等,,,2021-08-05,1,,,,,コクリエイション,0
1501,5011501004038,登記記録の閉鎖等,0,2024-01-16,2023-12-28,株式会社藤原呉服店,,株式会社,東京都,北区,浮間４丁目３２番２９－３０３号,,13,117,1150051,,,2023-12-28,清算の結了等,,,2015-10-05,1,,,,,フジワラゴフクテン,0
1506,5011602001702,登記記録の閉鎖等,0,2024-01-16,2024-01-10,有限会社エフケーコーポレーション,,有限会社,東京都,練馬区,桜台１丁目４番１４－１００３号,,13,120,1760002,,,2024-01-10,清算の結了等,,,2015-10-05,1,,,,,エフケーコーポレーション,0
1533,5021002052469,登記記録の閉鎖等,0,2024-01-16,2024-01-11,有限会社玉八鮨,,有限会社,神奈川県,小田原市,鴨宮５９９番地,,14,206,2500874,,,2024-01-11,清算の結了等,,,2015-10-05,1,,,,,タマハチズシ,0
1538,5030001046068,登記記録の閉鎖等,0,2024-01-16,2024-01-05,株式会社ノグチ衣料,,株式会社,埼玉県,新座市,あたご３丁目９番２号,,11,230,3520021,,,2024-01-05,清算の結了等,,,2015-10-05,1,,,,,ノグチイリョウ,0
1540,5030001144755,登記記録の閉鎖等,0,2024-01-16,2024-01-12,安誠株式会社,,株式会社,東京都,八王子市,大和田町４丁目２９－１４、２０７,,13,201,1920045,,,2024-01-12,清算の結了等,,,2021-10-11,1,,,,,アンセイ,0
1548,5030005010747,登記記録の閉鎖等,0,2024-01-16,2023-12-18,金山彦神社,,その他の設立登記法人,埼玉県,坂戸市,大字赤尾２７４９番地３,,11,239,3500201,,,2023-12-18,合併による解散等,2030005010824,令和５年１２月１８日埼玉県坂戸市大字赤尾１６６８番地１八坂神社（2030005010824）に合併し解散,2015-10-05,1,,,,,カナヤマヒコジンジャ,0
1550,5040001006855,登記記録の閉鎖等,0,2024-01-16,2023-12-28,株式会社房総工業所,,株式会社,千葉県,千葉市中央区,青葉町１２４９番地９,,12,101,2600852,,,2023-12-28,清算の結了等,,,2015-10-05,1,,,,,ボウソウコウギョウショ,0
1565,5050003005862,登記記録の閉鎖等,0,2024-01-16,2024-01-11,祈炎合同会社,,合同会社,茨城県,水戸市,白梅１丁目６番２４号,,08,201,3100804,,,2024-01-11,清算の結了等,,,2021-05-18,1,,,,,キエン,0
1571,5070001024929,登記記録の閉鎖等,0,2024-01-16,2024-01-09,株式会社ダイム,,株式会社,群馬県,みどり市,笠懸町西鹿田３２６番地４,,10,212,3792314,,,2024-01-09,清算の結了等,,,2015-10-05,1,,,,,ダイム,0
1631,5090001008310,登記記録の閉鎖等,0,2024-01-16,2024-01-12,株式会社大国屋百貨店,,株式会社,山梨県,都留市,つる１丁目１番１号,,19,204,4020056,,,2024-01-12,清算の結了等,,,2015-10-05,1,,,,,オオクニヤヒャッカテン,0
1634,5100001017656,登記記録の閉鎖等,0,2024-01-16,2024-01-10,株式会社わかた,,株式会社,長野県,北安曇郡白馬村,大字神城１４７１番地,,20,485,3999211,,,2024-01-10,清算の結了等,,,2015-10-05,1,,,,,ワカタ,0
1637,5110002011392,登記記録の閉鎖等,0,2024-01-16,2024-01-12,有限会社ベルウイング,,有限会社,新潟県,新潟市西区,小針２丁目１６番２６号,,15,107,9502022,,,2024-01-12,清算の結了等,,,2015-10-05,1,,,,,ベルウイング,0
1642,5120001174784,登記記録の閉鎖等,0,2024-01-16,2024-01-11,株式会社近畿エンジニア,,株式会社,大阪府,大阪市福島区,野田２丁目５番２１号,,27,103,5530005,,,2024-01-11,清算の結了等,,,2015-10-05,1,,,,,キンキエンジニア,0
1656,5120901011698,登記記録の閉鎖等,0,2024-01-16,2024-01-10,チェリー高槻販売株式会社,,株式会社,大阪府,三島郡島本町,高浜２丁目４番２８号,,27,301,6180012,,,2024-01-10,清算の結了等,,,2015-10-05,1,,,,,チェリータカツキハンバイ,0
1664,5130002027577,登記記録の閉鎖等,0,2024-01-16,2024-01-10,有限会社とまり,,有限会社,京都府,宇治市,伊勢田町中ノ荒５１番地７,,26,204,6110043,,,2024-01-10,清算の結了等,,,2015-10-05,1,,,,,トマリ,0
1665,5130002029607,登記記録の閉鎖等,0,2024-01-16,2023-12-28,有限会社川端エンジニアリング,,有限会社,京都府,木津川市,南加茂台１０丁目２番地１４,,26,214,6191127,,,2023-12-28,清算の結了等,,,2015-10-05,1,,,,,カワバタエンジニアリング,0
1673,5180001051689,登記記録の閉鎖等,0,2024-01-16,2024-01-16,株式会社エスケイワイ,,株式会社,愛知県,名古屋市中区,錦３丁目２３番１８号,,23,106,4600003,,,2024-01-16,登記官による閉鎖,,,2015-10-05,1,,,,,,0
1676,5180001070697,登記記録の閉鎖等,0,2024-01-16,2024-01-16,株式会社Ｋ－ＷＥＳＴ,,株式会社,愛知県,名古屋市千種区,堀割町１丁目３４番地の１キャスケード２０１,,23,101,4640065,,,2024-01-16,登記官による閉鎖,,,2015-10-05,1,,,,,,0
1678,5180001097798,登記記録の閉鎖等,0,2024-01-16,2024-01-16,カケヒ株式会社,,株式会社,愛知県,あま市,二ツ寺鬼田４２番地,,23,237,4901207,,,2024-01-16,登記官による閉鎖,,,2015-10-05,1,,,,,,0
1679,5180001098929,登記記録の閉鎖等,0,2024-01-16,2024-01-16,株式会社宮地医療研究所,,株式会社,愛知県,あま市,篠田小塚４８番地,,23,237,4901211,,,2024-01-16,登記官による閉鎖,,,2015-10-05,1,,,,,,0
1680,5180001100248,登記記録の閉鎖等,0,2024-01-16,2024-01-16,ＰＲＡＢＨＵ　ＭＯＮＥＹ　ＴＲＡＮＳＦＥＲ株式会社,,株式会社,愛知県,名古屋市天白区,元八事４丁目１４８番,,23,116,4680066,,,2024-01-16,登記官による閉鎖,,,2015-10-05,1,,,,,,0
1681,5180001105115,登記記録の閉鎖等,0,2024-01-16,2024-01-16,株式会社ムラカミコーポレーション,,株式会社,愛知県,清須市,一場１３４７番地２,,23,233,4520931,,,2024-01-16,登記官による閉鎖,,,2015-10-05,1,,,,,,0
1682,5180001106773,登記記録の閉鎖等,0,2024-01-16,2024-01-16,株式会社ＮＡＫＡＭＡレボリューション,,株式会社,愛知県,名古屋市中区,錦３丁目７番５号,,23,106,4600003,,,2024-01-16,登記官による閉鎖,,,2015-10-05,1,,,,,,0
1683,5180001107334,登記記録の閉鎖等,0,2024-01-16,2024-01-16,ＢＩＧ　ＯＮＥ株式会社,,株式会社,愛知県,名古屋市中区,栄３丁目２８番２５号ＨＡＲＡＤＡ栄南５０１,,23,106,4600008,,,2024-01-16,登記官による閉鎖,,,2015-10-05,1,,,,,,0
1691,5180002001164,登記記録の閉鎖等,0,2024-01-16,2024-01-16,有限会社中野商店,,有限会社,愛知県,名古屋市守山区,新守山１１０４番地,,23,113,4630070,,,2024-01-16,登記官による閉鎖,,,2015-10-05,1,,,,,,0
1692,5180002007252,登記記録の閉鎖等,0,2024-01-16,2023-12-19,有限会社名港船舶整備,,有限会社,愛知県,名古屋市港区,千鳥２丁目１１番１５号,,23,111,4550031,,,2023-12-19,清算の結了等,,,2015-10-05,1,,,,,メイコウセンパクセイビ,0
1693,5180002009240,登記記録の閉鎖等,0,2024-01-16,2024-01-16,有限会社ウイーヴ,,有限会社,愛知県,名古屋市瑞穂区,田辺通３丁目４０番地,,23,108,4670027,,,2024-01-16,登記官による閉鎖,,,2015-10-05,1,,,,,,0
1694,5180002028224,登記記録の閉鎖等,0,2024-01-16,2024-01-16,有限会社滝瀬工業,,有限会社,愛知県,名古屋市中村区,牛田通２丁目１０番地,,23,105,4530853,,,2024-01-16,登記官による閉鎖,,,2015-10-05,1,,,,,,0
1695,5180002036169,登記記録の閉鎖等,0,2024-01-16,2024-01-16,有限会社アサカワ企画,,有限会社,愛知県,名古屋市緑区,六田１丁目２５８番地,,23,114,4580036,,,2024-01-16,登記官による閉鎖,,,2015-10-05,1,,,,,,0
1696,5180002043677,登記記録の閉鎖等,0,2024-01-16,2024-01-16,有限会社ウイン,,有限会社,愛知県,名古屋市中区,大須４丁目１４番６２号,,23,106,4600011,,,2024-01-16,登記官による閉鎖,,,2015-10-05,1,,,,,,0
1697,5180002046597,登記記録の閉鎖等,0,2024-01-16,2024-01-16,有限会社サム設備設計,,有限会社,愛知県,名古屋市中区,新栄３丁目１６番２４号,,23,106,4600007,,,2024-01-16,登記官による閉鎖,,,2015-10-05,1,,,,,,0
1699,5180002059483,登記記録の閉鎖等,0,2024-01-16,2024-01-16,有限会社エム・アンド・エム,,有限会社,愛知県,清須市,春日東出４５番地２,,23,233,4520961,,,2024-01-16,登記官による閉鎖,,,2015-10-05,1,,,,,,0
1700,5180002076801,登記記録の閉鎖等,0,2024-01-16,2024-01-16,有限会社タイシン測量設計,,有限会社,愛知県,一宮市,浅野字青石６２番地,,23,203,4910871,,,2024-01-16,登記官による閉鎖,,,2015-10-05,1,,,,,,0
1701,5180002080910,登記記録の閉鎖等,0,2024-01-16,2024-01-16,有限会社中井コーキング,,有限会社,愛知県,稲沢市,祖父江町大牧明田７６５番地の５３,,23,220,4950014,,,2024-01-16,登記官による閉鎖,,,2015-10-05,1,,,,,,0
1702,5180002087674,登記記録の閉鎖等,0,2024-01-16,2024-01-11,有限会社小林建設工業,,有限会社,愛知県,大府市,吉川町５丁目２８０番地,,23,223,4740046,,,2024-01-11,清算の結了等,,,2015-10-05,1,,,,,コバヤシケンセツコウギョウ,0
1703,5180003001832,登記記録の閉鎖等,0,2024-01-16,2024-01-16,合資会社写真のオグラ,,合資会社,愛知県,名古屋市北区,大曽根２丁目３番２号,,23,103,4620825,,,2024-01-16,登記官による閉鎖,,,2015-10-05,1,,,,,,0
1704,5180003003713,登記記録の閉鎖等,0,2024-01-16,2024-01-16,合資会社松月園茶店,,合資会社,愛知県,名古屋市西区,那古野２丁目１７番２４号,,23,104,4510042,,,2024-01-16,登記官による閉鎖,,,2015-10-05,1,,,,,,0
1705,5180003013992,登記記録の閉鎖等,0,2024-01-16,2024-01-16,都築合同会社,,合同会社,愛知県,名古屋市東区,東外堀町６５番地,,23,102,4610017,,,2024-01-16,登記官による閉鎖,,,2015-10-05,1,,,,,,0
1708,5180005004981,登記記録の閉鎖等,0,2024-01-16,2024-01-16,財団法人盛田国際教育振興財団,,その他の設立登記法人,愛知県,名古屋市中区,栄１丁目７番３４号（盛田株式会社内）,,23,106,4600008,,,2024-01-16,登記官による閉鎖,,,2015-10-05,1,,,,,,0
1710,5180301008538,登記記録の閉鎖等,0,2024-01-16,2024-01-16,株式会社ワールド太誠,,株式会社,愛知県,豊橋市,石巻町字仲瀬古３５番地の８,,23,201,4411112,,,2024-01-16,登記官による閉鎖,,,2015-10-05,1,,,,,,0
1711,5180301013348,登記記録の閉鎖等,0,2024-01-16,2024-01-16,株式会社マネジメントグループ,,株式会社,愛知県,安城市,朝日町２３番６号,,23,212,4460031,,,2024-01-16,登記官による閉鎖,,,2015-10-05,1,,,,,,0
1712,5180301016846,登記記録の閉鎖等,0,2024-01-16,2024-01-16,株式会社仙敷鈑金工業,,株式会社,愛知県,刈谷市,広小路２丁目２１番地４７,,23,210,4480844,,,2024-01-16,登記官による閉鎖,,,2015-10-05,1,,,,,,0
1713,5180301026936,登記記録の閉鎖等,0,2024-01-16,2024-01-04,株式会社さくらホールディングス,,株式会社,愛知県,安城市,池浦町丸田１９３番地３,,23,212,4460066,,,2024-01-04,清算の結了等,,,2015-10-05,1,,,,,サクラホールディングス,0
1715,5180302001343,登記記録の閉鎖等,0,2024-01-16,2024-01-16,有限会社サンヨウ,,有限会社,愛知県,岡崎市,上地町字向山５８番地,,23,202,4440824,,,2024-01-16,登記官による閉鎖,,,2015-10-05,1,,,,,,0
1717,5180302010237,登記記録の閉鎖等,0,2024-01-16,2024-01-16,ヤシオ食品有限会社,,有限会社,愛知県,豊橋市,東小鷹野２丁目１２番地の３,,23,201,4400012,,,2024-01-16,登記官による閉鎖,,,2015-10-05,1,,,,,,0
1718,5180302022562,登記記録の閉鎖等,0,2024-01-16,2024-01-16,有限会社第二三嶋寿司豊田店,,有限会社,愛知県,豊田市,平芝町２丁目８番地４,,23,211,4710065,,,2024-01-16,登記官による閉鎖,,,2015-10-05,1,,,,,,0
1719,5180305003626,登記記録の閉鎖等,0,2024-01-16,2023-12-19,天理教上宿分教会,,その他の設立登記法人,愛知県,豊川市,御油町炮六土４８番地の４,,23,207,4410215,,,2023-12-19,合併による解散等,8160005007174,令和５年１２月１５日滋賀県蒲生郡竜王町大字山之上２６５７番地天理教蒲生大教会（8160005007174）に合併し解散,2015-10-05,1,,,,,テンリキョウカミジュクブンキョウカイ,0
1721,5190002009231,登記記録の閉鎖等,0,2024-01-16,2024-01-09,有限会社富栄商事,,有限会社,三重県,伊勢市,曽祢２丁目７番１９号,,24,203,5160078,,,2024-01-09,清算の結了等,,,2015-10-05,1,,,,,トミエイショウジ,0
1723,5190005011647,登記記録の閉鎖等,0,2024-01-16,2024-01-11,一般社団法人ＡＬＯＨＡ,,その他の設立登記法人,三重県,員弁郡東員町,大字鳥取４５６番地５,,24,324,5110241,,,2024-01-11,清算の結了等,,,2021-11-29,1,,,,,アロハ,0
1727,5210001000618,登記記録の閉鎖等,0,2024-01-16,2024-01-16,株式会社オート興産福井,,株式会社,福井県,福井市,西開発４丁目１０５番地,,18,201,9100843,,,2024-01-16,登記官による閉鎖,,,2015-10-05,1,,,,,オートコウサンフクイ,0
1728,5210001003224,登記記録の閉鎖等,0,2024-01-16,2024-01-16,日本ウェルバー株式会社,,株式会社,福井県,福井市,つくし野１丁目８０４番地,,18,201,9100101,,,2024-01-16,登記官による閉鎖,,,2015-10-05,1,,,,,,0
1729,5210001010492,登記記録の閉鎖等,0,2024-01-16,2024-01-16,株式会社大原不動産,,株式会社,福井県,敦賀市,金ケ崎町５番７号,,18,202,9140072,,,2024-01-16,登記官による閉鎖,,,2015-10-05,1,,,,,,0
1730,5210001014618,登記記録の閉鎖等,0,2024-01-16,2024-01-16,ＭＥテクノ株式会社,,株式会社,福井県,越前市,府中２丁目２番２０号,,18,209,9150071,,,2024-01-16,登記官による閉鎖,,,2015-10-05,1,,,,,,0
1731,5210005000795,登記記録の閉鎖等,0,2024-01-16,2024-01-12,福井県急便協同組合,,その他の設立登記法人,福井県,福井市,成和１丁目１００５番地３,,18,201,9188239,,,2024-01-12,清算の結了等,,,2015-10-05,1,,,,,フクイケンキュウビン,0
1732,5210005001364,登記記録の閉鎖等,0,2024-01-16,2024-01-16,浄福寺,,その他の設立登記法人,福井県,福井市,島寺町５５号６番地,,18,201,9103623,,,2024-01-16,登記官による閉鎖,,,2015-10-05,1,,,,,,0
1733,5210005006867,登記記録の閉鎖等,0,2024-01-16,2024-01-16,社団法人今立建設業会,,その他の設立登記法人,福井県,越前市,粟田部町５３号１番地の１,,18,209,9150242,,,2024-01-16,登記官による閉鎖,,,2015-10-05,1,,,,,,0
1739,5240002009639,登記記録の閉鎖等,0,2024-01-16,2024-01-05,有限会社高須興産,00000819,有限会社,広島県,広島市西区,己斐本町３丁目１２番３３－３０１号,,34,104,7330812,,,2024-01-05,清算の結了等,,,2015-10-05,1,,,,,タカスコウサン,0
1747,5260002003177,登記記録の閉鎖等,0,2024-01-16,2024-01-12,有限会社クサカ工作所,,有限会社,岡山県,岡山市南区,新福１丁目５番１６号,,33,104,7000943,,,2024-01-12,清算の結了等,,,2015-10-05,1,,,,,クサカコウサクショ,0
1750,5280005003081,登記記録の閉鎖等,0,2024-01-16,2024-01-11,法音寺,,その他の設立登記法人,島根県,出雲市,斐川町上直江２１８７番地,,32,203,6990624,,,2024-01-11,清算の結了等,,,2015-10-05,1,,,,,ホウオンジ,0
1775,5380002004527,登記記録の閉鎖等,0,2024-01-16,2024-01-11,有限会社鹿島建装,,有限会社,福島県,福島市,小田字日請内前１６番地,,07,201,9601104,,,2024-01-11,清算の結了等,,,2015-10-05,1,,,,,カシマケンソウ,0
1777,5390005007039,登記記録の閉鎖等,0,2024-01-16,2023-12-21,稲荷神社,,その他の設立登記法人,山形県,長井市,芦沢字安城沢２８０３番地の２,00085274,06,209,9930022,,,2023-12-21,合併による解散等,7390005007037,令和５年１２月２１日山形県長井市上伊佐沢字金地ケ原２９８６番地の２伊佐沢神社（7390005007037）に合併し解散,2015-10-05,1,,,,,,0
1778,5400001000152,登記記録の閉鎖等,0,2024-01-16,2024-01-10,株式会社いさごだ商店,,株式会社,岩手県,盛岡市,中ノ橋通１丁目１番２３号,,03,201,0200871,,,2024-01-10,登記官による閉鎖,,,2015-10-05,1,,,,,,0
1779,5400001001547,登記記録の閉鎖等,0,2024-01-16,2024-01-10,株式会社メイクプログレス,,株式会社,岩手県,盛岡市,永井１４地割５番地,,03,201,0200834,,,2024-01-10,登記官による閉鎖,,,2015-10-05,1,,,,,,0
1780,5400001014020,登記記録の閉鎖等,0,2024-01-16,2024-01-10,小野産業株式会社,,株式会社,岩手県,奥州市,水沢字東町７番地,,03,215,0230818,,,2024-01-10,登記官による閉鎖,,,2018-02-02,1,,,,,,0
1781,5400002003410,登記記録の閉鎖等,0,2024-01-16,2024-01-10,有限会社盛岡南健康医学社,,有限会社,岩手県,盛岡市,津志田１５地割４５番地６,,03,201,0200835,,,2024-01-10,登記官による閉鎖,,,2015-10-05,1,,,,,,0
1782,5400002004879,登記記録の閉鎖等,0,2024-01-16,2024-01-10,洪恵建設有限会社,,有限会社,岩手県,盛岡市,下米内字伊勢沢４６番地４７,,03,201,0200003,,,2024-01-10,登記官による閉鎖,,,2015-10-05,1,,,,,コウケイケンセツ,0
1783,5400002006479,登記記録の閉鎖等,0,2024-01-16,2024-01-10,有限会社アイル企画,,有限会社,岩手県,盛岡市,本宮３丁目３７番１０号,,03,201,0200866,,,2024-01-10,登記官による閉鎖,,,2015-10-05,1,,,,,,0
1784,5400002017501,登記記録の閉鎖等,0,2024-01-16,2024-01-10,有限会社東北鋼機,,有限会社,岩手県,遠野市,六日町５番２６号,,03,208,0280525,,,2024-01-10,登記官による閉鎖,,,2016-04-11,1,,,,,,0
1785,5400005000264,登記記録の閉鎖等,0,2024-01-16,2024-01-10,財団法人大慈会,,その他の設立登記法人,岩手県,盛岡市,大慈寺町５番６号大慈寺内,,03,201,0200828,,,2024-01-10,登記官による閉鎖,,,2015-10-05,1,,,,,,0
1786,5400601000329,登記記録の閉鎖等,0,2024-01-16,2024-01-10,水沢印刷株式会社,,株式会社,岩手県,奥州市,水沢佐倉河字南桜沢５７番地,,03,215,0230003,,,2024-01-10,登記官による閉鎖,,,2015-10-05,1,,,,,,0
1787,5402702000348,登記記録の閉鎖等,0,2024-01-16,2024-01-10,有限会社フィッシングサンゴ,,有限会社,岩手県,大船渡市,大船渡町字茶屋前５６番地５,,03,203,0220002,,,2024-01-10,登記官による閉鎖,,,2015-10-05,1,,,,,,0
1790,5420002008548,登記記録の閉鎖等,0,2024-01-16,2024-01-11,有限会社藤嶋商事,,有限会社,青森県,八戸市,城下３丁目１番１号,,02,203,0310072,,,2024-01-11,清算の結了等,,,2015-10-05,1,,,,,フジシマショウジ,0
1795,5430005010707,登記記録の閉鎖等,0,2024-01-16,2024-01-09,一般財団法人北海道社会文化会館,,その他の設立登記法人,北海道,札幌市北区,北八条西４丁目１３番地３金子ビル,,01,102,0600808,,,2024-01-09,清算の結了等,,,2015-10-05,1,,,,,ホッカイドウシャカイブンカカイカン,0
1802,5500001000836,登記記録の閉鎖等,0,2024-01-16,2024-01-15,株式会社エヒメベツト,,株式会社,愛媛県,松山市,平井町甲３１５７番地１８,,38,201,7910243,,,2024-01-15,登記官による閉鎖,,,2015-10-05,1,,,,,,0
1803,5500001006775,登記記録の閉鎖等,0,2024-01-16,2024-01-15,イーユーエー株式会社,,株式会社,愛媛県,松山市,祝谷６丁目１１２２番地１６,,38,201,7900833,,,2024-01-15,登記官による閉鎖,,,2015-10-05,1,,,,,,0
1804,5500001008359,登記記録の閉鎖等,0,2024-01-16,2024-01-15,大龍酒販株式会社,,株式会社,愛媛県,八幡浜市,大平１番耕地８８６番地,,38,204,7960003,,,2024-01-15,登記官による閉鎖,,,2015-10-05,1,,,,,,0
1805,5500001010075,登記記録の閉鎖等,0,2024-01-16,2024-01-15,田川電業株式会社,,株式会社,愛媛県,新居浜市,徳常町８番４１号,,38,205,7920022,,,2024-01-15,登記官による閉鎖,,,2015-10-05,1,,,,,,0
1806,5500001014662,登記記録の閉鎖等,0,2024-01-16,2024-01-15,株式会社Ｃ．Ｌ．オフィス,,株式会社,愛媛県,四国中央市,豊岡町五良野３３８番地１,,38,213,7990434,,,2024-01-15,登記官による閉鎖,,,2015-10-05,1,,,,,,0
1808,5500002003904,登記記録の閉鎖等,0,2024-01-16,2024-01-15,有限会社そごうマート,,有限会社,愛媛県,松山市,北梅本町７６８番地１,,38,201,7910242,,,2024-01-15,登記官による閉鎖,,,2015-10-05,1,,,,,,0
1809,5500002013738,登記記録の閉鎖等,0,2024-01-16,2024-01-15,有限会社八西寿代行,,有限会社,愛媛県,八幡浜市,保内町川之石７番耕地１２９番地１,,38,204,7960201,,,2024-01-15,登記官による閉鎖,,,2015-10-05,1,,,,,,0
1811,5500005002036,登記記録の閉鎖等,0,2024-01-16,2024-01-15,さわやか協同組合,,その他の設立登記法人,愛媛県,松山市,朝生田町３丁目４番６号,,38,201,7900952,,,2024-01-15,登記官による閉鎖,,,2015-10-05,1,,,,,,0
1812,5500005005501,登記記録の閉鎖等,0,2024-01-16,2024-01-15,農事組合法人生名村果樹同志会,,その他の設立登記法人,愛媛県,越智郡上島町,生名６２２番地,,38,356,7942550,,,2024-01-15,登記官による閉鎖,,,2015-10-05,1,,,,,,0
1813,5500005006020,登記記録の閉鎖等,0,2024-01-16,2024-01-15,財団法人大社教土居教会所,,その他の設立登記法人,愛媛県,四国中央市,土居町土居１１３番地の１,,38,213,7990711,,,2024-01-15,登記官による閉鎖,,,2015-10-05,1,,,,,,0
1814,5500005008504,登記記録の閉鎖等,0,2024-01-16,2024-01-15,久万町農業會,,その他の設立登記法人,愛媛県,上浮穴郡久万高原町,久万４８７番地の２,,38,386,7911201,,,2024-01-15,登記官による閉鎖,,,2022-07-13,1,,,,,クマチョウノウギョウカイ,0
1828,6010001150399,登記記録の閉鎖等,0,2024-01-16,2024-01-11,ＫＩＳビジネスパートナーズ株式会社,,株式会社,岩手県,花巻市,城内１４番５５号,,03,205,0250076,,,2024-01-11,合併による解散等,3010001119240,令和６年１月１日東京都中央区日本橋蛎殻町一丁目３６番７号蛎殻町千葉ビル７階株式会社ケーアイエス（3010001119240）に合併し解散,2015-10-05,1,,,,,ケーアイエスビジネスパートナーズ,0
1830,6010001235852,登記記録の閉鎖等,0,2024-01-16,2024-01-15,株式会社ＧＯＣＨＩＳＯＵ,,株式会社,東京都,中央区,銀座７丁目１０番５号,,13,102,1040061,,,2024-01-15,清算の結了等,,,2023-06-06,1,,,,,ゴチソウ,0
1847,6010403020621,登記記録の閉鎖等,0,2024-01-16,2023-12-28,合同会社ＧＩキャピタルマネジメント,,合同会社,東京都,中央区,日本橋茅場町２丁目１３－１１,,13,102,1030025,,,2023-12-28,合併による解散等,2010401144269,令和５年１２月１６日東京都中央区日本橋茅場町二丁目１３番１１号株式会社グリュックインベストメント（2010401144269）に合併し解散,2019-04-26,1,,,,,ジーアイキャピタルマネジメント,0
1860,6010705001492,登記記録の閉鎖等,0,2024-01-16,2023-12-25,日本感材銀工業組合,,その他の設立登記法人,東京都,大田区,千鳥１丁目２０番７号,,13,111,1460083,,,2023-12-25,清算の結了等,,,2015-10-05,1,,,,,ニホンカンザイギンコウギョウクミアイ,0
1870,6011001140919,登記記録の閉鎖等,0,2024-01-16,2024-01-11,株式会社ミューディア,,株式会社,東京都,渋谷区,神宮前６丁目２３番４号桑野ビル２階,,13,113,1500001,,,2024-01-11,清算の結了等,,,2021-06-08,1,,,,,ミューディア,0
1885,6011103012330,登記記録の閉鎖等,0,2024-01-16,2024-01-11,合同会社ＢＮＣ,,合同会社,東京都,新宿区,西新宿３丁目３番１３号西新宿水間ビル２Ｆ,,13,104,1600023,,,2024-01-11,清算の結了等,,,2022-11-01,1,,,,,ビーエヌシー,0
1902,6012801019121,登記記録の閉鎖等,0,2024-01-16,2024-01-05,ｎｉｉｉｎｅ株式会社,,株式会社,東京都,立川市,高松町２丁目２５番１号ニューパリア立川２Ｄ,,13,202,1900011,,,2024-01-05,清算の結了等,,,2018-11-30,1,,,,,ニーネ,0
1933,6030002028097,登記記録の閉鎖等,0,2024-01-16,2024-01-04,有限会社ミツキ,,有限会社,埼玉県,所沢市,東狭山ケ丘１丁目６８番地の７,,11,208,3591106,,,2024-01-04,合併による解散等,1030001108160,令和６年１月１日埼玉県所沢市東狭山ケ丘一丁目６８番地の７白馬ビル１Ｆ株式会社アベ建託（1030001108160）に合併し解散,2015-10-05,1,,,,,ミツキ,0
1938,6030005008773,登記記録の閉鎖等,0,2024-01-16,2024-01-05,特定非営利活動法人市民と電子自治体ネットワーク,,その他の設立登記法人,埼玉県,川越市,上野田町７番地１９,,11,201,3501112,,,2024-01-05,清算の結了等,,,2015-10-05,1,,,,,シミントデンシジチタイネットワーク,0
1951,6050002007198,登記記録の閉鎖等,0,2024-01-16,2024-01-10,有限会社野上住設,,有限会社,茨城県,那珂郡東海村,大字石神内宿２２４８番地の７０,,08,341,3191102,,,2024-01-10,清算の結了等,,,2015-10-05,1,,,,,ノガミジュウセツ,0
1953,6080002010224,登記記録の閉鎖等,0,2024-01-16,2024-01-09,有限会社清水久米タイヤサービス,,有限会社,静岡県,静岡市清水区,南矢部５６４番地の１,,22,103,4240864,,,2024-01-09,合併による解散等,5080001008518,令和６年１月１日静岡市清水区天神二丁目８番１号靜甲株式会社（5080001008518）に合併し解散,2015-10-05,1,,,,,シミズクメタイヤサービス,0
1971,6080402007118,登記記録の閉鎖等,0,2024-01-16,2024-01-15,有限会社プレマ・アミー,,有限会社,静岡県,浜松市中央区,鍛冶町３２１番地の１８,,22,138,4300933,,,2024-01-15,清算の結了等,,,2015-10-05,1,,,,,,0
1982,6080402017661,登記記録の閉鎖等,0,2024-01-16,2024-01-10,有限会社フミユ,,有限会社,静岡県,御前崎市,御前崎４２番地の１,,22,223,4371621,,,2024-01-10,清算の結了等,,,2015-10-05,1,,,,,フミユ,0
2000,6100005010359,登記記録の閉鎖等,0,2024-01-16,2024-01-05,特定非営利活動法人調和の響きエコツーリズムネットワーク,,その他の設立登記法人,長野県,茅野市,湖東１８４４番地７１三井の森いずみ平１０－１４－８,,20,214,3910211,,,2024-01-05,清算の結了等,,,2015-10-05,1,,,,,チョウワノヒビキエコツーリズムネットワーク,0
2011,6120001174783,登記記録の閉鎖等,0,2024-01-16,2024-01-11,株式会社ＫＴＥ管理,,株式会社,大阪府,大阪市福島区,野田２丁目５番２１号,,27,103,5530005,,,2024-01-11,清算の結了等,,,2015-10-05,1,,,,,,0
2012,6120001235684,登記記録の閉鎖等,0,2024-01-16,2024-01-12,株式会社ＭＡＴソリューション,,株式会社,大阪府,大阪市西区,北堀江１丁目５－２四ツ橋新興産ビル６０９号室,,27,106,5500014,,,2024-01-12,清算の結了等,,,2021-03-04,1,,,,,マットソリューション,0
2021,6120101035233,登記記録の閉鎖等,0,2024-01-16,2024-01-15,株式会社オーシャン,,株式会社,大阪府,富田林市,甲田３丁目２－３１ベルデさんさん４０２号,,27,214,5840036,,,2024-01-15,清算の結了等,,,2015-10-05,1,,,,,オーシャン,0
2023,6120101047947,登記記録の閉鎖等,0,2024-01-16,2024-01-04,株式会社オンサイドワールド,,株式会社,大阪府,泉佐野市,南中安松６３３番地の１,,27,213,5980033,,,2024-01-04,合併による解散等,8120101039050,令和６年１月１日大阪府泉佐野市南中安松６３３番地の１株式会社シラック・ジャパン（8120101039050）に合併し解散,2015-10-05,1,,,,,オンサイドワールド,0
2025,6120103005259,登記記録の閉鎖等,0,2024-01-16,2024-01-09,ＵＬＵ合同会社,,合同会社,大阪府,堺市北区,蔵前町２丁１６－３５ステージ村田１１－２０２,,27,146,5918004,,,2024-01-09,清算の結了等,,,2023-06-12,1,,,,,ウル,0
2041,6140002000854,登記記録の閉鎖等,0,2024-01-16,2024-01-12,有限会社メデイカル・コンタクト,,有限会社,兵庫県,芦屋市,山芦屋町１５番８号,00040431,28,206,6590082,,,2024-01-12,合併による解散等,1120001071218,令和６年１月１日大阪市北区芝田一丁目１番４号株式会社ハマノコンタクト（1120001071218）に合併し解散,2015-10-05,1,,,,,メデイカルコンタクト,0
2048,6180001001230,登記記録の閉鎖等,0,2024-01-16,2024-01-16,丸正物産株式会社,,株式会社,愛知県,名古屋市守山区,翠松園２丁目１９２２番地,,23,113,4630010,,,2024-01-16,登記官による閉鎖,,,2015-10-05,1,,,,,,0
2049,6180001011717,登記記録の閉鎖等,0,2024-01-16,2024-01-16,エム・ケイ総合企画株式会社,,株式会社,愛知県,名古屋市北区,志賀南通２丁目２番地の２,,23,103,4620842,,,2024-01-16,登記官による閉鎖,,,2015-10-05,1,,,,,,0
2050,6180001071802,登記記録の閉鎖等,0,2024-01-16,2024-01-16,サンクリスタル飲料株式会社,,株式会社,愛知県,名古屋市港区,宝神２丁目２３１１,,23,111,4550832,,,2024-01-16,登記官による閉鎖,,,2015-10-05,1,,,,,,0
2051,6180001080555,登記記録の閉鎖等,0,2024-01-16,2024-01-16,株式会社丸火工芸,,株式会社,愛知県,瀬戸市,品野町１丁目８１番地,,23,204,4801207,,,2024-01-16,登記官による閉鎖,,,2015-10-05,1,,,,,,0
2052,6180001089828,登記記録の閉鎖等,0,2024-01-16,2024-01-16,株式会社パートナーシップ,,株式会社,愛知県,名古屋市千種区,末盛通３丁目３０,,23,101,4640821,,,2024-01-16,登記官による閉鎖,,,2015-10-05,1,,,,,,0
2053,6180001090380,登記記録の閉鎖等,0,2024-01-16,2024-01-16,和敬株式会社,,株式会社,愛知県,名古屋市名東区,一社２丁目１０番地６階,,23,115,4650093,,,2024-01-16,登記官による閉鎖,,,2015-10-05,1,,,,,,0
2054,6180001105312,登記記録の閉鎖等,0,2024-01-16,2024-01-16,生活推進株式会社,,株式会社,愛知県,名古屋市瑞穂区,白砂町３丁目２４番地,,23,108,4670056,,,2024-01-16,登記官による閉鎖,,,2015-10-05,1,,,,,,0
2055,6180001109098,登記記録の閉鎖等,0,2024-01-16,2024-01-16,株式会社Ｊ　Ｓｏｃｋ,,株式会社,愛知県,名古屋市東区,泉１丁目１２番３４号,,23,102,4610001,,,2024-01-16,登記官による閉鎖,,,2015-10-05,1,,,,,,0
2056,6180001109321,登記記録の閉鎖等,0,2024-01-16,2024-01-16,総合管理共同企業株式会社,,株式会社,愛知県,名古屋市守山区,川西２丁目１１１６番地１,,23,113,4630080,,,2024-01-16,登記官による閉鎖,,,2015-10-05,1,,,,,,0
2057,6180001116615,登記記録の閉鎖等,0,2024-01-16,2024-01-04,株式会社エステックホールディングス,,株式会社,愛知県,春日井市,桃山町２丁目４３０番地,,23,206,4860802,,,2024-01-04,合併による解散等,2180001157217,令和６年１月１日愛知県春日井市桃山町二丁目４３０番地株式会社ＳＴＩ（2180001157217）に合併し解散,2015-10-05,1,,,,,エステックホールディングス,0
2068,6180002004133,登記記録の閉鎖等,0,2024-01-16,2024-01-16,有限会社幸和,,有限会社,愛知県,名古屋市千種区,古出来３丁目３番１号,,23,101,4640085,,,2024-01-16,登記官による閉鎖,,,2015-10-05,1,,,,,,0
2070,6180002010271,登記記録の閉鎖等,0,2024-01-16,2024-01-16,有限会社エミシオン,,有限会社,愛知県,名古屋市瑞穂区,檀渓通５丁目１８番地,,23,108,4670021,,,2024-01-16,登記官による閉鎖,,,2015-10-05,1,,,,,,0
2071,6180002013258,登記記録の閉鎖等,0,2024-01-16,2024-01-16,有限会社魚とし,,有限会社,愛知県,名古屋市南区,鳴尾１丁目６２番地,,23,112,4570066,,,2024-01-16,登記官による閉鎖,,,2015-10-05,1,,,,,,0
2072,6180002029774,登記記録の閉鎖等,0,2024-01-16,2024-01-16,有限会社伊勢久,,有限会社,愛知県,名古屋市北区,大杉３丁目１０番２０号,,23,103,4620837,,,2024-01-16,登記官による閉鎖,,,2015-10-05,1,,,,,,0
2074,6180002052677,登記記録の閉鎖等,0,2024-01-16,2024-01-16,イトーピアコーポレーション有限会社,,有限会社,愛知県,名古屋市熱田区,旗屋町５１５旗屋ビル４Ｆ,,23,109,4560026,,,2024-01-16,登記官による閉鎖,,,2015-10-05,1,,,,,,0
2075,6180002055168,登記記録の閉鎖等,0,2024-01-16,2024-01-16,有限会社はな・はなＫＫ,,有限会社,愛知県,名古屋市北区,長喜町４丁目２０番地の１,,23,103,4620036,,,2024-01-16,登記官による閉鎖,,,2015-10-05,1,,,,,,0
2076,6180002060977,登記記録の閉鎖等,0,2024-01-16,2024-01-16,有限会社江仙堂,,有限会社,愛知県,名古屋市守山区,幸心２丁目５０８番地の３藤和シティホームズ１１０２,,23,113,4630079,,,2024-01-16,登記官による閉鎖,,,2015-10-05,1,,,,,,0
2077,6180002068442,登記記録の閉鎖等,0,2024-01-16,2024-01-16,有限会社旭スプリング製作所,,有限会社,愛知県,小牧市,大字入鹿出新田７３１番地の１,,23,219,4850084,,,2024-01-16,登記官による閉鎖,,,2015-10-05,1,,,,,,0
2078,6180002069218,登記記録の閉鎖等,0,2024-01-16,2024-01-16,有限会社昭和テック,,有限会社,愛知県,小牧市,大字東田中字向山２１４５番地１,,23,219,4850826,,,2024-01-16,登記官による閉鎖,,,2015-10-05,1,,,,,,0
2080,6180002083326,登記記録の閉鎖等,0,2024-01-16,2024-01-16,有限会社キャセロール,,有限会社,愛知県,半田市,板山町１３丁目１４５番地の１,,23,205,4750936,,,2024-01-16,登記官による閉鎖,,,2015-10-05,1,,,,,,0
2081,6180002085090,登記記録の閉鎖等,0,2024-01-16,2024-01-16,有限会社藤田工業所,,有限会社,愛知県,大府市,共和町２丁目１８番地の８,,23,223,4740061,,,2024-01-16,登記官による閉鎖,,,2015-10-05,1,,,,,,0
2082,6180003009172,登記記録の閉鎖等,0,2024-01-16,2024-01-16,合同会社Ｌｉｖｅ　Ｗｏｒｋｓ,,合同会社,愛知県,名古屋市西区,稲生町３丁目３８番地,,23,104,4510012,,,2024-01-16,登記官による閉鎖,,,2015-10-05,1,,,,,,0
2083,6180003014263,登記記録の閉鎖等,0,2024-01-16,2024-01-16,合資会社高橋商会,00073970,合資会社,愛知県,常滑市,多屋町２丁目５７番地,,23,216,4790839,,,2024-01-16,登記官による閉鎖,,,2015-10-05,1,,,,,,0
2087,6180301007761,登記記録の閉鎖等,0,2024-01-16,2024-01-16,株式会社バイオコア,,株式会社,愛知県,田原市,神戸町ヤンベ１１８番地,,23,231,4413415,,,2024-01-16,登記官による閉鎖,,,2015-10-05,1,,,,,,0
2088,6180301009386,登記記録の閉鎖等,0,2024-01-16,2024-01-16,株式会社サンマテリアル,,株式会社,愛知県,豊橋市,関屋町２２８番地,,23,201,4400891,,,2024-01-16,登記官による閉鎖,,,2015-10-05,1,,,,,,0
2089,6180301010880,登記記録の閉鎖等,0,2024-01-16,2024-01-16,大谷木工株式会社,,株式会社,愛知県,豊川市,御油町上河原５３番地の３,,23,207,4410211,,,2024-01-16,登記官による閉鎖,,,2015-10-05,1,,,,,,0
2090,6180301012035,登記記録の閉鎖等,0,2024-01-16,2024-01-16,フロンティア株式会社,,株式会社,愛知県,岡崎市,羽根町字小豆坂３５番地３２,,23,202,4440814,,,2024-01-16,登記官による閉鎖,,,2015-10-05,1,,,,,,0
2091,6180301019179,登記記録の閉鎖等,0,2024-01-16,2024-01-16,株式会社藤井組,,株式会社,愛知県,豊田市,上郷町会下山８３番地,,23,211,4701218,,,2024-01-16,登記官による閉鎖,,,2015-10-05,1,,,,,,0
2092,6180302007117,登記記録の閉鎖等,0,2024-01-16,2024-01-16,有限会社ジンワン,,有限会社,愛知県,豊橋市,向山台町１０番地の２５,,23,201,4400865,,,2024-01-16,登記官による閉鎖,,,2015-10-05,1,,,,,,0
2093,6180302008734,登記記録の閉鎖等,0,2024-01-16,2024-01-16,有限会社豊福,,有限会社,愛知県,豊橋市,羽根井西町６番地の１３（２－５０５）,,23,201,4418026,,,2024-01-16,登記官による閉鎖,,,2015-10-05,1,,,,,,0
2094,6180305002288,登記記録の閉鎖等,0,2024-01-16,2024-01-16,社団法人五井組報徳社,00075363,その他の設立登記法人,愛知県,豊橋市,下条西町字杉本１５０２番地,,23,201,4400001,,,2024-01-16,登記官による閉鎖,,,2015-10-05,1,,,,,,0
2095,6180305005282,登記記録の閉鎖等,0,2024-01-16,2024-01-16,特定非営利活動法人ジョブサポートサービス,,その他の設立登記法人,愛知県,安城市,三河安城東町１丁目３０番１５号,,23,212,4460057,,,2024-01-16,登記官による閉鎖,,,2015-10-05,1,,,,,,0
2097,6190002005989,登記記録の閉鎖等,0,2024-01-16,2024-01-10,有限会社伊藤不動産,,有限会社,三重県,鈴鹿市,住吉町７２６５番地の５,,24,207,5130825,,,2024-01-10,清算の結了等,,,2015-10-05,1,,,,,イトウフドウサン,0
2098,6190002007176,登記記録の閉鎖等,0,2024-01-16,2024-01-10,有限会社三重工業検査サービス,,有限会社,三重県,鈴鹿市,三日市２丁目１５番１号,,24,207,5130807,,,2024-01-10,清算の結了等,,,2015-10-05,1,,,,,ミエコウギョウケンササービス,0
2099,6190002015864,登記記録の閉鎖等,0,2024-01-16,2024-01-04,有限会社エコファクトリー,,有限会社,三重県,松阪市,飯南町粥見２１５０番地,,24,204,5151411,,,2024-01-04,清算の結了等,,,2015-10-05,1,,,,,エコファクトリー,0
2104,6210001009014,登記記録の閉鎖等,0,2024-01-16,2024-01-16,株式会社エクストリームプロダクション,,株式会社,福井県,福井市,開発１丁目５０１番地,,18,201,9100842,,,2024-01-16,登記官による閉鎖,,,2015-10-05,1,,,,,,0
2105,6210003000425,登記記録の閉鎖等,0,2024-01-16,2024-01-16,コンサルフジシマ合同会社,,合同会社,福井県,坂井市,三国町汐見１丁目１番地１８,,18,210,9130027,,,2024-01-16,登記官による閉鎖,,,2015-10-05,1,,,,,,0
2107,6210005000134,登記記録の閉鎖等,0,2024-01-16,2024-01-16,農事組合法人佐野施設園芸組合,,その他の設立登記法人,福井県,福井市,佐野町３字４０番地,,18,201,9103121,,,2024-01-16,登記官による閉鎖,,,2015-10-05,1,,,,,,0
2111,6240001037706,登記記録の閉鎖等,0,2024-01-16,2024-01-04,常石商事株式会社,,株式会社,広島県,福山市,沼隈町大字常石１０８３番地,,34,207,7200313,,,2024-01-04,合併による解散等,2240001029368,令和６年１月１日広島県福山市沼隈町大字常石１０８３番地常石商事株式会社（2240001029368）に合併し解散,2015-10-05,1,,,,,ツネイシショウジ,0
2116,6240002034124,登記記録の閉鎖等,0,2024-01-16,2024-01-05,有限会社白原地建,,有限会社,広島県,呉市,郷原学びの丘２丁目７番５号,,34,202,7370162,,,2024-01-05,清算の結了等,,,2015-10-05,1,,,,,シロハラチケン,0
2118,6250002003152,登記記録の閉鎖等,0,2024-01-16,2024-01-10,有限会社世良萬寿堂,,有限会社,山口県,防府市,天神１丁目７番３３号,,35,206,7470034,,,2024-01-10,清算の結了等,,,2015-10-05,1,,,,,セラマンジュドウ,0
2119,6250002015445,登記記録の閉鎖等,0,2024-01-16,2024-01-12,有限会社山本電機,,有限会社,山口県,周南市,新地２丁目４番３号,,35,215,7450861,,,2024-01-12,清算の結了等,,,2015-10-05,1,,,,,ヤマモトデンキ,0
2121,6260001008688,登記記録の閉鎖等,0,2024-01-16,2024-01-15,株式会社カナオカワールド,,株式会社,岡山県,赤磐市,桜が丘東５丁目５番地の３６３,,33,213,7090721,,,2024-01-15,清算の結了等,,,2015-10-05,1,,,,,カナオカワールド,0
2125,6290001002317,登記記録の閉鎖等,0,2024-01-16,2024-01-12,株式会社まるやま,,株式会社,福岡県,福岡市南区,野間３丁目９番２１号,,40,134,8150041,,,2024-01-12,合併による解散等,3011801002230,令和６年１月１日東京都葛飾区高砂五丁目３５番１２号株式会社ジョイフル恵利（3011801002230）に合併し解散,2015-10-05,1,,,,,,0
2128,6290001042065,登記記録の閉鎖等,0,2024-01-16,2024-01-11,株式会社栄養食品研究所,,株式会社,福岡県,春日市,松ヶ丘４丁目９２番地,,40,218,8160843,,,2024-01-11,清算の結了等,,,2015-10-05,1,,,,,エイヨウショクヒンケンキュウジョ,0
2136,6290803003900,登記記録の閉鎖等,0,2024-01-16,2024-01-12,合同会社ぱんどし,,合同会社,福岡県,遠賀郡水巻町,伊左座５丁目６－１７,,40,382,8070056,,,2024-01-12,清算の結了等,,,2021-08-13,1,,,,,パンドシ,0
2147,6350002006376,登記記録の閉鎖等,0,2024-01-16,2023-12-07,宮崎環境設計有限会社,,有限会社,宮崎県,宮崎市,佐土原町下那珂３９５９番地３,,45,201,8800212,,,2023-12-07,合併による解散等,7350001004396,令和５年１２月１日宮崎市佐土原町下那珂３９５９番地７アイ・ホーム株式会社（7350001004396）に合併し解散,2015-10-05,1,,,,,ミヤザキカンキョウセッケイ,0
2157,6400001001083,登記記録の閉鎖等,0,2024-01-16,2024-01-10,東北ホクユー株式会社,,株式会社,岩手県,盛岡市,東山１丁目１１番２３号,,03,201,0200813,,,2024-01-10,登記官による閉鎖,,,2015-10-05,1,,,,,,0
2158,6400001001455,登記記録の閉鎖等,0,2024-01-16,2024-01-10,前田ハウジング株式会社,,株式会社,岩手県,盛岡市,中央通２丁目３番１１号,,03,201,0200021,,,2024-01-10,登記官による閉鎖,,,2018-12-10,1,,,,,,0
2159,6400002001272,登記記録の閉鎖等,0,2024-01-16,2024-01-10,有限会社小松屋,,有限会社,岩手県,盛岡市,本町通１丁目１７番１２号,,03,201,0200015,,,2024-01-10,登記官による閉鎖,,,2015-10-05,1,,,,,,0
2160,6400002009002,登記記録の閉鎖等,0,2024-01-16,2024-01-10,オリジナルキューブ有限会社,,有限会社,岩手県,花巻市,桜台２丁目５番２５号,,03,205,0250064,,,2024-01-10,登記官による閉鎖,,,2015-10-05,1,,,,,,0
2161,6400003002311,登記記録の閉鎖等,0,2024-01-16,2024-01-10,三梅合資会社,,合資会社,岩手県,花巻市,大字里川口第１２地割字川口町２０７番地,,03,205,0250000,,,2024-01-10,登記官による閉鎖,,,2018-03-19,1,,,,,,0
2163,6400005004306,登記記録の閉鎖等,0,2024-01-16,2024-01-10,特定非営利活動法人山田町国際交流協会,,その他の設立登記法人,岩手県,下閉伊郡山田町,後楽町４番５号,,03,482,0281333,,,2024-01-10,登記官による閉鎖,,,2015-10-05,1,,,,,,0
2164,6400005007770,登記記録の閉鎖等,0,2024-01-16,2024-01-10,長興寺開拓農業協同組合,,その他の設立登記法人,岩手県,九戸郡九戸村,大字長興寺第２地割３８番地,,03,506,0286504,,,2024-01-10,登記官による閉鎖,,,2017-03-28,1,,,,,,0
2165,6402701000323,登記記録の閉鎖等,0,2024-01-16,2024-01-10,株式会社丸桝材木店,,株式会社,岩手県,陸前高田市,気仙町字奈々切６１番地,,03,210,0292204,,,2024-01-10,登記官による閉鎖,,,2015-10-05,1,,,,,,0
2167,6420001006188,登記記録の閉鎖等,0,2024-01-16,2024-01-10,東北ウォール株式会社,,株式会社,青森県,八戸市,卸センター２丁目６番１０号,,02,203,0391121,,,2024-01-10,清算の結了等,,,2015-10-05,1,,,,,トウホクウォール,0
2170,6430005001713,登記記録の閉鎖等,0,2024-01-16,2023-12-14,医療法人社団恒心堂整形外科医院,,その他の設立登記法人,北海道,札幌市東区,東苗穂八条３丁目２番１号,,01,103,0070808,,,2023-12-14,合併による解散等,3430005011707,令和５年１２月１４日札幌市中央区宮の森三条一丁目１番３８号医療法人社団青葉（3430005011707）に合併し解散,2015-10-05,1,,,,,コウシンドウセイケイゲカイイン,0
2172,6490002000885,登記記録の閉鎖等,0,2024-01-16,2024-01-12,有限会社オートプラザおかもと,,有限会社,高知県,高知市,針木東町２６番１７－３号,,39,201,7808086,,,2024-01-12,清算の結了等,,,2015-10-05,1,,,,,オートプラザオカモト,0
2173,6500001002609,登記記録の閉鎖等,0,2024-01-16,2024-01-15,株式会社タケチプロジェクト,,株式会社,愛媛県,松山市,水泥町１１９１番地,,38,201,7910244,,,2024-01-15,登記官による閉鎖,,,2015-10-05,1,,,,,,0
2174,6500001006031,登記記録の閉鎖等,0,2024-01-16,2024-01-15,株式会社松山土地開発,,株式会社,愛媛県,松山市,中野町甲７２６番地２,,38,201,7911121,,,2024-01-15,登記官による閉鎖,,,2015-10-05,1,,,,,,0
2175,6500001008754,登記記録の閉鎖等,0,2024-01-16,2024-01-15,株式会社スプレッド,,株式会社,愛媛県,松山市,保免西４丁目６番４７号,,38,201,7900043,,,2024-01-15,登記官による閉鎖,,,2015-10-05,1,,,,,,0
2176,6500001012608,登記記録の閉鎖等,0,2024-01-16,2024-01-11,寺尾電気設備株式会社,,株式会社,愛媛県,今治市,菊間町浜３０３１番地,,38,202,7992303,,,2024-01-11,清算の結了等,,,2015-10-05,1,,,,,テラオデンキセツビ,0
2177,6500001014141,登記記録の閉鎖等,0,2024-01-16,2024-01-15,株式会社ＯＲＩＧＩＮ,,株式会社,愛媛県,新居浜市,東田２丁目１７７０番地３,,38,205,7920852,,,2024-01-15,登記官による閉鎖,,,2015-10-05,1,,,,,,0
2178,6500001015338,登記記録の閉鎖等,0,2024-01-16,2023-12-25,株式会社愛媛鉄建,00007557,株式会社,愛媛県,宇和島市,新町１丁目４番１０号,,38,203,7980035,,,2023-12-25,清算の結了等,,,2015-10-05,1,,,,,エヒメテッケン,0
2179,6500001015635,登記記録の閉鎖等,0,2024-01-16,2024-01-15,株式会社水野建設,,株式会社,愛媛県,宇和島市,津島町高田丙３１３番地,,38,203,7983302,,,2024-01-15,登記官による閉鎖,,,2015-10-05,1,,,,,,0
2180,6500002004975,登記記録の閉鎖等,0,2024-01-16,2024-01-15,有限会社ナスパコーポレーション,,有限会社,愛媛県,松山市,森松町２１番地５,,38,201,7911113,,,2024-01-15,登記官による閉鎖,,,2015-10-05,1,,,,,,0
2181,6500002005354,登記記録の閉鎖等,0,2024-01-16,2024-01-15,有限会社パッション,,有限会社,愛媛県,松山市,一番町１丁目８番地１,,38,201,7900001,,,2024-01-15,登記官による閉鎖,,,2015-10-05,1,,,,,,0
2182,6500002011872,登記記録の閉鎖等,0,2024-01-16,2024-01-15,有限会社北斗測量設計事務所,,有限会社,愛媛県,大洲市,中村３８０番地,,38,207,7950054,,,2024-01-15,登記官による閉鎖,,,2015-10-05,1,,,,,,0
2183,6500002015502,登記記録の閉鎖等,0,2024-01-16,2024-01-15,オリジンウエストジャパン有限会社,,有限会社,愛媛県,西条市,朔日市７７番地の４,,38,206,7930027,,,2024-01-15,登記官による閉鎖,,,2015-10-05,1,,,,,,0
2184,6500002021789,登記記録の閉鎖等,0,2024-01-16,2024-01-15,有限会社東予プライス,,有限会社,愛媛県,四国中央市,金生町下分１１０３番地の２,,38,213,7990111,,,2024-01-15,登記官による閉鎖,,,2015-10-05,1,,,,,,0
2185,6500002024494,登記記録の閉鎖等,0,2024-01-16,2024-01-15,有限会社山下不動産,,有限会社,愛媛県,今治市,宮下町１丁目６番６号,,38,202,7940052,,,2024-01-15,登記官による閉鎖,,,2023-07-20,1,,,,,,0
2186,6500005001458,登記記録の閉鎖等,0,2024-01-16,2024-01-15,財団法人冲永荘兵衛記念図書館,,その他の設立登記法人,愛媛県,松山市,余戸中１丁目７番１４号,,38,201,7900045,,,2024-01-15,登記官による閉鎖,,,2015-10-05,1,,,,,オキナガソウベエキネントショカン,0
2187,6500005007075,登記記録の閉鎖等,0,2024-01-16,2024-01-15,眞穴村農業會,,その他の設立登記法人,愛媛県,八幡浜市,真網代丙２４８番地の１,,38,204,7968053,,,2024-01-15,登記官による閉鎖,,,2022-11-18,1,,,,,,0
2196,7010001189841,登記記録の閉鎖等,0,2024-01-16,2023-12-13,株式会社ＣＨＩＰＡＮＧＵ,,株式会社,東京都,港区,虎ノ門３丁目１９番７号大手ビル４Ｆ,,13,103,1050001,,,2023-12-13,合併による解散等,7010001169637,令和５年１２月１日東京都港区虎ノ門三丁目１９番７号大手ビル４Ｆ株式会社ＭＡＭ　ＦＩＬＭ（7010001169637）に合併し解散,2018-02-23,1,,,,,ジパング,0
2200,7010003016382,登記記録の閉鎖等,0,2024-01-16,2024-01-11,ランスタッドジャパンホールディング合同会社,,合同会社,東京都,千代田区,紀尾井町４番１号,,13,101,1020094,,,2024-01-11,合併による解散等,1010001084148,令和６年１月１日東京都千代田区紀尾井町４番１号ランスタッド株式会社（1010001084148）に合併し解散,2015-10-05,1,,,,,ランスタッドジャパンホールディング,0
2220,7010501026123,登記記録の閉鎖等,0,2024-01-16,2024-01-12,株式会社ミヨシ,,株式会社,東京都,台東区,浅草橋１丁目１０番１０号一誠ビル３階,,13,106,1110053,,,2024-01-12,合併による解散等,4120001086023,令和６年１月１日大阪市中央区北浜東１番２０号ナカバヤシ株式会社（4120001086023）に合併し解散,2015-10-05,1,,,,,ミヨシ,0
2227,7010701037424,登記記録の閉鎖等,0,2024-01-16,2023-12-26,株式会社ニヨモン,,株式会社,東京都,品川区,北品川１丁目９番７号トップルーム品川１０１５,,13,109,1400001,,,2023-12-26,清算の結了等,,,2019-04-18,1,,,,,ニヨモン,0
2232,7010801022417,登記記録の閉鎖等,0,2024-01-16,2024-01-15,株式会社シネフューチャー,,株式会社,東京都,渋谷区,恵比寿４丁目２０番３号恵比寿ガーデンプレイスタワー１８階,,13,113,1500013,,,2024-01-15,清算の結了等,,,2015-10-05,1,,,,,シネフューチャー,0
2256,7011101093842,登記記録の閉鎖等,0,2024-01-16,2024-01-05,株式会社コーディアリー・サービス,,株式会社,東京都,新宿区,新宿２丁目１９番１号,,13,104,1600022,,,2024-01-05,合併による解散等,5013301044404,令和６年１月１日東京都新宿区新宿二丁目１９番１号株式会社アルシエ（5013301044404）に合併し解散,2021-01-28,1,,,,,コーディアリーサービス,0
2260,7011102005854,登記記録の閉鎖等,0,2024-01-16,2024-01-12,有限会社塩湯,,有限会社,東京都,新宿区,四谷三栄町１番３号,,13,104,1600008,,,2024-01-12,合併による解散等,8011001032627,令和６年１月１日東京都渋谷区桜丘町２４番８号株式会社アールアンドディー（8011001032627）に合併し解散,2015-10-05,1,,,,,シオユ,0
2261,7011105010281,登記記録の閉鎖等,0,2024-01-16,2023-12-25,鴻巣ホールディングス一般社団法人,,その他の設立登記法人,東京都,新宿区,四谷２丁目９番地１５東京ユナイテッド綜合事務所内,,13,104,1600004,,,2023-12-25,清算の結了等,,,2022-06-10,1,,,,,コウノスホールディングス,0
2266,7011401020629,登記記録の閉鎖等,0,2024-01-16,2024-01-10,ビーアール株式会社,,株式会社,東京都,板橋区,赤塚４丁目３２番２１号,,13,119,1750092,,,2024-01-10,清算の結了等,,,2017-10-25,1,,,,,ビーアール,0
2267,7011401024274,登記記録の閉鎖等,0,2024-01-16,2023-12-27,株式会社パークホールディングス,,株式会社,東京都,板橋区,高島平５丁目４０番８号,,13,119,1750082,,,2023-12-27,合併による解散等,1010401176123,令和５年１２月１日東京都港区東新橋一丁目９番２号汐留住友ビル１６階株式会社ＫＰ‐２（1010401176123）に合併し解散,2022-06-02,1,,,,,パークホールディングス,0
2279,7013201017516,登記記録の閉鎖等,0,2024-01-16,2024-01-10,株式会社ファースト・フレンド,,株式会社,東京都,品川区,西五反田１丁目４番８－１２１１号,,13,109,1410031,,,2024-01-10,清算の結了等,,,2015-10-05,1,,,,,ファーストフレンド,0
2304,7030002026059,登記記録の閉鎖等,0,2024-01-16,2024-01-04,有限会社泰山木,,有限会社,埼玉県,蕨市,塚越２丁目１３番１８号,,11,223,3350002,,,2024-01-04,清算の結了等,,,2015-10-05,1,,,,,タイサンボク,0
2310,7040001043871,登記記録の閉鎖等,0,2024-01-16,2024-01-10,株式会社セルテック,,株式会社,千葉県,白井市,桜台２丁目４番７棟３０４号,,12,232,2701412,,,2024-01-10,合併による解散等,1290801000846,令和６年１月１日北九州市小倉北区白萩町２番６号キタックスエンジニアリング株式会社（1290801000846）に合併し解散,2015-10-05,1,,,,,セルテック,0
2314,7050001019904,登記記録の閉鎖等,0,2024-01-16,2024-01-11,株式会社小薗井ガスサービス,,株式会社,茨城県,那珂市,福田１９８２番地６,,08,226,3110118,,,2024-01-11,清算の結了等,,,2015-10-05,1,,,,,オソノイガスサービス,0
2321,7060002026873,登記記録の閉鎖等,0,2024-01-16,2024-01-10,有限会社エスケーホーム,,有限会社,栃木県,矢板市,富田４１０番地１２,,09,211,3292145,,,2024-01-10,清算の結了等,,,2015-10-05,1,,,,,エスケーホーム,0
2322,7060002035478,登記記録の閉鎖等,0,2024-01-16,2024-01-09,有限会社板橋木工,,有限会社,栃木県,足利市,鹿島町５６７番地３,,09,202,3260844,,,2024-01-09,清算の結了等,,,2015-10-05,1,,,,,イタバシモッコウ,0
2323,7070001038786,登記記録の閉鎖等,0,2024-01-16,2024-01-10,株式会社ＡＬＩＳ,,株式会社,群馬県,伊勢崎市,五目牛町６７１番地３,,10,204,3792213,,,2024-01-10,合併による解散等,7100001015146,令和６年１月１日長野県安曇野市豊科高家１２６９番地１山清電気株式会社（7100001015146）に合併し解散,2022-01-05,1,,,,,アリス,0
2376,7110002001953,登記記録の閉鎖等,0,2024-01-16,2024-01-12,有限会社清田酒店,,有限会社,新潟県,新潟市東区,物見山２丁目１２番１０号,,15,102,9500021,,,2024-01-12,清算の結了等,,,2015-10-05,1,,,,,セイダサケテン,0
2381,7110005011834,登記記録の閉鎖等,0,2024-01-16,2023-12-18,地蔵寺,,その他の設立登記法人,新潟県,長岡市,西谷１０５９番地,,15,202,9495121,,,2023-12-18,合併による解散等,5110005011860,令和５年１２月１８日新潟県長岡市不動沢６６６番地満光寺（5110005011860）に合併し解散,2015-10-05,1,,,,,ジゾウジ,0
2383,7120001006663,登記記録の閉鎖等,0,2024-01-16,2024-01-12,ユニテイ株式会社,,株式会社,大阪府,大阪市阿倍野区,昭和町２丁目２０番２２号,,27,119,5450011,,,2024-01-12,清算の結了等,,,2015-10-05,1,,,,,ユニテイ,0
2385,7120001027676,登記記録の閉鎖等,0,2024-01-16,2023-12-28,辰巳酒販株式会社,,株式会社,大阪府,大阪市大正区,北村１丁目１６番４号,,27,108,5510032,,,2023-12-28,清算の結了等,,,2015-10-05,1,,,,,タツミシュハン,0
2386,7120001107073,登記記録の閉鎖等,0,2024-01-16,2023-12-21,株式会社ゼオス,,株式会社,大阪府,大阪市天王寺区,烏ケ辻１丁目２番１６号,00028808,27,109,5430042,,,2023-12-21,合併による解散等,6120001023916,令和５年１２月２１日大阪市天王寺区烏ケ辻一丁目２番１６号ゼット株式会社（6120001023916）に合併し解散,2015-10-05,1,,,,,ゼオス,0
2425,7140002045725,登記記録の閉鎖等,0,2024-01-16,2024-01-12,株式会社秀和,,株式会社,兵庫県,尼崎市,昭和南通４丁目５２番地,,28,202,6600882,,,2024-01-12,合併による解散等,7130001026652,令和５年１２月３１日京都市南区吉祥院西ノ庄西中町１番地株式会社明輝建設（7130001026652）に合併し解散,2015-10-05,1,,,,,シュウワ,0
2426,7140002050485,登記記録の閉鎖等,0,2024-01-16,2024-01-11,ビル建材販売有限会社,,有限会社,兵庫県,姫路市,別所町家具町３５８番地の８,,28,201,6710225,,,2024-01-11,清算の結了等,,,2015-10-05,1,,,,,ビルケンザイハンバイ,0
2431,7170005005599,登記記録の閉鎖等,0,2024-01-16,2023-12-22,天理教富士橋分教会,,その他の設立登記法人,和歌山県,東牟婁郡串本町,高富７０６番地,,30,428,6493513,,,2023-12-22,合併による解散等,9170005005597,令和５年１２月２２日和歌山県東牟婁郡串本町西向６４５番地天理教西向分教会（9170005005597）に合併し解散,2015-10-05,1,,,,,テンリキョウフジハシブンキョウカイ,0
2432,7180001013704,登記記録の閉鎖等,0,2024-01-16,2024-01-16,ムラサ工業株式会社,,株式会社,愛知県,名古屋市北区,西味鋺４丁目１０２番地,,23,103,4620016,,,2024-01-16,登記官による閉鎖,,,2015-10-05,1,,,,,ムラサコウギョウ,0
2433,7180001028487,登記記録の閉鎖等,0,2024-01-16,2024-01-16,株式会社柘植,,株式会社,愛知県,名古屋市緑区,左京山１０４番地,,23,114,4580825,,,2024-01-16,登記官による閉鎖,,,2015-10-05,1,,,,,,0
2434,7180001033719,登記記録の閉鎖等,0,2024-01-16,2024-01-16,株式会社アイワ,,株式会社,愛知県,名古屋市中区,平和２丁目１１番１８号,,23,106,4600021,,,2024-01-16,登記官による閉鎖,,,2015-10-05,1,,,,,,0
2435,7180001037967,登記記録の閉鎖等,0,2024-01-16,2024-01-16,株式会社中日電機製作所,,株式会社,愛知県,名古屋市中区,新栄１丁目２番２９号,,23,106,4600007,,,2024-01-16,登記官による閉鎖,,,2015-10-05,1,,,,,,0
2436,7180001058088,登記記録の閉鎖等,0,2024-01-16,2024-01-16,株式会社ＨＵＭＡＮ　ＳＵＰＰＬＹ,,株式会社,愛知県,名古屋市天白区,池場４丁目１８０１番地,,23,116,4680055,,,2024-01-16,登記官による閉鎖,,,2015-10-05,1,,,,,,0
2437,7180001064318,登記記録の閉鎖等,0,2024-01-16,2024-01-16,山本ビルサービス株式会社,,株式会社,愛知県,名古屋市東区,葵３丁目１８番１７号,,23,102,4610004,,,2024-01-16,登記官による閉鎖,,,2015-10-05,1,,,,,,0
2438,7180001066743,登記記録の閉鎖等,0,2024-01-16,2024-01-16,株式会社エイシン,,株式会社,愛知県,日進市,赤池５丁目２０１８番地,,23,230,4700125,,,2024-01-16,登記官による閉鎖,,,2015-10-05,1,,,,,,0
2439,7180001070225,登記記録の閉鎖等,0,2024-01-16,2024-01-16,株式会社春田設備,,株式会社,愛知県,名古屋市中村区,則武本通２丁目８０番地,,23,105,4530017,,,2024-01-16,登記官による閉鎖,,,2015-10-05,1,,,,,,0
2440,7180001073211,登記記録の閉鎖等,0,2024-01-16,2024-01-16,旭コンサルタント株式会社,,株式会社,愛知県,名古屋市千種区,今池５丁目３８番２３号２Ｆ,,23,101,4640850,,,2024-01-16,登記官による閉鎖,,,2015-10-05,1,,,,,,0
2441,7180001074564,登記記録の閉鎖等,0,2024-01-16,2024-01-16,株式会社トーセイ,,株式会社,愛知県,春日井市,中央通２丁目１１５番地,,23,206,4860825,,,2024-01-16,登記官による閉鎖,,,2015-10-05,1,,,,,,0
2443,7180001089942,登記記録の閉鎖等,0,2024-01-16,2024-01-16,愛北モータース株式会社,,株式会社,愛知県,春日井市,八田町８丁目１番地２,,23,206,4860849,,,2024-01-16,登記官による閉鎖,,,2015-10-05,1,,,,,,0
2444,7180001090652,登記記録の閉鎖等,0,2024-01-16,2024-01-16,華晄株式会社,,株式会社,愛知県,名古屋市千種区,内山１丁目２２－９,,23,101,4640075,,,2024-01-16,登記官による閉鎖,,,2015-10-05,1,,,,,,0
2445,7180001094546,登記記録の閉鎖等,0,2024-01-16,2024-01-10,株式会社ファミリーオート,,株式会社,愛知県,東海市,加木屋町大堀１１７番地の１,,23,222,4770032,,,2024-01-10,清算の結了等,,,2015-10-05,1,,,,,ファミリーオート,0
2446,7180001102787,登記記録の閉鎖等,0,2024-01-16,2024-01-16,株式会社ＴＩＬＡＣ,,株式会社,愛知県,名古屋市西区,貝田町２丁目６番地１,,23,104,4510022,,,2024-01-16,登記官による閉鎖,,,2015-10-05,1,,,,,,0
2447,7180001105674,登記記録の閉鎖等,0,2024-01-16,2024-01-16,株式会社ｉｆメディアクリエイト,,株式会社,愛知県,名古屋市中区,錦２丁目１６番２４号,,23,106,4600003,,,2024-01-16,登記官による閉鎖,,,2015-10-05,1,,,,,,0
2454,7180002005667,登記記録の閉鎖等,0,2024-01-16,2024-01-16,有限会社アド・スクープ,,有限会社,愛知県,名古屋市港区,丸池町１丁目１番地の１,,23,111,4550078,,,2024-01-16,登記官による閉鎖,,,2015-10-05,1,,,,,,0
2455,7180002021235,登記記録の閉鎖等,0,2024-01-16,2024-01-16,有限会社オクムラ,,有限会社,愛知県,名古屋市天白区,植田山３丁目３０７番地,,23,116,4680001,,,2024-01-16,登記官による閉鎖,,,2015-10-05,1,,,,,,0
2456,7180002039590,登記記録の閉鎖等,0,2024-01-16,2024-01-16,有限会社マックスインターナショナル,,有限会社,愛知県,名古屋市東区,葵１丁目２５番１号,,23,102,4610004,,,2024-01-16,登記官による閉鎖,,,2015-10-05,1,,,,,,0
2458,7180002051570,登記記録の閉鎖等,0,2024-01-16,2024-01-16,有限会社ステラゴールド,,有限会社,愛知県,名古屋市中区,金山４丁目１番２４号,,23,106,4600022,,,2024-01-16,登記官による閉鎖,,,2015-10-05,1,,,,,,0
2459,7180002054796,登記記録の閉鎖等,0,2024-01-16,2024-01-16,有限会社鷲塚工務店,,有限会社,愛知県,名古屋市緑区,鳴子町４丁目２９番地,,23,114,4580041,,,2024-01-16,登記官による閉鎖,,,2015-10-05,1,,,,,,0
2460,7180002070711,登記記録の閉鎖等,0,2024-01-16,2024-01-12,株式会社エイム,,株式会社,岐阜県,多治見市,本町１丁目８０番地校條ビル５Ａ,,21,204,5070033,,,2024-01-12,清算の結了等,,,2015-10-05,1,,,,,エイム,0
2461,7180002087037,登記記録の閉鎖等,0,2024-01-16,2024-01-16,有限会社イム・シャフィクトレディングインターナショナル,,有限会社,愛知県,大府市,長草町前田１１番地の１,,23,223,4740052,,,2024-01-16,登記官による閉鎖,,,2015-10-05,1,,,,,,0
2462,7180003013966,登記記録の閉鎖等,0,2024-01-16,2024-01-16,合同会社ＳＡＲＡ,,合同会社,愛知県,一宮市,本町３丁目４番地２６,,23,203,4910859,,,2024-01-16,登記官による閉鎖,,,2015-10-05,1,,,,,,0
2463,7180003014246,登記記録の閉鎖等,0,2024-01-16,2024-01-16,ＴＷＩＮ－ＴＯＷＥＲ合同会社,,合同会社,愛知県,名古屋市西区,城西１丁目９番８号第２石田ビル２階Ａ号,,23,104,4510031,,,2024-01-16,登記官による閉鎖,,,2015-10-05,1,,,,,,0
2464,7180003021366,登記記録の閉鎖等,0,2024-01-16,2024-01-12,トータルマネジメント合同会社,,合同会社,愛知県,名古屋市北区,楠味鋺５丁目２４０８番地１,,23,103,4620014,,,2024-01-12,清算の結了等,,,2020-07-08,1,,,,,トータルマネジメント,0
2466,7180005006423,登記記録の閉鎖等,0,2024-01-16,2024-01-16,特定非営利活動法人みらい創庫,,その他の設立登記法人,愛知県,名古屋市中区,栄２丁目９番５号,,23,106,4600008,,,2024-01-16,登記官による閉鎖,,,2015-10-05,1,,,,,,0
2467,7180005007058,登記記録の閉鎖等,0,2024-01-16,2024-01-16,特定非営利活動法人日本歌謡文化協会,,その他の設立登記法人,愛知県,名古屋市南区,城下町２丁目１２番地平和堂ビル２０２号室,,23,112,4570047,,,2024-01-16,登記官による閉鎖,,,2015-10-05,1,,,,,,0
2468,7180005011506,登記記録の閉鎖等,0,2024-01-16,2024-01-16,特定非営利活動法人おたすけの会,,その他の設立登記法人,愛知県,名古屋市名東区,神里２丁目８６番地,,23,115,4650082,,,2024-01-16,登記官による閉鎖,,,2015-10-05,1,,,,,,0
2470,7180301012141,登記記録の閉鎖等,0,2024-01-16,2024-01-16,株式会社ヤマシタ,,株式会社,愛知県,豊橋市,瓦町６６番地,,23,201,4400825,,,2024-01-16,登記官による閉鎖,,,2015-10-05,1,,,,,,0
2471,7180301014138,登記記録の閉鎖等,0,2024-01-16,2024-01-16,株式会社セントラル建築設計,,株式会社,愛知県,刈谷市,野田町馬池３番地１８,,23,210,4480803,,,2024-01-16,登記官による閉鎖,,,2015-10-05,1,,,,,,0
2472,7180301022743,登記記録の閉鎖等,0,2024-01-16,2024-01-16,株式会社エピア,,株式会社,愛知県,西尾市,下町七長１０番地１,,23,213,4450891,,,2024-01-16,登記官による閉鎖,,,2015-10-05,1,,,,,,0
2473,7180302001861,登記記録の閉鎖等,0,2024-01-16,2024-01-16,有限会社タフトシステム,,有限会社,愛知県,岡崎市,柱町字東荒子８６番地,,23,202,4440834,,,2024-01-16,登記官による閉鎖,,,2015-10-05,1,,,,,,0
2474,7180302001952,登記記録の閉鎖等,0,2024-01-16,2024-01-16,有限会社地球防衛軍ピース,,有限会社,愛知県,岡崎市,六名本町１６番地１４,,23,202,4440854,,,2024-01-16,登記官による閉鎖,,,2015-10-05,1,,,,,,0
2475,7180302011712,登記記録の閉鎖等,0,2024-01-16,2024-01-04,有限会社珈琲問屋煎豆,00074985,有限会社,愛知県,豊橋市,小松町字北郷１４４番地の２,,23,201,4418109,,,2024-01-04,清算の結了等,,,2015-10-05,1,,,,,コーヒードンヤイリマメ,0
2476,7180302015886,登記記録の閉鎖等,0,2024-01-16,2024-01-16,有限会社牧原製作所,,有限会社,愛知県,蒲郡市,形原町上辻１６番地,00075054,23,214,4430104,,,2024-01-16,登記官による閉鎖,,,2015-10-05,1,,,,,,0
2477,7180302023237,登記記録の閉鎖等,0,2024-01-16,2024-01-16,平野建築有限会社,,有限会社,愛知県,豊田市,東保見町藪下６１８番地,,23,211,4700345,,,2024-01-16,登記官による閉鎖,,,2015-10-05,1,,,,,,0
2478,7180305002064,登記記録の閉鎖等,0,2024-01-16,2024-01-16,特定非営利活動法人三河市民福祉会,,その他の設立登記法人,愛知県,岡崎市,柱町字東荒子８６番地,,23,202,4440834,,,2024-01-16,登記官による閉鎖,,,2015-10-05,1,,,,,,0
2487,7210001003890,登記記録の閉鎖等,0,2024-01-16,2024-01-16,株式会社マツダサービス福井,,株式会社,福井県,福井市,西開発４丁目１０５番地,,18,201,9100843,,,2024-01-16,登記官による閉鎖,,,2015-10-05,1,,,,,マツダサービスフクイ,0
2488,7210002009763,登記記録の閉鎖等,0,2024-01-16,2024-01-16,有限会社香川アルミ工業,,有限会社,福井県,勝山市,鹿谷町杉俣第１９号１９番地,,18,206,9110843,,,2024-01-16,登記官による閉鎖,,,2015-10-05,1,,,,,,0
2490,7210005008325,登記記録の閉鎖等,0,2024-01-16,2024-01-16,鯖江サイジング協同組合,,その他の設立登記法人,福井県,鯖江市,柳町４丁目３番１８号,,18,207,9160047,,,2024-01-16,登記官による閉鎖,,,2015-10-05,1,,,,,サバエサイジング,0
2491,7220003002873,登記記録の閉鎖等,0,2024-01-16,2023-12-19,セントラルアドバイザリー合同会社,,合同会社,石川県,金沢市,広岡１丁目３番１号,,17,201,9200031,,,2023-12-19,清算の結了等,,,2020-08-21,1,,,,,セントラルアドバイザリー,0
2495,7240001041401,登記記録の閉鎖等,0,2024-01-16,2023-12-19,株式会社ニックスサービス,,株式会社,広島県,広島市南区,大州４丁目５番３５号,,34,103,7320802,,,2023-12-19,合併による解散等,6240001008475,令和５年１２月１日広島市東区尾長東二丁目６番６号株式会社ニックス（6240001008475）に合併し解散,2015-10-05,1,,,,,ニックスサービス,0
2506,7290001093594,登記記録の閉鎖等,0,2024-01-16,2024-01-11,株式会社ＡＸＥ,,株式会社,福岡県,那珂川市,後野１丁目３－４,,40,231,8111241,,,2024-01-11,清算の結了等,,,2021-06-21,1,,,,,アックス,0
2511,7290002045033,登記記録の閉鎖等,0,2024-01-16,2024-01-11,有限会社コスモシステム福岡,,有限会社,福岡県,飯塚市,南尾３２０番地,,40,205,8200072,,,2024-01-11,合併による解散等,1310001002186,令和６年１月１日長崎市稲佐町２番２号株式会社メモリード（1310001002186）に合併し解散,2015-10-05,1,,,,,,0
2513,7290801001987,登記記録の閉鎖等,0,2024-01-16,2023-12-25,株式会社星光,,株式会社,福岡県,北九州市小倉北区,神岳１丁目１番４７号,,40,106,8020045,,,2023-12-25,清算の結了等,,,2015-10-05,1,,,,,セイコウ,0
2520,7320001016865,登記記録の閉鎖等,0,2024-01-16,2024-01-10,株式会社石原技建,,株式会社,大分県,豊後大野市,清川町六種２０６４番地３,,44,212,8796912,,,2024-01-10,清算の結了等,,,2019-02-05,1,,,,,イシハラギケン,0
2535,7360002016638,登記記録の閉鎖等,0,2024-01-16,2024-01-10,有限会社日健建設,,有限会社,沖縄県,浦添市,内間３丁目２３番３－１０１号,,47,208,9012121,,,2024-01-10,清算の結了等,,,2015-10-05,1,,,,,,0
2538,7370002016166,登記記録の閉鎖等,0,2024-01-16,2024-01-05,オーパ有限会社,,有限会社,宮城県,仙台市宮城野区,田子１丁目２６番８号,,04,102,9830021,,,2024-01-05,清算の結了等,,,2015-10-05,1,,,,,オーパ,0
2543,7380002023459,登記記録の閉鎖等,0,2024-01-16,2024-01-12,株式会社光栄薬局,,株式会社,福島県,いわき市,内郷綴町川原田８６番地の４,,07,204,9738403,,,2024-01-12,合併による解散等,1010001073621,令和６年１月１日東京都渋谷区恵比寿四丁目２０番３号株式会社雄飛堂（1010001073621）に合併し解散,2015-10-05,1,,,,,コウエイヤッキョク,0
2546,7400001008763,登記記録の閉鎖等,0,2024-01-16,2024-01-10,株式会社東北タイヤ物流,,株式会社,岩手県,盛岡市,下田字生出１３３１番地３３,,03,201,0284134,,,2024-01-10,登記官による閉鎖,,,2015-10-05,1,,,,,,0
2547,7400002003383,登記記録の閉鎖等,0,2024-01-16,2024-01-10,有限会社盛岡デザイン,,有限会社,岩手県,盛岡市,馬場町９番８号,,03,201,0200876,,,2024-01-10,登記官による閉鎖,,,2015-10-05,1,,,,,,0
2548,7400005000114,登記記録の閉鎖等,0,2024-01-16,2024-01-10,社団法人岩手県私学教育振興会,,その他の設立登記法人,岩手県,盛岡市,菜園１丁目３番６号,,03,201,0200024,,,2024-01-10,登記官による閉鎖,,,2015-10-05,1,,,,,,0
2549,7400005003802,登記記録の閉鎖等,0,2024-01-16,2024-01-10,農事組合法人迷岡りんご生産組合,,その他の設立登記法人,岩手県,遠野市,宮守町下宮守字砥森１番１,,03,208,0280304,,,2024-01-10,登記官による閉鎖,,,2015-10-05,1,,,,,マヨオカリンゴセイサンクミアイ,0
2550,7400503000053,登記記録の閉鎖等,0,2024-01-16,2024-01-10,橋本合名会社,,合名会社,岩手県,一関市,東山町松川字一市町２６番地,,03,209,0290303,,,2024-01-10,登記官による閉鎖,,,2015-10-05,1,,,,,,0
2561,7440002004857,登記記録の閉鎖等,0,2024-01-16,2024-01-11,有限会社メディカルサポート,,有限会社,北海道,函館市,時任町１８番３号,,01,202,0400012,,,2024-01-11,清算の結了等,,,2015-10-05,1,,,,,メディカルサポート,0
2567,7500001000735,登記記録の閉鎖等,0,2024-01-16,2024-01-11,株式会社愛媛カラー現像所,00007262,株式会社,愛媛県,松山市,東雲町２番地８毘沙門坂ビル１０２,,38,201,7900803,,,2024-01-11,清算の結了等,,,2015-10-05,1,,,,,エヒメカラーゲンゾウショ,0
2568,7500001006410,登記記録の閉鎖等,0,2024-01-16,2024-01-15,株式会社夢優,,株式会社,愛媛県,松山市,鷹子町５７１番地１ＮＩＳＨＩＨＡＲＡ－Ｍ６０１号,,38,201,7900925,,,2024-01-15,登記官による閉鎖,,,2015-10-05,1,,,,,,0
2569,7500001007557,登記記録の閉鎖等,0,2024-01-16,2024-01-15,クレアゼン－ジャパン株式会社,,株式会社,愛媛県,松山市,錦町６番地７エアーズ錦町４Ｆ,,38,201,7900877,,,2024-01-15,登記官による閉鎖,,,2015-10-05,1,,,,,,0
2570,7500001009628,登記記録の閉鎖等,0,2024-01-16,2024-01-15,泉鉄工株式会社,,株式会社,愛媛県,新居浜市,新田町２丁目３番１７号,,38,205,7920003,,,2024-01-15,登記官による閉鎖,,,2015-10-05,1,,,,,,0
2571,7500001011303,登記記録の閉鎖等,0,2024-01-16,2024-01-15,株式会社大沢勇タオル,,株式会社,愛媛県,今治市,美須賀町３丁目２番地８,,38,202,7940034,,,2024-01-15,登記官による閉鎖,,,2015-10-05,1,,,,,,0
2572,7500001016351,登記記録の閉鎖等,0,2024-01-16,2024-01-15,株式会社近藤総業,,株式会社,愛媛県,新居浜市,若水町２丁目６番１３号,,38,205,7920017,,,2024-01-15,登記官による閉鎖,,,2015-10-05,1,,,,,,0
2574,7500002003646,登記記録の閉鎖等,0,2024-01-16,2024-01-15,有限会社杉岡鉄筋工業,,有限会社,愛媛県,松山市,神田町８番２８号,,38,201,7918063,,,2024-01-15,登記官による閉鎖,,,2015-10-05,1,,,,,,0
2575,7500002005733,登記記録の閉鎖等,0,2024-01-16,2024-01-15,有限会社福本木工,,有限会社,愛媛県,松山市,太山寺町８７１番地２,,38,201,7992662,,,2024-01-15,登記官による閉鎖,,,2015-10-05,1,,,,,,0
2576,7500002006450,登記記録の閉鎖等,0,2024-01-16,2024-01-15,有限会社マルカツ水産食品,,有限会社,愛媛県,松山市,勝山町２丁目２１番地１,,38,201,7900878,,,2024-01-15,登記官による閉鎖,,,2015-10-05,1,,,,,,0
2577,7500002013736,登記記録の閉鎖等,0,2024-01-16,2024-01-15,有限会社ことぶき商会,,有限会社,愛媛県,八幡浜市,広瀬３丁目３番２７号,,38,204,7968002,,,2024-01-15,登記官による閉鎖,,,2015-10-05,1,,,,,,0
2578,7500002013942,登記記録の閉鎖等,0,2024-01-16,2024-01-15,有限会社石橋商店,,有限会社,愛媛県,西条市,喜多川３８３番地の２０,,38,206,7930042,,,2024-01-15,登記官による閉鎖,,,2015-10-05,1,,,,,,0
2579,7500002015823,登記記録の閉鎖等,0,2024-01-16,2024-01-15,有限会社アサヒ堂山下,,有限会社,愛媛県,新居浜市,上泉町２番３６号,,38,205,7920824,,,2024-01-15,登記官による閉鎖,,,2015-10-05,1,,,,,,0
2580,7500002019444,登記記録の閉鎖等,0,2024-01-16,2024-01-15,有限会社渡部電気,,有限会社,愛媛県,今治市,玉川町畑寺甲３６０番地の２,,38,202,7940116,,,2024-01-15,登記官による閉鎖,,,2015-10-05,1,,,,,,0
2581,7500003000634,登記記録の閉鎖等,0,2024-01-16,2024-01-15,合資会社プロジェクト・Ｅ,,合資会社,愛媛県,西宇和郡伊方町,川永田８６１番地１,,38,442,7960312,,,2024-01-15,登記官による閉鎖,,,2015-10-05,1,,,,,,0
2582,7500003000972,登記記録の閉鎖等,0,2024-01-16,2024-01-15,河田建設合名会社,,合名会社,愛媛県,宇和島市,三間町務田６９６番地１,,38,203,7981114,,,2024-01-15,登記官による閉鎖,,,2015-10-05,1,,,,,,0
2583,7500005004781,登記記録の閉鎖等,0,2024-01-16,2024-01-15,財団法人今治基督教会維持財団,,その他の設立登記法人,愛媛県,今治市,今治村甲３番地１,,38,202,7940014,,,2024-01-15,登記官による閉鎖,,,2015-10-05,1,,,,,,0
2594,8010001180527,登記記録の閉鎖等,0,2024-01-16,2024-01-05,株式会社学びＵＰコミュニケーションズ,,株式会社,東京都,千代田区,一ツ橋１丁目１番１号,,13,101,1000003,,,2024-01-05,清算の結了等,,,2017-01-11,1,,,,,マナビアップコミュニケーションズ,0
2605,8010003034623,登記記録の閉鎖等,0,2024-01-16,2024-01-12,ペリドット・ソリューションズ・ジャパン・サービス合同会社,,合同会社,東京都,千代田区,大手町１丁目６番１号大手町ビル２階,,13,101,1000004,,,2024-01-12,合併による解散等,7010003034624,令和６年１月１日東京都千代田区大手町一丁目６番１号大手町ビル２階ペリドット・キャピタル・ソリューションズ・ジャパン合同会社（7010003034624）に合併し解散,2021-04-12,1,,,,,ペリドットソリューションズジャパンサービス,0
2635,8011001143614,登記記録の閉鎖等,0,2024-01-16,2024-01-11,株式会社スタンドバイミー,,株式会社,東京都,渋谷区,神宮前６丁目２３番４号桑野ビル２階,,13,113,1500001,,,2024-01-11,清算の結了等,,,2021-10-26,1,,,,,スタンドバイミー,0
2662,8012701012406,登記記録の閉鎖等,0,2024-01-16,2024-01-15,株式会社Ｄ　ＳＵＣＣＥＳＳ,,株式会社,岡山県,倉敷市,福井４７番地５プレジール山田Ｂ１０１,,33,202,7100844,,,2024-01-15,清算の結了等,,,2015-10-05,1,,,,,,0
2696,8030002030209,登記記録の閉鎖等,0,2024-01-16,2024-01-04,有限会社チャモロ,,有限会社,埼玉県,所沢市,花園４丁目２５８９番地の５８,,11,208,3590047,,,2024-01-04,清算の結了等,,,2015-10-05,1,,,,,チャモロ,0
2702,8030005010777,登記記録の閉鎖等,0,2024-01-16,2023-12-18,諏訪神社,,その他の設立登記法人,埼玉県,坂戸市,大字赤尾１９３４番地,,11,239,3500201,,,2023-12-18,合併による解散等,2030005010824,令和５年１２月１８日埼玉県坂戸市大字赤尾１６６８番地１八坂神社（2030005010824）に合併し解散,2015-10-05,1,,,,,スワジンジャ,0
2711,8040002099284,登記記録の閉鎖等,0,2024-01-16,2023-12-28,有限会社かしわや食堂,,有限会社,千葉県,館山市,北条１６２５番地,,12,205,2940045,,,2023-12-28,清算の結了等,,,2015-10-05,1,,,,,,0
2751,8080402004468,登記記録の閉鎖等,0,2024-01-16,2023-12-21,有限会社サンテック佐久間店,,有限会社,静岡県,浜松市天竜区,佐久間町中部８７番地,,22,140,4313908,,,2023-12-21,清算の結了等,,,2015-10-05,1,,,,,サンテックサクマテン,0
2778,8120001012900,登記記録の閉鎖等,0,2024-01-16,2024-01-11,株式会社高橋電設,00027131,株式会社,大阪府,大阪市東成区,中本１丁目１０番９号,,27,115,5370022,,,2024-01-11,清算の結了等,,,2015-10-05,1,,,,,タカハシデンセツ,0
2792,8120005013192,登記記録の閉鎖等,0,2024-01-16,2023-12-20,天理教八鹿分教会,,その他の設立登記法人,大阪府,寝屋川市,池田新町１番３３号,,27,215,5720038,,,2023-12-20,合併による解散等,8140005010337,令和５年１２月１４日兵庫県養父市三谷７３番地天理教建屋分教会（8140005010337）に合併し解散,2015-10-05,1,,,,,テンリキョウヨウカブンキョウカイ,0
2796,8120101031817,登記記録の閉鎖等,0,2024-01-16,2024-01-15,株式会社オーシャンフーズ,,株式会社,大阪府,南河内郡河南町,大宝１丁目２２番１５号,,27,382,5850005,,,2024-01-15,清算の結了等,,,2015-10-05,1,,,,,,0
2810,8140001001777,登記記録の閉鎖等,0,2024-01-16,2024-01-12,新和水産株式会社,,株式会社,兵庫県,神戸市東灘区,深江浜町１番１神戸市中央卸売市場東部市場内,00039026,28,101,6580023,,,2024-01-12,清算の結了等,,,2015-10-05,1,,,,,シンワスイサン,0
2816,8140001104126,登記記録の閉鎖等,0,2024-01-16,2024-01-10,株式会社ドット・トゥ・ドット,,株式会社,兵庫県,洲本市,中川原町市原５０４番地,,28,205,6560005,,,2024-01-10,清算の結了等,,,2016-11-24,1,,,,,ドットトゥドット,0
2827,8180001005469,登記記録の閉鎖等,0,2024-01-16,2024-01-16,丸吉商事株式会社,,株式会社,愛知県,名古屋市千種区,星が丘元町１５番３８号,,23,101,4640802,,,2024-01-16,登記官による閉鎖,,,2019-01-15,1,,,,,マルヨシショウジ,0
2828,8180001020195,登記記録の閉鎖等,0,2024-01-16,2024-01-16,トーアケミスク株式会社,,株式会社,愛知県,名古屋市港区,小碓２丁目２０番地,,23,111,4550801,,,2024-01-16,登記官による閉鎖,,,2015-10-05,1,,,,,,0
2829,8180001024972,登記記録の閉鎖等,0,2024-01-16,2024-01-16,株式会社大友開発,,株式会社,愛知県,名古屋市西区,城西町１１４番１,,23,104,4520841,,,2024-01-16,登記官による閉鎖,,,2015-10-05,1,,,,,,0
2830,8180001042735,登記記録の閉鎖等,0,2024-01-16,2024-01-16,株式会社インターグローブ,,株式会社,愛知県,名古屋市中区,栄４丁目８番１９号エポックビル１階,,23,106,4600008,,,2024-01-16,登記官による閉鎖,,,2015-10-05,1,,,,,,0
2831,8180001048105,登記記録の閉鎖等,0,2024-01-16,2024-01-16,株式会社シンビワールド,,株式会社,愛知県,名古屋市中区,千代田３丁目２７番２１号,,23,106,4600012,,,2024-01-16,登記官による閉鎖,,,2015-10-05,1,,,,,,0
2832,8180001049383,登記記録の閉鎖等,0,2024-01-16,2024-01-16,株式会社リヴィウスサプライマネジメント,,株式会社,愛知県,名古屋市千種区,御棚町３丁目２７番地の１,,23,101,4640835,,,2024-01-16,登記官による閉鎖,,,2015-10-05,1,,,,,,0
2833,8180001057683,登記記録の閉鎖等,0,2024-01-16,2024-01-16,株式会社ジャストワーク,,株式会社,愛知県,名古屋市中川区,一色新町３丁目９１２番地,,23,110,4540946,,,2024-01-16,登記官による閉鎖,,,2015-10-05,1,,,,,,0
2834,8180001060316,登記記録の閉鎖等,0,2024-01-16,2024-01-16,株式会社メディアエンタープライズ,,株式会社,愛知県,名古屋市緑区,鹿山２丁目９５番地,,23,114,4580045,,,2024-01-16,登記官による閉鎖,,,2015-10-05,1,,,,,,0
2835,8180001066791,登記記録の閉鎖等,0,2024-01-16,2024-01-16,サクラ工業株式会社,,株式会社,愛知県,愛知郡東郷町,大字諸輪字北木戸西４４番地,,23,302,4700151,,,2024-01-16,登記官による閉鎖,,,2015-10-05,1,,,,,,0
2838,8180001074225,登記記録の閉鎖等,0,2024-01-16,2024-01-16,シゲマツ紙器株式会社,,株式会社,愛知県,春日井市,下市場町５丁目２番地の６,,23,206,4860852,,,2024-01-16,登記官による閉鎖,,,2015-10-05,1,,,,,,0
2839,8180001085255,登記記録の閉鎖等,0,2024-01-16,2024-01-16,株式会社亜倶羅珈琲,,株式会社,愛知県,一宮市,栄４丁目８番１５号,,23,203,4910858,,,2024-01-16,登記官による閉鎖,,,2015-10-05,1,,,,,,0
2840,8180001089925,登記記録の閉鎖等,0,2024-01-16,2024-01-16,株式会社華樹苑,,株式会社,愛知県,名古屋市中区,栄４丁目１８番２０号,,23,106,4600008,,,2024-01-16,登記官による閉鎖,,,2015-10-05,1,,,,,,0
2841,8180001098067,登記記録の閉鎖等,0,2024-01-16,2024-01-16,株式会社アポロン,,株式会社,愛知県,海部郡大治町,大字中島字深田２０番地の１,,23,424,4901145,,,2024-01-16,登記官による閉鎖,,,2015-10-05,1,,,,,,0
2842,8180001101292,登記記録の閉鎖等,0,2024-01-16,2024-01-16,株式会社グリッター,,株式会社,愛知県,名古屋市中区,丸の内３丁目２０番２０号,,23,106,4600002,,,2024-01-16,登記官による閉鎖,,,2015-10-05,1,,,,,,0
2843,8180001106589,登記記録の閉鎖等,0,2024-01-16,2024-01-16,株式会社ＳＲ企画,,株式会社,愛知県,名古屋市中区,新栄２丁目３５番３号ロイヤルマンション新栄ヴァリエ１００２号,,23,106,4600007,,,2024-01-16,登記官による閉鎖,,,2015-10-05,1,,,,,,0
2846,8180001125028,登記記録の閉鎖等,0,2024-01-16,2024-01-10,株式会社ワークポート東海,,株式会社,愛知県,名古屋市西区,牛島町６番１号,,23,104,4510046,,,2024-01-10,合併による解散等,9010701016178,令和６年１月１日東京都品川区大崎一丁目２番２号株式会社ワークポート（9010701016178）に合併し解散,2016-10-05,1,,,,,ワークポートトウカイ,0
2848,8180002005807,登記記録の閉鎖等,0,2024-01-16,2024-01-16,有限会社梅一建設,,有限会社,愛知県,名古屋市港区,稲永５丁目２番２７号,,23,111,4550842,,,2024-01-16,登記官による閉鎖,,,2015-10-05,1,,,,,,0
2850,8180002018750,登記記録の閉鎖等,0,2024-01-16,2024-01-16,有限会社東友パール,,有限会社,愛知県,名古屋市中川区,八田町２６０８番地,,23,110,4540877,,,2024-01-16,登記官による閉鎖,,,2015-10-05,1,,,,,,0
2852,8180002039383,登記記録の閉鎖等,0,2024-01-16,2024-01-16,有限会社マール,,有限会社,愛知県,名古屋市名東区,社台３丁目１４５番地上社ハイツ３０２号,,23,115,4650092,,,2024-01-16,登記官による閉鎖,,,2015-10-05,1,,,,,,0
2853,8180002046652,登記記録の閉鎖等,0,2024-01-16,2024-01-16,有限会社ジェイアイティー,,有限会社,愛知県,名古屋市瑞穂区,瑞穂通５丁目１９番地,,23,108,4670806,,,2024-01-16,登記官による閉鎖,,,2018-05-23,1,,,,,ジェイアイティー,0
2854,8180002047584,登記記録の閉鎖等,0,2024-01-16,2024-01-16,有限会社ケイ・ジー・エス,,有限会社,愛知県,名古屋市中区,新栄１丁目１７番２号,,23,106,4600007,,,2024-01-16,登記官による閉鎖,,,2015-10-05,1,,,,,,0
2855,8180002058029,登記記録の閉鎖等,0,2024-01-16,2024-01-16,有限会社画デザインワークス,,有限会社,愛知県,名古屋市昭和区,駒方町１丁目８番地,,23,107,4660832,,,2024-01-16,登記官による閉鎖,,,2015-10-05,1,,,,,,0
2856,8180002061420,登記記録の閉鎖等,0,2024-01-16,2024-01-16,有限会社ジリーナ・インターナショナル,,有限会社,愛知県,名古屋市東区,泉１丁目３番４３号,,23,102,4610001,,,2024-01-16,登記官による閉鎖,,,2015-10-05,1,,,,,,0
2857,8180002068894,登記記録の閉鎖等,0,2024-01-16,2024-01-16,有限会社木戸脇商店,,有限会社,愛知県,小牧市,岩崎原２丁目３７番地,,23,219,4850017,,,2024-01-16,登記官による閉鎖,,,2015-10-05,1,,,,,,0
2858,8180002088117,登記記録の閉鎖等,0,2024-01-16,2024-01-16,横井木型有限会社,,有限会社,愛知県,東海市,名和町寝覚１０９番地,,23,222,4760002,,,2024-01-16,登記官による閉鎖,,,2015-10-05,1,,,,,,0
2859,8180002093736,登記記録の閉鎖等,0,2024-01-16,2024-01-16,田島縫製有限会社,,有限会社,愛知県,犬山市,字郷西９０番地の２０,,23,215,4840817,,,2024-01-16,登記官による閉鎖,,,2018-01-29,1,,,,,,0
2860,8180003001292,登記記録の閉鎖等,0,2024-01-16,2024-01-16,合資会社家田クリーニング店,,合資会社,愛知県,名古屋市北区,金城町４丁目６番地,,23,103,4620047,,,2024-01-16,登記官による閉鎖,,,2015-10-05,1,,,,,,0
2861,8180003014617,登記記録の閉鎖等,0,2024-01-16,2024-01-16,ミールサービス合同会社,,合同会社,愛知県,名古屋市北区,清水１丁目２２番４号,,23,103,4620844,,,2024-01-16,登記官による閉鎖,,,2015-10-05,1,,,,,,0
2863,8180005007981,登記記録の閉鎖等,0,2024-01-16,2024-01-16,社団法人愛知県経営科学協会,,その他の設立登記法人,愛知県,名古屋市中村区,名駅４丁目２番２８号,,23,105,4500002,,,2024-01-16,登記官による閉鎖,,,2015-10-05,1,,,,,,0
2864,8180301002307,登記記録の閉鎖等,0,2024-01-16,2024-01-16,サンレンタル株式会社,,株式会社,愛知県,岡崎市,竜泉寺町字東柄栗５番地５,,23,202,4443524,,,2024-01-16,登記官による閉鎖,,,2015-10-05,1,,,,,,0
2865,8180301010672,登記記録の閉鎖等,0,2024-01-16,2024-01-16,株式会社ＢＡＢＹ　Ｂ’ＡＩＲ　ＪＡＰＡＮ,,株式会社,愛知県,豊川市,御津町赤根水神５番地の２,,23,207,4410316,,,2024-01-16,登記官による閉鎖,,,2015-10-05,1,,,,,,0
2866,8180301011407,登記記録の閉鎖等,0,2024-01-16,2024-01-16,株式会社ムラタ,,株式会社,愛知県,蒲郡市,府相町２丁目３番地,,23,214,4430054,,,2024-01-16,登記官による閉鎖,,,2015-10-05,1,,,,,,0
2867,8180301017123,登記記録の閉鎖等,0,2024-01-16,2024-01-16,株式会社信栄,,株式会社,愛知県,刈谷市,東境町昭山３４番地８,,23,210,4480007,,,2024-01-16,登記官による閉鎖,,,2015-10-05,1,,,,,,0
2868,8180302011760,登記記録の閉鎖等,0,2024-01-16,2024-01-16,有限会社ワンダーストーン,,有限会社,愛知県,豊橋市,下地町字横山９番地４,,23,201,4400083,,,2024-01-16,登記官による閉鎖,,,2015-10-05,1,,,,,,0
2869,8180305002006,登記記録の閉鎖等,0,2024-01-16,2024-01-16,ＮＰＯ法人ＨＡＰＰＹＭＡＴＥ,,その他の設立登記法人,愛知県,岡崎市,明大寺町字仲ケ入３８番地１６０,,23,202,4440866,,,2024-01-16,登記官による閉鎖,,,2015-10-05,1,,,,,,0
2870,8190001006210,登記記録の閉鎖等,0,2024-01-16,2024-01-10,株式会社江那テクニカル,,株式会社,三重県,鈴鹿市,池田町１１５６番地の１３,,24,207,5130032,,,2024-01-10,清算の結了等,,,2015-10-05,1,,,,,エナテクニカル,0
2871,8190001022703,登記記録の閉鎖等,0,2024-01-16,2024-01-10,株式会社２３,,株式会社,三重県,津市,下弁財町津興３０３３番地１,,24,201,5140805,,,2024-01-10,清算の結了等,,,2015-10-05,1,,,,,ニサン,0
2875,8200001034548,登記記録の閉鎖等,0,2024-01-16,2024-01-12,日本鞄材物流株式会社,,株式会社,岐阜県,岐阜市,岩田西３丁目４６５番地,,21,201,5013156,,,2024-01-12,合併による解散等,3010001206419,令和６年１月１日東京都千代田区麹町三丁目２番地垣見麹町ビル別館６階日本鞄材株式会社（3010001206419）に合併し解散,2017-10-20,1,,,,,ニホンホウザイブツリュウ,0
2877,8200002014961,登記記録の閉鎖等,0,2024-01-16,2024-01-12,株式会社ダバ,,株式会社,岐阜県,不破郡垂井町,８１２番地の１,,21,361,5032121,,,2024-01-12,清算の結了等,,,2015-10-05,1,,,,,ダバ,0
2878,8210001010671,登記記録の閉鎖等,0,2024-01-16,2024-01-16,中村石油株式会社,,株式会社,福井県,敦賀市,疋田１３号１番地の６,,18,202,9140302,,,2024-01-16,登記官による閉鎖,,,2015-10-05,1,,,,,,0
2880,8210002009597,登記記録の閉鎖等,0,2024-01-16,2024-01-16,東山設備有限会社,,有限会社,福井県,大野市,東山第４号５番地,,18,205,9120413,,,2024-01-16,登記官による閉鎖,,,2015-10-05,1,,,,,,0
2881,8210002011710,登記記録の閉鎖等,0,2024-01-16,2024-01-16,有限会社関陶器店,,有限会社,福井県,越前市,国府１丁目１１番８号,,18,209,9150076,,,2024-01-16,登記官による閉鎖,,,2015-10-05,1,,,,,,0
2882,8210005005214,登記記録の閉鎖等,0,2024-01-16,2024-01-16,ラルク・アン・シェール協同組合,,その他の設立登記法人,福井県,福井市,新田塚２丁目６５－７,,18,201,9100067,,,2024-01-16,登記官による閉鎖,,,2015-10-05,1,,,,,,0
2898,8290001058893,登記記録の閉鎖等,0,2024-01-16,2024-01-11,Ｒ．Ｍ．Ｇ株式会社,,株式会社,福岡県,久留米市,日吉町１２番地３５,,40,203,8300017,,,2024-01-11,合併による解散等,8290001065808,令和６年１月１日福岡県久留米市日吉町１２番地３５株式会社Ｇ・Ｒ・Ｈ　３ｒｄ（8290001065808）に合併し解散,2015-10-05,1,,,,,アールエムジー,0
2924,8400001007038,登記記録の閉鎖等,0,2024-01-16,2024-01-10,河西商事株式会社,,株式会社,岩手県,下閉伊郡山田町,織笠第１１地割２８番地１,,03,482,0281361,,,2024-01-10,登記官による閉鎖,,,2015-10-05,1,,,,,,0
2925,8400001013779,登記記録の閉鎖等,0,2024-01-16,2024-01-10,株式会社盛岡銀行,,株式会社,岩手県,盛岡市,本町２９４番地,,03,201,0200000,,,2024-01-10,登記官による閉鎖,,,2017-07-18,1,,,,,,1
2927,8400002010206,登記記録の閉鎖等,0,2024-01-16,2024-01-10,有限会社奥友鈑金工業所,,有限会社,岩手県,遠野市,上組町１２番３１号,,03,208,0280517,,,2024-01-10,登記官による閉鎖,,,2015-10-05,1,,,,,,0
2928,8400005004262,登記記録の閉鎖等,0,2024-01-16,2024-01-10,特定非営利活動法人エヌピーオー街かどボランティア,,その他の設立登記法人,岩手県,宮古市,鍬ヶ崎上町２番３２号,,03,202,0270006,,,2024-01-10,登記官による閉鎖,,,2015-10-05,1,,,,,,0
2929,8400005007620,登記記録の閉鎖等,0,2024-01-16,2024-01-10,大澤村農業會,,その他の設立登記法人,岩手県,下閉伊郡山田町,大沢第８地割１９番地の１,,03,482,0281311,,,2024-01-10,登記官による閉鎖,,,2015-12-24,1,,,,,,0
2930,8400603000076,登記記録の閉鎖等,0,2024-01-16,2024-01-10,合資会社義屋,,合資会社,岩手県,胆沢郡金ケ崎町,西根本町８９番地,,03,381,0294503,,,2024-01-10,登記官による閉鎖,,,2015-10-05,1,,,,,,0
2931,8400605000289,登記記録の閉鎖等,0,2024-01-16,2024-01-10,農事組合法人小田代肉牛生産組合,,その他の設立登記法人,岩手県,奥州市,江刺田原字横懸２５９番地,,03,215,0230171,,,2024-01-10,登記官による閉鎖,,,2015-10-05,1,,,,,,0
2932,8400605000371,登記記録の閉鎖等,0,2024-01-16,2024-01-10,農事組合法人永沢養豚組合,,その他の設立登記法人,岩手県,胆沢郡金ケ崎町,永沢鳥の海後１５６０番地,,03,381,0294504,,,2024-01-10,登記官による閉鎖,,,2015-10-05,1,,,,,,0
2945,8470002003087,登記記録の閉鎖等,0,2024-01-16,2024-01-09,有限会社三誠不動産鑑定所,,有限会社,香川県,高松市,多肥下町１５４９番地４,,37,201,7618075,,,2024-01-09,清算の結了等,,,2015-10-05,1,,,,,サンセイフドウサンカンテイショ,0
2946,8500001010493,登記記録の閉鎖等,0,2024-01-16,2024-01-15,株式会社藤田電機工事,,株式会社,愛媛県,新居浜市,八幡３丁目７番１４号,,38,205,7920871,,,2024-01-15,登記官による閉鎖,,,2015-10-05,1,,,,,,0
2947,8500001013802,登記記録の閉鎖等,0,2024-01-16,2024-01-15,三ッ矢商事株式会社,,株式会社,愛媛県,八幡浜市,下浜田１３７８番地１０,,38,204,7960088,,,2024-01-15,登記官による閉鎖,,,2015-10-05,1,,,,,,0
2948,8500002002176,登記記録の閉鎖等,0,2024-01-16,2024-01-15,有限会社河本農機商会,,有限会社,愛媛県,松山市,森松町４５４番地,,38,201,7911113,,,2024-01-15,登記官による閉鎖,,,2015-10-05,1,,,,,,0
2949,8500002002507,登記記録の閉鎖等,0,2024-01-16,2024-01-15,有限会社黒田自動車板金,,有限会社,愛媛県,松山市,三津３丁目２番４２号,,38,201,7918061,,,2024-01-15,登記官による閉鎖,,,2015-10-05,1,,,,,,0
2950,8500002007902,登記記録の閉鎖等,0,2024-01-16,2024-01-15,有限会社坊ちゃん列車を走らす会,,有限会社,愛媛県,松山市,歩行町１丁目７番地１,,38,201,7900801,,,2024-01-15,登記官による閉鎖,,,2015-10-05,1,,,,,,0
2951,8500002008891,登記記録の閉鎖等,0,2024-01-16,2024-01-15,有限会社松山観光港大盛屋食堂,,有限会社,愛媛県,松山市,高浜町５丁目２２５９番地１,,38,201,7918081,,,2024-01-15,登記官による閉鎖,,,2015-10-05,1,,,,,,0
2952,8500002010848,登記記録の閉鎖等,0,2024-01-16,2024-01-15,有限会社中山組,,有限会社,愛媛県,伊予郡砥部町,宮内１８８５番地４７,,38,402,7912120,,,2024-01-15,登記官による閉鎖,,,2016-06-22,1,,,,,,0
2953,8500002011094,登記記録の閉鎖等,0,2024-01-16,2024-01-15,有限会社濱田石油店,,有限会社,愛媛県,東温市,樋口１３８１番地１,00007923,38,215,7910202,,,2024-01-15,登記官による閉鎖,,,2015-10-05,1,,,,,,0
2954,8500002013413,登記記録の閉鎖等,0,2024-01-16,2024-01-11,株式会社中里不動産,,株式会社,愛媛県,西宇和郡伊方町,二名津５６４番地,,38,442,7960813,,,2024-01-11,合併による解散等,5120001174743,令和６年１月１日大阪市淀川区西中島五丁目１１番９号株式会社中里ホールディングス（5120001174743）に合併し解散,2015-10-05,1,,,,,ナカザトフドウサン,0
2955,8500002014551,登記記録の閉鎖等,0,2024-01-16,2024-01-15,有限会社山下商事,,有限会社,愛媛県,西条市,大町５２１番地,,38,206,7930030,,,2024-01-15,登記官による閉鎖,,,2015-10-05,1,,,,,,0
2956,8500002016283,登記記録の閉鎖等,0,2024-01-16,2024-01-15,有限会社佐々木機工,,有限会社,愛媛県,新居浜市,西町１番３号,,38,205,7920014,,,2024-01-15,登記官による閉鎖,,,2015-10-05,1,,,,,,0
2957,8500002017835,登記記録の閉鎖等,0,2024-01-16,2024-01-15,栄昌海運有限会社,,有限会社,愛媛県,今治市,波方町波方甲２５６３番地１,,38,202,7992101,,,2024-01-15,登記官による閉鎖,,,2015-10-05,1,,,,,,0
2958,8500002020153,登記記録の閉鎖等,0,2024-01-16,2024-01-15,有限会社Ｓ・Ｔ　ｃｏｍｐａｎｙ,,有限会社,愛媛県,今治市,常盤町４丁目９番地４,,38,202,7940015,,,2024-01-15,登記官による閉鎖,,,2015-10-05,1,,,,,,0
2959,8500002022050,登記記録の閉鎖等,0,2024-01-16,2024-01-15,有限会社三協工研,,有限会社,愛媛県,四国中央市,土居町北野甲１５７１番地７,,38,213,7990722,,,2024-01-15,登記官による閉鎖,,,2015-10-05,1,,,,,,0
2960,8500002023073,登記記録の閉鎖等,0,2024-01-16,2024-01-15,有限会社プラザ公輝,,有限会社,愛媛県,宇和島市,丸穂甲９３７番地１８,,38,203,7980038,,,2024-01-15,登記官による閉鎖,,,2015-10-05,1,,,,,,0
2961,8500002024484,登記記録の閉鎖等,0,2024-01-16,2024-01-15,有限会社武田農園,,有限会社,愛媛県,伊予市,上唐川甲１８０番地,,38,210,7993134,,,2024-01-15,登記官による閉鎖,,,2022-07-06,1,,,,,タケダノウエン,0
2962,8500003000484,登記記録の閉鎖等,0,2024-01-16,2024-01-15,合同会社ぶう工房,,合同会社,愛媛県,伊予郡砥部町,八倉１７０番地,,38,402,7912111,,,2024-01-15,登記官による閉鎖,,,2015-10-05,1,,,,,,0
2964,8500005001514,登記記録の閉鎖等,0,2024-01-16,2024-01-15,愛媛イーシーベンチャービジネス交流協同組合,00008404,その他の設立登記法人,愛媛県,松山市,空港通１丁目６番２７号,,38,201,7900054,,,2024-01-15,登記官による閉鎖,,,2015-10-05,1,,,,,,0
2975,9010001145669,登記記録の閉鎖等,0,2024-01-16,2024-01-11,株式会社麗,,株式会社,東京都,新宿区,富久町１５番１号富久クロスコンフォートタワー９１０号,,13,104,1620067,,,2024-01-11,清算の結了等,,,2015-10-05,1,,,,,レイ,0
2980,9010001202577,登記記録の閉鎖等,0,2024-01-16,2024-01-11,フォーサイドメディア株式会社,,株式会社,東京都,中央区,日本橋室町３丁目３番１号,,13,102,1030022,,,2024-01-11,合併による解散等,7290001068299,令和６年１月１日東京都中央区日本橋室町三丁目３番１号株式会社ポップティーン（7290001068299）に合併し解散,2019-07-30,1,,,,,フォーサイドメディア,0
2981,9010001214135,登記記録の閉鎖等,0,2024-01-16,2024-01-11,株式会社プレミアペットアシスト,,株式会社,東京都,千代田区,麹町２丁目４番地１,,13,101,1020083,,,2024-01-11,合併による解散等,6010001092848,令和６年１月１日東京都千代田区麹町二丁目４番地１株式会社プレミアアシスト（6010001092848）に合併し解散,2020-12-04,1,,,,,プレミアペットアシスト,0
2982,9010001221593,登記記録の閉鎖等,0,2024-01-16,2023-12-28,株式会社ＫＡＮＮＡ　ＰＬＡＣＥ,,株式会社,東京都,港区,芝浦１丁目１番１号,,13,103,1050023,,,2023-12-28,合併による解散等,8010401145542,令和５年１２月２８日東京都港区芝浦一丁目１番１号株式会社アルダグラム（8010401145542）に合併し解散,2021-10-06,1,,,,,カンナプレイス,0
2995,9010401149930,登記記録の閉鎖等,0,2024-01-16,2024-01-12,株式会社Ｒａｉｋｕｍｉ,,株式会社,東京都,港区,浜松町２丁目２番１５号浜松町ダイヤビル２Ｆ,,13,103,1050013,,,2024-01-12,合併による解散等,1010501012624,令和６年１月１日東京都台東区台東四丁目１９番９号ＰＸＣ株式会社（1010501012624）に合併し解散,2019-12-24,1,,,,,ライクミ,0
2996,9010401175316,登記記録の閉鎖等,0,2024-01-16,2023-12-12,ソーゴーメンテナンス株式会社,,株式会社,東京都,港区,赤坂２丁目１５番８号,,13,103,1070052,,,2023-12-12,清算の結了等,,,2023-07-18,1,,,,,ソーゴーメンテナンス,0
3001,9010501040254,登記記録の閉鎖等,0,2024-01-16,2024-01-10,株式会社ライフイットプランニング,,株式会社,東京都,新宿区,新宿１丁目３６番２号新宿第七葉山ビル３階,,13,104,1600022,,,2024-01-10,清算の結了等,,,2016-11-08,1,,,,,ライフイットプランニング,0
3004,9010601045830,登記記録の閉鎖等,0,2024-01-16,2024-01-09,株式会社フラスコ,,株式会社,東京都,江東区,北砂５丁目３番１２号,,13,108,1360073,,,2024-01-09,清算の結了等,,,2015-10-05,1,,,,,フラスコ,0
3009,9010801026003,登記記録の閉鎖等,0,2024-01-16,2024-01-12,Ｎｅｘｔ　ＩＮＮＯＶＡＴＩＯＮ株式会社,,株式会社,東京都,大田区,西糀谷４丁目２６番４号,,13,111,1440034,,,2024-01-12,合併による解散等,8040001098171,令和５年１２月３１日千葉市緑区誉田町二丁目２１番地４９２Ｎｅｘｔ　ＩＮＮＯＶＡＴＩＯＮ株式会社（8040001098171）に合併し解散,2015-10-05,1,,,,,ネクストイノベーション,0
3021,9011202001280,登記記録の閉鎖等,0,2024-01-16,2024-01-15,有限会社小笠原内装,,有限会社,東京都,中野区,上高田４丁目３３番１号,,13,114,1640002,,,2024-01-15,清算の結了等,,,2015-10-05,1,,,,,オガサワラナイソウ,0
3024,9011301016849,登記記録の閉鎖等,0,2024-01-16,2024-01-04,株式会社コミキュー,,株式会社,東京都,杉並区,上井草３丁目３０番２５－１０６号,,13,115,1670023,,,2024-01-04,清算の結了等,,,2015-10-05,1,,,,,,0
3032,9012302005956,登記記録の閉鎖等,0,2024-01-16,2024-01-11,有限会社高橋型枠工業,00057858,有限会社,東京都,町田市,小山ヶ丘３丁目２８番地,,13,209,1940215,,,2024-01-11,清算の結了等,,,2015-10-05,1,,,,,タカハシカタワクコウギョウ,0
3035,9013101004190,登記記録の閉鎖等,0,2024-01-16,2024-01-09,株式会社魚躬,,株式会社,東京都,青梅市,勝沼３丁目１４１番地の２９,,13,205,1980041,,,2024-01-09,清算の結了等,,,2015-10-05,1,,,,,,0
3060,9040001054776,登記記録の閉鎖等,0,2024-01-16,2023-12-28,株式会社アクアプラス,,株式会社,千葉県,市原市,五所１７２０番地の１,,12,219,2900066,,,2023-12-28,清算の結了等,,,2015-10-05,1,,,,,アクアプラス,0
3061,9040001061228,登記記録の閉鎖等,0,2024-01-16,2023-12-28,小川建設工業株式会社,,株式会社,千葉県,山武郡横芝光町,木戸８１３６番地の１,,12,410,2891726,,,2023-12-28,清算の結了等,,,2015-10-05,1,,,,,オガワケンセツコウギョウ,0
3075,9060002037877,登記記録の閉鎖等,0,2024-01-16,2024-01-10,有限会社足利下山工房,,有限会社,栃木県,足利市,松田町７３２番地３,,09,202,3260101,,,2024-01-10,清算の結了等,,,2015-10-05,1,,,,,アシカガシモヤマコウボウ,0
3097,9080401023666,登記記録の閉鎖等,0,2024-01-16,2023-12-21,間木技研株式会社,,株式会社,静岡県,浜松市天竜区,佐久間町浦川２０１８番地の２,,22,140,4313906,,,2023-12-21,清算の結了等,,,2019-06-05,1,,,,,マギギケン,0
3113,9080402008385,登記記録の閉鎖等,0,2024-01-16,2024-01-10,有限会社安川モータース,,有限会社,静岡県,浜松市中央区,高林３丁目１２番３２号,,22,138,4300907,,,2024-01-10,清算の結了等,,,2015-10-05,1,,,,,ヤスカワモータース,0
3130,9110001015977,登記記録の閉鎖等,0,2024-01-16,2024-01-11,ナガタベルリッツア株式会社,,株式会社,新潟県,燕市,吉田法花堂字新田前１８６７番地１,,15,213,9590214,,,2024-01-11,合併による解散等,2010001052946,令和６年１月１日東京都中央区銀座八丁目１０番１４号ナガタベルリッツア株式会社（2010001052946）に合併し解散,2015-10-05,1,,,,,ナガタベルリッツア,0
3151,9120005015592,登記記録の閉鎖等,0,2024-01-16,2024-01-12,ＮＰＯ法人ライフサポート福音社,,その他の設立登記法人,大阪府,枚方市,南楠葉１丁目７番１９号,,27,210,5731105,,,2024-01-12,清算の結了等,,,2015-10-05,1,,,,,ライフサポートフクインシャ,0
3170,9140002055144,登記記録の閉鎖等,0,2024-01-16,2023-12-12,有限会社神戸・三田ピアノ,,有限会社,兵庫県,三田市,学園３丁目２番地Ｇ棟１０１０号,,28,219,6691337,,,2023-12-12,清算の結了等,,,2015-10-05,1,,,,,コウベサンダピアノ,0
3174,9150002010783,登記記録の閉鎖等,0,2024-01-16,2024-01-12,株式会社上野興産,,株式会社,兵庫県,尼崎市,神田北通３丁目３０番地２,,28,202,6600883,,,2024-01-12,合併による解散等,7130001026652,令和５年１２月３１日京都市南区吉祥院西ノ庄西中町１番地株式会社明輝建設（7130001026652）に合併し解散,2015-10-05,1,,,,,ウエノコウサン,0
3179,9180001001558,登記記録の閉鎖等,0,2024-01-16,2024-01-16,株式会社アフター,,株式会社,愛知県,名古屋市北区,若葉通３丁目１８番地の５,,23,103,4620854,,,2024-01-16,登記官による閉鎖,,,2015-10-05,1,,,,,,0
3180,9180001007811,登記記録の閉鎖等,0,2024-01-16,2024-01-16,株式会社アール・エス企画,,株式会社,愛知県,名古屋市名東区,上社２丁目１７０番地,,23,115,4650025,,,2024-01-16,登記官による閉鎖,,,2015-10-05,1,,,,,,0
3181,9180001020112,登記記録の閉鎖等,0,2024-01-16,2024-01-16,株式会社ワタナベ,,株式会社,愛知県,名古屋市中川区,野田２丁目３４０番地,,23,110,4540912,,,2024-01-16,登記官による閉鎖,,,2015-10-05,1,,,,,,0
3182,9180001021952,登記記録の閉鎖等,0,2024-01-16,2024-01-16,新愛知市売木材株式会社,,株式会社,愛知県,名古屋市熱田区,伝馬２丁目１４番１号,,23,109,4560034,,,2024-01-16,登記官による閉鎖,,,2015-10-05,1,,,,,,0
3183,9180001026539,登記記録の閉鎖等,0,2024-01-16,2024-01-16,名古屋桜井株式会社,,株式会社,愛知県,名古屋市西区,栄生１丁目８番１３号,,23,104,4510052,,,2024-01-16,登記官による閉鎖,,,2015-10-05,1,,,,,,0
3184,9180001030037,登記記録の閉鎖等,0,2024-01-16,2024-01-16,共和プランニング株式会社,,株式会社,愛知県,名古屋市名東区,よもぎ台１丁目１２１４番地,,23,115,4650091,,,2024-01-16,登記官による閉鎖,,,2018-04-19,1,,,,,キョウワプランニング,0
3185,9180001037040,登記記録の閉鎖等,0,2024-01-16,2024-01-16,株式会社新和,,株式会社,愛知県,名古屋市千種区,希望ケ丘４丁目３番７号,,23,101,4640016,,,2024-01-16,登記官による閉鎖,,,2015-10-05,1,,,,,,0
3186,9180001050605,登記記録の閉鎖等,0,2024-01-16,2024-01-16,エイ・エス・エッチ朝日産業株式会社,,株式会社,愛知県,名古屋市西区,新道２丁目１４番５号トータスビル内,,23,104,4510043,,,2024-01-16,登記官による閉鎖,,,2015-10-05,1,,,,,,0
3187,9180001052725,登記記録の閉鎖等,0,2024-01-16,2024-01-16,株式会社新々住宅,,株式会社,愛知県,名古屋市中川区,明徳町２丁目７番８棟１０５号,,23,110,4540857,,,2024-01-16,登記官による閉鎖,,,2015-10-05,1,,,,,,0
3188,9180001054028,登記記録の閉鎖等,0,2024-01-16,2024-01-16,株式会社リジョイス,,株式会社,愛知県,名古屋市西区,笹塚町１丁目４７番地の１鳥見パーク・マンション３番街東棟２０３号,,23,104,4510077,,,2024-01-16,登記官による閉鎖,,,2015-10-05,1,,,,,,0
3189,9180001057105,登記記録の閉鎖等,0,2024-01-16,2024-01-16,株式会社パーラースタッフ・プロ,,株式会社,愛知県,名古屋市中区,丸の内３丁目２３番６号,,23,106,4600002,,,2024-01-16,登記官による閉鎖,,,2015-10-05,1,,,,,,0
3190,9180001059654,登記記録の閉鎖等,0,2024-01-16,2024-01-16,株式会社ＳＨＯＵＲＡＩ,,株式会社,愛知県,名古屋市北区,如意１丁目４６番地,,23,103,4620007,,,2024-01-16,登記官による閉鎖,,,2015-10-05,1,,,,,,0
3191,9180001072888,登記記録の閉鎖等,0,2024-01-16,2024-01-16,株式会社夜来香,,株式会社,愛知県,名古屋市中区,錦３丁目７番５号,,23,106,4600003,,,2024-01-16,登記官による閉鎖,,,2015-10-05,1,,,,,,0
3192,9180001074240,登記記録の閉鎖等,0,2024-01-16,2024-01-16,柴田不動産株式会社,,株式会社,愛知県,春日井市,神領町字向拝４５８番地の２３,,23,206,4860821,,,2024-01-16,登記官による閉鎖,,,2015-10-05,1,,,,,,0
3193,9180001074744,登記記録の閉鎖等,0,2024-01-16,2024-01-16,野倉工業株式会社,,株式会社,愛知県,春日井市,上ノ町１丁目３４番地,,23,206,4860966,,,2024-01-16,登記官による閉鎖,,,2015-10-05,1,,,,,,0
3195,9180001081121,登記記録の閉鎖等,0,2024-01-16,2024-01-16,吉田製粉株式会社,00072334,株式会社,愛知県,犬山市,大字犬山字末友４０番地の１,,23,215,4840081,,,2024-01-16,登記官による閉鎖,,,2015-10-05,1,,,,,,0
3196,9180001091062,登記記録の閉鎖等,0,2024-01-16,2024-01-16,株式会社ＮＭＴ,,株式会社,愛知県,名古屋市中村区,名駅南１丁目１１番２４号シティコート名駅２０５号,,23,105,4500003,,,2024-01-16,登記官による閉鎖,,,2015-10-05,1,,,,,,0
3197,9180001098215,登記記録の閉鎖等,0,2024-01-16,2024-01-10,ヤマナカ株式会社,,株式会社,愛知県,海部郡大治町,大字花常字出口６４番地,,23,424,4901136,,,2024-01-10,清算の結了等,,,2015-10-05,1,,,,,ヤマナカ,0
3198,9180001100839,登記記録の閉鎖等,0,2024-01-16,2024-01-16,プレミアム・ダイニング株式会社,,株式会社,愛知県,名古屋市西区,中小田井３丁目３１８番地,,23,104,4520822,,,2024-01-16,登記官による閉鎖,,,2015-10-05,1,,,,,,0
3200,9180001104179,登記記録の閉鎖等,0,2024-01-16,2024-01-16,株式会社Ｓｅｌｆｉｓｈ,,株式会社,愛知県,一宮市,奥町字下口西９６番地１グラン・コート一宮奥町１０４号,,23,203,4910201,,,2024-01-16,登記官による閉鎖,,,2015-10-05,1,,,,,,0
3206,9180002001458,登記記録の閉鎖等,0,2024-01-16,2024-01-16,松並電業有限会社,,有限会社,愛知県,名古屋市守山区,小幡５丁目３番３２号,,23,113,4630011,,,2024-01-16,登記官による閉鎖,,,2015-10-05,1,,,,,,0
3207,9180002006721,登記記録の閉鎖等,0,2024-01-16,2024-01-16,有限会社トータルメンテサービス,,有限会社,愛知県,名古屋市港区,小碓１丁目４４番地,,23,111,4550801,,,2024-01-16,登記官による閉鎖,,,2015-10-05,1,,,,,,0
3209,9180002021282,登記記録の閉鎖等,0,2024-01-16,2024-01-16,有限会社片桐左官,,有限会社,愛知県,名古屋市天白区,中平２丁目２６３３番地,,23,116,4680014,,,2024-01-16,登記官による閉鎖,,,2015-10-05,1,,,,,,0
3210,9180002037213,登記記録の閉鎖等,0,2024-01-16,2024-01-16,有限会社ユニオン電設,,有限会社,愛知県,瀬戸市,みずの坂２丁目３０番地,,23,204,4890909,,,2024-01-16,登記官による閉鎖,,,2015-10-05,1,,,,,,0
3211,9180002051569,登記記録の閉鎖等,0,2024-01-16,2024-01-16,有限会社ドリーム,,有限会社,愛知県,名古屋市中区,錦２丁目５番１３号,,23,106,4600003,,,2024-01-16,登記官による閉鎖,,,2015-10-05,1,,,,,,0
3212,9180002055198,登記記録の閉鎖等,0,2024-01-16,2024-01-16,有限会社ヴァンズ,,有限会社,愛知県,名古屋市緑区,鳴海町字森下２１番地の５,,23,114,4580801,,,2024-01-16,登記官による閉鎖,,,2015-10-05,1,,,,,,0
3213,9180002056485,登記記録の閉鎖等,0,2024-01-16,2024-01-16,有限会社澤菜,,有限会社,愛知県,一宮市,萩原町東宮重字北沖２５番地１,,23,203,4910363,,,2024-01-16,登記官による閉鎖,,,2015-10-05,1,,,,,,0
3215,9180002062112,登記記録の閉鎖等,0,2024-01-16,2024-01-16,有限会社管理センター,,有限会社,愛知県,日進市,岩崎町芦廻間１１２番地の１０１５,,23,230,4700131,,,2024-01-16,登記官による閉鎖,,,2018-08-06,1,,,,,カンリセンター,0
3216,9180002063795,登記記録の閉鎖等,0,2024-01-16,2024-01-16,有限会社ＣＴＡ自動車整備学校,,有限会社,愛知県,名古屋市中区,丸の内１丁目９番２４号,,23,106,4600002,,,2024-01-16,登記官による閉鎖,,,2015-10-05,1,,,,,,0
3217,9180002079949,登記記録の閉鎖等,0,2024-01-16,2024-01-16,有限会社光本工業,,有限会社,愛知県,一宮市,三条字古川１７９７番地４,,23,203,4940003,,,2024-01-16,登記官による閉鎖,,,2015-10-05,1,,,,,,0
3219,9180003010045,登記記録の閉鎖等,0,2024-01-16,2024-01-16,合資会社高塚硝子工業所,,合資会社,愛知県,春日井市,東野町１丁目１１番地５,,23,206,4860817,,,2024-01-16,登記官による閉鎖,,,2015-10-05,1,,,,,,0
3221,9180005001315,登記記録の閉鎖等,0,2024-01-16,2023-12-22,天理教三津名分教会,,その他の設立登記法人,愛知県,名古屋市瑞穂区,柳ケ枝町１丁目３９番地,,23,108,4670825,,,2023-12-22,合併による解散等,7010705000295,令和５年１２月２１日東京都品川区西品川三丁目１９番１２号天理教三ッ木分教会（7010705000295）に合併し解散,2015-10-05,1,,,,,テンリキョウミツナブンキョウカイ,0
3222,9180005005126,登記記録の閉鎖等,0,2024-01-16,2024-01-16,社団法人中部経営能率研究所,,その他の設立登記法人,愛知県,名古屋市東区,泉３丁目１７番１０号,,23,102,4610001,,,2024-01-16,登記官による閉鎖,,,2015-10-05,1,,,,,,0
3223,9180005005150,登記記録の閉鎖等,0,2024-01-16,2024-01-16,社団法人名古屋経財協会,,その他の設立登記法人,愛知県,名古屋市中区,大須４丁目９番７号,,23,106,4600011,,,2024-01-16,登記官による閉鎖,,,2015-10-05,1,,,,,,0
3224,9180005013979,登記記録の閉鎖等,0,2024-01-16,2024-01-16,特定非営利活動法人東海恵振興会,,その他の設立登記法人,愛知県,東海市,名和町戸石４８番地の７,,23,222,4760002,,,2024-01-16,登記官による閉鎖,,,2015-10-05,1,,,,,,0
3225,9180301009879,登記記録の閉鎖等,0,2024-01-16,2024-01-16,株式会社サンベール,,株式会社,愛知県,豊川市,一宮町栄１５５番地,,23,207,4411231,,,2024-01-16,登記官による閉鎖,,,2015-10-05,1,,,,,,0
3226,9180301012073,登記記録の閉鎖等,0,2024-01-16,2024-01-16,株式会社Ｋ－ＮＥＸＴ,,株式会社,愛知県,岡崎市,西本郷町字和志山１１３番地,,23,202,4440948,,,2024-01-16,登記官による閉鎖,,,2015-10-05,1,,,,,,0
3229,9180301017691,登記記録の閉鎖等,0,2024-01-16,2024-01-16,株式会社ＡＭＰ,,株式会社,愛知県,安城市,昭和町五丁目７番地,,23,212,4460063,,,2024-01-16,登記官による閉鎖,,,2015-10-05,1,,,,,,0
3230,9180301020712,登記記録の閉鎖等,0,2024-01-16,2024-01-16,株式会社俊英,,株式会社,愛知県,豊田市,大林町１２丁目６番地４,,23,211,4730902,,,2024-01-16,登記官による閉鎖,,,2015-10-05,1,,,,,,0
3231,9180301023987,登記記録の閉鎖等,0,2024-01-16,2024-01-16,株式会社共和,,株式会社,愛知県,新城市,富岡字西門沢６３番地の５３,,23,221,4411335,,,2024-01-16,登記官による閉鎖,,,2015-10-05,1,,,,,,0
3232,9180302023383,登記記録の閉鎖等,0,2024-01-16,2024-01-16,アムズ有限会社,,有限会社,愛知県,豊田市,小坂本町４丁目５番地１７,,23,211,4710034,,,2024-01-16,登記官による閉鎖,,,2015-10-05,1,,,,,,0
3234,9180302027616,登記記録の閉鎖等,0,2024-01-16,2024-01-16,有限会社カネヨ建設,,有限会社,愛知県,新城市,平井字薮前１２番地の２,,23,221,4411361,,,2024-01-16,登記官による閉鎖,,,2015-10-05,1,,,,,,0
3235,9180303001917,登記記録の閉鎖等,0,2024-01-16,2024-01-16,合同会社アイリス,,合同会社,愛知県,豊橋市,駅前大通２丁目２９番,,23,201,4400888,,,2024-01-16,登記官による閉鎖,,,2015-10-05,1,,,,,,0
3237,9190001026892,登記記録の閉鎖等,0,2024-01-16,2024-01-10,株式会社Ｌｉｎｋｆｕｌ,,株式会社,三重県,津市,大里窪田町９４３－２,,24,201,5140125,,,2024-01-10,清算の結了等,,,2019-11-12,1,,,,,リンクフル,0
3240,9190002020218,登記記録の閉鎖等,0,2024-01-16,2024-01-10,有限会社サン・アート,,有限会社,三重県,四日市市,前田町１０番１７号,,24,202,5100893,,,2024-01-10,清算の結了等,,,2015-10-05,1,,,,,サンアート,0
3241,9200001027204,登記記録の閉鎖等,0,2024-01-16,2024-01-12,日本鞄材株式会社,,株式会社,岐阜県,岐阜市,岩田西３丁目４６５番地,,21,201,5013156,,,2024-01-12,合併による解散等,3010001206419,令和６年１月１日東京都千代田区麹町三丁目２番地垣見麹町ビル別館６階日本鞄材株式会社（3010001206419）に合併し解散,2015-10-05,1,,,,,ニホンホウザイ,0
3247,9210002007831,登記記録の閉鎖等,0,2024-01-16,2024-01-16,有限会社タカミツ,,有限会社,福井県,坂井市,丸岡町上安田第１６号５番地,,18,210,9100362,,,2024-01-16,登記官による閉鎖,,,2015-10-05,1,,,,,,0
3249,9210002011016,登記記録の閉鎖等,0,2024-01-16,2024-01-16,有限会社山崎電器商会,,有限会社,福井県,三方郡美浜町,佐田４０号１番地,,18,442,9191205,,,2024-01-16,登記官による閉鎖,,,2015-10-05,1,,,,,,0
3250,9210002012344,登記記録の閉鎖等,0,2024-01-16,2024-01-16,有限会社真砂屋,,有限会社,福井県,丹生郡越前町,厨第７１号３３４番地の２,,18,423,9160422,,,2024-01-16,登記官による閉鎖,,,2015-10-05,1,,,,,,0
3251,9210002013697,登記記録の閉鎖等,0,2024-01-16,2024-01-16,有限会社オールファッションクリエイティブ,,有限会社,福井県,小浜市,南川町１４番４２号,,18,204,9170075,,,2024-01-16,登記官による閉鎖,,,2015-10-05,1,,,,,,0
3252,9210005007366,登記記録の閉鎖等,0,2024-01-16,2024-01-16,妙休寺,,その他の設立登記法人,福井県,越前市,中山町４２号５番地,,18,209,9151226,,,2024-01-16,登記官による閉鎖,,,2015-10-05,1,,,,,,0
3260,9290001046807,登記記録の閉鎖等,0,2024-01-16,2024-01-12,ＥＤＩワークス株式会社,,株式会社,福岡県,福岡市南区,大橋３丁目１４番３号,,40,134,8150033,,,2024-01-12,清算の結了等,,,2015-10-05,1,,,,,イーディアイワークス,0
3267,9310002018752,登記記録の閉鎖等,0,2024-01-16,2024-01-12,有限会社まるえい鮮魚店,,有限会社,長崎県,南島原市,口之津町甲２１５９番地１０,,42,214,8592502,,,2024-01-12,清算の結了等,,,2015-10-05,1,,,,,マルエイセンギョテン,0
3290,9400001005981,登記記録の閉鎖等,0,2024-01-16,2024-01-10,岩手和江運輸株式会社,,株式会社,岩手県,北上市,上江釣子７地割５９番地１,,03,206,0240071,,,2024-01-10,登記官による閉鎖,,,2015-10-05,1,,,,,,0
3291,9400001007292,登記記録の閉鎖等,0,2024-01-16,2024-01-10,株式会社岩手東海新聞社,,株式会社,岩手県,釜石市,大町２丁目４０番３号,,03,211,0260024,,,2024-01-10,登記官による閉鎖,,,2015-10-05,1,,,,,,0
3293,9400005004360,登記記録の閉鎖等,0,2024-01-16,2024-01-10,釜石木材林産協同組合,,その他の設立登記法人,岩手県,釜石市,港町２丁目５番５号,,03,211,0260011,,,2024-01-10,登記官による閉鎖,,,2015-10-05,1,,,,,,0
3294,9400502000309,登記記録の閉鎖等,0,2024-01-16,2024-01-10,有限会社斎藤商事,,有限会社,岩手県,一関市,末広１丁目１１番１１号,,03,209,0210032,,,2024-01-10,登記官による閉鎖,,,2015-10-05,1,,,,,,0
3296,9420002011374,登記記録の閉鎖等,0,2024-01-16,2024-01-11,有限会社丸栄津軽青果,,有限会社,青森県,五所川原市,字旭町３９番地,,02,205,0370062,,,2024-01-11,清算の結了等,,,2015-10-05,1,,,,,マルエイツガルセイカ,0
3302,9460101006098,登記記録の閉鎖等,0,2024-01-16,2024-01-12,株式会社ＯＦＦフードマーケティング,,株式会社,東京都,青梅市,新町４丁目８番地の１３,,13,205,1980024,,,2024-01-12,清算の結了等,,,2017-03-06,1,,,,,オフフードマーケティング,0
3309,9500001001293,登記記録の閉鎖等,0,2024-01-16,2024-01-15,株式会社カラード,,株式会社,愛媛県,松山市,松前町１丁目２番地６,,38,201,7900812,,,2024-01-15,登記官による閉鎖,,,2015-10-05,1,,,,,,0
3310,9500001001871,登記記録の閉鎖等,0,2024-01-16,2024-01-15,三和土地株式会社,,株式会社,愛媛県,松山市,久万ノ台６２０番地５,,38,201,7918016,,,2024-01-15,登記官による閉鎖,,,2018-05-24,1,,,,,サンワトチ,0
3312,9500002001219,登記記録の閉鎖等,0,2024-01-16,2024-01-15,有限会社梅林会計事務所,,有限会社,愛媛県,松山市,立花３丁目５番２号,,38,201,7900966,,,2024-01-15,登記官による閉鎖,,,2015-10-05,1,,,,,,0
3313,9500002002035,登記記録の閉鎖等,0,2024-01-16,2024-01-15,有限会社加藤英雄商店,,有限会社,愛媛県,松山市,高砂町３丁目９６番地の１,,38,201,7900822,,,2024-01-15,登記官による閉鎖,,,2015-10-05,1,,,,,,0
3314,9500002011366,登記記録の閉鎖等,0,2024-01-16,2024-01-15,有限会社谷河組,,有限会社,愛媛県,東温市,則之内甲２６４１番地１,,38,215,7910311,,,2024-01-15,登記官による閉鎖,,,2015-10-05,1,,,,,,0
3315,9500002013453,登記記録の閉鎖等,0,2024-01-16,2024-01-15,二宮製材有限会社,,有限会社,愛媛県,西宇和郡伊方町,湊浦７７番地,,38,442,7960301,,,2024-01-15,登記官による閉鎖,,,2015-10-05,1,,,,,,0
3316,9500002017850,登記記録の閉鎖等,0,2024-01-16,2024-01-15,有限会社延喜屋商店,,有限会社,愛媛県,今治市,中浜町３丁目２番地の１０,,38,202,7940016,,,2024-01-15,登記官による閉鎖,,,2015-10-05,1,,,,,,0
3317,9500002019624,登記記録の閉鎖等,0,2024-01-16,2024-01-15,有限会社読売センター今治東,,有限会社,愛媛県,今治市,郷本町１丁目４番２８号,,38,202,7940823,,,2024-01-15,登記官による閉鎖,,,2015-10-05,1,,,,,,0
3318,9500002022512,登記記録の閉鎖等,0,2024-01-16,2024-01-15,有限会社梅崎建設,,有限会社,愛媛県,宇和島市,大浦甲１０１９番地４,,38,203,7980002,,,2024-01-15,登記官による閉鎖,,,2015-10-05,1,,,,,,0
3319,9500002022677,登記記録の閉鎖等,0,2024-01-16,2024-01-15,有限会社グリーンシード岩田,,有限会社,愛媛県,宇和島市,錦町７番１１号,,38,203,7980034,,,2024-01-15,登記官による閉鎖,,,2015-10-05,1,,,,,,0
3320,9500003001151,登記記録の閉鎖等,0,2024-01-16,2024-01-15,合同会社てまり,,合同会社,愛媛県,松山市,東野２丁目９番２２号,,38,201,7900903,,,2024-01-15,登記官による閉鎖,,,2015-10-05,1,,,,,,0
3322,9500005001026,登記記録の閉鎖等,0,2024-01-16,2024-01-15,愛媛県電話信用事業協同組合,00008368,その他の設立登記法人,愛媛県,松山市,三番町５丁目４番地１５,,38,201,7900003,,,2024-01-15,登記官による閉鎖,,,2015-10-05,1,,,,,,0
3323,9500005001091,登記記録の閉鎖等,0,2024-01-16,2024-01-15,協同組合松山シルバーモール,,その他の設立登記法人,愛媛県,松山市,道後北代８番３１号,,38,201,7900846,,,2024-01-15,登記官による閉鎖,,,2015-10-05,1,,,,,,0
3324,9500005001389,登記記録の閉鎖等,0,2024-01-16,2024-01-15,社団法人愛媛県文化財保護協会,,その他の設立登記法人,愛媛県,松山市,三番町４丁目７番地１４,,38,201,7900003,,,2024-01-15,登記官による閉鎖,,,2015-10-05,1,,,,,,0
3325,9500005001835,登記記録の閉鎖等,0,2024-01-16,2024-01-15,ナチュラン環境企業組合,,その他の設立登記法人,愛媛県,松山市,小坂３丁目１番６号,,38,201,7900963,,,2024-01-15,登記官による閉鎖,,,2015-10-05,1,,,,,,0
3326,9500005007709,登記記録の閉鎖等,0,2024-01-16,2024-01-15,中津村農業会,,その他の設立登記法人,愛媛県,上浮穴郡久万高原町,黒藤川４０番地,,38,386,7911515,,,2024-01-15,登記官による閉鎖,,,2015-11-13,1,,,,,,0
