sequenceNumber,corporateNumber,process,correct,updateDate,changeDate,name,nameImageId,kind,prefectureName,cityName,streetNumber,addressImageId,prefectureCode,cityCode,postCode,addressOutside,addressOutsideImageId,closeDate,closeCause,successorCorporateNumber,changeCause,assignmentDate,latest,enName,enPrefectureName,enCityName,enAddressOutside,furigana,hihyoji
4,1010001052014,登記記録の閉鎖等,0,2021-09-01,2021-08-27,株式会社東和商会,,株式会社,東京都,世田谷区,砧３丁目１０番１７号,,13,112,1570073,,,2021-08-27,清算の結了等,,,2015-10-05,1,,,,,トウワショウカイ,0
14,1010002049380,登記記録の閉鎖等,0,2021-09-01,2021-08-20,有限会社花島ＦＣシステムズ,,有限会社,東京都,港区,浜松町２丁目６番２号浜松町２６２ビル１階,,13,103,1050013,,,2021-08-20,清算の結了等,,,2015-10-05,1,,,,,,0
22,1010401077833,登記記録の閉鎖等,0,2021-09-01,2021-08-19,Ｋビジネスプロモート株式会社,,株式会社,東京都,港区,新橋１丁目１３番１２号,,13,103,1050004,,,2021-08-19,清算の結了等,,,2015-10-05,1,,,,,ケイビジネスプロモート,0
32,1010501003128,登記記録の閉鎖等,0,2021-09-01,2021-08-30,桐谷株式会社,,株式会社,東京都,台東区,上野５丁目１６番８号,,13,106,1100005,,,2021-08-30,清算の結了等,,,2015-10-05,1,,,,,,0
41,1010901022958,登記記録の閉鎖等,0,2021-09-01,2021-08-18,株式会社玉川ラクノス,,株式会社,東京都,世田谷区,中町４丁目３１番２号,,13,112,1580091,,,2021-08-18,清算の結了等,,,2015-10-05,1,,,,,タマガワラクノス,0
48,1011001072794,登記記録の閉鎖等,0,2021-09-01,2021-08-19,Ｓｍａｒｔ＆Ｃｏ　Ｊａｐｏｎ株式会社,,株式会社,東京都,港区,六本木７丁目６－６パリエロビル２階,,13,103,1060032,,,2021-08-19,清算の結了等,,,2015-10-05,1,,,,,スマートアンドコージャポン,0
60,1011402003794,登記記録の閉鎖等,0,2021-09-01,2021-08-30,有限会社さかもと,,有限会社,東京都,板橋区,大山町３０番８－１０２号,,13,119,1730023,,,2021-08-30,清算の結了等,,,2015-10-05,1,,,,,サカモト,0
69,1011701001482,登記記録の閉鎖等,0,2021-09-01,2021-08-26,浅岡理美容株式会社,,株式会社,東京都,江戸川区,篠崎町２丁目２番９号,,13,123,1330061,,,2021-08-26,清算の結了等,,,2015-10-05,1,,,,,アサオカリビヨウ,0
72,1011802012528,登記記録の閉鎖等,0,2021-09-01,2021-08-30,有限会社興和設備,,有限会社,東京都,足立区,江北７丁目７番２２号,,13,121,1230872,,,2021-08-30,清算の結了等,,,2015-10-05,1,,,,,コウワセツビ,0
80,1020001119919,登記記録の閉鎖等,0,2021-09-01,2021-08-25,株式会社ファースト,,株式会社,神奈川県,横浜市神奈川区,上反町１丁目１０－１３,,14,102,2210831,,,2021-08-25,清算の結了等,,,2017-02-10,1,,,,,ファースト,0
84,1021001021239,登記記録の閉鎖等,0,2021-09-01,2021-08-26,野沢電化工業株式会社,,株式会社,神奈川県,伊勢原市,上粕屋１５０４番地,,14,214,2591141,,,2021-08-26,清算の結了等,,,2015-10-05,1,,,,,ノザワデンカコウギョウ,0
85,1021001023680,登記記録の閉鎖等,0,2021-09-01,2021-08-27,株式会社東苑,,株式会社,神奈川県,秦野市,本町２丁目５番９号,,14,211,2570035,,,2021-08-27,清算の結了等,,,2015-10-05,1,,,,,トウエン,0
87,1021001043167,登記記録の閉鎖等,0,2021-09-01,2021-08-26,株式会社イワサキ,,株式会社,神奈川県,横須賀市,若松町１丁目２１番地１０,,14,201,2380007,,,2021-08-26,清算の結了等,,,2015-10-05,1,,,,,イワサキ,0
108,1030002003955,登記記録の閉鎖等,0,2021-09-01,2021-08-23,有限会社きみ寿司,,有限会社,埼玉県,さいたま市浦和区,常盤９丁目３４番１０号,,11,107,3300061,,,2021-08-23,清算の結了等,,,2015-10-05,1,,,,,キミズシ,0
109,1030002008847,登記記録の閉鎖等,0,2021-09-01,2021-08-23,有限会社玉樹住建,,有限会社,埼玉県,さいたま市見沼区,東大宮６丁目１４番地８,,11,104,3370051,,,2021-08-23,清算の結了等,,,2015-10-05,1,,,,,タマキジュウケン,0
112,1030002063280,登記記録の閉鎖等,0,2021-09-01,2021-08-20,有限会社清光舎,,有限会社,埼玉県,富士見市,渡戸３丁目４番４３号,,11,235,3540032,,,2021-08-20,清算の結了等,,,2015-10-05,1,,,,,セイコウシャ,0
113,1030002110462,登記記録の閉鎖等,0,2021-09-01,2021-08-24,有限会社峰竹園,,有限会社,埼玉県,川口市,芝１丁目２２番１５号,,11,203,3330866,,,2021-08-24,清算の結了等,,,2015-10-05,1,,,,,ホウチクエン,0
147,1110002018870,登記記録の閉鎖等,0,2021-09-01,2021-08-27,有限会社五十嵐器物製作所,,有限会社,新潟県,燕市,東太田１７９９番地,,15,213,9591289,,,2021-08-27,清算の結了等,,,2015-10-05,1,,,,,イガラシキブツセイサクショ,0
157,1120001205122,登記記録の閉鎖等,0,2021-09-01,2021-08-30,株式会社ＡＰＣ,,株式会社,愛媛県,松山市,千舟町５丁目２番１号栄信第３ビル３階,,38,201,7900011,,,2021-08-30,清算の結了等,,,2017-04-24,1,,,,,エーピーシー,0
166,1120002001066,登記記録の閉鎖等,0,2021-09-01,2021-08-24,有限会社航測技術研究所,,有限会社,大阪府,大阪市鶴見区,放出東１丁目２６番１２号,,27,124,5380044,,,2021-08-24,清算の結了等,,,2015-10-05,1,,,,,コウソクギジュツケンキュウショ,0
169,1120003009001,登記記録の閉鎖等,0,2021-09-01,2021-08-26,合同会社コネクトサービス,,合同会社,大阪府,大阪市平野区,長吉長原西３丁目１番２３号,,27,126,5470015,,,2021-08-26,清算の結了等,,,2015-10-05,1,,,,,,0
210,1180001122502,登記記録の閉鎖等,0,2021-09-01,2021-08-31,イーエックスソリューションズ株式会社,,株式会社,愛知県,名古屋市中区,丸の内３丁目１５番３４号,,23,106,4600002,,,2021-08-31,清算の結了等,,,2016-03-14,1,,,,,イーエックスソリューションズ,0
223,1180302005991,登記記録の閉鎖等,0,2021-09-01,2021-08-30,有限会社山口電研,,有限会社,愛知県,岡崎市,滝町字丸根９７番地,,23,202,4443173,,,2021-08-30,清算の結了等,,,2015-10-05,1,,,,,ヤマグチデンケン,0
228,1200002014919,登記記録の閉鎖等,0,2021-09-01,2021-08-30,有限会社西内組,,有限会社,岐阜県,海津市,南濃町山崎１０４１番地５,,21,221,5030415,,,2021-08-30,清算の結了等,,,2015-10-05,1,,,,,ニシウチグミ,0
237,1240001012829,登記記録の閉鎖等,0,2021-09-01,2021-08-24,河崎石油株式会社,,株式会社,広島県,広島市東区,戸坂中町２番２４号,,34,102,7320003,,,2021-08-24,清算の結了等,,,2015-10-05,1,,,,,,0
240,1240001049466,登記記録の閉鎖等,0,2021-09-01,2021-08-25,ヒロセ株式会社,,株式会社,広島県,大竹市,立戸２丁目２番１２号,,34,211,7390605,,,2021-08-25,清算の結了等,,,2016-06-03,1,,,,,ヒロセ,0
249,1260005009514,登記記録の閉鎖等,0,2021-09-01,2021-08-31,一般社団法人あじさいの輪,,その他の設立登記法人,岡山県,倉敷市,笹沖１１４６番地８,,33,202,7100834,,,2021-08-31,清算の結了等,,,2015-10-05,1,,,,,アジサイノワ,0
279,1370001002998,登記記録の閉鎖等,0,2021-09-01,2021-08-24,株式会社コスミックソフト,,株式会社,宮城県,仙台市若林区,古城３丁目２番１７号,,04,103,9840825,,,2021-08-24,清算の結了等,,,2015-10-05,1,,,,,コスミックソフト,0
287,1410002012851,登記記録の閉鎖等,0,2021-09-01,2021-08-24,株式会社角館こまち,,株式会社,東京都,中央区,日本橋人形町３丁目１１番７号６階,,13,102,1030013,,,2021-08-24,清算の結了等,,,2015-10-05,1,,,,,カクノダテコマチ,0
304,2010001118400,登記記録の閉鎖等,0,2021-09-01,2021-08-24,トーク・パル株式会社,,株式会社,東京都,千代田区,九段南４丁目７番２２号,,13,101,1020074,,,2021-08-24,清算の結了等,,,2015-10-05,1,,,,,トークパル,0
327,2010402003003,登記記録の閉鎖等,0,2021-09-01,2021-08-20,有限会社オフィスおすぎとピーコ,,有限会社,東京都,港区,南青山５丁目４番５号,,13,103,1070062,,,2021-08-20,清算の結了等,,,2015-10-05,1,,,,,オフィスオスギトピーコ,0
337,2010601014560,登記記録の閉鎖等,0,2021-09-01,2021-08-13,株式会社トーコーエンタープライズ,,株式会社,東京都,墨田区,両国３丁目４番１１号,,13,107,1300026,,,2021-08-13,清算の結了等,,,2015-10-05,1,,,,,トーコーエンタープライズ,0
341,2010602015979,登記記録の閉鎖等,0,2021-09-01,2021-08-27,有限会社原組,,有限会社,東京都,世田谷区,深沢６丁目１８番２４号,,13,112,1580081,,,2021-08-27,清算の結了等,,,2015-10-05,1,,,,,ハラグミ,0
347,2010801023931,登記記録の閉鎖等,0,2021-09-01,2021-08-24,サンテナチュール株式会社,,株式会社,東京都,大田区,上池台１丁目１５番８号,,13,111,1450064,,,2021-08-24,清算の結了等,,,2015-10-05,1,,,,,,0
361,2011101086751,登記記録の閉鎖等,0,2021-09-01,2021-08-16,Ｐｉｘｉｏ　Ｊａｐａｎ株式会社,,株式会社,東京都,墨田区,緑２丁目１４番１４号,,13,107,1300021,,,2021-08-16,清算の結了等,,,2019-02-12,1,,,,,ピクシオジャパン,0
367,2011401003035,登記記録の閉鎖等,0,2021-09-01,2021-08-24,株式会社清水製作所,,株式会社,東京都,板橋区,志村３丁目２番１３号,,13,119,1740056,,,2021-08-24,清算の結了等,,,2015-10-05,1,,,,,シミズセイサクショ,0
368,2011401015451,登記記録の閉鎖等,0,2021-09-01,2021-08-30,株式会社東京ラソニック,,株式会社,東京都,板橋区,蓮沼町８２番２号,00054953,13,119,1740052,,,2021-08-30,清算の結了等,,,2015-10-05,1,,,,,トウキョウラソニック,0
400,2020001100035,登記記録の閉鎖等,0,2021-09-01,2021-08-30,株式会社ＥＳＰ,,株式会社,神奈川県,川崎市多摩区,中野島３丁目２７番３４－５０８号,,14,135,2140012,,,2021-08-30,清算の結了等,,,2015-10-05,1,,,,,,0
409,2021001025511,登記記録の閉鎖等,0,2021-09-01,2021-08-27,株式会社太陽プラニング,,株式会社,神奈川県,大和市,中央林間１丁目１１番４号,,14,213,2420007,,,2021-08-27,清算の結了等,,,2015-10-05,1,,,,,,0
433,2060001017812,登記記録の閉鎖等,0,2021-09-01,2021-08-23,株式会社都市環境,,株式会社,栃木県,下都賀郡壬生町,大字上稲葉１０２９番地３,,09,361,3210236,,,2021-08-23,清算の結了等,,,2015-10-05,1,,,,,トシカンキョウ,0
436,2080001017686,登記記録の閉鎖等,0,2021-09-01,2021-08-27,株式会社ココ・コミュニケーション,,株式会社,静岡県,焼津市,上小杉１１１０番地,,22,212,4210201,,,2021-08-27,清算の結了等,,,2015-10-05,1,,,,,コココミュニケーション,0
439,2080105000621,登記記録の閉鎖等,0,2021-09-01,2021-08-26,本因寺,,その他の設立登記法人,静岡県,裾野市,佐野字若狭森７０６番地の２,,22,220,4101118,,,2021-08-26,清算の結了等,,,2015-10-05,1,,,,,ホンインジ,0
470,2140001032365,登記記録の閉鎖等,0,2021-09-01,2021-08-31,株式会社Ｓｏｉｎ,,株式会社,兵庫県,神戸市中央区,二宮町２丁目６番１５号,,28,110,6510093,,,2021-08-31,清算の結了等,,,2015-10-05,1,,,,,ソイン,0
472,2150001012498,登記記録の閉鎖等,0,2021-09-01,2021-08-26,株式会社大番建設,,株式会社,奈良県,北葛城郡広陵町,馬見北４丁目１０番１４号,,29,426,6350831,,,2021-08-26,清算の結了等,,,2015-10-05,1,,,,,ダイバンケンセツ,0
473,2150003001557,登記記録の閉鎖等,0,2021-09-01,2021-08-26,合同会社ブルースカイジャパン,,合同会社,奈良県,生駒市,鹿ノ台南２丁目３２番地４,,29,209,6300113,,,2021-08-26,清算の結了等,,,2017-01-12,1,,,,,ブルースカイジャパン,0
488,2180003019167,登記記録の閉鎖等,0,2021-09-01,2021-08-27,合同会社Ｅ．Ｗ,,合同会社,愛知県,名古屋市中村区,若宮町１丁目２９番地（ファミリアーレ名駅マークレジデンス６０４号）,,23,105,4530023,,,2021-08-27,清算の結了等,,,2018-08-03,1,,,,,イーダブリュー,0
494,2200001012996,登記記録の閉鎖等,0,2021-09-01,2021-08-30,株式会社ロワイヤル,,株式会社,岐阜県,羽島郡岐南町,若宮地２丁目７９番地,,21,302,5016005,,,2021-08-30,清算の結了等,,,2015-10-05,1,,,,,ロワイヤル,0
495,2200001015710,登記記録の閉鎖等,0,2021-09-01,2021-08-31,株式会社ライフサポートジャパン,,株式会社,岐阜県,安八郡安八町,北今ケ渕４５５番地の７,,21,383,5030113,,,2021-08-31,清算の結了等,,,2015-10-05,1,,,,,ライフサポートジャパン,0
521,2260002026684,登記記録の閉鎖等,0,2021-09-01,2021-08-30,有限会社イケダ,,有限会社,岡山県,高梁市,中間町６３番地,,33,209,7160021,,,2021-08-30,清算の結了等,,,2015-10-05,1,,,,,イケダ,0
526,2290001043736,登記記録の閉鎖等,0,2021-09-01,2021-08-16,山水株式会社,,株式会社,福岡県,福岡市中央区,警固２丁目１７番２６号,,40,133,8100023,,,2021-08-16,合併による解散等,3290001022086,令和３年８月１日福岡市中央区清川二丁目９番２号サンドリーム株式会社（3290001022086）に合併し解散,2015-10-05,1,,,,,サンスイ,0
527,2290001065722,登記記録の閉鎖等,0,2021-09-01,2021-08-16,株式会社ＳＴＡＲ　ＳＨＯＰ＆ＬＩＮＥ,,株式会社,福岡県,福岡市博多区,博多駅前１丁目４番４号,,40,132,8120011,,,2021-08-16,清算の結了等,,,2015-10-05,1,,,,,スターショップアンドライン,0
543,2300002007242,登記記録の閉鎖等,0,2021-09-01,2021-08-27,有限会社牛島建設,,有限会社,佐賀県,杵島郡大町町,大字福母８５８番地１,,41,423,8492102,,,2021-08-27,清算の結了等,,,2015-10-05,1,,,,,ウシジマケンセツ,0
558,2370502001044,登記記録の閉鎖等,0,2021-09-01,2021-08-25,有限会社民宿高倉荘,,有限会社,宮城県,本吉郡南三陸町,歌津字番所７５番地の１,,04,606,9880442,,,2021-08-25,清算の結了等,,,2015-10-05,1,,,,,ミンシュクタカクラソウ,0
562,2380001024116,登記記録の閉鎖等,0,2021-09-01,2021-08-30,東日本総業株式会社,,株式会社,福島県,須賀川市,千日堂３１番地,,07,207,9620835,,,2021-08-30,清算の結了等,,,2015-10-05,1,,,,,ヒガシニホンソウギョウ,0
572,2490002005814,登記記録の閉鎖等,0,2021-09-01,2021-08-31,幸創ホーム有限会社,,有限会社,高知県,高知市,横浜３６７番地５,,39,201,7810240,,,2021-08-31,清算の結了等,,,2015-10-05,1,,,,,コウソウホーム,0
581,3010002038992,登記記録の閉鎖等,0,2021-09-01,2021-08-30,丸の内Ｐ＆Ｍコンサルティング有限会社,,有限会社,東京都,練馬区,関町北５丁目１０番９号,,13,120,1770051,,,2021-08-30,清算の結了等,,,2015-10-05,1,,,,,マルノウチピーアンドエムコンサルティング,0
582,3010003028877,登記記録の閉鎖等,0,2021-09-01,2021-08-27,合同会社ＡＬＥＲＯ３７,,合同会社,東京都,千代田区,神田美土代町９番１号,,13,101,1010053,,,2021-08-27,清算の結了等,,,2018-12-12,1,,,,,アレーロサーティセブン,0
600,3010502011912,登記記録の閉鎖等,0,2021-09-01,2021-08-26,有限会社ヤマセイ・シヨーコー,,有限会社,東京都,台東区,浅草橋５丁目２５番５号,,13,106,1110053,,,2021-08-26,清算の結了等,,,2015-10-05,1,,,,,ヤマセイショーコー,0
608,3010602016976,登記記録の閉鎖等,0,2021-09-01,2021-08-16,有限会社三富塗装店,,有限会社,東京都,墨田区,立花４丁目２６番１３号,,13,107,1310043,,,2021-08-16,清算の結了等,,,2015-10-05,1,,,,,ミトミトソウテン,0
625,3011101086131,登記記録の閉鎖等,0,2021-09-01,2021-08-20,株式会社ＶＥＲＳＵＳ,,株式会社,東京都,新宿区,新宿５丁目１８番２１号,,13,104,1600022,,,2021-08-20,清算の結了等,,,2018-12-04,1,,,,,ヴァーサス,0
634,3011402004568,登記記録の閉鎖等,0,2021-09-01,2021-08-27,有限会社昭光,,有限会社,東京都,板橋区,常盤台４丁目２０番２号,,13,119,1740071,,,2021-08-27,清算の結了等,,,2015-10-05,1,,,,,ショウコウ,0
652,3020001070830,登記記録の閉鎖等,0,2021-09-01,2021-08-27,草間木材株式会社,,株式会社,神奈川県,川崎市幸区,小倉５丁目２４番１０号,,14,132,2120054,,,2021-08-27,清算の結了等,,,2015-10-05,1,,,,,クサマモクザイ,0
657,3020002030263,登記記録の閉鎖等,0,2021-09-01,2021-08-30,有限会社昭弘社,,有限会社,神奈川県,横浜市南区,南太田１丁目１６番８－２０２号,,14,105,2320006,,,2021-08-30,清算の結了等,,,2015-10-05,1,,,,,ショウコウシャ,0
670,3030002089340,登記記録の閉鎖等,0,2021-09-01,2021-08-24,有限会社エスケイインターナショナル,,有限会社,埼玉県,越谷市,蒲生南町９番１１－２号,,11,222,3430833,,,2021-08-24,清算の結了等,,,2015-10-05,1,,,,,エスケイインターナショナル,0
679,3040002060985,登記記録の閉鎖等,0,2021-09-01,2021-08-24,清宮木材有限会社,,有限会社,千葉県,佐倉市,城内町８６番地３,,12,212,2850017,,,2021-08-24,清算の結了等,,,2015-10-05,1,,,,,セイミヤモクザイ,0
700,3090002008798,登記記録の閉鎖等,0,2021-09-01,2021-08-30,有限会社福寿家,,有限会社,山梨県,笛吹市,八代町南３２１３番地４,,19,211,4060822,,,2021-08-30,清算の結了等,,,2015-10-05,1,,,,,,0
712,3120001206515,登記記録の閉鎖等,0,2021-09-01,2021-08-31,リバイブエナジー株式会社,,株式会社,岡山県,倉敷市,藤戸町天城１５０２番地４,,33,202,7100132,,,2021-08-31,清算の結了等,,,2017-07-06,1,,,,,リバイブエナジー,0
714,3120001227841,登記記録の閉鎖等,0,2021-09-01,2021-08-24,ＣＲＥＷ株式会社,,株式会社,大阪府,大阪市北区,豊崎１丁目１１番６号－８０３号,,27,127,5310072,,,2021-08-24,清算の結了等,,,2020-03-12,1,,,,,クルー,0
725,3120901017961,登記記録の閉鎖等,0,2021-09-01,2021-08-31,株式会社ユニティア,,株式会社,大阪府,吹田市,原町１丁目２６番２２号,,27,205,5640004,,,2021-08-31,清算の結了等,,,2015-10-05,1,,,,,ユニティア,0
727,3120901040609,登記記録の閉鎖等,0,2021-09-01,2021-08-30,株式会社ナチュラリッチ,,株式会社,大阪府,吹田市,内本町２丁目１５番９号,,27,205,5640032,,,2021-08-30,清算の結了等,,,2018-11-16,1,,,,,ナチュラリッチ,0
736,3130002032884,登記記録の閉鎖等,0,2021-09-01,2021-08-30,有限会社ミセスきら,,有限会社,京都府,福知山市,字堀１４１８番地の１,,26,201,6200000,,,2021-08-30,清算の結了等,,,2015-10-05,1,,,,,ミセスキラ,0
739,3140001098109,登記記録の閉鎖等,0,2021-09-01,2021-08-31,株式会社ＮＯｚ,,株式会社,兵庫県,神戸市兵庫区,山王町１丁目５番４号,,28,105,6520011,,,2021-08-31,清算の結了等,,,2015-10-05,1,,,,,ノズ,0
766,3190001023549,登記記録の閉鎖等,0,2021-09-01,2021-08-31,ジーテック株式会社,,株式会社,三重県,員弁郡東員町,大字中上１６６８番地１,,24,324,5110254,,,2021-08-31,清算の結了等,,,2016-04-07,1,,,,,ジーテック,0
768,3190002022459,登記記録の閉鎖等,0,2021-09-01,2021-08-30,有限会社矢野設備工業所,,有限会社,三重県,三重郡朝日町,大字小向２０４３番地の３,,24,343,5108102,,,2021-08-30,清算の結了等,,,2015-10-05,1,,,,,ヤノセツビコウギョウショ,0
787,3250002015357,登記記録の閉鎖等,0,2021-09-01,2021-08-30,有限会社ミナギ,,有限会社,山口県,周南市,みなみ銀座２丁目１４番地,,35,215,7450033,,,2021-08-30,清算の結了等,,,2015-10-05,1,,,,,ミナギ,0
799,3330002020687,登記記録の閉鎖等,0,2021-09-01,2021-08-31,有限会社ワイ・エヌ・グリーン,,有限会社,熊本県,上益城郡山都町,菅尾９８番地,,43,447,8613911,,,2021-08-31,清算の結了等,,,2015-10-05,1,,,,,ワイエヌグリーン,0
816,3380003004957,登記記録の閉鎖等,0,2021-09-01,2021-08-27,合資会社平野モーター商会,,合資会社,福島県,会津若松市,神指町大字黒川字湯川東２０７番地,,07,202,9650064,,,2021-08-27,清算の結了等,,,2021-07-01,1,,,,,,0
832,3490002010838,登記記録の閉鎖等,0,2021-09-01,2021-08-30,有限会社桑原水道,,有限会社,高知県,高岡郡四万十町,北琴平町１０番８号,,39,412,7860012,,,2021-08-30,清算の結了等,,,2015-10-05,1,,,,,クワバラスイドウ,0
840,4010001146572,登記記録の閉鎖等,0,2021-09-01,2021-08-27,株式会社ＨＭＳ,,株式会社,愛知県,名古屋市西区,花の木３丁目１５番１１号アストラーレ浄心４階,,23,104,4510062,,,2021-08-27,合併による解散等,1011101094251,令和３年８月１１日東京都新宿区西新宿一丁目２５番１号株式会社絆ジャパン（1011101094251）に合併し解散,2015-10-05,1,,,,,エイチエムエス,0
849,4010105002077,登記記録の閉鎖等,0,2021-09-01,2021-08-30,一般社団法人ちえのわ,,その他の設立登記法人,東京都,八王子市,下恩方町１０１３番地２,,13,201,1920154,,,2021-08-30,清算の結了等,,,2020-08-13,1,,,,,チエノワ,0
852,4010401051439,登記記録の閉鎖等,0,2021-09-01,2021-08-24,モリタフードサービス株式会社,,株式会社,東京都,港区,南青山５丁目４番２９号,,13,103,1070062,,,2021-08-24,清算の結了等,,,2015-10-05,1,,,,,モリタフードサービス,0
854,4010401143715,登記記録の閉鎖等,0,2021-09-01,2021-08-20,Ｄｅｃｉｓｉｏｎ　Ｒｅｓｏｕｒｃｅｓ　Ｊａｐａｎ株式会社,,株式会社,東京都,港区,赤坂５丁目２番２０号赤坂パークビル１８階,,13,103,1070052,,,2021-08-20,清算の結了等,,,2019-02-08,1,,,,,デシジョンリソーシーズジャパン,0
865,4010603006133,登記記録の閉鎖等,0,2021-09-01,2021-08-24,合同会社えいひる,,合同会社,東京都,世田谷区,成城１丁目３５番１０号,,13,112,1570066,,,2021-08-24,清算の結了等,,,2015-12-24,1,,,,,エイヒル,0
882,4011101088399,登記記録の閉鎖等,0,2021-09-01,2021-08-19,株式会社アネックスコーポレーション,,株式会社,東京都,新宿区,西新宿５丁目８番５－４０２号,,13,104,1600023,,,2021-08-19,清算の結了等,,,2019-07-25,1,,,,,アネックスコーポレーション,0
896,4012801000735,登記記録の閉鎖等,0,2021-09-01,2021-08-27,鈴木企画株式会社,,株式会社,東京都,立川市,錦町１丁目８番１４号,,13,202,1900022,,,2021-08-27,清算の結了等,,,2015-10-05,1,,,,,スズキキカク,0
923,4030001034230,登記記録の閉鎖等,0,2021-09-01,2021-08-23,株式会社平岡組,,株式会社,埼玉県,久喜市,久喜本８００番地９６,,11,232,3460031,,,2021-08-23,清算の結了等,,,2015-10-05,1,,,,,ヒラオカグミ,0
925,4030001055739,登記記録の閉鎖等,0,2021-09-01,2021-08-23,株式会社山口建設,,株式会社,埼玉県,川越市,南台３丁目１２番地１０,,11,201,3501165,,,2021-08-23,清算の結了等,,,2015-10-05,1,,,,,,0
946,4040002073466,登記記録の閉鎖等,0,2021-09-01,2021-08-26,有限会社佐藤景観設計事務所,,有限会社,千葉県,市原市,南岩崎６７８番地４６,,12,219,2900244,,,2021-08-26,清算の結了等,,,2015-10-05,1,,,,,サトウケイカンセッケイジムショ,0
952,4060001021341,登記記録の閉鎖等,0,2021-09-01,2021-08-23,株式会社石垣興業,,株式会社,栃木県,佐野市,茂呂山町１２番地１３,,09,204,3270826,,,2021-08-23,清算の結了等,,,2015-10-05,1,,,,,イシガキコウギョウ,0
964,4100002000018,登記記録の閉鎖等,0,2021-09-01,2021-08-31,有限会社朝陽商事,,有限会社,長野県,長野市,大字南長野新田町１５３２番地,,20,201,3800835,,,2021-08-31,清算の結了等,,,2015-10-05,1,,,,,チョウヨウショウジ,0
969,4110005000641,登記記録の閉鎖等,0,2021-09-01,2021-08-30,医療法人社団佐藤医院,,その他の設立登記法人,新潟県,新潟市江南区,曽野木１丁目３２番１号,,15,104,9501135,,,2021-08-30,清算の結了等,,,2015-10-05,1,,,,,サトウイイン,0
970,4120001025229,登記記録の閉鎖等,0,2021-09-01,2021-08-23,株式会社福寿縫工所,,株式会社,大阪府,大阪市天王寺区,北山町５番１２号,,27,109,5430035,,,2021-08-23,清算の結了等,,,2015-10-05,1,,,,,フクジュホウコウショ,0
1032,4180001141425,登記記録の閉鎖等,0,2021-09-01,2021-08-31,株式会社テニテオ名古屋,,株式会社,愛知県,名古屋市中区,栄１丁目３１番４１号,,23,106,4600008,,,2021-08-31,清算の結了等,,,2020-06-04,1,,,,,テニテオナゴヤ,0
1043,4180302004231,登記記録の閉鎖等,0,2021-09-01,2021-08-31,有限会社幸田町食品協会,,有限会社,愛知県,額田郡幸田町,大字芦谷字幸田３９番地,00074895,23,501,4440116,,,2021-08-31,清算の結了等,,,2015-10-05,1,,,,,コウタチョウショクヒンキョウカイ,0
1045,4180302007696,登記記録の閉鎖等,0,2021-09-01,2021-08-30,有限会社三友フード,,有限会社,愛知県,豊橋市,寺沢町字下坪尻１１８番地の１,,23,201,4413124,,,2021-08-30,清算の結了等,,,2015-10-05,1,,,,,ミツトモフード,0
1075,4260002030866,登記記録の閉鎖等,0,2021-09-01,2021-08-30,有限会社オダカ,,有限会社,岡山県,美作市,湯郷６２２番の１地,,33,215,7070062,,,2021-08-30,合併による解散等,4260001020785,令和３年８月３０日岡山県美作市湯郷６２２番の１地しらさぎ観光株式会社（4260001020785）に合併し解散,2015-10-05,1,,,,,オダカ,0
1092,4320001012751,登記記録の閉鎖等,0,2021-09-01,2021-08-31,株式会社保戸伝説,,株式会社,大分県,津久見市,大字保戸島字長目１５２０番地の５,,44,207,8792501,,,2021-08-31,清算の結了等,,,2015-10-05,1,,,,,ホトデンセツ,0
1100,4380002002317,登記記録の閉鎖等,0,2021-09-01,2021-08-27,有限会社天神物流,,有限会社,福島県,福島市,平石字天神前５７番地の１,,07,201,9601103,,,2021-08-27,清算の結了等,,,2015-10-05,1,,,,,,0
1112,4450002011582,登記記録の閉鎖等,0,2021-09-01,2021-08-30,有限会社アサリ,,有限会社,北海道,稚内市,栄１丁目２１番１３号,,01,214,0970017,,,2021-08-30,清算の結了等,,,2015-10-05,1,,,,,アサリ,0
1122,5010001206887,登記記録の閉鎖等,0,2021-09-01,2021-08-24,ＨＯＮＧ　ＫＯＮＧ　ＴＡＳＴＥ株式会社,,株式会社,東京都,中央区,日本橋本町３丁目３番６号ワカ末ビル７階,,13,102,1030023,,,2021-08-24,清算の結了等,,,2020-01-24,1,,,,,ホンコンテイスト,0
1130,5010401014015,登記記録の閉鎖等,0,2021-09-01,2021-08-20,ジュコー株式会社,,株式会社,東京都,港区,赤坂１丁目１４番５号Ｎ５１１,,13,103,1070052,,,2021-08-20,清算の結了等,,,2015-10-05,1,,,,,,0
1141,5010402009807,登記記録の閉鎖等,0,2021-09-01,2021-08-20,有限会社西の木,,有限会社,東京都,港区,南青山７丁目１４番２号,,13,103,1070062,,,2021-08-20,清算の結了等,,,2015-10-05,1,,,,,ニシノキ,0
1177,5011302005235,登記記録の閉鎖等,0,2021-09-01,2021-08-25,有限会社清葉堂,,有限会社,東京都,杉並区,成田東２丁目１０番１２号,,13,115,1660015,,,2021-08-25,清算の結了等,,,2015-10-05,1,,,,,セイヨウドウ,0
1188,5020001074029,登記記録の閉鎖等,0,2021-09-01,2021-08-27,日伸商事株式会社,,株式会社,神奈川県,川崎市川崎区,田町２丁目２番４号,,14,131,2100822,,,2021-08-27,清算の結了等,,,2015-10-05,1,,,,,ニッシンショウジ,0
1194,5020001135821,登記記録の閉鎖等,0,2021-09-01,2021-08-30,アップホワイト株式会社,,株式会社,神奈川県,横浜市中区,寿町１丁目１番地８プレシエ横浜石川町３０５号室,,14,104,2310026,,,2021-08-30,清算の結了等,,,2020-04-15,1,,,,,アップホワイト,0
1201,5020005005384,登記記録の閉鎖等,0,2021-09-01,2021-08-30,医療法人社団慈靖会,,その他の設立登記法人,神奈川県,横浜市港南区,上大岡西３丁目２０番４４号シオノビル１階,,14,111,2330002,,,2021-08-30,清算の結了等,,,2015-10-05,1,,,,,ジセイカイ,0
1219,5030001096773,登記記録の閉鎖等,0,2021-09-01,2021-08-23,アドバンスコーポレーション株式会社,,株式会社,埼玉県,飯能市,原町１２５番地４,,11,209,3570005,,,2021-08-23,清算の結了等,,,2015-10-05,1,,,,,,0
1220,5030001130318,登記記録の閉鎖等,0,2021-09-01,2021-08-20,株式会社行田屋商店,,株式会社,埼玉県,川越市,三光町２２番地１,,11,201,3500067,,,2021-08-20,清算の結了等,,,2019-04-08,1,,,,,ギョウダヤショウテン,0
1223,5030002014032,登記記録の閉鎖等,0,2021-09-01,2021-08-23,有限会社山口商店,,有限会社,埼玉県,さいたま市大宮区,仲町１丁目６１番地,,11,103,3300845,,,2021-08-23,清算の結了等,,,2015-10-05,1,,,,,ヤマグチショウテン,0
1246,5080401022234,登記記録の閉鎖等,0,2021-09-01,2021-08-31,株式会社ＦＯＲＥＳＴ,,株式会社,静岡県,浜松市中区,早出町７５５番地の２,,22,131,4350054,,,2021-08-31,清算の結了等,,,2017-06-05,1,,,,,フォレスト,0
1258,5120001055984,登記記録の閉鎖等,0,2021-09-01,2021-08-30,株式会社真栄製作所,,株式会社,大阪府,大阪市淀川区,三津屋中３丁目２番３５号,,27,123,5320036,,,2021-08-30,清算の結了等,,,2015-10-05,1,,,,,シンエイセイサクショ,0
1271,5120001170593,登記記録の閉鎖等,0,2021-09-01,2021-08-24,株式会社スタイルアライプロデュース,,株式会社,大阪府,大阪市中央区,島之内２丁目１４番２９号,,27,128,5420082,,,2021-08-24,清算の結了等,,,2015-10-05,1,,,,,,0
1280,5120101028155,登記記録の閉鎖等,0,2021-09-01,2021-08-31,株式会社富士マネジメントサービス,,株式会社,大阪府,堺市中区,辻之８６４番地５７,00032316,27,142,5998245,,,2021-08-31,清算の結了等,,,2015-10-05,1,,,,,フジマネジメントサービス,0
1290,5122001019358,登記記録の閉鎖等,0,2021-09-01,2021-08-24,天政建設興業株式会社,,株式会社,大阪府,大阪市西成区,梅南１丁目３－１０－９０５,,27,122,5570033,,,2021-08-24,清算の結了等,,,2015-10-05,1,,,,,テンセイケンセツコウギョウ,0
1302,5140003013724,登記記録の閉鎖等,0,2021-09-01,2021-08-30,サーティフォースジャパン合同会社,,合同会社,兵庫県,川辺郡猪名川町,白金２丁目３２番１１号Ｏｆｆｉｃｅ３４ＴＨ,,28,301,6660257,,,2021-08-30,清算の結了等,,,2019-03-08,1,,,,,サーティフォースジャパン,0
1307,5150003002098,登記記録の閉鎖等,0,2021-09-01,2021-08-26,南都エレクトロニクス合同会社,,合同会社,奈良県,奈良市,小太郎町１３番地３,,29,201,6308348,,,2021-08-26,清算の結了等,,,2020-02-20,1,,,,,ナントエレクトロニクス,0
1315,5180001098895,登記記録の閉鎖等,0,2021-09-01,2021-08-27,株式会社エコスター,,株式会社,愛知県,弥富市,馬ケ地３丁目２４１番地,,23,235,4901412,,,2021-08-27,清算の結了等,,,2015-10-05,1,,,,,エコスター,0
1317,5180001111740,登記記録の閉鎖等,0,2021-09-01,2021-08-30,ガーフェンラボ株式会社,,株式会社,愛知県,名古屋市南区,明治１丁目１４番３８号,,23,112,4570861,,,2021-08-30,清算の結了等,,,2015-10-05,1,,,,,ガーフェンラボ,0
1338,5200001030764,登記記録の閉鎖等,0,2021-09-01,2021-08-30,株式会社ｓｏｌｅｉｌ,,株式会社,岐阜県,岐阜市,西河渡２丁目７５番地,,21,201,5010106,,,2021-08-30,清算の結了等,,,2015-10-05,1,,,,,ソレイル,0
1350,5240001050255,登記記録の閉鎖等,0,2021-09-01,2021-08-24,株式会社シビル開発,,株式会社,広島県,広島市東区,牛田新町２丁目４番１９号,,34,102,7320068,,,2021-08-24,清算の結了等,,,2016-11-29,1,,,,,,0
1358,5270002000909,登記記録の閉鎖等,0,2021-09-01,2021-08-27,大和興産有限会社,,有限会社,兵庫県,明石市,鳥羽１７１６番地の８,,28,203,6730003,,,2021-08-27,清算の結了等,,,2015-10-05,1,,,,,ダイワコウサン,0
1376,5350002016855,登記記録の閉鎖等,0,2021-09-01,2021-08-30,有限会社ホテル松原,,有限会社,宮崎県,日南市,大字下方１１番地,,45,204,8893143,,,2021-08-30,清算の結了等,,,2015-10-05,1,,,,,ホテルマツバラ,0
1384,5400001012924,登記記録の閉鎖等,0,2021-09-01,2021-08-31,株式会社岩手ブランディング,,株式会社,岩手県,盛岡市,下ノ橋町１番１４号,,03,201,0200877,,,2021-08-31,清算の結了等,,,2015-10-16,1,,,,,イワテブランディング,0
1424,6010601030397,登記記録の閉鎖等,0,2021-09-01,2021-08-16,株式会社日本海洋建設,,株式会社,東京都,江東区,牡丹１丁目２番２号,,13,108,1350046,,,2021-08-16,清算の結了等,,,2015-10-05,1,,,,,ニホンカイヨウケンセツ,0
1432,6010602017187,登記記録の閉鎖等,0,2021-09-01,2021-08-17,有限会社一休社,,有限会社,東京都,江東区,辰巳１丁目８番４０－４０５号,,13,108,1350053,,,2021-08-17,清算の結了等,,,2015-10-05,1,,,,,イッキュウシャ,0
1463,6011602010603,登記記録の閉鎖等,0,2021-09-01,2021-08-30,有限会社吉田工業,00056316,有限会社,東京都,練馬区,大泉学園町３丁目２３番７号,,13,120,1780061,,,2021-08-30,清算の結了等,,,2015-10-05,1,,,,,ヨシダコウギョウ,0
1464,6011701016022,登記記録の閉鎖等,0,2021-09-01,2021-08-27,木屋工業株式会社,,株式会社,東京都,江戸川区,西葛西５丁目７番６号,,13,123,1340088,,,2021-08-27,清算の結了等,,,2015-10-05,1,,,,,キヤコウギョウ,0
1484,6021001061437,登記記録の閉鎖等,0,2021-09-01,2021-08-27,株式会社サンライトトレーディング,,株式会社,神奈川県,横須賀市,湘南鷹取４丁目２１番８号,,14,201,2370066,,,2021-08-27,清算の結了等,,,2017-02-23,1,,,,,サンライトトレーディング,0
1493,6030001015872,登記記録の閉鎖等,0,2021-09-01,2021-08-25,株式会社セブンライン,,株式会社,埼玉県,さいたま市大宮区,大成町１丁目５３２番地１セントレー大宮６０８,,11,103,3300852,,,2021-08-25,清算の結了等,,,2015-10-05,1,,,,,セブンライン,0
1494,6030001071197,登記記録の閉鎖等,0,2021-09-01,2021-08-23,ラクトレック株式会社,,株式会社,埼玉県,比企郡吉見町,大字長谷１６４３番地１８０,,11,347,3550156,,,2021-08-23,清算の結了等,,,2015-10-05,1,,,,,,0
1520,6070001017163,登記記録の閉鎖等,0,2021-09-01,2021-08-31,株式会社楽,,株式会社,群馬県,みどり市,笠懸町阿左美４９３番地１８,,10,212,3792311,,,2021-08-31,清算の結了等,,,2015-10-05,1,,,,,,0
1522,6070001033235,登記記録の閉鎖等,0,2021-09-01,2021-08-30,株式会社エスティーフーズ,,株式会社,群馬県,太田市,龍舞町２２３５番地９,,10,205,3730806,,,2021-08-30,清算の結了等,,,2017-03-07,1,,,,,エスティーフーズ,0
1523,6070001033912,登記記録の閉鎖等,0,2021-09-01,2021-08-23,株式会社拓実工務店,,株式会社,埼玉県,東松山市,神明町２丁目１４番４０号てぃーら神明町１０２号室,,11,212,3550021,,,2021-08-23,清算の結了等,,,2017-09-06,1,,,,,タクミコウムテン,0
1529,6080101001603,登記記録の閉鎖等,0,2021-09-01,2021-08-27,株式会社広瀬建設,,株式会社,静岡県,沼津市,寿町６番１６号,,22,203,4100053,,,2021-08-27,清算の結了等,,,2015-10-05,1,,,,,ヒロセケンセツ,0
1534,6100002024320,登記記録の閉鎖等,0,2021-09-01,2021-08-30,有限会社美澤クリーニング商会,,有限会社,長野県,安曇野市,明科中川手３８２８番地１,,20,220,3997102,,,2021-08-30,清算の結了等,,,2015-10-05,1,,,,,ミサワクリーニングショウカイ,0
1540,6120001182068,登記記録の閉鎖等,0,2021-09-01,2021-08-25,株式会社エース,,株式会社,大阪府,大阪市西成区,玉出西２丁目１６番２０号,,27,122,5570045,,,2021-08-25,清算の結了等,,,2015-10-05,1,,,,,エース,0
1552,6120101035299,登記記録の閉鎖等,0,2021-09-01,2021-08-27,株式会社橘造園,,株式会社,大阪府,河内長野市,高向９４２番地,,27,216,5860036,,,2021-08-27,清算の結了等,,,2015-10-05,1,,,,,タチバナゾウエン,0
1564,6130001043500,登記記録の閉鎖等,0,2021-09-01,2021-08-31,株式会社たかた荘,,株式会社,京都府,舞鶴市,字浜２００２番地３,,26,202,6250036,,,2021-08-31,清算の結了等,,,2015-10-05,1,,,,,,0
1576,6150002009283,登記記録の閉鎖等,0,2021-09-01,2021-08-27,有限会社橋本塾,,有限会社,奈良県,香芝市,旭ケ丘２丁目８番地の９,,29,210,6390266,,,2021-08-27,清算の結了等,,,2015-10-05,1,,,,,ハシモトジュク,0
1581,6180001007038,登記記録の閉鎖等,0,2021-09-01,2021-08-27,株式会社中野石油商会,,株式会社,愛知県,名古屋市港区,善進本町５８番地,,23,111,4550813,,,2021-08-27,清算の結了等,,,2015-10-05,1,,,,,ナカノセキユショウカイ,0
1594,6180002012169,登記記録の閉鎖等,0,2021-09-01,2021-08-26,有限会社中野屋染工場,,有限会社,愛知県,名古屋市北区,水切町１丁目９番地,,23,103,4620833,,,2021-08-26,清算の結了等,,,2015-10-05,1,,,,,ナカノヤセンコウジョウ,0
1598,6180005011928,登記記録の閉鎖等,0,2021-09-01,2021-08-31,尋聲寺,,その他の設立登記法人,愛知県,半田市,本町４丁目１７番地,,23,205,4750871,,,2021-08-31,清算の結了等,,,2015-10-05,1,,,,,ジンセイジ,0
1608,6200001036323,登記記録の閉鎖等,0,2021-09-01,2021-08-30,株式会社中部サービス,,株式会社,岐阜県,岐阜市,早田栄町４丁目２０番地,,21,201,5020847,,,2021-08-30,清算の結了等,,,2019-06-05,1,,,,,チュウブサービス,0
1617,6230001003394,登記記録の閉鎖等,0,2021-09-01,2021-08-30,株式会社高広,,株式会社,富山県,富山市,黒瀬北町２丁目６番地３,,16,201,9398216,,,2021-08-30,合併による解散等,8220001007147,令和３年８月２１日石川県金沢市駅西本町三丁目１９番３０号安田商事株式会社（8220001007147）に合併し解散,2015-10-05,1,,,,,タカヒロ,0
1618,6240001008533,登記記録の閉鎖等,0,2021-09-01,2021-08-26,日新電装株式会社,,株式会社,広島県,広島市安佐北区,白木町大字秋山１４６８番地,,34,106,7391414,,,2021-08-26,清算の結了等,,,2015-10-05,1,,,,,ニッシンデンソウ,0
1620,6240001011462,登記記録の閉鎖等,0,2021-09-01,2021-08-25,株式会社ニューシティサービス,,株式会社,広島県,広島市中区,弥生町３番８号,,34,101,7300023,,,2021-08-25,清算の結了等,,,2015-10-05,1,,,,,,0
1631,6290001068069,登記記録の閉鎖等,0,2021-09-01,2021-08-12,株式会社ドリームワークス,,株式会社,福岡県,三井郡大刀洗町,大字高樋１９３８番地２,00092862,40,503,8301221,,,2021-08-12,清算の結了等,,,2015-10-05,1,,,,,ドリームワークス,0
1634,6290001082185,登記記録の閉鎖等,0,2021-09-01,2021-08-11,株式会社インジェナス,,株式会社,福岡県,福岡市中央区,六本松３丁目１０番５０号ベルメゾン赤坂フォレスト３０３号室,,40,133,8100044,,,2021-08-11,清算の結了等,,,2018-07-26,1,,,,,インジェナス,0
1663,6370302001414,登記記録の閉鎖等,0,2021-09-01,2021-08-24,有限会社総合釣具オリンピック,,有限会社,宮城県,石巻市,大瓜字下大塚前４３－１,,04,202,9860005,,,2021-08-24,清算の結了等,,,2015-10-05,1,,,,,ソウゴウツリグオリンピック,0
1692,7010003023841,登記記録の閉鎖等,0,2021-09-01,2021-08-27,合同会社三条,,合同会社,東京都,千代田区,霞が関３丁目２番５号,,13,101,1000013,,,2021-08-27,清算の結了等,,,2016-07-19,1,,,,,サンジョウ,0
1708,7010502016866,登記記録の閉鎖等,0,2021-09-01,2021-08-26,有限会社タカ企画,,有限会社,東京都,台東区,根岸４丁目１番４号,,13,106,1100003,,,2021-08-26,清算の結了等,,,2015-10-05,1,,,,,タカキカク,0
1712,7010801019025,登記記録の閉鎖等,0,2021-09-01,2021-08-24,株式会社カペックス,,株式会社,東京都,大田区,山王２丁目１番８号,,13,111,1430023,,,2021-08-24,清算の結了等,,,2015-10-05,1,,,,,カペックス,0
1713,7010801025056,登記記録の閉鎖等,0,2021-09-01,2021-08-24,株式会社明田,,株式会社,東京都,大田区,山王２丁目１番８号,,13,111,1430023,,,2021-08-24,清算の結了等,,,2015-10-05,1,,,,,メイダ,0
1719,7011003006464,登記記録の閉鎖等,0,2021-09-01,2021-08-13,合同会社ｗｉｓｅ,,合同会社,東京都,渋谷区,桜丘町１４番１０号,,13,113,1500031,,,2021-08-13,清算の結了等,,,2016-01-06,1,,,,,ワイズ,0
1721,7011202000961,登記記録の閉鎖等,0,2021-09-01,2021-08-17,有限会社エステェイト・コクラ・カンパニー,,有限会社,東京都,中野区,新井４丁目３０番１２号,,13,114,1650026,,,2021-08-17,清算の結了等,,,2015-10-05,1,,,,,エステェイトコクラカンパニー,0
1722,7011301000953,登記記録の閉鎖等,0,2021-09-01,2021-08-27,栄進電設工業株式会社,,株式会社,東京都,杉並区,荻窪４丁目２８番１０号,,13,115,1670051,,,2021-08-27,清算の結了等,,,2015-10-05,1,,,,,エイシンデンセツコウギョウ,0
1739,7012701002184,登記記録の閉鎖等,0,2021-09-01,2021-08-30,株式会社エスアイエス,,株式会社,東京都,東久留米市,南沢５丁目１番２２号,,13,222,2030023,,,2021-08-30,清算の結了等,,,2015-10-05,1,,,,,エスアイエス,0
1748,7020002003991,登記記録の閉鎖等,0,2021-09-01,2021-08-26,有限会社荻原商会,,有限会社,神奈川県,横浜市緑区,長津田２丁目５番１６号,,14,113,2260027,,,2021-08-26,清算の結了等,,,2015-10-05,1,,,,,オギワラショウカイ,0
1749,7020002040639,登記記録の閉鎖等,0,2021-09-01,2021-08-23,有限会社ヤマカワガラス,,有限会社,神奈川県,横浜市鶴見区,潮田町１丁目１３番地,,14,101,2300041,,,2021-08-23,清算の結了等,,,2015-10-05,1,,,,,ヤマカワガラス,0
1752,7020003006705,登記記録の閉鎖等,0,2021-09-01,2021-08-26,合資会社Ｍ・Ｆ・Ｙ,,合資会社,神奈川県,横須賀市,根岸町３丁目３番地１４,,14,201,2390807,,,2021-08-26,清算の結了等,,,2015-10-05,1,,,,,,0
1761,7021002056220,登記記録の閉鎖等,0,2021-09-01,2021-08-30,有限会社高橋工業,,有限会社,神奈川県,足柄上郡中井町,久所３７８番地,,14,361,2590142,,,2021-08-30,清算の結了等,,,2015-10-05,1,,,,,タカハシコウギョウ,0
1762,7021002058159,登記記録の閉鎖等,0,2021-09-01,2021-08-26,有限会社シーピーハイ,,有限会社,神奈川県,平塚市,広川６９番地の１,,14,203,2591219,,,2021-08-26,清算の結了等,,,2015-10-05,1,,,,,シーピーハイ,0
1774,7030002010987,登記記録の閉鎖等,0,2021-09-01,2021-08-23,有限会社パンチングセンターワールド,,有限会社,埼玉県,さいたま市北区,吉野町１丁目３９１番地１１,,11,102,3310811,,,2021-08-23,清算の結了等,,,2015-10-05,1,,,,,パンチングセンターワールド,0
1797,7070002035551,登記記録の閉鎖等,0,2021-09-01,2021-08-31,有限会社桑屋マニファクチャリング,,有限会社,群馬県,利根郡みなかみ町,大穴１１０番地,,10,449,3791727,,,2021-08-31,清算の結了等,,,2015-10-05,1,,,,,,0
1800,7080102015717,登記記録の閉鎖等,0,2021-09-01,2021-08-27,有限会社増田樹脂工業所,,有限会社,静岡県,富士市,荒田島４４番地の７,,22,210,4170042,,,2021-08-27,清算の結了等,,,2015-10-05,1,,,,,マスダジュシコウギョウショ,0
1812,7120001205216,登記記録の閉鎖等,0,2021-09-01,2021-08-24,万家ツール株式会社,,株式会社,大阪府,大阪市東住吉区,矢田２丁目１３番１２号,,27,121,5460023,,,2021-08-24,清算の結了等,,,2017-04-28,1,,,,,マンケイツール,0
1813,7120001205471,登記記録の閉鎖等,0,2021-09-01,2021-08-30,株式会社トリフィット燦,,株式会社,大阪府,南河内郡太子町,大字太子１２２番地の１阪上梅川ビル２Ｆ,,27,381,5830995,,,2021-08-30,清算の結了等,,,2017-05-11,1,,,,,トリフィットサン,0
1852,7180002066437,登記記録の閉鎖等,0,2021-09-01,2021-08-30,有限会社ソウビ,,有限会社,愛知県,春日井市,下条町２丁目１１番地の１,,23,206,4860923,,,2021-08-30,清算の結了等,,,2015-10-05,1,,,,,ソウビ,0
1864,7190001001179,登記記録の閉鎖等,0,2021-09-01,2021-08-24,ＭＴＩ株式会社,,株式会社,大阪府,大阪市中央区,道修町１丁目６番７号北浜ＭＩＤビル９階,,27,128,5410045,,,2021-08-24,清算の結了等,,,2015-10-05,1,,,,,,0
1887,7240002035427,登記記録の閉鎖等,0,2021-09-01,2021-08-24,有限会社はるかぜ,,有限会社,広島県,呉市,広弁天橋町２番１３号,,34,202,7370107,,,2021-08-24,清算の結了等,,,2015-10-05,1,,,,,ハルカゼ,0
1893,7260001010494,登記記録の閉鎖等,0,2021-09-01,2021-08-31,ティアス株式会社,,株式会社,岡山県,岡山市中区,古京町２丁目５番２１号,,33,102,7038278,,,2021-08-31,清算の結了等,,,2015-10-05,1,,,,,ティアス,0
1896,7260002004033,登記記録の閉鎖等,0,2021-09-01,2021-08-31,有限会社山陽機械建設,,有限会社,岡山県,岡山市北区,万成東町１３番１９号,,33,101,7000072,,,2021-08-31,清算の結了等,,,2015-10-05,1,,,,,サンヨウキカイケンセツ,0
1897,7260002006640,登記記録の閉鎖等,0,2021-09-01,2021-08-30,有限会社テイク建工,,有限会社,岡山県,岡山市中区,米田３００番地,,33,102,7038224,,,2021-08-30,清算の結了等,,,2015-10-05,1,,,,,テイクケンコウ,0
1937,7400502000459,登記記録の閉鎖等,0,2021-09-01,2021-08-30,有限会社高橋企画,00085747,有限会社,岩手県,一関市,赤荻字堺７番地,,03,209,0210041,,,2021-08-30,清算の結了等,,,2015-10-05,1,,,,,タカハシキカク,0
1938,7410001003391,登記記録の閉鎖等,0,2021-09-01,2021-08-27,エート電機株式会社,,株式会社,秋田県,南秋田郡五城目町,高崎字田中１番地,,05,361,0181711,,,2021-08-27,清算の結了等,,,2015-10-05,1,,,,,エートデンキ,0
1944,7430001065991,登記記録の閉鎖等,0,2021-09-01,2021-08-23,北海道トラック販売株式会社,,株式会社,北海道,石狩市,新港西３丁目７５１番地３,,01,235,0613241,,,2021-08-23,清算の結了等,,,2015-10-05,1,,,,,ホッカイドウトラックハンバイ,0
1958,8010003026100,登記記録の閉鎖等,0,2021-09-01,2021-08-27,合同会社京地,,合同会社,東京都,千代田区,霞が関３丁目２番５号,,13,101,1000013,,,2021-08-27,清算の結了等,,,2017-09-20,1,,,,,キョウチ,0
1978,8010802016409,登記記録の閉鎖等,0,2021-09-01,2021-08-24,有限会社エムズ・ワン,,有限会社,東京都,大田区,東海３丁目２番６号,,13,111,1430001,,,2021-08-24,清算の結了等,,,2015-10-05,1,,,,,,0
1986,8010902001178,登記記録の閉鎖等,0,2021-09-01,2021-08-26,有限会社アロンルレイブ,,有限会社,東京都,世田谷区,南烏山５丁目１番１３号,,13,112,1570062,,,2021-08-26,清算の結了等,,,2015-10-05,1,,,,,アロンルレイブ,0
2042,8020003000847,登記記録の閉鎖等,0,2021-09-01,2021-08-27,合資会社そよ風食堂,,合資会社,神奈川県,横浜市金沢区,六浦東１丁目２３番１１号,,14,108,2360037,,,2021-08-27,清算の結了等,,,2015-10-05,1,,,,,ソヨカゼショクドウ,0
2067,8030002021059,登記記録の閉鎖等,0,2021-09-01,2021-08-23,佐々木寝装有限会社,,有限会社,埼玉県,さいたま市岩槻区,大字釣上１３３７番地３,,11,110,3390024,,,2021-08-23,清算の結了等,,,2015-10-05,1,,,,,ササキシンソウ,0
2068,8030002067201,登記記録の閉鎖等,0,2021-09-01,2021-08-23,有限会社西尾企画事務所,,有限会社,埼玉県,新座市,畑中１丁目１０番５７－１０８号,,11,230,3520012,,,2021-08-23,清算の結了等,,,2015-10-05,1,,,,,ニシオキカクジムショ,0
2070,8030002097504,登記記録の閉鎖等,0,2021-09-01,2021-08-20,有限会社田中土建,,有限会社,埼玉県,比企郡小川町,大字下横田２７３番地２,,11,343,3550313,,,2021-08-20,清算の結了等,,,2015-10-05,1,,,,,タナカドケン,0
2082,8040002024886,登記記録の閉鎖等,0,2021-09-01,2021-08-24,有限会社藤興業,,有限会社,千葉県,船橋市,三山５丁目２１番７号,,12,204,2740072,,,2021-08-24,清算の結了等,,,2015-10-05,1,,,,,フジコウギョウ,0
2087,8040005019685,登記記録の閉鎖等,0,2021-09-01,2021-08-25,特定非営利活動法人縁・ＥＮＩＳＨＩ,,その他の設立登記法人,千葉県,千葉市若葉区,千城台南１丁目３番３号ＭＳビル１０１号室,,12,104,2640003,,,2021-08-25,清算の結了等,,,2017-10-04,1,,,,,エニシ,0
2092,8050002014837,登記記録の閉鎖等,0,2021-09-01,2021-08-26,有限会社オリエントコーポレーション,,有限会社,茨城県,石岡市,東光台１丁目６番３１号,,08,205,3150033,,,2021-08-26,清算の結了等,,,2015-10-05,1,,,,,オリエントコーポレーション,0
2096,8080002009355,登記記録の閉鎖等,0,2021-09-01,2021-08-30,栄和自工有限会社,,有限会社,静岡県,静岡市清水区,押切２２６５番地,,22,103,4240008,,,2021-08-30,清算の結了等,,,2015-10-05,1,,,,,エイワジコウ,0
2121,8120105008217,登記記録の閉鎖等,0,2021-09-01,2021-08-31,一般社団法人治療院物販協会,,その他の設立登記法人,大阪府,泉南市,信達市場４４５番地の８７,,27,228,5900504,,,2021-08-31,清算の結了等,,,2015-10-05,1,,,,,チリョウインブッパンキョウカイ,0
2136,8140003002402,登記記録の閉鎖等,0,2021-09-01,2021-08-27,合資会社魚井電気センター,,合資会社,兵庫県,神戸市兵庫区,東山町３丁目１番５号,,28,105,6520042,,,2021-08-27,清算の結了等,,,2015-10-05,1,,,,,ウオイデンキセンター,0
2138,8180001031110,登記記録の閉鎖等,0,2021-09-01,2021-08-31,太陽交通株式会社,,株式会社,愛知県,名古屋市中村区,稲西町１５８番地,,23,105,4530849,,,2021-08-31,清算の結了等,,,2015-10-05,1,,,,,タイヨウコウツウ,0
2139,8180001071362,登記記録の閉鎖等,0,2021-09-01,2021-08-24,メイサンテック株式会社,,株式会社,愛知県,名古屋市港区,高木町５丁目５番地２,,23,111,4550821,,,2021-08-24,清算の結了等,,,2015-10-05,1,,,,,メイサンテック,0
2142,8180001114484,登記記録の閉鎖等,0,2021-09-01,2021-08-30,光藤設備工業株式会社,,株式会社,愛知県,名古屋市北区,長喜町３丁目２１番地の１,,23,103,4620036,,,2021-08-30,清算の結了等,,,2015-10-05,1,,,,,ミツフジセツビコウギョウ,0
2144,8180001119673,登記記録の閉鎖等,0,2021-09-01,2021-08-30,株式会社Ｔ・Ｍ・Ｇコミュニケーション,,株式会社,愛知県,名古屋市瑞穂区,山下通５丁目２９番地の２,,23,108,4670062,,,2021-08-30,清算の結了等,,,2015-10-05,1,,,,,ティーエムジーコミュニケーション,0
2153,8180301017206,登記記録の閉鎖等,0,2021-09-01,2021-08-26,株式会社ＫＴＣ,,株式会社,愛知県,安城市,篠目町１丁目８番地４,,23,212,4460073,,,2021-08-26,清算の結了等,,,2015-10-05,1,,,,,ケイティーシー,0
2154,8180302018194,登記記録の閉鎖等,0,2021-09-01,2021-08-30,有限会社グリーン・アップル,,有限会社,愛知県,刈谷市,井ケ谷町久伝原８番地６,,23,210,4480001,,,2021-08-30,清算の結了等,,,2015-10-05,1,,,,,グリーンアップル,0
2158,8200001021843,登記記録の閉鎖等,0,2021-09-01,2021-08-30,トーノーブリックス株式会社,,株式会社,岐阜県,瑞浪市,明世町月吉１１００番地の７,,21,208,5096131,,,2021-08-30,清算の結了等,,,2015-10-05,1,,,,,トーノーブリックス,0
2160,8200001028797,登記記録の閉鎖等,0,2021-09-01,2021-08-27,株式会社ライフビルディング,,株式会社,岐阜県,岐阜市,薮田中２丁目１２番１５号,,21,201,5008387,,,2021-08-27,清算の結了等,,,2015-10-05,1,,,,,ライフビルディング,0
2161,8200002010903,登記記録の閉鎖等,0,2021-09-01,2021-08-31,有限会社高木プレス工業,00076913,有限会社,岐阜県,羽島郡岐南町,平島８丁目３９番地,,21,302,5016003,,,2021-08-31,清算の結了等,,,2015-10-05,1,,,,,タカギプレスコウギョウ,0
2175,8240001024462,登記記録の閉鎖等,0,2021-09-01,2021-08-23,株式会社竹間農園,,株式会社,広島県,三次市,十日市西１丁目２番５号,,34,209,7280011,,,2021-08-23,清算の結了等,,,2019-06-19,1,,,,,タケマノウエン,0
2179,8240002029436,登記記録の閉鎖等,0,2021-09-01,2021-08-26,有限会社デシマル,,有限会社,広島県,東広島市,西条東北町３３１番地５,,34,212,7390048,,,2021-08-26,清算の結了等,,,2015-10-05,1,,,,,デシマル,0
2197,8360002009764,登記記録の閉鎖等,0,2021-09-01,2021-08-24,有限会社沖縄レンタバイク,,有限会社,沖縄県,国頭郡恩納村,字冨着２０９番,,47,311,9040413,,,2021-08-24,清算の結了等,,,2015-10-05,1,,,,,,0
2215,8450002005754,登記記録の閉鎖等,0,2021-09-01,2021-08-30,村椿建設有限会社,,有限会社,北海道,上川郡比布町,寿町２丁目３番２号,,01,455,0780349,,,2021-08-30,清算の結了等,,,2015-10-05,1,,,,,ムラツバキケンセツ,0
2256,9010602028025,登記記録の閉鎖等,0,2021-09-01,2021-08-30,有限会社エイワイエル,,有限会社,神奈川県,横浜市戸塚区,南舞岡１丁目１４番３号,,14,110,2440814,,,2021-08-30,清算の結了等,,,2015-10-05,1,,,,,エイワイエル,0
2258,9010701018645,登記記録の閉鎖等,0,2021-09-01,2021-08-23,アブダビ興産株式会社,,株式会社,東京都,港区,芝浦１丁目１番１号,,13,103,1050023,,,2021-08-23,清算の結了等,,,2015-10-05,1,,,,,アブダビコウサン,0
2289,9020001015466,登記記録の閉鎖等,0,2021-09-01,2021-08-25,東興商事株式会社,,株式会社,神奈川県,横浜市西区,南幸２丁目１５番２号,,14,103,2200005,,,2021-08-25,清算の結了等,,,2015-10-05,1,,,,,トウコウショウジ,0
2290,9020001054084,登記記録の閉鎖等,0,2021-09-01,2021-08-30,株式会社誠寿家,,株式会社,神奈川県,横浜市鶴見区,下末吉２丁目１７番１号,,14,101,2300012,,,2021-08-30,清算の結了等,,,2015-10-05,1,,,,,マスヤ,0
2300,9020002070709,登記記録の閉鎖等,0,2021-09-01,2021-08-30,有限会社オネスト・ジョン・ジャパン,,有限会社,神奈川県,横浜市神奈川区,金港町６番地３,,14,102,2210056,,,2021-08-30,清算の結了等,,,2015-10-05,1,,,,,オネストジョンジャパン,0
2306,9021002032500,登記記録の閉鎖等,0,2021-09-01,2021-08-26,有限会社テクノ・ワーク,,有限会社,神奈川県,厚木市,三田３０５７番地の４,,14,212,2430211,,,2021-08-26,清算の結了等,,,2015-10-05,1,,,,,テクノワーク,0
2310,9021002071151,登記記録の閉鎖等,0,2021-09-01,2021-08-27,有限会社大久保設計事務所,,有限会社,神奈川県,横須賀市,湘南鷹取６丁目１７番９号,,14,201,2370066,,,2021-08-27,清算の結了等,,,2015-10-05,1,,,,,オオクボセッケイジムショ,0
2318,9030001122014,登記記録の閉鎖等,0,2021-09-01,2021-08-24,株式会社松田断熱,,株式会社,埼玉県,さいたま市桜区,大字白鍬２５０番地７,,11,106,3380811,,,2021-08-24,清算の結了等,,,2017-09-01,1,,,,,マツダダンネツ,0
2337,9040002044116,登記記録の閉鎖等,0,2021-09-01,2021-08-24,アビーロード有限会社,,有限会社,千葉県,松戸市,根本１４番地の１７,,12,207,2710077,,,2021-08-24,清算の結了等,,,2015-10-05,1,,,,,アビーロード,0
2341,9060001033381,登記記録の閉鎖等,0,2021-09-01,2021-08-23,ＩＣＨＩ株式会社,,株式会社,栃木県,佐野市,栄町７番２号,,09,204,3270816,,,2021-08-23,合併による解散等,9060001032648,令和３年８月２０日栃木県佐野市栄町７番２号ＳＨＹ株式会社（9060001032648）に合併し解散,2021-02-08,1,,,,,イチ,0
2351,9090003000625,登記記録の閉鎖等,0,2021-09-01,2021-08-25,合資会社ピノキオふくしさーびす,,合資会社,山梨県,北杜市,大泉町西井出８２４０番地９５５,,19,209,4091501,,,2021-08-25,清算の結了等,,,2015-10-05,1,,,,,ピノキオフクシサービス,0
2354,9100005005579,登記記録の閉鎖等,0,2021-09-01,2021-08-30,一般社団法人松本農業開発センター,,その他の設立登記法人,長野県,松本市,南松本１丁目２番１６号,,20,202,3900832,,,2021-08-30,清算の結了等,,,2015-10-05,1,,,,,マツモトノウギョウカイハツセンター,0
2358,9120001107352,登記記録の閉鎖等,0,2021-09-01,2021-08-26,株式会社アスコム,,株式会社,大阪府,大阪市北区,天満４丁目３番１２号,,27,127,5300043,,,2021-08-26,清算の結了等,,,2015-10-05,1,,,,,,0
2383,9130001031700,登記記録の閉鎖等,0,2021-09-01,2021-08-30,株式会社ｒｅｇｅｅ,,株式会社,京都府,京都市左京区,田中下柳町２９番地,,26,103,6068204,,,2021-08-30,清算の結了等,,,2015-10-05,1,,,,,レジー,0
2387,9140001053883,登記記録の閉鎖等,0,2021-09-01,2021-08-30,株式会社マイチケット,,株式会社,兵庫県,尼崎市,武庫川町４丁目２７番地１,,28,202,6600084,,,2021-08-30,清算の結了等,,,2015-10-05,1,,,,,マイチケット,0
2388,9140001070375,登記記録の閉鎖等,0,2021-09-01,2021-08-31,株式会社マシンツール・ハセガワ,,株式会社,兵庫県,西宮市,一里山町１９番２号,,28,204,6638002,,,2021-08-31,清算の結了等,,,2015-10-05,1,,,,,マシンツールハセガワ,0
2404,9170005000870,登記記録の閉鎖等,0,2021-09-01,2021-08-31,一般社団法人和歌山県専修学校各種学校協会,,その他の設立登記法人,和歌山県,和歌山市,駿河町２１番地,,30,201,6408034,,,2021-08-31,清算の結了等,,,2015-10-05,1,,,,,ワカヤマケンセンシュウガッコウカクシュガッコウキョウカイ,0
2418,9180301011281,登記記録の閉鎖等,0,2021-09-01,2021-08-31,株式会社冨士見荘,,株式会社,愛知県,蒲郡市,西浦町大山１７番地,,23,214,4430105,,,2021-08-31,清算の結了等,,,2015-10-05,1,,,,,,0
2430,9240003003918,登記記録の閉鎖等,0,2021-09-01,2021-08-26,合同会社ｇｌｏｓｓ‐ｔｙ,,合同会社,広島県,広島市安佐南区,緑井１丁目１０番５号,,34,105,7310103,,,2021-08-26,清算の結了等,,,2018-06-05,1,,,,,グロスティ,0
2434,9260002008965,登記記録の閉鎖等,0,2021-09-01,2021-08-30,有限会社フラワーブティックまりあんぬ,,有限会社,岡山県,岡山市北区,田町２丁目１３番１０号,,33,101,7000825,,,2021-08-30,清算の結了等,,,2015-10-05,1,,,,,フラワーブティックマリアンヌ,0
2446,9290802014375,登記記録の閉鎖等,0,2021-09-01,2021-08-19,有限会社スパーテル,,有限会社,福岡県,北九州市八幡西区,浅川学園台３丁目１４番１９号,,40,109,8070871,,,2021-08-19,清算の結了等,,,2015-10-05,1,,,,,スパーテル,0
