sequenceNumber,corporateNumber,process,correct,updateDate,changeDate,name,nameImageId,kind,prefectureName,cityName,streetNumber,addressImageId,prefectureCode,cityCode,postCode,addressOutside,addressOutsideImageId,closeDate,closeCause,successorCorporateNumber,changeCause,assignmentDate,latest,enName,enPrefectureName,enCityName,enAddressOutside,furigana,hihyoji
14,1010001234652,新規,0,2023-04-24,2023-04-24,株式会社Ｄｏｃｔａ,,株式会社,東京都,中央区,銀座１丁目１２番４号Ｎ＆ＥＢＬＤ．６Ｆ,,13,102,1040061,,,,,,,2023-04-24,1,,,,,ドクタ,0
20,1010003040363,新規,0,2023-04-24,2023-04-24,ＫＭＯ合同会社,,合同会社,東京都,中央区,日本橋室町１丁目１１番１２号日本橋水野ビル７階,,13,102,1030022,,,,,,,2023-04-24,1,,,,,ケーエムオー,0
21,1010003040421,新規,0,2023-04-24,2023-04-24,合同会社マーキュリー,,合同会社,東京都,中央区,湊３丁目６－２－９０４,,13,102,1040043,,,,,,,2023-04-24,1,,,,,マーキュリー,0
23,1010005036558,新規,0,2023-04-24,2023-04-24,一般社団法人高等教育計画経営研究所,,その他の設立登記法人,東京都,千代田区,平河町２丁目３番１０号,,13,101,1020093,,,,,,,2023-04-24,1,,,,,コウトウキョウイクケイカクケイエイケンキュウジョ,0
25,1010101015614,新規,0,2023-04-24,2023-04-24,株式会社ワンアスタリスク,,株式会社,東京都,八王子市,堀之内３丁目３５番地５,,13,201,1920355,,,,,,,2023-04-24,1,,,,,ワンアスタリスク,0
33,1010401173822,新規,0,2023-04-24,2023-04-24,株式会社Ｃｏｄｅ　Ｃｒｕｓｈ,,株式会社,東京都,港区,芝浦４丁目２０番２―３４０５号,,13,103,1080023,,,,,,,2023-04-24,1,,,,,コードクラッシュ,0
34,1010401173905,新規,0,2023-04-24,2023-04-24,株式会社スパイラル,,株式会社,東京都,港区,芝浦４丁目１９番１－２４１３号,,13,103,1080023,,,,,,,2023-04-24,1,,,,,スパイラル,0
35,1010401173938,新規,0,2023-04-24,2023-04-24,株式会社Ｇｒｏｗ　Ｗｉｔｈ,,株式会社,東京都,港区,南青山３丁目１番３６号青山丸竹ビル６Ｆ,,13,103,1070062,,,,,,,2023-04-24,1,,,,,グロウウィズ,0
40,1010501050351,新規,0,2023-04-24,2023-04-24,ＭＩＣＲＯ　ＣＯＭＰＵＴＥＲ株式会社,,株式会社,東京都,台東区,台東２丁目２７番３号ＮＳＫビル１０Ｆ,,13,106,1100016,,,,,,,2023-04-24,1,,,,,マイクロコンピューター,0
42,1010601062998,新規,0,2023-04-24,2023-04-24,株式会社加藤興業,,株式会社,東京都,墨田区,錦糸１丁目１２番１１号,,13,107,1300013,,,,,,,2023-04-24,1,,,,,カトウコウギョウ,0
43,1010603010113,新規,0,2023-04-24,2023-04-24,合同会社オアシス,,合同会社,東京都,墨田区,文花３丁目２２番１１号,,13,107,1310044,,,,,,,2023-04-24,1,,,,,オアシス,0
52,1010903008113,新規,0,2023-04-24,2023-04-24,モファン合同会社,,合同会社,東京都,世田谷区,上馬３丁目１８－１７－２０３,,13,112,1540011,,,,,,,2023-04-24,1,,,,,,0
55,1011001154031,新規,0,2023-04-24,2023-04-24,ＡＩＨＵＢ株式会社,,株式会社,東京都,目黒区,目黒本町１丁目１３番２１号シルクＳ・Ｋ・Ｍ－１０２,,13,110,1520002,,,,,,,2023-04-24,1,,,,,エーアイハブ,0
62,1011003016691,新規,0,2023-04-24,2023-04-24,合同会社あそび,,合同会社,東京都,渋谷区,渋谷１丁目１２番８号,,13,113,1500002,,,,,,,2023-04-24,1,,,,,アソビ,0
69,1011201024595,新規,0,2023-04-24,2023-04-24,株式会社グランデ,,株式会社,東京都,中野区,南台３丁目６番２２－１００６号,,13,114,1640014,,,,,,,2023-04-24,1,,,,,グランデ,0
70,1011201024604,新規,0,2023-04-24,2023-04-24,株式会社キャラバン,,株式会社,東京都,中野区,東中野５丁目２７番１０号,,13,114,1640003,,,,,,,2023-04-24,1,,,,,キャラバン,0
80,1012401040465,新規,0,2023-04-24,2023-04-24,株式会社ＲＩＮＧ,,株式会社,東京都,武蔵野市,吉祥寺本町１丁目２２番１０号,,13,203,1800004,,,,,,,2023-04-24,1,,,,,リング,0
82,1012403005953,新規,0,2023-04-24,2023-04-24,ＣＬ　Ｖａｌｕｅ合同会社,,合同会社,東京都,調布市,仙川町２丁目１番地１３シェフルール６０１号,,13,208,1820002,,,,,,,2023-04-24,1,,,,,シーエルバリュー,0
94,1020001151244,新規,0,2023-04-24,2023-04-24,株式会社ニジッカ,,株式会社,神奈川県,横浜市西区,みなとみらい４丁目４番２号横浜ブルーアベニュー１２階,,14,103,2200012,,,,,,,2023-04-24,1,,,,,ニジッカ,0
95,1020001151293,新規,0,2023-04-24,2023-04-24,株式会社ＢＯＯＳＴＡＣＫ,,株式会社,神奈川県,川崎市宮前区,有馬２丁目７番１２号,,14,136,2160003,,,,,,,2023-04-24,1,,,,,ブースタック,0
96,1020001151302,新規,0,2023-04-24,2023-04-24,株式会社ＦＪＴ,,株式会社,神奈川県,横浜市中区,相生町４丁目６５ポラリスビル６Ｆ,,14,104,2310012,,,,,,,2023-04-24,1,,,,,エフジェイティー,0
106,1020003023796,新規,0,2023-04-24,2023-04-24,合同会社ＳＯＲＡ　ＴＲＡＤＥ,,合同会社,神奈川県,横浜市西区,浅間町１丁目４－３ウィザードビル４０２号室,,14,103,2200072,,,,,,,2023-04-24,1,,,,,ソラトレード,0
107,1020003023813,新規,0,2023-04-24,2023-04-24,合同会社九頭龍工業,,合同会社,神奈川県,横浜市西区,浅間町４丁目３３４番地９クリオ横濱浅間町３０３号,,14,103,2200072,,,,,,,2023-04-24,1,,,,,クズリュウコウギョウ,0
109,1021001078709,新規,0,2023-04-24,2023-04-24,株式会社モノオタク,,株式会社,神奈川県,茅ヶ崎市,堤９５－３サニー堤１０２,,14,207,2530006,,,,,,,2023-04-24,1,,,,,モノオタク,0
110,1021001078725,新規,0,2023-04-24,2023-04-24,株式会社ＬＯＢＢＹＩＮ,,株式会社,神奈川県,相模原市南区,上鶴間３丁目３番２３号,,14,153,2520302,,,,,,,2023-04-24,1,,,,,ロビーイン,0
111,1021001078808,新規,0,2023-04-24,2023-04-24,ロジエイト株式会社,,株式会社,神奈川県,茅ヶ崎市,菱沼１丁目２３番６号,,14,207,2530011,,,,,,,2023-04-24,1,,,,,ロジエイト,0
112,1021001078816,新規,0,2023-04-24,2023-04-24,株式会社野崎カッター興業,,株式会社,神奈川県,逗子市,桜山９丁目２番２６号,,14,208,2490005,,,,,,,2023-04-24,1,,,,,ノザキカッターコウギョウ,0
113,1021001078832,新規,0,2023-04-24,2023-04-24,株式会社ａｃｃｔ,,株式会社,神奈川県,平塚市,四之宮３丁目１６番９－１号,,14,203,2540014,,,,,,,2023-04-24,1,,,,,アクト,0
120,1030001153529,新規,0,2023-04-24,2023-04-24,株式会社金井設備工業,,株式会社,埼玉県,吉川市,大字飯島１３１番地１,,11,243,3420025,,,,,,,2023-04-24,1,,,,,カナイセツビコウギョウ,0
121,1030001153553,新規,0,2023-04-24,2023-04-24,株式会社エフォート,,株式会社,埼玉県,草加市,谷塚２丁目９番１号サンファミリー徳岡１１１号室,00130216,11,221,3400028,,,,,,,2023-04-24,1,,,,,エフォート,0
122,1030001153561,新規,0,2023-04-24,2023-04-24,日伸技研工業株式会社,,株式会社,埼玉県,川越市,大字鯨井１７６０番地６,,11,201,3500815,,,,,,,2023-04-24,1,,,,,ニッシンギケンコウギョウ,0
123,1030001153578,新規,0,2023-04-24,2023-04-24,リムジンサービス株式会社,,株式会社,埼玉県,さいたま市北区,奈良町１８番地３１－２０３,,11,102,3310822,,,,,,,2023-04-24,1,,,,,リムジンサービス,0
125,1030003021634,新規,0,2023-04-24,2023-04-24,ＸＰＡＣＥ合同会社,,合同会社,埼玉県,北本市,高尾８丁目３３９－３,,11,233,3640034,,,,,,,2023-04-24,1,,,,,スペース,0
133,1040001128100,新規,0,2023-04-24,2023-04-24,株式会社エフフォーリア,,株式会社,千葉県,鎌ケ谷市,北中沢１丁目１５番２１号,,12,224,2730111,,,,,,,2023-04-24,1,,,,,エフフォーリア,0
134,1040001128117,新規,0,2023-04-24,2023-04-24,進永株式会社,,株式会社,千葉県,船橋市,夏見１丁目１５－２４オフィスステーション２０３,,12,204,2730865,,,,,,,2023-04-24,1,,,,,シンエイ,0
149,1050003007441,新規,0,2023-04-24,2023-04-24,Ａｋａｌａ．Ｗホールディング合同会社,,合同会社,茨城県,守谷市,本町４２４４番地の１,,08,224,3020109,,,,,,,2023-04-24,1,,,,,アカラダブリューホールディング,0
158,1080001025582,新規,0,2023-04-24,2023-04-24,株式会社Ｂｉｋｏ,,株式会社,静岡県,静岡市駿河区,中田本町４６番４号,,22,102,4228043,,,,,,,2023-04-24,1,,,,,ビコー,0
160,1080101023949,新規,0,2023-04-24,2023-04-24,株式会社東静岡クリーンサービス,,株式会社,静岡県,沼津市,岡一色３０番地の８,,22,203,4100012,,,,,,,2023-04-24,1,,,,,ヒガシシズオカクリーンサービス,0
169,1100003006990,新規,0,2023-04-24,2023-04-24,合同会社くるみ,,合同会社,長野県,北佐久郡御代田町,大字塩野１４７４,,20,323,3890201,,,,,,,2023-04-24,1,,,,,クルミ,0
180,1120001254251,新規,0,2023-04-24,2023-04-24,首都未来株式会社,,株式会社,大阪府,大阪市東住吉区,矢田３丁目７番２３号,,27,121,5460023,,,,,,,2023-04-24,1,,,,,シュトミライ,0
181,1120001254284,新規,0,2023-04-24,2023-04-24,株式会社松の木,,株式会社,大阪府,大阪市西区,新町１丁目１９番１４－１９０５号,,27,106,5500013,,,,,,,2023-04-24,1,,,,,マツノキ,0
182,1120001254326,新規,0,2023-04-24,2023-04-24,株式会社ｕｌｕｓ,,株式会社,大阪府,大阪市西区,北堀江１丁目２番１０号菊屋ビル１０Ｆ,,27,106,5500014,,,,,,,2023-04-24,1,,,,,ウルス,0
183,1120001254350,新規,0,2023-04-24,2023-04-24,東方栖木株式会社,,株式会社,大阪府,大阪市中央区,東平２丁目２番１０－２０２号,,27,128,5420063,,,,,,,2023-04-24,1,,,,,トウホウセイキ,0
188,1120003023910,新規,0,2023-04-24,2023-04-24,草原の太陽合同会社,,合同会社,大阪府,大阪市旭区,清水５丁目５－１８ロイヤルコート清水３０１号室,,27,117,5350021,,,,,,,2023-04-24,1,,,,,ソウゲンノタイヨウ,0
193,1120901047449,新規,0,2023-04-24,2023-04-24,株式会社センターフィールド,,株式会社,大阪府,豊中市,豊南町西５丁目５番１５号,,27,203,5610816,,,,,,,2023-04-24,1,,,,,センターフィールド,0
194,1120903004605,新規,0,2023-04-24,2023-04-24,合同会社ｏｙａｙｕｂｉ,,合同会社,大阪府,箕面市,西小路３丁目１３－５,,27,220,5620003,,,,,,,2023-04-24,1,,,,,オヤユビ,0
196,1130001074129,新規,0,2023-04-24,2023-04-24,株式会社Ａｒｒｏｗ　ｍｅ　Ｓｐｏｒｔｓ　Ａｃａｄｅｍｙ,,株式会社,京都府,京都市下京区,鶏鉾町４９３番地７Ｆ,,26,106,6008491,,,,,,,2023-04-24,1,,,,,アローミスポーツアカデミー,0
197,1130001074145,新規,0,2023-04-24,2023-04-24,株式会社Ｍａｒｓ　Ｘ,,株式会社,京都府,京都市伏見区,深草西伊達町８７－９２,,26,109,6120876,,,,,,,2023-04-24,1,,,,,マースエックス,0
200,1130005016754,新規,0,2023-04-24,2023-04-24,社会保険労務士法人プルミエ,,その他の設立登記法人,京都府,京都市右京区,西院西平町１２番地ＴｈｅＭａｎｏｒＨｏｕｓｅ西院２０７号室,,26,108,6150023,,,,,,,2023-04-24,1,,,,,プルミエ,0
204,1140001129897,新規,0,2023-04-24,2023-04-24,ＴＯＲＵＳ株式会社,,株式会社,兵庫県,神戸市灘区,桜口町４丁目１番１号,,28,102,6570036,,,,,,,2023-04-24,1,,,,,トーラス,0
206,1140003018999,新規,0,2023-04-24,2023-04-24,ＮＡＮＡ合同会社,,合同会社,兵庫県,神戸市長田区,蓮宮通２丁目２番地の５,,28,106,6530831,,,,,,,2023-04-24,1,,,,,ナナ,0
212,1180001155980,新規,0,2023-04-24,2023-04-24,株式会社ＰＩＮＥ,,株式会社,愛知県,名古屋市港区,入場２丁目３０１番地,,23,111,4550803,,,,,,,2023-04-24,1,,,,,パイン,0
213,1180001155989,新規,0,2023-04-24,2023-04-24,株式会社ｌｉｆｅ,,株式会社,愛知県,名古屋市中村区,名駅５丁目２４番９号,,23,105,4500002,,,,,,,2023-04-24,1,,,,,リフ,0
231,1230001019809,新規,0,2023-04-24,2023-04-24,株式会社Ｔ　ａｎｄ　Ｔ,,株式会社,富山県,射水市,三ケ４０１５番地,,16,211,9390341,,,,,,,2023-04-24,1,,,,,ティーアンドティー,0
241,1250003003255,新規,0,2023-04-24,2023-04-24,合同会社周防灘開発工業,,合同会社,山口県,宇部市,笹山町２丁目７番７号,,35,202,7550015,,,,,,,2023-04-24,1,,,,,スオウナダカイハツコウギョウ,0
246,1290001101296,新規,0,2023-04-24,2023-04-24,モノクローム株式会社,,株式会社,福岡県,福岡市中央区,大名２丁目１１番１６号,,40,133,8100041,,,,,,,2023-04-24,1,,,,,モノクローム,0
247,1290001101305,新規,0,2023-04-24,2023-04-24,株式会社ＲｉｃｈＥｒａ,,株式会社,福岡県,筑紫野市,二日市中央２丁目８番２２－２０２号,,40,217,8180072,,,,,,,2023-04-24,1,,,,,リッチエラ,0
259,1370001049866,新規,0,2023-04-24,2023-04-24,株式会社ＳＳＫ,,株式会社,宮城県,仙台市青葉区,通町２丁目１０番１号菅原アパート１０２,,04,101,9810915,,,,,,,2023-04-24,1,,,,,エスエスケー,0
260,1370001049874,新規,0,2023-04-24,2023-04-24,ａ２ｍ株式会社,,株式会社,宮城県,仙台市泉区,長命ケ丘４丁目１０番地の３,,04,105,9813212,,,,,,,2023-04-24,1,,,,,エーツーエム,0
272,1430001088981,新規,0,2023-04-24,2023-04-24,ＴＡＪ株式会社,,株式会社,北海道,札幌市白石区,川下５９５番地５号,,01,104,0030869,,,,,,,2023-04-24,1,,,,,ティーエージェイ,0
276,1430005014703,新規,0,2023-04-24,2023-04-24,一般社団法人トランク機械シアター,,その他の設立登記法人,北海道,札幌市中央区,南十一条西９丁目４番１号あけぼのアート＆コミュニティセンター１３号,,01,101,0640811,,,,,,,2023-04-24,1,,,,,トランクキカイシアター,0
285,1700150115682,新規,0,2023-04-24,2023-04-24,ｊｉａｎｇｍｅｎｓｈｉ　ｆｅｉｌａｉｍａｎｔｅｄｉａｎｚｉｓｈａｎｇｗｕ　ｙｏｕｘｉａｎｇｏｎｇｓｉ,,外国会社等,,,,,,,,ＣＨＩＮＡ　Ｇｕａｎｇ　ｄｏｎｇ　ｓｈｅｎｇ　ｊｉａｎｇ　ｍｅｎ　ｓｈｉ　ｊｉａｎ　ｈａｉ　ｑｕ　ｗａｉ　ｈａｉ　ｐａ　ｊｉａ　ｔｕ　ｇｕａｎ　ｙｕａｎ　４　ｄｏｎｇ　７０２　ｓｈｉ,,,,,,2023-04-24,1,,,,,ジェンメンシフェライマンテデンシシャンウユウゲンコウシ,0
286,1700150115690,新規,0,2023-04-24,2023-04-24,Ｃｈａｎｇｓｈａ　Ｘｉｎｍａｏｋｅｊｉ　Ｙｏｕｘｉａｎｇｏｎｇｓｉ,,外国会社等,,,,,,,,Ｆｕｒｏｎｇｑｕ　Ｈｅｈｕａｙｕａｎｊｉｅｄａｏ　Ｗａｎｊｉａｌｉｚｈｏｎｇｌｕｙｉｄｕａｎ　１７６ｈａｏ　Ｗａｎｇｄｅｆｕｄａｓｈａ　４０１－Ａ２０１ｈａｏ　Ｈｕｎａｎｓｈｅｎｇ　Ｃｈａｎｇｓｈａｓｈｉ,,,,,,2023-04-24,1,,,,,チャンシャシンマオケジユウゲンコウシ,0
299,2010001234619,新規,0,2023-04-24,2023-04-24,株式会社フェイスフル,,株式会社,東京都,中央区,銀座１丁目１２番４号Ｎ＆ＥＢＬＤ．６Ｆ,,13,102,1040061,,,,,,,2023-04-24,1,,,,,フェイスフル,0
300,2010001234750,新規,0,2023-04-24,2023-04-24,株式会社ｋａｎａｌ,,株式会社,東京都,千代田区,富士見１丁目３－１１,,13,101,1020071,,,,,,,2023-04-24,1,,,,,カナル,0
301,2010001234809,新規,0,2023-04-24,2023-04-24,株式会社ＳＰＡＲＱ,,株式会社,東京都,中央区,晴海３丁目１６番１－２４０２号,,13,102,1040053,,,,,,,2023-04-24,1,,,,,スパーク,0
305,2010003040379,新規,0,2023-04-24,2023-04-24,合同会社無用之用,,合同会社,東京都,千代田区,神田神保町１丁目２１－２一和多ビル２Ｆ,,13,101,1010051,,,,,,,2023-04-24,1,,,,,ムヨウノヨウ,0
306,2010003040412,新規,0,2023-04-24,2023-04-24,合同会社静岡御殿場太陽光発電１号,,合同会社,東京都,千代田区,内幸町１丁目１番１号帝国ホテルタワー１６階,,13,101,1000011,,,,,,,2023-04-24,1,,,,,シズオカゴテンバタイヨウコウハツデンイチゴウ,0
307,2010003040420,新規,0,2023-04-24,2023-04-24,豊町１丁目プロジェクト合同会社,,合同会社,東京都,千代田区,丸の内２丁目３番２号,,13,101,1000005,,,,,,,2023-04-24,1,,,,,ユタカチョウイッチョウメプロジェクト,0
308,2010101015605,新規,0,2023-04-24,2023-04-24,株式会社陽だまりの工務店,,株式会社,東京都,八王子市,上柚木２丁目９番４号,,13,201,1920373,,,,,,,2023-04-24,1,,,,,,0
320,2010401173887,新規,0,2023-04-24,2023-04-24,ＭＣＰ１５株式会社,,株式会社,東京都,港区,元赤坂１丁目１番８号株式会社赤坂国際会計内,,13,103,1070051,,,,,,,2023-04-24,1,,,,,エムシーピーワンファイブ,0
321,2010403030005,新規,0,2023-04-24,2023-04-24,合同会社Ｙｕｒｉ３,,合同会社,東京都,港区,六本木１丁目９番１０号アークヒルズ仙石山森タワー４０階,,13,103,1060032,,,,,,,2023-04-24,1,,,,,ユリスリー,0
325,2010601062989,新規,0,2023-04-24,2023-04-24,株式会社Ｔ＆Ｍ,,株式会社,東京都,墨田区,江東橋３丁目５番７号,,13,107,1300022,,,,,,,2023-04-24,1,,,,,ティーアンドエム,0
326,2010701044160,新規,0,2023-04-24,2023-04-24,株式会社ＲＡＮＵＮ,,株式会社,東京都,品川区,西五反田５丁目２０－４－２０４,,13,109,1410031,,,,,,,2023-04-24,1,,,,,ラナン,0
327,2010701044169,新規,0,2023-04-24,2023-04-24,果実太郎株式会社,,株式会社,東京都,品川区,豊町６丁目３１番１７号,,13,109,1420042,,,,,,,2023-04-24,1,,,,,カジツタロウ,0
329,2010903008120,新規,0,2023-04-24,2023-04-24,合同会社Ｂａｙｓｔｅ,,合同会社,東京都,世田谷区,松原３丁目３７－８ＥＡＳＥ１０１,,13,112,1560043,,,,,,,2023-04-24,1,,,,,,0
339,2011001153998,新規,0,2023-04-24,2023-04-24,ＯＴＯＧＩ　ＰＬＵＳ株式会社,,株式会社,東京都,渋谷区,神宮前６丁目２３番４号桑野ビル２階,,13,113,1500001,,,,,,,2023-04-24,1,,,,,オトギプラス,0
340,2011001154022,新規,0,2023-04-24,2023-04-24,株式会社Ｓ,,株式会社,東京都,渋谷区,宇田川町３４－６－１,,13,113,1500042,,,,,,,2023-04-24,1,,,,,エス,0
344,2011003016708,新規,0,2023-04-24,2023-04-24,合同会社ＭＡＴＯＬＩＴＥ,,合同会社,東京都,目黒区,碑文谷１丁目１６－１３,,13,110,1520003,,,,,,,2023-04-24,1,,,,,マトライト,0
346,2011101102608,新規,0,2023-04-24,2023-04-24,株式会社ＢｉｏＰｈｅｎｏＭＡ,,株式会社,東京都,新宿区,西早稲田１丁目２２番３号,,13,104,1690051,,,,,,,2023-04-24,1,,,,,バイオフェノマ,0
347,2011101102657,新規,0,2023-04-24,2023-04-24,株式会社ブランディ,,株式会社,東京都,新宿区,西新宿４丁目８番１５号ＬＡＰＩＳ西新宿１０４号,,13,104,1600023,,,,,,,2023-04-24,1,,,,,ブランディ,0
349,2011203004066,新規,0,2023-04-24,2023-04-24,合同会社プレイフルネス,,合同会社,東京都,中野区,東中野５丁目１番１－２９０５号,,13,114,1640003,,,,,,,2023-04-24,1,,,,,プレイフルネス,0
350,2011301028644,新規,0,2023-04-24,2023-04-24,株式会社ＡＬＬ　ＷＥ　ＨＡＶＥ,,株式会社,東京都,杉並区,梅里２丁目３４番２４号,,13,115,1660011,,,,,,,2023-04-24,1,,,,,オールウィーハブ,0
351,2011301028652,新規,0,2023-04-24,2023-04-24,株式会社ＢｒｉＮＧ,,株式会社,東京都,杉並区,阿佐谷南３丁目３１番５－４０２号ＫＤＸレジデンス阿佐ヶ谷ＩＩ,00130231,13,115,1660004,,,,,,,2023-04-24,1,,,,,ブリング,0
357,2011503005573,新規,0,2023-04-24,2023-04-24,合同会社サンライズ,,合同会社,東京都,北区,田端３丁目１３番１号,,13,117,1140014,,,,,,,2023-04-24,1,,,,,サンライズ,0
359,2011701026181,新規,0,2023-04-24,2023-04-24,株式会社Ｂｕｌａｍａ,,株式会社,東京都,江戸川区,松江５丁目２７番５号,,13,123,1320025,,,,,,,2023-04-24,1,,,,,ブラマ,0
360,2011801042293,新規,0,2023-04-24,2023-04-24,株式会社ＢＬＵＥＰＯＣＨ,,株式会社,東京都,葛飾区,小菅１丁目３７番１－１０７号ソライエ葛飾小菅,,13,122,1240001,,,,,,,2023-04-24,1,,,,,ノアコウギョウ,0
364,2012401040448,新規,0,2023-04-24,2023-04-24,株式会社ケープラン,,株式会社,東京都,府中市,若松町１丁目２番地の１２－３０１号,,13,206,1830005,,,,,,,2023-04-24,1,,,,,ケープラン,0
365,2012401040464,新規,0,2023-04-24,2023-04-24,株式会社美食,,株式会社,東京都,武蔵野市,吉祥寺本町１丁目２２番１号,,13,203,1800004,,,,,,,2023-04-24,1,,,,,ビショク,0
367,2012703002690,新規,0,2023-04-24,2023-04-24,ＵＭビジネスサポート合同会社,,合同会社,東京都,小平市,花小金井南町３丁目２７番３号,,13,211,1870003,,,,,,,2023-04-24,1,,,,,ユーエムビジネスサポート,0
392,2020001151251,新規,0,2023-04-24,2023-04-24,株式会社ＫＮＧプランニング,,株式会社,神奈川県,横浜市戸塚区,上矢部町３１７７番地５６,,14,110,2450053,,,,,,,2023-04-24,1,,,,,ケーエヌジープランニング,0
393,2020001151292,新規,0,2023-04-24,2023-04-24,株式会社ペリカンの夢企画,,株式会社,神奈川県,川崎市麻生区,細山３丁目１４番６号,,14,137,2150001,,,,,,,2023-04-24,1,,,,,ペリカンノユメキカク,0
401,2021001078708,新規,0,2023-04-24,2023-04-24,ｆｌａｔ‐ｏｒｉｇｉｎ株式会社,,株式会社,神奈川県,藤沢市,大庭５０４３番地の３藤沢大庭アパート１１－５０７,,14,205,2510861,,,,,,,2023-04-24,1,,,,,フラットオリジン,0
402,2021001078815,新規,0,2023-04-24,2023-04-24,株式会社クライス,,株式会社,神奈川県,相模原市南区,上鶴間本町６丁目１４番３４号,,14,153,2520318,,,,,,,2023-04-24,1,,,,,クライス,0
403,2021001078831,新規,0,2023-04-24,2023-04-24,株式会社ラック・ウェルス,,株式会社,神奈川県,大和市,桜森２丁目２７番４号,,14,213,2420028,,,,,,,2023-04-24,1,,,,,ラックウェルス,0
408,2030001153569,新規,0,2023-04-24,2023-04-24,武田住建株式会社,,株式会社,埼玉県,さいたま市桜区,西堀６丁目３番１－１０１号,,11,106,3380832,,,,,,,2023-04-24,1,,,,,タケダジュウケン,0
410,2030003021625,新規,0,2023-04-24,2023-04-24,ＺＡＮＺＡＮ合同会社,,合同会社,埼玉県,川口市,西川口３丁目２９番１８号ヒロイトビル６０１号,,11,203,3320021,,,,,,,2023-04-24,1,,,,,ザンザン,0
411,2030003021633,新規,0,2023-04-24,2023-04-24,合同会社Ｊｏｌｌｙ　Ｒｏｇｅｒ,,合同会社,埼玉県,久喜市,久喜北１丁目７番８号,,11,232,3460007,,,,,,,2023-04-24,1,,,,,ジョリーロジャー,0
412,2030003021641,新規,0,2023-04-24,2023-04-24,合同会社ＬＩＦＩＸ,,合同会社,埼玉県,川口市,八幡木３丁目１８番２９号,,11,203,3340012,,,,,,,2023-04-24,1,,,,,リフィックス,0
429,2040001128082,新規,0,2023-04-24,2023-04-24,ＢＴＣ株式会社,,株式会社,千葉県,松戸市,根木内６２２番地の９,,12,207,2700011,,,,,,,2023-04-24,1,,,,,ビーティーシー,0
442,2040003022457,新規,0,2023-04-24,2023-04-24,合同会社ＰＲＩＳＭ,,合同会社,千葉県,野田市,桜台１０７９番地の２クレマチスＡ１０１,,12,208,2780032,,,,,,,2023-04-24,1,,,,,プリズム,0
450,2050003007432,新規,0,2023-04-24,2023-04-24,Ｇ．Ｒ　ＦＲＥＩＧＨＴＥＲＳ合同会社,,合同会社,茨城県,稲敷郡美浦村,大字大須賀津１１８８番地８,,08,442,3000422,,,,,,,2023-04-24,1,,,,,ジーアールフレイターズ,0
453,2050005013255,新規,0,2023-04-24,2023-04-24,ＮＰＯ法人未来あいむす,,その他の設立登記法人,茨城県,鹿嶋市,大字武井２０９３番地２４,,08,222,3112206,,,,,,,2023-04-24,1,,,,,ミライアイムス,0
479,2090005007559,新規,0,2023-04-24,2023-04-24,一般社団法人ミモザ保育園,,その他の設立登記法人,山梨県,甲斐市,西八幡２３１５番地１,,19,210,4000117,,,,,,,2023-04-24,1,,,,,,0
480,2100001036337,新規,0,2023-04-24,2023-04-24,株式会社小林深礎,,株式会社,長野県,松本市,大字岡田下岡田１５０－５,,20,202,3900313,,,,,,,2023-04-24,1,,,,,コバヤシシンソ,0
481,2100001036345,新規,0,2023-04-24,2023-04-24,株式会社ｇｒａｃｅ,,株式会社,長野県,佐久市,岩村田１１６２－１１,,20,217,3850022,,,,,,,2023-04-24,1,,,,,グレイス,0
483,2100005013002,新規,0,2023-04-24,2023-04-24,一般社団法人まつかわ・すたいる,,その他の設立登記法人,長野県,下伊那郡松川町,元大島１４８０番地１８,,20,402,3993303,,,,,,,2023-04-24,1,,,,,マツカワスタイル,0
485,2110001037466,新規,0,2023-04-24,2023-04-24,ＭＷ株式会社,,株式会社,新潟県,阿賀野市,緑町５番２７号,,15,223,9592034,,,,,,,2023-04-24,1,,,,,エムダブリュー,0
502,2120001254259,新規,0,2023-04-24,2023-04-24,株式会社ＬＩＦＡ,,株式会社,大阪府,大阪市西成区,天神ノ森１丁目１２番３号ライズワン天神ノ森Ａ２０１号,,27,122,5570013,,,,,,,2023-04-24,1,,,,,リファ,0
503,2120001254325,新規,0,2023-04-24,2023-04-24,株式会社大島石材店,,株式会社,大阪府,大阪市天王寺区,下寺町２丁目３番１１号,,27,109,5430076,,,,,,,2023-04-24,1,,,,,オオシマセキザイテン,0
504,2120001254382,新規,0,2023-04-24,2023-04-24,アズマ株式会社,,株式会社,大阪府,大阪市西区,土佐堀２丁目３番１３号,,27,106,5500001,,,,,,,2023-04-24,1,,,,,アズマ,0
506,2120003023892,新規,0,2023-04-24,2023-04-24,合同会社ＺＥＮＩＫＥ,,合同会社,大阪府,大阪市中央区,久太郎町３丁目１番１５号Ｍｅｂｉｕｓ御堂筋本町ビル８０５,,27,128,5410056,,,,,,,2023-04-24,1,,,,,ゼンイケ,0
515,2130001074128,新規,0,2023-04-24,2023-04-24,株式会社Ｋ‐ＰＲＯＭＯＴＩＯＮ,,株式会社,京都府,京都市下京区,鶏鉾町４９３番地７Ｆ,,26,106,6008491,,,,,,,2023-04-24,1,,,,,ケープロモーション,0
521,2140001129888,新規,0,2023-04-24,2023-04-24,株式会社ａｉｌｅ　ｍｅ,,株式会社,兵庫県,神戸市中央区,磯辺通４丁目１番２８号,,28,110,6510084,,,,,,,2023-04-24,1,,,,,アイルミー,0
522,2140001129896,新規,0,2023-04-24,2023-04-24,株式会社ｓｈａｎ,,株式会社,兵庫県,尼崎市,潮江５丁目２番２５－４０３号,,28,202,6610976,,,,,,,2023-04-24,1,,,,,シャン,0
523,2140001129905,新規,0,2023-04-24,2023-04-24,株式会社Ｒｕｎ＆Ｗａｌｋ,,株式会社,兵庫県,佐用郡佐用町,西下野２００番地２,,28,501,6795222,,,,,,,2023-04-24,1,,,,,ランアンドウォーク,0
524,2140001129913,新規,0,2023-04-24,2023-04-24,株式会社アクシア,,株式会社,兵庫県,神戸市中央区,下山手通２丁目１３番３号,,28,110,6500011,,,,,,,2023-04-24,1,,,,,アクシア,0
525,2140001129938,新規,0,2023-04-24,2023-04-24,ＮＩＲＯ　ＣＯＲＰＯＲＡＴＩＯＮ株式会社,,株式会社,兵庫県,神戸市東灘区,向洋町東３丁目１５－２,,28,101,6580031,,,,,,,2023-04-24,1,,,,,ニロコーポレーション,0
529,2140003018998,新規,0,2023-04-24,2023-04-24,合同会社ウェルズ,,合同会社,兵庫県,相生市,赤坂２丁目１２番２６号プリニエ赤坂１０１,,28,208,6780021,,,,,,,2023-04-24,1,,,,,ウェルズ,0
531,2150001026333,新規,0,2023-04-24,2023-04-24,株式会社ＳＡＣＲＥＤ,,株式会社,奈良県,大和郡山市,額田部北町２１０番地２,,29,203,6391037,,,,,,,2023-04-24,1,,,,,セイクリッド,0
532,2150003002943,新規,0,2023-04-24,2023-04-24,モリタシステム合同会社,,合同会社,奈良県,奈良市,南京終町６５番地の３,,29,201,6308141,,,,,,,2023-04-24,1,,,,,モリタシステム,0
543,2180001155996,新規,0,2023-04-24,2023-04-24,株式会社ＢＡＮＫ　ＯＫＵＲＡ,,株式会社,愛知県,名古屋市中区,富士見町８番８号,,23,106,4600014,,,,,,,2023-04-24,1,,,,,バンクオオクラ,0
550,2180003025157,新規,0,2023-04-24,2023-04-24,合同会社マルモモ,,合同会社,愛知県,知多市,南巽が丘１丁目７７番地,00130234,23,224,4780013,,,,,,,2023-04-24,1,,,,,マルモモ,0
563,2210001019289,新規,0,2023-04-24,2023-04-24,ＮＥＣＯ・ｎｏ・Ｔｅエンジニア株式会社,,株式会社,福井県,鯖江市,長泉寺町４号５番地１６,,18,207,9160024,,,,,,,2023-04-24,1,,,,,ネコノテエンジニア,0
568,2230001019808,新規,0,2023-04-24,2023-04-24,マイティー株式会社,,株式会社,富山県,富山市,野口１０９２番地３第２サンシャインくれは３０１号,,16,201,9300173,,,,,,,2023-04-24,1,,,,,マイティー,0
575,2270001008765,新規,0,2023-04-24,2023-04-24,株式会社Ｓｅａ　ｇｒｅｅｎ,,株式会社,鳥取県,鳥取市,湖山町東３丁目５１番地１,,31,201,6800942,,,,,,,2023-04-24,1,,,,,シーグリーン,0
584,2290001101254,新規,0,2023-04-24,2023-04-24,株式会社ＴＭＴ,,株式会社,福岡県,福岡市早良区,城西１丁目８番１７－３０５号,,40,137,8140003,,,,,,,2023-04-24,1,,,,,ティーエムティー,0
585,2290001101287,新規,0,2023-04-24,2023-04-24,ヴェルテックス株式会社,,株式会社,福岡県,福岡市博多区,金の隈１丁目２８番５０号,,40,132,8120863,,,,,,,2023-04-24,1,,,,,ヴェルテックス,0
586,2290001101295,新規,0,2023-04-24,2023-04-24,株式会社ＢＩＤＯＷ,,株式会社,福岡県,福岡市南区,若久２丁目２９番２０号,,40,134,8150042,,,,,,,2023-04-24,1,,,,,ビドウ,0
587,2290003013811,新規,0,2023-04-24,2023-04-24,合同会社ＳＯＬＥＩＬ,,合同会社,福岡県,福岡市東区,箱崎７丁目３番１０号６０３号室,,40,131,8120053,,,,,,,2023-04-24,1,,,,,ソレイユ,0
588,2290003013828,新規,0,2023-04-24,2023-04-24,ＧＩＡ　ＢＡＯ合同会社,,合同会社,福岡県,福岡市東区,筥松３丁目１０番２２号コーポ須恵２０２号,,40,131,8120061,,,,,,,2023-04-24,1,,,,,ジャバオ,0
590,2290005019014,新規,0,2023-04-24,2023-04-24,荘厳院,,その他の設立登記法人,福岡県,八女市,立花町北山１８６０‐１番地,,40,210,8340085,,,,,,,2023-04-24,1,,,,,ショウゴンイン,0
592,2290801029488,新規,0,2023-04-24,2023-04-24,株式会社ｓｏｎｏ　ｃｏｎｔｅｎｔｏ,,株式会社,福岡県,北九州市門司区,浜町１１番７－１１０３号,,40,101,8010856,,,,,,,2023-04-24,1,,,,,ソノコンテント,0
594,2290803004398,新規,0,2023-04-24,2023-04-24,合同会社にじプロジェクト,,合同会社,福岡県,北九州市八幡西区,本城東３丁目４番４６号,,40,109,8070815,,,,,,,2023-04-24,1,,,,,ニジプロジェクト,0
595,2290805009651,新規,0,2023-04-24,2023-04-24,一般社団法人先進美容機器認証機構,,その他の設立登記法人,福岡県,行橋市,門樋町２番１１号,,40,213,8240006,,,,,,,2023-04-24,1,,,,,センシンビヨウキキニンショウキコウ,0
597,2300003001954,新規,0,2023-04-24,2023-04-24,峰碩商事合同会社,,合同会社,佐賀県,佐賀市,久保田町大字久富３４６１番地１サンハイツＡ－９,,41,201,8490202,,,,,,,2023-04-24,1,,,,,ボウセキショウジ,0
604,2340001025530,新規,0,2023-04-24,2023-04-24,株式会社Ｖａｓｅ　Ａｇｅｎｔ,,株式会社,鹿児島県,鹿児島市,千日町６－３鶴田ビル２階,,46,201,8920843,,,,,,,2023-04-24,1,,,,,ベイスエージェント,0
614,2380003005444,新規,0,2023-04-24,2023-04-24,合同会社ｎａｒｒａｔｉｖｅ,,合同会社,福島県,双葉郡楢葉町,大字下小塙字風呂内２２,,07,542,9790514,,,,,,,2023-04-24,1,,,,,ナラティブ,0
627,2430001088915,新規,0,2023-04-24,2023-04-24,株式会社ｗｅｌｆａｒｅ　ｎｅｘｔ,,株式会社,北海道,札幌市北区,屯田六条７丁目３番３－３０５号,,01,102,0020856,,,,,,,2023-04-24,1,,,,,ウェルフェアネクスト,0
632,2430005014702,新規,0,2023-04-24,2023-04-24,一般社団法人今日いちにち,,その他の設立登記法人,北海道,札幌市豊平区,中の島二条１丁目２番１号ハウスオブリザ中の島Ｉ－１階Ａ号室,00130218,01,105,0620922,,,,,,,2023-04-24,1,,,,,キョウイチニチ,0
635,2700150114642,新規,0,2023-04-24,2023-04-24,深セン市犀利眼科技有限公司,,外国会社等,,,,,,,,中国深セン市龍華区龍華街道富康社区富康商業広場Ｄ棟７１２／７１３室,,,,,,2023-04-24,1,,,,,シンセンシサイリガンカギユウゲンコウシ,0
636,2700150115681,新規,0,2023-04-24,2023-04-24,ｈｕｉ　ｚｈｏｕ　ｓｈｉ　ｙｉ　ｘｉ　ｋｅ　ｊｉ　ｙｏｕ　ｘｉａｎ　ｇｏｎｇ　ｓｉ,,外国会社等,,,,,,,,ｈｕｉ　ｄｏｎｇ　ｘｉａｎ　ｐｉｎｇ　ｓｈａｎ　ｊｉｎ　ｇｕａｎｇ　ｙａｎ　ｊｉａｎｇ　ｂｉａｎ　ｄｉ　ｄｕａｎ（Ｄｄｏｎｇ，Ｅｄｏｎｇ，Ｇｄｏｎｇ）８ｈａｏ　ｓｉ　ｌｏｕ　４０１,,,,,,2023-04-24,1,,,,,ホェイゾウシイシケジユウゲンコウシ,0
647,3010001234634,新規,0,2023-04-24,2023-04-24,ミラゴルフ株式会社,,株式会社,東京都,中央区,銀座１丁目１６－１東貸ビル９階,,13,102,1040061,,,,,,,2023-04-24,1,,,,,ミラゴルフ,0
648,3010001234700,新規,0,2023-04-24,2023-04-24,縁長生株式会社,,株式会社,東京都,千代田区,九段北１丁目９番５号・朝日九段マンション１１１２号室,,13,101,1020073,,,,,,,2023-04-24,1,,,,,エニシチョウセイ,0
649,3010001234709,新規,0,2023-04-24,2023-04-24,株式会社エクスプロア,,株式会社,東京都,中央区,晴海２丁目５番１６－１０１１号,,13,102,1040053,,,,,,,2023-04-24,1,,,,,エクスプロア,0
650,3010001234733,新規,0,2023-04-24,2023-04-24,ＡＳＯ　Ｐｒｏｐｅｒｔｙ　Ｊａｐａｎ株式会社,,株式会社,東京都,千代田区,三番町１番地１３ワールド・ワイド・センター,,13,101,1020075,,,,,,,2023-04-24,1,,,,,アソウプロパティジャパン,0
651,3010001234741,新規,0,2023-04-24,2023-04-24,株式会社Ｂｅｅｉｎ,,株式会社,東京都,中央区,銀座１丁目１２番４号Ｎ＆ＥＢＬＤ．６Ｆ,,13,102,1040061,,,,,,,2023-04-24,1,,,,,ビーイン,0
653,3010003040337,新規,0,2023-04-24,2023-04-24,合同会社武蔵,,合同会社,東京都,中央区,銀座１丁目１２番４号Ｎ＆ＥＢＬＤ．７階,,13,102,1040061,,,,,,,2023-04-24,1,,,,,タケクラ,0
654,3010003040411,新規,0,2023-04-24,2023-04-24,合同会社静岡御殿場太陽光発電２号,,合同会社,東京都,千代田区,内幸町１丁目１番１号帝国ホテルタワー１６階,,13,101,1000011,,,,,,,2023-04-24,1,,,,,シズオカゴテンバタイヨウコウハツデンニゴウ,0
657,3010101015612,新規,0,2023-04-24,2023-04-24,株式会社追分葬儀社,,株式会社,東京都,八王子市,追分町８番１０号,,13,201,1920056,,,,,,,2023-04-24,1,,,,,オイワケソウギシャ,0
671,3010401173820,新規,0,2023-04-24,2023-04-24,Ｐｅｏｐｌｅ株式会社,,株式会社,東京都,港区,六本木１丁目７番１０号パークコート六本木ヒルトップ１２１１,,13,103,1060032,,,,,,,2023-04-24,1,,,,,ピープル,0
672,3010401173861,新規,0,2023-04-24,2023-04-24,株式会社Ｓｍａｒｔ　Ｒｅｌａｔｉｏｎ,,株式会社,東京都,港区,麻布十番１丁目５番２６号,,13,103,1060045,,,,,,,2023-04-24,1,,,,,スマートリレーション,0
673,3010401173886,新規,0,2023-04-24,2023-04-24,ＭＣＰ１４株式会社,,株式会社,東京都,港区,元赤坂１丁目１番８号株式会社赤坂国際会計内,,13,103,1070051,,,,,,,2023-04-24,1,,,,,エムシーピーワンフォー,0
674,3010401173928,新規,0,2023-04-24,2023-04-24,株式会社ｅｔｅｒｎｉｔｙ,,株式会社,東京都,港区,南青山２丁目２番１５号ＷｉｎＡｏｙａｍａビルＵＣＦ６３５,,13,103,1070062,,,,,,,2023-04-24,1,,,,,エタニティ,0
693,3010903008094,新規,0,2023-04-24,2023-04-24,合同会社ｙＫｓ,,合同会社,東京都,世田谷区,松原５丁目８－１５,,13,112,1560043,,,,,,,2023-04-24,1,,,,,ワイケーエス,0
706,3011001153980,新規,0,2023-04-24,2023-04-24,株式会社Ｈｕｍａｎ　ＣＯＮＮＥＣＴ,,株式会社,東京都,渋谷区,神宮前６丁目２３番４号桑野ビル２階,,13,113,1500001,,,,,,,2023-04-24,1,,,,,ヒューマンコネクト,0
707,3011001153997,新規,0,2023-04-24,2023-04-24,株式会社エスマイル,,株式会社,東京都,渋谷区,神宮前６丁目１９番１５号,,13,113,1500001,,,,,,,2023-04-24,1,,,,,エスマイル,0
714,3011201024602,新規,0,2023-04-24,2023-04-24,メディジー株式会社,,株式会社,東京都,中野区,中央４丁目６０－５自然村ビル４Ａ,,13,114,1640011,,,,,,,2023-04-24,1,,,,,メディジー,0
717,3011301028651,新規,0,2023-04-24,2023-04-24,株式会社Ｎ．Ｌ．ＣＬＯＶＥＲ,,株式会社,東京都,杉並区,堀ノ内３丁目６番５号１０７,,13,115,1660013,,,,,,,2023-04-24,1,,,,,エヌエルクローバー,0
721,3011701026172,新規,0,2023-04-24,2023-04-24,エヌエステック株式会社,,株式会社,東京都,江戸川区,西小岩５丁目４番１５－４０７号,,13,123,1330057,,,,,,,2023-04-24,1,,,,,エヌエステック,0
725,3012301013412,新規,0,2023-04-24,2023-04-24,株式会社Ｋａｚ　Ｌａｂｏｒａｔｏｒｙ,,株式会社,東京都,町田市,成瀬台３丁目３０番地６,,13,209,1940043,,,,,,,2023-04-24,1,,,,,カズラボラトリー,0
741,3020001151267,新規,0,2023-04-24,2023-04-24,アークーリア株式会社,,株式会社,神奈川県,横浜市西区,北幸１丁目１番８号エキニア横浜５階横浜セントラルオフィスＨａｍａＰｏｒｔ内,,14,103,2200004,,,,,,,2023-04-24,1,,,,,アークーリア,0
742,3020001151283,新規,0,2023-04-24,2023-04-24,株式会社Ｍｙグローバルコンサルタンツ,,株式会社,神奈川県,川崎市宮前区,鷺沼４丁目１４番地２鷺沼の杜Ｂ－５０９,,14,136,2160004,,,,,,,2023-04-24,1,,,,,マイグローバルコンサルタンツ,0
743,3020001151291,新規,0,2023-04-24,2023-04-24,株式会社ＬＩＦＩＸ,,株式会社,神奈川県,横浜市青葉区,恩田町４４番地３カーサブラン１０１,,14,117,2270065,,,,,,,2023-04-24,1,,,,,リフィックス,0
754,3021001078789,新規,0,2023-04-24,2023-04-24,株式会社日本五月花不動産,,株式会社,神奈川県,平塚市,袖ケ浜１４番３３号,,14,203,2540813,,,,,,,2023-04-24,1,,,,,ニホンサツキバナフドウサン,0
755,3021001078822,新規,0,2023-04-24,2023-04-24,株式会社Ｍｉｒａｉ‐Ｈｅａｒｔ,,株式会社,神奈川県,相模原市中央区,並木３丁目２番１２号,,14,152,2520228,,,,,,,2023-04-24,1,,,,,ミライハート,0
758,3021003013018,新規,0,2023-04-24,2023-04-24,地球もわたしも元気になる合同会社,,合同会社,神奈川県,横須賀市,小川町１９番地５富士ビル３階,,14,201,2380004,,,,,,,2023-04-24,1,,,,,チキュウモワタシモゲンキニナル,0
766,3030001153592,新規,0,2023-04-24,2023-04-24,株式会社埼玉たまがわ,,株式会社,埼玉県,比企郡小川町,大字増尾４９７番地１２,,11,343,3550332,,,,,,,2023-04-24,1,,,,,サイタマタマガワ,0
767,3030003021632,新規,0,2023-04-24,2023-04-24,合同会社ななほし,,合同会社,埼玉県,東松山市,大字野田１１０３番地３,,11,212,3550007,,,,,,,2023-04-24,1,,,,,ナナホシ,0
768,3030003021640,新規,0,2023-04-24,2023-04-24,合同会社Ａ・Ｆ　ＥＮＴＥＲＰＲＩＳＥＳ,,合同会社,埼玉県,熊谷市,広瀬５４７番地２,,11,202,3600833,,,,,,,2023-04-24,1,,,,,エーエフエンタープライゼス,0
782,3040001128107,新規,0,2023-04-24,2023-04-24,株式会社ヒロ建装,,株式会社,千葉県,船橋市,二和西２丁目２２－５５,,12,204,2740806,,,,,,,2023-04-24,1,,,,,ヒロケンソウ,0
786,3040003022464,新規,0,2023-04-24,2023-04-24,合同会社ＮＯＤＡ　ＡＵＴＯ,,合同会社,千葉県,野田市,今上４８６番地２,,12,208,2780025,,,,,,,2023-04-24,1,,,,,ノダオート,0
787,3040005021976,新規,0,2023-04-24,2023-04-24,一般社団法人ｃｏｍｍｕｎｅ,,その他の設立登記法人,千葉県,流山市,西松ケ丘１丁目６０メゾンハイアット２０６,,12,220,2700142,,,,,,,2023-04-24,1,,,,,コミューン,0
791,3050005013254,新規,0,2023-04-24,2023-04-24,一般社団法人いばらき国際観光推進連盟,,その他の設立登記法人,茨城県,つくば市,研究学園５丁目１２－１０,,08,220,3050817,,,,,,,2023-04-24,1,,,,,イバラキコクサイカンコウスイシンレンメイ,0
797,3090003002305,新規,0,2023-04-24,2023-04-24,森川合同会社,,合同会社,山梨県,笛吹市,石和町小石和１５３番地３,,19,211,4060033,,,,,,,2023-04-24,1,,,,,モリカワ,0
800,3100001036344,新規,0,2023-04-24,2023-04-24,株式会社朝日総設,,株式会社,長野県,東筑摩郡朝日村,大字古見１１６４番地２,,20,451,3901104,,,,,,,2023-04-24,1,,,,,アサヒソウセツ,0
801,3100003006989,新規,0,2023-04-24,2023-04-24,ＧＩＡ　ＬＯＮＧ合同会社,,合同会社,長野県,松本市,深志２丁目５番１３号,,20,202,3900815,,,,,,,2023-04-24,1,,,,,ジャロン,0
818,3120001254258,新規,0,2023-04-24,2023-04-24,株式会社ＲＭ,,株式会社,大阪府,大阪市浪速区,日本橋５丁目１４番１６号マンション富士信３０１号,,27,111,5560005,,,,,,,2023-04-24,1,,,,,アールエム,0
819,3120001254290,新規,0,2023-04-24,2023-04-24,株式会社はぴとり,,株式会社,大阪府,大阪市中央区,西心斎橋２丁目３番７号西井ビル３階,,27,128,5420086,,,,,,,2023-04-24,1,,,,,ハピトリ,0
820,3120001254332,新規,0,2023-04-24,2023-04-24,株式会社リフィックス,,株式会社,大阪府,大阪市旭区,生江３丁目２０番２６号,,27,117,5350004,,,,,,,2023-04-24,1,,,,,リフィックス,0
828,3120103005187,新規,0,2023-04-24,2023-04-24,合同会社愛サイト,,合同会社,大阪府,泉大津市,二田町１丁目９番１３号,,27,206,5950015,,,,,,,2023-04-24,1,,,,,アイサイト,0
829,3120903004603,新規,0,2023-04-24,2023-04-24,ＳＴＡＲ　ＦＩＲＳＴ合同会社,,合同会社,大阪府,箕面市,森町南２丁目１１番３６号,,27,220,5630258,,,,,,,2023-04-24,1,,,,,スターファースト,0
846,3140001129904,新規,0,2023-04-24,2023-04-24,松超産業株式会社,,株式会社,兵庫県,西脇市,黒田庄町船町２７８番地の１,,28,213,6790304,,,,,,,2023-04-24,1,,,,,マツキサンギョウ,0
847,3140001129929,新規,0,2023-04-24,2023-04-24,株式会社アクセル,,株式会社,兵庫県,宝塚市,花屋敷荘園２丁目５番２号,,28,214,6650802,,,,,,,2023-04-24,1,,,,,アクセル,0
848,3140003018997,新規,0,2023-04-24,2023-04-24,Ａｋａｓｈ　Ｉｎｔｅｒｎａｔｉｏｎａｌ合同会社,,合同会社,兵庫県,加西市,北条町横尾６８３番地,,28,220,6752311,,,,,,,2023-04-24,1,,,,,アカシインターナショナル,0
850,3160001024995,新規,0,2023-04-24,2023-04-24,株式会社坂井,,株式会社,滋賀県,栗東市,下戸山１１１１番地１（１０１号）シャーメゾンｐｌｕｓ＋,,25,208,5203011,,,,,,,2023-04-24,1,,,,,サカイ,0
859,3180001155962,新規,0,2023-04-24,2023-04-24,株式会社ＦＬＥＸ’ｓ,,株式会社,愛知県,名古屋市名東区,小池町４５７番地,,23,115,4650047,,,,,,,2023-04-24,1,,,,,フレックス,0
864,3180003025115,新規,0,2023-04-24,2023-04-24,合同会社ＢＭＡ,,合同会社,愛知県,名古屋市中村区,名駅４丁目２４番５号第２森ビル４０１,,23,105,4500002,,,,,,,2023-04-24,1,,,,,ビーエムエー,0
865,3180003025156,新規,0,2023-04-24,2023-04-24,合同会社礼笑,,合同会社,愛知県,江南市,前野町東１９７,,23,217,4838052,,,,,,,2023-04-24,1,,,,,リショウ,0
883,3220001025376,新規,0,2023-04-24,2023-04-24,株式会社ｔｏ‐ａｎ,,株式会社,石川県,金沢市,入江２丁目４０１番地,,17,201,9218011,,,,,,,2023-04-24,1,,,,,トウアン,0
891,3250001020060,新規,0,2023-04-24,2023-04-24,株式会社美佳茉,,株式会社,山口県,下関市,稗田中町１６番５号（３０２）,,35,201,7510856,,,,,,,2023-04-24,1,,,,,ミヨシマ,0
897,3260003004291,新規,0,2023-04-24,2023-04-24,合同会社開花,,合同会社,岡山県,岡山市北区,楢津８２８番地１,,33,101,7011202,,,,,,,2023-04-24,1,,,,,カイカ,0
901,3290001101278,新規,0,2023-04-24,2023-04-24,株式会社ダイシンエステートサービス,,株式会社,福岡県,福岡市早良区,室見５丁目９番９号,,40,137,8140015,,,,,,,2023-04-24,1,,,,,ダイシンエステートサービス,0
902,3290001101286,新規,0,2023-04-24,2023-04-24,株式会社森野電工,,株式会社,福岡県,大牟田市,大字歴木９７６番地２４,,40,202,8370924,,,,,,,2023-04-24,1,,,,,モリノデンコウ,0
903,3290001101294,新規,0,2023-04-24,2023-04-24,株式会社アイテム・トータルサポート,,株式会社,福岡県,福岡市早良区,荒江３丁目２６番２２－１１０号,,40,137,8140021,,,,,,,2023-04-24,1,,,,,アイテムトータルサポート,0
904,3290001101303,新規,0,2023-04-24,2023-04-24,北斗商事株式会社,,株式会社,福岡県,福岡市東区,多の津１丁目１０－１－４２７,,40,131,8130034,,,,,,,2023-04-24,1,,,,,ホクトショウジ,0
908,3290003013802,新規,0,2023-04-24,2023-04-24,合同会社Ｔｏｋｉ＆Ｃｏ．,,合同会社,福岡県,久留米市,青峰２丁目２７―８,,40,203,8390853,,,,,,,2023-04-24,1,,,,,トキアンドカンパニー,0
909,3290003013827,新規,0,2023-04-24,2023-04-24,合同会社リンク,,合同会社,福岡県,福岡市東区,下原４丁目１０－１０－１,,40,131,8130002,,,,,,,2023-04-24,1,,,,,リンク,0
912,3320001019707,新規,0,2023-04-24,2023-04-24,やまなみ株式会社,,株式会社,大分県,由布市,湯布院町川上３５４９－２,,44,213,8795102,,,,,,,2023-04-24,1,,,,,ヤマナミ,0
914,3320003004070,新規,0,2023-04-24,2023-04-24,すど福祉保健合同会社,,合同会社,大分県,佐伯市,池船町１１－１１,,44,205,8760833,,,,,,,2023-04-24,1,,,,,スドフクシホケン,0
921,3360001031897,新規,0,2023-04-24,2023-04-24,株式会社Ｌｏａ　Ｒｅｓｏｒｔ,,株式会社,沖縄県,宜野湾市,大山１丁目１０番１８号,,47,205,9012223,,,,,,,2023-04-24,1,,,,,ロアリゾート,0
922,3360001031906,新規,0,2023-04-24,2023-04-24,株式会社たいせい,,株式会社,沖縄県,浦添市,前田１丁目４８番２号（２０２）,,47,208,9012102,,,,,,,2023-04-24,1,,,,,タイセイ,0
923,3360001031914,新規,0,2023-04-24,2023-04-24,Ｒ・Ｋ株式会社,,株式会社,沖縄県,浦添市,内間４丁目１番５号,,47,208,9012121,,,,,,,2023-04-24,1,,,,,アールケー,0
924,3360001031922,新規,0,2023-04-24,2023-04-24,株式会社チャンプルー家,,株式会社,沖縄県,那覇市,高良１丁目２番９号,,47,201,9010145,,,,,,,2023-04-24,1,,,,,チャンプルーヤ,0
925,3360003012912,新規,0,2023-04-24,2023-04-24,合同会社興和設備,,合同会社,沖縄県,中頭郡北谷町,字吉原２９番地,,47,326,9040105,,,,,,,2023-04-24,1,,,,,コウワセツビ,0
926,3360005006838,新規,0,2023-04-24,2023-04-24,一般社団法人サステナブルアイランド石垣,,その他の設立登記法人,沖縄県,石垣市,字新川１９５５番地１ＮＳｈｏｕｓｅ４－Ｃ,,47,207,9070024,,,,,,,2023-04-24,1,,,,,サステナブルアイランドイシガキ,0
945,3430005014701,新規,0,2023-04-24,2023-04-24,一般社団法人がんばろうすすきの実行委員会,,その他の設立登記法人,北海道,札幌市中央区,南七条西４丁目２－５ＬＣ七番館２階『おはようぐんまちゃんず』,,01,101,0640807,,,,,,,2023-04-24,1,,,,,,0
951,3700150114641,新規,0,2023-04-24,2023-04-24,深セン市永輝楽科技有限公司,,外国会社等,,,,,,,,中国深セン市龍華区民治街道新牛社区泰明工業区３棟六楼Ｂ－２,,,,,,2023-04-24,1,,,,,シンセンシエイキラクカギユウゲンコウシ,0
952,3700150115680,新規,0,2023-04-24,2023-04-24,ｈｕｉｚｈｏｕｓｈｉ　ｙｉｓｈｅｎｇｙｕａｎｋｅｊｉ　ｙｏｕｘｉａｎｇｏｎｇｓｉ,,外国会社等,,,,,,,,２ｎｄ　Ｆｌｏｏｒ，Ｂｕｉｌｄｉｎｇ　４２，Ｌｏｎｇｍｅｎｈｏｎｇ　Ｉｎｄｕｓｔｒｉａｌ　Ｚｏｎｅ，Ｉｎｄｕｓｔｒｉａｌ　５ｔｈ　Ｒｏａｄ，Ｈｕｉｚｈｏｕ　Ｉｎｄｕｓｔｒｉａｌ　Ｔｒａｎｓｆｅｒ　Ｉｎｄｕｓｔｒｉａｌ　Ｈｕｉｚｈｏｕ　Ｇｕａｎｇｄｏｎｇ,,,,,,2023-04-24,1,,,,,ホェイゾウシイシェンユェンケジユウゲンコウシ,0
953,3700150115689,新規,0,2023-04-24,2023-04-24,Ｓｈｉｊｉａｚｈｕａｎｇ　Ｂｅｎｇｕａｎ　Ｔｒａｄｉｎｇ　Ｃｏ．，Ｌｔｄ,,外国会社等,,,,,,,,ｃｈａｎｇａｎｑｕ　ｓｈｉｌｉｐｕ　ｄａｊｉｅ　５ｈａｏｍｅｎｓｈｉ　ｓｈｉｊｉａｚｈｕａｎｇ　Ｈｅｂｅｉ　Ｐｒｏｖｉｎｃｅ,,,,,,2023-04-24,1,,,,,シジャズァンベングアントレーディングカブシキカイシャ,0
963,4010001234641,新規,0,2023-04-24,2023-04-24,株式会社店舗高値買取センター,,株式会社,東京都,千代田区,神田駿河台１丁目７番地１０ＹＫ駿河台ビル４階,,13,101,1010062,,,,,,,2023-04-24,1,,,,,テンポタカネカイトリセンター,0
964,4010001234732,新規,0,2023-04-24,2023-04-24,株式会社成和パートナーズ,,株式会社,東京都,千代田区,内神田３丁目１７番５号稲垣内神田ビル１階,,13,101,1010047,,,,,,,2023-04-24,1,,,,,セイワパートナーズ,0
965,4010003040410,新規,0,2023-04-24,2023-04-24,合同会社静岡御殿場太陽光発電３号,,合同会社,東京都,千代田区,内幸町１丁目１番１号帝国ホテルタワー１６階,,13,101,1000011,,,,,,,2023-04-24,1,,,,,シズオカゴテンバタイヨウコウハツデンサンゴウ,0
966,4010005036555,新規,0,2023-04-24,2023-04-24,ベゴニア一般社団法人,,その他の設立登記法人,東京都,千代田区,丸の内３丁目１番１号東京共同会計事務所内,,13,101,1000005,,,,,,,2023-04-24,1,,,,,ベゴニア,0
967,4010103002129,新規,0,2023-04-24,2023-04-24,クレオ合同会社,,合同会社,東京都,八王子市,上柚木３丁目５番地４－２１１,,13,201,1920373,,,,,,,2023-04-24,1,,,,,,0
973,4010401173687,新規,0,2023-04-24,2023-04-24,株式会社ＨＥＭＩＬＬＩＯＮＳ,,株式会社,東京都,港区,海岸１丁目７番１号,,13,103,1050022,,,,,,,2023-04-24,1,,,,,ヘミリオンズ,0
974,4010401173927,新規,0,2023-04-24,2023-04-24,Ｌｉｆｅ　Ｒｅｖｅｒｓａｌ株式会社,,株式会社,東京都,港区,青山二丁目２番１５号,,13,103,1050000,,,,,,,2023-04-24,1,,,,,ライフリバーサル,0
977,4010601062987,新規,0,2023-04-24,2023-04-24,株式会社クレア,,株式会社,東京都,江東区,白河３丁目７番１３号,,13,108,1350021,,,,,,,2023-04-24,1,,,,,クレア,0
979,4010701044159,新規,0,2023-04-24,2023-04-24,丸栄サービス株式会社,,株式会社,東京都,品川区,西中延３丁目２番１７号カブラギ第７マンション７５０５号,,13,109,1420054,,,,,,,2023-04-24,1,,,,,マルエイサービス,0
981,4010803004481,新規,0,2023-04-24,2023-04-24,Ａ．ＫＡＮＡＴＡ合同会社,,合同会社,東京都,大田区,東馬込１丁目４０番１号,,13,111,1430022,,,,,,,2023-04-24,1,,,,,エーカナタ,0
992,4011001154004,新規,0,2023-04-24,2023-04-24,株式会社バレック,,株式会社,東京都,渋谷区,道玄坂１丁目１０番８号渋谷道玄坂東急ビル２Ｆ－Ｃ,,13,113,1500043,,,,,,,2023-04-24,1,,,,,バレック,0
994,4011003016706,新規,0,2023-04-24,2023-04-24,合同会社ダブルエス,,合同会社,東京都,渋谷区,神宮前６丁目２３番１１号Ｊ－ＳＩＸビル９Ｆ,,13,113,1500001,,,,,,,2023-04-24,1,,,,,ダブルエス,0
996,4011101102639,新規,0,2023-04-24,2023-04-24,株式会社Ｍｏｒｅ,,株式会社,東京都,新宿区,西新宿３丁目３番１３号西新宿水間ビル６階,,13,104,1600023,,,,,,,2023-04-24,1,,,,,モア,0
1002,4011201024601,新規,0,2023-04-24,2023-04-24,株式会社ＭＡＩＬＥ,,株式会社,東京都,中野区,東中野３丁目１４番２６号,,13,114,1640003,,,,,,,2023-04-24,1,,,,,マイレ,0
1003,4011203004064,新規,0,2023-04-24,2023-04-24,合同会社スマイルパートナーズ,,合同会社,東京都,中野区,中央２丁目２１番３－４０１号,,13,114,1640011,,,,,,,2023-04-24,1,,,,,スマイルパートナーズ,0
1006,4011301028650,新規,0,2023-04-24,2023-04-24,株式会社オペレーションサービス,,株式会社,東京都,杉並区,清水３丁目２９番１４号井荻パレス３０４,,13,115,1670033,,,,,,,2023-04-24,1,,,,,オペレーションサービス,0
1015,4011701026171,新規,0,2023-04-24,2023-04-24,春暁株式会社,,株式会社,東京都,江戸川区,興宮町２３番３号フローラ・ＳＴ１０６,,13,123,1330042,,,,,,,2023-04-24,1,,,,,シュンキョウ,0
1018,4011801042283,新規,0,2023-04-24,2023-04-24,株式会社アナザーレベル,,株式会社,東京都,葛飾区,西水元３丁目１６番１５号,,13,122,1250031,,,,,,,2023-04-24,1,,,,,アナザーレベル,0
1019,4011801042291,新規,0,2023-04-24,2023-04-24,株式会社ＴＭＣ,,株式会社,東京都,足立区,東和３丁目７番１２号２Ｆ,,13,121,1200003,,,,,,,2023-04-24,1,,,,,ティーエムシー,0
1022,4012801022250,新規,0,2023-04-24,2023-04-24,株式会社東京総合財産管理,,株式会社,東京都,昭島市,美堀町５丁目１番１号,,13,207,1960001,,,,,,,2023-04-24,1,,,,,トウキョウソウゴウザイサンカンリ,0
1023,4012801022300,新規,0,2023-04-24,2023-04-24,乾森株式会社,,株式会社,東京都,国分寺市,南町３丁目５－３－３０６,,13,214,1850021,,,,,,,2023-04-24,1,,,,,カンシン,0
1025,4013101009153,新規,0,2023-04-24,2023-04-24,株式会社ＭＴＯ,,株式会社,東京都,青梅市,根ヶ布２丁目１３７２番地の４４,,13,205,1980004,,,,,,,2023-04-24,1,,,,,エムティーオー,0
1037,4020001151266,新規,0,2023-04-24,2023-04-24,株式会社幸祐,,株式会社,神奈川県,横浜市旭区,白根３丁目１５番１５－６０３号,,14,112,2410005,,,,,,,2023-04-24,1,,,,,コウユウ,0
1038,4020001151282,新規,0,2023-04-24,2023-04-24,創芯株式会社,,株式会社,神奈川県,横浜市中区,曙町１丁目３藤和伊勢佐木ハイタウン６２１号室,,14,104,2310057,,,,,,,2023-04-24,1,,,,,ソウシン,0
1039,4020001151290,新規,0,2023-04-24,2023-04-24,株式会社Ｇｒａｃｅ　Ａｄ　Ａｇｅｎｃｙ,,株式会社,神奈川県,横浜市西区,浅間町１丁目４番３号ウィザードビル４０２,,14,103,2200072,,,,,,,2023-04-24,1,,,,,グレイスアドエージェンシー,0
1044,4020003023802,新規,0,2023-04-24,2023-04-24,ＲＦＦ合同会社,,合同会社,神奈川県,横浜市西区,北幸２丁目１０番地２８むつみビル３Ｆ,,14,103,2200004,,,,,,,2023-04-24,1,,,,,アールエフエフ,0
1048,4021001078788,新規,0,2023-04-24,2023-04-24,三喜株式会社,,株式会社,神奈川県,小田原市,高田６６１番地の４,,14,206,2500216,,,,,,,2023-04-24,1,,,,,サンキ,0
1049,4021001078821,新規,0,2023-04-24,2023-04-24,株式会社Ｖｉｄｅｎｓ,,株式会社,神奈川県,高座郡寒川町,大蔵８０８番地１大蔵ハイツＢ－２Ｆ,,14,321,2530104,,,,,,,2023-04-24,1,,,,,ビーデンス,0
1052,4021003013009,新規,0,2023-04-24,2023-04-24,合同会社ブリリアント・ライフ,,合同会社,神奈川県,鎌倉市,浄明寺３丁目１０番４９号,,14,204,2480003,,,,,,,2023-04-24,1,,,,,ブリリアントライフ,0
1053,4021003013017,新規,0,2023-04-24,2023-04-24,合同会社ＨＡＲＵ,,合同会社,神奈川県,横須賀市,佐野町２丁目３９番地,,14,201,2380052,,,,,,,2023-04-24,1,,,,,ハル,0
1067,4030005021225,新規,0,2023-04-24,2023-04-24,一般社団法人ＱＵＡＴＥＲＮＩＴＹ総合施術協会,,その他の設立登記法人,埼玉県,所沢市,大字久米３２２ベルウィング所沢１０２,,11,208,3591131,,,,,,,2023-04-24,1,,,,,クオタニティソウゴウセジュツキョウカイ,0
1068,4030005021233,新規,0,2023-04-24,2023-04-24,一般社団法人ＡＡＲ,,その他の設立登記法人,埼玉県,春日部市,中央８丁目２番地４２,,11,214,3440067,,,,,,,2023-04-24,1,,,,,アアル,0
1076,4040001127966,新規,0,2023-04-24,2023-04-24,株式会社ＣｏｒｒｅｃｔＳｔｏｎｅ,,株式会社,千葉県,市川市,二俣１丁目１２番５号,,12,203,2720001,,,,,,,2023-04-24,1,,,,,コレクトストーン,0
1077,4040001128072,新規,0,2023-04-24,2023-04-24,株式会社ＴＯＲＯＩＭＥ,,株式会社,千葉県,野田市,岩名１２０４番地,,12,208,2780055,,,,,,,2023-04-24,1,,,,,トロイメ,0
1078,4040001128097,新規,0,2023-04-24,2023-04-24,株式会社ＧＤＳ,,株式会社,千葉県,野田市,木野崎１９０１番地の２４,,12,208,2780002,,,,,,,2023-04-24,1,,,,,ジィディーエス,0
1094,4050001052742,新規,0,2023-04-24,2023-04-24,総建エンジニアリング株式会社,,株式会社,茨城県,古河市,本町３丁目２１番２０号,,08,204,3060023,,,,,,,2023-04-24,1,,,,,ソウケンエンジニアリング,0
1095,4050003007447,新規,0,2023-04-24,2023-04-24,合同会社ＳＩＹＡＮＳＡ　ＩＮＴＥＲＮＡＴＩＯＮＡＬ,,合同会社,茨城県,下妻市,五箇１８１番地３０,,08,210,3040823,,,,,,,2023-04-24,1,,,,,シヤンサインターナショナル,0
1097,4050005013253,新規,0,2023-04-24,2023-04-24,医療法人東光台歯科医院,,その他の設立登記法人,茨城県,つくば市,東光台２丁目１番地１１,,08,220,3002635,,,,,,,2023-04-24,1,,,,,トウコウダイシカイイン,0
1103,4080101023946,新規,0,2023-04-24,2023-04-24,株式会社ヨロズ企画,,株式会社,静岡県,御殿場市,新橋２０３０番地の４タワーコート御殿場５０６,,22,215,4120043,,,,,,,2023-04-24,1,,,,,ヨロズキカク,0
1125,4120001254216,新規,0,2023-04-24,2023-04-24,福寿島株式会社,,株式会社,大阪府,大阪市大正区,三軒家西３丁目４番１６号中山ビル３０５Ｃ,,27,108,5510001,,,,,,,2023-04-24,1,,,,,フクジュトウ,0
1126,4120001254232,新規,0,2023-04-24,2023-04-24,株式会社ＬＡＭＥ,,株式会社,大阪府,大阪市中央区,西心斎橋１丁目６－３３オカビル５Ｆ５Ｂ,,27,128,5420086,,,,,,,2023-04-24,1,,,,,レイム,0
1127,4120001254257,新規,0,2023-04-24,2023-04-24,株式会社ＧＬＯＯ,,株式会社,大阪府,大阪市北区,本庄東３丁目３番１４号ラピス長柄橋３０１号,,27,127,5310074,,,,,,,2023-04-24,1,,,,,グルー,0
1128,4120001254281,新規,0,2023-04-24,2023-04-24,ＫＮＣパートナー株式会社,,株式会社,大阪府,大阪市中央区,道頓堀１丁目９番４号４階,,27,128,5420071,,,,,,,2023-04-24,1,,,,,ケーエヌシーパートナー,0
1129,4120001254307,新規,0,2023-04-24,2023-04-24,ＧＯＡＴ株式会社,,株式会社,大阪府,大阪市中央区,島之内１丁目２２番２３号堺筋山忠ビル５Ｆ,,27,128,5420082,,,,,,,2023-04-24,1,,,,,ゴート,0
1130,4120001254315,新規,0,2023-04-24,2023-04-24,株式会社シェノン,,株式会社,大阪府,大阪市西成区,北津守４丁目４番７５－３５号,,27,122,5570061,,,,,,,2023-04-24,1,,,,,シェノン,0
1131,4120001254331,新規,0,2023-04-24,2023-04-24,創建株式会社,,株式会社,大阪府,大阪市北区,梅田１丁目２番２号大阪駅前第２ビル１２－１２,,27,127,5300001,,,,,,,2023-04-24,1,,,,,ソウケン,0
1132,4120001254348,新規,0,2023-04-24,2023-04-24,株式会社松井橋下アソシエイツ,,株式会社,大阪府,大阪市北区,西天満３丁目１４－６センチュリー西天満ビル１０階,,27,127,5300047,,,,,,,2023-04-24,1,,,,,マツイハシモトアソシエイツ,0
1133,4120001254364,新規,0,2023-04-24,2023-04-24,サンテー株式会社,,株式会社,大阪府,大阪市淀川区,西中島１丁目９－１６新大阪ストロングビル７階,,27,123,5320011,,,,,,,2023-04-24,1,,,,,サンテー,0
1134,4120001254372,新規,0,2023-04-24,2023-04-24,蓮産業株式会社,,株式会社,大阪府,大阪市中央区,瓦町３丁目４番１０号日宝御堂ビル６Ｆ,,27,128,5410048,,,,,,,2023-04-24,1,,,,,ハスサンギョウ,0
1135,4120003023800,新規,0,2023-04-24,2023-04-24,合同会社空,,合同会社,大阪府,大阪市中央区,東心斎橋２丁目４番２３号玉屋町ギャラクシービル１号館３Ａ,,27,128,5420083,,,,,,,2023-04-24,1,,,,,ソラ,0
1136,4120003023916,新規,0,2023-04-24,2023-04-24,ＮＨＴ合同会社,,合同会社,大阪府,大阪市浪速区,大国２丁目８番１８号フォーリアライズ難波南ファーロ４０１号,,27,111,5560014,,,,,,,2023-04-24,1,,,,,エヌエイチティー,0
1138,4120101067427,新規,0,2023-04-24,2023-04-24,株式会社ＢＥＳＴ　ＬＩＦＥ,,株式会社,大阪府,富田林市,喜志町５丁目１１－９ミネルヴァ１０５,,27,214,5840005,,,,,,,2023-04-24,1,,,,,ベストライフ,0
1140,4120103005194,新規,0,2023-04-24,2023-04-24,合同会社あおいろ,,合同会社,大阪府,富田林市,須賀３丁目２－３６喜田ハイツ５号室,,27,214,5840062,,,,,,,2023-04-24,1,,,,,アオイロ,0
1142,4130001074159,新規,0,2023-04-24,2023-04-24,創舫株式会社,,株式会社,京都府,京都市左京区,高野泉町６番５,,26,103,6068111,,,,,,,2023-04-24,1,,,,,ソウホウ,0
1143,4130001074183,新規,0,2023-04-24,2023-04-24,株式会社浅田設備,,株式会社,京都府,京都市西京区,牛ケ瀬西柿町６０番地,,26,111,6158051,,,,,,,2023-04-24,1,,,,,アサダセツビ,0
1152,4140001129911,新規,0,2023-04-24,2023-04-24,株式会社ハーバーシティ,,株式会社,兵庫県,明石市,樽屋町１８番１６－１０２号,00130219,28,203,6730898,,,,,,,2023-04-24,1,,,,,ハーバーシティ,0
1153,4140001129944,新規,0,2023-04-24,2023-04-24,株式会社Ｂ,,株式会社,兵庫県,神戸市中央区,磯上通８丁目１番２９号カサベラビルＣ＆Ｍ４０３号室,,28,110,6510086,,,,,,,2023-04-24,1,,,,,ビー,0
1160,4140003019020,新規,0,2023-04-24,2023-04-24,いろはに合同会社,,合同会社,兵庫県,神戸市東灘区,御影山手３丁目１番９－４０１号,,28,101,6580065,,,,,,,2023-04-24,1,,,,,イロハニ,0
1179,4180001155994,新規,0,2023-04-24,2023-04-24,株式会社Ｈａｋｕｔｏ,,株式会社,愛知県,名古屋市昭和区,阿由知通２丁目１９番地の１パルティール御器所７０３,,23,107,4660027,,,,,,,2023-04-24,1,,,,,ハクト,0
1180,4180001156010,新規,0,2023-04-24,2023-04-24,株式会社７６Ｍｏｔｏｒｓ,,株式会社,愛知県,名古屋市千種区,香流橋２丁目３番１号,,23,101,4640002,,,,,,,2023-04-24,1,,,,,ナナロクモータース,0
1190,4190003004307,新規,0,2023-04-24,2023-04-24,合同会社アレグレ,,合同会社,三重県,伊賀市,別府２５３番地,,24,216,5180221,,,,,,,2023-04-24,1,,,,,アレグレ,0
1192,4200001041192,新規,0,2023-04-24,2023-04-24,ＦＶＳ株式会社,,株式会社,岐阜県,土岐市,肥田町浅野１０５９番地の５,,21,212,5095114,,,,,,,2023-04-24,1,,,,,エフブイエス,0
1195,4230001019797,新規,0,2023-04-24,2023-04-24,株式会社富山瀟洒,,株式会社,富山県,黒部市,天神新５２９番地３・２Ｆ,,16,207,9380042,,,,,,,2023-04-24,1,,,,,トヤマショウシャ,0
1201,4260003004282,新規,0,2023-04-24,2023-04-24,合同会社ワンファミリー,,合同会社,岡山県,岡山市南区,妹尾６７４‐１,,33,104,7010205,,,,,,,2023-04-24,1,,,,,ワンファミリー,0
1212,4290001101260,新規,0,2023-04-24,2023-04-24,株式会社カレア,,株式会社,福岡県,福岡市博多区,井相田２丁目２番２８－１０７号カラコレスＶ,,40,132,8120881,,,,,,,2023-04-24,1,,,,,カレア,0
1213,4290001101277,新規,0,2023-04-24,2023-04-24,株式会社ＴＪＥグローバルスタディ,,株式会社,福岡県,福岡市東区,松崎３丁目４１番２０－１１１３号,,40,131,8130035,,,,,,,2023-04-24,1,,,,,ティージェイイーグローバルスタディ,0
1214,4290001101285,新規,0,2023-04-24,2023-04-24,株式会社イエクトプランニング,,株式会社,福岡県,柳川市,東蒲池８４８番地,,40,207,8320006,,,,,,,2023-04-24,1,,,,,イエクトプランニング,0
1215,4290001101293,新規,0,2023-04-24,2023-04-24,株式会社ルミカイラ,,株式会社,福岡県,福岡市南区,清水４丁目１７番１－４０２号,,40,134,8150031,,,,,,,2023-04-24,1,,,,,ルミカイラ,0
1221,4340003004101,新規,0,2023-04-24,2023-04-24,合同会社ハッピープロダクション,,合同会社,鹿児島県,鹿児島市,樋之口町８番２３号ＢＢビル４０１号,,46,201,8920845,,,,,,,2023-04-24,1,,,,,ハッピープロダクション,0
1228,4360001031921,新規,0,2023-04-24,2023-04-24,株式会社美らレンタカー,,株式会社,沖縄県,石垣市,字盛山１５９番地１,,47,207,9070244,,,,,,,2023-04-24,1,,,,,チュラレンタカー,0
1230,4360003012911,新規,0,2023-04-24,2023-04-24,合同会社結和土建,,合同会社,沖縄県,うるま市,与那城照間６１１番地,,47,213,9042301,,,,,,,2023-04-24,1,,,,,ユイワドケン,0
1231,4370003006103,新規,0,2023-04-24,2023-04-24,ＭＺＬトレーディング合同会社,,合同会社,宮城県,黒川郡大和町,鶴巣大平字郷ノ目５８番地の２,,04,421,9813411,,,,,,,2023-04-24,1,,,,,エムゼットエルトレーディング,0
1234,4380001033635,新規,0,2023-04-24,2023-04-24,株式会社遠藤商会,,株式会社,福島県,福島市,瀬上町字町裏６－１、２Ｆ,,07,201,9600101,,,,,,,2023-04-24,1,,,,,エンドウショウカイ,0
1236,4390001011160,新規,0,2023-04-24,2023-04-24,株式会社文化園,,株式会社,山形県,長井市,成田１４１６番地,,06,209,9930075,,,,,,,2023-04-24,1,,,,,ブンカエン,0
1237,4390003002083,新規,0,2023-04-24,2023-04-24,合同会社ねこあし,,合同会社,山形県,寒河江市,船橋町４番地の６,,06,206,9910055,,,,,,,2023-04-24,1,,,,,ネコアシ,0
1246,4430001088962,新規,0,2023-04-24,2023-04-24,三和株式会社,,株式会社,北海道,札幌市白石区,川下５９５－５,,01,104,0030869,,,,,,,2023-04-24,1,,,,,サンワ,0
1249,4430003014917,新規,0,2023-04-24,2023-04-24,合同会社安穏プロシード,,合同会社,北海道,札幌市東区,北十三条東１０丁目２番１－３０５号,,01,103,0650013,,,,,,,2023-04-24,1,,,,,アンノンプロシード,0
1250,4430005014700,新規,0,2023-04-24,2023-04-24,一般社団法人リスタート夕張,,その他の設立登記法人,北海道,夕張市,紅葉山１４４番地１,,01,209,0680755,,,,,,,2023-04-24,1,,,,,リスタートユウバリ,0
1259,4700150115671,新規,0,2023-04-24,2023-04-24,ｗｕｙｉ　ｄｅｓｕｏｄｉａｎｚｉｓｈａｎｇｗｕ　ｙｏｕｘｉａｎｇｏｎｇｓｉ,,外国会社等,,,,,,,,ｂａｉｙａｎｇｊｉｅｄａｏ　ｃｈｕｎｊｉａｎｇｈｕａｙｕａｎ２１ｚｈｕａｎｇ　ｊｉｎｈｕａｓｈｉ　ｗｕｙｉｘｉａｎ　ｚｈｅｊｉａｎｇｓｈｅｎｇ,,,,,,2023-04-24,1,,,,,ウーイデスオディアンジシャンウーヨウシャンゴンシ,0
1260,4700150115688,新規,0,2023-04-24,2023-04-24,Ｓｈａｎ　Ｄｏｎｇ　Ｙｕｎ　Ｈｅ　Ｈｕｉ　Ｄｉａｎ　Ｚｉ　Ｓｈａｎｇ　Ｗｕ　Ｙｏｕ　Ｘｉａｎ　Ｇｏｎｇ　Ｓｉ,,外国会社等,,,,,,,,Ｓｈａｎ　Ｄｏｎｇ　Ｓｈｅｎｇ　Ｔａｉ　Ａｎ　Ｓｈｉ　Ｎｉｎｇ　Ｙａｎｇ　Ｘｉａｎ　Ｗｅｎ　Ｍｉａｏ　Ｊｉｅ　Ｄａｏ　Ｂａｎ　Ｓｈｉ　Ｃｈｕ　Ｈａｉ　Ｌｉ　Ｄａ　Ｄａｏ　Ｆｕ　Ｓｈｅｎｇ　Ｙｕｎ　Ｇｕ　Ｄｉａｎ　Ｓｈａｎｇ　Ｃｈｕａｎｇ　Ｙｅ　Ｙｕａｎ　４　Ｌｏｕ　４１２－３,,,,,,2023-04-24,1,,,,,シャンドンユンヘフィデンシシャンウユウゲンコウシ,0
1271,5010001234715,新規,0,2023-04-24,2023-04-24,株式会社ＴＡＷＡ　ＪＡＰＡＮ,,株式会社,東京都,文京区,湯島４丁目２－３湯島Ｓビル４階,,13,105,1130034,,,,,,,2023-04-24,1,,,,,タワジャパン,0
1272,5010001234723,新規,0,2023-04-24,2023-04-24,株式会社ＳＬＯＷ　ＶＩＬＬＡＧＥ　Ｐａｒｔｎｅｒｓ,,株式会社,東京都,千代田区,九段南１丁目５番６号りそな九段ビル５階ＫＳフロア,,13,101,1020074,,,,,,,2023-04-24,1,,,,,スロウビレッジパートナーズ,0
1273,5010001234748,新規,0,2023-04-24,2023-04-24,株式会社Ｅｓｐｅｒａｎｚａ,,株式会社,東京都,中央区,銀座１丁目１２番４号Ｎ＆ＥＢＬＤ．６Ｆ,,13,102,1040061,,,,,,,2023-04-24,1,,,,,エスペランサ,0
1274,5010001234756,新規,0,2023-04-24,2023-04-24,株式会社ＧＥＮ　Ｌａｂｏ,,株式会社,東京都,千代田区,神田須田町２丁目４－５Ｆ,,13,101,1010041,,,,,,,2023-04-24,1,,,,,ゲンラボ,0
1275,5010001234772,新規,0,2023-04-24,2023-04-24,株式会社サーチファンド・ジャパンＮＬＳ,,株式会社,東京都,千代田区,丸の内１丁目８番２号,,13,101,1000005,,,,,,,2023-04-24,1,,,,,サーチファンドジャパンエヌエルエス,0
1282,5010005036554,新規,0,2023-04-24,2023-04-24,ポトス一般社団法人,,その他の設立登記法人,東京都,千代田区,丸の内３丁目１番１号東京共同会計事務所内,,13,101,1000005,,,,,,,2023-04-24,1,,,,,ポトス,0
1284,5010103002128,新規,0,2023-04-24,2023-04-24,ミライリーダ合同会社,,合同会社,東京都,八王子市,東中野１５０７番地１５,,13,201,1920351,,,,,,,2023-04-24,1,,,,,ミライリーダ,0
1292,5010403030002,新規,0,2023-04-24,2023-04-24,合同会社ＫＥＩ,,合同会社,東京都,港区,浜松町２丁目２番１５号浜松町ダイヤビル２Ｆ,,13,103,1050013,,,,,,,2023-04-24,1,,,,,ケーイーアイ,0
1299,5010501050331,新規,0,2023-04-24,2023-04-24,株式会社彩縁堂,,株式会社,東京都,台東区,東上野１丁目１１番５号金属美装会館３０３号室,,13,106,1100015,,,,,,,2023-04-24,1,,,,,サイエンドウ,0
1300,5010503006967,新規,0,2023-04-24,2023-04-24,合同会社ＨＴＮ,,合同会社,東京都,台東区,上野４丁目１番８号,,13,106,1100005,,,,,,,2023-04-24,1,,,,,エイチティーエヌ,0
1301,5010505003401,新規,0,2023-04-24,2023-04-24,医療法人社団礼綾会,,その他の設立登記法人,東京都,台東区,蔵前２丁目７番２号関原ビル２階,,13,106,1110051,,,,,,,2023-04-24,1,,,,,レイリョウカイ,0
1306,5010601062986,新規,0,2023-04-24,2023-04-24,株式会社Ｏｇｇｉ,,株式会社,東京都,江東区,富岡１丁目２４番６号２Ｆ,,13,108,1350047,,,,,,,2023-04-24,1,,,,,オッジ,0
1309,5010803000281,新規,0,2023-04-24,2023-04-24,合資会社篠沢商店,,合資会社,東京都,大田区,池上４丁目３１番１４号,,13,111,1460082,,,,,,,2023-04-24,1,,,,,,0
1312,5010903008118,新規,0,2023-04-24,2023-04-24,合同会社ル・グロワール,,合同会社,東京都,世田谷区,三軒茶屋１丁目６番３号,,13,112,1540024,,,,,,,2023-04-24,1,,,,,,0
1314,5011001153946,新規,0,2023-04-24,2023-04-24,株式会社ＷＨＡＴＮＥＳＳ,,株式会社,東京都,渋谷区,恵比寿西１丁目９番６号,,13,113,1500021,,,,,,,2023-04-24,1,,,,,ホワットネス,0
1315,5011001153979,新規,0,2023-04-24,2023-04-24,ＷＯＯＤＢＬＯＣＫ株式会社,,株式会社,東京都,渋谷区,神宮前５丁目２８番７号ローヤルタウン神宮前３０１,,13,113,1500001,,,,,,,2023-04-24,1,,,,,ウッドブロック,0
1317,5011003016647,新規,0,2023-04-24,2023-04-24,Ａｌｐｈａｎｅｏ　Ｄｅｓｉｇｎ合同会社,,合同会社,東京都,渋谷区,道玄坂１丁目１０ー８渋谷道玄坂東急ビル２ＦーＣ,,13,113,1500043,,,,,,,2023-04-24,1,,,,,アルファネオデザイン,0
1318,5011003016688,新規,0,2023-04-24,2023-04-24,合同会社ＬｉＭ,,合同会社,東京都,渋谷区,道玄坂１丁目１６－６二葉ビル８ｂ,,13,113,1500043,,,,,,,2023-04-24,1,,,,,リム,0
1325,5011101102638,新規,0,2023-04-24,2023-04-24,株式会社チームズ,,株式会社,東京都,新宿区,高田馬場１丁目３４番８号,,13,104,1690075,,,,,,,2023-04-24,1,,,,,チームズ,0
1326,5011101102654,新規,0,2023-04-24,2023-04-24,株式会社ｍｏｏｎｌｉｔ,,株式会社,東京都,新宿区,西新宿７丁目７番地３３号新銘ビル５階,,13,104,1600023,,,,,,,2023-04-24,1,,,,,ムーンリット,0
1328,5011203004063,新規,0,2023-04-24,2023-04-24,合同会社ｎｕｂｏ,,合同会社,東京都,中野区,新井２丁目６番３号セーナ中野５０３,,13,114,1650026,,,,,,,2023-04-24,1,,,,,ヌーボ,0
1332,5011405002245,新規,0,2023-04-24,2023-04-24,特定非営利活動法人東京久明館道場,,その他の設立登記法人,東京都,板橋区,赤塚新町２丁目１番７号,,13,119,1750093,,,,,,,2023-04-24,1,,,,,トウキョウキュウメイカンドウジョウ,0
1343,5012403005900,新規,0,2023-04-24,2023-04-24,Ａｓ企画合同会社,,合同会社,東京都,稲城市,矢野口１２７１－２ヴェルドミール１、２０６,,13,225,2060812,,,,,,,2023-04-24,1,,,,,エーエスキカク,0
1351,5020001151307,新規,0,2023-04-24,2023-04-24,株式会社ＴＯＭ,,株式会社,神奈川県,横浜市中区,長者町６丁目１１１横浜エクセレント８－３階,,14,104,2310033,,,,,,,2023-04-24,1,,,,,ティーオーエム,0
1352,5020001151315,新規,0,2023-04-24,2023-04-24,株式会社ＨＡメディカル,,株式会社,神奈川県,横浜市鶴見区,栄町通３丁目２８番地１４,,14,101,2300038,,,,,,,2023-04-24,1,,,,,エイチエーメディカル,0
1358,5020003023784,新規,0,2023-04-24,2023-04-24,ＳＮＳｐｉｒｅ合同会社,,合同会社,神奈川県,横浜市南区,別所中里台２６番１７号,,14,105,2320065,,,,,,,2023-04-24,1,,,,,エスエヌエスパイア,0
1359,5020003023792,新規,0,2023-04-24,2023-04-24,テック市場合同会社,,合同会社,神奈川県,横浜市保土ケ谷区,東川島町３４番地４５,,14,106,2400041,,,,,,,2023-04-24,1,,,,,テックイチバ,0
1360,5020003023801,新規,0,2023-04-24,2023-04-24,サガス合同会社,,合同会社,神奈川県,横浜市南区,宿町３丁目５５－５－１０２,,14,105,2320017,,,,,,,2023-04-24,1,,,,,サガス,0
1363,5021001078812,新規,0,2023-04-24,2023-04-24,株式会社大進ＳＴＥＰ,,株式会社,神奈川県,愛甲郡愛川町,中津７３９番地,,14,401,2430303,,,,,,,2023-04-24,1,,,,,タイシンステップ,0
1364,5021001078837,新規,0,2023-04-24,2023-04-24,小杉不動産株式会社,,株式会社,神奈川県,高座郡寒川町,一之宮４丁目１２番１５号,,14,321,2530111,,,,,,,2023-04-24,1,,,,,コスギフドウサン,0
1371,5030001153525,新規,0,2023-04-24,2023-04-24,株式会社三村庭苑,,株式会社,埼玉県,行田市,大字若小玉２６６４番地４ファミールメゾンＤ２０２,,11,206,3610017,,,,,,,2023-04-24,1,,,,,ミムラテイエン,0
1372,5030001153533,新規,0,2023-04-24,2023-04-24,株式会社Ｆ‐ＴＥＣ,,株式会社,埼玉県,八潮市,大字伊勢野８１番地１５,,11,234,3400821,,,,,,,2023-04-24,1,,,,,エフテック,0
1373,5030001153558,新規,0,2023-04-24,2023-04-24,文武電機株式会社,,株式会社,埼玉県,所沢市,大字亀ケ谷６２,,11,208,3590014,,,,,,,2023-04-24,1,,,,,フミタケデンキ,0
1374,5030001153590,新規,0,2023-04-24,2023-04-24,株式会社川崎工務店,00130230,株式会社,埼玉県,加須市,常泉５２番地１３,,11,210,3470034,,,,,,,2023-04-24,1,,,,,カワサキコウムテン,0
1377,5030003021639,新規,0,2023-04-24,2023-04-24,合同会社Ｏｌｄ　Ｂａｓｅ,,合同会社,埼玉県,入間市,東町１丁目２－１９,,11,225,3580002,,,,,,,2023-04-24,1,,,,,オールドベイス,0
1386,5040001127908,新規,0,2023-04-24,2023-04-24,Ａｃｃｏｍｐａｎｙ株式会社,,株式会社,千葉県,船橋市,三咲５丁目１７番３号,,12,204,2740812,,,,,,,2023-04-24,1,,,,,アカンパニー,0
1398,5050001052717,新規,0,2023-04-24,2023-04-24,山口産業株式会社,,株式会社,茨城県,水戸市,萱場町３９７－１２,,08,201,3114154,,,,,,,2023-04-24,1,,,,,ヤマグチサンギョウ,0
1399,5050001052741,新規,0,2023-04-24,2023-04-24,株式会社秀徳建設,,株式会社,茨城県,笠間市,下郷４５３２番地１,,08,216,3190202,,,,,,,2023-04-24,1,,,,,シュウトクケンセツ,0
1400,5050003007446,新規,0,2023-04-24,2023-04-24,ヴィーディーズ合同会社,,合同会社,茨城県,牛久市,岡見町２７３１番地２９,,08,219,3001204,,,,,,,2023-04-24,1,,,,,ヴィーディーズ,0
1401,5060001035927,新規,0,2023-04-24,2023-04-24,ＯＭＧ株式会社,,株式会社,栃木県,大田原市,浅香３丁目４番５８号,,09,210,3240043,,,,,,,2023-04-24,1,,,,,オーエムジー,0
1411,5100001036350,新規,0,2023-04-24,2023-04-24,株式会社グラン・リゾート・マネジメント,,株式会社,長野県,諏訪市,杉菜池１９１８番地３,,20,206,3920009,,,,,,,2023-04-24,1,,,,,グランリゾートマネジメント,0
1425,5120001254223,新規,0,2023-04-24,2023-04-24,株式会社ＭＡＨＡＲＬＩＫＡ　ＪＡＰＡＮ,,株式会社,大阪府,大阪市北区,西天満４丁目５番５号マーキス梅田９０７,,27,127,5300047,,,,,,,2023-04-24,1,,,,,マハルリカジャパン,0
1426,5120001254256,新規,0,2023-04-24,2023-04-24,株式会社ＳＹＨ,,株式会社,大阪府,大阪市西区,靱本町１丁目１５番１０号森田ビル５０１号,,27,106,5500004,,,,,,,2023-04-24,1,,,,,エスワイエイチ,0
1427,5120001254306,新規,0,2023-04-24,2023-04-24,株式会社ＷＯＮ　ＳＴジャパン,,株式会社,大阪府,大阪市旭区,清水５丁目７番３１号,,27,117,5350021,,,,,,,2023-04-24,1,,,,,ウオンストジャパン,0
1428,5120001254355,新規,0,2023-04-24,2023-04-24,株式会社ａｒｂｅｒｅ,,株式会社,大阪府,大阪市城東区,野江２丁目６番１４号ＫＫハウス２０２,,27,118,5360006,,,,,,,2023-04-24,1,,,,,アルブル,0
1438,5120101067418,新規,0,2023-04-24,2023-04-24,株式会社ＭＩＮＥＲＶＡ,,株式会社,大阪府,松原市,上田３丁目９番６号上田３丁目連棟Ｈ棟２Ｆ,,27,217,5800016,,,,,,,2023-04-24,1,,,,,ミネルヴァ,0
1439,5120905006455,新規,0,2023-04-24,2023-04-24,一般社団法人経カテーテル的心臓弁治療関連学会協議会,,その他の設立登記法人,大阪府,吹田市,山田丘２番２号,,27,205,5650871,,,,,,,2023-04-24,1,,,,,ケイカテーテルテキシンゾウベンチリョウカンレンガッカイキョウギカイ,0
1446,5130001074158,新規,0,2023-04-24,2023-04-24,株式会社スマロジ,,株式会社,京都府,長岡京市,馬場井料田５－８－１Ｆ,,26,209,6170828,,,,,,,2023-04-24,1,,,,,スマロジ,0
1455,5140001129902,新規,0,2023-04-24,2023-04-24,株式会社島川建装,,株式会社,兵庫県,伊丹市,美鈴町３丁目２９番地,,28,207,6640884,,,,,,,2023-04-24,1,,,,,シマカワケンソウ,0
1456,5140001129943,新規,0,2023-04-24,2023-04-24,株式会社Ｓｕｎｎｙ,,株式会社,兵庫県,丹波市,氷上町伊佐口５５８番地,,28,223,6693643,,,,,,,2023-04-24,1,,,,,サニー,0
1459,5140005026591,新規,0,2023-04-24,2023-04-24,一般社団法人つぎのわ,,その他の設立登記法人,兵庫県,神戸市東灘区,住吉本町３丁目３番１４号ファミーユ住吉２０２号,,28,101,6580051,,,,,,,2023-04-24,1,,,,,ツギノワ,0
1462,5160001024993,新規,0,2023-04-24,2023-04-24,株式会社Ｋａｉｃｏｔｏｂａ,,株式会社,滋賀県,大津市,一里山１丁目４－１グランドール一里山１０５,,25,201,5202153,,,,,,,2023-04-24,1,,,,,カイコトバ,0
1463,5160003002857,新規,0,2023-04-24,2023-04-24,合同会社ＩＦ．ｃｏｃｏ,,合同会社,滋賀県,守山市,立入町１２０,,25,207,5240031,,,,,,,2023-04-24,1,,,,,イフドットココ,0
1466,5170001017559,新規,0,2023-04-24,2023-04-24,株式会社Ｔｒｕｎｋ,,株式会社,和歌山県,田辺市,目良１０番２１号,,30,206,6460058,,,,,,,2023-04-24,1,,,,,トランク,0
1477,5180001155952,新規,0,2023-04-24,2023-04-24,株式会社カンホウ製薬,,株式会社,愛知県,名古屋市中区,松原２丁目２番３３号桐美ビル４Ｃ,,23,106,4600017,,,,,,,2023-04-24,1,,,,,カンホウセイヤク,0
1478,5180001155960,新規,0,2023-04-24,2023-04-24,ＲＩＳＥ株式会社,,株式会社,愛知県,小牧市,大字久保一色２９３２番地７,,23,219,4850003,,,,,,,2023-04-24,1,,,,,ライズ,0
1479,5180001155977,新規,0,2023-04-24,2023-04-24,株式会社Ｃａｒａｍｅｌ　ｄｏｃｋ,,株式会社,愛知県,名古屋市東区,東桜１丁目１番１号,,23,102,4610005,,,,,,,2023-04-24,1,,,,,キャラメルドック,0
1483,5180003025146,新規,0,2023-04-24,2023-04-24,合同会社金山設備,,合同会社,愛知県,春日井市,東山町字東山２３４５番地３４２,,23,206,4860811,,,,,,,2023-04-24,1,,,,,カナヤマセツビ,0
1484,5180301037339,新規,0,2023-04-24,2023-04-24,株式会社リップル,,株式会社,愛知県,安城市,今池町１丁目２番１５号シティライフ新安城駅前３０２,,23,212,4460071,,,,,,,2023-04-24,1,,,,,リップル,0
1490,5200005013476,新規,0,2023-04-24,2023-04-24,医療法人ｍｉｒａｉｅ,,その他の設立登記法人,岐阜県,大垣市,新馬場町１０番地５,,21,202,5030921,,,,,,,2023-04-24,1,,,,,ミライエ,0
1491,5210003001639,新規,0,2023-04-24,2023-04-24,バロンドール合同会社,,合同会社,福井県,勝山市,郡町１丁目２番４３号,,18,206,9110035,,,,,,,2023-04-24,1,,,,,バロンドール,0
1506,5290001101284,新規,0,2023-04-24,2023-04-24,株式会社えつなぐ,,株式会社,福岡県,久留米市,百年公園１番１号,,40,203,8390864,,,,,,,2023-04-24,1,,,,,エツナグ,0
1507,5290001101292,新規,0,2023-04-24,2023-04-24,篠原農園株式会社,,株式会社,福岡県,朝倉市,荷原１８４０番地,,40,228,8380029,,,,,,,2023-04-24,1,,,,,シノハラノウエン,0
1516,5290003013825,新規,0,2023-04-24,2023-04-24,はちねこ合同会社,,合同会社,福岡県,糸島市,二丈福井２８４１―１,,40,230,8191631,,,,,,,2023-04-24,1,,,,,ハチネコ,0
1524,5320001019696,新規,0,2023-04-24,2023-04-24,山本電機株式会社,,株式会社,大分県,佐伯市,１０２９８番地１,,44,205,8760000,,,,,,,2023-04-24,1,,,,,ヤマモトデンキ,0
1525,5320001019705,新規,0,2023-04-24,2023-04-24,株式会社一木庵,,株式会社,大分県,玖珠郡玖珠町,大字戸畑４７７９番地,,44,462,8794331,,,,,,,2023-04-24,1,,,,,イチボクアン,0
1526,5330001030801,新規,0,2023-04-24,2023-04-24,株式会社ＴＫシステム,,株式会社,熊本県,熊本市東区,月出２丁目４番１５－３０７号,,43,102,8620920,,,,,,,2023-04-24,1,,,,,ティーケーシステム,0
1531,5360001031929,新規,0,2023-04-24,2023-04-24,株式会社ヴェインテ,,株式会社,沖縄県,那覇市,久茂地２丁目２番２号タイムスビル２Ｆ,,47,201,9000015,,,,,,,2023-04-24,1,,,,,ヴェインテ,0
1535,5370001049879,新規,0,2023-04-24,2023-04-24,ジェイタス株式会社,,株式会社,宮城県,仙台市若林区,遠見塚２丁目３２番３－３号,,04,103,9840823,,,,,,,2023-04-24,1,,,,,ジェイタス,0
1536,5370003006102,新規,0,2023-04-24,2023-04-24,合同会社Ｇｉｖｉｎｇ　Ｈａｎｄ,,合同会社,宮城県,富谷市,日吉台２丁目１５番地１,,04,216,9813362,,,,,,,2023-04-24,1,,,,,ギビングハンド,0
1539,5380001033626,新規,0,2023-04-24,2023-04-24,株式会社ＢＯＵＬＤＥＲ,,株式会社,福島県,南会津郡南会津町,田島字元八幡甲３３７－２,,07,368,9670004,,,,,,,2023-04-24,1,,,,,ボルダー,0
1545,5400003003070,新規,0,2023-04-24,2023-04-24,合同会社ＴＯＤＡＹ　ＩＳ　ＧＯＯＤ,,合同会社,岩手県,北上市,花園町１丁目２番６－１０１号ヴィダ・リカ花園,,03,206,0240035,,,,,,,2023-04-24,1,,,,,トゥデイイズグッド,0
1552,5430001088904,新規,0,2023-04-24,2023-04-24,株式会社ＢＥＥＬＡＢＯ,,株式会社,北海道,札幌市南区,澄川六条１２丁目７－３,,01,106,0050006,,,,,,,2023-04-24,1,,,,,ビーラボ,0
1556,5430005014699,新規,0,2023-04-24,2023-04-24,一般社団法人ＳＣＭＡ,,その他の設立登記法人,北海道,札幌市白石区,本通４丁目北６－１五光ビル１Ｆ,,01,104,0030027,,,,,,,2023-04-24,1,,,,,エスシーエムエー,0
1560,5470001019582,新規,0,2023-04-24,2023-04-24,株式会社讃大商事,,株式会社,香川県,高松市,塩上町３丁目１３－４－３Ｆ,,37,201,7600062,,,,,,,2023-04-24,1,,,,,サンダイショウジ,0
1564,5480001012082,新規,0,2023-04-24,2023-04-24,株式会社ＦＬＡＴ,,株式会社,徳島県,徳島市,北沖洲４丁目１２番１３号,,36,201,7700872,,,,,,,2023-04-24,1,,,,,フラット,0
1565,5480005006956,新規,0,2023-04-24,2023-04-24,Ｎ・Ｎ協同組合,,その他の設立登記法人,徳島県,鳴門市,撫養町大桑島字濘岩浜１９－２７サンライズ大桑島２０５号室,,36,202,7720011,,,,,,,2023-04-24,1,,,,,エヌエヌ,0
1568,5700150115670,新規,0,2023-04-24,2023-04-24,Ｇｕａｎｇｚｈｏｕ　Ｙｉｎｆｕ　Ｔｒａｄｉｎｇ　Ｃｏ．，Ｌｔｄ．,,外国会社等,,,,,,,,ｌｉｗａｎｑｕ　ｄｅｘｉｎｇｌｕ９ｈａｏ　ｅｒｌｏｕＤｑｕ（ｂｕｗｅｉ：３３ｐｕ）ｇｕａｎｇｚｈｏｕ　ｇｕａｎｇｄｏｎｇ,,,,,,2023-04-24,1,,,,,グァンヂョウインフトレーディングコウリミティド,0
1569,5700150115679,新規,0,2023-04-24,2023-04-24,Ｈａｎｓｈｉ　Ｊｉｎｇｘｉａｎ　Ｉｎｎｏｖａｔｉｏｎ　Ｔｅｃｈｎｏｌｏｇｙ（Ｓｈｅｎｚｈｅｎ）,,外国会社等,,,,,,,,Ｇｕａｎ　Ｄｏｎｇ　Ｓｈｅｎ　Ｚｈｅｎ　Ｓｈｉ　Ｌｏｎｇ　Ｇａｎｇ　Ｑｕ　Ｐｉｎｇ　Ｈｕ　Ｊｉｅ　Ｄａｏ　Ｐｉｎｇ　Ｘｉｎ　Ｂｅｉ　Ｌｕ　６５　Ｈａｏ　２０６,,,,,,2023-04-24,1,,,,,ハンシジンャンイノベーションテクノロジーシンセン,0
1570,5700150115687,新規,0,2023-04-24,2023-04-24,ｓｈｅｎｚｈｅｎｓｈｉ　ｈａｉｍｅｉｋｅｊｉ　ｙｏｕｘｉａｎｇｏｎｇｓｉ,,外国会社等,,,,,,,,ｌｏｎｇｇａｎｇｑｕ　ｂａｎｔｉａｎｊｉｅｄａｏ　ｗｕｈｅｄａｄａｏ　ｃｈａｎｇｋｅｎｇｃｕｎ３ｘｉａｎｇ２０ｈａｏ５０６　ｓｈｅｎｚｈｅｎｓｈｉ　ｇｕａｎｇｄｏｎｇｓｈｅｎｇ,,,,,,2023-04-24,1,,,,,シンセンシハイメイケジユウゲンコウシ,0
1579,6010001234730,新規,0,2023-04-24,2023-04-24,ライフエナジーバイオテックジャパン株式会社,,株式会社,東京都,千代田区,神田駿河台２丁目４－４,,13,101,1010062,,,,,,,2023-04-24,1,,,,,ライフエナジーバイオテックジャパン,0
1580,6010001234739,新規,0,2023-04-24,2023-04-24,エイビューティ株式会社,,株式会社,東京都,中央区,新川１丁目２７番７－８０３号,,13,102,1040033,,,,,,,2023-04-24,1,,,,,エイビューティ,0
1581,6010001234763,新規,0,2023-04-24,2023-04-24,株式会社ベキワークス,,株式会社,東京都,中央区,銀座１丁目１２－４Ｎ＆ＥＢＬＤ．７階,,13,102,1040061,,,,,,,2023-04-24,1,,,,,ベキワークス,0
1584,6010003040409,新規,0,2023-04-24,2023-04-24,合同会社静岡御殿場太陽光発電４号,,合同会社,東京都,千代田区,内幸町１丁目１番１号帝国ホテルタワー１６階,,13,101,1000011,,,,,,,2023-04-24,1,,,,,シズオカゴテンバタイヨウコウハツデンヨンゴウ,0
1585,6010003040425,新規,0,2023-04-24,2023-04-24,合同会社ＭｏＭｏ＆Ｃｏ．,,合同会社,東京都,中央区,佃２丁目１番１－２５１０号,,13,102,1040051,,,,,,,2023-04-24,1,,,,,モモアンドコー,0
1586,6010003040433,新規,0,2023-04-24,2023-04-24,ＤＦ京浜島ウイング合同会社,,合同会社,東京都,千代田区,飯田橋４丁目７番１号結和税理士法人内,,13,101,1020072,,,,,,,2023-04-24,1,,,,,ディエフケイヒンジマウイング,0
1590,6010005036553,新規,0,2023-04-24,2023-04-24,グロリオサ一般社団法人,,その他の設立登記法人,東京都,千代田区,丸の内３丁目１番１号東京共同会計事務所内,,13,101,1000005,,,,,,,2023-04-24,1,,,,,グロリオサ,0
1597,6010401173875,新規,0,2023-04-24,2023-04-24,株式会社メトロシティ,,株式会社,東京都,港区,六本木１丁目９番４号１１０３号室,,13,103,1060032,,,,,,,2023-04-24,1,,,,,メトロシティ,0
1598,6010401173917,新規,0,2023-04-24,2023-04-24,株式会社品楽,,株式会社,東京都,港区,赤坂２丁目１２番３２－８０５号,,13,103,1070052,,,,,,,2023-04-24,1,,,,,ヒンラク,0
1605,6010603010117,新規,0,2023-04-24,2023-04-24,合同会社タクス,,合同会社,東京都,墨田区,東墨田１丁目７－１,,13,107,1310042,,,,,,,2023-04-24,1,,,,,タクス,0
1610,6010801033860,新規,0,2023-04-24,2023-04-24,株式会社エピックインク,,株式会社,東京都,大田区,上池台５丁目３３番１３号,,13,111,1450064,,,,,,,2023-04-24,1,,,,,エピックインク,0
1613,6010901052934,新規,0,2023-04-24,2023-04-24,株式会社エイチアールケイ,,株式会社,東京都,世田谷区,等々力８丁目１８番９号,,13,112,1580082,,,,,,,2023-04-24,1,,,,,,0
1622,6011001153978,新規,0,2023-04-24,2023-04-24,株式会社サンセット,,株式会社,東京都,渋谷区,渋谷１丁目８番５号グローリア宮益坂１０２,,13,113,1500002,,,,,,,2023-04-24,1,,,,,サンセット,0
1623,6011001154010,新規,0,2023-04-24,2023-04-24,Ｌｏｍｂａｒｄ　Ｓｔａｎｄａｒｄ株式会社,,株式会社,東京都,渋谷区,道玄坂１丁目１０番８号渋谷道玄坂東急ビル２Ｆ－Ｃ,,13,113,1500043,,,,,,,2023-04-24,1,,,,,ロンバードスタンダード,0
1630,6011101102620,新規,0,2023-04-24,2023-04-24,株式会社プライマリーフィールド,,株式会社,東京都,新宿区,新宿３丁目８番９号,,13,104,1600022,,,,,,,2023-04-24,1,,,,,プライマリーフィールド,0
1632,6011103012982,新規,0,2023-04-24,2023-04-24,合同会社ＮＡＫＹ,,合同会社,東京都,新宿区,西新宿３丁目３番１３号西新宿水間ビル６階,,13,104,1600023,,,,,,,2023-04-24,1,,,,,ネイキー,0
1634,6011301028657,新規,0,2023-04-24,2023-04-24,株式会社いまのひ,,株式会社,東京都,杉並区,浜田山１丁目２５番３２号,,13,115,1680065,,,,,,,2023-04-24,1,,,,,イマノヒ,0
1639,6011603003903,新規,0,2023-04-24,2023-04-24,ＬＹＺ中天合同会社,,合同会社,東京都,練馬区,上石神井３丁目２８－１０・２０２号室,,13,120,1770044,,,,,,,2023-04-24,1,,,,,エルワイゼットチュウテン,0
1645,6012405004858,新規,0,2023-04-24,2023-04-24,特定非営利活動法人日印ビジネスビューロー,,その他の設立登記法人,東京都,三鷹市,牟礼６丁目２４番１号マイキャッスル三鷹台４０３号室,,13,204,1810002,,,,,,,2023-04-24,1,,,,,ニチインビジネスビューロー,0
1646,6012701017613,新規,0,2023-04-24,2023-04-24,株式会社Ｎａｎｏｔｅｃｈｎｏｌｏｇｙ,,株式会社,東京都,小平市,学園西町１丁目２０－１６－４階,,13,211,1870045,,,,,,,2023-04-24,1,,,,,ナノテクノロジー,0
1648,6012803003065,新規,0,2023-04-24,2023-04-24,合同会社おそうじ倶楽部,,合同会社,東京都,立川市,富士見町６丁目３３番３１０号,,13,202,1900013,,,,,,,2023-04-24,1,,,,,オソウジクラブ,0
1650,6013301050632,新規,0,2023-04-24,2023-04-24,株式会社ミライ企画,,株式会社,東京都,豊島区,東池袋１丁目１７番１１号パークハイツ池袋１１０５号,,13,116,1700013,,,,,,,2023-04-24,1,,,,,ミライキカク,0
1661,6020001151248,新規,0,2023-04-24,2023-04-24,株式会社Ｐｒｉｄｅ　ｏｆ　ＪＡＰＡＮ,,株式会社,神奈川県,川崎市多摩区,東三田２丁目１４番２３－６０３号,,14,135,2140033,,,,,,,2023-04-24,1,,,,,プライドオブジャパン,0
1662,6020001151306,新規,0,2023-04-24,2023-04-24,株式会社ＳＵＮＳ,,株式会社,神奈川県,横浜市港南区,芹が谷４丁目３０番９号サリーレ１０１,,14,111,2330006,,,,,,,2023-04-24,1,,,,,サンズ,0
1663,6020001151314,新規,0,2023-04-24,2023-04-24,株式会社Ｂｌｏｓｓｏｍ,,株式会社,神奈川県,横浜市泉区,和泉町７７４４番地１,,14,116,2450016,,,,,,,2023-04-24,1,,,,,ブロッサム,0
1670,6020003023783,新規,0,2023-04-24,2023-04-24,Ｉｎｎｏｖａｔｉｖｅ　Ｄｅｓｉｇｎ　Ｌａｂ合同会社,,合同会社,神奈川県,横浜市南区,別所中里台２６番１７号,,14,105,2320065,,,,,,,2023-04-24,1,,,,,イノベイティブデザインラボ,0
1671,6020003023800,新規,0,2023-04-24,2023-04-24,合同会社フォレスト,,合同会社,神奈川県,横浜市泉区,和泉中央南５丁目２番６－３０７号,,14,116,2450023,,,,,,,2023-04-24,1,,,,,フォレスト,0
1674,6020005015960,新規,0,2023-04-24,2023-04-24,一般社団法人家族心理サポート協会,,その他の設立登記法人,神奈川県,横浜市港北区,綱島上町１－１－２－２１０号,,14,109,2230055,,,,,,,2023-04-24,1,,,,,カゾクシンリサポートキョウカイ,0
1680,6021001078803,新規,0,2023-04-24,2023-04-24,株式会社Ｆ　Ｆｉｅｌｄ,,株式会社,神奈川県,相模原市緑区,上九沢２８３番地１,,14,151,2520136,,,,,,,2023-04-24,1,,,,,エフフィールド,0
1681,6021001078836,新規,0,2023-04-24,2023-04-24,ＳＥＡＬｓ　ＴＲＡＤＩＮＧ　ＳＹＳＴＥＭ株式会社,,株式会社,神奈川県,相模原市南区,相南１丁目１５番２１号,,14,153,2520312,,,,,,,2023-04-24,1,,,,,シールズトレーディングシステム,0
1683,6021003013015,新規,0,2023-04-24,2023-04-24,Ｃｌｅａｒ　Ｌａｋｅ合同会社,,合同会社,神奈川県,茅ヶ崎市,東海岸南５丁目４番３７－４号,,14,207,2530054,,,,,,,2023-04-24,1,,,,,クリアレイク,0
1689,6030001153573,新規,0,2023-04-24,2023-04-24,株式会社Ｙｕｍｅｎｏｍａ,,株式会社,埼玉県,さいたま市大宮区,桜木町２丁目３番地大宮マルイ７階,,11,103,3300854,,,,,,,2023-04-24,1,,,,,ユメノマ,0
1692,6030003021489,新規,0,2023-04-24,2023-04-24,合同会社和道,,合同会社,埼玉県,所沢市,緑町４丁目９番４－２０６号桐華マンション,,11,208,3591111,,,,,,,2023-04-24,1,,,,,ワドウ,0
1718,6080101023936,新規,0,2023-04-24,2023-04-24,株式会社スタートステイ,,株式会社,静岡県,伊東市,八幡野１０８４番地の５５,,22,208,4130232,,,,,,,2023-04-24,1,,,,,スタートステイ,0
1719,6080101023944,新規,0,2023-04-24,2023-04-24,ｓｏｎｏｈａｕｓ　ｇｒａｐｈｉｃｓ株式会社,,株式会社,静岡県,熱海市,春日町１６番１５号,,22,205,4130005,,,,,,,2023-04-24,1,,,,,ソノハウスグラフィックス,0
1722,6080401026449,新規,0,2023-04-24,2023-04-24,株式会社ＴＭスタッフ,,株式会社,静岡県,浜松市中区,早出町１６６７番地の３,,22,131,4350054,,,,,,,2023-04-24,1,,,,,ティーエムスタッフ,0
1731,6110001037479,新規,0,2023-04-24,2023-04-24,株式会社新潟整備センター,,株式会社,新潟県,新潟市北区,木崎１１２４番地１,,15,101,9503304,,,,,,,2023-04-24,1,,,,,ニイガタセイビセンター,0
1738,6120001254271,新規,0,2023-04-24,2023-04-24,株式会社ＵＫ不動産,,株式会社,大阪府,大阪市北区,西天満４丁目１１番１９号,,27,127,5300047,,,,,,,2023-04-24,1,,,,,ユーケーフドウサン,0
1739,6120001254296,新規,0,2023-04-24,2023-04-24,榮倉芸斎株式会社,,株式会社,大阪府,大阪市生野区,生野東２丁目９－１８長盛ハイツ１の１０５号,,27,116,5440025,,,,,,,2023-04-24,1,,,,,エイクラウンサイ,0
1740,6120001254305,新規,0,2023-04-24,2023-04-24,株式会社Ｇｒｏｗｂ,,株式会社,大阪府,大阪市中央区,島之内１丁目２２番１８号エイチツーオー第８ビル５階,,27,128,5420082,,,,,,,2023-04-24,1,,,,,グローブ,0
1742,6120005023565,新規,0,2023-04-24,2023-04-24,一般社団法人オアシス,,その他の設立登記法人,大阪府,枚方市,東船橋１丁目８９番地の１,,27,210,5731115,,,,,,,2023-04-24,1,,,,,オアシス,0
1745,6120103005192,新規,0,2023-04-24,2023-04-24,ＭＰオート合同会社,,合同会社,大阪府,岸和田市,尾生町２丁目２４－１６,,27,202,5960816,,,,,,,2023-04-24,1,,,,,エムピーオート,0
1747,6120901047444,新規,0,2023-04-24,2023-04-24,株式会社西光エンジニアリング,,株式会社,大阪府,豊中市,柴原町５丁目２番２０－１０７号,,27,203,5600055,,,,,,,2023-04-24,1,,,,,セイコウエンジニアリング,0
1748,6120901047452,新規,0,2023-04-24,2023-04-24,株式会社塩見電気,,株式会社,大阪府,高槻市,氷室町１丁目５番６号,,27,207,5691141,,,,,,,2023-04-24,1,,,,,シオミデンキ,0
1754,6130001074066,新規,0,2023-04-24,2023-04-24,華倫株式会社,,株式会社,京都府,京都市東山区,泉湧寺五葉ノ辻町１７番地１８,,26,105,6050000,,,,,,,2023-04-24,1,,,,,ホアロン,0
1755,6130001074157,新規,0,2023-04-24,2023-04-24,株式会社ベジタブルアイランドストーンアップ,,株式会社,京都府,京都市南区,吉祥院嶋笠井町８３番地,,26,107,6018374,,,,,,,2023-04-24,1,,,,,ベジタブルアイランドストーンアップ,0
1756,6130003008682,新規,0,2023-04-24,2023-04-24,合同会社ナカノ,,合同会社,京都府,京都市山科区,小野荘司町１３番地１１,,26,110,6078256,,,,,,,2023-04-24,1,,,,,ナカノ,0
1768,6140005026590,新規,0,2023-04-24,2023-04-24,一般社団法人ぷらいちスポーツクラブ,,その他の設立登記法人,兵庫県,神崎郡市川町,北田中３７８番１０号,,28,442,6792314,,,,,,,2023-04-24,1,,,,,プライチスポーツクラブ,0
1773,6160001024992,新規,0,2023-04-24,2023-04-24,株式会社エムラッキ,,株式会社,滋賀県,栗東市,上鈎４３９番地２,,25,208,5203022,,,,,,,2023-04-24,1,,,,,エムラッキ,0
1774,6160003002856,新規,0,2023-04-24,2023-04-24,滋賀メディカル合同会社,,合同会社,滋賀県,長浜市,下坂浜町３９４番地センチュリーワンＢ－７，１０２号室,,25,203,5260047,,,,,,,2023-04-24,1,,,,,,0
1784,6180001155943,新規,0,2023-04-24,2023-04-24,株式会社スターリウム,,株式会社,愛知県,東海市,大田町蟹田９６番地１バンベール太田川（１００６号）,,23,222,4770031,,,,,,,2023-04-24,1,,,,,スターリウム,0
1785,6180001155992,新規,0,2023-04-24,2023-04-24,株式会社南和,,株式会社,愛知県,尾張旭市,北原山町陀摩屋敷１４２１番地２,,23,226,4880063,,,,,,,2023-04-24,1,,,,,ナンワ,0
1786,6180001156009,新規,0,2023-04-24,2023-04-24,株式会社Ｓｋｙ‐ＪＡＭ,,株式会社,愛知県,名古屋市瑞穂区,船原町６丁目１８番地の１３,,23,108,4670878,,,,,,,2023-04-24,1,,,,,スカイジャム,0
1801,6200005013475,新規,0,2023-04-24,2023-04-24,医療法人ＭＭ,,その他の設立登記法人,岐阜県,大垣市,長沢町５丁目１５番地１,,21,202,5030833,,,,,,,2023-04-24,1,,,,,エムエム,0
1802,6210003001638,新規,0,2023-04-24,2023-04-24,ＯＵＲ　ＢＲＥＷＩＮＧ合同会社,,合同会社,福井県,福井市,中央３丁目５番１２号,,18,201,9100006,,,,,,,2023-04-24,1,,,,,アワーブルーイング,0
1805,6230001019812,新規,0,2023-04-24,2023-04-24,ＩＮＦＩＮＩＴＹ　ＣＯＲＰＯＲＡＴＩＯＮ株式会社,,株式会社,富山県,射水市,戸破３３８１番地,,16,211,9390351,,,,,,,2023-04-24,1,,,,,インフィニティコーポレーション,0
1809,6240001061383,新規,0,2023-04-24,2023-04-24,株式会社ビーオーラボ,,株式会社,広島県,福山市,瀬戸町大字山北３８５番地１,,34,207,7200838,,,,,,,2023-04-24,1,,,,,ビーオーラボ,0
1810,6240001061391,新規,0,2023-04-24,2023-04-24,株式会社ジェネッツ,,株式会社,広島県,尾道市,高須町４７５８番地６Ｃ棟,,34,205,7290141,,,,,,,2023-04-24,1,,,,,ジェネッツ,0
1825,6290001101283,新規,0,2023-04-24,2023-04-24,株式会社アリシア,,株式会社,福岡県,福岡市中央区,高砂１丁目１番２５号,,40,133,8100011,,,,,,,2023-04-24,1,,,,,アリシア,0
1826,6290001101291,新規,0,2023-04-24,2023-04-24,Ｋ‐ｉＴＧ株式会社,,株式会社,福岡県,福岡市南区,塩原４丁目４番２２号２Ｆ,,40,134,8150032,,,,,,,2023-04-24,1,,,,,ケーアイティージー,0
1828,6300005007137,新規,0,2023-04-24,2023-04-24,農事組合法人森の果樹園滝野,,その他の設立登記法人,佐賀県,伊万里市,東山代町滝川内２８４１番地,,41,205,8494285,,,,,,,2023-04-24,1,,,,,モリノカジュエンタキノ,0
1835,6330001030783,新規,0,2023-04-24,2023-04-24,株式会社スリー,,株式会社,熊本県,熊本市中央区,出水８丁目２９番３号２階,,43,101,8620941,,,,,,,2023-04-24,1,,,,,スリー,0
1836,6330001030800,新規,0,2023-04-24,2023-04-24,ひのまる川魚商店株式会社,,株式会社,熊本県,熊本市中央区,坪井３丁目１番１６－４０３号,,43,101,8600863,,,,,,,2023-04-24,1,,,,,ヒノマルカワザカナショウテン,0
1857,6410001013466,新規,0,2023-04-24,2023-04-24,株式会社秋田マリタイムサービス,,株式会社,秋田県,秋田市,中通２丁目１番３６号マグナスビル４階大森建設株式会社秋田支社内,,05,201,0100001,,,,,,,2023-04-24,1,,,,,アキタマリタイムサービス,0
1861,6430001088903,新規,0,2023-04-24,2023-04-24,株式会社てつや,,株式会社,北海道,札幌市清田区,里塚緑ケ丘５丁目２番２０号－１０５,,01,110,0040805,,,,,,,2023-04-24,1,,,,,テツヤ,0
1862,6430001088911,新規,0,2023-04-24,2023-04-24,ちゃちゃ丸商店株式会社,,株式会社,北海道,美唄市,字美唄１３３７番地１９,,01,215,0720000,,,,,,,2023-04-24,1,,,,,チャチャマルショウテン,0
1864,6430005014698,新規,0,2023-04-24,2023-04-24,一般社団法人日本伝統文化芸能継承協会,,その他の設立登記法人,北海道,札幌市中央区,南二条西１０丁目４－５－５０３,,01,101,0600062,,,,,,,2023-04-24,1,,,,,ニホンデントウブンカゲイノウケイショウキョウカイ,0
1867,6470001019581,新規,0,2023-04-24,2023-04-24,株式会社メルシス,,株式会社,香川県,さぬき市,長尾名８２０番地,,37,206,7692303,,,,,,,2023-04-24,1,,,,,メルシス,0
1868,6470005006502,新規,0,2023-04-24,2023-04-24,農事組合法人東円坊,,その他の設立登記法人,香川県,東かがわ市,東山１７９９番地,,37,207,7692711,,,,,,,2023-04-24,1,,,,,トウエンボウ,0
1869,6480001012081,新規,0,2023-04-24,2023-04-24,Ｍ’ｓ　ｄｅｓｉｇｎ　ｌａｂｏ株式会社,,株式会社,徳島県,阿波市,土成町宮川内字西内１番地,,36,206,7711508,,,,,,,2023-04-24,1,,,,,エムズデザインラボ,0
1870,6480005006955,新規,0,2023-04-24,2023-04-24,徳島県建設協同組合,,その他の設立登記法人,徳島県,阿南市,那賀川町上福井南川渕３９番地１０,,36,204,7791243,,,,,,,2023-04-24,1,,,,,トクシマケンケンセツ,0
1871,6500001024891,新規,0,2023-04-24,2023-04-24,株式会社タカラ企画,,株式会社,愛媛県,松山市,保免中２丁目１４番２１号グランピアＨＯＭＥＮ２０１号,,38,201,7900042,,,,,,,2023-04-24,1,,,,,,0
1874,6700150115678,新規,0,2023-04-24,2023-04-24,ＦＵＺＨＯＵ　ＪｉＬｉＧｕａＬａ　ＷａｎｇＬｕｏＫｅＪｉ　ＹｏｕＸｉａｎＧｏｎｇＳｉ,,外国会社等,,,,,,,,ｃａｎｇ　ｓｈａｎ　ｑｕ　ｃｈｅｎｇ　ｍｅｎ　ｚｈｅｎ　ｌｕ　ｘｉａ　ｃｕｎ　１－４　ｚｕｏ　ｚｈｅｎｇ　ｚｕｏ　１　ｈａｏ　ｌｏｕ　２　ｃｅｎｇ　２０６Ｂ　ｓｈｉ　ｆｕｚｈｏｕ　ｆｕｊｉａｎ,,,,,,2023-04-24,1,,,,,フクシュウジリグアラワンロケジユウゲンコウシ,0
1875,6700150115686,新規,0,2023-04-24,2023-04-24,Ｓｈｅｎｚｈｅｎｓｈｉ　ｍｉｌａｎ　ｋｅｊｉ　ｙｏｕｘｉａｎｇｏｎｇｓｉ,,外国会社等,,,,,,,,６０６，Ｂｕｉｌｄｉｎｇ　Ａ，Ｋａｎｇｈｕａｙｕａｎ，Ｊｉａｎｄａ　Ｒｏａｄ，Ｌｏｎｇｈｕａ　Ｄｉｓｔｒｉｃｔ，Ｓｈｅｎｚｈｅｎ　Ｃｉｔｙ　Ｇｕａｎｇｄｏｎｇ　Ｐｒｏｖｉｎｃｅ,,,,,,2023-04-24,1,,,,,シェンヂェンシミランケジユウゲンコウシ,0
1881,7010001234705,新規,0,2023-04-24,2023-04-24,ＳＯＴＨＩＮＧ株式会社,,株式会社,東京都,中央区,銀座６丁目６番１号銀座風月堂ビル５階,,13,102,1040061,,,,,,,2023-04-24,1,,,,,ソーシン,0
1882,7010001234713,新規,0,2023-04-24,2023-04-24,株式会社ＡＲＫ,,株式会社,東京都,中央区,新富１丁目４番１号,,13,102,1040041,,,,,,,2023-04-24,1,,,,,アーク,0
1883,7010001234721,新規,0,2023-04-24,2023-04-24,ＹＳテクニック株式会社,,株式会社,東京都,千代田区,神田和泉町１番地６－１６ヤマトビル４０５,,13,101,1010024,,,,,,,2023-04-24,1,,,,,ワイエステクニック,0
1884,7010001234738,新規,0,2023-04-24,2023-04-24,ｍｏｎ　ｃｉｅｌ株式会社,,株式会社,東京都,中央区,日本橋人形町３丁目８番２号人形町ミハマビル５階,,13,102,1030013,,,,,,,2023-04-24,1,,,,,モンシエル,0
1885,7010001234787,新規,0,2023-04-24,2023-04-24,株式会社エスワイジャパン,,株式会社,東京都,千代田区,外神田６丁目８番１１号,,13,101,1010021,,,,,,,2023-04-24,1,,,,,エスワイジャパン,0
1886,7010003040234,新規,0,2023-04-24,2023-04-24,合同会社レガリアコンサルティング,,合同会社,東京都,中央区,日本橋１丁目１６番３号木村ビル７０３,,13,102,1030027,,,,,,,2023-04-24,1,,,,,レガリアコンサルティング,0
1887,7010003040408,新規,0,2023-04-24,2023-04-24,合同会社静岡裾野太陽光発電１号,,合同会社,東京都,千代田区,内幸町１丁目１番１号帝国ホテルタワー１６階,,13,101,1000011,,,,,,,2023-04-24,1,,,,,シズオカスソノタイヨウコウハツデンイチゴウ,0
1888,7010003040424,新規,0,2023-04-24,2023-04-24,合同会社エッジ,,合同会社,東京都,千代田区,隼町２－１２,,13,101,1020092,,,,,,,2023-04-24,1,,,,,エッジ,0
1890,7010005036560,新規,0,2023-04-24,2023-04-24,ＤＡＮＧ　ＯＮＥ一般社団法人,,その他の設立登記法人,東京都,千代田区,霞が関３丁目２番５号,,13,101,1000013,,,,,,,2023-04-24,1,,,,,ダンワン,0
1905,7010405022086,新規,0,2023-04-24,2023-04-24,一般社団法人Ｙｕｒｉ３,,その他の設立登記法人,東京都,港区,六本木１丁目９番１０号アークヒルズ仙石山森タワー４０階,,13,103,1060032,,,,,,,2023-04-24,1,,,,,ユリスリー,0
1910,7010601062984,新規,0,2023-04-24,2023-04-24,株式会社ＭＪＫ　ＡＲＴ,,株式会社,東京都,墨田区,太平４丁目２０番５－５０２号,,13,107,1300012,,,,,,,2023-04-24,1,,,,,エムジェイケーアート,0
1913,7010803004512,新規,0,2023-04-24,2023-04-24,圓夢合同会社,,合同会社,東京都,大田区,仲六郷４丁目２６－２第二喜作ビル２０１号室,,13,111,1440055,,,,,,,2023-04-24,1,,,,,エンム,0
1916,7010903008116,新規,0,2023-04-24,2023-04-24,合同会社ラストスタンド,,合同会社,東京都,世田谷区,三軒茶屋１丁目１０番１５－３０７号,,13,112,1540024,,,,,,,2023-04-24,1,,,,,,0
1927,7011003016686,新規,0,2023-04-24,2023-04-24,スタンスドット合同会社,,合同会社,東京都,渋谷区,渋谷２丁目１９－１５宮益坂ビルディング６０９,,13,113,1500002,,,,,,,2023-04-24,1,,,,,スタンスドット,0
1928,7011003016703,新規,0,2023-04-24,2023-04-24,合同会社ＳＫＲ,,合同会社,東京都,目黒区,東が丘１丁目９番１９号,,13,110,1520021,,,,,,,2023-04-24,1,,,,,エスケーアール,0
1934,7011101102578,新規,0,2023-04-24,2023-04-24,株式会社ＦｒｏｎｔＲｕｎ,,株式会社,東京都,新宿区,中里町６－１パークハイム神楽坂８０４,,13,104,1620804,,,,,,,2023-04-24,1,,,,,フロントラン,0
1935,7011101102660,新規,0,2023-04-24,2023-04-24,株式会社Ｃｏｍｒａｄｅｓ,,株式会社,東京都,新宿区,歌舞伎町１丁目９番１０号,,13,104,1600021,,,,,,,2023-04-24,1,,,,,コムラデス,0
1939,7011201024598,新規,0,2023-04-24,2023-04-24,株式会社ポケットエクサ,,株式会社,東京都,中野区,中野５丁目２６番２０号トーシンフェニックス中野１０４,,13,114,1640001,,,,,,,2023-04-24,1,,,,,ポケットエクサ,0
1944,7011301028656,新規,0,2023-04-24,2023-04-24,株式会社ＳＫＴ,,株式会社,東京都,杉並区,南荻窪２丁目１４番１１号,,13,115,1670052,,,,,,,2023-04-24,1,,,,,エスケイティ,0
1948,7011601026756,新規,0,2023-04-24,2023-04-24,京電株式会社,,株式会社,東京都,練馬区,桜台５丁目３９－９,,13,120,1760002,,,,,,,2023-04-24,1,,,,,キョウデン,0
1949,7011601026764,新規,0,2023-04-24,2023-04-24,株式会社紫櫻,,株式会社,東京都,練馬区,石神井町４丁目２３番１０号,,13,120,1770041,,,,,,,2023-04-24,1,,,,,シオウ,0
1954,7011801042280,新規,0,2023-04-24,2023-04-24,株式会社誠興工業,,株式会社,東京都,足立区,南花畑２丁目３８番１３号,,13,121,1210062,,,,,,,2023-04-24,1,,,,,,0
1958,7012805003194,新規,0,2023-04-24,2023-04-24,ブレイス東京社会保険労務士法人,,その他の設立登記法人,東京都,東大和市,上北台３丁目４６０番地の３ＦＵＳＥビル４階,,13,220,2070023,,,,,,,2023-04-24,1,,,,,ブレイストウキョウ,0
1978,7020001151288,新規,0,2023-04-24,2023-04-24,アマリコ株式会社,,株式会社,神奈川県,横浜市戸塚区,平戸１丁目１５－８５,,14,110,2440802,,,,,,,2023-04-24,1,,,,,アマリコ,0
1979,7020001151305,新規,0,2023-04-24,2023-04-24,株式会社ビルドリンク,,株式会社,神奈川県,横浜市金沢区,富岡西６丁目７番６号,,14,108,2360052,,,,,,,2023-04-24,1,,,,,ビルドリンク,0
1983,7020003023717,新規,0,2023-04-24,2023-04-24,合同会社Ｅｎｃｒｙｐｔｏ,,合同会社,神奈川県,横浜市西区,北幸２丁目１０番地２８むつみビル３Ｆ,,14,103,2200004,,,,,,,2023-04-24,1,,,,,エンクリプト,0
1984,7020003023782,新規,0,2023-04-24,2023-04-24,ドリームクリエイティブ合同会社,,合同会社,神奈川県,横浜市南区,別所中里台２６番１７号,,14,105,2320065,,,,,,,2023-04-24,1,,,,,ドリームクリエイティブ,0
1985,7020003023799,新規,0,2023-04-24,2023-04-24,合同会社ＲＥＣＲＯＡＤ,,合同会社,神奈川県,川崎市宮前区,鷺沼１丁目１１番１４号鷺沼パレス地下１階,,14,136,2160004,,,,,,,2023-04-24,1,,,,,レクロード,0
1991,7021001078835,新規,0,2023-04-24,2023-04-24,株式会社ビーヘルス,,株式会社,神奈川県,平塚市,南原１丁目３番２９号,,14,203,2540065,,,,,,,2023-04-24,1,,,,,ビーヘルス,0
1994,7021003013006,新規,0,2023-04-24,2023-04-24,マックロキクラゲ合同会社,,合同会社,神奈川県,相模原市南区,相模大野４丁目５番１４‐４０８,,14,153,2520303,,,,,,,2023-04-24,1,,,,,マックロキクラゲ,0
1995,7021003013022,新規,0,2023-04-24,2023-04-24,ココの国合同会社,,合同会社,神奈川県,小田原市,栢山２７３５番地１７,,14,206,2500852,,,,,,,2023-04-24,1,,,,,ココノクニ,0
1998,7030001153317,新規,0,2023-04-24,2023-04-24,Ｍｅｄｎｏｖｏ　Ｍｅｄｉｃａｌ　Ｔｅｃｈｎｏｌｏｇｙ　ＪＡＰＡＮ株式会社,,株式会社,埼玉県,所沢市,三ケ島４丁目２４１２番地の１７,,11,208,3591164,,,,,,,2023-04-24,1,,,,,メドノボメディカルテクノロジージャパン,0
2006,7040001128111,新規,0,2023-04-24,2023-04-24,株式会社Ａ＆Ｓ,,株式会社,千葉県,松戸市,八ケ崎１丁目３５番地１６,,12,207,2700023,,,,,,,2023-04-24,1,,,,,エーアンドエス,0
2016,7040005021964,新規,0,2023-04-24,2023-04-24,一般社団法人勝浦シティプロモーション,,その他の設立登記法人,千葉県,勝浦市,中谷５５番地,,12,218,2995227,,,,,,,2023-04-24,1,,,,,カツウラシティプロモーション,0
2017,7050001052731,新規,0,2023-04-24,2023-04-24,株式会社ヒラノ茨城,,株式会社,茨城県,北茨城市,中郷町松井２０６８番地３,,08,215,3191557,,,,,,,2023-04-24,1,,,,,ヒラノイバラキ,0
2020,7060001035933,新規,0,2023-04-24,2023-04-24,株式会社希望,,株式会社,栃木県,佐野市,植上町１７７７番地１１,,09,204,3270832,,,,,,,2023-04-24,1,,,,,ノゾミ,0
2025,7070001040354,新規,0,2023-04-24,2023-04-24,株式会社シラッシー,,株式会社,群馬県,高崎市,問屋町西１丁目７番１号,,10,202,3700007,,,,,,,2023-04-24,1,,,,,,0
2027,7070003004902,新規,0,2023-04-24,2023-04-24,合同会社ＣＵＬＴＩＶＡＴＥ,,合同会社,群馬県,吾妻郡嬬恋村,大字田代１００,,10,425,3771614,,,,,,,2023-04-24,1,,,,,,0
2028,7070005010114,新規,0,2023-04-24,2023-04-24,特定非営利活動法人ガジュマル,,その他の設立登記法人,群馬県,前橋市,日吉町２丁目２７番地１３,,10,201,3710017,,,,,,,2023-04-24,1,,,,,ガジュマル,0
2031,7080101023951,新規,0,2023-04-24,2023-04-24,株式会社朱琳,,株式会社,静岡県,駿東郡長泉町,下土狩４５５番地の８木村アパート１階南,,22,342,4110943,,,,,,,2023-04-24,1,,,,,アカリン,0
2037,7100001036349,新規,0,2023-04-24,2023-04-24,株式会社遊楽庵,,株式会社,長野県,茅野市,北山５５２２番地２８１,,20,214,3910301,,,,,,,2023-04-24,1,,,,,ユウラクアン,0
2046,7120001254279,新規,0,2023-04-24,2023-04-24,ＲＩＣＨＡ株式会社,,株式会社,大阪府,大阪市旭区,赤川３丁目１１番９－１０１号,,27,117,5350005,,,,,,,2023-04-24,1,,,,,リシャ,0
2047,7120001254295,新規,0,2023-04-24,2023-04-24,エムイーエス株式会社,,株式会社,大阪府,大阪市港区,夕凪１丁目１６番１５号夕凪プラザ３０２号,,27,107,5520004,,,,,,,2023-04-24,1,,,,,エムイーエス,0
2048,7120001254304,新規,0,2023-04-24,2023-04-24,株式会社ＬＩＮＫ,,株式会社,大阪府,大阪市住吉区,苅田３丁目１１番２９号,,27,120,5580011,,,,,,,2023-04-24,1,,,,,リンク,0
2049,7120001254312,新規,0,2023-04-24,2023-04-24,株式会社グローバルマインド,,株式会社,大阪府,大阪市淀川区,宮原２丁目５番２１号,,27,123,5320003,,,,,,,2023-04-24,1,,,,,グローバルマインド,0
2050,7120001254320,新規,0,2023-04-24,2023-04-24,株式会社喜掌,,株式会社,大阪府,大阪市西成区,鶴見橋３丁目５番９号,,27,122,5570031,,,,,,,2023-04-24,1,,,,,キショウ,0
2051,7120001254353,新規,0,2023-04-24,2023-04-24,Ｈ＆Ｓ株式会社,,株式会社,大阪府,寝屋川市,田井町３３－１０,,27,215,5720021,,,,,,,2023-04-24,1,,,,,エイチアンドエス,0
2065,7120901047443,新規,0,2023-04-24,2023-04-24,株式会社みしな,,株式会社,大阪府,豊中市,上新田３丁目１０番１０号サンパレス桃山台二番館,,27,203,5600085,,,,,,,2023-04-24,1,,,,,ミシナ,0
2067,7120903004608,新規,0,2023-04-24,2023-04-24,合同会社Ｂｌｏｓｓｏｍ,,合同会社,大阪府,豊中市,旭丘６番６－５０３号,,27,203,5610865,,,,,,,2023-04-24,1,,,,,ブロッサム,0
2069,7122003002566,新規,0,2023-04-24,2023-04-24,合同会社ＰＲＯＥＭＢ,,合同会社,大阪府,東大阪市,吉田本町３丁目５番１２－１００４号,,27,227,5780982,,,,,,,2023-04-24,1,,,,,プロエンブ,0
2070,7130001074172,新規,0,2023-04-24,2023-04-24,株式会社ユウテク,,株式会社,京都府,京都市山科区,大塚丹田７番地１３,,26,110,6078136,,,,,,,2023-04-24,1,,,,,ユウテク,0
2071,7130001074180,新規,0,2023-04-24,2023-04-24,株式会社カンコウタイシ,,株式会社,京都府,京都市右京区,嵯峨天龍寺芒ノ馬場町３番地２５嵐山スクエア２階,,26,108,6168385,,,,,,,2023-04-24,1,,,,,カンコウタイシ,0
2081,7140001129941,新規,0,2023-04-24,2023-04-24,株式会社ｅｖｏｌｖｅ　ｇｒｏｕｐ,,株式会社,兵庫県,姫路市,大津区天満５９３－３,,28,201,6711143,,,,,,,2023-04-24,1,,,,,エボルブグループ,0
2089,7160001024991,新規,0,2023-04-24,2023-04-24,橋本住宅建設株式会社,,株式会社,滋賀県,守山市,梅田町１５番９号,,25,207,5240037,,,,,,,2023-04-24,1,,,,,ハシモトジュウタクケンセツ,0
2100,7180001155975,新規,0,2023-04-24,2023-04-24,株式会社みずひろ,,株式会社,愛知県,春日井市,六軒屋町西１丁目５番地２,,23,206,4860839,,,,,,,2023-04-24,1,,,,,ミズヒロ,0
2101,7180001155991,新規,0,2023-04-24,2023-04-24,株式会社ミディ,,株式会社,愛知県,名古屋市港区,小賀須２丁目１４１１番地,,23,111,4550882,,,,,,,2023-04-24,1,,,,,ミディ,0
2111,7180003025152,新規,0,2023-04-24,2023-04-24,合同会社メイシンズ,,合同会社,愛知県,愛知郡東郷町,清水２丁目１２番地４,,23,302,4700165,,,,,,,2023-04-24,1,,,,,メイシンズ,0
2124,7200003005936,新規,0,2023-04-24,2023-04-24,合同会社ねいろ,,合同会社,岐阜県,岐阜市,城東町四丁目２１番地,,21,201,5000000,,,,,,,2023-04-24,1,,,,,ネイロ,0
2137,7240003006113,新規,0,2023-04-24,2023-04-24,ＭａｎａｐｏＬｉａ合同会社,,合同会社,広島県,広島市西区,井口３丁目２－６－７０３,,34,104,7330842,,,,,,,2023-04-24,1,,,,,マナポリア,0
2147,7260001037892,新規,0,2023-04-24,2023-04-24,株式会社クロシコ,,株式会社,岡山県,岡山市南区,妹尾２６８５番１,,33,104,7010205,,,,,,,2023-04-24,1,,,,,クロシコ,0
2153,7290001101299,新規,0,2023-04-24,2023-04-24,株式会社美創住建,,株式会社,福岡県,小郡市,希みが丘１丁目１０番地１,,40,216,8380107,,,,,,,2023-04-24,1,,,,,ビソウジュウケン,0
2154,7290003013831,新規,0,2023-04-24,2023-04-24,Ｇｌｏｂａｌ　Ｓｕｐｐｏｒｔ　Ｃｅｎｔｅｒ合同会社,,合同会社,福岡県,福岡市中央区,那の津４丁目２番２２号,,40,133,8100071,,,,,,,2023-04-24,1,,,,,グローバルサポートセンター,0
2167,7330001030790,新規,0,2023-04-24,2023-04-24,株式会社まごころ企画,,株式会社,熊本県,熊本市北区,梶尾町７７９番地５４,,43,105,8615512,,,,,,,2023-04-24,1,,,,,マゴコロキカク,0
2168,7330001030799,新規,0,2023-04-24,2023-04-24,株式会社清水企画,,株式会社,熊本県,合志市,須屋１２１番地１,,43,216,8611102,,,,,,,2023-04-24,1,,,,,シミズキカク,0
2171,7330003009817,新規,0,2023-04-24,2023-04-24,合同会社トレーラーシップ,,合同会社,熊本県,熊本市南区,江越１丁目２７番７号,,43,104,8600834,,,,,,,2023-04-24,1,,,,,トレーラーシップ,0
2178,7360001031910,新規,0,2023-04-24,2023-04-24,株式会社Ａｌｃｈｅｍｉｓｔａ,,株式会社,沖縄県,那覇市,松島１丁目１５－７ｍａｋａｂｉａｐａｒｔｍｅｎｔ２０９号,,47,201,9020069,,,,,,,2023-04-24,1,,,,,アルケミスタ,0
2184,7370003006100,新規,0,2023-04-24,2023-04-24,Ｒｉｃｏｎｉｃｏ合同会社,,合同会社,宮城県,仙台市青葉区,国分町２丁目１３－１セブンコートビル２階,,04,101,9800803,,,,,,,2023-04-24,1,,,,,リコニコ,0
2190,7380005012707,新規,0,2023-04-24,2023-04-24,一般社団法人日本モンテッソーリ発達支援研究センター,,その他の設立登記法人,福島県,福島市,野田町３丁目５番１５号,,07,201,9608055,,,,,,,2023-04-24,1,,,,,ニホンモンテッソーリハッタツシエンケンキュウセンター,0
2194,7400003003069,新規,0,2023-04-24,2023-04-24,合同会社歩,,合同会社,岩手県,花巻市,円万寺字中野２０番３０号,,03,205,0250042,,,,,,,2023-04-24,1,,,,,アユム,0
2204,7430001088910,新規,0,2023-04-24,2023-04-24,株式会社地蔵工業,,株式会社,北海道,石狩市,花川北三条２丁目１８３番地,,01,235,0613213,,,,,,,2023-04-24,1,,,,,ジゾウコウギョウ,0
2208,7430003014955,新規,0,2023-04-24,2023-04-24,合同会社ＯＦＦＩＣＥ　Ｗａｏｎ輪音,,合同会社,北海道,札幌市手稲区,星置三条６丁目２２－１４,,01,109,0060853,,,,,,,2023-04-24,1,,,,,オフィスワオン,0
2209,7430005014697,新規,0,2023-04-24,2023-04-24,一般社団法人サトジュニア,,その他の設立登記法人,北海道,札幌市西区,二十四軒四条５丁目１番８号,,01,107,0630804,,,,,,,2023-04-24,1,,,,,サトジュニア,0
2219,7480001012080,新規,0,2023-04-24,2023-04-24,株式会社Ｃ’ｅｓｔ　ｂｏｎ　Ｊａｍｂｏｎ,,株式会社,徳島県,徳島市,南沖洲１丁目８番５２号,,36,201,7700874,,,,,,,2023-04-24,1,,,,,セボンジャンボン,0
2221,7490003001766,新規,0,2023-04-24,2023-04-24,合同会社ウェルネスむろと,,合同会社,高知県,室戸市,室戸岬町３７９５番地１,,39,202,7817101,,,,,,,2023-04-24,1,,,,,ウェルネスムロト,0
2222,7700150115669,新規,0,2023-04-24,2023-04-24,Ｇｕａｎｇｚｈｏｕ　Ｂｕｒｖｏｇｕｅ　Ｃｌｏｔｈｉｎｇ　Ｃｏ．，Ｌｔｄ．,,外国会社等,,,,,,,,ＲＯＯＭ　１０２，ＮＯ．３１　ＮＯＲＴＨ　ＲＯＡＤ　ＯＦ　ＨＵＡＮＧＢＩＡＮ　ＢＡＩＹＵＮ　ＤＩＳＴ　Ｇｕａｎｇｚｈｏｕ　Ｇｕａｎｇｄｏｎｇ,,,,,,2023-04-24,1,,,,,グァンヂョウブルヴォーグクロウジングコウリミティド,0
2223,7700150115677,新規,0,2023-04-24,2023-04-24,Ｄｏｎｇｇｕａｎ　Ｙｉｍｉｎｇ　Ｔｅｃｈｎｏｌｏｇｙ　Ｃｏ．，Ｌｔｄ,,外国会社等,,,,,,,,Ｇｕａｎｇｄｏｎｇｓｈｅｎｇ　Ｄｏｎｇｇｕａｎｓｈｉ　ｃｈａｎｇａｎｚｈｅｎ　ｓｈａｔоｕｄｏｎｇｄａｌｕ　１ｈａｏ　１ｄａｎｙｕａｎ　ｓｈｉｄａｉｙｕｎｇｕ　８０７,,,,,,2023-04-24,1,,,,,ドングァンイミンテクノロジーカンパニーリミテッド,0
2224,7700150115685,新規,0,2023-04-24,2023-04-24,東莞市唯購電子商貿有限公司,,外国会社等,,,,,,,,Ｓｈａｎｇ　Ｊｉａｎｇ　Ｃｈｅｎｇ　Ｃｕｎ　Ｊｉａｎｇ　Ｃｈｅｎｇ　Ｄｏｎｇ　Ｌｕ　Ｇａｏ　Ｂｕ　Ｚｈｅｎ，Ｄｏｎｇ　Ｇｕａｎ　Ｓｈｉ，Ｇｕａｎｇ　Ｄｏｎｇ　Ｓｈｅｎｇ,,,,,,2023-04-24,1,,,,,トウカンシタダコウデンシショウボウユウゲンコウシ,0
2238,8010001234753,新規,0,2023-04-24,2023-04-24,盛栄商事株式会社,,株式会社,東京都,中央区,銀座７丁目１３番２０号銀座ＴＨビル９階,,13,102,1040061,,,,,,,2023-04-24,1,,,,,セイエイショウジ,0
2244,8010003040407,新規,0,2023-04-24,2023-04-24,合同会社静岡函南太陽光発電１号,,合同会社,東京都,千代田区,内幸町１丁目１番１号帝国ホテルタワー１６階,,13,101,1000011,,,,,,,2023-04-24,1,,,,,シズオカカンナミタイヨウコウハツデンイチゴウ,0
2245,8010003040415,新規,0,2023-04-24,2023-04-24,アストロ・イレブン合同会社,,合同会社,東京都,中央区,銀座１丁目６番１１号土志田ビルディング３Ｆ,,13,102,1040061,,,,,,,2023-04-24,1,,,,,アストロイレブン,0
2253,8010401173915,新規,0,2023-04-24,2023-04-24,株式会社Ｒｅ’ｍａｄｅ,,株式会社,東京都,港区,芝２丁目１８－１パークウェル芝公園２０３,,13,103,1050014,,,,,,,2023-04-24,1,,,,,リメイド,0
2254,8010401173931,新規,0,2023-04-24,2023-04-24,株式会社Ｄｏｏｒｗａｙｓ,,株式会社,東京都,港区,芝４丁目７番６号芝ビルディング７０４,,13,103,1080014,,,,,,,2023-04-24,1,,,,,ドアウェイズ,0
2257,8010405022085,新規,0,2023-04-24,2023-04-24,一般社団法人Ｙｕｒｉ,,その他の設立登記法人,東京都,港区,六本木１丁目９番１０号アークヒルズ仙石山森タワー４０階,,13,103,1060032,,,,,,,2023-04-24,1,,,,,ユリ,0
2263,8010601062983,新規,0,2023-04-24,2023-04-24,株式会社瑞祥,,株式会社,東京都,墨田区,錦糸２丁目４番６号,,13,107,1300013,,,,,,,2023-04-24,1,,,,,ズイショウ,0
2268,8010701044155,新規,0,2023-04-24,2023-04-24,ＳＫＹａｎｎｅｘ株式会社,,株式会社,東京都,品川区,大崎１丁目６番４号,,13,109,1410032,,,,,,,2023-04-24,1,,,,,スカイアネックス,0
2270,8010705003504,新規,0,2023-04-24,2023-04-24,一般社団法人ＭＥＧＵＲＯ　ＭＡＲＣ,,その他の設立登記法人,東京都,品川区,西五反田７丁目６番９号,,13,109,1410031,,,,,,,2023-04-24,1,,,,,メグロマーク,0
2271,8010801033875,新規,0,2023-04-24,2023-04-24,エクスペリオンインドコスモテクノロジース株式会社,,株式会社,東京都,大田区,大森東１丁目１番１９号ブラザーハイツ平和島２０５,,13,111,1430012,,,,,,,2023-04-24,1,,,,,エクスペリオンインドコスモテクノロジース,0
2280,8011001153951,新規,0,2023-04-24,2023-04-24,株式会社イロエンターテインメント,,株式会社,東京都,目黒区,青葉台４丁目７番１号,,13,110,1530042,,,,,,,2023-04-24,1,,,,,イロエンターテインメント,0
2281,8011001153976,新規,0,2023-04-24,2023-04-24,株式会社ライフエンハンシング,,株式会社,東京都,渋谷区,円山町５番５号Ｎａｖｉ渋谷Ｖ３階,00130221,13,113,1500044,,,,,,,2023-04-24,1,,,,,ライフエンハンシング,0
2282,8011001154009,新規,0,2023-04-24,2023-04-24,株式会社トライフォース,,株式会社,東京都,渋谷区,道玄坂１丁目１０番８号渋谷道玄坂東急ビル２Ｆ－Ｃ,,13,113,1500043,,,,,,,2023-04-24,1,,,,,トライフォース,0
2283,8011001154025,新規,0,2023-04-24,2023-04-24,株式会社至簡,,株式会社,東京都,渋谷区,富ヶ谷１丁目１４番１４号３階,,13,113,1510063,,,,,,,2023-04-24,1,,,,,イタルケン,0
2285,8011003016685,新規,0,2023-04-24,2023-04-24,合同会社Ｒａｂｂｉｔ,,合同会社,東京都,渋谷区,渋谷２丁目１９－１５宮益坂ビルディング６０９,,13,113,1500002,,,,,,,2023-04-24,1,,,,,ラビット,0
2286,8011003016702,新規,0,2023-04-24,2023-04-24,合同会社ｗａｆｔｙ,,合同会社,東京都,渋谷区,渋谷１丁目１番３号３Ｆ,,13,113,1500002,,,,,,,2023-04-24,1,,,,,ワフティー,0
2287,8011003016719,新規,0,2023-04-24,2023-04-24,合同会社めぐり逢い,,合同会社,東京都,渋谷区,道玄坂２丁目８番８号コスモ渋谷館７０１,,13,113,1500043,,,,,,,2023-04-24,1,,,,,メグリアイ,0
2290,8011103012972,新規,0,2023-04-24,2023-04-24,合同会社ＡＧＯ　Ｄｅｓｉｇｎ,,合同会社,東京都,新宿区,新宿５丁目１５番６号光陽ビル３階,,13,104,1600022,,,,,,,2023-04-24,1,,,,,エージーオーデザイン,0
2293,8011201024597,新規,0,2023-04-24,2023-04-24,ワールドクオリティバイオテク株式会社,,株式会社,東京都,中野区,大和町４丁目５２番１０号,,13,114,1650034,,,,,,,2023-04-24,1,,,,,ワールドクオリティバイオテク,0
2294,8011303004729,新規,0,2023-04-24,2023-04-24,ヨヲヨク合同会社,,合同会社,東京都,杉並区,善福寺１丁目５番７号,,13,115,1670041,,,,,,,2023-04-24,1,,,,,ヨヲヨク,0
2298,8011503005568,新規,0,2023-04-24,2023-04-24,合同会社Ｔｅｃｈｎｏｆｙ,,合同会社,東京都,北区,神谷３丁目５６－７江光マンション４０４号,,13,117,1150043,,,,,,,2023-04-24,1,,,,,テクノファイ,0
2301,8011601026763,新規,0,2023-04-24,2023-04-24,ガイディングスター株式会社,,株式会社,東京都,練馬区,西大泉２丁目２４番１３号,,13,120,1780065,,,,,,,2023-04-24,1,,,,,ガイディングススター,0
2305,8011701026192,新規,0,2023-04-24,2023-04-24,株式会社ハヌル,,株式会社,東京都,江戸川区,本一色１丁目２番３号,,13,123,1330044,,,,,,,2023-04-24,1,,,,,ハヌル,0
2306,8011801042296,新規,0,2023-04-24,2023-04-24,株式会社エスライン,,株式会社,東京都,葛飾区,金町４丁目２－１６,,13,122,1250042,,,,,,,2023-04-24,1,,,,,エスライン,0
2327,8020001151295,新規,0,2023-04-24,2023-04-24,株式会社グランドモーゲージ,,株式会社,神奈川県,横浜市青葉区,梅が丘３９番地５第２愛隣荘１０１号,,14,117,2270052,,,,,,,2023-04-24,1,,,,,グランドモーゲージ,0
2328,8020001151304,新規,0,2023-04-24,2023-04-24,株式会社Ｑ＆Ｐイノベーター,,株式会社,神奈川県,横浜市西区,北幸２丁目１０番地２８むつみビル３Ｆ,,14,103,2200004,,,,,,,2023-04-24,1,,,,,キューアンドピーイノベーター,0
2336,8020003023798,新規,0,2023-04-24,2023-04-24,合同会社ＤＹホームプラニング,,合同会社,神奈川県,横浜市青葉区,あざみ野南１丁目１５番地１,,14,117,2250012,,,,,,,2023-04-24,1,,,,,デイーワイホームプラニング,0
2340,8020005015959,新規,0,2023-04-24,2023-04-24,医療法人社団煌雅会,,その他の設立登記法人,神奈川県,川崎市幸区,下平間２０５番地２エクセルダイア新川崎１０２号室,,14,132,2120053,,,,,,,2023-04-24,1,,,,,コウガカイ,0
2344,8021001078826,新規,0,2023-04-24,2023-04-24,株式会社ＩＺＵＭＩＹＡ,,株式会社,神奈川県,横須賀市,長井１丁目２７番２１号,,14,201,2380316,,,,,,,2023-04-24,1,,,,,イズミヤ,0
2345,8021001078834,新規,0,2023-04-24,2023-04-24,株式会社志成,,株式会社,神奈川県,海老名市,下今泉１丁目１番８号シティハイムシマムラーＩ１０１号室,00130217,14,215,2430435,,,,,,,2023-04-24,1,,,,,シセイ,0
2348,8021003013021,新規,0,2023-04-24,2023-04-24,みしま合同会社,,合同会社,神奈川県,鎌倉市,材木座３丁目４番３０号,,14,204,2480013,,,,,,,2023-04-24,1,,,,,ミシマ,0
2350,8030001153563,新規,0,2023-04-24,2023-04-24,Ｍ．Ｂ．Ｙ米来商事株式会社,,株式会社,埼玉県,蕨市,中央１丁目１７番４８号ベルハイツ第１蕨４２０号,,11,223,3350004,,,,,,,2023-04-24,1,,,,,エムビワイミライショウジ,0
2362,8040001128085,新規,0,2023-04-24,2023-04-24,ノザキ建工建材株式会社,,株式会社,千葉県,千葉市美浜区,新港２２３番地３,,12,106,2610002,,,,,,,2023-04-24,1,,,,,ノザキケンコウケンザイ,0
2365,8040003022443,新規,0,2023-04-24,2023-04-24,ユーカリ合同会社,,合同会社,千葉県,流山市,野々下３丁目８９９番地の１１グレイス２０２,,12,220,2700135,,,,,,,2023-04-24,1,,,,,ユーカリ,0
2367,8040005021963,新規,0,2023-04-24,2023-04-24,一般社団法人白子町親の会ぽっぽ,,その他の設立登記法人,千葉県,長生郡白子町,中里１４８３番地１,,12,424,2994215,,,,,,,2023-04-24,1,,,,,シラコマチオヤノカイポッポ,0
2368,8040005021971,新規,0,2023-04-24,2023-04-24,医療法人社団あい育会,,その他の設立登記法人,千葉県,鎌ケ谷市,初富本町１丁目１番２４号,,12,224,2730125,,,,,,,2023-04-24,1,,,,,アイイクカイ,0
2370,8050001052730,新規,0,2023-04-24,2023-04-24,株式会社ファイナンシャルアーク,,株式会社,茨城県,つくば市,天久保２丁目３番地１ホソダビル２０５号,,08,220,3050005,,,,,,,2023-04-24,1,,,,,ファイナンシャルアーク,0
2372,8050003007443,新規,0,2023-04-24,2023-04-24,ＰＡＴＥＬ　ＴＲＡＤＩＮＧ合同会社,,合同会社,茨城県,筑西市,門井１９８５番地３コーポひまわりＡ－１号,,08,227,3091107,,,,,,,2023-04-24,1,,,,,パテルトレーディング,0
2373,8050003007451,新規,0,2023-04-24,2023-04-24,合同会社ワンダ,,合同会社,茨城県,那珂郡東海村,大字白方３２番地３,,08,341,3191106,,,,,,,2023-04-24,1,,,,,ワンダ,0
2376,8060001035924,新規,0,2023-04-24,2023-04-24,ＯＴＬＩＮＥ株式会社,,株式会社,栃木県,宇都宮市,インターパーク２丁目９番地７,,09,201,3210118,,,,,,,2023-04-24,1,,,,,オーティーライン,0
2380,8080405007542,新規,0,2023-04-24,2023-04-24,一般社団法人日本スウェーデン福祉研究所,,その他の設立登記法人,静岡県,浜松市中区,上島７丁目７－９,,22,131,4338122,,,,,,,2023-04-24,1,,,,,ニホンスウェーデンフクシケンキュウジョ,0
2395,8120001254261,新規,0,2023-04-24,2023-04-24,株式会社ＡＲＣＡＮＯＡＨ,,株式会社,大阪府,大阪市北区,兎我野町１１番３号サンシャイン東梅田２０１号,,27,127,5300056,,,,,,,2023-04-24,1,,,,,アルカノア,0
2396,8120001254278,新規,0,2023-04-24,2023-04-24,聯昇産業株式会社,,株式会社,大阪府,大阪市城東区,野江１丁目１番８号,,27,118,5360006,,,,,,,2023-04-24,1,,,,,レンショウサンギョウ,0
2397,8120001254294,新規,0,2023-04-24,2023-04-24,株式会社柳田組,00130214,株式会社,大阪府,大阪市西成区,山王２丁目５番１７号,,27,122,5570001,,,,,,,2023-04-24,1,,,,,ヤナギタグミ,0
2398,8120001254303,新規,0,2023-04-24,2023-04-24,ＺＬ株式会社,,株式会社,大阪府,大阪市中央区,高津３丁目１５番１０－６０４号,,27,128,5420072,,,,,,,2023-04-24,1,,,,,ゼットエル,0
2399,8120001254352,新規,0,2023-04-24,2023-04-24,居楽株式会社,,株式会社,大阪府,大阪市中央区,東平２丁目２番１０号,,27,128,5420063,,,,,,,2023-04-24,1,,,,,キョラク,0
2405,8120103005190,新規,0,2023-04-24,2023-04-24,合同会社経営者の自習室,,合同会社,大阪府,堺市堺区,宿院町西３丁２－１シャトー宿院９０５号,,27,141,5900958,,,,,,,2023-04-24,1,,,,,ケイエイシャノジシュウシツ,0
2409,8120901047442,新規,0,2023-04-24,2023-04-24,株式会社ＴＯＳＷＡＹ,,株式会社,大阪府,吹田市,山田西１丁目２２番Ａ７－４０１号,,27,205,5650824,,,,,,,2023-04-24,1,,,,,トスウェイ,0
2410,8120901047450,新規,0,2023-04-24,2023-04-24,株式会社Ａｃｈｅｔｅｒ,,株式会社,大阪府,箕面市,小野原東６丁目２１番２８号,,27,220,5620031,,,,,,,2023-04-24,1,,,,,アシュテ,0
2415,8130003008689,新規,0,2023-04-24,2023-04-24,合同会社ＯＰＰ,,合同会社,京都府,京都市山科区,大宅御所田町４８番地２１,,26,110,6078179,,,,,,,2023-04-24,1,,,,,オーピーピー,0
2420,8140001129899,新規,0,2023-04-24,2023-04-24,株式会社ＷＯＲＫ　ＯＵＴ,,株式会社,兵庫県,神戸市中央区,元町通４丁目１番１３号１１０３号室,,28,110,6500022,,,,,,,2023-04-24,1,,,,,ワークアウト,0
2421,8140001129916,新規,0,2023-04-24,2023-04-24,ブレインワーク株式会社,,株式会社,兵庫県,尼崎市,大島２丁目２２番３３号彩華ＩＶ１０４号,00130215,28,202,6600076,,,,,,,2023-04-24,1,,,,,ブレインワーク,0
2422,8140001129940,新規,0,2023-04-24,2023-04-24,株式会社ａ．ｔ．ｓ,,株式会社,兵庫県,高砂市,米田町米田１００２番地の５,,28,216,6760805,,,,,,,2023-04-24,1,,,,,エーティーエス,0
2434,8150001026328,新規,0,2023-04-24,2023-04-24,株式会社とだなら,,株式会社,奈良県,奈良市,三条町４７５松田ビル２Ｆ,,29,201,6308244,,,,,,,2023-04-24,1,,,,,トダナラ,0
2436,8170001017564,新規,0,2023-04-24,2023-04-24,株式会社Ｙｅｎｃｈａｎｔ,,株式会社,和歌山県,田辺市,磯間２４番４３号,,30,206,6460037,,,,,,,2023-04-24,1,,,,,エンチャント,0
2443,8180001155966,新規,0,2023-04-24,2023-04-24,株式会社バンジー,,株式会社,愛知県,名古屋市中区,栄１丁目２４番１１号タワー・ザ・ファースト名古屋栄６０６,,23,106,4600008,,,,,,,2023-04-24,1,,,,,バンジー,0
2444,8180001155974,新規,0,2023-04-24,2023-04-24,株式会社ｉｍｐｒｏｖｅ,,株式会社,愛知県,名古屋市北区,水草町２丁目５５番地の１,,23,103,4620042,,,,,,,2023-04-24,1,,,,,インプルーブ,0
2445,8180001155990,新規,0,2023-04-24,2023-04-24,株式会社Ｅｔｉｎｃｅ,,株式会社,愛知県,一宮市,三条字道東８０－６オーシマビル２Ｆシェアブル一宮２１０,,23,203,4940003,,,,,,,2023-04-24,1,,,,,エタンス,0
2450,8180003025151,新規,0,2023-04-24,2023-04-24,あおぞらホームズ合同会社,,合同会社,愛知県,名古屋市名東区,植園町１丁目９番地の３（Ｌ．Ｍ．虹ケ丘ガーデン２番館２０３号）,,23,115,4650077,,,,,,,2023-04-24,1,,,,,アオゾラホームズ,0
2455,8200003005935,新規,0,2023-04-24,2023-04-24,健康サポート合同会社,,合同会社,岐阜県,岐阜市,花沢町２丁目５番地,,21,201,5008142,,,,,,,2023-04-24,1,,,,,ケンコウサポート,0
2456,8200005013473,新規,0,2023-04-24,2023-04-24,司法書士法人ステラグループ,,その他の設立登記法人,岐阜県,安八郡神戸町,大字瀬古１１５４番地の５６,,21,381,5032318,,,,,,,2023-04-24,1,,,,,ステラグループ,0
2458,8220001025355,新規,0,2023-04-24,2023-04-24,サンワリアルエステート株式会社,,株式会社,石川県,金沢市,松村３丁目３３９番地,,17,201,9200348,,,,,,,2023-04-24,1,,,,,サンワリアルエステート,0
2465,8260001037891,新規,0,2023-04-24,2023-04-24,株式会社なごみ住宅サービス,,株式会社,岡山県,岡山市北区,田町２丁目６番１９号ＨＡＮＡビル３階,,33,101,7000825,,,,,,,2023-04-24,1,,,,,ナゴミジュウタクサービス,0
2470,8290001101307,新規,0,2023-04-24,2023-04-24,ＴｈｒｅｅＨ株式会社,,株式会社,福岡県,福岡市城南区,田島２丁目１１番２－１号,,40,136,8140113,,,,,,,2023-04-24,1,,,,,スリーエイチ,0
2471,8290001101315,新規,0,2023-04-24,2023-04-24,盛軍株式会社,,株式会社,福岡県,福岡市中央区,天神３丁目６番２４号,,40,133,8100001,,,,,,,2023-04-24,1,,,,,セイグン,0
2473,8290003013731,新規,0,2023-04-24,2023-04-24,ジャパン・ツアー・マネージメント合同会社,,合同会社,福岡県,福岡市東区,若宮５丁目６番４号,,40,131,8130036,,,,,,,2023-04-24,1,,,,,ジャパンツアーマネージメント,0
2474,8290003013822,新規,0,2023-04-24,2023-04-24,ＳＯＮＧ　ＴＩＥＮ合同会社,,合同会社,福岡県,福岡市南区,南大橋１丁目１９－１７ラルジュボン１０５,,40,134,8150034,,,,,,,2023-04-24,1,,,,,ソンテイエン,0
2482,8330001030773,新規,0,2023-04-24,2023-04-24,Ｒｉｓｅ　Ｉｎｔｅｒｎａｔｉｏｎａｌ株式会社,,株式会社,熊本県,上益城郡御船町,大字木倉１１２３番地１,,43,441,8613204,,,,,,,2023-04-24,1,,,,,ライズインターナショナル,0
2485,8350003004344,新規,0,2023-04-24,2023-04-24,農業生産法人合同会社吉宗農産,,合同会社,宮崎県,串間市,大字奈留５３６５番地２,,45,207,8893531,,,,,,,2023-04-24,1,,,,,ノウギョウセイサンホウジンヨシムネノウサン,0
2487,8370001049876,新規,0,2023-04-24,2023-04-24,株式会社エム,,株式会社,宮城県,仙台市青葉区,国分町２丁目８－１４第三太陽ビル,,04,101,9800803,,,,,,,2023-04-24,1,,,,,エム,0
2493,8390001017237,新規,0,2023-04-24,2023-04-24,株式会社ｋａｆｋａ,,株式会社,山形県,酒田市,東大町２丁目１番地の５,,06,204,9980851,,,,,,,2023-04-24,1,,,,,カフカ,0
2500,8430001088901,新規,0,2023-04-24,2023-04-24,株式会社アイ・エス・エス,,株式会社,北海道,札幌市東区,北十七条東３丁目１番２１－４０５号,,01,103,0650017,,,,,,,2023-04-24,1,,,,,アイエスエス,0
2502,8430005014696,新規,0,2023-04-24,2023-04-24,一般社団法人本気のリーダーの朝会,,その他の設立登記法人,北海道,札幌市豊平区,月寒東四条１８丁目２番６号,,01,105,0620054,,,,,,,2023-04-24,1,,,,,ホンキノリーダーノアサカイ,0
2508,8490001010462,新規,0,2023-04-24,2023-04-24,須崎水産加工株式会社,,株式会社,高知県,須崎市,野見６６番４,,39,206,7850056,,,,,,,2023-04-24,1,,,,,スサキスイサンカコウ,0
2511,8700150115668,新規,0,2023-04-24,2023-04-24,Ｂｒｕｇｍａｎ　＆　Ｇｅｖｅｒｓ　Ｂ．Ｖ．,,外国会社等,,,,,,,,Ｋｏｅｋｏｅｋｓｔｒａａｔ　２０，３５１４　ＣＷ，Ｕｔｒｅｃｈｔ，ｔｈｅ　Ｎｅｔｈｅｒｌａｎｄｓ,,,,,,2023-04-24,1,,,,,ビーアーユージーエムアーエンジーイービーイーアーエスビービー,0
2512,8700150115676,新規,0,2023-04-24,2023-04-24,Ｄｏｎｇｇｕａｎ　Ｇｏｄｓａｉｄ　Ｔｅｃｈｎｏｌｏｇｙ　Ｃｏ．，Ｌｔｄ．,,外国会社等,,,,,,,,ｔａｎｇ　ｓｈａ　ｚｈｅｎ　ｓｈｉ　ｇｕ　ｌｏｎｇ　ｋｏｕ　ｌｕ　１ｈａｏ　１０ｄｏｎｇ　２０２ｓｈｉ　ｄｏｎｇ　ｗａｎ　ｓｈｉ　ｇｕａｎｇ　ｄｏｎｇ　ｓｈｅｎｇ,,,,,,2023-04-24,1,,,,,ドングァンガッドセイテクノロジーカブシキカイシャ,0
2513,8700150115684,新規,0,2023-04-24,2023-04-24,ｎａｎｊｉｎｇ　ｋｕｌａｎｇ　ｈｕｗａｉｙｏｎｇｐｉｎ　ｙｏｕｘｉａｎｇｏｎｇｓｉ,,外国会社等,,,,,,,,ｎａｎｊｉｎｇｓｈｉ　ｊｉａｎｙｅｑｕ　ｂａｉｌｏｎｇｊｉａｎｇｄｏｎｇｊｉｅ９ｈａｏＢ６ｚｈｕａｎｇ２ｃｅｎｇ２－０１２ｆａｎｇｊｉａｎ（ｑｉｈｕｉｗａｎｓｈａｎｇｗｕｑｕ）ｎａｎｊｉｎｇ　ｊｉａｎｇｓｕＣＮ,,,,,,2023-04-24,1,,,,,ナンジンクランフワイヨンピンユウゲンコウシ,0
2524,9010001234653,新規,0,2023-04-24,2023-04-24,Ａａ　Ｐｌａｃｅ株式会社,,株式会社,東京都,中央区,晴海１丁目８番５－７０５号,,13,102,1040053,,,,,,,2023-04-24,1,,,,,エープレイス,0
2525,9010001234711,新規,0,2023-04-24,2023-04-24,株式会社富士メディシィエライティング,,株式会社,東京都,中央区,八丁堀１丁目１１番１２号,,13,102,1040032,,,,,,,2023-04-24,1,,,,,フジメディシィエライティング,0
2526,9010001234728,新規,0,2023-04-24,2023-04-24,エムタス・レフ株式会社,,株式会社,東京都,千代田区,神田錦町３丁目２０番地錦町トラッドスクエア４Ｆ,,13,101,1010054,,,,,,,2023-04-24,1,,,,,エムタスレフ,0
2527,9010001234752,新規,0,2023-04-24,2023-04-24,株式会社ｃｏｄｅ　Ａ,,株式会社,東京都,中央区,日本橋人形町２丁目３５番地１３号日本橋長谷川ビル５Ｆ,,13,102,1030013,,,,,,,2023-04-24,1,,,,,コードエー,0
2530,9010003040406,新規,0,2023-04-24,2023-04-24,合同会社栃木足利太陽光発電１号,,合同会社,東京都,千代田区,内幸町１丁目１番１号帝国ホテルタワー１６階,,13,101,1000011,,,,,,,2023-04-24,1,,,,,トチギアシカガタイヨウコウハツデンイチゴウ,0
2531,9010003040414,新規,0,2023-04-24,2023-04-24,アストロ・テン合同会社,,合同会社,東京都,中央区,銀座１丁目６番１１号土志田ビルディング３Ｆ,,13,102,1040061,,,,,,,2023-04-24,1,,,,,アストロテン,0
2532,9010003040422,新規,0,2023-04-24,2023-04-24,Ｖ２Ｋｃｏｎｓｕｌｔｉｎｇ合同会社,,合同会社,東京都,千代田区,神田和泉町１番地６－１６ヤマトビル４０５,,13,101,1010024,,,,,,,2023-04-24,1,,,,,ブイツーケーコンサルティング,0
2533,9010101015607,新規,0,2023-04-24,2023-04-24,サウスランド株式会社,,株式会社,東京都,八王子市,中町８番７号ＨＦ八王子レジデンス８０３号,,13,201,1920085,,,,,,,2023-04-24,1,,,,,,0
2540,9010501050352,新規,0,2023-04-24,2023-04-24,乾開株式会社,,株式会社,東京都,台東区,北上野２丁目２５番９号－４０１号室,,13,106,1100014,,,,,,,2023-04-24,1,,,,,ケンカイ,0
2541,9010601062990,新規,0,2023-04-24,2023-04-24,皇睿＿株式会社,00130223,株式会社,東京都,墨田区,横川４丁目１番２０号１Ｆ－Ｅ,,13,107,1300003,,,,,,,2023-04-24,1,,,,,コウエイキン,0
2546,9010703006672,新規,0,2023-04-24,2023-04-24,合同会社クラージュ,,合同会社,東京都,品川区,勝島１丁目３番７－８１７号,,13,109,1400012,,,,,,,2023-04-24,1,,,,,クラージュ,0
2555,9010902006003,新規,0,2023-04-24,2023-04-24,有限会社コトブキ企画,,有限会社,東京都,世田谷区,上北沢４丁目１７番１４－２０１号,,13,112,1560057,,,,,,,2023-04-24,1,,,,,,0
2561,9011001153604,新規,0,2023-04-24,2023-04-24,ＷＴＴジャパン株式会社,,株式会社,東京都,渋谷区,恵比寿４丁目２０番３号恵比寿ガーデンプレイスタワー１８階,,13,113,1500013,,,,,,,2023-04-24,1,,,,,ダブリューティーティージャパン,0
2562,9011001153959,新規,0,2023-04-24,2023-04-24,株式会社ねこみみクリーニング,,株式会社,東京都,目黒区,東山３丁目６番１５号,,13,110,1530043,,,,,,,2023-04-24,1,,,,,ネコミミクリーニング,0
2563,9011001154008,新規,0,2023-04-24,2023-04-24,株式会社ワークコンシェルジュ,,株式会社,東京都,渋谷区,道玄坂１丁目１５番３号,,13,113,1500043,,,,,,,2023-04-24,1,,,,,,0
2564,9011003016692,新規,0,2023-04-24,2023-04-24,合同会社ｆｉｆ,,合同会社,東京都,目黒区,東山２丁目１４番５号,,13,110,1530043,,,,,,,2023-04-24,1,,,,,エフアイエフ,0
2565,9011003016718,新規,0,2023-04-24,2023-04-24,合同会社ｐｒｉｍｅ,,合同会社,東京都,渋谷区,渋谷２丁目１９－１５宮益坂ビルディング６０９,,13,113,1500002,,,,,,,2023-04-24,1,,,,,プライム,0
2566,9011005010041,新規,0,2023-04-24,2023-04-24,原宿総合特許事務所弁理士法人,,その他の設立登記法人,東京都,渋谷区,神宮前６丁目２５番８－１３０９号,,13,113,1500001,,,,,,,2023-04-24,1,,,,,ハラジュクソウゴウトッキョジムショ,0
2572,9011201024605,新規,0,2023-04-24,2023-04-24,株式会社あゆむ,,株式会社,東京都,中野区,鷺宮３丁目３３－５－１Ｆ,,13,114,1650032,,,,,,,2023-04-24,1,,,,,アユム,0
2575,9011501029196,新規,0,2023-04-24,2023-04-24,Ｅスクエア株式会社,,株式会社,東京都,荒川区,東日暮里５丁目３９番１２号,,13,118,1160014,,,,,,,2023-04-24,1,,,,,イースクエア,0
2579,9011603003900,新規,0,2023-04-24,2023-04-24,合同会社田中研究所,,合同会社,東京都,練馬区,東大泉７丁目５０番１９号,,13,120,1780063,,,,,,,2023-04-24,1,,,,,タナカケンキュウジョ,0
2583,9011701026175,新規,0,2023-04-24,2023-04-24,木曽石材株式会社,,株式会社,東京都,江戸川区,南葛西３丁目１４番１６号,,13,123,1340085,,,,,,,2023-04-24,1,,,,,キソセキザイ,0
2585,9011801042279,新規,0,2023-04-24,2023-04-24,成紡株式会社,,株式会社,東京都,足立区,花畑３丁目１８番１９号,,13,121,1210061,,,,,,,2023-04-24,1,,,,,ナツ,0
2598,9020001151294,新規,0,2023-04-24,2023-04-24,株式会社アイトラスト,,株式会社,神奈川県,横浜市南区,山谷８２番地４－７０３,,14,105,2320036,,,,,,,2023-04-24,1,,,,,アイトラスト,0
2621,9021001078767,新規,0,2023-04-24,2023-04-24,株式会社ワンダーステップ,,株式会社,神奈川県,茅ヶ崎市,今宿２６３番地５ガレリアタウン湘南茅ヶ崎ｙ－３,,14,207,2530072,,,,,,,2023-04-24,1,,,,,ワンダーステップ,0
2626,9021005012771,新規,0,2023-04-24,2023-04-24,特定非営利活動法人キルギス小麦農業,,その他の設立登記法人,神奈川県,藤沢市,鵠沼橘１丁目１７番１１号順天ビル４Ｆ,,14,205,2510024,,,,,,,2023-04-24,1,,,,,,0
2631,9030001153323,新規,0,2023-04-24,2023-04-24,株式会社Ｎ・トコア,,株式会社,埼玉県,さいたま市浦和区,本太５丁目２５番９号,,11,107,3300052,,,,,,,2023-04-24,1,,,,,エヌトコア,0
2632,9030001153488,新規,0,2023-04-24,2023-04-24,株式会社聖栄,,株式会社,埼玉県,草加市,瀬崎３丁目４０番２５日東マンション７０６号,,11,221,3400022,,,,,,,2023-04-24,1,,,,,セイエイ,0
2633,9030003021486,新規,0,2023-04-24,2023-04-24,合同会社Ｓｉｎｃｅｒｅ,,合同会社,埼玉県,草加市,栄町１丁目７番１,,11,221,3400011,,,,,,,2023-04-24,1,,,,,シンシア,0
2634,9030003021635,新規,0,2023-04-24,2023-04-24,Ｍ．Ｋ合同会社,,合同会社,埼玉県,狭山市,大字北入曽７０５番地の１９,,11,215,3501315,,,,,,,2023-04-24,1,,,,,エムケー,0
2636,9030005021212,新規,0,2023-04-24,2023-04-24,一般社団法人あんど,,その他の設立登記法人,埼玉県,比企郡滑川町,大字福田７５５番地,,11,341,3550803,,,,,,,2023-04-24,1,,,,,アンド,0
2637,9030005021229,新規,0,2023-04-24,2023-04-24,一般社団法人日本検診協会,,その他の設立登記法人,埼玉県,鴻巣市,生出塚１丁目１２番４号,00130220,11,217,3650033,,,,,,,2023-04-24,1,,,,,ニホンケンシンキョウカイ,0
2651,9040003022467,新規,0,2023-04-24,2023-04-24,まちづくり情報ソリューション合同会社,,合同会社,千葉県,習志野市,花咲２丁目１６番４７号,,12,216,2750013,,,,,,,2023-04-24,1,,,,,マチヅクリジョウホウソリューション,0
2657,9050003007450,新規,0,2023-04-24,2023-04-24,合同会社ｕｎｏ,,合同会社,茨城県,日立市,東成沢町３丁目１６番２１号,,08,202,3160034,,,,,,,2023-04-24,1,,,,,ユーエヌオー,0
2659,9060001035923,新規,0,2023-04-24,2023-04-24,ホクトファーム株式会社,,株式会社,栃木県,小山市,若木町１丁目５番４５号,,09,208,3230028,,,,,,,2023-04-24,1,,,,,ホクトファーム,0
2669,9100003006991,新規,0,2023-04-24,2023-04-24,Ｔ‐ＯＳＧ合同会社,,合同会社,長野県,長野市,大字鶴賀権堂町２２７０番地１ニューパレスアーケード側,,20,201,3800833,,,,,,,2023-04-24,1,,,,,ティーオーエスジー,0
2685,9120001254260,新規,0,2023-04-24,2023-04-24,株式会社Ｅｓｃｏｒｔ,,株式会社,大阪府,大阪市阿倍野区,阪南町１丁目３０番１号ライズワン阿倍野ＩＩＩ４０３号,00130233,27,119,5450021,,,,,,,2023-04-24,1,,,,,エスコート,0
2686,9120001254302,新規,0,2023-04-24,2023-04-24,株式会社ｒｅＳｕｍｉｃａ,,株式会社,大阪府,大阪市東淀川区,東中島２丁目１９番７号,,27,114,5330033,,,,,,,2023-04-24,1,,,,,リスミカ,0
2687,9120001254310,新規,0,2023-04-24,2023-04-24,恩送り株式会社,,株式会社,大阪府,大阪市東住吉区,桑津２丁目１６番２－６０５号,,27,121,5460041,,,,,,,2023-04-24,1,,,,,オンオクリ,0
2688,9120001254319,新規,0,2023-04-24,2023-04-24,株式会社Ｌｉｎｆｉｎｉｔｙ,,株式会社,大阪府,大阪市東住吉区,南田辺１丁目５番３０号,,27,121,5460033,,,,,,,2023-04-24,1,,,,,リンフィニティ,0
2689,9120001254327,新規,0,2023-04-24,2023-04-24,日本厳品説株式会社,,株式会社,大阪府,大阪市住吉区,南住吉２丁目２番２５号クレールド長居４０５,,27,120,5580041,,,,,,,2023-04-24,1,,,,,ニホンゲンヒンセツ,0
2690,9120005023587,新規,0,2023-04-24,2023-04-24,一般社団法人大阪福祉援護会,,その他の設立登記法人,大阪府,大阪市鶴見区,緑３丁目１３番１１号,,27,124,5380054,,,,,,,2023-04-24,1,,,,,オオサカフクシエンゴカイ,0
2691,9120101067422,新規,0,2023-04-24,2023-04-24,株式会社ピーロ,,株式会社,大阪府,阪南市,下出６９０番地の７,,27,232,5990202,,,,,,,2023-04-24,1,,,,,ピーロ,0
2692,9120101067430,新規,0,2023-04-24,2023-04-24,株式会社宣誠,,株式会社,大阪府,堺市堺区,宿院町西３丁２－１４グラン・ビルド宿院７０５号室,,27,141,5900958,,,,,,,2023-04-24,1,,,,,センジョウ,0
2693,9120105009718,新規,0,2023-04-24,2023-04-24,一般社団法人ＴＡＮＳＥＩ,,その他の設立登記法人,大阪府,羽曳野市,羽曳が丘西５丁目６番７号,,27,222,5830865,,,,,,,2023-04-24,1,,,,,タンセイ,0
2696,9120903004606,新規,0,2023-04-24,2023-04-24,合同会社エミーサ,,合同会社,大阪府,豊中市,東豊中町４丁目２１番１２号,,27,203,5600003,,,,,,,2023-04-24,1,,,,,エミーサ,0
2697,9122001036911,新規,0,2023-04-24,2023-04-24,ロングライフカンパニー株式会社,,株式会社,大阪府,八尾市,旭ケ丘５丁目６４番地,,27,212,5810833,,,,,,,2023-04-24,1,,,,,ロングライフカンパニー,0
2701,9130001074170,新規,0,2023-04-24,2023-04-24,株式会社清公商事,,株式会社,京都府,相楽郡精華町,大字下狛小字市原２７番地,,26,366,6190245,,,,,,,2023-04-24,1,,,,,セイコウショウジ,0
2703,9130003008688,新規,0,2023-04-24,2023-04-24,合同会社ウェリナ,,合同会社,京都府,宇治市,南陵町１丁目１番地２８４,,26,204,6110028,,,,,,,2023-04-24,1,,,,,ウェリナ,0
2710,9140001129898,新規,0,2023-04-24,2023-04-24,株式会社Ａ＆ｌｉｖｅ,,株式会社,兵庫県,神戸市兵庫区,新開地６丁目１番１２号,,28,105,6520811,,,,,,,2023-04-24,1,,,,,エーアンドライブ,0
2714,9160001024998,新規,0,2023-04-24,2023-04-24,株式会社ワイファーマ,,株式会社,滋賀県,蒲生郡竜王町,大字須恵８１４番地９８,,25,384,5202500,,,,,,,2023-04-24,1,,,,,ワイファーマ,0
2715,9160003002853,新規,0,2023-04-24,2023-04-24,フォアグラウンド合同会社,,合同会社,滋賀県,大津市,打出浜２番１号コラボしが２１,,25,201,5200806,,,,,,,2023-04-24,1,,,,,フォアグラウンド,0
2717,9170003001854,新規,0,2023-04-24,2023-04-24,合同会社ｏａｋｓｗｅｌｌ,,合同会社,和歌山県,橋本市,隅田町垂井５９４番地の２,,30,203,6480018,,,,,,,2023-04-24,1,,,,,オークスウェル,0
2726,9180001155981,新規,0,2023-04-24,2023-04-24,株式会社サンライズドリーム,,株式会社,愛知県,名古屋市名東区,代万町２丁目６６番地,,23,115,4650086,,,,,,,2023-04-24,1,,,,,サンライズドリーム,0
2727,9180001156006,新規,0,2023-04-24,2023-04-24,株式会社Ｊ・Ｈ・Ｊ,,株式会社,愛知県,一宮市,木曽川町里小牧字北渡瀬２１番地,,23,203,4930005,,,,,,,2023-04-24,1,,,,,ジェイエイチジェイ,0
2741,9230001007459,新規,0,2023-04-24,2023-04-24,若栗土建工業株式会社,,株式会社,富山県,黒部市,若栗７７５８番地,,16,207,9380802,,,,,,,2023-04-24,1,,,,,ワカクリドケンコウギョウ,0
2747,9250003003256,新規,0,2023-04-24,2023-04-24,合同会社木むら,,合同会社,山口県,宇部市,大字東須恵７４４－３,,35,202,7590206,,,,,,,2023-04-24,1,,,,,キムラ,0
2765,9320001019718,新規,0,2023-04-24,2023-04-24,ＤＩＲＵ　ＩＮＴＥＲＮＡＴＩＯＮＡＬ株式会社,,株式会社,大分県,大分市,都町２丁目５番２２号双葉第二産業ビル５０１,,44,201,8700034,,,,,,,2023-04-24,1,,,,,ディルインターナショナル,0
2768,9330001030797,新規,0,2023-04-24,2023-04-24,株式会社人吉球磨三日月広告社,,株式会社,熊本県,球磨郡多良木町,大字多良木３５６番地８,,43,505,8680501,,,,,,,2023-04-24,1,,,,,ヒトヨシクマミカヅキコウコクシャ,0
2769,9330003009815,新規,0,2023-04-24,2023-04-24,合同会社ｖｅｒｔ,,合同会社,熊本県,上益城郡甲佐町,大字吉田１９５番地,,43,444,8613245,,,,,,,2023-04-24,1,,,,,ヴェール,0
2774,9360001031891,新規,0,2023-04-24,2023-04-24,リゾートコンストラクションマネジメント株式会社,,株式会社,沖縄県,石垣市,美崎町４－７,,47,207,9070012,,,,,,,2023-04-24,1,,,,,リゾートコンストラクションマネジメント,0
2775,9360001031925,新規,0,2023-04-24,2023-04-24,株式会社松田エンタープライズ,,株式会社,沖縄県,宮古島市,平良字下里２９０４番地４宮古島パレス５０１号室,,47,214,9060013,,,,,,,2023-04-24,1,,,,,マツダエンタープライズ,0
2778,9360003012907,新規,0,2023-04-24,2023-04-24,球陽フィルム合同会社,,合同会社,沖縄県,那覇市,銘苅３丁目９番２２号キャンディービル２階,,47,201,9000004,,,,,,,2023-04-24,1,,,,,キュウヨウフィルム,0
2801,9500003003024,新規,0,2023-04-24,2023-04-24,合同会社トモク,,合同会社,愛媛県,今治市,喜田村２丁目４番２１－９号,,38,202,7991502,,,,,,,2023-04-24,1,,,,,トモク,0
2803,9700150114529,新規,0,2023-04-24,2023-02-27,平井サンハイツ管理組合,,その他,東京都,江戸川区,平井４丁目２９－１６,,13,123,1320035,,,,,,,2023-02-27,1,,,,,ヒライサンハイツカンリクミアイ,0
2804,9700150115675,新規,0,2023-04-24,2023-04-24,Ｓｈｅｎｚｈｅｎ　ｙｉｎｇｙｉｎｇｆａｎｇｘｉｎｘｉｋｅｊｉ　ｙｏｕｘｉａｎｇｏｎｇｓｉ,,外国会社等,,,,,,,,ｎａｎｗａｎｊｉｅｄａｏｘｉａｌｉｌａｎｇｓｈｅｑｕ　ｘｉａｌｉｎａｎｌｕ７３ｈａｏ　ｄｏｎｇｊｉｕｃｈｕａｎｇｘｉｎｋｅｊｉｙｕａｎｅｒｑｉ７ｄｏｎｇ　Ｂ１５０４　ｌｏｎｇｇａｎｇｑｕ　ｓｈｅｎｚｈｅｎｓｈｉ,,,,,,2023-04-24,1,,,,,シンセンインヨンイングヮンシンキセキジユサンゴンシ,0
2805,9700150115683,新規,0,2023-04-24,2023-04-24,Ｊｉａｎｇｍｅｎｓｈｉ　ｊｉａｎｇｈａｉｑｕ　ｓｈｅｎｚｈｏｕｄｉａｎｚｉ　ｙｏｕｘｉａｎｇｏｎｇｓｉ,,外国会社等,,,,,,,,ｊｉａｎｇ　ｎａｎ　ｌｕ　２２ｈａｏ　ｃｈａｎｇ　ｆａｎｇ　４ｌｏｕ　ｊｉａｎｇ　ｍｅｎ　ｓｈｉ　ｊｉａｎｇ　ｈａｉ　ｑｕ　ｇｕａｎｇ　ｄｏｎｇ　ｓｈｅｎｇ,,,,,,2023-04-24,1,,,,,ジェンメンシジェンハイクセンゾォウデンシユウゲンコウシ,0
