sequenceNumber,corporateNumber,process,correct,updateDate,changeDate,name,nameImageId,kind,prefectureName,cityName,streetNumber,addressImageId,prefectureCode,cityCode,postCode,addressOutside,addressOutsideImageId,closeDate,closeCause,successorCorporateNumber,changeCause,assignmentDate,latest,enName,enPrefectureName,enCityName,enAddressOutside,furigana,hihyoji
1,1010001093999,登記記録の閉鎖等,0,2025-10-17,2025-10-03,千代田ソフト・クリエイト株式会社,,株式会社,東京都,中央区,勝どき３丁目６番１０号,,13,102,1040054,,,2025-10-03,清算の結了等,,,2015-10-05,1,,,,,チヨダソフトクリエイト,0
27,1010005032714,登記記録の閉鎖等,0,2025-10-17,2025-10-15,一般社団法人エステック東神奈川,,その他の設立登記法人,東京都,中央区,京橋２丁目７番１９号,,13,102,1040031,,,2025-10-15,清算の結了等,,,2020-12-22,1,,,,,エステックヒガシカナガワ,0
31,1010401118967,登記記録の閉鎖等,0,2025-10-17,2025-09-30,株式会社ビューバ,,株式会社,東京都,中央区,銀座１丁目１２番４号７階,,13,102,1040061,,,2025-09-30,清算の結了等,,,2015-10-05,1,,,,,ビューバ,0
34,1010402027630,登記記録の閉鎖等,0,2025-10-17,2025-10-01,有限会社赤坂見附ＡＨ＆ＲＳ,,有限会社,東京都,港区,赤坂３丁目２番３号,,13,103,1070052,,,2025-10-01,合併による解散等,1010401059179,令和７年１０月１日東京都港区赤坂三丁目２番３号アパリゾート株式会社（1010401059179）に合併し解散,2015-10-05,1,,,,,アカサカミツケエーエイチアンドアールエス,0
42,1010703006886,登記記録の閉鎖等,0,2025-10-17,2025-08-29,合同会社Ｍｉｒａｓｏｌ,,合同会社,東京都,品川区,豊町４丁目１０番９号,,13,109,1420042,,,2025-08-29,清算の結了等,,,2023-10-02,1,,,,,ミラソル,0
51,1011001049066,登記記録の閉鎖等,0,2025-10-17,2025-09-16,株式会社パインズ,,株式会社,東京都,渋谷区,千駄ヶ谷４丁目１６番７号,,13,113,1510051,,,2025-09-16,清算の結了等,,,2015-10-05,1,,,,,パインズ,0
63,1011101064642,登記記録の閉鎖等,0,2025-10-17,2025-09-11,晨光株式会社,,株式会社,東京都,新宿区,北新宿１丁目３５－１９,,13,104,1690074,,,2025-09-11,清算の結了等,,,2015-10-05,1,,,,,シンコウ,0
105,1021001046269,登記記録の閉鎖等,0,2025-10-17,2025-09-22,株式会社セイマックス,,株式会社,神奈川県,藤沢市,南藤沢２３－１０六光会館ビル地下１階,,14,205,2510055,,,2025-09-22,清算の結了等,,,2015-10-05,1,,,,,セイマックス,0
120,1030002010191,登記記録の閉鎖等,0,2025-10-17,2025-10-07,有限会社永山工務店,,有限会社,埼玉県,さいたま市北区,本郷町８８番地の１,,11,102,3310802,,,2025-10-07,清算の結了等,,,2015-10-05,1,,,,,ナガヤマコウムテン,0
125,1030005000784,登記記録の閉鎖等,0,2025-10-17,2025-10-07,埼玉県モデル工場協同組合,,その他の設立登記法人,埼玉県,さいたま市大宮区,桜木町１丁目７番地５,,11,103,3300854,,,2025-10-07,清算の結了等,,,2015-10-05,1,,,,,サイタマケンモデルコウジョウ,0
128,1040001075631,登記記録の閉鎖等,0,2025-10-17,2025-09-10,ＭＥＦサージテック株式会社,,株式会社,千葉県,流山市,南流山４丁目４番地の２近代コーポ２０３号室,,12,220,2700163,,,2025-09-10,清算の結了等,,,2015-10-05,1,,,,,エムイーエフサージテック,0
136,1040001126087,登記記録の閉鎖等,0,2025-10-17,2025-09-22,石川国際コンサルティング株式会社,,株式会社,千葉県,浦安市,明海２丁目３番１号,,12,227,2790014,,,2025-09-22,清算の結了等,,,2022-12-02,1,,,,,イシカワコクサイコンサルティング,0
140,1040002021915,登記記録の閉鎖等,0,2025-10-17,2025-09-18,有限会社元気堂,,有限会社,千葉県,船橋市,東船橋４丁目２４番７号,,12,204,2730002,,,2025-09-18,清算の結了等,,,2015-10-05,1,,,,,ゲンキドウ,0
142,1040002036797,登記記録の閉鎖等,0,2025-10-17,2025-09-16,有限会社実鈴,,有限会社,千葉県,市川市,本塩２１番３号,,12,203,2720104,,,2025-09-16,清算の結了等,,,2015-10-05,1,,,,,ミスズ,0
152,1080101008636,登記記録の閉鎖等,0,2025-10-17,2025-10-14,株式会社サンワード,,株式会社,静岡県,富士市,伝法４６８番地,,22,210,4170061,,,2025-10-14,清算の結了等,,,2015-10-05,1,,,,,サンワード,0
160,1100002012692,登記記録の閉鎖等,0,2025-10-17,2025-10-14,有限会社冨士美容室,,有限会社,長野県,小諸市,本町２丁目２番７号,,20,208,3840026,,,2025-10-14,清算の結了等,,,2024-11-21,1,,,,,フジビヨウシツ,0
161,1110001004442,登記記録の閉鎖等,0,2025-10-17,2025-10-06,ニッケンナウ株式会社,,株式会社,新潟県,新潟市中央区,女池神明３丁目７番地６,,15,103,9500943,,,2025-10-06,合併による解散等,7110001013792,令和７年１０月１日新潟市中央区姥ケ山１６３７番地オフィスＨａｎａｋｏ株式会社（7110001013792）に合併し解散,2015-10-05,1,,,,,ニッケンナウ,0
184,1120105007596,登記記録の閉鎖等,0,2025-10-17,2025-10-10,特定非営利活動法人発達障害児支援ＬＯＦ教育センター,,その他の設立登記法人,大阪府,大阪市天王寺区,北河堀町７－１２,,27,109,5430053,,,2025-10-10,清算の結了等,,,2015-10-05,1,,,,,ハッタツショウガイジシエンエルオーエフキョウイクセンター,0
187,1122002015319,登記記録の閉鎖等,0,2025-10-17,2025-10-06,有限会社柏原コンタクト,,有限会社,大阪府,大阪市阿倍野区,美章園２丁目１９番１６－３０８号,,27,119,5450003,,,2025-10-06,清算の結了等,,,2015-10-05,1,,,,,カシワラコンタクト,0
208,1160002011672,登記記録の閉鎖等,0,2025-10-17,2025-10-14,有限会社鏝市工芸,,有限会社,滋賀県,高島市,今津町岸脇３８４番地,,25,212,5201653,,,2025-10-14,清算の結了等,,,2015-10-05,1,,,,,コテイチコウゲイ,0
211,1180001145643,登記記録の閉鎖等,0,2025-10-17,2025-09-30,セオスマイル株式会社,,株式会社,愛知県,弥富市,前ケ須町東勘助１０８番地１やとみロイヤルハイツ６Ｂ,,23,235,4980017,,,2025-09-30,清算の結了等,,,2021-04-13,1,,,,,セオスマイル,0
238,1250002000220,登記記録の閉鎖等,0,2025-10-17,2025-10-14,有限会社上野園芸,,有限会社,山口県,山口市,阿東徳佐中２８６１番地,,35,203,7591512,,,2025-10-14,清算の結了等,,,2015-10-05,1,,,,,ウエノエンゲイ,0
261,1310001002236,登記記録の閉鎖等,0,2025-10-17,2025-10-15,山口園商事株式会社,,株式会社,長崎県,長崎市,文教町８番２号,,42,201,8528131,,,2025-10-15,清算の結了等,,,2015-10-05,1,,,,,ヤマグチエンショウジ,0
272,1370002014588,登記記録の閉鎖等,0,2025-10-17,2025-10-02,有限会社タグ,,有限会社,宮城県,仙台市青葉区,国分町３丁目１１番１３－５０２号,,04,101,9800803,,,2025-10-02,清算の結了等,,,2015-10-05,1,,,,,タグ,0
279,1380005007522,登記記録の閉鎖等,0,2025-10-17,2025-09-30,楢葉商工事業協同組合,00084574,その他の設立登記法人,福島県,双葉郡楢葉町,大字山田岡字仲丸１番地の７７,,07,542,9790513,,,2025-09-30,清算の結了等,,,2015-10-05,1,,,,,ナラハショウコウ,0
281,1420002017437,登記記録の閉鎖等,0,2025-10-17,2025-10-06,有限会社上成建設,,有限会社,青森県,上北郡七戸町,字森ケ沢１８７番地３,,02,402,0392828,,,2025-10-06,清算の結了等,,,2015-10-05,1,,,,,ジョウセイケンセツ,0
282,1430001013031,登記記録の閉鎖等,0,2025-10-17,2025-10-01,ノアインターナショナル株式会社,,株式会社,北海道,札幌市豊平区,豊平三条１３丁目２番１号,,01,105,0620903,,,2025-10-01,合併による解散等,6430001084134,令和７年１０月１日札幌市豊平区豊平三条十三丁目２番１号エーノースメディカル株式会社（6430001084134）に合併し解散,2015-10-05,1,,,,,ノアインターナショナル,0
288,1430003012048,登記記録の閉鎖等,0,2025-10-17,2025-10-02,合同会社ＧＲＯＷＴＨ,,合同会社,北海道,札幌市東区,北三十九条東２１丁目２番６０号,,01,103,0070839,,,2025-10-02,清算の結了等,,,2020-10-14,1,,,,,グロース,0
289,1490002008198,登記記録の閉鎖等,0,2025-10-17,2025-10-15,クリーンキーパー有限会社,,有限会社,高知県,四万十市,有岡１３３０番地,,39,210,7870771,,,2025-10-15,清算の結了等,,,2015-10-05,1,,,,,クリーンキーパー,0
317,2010601028684,登記記録の閉鎖等,0,2025-10-17,2025-10-03,日通海運ドレージ株式会社,,株式会社,東京都,江東区,若洲１丁目４番３号,,13,108,1360083,,,2025-10-03,清算の結了等,,,2015-10-05,1,,,,,ニッツウカイウンドレージ,0
318,2010701018247,登記記録の閉鎖等,0,2025-10-17,2025-10-10,智建設株式会社,,株式会社,東京都,品川区,南品川４丁目５番１８号,,13,109,1400004,,,2025-10-10,清算の結了等,,,2015-10-05,1,,,,,トモケンセツ,0
333,2011001067942,登記記録の閉鎖等,0,2025-10-17,2025-09-12,株式会社麹町メディカル,,株式会社,東京都,渋谷区,道玄坂１丁目１５番３号,,13,113,1500043,,,2025-09-12,清算の結了等,,,2015-10-05,1,,,,,コウジマチメディカル,0
341,2011103015031,登記記録の閉鎖等,0,2025-10-17,2025-09-03,ドントハード合同会社,,合同会社,東京都,新宿区,西新宿３丁目３－１３西新宿水間ビル二階,,13,104,1600023,,,2025-09-03,清算の結了等,,,2024-10-16,1,,,,,ドントハード,0
364,2020001097874,登記記録の閉鎖等,0,2025-10-17,2025-09-30,株式会社本郷開発,,株式会社,神奈川県,横浜市泉区,和泉町６５５４番地,,14,116,2450016,,,2025-09-30,清算の結了等,,,2015-10-05,1,,,,,ホンゴウカイハツ,0
380,2030001131797,登記記録の閉鎖等,0,2025-10-17,2025-10-07,ジャッカモ＆パートナーズ株式会社,,株式会社,埼玉県,さいたま市見沼区,大和田町２丁目１４８５番地２,,11,104,3370053,,,2025-10-07,清算の結了等,,,2019-07-08,1,,,,,ジャッカモアンドパートナーズ,0
381,2030001133769,登記記録の閉鎖等,0,2025-10-17,2025-09-09,株式会社グラビティ,,株式会社,東京都,新宿区,西早稲田３丁目２７番９号,,13,104,1690051,,,2025-09-09,合併による解散等,4011101077096,令和７年８月２７日東京都新宿区西早稲田三丁目２７番９号株式会社クラフト（4011101077096）に合併し解散,2019-11-15,1,,,,,グラビティ,0
382,2030001159203,登記記録の閉鎖等,0,2025-10-17,2025-09-17,株式会社Ｐｒｉｍｅ,,株式会社,福岡県,福岡市中央区,六本松１丁目２番地３－８０８号ＲＪＲプレシア六本松,,40,133,8100044,,,2025-09-17,清算の結了等,,,2024-03-15,1,,,,,プライム,0
400,2040002004472,登記記録の閉鎖等,0,2025-10-17,2025-09-18,有限会社三愛,,有限会社,千葉県,千葉市稲毛区,作草部１丁目１７番１５号,,12,103,2630015,,,2025-09-18,清算の結了等,,,2015-10-05,1,,,,,サンアイ,0
403,2040005011276,登記記録の閉鎖等,0,2025-10-17,2025-10-10,特定非営利活動法人ふるさと未来ネットワーク,,その他の設立登記法人,千葉県,茂原市,小林２６９８番地２,,12,210,2970074,,,2025-10-10,清算の結了等,,,2015-10-05,1,,,,,フルサトミライネットワーク,0
405,2050001011758,登記記録の閉鎖等,0,2025-10-17,2025-10-03,株式会社中里鉄工,,株式会社,茨城県,石岡市,大砂１０３００番地の１,,08,205,3150009,,,2025-10-03,清算の結了等,,,2015-10-05,1,,,,,ナカサトテッコウ,0
413,2080401011727,登記記録の閉鎖等,0,2025-10-17,2025-10-15,株式会社Ｅ・Ｍ・Ｃ,,株式会社,静岡県,浜松市中央区,下江町５８６番地,,22,138,4300825,,,2025-10-15,清算の結了等,,,2015-10-05,1,,,,,イーエムシー,0
421,2120001042861,登記記録の閉鎖等,0,2025-10-17,2025-10-01,株式会社九条赤岩,,株式会社,大阪府,大阪市西区,九条２丁目２３番１２号,,27,106,5500027,,,2025-10-01,清算の結了等,,,2015-10-05,1,,,,,クジョウアカイワ,0
443,2120005021135,登記記録の閉鎖等,0,2025-10-17,2025-10-10,一般社団法人臨床美容再生医療学会,,その他の設立登記法人,兵庫県,神戸市中央区,三宮町３丁目７番１０号,,28,110,6500021,,,2025-10-10,清算の結了等,,,2019-09-18,1,,,,,リンショウビヨウサイセイイリョウガッカイ,0
458,2130001072569,登記記録の閉鎖等,0,2025-10-17,2025-10-10,株式会社リフラフ,,株式会社,京都府,八幡市,八幡源氏垣外３５番地の６城南マンション１１７号,,26,210,6148025,,,2025-10-10,清算の結了等,,,2022-09-09,1,,,,,リフラフ,0
472,2150005007899,登記記録の閉鎖等,0,2025-10-17,2025-10-06,特定非営利活動法人奈良国際協力サポーター,,その他の設立登記法人,奈良県,奈良市,学園大和町５丁目１９５番地,,29,201,6310041,,,2025-10-06,清算の結了等,,,2015-10-05,1,,,,,ナラコクサイキョウリョクサポーター,0
479,2180001106314,登記記録の閉鎖等,0,2025-10-17,2025-10-01,和信株式会社,,株式会社,愛知県,名古屋市北区,駒止町２丁目６９番地３,,23,103,4620059,,,2025-10-01,清算の結了等,,,2015-10-05,1,,,,,ワシン,0
489,2180002014697,登記記録の閉鎖等,0,2025-10-17,2025-10-03,有限会社フルヤ商店,,有限会社,愛知県,尾張旭市,西山町１丁目９番地３,,23,226,4880824,,,2025-10-03,清算の結了等,,,2015-10-05,1,,,,,フルヤショウテン,0
498,2210001019883,登記記録の閉鎖等,0,2025-10-17,2025-10-14,株式会社小林商会,,株式会社,福井県,三方上中郡若狭町,能登野第３３号２番地の２,,18,501,9191314,,,2025-10-14,清算の結了等,,,2024-08-21,1,,,,,コバヤシショウカイ,0
500,2240001002498,登記記録の閉鎖等,0,2025-10-17,2025-10-09,株式会社協和商事,,株式会社,広島県,広島市佐伯区,五日市中央４丁目１４番２－２０８,,34,108,7315128,,,2025-10-09,清算の結了等,,,2015-10-05,1,,,,,,0
501,2240001041190,登記記録の閉鎖等,0,2025-10-17,2025-10-09,理研テック株式会社,,株式会社,広島県,福山市,神辺町字道上２５１４番地８,,34,207,7202104,,,2025-10-09,清算の結了等,,,2015-10-05,1,,,,,リケンテック,0
508,2260001023443,登記記録の閉鎖等,0,2025-10-17,2025-10-08,株式会社あんしん本舗,,株式会社,岡山県,倉敷市,西阿知町西原４２９番地１９,,33,202,7100806,,,2025-10-08,清算の結了等,,,2015-10-05,1,,,,,アンシンホンポ,0
511,2260002032476,登記記録の閉鎖等,0,2025-10-17,2025-10-06,有限会社エス・ケイ,,有限会社,岡山県,備前市,穂浪３４２番地の２０,,33,211,7050033,,,2025-10-06,清算の結了等,,,2015-10-05,1,,,,,エスケイ,0
527,2330001000749,登記記録の閉鎖等,0,2025-10-17,2025-09-30,観光タクシー株式会社,,株式会社,熊本県,熊本市中央区,大江１丁目２５番５０号,,43,101,8620971,,,2025-09-30,合併による解散等,4290001002153,令和７年７月１５日福岡市東区箱崎ふ頭五丁目９番３６号福岡交通株式会社（4290001002153）に合併し解散,2015-10-05,1,,,,,カンコウタクシー,0
549,2430001007420,登記記録の閉鎖等,0,2025-10-17,2025-10-01,株式会社新札幌ルーフ工業,,株式会社,北海道,札幌市白石区,北郷七条９丁目５番３号,,01,104,0030837,,,2025-10-01,清算の結了等,,,2015-10-05,1,,,,,シンサッポロルーフコウギョウ,0
550,2430001025356,登記記録の閉鎖等,0,2025-10-17,2025-10-01,株式会社三興保険サービス,,株式会社,北海道,札幌市中央区,北六条西１６丁目１番地５,,01,101,0600006,,,2025-10-01,合併による解散等,2430001032501,令和７年１０月１日札幌市中央区北六条西十六丁目１番地５株式会社ほくやく・竹山ホールディングス（2430001032501）に合併し解散,2015-10-05,1,,,,,サンコウホケンサービス,0
556,2440002008689,登記記録の閉鎖等,0,2025-10-17,2025-10-14,有限会社渡部電気工業,,有限会社,北海道,二海郡八雲町,東町２９３番地,,01,346,0493102,,,2025-10-14,清算の結了等,,,2015-10-05,1,,,,,,0
561,2480001011269,登記記録の閉鎖等,0,2025-10-17,2025-10-14,オール電化ジャパン株式会社,,株式会社,徳島県,板野郡上板町,七條字栗ノ木前２８番地１,,36,405,7711302,,,2025-10-14,清算の結了等,,,2021-02-17,1,,,,,オールデンカジャパン,0
565,2500001019292,登記記録の閉鎖等,0,2025-10-17,2025-10-14,ヤマスイ株式会社,,株式会社,愛媛県,松山市,堀江町甲８６４番地７７,,38,201,7992651,,,2025-10-14,清算の結了等,,,2015-10-05,1,,,,,ヤマスイ,0
571,3010005012425,登記記録の閉鎖等,0,2025-10-17,2025-10-14,弁護士法人岡田綜合法律事務所,,その他の設立登記法人,東京都,中央区,日本橋人形町２丁目３４番５号ＳＡＮＯＳ日本橋ビル６階Ｃ号室,,13,102,1030013,,,2025-10-14,清算の結了等,,,2015-10-05,1,,,,,オカダソウゴウホウリツジムショ,0
572,3010005031417,登記記録の閉鎖等,0,2025-10-17,2025-10-10,彩都はなだ開発特定目的会社,,その他の設立登記法人,東京都,中央区,日本橋１丁目４番１号,,13,102,1030027,,,2025-10-10,清算の結了等,,,2020-02-07,1,,,,,サイトハナダカイハツ,0
575,3010103002088,登記記録の閉鎖等,0,2025-10-17,2025-10-14,Ｐｉｅｒｃｅ合同会社,,合同会社,東京都,八王子市,明神町４丁目２６―１ＭＡＸＩＶ八王子ＤＵＥ８０１号,,13,201,1920046,,,2025-10-14,清算の結了等,,,2023-02-22,1,,,,,ピアース,0
583,3010402009940,登記記録の閉鎖等,0,2025-10-17,2025-09-16,有限会社アースリビング,,有限会社,東京都,港区,麻布台２丁目２番１号,,13,103,1060041,,,2025-09-16,清算の結了等,,,2015-10-05,1,,,,,アースリビング,0
587,3010501049400,登記記録の閉鎖等,0,2025-10-17,2025-09-17,株式会社ＷＯＲＬＤ　ＡＵＣＴＩＯＮ,,株式会社,東京都,台東区,上野５丁目８番１３号３Ｆ,,13,106,1100005,,,2025-09-17,清算の結了等,,,2022-09-26,1,,,,,ワールドオークション,0
604,3011101039650,登記記録の閉鎖等,0,2025-10-17,2025-09-11,大口アート株式会社,,株式会社,東京都,新宿区,上落合３丁目８番２１号,,13,104,1610034,,,2025-09-11,清算の結了等,,,2015-10-05,1,,,,,オオグチアート,0
609,3011201023587,登記記録の閉鎖等,0,2025-10-17,2025-10-01,株式会社ＭｏｎｏＶｅｒｓｅ,,株式会社,東京都,中野区,弥生町３丁目２９－８ラメールＫ・Ｓ２０４,,13,114,1640013,,,2025-10-01,清算の結了等,,,2022-01-26,1,,,,,モノバース,0
613,3011602009615,登記記録の閉鎖等,0,2025-10-17,2025-10-02,有限会社みつわ衣料,,有限会社,東京都,練馬区,平和台４丁目８番６号,,13,120,1790083,,,2025-10-02,清算の結了等,,,2015-10-05,1,,,,,ミツワイリョウ,0
614,3011701002487,登記記録の閉鎖等,0,2025-10-17,2025-10-07,株式会社漁協経営センター,,株式会社,東京都,江戸川区,一之江８丁目３番２号,,13,123,1320024,,,2025-10-07,清算の結了等,,,2015-10-05,1,,,,,ギョキョウケイエイセンター,0
620,3012302000582,登記記録の閉鎖等,0,2025-10-17,2025-10-01,有限会社井上測建,,有限会社,東京都,町田市,金井１丁目２３番２３号,,13,209,1950072,,,2025-10-01,清算の結了等,,,2015-10-05,1,,,,,,0
632,3013401006801,登記記録の閉鎖等,0,2025-10-17,2025-10-02,ユークリーン株式会社,,株式会社,東京都,稲城市,若葉台２丁目１２番地Ａ－９０３,,13,225,2060824,,,2025-10-02,清算の結了等,,,2015-10-05,1,,,,,ユークリーン,0
653,3030001091116,登記記録の閉鎖等,0,2025-10-17,2025-10-02,宝登興業株式会社,,株式会社,埼玉県,秩父郡長瀞町,大字長瀞１７６６番地１,,11,363,3691305,,,2025-10-02,合併による解散等,6030001085016,令和７年１０月１日埼玉県熊谷市曙町一丁目１番地秩父鉄道株式会社（6030001085016）に合併し解散,2015-10-05,1,,,,,ホドコウギョウ,0
657,3030002050913,登記記録の閉鎖等,0,2025-10-17,2025-10-08,有限会社クリーンスタッフ・サトウ,,有限会社,埼玉県,草加市,青柳３丁目２番３１号,,11,221,3400002,,,2025-10-08,清算の結了等,,,2015-10-05,1,,,,,クリーンスタッフサトウ,0
684,3080105005834,登記記録の閉鎖等,0,2025-10-17,2025-10-09,一般社団法人ふじ子ども・子育て支援ネット,,その他の設立登記法人,静岡県,富士市,石坂３７７番地の２８,,22,210,4170862,,,2025-10-09,清算の結了等,,,2018-03-07,1,,,,,フジコドモコソダテシエンネット,0
731,3180001135881,登記記録の閉鎖等,0,2025-10-17,2025-10-01,株式会社Ｆｏｏｄ　Ｃｒｅａｔｉｏｎ　Ｌａｂ,,株式会社,愛知県,名古屋市西区,市場木町３１１番地の１,,23,104,4520805,,,2025-10-01,清算の結了等,,,2019-03-27,1,,,,,フードクリエーションラボ,0
737,3180002078048,登記記録の閉鎖等,0,2025-10-17,2025-10-07,有限会社渡辺計算センター,,有限会社,愛知県,一宮市,今伊勢町新神戸字九反野５１番地,,23,203,4910052,,,2025-10-07,清算の結了等,,,2015-10-05,1,,,,,ワタナベケイサンセンター,0
738,3180005017622,登記記録の閉鎖等,0,2025-10-17,2025-10-15,一般社団法人ａｓＵ福祉会,,その他の設立登記法人,愛知県,名古屋市緑区,鳴海町字上ノ山２番地１,,23,114,4580842,,,2025-10-15,清算の結了等,,,2017-12-27,1,,,,,アズユーフクシカイ,0
748,3240002049620,登記記録の閉鎖等,0,2025-10-17,2025-10-09,妙見産業有限会社,,有限会社,広島県,竹原市,吉名町毛木沖５２５４番地の１３３,,34,203,7250013,,,2025-10-09,清算の結了等,,,2015-10-05,1,,,,,ミョウケンサンギョウ,0
750,3260001016495,登記記録の閉鎖等,0,2025-10-17,2025-10-08,株式会社ライズ,,株式会社,岡山県,倉敷市,西富井１３１６番地１２,,33,202,7100845,,,2025-10-08,清算の結了等,,,2015-10-05,1,,,,,ライズ,0
756,3260001037913,登記記録の閉鎖等,0,2025-10-17,2025-10-01,株式会社ＣＣＰ‐１,,株式会社,岡山県,岡山市南区,米倉６６番地２,,33,104,7000954,,,2025-10-01,合併による解散等,7260001002888,令和７年１０月１日岡山市南区米倉６６番地２株式会社サンキョウ－エンビックス（7260001002888）に合併し解散,2023-05-01,1,,,,,シーシーピーワン,0
757,3260001037954,登記記録の閉鎖等,0,2025-10-17,2025-10-06,株式会社ＢＯＳ,,株式会社,岡山県,岡山市北区,京町１２番１５号ソレイユ京町４０１,,33,101,7000838,,,2025-10-06,清算の結了等,,,2023-05-15,1,,,,,ビーオーエス,0
759,3260001040157,登記記録の閉鎖等,0,2025-10-17,2025-10-03,ＫＳＪ２‐１株式会社,,株式会社,岡山県,岡山市北区,錦町１番１号岡山駅前ビル４階,,33,101,7000902,,,2025-10-03,合併による解散等,3060001000676,令和７年９月３０日栃木県宇都宮市氷室町１７０７番地３宇都宮塗料工業株式会社（3060001000676）に合併し解散,2025-05-07,1,,,,,ケイエスジェーツーワン,0
770,3330005001379,登記記録の閉鎖等,0,2025-10-17,2025-10-07,医療法人社団良明会,,その他の設立登記法人,熊本県,熊本市中央区,水前寺３丁目３０番４０号,,43,101,8620950,,,2025-10-07,清算の結了等,,,2015-10-05,1,,,,,リョウメイカイ,0
772,3340002019092,登記記録の閉鎖等,0,2025-10-17,2025-10-07,有限会社丸山商店,,有限会社,鹿児島県,指宿市,開聞川尻５５１３番地１,,46,210,8910602,,,2025-10-07,清算の結了等,,,2015-10-05,1,,,,,マルヤマショウテン,0
781,3370001019000,登記記録の閉鎖等,0,2025-10-17,2025-10-01,株式会社ＮＣアミューズメント,,株式会社,宮城県,仙台市青葉区,福沢町３番３３号,,04,101,9800002,,,2025-10-01,合併による解散等,6370001018866,令和７年１０月１日仙台市青葉区福沢町３番３３号株式会社セントラル伸光（6370001018866）に合併し解散,2015-10-05,1,,,,,エヌシーアミューズメント,0
783,3370003000288,登記記録の閉鎖等,0,2025-10-17,2025-10-01,合資会社庄子アパート,,合資会社,宮城県,仙台市青葉区,角五郎１丁目３番１４号,,04,101,9800874,,,2025-10-01,清算の結了等,,,2015-10-05,1,,,,,ショウジアパート,0
789,3380002004520,登記記録の閉鎖等,0,2025-10-17,2025-10-02,有限会社アグリ高橋,00083490,有限会社,福島県,福島市,大笹生字桜畑３４番地の１,,07,201,9600251,,,2025-10-02,清算の結了等,,,2015-10-05,1,,,,,アグリタカハシ,0
790,3380002033544,登記記録の閉鎖等,0,2025-10-17,2025-10-01,有限会社渡部建設,,有限会社,福島県,会津若松市,川原町２番４号,,07,202,9650865,,,2025-10-01,清算の結了等,,,2015-10-05,1,,,,,ワタナベケンセツ,0
791,3390002003711,登記記録の閉鎖等,0,2025-10-17,2025-10-14,有限会社富士紙器,,有限会社,山形県,山形市,あけぼの１丁目１番地６,,06,201,9902162,,,2025-10-14,清算の結了等,,,2015-10-05,1,,,,,フジシキ,0
795,3430001066432,登記記録の閉鎖等,0,2025-10-17,2025-10-14,株式会社ＣｒｅａｔｅＦ,,株式会社,北海道,札幌市中央区,南一条西１１丁目１番地コンチネンタルビル９階,,01,101,0600061,,,2025-10-14,清算の結了等,,,2015-10-05,1,,,,,クリエイトエフ,0
796,3430001069798,登記記録の閉鎖等,0,2025-10-17,2025-10-14,株式会社ＤｅｓｅｒｔＲｏｓｅ,,株式会社,北海道,札幌市中央区,南一条西１１丁目１番地コンチネンタルビル９階,,01,101,0600061,,,2025-10-14,清算の結了等,,,2015-10-05,1,,,,,デザートローズ,0
798,3430002063230,登記記録の閉鎖等,0,2025-10-17,2025-10-03,有限会社きくちコンタクト,,有限会社,北海道,伊達市,大町３番地５,,01,233,0520027,,,2025-10-03,清算の結了等,,,2015-10-05,1,,,,,キクチコンタクト,0
816,4010002011800,登記記録の閉鎖等,0,2025-10-17,2025-09-29,有限会社綜合ビジネスサービス,,有限会社,東京都,中央区,八丁堀４丁目１０番２号,,13,102,1040032,,,2025-09-29,清算の結了等,,,2015-10-05,1,,,,,ソウゴウビジネスサービス,0
831,4010701021505,登記記録の閉鎖等,0,2025-10-17,2025-10-14,スキルブレイン株式会社,,株式会社,北海道,札幌市白石区,東札幌五条６丁目１番１２,,01,104,0030005,,,2025-10-14,清算の結了等,,,2015-10-05,1,,,,,スキルブレイン,0
854,4011601004038,登記記録の閉鎖等,0,2025-10-17,2025-10-07,株式会社太平ホーム,,株式会社,東京都,練馬区,関町東１丁目１０番９号,,13,120,1770052,,,2025-10-07,清算の結了等,,,2015-10-05,1,,,,,タイヘイホーム,0
866,4012402000077,登記記録の閉鎖等,0,2025-10-17,2025-10-02,有限会社アイ・ピー・オー,,有限会社,東京都,府中市,小柳町２丁目４１番地の１,,13,206,1830013,,,2025-10-02,清算の結了等,,,2015-10-05,1,,,,,アイピーオー,0
872,4012801009231,登記記録の閉鎖等,0,2025-10-17,2025-10-01,株式会社藤交通,,株式会社,東京都,昭島市,拝島町１丁目８番１９号,,13,207,1960002,,,2025-10-01,合併による解散等,8012801009302,令和７年１０月１日東京都立川市柏町一丁目２６番地の４株式会社セレモア（8012801009302）に合併し解散,2015-10-05,1,,,,,フジコウツウ,0
876,4020001010686,登記記録の閉鎖等,0,2025-10-17,2025-10-01,山昭運輸株式会社,,株式会社,神奈川県,横浜市中区,新山下３丁目１１番４１号,,14,104,2310801,,,2025-10-01,合併による解散等,1020001028054,令和７年１０月１日横浜市中区山下町２３番地日土地山下町ビル７階トナミ国際物流株式会社（1020001028054）に合併し解散,2015-10-05,1,,,,,ヤマショウウンユ,0
897,4030001124873,登記記録の閉鎖等,0,2025-10-17,2025-09-30,ＦＭＪ株式会社,,株式会社,埼玉県,さいたま市中央区,上落合１丁目８番１８－２０８号,,11,105,3380001,,,2025-09-30,清算の結了等,,,2018-03-28,1,,,,,エフエムジェイ,0
900,4030001156454,登記記録の閉鎖等,0,2025-10-17,2025-10-07,株式会社レッツＭＡＫＥ,,株式会社,埼玉県,三郷市,中央５丁目７番地２,,11,237,3410038,,,2025-10-07,清算の結了等,,,2023-10-10,1,,,,,レッツメイク,0
902,4030001157857,登記記録の閉鎖等,0,2025-10-17,2025-10-08,天＿美景伝媒株式会社,00133082,株式会社,埼玉県,草加市,氷川町２１０４番地１７,,11,221,3400034,,,2025-10-08,清算の結了等,,,2023-12-22,1,,,,,テンユウビケイメディア,0
911,4030002052982,登記記録の閉鎖等,0,2025-10-17,2025-10-08,有限会社浅間電機,,有限会社,埼玉県,上尾市,泉台１丁目２番地１,,11,219,3620062,,,2025-10-08,清算の結了等,,,2015-10-05,1,,,,,アサマデンキ,0
912,4030002112976,登記記録の閉鎖等,0,2025-10-17,2025-10-08,有限会社音地電気商会,,有限会社,埼玉県,熊谷市,小曽根１１９２番地５,,11,202,3600017,,,2025-10-08,清算の結了等,,,2015-10-05,1,,,,,オトチデンキショウカイ,0
924,4060002040646,登記記録の閉鎖等,0,2025-10-17,2025-10-14,有限会社共栄設備工業,,有限会社,栃木県,下都賀郡壬生町,幸町４丁目１番３号,,09,361,3210203,,,2025-10-14,清算の結了等,,,2015-10-05,1,,,,,キョウエイセツビコウギョウ,0
935,4080402006187,登記記録の閉鎖等,0,2025-10-17,2025-10-07,有限会社浜松伏見呉服店,,有限会社,静岡県,浜松市中央区,楊子町１６２番地の７,,22,138,4300855,,,2025-10-07,清算の結了等,,,2015-10-05,1,,,,,ハママツフシミゴフクテン,0
943,4110003003233,登記記録の閉鎖等,0,2025-10-17,2025-10-07,川島架設合同会社,,合同会社,新潟県,新潟市東区,物見山４丁目１１番２号丸玉フミ方,,15,102,9500021,,,2025-10-07,清算の結了等,,,2015-12-18,1,,,,,カワシマカセツ,0
947,4120001015709,登記記録の閉鎖等,0,2025-10-17,2025-10-15,東和産業株式会社,,株式会社,大阪府,大阪市城東区,中浜３丁目２６番６号,,27,118,5360024,,,2025-10-15,合併による解散等,9013301005955,令和７年１０月１日東京都豊島区巣鴨一丁目４６番１号株式会社ＦＯＵＲＣＵＳ（9013301005955）に合併し解散,2015-10-05,1,,,,,トウワサンギョウ,0
987,4140001001871,登記記録の閉鎖等,0,2025-10-17,2025-10-08,株式会社タイカイ,,株式会社,兵庫県,神戸市東灘区,青木５丁目４番２１－４０３号,,28,101,6580027,,,2025-10-08,清算の結了等,,,2015-10-05,1,,,,,タイカイ,0
1001,4170003000621,登記記録の閉鎖等,0,2025-10-17,2025-10-15,合資会社ホテルカレン,,合資会社,和歌山県,東牟婁郡串本町,田原１６２１番地の１,,30,428,6494112,,,2025-10-15,清算の結了等,,,2015-10-05,1,,,,,ホテルカレン,0
1028,4240001036429,登記記録の閉鎖等,0,2025-10-17,2025-10-06,株式会社相互リース,,株式会社,広島県,安芸郡海田町,昭和中町１番３６号,,34,304,7360064,,,2025-10-06,合併による解散等,5250001008847,令和７年９月３０日山口県周南市築港町５番１号山陽リース株式会社（5250001008847）に合併し解散,2015-10-05,1,,,,,ソウゴリース,0
1051,4310001008742,登記記録の閉鎖等,0,2025-10-17,2025-10-08,県央設備工業株式会社,,株式会社,長崎県,大村市,松並１丁目２４６番地１１,,42,205,8560814,,,2025-10-08,清算の結了等,,,2015-10-05,1,,,,,ケンオウセツビコウギョウ,0
1057,4320003003369,登記記録の閉鎖等,0,2025-10-17,2025-10-06,合同会社ぬちぐすい,,合同会社,大分県,佐伯市,長島町１丁目２３番１０号,,44,205,8760813,,,2025-10-06,清算の結了等,,,2020-11-11,1,,,,,ヌチグスイ,0
1071,4370001008092,登記記録の閉鎖等,0,2025-10-17,2025-10-01,株式会社コムメディア,,株式会社,宮城県,仙台市青葉区,本町１丁目１２番１２号,,04,101,9800014,,,2025-10-01,合併による解散等,7370001008858,令和７年１０月１日仙台市青葉区本町一丁目１２番１２号株式会社創童舎（7370001008858）に合併し解散,2015-10-05,1,,,,,コムメディア,0
1080,4400001004848,登記記録の閉鎖等,0,2025-10-17,2025-10-01,株式会社インディ,,株式会社,岩手県,盛岡市,肴町６番４号,,03,201,0200878,,,2025-10-01,合併による解散等,2400001000171,令和７年１０月１日岩手県盛岡市肴町６番４号インディ商事株式会社（2400001000171）に合併し解散,2015-10-05,1,,,,,インディ,0
1098,5010001215780,登記記録の閉鎖等,0,2025-10-17,2025-10-01,株式会社ＺＥＲＯ３マネジメント,,株式会社,東京都,中央区,銀座７丁目５番４号,,13,102,1040061,,,2025-10-01,清算の結了等,,,2021-02-12,1,,,,,ゼロスリーマネジメント,0
1110,5010401084207,登記記録の閉鎖等,0,2025-10-17,2025-09-29,ＧＢＴジャパン株式会社,,株式会社,東京都,千代田区,二番町９番地３,,13,101,1020084,,,2025-09-29,清算の結了等,,,2015-10-05,1,,,,,ジービーティジャパン,0
1124,5010902018159,登記記録の閉鎖等,0,2025-10-17,2025-09-16,有限会社ケイコーポレーション,,有限会社,東京都,目黒区,青葉台２丁目１０－３４,,13,110,1530042,,,2025-09-16,清算の結了等,,,2015-10-05,1,,,,,ケイコーポレーション,0
1153,5011501003015,登記記録の閉鎖等,0,2025-10-17,2025-10-06,ＮＲ電車線テクノ株式会社,,株式会社,東京都,荒川区,西尾久４丁目１４番６号,,13,118,1160011,,,2025-10-06,合併による解散等,6011501017105,令和７年１０月１日東京都荒川区西尾久四丁目１４番６号ＮＲ電気システム株式会社（6011501017105）に合併し解散,2015-10-05,1,,,,,エヌアールデンシャセンテクノ,0
1155,5011601010704,登記記録の閉鎖等,0,2025-10-17,2025-10-03,フューチャーイメージ・スポーツ株式会社,,株式会社,東京都,練馬区,栄町２８番１号２Ｆ,,13,120,1760006,,,2025-10-03,合併による解散等,4011601010705,令和７年１０月１日東京都練馬区栄町２８番１号２Ｆ株式会社アシスト（4011601010705）に合併し解散,2015-10-05,1,,,,,フューチャーイメージスポーツ,0
1161,5011801015321,登記記録の閉鎖等,0,2025-10-17,2025-10-06,グランフィールド株式会社,,株式会社,東京都,葛飾区,金町３丁目７番４号,,13,122,1250042,,,2025-10-06,清算の結了等,,,2015-10-05,1,,,,,グランフィールド,0
1163,5011802008828,登記記録の閉鎖等,0,2025-10-17,2025-10-15,有限会社あおい美装,,有限会社,東京都,足立区,青井５丁目１１番４０－３１３号,,13,121,1210012,,,2025-10-15,清算の結了等,,,2015-10-05,1,,,,,アオイビソウ,0
1182,5021002071774,登記記録の閉鎖等,0,2025-10-17,2025-10-02,有限会社松新丸,,有限会社,神奈川県,三浦市,南下浦町金田１９０６番地の６,,14,210,2380103,,,2025-10-02,清算の結了等,,,2015-10-05,1,,,,,マツシンマル,0
1206,5040002036050,登記記録の閉鎖等,0,2025-10-17,2025-09-12,株式会社ビーエル建築設備研究室,,株式会社,千葉県,船橋市,西船４丁目１８番１４号４０１,,12,204,2730031,,,2025-09-12,清算の結了等,,,2015-10-05,1,,,,,ビーエルケンチクセツビケンキュウシツ,0
1212,5060001011135,登記記録の閉鎖等,0,2025-10-17,2025-10-14,株式会社マウンドビッグ,,株式会社,栃木県,宇都宮市,平松本町３４５番地１,,09,201,3210932,,,2025-10-14,清算の結了等,,,2015-10-05,1,,,,,マウンドビッグ,0
1222,5080003002733,登記記録の閉鎖等,0,2025-10-17,2025-10-09,ミセス見城合同会社,,合同会社,静岡県,焼津市,駅北１丁目２番３－５０５号ライオンズマンション,,22,212,4250028,,,2025-10-09,清算の結了等,,,2022-02-16,1,,,,,ミセスケンジョウ,0
1234,5110005013122,登記記録の閉鎖等,0,2025-10-17,2025-10-06,一般社団法人南魚沼歯科医師会,,その他の設立登記法人,新潟県,南魚沼市,六日町２７９２番地,,15,226,9496680,,,2025-10-06,清算の結了等,,,2015-10-05,1,,,,,ミナミウオヌマシカイシカイ,0
1236,5120001043601,登記記録の閉鎖等,0,2025-10-17,2025-10-06,株式会社三輝,,株式会社,大阪府,大阪市中央区,南本町１丁目５番６号,,27,128,5410054,,,2025-10-06,清算の結了等,,,2015-10-05,1,,,,,サンキ,0
1237,5120001059523,登記記録の閉鎖等,0,2025-10-17,2025-10-06,株式会社大阪オリコミ,,株式会社,大阪府,大阪市北区,野崎町７番８号,,27,127,5300055,,,2025-10-06,清算の結了等,,,2015-10-05,1,,,,,オオサカオリコミ,0
1243,5120001242649,登記記録の閉鎖等,0,2025-10-17,2025-10-15,ファーマシーとやま株式会社,,株式会社,大阪府,大阪市西区,阿波座２丁目２番１８号いちご西本町ビル７Ｆ,,27,106,5500011,,,2025-10-15,合併による解散等,6140001114820,令和７年１０月１日兵庫県尼崎市御園町２４番地尼崎第一ビル４０２号クリエイトシェアードサービス株式会社（6140001114820）に合併し解散,2021-12-21,1,,,,,ファーマシートヤマ,0
1261,5120101050316,登記記録の閉鎖等,0,2025-10-17,2025-09-25,株式会社共進不動産,,株式会社,大阪府,岸和田市,西之内町１０番１２号,,27,202,5960044,,,2025-09-25,清算の結了等,,,2015-10-05,1,,,,,キョウシンフドウサン,0
1265,5120901008884,登記記録の閉鎖等,0,2025-10-17,2025-10-15,ワイケイエス株式会社,,株式会社,大阪府,吹田市,江の木町２５番５号,,27,205,5640053,,,2025-10-15,合併による解散等,1130001038513,令和７年１０月１日京都府城陽市久世北垣内１９番地１株式会社クリエーシス（1130001038513）に合併し解散,2015-10-05,1,,,,,ワイケイエス,0
1294,5220002008733,登記記録の閉鎖等,0,2025-10-17,2025-10-15,有限会社シーエスエー,,有限会社,石川県,白山市,美川中町ロ１６５番地,,17,210,9290224,,,2025-10-15,清算の結了等,,,2015-10-05,1,,,,,シーエスエー,0
1300,5250001016164,登記記録の閉鎖等,0,2025-10-17,2025-10-14,株式会社雄馬,,株式会社,山口県,宇部市,大字妻崎開作５５２番地２,,35,202,7590204,,,2025-10-14,清算の結了等,,,2016-09-06,1,,,,,ユウマ,0
1304,5260002014983,登記記録の閉鎖等,0,2025-10-17,2025-10-06,彦崎タクシー有限会社,,有限会社,岡山県,岡山市南区,彦崎２９０７番地の１５,,33,104,7091213,,,2025-10-06,清算の結了等,,,2015-10-05,1,,,,,ヒコサキタクシー,0
1306,5290001065967,登記記録の閉鎖等,0,2025-10-17,2025-09-16,株式会社ジェイ・ティー・シー,,株式会社,福岡県,福岡市中央区,清川２丁目２番１８－１０６号,,40,133,8100005,,,2025-09-16,清算の結了等,,,2015-10-05,1,,,,,ジェイティーシー,0
1331,5380002014377,登記記録の閉鎖等,0,2025-10-17,2025-10-01,有限会社ユーズフル,,有限会社,福島県,郡山市,喜久田町字双又３０番地の５０,,07,203,9630551,,,2025-10-01,清算の結了等,,,2015-10-05,1,,,,,ユーズフル,0
1332,5380002024384,登記記録の閉鎖等,0,2025-10-17,2025-10-02,有限会社スタジオ・ワン,,有限会社,福島県,いわき市,中央台飯野４丁目２番地の４いわきニュータウンセンタービル,,07,204,9708044,,,2025-10-02,清算の結了等,,,2015-10-05,1,,,,,スタジオワン,0
1335,5420002007707,登記記録の閉鎖等,0,2025-10-17,2025-10-06,有限会社玉喜,,有限会社,青森県,八戸市,大字田面木字十文字平２４番地２５,,02,203,0391104,,,2025-10-06,清算の結了等,,,2015-10-05,1,,,,,タマキ,0
1338,5430001037381,登記記録の閉鎖等,0,2025-10-17,2025-10-14,株式会社トップラインズ,,株式会社,北海道,札幌市厚別区,厚別中央四条２丁目２０番１３号,,01,108,0040054,,,2025-10-14,清算の結了等,,,2015-10-05,1,,,,,トップラインズ,0
1339,5430002004109,登記記録の閉鎖等,0,2025-10-17,2025-10-06,有限会社岡田技術士事務所,,有限会社,北海道,札幌市東区,北二十八条東６丁目１番１１号,,01,103,0650028,,,2025-10-06,清算の結了等,,,2015-10-05,1,,,,,オカダギジュツシジムショ,0
1352,6010001075316,登記記録の閉鎖等,0,2025-10-17,2025-10-07,株式会社ディーイーシー・マネージメントオフィス,,株式会社,東京都,中央区,築地３丁目１７－９興和日東ビル９階,,13,102,1040045,,,2025-10-07,合併による解散等,7010001127322,令和７年１０月１日東京都千代田区神田神保町二丁目２番地株式会社４Ｘ（7010001127322）に合併し解散,2015-10-05,1,,,,,ディーイーシーマネージメントオフィス,0
1354,6010001134591,登記記録の閉鎖等,0,2025-10-17,2025-09-29,株式会社放送出版,,株式会社,東京都,千代田区,神田神保町２丁目７番地３,,13,101,1010051,,,2025-09-29,清算の結了等,,,2015-10-05,1,,,,,ホウソウシュッパン,0
1359,6010001213627,登記記録の閉鎖等,0,2025-10-17,2025-09-17,ブルー・ロジスティックス株式会社,,株式会社,神奈川県,鎌倉市,十二所８６１番地,,14,204,2480001,,,2025-09-17,清算の結了等,,,2020-11-11,1,,,,,ブルーロジスティックス,0
1368,6010403032113,登記記録の閉鎖等,0,2025-10-17,2025-09-12,ＡＭＲＡＰ合同会社,,合同会社,東京都,港区,南青山２丁目２番１５号ウィン青山９４２,,13,103,1070062,,,2025-09-12,清算の結了等,,,2024-03-06,1,,,,,アムラップ,0
1377,6010901032044,登記記録の閉鎖等,0,2025-10-17,2025-10-08,株式会社Ｇｅｍ　Ｓｔｏｎｅ　Ｋｉｎｇ,,株式会社,東京都,杉並区,浜田山４丁目３３番地３号－３０３号室,,13,115,1680065,,,2025-10-08,清算の結了等,,,2015-10-05,1,,,,,ジェムストーンキング,0
1392,6011501025990,登記記録の閉鎖等,0,2025-10-17,2025-09-29,ＮｏＣｏｄｅ　Ｊａｐａｎ株式会社,,株式会社,東京都,中央区,日本橋茅場町２丁目４番５号茅場町２丁目ビル８階,,13,102,1030025,,,2025-09-29,清算の結了等,,,2020-07-09,1,,,,,ノーコードジャパン,0
1396,6011702014124,登記記録の閉鎖等,0,2025-10-17,2025-10-07,有限会社日本メディカルバンク,,有限会社,東京都,江戸川区,西小岩１丁目２７番９号,,13,123,1330057,,,2025-10-07,清算の結了等,,,2015-10-05,1,,,,,ニホンメディカルバンク,0
1397,6011703003555,登記記録の閉鎖等,0,2025-10-17,2025-10-09,カンタンライフ合同会社,,合同会社,東京都,江戸川区,平井５丁目４５番５号渡辺ハイツ１０１,,13,123,1320035,,,2025-10-09,清算の結了等,,,2023-08-09,1,,,,,カンタンライフ,0
1408,6012402008572,登記記録の閉鎖等,0,2025-10-17,2025-10-02,渡辺工業有限会社,,有限会社,東京都,狛江市,西野川３丁目１３番８号,,13,219,2010001,,,2025-10-02,清算の結了等,,,2015-10-05,1,,,,,ワタナベコウギョウ,0
1445,6030002091228,登記記録の閉鎖等,0,2025-10-17,2025-09-25,有限会社エープランニング,,有限会社,埼玉県,越谷市,大字大林５００番地１ライオンズマンション北越谷第２－３０８,,11,222,3430021,,,2025-09-25,清算の結了等,,,2015-10-05,1,,,,,エープランニング,0
1454,6040002022363,登記記録の閉鎖等,0,2025-10-17,2025-09-12,有限会社ＳＡＳＵＫＥ,,有限会社,千葉県,市川市,市川南３丁目１２番,,12,203,2720033,,,2025-09-12,清算の結了等,,,2015-10-05,1,,,,,,0
1459,6050002034135,登記記録の閉鎖等,0,2025-10-17,2025-10-03,有限会社丸木屋,,有限会社,茨城県,稲敷市,下太田７３２番地,,08,229,3001424,,,2025-10-03,清算の結了等,,,2015-10-05,1,,,,,マルキヤ,0
1461,6060003001323,登記記録の閉鎖等,0,2025-10-17,2025-10-10,合同会社Ｋ企画,,合同会社,栃木県,小山市,駅南町３丁目１番８号,,09,208,3230822,,,2025-10-10,清算の結了等,,,2015-10-05,1,,,,,ケイキカク,0
1477,6110002013719,登記記録の閉鎖等,0,2025-10-17,2025-10-08,有限会社新生,,有限会社,新潟県,五泉市,寺沢４丁目２番４１号,,15,218,9591837,,,2025-10-08,清算の結了等,,,2015-10-05,1,,,,,シンセイ,0
1478,6120001108469,登記記録の閉鎖等,0,2025-10-17,2025-10-14,株式会社エレベーターテクノス,,株式会社,大阪府,大阪市西淀川区,野里２丁目２０番７号,,27,113,5550024,,,2025-10-14,合併による解散等,1340001001400,令和７年１０月１日鹿児島市西千石町１番１号マーキュリーエレベータ株式会社（1340001001400）に合併し解散,2015-10-05,1,,,,,エレベーターテクノス,0
1481,6120001205522,登記記録の閉鎖等,0,2025-10-17,2025-10-03,新垣建装株式会社,,株式会社,大阪府,大阪市旭区,中宮３丁目１５番２１号,,27,117,5350003,,,2025-10-03,清算の結了等,,,2017-05-16,1,,,,,シンガキケンソウ,0
1483,6120001219489,登記記録の閉鎖等,0,2025-10-17,2025-10-14,株式会社＿栄商事,00115970,株式会社,大阪府,大阪市北区,梅田２丁目５番１３号桜橋第一ビル３０４号,,27,127,5300001,,,2025-10-14,清算の結了等,,,2019-03-08,1,,,,,キンエイショウジ,0
1508,6130001005178,登記記録の閉鎖等,0,2025-10-17,2025-10-14,土源建材株式会社,,株式会社,京都府,京都市北区,大宮開町７番地の２,,26,101,6038437,,,2025-10-14,清算の結了等,,,2015-10-05,1,,,,,ツチゲンケンザイ,0
1523,6170002009109,登記記録の閉鎖等,0,2025-10-17,2025-10-14,Ａ・Ｈ・Ｓ・ＷＯＲＫ有限会社,,有限会社,和歌山県,田辺市,上秋津１４３２番地の２,,30,206,6460001,,,2025-10-14,清算の結了等,,,2015-10-05,1,,,,,エイエイチエスワーク,0
1524,6180001078806,登記記録の閉鎖等,0,2025-10-17,2025-09-29,株式会社ゴトー,,株式会社,愛知県,名古屋市名東区,本郷１丁目２６８番地,,23,115,4650024,,,2025-09-29,清算の結了等,,,2015-10-05,1,,,,,ゴトー,0
1535,6190001012202,登記記録の閉鎖等,0,2025-10-17,2025-10-06,コスモ電設株式会社,,株式会社,三重県,桑名市,大字東方５１４番地の２,,24,205,5110811,,,2025-10-06,清算の結了等,,,2015-10-05,1,,,,,コスモデンセツ,0
1542,6200002004378,登記記録の閉鎖等,0,2025-10-17,2025-10-14,マミーズネットワーク有限会社,,有限会社,岐阜県,岐阜市,五坪２丁目３番３－２０７号,,21,201,5008157,,,2025-10-14,清算の結了等,,,2015-10-05,1,,,,,マミーズネットワーク,0
1544,6210001000872,登記記録の閉鎖等,0,2025-10-17,2025-10-15,株式会社苅安商店,,株式会社,福井県,福井市,城東４丁目１７番１５号,,18,201,9100853,,,2025-10-15,清算の結了等,,,2015-10-05,1,,,,,カリヤスショウテン,0
1548,6230001014094,登記記録の閉鎖等,0,2025-10-17,2025-10-10,株式会社中国五輪,,株式会社,広島県,広島市西区,楠木町３丁目１３番４号,,34,104,7330002,,,2025-10-10,合併による解散等,6230001000961,令和７年１０月１日富山市奥田新町１２番３号株式会社五輪（6230001000961）に合併し解散,2015-10-05,1,,,,,チュウゴクゴリン,0
1550,6240001050122,登記記録の閉鎖等,0,2025-10-17,2025-10-10,ＴＯＫＡＩ株式会社,,株式会社,広島県,安芸郡府中町,緑ケ丘８番５号,,34,302,7350024,,,2025-10-10,清算の結了等,,,2016-10-27,1,,,,,トーカイ,0
1556,6240002052662,登記記録の閉鎖等,0,2025-10-17,2025-10-10,新宅電業有限会社,,有限会社,広島県,世羅郡世羅町,大字寺町１１７７番地の１,,34,462,7221111,,,2025-10-10,清算の結了等,,,2015-10-05,1,,,,,シンタクデンギョウ,0
1559,6260002013596,登記記録の閉鎖等,0,2025-10-17,2025-10-14,有限会社アップワード,,有限会社,岡山県,岡山市中区,平井５丁目４番４－１号,,33,102,7038282,,,2025-10-14,清算の結了等,,,2015-10-05,1,,,,,アップワード,0
1570,6290001097737,登記記録の閉鎖等,0,2025-10-17,2025-10-14,展芸株式会社,,株式会社,京都府,京都市北区,平野宮敷町１２－４,,26,101,6038365,,,2025-10-14,清算の結了等,,,2022-06-03,1,,,,,テンゲイ,0
1591,6360002010237,登記記録の閉鎖等,0,2025-10-17,2025-10-03,有限会社ボヌール企画,,有限会社,東京都,稲城市,東長沼３６６番地の１０,,13,225,2060802,,,2025-10-03,清算の結了等,,,2015-10-05,1,,,,,ボヌールキカク,0
1593,6360005000722,登記記録の閉鎖等,0,2025-10-17,2025-10-09,沖縄県化粧品小売協同組合,,その他の設立登記法人,沖縄県,那覇市,西１丁目１２番１８号,,47,201,9000036,,,2025-10-09,清算の結了等,,,2015-10-05,1,,,,,,0
1613,6430001028413,登記記録の閉鎖等,0,2025-10-17,2025-10-01,株式会社ＩＣＳ,,株式会社,北海道,札幌市豊平区,美園三条６丁目３番１０号,,01,105,0620003,,,2025-10-01,合併による解散等,5430001012450,令和７年１０月１日札幌市豊平区美園三条六丁目３番１０号ＡＧＨトヨタ札幌株式会社（5430001012450）に合併し解散,2015-10-05,1,,,,,アイシーエス,0
1622,6430005006076,登記記録の閉鎖等,0,2025-10-17,2025-09-24,特定非営利活動法人恵庭市手をつなぐ育成会,,その他の設立登記法人,北海道,恵庭市,漁町２１さかえ会館内,,01,231,0611414,,,2025-09-24,清算の結了等,,,2015-10-05,1,,,,,エニワシテヲツナグイクセイカイ,0
1624,6460001000906,登記記録の閉鎖等,0,2025-10-17,2025-10-15,創建工業株式会社,,株式会社,北海道,釧路市,愛国西２丁目１３番１２号,,01,206,0850057,,,2025-10-15,清算の結了等,,,2015-10-05,1,,,,,ソウケンコウギョウ,0
1627,6480002015810,登記記録の閉鎖等,0,2025-10-17,2025-10-15,有限会社ほそや呉服店,,有限会社,徳島県,三好市,井川町辻１１６番地の９,00006107,36,208,7794801,,,2025-10-15,清算の結了等,,,2015-10-05,1,,,,,ホソヤゴフクテン,0
1633,7010001000413,登記記録の閉鎖等,0,2025-10-17,2025-09-29,アベール株式会社,,株式会社,東京都,文京区,大塚３丁目１８番９号,,13,105,1120012,,,2025-09-29,清算の結了等,,,2015-10-05,1,,,,,,0
1643,7010003032933,登記記録の閉鎖等,0,2025-10-17,2025-09-29,合同会社ＷＡＺＡｎａｕｔｓ,,合同会社,東京都,千代田区,麹町３丁目７－２４東急ドエルグラフィオ麹町５０５,,13,101,1020083,,,2025-09-29,清算の結了等,,,2020-08-31,1,,,,,ワザノーツ,0
1650,7010101004149,登記記録の閉鎖等,0,2025-10-17,2025-10-14,株式会社渡辺米会話研究所,,株式会社,東京都,八王子市,上川町１８７６番地,,13,201,1920151,,,2025-10-14,清算の結了等,,,2015-10-05,1,,,,,ワタナベベイカイワケンキュウジョ,0
1660,7010402034191,登記記録の閉鎖等,0,2025-10-17,2025-10-03,有限会社服部多希事務所,,有限会社,愛知県,海部郡蟹江町,舟入１丁目３４３番,,23,425,4970048,,,2025-10-03,清算の結了等,,,2015-10-05,1,,,,,ハットリタキジムショ,0
1669,7010602029198,登記記録の閉鎖等,0,2025-10-17,2025-10-06,有限会社リボルバー,,有限会社,東京都,墨田区,錦糸４丁目１６番３号サンハイツ錦糸公園８０３号,,13,107,1300013,,,2025-10-06,清算の結了等,,,2015-10-05,1,,,,,,0
1675,7010901005668,登記記録の閉鎖等,0,2025-10-17,2025-10-14,株式会社正進建設測量社,,株式会社,東京都,世田谷区,上祖師谷４丁目２１番１４号,,13,112,1570065,,,2025-10-14,清算の結了等,,,2015-10-05,1,,,,,セイシンケンセツソクリョウシャ,0
1682,7011001111712,登記記録の閉鎖等,0,2025-10-17,2025-09-16,株式会社Ｂａｓｓ,,株式会社,東京都,渋谷区,広尾１丁目７番２０号ＤＯＴビル４Ｆ,,13,113,1500012,,,2025-09-16,清算の結了等,,,2016-07-08,1,,,,,バース,0
1691,7011501032029,登記記録の閉鎖等,0,2025-10-17,2025-10-02,エンマイクロ・ジャパン株式会社,,株式会社,東京都,荒川区,東日暮里５丁目５０－５アートホテル日暮里ラングウッド３Ｆ,,13,118,1160014,,,2025-10-02,清算の結了等,,,2025-05-14,1,,,,,エンマイクロジャパン,0
1714,7021001026422,登記記録の閉鎖等,0,2025-10-17,2025-10-02,大明住宅産業株式会社,,株式会社,神奈川県,座間市,入谷東４丁目２９番６号,,14,216,2520028,,,2025-10-02,清算の結了等,,,2015-10-05,1,,,,,ダイメイジュウタクサンギョウ,0
1718,7021001081608,登記記録の閉鎖等,0,2025-10-17,2025-09-24,株式会社Ｄａｉｓｙ　Ｂｌｏｏｍ,,株式会社,神奈川県,綾瀬市,寺尾釜田２丁目１７番３３－３０５号,,14,218,2521135,,,2025-09-24,清算の結了等,,,2024-03-07,1,,,,,デイジーブルーム,0
1723,7021002043680,登記記録の閉鎖等,0,2025-10-17,2025-10-01,有限会社新精金型製作所,,有限会社,神奈川県,座間市,小松原１丁目１１番１６号,,14,216,2520002,,,2025-10-01,合併による解散等,9021001026172,令和７年１０月１日神奈川県座間市小松原一丁目１１番１６号株式会社アライアクソン（9021001026172）に合併し解散,2015-10-05,1,,,,,シンセイカナガタセイサクショ,0
1737,7040001021118,登記記録の閉鎖等,0,2025-10-17,2025-09-18,株式会社双葉商事,,株式会社,千葉県,八千代市,大和田３０８番地,,12,221,2760045,,,2025-09-18,清算の結了等,,,2015-10-05,1,,,,,フタバショウジ,0
1755,7060002007386,登記記録の閉鎖等,0,2025-10-17,2025-10-10,有限会社林自動車,,有限会社,栃木県,宇都宮市,屋板町６９２番３,,09,201,3210112,,,2025-10-10,合併による解散等,5060002002372,令和７年１０月１日栃木県宇都宮市宝木町一丁目３５番地Ｓ‐ＰＲＯ株式会社（5060002002372）に合併し解散,2015-10-05,1,,,,,ハヤシジドウシャ,0
1758,7070001027731,登記記録の閉鎖等,0,2025-10-17,2025-10-10,株式会社ビルトケア,,株式会社,群馬県,渋川市,渋川２０６４番地２２,,10,208,3770008,,,2025-10-10,清算の結了等,,,2015-10-05,1,,,,,ビルトケア,0
1763,7080101000835,登記記録の閉鎖等,0,2025-10-17,2025-10-10,株式会社しらかべ衣料百貨店,,株式会社,静岡県,駿東郡長泉町,中土狩７９５番地の１６,,22,342,4110942,,,2025-10-10,清算の結了等,,,2015-10-05,1,,,,,シラカベイリョウヒャッカテン,0
1775,7100002002655,登記記録の閉鎖等,0,2025-10-17,2025-10-15,有限会社清和,,有限会社,長野県,長野市,大字北堀５４３番地,,20,201,3810005,,,2025-10-15,清算の結了等,,,2015-10-05,1,,,,,セイワ,0
1784,7120001035910,登記記録の閉鎖等,0,2025-10-17,2025-09-29,株式会社永井書店,,株式会社,大阪府,大阪市福島区,福島８丁目２１番１５号,,27,103,5530003,,,2025-09-29,清算の結了等,,,2015-10-05,1,,,,,ナガイショテン,0
1785,7120001078562,登記記録の閉鎖等,0,2025-10-17,2025-10-06,クリエイト大証株式会社,,株式会社,大阪府,大阪市中央区,谷町４丁目４番１７－４０６号,,27,128,5400012,,,2025-10-06,清算の結了等,,,2015-10-05,1,,,,,クリエイトダイショウ,0
1813,7120901043566,登記記録の閉鎖等,0,2025-10-17,2025-10-15,株式会社マルエイ電工,,株式会社,大阪府,大阪市城東区,成育５丁目１４番８号,,27,118,5360007,,,2025-10-15,合併による解散等,3140001103891,令和７年１０月１日兵庫県西宮市馬場町１番２９号株式会社マルエイ（3140001103891）に合併し解散,2020-12-10,1,,,,,マルエイデンコウ,0
1821,7130001057094,登記記録の閉鎖等,0,2025-10-17,2025-10-14,株式会社ディーマン・ブラザーズ,,株式会社,京都府,木津川市,木津川台７丁目７番地１２,,26,214,6190225,,,2025-10-14,清算の結了等,,,2016-03-25,1,,,,,ディーマンブラザーズ,0
1839,7170002004356,登記記録の閉鎖等,0,2025-10-17,2025-10-15,有限会社オカ企画,,有限会社,和歌山県,和歌山市,弘西１０４２番地の１５,,30,201,6496339,,,2025-10-15,清算の結了等,,,2015-10-05,1,,,,,オカキカク,0
1841,7180001046836,登記記録の閉鎖等,0,2025-10-17,2025-10-01,株式会社ステージスタッフ名古屋,,株式会社,愛知県,名古屋市瑞穂区,前田町２丁目４４番地の４,,23,108,4670815,,,2025-10-01,清算の結了等,,,2015-10-05,1,,,,,ステージスタッフナゴヤ,0
1842,7180001058261,登記記録の閉鎖等,0,2025-10-17,2025-10-03,株式会社山幸,,株式会社,愛知県,名古屋市南区,大磯通４丁目１７番地の１,,23,112,4570048,,,2025-10-03,清算の結了等,,,2015-10-05,1,,,,,ヤマコウ,0
1852,7180005012966,登記記録の閉鎖等,0,2025-10-17,2025-10-15,妙法華寺,,その他の設立登記法人,愛知県,津島市,下切町字高橋１４番地,,23,208,4960029,,,2025-10-15,清算の結了等,,,2015-10-05,1,,,,,ミョウホッケジ,0
1861,7220001022535,登記記録の閉鎖等,0,2025-10-17,2025-10-14,株式会社ＯＭ,,株式会社,石川県,金沢市,木曳野１丁目１８７番地,,17,201,9200339,,,2025-10-14,合併による解散等,5010001231373,令和７年１０月１日東京都文京区湯島二丁目１６番１０号株式会社メディカルサポート（5010001231373）に合併し解散,2018-10-16,1,,,,,オーエム,0
1863,7240001056119,登記記録の閉鎖等,0,2025-10-17,2025-10-09,ロジスネクスト中国株式会社,,株式会社,広島県,広島市中区,江波沖町５番４５号,,34,101,7300837,,,2025-10-09,合併による解散等,8120001229206,令和７年１０月１日大阪府守口市大日東町３５番２号ロジスネクストジャパン株式会社（8120001229206）に合併し解散,2020-05-25,1,,,,,ロジスネクストチュウゴク,0
1865,7240002037803,登記記録の閉鎖等,0,2025-10-17,2025-10-10,有限会社吉岡水道工業,00001175,有限会社,広島県,大竹市,西栄２丁目８番２号,,34,211,7390603,,,2025-10-10,清算の結了等,,,2015-10-05,1,,,,,ヨシオカスイドウコウギョウ,0
1868,7250002012417,登記記録の閉鎖等,0,2025-10-17,2025-10-10,有限会社響,,有限会社,山口県,下関市,豊浦町大字川棚６９０３番地,,35,201,7596301,,,2025-10-10,清算の結了等,,,2015-10-05,1,,,,,ヒビキ,0
1873,7310002016477,登記記録の閉鎖等,0,2025-10-17,2025-10-16,有限会社山口技建,,有限会社,長崎県,諫早市,高来町小峰６５５番地,,42,204,8590123,,,2025-10-16,清算の結了等,,,2015-10-05,1,,,,,ヤマグチギケン,0
1874,7320002013309,登記記録の閉鎖等,0,2025-10-17,2025-10-07,有限会社弓道矢ドットコム,,有限会社,大分県,別府市,千代町９番１３号,,44,202,8740942,,,2025-10-07,清算の結了等,,,2015-10-05,1,,,,,キュウドウヤドットコム,0
1881,7360001024096,登記記録の閉鎖等,0,2025-10-17,2025-10-09,株式会社ビジョンリアライズ,,株式会社,沖縄県,うるま市,字大田１５０番地３,,47,213,9042224,,,2025-10-09,清算の結了等,,,2018-06-06,1,,,,,ビジョンリアライズ,0
1884,7370001005351,登記記録の閉鎖等,0,2025-10-17,2025-10-01,スタップ株式会社,,株式会社,宮城県,仙台市青葉区,双葉ケ丘１丁目４５番１１号,,04,101,9810924,,,2025-10-01,合併による解散等,7370001006176,令和７年１０月１日仙台市青葉区双葉ヶ丘一丁目４５番１１号ＭＳＤ株式会社（7370001006176）に合併し解散,2015-10-05,1,,,,,スタップ,0
1891,7370002000582,登記記録の閉鎖等,0,2025-10-17,2025-10-01,有限会社木村塗装店,,有限会社,宮城県,仙台市宮城野区,幸町１丁目１番１５号,,04,102,9830836,,,2025-10-01,清算の結了等,,,2015-10-05,1,,,,,キムラトソウテン,0
1893,7370602000189,登記記録の閉鎖等,0,2025-10-17,2025-10-01,有限会社伊藤与工務店,,有限会社,宮城県,多賀城市,大代１丁目３番３３号,,04,209,9850832,,,2025-10-01,清算の結了等,,,2015-10-05,1,,,,,イトウヨコウムテン,0
1898,7410001002377,登記記録の閉鎖等,0,2025-10-17,2025-10-15,牧野鉄工株式会社,,株式会社,秋田県,秋田市,雄和平沢字中嶋１７番地１,,05,201,0101221,,,2025-10-15,清算の結了等,,,2015-10-05,1,,,,,マキノテッコウ,0
1900,7410005001508,登記記録の閉鎖等,0,2025-10-17,2025-10-15,一般社団法人秋田県朝日会,,その他の設立登記法人,秋田県,秋田市,中通４丁目１７番１２号一建秋田ビル内,,05,201,0100001,,,2025-10-15,清算の結了等,,,2015-10-05,1,,,,,アキタケンアサヒカイ,0
1905,7430001043551,登記記録の閉鎖等,0,2025-10-17,2025-10-02,株式会社黒沢電気,,株式会社,北海道,千歳市,花園７丁目４番１１号,,01,224,0660028,,,2025-10-02,清算の結了等,,,2015-10-05,1,,,,,クロサワデンキ,0
1911,7450003002339,登記記録の閉鎖等,0,2025-10-17,2025-10-14,合同会社Ａｓｉｆ,,合同会社,北海道,旭川市,豊岡四条６丁目１１―１６,,01,204,0788234,,,2025-10-14,清算の結了等,,,2023-05-29,1,,,,,アズイフ,0
1913,7470001012445,登記記録の閉鎖等,0,2025-10-17,2025-10-14,コハスジャパン株式会社,,株式会社,香川県,小豆郡土庄町,乙１０８４番地７,,37,322,7614101,,,2025-10-14,清算の結了等,,,2015-10-05,1,,,,,コハスジャパン,0
1915,7480002004911,登記記録の閉鎖等,0,2025-10-17,2025-10-15,有限会社宮村自動車,,有限会社,徳島県,徳島市,論田町新開６８番地５,,36,201,7708011,,,2025-10-15,清算の結了等,,,2015-10-05,1,,,,,ミヤムラジドウシャ,0
1916,7480002005661,登記記録の閉鎖等,0,2025-10-17,2025-10-15,有限会社ピュアフード,,有限会社,徳島県,徳島市,新浜町１丁目１番１８号,,36,201,7708006,,,2025-10-15,清算の結了等,,,2015-10-05,1,,,,,ピュアフード,0
1932,8010005022997,登記記録の閉鎖等,0,2025-10-17,2025-10-15,一般社団法人アセアン進出支援協会,,その他の設立登記法人,東京都,中央区,銀座１丁目２０番１１号,,13,102,1040061,,,2025-10-15,清算の結了等,,,2015-10-05,1,,,,,アセアンシンシュツシエンキョウカイ,0
1942,8010501008120,登記記録の閉鎖等,0,2025-10-17,2025-10-02,株式会社ちとせ,,株式会社,東京都,台東区,上野４丁目７番７号,,13,106,1100005,,,2025-10-02,清算の結了等,,,2015-10-05,1,,,,,,0
1979,8020001040663,登記記録の閉鎖等,0,2025-10-17,2025-10-01,株式会社パイオラックスビジネスサービス,,株式会社,神奈川県,横浜市西区,花咲町６丁目１４５番地,,14,103,2200022,,,2025-10-01,合併による解散等,7020001030260,令和７年１０月１日横浜市西区花咲町六丁目１４５番地株式会社パイオラックス（7020001030260）に合併し解散,2015-10-05,1,,,,,パイオラックスビジネスサービス,0
1989,8020002105886,登記記録の閉鎖等,0,2025-10-17,2025-10-02,有限会社二四六宅送サービス,,有限会社,神奈川県,川崎市宮前区,南野川１丁目３２番２２－４０７号,,14,136,2160042,,,2025-10-02,清算の結了等,,,2015-10-05,1,,,,,ニイヨンロクタクソウサービス,0
1996,8030001091219,登記記録の閉鎖等,0,2025-10-17,2025-10-08,株式会社マルトミ,,株式会社,埼玉県,秩父郡横瀬町,大字横瀬８５０番地の４,,11,361,3680072,,,2025-10-08,清算の結了等,,,2015-10-05,1,,,,,マルトミ,0
2001,8030002058448,登記記録の閉鎖等,0,2025-10-17,2025-10-08,有限会社小片物産,,有限会社,埼玉県,朝霞市,膝折町１丁目４番６１号,,11,227,3510014,,,2025-10-08,清算の結了等,,,2015-10-05,1,,,,,オガタブッサン,0
2012,8040003015637,登記記録の閉鎖等,0,2025-10-17,2025-09-24,ＳＨＡＨＩＤＡ合同会社,,合同会社,千葉県,松戸市,竹ケ花１２４番地８（ダンディリオン・松戸２１２号室）,,12,207,2710072,,,2025-09-24,清算の結了等,,,2020-07-07,1,,,,,シャヒダ,0
2020,8060005007374,登記記録の閉鎖等,0,2025-10-17,2025-10-09,特定非営利活動法人エネルギーヒーリング協会,,その他の設立登記法人,栃木県,那須郡那須町,大字豊原丙１３４０那須まちづくり広場２２２,,09,407,3293225,,,2025-10-09,清算の結了等,,,2015-10-05,1,,,,,エネルギーヒーリングキョウカイ,0
2023,8070005006532,登記記録の閉鎖等,0,2025-10-17,2025-10-06,医療法人大塚医院,,その他の設立登記法人,群馬県,館林市,仲町１３番２７号,,10,207,3740029,,,2025-10-06,清算の結了等,,,2015-10-05,1,,,,,オオツカイイン,0
2026,8080401022553,登記記録の閉鎖等,0,2025-10-17,2025-10-15,株式会社イー・エム・シー工業,,株式会社,静岡県,浜松市中央区,下江町５８６番地,,22,138,4300825,,,2025-10-15,清算の結了等,,,2017-11-16,1,,,,,イーエムシーコウギョウ,0
2032,8100002002134,登記記録の閉鎖等,0,2025-10-17,2025-10-15,有限会社信濃青果,,有限会社,長野県,長野市,大字北尾張部１０８番地,,20,201,3810014,,,2025-10-15,清算の結了等,,,2015-10-05,1,,,,,シナノセイカ,0
2053,8120003017336,登記記録の閉鎖等,0,2025-10-17,2025-10-03,タイガー合同会社,,合同会社,大阪府,大阪市北区,中津２丁目８番Ａ－３２８号,,27,127,5310071,,,2025-10-03,清算の結了等,,,2020-04-15,1,,,,,タイガー,0
2054,8120003019761,登記記録の閉鎖等,0,2025-10-17,2025-10-03,むつみ技研合同会社,,合同会社,大阪府,門真市,大倉町２６番１５号,,27,223,5710068,,,2025-10-03,清算の結了等,,,2021-07-02,1,,,,,ムツミギケン,0
2061,8130001028359,登記記録の閉鎖等,0,2025-10-17,2025-10-14,株式会社シティヴィラ京都,,株式会社,京都府,京都市左京区,修学院泉殿町１５番地５５,,26,103,6068042,,,2025-10-14,清算の結了等,,,2015-10-05,1,,,,,シティヴィラキョウト,0
2066,8130002010720,登記記録の閉鎖等,0,2025-10-17,2025-10-14,有限会社木戸運輸,,有限会社,京都府,京都市南区,上鳥羽川端町２１５番地,,26,107,6018171,,,2025-10-14,清算の結了等,,,2015-10-05,1,,,,,キドウンユ,0
2068,8130002025231,登記記録の閉鎖等,0,2025-10-17,2025-10-15,有限会社仲澤運送,,有限会社,京都府,向日市,上植野町三ノ坪６番地１,,26,208,6170006,,,2025-10-15,清算の結了等,,,2015-10-05,1,,,,,ナカザワウンソウ,0
2074,8170002007317,登記記録の閉鎖等,0,2025-10-17,2025-10-16,有限会社さはら,,有限会社,和歌山県,有田市,箕島３４９番地,,30,204,6490304,,,2025-10-16,清算の結了等,,,2015-10-05,1,,,,,サハラ,0
2076,8180001074051,登記記録の閉鎖等,0,2025-10-17,2025-10-01,桑山工業株式会社,,株式会社,愛知県,春日井市,東野町５丁目２８番地１４,,23,206,4860817,,,2025-10-01,清算の結了等,,,2015-10-05,1,,,,,クワヤマコウギョウ,0
2077,8180001092945,登記記録の閉鎖等,0,2025-10-17,2025-10-03,城東電気工事株式会社,,株式会社,愛知県,知多郡南知多町,大字豊浜字中村１１番地,,23,445,4703412,,,2025-10-03,清算の結了等,,,2015-10-05,1,,,,,ジョウトウデンキコウジ,0
2101,8210002003955,登記記録の閉鎖等,0,2025-10-17,2025-10-15,有限会社レディスかけはし,,有限会社,福井県,福井市,御幸２丁目１番４号,,18,201,9100854,,,2025-10-15,清算の結了等,,,2015-10-05,1,,,,,レディスカケハシ,0
2125,8310002009001,登記記録の閉鎖等,0,2025-10-17,2025-10-10,有限会社アーム,,有限会社,長崎県,佐世保市,三川内本町２９番地３,,42,202,8593151,,,2025-10-10,清算の結了等,,,2015-10-05,1,,,,,アーム,0
2143,8370001010326,登記記録の閉鎖等,0,2025-10-17,2025-10-01,株式会社松葉屋,,株式会社,宮城県,仙台市青葉区,一番町４丁目５番２０号,,04,101,9800811,,,2025-10-01,合併による解散等,7370001010327,令和７年１０月１日仙台市青葉区国分町二丁目１２番１０号松葉屋不動産株式会社（7370001010327）に合併し解散,2015-10-05,1,,,,,マツバヤ,0
2158,8490001000554,登記記録の閉鎖等,0,2025-10-17,2025-10-01,株式会社ケンガス,,株式会社,高知県,高知市,一宮２８２７番地,,39,201,7818130,,,2025-10-01,合併による解散等,2490001000576,令和７年１０月１日高知市一宮２８２６番地高知液化瓦斯株式会社（2490001000576）に合併し解散,2015-10-05,1,,,,,ケンガス,0
2188,9010403029478,登記記録の閉鎖等,0,2025-10-17,2025-10-15,合同会社Ｐｅａｃｈ　Ｇｒａｐｅ　Ｍｕｓｉｃ,,合同会社,東京都,港区,北青山２丁目１１番３号Ａ－ＰＬＡＣＥ青山６階,,13,103,1070061,,,2025-10-15,合併による解散等,2013202014277,令和７年９月１日東京都渋谷区代官山町１４番１１号株式会社エフアールミュージック（2013202014277）に合併し解散,2023-02-09,1,,,,,ピーチグレープミュージック,0
2194,9010701019453,登記記録の閉鎖等,0,2025-10-17,2025-10-14,株式会社マネジメントサポートグループ,,株式会社,東京都,大田区,矢口３丁目２番１号（日本電機株式会社内）,,13,111,1460093,,,2025-10-14,合併による解散等,7010401045974,令和７年９月１日東京都港区芝五丁目１９番４号芝五ビル６階株式会社マネジメントサポート（7010401045974）に合併し解散,2015-10-05,1,,,,,マネジメントサポートグループ,0
2208,9011101082983,登記記録の閉鎖等,0,2025-10-17,2025-09-10,株式会社カミカゼ,,株式会社,東京都,新宿区,新宿５丁目４番１号２０２号室,,13,104,1600022,,,2025-09-10,清算の結了等,,,2018-01-30,1,,,,,カミカゼ,0
2216,9011501031986,登記記録の閉鎖等,0,2025-10-17,2025-10-09,株式会社本元,,株式会社,東京都,荒川区,町屋３丁目２４番２号面川ビル３２０号室,,13,118,1160001,,,2025-10-09,清算の結了等,,,2025-04-22,1,,,,,ホンゲン,0
2218,9011502009354,登記記録の閉鎖等,0,2025-10-17,2025-10-10,有限会社セキヤ運送,,有限会社,東京都,荒川区,町屋８丁目６番１５号,,13,118,1160001,,,2025-10-10,清算の結了等,,,2015-10-05,1,,,,,セキヤウンソウ,0
2221,9011801024434,登記記録の閉鎖等,0,2025-10-17,2025-10-14,株式会社壷々炉,,株式会社,東京都,足立区,綾瀬２丁目２７番１２号,,13,121,1200005,,,2025-10-14,清算の結了等,,,2015-10-05,1,"COCORO CERAMICS TRADING Co., Ltd.",Tokyo,"2-27-12, Ayase, Adachi ku",,,0
2222,9012301012598,登記記録の閉鎖等,0,2025-10-17,2025-10-01,株式会社エージェーエム,,株式会社,東京都,町田市,高ヶ坂７丁目３４－９・１Ｆ,,13,209,1940014,,,2025-10-01,清算の結了等,,,2021-06-18,1,,,,,エージェーエム,0
2237,9020002018071,登記記録の閉鎖等,0,2025-10-17,2025-09-30,有限会社樹塗防,,有限会社,神奈川県,横浜市栄区,小菅ケ谷３丁目５５番５号,,14,115,2470007,,,2025-09-30,清算の結了等,,,2015-10-05,1,,,,,タツキトボウ,0
2238,9020003021652,登記記録の閉鎖等,0,2025-10-17,2025-09-18,合同会社Ｍｕｓｅ,,合同会社,神奈川県,川崎市川崎区,貝塚２丁目１番３－７０１号,,14,131,2100014,,,2025-09-18,清算の結了等,,,2022-04-20,1,,,,,ミューズ,0
2240,9020003024696,登記記録の閉鎖等,0,2025-10-17,2025-10-01,合同会社Ｙｍｄｋｉｔ,,合同会社,神奈川県,川崎市川崎区,駅前本町１８番１号メルスサイトー７０２,,14,131,2100007,,,2025-10-01,合併による解散等,1020001157596,令和７年１０月１日神奈川県川崎市川崎区駅前本町１８番１号メルスサイトー７０２株式会社ＱｕｉｚＭａｒｋｅｔ（1020001157596）に合併し解散,2023-10-03,1,,,,,ワイエムディーキット,0
2266,9030002117442,登記記録の閉鎖等,0,2025-10-17,2025-09-16,旭塗装有限会社,,有限会社,埼玉県,行田市,本丸９番１６号,,11,206,3610052,,,2025-09-16,清算の結了等,,,2015-10-05,1,,,,,アサヒトソウ,0
2270,9040001084014,登記記録の閉鎖等,0,2025-10-17,2025-09-17,株式会社美期,,株式会社,千葉県,東金市,東金１１９９番地,,12,213,2830802,,,2025-09-17,清算の結了等,,,2015-10-05,1,,,,,ミキ,0
2282,9060001001628,登記記録の閉鎖等,0,2025-10-17,2025-10-14,興明電気株式会社,,株式会社,栃木県,宇都宮市,江曽島本町７番１４号,,09,201,3210101,,,2025-10-14,清算の結了等,,,2015-10-05,1,,,,,コウメイデンキ,0
2284,9060001007261,登記記録の閉鎖等,0,2025-10-17,2025-10-14,株式会社ツートップ,,株式会社,栃木県,宇都宮市,横山３丁目１８番８号,,09,201,3200005,,,2025-10-14,清算の結了等,,,2015-10-05,1,,,,,ツートップ,0
2293,9080101007804,登記記録の閉鎖等,0,2025-10-17,2025-10-10,株式会社駿東管工,,株式会社,静岡県,裾野市,公文名４３１番地の３４,,22,220,4101112,,,2025-10-10,清算の結了等,,,2015-10-05,1,,,,,スントウカンコウ,0
2294,9080102002696,登記記録の閉鎖等,0,2025-10-17,2025-10-14,有限会社西阿原製作所,,有限会社,静岡県,沼津市,西沢田８２－２,,22,203,4100007,,,2025-10-14,清算の結了等,,,2015-10-05,1,,,,,ニシアハラセイサクショ,0
2300,9110001019169,登記記録の閉鎖等,0,2025-10-17,2025-10-07,株式会社総合食品かねだ,,株式会社,新潟県,上越市,東本町４丁目１番１２号,,15,222,9430825,,,2025-10-07,清算の結了等,,,2015-10-05,1,,,,,ソウゴウショクヒンカネダ,0
2326,9120002010596,登記記録の閉鎖等,0,2025-10-17,2025-10-06,有限会社あるまーと,,有限会社,大阪府,大阪市平野区,長吉出戸１丁目１－３－４０２,,27,126,5470011,,,2025-10-06,清算の結了等,,,2015-10-05,1,,,,,アルマート,0
2329,9120003022434,登記記録の閉鎖等,0,2025-10-17,2025-10-06,Ｂｌｕｅ　Ｌａｇｏｏｎ合同会社,,合同会社,大阪府,大阪市東淀川区,東中島３丁目２－６－７Ｆ,,27,114,5330033,,,2025-10-06,清算の結了等,,,2022-09-13,1,,,,,ブルーラグーン,0
2352,9140002053420,登記記録の閉鎖等,0,2025-10-17,2025-10-15,株式会社サポート光陽,,株式会社,兵庫県,姫路市,北条永良町１１５,,28,201,6700946,,,2025-10-15,清算の結了等,,,2015-10-05,1,,,,,サポートコウヨウ,0
2356,9160001011600,登記記録の閉鎖等,0,2025-10-17,2025-10-14,株式会社清宝,,株式会社,滋賀県,東近江市,桜川西町字向川原３６８番地１,,25,213,5291572,,,2025-10-14,清算の結了等,,,2015-10-05,1,,,,,セイホウ,0
2357,9160001013365,登記記録の閉鎖等,0,2025-10-17,2025-10-09,小松林業株式会社,,株式会社,滋賀県,栗東市,下戸山９７２番地,,25,208,5203011,,,2025-10-09,清算の結了等,,,2015-10-05,1,,,,,コマツリンギョウ,0
2363,9180001051198,登記記録の閉鎖等,0,2025-10-17,2025-10-14,株式会社ワイオー・システム,,株式会社,岐阜県,海津市,海津町沼新田５１７番地３,,21,221,5030634,,,2025-10-14,清算の結了等,,,2015-10-05,1,,,,,ワイオーシステム,0
2368,9180002050562,登記記録の閉鎖等,0,2025-10-17,2025-10-03,有限会社サンメンテナンス,,有限会社,愛知県,名古屋市港区,港栄１丁目３番２０号,,23,111,4550015,,,2025-10-03,清算の結了等,,,2015-10-05,1,,,,,サンメンテナンス,0
2369,9180002067227,登記記録の閉鎖等,0,2025-10-17,2025-10-07,有限会社ベーシック,,有限会社,愛知県,春日井市,新開町字平渕１０８番地の１,,23,206,4860902,,,2025-10-07,清算の結了等,,,2015-10-05,1,,,,,ベーシック,0
2374,9190002009855,登記記録の閉鎖等,0,2025-10-17,2025-10-06,村田ビル管理有限会社,,有限会社,三重県,伊勢市,岩渕１丁目１２番１８号,,24,203,5160037,,,2025-10-06,清算の結了等,,,2015-10-05,1,,,,,ムラタビルカンリ,0
2379,9240001023281,登記記録の閉鎖等,0,2025-10-17,2025-10-09,株式会社岡下瓦店,,株式会社,広島県,東広島市,安芸津町木谷３８７番地２９,,34,212,7392401,,,2025-10-09,清算の結了等,,,2015-10-05,1,,,,,オカシタカワラテン,0
2381,9240001044492,登記記録の閉鎖等,0,2025-10-17,2025-10-10,株式会社タカラ,,株式会社,広島県,広島市南区,黄金山町６２１番地１,,34,103,7340041,,,2025-10-10,清算の結了等,,,2015-10-05,1,,,,,タカラ,0
2382,9240001059747,登記記録の閉鎖等,0,2025-10-17,2025-10-10,ｌａ　ｌｉｂｅｒｔａ　ｄｅｓｉｇｎ　ｏｆｆｉｃｅ株式会社,,株式会社,広島県,広島市中区,東千田町１丁目１番２９号,,34,101,7300053,,,2025-10-10,清算の結了等,,,2022-05-10,1,,,,,ラリベルタデザインオフィス,0
2386,9250001005023,登記記録の閉鎖等,0,2025-10-17,2025-10-14,アオバ薬品株式会社,,株式会社,山口県,下関市,彦島江の浦町６丁目１５番１１号,,35,201,7500075,,,2025-10-14,清算の結了等,,,2015-10-05,1,,,,,アオバヤクヒン,0
2401,9290802011777,登記記録の閉鎖等,0,2025-10-17,2025-10-16,有限会社新門司自動車整備工場,,有限会社,福岡県,北九州市門司区,大字恒見１３８４番２,,40,101,8000117,,,2025-10-16,清算の結了等,,,2015-10-05,1,,,,,シンモジジドウシャセイビコウジョウ,0
2424,9370601000155,登記記録の閉鎖等,0,2025-10-17,2025-10-02,株式会社カネサ佐藤工務店,,株式会社,宮城県,塩竈市,松陽台１丁目４番８号,,04,203,9850071,,,2025-10-02,清算の結了等,,,2015-10-05,1,,,,,カネササトウコウムテン,0
2428,9400001004843,登記記録の閉鎖等,0,2025-10-17,2025-10-01,株式会社エムジーエム,,株式会社,岩手県,盛岡市,肴町６番４号,,03,201,0200878,,,2025-10-01,合併による解散等,2400001000171,令和７年１０月１日岩手県盛岡市肴町６番４号インディ商事株式会社（2400001000171）に合併し解散,2015-10-05,1,,,,,,0
2435,9430001003751,登記記録の閉鎖等,0,2025-10-17,2025-10-14,株式会社カトウ商会,,株式会社,北海道,札幌市中央区,南二十条西７丁目１番３号,,01,101,0640920,,,2025-10-14,清算の結了等,,,2015-10-05,1,,,,,カトウショウカイ,0
2438,9430002048614,登記記録の閉鎖等,0,2025-10-17,2025-10-03,有限会社安田建築,,有限会社,北海道,恵庭市,北柏木町１丁目１９番１３号,,01,231,0611433,,,2025-10-03,清算の結了等,,,2015-10-05,1,,,,,ヤスダケンチク,0
2439,9430003014879,登記記録の閉鎖等,0,2025-10-17,2025-10-02,合同会社大喜,,合同会社,北海道,空知郡南幌町,東町１丁目１１番２号,,01,423,0690233,,,2025-10-02,清算の結了等,,,2023-04-11,1,,,,,ダイキ,0
2444,9480002003151,登記記録の閉鎖等,0,2025-10-17,2025-10-15,有限会社伊達清吉商店,,有限会社,徳島県,徳島市,南沖洲１丁目５番１３号,,36,201,7700874,,,2025-10-15,清算の結了等,,,2015-10-05,1,,,,,ダテセイキチショウテン,0
2447,9500002017776,登記記録の閉鎖等,0,2025-10-17,2025-10-14,有限会社今治教材,,有限会社,愛媛県,今治市,上徳甲４６５番地１７,,38,202,7991511,,,2025-10-14,清算の結了等,,,2015-10-05,1,,,,,イマバリキョウザイ,0
